station,valid,metar
ZBYN,2004-01-01 00:00,ZBYN 010000Z AUTO 32006KT 5SM M01/M15 A3021 RMK SLP280 T10121153 52007 IEM_DS3505
ZBYN,2004-01-01 01:00,ZBYN 010100Z AUTO 30012KT 6SM M01/M16 A3024 RMK T10101160 IEM_DS3505
ZBYN,2004-01-01 02:00,ZBYN 010200Z AUTO 30010KT 6SM 01/M15 A3024 RMK T00101150 IEM_DS3505
ZBYN,2004-01-01 03:00,ZBYN 010300Z AUTO 29016KT 6SM 02/M14 A3021 RMK SLP282 T00161144 57002 IEM_DS3505
ZBYN,2004-01-01 04:00,ZBYN 010400Z AUTO 30012KT 6SM 03/M16 A3021 RMK T00301160 IEM_DS3505
ZBYN,2004-01-01 05:00,ZBYN 010500Z AUTO 31017KT 6SM 04/M17 A3015 RMK T00401170 IEM_DS3505
ZBYN,2004-01-01 06:00,ZBYN 010600Z AUTO 29010KT 7SM 04/M16 A3015 RMK SLP258 T00381159 57021 IEM_DS3505
ZBYN,2004-01-01 07:00,ZBYN 010700Z AUTO 30012KT 6SM 04/M18 A3015 RMK T00401180 IEM_DS3505
ZBYN,2004-01-01 08:00,ZBYN 010800Z AUTO 30016KT 6SM 03/M19 A3015 RMK T00301190 IEM_DS3505
ZBYN,2004-01-01 09:00,ZBYN 010900Z AUTO 32008KT 9SM 01/M17 A3018 RMK SLP269 T00141174 52013 IEM_DS3505
ZBYN,2004-01-01 10:00,ZBYN 011000Z AUTO 30010KT 6SM 00/M19 A3021 RMK T00001190 IEM_DS3505
ZBYN,2004-01-01 11:00,ZBYN 011100Z AUTO 27004KT 6SM M02/M19 A3021 RMK T10201190 IEM_DS3505
ZBYN,2004-01-01 12:00,ZBYN 011200Z AUTO 27002KT 11SM M01/M15 A3021 RMK SLP277 T10061154 52009 IEM_DS3505
ZBYN,2004-01-01 13:00,ZBYN 011300Z AUTO 25004KT 6SM M02/M16 A3021 RMK T10201160 IEM_DS3505
ZBYN,2004-01-01 14:00,ZBYN 011400Z AUTO 26006KT 6SM M02/M15 A3021 RMK T10201150 IEM_DS3505
ZBYN,2004-01-01 15:00,ZBYN 011500Z AUTO 22002KT 9SM M03/M14 A3021 RMK SLP276 T10321136 57002 IEM_DS3505
ZBYN,2004-01-01 16:00,ZBYN 011600Z AUTO 21002KT 6SM M06/M15 A3021 RMK T10601150 IEM_DS3505
ZBYN,2004-01-01 17:00,ZBYN 011700Z AUTO 26004KT 6SM M06/M14 A3021 RMK T10601140 IEM_DS3505
ZBYN,2004-01-01 18:00,ZBYN 011800Z AUTO 25002KT 9SM M06/M14 A3018 RMK SLP276 T10621137 57005 IEM_DS3505
ZBYN,2004-01-01 19:00,ZBYN 011900Z AUTO 6SM M10/M16 A3018 RMK T11001160 IEM_DS3505
ZBYN,2004-01-01 20:00,ZBYN 012000Z AUTO 00000KT 6SM M09/M15 A3015 RMK T10901150 IEM_DS3505
ZBYN,2004-01-01 21:00,ZBYN 012100Z AUTO 11004KT 6SM M09/M14 A3015 RMK SLP269 T10861141 57015 IEM_DS3505
ZBYN,2004-01-01 22:00,ZBYN 012200Z AUTO 10002KT 6SM M12/M17 A3015 RMK T11201170 IEM_DS3505
ZBYN,2004-01-01 23:00,ZBYN 012300Z AUTO 12002KT 6SM M11/M16 A3015 RMK T11101160 IEM_DS3505
ZBYN,2004-01-02 00:00,ZBYN 020000Z AUTO 11006KT 6SM M09/M14 A3015 RMK SLP279 T10921145 52005 IEM_DS3505
ZBYN,2004-01-02 01:00,ZBYN 020100Z AUTO 13002KT M08/M14 A3018 RMK T10801140 IEM_DS3505
ZBYN,2004-01-02 02:00,ZBYN 020200Z AUTO M03/M14 A3018 RMK T10301140 IEM_DS3505
ZBYN,2004-01-02 03:00,ZBYN 020300Z AUTO 18004KT 5SM M01/M14 A3015 RMK SLP274 T10091140 52005 IEM_DS3505
ZBYN,2004-01-02 04:00,ZBYN 020400Z AUTO 24004KT 6SM 02/M16 A3012 RMK T00201160 IEM_DS3505
ZBYN,2004-01-02 05:00,ZBYN 020500Z AUTO 23006KT 6SM 04/M18 A3009 RMK T00401180 IEM_DS3505
ZBYN,2004-01-02 06:00,ZBYN 020600Z AUTO 20008KT 7SM 06/M17 A3006 RMK SLP228 T00551168 57036 IEM_DS3505
ZBYN,2004-01-02 07:00,ZBYN 020700Z AUTO 23006KT 6SM 06/M20 A3003 RMK T00601200 IEM_DS3505
ZBYN,2004-01-02 08:00,ZBYN 020800Z AUTO 24006KT 6SM 07/M21 A3003 RMK T00701210 IEM_DS3505
ZBYN,2004-01-02 09:00,ZBYN 020900Z AUTO 25004KT 9SM 05/M18 A3003 RMK SLP227 T00481181 57006 IEM_DS3505
ZBYN,2004-01-02 10:00,ZBYN 021000Z AUTO 25002KT 6SM 02/M21 A3006 RMK T00201210 IEM_DS3505
ZBYN,2004-01-02 11:00,ZBYN 021100Z AUTO 6SM 00/M21 A3009 RMK T00001210 IEM_DS3505
ZBYN,2004-01-02 12:00,ZBYN 021200Z AUTO 32006KT 9SM M02/M18 A3012 RMK SLP267 T10181178 52024 IEM_DS3505
ZBYN,2004-01-02 13:00,ZBYN 021300Z AUTO 09004KT 6SM M08/M20 A3015 RMK T10801200 IEM_DS3505
ZBYN,2004-01-02 14:00,ZBYN 021400Z AUTO 6SM M08/M20 A3015 RMK T10801200 IEM_DS3505
ZBYN,2004-01-02 15:00,ZBYN 021500Z AUTO 14002KT 9SM M05/M18 A3018 RMK SLP277 T10471184 52018 IEM_DS3505
ZBYN,2004-01-02 16:00,ZBYN 021600Z AUTO 11004KT 6SM M08/M20 A3018 RMK T10801200 IEM_DS3505
ZBYN,2004-01-02 17:00,ZBYN 021700Z AUTO 11004KT 6SM M10/M20 A3018 RMK T11001200 IEM_DS3505
ZBYN,2004-01-02 18:00,ZBYN 021800Z AUTO 22002KT 9SM M09/M18 A3018 RMK SLP276 T10911175 52003 IEM_DS3505
ZBYN,2004-01-02 19:00,ZBYN 021900Z AUTO 10002KT 6SM M11/M20 A3018 RMK T11101200 IEM_DS3505
ZBYN,2004-01-02 20:00,ZBYN 022000Z AUTO 12004KT 6SM M10/ RMK IEM_DS3505
ZBYN,2004-01-02 21:00,ZBYN 022100Z AUTO 00000KT 9SM M11/M16 A3018 RMK SLP282 T11061164 52001 IEM_DS3505
ZBYN,2004-01-02 22:00,ZBYN 022200Z AUTO 00000KT 6SM M12/M19 A3018 RMK T11201190 IEM_DS3505
ZBYN,2004-01-02 23:00,ZBYN 022300Z AUTO 6SM M13/M18 A3021 RMK T11301180 IEM_DS3505
ZBYN,2004-01-03 00:00,ZBYN 030000Z AUTO 32002KT 6SM M09/M14 A3021 RMK SLP303 T10881143 52011 IEM_DS3505
ZBYN,2004-01-03 01:00,ZBYN 030100Z AUTO 13002KT 4SM A3024 RMK IEM_DS3505
ZBYN,2004-01-03 02:00,ZBYN 030200Z AUTO 00000KT 3SM A3027 RMK IEM_DS3505
ZBYN,2004-01-03 03:00,ZBYN 030300Z AUTO 04002KT 4SM M01/M12 A3024 RMK SLP304 T10101125 52009 IEM_DS3505
ZBYN,2004-01-03 04:00,ZBYN 030400Z AUTO 00000KT 5SM 02/M16 A3021 RMK T00201160 IEM_DS3505
ZBYN,2004-01-03 05:00,ZBYN 030500Z AUTO 19002KT 6SM 04/M18 A3018 RMK T00401180 IEM_DS3505
ZBYN,2004-01-03 06:00,ZBYN 030600Z AUTO 18004KT 5SM 05/M15 A3015 RMK SLP268 T00471151 57030 IEM_DS3505
ZBYN,2004-01-03 07:00,ZBYN 030700Z AUTO 23004KT 6SM 06/M18 A3012 RMK T00601180 IEM_DS3505
ZBYN,2004-01-03 08:00,ZBYN 030800Z AUTO 24002KT 6SM 06/M18 A3015 RMK T00601180 IEM_DS3505
ZBYN,2004-01-03 09:00,ZBYN 030900Z AUTO 16004KT 7SM 04/M16 A3015 RMK SLP272 T00351161 57001 IEM_DS3505
ZBYN,2004-01-03 10:00,ZBYN 031000Z AUTO 32002KT 6SM 00/M18 A3015 RMK T00001180 IEM_DS3505
ZBYN,2004-01-03 11:00,ZBYN 031100Z AUTO 12004KT M06/M19 A3018 RMK T10601190 IEM_DS3505
ZBYN,2004-01-03 12:00,ZBYN 031200Z AUTO 32002KT 5SM M02/M13 A3021 RMK SLP295 T10191133 52015 IEM_DS3505
ZBYN,2004-01-03 13:00,ZBYN 031300Z AUTO 14004KT 6SM M07/M17 A3021 RMK T10701170 IEM_DS3505
ZBYN,2004-01-03 14:00,ZBYN 031400Z AUTO 00000KT 6SM M07/M18 A3021 RMK T10701180 IEM_DS3505
ZBYN,2004-01-03 15:00,ZBYN 031500Z AUTO 00000KT 4SM M07/M15 A3024 RMK SLP301 T10691153 52010 IEM_DS3505
ZBYN,2004-01-03 16:00,ZBYN 031600Z AUTO 10004KT 6SM M10/M18 A3021 RMK T11001180 IEM_DS3505
ZBYN,2004-01-03 17:00,ZBYN 031700Z AUTO 11002KT 6SM M09/M18 A3024 RMK T10901180 IEM_DS3505
ZBYN,2004-01-03 18:00,ZBYN 031800Z AUTO 14002KT 4SM M09/M15 A3024 RMK SLP297 T10871148 52003 IEM_DS3505
ZBYN,2004-01-03 19:00,ZBYN 031900Z AUTO 10002KT 6SM M10/M17 A3024 RMK T11001170 IEM_DS3505
ZBYN,2004-01-03 20:00,ZBYN 032000Z AUTO 11004KT 6SM M12/M18 A3024 RMK T11201180 IEM_DS3505
ZBYN,2004-01-03 21:00,ZBYN 032100Z AUTO 16002KT 4SM M10/M15 A3024 RMK SLP298 T11041148 57004 IEM_DS3505
ZBYN,2004-01-03 22:00,ZBYN 032200Z AUTO 14002KT 6SM M11/M17 A3021 RMK T11101170 IEM_DS3505
ZBYN,2004-01-03 23:00,ZBYN 032300Z AUTO 05002KT 5SM A3024 RMK IEM_DS3505
ZBYN,2004-01-04 00:00,ZBYN 040000Z AUTO 14002KT 3SM M10/M14 A3027 RMK SLP323 T11051144 52013 IEM_DS3505
ZBYN,2004-01-04 01:00,ZBYN 040100Z AUTO 2 1/2SM A3030 RMK IEM_DS3505
ZBYN,2004-01-04 02:00,ZBYN 040200Z AUTO 00000KT 2SM M06/M14 A3030 RMK T10601140 IEM_DS3505
ZBYN,2004-01-04 03:00,ZBYN 040300Z AUTO 04002KT 2 1/2SM M01/M12 A3027 RMK SLP319 T10121124 52004 IEM_DS3505
ZBYN,2004-01-04 04:00,ZBYN 040400Z AUTO 17002KT 2 1/2SM 01/M15 A3024 RMK T00101150 IEM_DS3505
ZBYN,2004-01-04 05:00,ZBYN 040500Z AUTO 04/M16 A3021 RMK T00401160 IEM_DS3505
ZBYN,2004-01-04 06:00,ZBYN 040600Z AUTO 20004KT 3SM 04/M14 A3018 RMK SLP280 T00431139 57029 IEM_DS3505
ZBYN,2004-01-04 07:00,ZBYN 040700Z AUTO 25002KT 05/M16 A3018 RMK T00501160 IEM_DS3505
ZBYN,2004-01-04 08:00,ZBYN 040800Z AUTO 21002KT 3SM 05/M16 A3018 RMK T00501160 IEM_DS3505
ZBYN,2004-01-04 09:00,ZBYN 040900Z AUTO 16002KT 4SM 02/M14 A3018 RMK SLP283 T00201141 57004 IEM_DS3505
ZBYN,2004-01-04 10:00,ZBYN 041000Z AUTO 02002KT 4SM A3018 RMK IEM_DS3505
ZBYN,2004-01-04 11:00,ZBYN 041100Z AUTO 09002KT 2 1/2SM M05/M16 A3021 RMK T10501160 IEM_DS3505
ZBYN,2004-01-04 12:00,ZBYN 041200Z AUTO 29002KT 4SM M02/M11 A3024 RMK SLP310 T10241109 52017 IEM_DS3505
ZBYN,2004-01-04 13:00,ZBYN 041300Z AUTO 13002KT 2 1/2SM M06/M16 A3024 RMK T10601160 IEM_DS3505
ZBYN,2004-01-04 14:00,ZBYN 041400Z AUTO 09002KT M06/M16 A3024 RMK T10601160 IEM_DS3505
ZBYN,2004-01-04 15:00,ZBYN 041500Z AUTO 18002KT 4SM M06/M13 A3024 RMK SLP309 T10651131 52008 IEM_DS3505
ZBYN,2004-01-04 16:00,ZBYN 041600Z AUTO 00000KT 3SM M08/M15 A3024 RMK T10801150 IEM_DS3505
ZBYN,2004-01-04 17:00,ZBYN 041700Z AUTO 00000KT 2 1/2SM M08/M15 A3027 RMK T10801150 IEM_DS3505
ZBYN,2004-01-04 18:00,ZBYN 041800Z AUTO 14002KT 5SM M08/M14 A3027 RMK SLP309 T10811137 52006 IEM_DS3505
ZBYN,2004-01-04 19:00,ZBYN 041900Z AUTO 08002KT M10/M16 A3027 RMK T11001160 IEM_DS3505
ZBYN,2004-01-04 20:00,ZBYN 042000Z AUTO 06002KT 5SM M10/M16 A3027 RMK T11001160 IEM_DS3505
ZBYN,2004-01-04 21:00,ZBYN 042100Z AUTO 34002KT 6SM M09/M13 A3027 RMK SLP311 T10861127 57003 IEM_DS3505
ZBYN,2004-01-04 22:00,ZBYN 042200Z AUTO 11004KT 6SM M10/M16 A3027 RMK T11001160 IEM_DS3505
ZBYN,2004-01-04 23:00,ZBYN 042300Z AUTO 4SM M11/M16 A3027 RMK T11101160 IEM_DS3505
ZBYN,2004-01-05 00:00,ZBYN 050000Z AUTO 07002KT 5SM M10/M14 A3030 RMK SLP334 T11031142 52011 IEM_DS3505
ZBYN,2004-01-05 01:00,ZBYN 050100Z AUTO 12002KT 1 1/2SM A3030 RMK IEM_DS3505
ZBYN,2004-01-05 02:00,ZBYN 050200Z AUTO 13002KT 2SM M04/M13 A3033 RMK T10401130 IEM_DS3505
ZBYN,2004-01-05 03:00,ZBYN 050300Z AUTO 16004KT 4SM 00/M13 A3030 RMK SLP326 T00021127 52003 IEM_DS3505
ZBYN,2004-01-05 04:00,ZBYN 050400Z AUTO 22002KT 2SM 02/M15 A3030 RMK T00201150 IEM_DS3505
ZBYN,2004-01-05 05:00,ZBYN 050500Z AUTO 2SM 03/M14 A3024 RMK T00301140 IEM_DS3505
ZBYN,2004-01-05 06:00,ZBYN 050600Z AUTO 25002KT 4SM 04/M13 A3021 RMK SLP291 T00361131 57028 IEM_DS3505
ZBYN,2004-01-05 07:00,ZBYN 050700Z AUTO 23002KT 1SM 03/M14 A3021 RMK T00301140 IEM_DS3505
ZBYN,2004-01-05 08:00,ZBYN 050800Z AUTO 00000KT 1SM 01/M13 A3024 RMK T00101130 IEM_DS3505
ZBYN,2004-01-05 09:00,ZBYN 050900Z AUTO 07002KT 2SM 02/M12 A3024 RMK SLP299 T00151115 52003 IEM_DS3505
ZBYN,2004-01-05 10:00,ZBYN 051000Z AUTO 00000KT 1SM 00/M13 A3024 RMK T00001130 IEM_DS3505
ZBYN,2004-01-05 11:00,ZBYN 051100Z AUTO 22002KT 1SM M01/M12 A3027 RMK T10101120 IEM_DS3505
ZBYN,2004-01-05 12:00,ZBYN 051200Z AUTO 09004KT 2 1/2SM M01/M11 A3027 RMK SLP324 T10141107 52014 IEM_DS3505
ZBYN,2004-01-05 13:00,ZBYN 051300Z AUTO 10004KT 1 1/4SM M02/M13 A3030 RMK T10201130 IEM_DS3505
ZBYN,2004-01-05 14:00,ZBYN 051400Z AUTO 10002KT 1 1/2SM M02/M12 A3030 RMK T10201120 IEM_DS3505
ZBYN,2004-01-05 15:00,ZBYN 051500Z AUTO 00000KT 4SM M01/M11 A3030 RMK SLP315 T10121107 52010 IEM_DS3505
ZBYN,2004-01-05 16:00,ZBYN 051600Z AUTO 13004KT 1 1/2SM M02/M12 A3030 RMK T10201120 IEM_DS3505
ZBYN,2004-01-05 17:00,ZBYN 051700Z AUTO 12004KT M03/M12 A3030 RMK T10301120 IEM_DS3505
ZBYN,2004-01-05 18:00,ZBYN 051800Z AUTO 02002KT 3SM M02/M10 A3030 RMK SLP310 T10241102 57001 IEM_DS3505
ZBYN,2004-01-05 19:00,ZBYN 051900Z AUTO 11002KT 1 1/2SM A3030 RMK IEM_DS3505
ZBYN,2004-01-05 20:00,ZBYN 052000Z AUTO 12002KT 2SM A3030 RMK IEM_DS3505
ZBYN,2004-01-05 21:00,ZBYN 052100Z AUTO 32002KT 3SM M06/M10 A3027 RMK SLP307 T10621102 57012 IEM_DS3505
ZBYN,2004-01-05 22:00,ZBYN 052200Z AUTO 00000KT 1 1/2SM A3027 RMK IEM_DS3505
ZBYN,2004-01-05 23:00,ZBYN 052300Z AUTO 12002KT 1 1/4SM A3027 RMK IEM_DS3505
ZBYN,2004-01-06 00:00,ZBYN 060000Z AUTO 09002KT 3SM M06/M11 A3030 RMK SLP324 T10651109 52010 IEM_DS3505
ZBYN,2004-01-06 01:00,ZBYN 060100Z AUTO 13004KT 1SM M08/M10 A3030 RMK T10801100 IEM_DS3505
ZBYN,2004-01-06 02:00,ZBYN 060200Z AUTO 10002KT 1SM M04/M08 A3033 RMK T10401080 IEM_DS3505
ZBYN,2004-01-06 03:00,ZBYN 060300Z AUTO 14004KT 2 1/2SM M00/M07 A3030 RMK SLP317 T10011071 52005 IEM_DS3505
ZBYN,2004-01-06 04:00,ZBYN 060400Z AUTO 18004KT 1 1/4SM 03/M07 A3027 RMK T00301070 IEM_DS3505
ZBYN,2004-01-06 05:00,ZBYN 060500Z AUTO 21002KT 2 1/2SM 04/M06 A3024 RMK T00401060 IEM_DS3505
ZBYN,2004-01-06 06:00,ZBYN 060600Z AUTO 22006KT 2 1/2SM 04/M05 A3021 RMK SLP280 T00431046 57029 IEM_DS3505
ZBYN,2004-01-06 07:00,ZBYN 060700Z AUTO 24002KT 2SM 05/M08 A3021 RMK T00501080 IEM_DS3505
ZBYN,2004-01-06 08:00,ZBYN 060800Z AUTO 23002KT 2SM 05/M07 A3024 RMK T00501070 IEM_DS3505
ZBYN,2004-01-06 09:00,ZBYN 060900Z AUTO 07004KT 2 1/2SM 03/M06 A3024 RMK SLP295 T00331058 52006 IEM_DS3505
ZBYN,2004-01-06 10:00,ZBYN 061000Z AUTO 09002KT 5SM A3024 RMK IEM_DS3505
ZBYN,2004-01-06 11:00,ZBYN 061100Z AUTO 11002KT 4SM A3027 RMK IEM_DS3505
ZBYN,2004-01-06 12:00,ZBYN 061200Z AUTO 32004KT 2 1/2SM M00/M07 A3030 RMK SLP320 T10041074 52016 IEM_DS3505
ZBYN,2004-01-06 13:00,ZBYN 061300Z AUTO 04002KT 1 1/4SM A3030 RMK IEM_DS3505
ZBYN,2004-01-06 14:00,ZBYN 061400Z AUTO 1 1/4SM A3033 RMK IEM_DS3505
ZBYN,2004-01-06 15:00,ZBYN 061500Z AUTO 34004KT 3SM M01/M11 A3033 RMK SLP329 T10141107 52017 IEM_DS3505
ZBYN,2004-01-06 16:00,ZBYN 061600Z AUTO 09002KT 1 1/4SM M08/M12 A3036 RMK T10801120 IEM_DS3505
ZBYN,2004-01-06 17:00,ZBYN 061700Z AUTO 11002KT 2SM M08/M13 A3036 RMK T10801130 IEM_DS3505
ZBYN,2004-01-06 18:00,ZBYN 061800Z AUTO 36002KT 5SM M03/M13 A3039 RMK SLP338 T10261131 52014 IEM_DS3505
ZBYN,2004-01-06 19:00,ZBYN 061900Z AUTO 12004KT 6SM A3042 RMK IEM_DS3505
ZBYN,2004-01-06 20:00,ZBYN 062000Z AUTO 35008KT 6SM M07/M16 A3042 RMK T10701160 IEM_DS3505
ZBYN,2004-01-06 21:00,ZBYN 062100Z AUTO 36006KT 5SM M04/M15 A3042 RMK SLP351 T10361149 52008 IEM_DS3505
ZBYN,2004-01-06 22:00,ZBYN 062200Z AUTO 11002KT 6SM M10/M16 A3042 RMK T11001160 IEM_DS3505
ZBYN,2004-01-06 23:00,ZBYN 062300Z AUTO 07002KT 6SM M11/M17 A3045 RMK T11101170 IEM_DS3505
ZBYN,2004-01-07 00:00,ZBYN 070000Z AUTO 32004KT 5SM M05/M14 A3047 RMK SLP380 T10481143 52018 IEM_DS3505
ZBYN,2004-01-07 01:00,ZBYN 070100Z AUTO 00000KT 6SM M08/M14 A3047 RMK T10801140 IEM_DS3505
ZBYN,2004-01-07 02:00,ZBYN 070200Z AUTO 15002KT 6SM M05/M13 A3050 RMK T10501130 IEM_DS3505
ZBYN,2004-01-07 03:00,ZBYN 070300Z AUTO 34006KT 6SM 01/M15 A3047 RMK SLP381 T00091150 52009 IEM_DS3505
ZBYN,2004-01-07 04:00,ZBYN 070400Z AUTO 09008KT 6SM 03/M19 A3047 RMK T00301190 IEM_DS3505
ZBYN,2004-01-07 05:00,ZBYN 070500Z AUTO 06012KT 6SM 04/M20 A3045 RMK T00401200 IEM_DS3505
ZBYN,2004-01-07 06:00,ZBYN 070600Z AUTO 09006KT 6SM 04/M16 A3042 RMK SLP349 T00391163 57026 IEM_DS3505
ZBYN,2004-01-07 07:00,ZBYN 070700Z AUTO 06010KT 6SM 02/M18 A3042 RMK T00201180 IEM_DS3505
ZBYN,2004-01-07 08:00,ZBYN 070800Z AUTO 08012KT 6SM 02/M19 A3042 RMK T00201190 IEM_DS3505
ZBYN,2004-01-07 09:00,ZBYN 070900Z AUTO 09008KT 9SM 01/M17 A3042 RMK SLP357 T00111166 52001 IEM_DS3505
ZBYN,2004-01-07 10:00,ZBYN 071000Z AUTO 08014KT 6SM M01/M19 A3045 RMK T10101190 IEM_DS3505
ZBYN,2004-01-07 11:00,ZBYN 071100Z AUTO 07014KT 6SM M01/M19 A3045 RMK T10101190 IEM_DS3505
ZBYN,2004-01-07 12:00,ZBYN 071200Z AUTO 04006KT 7SM M01/M17 A3045 RMK SLP377 T10091170 52013 IEM_DS3505
ZBYN,2004-01-07 13:00,ZBYN 071300Z AUTO 08014KT 6SM M02/M18 A3045 RMK T10201180 IEM_DS3505
ZBYN,2004-01-07 14:00,ZBYN 071400Z AUTO 07012KT 6SM M03/M18 A3045 RMK T10301180 IEM_DS3505
ZBYN,2004-01-07 15:00,ZBYN 071500Z AUTO 36002KT 6SM M02/M16 A3047 RMK SLP370 T10191159 52001 IEM_DS3505
ZBYN,2004-01-07 17:00,ZBYN 071700Z AUTO 07006KT 6SM M04/M16 A3047 RMK T10401160 IEM_DS3505
ZBYN,2004-01-07 18:00,ZBYN 071800Z AUTO 32002KT 6SM M04/M15 A3045 RMK SLP368 T10371153 54000 IEM_DS3505
ZBYN,2004-01-07 19:00,ZBYN 071900Z AUTO 11002KT 6SM M05/M16 A3045 RMK T10501160 IEM_DS3505
ZBYN,2004-01-07 20:00,ZBYN 072000Z AUTO 10004KT 6SM M04/M14 A3045 RMK T10401140 IEM_DS3505
ZBYN,2004-01-07 21:00,ZBYN 072100Z AUTO 11004KT 6SM M04/M13 A3042 RMK SLP359 T10391132 57013 IEM_DS3505
ZBYN,2004-01-07 22:00,ZBYN 072200Z AUTO 12002KT 7SM M06/M10 A3042 RMK T10601100 IEM_DS3505
ZBYN,2004-01-07 23:00,ZBYN 072300Z AUTO 12002KT 5SM M06/M10 A3042 RMK T10601100 IEM_DS3505
ZBYN,2004-01-08 00:00,ZBYN 080000Z AUTO 16002KT 4SM M05/M08 A3042 RMK 70000 SLP358 T10501076 57006 IEM_DS3505
ZBYN,2004-01-08 01:00,ZBYN 080100Z AUTO 00000KT 3SM M05/M08 A3042 RMK T10501080 IEM_DS3505
ZBYN,2004-01-08 02:00,ZBYN 080200Z AUTO 12002KT 3SM M04/M09 A3039 RMK T10401090 IEM_DS3505
ZBYN,2004-01-08 03:00,ZBYN 080300Z AUTO 14004KT 4SM M03/M07 A3039 RMK SLP348 T10291069 57007 IEM_DS3505
ZBYN,2004-01-08 04:00,ZBYN 080400Z AUTO 18004KT 3SM A3036 RMK IEM_DS3505
ZBYN,2004-01-08 05:00,ZBYN 080500Z AUTO 20004KT 3SM A3030 RMK IEM_DS3505
ZBYN,2004-01-08 06:00,ZBYN 080600Z AUTO 16010KT 4SM M01/M06 A3027 RMK SLP311 T10091055 57033 IEM_DS3505
ZBYN,2004-01-08 07:00,ZBYN 080700Z AUTO 23006KT 4SM A3027 RMK IEM_DS3505
ZBYN,2004-01-08 08:00,ZBYN 080800Z AUTO 21004KT 4SM A3027 RMK IEM_DS3505
ZBYN,2004-01-08 09:00,ZBYN 080900Z AUTO 16004KT 4SM M01/M06 A3027 RMK SLP311 T10121056 57001 IEM_DS3505
ZBYN,2004-01-08 10:00,ZBYN 081000Z AUTO 17004KT 3SM A3027 RMK IEM_DS3505
ZBYN,2004-01-08 11:00,ZBYN 081100Z AUTO 11004KT 2 1/2SM A3030 RMK IEM_DS3505
ZBYN,2004-01-08 12:00,ZBYN 081200Z AUTO 14006KT 3SM M05/M07 A3030 RMK SLP327 T10461069 52007 IEM_DS3505
ZBYN,2004-01-08 13:00,ZBYN 081300Z AUTO 09002KT 2SM A3030 RMK IEM_DS3505
ZBYN,2004-01-08 14:00,ZBYN 081400Z AUTO 09002KT 1 1/2SM A3030 RMK IEM_DS3505
ZBYN,2004-01-08 15:00,ZBYN 081500Z AUTO 32002KT 2 1/2SM M06/M07 A3030 RMK SLP330 T10581070 52004 IEM_DS3505
ZBYN,2004-01-08 16:00,ZBYN 081600Z AUTO 00000KT 1 1/4SM A3030 RMK IEM_DS3505
ZBYN,2004-01-08 17:00,ZBYN 081700Z AUTO 35002KT 1 1/4SM A3030 RMK IEM_DS3505
ZBYN,2004-01-08 18:00,ZBYN 081800Z AUTO 34002KT 1 1/4SM M06/M07 A3030 RMK SLP324 T10631068 57003 IEM_DS3505
ZBYN,2004-01-08 19:00,ZBYN 081900Z AUTO 09002KT 1 1/4SM M08/M09 A3030 RMK T10801090 IEM_DS3505
ZBYN,2004-01-08 20:00,ZBYN 082000Z AUTO 08002KT 1 1/4SM M09/M10 A3027 RMK T10901100 IEM_DS3505
ZBYN,2004-01-08 21:00,ZBYN 082100Z AUTO 32002KT 1 1/4SM M08/M09 A3030 RMK 70000 SLP323 T10781086 57004 IEM_DS3505
ZBYN,2004-01-08 22:00,ZBYN 082200Z AUTO 00000KT 1 1/4SM M11/M12 A3030 RMK T11101120 IEM_DS3505
ZBYN,2004-01-08 23:00,ZBYN 082300Z AUTO 00000KT 1 1/4SM M09/M10 A3030 RMK T10901100 IEM_DS3505
ZBYN,2004-01-09 00:00,ZBYN 090000Z AUTO 32004KT 1SM M07/M08 A3030 RMK 70000 SLP336 T10711080 52007 IEM_DS3505
ZBYN,2004-01-09 01:00,ZBYN 090100Z AUTO 09002KT 1/2SM M08/M10 A3033 RMK T10801100 IEM_DS3505
ZBYN,2004-01-09 02:00,ZBYN 090200Z AUTO 00000KT 1SM M05/M07 A3033 RMK T10501070 IEM_DS3505
ZBYN,2004-01-09 03:00,ZBYN 090300Z AUTO 32004KT 1 1/4SM M03/M05 A3030 RMK SLP331 T10291046 52001 IEM_DS3505
ZBYN,2004-01-09 04:00,ZBYN 090400Z AUTO 00000KT 1SM 00/M04 A3027 RMK T00001040 IEM_DS3505
ZBYN,2004-01-09 05:00,ZBYN 090500Z AUTO 1SM 02/M05 A3024 RMK T00201050 IEM_DS3505
ZBYN,2004-01-09 06:00,ZBYN 090600Z AUTO 27004KT 4SM 03/M06 A3024 RMK SLP296 T00291057 57023 IEM_DS3505
ZBYN,2004-01-09 07:00,ZBYN 090700Z AUTO 31002KT 1 1/4SM 04/M07 A3024 RMK T00401070 IEM_DS3505
ZBYN,2004-01-09 09:00,ZBYN 090900Z AUTO 29002KT 4SM 02/M06 A3024 RMK SLP305 T00201063 52004 IEM_DS3505
ZBYN,2004-01-09 10:00,ZBYN 091000Z AUTO 00000KT 1 1/2SM M02/M08 A3027 RMK T10201080 IEM_DS3505
ZBYN,2004-01-09 11:00,ZBYN 091100Z AUTO 08004KT 1 1/2SM M04/M09 A3027 RMK T10401090 IEM_DS3505
ZBYN,2004-01-09 12:00,ZBYN 091200Z AUTO 32004KT 6SM M01/M06 A3030 RMK SLP329 T10071064 52019 IEM_DS3505
ZBYN,2004-01-09 13:00,ZBYN 091300Z AUTO 13004KT 1SM M06/M09 A3033 RMK T10601090 IEM_DS3505
ZBYN,2004-01-09 14:00,ZBYN 091400Z AUTO 12002KT 1 1/4SM M07/M11 A3036 RMK T10701110 IEM_DS3505
ZBYN,2004-01-09 15:00,ZBYN 091500Z AUTO 14002KT 6SM M04/M08 A3039 RMK SLP349 T10381081 52020 IEM_DS3505
ZBYN,2004-01-09 16:00,ZBYN 091600Z AUTO 00000KT 1 1/4SM M08/M11 A3039 RMK T10801110 IEM_DS3505
ZBYN,2004-01-09 17:00,ZBYN 091700Z AUTO 00000KT 4SM M08/M11 A3039 RMK T10801110 IEM_DS3505
ZBYN,2004-01-09 18:00,ZBYN 091800Z AUTO 32004KT 6SM M03/M08 A3039 RMK SLP345 T10281077 52007 IEM_DS3505
ZBYN,2004-01-09 19:00,ZBYN 091900Z AUTO 32002KT 4SM M05/M09 A3042 RMK T10501090 IEM_DS3505
ZBYN,2004-01-09 20:00,ZBYN 092000Z AUTO 00000KT 3SM M06/M10 A3039 RMK T10601100 IEM_DS3505
ZBYN,2004-01-09 21:00,ZBYN 092100Z AUTO 36002KT 6SM M03/M08 A3039 RMK SLP349 T10331081 52002 IEM_DS3505
ZBYN,2004-01-09 22:00,ZBYN 092200Z AUTO 05008KT 2SM M03/M07 A3039 RMK T10301070 IEM_DS3505
ZBYN,2004-01-09 23:00,ZBYN 092300Z AUTO 07010KT M03/M09 A3039 RMK T10301090 IEM_DS3505
ZBYN,2004-01-10 00:00,ZBYN 100000Z AUTO 14002KT 5SM M05/M09 A3042 RMK SLP363 T10491090 52005 IEM_DS3505
ZBYN,2004-01-10 01:00,ZBYN 100100Z AUTO 07010KT 2 1/2SM A3042 RMK IEM_DS3505
ZBYN,2004-01-10 02:00,ZBYN 100200Z AUTO 06012KT 4SM A3045 RMK IEM_DS3505
ZBYN,2004-01-10 03:00,ZBYN 100300Z AUTO 29004KT 4SM M01/M09 A3045 RMK SLP372 T10071086 52010 IEM_DS3505
ZBYN,2004-01-10 04:00,ZBYN 100400Z AUTO 07012KT 6SM M01/M16 A3042 RMK T10101160 IEM_DS3505
ZBYN,2004-01-10 05:00,ZBYN 100500Z AUTO 08010KT 6SM 00/M16 A3042 RMK T00001160 IEM_DS3505
ZBYN,2004-01-10 06:00,ZBYN 100600Z AUTO 11006KT 4SM 02/M11 A3039 RMK SLP338 T00211113 57024 IEM_DS3505
ZBYN,2004-01-10 07:00,ZBYN 100700Z AUTO 07006KT 6SM 02/M13 A3036 RMK T00201130 IEM_DS3505
ZBYN,2004-01-10 08:00,ZBYN 100800Z AUTO 08004KT 6SM 02/M13 A3036 RMK T00201130 IEM_DS3505
ZBYN,2004-01-10 09:00,ZBYN 100900Z AUTO 16004KT 5SM 01/M10 A3036 RMK SLP341 T00081103 57001 IEM_DS3505
ZBYN,2004-01-10 10:00,ZBYN 101000Z AUTO 10004KT 6SM M01/M13 A3039 RMK T10101130 IEM_DS3505
ZBYN,2004-01-10 11:00,ZBYN 101100Z AUTO 10004KT 6SM M02/M14 A3039 RMK T10201140 IEM_DS3505
ZBYN,2004-01-10 12:00,ZBYN 101200Z AUTO 18004KT 4SM M01/M12 A3039 RMK SLP354 T10121118 52006 IEM_DS3505
ZBYN,2004-01-10 13:00,ZBYN 101300Z AUTO 12008KT 6SM M03/M16 A3039 RMK T10301160 IEM_DS3505
ZBYN,2004-01-10 14:00,ZBYN 101400Z AUTO 13002KT 6SM M04/M15 A3039 RMK T10401150 IEM_DS3505
ZBYN,2004-01-10 15:00,ZBYN 101500Z AUTO 18004KT 4SM M04/M13 A3039 RMK SLP348 T10421133 57003 IEM_DS3505
ZBYN,2004-01-10 16:00,ZBYN 101600Z AUTO 11006KT 6SM M08/M14 A3039 RMK T10801140 IEM_DS3505
ZBYN,2004-01-10 17:00,ZBYN 101700Z AUTO 10002KT 6SM M08/M14 A3036 RMK T10801140 IEM_DS3505
ZBYN,2004-01-10 18:00,ZBYN 101800Z AUTO 14006KT 4SM M05/M11 A3036 RMK SLP336 T10461111 57007 IEM_DS3505
ZBYN,2004-01-10 19:00,ZBYN 101900Z AUTO 11002KT 6SM M06/M12 A3036 RMK T10601120 IEM_DS3505
ZBYN,2004-01-10 20:00,ZBYN 102000Z AUTO 12004KT 6SM M05/M12 A3033 RMK T10501120 IEM_DS3505
ZBYN,2004-01-10 21:00,ZBYN 102100Z AUTO 16006KT 4SM M04/M08 A3030 RMK SLP315 T10411084 57021 IEM_DS3505
ZBYN,2004-01-10 22:00,ZBYN 102200Z AUTO 13004KT 5SM A3030 RMK IEM_DS3505
ZBYN,2004-01-10 23:00,ZBYN 102300Z AUTO 13002KT 2SM A3030 RMK IEM_DS3505
ZBYN,2004-01-11 00:00,ZBYN 110000Z AUTO 14002KT 2SM M03/M08 A3027 RMK SLP313 T10291079 57003 IEM_DS3505
ZBYN,2004-01-11 01:00,ZBYN 110100Z AUTO 14004KT 1 1/4SM A3027 RMK IEM_DS3505
ZBYN,2004-01-11 02:00,ZBYN 110200Z AUTO 15002KT 1 1/4SM A3030 RMK IEM_DS3505
ZBYN,2004-01-11 03:00,ZBYN 110300Z AUTO 14004KT 2SM M01/M08 A3027 RMK SLP312 T10061078 57002 IEM_DS3505
ZBYN,2004-01-11 04:00,ZBYN 110400Z AUTO 22004KT 1SM 01/M09 A3024 RMK T00101090 IEM_DS3505
ZBYN,2004-01-11 06:00,ZBYN 110600Z AUTO 18008KT 2SM 04/M06 A3018 RMK SLP264 T00431062 57036 IEM_DS3505
ZBYN,2004-01-11 07:00,ZBYN 110700Z AUTO 24006KT 05/M07 A3015 RMK T00501070 IEM_DS3505
ZBYN,2004-01-11 08:00,ZBYN 110800Z AUTO 28004KT 05/M08 A3015 RMK T00501080 IEM_DS3505
ZBYN,2004-01-11 09:00,ZBYN 110900Z AUTO 29008KT 7SM 03/M11 A3018 RMK SLP270 T00321107 52005 IEM_DS3505
ZBYN,2004-01-11 10:00,ZBYN 111000Z AUTO 31008KT 6SM 01/M13 A3021 RMK T00101130 IEM_DS3505
ZBYN,2004-01-11 11:00,ZBYN 111100Z AUTO 31010KT 6SM 01/M13 A3021 RMK T00101130 IEM_DS3505
ZBYN,2004-01-11 12:00,ZBYN 111200Z AUTO 27008KT 7SM 00/M11 A3024 RMK SLP298 T00001110 52022 IEM_DS3505
ZBYN,2004-01-11 13:00,ZBYN 111300Z AUTO 28008KT 6SM M01/M12 A3027 RMK T10101120 IEM_DS3505
ZBYN,2004-01-11 14:00,ZBYN 111400Z AUTO 28008KT 6SM M01/M12 A3027 RMK T10101120 IEM_DS3505
ZBYN,2004-01-11 15:00,ZBYN 111500Z AUTO 36004KT 7SM M01/M12 A3030 RMK SLP310 T10071117 52013 IEM_DS3505
ZBYN,2004-01-11 16:00,ZBYN 111600Z AUTO 34004KT 6SM M04/M17 A3030 RMK T10401170 IEM_DS3505
ZBYN,2004-01-11 17:00,ZBYN 111700Z AUTO 33010KT 6SM M04/M21 A3033 RMK T10401210 IEM_DS3505
ZBYN,2004-01-11 18:00,ZBYN 111800Z AUTO 32014KT 9SM M04/M22 A3033 RMK SLP329 T10451224 52019 IEM_DS3505
ZBYN,2004-01-11 19:00,ZBYN 111900Z AUTO 30008KT 6SM M07/M23 A3036 RMK T10701230 IEM_DS3505
ZBYN,2004-01-11 20:00,ZBYN 112000Z AUTO 30004KT 6SM M08/M25 A3039 RMK T10801250 IEM_DS3505
ZBYN,2004-01-11 21:00,ZBYN 112100Z AUTO 29006KT 9SM M08/M23 A3039 RMK SLP354 T10761232 52016 IEM_DS3505
ZBYN,2004-01-11 22:00,ZBYN 112200Z AUTO 29006KT 6SM M09/M25 A3042 RMK T10901250 IEM_DS3505
ZBYN,2004-01-11 23:00,ZBYN 112300Z AUTO 28008KT 6SM M09/M25 A3042 RMK T10901250 IEM_DS3505
ZBYN,2004-01-12 00:00,ZBYN 120000Z AUTO 29008KT 12SM M08/M22 A3042 RMK SLP371 T10851225 52008 IEM_DS3505
ZBYN,2004-01-12 01:00,ZBYN 120100Z AUTO 30008KT 6SM M08/M24 A3045 RMK T10801240 IEM_DS3505
ZBYN,2004-01-12 02:00,ZBYN 120200Z AUTO 32012KT 6SM M06/M25 A3045 RMK T10601250 IEM_DS3505
ZBYN,2004-01-12 03:00,ZBYN 120300Z AUTO 36006KT 16SM M04/M22 A3045 RMK SLP367 T10451224 52002 IEM_DS3505
ZBYN,2004-01-12 04:00,ZBYN 120400Z AUTO 31006KT 6SM M03/M24 A3039 RMK T10301240 IEM_DS3505
ZBYN,2004-01-12 05:00,ZBYN 120500Z AUTO 32006KT 6SM M02/M24 A3036 RMK T10201240 IEM_DS3505
ZBYN,2004-01-12 06:00,ZBYN 120600Z AUTO 34004KT 7SM M02/M21 A3033 RMK SLP331 T10151214 57034 IEM_DS3505
ZBYN,2004-01-12 07:00,ZBYN 120700Z AUTO 32006KT 6SM M01/M24 A3033 RMK T10101240 IEM_DS3505
ZBYN,2004-01-12 08:00,ZBYN 120800Z AUTO 33004KT 6SM M01/M24 A3030 RMK T10101240 IEM_DS3505
ZBYN,2004-01-12 09:00,ZBYN 120900Z AUTO 32004KT 7SM M02/M21 A3030 RMK SLP335 T10231210 57003 IEM_DS3505
ZBYN,2004-01-12 10:00,ZBYN 121000Z AUTO 35004KT 6SM M07/M24 A3033 RMK T10701240 IEM_DS3505
ZBYN,2004-01-12 11:00,ZBYN 121100Z AUTO 32004KT 6SM M09/M23 A3033 RMK T10901230 IEM_DS3505
ZBYN,2004-01-12 12:00,ZBYN 121200Z AUTO 36006KT 7SM M05/M23 A3033 RMK SLP349 T10481226 52007 IEM_DS3505
ZBYN,2004-01-12 13:00,ZBYN 121300Z AUTO 29002KT 6SM M10/M24 A3036 RMK T11001240 IEM_DS3505
ZBYN,2004-01-12 14:00,ZBYN 121400Z AUTO 06002KT 6SM M11/M23 A3036 RMK T11101230 IEM_DS3505
ZBYN,2004-01-12 15:00,ZBYN 121500Z AUTO 16004KT 6SM M08/M21 A3036 RMK SLP349 T10851211 52001 IEM_DS3505
ZBYN,2004-01-12 16:00,ZBYN 121600Z AUTO 10002KT 6SM M13/M24 A3036 RMK T11301240 IEM_DS3505
ZBYN,2004-01-12 17:00,ZBYN 121700Z AUTO 10002KT 6SM M14/M22 A3033 RMK T11401220 IEM_DS3505
ZBYN,2004-01-12 18:00,ZBYN 121800Z AUTO 09002KT 6SM M13/M21 A3033 RMK SLP343 T11301209 57008 IEM_DS3505
ZBYN,2004-01-12 21:00,ZBYN 122100Z AUTO 00000KT 6SM M15/M21 RMK SLP335 T11531207 57013 IEM_DS3505
ZBYN,2004-01-13 00:00,ZBYN 130000Z AUTO 09002KT 6SM M16/M20 A3027 RMK SLP333 T11561201 57007 IEM_DS3505
ZBYN,2004-01-13 01:00,ZBYN 130100Z AUTO 00000KT M13/M20 A3024 RMK T11301200 IEM_DS3505
ZBYN,2004-01-13 02:00,ZBYN 130200Z AUTO 34002KT 3SM M09/M20 A3024 RMK T10901200 IEM_DS3505
ZBYN,2004-01-13 03:00,ZBYN 130300Z AUTO 29004KT 6SM M05/M19 A3024 RMK SLP320 T10541194 54000 IEM_DS3505
ZBYN,2004-01-13 04:00,ZBYN 130400Z AUTO 00000KT M04/M21 A3021 RMK T10401210 IEM_DS3505
ZBYN,2004-01-13 05:00,ZBYN 130500Z AUTO 00000KT 5SM A3015 RMK IEM_DS3505
ZBYN,2004-01-13 06:00,ZBYN 130600Z AUTO 18004KT 6SM M01/M19 A3012 RMK SLP274 T10091188 57042 IEM_DS3505
ZBYN,2004-01-13 07:00,ZBYN 130700Z AUTO 14002KT 6SM 01/M22 A3009 RMK T00101220 IEM_DS3505
ZBYN,2004-01-13 08:00,ZBYN 130800Z AUTO 00000KT 6SM 01/M21 A3006 RMK T00101210 IEM_DS3505
ZBYN,2004-01-13 09:00,ZBYN 130900Z AUTO 07002KT 6SM M00/M18 A3006 RMK SLP258 T10011181 57017 IEM_DS3505
ZBYN,2004-01-13 10:00,ZBYN 131000Z AUTO 12002KT 6SM M03/M22 A3006 RMK T10301220 IEM_DS3505
ZBYN,2004-01-13 11:00,ZBYN 131100Z AUTO 09002KT 6SM M05/M21 A3006 RMK T10501210 IEM_DS3505
ZBYN,2004-01-13 12:00,ZBYN 131200Z AUTO 07002KT 5SM M04/M16 A3006 RMK SLP265 T10351160 54000 IEM_DS3505
ZBYN,2004-01-13 13:00,ZBYN 131300Z AUTO 10002KT 6SM M07/M19 A3006 RMK T10701190 IEM_DS3505
ZBYN,2004-01-13 14:00,ZBYN 131400Z AUTO 00000KT 6SM M08/M18 A3006 RMK T10801180 IEM_DS3505
ZBYN,2004-01-13 15:00,ZBYN 131500Z AUTO 32002KT 3SM M04/M16 A3006 RMK SLP248 T10371159 52002 IEM_DS3505
ZBYN,2004-01-13 16:00,ZBYN 131600Z AUTO 17002KT 6SM M08/M17 A3006 RMK T10801170 IEM_DS3505
ZBYN,2004-01-13 17:00,ZBYN 131700Z AUTO 07002KT 6SM M06/M16 A3006 RMK T10601160 IEM_DS3505
ZBYN,2004-01-13 18:00,ZBYN 131800Z AUTO 04002KT 3SM M04/M14 A3006 RMK SLP236 T10391138 57004 IEM_DS3505
ZBYN,2004-01-13 19:00,ZBYN 131900Z AUTO 00000KT 6SM M05/M16 A3006 RMK T10501160 IEM_DS3505
ZBYN,2004-01-13 20:00,ZBYN 132000Z AUTO 15002KT 6SM M06/M14 A3003 RMK T10601140 IEM_DS3505
ZBYN,2004-01-13 21:00,ZBYN 132100Z AUTO 36002KT 3SM M03/M17 A3003 RMK SLP225 T10291168 57007 IEM_DS3505
ZBYN,2004-01-14 00:00,ZBYN 140000Z AUTO 02002KT 4SM M07/M14 A3006 RMK SLP251 T10671140 52012 IEM_DS3505
ZBYN,2004-01-14 00:30,ZBYN 140030Z AUTO 00000KT 4SM A3009 RMK IEM_DS3505
ZBYN,2004-01-14 01:00,ZBYN 140100Z AUTO 00000KT 2SM A3009 RMK IEM_DS3505
ZBYN,2004-01-14 01:30,ZBYN 140130Z AUTO 00000KT 2SM A3009 RMK IEM_DS3505
ZBYN,2004-01-14 02:00,ZBYN 140200Z AUTO 00000KT 2SM A3009 RMK IEM_DS3505
ZBYN,2004-01-14 03:00,ZBYN 140300Z AUTO 34004KT 4SM M00/M16 RMK SLP257 T10051159 52015 IEM_DS3505
ZBYN,2004-01-14 04:00,ZBYN 140400Z AUTO 00000KT 2 1/2SM 00/M18 A3009 RMK T00001180 IEM_DS3505
ZBYN,2004-01-14 05:00,ZBYN 140500Z AUTO 2 1/2SM 01/M18 A3006 RMK T00101180 IEM_DS3505
ZBYN,2004-01-14 06:00,ZBYN 140600Z AUTO 22002KT 2 1/2SM 02/M16 A3006 RMK SLP230 T00181160 57021 IEM_DS3505
ZBYN,2004-01-14 07:00,ZBYN 140700Z AUTO 26002KT 2 1/2SM 02/M18 A3006 RMK T00201180 IEM_DS3505
ZBYN,2004-01-14 08:00,ZBYN 140800Z AUTO 00000KT 2SM 02/M18 A3009 RMK T00201180 IEM_DS3505
ZBYN,2004-01-14 09:00,ZBYN 140900Z AUTO 27002KT 2 1/2SM 01/M14 A3009 RMK SLP241 T00131135 52011 IEM_DS3505
ZBYN,2004-01-14 10:00,ZBYN 141000Z AUTO 28002KT 2 1/2SM A3009 RMK IEM_DS3505
ZBYN,2004-01-14 11:00,ZBYN 141100Z AUTO 00000KT 2SM A3012 RMK IEM_DS3505
ZBYN,2004-01-14 12:00,ZBYN 141200Z AUTO 29002KT 2 1/2SM 01/M13 A3012 RMK SLP267 T00061127 52016 IEM_DS3505
ZBYN,2004-01-14 13:00,ZBYN 141300Z AUTO 00000KT 2SM A3015 RMK IEM_DS3505
ZBYN,2004-01-14 14:00,ZBYN 141400Z AUTO 2 1/2SM A3018 RMK IEM_DS3505
ZBYN,2004-01-14 15:00,ZBYN 141500Z AUTO 34004KT 4SM M02/M13 A3018 RMK SLP275 T10151133 52014 IEM_DS3505
ZBYN,2004-01-14 16:00,ZBYN 141600Z AUTO 10002KT 2 1/2SM A3021 RMK IEM_DS3505
ZBYN,2004-01-14 17:00,ZBYN 141700Z AUTO 00000KT 2 1/2SM A3021 RMK IEM_DS3505
ZBYN,2004-01-14 18:00,ZBYN 141800Z AUTO 34004KT 4SM M00/M15 A3021 RMK SLP275 T10041146 52006 IEM_DS3505
ZBYN,2004-01-14 19:00,ZBYN 141900Z AUTO 32002KT 5SM A3021 RMK IEM_DS3505
ZBYN,2004-01-14 20:00,ZBYN 142000Z AUTO 00000KT 5SM A3021 RMK IEM_DS3505
ZBYN,2004-01-14 21:00,ZBYN 142100Z AUTO 34004KT 4SM M02/M14 A3021 RMK SLP283 T10161140 52004 IEM_DS3505
ZBYN,2004-01-14 22:00,ZBYN 142200Z AUTO 34004KT 6SM M04/M16 A3021 RMK T10401160 IEM_DS3505
ZBYN,2004-01-14 23:00,ZBYN 142300Z AUTO 35004KT 6SM M05/M16 A3021 RMK T10501160 IEM_DS3505
ZBYN,2004-01-15 00:00,ZBYN 150000Z AUTO 34004KT 4SM M03/M14 A3024 RMK SLP298 T10311141 52010 IEM_DS3505
ZBYN,2004-01-15 01:00,ZBYN 150100Z AUTO 6SM M05/M15 A3027 RMK T10501150 IEM_DS3505
ZBYN,2004-01-15 02:00,ZBYN 150200Z AUTO 07008KT 6SM M01/M16 A3027 RMK T10101160 IEM_DS3505
ZBYN,2004-01-15 03:00,ZBYN 150300Z AUTO 34006KT 4SM M00/M14 A3027 RMK SLP311 T10031142 52013 IEM_DS3505
ZBYN,2004-01-15 04:00,ZBYN 150400Z AUTO 07010KT 6SM 01/M16 A3027 RMK T00101160 IEM_DS3505
ZBYN,2004-01-15 05:00,ZBYN 150500Z AUTO 06010KT 6SM 01/M17 A3024 RMK T00101170 IEM_DS3505
ZBYN,2004-01-15 06:00,ZBYN 150600Z AUTO 36004KT 4SM 02/M15 A3024 RMK SLP282 T00221152 57020 IEM_DS3505
ZBYN,2004-01-15 07:00,ZBYN 150700Z AUTO 07008KT 6SM 01/M17 A3021 RMK T00101170 IEM_DS3505
ZBYN,2004-01-15 08:00,ZBYN 150800Z AUTO 08010KT 6SM 00/M17 A3024 RMK T00001170 IEM_DS3505
ZBYN,2004-01-15 09:00,ZBYN 150900Z AUTO 09008KT 6SM 01/M15 A3024 RMK SLP294 T00061153 52006 IEM_DS3505
ZBYN,2004-01-15 10:00,ZBYN 151000Z AUTO 09008KT 6SM M01/M17 A3027 RMK T10101170 IEM_DS3505
ZBYN,2004-01-15 11:00,ZBYN 151100Z AUTO 08010KT 6SM M02/M17 A3030 RMK T10201170 IEM_DS3505
ZBYN,2004-01-15 12:00,ZBYN 151200Z AUTO 11008KT 6SM M01/M16 A3030 RMK SLP320 T10121157 52018 IEM_DS3505
ZBYN,2004-01-15 13:00,ZBYN 151300Z AUTO 08008KT 6SM M03/M17 A3033 RMK T10301170 IEM_DS3505
ZBYN,2004-01-15 14:00,ZBYN 151400Z AUTO 08010KT 6SM M03/M16 A3033 RMK T10301160 IEM_DS3505
ZBYN,2004-01-15 15:00,ZBYN 151500Z AUTO 09004KT 6SM M02/M13 A3033 RMK SLP326 T10211129 52009 IEM_DS3505
ZBYN,2004-01-15 16:00,ZBYN 151600Z AUTO 08010KT 7SM M04/M14 A3033 RMK T10401140 IEM_DS3505
ZBYN,2004-01-15 17:00,ZBYN 151700Z AUTO 08010KT 7SM M04/M13 A3033 RMK T10401130 IEM_DS3505
ZBYN,2004-01-15 18:00,ZBYN 151800Z AUTO 29002KT 6SM M03/M13 A3033 RMK SLP316 T10281130 57006 IEM_DS3505
ZBYN,2004-01-15 19:00,ZBYN 151900Z AUTO 08010KT 7SM M05/M12 A3033 RMK T10501120 IEM_DS3505
ZBYN,2004-01-15 20:00,ZBYN 152000Z AUTO 08008KT 7SM M05/M12 A3030 RMK T10501120 IEM_DS3505
ZBYN,2004-01-15 21:00,ZBYN 152100Z AUTO 32002KT 6SM M04/M12 A3030 RMK SLP312 T10391120 57008 IEM_DS3505
ZBYN,2004-01-15 22:00,ZBYN 152200Z AUTO 08008KT 7SM M06/M12 A3030 RMK T10601120 IEM_DS3505
ZBYN,2004-01-15 23:00,ZBYN 152300Z AUTO 08008KT 4SM M06/M11 A3030 RMK T10601110 IEM_DS3505
ZBYN,2004-01-16 00:00,ZBYN 160000Z AUTO 27002KT 5SM M04/M12 A3030 RMK 60000 SLP324 T10411120 52007 IEM_DS3505
ZBYN,2004-01-16 00:30,ZBYN 160030Z AUTO 07006KT 2 1/2SM M06/M11 A3033 RMK T10601110 IEM_DS3505
ZBYN,2004-01-16 01:30,ZBYN 160130Z AUTO 08006KT 2SM M05/M09 A3033 RMK T10501090 IEM_DS3505
ZBYN,2004-01-16 02:00,ZBYN 160200Z AUTO 07006KT 2SM M05/M09 A3033 RMK T10501090 IEM_DS3505
ZBYN,2004-01-16 02:30,ZBYN 160230Z AUTO 08006KT 1 1/2SM M05/M10 A3033 RMK T10501100 IEM_DS3505
ZBYN,2004-01-16 03:00,ZBYN 160300Z AUTO 27002KT 4SM M03/M09 A3033 RMK SLP326 T10331093 52002 IEM_DS3505
ZBYN,2004-01-16 03:30,ZBYN 160330Z AUTO 06004KT 1 1/2SM M04/M09 A3033 RMK T10401090 IEM_DS3505
ZBYN,2004-01-16 04:00,ZBYN 160400Z AUTO 04004KT 1 1/2SM M04/M09 A3030 RMK T10401090 IEM_DS3505
ZBYN,2004-01-16 05:00,ZBYN 160500Z AUTO 07002KT 4SM A3024 RMK IEM_DS3505
ZBYN,2004-01-16 06:00,ZBYN 160600Z AUTO 14006KT 4SM M01/M07 A3021 RMK 60000 SLP288 T10101069 57032 IEM_DS3505
ZBYN,2004-01-16 07:00,ZBYN 160700Z AUTO 18004KT 4SM A3021 RMK IEM_DS3505
ZBYN,2004-01-16 08:00,ZBYN 160800Z AUTO 19004KT 4SM A3021 RMK IEM_DS3505
ZBYN,2004-01-16 09:00,ZBYN 160900Z AUTO 18004KT 4SM M02/M06 A3021 RMK SLP288 T10151059 57003 IEM_DS3505
ZBYN,2004-01-16 10:00,ZBYN 161000Z AUTO 22002KT 2SM A3021 RMK IEM_DS3505
ZBYN,2004-01-16 11:00,ZBYN 161100Z AUTO 17002KT 1 1/2SM A3024 RMK IEM_DS3505
ZBYN,2004-01-16 12:00,ZBYN 161200Z AUTO 14004KT 4SM M04/M06 A3024 RMK SLP305 T10401060 52011 IEM_DS3505
ZBYN,2004-01-16 13:00,ZBYN 161300Z AUTO 17002KT 1 1/2SM A3024 RMK IEM_DS3505
ZBYN,2004-01-16 14:00,ZBYN 161400Z AUTO 16004KT 1 1/2SM A3024 RMK IEM_DS3505
ZBYN,2004-01-16 15:00,ZBYN 161500Z AUTO 11004KT 4SM M04/M06 A3021 RMK SLP295 T10361059 57007 IEM_DS3505
ZBYN,2004-01-16 16:00,ZBYN 161600Z AUTO 15002KT 1 1/2SM A3021 RMK IEM_DS3505
ZBYN,2004-01-16 17:00,ZBYN 161700Z AUTO 10004KT 4SM A3021 RMK IEM_DS3505
ZBYN,2004-01-16 18:00,ZBYN 161800Z AUTO 11004KT 4SM M03/M08 A3018 RMK SLP281 T10301077 57008 IEM_DS3505
ZBYN,2004-01-16 19:00,ZBYN 161900Z AUTO 09004KT 4SM M04/M09 A3021 RMK T10401090 IEM_DS3505
ZBYN,2004-01-16 20:00,ZBYN 162000Z AUTO 09006KT 4SM M04/M09 A3018 RMK T10401090 IEM_DS3505
ZBYN,2004-01-16 21:00,ZBYN 162100Z AUTO 11004KT 4SM M03/M07 A3015 RMK SLP269 T10331074 57012 IEM_DS3505
ZBYN,2004-01-16 21:30,ZBYN 162130Z AUTO 10004KT 4SM M05/M09 A3015 RMK T10501090 IEM_DS3505
ZBYN,2004-01-16 22:00,ZBYN 162200Z AUTO 10006KT 4SM A3015 RMK IEM_DS3505
ZBYN,2004-01-16 23:00,ZBYN 162300Z AUTO 08006KT 4SM A3015 RMK IEM_DS3505
ZBYN,2004-01-16 23:30,ZBYN 162330Z AUTO 09006KT 4SM A3012 RMK IEM_DS3505
ZBYN,2004-01-17 00:00,ZBYN 170000Z AUTO 16004KT 4SM M04/M08 A3015 RMK 70000 SLP272 T10371078 57002 IEM_DS3505
ZBYN,2004-01-17 01:00,ZBYN 170100Z AUTO 11006KT 3SM A3012 RMK IEM_DS3505
ZBYN,2004-01-17 02:00,ZBYN 170200Z AUTO 10006KT 1 1/2SM A3015 RMK IEM_DS3505
ZBYN,2004-01-17 03:00,ZBYN 170300Z AUTO 14006KT 3SM M03/M06 A3015 RMK SLP266 T10341060 57004 IEM_DS3505
ZBYN,2004-01-17 04:00,ZBYN 170400Z AUTO 10006KT 1SM A3012 RMK IEM_DS3505
ZBYN,2004-01-17 05:00,ZBYN 170500Z AUTO 10006KT 1SM A3009 RMK IEM_DS3505
ZBYN,2004-01-17 06:00,ZBYN 170600Z AUTO 11008KT 1 1/4SM M04/M05 RMK 60002 SLP241 T10421052 57023 IEM_DS3505
ZBYN,2004-01-17 07:00,ZBYN 170700Z AUTO 11006KT 1SM M05/M07 A3006 RMK T10501070 IEM_DS3505
ZBYN,2004-01-17 08:00,ZBYN 170800Z AUTO 10006KT 1 1/2SM A3009 RMK IEM_DS3505
ZBYN,2004-01-17 09:00,ZBYN 170900Z AUTO 16002KT 3SM M05/M07 A3012 RMK SLP264 T10491070 52019 IEM_DS3505
ZBYN,2004-01-17 10:00,ZBYN 171000Z AUTO 13004KT 3SM A3015 RMK IEM_DS3505
ZBYN,2004-01-17 11:00,ZBYN 171100Z AUTO 35008KT 6SM M06/M13 A3021 RMK T10601130 IEM_DS3505
ZBYN,2004-01-17 12:00,ZBYN 171200Z AUTO 32016KT 7SM M06/M15 A3024 RMK SLP309 T10591151 52038 IEM_DS3505
ZBYN,2004-01-17 13:00,ZBYN 171300Z AUTO 30008KT 6SM M08/M16 A3024 RMK T10801160 IEM_DS3505
ZBYN,2004-01-17 14:00,ZBYN 171400Z AUTO 29008KT 6SM M08/M16 A3027 RMK T10801160 IEM_DS3505
ZBYN,2004-01-17 15:00,ZBYN 171500Z AUTO 32010KT 7SM M07/M15 A3030 RMK SLP323 T10671146 52012 IEM_DS3505
ZBYN,2004-01-17 16:00,ZBYN 171600Z AUTO 29004KT 6SM M09/M16 A3030 RMK T10901160 IEM_DS3505
ZBYN,2004-01-17 17:00,ZBYN 171700Z AUTO 00000KT 6SM M12/M18 A3030 RMK T11201180 IEM_DS3505
ZBYN,2004-01-17 18:00,ZBYN 171800Z AUTO 14002KT 6SM M17/M21 A3033 RMK T11701210 IEM_DS3505
ZBYN,2004-01-17 19:00,ZBYN 171900Z AUTO 00000KT 6SM M16/M19 A3036 RMK T11601190 IEM_DS3505
ZBYN,2004-01-17 20:00,ZBYN 172000Z AUTO 00000KT 6SM M16/M18 A3036 RMK T11601180 IEM_DS3505
ZBYN,2004-01-17 21:00,ZBYN 172100Z AUTO 32006KT 9SM M10/M17 A3036 RMK 70002 SLP356 T10971170 52009 IEM_DS3505
ZBYN,2004-01-17 22:00,ZBYN 172200Z AUTO 6SM M15/M19 A3036 RMK T11501190 IEM_DS3505
ZBYN,2004-01-17 23:00,ZBYN 172300Z AUTO 10002KT 6SM M17/M21 A3039 RMK T11701210 IEM_DS3505
ZBYN,2004-01-18 00:00,ZBYN 180000Z AUTO 16004KT 11SM M15/M18 A3039 RMK 70002 SLP382 T11501175 52013 IEM_DS3505
ZBYN,2004-01-18 01:00,ZBYN 180100Z AUTO 00000KT 5SM M14/M17 A3042 RMK T11401170 IEM_DS3505
ZBYN,2004-01-18 02:00,ZBYN 180200Z AUTO 05002KT 5SM M11/M16 A3042 RMK T11101160 IEM_DS3505
ZBYN,2004-01-18 03:00,ZBYN 180300Z AUTO 16004KT 6SM M08/M14 A3039 RMK SLP371 T10751143 52002 IEM_DS3505
ZBYN,2004-01-18 04:00,ZBYN 180400Z AUTO 20004KT 6SM M06/M15 A3036 RMK T10601150 IEM_DS3505
ZBYN,2004-01-18 05:00,ZBYN 180500Z AUTO 19004KT 6SM M05/M15 A3033 RMK T10501150 IEM_DS3505
ZBYN,2004-01-18 06:00,ZBYN 180600Z AUTO 16004KT 9SM M04/M13 A3030 RMK SLP334 T10371128 57031 IEM_DS3505
ZBYN,2004-01-18 07:00,ZBYN 180700Z AUTO 23004KT 6SM M03/M14 A3027 RMK T10301140 IEM_DS3505
ZBYN,2004-01-18 08:00,ZBYN 180800Z AUTO 30010KT 6SM M03/M18 A3027 RMK T10301180 IEM_DS3505
ZBYN,2004-01-18 09:00,ZBYN 180900Z AUTO 29010KT 12SM M04/M19 A3027 RMK SLP329 T10371190 57006 IEM_DS3505
ZBYN,2004-01-18 10:00,ZBYN 181000Z AUTO 31012KT 6SM M06/M21 A3030 RMK T10601210 IEM_DS3505
ZBYN,2004-01-18 11:00,ZBYN 181100Z AUTO 34004KT 6SM M08/M17 A3030 RMK T10801170 IEM_DS3505
ZBYN,2004-01-18 12:00,ZBYN 181200Z AUTO 32004KT 6SM M11/M18 A3033 RMK T11101180 IEM_DS3505
ZBYN,2004-01-18 13:00,ZBYN 181300Z AUTO 31004KT 6SM M12/M19 A3033 RMK T11201190 IEM_DS3505
ZBYN,2004-01-18 14:00,ZBYN 181400Z AUTO 05002KT 6SM M12/M18 A3033 RMK T11201180 IEM_DS3505
ZBYN,2004-01-18 15:00,ZBYN 181500Z AUTO 34004KT 12SM M09/M18 A3036 RMK SLP354 T10891181 52005 IEM_DS3505
ZBYN,2004-01-18 16:00,ZBYN 181600Z AUTO 13006KT 6SM M16/M22 A3036 RMK T11601220 IEM_DS3505
ZBYN,2004-01-18 17:00,ZBYN 181700Z AUTO 09004KT 6SM M16/M22 A3036 RMK T11601220 IEM_DS3505
ZBYN,2004-01-18 18:00,ZBYN 181800Z AUTO 16002KT 9SM M14/M19 A3033 RMK SLP357 T11421193 54000 IEM_DS3505
ZBYN,2004-01-18 19:00,ZBYN 181900Z AUTO 09002KT 6SM M17/M22 A3033 RMK T11701220 IEM_DS3505
ZBYN,2004-01-18 20:00,ZBYN 182000Z AUTO 11002KT 6SM M17/M22 A3033 RMK T11701220 IEM_DS3505
ZBYN,2004-01-18 21:00,ZBYN 182100Z AUTO 32002KT 9SM M14/M18 A3033 RMK SLP352 T11411175 57004 IEM_DS3505
ZBYN,2004-01-18 22:00,ZBYN 182200Z AUTO 11002KT 6SM M17/M21 A3033 RMK T11701210 IEM_DS3505
ZBYN,2004-01-18 23:00,ZBYN 182300Z AUTO 11002KT 6SM M18/M22 A3033 RMK T11801220 IEM_DS3505
ZBYN,2004-01-19 00:00,ZBYN 190000Z AUTO 16004KT 6SM M17/M19 A3036 RMK SLP373 T11681190 52008 IEM_DS3505
ZBYN,2004-01-19 01:00,ZBYN 190100Z AUTO 11004KT 6SM M14/M18 A3036 RMK T11401180 IEM_DS3505
ZBYN,2004-01-19 02:00,ZBYN 190200Z AUTO 5SM M10/M16 A3036 RMK T11001160 IEM_DS3505
ZBYN,2004-01-19 03:00,ZBYN 190300Z AUTO 18006KT 6SM M07/M16 RMK SLP356 T10661155 54000 IEM_DS3505
ZBYN,2004-01-19 04:00,ZBYN 190400Z AUTO 22004KT 6SM M05/M16 A3033 RMK T10501160 IEM_DS3505
ZBYN,2004-01-19 05:00,ZBYN 190500Z AUTO 24004KT 6SM M03/M16 A3030 RMK T10301160 IEM_DS3505
ZBYN,2004-01-19 06:00,ZBYN 190600Z AUTO 20006KT 9SM M02/M16 A3027 RMK SLP326 T10161157 57028 IEM_DS3505
ZBYN,2004-01-19 07:00,ZBYN 190700Z AUTO 23004KT 6SM M01/M19 A3024 RMK T10101190 IEM_DS3505
ZBYN,2004-01-19 08:00,ZBYN 190800Z AUTO 00000KT 6SM M01/M20 A3024 RMK T10101200 IEM_DS3505
ZBYN,2004-01-19 09:00,ZBYN 190900Z AUTO 32004KT 6SM M03/M16 A3024 RMK SLP319 T10261155 57008 IEM_DS3505
ZBYN,2004-01-19 10:00,ZBYN 191000Z AUTO 30004KT 6SM M05/M16 A3024 RMK T10501160 IEM_DS3505
ZBYN,2004-01-19 11:00,ZBYN 191100Z AUTO 30004KT 6SM M08/M16 A3024 RMK T10801160 IEM_DS3505
ZBYN,2004-01-19 12:00,ZBYN 191200Z AUTO 32004KT 9SM M06/M16 A3027 RMK SLP338 T10581158 52007 IEM_DS3505
ZBYN,2004-01-19 13:00,ZBYN 191300Z AUTO 33004KT 6SM M09/M17 A3027 RMK T10901170 IEM_DS3505
ZBYN,2004-01-19 14:00,ZBYN 191400Z AUTO 31006KT 6SM M08/M21 A3027 RMK T10801210 IEM_DS3505
ZBYN,2004-01-19 15:00,ZBYN 191500Z AUTO 07002KT 9SM M06/M19 A3027 RMK SLP324 T10651190 52004 IEM_DS3505
ZBYN,2004-01-19 16:00,ZBYN 191600Z AUTO 18004KT 6SM M10/M17 A3027 RMK T11001170 IEM_DS3505
ZBYN,2004-01-19 17:00,ZBYN 191700Z AUTO 13002KT 6SM M13/M20 A3027 RMK T11301200 IEM_DS3505
ZBYN,2004-01-19 18:00,ZBYN 191800Z AUTO 18004KT 6SM M10/M16 A3027 RMK SLP317 T11001164 57004 IEM_DS3505
ZBYN,2004-01-19 19:00,ZBYN 191900Z AUTO 08002KT 6SM M13/M18 A3024 RMK T11301180 IEM_DS3505
ZBYN,2004-01-19 20:00,ZBYN 192000Z AUTO 11004KT 6SM M16/M21 A3024 RMK T11601210 IEM_DS3505
ZBYN,2004-01-19 21:00,ZBYN 192100Z AUTO 27002KT 6SM M09/M17 A3024 RMK SLP306 T10941174 57010 IEM_DS3505
ZBYN,2004-01-19 22:00,ZBYN 192200Z AUTO 09004KT 6SM M16/M20 A3024 RMK T11601200 IEM_DS3505
ZBYN,2004-01-19 23:00,ZBYN 192300Z AUTO 08002KT 6SM M16/M20 A3024 RMK T11601200 IEM_DS3505
ZBYN,2004-01-20 00:00,ZBYN 200000Z AUTO 20004KT 12SM A3024 RMK SLP313 52004 IEM_DS3505
ZBYN,2004-01-20 01:00,ZBYN 200100Z AUTO 6SM M11/M16 A3024 RMK T11101160 IEM_DS3505
ZBYN,2004-01-20 02:00,ZBYN 200200Z AUTO 36006KT 6SM M06/M18 A3027 RMK T10601180 IEM_DS3505
ZBYN,2004-01-20 03:00,ZBYN 200300Z AUTO 34006KT 12SM M05/M19 A3027 RMK SLP319 T10471188 52009 IEM_DS3505
ZBYN,2004-01-20 04:00,ZBYN 200400Z AUTO 33006KT 6SM M04/M21 A3024 RMK T10401210 IEM_DS3505
ZBYN,2004-01-20 05:00,ZBYN 200500Z AUTO 31006KT 6SM M02/M22 A3021 RMK T10201220 IEM_DS3505
ZBYN,2004-01-20 06:00,ZBYN 200600Z AUTO 29012KT 12SM M02/M24 A3021 RMK SLP304 T10201237 57015 IEM_DS3505
ZBYN,2004-01-20 07:00,ZBYN 200700Z AUTO 29012KT 6SM M02/M25 A3021 RMK T10201250 IEM_DS3505
ZBYN,2004-01-20 08:00,ZBYN 200800Z AUTO 29012G23KT 6SM M04/M25 A3024 RMK T10401250 IEM_DS3505
ZBYN,2004-01-20 09:00,ZBYN 200900Z AUTO 36004KT 12SM M05/M19 A3027 RMK SLP326 T10471191 52016 IEM_DS3505
ZBYN,2004-01-20 10:00,ZBYN 201000Z AUTO 35004KT 6SM M08/M21 A3030 RMK T10801210 IEM_DS3505
ZBYN,2004-01-20 11:00,ZBYN 201100Z AUTO 28002KT 6SM M10/M22 A3030 RMK T11001220 IEM_DS3505
ZBYN,2004-01-20 12:00,ZBYN 201200Z AUTO 32006KT 12SM M08/M23 A3033 RMK SLP351 T10761232 52021 IEM_DS3505
ZBYN,2004-01-20 13:00,ZBYN 201300Z AUTO 01002KT 6SM M12/M24 A3036 RMK T11201240 IEM_DS3505
ZBYN,2004-01-20 14:00,ZBYN 201400Z AUTO 29008KT 6SM M09/M24 A3036 RMK T10901240 IEM_DS3505
ZBYN,2004-01-20 15:00,ZBYN 201500Z AUTO 29006KT 9SM M08/M22 A3033 RMK SLP348 T10841220 52001 IEM_DS3505
ZBYN,2004-01-20 16:00,ZBYN 201600Z AUTO 6SM M16/M23 A3033 RMK T11601230 IEM_DS3505
ZBYN,2004-01-20 17:00,ZBYN 201700Z AUTO 13004KT 6SM M17/M22 A3033 RMK T11701220 IEM_DS3505
ZBYN,2004-01-20 18:00,ZBYN 201800Z AUTO 29006KT 9SM A3033 RMK SLP335 57008 IEM_DS3505
ZBYN,2004-01-20 19:00,ZBYN 201900Z AUTO 12004KT 6SM M16/M22 A3033 RMK T11601220 IEM_DS3505
ZBYN,2004-01-20 20:00,ZBYN 202000Z AUTO 00000KT 6SM M16/M22 A3033 RMK T11601220 IEM_DS3505
ZBYN,2004-01-20 21:00,ZBYN 202100Z AUTO 32004KT 9SM M13/M19 A3033 RMK SLP350 T11271192 52002 IEM_DS3505
ZBYN,2004-01-20 22:00,ZBYN 202200Z AUTO 11002KT 6SM M18/M23 A3033 RMK T11801230 IEM_DS3505
ZBYN,2004-01-20 23:00,ZBYN 202300Z AUTO 14002KT 6SM M17/M22 A3033 RMK T11701220 IEM_DS3505
ZBYN,2004-01-21 00:00,ZBYN 210000Z AUTO 25002KT 7SM M14/M20 A3033 RMK SLP364 T11391201 52005 IEM_DS3505
ZBYN,2004-01-21 01:00,ZBYN 210100Z AUTO 00000KT 6SM M14/M20 A3036 RMK T11401200 IEM_DS3505
ZBYN,2004-01-21 02:00,ZBYN 210200Z AUTO 15002KT 6SM M10/M20 A3036 RMK T11001200 IEM_DS3505
ZBYN,2004-01-21 03:00,ZBYN 210300Z AUTO 18002KT 9SM M07/M18 A3036 RMK SLP355 T10711183 52003 IEM_DS3505
ZBYN,2004-01-21 04:00,ZBYN 210400Z AUTO 24002KT 6SM M06/M21 A3033 RMK T10601210 IEM_DS3505
ZBYN,2004-01-21 05:00,ZBYN 210500Z AUTO 6SM M05/M21 A3030 RMK T10501210 IEM_DS3505
ZBYN,2004-01-21 06:00,ZBYN 210600Z AUTO 22004KT 7SM M04/M19 A3027 RMK SLP320 T10371187 57027 IEM_DS3505
ZBYN,2004-01-21 07:00,ZBYN 210700Z AUTO 6SM M03/M20 A3024 RMK T10301200 IEM_DS3505
ZBYN,2004-01-21 08:00,ZBYN 210800Z AUTO 23002KT 6SM M02/M21 A3024 RMK T10201210 IEM_DS3505
ZBYN,2004-01-21 09:00,ZBYN 210900Z AUTO 34004KT 9SM M04/M17 A3024 RMK SLP321 T10381169 57006 IEM_DS3505
ZBYN,2004-01-21 10:00,ZBYN 211000Z AUTO 34004KT 6SM M08/M20 A3024 RMK T10801200 IEM_DS3505
ZBYN,2004-01-21 11:00,ZBYN 211100Z AUTO 29004KT 6SM M09/M19 A3027 RMK T10901190 IEM_DS3505
ZBYN,2004-01-21 12:00,ZBYN 211200Z AUTO 32004KT 9SM M08/M18 A3030 RMK SLP349 T10841181 52015 IEM_DS3505
ZBYN,2004-01-21 13:00,ZBYN 211300Z AUTO 00000KT 6SM M10/M19 A3027 RMK T11001190 IEM_DS3505
ZBYN,2004-01-21 14:00,ZBYN 211400Z AUTO 11002KT 6SM M15/M21 A3027 RMK T11501210 IEM_DS3505
ZBYN,2004-01-21 15:00,ZBYN 211500Z AUTO 07002KT 9SM M10/M17 A3027 RMK SLP332 T10991170 57006 IEM_DS3505
ZBYN,2004-01-21 16:00,ZBYN 211600Z AUTO 12002KT 6SM M14/M20 A3027 RMK T11401200 IEM_DS3505
ZBYN,2004-01-21 17:00,ZBYN 211700Z AUTO 07002KT 6SM M15/M20 A3027 RMK T11501200 IEM_DS3505
ZBYN,2004-01-21 18:00,ZBYN 211800Z AUTO 29002KT 7SM M13/M18 A3024 RMK SLP322 T11341180 57009 IEM_DS3505
ZBYN,2004-01-21 19:00,ZBYN 211900Z AUTO 12004KT 6SM M17/M22 A3024 RMK T11701220 IEM_DS3505
ZBYN,2004-01-21 21:00,ZBYN 212100Z AUTO 27002KT 6SM M14/M17 RMK SLP316 T11431167 57007 IEM_DS3505
ZBYN,2004-01-21 22:00,ZBYN 212200Z AUTO 12002KT 6SM M16/M20 A3021 RMK T11601200 IEM_DS3505
ZBYN,2004-01-21 23:00,ZBYN 212300Z AUTO 12002KT 6SM M16/M21 A3021 RMK T11601210 IEM_DS3505
ZBYN,2004-01-22 00:00,ZBYN 220000Z AUTO 32002KT 5SM M14/M18 A3018 RMK SLP313 T11371181 57010 IEM_DS3505
ZBYN,2004-01-22 01:00,ZBYN 220100Z AUTO 00000KT 2SM M14/M19 A3018 RMK T11401190 IEM_DS3505
ZBYN,2004-01-22 02:00,ZBYN 220200Z AUTO 16002KT 2SM M10/M16 A3018 RMK T11001160 IEM_DS3505
ZBYN,2004-01-22 03:00,ZBYN 220300Z AUTO 12002KT 2SM M07/M18 A3015 RMK T10701180 IEM_DS3505
ZBYN,2004-01-22 04:00,ZBYN 220400Z AUTO 16004KT 6SM M04/M19 A3012 RMK T10401190 IEM_DS3505
ZBYN,2004-01-22 05:00,ZBYN 220500Z AUTO 6SM M03/M19 A3009 RMK T10301190 IEM_DS3505
ZBYN,2004-01-22 06:00,ZBYN 220600Z AUTO 20006KT 4SM M01/M18 A3006 RMK SLP249 T10111176 57039 IEM_DS3505
ZBYN,2004-01-22 07:00,ZBYN 220700Z AUTO 21006KT 6SM 00/M19 A3003 RMK T00001190 IEM_DS3505
ZBYN,2004-01-22 12:00,ZBYN 221200Z AUTO 29006KT 7SM M03/M13 A3012 RMK SLP281 T10311128 52031 IEM_DS3505
ZBYN,2004-01-22 21:00,ZBYN 222100Z AUTO 29010KT 7SM M10/M22 A3030 RMK SLP331 T11041219 52016 IEM_DS3505
ZBYN,2004-01-22 22:00,ZBYN 222200Z AUTO 30008KT 6SM M12/M24 A3030 RMK T11201240 IEM_DS3505
ZBYN,2004-01-22 23:00,ZBYN 222300Z AUTO 30010KT 6SM M12/M24 A3033 RMK T11201240 IEM_DS3505
ZBYN,2004-01-23 00:00,ZBYN 230000Z AUTO 32008KT 16SM M12/M23 A3036 RMK SLP357 T11181229 52018 IEM_DS3505
ZBYN,2004-01-23 01:00,ZBYN 230100Z AUTO 29012KT 6SM M11/M25 A3036 RMK T11101250 IEM_DS3505
ZBYN,2004-01-23 02:00,ZBYN 230200Z AUTO 31010KT 6SM M10/M25 A3039 RMK T11001250 IEM_DS3505
ZBYN,2004-01-23 03:00,ZBYN 230300Z AUTO 32012KT 16SM M08/M23 A3039 RMK SLP369 T10821234 52012 IEM_DS3505
ZBYN,2004-01-23 04:00,ZBYN 230400Z AUTO 29012KT 6SM M07/M25 A3039 RMK T10701250 IEM_DS3505
ZBYN,2004-01-23 05:00,ZBYN 230500Z AUTO 32010KT 6SM M07/M27 A3036 RMK T10701270 IEM_DS3505
ZBYN,2004-01-23 06:00,ZBYN 230600Z AUTO 29014KT 16SM M06/M23 A3036 RMK SLP357 T10611228 57012 IEM_DS3505
ZBYN,2004-01-23 07:00,ZBYN 230700Z AUTO 33014KT 6SM M06/M25 A3036 RMK T10601250 IEM_DS3505
ZBYN,2004-01-23 08:00,ZBYN 230800Z AUTO 36008KT 6SM M07/M24 A3039 RMK T10701240 IEM_DS3505
ZBYN,2004-01-23 09:00,ZBYN 230900Z AUTO 32016KT 16SM M08/M23 A3039 RMK SLP384 T10841231 52017 IEM_DS3505
ZBYN,2004-01-23 10:00,ZBYN 231000Z AUTO 31012KT 6SM M10/M24 A3042 RMK T11001240 IEM_DS3505
ZBYN,2004-01-23 11:00,ZBYN 231100Z AUTO 31012KT 6SM M10/M25 A3045 RMK T11001250 IEM_DS3505
ZBYN,2004-01-23 12:00,ZBYN 231200Z AUTO 32008KT 12SM M10/M23 A3045 RMK SLP407 T11031227 52015 IEM_DS3505
ZBYN,2004-01-23 13:00,ZBYN 231300Z AUTO 00000KT 6SM M13/M24 A3045 RMK T11301240 IEM_DS3505
ZBYN,2004-01-23 14:00,ZBYN 231400Z AUTO 08002KT 6SM M14/M24 A3047 RMK T11401240 IEM_DS3505
ZBYN,2004-01-23 15:00,ZBYN 231500Z AUTO 32006KT 12SM M11/M23 A3047 RMK SLP405 T11141231 52003 IEM_DS3505
ZBYN,2004-01-23 16:00,ZBYN 231600Z AUTO 00000KT 6SM M16/M23 A3047 RMK T11601230 IEM_DS3505
ZBYN,2004-01-23 17:00,ZBYN 231700Z AUTO 28002KT 6SM M15/M24 A3045 RMK T11501240 IEM_DS3505
ZBYN,2004-01-23 18:00,ZBYN 231800Z AUTO 36006KT 12SM M12/M22 A3045 RMK SLP395 T11241223 57007 IEM_DS3505
ZBYN,2004-01-23 19:00,ZBYN 231900Z AUTO 00000KT 6SM M17/M24 A3045 RMK T11701240 IEM_DS3505
ZBYN,2004-01-23 20:00,ZBYN 232000Z AUTO 35004KT 6SM M16/M23 A3045 RMK T11601230 IEM_DS3505
ZBYN,2004-01-23 21:00,ZBYN 232100Z AUTO 36002KT 12SM M14/M22 A3045 RMK SLP402 T11391216 57001 IEM_DS3505
ZBYN,2004-01-23 22:00,ZBYN 232200Z AUTO 01006KT 6SM M16/M24 A3045 RMK T11601240 IEM_DS3505
ZBYN,2004-01-23 23:00,ZBYN 232300Z AUTO 26002KT 6SM M17/M24 A3045 RMK T11701240 IEM_DS3505
ZBYN,2004-01-24 00:00,ZBYN 240000Z AUTO 36004KT 16SM M14/M22 A3047 RMK SLP413 T11431221 52006 IEM_DS3505
ZBYN,2004-01-24 01:00,ZBYN 240100Z AUTO 20002KT 6SM M16/M23 A3047 RMK T11601230 IEM_DS3505
ZBYN,2004-01-24 02:00,ZBYN 240200Z AUTO 26004KT 6SM M12/M23 A3045 RMK T11201230 IEM_DS3505
ZBYN,2004-01-24 03:00,ZBYN 240300Z AUTO 18004KT 7SM M10/M22 A3045 RMK SLP404 T10981220 57002 IEM_DS3505
ZBYN,2004-01-24 05:00,ZBYN 240500Z AUTO 6SM M07/M25 A3039 RMK T10701250 IEM_DS3505
ZBYN,2004-01-24 06:00,ZBYN 240600Z AUTO 18006KT 12SM M05/M24 A3036 RMK SLP362 T10531235 57032 IEM_DS3505
ZBYN,2004-01-24 07:00,ZBYN 240700Z AUTO 20006KT 6SM M05/M27 A3033 RMK T10501270 IEM_DS3505
ZBYN,2004-01-24 08:00,ZBYN 240800Z AUTO 24006KT 6SM M05/M27 A3033 RMK T10501270 IEM_DS3505
ZBYN,2004-01-24 09:00,ZBYN 240900Z AUTO 29010KT 16SM M04/M23 A3033 RMK SLP351 T10411231 57010 IEM_DS3505
ZBYN,2004-01-24 10:00,ZBYN 241000Z AUTO 29008KT 6SM M07/M25 A3033 RMK T10701250 IEM_DS3505
ZBYN,2004-01-24 11:00,ZBYN 241100Z AUTO 29006KT 6SM M08/M25 A3033 RMK T10801250 IEM_DS3505
ZBYN,2004-01-24 12:00,ZBYN 241200Z AUTO 34002KT 16SM M08/M21 A3033 RMK SLP364 T10761213 52005 IEM_DS3505
ZBYN,2004-01-24 13:00,ZBYN 241300Z AUTO 30006KT 6SM M11/M24 A3033 RMK T11101240 IEM_DS3505
ZBYN,2004-01-24 14:00,ZBYN 241400Z AUTO 13002KT 6SM M12/M23 A3033 RMK T11201230 IEM_DS3505
ZBYN,2004-01-24 15:00,ZBYN 241500Z AUTO 34002KT 9SM M09/M21 A3033 RMK SLP359 T10901212 52001 IEM_DS3505
ZBYN,2004-01-24 16:00,ZBYN 241600Z AUTO 10002KT 6SM M16/M24 A3036 RMK T11601240 IEM_DS3505
ZBYN,2004-01-24 17:00,ZBYN 241700Z AUTO 09004KT 6SM M17/M24 A3033 RMK T11701240 IEM_DS3505
ZBYN,2004-01-24 18:00,ZBYN 241800Z AUTO 34002KT 6SM M14/M21 A3033 RMK SLP356 T11391213 57004 IEM_DS3505
ZBYN,2004-01-24 19:00,ZBYN 241900Z AUTO 09002KT 6SM M16/M23 A3033 RMK T11601230 IEM_DS3505
ZBYN,2004-01-24 20:00,ZBYN 242000Z AUTO 04002KT 6SM M17/M24 A3033 RMK T11701240 IEM_DS3505
ZBYN,2004-01-24 21:00,ZBYN 242100Z AUTO 20002KT 6SM M17/M21 A3030 RMK SLP353 T11661214 57005 IEM_DS3505
ZBYN,2004-01-24 22:00,ZBYN 242200Z AUTO 11004KT 6SM M18/M24 A3033 RMK T11801240 IEM_DS3505
ZBYN,2004-01-24 23:00,ZBYN 242300Z AUTO 00000KT 6SM M18/M23 A3033 RMK T11801230 IEM_DS3505
ZBYN,2004-01-25 00:00,ZBYN 250000Z AUTO 32002KT 5SM M16/M20 A3033 RMK SLP368 T11601195 52008 IEM_DS3505
ZBYN,2004-01-25 01:00,ZBYN 250100Z AUTO 00000KT 4SM M15/M20 A3036 RMK T11501200 IEM_DS3505
ZBYN,2004-01-25 02:00,ZBYN 250200Z AUTO 15002KT 5SM M11/M20 A3036 RMK T11101200 IEM_DS3505
ZBYN,2004-01-25 03:00,ZBYN 250300Z AUTO 22002KT 4SM M07/M20 A3033 RMK SLP356 T10731201 52002 IEM_DS3505
ZBYN,2004-01-25 04:00,ZBYN 250400Z AUTO 6SM M05/M22 A3030 RMK T10501220 IEM_DS3505
ZBYN,2004-01-25 05:00,ZBYN 250500Z AUTO 6SM M04/M22 A3027 RMK T10401220 IEM_DS3505
ZBYN,2004-01-25 06:00,ZBYN 250600Z AUTO 14002KT 5SM M02/M21 A3021 RMK SLP312 T10191207 57039 IEM_DS3505
ZBYN,2004-01-25 07:00,ZBYN 250700Z AUTO 6SM M01/M23 A3021 RMK T10101230 IEM_DS3505
ZBYN,2004-01-25 08:00,ZBYN 250800Z AUTO 00000KT 6SM M01/M24 A3018 RMK T10101240 IEM_DS3505
ZBYN,2004-01-25 09:00,ZBYN 250900Z AUTO 00000KT 5SM M02/M21 A3018 RMK SLP304 T10161209 57011 IEM_DS3505
ZBYN,2004-01-25 11:00,ZBYN 251100Z AUTO 00000KT 6SM M07/M24 A3018 RMK T10701240 IEM_DS3505
ZBYN,2004-01-25 12:00,ZBYN 251200Z AUTO 29002KT 4SM M07/M17 A3021 RMK SLP318 T10671168 52005 IEM_DS3505
ZBYN,2004-01-25 13:00,ZBYN 251300Z AUTO 13002KT 6SM M11/M23 A3021 RMK T11101230 IEM_DS3505
ZBYN,2004-01-25 14:00,ZBYN 251400Z AUTO 09002KT 6SM M12/M22 A3021 RMK T11201220 IEM_DS3505
ZBYN,2004-01-25 15:00,ZBYN 251500Z AUTO 16002KT 6SM M11/M19 A3021 RMK SLP313 T11111194 52003 IEM_DS3505
ZBYN,2004-01-25 16:00,ZBYN 251600Z AUTO 10002KT 6SM M13/M22 A3021 RMK T11301220 IEM_DS3505
ZBYN,2004-01-25 17:00,ZBYN 251700Z AUTO 11002KT 6SM M14/M22 A3018 RMK T11401220 IEM_DS3505
ZBYN,2004-01-25 18:00,ZBYN 251800Z AUTO 14002KT 6SM M13/M19 A3018 RMK SLP298 T11301191 57008 IEM_DS3505
ZBYN,2004-01-25 19:00,ZBYN 251900Z AUTO 07002KT 6SM M14/M22 A3018 RMK T11401220 IEM_DS3505
ZBYN,2004-01-25 20:00,ZBYN 252000Z AUTO 00000KT 6SM M15/M22 A3018 RMK T11501220 IEM_DS3505
ZBYN,2004-01-25 21:00,ZBYN 252100Z AUTO 11004KT 6SM M13/M18 A3018 RMK SLP292 T11291184 57004 IEM_DS3505
ZBYN,2004-01-25 22:00,ZBYN 252200Z AUTO 6SM M14/M21 A3018 RMK T11401210 IEM_DS3505
ZBYN,2004-01-25 23:00,ZBYN 252300Z AUTO 02002KT 6SM M16/M22 A3018 RMK T11601220 IEM_DS3505
ZBYN,2004-01-26 00:00,ZBYN 260000Z AUTO 32002KT 6SM M11/M18 A3018 RMK SLP308 T11141180 52008 IEM_DS3505
ZBYN,2004-01-26 01:00,ZBYN 260100Z AUTO 13004KT 2SM M13/M18 A3021 RMK T11301180 IEM_DS3505
ZBYN,2004-01-26 02:00,ZBYN 260200Z AUTO 20002KT 2SM M08/M19 A3021 RMK T10801190 IEM_DS3505
ZBYN,2004-01-26 03:00,ZBYN 260300Z AUTO 36006KT 5SM M03/M18 A3021 RMK SLP308 T10301177 52007 IEM_DS3505
ZBYN,2004-01-26 04:00,ZBYN 260400Z AUTO 2 1/2SM M02/M19 A3021 RMK T10201190 IEM_DS3505
ZBYN,2004-01-26 05:00,ZBYN 260500Z AUTO 01012KT 6SM 01/M22 A3018 RMK T00101220 IEM_DS3505
ZBYN,2004-01-26 06:00,ZBYN 260600Z AUTO 36008KT 7SM 01/M19 A3015 RMK SLP286 T00091188 57017 IEM_DS3505
ZBYN,2004-01-26 07:00,ZBYN 260700Z AUTO 01008KT 6SM 02/M22 A3015 RMK T00201220 IEM_DS3505
ZBYN,2004-01-26 08:00,ZBYN 260800Z AUTO 36010KT 6SM 01/M20 A3018 RMK T00101200 IEM_DS3505
ZBYN,2004-01-26 09:00,ZBYN 260900Z AUTO 02010KT 7SM M00/M17 A3021 RMK SLP305 T10051171 52015 IEM_DS3505
ZBYN,2004-01-26 10:00,ZBYN 261000Z AUTO 36006KT 6SM M03/M21 A3024 RMK T10301210 IEM_DS3505
ZBYN,2004-01-26 11:00,ZBYN 261100Z AUTO 36008KT 6SM M04/M20 A3027 RMK T10401200 IEM_DS3505
ZBYN,2004-01-26 12:00,ZBYN 261200Z AUTO 36004KT 6SM M04/M17 A3027 RMK SLP338 T10381169 52027 IEM_DS3505
ZBYN,2004-01-26 13:00,ZBYN 261300Z AUTO 33008KT 6SM M06/M19 A3030 RMK T10601190 IEM_DS3505
ZBYN,2004-01-26 14:00,ZBYN 261400Z AUTO 33008KT 6SM M07/M19 A3033 RMK T10701190 IEM_DS3505
ZBYN,2004-01-26 15:00,ZBYN 261500Z AUTO 36010KT 6SM M05/M16 A3033 RMK SLP334 T10531161 52008 IEM_DS3505
ZBYN,2004-01-26 16:00,ZBYN 261600Z AUTO 36006KT 6SM M08/M18 A3033 RMK T10801180 IEM_DS3505
ZBYN,2004-01-26 17:00,ZBYN 261700Z AUTO 33008KT 6SM M09/M18 A3033 RMK T10901180 IEM_DS3505
ZBYN,2004-01-26 18:00,ZBYN 261800Z AUTO 29002KT 6SM M08/M16 A3033 RMK SLP339 T10851161 52006 IEM_DS3505
ZBYN,2004-01-26 19:00,ZBYN 261900Z AUTO 07004KT 6SM M11/M19 A3033 RMK T11101190 IEM_DS3505
ZBYN,2004-01-26 20:00,ZBYN 262000Z AUTO 33004KT 6SM M12/M18 A3033 RMK T11201180 IEM_DS3505
ZBYN,2004-01-26 21:00,ZBYN 262100Z AUTO 36004KT 6SM M09/M17 A3033 RMK SLP335 T10861171 57006 IEM_DS3505
ZBYN,2004-01-26 22:00,ZBYN 262200Z AUTO 14002KT 6SM M15/M20 A3033 RMK T11501200 IEM_DS3505
ZBYN,2004-01-26 23:00,ZBYN 262300Z AUTO 12002KT 6SM M16/M21 A3033 RMK T11601210 IEM_DS3505
ZBYN,2004-01-27 00:00,ZBYN 270000Z AUTO 00000KT 6SM M14/M18 A3033 RMK SLP355 T11401181 52003 IEM_DS3505
ZBYN,2004-01-27 01:00,ZBYN 270100Z AUTO 11002KT 6SM M13/M18 A3033 RMK T11301180 IEM_DS3505
ZBYN,2004-01-27 02:00,ZBYN 270200Z AUTO 22002KT M09/M18 A3033 RMK T10901180 IEM_DS3505
ZBYN,2004-01-27 03:00,ZBYN 270300Z AUTO 02002KT 6SM M05/M18 A3033 RMK SLP338 T10481178 57002 IEM_DS3505
ZBYN,2004-01-27 04:00,ZBYN 270400Z AUTO 6SM M03/M19 A3030 RMK T10301190 IEM_DS3505
ZBYN,2004-01-27 05:00,ZBYN 270500Z AUTO 6SM M02/M19 A3024 RMK T10201190 IEM_DS3505
ZBYN,2004-01-27 06:00,ZBYN 270600Z AUTO 22006KT 6SM M00/M18 A3021 RMK SLP295 T10021177 57037 IEM_DS3505
ZBYN,2004-01-27 07:00,ZBYN 270700Z AUTO 23004KT 6SM 01/M22 A3018 RMK T00101220 IEM_DS3505
ZBYN,2004-01-27 08:00,ZBYN 270800Z AUTO 24004KT 6SM 01/M24 A3015 RMK T00101240 IEM_DS3505
ZBYN,2004-01-27 09:00,ZBYN 270900Z AUTO 16006KT 6SM 00/M19 A3015 RMK SLP275 T00041187 57017 IEM_DS3505
ZBYN,2004-01-27 10:00,ZBYN 271000Z AUTO 12002KT 6SM M05/M21 A3015 RMK T10501210 IEM_DS3505
ZBYN,2004-01-27 11:00,ZBYN 271100Z AUTO 07004KT 6SM M07/M22 A3012 RMK T10701220 IEM_DS3505
ZBYN,2004-01-27 12:00,ZBYN 271200Z AUTO 32002KT 6SM M06/M18 A3012 RMK SLP288 T10631182 57009 IEM_DS3505
ZBYN,2004-01-27 13:00,ZBYN 271300Z AUTO 12002KT 6SM M11/M22 A3012 RMK T11101220 IEM_DS3505
ZBYN,2004-01-27 14:00,ZBYN 271400Z AUTO 09004KT 6SM M10/M21 A3012 RMK T11001210 IEM_DS3505
ZBYN,2004-01-27 15:00,ZBYN 271500Z AUTO 09002KT 6SM M10/M18 A3012 RMK SLP271 T11051180 57007 IEM_DS3505
ZBYN,2004-01-27 16:00,ZBYN 271600Z AUTO 06002KT 6SM M13/M22 A3012 RMK T11301220 IEM_DS3505
ZBYN,2004-01-27 17:00,ZBYN 271700Z AUTO 11004KT 6SM M15/M23 A3009 RMK T11501230 IEM_DS3505
ZBYN,2004-01-27 18:00,ZBYN 271800Z AUTO 00000KT 6SM M13/M18 A3009 RMK SLP256 T11291182 57010 IEM_DS3505
ZBYN,2004-01-27 19:00,ZBYN 271900Z AUTO 00000KT 6SM M14/M21 A3006 RMK T11401210 IEM_DS3505
ZBYN,2004-01-27 20:00,ZBYN 272000Z AUTO 11002KT 6SM M14/M21 A3003 RMK T11401210 IEM_DS3505
ZBYN,2004-01-27 21:00,ZBYN 272100Z AUTO 00000KT 6SM M13/M18 A3003 RMK SLP238 T11291182 57015 IEM_DS3505
ZBYN,2004-01-27 22:00,ZBYN 272200Z AUTO 00000KT 6SM M15/M21 A3003 RMK T11501210 IEM_DS3505
ZBYN,2004-01-27 23:00,ZBYN 272300Z AUTO 00000KT 6SM M16/M22 A3003 RMK T11601220 IEM_DS3505
ZBYN,2004-01-28 00:00,ZBYN 280000Z AUTO 00000KT 4SM M13/M18 A3003 RMK SLP253 T11321183 52002 IEM_DS3505
ZBYN,2004-01-28 01:00,ZBYN 280100Z AUTO 12002KT 2 1/2SM M13/M17 A3003 RMK T11301170 IEM_DS3505
ZBYN,2004-01-28 02:00,ZBYN 280200Z AUTO 22002KT 2 1/2SM M08/M18 A3003 RMK T10801180 IEM_DS3505
ZBYN,2004-01-28 03:00,ZBYN 280300Z AUTO 34002KT 4SM M03/M16 A3000 RMK SLP237 T10331162 57005 IEM_DS3505
ZBYN,2004-01-28 04:00,ZBYN 280400Z AUTO M01/M19 A2997 RMK T10101190 IEM_DS3505
ZBYN,2004-01-28 05:00,ZBYN 280500Z AUTO 01/M20 A2994 RMK T00101200 IEM_DS3505
ZBYN,2004-01-28 06:00,ZBYN 280600Z AUTO 18004KT 4SM 03/M17 A2991 RMK SLP192 T00261174 57035 IEM_DS3505
ZBYN,2004-01-28 07:00,ZBYN 280700Z AUTO 16002KT 5SM 03/M21 A2988 RMK T00301210 IEM_DS3505
ZBYN,2004-01-28 08:00,ZBYN 280800Z AUTO 00000KT 5SM 04/M22 A2988 RMK T00401220 IEM_DS3505
ZBYN,2004-01-28 09:00,ZBYN 280900Z AUTO 29002KT 4SM 02/M16 A2988 RMK SLP183 T00241165 57008 IEM_DS3505
ZBYN,2004-01-28 10:00,ZBYN 281000Z AUTO 00000KT M01/M20 A2988 RMK T10101200 IEM_DS3505
ZBYN,2004-01-28 11:00,ZBYN 281100Z AUTO 01002KT M04/M21 A2988 RMK T10401210 IEM_DS3505
ZBYN,2004-01-28 12:00,ZBYN 281200Z AUTO 36002KT 3SM M03/M14 A2991 RMK SLP204 T10331143 52008 IEM_DS3505
ZBYN,2004-01-28 13:00,ZBYN 281300Z AUTO 12004KT 6SM M08/M20 A2991 RMK T10801200 IEM_DS3505
ZBYN,2004-01-28 14:00,ZBYN 281400Z AUTO 07002KT 6SM M08/M19 A2991 RMK T10801190 IEM_DS3505
ZBYN,2004-01-28 15:00,ZBYN 281500Z AUTO 16004KT 3SM M08/M17 A2991 RMK SLP200 T10791169 52006 IEM_DS3505
ZBYN,2004-01-28 16:00,ZBYN 281600Z AUTO 13002KT 6SM M10/M18 A2994 RMK T11001180 IEM_DS3505
ZBYN,2004-01-28 17:00,ZBYN 281700Z AUTO 08004KT 6SM M11/M19 A2991 RMK T11101190 IEM_DS3505
ZBYN,2004-01-28 18:00,ZBYN 281800Z AUTO 29004KT 3SM M08/M15 A2991 RMK SLP191 T10781150 52002 IEM_DS3505
ZBYN,2004-01-28 19:00,ZBYN 281900Z AUTO 00000KT 6SM M11/M19 A2991 RMK T11101190 IEM_DS3505
ZBYN,2004-01-28 20:00,ZBYN 282000Z AUTO 00000KT 6SM M11/M19 A2991 RMK T11101190 IEM_DS3505
ZBYN,2004-01-28 21:00,ZBYN 282100Z AUTO 02002KT 3SM M07/M15 A2991 RMK SLP186 T10671146 57003 IEM_DS3505
ZBYN,2004-01-28 22:00,ZBYN 282200Z AUTO 00000KT 6SM M12/M19 A2991 RMK T11201190 IEM_DS3505
ZBYN,2004-01-28 23:00,ZBYN 282300Z AUTO 6SM M12/M17 A2991 RMK T11201170 IEM_DS3505
ZBYN,2004-01-29 00:00,ZBYN 290000Z AUTO 32002KT 4SM M07/M15 A2994 RMK SLP203 T10691150 52005 IEM_DS3505
ZBYN,2004-01-29 01:00,ZBYN 290100Z AUTO 00000KT 2 1/2SM A2994 RMK IEM_DS3505
ZBYN,2004-01-29 02:00,ZBYN 290200Z AUTO 19002KT 2 1/2SM A2994 RMK IEM_DS3505
ZBYN,2004-01-29 03:00,ZBYN 290300Z AUTO 02004KT 4SM 01/M15 A2994 RMK SLP201 T00091150 52004 IEM_DS3505
ZBYN,2004-01-29 04:00,ZBYN 290400Z AUTO 00000KT 2 1/2SM 01/M16 A2991 RMK T00101160 IEM_DS3505
ZBYN,2004-01-29 05:00,ZBYN 290500Z AUTO 33004KT 3SM 03/M18 A2988 RMK T00301180 IEM_DS3505
ZBYN,2004-01-29 06:00,ZBYN 290600Z AUTO 36004KT 4SM 04/M14 A2988 RMK SLP171 T00391142 57022 IEM_DS3505
ZBYN,2004-01-29 07:00,ZBYN 290700Z AUTO 32004KT 3SM 05/M17 A2985 RMK T00501170 IEM_DS3505
ZBYN,2004-01-29 08:00,ZBYN 290800Z AUTO 26004KT 3SM 05/M16 A2988 RMK T00501160 IEM_DS3505
ZBYN,2004-01-29 09:00,ZBYN 290900Z AUTO 20004KT 4SM 04/M13 A2988 RMK SLP174 T00411127 52005 IEM_DS3505
ZBYN,2004-01-29 10:00,ZBYN 291000Z AUTO 12002KT 1 1/2SM A2991 RMK IEM_DS3505
ZBYN,2004-01-29 11:00,ZBYN 291100Z AUTO 10004KT 3SM A2994 RMK IEM_DS3505
ZBYN,2004-01-29 12:00,ZBYN 291200Z AUTO 32004KT 4SM M03/M11 A2997 RMK SLP213 T10281112 52023 IEM_DS3505
ZBYN,2004-01-29 13:00,ZBYN 291300Z AUTO 07010KT 6SM 00/M18 A3000 RMK T00001180 IEM_DS3505
ZBYN,2004-01-29 14:00,ZBYN 291400Z AUTO 08006KT 6SM M01/M18 A3000 RMK T10101180 IEM_DS3505
ZBYN,2004-01-29 15:00,ZBYN 291500Z AUTO 29002KT 6SM M04/M12 A3003 RMK SLP224 T10391125 52021 IEM_DS3505
ZBYN,2004-01-29 16:00,ZBYN 291600Z AUTO 6SM M05/M20 A3003 RMK T10501200 IEM_DS3505
ZBYN,2004-01-29 18:00,ZBYN 291800Z AUTO 34002KT 6SM M04/M15 A3006 RMK SLP223 T10381153 52005 IEM_DS3505
ZBYN,2004-01-29 19:00,ZBYN 291900Z AUTO 13002KT 4SM A3003 RMK IEM_DS3505
ZBYN,2004-01-29 20:00,ZBYN 292000Z AUTO 24002KT 4SM A3003 RMK IEM_DS3505
ZBYN,2004-01-29 21:00,ZBYN 292100Z AUTO 34002KT 6SM M05/M15 A3003 RMK SLP225 T10521147 57001 IEM_DS3505
ZBYN,2004-01-29 22:00,ZBYN 292200Z AUTO 07002KT 4SM M11/M18 A3006 RMK T11101180 IEM_DS3505
ZBYN,2004-01-29 23:00,ZBYN 292300Z AUTO 00000KT M12/M18 A3006 RMK T11201180 IEM_DS3505
ZBYN,2004-01-30 00:00,ZBYN 300000Z AUTO 11002KT 5SM M10/M15 A3006 RMK SLP256 T10951146 52010 IEM_DS3505
ZBYN,2004-01-30 01:00,ZBYN 300100Z AUTO 14002KT 1 1/2SM M10/M15 A3006 RMK T11001150 IEM_DS3505
ZBYN,2004-01-30 02:00,ZBYN 300200Z AUTO 00000KT 2 1/2SM M04/M15 A3009 RMK T10401150 IEM_DS3505
ZBYN,2004-01-30 03:00,ZBYN 300300Z AUTO 36004KT 3SM 00/M14 A3009 RMK SLP245 T00041143 52005 IEM_DS3505
ZBYN,2004-01-30 04:00,ZBYN 300400Z AUTO 02/M16 A3006 RMK T00201160 IEM_DS3505
ZBYN,2004-01-30 05:00,ZBYN 300500Z AUTO 3SM 05/M16 A3003 RMK T00501160 IEM_DS3505
ZBYN,2004-01-30 06:00,ZBYN 300600Z AUTO 14002KT 3SM 06/M13 A3000 RMK SLP202 T00621133 57030 IEM_DS3505
ZBYN,2004-01-30 07:00,ZBYN 300700Z AUTO 22004KT 07/M15 A2997 RMK T00701150 IEM_DS3505
ZBYN,2004-01-30 08:00,ZBYN 300800Z AUTO 23004KT 06/M15 A2997 RMK T00601150 IEM_DS3505
ZBYN,2004-01-30 09:00,ZBYN 300900Z AUTO 20002KT 4SM 05/M13 A2997 RMK SLP199 T00511127 57007 IEM_DS3505
ZBYN,2004-01-30 10:00,ZBYN 301000Z AUTO 21002KT 5SM 03/M14 A3000 RMK T00301140 IEM_DS3505
ZBYN,2004-01-30 11:00,ZBYN 301100Z AUTO 04002KT 4SM A3000 RMK IEM_DS3505
ZBYN,2004-01-30 12:00,ZBYN 301200Z AUTO 32002KT 4SM 01/M10 A3000 RMK SLP230 T00121105 52015 IEM_DS3505
ZBYN,2004-01-30 13:00,ZBYN 301300Z AUTO 11004KT 5SM 00/M13 A3003 RMK T00001130 IEM_DS3505
ZBYN,2004-01-30 14:00,ZBYN 301400Z AUTO 00000KT 5SM A3006 RMK IEM_DS3505
ZBYN,2004-01-30 15:00,ZBYN 301500Z AUTO 29002KT 3SM M00/M11 A3006 RMK SLP230 T10021109 52014 IEM_DS3505
ZBYN,2004-01-30 16:00,ZBYN 301600Z AUTO 11004KT 5SM A3006 RMK IEM_DS3505
ZBYN,2004-01-30 17:00,ZBYN 301700Z AUTO 00000KT 5SM A3006 RMK IEM_DS3505
ZBYN,2004-01-30 18:00,ZBYN 301800Z AUTO 14002KT 2 1/2SM M02/M11 A3006 RMK SLP224 T10191106 52001 IEM_DS3505
ZBYN,2004-01-30 19:00,ZBYN 301900Z AUTO 12002KT 5SM A3006 RMK IEM_DS3505
ZBYN,2004-01-30 20:00,ZBYN 302000Z AUTO 11002KT 5SM A3006 RMK IEM_DS3505
ZBYN,2004-01-30 21:00,ZBYN 302100Z AUTO 22002KT 2 1/2SM M03/M11 A3003 RMK SLP218 T10301109 57009 IEM_DS3505
ZBYN,2004-01-30 22:00,ZBYN 302200Z AUTO 13004KT 3SM A3003 RMK IEM_DS3505
ZBYN,2004-01-30 23:00,ZBYN 302300Z AUTO 00000KT 3SM A3003 RMK IEM_DS3505
ZBYN,2004-01-31 00:00,ZBYN 310000Z AUTO 29002KT 2 1/2SM M03/M10 A3006 RMK SLP229 T10261101 52005 IEM_DS3505
ZBYN,2004-01-31 01:00,ZBYN 310100Z AUTO 00000KT 1 1/4SM A3006 RMK IEM_DS3505
ZBYN,2004-01-31 02:00,ZBYN 310200Z AUTO 15002KT 1SM A3006 RMK IEM_DS3505
ZBYN,2004-01-31 03:00,ZBYN 310300Z AUTO 22002KT 2SM 01/M10 A3006 RMK SLP227 T00091102 52001 IEM_DS3505
ZBYN,2004-01-31 04:00,ZBYN 310400Z AUTO 12002KT 1SM 02/M10 A3003 RMK T00201100 IEM_DS3505
ZBYN,2004-01-31 05:00,ZBYN 310500Z AUTO 21004KT 1SM 02/M10 A3003 RMK T00201100 IEM_DS3505
ZBYN,2004-01-31 06:00,ZBYN 310600Z AUTO 20008KT 1 1/4SM 02/M08 A3000 RMK SLP210 T00231078 57016 IEM_DS3505
ZBYN,2004-01-31 07:00,ZBYN 310700Z AUTO 21006KT 1 1/2SM 01/M04 A3003 RMK T00101040 IEM_DS3505
ZBYN,2004-01-31 08:00,ZBYN 310800Z AUTO 20004KT 1 1/4SM 00/M03 A3003 RMK T00001030 IEM_DS3505
ZBYN,2004-01-31 09:00,ZBYN 310900Z AUTO 14004KT 2 1/2SM 00/M02 A3003 RMK SLP224 T00031018 52008 IEM_DS3505
ZBYN,2004-01-31 10:00,ZBYN 311000Z AUTO 19002KT 1SM A3006 RMK IEM_DS3505
ZBYN,2004-01-31 11:00,ZBYN 311100Z AUTO 21002KT 1SM A3009 RMK IEM_DS3505
ZBYN,2004-01-31 12:00,ZBYN 311200Z AUTO 14004KT 2 1/2SM M01/M02 A3009 RMK SLP248 T10121022 52020 IEM_DS3505
ZBYN,2004-01-31 13:00,ZBYN 311300Z AUTO 18002KT 1SM A3009 RMK IEM_DS3505
ZBYN,2004-01-31 14:00,ZBYN 311400Z AUTO 28002KT 1SM A3012 RMK IEM_DS3505
ZBYN,2004-01-31 15:00,ZBYN 311500Z AUTO 22002KT 1/4SM M03/M03 A3012 RMK SLP261 T10301034 52014 IEM_DS3505
ZBYN,2004-01-31 16:00,ZBYN 311600Z AUTO 1/8SM A3015 RMK IEM_DS3505
ZBYN,2004-01-31 17:00,ZBYN 311700Z AUTO 09002KT 1/8SM A3015 RMK IEM_DS3505
ZBYN,2004-01-31 18:00,ZBYN 311800Z AUTO 32004KT 1/8SM M07/M07 A3015 RMK SLP266 T10671071 52001 IEM_DS3505
ZBYN,2004-01-31 19:00,ZBYN 311900Z AUTO 29004KT 2SM M07/M09 A3015 RMK T10701090 IEM_DS3505
ZBYN,2004-01-31 20:00,ZBYN 312000Z AUTO 01004KT 6SM M09/M11 A3015 RMK T10901110 IEM_DS3505
ZBYN,2004-01-31 21:00,ZBYN 312100Z AUTO 34004KT 6SM M04/M20 A3015 RMK 70000 SLP265 T10441205 54000 IEM_DS3505
ZBYN,2004-01-31 22:00,ZBYN 312200Z AUTO 6SM M11/M18 A3015 RMK T11101180 IEM_DS3505
ZBYN,2004-01-31 23:00,ZBYN 312300Z AUTO 09002KT 6SM M12/M15 A3018 RMK T11201150 IEM_DS3505
ZBYN,2004-02-01 00:00,ZBYN 010000Z AUTO 11004KT 9SM M08/M20 A3021 RMK 70000 SLP292 T10771201 52016 IEM_DS3505
ZBYN,2004-02-01 01:00,ZBYN 010100Z AUTO 12004KT 6SM M11/M15 A3021 RMK T11101150 IEM_DS3505
ZBYN,2004-02-01 02:00,ZBYN 010200Z AUTO 11002KT 6SM M07/M13 A3021 RMK T10701130 IEM_DS3505
ZBYN,2004-02-01 03:00,ZBYN 010300Z AUTO 07006KT 9SM M03/M21 A3021 RMK SLP292 T10261208 52006 IEM_DS3505
ZBYN,2004-02-01 04:00,ZBYN 010400Z AUTO 6SM M02/M24 A3018 RMK T10201240 IEM_DS3505
ZBYN,2004-02-01 05:00,ZBYN 010500Z AUTO 03004KT 6SM M01/M27 A3015 RMK T10101270 IEM_DS3505
ZBYN,2004-02-01 06:00,ZBYN 010600Z AUTO 29002KT 9SM 00/M23 A3015 RMK SLP265 T00011233 57026 IEM_DS3505
ZBYN,2004-02-01 07:00,ZBYN 010700Z AUTO 31006KT 6SM 00/M28 A3012 RMK T00001280 IEM_DS3505
ZBYN,2004-02-01 08:00,ZBYN 010800Z AUTO 30010KT 6SM 00/M28 A3009 RMK T00001280 IEM_DS3505
ZBYN,2004-02-01 09:00,ZBYN 010900Z AUTO 04004KT 11SM M01/M23 A3012 RMK SLP261 T10061232 57001 IEM_DS3505
ZBYN,2004-02-01 10:00,ZBYN 011000Z AUTO 36004KT 6SM M04/M25 A3015 RMK T10401250 IEM_DS3505
ZBYN,2004-02-01 11:00,ZBYN 011100Z AUTO 34006KT 6SM M05/M24 A3021 RMK T10501240 IEM_DS3505
ZBYN,2004-02-01 12:00,ZBYN 011200Z AUTO 32006KT 9SM M03/M22 A3021 RMK SLP309 T10321223 52033 IEM_DS3505
ZBYN,2004-02-01 13:00,ZBYN 011300Z AUTO 33006KT 6SM M05/M23 A3027 RMK T10501230 IEM_DS3505
ZBYN,2004-02-01 14:00,ZBYN 011400Z AUTO 34004KT 6SM M06/M23 A3027 RMK T10601230 IEM_DS3505
ZBYN,2004-02-01 15:00,ZBYN 011500Z AUTO 34008KT 9SM M04/M22 A3030 RMK SLP317 T10431222 52014 IEM_DS3505
ZBYN,2004-02-01 16:00,ZBYN 011600Z AUTO 33006KT 6SM M06/M24 A3030 RMK T10601240 IEM_DS3505
ZBYN,2004-02-01 17:00,ZBYN 011700Z AUTO 33010KT 6SM M06/M24 A3027 RMK T10601240 IEM_DS3505
ZBYN,2004-02-01 18:00,ZBYN 011800Z AUTO 32008KT 9SM M06/M22 A3027 RMK SLP315 T10611215 54000 IEM_DS3505
ZBYN,2004-02-01 19:00,ZBYN 011900Z AUTO 32010KT 6SM M08/M24 A3030 RMK T10801240 IEM_DS3505
ZBYN,2004-02-01 20:00,ZBYN 012000Z AUTO 30014KT 6SM M08/M24 A3027 RMK T10801240 IEM_DS3505
ZBYN,2004-02-01 21:00,ZBYN 012100Z AUTO 34008KT 9SM M08/M22 A3027 RMK SLP313 T10821222 57007 IEM_DS3505
ZBYN,2004-02-01 22:00,ZBYN 012200Z AUTO 32008KT 6SM M09/M24 A3027 RMK T10901240 IEM_DS3505
ZBYN,2004-02-01 23:00,ZBYN 012300Z AUTO 30008KT 6SM M10/M24 A3027 RMK T11001240 IEM_DS3505
ZBYN,2004-02-02 00:00,ZBYN 020000Z AUTO 34006KT 19SM M09/M22 A3030 RMK SLP335 T10871223 52015 IEM_DS3505
ZBYN,2004-02-02 01:00,ZBYN 020100Z AUTO 32016KT 6SM M09/M24 A3030 RMK T10901240 IEM_DS3505
ZBYN,2004-02-02 02:00,ZBYN 020200Z AUTO 31012KT 6SM M08/M24 A3030 RMK T10801240 IEM_DS3505
ZBYN,2004-02-02 03:00,ZBYN 020300Z AUTO 07004KT 16SM M05/M22 A3030 RMK SLP324 T10471221 57005 IEM_DS3505
ZBYN,2004-02-02 04:00,ZBYN 020400Z AUTO 6SM M04/M25 A3027 RMK T10401250 IEM_DS3505
ZBYN,2004-02-02 05:00,ZBYN 020500Z AUTO 27006KT 6SM M02/M28 A3021 RMK T10201280 IEM_DS3505
ZBYN,2004-02-02 06:00,ZBYN 020600Z AUTO 32014KT 16SM M00/M26 A3018 RMK SLP277 T10011259 57038 IEM_DS3505
ZBYN,2004-02-02 07:00,ZBYN 020700Z AUTO 24008KT 6SM 00/M27 A3015 RMK T00001270 IEM_DS3505
ZBYN,2004-02-02 08:00,ZBYN 020800Z AUTO 29010KT 6SM 00/M30 A3015 RMK T00001300 IEM_DS3505
ZBYN,2004-02-02 09:00,ZBYN 020900Z AUTO 29012KT 12SM M02/M26 A3015 RMK SLP277 T10171263 57006 IEM_DS3505
ZBYN,2004-02-02 10:00,ZBYN 021000Z AUTO 30010KT 6SM M04/M28 A3015 RMK T10401280 IEM_DS3505
ZBYN,2004-02-02 11:00,ZBYN 021100Z AUTO 31012KT 6SM M05/M27 A3018 RMK T10501270 IEM_DS3505
ZBYN,2004-02-02 12:00,ZBYN 021200Z AUTO 29006KT 12SM M06/M23 A3021 RMK SLP307 T10571234 52019 IEM_DS3505
ZBYN,2004-02-02 13:00,ZBYN 021300Z AUTO 00000KT 6SM M08/M25 A3024 RMK T10801250 IEM_DS3505
ZBYN,2004-02-02 14:00,ZBYN 021400Z AUTO 17004KT 6SM M09/M24 A3021 RMK T10901240 IEM_DS3505
ZBYN,2004-02-02 15:00,ZBYN 021500Z AUTO 22004KT 12SM M07/M23 A3021 RMK SLP302 T10731226 54000 IEM_DS3505
ZBYN,2004-02-02 16:00,ZBYN 021600Z AUTO 21002KT 6SM M10/M24 A3021 RMK T11001240 IEM_DS3505
ZBYN,2004-02-02 17:00,ZBYN 021700Z AUTO 21004KT 6SM M10/M24 A3021 RMK T11001240 IEM_DS3505
ZBYN,2004-02-02 18:00,ZBYN 021800Z AUTO 34002KT 11SM M08/M22 A3021 RMK SLP289 T10831216 57006 IEM_DS3505
ZBYN,2004-02-02 19:00,ZBYN 021900Z AUTO 20004KT 6SM M10/M23 A3018 RMK T11001230 IEM_DS3505
ZBYN,2004-02-02 20:00,ZBYN 022000Z AUTO 11004KT 6SM M12/M24 A3018 RMK T11201240 IEM_DS3505
ZBYN,2004-02-02 21:00,ZBYN 022100Z AUTO 29002KT 9SM M11/M22 A3015 RMK SLP284 T11121218 57012 IEM_DS3505
ZBYN,2004-02-02 22:00,ZBYN 022200Z AUTO 6SM M13/M24 A3015 RMK T11301240 IEM_DS3505
ZBYN,2004-02-02 23:00,ZBYN 022300Z AUTO 22002KT 6SM M13/M23 A3015 RMK T11301230 IEM_DS3505
ZBYN,2004-02-03 00:00,ZBYN 030000Z AUTO 22002KT 9SM M11/M21 A3015 RMK SLP291 T11111214 54000 IEM_DS3505
ZBYN,2004-02-03 01:00,ZBYN 030100Z AUTO 19004KT 6SM M09/M24 A3015 RMK T10901240 IEM_DS3505
ZBYN,2004-02-03 02:00,ZBYN 030200Z AUTO 23006KT 6SM M05/M24 A3015 RMK T10501240 IEM_DS3505
ZBYN,2004-02-03 03:00,ZBYN 030300Z AUTO 20008KT 12SM M03/M23 A3012 RMK SLP267 T10331229 57011 IEM_DS3505
ZBYN,2004-02-03 04:00,ZBYN 030400Z AUTO 25010KT 6SM M01/M27 A3009 RMK T10101270 IEM_DS3505
ZBYN,2004-02-03 05:00,ZBYN 030500Z AUTO 30010KT 6SM 00/M28 A3000 RMK T00001280 IEM_DS3505
ZBYN,2004-02-03 06:00,ZBYN 030600Z AUTO 22006KT 12SM 01/M25 A2997 RMK SLP214 T00081252 57043 IEM_DS3505
ZBYN,2004-02-03 07:00,ZBYN 030700Z AUTO 26006G16KT 6SM 02/M28 A2997 RMK T00201280 IEM_DS3505
ZBYN,2004-02-03 08:00,ZBYN 030800Z AUTO 32017KT 6SM 01/M28 A2997 RMK T00101280 IEM_DS3505
ZBYN,2004-02-03 09:00,ZBYN 030900Z AUTO 29012KT 9SM M00/M24 A3000 RMK SLP230 T10021243 52008 IEM_DS3505
ZBYN,2004-02-03 10:00,ZBYN 031000Z AUTO 29008KT 6SM M02/M27 A3000 RMK T10201270 IEM_DS3505
ZBYN,2004-02-03 11:00,ZBYN 031100Z AUTO 28004KT 6SM M04/M27 A3003 RMK T10401270 IEM_DS3505
ZBYN,2004-02-03 12:00,ZBYN 031200Z AUTO 25004KT 11SM M05/M22 A3003 RMK SLP250 T10481217 52010 IEM_DS3505
ZBYN,2004-02-03 13:00,ZBYN 031300Z AUTO 26004KT 6SM M05/M27 A3006 RMK T10501270 IEM_DS3505
ZBYN,2004-02-03 14:00,ZBYN 031400Z AUTO 28006KT 6SM M04/M25 A3006 RMK T10401250 IEM_DS3505
ZBYN,2004-02-03 15:00,ZBYN 031500Z AUTO 32008KT 9SM M03/M19 A3009 RMK SLP250 T10321190 52016 IEM_DS3505
ZBYN,2004-02-03 17:00,ZBYN 031700Z AUTO 30010KT 6SM M05/M22 A3009 RMK T10501220 IEM_DS3505
ZBYN,2004-02-03 18:00,ZBYN 031800Z AUTO 34004KT 9SM M05/M20 A3009 RMK SLP243 T10471199 57002 IEM_DS3505
ZBYN,2004-02-03 19:00,ZBYN 031900Z AUTO 31012KT 6SM M05/M22 A3009 RMK T10501220 IEM_DS3505
ZBYN,2004-02-03 20:00,ZBYN 032000Z AUTO 30008KT 6SM M07/M23 A3009 RMK T10701230 IEM_DS3505
ZBYN,2004-02-03 21:00,ZBYN 032100Z AUTO 32004KT 9SM M07/M20 A3009 RMK SLP251 T10731204 52001 IEM_DS3505
ZBYN,2004-02-03 22:00,ZBYN 032200Z AUTO 23002KT 6SM M09/M23 A3009 RMK T10901230 IEM_DS3505
ZBYN,2004-02-03 23:00,ZBYN 032300Z AUTO 00000KT 6SM M11/M22 A3012 RMK T11101220 IEM_DS3505
ZBYN,2004-02-04 00:00,ZBYN 040000Z AUTO 32002KT 9SM M08/M20 A3015 RMK SLP283 T10761203 52021 IEM_DS3505
ZBYN,2004-02-04 01:00,ZBYN 040100Z AUTO 30006KT 6SM M06/M21 A3015 RMK T10601210 IEM_DS3505
ZBYN,2004-02-04 02:00,ZBYN 040200Z AUTO 30006KT 6SM M05/M22 A3015 RMK T10501220 IEM_DS3505
ZBYN,2004-02-04 03:00,ZBYN 040300Z AUTO 32008KT 12SM M03/M19 A3015 RMK SLP276 T10291192 52004 IEM_DS3505
ZBYN,2004-02-04 04:00,ZBYN 040400Z AUTO 25008KT 6SM M03/M22 A3015 RMK T10301220 IEM_DS3505
ZBYN,2004-02-04 05:00,ZBYN 040500Z AUTO 31012KT 6SM M02/M23 A3009 RMK T10201230 IEM_DS3505
ZBYN,2004-02-04 06:00,ZBYN 040600Z AUTO 32016KT 9SM M02/M20 A3009 RMK SLP256 T10231200 57019 IEM_DS3505
ZBYN,2004-02-04 07:00,ZBYN 040700Z AUTO 30016KT 6SM M02/M23 A3009 RMK T10201230 IEM_DS3505
ZBYN,2004-02-04 08:00,ZBYN 040800Z AUTO 29017KT 6SM M03/M19 A3012 RMK T10301190 IEM_DS3505
ZBYN,2004-02-04 09:00,ZBYN 040900Z AUTO 29010KT 7SM M04/M18 A3015 RMK SLP276 T10381176 52011 IEM_DS3505
ZBYN,2004-02-04 10:00,ZBYN 041000Z AUTO 29006KT 6SM M05/M22 A3015 RMK T10501220 IEM_DS3505
ZBYN,2004-02-04 11:00,ZBYN 041100Z AUTO 33012KT 6SM M05/M21 A3021 RMK T10501210 IEM_DS3505
ZBYN,2004-02-04 12:00,ZBYN 041200Z AUTO 32010KT 9SM M06/M18 A3024 RMK SLP315 T10591175 52031 IEM_DS3505
ZBYN,2004-02-04 13:00,ZBYN 041300Z AUTO 30012KT 6SM M07/M23 A3024 RMK T10701230 IEM_DS3505
ZBYN,2004-02-04 14:00,ZBYN 041400Z AUTO 32012KT 6SM M08/M24 A3027 RMK T10801240 IEM_DS3505
ZBYN,2004-02-04 15:00,ZBYN 041500Z AUTO 32008KT 9SM M08/M22 A3030 RMK SLP330 T10771222 52019 IEM_DS3505
ZBYN,2004-02-04 16:00,ZBYN 041600Z AUTO 29012KT 6SM M09/M25 A3030 RMK T10901250 IEM_DS3505
ZBYN,2004-02-04 17:00,ZBYN 041700Z AUTO 30010KT 6SM M10/M27 A3030 RMK T11001270 IEM_DS3505
ZBYN,2004-02-04 18:00,ZBYN 041800Z AUTO 29010KT 12SM M09/M25 A3030 RMK SLP335 T10941252 52002 IEM_DS3505
ZBYN,2004-02-04 19:00,ZBYN 041900Z AUTO 30010KT 6SM M11/M27 A3033 RMK T11101270 IEM_DS3505
ZBYN,2004-02-04 20:00,ZBYN 042000Z AUTO 29004KT 6SM M12/M27 A3030 RMK T11201270 IEM_DS3505
ZBYN,2004-02-04 21:00,ZBYN 042100Z AUTO 32004KT 12SM M11/M24 A3030 RMK SLP342 T11141244 52001 IEM_DS3505
ZBYN,2004-02-04 22:00,ZBYN 042200Z AUTO 30004KT 6SM M12/M27 A3030 RMK T11201270 IEM_DS3505
ZBYN,2004-02-04 23:00,ZBYN 042300Z AUTO 27006KT 6SM M12/M25 A3033 RMK T11201250 IEM_DS3505
ZBYN,2004-02-05 00:00,ZBYN 050000Z AUTO 29006KT 16SM M11/M24 A3033 RMK SLP355 T11081238 52009 IEM_DS3505
ZBYN,2004-02-05 01:00,ZBYN 050100Z AUTO 24004KT 6SM M10/M25 A3036 RMK T11001250 IEM_DS3505
ZBYN,2004-02-05 02:00,ZBYN 050200Z AUTO 25008KT 6SM M08/M25 A3036 RMK T10801250 IEM_DS3505
ZBYN,2004-02-05 03:00,ZBYN 050300Z AUTO 29014KT 19SM M05/M24 A3036 RMK SLP351 T10511239 52003 IEM_DS3505
ZBYN,2004-02-05 04:00,ZBYN 050400Z AUTO 30016KT 6SM M04/M27 A3033 RMK T10401270 IEM_DS3505
ZBYN,2004-02-05 05:00,ZBYN 050500Z AUTO 31016KT 6SM M03/M28 A3030 RMK T10301280 IEM_DS3505
ZBYN,2004-02-05 06:00,ZBYN 050600Z AUTO 29016KT 19SM M02/M25 RMK SLP318 T10181249 57027 IEM_DS3505
ZBYN,2004-02-05 07:00,ZBYN 050700Z AUTO 29014KT 6SM M02/M28 A3024 RMK T10201280 IEM_DS3505
ZBYN,2004-02-05 08:00,ZBYN 050800Z AUTO 31016KT 6SM M02/M28 A3024 RMK T10201280 IEM_DS3505
ZBYN,2004-02-05 09:00,ZBYN 050900Z AUTO 29014KT 16SM M02/M24 A3024 RMK SLP318 T10191242 57004 IEM_DS3505
ZBYN,2004-02-05 10:00,ZBYN 051000Z AUTO 30010KT 6SM M04/M27 A3024 RMK T10401270 IEM_DS3505
ZBYN,2004-02-05 11:00,ZBYN 051100Z AUTO 25002KT 6SM M06/M25 A3027 RMK T10601250 IEM_DS3505
ZBYN,2004-02-05 12:00,ZBYN 051200Z AUTO 20004KT 16SM M06/M21 A3024 RMK SLP327 T10601210 52002 IEM_DS3505
ZBYN,2004-02-05 13:00,ZBYN 051300Z AUTO 25006KT 6SM M07/M24 A3027 RMK T10701240 IEM_DS3505
ZBYN,2004-02-05 14:00,ZBYN 051400Z AUTO 24006KT 6SM M07/M24 A3027 RMK T10701240 IEM_DS3505
ZBYN,2004-02-05 15:00,ZBYN 051500Z AUTO 27004KT 12SM M05/M22 A3027 RMK SLP323 T10521216 52008 IEM_DS3505
ZBYN,2004-02-05 16:00,ZBYN 051600Z AUTO 27006KT 6SM M07/M23 A3027 RMK T10701230 IEM_DS3505
ZBYN,2004-02-05 17:00,ZBYN 051700Z AUTO 30010KT 6SM M05/M23 A3030 RMK T10501230 IEM_DS3505
ZBYN,2004-02-05 18:00,ZBYN 051800Z AUTO 32010KT 12SM M05/M21 A3030 RMK SLP328 T10481208 52011 IEM_DS3505
ZBYN,2004-02-05 19:00,ZBYN 051900Z AUTO 30006KT 6SM M07/M23 A3033 RMK T10701230 IEM_DS3505
ZBYN,2004-02-05 20:00,ZBYN 052000Z AUTO 27006KT 6SM M07/M23 A3033 RMK T10701230 IEM_DS3505
ZBYN,2004-02-05 21:00,ZBYN 052100Z AUTO 29004KT 12SM M08/M20 A3033 RMK SLP337 T10781202 52003 IEM_DS3505
ZBYN,2004-02-05 22:00,ZBYN 052200Z AUTO 27004KT 6SM M08/M23 A3033 RMK T10801230 IEM_DS3505
ZBYN,2004-02-05 23:00,ZBYN 052300Z AUTO 26006KT 6SM M09/M22 A3036 RMK T10901220 IEM_DS3505
ZBYN,2004-02-06 00:00,ZBYN 060000Z AUTO 29006KT 16SM M07/M20 A3039 RMK SLP362 T10691204 52017 IEM_DS3505
ZBYN,2004-02-06 01:00,ZBYN 060100Z AUTO 29010KT 6SM M06/M22 A3039 RMK T10601220 IEM_DS3505
ZBYN,2004-02-06 02:00,ZBYN 060200Z AUTO 30012KT 6SM M04/M23 A3042 RMK T10401230 IEM_DS3505
ZBYN,2004-02-06 03:00,ZBYN 060300Z AUTO 29012KT 16SM M02/M22 A3042 RMK SLP357 T10221215 52005 IEM_DS3505
ZBYN,2004-02-06 04:00,ZBYN 060400Z AUTO 29016KT 6SM M01/M25 A3039 RMK T10101250 IEM_DS3505
ZBYN,2004-02-06 05:00,ZBYN 060500Z AUTO 30014KT 6SM 00/M25 A3036 RMK T00001250 IEM_DS3505
ZBYN,2004-02-06 06:00,ZBYN 060600Z AUTO 32010KT 16SM 00/M24 A3033 RMK SLP334 T00051238 57016 IEM_DS3505
ZBYN,2004-02-06 07:00,ZBYN 060700Z AUTO 29014KT 6SM 00/M27 A3033 RMK T00001270 IEM_DS3505
ZBYN,2004-02-06 08:00,ZBYN 060800Z AUTO 30012KT 6SM 00/M28 A3033 RMK T00001280 IEM_DS3505
ZBYN,2004-02-06 09:00,ZBYN 060900Z AUTO 32014KT 12SM M00/M23 A3033 RMK SLP338 T10051231 57003 IEM_DS3505
ZBYN,2004-02-06 10:00,ZBYN 061000Z AUTO 31010KT 6SM M03/M25 A3036 RMK T10301250 IEM_DS3505
ZBYN,2004-02-06 11:00,ZBYN 061100Z AUTO 29006KT 6SM M04/M25 A3036 RMK T10401250 IEM_DS3505
ZBYN,2004-02-06 12:00,ZBYN 061200Z AUTO 27004KT 16SM M04/M22 A3036 RMK SLP354 T10401215 52010 IEM_DS3505
ZBYN,2004-02-06 13:00,ZBYN 061300Z AUTO 27006KT 6SM M06/M25 A3036 RMK T10601250 IEM_DS3505
ZBYN,2004-02-06 14:00,ZBYN 061400Z AUTO 25006KT 6SM M06/M25 A3039 RMK T10601250 IEM_DS3505
ZBYN,2004-02-06 15:00,ZBYN 061500Z AUTO 20004KT 16SM M06/M22 A3039 RMK SLP357 T10641218 52007 IEM_DS3505
ZBYN,2004-02-06 16:00,ZBYN 061600Z AUTO 13004KT 6SM M10/M25 A3039 RMK T11001250 IEM_DS3505
ZBYN,2004-02-06 17:00,ZBYN 061700Z AUTO 24004KT 6SM M07/M23 A3039 RMK T10701230 IEM_DS3505
ZBYN,2004-02-06 18:00,ZBYN 061800Z AUTO 11008KT 16SM M09/M22 A3042 RMK SLP359 T10871220 52002 IEM_DS3505
ZBYN,2004-02-06 19:00,ZBYN 061900Z AUTO 10002KT 6SM M12/M24 A3042 RMK T11201240 IEM_DS3505
ZBYN,2004-02-06 20:00,ZBYN 062000Z AUTO 10004KT 6SM M15/M25 A3039 RMK T11501250 IEM_DS3505
ZBYN,2004-02-06 21:00,ZBYN 062100Z AUTO 11002KT 16SM M12/M22 A3039 RMK SLP363 T11171222 57003 IEM_DS3505
ZBYN,2004-02-06 22:00,ZBYN 062200Z AUTO 09002KT 6SM M15/M24 A3039 RMK T11501240 IEM_DS3505
ZBYN,2004-02-06 23:00,ZBYN 062300Z AUTO 11004KT 6SM M15/M24 A3039 RMK T11501240 IEM_DS3505
ZBYN,2004-02-07 00:00,ZBYN 070000Z AUTO 09004KT 12SM M13/M22 A3042 RMK SLP380 T11311215 52007 IEM_DS3505
ZBYN,2004-02-07 01:00,ZBYN 070100Z AUTO 10002KT M09/M22 A3042 RMK T10901220 IEM_DS3505
ZBYN,2004-02-07 02:00,ZBYN 070200Z AUTO 14002KT M06/M23 A3042 RMK T10601230 IEM_DS3505
ZBYN,2004-02-07 03:00,ZBYN 070300Z AUTO 16004KT 6SM M01/M20 A3039 RMK SLP360 T10111195 57002 IEM_DS3505
ZBYN,2004-02-07 04:00,ZBYN 070400Z AUTO 22004KT 6SM 00/M23 RMK T00001230 IEM_DS3505
ZBYN,2004-02-07 05:00,ZBYN 070500Z AUTO 26006KT 6SM 02/M25 A3033 RMK T00201250 IEM_DS3505
ZBYN,2004-02-07 06:00,ZBYN 070600Z AUTO 27010KT 16SM 05/M22 A3027 RMK SLP314 T00471221 57036 IEM_DS3505
ZBYN,2004-02-07 07:00,ZBYN 070700Z AUTO 31010KT 6SM 05/M25 A3027 RMK T00501250 IEM_DS3505
ZBYN,2004-02-07 08:00,ZBYN 070800Z AUTO 32014KT 6SM 05/M27 A3024 RMK T00501270 IEM_DS3505
ZBYN,2004-02-07 09:00,ZBYN 070900Z AUTO 29008KT 12SM 04/M23 A3024 RMK SLP306 T00391228 57013 IEM_DS3505
ZBYN,2004-02-07 10:00,ZBYN 071000Z AUTO 30012KT 6SM 01/M27 A3024 RMK T00101270 IEM_DS3505
ZBYN,2004-02-07 11:00,ZBYN 071100Z AUTO 30006KT 6SM M01/M27 A3027 RMK T10101270 IEM_DS3505
ZBYN,2004-02-07 12:00,ZBYN 071200Z AUTO 29004KT 12SM M02/M22 A3027 RMK SLP325 T10171216 52005 IEM_DS3505
ZBYN,2004-02-07 13:00,ZBYN 071300Z AUTO 25004KT 6SM M03/M25 A3027 RMK T10301250 IEM_DS3505
ZBYN,2004-02-07 14:00,ZBYN 071400Z AUTO 16006KT 6SM M04/M23 A3027 RMK T10401230 IEM_DS3505
ZBYN,2004-02-07 15:00,ZBYN 071500Z AUTO 09006KT 12SM M06/M20 A3027 RMK SLP314 T10571204 52004 IEM_DS3505
ZBYN,2004-02-07 16:00,ZBYN 071600Z AUTO 10002KT 6SM M10/M23 A3030 RMK T11001230 IEM_DS3505
ZBYN,2004-02-07 17:00,ZBYN 071700Z AUTO 12002KT 6SM M12/M24 A3027 RMK T11201240 IEM_DS3505
ZBYN,2004-02-07 18:00,ZBYN 071800Z AUTO 11004KT 6SM M13/M24 A3027 RMK T11301240 IEM_DS3505
ZBYN,2004-02-07 19:00,ZBYN 071900Z AUTO 10002KT 6SM M11/M24 A3027 RMK T11101240 IEM_DS3505
ZBYN,2004-02-07 20:00,ZBYN 072000Z AUTO 08002KT 6SM M12/M23 A3027 RMK T11201230 IEM_DS3505
ZBYN,2004-02-07 21:00,ZBYN 072100Z AUTO 14002KT 12SM M11/M21 A3024 RMK SLP305 T11101213 57007 IEM_DS3505
ZBYN,2004-02-07 22:00,ZBYN 072200Z AUTO 11004KT 6SM M14/M23 A3024 RMK T11401230 IEM_DS3505
ZBYN,2004-02-07 23:00,ZBYN 072300Z AUTO 00000KT 6SM M12/M23 A3027 RMK T11201230 IEM_DS3505
ZBYN,2004-02-08 00:00,ZBYN 080000Z AUTO 16002KT 9SM M11/M20 A3027 RMK SLP327 T11071197 52011 IEM_DS3505
ZBYN,2004-02-08 01:00,ZBYN 080100Z AUTO 09002KT 6SM M08/M22 A3030 RMK T10801220 IEM_DS3505
ZBYN,2004-02-08 03:00,ZBYN 080300Z AUTO 16002KT 5SM 01/M19 A3027 RMK SLP314 T00071190 52001 IEM_DS3505
ZBYN,2004-02-08 04:00,ZBYN 080400Z AUTO 6SM 02/M23 A3027 RMK T00201230 IEM_DS3505
ZBYN,2004-02-08 05:00,ZBYN 080500Z AUTO 34004KT 6SM 03/M24 A3024 RMK T00301240 IEM_DS3505
ZBYN,2004-02-08 06:00,ZBYN 080600Z AUTO 27004KT 6SM 05/M20 A3021 RMK SLP283 T00481203 57026 IEM_DS3505
ZBYN,2004-02-08 07:00,ZBYN 080700Z AUTO 6SM 05/M23 A3018 RMK T00501230 IEM_DS3505
ZBYN,2004-02-08 08:00,ZBYN 080800Z AUTO 16002KT 6SM 05/M23 A3018 RMK T00501230 IEM_DS3505
ZBYN,2004-02-08 09:00,ZBYN 080900Z AUTO 18004KT 9SM 05/M20 A3018 RMK SLP281 T00471204 57006 IEM_DS3505
ZBYN,2004-02-08 10:00,ZBYN 081000Z AUTO 16002KT 6SM 02/M23 A3018 RMK T00201230 IEM_DS3505
ZBYN,2004-02-08 11:00,ZBYN 081100Z AUTO 07004KT 6SM M02/M23 A3021 RMK T10201230 IEM_DS3505
ZBYN,2004-02-08 12:00,ZBYN 081200Z AUTO 34002KT 9SM M02/M18 A3021 RMK SLP305 T10231182 52010 IEM_DS3505
ZBYN,2004-02-08 13:00,ZBYN 081300Z AUTO 00000KT 6SM M05/M22 A3024 RMK T10501220 IEM_DS3505
ZBYN,2004-02-08 14:00,ZBYN 081400Z AUTO 12004KT 6SM M08/M23 A3024 RMK T10801230 IEM_DS3505
ZBYN,2004-02-08 15:00,ZBYN 081500Z AUTO 09002KT 6SM M04/M17 A3024 RMK SLP298 T10361174 52011 IEM_DS3505
ZBYN,2004-02-08 16:00,ZBYN 081600Z AUTO 12002KT 6SM M05/M22 A3027 RMK T10501220 IEM_DS3505
ZBYN,2004-02-08 17:00,ZBYN 081700Z AUTO 11002KT 6SM M10/M22 A3027 RMK T11001220 IEM_DS3505
ZBYN,2004-02-08 18:00,ZBYN 081800Z AUTO 36002KT 6SM M07/M17 A3027 RMK SLP307 T10721170 52009 IEM_DS3505
ZBYN,2004-02-08 19:00,ZBYN 081900Z AUTO 12004KT 6SM M12/M22 A3027 RMK T11201220 IEM_DS3505
ZBYN,2004-02-08 20:00,ZBYN 082000Z AUTO 11002KT 6SM M10/M21 A3027 RMK T11001210 IEM_DS3505
ZBYN,2004-02-08 21:00,ZBYN 082100Z AUTO 32002KT 6SM M11/M18 A3027 RMK SLP307 T11111185 57007 IEM_DS3505
ZBYN,2004-02-08 22:00,ZBYN 082200Z AUTO 00000KT 6SM M14/M22 A3027 RMK T11401220 IEM_DS3505
ZBYN,2004-02-08 23:00,ZBYN 082300Z AUTO 11002KT 6SM M14/M22 A3027 RMK T11401220 IEM_DS3505
ZBYN,2004-02-09 00:00,ZBYN 090000Z AUTO 34002KT 4SM M08/M16 A3030 RMK SLP325 T10771163 52010 IEM_DS3505
ZBYN,2004-02-09 01:00,ZBYN 090100Z AUTO 13002KT M07/M19 A3030 RMK T10701190 IEM_DS3505
ZBYN,2004-02-09 02:00,ZBYN 090200Z AUTO 00000KT M03/M20 A3030 RMK T10301200 IEM_DS3505
ZBYN,2004-02-09 03:00,ZBYN 090300Z AUTO 14004KT 4SM 00/M17 A3027 RMK SLP308 T00031169 57004 IEM_DS3505
ZBYN,2004-02-09 04:00,ZBYN 090400Z AUTO 00000KT 6SM 02/M22 A3024 RMK T00201220 IEM_DS3505
ZBYN,2004-02-09 05:00,ZBYN 090500Z AUTO 6SM 04/M22 A3021 RMK T00401220 IEM_DS3505
ZBYN,2004-02-09 06:00,ZBYN 090600Z AUTO 18006KT 5SM 05/M19 A3015 RMK SLP266 T00531191 57036 IEM_DS3505
ZBYN,2004-02-09 07:00,ZBYN 090700Z AUTO 20004KT 6SM 06/M23 A3015 RMK T00601230 IEM_DS3505
ZBYN,2004-02-09 08:00,ZBYN 090800Z AUTO 22006KT 6SM 06/M21 A3012 RMK T00601210 IEM_DS3505
ZBYN,2004-02-09 09:00,ZBYN 090900Z AUTO 16008KT 6SM 05/M17 A3012 RMK SLP261 T00511172 57011 IEM_DS3505
ZBYN,2004-02-09 10:00,ZBYN 091000Z AUTO 11004KT 6SM 00/M21 A3012 RMK T00001210 IEM_DS3505
ZBYN,2004-02-09 11:00,ZBYN 091100Z AUTO 09002KT 6SM M01/M20 A3015 RMK T10101200 IEM_DS3505
ZBYN,2004-02-09 12:00,ZBYN 091200Z AUTO 20002KT 5SM M01/M17 A3015 RMK SLP274 T10101167 52007 IEM_DS3505
ZBYN,2004-02-09 13:00,ZBYN 091300Z AUTO 12006KT 6SM M04/M20 A3015 RMK T10401200 IEM_DS3505
ZBYN,2004-02-09 14:00,ZBYN 091400Z AUTO 13002KT 6SM M04/M19 A3018 RMK T10401190 IEM_DS3505
ZBYN,2004-02-09 15:00,ZBYN 091500Z AUTO 29002KT 4SM M04/M16 A3018 RMK SLP278 T10431158 52012 IEM_DS3505
ZBYN,2004-02-09 16:00,ZBYN 091600Z AUTO 08002KT 6SM M07/M19 A3018 RMK T10701190 IEM_DS3505
ZBYN,2004-02-09 17:00,ZBYN 091700Z AUTO 10002KT 6SM M08/M18 A3018 RMK T10801180 IEM_DS3505
ZBYN,2004-02-09 18:00,ZBYN 091800Z AUTO 20002KT 3SM M07/M16 A3018 RMK SLP273 T10701158 57001 IEM_DS3505
ZBYN,2004-02-09 19:00,ZBYN 091900Z AUTO 10002KT 6SM M09/M18 A3018 RMK T10901180 IEM_DS3505
ZBYN,2004-02-09 20:00,ZBYN 092000Z AUTO 07002KT 6SM M09/M17 A3018 RMK T10901170 IEM_DS3505
ZBYN,2004-02-09 21:00,ZBYN 092100Z AUTO 32002KT 4SM M06/M14 A3018 RMK SLP268 T10601135 57003 IEM_DS3505
ZBYN,2004-02-09 22:00,ZBYN 092200Z AUTO 11002KT 6SM M10/M16 A3018 RMK T11001160 IEM_DS3505
ZBYN,2004-02-09 23:00,ZBYN 092300Z AUTO 13002KT 6SM M09/M16 A3021 RMK T10901160 IEM_DS3505
ZBYN,2004-02-10 00:00,ZBYN 100000Z AUTO 00000KT 4SM M10/M15 A3021 RMK SLP303 T10981153 52015 IEM_DS3505
ZBYN,2004-02-10 01:00,ZBYN 100100Z AUTO 00000KT 2SM M06/M14 A3024 RMK T10601140 IEM_DS3505
ZBYN,2004-02-10 02:00,ZBYN 100200Z AUTO 00000KT 2SM M02/M14 A3024 RMK T10201140 IEM_DS3505
ZBYN,2004-02-10 03:00,ZBYN 100300Z AUTO 11004KT 4SM 02/M13 A3024 RMK SLP291 T00231126 52004 IEM_DS3505
ZBYN,2004-02-10 04:00,ZBYN 100400Z AUTO 2 1/2SM 04/M13 A3021 RMK T00401130 IEM_DS3505
ZBYN,2004-02-10 05:00,ZBYN 100500Z AUTO 17004KT 06/M14 A3018 RMK T00601140 IEM_DS3505
ZBYN,2004-02-10 06:00,ZBYN 100600Z AUTO 16006KT 6SM 09/M14 A3015 RMK SLP252 T00881141 57029 IEM_DS3505
ZBYN,2004-02-10 07:00,ZBYN 100700Z AUTO 18004KT 6SM 09/M19 A3012 RMK T00901190 IEM_DS3505
ZBYN,2004-02-10 08:00,ZBYN 100800Z AUTO 22004KT 6SM 09/M20 A3012 RMK T00901200 IEM_DS3505
ZBYN,2004-02-10 09:00,ZBYN 100900Z AUTO 20002KT 6SM 09/M14 A3012 RMK SLP243 T00871142 57007 IEM_DS3505
ZBYN,2004-02-10 10:00,ZBYN 101000Z AUTO 05/M19 A3015 RMK T00501190 IEM_DS3505
ZBYN,2004-02-10 11:00,ZBYN 101100Z AUTO 32002KT 6SM 02/M20 A3018 RMK T00201200 IEM_DS3505
ZBYN,2004-02-10 12:00,ZBYN 101200Z AUTO 34006KT 6SM 05/M18 A3018 RMK SLP287 T00461182 52027 IEM_DS3505
ZBYN,2004-02-10 13:00,ZBYN 101300Z AUTO 00000KT 6SM 01/M20 A3021 RMK T00101200 IEM_DS3505
ZBYN,2004-02-10 14:00,ZBYN 101400Z AUTO 33002KT 6SM M01/M21 A3024 RMK T10101210 IEM_DS3505
ZBYN,2004-02-10 15:00,ZBYN 101500Z AUTO 34004KT 6SM 02/M17 A3024 RMK SLP281 T00231171 52011 IEM_DS3505
ZBYN,2004-02-10 16:00,ZBYN 101600Z AUTO 05004KT 6SM M05/M20 RMK T10501200 IEM_DS3505
ZBYN,2004-02-10 17:00,ZBYN 101700Z AUTO 10002KT 6SM M07/M21 A3024 RMK T10701210 IEM_DS3505
ZBYN,2004-02-10 18:00,ZBYN 101800Z AUTO 07002KT 6SM M02/M17 A3027 RMK SLP283 T10161172 52006 IEM_DS3505
ZBYN,2004-02-10 19:00,ZBYN 101900Z AUTO 02002KT 6SM M08/M19 A3027 RMK T10801190 IEM_DS3505
ZBYN,2004-02-10 20:00,ZBYN 102000Z AUTO 14002KT 6SM M08/M19 A3027 RMK T10801190 IEM_DS3505
ZBYN,2004-02-10 21:00,ZBYN 102100Z AUTO 36004KT 6SM M00/M15 A3027 RMK SLP291 T10051147 52008 IEM_DS3505
ZBYN,2004-02-10 22:00,ZBYN 102200Z AUTO 6SM M06/M19 A3030 RMK T10601190 IEM_DS3505
ZBYN,2004-02-10 23:00,ZBYN 102300Z AUTO 11002KT 6SM M06/M17 A3030 RMK T10601170 IEM_DS3505
ZBYN,2004-02-11 00:00,ZBYN 110000Z AUTO 07004KT 6SM M04/M17 A3033 RMK SLP317 T10401168 52012 IEM_DS3505
ZBYN,2004-02-11 01:00,ZBYN 110100Z AUTO 13002KT 6SM M03/M17 A3033 RMK T10301170 IEM_DS3505
ZBYN,2004-02-11 02:00,ZBYN 110200Z AUTO 35002KT 01/M17 A3036 RMK T00101170 IEM_DS3505
ZBYN,2004-02-11 03:00,ZBYN 110300Z AUTO 34004KT 5SM 05/M16 A3033 RMK SLP313 T00511159 52007 IEM_DS3505
ZBYN,2004-02-11 04:00,ZBYN 110400Z AUTO 6SM 06/M22 A3033 RMK T00601220 IEM_DS3505
ZBYN,2004-02-11 05:00,ZBYN 110500Z AUTO 6SM 06/M23 A3030 RMK T00601230 IEM_DS3505
ZBYN,2004-02-11 06:00,ZBYN 110600Z AUTO 11004KT 9SM 08/M18 A3027 RMK SLP290 T00841183 57022 IEM_DS3505
ZBYN,2004-02-11 07:00,ZBYN 110700Z AUTO 21004KT 6SM 09/M23 A3027 RMK T00901230 IEM_DS3505
ZBYN,2004-02-11 08:00,ZBYN 110800Z AUTO 20004KT 6SM 09/M22 A3027 RMK T00901220 IEM_DS3505
ZBYN,2004-02-11 09:00,ZBYN 110900Z AUTO 18006KT 7SM 08/M19 A3027 RMK SLP284 T00781188 57004 IEM_DS3505
ZBYN,2004-02-11 10:00,ZBYN 111000Z AUTO 17002KT 6SM 05/M21 A3027 RMK T00501210 IEM_DS3505
ZBYN,2004-02-11 11:00,ZBYN 111100Z AUTO 6SM 04/M22 A3030 RMK T00401220 IEM_DS3505
ZBYN,2004-02-11 12:00,ZBYN 111200Z AUTO 32004KT 7SM 02/M15 A3033 RMK SLP320 T00171148 52017 IEM_DS3505
ZBYN,2004-02-11 13:00,ZBYN 111300Z AUTO 11004KT 6SM M06/M20 A3033 RMK T10601200 IEM_DS3505
ZBYN,2004-02-11 14:00,ZBYN 111400Z AUTO 08002KT 6SM M04/M19 A3036 RMK T10401190 IEM_DS3505
ZBYN,2004-02-11 15:00,ZBYN 111500Z AUTO 07004KT 6SM M03/M16 A3036 RMK SLP325 T10291155 52012 IEM_DS3505
ZBYN,2004-02-11 16:00,ZBYN 111600Z AUTO 10002KT 6SM M06/M16 A3036 RMK T10601160 IEM_DS3505
ZBYN,2004-02-11 18:00,ZBYN 111800Z AUTO 14002KT 6SM M06/M14 A3036 RMK SLP332 T10631136 52006 IEM_DS3505
ZBYN,2004-02-11 19:00,ZBYN 111900Z AUTO 6SM M07/M15 A3036 RMK T10701150 IEM_DS3505
ZBYN,2004-02-11 20:00,ZBYN 112000Z AUTO 09002KT 6SM M07/M15 A3036 RMK T10701150 IEM_DS3505
ZBYN,2004-02-11 21:00,ZBYN 112100Z AUTO 22002KT 6SM M07/M13 A3036 RMK SLP332 T10731131 57003 IEM_DS3505
ZBYN,2004-02-11 22:00,ZBYN 112200Z AUTO 08002KT 6SM M08/M16 A3036 RMK T10801160 IEM_DS3505
ZBYN,2004-02-11 23:00,ZBYN 112300Z AUTO 6SM M08/M15 A3039 RMK T10801150 IEM_DS3505
ZBYN,2004-02-12 00:00,ZBYN 120000Z AUTO 29002KT 5SM M06/M12 A3039 RMK SLP349 T10611118 52007 IEM_DS3505
ZBYN,2004-02-12 01:00,ZBYN 120100Z AUTO 06002KT 5SM A3039 RMK IEM_DS3505
ZBYN,2004-02-12 02:00,ZBYN 120200Z AUTO 17002KT 6SM 01/M15 A3039 RMK T00101150 IEM_DS3505
ZBYN,2004-02-12 03:00,ZBYN 120300Z AUTO 20002KT 4SM 03/M13 A3036 RMK SLP333 T00311127 57006 IEM_DS3505
ZBYN,2004-02-12 04:00,ZBYN 120400Z AUTO 22004KT 5SM 06/M14 A3033 RMK T00601140 IEM_DS3505
ZBYN,2004-02-12 05:00,ZBYN 120500Z AUTO 24008KT 6SM 08/M12 A3027 RMK T00801120 IEM_DS3505
ZBYN,2004-02-12 06:00,ZBYN 120600Z AUTO 22010KT 5SM 10/M10 A3021 RMK SLP266 T01021099 57055 IEM_DS3505
ZBYN,2004-02-12 07:00,ZBYN 120700Z AUTO 24010KT 6SM 10/M14 A3018 RMK T01001140 IEM_DS3505
ZBYN,2004-02-12 08:00,ZBYN 120800Z AUTO 21008KT 6SM 11/M14 A3012 RMK T01101140 IEM_DS3505
ZBYN,2004-02-12 09:00,ZBYN 120900Z AUTO 20016KT 6SM 10/M12 A3009 RMK SLP231 T01011118 57034 IEM_DS3505
ZBYN,2004-02-12 10:00,ZBYN 121000Z AUTO 24010KT 7SM 08/M14 A3009 RMK T00801140 IEM_DS3505
ZBYN,2004-02-12 11:00,ZBYN 121100Z AUTO 24006KT 7SM 06/M14 A3009 RMK T00601140 IEM_DS3505
ZBYN,2004-02-12 12:00,ZBYN 121200Z AUTO 32006KT 11SM 06/M08 A3012 RMK SLP248 T00571075 52010 IEM_DS3505
ZBYN,2004-02-12 13:00,ZBYN 121300Z AUTO 31004KT 6SM 03/M10 A3012 RMK T00301100 IEM_DS3505
ZBYN,2004-02-12 14:00,ZBYN 121400Z AUTO 01002KT 6SM 02/M10 A3012 RMK T00201100 IEM_DS3505
ZBYN,2004-02-12 15:00,ZBYN 121500Z AUTO 09002KT 9SM 02/M10 A3009 RMK SLP233 T00191099 57004 IEM_DS3505
ZBYN,2004-02-12 16:00,ZBYN 121600Z AUTO 6SM 01/M14 A3009 RMK T00101140 IEM_DS3505
ZBYN,2004-02-12 17:00,ZBYN 121700Z AUTO 28006KT 6SM 03/M20 A3006 RMK T00301200 IEM_DS3505
ZBYN,2004-02-12 18:00,ZBYN 121800Z AUTO 18004KT 7SM 01/M17 A3006 RMK SLP208 T00131169 57013 IEM_DS3505
ZBYN,2004-02-12 19:00,ZBYN 121900Z AUTO 26002KT 6SM 00/M21 A3003 RMK T00001210 IEM_DS3505
ZBYN,2004-02-12 20:00,ZBYN 122000Z AUTO 16002KT 6SM M02/M19 A3000 RMK T10201190 IEM_DS3505
ZBYN,2004-02-12 21:00,ZBYN 122100Z AUTO 14004KT 7SM M02/M17 A2997 RMK SLP185 T10241168 57027 IEM_DS3505
ZBYN,2004-02-12 22:00,ZBYN 122200Z AUTO 11002KT 6SM M06/M19 A2994 RMK T10601190 IEM_DS3505
ZBYN,2004-02-12 23:00,ZBYN 122300Z AUTO 10002KT 6SM M07/M19 A2991 RMK T10701190 IEM_DS3505
ZBYN,2004-02-13 00:00,ZBYN 130000Z AUTO 09002KT 6SM M04/M17 A2991 RMK SLP168 T10401168 57025 IEM_DS3505
ZBYN,2004-02-13 01:00,ZBYN 130100Z AUTO 00000KT 00/M18 A2988 RMK T00001180 IEM_DS3505
ZBYN,2004-02-13 02:00,ZBYN 130200Z AUTO 17004KT 04/M18 A2985 RMK T00401180 IEM_DS3505
ZBYN,2004-02-13 03:00,ZBYN 130300Z AUTO 16006KT 4SM 08/M16 A2983 RMK SLP125 T00841159 57025 IEM_DS3505
ZBYN,2004-02-13 04:00,ZBYN 130400Z AUTO 26004KT 11/M20 A2980 RMK T01101200 IEM_DS3505
ZBYN,2004-02-13 05:00,ZBYN 130500Z AUTO 32019KT 13/M23 A2977 RMK T01301230 IEM_DS3505
ZBYN,2004-02-13 06:00,ZBYN 130600Z AUTO 32014KT 4SM 11/M17 A2980 RMK SLP120 T01141169 57001 IEM_DS3505
ZBYN,2004-02-13 07:00,ZBYN 130700Z AUTO 31016KT 6SM 10/M21 A2985 RMK T01001210 IEM_DS3505
ZBYN,2004-02-13 08:00,ZBYN 130800Z AUTO 31017KT 6SM 10/M19 A2985 RMK T01001190 IEM_DS3505
ZBYN,2004-02-13 09:00,ZBYN 130900Z AUTO 32010KT 6SM 09/M15 A2988 RMK SLP155 T00941150 52023 IEM_DS3505
ZBYN,2004-02-13 10:00,ZBYN 131000Z AUTO 29008KT 6SM 07/M19 A2988 RMK T00701190 IEM_DS3505
ZBYN,2004-02-13 11:00,ZBYN 131100Z AUTO 32016KT 6SM 06/M23 A2994 RMK T00601230 IEM_DS3505
ZBYN,2004-02-13 12:00,ZBYN 131200Z AUTO 32008KT 7SM 06/M20 A2997 RMK SLP195 T00581204 52028 IEM_DS3505
ZBYN,2004-02-13 13:00,ZBYN 131300Z AUTO 34008KT 6SM 03/M23 A3000 RMK T00301230 IEM_DS3505
ZBYN,2004-02-13 14:00,ZBYN 131400Z AUTO 31006KT 6SM 00/M22 A3003 RMK T00001220 IEM_DS3505
ZBYN,2004-02-13 15:00,ZBYN 131500Z AUTO 32006KT 6SM 02/M18 A3003 RMK SLP203 T00211184 52021 IEM_DS3505
ZBYN,2004-02-13 16:00,ZBYN 131600Z AUTO 29008KT 6SM 00/M22 A3003 RMK T00001220 IEM_DS3505
ZBYN,2004-02-13 17:00,ZBYN 131700Z AUTO 29006KT 6SM 00/M20 A3006 RMK T00001200 IEM_DS3505
ZBYN,2004-02-13 18:00,ZBYN 131800Z AUTO 27006KT 6SM M01/M17 A3006 RMK SLP208 T10101171 52004 IEM_DS3505
ZBYN,2004-02-13 19:00,ZBYN 131900Z AUTO 28006KT 6SM M01/M22 A3006 RMK T10101220 IEM_DS3505
ZBYN,2004-02-13 20:00,ZBYN 132000Z AUTO 6SM M05/M21 A3006 RMK T10501210 IEM_DS3505
ZBYN,2004-02-13 21:00,ZBYN 132100Z AUTO 27004KT 6SM M03/M17 A3006 RMK SLP222 T10311174 52007 IEM_DS3505
ZBYN,2004-02-13 22:00,ZBYN 132200Z AUTO 06006KT 6SM M07/M19 A3009 RMK T10701190 IEM_DS3505
ZBYN,2004-02-13 23:00,ZBYN 132300Z AUTO 12004KT 6SM A3009 RMK IEM_DS3505
ZBYN,2004-02-14 00:00,ZBYN 140000Z AUTO 11002KT 9SM M07/M17 A3012 RMK SLP250 T10681167 52013 IEM_DS3505
ZBYN,2004-02-14 01:00,ZBYN 140100Z AUTO 10004KT 6SM M02/M18 A3012 RMK T10201180 IEM_DS3505
ZBYN,2004-02-14 02:00,ZBYN 140200Z AUTO 18002KT 6SM 02/M21 A3012 RMK T00201210 IEM_DS3505
ZBYN,2004-02-14 03:00,ZBYN 140300Z AUTO 18004KT 9SM 06/M20 A3012 RMK SLP236 T00561205 52002 IEM_DS3505
ZBYN,2004-02-14 04:00,ZBYN 140400Z AUTO 6SM 06/M24 A3009 RMK T00601240 IEM_DS3505
ZBYN,2004-02-14 06:00,ZBYN 140600Z AUTO 16006KT 9SM 09/M20 A3003 RMK SLP203 T00921196 57030 IEM_DS3505
ZBYN,2004-02-14 07:00,ZBYN 140700Z AUTO 19002KT 6SM 10/M23 A3000 RMK T01001230 IEM_DS3505
ZBYN,2004-02-14 08:00,ZBYN 140800Z AUTO 17004KT 6SM 10/M24 A3000 RMK T01001240 IEM_DS3505
ZBYN,2004-02-14 09:00,ZBYN 140900Z AUTO 16004KT 9SM 10/M19 A2997 RMK SLP185 T00991191 57018 IEM_DS3505
ZBYN,2004-02-14 10:00,ZBYN 141000Z AUTO 00000KT 6SM 06/M24 A2997 RMK T00601240 IEM_DS3505
ZBYN,2004-02-14 11:00,ZBYN 141100Z AUTO 09002KT 6SM 03/M24 A3000 RMK T00301240 IEM_DS3505
ZBYN,2004-02-14 12:00,ZBYN 141200Z AUTO 27002KT 9SM 02/M17 A3000 RMK SLP217 T00211168 52010 IEM_DS3505
ZBYN,2004-02-14 13:00,ZBYN 141300Z AUTO 11004KT 6SM M02/M22 A3000 RMK T10201220 IEM_DS3505
ZBYN,2004-02-14 14:00,ZBYN 141400Z AUTO 14002KT 6SM M01/M21 A3003 RMK T10101210 IEM_DS3505
ZBYN,2004-02-14 15:00,ZBYN 141500Z AUTO 09002KT 6SM M03/M16 A3003 RMK SLP216 T10331165 52011 IEM_DS3505
ZBYN,2004-02-14 16:00,ZBYN 141600Z AUTO 11004KT 6SM M04/M20 A3003 RMK T10401200 IEM_DS3505
ZBYN,2004-02-14 17:00,ZBYN 141700Z AUTO 00000KT 6SM M05/M20 A3003 RMK T10501200 IEM_DS3505
ZBYN,2004-02-14 18:00,ZBYN 141800Z AUTO 00000KT 6SM M04/M15 A3003 RMK SLP212 T10441150 54000 IEM_DS3505
ZBYN,2004-02-14 19:00,ZBYN 141900Z AUTO 08002KT 6SM M07/M20 A3003 RMK T10701200 IEM_DS3505
ZBYN,2004-02-14 20:00,ZBYN 142000Z AUTO 12004KT 6SM M08/M21 A3003 RMK T10801210 IEM_DS3505
ZBYN,2004-02-14 21:00,ZBYN 142100Z AUTO 16002KT 6SM M05/M14 A3003 RMK SLP206 T10521142 57005 IEM_DS3505
ZBYN,2004-02-14 22:00,ZBYN 142200Z AUTO 6SM M08/M17 A3003 RMK T10801170 IEM_DS3505
ZBYN,2004-02-14 23:00,ZBYN 142300Z AUTO 04002KT 6SM M09/M19 A3003 RMK T10901190 IEM_DS3505
ZBYN,2004-02-15 00:00,ZBYN 150000Z AUTO 27002KT 6SM M06/M14 A3006 RMK SLP236 T10621142 52012 IEM_DS3505
ZBYN,2004-02-15 01:00,ZBYN 150100Z AUTO 18002KT M01/M17 A3006 RMK T10101170 IEM_DS3505
ZBYN,2004-02-15 02:00,ZBYN 150200Z AUTO 35002KT 03/M17 A3006 RMK T00301170 IEM_DS3505
ZBYN,2004-02-15 03:00,ZBYN 150300Z AUTO 07002KT 5SM 08/M14 A3009 RMK SLP226 T00801141 52006 IEM_DS3505
ZBYN,2004-02-15 04:00,ZBYN 150400Z AUTO 00000KT 6SM 09/M20 A3006 RMK T00901200 IEM_DS3505
ZBYN,2004-02-15 05:00,ZBYN 150500Z AUTO 6SM 12/M21 A3000 RMK T01201210 IEM_DS3505
ZBYN,2004-02-15 06:00,ZBYN 150600Z AUTO 32004KT 6SM 14/M16 A2997 RMK SLP183 T01451155 57031 IEM_DS3505
ZBYN,2004-02-15 07:00,ZBYN 150700Z AUTO 05002KT 6SM 15/M21 A2994 RMK T01501210 IEM_DS3505
ZBYN,2004-02-15 08:00,ZBYN 150800Z AUTO 6SM 16/M21 A2994 RMK T01601210 IEM_DS3505
ZBYN,2004-02-15 09:00,ZBYN 150900Z AUTO 27002KT 6SM 14/M16 A2994 RMK SLP176 T01431157 57008 IEM_DS3505
ZBYN,2004-02-15 10:00,ZBYN 151000Z AUTO 09010KT 6SM 11/M20 A2997 RMK T01101200 IEM_DS3505
ZBYN,2004-02-15 11:00,ZBYN 151100Z AUTO 08017KT 6SM 08/M17 A3000 RMK T00801170 IEM_DS3505
ZBYN,2004-02-15 12:00,ZBYN 151200Z AUTO 36004KT 6SM 09/M14 A3006 RMK SLP221 T00871142 52031 IEM_DS3505
ZBYN,2004-02-15 13:00,ZBYN 151300Z AUTO 08019KT 6SM 06/M18 A3009 RMK T00601180 IEM_DS3505
ZBYN,2004-02-15 14:00,ZBYN 151400Z AUTO 09016KT 6SM 05/M15 A3012 RMK T00501150 IEM_DS3505
ZBYN,2004-02-15 15:00,ZBYN 151500Z AUTO 09004KT 6SM 07/M13 A3015 RMK SLP232 T00661130 52029 IEM_DS3505
ZBYN,2004-02-15 16:00,ZBYN 151600Z AUTO 05008KT 6SM 03/M15 A3015 RMK T00301150 IEM_DS3505
ZBYN,2004-02-15 17:00,ZBYN 151700Z AUTO 09008KT 6SM 03/M14 A3015 RMK T00301140 IEM_DS3505
ZBYN,2004-02-15 18:00,ZBYN 151800Z AUTO 25002KT 6SM 03/M11 A3015 RMK SLP231 T00281111 52003 IEM_DS3505
ZBYN,2004-02-15 19:00,ZBYN 151900Z AUTO 10006KT 6SM 02/M12 A3015 RMK T00201120 IEM_DS3505
ZBYN,2004-02-15 20:00,ZBYN 152000Z AUTO 10004KT 6SM 02/M12 A3015 RMK T00201120 IEM_DS3505
ZBYN,2004-02-15 21:00,ZBYN 152100Z AUTO 18004KT 6SM 02/M09 A3018 RMK SLP237 T00181094 52004 IEM_DS3505
ZBYN,2004-02-15 22:00,ZBYN 152200Z AUTO 13002KT 6SM 00/M11 A3018 RMK T00001110 IEM_DS3505
ZBYN,2004-02-15 23:00,ZBYN 152300Z AUTO 09004KT 6SM M01/M11 A3018 RMK T10101110 IEM_DS3505
ZBYN,2004-02-16 00:00,ZBYN 160000Z AUTO 14004KT 6SM 00/M09 A3021 RMK SLP259 T00041093 52009 IEM_DS3505
ZBYN,2004-02-16 01:00,ZBYN 160100Z AUTO 13004KT 02/M11 A3021 RMK T00201110 IEM_DS3505
ZBYN,2004-02-16 02:00,ZBYN 160200Z AUTO 23004KT 05/M12 A3021 RMK T00501120 IEM_DS3505
ZBYN,2004-02-16 03:00,ZBYN 160300Z AUTO 29012KT 6SM 09/M18 A3021 RMK SLP249 T00891179 52001 IEM_DS3505
ZBYN,2004-02-16 04:00,ZBYN 160400Z AUTO 30016KT 6SM 09/M25 A3021 RMK T00901250 IEM_DS3505
ZBYN,2004-02-16 05:00,ZBYN 160500Z AUTO 29016KT 6SM 11/M25 A3015 RMK T01101250 IEM_DS3505
ZBYN,2004-02-16 06:00,ZBYN 160600Z AUTO 32014G25KT 12SM 12/M22 A3012 RMK SLP227 T01231224 57021 IEM_DS3505
ZBYN,2004-02-16 07:00,ZBYN 160700Z AUTO 31016KT 6SM 12/M28 A3012 RMK T01201280 IEM_DS3505
ZBYN,2004-02-16 08:00,ZBYN 160800Z AUTO 32016KT 6SM 11/M30 A3009 RMK T01101300 IEM_DS3505
ZBYN,2004-02-16 09:00,ZBYN 160900Z AUTO 32012KT 12SM 11/M22 A3012 RMK SLP228 T01101219 57003 IEM_DS3505
ZBYN,2004-02-16 10:00,ZBYN 161000Z AUTO 32008KT 6SM 08/M28 A3012 RMK T00801280 IEM_DS3505
ZBYN,2004-02-16 11:00,ZBYN 161100Z AUTO 28004KT 6SM 06/M27 A3015 RMK T00601270 IEM_DS3505
ZBYN,2004-02-16 12:00,ZBYN 161200Z AUTO 27004KT 12SM 06/M20 A3015 RMK SLP252 T00571204 52012 IEM_DS3505
ZBYN,2004-02-16 13:00,ZBYN 161300Z AUTO 31002KT 6SM 02/M27 RMK T00201270 IEM_DS3505
ZBYN,2004-02-16 14:00,ZBYN 161400Z AUTO 20004KT 6SM 02/M22 A3018 RMK T00201220 IEM_DS3505
ZBYN,2004-02-16 15:00,ZBYN 161500Z AUTO 14002KT 11SM M00/M18 A3018 RMK SLP250 T10031178 52002 IEM_DS3505
ZBYN,2004-02-16 16:00,ZBYN 161600Z AUTO 6SM M05/M22 A3015 RMK T10501220 IEM_DS3505
ZBYN,2004-02-16 17:00,ZBYN 161700Z AUTO 10002KT 6SM M05/M21 A3015 RMK T10501210 IEM_DS3505
ZBYN,2004-02-16 18:00,ZBYN 161800Z AUTO 14002KT 11SM M04/M19 A3012 RMK SLP238 T10381187 57011 IEM_DS3505
ZBYN,2004-02-16 19:00,ZBYN 161900Z AUTO 09002KT 6SM M06/M20 A3012 RMK T10601200 IEM_DS3505
ZBYN,2004-02-16 20:00,ZBYN 162000Z AUTO 12004KT 6SM M07/M19 A3009 RMK T10701190 IEM_DS3505
ZBYN,2004-02-16 21:00,ZBYN 162100Z AUTO 25002KT 9SM M04/M14 A3009 RMK SLP222 T10451140 57018 IEM_DS3505
ZBYN,2004-02-16 22:00,ZBYN 162200Z AUTO 11004KT 6SM M08/M19 A3006 RMK T10801190 IEM_DS3505
ZBYN,2004-02-16 23:00,ZBYN 162300Z AUTO 12004KT 6SM M07/M18 A3006 RMK T10701180 IEM_DS3505
ZBYN,2004-02-17 00:00,ZBYN 170000Z AUTO 25002KT 7SM M07/M15 A3006 RMK SLP234 T10671149 57001 IEM_DS3505
ZBYN,2004-02-17 01:00,ZBYN 170100Z AUTO 12004KT 6SM 00/M16 A3006 RMK T00001160 IEM_DS3505
ZBYN,2004-02-17 02:00,ZBYN 170200Z AUTO 17004KT 6SM 04/M16 A3003 RMK T00401160 IEM_DS3505
ZBYN,2004-02-17 03:00,ZBYN 170300Z AUTO 16004KT 6SM 06/M14 A3003 RMK SLP205 T00621138 57015 IEM_DS3505
ZBYN,2004-02-17 04:00,ZBYN 170400Z AUTO 19008KT 6SM 10/M16 A3000 RMK T01001160 IEM_DS3505
ZBYN,2004-02-17 05:00,ZBYN 170500Z AUTO 17006KT 6SM 12/M16 A2994 RMK T01201160 IEM_DS3505
ZBYN,2004-02-17 06:00,ZBYN 170600Z AUTO 20008KT 6SM 14/M13 A2988 RMK SLP148 T01411129 57045 IEM_DS3505
ZBYN,2004-02-17 07:00,ZBYN 170700Z AUTO 22008KT 6SM 15/M20 A2985 RMK T01501200 IEM_DS3505
ZBYN,2004-02-17 08:00,ZBYN 170800Z AUTO 23008KT 6SM 15/M21 A2983 RMK T01501210 IEM_DS3505
ZBYN,2004-02-17 09:00,ZBYN 170900Z AUTO 20006KT 6SM 15/M15 A2983 RMK SLP126 T01501151 57020 IEM_DS3505
ZBYN,2004-02-17 10:00,ZBYN 171000Z AUTO 22002KT 6SM 11/M20 A2983 RMK T01101200 IEM_DS3505
ZBYN,2004-02-17 11:00,ZBYN 171100Z AUTO 6SM 07/M17 A2983 RMK T00701170 IEM_DS3505
ZBYN,2004-02-17 12:00,ZBYN 171200Z AUTO 14004KT 6SM 06/M13 A2985 RMK SLP160 T00551134 52012 IEM_DS3505
ZBYN,2004-02-17 13:00,ZBYN 171300Z AUTO 09002KT 6SM 02/M17 A2988 RMK T00201170 IEM_DS3505
ZBYN,2004-02-17 14:00,ZBYN 171400Z AUTO 09004KT 6SM 02/M17 A2988 RMK T00201170 IEM_DS3505
ZBYN,2004-02-17 15:00,ZBYN 171500Z AUTO 18002KT 6SM 02/M14 A2991 RMK SLP159 T00191138 52014 IEM_DS3505
ZBYN,2004-02-17 16:00,ZBYN 171600Z AUTO 12004KT 6SM M02/M16 A2991 RMK T10201160 IEM_DS3505
ZBYN,2004-02-17 17:00,ZBYN 171700Z AUTO 11004KT 6SM M02/M16 A2991 RMK T10201160 IEM_DS3505
ZBYN,2004-02-17 18:00,ZBYN 171800Z AUTO 34002KT 6SM M01/M10 A2991 RMK SLP158 T10061097 52008 IEM_DS3505
ZBYN,2004-02-17 19:00,ZBYN 171900Z AUTO 00000KT 6SM M04/M16 A2991 RMK T10401160 IEM_DS3505
ZBYN,2004-02-17 20:00,ZBYN 172000Z AUTO 13002KT 6SM M03/M14 A2991 RMK T10301140 IEM_DS3505
ZBYN,2004-02-17 21:00,ZBYN 172100Z AUTO 34002KT 6SM 00/M10 A2988 RMK SLP145 T00001102 57010 IEM_DS3505
ZBYN,2004-02-17 22:00,ZBYN 172200Z AUTO 05002KT 6SM M06/M14 A2991 RMK T10601140 IEM_DS3505
ZBYN,2004-02-17 23:00,ZBYN 172300Z AUTO 10002KT 6SM M06/M15 A2991 RMK T10601150 IEM_DS3505
ZBYN,2004-02-18 00:00,ZBYN 180000Z AUTO 16002KT 4SM M04/M10 A2994 RMK SLP184 T10361104 52015 IEM_DS3505
ZBYN,2004-02-18 01:00,ZBYN 180100Z AUTO 13004KT 01/M13 A2994 RMK T00101130 IEM_DS3505
ZBYN,2004-02-18 02:00,ZBYN 180200Z AUTO 05/M15 A2994 RMK T00501150 IEM_DS3505
ZBYN,2004-02-18 03:00,ZBYN 180300Z AUTO 18002KT 08/M16 A2994 RMK T00801160 IEM_DS3505
ZBYN,2004-02-18 05:00,ZBYN 180500Z AUTO 18002KT 6SM 13/M15 A2988 RMK T01301150 IEM_DS3505
ZBYN,2004-02-18 06:00,ZBYN 180600Z AUTO 09002KT 5SM 15/M10 A2983 RMK SLP123 T01521096 57035 IEM_DS3505
ZBYN,2004-02-18 07:00,ZBYN 180700Z AUTO 26004KT 6SM 16/M14 A2980 RMK T01601140 IEM_DS3505
ZBYN,2004-02-18 08:00,ZBYN 180800Z AUTO 6SM 17/M14 A2980 RMK T01701140 IEM_DS3505
ZBYN,2004-02-18 09:00,ZBYN 180900Z AUTO 18004KT 5SM 16/M10 A2980 RMK SLP107 T01631103 57012 IEM_DS3505
ZBYN,2004-02-18 10:00,ZBYN 181000Z AUTO 19002KT 6SM 13/M13 A2980 RMK T01301130 IEM_DS3505
ZBYN,2004-02-18 10:30,ZBYN 181030Z AUTO 16002KT 6SM 06/M12 A2980 RMK T00601120 IEM_DS3505
ZBYN,2004-02-18 11:00,ZBYN 181100Z AUTO 13002KT 6SM 08/M11 A2983 RMK T00801110 IEM_DS3505
ZBYN,2004-02-18 12:00,ZBYN 181200Z AUTO 32002KT 4SM 06/M07 A2985 RMK SLP148 T00641072 52016 IEM_DS3505
ZBYN,2004-02-18 13:00,ZBYN 181300Z AUTO 09002KT 6SM 03/M14 A2985 RMK T00301140 IEM_DS3505
ZBYN,2004-02-18 14:00,ZBYN 181400Z AUTO 10002KT 6SM 00/M15 A2985 RMK T00001150 IEM_DS3505
ZBYN,2004-02-18 15:00,ZBYN 181500Z AUTO 32004KT 2 1/2SM 04/M08 A2988 RMK SLP146 T00421085 52014 IEM_DS3505
ZBYN,2004-02-18 16:00,ZBYN 181600Z AUTO 07004KT 6SM 01/M14 A2988 RMK T00101140 IEM_DS3505
ZBYN,2004-02-18 17:00,ZBYN 181700Z AUTO 12002KT 6SM M01/M14 A2991 RMK T10101140 IEM_DS3505
ZBYN,2004-02-18 18:00,ZBYN 181800Z AUTO 32002KT 3SM M01/M08 A2991 RMK SLP152 T10081084 52008 IEM_DS3505
ZBYN,2004-02-18 19:00,ZBYN 181900Z AUTO 15002KT 6SM M03/M13 A2991 RMK T10301130 IEM_DS3505
ZBYN,2004-02-18 20:00,ZBYN 182000Z AUTO 06002KT 6SM M03/M12 A2991 RMK T10301120 IEM_DS3505
ZBYN,2004-02-18 21:00,ZBYN 182100Z AUTO 32004KT 3SM 01/M08 A2991 RMK SLP150 T00061083 52002 IEM_DS3505
ZBYN,2004-02-18 22:00,ZBYN 182200Z AUTO 13004KT 6SM M05/M12 A2991 RMK T10501120 IEM_DS3505
ZBYN,2004-02-19 00:00,ZBYN 190000Z AUTO 36004KT 5SM 02/M10 RMK SLP179 T00241098 52014 IEM_DS3505
ZBYN,2004-02-19 01:00,ZBYN 190100Z AUTO 2 1/2SM 02/M10 A2997 RMK T00201100 IEM_DS3505
ZBYN,2004-02-19 02:00,ZBYN 190200Z AUTO 33004KT 2 1/2SM 06/M10 A2997 RMK T00601100 IEM_DS3505
ZBYN,2004-02-19 03:00,ZBYN 190300Z AUTO 32004KT 4SM 11/M08 A2994 RMK SLP168 T01071084 57001 IEM_DS3505
ZBYN,2004-02-19 04:00,ZBYN 190400Z AUTO 35004KT 5SM 13/M10 A2994 RMK T01301100 IEM_DS3505
ZBYN,2004-02-19 05:00,ZBYN 190500Z AUTO 6SM 17/M09 A2991 RMK T01701090 IEM_DS3505
ZBYN,2004-02-19 06:00,ZBYN 190600Z AUTO 16006KT 5SM 19/M08 A2991 RMK SLP142 T01881075 57019 IEM_DS3505
ZBYN,2004-02-19 08:00,ZBYN 190800Z AUTO 16012KT 6SM 18/M13 A2988 RMK T01801130 IEM_DS3505
ZBYN,2004-02-19 09:00,ZBYN 190900Z AUTO 14012KT 9SM 18/M08 A2988 RMK SLP136 T01781083 57005 IEM_DS3505
ZBYN,2004-02-19 10:00,ZBYN 191000Z AUTO 14006KT 6SM 14/M09 A2991 RMK T01401090 IEM_DS3505
ZBYN,2004-02-19 11:00,ZBYN 191100Z AUTO 13008KT 6SM 11/M07 A2991 RMK T01101070 IEM_DS3505
ZBYN,2004-02-19 12:00,ZBYN 191200Z AUTO 11008KT 9SM 11/M05 A2994 RMK SLP165 T01091047 52019 IEM_DS3505
ZBYN,2004-02-19 13:00,ZBYN 191300Z AUTO 08012KT 3SM 08/M05 A2997 RMK T00801050 IEM_DS3505
ZBYN,2004-02-19 14:00,ZBYN 191400Z AUTO 08014KT 3SM 08/M04 A3000 RMK T00801040 IEM_DS3505
ZBYN,2004-02-19 15:00,ZBYN 191500Z AUTO 07002KT 7SM 08/M02 A3003 RMK SLP187 T00761021 52028 IEM_DS3505
ZBYN,2004-02-19 16:00,ZBYN 191600Z AUTO 08010KT 2SM 07/M02 A3003 RMK T00701020 IEM_DS3505
ZBYN,2004-02-19 17:00,ZBYN 191700Z AUTO 08008KT 2SM 06/M01 A3006 RMK T00601010 IEM_DS3505
ZBYN,2004-02-19 18:00,ZBYN 191800Z AUTO 32002KT 6SM 06/M01 A3006 RMK SLP187 T00611010 52010 IEM_DS3505
ZBYN,2004-02-19 19:00,ZBYN 191900Z AUTO 03002KT 2SM 05/M01 A3003 RMK T00501010 IEM_DS3505
ZBYN,2004-02-19 20:00,ZBYN 192000Z AUTO 36002KT 2SM 06/00 A3003 RMK T00600000 IEM_DS3505
ZBYN,2004-02-19 21:00,ZBYN 192100Z AUTO 32004KT 6SM 06/01 A3003 RMK SLP174 T00650006 57013 IEM_DS3505
ZBYN,2004-02-19 22:00,ZBYN 192200Z AUTO 00000KT 1 1/2SM 05/M01 A3003 RMK T00501010 IEM_DS3505
ZBYN,2004-02-19 23:00,ZBYN 192300Z AUTO 00000KT 1 1/4SM 05/M01 A3003 RMK T00501010 IEM_DS3505
ZBYN,2004-02-20 00:00,ZBYN 200000Z AUTO 32004KT 5SM 06/02 A3003 RMK 70000 SLP196 T00560023 52008 IEM_DS3505
ZBYN,2004-02-20 01:00,ZBYN 200100Z AUTO 04002KT 1/2SM 04/01 A3006 RMK T00400010 IEM_DS3505
ZBYN,2004-02-20 03:00,ZBYN 200300Z AUTO 34008KT 1 1/4SM 05/04 A3006 RMK SLP206 T00510038 52003 IEM_DS3505
ZBYN,2004-02-20 04:00,ZBYN 200400Z AUTO 32004KT 1/2SM 05/02 A3003 RMK T00500020 IEM_DS3505
ZBYN,2004-02-20 05:00,ZBYN 200500Z AUTO 33004KT 1/2SM 05/03 A3003 RMK T00500030 IEM_DS3505
ZBYN,2004-02-20 06:00,ZBYN 200600Z AUTO 34004KT 1SM 05/04 A3000 RMK 60016 SLP189 T00540042 57017 IEM_DS3505
ZBYN,2004-02-20 07:00,ZBYN 200700Z AUTO 34004KT 3/8SM 05/03 A2997 RMK T00500030 IEM_DS3505
ZBYN,2004-02-20 08:00,ZBYN 200800Z AUTO 33004KT 3/8SM 05/03 A2997 RMK T00500030 IEM_DS3505
ZBYN,2004-02-20 09:00,ZBYN 200900Z AUTO 34006KT 1SM 06/04 A2997 RMK SLP177 T00560041 57010 IEM_DS3505
ZBYN,2004-02-20 10:00,ZBYN 201000Z AUTO 33008KT 1/2SM 04/02 A2997 RMK T00400020 IEM_DS3505
ZBYN,2004-02-20 11:00,ZBYN 201100Z AUTO 34016KT 1SM 04/02 A2997 RMK T00400020 IEM_DS3505
ZBYN,2004-02-20 12:00,ZBYN 201200Z AUTO 34006KT 1SM 05/04 A3000 RMK 60020 SLP192 T00510041 52011 IEM_DS3505
ZBYN,2004-02-20 13:00,ZBYN 201300Z AUTO 33010KT 1SM 04/02 A3000 RMK T00400020 IEM_DS3505
ZBYN,2004-02-20 14:00,ZBYN 201400Z AUTO 33010KT 1 1/4SM 03/02 A3003 RMK T00300020 IEM_DS3505
ZBYN,2004-02-20 15:00,ZBYN 201500Z AUTO 36006KT 2SM 04/03 A3003 RMK SLP203 T00450032 52009 IEM_DS3505
ZBYN,2004-02-20 16:00,ZBYN 201600Z AUTO 33004KT 1 1/4SM 03/02 A3003 RMK T00300020 IEM_DS3505
ZBYN,2004-02-20 17:00,ZBYN 201700Z AUTO 32004KT 1 1/4SM 03/02 A3003 RMK T00300020 IEM_DS3505
ZBYN,2004-02-20 18:00,ZBYN 201800Z AUTO 27004KT 3SM 04/02 A3003 RMK 60008 SLP199 T00400024 57004 IEM_DS3505
ZBYN,2004-02-20 19:00,ZBYN 201900Z AUTO 27004KT 1SM 03/02 A3000 RMK T00300020 IEM_DS3505
ZBYN,2004-02-20 20:00,ZBYN 202000Z AUTO 26002KT 1/8SM 02/01 A3000 RMK T00200010 IEM_DS3505
ZBYN,2004-02-20 21:00,ZBYN 202100Z AUTO 27002KT 1 1/4SM 02/02 A2997 RMK 70000 SLP189 T00250021 57011 IEM_DS3505
ZBYN,2004-02-20 22:00,ZBYN 202200Z AUTO 21002KT 1/8SM 01/00 A3000 RMK T00100000 IEM_DS3505
ZBYN,2004-02-20 23:00,ZBYN 202300Z AUTO 00000KT 1/8SM 00/00 A3000 RMK T00000000 IEM_DS3505
ZBYN,2004-02-21 00:00,ZBYN 210000Z AUTO 00000KT 1/4SM 00/00 A3003 RMK 70046 SLP212 T00020001 52016 IEM_DS3505
ZBYN,2004-02-21 01:00,ZBYN 210100Z AUTO 24002KT 0SM 01/00 A3003 RMK T00100000 IEM_DS3505
ZBYN,2004-02-21 01:30,ZBYN 210130Z AUTO 23002KT 2 1/2SM 01/01 A3006 RMK T00100010 IEM_DS3505
ZBYN,2004-02-21 02:00,ZBYN 210200Z AUTO 5SM 01/01 A3003 RMK T00100010 IEM_DS3505
ZBYN,2004-02-21 02:30,ZBYN 210230Z AUTO 34010KT 6SM 03/02 A3003 RMK T00300020 IEM_DS3505
ZBYN,2004-02-21 03:00,ZBYN 210300Z AUTO 02004KT 5SM 06/00 A3003 RMK SLP204 T00550003 54000 IEM_DS3505
ZBYN,2004-02-21 04:00,ZBYN 210400Z AUTO 36010KT 6SM 06/M02 A3003 RMK T00601020 IEM_DS3505
ZBYN,2004-02-21 05:00,ZBYN 210500Z AUTO 35008KT 6SM 06/M02 A3003 RMK T00601020 IEM_DS3505
ZBYN,2004-02-21 06:00,ZBYN 210600Z AUTO 04006KT 5SM 07/M01 A3000 RMK SLP197 T00701007 57005 IEM_DS3505
ZBYN,2004-02-21 07:00,ZBYN 210700Z AUTO 32008KT 6SM 07/M02 A3000 RMK T00701020 IEM_DS3505
ZBYN,2004-02-21 08:00,ZBYN 210800Z AUTO 35010KT 6SM 07/M03 A3000 RMK T00701030 IEM_DS3505
ZBYN,2004-02-21 09:00,ZBYN 210900Z AUTO 36006KT 6SM 07/M02 A3003 RMK SLP202 T00691017 52002 IEM_DS3505
ZBYN,2004-02-21 10:00,ZBYN 211000Z AUTO 36006KT 6SM 04/M04 A3006 RMK T00401040 IEM_DS3505
ZBYN,2004-02-21 11:00,ZBYN 211100Z AUTO 00000KT 6SM 02/M04 A3006 RMK T00201040 IEM_DS3505
ZBYN,2004-02-21 12:00,ZBYN 211200Z AUTO 36008KT 6SM 04/M04 A3009 RMK SLP227 T00401042 52015 IEM_DS3505
ZBYN,2004-02-21 13:00,ZBYN 211300Z AUTO 02002KT 6SM 00/M05 A3009 RMK T00001050 IEM_DS3505
ZBYN,2004-02-21 14:00,ZBYN 211400Z AUTO 36004KT 6SM 01/M05 A3012 RMK T00101050 IEM_DS3505
ZBYN,2004-02-21 15:00,ZBYN 211500Z AUTO 36004KT 6SM 03/M04 A3015 RMK SLP240 T00271045 52018 IEM_DS3505
ZBYN,2004-02-21 16:00,ZBYN 211600Z AUTO 02004KT 6SM 00/M06 A3015 RMK T00001060 IEM_DS3505
ZBYN,2004-02-21 17:00,ZBYN 211700Z AUTO 35004KT 6SM M01/M06 A3015 RMK T10101060 IEM_DS3505
ZBYN,2004-02-21 18:00,ZBYN 211800Z AUTO 34002KT 6SM M00/M05 A3015 RMK SLP245 T10021052 52002 IEM_DS3505
ZBYN,2004-02-21 19:00,ZBYN 211900Z AUTO 32004KT 6SM M03/M07 A3015 RMK T10301070 IEM_DS3505
ZBYN,2004-02-21 20:00,ZBYN 212000Z AUTO 01002KT 6SM M03/M07 A3012 RMK T10301070 IEM_DS3505
ZBYN,2004-02-21 20:30,ZBYN 212030Z AUTO 35002KT 6SM M04/M07 A3012 RMK T10401070 IEM_DS3505
ZBYN,2004-02-21 21:00,ZBYN 212100Z AUTO 32002KT 6SM M01/M06 A3012 RMK SLP241 T10071062 57004 IEM_DS3505
ZBYN,2004-02-21 21:30,ZBYN 212130Z AUTO 35004KT 6SM M03/M07 A3012 RMK T10301070 IEM_DS3505
ZBYN,2004-02-21 22:00,ZBYN 212200Z AUTO 6SM M05/M08 A3012 RMK T10501080 IEM_DS3505
ZBYN,2004-02-21 22:30,ZBYN 212230Z AUTO 6SM M04/M07 A3012 RMK T10401070 IEM_DS3505
ZBYN,2004-02-21 23:00,ZBYN 212300Z AUTO 06002KT 6SM M03/M07 A3012 RMK T10301070 IEM_DS3505
ZBYN,2004-02-22 00:00,ZBYN 220000Z AUTO 32004KT 6SM M01/M05 A3015 RMK SLP254 T10131050 52006 IEM_DS3505
ZBYN,2004-02-22 01:00,ZBYN 220100Z AUTO 08002KT 4SM A3015 RMK IEM_DS3505
ZBYN,2004-02-22 02:00,ZBYN 220200Z AUTO 09002KT 3SM 00/M04 A3015 RMK T00001040 IEM_DS3505
ZBYN,2004-02-22 03:00,ZBYN 220300Z AUTO 20006KT 5SM 04/M05 A3015 RMK SLP253 T00351049 52005 IEM_DS3505
ZBYN,2004-02-22 04:00,ZBYN 220400Z AUTO 21002KT 2 1/2SM 03/M05 A3015 RMK T00301050 IEM_DS3505
ZBYN,2004-02-22 05:00,ZBYN 220500Z AUTO 19004KT 2 1/2SM 04/M05 A3012 RMK T00401050 IEM_DS3505
ZBYN,2004-02-22 06:00,ZBYN 220600Z AUTO 14008KT 5SM 06/M01 A3009 RMK SLP231 T00621014 57021 IEM_DS3505
ZBYN,2004-02-22 07:00,ZBYN 220700Z AUTO 22002KT 06/M04 A3009 RMK T00601040 IEM_DS3505
ZBYN,2004-02-22 08:00,ZBYN 220800Z AUTO 24006KT 6SM 07/M07 A3009 RMK T00701070 IEM_DS3505
ZBYN,2004-02-22 09:00,ZBYN 220900Z AUTO 18008KT 9SM 08/M07 A3009 RMK SLP226 T00771067 57003 IEM_DS3505
ZBYN,2004-02-22 10:00,ZBYN 221000Z AUTO 20002KT 6SM 05/M06 A3009 RMK T00501060 IEM_DS3505
ZBYN,2004-02-22 11:00,ZBYN 221100Z AUTO 00000KT 5SM 02/M05 A3012 RMK T00201050 IEM_DS3505
ZBYN,2004-02-22 12:00,ZBYN 221200Z AUTO 32004KT 9SM 03/M06 A3015 RMK SLP252 T00311065 52016 IEM_DS3505
ZBYN,2004-02-22 13:00,ZBYN 221300Z AUTO 36002KT 6SM 01/M06 A3015 RMK T00101060 IEM_DS3505
ZBYN,2004-02-22 14:00,ZBYN 221400Z AUTO 02004KT 6SM M02/M06 A3015 RMK T10201060 IEM_DS3505
ZBYN,2004-02-22 15:00,ZBYN 221500Z AUTO 18006KT 9SM M01/M06 A3018 RMK SLP263 T10071058 52011 IEM_DS3505
ZBYN,2004-02-22 16:00,ZBYN 221600Z AUTO 07002KT 6SM M02/M06 A3018 RMK T10201060 IEM_DS3505
ZBYN,2004-02-22 17:00,ZBYN 221700Z AUTO 10002KT 6SM M05/M07 A3018 RMK T10501070 IEM_DS3505
ZBYN,2004-02-22 18:00,ZBYN 221800Z AUTO 16002KT 6SM M02/M05 A3015 RMK SLP256 T10231046 57004 IEM_DS3505
ZBYN,2004-02-22 19:00,ZBYN 221900Z AUTO 12004KT 6SM M04/M07 A3015 RMK T10401070 IEM_DS3505
ZBYN,2004-02-22 20:00,ZBYN 222000Z AUTO 11002KT 6SM M05/M07 A3015 RMK T10501070 IEM_DS3505
ZBYN,2004-02-22 21:00,ZBYN 222100Z AUTO 07002KT 6SM M03/M05 A3012 RMK SLP241 T10341052 57013 IEM_DS3505
ZBYN,2004-02-22 22:00,ZBYN 222200Z AUTO 10004KT 6SM M06/M09 A3012 RMK T10601090 IEM_DS3505
ZBYN,2004-02-22 23:00,ZBYN 222300Z AUTO 07002KT 6SM M05/M07 A3012 RMK T10501070 IEM_DS3505
ZBYN,2004-02-23 00:00,ZBYN 230000Z AUTO 25002KT 6SM M04/M05 A3012 RMK SLP255 T10361053 52005 IEM_DS3505
ZBYN,2004-02-23 02:00,ZBYN 230200Z AUTO 13004KT 02/M06 A3015 RMK T00201060 IEM_DS3505
ZBYN,2004-02-23 03:00,ZBYN 230300Z AUTO 14006KT 5SM 04/M04 A3015 RMK SLP250 T00371035 52001 IEM_DS3505
ZBYN,2004-02-23 04:00,ZBYN 230400Z AUTO 17004KT 5SM 05/M05 A3012 RMK T00501050 IEM_DS3505
ZBYN,2004-02-23 05:00,ZBYN 230500Z AUTO 19004KT 08/M06 A3006 RMK T00801060 IEM_DS3505
ZBYN,2004-02-23 06:00,ZBYN 230600Z AUTO 18010KT 7SM 08/M03 A3003 RMK SLP205 T00851033 57036 IEM_DS3505
ZBYN,2004-02-23 07:00,ZBYN 230700Z AUTO 23006KT 6SM 10/M06 A3000 RMK T01001060 IEM_DS3505
ZBYN,2004-02-23 08:00,ZBYN 230800Z AUTO 24006KT 6SM 09/M04 A3000 RMK T00901040 IEM_DS3505
ZBYN,2004-02-23 09:00,ZBYN 230900Z AUTO 32006KT 6SM 09/M04 A3000 RMK SLP200 T00941035 57005 IEM_DS3505
ZBYN,2004-02-23 10:00,ZBYN 231000Z AUTO 31008KT 6SM 08/M09 A3000 RMK T00801090 IEM_DS3505
ZBYN,2004-02-23 11:00,ZBYN 231100Z AUTO 32010KT 6SM 06/M06 A3003 RMK T00601060 IEM_DS3505
ZBYN,2004-02-23 12:00,ZBYN 231200Z AUTO 36002KT 6SM 07/M03 A3006 RMK SLP221 T00681031 52015 IEM_DS3505
ZBYN,2004-02-23 13:00,ZBYN 231300Z AUTO 6SM 05/M04 A3009 RMK T00501040 IEM_DS3505
ZBYN,2004-02-23 14:00,ZBYN 231400Z AUTO 6SM 04/M04 A3009 RMK T00401040 IEM_DS3505
ZBYN,2004-02-23 15:00,ZBYN 231500Z AUTO 22008KT 6SM 06/M03 A3009 RMK SLP225 T00561027 52013 IEM_DS3505
ZBYN,2004-02-23 16:00,ZBYN 231600Z AUTO 24006KT 6SM 03/M04 A3009 RMK T00301040 IEM_DS3505
ZBYN,2004-02-23 17:00,ZBYN 231700Z AUTO 24004KT 6SM 02/M04 A3009 RMK T00201040 IEM_DS3505
ZBYN,2004-02-23 18:00,ZBYN 231800Z AUTO 22002KT 6SM 01/M03 A3009 RMK SLP218 T00141027 57005 IEM_DS3505
ZBYN,2004-02-23 19:00,ZBYN 231900Z AUTO 17004KT 6SM 01/M05 A3006 RMK T00101050 IEM_DS3505
ZBYN,2004-02-23 20:00,ZBYN 232000Z AUTO 00000KT 6SM 00/M06 A3006 RMK T00001060 IEM_DS3505
ZBYN,2004-02-23 21:00,ZBYN 232100Z AUTO 25004KT 6SM 03/M08 RMK SLP209 T00271080 57005 IEM_DS3505
ZBYN,2004-02-23 22:00,ZBYN 232200Z AUTO 32004KT 6SM 00/M09 A3006 RMK T00001090 IEM_DS3505
ZBYN,2004-02-23 23:00,ZBYN 232300Z AUTO 35004KT 6SM M02/M09 A3006 RMK T10201090 IEM_DS3505
ZBYN,2004-02-24 00:00,ZBYN 240000Z AUTO 32008KT 6SM 03/M12 A3009 RMK SLP219 T00261120 52005 IEM_DS3505
ZBYN,2004-02-24 01:00,ZBYN 240100Z AUTO 22004KT 4SM 01/M04 A3009 RMK T00101040 IEM_DS3505
ZBYN,2004-02-24 02:00,ZBYN 240200Z AUTO 22002KT 04/M05 A3009 RMK T00401050 IEM_DS3505
ZBYN,2004-02-24 03:00,ZBYN 240300Z AUTO 20008KT 6SM 06/M08 A3006 RMK SLP212 T00611085 57003 IEM_DS3505
ZBYN,2004-02-24 04:00,ZBYN 240400Z AUTO 25008KT 6SM 07/M09 A3003 RMK T00701090 IEM_DS3505
ZBYN,2004-02-24 05:00,ZBYN 240500Z AUTO 23010KT 6SM 08/M09 A3000 RMK T00801090 IEM_DS3505
ZBYN,2004-02-24 06:00,ZBYN 240600Z AUTO 20014KT 7SM 10/M09 A2997 RMK SLP175 T00951090 57035 IEM_DS3505
ZBYN,2004-02-24 07:00,ZBYN 240700Z AUTO 24010KT 6SM 10/M11 A2994 RMK T01001110 IEM_DS3505
ZBYN,2004-02-24 08:00,ZBYN 240800Z AUTO 25008KT 6SM 11/M16 A2991 RMK T01101160 IEM_DS3505
ZBYN,2004-02-24 09:00,ZBYN 240900Z AUTO 32008KT 12SM 11/M14 A2991 RMK SLP154 T01131143 57014 IEM_DS3505
ZBYN,2004-02-24 10:00,ZBYN 241000Z AUTO 30006KT 6SM 08/M14 A2994 RMK T00801140 IEM_DS3505
ZBYN,2004-02-24 11:00,ZBYN 241100Z AUTO 24006KT 6SM 06/M11 A2994 RMK T00601110 IEM_DS3505
ZBYN,2004-02-24 12:00,ZBYN 241200Z AUTO 22008KT 11SM 06/M07 A2994 RMK SLP172 T00611071 52008 IEM_DS3505
ZBYN,2004-02-24 13:00,ZBYN 241300Z AUTO 23008KT 6SM 05/M09 A2994 RMK T00501090 IEM_DS3505
ZBYN,2004-02-24 14:00,ZBYN 241400Z AUTO 25006KT 6SM 04/M06 A2994 RMK T00401060 IEM_DS3505
ZBYN,2004-02-24 15:00,ZBYN 241500Z AUTO 32002KT 9SM 04/M06 A2997 RMK SLP177 T00391061 52007 IEM_DS3505
ZBYN,2004-02-24 17:00,ZBYN 241700Z AUTO 29014KT 6SM 05/M16 A2997 RMK T00501160 IEM_DS3505
ZBYN,2004-02-24 18:00,ZBYN 241800Z AUTO 32008KT 9SM 05/M18 A2997 RMK SLP170 T00541176 52001 IEM_DS3505
ZBYN,2004-02-24 19:00,ZBYN 241900Z AUTO 29010KT 6SM 04/M20 A2994 RMK T00401200 IEM_DS3505
ZBYN,2004-02-24 20:00,ZBYN 242000Z AUTO 29014KT 6SM 03/M21 A2997 RMK T00301210 IEM_DS3505
ZBYN,2004-02-24 21:00,ZBYN 242100Z AUTO 29006KT 7SM 03/M16 A2997 RMK SLP173 T00281162 52001 IEM_DS3505
ZBYN,2004-02-24 22:00,ZBYN 242200Z AUTO 28010KT 6SM 01/M17 A2997 RMK T00101170 IEM_DS3505
ZBYN,2004-02-24 23:00,ZBYN 242300Z AUTO 28012KT 6SM 01/M18 A2997 RMK T00101180 IEM_DS3505
ZBYN,2004-02-25 00:00,ZBYN 250000Z AUTO 29008KT 4SM 02/M15 A3003 RMK SLP206 T00151154 52020 IEM_DS3505
ZBYN,2004-02-25 01:00,ZBYN 250100Z AUTO 29008KT 6SM 02/M18 A3003 RMK T00201180 IEM_DS3505
ZBYN,2004-02-25 02:00,ZBYN 250200Z AUTO 29010KT 6SM 03/M19 A3006 RMK T00301190 IEM_DS3505
ZBYN,2004-02-25 03:00,ZBYN 250300Z AUTO 27016KT 9SM 05/M17 A3003 RMK SLP206 T00501166 52002 IEM_DS3505
ZBYN,2004-02-25 04:00,ZBYN 250400Z AUTO 29014KT 6SM 05/M22 A3003 RMK T00501220 IEM_DS3505
ZBYN,2004-02-25 05:00,ZBYN 250500Z AUTO 30014KT 6SM 06/M21 A3000 RMK T00601210 IEM_DS3505
ZBYN,2004-02-25 06:00,ZBYN 250600Z AUTO 29012KT 12SM 08/M15 A2994 RMK SLP164 T00841151 57030 IEM_DS3505
ZBYN,2004-02-25 07:00,ZBYN 250700Z AUTO 32017KT 6SM 08/M20 A2991 RMK T00801200 IEM_DS3505
ZBYN,2004-02-25 08:00,ZBYN 250800Z AUTO 31014KT 6SM 08/M20 A2991 RMK T00801200 IEM_DS3505
ZBYN,2004-02-25 09:00,ZBYN 250900Z AUTO 32008KT 12SM 08/M15 A2991 RMK SLP159 T00791149 57010 IEM_DS3505
ZBYN,2004-02-25 10:00,ZBYN 251000Z AUTO 30008KT 6SM 05/M19 A2994 RMK T00501190 IEM_DS3505
ZBYN,2004-02-25 11:00,ZBYN 251100Z AUTO 30006KT 6SM 03/M17 A2997 RMK T00301170 IEM_DS3505
ZBYN,2004-02-25 13:00,ZBYN 251300Z AUTO 6SM 01/M16 A2997 RMK T00101160 IEM_DS3505
ZBYN,2004-02-25 14:00,ZBYN 251400Z AUTO 24004KT 6SM 01/M13 A2997 RMK T00101130 IEM_DS3505
ZBYN,2004-02-25 15:00,ZBYN 251500Z AUTO 18002KT 9SM 02/M10 A3000 RMK SLP197 T00151103 52012 IEM_DS3505
ZBYN,2004-02-25 16:00,ZBYN 251600Z AUTO 29004KT 6SM 02/M14 A3000 RMK T00201140 IEM_DS3505
ZBYN,2004-02-25 17:00,ZBYN 251700Z AUTO 34004KT 6SM 00/M13 A3003 RMK T00001130 IEM_DS3505
ZBYN,2004-02-25 18:00,ZBYN 251800Z AUTO 32006KT 9SM 03/M15 A3003 RMK SLP203 T00291146 52013 IEM_DS3505
ZBYN,2004-02-25 19:00,ZBYN 251900Z AUTO 27004KT 6SM 00/M16 A3003 RMK T00001160 IEM_DS3505
ZBYN,2004-02-25 20:00,ZBYN 252000Z AUTO 22002KT 6SM 00/M16 A3003 RMK T00001160 IEM_DS3505
ZBYN,2004-02-25 21:00,ZBYN 252100Z AUTO 29002KT 9SM 01/M15 A3003 RMK SLP200 T00091146 57006 IEM_DS3505
ZBYN,2004-02-25 22:00,ZBYN 252200Z AUTO 27006KT 6SM 00/M18 A3003 RMK T00001180 IEM_DS3505
ZBYN,2004-02-25 23:00,ZBYN 252300Z AUTO 13004KT 6SM M05/M14 A3003 RMK T10501140 IEM_DS3505
ZBYN,2004-02-26 00:00,ZBYN 260000Z AUTO 22004KT 16SM 02/M14 A3006 RMK SLP213 T00241142 52008 IEM_DS3505
ZBYN,2004-02-26 01:00,ZBYN 260100Z AUTO 20002KT 5SM 02/M12 A3006 RMK T00201120 IEM_DS3505
ZBYN,2004-02-26 02:00,ZBYN 260200Z AUTO 25004KT 6SM 05/M16 A3006 RMK T00501160 IEM_DS3505
ZBYN,2004-02-26 03:00,ZBYN 260300Z AUTO 29008KT 16SM 08/M16 A3009 RMK SLP218 T00801162 52009 IEM_DS3505
ZBYN,2004-02-26 04:00,ZBYN 260400Z AUTO 29008KT 6SM 08/M20 A3006 RMK T00801200 IEM_DS3505
ZBYN,2004-02-26 05:00,ZBYN 260500Z AUTO 29012KT 6SM 09/M18 A3003 RMK T00901180 IEM_DS3505
ZBYN,2004-02-26 06:00,ZBYN 260600Z AUTO 22008KT 16SM 10/M12 A3003 RMK SLP190 T01021117 57020 IEM_DS3505
ZBYN,2004-02-26 07:00,ZBYN 260700Z AUTO 22008KT 6SM 09/M18 A3000 RMK T00901180 IEM_DS3505
ZBYN,2004-02-26 08:00,ZBYN 260800Z AUTO 22006KT 6SM 10/M17 A2997 RMK T01001170 IEM_DS3505
ZBYN,2004-02-26 09:00,ZBYN 260900Z AUTO 32010KT 16SM 11/M15 A2997 RMK SLP179 T01091146 57012 IEM_DS3505
ZBYN,2004-02-26 10:00,ZBYN 261000Z AUTO 30008KT 6SM 08/M18 A2997 RMK T00801180 IEM_DS3505
ZBYN,2004-02-26 11:00,ZBYN 261100Z AUTO 26004KT 6SM 06/M16 A3000 RMK T00601160 IEM_DS3505
ZBYN,2004-02-26 12:00,ZBYN 261200Z AUTO 27002KT 16SM 04/M11 A3000 RMK SLP200 T00371110 52010 IEM_DS3505
ZBYN,2004-02-26 13:00,ZBYN 261300Z AUTO 6SM 03/M15 A3000 RMK T00301150 IEM_DS3505
ZBYN,2004-02-26 14:00,ZBYN 261400Z AUTO 17004KT 6SM 01/M10 A3003 RMK T00101100 IEM_DS3505
ZBYN,2004-02-26 15:00,ZBYN 261500Z AUTO 11004KT 11SM 01/M08 A3003 RMK SLP199 T00101075 52004 IEM_DS3505
ZBYN,2004-02-26 16:00,ZBYN 261600Z AUTO 09002KT 6SM M03/M10 A3000 RMK T10301100 IEM_DS3505
ZBYN,2004-02-26 17:00,ZBYN 261700Z AUTO 09002KT 6SM M03/M10 A3000 RMK T10301100 IEM_DS3505
ZBYN,2004-02-26 18:00,ZBYN 261800Z AUTO 29002KT 9SM M02/M08 A3000 RMK SLP186 T10151080 57012 IEM_DS3505
ZBYN,2004-02-26 19:00,ZBYN 261900Z AUTO 10002KT 6SM M03/M09 A2997 RMK T10301090 IEM_DS3505
ZBYN,2004-02-26 20:00,ZBYN 262000Z AUTO 11002KT 6SM M06/M11 A2994 RMK T10601110 IEM_DS3505
ZBYN,2004-02-26 21:00,ZBYN 262100Z AUTO 14004KT 9SM M03/M09 A2991 RMK SLP165 T10291087 57020 IEM_DS3505
ZBYN,2004-02-26 22:00,ZBYN 262200Z AUTO 09002KT 6SM M04/M10 A2991 RMK T10401100 IEM_DS3505
ZBYN,2004-02-26 23:00,ZBYN 262300Z AUTO 12004KT 6SM M05/M11 A2991 RMK T10501110 IEM_DS3505
ZBYN,2004-02-27 00:00,ZBYN 270000Z AUTO 00000KT 4SM A2991 RMK IEM_DS3505
ZBYN,2004-02-27 01:00,ZBYN 270100Z AUTO 00000KT 2 1/2SM 00/M08 A2991 RMK T00001080 IEM_DS3505
ZBYN,2004-02-27 02:00,ZBYN 270200Z AUTO 00000KT 03/M12 A2988 RMK T00301120 IEM_DS3505
ZBYN,2004-02-27 03:00,ZBYN 270300Z AUTO 11006KT 4SM 06/M08 A2988 RMK SLP148 T00571085 57015 IEM_DS3505
ZBYN,2004-02-27 04:00,ZBYN 270400Z AUTO 20004KT 6SM 08/M13 A2985 RMK T00801130 IEM_DS3505
ZBYN,2004-02-27 05:00,ZBYN 270500Z AUTO 23006KT 6SM 10/M13 A2980 RMK T01001130 IEM_DS3505
ZBYN,2004-02-27 06:00,ZBYN 270600Z AUTO 18012KT 4SM 12/M06 A2974 RMK SLP090 T01171061 57047 IEM_DS3505
ZBYN,2004-02-27 07:00,ZBYN 270700Z AUTO 22010KT 5SM 12/M10 A2971 RMK T01201100 IEM_DS3505
ZBYN,2004-02-27 08:00,ZBYN 270800Z AUTO 24010KT 5SM 13/M09 A2968 RMK T01301090 IEM_DS3505
ZBYN,2004-02-27 09:00,ZBYN 270900Z AUTO 20010KT 4SM 12/M04 A2968 RMK SLP075 T01241038 57015 IEM_DS3505
ZBYN,2004-02-27 10:00,ZBYN 271000Z AUTO 23008KT 6SM 11/M06 A2968 RMK T01101060 IEM_DS3505
ZBYN,2004-02-27 11:00,ZBYN 271100Z AUTO 25008KT 6SM 09/M06 A2968 RMK T00901060 IEM_DS3505
ZBYN,2004-02-27 12:00,ZBYN 271200Z AUTO 34002KT 7SM 07/M02 A2971 RMK SLP097 T00661025 52013 IEM_DS3505
ZBYN,2004-02-27 13:00,ZBYN 271300Z AUTO 6SM 05/M05 A2974 RMK T00501050 IEM_DS3505
ZBYN,2004-02-27 14:00,ZBYN 271400Z AUTO 11004KT 02/M05 A2974 RMK T00201050 IEM_DS3505
ZBYN,2004-02-27 15:00,ZBYN 271500Z AUTO 11006KT 7SM 03/M03 A2974 RMK SLP096 T00321029 52005 IEM_DS3505
ZBYN,2004-02-27 16:00,ZBYN 271600Z AUTO 10002KT 4SM 00/M05 A2974 RMK T00001050 IEM_DS3505
ZBYN,2004-02-27 17:00,ZBYN 271700Z AUTO 12004KT 6SM 00/M05 A2974 RMK T00001050 IEM_DS3505
ZBYN,2004-02-27 18:00,ZBYN 271800Z AUTO 11004KT 7SM 02/M03 A2974 RMK SLP095 T00171028 52006 IEM_DS3505
ZBYN,2004-02-27 19:00,ZBYN 271900Z AUTO 6SM 01/M05 A2977 RMK T00101050 IEM_DS3505
ZBYN,2004-02-27 20:00,ZBYN 272000Z AUTO 29012KT 6SM 08/M13 A2977 RMK T00801130 IEM_DS3505
ZBYN,2004-02-27 21:00,ZBYN 272100Z AUTO 32008KT 7SM 08/M10 A2983 RMK SLP110 T00761101 52024 IEM_DS3505
ZBYN,2004-02-27 22:00,ZBYN 272200Z AUTO 32010KT 6SM 06/M12 A2985 RMK T00601120 IEM_DS3505
ZBYN,2004-02-27 23:00,ZBYN 272300Z AUTO 29008KT 6SM 05/M11 A2988 RMK T00501110 IEM_DS3505
ZBYN,2004-02-28 00:00,ZBYN 280000Z AUTO 32006KT 6SM 05/M07 A2988 RMK SLP155 T00511073 52028 IEM_DS3505
ZBYN,2004-02-28 01:00,ZBYN 280100Z AUTO 33010KT 6SM 06/M10 A2991 RMK T00601100 IEM_DS3505
ZBYN,2004-02-28 02:00,ZBYN 280200Z AUTO 36006KT 6SM 07/M12 A2991 RMK T00701120 IEM_DS3505
ZBYN,2004-02-28 03:00,ZBYN 280300Z AUTO 04004KT 6SM 09/M09 A2991 RMK SLP152 T00931091 57001 IEM_DS3505
ZBYN,2004-02-28 04:00,ZBYN 280400Z AUTO 29008KT 6SM 09/M12 A2991 RMK T00901120 IEM_DS3505
ZBYN,2004-02-28 05:00,ZBYN 280500Z AUTO 35010KT 6SM 11/M13 A2988 RMK T01101130 IEM_DS3505
ZBYN,2004-02-28 06:00,ZBYN 280600Z AUTO 32008KT 9SM 12/M11 A2985 RMK T01151112 IEM_DS3505
ZBYN,2004-02-28 07:00,ZBYN 280700Z AUTO 01012KT 6SM 11/M13 A2985 RMK T01101130 IEM_DS3505
ZBYN,2004-02-28 09:00,ZBYN 280900Z AUTO 04006KT 9SM 10/M11 A2991 RMK SLP145 T01041109 52015 IEM_DS3505
ZBYN,2004-02-28 10:00,ZBYN 281000Z AUTO 02004KT 6SM 08/M14 A2994 RMK T00801140 IEM_DS3505
ZBYN,2004-02-28 11:00,ZBYN 281100Z AUTO 36008KT 6SM 05/M13 A2997 RMK T00501130 IEM_DS3505
ZBYN,2004-02-28 12:00,ZBYN 281200Z AUTO 34006KT 9SM 06/M11 A3000 RMK SLP187 T00641112 52028 IEM_DS3505
ZBYN,2004-02-28 14:00,ZBYN 281400Z AUTO 15004KT 6SM 01/M12 A3003 RMK T00101120 IEM_DS3505
ZBYN,2004-02-28 15:00,ZBYN 281500Z AUTO 18004KT 9SM 03/M10 A3006 RMK SLP203 T00301102 52016 IEM_DS3505
ZBYN,2004-02-28 16:00,ZBYN 281600Z AUTO 01002KT 6SM M02/M10 A3006 RMK T10201100 IEM_DS3505
ZBYN,2004-02-28 17:00,ZBYN 281700Z AUTO 04002KT 6SM M02/M10 A3009 RMK T10201100 IEM_DS3505
ZBYN,2004-02-28 18:00,ZBYN 281800Z AUTO 32002KT 9SM 01/M08 A3006 RMK SLP210 T00121085 52007 IEM_DS3505
ZBYN,2004-02-28 19:00,ZBYN 281900Z AUTO 09004KT 6SM 01/M12 A3006 RMK T00101120 IEM_DS3505
ZBYN,2004-02-28 20:00,ZBYN 282000Z AUTO 10006KT 6SM 00/M11 A3006 RMK T00001110 IEM_DS3505
ZBYN,2004-02-28 21:00,ZBYN 282100Z AUTO 29002KT 6SM 00/M07 A3003 RMK SLP203 T00021068 57010 IEM_DS3505
ZBYN,2004-02-28 22:00,ZBYN 282200Z AUTO 10008KT 6SM 00/M12 A3000 RMK T00001120 IEM_DS3505
ZBYN,2004-02-28 23:00,ZBYN 282300Z AUTO 10008KT 6SM M01/M12 A3003 RMK T10101120 IEM_DS3505
ZBYN,2004-02-29 00:00,ZBYN 290000Z AUTO 18002KT 5SM M00/M09 A3006 RMK SLP218 T10011087 52007 IEM_DS3505
ZBYN,2004-02-29 01:00,ZBYN 290100Z AUTO 09008KT 6SM 00/M15 A3006 RMK T00001150 IEM_DS3505
ZBYN,2004-02-29 02:00,ZBYN 290200Z AUTO 09004KT 6SM 00/M15 A3009 RMK T00001150 IEM_DS3505
ZBYN,2004-02-29 03:00,ZBYN 290300Z AUTO 11004KT 6SM 02/M11 A3006 RMK SLP223 T00151106 52002 IEM_DS3505
ZBYN,2004-02-29 04:00,ZBYN 290400Z AUTO 16006KT 6SM 03/M13 A3006 RMK T00301130 IEM_DS3505
ZBYN,2004-02-29 05:00,ZBYN 290500Z AUTO 20004KT 6SM 03/M12 A3003 RMK T00301120 IEM_DS3505
ZBYN,2004-02-29 06:00,ZBYN 290600Z AUTO 16012KT 6SM 05/M08 A3000 RMK SLP186 T00511077 57031 IEM_DS3505
ZBYN,2004-02-29 07:00,ZBYN 290700Z AUTO 23006KT 6SM 05/M09 A2994 RMK T00501090 IEM_DS3505
ZBYN,2004-02-29 08:00,ZBYN 290800Z AUTO 23008KT 6SM 06/M06 A2991 RMK T00601060 IEM_DS3505
ZBYN,2004-02-29 09:00,ZBYN 290900Z AUTO 20006KT 4SM 07/M03 A2988 RMK SLP157 T00711028 57025 IEM_DS3505
ZBYN,2004-02-29 10:00,ZBYN 291000Z AUTO 24006KT 6SM 06/M05 A2991 RMK T00601050 IEM_DS3505
ZBYN,2004-02-29 11:00,ZBYN 291100Z AUTO 23004KT 6SM 04/M05 A2994 RMK T00401050 IEM_DS3505
ZBYN,2004-02-29 12:00,ZBYN 291200Z AUTO 22006KT 6SM 05/M04 A2994 RMK SLP181 T00501037 52018 IEM_DS3505
ZBYN,2004-02-29 13:00,ZBYN 291300Z AUTO 23004KT 6SM 02/M05 A2997 RMK T00201050 IEM_DS3505
ZBYN,2004-02-29 14:00,ZBYN 291400Z AUTO 4SM 00/M05 A3000 RMK T00001050 IEM_DS3505
ZBYN,2004-02-29 15:00,ZBYN 291500Z AUTO 04004KT 6SM 01/M04 A3000 RMK SLP203 T00061038 52016 IEM_DS3505
ZBYN,2004-02-29 16:00,ZBYN 291600Z AUTO 13002KT 2 1/2SM 00/M06 A3000 RMK T00001060 IEM_DS3505
ZBYN,2004-02-29 17:00,ZBYN 291700Z AUTO 09004KT 4SM M02/M06 A3000 RMK T10201060 IEM_DS3505
ZBYN,2004-02-29 18:00,ZBYN 291800Z AUTO 11004KT 6SM M00/M04 A3000 RMK SLP196 T10011042 57002 IEM_DS3505
ZBYN,2004-02-29 19:00,ZBYN 291900Z AUTO 08004KT 4SM M02/M05 A3000 RMK T10201050 IEM_DS3505
ZBYN,2004-02-29 20:00,ZBYN 292000Z AUTO 12004KT 4SM M04/M05 A3000 RMK T10401050 IEM_DS3505
ZBYN,2004-02-29 21:00,ZBYN 292100Z AUTO 11004KT 5SM M02/M03 A3000 RMK SLP194 T10181032 57001 IEM_DS3505
ZBYN,2004-02-29 22:00,ZBYN 292200Z AUTO 08002KT 3SM M04/M06 A3000 RMK T10401060 IEM_DS3505
ZBYN,2004-02-29 23:00,ZBYN 292300Z AUTO 06002KT 2SM A3000 RMK IEM_DS3505
ZBYN,2004-03-01 00:00,ZBYN 010000Z AUTO 29004KT 2SM M01/M03 A3003 RMK SLP217 T10131026 52018 IEM_DS3505
ZBYN,2004-03-01 01:00,ZBYN 010100Z AUTO 00000KT 1SM A3006 RMK IEM_DS3505
ZBYN,2004-03-01 02:00,ZBYN 010200Z AUTO 06006KT 1SM 01/M02 A3006 RMK T00101020 IEM_DS3505
ZBYN,2004-03-01 03:00,ZBYN 010300Z AUTO 11008KT 4SM 04/M02 A3006 RMK SLP218 T00451023 52003 IEM_DS3505
ZBYN,2004-03-01 04:00,ZBYN 010400Z AUTO 10008KT 1 1/2SM 04/M04 A3003 RMK T00401040 IEM_DS3505
ZBYN,2004-03-01 05:00,ZBYN 010500Z AUTO 12006KT 2SM 05/M05 A3000 RMK T00501050 IEM_DS3505
ZBYN,2004-03-01 06:00,ZBYN 010600Z AUTO 22002KT 4SM 07/M05 A2997 RMK SLP183 T00741046 57028 IEM_DS3505
ZBYN,2004-03-01 07:00,ZBYN 010700Z AUTO 11002KT 3SM 07/M07 A2994 RMK T00701070 IEM_DS3505
ZBYN,2004-03-01 08:00,ZBYN 010800Z AUTO 07/M08 A2994 RMK T00701080 IEM_DS3505
ZBYN,2004-03-01 09:00,ZBYN 010900Z AUTO 32010KT 12SM 08/M14 A2994 RMK SLP186 T00761138 54000 IEM_DS3505
ZBYN,2004-03-01 10:00,ZBYN 011000Z AUTO 32014KT 6SM 06/M18 A2997 RMK T00601180 IEM_DS3505
ZBYN,2004-03-01 11:00,ZBYN 011100Z AUTO 32012KT 6SM 03/M17 A3003 RMK T00301170 IEM_DS3505
ZBYN,2004-03-01 12:00,ZBYN 011200Z AUTO 25004KT 12SM 03/M13 A3006 RMK SLP228 T00271127 52031 IEM_DS3505
ZBYN,2004-03-01 13:00,ZBYN 011300Z AUTO 09010KT 6SM 00/M11 A3009 RMK T00001110 IEM_DS3505
ZBYN,2004-03-01 14:00,ZBYN 011400Z AUTO 12008KT 6SM M02/M10 A3009 RMK T10201100 IEM_DS3505
ZBYN,2004-03-01 15:00,ZBYN 011500Z AUTO 20008KT 12SM M01/M08 A3009 RMK SLP228 T10091076 52004 IEM_DS3505
ZBYN,2004-03-01 16:00,ZBYN 011600Z AUTO 10006KT 6SM M03/M10 A3009 RMK T10301100 IEM_DS3505
ZBYN,2004-03-01 17:00,ZBYN 011700Z AUTO 09004KT 6SM M03/M10 A3006 RMK T10301100 IEM_DS3505
ZBYN,2004-03-01 18:00,ZBYN 011800Z AUTO 36002KT 9SM M04/M08 A3006 RMK SLP224 T10371076 57004 IEM_DS3505
ZBYN,2004-03-01 19:00,ZBYN 011900Z AUTO 11004KT 6SM M06/M11 A3006 RMK T10601110 IEM_DS3505
ZBYN,2004-03-01 20:00,ZBYN 012000Z AUTO 13004KT 6SM M05/M09 A3003 RMK T10501090 IEM_DS3505
ZBYN,2004-03-01 21:00,ZBYN 012100Z AUTO 11002KT 9SM M04/M07 A3003 RMK SLP216 T10351071 57006 IEM_DS3505
ZBYN,2004-03-01 22:00,ZBYN 012200Z AUTO 10002KT 6SM M05/M09 A3003 RMK T10501090 IEM_DS3505
ZBYN,2004-03-01 23:00,ZBYN 012300Z AUTO 5SM A3003 RMK IEM_DS3505
ZBYN,2004-03-02 00:00,ZBYN 020000Z AUTO 14004KT 5SM M03/M06 A3003 RMK SLP220 T10331056 57004 IEM_DS3505
ZBYN,2004-03-02 01:00,ZBYN 020100Z AUTO 11002KT 2 1/2SM A3003 RMK IEM_DS3505
ZBYN,2004-03-02 02:00,ZBYN 020200Z AUTO 00000KT 2 1/2SM 00/M09 A3003 RMK T00001090 IEM_DS3505
ZBYN,2004-03-02 03:00,ZBYN 020300Z AUTO 09002KT 3SM 03/M08 A3000 RMK SLP205 T00261084 57010 IEM_DS3505
ZBYN,2004-03-02 04:00,ZBYN 020400Z AUTO 00000KT 3SM 03/M10 A2997 RMK T00301100 IEM_DS3505
ZBYN,2004-03-02 05:00,ZBYN 020500Z AUTO 22004KT 04/M11 A2994 RMK T00401110 IEM_DS3505
ZBYN,2004-03-02 06:00,ZBYN 020600Z AUTO 32016KT 3SM 06/M12 A2994 RMK SLP188 T00571122 57015 IEM_DS3505
ZBYN,2004-03-02 07:00,ZBYN 020700Z AUTO 31016KT 6SM 05/M14 A2994 RMK T00501140 IEM_DS3505
ZBYN,2004-03-02 08:00,ZBYN 020800Z AUTO 30016KT 7SM 04/M13 A3000 RMK T00401130 IEM_DS3505
ZBYN,2004-03-02 09:00,ZBYN 020900Z AUTO 29014KT 4SM 00/M03 A3006 RMK SLP240 T00001030 52038 IEM_DS3505
ZBYN,2004-03-02 10:00,ZBYN 021000Z AUTO 29006KT 7SM 01/M10 A3012 RMK T00101100 IEM_DS3505
ZBYN,2004-03-02 11:00,ZBYN 021100Z AUTO 31010KT 6SM M01/M17 A3015 RMK T10101170 IEM_DS3505
ZBYN,2004-03-02 12:00,ZBYN 021200Z AUTO 32012KT 6SM M01/M15 A3021 RMK SLP290 T10071153 52045 IEM_DS3505
ZBYN,2004-03-02 13:00,ZBYN 021300Z AUTO 33014KT 6SM M02/M18 A3024 RMK T10201180 IEM_DS3505
ZBYN,2004-03-02 14:00,ZBYN 021400Z AUTO 32019KT 6SM M02/M23 A3027 RMK T10201230 IEM_DS3505
ZBYN,2004-03-02 15:00,ZBYN 021500Z AUTO 32014KT 6SM M02/M22 A3027 RMK SLP311 T10231221 52026 IEM_DS3505
ZBYN,2004-03-02 16:00,ZBYN 021600Z AUTO 32016KT 6SM M04/M25 A3030 RMK T10401250 IEM_DS3505
ZBYN,2004-03-02 17:00,ZBYN 021700Z AUTO 31012KT 6SM M05/M25 A3030 RMK T10501250 IEM_DS3505
ZBYN,2004-03-02 18:00,ZBYN 021800Z AUTO 29008KT 6SM M04/M21 A3027 RMK SLP301 T10441209 57008 IEM_DS3505
ZBYN,2004-03-02 19:00,ZBYN 021900Z AUTO 29006KT 6SM M06/M23 A3024 RMK T10601230 IEM_DS3505
ZBYN,2004-03-02 20:00,ZBYN 022000Z AUTO 26006KT 6SM M06/M22 A3021 RMK T10601220 IEM_DS3505
ZBYN,2004-03-02 21:00,ZBYN 022100Z AUTO 32002KT 7SM M06/M18 A3021 RMK 70000 SLP286 T10561176 57025 IEM_DS3505
ZBYN,2004-03-02 22:00,ZBYN 022200Z AUTO 25004KT 6SM M05/M17 A3018 RMK T10501170 IEM_DS3505
ZBYN,2004-03-02 23:00,ZBYN 022300Z AUTO 26004KT 6SM M07/M16 A3018 RMK T10701160 IEM_DS3505
ZBYN,2004-03-03 00:00,ZBYN 030000Z AUTO 32006KT 7SM M04/M17 A3018 RMK 70000 SLP275 T10351167 57007 IEM_DS3505
ZBYN,2004-03-03 01:00,ZBYN 030100Z AUTO 28006KT 6SM M03/M18 A3018 RMK T10301180 IEM_DS3505
ZBYN,2004-03-03 02:00,ZBYN 030200Z AUTO 31012KT 6SM M01/M22 A3015 RMK T10101220 IEM_DS3505
ZBYN,2004-03-03 03:00,ZBYN 030300Z AUTO 22010KT 9SM 01/M18 A3012 RMK SLP254 T00081179 57015 IEM_DS3505
ZBYN,2004-03-03 04:00,ZBYN 030400Z AUTO 22008KT 6SM 01/M20 A3009 RMK T00101200 IEM_DS3505
ZBYN,2004-03-03 05:00,ZBYN 030500Z AUTO 23010KT 6SM 02/M20 A3006 RMK T00201200 IEM_DS3505
ZBYN,2004-03-03 06:00,ZBYN 030600Z AUTO 25010KT 11SM 04/M16 A3000 RMK SLP210 T00431160 57038 IEM_DS3505
ZBYN,2004-03-03 07:00,ZBYN 030700Z AUTO 25010KT 6SM 04/M21 A2997 RMK T00401210 IEM_DS3505
ZBYN,2004-03-03 08:00,ZBYN 030800Z AUTO 28012KT 6SM 05/M23 A2997 RMK T00501230 IEM_DS3505
ZBYN,2004-03-03 09:00,ZBYN 030900Z AUTO 27010KT 11SM 06/M18 A2994 RMK SLP189 T00581180 57018 IEM_DS3505
ZBYN,2004-03-03 10:00,ZBYN 031000Z AUTO 27008KT 6SM 04/M23 A2994 RMK T00401230 IEM_DS3505
ZBYN,2004-03-03 11:00,ZBYN 031100Z AUTO 27004KT 6SM 01/M22 A2997 RMK T00101220 IEM_DS3505
ZBYN,2004-03-03 12:00,ZBYN 031200Z AUTO 20006KT 11SM 03/M16 A2997 RMK SLP199 T00261158 52007 IEM_DS3505
ZBYN,2004-03-03 13:00,ZBYN 031300Z AUTO 24004KT 6SM 00/M17 A2997 RMK T00001170 IEM_DS3505
ZBYN,2004-03-03 14:00,ZBYN 031400Z AUTO 24006KT 6SM 00/M16 A2997 RMK T00001160 IEM_DS3505
ZBYN,2004-03-03 15:00,ZBYN 031500Z AUTO 20008KT 9SM 00/M11 A2997 RMK SLP197 T00011112 52001 IEM_DS3505
ZBYN,2004-03-03 16:00,ZBYN 031600Z AUTO 25008KT 6SM 00/M16 A2994 RMK T00001160 IEM_DS3505
ZBYN,2004-03-03 17:00,ZBYN 031700Z AUTO 24004KT 6SM M01/M16 A2994 RMK T10101160 IEM_DS3505
ZBYN,2004-03-03 18:00,ZBYN 031800Z AUTO 18006KT 9SM M01/M12 A2994 RMK SLP174 T10121118 57017 IEM_DS3505
ZBYN,2004-03-03 19:00,ZBYN 031900Z AUTO 09002KT 6SM M05/M14 A2988 RMK T10501140 IEM_DS3505
ZBYN,2004-03-03 20:00,ZBYN 032000Z AUTO 12004KT 6SM M07/M14 A2988 RMK T10701140 IEM_DS3505
ZBYN,2004-03-03 21:00,ZBYN 032100Z AUTO 09004KT 6SM M03/M12 A2985 RMK SLP154 T10331119 57019 IEM_DS3505
ZBYN,2004-03-03 22:00,ZBYN 032200Z AUTO 13004KT 6SM M07/M13 A2985 RMK T10701130 IEM_DS3505
ZBYN,2004-03-03 23:00,ZBYN 032300Z AUTO 11004KT M07/M13 A2985 RMK T10701130 IEM_DS3505
ZBYN,2004-03-04 00:00,ZBYN 040000Z AUTO 11004KT 6SM M02/M11 A2985 RMK SLP153 T10231108 57005 IEM_DS3505
ZBYN,2004-03-04 01:00,ZBYN 040100Z AUTO 11002KT 00/M12 A2985 RMK T00001120 IEM_DS3505
ZBYN,2004-03-04 01:30,ZBYN 040130Z AUTO 5SM 02/M16 A2983 RMK T00201160 IEM_DS3505
ZBYN,2004-03-04 02:00,ZBYN 040200Z AUTO 24012KT 6SM 03/M15 A2983 RMK T00301150 IEM_DS3505
ZBYN,2004-03-04 02:30,ZBYN 040230Z AUTO 25012KT 6SM 05/M17 A2983 RMK T00501170 IEM_DS3505
ZBYN,2004-03-04 03:00,ZBYN 040300Z AUTO 20008KT 6SM 07/M14 RMK SLP124 T00661141 57016 IEM_DS3505
ZBYN,2004-03-04 04:00,ZBYN 040400Z AUTO 27012KT 6SM 08/M18 A2977 RMK T00801180 IEM_DS3505
ZBYN,2004-03-04 05:00,ZBYN 040500Z AUTO 30014KT 6SM 09/M23 A2974 RMK T00901230 IEM_DS3505
ZBYN,2004-03-04 06:00,ZBYN 040600Z AUTO 32014KT 12SM 09/M17 A2974 RMK SLP104 T00941166 57016 IEM_DS3505
ZBYN,2004-03-04 07:00,ZBYN 040700Z AUTO 30016KT 6SM 09/M20 A2974 RMK T00901200 IEM_DS3505
ZBYN,2004-03-04 08:00,ZBYN 040800Z AUTO 32016KT 6SM 08/M20 A2977 RMK T00801200 IEM_DS3505
ZBYN,2004-03-04 09:00,ZBYN 040900Z AUTO 29014KT 12SM 08/M16 A2977 RMK SLP122 T00791155 52011 IEM_DS3505
ZBYN,2004-03-04 10:00,ZBYN 041000Z AUTO 30012KT 6SM 06/M20 A2980 RMK T00601200 IEM_DS3505
ZBYN,2004-03-04 11:00,ZBYN 041100Z AUTO 32010KT 6SM 04/M17 A2983 RMK T00401170 IEM_DS3505
ZBYN,2004-03-04 12:00,ZBYN 041200Z AUTO 34010KT 11SM 04/M07 A2988 RMK SLP175 T00361069 52043 IEM_DS3505
ZBYN,2004-03-04 13:00,ZBYN 041300Z AUTO 35017KT 6SM 01/M07 A2994 RMK T00101070 IEM_DS3505
ZBYN,2004-03-04 14:00,ZBYN 041400Z AUTO 34006KT 6SM 00/M06 A2997 RMK T00001060 IEM_DS3505
ZBYN,2004-03-04 15:00,ZBYN 041500Z AUTO 36004KT 11SM M00/M04 A3003 RMK SLP205 T10011038 52036 IEM_DS3505
ZBYN,2004-03-04 16:00,ZBYN 041600Z AUTO 29004KT 6SM M02/M07 A3006 RMK T10201070 IEM_DS3505
ZBYN,2004-03-04 17:00,ZBYN 041700Z AUTO 6SM M01/M08 A3006 RMK T10101080 IEM_DS3505
ZBYN,2004-03-04 18:00,ZBYN 041800Z AUTO 29008KT 11SM M01/M14 A3009 RMK SLP226 T10141145 52021 IEM_DS3505
ZBYN,2004-03-04 19:00,ZBYN 041900Z AUTO 29010KT 6SM M02/M17 A3009 RMK T10201170 IEM_DS3505
ZBYN,2004-03-04 20:00,ZBYN 042000Z AUTO 29006KT 6SM M04/M18 A3006 RMK T10401180 IEM_DS3505
ZBYN,2004-03-04 21:00,ZBYN 042100Z AUTO 32004KT 11SM M04/M14 A3006 RMK SLP223 T10391135 57009 IEM_DS3505
ZBYN,2004-03-04 22:00,ZBYN 042200Z AUTO 29006KT 6SM M05/M16 A3006 RMK T10501160 IEM_DS3505
ZBYN,2004-03-04 23:00,ZBYN 042300Z AUTO 30006KT 6SM M04/M16 A3009 RMK T10401160 IEM_DS3505
ZBYN,2004-03-05 00:00,ZBYN 050000Z AUTO 32016KT 16SM M02/M13 A3009 RMK SLP238 T10191133 52010 IEM_DS3505
ZBYN,2004-03-05 01:00,ZBYN 050100Z AUTO 31019KT 7SM M02/M16 A3012 RMK T10201160 IEM_DS3505
ZBYN,2004-03-05 02:00,ZBYN 050200Z AUTO 33023KT 7SM M01/M20 A3015 RMK T10101200 IEM_DS3505
ZBYN,2004-03-05 03:00,ZBYN 050300Z AUTO 32021KT 12SM 00/M19 A3015 RMK SLP264 T00001191 52020 IEM_DS3505
ZBYN,2004-03-05 04:00,ZBYN 050400Z AUTO 33017KT 7SM 01/M23 A3018 RMK T00101230 IEM_DS3505
ZBYN,2004-03-05 05:00,ZBYN 050500Z AUTO 34019KT 7SM 01/M25 A3018 RMK T00101250 IEM_DS3505
ZBYN,2004-03-05 06:00,ZBYN 050600Z AUTO 32016KT 12SM 00/M21 A3018 RMK SLP276 T00001207 4////1042 52009 IEM_DS3505
ZBYN,2004-03-05 07:00,ZBYN 050700Z AUTO 32016KT 7SM 00/M25 A3018 RMK T00001250 IEM_DS3505
ZBYN,2004-03-05 09:00,ZBYN 050900Z AUTO 32014KT 16SM 01/M21 A3021 RMK SLP288 T00071208 52008 IEM_DS3505
ZBYN,2004-03-05 10:00,ZBYN 051000Z AUTO 33014KT 6SM M01/M24 A3021 RMK T10101240 IEM_DS3505
ZBYN,2004-03-05 11:00,ZBYN 051100Z AUTO 34012KT 6SM M02/M23 A3027 RMK T10201230 IEM_DS3505
ZBYN,2004-03-05 12:00,ZBYN 051200Z AUTO 34004KT 16SM M02/M20 A3030 RMK SLP317 T10221195 52025 IEM_DS3505
ZBYN,2004-03-05 13:00,ZBYN 051300Z AUTO 34008KT 6SM M04/M24 A3033 RMK T10401240 IEM_DS3505
ZBYN,2004-03-05 14:00,ZBYN 051400Z AUTO 36006KT 6SM M05/M24 A3036 RMK T10501240 IEM_DS3505
ZBYN,2004-03-05 15:00,ZBYN 051500Z AUTO 32008KT 12SM M04/M22 A3039 RMK SLP345 T10371222 52026 IEM_DS3505
ZBYN,2004-03-05 16:00,ZBYN 051600Z AUTO 30006KT 6SM M05/M24 A3039 RMK T10501240 IEM_DS3505
ZBYN,2004-03-05 17:00,ZBYN 051700Z AUTO 03004KT 6SM M07/M23 A3039 RMK T10701230 IEM_DS3505
ZBYN,2004-03-05 18:00,ZBYN 051800Z AUTO 34008KT 12SM M05/M22 A3039 RMK SLP353 T10521220 52005 IEM_DS3505
ZBYN,2004-03-05 19:00,ZBYN 051900Z AUTO 35004KT 6SM M09/M22 A3042 RMK T10901220 IEM_DS3505
ZBYN,2004-03-05 20:00,ZBYN 052000Z AUTO 01004KT 6SM M08/M22 A3042 RMK T10801220 IEM_DS3505
ZBYN,2004-03-05 21:00,ZBYN 052100Z AUTO 36004KT 12SM M07/M21 A3042 RMK SLP363 T10691207 52007 IEM_DS3505
ZBYN,2004-03-05 22:00,ZBYN 052200Z AUTO 03002KT 6SM M11/M21 A3045 RMK T11101210 IEM_DS3505
ZBYN,2004-03-05 23:00,ZBYN 052300Z AUTO 03004KT 6SM M12/M20 A3045 RMK T11201200 IEM_DS3505
ZBYN,2004-03-06 00:00,ZBYN 060000Z AUTO 32004KT 9SM M06/M21 A3047 RMK SLP386 T10621212 52017 IEM_DS3505
ZBYN,2004-03-06 01:00,ZBYN 060100Z AUTO 01004KT 6SM M06/M23 A3047 RMK T10601230 IEM_DS3505
ZBYN,2004-03-06 02:00,ZBYN 060200Z AUTO 35004KT 6SM M04/M24 A3050 RMK T10401240 IEM_DS3505
ZBYN,2004-03-06 03:00,ZBYN 060300Z AUTO 20006KT 9SM M02/M19 A3050 RMK SLP390 T10241192 52008 IEM_DS3505
ZBYN,2004-03-06 04:00,ZBYN 060400Z AUTO 6SM M01/M23 A3047 RMK T10101230 IEM_DS3505
ZBYN,2004-03-06 05:00,ZBYN 060500Z AUTO 17004KT 6SM 00/M23 A3045 RMK T00001230 IEM_DS3505
ZBYN,2004-03-06 06:00,ZBYN 060600Z AUTO 16004KT 9SM 02/M20 A3042 RMK SLP354 T00221195 57028 IEM_DS3505
ZBYN,2004-03-06 07:00,ZBYN 060700Z AUTO 6SM 02/M25 A3039 RMK T00201250 IEM_DS3505
ZBYN,2004-03-06 08:00,ZBYN 060800Z AUTO 22006KT 6SM 03/M24 A3039 RMK T00301240 IEM_DS3505
ZBYN,2004-03-06 09:00,ZBYN 060900Z AUTO 32008KT 9SM 04/M25 A3036 RMK SLP340 T00401247 57012 IEM_DS3505
ZBYN,2004-03-06 10:00,ZBYN 061000Z AUTO 30008KT 6SM 02/M28 A3039 RMK T00201280 IEM_DS3505
ZBYN,2004-03-06 11:00,ZBYN 061100Z AUTO 30006KT 6SM M01/M28 A3039 RMK T10101280 IEM_DS3505
ZBYN,2004-03-06 12:00,ZBYN 061200Z AUTO 32006KT 12SM 00/M21 A3042 RMK SLP368 T00041210 52020 IEM_DS3505
ZBYN,2004-03-06 13:00,ZBYN 061300Z AUTO 34008KT 6SM M02/M24 A3045 RMK T10201240 IEM_DS3505
ZBYN,2004-03-06 14:00,ZBYN 061400Z AUTO 34006KT 6SM M04/M23 A3045 RMK T10401230 IEM_DS3505
ZBYN,2004-03-06 15:00,ZBYN 061500Z AUTO 34004KT 9SM M02/M22 A3047 RMK SLP380 T10181222 52014 IEM_DS3505
ZBYN,2004-03-06 16:00,ZBYN 061600Z AUTO 00000KT 6SM M08/M22 A3047 RMK T10801220 IEM_DS3505
ZBYN,2004-03-06 17:00,ZBYN 061700Z AUTO 13004KT 6SM M09/M19 A3047 RMK T10901190 IEM_DS3505
ZBYN,2004-03-06 18:00,ZBYN 061800Z AUTO 16004KT 9SM M06/M18 A3047 RMK SLP378 T10551178 54000 IEM_DS3505
ZBYN,2004-03-06 19:00,ZBYN 061900Z AUTO 09002KT 6SM M08/M19 A3047 RMK T10801190 IEM_DS3505
ZBYN,2004-03-06 20:00,ZBYN 062000Z AUTO 10002KT 6SM M10/M19 A3045 RMK T11001190 IEM_DS3505
ZBYN,2004-03-06 21:00,ZBYN 062100Z AUTO 09002KT 9SM M08/M17 A3045 RMK SLP374 T10811169 57005 IEM_DS3505
ZBYN,2004-03-06 22:00,ZBYN 062200Z AUTO 11004KT 6SM M11/M19 A3047 RMK T11101190 IEM_DS3505
ZBYN,2004-03-06 23:00,ZBYN 062300Z AUTO 00000KT 6SM M11/M18 A3050 RMK T11101180 IEM_DS3505
ZBYN,2004-03-07 00:00,ZBYN 070000Z AUTO 20002KT 6SM M07/M14 A3053 RMK SLP402 T10681141 52021 IEM_DS3505
ZBYN,2004-03-07 01:00,ZBYN 070100Z AUTO 16002KT 5SM M04/M17 A3053 RMK T10401170 IEM_DS3505
ZBYN,2004-03-07 02:00,ZBYN 070200Z AUTO 6SM M01/M20 A3053 RMK T10101200 IEM_DS3505
ZBYN,2004-03-07 03:00,ZBYN 070300Z AUTO 14004KT 6SM 02/M18 A3050 RMK SLP383 T00241182 57005 IEM_DS3505
ZBYN,2004-03-07 04:00,ZBYN 070400Z AUTO 20004KT 6SM 03/M24 A3047 RMK T00301240 IEM_DS3505
ZBYN,2004-03-07 05:00,ZBYN 070500Z AUTO 20004KT 6SM 04/M24 A3045 RMK T00401240 IEM_DS3505
ZBYN,2004-03-07 06:00,ZBYN 070600Z AUTO 18006KT 7SM 06/M20 A3039 RMK SLP343 T00641199 57036 IEM_DS3505
ZBYN,2004-03-07 07:00,ZBYN 070700Z AUTO 21006KT 6SM 07/M24 A3039 RMK T00701240 IEM_DS3505
ZBYN,2004-03-07 08:00,ZBYN 070800Z AUTO 20004KT 6SM 08/M25 A3036 RMK T00801250 IEM_DS3505
ZBYN,2004-03-07 09:00,ZBYN 070900Z AUTO 18006KT 11SM 08/M20 A3033 RMK SLP319 T00781197 57024 IEM_DS3505
ZBYN,2004-03-07 10:00,ZBYN 071000Z AUTO 21002KT 6SM 06/M23 A3033 RMK T00601230 IEM_DS3505
ZBYN,2004-03-07 11:00,ZBYN 071100Z AUTO 11002KT 6SM 02/M21 A3033 RMK T00201210 IEM_DS3505
ZBYN,2004-03-07 12:00,ZBYN 071200Z AUTO 09002KT 6SM 03/M15 A3033 RMK SLP324 T00271148 57002 IEM_DS3505
ZBYN,2004-03-07 13:00,ZBYN 071300Z AUTO 12004KT 6SM M01/M17 A3033 RMK T10101170 IEM_DS3505
ZBYN,2004-03-07 14:00,ZBYN 071400Z AUTO 12002KT 6SM M02/M16 A3033 RMK T10201160 IEM_DS3505
ZBYN,2004-03-07 15:00,ZBYN 071500Z AUTO 16002KT 6SM 01/M14 A3033 RMK SLP312 T00061137 52001 IEM_DS3505
ZBYN,2004-03-07 16:00,ZBYN 071600Z AUTO 12002KT 6SM M01/M15 A3030 RMK T10101150 IEM_DS3505
ZBYN,2004-03-07 17:00,ZBYN 071700Z AUTO 12004KT 6SM M01/M14 A3030 RMK T10101140 IEM_DS3505
ZBYN,2004-03-07 18:00,ZBYN 071800Z AUTO 00000KT 6SM M01/M12 A3027 RMK SLP293 T10111115 57013 IEM_DS3505
ZBYN,2004-03-07 19:00,ZBYN 071900Z AUTO 11004KT 6SM M04/M14 A3024 RMK T10401140 IEM_DS3505
ZBYN,2004-03-07 20:00,ZBYN 072000Z AUTO 11004KT 6SM M04/M14 A3021 RMK T10401140 IEM_DS3505
ZBYN,2004-03-07 21:00,ZBYN 072100Z AUTO 16002KT 6SM M01/M11 A3018 RMK SLP260 T10111109 57028 IEM_DS3505
ZBYN,2004-03-07 22:00,ZBYN 072200Z AUTO 09002KT 6SM M03/M13 A3018 RMK T10301130 IEM_DS3505
ZBYN,2004-03-07 23:00,ZBYN 072300Z AUTO 12004KT 6SM M05/M13 A3015 RMK T10501130 IEM_DS3505
ZBYN,2004-03-08 00:00,ZBYN 080000Z AUTO 11002KT 6SM M01/M09 A3015 RMK SLP259 T10141092 57010 IEM_DS3505
ZBYN,2004-03-08 01:00,ZBYN 080100Z AUTO 14004KT 3SM 02/M11 A3015 RMK T00201110 IEM_DS3505
ZBYN,2004-03-08 02:00,ZBYN 080200Z AUTO 20004KT 05/M12 A3012 RMK T00501120 IEM_DS3505
ZBYN,2004-03-08 03:00,ZBYN 080300Z AUTO 16004KT 4SM 08/M09 A3009 RMK SLP220 T00851089 57023 IEM_DS3505
ZBYN,2004-03-08 04:00,ZBYN 080400Z AUTO 24010KT 11/M10 A3006 RMK T01101100 IEM_DS3505
ZBYN,2004-03-08 05:00,ZBYN 080500Z AUTO 23012KT 5SM 13/M10 A3000 RMK T01301100 IEM_DS3505
ZBYN,2004-03-08 06:00,ZBYN 080600Z AUTO 27014KT 7SM 17/M09 A2994 RMK SLP159 T01741094 57044 IEM_DS3505
ZBYN,2004-03-08 07:00,ZBYN 080700Z AUTO 29008KT 6SM 17/M14 A2991 RMK T01701140 IEM_DS3505
ZBYN,2004-03-08 08:00,ZBYN 080800Z AUTO 30010KT 6SM 17/M15 A2991 RMK T01701150 IEM_DS3505
ZBYN,2004-03-08 09:00,ZBYN 080900Z AUTO 32010KT 7SM 17/M10 RMK SLP146 T01701097 57012 IEM_DS3505
ZBYN,2004-03-08 10:00,ZBYN 081000Z AUTO 26004KT 6SM 14/M13 A2991 RMK T01401130 IEM_DS3505
ZBYN,2004-03-08 11:00,ZBYN 081100Z AUTO 6SM 09/M11 A2988 RMK T00901110 IEM_DS3505
ZBYN,2004-03-08 12:00,ZBYN 081200Z AUTO 22008KT 6SM 12/M06 A2988 RMK SLP150 T01221062 57005 IEM_DS3505
ZBYN,2004-03-08 13:00,ZBYN 081300Z AUTO 24006KT 6SM 09/M07 A2988 RMK T00901070 IEM_DS3505
ZBYN,2004-03-08 14:00,ZBYN 081400Z AUTO 13004KT 04/M07 A2988 RMK T00401070 IEM_DS3505
ZBYN,2004-03-08 15:00,ZBYN 081500Z AUTO 11006KT 6SM 07/M04 A2988 RMK SLP132 T00731044 57008 IEM_DS3505
ZBYN,2004-03-08 16:00,ZBYN 081600Z AUTO 11004KT 02/M07 A2985 RMK T00201070 IEM_DS3505
ZBYN,2004-03-08 17:00,ZBYN 081700Z AUTO 07008KT 6SM 05/M06 A2983 RMK T00501060 IEM_DS3505
ZBYN,2004-03-08 18:00,ZBYN 081800Z AUTO 16004KT 6SM 04/M05 A2983 RMK SLP105 T00371047 57017 IEM_DS3505
ZBYN,2004-03-08 19:00,ZBYN 081900Z AUTO 10004KT 6SM 02/M06 A2980 RMK T00201060 IEM_DS3505
ZBYN,2004-03-08 20:00,ZBYN 082000Z AUTO 12004KT 6SM 00/M06 A2977 RMK T00001060 IEM_DS3505
ZBYN,2004-03-08 21:00,ZBYN 082100Z AUTO 29002KT 6SM 01/M04 A2974 RMK SLP085 T00101035 57023 IEM_DS3505
ZBYN,2004-03-08 22:00,ZBYN 082200Z AUTO 12002KT 6SM 00/M06 A2971 RMK T00001060 IEM_DS3505
ZBYN,2004-03-08 23:00,ZBYN 082300Z AUTO 00000KT 5SM M01/M06 A2974 RMK T10101060 IEM_DS3505
ZBYN,2004-03-09 00:00,ZBYN 090000Z AUTO 34002KT 3SM 01/M03 A2974 RMK SLP091 T00081028 57002 IEM_DS3505
ZBYN,2004-03-09 01:00,ZBYN 090100Z AUTO 12002KT 2SM 06/M04 A2971 RMK T00601040 IEM_DS3505
ZBYN,2004-03-09 02:00,ZBYN 090200Z AUTO 20002KT 2SM 09/M04 A2968 RMK T00901040 IEM_DS3505
ZBYN,2004-03-09 03:00,ZBYN 090300Z AUTO 18006KT 3SM 12/M03 A2965 RMK SLP055 T01231031 57023 IEM_DS3505
ZBYN,2004-03-09 04:00,ZBYN 090400Z AUTO 20006KT 16/M06 A2962 RMK T01601060 IEM_DS3505
ZBYN,2004-03-09 05:00,ZBYN 090500Z AUTO 23008KT 18/M06 A2956 RMK T01801060 IEM_DS3505
ZBYN,2004-03-09 06:00,ZBYN 090600Z AUTO 18012KT 3SM 21/M02 A2950 RMK SLP992 T02101015 57049 IEM_DS3505
ZBYN,2004-03-09 07:00,ZBYN 090700Z AUTO 24012KT 6SM 22/M07 A2947 RMK T02201070 IEM_DS3505
ZBYN,2004-03-09 08:00,ZBYN 090800Z AUTO 24008KT 6SM 23/M08 A2947 RMK T02301080 IEM_DS3505
ZBYN,2004-03-09 09:00,ZBYN 090900Z AUTO 20010KT 4SM 23/M02 A2947 RMK SLP977 T02341022 57015 IEM_DS3505
ZBYN,2004-03-09 10:00,ZBYN 091000Z AUTO 25008KT 6SM 21/M06 A2947 RMK T02101060 IEM_DS3505
ZBYN,2004-03-09 11:00,ZBYN 091100Z AUTO 31017KT 6SM 20/M13 A2953 RMK T02001130 IEM_DS3505
ZBYN,2004-03-09 12:00,ZBYN 091200Z AUTO 36006KT 6SM 21/M08 A2959 RMK SLP027 T02091084 52042 IEM_DS3505
ZBYN,2004-03-09 13:00,ZBYN 091300Z AUTO 32012KT 6SM 19/M10 A2962 RMK T01901100 IEM_DS3505
ZBYN,2004-03-09 14:00,ZBYN 091400Z AUTO 33019KT 6SM 19/M07 A2962 RMK T01901070 IEM_DS3505
ZBYN,2004-03-09 15:00,ZBYN 091500Z AUTO 29012KT 6SM 18/M01 A2968 RMK SLP048 T01801012 52032 IEM_DS3505
ZBYN,2004-03-09 16:00,ZBYN 091600Z AUTO 6SM 15/M04 A2971 RMK T01501040 IEM_DS3505
ZBYN,2004-03-09 17:00,ZBYN 091700Z AUTO 33008KT 15/M05 A2974 RMK T01501050 IEM_DS3505
ZBYN,2004-03-09 18:00,ZBYN 091800Z AUTO 34006KT 6SM 15/M08 A2977 RMK SLP059 T01511076 52018 IEM_DS3505
ZBYN,2004-03-09 19:00,ZBYN 091900Z AUTO 31006KT 12/M13 A2974 RMK T01201130 IEM_DS3505
ZBYN,2004-03-09 20:00,ZBYN 092000Z AUTO 30012KT 2 1/2SM 12/M17 A2977 RMK T01201170 IEM_DS3505
ZBYN,2004-03-09 21:00,ZBYN 092100Z AUTO 32012KT 4SM 12/M16 A2980 RMK SLP071 T01201155 52010 IEM_DS3505
ZBYN,2004-03-09 22:00,ZBYN 092200Z AUTO 30012KT 10/M20 A2980 RMK T01001200 IEM_DS3505
ZBYN,2004-03-09 23:00,ZBYN 092300Z AUTO 29008KT 10/M21 A2985 RMK T01001210 IEM_DS3505
ZBYN,2004-03-10 00:00,ZBYN 100000Z AUTO 32008KT 2 1/2SM 10/M15 A2988 RMK SLP115 T01021152 52034 IEM_DS3505
ZBYN,2004-03-10 01:00,ZBYN 100100Z AUTO 31010KT 1 1/4SM 09/M20 A2991 RMK T00901200 IEM_DS3505
ZBYN,2004-03-10 02:00,ZBYN 100200Z AUTO 31010KT 1 1/4SM 10/M21 A2991 RMK T01001210 IEM_DS3505
ZBYN,2004-03-10 03:00,ZBYN 100300Z AUTO 32014KT 2 1/2SM 11/M17 A2994 RMK SLP135 T01081173 52015 IEM_DS3505
ZBYN,2004-03-10 04:00,ZBYN 100400Z AUTO 28012KT 3SM 11/M22 A2994 RMK T01101220 IEM_DS3505
ZBYN,2004-03-10 05:00,ZBYN 100500Z AUTO 28016KT 6SM 12/M23 A2994 RMK T01201230 IEM_DS3505
ZBYN,2004-03-10 06:00,ZBYN 100600Z AUTO 27016G25KT 6SM 14/M18 A2991 RMK SLP132 T01451179 57002 IEM_DS3505
ZBYN,2004-03-10 07:00,ZBYN 100700Z AUTO 29017KT 6SM 13/M24 A2994 RMK T01301240 IEM_DS3505
ZBYN,2004-03-10 08:00,ZBYN 100800Z AUTO 28016KT 6SM 12/M22 A2994 RMK T01201220 IEM_DS3505
ZBYN,2004-03-10 09:00,ZBYN 100900Z AUTO 29010KT 6SM 12/M15 A2994 RMK SLP149 T01241151 52008 IEM_DS3505
ZBYN,2004-03-10 10:00,ZBYN 101000Z AUTO 30014KT 6SM 11/M20 A2997 RMK T01101200 IEM_DS3505
ZBYN,2004-03-10 11:00,ZBYN 101100Z AUTO 31010KT 6SM 10/M20 A2997 RMK T01001200 IEM_DS3505
ZBYN,2004-03-10 12:00,ZBYN 101200Z AUTO 27004KT 6SM 10/M14 A3000 RMK SLP178 T00961142 52020 IEM_DS3505
ZBYN,2004-03-10 13:00,ZBYN 101300Z AUTO 29006KT 6SM 09/M20 A3003 RMK T00901200 IEM_DS3505
ZBYN,2004-03-10 14:00,ZBYN 101400Z AUTO 25004KT 6SM 08/M17 A3006 RMK T00801170 IEM_DS3505
ZBYN,2004-03-10 15:00,ZBYN 101500Z AUTO 29002KT 6SM 08/M14 A3006 RMK SLP197 T00771144 52015 IEM_DS3505
ZBYN,2004-03-10 16:00,ZBYN 101600Z AUTO 20002KT 6SM 07/M18 A3009 RMK T00701180 IEM_DS3505
ZBYN,2004-03-10 17:00,ZBYN 101700Z AUTO 27002KT 6SM 07/M18 A3009 RMK T00701180 IEM_DS3505
ZBYN,2004-03-10 18:00,ZBYN 101800Z AUTO 32002KT 6SM 06/M12 A3009 RMK SLP200 T00651120 52007 IEM_DS3505
ZBYN,2004-03-10 19:00,ZBYN 101900Z AUTO 00000KT 6SM 06/M18 A3006 RMK T00601180 IEM_DS3505
ZBYN,2004-03-10 20:00,ZBYN 102000Z AUTO 29006KT 6SM 06/M22 A3006 RMK T00601220 IEM_DS3505
ZBYN,2004-03-10 21:00,ZBYN 102100Z AUTO 32006KT 6SM 07/M18 A3009 RMK SLP207 T00721184 52004 IEM_DS3505
ZBYN,2004-03-10 22:00,ZBYN 102200Z AUTO 32008KT 6SM 06/M23 A3012 RMK T00601230 IEM_DS3505
ZBYN,2004-03-10 23:00,ZBYN 102300Z AUTO 31008KT 6SM 06/M22 A3012 RMK T00601220 IEM_DS3505
ZBYN,2004-03-11 00:00,ZBYN 110000Z AUTO 32004KT 9SM 07/M16 A3012 RMK SLP227 T00681158 52013 IEM_DS3505
ZBYN,2004-03-11 01:00,ZBYN 110100Z AUTO 30006KT 6SM 07/M21 A3015 RMK T00701210 IEM_DS3505
ZBYN,2004-03-11 02:00,ZBYN 110200Z AUTO 31010KT 6SM 08/M22 A3018 RMK T00801220 IEM_DS3505
ZBYN,2004-03-11 03:00,ZBYN 110300Z AUTO 32006KT 9SM 09/M16 A3015 RMK SLP235 T00861165 52007 IEM_DS3505
ZBYN,2004-03-11 04:00,ZBYN 110400Z AUTO 31010KT 6SM 09/M22 A3015 RMK T00901220 IEM_DS3505
ZBYN,2004-03-11 05:00,ZBYN 110500Z AUTO 29006KT 6SM 09/M23 A3012 RMK T00901230 IEM_DS3505
ZBYN,2004-03-11 06:00,ZBYN 110600Z AUTO 32010KT 12SM 12/M19 A3009 RMK SLP203 T01181187 57026 IEM_DS3505
ZBYN,2004-03-11 07:00,ZBYN 110700Z AUTO 24004KT 6SM 11/M20 A3006 RMK T01101200 IEM_DS3505
ZBYN,2004-03-11 08:00,ZBYN 110800Z AUTO 24008KT 6SM 10/M20 A3003 RMK T01001200 IEM_DS3505
ZBYN,2004-03-11 09:00,ZBYN 110900Z AUTO 29010KT 12SM 12/M18 RMK SLP190 T01151178 57011 IEM_DS3505
ZBYN,2004-03-11 10:00,ZBYN 111000Z AUTO 31010KT 6SM 09/M22 A3006 RMK T00901220 IEM_DS3505
ZBYN,2004-03-11 11:00,ZBYN 111100Z AUTO 26004KT 6SM 08/M20 A3006 RMK T00801200 IEM_DS3505
ZBYN,2004-03-11 12:00,ZBYN 111200Z AUTO 27004KT 12SM 08/M14 A3006 RMK SLP209 T00841144 52012 IEM_DS3505
ZBYN,2004-03-11 13:00,ZBYN 111300Z AUTO 25002KT 6SM 07/M21 A3009 RMK T00701210 IEM_DS3505
ZBYN,2004-03-11 14:00,ZBYN 111400Z AUTO 21002KT 6SM 06/M19 A3009 RMK T00601190 IEM_DS3505
ZBYN,2004-03-11 15:00,ZBYN 111500Z AUTO 25002KT 9SM 06/M12 A3012 RMK SLP221 T00571118 52009 IEM_DS3505
ZBYN,2004-03-11 16:00,ZBYN 111600Z AUTO 00000KT 6SM 03/M13 A3012 RMK T00301130 IEM_DS3505
ZBYN,2004-03-11 17:00,ZBYN 111700Z AUTO 21002KT 6SM 03/M12 A3012 RMK T00301120 IEM_DS3505
ZBYN,2004-03-11 18:00,ZBYN 111800Z AUTO 11002KT 6SM 02/M09 A3015 RMK SLP234 T00181088 52011 IEM_DS3505
ZBYN,2004-03-11 19:00,ZBYN 111900Z AUTO 09002KT 6SM M03/M10 A3015 RMK T10301100 IEM_DS3505
ZBYN,2004-03-11 20:00,ZBYN 112000Z AUTO 09002KT 6SM M04/M11 A3012 RMK T10401110 IEM_DS3505
ZBYN,2004-03-11 21:00,ZBYN 112100Z AUTO 09004KT 6SM M02/M08 A3012 RMK SLP228 T10221083 57012 IEM_DS3505
ZBYN,2004-03-11 22:00,ZBYN 112200Z AUTO 10004KT 6SM M04/M09 A3012 RMK T10401090 IEM_DS3505
ZBYN,2004-03-11 23:00,ZBYN 112300Z AUTO 09002KT 6SM M04/M09 A3009 RMK T10401090 IEM_DS3505
ZBYN,2004-03-12 00:00,ZBYN 120000Z AUTO 14002KT 6SM M01/M06 A3012 RMK SLP237 T10091057 52005 IEM_DS3505
ZBYN,2004-03-12 01:00,ZBYN 120100Z AUTO 13004KT 03/M06 A3012 RMK T00301060 IEM_DS3505
ZBYN,2004-03-12 02:00,ZBYN 120200Z AUTO 16004KT 04/M08 A3009 RMK T00401080 IEM_DS3505
ZBYN,2004-03-12 03:00,ZBYN 120300Z AUTO 18010KT 4SM 09/M05 A3009 RMK SLP209 T00881050 57014 IEM_DS3505
ZBYN,2004-03-12 04:00,ZBYN 120400Z AUTO 20008KT 6SM 10/M07 A3006 RMK T01001070 IEM_DS3505
ZBYN,2004-03-12 05:00,ZBYN 120500Z AUTO 22010KT 6SM 12/M08 A3000 RMK T01201080 IEM_DS3505
ZBYN,2004-03-12 06:00,ZBYN 120600Z AUTO 18014KT 6SM 15/M07 A2994 RMK SLP160 T01471067 57042 IEM_DS3505
ZBYN,2004-03-12 07:00,ZBYN 120700Z AUTO 21010KT 6SM 15/M12 A2991 RMK T01501120 IEM_DS3505
ZBYN,2004-03-12 08:00,ZBYN 120800Z AUTO 21010KT 6SM 15/M11 A2988 RMK T01501110 IEM_DS3505
ZBYN,2004-03-12 09:00,ZBYN 120900Z AUTO 20008KT 9SM 15/M08 A2988 RMK SLP141 T01541080 57022 IEM_DS3505
ZBYN,2004-03-12 10:00,ZBYN 121000Z AUTO 25004KT 6SM 13/M12 A2988 RMK T01301120 IEM_DS3505
ZBYN,2004-03-12 11:00,ZBYN 121100Z AUTO 20004KT 6SM 11/M11 A2988 RMK T01101110 IEM_DS3505
ZBYN,2004-03-12 12:00,ZBYN 121200Z AUTO 22006KT 7SM 12/M09 A2991 RMK SLP156 T01191091 52010 IEM_DS3505
ZBYN,2004-03-12 13:00,ZBYN 121300Z AUTO 13002KT 6SM 06/M10 A2994 RMK T00601100 IEM_DS3505
ZBYN,2004-03-12 14:00,ZBYN 121400Z AUTO 25002KT 6SM 07/M09 A2997 RMK T00701090 IEM_DS3505
ZBYN,2004-03-12 15:00,ZBYN 121500Z AUTO 09004KT 7SM 06/M06 A2997 RMK SLP174 T00651064 52023 IEM_DS3505
ZBYN,2004-03-12 16:00,ZBYN 121600Z AUTO 6SM 02/M08 A3000 RMK T00201080 IEM_DS3505
ZBYN,2004-03-12 17:00,ZBYN 121700Z AUTO 08002KT 6SM 01/M08 A3000 RMK T00101080 IEM_DS3505
ZBYN,2004-03-12 18:00,ZBYN 121800Z AUTO 14006KT 7SM 04/M06 A3000 RMK SLP180 T00391061 52011 IEM_DS3505
ZBYN,2004-03-12 19:00,ZBYN 121900Z AUTO 10004KT 6SM 01/M08 A3003 RMK T00101080 IEM_DS3505
ZBYN,2004-03-12 20:00,ZBYN 122000Z AUTO 6SM 00/M08 A3003 RMK T00001080 IEM_DS3505
ZBYN,2004-03-12 21:00,ZBYN 122100Z AUTO 36002KT 6SM 05/M08 A3006 RMK SLP201 T00491082 52021 IEM_DS3505
ZBYN,2004-03-12 22:00,ZBYN 122200Z AUTO 33008KT 6SM 03/M11 A3009 RMK T00301110 IEM_DS3505
ZBYN,2004-03-12 23:00,ZBYN 122300Z AUTO 34008KT 6SM 03/M09 A3012 RMK T00301090 IEM_DS3505
ZBYN,2004-03-13 00:00,ZBYN 130000Z AUTO 36004KT 6SM 05/M07 A3015 RMK SLP237 T00541074 52029 IEM_DS3505
ZBYN,2004-03-13 01:00,ZBYN 130100Z AUTO 32008KT 6SM 06/M10 A3018 RMK T00601100 IEM_DS3505
ZBYN,2004-03-13 02:00,ZBYN 130200Z AUTO 31008KT 6SM 08/M12 A3018 RMK T00801120 IEM_DS3505
ZBYN,2004-03-13 03:00,ZBYN 130300Z AUTO 04004KT 9SM 11/M14 A3018 RMK SLP238 T01111137 52001 IEM_DS3505
ZBYN,2004-03-13 04:00,ZBYN 130400Z AUTO 04004KT 6SM 11/M19 A3015 RMK T01101190 IEM_DS3505
ZBYN,2004-03-13 05:00,ZBYN 130500Z AUTO 25004KT 6SM 12/M19 A3012 RMK T01201190 IEM_DS3505
ZBYN,2004-03-13 06:00,ZBYN 130600Z AUTO 18010KT 11SM 14/M12 A3009 RMK SLP206 T01381123 57029 IEM_DS3505
ZBYN,2004-03-13 07:00,ZBYN 130700Z AUTO 21006KT 6SM 14/M17 A3009 RMK T01401170 IEM_DS3505
ZBYN,2004-03-13 08:00,ZBYN 130800Z AUTO 20004KT 6SM 14/M16 A3006 RMK T01401160 IEM_DS3505
ZBYN,2004-03-13 09:00,ZBYN 130900Z AUTO 20008KT 9SM 15/M12 A3006 RMK SLP189 T01481115 57012 IEM_DS3505
ZBYN,2004-03-13 10:00,ZBYN 131000Z AUTO 22002KT 6SM 13/M16 A3006 RMK T01301160 IEM_DS3505
ZBYN,2004-03-13 11:00,ZBYN 131100Z AUTO 21002KT 6SM 11/M15 A3009 RMK T01101150 IEM_DS3505
ZBYN,2004-03-13 12:00,ZBYN 131200Z AUTO 11002KT 6SM 09/M08 A3009 RMK SLP208 T00901085 52009 IEM_DS3505
ZBYN,2004-03-13 13:00,ZBYN 131300Z AUTO 12004KT 6SM 03/M12 A3009 RMK T00301120 IEM_DS3505
ZBYN,2004-03-13 14:00,ZBYN 131400Z AUTO 11008KT 6SM 01/M13 A3012 RMK T00101130 IEM_DS3505
ZBYN,2004-03-13 15:00,ZBYN 131500Z AUTO 16004KT 6SM 04/M09 A3012 RMK SLP224 T00351088 52015 IEM_DS3505
ZBYN,2004-03-13 16:00,ZBYN 131600Z AUTO 10006KT 6SM 05/M08 A3012 RMK T00501080 IEM_DS3505
ZBYN,2004-03-13 17:00,ZBYN 131700Z AUTO 10006KT 6SM 04/M07 A3012 RMK T00401070 IEM_DS3505
ZBYN,2004-03-13 18:00,ZBYN 131800Z AUTO 20002KT 6SM 02/M05 A3012 RMK SLP222 T00201049 54000 IEM_DS3505
ZBYN,2004-03-13 19:00,ZBYN 131900Z AUTO 13004KT 6SM M01/M07 A3009 RMK T10101070 IEM_DS3505
ZBYN,2004-03-13 20:00,ZBYN 132000Z AUTO 13004KT 6SM M01/M07 A3009 RMK T10101070 IEM_DS3505
ZBYN,2004-03-13 21:00,ZBYN 132100Z AUTO 00000KT 6SM M00/M04 A3009 RMK SLP216 T10031045 57008 IEM_DS3505
ZBYN,2004-03-13 23:00,ZBYN 132300Z AUTO 14002KT 6SM M01/M08 A3009 RMK T10101080 IEM_DS3505
ZBYN,2004-03-14 00:00,ZBYN 140000Z AUTO 11002KT 6SM 00/M04 A3009 RMK SLP227 T00051036 52002 IEM_DS3505
ZBYN,2004-03-14 01:00,ZBYN 140100Z AUTO 11002KT 3SM 04/M07 A3009 RMK T00401070 IEM_DS3505
ZBYN,2004-03-14 02:00,ZBYN 140200Z AUTO 14002KT 07/M07 A3009 RMK T00701070 IEM_DS3505
ZBYN,2004-03-14 03:00,ZBYN 140300Z AUTO 14004KT 4SM 10/M06 A3006 RMK SLP210 T01031064 57008 IEM_DS3505
ZBYN,2004-03-14 04:00,ZBYN 140400Z AUTO 18002KT 13/M08 A3003 RMK T01301080 IEM_DS3505
ZBYN,2004-03-14 05:00,ZBYN 140500Z AUTO 20004KT 5SM 15/M09 A3000 RMK T01501090 IEM_DS3505
ZBYN,2004-03-14 06:00,ZBYN 140600Z AUTO 16012KT 6SM 17/M05 A2997 RMK SLP159 T01711053 57039 IEM_DS3505
ZBYN,2004-03-14 07:00,ZBYN 140700Z AUTO 18004KT 5SM 18/M09 A2991 RMK T01801090 IEM_DS3505
ZBYN,2004-03-14 08:00,ZBYN 140800Z AUTO 20004KT 6SM 19/M10 A2991 RMK T01901100 IEM_DS3505
ZBYN,2004-03-14 09:00,ZBYN 140900Z AUTO 16002KT 6SM 19/M04 A2988 RMK SLP131 T01881039 57026 IEM_DS3505
ZBYN,2004-03-14 10:00,ZBYN 141000Z AUTO 11004KT 5SM 15/M07 A2988 RMK T01501070 IEM_DS3505
ZBYN,2004-03-14 11:00,ZBYN 141100Z AUTO 11004KT 5SM 11/M08 A2988 RMK T01101080 IEM_DS3505
ZBYN,2004-03-14 12:00,ZBYN 141200Z AUTO 14004KT 6SM 12/M05 A2988 RMK SLP138 T01181047 57003 IEM_DS3505
ZBYN,2004-03-14 13:00,ZBYN 141300Z AUTO 12004KT 5SM 08/M07 A2988 RMK T00801070 IEM_DS3505
ZBYN,2004-03-14 14:00,ZBYN 141400Z AUTO 12004KT 6SM 08/M06 A2988 RMK T00801060 IEM_DS3505
ZBYN,2004-03-14 15:00,ZBYN 141500Z AUTO 11008KT 6SM 11/M03 A2988 RMK SLP122 T01101031 57001 IEM_DS3505
ZBYN,2004-03-14 16:00,ZBYN 141600Z AUTO 10008KT 6SM 08/M05 A2985 RMK T00801050 IEM_DS3505
ZBYN,2004-03-14 17:00,ZBYN 141700Z AUTO 11006KT 6SM 07/M04 A2983 RMK T00701040 IEM_DS3505
ZBYN,2004-03-14 18:00,ZBYN 141800Z AUTO 16006KT 6SM 08/M02 A2980 RMK SLP098 T00821016 57016 IEM_DS3505
ZBYN,2004-03-14 19:00,ZBYN 141900Z AUTO 12004KT 6SM 06/M02 A2980 RMK T00601020 IEM_DS3505
ZBYN,2004-03-14 20:00,ZBYN 142000Z AUTO 10008KT 6SM 06/M02 A2977 RMK T00601020 IEM_DS3505
ZBYN,2004-03-14 21:00,ZBYN 142100Z AUTO 18002KT 6SM 07/00 A2977 RMK SLP081 T00670000 57015 IEM_DS3505
ZBYN,2004-03-14 22:00,ZBYN 142200Z AUTO 12006KT 6SM 04/M02 A2977 RMK T00401020 IEM_DS3505
ZBYN,2004-03-14 23:00,ZBYN 142300Z AUTO 00000KT 6SM 06/M01 A2977 RMK T00601010 IEM_DS3505
ZBYN,2004-03-15 00:00,ZBYN 150000Z AUTO 32004KT 6SM 07/01 A2977 RMK SLP096 T00720013 52004 IEM_DS3505
ZBYN,2004-03-15 01:00,ZBYN 150100Z AUTO 33004KT 1 1/2SM 10/M01 A2977 RMK T01001010 IEM_DS3505
ZBYN,2004-03-15 02:00,ZBYN 150200Z AUTO 15004KT 2 1/2SM 12/00 A2977 RMK T01200000 IEM_DS3505
ZBYN,2004-03-15 03:00,ZBYN 150300Z AUTO 14004KT 5SM 16/02 A2977 RMK SLP082 T01560024 57002 IEM_DS3505
ZBYN,2004-03-15 04:00,ZBYN 150400Z AUTO 16/03 A2974 RMK T01600030 IEM_DS3505
ZBYN,2004-03-15 05:00,ZBYN 150500Z AUTO 23004KT 19/03 A2971 RMK T01900030 IEM_DS3505
ZBYN,2004-03-15 06:00,ZBYN 150600Z AUTO 18004KT 4SM 22/03 A2968 RMK SLP045 T02200032 57028 IEM_DS3505
ZBYN,2004-03-15 07:00,ZBYN 150700Z AUTO 23004KT 22/00 A2965 RMK T02200000 IEM_DS3505
ZBYN,2004-03-15 08:00,ZBYN 150800Z AUTO 30014KT 23/M11 A2968 RMK T02301110 IEM_DS3505
ZBYN,2004-03-15 09:00,ZBYN 150900Z AUTO 29010KT 9SM 22/M07 A2971 RMK SLP060 T02191067 52011 IEM_DS3505
ZBYN,2004-03-15 10:00,ZBYN 151000Z AUTO 30012KT 6SM 20/M11 A2974 RMK T02001110 IEM_DS3505
ZBYN,2004-03-15 11:00,ZBYN 151100Z AUTO 30010KT 6SM 17/M11 A2977 RMK T01701110 IEM_DS3505
ZBYN,2004-03-15 12:00,ZBYN 151200Z AUTO 29010KT 9SM 17/M08 A2980 RMK SLP094 T01701081 52025 IEM_DS3505
ZBYN,2004-03-15 13:00,ZBYN 151300Z AUTO 29008KT 6SM 15/M13 A2980 RMK T01501130 IEM_DS3505
ZBYN,2004-03-15 14:00,ZBYN 151400Z AUTO 29008KT 6SM 14/M12 A2985 RMK T01401120 IEM_DS3505
ZBYN,2004-03-15 15:00,ZBYN 151500Z AUTO 29004KT 9SM 13/M05 A2988 RMK SLP116 T01331048 52027 IEM_DS3505
ZBYN,2004-03-15 16:00,ZBYN 151600Z AUTO 20002KT 6SM 13/M11 A2985 RMK T01301110 IEM_DS3505
ZBYN,2004-03-15 17:00,ZBYN 151700Z AUTO 21002KT 6SM 12/M11 A2985 RMK T01201110 IEM_DS3505
ZBYN,2004-03-15 18:00,ZBYN 151800Z AUTO 32002KT 9SM 10/M04 A2983 RMK SLP090 T01011039 57019 IEM_DS3505
ZBYN,2004-03-15 19:00,ZBYN 151900Z AUTO 19002KT 6SM 07/M08 A2980 RMK T00701080 IEM_DS3505
ZBYN,2004-03-15 20:00,ZBYN 152000Z AUTO 6SM 06/M08 A2977 RMK T00601080 IEM_DS3505
ZBYN,2004-03-15 21:00,ZBYN 152100Z AUTO 25002KT 9SM 07/M04 A2977 RMK SLP075 T00691045 57019 IEM_DS3505
ZBYN,2004-03-15 23:00,ZBYN 152300Z AUTO 10006KT 5SM 05/M09 A2974 RMK T00501090 IEM_DS3505
ZBYN,2004-03-16 00:00,ZBYN 160000Z AUTO 16004KT 6SM 09/M05 A2974 RMK SLP075 T00931053 57003 IEM_DS3505
ZBYN,2004-03-16 01:00,ZBYN 160100Z AUTO 16008KT 10/M08 A2974 RMK T01001080 IEM_DS3505
ZBYN,2004-03-16 02:00,ZBYN 160200Z AUTO 11/M09 A2977 RMK T01101090 IEM_DS3505
ZBYN,2004-03-16 03:00,ZBYN 160300Z AUTO 18008KT 6SM 16/M04 A2974 RMK SLP067 T01561043 57004 IEM_DS3505
ZBYN,2004-03-16 04:00,ZBYN 160400Z AUTO 20004KT 6SM 18/M12 A2971 RMK T01801120 IEM_DS3505
ZBYN,2004-03-16 05:00,ZBYN 160500Z AUTO 23006KT 6SM 20/M11 A2971 RMK T02001110 IEM_DS3505
ZBYN,2004-03-16 06:00,ZBYN 160600Z AUTO 32014KT 6SM 22/M07 A2968 RMK SLP047 T02181068 57014 IEM_DS3505
ZBYN,2004-03-16 07:00,ZBYN 160700Z AUTO 31019KT 5SM 20/M12 A2971 RMK T02001120 IEM_DS3505
ZBYN,2004-03-16 08:00,ZBYN 160800Z AUTO 32025G35KT 5SM 17/M13 A2974 RMK T01701130 IEM_DS3505
ZBYN,2004-03-16 09:00,ZBYN 160900Z AUTO 34017KT 6SM 16/M08 A2980 RMK SLP107 T01611081 52042 IEM_DS3505
ZBYN,2004-03-16 10:00,ZBYN 161000Z AUTO 32017KT 6SM 14/M11 A2985 RMK T01401110 IEM_DS3505
ZBYN,2004-03-16 11:00,ZBYN 161100Z AUTO 34016KT 6SM 13/M10 A2994 RMK T01301100 IEM_DS3505
ZBYN,2004-03-16 12:00,ZBYN 161200Z AUTO 32006KT 11SM 11/M08 A3000 RMK SLP180 T01091083 52062 IEM_DS3505
ZBYN,2004-03-16 13:00,ZBYN 161300Z AUTO 30014KT 6SM 09/M16 A3006 RMK T00901160 IEM_DS3505
ZBYN,2004-03-16 14:00,ZBYN 161400Z AUTO 36012KT 6SM 06/M11 A3015 RMK T00601110 IEM_DS3505
ZBYN,2004-03-16 15:00,ZBYN 161500Z AUTO 36006KT 9SM 07/M10 A3018 RMK SLP237 T00681095 52055 IEM_DS3505
ZBYN,2004-03-16 16:00,ZBYN 161600Z AUTO 36010KT 6SM 04/M15 A3021 RMK T00401150 IEM_DS3505
ZBYN,2004-03-16 17:00,ZBYN 161700Z AUTO 36012KT 6SM 03/M17 A3027 RMK T00301170 IEM_DS3505
ZBYN,2004-03-16 18:00,ZBYN 161800Z AUTO 02008KT 9SM 03/M15 A3030 RMK SLP263 T00291151 52028 IEM_DS3505
ZBYN,2004-03-16 19:00,ZBYN 161900Z AUTO 01008KT 6SM 01/M19 A3030 RMK T00101190 IEM_DS3505
ZBYN,2004-03-16 20:00,ZBYN 162000Z AUTO 36006KT 6SM 01/M20 A3027 RMK T00101200 IEM_DS3505
ZBYN,2004-03-16 21:00,ZBYN 162100Z AUTO 36008KT 7SM 00/M17 A3033 RMK SLP290 T00051167 52012 IEM_DS3505
ZBYN,2004-03-16 22:00,ZBYN 162200Z AUTO 01004KT 6SM M01/M20 A3033 RMK T10101200 IEM_DS3505
ZBYN,2004-03-16 23:00,ZBYN 162300Z AUTO 36006KT 6SM M02/M21 A3033 RMK T10201210 IEM_DS3505
ZBYN,2004-03-17 00:00,ZBYN 170000Z AUTO 02006KT 11SM M01/M18 A3036 RMK SLP312 T10091179 52009 IEM_DS3505
ZBYN,2004-03-17 01:00,ZBYN 170100Z AUTO 34006KT 6SM 00/M21 A3036 RMK T00001210 IEM_DS3505
ZBYN,2004-03-17 02:00,ZBYN 170200Z AUTO 34010KT 6SM 00/M22 A3036 RMK T00001220 IEM_DS3505
ZBYN,2004-03-17 03:00,ZBYN 170300Z AUTO 02006KT 12SM 02/M18 A3033 RMK SLP311 T00181175 57003 IEM_DS3505
ZBYN,2004-03-17 04:00,ZBYN 170400Z AUTO 35008KT 6SM 02/M22 A3033 RMK T00201220 IEM_DS3505
ZBYN,2004-03-17 05:00,ZBYN 170500Z AUTO 33006KT 6SM 04/M23 A3030 RMK T00401230 IEM_DS3505
ZBYN,2004-03-17 06:00,ZBYN 170600Z AUTO 29006KT 12SM 05/M16 A3024 RMK SLP278 T00541157 57030 IEM_DS3505
ZBYN,2004-03-17 07:00,ZBYN 170700Z AUTO 6SM 06/M23 A3021 RMK T00601230 IEM_DS3505
ZBYN,2004-03-17 08:00,ZBYN 170800Z AUTO 33004KT 6SM 06/M24 A3018 RMK T00601240 IEM_DS3505
ZBYN,2004-03-17 09:00,ZBYN 170900Z AUTO 32006KT 12SM 08/M18 A3018 RMK SLP257 T00811177 57019 IEM_DS3505
ZBYN,2004-03-17 10:00,ZBYN 171000Z AUTO 27002KT 6SM 06/M22 A3018 RMK T00601220 IEM_DS3505
ZBYN,2004-03-17 11:00,ZBYN 171100Z AUTO 30004KT 6SM 04/M20 A3018 RMK T00401200 IEM_DS3505
ZBYN,2004-03-17 12:00,ZBYN 171200Z AUTO 34008KT 7SM 05/M17 A3018 RMK SLP270 T00491167 52005 IEM_DS3505
ZBYN,2004-03-17 13:00,ZBYN 171300Z AUTO 07010KT 6SM 03/M18 A3021 RMK T00301180 IEM_DS3505
ZBYN,2004-03-17 14:00,ZBYN 171400Z AUTO 07012KT 6SM 02/M17 A3024 RMK T00201170 IEM_DS3505
ZBYN,2004-03-17 15:00,ZBYN 171500Z AUTO 22002KT 7SM 04/M16 A3024 RMK SLP285 T00411156 52016 IEM_DS3505
ZBYN,2004-03-17 16:00,ZBYN 171600Z AUTO 06006KT 6SM 02/M16 A3027 RMK T00201160 IEM_DS3505
ZBYN,2004-03-17 17:00,ZBYN 171700Z AUTO 08006KT 6SM 01/M16 A3024 RMK T00101160 IEM_DS3505
ZBYN,2004-03-17 18:00,ZBYN 171800Z AUTO 29002KT 6SM 01/M12 A3024 RMK SLP279 T00131117 57004 IEM_DS3505
ZBYN,2004-03-17 19:00,ZBYN 171900Z AUTO 10004KT 6SM 00/M16 A3024 RMK T00001160 IEM_DS3505
ZBYN,2004-03-17 20:00,ZBYN 172000Z AUTO 10006KT 6SM 00/M15 A3021 RMK T00001150 IEM_DS3505
ZBYN,2004-03-17 21:00,ZBYN 172100Z AUTO 16002KT 6SM 00/M11 A3024 RMK SLP274 T00021111 57002 IEM_DS3505
ZBYN,2004-03-17 22:00,ZBYN 172200Z AUTO 07006KT 6SM 00/M16 A3024 RMK T00001160 IEM_DS3505
ZBYN,2004-03-17 23:00,ZBYN 172300Z AUTO 07008KT 6SM 00/M16 A3027 RMK T00001160 IEM_DS3505
ZBYN,2004-03-18 00:00,ZBYN 180000Z AUTO 32006KT 5SM 01/M11 A3027 RMK SLP294 T00111106 52015 IEM_DS3505
ZBYN,2004-03-18 01:00,ZBYN 180100Z AUTO 07008KT 6SM 02/M16 A3027 RMK T00201160 IEM_DS3505
ZBYN,2004-03-18 02:00,ZBYN 180200Z AUTO 07008KT 6SM 03/M15 A3027 RMK T00301150 IEM_DS3505
ZBYN,2004-03-18 03:00,ZBYN 180300Z AUTO 34004KT 5SM 05/M12 A3024 RMK SLP279 T00541116 57008 IEM_DS3505
ZBYN,2004-03-18 04:00,ZBYN 180400Z AUTO 6SM 06/M13 A3024 RMK T00601130 IEM_DS3505
ZBYN,2004-03-18 05:00,ZBYN 180500Z AUTO 6SM 08/M12 A3021 RMK T00801120 IEM_DS3505
ZBYN,2004-03-18 06:00,ZBYN 180600Z AUTO 11004KT 6SM 09/M09 A3018 RMK SLP245 T00941086 57029 IEM_DS3505
ZBYN,2004-03-18 07:00,ZBYN 180700Z AUTO 6SM 09/M10 A3012 RMK T00901100 IEM_DS3505
ZBYN,2004-03-18 09:00,ZBYN 180900Z AUTO 16004KT 6SM 10/M05 A3009 RMK SLP216 T01051050 57027 IEM_DS3505
ZBYN,2004-03-18 10:00,ZBYN 181000Z AUTO 31002KT 6SM 09/M07 A3009 RMK T00901070 IEM_DS3505
ZBYN,2004-03-18 11:00,ZBYN 181100Z AUTO 31002KT 6SM 06/M07 A3009 RMK T00601070 IEM_DS3505
ZBYN,2004-03-18 12:00,ZBYN 181200Z AUTO 11008KT 6SM 07/M06 A3009 RMK SLP226 T00681065 52005 IEM_DS3505
ZBYN,2004-03-18 13:00,ZBYN 181300Z AUTO 07012KT 6SM 05/M13 A3012 RMK T00501130 IEM_DS3505
ZBYN,2004-03-18 14:00,ZBYN 181400Z AUTO 09010KT 6SM 04/M13 A3012 RMK T00401130 IEM_DS3505
ZBYN,2004-03-18 15:00,ZBYN 181500Z AUTO 22004KT 6SM 05/M08 A3012 RMK SLP235 T00481079 52012 IEM_DS3505
ZBYN,2004-03-18 16:00,ZBYN 181600Z AUTO 10006KT 6SM 04/M11 A3015 RMK T00401110 IEM_DS3505
ZBYN,2004-03-18 17:00,ZBYN 181700Z AUTO 10006KT 6SM 03/M12 A3015 RMK T00301120 IEM_DS3505
ZBYN,2004-03-18 18:00,ZBYN 181800Z AUTO 20002KT 6SM 04/M08 A3015 RMK SLP230 T00371077 54000 IEM_DS3505
ZBYN,2004-03-18 19:00,ZBYN 181900Z AUTO 12004KT 6SM 01/M11 A3012 RMK T00101110 IEM_DS3505
ZBYN,2004-03-18 20:00,ZBYN 182000Z AUTO 11004KT 6SM 01/M11 A3009 RMK T00101110 IEM_DS3505
ZBYN,2004-03-18 21:00,ZBYN 182100Z AUTO 11004KT 6SM 03/M06 A3009 RMK SLP218 T00271061 57011 IEM_DS3505
ZBYN,2004-03-18 22:00,ZBYN 182200Z AUTO 14002KT 6SM 01/M06 A3009 RMK T00101060 IEM_DS3505
ZBYN,2004-03-18 23:00,ZBYN 182300Z AUTO 15002KT 6SM 02/M05 A3009 RMK T00201050 IEM_DS3505
ZBYN,2004-03-19 00:00,ZBYN 190000Z AUTO 16002KT 5SM 03/M03 A3012 RMK SLP237 T00291028 52012 IEM_DS3505
ZBYN,2004-03-19 01:00,ZBYN 190100Z AUTO 16002KT 03/M05 A3015 RMK T00301050 IEM_DS3505
ZBYN,2004-03-19 02:00,ZBYN 190200Z AUTO 3SM 04/M05 A3015 RMK T00401050 IEM_DS3505
ZBYN,2004-03-19 03:00,ZBYN 190300Z AUTO 07004KT 4SM 08/M03 A3012 RMK SLP233 T00791030 52001 IEM_DS3505
ZBYN,2004-03-19 04:00,ZBYN 190400Z AUTO 3SM 08/M06 A3009 RMK T00801060 IEM_DS3505
ZBYN,2004-03-19 05:00,ZBYN 190500Z AUTO 28004KT 2 1/2SM 10/M05 A3009 RMK T01001050 IEM_DS3505
ZBYN,2004-03-19 06:00,ZBYN 190600Z AUTO 27002KT 3SM 12/M06 A3003 RMK SLP198 T01151059 57028 IEM_DS3505
ZBYN,2004-03-19 07:00,ZBYN 190700Z AUTO 25004KT 3SM 10/M07 A3003 RMK T01001070 IEM_DS3505
ZBYN,2004-03-19 08:00,ZBYN 190800Z AUTO 25002KT 11/M08 A3003 RMK T01101080 IEM_DS3505
ZBYN,2004-03-19 09:00,ZBYN 190900Z AUTO 20004KT 4SM 12/M04 A3003 RMK SLP194 T01161037 57005 IEM_DS3505
ZBYN,2004-03-19 10:00,ZBYN 191000Z AUTO 25002KT 3SM 10/M04 A3003 RMK T01001040 IEM_DS3505
ZBYN,2004-03-19 11:00,ZBYN 191100Z AUTO 30004KT 07/M06 A3006 RMK T00701060 IEM_DS3505
ZBYN,2004-03-19 12:00,ZBYN 191200Z AUTO 32002KT 9SM 08/M11 A3009 RMK SLP224 T00771110 52021 IEM_DS3505
ZBYN,2004-03-19 13:00,ZBYN 191300Z AUTO 6SM 04/M12 A3012 RMK T00401120 IEM_DS3505
ZBYN,2004-03-19 14:00,ZBYN 191400Z AUTO 07002KT 6SM 02/M12 A3015 RMK T00201120 IEM_DS3505
ZBYN,2004-03-19 15:00,ZBYN 191500Z AUTO 18006KT 9SM 03/M08 A3015 RMK SLP239 T00301077 52014 IEM_DS3505
ZBYN,2004-03-19 16:00,ZBYN 191600Z AUTO 03002KT 6SM M02/M11 A3018 RMK T10201110 IEM_DS3505
ZBYN,2004-03-19 18:00,ZBYN 191800Z AUTO 09004KT 9SM M00/M08 A3018 RMK SLP250 T10011085 52011 IEM_DS3505
ZBYN,2004-03-19 19:00,ZBYN 191900Z AUTO 08002KT 2 1/2SM A3018 RMK IEM_DS3505
ZBYN,2004-03-19 20:00,ZBYN 192000Z AUTO 09002KT 2SM M03/M07 A3018 RMK T10301070 IEM_DS3505
ZBYN,2004-03-19 21:00,ZBYN 192100Z AUTO 00000KT 6SM M02/M04 A3021 RMK SLP259 T10181041 52006 IEM_DS3505
ZBYN,2004-03-19 22:00,ZBYN 192200Z AUTO 12002KT 2 1/2SM M04/M09 A3021 RMK T10401090 IEM_DS3505
ZBYN,2004-03-19 23:00,ZBYN 192300Z AUTO 00000KT 1 1/2SM A3021 RMK IEM_DS3505
ZBYN,2004-03-20 00:00,ZBYN 200000Z AUTO 34004KT 5SM 03/M09 A3021 RMK SLP268 T00261093 52009 IEM_DS3505
ZBYN,2004-03-20 01:00,ZBYN 200100Z AUTO 31002KT 1SM 03/M07 A3021 RMK T00301070 IEM_DS3505
ZBYN,2004-03-20 02:00,ZBYN 200200Z AUTO 34004KT 3SM 06/M14 A3024 RMK T00601140 IEM_DS3505
ZBYN,2004-03-20 03:00,ZBYN 200300Z AUTO 32004KT 6SM 08/M14 A3024 RMK SLP270 T00771144 52002 IEM_DS3505
ZBYN,2004-03-20 04:00,ZBYN 200400Z AUTO 06008KT 6SM 08/M15 A3021 RMK T00801150 IEM_DS3505
ZBYN,2004-03-20 05:00,ZBYN 200500Z AUTO 07008KT 6SM 09/M16 A3018 RMK T00901160 IEM_DS3505
ZBYN,2004-03-20 06:00,ZBYN 200600Z AUTO 25002KT 5SM 10/M15 A3018 RMK SLP247 T00991146 57022 IEM_DS3505
ZBYN,2004-03-20 07:00,ZBYN 200700Z AUTO 06006KT 6SM 09/M17 A3015 RMK T00901170 IEM_DS3505
ZBYN,2004-03-20 08:00,ZBYN 200800Z AUTO 07006KT 6SM 09/M17 A3012 RMK T00901170 IEM_DS3505
ZBYN,2004-03-20 09:00,ZBYN 200900Z AUTO 22004KT 4SM 09/M12 A3009 RMK SLP231 T00931124 57018 IEM_DS3505
ZBYN,2004-03-20 10:00,ZBYN 201000Z AUTO 11004KT 6SM 07/M12 A3012 RMK T00701120 IEM_DS3505
ZBYN,2004-03-20 11:00,ZBYN 201100Z AUTO 10004KT 5SM 06/M13 A3012 RMK T00601130 IEM_DS3505
ZBYN,2004-03-20 12:00,ZBYN 201200Z AUTO 18002KT 4SM 06/M08 A3015 RMK SLP244 T00631083 52014 IEM_DS3505
ZBYN,2004-03-20 13:00,ZBYN 201300Z AUTO 09004KT 6SM 05/M13 A3018 RMK T00501130 IEM_DS3505
ZBYN,2004-03-20 14:00,ZBYN 201400Z AUTO 12006KT 6SM 04/M12 A3021 RMK T00401120 IEM_DS3505
ZBYN,2004-03-20 15:00,ZBYN 201500Z AUTO 14004KT 5SM 04/M09 A3018 RMK SLP250 T00441086 52010 IEM_DS3505
ZBYN,2004-03-20 16:00,ZBYN 201600Z AUTO 07004KT 6SM 03/M10 A3015 RMK T00301100 IEM_DS3505
ZBYN,2004-03-20 17:00,ZBYN 201700Z AUTO 08004KT 5SM 03/M11 A3012 RMK T00301110 IEM_DS3505
ZBYN,2004-03-20 18:00,ZBYN 201800Z AUTO 18004KT 5SM 04/M06 A3015 RMK SLP235 T00411056 57010 IEM_DS3505
ZBYN,2004-03-20 19:00,ZBYN 201900Z AUTO 12004KT 5SM 02/M08 A3012 RMK T00201080 IEM_DS3505
ZBYN,2004-03-20 20:00,ZBYN 202000Z AUTO 14004KT 5SM 02/M08 A3012 RMK T00201080 IEM_DS3505
ZBYN,2004-03-20 21:00,ZBYN 202100Z AUTO 11004KT 5SM 04/M05 A3009 RMK SLP213 T00361048 57022 IEM_DS3505
ZBYN,2004-03-20 22:00,ZBYN 202200Z AUTO 12002KT 4SM 03/M06 A3009 RMK T00301060 IEM_DS3505
ZBYN,2004-03-20 23:00,ZBYN 202300Z AUTO 05002KT 2 1/2SM 03/M05 A3009 RMK T00301050 IEM_DS3505
ZBYN,2004-03-21 00:00,ZBYN 210000Z AUTO 14004KT 5SM 05/M03 A3009 RMK 60000 SLP220 T00461027 52003 IEM_DS3505
ZBYN,2004-03-21 01:00,ZBYN 210100Z AUTO 13004KT 2 1/2SM 03/M01 A3012 RMK T00301010 IEM_DS3505
ZBYN,2004-03-21 02:00,ZBYN 210200Z AUTO 12002KT 1SM 02/00 A3012 RMK T00200000 IEM_DS3505
ZBYN,2004-03-21 03:00,ZBYN 210300Z AUTO 14004KT 4SM 04/02 A3012 RMK SLP236 T00350019 52010 IEM_DS3505
ZBYN,2004-03-21 04:00,ZBYN 210400Z AUTO 1SM 04/01 A3012 RMK T00400010 IEM_DS3505
ZBYN,2004-03-21 05:00,ZBYN 210500Z AUTO 22004KT 1SM 04/01 A3009 RMK T00400010 IEM_DS3505
ZBYN,2004-03-21 06:00,ZBYN 210600Z AUTO 18006KT 3SM 06/03 A3003 RMK 60003 SLP202 T00620027 57027 IEM_DS3505
ZBYN,2004-03-21 07:00,ZBYN 210700Z AUTO 18004KT 1SM 05/01 A3003 RMK T00500010 IEM_DS3505
ZBYN,2004-03-21 08:00,ZBYN 210800Z AUTO 17004KT 1SM 06/01 A3000 RMK T00600010 IEM_DS3505
ZBYN,2004-03-21 09:00,ZBYN 210900Z AUTO 16006KT 3SM 07/02 A3000 RMK SLP197 T00660021 57005 IEM_DS3505
ZBYN,2004-03-21 10:00,ZBYN 211000Z AUTO 15004KT 1SM 05/00 A3003 RMK T00500000 IEM_DS3505
ZBYN,2004-03-21 11:00,ZBYN 211100Z AUTO 15002KT 1SM 04/01 A3006 RMK T00400010 IEM_DS3505
ZBYN,2004-03-21 12:00,ZBYN 211200Z AUTO 14004KT 2 1/2SM 04/02 A3006 RMK SLP213 T00430015 52013 IEM_DS3505
ZBYN,2004-03-21 13:00,ZBYN 211300Z AUTO 10002KT 1SM 01/00 A3009 RMK T00100000 IEM_DS3505
ZBYN,2004-03-21 14:00,ZBYN 211400Z AUTO 08004KT 1SM 02/00 A3009 RMK T00200000 IEM_DS3505
ZBYN,2004-03-21 15:00,ZBYN 211500Z AUTO 25004KT 2 1/2SM 02/01 A3009 RMK SLP225 T00170007 52005 IEM_DS3505
ZBYN,2004-03-21 16:00,ZBYN 211600Z AUTO 06002KT 1SM M01/M02 A3006 RMK T10101020 IEM_DS3505
ZBYN,2004-03-21 17:00,ZBYN 211700Z AUTO 14002KT 1SM M02/M04 A3006 RMK T10201040 IEM_DS3505
ZBYN,2004-03-21 18:00,ZBYN 211800Z AUTO 09004KT 1/8SM M01/M01 A3009 RMK SLP224 T10091013 57001 IEM_DS3505
ZBYN,2004-03-21 19:00,ZBYN 211900Z AUTO 10002KT 1SM M01/M02 A3006 RMK T10101020 IEM_DS3505
ZBYN,2004-03-21 20:00,ZBYN 212000Z AUTO 05002KT 1SM M01/M02 A3006 RMK T10101020 IEM_DS3505
ZBYN,2004-03-21 21:00,ZBYN 212100Z AUTO 18002KT 2SM 00/M00 A3006 RMK 70003 SLP217 T00001003 57004 IEM_DS3505
ZBYN,2004-03-21 22:00,ZBYN 212200Z AUTO 02002KT 1 1/4SM 00/M02 A3006 RMK T00001020 IEM_DS3505
ZBYN,2004-03-21 23:00,ZBYN 212300Z AUTO 1SM 00/M01 A3009 RMK T00001010 IEM_DS3505
ZBYN,2004-03-22 00:00,ZBYN 220000Z AUTO 14002KT 1 1/4SM 02/01 A3009 RMK 70004 SLP233 T00210014 52014 IEM_DS3505
ZBYN,2004-03-22 01:00,ZBYN 220100Z AUTO 17002KT 3/8SM 01/00 A3012 RMK T00100000 IEM_DS3505
ZBYN,2004-03-22 02:00,ZBYN 220200Z AUTO 15002KT 1SM 03/01 A3012 RMK T00300010 IEM_DS3505
ZBYN,2004-03-22 03:00,ZBYN 220300Z AUTO 14004KT 1/2SM 05/02 A3012 RMK SLP237 T00460016 52003 IEM_DS3505
ZBYN,2004-03-22 04:00,ZBYN 220400Z AUTO 15002KT 1SM 04/00 A3009 RMK T00400000 IEM_DS3505
ZBYN,2004-03-22 05:00,ZBYN 220500Z AUTO 12004KT 1SM 05/02 A3009 RMK T00500020 IEM_DS3505
ZBYN,2004-03-22 06:00,ZBYN 220600Z AUTO 16006KT 1 1/4SM 08/04 A3006 RMK 60003 SLP211 T00780035 57022 IEM_DS3505
ZBYN,2004-03-22 07:00,ZBYN 220700Z AUTO 06004KT 1 1/4SM 08/01 A3003 RMK T00800010 IEM_DS3505
ZBYN,2004-03-22 08:00,ZBYN 220800Z AUTO 06004KT 1 1/4SM 08/02 A3000 RMK T00800020 IEM_DS3505
ZBYN,2004-03-22 09:00,ZBYN 220900Z AUTO 07002KT 1 1/4SM 08/04 A2997 RMK SLP187 T00830036 57020 IEM_DS3505
ZBYN,2004-03-22 10:00,ZBYN 221000Z AUTO 09002KT 1 1/2SM 08/03 A3000 RMK T00800030 IEM_DS3505
ZBYN,2004-03-22 11:00,ZBYN 221100Z AUTO 1 1/4SM 04/02 A3000 RMK T00400020 IEM_DS3505
ZBYN,2004-03-22 12:00,ZBYN 221200Z AUTO 22002KT 1 1/4SM 06/04 A3000 RMK SLP196 T00610041 52008 IEM_DS3505
ZBYN,2004-03-22 13:00,ZBYN 221300Z AUTO 00000KT 1 1/4SM 03/02 A3000 RMK T00300020 IEM_DS3505
ZBYN,2004-03-22 14:00,ZBYN 221400Z AUTO 13002KT 1SM 02/01 A3003 RMK T00200010 IEM_DS3505
ZBYN,2004-03-22 15:00,ZBYN 221500Z AUTO 32002KT 1 1/4SM 03/03 A3003 RMK SLP202 T00340027 52005 IEM_DS3505
ZBYN,2004-03-22 16:00,ZBYN 221600Z AUTO 00000KT 1 1/2SM 02/00 A3003 RMK T00200000 IEM_DS3505
ZBYN,2004-03-22 17:00,ZBYN 221700Z AUTO 1 1/4SM 01/00 A3000 RMK T00100000 IEM_DS3505
ZBYN,2004-03-22 18:00,ZBYN 221800Z AUTO 00000KT 1SM 01/01 A3000 RMK SLP191 T00110007 57008 IEM_DS3505
ZBYN,2004-03-22 19:00,ZBYN 221900Z AUTO 14004KT 1SM 00/M01 A3000 RMK T00001010 IEM_DS3505
ZBYN,2004-03-22 20:00,ZBYN 222000Z AUTO 00000KT 1SM A3000 RMK IEM_DS3505
ZBYN,2004-03-22 21:00,ZBYN 222100Z AUTO 09002KT 3/8SM M01/M02 A2997 RMK 70003 SLP187 T10141017 57007 IEM_DS3505
ZBYN,2004-03-22 22:00,ZBYN 222200Z AUTO 00000KT 1 1/4SM A2997 RMK IEM_DS3505
ZBYN,2004-03-22 23:00,ZBYN 222300Z AUTO 00000KT 3/8SM A3000 RMK IEM_DS3505
ZBYN,2004-03-23 00:00,ZBYN 230000Z AUTO 32002KT 1SM 02/02 A3003 RMK 70003 SLP203 T00170016 52016 IEM_DS3505
ZBYN,2004-03-23 01:00,ZBYN 230100Z AUTO 34006KT 1SM 05/02 A3003 RMK T00500020 IEM_DS3505
ZBYN,2004-03-23 02:00,ZBYN 230200Z AUTO 34006KT 1 1/2SM 09/02 A3003 RMK T00900020 IEM_DS3505
ZBYN,2004-03-23 03:00,ZBYN 230300Z AUTO 36008KT 5SM 11/01 A3003 RMK SLP191 T01140014 54000 IEM_DS3505
ZBYN,2004-03-23 04:00,ZBYN 230400Z AUTO 34010KT 6SM 13/M05 A3000 RMK T01301050 IEM_DS3505
ZBYN,2004-03-23 05:00,ZBYN 230500Z AUTO 33008KT 6SM 13/M07 A3000 RMK T01301070 IEM_DS3505
ZBYN,2004-03-23 06:00,ZBYN 230600Z AUTO 32008KT 12SM 15/M04 A2994 RMK SLP163 T01521041 57023 IEM_DS3505
ZBYN,2004-03-23 07:00,ZBYN 230700Z AUTO 36008KT 6SM 15/M09 A2994 RMK T01501090 IEM_DS3505
ZBYN,2004-03-23 08:00,ZBYN 230800Z AUTO 36008KT 6SM 15/M12 A2994 RMK T01501120 IEM_DS3505
ZBYN,2004-03-23 09:00,ZBYN 230900Z AUTO 36006KT 12SM 14/M09 A2994 RMK SLP169 T01381087 57001 IEM_DS3505
ZBYN,2004-03-23 10:00,ZBYN 231000Z AUTO 34008KT 6SM 12/M14 A2997 RMK T01201140 IEM_DS3505
ZBYN,2004-03-23 11:00,ZBYN 231100Z AUTO 35006KT 6SM 10/M12 A3000 RMK T01001120 IEM_DS3505
ZBYN,2004-03-23 12:00,ZBYN 231200Z AUTO 36004KT 9SM 10/M10 A3003 RMK SLP201 T01001101 52028 IEM_DS3505
ZBYN,2004-03-23 13:00,ZBYN 231300Z AUTO 35004KT 6SM 07/M11 A3006 RMK T00701110 IEM_DS3505
ZBYN,2004-03-23 15:00,ZBYN 231500Z AUTO 34004KT 9SM 08/M10 A3009 RMK SLP213 T00811097 52023 IEM_DS3505
ZBYN,2004-03-23 16:00,ZBYN 231600Z AUTO 06010KT 6SM 07/M07 A3009 RMK T00701070 IEM_DS3505
ZBYN,2004-03-23 17:00,ZBYN 231700Z AUTO 08010KT 6SM 07/M06 A3009 RMK T00701060 IEM_DS3505
ZBYN,2004-03-23 18:00,ZBYN 231800Z AUTO 29002KT 6SM 07/M10 A3012 RMK SLP212 T00671096 52003 IEM_DS3505
ZBYN,2004-03-23 19:00,ZBYN 231900Z AUTO 06016KT 6SM 06/M10 A3012 RMK T00601100 IEM_DS3505
ZBYN,2004-03-23 20:00,ZBYN 232000Z AUTO 08012KT 7SM 05/M11 A3012 RMK T00501110 IEM_DS3505
ZBYN,2004-03-23 21:00,ZBYN 232100Z AUTO 04008KT 3SM 02/M01 A3015 RMK 70000 SLP239 T00251006 52016 IEM_DS3505
ZBYN,2004-03-23 22:00,ZBYN 232200Z AUTO 07012KT 1 1/4SM 00/M01 A3018 RMK T00001010 IEM_DS3505
ZBYN,2004-03-23 23:00,ZBYN 232300Z AUTO 05008KT 1 1/2SM 00/M02 A3018 RMK T00001020 IEM_DS3505
ZBYN,2004-03-24 00:00,ZBYN 240000Z AUTO 07004KT 2SM 00/M00 A3021 RMK 60012 70011 SLP262 T00051002 52012 IEM_DS3505
ZBYN,2004-03-24 01:00,ZBYN 240100Z AUTO 05008KT 2SM 00/M02 A3024 RMK T00001020 IEM_DS3505
ZBYN,2004-03-24 02:00,ZBYN 240200Z AUTO 04008KT 7SM 00/M02 A3024 RMK T00001020 IEM_DS3505
ZBYN,2004-03-24 03:00,ZBYN 240300Z AUTO 32004KT 2 1/2SM 01/00 A3021 RMK SLP269 T00110004 52004 IEM_DS3505
ZBYN,2004-03-24 04:00,ZBYN 240400Z AUTO 06008KT 7SM 01/M02 A3021 RMK T00101020 IEM_DS3505
ZBYN,2004-03-24 05:00,ZBYN 240500Z AUTO 06006KT 7SM 02/M02 A3018 RMK T00201020 IEM_DS3505
ZBYN,2004-03-24 06:00,ZBYN 240600Z AUTO 32002KT 2 1/2SM 02/01 A3015 RMK 60008 SLP243 T00150008 57025 IEM_DS3505
ZBYN,2004-03-24 07:00,ZBYN 240700Z AUTO 09006KT 4SM 01/M01 A3012 RMK T00101010 IEM_DS3505
ZBYN,2004-03-24 08:00,ZBYN 240800Z AUTO 11006KT 7SM 01/M02 A3009 RMK T00101020 IEM_DS3505
ZBYN,2004-03-24 09:00,ZBYN 240900Z AUTO 18002KT 4SM 02/01 A3009 RMK SLP233 T00250007 57014 IEM_DS3505
ZBYN,2004-03-24 10:00,ZBYN 241000Z AUTO 12002KT 5SM 02/00 A3009 RMK T00200000 IEM_DS3505
ZBYN,2004-03-24 11:00,ZBYN 241100Z AUTO 00000KT 7SM 02/00 A3012 RMK T00200000 IEM_DS3505
ZBYN,2004-03-24 12:00,ZBYN 241200Z AUTO 16002KT 5SM 02/01 A3012 RMK 60001 SLP247 T00160007 52008 IEM_DS3505
ZBYN,2004-03-24 13:00,ZBYN 241300Z AUTO 00000KT 5SM 01/00 A3015 RMK T00100000 IEM_DS3505
ZBYN,2004-03-24 14:00,ZBYN 241400Z AUTO 00000KT 3SM 01/00 A3015 RMK T00100000 IEM_DS3505
ZBYN,2004-03-24 15:00,ZBYN 241500Z AUTO 14004KT 5SM 02/02 A3015 RMK SLP246 T00250016 52001 IEM_DS3505
ZBYN,2004-03-24 16:00,ZBYN 241600Z AUTO 19002KT 1 1/4SM 01/00 A3012 RMK T00100000 IEM_DS3505
ZBYN,2004-03-24 18:00,ZBYN 241800Z AUTO 11002KT 4SM 02/02 A3012 RMK SLP238 T00220015 57007 IEM_DS3505
ZBYN,2004-03-24 19:00,ZBYN 241900Z AUTO 22002KT 1 1/4SM 01/00 A3012 RMK T00100000 IEM_DS3505
ZBYN,2004-03-24 20:00,ZBYN 242000Z AUTO 00000KT 1 1/2SM 01/00 A3012 RMK T00100000 IEM_DS3505
ZBYN,2004-03-24 21:00,ZBYN 242100Z AUTO 18002KT 4SM 02/01 A3012 RMK SLP240 T00200014 52003 IEM_DS3505
ZBYN,2004-03-24 22:00,ZBYN 242200Z AUTO 00000KT 1 1/4SM 01/00 A3012 RMK T00100000 IEM_DS3505
ZBYN,2004-03-24 23:00,ZBYN 242300Z AUTO 00000KT 1SM 01/00 A3012 RMK T00100000 IEM_DS3505
ZBYN,2004-03-25 00:00,ZBYN 250000Z AUTO 29004KT 2SM 03/00 A3015 RMK 70011 SLP249 T00270003 52008 IEM_DS3505
ZBYN,2004-03-25 01:00,ZBYN 250100Z AUTO 20002KT 1SM 02/00 A3015 RMK T00200000 IEM_DS3505
ZBYN,2004-03-25 02:00,ZBYN 250200Z AUTO 1 1/4SM 03/M01 A3015 RMK T00301010 IEM_DS3505
ZBYN,2004-03-25 03:00,ZBYN 250300Z AUTO 27004KT 3SM 06/01 A3015 RMK SLP244 T00580010 52002 IEM_DS3505
ZBYN,2004-03-25 04:00,ZBYN 250400Z AUTO 06002KT 2SM 05/00 A3012 RMK T00500000 IEM_DS3505
ZBYN,2004-03-25 05:00,ZBYN 250500Z AUTO 2 1/2SM 07/00 A3012 RMK T00700000 IEM_DS3505
ZBYN,2004-03-25 06:00,ZBYN 250600Z AUTO 20004KT 3SM 10/02 A3009 RMK SLP210 T00970023 57025 IEM_DS3505
ZBYN,2004-03-25 07:00,ZBYN 250700Z AUTO 18004KT 2 1/2SM 09/01 A3003 RMK T00900010 IEM_DS3505
ZBYN,2004-03-25 08:00,ZBYN 250800Z AUTO 20002KT 3SM 09/00 A3003 RMK T00900000 IEM_DS3505
ZBYN,2004-03-25 09:00,ZBYN 250900Z AUTO 18006KT 2 1/2SM 10/02 A3003 RMK SLP192 T00990023 57017 IEM_DS3505
ZBYN,2004-03-25 10:00,ZBYN 251000Z AUTO 18002KT 09/M03 A3000 RMK T00901030 IEM_DS3505
ZBYN,2004-03-25 11:00,ZBYN 251100Z AUTO 27002KT 2 1/2SM 06/01 A3003 RMK T00600010 IEM_DS3505
ZBYN,2004-03-25 12:00,ZBYN 251200Z AUTO 20006KT 2 1/2SM 06/02 A3006 RMK SLP208 T00640021 52010 IEM_DS3505
ZBYN,2004-03-25 13:00,ZBYN 251300Z AUTO 19002KT 2 1/2SM 05/01 A3006 RMK T00500010 IEM_DS3505
ZBYN,2004-03-25 14:00,ZBYN 251400Z AUTO 14004KT 1 1/4SM 01/00 A3009 RMK T00100000 IEM_DS3505
ZBYN,2004-03-25 15:00,ZBYN 251500Z AUTO 11006KT 3SM 03/02 A3009 RMK SLP219 T00340021 52011 IEM_DS3505
ZBYN,2004-03-25 16:00,ZBYN 251600Z AUTO 12004KT 1 1/4SM 02/00 A3009 RMK T00200000 IEM_DS3505
ZBYN,2004-03-25 17:00,ZBYN 251700Z AUTO 1 1/4SM 00/M01 A3009 RMK T00001010 IEM_DS3505
ZBYN,2004-03-25 18:00,ZBYN 251800Z AUTO 16002KT 3SM 01/00 A3009 RMK SLP217 T00120003 54000 IEM_DS3505
ZBYN,2004-03-25 19:00,ZBYN 251900Z AUTO 14004KT 1 1/4SM M01/M02 A3006 RMK T10101020 IEM_DS3505
ZBYN,2004-03-25 20:00,ZBYN 252000Z AUTO 11004KT 1 1/4SM M01/M02 A3006 RMK T10101020 IEM_DS3505
ZBYN,2004-03-25 21:00,ZBYN 252100Z AUTO 20002KT 1 1/4SM 00/M00 A3006 RMK SLP216 T00021002 57002 IEM_DS3505
ZBYN,2004-03-25 22:00,ZBYN 252200Z AUTO 12002KT 1SM 00/M01 A3009 RMK T00001010 IEM_DS3505
ZBYN,2004-03-25 23:00,ZBYN 252300Z AUTO 10002KT 1SM 01/00 A3009 RMK T00100000 IEM_DS3505
ZBYN,2004-03-26 00:00,ZBYN 260000Z AUTO 27002KT 1 1/4SM 02/02 A3009 RMK SLP226 T00200017 52007 IEM_DS3505
ZBYN,2004-03-26 01:00,ZBYN 260100Z AUTO 17004KT 1SM 03/01 A3012 RMK T00300010 IEM_DS3505
ZBYN,2004-03-26 02:00,ZBYN 260200Z AUTO 19002KT 1SM 03/01 A3012 RMK T00300010 IEM_DS3505
ZBYN,2004-03-26 03:00,ZBYN 260300Z AUTO 18006KT 1 1/4SM 05/03 A3009 RMK SLP228 T00480027 52001 IEM_DS3505
ZBYN,2004-03-26 04:00,ZBYN 260400Z AUTO 22004KT 1SM 06/02 A3009 RMK T00600020 IEM_DS3505
ZBYN,2004-03-26 05:00,ZBYN 260500Z AUTO 1SM 09/03 A3006 RMK T00900030 IEM_DS3505
ZBYN,2004-03-26 06:00,ZBYN 260600Z AUTO 16010KT 2SM 12/06 A3000 RMK SLP186 T01200056 57030 IEM_DS3505
ZBYN,2004-03-26 07:00,ZBYN 260700Z AUTO 21004KT 1SM 12/03 A3000 RMK T01200030 IEM_DS3505
ZBYN,2004-03-26 08:00,ZBYN 260800Z AUTO 19006KT 1 1/4SM 13/02 A2997 RMK T01300020 IEM_DS3505
ZBYN,2004-03-26 09:00,ZBYN 260900Z AUTO 18010KT 2 1/2SM 13/04 A2997 RMK SLP172 T01310045 57013 IEM_DS3505
ZBYN,2004-03-26 10:00,ZBYN 261000Z AUTO 18004KT 2 1/2SM 12/03 A2997 RMK T01200030 IEM_DS3505
ZBYN,2004-03-26 11:00,ZBYN 261100Z AUTO 12004KT 1 1/2SM 08/03 A3000 RMK T00800030 IEM_DS3505
ZBYN,2004-03-26 12:00,ZBYN 261200Z AUTO 11006KT 3SM 10/05 A3000 RMK SLP187 T01030049 52012 IEM_DS3505
ZBYN,2004-03-26 13:00,ZBYN 261300Z AUTO 12004KT 2SM 06/02 A3003 RMK T00600020 IEM_DS3505
ZBYN,2004-03-26 14:00,ZBYN 261400Z AUTO 10002KT 2SM 05/02 A3006 RMK T00500020 IEM_DS3505
ZBYN,2004-03-26 15:00,ZBYN 261500Z AUTO 14006KT 4SM 09/04 A3006 RMK SLP202 T00870041 52016 IEM_DS3505
ZBYN,2004-03-26 16:00,ZBYN 261600Z AUTO 15004KT 2SM 06/01 A3006 RMK T00600010 IEM_DS3505
ZBYN,2004-03-26 17:00,ZBYN 261700Z AUTO 12006KT 2 1/2SM 06/00 A3006 RMK T00600000 IEM_DS3505
ZBYN,2004-03-26 18:00,ZBYN 261800Z AUTO 11006KT 4SM 06/02 A3003 RMK SLP191 T00630018 57003 IEM_DS3505
ZBYN,2004-03-26 20:00,ZBYN 262000Z AUTO 12004KT 2SM 03/00 A3003 RMK T00300000 IEM_DS3505
ZBYN,2004-03-26 21:00,ZBYN 262100Z AUTO 11004KT 4SM 04/01 A3003 RMK SLP189 T00370014 57004 IEM_DS3505
ZBYN,2004-03-26 22:00,ZBYN 262200Z AUTO 00000KT 2SM 02/M01 A3003 RMK T00201010 IEM_DS3505
ZBYN,2004-03-26 23:00,ZBYN 262300Z AUTO 10002KT 1SM 02/M01 A3003 RMK T00201010 IEM_DS3505
ZBYN,2004-03-27 00:00,ZBYN 270000Z AUTO 29002KT 1 1/4SM 04/03 A3003 RMK SLP196 T00440031 52003 IEM_DS3505
ZBYN,2004-03-27 01:00,ZBYN 270100Z AUTO 1SM 07/01 A3003 RMK T00700010 IEM_DS3505
ZBYN,2004-03-27 02:00,ZBYN 270200Z AUTO 17006KT 1 1/4SM 10/02 A3000 RMK T01000020 IEM_DS3505
ZBYN,2004-03-27 03:00,ZBYN 270300Z AUTO 18010KT 2 1/2SM 13/04 A2997 RMK SLP161 T01310043 57021 IEM_DS3505
ZBYN,2004-03-27 04:00,ZBYN 270400Z AUTO 23006KT 2 1/2SM 14/02 A2994 RMK T01400020 IEM_DS3505
ZBYN,2004-03-27 05:00,ZBYN 270500Z AUTO 22006KT 16/00 A2991 RMK T01600000 IEM_DS3505
ZBYN,2004-03-27 06:00,ZBYN 270600Z AUTO 18014KT 4SM 18/05 A2988 RMK SLP121 T01770047 57033 IEM_DS3505
ZBYN,2004-03-27 07:00,ZBYN 270700Z AUTO 20010KT 18/01 A2985 RMK T01800010 IEM_DS3505
ZBYN,2004-03-27 08:00,ZBYN 270800Z AUTO 22010KT 6SM 19/01 A2983 RMK T01900010 IEM_DS3505
ZBYN,2004-03-27 09:00,ZBYN 270900Z AUTO 20010KT 5SM 19/03 A2983 RMK SLP105 T01930031 57016 IEM_DS3505
ZBYN,2004-03-27 10:00,ZBYN 271000Z AUTO 23008KT 6SM 17/01 A2983 RMK T01700010 IEM_DS3505
ZBYN,2004-03-27 11:00,ZBYN 271100Z AUTO 24006KT 6SM 15/02 A2985 RMK T01500020 IEM_DS3505
ZBYN,2004-03-27 12:00,ZBYN 271200Z AUTO 22004KT 6SM 16/04 A2988 RMK SLP129 T01560044 52017 IEM_DS3505
ZBYN,2004-03-27 13:00,ZBYN 271300Z AUTO 24006KT 6SM 13/04 A2991 RMK T01300040 IEM_DS3505
ZBYN,2004-03-27 14:00,ZBYN 271400Z AUTO 23006KT 6SM 12/03 A2991 RMK T01200030 IEM_DS3505
ZBYN,2004-03-27 15:00,ZBYN 271500Z AUTO 11006KT 6SM 11/05 A2994 RMK SLP146 T01120053 52022 IEM_DS3505
ZBYN,2004-03-27 16:00,ZBYN 271600Z AUTO 09002KT 6SM 08/03 A2994 RMK T00800030 IEM_DS3505
ZBYN,2004-03-27 17:00,ZBYN 271700Z AUTO 08002KT 4SM 07/03 A2994 RMK T00700030 IEM_DS3505
ZBYN,2004-03-27 18:00,ZBYN 271800Z AUTO 20004KT 6SM 09/04 A2997 RMK SLP152 T00940044 52010 IEM_DS3505
ZBYN,2004-03-27 19:00,ZBYN 271900Z AUTO 30008KT 6SM 12/M10 RMK T01201100 IEM_DS3505
ZBYN,2004-03-27 20:00,ZBYN 272000Z AUTO 30008KT 6SM 11/M13 A3000 RMK T01101130 IEM_DS3505
ZBYN,2004-03-27 21:00,ZBYN 272100Z AUTO 32004KT 6SM 12/M09 A3000 RMK SLP158 T01181091 52011 IEM_DS3505
ZBYN,2004-03-27 22:00,ZBYN 272200Z AUTO 28006KT 6SM 11/M14 A3000 RMK T01101140 IEM_DS3505
ZBYN,2004-03-27 23:00,ZBYN 272300Z AUTO 30006KT 6SM 10/M14 A3003 RMK T01001140 IEM_DS3505
ZBYN,2004-03-28 00:00,ZBYN 280000Z AUTO 29004KT 6SM 11/M12 A3003 RMK SLP173 T01121115 52008 IEM_DS3505
ZBYN,2004-03-28 01:00,ZBYN 280100Z AUTO 31006KT 6SM 12/M18 A3006 RMK T01201180 IEM_DS3505
ZBYN,2004-03-28 02:00,ZBYN 280200Z AUTO 31008KT 6SM 13/M18 A3006 RMK T01301180 IEM_DS3505
ZBYN,2004-03-28 03:00,ZBYN 280300Z AUTO 32008KT 7SM 16/M15 A3006 RMK SLP180 T01571146 52006 IEM_DS3505
ZBYN,2004-03-28 04:00,ZBYN 280400Z AUTO 32008KT 6SM 15/M21 A3003 RMK T01501210 IEM_DS3505
ZBYN,2004-03-28 05:00,ZBYN 280500Z AUTO 30004KT 6SM 15/M23 A3000 RMK T01501230 IEM_DS3505
ZBYN,2004-03-28 06:00,ZBYN 280600Z AUTO 14008KT 9SM 17/M12 A2997 RMK SLP150 T01731123 57027 IEM_DS3505
ZBYN,2004-03-28 07:00,ZBYN 280700Z AUTO 19004KT 6SM 16/M18 A2994 RMK T01601180 IEM_DS3505
ZBYN,2004-03-28 08:00,ZBYN 280800Z AUTO 19002KT 6SM 15/M16 A2994 RMK T01501160 IEM_DS3505
ZBYN,2004-03-28 09:00,ZBYN 280900Z AUTO 18004KT 7SM 16/M07 A2994 RMK SLP140 T01551067 57009 IEM_DS3505
ZBYN,2004-03-28 10:00,ZBYN 281000Z AUTO 6SM 14/M11 A2994 RMK T01401110 IEM_DS3505
ZBYN,2004-03-28 11:00,ZBYN 281100Z AUTO 6SM 13/M10 A2994 RMK T01301100 IEM_DS3505
ZBYN,2004-03-28 12:00,ZBYN 281200Z AUTO 18002KT 6SM 13/M05 A2997 RMK SLP156 T01261054 52010 IEM_DS3505
ZBYN,2004-03-28 13:00,ZBYN 281300Z AUTO 17002KT 6SM 11/M07 A3000 RMK T01101070 IEM_DS3505
ZBYN,2004-03-28 14:00,ZBYN 281400Z AUTO 18002KT 6SM 12/M02 A3000 RMK T01201020 IEM_DS3505
ZBYN,2004-03-28 15:00,ZBYN 281500Z AUTO 07002KT 6SM 11/M02 A3000 RMK SLP169 T01071023 52015 IEM_DS3505
ZBYN,2004-03-28 16:00,ZBYN 281600Z AUTO 00000KT 6SM 09/M01 A3000 RMK T00901010 IEM_DS3505
ZBYN,2004-03-28 17:00,ZBYN 281700Z AUTO 34008KT 6SM 11/M06 A3003 RMK T01101060 IEM_DS3505
ZBYN,2004-03-28 18:00,ZBYN 281800Z AUTO 29006KT 6SM 13/M05 A3006 RMK SLP184 T01261054 52019 IEM_DS3505
ZBYN,2004-03-28 19:00,ZBYN 281900Z AUTO 29010KT 6SM 12/M11 A3009 RMK T01201110 IEM_DS3505
ZBYN,2004-03-28 20:00,ZBYN 282000Z AUTO 28010KT 6SM 11/M17 A3009 RMK T01101170 IEM_DS3505
ZBYN,2004-03-28 21:00,ZBYN 282100Z AUTO 32006KT 6SM 10/M16 A3009 RMK SLP191 T01031159 52001 IEM_DS3505
ZBYN,2004-03-28 22:00,ZBYN 282200Z AUTO 30006KT 6SM 08/M19 A3006 RMK T00801190 IEM_DS3505
ZBYN,2004-03-28 23:00,ZBYN 282300Z AUTO 29004KT 6SM 08/M16 A3009 RMK T00801160 IEM_DS3505
ZBYN,2004-03-29 00:00,ZBYN 290000Z AUTO 29006KT 9SM 10/M12 A3009 RMK SLP200 T01011124 52003 IEM_DS3505
ZBYN,2004-03-29 01:00,ZBYN 290100Z AUTO 30004KT 6SM 10/M19 A3009 RMK T01001190 IEM_DS3505
ZBYN,2004-03-29 02:00,ZBYN 290200Z AUTO 30008KT 6SM 13/M18 A3009 RMK T01301180 IEM_DS3505
ZBYN,2004-03-29 03:00,ZBYN 290300Z AUTO 25010KT 7SM 15/M10 A3006 RMK SLP186 T01491098 57008 IEM_DS3505
ZBYN,2004-03-29 04:00,ZBYN 290400Z AUTO 24012KT 6SM 15/M13 A3003 RMK T01501130 IEM_DS3505
ZBYN,2004-03-29 05:00,ZBYN 290500Z AUTO 30019KT 6SM 16/M20 A3003 RMK T01601200 IEM_DS3505
ZBYN,2004-03-29 06:00,ZBYN 290600Z AUTO 27019KT 6SM 16/M14 A3000 RMK SLP158 T01641140 4////0086 57021 IEM_DS3505
ZBYN,2004-03-29 07:00,ZBYN 290700Z AUTO 30017KT 6SM 16/M22 A3000 RMK T01601220 IEM_DS3505
ZBYN,2004-03-29 08:00,ZBYN 290800Z AUTO 31025KT 4SM 14/ A3000 RMK IEM_DS3505
ZBYN,2004-03-29 09:00,ZBYN 290900Z AUTO 29017KT 4SM 12/M21 A3003 RMK SLP180 T01241208 52011 IEM_DS3505
ZBYN,2004-03-29 10:00,ZBYN 291000Z AUTO 30014KT 10/M28 A3006 RMK T01001280 IEM_DS3505
ZBYN,2004-03-29 11:00,ZBYN 291100Z AUTO 31012KT 08/M25 A3009 RMK T00801250 IEM_DS3505
ZBYN,2004-03-29 12:00,ZBYN 291200Z AUTO 36006KT 4SM 09/M21 A3012 RMK SLP216 T00861212 52027 IEM_DS3505
ZBYN,2004-03-29 13:00,ZBYN 291300Z AUTO 30008KT 6SM 06/M24 A3015 RMK T00601240 IEM_DS3505
ZBYN,2004-03-29 14:00,ZBYN 291400Z AUTO 27006KT 6SM 06/M25 A3015 RMK T00601250 IEM_DS3505
ZBYN,2004-03-29 15:00,ZBYN 291500Z AUTO 02002KT 5SM 07/M21 A3018 RMK SLP226 T00671206 52013 IEM_DS3505
ZBYN,2004-03-29 16:00,ZBYN 291600Z AUTO 6SM 05/M24 A3015 RMK T00501240 IEM_DS3505
ZBYN,2004-03-29 18:00,ZBYN 291800Z AUTO 29010KT 6SM 06/M21 RMK SLP222 T00571214 57003 IEM_DS3505
ZBYN,2004-03-29 19:00,ZBYN 291900Z AUTO 26006KT 6SM 03/M24 A3015 RMK T00301240 IEM_DS3505
ZBYN,2004-03-29 20:00,ZBYN 292000Z AUTO 27004KT 6SM 03/M25 A3015 RMK T00301250 IEM_DS3505
ZBYN,2004-03-29 21:00,ZBYN 292100Z AUTO 27004KT 6SM 03/M18 A3015 RMK SLP225 T00321181 57007 IEM_DS3505
ZBYN,2004-03-29 22:00,ZBYN 292200Z AUTO 27004KT 6SM 03/M25 A3012 RMK T00301250 IEM_DS3505
ZBYN,2004-03-29 23:00,ZBYN 292300Z AUTO 25002KT 6SM 03/M25 A3015 RMK T00301250 IEM_DS3505
ZBYN,2004-03-30 00:00,ZBYN 300000Z AUTO 20006KT 7SM 04/M13 A3015 RMK SLP236 T00421130 52006 IEM_DS3505
ZBYN,2004-03-30 01:00,ZBYN 300100Z AUTO 20002KT 6SM 05/M15 A3015 RMK T00501150 IEM_DS3505
ZBYN,2004-03-30 02:00,ZBYN 300200Z AUTO 21006KT 5SM 08/M17 A3012 RMK T00801170 IEM_DS3505
ZBYN,2004-03-30 03:00,ZBYN 300300Z AUTO 20008KT 6SM 10/M16 A3012 RMK SLP219 T01011161 57010 IEM_DS3505
ZBYN,2004-03-30 04:00,ZBYN 300400Z AUTO 22012KT 6SM 10/M22 A3009 RMK T01001220 IEM_DS3505
ZBYN,2004-03-30 05:00,ZBYN 300500Z AUTO 23012KT 6SM 12/M19 A3006 RMK T01201190 IEM_DS3505
ZBYN,2004-03-30 06:00,ZBYN 300600Z AUTO 20012KT 12SM 14/M15 A3003 RMK SLP179 T01391149 57032 IEM_DS3505
ZBYN,2004-03-30 07:00,ZBYN 300700Z AUTO 24012KT 6SM 15/M20 A3000 RMK T01501200 IEM_DS3505
ZBYN,2004-03-30 08:00,ZBYN 300800Z AUTO 30006KT 6SM 16/M19 A2994 RMK T01601190 IEM_DS3505
ZBYN,2004-03-30 09:00,ZBYN 300900Z AUTO 32006KT 12SM 17/M15 A2994 RMK SLP151 T01671149 57025 IEM_DS3505
ZBYN,2004-03-30 10:00,ZBYN 301000Z AUTO 32012KT 6SM 15/M21 A2994 RMK T01501210 IEM_DS3505
ZBYN,2004-03-30 11:00,ZBYN 301100Z AUTO 31004KT 6SM 11/M21 A2994 RMK T01101210 IEM_DS3505
ZBYN,2004-03-30 12:00,ZBYN 301200Z AUTO 29004KT 12SM 10/M13 A2997 RMK SLP176 T01011130 52014 IEM_DS3505
ZBYN,2004-03-30 13:00,ZBYN 301300Z AUTO 30002KT 6SM 08/M18 A3000 RMK T00801180 IEM_DS3505
ZBYN,2004-03-30 14:00,ZBYN 301400Z AUTO 08004KT 6SM 03/M12 A3000 RMK T00301120 IEM_DS3505
ZBYN,2004-03-30 15:00,ZBYN 301500Z AUTO 07004KT 9SM 07/M09 A3000 RMK SLP174 T00681093 52007 IEM_DS3505
ZBYN,2004-03-30 16:00,ZBYN 301600Z AUTO 09002KT 6SM 02/M13 A3000 RMK T00201130 IEM_DS3505
ZBYN,2004-03-30 17:00,ZBYN 301700Z AUTO 10002KT 6SM 01/M11 A2997 RMK T00101110 IEM_DS3505
ZBYN,2004-03-30 18:00,ZBYN 301800Z AUTO 11004KT 7SM 06/M07 RMK SLP157 T00551073 57011 IEM_DS3505
ZBYN,2004-03-30 19:00,ZBYN 301900Z AUTO 13006KT 6SM 01/M09 A2994 RMK T00101090 IEM_DS3505
ZBYN,2004-03-30 20:00,ZBYN 302000Z AUTO 07002KT 6SM 01/M09 A2994 RMK T00101090 IEM_DS3505
ZBYN,2004-03-30 21:00,ZBYN 302100Z AUTO 14002KT 7SM 03/M06 A2994 RMK SLP150 T00331064 57005 IEM_DS3505
ZBYN,2004-03-30 22:00,ZBYN 302200Z AUTO 09002KT 6SM 02/M08 A2994 RMK T00201080 IEM_DS3505
ZBYN,2004-03-30 23:00,ZBYN 302300Z AUTO 12002KT 02/M06 A2994 RMK T00201060 IEM_DS3505
ZBYN,2004-03-31 00:00,ZBYN 310000Z AUTO 18004KT 5SM 06/M04 A2994 RMK SLP164 T00641038 52008 IEM_DS3505
ZBYN,2004-03-31 01:00,ZBYN 310100Z AUTO 14004KT 5SM 08/M06 A2994 RMK T00801060 IEM_DS3505
ZBYN,2004-03-31 02:00,ZBYN 310200Z AUTO 15004KT 5SM 11/M06 A2994 RMK T01101060 IEM_DS3505
ZBYN,2004-03-31 03:00,ZBYN 310300Z AUTO 18006KT 5SM 13/M03 A2991 RMK SLP148 T01321031 57020 IEM_DS3505
ZBYN,2004-03-31 04:00,ZBYN 310400Z AUTO 17004KT 6SM 14/M06 A2985 RMK T01401060 IEM_DS3505
ZBYN,2004-03-31 06:00,ZBYN 310600Z AUTO 20010KT 5SM 18/01 A2980 RMK SLP091 T01810008 57036 IEM_DS3505
ZBYN,2004-03-31 07:00,ZBYN 310700Z AUTO 21006KT 6SM 18/M04 A2977 RMK T01801040 IEM_DS3505
ZBYN,2004-03-31 08:00,ZBYN 310800Z AUTO 26008KT 6SM 18/M02 A2977 RMK T01801020 IEM_DS3505
ZBYN,2004-03-31 09:00,ZBYN 310900Z AUTO 32019KT 6SM 13/04 A2980 RMK SLP113 T01270037 52008 IEM_DS3505
ZBYN,2004-03-31 10:00,ZBYN 311000Z AUTO 33016KT 6SM 13/M03 A2983 RMK T01301030 IEM_DS3505
ZBYN,2004-03-31 11:00,ZBYN 311100Z AUTO 7SM 11/M04 A2991 RMK T01101040 IEM_DS3505
ZBYN,2004-03-31 12:00,ZBYN 311200Z AUTO 32012KT 9SM 10/M02 A3000 RMK SLP174 T01001020 52057 IEM_DS3505
ZBYN,2004-03-31 13:00,ZBYN 311300Z AUTO 29008KT 6SM 08/M04 A3003 RMK T00801040 IEM_DS3505
ZBYN,2004-03-31 14:00,ZBYN 311400Z AUTO 29006KT 6SM 08/M05 A3003 RMK T00801050 IEM_DS3505
ZBYN,2004-03-31 15:00,ZBYN 311500Z AUTO 32006KT 9SM 10/M06 A3003 RMK SLP180 T00951059 52015 IEM_DS3505
ZBYN,2004-03-31 16:00,ZBYN 311600Z AUTO 28008KT 6SM 08/M10 A3003 RMK T00801100 IEM_DS3505
ZBYN,2004-03-31 17:00,ZBYN 311700Z AUTO 29006KT 6SM 07/M10 A3003 RMK T00701100 IEM_DS3505
ZBYN,2004-03-31 18:00,ZBYN 311800Z AUTO 32008KT 9SM 08/M08 A3000 RMK SLP163 T00851076 57010 IEM_DS3505
ZBYN,2004-03-31 19:00,ZBYN 311900Z AUTO 28006KT 6SM 06/M10 A3000 RMK T00601100 IEM_DS3505
ZBYN,2004-03-31 20:00,ZBYN 312000Z AUTO 28006KT 6SM 06/M11 A3000 RMK T00601110 IEM_DS3505
ZBYN,2004-03-31 21:00,ZBYN 312100Z AUTO 32006KT 9SM 07/M09 A3000 RMK SLP170 T00681087 57004 IEM_DS3505
ZBYN,2004-03-31 22:00,ZBYN 312200Z AUTO 30008KT 6SM 04/M11 A3000 RMK T00401110 IEM_DS3505
ZBYN,2004-03-31 23:00,ZBYN 312300Z AUTO 32014KT 6SM 06/M12 A3003 RMK T00601120 IEM_DS3505
ZBYN,2004-04-01 00:00,ZBYN 010000Z AUTO 29012KT 9SM 08/M10 A3003 RMK SLP194 T00751102 52019 IEM_DS3505
ZBYN,2004-04-01 01:00,ZBYN 010100Z AUTO 32008KT 6SM 08/M14 A3003 RMK T00801140 IEM_DS3505
ZBYN,2004-04-01 02:00,ZBYN 010200Z AUTO 34004KT 6SM 09/M16 A3003 RMK T00901160 IEM_DS3505
ZBYN,2004-04-01 03:00,ZBYN 010300Z AUTO 32016KT 16SM 12/M15 A3003 RMK SLP174 T01171148 57013 IEM_DS3505
ZBYN,2004-04-01 04:00,ZBYN 010400Z AUTO 32014KT 6SM 12/M20 A2997 RMK T01201200 IEM_DS3505
ZBYN,2004-04-01 05:00,ZBYN 010500Z AUTO 28012KT 6SM 13/M18 A2997 RMK T01301180 IEM_DS3505
ZBYN,2004-04-01 06:00,ZBYN 010600Z AUTO 32016KT 16SM 14/M14 A2994 RMK SLP147 T01451135 57022 IEM_DS3505
ZBYN,2004-04-01 07:00,ZBYN 010700Z AUTO 29016KT 6SM 15/M18 A2991 RMK T01501180 IEM_DS3505
ZBYN,2004-04-01 08:00,ZBYN 010800Z AUTO 30012KT 6SM 15/M18 A2988 RMK T01501180 IEM_DS3505
ZBYN,2004-04-01 09:00,ZBYN 010900Z AUTO 32014KT 12SM 15/M13 A2988 RMK SLP129 T01491132 57018 IEM_DS3505
ZBYN,2004-04-01 10:00,ZBYN 011000Z AUTO 31008KT 6SM 13/M18 A2988 RMK T01301180 IEM_DS3505
ZBYN,2004-04-01 11:00,ZBYN 011100Z AUTO 26004KT 6SM 11/M16 A2988 RMK T01101160 IEM_DS3505
ZBYN,2004-04-01 12:00,ZBYN 011200Z AUTO 20008KT 9SM 11/M09 A2988 RMK SLP135 T01141089 52001 IEM_DS3505
ZBYN,2004-04-01 13:00,ZBYN 011300Z AUTO 24006KT 6SM 09/M11 A2991 RMK T00901110 IEM_DS3505
ZBYN,2004-04-01 14:00,ZBYN 011400Z AUTO 22006KT 6SM 08/M09 A2991 RMK T00801090 IEM_DS3505
ZBYN,2004-04-01 15:00,ZBYN 011500Z AUTO 11002KT 7SM 08/M07 A2991 RMK SLP148 T00791066 52013 IEM_DS3505
ZBYN,2004-04-01 16:00,ZBYN 011600Z AUTO 6SM 06/M10 A2994 RMK T00601100 IEM_DS3505
ZBYN,2004-04-01 17:00,ZBYN 011700Z AUTO 08002KT 6SM 04/M09 A2997 RMK T00401090 IEM_DS3505
ZBYN,2004-04-01 18:00,ZBYN 011800Z AUTO 29004KT 6SM 04/M05 A2997 RMK SLP164 T00441053 52014 IEM_DS3505
ZBYN,2004-04-01 19:00,ZBYN 011900Z AUTO 13004KT 6SM 02/M10 A2997 RMK T00201100 IEM_DS3505
ZBYN,2004-04-01 20:00,ZBYN 012000Z AUTO 27002KT 6SM 01/M10 A2997 RMK T00101100 IEM_DS3505
ZBYN,2004-04-01 21:00,ZBYN 012100Z AUTO 07002KT 6SM 02/M06 A2997 RMK SLP168 T00241059 52001 IEM_DS3505
ZBYN,2004-04-01 22:00,ZBYN 012200Z AUTO 12002KT 6SM M01/M10 A2997 RMK T10101100 IEM_DS3505
ZBYN,2004-04-01 23:00,ZBYN 012300Z AUTO 04002KT 6SM 00/M08 A3000 RMK T00001080 IEM_DS3505
ZBYN,2004-04-02 00:00,ZBYN 020000Z AUTO 32004KT 12SM 08/M08 A3000 RMK SLP180 T00781082 52014 IEM_DS3505
ZBYN,2004-04-02 01:00,ZBYN 020100Z AUTO 32002KT 6SM 09/M12 A3003 RMK T00901120 IEM_DS3505
ZBYN,2004-04-02 02:00,ZBYN 020200Z AUTO 33010KT 6SM 12/M16 A3000 RMK T01201160 IEM_DS3505
ZBYN,2004-04-02 03:00,ZBYN 020300Z AUTO 27012KT 16SM 14/M11 A3000 RMK SLP168 T01431111 57007 IEM_DS3505
ZBYN,2004-04-02 04:00,ZBYN 020400Z AUTO 30017KT 6SM 15/M15 A2997 RMK T01501150 IEM_DS3505
ZBYN,2004-04-02 05:00,ZBYN 020500Z AUTO 27016KT 6SM 16/M14 A2994 RMK T01601140 IEM_DS3505
ZBYN,2004-04-02 06:00,ZBYN 020600Z AUTO 36010KT 12SM 14/M10 A2994 RMK SLP152 T01411098 57020 IEM_DS3505
ZBYN,2004-04-02 07:00,ZBYN 020700Z AUTO 35014KT 6SM 14/M14 A2994 RMK T01401140 IEM_DS3505
ZBYN,2004-04-02 08:00,ZBYN 020800Z AUTO 36014KT 6SM 12/M11 A2994 RMK T01201110 IEM_DS3505
ZBYN,2004-04-02 09:00,ZBYN 020900Z AUTO 36010KT 11SM 09/M06 A2994 RMK SLP175 T00901060 52010 IEM_DS3505
ZBYN,2004-04-02 10:00,ZBYN 021000Z AUTO 35010KT 6SM 08/M09 A2997 RMK T00801090 IEM_DS3505
ZBYN,2004-04-02 11:00,ZBYN 021100Z AUTO 05008KT 6SM 08/M08 A3003 RMK T00801080 IEM_DS3505
ZBYN,2004-04-02 12:00,ZBYN 021200Z AUTO 02008KT 11SM 05/M05 A3009 RMK SLP216 T00531051 52040 IEM_DS3505
ZBYN,2004-04-02 13:00,ZBYN 021300Z AUTO 05012KT 6SM 06/M07 A3012 RMK T00601070 IEM_DS3505
ZBYN,2004-04-02 14:00,ZBYN 021400Z AUTO 35006KT 6SM 03/M03 A3015 RMK T00301030 IEM_DS3505
ZBYN,2004-04-02 15:00,ZBYN 021500Z AUTO 36008KT 6SM 02/M01 A3015 RMK SLP237 T00181006 52024 IEM_DS3505
ZBYN,2004-04-02 16:00,ZBYN 021600Z AUTO 34006KT 6SM 02/M02 A3015 RMK T00201020 IEM_DS3505
ZBYN,2004-04-02 17:00,ZBYN 021700Z AUTO 05008KT 6SM 02/M03 A3018 RMK T00201030 IEM_DS3505
ZBYN,2004-04-02 18:00,ZBYN 021800Z AUTO 02006KT 6SM 02/M02 A3021 RMK SLP252 T00231018 52014 IEM_DS3505
ZBYN,2004-04-02 19:00,ZBYN 021900Z AUTO 05010KT 7SM 01/M04 A3024 RMK T00101040 IEM_DS3505
ZBYN,2004-04-02 20:00,ZBYN 022000Z AUTO 05006KT 6SM 01/M04 A3024 RMK T00101040 IEM_DS3505
ZBYN,2004-04-02 21:00,ZBYN 022100Z AUTO 32004KT 5SM 01/M01 A3027 RMK 70000 SLP286 T00061008 52020 IEM_DS3505
ZBYN,2004-04-02 22:00,ZBYN 022200Z AUTO 01006KT 6SM 00/M04 A3030 RMK T00001040 IEM_DS3505
ZBYN,2004-04-02 23:00,ZBYN 022300Z AUTO 36004KT 6SM M01/M04 A3033 RMK T10101040 IEM_DS3505
ZBYN,2004-04-03 00:00,ZBYN 030000Z AUTO 32006KT 6SM 02/M03 A3036 RMK 70000 SLP319 T00191026 52026 IEM_DS3505
ZBYN,2004-04-03 01:00,ZBYN 030100Z AUTO 6SM 03/M06 A3039 RMK T00301060 IEM_DS3505
ZBYN,2004-04-03 02:00,ZBYN 030200Z AUTO 6SM 05/M09 A3039 RMK T00501090 IEM_DS3505
ZBYN,2004-04-03 03:00,ZBYN 030300Z AUTO 36004KT 9SM 07/M05 A3039 RMK SLP325 T00691051 52008 IEM_DS3505
ZBYN,2004-04-03 04:00,ZBYN 030400Z AUTO 33004KT 6SM 07/M09 A3036 RMK T00701090 IEM_DS3505
ZBYN,2004-04-03 05:00,ZBYN 030500Z AUTO 30004KT 6SM 08/M10 A3033 RMK T00801100 IEM_DS3505
ZBYN,2004-04-03 06:00,ZBYN 030600Z AUTO 07006KT 11SM 10/M09 A3030 RMK SLP286 T00961089 57030 IEM_DS3505
ZBYN,2004-04-03 07:00,ZBYN 030700Z AUTO 6SM 10/M13 A3027 RMK T01001130 IEM_DS3505
ZBYN,2004-04-03 08:00,ZBYN 030800Z AUTO 16004KT 6SM 10/M13 A3024 RMK T01001130 IEM_DS3505
ZBYN,2004-04-03 09:00,ZBYN 030900Z AUTO 16008KT 9SM 11/M08 A3024 RMK SLP262 T01061085 57023 IEM_DS3505
ZBYN,2004-04-03 10:00,ZBYN 031000Z AUTO 21002KT 6SM 10/M14 A3021 RMK T01001140 IEM_DS3505
ZBYN,2004-04-03 11:00,ZBYN 031100Z AUTO 14002KT 6SM 07/M14 A3021 RMK T00701140 IEM_DS3505
ZBYN,2004-04-03 12:00,ZBYN 031200Z AUTO 07004KT 11SM 07/M07 A3024 RMK SLP274 T00721072 52007 IEM_DS3505
ZBYN,2004-04-03 13:00,ZBYN 031300Z AUTO 10002KT 6SM 03/M11 A3024 RMK T00301110 IEM_DS3505
ZBYN,2004-04-03 14:00,ZBYN 031400Z AUTO 09002KT 6SM 04/M11 A3024 RMK T00401110 IEM_DS3505
ZBYN,2004-04-03 15:00,ZBYN 031500Z AUTO 32002KT 7SM 04/M05 A3027 RMK SLP274 T00441046 52004 IEM_DS3505
ZBYN,2004-04-03 16:00,ZBYN 031600Z AUTO 12002KT 6SM 02/M10 A3024 RMK T00201100 IEM_DS3505
ZBYN,2004-04-03 17:00,ZBYN 031700Z AUTO 09002KT 6SM 00/M09 A3021 RMK T00001090 IEM_DS3505
ZBYN,2004-04-03 18:00,ZBYN 031800Z AUTO 32002KT 6SM 02/M06 A3021 RMK SLP258 T00191055 57014 IEM_DS3505
ZBYN,2004-04-03 19:00,ZBYN 031900Z AUTO 11002KT 6SM 00/M09 A3021 RMK T00001090 IEM_DS3505
ZBYN,2004-04-03 20:00,ZBYN 032000Z AUTO 07002KT 6SM M01/M09 A3018 RMK T10101090 IEM_DS3505
ZBYN,2004-04-03 21:00,ZBYN 032100Z AUTO 09002KT 6SM M01/M06 A3018 RMK SLP250 T10111058 57011 IEM_DS3505
ZBYN,2004-04-03 22:00,ZBYN 032200Z AUTO 12002KT 6SM M02/M08 A3015 RMK T10201080 IEM_DS3505
ZBYN,2004-04-03 23:00,ZBYN 032300Z AUTO 14002KT 6SM M01/M07 A3018 RMK T10101070 IEM_DS3505
ZBYN,2004-04-04 00:00,ZBYN 040000Z AUTO 14002KT 6SM 04/M04 A3018 RMK SLP249 T00391036 52002 IEM_DS3505
ZBYN,2004-04-04 01:00,ZBYN 040100Z AUTO 16004KT 6SM 05/M05 A3018 RMK T00501050 IEM_DS3505
ZBYN,2004-04-04 02:00,ZBYN 040200Z AUTO 19004KT 5SM 08/M06 A3015 RMK T00801060 IEM_DS3505
ZBYN,2004-04-04 03:00,ZBYN 040300Z AUTO 20006KT 6SM 11/M02 A3012 RMK SLP221 T01091018 57019 IEM_DS3505
ZBYN,2004-04-04 04:00,ZBYN 040400Z AUTO 19004KT 6SM 13/M06 A3009 RMK T01301060 IEM_DS3505
ZBYN,2004-04-04 05:00,ZBYN 040500Z AUTO 19004KT 6SM 14/M07 A3003 RMK T01401070 IEM_DS3505
ZBYN,2004-04-04 06:00,ZBYN 040600Z AUTO 16010KT 6SM 17/M04 A2997 RMK SLP167 T01681038 57044 IEM_DS3505
ZBYN,2004-04-04 07:00,ZBYN 040700Z AUTO 19004KT 6SM 18/M09 A2994 RMK T01801090 IEM_DS3505
ZBYN,2004-04-04 08:00,ZBYN 040800Z AUTO 21004KT 6SM 18/M09 A2988 RMK T01801090 IEM_DS3505
ZBYN,2004-04-04 09:00,ZBYN 040900Z AUTO 16008KT 7SM 19/M03 A2985 RMK SLP127 T01891032 57038 IEM_DS3505
ZBYN,2004-04-04 10:00,ZBYN 041000Z AUTO 25002KT 6SM 18/M06 A2985 RMK T01801060 IEM_DS3505
ZBYN,2004-04-04 11:00,ZBYN 041100Z AUTO 00000KT 6SM 15/M06 A2985 RMK T01501060 IEM_DS3505
ZBYN,2004-04-04 12:00,ZBYN 041200Z AUTO 11004KT 6SM 13/M01 A2985 RMK SLP123 T01311012 57005 IEM_DS3505
ZBYN,2004-04-04 13:00,ZBYN 041300Z AUTO 11004KT 6SM 09/M05 A2985 RMK T00901050 IEM_DS3505
ZBYN,2004-04-04 14:00,ZBYN 041400Z AUTO 12004KT 6SM 10/M04 A2985 RMK T01001040 IEM_DS3505
ZBYN,2004-04-04 15:00,ZBYN 041500Z AUTO 11002KT 6SM 09/M01 A2985 RMK SLP122 T00921006 52004 IEM_DS3505
ZBYN,2004-04-04 16:00,ZBYN 041600Z AUTO 10004KT 6SM 07/M03 A2985 RMK T00701030 IEM_DS3505
ZBYN,2004-04-04 17:00,ZBYN 041700Z AUTO 11002KT 6SM 07/M03 A2983 RMK T00701030 IEM_DS3505
ZBYN,2004-04-04 18:00,ZBYN 041800Z AUTO 16002KT 6SM 10/M00 A2980 RMK SLP098 T00961003 57012 IEM_DS3505
ZBYN,2004-04-04 19:00,ZBYN 041900Z AUTO 11004KT 6SM 07/M02 A2980 RMK T00701020 IEM_DS3505
ZBYN,2004-04-04 21:00,ZBYN 042100Z AUTO 14004KT 6SM 08/00 A2977 RMK SLP074 T00770002 57022 IEM_DS3505
ZBYN,2004-04-04 22:00,ZBYN 042200Z AUTO 12004KT 6SM 05/M02 A2974 RMK T00501020 IEM_DS3505
ZBYN,2004-04-04 23:00,ZBYN 042300Z AUTO 13002KT 06/M01 A2977 RMK T00601010 IEM_DS3505
ZBYN,2004-04-05 00:00,ZBYN 050000Z AUTO 27002KT 5SM 10/02 A2977 RMK SLP087 T00950019 52006 IEM_DS3505
ZBYN,2004-04-05 01:00,ZBYN 050100Z AUTO 11/M01 RMK T01101010 IEM_DS3505
ZBYN,2004-04-05 02:00,ZBYN 050200Z AUTO 14/00 A2977 RMK T01400000 IEM_DS3505
ZBYN,2004-04-05 03:00,ZBYN 050300Z AUTO 34002KT 5SM 16/03 A2977 RMK SLP079 T01590027 57004 IEM_DS3505
ZBYN,2004-04-05 04:00,ZBYN 050400Z AUTO 22006KT 17/01 A2974 RMK T01700010 IEM_DS3505
ZBYN,2004-04-05 05:00,ZBYN 050500Z AUTO 21004KT 19/01 A2971 RMK T01900010 IEM_DS3505
ZBYN,2004-04-05 06:00,ZBYN 050600Z AUTO 25004KT 6SM 22/03 A2968 RMK SLP038 T02180030 57028 IEM_DS3505
ZBYN,2004-04-05 07:00,ZBYN 050700Z AUTO 25004KT 22/01 A2965 RMK T02200010 IEM_DS3505
ZBYN,2004-04-05 08:00,ZBYN 050800Z AUTO 29006KT 22/02 A2965 RMK T02200020 IEM_DS3505
ZBYN,2004-04-05 09:00,ZBYN 050900Z AUTO 32012KT 6SM 20/04 A2968 RMK SLP057 T01960038 52012 IEM_DS3505
ZBYN,2004-04-05 10:00,ZBYN 051000Z AUTO 33008KT 7SM 18/02 A2971 RMK T01800020 IEM_DS3505
ZBYN,2004-04-05 11:00,ZBYN 051100Z AUTO 11012KT 7SM 16/02 A2974 RMK T01600020 IEM_DS3505
ZBYN,2004-04-05 12:00,ZBYN 051200Z AUTO 08012KT 7SM 15/03 A2977 RMK T01500030 IEM_DS3505
ZBYN,2004-04-05 13:00,ZBYN 051300Z AUTO 07017KT 6SM 13/01 A2977 RMK T01300010 IEM_DS3505
ZBYN,2004-04-05 14:00,ZBYN 051400Z AUTO 07017KT 6SM 11/M01 A2980 RMK T01101010 IEM_DS3505
ZBYN,2004-04-05 15:00,ZBYN 051500Z AUTO 02004KT 7SM 14/02 A2985 RMK SLP106 T01400023 52035 IEM_DS3505
ZBYN,2004-04-05 16:00,ZBYN 051600Z AUTO 10012KT 6SM 11/M01 A2985 RMK T01101010 IEM_DS3505
ZBYN,2004-04-05 17:00,ZBYN 051700Z AUTO 10012KT 6SM 09/00 A2985 RMK T00900000 IEM_DS3505
ZBYN,2004-04-05 18:00,ZBYN 051800Z AUTO 09006KT 6SM 10/02 A2985 RMK 60000 SLP105 T00960025 52001 IEM_DS3505
ZBYN,2004-04-05 19:00,ZBYN 051900Z AUTO 07012KT 6SM 09/01 A2985 RMK T00900010 IEM_DS3505
ZBYN,2004-04-05 20:00,ZBYN 052000Z AUTO 08010KT 6SM 08/01 A2988 RMK T00800010 IEM_DS3505
ZBYN,2004-04-05 21:00,ZBYN 052100Z AUTO 14002KT 6SM 07/03 A2991 RMK 70000 SLP130 T00690026 52016 IEM_DS3505
ZBYN,2004-04-05 22:00,ZBYN 052200Z AUTO 08012KT 5SM 07/01 A2994 RMK T00700010 IEM_DS3505
ZBYN,2004-04-05 23:00,ZBYN 052300Z AUTO 07012KT 1 1/2SM 07/01 A2997 RMK T00700010 IEM_DS3505
ZBYN,2004-04-06 00:00,ZBYN 060000Z AUTO 07012KT 5SM 09/01 A3003 RMK 70000 SLP176 T00910006 52039 IEM_DS3505
ZBYN,2004-04-06 01:00,ZBYN 060100Z AUTO 08014KT 5SM 08/M01 A3006 RMK T00801010 IEM_DS3505
ZBYN,2004-04-06 02:00,ZBYN 060200Z AUTO 08016KT 5SM 08/M01 A3009 RMK T00801010 IEM_DS3505
ZBYN,2004-04-06 03:00,ZBYN 060300Z AUTO 07010KT 5SM 08/01 A3012 RMK SLP212 T00800007 52029 IEM_DS3505
ZBYN,2004-04-06 04:00,ZBYN 060400Z AUTO 07014KT 6SM 06/M01 A3012 RMK T00601010 IEM_DS3505
ZBYN,2004-04-06 05:00,ZBYN 060500Z AUTO 08012KT 6SM 06/M01 A3012 RMK T00601010 IEM_DS3505
ZBYN,2004-04-06 06:00,ZBYN 060600Z AUTO 09002KT 5SM 09/00 A3012 RMK SLP216 T00930005 57001 IEM_DS3505
ZBYN,2004-04-06 07:00,ZBYN 060700Z AUTO 07010KT 6SM 09/M02 A3009 RMK T00901020 IEM_DS3505
ZBYN,2004-04-06 08:00,ZBYN 060800Z AUTO 08010KT 7SM 09/M02 A3012 RMK T00901020 IEM_DS3505
ZBYN,2004-04-06 09:00,ZBYN 060900Z AUTO 34008KT 6SM 10/00 A3012 RMK SLP224 T01010005 52004 IEM_DS3505
ZBYN,2004-04-06 10:00,ZBYN 061000Z AUTO 34006KT 6SM 09/M01 A3015 RMK T00901010 IEM_DS3505
ZBYN,2004-04-06 11:00,ZBYN 061100Z AUTO 35006KT 6SM 08/M01 A3018 RMK T00801010 IEM_DS3505
ZBYN,2004-04-06 12:00,ZBYN 061200Z AUTO 32004KT 6SM 07/01 A3021 RMK SLP253 T00700011 52025 IEM_DS3505
ZBYN,2004-04-06 13:00,ZBYN 061300Z AUTO 05002KT 6SM 04/M02 A3024 RMK T00401020 IEM_DS3505
ZBYN,2004-04-06 14:00,ZBYN 061400Z AUTO 09002KT 6SM 04/M01 A3027 RMK T00401010 IEM_DS3505
ZBYN,2004-04-06 15:00,ZBYN 061500Z AUTO 00000KT 6SM 05/01 A3030 RMK SLP286 T00470007 52025 IEM_DS3505
ZBYN,2004-04-06 16:00,ZBYN 061600Z AUTO 14004KT 6SM 00/M03 A3030 RMK T00001030 IEM_DS3505
ZBYN,2004-04-06 17:00,ZBYN 061700Z AUTO 13004KT 6SM 01/M04 A3030 RMK T00101040 IEM_DS3505
ZBYN,2004-04-06 18:00,ZBYN 061800Z AUTO 36002KT 6SM 03/M00 A3030 RMK SLP293 T00321001 52006 IEM_DS3505
ZBYN,2004-04-06 19:00,ZBYN 061900Z AUTO 02002KT 6SM 00/M04 A3030 RMK T00001040 IEM_DS3505
ZBYN,2004-04-06 20:00,ZBYN 062000Z AUTO 6SM M02/M05 A3033 RMK T10201050 IEM_DS3505
ZBYN,2004-04-06 21:00,ZBYN 062100Z AUTO 14004KT 6SM M01/M03 A3036 RMK SLP314 T10101029 52014 IEM_DS3505
ZBYN,2004-04-06 22:00,ZBYN 062200Z AUTO 03004KT 6SM M03/M06 A3036 RMK T10301060 IEM_DS3505
ZBYN,2004-04-06 23:00,ZBYN 062300Z AUTO 00000KT 6SM M02/M06 A3039 RMK T10201060 IEM_DS3505
ZBYN,2004-04-07 00:00,ZBYN 070000Z AUTO 34002KT 9SM 05/M04 A3039 RMK SLP321 T00531042 52011 IEM_DS3505
ZBYN,2004-04-07 01:00,ZBYN 070100Z AUTO 34006KT 6SM 07/M14 A3039 RMK T00701140 IEM_DS3505
ZBYN,2004-04-07 02:00,ZBYN 070200Z AUTO 33010KT 6SM 09/M16 A3039 RMK T00901160 IEM_DS3505
ZBYN,2004-04-07 03:00,ZBYN 070300Z AUTO 34004KT 9SM 11/M13 A3039 RMK SLP310 T01111129 57004 IEM_DS3505
ZBYN,2004-04-07 04:00,ZBYN 070400Z AUTO 33006KT 6SM 12/M18 A3036 RMK T01201180 IEM_DS3505
ZBYN,2004-04-07 06:00,ZBYN 070600Z AUTO 20004KT 9SM 15/M10 A3027 RMK SLP269 T01531103 57033 IEM_DS3505
ZBYN,2004-04-07 07:00,ZBYN 070700Z AUTO 23004KT 6SM 15/M16 A3024 RMK T01501160 IEM_DS3505
ZBYN,2004-04-07 08:00,ZBYN 070800Z AUTO 25004KT 6SM 16/M14 A3021 RMK T01601140 IEM_DS3505
ZBYN,2004-04-07 09:00,ZBYN 070900Z AUTO 18008KT 9SM 16/M06 A3021 RMK SLP245 T01591063 57028 IEM_DS3505
ZBYN,2004-04-07 10:00,ZBYN 071000Z AUTO 21004KT 6SM 15/M12 A3018 RMK T01501120 IEM_DS3505
ZBYN,2004-04-07 11:00,ZBYN 071100Z AUTO 15002KT 6SM 13/M11 A3021 RMK T01301110 IEM_DS3505
ZBYN,2004-04-07 12:00,ZBYN 071200Z AUTO 32004KT 9SM 12/M11 A3021 RMK SLP250 T01211107 52009 IEM_DS3505
ZBYN,2004-04-07 13:00,ZBYN 071300Z AUTO 31006KT 6SM 09/M14 A3024 RMK T00901140 IEM_DS3505
ZBYN,2004-04-07 14:00,ZBYN 071400Z AUTO 12004KT 6SM 03/M09 A3024 RMK T00301090 IEM_DS3505
ZBYN,2004-04-07 15:00,ZBYN 071500Z AUTO 14004KT 9SM 08/M09 A3024 RMK SLP257 T00811088 52009 IEM_DS3505
ZBYN,2004-04-07 16:00,ZBYN 071600Z AUTO 11002KT 6SM 01/M10 A3024 RMK T00101100 IEM_DS3505
ZBYN,2004-04-07 17:00,ZBYN 071700Z AUTO 10004KT 6SM 01/M10 A3024 RMK T00101100 IEM_DS3505
ZBYN,2004-04-07 18:00,ZBYN 071800Z AUTO 14004KT 9SM 03/M08 A3021 RMK SLP251 T00311085 57007 IEM_DS3505
ZBYN,2004-04-07 19:00,ZBYN 071900Z AUTO 11004KT 6SM 00/M10 A3021 RMK T00001100 IEM_DS3505
ZBYN,2004-04-07 20:00,ZBYN 072000Z AUTO 11004KT 6SM M01/M10 A3021 RMK T10101100 IEM_DS3505
ZBYN,2004-04-07 21:00,ZBYN 072100Z AUTO 22002KT 9SM 01/M06 A3018 RMK SLP244 T00121063 57008 IEM_DS3505
ZBYN,2004-04-07 22:00,ZBYN 072200Z AUTO 09002KT 6SM 00/M11 A3018 RMK T00001110 IEM_DS3505
ZBYN,2004-04-07 23:00,ZBYN 072300Z AUTO 09002KT 6SM 00/M09 A3018 RMK T00001090 IEM_DS3505
ZBYN,2004-04-08 00:00,ZBYN 080000Z AUTO 16002KT 7SM 06/M06 A3018 RMK SLP243 T00611061 54000 IEM_DS3505
ZBYN,2004-04-08 01:00,ZBYN 080100Z AUTO 15004KT 08/M09 A3018 RMK T00801090 IEM_DS3505
ZBYN,2004-04-08 02:00,ZBYN 080200Z AUTO 21004KT 6SM 12/M13 A3015 RMK T01201130 IEM_DS3505
ZBYN,2004-04-08 03:00,ZBYN 080300Z AUTO 18010KT 6SM 15/M08 A3012 RMK SLP212 T01521075 57020 IEM_DS3505
ZBYN,2004-04-08 04:00,ZBYN 080400Z AUTO 24006KT 6SM 17/M14 A3009 RMK T01701140 IEM_DS3505
ZBYN,2004-04-08 05:00,ZBYN 080500Z AUTO 24008KT 6SM 19/M13 A3006 RMK T01901130 IEM_DS3505
ZBYN,2004-04-08 06:00,ZBYN 080600Z AUTO 20010KT 7SM 21/M09 A3003 RMK SLP169 T02131092 57038 IEM_DS3505
ZBYN,2004-04-08 07:00,ZBYN 080700Z AUTO 23008KT 6SM 21/M13 A2997 RMK T02101130 IEM_DS3505
ZBYN,2004-04-08 08:00,ZBYN 080800Z AUTO 23006KT 6SM 22/M14 A2994 RMK T02201140 IEM_DS3505
ZBYN,2004-04-08 09:00,ZBYN 080900Z AUTO 20010KT 7SM 23/M09 A2994 RMK SLP138 T02291090 57028 IEM_DS3505
ZBYN,2004-04-08 10:00,ZBYN 081000Z AUTO 23008KT 6SM 21/M14 A2994 RMK T02101140 IEM_DS3505
ZBYN,2004-04-08 11:00,ZBYN 081100Z AUTO 23004KT 6SM 18/M12 A2994 RMK T01801120 IEM_DS3505
ZBYN,2004-04-08 12:00,ZBYN 081200Z AUTO 22004KT 9SM 17/M10 A2994 RMK SLP149 T01731095 52009 IEM_DS3505
ZBYN,2004-04-08 13:00,ZBYN 081300Z AUTO 6SM 12/M09 A2997 RMK T01201090 IEM_DS3505
ZBYN,2004-04-08 14:00,ZBYN 081400Z AUTO 08002KT 6SM 10/M08 A3000 RMK T01001080 IEM_DS3505
ZBYN,2004-04-08 15:00,ZBYN 081500Z AUTO 09004KT 9SM 09/M04 A3000 RMK SLP165 T00921040 52016 IEM_DS3505
ZBYN,2004-04-08 16:00,ZBYN 081600Z AUTO 08002KT 6SM 07/M07 A3000 RMK T00701070 IEM_DS3505
ZBYN,2004-04-08 17:00,ZBYN 081700Z AUTO 08004KT 6SM 05/M07 A3000 RMK T00501070 IEM_DS3505
ZBYN,2004-04-08 18:00,ZBYN 081800Z AUTO 20002KT 9SM 06/M03 A2997 RMK SLP156 T00601031 57004 IEM_DS3505
ZBYN,2004-04-08 19:00,ZBYN 081900Z AUTO 07006KT 6SM 06/M07 A2997 RMK T00601070 IEM_DS3505
ZBYN,2004-04-08 20:00,ZBYN 082000Z AUTO 08002KT 6SM 05/M07 A2994 RMK T00501070 IEM_DS3505
ZBYN,2004-04-08 21:00,ZBYN 082100Z AUTO 29002KT 9SM 03/M03 A2994 RMK SLP148 T00311026 57009 IEM_DS3505
ZBYN,2004-04-08 22:00,ZBYN 082200Z AUTO 00000KT 6SM 03/M09 A2994 RMK T00301090 IEM_DS3505
ZBYN,2004-04-08 23:00,ZBYN 082300Z AUTO 12002KT 5SM 02/M07 A2997 RMK T00201070 IEM_DS3505
ZBYN,2004-04-09 00:00,ZBYN 090000Z AUTO 14002KT 6SM 09/M02 A2997 RMK SLP153 T00861015 52004 IEM_DS3505
ZBYN,2004-04-09 01:00,ZBYN 090100Z AUTO 00000KT 12/M11 A2994 RMK T01201110 IEM_DS3505
ZBYN,2004-04-09 02:00,ZBYN 090200Z AUTO 6SM 15/M10 A2994 RMK T01501100 IEM_DS3505
ZBYN,2004-04-09 03:00,ZBYN 090300Z AUTO 22004KT 6SM 18/M10 A2991 RMK SLP131 T01811097 57018 IEM_DS3505
ZBYN,2004-04-09 04:00,ZBYN 090400Z AUTO 6SM 19/M12 A2988 RMK T01901120 IEM_DS3505
ZBYN,2004-04-09 05:00,ZBYN 090500Z AUTO 22004KT 6SM 22/M14 A2985 RMK T02201140 IEM_DS3505
ZBYN,2004-04-09 06:00,ZBYN 090600Z AUTO 16006KT 6SM 23/M06 A2983 RMK SLP094 T02271061 57032 IEM_DS3505
ZBYN,2004-04-09 07:00,ZBYN 090700Z AUTO 25006KT 6SM 22/M14 A2980 RMK T02201140 IEM_DS3505
ZBYN,2004-04-09 08:00,ZBYN 090800Z AUTO 24008KT 6SM 22/M11 A2977 RMK T02201110 IEM_DS3505
ZBYN,2004-04-09 09:00,ZBYN 090900Z AUTO 20006KT 6SM 22/M06 A2977 RMK SLP084 T02151061 57015 IEM_DS3505
ZBYN,2004-04-09 10:00,ZBYN 091000Z AUTO 23006KT 6SM 20/M11 A2977 RMK T02001110 IEM_DS3505
ZBYN,2004-04-09 11:00,ZBYN 091100Z AUTO 16004KT 6SM 17/M09 A2977 RMK T01701090 IEM_DS3505
ZBYN,2004-04-09 12:00,ZBYN 091200Z AUTO 20010KT 6SM 18/M04 A2980 RMK SLP089 T01771042 52007 IEM_DS3505
ZBYN,2004-04-09 13:00,ZBYN 091300Z AUTO 24004KT 6SM 16/M06 A2983 RMK T01601060 IEM_DS3505
ZBYN,2004-04-09 14:00,ZBYN 091400Z AUTO 11004KT 6SM 16/M05 A2983 RMK T01601050 IEM_DS3505
ZBYN,2004-04-09 15:00,ZBYN 091500Z AUTO 11004KT 6SM 16/M02 A2983 RMK SLP084 T01571022 52007 IEM_DS3505
ZBYN,2004-04-09 16:00,ZBYN 091600Z AUTO 20004KT 6SM 14/M01 A2983 RMK T01401010 IEM_DS3505
ZBYN,2004-04-09 17:00,ZBYN 091700Z AUTO 11004KT 6SM 12/00 A2980 RMK T01200000 IEM_DS3505
ZBYN,2004-04-09 18:00,ZBYN 091800Z AUTO 14004KT 6SM 13/03 A2980 RMK SLP079 T01330031 57002 IEM_DS3505
ZBYN,2004-04-09 19:00,ZBYN 091900Z AUTO 04004KT 6SM 12/01 A2980 RMK T01200010 IEM_DS3505
ZBYN,2004-04-09 20:00,ZBYN 092000Z AUTO 00000KT 6SM 12/01 A2980 RMK T01200010 IEM_DS3505
ZBYN,2004-04-09 21:00,ZBYN 092100Z AUTO 09002KT 6SM 12/04 A2977 RMK SLP070 T01220037 57011 IEM_DS3505
ZBYN,2004-04-09 22:00,ZBYN 092200Z AUTO 11004KT 6SM 09/01 A2977 RMK T00900010 IEM_DS3505
ZBYN,2004-04-09 23:00,ZBYN 092300Z AUTO 17002KT 6SM 12/02 A2980 RMK T01200020 IEM_DS3505
ZBYN,2004-04-10 00:00,ZBYN 100000Z AUTO 11004KT 5SM 13/05 A2980 RMK SLP088 T01270049 52011 IEM_DS3505
ZBYN,2004-04-10 01:00,ZBYN 100100Z AUTO 21004KT 6SM 14/03 A2980 RMK T01400030 IEM_DS3505
ZBYN,2004-04-10 02:00,ZBYN 100200Z AUTO 24004KT 6SM 15/02 A2980 RMK T01500020 IEM_DS3505
ZBYN,2004-04-10 03:00,ZBYN 100300Z AUTO 29002KT 5SM 18/02 A2980 RMK SLP081 T01760024 57002 IEM_DS3505
ZBYN,2004-04-10 04:00,ZBYN 100400Z AUTO 6SM 19/M01 A2977 RMK T01901010 IEM_DS3505
ZBYN,2004-04-10 04:30,ZBYN 100430Z AUTO 6SM 20/M03 A2977 RMK T02001030 IEM_DS3505
ZBYN,2004-04-10 05:00,ZBYN 100500Z AUTO 34004KT 6SM 21/M06 A2974 RMK T02101060 IEM_DS3505
ZBYN,2004-04-10 06:00,ZBYN 100600Z AUTO 07004KT 6SM 24/M03 A2971 RMK SLP047 T02381026 57025 IEM_DS3505
ZBYN,2004-04-10 07:00,ZBYN 100700Z AUTO 23004KT 6SM 23/M07 A2971 RMK T02301070 IEM_DS3505
ZBYN,2004-04-10 08:00,ZBYN 100800Z AUTO 6SM 24/M09 A2968 RMK T02401090 IEM_DS3505
ZBYN,2004-04-10 09:00,ZBYN 100900Z AUTO 25006KT 12SM 25/M02 A2968 RMK SLP034 T02511024 57012 IEM_DS3505
ZBYN,2004-04-10 10:00,ZBYN 101000Z AUTO 24006KT 6SM 23/M05 A2971 RMK T02301050 IEM_DS3505
ZBYN,2004-04-10 11:00,ZBYN 101100Z AUTO 22006KT 6SM 20/M03 A2971 RMK T02001030 IEM_DS3505
ZBYN,2004-04-10 12:00,ZBYN 101200Z AUTO 20006KT 12SM 20/M00 A2974 RMK SLP061 T01961004 52018 IEM_DS3505
ZBYN,2004-04-10 13:00,ZBYN 101300Z AUTO 11006KT 6SM 17/M03 A2977 RMK T01701030 IEM_DS3505
ZBYN,2004-04-10 14:00,ZBYN 101400Z AUTO 12006KT 6SM 12/00 A2980 RMK T01200000 IEM_DS3505
ZBYN,2004-04-10 15:00,ZBYN 101500Z AUTO 09002KT 9SM 14/03 A2980 RMK SLP089 T01370026 52024 IEM_DS3505
ZBYN,2004-04-10 16:00,ZBYN 101600Z AUTO 13004KT 6SM 12/01 A2983 RMK T01200010 IEM_DS3505
ZBYN,2004-04-10 17:00,ZBYN 101700Z AUTO 12004KT 6SM 10/01 A2983 RMK T01000010 IEM_DS3505
ZBYN,2004-04-10 18:00,ZBYN 101800Z AUTO 32002KT 6SM 10/04 A2983 RMK SLP092 T01050038 52007 IEM_DS3505
ZBYN,2004-04-10 19:00,ZBYN 101900Z AUTO 10002KT 6SM 07/01 A2983 RMK T00700010 IEM_DS3505
ZBYN,2004-04-10 20:00,ZBYN 102000Z AUTO 10002KT 6SM 07/01 A2983 RMK T00700010 IEM_DS3505
ZBYN,2004-04-10 21:00,ZBYN 102100Z AUTO 29002KT 6SM 08/04 A2983 RMK SLP096 T00850038 52002 IEM_DS3505
ZBYN,2004-04-10 22:00,ZBYN 102200Z AUTO 00000KT 6SM 06/01 A2985 RMK T00600010 IEM_DS3505
ZBYN,2004-04-10 23:00,ZBYN 102300Z AUTO 14004KT 4SM 07/02 A2988 RMK T00700020 IEM_DS3505
ZBYN,2004-04-11 00:00,ZBYN 110000Z AUTO 09002KT 6SM 11/05 A2988 RMK SLP120 T01110050 52018 IEM_DS3505
ZBYN,2004-04-11 01:00,ZBYN 110100Z AUTO 00000KT 14/01 A2988 RMK T01400010 IEM_DS3505
ZBYN,2004-04-11 02:00,ZBYN 110200Z AUTO 17/00 A2988 RMK T01700000 IEM_DS3505
ZBYN,2004-04-11 03:00,ZBYN 110300Z AUTO 14004KT 6SM 20/02 A2985 RMK SLP102 T02040023 57011 IEM_DS3505
ZBYN,2004-04-11 04:00,ZBYN 110400Z AUTO 5SM 22/M03 A2985 RMK T02201030 IEM_DS3505
ZBYN,2004-04-11 05:00,ZBYN 110500Z AUTO 6SM 24/M05 A2983 RMK T02401050 IEM_DS3505
ZBYN,2004-04-11 06:00,ZBYN 110600Z AUTO 20004KT 6SM 26/00 RMK SLP075 T02570004 57022 IEM_DS3505
ZBYN,2004-04-11 07:00,ZBYN 110700Z AUTO 23004KT 6SM 27/M10 A2977 RMK T02701100 IEM_DS3505
ZBYN,2004-04-11 08:00,ZBYN 110800Z AUTO 6SM 27/M10 A2977 RMK T02701100 IEM_DS3505
ZBYN,2004-04-11 09:00,ZBYN 110900Z AUTO 22004KT 9SM 26/M04 A2974 RMK SLP062 T02631042 57014 IEM_DS3505
ZBYN,2004-04-11 10:00,ZBYN 111000Z AUTO 08014KT 6SM 23/M07 A2977 RMK T02301070 IEM_DS3505
ZBYN,2004-04-11 11:00,ZBYN 111100Z AUTO 09012KT 6SM 21/M04 A2980 RMK T02101040 IEM_DS3505
ZBYN,2004-04-11 12:00,ZBYN 111200Z AUTO 04004KT 6SM 21/M01 A2983 RMK SLP092 T02131012 52024 IEM_DS3505
ZBYN,2004-04-11 13:00,ZBYN 111300Z AUTO 08016KT 6SM 19/M01 A2985 RMK T01901010 IEM_DS3505
ZBYN,2004-04-11 14:00,ZBYN 111400Z AUTO 07010KT 6SM 18/01 A2988 RMK T01800010 IEM_DS3505
ZBYN,2004-04-11 15:00,ZBYN 111500Z AUTO 36002KT 6SM 18/04 A2988 RMK SLP104 T01850043 52020 IEM_DS3505
ZBYN,2004-04-11 16:00,ZBYN 111600Z AUTO 05010KT 6SM 16/04 A2991 RMK T01600040 IEM_DS3505
ZBYN,2004-04-11 17:00,ZBYN 111700Z AUTO 08012KT 6SM 16/05 A2988 RMK T01600050 IEM_DS3505
ZBYN,2004-04-11 18:00,ZBYN 111800Z AUTO 02002KT 6SM 16/02 A2985 RMK SLP092 T01610022 57007 IEM_DS3505
ZBYN,2004-04-11 19:00,ZBYN 111900Z AUTO 03006KT 6SM 14/05 A2988 RMK T01400050 IEM_DS3505
ZBYN,2004-04-11 20:00,ZBYN 112000Z AUTO 07006KT 6SM 14/05 A2985 RMK T01400050 IEM_DS3505
ZBYN,2004-04-11 21:00,ZBYN 112100Z AUTO 29004KT 6SM 13/04 A2988 RMK SLP100 T01290041 52004 IEM_DS3505
ZBYN,2004-04-11 22:00,ZBYN 112200Z AUTO 07002KT 4SM 11/04 A2988 RMK T01100040 IEM_DS3505
ZBYN,2004-04-11 23:00,ZBYN 112300Z AUTO 3SM 11/05 A2988 RMK T01100050 IEM_DS3505
ZBYN,2004-04-12 00:00,ZBYN 120000Z AUTO 34004KT 5SM 15/04 A2994 RMK SLP126 T01480042 52019 IEM_DS3505
ZBYN,2004-04-12 01:00,ZBYN 120100Z AUTO 32006KT 2 1/2SM 16/05 A2994 RMK T01600050 IEM_DS3505
ZBYN,2004-04-12 02:00,ZBYN 120200Z AUTO 34004KT 2 1/2SM 17/04 A2994 RMK T01700040 IEM_DS3505
ZBYN,2004-04-12 03:00,ZBYN 120300Z AUTO 34006KT 5SM 20/03 A2994 RMK SLP120 T02030031 57001 IEM_DS3505
ZBYN,2004-04-12 04:00,ZBYN 120400Z AUTO 30004KT 5SM 21/01 A2991 RMK T02100010 IEM_DS3505
ZBYN,2004-04-12 05:00,ZBYN 120500Z AUTO 32008KT 6SM 23/M05 A2988 RMK T02301050 IEM_DS3505
ZBYN,2004-04-12 06:00,ZBYN 120600Z AUTO 22002KT 5SM 23/00 A2985 RMK SLP091 T02320004 57026 IEM_DS3505
ZBYN,2004-04-12 07:00,ZBYN 120700Z AUTO 25008KT 6SM 22/00 A2985 RMK T02200000 IEM_DS3505
ZBYN,2004-04-12 08:00,ZBYN 120800Z AUTO 26008KT 5SM 21/00 A2985 RMK T02100000 IEM_DS3505
ZBYN,2004-04-12 09:00,ZBYN 120900Z AUTO 29010KT 7SM 22/M03 A2985 RMK SLP100 T02221032 52002 IEM_DS3505
ZBYN,2004-04-12 09:30,ZBYN 120930Z AUTO 29010KT 6SM 21/M07 A2985 RMK T02101070 IEM_DS3505
ZBYN,2004-04-12 10:00,ZBYN 121000Z AUTO 30012KT 6SM 21/M10 A2988 RMK T02101100 IEM_DS3505
ZBYN,2004-04-12 10:30,ZBYN 121030Z AUTO 31010KT 6SM 20/M09 A2988 RMK T02001090 IEM_DS3505
ZBYN,2004-04-12 11:00,ZBYN 121100Z AUTO 30008KT 6SM 20/M08 A2988 RMK T02001080 IEM_DS3505
ZBYN,2004-04-12 12:00,ZBYN 121200Z AUTO 32012KT 7SM 20/M03 A2994 RMK SLP126 T02021034 52024 IEM_DS3505
ZBYN,2004-04-12 13:00,ZBYN 121300Z AUTO 30008KT 6SM 19/M09 A2997 RMK T01901090 IEM_DS3505
ZBYN,2004-04-12 14:00,ZBYN 121400Z AUTO 34008KT 6SM 19/M12 A2997 RMK T01901120 IEM_DS3505
ZBYN,2004-04-12 15:00,ZBYN 121500Z AUTO 02004KT 7SM 18/M06 A3000 RMK SLP151 T01841056 52028 IEM_DS3505
ZBYN,2004-04-12 16:00,ZBYN 121600Z AUTO 04002KT 6SM 17/M07 A3003 RMK T01701070 IEM_DS3505
ZBYN,2004-04-12 17:00,ZBYN 121700Z AUTO 36010KT 6SM 15/M10 A3003 RMK T01501100 IEM_DS3505
ZBYN,2004-04-12 18:00,ZBYN 121800Z AUTO 34006KT 7SM 15/M06 A3003 RMK SLP160 T01531062 52008 IEM_DS3505
ZBYN,2004-04-12 19:00,ZBYN 121900Z AUTO 34010KT 6SM 13/M09 A3003 RMK T01301090 IEM_DS3505
ZBYN,2004-04-12 20:00,ZBYN 122000Z AUTO 35016KT 6SM 12/M11 A3003 RMK T01201110 IEM_DS3505
ZBYN,2004-04-12 21:00,ZBYN 122100Z AUTO 02006KT 7SM 12/M09 A3009 RMK SLP179 T01241086 52012 IEM_DS3505
ZBYN,2004-04-12 22:00,ZBYN 122200Z AUTO 31008KT 6SM 09/M11 A3012 RMK T00901110 IEM_DS3505
ZBYN,2004-04-12 23:00,ZBYN 122300Z AUTO 01006KT 6SM 11/M12 A3015 RMK T01101120 IEM_DS3505
ZBYN,2004-04-13 00:00,ZBYN 130000Z AUTO 36004KT 11SM 13/M09 A3015 RMK SLP208 T01311093 52024 IEM_DS3505
ZBYN,2004-04-13 01:00,ZBYN 130100Z AUTO 33006KT 6SM 15/M14 A3015 RMK T01501140 IEM_DS3505
ZBYN,2004-04-13 02:00,ZBYN 130200Z AUTO 16006KT 6SM 16/M12 A3015 RMK T01601120 IEM_DS3505
ZBYN,2004-04-13 03:00,ZBYN 130300Z AUTO 02006KT 12SM 18/M11 A3015 RMK SLP194 T01791108 57008 IEM_DS3505
ZBYN,2004-04-13 04:00,ZBYN 130400Z AUTO 33006KT 6SM 18/M17 A3012 RMK T01801170 IEM_DS3505
ZBYN,2004-04-13 05:00,ZBYN 130500Z AUTO 06006KT 6SM 18/M16 A3006 RMK T01801160 IEM_DS3505
ZBYN,2004-04-13 06:00,ZBYN 130600Z AUTO 36006KT 16SM 20/M11 A3003 RMK SLP158 T02021111 57034 IEM_DS3505
ZBYN,2004-04-13 07:00,ZBYN 130700Z AUTO 32008KT 6SM 20/M17 A3000 RMK T02001170 IEM_DS3505
ZBYN,2004-04-13 08:00,ZBYN 130800Z AUTO 26010KT 6SM 20/M14 A3000 RMK T02001140 IEM_DS3505
ZBYN,2004-04-13 09:00,ZBYN 130900Z AUTO 29006KT 16SM 20/M13 A3000 RMK SLP154 T01981126 57009 IEM_DS3505
ZBYN,2004-04-13 10:00,ZBYN 131000Z AUTO 25008KT 6SM 18/M09 A3000 RMK T01801090 IEM_DS3505
ZBYN,2004-04-13 11:00,ZBYN 131100Z AUTO 26006KT 6SM 17/M09 A3003 RMK T01701090 IEM_DS3505
ZBYN,2004-04-13 12:00,ZBYN 131200Z AUTO 29004KT 16SM 17/M10 A3003 RMK SLP174 T01721104 52016 IEM_DS3505
ZBYN,2004-04-13 13:00,ZBYN 131300Z AUTO 30006KT 6SM 15/M14 A3009 RMK T01501140 IEM_DS3505
ZBYN,2004-04-13 14:00,ZBYN 131400Z AUTO 30006KT 6SM 14/M14 A3009 RMK T01401140 IEM_DS3505
ZBYN,2004-04-13 15:00,ZBYN 131500Z AUTO 29004KT 12SM 15/M10 A3009 RMK SLP190 T01501098 52018 IEM_DS3505
ZBYN,2004-04-13 17:00,ZBYN 131700Z AUTO 32004KT 6SM 11/M11 A3012 RMK T01101110 IEM_DS3505
ZBYN,2004-04-13 18:00,ZBYN 131800Z AUTO 34006KT 6SM 13/M14 A3012 RMK T01301140 IEM_DS3505
ZBYN,2004-04-13 19:00,ZBYN 131900Z AUTO 34006KT 6SM 12/M13 A3009 RMK T01201130 IEM_DS3505
ZBYN,2004-04-13 20:00,ZBYN 132000Z AUTO 33006KT 6SM 11/M13 A3009 RMK T01101130 IEM_DS3505
ZBYN,2004-04-13 21:00,ZBYN 132100Z AUTO 04002KT 9SM 10/M07 A3012 RMK SLP198 T00981069 52001 IEM_DS3505
ZBYN,2004-04-13 22:00,ZBYN 132200Z AUTO 6SM 08/M08 A3012 RMK T00801080 IEM_DS3505
ZBYN,2004-04-13 23:00,ZBYN 132300Z AUTO 16002KT 6SM 08/M08 A3012 RMK T00801080 IEM_DS3505
ZBYN,2004-04-14 00:00,ZBYN 140000Z AUTO 11004KT 6SM 12/M04 RMK T01251043 IEM_DS3505
ZBYN,2004-04-14 03:00,ZBYN 140300Z AUTO 20010KT 7SM 18/M05 A3012 RMK SLP197 T01751050 57004 IEM_DS3505
ZBYN,2004-04-14 04:00,ZBYN 140400Z AUTO 24006KT 6SM 18/M12 A3009 RMK T01801120 IEM_DS3505
ZBYN,2004-04-14 05:00,ZBYN 140500Z AUTO 21006KT 6SM 18/M13 A3006 RMK T01801130 IEM_DS3505
ZBYN,2004-04-14 06:00,ZBYN 140600Z AUTO 20008KT 9SM 21/M05 A3003 RMK SLP157 T02071051 57035 IEM_DS3505
ZBYN,2004-04-14 07:00,ZBYN 140700Z AUTO 6SM 20/M13 A3000 RMK T02001130 IEM_DS3505
ZBYN,2004-04-14 08:00,ZBYN 140800Z AUTO 21006KT 6SM 21/M13 A2997 RMK T02101130 IEM_DS3505
ZBYN,2004-04-14 09:00,ZBYN 140900Z AUTO 32006KT 11SM 20/M10 A2994 RMK SLP137 T02031099 57023 IEM_DS3505
ZBYN,2004-04-14 10:00,ZBYN 141000Z AUTO 30008KT 6SM 19/M16 A2994 RMK T01901160 IEM_DS3505
ZBYN,2004-04-14 11:00,ZBYN 141100Z AUTO 28004KT 6SM 17/M13 A2994 RMK T01701130 IEM_DS3505
ZBYN,2004-04-14 12:00,ZBYN 141200Z AUTO 27006KT 11SM 17/M07 A2997 RMK SLP146 T01671070 52007 IEM_DS3505
ZBYN,2004-04-14 13:00,ZBYN 141300Z AUTO 25004KT 6SM 13/M10 A2997 RMK T01301100 IEM_DS3505
ZBYN,2004-04-14 14:00,ZBYN 141400Z AUTO 14002KT 6SM 11/M09 A3000 RMK T01101090 IEM_DS3505
ZBYN,2004-04-14 15:00,ZBYN 141500Z AUTO 09006KT 9SM 12/M04 A3000 RMK SLP153 T01221044 52007 IEM_DS3505
ZBYN,2004-04-14 16:00,ZBYN 141600Z AUTO 12002KT 6SM 09/M06 A3000 RMK T00901060 IEM_DS3505
ZBYN,2004-04-14 17:00,ZBYN 141700Z AUTO 12004KT 6SM 09/M06 A3000 RMK T00901060 IEM_DS3505
ZBYN,2004-04-14 18:00,ZBYN 141800Z AUTO 11006KT 9SM 09/M03 A2997 RMK SLP145 T00931032 57007 IEM_DS3505
ZBYN,2004-04-14 19:00,ZBYN 141900Z AUTO 12004KT 6SM 06/M05 A2997 RMK T00601050 IEM_DS3505
ZBYN,2004-04-14 20:00,ZBYN 142000Z AUTO 11004KT 6SM 05/M05 A2994 RMK T00501050 IEM_DS3505
ZBYN,2004-04-14 21:00,ZBYN 142100Z AUTO 09002KT 6SM 06/M03 A2994 RMK SLP142 T00641032 57008 IEM_DS3505
ZBYN,2004-04-14 22:00,ZBYN 142200Z AUTO 13006KT 6SM 04/M04 A2994 RMK T00401040 IEM_DS3505
ZBYN,2004-04-14 23:00,ZBYN 142300Z AUTO 11006KT 6SM 06/M03 A2994 RMK T00601030 IEM_DS3505
ZBYN,2004-04-15 00:00,ZBYN 150000Z AUTO 11006KT 6SM 11/M01 A2994 RMK SLP142 T01061008 52001 IEM_DS3505
ZBYN,2004-04-15 01:00,ZBYN 150100Z AUTO 23008KT 6SM 13/M03 A2994 RMK T01301030 IEM_DS3505
ZBYN,2004-04-15 02:00,ZBYN 150200Z AUTO 24008KT 6SM 16/M04 A2994 RMK T01601040 IEM_DS3505
ZBYN,2004-04-15 03:00,ZBYN 150300Z AUTO 20012KT 6SM 19/M01 A2991 RMK SLP120 T01911008 57014 IEM_DS3505
ZBYN,2004-04-15 04:00,ZBYN 150400Z AUTO 23008KT 6SM 20/M07 A2988 RMK T02001070 IEM_DS3505
ZBYN,2004-04-15 05:00,ZBYN 150500Z AUTO 23010KT 6SM 22/M08 A2983 RMK T02201080 IEM_DS3505
ZBYN,2004-04-15 06:00,ZBYN 150600Z AUTO 29004KT 9SM 25/M06 A2980 RMK SLP077 T02541060 57034 IEM_DS3505
ZBYN,2004-04-15 07:00,ZBYN 150700Z AUTO 34010KT 6SM 25/M15 A2980 RMK T02501150 IEM_DS3505
ZBYN,2004-04-15 08:00,ZBYN 150800Z AUTO 31014KT 6SM 25/M15 A2977 RMK T02501150 IEM_DS3505
ZBYN,2004-04-15 09:00,ZBYN 150900Z AUTO 27014KT 9SM 25/M07 A2977 RMK SLP067 T02541071 57014 IEM_DS3505
ZBYN,2004-04-15 10:00,ZBYN 151000Z AUTO 30010KT 6SM 24/M16 A2977 RMK T02401160 IEM_DS3505
ZBYN,2004-04-15 11:00,ZBYN 151100Z AUTO 29006KT 6SM 21/M14 A2977 RMK T02101140 IEM_DS3505
ZBYN,2004-04-15 12:00,ZBYN 151200Z AUTO 25004KT 9SM 20/M03 A2980 RMK SLP088 T02041032 52018 IEM_DS3505
ZBYN,2004-04-15 13:00,ZBYN 151300Z AUTO 21004KT 6SM 17/M05 A2983 RMK T01701050 IEM_DS3505
ZBYN,2004-04-15 14:00,ZBYN 151400Z AUTO 26004KT 6SM 15/00 A2985 RMK T01500000 IEM_DS3505
ZBYN,2004-04-15 15:00,ZBYN 151500Z AUTO 07002KT 7SM 14/M01 A2985 RMK SLP100 T01411007 52014 IEM_DS3505
ZBYN,2004-04-15 16:00,ZBYN 151600Z AUTO 10002KT 6SM 11/00 A2985 RMK T01100000 IEM_DS3505
ZBYN,2004-04-15 18:00,ZBYN 151800Z AUTO 11006KT 6SM 11/02 A2985 RMK SLP095 T01090015 54000 IEM_DS3505
ZBYN,2004-04-15 19:00,ZBYN 151900Z AUTO 12004KT 6SM 08/01 A2985 RMK T00800010 IEM_DS3505
ZBYN,2004-04-15 20:00,ZBYN 152000Z AUTO 11002KT 6SM 07/M01 A2985 RMK T00701010 IEM_DS3505
ZBYN,2004-04-15 21:00,ZBYN 152100Z AUTO 29002KT 6SM 08/02 A2985 RMK SLP104 T00820020 52005 IEM_DS3505
ZBYN,2004-04-15 22:00,ZBYN 152200Z AUTO 10004KT 6SM 07/M01 A2988 RMK T00701010 IEM_DS3505
ZBYN,2004-04-15 23:00,ZBYN 152300Z AUTO 12004KT 5SM 08/01 A2988 RMK T00800010 IEM_DS3505
ZBYN,2004-04-16 00:00,ZBYN 160000Z AUTO 11004KT 5SM 13/03 A2991 RMK SLP120 T01260028 52013 IEM_DS3505
ZBYN,2004-04-16 01:00,ZBYN 160100Z AUTO 15004KT 14/M04 A2988 RMK T01401040 IEM_DS3505
ZBYN,2004-04-16 02:00,ZBYN 160200Z AUTO 17004KT 18/M04 A2988 RMK T01801040 IEM_DS3505
ZBYN,2004-04-16 03:00,ZBYN 160300Z AUTO 20004KT 4SM 20/M01 A2988 RMK SLP107 T02051007 57009 IEM_DS3505
ZBYN,2004-04-16 04:00,ZBYN 160400Z AUTO 22006KT 5SM 22/M07 A2985 RMK T02201070 IEM_DS3505
ZBYN,2004-04-16 05:00,ZBYN 160500Z AUTO 17006KT 6SM 24/M09 A2983 RMK T02401090 IEM_DS3505
ZBYN,2004-04-16 06:00,ZBYN 160600Z AUTO 18010KT 4SM 26/M03 A2980 RMK SLP070 T02581027 57031 IEM_DS3505
ZBYN,2004-04-16 07:00,ZBYN 160700Z AUTO 20004KT 6SM 26/M11 A2977 RMK T02601110 IEM_DS3505
ZBYN,2004-04-16 08:00,ZBYN 160800Z AUTO 18006KT 6SM 26/M09 A2974 RMK T02601090 IEM_DS3505
ZBYN,2004-04-16 09:00,ZBYN 160900Z AUTO 18008KT 6SM 26/M04 A2971 RMK SLP045 T02631042 57026 IEM_DS3505
ZBYN,2004-04-16 10:00,ZBYN 161000Z AUTO 22002KT 6SM 25/M10 A2971 RMK T02501100 IEM_DS3505
ZBYN,2004-04-16 11:00,ZBYN 161100Z AUTO 00000KT 6SM 22/M08 A2971 RMK T02201080 IEM_DS3505
ZBYN,2004-04-16 12:00,ZBYN 161200Z AUTO 32002KT 12SM 19/M05 A2974 RMK SLP058 T01871046 52007 IEM_DS3505
ZBYN,2004-04-16 13:00,ZBYN 161300Z AUTO 12004KT 6SM 14/M06 A2974 RMK T01401060 IEM_DS3505
ZBYN,2004-04-16 14:00,ZBYN 161400Z AUTO 17002KT 6SM 16/M06 A2977 RMK T01601060 IEM_DS3505
ZBYN,2004-04-16 15:00,ZBYN 161500Z AUTO 09006KT 12SM 15/M01 A2977 RMK SLP066 T01461014 52013 IEM_DS3505
ZBYN,2004-04-16 16:00,ZBYN 161600Z AUTO 13004KT 6SM 12/M01 A2977 RMK T01201010 IEM_DS3505
ZBYN,2004-04-16 17:00,ZBYN 161700Z AUTO 11004KT 6SM 11/M02 A2977 RMK T01101020 IEM_DS3505
ZBYN,2004-04-16 18:00,ZBYN 161800Z AUTO 14002KT 9SM 11/00 A2977 RMK SLP066 T01140002 52003 IEM_DS3505
ZBYN,2004-04-16 19:00,ZBYN 161900Z AUTO 11008KT 6SM 10/M01 A2977 RMK T01001010 IEM_DS3505
ZBYN,2004-04-16 20:00,ZBYN 162000Z AUTO 10004KT 6SM 08/M01 A2977 RMK T00801010 IEM_DS3505
ZBYN,2004-04-16 21:00,ZBYN 162100Z AUTO 20002KT 9SM 09/03 A2977 RMK SLP065 T00880030 57004 IEM_DS3505
ZBYN,2004-04-16 22:00,ZBYN 162200Z AUTO 04002KT 6SM 08/M03 A2977 RMK T00801030 IEM_DS3505
ZBYN,2004-04-16 23:00,ZBYN 162300Z AUTO 11002KT 2SM 08/00 A2980 RMK T00800000 IEM_DS3505
ZBYN,2004-04-17 00:00,ZBYN 170000Z AUTO 00000KT 5SM 13/03 A2980 RMK SLP086 T01290030 52014 IEM_DS3505
ZBYN,2004-04-17 01:00,ZBYN 170100Z AUTO 09004KT 16/M02 A2980 RMK T01601020 IEM_DS3505
ZBYN,2004-04-17 02:00,ZBYN 170200Z AUTO 16004KT 18/M02 A2980 RMK T01801020 IEM_DS3505
ZBYN,2004-04-17 03:00,ZBYN 170300Z AUTO 16004KT 4SM 19/01 A2980 RMK SLP076 T01940014 57005 IEM_DS3505
ZBYN,2004-04-17 04:00,ZBYN 170400Z AUTO 6SM 22/M07 A2977 RMK T02201070 IEM_DS3505
ZBYN,2004-04-17 05:00,ZBYN 170500Z AUTO 27002KT 6SM 25/M06 A2974 RMK T02501060 IEM_DS3505
ZBYN,2004-04-17 06:00,ZBYN 170600Z AUTO 20004KT 7SM 28/M08 A2971 RMK SLP034 T02791078 57031 IEM_DS3505
ZBYN,2004-04-17 07:00,ZBYN 170700Z AUTO 6SM 28/M13 A2968 RMK T02801130 IEM_DS3505
ZBYN,2004-04-17 08:00,ZBYN 170800Z AUTO 28004KT 6SM 28/M13 A2965 RMK T02801130 IEM_DS3505
ZBYN,2004-04-17 09:00,ZBYN 170900Z AUTO 22006KT 7SM 28/M06 A2965 RMK SLP022 T02831061 57014 IEM_DS3505
ZBYN,2004-04-17 10:00,ZBYN 171000Z AUTO 26004KT 6SM 26/M11 A2965 RMK T02601110 IEM_DS3505
ZBYN,2004-04-17 11:00,ZBYN 171100Z AUTO 26002KT 6SM 24/M09 A2965 RMK T02401090 IEM_DS3505
ZBYN,2004-04-17 12:00,ZBYN 171200Z AUTO 29002KT 7SM 21/M00 A2968 RMK SLP037 T02091004 52009 IEM_DS3505
ZBYN,2004-04-17 13:00,ZBYN 171300Z AUTO 08006KT 6SM 19/M08 A2971 RMK T01901080 IEM_DS3505
ZBYN,2004-04-17 14:00,ZBYN 171400Z AUTO 08004KT 6SM 19/M07 A2974 RMK T01901070 IEM_DS3505
ZBYN,2004-04-17 15:00,ZBYN 171500Z AUTO 18004KT 7SM 16/00 A2974 RMK SLP057 T01550005 52020 IEM_DS3505
ZBYN,2004-04-17 16:00,ZBYN 171600Z AUTO 34002KT 6SM 14/M02 A2974 RMK T01401020 IEM_DS3505
ZBYN,2004-04-17 17:00,ZBYN 171700Z AUTO 04002KT 6SM 14/M03 A2974 RMK T01401030 IEM_DS3505
ZBYN,2004-04-17 18:00,ZBYN 171800Z AUTO 32004KT 6SM 14/M02 A2974 RMK SLP043 T01441020 57003 IEM_DS3505
ZBYN,2004-04-17 19:00,ZBYN 171900Z AUTO 00000KT 6SM 12/M02 A2971 RMK T01201020 IEM_DS3505
ZBYN,2004-04-17 20:00,ZBYN 172000Z AUTO 15002KT 6SM 11/M02 A2971 RMK T01101020 IEM_DS3505
ZBYN,2004-04-17 21:00,ZBYN 172100Z AUTO 04002KT 6SM 14/M02 A2971 RMK SLP040 T01421022 57002 IEM_DS3505
ZBYN,2004-04-17 22:00,ZBYN 172200Z AUTO 12002KT 6SM 08/M01 A2971 RMK T00801010 IEM_DS3505
ZBYN,2004-04-17 23:00,ZBYN 172300Z AUTO 00000KT 09/00 A2974 RMK T00900000 IEM_DS3505
ZBYN,2004-04-18 00:00,ZBYN 180000Z AUTO 02004KT 6SM 16/M03 A2974 RMK SLP057 T01621028 52008 IEM_DS3505
ZBYN,2004-04-18 01:00,ZBYN 180100Z AUTO 6SM 18/M06 A2974 RMK T01801060 IEM_DS3505
ZBYN,2004-04-18 02:00,ZBYN 180200Z AUTO 6SM 20/M07 A2974 RMK T02001070 IEM_DS3505
ZBYN,2004-04-18 03:00,ZBYN 180300Z AUTO 14004KT 6SM 24/M03 A2971 RMK SLP043 T02361028 57010 IEM_DS3505
ZBYN,2004-04-18 04:00,ZBYN 180400Z AUTO 6SM 25/M06 A2968 RMK T02501060 IEM_DS3505
ZBYN,2004-04-18 05:00,ZBYN 180500Z AUTO 6SM 26/M07 A2965 RMK T02601070 IEM_DS3505
ZBYN,2004-04-18 05:30,ZBYN 180530Z AUTO 6SM 28/M08 A2965 RMK T02801080 IEM_DS3505
ZBYN,2004-04-18 06:00,ZBYN 180600Z AUTO 18002KT 6SM 28/M04 A2962 RMK SLP007 T02851036 57028 IEM_DS3505
ZBYN,2004-04-18 07:00,ZBYN 180700Z AUTO 28004KT 6SM 28/M09 A2962 RMK T02801090 IEM_DS3505
ZBYN,2004-04-18 07:30,ZBYN 180730Z AUTO 07012KT 6SM 28/M08 A2959 RMK T02801080 IEM_DS3505
ZBYN,2004-04-18 08:00,ZBYN 180800Z AUTO 12006KT 6SM 28/M07 A2959 RMK T02801070 IEM_DS3505
ZBYN,2004-04-18 09:00,ZBYN 180900Z AUTO 16004KT 7SM 28/M03 A2959 RMK SLP992 T02811028 57014 IEM_DS3505
ZBYN,2004-04-18 10:00,ZBYN 181000Z AUTO 13002KT 6SM 26/M08 A2959 RMK T02601080 IEM_DS3505
ZBYN,2004-04-18 11:00,ZBYN 181100Z AUTO 08008KT 6SM 24/M08 A2962 RMK T02401080 IEM_DS3505
ZBYN,2004-04-18 12:00,ZBYN 181200Z AUTO 09008KT 7SM 23/M03 A2962 RMK SLP014 T02321031 52016 IEM_DS3505
ZBYN,2004-04-18 13:00,ZBYN 181300Z AUTO 09008KT 6SM 21/M05 A2965 RMK T02101050 IEM_DS3505
ZBYN,2004-04-18 14:00,ZBYN 181400Z AUTO 11008KT 6SM 18/M02 A2968 RMK T01801020 IEM_DS3505
ZBYN,2004-04-18 15:00,ZBYN 181500Z AUTO 27002KT 6SM 17/02 A2968 RMK SLP027 T01700019 52013 IEM_DS3505
ZBYN,2004-04-18 16:00,ZBYN 181600Z AUTO 06004KT 6SM 15/01 A2968 RMK T01500010 IEM_DS3505
ZBYN,2004-04-18 17:00,ZBYN 181700Z AUTO 14002KT 6SM 13/00 A2968 RMK T01300000 IEM_DS3505
ZBYN,2004-04-18 18:00,ZBYN 181800Z AUTO 32002KT 6SM 12/04 A2968 RMK SLP028 T01240041 52002 IEM_DS3505
ZBYN,2004-04-18 19:00,ZBYN 181900Z AUTO 11004KT 6SM 11/02 A2968 RMK T01100020 IEM_DS3505
ZBYN,2004-04-18 20:00,ZBYN 182000Z AUTO 12002KT 6SM 10/M01 A2968 RMK T01001010 IEM_DS3505
ZBYN,2004-04-18 21:00,ZBYN 182100Z AUTO 18002KT 6SM 09/04 A2968 RMK SLP039 T00940036 52005 IEM_DS3505
ZBYN,2004-04-18 22:00,ZBYN 182200Z AUTO 10002KT 6SM 09/M01 A2971 RMK T00901010 IEM_DS3505
ZBYN,2004-04-18 23:00,ZBYN 182300Z AUTO 12004KT 08/02 A2974 RMK T00800020 IEM_DS3505
ZBYN,2004-04-19 00:00,ZBYN 190000Z AUTO 20002KT 6SM 14/04 A2977 RMK SLP061 T01430043 52020 IEM_DS3505
ZBYN,2004-04-19 01:00,ZBYN 190100Z AUTO 17/M01 A2977 RMK T01701010 IEM_DS3505
ZBYN,2004-04-19 02:00,ZBYN 190200Z AUTO 5SM 20/M03 A2977 RMK T02001030 IEM_DS3505
ZBYN,2004-04-19 03:00,ZBYN 190300Z AUTO 14006KT 6SM 23/01 A2977 RMK SLP059 T02300008 52002 IEM_DS3505
ZBYN,2004-04-19 05:00,ZBYN 190500Z AUTO 21006KT 6SM 28/M08 A2971 RMK T02801080 IEM_DS3505
ZBYN,2004-04-19 06:00,ZBYN 190600Z AUTO 20008KT 6SM 30/M02 A2971 RMK SLP032 T03001024 57022 IEM_DS3505
ZBYN,2004-04-19 07:00,ZBYN 190700Z AUTO 23006KT 6SM 30/M14 A2968 RMK T03001140 IEM_DS3505
ZBYN,2004-04-19 09:00,ZBYN 190900Z AUTO 18006KT 9SM 31/M05 A2968 RMK SLP026 T03121053 57008 IEM_DS3505
ZBYN,2004-04-19 10:00,ZBYN 191000Z AUTO 22004KT 6SM 29/M12 A2968 RMK T02901120 IEM_DS3505
ZBYN,2004-04-19 11:00,ZBYN 191100Z AUTO 22004KT 6SM 26/M11 A2971 RMK T02601110 IEM_DS3505
ZBYN,2004-04-19 12:00,ZBYN 191200Z AUTO 00000KT 12SM 22/00 A2974 RMK SLP051 T02220001 52017 IEM_DS3505
ZBYN,2004-04-19 13:00,ZBYN 191300Z AUTO 00000KT 6SM 19/M07 A2977 RMK T01901070 IEM_DS3505
ZBYN,2004-04-19 14:00,ZBYN 191400Z AUTO 07004KT 6SM 19/M02 A2980 RMK T01901020 IEM_DS3505
ZBYN,2004-04-19 15:00,ZBYN 191500Z AUTO 11004KT 9SM 18/00 A2980 RMK SLP070 T01760003 52024 IEM_DS3505
ZBYN,2004-04-19 16:00,ZBYN 191600Z AUTO 09004KT 6SM 14/M03 A2983 RMK T01401030 IEM_DS3505
ZBYN,2004-04-19 17:00,ZBYN 191700Z AUTO 10002KT 6SM 13/M02 A2983 RMK T01301020 IEM_DS3505
ZBYN,2004-04-19 18:00,ZBYN 191800Z AUTO 16002KT 9SM 14/02 A2983 RMK SLP073 T01350024 52006 IEM_DS3505
ZBYN,2004-04-19 19:00,ZBYN 191900Z AUTO 10004KT 6SM 13/M02 A2983 RMK T01301020 IEM_DS3505
ZBYN,2004-04-19 20:00,ZBYN 192000Z AUTO 11002KT 6SM 12/M01 RMK T01201010 IEM_DS3505
ZBYN,2004-04-19 21:00,ZBYN 192100Z AUTO 32002KT 9SM 13/M01 A2983 RMK SLP079 T01321008 52007 IEM_DS3505
ZBYN,2004-04-19 22:00,ZBYN 192200Z AUTO 13004KT 6SM 07/00 A2985 RMK T00700000 IEM_DS3505
ZBYN,2004-04-19 23:00,ZBYN 192300Z AUTO 00000KT 13/00 A2985 RMK T01300000 IEM_DS3505
ZBYN,2004-04-20 00:00,ZBYN 200000Z AUTO 00000KT 6SM 17/01 A2985 RMK SLP096 T01730013 52009 IEM_DS3505
ZBYN,2004-04-20 01:00,ZBYN 200100Z AUTO 00000KT 2 1/2SM 19/M01 A2985 RMK T01901010 IEM_DS3505
ZBYN,2004-04-20 02:00,ZBYN 200200Z AUTO 27002KT 3SM 24/M01 A2985 RMK T02401010 IEM_DS3505
ZBYN,2004-04-20 03:00,ZBYN 200300Z AUTO 25004KT 6SM 27/02 A2983 RMK SLP077 T02720016 57010 IEM_DS3505
ZBYN,2004-04-20 04:00,ZBYN 200400Z AUTO 12004KT 6SM 29/M05 A2980 RMK T02901050 IEM_DS3505
ZBYN,2004-04-20 05:00,ZBYN 200500Z AUTO 11010KT 6SM 30/M01 A2977 RMK T03001010 IEM_DS3505
ZBYN,2004-04-20 06:00,ZBYN 200600Z AUTO 11010KT 7SM 31/04 A2974 RMK SLP038 T03120041 57036 IEM_DS3505
ZBYN,2004-04-20 07:00,ZBYN 200700Z AUTO 09010KT 5SM 30/02 A2971 RMK T03000020 IEM_DS3505
ZBYN,2004-04-20 08:00,ZBYN 200800Z AUTO 08016KT 27/05 A2968 RMK T02700050 IEM_DS3505
ZBYN,2004-04-20 09:00,ZBYN 200900Z AUTO 11014KT 6SM 27/10 A2968 RMK SLP022 T02740097 57020 IEM_DS3505
ZBYN,2004-04-20 10:00,ZBYN 201000Z AUTO 09019KT 22/08 A2968 RMK T02200080 IEM_DS3505
ZBYN,2004-04-20 11:00,ZBYN 201100Z AUTO 08017KT 2 1/2SM 20/08 A2971 RMK T02000080 IEM_DS3505
ZBYN,2004-04-20 12:00,ZBYN 201200Z AUTO 11008KT 6SM 20/08 A2971 RMK SLP049 T02050085 52020 IEM_DS3505
ZBYN,2004-04-20 13:00,ZBYN 201300Z AUTO 08017KT 17/07 A2974 RMK T01700070 IEM_DS3505
ZBYN,2004-04-20 14:00,ZBYN 201400Z AUTO 07008KT 6SM 18/06 A2977 RMK T01800060 IEM_DS3505
ZBYN,2004-04-20 15:00,ZBYN 201500Z AUTO 22002KT 6SM 16/10 A2977 RMK SLP050 T01650095 52010 IEM_DS3505
ZBYN,2004-04-20 16:00,ZBYN 201600Z AUTO 06004KT 6SM 16/06 A2974 RMK T01600060 IEM_DS3505
ZBYN,2004-04-20 17:00,ZBYN 201700Z AUTO 09002KT 6SM 14/07 A2974 RMK T01400070 IEM_DS3505
ZBYN,2004-04-20 18:00,ZBYN 201800Z AUTO 14002KT 6SM 15/09 A2971 RMK SLP032 T01480094 57014 IEM_DS3505
ZBYN,2004-04-20 19:00,ZBYN 201900Z AUTO 11002KT 6SM 14/07 A2968 RMK T01400070 IEM_DS3505
ZBYN,2004-04-20 21:00,ZBYN 202100Z AUTO 20004KT 6SM 12/09 A2968 RMK SLP030 T01200089 57011 IEM_DS3505
ZBYN,2004-04-20 22:00,ZBYN 202200Z AUTO 00000KT 5SM 12/08 A2968 RMK T01200080 IEM_DS3505
ZBYN,2004-04-20 23:00,ZBYN 202300Z AUTO 12004KT 3SM 13/08 A2968 RMK T01300080 IEM_DS3505
ZBYN,2004-04-21 00:00,ZBYN 210000Z AUTO 09002KT 5SM 17/10 A2968 RMK SLP037 T01670096 52004 IEM_DS3505
ZBYN,2004-04-21 01:00,ZBYN 210100Z AUTO 3SM 18/07 A2968 RMK T01800070 IEM_DS3505
ZBYN,2004-04-21 02:00,ZBYN 210200Z AUTO 22002KT 2 1/2SM 21/08 A2968 RMK T02100080 IEM_DS3505
ZBYN,2004-04-21 03:00,ZBYN 210300Z AUTO 18008KT 4SM 24/10 A2968 RMK SLP024 T02440100 57007 IEM_DS3505
ZBYN,2004-04-21 04:00,ZBYN 210400Z AUTO 21006KT 3SM 26/06 A2965 RMK T02600060 IEM_DS3505
ZBYN,2004-04-21 05:00,ZBYN 210500Z AUTO 23006KT 5SM 28/06 A2962 RMK T02800060 IEM_DS3505
ZBYN,2004-04-21 06:00,ZBYN 210600Z AUTO 18008KT 3SM 31/10 A2959 RMK SLP983 T03080097 57031 IEM_DS3505
ZBYN,2004-04-21 07:00,ZBYN 210700Z AUTO 22006KT 6SM 31/M02 A2956 RMK T03101020 IEM_DS3505
ZBYN,2004-04-21 08:00,ZBYN 210800Z AUTO 24006KT 6SM 32/01 A2953 RMK T03200010 IEM_DS3505
ZBYN,2004-04-21 09:00,ZBYN 210900Z AUTO 29006KT 7SM 34/M01 A2953 RMK SLP965 T03391006 57016 IEM_DS3505
ZBYN,2004-04-21 10:00,ZBYN 211000Z AUTO 29006KT 6SM 32/M07 A2953 RMK T03201070 IEM_DS3505
ZBYN,2004-04-21 11:00,ZBYN 211100Z AUTO 30004KT 6SM 28/M05 A2953 RMK T02801050 IEM_DS3505
ZBYN,2004-04-21 12:00,ZBYN 211200Z AUTO 29004KT 9SM 26/M02 A2956 RMK SLP988 T02631015 52017 IEM_DS3505
ZBYN,2004-04-21 13:00,ZBYN 211300Z AUTO 31006KT 6SM 21/M04 A2959 RMK T02101040 IEM_DS3505
ZBYN,2004-04-21 14:00,ZBYN 211400Z AUTO 33010KT 6SM 25/M07 A2962 RMK T02501070 IEM_DS3505
ZBYN,2004-04-21 15:00,ZBYN 211500Z AUTO 36014KT 7SM 26/M04 A2965 RMK SLP015 T02591036 52035 IEM_DS3505
ZBYN,2004-04-21 16:00,ZBYN 211600Z AUTO 36019KT 3SM 23/M07 A2968 RMK T02301070 IEM_DS3505
ZBYN,2004-04-21 17:00,ZBYN 211700Z AUTO 01014KT 6SM 22/M06 A2971 RMK T02201060 IEM_DS3505
ZBYN,2004-04-21 18:00,ZBYN 211800Z AUTO 34006KT 9SM 22/M01 A2974 RMK SLP028 T02221011 52015 IEM_DS3505
ZBYN,2004-04-21 20:00,ZBYN 212000Z AUTO 01008KT 6SM 19/M06 A2983 RMK T01901060 IEM_DS3505
ZBYN,2004-04-21 21:00,ZBYN 212100Z AUTO 36012KT 9SM 20/M03 A2985 RMK SLP072 T01961032 52041 IEM_DS3505
ZBYN,2004-04-21 22:00,ZBYN 212200Z AUTO 05008KT 6SM 17/02 A2991 RMK T01700020 IEM_DS3505
ZBYN,2004-04-21 23:00,ZBYN 212300Z AUTO 06006KT 6SM 16/02 A2994 RMK T01600020 IEM_DS3505
ZBYN,2004-04-22 00:00,ZBYN 220000Z AUTO 11006KT 6SM 19/02 A2994 RMK SLP113 T01880022 52026 IEM_DS3505
ZBYN,2004-04-22 01:00,ZBYN 220100Z AUTO 09012KT 6SM 18/M01 A2994 RMK T01801010 IEM_DS3505
ZBYN,2004-04-22 02:00,ZBYN 220200Z AUTO 06008KT 6SM 19/00 A2994 RMK T01900000 IEM_DS3505
ZBYN,2004-04-22 03:00,ZBYN 220300Z AUTO 04002KT 6SM 21/02 A2994 RMK SLP112 T02110019 52002 IEM_DS3505
ZBYN,2004-04-22 04:00,ZBYN 220400Z AUTO 05006KT 6SM 20/M01 A2994 RMK T02001010 IEM_DS3505
ZBYN,2004-04-22 05:00,ZBYN 220500Z AUTO 09006KT 6SM 22/M01 A2988 RMK T02201010 IEM_DS3505
ZBYN,2004-04-22 06:00,ZBYN 220600Z AUTO 14006KT 6SM 24/01 A2985 RMK SLP079 T02420006 57031 IEM_DS3505
ZBYN,2004-04-22 07:00,ZBYN 220700Z AUTO 07004KT 6SM 24/M04 A2983 RMK T02401040 IEM_DS3505
ZBYN,2004-04-22 08:00,ZBYN 220800Z AUTO 17004KT 6SM 25/M06 A2980 RMK T02501060 IEM_DS3505
ZBYN,2004-04-22 09:00,ZBYN 220900Z AUTO 18004KT 9SM 25/M00 A2980 RMK SLP061 T02511001 57019 IEM_DS3505
ZBYN,2004-04-22 10:00,ZBYN 221000Z AUTO 25002KT 6SM 23/M04 A2980 RMK T02301040 IEM_DS3505
ZBYN,2004-04-22 11:00,ZBYN 221100Z AUTO 09012KT 6SM 22/M02 A2983 RMK T02201020 IEM_DS3505
ZBYN,2004-04-22 12:00,ZBYN 221200Z AUTO 09012KT 9SM 20/00 A2985 RMK SLP093 T01990004 52021 IEM_DS3505
ZBYN,2004-04-22 13:00,ZBYN 221300Z AUTO 08016KT 6SM 17/M03 A2991 RMK T01701030 IEM_DS3505
ZBYN,2004-04-22 14:00,ZBYN 221400Z AUTO 07017KT 6SM 15/M03 A2991 RMK T01501030 IEM_DS3505
ZBYN,2004-04-22 15:00,ZBYN 221500Z AUTO 04004KT 6SM 17/01 A2994 RMK SLP124 T01670008 52027 IEM_DS3505
ZBYN,2004-04-22 16:00,ZBYN 221600Z AUTO 07016KT 6SM 14/M01 A2994 RMK T01401010 IEM_DS3505
ZBYN,2004-04-22 17:00,ZBYN 221700Z AUTO 07014KT 6SM 14/00 A2997 RMK T01400000 IEM_DS3505
ZBYN,2004-04-22 18:00,ZBYN 221800Z AUTO 32004KT 6SM 14/02 A3000 RMK SLP142 T01400020 52017 IEM_DS3505
ZBYN,2004-04-22 19:00,ZBYN 221900Z AUTO 06010KT 6SM 12/00 A3000 RMK T01200000 IEM_DS3505
ZBYN,2004-04-22 20:00,ZBYN 222000Z AUTO 06012KT 6SM 12/01 A3003 RMK T01200010 IEM_DS3505
ZBYN,2004-04-22 21:00,ZBYN 222100Z AUTO 27004KT 6SM 12/02 A3003 RMK SLP160 T01170022 52014 IEM_DS3505
ZBYN,2004-04-22 22:00,ZBYN 222200Z AUTO 07012KT 6SM 11/01 A3003 RMK T01100010 IEM_DS3505
ZBYN,2004-04-22 23:00,ZBYN 222300Z AUTO 08012KT 6SM 12/00 A3006 RMK T01200000 IEM_DS3505
ZBYN,2004-04-23 00:00,ZBYN 230000Z AUTO 07004KT 6SM 15/01 A3006 RMK SLP177 T01480014 52013 IEM_DS3505
ZBYN,2004-04-23 01:00,ZBYN 230100Z AUTO 08014KT 6SM 14/M01 A3009 RMK T01401010 IEM_DS3505
ZBYN,2004-04-23 02:00,ZBYN 230200Z AUTO 08012KT 6SM 16/M01 A3009 RMK T01601010 IEM_DS3505
ZBYN,2004-04-23 03:00,ZBYN 230300Z AUTO 09008KT 6SM 18/00 A3009 RMK SLP174 T01850002 57002 IEM_DS3505
ZBYN,2004-04-23 04:00,ZBYN 230400Z AUTO 09006KT 6SM 19/M02 A3006 RMK T01901020 IEM_DS3505
ZBYN,2004-04-23 05:00,ZBYN 230500Z AUTO 16008KT 6SM 20/M01 A3003 RMK T02001010 IEM_DS3505
ZBYN,2004-04-23 06:00,ZBYN 230600Z AUTO 20006KT 7SM 21/03 A3000 RMK SLP147 T02130031 57025 IEM_DS3505
ZBYN,2004-04-23 07:00,ZBYN 230700Z AUTO 14006KT 6SM 21/00 A2997 RMK T02100000 IEM_DS3505
ZBYN,2004-04-23 08:00,ZBYN 230800Z AUTO 16004KT 6SM 22/00 A2991 RMK T02200000 IEM_DS3505
ZBYN,2004-04-23 09:00,ZBYN 230900Z AUTO 16004KT 6SM 22/04 A2991 RMK SLP119 T02240040 57027 IEM_DS3505
ZBYN,2004-04-23 10:00,ZBYN 231000Z AUTO 09014KT 6SM 18/M01 A2991 RMK T01801010 IEM_DS3505
ZBYN,2004-04-23 11:00,ZBYN 231100Z AUTO 08017KT 6SM 15/M01 A2994 RMK T01501010 IEM_DS3505
ZBYN,2004-04-23 12:00,ZBYN 231200Z AUTO 07016KT 6SM 15/01 A2997 RMK SLP151 T01490011 52023 IEM_DS3505
ZBYN,2004-04-23 13:00,ZBYN 231300Z AUTO 08019KT 6SM 12/M02 A3003 RMK T01201020 IEM_DS3505
ZBYN,2004-04-23 14:00,ZBYN 231400Z AUTO 08019KT 6SM 11/M03 A3006 RMK T01101030 IEM_DS3505
ZBYN,2004-04-23 15:00,ZBYN 231500Z AUTO 09004KT 6SM 13/01 A3009 RMK SLP186 T01320009 52035 IEM_DS3505
ZBYN,2004-04-23 16:00,ZBYN 231600Z AUTO 07012KT 6SM 10/M02 A3009 RMK T01001020 IEM_DS3505
ZBYN,2004-04-23 17:00,ZBYN 231700Z AUTO 07010KT 6SM 10/M03 A3009 RMK T01001030 IEM_DS3505
ZBYN,2004-04-23 18:00,ZBYN 231800Z AUTO 27002KT 6SM 11/01 A3009 RMK SLP184 T01120009 57001 IEM_DS3505
ZBYN,2004-04-23 19:00,ZBYN 231900Z AUTO 06006KT 6SM 09/M03 A3009 RMK T00901030 IEM_DS3505
ZBYN,2004-04-23 20:00,ZBYN 232000Z AUTO 09006KT 6SM 09/M03 A3006 RMK T00901030 IEM_DS3505
ZBYN,2004-04-23 21:00,ZBYN 232100Z AUTO 20002KT 6SM 09/00 A3009 RMK SLP181 T00900005 57004 IEM_DS3505
ZBYN,2004-04-23 22:00,ZBYN 232200Z AUTO 10006KT 6SM 08/M03 A3009 RMK T00801030 IEM_DS3505
ZBYN,2004-04-23 23:00,ZBYN 232300Z AUTO 08006KT 6SM 09/M03 A3012 RMK T00901030 IEM_DS3505
ZBYN,2004-04-24 00:00,ZBYN 240000Z AUTO 11006KT 6SM 12/01 A3012 RMK SLP204 T01180009 52014 IEM_DS3505
ZBYN,2004-04-24 01:00,ZBYN 240100Z AUTO 15004KT 6SM 12/M01 A3012 RMK T01201010 IEM_DS3505
ZBYN,2004-04-24 02:00,ZBYN 240200Z AUTO 6SM 14/M01 A3009 RMK T01401010 IEM_DS3505
ZBYN,2004-04-24 03:00,ZBYN 240300Z AUTO 14004KT 6SM 16/02 A3006 RMK SLP182 T01640025 57016 IEM_DS3505
ZBYN,2004-04-24 04:00,ZBYN 240400Z AUTO 17004KT 6SM 18/M04 A3003 RMK T01801040 IEM_DS3505
ZBYN,2004-04-24 05:00,ZBYN 240500Z AUTO 21004KT 6SM 19/M03 A3000 RMK T01901030 IEM_DS3505
ZBYN,2004-04-24 06:00,ZBYN 240600Z AUTO 16008KT 7SM 21/02 A2994 RMK SLP136 T02100018 57038 IEM_DS3505
ZBYN,2004-04-24 07:00,ZBYN 240700Z AUTO 17004KT 6SM 22/M03 A2991 RMK T02201030 IEM_DS3505
ZBYN,2004-04-24 08:00,ZBYN 240800Z AUTO 25004KT 6SM 23/M03 A2988 RMK T02301030 IEM_DS3505
ZBYN,2004-04-24 09:00,ZBYN 240900Z AUTO 22006KT 7SM 23/02 A2985 RMK SLP100 T02290019 57033 IEM_DS3505
ZBYN,2004-04-24 10:00,ZBYN 241000Z AUTO 26006KT 6SM 22/M01 A2985 RMK T02201010 IEM_DS3505
ZBYN,2004-04-24 11:00,ZBYN 241100Z AUTO 22002KT 6SM 20/00 A2985 RMK T02000000 IEM_DS3505
ZBYN,2004-04-24 12:00,ZBYN 241200Z AUTO 14006KT 6SM 19/04 A2988 RMK SLP108 T01890039 52005 IEM_DS3505
ZBYN,2004-04-24 13:00,ZBYN 241300Z AUTO 10008KT 6SM 16/00 A2988 RMK T01600000 IEM_DS3505
ZBYN,2004-04-24 14:00,ZBYN 241400Z AUTO 10008KT 6SM 16/01 A2991 RMK T01600010 IEM_DS3505
ZBYN,2004-04-24 15:00,ZBYN 241500Z AUTO 11010KT 6SM 16/02 A2991 RMK SLP119 T01650018 52013 IEM_DS3505
ZBYN,2004-04-24 16:00,ZBYN 241600Z AUTO 12006KT 6SM 13/01 A2991 RMK T01300010 IEM_DS3505
ZBYN,2004-04-24 17:00,ZBYN 241700Z AUTO 11008KT 6SM 12/01 A2991 RMK T01200010 IEM_DS3505
ZBYN,2004-04-24 18:00,ZBYN 241800Z AUTO 11008KT 6SM 14/01 A2988 RMK SLP111 T01400010 57004 IEM_DS3505
ZBYN,2004-04-24 19:00,ZBYN 241900Z AUTO 11006KT 6SM 12/M01 A2988 RMK T01201010 IEM_DS3505
ZBYN,2004-04-24 20:00,ZBYN 242000Z AUTO 13006KT 6SM 12/M02 A2988 RMK T01201020 IEM_DS3505
ZBYN,2004-04-24 21:00,ZBYN 242100Z AUTO 16004KT 6SM 13/01 A2988 RMK SLP103 T01280006 57006 IEM_DS3505
ZBYN,2004-04-24 22:00,ZBYN 242200Z AUTO 14006KT 6SM 12/M02 A2988 RMK T01201020 IEM_DS3505
ZBYN,2004-04-24 23:00,ZBYN 242300Z AUTO 12004KT 7SM 12/00 A2988 RMK T01200000 IEM_DS3505
ZBYN,2004-04-25 00:00,ZBYN 250000Z AUTO 13006KT 6SM 13/M01 A2988 RMK T01301010 IEM_DS3505
ZBYN,2004-04-25 01:00,ZBYN 250100Z AUTO 13004KT 7SM 12/02 A2988 RMK T01200020 IEM_DS3505
ZBYN,2004-04-25 02:00,ZBYN 250200Z AUTO 11004KT 7SM 13/01 A2988 RMK T01300010 IEM_DS3505
ZBYN,2004-04-25 03:00,ZBYN 250300Z AUTO 29002KT 5SM 13/05 A2985 RMK SLP107 T01330050 57007 IEM_DS3505
ZBYN,2004-04-25 04:00,ZBYN 250400Z AUTO 08006KT 4SM 11/06 A2985 RMK T01100060 IEM_DS3505
ZBYN,2004-04-25 05:00,ZBYN 250500Z AUTO 08006KT 7SM 11/06 A2983 RMK T01100060 IEM_DS3505
ZBYN,2004-04-25 06:00,ZBYN 250600Z AUTO 11004KT 5SM 13/08 A2983 RMK 60004 SLP100 T01260079 57011 IEM_DS3505
ZBYN,2004-04-25 07:00,ZBYN 250700Z AUTO 10004KT 4SM 11/07 A2980 RMK T01100070 IEM_DS3505
ZBYN,2004-04-25 08:00,ZBYN 250800Z AUTO 13004KT 3SM 11/09 A2980 RMK T01100090 IEM_DS3505
ZBYN,2004-04-25 09:00,ZBYN 250900Z AUTO 25002KT 5SM 11/10 A2977 RMK SLP089 T01120095 57014 IEM_DS3505
ZBYN,2004-04-25 11:00,ZBYN 251100Z AUTO 10006KT 1 1/2SM 09/07 A2980 RMK T00900070 IEM_DS3505
ZBYN,2004-04-25 12:00,ZBYN 251200Z AUTO 14004KT 3SM 10/09 A2983 RMK 60016 SLP105 T00990088 52013 IEM_DS3505
ZBYN,2004-04-25 13:00,ZBYN 251300Z AUTO 11006KT 7SM 09/07 A2983 RMK T00900070 IEM_DS3505
ZBYN,2004-04-25 14:00,ZBYN 251400Z AUTO 10006KT 7SM 08/06 A2983 RMK T00800060 IEM_DS3505
ZBYN,2004-04-25 15:00,ZBYN 251500Z AUTO 18004KT 3SM 10/08 A2983 RMK SLP104 T00950075 57001 IEM_DS3505
ZBYN,2004-04-25 16:00,ZBYN 251600Z AUTO 11008KT 7SM 08/06 A2983 RMK T00800060 IEM_DS3505
ZBYN,2004-04-25 17:00,ZBYN 251700Z AUTO 10008KT 7SM 08/06 A2980 RMK T00800060 IEM_DS3505
ZBYN,2004-04-25 18:00,ZBYN 251800Z AUTO 16004KT 3SM 09/08 A2977 RMK SLP092 T00920077 57013 IEM_DS3505
ZBYN,2004-04-25 19:00,ZBYN 251900Z AUTO 12004KT 7SM 08/06 A2977 RMK T00800060 IEM_DS3505
ZBYN,2004-04-25 20:00,ZBYN 252000Z AUTO 10002KT 7SM 08/07 A2974 RMK T00800070 IEM_DS3505
ZBYN,2004-04-25 21:00,ZBYN 252100Z AUTO 27002KT 2 1/2SM 09/08 A2974 RMK 70019 SLP084 T00940082 57009 IEM_DS3505
ZBYN,2004-04-25 22:00,ZBYN 252200Z AUTO 1 1/4SM 09/07 A2974 RMK T00900070 IEM_DS3505
ZBYN,2004-04-25 23:00,ZBYN 252300Z AUTO 25002KT 1SM 09/07 A2977 RMK T00900070 IEM_DS3505
ZBYN,2004-04-26 00:00,ZBYN 260000Z AUTO 20004KT 2SM 10/09 A2977 RMK 70019 SLP091 T01020091 52006 IEM_DS3505
ZBYN,2004-04-26 01:00,ZBYN 260100Z AUTO 12002KT 1SM 11/09 A2977 RMK T01100090 IEM_DS3505
ZBYN,2004-04-26 02:00,ZBYN 260200Z AUTO 07002KT 1SM 13/09 A2977 RMK T01300090 IEM_DS3505
ZBYN,2004-04-26 03:00,ZBYN 260300Z AUTO 36012KT 6SM 17/04 A2980 RMK SLP093 T01680045 52011 IEM_DS3505
ZBYN,2004-04-26 04:00,ZBYN 260400Z AUTO 02014KT 6SM 16/02 A2980 RMK T01600020 IEM_DS3505
ZBYN,2004-04-26 05:00,ZBYN 260500Z AUTO 36019KT 6SM 18/00 A2980 RMK T01800000 IEM_DS3505
ZBYN,2004-04-26 06:00,ZBYN 260600Z AUTO 04008KT 16SM 18/04 A2980 RMK SLP096 T01800042 52004 IEM_DS3505
ZBYN,2004-04-26 07:00,ZBYN 260700Z AUTO 02019KT 6SM 18/00 A2983 RMK T01800000 IEM_DS3505
ZBYN,2004-04-26 08:00,ZBYN 260800Z AUTO 02016KT 6SM 18/00 A2983 RMK T01800000 IEM_DS3505
ZBYN,2004-04-26 09:00,ZBYN 260900Z AUTO 04010KT 16SM 17/02 A2985 RMK SLP110 T01720024 52012 IEM_DS3505
ZBYN,2004-04-26 10:00,ZBYN 261000Z AUTO 03016KT 6SM 16/M02 A2985 RMK T01601020 IEM_DS3505
ZBYN,2004-04-26 11:00,ZBYN 261100Z AUTO 04010KT 6SM 15/M02 A2991 RMK T01501020 IEM_DS3505
ZBYN,2004-04-26 12:00,ZBYN 261200Z AUTO 32004KT 12SM 14/02 A2994 RMK SLP149 T01410024 52032 IEM_DS3505
ZBYN,2004-04-26 13:00,ZBYN 261300Z AUTO 34008KT 6SM 12/01 A2997 RMK T01200010 IEM_DS3505
ZBYN,2004-04-26 14:00,ZBYN 261400Z AUTO 32006KT 6SM 09/02 A3000 RMK T00900020 IEM_DS3505
ZBYN,2004-04-26 15:00,ZBYN 261500Z AUTO 34004KT 12SM 11/04 A3000 RMK SLP161 T01140035 52017 IEM_DS3505
ZBYN,2004-04-26 16:00,ZBYN 261600Z AUTO 06002KT 6SM 09/01 A3000 RMK T00900010 IEM_DS3505
ZBYN,2004-04-26 17:00,ZBYN 261700Z AUTO 07002KT 6SM 09/01 A3000 RMK T00900010 IEM_DS3505
ZBYN,2004-04-26 18:00,ZBYN 261800Z AUTO 32002KT 12SM 09/03 A3000 RMK SLP160 T00870031 57003 IEM_DS3505
ZBYN,2004-04-26 19:00,ZBYN 261900Z AUTO 11004KT 6SM 04/01 A3000 RMK T00400010 IEM_DS3505
ZBYN,2004-04-26 20:00,ZBYN 262000Z AUTO 11002KT 6SM 04/00 A3000 RMK T00400000 IEM_DS3505
ZBYN,2004-04-26 21:00,ZBYN 262100Z AUTO 29002KT 9SM 05/03 A3000 RMK SLP171 T00530032 52003 IEM_DS3505
ZBYN,2004-04-26 22:00,ZBYN 262200Z AUTO 11002KT 6SM 03/00 A3000 RMK T00300000 IEM_DS3505
ZBYN,2004-04-26 23:00,ZBYN 262300Z AUTO 10002KT 6SM 06/01 A3000 RMK T00600010 IEM_DS3505
ZBYN,2004-04-27 00:00,ZBYN 270000Z AUTO 14002KT 6SM 10/04 A3000 RMK SLP164 T01030036 57003 IEM_DS3505
ZBYN,2004-04-27 01:00,ZBYN 270100Z AUTO 15002KT 6SM 12/01 A3000 RMK T01200010 IEM_DS3505
ZBYN,2004-04-27 02:00,ZBYN 270200Z AUTO 17004KT 6SM 14/01 A3000 RMK T01400010 IEM_DS3505
ZBYN,2004-04-27 03:00,ZBYN 270300Z AUTO 14006KT 5SM 16/04 A2997 RMK SLP148 T01640038 57010 IEM_DS3505
ZBYN,2004-04-27 04:00,ZBYN 270400Z AUTO 19006KT 6SM 17/00 A2994 RMK T01700000 IEM_DS3505
ZBYN,2004-04-27 05:00,ZBYN 270500Z AUTO 18006KT 6SM 19/01 A2988 RMK T01900010 IEM_DS3505
ZBYN,2004-04-27 06:00,ZBYN 270600Z AUTO 18008KT 6SM 21/04 A2985 RMK SLP106 T02120039 57035 IEM_DS3505
ZBYN,2004-04-27 07:00,ZBYN 270700Z AUTO 18004KT 6SM 21/01 A2983 RMK T02100010 IEM_DS3505
ZBYN,2004-04-27 08:00,ZBYN 270800Z AUTO 17006KT 6SM 23/02 A2977 RMK T02300020 IEM_DS3505
ZBYN,2004-04-27 09:00,ZBYN 270900Z AUTO 18006KT 6SM 23/05 A2977 RMK SLP073 T02340054 57032 IEM_DS3505
ZBYN,2004-04-27 10:00,ZBYN 271000Z AUTO 15006KT 6SM 23/03 A2974 RMK T02300030 IEM_DS3505
ZBYN,2004-04-27 11:00,ZBYN 271100Z AUTO 17006KT 6SM 21/03 A2974 RMK T02100030 IEM_DS3505
ZBYN,2004-04-27 12:00,ZBYN 271200Z AUTO 14008KT 6SM 20/07 A2977 RMK SLP072 T01960067 52001 IEM_DS3505
ZBYN,2004-04-27 13:00,ZBYN 271300Z AUTO 14006KT 6SM 17/05 A2980 RMK T01700050 IEM_DS3505
ZBYN,2004-04-27 14:00,ZBYN 271400Z AUTO 13004KT 6SM 15/05 A2980 RMK T01500050 IEM_DS3505
ZBYN,2004-04-27 15:00,ZBYN 271500Z AUTO 14004KT 6SM 15/08 A2980 RMK SLP084 T01480076 52013 IEM_DS3505
ZBYN,2004-04-27 16:00,ZBYN 271600Z AUTO 11004KT 6SM 13/05 A2980 RMK T01300050 IEM_DS3505
ZBYN,2004-04-27 17:00,ZBYN 271700Z AUTO 11004KT 6SM 11/05 A2980 RMK T01100050 IEM_DS3505
ZBYN,2004-04-27 18:00,ZBYN 271800Z AUTO 14004KT 6SM 13/07 A2977 RMK SLP071 T01300066 57008 IEM_DS3505
ZBYN,2004-04-27 19:00,ZBYN 271900Z AUTO 11006KT 6SM 11/05 A2977 RMK T01100050 IEM_DS3505
ZBYN,2004-04-27 20:00,ZBYN 272000Z AUTO 13006KT 6SM 10/05 A2977 RMK T01000050 IEM_DS3505
ZBYN,2004-04-27 21:00,ZBYN 272100Z AUTO 09002KT 6SM 11/07 A2977 RMK SLP073 T01080066 52002 IEM_DS3505
ZBYN,2004-04-27 22:00,ZBYN 272200Z AUTO 11004KT 5SM 08/05 A2977 RMK T00800050 IEM_DS3505
ZBYN,2004-04-27 23:00,ZBYN 272300Z AUTO 13004KT 4SM 10/06 A2980 RMK T01000060 IEM_DS3505
ZBYN,2004-04-28 00:00,ZBYN 280000Z AUTO 14004KT 5SM 14/08 A2980 RMK SLP079 T01440079 52005 IEM_DS3505
ZBYN,2004-04-28 01:00,ZBYN 280100Z AUTO 17004KT 6SM 15/06 A2980 RMK T01500060 IEM_DS3505
ZBYN,2004-04-28 02:00,ZBYN 280200Z AUTO 17004KT 6SM 19/06 A2977 RMK T01900060 IEM_DS3505
ZBYN,2004-04-28 03:00,ZBYN 280300Z AUTO 18010KT 6SM 22/10 A2977 RMK SLP057 T02190095 57016 IEM_DS3505
ZBYN,2004-04-28 04:00,ZBYN 280400Z AUTO 17004KT 6SM 22/06 A2974 RMK T02200060 IEM_DS3505
ZBYN,2004-04-28 05:00,ZBYN 280500Z AUTO 18006KT 6SM 25/06 A2968 RMK T02500060 IEM_DS3505
ZBYN,2004-04-28 06:00,ZBYN 280600Z AUTO 16010KT 6SM 28/09 A2968 RMK SLP021 T02750089 57027 IEM_DS3505
ZBYN,2004-04-28 07:00,ZBYN 280700Z AUTO 22008KT 6SM 28/04 A2965 RMK T02800040 IEM_DS3505
ZBYN,2004-04-28 08:00,ZBYN 280800Z AUTO 22006KT 6SM 29/04 A2962 RMK T02900040 IEM_DS3505
ZBYN,2004-04-28 09:00,ZBYN 280900Z AUTO 18008KT 7SM 28/09 A2959 RMK SLP004 T02830086 57018 IEM_DS3505
ZBYN,2004-04-28 10:00,ZBYN 281000Z AUTO 22004KT 6SM 27/05 A2962 RMK T02700050 IEM_DS3505
ZBYN,2004-04-28 11:00,ZBYN 281100Z AUTO 23004KT 6SM 25/03 A2962 RMK T02500030 IEM_DS3505
ZBYN,2004-04-28 12:00,ZBYN 281200Z AUTO 16004KT 7SM 22/06 A2965 RMK SLP024 T02240062 52015 IEM_DS3505
ZBYN,2004-04-28 13:00,ZBYN 281300Z AUTO 15004KT 6SM 21/04 A2968 RMK T02100040 IEM_DS3505
ZBYN,2004-04-28 14:00,ZBYN 281400Z AUTO 14004KT 6SM 18/06 A2968 RMK T01800060 IEM_DS3505
ZBYN,2004-04-28 15:00,ZBYN 281500Z AUTO 14004KT 6SM 19/09 A2971 RMK SLP034 T01890091 52015 IEM_DS3505
ZBYN,2004-04-28 16:00,ZBYN 281600Z AUTO 14006KT 6SM 18/09 A2971 RMK T01800090 IEM_DS3505
ZBYN,2004-04-28 17:00,ZBYN 281700Z AUTO 13006KT 6SM 17/10 A2971 RMK T01700100 IEM_DS3505
ZBYN,2004-04-28 18:00,ZBYN 281800Z AUTO 16004KT 6SM 15/11 A2968 RMK SLP029 T01530111 57002 IEM_DS3505
ZBYN,2004-04-28 19:00,ZBYN 281900Z AUTO 10006KT 6SM 15/09 A2968 RMK T01500090 IEM_DS3505
ZBYN,2004-04-28 20:00,ZBYN 282000Z AUTO 13002KT 6SM 13/09 A2968 RMK T01300090 IEM_DS3505
ZBYN,2004-04-28 21:00,ZBYN 282100Z AUTO 27002KT 6SM 14/11 A2968 RMK SLP026 T01390111 57003 IEM_DS3505
ZBYN,2004-04-28 22:00,ZBYN 282200Z AUTO 11002KT 4SM 12/09 A2971 RMK T01200090 IEM_DS3505
ZBYN,2004-04-28 23:00,ZBYN 282300Z AUTO 00000KT 2SM 13/10 A2971 RMK T01300100 IEM_DS3505
ZBYN,2004-04-29 00:00,ZBYN 290000Z AUTO 29002KT 2 1/2SM 18/12 A2971 RMK SLP045 T01760125 52014 IEM_DS3505
ZBYN,2004-04-29 01:00,ZBYN 290100Z AUTO 00000KT 2SM 18/11 A2974 RMK T01800110 IEM_DS3505
ZBYN,2004-04-29 02:00,ZBYN 290200Z AUTO 2 1/2SM 21/11 A2971 RMK T02100110 IEM_DS3505
ZBYN,2004-04-29 03:00,ZBYN 290300Z AUTO 09004KT 5SM 24/13 A2971 RMK SLP034 T02390129 57006 IEM_DS3505
ZBYN,2004-04-29 04:00,ZBYN 290400Z AUTO 6SM 24/10 A2968 RMK T02400100 IEM_DS3505
ZBYN,2004-04-29 05:00,ZBYN 290500Z AUTO 6SM 26/08 A2965 RMK T02600080 IEM_DS3505
ZBYN,2004-04-29 06:00,ZBYN 290600Z AUTO 18006KT 6SM 28/11 RMK SLP006 T02850111 57024 IEM_DS3505
ZBYN,2004-04-29 07:00,ZBYN 290700Z AUTO 18006KT 6SM 28/05 A2962 RMK T02800050 IEM_DS3505
ZBYN,2004-04-29 08:00,ZBYN 290800Z AUTO 09017KT 7SM 27/07 A2962 RMK T02700070 IEM_DS3505
ZBYN,2004-04-29 09:00,ZBYN 290900Z AUTO 11021G29KT 6SM 23/13 A2965 RMK SLP024 T02300129 52006 IEM_DS3505
ZBYN,2004-04-29 10:00,ZBYN 291000Z AUTO 09021G35KT 1 1/4SM 18/11 A2971 RMK T01800110 IEM_DS3505
ZBYN,2004-04-29 11:00,ZBYN 291100Z AUTO 07017KT 1 1/2SM 18/11 A2977 RMK T01800110 IEM_DS3505
ZBYN,2004-04-29 12:00,ZBYN 291200Z AUTO 09010KT 6SM 19/12 A2980 RMK SLP075 T01890124 52046 IEM_DS3505
ZBYN,2004-04-29 13:00,ZBYN 291300Z AUTO 07012KT 6SM 17/11 A2985 RMK T01700110 IEM_DS3505
ZBYN,2004-04-29 14:00,ZBYN 291400Z AUTO 08010KT 6SM 16/11 A2988 RMK T01600110 IEM_DS3505
ZBYN,2004-04-29 15:00,ZBYN 291500Z AUTO 09008KT 6SM 17/12 A2991 RMK SLP108 T01700121 52037 IEM_DS3505
ZBYN,2004-04-29 16:00,ZBYN 291600Z AUTO 09016KT 6SM 15/10 A2991 RMK T01500100 IEM_DS3505
ZBYN,2004-04-29 17:00,ZBYN 291700Z AUTO 10019KT 7SM 13/08 A2994 RMK T01300080 IEM_DS3505
ZBYN,2004-04-29 18:00,ZBYN 291800Z AUTO 09014KT 6SM 13/08 A2997 RMK SLP134 T01290084 52024 IEM_DS3505
ZBYN,2004-04-29 19:00,ZBYN 291900Z AUTO 08017KT 6SM 11/07 A3000 RMK T01100070 IEM_DS3505
ZBYN,2004-04-29 20:00,ZBYN 292000Z AUTO 08012KT 7SM 10/07 A3000 RMK T01000070 IEM_DS3505
ZBYN,2004-04-29 21:00,ZBYN 292100Z AUTO 07008KT 6SM 12/08 A3003 RMK 70002 SLP159 T01220077 52014 IEM_DS3505
ZBYN,2004-04-29 22:00,ZBYN 292200Z AUTO 09010KT 6SM 10/06 A3006 RMK T01000060 IEM_DS3505
ZBYN,2004-04-29 23:00,ZBYN 292300Z AUTO 07014KT 6SM 10/05 A3009 RMK T01000050 IEM_DS3505
ZBYN,2004-04-30 00:00,ZBYN 300000Z AUTO 09012KT 6SM 12/07 A3009 RMK 60002 70002 SLP189 T01170072 52021 IEM_DS3505
ZBYN,2004-04-30 01:00,ZBYN 300100Z AUTO 07014KT 7SM 11/05 A3012 RMK T01100050 IEM_DS3505
ZBYN,2004-04-30 02:00,ZBYN 300200Z AUTO 07016KT 7SM 10/05 A3012 RMK T01000050 IEM_DS3505
ZBYN,2004-04-30 03:00,ZBYN 300300Z AUTO 09010KT 5SM 12/07 A3012 RMK SLP203 T01190072 52010 IEM_DS3505
ZBYN,2004-04-30 04:00,ZBYN 300400Z AUTO 07012KT 7SM 11/05 A3012 RMK T01100050 IEM_DS3505
ZBYN,2004-04-30 06:00,ZBYN 300600Z AUTO 07010KT 7SM 13/06 A3009 RMK SLP195 T01270065 57012 IEM_DS3505
ZBYN,2004-04-30 07:00,ZBYN 300700Z AUTO 08017KT 6SM 11/05 A3006 RMK T01100050 IEM_DS3505
ZBYN,2004-04-30 08:00,ZBYN 300800Z AUTO 08017KT 6SM 10/05 A3006 RMK T01000050 IEM_DS3505
ZBYN,2004-04-30 09:00,ZBYN 300900Z AUTO 09008KT 6SM 12/06 A3003 RMK SLP183 T01220063 57013 IEM_DS3505
ZBYN,2004-04-30 10:00,ZBYN 301000Z AUTO 08014KT 6SM 10/05 A3006 RMK T01000050 IEM_DS3505
ZBYN,2004-04-30 11:00,ZBYN 301100Z AUTO 07014KT 6SM 10/05 A3006 RMK T01000050 IEM_DS3505
ZBYN,2004-04-30 12:00,ZBYN 301200Z AUTO 07004KT 6SM 12/06 A3006 RMK SLP193 T01200063 52008 IEM_DS3505
ZBYN,2004-04-30 13:00,ZBYN 301300Z AUTO 07014KT 7SM 09/05 A3009 RMK T00900050 IEM_DS3505
ZBYN,2004-04-30 14:00,ZBYN 301400Z AUTO 07012KT 7SM 10/06 A3009 RMK T01000060 IEM_DS3505
ZBYN,2004-04-30 15:00,ZBYN 301500Z AUTO 32006KT 5SM 10/08 A3012 RMK SLP209 T01050081 52013 IEM_DS3505
ZBYN,2004-04-30 16:00,ZBYN 301600Z AUTO 05008KT 7SM 10/05 A3009 RMK T01000050 IEM_DS3505
ZBYN,2004-04-30 17:00,ZBYN 301700Z AUTO 06004KT 6SM 10/05 A3006 RMK T01000050 IEM_DS3505
ZBYN,2004-04-30 18:00,ZBYN 301800Z AUTO 32002KT 5SM 10/08 A3006 RMK SLP185 T01040075 57021 IEM_DS3505
ZBYN,2004-04-30 19:00,ZBYN 301900Z AUTO 08008KT 6SM 09/05 A3003 RMK T00900050 IEM_DS3505
ZBYN,2004-04-30 20:00,ZBYN 302000Z AUTO 08008KT 6SM 09/04 A3003 RMK T00900040 IEM_DS3505
ZBYN,2004-04-30 21:00,ZBYN 302100Z AUTO 02004KT 6SM 11/05 A3003 RMK 70000 SLP177 T01100053 57007 IEM_DS3505
ZBYN,2004-04-30 22:00,ZBYN 302200Z AUTO 08012KT 6SM 09/03 A3003 RMK T00900030 IEM_DS3505
ZBYN,2004-04-30 23:00,ZBYN 302300Z AUTO 09010KT 6SM 09/03 A3003 RMK T00900030 IEM_DS3505
ZBYN,2004-05-01 00:00,ZBYN 010000Z AUTO 09008KT 5SM 11/05 A3003 RMK 70000 SLP182 T01090046 52004 IEM_DS3505
ZBYN,2004-05-01 01:00,ZBYN 010100Z AUTO 09006KT 6SM 10/03 A3003 RMK T01000030 IEM_DS3505
ZBYN,2004-05-01 02:00,ZBYN 010200Z AUTO 07008KT 6SM 11/03 A3003 RMK T01100030 IEM_DS3505
ZBYN,2004-05-01 03:00,ZBYN 010300Z AUTO 11004KT 7SM 13/03 A3000 RMK SLP172 T01330026 57008 IEM_DS3505
ZBYN,2004-05-01 04:00,ZBYN 010400Z AUTO 05008KT 6SM 13/01 A2997 RMK T01300010 IEM_DS3505
ZBYN,2004-05-01 05:00,ZBYN 010500Z AUTO 06004KT 7SM 13/01 A2997 RMK T01300010 IEM_DS3505
ZBYN,2004-05-01 06:00,ZBYN 010600Z AUTO 34006KT 6SM 12/06 A2994 RMK SLP153 T01190062 57019 IEM_DS3505
ZBYN,2004-05-01 07:00,ZBYN 010700Z AUTO 33010KT 6SM 12/03 A2991 RMK T01200030 IEM_DS3505
ZBYN,2004-05-01 08:00,ZBYN 010800Z AUTO 34010KT 6SM 12/03 A2991 RMK T01200030 IEM_DS3505
ZBYN,2004-05-01 09:00,ZBYN 010900Z AUTO 34004KT 6SM 12/06 A2988 RMK SLP132 T01230062 57018 IEM_DS3505
ZBYN,2004-05-01 10:00,ZBYN 011000Z AUTO 34008KT 4SM 11/05 A2988 RMK T01100050 IEM_DS3505
ZBYN,2004-05-01 11:00,ZBYN 011100Z AUTO 33006KT 4SM 10/06 A2988 RMK T01000060 IEM_DS3505
ZBYN,2004-05-01 12:00,ZBYN 011200Z AUTO 34004KT 5SM 11/08 A2991 RMK SLP138 T01070079 52003 IEM_DS3505
ZBYN,2004-05-01 13:00,ZBYN 011300Z AUTO 00000KT 4SM 10/07 A2991 RMK T01000070 IEM_DS3505
ZBYN,2004-05-01 14:00,ZBYN 011400Z AUTO 02002KT 10/04 A2991 RMK T01000040 IEM_DS3505
ZBYN,2004-05-01 15:00,ZBYN 011500Z AUTO 32006KT 5SM 11/07 A2991 RMK SLP141 T01060073 52006 IEM_DS3505
ZBYN,2004-05-01 16:00,ZBYN 011600Z AUTO 33004KT 4SM 10/07 A2991 RMK T01000070 IEM_DS3505
ZBYN,2004-05-01 17:00,ZBYN 011700Z AUTO 33004KT 5SM 09/06 A2991 RMK T00900060 IEM_DS3505
ZBYN,2004-05-01 18:00,ZBYN 011800Z AUTO 34004KT 4SM 11/07 A2991 RMK SLP134 T01070068 57008 IEM_DS3505
ZBYN,2004-05-01 20:00,ZBYN 012000Z AUTO 27002KT 5SM 09/06 A2988 RMK T00900060 IEM_DS3505
ZBYN,2004-05-01 21:00,ZBYN 012100Z AUTO 32002KT 5SM 10/08 A2991 RMK 70000 SLP135 T01030081 52001 IEM_DS3505
ZBYN,2004-05-01 22:00,ZBYN 012200Z AUTO 31002KT 5SM 09/06 A2991 RMK T00900060 IEM_DS3505
ZBYN,2004-05-01 23:00,ZBYN 012300Z AUTO 31004KT 3SM 09/07 A2991 RMK T00900070 IEM_DS3505
ZBYN,2004-05-02 00:00,ZBYN 020000Z AUTO 34004KT 5SM 10/08 A2991 RMK 70000 SLP143 T01040076 52005 IEM_DS3505
ZBYN,2004-05-02 01:00,ZBYN 020100Z AUTO 30004KT 2 1/2SM 10/07 A2994 RMK T01000070 IEM_DS3505
ZBYN,2004-05-02 02:00,ZBYN 020200Z AUTO 33006KT 3SM 10/07 A2994 RMK T01000070 IEM_DS3505
ZBYN,2004-05-02 03:00,ZBYN 020300Z AUTO 34002KT 5SM 11/10 A2994 RMK SLP154 T01110095 52011 IEM_DS3505
ZBYN,2004-05-02 04:00,ZBYN 020400Z AUTO 31008KT 2 1/2SM 10/08 A2994 RMK T01000080 IEM_DS3505
ZBYN,2004-05-02 05:00,ZBYN 020500Z AUTO 33010KT 4SM 10/07 A2994 RMK T01000070 IEM_DS3505
ZBYN,2004-05-02 06:00,ZBYN 020600Z AUTO 34004KT 5SM 10/09 A2994 RMK 60012 SLP159 T01040087 52003 IEM_DS3505
ZBYN,2004-05-02 07:00,ZBYN 020700Z AUTO 32012KT 4SM 10/07 A2994 RMK T01000070 IEM_DS3505
ZBYN,2004-05-02 08:00,ZBYN 020800Z AUTO 31008KT 7SM 09/07 A2994 RMK T00900070 IEM_DS3505
ZBYN,2004-05-02 09:00,ZBYN 020900Z AUTO 32008KT 12SM 10/07 A2997 RMK SLP164 T00950069 52003 IEM_DS3505
ZBYN,2004-05-02 10:00,ZBYN 021000Z AUTO 32008KT 6SM 09/05 A2997 RMK T00900050 IEM_DS3505
ZBYN,2004-05-02 11:00,ZBYN 021100Z AUTO 30004KT 6SM 09/05 A3000 RMK T00900050 IEM_DS3505
ZBYN,2004-05-02 12:00,ZBYN 021200Z AUTO 32008KT 11SM 10/04 A3003 RMK 60012 SLP183 T01000044 52018 IEM_DS3505
ZBYN,2004-05-02 13:00,ZBYN 021300Z AUTO 31004KT 7SM 09/03 A3006 RMK T00900030 IEM_DS3505
ZBYN,2004-05-02 14:00,ZBYN 021400Z AUTO 34008KT 6SM 08/01 A3009 RMK T00800010 IEM_DS3505
ZBYN,2004-05-02 15:00,ZBYN 021500Z AUTO 36004KT 7SM 09/03 RMK SLP211 T00880028 52025 IEM_DS3505
ZBYN,2004-05-02 17:00,ZBYN 021700Z AUTO 35006KT 6SM 06/00 A3012 RMK T00600000 IEM_DS3505
ZBYN,2004-05-02 18:00,ZBYN 021800Z AUTO 32016KT 7SM 07/01 A3012 RMK SLP222 T00680009 52006 IEM_DS3505
ZBYN,2004-05-02 20:00,ZBYN 022000Z AUTO 24002KT 6SM 04/00 A3012 RMK T00400000 IEM_DS3505
ZBYN,2004-05-02 21:00,ZBYN 022100Z AUTO 32004KT 7SM 06/00 A3012 RMK 70023 SLP223 T00590003 57002 IEM_DS3505
ZBYN,2004-05-02 22:00,ZBYN 022200Z AUTO 16002KT 6SM 04/00 A3012 RMK T00400000 IEM_DS3505
ZBYN,2004-05-02 23:00,ZBYN 022300Z AUTO 18002KT 6SM 05/00 A3012 RMK T00500000 IEM_DS3505
ZBYN,2004-05-03 00:00,ZBYN 030000Z AUTO 32008KT 12SM 08/M04 A3012 RMK 70023 SLP222 T00751045 52002 IEM_DS3505
ZBYN,2004-05-03 01:00,ZBYN 030100Z AUTO 15004KT 6SM 07/M03 A3015 RMK T00701030 IEM_DS3505
ZBYN,2004-05-03 02:00,ZBYN 030200Z AUTO 07002KT 6SM 08/M07 A3015 RMK T00801070 IEM_DS3505
ZBYN,2004-05-03 03:00,ZBYN 030300Z AUTO 07006KT 16SM 12/M06 A3012 RMK SLP212 T01191064 57004 IEM_DS3505
ZBYN,2004-05-03 04:00,ZBYN 030400Z AUTO 32004KT 6SM 12/M12 A3012 RMK T01201120 IEM_DS3505
ZBYN,2004-05-03 05:00,ZBYN 030500Z AUTO 34004KT 6SM 14/M12 A3009 RMK T01401120 IEM_DS3505
ZBYN,2004-05-03 06:00,ZBYN 030600Z AUTO 29002KT 16SM 15/M06 A3006 RMK SLP188 T01541061 57020 IEM_DS3505
ZBYN,2004-05-03 07:00,ZBYN 030700Z AUTO 36006KT 6SM 16/M12 A3000 RMK T01601120 IEM_DS3505
ZBYN,2004-05-03 08:00,ZBYN 030800Z AUTO 31010KT 6SM 16/M10 A3000 RMK T01601100 IEM_DS3505
ZBYN,2004-05-03 09:00,ZBYN 030900Z AUTO 34006KT 16SM 17/M08 A3000 RMK SLP169 T01671076 57016 IEM_DS3505
ZBYN,2004-05-03 10:00,ZBYN 031000Z AUTO 32010KT 6SM 15/M12 A3000 RMK T01501120 IEM_DS3505
ZBYN,2004-05-03 11:00,ZBYN 031100Z AUTO 36006KT 6SM 14/M11 A3003 RMK T01401110 IEM_DS3505
ZBYN,2004-05-03 12:00,ZBYN 031200Z AUTO 32004KT 16SM 13/M06 A3006 RMK SLP189 T01311064 52015 IEM_DS3505
ZBYN,2004-05-03 13:00,ZBYN 031300Z AUTO 30002KT 6SM 10/M07 A3006 RMK T01001070 IEM_DS3505
ZBYN,2004-05-03 14:00,ZBYN 031400Z AUTO 15002KT 6SM 07/M04 A3009 RMK T00701040 IEM_DS3505
ZBYN,2004-05-03 15:00,ZBYN 031500Z AUTO 02002KT 12SM 11/M07 A3009 RMK SLP195 T01101067 52009 IEM_DS3505
ZBYN,2004-05-03 16:00,ZBYN 031600Z AUTO 20004KT 6SM 10/M09 A3009 RMK T01001090 IEM_DS3505
ZBYN,2004-05-03 18:00,ZBYN 031800Z AUTO 09004KT 9SM 06/M02 RMK SLP197 T00641019 54000 IEM_DS3505
ZBYN,2004-05-03 20:00,ZBYN 032000Z AUTO 14004KT 6SM 03/M03 A3006 RMK T00301030 IEM_DS3505
ZBYN,2004-05-03 21:00,ZBYN 032100Z AUTO 11004KT 9SM 04/M02 A3006 RMK SLP190 T00431017 57008 IEM_DS3505
ZBYN,2004-05-03 22:00,ZBYN 032200Z AUTO 4SM 01/M04 A3006 RMK T00101040 IEM_DS3505
ZBYN,2004-05-03 23:00,ZBYN 032300Z AUTO 10002KT 3SM 05/M03 A3006 RMK T00501030 IEM_DS3505
ZBYN,2004-05-04 00:00,ZBYN 040000Z AUTO 11004KT 6SM 10/M02 A3006 RMK SLP188 T00991017 52002 IEM_DS3505
ZBYN,2004-05-04 01:00,ZBYN 040100Z AUTO 6SM 11/M06 A3006 RMK T01101060 IEM_DS3505
ZBYN,2004-05-04 02:00,ZBYN 040200Z AUTO 6SM 14/M05 A3003 RMK T01401050 IEM_DS3505
ZBYN,2004-05-04 03:00,ZBYN 040300Z AUTO 18004KT 7SM 19/M06 A3000 RMK SLP153 T01891059 57022 IEM_DS3505
ZBYN,2004-05-04 04:00,ZBYN 040400Z AUTO 27006KT 6SM 20/M12 A2994 RMK T02001120 IEM_DS3505
ZBYN,2004-05-04 05:00,ZBYN 040500Z AUTO 31016KT 6SM 22/M15 A2991 RMK T02201150 IEM_DS3505
ZBYN,2004-05-04 06:00,ZBYN 040600Z AUTO 29012KT 16SM 22/M08 A2988 RMK SLP122 T02251082 57030 IEM_DS3505
ZBYN,2004-05-04 07:00,ZBYN 040700Z AUTO 31019KT 6SM 22/M17 A2985 RMK T02201170 IEM_DS3505
ZBYN,2004-05-04 08:00,ZBYN 040800Z AUTO 31016KT 6SM 22/M17 A2985 RMK T02201170 IEM_DS3505
ZBYN,2004-05-04 09:00,ZBYN 040900Z AUTO 27012KT 12SM 22/M09 A2983 RMK SLP105 T02201086 57019 IEM_DS3505
ZBYN,2004-05-04 10:00,ZBYN 041000Z AUTO 27008KT 6SM 21/M13 A2983 RMK T02101130 IEM_DS3505
ZBYN,2004-05-04 11:00,ZBYN 041100Z AUTO 26006KT 6SM 19/M12 A2980 RMK T01901120 IEM_DS3505
ZBYN,2004-05-04 12:00,ZBYN 041200Z AUTO 27006KT 9SM 19/M07 A2983 RMK SLP094 T01901073 57006 IEM_DS3505
ZBYN,2004-05-04 13:00,ZBYN 041300Z AUTO 25008KT 6SM 16/M12 A2983 RMK T01601120 IEM_DS3505
ZBYN,2004-05-04 14:00,ZBYN 041400Z AUTO 25006KT 6SM 16/M13 A2983 RMK T01601130 IEM_DS3505
ZBYN,2004-05-04 15:00,ZBYN 041500Z AUTO 27004KT 9SM 16/M07 A2983 RMK SLP092 T01591070 52006 IEM_DS3505
ZBYN,2004-05-04 16:00,ZBYN 041600Z AUTO 13006KT 6SM 10/M06 A2983 RMK T01001060 IEM_DS3505
ZBYN,2004-05-04 17:00,ZBYN 041700Z AUTO 12002KT 6SM 07/M05 A2983 RMK T00701050 IEM_DS3505
ZBYN,2004-05-04 20:00,ZBYN 042000Z AUTO 09004KT 6SM 05/M05 A2983 RMK T00501050 IEM_DS3505
ZBYN,2004-05-04 21:00,ZBYN 042100Z AUTO 09006KT 9SM 09/M05 A2983 RMK SLP092 T00921054 57002 IEM_DS3505
ZBYN,2004-05-04 22:00,ZBYN 042200Z AUTO 10004KT 6SM 06/M04 A2983 RMK T00601040 IEM_DS3505
ZBYN,2004-05-05 00:00,ZBYN 050000Z AUTO 11008KT 6SM 13/M02 A2985 RMK SLP105 T01261017 52013 IEM_DS3505
ZBYN,2004-05-05 01:00,ZBYN 050100Z AUTO 17002KT 6SM 14/M05 A2985 RMK T01401050 IEM_DS3505
ZBYN,2004-05-05 02:00,ZBYN 050200Z AUTO 20004KT 6SM 17/M05 A2985 RMK T01701050 IEM_DS3505
ZBYN,2004-05-05 03:00,ZBYN 050300Z AUTO 18008KT 6SM 21/M00 A2983 RMK SLP089 T02141005 57007 IEM_DS3505
ZBYN,2004-05-05 04:00,ZBYN 050400Z AUTO 23008KT 6SM 23/M08 A2980 RMK T02301080 IEM_DS3505
ZBYN,2004-05-05 05:00,ZBYN 050500Z AUTO 31016KT 6SM 26/M11 A2977 RMK T02601110 IEM_DS3505
ZBYN,2004-05-05 06:00,ZBYN 050600Z AUTO 29014KT 12SM 27/M05 A2977 RMK SLP061 T02681049 57026 IEM_DS3505
ZBYN,2004-05-05 07:00,ZBYN 050700Z AUTO 29014G23KT 6SM 26/M12 A2974 RMK T02601120 IEM_DS3505
ZBYN,2004-05-05 08:00,ZBYN 050800Z AUTO 30016KT 6SM 27/M10 A2974 RMK T02701100 IEM_DS3505
ZBYN,2004-05-05 09:00,ZBYN 050900Z AUTO 29012KT 11SM 27/M06 A2974 RMK T02671061 IEM_DS3505
ZBYN,2004-05-05 10:00,ZBYN 051000Z AUTO 31010KT 6SM 25/M11 A2974 RMK T02501110 IEM_DS3505
ZBYN,2004-05-05 11:00,ZBYN 051100Z AUTO 28004KT 6SM 23/M09 A2977 RMK T02301090 IEM_DS3505
ZBYN,2004-05-05 12:00,ZBYN 051200Z AUTO 27002KT 11SM 21/M02 A2977 RMK SLP073 T02081023 52008 IEM_DS3505
ZBYN,2004-05-05 13:00,ZBYN 051300Z AUTO 09002KT 6SM 17/M06 A2980 RMK T01701060 IEM_DS3505
ZBYN,2004-05-05 14:00,ZBYN 051400Z AUTO 00000KT 6SM 14/M04 A2983 RMK T01401040 IEM_DS3505
ZBYN,2004-05-05 15:00,ZBYN 051500Z AUTO 32004KT 9SM 17/M01 A2985 RMK SLP094 T01661014 52026 IEM_DS3505
ZBYN,2004-05-05 16:00,ZBYN 051600Z AUTO 00000KT 6SM 13/M05 A2988 RMK T01301050 IEM_DS3505
ZBYN,2004-05-05 18:00,ZBYN 051800Z AUTO 16002KT 9SM 12/M01 A2988 RMK SLP107 T01171007 52012 IEM_DS3505
ZBYN,2004-05-05 19:00,ZBYN 051900Z AUTO 11002KT 6SM 08/M04 A2991 RMK T00801040 IEM_DS3505
ZBYN,2004-05-05 20:00,ZBYN 052000Z AUTO 06002KT 6SM 08/M03 A2991 RMK T00801030 IEM_DS3505
ZBYN,2004-05-05 21:00,ZBYN 052100Z AUTO 14002KT 9SM 08/01 A2994 RMK SLP128 T00840011 52015 IEM_DS3505
ZBYN,2004-05-05 22:00,ZBYN 052200Z AUTO 13002KT 6SM 06/M04 A2997 RMK T00601040 IEM_DS3505
ZBYN,2004-05-05 23:00,ZBYN 052300Z AUTO 10002KT 6SM 09/M02 A3000 RMK T00901020 IEM_DS3505
ZBYN,2004-05-06 00:00,ZBYN 060000Z AUTO 36002KT 6SM 15/00 A3000 RMK SLP154 T01530000 52025 IEM_DS3505
ZBYN,2004-05-06 01:00,ZBYN 060100Z AUTO 33002KT 6SM 17/M04 A3000 RMK T01701040 IEM_DS3505
ZBYN,2004-05-06 02:00,ZBYN 060200Z AUTO 6SM 20/M04 A3000 RMK T02001040 IEM_DS3505
ZBYN,2004-05-06 03:00,ZBYN 060300Z AUTO 11004KT 6SM 24/M00 RMK SLP133 T02391004 57013 IEM_DS3505
ZBYN,2004-05-06 04:00,ZBYN 060400Z AUTO 13006KT 6SM 25/M09 A2994 RMK T02501090 IEM_DS3505
ZBYN,2004-05-06 05:00,ZBYN 060500Z AUTO 6SM 26/M11 A2991 RMK T02601110 IEM_DS3505
ZBYN,2004-05-06 06:00,ZBYN 060600Z AUTO 20004KT 12SM 28/M08 A2988 RMK SLP104 T02771079 57028 IEM_DS3505
ZBYN,2004-05-06 07:00,ZBYN 060700Z AUTO 13004KT 6SM 27/M13 A2988 RMK T02701130 IEM_DS3505
ZBYN,2004-05-06 08:00,ZBYN 060800Z AUTO 6SM 27/M14 A2985 RMK T02701140 IEM_DS3505
ZBYN,2004-05-06 09:00,ZBYN 060900Z AUTO 11004KT 12SM 28/M05 A2983 RMK SLP086 T02761054 57021 IEM_DS3505
ZBYN,2004-05-06 10:00,ZBYN 061000Z AUTO 10008KT 6SM 25/M05 A2983 RMK T02501050 IEM_DS3505
ZBYN,2004-05-06 11:00,ZBYN 061100Z AUTO 10012KT 6SM 23/M01 A2985 RMK T02301010 IEM_DS3505
ZBYN,2004-05-06 12:00,ZBYN 061200Z AUTO 09012KT 9SM 23/04 A2988 RMK SLP099 T02330038 52015 IEM_DS3505
ZBYN,2004-05-06 13:00,ZBYN 061300Z AUTO 08012KT 6SM 21/02 A2991 RMK T02100020 IEM_DS3505
ZBYN,2004-05-06 14:00,ZBYN 061400Z AUTO 11006KT 6SM 19/03 A2994 RMK T01900030 IEM_DS3505
ZBYN,2004-05-06 15:00,ZBYN 061500Z AUTO 11004KT 6SM 20/07 A2994 RMK SLP111 T01980069 52018 IEM_DS3505
ZBYN,2004-05-06 16:00,ZBYN 061600Z AUTO 13004KT 6SM 18/04 A2994 RMK T01800040 IEM_DS3505
ZBYN,2004-05-06 17:00,ZBYN 061700Z AUTO 11002KT 6SM 17/05 A2991 RMK T01700050 IEM_DS3505
ZBYN,2004-05-06 18:00,ZBYN 061800Z AUTO 11002KT 6SM 17/08 RMK SLP101 T01710077 57007 IEM_DS3505
ZBYN,2004-05-06 20:00,ZBYN 062000Z AUTO 10004KT 6SM 13/06 A2988 RMK T01300060 IEM_DS3505
ZBYN,2004-05-06 21:00,ZBYN 062100Z AUTO 11002KT 6SM 14/08 A2988 RMK SLP097 T01420084 57008 IEM_DS3505
ZBYN,2004-05-06 22:00,ZBYN 062200Z AUTO 08004KT 6SM 14/06 A2988 RMK T01400060 IEM_DS3505
ZBYN,2004-05-06 23:00,ZBYN 062300Z AUTO 09004KT 6SM 16/06 A2988 RMK T01600060 IEM_DS3505
ZBYN,2004-05-07 00:00,ZBYN 070000Z AUTO 36002KT 6SM 19/09 A2988 RMK SLP102 T01860086 52005 IEM_DS3505
ZBYN,2004-05-07 01:00,ZBYN 070100Z AUTO 14004KT 6SM 20/04 A2988 RMK T02000040 IEM_DS3505
ZBYN,2004-05-07 02:00,ZBYN 070200Z AUTO 17004KT 6SM 20/04 A2988 RMK T02000040 IEM_DS3505
ZBYN,2004-05-07 03:00,ZBYN 070300Z AUTO 16006KT 6SM 23/05 A2985 RMK SLP086 T02280048 57014 IEM_DS3505
ZBYN,2004-05-07 04:00,ZBYN 070400Z AUTO 19004KT 6SM 22/M01 A2983 RMK T02201010 IEM_DS3505
ZBYN,2004-05-07 05:00,ZBYN 070500Z AUTO 25004KT 6SM 22/00 A2983 RMK T02200000 IEM_DS3505
ZBYN,2004-05-07 06:00,ZBYN 070600Z AUTO 22008KT 7SM 25/02 A2980 RMK SLP062 T02490018 57023 IEM_DS3505
ZBYN,2004-05-07 07:00,ZBYN 070700Z AUTO 20004KT 6SM 24/00 A2977 RMK T02400000 IEM_DS3505
ZBYN,2004-05-07 08:00,ZBYN 070800Z AUTO 21006KT 6SM 24/M02 A2974 RMK T02401020 IEM_DS3505
ZBYN,2004-05-07 09:00,ZBYN 070900Z AUTO 18006KT 7SM 25/02 A2974 RMK SLP045 T02500025 57019 IEM_DS3505
ZBYN,2004-05-07 10:00,ZBYN 071000Z AUTO 22002KT 6SM 23/M02 A2974 RMK T02301020 IEM_DS3505
ZBYN,2004-05-07 11:00,ZBYN 071100Z AUTO 00000KT 6SM 21/M01 A2971 RMK T02101010 IEM_DS3505
ZBYN,2004-05-07 12:00,ZBYN 071200Z AUTO 11002KT 7SM 19/05 A2974 RMK SLP053 T01900048 52005 IEM_DS3505
ZBYN,2004-05-07 13:00,ZBYN 071300Z AUTO 11004KT 6SM 15/02 A2977 RMK T01500020 IEM_DS3505
ZBYN,2004-05-07 15:00,ZBYN 071500Z AUTO 16006KT 7SM 16/08 A2977 RMK SLP059 T01640079 52008 IEM_DS3505
ZBYN,2004-05-07 16:00,ZBYN 071600Z AUTO 10006KT 6SM 15/07 A2974 RMK T01500070 IEM_DS3505
ZBYN,2004-05-07 17:00,ZBYN 071700Z AUTO 10004KT 6SM 14/07 A2974 RMK T01400070 IEM_DS3505
ZBYN,2004-05-07 18:00,ZBYN 071800Z AUTO 34002KT 7SM 14/07 A2974 RMK SLP051 T01370073 57009 IEM_DS3505
ZBYN,2004-05-07 19:00,ZBYN 071900Z AUTO 2 1/2SM 12/07 A2974 RMK T01200070 IEM_DS3505
ZBYN,2004-05-07 21:00,ZBYN 072100Z AUTO 25002KT 6SM 11/08 A2974 RMK SLP052 T01070083 57003 IEM_DS3505
ZBYN,2004-05-07 22:00,ZBYN 072200Z AUTO 12002KT 4SM 09/05 A2974 RMK T00900050 IEM_DS3505
ZBYN,2004-05-07 23:00,ZBYN 072300Z AUTO 00000KT 2 1/2SM 11/06 A2971 RMK T01100060 IEM_DS3505
ZBYN,2004-05-08 00:00,ZBYN 080000Z AUTO 29004KT 6SM 16/10 A2971 RMK SLP051 T01550096 57002 IEM_DS3505
ZBYN,2004-05-08 01:00,ZBYN 080100Z AUTO 2 1/2SM 17/05 A2971 RMK T01700050 IEM_DS3505
ZBYN,2004-05-08 02:00,ZBYN 080200Z AUTO 19/04 A2971 RMK T01900040 IEM_DS3505
ZBYN,2004-05-08 03:00,ZBYN 080300Z AUTO 20002KT 6SM 22/08 A2968 RMK SLP032 T02210075 57012 IEM_DS3505
ZBYN,2004-05-08 04:00,ZBYN 080400Z AUTO 18004KT 6SM 23/03 A2965 RMK T02300030 IEM_DS3505
ZBYN,2004-05-08 05:00,ZBYN 080500Z AUTO 22004KT 6SM 25/03 A2962 RMK T02500030 IEM_DS3505
ZBYN,2004-05-08 06:00,ZBYN 080600Z AUTO 20008KT 6SM 28/05 A2959 RMK SLP997 T02750046 57028 IEM_DS3505
ZBYN,2004-05-08 07:00,ZBYN 080700Z AUTO 24004KT 6SM 28/M03 A2956 RMK T02801030 IEM_DS3505
ZBYN,2004-05-08 08:00,ZBYN 080800Z AUTO 20004KT 6SM 28/M04 A2953 RMK T02801040 IEM_DS3505
ZBYN,2004-05-08 09:00,ZBYN 080900Z AUTO 18008KT 7SM 29/02 A2953 RMK SLP975 T02910024 57022 IEM_DS3505
ZBYN,2004-05-08 10:00,ZBYN 081000Z AUTO 19002KT 6SM 28/M05 A2953 RMK T02801050 IEM_DS3505
ZBYN,2004-05-08 11:00,ZBYN 081100Z AUTO 15002KT 6SM 24/M02 A2953 RMK T02401020 IEM_DS3505
ZBYN,2004-05-08 12:00,ZBYN 081200Z AUTO 22002KT 6SM 22/04 A2956 RMK SLP993 T02230044 52013 IEM_DS3505
ZBYN,2004-05-08 13:00,ZBYN 081300Z AUTO 08010KT 6SM 22/09 A2959 RMK T02200090 IEM_DS3505
ZBYN,2004-05-08 14:00,ZBYN 081400Z AUTO 10010KT 6SM 21/11 A2962 RMK T02100110 IEM_DS3505
ZBYN,2004-05-08 15:00,ZBYN 081500Z AUTO 11006KT 6SM 20/13 A2962 RMK SLP003 T02020129 52016 IEM_DS3505
ZBYN,2004-05-08 16:00,ZBYN 081600Z AUTO 10012KT 18/11 A2962 RMK T01800110 IEM_DS3505
ZBYN,2004-05-08 17:00,ZBYN 081700Z AUTO 08008KT 18/11 A2962 RMK T01800110 IEM_DS3505
ZBYN,2004-05-08 18:00,ZBYN 081800Z AUTO 36002KT 6SM 17/13 A2962 RMK SLP006 T01680128 52005 IEM_DS3505
ZBYN,2004-05-08 19:00,ZBYN 081900Z AUTO 11006KT 4SM 15/11 A2965 RMK T01500110 IEM_DS3505
ZBYN,2004-05-08 20:00,ZBYN 082000Z AUTO 12004KT 4SM 14/10 A2965 RMK T01400100 IEM_DS3505
ZBYN,2004-05-08 21:00,ZBYN 082100Z AUTO 32002KT 4SM 16/11 A2968 RMK SLP022 T01580110 52016 IEM_DS3505
ZBYN,2004-05-08 22:00,ZBYN 082200Z AUTO 00000KT 1 1/4SM 14/10 A2968 RMK T01400100 IEM_DS3505
ZBYN,2004-05-08 23:00,ZBYN 082300Z AUTO 12002KT 1 1/4SM 14/11 A2971 RMK T01400110 IEM_DS3505
ZBYN,2004-05-09 00:00,ZBYN 090000Z AUTO 32004KT 2SM 18/12 A2971 RMK SLP042 T01760119 52011 IEM_DS3505
ZBYN,2004-05-09 01:00,ZBYN 090100Z AUTO 1 1/4SM 19/11 A2971 RMK T01900110 IEM_DS3505
ZBYN,2004-05-09 02:00,ZBYN 090200Z AUTO 1 1/2SM 21/11 A2971 RMK T02100110 IEM_DS3505
ZBYN,2004-05-09 03:00,ZBYN 090300Z AUTO 18002KT 2 1/2SM 24/13 A2968 RMK SLP025 T02450134 57009 IEM_DS3505
ZBYN,2004-05-09 04:00,ZBYN 090400Z AUTO 5SM 26/06 A2965 RMK T02600060 IEM_DS3505
ZBYN,2004-05-09 05:00,ZBYN 090500Z AUTO 17004KT 6SM 28/04 A2962 RMK T02800040 IEM_DS3505
ZBYN,2004-05-09 06:00,ZBYN 090600Z AUTO 18006KT 4SM 30/07 A2962 RMK SLP995 T02980071 57025 IEM_DS3505
ZBYN,2004-05-09 07:00,ZBYN 090700Z AUTO 21004KT 6SM 30/01 A2959 RMK T03000010 IEM_DS3505
ZBYN,2004-05-09 08:00,ZBYN 090800Z AUTO 22008KT 6SM 31/M03 A2956 RMK T03101030 IEM_DS3505
ZBYN,2004-05-09 09:00,ZBYN 090900Z AUTO 18010KT 6SM 32/03 A2953 RMK SLP969 T03180029 57022 IEM_DS3505
ZBYN,2004-05-09 10:00,ZBYN 091000Z AUTO 21004KT 6SM 30/M04 A2956 RMK T03001040 IEM_DS3505
ZBYN,2004-05-09 11:00,ZBYN 091100Z AUTO 15004KT 6SM 28/01 A2956 RMK T02800010 IEM_DS3505
ZBYN,2004-05-09 12:00,ZBYN 091200Z AUTO 20006KT 6SM 27/03 A2959 RMK SLP990 T02690028 52015 IEM_DS3505
ZBYN,2004-05-09 13:00,ZBYN 091300Z AUTO 21004KT 6SM 25/M01 A2962 RMK T02501010 IEM_DS3505
ZBYN,2004-05-09 14:00,ZBYN 091400Z AUTO 19002KT 6SM 24/00 A2962 RMK T02400000 IEM_DS3505
ZBYN,2004-05-09 15:00,ZBYN 091500Z AUTO 11006KT 6SM 22/04 A2965 RMK SLP001 T02230044 52013 IEM_DS3505
ZBYN,2004-05-09 16:00,ZBYN 091600Z AUTO 12004KT 6SM 19/02 A2965 RMK T01900020 IEM_DS3505
ZBYN,2004-05-09 17:00,ZBYN 091700Z AUTO 10004KT 6SM 16/05 A2965 RMK T01600050 IEM_DS3505
ZBYN,2004-05-09 18:00,ZBYN 091800Z AUTO 11004KT 6SM 20/10 A2965 RMK SLP007 T01950100 52009 IEM_DS3505
ZBYN,2004-05-09 19:00,ZBYN 091900Z AUTO 08006KT 6SM 18/08 A2968 RMK T01800080 IEM_DS3505
ZBYN,2004-05-09 20:00,ZBYN 092000Z AUTO 14002KT 6SM 14/07 A2968 RMK T01400070 IEM_DS3505
ZBYN,2004-05-09 21:00,ZBYN 092100Z AUTO 00000KT 6SM 16/10 A2968 RMK SLP021 T01600103 52011 IEM_DS3505
ZBYN,2004-05-09 22:00,ZBYN 092200Z AUTO 30002KT 4SM 16/08 A2971 RMK T01600080 IEM_DS3505
ZBYN,2004-05-09 23:00,ZBYN 092300Z AUTO 28004KT 17/08 A2974 RMK T01700080 IEM_DS3505
ZBYN,2004-05-10 00:00,ZBYN 100000Z AUTO 34004KT 5SM 20/07 A2977 RMK SLP047 T02020066 52023 IEM_DS3505
ZBYN,2004-05-10 01:00,ZBYN 100100Z AUTO 36002KT 21/07 A2977 RMK T02100070 IEM_DS3505
ZBYN,2004-05-10 02:00,ZBYN 100200Z AUTO 04010KT 6SM 24/06 A2977 RMK T02400060 IEM_DS3505
ZBYN,2004-05-10 03:00,ZBYN 100300Z AUTO 07010KT 6SM 27/07 A2980 RMK SLP054 T02690069 52009 IEM_DS3505
ZBYN,2004-05-10 04:00,ZBYN 100400Z AUTO 07012KT 6SM 26/02 A2977 RMK T02600020 IEM_DS3505
ZBYN,2004-05-10 05:00,ZBYN 100500Z AUTO 06012KT 6SM 28/02 A2974 RMK T02800020 IEM_DS3505
ZBYN,2004-05-10 06:00,ZBYN 100600Z AUTO 09006KT 6SM 29/06 A2974 RMK SLP034 T02920060 57019 IEM_DS3505
ZBYN,2004-05-10 07:00,ZBYN 100700Z AUTO 06010KT 7SM 28/03 A2971 RMK T02800030 IEM_DS3505
ZBYN,2004-05-10 08:00,ZBYN 100800Z AUTO 07012KT 7SM 26/03 A2971 RMK T02600030 IEM_DS3505
ZBYN,2004-05-10 09:00,ZBYN 100900Z AUTO 09016KT 6SM 26/07 A2971 RMK SLP037 T02620068 57006 IEM_DS3505
ZBYN,2004-05-10 10:00,ZBYN 101000Z AUTO 08017KT 7SM 22/07 A2974 RMK T02200070 IEM_DS3505
ZBYN,2004-05-10 11:00,ZBYN 101100Z AUTO 08014KT 7SM 20/08 A2980 RMK T02000080 IEM_DS3505
ZBYN,2004-05-10 12:00,ZBYN 101200Z AUTO 09016KT 6SM 20/10 A2985 RMK SLP090 T02040099 52046 IEM_DS3505
ZBYN,2004-05-10 13:00,ZBYN 101300Z AUTO 07014KT 6SM 18/08 A2985 RMK T01800080 IEM_DS3505
ZBYN,2004-05-10 14:00,ZBYN 101400Z AUTO 07016KT 6SM 18/09 A2988 RMK T01800090 IEM_DS3505
ZBYN,2004-05-10 15:00,ZBYN 101500Z AUTO 04006KT 6SM 20/10 RMK SLP098 T01960098 52015 IEM_DS3505
ZBYN,2004-05-10 16:00,ZBYN 101600Z AUTO 08010KT 6SM 18/09 A2988 RMK T01800090 IEM_DS3505
ZBYN,2004-05-10 17:00,ZBYN 101700Z AUTO 09008KT 6SM 17/10 A2988 RMK T01700100 IEM_DS3505
ZBYN,2004-05-10 18:00,ZBYN 101800Z AUTO 09008KT 6SM 19/10 A2988 RMK SLP089 T01890097 57006 IEM_DS3505
ZBYN,2004-05-10 19:00,ZBYN 101900Z AUTO 08010KT 6SM 17/09 A2985 RMK T01700090 IEM_DS3505
ZBYN,2004-05-10 20:00,ZBYN 102000Z AUTO 05004KT 6SM 17/09 A2988 RMK T01700090 IEM_DS3505
ZBYN,2004-05-10 21:00,ZBYN 102100Z AUTO 04002KT 6SM 18/11 A2985 RMK SLP090 T01780111 57004 IEM_DS3505
ZBYN,2004-05-10 22:00,ZBYN 102200Z AUTO 04004KT 6SM 17/09 A2985 RMK T01700090 IEM_DS3505
ZBYN,2004-05-10 23:00,ZBYN 102300Z AUTO 06004KT 6SM 17/08 A2988 RMK T01700080 IEM_DS3505
ZBYN,2004-05-11 00:00,ZBYN 110000Z AUTO 07012KT 5SM 18/09 A2991 RMK 70000 SLP112 T01820093 52012 IEM_DS3505
ZBYN,2004-05-11 01:00,ZBYN 110100Z AUTO 07004KT 1 1/2SM 15/12 A2991 RMK T01500120 IEM_DS3505
ZBYN,2004-05-11 02:00,ZBYN 110200Z AUTO 05008KT 6SM 15/11 A2991 RMK T01500110 IEM_DS3505
ZBYN,2004-05-11 03:00,ZBYN 110300Z AUTO 36008KT 3SM 16/12 A2991 RMK SLP121 T01570121 52004 IEM_DS3505
ZBYN,2004-05-11 04:00,ZBYN 110400Z AUTO 04012KT 6SM 15/09 A2988 RMK T01500090 IEM_DS3505
ZBYN,2004-05-11 05:00,ZBYN 110500Z AUTO 36008KT 6SM 15/10 A2988 RMK T01500100 IEM_DS3505
ZBYN,2004-05-11 06:00,ZBYN 110600Z AUTO 36004KT 6SM 15/11 A2988 RMK 60016 SLP111 T01530113 57011 IEM_DS3505
ZBYN,2004-05-11 07:00,ZBYN 110700Z AUTO 36006KT 4SM 13/11 A2988 RMK T01300110 IEM_DS3505
ZBYN,2004-05-11 09:00,ZBYN 110900Z AUTO 04002KT 6SM 15/12 A2985 RMK SLP101 T01500123 57011 IEM_DS3505
ZBYN,2004-05-11 10:00,ZBYN 111000Z AUTO 08006KT 6SM 14/09 A2985 RMK T01400090 IEM_DS3505
ZBYN,2004-05-11 11:00,ZBYN 111100Z AUTO 04004KT 6SM 14/08 A2985 RMK T01400080 IEM_DS3505
ZBYN,2004-05-11 12:00,ZBYN 111200Z AUTO 22002KT 6SM 13/11 A2985 RMK 60003 SLP107 T01330112 52003 IEM_DS3505
ZBYN,2004-05-11 13:00,ZBYN 111300Z AUTO 06002KT 6SM 13/08 A2988 RMK T01300080 IEM_DS3505
ZBYN,2004-05-11 14:00,ZBYN 111400Z AUTO 04004KT 6SM 11/07 A2988 RMK T01100070 IEM_DS3505
ZBYN,2004-05-11 15:00,ZBYN 111500Z AUTO 11002KT 6SM 11/09 A2988 RMK SLP119 T01070088 52004 IEM_DS3505
ZBYN,2004-05-11 16:00,ZBYN 111600Z AUTO 08006KT 6SM 11/07 A2985 RMK T01100070 IEM_DS3505
ZBYN,2004-05-11 17:00,ZBYN 111700Z AUTO 12004KT 6SM 09/06 A2983 RMK T00900060 IEM_DS3505
ZBYN,2004-05-11 18:00,ZBYN 111800Z AUTO 18004KT 5SM 09/08 A2980 RMK SLP100 T00930081 57020 IEM_DS3505
ZBYN,2004-05-11 19:00,ZBYN 111900Z AUTO 01002KT 6SM 08/06 A2980 RMK T00800060 IEM_DS3505
ZBYN,2004-05-11 20:00,ZBYN 112000Z AUTO 14002KT 3SM 07/06 A2980 RMK T00700060 IEM_DS3505
ZBYN,2004-05-11 21:00,ZBYN 112100Z AUTO 14002KT 5SM 08/07 A2980 RMK 70016 SLP101 T00780074 57002 IEM_DS3505
ZBYN,2004-05-11 22:00,ZBYN 112200Z AUTO 13004KT 1/8SM 08/07 A2980 RMK T00800070 IEM_DS3505
ZBYN,2004-05-11 23:00,ZBYN 112300Z AUTO 1/2SM 11/11 A2983 RMK T01100110 IEM_DS3505
ZBYN,2004-05-12 00:00,ZBYN 120000Z AUTO 11002KT 1/2SM 10/10 A2983 RMK 70016 SLP108 T00990098 52007 IEM_DS3505
ZBYN,2004-05-12 01:00,ZBYN 120100Z AUTO 21002KT 1 1/4SM 12/09 A2983 RMK T01200090 IEM_DS3505
ZBYN,2004-05-12 02:00,ZBYN 120200Z AUTO 1 1/4SM 14/09 A2980 RMK T01400090 IEM_DS3505
ZBYN,2004-05-12 03:00,ZBYN 120300Z AUTO 09004KT 2 1/2SM 19/10 A2980 RMK SLP084 T01920102 57012 IEM_DS3505
ZBYN,2004-05-12 04:00,ZBYN 120400Z AUTO 31004KT 6SM 20/02 A2977 RMK T02000020 IEM_DS3505
ZBYN,2004-05-12 05:00,ZBYN 120500Z AUTO 30010KT 6SM 22/M01 A2977 RMK T02201010 IEM_DS3505
ZBYN,2004-05-12 06:00,ZBYN 120600Z AUTO 36006KT 11SM 23/02 A2977 RMK SLP066 T02320021 57013 IEM_DS3505
ZBYN,2004-05-12 07:00,ZBYN 120700Z AUTO 02010KT 6SM 23/M04 A2974 RMK T02301040 IEM_DS3505
ZBYN,2004-05-12 08:00,ZBYN 120800Z AUTO 01012KT 6SM 23/M06 A2974 RMK T02301060 IEM_DS3505
ZBYN,2004-05-12 09:00,ZBYN 120900Z AUTO 36008KT 12SM 23/M00 A2974 RMK SLP061 T02291005 57007 IEM_DS3505
ZBYN,2004-05-12 10:00,ZBYN 121000Z AUTO 02012KT 6SM 22/M06 A2974 RMK T02201060 IEM_DS3505
ZBYN,2004-05-12 11:00,ZBYN 121100Z AUTO 02008KT 6SM 20/M07 A2977 RMK T02001070 IEM_DS3505
ZBYN,2004-05-12 12:00,ZBYN 121200Z AUTO 36006KT 12SM 20/M03 A2983 RMK SLP095 T02051032 52031 IEM_DS3505
ZBYN,2004-05-12 13:00,ZBYN 121300Z AUTO 35004KT 6SM 16/M04 A2985 RMK T01601040 IEM_DS3505
ZBYN,2004-05-12 14:00,ZBYN 121400Z AUTO 33004KT 6SM 13/M03 A2991 RMK T01301030 IEM_DS3505
ZBYN,2004-05-12 15:00,ZBYN 121500Z AUTO 32002KT 11SM 14/01 A2991 RMK SLP125 T01450008 52032 IEM_DS3505
ZBYN,2004-05-12 16:00,ZBYN 121600Z AUTO 00000KT 6SM 11/M01 A2994 RMK T01101010 IEM_DS3505
ZBYN,2004-05-12 17:00,ZBYN 121700Z AUTO 00000KT 6SM 10/00 A2994 RMK T01000000 IEM_DS3505
ZBYN,2004-05-12 18:00,ZBYN 121800Z AUTO 32002KT 9SM 12/01 A2994 RMK SLP134 T01160013 52010 IEM_DS3505
ZBYN,2004-05-12 19:00,ZBYN 121900Z AUTO 13004KT 6SM 06/M02 A2997 RMK T00601020 IEM_DS3505
ZBYN,2004-05-12 20:00,ZBYN 122000Z AUTO 09002KT 6SM 08/M04 A2997 RMK T00801040 IEM_DS3505
ZBYN,2004-05-12 21:00,ZBYN 122100Z AUTO 34004KT 12SM 12/M01 A2997 RMK SLP138 T01171007 52003 IEM_DS3505
ZBYN,2004-05-12 22:00,ZBYN 122200Z AUTO 14002KT 6SM 05/M02 A3000 RMK T00501020 IEM_DS3505
ZBYN,2004-05-12 23:00,ZBYN 122300Z AUTO 13002KT 6SM 09/00 A3003 RMK T00900000 IEM_DS3505
ZBYN,2004-05-13 00:00,ZBYN 130000Z AUTO 04004KT 12SM 16/M01 A3003 RMK SLP154 T01561006 52017 IEM_DS3505
ZBYN,2004-05-13 01:00,ZBYN 130100Z AUTO 6SM 16/M04 A3003 RMK T01601040 IEM_DS3505
ZBYN,2004-05-13 02:00,ZBYN 130200Z AUTO 6SM 19/M06 A3003 RMK T01901060 IEM_DS3505
ZBYN,2004-05-13 03:00,ZBYN 130300Z AUTO 18004KT 12SM 21/M05 A3000 RMK SLP153 T02141054 57001 IEM_DS3505
ZBYN,2004-05-13 04:00,ZBYN 130400Z AUTO 6SM 21/M13 A2997 RMK T02101130 IEM_DS3505
ZBYN,2004-05-13 05:00,ZBYN 130500Z AUTO 29004KT 6SM 22/M12 A2997 RMK T02201120 IEM_DS3505
ZBYN,2004-05-13 06:00,ZBYN 130600Z AUTO 18006KT 16SM 24/M05 A2994 RMK SLP125 T02361054 57027 IEM_DS3505
ZBYN,2004-05-13 07:00,ZBYN 130700Z AUTO 17004KT 6SM 24/M11 A2988 RMK T02401110 IEM_DS3505
ZBYN,2004-05-13 08:00,ZBYN 130800Z AUTO 20004KT 6SM 24/M09 A2988 RMK T02401090 IEM_DS3505
ZBYN,2004-05-13 09:00,ZBYN 130900Z AUTO 18006KT 12SM 25/M03 A2985 RMK SLP094 T02481026 57026 IEM_DS3505
ZBYN,2004-05-13 10:00,ZBYN 131000Z AUTO 22004KT 6SM 24/M07 A2985 RMK T02401070 IEM_DS3505
ZBYN,2004-05-13 12:00,ZBYN 131200Z AUTO 16006KT 12SM 20/01 A2985 RMK SLP101 T01960011 52004 IEM_DS3505
ZBYN,2004-05-13 13:00,ZBYN 131300Z AUTO 16004KT 6SM 19/M01 A2988 RMK T01901010 IEM_DS3505
ZBYN,2004-05-13 14:00,ZBYN 131400Z AUTO 16004KT 6SM 18/01 A2991 RMK T01800010 IEM_DS3505
ZBYN,2004-05-13 15:00,ZBYN 131500Z AUTO 11008KT 9SM 17/05 A2994 RMK SLP117 T01740054 52020 IEM_DS3505
ZBYN,2004-05-13 16:00,ZBYN 131600Z AUTO 15006KT 6SM 17/03 A2994 RMK T01700030 IEM_DS3505
ZBYN,2004-05-13 17:00,ZBYN 131700Z AUTO 6SM 16/03 A2994 RMK T01600030 IEM_DS3505
ZBYN,2004-05-13 18:00,ZBYN 131800Z AUTO 14004KT 9SM 14/06 A2991 RMK SLP115 T01450064 57003 IEM_DS3505
ZBYN,2004-05-13 19:00,ZBYN 131900Z AUTO 10002KT 6SM 11/04 A2991 RMK T01100040 IEM_DS3505
ZBYN,2004-05-13 20:00,ZBYN 132000Z AUTO 11002KT 6SM 12/04 A2991 RMK T01200040 IEM_DS3505
ZBYN,2004-05-13 21:00,ZBYN 132100Z AUTO 25002KT 9SM 12/07 A2991 RMK SLP113 T01210066 57003 IEM_DS3505
ZBYN,2004-05-13 22:00,ZBYN 132200Z AUTO 09002KT 6SM 11/04 A2991 RMK T01100040 IEM_DS3505
ZBYN,2004-05-13 23:00,ZBYN 132300Z AUTO 09002KT 6SM 14/04 A2991 RMK T01400040 IEM_DS3505
ZBYN,2004-05-14 00:00,ZBYN 140000Z AUTO 14004KT 6SM 17/06 A2991 RMK SLP121 T01680061 52006 IEM_DS3505
ZBYN,2004-05-14 01:00,ZBYN 140100Z AUTO 15004KT 6SM 17/03 A2991 RMK T01700030 IEM_DS3505
ZBYN,2004-05-14 02:00,ZBYN 140200Z AUTO 16004KT 6SM 18/03 A2991 RMK T01800030 IEM_DS3505
ZBYN,2004-05-14 03:00,ZBYN 140300Z AUTO 18006KT 6SM 20/07 A2988 RMK SLP103 T02000074 57015 IEM_DS3505
ZBYN,2004-05-14 04:00,ZBYN 140400Z AUTO 18004KT 6SM 20/05 A2985 RMK T02000050 IEM_DS3505
ZBYN,2004-05-14 05:00,ZBYN 140500Z AUTO 22006KT 6SM 20/05 A2985 RMK T02000050 IEM_DS3505
ZBYN,2004-05-14 06:00,ZBYN 140600Z AUTO 18008KT 5SM 16/12 A2988 RMK SLP109 T01630115 57004 IEM_DS3505
ZBYN,2004-05-14 07:00,ZBYN 140700Z AUTO 23004KT 4SM RMK IEM_DS3505
ZBYN,2004-05-14 08:00,ZBYN 140800Z AUTO 14004KT 3SM 14/11 A2985 RMK T01400110 IEM_DS3505
ZBYN,2004-05-14 09:00,ZBYN 140900Z AUTO 14006KT 4SM 15/12 A2985 RMK SLP106 T01520125 57008 IEM_DS3505
ZBYN,2004-05-14 10:00,ZBYN 141000Z AUTO 11004KT 1 1/2SM 14/11 A2983 RMK T01400110 IEM_DS3505
ZBYN,2004-05-14 11:00,ZBYN 141100Z AUTO 12002KT 2SM 13/11 A2983 RMK T01300110 IEM_DS3505
ZBYN,2004-05-14 12:00,ZBYN 141200Z AUTO 14004KT 4SM 14/13 A2985 RMK 60012 SLP105 T01360127 52004 IEM_DS3505
ZBYN,2004-05-14 13:00,ZBYN 141300Z AUTO 10002KT 2 1/2SM 12/11 A2985 RMK T01200110 IEM_DS3505
ZBYN,2004-05-14 14:00,ZBYN 141400Z AUTO 11002KT 2 1/2SM 12/11 A2988 RMK T01200110 IEM_DS3505
ZBYN,2004-05-14 15:00,ZBYN 141500Z AUTO 14004KT 4SM 13/12 A2988 RMK SLP107 T01310122 52006 IEM_DS3505
ZBYN,2004-05-14 16:00,ZBYN 141600Z AUTO 12002KT 2 1/2SM 12/10 A2988 RMK T01200100 IEM_DS3505
ZBYN,2004-05-14 17:00,ZBYN 141700Z AUTO 00000KT 2 1/2SM 12/11 A2985 RMK T01200110 IEM_DS3505
ZBYN,2004-05-14 18:00,ZBYN 141800Z AUTO 11002KT 4SM 13/12 A2985 RMK 60004 SLP102 T01290121 57011 IEM_DS3505
ZBYN,2004-05-14 19:00,ZBYN 141900Z AUTO 15004KT 2 1/2SM 11/10 A2980 RMK T01100100 IEM_DS3505
ZBYN,2004-05-14 20:00,ZBYN 142000Z AUTO 00000KT 2 1/2SM 11/10 A2983 RMK T01100100 IEM_DS3505
ZBYN,2004-05-14 21:00,ZBYN 142100Z AUTO 20002KT 4SM 11/11 A2983 RMK 70017 SLP106 T01140109 54000 IEM_DS3505
ZBYN,2004-05-14 22:00,ZBYN 142200Z AUTO 21002KT 1SM 11/10 A2985 RMK T01100100 IEM_DS3505
ZBYN,2004-05-14 23:00,ZBYN 142300Z AUTO 00000KT 1SM 11/10 A2985 RMK T01100100 IEM_DS3505
ZBYN,2004-05-15 00:00,ZBYN 150000Z AUTO 11004KT 4SM 14/12 A2985 RMK 70017 SLP110 T01350122 52005 IEM_DS3505
ZBYN,2004-05-15 01:00,ZBYN 150100Z AUTO 22004KT 1 1/4SM 14/11 A2985 RMK T01400110 IEM_DS3505
ZBYN,2004-05-15 02:00,ZBYN 150200Z AUTO 2 1/2SM 15/09 A2985 RMK T01500090 IEM_DS3505
ZBYN,2004-05-15 03:00,ZBYN 150300Z AUTO 16004KT 4SM 18/12 A2985 RMK SLP102 T01840119 57001 IEM_DS3505
ZBYN,2004-05-15 04:00,ZBYN 150400Z AUTO 6SM 19/09 A2983 RMK T01900090 IEM_DS3505
ZBYN,2004-05-15 05:00,ZBYN 150500Z AUTO 17004KT 6SM 20/08 A2980 RMK T02000080 IEM_DS3505
ZBYN,2004-05-15 06:00,ZBYN 150600Z AUTO 18008KT 5SM 21/12 A2980 RMK SLP073 T02060115 57024 IEM_DS3505
ZBYN,2004-05-15 07:00,ZBYN 150700Z AUTO 16006KT 7SM 21/06 A2974 RMK T02100060 IEM_DS3505
ZBYN,2004-05-15 08:00,ZBYN 150800Z AUTO 28012KT 7SM 21/04 A2974 RMK T02100040 IEM_DS3505
ZBYN,2004-05-15 09:00,ZBYN 150900Z AUTO 32008KT 12SM 20/09 A2977 RMK SLP075 T01970093 57001 IEM_DS3505
ZBYN,2004-05-15 10:00,ZBYN 151000Z AUTO 27002KT 7SM 18/07 A2980 RMK T01800070 IEM_DS3505
ZBYN,2004-05-15 11:00,ZBYN 151100Z AUTO 6SM 18/08 A2983 RMK T01800080 IEM_DS3505
ZBYN,2004-05-15 12:00,ZBYN 151200Z AUTO 32008KT 12SM 17/06 A2985 RMK 60004 SLP103 T01730059 52025 IEM_DS3505
ZBYN,2004-05-15 13:00,ZBYN 151300Z AUTO 30014KT 6SM 15/04 A2991 RMK T01500040 IEM_DS3505
ZBYN,2004-05-15 14:00,ZBYN 151400Z AUTO 31016KT 6SM 14/03 A2991 RMK T01400030 IEM_DS3505
ZBYN,2004-05-15 15:00,ZBYN 151500Z AUTO 29008KT 12SM 14/03 A2994 RMK SLP133 T01360031 52029 IEM_DS3505
ZBYN,2004-05-15 16:00,ZBYN 151600Z AUTO 31012KT 6SM 12/01 A2994 RMK T01200010 IEM_DS3505
ZBYN,2004-05-15 18:00,ZBYN 151800Z AUTO 32014KT 12SM 12/02 A2991 RMK SLP126 T01200025 57006 IEM_DS3505
ZBYN,2004-05-15 19:00,ZBYN 151900Z AUTO 30008KT 6SM 09/00 A2991 RMK T00900000 IEM_DS3505
ZBYN,2004-05-15 20:00,ZBYN 152000Z AUTO 29008KT 6SM 08/00 A2991 RMK T00800000 IEM_DS3505
ZBYN,2004-05-15 21:00,ZBYN 152100Z AUTO 34004KT 12SM 09/02 A2991 RMK 70006 SLP127 T00910020 57004 IEM_DS3505
ZBYN,2004-05-15 22:00,ZBYN 152200Z AUTO 31006KT 7SM 08/00 A2991 RMK T00800000 IEM_DS3505
ZBYN,2004-05-15 23:00,ZBYN 152300Z AUTO 29010KT 7SM 07/01 A2991 RMK T00700010 IEM_DS3505
ZBYN,2004-05-16 00:00,ZBYN 160000Z AUTO 29021KT 16SM 10/02 A2988 RMK 70006 SLP128 T00980020 57002 IEM_DS3505
ZBYN,2004-05-16 01:00,ZBYN 160100Z AUTO 32019KT 7SM 08/01 A2991 RMK T00800010 IEM_DS3505
ZBYN,2004-05-16 02:00,ZBYN 160200Z AUTO 32016KT 7SM 11/00 A2991 RMK T01100000 IEM_DS3505
ZBYN,2004-05-16 03:00,ZBYN 160300Z AUTO 32017KT 19SM 14/01 A2991 RMK SLP131 T01400007 52004 IEM_DS3505
ZBYN,2004-05-16 04:00,ZBYN 160400Z AUTO 31021KT 7SM 14/M01 A2991 RMK T01401010 IEM_DS3505
ZBYN,2004-05-16 05:00,ZBYN 160500Z AUTO 32014KT 7SM 14/M05 RMK T01401050 IEM_DS3505
ZBYN,2004-05-16 06:00,ZBYN 160600Z AUTO 32017KT 19SM 18/M05 A2988 RMK SLP117 T01791053 57010 IEM_DS3505
ZBYN,2004-05-16 07:00,ZBYN 160700Z AUTO 32019KT 6SM 18/M07 A2985 RMK T01801070 IEM_DS3505
ZBYN,2004-05-16 08:00,ZBYN 160800Z AUTO 29019KT 6SM 18/M04 A2985 RMK T01801040 IEM_DS3505
ZBYN,2004-05-16 09:00,ZBYN 160900Z AUTO 29010KT 19SM 20/M00 A2983 RMK SLP102 T02031003 57014 IEM_DS3505
ZBYN,2004-05-16 10:00,ZBYN 161000Z AUTO 30016KT 6SM 18/M03 A2983 RMK T01801030 IEM_DS3505
ZBYN,2004-05-16 11:00,ZBYN 161100Z AUTO 31017KT 6SM 17/M01 A2985 RMK T01701010 IEM_DS3505
ZBYN,2004-05-16 12:00,ZBYN 161200Z AUTO 29008KT 16SM 17/03 A2988 RMK SLP118 T01740026 52011 IEM_DS3505
ZBYN,2004-05-16 13:00,ZBYN 161300Z AUTO 27004KT 6SM 15/01 A2988 RMK T01500010 IEM_DS3505
ZBYN,2004-05-16 14:00,ZBYN 161400Z AUTO 30002KT 6SM 14/02 A2988 RMK T01400020 IEM_DS3505
ZBYN,2004-05-16 15:00,ZBYN 161500Z AUTO 18004KT 11SM 14/05 A2988 RMK SLP116 T01420051 54000 IEM_DS3505
ZBYN,2004-05-16 16:00,ZBYN 161600Z AUTO 00000KT 6SM 13/02 A2985 RMK T01300020 IEM_DS3505
ZBYN,2004-05-16 17:00,ZBYN 161700Z AUTO 6SM 10/03 A2985 RMK T01000030 IEM_DS3505
ZBYN,2004-05-16 18:00,ZBYN 161800Z AUTO 16004KT 9SM 11/05 A2985 RMK SLP105 T01140046 57009 IEM_DS3505
ZBYN,2004-05-16 19:00,ZBYN 161900Z AUTO 09002KT 6SM 07/04 A2985 RMK T00700040 IEM_DS3505
ZBYN,2004-05-16 20:00,ZBYN 162000Z AUTO 05004KT 6SM 08/04 A2985 RMK T00800040 IEM_DS3505
ZBYN,2004-05-16 21:00,ZBYN 162100Z AUTO 18004KT 7SM 09/05 A2983 RMK 70000 SLP103 T00920046 57001 IEM_DS3505
ZBYN,2004-05-16 22:00,ZBYN 162200Z AUTO 09002KT 6SM 08/03 A2985 RMK T00800030 IEM_DS3505
ZBYN,2004-05-16 23:00,ZBYN 162300Z AUTO 09002KT 6SM 11/04 A2985 RMK T01100040 IEM_DS3505
ZBYN,2004-05-17 00:00,ZBYN 170000Z AUTO 14004KT 6SM 15/05 A2985 RMK 70000 SLP103 T01480053 52004 IEM_DS3505
ZBYN,2004-05-17 01:00,ZBYN 170100Z AUTO 6SM 16/03 A2985 RMK T01600030 IEM_DS3505
ZBYN,2004-05-17 02:00,ZBYN 170200Z AUTO 15002KT 6SM 19/03 A2983 RMK T01900030 IEM_DS3505
ZBYN,2004-05-17 03:00,ZBYN 170300Z AUTO 16006KT 6SM 23/06 A2983 RMK SLP079 T02300055 57015 IEM_DS3505
ZBYN,2004-05-17 04:00,ZBYN 170400Z AUTO 25004KT 7SM 25/01 A2980 RMK T02500010 IEM_DS3505
ZBYN,2004-05-17 05:00,ZBYN 170500Z AUTO 30012KT 7SM 26/M04 A2977 RMK T02601040 IEM_DS3505
ZBYN,2004-05-17 06:00,ZBYN 170600Z AUTO 32012KT 16SM 28/01 A2974 RMK SLP051 T02780014 57023 IEM_DS3505
ZBYN,2004-05-17 07:00,ZBYN 170700Z AUTO 29012KT 7SM 27/M05 A2974 RMK T02701050 IEM_DS3505
ZBYN,2004-05-17 08:00,ZBYN 170800Z AUTO 32014KT 7SM 27/M06 A2971 RMK T02701060 IEM_DS3505
ZBYN,2004-05-17 09:00,ZBYN 170900Z AUTO 27010KT 19SM 28/M00 A2971 RMK SLP043 T02751005 57011 IEM_DS3505
ZBYN,2004-05-17 10:00,ZBYN 171000Z AUTO 30017KT 7SM 25/M03 A2971 RMK T02501030 IEM_DS3505
ZBYN,2004-05-17 11:00,ZBYN 171100Z AUTO 31010KT 7SM 23/M02 A2971 RMK T02301020 IEM_DS3505
ZBYN,2004-05-17 12:00,ZBYN 171200Z AUTO 20002KT 16SM 22/04 A2974 RMK SLP056 T02200037 52012 IEM_DS3505
ZBYN,2004-05-17 13:00,ZBYN 171300Z AUTO 28004KT 6SM 19/01 A2977 RMK T01900010 IEM_DS3505
ZBYN,2004-05-17 14:00,ZBYN 171400Z AUTO 00000KT 7SM 17/02 A2977 RMK T01700020 IEM_DS3505
ZBYN,2004-05-17 15:00,ZBYN 171500Z AUTO 36006KT 16SM 20/03 A2980 RMK SLP065 T01960034 52017 IEM_DS3505
ZBYN,2004-05-17 16:00,ZBYN 171600Z AUTO 07004KT 6SM 17/02 A2980 RMK T01700020 IEM_DS3505
ZBYN,2004-05-17 17:00,ZBYN 171700Z AUTO 06004KT 6SM 15/05 A2977 RMK T01500050 IEM_DS3505
ZBYN,2004-05-17 18:00,ZBYN 171800Z AUTO 32006KT 12SM 16/06 A2977 RMK SLP059 T01550060 57005 IEM_DS3505
ZBYN,2004-05-17 19:00,ZBYN 171900Z AUTO 00000KT 6SM 12/05 A2980 RMK T01200050 IEM_DS3505
ZBYN,2004-05-17 20:00,ZBYN 172000Z AUTO 36014KT 6SM 15/05 A2980 RMK T01500050 IEM_DS3505
ZBYN,2004-05-17 21:00,ZBYN 172100Z AUTO 34004KT 9SM 16/07 A2980 RMK SLP070 T01580071 52010 IEM_DS3505
ZBYN,2004-05-17 22:00,ZBYN 172200Z AUTO 34008KT 6SM 13/06 A2983 RMK T01300060 IEM_DS3505
ZBYN,2004-05-17 23:00,ZBYN 172300Z AUTO 32010KT 6SM 14/06 A2985 RMK T01400060 IEM_DS3505
ZBYN,2004-05-18 00:00,ZBYN 180000Z AUTO 36006KT 6SM 17/08 A2983 RMK SLP087 T01700082 52010 IEM_DS3505
ZBYN,2004-05-18 01:00,ZBYN 180100Z AUTO 35010KT 6SM 18/04 A2983 RMK T01800040 IEM_DS3505
ZBYN,2004-05-18 02:00,ZBYN 180200Z AUTO 34010KT 7SM 19/04 A2983 RMK T01900040 IEM_DS3505
ZBYN,2004-05-18 03:00,ZBYN 180300Z AUTO 34004KT 12SM 22/07 A2983 RMK SLP079 T02170072 57004 IEM_DS3505
ZBYN,2004-05-18 04:00,ZBYN 180400Z AUTO 35008KT 7SM 22/03 A2983 RMK T02200030 IEM_DS3505
ZBYN,2004-05-18 05:00,ZBYN 180500Z AUTO 31004KT 7SM 22/03 A2980 RMK T02200030 IEM_DS3505
ZBYN,2004-05-18 06:00,ZBYN 180600Z AUTO 27006KT 12SM 24/05 A2977 RMK SLP062 T02410050 57018 IEM_DS3505
ZBYN,2004-05-18 07:00,ZBYN 180700Z AUTO 31006KT 7SM 23/01 A2974 RMK T02300010 IEM_DS3505
ZBYN,2004-05-18 08:00,ZBYN 180800Z AUTO 33010KT 7SM 24/M01 A2974 RMK T02401010 IEM_DS3505
ZBYN,2004-05-18 09:00,ZBYN 180900Z AUTO 29014KT 12SM 25/02 A2971 RMK SLP041 T02460021 57018 IEM_DS3505
ZBYN,2004-05-18 10:00,ZBYN 181000Z AUTO 31014KT 7SM 23/M01 A2971 RMK T02301010 IEM_DS3505
ZBYN,2004-05-18 11:00,ZBYN 181100Z AUTO 30008KT 6SM 22/00 A2971 RMK T02200000 IEM_DS3505
ZBYN,2004-05-18 12:00,ZBYN 181200Z AUTO 27002KT 12SM 21/04 A2971 RMK SLP046 T02090045 52001 IEM_DS3505
ZBYN,2004-05-18 13:00,ZBYN 181300Z AUTO 27006KT 6SM 19/01 A2974 RMK T01900010 IEM_DS3505
ZBYN,2004-05-18 14:00,ZBYN 181400Z AUTO 26002KT 6SM 17/01 A2974 RMK T01700010 IEM_DS3505
ZBYN,2004-05-18 15:00,ZBYN 181500Z AUTO 22006KT 12SM 18/04 A2971 RMK SLP041 T01820044 57002 IEM_DS3505
ZBYN,2004-05-18 16:00,ZBYN 181600Z AUTO 11004KT 6SM 12/04 A2971 RMK T01200040 IEM_DS3505
ZBYN,2004-05-18 17:00,ZBYN 181700Z AUTO 12002KT 6SM 13/03 A2968 RMK T01300030 IEM_DS3505
ZBYN,2004-05-18 18:00,ZBYN 181800Z AUTO 11004KT 12SM 13/06 A2968 RMK SLP029 T01330055 57014 IEM_DS3505
ZBYN,2004-05-18 19:00,ZBYN 181900Z AUTO 11004KT 6SM 10/04 A2965 RMK T01000040 IEM_DS3505
ZBYN,2004-05-18 20:00,ZBYN 182000Z AUTO 13004KT 6SM 11/04 A2965 RMK T01100040 IEM_DS3505
ZBYN,2004-05-18 21:00,ZBYN 182100Z AUTO 11006KT 9SM 12/05 A2962 RMK SLP016 T01210051 57013 IEM_DS3505
ZBYN,2004-05-18 22:00,ZBYN 182200Z AUTO 12004KT 6SM 11/03 A2962 RMK T01100030 IEM_DS3505
ZBYN,2004-05-18 23:00,ZBYN 182300Z AUTO 11002KT 6SM 14/03 A2959 RMK T01400030 IEM_DS3505
ZBYN,2004-05-19 00:00,ZBYN 190000Z AUTO 18006KT 6SM 17/06 A2959 RMK SLP003 T01670060 57011 IEM_DS3505
ZBYN,2004-05-19 01:00,ZBYN 190100Z AUTO 23006KT 6SM 19/02 A2956 RMK T01900020 IEM_DS3505
ZBYN,2004-05-19 02:00,ZBYN 190200Z AUTO 22004KT 6SM 24/02 A2953 RMK T02400020 IEM_DS3505
ZBYN,2004-05-19 03:00,ZBYN 190300Z AUTO 20010KT 7SM 27/05 RMK SLP961 T02680052 57028 IEM_DS3505
ZBYN,2004-05-19 04:00,ZBYN 190400Z AUTO 23008KT 6SM 28/00 A2947 RMK T02800000 IEM_DS3505
ZBYN,2004-05-19 05:00,ZBYN 190500Z AUTO 26006KT 6SM 30/M02 A2944 RMK T03001020 IEM_DS3505
ZBYN,2004-05-19 06:00,ZBYN 190600Z AUTO 32010KT 12SM 32/03 A2938 RMK SLP923 T03170029 57035 IEM_DS3505
ZBYN,2004-05-19 07:00,ZBYN 190700Z AUTO 29016KT 7SM 32/M05 A2938 RMK T03201050 IEM_DS3505
ZBYN,2004-05-19 08:00,ZBYN 190800Z AUTO 30014KT 7SM 32/M04 A2935 RMK T03201040 IEM_DS3505
ZBYN,2004-05-19 09:00,ZBYN 190900Z AUTO 32016KT 7SM 30/02 RMK SLP924 T03000015 57003 IEM_DS3505
ZBYN,2004-05-19 10:00,ZBYN 191000Z AUTO 27012KT 6SM 28/M04 A2935 RMK T02801040 IEM_DS3505
ZBYN,2004-05-19 11:00,ZBYN 191100Z AUTO 26012KT 6SM 25/M01 A2935 RMK T02501010 IEM_DS3505
ZBYN,2004-05-19 12:00,ZBYN 191200Z AUTO 20004KT 7SM 26/04 A2938 RMK SLP919 T02590038 57004 IEM_DS3505
ZBYN,2004-05-19 13:00,ZBYN 191300Z AUTO 31006KT 6SM 24/01 A2941 RMK T02400010 IEM_DS3505
ZBYN,2004-05-19 14:00,ZBYN 191400Z AUTO 35006KT 6SM 22/00 A2944 RMK T02200000 IEM_DS3505
ZBYN,2004-05-19 15:00,ZBYN 191500Z AUTO 36008KT 7SM 24/01 A2947 RMK SLP953 T02370008 52042 IEM_DS3505
ZBYN,2004-05-19 16:00,ZBYN 191600Z AUTO 34016KT 6SM 21/M04 A2950 RMK T02101040 IEM_DS3505
ZBYN,2004-05-19 17:00,ZBYN 191700Z AUTO 02008KT 6SM 20/M04 A2953 RMK T02001040 IEM_DS3505
ZBYN,2004-05-19 18:00,ZBYN 191800Z AUTO 36006KT 7SM 20/M01 A2953 RMK SLP967 T01971014 52014 IEM_DS3505
ZBYN,2004-05-19 19:00,ZBYN 191900Z AUTO 32004KT 6SM 16/M03 A2956 RMK T01601030 IEM_DS3505
ZBYN,2004-05-19 20:00,ZBYN 192000Z AUTO 35006KT 6SM 16/M05 A2956 RMK T01601050 IEM_DS3505
ZBYN,2004-05-19 21:00,ZBYN 192100Z AUTO 32004KT 11SM 17/M04 A2959 RMK SLP987 T01681038 52012 IEM_DS3505
ZBYN,2004-05-19 22:00,ZBYN 192200Z AUTO 34004KT 6SM 14/M06 A2959 RMK T01401060 IEM_DS3505
ZBYN,2004-05-19 23:00,ZBYN 192300Z AUTO 36004KT 6SM 15/M02 A2962 RMK T01501020 IEM_DS3505
ZBYN,2004-05-20 00:00,ZBYN 200000Z AUTO 36006KT 9SM 18/M04 A2962 RMK SLP000 T01841036 52009 IEM_DS3505
ZBYN,2004-05-20 01:00,ZBYN 200100Z AUTO 06006KT 6SM 19/M02 A2962 RMK T01901020 IEM_DS3505
ZBYN,2004-05-20 02:00,ZBYN 200200Z AUTO 6SM 20/M03 A2959 RMK T02001030 IEM_DS3505
ZBYN,2004-05-20 03:00,ZBYN 200300Z AUTO 07004KT 9SM 23/01 A2959 RMK SLP988 T02300008 57008 IEM_DS3505
ZBYN,2004-05-20 04:00,ZBYN 200400Z AUTO 28004KT 6SM 24/M04 A2956 RMK T02401040 IEM_DS3505
ZBYN,2004-05-20 05:00,ZBYN 200500Z AUTO 23004KT 6SM 25/M04 A2953 RMK T02501040 IEM_DS3505
ZBYN,2004-05-20 06:00,ZBYN 200600Z AUTO 36006KT 9SM 26/M01 A2953 RMK SLP966 T02601009 57021 IEM_DS3505
ZBYN,2004-05-20 07:00,ZBYN 200700Z AUTO 35006KT 6SM 26/M07 A2950 RMK T02601070 IEM_DS3505
ZBYN,2004-05-20 08:00,ZBYN 200800Z AUTO 01010KT 6SM 26/M07 A2950 RMK T02601070 IEM_DS3505
ZBYN,2004-05-20 09:00,ZBYN 200900Z AUTO 02006KT 11SM 26/M04 A2950 RMK SLP963 T02571037 57008 IEM_DS3505
ZBYN,2004-05-20 10:00,ZBYN 201000Z AUTO 02010KT 6SM 25/M08 A2950 RMK T02501080 IEM_DS3505
ZBYN,2004-05-20 11:00,ZBYN 201100Z AUTO 04008KT 6SM 23/M09 A2953 RMK T02301090 IEM_DS3505
ZBYN,2004-05-20 12:00,ZBYN 201200Z AUTO 02004KT 12SM 22/M08 A2959 RMK SLP995 T02211075 52027 IEM_DS3505
ZBYN,2004-05-20 13:00,ZBYN 201300Z AUTO 07006KT 6SM 18/M04 A2962 RMK T01801040 IEM_DS3505
ZBYN,2004-05-20 14:00,ZBYN 201400Z AUTO 06004KT 6SM 17/M03 A2965 RMK T01701030 IEM_DS3505
ZBYN,2004-05-20 15:00,ZBYN 201500Z AUTO 20002KT 12SM 14/01 A2965 RMK SLP028 T01440007 52026 IEM_DS3505
ZBYN,2004-05-20 16:00,ZBYN 201600Z AUTO 11006KT 6SM 12/M01 A2968 RMK T01201010 IEM_DS3505
ZBYN,2004-05-20 17:00,ZBYN 201700Z AUTO 6SM 11/M01 A2968 RMK T01101010 IEM_DS3505
ZBYN,2004-05-20 18:00,ZBYN 201800Z AUTO 00000KT 12SM 10/02 A2965 RMK SLP030 T01030024 54000 IEM_DS3505
ZBYN,2004-05-20 19:00,ZBYN 201900Z AUTO 10004KT 6SM 08/M01 A2965 RMK T00801010 IEM_DS3505
ZBYN,2004-05-20 20:00,ZBYN 202000Z AUTO 10002KT 6SM 07/M02 A2965 RMK T00701020 IEM_DS3505
ZBYN,2004-05-20 21:00,ZBYN 202100Z AUTO 34002KT 12SM 11/M02 A2968 RMK SLP035 T01071023 52005 IEM_DS3505
ZBYN,2004-05-20 22:00,ZBYN 202200Z AUTO 00000KT 6SM 07/M01 A2968 RMK T00701010 IEM_DS3505
ZBYN,2004-05-20 23:00,ZBYN 202300Z AUTO 00000KT 6SM 10/M02 A2971 RMK T01001020 IEM_DS3505
ZBYN,2004-05-21 00:00,ZBYN 210000Z AUTO 36004KT 6SM 16/M02 A2971 RMK SLP052 T01561019 52017 IEM_DS3505
ZBYN,2004-05-21 01:00,ZBYN 210100Z AUTO 00000KT 6SM 16/M03 A2974 RMK T01601030 IEM_DS3505
ZBYN,2004-05-21 02:00,ZBYN 210200Z AUTO 34006KT 6SM 20/M10 A2971 RMK T02001100 IEM_DS3505
ZBYN,2004-05-21 03:00,ZBYN 210300Z AUTO 07008KT 9SM 22/M06 A2971 RMK SLP044 T02231064 57009 IEM_DS3505
ZBYN,2004-05-21 04:00,ZBYN 210400Z AUTO 33006KT 6SM 23/M12 A2968 RMK T02301120 IEM_DS3505
ZBYN,2004-05-21 04:30,ZBYN 210430Z AUTO 32004KT 6SM 23/M12 A2968 RMK T02301120 IEM_DS3505
ZBYN,2004-05-21 05:00,ZBYN 210500Z AUTO 01004KT 6SM 23/M11 A2965 RMK T02301110 IEM_DS3505
ZBYN,2004-05-21 05:30,ZBYN 210530Z AUTO 36004KT 6SM 24/M11 A2965 RMK T02401110 IEM_DS3505
ZBYN,2004-05-21 06:00,ZBYN 210600Z AUTO 34004KT 12SM 25/M05 A2962 RMK SLP020 T02521051 57023 IEM_DS3505
ZBYN,2004-05-21 07:00,ZBYN 210700Z AUTO 35004KT 6SM 25/M10 A2962 RMK T02501100 IEM_DS3505
ZBYN,2004-05-21 08:00,ZBYN 210800Z AUTO 29004KT 6SM 25/M10 A2959 RMK T02501100 IEM_DS3505
ZBYN,2004-05-21 09:00,ZBYN 210900Z AUTO 36004KT 16SM 26/M03 A2959 RMK SLP006 T02621033 57011 IEM_DS3505
ZBYN,2004-05-21 10:00,ZBYN 211000Z AUTO 32004KT 6SM 25/M10 A2959 RMK T02501100 IEM_DS3505
ZBYN,2004-05-21 11:00,ZBYN 211100Z AUTO 00000KT 6SM 24/M08 A2962 RMK T02401080 IEM_DS3505
ZBYN,2004-05-21 12:00,ZBYN 211200Z AUTO 29004KT 16SM 22/M02 A2962 RMK SLP016 T02251022 52011 IEM_DS3505
ZBYN,2004-05-21 13:00,ZBYN 211300Z AUTO 6SM 20/M06 A2965 RMK T02001060 IEM_DS3505
ZBYN,2004-05-21 14:00,ZBYN 211400Z AUTO 12002KT 6SM 16/M04 A2965 RMK T01601040 IEM_DS3505
ZBYN,2004-05-21 15:00,ZBYN 211500Z AUTO 04002KT 12SM 16/03 A2968 RMK SLP027 T01650029 52011 IEM_DS3505
ZBYN,2004-05-21 16:00,ZBYN 211600Z AUTO 08008KT 6SM 19/M05 A2968 RMK T01901050 IEM_DS3505
ZBYN,2004-05-21 17:00,ZBYN 211700Z AUTO 06002KT 6SM 18/M08 A2971 RMK T01801080 IEM_DS3505
ZBYN,2004-05-21 18:00,ZBYN 211800Z AUTO 32004KT 11SM 16/01 A2971 RMK SLP038 T01560006 52013 IEM_DS3505
ZBYN,2004-05-21 19:00,ZBYN 211900Z AUTO 6SM 14/M02 A2971 RMK T01401020 IEM_DS3505
ZBYN,2004-05-21 20:00,ZBYN 212000Z AUTO 09002KT 6SM 11/03 A2971 RMK T01100030 IEM_DS3505
ZBYN,2004-05-21 21:00,ZBYN 212100Z AUTO 32006KT 11SM 15/M01 A2974 RMK T01521009 52008 IEM_DS3505
ZBYN,2004-05-21 22:00,ZBYN 212200Z AUTO 04002KT 6SM 10/M02 A2974 RMK T01001020 IEM_DS3505
ZBYN,2004-05-21 23:00,ZBYN 212300Z AUTO 6SM 14/00 A2977 RMK T01400000 IEM_DS3505
ZBYN,2004-05-22 00:00,ZBYN 220000Z AUTO 34004KT 9SM 18/00 A2977 RMK SLP063 T01800004 52015 IEM_DS3505
ZBYN,2004-05-22 01:00,ZBYN 220100Z AUTO 31004KT 6SM 20/M05 A2977 RMK T02001050 IEM_DS3505
ZBYN,2004-05-22 02:00,ZBYN 220200Z AUTO 29006KT 6SM 21/M03 A2977 RMK T02101030 IEM_DS3505
ZBYN,2004-05-22 03:00,ZBYN 220300Z AUTO 36004KT 9SM 26/M02 A2977 RMK SLP054 T02551021 57007 IEM_DS3505
ZBYN,2004-05-22 04:00,ZBYN 220400Z AUTO 01008KT 6SM 26/M08 A2974 RMK T02601080 IEM_DS3505
ZBYN,2004-05-22 05:00,ZBYN 220500Z AUTO 35004KT 6SM 27/M07 A2974 RMK T02701070 IEM_DS3505
ZBYN,2004-05-22 06:00,ZBYN 220600Z AUTO 04006KT 12SM 28/M01 A2974 RMK SLP040 T02821008 57010 IEM_DS3505
ZBYN,2004-05-22 07:00,ZBYN 220700Z AUTO 01004KT 6SM 28/M08 A2971 RMK T02801080 IEM_DS3505
ZBYN,2004-05-22 08:00,ZBYN 220800Z AUTO 02010KT 6SM 28/M07 A2971 RMK T02801070 IEM_DS3505
ZBYN,2004-05-22 09:00,ZBYN 220900Z AUTO 34004KT 12SM 28/M03 A2971 RMK SLP035 T02831027 57005 IEM_DS3505
ZBYN,2004-05-22 10:00,ZBYN 221000Z AUTO 02008KT 6SM 27/M09 A2971 RMK T02701090 IEM_DS3505
ZBYN,2004-05-22 11:00,ZBYN 221100Z AUTO 03008KT 6SM 26/M08 A2974 RMK T02601080 IEM_DS3505
ZBYN,2004-05-22 12:00,ZBYN 221200Z AUTO 04004KT 12SM 25/M04 A2977 RMK SLP057 T02471045 52020 IEM_DS3505
ZBYN,2004-05-22 13:00,ZBYN 221300Z AUTO 07008KT 6SM 21/M01 A2980 RMK T02101010 IEM_DS3505
ZBYN,2004-05-22 14:00,ZBYN 221400Z AUTO 07008KT 6SM 20/00 A2983 RMK T02000000 IEM_DS3505
ZBYN,2004-05-22 15:00,ZBYN 221500Z AUTO 32004KT 12SM 20/03 A2985 RMK SLP082 T01970026 52025 IEM_DS3505
ZBYN,2004-05-22 16:00,ZBYN 221600Z AUTO 15004KT 6SM 18/01 A2988 RMK T01800010 IEM_DS3505
ZBYN,2004-05-22 17:00,ZBYN 221700Z AUTO 08006KT 6SM 17/01 A2988 RMK T01700010 IEM_DS3505
ZBYN,2004-05-22 18:00,ZBYN 221800Z AUTO 32002KT 9SM 14/04 A2988 RMK SLP098 T01450042 52011 IEM_DS3505
ZBYN,2004-05-22 19:00,ZBYN 221900Z AUTO 12004KT 6SM 14/01 A2988 RMK T01400010 IEM_DS3505
ZBYN,2004-05-22 20:00,ZBYN 222000Z AUTO 09002KT 6SM 12/02 A2991 RMK T01200020 IEM_DS3505
ZBYN,2004-05-22 21:00,ZBYN 222100Z AUTO 34002KT 6SM 15/03 A2991 RMK SLP107 T01490034 52009 IEM_DS3505
ZBYN,2004-05-22 22:00,ZBYN 222200Z AUTO 11002KT 6SM 11/02 A2991 RMK T01100020 IEM_DS3505
ZBYN,2004-05-22 23:00,ZBYN 222300Z AUTO 11002KT 6SM 14/02 RMK T01400020 IEM_DS3505
ZBYN,2004-05-23 00:00,ZBYN 230000Z AUTO 34004KT 7SM 19/03 A2994 RMK SLP120 T01860029 52012 IEM_DS3505
ZBYN,2004-05-23 01:00,ZBYN 230100Z AUTO 12002KT 6SM 19/00 A2994 RMK T01900000 IEM_DS3505
ZBYN,2004-05-23 02:00,ZBYN 230200Z AUTO 6SM 21/00 A2991 RMK T02100000 IEM_DS3505
ZBYN,2004-05-23 03:00,ZBYN 230300Z AUTO 20004KT 6SM 25/05 A2991 RMK SLP102 T02460049 57015 IEM_DS3505
ZBYN,2004-05-23 04:00,ZBYN 230400Z AUTO 6SM 25/01 A2988 RMK T02500010 IEM_DS3505
ZBYN,2004-05-23 05:00,ZBYN 230500Z AUTO 30004KT 6SM 26/M03 A2985 RMK T02601030 IEM_DS3505
ZBYN,2004-05-23 06:00,ZBYN 230600Z AUTO 04002KT 7SM 29/01 A2983 RMK SLP080 T02860012 57022 IEM_DS3505
ZBYN,2004-05-23 07:00,ZBYN 230700Z AUTO 14004KT 6SM 29/M04 A2983 RMK T02901040 IEM_DS3505
ZBYN,2004-05-23 08:00,ZBYN 230800Z AUTO 16004KT 6SM 29/M04 A2980 RMK T02901040 IEM_DS3505
ZBYN,2004-05-23 09:00,ZBYN 230900Z AUTO 20004KT 7SM 30/03 A2977 RMK SLP054 T03030026 57021 IEM_DS3505
ZBYN,2004-05-23 10:00,ZBYN 231000Z AUTO 13002KT 6SM 29/M04 A2977 RMK T02901040 IEM_DS3505
ZBYN,2004-05-23 11:00,ZBYN 231100Z AUTO 17002KT 6SM 28/M03 A2977 RMK T02801030 IEM_DS3505
ZBYN,2004-05-23 12:00,ZBYN 231200Z AUTO 25004KT 9SM 25/06 A2980 RMK SLP060 T02520059 52004 IEM_DS3505
ZBYN,2004-05-23 13:00,ZBYN 231300Z AUTO 07006KT 6SM 22/00 A2983 RMK T02200000 IEM_DS3505
ZBYN,2004-05-23 14:00,ZBYN 231400Z AUTO 10006KT 6SM 22/02 A2983 RMK T02200020 IEM_DS3505
ZBYN,2004-05-23 15:00,ZBYN 231500Z AUTO 25002KT 7SM 20/06 A2983 RMK SLP077 T02040060 52017 IEM_DS3505
ZBYN,2004-05-23 16:00,ZBYN 231600Z AUTO 12004KT 6SM 18/04 A2983 RMK T01800040 IEM_DS3505
ZBYN,2004-05-23 17:00,ZBYN 231700Z AUTO 12004KT 6SM 18/04 A2985 RMK T01800040 IEM_DS3505
ZBYN,2004-05-23 18:00,ZBYN 231800Z AUTO 00000KT 6SM 17/08 A2985 RMK SLP083 T01690083 52006 IEM_DS3505
ZBYN,2004-05-23 19:00,ZBYN 231900Z AUTO 12004KT 6SM 17/05 A2985 RMK T01700050 IEM_DS3505
ZBYN,2004-05-23 20:00,ZBYN 232000Z AUTO 12004KT 6SM 15/06 A2985 RMK T01500060 IEM_DS3505
ZBYN,2004-05-23 21:00,ZBYN 232100Z AUTO 27002KT 6SM 15/08 A2985 RMK SLP085 T01520085 52002 IEM_DS3505
ZBYN,2004-05-23 22:00,ZBYN 232200Z AUTO 13004KT 6SM 14/06 A2988 RMK T01400060 IEM_DS3505
ZBYN,2004-05-23 23:00,ZBYN 232300Z AUTO 00000KT 6SM 16/07 A2988 RMK T01600070 IEM_DS3505
ZBYN,2004-05-24 00:00,ZBYN 240000Z AUTO 00000KT 6SM 21/09 A2988 RMK SLP095 T02070087 52010 IEM_DS3505
ZBYN,2004-05-24 01:00,ZBYN 240100Z AUTO 17004KT 6SM 22/06 A2988 RMK T02200060 IEM_DS3505
ZBYN,2004-05-24 02:00,ZBYN 240200Z AUTO 21004KT 6SM 25/06 A2985 RMK T02500060 IEM_DS3505
ZBYN,2004-05-24 03:00,ZBYN 240300Z AUTO 16008KT 6SM 28/10 A2983 RMK SLP071 T02760095 57019 IEM_DS3505
ZBYN,2004-05-24 04:00,ZBYN 240400Z AUTO 24006KT 6SM 28/05 A2983 RMK T02800050 IEM_DS3505
ZBYN,2004-05-24 05:00,ZBYN 240500Z AUTO 24004KT 6SM 30/04 A2977 RMK T03000040 IEM_DS3505
ZBYN,2004-05-24 06:00,ZBYN 240600Z AUTO 18008KT 7SM 32/07 A2974 RMK SLP041 T03170074 57027 IEM_DS3505
ZBYN,2004-05-24 07:00,ZBYN 240700Z AUTO 21006KT 6SM 31/01 A2974 RMK T03100010 IEM_DS3505
ZBYN,2004-05-24 08:00,ZBYN 240800Z AUTO 21006KT 6SM 32/02 A2971 RMK T03200020 IEM_DS3505
ZBYN,2004-05-24 09:00,ZBYN 240900Z AUTO 16008KT 6SM 32/09 A2968 RMK SLP018 T03170087 57023 IEM_DS3505
ZBYN,2004-05-24 10:00,ZBYN 241000Z AUTO 20002KT 6SM 30/04 A2968 RMK T03000040 IEM_DS3505
ZBYN,2004-05-24 11:00,ZBYN 241100Z AUTO 25010KT 7SM 28/00 A2968 RMK T02800000 IEM_DS3505
ZBYN,2004-05-24 12:00,ZBYN 241200Z AUTO 25008KT 6SM 28/06 A2971 RMK SLP029 T02830058 52013 IEM_DS3505
ZBYN,2004-05-24 13:00,ZBYN 241300Z AUTO 25006KT 7SM 26/05 A2974 RMK T02600050 IEM_DS3505
ZBYN,2004-05-24 14:00,ZBYN 241400Z AUTO 17002KT 6SM 24/06 A2977 RMK T02400060 IEM_DS3505
ZBYN,2004-05-24 15:00,ZBYN 241500Z AUTO 16006KT 6SM 24/09 A2977 RMK SLP038 T02360092 52011 IEM_DS3505
ZBYN,2004-05-24 16:00,ZBYN 241600Z AUTO 14002KT 6SM 21/06 A2977 RMK T02100060 IEM_DS3505
ZBYN,2004-05-24 18:00,ZBYN 241800Z AUTO 20004KT 6SM 24/10 A2974 RMK 60000 SLP027 T02360096 57005 IEM_DS3505
ZBYN,2004-05-24 19:00,ZBYN 241900Z AUTO 32004KT 7SM 21/10 A2974 RMK T02100100 IEM_DS3505
ZBYN,2004-05-24 20:00,ZBYN 242000Z AUTO 28006KT 7SM 20/11 A2977 RMK T02000110 IEM_DS3505
ZBYN,2004-05-24 21:00,ZBYN 242100Z AUTO 02002KT 5SM 19/16 A2980 RMK 70007 SLP052 T01890158 52017 IEM_DS3505
ZBYN,2004-05-24 22:00,ZBYN 242200Z AUTO 7SM 17/14 A2983 RMK T01700140 IEM_DS3505
ZBYN,2004-05-24 23:00,ZBYN 242300Z AUTO 18002KT 7SM 16/14 A2983 RMK T01600140 IEM_DS3505
ZBYN,2004-05-25 00:00,ZBYN 250000Z AUTO 16002KT 5SM 17/16 A2983 RMK 60035 70036 SLP074 T01700159 52013 IEM_DS3505
ZBYN,2004-05-25 01:00,ZBYN 250100Z AUTO 19002KT 3SM 17/15 A2983 RMK T01700150 IEM_DS3505
ZBYN,2004-05-25 02:00,ZBYN 250200Z AUTO 26002KT 5SM 18/14 A2983 RMK T01800140 IEM_DS3505
ZBYN,2004-05-25 03:00,ZBYN 250300Z AUTO 14002KT 5SM 21/16 A2983 RMK SLP073 T02080162 57002 IEM_DS3505
ZBYN,2004-05-25 04:00,ZBYN 250400Z AUTO 7SM 21/14 A2980 RMK T02100140 IEM_DS3505
ZBYN,2004-05-25 05:00,ZBYN 250500Z AUTO 26004KT 7SM 22/13 A2980 RMK T02200130 IEM_DS3505
ZBYN,2004-05-25 06:00,ZBYN 250600Z AUTO 20004KT 5SM 25/15 A2977 RMK SLP044 T02500153 57021 IEM_DS3505
ZBYN,2004-05-25 07:00,ZBYN 250700Z AUTO 29004KT 7SM 20/15 A2977 RMK T02000150 IEM_DS3505
ZBYN,2004-05-25 08:00,ZBYN 250800Z AUTO 03008KT 7SM 19/13 A2980 RMK T01900130 IEM_DS3505
ZBYN,2004-05-25 09:00,ZBYN 250900Z AUTO 36008KT 11SM 20/11 A2980 RMK SLP077 T02010111 52017 IEM_DS3505
ZBYN,2004-05-25 10:00,ZBYN 251000Z AUTO 36012KT 7SM 19/10 A2980 RMK T01900100 IEM_DS3505
ZBYN,2004-05-25 11:00,ZBYN 251100Z AUTO 35008KT 6SM 20/10 A2983 RMK T02000100 IEM_DS3505
ZBYN,2004-05-25 12:00,ZBYN 251200Z AUTO 36008KT 12SM 20/12 A2985 RMK SLP091 T02000118 52010 IEM_DS3505
ZBYN,2004-05-25 13:00,ZBYN 251300Z AUTO 01004KT 6SM 17/10 A2988 RMK T01700100 IEM_DS3505
ZBYN,2004-05-25 14:00,ZBYN 251400Z AUTO 03004KT 6SM 16/11 A2991 RMK T01600110 IEM_DS3505
ZBYN,2004-05-25 15:00,ZBYN 251500Z AUTO 36006KT 7SM 19/11 A2991 RMK SLP112 T01860109 52022 IEM_DS3505
ZBYN,2004-05-25 16:00,ZBYN 251600Z AUTO 33004KT 7SM 16/10 A2991 RMK T01600100 IEM_DS3505
ZBYN,2004-05-25 17:00,ZBYN 251700Z AUTO 01004KT 6SM 15/10 A2991 RMK T01500100 IEM_DS3505
ZBYN,2004-05-25 18:00,ZBYN 251800Z AUTO 36004KT 7SM 18/09 A2994 RMK SLP121 T01760090 52013 IEM_DS3505
ZBYN,2004-05-25 19:00,ZBYN 251900Z AUTO 04004KT 6SM 16/12 A2994 RMK T01600120 IEM_DS3505
ZBYN,2004-05-25 20:00,ZBYN 252000Z AUTO 02004KT 5SM 15/11 A2994 RMK T01500110 IEM_DS3505
ZBYN,2004-05-25 21:00,ZBYN 252100Z AUTO 32004KT 9SM 16/08 A2994 RMK 70030 SLP130 T01650080 54000 IEM_DS3505
ZBYN,2004-05-25 22:00,ZBYN 252200Z AUTO 09004KT 6SM 15/09 A2997 RMK T01500090 IEM_DS3505
ZBYN,2004-05-25 23:00,ZBYN 252300Z AUTO 07008KT 6SM 15/09 A3000 RMK T01500090 IEM_DS3505
ZBYN,2004-05-26 00:00,ZBYN 260000Z AUTO 11008KT 9SM 16/11 A3000 RMK 70001 SLP150 T01570113 52017 IEM_DS3505
ZBYN,2004-05-26 01:00,ZBYN 260100Z AUTO 09012KT 6SM 17/07 A3000 RMK T01700070 IEM_DS3505
ZBYN,2004-05-26 02:00,ZBYN 260200Z AUTO 08010KT 6SM 18/07 A3000 RMK T01800070 IEM_DS3505
ZBYN,2004-05-26 03:00,ZBYN 260300Z AUTO 09012KT 9SM 21/08 A2997 RMK SLP135 T02070080 57009 IEM_DS3505
ZBYN,2004-05-26 04:00,ZBYN 260400Z AUTO 10010KT 6SM 21/04 A2997 RMK T02100040 IEM_DS3505
ZBYN,2004-05-26 05:00,ZBYN 260500Z AUTO 09008KT 6SM 22/02 A2991 RMK T02200020 IEM_DS3505
ZBYN,2004-05-26 06:00,ZBYN 260600Z AUTO 11006KT 12SM 23/04 A2991 RMK SLP105 T02310036 57025 IEM_DS3505
ZBYN,2004-05-26 07:00,ZBYN 260700Z AUTO 08010KT 6SM 24/00 A2988 RMK T02400000 IEM_DS3505
ZBYN,2004-05-26 08:00,ZBYN 260800Z AUTO 08008KT 6SM 23/M01 A2985 RMK T02301010 IEM_DS3505
ZBYN,2004-05-26 09:00,ZBYN 260900Z AUTO 09008KT 16SM 23/02 A2985 RMK SLP095 T02280018 57011 IEM_DS3505
ZBYN,2004-05-26 10:00,ZBYN 261000Z AUTO 08010KT 6SM 21/02 A2985 RMK T02100020 IEM_DS3505
ZBYN,2004-05-26 11:00,ZBYN 261100Z AUTO 09012KT 6SM 19/04 A2988 RMK T01900040 IEM_DS3505
ZBYN,2004-05-26 12:00,ZBYN 261200Z AUTO 09006KT 9SM 20/08 A2988 RMK SLP110 T01970081 52008 IEM_DS3505
ZBYN,2004-05-26 13:00,ZBYN 261300Z AUTO 08016KT 6SM 17/06 A2991 RMK T01700060 IEM_DS3505
ZBYN,2004-05-26 14:00,ZBYN 261400Z AUTO 08014KT 6SM 17/07 A2991 RMK T01700070 IEM_DS3505
ZBYN,2004-05-26 15:00,ZBYN 261500Z AUTO 09008KT 7SM 18/09 A2994 RMK SLP120 T01780089 52013 IEM_DS3505
ZBYN,2004-05-26 16:00,ZBYN 261600Z AUTO 07010KT 7SM 16/07 A2994 RMK T01600070 IEM_DS3505
ZBYN,2004-05-26 17:00,ZBYN 261700Z AUTO 07008KT 7SM 15/09 A2994 RMK T01500090 IEM_DS3505
ZBYN,2004-05-26 18:00,ZBYN 261800Z AUTO 36004KT 7SM 17/10 A2994 RMK SLP119 T01660100 52001 IEM_DS3505
ZBYN,2004-05-26 19:00,ZBYN 261900Z AUTO 06006KT 7SM 14/09 A2991 RMK T01400090 IEM_DS3505
ZBYN,2004-05-26 20:00,ZBYN 262000Z AUTO 06006KT 7SM 14/09 A2991 RMK T01400090 IEM_DS3505
ZBYN,2004-05-26 21:00,ZBYN 262100Z AUTO 34004KT 6SM 14/12 A2991 RMK 70002 SLP119 T01450115 57003 IEM_DS3505
ZBYN,2004-05-26 22:00,ZBYN 262200Z AUTO 01002KT 7SM 14/09 A2991 RMK T01400090 IEM_DS3505
ZBYN,2004-05-26 23:00,ZBYN 262300Z AUTO 35004KT 4SM 14/10 A2994 RMK T01400100 IEM_DS3505
ZBYN,2004-05-27 00:00,ZBYN 270000Z AUTO 36004KT 6SM 15/11 A2994 RMK 60003 70003 SLP128 T01460112 52004 IEM_DS3505
ZBYN,2004-05-27 01:00,ZBYN 270100Z AUTO 36004KT 4SM 14/10 A2991 RMK T01400100 IEM_DS3505
ZBYN,2004-05-27 02:00,ZBYN 270200Z AUTO 34008KT 4SM 15/11 A2994 RMK T01500110 IEM_DS3505
ZBYN,2004-05-27 03:00,ZBYN 270300Z AUTO 32004KT 5SM 16/12 A2994 RMK SLP132 T01580118 52002 IEM_DS3505
ZBYN,2004-05-27 04:00,ZBYN 270400Z AUTO 33004KT 6SM 16/10 A2991 RMK T01600100 IEM_DS3505
ZBYN,2004-05-27 05:00,ZBYN 270500Z AUTO 6SM 17/09 A2991 RMK T01700090 IEM_DS3505
ZBYN,2004-05-27 06:00,ZBYN 270600Z AUTO 27004KT 6SM 21/12 A2988 RMK SLP101 T02080117 57023 IEM_DS3505
ZBYN,2004-05-27 07:00,ZBYN 270700Z AUTO 21004KT 7SM 20/10 A2985 RMK T02000100 IEM_DS3505
ZBYN,2004-05-27 08:00,ZBYN 270800Z AUTO 24002KT 6SM 20/10 A2983 RMK T02000100 IEM_DS3505
ZBYN,2004-05-27 09:00,ZBYN 270900Z AUTO 22006KT 6SM 21/12 A2983 RMK SLP089 T02140125 57013 IEM_DS3505
ZBYN,2004-05-27 10:00,ZBYN 271000Z AUTO 20002KT 3SM 20/11 A2983 RMK T02000110 IEM_DS3505
ZBYN,2004-05-27 11:00,ZBYN 271100Z AUTO 22004KT 3SM 19/11 A2983 RMK T01900110 IEM_DS3505
ZBYN,2004-05-27 12:00,ZBYN 271200Z AUTO 18004KT 4SM 20/13 A2985 RMK SLP094 T01960131 52002 IEM_DS3505
ZBYN,2004-05-27 13:00,ZBYN 271300Z AUTO 19002KT 18/11 A2985 RMK T01800110 IEM_DS3505
ZBYN,2004-05-27 14:00,ZBYN 271400Z AUTO 14002KT 4SM 16/11 A2988 RMK T01600110 IEM_DS3505
ZBYN,2004-05-27 15:00,ZBYN 271500Z AUTO 09002KT 3SM 16/13 A2988 RMK SLP115 T01620131 52016 IEM_DS3505
ZBYN,2004-05-27 16:00,ZBYN 271600Z AUTO 00000KT 2 1/2SM 15/11 A2988 RMK T01500110 IEM_DS3505
ZBYN,2004-05-27 17:00,ZBYN 271700Z AUTO 2SM 15/11 A2988 RMK T01500110 IEM_DS3505
ZBYN,2004-05-27 18:00,ZBYN 271800Z AUTO 09004KT 3SM 14/13 A2988 RMK SLP104 T01430127 57005 IEM_DS3505
ZBYN,2004-05-27 19:00,ZBYN 271900Z AUTO 15002KT 1 1/4SM 13/11 A2985 RMK T01300110 IEM_DS3505
ZBYN,2004-05-27 20:00,ZBYN 272000Z AUTO 11002KT 1 1/4SM 11/10 A2985 RMK T01100100 IEM_DS3505
ZBYN,2004-05-27 21:00,ZBYN 272100Z AUTO 09002KT 1 1/4SM 12/12 A2988 RMK 70000 SLP107 T01220117 54000 IEM_DS3505
ZBYN,2004-05-27 22:00,ZBYN 272200Z AUTO 11002KT 1SM 11/10 A2988 RMK T01100100 IEM_DS3505
ZBYN,2004-05-27 22:30,ZBYN 272230Z AUTO 13004KT 1SM 12/10 A2988 RMK T01200100 IEM_DS3505
ZBYN,2004-05-27 23:00,ZBYN 272300Z AUTO 11002KT 1/2SM 13/12 A2988 RMK T01300120 IEM_DS3505
ZBYN,2004-05-28 00:00,ZBYN 280000Z AUTO 11004KT 1 1/4SM 16/14 A2988 RMK 70000 SLP112 T01560140 52007 IEM_DS3505
ZBYN,2004-05-28 01:00,ZBYN 280100Z AUTO 14004KT 1SM 17/12 A2988 RMK T01700120 IEM_DS3505
ZBYN,2004-05-28 02:00,ZBYN 280200Z AUTO 3SM 20/11 A2988 RMK T02000110 IEM_DS3505
ZBYN,2004-05-28 03:00,ZBYN 280300Z AUTO 20006KT 3SM 23/13 A2985 RMK SLP089 T02330132 57015 IEM_DS3505
ZBYN,2004-05-28 04:00,ZBYN 280400Z AUTO 24004KT 6SM 24/08 A2983 RMK T02400080 IEM_DS3505
ZBYN,2004-05-28 05:00,ZBYN 280500Z AUTO 21006KT 6SM 26/08 A2983 RMK T02600080 IEM_DS3505
ZBYN,2004-05-28 06:00,ZBYN 280600Z AUTO 18010KT 6SM 29/12 A2980 RMK SLP063 T02890115 57018 IEM_DS3505
ZBYN,2004-05-28 07:00,ZBYN 280700Z AUTO 23006KT 6SM 29/06 A2977 RMK T02900060 IEM_DS3505
ZBYN,2004-05-28 08:00,ZBYN 280800Z AUTO 21006KT 7SM 30/04 A2974 RMK T03000040 IEM_DS3505
ZBYN,2004-05-28 09:00,ZBYN 280900Z AUTO 20006KT 7SM 31/09 A2971 RMK SLP036 T03100087 57025 IEM_DS3505
ZBYN,2004-05-28 10:00,ZBYN 281000Z AUTO 7SM 30/06 A2971 RMK T03000060 IEM_DS3505
ZBYN,2004-05-28 12:00,ZBYN 281200Z AUTO 22002KT 12SM 27/10 A2974 RMK SLP044 T02660095 52006 IEM_DS3505
ZBYN,2004-05-28 13:00,ZBYN 281300Z AUTO 17002KT 6SM 24/07 A2977 RMK T02400070 IEM_DS3505
ZBYN,2004-05-28 14:00,ZBYN 281400Z AUTO 6SM 21/09 A2977 RMK T02100090 IEM_DS3505
ZBYN,2004-05-28 15:00,ZBYN 281500Z AUTO 34004KT 9SM 23/07 A2980 RMK SLP063 T02340067 52024 IEM_DS3505
ZBYN,2004-05-28 16:00,ZBYN 281600Z AUTO 36006KT 6SM 21/06 A2983 RMK T02100060 IEM_DS3505
ZBYN,2004-05-28 17:00,ZBYN 281700Z AUTO 35012KT 6SM 20/05 A2985 RMK T02000050 IEM_DS3505
ZBYN,2004-05-28 18:00,ZBYN 281800Z AUTO 36008KT 9SM 21/07 A2985 RMK SLP083 T02080067 52022 IEM_DS3505
ZBYN,2004-05-28 19:00,ZBYN 281900Z AUTO 35008KT 6SM 19/04 A2988 RMK T01900040 IEM_DS3505
ZBYN,2004-05-28 20:00,ZBYN 282000Z AUTO 35006KT 6SM 18/05 A2988 RMK T01800050 IEM_DS3505
ZBYN,2004-05-28 21:00,ZBYN 282100Z AUTO 36004KT 9SM 19/07 A2988 RMK SLP091 T01940072 52008 IEM_DS3505
ZBYN,2004-05-28 22:00,ZBYN 282200Z AUTO 34006KT 6SM 18/06 A2991 RMK T01800060 IEM_DS3505
ZBYN,2004-05-28 23:00,ZBYN 282300Z AUTO 36002KT 6SM 18/09 A2991 RMK T01800090 IEM_DS3505
ZBYN,2004-05-29 00:00,ZBYN 290000Z AUTO 36008KT 9SM 20/09 A2994 RMK SLP114 T02000087 52016 IEM_DS3505
ZBYN,2004-05-29 01:00,ZBYN 290100Z AUTO 05006KT 6SM 20/09 A2994 RMK T02000090 IEM_DS3505
ZBYN,2004-05-29 02:00,ZBYN 290200Z AUTO 03010KT 6SM 19/08 A2997 RMK T01900080 IEM_DS3505
ZBYN,2004-05-29 03:00,ZBYN 290300Z AUTO 07004KT 7SM 23/11 A2994 RMK SLP112 T02310112 57002 IEM_DS3505
ZBYN,2004-05-29 04:00,ZBYN 290400Z AUTO 05012KT 6SM 23/07 A2994 RMK T02300070 IEM_DS3505
ZBYN,2004-05-29 05:00,ZBYN 290500Z AUTO 07012KT 7SM 23/07 A2991 RMK T02300070 IEM_DS3505
ZBYN,2004-05-29 06:00,ZBYN 290600Z AUTO 07006KT 9SM 26/10 A2988 RMK SLP089 T02560095 57021 IEM_DS3505
ZBYN,2004-05-29 07:00,ZBYN 290700Z AUTO 08012KT 7SM 23/07 A2985 RMK T02300070 IEM_DS3505
ZBYN,2004-05-29 08:00,ZBYN 290800Z AUTO 09010KT 7SM 23/06 A2988 RMK T02300060 IEM_DS3505
ZBYN,2004-05-29 09:00,ZBYN 290900Z AUTO 36002KT 11SM 21/11 A2991 RMK SLP104 T02070114 52005 IEM_DS3505
ZBYN,2004-05-29 10:00,ZBYN 291000Z AUTO 05002KT 7SM 20/08 A2991 RMK T02000080 IEM_DS3505
ZBYN,2004-05-29 11:00,ZBYN 291100Z AUTO 00000KT 7SM 20/08 A2994 RMK T02000080 IEM_DS3505
ZBYN,2004-05-29 12:00,ZBYN 291200Z AUTO 18004KT 12SM 20/12 A2994 RMK SLP128 T01960119 52021 IEM_DS3505
ZBYN,2004-05-29 13:00,ZBYN 291300Z AUTO 09004KT 7SM 19/08 A2994 RMK T01900080 IEM_DS3505
ZBYN,2004-05-29 14:00,ZBYN 291400Z AUTO 18002KT 6SM 18/09 A2997 RMK T01800090 IEM_DS3505
ZBYN,2004-05-29 15:00,ZBYN 291500Z AUTO 20002KT 9SM 18/12 A2997 RMK SLP135 T01820118 52009 IEM_DS3505
ZBYN,2004-05-29 16:00,ZBYN 291600Z AUTO 6SM 17/10 A3000 RMK T01700100 IEM_DS3505
ZBYN,2004-05-29 18:00,ZBYN 291800Z AUTO 14002KT 6SM 16/12 A2997 RMK SLP132 T01560122 57003 IEM_DS3505
ZBYN,2004-05-29 19:00,ZBYN 291900Z AUTO 11002KT 6SM 13/10 A2997 RMK T01300100 IEM_DS3505
ZBYN,2004-05-29 20:00,ZBYN 292000Z AUTO 15002KT 6SM 13/11 A3000 RMK T01300110 IEM_DS3505
ZBYN,2004-05-29 21:00,ZBYN 292100Z AUTO 14002KT 6SM 13/11 A2997 RMK SLP146 T01290111 52002 IEM_DS3505
ZBYN,2004-05-29 22:00,ZBYN 292200Z AUTO 04006KT 4SM 12/09 A3003 RMK T01200090 IEM_DS3505
ZBYN,2004-05-29 23:00,ZBYN 292300Z AUTO 36006KT 6SM 16/00 A3006 RMK T01600000 IEM_DS3505
ZBYN,2004-05-30 00:00,ZBYN 300000Z AUTO 36010KT 16SM 18/M04 A3006 RMK 70000 SLP171 T01821044 52029 IEM_DS3505
ZBYN,2004-05-30 01:00,ZBYN 300100Z AUTO 01016KT 6SM 18/M10 A3009 RMK T01801100 IEM_DS3505
ZBYN,2004-05-30 02:00,ZBYN 300200Z AUTO 01014KT 6SM 19/M10 A3009 RMK T01901100 IEM_DS3505
ZBYN,2004-05-30 03:00,ZBYN 300300Z AUTO 02008KT 16SM 21/M06 A3009 RMK SLP177 T02101065 52007 IEM_DS3505
ZBYN,2004-05-30 04:00,ZBYN 300400Z AUTO 03008KT 6SM 21/M10 A3009 RMK T02101100 IEM_DS3505
ZBYN,2004-05-30 05:00,ZBYN 300500Z AUTO 36012KT 6SM 22/M10 A3009 RMK T02201100 IEM_DS3505
ZBYN,2004-05-30 06:00,ZBYN 300600Z AUTO 04004KT 16SM 24/M04 A3006 RMK SLP162 T02361036 57013 IEM_DS3505
ZBYN,2004-05-30 07:00,ZBYN 300700Z AUTO 35008KT 6SM 23/M10 A3006 RMK T02301100 IEM_DS3505
ZBYN,2004-05-30 08:00,ZBYN 300800Z AUTO 02010KT 6SM 23/M10 A3003 RMK T02301100 IEM_DS3505
ZBYN,2004-05-30 09:00,ZBYN 300900Z AUTO 07008KT 16SM 24/M05 A3003 RMK SLP161 T02361054 57005 IEM_DS3505
ZBYN,2004-05-30 10:00,ZBYN 301000Z AUTO 03008KT 6SM 23/M10 A3003 RMK T02301100 IEM_DS3505
ZBYN,2004-05-30 11:00,ZBYN 301100Z AUTO 36004KT 6SM 22/M10 A3006 RMK T02201100 IEM_DS3505
ZBYN,2004-05-30 12:00,ZBYN 301200Z AUTO 02004KT 16SM 21/M06 A3009 RMK SLP168 T02101065 52010 IEM_DS3505
ZBYN,2004-05-30 13:00,ZBYN 301300Z AUTO 02002KT 6SM 18/M08 A3009 RMK T01801080 IEM_DS3505
ZBYN,2004-05-30 14:00,ZBYN 301400Z AUTO 6SM 14/M04 A3012 RMK T01401040 IEM_DS3505
ZBYN,2004-05-30 15:00,ZBYN 301500Z AUTO 36004KT 12SM 16/M03 A3012 RMK SLP188 T01631027 52016 IEM_DS3505
ZBYN,2004-05-30 16:00,ZBYN 301600Z AUTO 6SM 12/M04 A3012 RMK T01201040 IEM_DS3505
ZBYN,2004-05-30 17:00,ZBYN 301700Z AUTO 12002KT 6SM 09/M03 A3015 RMK T00901030 IEM_DS3505
ZBYN,2004-05-30 18:00,ZBYN 301800Z AUTO 32002KT 12SM 14/M02 A3015 RMK SLP192 T01431017 52004 IEM_DS3505
ZBYN,2004-05-30 19:00,ZBYN 301900Z AUTO 00000KT 6SM 09/M03 A3015 RMK T00901030 IEM_DS3505
ZBYN,2004-05-30 20:00,ZBYN 302000Z AUTO 12002KT 6SM 07/M01 RMK T00701010 IEM_DS3505
ZBYN,2004-05-30 21:00,ZBYN 302100Z AUTO 16004KT 12SM 08/02 A3015 RMK SLP204 T00820016 52002 IEM_DS3505
ZBYN,2004-05-30 22:00,ZBYN 302200Z AUTO 00000KT 6SM 07/M02 A3015 RMK T00701020 IEM_DS3505
ZBYN,2004-05-31 00:00,ZBYN 310000Z AUTO 00000KT 6SM 16/02 A3018 RMK SLP204 T01650018 52009 IEM_DS3505
ZBYN,2004-05-31 01:00,ZBYN 310100Z AUTO 6SM 17/M04 A3018 RMK T01701040 IEM_DS3505
ZBYN,2004-05-31 02:00,ZBYN 310200Z AUTO 00000KT 6SM 19/M04 A3015 RMK T01901040 IEM_DS3505
ZBYN,2004-05-31 03:00,ZBYN 310300Z AUTO 18006KT 9SM 23/M02 A3015 RMK SLP190 T02341022 57010 IEM_DS3505
ZBYN,2004-05-31 04:00,ZBYN 310400Z AUTO 6SM 23/M06 A3012 RMK T02301060 IEM_DS3505
ZBYN,2004-05-31 05:00,ZBYN 310500Z AUTO 6SM 25/M07 A3009 RMK T02501070 IEM_DS3505
ZBYN,2004-05-31 06:00,ZBYN 310600Z AUTO 11004KT 9SM 26/M02 A3006 RMK SLP158 T02601017 57028 IEM_DS3505
ZBYN,2004-05-31 07:00,ZBYN 310700Z AUTO 20004KT 6SM 26/M08 A3003 RMK T02601080 IEM_DS3505
ZBYN,2004-05-31 08:00,ZBYN 310800Z AUTO 18006KT 6SM 27/M07 A3000 RMK T02701070 IEM_DS3505
ZBYN,2004-05-31 09:00,ZBYN 310900Z AUTO 16006KT 12SM 28/M03 A2997 RMK SLP140 T02791030 57023 IEM_DS3505
ZBYN,2004-05-31 10:00,ZBYN 311000Z AUTO 17004KT 6SM 27/M09 A2997 RMK T02701090 IEM_DS3505
ZBYN,2004-05-31 12:00,ZBYN 311200Z AUTO 14002KT 12SM 22/02 A2997 RMK SLP135 T02180025 57001 IEM_DS3505
ZBYN,2004-05-31 13:00,ZBYN 311300Z AUTO 07002KT 6SM 19/M02 A3000 RMK T01901020 IEM_DS3505
ZBYN,2004-05-31 14:00,ZBYN 311400Z AUTO 11002KT 6SM 18/M02 A3003 RMK T01801020 IEM_DS3505
ZBYN,2004-05-31 15:00,ZBYN 311500Z AUTO 11006KT 12SM 19/04 A3003 RMK SLP146 T01900044 52016 IEM_DS3505
ZBYN,2004-05-31 16:00,ZBYN 311600Z AUTO 11004KT 6SM 17/00 A3006 RMK T01700000 IEM_DS3505
ZBYN,2004-05-31 17:00,ZBYN 311700Z AUTO 12004KT 6SM 17/02 A3006 RMK T01700020 IEM_DS3505
ZBYN,2004-05-31 18:00,ZBYN 311800Z AUTO 11004KT 9SM 17/06 A3006 RMK SLP155 T01670057 52008 IEM_DS3505
ZBYN,2004-05-31 19:00,ZBYN 311900Z AUTO 10004KT 6SM 14/03 A3006 RMK T01400030 IEM_DS3505
ZBYN,2004-05-31 20:00,ZBYN 312000Z AUTO 10002KT 6SM 15/03 A3006 RMK T01500030 IEM_DS3505
ZBYN,2004-05-31 21:00,ZBYN 312100Z AUTO 25002KT 9SM 15/07 A3006 RMK SLP160 T01500066 52005 IEM_DS3505
ZBYN,2004-05-31 22:00,ZBYN 312200Z AUTO 12004KT 6SM 13/04 A3006 RMK T01300040 IEM_DS3505
ZBYN,2004-05-31 23:00,ZBYN 312300Z AUTO 12004KT 6SM 16/05 A3009 RMK T01600050 IEM_DS3505
ZBYN,2004-06-01 00:00,ZBYN 010000Z AUTO 34002KT 6SM 19/06 A3009 RMK SLP172 T01920060 52008 IEM_DS3505
ZBYN,2004-06-01 01:00,ZBYN 010100Z AUTO 17004KT 6SM 21/04 A3009 RMK T02100040 IEM_DS3505
ZBYN,2004-06-01 02:00,ZBYN 010200Z AUTO 17002KT 6SM 23/03 A3009 RMK T02300030 IEM_DS3505
ZBYN,2004-06-01 03:00,ZBYN 010300Z AUTO 14004KT 5SM 26/06 A3006 RMK SLP154 T02550062 57011 IEM_DS3505
ZBYN,2004-06-01 04:00,ZBYN 010400Z AUTO 35004KT 6SM 26/00 A3003 RMK T02600000 IEM_DS3505
ZBYN,2004-06-01 05:00,ZBYN 010500Z AUTO 20004KT 6SM 28/M05 A3000 RMK T02801050 IEM_DS3505
ZBYN,2004-06-01 06:00,ZBYN 010600Z AUTO 16006KT 6SM 29/00 A2997 RMK SLP120 T02940001 57029 IEM_DS3505
ZBYN,2004-06-01 07:00,ZBYN 010700Z AUTO 19012KT 7SM 29/M07 A2994 RMK T02901070 IEM_DS3505
ZBYN,2004-06-01 08:00,ZBYN 010800Z AUTO 20010KT 7SM 29/M07 A2994 RMK T02901070 IEM_DS3505
ZBYN,2004-06-01 09:00,ZBYN 010900Z AUTO 18010KT 12SM 29/M01 A2991 RMK SLP106 T02931009 57015 IEM_DS3505
ZBYN,2004-06-01 10:00,ZBYN 011000Z AUTO 17008KT 6SM 28/M05 A2991 RMK T02801050 IEM_DS3505
ZBYN,2004-06-01 11:00,ZBYN 011100Z AUTO 16006KT 6SM 26/M05 A2994 RMK T02601050 IEM_DS3505
ZBYN,2004-06-01 12:00,ZBYN 011200Z AUTO 20004KT 11SM 24/01 A2997 RMK SLP122 T02440014 52013 IEM_DS3505
ZBYN,2004-06-01 13:00,ZBYN 011300Z AUTO 20002KT 6SM 22/M02 A3000 RMK T02201020 IEM_DS3505
ZBYN,2004-06-01 14:00,ZBYN 011400Z AUTO 14006KT 6SM 19/00 A3000 RMK T01900000 IEM_DS3505
ZBYN,2004-06-01 15:00,ZBYN 011500Z AUTO 14006KT 9SM 20/05 A3003 RMK SLP137 T01990052 52017 IEM_DS3505
ZBYN,2004-06-01 16:00,ZBYN 011600Z AUTO 16004KT 6SM 19/04 A3003 RMK T01900040 IEM_DS3505
ZBYN,2004-06-01 17:00,ZBYN 011700Z AUTO 10002KT 6SM 15/02 A3003 RMK T01500020 IEM_DS3505
ZBYN,2004-06-01 18:00,ZBYN 011800Z AUTO 22002KT 7SM 15/06 A3003 RMK SLP142 T01540056 52003 IEM_DS3505
ZBYN,2004-06-01 19:00,ZBYN 011900Z AUTO 11004KT 6SM 11/02 A3003 RMK T01100020 IEM_DS3505
ZBYN,2004-06-01 20:00,ZBYN 012000Z AUTO 12004KT 6SM 11/02 A3003 RMK T01100020 IEM_DS3505
ZBYN,2004-06-01 21:00,ZBYN 012100Z AUTO 20004KT 6SM 12/04 A3003 RMK SLP148 T01200038 52001 IEM_DS3505
ZBYN,2004-06-01 22:00,ZBYN 012200Z AUTO 00000KT 6SM 11/03 A3003 RMK T01100030 IEM_DS3505
ZBYN,2004-06-01 23:00,ZBYN 012300Z AUTO 00000KT 6SM 14/03 A3003 RMK T01400030 IEM_DS3505
ZBYN,2004-06-02 00:00,ZBYN 020000Z AUTO 09004KT 6SM 19/04 A3003 RMK SLP153 T01880042 52007 IEM_DS3505
ZBYN,2004-06-02 01:00,ZBYN 020100Z AUTO 6SM 20/01 A3003 RMK T02000010 IEM_DS3505
ZBYN,2004-06-02 02:00,ZBYN 020200Z AUTO 6SM 21/00 A3003 RMK T02100000 IEM_DS3505
ZBYN,2004-06-02 03:00,ZBYN 020300Z AUTO 36002KT 6SM 24/04 A3000 RMK SLP141 T02390043 57010 IEM_DS3505
ZBYN,2004-06-02 04:00,ZBYN 020400Z AUTO 6SM 26/M04 A3000 RMK T02601040 IEM_DS3505
ZBYN,2004-06-02 05:00,ZBYN 020500Z AUTO 6SM 27/M05 A2994 RMK T02701050 IEM_DS3505
ZBYN,2004-06-02 06:00,ZBYN 020600Z AUTO 16014KT 12SM 30/00 A2994 RMK SLP107 T02960003 57029 IEM_DS3505
ZBYN,2004-06-02 07:00,ZBYN 020700Z AUTO 19008KT 6SM 29/M06 A2991 RMK T02901060 IEM_DS3505
ZBYN,2004-06-02 08:00,ZBYN 020800Z AUTO 21008KT 6SM 29/M04 A2988 RMK T02901040 IEM_DS3505
ZBYN,2004-06-02 09:00,ZBYN 020900Z AUTO 18012KT 12SM 29/03 A2988 RMK SLP097 T02930033 57015 IEM_DS3505
ZBYN,2004-06-02 10:00,ZBYN 021000Z AUTO 20008KT 6SM 27/00 A2988 RMK T02700000 IEM_DS3505
ZBYN,2004-06-02 11:00,ZBYN 021100Z AUTO 19006KT 6SM 26/00 A2988 RMK T02600000 IEM_DS3505
ZBYN,2004-06-02 12:00,ZBYN 021200Z AUTO 16006KT 7SM 25/05 A2991 RMK SLP110 T02460054 52015 IEM_DS3505
ZBYN,2004-06-02 13:00,ZBYN 021300Z AUTO 15008KT 6SM 23/00 A2997 RMK T02300000 IEM_DS3505
ZBYN,2004-06-02 14:00,ZBYN 021400Z AUTO 14008KT 6SM 22/01 A3000 RMK T02200010 IEM_DS3505
ZBYN,2004-06-02 15:00,ZBYN 021500Z AUTO 14004KT 7SM 21/05 A3000 RMK SLP137 T02070047 52026 IEM_DS3505
ZBYN,2004-06-02 16:00,ZBYN 021600Z AUTO 14004KT 6SM 20/02 A3000 RMK T02000020 IEM_DS3505
ZBYN,2004-06-02 17:00,ZBYN 021700Z AUTO 12004KT 6SM 18/03 A3003 RMK T01800030 IEM_DS3505
ZBYN,2004-06-02 18:00,ZBYN 021800Z AUTO 14002KT 6SM 18/06 A3003 RMK SLP137 T01760065 52004 IEM_DS3505
ZBYN,2004-06-02 19:00,ZBYN 021900Z AUTO 13002KT 6SM 15/04 A3003 RMK T01500040 IEM_DS3505
ZBYN,2004-06-02 20:00,ZBYN 022000Z AUTO 11004KT 6SM 13/04 A3003 RMK T01300040 IEM_DS3505
ZBYN,2004-06-02 21:00,ZBYN 022100Z AUTO 14004KT 5SM 14/07 A3003 RMK SLP145 T01390074 52002 IEM_DS3505
ZBYN,2004-06-02 22:00,ZBYN 022200Z AUTO 11002KT 6SM 15/06 A3003 RMK T01500060 IEM_DS3505
ZBYN,2004-06-02 23:00,ZBYN 022300Z AUTO 10004KT 6SM 17/04 A3003 RMK T01700040 IEM_DS3505
ZBYN,2004-06-02 23:30,ZBYN 022330Z AUTO 12008KT 6SM 18/04 A3003 RMK T01800040 IEM_DS3505
ZBYN,2004-06-03 00:00,ZBYN 030000Z AUTO 32002KT 5SM 19/08 A3003 RMK SLP149 T01930083 52004 IEM_DS3505
ZBYN,2004-06-03 01:00,ZBYN 030100Z AUTO 14002KT 6SM 20/04 A3003 RMK T02000040 IEM_DS3505
ZBYN,2004-06-03 02:00,ZBYN 030200Z AUTO 6SM 22/04 A3003 RMK T02200040 IEM_DS3505
ZBYN,2004-06-03 03:00,ZBYN 030300Z AUTO 20004KT 4SM 24/07 A3003 RMK SLP146 T02350072 57002 IEM_DS3505
ZBYN,2004-06-03 04:00,ZBYN 030400Z AUTO 6SM 23/02 A3003 RMK T02300020 IEM_DS3505
ZBYN,2004-06-03 05:00,ZBYN 030500Z AUTO 20004KT 6SM 23/01 A3003 RMK T02300010 IEM_DS3505
ZBYN,2004-06-03 06:00,ZBYN 030600Z AUTO 22006KT 6SM 24/05 A3003 RMK SLP146 T02380052 57004 IEM_DS3505
ZBYN,2004-06-03 07:00,ZBYN 030700Z AUTO 25006KT 6SM 23/01 A3000 RMK T02300010 IEM_DS3505
ZBYN,2004-06-03 08:00,ZBYN 030800Z AUTO 26002KT 6SM 22/02 A3000 RMK T02200020 IEM_DS3505
ZBYN,2004-06-03 09:00,ZBYN 030900Z AUTO 22010KT 7SM 22/06 A3000 RMK SLP148 T02220056 57006 IEM_DS3505
ZBYN,2004-06-03 10:00,ZBYN 031000Z AUTO 26006KT 7SM 17/08 A3003 RMK T01700080 IEM_DS3505
ZBYN,2004-06-03 11:00,ZBYN 031100Z AUTO 7SM 17/10 A3003 RMK T01700100 IEM_DS3505
ZBYN,2004-06-03 12:00,ZBYN 031200Z AUTO 16004KT 6SM 17/12 A3006 RMK SLP170 T01720125 52021 IEM_DS3505
ZBYN,2004-06-03 13:00,ZBYN 031300Z AUTO 17004KT 6SM 16/08 A3009 RMK T01600080 IEM_DS3505
ZBYN,2004-06-03 14:00,ZBYN 031400Z AUTO 20002KT 6SM 15/09 A3012 RMK T01500090 IEM_DS3505
ZBYN,2004-06-03 15:00,ZBYN 031500Z AUTO 16004KT 6SM 16/12 A3012 RMK SLP183 T01550124 52016 IEM_DS3505
ZBYN,2004-06-03 16:00,ZBYN 031600Z AUTO 13002KT 4SM 14/11 A3012 RMK T01400110 IEM_DS3505
ZBYN,2004-06-03 17:00,ZBYN 031700Z AUTO 22002KT 2SM 14/11 A3012 RMK T01400110 IEM_DS3505
ZBYN,2004-06-03 18:00,ZBYN 031800Z AUTO 18002KT 2 1/2SM 14/13 A3012 RMK SLP187 T01440131 52002 IEM_DS3505
ZBYN,2004-06-03 19:00,ZBYN 031900Z AUTO 15002KT 2SM 13/11 A3012 RMK T01300110 IEM_DS3505
ZBYN,2004-06-03 20:00,ZBYN 032000Z AUTO 17002KT 2SM 13/11 A3012 RMK T01300110 IEM_DS3505
ZBYN,2004-06-03 21:00,ZBYN 032100Z AUTO 16002KT 2 1/2SM 14/13 A3012 RMK 70000 SLP186 T01380127 57004 IEM_DS3505
ZBYN,2004-06-03 22:00,ZBYN 032200Z AUTO 28002KT 1 1/4SM 13/11 A3012 RMK T01300110 IEM_DS3505
ZBYN,2004-06-03 23:00,ZBYN 032300Z AUTO 00000KT 1SM 13/11 A3009 RMK T01300110 IEM_DS3505
ZBYN,2004-06-04 00:00,ZBYN 040000Z AUTO 16002KT 2 1/2SM 15/12 A3012 RMK 60002 70002 SLP190 T01470117 57002 IEM_DS3505
ZBYN,2004-06-04 01:00,ZBYN 040100Z AUTO 4SM 14/10 A3009 RMK T01400100 IEM_DS3505
ZBYN,2004-06-04 02:00,ZBYN 040200Z AUTO 01002KT 7SM 14/10 A3012 RMK T01400100 IEM_DS3505
ZBYN,2004-06-04 03:00,ZBYN 040300Z AUTO 29002KT 2SM 15/12 A3012 RMK SLP196 T01510124 52003 IEM_DS3505
ZBYN,2004-06-04 04:00,ZBYN 040400Z AUTO 32002KT 7SM 14/09 A3012 RMK T01400090 IEM_DS3505
ZBYN,2004-06-04 05:00,ZBYN 040500Z AUTO 31002KT 7SM 14/10 A3012 RMK T01400100 IEM_DS3505
ZBYN,2004-06-04 06:00,ZBYN 040600Z AUTO 14002KT 3SM 15/11 A3012 RMK 60012 SLP194 T01500114 57003 IEM_DS3505
ZBYN,2004-06-04 07:00,ZBYN 040700Z AUTO 00000KT 7SM 14/10 A3009 RMK T01400100 IEM_DS3505
ZBYN,2004-06-04 08:00,ZBYN 040800Z AUTO 00000KT 7SM 15/10 A3009 RMK T01500100 IEM_DS3505
ZBYN,2004-06-04 09:00,ZBYN 040900Z AUTO 04002KT 5SM 16/12 A3006 RMK SLP179 T01630123 57013 IEM_DS3505
ZBYN,2004-06-04 10:00,ZBYN 041000Z AUTO 05002KT 6SM 15/10 A3006 RMK T01500100 IEM_DS3505
ZBYN,2004-06-04 11:00,ZBYN 041100Z AUTO 01002KT 6SM 15/10 A3009 RMK T01500100 IEM_DS3505
ZBYN,2004-06-04 12:00,ZBYN 041200Z AUTO 36004KT 5SM 15/13 A3009 RMK 60001 SLP186 T01520127 52006 IEM_DS3505
ZBYN,2004-06-04 13:00,ZBYN 041300Z AUTO 36004KT 4SM 14/11 A3009 RMK T01400110 IEM_DS3505
ZBYN,2004-06-04 14:00,ZBYN 041400Z AUTO 35002KT 5SM 14/11 A3009 RMK T01400110 IEM_DS3505
ZBYN,2004-06-04 15:00,ZBYN 041500Z AUTO 34004KT 5SM 15/12 A3009 RMK SLP193 T01510119 52007 IEM_DS3505
ZBYN,2004-06-04 16:00,ZBYN 041600Z AUTO 05002KT 3SM 14/11 A3012 RMK T01400110 IEM_DS3505
ZBYN,2004-06-04 17:00,ZBYN 041700Z AUTO 08004KT 7SM 13/09 A3009 RMK T01300090 IEM_DS3505
ZBYN,2004-06-04 18:00,ZBYN 041800Z AUTO 04002KT 5SM 14/11 A3009 RMK 60001 SLP192 T01440106 57002 IEM_DS3505
ZBYN,2004-06-04 19:00,ZBYN 041900Z AUTO 06004KT 6SM 13/09 A3009 RMK T01300090 IEM_DS3505
ZBYN,2004-06-04 20:00,ZBYN 042000Z AUTO 36002KT 7SM 13/10 A3009 RMK T01300100 IEM_DS3505
ZBYN,2004-06-04 21:00,ZBYN 042100Z AUTO 32002KT 5SM 14/12 A3009 RMK 70017 SLP185 T01370118 57006 IEM_DS3505
ZBYN,2004-06-04 22:00,ZBYN 042200Z AUTO 01002KT 6SM 13/09 A3009 RMK T01300090 IEM_DS3505
ZBYN,2004-06-04 23:00,ZBYN 042300Z AUTO 05002KT 6SM 13/09 A3009 RMK T01300090 IEM_DS3505
ZBYN,2004-06-05 00:00,ZBYN 050000Z AUTO 34004KT 5SM 15/11 A3009 RMK 60002 70014 SLP186 T01520112 52002 IEM_DS3505
ZBYN,2004-06-05 01:00,ZBYN 050100Z AUTO 07004KT 7SM 14/09 A3009 RMK T01400090 IEM_DS3505
ZBYN,2004-06-05 03:00,ZBYN 050300Z AUTO 04002KT 6SM 16/10 A3009 RMK SLP181 T01650095 57003 IEM_DS3505
ZBYN,2004-06-05 04:00,ZBYN 050400Z AUTO 07006KT 7SM 15/08 A3009 RMK T01500080 IEM_DS3505
ZBYN,2004-06-05 05:00,ZBYN 050500Z AUTO 07010KT 7SM 14/09 A3006 RMK T01400090 IEM_DS3505
ZBYN,2004-06-05 06:00,ZBYN 050600Z AUTO 09006KT 7SM 15/10 A3003 RMK SLP173 T01540104 57010 IEM_DS3505
ZBYN,2004-06-05 07:00,ZBYN 050700Z AUTO 08008KT 7SM 15/09 A3003 RMK T01500090 IEM_DS3505
ZBYN,2004-06-05 08:00,ZBYN 050800Z AUTO 07008KT 7SM 14/09 A3003 RMK T01400090 IEM_DS3505
ZBYN,2004-06-05 09:00,ZBYN 050900Z AUTO 07008KT 9SM 15/10 A3003 RMK SLP167 T01520102 57007 IEM_DS3505
ZBYN,2004-06-05 10:00,ZBYN 051000Z AUTO 05006KT 7SM 14/08 A3000 RMK T01400080 IEM_DS3505
ZBYN,2004-06-05 11:00,ZBYN 051100Z AUTO 05006KT 6SM 14/08 A3003 RMK T01400080 IEM_DS3505
ZBYN,2004-06-05 12:00,ZBYN 051200Z AUTO 34004KT 7SM 15/10 A3003 RMK SLP166 T01460098 52001 IEM_DS3505
ZBYN,2004-06-05 13:00,ZBYN 051300Z AUTO 04004KT 6SM 13/07 A3003 RMK T01300070 IEM_DS3505
ZBYN,2004-06-05 14:00,ZBYN 051400Z AUTO 08004KT 6SM 13/08 A3003 RMK T01300080 IEM_DS3505
ZBYN,2004-06-05 15:00,ZBYN 051500Z AUTO 22002KT 6SM 13/10 A3006 RMK SLP177 T01320095 52010 IEM_DS3505
ZBYN,2004-06-05 17:00,ZBYN 051700Z AUTO 02002KT 6SM 12/08 A3003 RMK T01200080 IEM_DS3505
ZBYN,2004-06-05 18:00,ZBYN 051800Z AUTO 32002KT 6SM 13/10 A3000 RMK SLP164 T01340102 57014 IEM_DS3505
ZBYN,2004-06-05 19:00,ZBYN 051900Z AUTO 00000KT 6SM 12/09 A3000 RMK T01200090 IEM_DS3505
ZBYN,2004-06-05 20:00,ZBYN 052000Z AUTO 00000KT 6SM 10/08 A3000 RMK T01000080 IEM_DS3505
ZBYN,2004-06-05 21:00,ZBYN 052100Z AUTO 16002KT 4SM 10/09 A2997 RMK SLP159 T01050094 57009 IEM_DS3505
ZBYN,2004-06-05 22:00,ZBYN 052200Z AUTO 00000KT 5SM 10/08 A3000 RMK T01000080 IEM_DS3505
ZBYN,2004-06-05 23:00,ZBYN 052300Z AUTO 00000KT 4SM 11/09 A2997 RMK T01100090 IEM_DS3505
ZBYN,2004-06-06 00:00,ZBYN 060000Z AUTO 07002KT 2SM 13/11 A3000 RMK 70000 SLP158 T01290111 52002 IEM_DS3505
ZBYN,2004-06-06 01:00,ZBYN 060100Z AUTO 00000KT 1 1/4SM 12/09 A3000 RMK T01200090 IEM_DS3505
ZBYN,2004-06-06 02:00,ZBYN 060200Z AUTO 1 1/4SM 13/09 A3000 RMK T01300090 IEM_DS3505
ZBYN,2004-06-06 03:00,ZBYN 060300Z AUTO 16006KT 2 1/2SM 14/11 A3000 RMK SLP158 T01440112 54000 IEM_DS3505
ZBYN,2004-06-06 04:00,ZBYN 060400Z AUTO 2SM 15/10 A2997 RMK T01500100 IEM_DS3505
ZBYN,2004-06-06 05:00,ZBYN 060500Z AUTO 18004KT 17/10 A2994 RMK T01700100 IEM_DS3505
ZBYN,2004-06-06 06:00,ZBYN 060600Z AUTO 20004KT 2 1/2SM 19/13 A2991 RMK SLP125 T01890127 57023 IEM_DS3505
ZBYN,2004-06-06 07:00,ZBYN 060700Z AUTO 26004KT 5SM 19/10 A2991 RMK T01900100 IEM_DS3505
ZBYN,2004-06-06 08:00,ZBYN 060800Z AUTO 27002KT 5SM 19/10 A2988 RMK T01900100 IEM_DS3505
ZBYN,2004-06-06 09:00,ZBYN 060900Z AUTO 34004KT 2 1/2SM 20/12 A2988 RMK SLP114 T02010121 57013 IEM_DS3505
ZBYN,2004-06-06 10:00,ZBYN 061000Z AUTO 27004KT 6SM 19/10 A2988 RMK T01900100 IEM_DS3505
ZBYN,2004-06-06 11:00,ZBYN 061100Z AUTO 24004KT 1 1/4SM 17/11 A2988 RMK T01700110 IEM_DS3505
ZBYN,2004-06-06 12:00,ZBYN 061200Z AUTO 20002KT 4SM 18/14 A2988 RMK SLP119 T01760135 52005 IEM_DS3505
ZBYN,2004-06-06 13:00,ZBYN 061300Z AUTO 00000KT 4SM 15/11 A2991 RMK T01500110 IEM_DS3505
ZBYN,2004-06-06 14:00,ZBYN 061400Z AUTO 24004KT 6SM 14/10 A2994 RMK T01400100 IEM_DS3505
ZBYN,2004-06-06 15:00,ZBYN 061500Z AUTO 34004KT 7SM 16/10 A2991 RMK SLP127 T01590102 52007 IEM_DS3505
ZBYN,2004-06-06 16:00,ZBYN 061600Z AUTO 30002KT 6SM 13/08 A2991 RMK T01300080 IEM_DS3505
ZBYN,2004-06-06 17:00,ZBYN 061700Z AUTO 31004KT 6SM 13/08 A2988 RMK T01300080 IEM_DS3505
ZBYN,2004-06-06 18:00,ZBYN 061800Z AUTO 04002KT 6SM 13/10 A2988 RMK SLP118 T01340102 57005 IEM_DS3505
ZBYN,2004-06-06 19:00,ZBYN 061900Z AUTO 18002KT 6SM 12/09 A2988 RMK T01200090 IEM_DS3505
ZBYN,2004-06-06 20:00,ZBYN 062000Z AUTO 00000KT 4SM 12/09 A2988 RMK T01200090 IEM_DS3505
ZBYN,2004-06-06 21:00,ZBYN 062100Z AUTO 11002KT 5SM 12/11 A2988 RMK 70000 SLP117 T01190106 57002 IEM_DS3505
ZBYN,2004-06-06 22:00,ZBYN 062200Z AUTO 00000KT 2 1/2SM 10/09 A2991 RMK T01000090 IEM_DS3505
ZBYN,2004-06-06 23:00,ZBYN 062300Z AUTO 00000KT 2SM 11/08 A2991 RMK T01100080 IEM_DS3505
ZBYN,2004-06-07 00:00,ZBYN 070000Z AUTO 14004KT 2 1/2SM 15/12 A2991 RMK 70000 SLP126 T01540118 52010 IEM_DS3505
ZBYN,2004-06-07 01:00,ZBYN 070100Z AUTO 00000KT 16/08 A2991 RMK T01600080 IEM_DS3505
ZBYN,2004-06-07 02:00,ZBYN 070200Z AUTO 19/08 A2991 RMK T01900080 IEM_DS3505
ZBYN,2004-06-07 03:00,ZBYN 070300Z AUTO 20008KT 6SM 23/10 A2988 RMK SLP105 T02260104 57011 IEM_DS3505
ZBYN,2004-06-07 04:00,ZBYN 070400Z AUTO 27004KT 7SM 24/05 A2988 RMK T02400050 IEM_DS3505
ZBYN,2004-06-07 05:00,ZBYN 070500Z AUTO 26008KT 7SM 25/04 A2985 RMK T02500040 IEM_DS3505
ZBYN,2004-06-07 06:00,ZBYN 070600Z AUTO 34006KT 6SM 27/05 RMK SLP084 T02690053 57017 IEM_DS3505
ZBYN,2004-06-07 07:00,ZBYN 070700Z AUTO 30004KT 7SM 20/06 A2985 RMK T02000060 IEM_DS3505
ZBYN,2004-06-07 08:00,ZBYN 070800Z AUTO 06021KT 7SM 23/01 A2988 RMK T02300010 IEM_DS3505
ZBYN,2004-06-07 09:00,ZBYN 070900Z AUTO 36010KT 16SM 22/07 A2985 RMK SLP110 T02220069 52015 IEM_DS3505
ZBYN,2004-06-07 10:00,ZBYN 071000Z AUTO 04017KT 7SM 20/05 A2994 RMK T02000050 IEM_DS3505
ZBYN,2004-06-07 11:00,ZBYN 071100Z AUTO 00000KT 7SM 16/11 A2994 RMK T01600110 IEM_DS3505
ZBYN,2004-06-07 12:00,ZBYN 071200Z AUTO 34004KT 12SM 18/11 A2997 RMK 60012 SLP149 T01800109 52034 IEM_DS3505
ZBYN,2004-06-07 13:00,ZBYN 071300Z AUTO 35010KT 6SM 17/07 A3000 RMK T01700070 IEM_DS3505
ZBYN,2004-06-07 14:00,ZBYN 071400Z AUTO 33008KT 6SM 17/07 A3000 RMK T01700070 IEM_DS3505
ZBYN,2004-06-07 15:00,ZBYN 071500Z AUTO 36002KT 12SM 16/10 A3000 RMK SLP144 T01620105 52004 IEM_DS3505
ZBYN,2004-06-07 16:00,ZBYN 071600Z AUTO 00000KT 6SM 12/09 A3000 RMK T01200090 IEM_DS3505
ZBYN,2004-06-07 17:00,ZBYN 071700Z AUTO 10002KT 6SM 11/08 A3000 RMK T01100080 IEM_DS3505
ZBYN,2004-06-07 18:00,ZBYN 071800Z AUTO 22002KT 9SM 12/10 A3000 RMK SLP142 T01230102 57002 IEM_DS3505
ZBYN,2004-06-07 19:00,ZBYN 071900Z AUTO 10002KT 6SM 10/07 A3000 RMK T01000070 IEM_DS3505
ZBYN,2004-06-07 20:00,ZBYN 072000Z AUTO 36002KT 6SM 09/07 A3000 RMK T00900070 IEM_DS3505
ZBYN,2004-06-07 21:00,ZBYN 072100Z AUTO 27002KT 6SM 11/10 A3000 RMK 70010 SLP157 T01070096 52005 IEM_DS3505
ZBYN,2004-06-07 22:00,ZBYN 072200Z AUTO 00000KT 6SM 09/07 A3000 RMK T00900070 IEM_DS3505
ZBYN,2004-06-07 23:00,ZBYN 072300Z AUTO 00000KT 6SM 11/08 A3003 RMK T01100080 IEM_DS3505
ZBYN,2004-06-08 00:00,ZBYN 080000Z AUTO 14004KT 5SM 15/10 A3003 RMK 70010 SLP164 T01510105 52007 IEM_DS3505
ZBYN,2004-06-08 01:00,ZBYN 080100Z AUTO 17/09 A3003 RMK T01700090 IEM_DS3505
ZBYN,2004-06-08 02:00,ZBYN 080200Z AUTO 6SM 19/08 A3000 RMK T01900080 IEM_DS3505
ZBYN,2004-06-08 03:00,ZBYN 080300Z AUTO 18006KT 5SM 22/10 A3000 RMK SLP144 T02230101 57011 IEM_DS3505
ZBYN,2004-06-08 04:00,ZBYN 080400Z AUTO 24004KT 6SM 24/08 A2997 RMK T02400080 IEM_DS3505
ZBYN,2004-06-08 05:00,ZBYN 080500Z AUTO 7SM 25/05 A2994 RMK T02500050 IEM_DS3505
ZBYN,2004-06-08 06:00,ZBYN 080600Z AUTO 20006KT 5SM 28/09 A2991 RMK SLP113 T02780092 57026 IEM_DS3505
ZBYN,2004-06-08 07:00,ZBYN 080700Z AUTO 28006KT 7SM 27/04 A2991 RMK T02700040 IEM_DS3505
ZBYN,2004-06-08 08:00,ZBYN 080800Z AUTO 24006KT 7SM 27/04 A2988 RMK T02700040 IEM_DS3505
ZBYN,2004-06-08 09:00,ZBYN 080900Z AUTO 29004KT 9SM 28/08 A2988 RMK SLP101 T02780077 57013 IEM_DS3505
ZBYN,2004-06-08 10:00,ZBYN 081000Z AUTO 26006KT 7SM 26/04 A2988 RMK T02600040 IEM_DS3505
ZBYN,2004-06-08 11:00,ZBYN 081100Z AUTO 31004KT 6SM 24/05 A2988 RMK T02400050 IEM_DS3505
ZBYN,2004-06-08 12:00,ZBYN 081200Z AUTO 34002KT 12SM 23/06 A2991 RMK SLP110 T02260056 52007 IEM_DS3505
ZBYN,2004-06-08 13:00,ZBYN 081300Z AUTO 31004KT 6SM 21/02 A2991 RMK T02100020 IEM_DS3505
ZBYN,2004-06-08 14:00,ZBYN 081400Z AUTO 33004KT 6SM 20/02 A2994 RMK T02000020 IEM_DS3505
ZBYN,2004-06-08 15:00,ZBYN 081500Z AUTO 18002KT 11SM 20/08 A2994 RMK SLP121 T01960077 52016 IEM_DS3505
ZBYN,2004-06-08 16:00,ZBYN 081600Z AUTO 00000KT 6SM 16/07 A2994 RMK T01600070 IEM_DS3505
ZBYN,2004-06-08 17:00,ZBYN 081700Z AUTO 11002KT 5SM 14/07 A2994 RMK T01400070 IEM_DS3505
ZBYN,2004-06-08 18:00,ZBYN 081800Z AUTO 25002KT 6SM 14/10 A2994 RMK SLP121 T01410099 54000 IEM_DS3505
ZBYN,2004-06-08 19:00,ZBYN 081900Z AUTO 12002KT 6SM 13/06 A2994 RMK T01300060 IEM_DS3505
ZBYN,2004-06-08 20:00,ZBYN 082000Z AUTO 10002KT 6SM 12/06 A2997 RMK T01200060 IEM_DS3505
ZBYN,2004-06-08 21:00,ZBYN 082100Z AUTO 11002KT 6SM 11/08 A2997 RMK SLP134 T01140084 52008 IEM_DS3505
ZBYN,2004-06-08 22:00,ZBYN 082200Z AUTO 13004KT 6SM 11/06 A3000 RMK T01100060 IEM_DS3505
ZBYN,2004-06-08 23:00,ZBYN 082300Z AUTO 10002KT 5SM 14/07 A3000 RMK T01400070 IEM_DS3505
ZBYN,2004-06-09 00:00,ZBYN 090000Z AUTO 09004KT 5SM 18/10 A3000 RMK SLP141 T01840095 52009 IEM_DS3505
ZBYN,2004-06-09 01:00,ZBYN 090100Z AUTO 6SM 20/06 A3000 RMK T02000060 IEM_DS3505
ZBYN,2004-06-09 02:00,ZBYN 090200Z AUTO 15002KT 6SM 23/05 A2997 RMK T02300050 IEM_DS3505
ZBYN,2004-06-09 03:00,ZBYN 090300Z AUTO 14004KT 6SM 26/09 A2997 RMK SLP120 T02580092 57013 IEM_DS3505
ZBYN,2004-06-09 04:00,ZBYN 090400Z AUTO 26004KT 7SM 28/04 A2994 RMK T02800040 IEM_DS3505
ZBYN,2004-06-09 05:00,ZBYN 090500Z AUTO 22004KT 7SM 30/03 A2991 RMK T03000030 IEM_DS3505
ZBYN,2004-06-09 06:00,ZBYN 090600Z AUTO 04008G19KT 7SM 33/04 A2991 RMK SLP093 T03270045 57023 IEM_DS3505
ZBYN,2004-06-09 07:00,ZBYN 090700Z AUTO 20002KT 7SM 28/01 A2988 RMK T02800010 IEM_DS3505
ZBYN,2004-06-09 08:00,ZBYN 090800Z AUTO 28010KT 7SM 28/M01 A2988 RMK T02801010 IEM_DS3505
ZBYN,2004-06-09 09:00,ZBYN 090900Z AUTO 29012KT 12SM 30/04 A2991 RMK SLP107 T02950035 52005 IEM_DS3505
ZBYN,2004-06-09 10:00,ZBYN 091000Z AUTO 28004KT 7SM 28/02 A2991 RMK T02800020 IEM_DS3505
ZBYN,2004-06-09 11:00,ZBYN 091100Z AUTO 32004KT 7SM 27/02 A2991 RMK T02700020 IEM_DS3505
ZBYN,2004-06-09 12:00,ZBYN 091200Z AUTO 00000KT 12SM 25/06 A2994 RMK SLP116 T02460064 52011 IEM_DS3505
ZBYN,2004-06-09 13:00,ZBYN 091300Z AUTO 15002KT 6SM 22/04 A2997 RMK T02200040 IEM_DS3505
ZBYN,2004-06-09 14:00,ZBYN 091400Z AUTO 6SM 20/04 A3000 RMK T02000040 IEM_DS3505
ZBYN,2004-06-09 15:00,ZBYN 091500Z AUTO 09002KT 11SM 18/10 A3000 RMK SLP142 T01810097 52025 IEM_DS3505
ZBYN,2004-06-09 16:00,ZBYN 091600Z AUTO 00000KT 6SM 18/05 A3003 RMK T01800050 IEM_DS3505
ZBYN,2004-06-09 17:00,ZBYN 091700Z AUTO 04002KT 6SM 17/06 A3003 RMK T01700060 IEM_DS3505
ZBYN,2004-06-09 18:00,ZBYN 091800Z AUTO 34002KT 9SM 17/08 A3003 RMK SLP138 T01720084 52005 IEM_DS3505
ZBYN,2004-06-09 19:00,ZBYN 091900Z AUTO 12002KT 6SM 15/07 A3003 RMK T01500070 IEM_DS3505
ZBYN,2004-06-09 20:00,ZBYN 092000Z AUTO 00000KT 6SM 13/08 A3003 RMK T01300080 IEM_DS3505
ZBYN,2004-06-09 21:00,ZBYN 092100Z AUTO 34004KT 6SM 19/08 A3006 RMK SLP146 T01880085 52005 IEM_DS3505
ZBYN,2004-06-09 22:00,ZBYN 092200Z AUTO 14002KT 4SM 14/08 A3006 RMK T01400080 IEM_DS3505
ZBYN,2004-06-09 23:00,ZBYN 092300Z AUTO 35002KT 17/09 A3009 RMK T01700090 IEM_DS3505
ZBYN,2004-06-10 00:00,ZBYN 100000Z AUTO 32004KT 5SM 22/09 A3009 RMK SLP162 T02200092 52012 IEM_DS3505
ZBYN,2004-06-10 01:00,ZBYN 100100Z AUTO 32004KT 6SM 23/06 A3009 RMK T02300060 IEM_DS3505
ZBYN,2004-06-10 02:00,ZBYN 100200Z AUTO 32002KT 5SM 25/06 A3012 RMK T02500060 IEM_DS3505
ZBYN,2004-06-10 03:00,ZBYN 100300Z AUTO 29002KT 5SM 29/10 A3009 RMK SLP158 T02860098 57003 IEM_DS3505
ZBYN,2004-06-10 04:00,ZBYN 100400Z AUTO 6SM 29/04 A3006 RMK T02900040 IEM_DS3505
ZBYN,2004-06-10 05:00,ZBYN 100500Z AUTO 15004KT 7SM 31/04 A3003 RMK T03100040 IEM_DS3505
ZBYN,2004-06-10 06:00,ZBYN 100600Z AUTO 27006KT 9SM 32/08 A3000 RMK SLP132 T03190082 57021 IEM_DS3505
ZBYN,2004-06-10 07:00,ZBYN 100700Z AUTO 7SM 32/04 A3000 RMK T03200040 IEM_DS3505
ZBYN,2004-06-10 08:00,ZBYN 100800Z AUTO 10002KT 7SM 32/03 A2997 RMK T03200030 IEM_DS3505
ZBYN,2004-06-10 09:00,ZBYN 100900Z AUTO 25004KT 9SM 32/09 A2997 RMK SLP109 T03240093 57018 IEM_DS3505
ZBYN,2004-06-10 10:00,ZBYN 101000Z AUTO 07008KT 6SM 32/00 A2994 RMK T03200000 IEM_DS3505
ZBYN,2004-06-10 11:00,ZBYN 101100Z AUTO 09010KT 6SM 30/01 A2997 RMK T03000010 IEM_DS3505
ZBYN,2004-06-10 12:00,ZBYN 101200Z AUTO 09010KT 9SM 29/06 A3000 RMK SLP122 T02900064 52012 IEM_DS3505
ZBYN,2004-06-10 13:00,ZBYN 101300Z AUTO 08008KT 6SM 26/03 A3003 RMK T02600030 IEM_DS3505
ZBYN,2004-06-10 14:00,ZBYN 101400Z AUTO 10006KT 6SM 24/04 A3006 RMK T02400040 IEM_DS3505
ZBYN,2004-06-10 15:00,ZBYN 101500Z AUTO 16002KT 9SM 23/07 A3006 RMK SLP145 T02320073 52022 IEM_DS3505
ZBYN,2004-06-10 16:00,ZBYN 101600Z AUTO 09002KT 6SM 21/05 A3006 RMK T02100050 IEM_DS3505
ZBYN,2004-06-10 17:00,ZBYN 101700Z AUTO 10004KT 6SM 19/06 A3006 RMK T01900060 IEM_DS3505
ZBYN,2004-06-10 18:00,ZBYN 101800Z AUTO 29002KT 9SM 19/11 A3006 RMK SLP147 T01890107 54000 IEM_DS3505
ZBYN,2004-06-10 19:00,ZBYN 101900Z AUTO 12004KT 6SM 17/07 A3006 RMK T01700070 IEM_DS3505
ZBYN,2004-06-10 20:00,ZBYN 102000Z AUTO 12004KT 6SM 16/07 A3009 RMK T01600070 IEM_DS3505
ZBYN,2004-06-10 21:00,ZBYN 102100Z AUTO 29002KT 6SM 18/11 A3009 RMK SLP158 T01750109 52009 IEM_DS3505
ZBYN,2004-06-10 22:00,ZBYN 102200Z AUTO 15002KT 6SM 15/08 A3012 RMK T01500080 IEM_DS3505
ZBYN,2004-06-10 23:00,ZBYN 102300Z AUTO 13002KT 6SM 18/09 A3012 RMK T01800090 IEM_DS3505
ZBYN,2004-06-11 00:00,ZBYN 110000Z AUTO 32002KT 6SM 22/11 A3012 RMK SLP170 T02210112 52013 IEM_DS3505
ZBYN,2004-06-11 01:00,ZBYN 110100Z AUTO 00000KT 6SM 23/08 A3012 RMK T02300080 IEM_DS3505
ZBYN,2004-06-11 02:00,ZBYN 110200Z AUTO 6SM 25/08 A3012 RMK T02500080 IEM_DS3505
ZBYN,2004-06-11 03:00,ZBYN 110300Z AUTO 22004KT 5SM 28/11 A3012 RMK SLP161 T02810108 57008 IEM_DS3505
ZBYN,2004-06-11 04:00,ZBYN 110400Z AUTO 6SM 28/07 A3009 RMK T02800070 IEM_DS3505
ZBYN,2004-06-11 05:00,ZBYN 110500Z AUTO 6SM 30/05 A3006 RMK T03000050 IEM_DS3505
ZBYN,2004-06-11 06:00,ZBYN 110600Z AUTO 20004KT 6SM 32/09 A3003 RMK SLP134 T03150091 57026 IEM_DS3505
ZBYN,2004-06-11 07:00,ZBYN 110700Z AUTO 24006KT 6SM 31/04 A3000 RMK T03100040 IEM_DS3505
ZBYN,2004-06-11 08:00,ZBYN 110800Z AUTO 23006KT 6SM 32/05 A3000 RMK T03200050 IEM_DS3505
ZBYN,2004-06-11 09:00,ZBYN 110900Z AUTO 20006KT 6SM 32/09 A2997 RMK SLP117 T03230086 57017 IEM_DS3505
ZBYN,2004-06-11 10:00,ZBYN 111000Z AUTO 22004KT 6SM 31/03 A2997 RMK T03100030 IEM_DS3505
ZBYN,2004-06-11 11:00,ZBYN 111100Z AUTO 20002KT 6SM 29/04 A2997 RMK T02900040 IEM_DS3505
ZBYN,2004-06-11 12:00,ZBYN 111200Z AUTO 16002KT 6SM 27/09 A3000 RMK SLP126 T02700094 52008 IEM_DS3505
ZBYN,2004-06-11 13:00,ZBYN 111300Z AUTO 09004KT 6SM 23/06 A3003 RMK T02300060 IEM_DS3505
ZBYN,2004-06-11 14:00,ZBYN 111400Z AUTO 07004KT 6SM 23/05 A3006 RMK T02300050 IEM_DS3505
ZBYN,2004-06-11 15:00,ZBYN 111500Z AUTO 11006KT 6SM 24/08 A3009 RMK SLP152 T02390075 52027 IEM_DS3505
ZBYN,2004-06-11 16:00,ZBYN 111600Z AUTO 10004KT 6SM 21/05 A3012 RMK T02100050 IEM_DS3505
ZBYN,2004-06-11 17:00,ZBYN 111700Z AUTO 00000KT 6SM 19/06 A3012 RMK T01900060 IEM_DS3505
ZBYN,2004-06-11 18:00,ZBYN 111800Z AUTO 11002KT 6SM 20/09 A3012 RMK SLP164 T01970090 52010 IEM_DS3505
ZBYN,2004-06-11 19:00,ZBYN 111900Z AUTO 11004KT 6SM 17/07 A3012 RMK T01700070 IEM_DS3505
ZBYN,2004-06-11 20:00,ZBYN 112000Z AUTO 12006KT 6SM 17/06 A3012 RMK T01700060 IEM_DS3505
ZBYN,2004-06-11 21:00,ZBYN 112100Z AUTO 18002KT 6SM 17/10 A3015 RMK SLP176 T01660100 52008 IEM_DS3505
ZBYN,2004-06-11 22:00,ZBYN 112200Z AUTO 09002KT 6SM 16/07 A3015 RMK T01600070 IEM_DS3505
ZBYN,2004-06-11 23:00,ZBYN 112300Z AUTO 28002KT 19/08 A3015 RMK T01900080 IEM_DS3505
ZBYN,2004-06-12 00:00,ZBYN 120000Z AUTO 32002KT 4SM 23/10 A3018 RMK SLP183 T02320103 52008 IEM_DS3505
ZBYN,2004-06-12 01:00,ZBYN 120100Z AUTO 25/07 A3018 RMK T02500070 IEM_DS3505
ZBYN,2004-06-12 02:00,ZBYN 120200Z AUTO 5SM 27/06 A3015 RMK T02700060 IEM_DS3505
ZBYN,2004-06-12 03:00,ZBYN 120300Z AUTO 18008KT 5SM 29/10 A3015 RMK SLP169 T02890096 57009 IEM_DS3505
ZBYN,2004-06-12 04:00,ZBYN 120400Z AUTO 16004KT 5SM 29/06 A3012 RMK T02900060 IEM_DS3505
ZBYN,2004-06-12 05:00,ZBYN 120500Z AUTO 13004KT 7SM 29/07 A3009 RMK T02900070 IEM_DS3505
ZBYN,2004-06-12 06:00,ZBYN 120600Z AUTO 11006KT 6SM 29/12 A3006 RMK SLP150 T02910117 57023 IEM_DS3505
ZBYN,2004-06-12 07:00,ZBYN 120700Z AUTO 09014KT 3SM 29/09 A3006 RMK T02900090 IEM_DS3505
ZBYN,2004-06-12 08:00,ZBYN 120800Z AUTO 08014KT 3SM 28/09 A3003 RMK T02800090 IEM_DS3505
ZBYN,2004-06-12 09:00,ZBYN 120900Z AUTO 09014KT 6SM 28/11 A3003 RMK SLP144 T02820113 57011 IEM_DS3505
ZBYN,2004-06-12 10:00,ZBYN 121000Z AUTO 08014KT 6SM 27/07 A3003 RMK T02700070 IEM_DS3505
ZBYN,2004-06-12 11:00,ZBYN 121100Z AUTO 07014KT 6SM 25/06 A3006 RMK T02500060 IEM_DS3505
ZBYN,2004-06-12 12:00,ZBYN 121200Z AUTO 11010KT 6SM 26/09 A3006 RMK SLP150 T02550089 52011 IEM_DS3505
ZBYN,2004-06-12 13:00,ZBYN 121300Z AUTO 08010KT 6SM 23/05 A3009 RMK T02300050 IEM_DS3505
ZBYN,2004-06-12 14:00,ZBYN 121400Z AUTO 09010KT 6SM 23/05 A3012 RMK T02300050 IEM_DS3505
ZBYN,2004-06-12 15:00,ZBYN 121500Z AUTO 14002KT 6SM 22/09 A3012 RMK SLP162 T02240092 52015 IEM_DS3505
ZBYN,2004-06-12 16:00,ZBYN 121600Z AUTO 09008KT 6SM 21/06 A3012 RMK T02100060 IEM_DS3505
ZBYN,2004-06-12 17:00,ZBYN 121700Z AUTO 07008KT 6SM 21/06 A3009 RMK T02100060 IEM_DS3505
ZBYN,2004-06-12 18:00,ZBYN 121800Z AUTO 32002KT 6SM 20/10 A3009 RMK SLP158 T02040099 57007 IEM_DS3505
ZBYN,2004-06-12 19:00,ZBYN 121900Z AUTO 6SM 18/07 A3009 RMK T01800070 IEM_DS3505
ZBYN,2004-06-12 20:00,ZBYN 122000Z AUTO 14002KT 6SM 17/07 A3006 RMK T01700070 IEM_DS3505
ZBYN,2004-06-12 21:00,ZBYN 122100Z AUTO 32004KT 4SM 20/10 A3006 RMK SLP149 T02020098 57009 IEM_DS3505
ZBYN,2004-06-12 22:00,ZBYN 122200Z AUTO 00000KT 4SM 17/09 A3006 RMK T01700090 IEM_DS3505
ZBYN,2004-06-12 23:00,ZBYN 122300Z AUTO 00000KT 3SM 18/09 A3006 RMK T01800090 IEM_DS3505
ZBYN,2004-06-13 00:00,ZBYN 130000Z AUTO 32004KT 4SM 21/10 A3006 RMK SLP152 T02060104 57001 IEM_DS3505
ZBYN,2004-06-13 01:00,ZBYN 130100Z AUTO 31002KT 6SM 20/10 A3006 RMK T02000100 IEM_DS3505
ZBYN,2004-06-13 02:00,ZBYN 130200Z AUTO 32004KT 6SM 21/09 A3003 RMK T02100090 IEM_DS3505
ZBYN,2004-06-13 03:00,ZBYN 130300Z AUTO 29006KT 4SM 21/14 A3003 RMK SLP151 T02060138 57005 IEM_DS3505
ZBYN,2004-06-13 04:00,ZBYN 130400Z AUTO 32008KT 7SM 19/13 A3003 RMK T01900130 IEM_DS3505
ZBYN,2004-06-13 05:00,ZBYN 130500Z AUTO 33008KT 4SM 18/14 A3003 RMK T01800140 IEM_DS3505
ZBYN,2004-06-13 06:00,ZBYN 130600Z AUTO 36004KT 4SM 20/15 A3000 RMK 60004 SLP146 T01970149 57009 IEM_DS3505
ZBYN,2004-06-13 07:00,ZBYN 130700Z AUTO 33004KT 7SM 21/13 A2997 RMK T02100130 IEM_DS3505
ZBYN,2004-06-13 08:00,ZBYN 130800Z AUTO 33006KT 7SM 21/12 A2997 RMK T02100120 IEM_DS3505
ZBYN,2004-06-13 09:00,ZBYN 130900Z AUTO 34006KT 7SM 21/13 A2994 RMK T02100130 IEM_DS3505
ZBYN,2004-06-13 10:00,ZBYN 131000Z AUTO 32008KT 6SM 20/13 A2994 RMK T02000130 IEM_DS3505
ZBYN,2004-06-13 11:00,ZBYN 131100Z AUTO 32008KT 6SM 20/12 A2994 RMK T02000120 IEM_DS3505
ZBYN,2004-06-13 12:00,ZBYN 131200Z AUTO 32006KT 4SM 20/14 A2994 RMK SLP124 T01990138 57001 IEM_DS3505
ZBYN,2004-06-13 13:00,ZBYN 131300Z AUTO 34008KT 6SM 19/12 A2994 RMK T01900120 IEM_DS3505
ZBYN,2004-06-13 14:00,ZBYN 131400Z AUTO 33006KT 6SM 18/12 A2997 RMK T01800120 IEM_DS3505
ZBYN,2004-06-13 15:00,ZBYN 131500Z AUTO 32006KT 4SM 19/14 A2994 RMK SLP126 T01930141 52001 IEM_DS3505
ZBYN,2004-06-13 16:00,ZBYN 131600Z AUTO 32004KT 6SM 18/12 A2994 RMK T01800120 IEM_DS3505
ZBYN,2004-06-13 17:00,ZBYN 131700Z AUTO 34008KT 6SM 18/12 A2994 RMK T01800120 IEM_DS3505
ZBYN,2004-06-13 18:00,ZBYN 131800Z AUTO 32006KT 3SM 19/14 A2994 RMK SLP119 T01870144 57009 IEM_DS3505
ZBYN,2004-06-13 19:00,ZBYN 131900Z AUTO 35002KT 6SM 17/13 A2991 RMK T01700130 IEM_DS3505
ZBYN,2004-06-13 20:00,ZBYN 132000Z AUTO 00000KT 6SM 16/12 A2991 RMK T01600120 IEM_DS3505
ZBYN,2004-06-13 21:00,ZBYN 132100Z AUTO 32002KT 3SM 18/14 A2991 RMK 70006 SLP115 T01780145 57003 IEM_DS3505
ZBYN,2004-06-13 22:00,ZBYN 132200Z AUTO 4SM 16/13 A2991 RMK T01600130 IEM_DS3505
ZBYN,2004-06-13 23:00,ZBYN 132300Z AUTO 1 1/4SM 17/13 A2994 RMK T01700130 IEM_DS3505
ZBYN,2004-06-14 00:00,ZBYN 140000Z AUTO 04002KT 3SM 18/14 A2994 RMK 60000 70006 SLP125 T01820145 52008 IEM_DS3505
ZBYN,2004-06-14 01:00,ZBYN 140100Z AUTO 2SM 18/11 A2994 RMK T01800110 IEM_DS3505
ZBYN,2004-06-14 02:00,ZBYN 140200Z AUTO 2 1/2SM 18/12 A2994 RMK T01800120 IEM_DS3505
ZBYN,2004-06-14 03:00,ZBYN 140300Z AUTO 16004KT 4SM 18/13 A2997 RMK SLP132 T01830134 52006 IEM_DS3505
ZBYN,2004-06-14 04:00,ZBYN 140400Z AUTO 00000KT 18/11 A2994 RMK T01800110 IEM_DS3505
ZBYN,2004-06-14 05:00,ZBYN 140500Z AUTO 31004KT 6SM 18/12 A2994 RMK T01800120 IEM_DS3505
ZBYN,2004-06-14 06:00,ZBYN 140600Z AUTO 32002KT 4SM 19/14 A2991 RMK SLP117 T01900136 57014 IEM_DS3505
ZBYN,2004-06-14 07:00,ZBYN 140700Z AUTO 33004KT 6SM 20/11 A2988 RMK T02000110 IEM_DS3505
ZBYN,2004-06-14 08:00,ZBYN 140800Z AUTO 14004KT 6SM 21/08 A2988 RMK T02100080 IEM_DS3505
ZBYN,2004-06-14 09:00,ZBYN 140900Z AUTO 32004KT 5SM 22/13 A2985 RMK SLP090 T02210132 57021 IEM_DS3505
ZBYN,2004-06-14 10:00,ZBYN 141000Z AUTO 18006KT 6SM 21/08 A2985 RMK T02100080 IEM_DS3505
ZBYN,2004-06-14 11:00,ZBYN 141100Z AUTO 6SM 21/10 A2985 RMK T02100100 IEM_DS3505
ZBYN,2004-06-14 12:00,ZBYN 141200Z AUTO 22002KT 6SM 20/12 A2988 RMK SLP103 T01950125 52009 IEM_DS3505
ZBYN,2004-06-14 13:00,ZBYN 141300Z AUTO 00000KT 6SM 19/09 A2988 RMK T01900090 IEM_DS3505
ZBYN,2004-06-14 14:00,ZBYN 141400Z AUTO 6SM 18/10 A2991 RMK T01800100 IEM_DS3505
ZBYN,2004-06-14 15:00,ZBYN 141500Z AUTO 00000KT 6SM 17/14 A2988 RMK SLP113 T01670136 52005 IEM_DS3505
ZBYN,2004-06-14 16:00,ZBYN 141600Z AUTO 07004KT 6SM 16/08 A2988 RMK T01600080 IEM_DS3505
ZBYN,2004-06-14 17:00,ZBYN 141700Z AUTO 06004KT 6SM 16/08 A2988 RMK T01600080 IEM_DS3505
ZBYN,2004-06-14 18:00,ZBYN 141800Z AUTO 32002KT 6SM 17/12 A2985 RMK SLP102 T01670123 57009 IEM_DS3505
ZBYN,2004-06-14 19:00,ZBYN 141900Z AUTO 00000KT 6SM 15/09 A2985 RMK T01500090 IEM_DS3505
ZBYN,2004-06-14 20:00,ZBYN 142000Z AUTO 6SM 16/09 A2985 RMK T01600090 IEM_DS3505
ZBYN,2004-06-14 21:00,ZBYN 142100Z AUTO 04002KT 6SM 16/12 A2985 RMK SLP090 T01630117 57007 IEM_DS3505
ZBYN,2004-06-14 22:00,ZBYN 142200Z AUTO 6SM 15/10 A2985 RMK T01500100 IEM_DS3505
ZBYN,2004-06-14 23:00,ZBYN 142300Z AUTO 00000KT 5SM 16/10 A2988 RMK T01600100 IEM_DS3505
ZBYN,2004-06-15 00:00,ZBYN 150000Z AUTO 04002KT 4SM 18/13 A2988 RMK SLP101 T01850127 52009 IEM_DS3505
ZBYN,2004-06-15 01:00,ZBYN 150100Z AUTO 11006KT 6SM 19/09 A2988 RMK T01900090 IEM_DS3505
ZBYN,2004-06-15 02:00,ZBYN 150200Z AUTO 08006KT 6SM 19/09 A2988 RMK T01900090 IEM_DS3505
ZBYN,2004-06-15 03:00,ZBYN 150300Z AUTO 09008KT 6SM 20/12 A2988 RMK SLP106 T01980123 52003 IEM_DS3505
ZBYN,2004-06-15 04:00,ZBYN 150400Z AUTO 08006KT 7SM 19/10 A2988 RMK T01900100 IEM_DS3505
ZBYN,2004-06-15 05:00,ZBYN 150500Z AUTO 15004KT 7SM 17/13 A2988 RMK T01700130 IEM_DS3505
ZBYN,2004-06-15 06:00,ZBYN 150600Z AUTO 34004KT 5SM 17/16 A2988 RMK 60004 SLP107 T01710156 57003 IEM_DS3505
ZBYN,2004-06-15 07:00,ZBYN 150700Z AUTO 4SM 16/14 A2985 RMK T01600140 IEM_DS3505
ZBYN,2004-06-15 08:00,ZBYN 150800Z AUTO 03004KT 2 1/2SM 16/14 A2985 RMK T01600140 IEM_DS3505
ZBYN,2004-06-15 09:00,ZBYN 150900Z AUTO 32002KT 2SM 16/16 A2985 RMK SLP100 T01640158 57008 IEM_DS3505
ZBYN,2004-06-15 10:00,ZBYN 151000Z AUTO 04002KT 1SM 15/14 A2985 RMK T01500140 IEM_DS3505
ZBYN,2004-06-15 11:00,ZBYN 151100Z AUTO 07004KT 2SM 15/13 A2985 RMK T01500130 IEM_DS3505
ZBYN,2004-06-15 12:00,ZBYN 151200Z AUTO 32004KT 2SM 15/15 A2985 RMK 60051 SLP100 T01540149 52001 IEM_DS3505
ZBYN,2004-06-15 13:00,ZBYN 151300Z AUTO 10004KT 1 1/4SM 14/13 A2985 RMK T01400130 IEM_DS3505
ZBYN,2004-06-15 14:00,ZBYN 151400Z AUTO 28004KT 1 1/4SM 14/13 A2988 RMK T01400130 IEM_DS3505
ZBYN,2004-06-15 15:00,ZBYN 151500Z AUTO 34002KT 2SM 15/15 A2985 RMK SLP100 T01530148 52002 IEM_DS3505
ZBYN,2004-06-15 16:00,ZBYN 151600Z AUTO 02002KT 1 1/4SM 14/13 A2983 RMK T01400130 IEM_DS3505
ZBYN,2004-06-15 17:00,ZBYN 151700Z AUTO 36002KT 1 1/4SM 14/13 A2980 RMK T01400130 IEM_DS3505
ZBYN,2004-06-15 18:00,ZBYN 151800Z AUTO 36002KT 2SM 16/14 A2980 RMK 60028 SLP078 T01560141 57023 IEM_DS3505
ZBYN,2004-06-15 19:00,ZBYN 151900Z AUTO 28002KT 2SM 14/13 A2977 RMK T01400130 IEM_DS3505
ZBYN,2004-06-15 20:00,ZBYN 152000Z AUTO 00000KT 2SM 14/13 A2977 RMK T01400130 IEM_DS3505
ZBYN,2004-06-15 21:00,ZBYN 152100Z AUTO 32004KT 4SM 15/14 A2977 RMK 70084 SLP075 T01510141 57005 IEM_DS3505
ZBYN,2004-06-15 22:00,ZBYN 152200Z AUTO 31002KT 5SM 14/13 A2977 RMK T01400130 IEM_DS3505
ZBYN,2004-06-15 23:00,ZBYN 152300Z AUTO 32004KT 7SM 15/13 A2977 RMK T01500130 IEM_DS3505
ZBYN,2004-06-16 00:00,ZBYN 160000Z AUTO 34002KT 4SM 16/15 A2977 RMK 70085 SLP075 T01640148 52001 IEM_DS3505
ZBYN,2004-06-16 01:00,ZBYN 160100Z AUTO 33006KT 6SM 17/13 A2977 RMK T01700130 IEM_DS3505
ZBYN,2004-06-16 02:00,ZBYN 160200Z AUTO 32006KT 7SM 18/12 A2977 RMK T01800120 IEM_DS3505
ZBYN,2004-06-16 03:00,ZBYN 160300Z AUTO 02004KT 6SM 20/14 A2974 RMK SLP063 T02030140 57006 IEM_DS3505
ZBYN,2004-06-16 04:00,ZBYN 160400Z AUTO 36010KT 7SM 21/12 A2974 RMK T02100120 IEM_DS3505
ZBYN,2004-06-16 05:00,ZBYN 160500Z AUTO 07006KT 7SM 21/12 A2971 RMK T02100120 IEM_DS3505
ZBYN,2004-06-16 06:00,ZBYN 160600Z AUTO 02002KT 9SM 24/13 A2971 RMK 60000 SLP034 T02410133 57021 IEM_DS3505
ZBYN,2004-06-16 07:00,ZBYN 160700Z AUTO 13008KT 7SM 21/12 A2968 RMK T02100120 IEM_DS3505
ZBYN,2004-06-16 08:00,ZBYN 160800Z AUTO 11010KT 7SM 20/12 A2968 RMK T02000120 IEM_DS3505
ZBYN,2004-06-16 09:00,ZBYN 160900Z AUTO 11016KT 16SM 21/14 A2965 RMK SLP028 T02090136 57010 IEM_DS3505
ZBYN,2004-06-16 10:00,ZBYN 161000Z AUTO 09014KT 7SM 18/11 A2965 RMK T01800110 IEM_DS3505
ZBYN,2004-06-16 11:00,ZBYN 161100Z AUTO 07012KT 7SM 16/10 A2968 RMK T01600100 IEM_DS3505
ZBYN,2004-06-16 12:00,ZBYN 161200Z AUTO 32004KT 12SM 16/14 A2971 RMK 60004 SLP060 T01640142 52024 IEM_DS3505
ZBYN,2004-06-16 13:00,ZBYN 161300Z AUTO 15006KT 7SM 14/12 A2971 RMK T01400120 IEM_DS3505
ZBYN,2004-06-16 14:00,ZBYN 161400Z AUTO 10004KT 6SM 14/11 A2974 RMK T01400110 IEM_DS3505
ZBYN,2004-06-16 15:00,ZBYN 161500Z AUTO 20004KT 12SM 15/13 A2974 RMK SLP061 T01480130 52005 IEM_DS3505
ZBYN,2004-06-16 16:00,ZBYN 161600Z AUTO 14002KT 6SM 14/11 A2974 RMK T01400110 IEM_DS3505
ZBYN,2004-06-16 17:00,ZBYN 161700Z AUTO 14002KT 6SM 13/12 A2974 RMK T01300120 IEM_DS3505
ZBYN,2004-06-16 18:00,ZBYN 161800Z AUTO 09002KT 9SM 13/13 A2974 RMK 60002 SLP051 T01340126 57006 IEM_DS3505
ZBYN,2004-06-16 19:00,ZBYN 161900Z AUTO 14004KT 2 1/2SM 12/11 A2974 RMK T01200110 IEM_DS3505
ZBYN,2004-06-16 20:00,ZBYN 162000Z AUTO 06002KT 2SM 12/11 A2974 RMK T01200110 IEM_DS3505
ZBYN,2004-06-16 21:00,ZBYN 162100Z AUTO 14002KT 5SM 13/12 A2977 RMK 70009 SLP064 T01280125 52006 IEM_DS3505
ZBYN,2004-06-16 22:00,ZBYN 162200Z AUTO 00000KT 1SM 13/12 A2977 RMK T01300120 IEM_DS3505
ZBYN,2004-06-16 23:00,ZBYN 162300Z AUTO 32010KT 1SM 14/13 A2980 RMK T01400130 IEM_DS3505
ZBYN,2004-06-17 00:00,ZBYN 170000Z AUTO 04006KT 4SM 14/13 A2974 RMK 60002 70010 SLP060 T01420134 57008 IEM_DS3505
ZBYN,2004-06-17 01:00,ZBYN 170100Z AUTO 19004KT 1SM 15/13 A2974 RMK T01500130 IEM_DS3505
ZBYN,2004-06-17 02:00,ZBYN 170200Z AUTO 24004KT 4SM 17/13 A2974 RMK T01700130 IEM_DS3505
ZBYN,2004-06-17 03:00,ZBYN 170300Z AUTO 16006KT 9SM 21/14 A2974 RMK SLP056 T02140138 52005 IEM_DS3505
ZBYN,2004-06-17 04:00,ZBYN 170400Z AUTO 7SM 21/11 A2974 RMK T02100110 IEM_DS3505
ZBYN,2004-06-17 05:00,ZBYN 170500Z AUTO 7SM 22/10 A2971 RMK T02200100 IEM_DS3505
ZBYN,2004-06-17 06:00,ZBYN 170600Z AUTO 18008KT 7SM 25/15 A2968 RMK SLP029 T02510146 57022 IEM_DS3505
ZBYN,2004-06-17 07:00,ZBYN 170700Z AUTO 18004KT 7SM 25/10 A2965 RMK T02500100 IEM_DS3505
ZBYN,2004-06-17 08:00,ZBYN 170800Z AUTO 24004KT 7SM 26/11 A2962 RMK T02600110 IEM_DS3505
ZBYN,2004-06-17 09:00,ZBYN 170900Z AUTO 07002KT 7SM 26/17 A2962 RMK SLP008 T02600171 57019 IEM_DS3505
ZBYN,2004-06-17 09:30,ZBYN 170930Z AUTO 29002KT 7SM 25/11 A2962 RMK T02500110 IEM_DS3505
ZBYN,2004-06-17 10:00,ZBYN 171000Z AUTO 32004KT 7SM 25/14 A2962 RMK T02500140 IEM_DS3505
ZBYN,2004-06-17 11:00,ZBYN 171100Z AUTO 29014KT 7SM 20/07 A2965 RMK T02000070 IEM_DS3505
ZBYN,2004-06-17 12:00,ZBYN 171200Z AUTO 32006KT 16SM 19/11 A2965 RMK SLP032 T01900108 52014 IEM_DS3505
ZBYN,2004-06-17 13:00,ZBYN 171300Z AUTO 18004KT 6SM 17/10 A2971 RMK T01700100 IEM_DS3505
ZBYN,2004-06-17 14:00,ZBYN 171400Z AUTO 00000KT 6SM 16/10 A2971 RMK T01600100 IEM_DS3505
ZBYN,2004-06-17 15:00,ZBYN 171500Z AUTO 29002KT 16SM 16/12 A2971 RMK SLP041 T01590117 52014 IEM_DS3505
ZBYN,2004-06-17 16:00,ZBYN 171600Z AUTO 12004KT 6SM 14/11 A2971 RMK T01400110 IEM_DS3505
ZBYN,2004-06-17 17:00,ZBYN 171700Z AUTO 11006KT 6SM 14/10 A2968 RMK T01400100 IEM_DS3505
ZBYN,2004-06-17 18:00,ZBYN 171800Z AUTO 29002KT 16SM 15/13 A2968 RMK SLP032 T01480127 57004 IEM_DS3505
ZBYN,2004-06-17 19:00,ZBYN 171900Z AUTO 00000KT 6SM 13/11 A2968 RMK T01300110 IEM_DS3505
ZBYN,2004-06-17 20:00,ZBYN 172000Z AUTO 11002KT 6SM 14/11 A2968 RMK T01400110 IEM_DS3505
ZBYN,2004-06-17 21:00,ZBYN 172100Z AUTO 32002KT 6SM 15/13 A2968 RMK 70002 SLP029 T01510128 57001 IEM_DS3505
ZBYN,2004-06-17 22:00,ZBYN 172200Z AUTO 00000KT 6SM 14/11 A2968 RMK T01400110 IEM_DS3505
ZBYN,2004-06-17 23:00,ZBYN 172300Z AUTO 00000KT 6SM 15/12 A2968 RMK T01500120 IEM_DS3505
ZBYN,2004-06-18 00:00,ZBYN 180000Z AUTO 07004KT 5SM 20/13 A2968 RMK SLP035 T01970127 52002 IEM_DS3505
ZBYN,2004-06-18 01:00,ZBYN 180100Z AUTO 6SM 19/11 A2968 RMK T01900110 IEM_DS3505
ZBYN,2004-06-18 02:00,ZBYN 180200Z AUTO 6SM 20/10 A2968 RMK T02000100 IEM_DS3505
ZBYN,2004-06-18 03:00,ZBYN 180300Z AUTO 20004KT 4SM 23/14 A2968 RMK SLP029 T02320142 57005 IEM_DS3505
ZBYN,2004-06-18 04:00,ZBYN 180400Z AUTO 6SM 23/12 A2965 RMK T02300120 IEM_DS3505
ZBYN,2004-06-18 05:00,ZBYN 180500Z AUTO 28004KT 7SM 25/11 A2962 RMK T02500110 IEM_DS3505
ZBYN,2004-06-18 06:00,ZBYN 180600Z AUTO 22004KT 5SM 26/16 A2962 RMK SLP001 T02590156 57023 IEM_DS3505
ZBYN,2004-06-18 07:00,ZBYN 180700Z AUTO 26004KT 7SM 23/12 A2959 RMK T02300120 IEM_DS3505
ZBYN,2004-06-18 08:00,ZBYN 180800Z AUTO 24004KT 6SM 25/12 A2956 RMK T02500120 IEM_DS3505
ZBYN,2004-06-18 09:00,ZBYN 180900Z AUTO 00000KT 12SM 21/17 A2959 RMK SLP008 T02100170 54000 IEM_DS3505
ZBYN,2004-06-18 10:00,ZBYN 181000Z AUTO 00000KT 6SM 20/14 A2959 RMK T02000140 IEM_DS3505
ZBYN,2004-06-18 11:00,ZBYN 181100Z AUTO 6SM 21/15 A2962 RMK T02100150 IEM_DS3505
ZBYN,2004-06-18 12:00,ZBYN 181200Z AUTO 32004KT 7SM 21/15 A2962 RMK 60004 SLP012 T02090150 52010 IEM_DS3505
ZBYN,2004-06-18 13:00,ZBYN 181300Z AUTO 09008KT 6SM 19/12 A2965 RMK T01900120 IEM_DS3505
ZBYN,2004-06-18 14:00,ZBYN 181400Z AUTO 09006KT 6SM 18/12 A2968 RMK T01800120 IEM_DS3505
ZBYN,2004-06-18 15:00,ZBYN 181500Z AUTO 00000KT 6SM 19/15 RMK SLP027 T01860149 52015 IEM_DS3505
ZBYN,2004-06-18 16:00,ZBYN 181600Z AUTO 06006KT 6SM 18/12 A2968 RMK T01800120 IEM_DS3505
ZBYN,2004-06-18 17:00,ZBYN 181700Z AUTO 06004KT 6SM 17/12 A2968 RMK T01700120 IEM_DS3505
ZBYN,2004-06-18 18:00,ZBYN 181800Z AUTO 29002KT 6SM 16/14 A2965 RMK SLP021 T01550145 57006 IEM_DS3505
ZBYN,2004-06-18 19:00,ZBYN 181900Z AUTO 00000KT 6SM 14/12 A2965 RMK T01400120 IEM_DS3505
ZBYN,2004-06-18 20:00,ZBYN 182000Z AUTO 00000KT 6SM 13/12 A2965 RMK T01300120 IEM_DS3505
ZBYN,2004-06-18 21:00,ZBYN 182100Z AUTO 20002KT 6SM 14/14 A2965 RMK 70006 SLP030 T01430138 54000 IEM_DS3505
ZBYN,2004-06-18 22:00,ZBYN 182200Z AUTO 03002KT 3SM 13/11 A2968 RMK T01300110 IEM_DS3505
ZBYN,2004-06-18 23:00,ZBYN 182300Z AUTO 12002KT 2SM 15/13 A2968 RMK T01500130 IEM_DS3505
ZBYN,2004-06-19 00:00,ZBYN 190000Z AUTO 16002KT 5SM 18/15 A2971 RMK 70006 SLP035 T01850154 52010 IEM_DS3505
ZBYN,2004-06-19 01:00,ZBYN 190100Z AUTO 4SM 18/13 A2968 RMK T01800130 IEM_DS3505
ZBYN,2004-06-19 02:00,ZBYN 190200Z AUTO 24004KT 5SM 20/13 A2968 RMK T02000130 IEM_DS3505
ZBYN,2004-06-19 03:00,ZBYN 190300Z AUTO 20004KT 6SM 25/14 A2968 RMK SLP021 T02460144 57008 IEM_DS3505
ZBYN,2004-06-19 04:00,ZBYN 190400Z AUTO 32004KT 7SM 25/10 A2965 RMK T02500100 IEM_DS3505
ZBYN,2004-06-19 05:00,ZBYN 190500Z AUTO 29006KT 7SM 26/09 A2962 RMK T02600090 IEM_DS3505
ZBYN,2004-06-19 06:00,ZBYN 190600Z AUTO 18006KT 7SM 28/13 A2962 RMK SLP998 T02820130 57020 IEM_DS3505
ZBYN,2004-06-19 07:00,ZBYN 190700Z AUTO 35008KT 7SM 26/09 A2959 RMK T02600090 IEM_DS3505
ZBYN,2004-06-19 08:00,ZBYN 190800Z AUTO 28004KT 7SM 28/08 A2959 RMK T02800080 IEM_DS3505
ZBYN,2004-06-19 09:00,ZBYN 190900Z AUTO 25002KT 11SM 28/14 A2959 RMK SLP993 T02850136 57006 IEM_DS3505
ZBYN,2004-06-19 10:00,ZBYN 191000Z AUTO 27002KT 7SM 26/10 A2959 RMK T02600100 IEM_DS3505
ZBYN,2004-06-19 11:00,ZBYN 191100Z AUTO 10010KT 7SM 23/12 A2962 RMK T02300120 IEM_DS3505
ZBYN,2004-06-19 12:00,ZBYN 191200Z AUTO 09010KT 12SM 23/16 A2962 RMK SLP010 T02300156 52014 IEM_DS3505
ZBYN,2004-06-19 13:00,ZBYN 191300Z AUTO 07008KT 6SM 21/12 A2965 RMK T02100120 IEM_DS3505
ZBYN,2004-06-19 14:00,ZBYN 191400Z AUTO 06006KT 6SM 21/12 A2965 RMK T02100120 IEM_DS3505
ZBYN,2004-06-19 15:00,ZBYN 191500Z AUTO 00000KT 9SM 19/16 A2965 RMK SLP017 T01900162 52009 IEM_DS3505
ZBYN,2004-06-19 16:00,ZBYN 191600Z AUTO 10004KT 6SM 19/11 A2965 RMK T01900110 IEM_DS3505
ZBYN,2004-06-19 17:00,ZBYN 191700Z AUTO 6SM 17/12 A2965 RMK T01700120 IEM_DS3505
ZBYN,2004-06-19 18:00,ZBYN 191800Z AUTO 14002KT 6SM 16/15 A2965 RMK SLP013 T01630150 57002 IEM_DS3505
ZBYN,2004-06-19 19:00,ZBYN 191900Z AUTO 13004KT 6SM 15/12 A2965 RMK T01500120 IEM_DS3505
ZBYN,2004-06-19 20:00,ZBYN 192000Z AUTO 12002KT 7SM 15/12 A2965 RMK T01500120 IEM_DS3505
ZBYN,2004-06-19 21:00,ZBYN 192100Z AUTO 16002KT 5SM 15/14 A2965 RMK SLP019 T01530143 52004 IEM_DS3505
ZBYN,2004-06-19 22:00,ZBYN 192200Z AUTO 00000KT 4SM 15/12 A2968 RMK T01500120 IEM_DS3505
ZBYN,2004-06-19 23:00,ZBYN 192300Z AUTO 00000KT 2 1/2SM 16/13 A2968 RMK T01600130 IEM_DS3505
ZBYN,2004-06-20 00:00,ZBYN 200000Z AUTO 11002KT 5SM 20/16 A2968 RMK 70000 SLP024 T01990162 52004 IEM_DS3505
ZBYN,2004-06-20 01:00,ZBYN 200100Z AUTO 2 1/2SM 20/14 A2968 RMK T02000140 IEM_DS3505
ZBYN,2004-06-20 02:00,ZBYN 200200Z AUTO 15002KT 22/13 A2968 RMK T02200130 IEM_DS3505
ZBYN,2004-06-20 03:00,ZBYN 200300Z AUTO 16004KT 5SM 26/17 A2965 RMK SLP014 T02590167 57007 IEM_DS3505
ZBYN,2004-06-20 04:00,ZBYN 200400Z AUTO 18004KT 26/12 A2965 RMK T02600120 IEM_DS3505
ZBYN,2004-06-20 05:00,ZBYN 200500Z AUTO 22004KT 3SM 27/13 A2962 RMK T02700130 IEM_DS3505
ZBYN,2004-06-20 06:00,ZBYN 200600Z AUTO 18004KT 6SM 29/15 A2956 RMK SLP984 T02930151 57026 IEM_DS3505
ZBYN,2004-06-20 07:00,ZBYN 200700Z AUTO 20004KT 7SM 30/05 A2953 RMK T03000050 IEM_DS3505
ZBYN,2004-06-20 08:00,ZBYN 200800Z AUTO 02012KT 7SM 27/06 A2956 RMK T02700060 IEM_DS3505
ZBYN,2004-06-20 09:00,ZBYN 200900Z AUTO 14008KT 9SM 28/12 A2956 RMK SLP979 T02790115 57008 IEM_DS3505
ZBYN,2004-06-20 10:00,ZBYN 201000Z AUTO 10002KT 7SM 26/07 A2959 RMK T02600070 IEM_DS3505
ZBYN,2004-06-20 11:00,ZBYN 201100Z AUTO 09006KT 7SM 25/10 A2956 RMK T02500100 IEM_DS3505
ZBYN,2004-06-20 12:00,ZBYN 201200Z AUTO 16004KT 11SM 23/15 A2956 RMK SLP985 T02310147 52005 IEM_DS3505
ZBYN,2004-06-20 13:00,ZBYN 201300Z AUTO 07004KT 6SM 22/10 A2959 RMK T02200100 IEM_DS3505
ZBYN,2004-06-20 14:00,ZBYN 201400Z AUTO 13004KT 6SM 21/11 A2962 RMK T02100110 IEM_DS3505
ZBYN,2004-06-20 15:00,ZBYN 201500Z AUTO 22004KT 7SM 21/14 A2965 RMK SLP007 T02080140 52025 IEM_DS3505
ZBYN,2004-06-20 16:00,ZBYN 201600Z AUTO 10006KT 6SM 19/11 A2965 RMK T01900110 IEM_DS3505
ZBYN,2004-06-20 17:00,ZBYN 201700Z AUTO 09006KT 6SM 19/10 A2965 RMK T01900100 IEM_DS3505
ZBYN,2004-06-20 18:00,ZBYN 201800Z AUTO 29002KT 6SM 18/15 A2965 RMK SLP004 T01760147 57002 IEM_DS3505
ZBYN,2004-06-20 19:00,ZBYN 201900Z AUTO 00000KT 6SM 16/11 A2962 RMK T01600110 IEM_DS3505
ZBYN,2004-06-20 20:00,ZBYN 202000Z AUTO 00000KT 6SM 15/12 A2962 RMK T01500120 IEM_DS3505
ZBYN,2004-06-20 21:00,ZBYN 202100Z AUTO 32002KT 6SM 16/13 A2962 RMK 70001 SLP002 T01650130 57005 IEM_DS3505
ZBYN,2004-06-20 22:00,ZBYN 202200Z AUTO 11002KT 2 1/2SM 14/11 A2962 RMK T01400110 IEM_DS3505
ZBYN,2004-06-20 23:00,ZBYN 202300Z AUTO 08002KT 17/11 A2962 RMK T01700110 IEM_DS3505
ZBYN,2004-06-21 00:00,ZBYN 210000Z AUTO 16002KT 6SM 21/14 A2962 RMK 70001 SLP005 T02090136 52002 IEM_DS3505
ZBYN,2004-06-21 01:00,ZBYN 210100Z AUTO 10002KT 6SM 21/11 A2962 RMK T02100110 IEM_DS3505
ZBYN,2004-06-21 02:00,ZBYN 210200Z AUTO 6SM 23/11 A2959 RMK T02300110 IEM_DS3505
ZBYN,2004-06-21 03:00,ZBYN 210300Z AUTO 16004KT 5SM 27/14 A2959 RMK SLP987 T02660140 57012 IEM_DS3505
ZBYN,2004-06-21 04:00,ZBYN 210400Z AUTO 21004KT 6SM 27/10 A2959 RMK T02700100 IEM_DS3505
ZBYN,2004-06-21 05:00,ZBYN 210500Z AUTO 7SM 29/10 A2956 RMK T02900100 IEM_DS3505
ZBYN,2004-06-21 06:00,ZBYN 210600Z AUTO 18004KT 6SM 32/13 A2953 RMK SLP959 T03180131 57023 IEM_DS3505
ZBYN,2004-06-21 07:00,ZBYN 210700Z AUTO 22002KT 7SM 29/07 A2950 RMK T02900070 IEM_DS3505
ZBYN,2004-06-21 08:00,ZBYN 210800Z AUTO 21004KT 7SM 31/09 A2947 RMK T03100090 IEM_DS3505
ZBYN,2004-06-21 09:00,ZBYN 210900Z AUTO 27004KT 7SM 28/16 A2950 RMK SLP958 T02840160 57007 IEM_DS3505
ZBYN,2004-06-21 10:00,ZBYN 211000Z AUTO 28002KT 7SM 27/11 A2950 RMK T02700110 IEM_DS3505
ZBYN,2004-06-21 11:00,ZBYN 211100Z AUTO 21002KT 7SM 25/10 A2953 RMK T02500100 IEM_DS3505
ZBYN,2004-06-21 12:00,ZBYN 211200Z AUTO 11004KT 9SM 24/14 A2953 RMK SLP972 T02430144 52013 IEM_DS3505
ZBYN,2004-06-21 13:00,ZBYN 211300Z AUTO 21008KT 6SM 24/07 A2956 RMK T02400070 IEM_DS3505
ZBYN,2004-06-21 14:00,ZBYN 211400Z AUTO 23006KT 6SM 21/08 A2956 RMK T02100080 IEM_DS3505
ZBYN,2004-06-21 15:00,ZBYN 211500Z AUTO 14002KT 9SM 20/13 A2959 RMK SLP982 T02050130 52012 IEM_DS3505
ZBYN,2004-06-21 16:00,ZBYN 211600Z AUTO 09004KT 6SM 19/09 A2962 RMK T01900090 IEM_DS3505
ZBYN,2004-06-21 17:00,ZBYN 211700Z AUTO 00000KT 6SM 18/10 A2959 RMK T01800100 IEM_DS3505
ZBYN,2004-06-21 18:00,ZBYN 211800Z AUTO 32002KT 7SM 18/13 A2956 RMK SLP976 T01840133 57001 IEM_DS3505
ZBYN,2004-06-21 19:00,ZBYN 211900Z AUTO 05002KT 6SM 16/10 A2956 RMK T01600100 IEM_DS3505
ZBYN,2004-06-21 20:00,ZBYN 212000Z AUTO 14002KT 6SM 15/10 A2956 RMK T01500100 IEM_DS3505
ZBYN,2004-06-21 21:00,ZBYN 212100Z AUTO 27002KT 6SM 16/13 A2959 RMK SLP997 T01590132 52011 IEM_DS3505
ZBYN,2004-06-21 22:00,ZBYN 212200Z AUTO 15004KT 6SM 16/10 A2962 RMK T01600100 IEM_DS3505
ZBYN,2004-06-21 23:00,ZBYN 212300Z AUTO 03004KT 6SM 18/11 A2962 RMK T01800110 IEM_DS3505
ZBYN,2004-06-22 00:00,ZBYN 220000Z AUTO 34002KT 5SM 21/15 A2962 RMK SLP998 T02120148 52003 IEM_DS3505
ZBYN,2004-06-22 01:00,ZBYN 220100Z AUTO 00000KT 6SM 22/10 A2959 RMK T02200100 IEM_DS3505
ZBYN,2004-06-22 02:00,ZBYN 220200Z AUTO 6SM 23/09 A2956 RMK T02300090 IEM_DS3505
ZBYN,2004-06-22 03:00,ZBYN 220300Z AUTO 09002KT 6SM 28/13 A2956 RMK SLP972 T02780134 57020 IEM_DS3505
ZBYN,2004-06-22 04:00,ZBYN 220400Z AUTO 27004KT 6SM 28/08 A2953 RMK T02800080 IEM_DS3505
ZBYN,2004-06-22 05:00,ZBYN 220500Z AUTO 23004KT 6SM 29/07 A2950 RMK T02900070 IEM_DS3505
ZBYN,2004-06-22 06:00,ZBYN 220600Z AUTO 18008KT 7SM 29/13 A2950 RMK SLP952 T02940128 57019 IEM_DS3505
ZBYN,2004-06-22 07:00,ZBYN 220700Z AUTO 23006KT 7SM 27/08 A2950 RMK T02700080 IEM_DS3505
ZBYN,2004-06-22 08:00,ZBYN 220800Z AUTO 22004KT 7SM 27/10 A2947 RMK T02700100 IEM_DS3505
ZBYN,2004-06-22 09:00,ZBYN 220900Z AUTO 20008KT 9SM 28/14 A2947 RMK SLP946 T02800143 57011 IEM_DS3505
ZBYN,2004-06-22 10:00,ZBYN 221000Z AUTO 23004KT 6SM 26/12 A2944 RMK T02600120 IEM_DS3505
ZBYN,2004-06-22 11:00,ZBYN 221100Z AUTO 24006KT 6SM 27/12 A2944 RMK T02700120 IEM_DS3505
ZBYN,2004-06-22 12:00,ZBYN 221200Z AUTO 36006KT 7SM 27/15 A2947 RMK SLP949 T02740148 52009 IEM_DS3505
ZBYN,2004-06-22 13:00,ZBYN 221300Z AUTO 06012KT 6SM 24/12 A2953 RMK T02400120 IEM_DS3505
ZBYN,2004-06-22 14:00,ZBYN 221400Z AUTO 08006KT 6SM 22/13 A2953 RMK T02200130 IEM_DS3505
ZBYN,2004-06-22 15:00,ZBYN 221500Z AUTO 36002KT 7SM 21/16 A2956 RMK SLP973 T02130161 52023 IEM_DS3505
ZBYN,2004-06-22 16:00,ZBYN 221600Z AUTO 05004KT 6SM 21/13 A2956 RMK T02100130 IEM_DS3505
ZBYN,2004-06-22 17:00,ZBYN 221700Z AUTO 00000KT 6SM 18/13 A2956 RMK T01800130 IEM_DS3505
ZBYN,2004-06-22 18:00,ZBYN 221800Z AUTO 34002KT 7SM 21/14 A2956 RMK SLP972 T02070139 54000 IEM_DS3505
ZBYN,2004-06-22 19:00,ZBYN 221900Z AUTO 05002KT 6SM 17/13 A2956 RMK T01700130 IEM_DS3505
ZBYN,2004-06-22 20:00,ZBYN 222000Z AUTO 03004KT 6SM 17/12 A2956 RMK T01700120 IEM_DS3505
ZBYN,2004-06-22 21:00,ZBYN 222100Z AUTO 29002KT 6SM 18/14 A2956 RMK SLP981 T01830142 52003 IEM_DS3505
ZBYN,2004-06-22 22:00,ZBYN 222200Z AUTO 05002KT 6SM 17/12 A2959 RMK T01700120 IEM_DS3505
ZBYN,2004-06-22 23:00,ZBYN 222300Z AUTO 30002KT 4SM 17/13 A2959 RMK T01700130 IEM_DS3505
ZBYN,2004-06-23 00:00,ZBYN 230000Z AUTO 34002KT 6SM 22/14 A2959 RMK SLP986 T02220136 52009 IEM_DS3505
ZBYN,2004-06-23 01:00,ZBYN 230100Z AUTO 6SM 23/11 A2959 RMK T02300110 IEM_DS3505
ZBYN,2004-06-23 02:00,ZBYN 230200Z AUTO 6SM 24/12 A2956 RMK T02400120 IEM_DS3505
ZBYN,2004-06-23 03:00,ZBYN 230300Z AUTO 16008KT 5SM 27/15 A2956 RMK SLP975 T02730153 57011 IEM_DS3505
ZBYN,2004-06-23 04:00,ZBYN 230400Z AUTO 18004KT 6SM 27/10 A2956 RMK T02700100 IEM_DS3505
ZBYN,2004-06-23 05:00,ZBYN 230500Z AUTO 20006KT 6SM 28/09 A2953 RMK T02800090 IEM_DS3505
ZBYN,2004-06-23 06:00,ZBYN 230600Z AUTO 18008KT 9SM 32/12 A2950 RMK SLP948 T03160119 57020 IEM_DS3505
ZBYN,2004-06-23 07:00,ZBYN 230700Z AUTO 23006KT 7SM 31/04 A2950 RMK T03100040 IEM_DS3505
ZBYN,2004-06-23 08:00,ZBYN 230800Z AUTO 25008KT 7SM 31/03 A2947 RMK T03100030 IEM_DS3505
ZBYN,2004-06-23 09:00,ZBYN 230900Z AUTO 22010KT 11SM 32/09 A2947 RMK SLP935 T03240086 57014 IEM_DS3505
ZBYN,2004-06-23 10:00,ZBYN 231000Z AUTO 25004KT 7SM 30/04 A2944 RMK T03000040 IEM_DS3505
ZBYN,2004-06-23 11:00,ZBYN 231100Z AUTO 20002KT 7SM 29/10 A2947 RMK T02900100 IEM_DS3505
ZBYN,2004-06-23 12:00,ZBYN 231200Z AUTO 22004KT 12SM 29/12 A2947 RMK SLP945 T02860125 52009 IEM_DS3505
ZBYN,2004-06-23 13:00,ZBYN 231300Z AUTO 08004KT 6SM 25/08 A2950 RMK T02500080 IEM_DS3505
ZBYN,2004-06-23 14:00,ZBYN 231400Z AUTO 11004KT 6SM 22/08 A2953 RMK T02200080 IEM_DS3505
ZBYN,2004-06-23 15:00,ZBYN 231500Z AUTO 25002KT 11SM 23/13 A2953 RMK SLP961 T02330132 52015 IEM_DS3505
ZBYN,2004-06-23 16:00,ZBYN 231600Z AUTO 08010KT 22/16 A2953 RMK T02200160 IEM_DS3505
ZBYN,2004-06-23 17:00,ZBYN 231700Z AUTO 07006KT 21/15 A2953 RMK T02100150 IEM_DS3505
ZBYN,2004-06-23 18:00,ZBYN 231800Z AUTO 32004KT 9SM 21/17 A2953 RMK SLP965 T02130167 52006 IEM_DS3505
ZBYN,2004-06-23 19:00,ZBYN 231900Z AUTO 00000KT 4SM 18/14 A2956 RMK T01800140 IEM_DS3505
ZBYN,2004-06-23 20:00,ZBYN 232000Z AUTO 00000KT 5SM 16/13 A2953 RMK T01600130 IEM_DS3505
ZBYN,2004-06-23 21:00,ZBYN 232100Z AUTO 09002KT 9SM 18/15 A2956 RMK SLP970 T01810146 52002 IEM_DS3505
ZBYN,2004-06-23 22:00,ZBYN 232200Z AUTO 00000KT 1 1/4SM 17/15 A2956 RMK T01700150 IEM_DS3505
ZBYN,2004-06-24 01:00,ZBYN 240100Z AUTO 15004KT 2 1/2SM 23/14 A2959 RMK T02300140 IEM_DS3505
ZBYN,2004-06-24 02:00,ZBYN 240200Z AUTO 25/14 A2959 RMK T02500140 IEM_DS3505
ZBYN,2004-06-24 03:00,ZBYN 240300Z AUTO 18006KT 6SM 28/16 A2956 RMK SLP973 T02810157 57006 IEM_DS3505
ZBYN,2004-06-24 04:00,ZBYN 240400Z AUTO 18004KT 6SM 28/09 A2956 RMK T02800090 IEM_DS3505
ZBYN,2004-06-24 05:00,ZBYN 240500Z AUTO 23004KT 7SM 29/08 A2953 RMK T02900080 IEM_DS3505
ZBYN,2004-06-24 06:00,ZBYN 240600Z AUTO 14004KT 7SM 31/13 A2950 RMK SLP951 T03090128 57019 IEM_DS3505
ZBYN,2004-06-24 07:00,ZBYN 240700Z AUTO 7SM 29/07 A2950 RMK T02900070 IEM_DS3505
ZBYN,2004-06-24 08:00,ZBYN 240800Z AUTO 32010KT 7SM 30/07 A2950 RMK T03000070 IEM_DS3505
ZBYN,2004-06-24 09:00,ZBYN 240900Z AUTO 32008KT 16SM 31/11 A2950 RMK SLP956 T03070107 54000 IEM_DS3505
ZBYN,2004-06-24 10:00,ZBYN 241000Z AUTO 31010KT 7SM 30/05 A2950 RMK T03000050 IEM_DS3505
ZBYN,2004-06-24 11:00,ZBYN 241100Z AUTO 32010KT 7SM 29/06 A2953 RMK T02900060 IEM_DS3505
ZBYN,2004-06-24 12:00,ZBYN 241200Z AUTO 34002KT 16SM 28/10 A2956 RMK SLP969 T02820104 52016 IEM_DS3505
ZBYN,2004-06-24 14:00,ZBYN 241400Z AUTO 09012KT 6SM 21/15 A2962 RMK T02100150 IEM_DS3505
ZBYN,2004-06-24 15:00,ZBYN 241500Z AUTO 11010KT 11SM 21/17 A2962 RMK SLP997 T02140174 52022 IEM_DS3505
ZBYN,2004-06-24 16:00,ZBYN 241600Z AUTO 07008KT 4SM 20/15 A2962 RMK T02000150 IEM_DS3505
ZBYN,2004-06-24 17:00,ZBYN 241700Z AUTO 07008KT 4SM 20/15 A2962 RMK T02000150 IEM_DS3505
ZBYN,2004-06-24 18:00,ZBYN 241800Z AUTO 32004KT 9SM 19/17 A2962 RMK SLP999 T01890169 52002 IEM_DS3505
ZBYN,2004-06-24 19:00,ZBYN 241900Z AUTO 00000KT 4SM 18/14 A2962 RMK T01800140 IEM_DS3505
ZBYN,2004-06-24 20:00,ZBYN 242000Z AUTO 12004KT 4SM 15/13 A2962 RMK T01500130 IEM_DS3505
ZBYN,2004-06-24 21:00,ZBYN 242100Z AUTO 16002KT 6SM 17/16 A2965 RMK SLP006 T01660155 52003 IEM_DS3505
ZBYN,2004-06-24 22:00,ZBYN 242200Z AUTO 12002KT 3SM 15/13 A2965 RMK T01500130 IEM_DS3505
ZBYN,2004-06-24 23:00,ZBYN 242300Z AUTO 00000KT 2 1/2SM 17/13 A2965 RMK T01700130 IEM_DS3505
ZBYN,2004-06-25 00:00,ZBYN 250000Z AUTO 18002KT 5SM 22/17 A2965 RMK SLP008 T02180174 52006 IEM_DS3505
ZBYN,2004-06-25 01:00,ZBYN 250100Z AUTO 20002KT 2SM 22/15 A2965 RMK T02200150 IEM_DS3505
ZBYN,2004-06-25 02:00,ZBYN 250200Z AUTO 19002KT 1 1/2SM 24/15 A2965 RMK T02400150 IEM_DS3505
ZBYN,2004-06-25 03:00,ZBYN 250300Z AUTO 20006KT 5SM 28/15 A2965 RMK SLP002 T02770150 57007 IEM_DS3505
ZBYN,2004-06-25 04:00,ZBYN 250400Z AUTO 26004KT 7SM 28/10 A2962 RMK T02800100 IEM_DS3505
ZBYN,2004-06-25 05:00,ZBYN 250500Z AUTO 24006KT 7SM 29/08 A2962 RMK T02900080 IEM_DS3505
ZBYN,2004-06-25 06:00,ZBYN 250600Z AUTO 20004KT 9SM 29/13 A2959 RMK SLP991 T02930131 57011 IEM_DS3505
ZBYN,2004-06-25 07:00,ZBYN 250700Z AUTO 31008KT 7SM 29/07 A2959 RMK T02900070 IEM_DS3505
ZBYN,2004-06-25 08:00,ZBYN 250800Z AUTO 7SM 30/07 A2959 RMK T03000070 IEM_DS3505
ZBYN,2004-06-25 09:00,ZBYN 250900Z AUTO 29002KT 9SM 32/13 A2959 RMK SLP983 T03160129 57007 IEM_DS3505
ZBYN,2004-06-25 13:00,ZBYN 251300Z AUTO 07008KT 6SM 26/11 A2962 RMK T02600110 IEM_DS3505
ZBYN,2004-06-25 14:00,ZBYN 251400Z AUTO 07008KT 6SM 25/12 A2968 RMK T02500120 IEM_DS3505
ZBYN,2004-06-25 15:00,ZBYN 251500Z AUTO 34002KT 6SM 24/14 A2968 RMK SLP013 T02370139 52021 IEM_DS3505
ZBYN,2004-06-25 16:00,ZBYN 251600Z AUTO 05004KT 6SM 23/12 A2968 RMK T02300120 IEM_DS3505
ZBYN,2004-06-25 18:00,ZBYN 251800Z AUTO 32006KT 6SM 22/14 A2968 RMK SLP014 T02240135 52002 IEM_DS3505
ZBYN,2004-06-25 19:00,ZBYN 251900Z AUTO 24002KT 6SM 19/12 A2968 RMK T01900120 IEM_DS3505
ZBYN,2004-06-25 20:00,ZBYN 252000Z AUTO 6SM 18/12 A2968 RMK T01800120 IEM_DS3505
ZBYN,2004-06-25 21:00,ZBYN 252100Z AUTO 34002KT 9SM 21/13 A2971 RMK SLP017 T02110130 52004 IEM_DS3505
ZBYN,2004-06-25 22:00,ZBYN 252200Z AUTO 00000KT 4SM 18/13 A2971 RMK T01800130 IEM_DS3505
ZBYN,2004-06-25 23:00,ZBYN 252300Z AUTO 00000KT 5SM 21/13 A2971 RMK T02100130 IEM_DS3505
ZBYN,2004-06-26 00:00,ZBYN 260000Z AUTO 32004KT 6SM 24/14 A2974 RMK SLP031 T02430138 52011 IEM_DS3505
ZBYN,2004-06-26 01:00,ZBYN 260100Z AUTO 00000KT 6SM 24/13 A2974 RMK T02400130 IEM_DS3505
ZBYN,2004-06-26 02:30,ZBYN 260230Z AUTO 01002KT 6SM 26/13 A2974 RMK T02600130 IEM_DS3505
ZBYN,2004-06-26 03:00,ZBYN 260300Z AUTO 16002KT 7SM 30/14 A2974 RMK SLP026 T03000141 57002 IEM_DS3505
ZBYN,2004-06-26 04:00,ZBYN 260400Z AUTO 7SM 30/10 A2971 RMK T03000100 IEM_DS3505
ZBYN,2004-06-26 05:00,ZBYN 260500Z AUTO 7SM 31/09 A2968 RMK T03100090 IEM_DS3505
ZBYN,2004-06-26 06:00,ZBYN 260600Z AUTO 27002KT 9SM 34/13 A2968 RMK SLP002 T03360126 57019 IEM_DS3505
ZBYN,2004-06-26 07:00,ZBYN 260700Z AUTO 29004KT 7SM 32/08 A2965 RMK T03200080 IEM_DS3505
ZBYN,2004-06-26 08:00,ZBYN 260800Z AUTO 7SM 33/07 A2965 RMK T03300070 IEM_DS3505
ZBYN,2004-06-26 09:00,ZBYN 260900Z AUTO 18004KT 12SM 34/10 A2965 RMK SLP993 T03420101 57009 IEM_DS3505
ZBYN,2004-06-26 10:00,ZBYN 261000Z AUTO 6SM 32/07 A2965 RMK T03200070 IEM_DS3505
ZBYN,2004-06-26 11:00,ZBYN 261100Z AUTO 09012KT 6SM 30/09 A2968 RMK T03000090 IEM_DS3505
ZBYN,2004-06-26 12:00,ZBYN 261200Z AUTO 09012KT 7SM 29/15 A2971 RMK SLP015 T02890147 52018 IEM_DS3505
ZBYN,2004-06-26 13:00,ZBYN 261300Z AUTO 08012KT 6SM 26/12 A2974 RMK T02600120 IEM_DS3505
ZBYN,2004-06-26 14:00,ZBYN 261400Z AUTO 07010KT 6SM 25/12 A2977 RMK T02500120 IEM_DS3505
ZBYN,2004-06-26 15:00,ZBYN 261500Z AUTO 09010KT 6SM 26/17 A2980 RMK SLP041 T02650170 52028 IEM_DS3505
ZBYN,2004-06-26 16:00,ZBYN 261600Z AUTO 07010KT 6SM 24/14 A2980 RMK T02400140 IEM_DS3505
ZBYN,2004-06-26 17:00,ZBYN 261700Z AUTO 09008KT 6SM 23/14 A2980 RMK T02300140 IEM_DS3505
ZBYN,2004-06-26 18:00,ZBYN 261800Z AUTO 32002KT 6SM 23/16 A2980 RMK SLP050 T02310164 52008 IEM_DS3505
ZBYN,2004-06-26 19:00,ZBYN 261900Z AUTO 11002KT 6SM 21/14 A2983 RMK T02100140 IEM_DS3505
ZBYN,2004-06-26 20:00,ZBYN 262000Z AUTO 00000KT 6SM 20/14 A2983 RMK T02000140 IEM_DS3505
ZBYN,2004-06-26 21:00,ZBYN 262100Z AUTO 18002KT 4SM 20/16 A2983 RMK SLP060 T02040162 52007 IEM_DS3505
ZBYN,2004-06-26 22:00,ZBYN 262200Z AUTO 00000KT 4SM 20/15 A2983 RMK T02000150 IEM_DS3505
ZBYN,2004-06-26 23:00,ZBYN 262300Z AUTO 00000KT 21/15 A2983 RMK T02100150 IEM_DS3505
ZBYN,2004-06-27 00:00,ZBYN 270000Z AUTO 32004KT 3SM 25/17 A2985 RMK SLP066 T02490174 52004 IEM_DS3505
ZBYN,2004-06-27 01:00,ZBYN 270100Z AUTO 00000KT 5SM 25/14 A2985 RMK T02500140 IEM_DS3505
ZBYN,2004-06-27 02:00,ZBYN 270200Z AUTO 6SM 26/13 A2983 RMK T02600130 IEM_DS3505
ZBYN,2004-06-27 03:00,ZBYN 270300Z AUTO 36002KT 3SM 30/17 A2983 RMK SLP054 T02980173 57008 IEM_DS3505
ZBYN,2004-06-27 04:00,ZBYN 270400Z AUTO 6SM 30/13 A2980 RMK T03000130 IEM_DS3505
ZBYN,2004-06-27 05:00,ZBYN 270500Z AUTO 28004KT 6SM 31/12 A2977 RMK T03100120 IEM_DS3505
ZBYN,2004-06-27 06:00,ZBYN 270600Z AUTO 18004KT 9SM 34/13 A2974 RMK SLP027 T03440133 57023 IEM_DS3505
ZBYN,2004-06-27 07:00,ZBYN 270700Z AUTO 6SM 34/11 A2974 RMK T03400110 IEM_DS3505
ZBYN,2004-06-27 08:00,ZBYN 270800Z AUTO 20004KT 6SM 33/09 A2971 RMK T03300090 IEM_DS3505
ZBYN,2004-06-27 09:00,ZBYN 270900Z AUTO 18002KT 7SM 35/14 A2971 RMK SLP016 T03460145 57013 IEM_DS3505
ZBYN,2004-06-27 10:00,ZBYN 271000Z AUTO 21002KT 7SM 33/10 A2971 RMK T03300100 IEM_DS3505
ZBYN,2004-06-27 11:00,ZBYN 271100Z AUTO 10012KT 6SM 31/13 A2971 RMK T03100130 IEM_DS3505
ZBYN,2004-06-27 12:00,ZBYN 271200Z AUTO 09008KT 6SM 30/20 A2974 RMK SLP025 T03040197 52009 IEM_DS3505
ZBYN,2004-06-27 13:00,ZBYN 271300Z AUTO 10008KT 5SM 27/16 A2977 RMK T02700160 IEM_DS3505
ZBYN,2004-06-27 14:00,ZBYN 271400Z AUTO 11004KT 5SM 26/15 A2980 RMK T02600150 IEM_DS3505
ZBYN,2004-06-27 15:00,ZBYN 271500Z AUTO 11006KT 6SM 28/19 A2980 RMK SLP040 T02750190 52016 IEM_DS3505
ZBYN,2004-06-27 16:00,ZBYN 271600Z AUTO 08006KT 6SM 26/16 A2980 RMK T02600160 IEM_DS3505
ZBYN,2004-06-27 17:00,ZBYN 271700Z AUTO 10006KT 6SM 25/16 A2980 RMK T02500160 IEM_DS3505
ZBYN,2004-06-27 18:00,ZBYN 271800Z AUTO 14004KT 6SM 25/19 A2980 RMK SLP038 T02480190 52001 IEM_DS3505
ZBYN,2004-06-27 19:00,ZBYN 271900Z AUTO 11004KT 6SM 24/16 A2980 RMK T02400160 IEM_DS3505
ZBYN,2004-06-27 20:00,ZBYN 272000Z AUTO 08004KT 6SM 24/16 A2980 RMK T02400160 IEM_DS3505
ZBYN,2004-06-27 21:00,ZBYN 272100Z AUTO 11002KT 6SM 24/19 A2980 RMK SLP039 T02360189 57001 IEM_DS3505
ZBYN,2004-06-27 22:00,ZBYN 272200Z AUTO 12002KT 4SM 22/16 A2980 RMK T02200160 IEM_DS3505
ZBYN,2004-06-27 23:00,ZBYN 272300Z AUTO 13002KT 4SM 23/18 A2980 RMK T02300180 IEM_DS3505
ZBYN,2004-06-28 00:00,ZBYN 280000Z AUTO 14004KT 5SM 26/20 A2980 RMK SLP045 T02570200 52003 IEM_DS3505
ZBYN,2004-06-28 01:00,ZBYN 280100Z AUTO 12002KT 25/17 A2980 RMK T02500170 IEM_DS3505
ZBYN,2004-06-28 02:00,ZBYN 280200Z AUTO 20002KT 5SM 27/16 A2977 RMK T02700160 IEM_DS3505
ZBYN,2004-06-28 03:00,ZBYN 280300Z AUTO 16006KT 6SM 30/20 A2977 RMK SLP030 T03040197 57011 IEM_DS3505
ZBYN,2004-06-28 04:00,ZBYN 280400Z AUTO 6SM 30/15 A2974 RMK T03000150 IEM_DS3505
ZBYN,2004-06-28 05:00,ZBYN 280500Z AUTO 6SM 31/12 A2971 RMK T03100120 IEM_DS3505
ZBYN,2004-06-28 06:00,ZBYN 280600Z AUTO 16004KT 6SM 33/16 A2968 RMK SLP004 T03320161 57024 IEM_DS3505
ZBYN,2004-06-28 07:00,ZBYN 280700Z AUTO 30002KT 6SM 32/12 A2968 RMK T03200120 IEM_DS3505
ZBYN,2004-06-28 08:00,ZBYN 280800Z AUTO 24002KT 6SM 33/12 A2965 RMK T03300120 IEM_DS3505
ZBYN,2004-06-28 09:00,ZBYN 280900Z AUTO 18006KT 6SM 33/19 A2965 RMK SLP989 T03340187 57015 IEM_DS3505
ZBYN,2004-06-28 10:00,ZBYN 281000Z AUTO 19002KT 7SM 32/11 A2965 RMK T03200110 IEM_DS3505
ZBYN,2004-06-28 11:00,ZBYN 281100Z AUTO 20002KT 6SM 31/11 A2965 RMK T03100110 IEM_DS3505
ZBYN,2004-06-28 12:00,ZBYN 281200Z AUTO 32004KT 5SM 30/19 A2965 RMK SLP000 T03000191 52008 IEM_DS3505
ZBYN,2004-06-28 13:00,ZBYN 281300Z AUTO 06012KT 6SM 28/16 A2968 RMK T02800160 IEM_DS3505
ZBYN,2004-06-28 14:00,ZBYN 281400Z AUTO 08012KT 6SM 27/17 A2971 RMK T02700170 IEM_DS3505
ZBYN,2004-06-28 15:00,ZBYN 281500Z AUTO 34002KT 5SM 28/19 A2971 RMK SLP009 T02840193 52013 IEM_DS3505
ZBYN,2004-06-28 16:00,ZBYN 281600Z AUTO 03006KT 5SM 25/19 A2971 RMK T02500190 IEM_DS3505
ZBYN,2004-06-28 17:00,ZBYN 281700Z AUTO 03004KT 4SM 24/19 A2971 RMK T02400190 IEM_DS3505
ZBYN,2004-06-28 18:00,ZBYN 281800Z AUTO 36004KT 5SM 25/21 A2971 RMK 60001 SLP013 T02480209 52002 IEM_DS3505
ZBYN,2004-06-28 19:00,ZBYN 281900Z AUTO 35006KT 2 1/2SM 23/20 A2971 RMK T02300200 IEM_DS3505
ZBYN,2004-06-28 20:00,ZBYN 282000Z AUTO 34006KT 2SM 22/20 A2971 RMK T02200200 IEM_DS3505
ZBYN,2004-06-28 21:00,ZBYN 282100Z AUTO 32004KT 5SM 23/21 A2974 RMK 70007 SLP021 T02270213 52005 IEM_DS3505
ZBYN,2004-06-28 22:00,ZBYN 282200Z AUTO 29002KT 2SM 21/19 A2974 RMK T02100190 IEM_DS3505
ZBYN,2004-06-28 23:00,ZBYN 282300Z AUTO 34010KT 2SM 21/19 A2971 RMK T02100190 IEM_DS3505
ZBYN,2004-06-29 00:00,ZBYN 290000Z AUTO 32006KT 5SM 23/21 A2974 RMK 60008 70007 SLP029 T02310206 52003 IEM_DS3505
ZBYN,2004-06-29 01:00,ZBYN 290100Z AUTO 36004KT 2SM 22/18 A2974 RMK T02200180 IEM_DS3505
ZBYN,2004-06-29 02:00,ZBYN 290200Z AUTO 34002KT 2 1/2SM 23/18 A2971 RMK T02300180 IEM_DS3505
ZBYN,2004-06-29 03:00,ZBYN 290300Z AUTO 32006KT 5SM 24/21 A2974 RMK SLP026 T02410208 57003 IEM_DS3505
ZBYN,2004-06-29 04:00,ZBYN 290400Z AUTO 06004KT 6SM 24/17 A2971 RMK T02400170 IEM_DS3505
ZBYN,2004-06-29 05:00,ZBYN 290500Z AUTO 36004KT 26/17 A2968 RMK T02600170 IEM_DS3505
ZBYN,2004-06-29 06:00,ZBYN 290600Z AUTO 32004KT 4SM 27/21 A2965 RMK SLP008 T02660207 57018 IEM_DS3505
ZBYN,2004-06-29 07:00,ZBYN 290700Z AUTO 08010KT 3SM 27/18 A2965 RMK T02700180 IEM_DS3505
ZBYN,2004-06-29 08:00,ZBYN 290800Z AUTO 07012KT 3SM 27/17 A2965 RMK T02700170 IEM_DS3505
ZBYN,2004-06-29 09:00,ZBYN 290900Z AUTO 04006KT 4SM 27/20 A2965 RMK SLP003 T02710204 57007 IEM_DS3505
ZBYN,2004-06-29 10:00,ZBYN 291000Z AUTO 07014KT 1 1/2SM 25/17 A2965 RMK T02500170 IEM_DS3505
ZBYN,2004-06-29 11:00,ZBYN 291100Z AUTO 07014KT 1 1/2SM 24/18 A2965 RMK T02400180 IEM_DS3505
ZBYN,2004-06-29 12:00,ZBYN 291200Z AUTO 09006KT 3SM 26/20 A2968 RMK SLP015 T02590198 52010 IEM_DS3505
ZBYN,2004-06-29 13:00,ZBYN 291300Z AUTO 08016KT 4SM 22/17 A2968 RMK T02200170 IEM_DS3505
ZBYN,2004-06-29 14:00,ZBYN 291400Z AUTO 08014KT 5SM 21/16 A2971 RMK T02100160 IEM_DS3505
ZBYN,2004-06-29 15:00,ZBYN 291500Z AUTO 09006KT 3SM 23/19 A2971 RMK SLP033 T02270193 52013 IEM_DS3505
ZBYN,2004-06-29 16:00,ZBYN 291600Z AUTO 08010KT 5SM 19/17 A2971 RMK T01900170 IEM_DS3505
ZBYN,2004-06-29 17:00,ZBYN 291700Z AUTO 08010KT 6SM 20/17 A2971 RMK T02000170 IEM_DS3505
ZBYN,2004-06-29 18:00,ZBYN 291800Z AUTO 32002KT 3SM 21/20 A2971 RMK 60002 SLP023 T02120198 57007 IEM_DS3505
ZBYN,2004-06-29 19:00,ZBYN 291900Z AUTO 07004KT 7SM 19/17 A2968 RMK T01900170 IEM_DS3505
ZBYN,2004-06-29 20:00,ZBYN 292000Z AUTO 09010KT 7SM 19/17 A2968 RMK T01900170 IEM_DS3505
ZBYN,2004-06-29 21:00,ZBYN 292100Z AUTO 29002KT 3SM 20/20 A2968 RMK 70073 SLP016 T01990197 57008 IEM_DS3505
ZBYN,2004-06-29 22:00,ZBYN 292200Z AUTO 08012KT 7SM 18/16 A2965 RMK T01800160 IEM_DS3505
ZBYN,2004-06-29 23:00,ZBYN 292300Z AUTO 09010KT 7SM 18/16 A2965 RMK T01800160 IEM_DS3505
ZBYN,2004-06-30 00:00,ZBYN 300000Z AUTO 32006KT 4SM 19/19 A2968 RMK 60098 70100 SLP023 T01930191 52004 IEM_DS3505
ZBYN,2004-06-30 01:00,ZBYN 300100Z AUTO 06008KT 5SM 17/16 A2968 RMK T01700160 IEM_DS3505
ZBYN,2004-06-30 02:00,ZBYN 300200Z AUTO 05004KT 1 1/2SM 18/16 A2971 RMK T01800160 IEM_DS3505
ZBYN,2004-06-30 03:00,ZBYN 300300Z AUTO 32006KT 3SM 19/19 A2971 RMK SLP041 T01880186 52011 IEM_DS3505
ZBYN,2004-06-30 04:00,ZBYN 300400Z AUTO 07004KT 7SM 17/15 A2971 RMK T01700150 IEM_DS3505
ZBYN,2004-06-30 05:00,ZBYN 300500Z AUTO 08006KT 7SM 16/14 A2974 RMK T01600140 IEM_DS3505
ZBYN,2004-06-30 06:00,ZBYN 300600Z AUTO 36002KT 6SM 20/17 A2971 RMK 60079 SLP042 T01950171 54000 IEM_DS3505
ZBYN,2004-06-30 07:00,ZBYN 300700Z AUTO 09004KT 7SM 18/15 A2974 RMK T01800150 IEM_DS3505
ZBYN,2004-06-30 08:00,ZBYN 300800Z AUTO 10006KT 7SM 18/14 A2974 RMK T01800140 IEM_DS3505
ZBYN,2004-06-30 09:00,ZBYN 300900Z AUTO 16004KT 5SM 19/18 A2974 RMK SLP053 T01900180 52008 IEM_DS3505
ZBYN,2004-06-30 10:00,ZBYN 301000Z AUTO 00000KT 7SM 17/15 A2974 RMK T01700150 IEM_DS3505
ZBYN,2004-06-30 11:00,ZBYN 301100Z AUTO 7SM 17/15 A2977 RMK T01700150 IEM_DS3505
ZBYN,2004-06-30 12:00,ZBYN 301200Z AUTO 27002KT 5SM 18/17 A2977 RMK 60004 SLP065 T01790171 52008 IEM_DS3505
ZBYN,2004-06-30 13:00,ZBYN 301300Z AUTO 17002KT 7SM 17/15 A2977 RMK T01700150 IEM_DS3505
ZBYN,2004-06-30 14:00,ZBYN 301400Z AUTO 00000KT 7SM 16/15 A2980 RMK T01600150 IEM_DS3505
ZBYN,2004-06-30 15:00,ZBYN 301500Z AUTO 14004KT 6SM 18/17 A2980 RMK SLP071 T01780170 52005 IEM_DS3505
ZBYN,2004-06-30 16:00,ZBYN 301600Z AUTO 11002KT 7SM 17/15 A2977 RMK T01700150 IEM_DS3505
ZBYN,2004-06-30 17:00,ZBYN 301700Z AUTO 16002KT 6SM 16/15 A2977 RMK T01600150 IEM_DS3505
ZBYN,2004-06-30 18:00,ZBYN 301800Z AUTO 11002KT 5SM 17/17 A2977 RMK SLP064 T01740172 57006 IEM_DS3505
ZBYN,2004-06-30 19:00,ZBYN 301900Z AUTO 13002KT 1 1/4SM 16/15 A2974 RMK T01600150 IEM_DS3505
ZBYN,2004-06-30 20:00,ZBYN 302000Z AUTO 15002KT 1 1/4SM 16/15 A2974 RMK T01600150 IEM_DS3505
ZBYN,2004-06-30 21:00,ZBYN 302100Z AUTO 14002KT 4SM 18/17 A2974 RMK 70113 SLP059 T01770174 57005 IEM_DS3505
ZBYN,2004-06-30 22:00,ZBYN 302200Z AUTO 16002KT 1SM 17/15 A2974 RMK T01700150 IEM_DS3505
ZBYN,2004-06-30 23:00,ZBYN 302300Z AUTO 20002KT 1SM 17/16 A2977 RMK T01700160 IEM_DS3505
ZBYN,2004-07-01 00:00,ZBYN 010000Z AUTO 16002KT 2SM 19/17 A2977 RMK 70086 SLP061 T01870169 52002 IEM_DS3505
ZBYN,2004-07-01 01:00,ZBYN 010100Z AUTO 1SM 19/16 A2977 RMK T01900160 IEM_DS3505
ZBYN,2004-07-01 02:00,ZBYN 010200Z AUTO 18004KT 1 1/4SM 20/16 A2974 RMK T02000160 IEM_DS3505
ZBYN,2004-07-01 03:00,ZBYN 010300Z AUTO 18008KT 3SM 24/19 A2974 RMK SLP041 T02440192 57011 IEM_DS3505
ZBYN,2004-07-01 04:00,ZBYN 010400Z AUTO 22004KT 2SM 24/16 A2971 RMK T02400160 IEM_DS3505
ZBYN,2004-07-01 05:00,ZBYN 010500Z AUTO 20002KT 26/16 A2968 RMK T02600160 IEM_DS3505
ZBYN,2004-07-01 06:00,ZBYN 010600Z AUTO 18008KT 3SM 29/21 A2965 RMK SLP011 T02910208 57021 IEM_DS3505
ZBYN,2004-07-01 07:00,ZBYN 010700Z AUTO 20004KT 7SM 29/18 A2965 RMK T02900180 IEM_DS3505
ZBYN,2004-07-01 08:00,ZBYN 010800Z AUTO 20004KT 6SM 30/16 A2962 RMK T03000160 IEM_DS3505
ZBYN,2004-07-01 09:00,ZBYN 010900Z AUTO 22004KT 12SM 33/19 A2959 RMK SLP985 T03260188 57019 IEM_DS3505
ZBYN,2004-07-01 10:00,ZBYN 011000Z AUTO 23004KT 6SM 30/15 A2959 RMK T03000150 IEM_DS3505
ZBYN,2004-07-01 11:00,ZBYN 011100Z AUTO 22002KT 6SM 28/17 A2959 RMK T02800170 IEM_DS3505
ZBYN,2004-07-01 12:00,ZBYN 011200Z AUTO 00000KT 12SM 26/20 A2962 RMK SLP999 T02600203 52005 IEM_DS3505
ZBYN,2004-07-01 13:00,ZBYN 011300Z AUTO 18004KT 6SM 24/15 A2962 RMK T02400150 IEM_DS3505
ZBYN,2004-07-01 14:00,ZBYN 011400Z AUTO 22002KT 6SM 23/17 A2965 RMK T02300170 IEM_DS3505
ZBYN,2004-07-01 15:00,ZBYN 011500Z AUTO 09002KT 9SM 21/19 A2965 RMK SLP015 T02120188 52016 IEM_DS3505
ZBYN,2004-07-01 16:00,ZBYN 011600Z AUTO 11002KT 4SM 20/18 A2968 RMK T02000180 IEM_DS3505
ZBYN,2004-07-01 17:00,ZBYN 011700Z AUTO 11002KT 2SM 19/18 A2968 RMK T01900180 IEM_DS3505
ZBYN,2004-07-01 18:00,ZBYN 011800Z AUTO 07002KT 4SM 20/19 A2968 RMK SLP017 T02050193 52008 IEM_DS3505
ZBYN,2004-07-01 19:00,ZBYN 011900Z AUTO 12002KT 2SM 18/17 A2968 RMK T01800170 IEM_DS3505
ZBYN,2004-07-01 20:00,ZBYN 012000Z AUTO 09002KT 2SM 18/16 A2968 RMK T01800160 IEM_DS3505
ZBYN,2004-07-01 21:00,ZBYN 012100Z AUTO 18002KT 4SM 18/18 A2971 RMK SLP024 T01820182 52008 IEM_DS3505
ZBYN,2004-07-01 22:00,ZBYN 012200Z AUTO 00000KT 1SM 18/16 A2971 RMK T01800160 IEM_DS3505
ZBYN,2004-07-01 23:00,ZBYN 012300Z AUTO 11002KT 1 1/4SM 19/16 A2971 RMK T01900160 IEM_DS3505
ZBYN,2004-07-02 00:00,ZBYN 020000Z AUTO 16002KT 5SM 24/20 A2974 RMK SLP033 T02360197 52006 IEM_DS3505
ZBYN,2004-07-02 01:00,ZBYN 020100Z AUTO 00000KT 2SM 23/17 A2974 RMK T02300170 IEM_DS3505
ZBYN,2004-07-02 02:00,ZBYN 020200Z AUTO 00000KT 2 1/2SM 24/16 A2974 RMK T02400160 IEM_DS3505
ZBYN,2004-07-02 03:00,ZBYN 020300Z AUTO 18004KT 5SM 29/19 A2974 RMK SLP032 T02910191 54000 IEM_DS3505
ZBYN,2004-07-02 16:00,ZBYN 021600Z AUTO 00000KT 6SM 21/15 A2968 RMK T02100150 IEM_DS3505
ZBYN,2004-07-02 17:00,ZBYN 021700Z AUTO 00000KT 6SM 20/13 A2968 RMK T02000130 IEM_DS3505
ZBYN,2004-07-02 18:00,ZBYN 021800Z AUTO 36002KT 6SM 20/18 RMK SLP011 T02000176 57003 IEM_DS3505
ZBYN,2004-07-02 20:00,ZBYN 022000Z AUTO 00000KT 6SM 18/13 A2968 RMK T01800130 IEM_DS3505
ZBYN,2004-07-02 21:00,ZBYN 022100Z AUTO 29002KT 6SM 19/17 A2968 RMK SLP014 T01920170 52002 IEM_DS3505
ZBYN,2004-07-02 23:00,ZBYN 022300Z AUTO 00000KT 6SM 18/15 A2968 RMK T01800150 IEM_DS3505
ZBYN,2004-07-03 00:00,ZBYN 030000Z AUTO 14002KT 6SM 24/18 A2968 RMK SLP014 T02440179 52001 IEM_DS3505
ZBYN,2004-07-03 01:00,ZBYN 030100Z AUTO 10002KT 6SM 23/15 A2968 RMK T02300150 IEM_DS3505
ZBYN,2004-07-03 02:00,ZBYN 030200Z AUTO 15002KT 6SM 25/15 A2968 RMK T02500150 IEM_DS3505
ZBYN,2004-07-03 03:00,ZBYN 030300Z AUTO 18006KT 6SM 28/20 A2965 RMK SLP005 T02830203 57009 IEM_DS3505
ZBYN,2004-07-03 04:00,ZBYN 030400Z AUTO 5SM 28/16 A2965 RMK T02800160 IEM_DS3505
ZBYN,2004-07-03 05:00,ZBYN 030500Z AUTO 22004KT 6SM 30/16 A2962 RMK T03000160 IEM_DS3505
ZBYN,2004-07-03 06:00,ZBYN 030600Z AUTO 18010KT 6SM 32/18 A2959 RMK SLP975 T03230181 57025 IEM_DS3505
ZBYN,2004-07-03 07:00,ZBYN 030700Z AUTO 21002KT 7SM 30/13 A2956 RMK T03000130 IEM_DS3505
ZBYN,2004-07-03 08:00,ZBYN 030800Z AUTO 00000KT 7SM A2953 RMK IEM_DS3505
ZBYN,2004-07-03 09:00,ZBYN 030900Z AUTO 11002KT 6SM 32/23 A2950 RMK SLP953 T03160226 57022 IEM_DS3505
ZBYN,2004-07-03 10:00,ZBYN 031000Z AUTO 12008KT 7SM 28/09 A2953 RMK T02800090 IEM_DS3505
ZBYN,2004-07-03 11:00,ZBYN 031100Z AUTO 09012KT 7SM 22/14 A2956 RMK T02200140 IEM_DS3505
ZBYN,2004-07-03 12:00,ZBYN 031200Z AUTO 32025KT 7SM 25/16 A2959 RMK SLP027 T02470159 52065 IEM_DS3505
ZBYN,2004-07-03 13:00,ZBYN 031300Z AUTO 36008KT 7SM 17/15 A2977 RMK T01700150 IEM_DS3505
ZBYN,2004-07-03 14:00,ZBYN 031400Z AUTO 09012KT 7SM 18/14 A2968 RMK T01800140 IEM_DS3505
ZBYN,2004-07-03 15:00,ZBYN 031500Z AUTO 20008KT 6SM 19/16 A2971 RMK SLP033 T01940163 52004 IEM_DS3505
ZBYN,2004-07-03 16:00,ZBYN 031600Z AUTO 20002KT 6SM 17/15 A2971 RMK T01700150 IEM_DS3505
ZBYN,2004-07-03 17:00,ZBYN 031700Z AUTO 00000KT 6SM 17/15 A2968 RMK T01700150 IEM_DS3505
ZBYN,2004-07-03 18:00,ZBYN 031800Z AUTO 02002KT 6SM 18/17 A2968 RMK 60020 SLP013 T01750167 40326//// 57016 IEM_DS3505
ZBYN,2004-07-03 19:00,ZBYN 031900Z AUTO 00000KT 6SM 17/15 A2965 RMK T01700150 IEM_DS3505
ZBYN,2004-07-03 20:00,ZBYN 032000Z AUTO 00000KT 6SM 16/15 A2965 RMK T01600150 IEM_DS3505
ZBYN,2004-07-03 21:00,ZBYN 032100Z AUTO 32004KT 4SM 17/16 A2965 RMK 70021 SLP010 T01730162 57004 IEM_DS3505
ZBYN,2004-07-03 22:00,ZBYN 032200Z AUTO 1 1/2SM 16/14 A2968 RMK T01600140 IEM_DS3505
ZBYN,2004-07-03 23:00,ZBYN 032300Z AUTO 1 1/2SM 16/15 A2965 RMK T01600150 IEM_DS3505
ZBYN,2004-07-04 00:00,ZBYN 040000Z AUTO 14004KT 3SM 19/19 A2965 RMK 70021 SLP015 T01870187 57003 IEM_DS3505
ZBYN,2004-07-04 01:00,ZBYN 040100Z AUTO 2SM 20/16 A2962 RMK T02000160 IEM_DS3505
ZBYN,2004-07-04 02:00,ZBYN 040200Z AUTO 21/15 A2962 RMK T02100150 IEM_DS3505
ZBYN,2004-07-04 03:00,ZBYN 040300Z AUTO 14004KT 4SM 25/18 A2962 RMK SLP998 T02470177 57014 IEM_DS3505
ZBYN,2004-07-04 04:00,ZBYN 040400Z AUTO 15004KT 6SM 24/16 A2959 RMK T02400160 IEM_DS3505
ZBYN,2004-07-04 05:00,ZBYN 040500Z AUTO 18002KT 7SM 25/16 A2959 RMK T02500160 IEM_DS3505
ZBYN,2004-07-04 06:00,ZBYN 040600Z AUTO 14006KT 6SM 27/20 A2956 RMK SLP984 T02720198 57012 IEM_DS3505
ZBYN,2004-07-04 07:00,ZBYN 040700Z AUTO 14002KT 7SM 26/17 A2953 RMK T02600170 IEM_DS3505
ZBYN,2004-07-04 08:00,ZBYN 040800Z AUTO 14004KT 7SM 27/16 A2953 RMK T02700160 IEM_DS3505
ZBYN,2004-07-04 09:00,ZBYN 040900Z AUTO 09002KT 6SM 30/19 A2950 RMK SLP959 T02960193 57020 IEM_DS3505
ZBYN,2004-07-04 10:00,ZBYN 041000Z AUTO 7SM 28/17 A2950 RMK T02800170 IEM_DS3505
ZBYN,2004-07-04 11:00,ZBYN 041100Z AUTO 30004KT 7SM 26/08 A2950 RMK T02600080 IEM_DS3505
ZBYN,2004-07-04 12:00,ZBYN 041200Z AUTO 29004KT 16SM 26/15 A2950 RMK SLP967 T02570154 52004 IEM_DS3505
ZBYN,2004-07-04 13:00,ZBYN 041300Z AUTO 7SM 22/13 A2953 RMK T02200130 IEM_DS3505
ZBYN,2004-07-04 14:00,ZBYN 041400Z AUTO 00000KT 6SM 21/14 A2959 RMK T02100140 IEM_DS3505
ZBYN,2004-07-04 15:00,ZBYN 041500Z AUTO 32004KT 9SM 23/15 A2959 RMK SLP982 T02270151 52018 IEM_DS3505
ZBYN,2004-07-04 16:00,ZBYN 041600Z AUTO 22002KT 6SM 19/14 A2959 RMK T01900140 IEM_DS3505
ZBYN,2004-07-04 17:00,ZBYN 041700Z AUTO 00000KT 6SM 17/14 A2959 RMK T01700140 IEM_DS3505
ZBYN,2004-07-04 18:00,ZBYN 041800Z AUTO 07004KT 4SM 18/16 A2959 RMK SLP993 T01840155 52007 IEM_DS3505
ZBYN,2004-07-04 19:00,ZBYN 041900Z AUTO 00000KT 6SM 16/14 A2959 RMK T01600140 IEM_DS3505
ZBYN,2004-07-04 20:00,ZBYN 042000Z AUTO 13004KT 6SM 15/13 A2959 RMK T01500130 IEM_DS3505
ZBYN,2004-07-04 21:00,ZBYN 042100Z AUTO 00000KT 4SM 16/15 A2962 RMK 70001 SLP999 T01600149 52006 IEM_DS3505
ZBYN,2004-07-04 22:00,ZBYN 042200Z AUTO 6SM 15/12 A2962 RMK T01500120 IEM_DS3505
ZBYN,2004-07-04 23:00,ZBYN 042300Z AUTO 20002KT 6SM 17/13 A2962 RMK T01700130 IEM_DS3505
ZBYN,2004-07-05 00:00,ZBYN 050000Z AUTO 32004KT 9SM 23/14 A2965 RMK SLP006 T02300138 52010 IEM_DS3505
ZBYN,2004-07-05 01:00,ZBYN 050100Z AUTO 31004KT 6SM 23/13 A2965 RMK T02300130 IEM_DS3505
ZBYN,2004-07-05 02:00,ZBYN 050200Z AUTO 35008KT 6SM 24/11 A2965 RMK T02400110 IEM_DS3505
ZBYN,2004-07-05 03:00,ZBYN 050300Z AUTO 04004KT 11SM 27/14 A2965 RMK SLP002 T02720136 57002 IEM_DS3505
ZBYN,2004-07-05 04:00,ZBYN 050400Z AUTO 36004KT 7SM 26/11 A2965 RMK T02600110 IEM_DS3505
ZBYN,2004-07-05 05:00,ZBYN 050500Z AUTO 03006KT 7SM 27/12 A2962 RMK T02700120 IEM_DS3505
ZBYN,2004-07-05 06:00,ZBYN 050600Z AUTO 02006KT 12SM 28/14 A2962 RMK SLP004 T02830142 57002 IEM_DS3505
ZBYN,2004-07-05 07:00,ZBYN 050700Z AUTO 01008KT 7SM 27/11 A2962 RMK T02700110 IEM_DS3505
ZBYN,2004-07-05 08:00,ZBYN 050800Z AUTO 34006KT 7SM 26/10 A2962 RMK T02600100 IEM_DS3505
ZBYN,2004-07-05 09:00,ZBYN 050900Z AUTO 35008KT 7SM 28/09 A2962 RMK T02800090 IEM_DS3505
ZBYN,2004-07-05 10:00,ZBYN 051000Z AUTO 36008KT 7SM 26/08 A2965 RMK T02600080 IEM_DS3505
ZBYN,2004-07-05 11:00,ZBYN 051100Z AUTO 36006KT 7SM 25/07 A2965 RMK T02500070 IEM_DS3505
ZBYN,2004-07-05 12:00,ZBYN 051200Z AUTO 36004KT 16SM 26/09 A2968 RMK SLP012 T02620087 52011 IEM_DS3505
ZBYN,2004-07-05 13:00,ZBYN 051300Z AUTO 05004KT 6SM 21/11 A2968 RMK T02100110 IEM_DS3505
ZBYN,2004-07-05 14:00,ZBYN 051400Z AUTO 05002KT 6SM 20/11 A2968 RMK T02000110 IEM_DS3505
ZBYN,2004-07-05 15:00,ZBYN 051500Z AUTO 32004KT 12SM 22/12 A2971 RMK SLP023 T02180124 52010 IEM_DS3505
ZBYN,2004-07-05 16:00,ZBYN 051600Z AUTO 6SM 17/13 A2971 RMK T01700130 IEM_DS3505
ZBYN,2004-07-05 17:00,ZBYN 051700Z AUTO 00000KT 6SM 14/12 A2971 RMK T01400120 IEM_DS3505
ZBYN,2004-07-05 18:00,ZBYN 051800Z AUTO 34002KT 12SM 20/12 A2974 RMK SLP033 T02010116 52009 IEM_DS3505
ZBYN,2004-07-05 19:00,ZBYN 051900Z AUTO 00000KT 6SM 15/11 A2971 RMK T01500110 IEM_DS3505
ZBYN,2004-07-05 20:00,ZBYN 052000Z AUTO 00000KT 6SM 14/10 A2971 RMK T01400100 IEM_DS3505
ZBYN,2004-07-05 21:00,ZBYN 052100Z AUTO 32002KT 12SM 16/12 A2974 RMK SLP040 T01650121 52002 IEM_DS3505
ZBYN,2004-07-05 22:00,ZBYN 052200Z AUTO 00000KT 6SM 13/10 A2974 RMK T01300100 IEM_DS3505
ZBYN,2004-07-05 23:00,ZBYN 052300Z AUTO 00000KT 6SM 15/12 A2974 RMK T01500120 IEM_DS3505
ZBYN,2004-07-06 00:00,ZBYN 060000Z AUTO 07004KT 6SM 22/13 A2977 RMK SLP044 T02250127 52008 IEM_DS3505
ZBYN,2004-07-06 01:00,ZBYN 060100Z AUTO 00000KT 6SM 21/10 A2977 RMK T02100100 IEM_DS3505
ZBYN,2004-07-06 02:00,ZBYN 060200Z AUTO 00000KT 6SM A2974 RMK IEM_DS3505
ZBYN,2004-07-06 03:00,ZBYN 060300Z AUTO 32004KT 5SM 28/14 A2974 RMK SLP039 T02760143 57004 IEM_DS3505
ZBYN,2004-07-06 04:00,ZBYN 060400Z AUTO 7SM 33/07 A2974 RMK T03300070 IEM_DS3505
ZBYN,2004-07-06 05:00,ZBYN 060500Z AUTO 24004KT 7SM 28/07 A2971 RMK T02800070 IEM_DS3505
ZBYN,2004-07-06 06:00,ZBYN 060600Z AUTO 11004KT 12SM 31/10 A2971 RMK SLP018 T03060095 57017 IEM_DS3505
ZBYN,2004-07-06 07:00,ZBYN 060700Z AUTO 7SM 28/05 A2968 RMK T02800050 IEM_DS3505
ZBYN,2004-07-06 08:00,ZBYN 060800Z AUTO 7SM 29/07 A2968 RMK T02900070 IEM_DS3505
ZBYN,2004-07-06 09:00,ZBYN 060900Z AUTO 20004KT 12SM 31/11 A2968 RMK SLP013 T03080107 57009 IEM_DS3505
ZBYN,2004-07-06 10:00,ZBYN 061000Z AUTO 20004KT 7SM 28/06 A2968 RMK T02800060 IEM_DS3505
ZBYN,2004-07-06 11:00,ZBYN 061100Z AUTO 00000KT 7SM 27/10 A2968 RMK T02700100 IEM_DS3505
ZBYN,2004-07-06 12:00,ZBYN 061200Z AUTO 02004KT 12SM 28/10 A2971 RMK SLP021 T02820100 52012 IEM_DS3505
ZBYN,2004-07-06 13:00,ZBYN 061300Z AUTO 02004KT 7SM 24/07 A2971 RMK T02400070 IEM_DS3505
ZBYN,2004-07-06 14:00,ZBYN 061400Z AUTO 23002KT 6SM 21/10 A2974 RMK T02100100 IEM_DS3505
ZBYN,2004-07-06 15:00,ZBYN 061500Z AUTO 34004KT 11SM 24/12 A2974 RMK SLP038 T02370124 52016 IEM_DS3505
ZBYN,2004-07-06 16:00,ZBYN 061600Z AUTO 00000KT 6SM 20/12 A2977 RMK T02000120 IEM_DS3505
ZBYN,2004-07-06 17:00,ZBYN 061700Z AUTO 00000KT 6SM 18/13 A2977 RMK T01800130 IEM_DS3505
ZBYN,2004-07-06 18:00,ZBYN 061800Z AUTO 00000KT 9SM 20/14 A2977 RMK SLP045 T01990141 52005 IEM_DS3505
ZBYN,2004-07-06 19:00,ZBYN 061900Z AUTO 00000KT 6SM 16/11 A2977 RMK T01600110 IEM_DS3505
ZBYN,2004-07-06 20:00,ZBYN 062000Z AUTO 00000KT 6SM 15/11 A2977 RMK T01500110 IEM_DS3505
ZBYN,2004-07-06 21:00,ZBYN 062100Z AUTO 14002KT 9SM 17/14 A2977 RMK SLP054 T01680143 52005 IEM_DS3505
ZBYN,2004-07-06 22:00,ZBYN 062200Z AUTO 00000KT 6SM 14/12 A2980 RMK T01400120 IEM_DS3505
ZBYN,2004-07-06 23:00,ZBYN 062300Z AUTO 6SM 17/13 A2980 RMK T01700130 IEM_DS3505
ZBYN,2004-07-07 00:00,ZBYN 070000Z AUTO 16002KT 7SM 22/16 RMK SLP061 T02240155 52010 IEM_DS3505
ZBYN,2004-07-07 01:00,ZBYN 070100Z AUTO 00000KT 6SM 22/11 A2983 RMK T02200110 IEM_DS3505
ZBYN,2004-07-07 02:00,ZBYN 070200Z AUTO 27002KT 6SM 24/12 A2980 RMK T02400120 IEM_DS3505
ZBYN,2004-07-07 03:00,ZBYN 070300Z AUTO 25002KT 6SM 28/13 A2980 RMK SLP054 T02830126 57004 IEM_DS3505
ZBYN,2004-07-07 04:00,ZBYN 070400Z AUTO 24002KT 7SM 26/11 A2980 RMK T02600110 IEM_DS3505
ZBYN,2004-07-07 05:00,ZBYN 070500Z AUTO 21004KT 7SM 27/10 A2977 RMK T02700100 IEM_DS3505
ZBYN,2004-07-07 06:00,ZBYN 070600Z AUTO 02004KT 9SM 31/10 A2977 RMK SLP039 T03130095 57015 IEM_DS3505
ZBYN,2004-07-07 07:00,ZBYN 070700Z AUTO 36006KT 7SM 31/04 A2974 RMK T03100040 IEM_DS3505
ZBYN,2004-07-07 09:00,ZBYN 070900Z AUTO 20008KT 12SM 30/14 RMK SLP038 T03030136 57007 IEM_DS3505
ZBYN,2004-07-07 10:00,ZBYN 071000Z AUTO 20004KT 7SM 28/10 A2974 RMK T02800100 IEM_DS3505
ZBYN,2004-07-07 11:00,ZBYN 071100Z AUTO 26002KT 7SM 27/12 A2974 RMK T02700120 IEM_DS3505
ZBYN,2004-07-07 12:00,ZBYN 071200Z AUTO 34002KT 11SM 27/13 A2977 RMK SLP042 T02700126 52007 IEM_DS3505
ZBYN,2004-07-07 13:00,ZBYN 071300Z AUTO 06004KT 6SM 23/13 A2977 RMK T02300130 IEM_DS3505
ZBYN,2004-07-07 14:00,ZBYN 071400Z AUTO 06006KT 6SM 23/11 A2980 RMK T02300110 IEM_DS3505
ZBYN,2004-07-07 15:00,ZBYN 071500Z AUTO 04002KT 7SM 24/15 A2983 RMK SLP059 T02350150 52019 IEM_DS3505
ZBYN,2004-07-07 16:00,ZBYN 071600Z AUTO 07008KT 6SM 23/14 A2983 RMK T02300140 IEM_DS3505
ZBYN,2004-07-07 17:00,ZBYN 071700Z AUTO 07008KT 6SM 22/14 A2983 RMK T02200140 IEM_DS3505
ZBYN,2004-07-07 18:00,ZBYN 071800Z AUTO 34004KT 6SM 23/15 A2983 RMK SLP062 T02270148 52006 IEM_DS3505
ZBYN,2004-07-07 19:00,ZBYN 071900Z AUTO 00000KT 6SM 20/14 A2983 RMK T02000140 IEM_DS3505
ZBYN,2004-07-07 20:00,ZBYN 072000Z AUTO 36002KT 6SM 19/14 A2983 RMK T01900140 IEM_DS3505
ZBYN,2004-07-07 21:00,ZBYN 072100Z AUTO 04002KT 7SM 21/15 A2983 RMK SLP064 T02080154 57002 IEM_DS3505
ZBYN,2004-07-07 22:00,ZBYN 072200Z AUTO 6SM 17/14 A2983 RMK T01700140 IEM_DS3505
ZBYN,2004-07-07 23:00,ZBYN 072300Z AUTO 12002KT 4SM 19/15 A2983 RMK T01900150 IEM_DS3505
ZBYN,2004-07-08 00:00,ZBYN 080000Z AUTO 32004KT 6SM 23/16 A2983 RMK SLP067 T02330156 52001 IEM_DS3505
ZBYN,2004-07-08 01:00,ZBYN 080100Z AUTO 00000KT 22/14 A2983 RMK T02200140 IEM_DS3505
ZBYN,2004-07-08 02:00,ZBYN 080200Z AUTO 23002KT 5SM 24/13 A2983 RMK T02400130 IEM_DS3505
ZBYN,2004-07-08 03:00,ZBYN 080300Z AUTO 32004KT 11SM 29/10 A2980 RMK SLP052 T02930104 57010 IEM_DS3505
ZBYN,2004-07-08 04:00,ZBYN 080400Z AUTO 7SM 28/09 A2980 RMK T02800090 IEM_DS3505
ZBYN,2004-07-08 05:00,ZBYN 080500Z AUTO 17004KT 7SM 29/07 A2977 RMK T02900070 IEM_DS3505
ZBYN,2004-07-08 06:00,ZBYN 080600Z AUTO 34006KT 12SM 32/09 A2974 RMK SLP025 T03250087 57022 IEM_DS3505
ZBYN,2004-07-08 07:00,ZBYN 080700Z AUTO 15004KT 7SM 30/07 A2971 RMK T03000070 IEM_DS3505
ZBYN,2004-07-08 08:00,ZBYN 080800Z AUTO 7SM 31/06 A2971 RMK T03100060 IEM_DS3505
ZBYN,2004-07-08 09:00,ZBYN 080900Z AUTO 20004KT 12SM 33/11 A2968 RMK SLP012 T03270107 57014 IEM_DS3505
ZBYN,2004-07-08 10:00,ZBYN 081000Z AUTO 20002KT 6SM 30/08 A2968 RMK T03000080 IEM_DS3505
ZBYN,2004-07-08 11:00,ZBYN 081100Z AUTO 26004KT 6SM 28/09 A2968 RMK T02800090 IEM_DS3505
ZBYN,2004-07-08 12:00,ZBYN 081200Z AUTO 11006KT 12SM 29/15 A2971 RMK SLP025 T02860152 52010 IEM_DS3505
ZBYN,2004-07-08 13:00,ZBYN 081300Z AUTO 06010KT 6SM 25/11 A2974 RMK T02500110 IEM_DS3505
ZBYN,2004-07-08 14:00,ZBYN 081400Z AUTO 08012KT 6SM 25/12 A2977 RMK T02500120 IEM_DS3505
ZBYN,2004-07-08 15:00,ZBYN 081500Z AUTO 00000KT 9SM 24/16 A2977 RMK SLP040 T02440159 52016 IEM_DS3505
ZBYN,2004-07-08 16:00,ZBYN 081600Z AUTO 07008KT 6SM 23/14 A2977 RMK T02300140 IEM_DS3505
ZBYN,2004-07-08 17:00,ZBYN 081700Z AUTO 07004KT 6SM 22/14 A2977 RMK T02200140 IEM_DS3505
ZBYN,2004-07-08 19:00,ZBYN 081900Z AUTO 02004KT 6SM 21/15 A2977 RMK T02100150 IEM_DS3505
ZBYN,2004-07-08 20:00,ZBYN 082000Z AUTO 07004KT 6SM 21/15 A2977 RMK T02100150 IEM_DS3505
ZBYN,2004-07-08 21:00,ZBYN 082100Z AUTO 32004KT 7SM 21/17 A2980 RMK SLP048 T02120168 52007 IEM_DS3505
ZBYN,2004-07-08 22:00,ZBYN 082200Z AUTO 07008KT 4SM 20/15 A2980 RMK T02000150 IEM_DS3505
ZBYN,2004-07-08 23:00,ZBYN 082300Z AUTO 06002KT 21/15 A2980 RMK T02100150 IEM_DS3505
ZBYN,2004-07-09 00:00,ZBYN 090000Z AUTO 36002KT 5SM 24/18 A2980 RMK SLP050 T02420175 54000 IEM_DS3505
ZBYN,2004-07-09 01:00,ZBYN 090100Z AUTO 08004KT 3SM 23/15 A2980 RMK T02300150 IEM_DS3505
ZBYN,2004-07-09 02:00,ZBYN 090200Z AUTO 24/14 A2977 RMK T02400140 IEM_DS3505
ZBYN,2004-07-09 03:00,ZBYN 090300Z AUTO 29002KT 4SM 28/18 A2977 RMK SLP040 T02780182 57010 IEM_DS3505
ZBYN,2004-07-09 04:00,ZBYN 090400Z AUTO 6SM 27/13 A2974 RMK T02700130 IEM_DS3505
ZBYN,2004-07-09 05:00,ZBYN 090500Z AUTO 6SM 28/13 A2974 RMK T02800130 IEM_DS3505
ZBYN,2004-07-09 06:00,ZBYN 090600Z AUTO 16002KT 4SM 31/17 A2968 RMK SLP012 T03110171 57025 IEM_DS3505
ZBYN,2004-07-09 07:00,ZBYN 090700Z AUTO 15004KT 7SM 31/11 A2968 RMK T03100110 IEM_DS3505
ZBYN,2004-07-09 08:00,ZBYN 090800Z AUTO 03004KT 7SM 31/11 A2968 RMK T03100110 IEM_DS3505
ZBYN,2004-07-09 09:00,ZBYN 090900Z AUTO 16004KT 6SM 31/19 A2968 RMK SLP009 T03090186 57003 IEM_DS3505
ZBYN,2004-07-09 10:00,ZBYN 091000Z AUTO 06010KT 5SM 27/15 A2971 RMK T02700150 IEM_DS3505
ZBYN,2004-07-09 11:00,ZBYN 091100Z AUTO 36023G43KT 1/2SM A2974 RMK IEM_DS3505
ZBYN,2004-07-09 12:00,ZBYN 091200Z AUTO 09008KT 6SM 21/17 A2980 RMK 60047 SLP058 T02080166 52035 IEM_DS3505
ZBYN,2004-07-09 13:00,ZBYN 091300Z AUTO 13004KT 7SM 19/16 A2980 RMK T01900160 IEM_DS3505
ZBYN,2004-07-09 14:00,ZBYN 091400Z AUTO 04002KT 7SM 19/17 A2980 RMK T01900170 IEM_DS3505
ZBYN,2004-07-09 15:00,ZBYN 091500Z AUTO 20002KT 5SM 20/18 A2977 RMK SLP049 T02000185 57005 IEM_DS3505
ZBYN,2004-07-09 16:00,ZBYN 091600Z AUTO 00000KT 6SM 18/16 A2974 RMK T01800160 IEM_DS3505
ZBYN,2004-07-09 17:00,ZBYN 091700Z AUTO 10002KT 6SM 17/16 A2974 RMK T01700160 IEM_DS3505
ZBYN,2004-07-09 18:00,ZBYN 091800Z AUTO 11002KT 5SM 19/18 A2974 RMK 60000 SLP035 T01880180 57010 IEM_DS3505
ZBYN,2004-07-09 19:00,ZBYN 091900Z AUTO 10002KT 4SM 18/16 A2974 RMK T01800160 IEM_DS3505
ZBYN,2004-07-09 20:00,ZBYN 092000Z AUTO 00000KT 5SM 18/16 A2974 RMK T01800160 IEM_DS3505
ZBYN,2004-07-09 21:00,ZBYN 092100Z AUTO 14004KT 5SM 19/19 A2974 RMK 70046 SLP040 T01890189 52005 IEM_DS3505
ZBYN,2004-07-09 22:00,ZBYN 092200Z AUTO 12002KT 4SM 18/16 A2974 RMK T01800160 IEM_DS3505
ZBYN,2004-07-09 23:00,ZBYN 092300Z AUTO 10002KT 2 1/2SM 19/16 A2977 RMK T01900160 IEM_DS3505
ZBYN,2004-07-10 00:00,ZBYN 100000Z AUTO 00000KT 4SM 21/21 A2977 RMK 70046 SLP053 T02090209 52001 IEM_DS3505
ZBYN,2004-07-10 01:00,ZBYN 100100Z AUTO 18002KT 3SM 20/16 A2974 RMK T02000160 IEM_DS3505
ZBYN,2004-07-10 02:00,ZBYN 100200Z AUTO 24002KT 3SM 21/15 A2974 RMK T02100150 IEM_DS3505
ZBYN,2004-07-10 03:00,ZBYN 100300Z AUTO 18004KT 4SM 23/ A2974 RMK SLP044 57007 IEM_DS3505
ZBYN,2004-07-10 04:00,ZBYN 100400Z AUTO 14002KT 22/15 A2974 RMK T02200150 IEM_DS3505
ZBYN,2004-07-10 05:00,ZBYN 100500Z AUTO 6SM 24/16 A2971 RMK T02400160 IEM_DS3505
ZBYN,2004-07-10 06:00,ZBYN 100600Z AUTO 27002KT 6SM 26/18 A2968 RMK SLP019 T02600183 57016 IEM_DS3505
ZBYN,2004-07-10 07:00,ZBYN 100700Z AUTO 28004KT 7SM 25/17 A2968 RMK T02500170 IEM_DS3505
ZBYN,2004-07-10 08:00,ZBYN 100800Z AUTO 31014KT 7SM 23/15 A2968 RMK T02300150 IEM_DS3505
ZBYN,2004-07-10 09:00,ZBYN 100900Z AUTO 32010KT 9SM 24/18 A2965 RMK SLP019 T02410181 57007 IEM_DS3505
ZBYN,2004-07-10 10:00,ZBYN 101000Z AUTO 01004KT 6SM 22/16 A2968 RMK T02200160 IEM_DS3505
ZBYN,2004-07-10 11:00,ZBYN 101100Z AUTO 10006KT 6SM 22/16 A2968 RMK T02200160 IEM_DS3505
ZBYN,2004-07-10 12:00,ZBYN 101200Z AUTO 16004KT 9SM 22/18 A2968 RMK SLP026 T02170183 52006 IEM_DS3505
ZBYN,2004-07-10 13:00,ZBYN 101300Z AUTO 12006KT 6SM 19/15 A2968 RMK T01900150 IEM_DS3505
ZBYN,2004-07-10 14:00,ZBYN 101400Z AUTO 36002KT 7SM 19/16 A2971 RMK T01900160 IEM_DS3505
ZBYN,2004-07-10 15:00,ZBYN 101500Z AUTO 36006KT 9SM 21/18 A2968 RMK SLP028 T02090177 52004 IEM_DS3505
ZBYN,2004-07-10 16:00,ZBYN 101600Z AUTO 34008KT 6SM 18/16 A2968 RMK T01800160 IEM_DS3505
ZBYN,2004-07-10 17:00,ZBYN 101700Z AUTO 36004KT 6SM 18/15 A2968 RMK T01800150 IEM_DS3505
ZBYN,2004-07-10 18:00,ZBYN 101800Z AUTO 34004KT 6SM 20/19 A2965 RMK 60000 SLP014 T01950188 57010 IEM_DS3505
ZBYN,2004-07-10 19:00,ZBYN 101900Z AUTO 00000KT 4SM 16/14 A2965 RMK T01600140 IEM_DS3505
ZBYN,2004-07-10 20:00,ZBYN 102000Z AUTO 00000KT 1 1/2SM 15/14 A2965 RMK T01500140 IEM_DS3505
ZBYN,2004-07-10 21:00,ZBYN 102100Z AUTO 32004KT 3SM 18/18 A2965 RMK 70000 SLP020 T01800180 54000 IEM_DS3505
ZBYN,2004-07-10 22:00,ZBYN 102200Z AUTO 00000KT 2 1/2SM 15/14 A2965 RMK T01500140 IEM_DS3505
ZBYN,2004-07-10 23:00,ZBYN 102300Z AUTO 00000KT 3SM 17/15 A2968 RMK T01700150 IEM_DS3505
ZBYN,2004-07-11 00:00,ZBYN 110000Z AUTO 34006KT 4SM 20/16 A2968 RMK 70000 SLP025 T02030158 52004 IEM_DS3505
ZBYN,2004-07-11 01:00,ZBYN 110100Z AUTO 03002KT 5SM 19/15 A2968 RMK T01900150 IEM_DS3505
ZBYN,2004-07-11 02:00,ZBYN 110200Z AUTO 34004KT 6SM 21/15 A2968 RMK T02100150 IEM_DS3505
ZBYN,2004-07-11 03:00,ZBYN 110300Z AUTO 02004KT 6SM 24/16 A2965 RMK SLP012 T02420160 57007 IEM_DS3505
ZBYN,2004-07-11 04:00,ZBYN 110400Z AUTO 6SM 23/14 A2965 RMK T02300140 IEM_DS3505
ZBYN,2004-07-11 05:00,ZBYN 110500Z AUTO 6SM 24/15 A2962 RMK T02400150 IEM_DS3505
ZBYN,2004-07-11 06:00,ZBYN 110600Z AUTO 32004KT 6SM 24/17 A2959 RMK SLP000 T02430171 57013 IEM_DS3505
ZBYN,2004-07-11 07:00,ZBYN 110700Z AUTO 31010KT 7SM 23/16 A2959 RMK T02300160 IEM_DS3505
ZBYN,2004-07-11 08:00,ZBYN 110800Z AUTO 30008KT 7SM 22/15 A2959 RMK T02200150 IEM_DS3505
ZBYN,2004-07-11 09:00,ZBYN 110900Z AUTO 32004KT 12SM 22/13 A2962 RMK SLP007 T02180132 52001 IEM_DS3505
ZBYN,2004-07-11 10:00,ZBYN 111000Z AUTO 09008KT 7SM 19/14 A2965 RMK T01900140 IEM_DS3505
ZBYN,2004-07-11 11:00,ZBYN 111100Z AUTO 09004KT 7SM 18/15 A2968 RMK T01800150 IEM_DS3505
ZBYN,2004-07-11 12:00,ZBYN 111200Z AUTO 32004KT 7SM 20/16 A2968 RMK 60004 SLP033 T01950160 52024 IEM_DS3505
ZBYN,2004-07-11 13:00,ZBYN 111300Z AUTO 36002KT 7SM 19/15 A2971 RMK T01900150 IEM_DS3505
ZBYN,2004-07-11 14:00,ZBYN 111400Z AUTO 34004KT 7SM 19/15 A2971 RMK T01900150 IEM_DS3505
ZBYN,2004-07-11 15:00,ZBYN 111500Z AUTO 02006KT 7SM 20/15 A2971 RMK SLP039 T01980146 52011 IEM_DS3505
ZBYN,2004-07-11 16:00,ZBYN 111600Z AUTO 36006KT 7SM 17/13 A2974 RMK T01700130 IEM_DS3505
ZBYN,2004-07-11 17:00,ZBYN 111700Z AUTO 34004KT 7SM 16/14 A2971 RMK T01600140 IEM_DS3505
ZBYN,2004-07-11 18:00,ZBYN 111800Z AUTO 32002KT 6SM 18/16 A2974 RMK 60008 SLP045 T01760163 52003 IEM_DS3505
ZBYN,2004-07-11 19:00,ZBYN 111900Z AUTO 34002KT 4SM 16/15 A2974 RMK T01600150 IEM_DS3505
ZBYN,2004-07-11 20:00,ZBYN 112000Z AUTO 36002KT 4SM 16/15 A2974 RMK T01600150 IEM_DS3505
ZBYN,2004-07-11 21:00,ZBYN 112100Z AUTO 32004KT 6SM 17/16 A2974 RMK 70028 SLP056 T01730160 52006 IEM_DS3505
ZBYN,2004-07-11 22:00,ZBYN 112200Z AUTO 31002KT 7SM 16/15 A2977 RMK T01600150 IEM_DS3505
ZBYN,2004-07-11 23:00,ZBYN 112300Z AUTO 35002KT 5SM 16/15 A2977 RMK T01600150 IEM_DS3505
ZBYN,2004-07-12 00:00,ZBYN 120000Z AUTO 32004KT 6SM 18/16 A2980 RMK 60016 70029 SLP075 T01830165 52015 IEM_DS3505
ZBYN,2004-07-12 01:00,ZBYN 120100Z AUTO 35004KT 6SM 18/15 A2980 RMK T01800150 IEM_DS3505
ZBYN,2004-07-12 02:00,ZBYN 120200Z AUTO 36004KT 6SM 18/15 A2980 RMK T01800150 IEM_DS3505
ZBYN,2004-07-12 03:00,ZBYN 120300Z AUTO 34004KT 6SM 22/18 A2980 RMK SLP072 T02180176 52003 IEM_DS3505
ZBYN,2004-07-12 04:00,ZBYN 120400Z AUTO 00000KT 7SM 20/14 A2980 RMK T02000140 IEM_DS3505
ZBYN,2004-07-12 05:00,ZBYN 120500Z AUTO 00000KT 6SM 21/14 A2980 RMK T02100140 IEM_DS3505
ZBYN,2004-07-12 06:00,ZBYN 120600Z AUTO 18002KT 7SM 24/16 A2980 RMK 60000 SLP065 T02370157 57007 IEM_DS3505
ZBYN,2004-07-12 07:00,ZBYN 120700Z AUTO 00000KT 7SM 21/14 A2980 RMK T02100140 IEM_DS3505
ZBYN,2004-07-12 08:00,ZBYN 120800Z AUTO 29004KT 7SM 20/16 A2980 RMK T02000160 IEM_DS3505
ZBYN,2004-07-12 09:00,ZBYN 120900Z AUTO 22004KT 11SM 23/16 A2977 RMK SLP063 T02260164 57004 IEM_DS3505
ZBYN,2004-07-12 10:00,ZBYN 121000Z AUTO 32002KT 7SM 22/15 A2977 RMK T02200150 IEM_DS3505
ZBYN,2004-07-12 11:00,ZBYN 121100Z AUTO 00000KT 6SM 20/14 A2977 RMK T02000140 IEM_DS3505
ZBYN,2004-07-12 12:00,ZBYN 121200Z AUTO 00000KT 9SM 21/17 A2980 RMK 60002 SLP071 T02070173 52006 IEM_DS3505
ZBYN,2004-07-12 13:00,ZBYN 121300Z AUTO 35002KT 7SM 20/16 A2980 RMK T02000160 IEM_DS3505
ZBYN,2004-07-12 14:00,ZBYN 121400Z AUTO 07004KT 6SM 19/15 A2983 RMK T01900150 IEM_DS3505
ZBYN,2004-07-12 15:00,ZBYN 121500Z AUTO 16004KT 9SM 18/17 A2983 RMK SLP084 T01850170 52014 IEM_DS3505
ZBYN,2004-07-12 16:00,ZBYN 121600Z AUTO 07006KT 6SM 19/15 A2983 RMK T01900150 IEM_DS3505
ZBYN,2004-07-12 17:00,ZBYN 121700Z AUTO 07008KT 6SM 19/15 A2983 RMK T01900150 IEM_DS3505
ZBYN,2004-07-12 18:00,ZBYN 121800Z AUTO 20002KT 9SM 18/16 A2983 RMK SLP078 T01800158 57004 IEM_DS3505
ZBYN,2004-07-12 19:00,ZBYN 121900Z AUTO 06004KT 5SM 17/15 A2983 RMK T01700150 IEM_DS3505
ZBYN,2004-07-12 20:00,ZBYN 122000Z AUTO 06004KT 4SM 18/15 A2983 RMK T01800150 IEM_DS3505
ZBYN,2004-07-12 21:00,ZBYN 122100Z AUTO 34002KT 6SM 18/16 A2983 RMK 70003 SLP077 T01810163 57002 IEM_DS3505
ZBYN,2004-07-12 22:00,ZBYN 122200Z AUTO 17002KT 1 1/4SM 17/15 A2983 RMK T01700150 IEM_DS3505
ZBYN,2004-07-12 23:00,ZBYN 122300Z AUTO 00000KT 1 1/2SM 18/15 A2983 RMK T01800150 IEM_DS3505
ZBYN,2004-07-13 00:00,ZBYN 130000Z AUTO 00000KT 4SM 20/17 A2985 RMK 70002 SLP088 T01960166 52010 IEM_DS3505
ZBYN,2004-07-13 01:00,ZBYN 130100Z AUTO 00000KT 1 1/4SM 19/15 A2985 RMK T01900150 IEM_DS3505
ZBYN,2004-07-13 02:00,ZBYN 130200Z AUTO 33006KT 1 1/4SM 19/16 A2985 RMK T01900160 IEM_DS3505
ZBYN,2004-07-13 03:00,ZBYN 130300Z AUTO 29002KT 4SM 19/17 A2988 RMK SLP102 T01880171 52008 IEM_DS3505
ZBYN,2004-07-13 04:00,ZBYN 130400Z AUTO 31002KT 4SM 18/15 A2985 RMK T01800150 IEM_DS3505
ZBYN,2004-07-13 05:00,ZBYN 130500Z AUTO 03002KT 5SM 19/15 A2985 RMK T01900150 IEM_DS3505
ZBYN,2004-07-13 06:00,ZBYN 130600Z AUTO 14004KT 5SM 22/16 A2985 RMK 60020 SLP087 T02200165 57010 IEM_DS3505
ZBYN,2004-07-13 07:00,ZBYN 130700Z AUTO 34010KT 7SM 18/15 A2983 RMK T01800150 IEM_DS3505
ZBYN,2004-07-13 08:00,ZBYN 130800Z AUTO 02002KT 7SM 20/14 A2983 RMK T02000140 IEM_DS3505
ZBYN,2004-07-13 09:00,ZBYN 130900Z AUTO 36004KT 7SM 23/16 A2980 RMK SLP069 T02280156 57015 IEM_DS3505
ZBYN,2004-07-13 10:00,ZBYN 131000Z AUTO 34004KT 7SM 21/14 A2980 RMK T02100140 IEM_DS3505
ZBYN,2004-07-13 11:00,ZBYN 131100Z AUTO 34006KT 6SM 21/14 A2980 RMK T02100140 IEM_DS3505
ZBYN,2004-07-13 12:00,ZBYN 131200Z AUTO 34002KT 9SM 21/15 A2983 RMK SLP076 T02070153 52006 IEM_DS3505
ZBYN,2004-07-13 13:00,ZBYN 131300Z AUTO 34006KT 6SM 18/14 A2983 RMK T01800140 IEM_DS3505
ZBYN,2004-07-13 14:00,ZBYN 131400Z AUTO 33004KT 6SM 18/15 A2985 RMK T01800150 IEM_DS3505
ZBYN,2004-07-13 15:00,ZBYN 131500Z AUTO 34004KT 7SM 20/15 A2985 RMK SLP094 T01950152 52013 IEM_DS3505
ZBYN,2004-07-13 16:00,ZBYN 131600Z AUTO 35004KT 6SM 18/14 A2985 RMK T01800140 IEM_DS3505
ZBYN,2004-07-13 17:00,ZBYN 131700Z AUTO 34004KT 6SM 18/14 A2983 RMK T01800140 IEM_DS3505
ZBYN,2004-07-13 18:00,ZBYN 131800Z AUTO 34004KT 6SM 19/15 A2983 RMK SLP080 T01900149 57009 IEM_DS3505
ZBYN,2004-07-13 19:00,ZBYN 131900Z AUTO 34002KT 6SM 17/15 A2983 RMK T01700150 IEM_DS3505
ZBYN,2004-07-13 20:00,ZBYN 132000Z AUTO 7SM 17/14 A2983 RMK T01700140 IEM_DS3505
ZBYN,2004-07-13 21:00,ZBYN 132100Z AUTO 32002KT 6SM 18/16 A2983 RMK 70019 SLP080 T01830156 54000 IEM_DS3505
ZBYN,2004-07-13 22:00,ZBYN 132200Z AUTO 05002KT 5SM 17/14 A2983 RMK T01700140 IEM_DS3505
ZBYN,2004-07-13 23:00,ZBYN 132300Z AUTO 00000KT 2 1/2SM 17/15 A2983 RMK T01700150 IEM_DS3505
ZBYN,2004-07-14 00:00,ZBYN 140000Z AUTO 14002KT 6SM 18/17 A2985 RMK 70019 SLP092 T01850168 52009 IEM_DS3505
ZBYN,2004-07-14 01:00,ZBYN 140100Z AUTO 00000KT 5SM 18/15 A2985 RMK T01800150 IEM_DS3505
ZBYN,2004-07-14 02:00,ZBYN 140200Z AUTO 11002KT 5SM 18/15 A2985 RMK T01800150 IEM_DS3505
ZBYN,2004-07-14 03:00,ZBYN 140300Z AUTO 11004KT 6SM 22/16 A2985 RMK SLP088 T02190162 57001 IEM_DS3505
ZBYN,2004-07-14 06:00,ZBYN 140600Z AUTO 09006KT 6SM 25/18 A2980 RMK SLP069 T02470179 57014 IEM_DS3505
ZBYN,2004-07-14 07:00,ZBYN 140700Z AUTO 09004KT 7SM 24/15 A2980 RMK T02400150 IEM_DS3505
ZBYN,2004-07-14 08:00,ZBYN 140800Z AUTO 11004KT 7SM 24/14 A2977 RMK T02400140 IEM_DS3505
ZBYN,2004-07-14 09:00,ZBYN 140900Z AUTO 16004KT 11SM 26/15 A2977 RMK SLP053 T02610152 57014 IEM_DS3505
ZBYN,2004-07-14 10:00,ZBYN 141000Z AUTO 06004KT 6SM 25/13 A2977 RMK T02500130 IEM_DS3505
ZBYN,2004-07-14 11:00,ZBYN 141100Z AUTO 07006KT 7SM 24/14 A2980 RMK T02400140 IEM_DS3505
ZBYN,2004-07-14 12:00,ZBYN 141200Z AUTO 09004KT 9SM 23/16 A2980 RMK SLP071 T02270158 52012 IEM_DS3505
ZBYN,2004-07-14 13:00,ZBYN 141300Z AUTO 09006KT 6SM 21/14 A2983 RMK T02100140 IEM_DS3505
ZBYN,2004-07-14 14:00,ZBYN 141400Z AUTO 09008KT 6SM 20/15 A2985 RMK T02000150 IEM_DS3505
ZBYN,2004-07-14 15:00,ZBYN 141500Z AUTO 04004KT 6SM 21/16 A2985 RMK SLP084 T02110159 52015 IEM_DS3505
ZBYN,2004-07-14 16:00,ZBYN 141600Z AUTO 08008KT 6SM 19/14 A2985 RMK T01900140 IEM_DS3505
ZBYN,2004-07-14 17:00,ZBYN 141700Z AUTO 03004KT 6SM 19/14 A2985 RMK T01900140 IEM_DS3505
ZBYN,2004-07-14 18:00,ZBYN 141800Z AUTO 36002KT 6SM 19/16 A2983 RMK SLP077 T01930158 57005 IEM_DS3505
ZBYN,2004-07-14 19:00,ZBYN 141900Z AUTO 00000KT 6SM 16/14 A2983 RMK T01600140 IEM_DS3505
ZBYN,2004-07-14 20:00,ZBYN 142000Z AUTO 13002KT 6SM 16/13 A2983 RMK T01600130 IEM_DS3505
ZBYN,2004-07-14 21:00,ZBYN 142100Z AUTO 36002KT 5SM 18/15 A2985 RMK SLP083 T01770150 52005 IEM_DS3505
ZBYN,2004-07-14 22:00,ZBYN 142200Z AUTO 00000KT 6SM 16/14 A2985 RMK T01600140 IEM_DS3505
ZBYN,2004-07-14 23:00,ZBYN 142300Z AUTO 00000KT 4SM 17/15 A2985 RMK T01700150 IEM_DS3505
ZBYN,2004-07-15 00:00,ZBYN 150000Z AUTO 32004KT 4SM 21/16 A2985 RMK SLP088 T02070157 52004 IEM_DS3505
ZBYN,2004-07-15 01:00,ZBYN 150100Z AUTO 00000KT 21/15 A2985 RMK T02100150 IEM_DS3505
ZBYN,2004-07-15 02:00,ZBYN 150200Z AUTO 21/15 A2988 RMK T02100150 IEM_DS3505
ZBYN,2004-07-15 03:00,ZBYN 150300Z AUTO 16002KT 4SM 24/17 A2985 RMK SLP083 T02400168 57002 IEM_DS3505
ZBYN,2004-07-15 04:00,ZBYN 150400Z AUTO 23002KT 23/15 A2985 RMK T02300150 IEM_DS3505
ZBYN,2004-07-15 05:00,ZBYN 150500Z AUTO 6SM 23/15 A2985 RMK T02300150 IEM_DS3505
ZBYN,2004-07-15 06:00,ZBYN 150600Z AUTO 20004KT 4SM 25/17 A2983 RMK SLP071 T02520174 57012 IEM_DS3505
ZBYN,2004-07-15 07:00,ZBYN 150700Z AUTO 21002KT 6SM 23/16 A2980 RMK T02300160 IEM_DS3505
ZBYN,2004-07-15 08:00,ZBYN 150800Z AUTO 19002KT 23/17 A2980 RMK T02300170 IEM_DS3505
ZBYN,2004-07-15 09:00,ZBYN 150900Z AUTO 21004KT 4SM 22/17 A2980 RMK T02200170 IEM_DS3505
ZBYN,2004-07-15 10:00,ZBYN 151000Z AUTO 21004KT 2 1/2SM 21/17 A2980 RMK T02100170 IEM_DS3505
ZBYN,2004-07-15 11:00,ZBYN 151100Z AUTO 19002KT 1 1/2SM 20/17 A2983 RMK T02000170 IEM_DS3505
ZBYN,2004-07-15 12:00,ZBYN 151200Z AUTO 18008KT 3SM 21/18 A2983 RMK 60000 SLP081 T02070175 52011 IEM_DS3505
ZBYN,2004-07-15 13:00,ZBYN 151300Z AUTO 19002KT 1 1/4SM 19/16 A2985 RMK T01900160 IEM_DS3505
ZBYN,2004-07-15 14:00,ZBYN 151400Z AUTO 2SM 18/16 A2985 RMK T01800160 IEM_DS3505
ZBYN,2004-07-15 15:00,ZBYN 151500Z AUTO 11004KT 3SM 19/18 A2985 RMK SLP088 T01920179 52009 IEM_DS3505
ZBYN,2004-07-15 16:00,ZBYN 151600Z AUTO 00000KT 1SM 18/17 A2985 RMK T01800170 IEM_DS3505
ZBYN,2004-07-15 17:00,ZBYN 151700Z AUTO 00000KT 1 1/4SM 18/16 A2985 RMK T01800160 IEM_DS3505
ZBYN,2004-07-15 18:00,ZBYN 151800Z AUTO 32002KT 1 1/4SM 19/18 A2983 RMK 60004 SLP078 T01860176 57009 IEM_DS3505
ZBYN,2004-07-15 19:00,ZBYN 151900Z AUTO 00000KT 1 1/4SM 17/16 A2983 RMK T01700160 IEM_DS3505
ZBYN,2004-07-15 20:00,ZBYN 152000Z AUTO 00000KT 1SM 17/16 A2980 RMK T01700160 IEM_DS3505
ZBYN,2004-07-15 21:00,ZBYN 152100Z AUTO 32002KT 1 1/4SM 18/16 A2980 RMK 70005 SLP070 T01790162 57011 IEM_DS3505
ZBYN,2004-07-15 22:00,ZBYN 152200Z AUTO 00000KT 3SM 17/15 A2980 RMK T01700150 IEM_DS3505
ZBYN,2004-07-15 23:00,ZBYN 152300Z AUTO 00000KT 4SM 18/15 A2980 RMK T01800150 IEM_DS3505
ZBYN,2004-07-16 00:00,ZBYN 160000Z AUTO 36002KT 2 1/2SM 21/16 A2983 RMK 60002 70005 SLP075 T02070165 52005 IEM_DS3505
ZBYN,2004-07-16 01:00,ZBYN 160100Z AUTO 6SM 20/15 A2980 RMK T02000150 IEM_DS3505
ZBYN,2004-07-16 02:00,ZBYN 160200Z AUTO 6SM 22/14 A2980 RMK T02200140 IEM_DS3505
ZBYN,2004-07-16 03:00,ZBYN 160300Z AUTO 32004KT 3SM 26/17 A2977 RMK SLP050 T02610169 57017 IEM_DS3505
ZBYN,2004-07-16 04:00,ZBYN 160400Z AUTO 18004KT 6SM 24/16 A2977 RMK T02400160 IEM_DS3505
ZBYN,2004-07-16 05:00,ZBYN 160500Z AUTO 16002KT 7SM 25/15 A2974 RMK T02500150 IEM_DS3505
ZBYN,2004-07-16 06:00,ZBYN 160600Z AUTO 16006KT 5SM 28/17 A2971 RMK SLP030 T02770173 57017 IEM_DS3505
ZBYN,2004-07-16 07:00,ZBYN 160700Z AUTO 21004KT 7SM 26/16 A2971 RMK T02600160 IEM_DS3505
ZBYN,2004-07-16 08:00,ZBYN 160800Z AUTO 26004KT 6SM 26/16 A2971 RMK T02600160 IEM_DS3505
ZBYN,2004-07-16 09:00,ZBYN 160900Z AUTO 20004KT 9SM 27/17 A2968 RMK SLP024 T02740167 57007 IEM_DS3505
ZBYN,2004-07-16 10:00,ZBYN 161000Z AUTO 00000KT 6SM 25/16 A2968 RMK T02500160 IEM_DS3505
ZBYN,2004-07-16 11:00,ZBYN 161100Z AUTO 00000KT 6SM 24/18 A2971 RMK T02400180 IEM_DS3505
ZBYN,2004-07-16 12:00,ZBYN 161200Z AUTO 09002KT 7SM 24/19 A2971 RMK SLP033 T02370188 52007 IEM_DS3505
ZBYN,2004-07-16 13:00,ZBYN 161300Z AUTO 07004KT 6SM 22/14 A2971 RMK T02200140 IEM_DS3505
ZBYN,2004-07-16 14:00,ZBYN 161400Z AUTO 10004KT 6SM 20/15 A2971 RMK T02000150 IEM_DS3505
ZBYN,2004-07-16 15:00,ZBYN 161500Z AUTO 16002KT 6SM 20/16 A2971 RMK SLP032 T02050155 52002 IEM_DS3505
ZBYN,2004-07-16 16:00,ZBYN 161600Z AUTO 10004KT 6SM 19/15 A2971 RMK T01900150 IEM_DS3505
ZBYN,2004-07-16 17:00,ZBYN 161700Z AUTO 00000KT 6SM 18/15 A2971 RMK T01800150 IEM_DS3505
ZBYN,2004-07-16 18:00,ZBYN 161800Z AUTO 36002KT 6SM 21/16 A2968 RMK SLP019 T02130161 57008 IEM_DS3505
ZBYN,2004-07-16 19:00,ZBYN 161900Z AUTO 22002KT 6SM 18/15 A2968 RMK T01800150 IEM_DS3505
ZBYN,2004-07-16 20:00,ZBYN 162000Z AUTO 21002KT 6SM 17/15 A2968 RMK T01700150 IEM_DS3505
ZBYN,2004-07-16 21:00,ZBYN 162100Z AUTO 07002KT 6SM 19/16 A2968 RMK SLP017 T01860164 57006 IEM_DS3505
ZBYN,2004-07-16 22:00,ZBYN 162200Z AUTO 02002KT 5SM 17/15 A2968 RMK T01700150 IEM_DS3505
ZBYN,2004-07-16 23:00,ZBYN 162300Z AUTO 13002KT 3SM 17/16 A2965 RMK T01700160 IEM_DS3505
ZBYN,2004-07-17 00:00,ZBYN 170000Z AUTO 29004KT 5SM 22/17 A2968 RMK SLP019 T02190173 52001 IEM_DS3505
ZBYN,2004-07-17 01:00,ZBYN 170100Z AUTO 00000KT 3SM 21/16 A2968 RMK T02100160 IEM_DS3505
ZBYN,2004-07-17 02:00,ZBYN 170200Z AUTO 3SM 24/15 A2968 RMK T02400150 IEM_DS3505
ZBYN,2004-07-17 03:00,ZBYN 170300Z AUTO 29002KT 5SM 24/17 A2965 RMK SLP019 T02390174 57002 IEM_DS3505
ZBYN,2004-07-17 04:00,ZBYN 170400Z AUTO 04002KT 7SM 23/15 A2965 RMK T02300150 IEM_DS3505
ZBYN,2004-07-17 05:00,ZBYN 170500Z AUTO 09004KT 6SM 25/14 A2962 RMK T02500140 IEM_DS3505
ZBYN,2004-07-17 06:00,ZBYN 170600Z AUTO 14006KT 6SM 27/16 A2962 RMK SLP996 T02690162 57016 IEM_DS3505
ZBYN,2004-07-17 07:00,ZBYN 170700Z AUTO 6SM 25/14 A2962 RMK T02500140 IEM_DS3505
ZBYN,2004-07-17 08:00,ZBYN 170800Z AUTO 13004KT 7SM 24/16 A2962 RMK T02400160 IEM_DS3505
ZBYN,2004-07-17 09:00,ZBYN 170900Z AUTO 20002KT 6SM 24/18 A2962 RMK SLP002 T02410183 57002 IEM_DS3505
ZBYN,2004-07-17 10:00,ZBYN 171000Z AUTO 15004KT 4SM 22/16 A2962 RMK T02200160 IEM_DS3505
ZBYN,2004-07-17 11:00,ZBYN 171100Z AUTO 25002KT 3SM 20/17 A2965 RMK T02000170 IEM_DS3505
ZBYN,2004-07-17 12:00,ZBYN 171200Z AUTO 32002KT 6SM 19/18 A2965 RMK 60012 SLP019 T01930176 52014 IEM_DS3505
ZBYN,2004-07-17 13:00,ZBYN 171300Z AUTO 32002KT 4SM 18/16 A2965 RMK T01800160 IEM_DS3505
ZBYN,2004-07-17 14:00,ZBYN 171400Z AUTO 27002KT 7SM 18/15 A2965 RMK T01800150 IEM_DS3505
ZBYN,2004-07-17 15:00,ZBYN 171500Z AUTO 32004KT 6SM 20/16 A2965 RMK SLP013 T01970160 57002 IEM_DS3505
ZBYN,2004-07-17 16:00,ZBYN 171600Z AUTO 31002KT 6SM 18/15 A2965 RMK T01800150 IEM_DS3505
ZBYN,2004-07-17 17:00,ZBYN 171700Z AUTO 00000KT 5SM 17/15 A2962 RMK T01700150 IEM_DS3505
ZBYN,2004-07-17 18:00,ZBYN 171800Z AUTO 16002KT 6SM 19/17 A2962 RMK 60002 SLP998 T01890167 57011 IEM_DS3505
ZBYN,2004-07-17 19:00,ZBYN 171900Z AUTO 00000KT 4SM 18/16 A2962 RMK T01800160 IEM_DS3505
ZBYN,2004-07-17 20:00,ZBYN 172000Z AUTO 00000KT 4SM 17/16 A2959 RMK T01700160 IEM_DS3505
ZBYN,2004-07-17 21:00,ZBYN 172100Z AUTO 11002KT 3SM 18/17 A2959 RMK 70015 SLP998 T01840171 57005 IEM_DS3505
ZBYN,2004-07-17 22:00,ZBYN 172200Z AUTO 00000KT 3SM 17/16 A2959 RMK T01700160 IEM_DS3505
ZBYN,2004-07-17 23:00,ZBYN 172300Z AUTO 11002KT 2 1/2SM 18/16 A2962 RMK T01800160 IEM_DS3505
ZBYN,2004-07-18 00:00,ZBYN 180000Z AUTO 14002KT 2SM 20/17 A2962 RMK 70015 SLP005 T02040168 52003 IEM_DS3505
ZBYN,2004-07-18 01:00,ZBYN 180100Z AUTO 11002KT 3SM 20/15 A2959 RMK T02000150 IEM_DS3505
ZBYN,2004-07-18 02:00,ZBYN 180200Z AUTO 20002KT 22/15 A2959 RMK T02200150 IEM_DS3505
ZBYN,2004-07-18 03:00,ZBYN 180300Z AUTO 16004KT 4SM 25/17 A2959 RMK SLP990 T02460171 57007 IEM_DS3505
ZBYN,2004-07-18 04:00,ZBYN 180400Z AUTO 24/16 A2956 RMK T02400160 IEM_DS3505
ZBYN,2004-07-18 05:00,ZBYN 180500Z AUTO 25/16 A2956 RMK T02500160 IEM_DS3505
ZBYN,2004-07-18 06:00,ZBYN 180600Z AUTO 29002KT 4SM 27/16 A2953 RMK SLP975 T02710158 57012 IEM_DS3505
ZBYN,2004-07-18 07:00,ZBYN 180700Z AUTO 6SM 27/13 A2953 RMK T02700130 IEM_DS3505
ZBYN,2004-07-18 08:00,ZBYN 180800Z AUTO 6SM 27/13 A2950 RMK T02700130 IEM_DS3505
ZBYN,2004-07-18 09:00,ZBYN 180900Z AUTO 36002KT 4SM 28/17 A2950 RMK SLP961 T02750171 57013 IEM_DS3505
ZBYN,2004-07-18 10:00,ZBYN 181000Z AUTO 14002KT 6SM 26/16 A2950 RMK T02600160 IEM_DS3505
ZBYN,2004-07-18 11:00,ZBYN 181100Z AUTO 13002KT 6SM 24/18 A2953 RMK T02400180 IEM_DS3505
ZBYN,2004-07-18 12:00,ZBYN 181200Z AUTO 02002KT 6SM 25/16 A2956 RMK SLP981 T02490163 52018 IEM_DS3505
ZBYN,2004-07-18 13:00,ZBYN 181300Z AUTO 36004KT 6SM 22/15 A2956 RMK T02200150 IEM_DS3505
ZBYN,2004-07-18 14:00,ZBYN 181400Z AUTO 35002KT 6SM 21/16 A2956 RMK T02100160 IEM_DS3505
ZBYN,2004-07-18 15:00,ZBYN 181500Z AUTO 09002KT 6SM 22/16 A2956 RMK SLP983 T02250165 52004 IEM_DS3505
ZBYN,2004-07-18 16:00,ZBYN 181600Z AUTO 00000KT 6SM 19/16 A2956 RMK T01900160 IEM_DS3505
ZBYN,2004-07-18 17:00,ZBYN 181700Z AUTO 00000KT 6SM 18/16 A2959 RMK T01800160 IEM_DS3505
ZBYN,2004-07-18 18:00,ZBYN 181800Z AUTO 09002KT 5SM 20/17 A2959 RMK SLP986 T02010173 52003 IEM_DS3505
ZBYN,2004-07-18 19:00,ZBYN 181900Z AUTO 00000KT 5SM 18/16 A2959 RMK T01800160 IEM_DS3505
ZBYN,2004-07-18 20:00,ZBYN 182000Z AUTO 09002KT 4SM 18/16 A2959 RMK T01800160 IEM_DS3505
ZBYN,2004-07-18 21:00,ZBYN 182100Z AUTO 00000KT 5SM 19/17 A2959 RMK SLP992 T01940172 52005 IEM_DS3505
ZBYN,2004-07-18 22:00,ZBYN 182200Z AUTO 00000KT 4SM 18/16 A2959 RMK T01800160 IEM_DS3505
ZBYN,2004-07-18 23:00,ZBYN 182300Z AUTO 00000KT 2 1/2SM 19/16 A2962 RMK T01900160 IEM_DS3505
ZBYN,2004-07-19 00:00,ZBYN 190000Z AUTO 00000KT 5SM 21/17 A2962 RMK SLP004 T02130169 52010 IEM_DS3505
ZBYN,2004-07-19 01:00,ZBYN 190100Z AUTO 00000KT 3SM 21/16 A2962 RMK T02100160 IEM_DS3505
ZBYN,2004-07-19 02:00,ZBYN 190200Z AUTO 22/16 A2962 RMK T02200160 IEM_DS3505
ZBYN,2004-07-19 03:00,ZBYN 190300Z AUTO 14002KT 5SM 26/18 A2962 RMK SLP999 T02630177 57001 IEM_DS3505
ZBYN,2004-07-19 04:00,ZBYN 190400Z AUTO 5SM 25/15 A2962 RMK T02500150 IEM_DS3505
ZBYN,2004-07-19 05:00,ZBYN 190500Z AUTO 27002KT 7SM 27/13 A2959 RMK T02700130 IEM_DS3505
ZBYN,2004-07-19 06:00,ZBYN 190600Z AUTO 18004KT 5SM 30/17 A2959 RMK SLP983 T02990170 57013 IEM_DS3505
ZBYN,2004-07-19 08:00,ZBYN 190800Z AUTO 21002KT 7SM 28/13 A2959 RMK T02800130 IEM_DS3505
ZBYN,2004-07-19 09:00,ZBYN 190900Z AUTO 07004KT 6SM 28/18 A2959 RMK SLP988 T02770184 52001 IEM_DS3505
ZBYN,2004-07-19 10:00,ZBYN 191000Z AUTO 09004KT 6SM 27/16 A2959 RMK T02700160 IEM_DS3505
ZBYN,2004-07-19 11:00,ZBYN 191100Z AUTO 14002KT 6SM 25/16 A2962 RMK T02500160 IEM_DS3505
ZBYN,2004-07-19 12:00,ZBYN 191200Z AUTO 20004KT 6SM 25/17 A2962 RMK SLP002 T02530170 52012 IEM_DS3505
ZBYN,2004-07-19 13:00,ZBYN 191300Z AUTO 00000KT 6SM 23/17 A2965 RMK T02300170 IEM_DS3505
ZBYN,2004-07-19 14:00,ZBYN 191400Z AUTO 17002KT 6SM 22/16 A2968 RMK T02200160 IEM_DS3505
ZBYN,2004-07-19 15:00,ZBYN 191500Z AUTO 18002KT 6SM 22/18 A2968 RMK SLP016 T02210179 52015 IEM_DS3505
ZBYN,2004-07-19 16:00,ZBYN 191600Z AUTO 13006KT 4SM 19/16 A2968 RMK T01900160 IEM_DS3505
ZBYN,2004-07-19 17:00,ZBYN 191700Z AUTO 11006KT 6SM 19/16 A2968 RMK T01900160 IEM_DS3505
ZBYN,2004-07-19 18:00,ZBYN 191800Z AUTO 32002KT 6SM 20/18 A2968 RMK SLP017 T01970180 52003 IEM_DS3505
ZBYN,2004-07-19 19:00,ZBYN 191900Z AUTO 00000KT 4SM 18/16 A2968 RMK T01800160 IEM_DS3505
ZBYN,2004-07-19 20:00,ZBYN 192000Z AUTO 07004KT 4SM 20/17 A2971 RMK T02000170 IEM_DS3505
ZBYN,2004-07-19 21:00,ZBYN 192100Z AUTO 32002KT 6SM 20/18 A2971 RMK SLP028 T02030175 52007 IEM_DS3505
ZBYN,2004-07-19 22:00,ZBYN 192200Z AUTO 07004KT 1SM 20/17 A2971 RMK T02000170 IEM_DS3505
ZBYN,2004-07-19 23:00,ZBYN 192300Z AUTO 08006KT 1SM 21/17 A2974 RMK T02100170 IEM_DS3505
ZBYN,2004-07-20 00:00,ZBYN 200000Z AUTO 32004KT 5SM 23/19 A2974 RMK SLP041 T02290189 52013 IEM_DS3505
ZBYN,2004-07-20 01:00,ZBYN 200100Z AUTO 06004KT 1SM 23/18 A2977 RMK T02300180 IEM_DS3505
ZBYN,2004-07-20 02:00,ZBYN 200200Z AUTO 08006KT 1 1/2SM 24/18 A2974 RMK T02400180 IEM_DS3505
ZBYN,2004-07-20 03:00,ZBYN 200300Z AUTO 14002KT 5SM 27/20 A2977 RMK SLP043 T02680199 52002 IEM_DS3505
ZBYN,2004-07-20 04:00,ZBYN 200400Z AUTO 11004KT 27/17 A2974 RMK T02700170 IEM_DS3505
ZBYN,2004-07-20 05:00,ZBYN 200500Z AUTO 05004KT 26/16 A2974 RMK T02600160 IEM_DS3505
ZBYN,2004-07-20 06:00,ZBYN 200600Z AUTO 18008KT 5SM 26/19 A2985 RMK SLP040 T02590193 57007 IEM_DS3505
ZBYN,2004-07-20 07:00,ZBYN 200700Z AUTO 21002KT 26/18 A2971 RMK T02600180 IEM_DS3505
ZBYN,2004-07-20 08:00,ZBYN 200800Z AUTO 15004KT 4SM 25/18 A2974 RMK T02500180 IEM_DS3505
ZBYN,2004-07-20 09:00,ZBYN 200900Z AUTO 14004KT 5SM 22/21 A2974 RMK SLP043 T02210207 57002 IEM_DS3505
ZBYN,2004-07-20 10:00,ZBYN 201000Z AUTO 10004KT 4SM 22/20 A2974 RMK T02200200 IEM_DS3505
ZBYN,2004-07-20 11:00,ZBYN 201100Z AUTO 05004KT 7SM 23/19 A2974 RMK T02300190 IEM_DS3505
ZBYN,2004-07-20 12:00,ZBYN 201200Z AUTO 07006KT 5SM 24/19 A2977 RMK 60028 SLP049 T02350192 52011 IEM_DS3505
ZBYN,2004-07-20 13:00,ZBYN 201300Z AUTO 08008KT 7SM 22/17 A2977 RMK T02200170 IEM_DS3505
ZBYN,2004-07-20 14:00,ZBYN 201400Z AUTO 09006KT 6SM 22/17 A2980 RMK T02200170 IEM_DS3505
ZBYN,2004-07-20 15:00,ZBYN 201500Z AUTO 11006KT 5SM 23/19 A2980 RMK SLP055 T02300194 52011 IEM_DS3505
ZBYN,2004-07-20 16:00,ZBYN 201600Z AUTO 10006KT 7SM 21/18 A2980 RMK T02100180 IEM_DS3505
ZBYN,2004-07-20 17:00,ZBYN 201700Z AUTO 09004KT 6SM 21/18 A2980 RMK T02100180 IEM_DS3505
ZBYN,2004-07-20 18:00,ZBYN 201800Z AUTO 11004KT 6SM 22/19 A2980 RMK 60000 SLP057 T02240194 57001 IEM_DS3505
ZBYN,2004-07-20 19:00,ZBYN 201900Z AUTO 11004KT 6SM 21/18 A2980 RMK T02100180 IEM_DS3505
ZBYN,2004-07-20 20:00,ZBYN 202000Z AUTO 10004KT 6SM 21/18 A2980 RMK T02100180 IEM_DS3505
ZBYN,2004-07-20 21:00,ZBYN 202100Z AUTO 14002KT 6SM 22/20 A2983 RMK 70029 SLP075 T02190195 52011 IEM_DS3505
ZBYN,2004-07-20 22:00,ZBYN 202200Z AUTO 00000KT 6SM 20/18 A2983 RMK T02000180 IEM_DS3505
ZBYN,2004-07-20 23:00,ZBYN 202300Z AUTO 12002KT 6SM 21/18 A2985 RMK T02100180 IEM_DS3505
ZBYN,2004-07-21 00:00,ZBYN 210000Z AUTO 14004KT 6SM 24/20 A2985 RMK 60000 70029 SLP079 T02370202 52008 IEM_DS3505
ZBYN,2004-07-21 01:00,ZBYN 210100Z AUTO 14002KT 4SM 23/18 A2988 RMK T02300180 IEM_DS3505
ZBYN,2004-07-21 02:00,ZBYN 210200Z AUTO 14006KT 6SM 25/18 A2988 RMK T02500180 IEM_DS3505
ZBYN,2004-07-21 03:00,ZBYN 210300Z AUTO 16006KT 6SM 27/20 A2988 RMK SLP084 T02670203 52008 IEM_DS3505
ZBYN,2004-07-21 04:00,ZBYN 210400Z AUTO 15004KT 7SM 26/17 A2988 RMK T02600170 IEM_DS3505
ZBYN,2004-07-21 05:00,ZBYN 210500Z AUTO 17004KT 7SM 27/18 A2985 RMK T02700180 IEM_DS3505
ZBYN,2004-07-21 06:00,ZBYN 210600Z AUTO 11006KT 9SM 29/20 A2985 RMK SLP069 T02900196 57011 IEM_DS3505
ZBYN,2004-07-21 07:00,ZBYN 210700Z AUTO 13004KT 7SM 28/17 A2983 RMK T02800170 IEM_DS3505
ZBYN,2004-07-21 08:00,ZBYN 210800Z AUTO 16002KT 7SM 28/17 A2983 RMK T02800170 IEM_DS3505
ZBYN,2004-07-21 09:00,ZBYN 210900Z AUTO 09006KT 11SM 26/21 A2983 RMK SLP065 T02590207 57009 IEM_DS3505
ZBYN,2004-07-21 10:00,ZBYN 211000Z AUTO 14004KT 7SM 26/19 A2983 RMK T02600190 IEM_DS3505
ZBYN,2004-07-21 11:00,ZBYN 211100Z AUTO 15006KT 7SM 26/19 A2983 RMK T02600190 IEM_DS3505
ZBYN,2004-07-21 12:00,ZBYN 211200Z AUTO 14002KT 6SM 25/21 A2985 RMK 60001 SLP076 T02530212 52012 IEM_DS3505
ZBYN,2004-07-21 13:00,ZBYN 211300Z AUTO 14008KT 7SM 24/17 A2985 RMK T02400170 IEM_DS3505
ZBYN,2004-07-21 14:00,ZBYN 211400Z AUTO 14006KT 7SM 24/17 A2988 RMK T02400170 IEM_DS3505
ZBYN,2004-07-21 15:00,ZBYN 211500Z AUTO 11002KT 6SM 24/20 A2988 RMK SLP083 T02380197 52008 IEM_DS3505
ZBYN,2004-07-21 16:00,ZBYN 211600Z AUTO 14004KT 6SM 23/18 A2988 RMK T02300180 IEM_DS3505
ZBYN,2004-07-21 17:00,ZBYN 211700Z AUTO 14004KT 6SM 22/18 A2988 RMK T02200180 IEM_DS3505
ZBYN,2004-07-21 18:00,ZBYN 211800Z AUTO 11002KT 6SM 23/20 A2988 RMK SLP079 T02300202 57001 IEM_DS3505
ZBYN,2004-07-21 19:00,ZBYN 211900Z AUTO 00000KT 6SM 22/18 A2988 RMK T02200180 IEM_DS3505
ZBYN,2004-07-21 20:00,ZBYN 212000Z AUTO 00000KT 6SM 20/18 A2985 RMK T02000180 IEM_DS3505
ZBYN,2004-07-21 21:00,ZBYN 212100Z AUTO 11002KT 6SM 22/20 A2985 RMK 70001 SLP079 T02250200 57005 IEM_DS3505
ZBYN,2004-07-21 22:00,ZBYN 212200Z AUTO 14002KT 4SM 20/18 A2985 RMK T02000180 IEM_DS3505
ZBYN,2004-07-21 23:00,ZBYN 212300Z AUTO 07002KT 4SM 22/18 A2985 RMK T02200180 IEM_DS3505
ZBYN,2004-07-22 00:00,ZBYN 220000Z AUTO 14006KT 6SM 24/20 A2988 RMK 70001 SLP083 T02450204 52005 IEM_DS3505
ZBYN,2004-07-22 01:00,ZBYN 220100Z AUTO 15004KT 6SM 24/19 A2988 RMK T02400190 IEM_DS3505
ZBYN,2004-07-22 02:00,ZBYN 220200Z AUTO 14002KT 6SM 26/18 A2988 RMK T02600180 IEM_DS3505
ZBYN,2004-07-22 03:00,ZBYN 220300Z AUTO 16008KT 6SM 28/21 A2988 RMK SLP075 T02820207 57004 IEM_DS3505
ZBYN,2004-07-22 04:00,ZBYN 220400Z AUTO 19004KT 7SM 27/17 A2985 RMK T02700170 IEM_DS3505
ZBYN,2004-07-22 05:00,ZBYN 220500Z AUTO 16004KT 6SM 28/18 A2983 RMK T02800180 IEM_DS3505
ZBYN,2004-07-22 06:00,ZBYN 220600Z AUTO 16006KT 6SM 30/21 A2983 RMK SLP055 T02960207 57018 IEM_DS3505
ZBYN,2004-07-22 07:00,ZBYN 220700Z AUTO 18004KT 7SM 29/18 A2980 RMK T02900180 IEM_DS3505
ZBYN,2004-07-22 08:00,ZBYN 220800Z AUTO 19006KT 7SM 29/17 A2980 RMK T02900170 IEM_DS3505
ZBYN,2004-07-22 09:00,ZBYN 220900Z AUTO 20006KT 6SM 30/21 A2977 RMK SLP043 T03000206 57011 IEM_DS3505
ZBYN,2004-07-22 10:00,ZBYN 221000Z AUTO 18004KT 7SM 29/19 A2977 RMK T02900190 IEM_DS3505
ZBYN,2004-07-22 11:00,ZBYN 221100Z AUTO 15002KT 7SM 28/19 A2977 RMK T02800190 IEM_DS3505
ZBYN,2004-07-22 12:00,ZBYN 221200Z AUTO 18006KT 9SM 28/20 A2977 RMK SLP042 T02820202 54000 IEM_DS3505
ZBYN,2004-07-22 13:00,ZBYN 221300Z AUTO 14004KT 7SM 25/19 A2980 RMK T02500190 IEM_DS3505
ZBYN,2004-07-22 14:00,ZBYN 221400Z AUTO 13002KT 7SM 25/19 A2980 RMK T02500190 IEM_DS3505
ZBYN,2004-07-22 15:00,ZBYN 221500Z AUTO 16004KT 9SM 26/21 A2980 RMK SLP053 T02550207 52011 IEM_DS3505
ZBYN,2004-07-22 16:00,ZBYN 221600Z AUTO 16002KT 6SM 25/19 A2980 RMK T02500190 IEM_DS3505
ZBYN,2004-07-22 17:00,ZBYN 221700Z AUTO 16004KT 6SM 24/20 A2980 RMK T02400200 IEM_DS3505
ZBYN,2004-07-22 18:00,ZBYN 221800Z AUTO 14002KT 9SM 24/20 RMK SLP047 T02440205 57005 IEM_DS3505
ZBYN,2004-07-22 19:00,ZBYN 221900Z AUTO 13004KT 6SM 23/19 A2980 RMK T02300190 IEM_DS3505
ZBYN,2004-07-22 20:00,ZBYN 222000Z AUTO 13004KT 6SM 22/19 A2980 RMK T02200190 IEM_DS3505
ZBYN,2004-07-22 21:00,ZBYN 222100Z AUTO 16006KT 6SM 24/21 A2980 RMK SLP045 T02370206 57002 IEM_DS3505
ZBYN,2004-07-22 22:00,ZBYN 222200Z AUTO 13004KT 4SM 22/19 A2980 RMK T02200190 IEM_DS3505
ZBYN,2004-07-22 23:00,ZBYN 222300Z AUTO 14004KT 5SM 24/19 A2980 RMK T02400190 IEM_DS3505
ZBYN,2004-07-23 00:00,ZBYN 230000Z AUTO 16004KT 5SM 26/22 A2980 RMK SLP048 T02560217 52003 IEM_DS3505
ZBYN,2004-07-23 01:00,ZBYN 230100Z AUTO 18004KT 26/20 A2980 RMK T02600200 IEM_DS3505
ZBYN,2004-07-23 02:00,ZBYN 230200Z AUTO 19004KT 6SM 27/20 A2977 RMK T02700200 IEM_DS3505
ZBYN,2004-07-23 03:00,ZBYN 230300Z AUTO 20010KT 6SM 30/21 A2977 RMK SLP031 T02980209 57014 IEM_DS3505
ZBYN,2004-07-23 04:00,ZBYN 230400Z AUTO 20008KT 6SM 28/20 A2974 RMK T02800200 IEM_DS3505
ZBYN,2004-07-23 05:00,ZBYN 230500Z AUTO 20008KT 7SM 29/20 A2971 RMK T02900200 IEM_DS3505
ZBYN,2004-07-23 06:00,ZBYN 230600Z AUTO 20010KT 6SM 32/21 A2968 RMK SLP006 T03230209 57021 IEM_DS3505
ZBYN,2004-07-23 07:00,ZBYN 230700Z AUTO 21006KT 7SM 31/18 A2968 RMK T03100180 IEM_DS3505
ZBYN,2004-07-23 08:00,ZBYN 230800Z AUTO 20008KT 7SM 32/17 A2965 RMK T03200170 IEM_DS3505
ZBYN,2004-07-23 09:00,ZBYN 230900Z AUTO 20008KT 12SM 32/19 A2965 RMK SLP991 T03230192 57015 IEM_DS3505
ZBYN,2004-07-23 10:00,ZBYN 231000Z AUTO 21002KT 7SM 30/18 A2965 RMK T03000180 IEM_DS3505
ZBYN,2004-07-23 11:00,ZBYN 231100Z AUTO 22006KT 7SM 27/17 A2965 RMK T02700170 IEM_DS3505
ZBYN,2004-07-23 12:00,ZBYN 231200Z AUTO 34004KT 11SM 24/21 A2971 RMK 60047 SLP029 T02350214 52026 IEM_DS3505
ZBYN,2004-07-23 13:00,ZBYN 231300Z AUTO 36014KT 5SM 22/19 A2977 RMK T02200190 IEM_DS3505
ZBYN,2004-07-23 14:00,ZBYN 231400Z AUTO 12006KT 7SM 21/19 A2974 RMK T02100190 IEM_DS3505
ZBYN,2004-07-23 15:00,ZBYN 231500Z AUTO 25002KT 9SM 23/20 A2977 RMK SLP044 T02260205 52018 IEM_DS3505
ZBYN,2004-07-23 17:00,ZBYN 231700Z AUTO 06002KT 4SM 21/19 A2977 RMK T02100190 IEM_DS3505
ZBYN,2004-07-23 18:00,ZBYN 231800Z AUTO 09002KT 7SM 22/21 A2974 RMK 60020 SLP029 T02210207 57011 IEM_DS3505
ZBYN,2004-07-23 19:00,ZBYN 231900Z AUTO 00000KT 5SM 20/19 A2974 RMK T02000190 IEM_DS3505
ZBYN,2004-07-23 20:00,ZBYN 232000Z AUTO 00000KT 5SM 20/19 A2974 RMK T02000190 IEM_DS3505
ZBYN,2004-07-23 21:00,ZBYN 232100Z AUTO 02002KT 6SM 23/20 A2974 RMK 70066 SLP032 T02260200 52003 IEM_DS3505
ZBYN,2004-07-23 22:00,ZBYN 232200Z AUTO 00000KT 6SM 20/19 A2977 RMK T02000190 IEM_DS3505
ZBYN,2004-07-23 23:00,ZBYN 232300Z AUTO 05002KT 4SM 20/18 A2977 RMK T02000180 IEM_DS3505
ZBYN,2004-07-24 00:00,ZBYN 240000Z AUTO 32006KT 6SM 24/19 A2980 RMK 70066 SLP056 T02380191 52012 IEM_DS3505
ZBYN,2004-07-24 01:00,ZBYN 240100Z AUTO 00000KT 5SM 23/18 A2977 RMK T02300180 IEM_DS3505
ZBYN,2004-07-24 02:00,ZBYN 240200Z AUTO 6SM 25/19 A2980 RMK T02500190 IEM_DS3505
ZBYN,2004-07-24 03:00,ZBYN 240300Z AUTO 25002KT 6SM 29/20 A2977 RMK SLP047 T02880197 57003 IEM_DS3505
ZBYN,2004-07-24 04:00,ZBYN 240400Z AUTO 00000KT 7SM 28/20 A2977 RMK T02800200 IEM_DS3505
ZBYN,2004-07-24 05:00,ZBYN 240500Z AUTO 11006KT 7SM 28/18 A2977 RMK T02800180 IEM_DS3505
ZBYN,2004-07-24 06:00,ZBYN 240600Z AUTO 11008KT 6SM 30/21 A2974 RMK SLP030 T02970208 57015 IEM_DS3505
ZBYN,2004-07-24 07:00,ZBYN 240700Z AUTO 08008KT 7SM 28/18 A2974 RMK T02800180 IEM_DS3505
ZBYN,2004-07-24 08:00,ZBYN 240800Z AUTO 10008KT 6SM 29/18 A2971 RMK T02900180 IEM_DS3505
ZBYN,2004-07-24 09:00,ZBYN 240900Z AUTO 11008KT 7SM 30/20 A2974 RMK SLP026 T02980204 57002 IEM_DS3505
ZBYN,2004-07-24 10:00,ZBYN 241000Z AUTO 10006KT 6SM 28/18 A2974 RMK T02800180 IEM_DS3505
ZBYN,2004-07-24 11:00,ZBYN 241100Z AUTO 13004KT 6SM 26/19 A2974 RMK T02600190 IEM_DS3505
ZBYN,2004-07-24 12:00,ZBYN 241200Z AUTO 16006KT 7SM 26/20 A2980 RMK SLP041 T02640205 52010 IEM_DS3505
ZBYN,2004-07-24 13:00,ZBYN 241300Z AUTO 08006KT 6SM 25/19 A2977 RMK T02500190 IEM_DS3505
ZBYN,2004-07-24 14:00,ZBYN 241400Z AUTO 09010KT 5SM 24/18 A2980 RMK T02400180 IEM_DS3505
ZBYN,2004-07-24 15:00,ZBYN 241500Z AUTO 07008KT 6SM 25/20 A2980 RMK SLP050 T02490195 52013 IEM_DS3505
ZBYN,2004-07-24 16:00,ZBYN 241600Z AUTO 08010KT 4SM 23/18 A2983 RMK T02300180 IEM_DS3505
ZBYN,2004-07-24 17:00,ZBYN 241700Z AUTO 08008KT 4SM 23/18 A2983 RMK T02300180 IEM_DS3505
ZBYN,2004-07-24 18:00,ZBYN 241800Z AUTO 09004KT 6SM 24/19 A2983 RMK SLP057 T02420193 52007 IEM_DS3505
ZBYN,2004-07-24 19:00,ZBYN 241900Z AUTO 4SM 22/18 A2980 RMK T02200180 IEM_DS3505
ZBYN,2004-07-24 20:00,ZBYN 242000Z AUTO 09006KT 4SM 21/18 A2980 RMK T02100180 IEM_DS3505
ZBYN,2004-07-24 21:00,ZBYN 242100Z AUTO 07004KT 5SM 23/19 A2983 RMK SLP059 T02290187 54000 IEM_DS3505
ZBYN,2004-07-24 22:00,ZBYN 242200Z AUTO 08008KT 4SM 21/17 A2983 RMK T02100170 IEM_DS3505
ZBYN,2004-07-24 23:00,ZBYN 242300Z AUTO 08008KT 4SM 21/17 A2983 RMK T02100170 IEM_DS3505
ZBYN,2004-07-25 00:00,ZBYN 250000Z AUTO 09006KT 5SM 24/18 A2983 RMK SLP064 T02420184 52002 IEM_DS3505
ZBYN,2004-07-25 01:00,ZBYN 250100Z AUTO 07008KT 6SM 23/17 A2983 RMK T02300170 IEM_DS3505
ZBYN,2004-07-25 02:00,ZBYN 250200Z AUTO 08008KT 24/17 A2980 RMK T02400170 IEM_DS3505
ZBYN,2004-07-25 03:00,ZBYN 250300Z AUTO 11006KT 6SM 26/19 A2980 RMK SLP059 T02590188 57004 IEM_DS3505
ZBYN,2004-07-25 04:00,ZBYN 250400Z AUTO 06004KT 7SM 26/17 A2980 RMK T02600170 IEM_DS3505
ZBYN,2004-07-25 05:00,ZBYN 250500Z AUTO 08008KT 7SM 26/17 A2977 RMK T02600170 IEM_DS3505
ZBYN,2004-07-25 06:00,ZBYN 250600Z AUTO 11008KT 6SM 29/19 A2974 RMK SLP030 T02860193 57024 IEM_DS3505
ZBYN,2004-07-25 07:00,ZBYN 250700Z AUTO 07006KT 7SM 28/17 A2974 RMK T02800170 IEM_DS3505
ZBYN,2004-07-25 08:00,ZBYN 250800Z AUTO 08006KT 7SM 27/17 A2971 RMK T02700170 IEM_DS3505
ZBYN,2004-07-25 09:00,ZBYN 250900Z AUTO 14006KT 6SM 27/19 A2971 RMK SLP026 T02700191 57008 IEM_DS3505
ZBYN,2004-07-25 10:00,ZBYN 251000Z AUTO 11006KT 7SM 25/17 A2974 RMK T02500170 IEM_DS3505
ZBYN,2004-07-25 11:00,ZBYN 251100Z AUTO 09010KT 7SM 25/16 A2974 RMK T02500160 IEM_DS3505
ZBYN,2004-07-25 12:00,ZBYN 251200Z AUTO 11012KT 6SM 25/17 A2974 RMK SLP035 T02470169 52007 IEM_DS3505
ZBYN,2004-07-25 13:00,ZBYN 251300Z AUTO 08010KT 7SM 21/15 A2977 RMK T02100150 IEM_DS3505
ZBYN,2004-07-25 14:00,ZBYN 251400Z AUTO 08012KT 6SM 21/15 A2974 RMK T02100150 IEM_DS3505
ZBYN,2004-07-25 15:00,ZBYN 251500Z AUTO 32002KT 6SM 22/19 A2974 RMK SLP044 T02220188 52007 IEM_DS3505
ZBYN,2004-07-25 16:00,ZBYN 251600Z AUTO 08008KT 6SM 21/15 A2974 RMK T02100150 IEM_DS3505
ZBYN,2004-07-25 17:00,ZBYN 251700Z AUTO 08008KT 6SM 21/15 A2974 RMK T02100150 IEM_DS3505
ZBYN,2004-07-25 18:00,ZBYN 251800Z AUTO 29002KT 5SM 22/19 A2971 RMK 60020 SLP027 T02170187 57012 IEM_DS3505
ZBYN,2004-07-25 19:00,ZBYN 251900Z AUTO 09008KT 7SM 19/16 A2968 RMK T01900160 IEM_DS3505
ZBYN,2004-07-25 20:00,ZBYN 252000Z AUTO 09006KT 6SM 19/17 A2968 RMK T01900170 IEM_DS3505
ZBYN,2004-07-25 21:00,ZBYN 252100Z AUTO 18002KT 5SM 21/18 A2968 RMK 70028 SLP016 T02090185 57014 IEM_DS3505
ZBYN,2004-07-25 22:00,ZBYN 252200Z AUTO 09006KT 4SM 19/17 A2968 RMK T01900170 IEM_DS3505
ZBYN,2004-07-25 23:00,ZBYN 252300Z AUTO 09006KT 2 1/2SM 20/17 A2965 RMK T02000170 IEM_DS3505
ZBYN,2004-07-26 00:00,ZBYN 260000Z AUTO 11006KT 4SM 21/19 A2965 RMK 60020 70037 SLP015 T02060187 57004 IEM_DS3505
ZBYN,2004-07-26 01:00,ZBYN 260100Z AUTO 11004KT 1SM 20/18 A2965 RMK T02000180 IEM_DS3505
ZBYN,2004-07-26 02:00,ZBYN 260200Z AUTO 11004KT 1SM 20/19 A2965 RMK T02000190 IEM_DS3505
ZBYN,2004-07-26 03:00,ZBYN 260300Z AUTO 14004KT 2 1/2SM 21/20 A2965 RMK SLP017 T02130203 57001 IEM_DS3505
ZBYN,2004-07-26 04:00,ZBYN 260400Z AUTO 16002KT 1SM 20/19 A2965 RMK T02000190 IEM_DS3505
ZBYN,2004-07-26 05:00,ZBYN 260500Z AUTO 14002KT 3SM 21/19 A2965 RMK T02100190 IEM_DS3505
ZBYN,2004-07-26 06:00,ZBYN 260600Z AUTO 18002KT 4SM 24/21 A2965 RMK 60031 SLP013 T02390214 57001 IEM_DS3505
ZBYN,2004-07-26 07:00,ZBYN 260700Z AUTO 00000KT 3SM 23/19 A2965 RMK T02300190 IEM_DS3505
ZBYN,2004-07-26 08:00,ZBYN 260800Z AUTO 10006KT 4SM 24/19 A2965 RMK T02400190 IEM_DS3505
ZBYN,2004-07-26 09:00,ZBYN 260900Z AUTO 09006KT 5SM 25/22 A2965 RMK SLP006 T02490216 57006 IEM_DS3505
ZBYN,2004-07-26 10:00,ZBYN 261000Z AUTO 09004KT 5SM 24/19 A2965 RMK T02400190 IEM_DS3505
ZBYN,2004-07-26 11:00,ZBYN 261100Z AUTO 00000KT 5SM 23/19 A2965 RMK T02300190 IEM_DS3505
ZBYN,2004-07-26 12:00,ZBYN 261200Z AUTO 32004KT 5SM 22/20 A2968 RMK SLP026 T02210195 52014 IEM_DS3505
ZBYN,2004-07-26 13:00,ZBYN 261300Z AUTO 00000KT 2SM 20/19 A2971 RMK T02000190 IEM_DS3505
ZBYN,2004-07-26 14:00,ZBYN 261400Z AUTO 00000KT 3SM 19/18 A2971 RMK T01900180 IEM_DS3505
ZBYN,2004-07-26 15:00,ZBYN 261500Z AUTO 36002KT 5SM 21/18 A2971 RMK SLP038 T02060185 52010 IEM_DS3505
ZBYN,2004-07-26 16:00,ZBYN 261600Z AUTO 00000KT 1SM 18/17 A2971 RMK T01800170 IEM_DS3505
ZBYN,2004-07-26 17:00,ZBYN 261700Z AUTO 00000KT 2 1/2SM 19/18 A2971 RMK T01900180 IEM_DS3505
ZBYN,2004-07-26 18:00,ZBYN 261800Z AUTO 00000KT 5SM 21/20 RMK SLP035 T02070195 52001 IEM_DS3505
ZBYN,2004-07-26 19:00,ZBYN 261900Z AUTO 13002KT 2 1/2SM 19/18 A2971 RMK T01900180 IEM_DS3505
ZBYN,2004-07-26 20:00,ZBYN 262000Z AUTO 00000KT 1 1/4SM 19/18 A2974 RMK T01900180 IEM_DS3505
ZBYN,2004-07-26 21:00,ZBYN 262100Z AUTO 29002KT 5SM 21/19 A2974 RMK 70042 SLP040 T02070194 52006 IEM_DS3505
ZBYN,2004-07-26 22:00,ZBYN 262200Z AUTO 00000KT 1SM 20/19 A2974 RMK T02000190 IEM_DS3505
ZBYN,2004-07-26 23:00,ZBYN 262300Z AUTO 12002KT 1SM 20/19 A2977 RMK T02000190 IEM_DS3505
ZBYN,2004-07-27 00:00,ZBYN 270000Z AUTO 00000KT 1SM 21/19 A2977 RMK T02100190 IEM_DS3505
ZBYN,2004-07-27 01:00,ZBYN 270100Z AUTO 1 1/4SM 22/19 A2977 RMK T02200190 IEM_DS3505
ZBYN,2004-07-27 02:00,ZBYN 270200Z AUTO 23002KT 1 1/4SM 23/19 A2977 RMK T02300190 IEM_DS3505
ZBYN,2004-07-27 03:00,ZBYN 270300Z AUTO 16002KT 3SM 26/20 A2977 RMK SLP049 T02630204 54000 IEM_DS3505
ZBYN,2004-07-27 04:00,ZBYN 270400Z AUTO 2SM 26/20 A2977 RMK T02600200 IEM_DS3505
ZBYN,2004-07-27 05:00,ZBYN 270500Z AUTO 2SM 27/21 A2974 RMK T02700210 IEM_DS3505
ZBYN,2004-07-27 06:00,ZBYN 270600Z AUTO 20004KT 4SM 30/22 A2974 RMK SLP028 T03020224 57014 IEM_DS3505
ZBYN,2004-07-27 07:00,ZBYN 270700Z AUTO 22004KT 29/21 A2971 RMK T02900210 IEM_DS3505
ZBYN,2004-07-27 08:00,ZBYN 270800Z AUTO 00000KT 5SM 29/20 A2971 RMK T02900200 IEM_DS3505
ZBYN,2004-07-27 09:00,ZBYN 270900Z AUTO 34006KT 4SM 29/20 A2971 RMK SLP028 T02860201 57002 IEM_DS3505
ZBYN,2004-07-27 10:00,ZBYN 271000Z AUTO 30008KT 5SM 27/19 A2974 RMK T02700190 IEM_DS3505
ZBYN,2004-07-27 11:00,ZBYN 271100Z AUTO 04006KT 7SM 24/16 A2977 RMK T02400160 IEM_DS3505
ZBYN,2004-07-27 12:00,ZBYN 271200Z AUTO 32004KT 6SM 26/17 A2980 RMK SLP061 T02550174 52028 IEM_DS3505
ZBYN,2004-07-27 13:00,ZBYN 271300Z AUTO 36004KT 7SM 24/16 A2985 RMK T02400160 IEM_DS3505
ZBYN,2004-07-27 14:00,ZBYN 271400Z AUTO 36004KT 7SM 23/17 A2985 RMK T02300170 IEM_DS3505
ZBYN,2004-07-27 15:00,ZBYN 271500Z AUTO 08004KT 6SM 22/15 A2983 RMK T02200150 IEM_DS3505
ZBYN,2004-07-27 16:00,ZBYN 271600Z AUTO 03002KT 6SM 21/18 A2983 RMK T02100180 IEM_DS3505
ZBYN,2004-07-27 17:00,ZBYN 271700Z AUTO 6SM 21/18 A2980 RMK T02100180 IEM_DS3505
ZBYN,2004-07-27 18:00,ZBYN 271800Z AUTO 34004KT 6SM 23/18 A2983 RMK SLP058 T02260179 57006 IEM_DS3505
ZBYN,2004-07-27 19:00,ZBYN 271900Z AUTO 00000KT 6SM 20/17 A2983 RMK T02000170 IEM_DS3505
ZBYN,2004-07-27 20:00,ZBYN 272000Z AUTO 00000KT 5SM 20/17 A2983 RMK T02000170 IEM_DS3505
ZBYN,2004-07-27 21:00,ZBYN 272100Z AUTO 04002KT 6SM 22/17 A2985 RMK SLP073 T02230174 52012 IEM_DS3505
ZBYN,2004-07-27 22:00,ZBYN 272200Z AUTO 00000KT 5SM 19/17 A2988 RMK T01900170 IEM_DS3505
ZBYN,2004-07-27 23:00,ZBYN 272300Z AUTO 00000KT 5SM 20/18 A2988 RMK T02000180 IEM_DS3505
ZBYN,2004-07-28 00:00,ZBYN 280000Z AUTO 34002KT 5SM 22/18 A2988 RMK SLP093 T02210181 52013 IEM_DS3505
ZBYN,2004-07-28 01:00,ZBYN 280100Z AUTO 00000KT 5SM 21/17 A2988 RMK T02100170 IEM_DS3505
ZBYN,2004-07-28 02:00,ZBYN 280200Z AUTO 00000KT 5SM 23/17 A2988 RMK T02300170 IEM_DS3505
ZBYN,2004-07-28 03:00,ZBYN 280300Z AUTO 32004KT 6SM 27/19 A2988 RMK SLP083 T02660187 57006 IEM_DS3505
ZBYN,2004-07-28 04:00,ZBYN 280400Z AUTO 07004KT 6SM 25/17 A2985 RMK T02500170 IEM_DS3505
ZBYN,2004-07-28 05:00,ZBYN 280500Z AUTO 08004KT 6SM 28/17 A2985 RMK T02800170 IEM_DS3505
ZBYN,2004-07-28 06:00,ZBYN 280600Z AUTO 14006KT 11SM 30/17 RMK SLP060 T03050172 57016 IEM_DS3505
ZBYN,2004-07-28 07:00,ZBYN 280700Z AUTO 6SM 29/14 A2983 RMK T02900140 IEM_DS3505
ZBYN,2004-07-28 08:00,ZBYN 280800Z AUTO 09002KT 7SM 29/15 A2980 RMK T02900150 IEM_DS3505
ZBYN,2004-07-28 09:00,ZBYN 280900Z AUTO 14004KT 11SM 31/20 A2980 RMK SLP050 T03100197 57009 IEM_DS3505
ZBYN,2004-07-28 10:00,ZBYN 281000Z AUTO 10010KT 6SM 27/16 A2980 RMK T02700160 IEM_DS3505
ZBYN,2004-07-28 11:00,ZBYN 281100Z AUTO 09010KT 7SM 26/17 A2983 RMK T02600170 IEM_DS3505
ZBYN,2004-07-28 12:00,ZBYN 281200Z AUTO 22006KT 5SM 24/20 A2983 RMK 60002 SLP081 T02380199 52018 IEM_DS3505
ZBYN,2004-07-28 13:00,ZBYN 281300Z AUTO 06004KT 7SM 22/18 A2988 RMK T02200180 IEM_DS3505
ZBYN,2004-07-28 14:00,ZBYN 281400Z AUTO 04006KT 6SM 22/18 A2988 RMK T02200180 IEM_DS3505
ZBYN,2004-07-28 15:00,ZBYN 281500Z AUTO 32004KT 5SM 22/20 A2988 RMK SLP088 T02200205 52010 IEM_DS3505
ZBYN,2004-07-28 16:00,ZBYN 281600Z AUTO 05004KT 4SM 21/17 A2988 RMK T02100170 IEM_DS3505
ZBYN,2004-07-28 17:00,ZBYN 281700Z AUTO 06002KT 4SM 22/17 A2985 RMK T02200170 IEM_DS3505
ZBYN,2004-07-28 18:00,ZBYN 281800Z AUTO 34002KT 5SM 22/19 A2983 RMK 60016 SLP065 T02230193 57015 IEM_DS3505
ZBYN,2004-07-28 19:00,ZBYN 281900Z AUTO 04004KT 2 1/2SM 22/18 A2983 RMK T02200180 IEM_DS3505
ZBYN,2004-07-28 20:00,ZBYN 282000Z AUTO 36004KT 2 1/2SM 21/18 A2983 RMK T02100180 IEM_DS3505
ZBYN,2004-07-28 21:00,ZBYN 282100Z AUTO 04002KT 4SM 21/20 A2983 RMK 70049 SLP065 T02070195 57002 IEM_DS3505
ZBYN,2004-07-28 22:00,ZBYN 282200Z AUTO 29002KT 1SM 19/18 A2983 RMK T01900180 IEM_DS3505
ZBYN,2004-07-28 23:00,ZBYN 282300Z AUTO 00000KT 1/4SM 19/19 A2985 RMK T01900190 IEM_DS3505
ZBYN,2004-07-29 00:00,ZBYN 290000Z AUTO 16004KT 4SM 21/20 A2988 RMK 60083 70100 SLP092 T02060198 52015 IEM_DS3505
ZBYN,2004-07-29 01:00,ZBYN 290100Z AUTO 11004KT 1 1/4SM 20/19 A2988 RMK T02000190 IEM_DS3505
ZBYN,2004-07-29 02:00,ZBYN 290200Z AUTO 15002KT 4SM 20/19 A2988 RMK T02000190 IEM_DS3505
ZBYN,2004-07-29 03:00,ZBYN 290300Z AUTO 18004KT 4SM 24/21 A2988 RMK SLP087 T02370208 57003 IEM_DS3505
ZBYN,2004-07-29 04:00,ZBYN 290400Z AUTO 22004KT 7SM 23/19 A2988 RMK T02300190 IEM_DS3505
ZBYN,2004-07-29 05:00,ZBYN 290500Z AUTO 00000KT 5SM 24/19 A2985 RMK T02400190 IEM_DS3505
ZBYN,2004-07-29 06:00,ZBYN 290600Z AUTO 04004KT 4SM 27/20 A2983 RMK 60003 SLP071 T02690195 57010 IEM_DS3505
ZBYN,2004-07-29 07:00,ZBYN 290700Z AUTO 33004KT 7SM 26/17 A2983 RMK T02600170 IEM_DS3505
ZBYN,2004-07-29 07:30,ZBYN 290730Z AUTO 31004KT 7SM 26/16 A2983 RMK T02600160 IEM_DS3505
ZBYN,2004-07-29 08:00,ZBYN 290800Z AUTO 32008KT 7SM 26/17 A2983 RMK T02600170 IEM_DS3505
ZBYN,2004-07-29 08:30,ZBYN 290830Z AUTO 33012KT 7SM 26/17 A2983 RMK T02600170 IEM_DS3505
ZBYN,2004-07-29 09:00,ZBYN 290900Z AUTO 36006KT 12SM 25/17 A2983 RMK SLP074 T02470167 57002 IEM_DS3505
ZBYN,2004-07-29 10:00,ZBYN 291000Z AUTO 34012KT 7SM 23/14 A2985 RMK T02300140 IEM_DS3505
ZBYN,2004-07-29 11:00,ZBYN 291100Z AUTO 35010KT 7SM 22/13 A2988 RMK T02200130 IEM_DS3505
ZBYN,2004-07-29 12:00,ZBYN 291200Z AUTO 34004KT 12SM 23/15 A2988 RMK SLP104 T02300151 52025 IEM_DS3505
ZBYN,2004-07-29 13:00,ZBYN 291300Z AUTO 32008KT 7SM 21/13 A2991 RMK T02100130 IEM_DS3505
ZBYN,2004-07-29 14:00,ZBYN 291400Z AUTO 34006KT 6SM 21/13 A2991 RMK T02100130 IEM_DS3505
ZBYN,2004-07-29 15:00,ZBYN 291500Z AUTO 36006KT 9SM 22/14 A2991 RMK SLP107 T02210145 52006 IEM_DS3505
ZBYN,2004-07-29 16:00,ZBYN 291600Z AUTO 36004KT 6SM 20/13 A2991 RMK T02000130 IEM_DS3505
ZBYN,2004-07-29 17:00,ZBYN 291700Z AUTO 02002KT 6SM 20/14 A2991 RMK T02000140 IEM_DS3505
ZBYN,2004-07-29 18:00,ZBYN 291800Z AUTO 36006KT 9SM 22/14 A2991 RMK 60000 SLP100 T02180142 57003 IEM_DS3505
ZBYN,2004-07-29 19:00,ZBYN 291900Z AUTO 34006KT 6SM 20/13 A2991 RMK T02000130 IEM_DS3505
ZBYN,2004-07-29 20:00,ZBYN 292000Z AUTO 36004KT 6SM 19/15 A2991 RMK T01900150 IEM_DS3505
ZBYN,2004-07-29 21:00,ZBYN 292100Z AUTO 36002KT 6SM 19/17 A2991 RMK 70059 SLP113 T01900168 52005 IEM_DS3505
ZBYN,2004-07-29 22:00,ZBYN 292200Z AUTO 7SM 17/15 A2994 RMK T01700150 IEM_DS3505
ZBYN,2004-07-29 23:00,ZBYN 292300Z AUTO 00000KT 4SM 17/15 A2994 RMK T01700150 IEM_DS3505
ZBYN,2004-07-30 00:00,ZBYN 300000Z AUTO 32004KT 4SM 18/16 A2994 RMK 60016 70019 SLP127 T01790164 52009 IEM_DS3505
ZBYN,2004-07-30 01:00,ZBYN 300100Z AUTO 34004KT 4SM 17/16 A2997 RMK T01700160 IEM_DS3505
ZBYN,2004-07-30 02:00,ZBYN 300200Z AUTO 02006KT 5SM 17/15 A2997 RMK T01700150 IEM_DS3505
ZBYN,2004-07-30 03:00,ZBYN 300300Z AUTO 32004KT 4SM 18/17 A2997 RMK SLP133 T01830171 52005 IEM_DS3505
ZBYN,2004-07-30 04:00,ZBYN 300400Z AUTO 35006KT 4SM 17/16 A2997 RMK T01700160 IEM_DS3505
ZBYN,2004-07-30 05:00,ZBYN 300500Z AUTO 34004KT 7SM 18/16 A2997 RMK T01800160 IEM_DS3505
ZBYN,2004-07-30 06:00,ZBYN 300600Z AUTO 32002KT 4SM 19/18 A2997 RMK 60043 SLP125 T01940179 57006 IEM_DS3505
ZBYN,2004-07-30 07:00,ZBYN 300700Z AUTO 05004KT 7SM 19/16 A2997 RMK T01900160 IEM_DS3505
ZBYN,2004-07-30 08:00,ZBYN 300800Z AUTO 04006KT 7SM 19/15 A2994 RMK T01900150 IEM_DS3505
ZBYN,2004-07-30 09:00,ZBYN 300900Z AUTO 04004KT 4SM 21/17 A2994 RMK SLP119 T02080168 57008 IEM_DS3505
ZBYN,2004-07-30 10:00,ZBYN 301000Z AUTO 09004KT 6SM 20/14 A2994 RMK T02000140 IEM_DS3505
ZBYN,2004-07-30 11:00,ZBYN 301100Z AUTO 08004KT 6SM 19/14 A2994 RMK T01900140 IEM_DS3505
ZBYN,2004-07-30 12:00,ZBYN 301200Z AUTO 09004KT 7SM 20/17 A2994 RMK 60002 SLP128 T01970169 52005 IEM_DS3505
ZBYN,2004-07-30 13:00,ZBYN 301300Z AUTO 06004KT 6SM 18/14 A2994 RMK T01800140 IEM_DS3505
ZBYN,2004-07-30 14:00,ZBYN 301400Z AUTO 06004KT 6SM 18/14 A2997 RMK T01800140 IEM_DS3505
ZBYN,2004-07-30 15:00,ZBYN 301500Z AUTO 34002KT 6SM 18/17 A2997 RMK SLP133 T01840169 52004 IEM_DS3505
ZBYN,2004-07-30 16:00,ZBYN 301600Z AUTO 00000KT 6SM 17/14 A2997 RMK T01700140 IEM_DS3505
ZBYN,2004-07-30 17:00,ZBYN 301700Z AUTO 00000KT 6SM 16/14 A2994 RMK T01600140 IEM_DS3505
ZBYN,2004-07-30 18:00,ZBYN 301800Z AUTO 36002KT 5SM 18/17 A2994 RMK SLP124 T01790166 57008 IEM_DS3505
ZBYN,2004-07-30 19:00,ZBYN 301900Z AUTO 00000KT 6SM 14/13 A2991 RMK T01400130 IEM_DS3505
ZBYN,2004-07-30 20:00,ZBYN 302000Z AUTO 00000KT 6SM 14/13 A2991 RMK T01400130 IEM_DS3505
ZBYN,2004-07-30 21:00,ZBYN 302100Z AUTO 32002KT 5SM 17/15 A2991 RMK 70057 SLP115 T01690154 57007 IEM_DS3505
ZBYN,2004-07-30 22:00,ZBYN 302200Z AUTO 00000KT 6SM 13/12 A2994 RMK T01300120 IEM_DS3505
ZBYN,2004-07-30 23:00,ZBYN 302300Z AUTO 06002KT 5SM 16/13 A2991 RMK T01600130 IEM_DS3505
ZBYN,2004-07-31 00:00,ZBYN 310000Z AUTO 34004KT 5SM 20/16 A2991 RMK 70045 SLP115 T01960159 52002 IEM_DS3505
ZBYN,2004-07-31 01:00,ZBYN 310100Z AUTO 33002KT 6SM 20/14 A2991 RMK T02000140 IEM_DS3505
ZBYN,2004-07-31 02:00,ZBYN 310200Z AUTO 32002KT 6SM 21/15 A2991 RMK T02100150 IEM_DS3505
ZBYN,2004-07-31 03:00,ZBYN 310300Z AUTO 29004KT 6SM 24/18 A2991 RMK SLP105 T02420177 57005 IEM_DS3505
ZBYN,2004-07-31 04:00,ZBYN 310400Z AUTO 6SM 24/15 A2988 RMK T02400150 IEM_DS3505
ZBYN,2004-07-31 05:00,ZBYN 310500Z AUTO 10004KT 6SM 25/14 A2985 RMK T02500140 IEM_DS3505
ZBYN,2004-07-31 06:00,ZBYN 310600Z AUTO 16002KT 6SM 27/17 A2983 RMK SLP077 T02720168 57022 IEM_DS3505
ZBYN,2004-07-31 07:00,ZBYN 310700Z AUTO 6SM 26/14 A2983 RMK T02600140 IEM_DS3505
ZBYN,2004-07-31 08:00,ZBYN 310800Z AUTO 16004KT 7SM 27/14 A2980 RMK T02700140 IEM_DS3505
ZBYN,2004-07-31 09:00,ZBYN 310900Z AUTO 18004KT 16SM 28/18 A2977 RMK SLP057 T02820177 57018 IEM_DS3505
ZBYN,2004-07-31 10:00,ZBYN 311000Z AUTO 00000KT 6SM 26/17 A2977 RMK T02600170 IEM_DS3505
ZBYN,2004-07-31 11:00,ZBYN 311100Z AUTO 00000KT 6SM 25/18 A2980 RMK T02500180 IEM_DS3505
ZBYN,2004-07-31 12:00,ZBYN 311200Z AUTO 11008KT 9SM 25/18 A2980 RMK SLP066 T02460176 52007 IEM_DS3505
ZBYN,2004-07-31 13:00,ZBYN 311300Z AUTO 08008KT 6SM 22/14 A2983 RMK T02200140 IEM_DS3505
ZBYN,2004-07-31 14:00,ZBYN 311400Z AUTO 08010KT 6SM 21/15 A2985 RMK T02100150 IEM_DS3505
ZBYN,2004-07-31 15:00,ZBYN 311500Z AUTO 09004KT 7SM 22/17 A2985 RMK SLP081 T02230168 52017 IEM_DS3505
ZBYN,2004-07-31 16:00,ZBYN 311600Z AUTO 08008KT 5SM 20/15 A2985 RMK T02000150 IEM_DS3505
ZBYN,2004-07-31 17:00,ZBYN 311700Z AUTO 08008KT 5SM 20/14 A2985 RMK T02000140 IEM_DS3505
ZBYN,2004-07-31 18:00,ZBYN 311800Z AUTO 22002KT 6SM 20/18 A2983 RMK SLP073 T02020178 57006 IEM_DS3505
ZBYN,2004-07-31 19:00,ZBYN 311900Z AUTO 08004KT 6SM 20/12 A2983 RMK T02000120 IEM_DS3505
ZBYN,2004-07-31 20:00,ZBYN 312000Z AUTO 08004KT 6SM RMK IEM_DS3505
ZBYN,2004-07-31 21:00,ZBYN 312100Z AUTO 32002KT 6SM 20/17 A2983 RMK SLP068 T02000168 57004 IEM_DS3505
ZBYN,2004-07-31 22:00,ZBYN 312200Z AUTO 00000KT 7SM 19/12 A2983 RMK T01900120 IEM_DS3505
ZBYN,2004-07-31 23:00,ZBYN 312300Z AUTO 00000KT 7SM 19/13 A2983 RMK T01900130 IEM_DS3505
ZBYN,2004-08-01 00:00,ZBYN 010000Z AUTO 32002KT 5SM 21/18 A2985 RMK SLP078 T02130177 52006 IEM_DS3505
ZBYN,2004-08-01 01:00,ZBYN 010100Z AUTO 00000KT 3SM 20/14 A2985 RMK T02000140 IEM_DS3505
ZBYN,2004-08-01 02:00,ZBYN 010200Z AUTO 2 1/2SM 21/15 A2985 RMK T02100150 IEM_DS3505
ZBYN,2004-08-01 03:00,ZBYN 010300Z AUTO 18002KT 5SM 25/18 A2983 RMK SLP074 T02470177 57002 IEM_DS3505
ZBYN,2004-08-01 04:00,ZBYN 010400Z AUTO 24/17 A2983 RMK T02400170 IEM_DS3505
ZBYN,2004-08-01 05:00,ZBYN 010500Z AUTO 5SM 25/17 A2980 RMK T02500170 IEM_DS3505
ZBYN,2004-08-01 06:00,ZBYN 010600Z AUTO 11004KT 6SM 28/19 A2977 RMK SLP050 T02770187 57021 IEM_DS3505
ZBYN,2004-08-01 07:00,ZBYN 010700Z AUTO 00000KT 7SM 26/17 A2977 RMK T02600170 IEM_DS3505
ZBYN,2004-08-01 08:00,ZBYN 010800Z AUTO 21002KT 7SM 25/18 A2977 RMK T02500180 IEM_DS3505
ZBYN,2004-08-01 09:00,ZBYN 010900Z AUTO 20004KT 6SM 28/20 A2974 RMK SLP038 T02780199 57011 IEM_DS3505
ZBYN,2004-08-01 10:00,ZBYN 011000Z AUTO 20002KT 6SM 25/18 A2974 RMK T02500180 IEM_DS3505
ZBYN,2004-08-01 11:00,ZBYN 011100Z AUTO 16002KT 6SM 24/19 A2974 RMK T02400190 IEM_DS3505
ZBYN,2004-08-01 12:00,ZBYN 011200Z AUTO 16006KT 6SM 25/20 A2977 RMK SLP046 T02490199 52005 IEM_DS3505
ZBYN,2004-08-01 13:00,ZBYN 011300Z AUTO 14002KT 6SM 21/18 A2977 RMK T02100180 IEM_DS3505
ZBYN,2004-08-01 14:00,ZBYN 011400Z AUTO 09006KT 4SM 22/18 A2977 RMK T02200180 IEM_DS3505
ZBYN,2004-08-01 15:00,ZBYN 011500Z AUTO 14004KT 5SM 23/20 A2977 RMK SLP052 T02290201 52008 IEM_DS3505
ZBYN,2004-08-01 16:00,ZBYN 011600Z AUTO 08006KT 2 1/2SM 21/17 A2980 RMK T02100170 IEM_DS3505
ZBYN,2004-08-01 17:00,ZBYN 011700Z AUTO 08006KT 2 1/2SM 21/17 A2977 RMK T02100170 IEM_DS3505
ZBYN,2004-08-01 18:00,ZBYN 011800Z AUTO 22002KT 4SM 23/20 A2977 RMK SLP045 T02260196 57003 IEM_DS3505
ZBYN,2004-08-01 19:00,ZBYN 011900Z AUTO 09004KT 2 1/2SM 21/17 A2977 RMK T02100170 IEM_DS3505
ZBYN,2004-08-01 20:00,ZBYN 012000Z AUTO 09004KT 2 1/2SM 21/17 A2977 RMK T02100170 IEM_DS3505
ZBYN,2004-08-01 21:00,ZBYN 012100Z AUTO 00000KT 4SM 22/20 A2977 RMK SLP039 T02230197 57006 IEM_DS3505
ZBYN,2004-08-01 22:00,ZBYN 012200Z AUTO 07004KT 2SM 21/17 A2977 RMK T02100170 IEM_DS3505
ZBYN,2004-08-01 23:00,ZBYN 012300Z AUTO 08004KT 1 1/4SM 21/17 A2977 RMK T02100170 IEM_DS3505
ZBYN,2004-08-02 00:00,ZBYN 020000Z AUTO 00000KT 1 1/4SM 23/20 A2977 RMK SLP049 T02320205 52007 IEM_DS3505
ZBYN,2004-08-02 01:00,ZBYN 020100Z AUTO 09004KT 2SM 23/18 A2977 RMK T02300180 IEM_DS3505
ZBYN,2004-08-02 02:00,ZBYN 020200Z AUTO 08006KT 2SM 23/18 A2977 RMK T02300180 IEM_DS3505
ZBYN,2004-08-02 03:00,ZBYN 020300Z AUTO 11004KT 4SM 25/20 RMK SLP046 T02490202 57003 IEM_DS3505
ZBYN,2004-08-02 04:00,ZBYN 020400Z AUTO 12006KT 25/19 A2974 RMK T02500190 IEM_DS3505
ZBYN,2004-08-02 05:00,ZBYN 020500Z AUTO 12006KT 25/19 A2974 RMK T02500190 IEM_DS3505
ZBYN,2004-08-02 06:00,ZBYN 020600Z AUTO 16002KT 5SM 26/21 A2971 RMK 60004 SLP027 T02620214 57016 IEM_DS3505
ZBYN,2004-08-02 07:00,ZBYN 020700Z AUTO 7SM 22/20 A2971 RMK T02200200 IEM_DS3505
ZBYN,2004-08-02 08:00,ZBYN 020800Z AUTO 04002KT 7SM 24/20 A2968 RMK T02400200 IEM_DS3505
ZBYN,2004-08-02 09:00,ZBYN 020900Z AUTO 11002KT 5SM 26/21 A2965 RMK SLP011 T02620214 57015 IEM_DS3505
ZBYN,2004-08-02 10:00,ZBYN 021000Z AUTO 10002KT 7SM 25/20 A2965 RMK T02500200 IEM_DS3505
ZBYN,2004-08-02 11:00,ZBYN 021100Z AUTO 10004KT 7SM 20/17 A2974 RMK T02000170 IEM_DS3505
ZBYN,2004-08-02 12:00,ZBYN 021200Z AUTO 14002KT 5SM 24/21 A2968 RMK SLP015 T02390210 52001 IEM_DS3505
ZBYN,2004-08-02 13:00,ZBYN 021300Z AUTO 09008KT 3SM 22/18 A2968 RMK T02200180 IEM_DS3505
ZBYN,2004-08-02 14:00,ZBYN 021400Z AUTO 09006KT 3SM 21/18 A2971 RMK T02100180 IEM_DS3505
ZBYN,2004-08-02 15:00,ZBYN 021500Z AUTO 20002KT 5SM 23/20 A2971 RMK SLP031 T02310204 52016 IEM_DS3505
ZBYN,2004-08-02 16:00,ZBYN 021600Z AUTO 10004KT 2SM 21/18 A2971 RMK T02100180 IEM_DS3505
ZBYN,2004-08-02 17:00,ZBYN 021700Z AUTO 09008KT 4SM 18/17 A2968 RMK T01800170 IEM_DS3505
ZBYN,2004-08-02 18:00,ZBYN 021800Z AUTO 36002KT 5SM 20/19 A2971 RMK 60016 SLP030 T01990187 57003 IEM_DS3505
ZBYN,2004-08-02 19:00,ZBYN 021900Z AUTO 35002KT 7SM 19/16 A2971 RMK T01900160 IEM_DS3505
ZBYN,2004-08-02 20:00,ZBYN 022000Z AUTO 35002KT 7SM 18/16 A2968 RMK T01800160 IEM_DS3505
ZBYN,2004-08-02 21:00,ZBYN 022100Z AUTO 32002KT 5SM 19/18 A2968 RMK 70021 SLP021 T01940177 57009 IEM_DS3505
ZBYN,2004-08-02 22:00,ZBYN 022200Z AUTO 00000KT 6SM 17/16 A2968 RMK T01700160 IEM_DS3505
ZBYN,2004-08-02 23:00,ZBYN 022300Z AUTO 00000KT 6SM 18/17 A2971 RMK T01800170 IEM_DS3505
ZBYN,2004-08-03 00:00,ZBYN 030000Z AUTO 07002KT 5SM 22/18 A2971 RMK 60000 70021 SLP031 T02200178 52009 IEM_DS3505
ZBYN,2004-08-03 01:00,ZBYN 030100Z AUTO 33002KT 6SM 22/17 A2971 RMK T02200170 IEM_DS3505
ZBYN,2004-08-03 02:00,ZBYN 030200Z AUTO 17002KT 4SM 23/18 A2971 RMK T02300180 IEM_DS3505
ZBYN,2004-08-03 03:00,ZBYN 030300Z AUTO 18002KT 5SM 26/20 A2971 RMK SLP025 T02610202 57001 IEM_DS3505
ZBYN,2004-08-03 04:00,ZBYN 030400Z AUTO 32002KT 25/19 A2968 RMK T02500190 IEM_DS3505
ZBYN,2004-08-03 05:00,ZBYN 030500Z AUTO 26/20 A2968 RMK T02600200 IEM_DS3505
ZBYN,2004-08-03 06:00,ZBYN 030600Z AUTO 14002KT 5SM 30/21 A2968 RMK SLP008 T03000214 57014 IEM_DS3505
ZBYN,2004-08-03 07:00,ZBYN 030700Z AUTO 28/19 A2965 RMK T02800190 IEM_DS3505
ZBYN,2004-08-03 08:00,ZBYN 030800Z AUTO 5SM 29/19 A2965 RMK T02900190 IEM_DS3505
ZBYN,2004-08-03 09:00,ZBYN 030900Z AUTO 04004KT 12SM 30/15 A2962 RMK SLP998 T03010150 57010 IEM_DS3505
ZBYN,2004-08-03 10:00,ZBYN 031000Z AUTO 21002KT 5SM 27/20 A2965 RMK T02700200 IEM_DS3505
ZBYN,2004-08-03 11:00,ZBYN 031100Z AUTO 36002KT 6SM 26/19 A2965 RMK T02600190 IEM_DS3505
ZBYN,2004-08-03 12:00,ZBYN 031200Z AUTO 34002KT 12SM 27/18 A2968 RMK SLP017 T02720179 52017 IEM_DS3505
ZBYN,2004-08-03 13:00,ZBYN 031300Z AUTO 6SM 24/17 A2971 RMK T02400170 IEM_DS3505
ZBYN,2004-08-03 14:00,ZBYN 031400Z AUTO 06004KT 6SM 23/16 A2974 RMK T02300160 IEM_DS3505
ZBYN,2004-08-03 15:00,ZBYN 031500Z AUTO 32004KT 9SM 24/19 A2977 RMK SLP042 T02350192 52023 IEM_DS3505
ZBYN,2004-08-03 16:00,ZBYN 031600Z AUTO 6SM 21/17 A2977 RMK T02100170 IEM_DS3505
ZBYN,2004-08-03 17:00,ZBYN 031700Z AUTO 06004KT 6SM 22/17 A2977 RMK T02200170 IEM_DS3505
ZBYN,2004-08-03 18:00,ZBYN 031800Z AUTO 34004KT 9SM 23/18 A2977 RMK SLP040 T02340178 52004 IEM_DS3505
ZBYN,2004-08-03 19:00,ZBYN 031900Z AUTO 00000KT 6SM 19/17 A2977 RMK T01900170 IEM_DS3505
ZBYN,2004-08-03 20:00,ZBYN 032000Z AUTO 00000KT 6SM 19/17 A2980 RMK T01900170 IEM_DS3505
ZBYN,2004-08-03 21:00,ZBYN 032100Z AUTO 29002KT 7SM 22/18 A2980 RMK SLP052 T02170179 52009 IEM_DS3505
ZBYN,2004-08-03 22:00,ZBYN 032200Z AUTO 13002KT 6SM 19/17 A2983 RMK T01900170 IEM_DS3505
ZBYN,2004-08-03 23:00,ZBYN 032300Z AUTO 00000KT 6SM 21/18 A2983 RMK T02100180 IEM_DS3505
ZBYN,2004-08-04 00:00,ZBYN 040000Z AUTO 34004KT 6SM 25/18 A2983 RMK SLP068 T02460183 52014 IEM_DS3505
ZBYN,2004-08-04 01:00,ZBYN 040100Z AUTO 06006KT 7SM 24/17 A2985 RMK T02400170 IEM_DS3505
ZBYN,2004-08-04 02:00,ZBYN 040200Z AUTO 09008KT 7SM 25/16 A2985 RMK T02500160 IEM_DS3505
ZBYN,2004-08-04 03:00,ZBYN 040300Z AUTO 09008KT 6SM 26/20 A2985 RMK SLP078 T02630197 52007 IEM_DS3505
ZBYN,2004-08-04 04:00,ZBYN 040400Z AUTO 10012KT 7SM 25/16 A2985 RMK T02500160 IEM_DS3505
ZBYN,2004-08-04 05:00,ZBYN 040500Z AUTO 11012KT 7SM 26/16 A2985 RMK T02600160 IEM_DS3505
ZBYN,2004-08-04 06:00,ZBYN 040600Z AUTO 14010KT 6SM 28/18 A2985 RMK SLP069 T02760183 57007 IEM_DS3505
ZBYN,2004-08-04 07:00,ZBYN 040700Z AUTO 08010KT 6SM 27/14 A2983 RMK T02700140 IEM_DS3505
ZBYN,2004-08-04 08:00,ZBYN 040800Z AUTO 10010KT 7SM 27/14 A2983 RMK T02700140 IEM_DS3505
ZBYN,2004-08-04 09:00,ZBYN 040900Z AUTO 09012KT 9SM 27/15 A2983 RMK SLP065 T02730153 57006 IEM_DS3505
ZBYN,2004-08-04 10:00,ZBYN 041000Z AUTO 10012KT 6SM 25/11 A2983 RMK T02500110 IEM_DS3505
ZBYN,2004-08-04 11:00,ZBYN 041100Z AUTO 10010KT 6SM 24/10 A2985 RMK T02400100 IEM_DS3505
ZBYN,2004-08-04 12:00,ZBYN 041200Z AUTO 11006KT 9SM 23/13 A2985 RMK SLP083 T02280130 52014 IEM_DS3505
ZBYN,2004-08-04 13:00,ZBYN 041300Z AUTO 09008KT 6SM 21/11 A2988 RMK T02100110 IEM_DS3505
ZBYN,2004-08-04 14:00,ZBYN 041400Z AUTO 08008KT 6SM 20/11 A2991 RMK T02000110 IEM_DS3505
ZBYN,2004-08-04 15:00,ZBYN 041500Z AUTO 04004KT 9SM 21/11 A2991 RMK SLP104 T02070114 52019 IEM_DS3505
ZBYN,2004-08-04 16:00,ZBYN 041600Z AUTO 10004KT 6SM 18/10 A2991 RMK T01800100 IEM_DS3505
ZBYN,2004-08-04 17:00,ZBYN 041700Z AUTO 00000KT 6SM 16/11 A2991 RMK T01600110 IEM_DS3505
ZBYN,2004-08-04 18:00,ZBYN 041800Z AUTO 00000KT 9SM 16/14 A2991 RMK SLP106 T01650138 57003 IEM_DS3505
ZBYN,2004-08-04 19:00,ZBYN 041900Z AUTO 04002KT 6SM 15/12 A2991 RMK T01500120 IEM_DS3505
ZBYN,2004-08-04 20:00,ZBYN 042000Z AUTO 12002KT 6SM 13/12 A2991 RMK T01300120 IEM_DS3505
ZBYN,2004-08-04 21:00,ZBYN 042100Z AUTO 32002KT 9SM 16/13 A2994 RMK SLP113 T01620129 52006 IEM_DS3505
ZBYN,2004-08-04 22:00,ZBYN 042200Z AUTO 00000KT 2SM 14/12 A2994 RMK T01400120 IEM_DS3505
ZBYN,2004-08-04 23:00,ZBYN 042300Z AUTO 10002KT 3SM 15/13 A2994 RMK T01500130 IEM_DS3505
ZBYN,2004-08-05 00:00,ZBYN 050000Z AUTO 16002KT 5SM 20/14 A2994 RMK SLP115 T01990145 52001 IEM_DS3505
ZBYN,2004-08-05 01:00,ZBYN 050100Z AUTO 00000KT 20/13 A2991 RMK T02000130 IEM_DS3505
ZBYN,2004-08-05 02:00,ZBYN 050200Z AUTO 10002KT 6SM 22/12 A2991 RMK T02200120 IEM_DS3505
ZBYN,2004-08-05 03:00,ZBYN 050300Z AUTO 11002KT 6SM 25/13 A2991 RMK SLP100 T02470127 57010 IEM_DS3505
ZBYN,2004-08-05 04:00,ZBYN 050400Z AUTO 6SM 24/07 A2988 RMK T02400070 IEM_DS3505
ZBYN,2004-08-05 05:00,ZBYN 050500Z AUTO 6SM 25/10 A2985 RMK T02500100 IEM_DS3505
ZBYN,2004-08-05 06:00,ZBYN 050600Z AUTO 18004KT 12SM 27/12 A2985 RMK SLP081 T02720124 57020 IEM_DS3505
ZBYN,2004-08-05 07:00,ZBYN 050700Z AUTO 6SM 26/09 A2983 RMK T02600090 IEM_DS3505
ZBYN,2004-08-05 08:00,ZBYN 050800Z AUTO 13002KT 6SM 27/09 A2983 RMK T02700090 IEM_DS3505
ZBYN,2004-08-05 09:00,ZBYN 050900Z AUTO 25004KT 16SM 29/11 A2980 RMK SLP066 T02880114 57012 IEM_DS3505
ZBYN,2004-08-05 10:00,ZBYN 051000Z AUTO 26002KT 6SM 27/12 A2980 RMK T02700120 IEM_DS3505
ZBYN,2004-08-05 11:00,ZBYN 051100Z AUTO 25002KT 6SM 25/13 A2980 RMK T02500130 IEM_DS3505
ZBYN,2004-08-05 12:00,ZBYN 051200Z AUTO 09006KT 16SM 22/16 A2983 RMK SLP077 T02230161 52006 IEM_DS3505
ZBYN,2004-08-05 13:00,ZBYN 051300Z AUTO 07006KT 6SM 22/11 A2985 RMK T02200110 IEM_DS3505
ZBYN,2004-08-05 14:00,ZBYN 051400Z AUTO 08008KT 6SM 21/11 A2985 RMK T02100110 IEM_DS3505
ZBYN,2004-08-05 15:00,ZBYN 051500Z AUTO 07004KT 16SM 20/13 RMK SLP084 T02020129 52010 IEM_DS3505
ZBYN,2004-08-05 17:00,ZBYN 051700Z AUTO 09004KT 6SM 19/12 A2985 RMK T01900120 IEM_DS3505
ZBYN,2004-08-05 18:00,ZBYN 051800Z AUTO 29002KT 12SM 18/14 A2985 RMK SLP082 T01750144 57002 IEM_DS3505
ZBYN,2004-08-05 19:00,ZBYN 051900Z AUTO 00000KT 6SM 15/12 A2985 RMK T01500120 IEM_DS3505
ZBYN,2004-08-05 20:00,ZBYN 052000Z AUTO 00000KT 6SM 14/12 A2985 RMK T01400120 IEM_DS3505
ZBYN,2004-08-05 21:00,ZBYN 052100Z AUTO 32002KT 12SM 16/13 A2988 RMK SLP089 T01600133 52007 IEM_DS3505
ZBYN,2004-08-05 22:00,ZBYN 052200Z AUTO 00000KT 6SM 13/11 A2988 RMK T01300110 IEM_DS3505
ZBYN,2004-08-05 23:00,ZBYN 052300Z AUTO 00000KT 4SM 15/13 A2988 RMK T01500130 IEM_DS3505
ZBYN,2004-08-06 00:00,ZBYN 060000Z AUTO 14004KT 5SM 18/16 A2988 RMK SLP101 T01830156 52005 IEM_DS3505
ZBYN,2004-08-06 01:00,ZBYN 060100Z AUTO 00000KT 2 1/2SM 18/13 A2988 RMK T01800130 IEM_DS3505
ZBYN,2004-08-06 02:00,ZBYN 060200Z AUTO 00000KT 21/13 A2988 RMK T02100130 IEM_DS3505
ZBYN,2004-08-06 03:00,ZBYN 060300Z AUTO 14004KT 4SM 24/16 A2988 RMK SLP088 T02440161 57006 IEM_DS3505
ZBYN,2004-08-06 04:00,ZBYN 060400Z AUTO 23004KT 6SM 25/13 A2985 RMK T02500130 IEM_DS3505
ZBYN,2004-08-06 05:00,ZBYN 060500Z AUTO 21006KT 6SM 26/09 A2983 RMK T02600090 IEM_DS3505
ZBYN,2004-08-06 06:00,ZBYN 060600Z AUTO 18008KT 6SM 28/14 A2983 RMK SLP066 T02830138 57019 IEM_DS3505
ZBYN,2004-08-06 07:00,ZBYN 060700Z AUTO 21006KT 6SM 28/09 A2980 RMK T02800090 IEM_DS3505
ZBYN,2004-08-06 08:00,ZBYN 060800Z AUTO 20004KT 6SM 28/09 A2977 RMK T02800090 IEM_DS3505
ZBYN,2004-08-06 09:00,ZBYN 060900Z AUTO 18006KT 7SM 29/13 A2977 RMK SLP050 T02930127 57015 IEM_DS3505
ZBYN,2004-08-06 10:00,ZBYN 061000Z AUTO 00000KT 6SM 27/14 A2977 RMK T02700140 IEM_DS3505
ZBYN,2004-08-06 11:00,ZBYN 061100Z AUTO 00000KT 6SM 26/17 A2977 RMK T02600170 IEM_DS3505
ZBYN,2004-08-06 12:00,ZBYN 061200Z AUTO 11004KT 7SM 23/17 A2980 RMK SLP066 T02320167 52009 IEM_DS3505
ZBYN,2004-08-06 13:00,ZBYN 061300Z AUTO 10002KT 6SM 20/15 A2983 RMK T02000150 IEM_DS3505
ZBYN,2004-08-06 14:00,ZBYN 061400Z AUTO 11004KT 6SM 19/14 A2983 RMK T01900140 IEM_DS3505
ZBYN,2004-08-06 15:00,ZBYN 061500Z AUTO 11006KT 7SM 21/16 A2983 RMK SLP073 T02090155 52012 IEM_DS3505
ZBYN,2004-08-06 16:00,ZBYN 061600Z AUTO 12004KT 6SM 18/15 A2983 RMK T01800150 IEM_DS3505
ZBYN,2004-08-06 17:00,ZBYN 061700Z AUTO 11002KT 6SM 17/14 A2983 RMK T01700140 IEM_DS3505
ZBYN,2004-08-06 18:00,ZBYN 061800Z AUTO 20002KT 5SM 19/15 A2983 RMK SLP068 T01890154 57002 IEM_DS3505
ZBYN,2004-08-06 19:00,ZBYN 061900Z AUTO 12004KT 6SM 16/14 A2983 RMK T01600140 IEM_DS3505
ZBYN,2004-08-06 20:00,ZBYN 062000Z AUTO 00000KT 6SM 17/14 A2980 RMK T01700140 IEM_DS3505
ZBYN,2004-08-06 21:00,ZBYN 062100Z AUTO 18002KT 5SM 17/15 A2980 RMK SLP067 T01690153 57002 IEM_DS3505
ZBYN,2004-08-06 22:00,ZBYN 062200Z AUTO 12004KT 4SM 14/12 A2983 RMK T01400120 IEM_DS3505
ZBYN,2004-08-06 23:00,ZBYN 062300Z AUTO 00000KT 2 1/2SM 16/14 A2983 RMK T01600140 IEM_DS3505
ZBYN,2004-08-07 00:00,ZBYN 070000Z AUTO 00000KT 5SM 22/16 A2983 RMK SLP072 T02160163 52002 IEM_DS3505
ZBYN,2004-08-07 01:00,ZBYN 070100Z AUTO 00000KT 5SM 21/14 A2983 RMK T02100140 IEM_DS3505
ZBYN,2004-08-07 02:00,ZBYN 070200Z AUTO 6SM 23/14 A2983 RMK T02300140 IEM_DS3505
ZBYN,2004-08-07 03:00,ZBYN 070300Z AUTO 11004KT 3SM 26/17 A2980 RMK SLP064 T02610169 57004 IEM_DS3505
ZBYN,2004-08-07 04:00,ZBYN 070400Z AUTO 6SM 26/15 A2980 RMK T02600150 IEM_DS3505
ZBYN,2004-08-07 05:00,ZBYN 070500Z AUTO 20004KT 6SM 27/15 A2977 RMK T02700150 IEM_DS3505
ZBYN,2004-08-07 06:00,ZBYN 070600Z AUTO 18008KT 4SM 30/18 A2974 RMK SLP035 T02980176 57024 IEM_DS3505
ZBYN,2004-08-07 07:00,ZBYN 070700Z AUTO 22004KT 6SM 29/13 A2971 RMK T02900130 IEM_DS3505
ZBYN,2004-08-07 08:00,ZBYN 070800Z AUTO 23002KT 6SM 30/11 A2971 RMK T03000110 IEM_DS3505
ZBYN,2004-08-07 09:00,ZBYN 070900Z AUTO 18004KT 7SM 31/15 A2971 RMK SLP022 T03140150 57013 IEM_DS3505
ZBYN,2004-08-07 10:00,ZBYN 071000Z AUTO 12002KT 6SM 28/17 A2968 RMK T02800170 IEM_DS3505
ZBYN,2004-08-07 11:00,ZBYN 071100Z AUTO 15002KT 6SM 26/17 A2971 RMK T02600170 IEM_DS3505
ZBYN,2004-08-07 12:00,ZBYN 071200Z AUTO 20002KT 6SM 25/17 A2971 RMK SLP029 T02500167 52004 IEM_DS3505
ZBYN,2004-08-07 13:00,ZBYN 071300Z AUTO 09004KT 6SM 22/14 A2971 RMK T02200140 IEM_DS3505
ZBYN,2004-08-07 14:00,ZBYN 071400Z AUTO 11004KT 6SM 21/13 A2974 RMK T02100130 IEM_DS3505
ZBYN,2004-08-07 15:00,ZBYN 071500Z AUTO 02002KT 6SM 21/17 A2974 RMK SLP040 T02100166 52011 IEM_DS3505
ZBYN,2004-08-07 16:00,ZBYN 071600Z AUTO 12006KT 3SM 20/18 A2974 RMK T02000180 IEM_DS3505
ZBYN,2004-08-07 17:00,ZBYN 071700Z AUTO 11004KT 3SM 20/18 A2974 RMK T02000180 IEM_DS3505
ZBYN,2004-08-07 18:00,ZBYN 071800Z AUTO 22002KT 6SM 20/17 A2974 RMK SLP033 T02010169 57002 IEM_DS3505
ZBYN,2004-08-07 19:00,ZBYN 071900Z AUTO 00000KT 2SM 19/17 A2974 RMK T01900170 IEM_DS3505
ZBYN,2004-08-07 20:00,ZBYN 072000Z AUTO 00000KT 2SM 19/17 A2974 RMK T01900170 IEM_DS3505
ZBYN,2004-08-07 21:00,ZBYN 072100Z AUTO 32002KT 6SM 20/16 A2977 RMK SLP039 T01980159 52007 IEM_DS3505
ZBYN,2004-08-07 22:00,ZBYN 072200Z AUTO 00000KT 2SM 17/15 A2977 RMK T01700150 IEM_DS3505
ZBYN,2004-08-07 23:00,ZBYN 072300Z AUTO 00000KT 1 1/4SM 19/17 A2977 RMK T01900170 IEM_DS3505
ZBYN,2004-08-08 00:00,ZBYN 080000Z AUTO 32002KT 5SM 23/18 A2977 RMK SLP052 T02260184 52007 IEM_DS3505
ZBYN,2004-08-08 01:00,ZBYN 080100Z AUTO 00000KT 1SM 23/17 A2977 RMK T02300170 IEM_DS3505
ZBYN,2004-08-08 02:00,ZBYN 080200Z AUTO 00000KT 1 1/4SM 25/17 A2977 RMK T02500170 IEM_DS3505
ZBYN,2004-08-08 03:00,ZBYN 080300Z AUTO 14002KT 4SM 28/19 A2977 RMK SLP042 T02840193 57007 IEM_DS3505
ZBYN,2004-08-08 04:00,ZBYN 080400Z AUTO 00000KT 2SM 27/18 A2974 RMK T02700180 IEM_DS3505
ZBYN,2004-08-08 05:00,ZBYN 080500Z AUTO 00000KT 5SM 29/17 A2971 RMK T02900170 IEM_DS3505
ZBYN,2004-08-08 06:00,ZBYN 080600Z AUTO 14004KT 6SM 32/17 A2971 RMK SLP019 T03220173 57017 IEM_DS3505
ZBYN,2004-08-08 07:00,ZBYN 080700Z AUTO 00000KT 6SM 31/15 A2968 RMK T03100150 IEM_DS3505
ZBYN,2004-08-08 08:00,ZBYN 080800Z AUTO 6SM 31/16 A2968 RMK T03100160 IEM_DS3505
ZBYN,2004-08-08 09:00,ZBYN 080900Z AUTO 18002KT 9SM 33/18 A2965 RMK SLP003 T03280178 57014 IEM_DS3505
ZBYN,2004-08-08 10:00,ZBYN 081000Z AUTO 00000KT 7SM 30/19 A2965 RMK T03000190 IEM_DS3505
ZBYN,2004-08-08 11:00,ZBYN 081100Z AUTO 09004KT 6SM 29/18 A2968 RMK T02900180 IEM_DS3505
ZBYN,2004-08-08 12:00,ZBYN 081200Z AUTO 09014KT 6SM 28/21 A2971 RMK SLP021 T02830213 52014 IEM_DS3505
ZBYN,2004-08-08 13:00,ZBYN 081300Z AUTO 07012KT 26/20 A2974 RMK T02600200 IEM_DS3505
ZBYN,2004-08-08 14:00,ZBYN 081400Z AUTO 08010KT 2 1/2SM 25/20 A2974 RMK T02500200 IEM_DS3505
ZBYN,2004-08-08 15:00,ZBYN 081500Z AUTO 07004KT 5SM 27/20 A2974 RMK SLP032 T02670203 52016 IEM_DS3505
ZBYN,2004-08-08 16:00,ZBYN 081600Z AUTO 08010KT 4SM 24/19 A2977 RMK T02400190 IEM_DS3505
ZBYN,2004-08-08 17:00,ZBYN 081700Z AUTO 08006KT 4SM 24/19 A2977 RMK T02400190 IEM_DS3505
ZBYN,2004-08-08 18:00,ZBYN 081800Z AUTO 36002KT 4SM 25/20 A2974 RMK SLP030 T02520202 52001 IEM_DS3505
ZBYN,2004-08-08 19:00,ZBYN 081900Z AUTO 08006KT 2SM 24/19 A2977 RMK T02400190 IEM_DS3505
ZBYN,2004-08-08 20:00,ZBYN 082000Z AUTO 07004KT 1 1/2SM 23/19 A2974 RMK T02300190 IEM_DS3505
ZBYN,2004-08-08 21:00,ZBYN 082100Z AUTO 32002KT 2SM 25/20 A2977 RMK SLP033 T02470202 52003 IEM_DS3505
ZBYN,2004-08-08 22:00,ZBYN 082200Z AUTO 05004KT 1 1/4SM 22/19 A2977 RMK T02200190 IEM_DS3505
ZBYN,2004-08-08 23:00,ZBYN 082300Z AUTO 07006KT 1 1/4SM 23/19 A2980 RMK T02300190 IEM_DS3505
ZBYN,2004-08-09 00:00,ZBYN 090000Z AUTO 32002KT 1 1/4SM 25/21 A2980 RMK SLP054 T02530206 52014 IEM_DS3505
ZBYN,2004-08-09 01:00,ZBYN 090100Z AUTO 07006KT 2SM 25/19 A2980 RMK T02500190 IEM_DS3505
ZBYN,2004-08-09 02:00,ZBYN 090200Z AUTO 07006KT 2 1/2SM 27/20 A2980 RMK T02700200 IEM_DS3505
ZBYN,2004-08-09 03:00,ZBYN 090300Z AUTO 34002KT 4SM 29/21 A2980 RMK SLP048 T02910208 57003 IEM_DS3505
ZBYN,2004-08-09 04:00,ZBYN 090400Z AUTO 09002KT 2 1/2SM 29/17 A2980 RMK T02900170 IEM_DS3505
ZBYN,2004-08-09 05:00,ZBYN 090500Z AUTO 06004KT 30/18 A2977 RMK T03000180 IEM_DS3505
ZBYN,2004-08-09 06:00,ZBYN 090600Z AUTO 11004KT 5SM 31/21 A2974 RMK SLP027 T03120214 57018 IEM_DS3505
ZBYN,2004-08-09 07:00,ZBYN 090700Z AUTO 10006KT 30/19 A2971 RMK T03000190 IEM_DS3505
ZBYN,2004-08-09 08:00,ZBYN 090800Z AUTO 11008KT 30/19 A2971 RMK T03000190 IEM_DS3505
ZBYN,2004-08-09 09:00,ZBYN 090900Z AUTO 11010KT 6SM 30/22 A2974 RMK SLP020 T03020216 57009 IEM_DS3505
ZBYN,2004-08-09 10:00,ZBYN 091000Z AUTO 10008KT 28/19 A2971 RMK T02800190 IEM_DS3505
ZBYN,2004-08-09 11:00,ZBYN 091100Z AUTO 08012KT 27/18 A2974 RMK T02700180 IEM_DS3505
ZBYN,2004-08-09 12:00,ZBYN 091200Z AUTO 07004KT 6SM 28/20 A2977 RMK SLP037 T02790205 52014 IEM_DS3505
ZBYN,2004-08-09 13:00,ZBYN 091300Z AUTO 08012KT 25/19 A2977 RMK T02500190 IEM_DS3505
ZBYN,2004-08-09 14:00,ZBYN 091400Z AUTO 12008KT 4SM 25/17 A2980 RMK T02500170 IEM_DS3505
ZBYN,2004-08-09 15:00,ZBYN 091500Z AUTO 32006KT 5SM 23/22 A2980 RMK SLP061 T02340220 52021 IEM_DS3505
ZBYN,2004-08-09 16:00,ZBYN 091600Z AUTO 34004KT 1 1/4SM 22/20 A2980 RMK T02200200 IEM_DS3505
ZBYN,2004-08-09 17:00,ZBYN 091700Z AUTO 36006KT 2 1/2SM 22/20 A2980 RMK T02200200 IEM_DS3505
ZBYN,2004-08-09 18:00,ZBYN 091800Z AUTO 00000KT 5SM 23/22 A2977 RMK 60043 SLP044 T02280216 57014 IEM_DS3505
ZBYN,2004-08-09 19:00,ZBYN 091900Z AUTO 00000KT 2SM 21/20 A2977 RMK T02100200 IEM_DS3505
ZBYN,2004-08-09 20:00,ZBYN 092000Z AUTO 00000KT 1 1/2SM 21/20 A2980 RMK T02100200 IEM_DS3505
ZBYN,2004-08-09 21:00,ZBYN 092100Z AUTO 34002KT 5SM 23/22 A2980 RMK 70041 SLP050 T02310217 52005 IEM_DS3505
ZBYN,2004-08-09 22:00,ZBYN 092200Z AUTO 00000KT 1 1/2SM 21/20 A2983 RMK T02100200 IEM_DS3505
ZBYN,2004-08-09 23:00,ZBYN 092300Z AUTO 00000KT 1SM 22/20 A2983 RMK T02200200 IEM_DS3505
ZBYN,2004-08-10 00:00,ZBYN 100000Z AUTO 02002KT 4SM 24/22 A2983 RMK 70041 SLP060 T02400221 52007 IEM_DS3505
ZBYN,2004-08-10 01:00,ZBYN 100100Z AUTO 05006KT 2SM 25/20 A2980 RMK T02500200 IEM_DS3505
ZBYN,2004-08-10 02:00,ZBYN 100200Z AUTO 09006KT 2 1/2SM 26/20 A2983 RMK T02600200 IEM_DS3505
ZBYN,2004-08-10 03:00,ZBYN 100300Z AUTO 09006KT 5SM 29/22 A2983 RMK SLP060 T02890224 52001 IEM_DS3505
ZBYN,2004-08-10 04:00,ZBYN 100400Z AUTO 07002KT 28/19 A2983 RMK T02800190 IEM_DS3505
ZBYN,2004-08-10 05:00,ZBYN 100500Z AUTO 00000KT 7SM 29/18 A2980 RMK T02900180 IEM_DS3505
ZBYN,2004-08-10 06:00,ZBYN 100600Z AUTO 04006KT 5SM 30/22 A2977 RMK SLP043 T03000219 57015 IEM_DS3505
ZBYN,2004-08-10 07:00,ZBYN 100700Z AUTO 35010KT 29/20 A2977 RMK T02900200 IEM_DS3505
ZBYN,2004-08-10 08:00,ZBYN 100800Z AUTO 34008KT 29/20 A2977 RMK T02900200 IEM_DS3505
ZBYN,2004-08-10 09:00,ZBYN 100900Z AUTO 09014KT 5SM 27/22 A2977 RMK SLP048 T02660218 54000 IEM_DS3505
ZBYN,2004-08-10 10:00,ZBYN 101000Z AUTO 09008KT 26/19 A2980 RMK T02600190 IEM_DS3505
ZBYN,2004-08-10 11:00,ZBYN 101100Z AUTO 09010KT 26/19 A2983 RMK T02600190 IEM_DS3505
ZBYN,2004-08-10 12:00,ZBYN 101200Z AUTO 07004KT 6SM 25/22 A2983 RMK 60020 SLP068 T02530216 52018 IEM_DS3505
ZBYN,2004-08-10 13:00,ZBYN 101300Z AUTO 08008KT 4SM 24/19 A2985 RMK T02400190 IEM_DS3505
ZBYN,2004-08-10 14:00,ZBYN 101400Z AUTO 08010KT 4SM 24/19 A2985 RMK T02400190 IEM_DS3505
ZBYN,2004-08-10 15:00,ZBYN 101500Z AUTO 11004KT 6SM 25/21 A2988 RMK SLP077 T02490210 52014 IEM_DS3505
ZBYN,2004-08-10 16:00,ZBYN 101600Z AUTO 07004KT 4SM 24/19 A2988 RMK T02400190 IEM_DS3505
ZBYN,2004-08-10 17:00,ZBYN 101700Z AUTO 06006KT 4SM 23/19 A2985 RMK T02300190 IEM_DS3505
ZBYN,2004-08-10 18:00,ZBYN 101800Z AUTO 07004KT 6SM 24/21 A2985 RMK SLP068 T02430208 57007 IEM_DS3505
ZBYN,2004-08-10 19:00,ZBYN 101900Z AUTO 09004KT 4SM 23/19 A2985 RMK T02300190 IEM_DS3505
ZBYN,2004-08-10 20:00,ZBYN 102000Z AUTO 06006KT 6SM 23/19 A2983 RMK T02300190 IEM_DS3505
ZBYN,2004-08-10 21:00,ZBYN 102100Z AUTO 05002KT 6SM 23/19 A2983 RMK T02300190 IEM_DS3505
ZBYN,2004-08-10 22:00,ZBYN 102200Z AUTO 08002KT 6SM 22/18 A2985 RMK T02200180 IEM_DS3505
ZBYN,2004-08-10 23:00,ZBYN 102300Z AUTO 00000KT 6SM 23/19 A2985 RMK T02300190 IEM_DS3505
ZBYN,2004-08-11 00:00,ZBYN 110000Z AUTO 32002KT 6SM 25/21 A2985 RMK 70018 SLP077 T02490210 52005 IEM_DS3505
ZBYN,2004-08-11 01:00,ZBYN 110100Z AUTO 06004KT 6SM 25/19 A2985 RMK T02500190 IEM_DS3505
ZBYN,2004-08-11 02:00,ZBYN 110200Z AUTO 10004KT 6SM 26/19 A2985 RMK T02600190 IEM_DS3505
ZBYN,2004-08-11 03:00,ZBYN 110300Z AUTO 36004KT 5SM 29/22 A2985 RMK SLP068 T02870217 57003 IEM_DS3505
ZBYN,2004-08-11 04:00,ZBYN 110400Z AUTO 06002KT 7SM 28/19 A2983 RMK T02800190 IEM_DS3505
ZBYN,2004-08-11 05:00,ZBYN 110500Z AUTO 11004KT 7SM 27/20 A2983 RMK T02700200 IEM_DS3505
ZBYN,2004-08-11 06:00,ZBYN 110600Z AUTO 07006KT 5SM 26/23 RMK SLP063 T02570226 57010 IEM_DS3505
ZBYN,2004-08-11 07:00,ZBYN 110700Z AUTO 11004KT 7SM 25/21 A2980 RMK T02500210 IEM_DS3505
ZBYN,2004-08-11 08:00,ZBYN 110800Z AUTO 24002KT 7SM 24/21 A2980 RMK T02400210 IEM_DS3505
ZBYN,2004-08-11 09:00,ZBYN 110900Z AUTO 32004KT 5SM 27/23 A2980 RMK SLP056 T02680229 57005 IEM_DS3505
ZBYN,2004-08-11 10:00,ZBYN 111000Z AUTO 10004KT 6SM 25/20 A2980 RMK T02500200 IEM_DS3505
ZBYN,2004-08-11 11:00,ZBYN 111100Z AUTO 08004KT 6SM 25/21 A2980 RMK T02500210 IEM_DS3505
ZBYN,2004-08-11 12:00,ZBYN 111200Z AUTO 32002KT 3SM 25/23 A2983 RMK SLP065 T02540229 52007 IEM_DS3505
ZBYN,2004-08-11 13:00,ZBYN 111300Z AUTO 08004KT 7SM 24/20 A2983 RMK T02400200 IEM_DS3505
ZBYN,2004-08-11 14:00,ZBYN 111400Z AUTO 08002KT 7SM 24/20 A2985 RMK T02400200 IEM_DS3505
ZBYN,2004-08-11 15:00,ZBYN 111500Z AUTO 00000KT 3SM 25/22 A2983 RMK SLP066 T02510224 52006 IEM_DS3505
ZBYN,2004-08-11 16:00,ZBYN 111600Z AUTO 10004KT 6SM 23/20 A2983 RMK T02300200 IEM_DS3505
ZBYN,2004-08-11 17:00,ZBYN 111700Z AUTO 09004KT 6SM 23/20 A2983 RMK T02300200 IEM_DS3505
ZBYN,2004-08-11 18:00,ZBYN 111800Z AUTO 25002KT 3SM 24/21 A2983 RMK SLP066 T02450214 57005 IEM_DS3505
ZBYN,2004-08-11 19:00,ZBYN 111900Z AUTO 11004KT 6SM 23/20 A2983 RMK T02300200 IEM_DS3505
ZBYN,2004-08-11 20:00,ZBYN 112000Z AUTO 15002KT 6SM 22/20 A2983 RMK T02200200 IEM_DS3505
ZBYN,2004-08-11 21:00,ZBYN 112100Z AUTO 20002KT 4SM 23/22 RMK 70008 SLP063 T02290219 57003 IEM_DS3505
ZBYN,2004-08-11 23:00,ZBYN 112300Z AUTO 00000KT 1 1/4SM 22/20 A2983 RMK T02200200 IEM_DS3505
ZBYN,2004-08-12 00:00,ZBYN 120000Z AUTO 14004KT 4SM 23/22 A2985 RMK 60028 70027 SLP074 T02300220 52008 IEM_DS3505
ZBYN,2004-08-12 01:00,ZBYN 120100Z AUTO 09002KT 2SM 22/21 A2985 RMK T02200210 IEM_DS3505
ZBYN,2004-08-12 02:00,ZBYN 120200Z AUTO 00000KT 2SM 23/21 A2985 RMK T02300210 IEM_DS3505
ZBYN,2004-08-12 03:00,ZBYN 120300Z AUTO 14004KT 4SM 24/23 A2985 RMK SLP074 T02440227 52002 IEM_DS3505
ZBYN,2004-08-12 04:00,ZBYN 120400Z AUTO 00000KT 2SM 24/21 A2983 RMK T02400210 IEM_DS3505
ZBYN,2004-08-12 05:00,ZBYN 120500Z AUTO 19002KT 2SM 25/21 A2983 RMK T02500210 IEM_DS3505
ZBYN,2004-08-12 06:00,ZBYN 120600Z AUTO 18004KT 4SM 26/22 A2983 RMK SLP062 T02610222 57010 IEM_DS3505
ZBYN,2004-08-12 07:00,ZBYN 120700Z AUTO 00000KT 2 1/2SM 25/21 A2983 RMK T02500210 IEM_DS3505
ZBYN,2004-08-12 08:00,ZBYN 120800Z AUTO 00000KT 1SM 24/22 A2980 RMK T02400220 IEM_DS3505
ZBYN,2004-08-12 09:00,ZBYN 120900Z AUTO 36008KT 5SM 23/19 A2980 RMK SLP067 T02300192 57002 IEM_DS3505
ZBYN,2004-08-12 10:00,ZBYN 121000Z AUTO 32008KT 7SM 22/18 A2980 RMK T02200180 IEM_DS3505
ZBYN,2004-08-12 11:00,ZBYN 121100Z AUTO 33010KT 6SM 21/17 A2983 RMK T02100170 IEM_DS3505
ZBYN,2004-08-12 12:00,ZBYN 121200Z AUTO 36008KT 6SM 22/17 A2985 RMK 60008 SLP087 T02210173 52017 IEM_DS3505
ZBYN,2004-08-12 13:00,ZBYN 121300Z AUTO 35006KT 7SM 21/16 A2988 RMK T02100160 IEM_DS3505
ZBYN,2004-08-12 14:00,ZBYN 121400Z AUTO 04006KT 7SM 20/17 A2994 RMK T02000170 IEM_DS3505
ZBYN,2004-08-12 15:00,ZBYN 121500Z AUTO 32002KT 6SM 19/17 A2994 RMK SLP124 T01870172 52031 IEM_DS3505
ZBYN,2004-08-12 16:00,ZBYN 121600Z AUTO 00000KT 7SM 18/16 A2997 RMK T01800160 IEM_DS3505
ZBYN,2004-08-12 17:00,ZBYN 121700Z AUTO 05008KT 7SM 17/15 A2994 RMK T01700150 IEM_DS3505
ZBYN,2004-08-12 18:00,ZBYN 121800Z AUTO 02002KT 6SM 18/17 A2994 RMK 60055 SLP118 T01820172 57003 IEM_DS3505
ZBYN,2004-08-12 19:00,ZBYN 121900Z AUTO 04008KT 7SM 17/15 A2994 RMK T01700150 IEM_DS3505
ZBYN,2004-08-12 20:00,ZBYN 122000Z AUTO 04008KT 7SM 16/14 A2994 RMK T01600140 IEM_DS3505
ZBYN,2004-08-12 21:00,ZBYN 122100Z AUTO 07004KT 5SM 18/17 A2997 RMK 70134 SLP128 T01780168 52004 IEM_DS3505
ZBYN,2004-08-12 22:00,ZBYN 122200Z AUTO 04006KT 7SM 16/14 A2997 RMK T01600140 IEM_DS3505
ZBYN,2004-08-12 23:00,ZBYN 122300Z AUTO 04006KT 7SM 16/14 A2997 RMK T01600140 IEM_DS3505
ZBYN,2004-08-13 00:00,ZBYN 130000Z AUTO 09002KT 4SM 18/17 A3000 RMK 60063 70124 SLP142 T01780167 52011 IEM_DS3505
ZBYN,2004-08-13 01:00,ZBYN 130100Z AUTO 05006KT 7SM 16/14 A3000 RMK T01600140 IEM_DS3505
ZBYN,2004-08-13 02:00,ZBYN 130200Z AUTO 06006KT 7SM 17/14 A3003 RMK T01700140 IEM_DS3505
ZBYN,2004-08-13 03:00,ZBYN 130300Z AUTO 07010KT 6SM 18/15 A3003 RMK SLP157 T01810146 52010 IEM_DS3505
ZBYN,2004-08-13 04:00,ZBYN 130400Z AUTO 07008KT 7SM 17/13 A3003 RMK T01700130 IEM_DS3505
ZBYN,2004-08-13 05:00,ZBYN 130500Z AUTO 07010KT 7SM 16/12 A3003 RMK T01600120 IEM_DS3505
ZBYN,2004-08-13 06:00,ZBYN 130600Z AUTO 09006KT 7SM 17/14 A3003 RMK 60002 SLP157 T01720143 57002 IEM_DS3505
ZBYN,2004-08-13 07:00,ZBYN 130700Z AUTO 08008KT 7SM 15/12 A3003 RMK T01500120 IEM_DS3505
ZBYN,2004-08-13 08:00,ZBYN 130800Z AUTO 08010KT 7SM 15/11 A3000 RMK T01500110 IEM_DS3505
ZBYN,2004-08-13 09:00,ZBYN 130900Z AUTO 09004KT 6SM 16/12 A3000 RMK SLP153 T01630123 57006 IEM_DS3505
ZBYN,2004-08-13 10:00,ZBYN 131000Z AUTO 06008KT 6SM 15/09 A3000 RMK T01500090 IEM_DS3505
ZBYN,2004-08-13 11:00,ZBYN 131100Z AUTO 06008KT 7SM 15/09 A3003 RMK T01500090 IEM_DS3505
ZBYN,2004-08-13 12:00,ZBYN 131200Z AUTO 11008KT 12SM 15/11 A3006 RMK SLP166 T01520114 52010 IEM_DS3505
ZBYN,2004-08-13 13:00,ZBYN 131300Z AUTO 09006KT 7SM 13/09 A3006 RMK T01300090 IEM_DS3505
ZBYN,2004-08-13 14:00,ZBYN 131400Z AUTO 10002KT 7SM 13/11 A3006 RMK T01300110 IEM_DS3505
ZBYN,2004-08-13 15:00,ZBYN 131500Z AUTO 14002KT 12SM 15/12 A3006 RMK SLP177 T01510119 52011 IEM_DS3505
ZBYN,2004-08-13 16:00,ZBYN 131600Z AUTO 11008KT 7SM 13/09 A3006 RMK T01300090 IEM_DS3505
ZBYN,2004-08-13 17:00,ZBYN 131700Z AUTO 10008KT 7SM 14/08 A3006 RMK T01400080 IEM_DS3505
ZBYN,2004-08-13 18:00,ZBYN 131800Z AUTO 14002KT 9SM 15/12 A3006 RMK SLP174 T01460119 57005 IEM_DS3505
ZBYN,2004-08-13 19:00,ZBYN 131900Z AUTO 10006KT 7SM 13/08 A3006 RMK T01300080 IEM_DS3505
ZBYN,2004-08-13 20:00,ZBYN 132000Z AUTO 09004KT 7SM 13/08 A3006 RMK T01300080 IEM_DS3505
ZBYN,2004-08-13 21:00,ZBYN 132100Z AUTO 20002KT 5SM 14/12 A3006 RMK 70013 SLP176 T01400117 54000 IEM_DS3505
ZBYN,2004-08-13 22:00,ZBYN 132200Z AUTO 11006KT 6SM 13/09 A3006 RMK T01300090 IEM_DS3505
ZBYN,2004-08-13 23:00,ZBYN 132300Z AUTO 06002KT 6SM 13/09 A3009 RMK T01300090 IEM_DS3505
ZBYN,2004-08-14 00:00,ZBYN 140000Z AUTO 11002KT 5SM 15/12 A3009 RMK 60002 70004 SLP193 T01460123 52014 IEM_DS3505
ZBYN,2004-08-14 01:00,ZBYN 140100Z AUTO 09004KT 6SM 15/09 A3012 RMK T01500090 IEM_DS3505
ZBYN,2004-08-14 02:00,ZBYN 140200Z AUTO 06008KT 6SM 15/09 A3012 RMK T01500090 IEM_DS3505
ZBYN,2004-08-14 03:00,ZBYN 140300Z AUTO 09004KT 7SM 18/12 A3012 RMK SLP193 T01800120 52005 IEM_DS3505
ZBYN,2004-08-14 04:00,ZBYN 140400Z AUTO 06008KT 7SM 15/09 A3012 RMK T01500090 IEM_DS3505
ZBYN,2004-08-14 05:00,ZBYN 140500Z AUTO 05008KT 7SM 16/10 A3009 RMK T01600100 IEM_DS3505
ZBYN,2004-08-14 06:00,ZBYN 140600Z AUTO 36004KT 9SM 17/12 A3009 RMK 60000 SLP187 T01690116 57008 IEM_DS3505
ZBYN,2004-08-14 07:00,ZBYN 140700Z AUTO 04004KT 6SM 16/10 A3009 RMK T01600100 IEM_DS3505
ZBYN,2004-08-14 08:00,ZBYN 140800Z AUTO 35006KT 6SM 16/11 A3006 RMK T01600110 IEM_DS3505
ZBYN,2004-08-14 09:00,ZBYN 140900Z AUTO 36006KT 7SM 17/12 A3006 RMK SLP177 T01670118 57010 IEM_DS3505
ZBYN,2004-08-14 10:00,ZBYN 141000Z AUTO 34008KT 6SM 15/11 A3006 RMK T01500110 IEM_DS3505
ZBYN,2004-08-14 11:00,ZBYN 141100Z AUTO 33006KT 6SM 14/11 A3003 RMK T01400110 IEM_DS3505
ZBYN,2004-08-14 12:00,ZBYN 141200Z AUTO 36006KT 12SM 16/12 A3006 RMK SLP179 T01570123 52001 IEM_DS3505
ZBYN,2004-08-14 13:00,ZBYN 141300Z AUTO 34004KT 6SM 14/11 A3009 RMK T01400110 IEM_DS3505
ZBYN,2004-08-14 14:00,ZBYN 141400Z AUTO 34004KT 6SM 14/11 A3009 RMK T01400110 IEM_DS3505
ZBYN,2004-08-14 15:00,ZBYN 141500Z AUTO 32004KT 9SM 16/12 A3006 RMK SLP180 T01580122 52006 IEM_DS3505
ZBYN,2004-08-14 16:00,ZBYN 141600Z AUTO 34008KT 6SM 14/11 A3006 RMK T01400110 IEM_DS3505
ZBYN,2004-08-14 17:00,ZBYN 141700Z AUTO 33006KT 6SM 14/12 A3006 RMK T01400120 IEM_DS3505
ZBYN,2004-08-14 18:00,ZBYN 141800Z AUTO 32004KT 6SM 15/13 A3003 RMK SLP167 T01520131 57014 IEM_DS3505
ZBYN,2004-08-14 19:00,ZBYN 141900Z AUTO 32004KT 6SM 14/12 A3003 RMK T01400120 IEM_DS3505
ZBYN,2004-08-14 20:00,ZBYN 142000Z AUTO 29002KT 6SM 14/11 A3000 RMK T01400110 IEM_DS3505
ZBYN,2004-08-14 21:00,ZBYN 142100Z AUTO 32004KT 6SM 15/13 A3000 RMK 70000 SLP156 T01540127 57010 IEM_DS3505
ZBYN,2004-08-14 22:00,ZBYN 142200Z AUTO 32002KT 6SM 14/11 A3000 RMK T01400110 IEM_DS3505
ZBYN,2004-08-14 23:00,ZBYN 142300Z AUTO 33004KT 6SM 15/11 A3000 RMK T01500110 IEM_DS3505
ZBYN,2004-08-15 00:00,ZBYN 150000Z AUTO 34004KT 5SM 16/13 A3000 RMK 70000 SLP155 T01650127 57001 IEM_DS3505
ZBYN,2004-08-15 01:00,ZBYN 150100Z AUTO 36004KT 6SM 17/11 A3000 RMK T01700110 IEM_DS3505
ZBYN,2004-08-15 02:00,ZBYN 150200Z AUTO 07004KT 6SM 18/10 A3000 RMK T01800100 IEM_DS3505
ZBYN,2004-08-15 03:00,ZBYN 150300Z AUTO 32004KT 5SM 18/13 A2997 RMK SLP149 T01750134 57004 IEM_DS3505
ZBYN,2004-08-15 04:00,ZBYN 150400Z AUTO 33008KT 6SM 17/12 A2997 RMK T01700120 IEM_DS3505
ZBYN,2004-08-15 05:00,ZBYN 150500Z AUTO 34008KT 6SM 17/11 A2997 RMK T01700110 IEM_DS3505
ZBYN,2004-08-15 06:00,ZBYN 150600Z AUTO 36004KT 6SM 18/13 A2994 RMK SLP134 T01780127 57014 IEM_DS3505
ZBYN,2004-08-15 07:00,ZBYN 150700Z AUTO 33006KT 6SM 17/12 A2994 RMK T01700120 IEM_DS3505
ZBYN,2004-08-15 08:00,ZBYN 150800Z AUTO 31004KT 6SM 17/12 A2991 RMK T01700120 IEM_DS3505
ZBYN,2004-08-15 09:00,ZBYN 150900Z AUTO 32004KT 6SM 17/13 A2994 RMK SLP130 T01740133 57004 IEM_DS3505
ZBYN,2004-08-15 10:00,ZBYN 151000Z AUTO 00000KT 6SM 17/12 A2991 RMK T01700120 IEM_DS3505
ZBYN,2004-08-15 11:00,ZBYN 151100Z AUTO 00000KT 6SM 16/13 A2994 RMK T01600130 IEM_DS3505
ZBYN,2004-08-15 12:00,ZBYN 151200Z AUTO 32004KT 6SM 17/14 A2994 RMK SLP134 T01690136 52005 IEM_DS3505
ZBYN,2004-08-15 13:00,ZBYN 151300Z AUTO 00000KT 7SM 16/13 A2994 RMK T01600130 IEM_DS3505
ZBYN,2004-08-15 14:00,ZBYN 151400Z AUTO 00000KT 7SM 16/13 A2997 RMK T01600130 IEM_DS3505
ZBYN,2004-08-15 15:00,ZBYN 151500Z AUTO 32002KT 5SM 16/13 A2994 RMK SLP131 T01650132 57002 IEM_DS3505
ZBYN,2004-08-15 16:00,ZBYN 151600Z AUTO 00000KT 6SM 15/13 A2994 RMK T01500130 IEM_DS3505
ZBYN,2004-08-15 17:00,ZBYN 151700Z AUTO 00000KT 6SM 15/13 A2994 RMK T01500130 IEM_DS3505
ZBYN,2004-08-15 18:00,ZBYN 151800Z AUTO 29002KT 5SM 16/14 A2991 RMK SLP122 T01580135 57009 IEM_DS3505
ZBYN,2004-08-15 19:00,ZBYN 151900Z AUTO 00000KT 2 1/2SM 14/13 A2991 RMK T01400130 IEM_DS3505
ZBYN,2004-08-15 20:00,ZBYN 152000Z AUTO 00000KT 4SM 14/12 A2988 RMK T01400120 IEM_DS3505
ZBYN,2004-08-15 21:00,ZBYN 152100Z AUTO 29002KT 5SM 15/13 A2988 RMK SLP117 T01530133 57006 IEM_DS3505
ZBYN,2004-08-15 22:00,ZBYN 152200Z AUTO 00000KT 1 1/4SM 13/12 A2991 RMK T01300120 IEM_DS3505
ZBYN,2004-08-15 23:00,ZBYN 152300Z AUTO 00000KT 1 1/4SM 13/12 A2991 RMK T01300120 IEM_DS3505
ZBYN,2004-08-16 00:00,ZBYN 160000Z AUTO 11004KT 3SM 17/14 A2991 RMK SLP120 T01670144 52004 IEM_DS3505
ZBYN,2004-08-16 01:00,ZBYN 160100Z AUTO 4SM 16/11 A2991 RMK T01600110 IEM_DS3505
ZBYN,2004-08-16 02:00,ZBYN 160200Z AUTO 00000KT 18/12 A2991 RMK T01800120 IEM_DS3505
ZBYN,2004-08-16 03:00,ZBYN 160300Z AUTO 07002KT 4SM 21/15 A2991 RMK SLP111 T02110150 57002 IEM_DS3505
ZBYN,2004-08-16 04:00,ZBYN 160400Z AUTO 02002KT 21/13 A2988 RMK T02100130 IEM_DS3505
ZBYN,2004-08-16 05:00,ZBYN 160500Z AUTO 5SM 22/14 A2988 RMK T02200140 IEM_DS3505
ZBYN,2004-08-16 06:00,ZBYN 160600Z AUTO 25002KT 6SM 24/16 A2985 RMK SLP092 T02360162 57015 IEM_DS3505
ZBYN,2004-08-16 07:00,ZBYN 160700Z AUTO 27004KT 6SM 23/15 A2983 RMK T02300150 IEM_DS3505
ZBYN,2004-08-16 08:00,ZBYN 160800Z AUTO 6SM 23/14 A2983 RMK T02300140 IEM_DS3505
ZBYN,2004-08-16 09:00,ZBYN 160900Z AUTO 34004KT 6SM 26/14 A2983 RMK SLP083 T02580140 57006 IEM_DS3505
ZBYN,2004-08-16 10:00,ZBYN 161000Z AUTO 7SM 23/13 A2983 RMK T02300130 IEM_DS3505
ZBYN,2004-08-16 11:00,ZBYN 161100Z AUTO 08008KT 7SM 21/13 A2985 RMK T02100130 IEM_DS3505
ZBYN,2004-08-16 12:00,ZBYN 161200Z AUTO 07004KT 9SM 21/15 A2988 RMK SLP103 T02080147 52013 IEM_DS3505
ZBYN,2004-08-16 13:00,ZBYN 161300Z AUTO 09010KT 6SM 18/12 A2991 RMK T01800120 IEM_DS3505
ZBYN,2004-08-16 14:00,ZBYN 161400Z AUTO 08010KT 6SM 18/12 A2991 RMK T01800120 IEM_DS3505
ZBYN,2004-08-16 15:00,ZBYN 161500Z AUTO 09004KT 6SM 18/14 A2994 RMK SLP120 T01770142 52018 IEM_DS3505
ZBYN,2004-08-16 16:00,ZBYN 161600Z AUTO 06010KT 6SM 17/12 A2994 RMK T01700120 IEM_DS3505
ZBYN,2004-08-16 17:00,ZBYN 161700Z AUTO 05006KT 6SM 16/12 A2991 RMK T01600120 IEM_DS3505
ZBYN,2004-08-16 18:00,ZBYN 161800Z AUTO 29002KT 6SM 16/15 A2991 RMK SLP113 T01620146 57005 IEM_DS3505
ZBYN,2004-08-16 19:00,ZBYN 161900Z AUTO 10002KT 6SM 15/11 A2991 RMK T01500110 IEM_DS3505
ZBYN,2004-08-16 20:00,ZBYN 162000Z AUTO 00000KT 6SM 14/12 A2991 RMK T01400120 IEM_DS3505
ZBYN,2004-08-16 21:00,ZBYN 162100Z AUTO 32002KT 6SM 17/15 A2991 RMK SLP107 T01710146 57001 IEM_DS3505
ZBYN,2004-08-16 22:00,ZBYN 162200Z AUTO 00000KT 5SM 15/12 A2991 RMK T01500120 IEM_DS3505
ZBYN,2004-08-16 23:00,ZBYN 162300Z AUTO 00000KT 4SM 15/13 A2994 RMK T01500130 IEM_DS3505
ZBYN,2004-08-17 00:00,ZBYN 170000Z AUTO 29002KT 5SM 18/15 A2994 RMK SLP123 T01810150 52009 IEM_DS3505
ZBYN,2004-08-17 01:00,ZBYN 170100Z AUTO 00000KT 3SM 17/13 A2994 RMK T01700130 IEM_DS3505
ZBYN,2004-08-17 02:00,ZBYN 170200Z AUTO 19/13 A2994 RMK T01900130 IEM_DS3505
ZBYN,2004-08-17 03:00,ZBYN 170300Z AUTO 14002KT 5SM 22/16 A2994 RMK SLP118 T02250163 57003 IEM_DS3505
ZBYN,2004-08-17 04:00,ZBYN 170400Z AUTO 6SM 22/14 A2991 RMK T02200140 IEM_DS3505
ZBYN,2004-08-17 05:00,ZBYN 170500Z AUTO 6SM 23/15 A2988 RMK T02300150 IEM_DS3505
ZBYN,2004-08-17 06:00,ZBYN 170600Z AUTO 14004KT 6SM 26/16 A2988 RMK SLP095 T02600160 57018 IEM_DS3505
ZBYN,2004-08-17 07:00,ZBYN 170700Z AUTO 22004KT 6SM 25/15 A2985 RMK T02500150 IEM_DS3505
ZBYN,2004-08-17 08:00,ZBYN 170800Z AUTO 7SM 24/15 A2985 RMK T02400150 IEM_DS3505
ZBYN,2004-08-17 09:00,ZBYN 170900Z AUTO 27002KT 6SM 26/17 A2983 RMK SLP080 T02570166 57013 IEM_DS3505
ZBYN,2004-08-17 10:00,ZBYN 171000Z AUTO 00000KT 7SM 24/16 A2983 RMK T02400160 IEM_DS3505
ZBYN,2004-08-17 11:00,ZBYN 171100Z AUTO 06004KT 7SM 22/15 A2985 RMK T02200150 IEM_DS3505
ZBYN,2004-08-17 12:00,ZBYN 171200Z AUTO 09004KT 6SM 22/16 A2988 RMK SLP095 T02220158 52010 IEM_DS3505
ZBYN,2004-08-17 13:00,ZBYN 171300Z AUTO 07008KT 6SM 20/11 A2988 RMK T02000110 IEM_DS3505
ZBYN,2004-08-17 14:00,ZBYN 171400Z AUTO 06008KT 6SM 20/11 A2988 RMK T02000110 IEM_DS3505
ZBYN,2004-08-17 15:00,ZBYN 171500Z AUTO 00000KT 6SM 19/14 A2988 RMK SLP102 T01940142 52009 IEM_DS3505
ZBYN,2004-08-17 16:00,ZBYN 171600Z AUTO 06008KT 6SM 19/11 A2988 RMK T01900110 IEM_DS3505
ZBYN,2004-08-17 17:00,ZBYN 171700Z AUTO 06004KT 6SM 19/12 A2991 RMK T01900120 IEM_DS3505
ZBYN,2004-08-17 18:00,ZBYN 171800Z AUTO 34002KT 6SM 19/14 A2991 RMK SLP103 T01880143 52005 IEM_DS3505
ZBYN,2004-08-17 19:00,ZBYN 171900Z AUTO 00000KT 6SM 15/13 A2991 RMK T01500130 IEM_DS3505
ZBYN,2004-08-17 20:00,ZBYN 172000Z AUTO 00000KT 6SM 14/12 A2988 RMK T01400120 IEM_DS3505
ZBYN,2004-08-17 21:00,ZBYN 172100Z AUTO 34002KT 6SM 17/13 A2988 RMK SLP102 T01660130 57005 IEM_DS3505
ZBYN,2004-08-17 22:00,ZBYN 172200Z AUTO 00000KT 6SM 14/12 A2991 RMK T01400120 IEM_DS3505
ZBYN,2004-08-17 23:00,ZBYN 172300Z AUTO 00000KT 6SM 14/12 A2991 RMK T01400120 IEM_DS3505
ZBYN,2004-08-18 00:00,ZBYN 180000Z AUTO 32004KT 6SM 19/14 A2991 RMK SLP114 T01880139 52009 IEM_DS3505
ZBYN,2004-08-18 01:00,ZBYN 180100Z AUTO 5SM 19/12 A2991 RMK T01900120 IEM_DS3505
ZBYN,2004-08-18 02:00,ZBYN 180200Z AUTO 00000KT 5SM 21/12 A2991 RMK T02100120 IEM_DS3505
ZBYN,2004-08-18 03:00,ZBYN 180300Z AUTO 34002KT 7SM 24/14 A2991 RMK SLP102 T02450140 57007 IEM_DS3505
ZBYN,2004-08-18 04:00,ZBYN 180400Z AUTO 7SM 23/13 A2988 RMK T02300130 IEM_DS3505
ZBYN,2004-08-18 05:00,ZBYN 180500Z AUTO 00000KT 6SM 25/15 A2985 RMK T02500150 IEM_DS3505
ZBYN,2004-08-18 06:00,ZBYN 180600Z AUTO 11004KT 6SM 28/15 A2985 RMK SLP075 T02760153 57021 IEM_DS3505
ZBYN,2004-08-18 07:00,ZBYN 180700Z AUTO 7SM 26/14 A2983 RMK T02600140 IEM_DS3505
ZBYN,2004-08-18 08:00,ZBYN 180800Z AUTO 7SM 26/15 A2980 RMK T02600150 IEM_DS3505
ZBYN,2004-08-18 09:00,ZBYN 180900Z AUTO 09017KT 9SM 22/17 A2983 RMK SLP086 T02190166 57001 IEM_DS3505
ZBYN,2004-08-18 10:00,ZBYN 181000Z AUTO 00000KT 7SM 19/16 A2983 RMK T01900160 IEM_DS3505
ZBYN,2004-08-18 11:00,ZBYN 181100Z AUTO 07006KT 6SM 21/14 A2983 RMK T02100140 IEM_DS3505
ZBYN,2004-08-18 12:00,ZBYN 181200Z AUTO 02002KT 9SM 22/14 A2988 RMK 60008 SLP096 T02200136 52013 IEM_DS3505
ZBYN,2004-08-18 13:00,ZBYN 181300Z AUTO 08008KT 6SM 19/13 A2988 RMK T01900130 IEM_DS3505
ZBYN,2004-08-18 14:00,ZBYN 181400Z AUTO 07008KT 6SM 19/13 A2991 RMK T01900130 IEM_DS3505
ZBYN,2004-08-18 15:00,ZBYN 181500Z AUTO 27002KT 7SM 19/16 A2991 RMK SLP107 T01880155 52013 IEM_DS3505
ZBYN,2004-08-18 16:00,ZBYN 181600Z AUTO 06002KT 4SM 17/14 A2991 RMK T01700140 IEM_DS3505
ZBYN,2004-08-18 17:00,ZBYN 181700Z AUTO 00000KT 4SM 16/14 A2991 RMK T01600140 IEM_DS3505
ZBYN,2004-08-18 18:00,ZBYN 181800Z AUTO 32002KT 5SM 18/14 A2991 RMK SLP104 T01840143 52001 IEM_DS3505
ZBYN,2004-08-18 19:00,ZBYN 181900Z AUTO 00000KT 4SM 15/13 A2991 RMK T01500130 IEM_DS3505
ZBYN,2004-08-18 20:00,ZBYN 182000Z AUTO 03006KT 4SM 15/13 A2991 RMK T01500130 IEM_DS3505
ZBYN,2004-08-18 21:00,ZBYN 182100Z AUTO 32004KT 6SM 18/14 A2991 RMK 70009 SLP115 T01770144 52001 IEM_DS3505
ZBYN,2004-08-18 22:00,ZBYN 182200Z AUTO 00000KT 2 1/2SM 15/13 A2991 RMK T01500130 IEM_DS3505
ZBYN,2004-08-18 23:00,ZBYN 182300Z AUTO 00000KT 2 1/2SM 16/13 A2994 RMK T01600130 IEM_DS3505
ZBYN,2004-08-19 00:00,ZBYN 190000Z AUTO 32004KT 5SM 19/15 A2997 RMK 70009 SLP126 T01930150 52013 IEM_DS3505
ZBYN,2004-08-19 01:00,ZBYN 190100Z AUTO 05006KT 3SM 19/14 A2994 RMK T01900140 IEM_DS3505
ZBYN,2004-08-19 02:00,ZBYN 190200Z AUTO 07006KT 5SM 21/13 A2994 RMK T02100130 IEM_DS3505
ZBYN,2004-08-19 03:00,ZBYN 190300Z AUTO 32004KT 5SM 22/16 A2994 RMK SLP118 T02250156 57008 IEM_DS3505
ZBYN,2004-08-19 04:00,ZBYN 190400Z AUTO 08004KT 6SM 24/13 A2991 RMK T02400130 IEM_DS3505
ZBYN,2004-08-19 05:00,ZBYN 190500Z AUTO 07002KT 6SM 24/13 A2991 RMK T02400130 IEM_DS3505
ZBYN,2004-08-19 06:00,ZBYN 190600Z AUTO 04004KT 6SM 24/12 A2988 RMK T02400120 IEM_DS3505
ZBYN,2004-08-19 07:00,ZBYN 190700Z AUTO 08004KT 6SM 24/13 A2988 RMK T02400130 IEM_DS3505
ZBYN,2004-08-19 08:00,ZBYN 190800Z AUTO 07004KT 6SM 24/10 A2988 RMK T02400100 IEM_DS3505
ZBYN,2004-08-19 09:00,ZBYN 190900Z AUTO 07004KT 5SM 24/14 A2985 RMK SLP094 T02410136 57007 IEM_DS3505
ZBYN,2004-08-19 10:00,ZBYN 191000Z AUTO 06004KT 7SM 23/12 A2988 RMK T02300120 IEM_DS3505
ZBYN,2004-08-19 11:00,ZBYN 191100Z AUTO 08006KT 6SM 22/11 A2988 RMK T02200110 IEM_DS3505
ZBYN,2004-08-19 12:00,ZBYN 191200Z AUTO 09006KT 5SM 22/15 A2988 RMK SLP100 T02220148 52005 IEM_DS3505
ZBYN,2004-08-19 13:00,ZBYN 191300Z AUTO 09008KT 6SM 20/13 A2991 RMK T02000130 IEM_DS3505
ZBYN,2004-08-19 14:00,ZBYN 191400Z AUTO 08008KT 6SM 20/12 A2991 RMK T02000120 IEM_DS3505
ZBYN,2004-08-19 15:00,ZBYN 191500Z AUTO 09002KT 6SM 21/14 A2991 RMK SLP104 T02140141 52007 IEM_DS3505
ZBYN,2004-08-19 16:00,ZBYN 191600Z AUTO 09006KT 6SM 19/12 A2991 RMK T01900120 IEM_DS3505
ZBYN,2004-08-19 17:00,ZBYN 191700Z AUTO 09006KT 6SM 19/12 A2991 RMK T01900120 IEM_DS3505
ZBYN,2004-08-19 18:00,ZBYN 191800Z AUTO 00000KT 6SM 19/16 A2991 RMK 60001 SLP109 T01880162 52005 IEM_DS3505
ZBYN,2004-08-19 19:00,ZBYN 191900Z AUTO 15002KT 5SM 17/14 A2991 RMK T01700140 IEM_DS3505
ZBYN,2004-08-19 20:00,ZBYN 192000Z AUTO 00000KT 4SM 16/15 A2994 RMK T01600150 IEM_DS3505
ZBYN,2004-08-19 21:00,ZBYN 192100Z AUTO 34002KT 5SM 17/16 A2994 RMK 70007 SLP118 T01730162 52005 IEM_DS3505
ZBYN,2004-08-19 22:00,ZBYN 192200Z AUTO 06002KT 2 1/2SM 16/14 A2994 RMK T01600140 IEM_DS3505
ZBYN,2004-08-19 23:00,ZBYN 192300Z AUTO 00000KT 1 1/4SM 16/14 A2994 RMK T01600140 IEM_DS3505
ZBYN,2004-08-20 00:00,ZBYN 200000Z AUTO 04002KT 4SM 17/16 A2997 RMK 60012 70015 SLP129 T01720161 52007 IEM_DS3505
ZBYN,2004-08-20 01:00,ZBYN 200100Z AUTO 04004KT 5SM 17/14 A2994 RMK T01700140 IEM_DS3505
ZBYN,2004-08-20 02:00,ZBYN 200200Z AUTO 06002KT 7SM 17/13 A2994 RMK T01700130 IEM_DS3505
ZBYN,2004-08-20 03:00,ZBYN 200300Z AUTO 32006KT 4SM 19/16 A2994 RMK SLP124 T01870163 57004 IEM_DS3505
ZBYN,2004-08-20 04:00,ZBYN 200400Z AUTO 07002KT 5SM 18/14 A2994 RMK T01800140 IEM_DS3505
ZBYN,2004-08-20 05:00,ZBYN 200500Z AUTO 00000KT 2 1/2SM 18/14 A2991 RMK T01800140 IEM_DS3505
ZBYN,2004-08-20 06:00,ZBYN 200600Z AUTO 32002KT 3SM 18/17 A2991 RMK 60008 SLP116 T01770166 57012 IEM_DS3505
ZBYN,2004-08-20 07:00,ZBYN 200700Z AUTO 10004KT 5SM 18/15 A2988 RMK T01800150 IEM_DS3505
ZBYN,2004-08-20 08:00,ZBYN 200800Z AUTO 10006KT 7SM 18/16 A2988 RMK T01800160 IEM_DS3505
ZBYN,2004-08-20 09:00,ZBYN 200900Z AUTO 22006KT 2 1/2SM 17/15 A2988 RMK SLP112 T01670154 57007 IEM_DS3505
ZBYN,2004-08-20 10:00,ZBYN 201000Z AUTO 07010KT 7SM 15/12 A2988 RMK T01500120 IEM_DS3505
ZBYN,2004-08-20 11:00,ZBYN 201100Z AUTO 08008KT 7SM 14/12 A2988 RMK T01400120 IEM_DS3505
ZBYN,2004-08-20 12:00,ZBYN 201200Z AUTO 32004KT 3SM 16/14 A2991 RMK 60055 SLP119 T01550144 52004 IEM_DS3505
ZBYN,2004-08-20 13:00,ZBYN 201300Z AUTO 07010KT 7SM 13/10 A2991 RMK T01300100 IEM_DS3505
ZBYN,2004-08-20 14:00,ZBYN 201400Z AUTO 07008KT 7SM 12/10 A2991 RMK T01200100 IEM_DS3505
ZBYN,2004-08-20 15:00,ZBYN 201500Z AUTO 32006KT 3SM 14/13 A2991 RMK SLP124 T01360127 52004 IEM_DS3505
ZBYN,2004-08-20 16:00,ZBYN 201600Z AUTO 35004KT 5SM 13/12 A2991 RMK T01300120 IEM_DS3505
ZBYN,2004-08-20 17:00,ZBYN 201700Z AUTO 30002KT 4SM 13/12 A2991 RMK T01300120 IEM_DS3505
ZBYN,2004-08-20 18:00,ZBYN 201800Z AUTO 32006KT 5SM 14/13 A2988 RMK 60028 SLP120 T01350126 57005 IEM_DS3505
ZBYN,2004-08-20 19:00,ZBYN 201900Z AUTO 34006KT 5SM 13/12 A2988 RMK T01300120 IEM_DS3505
ZBYN,2004-08-20 20:00,ZBYN 202000Z AUTO 34004KT 5SM 13/12 A2988 RMK T01300120 IEM_DS3505
ZBYN,2004-08-20 21:00,ZBYN 202100Z AUTO 32004KT 5SM 14/13 A2988 RMK 70103 SLP120 T01390133 57001 IEM_DS3505
ZBYN,2004-08-20 22:00,ZBYN 202200Z AUTO 00000KT 1SM 13/12 A2991 RMK T01300120 IEM_DS3505
ZBYN,2004-08-21 00:00,ZBYN 210000Z AUTO 32002KT 4SM 14/14 A2991 RMK 60012 70099 SLP130 T01420136 52008 IEM_DS3505
ZBYN,2004-08-21 01:00,ZBYN 210100Z AUTO 00000KT 1 1/4SM 14/13 A2991 RMK T01400130 IEM_DS3505
ZBYN,2004-08-21 02:00,ZBYN 210200Z AUTO 00000KT 1 1/4SM 14/13 A2994 RMK T01400130 IEM_DS3505
ZBYN,2004-08-21 03:00,ZBYN 210300Z AUTO 32002KT 1 1/4SM 15/14 A2994 RMK SLP137 T01510141 52005 IEM_DS3505
ZBYN,2004-08-21 04:00,ZBYN 210400Z AUTO 00000KT 2 1/2SM 15/12 A2991 RMK T01500120 IEM_DS3505
ZBYN,2004-08-21 05:00,ZBYN 210500Z AUTO 33004KT 3SM 16/13 A2991 RMK T01600130 IEM_DS3505
ZBYN,2004-08-21 06:00,ZBYN 210600Z AUTO 29004KT 3SM 17/14 A2991 RMK 60001 SLP130 T01720143 57004 IEM_DS3505
ZBYN,2004-08-21 07:00,ZBYN 210700Z AUTO 32002KT 6SM 17/13 A2991 RMK T01700130 IEM_DS3505
ZBYN,2004-08-21 08:00,ZBYN 210800Z AUTO 32002KT 5SM 17/13 A2991 RMK T01700130 IEM_DS3505
ZBYN,2004-08-21 09:00,ZBYN 210900Z AUTO 29002KT 4SM 18/15 A2988 RMK SLP121 T01820149 57006 IEM_DS3505
ZBYN,2004-08-21 10:00,ZBYN 211000Z AUTO 00000KT 4SM 17/13 A2991 RMK T01700130 IEM_DS3505
ZBYN,2004-08-21 11:00,ZBYN 211100Z AUTO 00000KT 3SM 16/14 A2991 RMK T01600140 IEM_DS3505
ZBYN,2004-08-21 12:00,ZBYN 211200Z AUTO 29002KT 4SM 18/15 A2991 RMK SLP129 T01760152 52007 IEM_DS3505
ZBYN,2004-08-21 13:00,ZBYN 211300Z AUTO 00000KT 5SM 16/14 A2994 RMK T01600140 IEM_DS3505
ZBYN,2004-08-21 14:00,ZBYN 211400Z AUTO 00000KT 5SM 16/14 A2997 RMK T01600140 IEM_DS3505
ZBYN,2004-08-21 15:00,ZBYN 211500Z AUTO 25002KT 4SM 17/14 A2994 RMK SLP139 T01670142 52009 IEM_DS3505
ZBYN,2004-08-21 16:00,ZBYN 211600Z AUTO 00000KT 5SM 16/13 A2997 RMK T01600130 IEM_DS3505
ZBYN,2004-08-21 17:00,ZBYN 211700Z AUTO 00000KT 5SM 16/14 A2994 RMK T01600140 IEM_DS3505
ZBYN,2004-08-21 18:00,ZBYN 211800Z AUTO 34004KT 4SM 16/14 A2994 RMK SLP132 T01640144 57004 IEM_DS3505
ZBYN,2004-08-21 19:00,ZBYN 211900Z AUTO 00000KT 4SM 15/14 A2994 RMK T01500140 IEM_DS3505
ZBYN,2004-08-21 20:00,ZBYN 212000Z AUTO 00000KT 3SM 15/13 A2994 RMK T01500130 IEM_DS3505
ZBYN,2004-08-21 21:00,ZBYN 212100Z AUTO 32004KT 4SM 16/14 A2994 RMK 70005 SLP131 T01630143 52001 IEM_DS3505
ZBYN,2004-08-21 22:00,ZBYN 212200Z AUTO 00000KT 3SM 15/13 A2994 RMK T01500130 IEM_DS3505
ZBYN,2004-08-21 23:00,ZBYN 212300Z AUTO 00000KT 2 1/2SM 15/14 A2997 RMK T01500140 IEM_DS3505
ZBYN,2004-08-22 00:00,ZBYN 220000Z AUTO 32002KT 4SM 17/14 A2997 RMK 70002 SLP141 T01700141 52009 IEM_DS3505
ZBYN,2004-08-22 01:00,ZBYN 220100Z AUTO 00000KT 3SM 16/13 A2997 RMK T01600130 IEM_DS3505
ZBYN,2004-08-22 02:00,ZBYN 220200Z AUTO 36004KT 2 1/2SM 17/13 A2997 RMK T01700130 IEM_DS3505
ZBYN,2004-08-22 03:00,ZBYN 220300Z AUTO 32006KT 4SM 18/15 A2997 RMK SLP145 T01800147 52004 IEM_DS3505
ZBYN,2004-08-22 04:00,ZBYN 220400Z AUTO 33004KT 4SM 19/14 A2997 RMK T01900140 IEM_DS3505
ZBYN,2004-08-22 05:00,ZBYN 220500Z AUTO 29006KT 4SM 19/14 A2997 RMK T01900140 IEM_DS3505
ZBYN,2004-08-22 06:00,ZBYN 220600Z AUTO 32006KT 4SM 22/16 A2994 RMK SLP127 T02180159 57012 IEM_DS3505
ZBYN,2004-08-22 07:00,ZBYN 220700Z AUTO 28002KT 20/14 A2994 RMK T02000140 IEM_DS3505
ZBYN,2004-08-22 08:00,ZBYN 220800Z AUTO 29002KT 20/14 A2994 RMK T02000140 IEM_DS3505
ZBYN,2004-08-22 09:00,ZBYN 220900Z AUTO 11004KT 4SM 21/16 A2994 RMK SLP124 T02070161 57004 IEM_DS3505
ZBYN,2004-08-22 10:00,ZBYN 221000Z AUTO 08008KT 4SM 18/14 A2994 RMK T01800140 IEM_DS3505
ZBYN,2004-08-22 11:00,ZBYN 221100Z AUTO 07008KT 4SM 18/13 A2994 RMK T01800130 IEM_DS3505
ZBYN,2004-08-22 12:00,ZBYN 221200Z AUTO 32004KT 4SM 18/15 A2997 RMK SLP137 T01800154 52009 IEM_DS3505
ZBYN,2004-08-22 13:00,ZBYN 221300Z AUTO 06006KT 6SM 18/13 A2997 RMK T01800130 IEM_DS3505
ZBYN,2004-08-22 14:00,ZBYN 221400Z AUTO 04004KT 6SM 17/13 A2997 RMK T01700130 IEM_DS3505
ZBYN,2004-08-22 15:00,ZBYN 221500Z AUTO 32004KT 4SM 18/15 A2997 RMK SLP141 T01760151 52004 IEM_DS3505
ZBYN,2004-08-22 16:00,ZBYN 221600Z AUTO 00000KT 3SM 16/14 A2997 RMK T01600140 IEM_DS3505
ZBYN,2004-08-22 17:00,ZBYN 221700Z AUTO 06004KT 3SM 17/13 A2997 RMK T01700130 IEM_DS3505
ZBYN,2004-08-22 18:00,ZBYN 221800Z AUTO 32004KT 4SM 18/15 A2997 RMK SLP128 T01770150 57006 IEM_DS3505
ZBYN,2004-08-22 19:00,ZBYN 221900Z AUTO 00000KT 2 1/2SM 16/15 A2997 RMK T01600150 IEM_DS3505
ZBYN,2004-08-22 20:00,ZBYN 222000Z AUTO 00000KT 2 1/2SM 16/15 A2994 RMK T01600150 IEM_DS3505
ZBYN,2004-08-22 21:00,ZBYN 222100Z AUTO 32002KT 3SM 18/15 A2994 RMK 70000 SLP130 T01750150 54000 IEM_DS3505
ZBYN,2004-08-22 22:00,ZBYN 222200Z AUTO 00000KT 1 1/2SM 16/14 A2997 RMK T01600140 IEM_DS3505
ZBYN,2004-08-22 23:00,ZBYN 222300Z AUTO 00000KT 1 1/4SM 16/14 A2997 RMK T01600140 IEM_DS3505
ZBYN,2004-08-23 00:00,ZBYN 230000Z AUTO 00000KT 1 1/4SM 18/15 A2997 RMK 60000 70000 SLP142 T01800154 52008 IEM_DS3505
ZBYN,2004-08-23 01:00,ZBYN 230100Z AUTO 00000KT 2 1/2SM 17/14 A3000 RMK T01700140 IEM_DS3505
ZBYN,2004-08-23 02:00,ZBYN 230200Z AUTO 00000KT 2 1/2SM 18/14 A3000 RMK T01800140 IEM_DS3505
ZBYN,2004-08-23 03:00,ZBYN 230300Z AUTO 11004KT 3SM 20/16 A2997 RMK SLP137 T02050165 57002 IEM_DS3505
ZBYN,2004-08-23 04:00,ZBYN 230400Z AUTO 21/15 A2997 RMK T02100150 IEM_DS3505
ZBYN,2004-08-23 05:00,ZBYN 230500Z AUTO 22/15 A2994 RMK T02200150 IEM_DS3505
ZBYN,2004-08-23 06:00,ZBYN 230600Z AUTO 18004KT 4SM 24/17 A2994 RMK SLP117 T02390169 57013 IEM_DS3505
ZBYN,2004-08-23 07:00,ZBYN 230700Z AUTO 5SM 24/15 A2991 RMK T02400150 IEM_DS3505
ZBYN,2004-08-23 08:00,ZBYN 230800Z AUTO 27002KT 24/15 A2991 RMK T02400150 IEM_DS3505
ZBYN,2004-08-23 09:00,ZBYN 230900Z AUTO 14002KT 5SM 25/17 A2991 RMK SLP106 T02470174 57009 IEM_DS3505
ZBYN,2004-08-23 10:00,ZBYN 231000Z AUTO 00000KT 23/16 A2991 RMK T02300160 IEM_DS3505
ZBYN,2004-08-23 11:00,ZBYN 231100Z AUTO 00000KT 3SM 22/17 A2991 RMK T02200170 IEM_DS3505
ZBYN,2004-08-23 12:00,ZBYN 231200Z AUTO 32004KT 5SM 21/18 A2991 RMK SLP119 T02100180 52007 IEM_DS3505
ZBYN,2004-08-23 13:00,ZBYN 231300Z AUTO 09008KT 5SM 19/16 A2994 RMK T01900160 IEM_DS3505
ZBYN,2004-08-23 14:00,ZBYN 231400Z AUTO 09008KT 5SM 19/15 A2994 RMK T01900150 IEM_DS3505
ZBYN,2004-08-23 15:00,ZBYN 231500Z AUTO 32002KT 5SM 20/17 A2994 RMK SLP125 T01970171 52007 IEM_DS3505
ZBYN,2004-08-23 16:00,ZBYN 231600Z AUTO 10002KT 4SM 18/15 A2994 RMK T01800150 IEM_DS3505
ZBYN,2004-08-23 17:00,ZBYN 231700Z AUTO 00000KT 2SM 17/15 A2994 RMK T01700150 IEM_DS3505
ZBYN,2004-08-23 18:00,ZBYN 231800Z AUTO 02002KT 5SM 18/17 A2994 RMK SLP119 T01840169 57002 IEM_DS3505
ZBYN,2004-08-23 19:00,ZBYN 231900Z AUTO 00000KT 1 1/4SM 16/14 A2994 RMK T01600140 IEM_DS3505
ZBYN,2004-08-23 20:00,ZBYN 232000Z AUTO 00000KT 2SM 17/15 A2994 RMK T01700150 IEM_DS3505
ZBYN,2004-08-23 21:00,ZBYN 232100Z AUTO 32002KT 5SM 18/17 A2994 RMK SLP114 T01820171 57004 IEM_DS3505
ZBYN,2004-08-23 22:00,ZBYN 232200Z AUTO 00000KT 1 1/2SM 17/15 A2994 RMK T01700150 IEM_DS3505
ZBYN,2004-08-23 23:00,ZBYN 232300Z AUTO 00000KT 1SM 17/16 A2994 RMK T01700160 IEM_DS3505
ZBYN,2004-08-24 00:00,ZBYN 240000Z AUTO 18002KT 4SM 20/17 A2994 RMK SLP123 T01970171 52005 IEM_DS3505
ZBYN,2004-08-24 01:00,ZBYN 240100Z AUTO 10002KT 1 1/4SM 19/16 A2994 RMK T01900160 IEM_DS3505
ZBYN,2004-08-24 02:00,ZBYN 240200Z AUTO 17002KT 1 1/4SM 20/15 A2994 RMK T02000150 IEM_DS3505
ZBYN,2004-08-24 03:00,ZBYN 240300Z AUTO 18004KT 4SM 21/18 A2994 RMK SLP118 T02100180 57004 IEM_DS3505
ZBYN,2004-08-24 04:00,ZBYN 240400Z AUTO 18002KT 1SM 21/16 A2991 RMK T02100160 IEM_DS3505
ZBYN,2004-08-24 05:00,ZBYN 240500Z AUTO 1 1/4SM 21/16 A2991 RMK T02100160 IEM_DS3505
ZBYN,2004-08-24 06:00,ZBYN 240600Z AUTO 22004KT 4SM 22/18 A2988 RMK 60000 SLP104 T02240178 57013 IEM_DS3505
ZBYN,2004-08-24 07:00,ZBYN 240700Z AUTO 27002KT 1 1/4SM 21/16 A2988 RMK T02100160 IEM_DS3505
ZBYN,2004-08-24 08:00,ZBYN 240800Z AUTO 25002KT 1 1/4SM 21/16 A2988 RMK T02100160 IEM_DS3505
ZBYN,2004-08-24 09:00,ZBYN 240900Z AUTO 18004KT 4SM 22/19 A2988 RMK SLP093 T02240188 57010 IEM_DS3505
ZBYN,2004-08-24 10:00,ZBYN 241000Z AUTO 00000KT 1 1/4SM 21/17 A2988 RMK T02100170 IEM_DS3505
ZBYN,2004-08-24 11:00,ZBYN 241100Z AUTO 00000KT 1SM 20/18 A2988 RMK T02000180 IEM_DS3505
ZBYN,2004-08-24 12:00,ZBYN 241200Z AUTO 14002KT 1 1/4SM 20/19 A2988 RMK SLP105 T02050192 52010 IEM_DS3505
ZBYN,2004-08-24 13:00,ZBYN 241300Z AUTO 00000KT 1SM 19/17 A2991 RMK T01900170 IEM_DS3505
ZBYN,2004-08-24 14:00,ZBYN 241400Z AUTO 00000KT 1SM 19/17 A2991 RMK T01900170 IEM_DS3505
ZBYN,2004-08-24 15:00,ZBYN 241500Z AUTO 18002KT 1 1/4SM 20/19 A2991 RMK SLP107 T01960188 52002 IEM_DS3505
ZBYN,2004-08-24 16:00,ZBYN 241600Z AUTO 00000KT 1SM 18/17 A2988 RMK T01800170 IEM_DS3505
ZBYN,2004-08-24 17:00,ZBYN 241700Z AUTO 00000KT 1SM 18/17 A2988 RMK T01800170 IEM_DS3505
ZBYN,2004-08-24 18:00,ZBYN 241800Z AUTO 16004KT 1 1/4SM 19/18 A2988 RMK 60002 SLP095 T01910181 57009 IEM_DS3505
ZBYN,2004-08-24 19:00,ZBYN 241900Z AUTO 13004KT 1SM 17/16 A2988 RMK T01700160 IEM_DS3505
ZBYN,2004-08-24 20:00,ZBYN 242000Z AUTO 13004KT 1SM 17/16 A2985 RMK T01700160 IEM_DS3505
ZBYN,2004-08-24 21:00,ZBYN 242100Z AUTO 02002KT 1 1/4SM 19/18 A2985 RMK 70002 SLP092 T01860176 57004 IEM_DS3505
ZBYN,2004-08-24 22:00,ZBYN 242200Z AUTO 00000KT 1SM 17/16 RMK T01700160 IEM_DS3505
ZBYN,2004-08-24 23:00,ZBYN 242300Z AUTO 00000KT 1/2SM 17/16 A2988 RMK T01700160 IEM_DS3505
ZBYN,2004-08-25 00:00,ZBYN 250000Z AUTO 11004KT 1/2SM 19/18 A2988 RMK 70002 SLP100 T01880178 52005 IEM_DS3505
ZBYN,2004-08-25 01:00,ZBYN 250100Z AUTO 21002KT 1/2SM 18/16 A2988 RMK T01800160 IEM_DS3505
ZBYN,2004-08-25 02:00,ZBYN 250200Z AUTO 23004KT 1SM 20/16 A2988 RMK T02000160 IEM_DS3505
ZBYN,2004-08-25 03:00,ZBYN 250300Z AUTO 16004KT 1 1/4SM 23/18 A2985 RMK SLP091 T02260179 57004 IEM_DS3505
ZBYN,2004-08-25 04:00,ZBYN 250400Z AUTO 22004KT 1 1/4SM 22/16 A2985 RMK T02200160 IEM_DS3505
ZBYN,2004-08-25 05:00,ZBYN 250500Z AUTO 22004KT 2SM 24/16 A2983 RMK T02400160 IEM_DS3505
ZBYN,2004-08-25 06:00,ZBYN 250600Z AUTO 18006KT 4SM 26/18 A2980 RMK SLP065 T02570179 57020 IEM_DS3505
ZBYN,2004-08-25 07:00,ZBYN 250700Z AUTO 26004KT 24/16 A2977 RMK T02400160 IEM_DS3505
ZBYN,2004-08-25 08:00,ZBYN 250800Z AUTO 26002KT 25/16 A2977 RMK T02500160 IEM_DS3505
ZBYN,2004-08-25 09:00,ZBYN 250900Z AUTO 18004KT 3SM 26/19 A2977 RMK SLP054 T02590191 57011 IEM_DS3505
ZBYN,2004-08-25 10:00,ZBYN 251000Z AUTO 25002KT 24/17 A2977 RMK T02400170 IEM_DS3505
ZBYN,2004-08-25 11:00,ZBYN 251100Z AUTO 00000KT 23/17 A2977 RMK T02300170 IEM_DS3505
ZBYN,2004-08-25 12:00,ZBYN 251200Z AUTO 09002KT 3SM 22/19 A2980 RMK SLP066 T02160186 52006 IEM_DS3505
ZBYN,2004-08-25 13:00,ZBYN 251300Z AUTO 12002KT 4SM 19/17 A2980 RMK T01900170 IEM_DS3505
ZBYN,2004-08-25 14:00,ZBYN 251400Z AUTO 11004KT 3SM 18/16 A2983 RMK T01800160 IEM_DS3505
ZBYN,2004-08-25 15:00,ZBYN 251500Z AUTO 16002KT 3SM 19/18 A2983 RMK SLP076 T01940179 52011 IEM_DS3505
ZBYN,2004-08-25 16:00,ZBYN 251600Z AUTO 00000KT 4SM 18/16 A2983 RMK T01800160 IEM_DS3505
ZBYN,2004-08-25 17:00,ZBYN 251700Z AUTO 12002KT 4SM 17/15 A2983 RMK T01700150 IEM_DS3505
ZBYN,2004-08-25 18:00,ZBYN 251800Z AUTO 00000KT 2SM 18/17 A2983 RMK SLP077 T01800170 52003 IEM_DS3505
ZBYN,2004-08-25 19:00,ZBYN 251900Z AUTO 11002KT 2 1/2SM 16/15 A2983 RMK T01600150 IEM_DS3505
ZBYN,2004-08-25 20:00,ZBYN 252000Z AUTO 10004KT 2SM 17/16 A2983 RMK T01700160 IEM_DS3505
ZBYN,2004-08-25 20:30,ZBYN 252030Z AUTO 12004KT 2SM 17/15 A2983 RMK T01700150 IEM_DS3505
ZBYN,2004-08-25 21:00,ZBYN 252100Z AUTO 32002KT 2SM 18/17 A2983 RMK SLP074 T01770171 57003 IEM_DS3505
ZBYN,2004-08-25 21:30,ZBYN 252130Z AUTO 07004KT 2SM 18/16 A2983 RMK T01800160 IEM_DS3505
ZBYN,2004-08-25 22:00,ZBYN 252200Z AUTO 06004KT 1 1/4SM 18/16 A2983 RMK T01800160 IEM_DS3505
ZBYN,2004-08-25 23:00,ZBYN 252300Z AUTO 00000KT 1SM 17/16 A2983 RMK T01700160 IEM_DS3505
ZBYN,2004-08-26 00:00,ZBYN 260000Z AUTO 25002KT 1 1/4SM 20/18 A2983 RMK SLP078 T01980183 52001 IEM_DS3505
ZBYN,2004-08-26 01:00,ZBYN 260100Z AUTO 36002KT 1SM 20/16 A2983 RMK T02000160 IEM_DS3505
ZBYN,2004-08-26 02:00,ZBYN 260200Z AUTO 36002KT 1SM 21/17 A2983 RMK T02100170 IEM_DS3505
ZBYN,2004-08-26 03:00,ZBYN 260300Z AUTO 29002KT 2 1/2SM 23/18 A2983 RMK SLP077 T02270180 54000 IEM_DS3505
ZBYN,2004-08-26 04:00,ZBYN 260400Z AUTO 30002KT 1SM 22/17 A2983 RMK T02200170 IEM_DS3505
ZBYN,2004-08-26 05:00,ZBYN 260500Z AUTO 00000KT 1 1/4SM 22/17 A2983 RMK T02200170 IEM_DS3505
ZBYN,2004-08-26 06:00,ZBYN 260600Z AUTO 20002KT 2 1/2SM 23/19 A2980 RMK SLP072 T02330190 57006 IEM_DS3505
ZBYN,2004-08-26 07:00,ZBYN 260700Z AUTO 19002KT 1SM 22/17 A2980 RMK T02200170 IEM_DS3505
ZBYN,2004-08-26 08:00,ZBYN 260800Z AUTO 19002KT 1 1/4SM 22/17 A2977 RMK T02200170 IEM_DS3505
ZBYN,2004-08-26 09:00,ZBYN 260900Z AUTO 16006KT 4SM 25/20 A2977 RMK SLP051 T02460199 57017 IEM_DS3505
ZBYN,2004-08-26 10:00,ZBYN 261000Z AUTO 00000KT 1 1/4SM 23/18 A2974 RMK T02300180 IEM_DS3505
ZBYN,2004-08-26 11:00,ZBYN 261100Z AUTO 00000KT 1SM 20/18 A2977 RMK T02000180 IEM_DS3505
ZBYN,2004-08-26 12:00,ZBYN 261200Z AUTO 09004KT 1 1/4SM 20/19 A2977 RMK SLP059 T02050188 52004 IEM_DS3505
ZBYN,2004-08-26 13:00,ZBYN 261300Z AUTO 11002KT 1SM 18/16 A2980 RMK T01800160 IEM_DS3505
ZBYN,2004-08-26 14:00,ZBYN 261400Z AUTO 10002KT 1 1/4SM 18/17 A2980 RMK T01800170 IEM_DS3505
ZBYN,2004-08-26 15:00,ZBYN 261500Z AUTO 09002KT 1 1/4SM 19/18 A2980 RMK SLP073 T01880180 52015 IEM_DS3505
ZBYN,2004-08-26 16:00,ZBYN 261600Z AUTO 00000KT 1 1/4SM 17/15 A2980 RMK T01700150 IEM_DS3505
ZBYN,2004-08-26 17:00,ZBYN 261700Z AUTO 13004KT 1 1/4SM 16/15 A2980 RMK T01600150 IEM_DS3505
ZBYN,2004-08-26 18:00,ZBYN 261800Z AUTO 16002KT 1 1/4SM 18/18 A2977 RMK SLP065 T01800175 57008 IEM_DS3505
ZBYN,2004-08-26 19:00,ZBYN 261900Z AUTO 00000KT 1 1/4SM 17/15 A2980 RMK T01700150 IEM_DS3505
ZBYN,2004-08-26 20:00,ZBYN 262000Z AUTO 27002KT 1 1/4SM 17/16 A2977 RMK T01700160 IEM_DS3505
ZBYN,2004-08-26 21:00,ZBYN 262100Z AUTO 09002KT 1 1/4SM 18/18 A2977 RMK SLP058 T01820176 57004 IEM_DS3505
ZBYN,2004-08-26 22:00,ZBYN 262200Z AUTO 00000KT 1 1/4SM 17/16 A2980 RMK T01700160 IEM_DS3505
ZBYN,2004-08-26 23:00,ZBYN 262300Z AUTO 00000KT 1SM 18/16 A2980 RMK T01800160 IEM_DS3505
ZBYN,2004-08-27 00:00,ZBYN 270000Z AUTO 18002KT 1SM 19/18 A2980 RMK SLP069 T01890179 52005 IEM_DS3505
ZBYN,2004-08-27 01:00,ZBYN 270100Z AUTO 00000KT 1SM 19/16 A2980 RMK T01900160 IEM_DS3505
ZBYN,2004-08-27 02:00,ZBYN 270200Z AUTO 15002KT 1SM 21/17 A2980 RMK T02100170 IEM_DS3505
ZBYN,2004-08-27 03:00,ZBYN 270300Z AUTO 29004KT 1SM 22/19 A2980 RMK SLP070 T02220188 52003 IEM_DS3505
ZBYN,2004-08-27 04:00,ZBYN 270400Z AUTO 1 1/4SM 23/17 A2980 RMK T02300170 IEM_DS3505
ZBYN,2004-08-27 06:00,ZBYN 270600Z AUTO 32004KT 1SM 22/18 A2977 RMK SLP063 T02250181 57007 IEM_DS3505
ZBYN,2004-08-27 07:00,ZBYN 270700Z AUTO 01004KT 1SM 21/16 A2977 RMK T02100160 IEM_DS3505
ZBYN,2004-08-27 08:00,ZBYN 270800Z AUTO 03004KT 1 1/4SM 21/16 A2977 RMK T02100160 IEM_DS3505
ZBYN,2004-08-27 09:00,ZBYN 270900Z AUTO 36002KT 1SM 22/17 A2977 RMK SLP065 T02200174 52001 IEM_DS3505
ZBYN,2004-08-27 10:00,ZBYN 271000Z AUTO 31004KT 3SM 21/16 A2980 RMK T02100160 IEM_DS3505
ZBYN,2004-08-27 11:00,ZBYN 271100Z AUTO 02002KT 7SM 19/16 A2980 RMK T01900160 IEM_DS3505
ZBYN,2004-08-27 12:00,ZBYN 271200Z AUTO 29004KT 7SM 19/16 A2980 RMK SLP074 T01940157 52006 IEM_DS3505
ZBYN,2004-08-27 13:00,ZBYN 271300Z AUTO 31006KT 6SM 17/15 A2983 RMK T01700150 IEM_DS3505
ZBYN,2004-08-27 14:00,ZBYN 271400Z AUTO 34010KT 6SM 18/13 A2983 RMK T01800130 IEM_DS3505
ZBYN,2004-08-27 15:00,ZBYN 271500Z AUTO 34004KT 7SM 19/15 A2983 RMK SLP081 T01870146 52010 IEM_DS3505
ZBYN,2004-08-27 16:00,ZBYN 271600Z AUTO 34006KT 6SM 17/14 A2983 RMK T01700140 IEM_DS3505
ZBYN,2004-08-27 17:00,ZBYN 271700Z AUTO 31002KT 6SM 16/14 A2983 RMK T01600140 IEM_DS3505
ZBYN,2004-08-27 18:00,ZBYN 271800Z AUTO 32006KT 9SM 17/12 A2983 RMK SLP088 T01740117 52005 IEM_DS3505
ZBYN,2004-08-27 19:00,ZBYN 271900Z AUTO 29004KT 6SM 14/10 A2985 RMK T01400100 IEM_DS3505
ZBYN,2004-08-27 21:00,ZBYN 272100Z AUTO 32006KT 9SM 16/10 A2988 RMK 70000 SLP103 T01580101 52011 IEM_DS3505
ZBYN,2004-08-27 22:00,ZBYN 272200Z AUTO 34004KT 6SM 12/09 A2988 RMK T01200090 IEM_DS3505
ZBYN,2004-08-27 23:00,ZBYN 272300Z AUTO 31002KT 5SM 13/10 A2991 RMK T01300100 IEM_DS3505
ZBYN,2004-08-28 00:00,ZBYN 280000Z AUTO 04002KT 16SM 18/10 A2991 RMK 70000 SLP115 T01800104 52010 IEM_DS3505
ZBYN,2004-08-28 01:00,ZBYN 280100Z AUTO 34004KT 6SM 18/09 A2991 RMK T01800090 IEM_DS3505
ZBYN,2004-08-28 02:00,ZBYN 280200Z AUTO 28004KT 6SM 20/08 A2991 RMK T02000080 IEM_DS3505
ZBYN,2004-08-28 03:00,ZBYN 280300Z AUTO 29002KT 16SM 23/10 A2988 RMK SLP100 T02310105 57007 IEM_DS3505
ZBYN,2004-08-28 04:00,ZBYN 280400Z AUTO 36004KT 6SM 22/05 A2988 RMK T02200050 IEM_DS3505
ZBYN,2004-08-28 05:00,ZBYN 280500Z AUTO 02004KT 6SM A2985 RMK IEM_DS3505
ZBYN,2004-08-28 06:00,ZBYN 280600Z AUTO 14004KT 16SM 26/08 A2983 RMK SLP078 T02570083 57019 IEM_DS3505
ZBYN,2004-08-28 07:00,ZBYN 280700Z AUTO 21004KT 6SM 24/06 A2983 RMK T02400060 IEM_DS3505
ZBYN,2004-08-28 08:00,ZBYN 280800Z AUTO 17002KT 6SM 25/06 A2980 RMK T02500060 IEM_DS3505
ZBYN,2004-08-28 09:00,ZBYN 280900Z AUTO 20004KT 16SM 26/11 A2980 RMK SLP070 T02650107 57008 IEM_DS3505
ZBYN,2004-08-28 10:00,ZBYN 281000Z AUTO 18002KT 6SM 24/09 A2983 RMK T02400090 IEM_DS3505
ZBYN,2004-08-28 11:00,ZBYN 281100Z AUTO 00000KT 6SM 21/11 A2983 RMK T02100110 IEM_DS3505
ZBYN,2004-08-28 12:00,ZBYN 281200Z AUTO 32002KT 16SM 20/14 A2985 RMK SLP095 T02020137 52017 IEM_DS3505
ZBYN,2004-08-28 13:00,ZBYN 281300Z AUTO 00000KT 6SM 16/12 A2988 RMK T01600120 IEM_DS3505
ZBYN,2004-08-28 14:00,ZBYN 281400Z AUTO 00000KT 6SM 15/12 A2988 RMK T01500120 IEM_DS3505
ZBYN,2004-08-28 15:00,ZBYN 281500Z AUTO 36002KT 12SM 18/11 A2988 RMK SLP104 T01830112 52013 IEM_DS3505
ZBYN,2004-08-28 16:00,ZBYN 281600Z AUTO 00000KT 6SM 13/11 A2991 RMK T01300110 IEM_DS3505
ZBYN,2004-08-28 17:00,ZBYN 281700Z AUTO 00000KT 6SM 13/11 A2991 RMK T01300110 IEM_DS3505
ZBYN,2004-08-28 18:00,ZBYN 281800Z AUTO 20002KT 12SM 14/12 A2991 RMK SLP116 T01360125 52008 IEM_DS3505
ZBYN,2004-08-28 19:00,ZBYN 281900Z AUTO 00000KT 6SM 11/09 A2991 RMK T01100090 IEM_DS3505
ZBYN,2004-08-28 20:00,ZBYN 282000Z AUTO 00000KT 6SM 11/09 A2991 RMK T01100090 IEM_DS3505
ZBYN,2004-08-28 21:00,ZBYN 282100Z AUTO 14002KT 6SM 12/12 A2994 RMK SLP122 T01210115 52004 IEM_DS3505
ZBYN,2004-08-28 22:00,ZBYN 282200Z AUTO 00000KT 6SM 11/09 A2994 RMK T01100090 IEM_DS3505
ZBYN,2004-08-28 23:00,ZBYN 282300Z AUTO 00000KT 5SM 11/10 A2994 RMK T01100100 IEM_DS3505
ZBYN,2004-08-29 00:00,ZBYN 290000Z AUTO 16002KT 4SM 16/13 A2994 RMK SLP131 T01570134 52005 IEM_DS3505
ZBYN,2004-08-29 01:00,ZBYN 290100Z AUTO 00000KT 17/10 A2994 RMK T01700100 IEM_DS3505
ZBYN,2004-08-29 02:00,ZBYN 290200Z AUTO 00000KT 5SM 19/11 A2994 RMK T01900110 IEM_DS3505
ZBYN,2004-08-29 03:00,ZBYN 290300Z AUTO 16006KT 4SM 22/14 A2994 RMK SLP117 T02190138 57007 IEM_DS3505
ZBYN,2004-08-29 04:00,ZBYN 290400Z AUTO 6SM 23/11 A2991 RMK T02300110 IEM_DS3505
ZBYN,2004-08-29 05:00,ZBYN 290500Z AUTO 6SM 25/10 A2988 RMK T02500100 IEM_DS3505
ZBYN,2004-08-29 06:00,ZBYN 290600Z AUTO 18006KT 7SM 27/13 A2985 RMK SLP087 T02660134 57027 IEM_DS3505
ZBYN,2004-08-29 07:00,ZBYN 290700Z AUTO 24006KT 6SM 26/09 A2983 RMK T02600090 IEM_DS3505
ZBYN,2004-08-29 08:00,ZBYN 290800Z AUTO 22004KT 6SM 27/08 A2983 RMK T02700080 IEM_DS3505
ZBYN,2004-08-29 09:00,ZBYN 290900Z AUTO 20006KT 9SM 27/11 A2980 RMK SLP074 T02690106 57014 IEM_DS3505
ZBYN,2004-08-29 10:00,ZBYN 291000Z AUTO 27004KT 7SM 24/08 A2980 RMK T02400080 IEM_DS3505
ZBYN,2004-08-29 11:00,ZBYN 291100Z AUTO 28002KT 6SM 23/09 A2983 RMK T02300090 IEM_DS3505
ZBYN,2004-08-29 12:00,ZBYN 291200Z AUTO 34002KT 12SM 20/11 A2985 RMK SLP094 T01970112 52013 IEM_DS3505
ZBYN,2004-08-29 13:00,ZBYN 291300Z AUTO 06002KT 6SM 18/11 A2985 RMK T01800110 IEM_DS3505
ZBYN,2004-08-29 14:00,ZBYN 291400Z AUTO 16002KT 6SM 14/11 A2985 RMK T01400110 IEM_DS3505
ZBYN,2004-08-29 15:00,ZBYN 291500Z AUTO 32002KT 9SM 16/12 A2985 RMK SLP096 T01570119 52005 IEM_DS3505
ZBYN,2004-08-29 16:00,ZBYN 291600Z AUTO 00000KT 6SM 14/10 A2985 RMK T01400100 IEM_DS3505
ZBYN,2004-08-29 17:00,ZBYN 291700Z AUTO 00000KT 6SM 13/10 A2985 RMK T01300100 IEM_DS3505
ZBYN,2004-08-29 18:00,ZBYN 291800Z AUTO 32002KT 5SM 14/11 A2985 RMK SLP090 T01430111 57001 IEM_DS3505
ZBYN,2004-08-29 19:00,ZBYN 291900Z AUTO 00000KT 6SM 10/08 A2985 RMK T01000080 IEM_DS3505
ZBYN,2004-08-29 20:00,ZBYN 292000Z AUTO 00000KT 6SM 10/09 A2985 RMK T01000090 IEM_DS3505
ZBYN,2004-08-29 21:00,ZBYN 292100Z AUTO 29002KT 5SM 12/12 A2985 RMK SLP093 T01230115 52001 IEM_DS3505
ZBYN,2004-08-29 22:00,ZBYN 292200Z AUTO 00000KT 6SM 10/08 A2985 RMK T01000080 IEM_DS3505
ZBYN,2004-08-29 23:00,ZBYN 292300Z AUTO 00000KT 4SM 11/09 A2988 RMK T01100090 IEM_DS3505
ZBYN,2004-08-30 00:00,ZBYN 300000Z AUTO 18002KT 5SM 16/12 A2988 RMK SLP104 T01620120 52005 IEM_DS3505
ZBYN,2004-08-30 01:00,ZBYN 300100Z AUTO 00000KT 17/10 A2985 RMK T01700100 IEM_DS3505
ZBYN,2004-08-30 02:00,ZBYN 300200Z AUTO 00000KT 5SM 20/11 A2985 RMK T02000110 IEM_DS3505
ZBYN,2004-08-30 03:00,ZBYN 300300Z AUTO 11004KT 5SM 23/12 A2985 RMK SLP088 T02300123 57011 IEM_DS3505
ZBYN,2004-08-30 04:00,ZBYN 300400Z AUTO 6SM 23/11 A2983 RMK T02300110 IEM_DS3505
ZBYN,2004-08-30 05:00,ZBYN 300500Z AUTO 20004KT 5SM 25/12 A2980 RMK T02500120 IEM_DS3505
ZBYN,2004-08-30 06:00,ZBYN 300600Z AUTO 18006KT 6SM 27/13 A2977 RMK SLP060 T02700134 57022 IEM_DS3505
ZBYN,2004-08-30 07:00,ZBYN 300700Z AUTO 17006KT 6SM 27/11 A2974 RMK T02700110 IEM_DS3505
ZBYN,2004-08-30 08:00,ZBYN 300800Z AUTO 19004KT 6SM 26/11 A2974 RMK T02600110 IEM_DS3505
ZBYN,2004-08-30 09:00,ZBYN 300900Z AUTO 16004KT 7SM 28/15 A2974 RMK SLP047 T02750152 57014 IEM_DS3505
ZBYN,2004-08-30 10:00,ZBYN 301000Z AUTO 6SM 25/14 A2971 RMK T02500140 IEM_DS3505
ZBYN,2004-08-30 11:00,ZBYN 301100Z AUTO 00000KT 6SM 22/15 A2974 RMK T02200150 IEM_DS3505
ZBYN,2004-08-30 12:00,ZBYN 301200Z AUTO 34004KT 12SM 22/08 A2977 RMK SLP059 T02220084 52009 IEM_DS3505
ZBYN,2004-08-30 13:00,ZBYN 301300Z AUTO 00000KT 6SM 19/07 A2977 RMK T01900070 IEM_DS3505
ZBYN,2004-08-30 14:00,ZBYN 301400Z AUTO 32008KT 6SM 16/08 A2977 RMK T01600080 IEM_DS3505
ZBYN,2004-08-30 15:00,ZBYN 301500Z AUTO 32004KT 9SM 20/08 A2980 RMK SLP061 T01950079 52008 IEM_DS3505
ZBYN,2004-08-30 16:00,ZBYN 301600Z AUTO 6SM 13/09 A2980 RMK T01300090 IEM_DS3505
ZBYN,2004-08-30 17:00,ZBYN 301700Z AUTO 07004KT 6SM 14/09 A2980 RMK T01400090 IEM_DS3505
ZBYN,2004-08-30 18:00,ZBYN 301800Z AUTO 18002KT 7SM 15/12 A2980 RMK SLP071 T01480123 52008 IEM_DS3505
ZBYN,2004-08-30 19:00,ZBYN 301900Z AUTO 00000KT 6SM 12/09 A2980 RMK T01200090 IEM_DS3505
ZBYN,2004-08-30 20:00,ZBYN 302000Z AUTO 00000KT 6SM 12/09 A2980 RMK T01200090 IEM_DS3505
ZBYN,2004-08-30 21:00,ZBYN 302100Z AUTO 32002KT 6SM 14/11 A2980 RMK SLP076 T01400113 52004 IEM_DS3505
ZBYN,2004-08-30 22:00,ZBYN 302200Z AUTO 00000KT 6SM 12/10 A2983 RMK T01200100 IEM_DS3505
ZBYN,2004-08-30 23:00,ZBYN 302300Z AUTO 00000KT 6SM 13/10 A2983 RMK T01300100 IEM_DS3505
ZBYN,2004-08-31 00:00,ZBYN 310000Z AUTO 32002KT 5SM 18/12 A2985 RMK SLP084 T01810123 52006 IEM_DS3505
ZBYN,2004-08-31 01:00,ZBYN 310100Z AUTO 00000KT 6SM 18/12 A2983 RMK T01800120 IEM_DS3505
ZBYN,2004-08-31 02:00,ZBYN 310200Z AUTO 00000KT 6SM 21/08 A2983 RMK T02100080 IEM_DS3505
ZBYN,2004-08-31 03:00,ZBYN 310300Z AUTO 18004KT 5SM 24/12 A2983 RMK SLP074 T02440124 57004 IEM_DS3505
ZBYN,2004-08-31 04:00,ZBYN 310400Z AUTO 19004KT 6SM 25/10 A2983 RMK T02500100 IEM_DS3505
ZBYN,2004-08-31 05:00,ZBYN 310500Z AUTO 22004KT 6SM 26/09 A2980 RMK T02600090 IEM_DS3505
ZBYN,2004-08-31 06:00,ZBYN 310600Z AUTO 18006KT 6SM 28/12 A2977 RMK SLP058 T02840123 57016 IEM_DS3505
ZBYN,2004-08-31 07:00,ZBYN 310700Z AUTO 16004KT 6SM 28/08 A2977 RMK T02800080 IEM_DS3505
ZBYN,2004-08-31 08:00,ZBYN 310800Z AUTO 21004KT 7SM 28/08 A2977 RMK T02800080 IEM_DS3505
ZBYN,2004-08-31 09:00,ZBYN 310900Z AUTO 18002KT 6SM 28/14 A2977 RMK SLP054 T02750145 57006 IEM_DS3505
ZBYN,2004-08-31 10:00,ZBYN 311000Z AUTO 00000KT 6SM 26/12 A2977 RMK T02600120 IEM_DS3505
ZBYN,2004-08-31 11:00,ZBYN 311100Z AUTO 14004KT 6SM 20/15 A2977 RMK T02000150 IEM_DS3505
ZBYN,2004-08-31 12:00,ZBYN 311200Z AUTO 18002KT 12SM 20/14 A2977 RMK SLP064 T02050142 52005 IEM_DS3505
ZBYN,2004-08-31 13:00,ZBYN 311300Z AUTO 11004KT 6SM 17/12 A2980 RMK T01700120 IEM_DS3505
ZBYN,2004-08-31 14:00,ZBYN 311400Z AUTO 13002KT 6SM 15/11 A2980 RMK T01500110 IEM_DS3505
ZBYN,2004-08-31 15:00,ZBYN 311500Z AUTO 29002KT 6SM 18/12 A2980 RMK SLP073 T01770120 52013 IEM_DS3505
ZBYN,2004-08-31 16:00,ZBYN 311600Z AUTO 13002KT 6SM 14/11 A2983 RMK T01400110 IEM_DS3505
ZBYN,2004-08-31 17:00,ZBYN 311700Z AUTO 12002KT 6SM 14/11 A2983 RMK T01400110 IEM_DS3505
ZBYN,2004-08-31 18:00,ZBYN 311800Z AUTO 16002KT 6SM 17/13 A2985 RMK SLP076 T01730132 52008 IEM_DS3505
ZBYN,2004-08-31 19:00,ZBYN 311900Z AUTO 23006KT 7SM 15/12 A2991 RMK T01500120 IEM_DS3505
ZBYN,2004-08-31 20:00,ZBYN 312000Z AUTO 31006KT 7SM 16/11 A2988 RMK T01600110 IEM_DS3505
ZBYN,2004-08-31 21:00,ZBYN 312100Z AUTO 14004KT 9SM 17/13 A2988 RMK 70002 SLP088 T01670134 52009 IEM_DS3505
ZBYN,2004-08-31 22:00,ZBYN 312200Z AUTO 6SM 14/11 A2988 RMK T01400110 IEM_DS3505
ZBYN,2004-08-31 23:00,ZBYN 312300Z AUTO 00000KT 6SM 14/12 A2991 RMK T01400120 IEM_DS3505
ZBYN,2004-09-01 00:00,ZBYN 010000Z AUTO 07002KT 9SM 20/13 A2988 RMK 60002 70002 SLP107 T01960133 52012 IEM_DS3505
ZBYN,2004-09-01 01:00,ZBYN 010100Z AUTO 09004KT 6SM 20/11 A2991 RMK T02000110 IEM_DS3505
ZBYN,2004-09-01 03:00,ZBYN 010300Z AUTO 11006KT 6SM 25/14 RMK SLP099 T02470136 57004 IEM_DS3505
ZBYN,2004-09-01 04:00,ZBYN 010400Z AUTO 6SM 24/11 A2988 RMK T02400110 IEM_DS3505
ZBYN,2004-09-01 05:00,ZBYN 010500Z AUTO 6SM 26/11 A2985 RMK T02600110 IEM_DS3505
ZBYN,2004-09-01 06:00,ZBYN 010600Z AUTO 14004KT 7SM 28/13 A2985 RMK SLP076 T02850132 57017 IEM_DS3505
ZBYN,2004-09-01 07:00,ZBYN 010700Z AUTO 06004KT 6SM 28/07 A2983 RMK T02800070 IEM_DS3505
ZBYN,2004-09-01 08:00,ZBYN 010800Z AUTO 6SM 28/08 A2983 RMK T02800080 IEM_DS3505
ZBYN,2004-09-01 09:00,ZBYN 010900Z AUTO 18002KT 11SM 28/12 A2983 RMK SLP071 T02840115 57005 IEM_DS3505
ZBYN,2004-09-01 10:00,ZBYN 011000Z AUTO 00000KT 6SM 26/13 A2983 RMK T02600130 IEM_DS3505
ZBYN,2004-09-01 11:00,ZBYN 011100Z AUTO 00000KT 7SM 22/15 A2983 RMK T02200150 IEM_DS3505
ZBYN,2004-09-01 12:00,ZBYN 011200Z AUTO 32002KT 9SM 22/15 A2985 RMK SLP088 T02250151 52011 IEM_DS3505
ZBYN,2004-09-01 13:00,ZBYN 011300Z AUTO 10006KT 6SM 19/11 A2988 RMK T01900110 IEM_DS3505
ZBYN,2004-09-01 14:00,ZBYN 011400Z AUTO 06008KT 6SM 21/12 A2988 RMK T02100120 IEM_DS3505
ZBYN,2004-09-01 15:00,ZBYN 011500Z AUTO 32004KT 9SM 20/13 A2991 RMK SLP106 T01970129 52020 IEM_DS3505
ZBYN,2004-09-01 16:00,ZBYN 011600Z AUTO 07004KT 6SM 20/13 A2991 RMK T02000130 IEM_DS3505
ZBYN,2004-09-01 17:00,ZBYN 011700Z AUTO 02004KT 6SM 19/12 A2991 RMK T01900120 IEM_DS3505
ZBYN,2004-09-01 18:00,ZBYN 011800Z AUTO 32004KT 9SM 20/13 A2991 RMK SLP103 T01970127 52002 IEM_DS3505
ZBYN,2004-09-01 19:00,ZBYN 011900Z AUTO 34004KT 6SM 17/12 A2994 RMK T01700120 IEM_DS3505
ZBYN,2004-09-01 20:00,ZBYN 012000Z AUTO 00000KT 6SM 17/12 A2994 RMK T01700120 IEM_DS3505
ZBYN,2004-09-01 21:00,ZBYN 012100Z AUTO 34004KT 9SM 19/12 A2994 RMK SLP112 T01900118 52007 IEM_DS3505
ZBYN,2004-09-01 22:00,ZBYN 012200Z AUTO 00000KT 6SM 16/13 A2994 RMK T01600130 IEM_DS3505
ZBYN,2004-09-01 23:00,ZBYN 012300Z AUTO 00000KT 5SM 17/13 A2997 RMK T01700130 IEM_DS3505
ZBYN,2004-09-02 00:00,ZBYN 020000Z AUTO 32004KT 7SM 20/12 A2997 RMK SLP125 T01960124 52005 IEM_DS3505
ZBYN,2004-09-02 01:00,ZBYN 020100Z AUTO 34006KT 6SM 20/12 A2997 RMK T02000120 IEM_DS3505
ZBYN,2004-09-02 02:00,ZBYN 020200Z AUTO 34004KT 6SM 22/12 A2997 RMK T02200120 IEM_DS3505
ZBYN,2004-09-02 03:00,ZBYN 020300Z AUTO 32004KT 4SM 23/14 A2994 RMK SLP120 T02270140 57004 IEM_DS3505
ZBYN,2004-09-02 04:00,ZBYN 020400Z AUTO 35004KT 6SM 24/14 A2991 RMK T02400140 IEM_DS3505
ZBYN,2004-09-02 05:00,ZBYN 020500Z AUTO 00000KT 6SM 25/15 A2988 RMK T02500150 IEM_DS3505
ZBYN,2004-09-02 06:00,ZBYN 020600Z AUTO 29004KT 4SM 27/17 A2988 RMK SLP089 T02710167 57022 IEM_DS3505
ZBYN,2004-09-02 07:00,ZBYN 020700Z AUTO 6SM 27/15 A2985 RMK T02700150 IEM_DS3505
ZBYN,2004-09-02 08:00,ZBYN 020800Z AUTO 06002KT 6SM 27/16 A2985 RMK T02700160 IEM_DS3505
ZBYN,2004-09-02 09:00,ZBYN 020900Z AUTO 11008KT 5SM 27/18 A2983 RMK SLP073 T02730178 57016 IEM_DS3505
ZBYN,2004-09-02 10:00,ZBYN 021000Z AUTO 07008KT 7SM 24/15 A2985 RMK T02400150 IEM_DS3505
ZBYN,2004-09-02 11:00,ZBYN 021100Z AUTO 08010KT 7SM 23/15 A2985 RMK T02300150 IEM_DS3505
ZBYN,2004-09-02 12:00,ZBYN 021200Z AUTO 14004KT 5SM 24/16 A2988 RMK SLP096 T02350165 52017 IEM_DS3505
ZBYN,2004-09-02 13:00,ZBYN 021300Z AUTO 11006KT 7SM 20/15 A2991 RMK T02000150 IEM_DS3505
ZBYN,2004-09-02 14:00,ZBYN 021400Z AUTO 6SM 20/14 A2994 RMK T02000140 IEM_DS3505
ZBYN,2004-09-02 15:00,ZBYN 021500Z AUTO 11004KT 6SM 19/15 A2994 RMK SLP113 T01930152 52014 IEM_DS3505
ZBYN,2004-09-02 16:00,ZBYN 021600Z AUTO 07004KT 6SM 19/14 A2994 RMK T01900140 IEM_DS3505
ZBYN,2004-09-02 17:00,ZBYN 021700Z AUTO 12004KT 6SM 17/14 A2991 RMK T01700140 IEM_DS3505
ZBYN,2004-09-02 18:00,ZBYN 021800Z AUTO 32002KT 6SM 18/16 A2991 RMK SLP107 T01790159 57001 IEM_DS3505
ZBYN,2004-09-02 19:00,ZBYN 021900Z AUTO 12002KT 6SM 15/13 A2991 RMK T01500130 IEM_DS3505
ZBYN,2004-09-02 20:00,ZBYN 022000Z AUTO 00000KT 6SM 17/13 A2991 RMK T01700130 IEM_DS3505
ZBYN,2004-09-02 21:00,ZBYN 022100Z AUTO 14006KT 6SM 18/14 A2991 RMK SLP106 T01820139 57001 IEM_DS3505
ZBYN,2004-09-02 22:00,ZBYN 022200Z AUTO 13004KT 6SM 17/11 A2994 RMK T01700110 IEM_DS3505
ZBYN,2004-09-02 23:00,ZBYN 022300Z AUTO 13004KT 6SM 17/11 A2994 RMK T01700110 IEM_DS3505
ZBYN,2004-09-03 00:00,ZBYN 030000Z AUTO 11002KT 5SM 18/14 A2997 RMK SLP126 T01820137 52013 IEM_DS3505
ZBYN,2004-09-03 01:00,ZBYN 030100Z AUTO 13004KT 7SM 18/12 A2997 RMK T01800120 IEM_DS3505
ZBYN,2004-09-03 02:00,ZBYN 030200Z AUTO 14004KT 6SM 18/12 A2997 RMK T01800120 IEM_DS3505
ZBYN,2004-09-03 03:00,ZBYN 030300Z AUTO 07002KT 6SM 21/13 A2994 RMK SLP126 T02060133 57002 IEM_DS3505
ZBYN,2004-09-03 04:00,ZBYN 030400Z AUTO 7SM 20/11 A2997 RMK T02000110 IEM_DS3505
ZBYN,2004-09-03 05:00,ZBYN 030500Z AUTO 7SM 21/12 A2994 RMK T02100120 IEM_DS3505
ZBYN,2004-09-03 06:00,ZBYN 030600Z AUTO 04002KT 6SM 23/14 A2994 RMK SLP116 T02310136 57008 IEM_DS3505
ZBYN,2004-09-03 07:00,ZBYN 030700Z AUTO 15002KT 7SM 22/12 A2991 RMK T02200120 IEM_DS3505
ZBYN,2004-09-03 08:00,ZBYN 030800Z AUTO 6SM 22/12 A2988 RMK T02200120 IEM_DS3505
ZBYN,2004-09-03 09:00,ZBYN 030900Z AUTO 14004KT 6SM 23/15 A2991 RMK SLP107 T02280146 57008 IEM_DS3505
ZBYN,2004-09-03 10:00,ZBYN 031000Z AUTO 17002KT 6SM 21/12 A2991 RMK T02100120 IEM_DS3505
ZBYN,2004-09-03 11:00,ZBYN 031100Z AUTO 00000KT 6SM 20/14 A2991 RMK T02000140 IEM_DS3505
ZBYN,2004-09-03 12:00,ZBYN 031200Z AUTO 14002KT 6SM 19/16 A2994 RMK SLP126 T01920159 52012 IEM_DS3505
ZBYN,2004-09-03 13:00,ZBYN 031300Z AUTO 10004KT 6SM 18/13 A2997 RMK T01800130 IEM_DS3505
ZBYN,2004-09-03 14:00,ZBYN 031400Z AUTO 09004KT 6SM 17/13 A2997 RMK T01700130 IEM_DS3505
ZBYN,2004-09-03 15:00,ZBYN 031500Z AUTO 29002KT 6SM 16/15 A2997 RMK SLP134 T01650150 52007 IEM_DS3505
ZBYN,2004-09-03 16:00,ZBYN 031600Z AUTO 12004KT 4SM 14/13 A2997 RMK T01400130 IEM_DS3505
ZBYN,2004-09-03 17:00,ZBYN 031700Z AUTO 09002KT 4SM 15/13 A2997 RMK T01500130 IEM_DS3505
ZBYN,2004-09-03 18:00,ZBYN 031800Z AUTO 18002KT 6SM 15/14 A2997 RMK SLP135 T01520144 52003 IEM_DS3505
ZBYN,2004-09-03 19:00,ZBYN 031900Z AUTO 00000KT 2SM 13/12 A2997 RMK T01300120 IEM_DS3505
ZBYN,2004-09-03 20:00,ZBYN 032000Z AUTO 12004KT 3SM 13/12 A2997 RMK T01300120 IEM_DS3505
ZBYN,2004-09-03 21:00,ZBYN 032100Z AUTO 22002KT 6SM 14/14 A2997 RMK SLP140 T01410135 52002 IEM_DS3505
ZBYN,2004-09-03 22:00,ZBYN 032200Z AUTO 00000KT 2 1/2SM 12/11 A2997 RMK T01200110 IEM_DS3505
ZBYN,2004-09-03 23:00,ZBYN 032300Z AUTO 12002KT 2SM 12/11 A3000 RMK T01200110 IEM_DS3505
ZBYN,2004-09-04 00:00,ZBYN 040000Z AUTO 14002KT 4SM 16/15 A3000 RMK SLP153 T01570147 52009 IEM_DS3505
ZBYN,2004-09-04 01:00,ZBYN 040100Z AUTO 00000KT 1 1/2SM 17/13 A3000 RMK T01700130 IEM_DS3505
ZBYN,2004-09-04 02:00,ZBYN 040200Z AUTO 1 1/2SM 19/13 A3000 RMK T01900130 IEM_DS3505
ZBYN,2004-09-04 03:00,ZBYN 040300Z AUTO 36004KT 4SM 23/15 A2997 RMK SLP137 T02260150 57008 IEM_DS3505
ZBYN,2004-09-04 04:00,ZBYN 040400Z AUTO 00000KT 3SM 22/13 A2997 RMK T02200130 IEM_DS3505
ZBYN,2004-09-04 05:00,ZBYN 040500Z AUTO 5SM 24/13 A2994 RMK T02400130 IEM_DS3505
ZBYN,2004-09-04 06:00,ZBYN 040600Z AUTO 14004KT 4SM 27/14 A2991 RMK SLP107 T02700144 57023 IEM_DS3505
ZBYN,2004-09-04 07:00,ZBYN 040700Z AUTO 6SM 25/13 A2988 RMK T02500130 IEM_DS3505
ZBYN,2004-09-04 08:00,ZBYN 040800Z AUTO 25004KT 6SM 26/14 A2988 RMK T02600140 IEM_DS3505
ZBYN,2004-09-04 09:00,ZBYN 040900Z AUTO 20004KT 4SM 26/16 A2988 RMK SLP101 T02610155 57009 IEM_DS3505
ZBYN,2004-09-04 10:00,ZBYN 041000Z AUTO 00000KT 5SM 24/16 A2988 RMK T02400160 IEM_DS3505
ZBYN,2004-09-04 11:00,ZBYN 041100Z AUTO 00000KT 22/15 A2988 RMK T02200150 IEM_DS3505
ZBYN,2004-09-04 12:00,ZBYN 041200Z AUTO 16002KT 4SM 22/18 A2991 RMK SLP115 T02230179 52010 IEM_DS3505
ZBYN,2004-09-04 13:00,ZBYN 041300Z AUTO 00000KT 4SM 20/16 A2994 RMK T02000160 IEM_DS3505
ZBYN,2004-09-04 14:00,ZBYN 041400Z AUTO 07004KT 4SM 20/15 A2994 RMK T02000150 IEM_DS3505
ZBYN,2004-09-04 15:00,ZBYN 041500Z AUTO 02004KT 4SM 22/17 A2991 RMK SLP110 T02160168 52004 IEM_DS3505
ZBYN,2004-09-04 16:00,ZBYN 041600Z AUTO 06006KT 6SM 22/11 A2991 RMK T02200110 IEM_DS3505
ZBYN,2004-09-04 17:00,ZBYN 041700Z AUTO 17004KT 6SM 20/13 A2994 RMK T02000130 IEM_DS3505
ZBYN,2004-09-04 18:00,ZBYN 041800Z AUTO 36006KT 4SM 22/12 A2994 RMK SLP111 T02190125 52008 IEM_DS3505
ZBYN,2004-09-04 21:00,ZBYN 042100Z AUTO 36006KT 6SM 20/11 A2994 RMK SLP118 T02050112 52003 IEM_DS3505
ZBYN,2004-09-04 22:00,ZBYN 042200Z AUTO 00000KT 6SM 14/13 A2997 RMK T01400130 IEM_DS3505
ZBYN,2004-09-04 23:00,ZBYN 042300Z AUTO 00000KT 5SM 16/13 A2997 RMK T01600130 IEM_DS3505
ZBYN,2004-09-05 00:00,ZBYN 050000Z AUTO 32004KT 6SM 20/13 A2997 RMK SLP133 T02040129 52008 IEM_DS3505
ZBYN,2004-09-05 01:00,ZBYN 050100Z AUTO 5SM 22/14 A3000 RMK T02200140 IEM_DS3505
ZBYN,2004-09-05 02:00,ZBYN 050200Z AUTO 03004KT 5SM 23/13 A2997 RMK T02300130 IEM_DS3505
ZBYN,2004-09-05 03:00,ZBYN 050300Z AUTO 29004KT 6SM 26/13 A2997 RMK SLP122 T02550130 57004 IEM_DS3505
ZBYN,2004-09-05 04:00,ZBYN 050400Z AUTO 27002KT 6SM 26/12 A2994 RMK T02600120 IEM_DS3505
ZBYN,2004-09-05 05:00,ZBYN 050500Z AUTO 06006KT 6SM 27/09 A2991 RMK T02700090 IEM_DS3505
ZBYN,2004-09-05 06:00,ZBYN 050600Z AUTO 20002KT 6SM 29/13 A2991 RMK SLP092 T02900129 57022 IEM_DS3505
ZBYN,2004-09-05 07:00,ZBYN 050700Z AUTO 10004KT 7SM 29/07 A2988 RMK T02900070 IEM_DS3505
ZBYN,2004-09-05 08:00,ZBYN 050800Z AUTO 10006KT 7SM 28/08 A2988 RMK T02800080 IEM_DS3505
ZBYN,2004-09-05 09:00,ZBYN 050900Z AUTO 07006KT 9SM 28/12 A2988 RMK SLP086 T02800120 57009 IEM_DS3505
ZBYN,2004-09-05 10:00,ZBYN 051000Z AUTO 06006KT 6SM 26/10 A2988 RMK T02600100 IEM_DS3505
ZBYN,2004-09-05 11:00,ZBYN 051100Z AUTO 08008KT 6SM 24/13 A2988 RMK T02400130 IEM_DS3505
ZBYN,2004-09-05 12:00,ZBYN 051200Z AUTO 09010KT 7SM 24/16 A2991 RMK SLP105 T02400155 52012 IEM_DS3505
ZBYN,2004-09-05 13:00,ZBYN 051300Z AUTO 08010KT 6SM 21/14 A2994 RMK T02100140 IEM_DS3505
ZBYN,2004-09-05 15:00,ZBYN 051500Z AUTO 32002KT 6SM 22/16 A2994 RMK SLP111 T02170162 52009 IEM_DS3505
ZBYN,2004-09-05 16:00,ZBYN 051600Z AUTO 09008KT 6SM 20/14 A2994 RMK T02000140 IEM_DS3505
ZBYN,2004-09-05 17:00,ZBYN 051700Z AUTO 07004KT 5SM 20/14 A2994 RMK T02000140 IEM_DS3505
ZBYN,2004-09-05 18:00,ZBYN 051800Z AUTO 29002KT 5SM 20/16 A2994 RMK SLP108 T01970164 54000 IEM_DS3505
ZBYN,2004-09-05 19:00,ZBYN 051900Z AUTO 10002KT 2 1/2SM 17/15 A2994 RMK T01700150 IEM_DS3505
ZBYN,2004-09-05 20:00,ZBYN 052000Z AUTO 00000KT 2SM 17/15 A2991 RMK T01700150 IEM_DS3505
ZBYN,2004-09-05 21:00,ZBYN 052100Z AUTO 18002KT 2SM 18/16 A2991 RMK SLP106 T01770164 57006 IEM_DS3505
ZBYN,2004-09-05 22:00,ZBYN 052200Z AUTO 13004KT 1 1/4SM 16/14 A2991 RMK T01600140 IEM_DS3505
ZBYN,2004-09-05 23:00,ZBYN 052300Z AUTO 16004KT 1SM 17/15 A2991 RMK T01700150 IEM_DS3505
ZBYN,2004-09-06 00:00,ZBYN 060000Z AUTO 11004KT 1/2SM 18/17 A2991 RMK SLP108 T01830170 57003 IEM_DS3505
ZBYN,2004-09-06 01:00,ZBYN 060100Z AUTO 1SM 19/15 A2994 RMK T01900150 IEM_DS3505
ZBYN,2004-09-06 02:00,ZBYN 060200Z AUTO 33010KT 1SM 19/15 A2997 RMK T01900150 IEM_DS3505
ZBYN,2004-09-06 03:00,ZBYN 060300Z AUTO 34004KT 5SM 20/16 A2991 RMK SLP112 T01960161 52002 IEM_DS3505
ZBYN,2004-09-06 04:00,ZBYN 060400Z AUTO 28002KT 6SM 20/12 A2991 RMK T02000120 IEM_DS3505
ZBYN,2004-09-06 05:00,ZBYN 060500Z AUTO 18004KT 6SM 22/13 A2988 RMK T02200130 IEM_DS3505
ZBYN,2004-09-06 06:00,ZBYN 060600Z AUTO 18004KT 7SM 24/16 A2985 RMK SLP084 T02380161 57023 IEM_DS3505
ZBYN,2004-09-06 07:00,ZBYN 060700Z AUTO 17004KT 24/15 A2983 RMK T02400150 IEM_DS3505
ZBYN,2004-09-06 08:00,ZBYN 060800Z AUTO 5SM 25/14 A2983 RMK T02500140 IEM_DS3505
ZBYN,2004-09-06 09:00,ZBYN 060900Z AUTO 32012KT 12SM 25/07 A2985 RMK SLP087 T02520069 52002 IEM_DS3505
ZBYN,2004-09-06 10:00,ZBYN 061000Z AUTO 36008KT 6SM 21/06 A2988 RMK T02100060 IEM_DS3505
ZBYN,2004-09-06 11:00,ZBYN 061100Z AUTO 35008KT 6SM 20/06 RMK T02000060 IEM_DS3505
ZBYN,2004-09-06 12:00,ZBYN 061200Z AUTO 02002KT 12SM 19/09 A2991 RMK SLP121 T01920094 52024 IEM_DS3505
ZBYN,2004-09-06 13:00,ZBYN 061300Z AUTO 12002KT 6SM 15/08 A2994 RMK T01500080 IEM_DS3505
ZBYN,2004-09-06 14:00,ZBYN 061400Z AUTO 6SM 14/08 A2997 RMK T01400080 IEM_DS3505
ZBYN,2004-09-06 15:00,ZBYN 061500Z AUTO 32006KT 12SM 18/10 A2997 RMK SLP141 T01800099 52018 IEM_DS3505
ZBYN,2004-09-06 16:00,ZBYN 061600Z AUTO 34006KT 6SM 15/07 A3000 RMK T01500070 IEM_DS3505
ZBYN,2004-09-06 17:00,ZBYN 061700Z AUTO 35008KT 6SM 15/07 A2997 RMK T01500070 IEM_DS3505
ZBYN,2004-09-06 18:00,ZBYN 061800Z AUTO 32008KT 9SM 16/08 A3000 RMK SLP140 T01640076 52003 IEM_DS3505
ZBYN,2004-09-06 19:00,ZBYN 061900Z AUTO 35012KT 6SM 14/04 A2997 RMK T01400040 IEM_DS3505
ZBYN,2004-09-06 20:00,ZBYN 062000Z AUTO 34010KT 6SM 13/04 A3000 RMK T01300040 IEM_DS3505
ZBYN,2004-09-06 21:00,ZBYN 062100Z AUTO 34008KT 9SM 15/05 A3000 RMK 70000 SLP149 T01460046 52008 IEM_DS3505
ZBYN,2004-09-06 22:00,ZBYN 062200Z AUTO 36008KT 6SM 12/03 A3003 RMK T01200030 IEM_DS3505
ZBYN,2004-09-06 23:00,ZBYN 062300Z AUTO 36012KT 6SM 13/03 A3006 RMK T01300030 IEM_DS3505
ZBYN,2004-09-07 00:00,ZBYN 070000Z AUTO 34004KT 12SM 16/05 A3006 RMK 70000 SLP175 T01600050 52017 IEM_DS3505
ZBYN,2004-09-07 01:00,ZBYN 070100Z AUTO 36010KT 6SM 17/01 A3006 RMK T01700010 IEM_DS3505
ZBYN,2004-09-07 02:00,ZBYN 070200Z AUTO 33010KT 6SM 18/01 A3009 RMK T01800010 IEM_DS3505
ZBYN,2004-09-07 03:00,ZBYN 070300Z AUTO 32006KT 16SM 20/04 A3006 RMK SLP166 T02000041 57004 IEM_DS3505
ZBYN,2004-09-07 04:00,ZBYN 070400Z AUTO 32008KT 6SM 20/00 A3003 RMK T02000000 IEM_DS3505
ZBYN,2004-09-07 05:00,ZBYN 070500Z AUTO 34008KT 6SM 22/00 A3000 RMK T02200000 IEM_DS3505
ZBYN,2004-09-07 06:00,ZBYN 070600Z AUTO 04006KT 16SM 24/01 RMK SLP133 T02380009 57027 IEM_DS3505
ZBYN,2004-09-07 07:00,ZBYN 070700Z AUTO 34008KT 6SM 23/M02 A2994 RMK T02301020 IEM_DS3505
ZBYN,2004-09-07 08:00,ZBYN 070800Z AUTO 36008KT 6SM 24/M04 A2994 RMK T02401040 IEM_DS3505
ZBYN,2004-09-07 09:00,ZBYN 070900Z AUTO 04006KT 16SM 24/01 A2994 RMK SLP128 T02370008 57008 IEM_DS3505
ZBYN,2004-09-07 10:00,ZBYN 071000Z AUTO 35002KT 6SM 21/00 A2997 RMK T02100000 IEM_DS3505
ZBYN,2004-09-07 11:00,ZBYN 071100Z AUTO 23002KT 6SM 18/06 A2997 RMK T01800060 IEM_DS3505
ZBYN,2004-09-07 12:00,ZBYN 071200Z AUTO 00000KT 16SM 16/10 A3000 RMK SLP152 T01640100 52014 IEM_DS3505
ZBYN,2004-09-07 13:00,ZBYN 071300Z AUTO 10002KT 6SM 13/08 A3000 RMK T01300080 IEM_DS3505
ZBYN,2004-09-07 14:00,ZBYN 071400Z AUTO 11002KT 6SM 12/07 A3003 RMK T01200070 IEM_DS3505
ZBYN,2004-09-07 15:00,ZBYN 071500Z AUTO 00000KT 9SM 13/10 A3003 RMK SLP163 T01330101 52011 IEM_DS3505
ZBYN,2004-09-07 16:00,ZBYN 071600Z AUTO 00000KT 6SM 11/06 A3003 RMK T01100060 IEM_DS3505
ZBYN,2004-09-07 17:00,ZBYN 071700Z AUTO 00000KT 6SM 11/07 A3003 RMK T01100070 IEM_DS3505
ZBYN,2004-09-07 18:00,ZBYN 071800Z AUTO 16002KT 7SM 12/09 A3003 RMK SLP164 T01150091 52004 IEM_DS3505
ZBYN,2004-09-07 19:00,ZBYN 071900Z AUTO 00000KT 6SM 09/05 A3003 RMK T00900050 IEM_DS3505
ZBYN,2004-09-07 20:00,ZBYN 072000Z AUTO 00000KT 6SM 07/05 A3003 RMK T00700050 IEM_DS3505
ZBYN,2004-09-07 21:00,ZBYN 072100Z AUTO 00000KT 6SM 09/08 A3003 RMK SLP168 T00940080 54000 IEM_DS3505
ZBYN,2004-09-07 22:00,ZBYN 072200Z AUTO 00000KT 6SM 07/05 A3006 RMK T00700050 IEM_DS3505
ZBYN,2004-09-07 23:00,ZBYN 072300Z AUTO 00000KT 4SM 08/05 A3006 RMK T00800050 IEM_DS3505
ZBYN,2004-09-08 00:00,ZBYN 080000Z AUTO 16002KT 5SM 14/11 A3006 RMK SLP175 T01420110 52003 IEM_DS3505
ZBYN,2004-09-08 01:00,ZBYN 080100Z AUTO 6SM 15/06 A3006 RMK T01500060 IEM_DS3505
ZBYN,2004-09-08 02:00,ZBYN 080200Z AUTO 07002KT 6SM 17/06 A3003 RMK T01700060 IEM_DS3505
ZBYN,2004-09-08 03:00,ZBYN 080300Z AUTO 14006KT 4SM 21/10 A3003 RMK SLP159 T02100096 57009 IEM_DS3505
ZBYN,2004-09-08 04:00,ZBYN 080400Z AUTO 6SM 21/07 A3000 RMK T02100070 IEM_DS3505
ZBYN,2004-09-08 05:00,ZBYN 080500Z AUTO 19004KT 6SM 23/05 A2997 RMK T02300050 IEM_DS3505
ZBYN,2004-09-08 06:00,ZBYN 080600Z AUTO 18008KT 6SM 25/06 A2994 RMK SLP125 T02490062 57028 IEM_DS3505
ZBYN,2004-09-08 07:00,ZBYN 080700Z AUTO 6SM 25/03 A2991 RMK T02500030 IEM_DS3505
ZBYN,2004-09-08 08:00,ZBYN 080800Z AUTO 17006KT 6SM 25/02 A2991 RMK T02500020 IEM_DS3505
ZBYN,2004-09-08 09:00,ZBYN 080900Z AUTO 20004KT 9SM 26/06 A2991 RMK SLP117 T02560058 57009 IEM_DS3505
ZBYN,2004-09-08 10:00,ZBYN 081000Z AUTO 00000KT 6SM 23/04 A2991 RMK T02300040 IEM_DS3505
ZBYN,2004-09-08 11:00,ZBYN 081100Z AUTO 18002KT 6SM 18/08 A2991 RMK T01800080 IEM_DS3505
ZBYN,2004-09-08 12:00,ZBYN 081200Z AUTO 09002KT 7SM 16/11 A2994 RMK SLP132 T01640109 52007 IEM_DS3505
ZBYN,2004-09-08 13:00,ZBYN 081300Z AUTO 00000KT 6SM 13/07 A2997 RMK T01300070 IEM_DS3505
ZBYN,2004-09-08 14:00,ZBYN 081400Z AUTO 13006KT 6SM 11/07 A2997 RMK T01100070 IEM_DS3505
ZBYN,2004-09-08 15:00,ZBYN 081500Z AUTO 00000KT 5SM 13/10 A2997 RMK SLP144 T01290097 52016 IEM_DS3505
ZBYN,2004-09-08 16:00,ZBYN 081600Z AUTO 12004KT 6SM 10/06 A3000 RMK T01000060 IEM_DS3505
ZBYN,2004-09-08 17:00,ZBYN 081700Z AUTO 08002KT 6SM 10/06 A3000 RMK T01000060 IEM_DS3505
ZBYN,2004-09-08 18:00,ZBYN 081800Z AUTO 00000KT 5SM 11/08 A2997 RMK SLP143 T01060085 52001 IEM_DS3505
ZBYN,2004-09-08 19:00,ZBYN 081900Z AUTO 00000KT 6SM 09/06 A2997 RMK T00900060 IEM_DS3505
ZBYN,2004-09-08 20:00,ZBYN 082000Z AUTO 00000KT 6SM 09/06 A2997 RMK T00900060 IEM_DS3505
ZBYN,2004-09-08 21:00,ZBYN 082100Z AUTO 16002KT 6SM 09/08 A3000 RMK SLP149 T00890078 52004 IEM_DS3505
ZBYN,2004-09-08 22:00,ZBYN 082200Z AUTO 13002KT 5SM 06/05 A3000 RMK T00600050 IEM_DS3505
ZBYN,2004-09-08 23:00,ZBYN 082300Z AUTO 13004KT 4SM 08/06 A3003 RMK T00800060 IEM_DS3505
ZBYN,2004-09-09 00:00,ZBYN 090000Z AUTO 11002KT 3SM 13/10 A3003 RMK SLP172 T01310097 52014 IEM_DS3505
ZBYN,2004-09-09 01:00,ZBYN 090100Z AUTO 5SM 15/07 A3003 RMK T01500070 IEM_DS3505
ZBYN,2004-09-09 02:00,ZBYN 090200Z AUTO 12002KT 6SM 18/06 A3003 RMK T01800060 IEM_DS3505
ZBYN,2004-09-09 03:00,ZBYN 090300Z AUTO 20004KT 5SM 22/08 A3003 RMK SLP161 T02200078 57002 IEM_DS3505
ZBYN,2004-09-09 04:00,ZBYN 090400Z AUTO 00000KT 6SM 22/04 A3003 RMK T02200040 IEM_DS3505
ZBYN,2004-09-09 05:00,ZBYN 090500Z AUTO 00000KT 6SM 24/04 A3000 RMK T02400040 IEM_DS3505
ZBYN,2004-09-09 06:00,ZBYN 090600Z AUTO 25002KT 6SM 28/03 RMK SLP136 T02790029 57018 IEM_DS3505
ZBYN,2004-09-09 07:00,ZBYN 090700Z AUTO 6SM 27/00 A2997 RMK T02700000 IEM_DS3505
ZBYN,2004-09-09 08:00,ZBYN 090800Z AUTO 6SM 28/01 A2994 RMK T02800010 IEM_DS3505
ZBYN,2004-09-09 09:00,ZBYN 090900Z AUTO 27002KT 12SM 29/04 A2994 RMK SLP128 T02910039 57008 IEM_DS3505
ZBYN,2004-09-09 10:00,ZBYN 091000Z AUTO 05004KT 7SM 25/06 A2997 RMK T02500060 IEM_DS3505
ZBYN,2004-09-09 11:00,ZBYN 091100Z AUTO 09004KT 7SM 21/04 A3000 RMK T02100040 IEM_DS3505
ZBYN,2004-09-09 12:00,ZBYN 091200Z AUTO 11005KT 12SM 23/10 A3003 RMK SLP156 T02260104 52022 IEM_DS3505
ZBYN,2004-09-09 13:00,ZBYN 091300Z AUTO 07010KT 6SM 20/08 A3006 RMK T02000080 IEM_DS3505
ZBYN,2004-09-09 14:00,ZBYN 091400Z AUTO 09010KT 6SM 19/08 A3009 RMK T01900080 IEM_DS3505
ZBYN,2004-09-09 15:00,ZBYN 091500Z AUTO 07004KT 12SM 19/11 A3009 RMK SLP175 T01880111 52025 IEM_DS3505
ZBYN,2004-09-09 16:00,ZBYN 091600Z AUTO 07010KT 6SM 18/08 A3012 RMK T01800080 IEM_DS3505
ZBYN,2004-09-09 17:00,ZBYN 091700Z AUTO 08010KT 6SM 18/09 A3012 RMK T01800090 IEM_DS3505
ZBYN,2004-09-09 18:00,ZBYN 091800Z AUTO 27002KT 9SM 16/11 A3012 RMK SLP182 T01600114 52011 IEM_DS3505
ZBYN,2004-09-09 19:00,ZBYN 091900Z AUTO 08006KT 6SM 17/10 A3012 RMK T01700100 IEM_DS3505
ZBYN,2004-09-09 20:00,ZBYN 092000Z AUTO 06004KT 6SM 17/10 A3015 RMK T01700100 IEM_DS3505
ZBYN,2004-09-09 21:00,ZBYN 092100Z AUTO 29002KT 9SM 15/10 A3015 RMK SLP185 T01540102 52003 IEM_DS3505
ZBYN,2004-09-09 22:00,ZBYN 092200Z AUTO 00000KT 6SM 13/10 A3015 RMK T01300100 IEM_DS3505
ZBYN,2004-09-09 23:00,ZBYN 092300Z AUTO 00000KT 4SM 13/09 A3018 RMK T01300090 IEM_DS3505
ZBYN,2004-09-10 00:00,ZBYN 100000Z AUTO 34004KT 6SM 17/10 A3018 RMK SLP206 T01720103 52013 IEM_DS3505
ZBYN,2004-09-10 01:00,ZBYN 100100Z AUTO 06008KT 18/11 A3018 RMK T01800110 IEM_DS3505
ZBYN,2004-09-10 02:00,ZBYN 100200Z AUTO 08010KT 19/11 A3018 RMK T01900110 IEM_DS3505
ZBYN,2004-09-10 03:00,ZBYN 100300Z AUTO 09008KT 4SM 23/12 A3018 RMK SLP201 T02310115 57002 IEM_DS3505
ZBYN,2004-09-10 04:00,ZBYN 100400Z AUTO 04008KT 6SM 26/11 A3018 RMK T02600110 IEM_DS3505
ZBYN,2004-09-10 05:00,ZBYN 100500Z AUTO 04008KT 6SM 28/12 A3015 RMK T02800120 IEM_DS3505
ZBYN,2004-09-10 06:00,ZBYN 100600Z AUTO 18004KT 6SM 27/09 A3012 RMK SLP173 T02680088 57024 IEM_DS3505
ZBYN,2004-09-10 07:00,ZBYN 100700Z AUTO 7SM 26/06 A3009 RMK T02600060 IEM_DS3505
ZBYN,2004-09-10 08:00,ZBYN 100800Z AUTO 09006KT 7SM 25/09 A3009 RMK T02500090 IEM_DS3505
ZBYN,2004-09-10 09:00,ZBYN 100900Z AUTO 09010KT 12SM 22/12 A3009 RMK SLP173 T02230120 57007 IEM_DS3505
ZBYN,2004-09-10 10:00,ZBYN 101000Z AUTO 08010KT 7SM 21/09 A3009 RMK T02100090 IEM_DS3505
ZBYN,2004-09-10 11:00,ZBYN 101100Z AUTO 08010KT 7SM 19/10 A3009 RMK T01900100 IEM_DS3505
ZBYN,2004-09-10 12:00,ZBYN 101200Z AUTO 09012KT 7SM 21/15 A3012 RMK SLP182 T02060147 52008 IEM_DS3505
ZBYN,2004-09-10 13:00,ZBYN 101300Z AUTO 08010KT 4SM 18/13 A3015 RMK T01800130 IEM_DS3505
ZBYN,2004-09-10 14:00,ZBYN 101400Z AUTO 08010KT 4SM 18/13 A3015 RMK T01800130 IEM_DS3505
ZBYN,2004-09-10 15:00,ZBYN 101500Z AUTO 09006KT 7SM 18/14 A3018 RMK SLP199 T01830138 52021 IEM_DS3505
ZBYN,2004-09-10 16:00,ZBYN 101600Z AUTO 09006KT 3SM 16/13 A3018 RMK T01600130 IEM_DS3505
ZBYN,2004-09-10 17:00,ZBYN 101700Z AUTO 08008KT 3SM 16/12 A3018 RMK T01600120 IEM_DS3505
ZBYN,2004-09-10 18:00,ZBYN 101800Z AUTO 11004KT 6SM 17/13 A3018 RMK SLP195 T01700131 57001 IEM_DS3505
ZBYN,2004-09-10 19:00,ZBYN 101900Z AUTO 09006KT 3SM 15/12 A3015 RMK T01500120 IEM_DS3505
ZBYN,2004-09-10 20:00,ZBYN 102000Z AUTO 08004KT 3SM 16/12 A3015 RMK T01600120 IEM_DS3505
ZBYN,2004-09-10 21:00,ZBYN 102100Z AUTO 32002KT 6SM 17/13 A3015 RMK SLP199 T01680133 57003 IEM_DS3505
ZBYN,2004-09-10 22:00,ZBYN 102200Z AUTO 09004KT 2SM 15/12 A3018 RMK T01500120 IEM_DS3505
ZBYN,2004-09-10 23:00,ZBYN 102300Z AUTO 11004KT 1 1/4SM 15/12 A3018 RMK T01500120 IEM_DS3505
ZBYN,2004-09-11 00:00,ZBYN 110000Z AUTO 18002KT 2 1/2SM 17/15 A3018 RMK SLP210 T01680150 52008 IEM_DS3505
ZBYN,2004-09-11 01:00,ZBYN 110100Z AUTO 08006KT 2 1/2SM 18/12 A3018 RMK T01800120 IEM_DS3505
ZBYN,2004-09-11 02:00,ZBYN 110200Z AUTO 09004KT 20/11 A3018 RMK T02000110 IEM_DS3505
ZBYN,2004-09-11 03:00,ZBYN 110300Z AUTO 14004KT 4SM 22/13 A3018 RMK SLP201 T02210132 57004 IEM_DS3505
ZBYN,2004-09-11 04:00,ZBYN 110400Z AUTO 5SM 21/11 A3015 RMK T02100110 IEM_DS3505
ZBYN,2004-09-11 05:00,ZBYN 110500Z AUTO 5SM 22/11 A3012 RMK T02200110 IEM_DS3505
ZBYN,2004-09-11 06:00,ZBYN 110600Z AUTO 11006KT 5SM 24/12 A3009 RMK SLP173 T02450125 57024 IEM_DS3505
ZBYN,2004-09-11 07:00,ZBYN 110700Z AUTO 7SM 23/08 A3009 RMK T02300080 IEM_DS3505
ZBYN,2004-09-11 08:00,ZBYN 110800Z AUTO 11004KT 6SM 24/08 A3006 RMK T02400080 IEM_DS3505
ZBYN,2004-09-11 09:00,ZBYN 110900Z AUTO 18002KT 6SM 25/11 A3003 RMK SLP153 T02470113 57018 IEM_DS3505
ZBYN,2004-09-11 10:00,ZBYN 111000Z AUTO 08010KT 7SM 22/11 A3003 RMK T02200110 IEM_DS3505
ZBYN,2004-09-11 11:00,ZBYN 111100Z AUTO 06008KT 7SM 20/12 A3006 RMK T02000120 IEM_DS3505
ZBYN,2004-09-11 12:00,ZBYN 111200Z AUTO 09014KT 6SM 20/14 A3006 RMK SLP169 T02040136 52008 IEM_DS3505
ZBYN,2004-09-11 13:00,ZBYN 111300Z AUTO 07010KT 6SM 18/12 A3009 RMK T01800120 IEM_DS3505
ZBYN,2004-09-11 14:00,ZBYN 111400Z AUTO 08014KT 6SM 18/12 A3012 RMK T01800120 IEM_DS3505
ZBYN,2004-09-11 15:00,ZBYN 111500Z AUTO 09008KT 6SM 19/13 A3012 RMK SLP184 T01890129 52019 IEM_DS3505
ZBYN,2004-09-11 16:00,ZBYN 111600Z AUTO 07006KT 6SM 17/12 A3012 RMK T01700120 IEM_DS3505
ZBYN,2004-09-11 17:00,ZBYN 111700Z AUTO 07006KT 5SM 16/12 A3012 RMK T01600120 IEM_DS3505
ZBYN,2004-09-11 18:00,ZBYN 111800Z AUTO 32004KT 6SM 16/13 A3009 RMK SLP177 T01610132 57007 IEM_DS3505
ZBYN,2004-09-11 19:00,ZBYN 111900Z AUTO 09004KT 4SM 16/12 A3009 RMK T01600120 IEM_DS3505
ZBYN,2004-09-11 20:00,ZBYN 112000Z AUTO 00000KT 4SM 14/11 A3009 RMK T01400110 IEM_DS3505
ZBYN,2004-09-11 21:00,ZBYN 112100Z AUTO 32002KT 6SM 15/13 A3009 RMK SLP178 T01490128 54000 IEM_DS3505
ZBYN,2004-09-11 22:00,ZBYN 112200Z AUTO 00000KT 2SM 11/10 A3012 RMK T01100100 IEM_DS3505
ZBYN,2004-09-11 23:00,ZBYN 112300Z AUTO 00000KT 1SM 12/11 A3012 RMK T01200110 IEM_DS3505
ZBYN,2004-09-12 00:00,ZBYN 120000Z AUTO 11002KT 5SM 16/15 A3012 RMK SLP190 T01570149 52006 IEM_DS3505
ZBYN,2004-09-12 01:00,ZBYN 120100Z AUTO 00000KT 1 1/4SM 16/12 A3012 RMK T01600120 IEM_DS3505
ZBYN,2004-09-12 02:00,ZBYN 120200Z AUTO 00000KT 1 1/4SM 18/12 A3012 RMK T01800120 IEM_DS3505
ZBYN,2004-09-12 03:00,ZBYN 120300Z AUTO 16002KT 4SM 21/13 A3012 RMK SLP183 T02130127 57001 IEM_DS3505
ZBYN,2004-09-12 04:00,ZBYN 120400Z AUTO 3SM 21/11 A3009 RMK T02100110 IEM_DS3505
ZBYN,2004-09-12 05:00,ZBYN 120500Z AUTO 5SM 23/11 A3009 RMK T02300110 IEM_DS3505
ZBYN,2004-09-12 06:00,ZBYN 120600Z AUTO 18006KT 4SM 25/12 A3006 RMK SLP160 T02470117 57020 IEM_DS3505
ZBYN,2004-09-12 07:00,ZBYN 120700Z AUTO 20004KT 6SM 24/06 A3006 RMK T02400060 IEM_DS3505
ZBYN,2004-09-12 08:00,ZBYN 120800Z AUTO 18002KT 6SM 24/05 A3003 RMK T02400050 IEM_DS3505
ZBYN,2004-09-12 09:00,ZBYN 120900Z AUTO 22004KT 4SM 25/10 A3003 RMK SLP149 T02510098 57011 IEM_DS3505
ZBYN,2004-09-12 10:00,ZBYN 121000Z AUTO 00000KT 6SM 22/10 A3003 RMK T02200100 IEM_DS3505
ZBYN,2004-09-12 11:00,ZBYN 121100Z AUTO 00000KT 6SM 18/11 A3006 RMK T01800110 IEM_DS3505
ZBYN,2004-09-12 12:00,ZBYN 121200Z AUTO 29002KT 3SM 18/13 A3006 RMK SLP176 T01760129 52015 IEM_DS3505
ZBYN,2004-09-12 13:00,ZBYN 121300Z AUTO 08004KT 6SM 18/09 A3009 RMK T01800090 IEM_DS3505
ZBYN,2004-09-12 14:00,ZBYN 121400Z AUTO 11006KT 6SM 16/10 A3009 RMK T01600100 IEM_DS3505
ZBYN,2004-09-12 15:00,ZBYN 121500Z AUTO 27002KT 3SM 16/12 A3012 RMK SLP186 T01600122 52015 IEM_DS3505
ZBYN,2004-09-12 16:00,ZBYN 121600Z AUTO 00000KT 6SM 14/10 A3012 RMK T01400100 IEM_DS3505
ZBYN,2004-09-12 17:00,ZBYN 121700Z AUTO 00000KT 6SM 12/10 A3012 RMK T01200100 IEM_DS3505
ZBYN,2004-09-12 18:00,ZBYN 121800Z AUTO 00000KT 2 1/2SM 16/12 A3009 RMK SLP176 T01550119 57005 IEM_DS3505
ZBYN,2004-09-12 19:00,ZBYN 121900Z AUTO 00000KT 4SM 12/10 A3009 RMK T01200100 IEM_DS3505
ZBYN,2004-09-12 20:00,ZBYN 122000Z AUTO 00000KT 2 1/2SM 12/10 A3009 RMK T01200100 IEM_DS3505
ZBYN,2004-09-12 21:00,ZBYN 122100Z AUTO 34002KT 2 1/2SM 15/12 RMK SLP171 T01470117 57005 IEM_DS3505
ZBYN,2004-09-12 22:00,ZBYN 122200Z AUTO 00000KT 1 1/4SM 13/10 A3009 RMK T01300100 IEM_DS3505
ZBYN,2004-09-12 23:00,ZBYN 122300Z AUTO 00000KT 1 1/4SM 13/11 A3012 RMK T01300110 IEM_DS3505
ZBYN,2004-09-13 00:00,ZBYN 130000Z AUTO 16002KT 5SM 14/11 A3012 RMK SLP175 T01420110 52003 IEM_DS3505
ZBYN,2004-09-13 01:00,ZBYN 130100Z AUTO 00000KT 1 1/4SM 16/11 A3012 RMK T01600110 IEM_DS3505
ZBYN,2004-09-13 02:00,ZBYN 130200Z AUTO 00000KT 2SM 18/11 A3012 RMK T01800110 IEM_DS3505
ZBYN,2004-09-13 03:00,ZBYN 130300Z AUTO 14006KT 4SM 21/10 A3009 RMK SLP159 T02100096 57009 IEM_DS3505
ZBYN,2004-09-13 04:00,ZBYN 130400Z AUTO 3SM 22/10 A3006 RMK T02200100 IEM_DS3505
ZBYN,2004-09-13 05:00,ZBYN 130500Z AUTO 03002KT 5SM 22/08 A3006 RMK T02200080 IEM_DS3505
ZBYN,2004-09-13 06:00,ZBYN 130600Z AUTO 18008KT 6SM 25/06 A3003 RMK SLP125 T02490062 57028 IEM_DS3505
ZBYN,2004-09-13 07:00,ZBYN 130700Z AUTO 00000KT 21/11 A3003 RMK T02100110 IEM_DS3505
ZBYN,2004-09-13 08:00,ZBYN 130800Z AUTO 20002KT 21/11 A3003 RMK T02100110 IEM_DS3505
ZBYN,2004-09-13 09:00,ZBYN 130900Z AUTO 20004KT 9SM 26/06 A3003 RMK SLP117 T02560058 57009 IEM_DS3505
ZBYN,2004-09-13 10:00,ZBYN 131000Z AUTO 00000KT 2SM 19/12 A3003 RMK T01900120 IEM_DS3505
ZBYN,2004-09-13 11:00,ZBYN 131100Z AUTO 00000KT 2SM 18/12 A3003 RMK T01800120 IEM_DS3505
ZBYN,2004-09-13 12:00,ZBYN 131200Z AUTO 14004KT 4SM 18/14 A3003 RMK SLP164 T01820141 52006 IEM_DS3505
ZBYN,2004-09-13 13:00,ZBYN 131300Z AUTO 10002KT 2SM 17/13 A3006 RMK T01700130 IEM_DS3505
ZBYN,2004-09-13 14:00,ZBYN 131400Z AUTO 10004KT 2SM 17/12 A3006 RMK T01700120 IEM_DS3505
ZBYN,2004-09-13 15:00,ZBYN 131500Z AUTO 14006KT 4SM 16/12 A3009 RMK SLP171 T01630119 52010 IEM_DS3505
ZBYN,2004-09-13 16:00,ZBYN 131600Z AUTO 18002KT 4SM 14/10 A3009 RMK T01400100 IEM_DS3505
ZBYN,2004-09-13 17:00,ZBYN 131700Z AUTO 12006KT 2 1/2SM 12/11 A3009 RMK T01200110 IEM_DS3505
ZBYN,2004-09-13 18:00,ZBYN 131800Z AUTO 34002KT 4SM 13/12 A3009 RMK 60008 SLP175 T01330122 52002 IEM_DS3505
ZBYN,2004-09-13 19:00,ZBYN 131900Z AUTO 30006KT 4SM 12/10 A3006 RMK T01200100 IEM_DS3505
ZBYN,2004-09-13 20:00,ZBYN 132000Z AUTO 00000KT 7SM 11/10 A3006 RMK T01100100 IEM_DS3505
ZBYN,2004-09-13 21:00,ZBYN 132100Z AUTO 04002KT 4SM 12/12 A3003 RMK 70015 SLP164 T01240124 57014 IEM_DS3505
ZBYN,2004-09-13 22:00,ZBYN 132200Z AUTO 00000KT 7SM 12/10 A3003 RMK T01200100 IEM_DS3505
ZBYN,2004-09-13 23:00,ZBYN 132300Z AUTO 00000KT 3SM 12/10 A3003 RMK T01200100 IEM_DS3505
ZBYN,2004-09-14 00:00,ZBYN 140000Z AUTO 29002KT 2 1/2SM 13/13 A3003 RMK 60008 70015 SLP165 T01330127 57002 IEM_DS3505
ZBYN,2004-09-14 01:00,ZBYN 140100Z AUTO 36002KT 2 1/2SM 12/10 A3003 RMK T01200100 IEM_DS3505
ZBYN,2004-09-14 02:00,ZBYN 140200Z AUTO 33004KT 3SM 13/11 A3003 RMK T01300110 IEM_DS3505
ZBYN,2004-09-14 03:00,ZBYN 140300Z AUTO 04004KT 4SM 15/13 A3000 RMK SLP155 T01510130 57009 IEM_DS3505
ZBYN,2004-09-14 05:00,ZBYN 140500Z AUTO 33004KT 7SM 15/10 A2997 RMK T01500100 IEM_DS3505
ZBYN,2004-09-14 06:00,ZBYN 140600Z AUTO 32004KT 5SM 16/12 A2994 RMK 60004 SLP139 T01650119 57017 IEM_DS3505
ZBYN,2004-09-14 07:00,ZBYN 140700Z AUTO 35004KT 7SM 15/11 A2994 RMK T01500110 IEM_DS3505
ZBYN,2004-09-14 08:00,ZBYN 140800Z AUTO 08006KT 7SM 14/09 A2991 RMK T01400090 IEM_DS3505
ZBYN,2004-09-14 09:00,ZBYN 140900Z AUTO 36002KT 7SM 16/12 A2991 RMK SLP128 T01630117 57012 IEM_DS3505
ZBYN,2004-09-14 10:00,ZBYN 141000Z AUTO 05004KT 7SM 15/10 A2991 RMK T01500100 IEM_DS3505
ZBYN,2004-09-14 11:00,ZBYN 141100Z AUTO 07004KT 7SM 14/10 A2991 RMK T01400100 IEM_DS3505
ZBYN,2004-09-14 12:00,ZBYN 141200Z AUTO 04004KT 6SM 15/11 A2991 RMK 60000 SLP130 T01470109 52001 IEM_DS3505
ZBYN,2004-09-14 13:00,ZBYN 141300Z AUTO 01002KT 7SM 13/09 A2994 RMK T01300090 IEM_DS3505
ZBYN,2004-09-14 14:00,ZBYN 141400Z AUTO 00000KT 6SM 13/10 A2991 RMK T01300100 IEM_DS3505
ZBYN,2004-09-14 15:00,ZBYN 141500Z AUTO 34002KT 6SM 14/11 A2991 RMK SLP130 T01360111 52001 IEM_DS3505
ZBYN,2004-09-14 16:00,ZBYN 141600Z AUTO 00000KT 4SM 10/09 A2988 RMK T01000090 IEM_DS3505
ZBYN,2004-09-14 17:00,ZBYN 141700Z AUTO 00000KT 4SM 09/08 A2988 RMK T00900080 IEM_DS3505
ZBYN,2004-09-14 18:00,ZBYN 141800Z AUTO 14002KT 5SM 11/11 A2985 RMK SLP112 T01110111 57018 IEM_DS3505
ZBYN,2004-09-14 19:00,ZBYN 141900Z AUTO 00000KT 1SM 08/08 A2983 RMK T00800080 IEM_DS3505
ZBYN,2004-09-14 20:00,ZBYN 142000Z AUTO 00000KT 2 1/2SM 08/07 A2983 RMK T00800070 IEM_DS3505
ZBYN,2004-09-14 21:00,ZBYN 142100Z AUTO 14004KT 4SM 10/10 A2983 RMK 70006 SLP099 T01040104 57013 IEM_DS3505
ZBYN,2004-09-14 22:00,ZBYN 142200Z AUTO 13002KT 1SM 09/09 A2980 RMK T00900090 IEM_DS3505
ZBYN,2004-09-14 23:00,ZBYN 142300Z AUTO 13004KT 1/4SM 09/09 A2980 RMK T00900090 IEM_DS3505
ZBYN,2004-09-15 00:00,ZBYN 150000Z AUTO 14002KT 2SM 11/11 A2983 RMK 70005 SLP103 T01110111 52002 IEM_DS3505
ZBYN,2004-09-15 01:00,ZBYN 150100Z AUTO 14004KT 1SM 11/10 A2983 RMK T01100100 IEM_DS3505
ZBYN,2004-09-15 02:00,ZBYN 150200Z AUTO 17002KT 1SM 13/11 A2983 RMK T01300110 IEM_DS3505
ZBYN,2004-09-15 03:00,ZBYN 150300Z AUTO 20006KT 2SM 17/12 A2983 RMK SLP093 T01690118 57002 IEM_DS3505
ZBYN,2004-09-15 04:00,ZBYN 150400Z AUTO 24006KT 2 1/2SM 16/10 A2983 RMK T01600100 IEM_DS3505
ZBYN,2004-09-15 05:00,ZBYN 150500Z AUTO 22004KT 3SM 16/10 A2980 RMK T01600100 IEM_DS3505
ZBYN,2004-09-15 06:00,ZBYN 150600Z AUTO 16004KT 3SM 20/13 A2977 RMK SLP075 T02000128 57015 IEM_DS3505
ZBYN,2004-09-15 07:00,ZBYN 150700Z AUTO 19004KT 5SM 20/10 A2977 RMK T02000100 IEM_DS3505
ZBYN,2004-09-15 08:00,ZBYN 150800Z AUTO 24004KT 6SM 20/10 A2974 RMK T02000100 IEM_DS3505
ZBYN,2004-09-15 09:00,ZBYN 150900Z AUTO 16004KT 7SM 22/13 A2974 RMK SLP063 T02170134 57010 IEM_DS3505
ZBYN,2004-09-15 10:00,ZBYN 151000Z AUTO 09004KT 7SM 20/12 A2974 RMK T02000120 IEM_DS3505
ZBYN,2004-09-15 11:00,ZBYN 151100Z AUTO 6SM 18/12 A2977 RMK T01800120 IEM_DS3505
ZBYN,2004-09-15 12:00,ZBYN 151200Z AUTO 11002KT 7SM 16/13 A2980 RMK SLP087 T01620133 52015 IEM_DS3505
ZBYN,2004-09-15 13:00,ZBYN 151300Z AUTO 11004KT 6SM 14/12 A2983 RMK T01400120 IEM_DS3505
ZBYN,2004-09-15 14:00,ZBYN 151400Z AUTO 12004KT 3SM 14/11 A2983 RMK T01400110 IEM_DS3505
ZBYN,2004-09-15 15:00,ZBYN 151500Z AUTO 14002KT 5SM 14/14 A2985 RMK SLP104 T01430141 52021 IEM_DS3505
ZBYN,2004-09-15 16:00,ZBYN 151600Z AUTO 11004KT 2 1/2SM 12/11 A2988 RMK T01200110 IEM_DS3505
ZBYN,2004-09-15 17:00,ZBYN 151700Z AUTO 11004KT 2SM 12/11 A2988 RMK T01200110 IEM_DS3505
ZBYN,2004-09-15 18:00,ZBYN 151800Z AUTO 18002KT 2SM 13/13 RMK SLP114 T01290129 52012 IEM_DS3505
ZBYN,2004-09-15 19:00,ZBYN 151900Z AUTO 00000KT 2SM 11/10 A2988 RMK T01100100 IEM_DS3505
ZBYN,2004-09-15 20:00,ZBYN 152000Z AUTO 11002KT 1 1/4SM 11/10 A2991 RMK T01100100 IEM_DS3505
ZBYN,2004-09-15 21:00,ZBYN 152100Z AUTO 00000KT 2SM 12/12 A2994 RMK SLP129 T01160116 52014 IEM_DS3505
ZBYN,2004-09-15 22:00,ZBYN 152200Z AUTO 00000KT 2SM 10/09 A2994 RMK T01000090 IEM_DS3505
ZBYN,2004-09-15 23:00,ZBYN 152300Z AUTO 00000KT 2SM 11/10 A2994 RMK T01100100 IEM_DS3505
ZBYN,2004-09-16 00:00,ZBYN 160000Z AUTO 32004KT 2SM 14/14 A2997 RMK SLP152 T01450145 52017 IEM_DS3505
ZBYN,2004-09-16 01:00,ZBYN 160100Z AUTO 00000KT 1SM 16/12 A3000 RMK T01600120 IEM_DS3505
ZBYN,2004-09-16 02:00,ZBYN 160200Z AUTO 00000KT 1SM 17/12 A3000 RMK T01700120 IEM_DS3505
ZBYN,2004-09-16 03:00,ZBYN 160300Z AUTO 16002KT 3SM 21/14 A2997 RMK SLP143 T02060143 57002 IEM_DS3505
ZBYN,2004-09-16 04:00,ZBYN 160400Z AUTO 15004KT 5SM 21/11 A2997 RMK T02100110 IEM_DS3505
ZBYN,2004-09-16 05:00,ZBYN 160500Z AUTO 6SM 24/11 A2994 RMK T02400110 IEM_DS3505
ZBYN,2004-09-16 06:00,ZBYN 160600Z AUTO 16004KT 5SM 26/13 A2991 RMK SLP116 T02610126 57019 IEM_DS3505
ZBYN,2004-09-16 07:00,ZBYN 160700Z AUTO 6SM 26/08 A2991 RMK T02600080 IEM_DS3505
ZBYN,2004-09-16 08:00,ZBYN 160800Z AUTO 23004KT 6SM 26/08 A2988 RMK T02600080 IEM_DS3505
ZBYN,2004-09-16 09:00,ZBYN 160900Z AUTO 20002KT 6SM 25/13 A2991 RMK SLP110 T02520134 57008 IEM_DS3505
ZBYN,2004-09-16 10:00,ZBYN 161000Z AUTO 14002KT 6SM 22/12 A2991 RMK T02200120 IEM_DS3505
ZBYN,2004-09-16 11:00,ZBYN 161100Z AUTO 00000KT 6SM 20/14 A2994 RMK T02000140 IEM_DS3505
ZBYN,2004-09-16 12:00,ZBYN 161200Z AUTO 32004KT 6SM 22/15 A2994 RMK SLP128 T02150151 52015 IEM_DS3505
ZBYN,2004-09-16 13:00,ZBYN 161300Z AUTO 00000KT 6SM 18/15 A2997 RMK T01800150 IEM_DS3505
ZBYN,2004-09-16 14:00,ZBYN 161400Z AUTO 34008KT 6SM 20/11 A2997 RMK T02000110 IEM_DS3505
ZBYN,2004-09-16 15:00,ZBYN 161500Z AUTO 32008KT 6SM 18/14 A3000 RMK SLP147 T01800139 52021 IEM_DS3505
ZBYN,2004-09-16 16:00,ZBYN 161600Z AUTO 33012KT 7SM 16/13 A3003 RMK T01600130 IEM_DS3505
ZBYN,2004-09-16 17:00,ZBYN 161700Z AUTO 30006KT 7SM 15/13 A3003 RMK T01500130 IEM_DS3505
ZBYN,2004-09-16 18:00,ZBYN 161800Z AUTO 34002KT 5SM 16/16 A3006 RMK 60020 SLP156 T01590157 52013 IEM_DS3505
ZBYN,2004-09-16 19:00,ZBYN 161900Z AUTO 00000KT 7SM 14/13 A3003 RMK T01400130 IEM_DS3505
ZBYN,2004-09-16 20:00,ZBYN 162000Z AUTO 00000KT 5SM 14/13 A3003 RMK T01400130 IEM_DS3505
ZBYN,2004-09-16 21:00,ZBYN 162100Z AUTO 27002KT 2 1/2SM 15/15 A3003 RMK 70024 SLP154 T01540154 57004 IEM_DS3505
ZBYN,2004-09-16 22:00,ZBYN 162200Z AUTO 00000KT 2 1/2SM 14/13 A3003 RMK T01400130 IEM_DS3505
ZBYN,2004-09-16 23:00,ZBYN 162300Z AUTO 00000KT 1SM 14/13 A3003 RMK T01400130 IEM_DS3505
ZBYN,2004-09-17 00:00,ZBYN 170000Z AUTO 16002KT 1SM 15/15 A3006 RMK 60004 70024 SLP168 T01540154 52008 IEM_DS3505
ZBYN,2004-09-17 01:00,ZBYN 170100Z AUTO 00000KT 1SM 14/14 A3009 RMK T01400140 IEM_DS3505
ZBYN,2004-09-17 02:00,ZBYN 170200Z AUTO 00000KT 1SM 15/14 A3009 RMK T01500140 IEM_DS3505
ZBYN,2004-09-17 03:00,ZBYN 170300Z AUTO 00000KT 1SM 17/17 A3009 RMK SLP185 T01700170 52013 IEM_DS3505
ZBYN,2004-09-17 04:00,ZBYN 170400Z AUTO 09002KT 6SM 20/09 RMK T02000090 IEM_DS3505
ZBYN,2004-09-17 05:00,ZBYN 170500Z AUTO 34004KT 6SM 16/11 A3006 RMK T01600110 IEM_DS3505
ZBYN,2004-09-17 06:00,ZBYN 170600Z AUTO 32004KT 6SM 17/10 A3006 RMK 60001 SLP179 T01710103 57009 IEM_DS3505
ZBYN,2004-09-17 07:00,ZBYN 170700Z AUTO 23002KT 7SM 15/10 A3009 RMK T01500100 IEM_DS3505
ZBYN,2004-09-17 09:00,ZBYN 170900Z AUTO 16002KT 5SM 16/14 A3009 RMK SLP186 T01590139 52004 IEM_DS3505
ZBYN,2004-09-17 10:00,ZBYN 171000Z AUTO 00000KT 4SM 14/11 A3009 RMK T01400110 IEM_DS3505
ZBYN,2004-09-17 11:00,ZBYN 171100Z AUTO 00000KT 3SM 13/12 A3009 RMK T01300120 IEM_DS3505
ZBYN,2004-09-17 12:00,ZBYN 171200Z AUTO 11004KT 5SM 15/14 A3012 RMK 60001 SLP199 T01460144 52010 IEM_DS3505
ZBYN,2004-09-17 13:00,ZBYN 171300Z AUTO 13002KT 4SM 14/12 A3012 RMK T01400120 IEM_DS3505
ZBYN,2004-09-17 14:00,ZBYN 171400Z AUTO 00000KT 3SM 14/12 A3015 RMK T01400120 IEM_DS3505
ZBYN,2004-09-17 15:00,ZBYN 171500Z AUTO 14002KT 5SM 15/14 A3015 RMK SLP205 T01460144 52008 IEM_DS3505
ZBYN,2004-09-17 16:00,ZBYN 171600Z AUTO 00000KT 2SM 13/11 A3015 RMK T01300110 IEM_DS3505
ZBYN,2004-09-17 17:00,ZBYN 171700Z AUTO 00000KT 1SM 12/11 A3015 RMK T01200110 IEM_DS3505
ZBYN,2004-09-17 18:00,ZBYN 171800Z AUTO 20002KT 2SM 12/12 A3015 RMK SLP211 T01210121 52002 IEM_DS3505
ZBYN,2004-09-17 19:00,ZBYN 171900Z AUTO 00000KT 2SM 10/09 A3015 RMK T01000090 IEM_DS3505
ZBYN,2004-09-17 20:00,ZBYN 172000Z AUTO 00000KT 1 1/4SM 09/09 A3015 RMK T00900090 IEM_DS3505
ZBYN,2004-09-17 21:00,ZBYN 172100Z AUTO 32002KT 2 1/2SM 10/10 A3015 RMK 70002 SLP223 T00960096 52005 IEM_DS3505
ZBYN,2004-09-17 22:00,ZBYN 172200Z AUTO 00000KT 1/8SM 10/09 A3015 RMK T01000090 IEM_DS3505
ZBYN,2004-09-17 23:00,ZBYN 172300Z AUTO 00000KT 1/8SM 09/09 A3018 RMK T00900090 IEM_DS3505
ZBYN,2004-09-18 00:00,ZBYN 180000Z AUTO 00000KT 3/8SM 10/09 A3021 RMK T01000090 IEM_DS3505
ZBYN,2004-09-18 01:00,ZBYN 180100Z AUTO 00000KT 1SM 12/11 A3021 RMK T01200110 IEM_DS3505
ZBYN,2004-09-18 02:00,ZBYN 180200Z AUTO 1 1/2SM 14/10 A3021 RMK T01400100 IEM_DS3505
ZBYN,2004-09-18 03:00,ZBYN 180300Z AUTO 20004KT 2 1/2SM 17/12 A3018 RMK SLP214 T01680117 57010 IEM_DS3505
ZBYN,2004-09-18 04:00,ZBYN 180400Z AUTO 2SM 17/10 A3015 RMK T01700100 IEM_DS3505
ZBYN,2004-09-18 05:00,ZBYN 180500Z AUTO 19/08 A3012 RMK T01900080 IEM_DS3505
ZBYN,2004-09-18 06:00,ZBYN 180600Z AUTO 6SM 20/00 A3009 RMK T02000000 IEM_DS3505
ZBYN,2004-09-18 07:00,ZBYN 180700Z AUTO 23004KT 6SM 21/01 A3009 RMK T02100010 IEM_DS3505
ZBYN,2004-09-18 09:00,ZBYN 180900Z AUTO 20004KT 6SM 21/01 A3006 RMK T02100010 IEM_DS3505
ZBYN,2004-09-18 10:00,ZBYN 181000Z AUTO 19002KT 6SM 19/04 A3006 RMK T01900040 IEM_DS3505
ZBYN,2004-09-18 11:00,ZBYN 181100Z AUTO 00000KT 6SM 14/09 A3006 RMK T01400090 IEM_DS3505
ZBYN,2004-09-18 12:00,ZBYN 181200Z AUTO 09002KT 6SM 12/08 A3006 RMK T01200080 IEM_DS3505
ZBYN,2004-09-18 13:00,ZBYN 181300Z AUTO 11002KT 6SM 10/07 A3009 RMK T01000070 IEM_DS3505
ZBYN,2004-09-18 15:00,ZBYN 181500Z AUTO 18002KT 4SM 12/09 A3009 RMK SLP195 T01180092 52011 IEM_DS3505
ZBYN,2004-09-18 16:00,ZBYN 181600Z AUTO 12002KT 6SM 09/06 A3009 RMK T00900060 IEM_DS3505
ZBYN,2004-09-18 17:00,ZBYN 181700Z AUTO 00000KT 6SM 09/06 A3009 RMK T00900060 IEM_DS3505
ZBYN,2004-09-18 18:00,ZBYN 181800Z AUTO 00000KT 4SM 10/10 A3009 RMK SLP189 T01050103 52001 IEM_DS3505
ZBYN,2004-09-18 19:00,ZBYN 181900Z AUTO 00000KT 6SM 09/07 A3009 RMK T00900070 IEM_DS3505
ZBYN,2004-09-18 20:00,ZBYN 182000Z AUTO 00000KT 6SM 10/07 A3009 RMK T01000070 IEM_DS3505
ZBYN,2004-09-18 21:00,ZBYN 182100Z AUTO 14002KT 4SM 11/11 A3009 RMK SLP183 T01060106 57006 IEM_DS3505
ZBYN,2004-09-18 22:00,ZBYN 182200Z AUTO 00000KT 6SM 09/07 A3009 RMK T00900070 IEM_DS3505
ZBYN,2004-09-18 23:00,ZBYN 182300Z AUTO 00000KT 2 1/2SM 09/07 A3009 RMK T00900070 IEM_DS3505
ZBYN,2004-09-19 00:00,ZBYN 190000Z AUTO 34002KT 4SM 13/09 A3009 RMK SLP199 T01330086 52007 IEM_DS3505
ZBYN,2004-09-19 01:00,ZBYN 190100Z AUTO 00000KT 4SM 12/08 A3012 RMK T01200080 IEM_DS3505
ZBYN,2004-09-19 02:00,ZBYN 190200Z AUTO 28002KT 4SM 14/09 A3012 RMK T01400090 IEM_DS3505
ZBYN,2004-09-19 03:00,ZBYN 190300Z AUTO 32002KT 4SM 17/08 A3012 RMK SLP196 T01700082 54000 IEM_DS3505
ZBYN,2004-09-19 04:00,ZBYN 190400Z AUTO 21002KT 3SM 16/08 A3009 RMK T01600080 IEM_DS3505
ZBYN,2004-09-19 05:00,ZBYN 190500Z AUTO 18002KT 3SM 16/08 A3006 RMK T01600080 IEM_DS3505
ZBYN,2004-09-19 06:00,ZBYN 190600Z AUTO 18002KT 4SM 18/10 A3006 RMK SLP178 T01750099 57018 IEM_DS3505
ZBYN,2004-09-19 07:00,ZBYN 190700Z AUTO 17004KT 3SM 16/08 A3003 RMK T01600080 IEM_DS3505
ZBYN,2004-09-19 08:00,ZBYN 190800Z AUTO 17002KT 3SM 16/09 A3003 RMK T01600090 IEM_DS3505
ZBYN,2004-09-19 09:00,ZBYN 190900Z AUTO 16002KT 4SM 17/11 A3003 RMK SLP168 T01660109 57010 IEM_DS3505
ZBYN,2004-09-19 10:00,ZBYN 191000Z AUTO 13002KT 2 1/2SM 14/10 A3003 RMK T01400100 IEM_DS3505
ZBYN,2004-09-19 11:00,ZBYN 191100Z AUTO 11004KT 2SM 13/10 A3003 RMK T01300100 IEM_DS3505
ZBYN,2004-09-19 12:00,ZBYN 191200Z AUTO 09002KT 2 1/2SM 14/12 A3006 RMK SLP180 T01430122 52011 IEM_DS3505
ZBYN,2004-09-19 13:00,ZBYN 191300Z AUTO 12004KT 2SM 12/10 A3006 RMK T01200100 IEM_DS3505
ZBYN,2004-09-19 14:00,ZBYN 191400Z AUTO 00000KT 1 1/4SM 11/10 A3006 RMK T01100100 IEM_DS3505
ZBYN,2004-09-19 15:00,ZBYN 191500Z AUTO 29002KT 1 1/4SM 12/12 A3009 RMK SLP187 T01220122 52009 IEM_DS3505
ZBYN,2004-09-19 16:00,ZBYN 191600Z AUTO 00000KT 1SM 10/09 A3009 RMK T01000090 IEM_DS3505
ZBYN,2004-09-19 17:00,ZBYN 191700Z AUTO 00000KT 1SM 09/08 A3009 RMK T00900080 IEM_DS3505
ZBYN,2004-09-19 18:00,ZBYN 191800Z AUTO 07002KT 1SM 11/11 A3009 RMK SLP190 T01060106 52001 IEM_DS3505
ZBYN,2004-09-19 19:00,ZBYN 191900Z AUTO 00000KT 1SM 10/09 A3009 RMK T01000090 IEM_DS3505
ZBYN,2004-09-19 20:00,ZBYN 192000Z AUTO 00000KT 1/4SM 09/08 A3009 RMK T00900080 IEM_DS3505
ZBYN,2004-09-19 21:00,ZBYN 192100Z AUTO 29002KT 1/2SM 09/09 A3012 RMK SLP202 T00940094 52008 IEM_DS3505
ZBYN,2004-09-19 22:00,ZBYN 192200Z AUTO 13002KT 1 1/4SM 05/04 A3012 RMK T00500040 IEM_DS3505
ZBYN,2004-09-19 23:00,ZBYN 192300Z AUTO 12002KT 1 1/4SM 05/04 A3015 RMK T00500040 IEM_DS3505
ZBYN,2004-09-20 00:00,ZBYN 200000Z AUTO 02006KT 12SM 14/04 A3015 RMK SLP217 T01370038 52017 IEM_DS3505
ZBYN,2004-09-20 01:00,ZBYN 200100Z AUTO 01008KT 6SM 15/M02 A3018 RMK T01501020 IEM_DS3505
ZBYN,2004-09-20 02:00,ZBYN 200200Z AUTO 02010KT 6SM 16/M05 A3021 RMK T01601050 IEM_DS3505
ZBYN,2004-09-20 03:00,ZBYN 200300Z AUTO 04008KT 16SM 17/M01 A3021 RMK SLP229 T01741008 52013 IEM_DS3505
ZBYN,2004-09-20 04:00,ZBYN 200400Z AUTO 01010KT 6SM 18/M04 A3021 RMK T01801040 IEM_DS3505
ZBYN,2004-09-20 05:00,ZBYN 200500Z AUTO 02014KT 6SM 19/M05 A3018 RMK T01901050 IEM_DS3505
ZBYN,2004-09-20 06:00,ZBYN 200600Z AUTO 02004KT 16SM 20/01 A3018 RMK SLP213 T02020012 57013 IEM_DS3505
ZBYN,2004-09-20 07:00,ZBYN 200700Z AUTO 03012KT 6SM 20/M05 A3015 RMK T02001050 IEM_DS3505
ZBYN,2004-09-20 08:00,ZBYN 200800Z AUTO 36008KT 6SM 20/M04 A3015 RMK T02001040 IEM_DS3505
ZBYN,2004-09-20 09:00,ZBYN 200900Z AUTO 02006KT 16SM 20/02 A3015 RMK SLP211 T02000015 57004 IEM_DS3505
ZBYN,2004-09-20 10:00,ZBYN 201000Z AUTO 36004KT 6SM 17/M01 A3018 RMK T01701010 IEM_DS3505
ZBYN,2004-09-20 11:00,ZBYN 201100Z AUTO 33004KT 6SM 13/02 A3018 RMK T01300020 IEM_DS3505
ZBYN,2004-09-20 12:00,ZBYN 201200Z AUTO 29002KT 16SM 15/03 A3021 RMK SLP233 T01490034 52019 IEM_DS3505
ZBYN,2004-09-20 13:00,ZBYN 201300Z AUTO 32004KT 6SM 11/02 A3024 RMK T01100020 IEM_DS3505
ZBYN,2004-09-20 14:00,ZBYN 201400Z AUTO 00000KT 6SM 09/02 A3024 RMK T00900020 IEM_DS3505
ZBYN,2004-09-20 15:00,ZBYN 201500Z AUTO 00000KT 12SM 13/03 A3027 RMK SLP246 T01310029 52015 IEM_DS3505
ZBYN,2004-09-20 16:00,ZBYN 201600Z AUTO 00000KT 6SM A3027 RMK IEM_DS3505
ZBYN,2004-09-20 17:00,ZBYN 201700Z AUTO 11002KT 6SM 04/01 A3027 RMK T00400010 IEM_DS3505
ZBYN,2004-09-20 18:00,ZBYN 201800Z AUTO 16002KT 9SM 09/04 A3027 RMK SLP248 T00860041 57001 IEM_DS3505
ZBYN,2004-09-20 19:00,ZBYN 201900Z AUTO 11002KT 6SM 02/00 A3027 RMK T00200000 IEM_DS3505
ZBYN,2004-09-20 20:00,ZBYN 202000Z AUTO 00000KT 6SM 02/00 A3027 RMK T00200000 IEM_DS3505
ZBYN,2004-09-20 21:00,ZBYN 202100Z AUTO 11002KT 9SM 04/04 A3027 RMK SLP260 T00420039 52004 IEM_DS3505
ZBYN,2004-09-20 22:00,ZBYN 202200Z AUTO 00000KT 6SM 02/M01 A3030 RMK T00201010 IEM_DS3505
ZBYN,2004-09-20 23:00,ZBYN 202300Z AUTO 00000KT 6SM 02/00 A3030 RMK T00200000 IEM_DS3505
ZBYN,2004-09-21 00:00,ZBYN 210000Z AUTO 14002KT 6SM 08/04 A3030 RMK SLP271 T00810036 52008 IEM_DS3505
ZBYN,2004-09-21 01:00,ZBYN 210100Z AUTO 00000KT 6SM 10/01 A3030 RMK T01000010 IEM_DS3505
ZBYN,2004-09-21 02:00,ZBYN 210200Z AUTO 13/01 A3027 RMK T01300010 IEM_DS3505
ZBYN,2004-09-21 03:00,ZBYN 210300Z AUTO 07002KT 9SM 18/M00 A3024 RMK SLP241 T01811002 57015 IEM_DS3505
ZBYN,2004-09-21 04:00,ZBYN 210400Z AUTO 6SM 18/M04 A3021 RMK T01801040 IEM_DS3505
ZBYN,2004-09-21 05:00,ZBYN 210500Z AUTO 6SM 18/M02 A3018 RMK T01801020 IEM_DS3505
ZBYN,2004-09-21 06:00,ZBYN 210600Z AUTO 22004KT 9SM 21/02 A3015 RMK SLP210 T02090018 57031 IEM_DS3505
ZBYN,2004-09-21 07:00,ZBYN 210700Z AUTO 22004KT 6SM 20/M01 A3015 RMK T02001010 IEM_DS3505
ZBYN,2004-09-21 08:00,ZBYN 210800Z AUTO 20004KT 6SM 21/M01 A3012 RMK T02101010 IEM_DS3505
ZBYN,2004-09-21 09:00,ZBYN 210900Z AUTO 18004KT 9SM 21/04 A3012 RMK SLP202 T02120043 57013 IEM_DS3505
ZBYN,2004-09-21 10:00,ZBYN 211000Z AUTO 00000KT 6SM 18/03 A3009 RMK T01800030 IEM_DS3505
ZBYN,2004-09-21 11:00,ZBYN 211100Z AUTO 00000KT 6SM 14/06 A3009 RMK T01400060 IEM_DS3505
ZBYN,2004-09-21 12:00,ZBYN 211200Z AUTO 00000KT 7SM 13/09 A3012 RMK SLP213 T01280087 52003 IEM_DS3505
ZBYN,2004-09-21 13:00,ZBYN 211300Z AUTO 12004KT 6SM 09/05 A3012 RMK T00900050 IEM_DS3505
ZBYN,2004-09-21 14:00,ZBYN 211400Z AUTO 11004KT 6SM 09/04 A3015 RMK T00900040 IEM_DS3505
ZBYN,2004-09-21 15:00,ZBYN 211500Z AUTO 16002KT 6SM 10/08 A3015 RMK SLP208 T00990080 52006 IEM_DS3505
ZBYN,2004-09-21 18:00,ZBYN 211800Z AUTO 00000KT 6SM 08/08 A3012 RMK SLP198 T00800079 57007 IEM_DS3505
ZBYN,2004-09-21 19:00,ZBYN 211900Z AUTO 00000KT 6SM 06/04 A3009 RMK T00600040 IEM_DS3505
ZBYN,2004-09-21 20:00,ZBYN 212000Z AUTO 00000KT 6SM 06/03 A3009 RMK T00600030 IEM_DS3505
ZBYN,2004-09-21 21:00,ZBYN 212100Z AUTO 14002KT 6SM 07/07 A3012 RMK SLP199 T00690069 57001 IEM_DS3505
ZBYN,2004-09-21 22:00,ZBYN 212200Z AUTO 00000KT 6SM 05/03 A3012 RMK T00500030 IEM_DS3505
ZBYN,2004-09-21 23:00,ZBYN 212300Z AUTO 00000KT 4SM 05/03 A3012 RMK T00500030 IEM_DS3505
ZBYN,2004-09-22 00:00,ZBYN 220000Z AUTO 11002KT 5SM 09/08 A3015 RMK SLP221 T00890083 52011 IEM_DS3505
ZBYN,2004-09-22 01:00,ZBYN 220100Z AUTO 00000KT 3SM 11/05 A3015 RMK T01100050 IEM_DS3505
ZBYN,2004-09-22 02:00,ZBYN 220200Z AUTO 00000KT 14/06 A3015 RMK T01400060 IEM_DS3505
ZBYN,2004-09-22 03:00,ZBYN 220300Z AUTO 14002KT 4SM 18/06 A3012 RMK SLP199 T01850057 57010 IEM_DS3505
ZBYN,2004-09-22 04:00,ZBYN 220400Z AUTO 5SM 19/04 A3009 RMK T01900040 IEM_DS3505
ZBYN,2004-09-22 06:00,ZBYN 220600Z AUTO 16004KT 5SM 23/03 A3003 RMK SLP162 T02320027 57030 IEM_DS3505
ZBYN,2004-09-22 07:00,ZBYN 220700Z AUTO 33002KT 6SM 23/00 A3000 RMK T02300000 IEM_DS3505
ZBYN,2004-09-22 08:00,ZBYN 220800Z AUTO 6SM 23/M01 A3000 RMK T02301010 IEM_DS3505
ZBYN,2004-09-22 09:00,ZBYN 220900Z AUTO 22004KT 6SM 23/05 A3000 RMK SLP153 T02310051 57010 IEM_DS3505
ZBYN,2004-09-22 10:00,ZBYN 221000Z AUTO 00000KT 6SM 20/03 A3000 RMK T02000030 IEM_DS3505
ZBYN,2004-09-22 11:00,ZBYN 221100Z AUTO 00000KT 6SM 14/08 A3000 RMK T01400080 IEM_DS3505
ZBYN,2004-09-22 12:00,ZBYN 221200Z AUTO 09002KT 6SM 13/09 A3003 RMK SLP175 T01340089 52009 IEM_DS3505
ZBYN,2004-09-22 13:00,ZBYN 221300Z AUTO 11004KT 6SM 10/06 A3003 RMK T01000060 IEM_DS3505
ZBYN,2004-09-22 14:00,ZBYN 221400Z AUTO 12004KT 6SM 09/05 A3003 RMK T00900050 IEM_DS3505
ZBYN,2004-09-22 15:00,ZBYN 221500Z AUTO 29002KT 5SM 11/08 A3003 RMK SLP174 T01100081 52010 IEM_DS3505
ZBYN,2004-09-22 16:00,ZBYN 221600Z AUTO 00000KT 6SM 08/05 A3006 RMK T00800050 IEM_DS3505
ZBYN,2004-09-22 17:00,ZBYN 221700Z AUTO 00000KT 6SM 06/04 A3006 RMK T00600040 IEM_DS3505
ZBYN,2004-09-22 18:00,ZBYN 221800Z AUTO 18002KT 4SM 08/08 A3006 RMK SLP172 T00850081 52001 IEM_DS3505
ZBYN,2004-09-22 19:00,ZBYN 221900Z AUTO 00000KT 6SM 07/04 A3006 RMK T00700040 IEM_DS3505
ZBYN,2004-09-22 20:00,ZBYN 222000Z AUTO 00000KT 6SM 06/04 A3006 RMK T00600040 IEM_DS3505
ZBYN,2004-09-22 21:00,ZBYN 222100Z AUTO 32002KT 4SM 07/07 A3006 RMK SLP179 T00720072 52004 IEM_DS3505
ZBYN,2004-09-22 22:00,ZBYN 222200Z AUTO 00000KT 6SM 04/02 A3009 RMK T00400020 IEM_DS3505
ZBYN,2004-09-22 23:00,ZBYN 222300Z AUTO 00000KT 3SM 04/03 A3009 RMK T00400030 IEM_DS3505
ZBYN,2004-09-23 00:00,ZBYN 230000Z AUTO 00000KT 2SM 08/05 A3009 RMK T00800050 IEM_DS3505
ZBYN,2004-09-23 02:00,ZBYN 230200Z AUTO 15/05 A3009 RMK T01500050 IEM_DS3505
ZBYN,2004-09-23 03:00,ZBYN 230300Z AUTO 02002KT 4SM 19/07 A3009 RMK SLP186 T01910066 57009 IEM_DS3505
ZBYN,2004-09-23 04:00,ZBYN 230400Z AUTO 25004KT 20/04 A3006 RMK T02000040 IEM_DS3505
ZBYN,2004-09-23 05:00,ZBYN 230500Z AUTO 6SM 22/04 A3003 RMK T02200040 IEM_DS3505
ZBYN,2004-09-23 06:00,ZBYN 230600Z AUTO 22002KT 6SM 26/06 A3000 RMK SLP147 T02590055 57029 IEM_DS3505
ZBYN,2004-09-23 07:00,ZBYN 230700Z AUTO 21004KT 6SM 25/02 A2997 RMK T02500020 IEM_DS3505
ZBYN,2004-09-23 08:00,ZBYN 230800Z AUTO 27002KT 6SM 25/03 A2997 RMK T02500030 IEM_DS3505
ZBYN,2004-09-23 09:00,ZBYN 230900Z AUTO 20004KT 6SM 24/09 A3000 RMK SLP150 T02400088 57002 IEM_DS3505
ZBYN,2004-09-23 10:00,ZBYN 231000Z AUTO 00000KT 20/09 A3000 RMK T02000090 IEM_DS3505
ZBYN,2004-09-23 11:00,ZBYN 231100Z AUTO 00000KT 16/09 A3000 RMK T01600090 IEM_DS3505
ZBYN,2004-09-23 12:00,ZBYN 231200Z AUTO 11004KT 6SM 17/11 A3003 RMK SLP175 T01700111 52016 IEM_DS3505
ZBYN,2004-09-23 13:00,ZBYN 231300Z AUTO 09002KT 6SM 14/08 A3003 RMK T01400080 IEM_DS3505
ZBYN,2004-09-23 14:00,ZBYN 231400Z AUTO 24002KT 6SM 14/09 A3006 RMK T01400090 IEM_DS3505
ZBYN,2004-09-23 15:00,ZBYN 231500Z AUTO 27002KT 6SM 15/11 A3006 RMK SLP169 T01500110 52006 IEM_DS3505
ZBYN,2004-09-23 16:00,ZBYN 231600Z AUTO 00000KT 6SM 12/08 A3006 RMK T01200080 IEM_DS3505
ZBYN,2004-09-23 17:00,ZBYN 231700Z AUTO 00000KT 6SM 13/08 A3006 RMK T01300080 IEM_DS3505
ZBYN,2004-09-23 18:00,ZBYN 231800Z AUTO 00000KT 6SM 14/11 A3006 RMK SLP160 T01410111 54000 IEM_DS3505
ZBYN,2004-09-23 19:00,ZBYN 231900Z AUTO 00000KT 6SM 12/08 A3006 RMK T01200080 IEM_DS3505
ZBYN,2004-09-23 20:00,ZBYN 232000Z AUTO 12004KT 6SM 11/08 A3006 RMK T01100080 IEM_DS3505
ZBYN,2004-09-23 21:00,ZBYN 232100Z AUTO 00000KT 6SM 11/08 A3006 RMK T01100080 IEM_DS3505
ZBYN,2004-09-23 22:00,ZBYN 232200Z AUTO 00000KT 6SM 10/08 A3006 RMK T01000080 IEM_DS3505
ZBYN,2004-09-23 23:00,ZBYN 232300Z AUTO 00000KT 4SM 10/08 A3009 RMK T01000080 IEM_DS3505
ZBYN,2004-09-24 00:00,ZBYN 240000Z AUTO 32002KT 5SM 15/12 A3009 RMK SLP188 T01520118 52009 IEM_DS3505
ZBYN,2004-09-24 01:00,ZBYN 240100Z AUTO 00000KT 2 1/2SM 16/09 A3012 RMK T01600090 IEM_DS3505
ZBYN,2004-09-24 02:00,ZBYN 240200Z AUTO 3SM 18/07 A3009 RMK T01800070 IEM_DS3505
ZBYN,2004-09-24 03:00,ZBYN 240300Z AUTO 25004KT 4SM 19/10 A3009 RMK SLP185 T01940096 52001 IEM_DS3505
ZBYN,2004-09-24 04:00,ZBYN 240400Z AUTO 00000KT 5SM 19/07 A3009 RMK T01900070 IEM_DS3505
ZBYN,2004-09-24 05:00,ZBYN 240500Z AUTO 00000KT 5SM 20/06 A3009 RMK T02000060 IEM_DS3505
ZBYN,2004-09-24 06:00,ZBYN 240600Z AUTO 16002KT 4SM 22/08 A3006 RMK SLP171 T02160075 57011 IEM_DS3505
ZBYN,2004-09-24 07:00,ZBYN 240700Z AUTO 18002KT 6SM 21/05 A3006 RMK T02100050 IEM_DS3505
ZBYN,2004-09-24 08:00,ZBYN 240800Z AUTO 00000KT 6SM 21/05 A3006 RMK T02100050 IEM_DS3505
ZBYN,2004-09-24 09:00,ZBYN 240900Z AUTO 25002KT 6SM 21/09 A3006 RMK SLP169 T02070090 57004 IEM_DS3505
ZBYN,2004-09-24 10:00,ZBYN 241000Z AUTO 00000KT 18/09 A3009 RMK T01800090 IEM_DS3505
ZBYN,2004-09-24 11:00,ZBYN 241100Z AUTO 16004KT 5SM 17/09 A3009 RMK T01700090 IEM_DS3505
ZBYN,2004-09-24 12:00,ZBYN 241200Z AUTO 18002KT 5SM 17/12 RMK SLP189 T01710118 52015 IEM_DS3505
ZBYN,2004-09-24 13:00,ZBYN 241300Z AUTO 14004KT 3SM 14/10 A3012 RMK T01400100 IEM_DS3505
ZBYN,2004-09-24 14:00,ZBYN 241400Z AUTO 14002KT 2SM 14/10 A3012 RMK T01400100 IEM_DS3505
ZBYN,2004-09-24 15:00,ZBYN 241500Z AUTO 16002KT 5SM 15/11 A3012 RMK SLP192 T01540112 52007 IEM_DS3505
ZBYN,2004-09-24 16:00,ZBYN 241600Z AUTO 00000KT 1 1/2SM 14/10 A3015 RMK T01400100 IEM_DS3505
ZBYN,2004-09-24 17:00,ZBYN 241700Z AUTO 12002KT 2 1/2SM 12/09 A3015 RMK T01200090 IEM_DS3505
ZBYN,2004-09-24 18:00,ZBYN 241800Z AUTO 07002KT 5SM 14/10 A3015 RMK SLP197 T01390105 52005 IEM_DS3505
ZBYN,2004-09-24 19:00,ZBYN 241900Z AUTO 00000KT 4SM 11/09 A3015 RMK T01100090 IEM_DS3505
ZBYN,2004-09-24 20:00,ZBYN 242000Z AUTO 00000KT 4SM 11/09 A3015 RMK T01100090 IEM_DS3505
ZBYN,2004-09-24 21:00,ZBYN 242100Z AUTO 20002KT 5SM 13/10 RMK SLP200 T01280100 54000 IEM_DS3505
ZBYN,2004-09-24 22:00,ZBYN 242200Z AUTO 00000KT 4SM 11/09 A3015 RMK T01100090 IEM_DS3505
ZBYN,2004-09-24 23:00,ZBYN 242300Z AUTO 00000KT 3SM 10/08 A3018 RMK T01000080 IEM_DS3505
ZBYN,2004-09-25 00:00,ZBYN 250000Z AUTO 11002KT 2 1/2SM 14/11 A3018 RMK SLP220 T01420110 52015 IEM_DS3505
ZBYN,2004-09-25 01:00,ZBYN 250100Z AUTO 00000KT 5SM 15/07 A3018 RMK T01500070 IEM_DS3505
ZBYN,2004-09-25 02:00,ZBYN 250200Z AUTO 6SM 16/07 A3021 RMK T01600070 IEM_DS3505
ZBYN,2004-09-25 03:00,ZBYN 250300Z AUTO 18002KT 5SM 19/08 A3018 RMK SLP209 T01930083 57005 IEM_DS3505
ZBYN,2004-09-25 04:00,ZBYN 250400Z AUTO 6SM 19/06 A3015 RMK T01900060 IEM_DS3505
ZBYN,2004-09-25 05:00,ZBYN 250500Z AUTO 6SM 20/06 A3015 RMK T02000060 IEM_DS3505
ZBYN,2004-09-25 06:00,ZBYN 250600Z AUTO 20004KT 6SM 22/08 A3012 RMK SLP186 T02210075 57019 IEM_DS3505
ZBYN,2004-09-25 07:00,ZBYN 250700Z AUTO 6SM 21/05 A3012 RMK T02100050 IEM_DS3505
ZBYN,2004-09-25 08:00,ZBYN 250800Z AUTO 6SM 21/05 A3012 RMK T02100050 IEM_DS3505
ZBYN,2004-09-25 09:00,ZBYN 250900Z AUTO 20002KT 6SM 22/09 A3012 RMK SLP187 T02190088 57001 IEM_DS3505
ZBYN,2004-09-25 10:00,ZBYN 251000Z AUTO 22002KT 6SM 19/08 A3012 RMK T01900080 IEM_DS3505
ZBYN,2004-09-25 11:00,ZBYN 251100Z AUTO 00000KT 6SM 15/09 A3012 RMK T01500090 IEM_DS3505
ZBYN,2004-09-25 12:00,ZBYN 251200Z AUTO 11004KT 5SM 17/10 A3015 RMK SLP209 T01660102 52014 IEM_DS3505
ZBYN,2004-09-25 13:00,ZBYN 251300Z AUTO 08008KT 6SM 15/08 A3018 RMK T01500080 IEM_DS3505
ZBYN,2004-09-25 14:00,ZBYN 251400Z AUTO 08008KT 6SM 15/07 A3018 RMK T01500070 IEM_DS3505
ZBYN,2004-09-25 15:00,ZBYN 251500Z AUTO 16004KT 5SM 14/10 A3018 RMK SLP216 T01390096 52010 IEM_DS3505
ZBYN,2004-09-25 16:00,ZBYN 251600Z AUTO 13002KT 6SM 12/08 A3018 RMK T01200080 IEM_DS3505
ZBYN,2004-09-25 17:00,ZBYN 251700Z AUTO 10004KT 5SM 11/08 A3018 RMK T01100080 IEM_DS3505
ZBYN,2004-09-25 18:00,ZBYN 251800Z AUTO 00000KT 5SM 12/09 A3018 RMK SLP214 T01150094 57001 IEM_DS3505
ZBYN,2004-09-25 19:00,ZBYN 251900Z AUTO 00000KT 4SM 10/08 A3018 RMK T01000080 IEM_DS3505
ZBYN,2004-09-25 20:00,ZBYN 252000Z AUTO 00000KT 2 1/2SM 09/07 A3018 RMK T00900070 IEM_DS3505
ZBYN,2004-09-25 21:00,ZBYN 252100Z AUTO 14002KT 4SM 10/09 A3018 RMK SLP215 T00990090 57002 IEM_DS3505
ZBYN,2004-09-25 22:00,ZBYN 252200Z AUTO 00000KT 1 1/2SM 08/06 A3018 RMK T00800060 IEM_DS3505
ZBYN,2004-09-25 23:00,ZBYN 252300Z AUTO 00000KT 1 1/4SM 08/06 A3021 RMK T00800060 IEM_DS3505
ZBYN,2004-09-26 00:00,ZBYN 260000Z AUTO 09002KT 4SM 11/10 A3021 RMK SLP232 T01100104 52010 IEM_DS3505
ZBYN,2004-09-26 01:00,ZBYN 260100Z AUTO 11004KT 2SM 12/09 A3021 RMK T01200090 IEM_DS3505
ZBYN,2004-09-26 02:00,ZBYN 260200Z AUTO 1 1/4SM 15/09 A3018 RMK T01500090 IEM_DS3505
ZBYN,2004-09-26 03:00,ZBYN 260300Z AUTO 18004KT 2 1/2SM 18/11 A3018 RMK SLP214 T01800109 57010 IEM_DS3505
ZBYN,2004-09-26 04:00,ZBYN 260400Z AUTO 2 1/2SM 19/09 A3015 RMK T01900090 IEM_DS3505
ZBYN,2004-09-26 05:00,ZBYN 260500Z AUTO 2 1/2SM 21/09 A3012 RMK T02100090 IEM_DS3505
ZBYN,2004-09-26 06:00,ZBYN 260600Z AUTO 16004KT 4SM 24/11 A3009 RMK SLP177 T02400107 57029 IEM_DS3505
ZBYN,2004-09-26 07:00,ZBYN 260700Z AUTO 20004KT 6SM 24/07 A3006 RMK T02400070 IEM_DS3505
ZBYN,2004-09-26 08:00,ZBYN 260800Z AUTO 21004KT 6SM 24/05 A3006 RMK T02400050 IEM_DS3505
ZBYN,2004-09-26 09:00,ZBYN 260900Z AUTO 25004KT 4SM 24/09 A3006 RMK SLP171 T02360089 57008 IEM_DS3505
ZBYN,2004-09-26 10:00,ZBYN 261000Z AUTO 17002KT 6SM 21/08 A3006 RMK T02100080 IEM_DS3505
ZBYN,2004-09-26 11:00,ZBYN 261100Z AUTO 14004KT 5SM 18/09 A3009 RMK T01800090 IEM_DS3505
ZBYN,2004-09-26 12:00,ZBYN 261200Z AUTO 09004KT 6SM 18/12 A3009 RMK SLP190 T01750118 52010 IEM_DS3505
ZBYN,2004-09-26 13:00,ZBYN 261300Z AUTO 12004KT 5SM 14/10 A3012 RMK T01400100 IEM_DS3505
ZBYN,2004-09-26 14:00,ZBYN 261400Z AUTO 12004KT 5SM 13/09 A3012 RMK T01300090 IEM_DS3505
ZBYN,2004-09-26 15:00,ZBYN 261500Z AUTO 11002KT 5SM 14/11 A3012 RMK SLP197 T01410111 52011 IEM_DS3505
ZBYN,2004-09-26 16:00,ZBYN 261600Z AUTO 00000KT 4SM 12/09 A3012 RMK T01200090 IEM_DS3505
ZBYN,2004-09-26 17:00,ZBYN 261700Z AUTO 00000KT 2 1/2SM 12/09 A3012 RMK T01200090 IEM_DS3505
ZBYN,2004-09-26 18:00,ZBYN 261800Z AUTO 07002KT 4SM 14/12 A3012 RMK SLP188 T01360118 54000 IEM_DS3505
ZBYN,2004-09-26 19:00,ZBYN 261900Z AUTO 00000KT 2SM 11/09 A3012 RMK T01100090 IEM_DS3505
ZBYN,2004-09-26 20:00,ZBYN 262000Z AUTO 00000KT 2SM 11/09 A3012 RMK T01100090 IEM_DS3505
ZBYN,2004-09-26 21:00,ZBYN 262100Z AUTO 11002KT 4SM 13/12 A3012 RMK SLP193 T01270116 52003 IEM_DS3505
ZBYN,2004-09-26 22:00,ZBYN 262200Z AUTO 00000KT 1 1/4SM 10/08 A3015 RMK T01000080 IEM_DS3505
ZBYN,2004-09-26 23:00,ZBYN 262300Z AUTO 00000KT 1SM 11/10 A3015 RMK T01100100 IEM_DS3505
ZBYN,2004-09-27 00:00,ZBYN 270000Z AUTO 07002KT 1/2SM 15/13 A3018 RMK SLP214 T01490129 52013 IEM_DS3505
ZBYN,2004-09-27 01:00,ZBYN 270100Z AUTO 11002KT 1SM 16/11 A3018 RMK T01600110 IEM_DS3505
ZBYN,2004-09-27 02:00,ZBYN 270200Z AUTO 00000KT 1SM 17/11 A3018 RMK T01700110 IEM_DS3505
ZBYN,2004-09-27 03:00,ZBYN 270300Z AUTO 20004KT 2SM 20/13 A3015 RMK SLP203 T02040126 57007 IEM_DS3505
ZBYN,2004-09-27 04:00,ZBYN 270400Z AUTO 2 1/2SM 22/09 A3012 RMK T02200090 IEM_DS3505
ZBYN,2004-09-27 04:30,ZBYN 270430Z AUTO 21004KT 23/07 A3009 RMK T02300070 IEM_DS3505
ZBYN,2004-09-27 05:00,ZBYN 270500Z AUTO 18004KT 23/07 A3009 RMK T02300070 IEM_DS3505
ZBYN,2004-09-27 06:00,ZBYN 270600Z AUTO 18004KT 5SM 26/09 A3006 RMK SLP160 T02580092 57032 IEM_DS3505
ZBYN,2004-09-27 07:00,ZBYN 270700Z AUTO 16004KT 6SM 24/05 A3003 RMK T02400050 IEM_DS3505
ZBYN,2004-09-27 08:00,ZBYN 270800Z AUTO 18004KT 6SM 24/05 A3003 RMK T02400050 IEM_DS3505
ZBYN,2004-09-27 09:00,ZBYN 270900Z AUTO 22004KT 6SM 25/08 A3000 RMK SLP145 T02510082 57016 IEM_DS3505
ZBYN,2004-09-27 10:00,ZBYN 271000Z AUTO 19002KT 6SM 21/05 A3000 RMK T02100050 IEM_DS3505
ZBYN,2004-09-27 11:00,ZBYN 271100Z AUTO 00000KT 6SM 18/07 A3003 RMK T01800070 IEM_DS3505
ZBYN,2004-09-27 12:00,ZBYN 271200Z AUTO 04002KT 6SM 16/11 A3003 RMK SLP164 T01630113 52008 IEM_DS3505
ZBYN,2004-09-27 13:00,ZBYN 271300Z AUTO 13004KT 6SM 13/08 A3003 RMK T01300080 IEM_DS3505
ZBYN,2004-09-27 14:00,ZBYN 271400Z AUTO 12002KT 6SM 12/08 A3006 RMK T01200080 IEM_DS3505
ZBYN,2004-09-27 15:00,ZBYN 271500Z AUTO 18002KT 6SM 13/10 A3003 RMK SLP168 T01320102 52007 IEM_DS3505
ZBYN,2004-09-27 16:00,ZBYN 271600Z AUTO 00000KT 6SM 10/07 A3006 RMK T01000070 IEM_DS3505
ZBYN,2004-09-27 17:00,ZBYN 271700Z AUTO 00000KT 6SM 11/08 A3003 RMK T01100080 IEM_DS3505
ZBYN,2004-09-27 18:00,ZBYN 271800Z AUTO 29002KT 6SM 12/10 A3003 RMK SLP159 T01210098 57002 IEM_DS3505
ZBYN,2004-09-27 19:00,ZBYN 271900Z AUTO 00000KT 3SM 10/08 A3003 RMK T01000080 IEM_DS3505
ZBYN,2004-09-27 20:00,ZBYN 272000Z AUTO 00000KT 2 1/2SM 09/07 A3003 RMK T00900070 IEM_DS3505
ZBYN,2004-09-27 21:00,ZBYN 272100Z AUTO 34002KT 6SM 11/07 A3003 RMK SLP156 T01140071 57005 IEM_DS3505
ZBYN,2004-09-27 22:00,ZBYN 272200Z AUTO 00000KT 1 1/4SM 08/07 A3003 RMK T00800070 IEM_DS3505
ZBYN,2004-09-27 23:00,ZBYN 272300Z AUTO 00000KT 1SM 08/07 A3003 RMK T00800070 IEM_DS3505
ZBYN,2004-09-28 00:00,ZBYN 280000Z AUTO 36002KT 5SM 13/06 A3003 RMK SLP173 T01340063 52006 IEM_DS3505
ZBYN,2004-09-28 01:00,ZBYN 280100Z AUTO 00000KT 2SM 14/07 A3003 RMK T01400070 IEM_DS3505
ZBYN,2004-09-28 02:00,ZBYN 280200Z AUTO 31002KT 2SM 17/08 A3003 RMK T01700080 IEM_DS3505
ZBYN,2004-09-28 03:00,ZBYN 280300Z AUTO 14004KT 4SM 21/10 A3003 RMK SLP159 T02060095 57007 IEM_DS3505
ZBYN,2004-09-28 04:00,ZBYN 280400Z AUTO 3SM 22/08 A3000 RMK T02200080 IEM_DS3505
ZBYN,2004-09-28 05:00,ZBYN 280500Z AUTO 23/07 A2997 RMK T02300070 IEM_DS3505
ZBYN,2004-09-28 06:00,ZBYN 280600Z AUTO 20008KT 5SM 26/08 A2994 RMK SLP119 T02600076 57030 IEM_DS3505
ZBYN,2004-09-28 07:00,ZBYN 280700Z AUTO 20004KT 6SM 25/06 A2991 RMK T02500060 IEM_DS3505
ZBYN,2004-09-28 08:00,ZBYN 280800Z AUTO 21004KT 6SM 25/07 A2991 RMK T02500070 IEM_DS3505
ZBYN,2004-09-28 09:00,ZBYN 280900Z AUTO 18006KT 6SM 25/08 A2991 RMK SLP110 T02540084 57010 IEM_DS3505
ZBYN,2004-09-28 10:00,ZBYN 281000Z AUTO 16002KT 6SM 21/09 A2988 RMK T02100090 IEM_DS3505
ZBYN,2004-09-28 11:00,ZBYN 281100Z AUTO 00000KT 6SM 18/10 A2991 RMK T01800100 IEM_DS3505
ZBYN,2004-09-28 12:00,ZBYN 281200Z AUTO 20004KT 6SM 19/12 A2994 RMK SLP130 T01880116 52011 IEM_DS3505
ZBYN,2004-09-28 13:00,ZBYN 281300Z AUTO 12004KT 6SM 14/09 A2994 RMK T01400090 IEM_DS3505
ZBYN,2004-09-28 14:00,ZBYN 281400Z AUTO 09002KT 6SM 14/09 A2997 RMK T01400090 IEM_DS3505
ZBYN,2004-09-28 15:00,ZBYN 281500Z AUTO 18002KT 5SM 15/11 A2997 RMK SLP143 T01480112 52017 IEM_DS3505
ZBYN,2004-09-28 16:00,ZBYN 281600Z AUTO 10004KT 6SM 13/09 A3000 RMK T01300090 IEM_DS3505
ZBYN,2004-09-28 18:00,ZBYN 281800Z AUTO 00000KT 5SM 14/11 A3000 RMK SLP146 T01450109 52010 IEM_DS3505
ZBYN,2004-09-28 19:00,ZBYN 281900Z AUTO 00000KT 2SM 12/10 A3000 RMK T01200100 IEM_DS3505
ZBYN,2004-09-28 20:00,ZBYN 282000Z AUTO 00000KT 2SM 11/09 A3003 RMK T01100090 IEM_DS3505
ZBYN,2004-09-28 21:00,ZBYN 282100Z AUTO 32002KT 4SM 13/11 A3003 RMK SLP154 T01290106 52004 IEM_DS3505
ZBYN,2004-09-28 22:00,ZBYN 282200Z AUTO 00000KT 2SM 10/08 A3003 RMK T01000080 IEM_DS3505
ZBYN,2004-09-28 23:00,ZBYN 282300Z AUTO 00000KT 1SM 09/07 A3006 RMK T00900070 IEM_DS3505
ZBYN,2004-09-29 00:00,ZBYN 290000Z AUTO 32002KT 4SM 15/11 A3006 RMK SLP171 T01500108 52009 IEM_DS3505
ZBYN,2004-09-29 01:00,ZBYN 290100Z AUTO 00000KT 1SM 16/10 A3006 RMK T01600100 IEM_DS3505
ZBYN,2004-09-29 02:00,ZBYN 290200Z AUTO 00000KT 1 1/2SM 19/11 A3003 RMK T01900110 IEM_DS3505
ZBYN,2004-09-29 03:00,ZBYN 290300Z AUTO 36002KT 4SM 22/13 A3006 RMK SLP162 T02160127 57004 IEM_DS3505
ZBYN,2004-09-29 04:00,ZBYN 290400Z AUTO 2SM 22/11 A3003 RMK T02200110 IEM_DS3505
ZBYN,2004-09-29 05:00,ZBYN 290500Z AUTO 18004KT 24/11 A3000 RMK T02400110 IEM_DS3505
ZBYN,2004-09-29 06:00,ZBYN 290600Z AUTO 18006KT 4SM 26/12 A2997 RMK SLP126 T02600125 57027 IEM_DS3505
ZBYN,2004-09-29 07:00,ZBYN 290700Z AUTO 15008KT 6SM 25/08 A2994 RMK T02500080 IEM_DS3505
ZBYN,2004-09-29 08:00,ZBYN 290800Z AUTO 15006KT 6SM 25/09 A2994 RMK T02500090 IEM_DS3505
ZBYN,2004-09-29 09:00,ZBYN 290900Z AUTO 16004KT 4SM 24/13 A2994 RMK SLP121 T02450128 57009 IEM_DS3505
ZBYN,2004-09-29 10:00,ZBYN 291000Z AUTO 16006KT 6SM 22/10 A2994 RMK T02200100 IEM_DS3505
ZBYN,2004-09-29 11:00,ZBYN 291100Z AUTO 15008KT 6SM 21/09 A2997 RMK T02100090 IEM_DS3505
ZBYN,2004-09-29 12:00,ZBYN 291200Z AUTO 18002KT 4SM 21/12 A3000 RMK SLP145 T02070119 52019 IEM_DS3505
ZBYN,2004-09-29 13:00,ZBYN 291300Z AUTO 12004KT 6SM 18/09 A3000 RMK T01800090 IEM_DS3505
ZBYN,2004-09-29 14:00,ZBYN 291400Z AUTO 16004KT 6SM 18/09 A3000 RMK T01800090 IEM_DS3505
ZBYN,2004-09-29 15:00,ZBYN 291500Z AUTO 09002KT 4SM 18/12 A3003 RMK SLP150 T01780120 52010 IEM_DS3505
ZBYN,2004-09-29 16:00,ZBYN 291600Z AUTO 15006KT 6SM 18/07 A3003 RMK T01800070 IEM_DS3505
ZBYN,2004-09-29 17:00,ZBYN 291700Z AUTO 15006KT 6SM 18/07 A3003 RMK T01800070 IEM_DS3505
ZBYN,2004-09-29 18:00,ZBYN 291800Z AUTO 14004KT 5SM 17/10 A3003 RMK SLP150 T01720101 52005 IEM_DS3505
ZBYN,2004-09-29 19:00,ZBYN 291900Z AUTO 13002KT 4SM 14/10 A3003 RMK T01400100 IEM_DS3505
ZBYN,2004-09-29 20:00,ZBYN 292000Z AUTO 12004KT 2 1/2SM 12/11 A3003 RMK T01200110 IEM_DS3505
ZBYN,2004-09-29 21:00,ZBYN 292100Z AUTO 11002KT 2SM 13/13 A3003 RMK 70013 SLP159 T01340128 52001 IEM_DS3505
ZBYN,2004-09-29 22:00,ZBYN 292200Z AUTO 00000KT 1 1/4SM 12/11 A3003 RMK T01200110 IEM_DS3505
ZBYN,2004-09-29 23:00,ZBYN 292300Z AUTO 00000KT 1 1/2SM 12/12 A3003 RMK T01200120 IEM_DS3505
ZBYN,2004-09-30 00:00,ZBYN 300000Z AUTO 16002KT 1SM 14/13 A3003 RMK 60035 70035 SLP165 T01380133 52001 IEM_DS3505
ZBYN,2004-09-30 01:00,ZBYN 300100Z AUTO 00000KT 2 1/2SM 13/12 A3006 RMK T01300120 IEM_DS3505
ZBYN,2004-09-30 02:00,ZBYN 300200Z AUTO 31010KT 7SM 13/10 A3009 RMK T01300100 IEM_DS3505
ZBYN,2004-09-30 03:00,ZBYN 300300Z AUTO 32017KT 9SM 12/08 A3012 RMK SLP204 T01250076 52029 IEM_DS3505
ZBYN,2004-09-30 04:00,ZBYN 300400Z AUTO 31019KT 7SM 10/06 A3018 RMK T01000060 IEM_DS3505
ZBYN,2004-09-30 05:00,ZBYN 300500Z AUTO 31016KT 7SM 12/04 A3021 RMK T01200040 IEM_DS3505
ZBYN,2004-09-30 06:00,ZBYN 300600Z AUTO 32014KT 12SM 12/04 A3021 RMK 60004 SLP235 T01200045 52027 IEM_DS3505
ZBYN,2004-09-30 07:00,ZBYN 300700Z AUTO 31012KT 7SM 13/M01 A3024 RMK T01301010 IEM_DS3505
ZBYN,2004-09-30 08:00,ZBYN 300800Z AUTO 31016KT 7SM 13/M04 A3024 RMK T01301040 IEM_DS3505
ZBYN,2004-09-30 09:00,ZBYN 300900Z AUTO 32012KT 12SM 13/M02 A3027 RMK SLP256 T01311020 52015 IEM_DS3505
ZBYN,2004-09-30 10:00,ZBYN 301000Z AUTO 30010KT 6SM 12/M04 A3030 RMK T01201040 IEM_DS3505
ZBYN,2004-09-30 11:00,ZBYN 301100Z AUTO 30008KT 6SM 11/M04 A3030 RMK T01101040 IEM_DS3505
ZBYN,2004-09-30 12:00,ZBYN 301200Z AUTO 32010KT 11SM 12/M05 A3033 RMK SLP284 T01221052 52025 IEM_DS3505
ZBYN,2004-09-30 13:00,ZBYN 301300Z AUTO 30008KT 6SM 11/M07 A3039 RMK T01101070 IEM_DS3505
ZBYN,2004-09-30 14:00,ZBYN 301400Z AUTO 30010KT 6SM 10/M09 A3039 RMK T01001090 IEM_DS3505
ZBYN,2004-09-30 15:00,ZBYN 301500Z AUTO 32010KT 9SM 10/M09 A3042 RMK SLP311 T01041087 52020 IEM_DS3505
ZBYN,2004-09-30 16:00,ZBYN 301600Z AUTO 30008KT 6SM 08/M09 A3042 RMK T00801090 IEM_DS3505
ZBYN,2004-09-30 17:00,ZBYN 301700Z AUTO 31008KT 6SM 08/M09 A3045 RMK T00801090 IEM_DS3505
ZBYN,2004-09-30 18:00,ZBYN 301800Z AUTO 32010KT 12SM 08/M08 A3045 RMK SLP323 T00851080 52007 IEM_DS3505
ZBYN,2004-09-30 19:00,ZBYN 301900Z AUTO 33006KT 6SM 06/M09 A3045 RMK T00601090 IEM_DS3505
ZBYN,2004-09-30 20:00,ZBYN 302000Z AUTO 32014KT 6SM 06/M10 A3045 RMK T00601100 IEM_DS3505
ZBYN,2004-09-30 21:00,ZBYN 302100Z AUTO 29008KT 12SM 07/M08 A3045 RMK 70027 SLP332 T00681075 52007 IEM_DS3505
ZBYN,2004-09-30 22:00,ZBYN 302200Z AUTO 29006KT 6SM 05/M09 A3045 RMK T00501090 IEM_DS3505
ZBYN,2004-09-30 23:00,ZBYN 302300Z AUTO 27004KT 6SM 05/M09 A3047 RMK T00501090 IEM_DS3505
ZBYN,2004-10-01 00:00,ZBYN 010000Z AUTO 29006KT 16SM 06/M08 A3047 RMK 70005 SLP342 T00611078 52007 IEM_DS3505
ZBYN,2004-10-01 01:00,ZBYN 010100Z AUTO 30010KT 6SM 08/M10 A3047 RMK T00801100 IEM_DS3505
ZBYN,2004-10-01 02:00,ZBYN 010200Z AUTO 30012G23KT 6SM 10/M10 A3047 RMK T01001100 IEM_DS3505
ZBYN,2004-10-01 03:00,ZBYN 010300Z AUTO 32012KT 16SM 12/M09 A3047 RMK SLP333 T01151094 57003 IEM_DS3505
ZBYN,2004-10-01 04:00,ZBYN 010400Z AUTO 31016KT 6SM 12/M11 A3045 RMK T01201110 IEM_DS3505
ZBYN,2004-10-01 05:00,ZBYN 010500Z AUTO 30016KT 6SM 12/M11 A3045 RMK T01201110 IEM_DS3505
ZBYN,2004-10-01 06:00,ZBYN 010600Z AUTO 29014KT 16SM 13/M08 A3042 RMK SLP316 T01301076 57016 IEM_DS3505
ZBYN,2004-10-01 07:00,ZBYN 010700Z AUTO 31016KT 6SM 13/M13 A3042 RMK T01301130 IEM_DS3505
ZBYN,2004-10-01 08:00,ZBYN 010800Z AUTO 32014KT 6SM 12/M11 A3042 RMK T01201110 IEM_DS3505
ZBYN,2004-10-01 09:00,ZBYN 010900Z AUTO 32010KT 16SM 12/M08 A3039 RMK SLP318 T01211083 57002 IEM_DS3505
ZBYN,2004-10-01 10:00,ZBYN 011000Z AUTO 30008KT 6SM 10/M09 A3042 RMK T01001090 IEM_DS3505
ZBYN,2004-10-01 11:00,ZBYN 011100Z AUTO 29006KT 6SM 07/M09 A3042 RMK T00701090 IEM_DS3505
ZBYN,2004-10-01 12:00,ZBYN 011200Z AUTO 27004KT 16SM 08/M05 A3045 RMK SLP333 T00791051 52006 IEM_DS3505
ZBYN,2004-10-01 13:00,ZBYN 011300Z AUTO 27004KT 6SM 06/M08 A3045 RMK T00601080 IEM_DS3505
ZBYN,2004-10-01 14:00,ZBYN 011400Z AUTO 26002KT 6SM 05/M06 A3045 RMK T00501060 IEM_DS3505
ZBYN,2004-10-01 15:00,ZBYN 011500Z AUTO 29002KT 12SM 04/M02 A3045 RMK SLP334 T00411021 52003 IEM_DS3505
ZBYN,2004-10-01 16:00,ZBYN 011600Z AUTO 00000KT 6SM 01/M04 A3045 RMK T00101040 IEM_DS3505
ZBYN,2004-10-01 17:00,ZBYN 011700Z AUTO 00000KT 6SM 00/M04 A3042 RMK T00001040 IEM_DS3505
ZBYN,2004-10-01 18:00,ZBYN 011800Z AUTO 09004KT 9SM 02/M02 A3042 RMK SLP324 T00191022 57010 IEM_DS3505
ZBYN,2004-10-01 19:00,ZBYN 011900Z AUTO 09002KT 6SM M01/M04 A3039 RMK T10101040 IEM_DS3505
ZBYN,2004-10-01 20:00,ZBYN 012000Z AUTO 09002KT 6SM M02/M05 A3039 RMK T10201050 IEM_DS3505
ZBYN,2004-10-01 21:00,ZBYN 012100Z AUTO 16002KT 9SM M01/M03 A3039 RMK SLP321 T10081030 57008 IEM_DS3505
ZBYN,2004-10-01 22:00,ZBYN 012200Z AUTO 10002KT 6SM M03/M05 A3039 RMK T10301050 IEM_DS3505
ZBYN,2004-10-01 23:00,ZBYN 012300Z AUTO 00000KT 6SM M03/M05 A3039 RMK T10301050 IEM_DS3505
ZBYN,2004-10-02 00:00,ZBYN 020000Z AUTO 16002KT 6SM 02/M02 A3042 RMK SLP329 T00241016 52005 IEM_DS3505
ZBYN,2004-10-02 01:00,ZBYN 020100Z AUTO 13004KT 5SM 04/M03 A3042 RMK T00401030 IEM_DS3505
ZBYN,2004-10-02 02:00,ZBYN 020200Z AUTO 15002KT 6SM 07/M05 A3039 RMK T00701050 IEM_DS3505
ZBYN,2004-10-02 03:00,ZBYN 020300Z AUTO 18004KT 5SM 11/M03 A3036 RMK SLP305 T01111030 57014 IEM_DS3505
ZBYN,2004-10-02 04:00,ZBYN 020400Z AUTO 17004KT 6SM 13/M06 A3033 RMK T01301060 IEM_DS3505
ZBYN,2004-10-02 05:00,ZBYN 020500Z AUTO 18006KT 6SM 14/M09 A3030 RMK T01401090 IEM_DS3505
ZBYN,2004-10-02 06:00,ZBYN 020600Z AUTO 18006KT 6SM 16/M05 A3027 RMK SLP262 T01641053 57034 IEM_DS3505
ZBYN,2004-10-02 07:00,ZBYN 020700Z AUTO 20002KT 6SM 16/M11 A3024 RMK T01601110 IEM_DS3505
ZBYN,2004-10-02 08:00,ZBYN 020800Z AUTO 15004KT 6SM 16/M11 A3021 RMK T01601110 IEM_DS3505
ZBYN,2004-10-02 09:00,ZBYN 020900Z AUTO 16006KT 12SM 17/M06 A3021 RMK SLP246 T01711060 57018 IEM_DS3505
ZBYN,2004-10-02 10:00,ZBYN 021000Z AUTO 00000KT 6SM 14/M06 A3021 RMK T01401060 IEM_DS3505
ZBYN,2004-10-02 11:00,ZBYN 021100Z AUTO 02002KT 6SM 11/M04 A3021 RMK T01101040 IEM_DS3505
ZBYN,2004-10-02 12:00,ZBYN 021200Z AUTO 34002KT 12SM 11/M05 A3021 RMK SLP261 T01091051 52009 IEM_DS3505
ZBYN,2004-10-02 13:00,ZBYN 021300Z AUTO 12002KT 6SM 05/M01 A3024 RMK T00501010 IEM_DS3505
ZBYN,2004-10-02 14:00,ZBYN 021400Z AUTO 11004KT 6SM 03/M02 A3024 RMK T00301020 IEM_DS3505
ZBYN,2004-10-02 15:00,ZBYN 021500Z AUTO 14002KT 11SM 05/00 A3027 RMK SLP270 T00470003 52012 IEM_DS3505
ZBYN,2004-10-02 16:00,ZBYN 021600Z AUTO 09002KT 6SM 03/M02 A3027 RMK T00301020 IEM_DS3505
ZBYN,2004-10-02 17:00,ZBYN 021700Z AUTO 10002KT 6SM 01/M02 A3024 RMK T00101020 IEM_DS3505
ZBYN,2004-10-02 18:00,ZBYN 021800Z AUTO 00000KT 9SM 02/M00 A3024 RMK SLP263 T00251001 57001 IEM_DS3505
ZBYN,2004-10-02 19:00,ZBYN 021900Z AUTO 10002KT 6SM 01/M03 A3024 RMK T00101030 IEM_DS3505
ZBYN,2004-10-02 20:00,ZBYN 022000Z AUTO 00000KT 6SM 01/M03 A3024 RMK T00101030 IEM_DS3505
ZBYN,2004-10-02 21:00,ZBYN 022100Z AUTO 00000KT 6SM 01/M00 A3024 RMK SLP262 T00131002 57002 IEM_DS3505
ZBYN,2004-10-02 22:00,ZBYN 022200Z AUTO 13004KT 6SM 00/M03 A3024 RMK T00001030 IEM_DS3505
ZBYN,2004-10-02 23:00,ZBYN 022300Z AUTO 11002KT 6SM 00/M04 A3027 RMK T00001040 IEM_DS3505
ZBYN,2004-10-03 00:00,ZBYN 030000Z AUTO 25002KT 5SM 04/01 A3027 RMK SLP277 T00410006 52008 IEM_DS3505
ZBYN,2004-10-03 01:00,ZBYN 030100Z AUTO 00000KT 6SM 07/M02 A3027 RMK T00701020 IEM_DS3505
ZBYN,2004-10-03 03:00,ZBYN 030300Z AUTO 14004KT 5SM 14/M02 A3024 RMK SLP261 T01381021 57009 IEM_DS3505
ZBYN,2004-10-03 04:00,ZBYN 030400Z AUTO 19004KT 6SM 15/M05 A3021 RMK T01501050 IEM_DS3505
ZBYN,2004-10-03 05:00,ZBYN 030500Z AUTO 6SM 17/M05 A3018 RMK T01701050 IEM_DS3505
ZBYN,2004-10-03 06:00,ZBYN 030600Z AUTO 16006KT 6SM 19/M04 A3015 RMK SLP219 T01901037 57033 IEM_DS3505
ZBYN,2004-10-03 07:00,ZBYN 030700Z AUTO 6SM 19/M09 A3012 RMK T01901090 IEM_DS3505
ZBYN,2004-10-03 08:00,ZBYN 030800Z AUTO 20002KT 6SM 19/M10 A3012 RMK T01901100 IEM_DS3505
ZBYN,2004-10-03 09:00,ZBYN 030900Z AUTO 14002KT 9SM 19/M04 A3012 RMK SLP211 T01931035 57009 IEM_DS3505
ZBYN,2004-10-03 10:00,ZBYN 031000Z AUTO 00000KT 6SM 15/M04 A3012 RMK T01501040 IEM_DS3505
ZBYN,2004-10-03 11:00,ZBYN 031100Z AUTO 05002KT 6SM 12/00 A3015 RMK T01200000 IEM_DS3505
ZBYN,2004-10-03 12:00,ZBYN 031200Z AUTO 36002KT 6SM 10/02 A3015 RMK SLP236 T01010020 52013 IEM_DS3505
ZBYN,2004-10-03 13:00,ZBYN 031300Z AUTO 12004KT 6SM 07/M01 A3015 RMK T00701010 IEM_DS3505
ZBYN,2004-10-03 14:00,ZBYN 031400Z AUTO 11002KT 6SM 08/M03 A3018 RMK T00801030 IEM_DS3505
ZBYN,2004-10-03 15:00,ZBYN 031500Z AUTO 36002KT 6SM 07/03 A3018 RMK SLP239 T00670028 52012 IEM_DS3505
ZBYN,2004-10-03 16:00,ZBYN 031600Z AUTO 00000KT 6SM 05/M01 A3018 RMK T00501010 IEM_DS3505
ZBYN,2004-10-03 17:00,ZBYN 031700Z AUTO 11002KT 6SM 04/M01 A3021 RMK T00401010 IEM_DS3505
ZBYN,2004-10-03 18:00,ZBYN 031800Z AUTO 32002KT 5SM 04/02 A3021 RMK SLP239 T00450015 52005 IEM_DS3505
ZBYN,2004-10-03 19:00,ZBYN 031900Z AUTO 00000KT 6SM 03/M01 A3021 RMK T00301010 IEM_DS3505
ZBYN,2004-10-03 20:00,ZBYN 032000Z AUTO 00000KT 6SM 02/M01 A3021 RMK T00201010 IEM_DS3505
ZBYN,2004-10-03 21:00,ZBYN 032100Z AUTO 00000KT 5SM 03/02 A3021 RMK SLP243 T00300015 52002 IEM_DS3505
ZBYN,2004-10-03 22:00,ZBYN 032200Z AUTO 00000KT 6SM 02/M01 A3021 RMK T00201010 IEM_DS3505
ZBYN,2004-10-03 23:00,ZBYN 032300Z AUTO 00000KT 6SM 02/M01 A3024 RMK T00201010 IEM_DS3505
ZBYN,2004-10-04 00:00,ZBYN 040000Z AUTO 14002KT 5SM 06/02 A3024 RMK SLP268 T00560024 52012 IEM_DS3505
ZBYN,2004-10-04 01:00,ZBYN 040100Z AUTO 15002KT 5SM 08/00 A3027 RMK T00800000 IEM_DS3505
ZBYN,2004-10-04 02:00,ZBYN 040200Z AUTO 05002KT 5SM 11/M01 A3024 RMK T01101010 IEM_DS3505
ZBYN,2004-10-04 03:00,ZBYN 040300Z AUTO 36002KT 5SM 16/00 A3024 RMK SLP252 T01570003 57004 IEM_DS3505
ZBYN,2004-10-04 04:00,ZBYN 040400Z AUTO 00000KT 6SM 17/M04 A3021 RMK T01701040 IEM_DS3505
ZBYN,2004-10-04 05:00,ZBYN 040500Z AUTO 6SM 19/M03 A3018 RMK T01901030 IEM_DS3505
ZBYN,2004-10-04 06:00,ZBYN 040600Z AUTO 16004KT 6SM 22/M01 A3015 RMK SLP213 T02181008 57030 IEM_DS3505
ZBYN,2004-10-04 07:00,ZBYN 040700Z AUTO 6SM 21/M06 A3015 RMK T02101060 IEM_DS3505
ZBYN,2004-10-04 08:00,ZBYN 040800Z AUTO 26002KT 6SM 22/M08 A3015 RMK T02201080 IEM_DS3505
ZBYN,2004-10-04 09:00,ZBYN 040900Z AUTO 20002KT 6SM 22/03 A3015 RMK SLP213 T02180030 57002 IEM_DS3505
ZBYN,2004-10-04 10:00,ZBYN 041000Z AUTO 00000KT 6SM 16/M02 A3015 RMK T01601020 IEM_DS3505
ZBYN,2004-10-04 11:00,ZBYN 041100Z AUTO 10002KT 5SM 11/01 A3015 RMK T01100010 IEM_DS3505
ZBYN,2004-10-04 12:00,ZBYN 041200Z AUTO 00000KT 6SM 11/05 A3015 RMK SLP234 T01090052 52007 IEM_DS3505
ZBYN,2004-10-04 13:00,ZBYN 041300Z AUTO 11004KT 6SM 10/01 A3018 RMK T01000010 IEM_DS3505
ZBYN,2004-10-04 14:00,ZBYN 041400Z AUTO 32002KT 6SM 07/02 A3021 RMK T00700020 IEM_DS3505
ZBYN,2004-10-04 15:00,ZBYN 041500Z AUTO 00000KT 4SM 08/05 RMK SLP244 T00770047 52019 IEM_DS3505
ZBYN,2004-10-04 16:00,ZBYN 041600Z AUTO 00000KT 6SM 05/02 A3021 RMK T00500020 IEM_DS3505
ZBYN,2004-10-04 17:00,ZBYN 041700Z AUTO 00000KT 6SM 05/02 A3021 RMK T00500020 IEM_DS3505
ZBYN,2004-10-04 18:00,ZBYN 041800Z AUTO 22002KT 2 1/2SM 07/05 A3021 RMK SLP235 T00690049 54000 IEM_DS3505
ZBYN,2004-10-04 19:00,ZBYN 041900Z AUTO 00000KT 6SM 06/02 A3021 RMK T00600020 IEM_DS3505
ZBYN,2004-10-04 20:00,ZBYN 042000Z AUTO 00000KT 6SM 05/02 A3021 RMK T00500020 IEM_DS3505
ZBYN,2004-10-04 21:00,ZBYN 042100Z AUTO 27002KT 4SM 06/04 A3021 RMK SLP237 T00550042 54000 IEM_DS3505
ZBYN,2004-10-04 22:00,ZBYN 042200Z AUTO 00000KT 5SM 04/01 A3021 RMK T00400010 IEM_DS3505
ZBYN,2004-10-04 23:00,ZBYN 042300Z AUTO 00000KT 4SM 04/01 A3024 RMK T00400010 IEM_DS3505
ZBYN,2004-10-05 00:00,ZBYN 050000Z AUTO 18002KT 4SM 08/06 A3024 RMK SLP262 T00770060 52009 IEM_DS3505
ZBYN,2004-10-05 01:00,ZBYN 050100Z AUTO 14002KT 10/03 A3027 RMK T01000030 IEM_DS3505
ZBYN,2004-10-05 02:00,ZBYN 050200Z AUTO 13/01 A3027 RMK T01300010 IEM_DS3505
ZBYN,2004-10-05 03:00,ZBYN 050300Z AUTO 11002KT 4SM 17/04 A3024 RMK SLP248 T01670038 57004 IEM_DS3505
ZBYN,2004-10-05 04:00,ZBYN 050400Z AUTO 00000KT 18/M01 A3021 RMK T01801010 IEM_DS3505
ZBYN,2004-10-05 05:00,ZBYN 050500Z AUTO 19/M01 A3018 RMK T01901010 IEM_DS3505
ZBYN,2004-10-05 06:00,ZBYN 050600Z AUTO 20004KT 6SM 22/01 A3015 RMK SLP209 T02210006 57028 IEM_DS3505
ZBYN,2004-10-05 07:00,ZBYN 050700Z AUTO 6SM 22/M01 A3012 RMK T02201010 IEM_DS3505
ZBYN,2004-10-05 08:00,ZBYN 050800Z AUTO 20002KT 6SM 21/M02 A3012 RMK T02101020 IEM_DS3505
ZBYN,2004-10-05 09:00,ZBYN 050900Z AUTO 22004KT 6SM 22/03 A3009 RMK SLP196 T02160029 57015 IEM_DS3505
ZBYN,2004-10-05 10:00,ZBYN 051000Z AUTO 00000KT 6SM 17/05 A3009 RMK T01700050 IEM_DS3505
ZBYN,2004-10-05 11:00,ZBYN 051100Z AUTO 09002KT 5SM 15/04 A3012 RMK T01500040 IEM_DS3505
ZBYN,2004-10-05 12:00,ZBYN 051200Z AUTO 09002KT 6SM 12/07 A3012 RMK SLP220 T01220071 52011 IEM_DS3505
ZBYN,2004-10-05 13:00,ZBYN 051300Z AUTO 12004KT 6SM 10/04 A3015 RMK T01000040 IEM_DS3505
ZBYN,2004-10-05 14:00,ZBYN 051400Z AUTO 11002KT 6SM 09/03 A3015 RMK T00900030 IEM_DS3505
ZBYN,2004-10-05 15:00,ZBYN 051500Z AUTO 11002KT 5SM 10/06 A3015 RMK SLP218 T00970061 52008 IEM_DS3505
ZBYN,2004-10-05 16:00,ZBYN 051600Z AUTO 11004KT 6SM 10/02 A3015 RMK T01000020 IEM_DS3505
ZBYN,2004-10-05 17:00,ZBYN 051700Z AUTO 08002KT 6SM 07/03 A3018 RMK T00700030 IEM_DS3505
ZBYN,2004-10-05 18:00,ZBYN 051800Z AUTO 32002KT 5SM 08/06 A3015 RMK SLP213 T00850056 52002 IEM_DS3505
ZBYN,2004-10-05 19:00,ZBYN 051900Z AUTO 00000KT 5SM 06/02 A3015 RMK T00600020 IEM_DS3505
ZBYN,2004-10-05 20:00,ZBYN 052000Z AUTO 00000KT 5SM 06/02 A3015 RMK T00600020 IEM_DS3505
ZBYN,2004-10-05 21:00,ZBYN 052100Z AUTO 00000KT 5SM 06/05 A3015 RMK SLP216 T00620048 57002 IEM_DS3505
ZBYN,2004-10-05 22:00,ZBYN 052200Z AUTO 00000KT 4SM 05/02 A3015 RMK T00500020 IEM_DS3505
ZBYN,2004-10-05 23:00,ZBYN 052300Z AUTO 00000KT 2SM 04/01 A3018 RMK T00400010 IEM_DS3505
ZBYN,2004-10-06 00:00,ZBYN 060000Z AUTO 16002KT 4SM 07/06 A3018 RMK SLP237 T00740056 52007 IEM_DS3505
ZBYN,2004-10-06 01:00,ZBYN 060100Z AUTO 00000KT 1 1/4SM 10/03 A3018 RMK T01000030 IEM_DS3505
ZBYN,2004-10-06 02:00,ZBYN 060200Z AUTO 00000KT 2SM 13/03 A3018 RMK T01300030 IEM_DS3505
ZBYN,2004-10-06 03:00,ZBYN 060300Z AUTO 27002KT 2SM 17/05 A3015 RMK SLP216 T01680051 57009 IEM_DS3505
ZBYN,2004-10-06 04:00,ZBYN 060400Z AUTO 3SM 17/01 A3012 RMK T01700010 IEM_DS3505
ZBYN,2004-10-06 05:00,ZBYN 060500Z AUTO 00000KT 19/01 A3009 RMK T01900010 IEM_DS3505
ZBYN,2004-10-06 06:00,ZBYN 060600Z AUTO 20004KT 2 1/2SM 22/03 A3006 RMK SLP171 T02200032 57035 IEM_DS3505
ZBYN,2004-10-06 07:00,ZBYN 060700Z AUTO 5SM 22/00 A3003 RMK T02200000 IEM_DS3505
ZBYN,2004-10-06 08:00,ZBYN 060800Z AUTO 20002KT 5SM 22/M01 A3000 RMK T02201010 IEM_DS3505
ZBYN,2004-10-06 09:00,ZBYN 060900Z AUTO 22002KT 2 1/2SM 21/03 A3000 RMK SLP163 T02100033 57012 IEM_DS3505
ZBYN,2004-10-06 10:00,ZBYN 061000Z AUTO 00000KT 17/02 A3000 RMK T01700020 IEM_DS3505
ZBYN,2004-10-06 11:00,ZBYN 061100Z AUTO 00000KT 14/04 A3000 RMK T01400040 IEM_DS3505
ZBYN,2004-10-06 12:00,ZBYN 061200Z AUTO 09002KT 4SM 13/08 A3003 RMK SLP187 T01320077 52012 IEM_DS3505
ZBYN,2004-10-06 14:00,ZBYN 061400Z AUTO 05002KT 5SM 11/04 A3006 RMK T01100040 IEM_DS3505
ZBYN,2004-10-06 15:00,ZBYN 061500Z AUTO 11002KT 4SM 12/06 A3006 RMK SLP182 T01150062 52007 IEM_DS3505
ZBYN,2004-10-06 16:00,ZBYN 061600Z AUTO 10002KT 5SM 09/03 A3006 RMK T00900030 IEM_DS3505
ZBYN,2004-10-06 17:00,ZBYN 061700Z AUTO 00000KT 5SM 07/03 A3006 RMK T00700030 IEM_DS3505
ZBYN,2004-10-06 18:00,ZBYN 061800Z AUTO 00000KT 2 1/2SM 09/06 A3006 RMK SLP175 T00860062 57003 IEM_DS3505
ZBYN,2004-10-06 19:00,ZBYN 061900Z AUTO 00000KT 5SM 07/03 A3006 RMK T00700030 IEM_DS3505
ZBYN,2004-10-06 20:00,ZBYN 062000Z AUTO 00000KT 5SM 06/03 A3006 RMK T00600030 IEM_DS3505
ZBYN,2004-10-06 21:00,ZBYN 062100Z AUTO 14002KT 2 1/2SM 07/05 A3006 RMK SLP178 T00660052 57002 IEM_DS3505
ZBYN,2004-10-06 22:00,ZBYN 062200Z AUTO 00000KT 4SM 05/02 A3006 RMK T00500020 IEM_DS3505
ZBYN,2004-10-06 23:00,ZBYN 062300Z AUTO 00000KT 2SM 06/03 A3006 RMK T00600030 IEM_DS3505
ZBYN,2004-10-07 00:00,ZBYN 070000Z AUTO 16002KT 2SM 08/06 A3009 RMK SLP201 T00750064 52011 IEM_DS3505
ZBYN,2004-10-07 01:00,ZBYN 070100Z AUTO 00000KT 1 1/2SM 10/05 A3009 RMK T01000050 IEM_DS3505
ZBYN,2004-10-07 02:00,ZBYN 070200Z AUTO 00000KT 1 1/2SM 13/04 A3009 RMK T01300040 IEM_DS3505
ZBYN,2004-10-07 03:00,ZBYN 070300Z AUTO 25002KT 2SM 18/06 A3006 RMK SLP182 T01760059 57005 IEM_DS3505
ZBYN,2004-10-07 04:00,ZBYN 070400Z AUTO 00000KT 2 1/2SM 18/02 A3003 RMK T01800020 IEM_DS3505
ZBYN,2004-10-07 05:00,ZBYN 070500Z AUTO 5SM 20/02 A3000 RMK T02000020 IEM_DS3505
ZBYN,2004-10-07 06:00,ZBYN 070600Z AUTO 14002KT 3SM 22/04 A2997 RMK SLP148 T02240040 57028 IEM_DS3505
ZBYN,2004-10-07 07:00,ZBYN 070700Z AUTO 6SM 22/01 A2997 RMK T02200010 IEM_DS3505
ZBYN,2004-10-07 08:00,ZBYN 070800Z AUTO 25002KT 6SM 22/00 A2997 RMK T02200000 IEM_DS3505
ZBYN,2004-10-07 09:00,ZBYN 070900Z AUTO 11010KT 4SM 20/03 A3000 RMK SLP160 T02050028 52005 IEM_DS3505
ZBYN,2004-10-07 10:00,ZBYN 071000Z AUTO 08008KT 6SM 18/01 A3003 RMK T01800010 IEM_DS3505
ZBYN,2004-10-07 11:00,ZBYN 071100Z AUTO 07008KT 6SM 19/M01 A3003 RMK T01901010 IEM_DS3505
ZBYN,2004-10-07 12:00,ZBYN 071200Z AUTO 34002KT 5SM 17/05 A3006 RMK SLP183 T01660050 52017 IEM_DS3505
ZBYN,2004-10-07 13:00,ZBYN 071300Z AUTO 08004KT 6SM 13/04 A3006 RMK T01300040 IEM_DS3505
ZBYN,2004-10-07 14:00,ZBYN 071400Z AUTO 12004KT 6SM 10/04 A3009 RMK T01000040 IEM_DS3505
ZBYN,2004-10-07 15:00,ZBYN 071500Z AUTO 09002KT 5SM 11/07 A3009 RMK SLP189 T01060069 52011 IEM_DS3505
ZBYN,2004-10-07 16:00,ZBYN 071600Z AUTO 00000KT 6SM 09/04 A3009 RMK T00900040 IEM_DS3505
ZBYN,2004-10-07 17:00,ZBYN 071700Z AUTO 11004KT 6SM 06/03 A3009 RMK T00600030 IEM_DS3505
ZBYN,2004-10-07 19:00,ZBYN 071900Z AUTO 00000KT 6SM 06/03 A3006 RMK T00600030 IEM_DS3505
ZBYN,2004-10-07 20:00,ZBYN 072000Z AUTO 00000KT 6SM 06/03 A3006 RMK T00600030 IEM_DS3505
ZBYN,2004-10-07 21:00,ZBYN 072100Z AUTO 16002KT 5SM 07/06 A3009 RMK SLP190 T00690055 54000 IEM_DS3505
ZBYN,2004-10-07 22:00,ZBYN 072200Z AUTO 00000KT 6SM 05/02 A3009 RMK T00500020 IEM_DS3505
ZBYN,2004-10-08 00:00,ZBYN 080000Z AUTO 00000KT 4SM 07/04 A3012 RMK T00700040 IEM_DS3505
ZBYN,2004-10-08 01:00,ZBYN 080100Z AUTO 00000KT 2SM 10/05 A3012 RMK T01000050 IEM_DS3505
ZBYN,2004-10-08 02:00,ZBYN 080200Z AUTO 00000KT 13/03 A3012 RMK T01300030 IEM_DS3505
ZBYN,2004-10-08 03:00,ZBYN 080300Z AUTO 16002KT 5SM 18/06 A3012 RMK SLP200 T01790055 57002 IEM_DS3505
ZBYN,2004-10-08 04:00,ZBYN 080400Z AUTO 04002KT 6SM 18/02 A3009 RMK T01800020 IEM_DS3505
ZBYN,2004-10-08 05:00,ZBYN 080500Z AUTO 00000KT 6SM 19/01 A3009 RMK T01900010 IEM_DS3505
ZBYN,2004-10-08 06:00,ZBYN 080600Z AUTO 16002KT 6SM 23/04 A3006 RMK SLP170 T02300045 57023 IEM_DS3505
ZBYN,2004-10-08 07:00,ZBYN 080700Z AUTO 19002KT 6SM 22/M03 A3003 RMK T02201030 IEM_DS3505
ZBYN,2004-10-08 08:00,ZBYN 080800Z AUTO 25002KT 6SM 22/M01 A3000 RMK T02201010 IEM_DS3505
ZBYN,2004-10-08 09:00,ZBYN 080900Z AUTO 25002KT 6SM 22/05 A3000 RMK SLP164 T02170052 57010 IEM_DS3505
ZBYN,2004-10-08 10:00,ZBYN 081000Z AUTO 00000KT 6SM 17/03 A3003 RMK T01700030 IEM_DS3505
ZBYN,2004-10-08 11:00,ZBYN 081100Z AUTO 07002KT 6SM 16/04 A3003 RMK T01600040 IEM_DS3505
ZBYN,2004-10-08 12:00,ZBYN 081200Z AUTO 09004KT 6SM 12/07 A3006 RMK SLP194 T01210074 52015 IEM_DS3505
ZBYN,2004-10-08 13:00,ZBYN 081300Z AUTO 09004KT 6SM 14/01 A3006 RMK T01400010 IEM_DS3505
ZBYN,2004-10-08 14:00,ZBYN 081400Z AUTO 00000KT 6SM 12/02 A3009 RMK T01200020 IEM_DS3505
ZBYN,2004-10-08 15:00,ZBYN 081500Z AUTO 32002KT 6SM 11/05 A3012 RMK SLP197 T01130054 52016 IEM_DS3505
ZBYN,2004-10-08 16:00,ZBYN 081600Z AUTO 00000KT 6SM 09/02 A3012 RMK T00900020 IEM_DS3505
ZBYN,2004-10-08 17:00,ZBYN 081700Z AUTO 00000KT 6SM 08/02 A3009 RMK T00800020 IEM_DS3505
ZBYN,2004-10-08 18:00,ZBYN 081800Z AUTO 00000KT 5SM 08/05 A3009 RMK SLP191 T00780054 57003 IEM_DS3505
ZBYN,2004-10-08 19:00,ZBYN 081900Z AUTO 00000KT 6SM 07/02 A3009 RMK T00700020 IEM_DS3505
ZBYN,2004-10-08 20:00,ZBYN 082000Z AUTO 00000KT 6SM 06/01 A3009 RMK T00600010 IEM_DS3505
ZBYN,2004-10-08 21:00,ZBYN 082100Z AUTO 32002KT 5SM 10/04 A3009 RMK SLP192 T00980036 52002 IEM_DS3505
ZBYN,2004-10-08 22:00,ZBYN 082200Z AUTO 00000KT 6SM 04/00 A3012 RMK T00400000 IEM_DS3505
ZBYN,2004-10-08 23:00,ZBYN 082300Z AUTO 00000KT 6SM 05/00 A3012 RMK T00500000 IEM_DS3505
ZBYN,2004-10-09 00:00,ZBYN 090000Z AUTO 32002KT 5SM 12/04 A3015 RMK SLP222 T01170035 52016 IEM_DS3505
ZBYN,2004-10-09 01:00,ZBYN 090100Z AUTO 14004KT 5SM 12/02 A3018 RMK T01200020 IEM_DS3505
ZBYN,2004-10-09 02:00,ZBYN 090200Z AUTO 34002KT 5SM 15/01 A3018 RMK T01500010 IEM_DS3505
ZBYN,2004-10-09 03:00,ZBYN 090300Z AUTO 29002KT 2 1/2SM 19/02 A3015 RMK SLP210 T01910025 57001 IEM_DS3505
ZBYN,2004-10-09 04:00,ZBYN 090400Z AUTO 6SM 20/M01 A3012 RMK T02001010 IEM_DS3505
ZBYN,2004-10-09 05:00,ZBYN 090500Z AUTO 6SM 22/M03 A3009 RMK T02201030 IEM_DS3505
ZBYN,2004-10-09 06:00,ZBYN 090600Z AUTO 20004KT 7SM 24/01 A3009 RMK SLP179 T02420006 57026 IEM_DS3505
ZBYN,2004-10-09 07:00,ZBYN 090700Z AUTO 22004KT 6SM 23/M07 A3006 RMK T02301070 IEM_DS3505
ZBYN,2004-10-09 08:00,ZBYN 090800Z AUTO 6SM 23/M07 A3006 RMK T02301070 IEM_DS3505
ZBYN,2004-10-09 09:00,ZBYN 090900Z AUTO 25002KT 7SM 24/00 A3006 RMK SLP170 T02360001 57006 IEM_DS3505
ZBYN,2004-10-09 10:00,ZBYN 091000Z AUTO 00000KT 6SM 18/M01 A3006 RMK T01801010 IEM_DS3505
ZBYN,2004-10-09 11:00,ZBYN 091100Z AUTO 09002KT 6SM 14/02 A3009 RMK T01400020 IEM_DS3505
ZBYN,2004-10-09 12:00,ZBYN 091200Z AUTO 11004KT 6SM 14/04 A3009 RMK SLP198 T01420042 52014 IEM_DS3505
ZBYN,2004-10-09 13:00,ZBYN 091300Z AUTO 09004KT 6SM 14/00 A3012 RMK T01400000 IEM_DS3505
ZBYN,2004-10-09 14:00,ZBYN 091400Z AUTO 10004KT 6SM 15/M01 A3012 RMK T01501010 IEM_DS3505
ZBYN,2004-10-09 15:00,ZBYN 091500Z AUTO 20002KT 4SM 12/07 A3012 RMK SLP201 T01220067 52011 IEM_DS3505
ZBYN,2004-10-09 16:00,ZBYN 091600Z AUTO 00000KT 6SM 13/01 A3015 RMK T01300010 IEM_DS3505
ZBYN,2004-10-09 17:00,ZBYN 091700Z AUTO 12002KT 6SM 11/01 A3009 RMK T01100010 IEM_DS3505
ZBYN,2004-10-09 18:00,ZBYN 091800Z AUTO 29002KT 4SM 11/07 RMK SLP193 T01130070 57001 IEM_DS3505
ZBYN,2004-10-09 19:00,ZBYN 091900Z AUTO 00000KT 6SM 09/02 A3015 RMK T00900020 IEM_DS3505
ZBYN,2004-10-09 20:00,ZBYN 092000Z AUTO 12004KT 6SM 08/03 A3012 RMK T00800030 IEM_DS3505
ZBYN,2004-10-09 21:00,ZBYN 092100Z AUTO 00000KT 4SM 10/07 A3012 RMK SLP197 T01050067 52001 IEM_DS3505
ZBYN,2004-10-09 22:00,ZBYN 092200Z AUTO 00000KT 6SM 08/03 A3012 RMK T00800030 IEM_DS3505
ZBYN,2004-10-09 23:00,ZBYN 092300Z AUTO 00000KT 5SM 08/03 A3015 RMK T00800030 IEM_DS3505
ZBYN,2004-10-10 00:00,ZBYN 100000Z AUTO 00000KT 4SM 10/07 A3015 RMK SLP218 T01040067 52005 IEM_DS3505
ZBYN,2004-10-10 01:00,ZBYN 100100Z AUTO 00000KT 3SM 12/04 A3015 RMK T01200040 IEM_DS3505
ZBYN,2004-10-10 03:00,ZBYN 100300Z AUTO 18002KT 2 1/2SM 14/07 A3018 RMK SLP222 T01400066 52006 IEM_DS3505
ZBYN,2004-10-10 04:00,ZBYN 100400Z AUTO 00000KT 1 1/2SM 14/04 A3015 RMK T01400040 IEM_DS3505
ZBYN,2004-10-10 05:00,ZBYN 100500Z AUTO 28004KT 2SM 15/04 A3015 RMK T01500040 IEM_DS3505
ZBYN,2004-10-10 06:00,ZBYN 100600Z AUTO 29010KT 2 1/2SM 18/05 A3012 RMK SLP204 T01800053 57011 IEM_DS3505
ZBYN,2004-10-10 07:00,ZBYN 100700Z AUTO 30010KT 7SM 16/ A3012 RMK IEM_DS3505
ZBYN,2004-10-10 08:00,ZBYN 100800Z AUTO 29008KT 6SM 15/03 A3012 RMK T01500030 IEM_DS3505
ZBYN,2004-10-10 09:00,ZBYN 100900Z AUTO 32002KT 11SM 16/06 A3015 RMK SLP211 T01620064 52002 IEM_DS3505
ZBYN,2004-10-10 10:00,ZBYN 101000Z AUTO 32006KT 7SM 14/05 A3015 RMK T01400050 IEM_DS3505
ZBYN,2004-10-10 11:00,ZBYN 101100Z AUTO 29002KT 7SM 13/06 A3015 RMK T01300060 IEM_DS3505
ZBYN,2004-10-10 12:00,ZBYN 101200Z AUTO 32002KT 9SM 15/08 A3015 RMK SLP221 T01470075 52007 IEM_DS3505
ZBYN,2004-10-10 13:00,ZBYN 101300Z AUTO 31004KT 6SM 13/06 A3018 RMK T01300060 IEM_DS3505
ZBYN,2004-10-10 14:00,ZBYN 101400Z AUTO 21004KT 6SM 12/06 A3018 RMK T01200060 IEM_DS3505
ZBYN,2004-10-10 15:00,ZBYN 101500Z AUTO 32002KT 6SM 11/08 A3018 RMK SLP225 T01090078 52003 IEM_DS3505
ZBYN,2004-10-10 16:00,ZBYN 101600Z AUTO 00000KT 6SM 10/06 A3018 RMK T01000060 IEM_DS3505
ZBYN,2004-10-10 17:00,ZBYN 101700Z AUTO 00000KT 6SM 07/04 A3015 RMK T00700040 IEM_DS3505
ZBYN,2004-10-10 18:00,ZBYN 101800Z AUTO 32002KT 5SM 10/07 A3015 RMK SLP215 T01000069 57004 IEM_DS3505
ZBYN,2004-10-10 19:00,ZBYN 101900Z AUTO 00000KT 4SM 06/05 A3015 RMK T00600050 IEM_DS3505
ZBYN,2004-10-10 20:00,ZBYN 102000Z AUTO 00000KT 2SM 05/04 A3015 RMK T00500040 IEM_DS3505
ZBYN,2004-10-10 21:00,ZBYN 102100Z AUTO 18004KT 5SM 07/06 A3015 RMK 70000 SLP224 T00720060 52001 IEM_DS3505
ZBYN,2004-10-10 22:00,ZBYN 102200Z AUTO 00000KT 1 1/4SM 03/01 A3018 RMK T00300010 IEM_DS3505
ZBYN,2004-10-10 23:00,ZBYN 102300Z AUTO 1SM 04/03 A3021 RMK T00400030 IEM_DS3505
ZBYN,2004-10-11 00:00,ZBYN 110000Z AUTO 00000KT 1SM 08/08 A3021 RMK 70000 SLP249 T00830075 52022 IEM_DS3505
ZBYN,2004-10-11 01:00,ZBYN 110100Z AUTO 34006KT 11/03 A3024 RMK T01100030 IEM_DS3505
ZBYN,2004-10-11 02:00,ZBYN 110200Z AUTO 01008KT 6SM 14/M04 A3027 RMK T01401040 IEM_DS3505
ZBYN,2004-10-11 03:00,ZBYN 110300Z AUTO 04004KT 6SM 15/M02 A3024 RMK SLP247 T01541016 52003 IEM_DS3505
ZBYN,2004-10-11 04:00,ZBYN 110400Z AUTO 6SM 15/M05 A3021 RMK T01501050 IEM_DS3505
ZBYN,2004-10-11 05:00,ZBYN 110500Z AUTO 6SM 16/M03 A3018 RMK T01601030 IEM_DS3505
ZBYN,2004-10-11 06:00,ZBYN 110600Z AUTO 29010KT 16SM 19/M08 A3015 RMK SLP209 T01921080 57030 IEM_DS3505
ZBYN,2004-10-11 07:00,ZBYN 110700Z AUTO 28008KT 6SM 19/M11 A3015 RMK T01901110 IEM_DS3505
ZBYN,2004-10-11 08:00,ZBYN 110800Z AUTO 31014KT 6SM 18/M14 A3012 RMK T01801140 IEM_DS3505
ZBYN,2004-10-11 09:00,ZBYN 110900Z AUTO 32010KT 16SM 18/M10 A3012 RMK SLP209 T01781100 57006 IEM_DS3505
ZBYN,2004-10-11 10:00,ZBYN 111000Z AUTO 30010KT 6SM 14/M14 A3015 RMK T01401140 IEM_DS3505
ZBYN,2004-10-11 11:00,ZBYN 111100Z AUTO 32008KT 6SM 13/M11 A3015 RMK T01301110 IEM_DS3505
ZBYN,2004-10-11 12:00,ZBYN 111200Z AUTO 29006KT 16SM 12/M05 A3018 RMK SLP240 T01251054 52022 IEM_DS3505
ZBYN,2004-10-11 13:00,ZBYN 111300Z AUTO 6SM 11/M09 A3021 RMK T01101090 IEM_DS3505
ZBYN,2004-10-11 14:00,ZBYN 111400Z AUTO 32004KT 6SM 12/M11 A3021 RMK T01201110 IEM_DS3505
ZBYN,2004-10-11 15:00,ZBYN 111500Z AUTO 14002KT 12SM 08/M04 A3021 RMK SLP244 T00761038 52007 IEM_DS3505
ZBYN,2004-10-11 16:00,ZBYN 111600Z AUTO 6SM 05/M06 A3021 RMK T00501060 IEM_DS3505
ZBYN,2004-10-11 17:00,ZBYN 111700Z AUTO 12002KT 6SM 03/M06 A3021 RMK T00301060 IEM_DS3505
ZBYN,2004-10-11 18:00,ZBYN 111800Z AUTO 00000KT 6SM 04/M01 A3021 RMK SLP244 T00351009 57001 IEM_DS3505
ZBYN,2004-10-11 19:00,ZBYN 111900Z AUTO 12002KT 6SM 01/M06 A3021 RMK T00101060 IEM_DS3505
ZBYN,2004-10-11 20:00,ZBYN 112000Z AUTO 13004KT 6SM 00/M06 A3018 RMK T00001060 IEM_DS3505
ZBYN,2004-10-11 21:00,ZBYN 112100Z AUTO 14002KT 6SM 01/M02 A3021 RMK SLP242 T00121020 57007 IEM_DS3505
ZBYN,2004-10-11 23:00,ZBYN 112300Z AUTO 00000KT 6SM 00/M06 A3021 RMK T00001060 IEM_DS3505
ZBYN,2004-10-12 00:00,ZBYN 120000Z AUTO 14002KT 5SM 04/M01 A3024 RMK SLP262 T00421010 52014 IEM_DS3505
ZBYN,2004-10-12 01:00,ZBYN 120100Z AUTO 14002KT 5SM 07/M04 A3024 RMK T00701040 IEM_DS3505
ZBYN,2004-10-12 02:00,ZBYN 120200Z AUTO 5SM 09/M04 A3024 RMK T00901040 IEM_DS3505
ZBYN,2004-10-12 03:00,ZBYN 120300Z AUTO 18004KT 5SM 14/M03 A3021 RMK SLP248 T01351032 57006 IEM_DS3505
ZBYN,2004-10-12 04:00,ZBYN 120400Z AUTO 19004KT 5SM 15/M06 A3021 RMK T01501060 IEM_DS3505
ZBYN,2004-10-12 05:00,ZBYN 120500Z AUTO 17004KT 5SM 16/M08 A3015 RMK T01601080 IEM_DS3505
ZBYN,2004-10-12 06:00,ZBYN 120600Z AUTO 22008KT 7SM 20/M08 A3012 RMK SLP210 T01971085 57031 IEM_DS3505
ZBYN,2004-10-12 07:00,ZBYN 120700Z AUTO 25004KT 6SM 18/M13 A3012 RMK T01801130 IEM_DS3505
ZBYN,2004-10-12 09:00,ZBYN 120900Z AUTO 22004KT 12SM 19/M06 A3009 RMK SLP205 T01901065 57009 IEM_DS3505
ZBYN,2004-10-12 10:00,ZBYN 121000Z AUTO 00000KT 6SM 13/M07 A3009 RMK T01301070 IEM_DS3505
ZBYN,2004-10-12 11:00,ZBYN 121100Z AUTO 00000KT 6SM 10/M05 A3012 RMK T01001050 IEM_DS3505
ZBYN,2004-10-12 12:00,ZBYN 121200Z AUTO 32006KT 12SM 13/M06 RMK SLP225 T01341056 52014 IEM_DS3505
ZBYN,2004-10-12 13:00,ZBYN 121300Z AUTO 12002KT 6SM 06/M05 A3015 RMK T00601050 IEM_DS3505
ZBYN,2004-10-12 14:00,ZBYN 121400Z AUTO 07002KT 6SM 05/M04 A3018 RMK T00501040 IEM_DS3505
ZBYN,2004-10-12 15:00,ZBYN 121500Z AUTO 07002KT 12SM 09/M02 A3018 RMK SLP232 T00941025 52015 IEM_DS3505
ZBYN,2004-10-12 16:00,ZBYN 121600Z AUTO 6SM 04/M05 A3018 RMK T00401050 IEM_DS3505
ZBYN,2004-10-12 17:00,ZBYN 121700Z AUTO 00000KT 6SM 02/M04 A3021 RMK T00201040 IEM_DS3505
ZBYN,2004-10-12 18:00,ZBYN 121800Z AUTO 09002KT 9SM 03/M02 A3021 RMK SLP235 T00341017 52003 IEM_DS3505
ZBYN,2004-10-12 19:00,ZBYN 121900Z AUTO 00000KT 6SM 02/M06 A3021 RMK T00201060 IEM_DS3505
ZBYN,2004-10-12 20:00,ZBYN 122000Z AUTO 11004KT 6SM 00/M06 A3021 RMK T00001060 IEM_DS3505
ZBYN,2004-10-12 21:00,ZBYN 122100Z AUTO 00000KT 9SM 02/M01 A3021 RMK SLP249 T00151014 52008 IEM_DS3505
ZBYN,2004-10-12 22:00,ZBYN 122200Z AUTO 00000KT 6SM 00/M06 A3024 RMK T00001060 IEM_DS3505
ZBYN,2004-10-12 23:00,ZBYN 122300Z AUTO 00000KT 6SM 00/M05 A3027 RMK T00001050 IEM_DS3505
ZBYN,2004-10-13 00:00,ZBYN 130000Z AUTO 29006KT 7SM 08/M02 A3027 RMK SLP273 T00761024 52023 IEM_DS3505
ZBYN,2004-10-13 01:00,ZBYN 130100Z AUTO 33006KT 6SM 12/M07 A3030 RMK T01201070 IEM_DS3505
ZBYN,2004-10-13 02:00,ZBYN 130200Z AUTO 34014KT 6SM 13/M08 A3030 RMK T01301080 IEM_DS3505
ZBYN,2004-10-13 03:00,ZBYN 130300Z AUTO 36008KT 12SM 15/M08 A3030 RMK SLP272 T01501077 52004 IEM_DS3505
ZBYN,2004-10-13 04:00,ZBYN 130400Z AUTO 34012KT 6SM 16/M11 A3027 RMK T01601110 IEM_DS3505
ZBYN,2004-10-13 05:00,ZBYN 130500Z AUTO 35008KT 6SM 17/M13 A3027 RMK T01701130 IEM_DS3505
ZBYN,2004-10-13 06:00,ZBYN 130600Z AUTO 04008KT 12SM 18/M09 A3024 RMK SLP254 T01771092 57021 IEM_DS3505
ZBYN,2004-10-13 07:00,ZBYN 130700Z AUTO 02008KT 6SM 18/M14 A3021 RMK T01801140 IEM_DS3505
ZBYN,2004-10-13 08:00,ZBYN 130800Z AUTO 04004KT 6SM 17/M14 A3021 RMK T01701140 IEM_DS3505
ZBYN,2004-10-13 09:00,ZBYN 130900Z AUTO 04004KT 11SM 17/M07 A3021 RMK SLP253 T01711073 57005 IEM_DS3505
ZBYN,2004-10-13 10:00,ZBYN 131000Z AUTO 35006KT 6SM 13/M11 A3024 RMK T01301110 IEM_DS3505
ZBYN,2004-10-13 11:00,ZBYN 131100Z AUTO 36006KT 6SM 11/M11 A3027 RMK T01101110 IEM_DS3505
ZBYN,2004-10-13 12:00,ZBYN 131200Z AUTO 36002KT 9SM 12/M07 A3030 RMK SLP281 T01251074 52028 IEM_DS3505
ZBYN,2004-10-13 13:00,ZBYN 131300Z AUTO 05006KT 6SM 10/M08 A3033 RMK T01001080 IEM_DS3505
ZBYN,2004-10-13 14:00,ZBYN 131400Z AUTO 06006KT 6SM 09/M07 A3033 RMK T00901070 IEM_DS3505
ZBYN,2004-10-13 15:00,ZBYN 131500Z AUTO 32004KT 9SM 09/M06 A3036 RMK SLP289 T00941056 52014 IEM_DS3505
ZBYN,2004-10-13 16:00,ZBYN 131600Z AUTO 00000KT 6SM 05/M05 A3036 RMK T00501050 IEM_DS3505
ZBYN,2004-10-13 17:00,ZBYN 131700Z AUTO 02002KT 6SM 04/M05 A3036 RMK T00401050 IEM_DS3505
ZBYN,2004-10-13 18:00,ZBYN 131800Z AUTO 32004KT 7SM 08/M06 A3039 RMK SLP294 T00791055 52006 IEM_DS3505
ZBYN,2004-10-13 19:00,ZBYN 131900Z AUTO 00000KT 6SM 03/M05 A3039 RMK T00301050 IEM_DS3505
ZBYN,2004-10-13 20:00,ZBYN 132000Z AUTO 00000KT 6SM 02/M05 A3039 RMK T00201050 IEM_DS3505
ZBYN,2004-10-13 21:00,ZBYN 132100Z AUTO 36004KT 7SM 06/M06 A3039 RMK SLP298 T00621057 54000 IEM_DS3505
ZBYN,2004-10-13 22:00,ZBYN 132200Z AUTO 00000KT 6SM 04/M05 A3039 RMK T00401050 IEM_DS3505
ZBYN,2004-10-13 23:00,ZBYN 132300Z AUTO 00000KT 6SM 00/M06 A3039 RMK T00001060 IEM_DS3505
ZBYN,2004-10-14 00:00,ZBYN 140000Z AUTO 36004KT 7SM 07/M05 A3042 RMK SLP316 T00731054 52011 IEM_DS3505
ZBYN,2004-10-14 01:00,ZBYN 140100Z AUTO 34002KT 6SM 08/M06 A3042 RMK T00801060 IEM_DS3505
ZBYN,2004-10-14 02:00,ZBYN 140200Z AUTO 00000KT 6SM 10/M07 A3042 RMK T01001070 IEM_DS3505
ZBYN,2004-10-14 03:00,ZBYN 140300Z AUTO 20004KT 6SM 14/M05 A3039 RMK SLP301 T01451052 57007 IEM_DS3505
ZBYN,2004-10-14 04:00,ZBYN 140400Z AUTO 24004KT 6SM 14/M07 A3036 RMK T01401070 IEM_DS3505
ZBYN,2004-10-14 05:00,ZBYN 140500Z AUTO 20004KT 6SM 15/M06 A3033 RMK T01501060 IEM_DS3505
ZBYN,2004-10-14 06:00,ZBYN 140600Z AUTO 20008KT 5SM 17/M03 A3030 RMK SLP267 T01741028 57029 IEM_DS3505
ZBYN,2004-10-14 07:00,ZBYN 140700Z AUTO 22004KT 6SM 17/M07 A3027 RMK T01701070 IEM_DS3505
ZBYN,2004-10-14 08:00,ZBYN 140800Z AUTO 23004KT 6SM 16/M05 A3027 RMK T01601050 IEM_DS3505
ZBYN,2004-10-14 09:00,ZBYN 140900Z AUTO 18004KT 5SM 16/M02 A3027 RMK SLP258 T01571018 57013 IEM_DS3505
ZBYN,2004-10-14 10:00,ZBYN 141000Z AUTO 00000KT 5SM 12/M04 A3027 RMK T01201040 IEM_DS3505
ZBYN,2004-10-14 11:00,ZBYN 141100Z AUTO 11002KT 5SM 10/M03 A3027 RMK T01001030 IEM_DS3505
ZBYN,2004-10-14 12:00,ZBYN 141200Z AUTO 25002KT 5SM 10/01 A3030 RMK SLP275 T00980007 52008 IEM_DS3505
ZBYN,2004-10-14 13:00,ZBYN 141300Z AUTO 12004KT 6SM 06/M02 A3030 RMK T00601020 IEM_DS3505
ZBYN,2004-10-14 14:00,ZBYN 141400Z AUTO 12004KT 6SM 05/M02 A3030 RMK T00501020 IEM_DS3505
ZBYN,2004-10-14 15:00,ZBYN 141500Z AUTO 14002KT 5SM 07/00 A3033 RMK SLP280 T00660003 52011 IEM_DS3505
ZBYN,2004-10-14 16:00,ZBYN 141600Z AUTO 11002KT 6SM 04/M02 A3030 RMK T00401020 IEM_DS3505
ZBYN,2004-10-14 17:00,ZBYN 141700Z AUTO 10002KT 6SM 03/M02 A3030 RMK T00301020 IEM_DS3505
ZBYN,2004-10-14 19:00,ZBYN 141900Z AUTO 11002KT 6SM 02/M03 A3030 RMK T00201030 IEM_DS3505
ZBYN,2004-10-14 20:00,ZBYN 142000Z AUTO 11002KT 6SM 02/M03 A3030 RMK T00201030 IEM_DS3505
ZBYN,2004-10-14 21:00,ZBYN 142100Z AUTO 00000KT 4SM 02/00 A3030 RMK SLP280 T00220004 57002 IEM_DS3505
ZBYN,2004-10-14 22:00,ZBYN 142200Z AUTO 00000KT 3SM 02/M02 A3030 RMK T00201020 IEM_DS3505
ZBYN,2004-10-14 23:00,ZBYN 142300Z AUTO 00000KT 2 1/2SM 00/M03 A3030 RMK T00001030 IEM_DS3505
ZBYN,2004-10-15 00:00,ZBYN 150000Z AUTO 29002KT 4SM 04/01 A3033 RMK SLP294 T00390013 52006 IEM_DS3505
ZBYN,2004-10-15 01:00,ZBYN 150100Z AUTO 16002KT 1 1/4SM 07/M01 A3033 RMK T00701010 IEM_DS3505
ZBYN,2004-10-15 02:00,ZBYN 150200Z AUTO 2 1/2SM 10/M02 A3030 RMK T01001020 IEM_DS3505
ZBYN,2004-10-15 03:00,ZBYN 150300Z AUTO 20002KT 4SM 14/00 A3030 RMK SLP273 T01380005 57009 IEM_DS3505
ZBYN,2004-10-15 04:00,ZBYN 150400Z AUTO 15/M03 A3027 RMK T01501030 IEM_DS3505
ZBYN,2004-10-15 05:00,ZBYN 150500Z AUTO 5SM 17/M04 A3021 RMK T01701040 IEM_DS3505
ZBYN,2004-10-15 06:00,ZBYN 150600Z AUTO 16004KT 4SM 20/01 A3018 RMK SLP230 T02020012 57034 IEM_DS3505
ZBYN,2004-10-15 07:00,ZBYN 150700Z AUTO 6SM 20/M04 A3018 RMK T02001040 IEM_DS3505
ZBYN,2004-10-15 08:00,ZBYN 150800Z AUTO 18002KT 6SM 20/M05 A3015 RMK T02001050 IEM_DS3505
ZBYN,2004-10-15 09:00,ZBYN 150900Z AUTO 22002KT 5SM 20/01 A3015 RMK SLP220 T02010011 57011 IEM_DS3505
ZBYN,2004-10-15 10:00,ZBYN 151000Z AUTO 00000KT 6SM 14/M02 A3015 RMK T01401020 IEM_DS3505
ZBYN,2004-10-15 11:00,ZBYN 151100Z AUTO 07002KT 6SM 12/01 A3018 RMK T01200010 IEM_DS3505
ZBYN,2004-10-15 12:00,ZBYN 151200Z AUTO 00000KT 4SM 10/05 A3018 RMK SLP248 T01040054 52013 IEM_DS3505
ZBYN,2004-10-15 13:00,ZBYN 151300Z AUTO 11004KT 6SM 09/M01 A3021 RMK T00901010 IEM_DS3505
ZBYN,2004-10-15 14:00,ZBYN 151400Z AUTO 6SM 09/M01 A3021 RMK T00901010 IEM_DS3505
ZBYN,2004-10-15 15:00,ZBYN 151500Z AUTO 27002KT 3SM 07/03 A3021 RMK SLP246 T00730034 52009 IEM_DS3505
ZBYN,2004-10-15 16:00,ZBYN 151600Z AUTO 02002KT 5SM 05/00 A3021 RMK T00500000 IEM_DS3505
ZBYN,2004-10-15 17:00,ZBYN 151700Z AUTO 00000KT 5SM 05/M01 A3021 RMK T00501010 IEM_DS3505
ZBYN,2004-10-15 18:00,ZBYN 151800Z AUTO 14002KT 3SM 06/03 A3021 RMK SLP240 T00590026 52002 IEM_DS3505
ZBYN,2004-10-15 19:00,ZBYN 151900Z AUTO 00000KT 5SM 03/M01 A3021 RMK T00301010 IEM_DS3505
ZBYN,2004-10-15 20:00,ZBYN 152000Z AUTO 08002KT 4SM 03/M01 A3021 RMK T00301010 IEM_DS3505
ZBYN,2004-10-15 21:00,ZBYN 152100Z AUTO 02002KT 3SM 05/03 A3021 RMK SLP244 T00520027 52002 IEM_DS3505
ZBYN,2004-10-15 22:00,ZBYN 152200Z AUTO 00000KT 4SM 04/00 A3024 RMK T00400000 IEM_DS3505
ZBYN,2004-10-15 23:00,ZBYN 152300Z AUTO 06002KT 4SM 05/00 A3024 RMK T00500000 IEM_DS3505
ZBYN,2004-10-16 00:00,ZBYN 160000Z AUTO 34004KT 4SM 10/01 A3027 RMK SLP266 T01040010 52013 IEM_DS3505
ZBYN,2004-10-16 01:00,ZBYN 160100Z AUTO 34002KT 11/M01 A3027 RMK T01101010 IEM_DS3505
ZBYN,2004-10-16 02:00,ZBYN 160200Z AUTO 34004KT 13/M01 A3027 RMK T01301010 IEM_DS3505
ZBYN,2004-10-16 03:00,ZBYN 160300Z AUTO 34002KT 4SM 15/02 A3027 RMK SLP264 T01500016 52001 IEM_DS3505
ZBYN,2004-10-16 04:00,ZBYN 160400Z AUTO 08010KT 6SM 18/M06 A3027 RMK T01801060 IEM_DS3505
ZBYN,2004-10-16 05:00,ZBYN 160500Z AUTO 09006KT 6SM 18/M06 A3024 RMK T01801060 IEM_DS3505
ZBYN,2004-10-16 06:00,ZBYN 160600Z AUTO 09008KT 6SM 18/M05 A3024 RMK T01801050 IEM_DS3505
ZBYN,2004-10-16 07:00,ZBYN 160700Z AUTO 09006KT 6SM 18/M05 A3021 RMK T01801050 IEM_DS3505
ZBYN,2004-10-16 08:00,ZBYN 160800Z AUTO 09006KT 6SM 17/M04 A3021 RMK T01701040 IEM_DS3505
ZBYN,2004-10-16 09:00,ZBYN 160900Z AUTO 09008KT 5SM 17/M01 A3021 RMK SLP243 T01721009 57004 IEM_DS3505
ZBYN,2004-10-16 10:00,ZBYN 161000Z AUTO 07008KT 6SM 15/M02 A3024 RMK T01501020 IEM_DS3505
ZBYN,2004-10-16 12:00,ZBYN 161200Z AUTO 11012KT 6SM 15/M02 RMK SLP260 T01531021 52020 IEM_DS3505
ZBYN,2004-10-16 13:00,ZBYN 161300Z AUTO 09006KT 6SM 13/M04 A3030 RMK T01301040 IEM_DS3505
ZBYN,2004-10-16 14:00,ZBYN 161400Z AUTO 11004KT 6SM 12/M01 A3033 RMK T01201010 IEM_DS3505
ZBYN,2004-10-16 15:00,ZBYN 161500Z AUTO 16002KT 6SM 13/01 A3033 RMK SLP270 T01320013 52013 IEM_DS3505
ZBYN,2004-10-16 16:00,ZBYN 161600Z AUTO 07006KT 6SM 12/M01 A3030 RMK T01201010 IEM_DS3505
ZBYN,2004-10-16 17:00,ZBYN 161700Z AUTO 07008KT 6SM 12/00 A3030 RMK T01200000 IEM_DS3505
ZBYN,2004-10-16 18:00,ZBYN 161800Z AUTO 04004KT 6SM 13/02 A3030 RMK SLP254 T01290022 57009 IEM_DS3505
ZBYN,2004-10-16 19:00,ZBYN 161900Z AUTO 09006KT 6SM 12/00 A3027 RMK T01200000 IEM_DS3505
ZBYN,2004-10-16 21:00,ZBYN 162100Z AUTO 27002KT 6SM 11/04 A3027 RMK SLP252 T01140044 57007 IEM_DS3505
ZBYN,2004-10-16 22:00,ZBYN 162200Z AUTO 07006KT 5SM 11/01 A3027 RMK T01100010 IEM_DS3505
ZBYN,2004-10-16 23:00,ZBYN 162300Z AUTO 07008KT 5SM 11/03 A3027 RMK T01100030 IEM_DS3505
ZBYN,2004-10-17 00:00,ZBYN 170000Z AUTO 29002KT 2SM 12/03 A3027 RMK SLP259 T01150031 52004 IEM_DS3505
ZBYN,2004-10-17 01:00,ZBYN 170100Z AUTO 09008KT 2SM 12/04 A3030 RMK T01200040 IEM_DS3505
ZBYN,2004-10-17 02:00,ZBYN 170200Z AUTO 09008KT 2SM 13/05 A3030 RMK T01300050 IEM_DS3505
ZBYN,2004-10-17 03:00,ZBYN 170300Z AUTO 11006KT 2SM 15/06 A3030 RMK SLP258 T01490057 52001 IEM_DS3505
ZBYN,2004-10-17 04:00,ZBYN 170400Z AUTO 11004KT 3SM 16/M01 A3027 RMK T01601010 IEM_DS3505
ZBYN,2004-10-17 05:00,ZBYN 170500Z AUTO 15/M03 A3024 RMK T01501030 IEM_DS3505
ZBYN,2004-10-17 06:00,ZBYN 170600Z AUTO 00000KT 3SM 16/03 A3021 RMK SLP221 T01610030 57032 IEM_DS3505
ZBYN,2004-10-17 07:00,ZBYN 170700Z AUTO 33002KT 5SM 15/M03 A3018 RMK T01501030 IEM_DS3505
ZBYN,2004-10-17 08:00,ZBYN 170800Z AUTO 35002KT 5SM 15/M03 A3018 RMK T01501030 IEM_DS3505
ZBYN,2004-10-17 09:00,ZBYN 170900Z AUTO 11002KT 4SM 15/03 A3018 RMK SLP213 T01510030 57010 IEM_DS3505
ZBYN,2004-10-17 10:00,ZBYN 171000Z AUTO 00000KT 13/00 A3018 RMK T01300000 IEM_DS3505
ZBYN,2004-10-17 11:00,ZBYN 171100Z AUTO 23002KT 13/00 A3021 RMK T01300000 IEM_DS3505
ZBYN,2004-10-17 12:00,ZBYN 171200Z AUTO 20002KT 3SM 13/03 A3021 RMK SLP237 T01330031 52012 IEM_DS3505
ZBYN,2004-10-17 13:00,ZBYN 171300Z AUTO 18002KT 3SM 11/02 A3021 RMK T01100020 IEM_DS3505
ZBYN,2004-10-17 14:00,ZBYN 171400Z AUTO 12004KT 3SM 11/03 A3021 RMK T01100030 IEM_DS3505
ZBYN,2004-10-17 15:00,ZBYN 171500Z AUTO 14004KT 3SM 12/05 A3021 RMK SLP239 T01210046 52005 IEM_DS3505
ZBYN,2004-10-17 16:00,ZBYN 171600Z AUTO 12004KT 5SM 11/03 A3021 RMK T01100030 IEM_DS3505
ZBYN,2004-10-17 17:00,ZBYN 171700Z AUTO 11004KT 6SM 10/03 A3021 RMK T01000030 IEM_DS3505
ZBYN,2004-10-17 18:00,ZBYN 171800Z AUTO 09002KT 3SM 10/05 A3021 RMK SLP233 T00960052 57007 IEM_DS3505
ZBYN,2004-10-17 19:00,ZBYN 171900Z AUTO 12002KT 4SM 08/03 A3021 RMK T00800030 IEM_DS3505
ZBYN,2004-10-17 20:00,ZBYN 172000Z AUTO 09002KT 3SM 06/03 A3021 RMK T00600030 IEM_DS3505
ZBYN,2004-10-17 21:00,ZBYN 172100Z AUTO 14002KT 3SM 07/05 A3021 RMK SLP240 T00670047 54000 IEM_DS3505
ZBYN,2004-10-17 22:00,ZBYN 172200Z AUTO 00000KT 1 1/4SM 06/03 A3021 RMK T00600030 IEM_DS3505
ZBYN,2004-10-17 23:00,ZBYN 172300Z AUTO 12002KT 1SM 04/02 A3021 RMK T00400020 IEM_DS3505
ZBYN,2004-10-18 00:00,ZBYN 180000Z AUTO 09002KT 1SM 07/05 A3024 RMK SLP258 T00680048 52014 IEM_DS3505
ZBYN,2004-10-18 01:00,ZBYN 180100Z AUTO 14002KT 1SM 09/04 A3024 RMK T00900040 IEM_DS3505
ZBYN,2004-10-18 02:00,ZBYN 180200Z AUTO 15004KT 1SM 11/04 A3024 RMK T01100040 IEM_DS3505
ZBYN,2004-10-18 03:00,ZBYN 180300Z AUTO 14004KT 1 1/4SM 15/06 A3024 RMK SLP240 T01460065 57006 IEM_DS3505
ZBYN,2004-10-18 04:00,ZBYN 180400Z AUTO 2 1/2SM 16/03 A3021 RMK T01600030 IEM_DS3505
ZBYN,2004-10-18 05:00,ZBYN 180500Z AUTO 3SM 17/03 A3018 RMK T01700030 IEM_DS3505
ZBYN,2004-10-18 06:00,ZBYN 180600Z AUTO 22002KT 3SM 20/05 A3015 RMK SLP205 T01960049 57029 IEM_DS3505
ZBYN,2004-10-18 07:00,ZBYN 180700Z AUTO 27004KT 5SM 19/01 A3012 RMK T01900010 IEM_DS3505
ZBYN,2004-10-18 08:00,ZBYN 180800Z AUTO 30004KT 5SM 19/00 A3012 RMK T01900000 IEM_DS3505
ZBYN,2004-10-18 09:00,ZBYN 180900Z AUTO 25004KT 4SM 19/06 A3012 RMK SLP204 T01870056 57006 IEM_DS3505
ZBYN,2004-10-18 10:00,ZBYN 181000Z AUTO 00000KT 2 1/2SM 15/03 A3012 RMK T01500030 IEM_DS3505
ZBYN,2004-10-18 11:00,ZBYN 181100Z AUTO 00000KT 12/04 A3015 RMK T01200040 IEM_DS3505
ZBYN,2004-10-18 12:00,ZBYN 181200Z AUTO 09002KT 2 1/2SM 11/07 A3015 RMK SLP230 T01090067 52012 IEM_DS3505
ZBYN,2004-10-18 13:00,ZBYN 181300Z AUTO 12004KT 08/02 A3015 RMK T00800020 IEM_DS3505
ZBYN,2004-10-18 14:00,ZBYN 181400Z AUTO 00000KT 5SM 07/02 A3018 RMK T00700020 IEM_DS3505
ZBYN,2004-10-18 15:00,ZBYN 181500Z AUTO 00000KT 2SM 08/06 A3018 RMK SLP233 T00790055 52010 IEM_DS3505
ZBYN,2004-10-18 16:00,ZBYN 181600Z AUTO 00000KT 6SM 07/01 A3018 RMK T00700010 IEM_DS3505
ZBYN,2004-10-18 17:00,ZBYN 181700Z AUTO 00000KT 5SM 05/01 A3018 RMK T00500010 IEM_DS3505
ZBYN,2004-10-18 18:00,ZBYN 181800Z AUTO 14002KT 2SM 06/04 A3018 RMK SLP228 T00610041 54000 IEM_DS3505
ZBYN,2004-10-18 19:00,ZBYN 181900Z AUTO 00000KT 5SM 04/01 A3018 RMK T00400010 IEM_DS3505
ZBYN,2004-10-18 20:00,ZBYN 182000Z AUTO 00000KT 4SM 05/01 A3018 RMK T00500010 IEM_DS3505
ZBYN,2004-10-18 21:00,ZBYN 182100Z AUTO 34002KT 2SM 06/04 A3018 RMK SLP232 T00580043 52002 IEM_DS3505
ZBYN,2004-10-18 22:00,ZBYN 182200Z AUTO 05002KT 3SM 03/00 A3021 RMK T00300000 IEM_DS3505
ZBYN,2004-10-18 23:00,ZBYN 182300Z AUTO 00000KT 3SM 03/00 A3021 RMK T00300000 IEM_DS3505
ZBYN,2004-10-19 00:00,ZBYN 190000Z AUTO 00000KT 2SM 05/04 A3021 RMK SLP259 T00510041 52012 IEM_DS3505
ZBYN,2004-10-19 01:00,ZBYN 190100Z AUTO 00000KT 1 1/4SM 08/04 A3024 RMK T00800040 IEM_DS3505
ZBYN,2004-10-19 02:00,ZBYN 190200Z AUTO 00000KT 1 1/4SM 11/03 A3021 RMK T01100030 IEM_DS3505
ZBYN,2004-10-19 03:00,ZBYN 190300Z AUTO 16002KT 2 1/2SM 16/05 A3018 RMK SLP234 T01550052 57012 IEM_DS3505
ZBYN,2004-10-19 04:00,ZBYN 190400Z AUTO 2SM 16/02 A3018 RMK T01600020 IEM_DS3505
ZBYN,2004-10-19 05:00,ZBYN 190500Z AUTO 16002KT 2 1/2SM 18/02 A3012 RMK T01800020 IEM_DS3505
ZBYN,2004-10-19 06:00,ZBYN 190600Z AUTO 20004KT 4SM 21/03 A3009 RMK SLP193 T02140027 57031 IEM_DS3505
ZBYN,2004-10-19 07:00,ZBYN 190700Z AUTO 00000KT 6SM 20/M02 A3006 RMK T02001020 IEM_DS3505
ZBYN,2004-10-19 08:00,ZBYN 190800Z AUTO 00000KT 6SM 20/M02 A3006 RMK T02001020 IEM_DS3505
ZBYN,2004-10-19 09:00,ZBYN 190900Z AUTO 11002KT 5SM 20/04 A3006 RMK SLP182 T02040045 57012 IEM_DS3505
ZBYN,2004-10-19 10:00,ZBYN 191000Z AUTO 5SM 15/01 A3006 RMK T01500010 IEM_DS3505
ZBYN,2004-10-19 11:00,ZBYN 191100Z AUTO 06006KT 6SM 13/01 A3009 RMK T01300010 IEM_DS3505
ZBYN,2004-10-19 12:00,ZBYN 191200Z AUTO 09002KT 6SM 13/04 A3009 RMK SLP212 T01260043 52014 IEM_DS3505
ZBYN,2004-10-19 13:00,ZBYN 191300Z AUTO 08008KT 6SM 15/02 A3012 RMK T01500020 IEM_DS3505
ZBYN,2004-10-19 14:00,ZBYN 191400Z AUTO 09008KT 6SM 14/02 A3012 RMK T01400020 IEM_DS3505
ZBYN,2004-10-19 15:00,ZBYN 191500Z AUTO 27002KT 6SM 12/05 A3012 RMK SLP206 T01150054 52009 IEM_DS3505
ZBYN,2004-10-19 16:00,ZBYN 191600Z AUTO 08004KT 6SM 12/02 A3012 RMK T01200020 IEM_DS3505
ZBYN,2004-10-19 17:00,ZBYN 191700Z AUTO 00000KT 6SM 09/02 A3012 RMK T00900020 IEM_DS3505
ZBYN,2004-10-19 18:00,ZBYN 191800Z AUTO 00000KT 5SM 08/05 A3012 RMK SLP203 T00760051 54000 IEM_DS3505
ZBYN,2004-10-19 19:00,ZBYN 191900Z AUTO 00000KT 3SM 07/03 A3012 RMK T00700030 IEM_DS3505
ZBYN,2004-10-19 20:00,ZBYN 192000Z AUTO 00000KT 3SM 05/02 A3012 RMK T00500020 IEM_DS3505
ZBYN,2004-10-19 21:00,ZBYN 192100Z AUTO 00000KT 4SM 06/04 A3012 RMK SLP206 T00550043 57002 IEM_DS3505
ZBYN,2004-10-19 22:00,ZBYN 192200Z AUTO 00000KT 2SM 05/02 A3012 RMK T00500020 IEM_DS3505
ZBYN,2004-10-19 22:30,ZBYN 192230Z AUTO 00000KT 2SM 04/01 A3012 RMK T00400010 IEM_DS3505
ZBYN,2004-10-19 23:00,ZBYN 192300Z AUTO 00000KT 1 1/2SM 04/01 A3012 RMK T00400010 IEM_DS3505
ZBYN,2004-10-20 00:00,ZBYN 200000Z AUTO 36002KT 2SM 07/05 A3015 RMK SLP225 T00730048 52009 IEM_DS3505
ZBYN,2004-10-20 01:00,ZBYN 200100Z AUTO 00000KT 1 1/4SM 09/03 A3015 RMK T00900030 IEM_DS3505
ZBYN,2004-10-20 02:00,ZBYN 200200Z AUTO 00000KT 1 1/4SM 12/03 A3015 RMK T01200030 IEM_DS3505
ZBYN,2004-10-20 03:00,ZBYN 200300Z AUTO 14004KT 2 1/2SM 15/05 A3012 RMK SLP208 T01510051 57006 IEM_DS3505
ZBYN,2004-10-20 04:00,ZBYN 200400Z AUTO 17004KT 2SM 16/03 A3009 RMK T01600030 IEM_DS3505
ZBYN,2004-10-20 05:00,ZBYN 200500Z AUTO 20004KT 2SM 18/02 A3006 RMK T01800020 IEM_DS3505
ZBYN,2004-10-20 06:00,ZBYN 200600Z AUTO 20008KT 2 1/2SM 19/04 A3003 RMK SLP170 T01910045 57034 IEM_DS3505
ZBYN,2004-10-20 07:00,ZBYN 200700Z AUTO 23006KT 18/00 A3000 RMK T01800000 IEM_DS3505
ZBYN,2004-10-20 08:00,ZBYN 200800Z AUTO 24008KT 18/01 A3000 RMK T01800010 IEM_DS3505
ZBYN,2004-10-20 09:00,ZBYN 200900Z AUTO 32016KT 2SM 18/07 A3003 RMK SLP183 T01750067 52006 IEM_DS3505
ZBYN,2004-10-20 10:00,ZBYN 201000Z AUTO 32016KT 7SM 12/08 A3009 RMK T01200080 IEM_DS3505
ZBYN,2004-10-20 11:00,ZBYN 201100Z AUTO 32017KT 7SM 09/05 A3015 RMK T00900050 IEM_DS3505
ZBYN,2004-10-20 12:00,ZBYN 201200Z AUTO 36004KT 11SM 11/06 A3018 RMK 60002 SLP246 T01070065 52050 IEM_DS3505
ZBYN,2004-10-20 13:00,ZBYN 201300Z AUTO 34008KT 6SM 08/04 A3021 RMK T00800040 IEM_DS3505
ZBYN,2004-10-20 14:00,ZBYN 201400Z AUTO 33006KT 6SM 08/03 A3024 RMK T00800030 IEM_DS3505
ZBYN,2004-10-20 15:00,ZBYN 201500Z AUTO 34004KT 11SM 09/04 A3027 RMK SLP258 T00940036 52021 IEM_DS3505
ZBYN,2004-10-20 16:00,ZBYN 201600Z AUTO 34006KT 6SM 08/01 A3027 RMK T00800010 IEM_DS3505
ZBYN,2004-10-20 17:00,ZBYN 201700Z AUTO 33004KT 6SM 07/00 A3030 RMK T00700000 IEM_DS3505
ZBYN,2004-10-20 18:00,ZBYN 201800Z AUTO 34002KT 9SM 06/M01 A3030 RMK 60000 SLP270 T00651007 52012 IEM_DS3505
ZBYN,2004-10-20 19:00,ZBYN 201900Z AUTO 33002KT 6SM 03/M02 A3030 RMK T00301020 IEM_DS3505
ZBYN,2004-10-20 20:00,ZBYN 202000Z AUTO 00000KT 6SM 02/M01 A3030 RMK T00201010 IEM_DS3505
ZBYN,2004-10-20 21:00,ZBYN 202100Z AUTO 32002KT 9SM 05/M02 A3030 RMK 70002 SLP274 T00501023 57001 IEM_DS3505
ZBYN,2004-10-20 22:00,ZBYN 202200Z AUTO 00000KT 6SM 00/M02 A3033 RMK T00001020 IEM_DS3505
ZBYN,2004-10-20 23:00,ZBYN 202300Z AUTO 00000KT 6SM M01/M03 A3033 RMK T10101030 IEM_DS3505
ZBYN,2004-10-21 00:00,ZBYN 210000Z AUTO 32002KT 12SM 06/M03 A3036 RMK 70002 SLP305 T00591029 52019 IEM_DS3505
ZBYN,2004-10-21 01:00,ZBYN 210100Z AUTO 34004KT 6SM 07/M04 A3039 RMK T00701040 IEM_DS3505
ZBYN,2004-10-21 02:00,ZBYN 210200Z AUTO 36002KT 6SM 08/M06 A3039 RMK T00801060 IEM_DS3505
ZBYN,2004-10-21 03:00,ZBYN 210300Z AUTO 11004KT 7SM 11/M03 A3039 RMK SLP302 T01071033 52003 IEM_DS3505
ZBYN,2004-10-21 04:00,ZBYN 210400Z AUTO 21004KT 6SM 11/M06 A3036 RMK T01101060 IEM_DS3505
ZBYN,2004-10-21 05:00,ZBYN 210500Z AUTO 23004KT 6SM 12/M07 A3033 RMK T01201070 IEM_DS3505
ZBYN,2004-10-21 06:00,ZBYN 210600Z AUTO 14006KT 11SM 14/M04 A3027 RMK SLP267 T01361040 57032 IEM_DS3505
ZBYN,2004-10-21 07:00,ZBYN 210700Z AUTO 18004KT 6SM 13/M08 A3027 RMK T01301080 IEM_DS3505
ZBYN,2004-10-21 08:00,ZBYN 210800Z AUTO 17006KT 6SM 13/M09 A3027 RMK T01301090 IEM_DS3505
ZBYN,2004-10-21 09:00,ZBYN 210900Z AUTO 29008KT 12SM 15/M11 A3027 RMK SLP265 T01461108 57002 IEM_DS3505
ZBYN,2004-10-21 10:00,ZBYN 211000Z AUTO 26004KT 6SM 10/M08 A3030 RMK T01001080 IEM_DS3505
ZBYN,2004-10-21 11:00,ZBYN 211100Z AUTO 30006KT 6SM 08/M07 A3033 RMK T00801070 IEM_DS3505
ZBYN,2004-10-21 12:00,ZBYN 211200Z AUTO 32006KT 12SM 10/M07 A3033 RMK SLP301 T00951071 52026 IEM_DS3505
ZBYN,2004-10-21 13:00,ZBYN 211300Z AUTO 32010KT 6SM 08/M09 A3036 RMK T00801090 IEM_DS3505
ZBYN,2004-10-21 14:00,ZBYN 211400Z AUTO 33008KT 6SM 07/M09 A3036 RMK T00701090 IEM_DS3505
ZBYN,2004-10-21 15:00,ZBYN 211500Z AUTO 34004KT 12SM 08/M08 A3039 RMK SLP308 T00811075 52012 IEM_DS3505
ZBYN,2004-10-21 16:00,ZBYN 211600Z AUTO 00000KT 6SM 03/M07 A3039 RMK T00301070 IEM_DS3505
ZBYN,2004-10-21 17:00,ZBYN 211700Z AUTO 00000KT 6SM 01/M06 A3039 RMK T00101060 IEM_DS3505
ZBYN,2004-10-21 18:00,ZBYN 211800Z AUTO 14002KT 12SM 02/M04 A3042 RMK SLP321 T00201043 52006 IEM_DS3505
ZBYN,2004-10-21 19:00,ZBYN 211900Z AUTO 10002KT 6SM M01/M06 A3042 RMK T10101060 IEM_DS3505
ZBYN,2004-10-21 20:00,ZBYN 212000Z AUTO 09002KT 6SM M02/M06 A3039 RMK T10201060 IEM_DS3505
ZBYN,2004-10-21 21:00,ZBYN 212100Z AUTO 00000KT 7SM M01/M04 A3039 RMK SLP318 T10061038 57005 IEM_DS3505
ZBYN,2004-10-21 22:00,ZBYN 212200Z AUTO 12002KT 6SM M03/M07 A3039 RMK T10301070 IEM_DS3505
ZBYN,2004-10-21 23:00,ZBYN 212300Z AUTO 14004KT 6SM M03/M07 A3042 RMK T10301070 IEM_DS3505
ZBYN,2004-10-22 00:00,ZBYN 220000Z AUTO 11002KT 6SM M00/M03 A3042 RMK SLP341 T10011033 52014 IEM_DS3505
ZBYN,2004-10-22 01:00,ZBYN 220100Z AUTO 5SM 03/M06 A3045 RMK T00301060 IEM_DS3505
ZBYN,2004-10-22 02:00,ZBYN 220200Z AUTO 6SM 06/M07 A3045 RMK T00601070 IEM_DS3505
ZBYN,2004-10-22 03:00,ZBYN 220300Z AUTO 11002KT 6SM 10/M06 A3042 RMK SLP323 T00981056 57003 IEM_DS3505
ZBYN,2004-10-22 04:00,ZBYN 220400Z AUTO 6SM 11/M11 A3039 RMK T01101110 IEM_DS3505
ZBYN,2004-10-22 05:00,ZBYN 220500Z AUTO 6SM 13/M13 A3036 RMK T01301130 IEM_DS3505
ZBYN,2004-10-22 06:00,ZBYN 220600Z AUTO 18006KT 6SM 14/M08 A3030 RMK SLP287 T01351083 57037 IEM_DS3505
ZBYN,2004-10-22 07:00,ZBYN 220700Z AUTO 6SM 14/M17 A3027 RMK T01401170 IEM_DS3505
ZBYN,2004-10-22 08:00,ZBYN 220800Z AUTO 00000KT 6SM 13/M17 A3027 RMK T01301170 IEM_DS3505
ZBYN,2004-10-22 09:00,ZBYN 220900Z AUTO 25002KT 6SM 14/M10 A3027 RMK SLP278 T01361095 57012 IEM_DS3505
ZBYN,2004-10-22 10:00,ZBYN 221000Z AUTO 24002KT 6SM 11/M11 A3027 RMK T01101110 IEM_DS3505
ZBYN,2004-10-22 11:00,ZBYN 221100Z AUTO 14002KT 6SM 07/M08 A3027 RMK T00701080 IEM_DS3505
ZBYN,2004-10-22 12:00,ZBYN 221200Z AUTO 09004KT 6SM 08/M06 A3030 RMK SLP297 T00801061 52009 IEM_DS3505
ZBYN,2004-10-22 13:00,ZBYN 221300Z AUTO 12004KT 6SM 04/M08 A3030 RMK T00401080 IEM_DS3505
ZBYN,2004-10-22 14:00,ZBYN 221400Z AUTO 08002KT 6SM 06/M09 A3033 RMK T00601090 IEM_DS3505
ZBYN,2004-10-22 15:00,ZBYN 221500Z AUTO 27002KT 6SM 05/M04 A3033 RMK SLP292 T00511039 52007 IEM_DS3505
ZBYN,2004-10-22 16:00,ZBYN 221600Z AUTO 12004KT 6SM 03/M09 A3033 RMK T00301090 IEM_DS3505
ZBYN,2004-10-22 17:00,ZBYN 221700Z AUTO 13004KT 6SM 03/M10 A3030 RMK T00301100 IEM_DS3505
ZBYN,2004-10-22 18:00,ZBYN 221800Z AUTO 32002KT 6SM 03/M03 A3030 RMK SLP282 T00301027 57007 IEM_DS3505
ZBYN,2004-10-22 19:00,ZBYN 221900Z AUTO 00000KT 6SM M01/M08 A3030 RMK T10101080 IEM_DS3505
ZBYN,2004-10-22 20:00,ZBYN 222000Z AUTO 12004KT 6SM M01/M08 A3027 RMK T10101080 IEM_DS3505
ZBYN,2004-10-22 21:00,ZBYN 222100Z AUTO 11002KT 6SM 01/M03 A3030 RMK SLP281 T00071028 57004 IEM_DS3505
ZBYN,2004-10-22 22:00,ZBYN 222200Z AUTO 00000KT 6SM M01/M06 A3030 RMK T10101060 IEM_DS3505
ZBYN,2004-10-22 23:00,ZBYN 222300Z AUTO 00000KT 6SM 00/M06 A3030 RMK T00001060 IEM_DS3505
ZBYN,2004-10-23 00:00,ZBYN 230000Z AUTO 29002KT 4SM 04/M04 A3030 RMK SLP293 T00451040 52008 IEM_DS3505
ZBYN,2004-10-23 01:00,ZBYN 230100Z AUTO 00000KT 3SM 06/M07 A3030 RMK T00601070 IEM_DS3505
ZBYN,2004-10-23 02:00,ZBYN 230200Z AUTO 32002KT 2 1/2SM 08/M09 A3030 RMK T00801090 IEM_DS3505
ZBYN,2004-10-23 03:00,ZBYN 230300Z AUTO 11002KT 2SM 08/M05 A3030 RMK SLP291 T00851053 54000 IEM_DS3505
ZBYN,2004-10-23 04:00,ZBYN 230400Z AUTO 23002KT 2 1/2SM 08/M06 A3033 RMK T00801060 IEM_DS3505
ZBYN,2004-10-23 05:00,ZBYN 230500Z AUTO 17004KT 4SM 07/01 A3030 RMK T00700010 IEM_DS3505
ZBYN,2004-10-23 06:00,ZBYN 230600Z AUTO 16006KT 1 1/4SM 08/04 A3030 RMK SLP285 T00800039 57010 IEM_DS3505
ZBYN,2004-10-23 07:00,ZBYN 230700Z AUTO 17004KT 1 1/2SM 07/03 A3027 RMK T00700030 IEM_DS3505
ZBYN,2004-10-23 08:00,ZBYN 230800Z AUTO 19002KT 1SM 06/04 A3027 RMK T00600040 IEM_DS3505
ZBYN,2004-10-23 09:00,ZBYN 230900Z AUTO 18006KT 2 1/2SM 07/05 RMK SLP283 T00720049 57006 IEM_DS3505
ZBYN,2004-10-23 10:00,ZBYN 231000Z AUTO 15004KT 1SM 05/03 A3027 RMK T00500030 IEM_DS3505
ZBYN,2004-10-23 11:00,ZBYN 231100Z AUTO 14002KT 2SM 05/03 A3027 RMK T00500030 IEM_DS3505
ZBYN,2004-10-23 12:00,ZBYN 231200Z AUTO 14004KT 2SM 06/05 A3030 RMK 60001 SLP286 T00620047 52007 IEM_DS3505
ZBYN,2004-10-23 13:00,ZBYN 231300Z AUTO 15004KT 1 1/2SM 05/03 A3030 RMK T00500030 IEM_DS3505
ZBYN,2004-10-23 14:00,ZBYN 231400Z AUTO 00000KT 2SM 05/03 A3030 RMK T00500030 IEM_DS3505
ZBYN,2004-10-23 15:00,ZBYN 231500Z AUTO 09002KT 2SM 05/04 A3030 RMK SLP287 T00500041 52005 IEM_DS3505
ZBYN,2004-10-23 16:00,ZBYN 231600Z AUTO 15004KT 2SM 04/02 A3030 RMK T00400020 IEM_DS3505
ZBYN,2004-10-23 17:00,ZBYN 231700Z AUTO 00000KT 2SM 03/02 A3030 RMK T00300020 IEM_DS3505
ZBYN,2004-10-23 18:00,ZBYN 231800Z AUTO 14002KT 2 1/2SM 04/04 A3030 RMK SLP287 T00420036 57002 IEM_DS3505
ZBYN,2004-10-23 19:00,ZBYN 231900Z AUTO 00000KT 1 1/4SM 03/02 A3030 RMK T00300020 IEM_DS3505
ZBYN,2004-10-23 20:00,ZBYN 232000Z AUTO 00000KT 1 1/4SM 04/03 A3027 RMK T00400030 IEM_DS3505
ZBYN,2004-10-23 21:00,ZBYN 232100Z AUTO 18002KT 2SM 05/04 A3027 RMK 70002 SLP280 T00470041 57007 IEM_DS3505
ZBYN,2004-10-23 22:00,ZBYN 232200Z AUTO 00000KT 1SM 04/03 A3027 RMK T00400030 IEM_DS3505
ZBYN,2004-10-23 23:00,ZBYN 232300Z AUTO 00000KT 1SM 04/03 A3030 RMK T00400030 IEM_DS3505
ZBYN,2004-10-24 00:00,ZBYN 240000Z AUTO 14002KT 1 1/4SM 05/04 A3030 RMK 70002 SLP295 T00520040 52013 IEM_DS3505
ZBYN,2004-10-24 01:00,ZBYN 240100Z AUTO 00000KT 1SM 05/03 A3033 RMK T00500030 IEM_DS3505
ZBYN,2004-10-24 02:00,ZBYN 240200Z AUTO 00000KT 1 1/4SM 06/03 A3033 RMK T00600030 IEM_DS3505
ZBYN,2004-10-24 03:00,ZBYN 240300Z AUTO 04002KT 2SM 08/04 A3030 RMK SLP292 T00780044 54000 IEM_DS3505
ZBYN,2004-10-24 04:00,ZBYN 240400Z AUTO 21002KT 2SM 09/03 A3030 RMK T00900030 IEM_DS3505
ZBYN,2004-10-24 05:00,ZBYN 240500Z AUTO 20002KT 2SM 11/03 A3027 RMK T01100030 IEM_DS3505
ZBYN,2004-10-24 06:00,ZBYN 240600Z AUTO 16004KT 3SM 13/05 A3024 RMK SLP259 T01290049 57024 IEM_DS3505
ZBYN,2004-10-24 07:00,ZBYN 240700Z AUTO 17004KT 2 1/2SM 13/03 A3021 RMK T01300030 IEM_DS3505
ZBYN,2004-10-24 08:00,ZBYN 240800Z AUTO 20002KT 14/02 A3021 RMK T01400020 IEM_DS3505
ZBYN,2004-10-24 09:00,ZBYN 240900Z AUTO 16004KT 4SM 14/04 A3021 RMK SLP250 T01380039 57006 IEM_DS3505
ZBYN,2004-10-24 10:00,ZBYN 241000Z AUTO 16004KT 2SM 11/03 A3024 RMK T01100030 IEM_DS3505
ZBYN,2004-10-24 11:00,ZBYN 241100Z AUTO 00000KT 2 1/2SM 08/03 A3027 RMK T00800030 IEM_DS3505
ZBYN,2004-10-24 12:00,ZBYN 241200Z AUTO 32002KT 3SM 07/04 A3027 RMK SLP280 T00720045 52018 IEM_DS3505
ZBYN,2004-10-24 12:30,ZBYN 241230Z AUTO 11002KT 3SM 05/01 A3030 RMK T00500010 IEM_DS3505
ZBYN,2004-10-24 13:00,ZBYN 241300Z AUTO 13004KT 3SM 05/01 A3030 RMK T00500010 IEM_DS3505
ZBYN,2004-10-24 14:00,ZBYN 241400Z AUTO 12004KT 4SM 03/00 A3030 RMK T00300000 IEM_DS3505
ZBYN,2004-10-24 15:00,ZBYN 241500Z AUTO 18002KT 2SM 04/03 A3033 RMK SLP301 T00450033 52019 IEM_DS3505
ZBYN,2004-10-24 16:00,ZBYN 241600Z AUTO 00000KT 3SM 04/M01 A3033 RMK T00401010 IEM_DS3505
ZBYN,2004-10-24 17:00,ZBYN 241700Z AUTO 00000KT 3SM 02/M01 A3033 RMK T00201010 IEM_DS3505
ZBYN,2004-10-24 18:00,ZBYN 241800Z AUTO 32002KT 2SM 03/02 A3033 RMK SLP295 T00280019 54000 IEM_DS3505
ZBYN,2004-10-24 19:00,ZBYN 241900Z AUTO 00000KT 2SM 01/M01 A3033 RMK T00101010 IEM_DS3505
ZBYN,2004-10-24 20:00,ZBYN 242000Z AUTO 00000KT 1 1/4SM 01/00 A3036 RMK T00100000 IEM_DS3505
ZBYN,2004-10-24 21:00,ZBYN 242100Z AUTO 09002KT 1SM 02/01 A3036 RMK SLP309 T00170010 52012 IEM_DS3505
ZBYN,2004-10-24 22:00,ZBYN 242200Z AUTO 00000KT 1 1/4SM 00/M01 A3039 RMK T00001010 IEM_DS3505
ZBYN,2004-10-24 23:00,ZBYN 242300Z AUTO 00000KT 1SM 00/M01 A3042 RMK T00001010 IEM_DS3505
ZBYN,2004-10-25 00:00,ZBYN 250000Z AUTO 34002KT 1SM 02/02 A3045 RMK SLP342 T00220018 52021 IEM_DS3505
ZBYN,2004-10-25 01:00,ZBYN 250100Z AUTO 00000KT 1/2SM 04/02 A3045 RMK T00400020 IEM_DS3505
ZBYN,2004-10-25 02:00,ZBYN 250200Z AUTO 16004KT 1/2SM 07/04 A3045 RMK T00700040 IEM_DS3505
ZBYN,2004-10-25 03:00,ZBYN 250300Z AUTO 14004KT 1SM 11/05 A3047 RMK SLP340 T01110052 52008 IEM_DS3505
ZBYN,2004-10-25 04:00,ZBYN 250400Z AUTO 2 1/2SM 13/M09 A3045 RMK T01301090 IEM_DS3505
ZBYN,2004-10-25 05:00,ZBYN 250500Z AUTO 30010KT 6SM 15/M18 A3042 RMK T01501180 IEM_DS3505
ZBYN,2004-10-25 06:00,ZBYN 250600Z AUTO 29014KT 12SM 16/M14 A3042 RMK SLP316 T01561136 57018 IEM_DS3505
ZBYN,2004-10-25 07:00,ZBYN 250700Z AUTO 30012KT 6SM 14/M20 A3042 RMK T01401200 IEM_DS3505
ZBYN,2004-10-25 08:00,ZBYN 250800Z AUTO 30012KT 6SM 14/M20 A3042 RMK T01401200 IEM_DS3505
ZBYN,2004-10-25 09:00,ZBYN 250900Z AUTO 29010KT 16SM 13/M12 A3045 RMK SLP335 T01261117 52011 IEM_DS3505
ZBYN,2004-10-25 10:00,ZBYN 251000Z AUTO 33008KT 6SM 10/M12 A3047 RMK T01001120 IEM_DS3505
ZBYN,2004-10-25 11:00,ZBYN 251100Z AUTO 34012KT 6SM 08/M10 A3050 RMK T00801100 IEM_DS3505
ZBYN,2004-10-25 12:00,ZBYN 251200Z AUTO 34004KT 12SM 09/M07 A3053 RMK SLP373 T00861067 52029 IEM_DS3505
ZBYN,2004-10-25 13:00,ZBYN 251300Z AUTO 12006KT 4SM 04/00 A3056 RMK T00400000 IEM_DS3505
ZBYN,2004-10-25 14:00,ZBYN 251400Z AUTO 10002KT 4SM 02/M01 A3059 RMK T00201010 IEM_DS3505
ZBYN,2004-10-25 15:00,ZBYN 251500Z AUTO 09002KT 9SM 03/00 A3059 RMK SLP391 T00290001 52022 IEM_DS3505
ZBYN,2004-10-25 16:00,ZBYN 251600Z AUTO 07004KT 4SM 02/M01 A3059 RMK T00201010 IEM_DS3505
ZBYN,2004-10-25 17:00,ZBYN 251700Z AUTO 04004KT 4SM 00/M02 A3059 RMK T00001020 IEM_DS3505
ZBYN,2004-10-25 18:00,ZBYN 251800Z AUTO 36004KT 7SM 03/M08 A3062 RMK SLP385 T00321081 52002 IEM_DS3505
ZBYN,2004-10-25 19:00,ZBYN 251900Z AUTO 00000KT 4SM M03/M05 A3059 RMK T10301050 IEM_DS3505
ZBYN,2004-10-25 20:00,ZBYN 252000Z AUTO 00000KT 4SM M04/M05 A3059 RMK T10401050 IEM_DS3505
ZBYN,2004-10-25 21:00,ZBYN 252100Z AUTO 09002KT 7SM 02/M08 A3059 RMK SLP386 T00181075 57006 IEM_DS3505
ZBYN,2004-10-25 22:00,ZBYN 252200Z AUTO 36004KT 6SM M02/M08 A3059 RMK T10201080 IEM_DS3505
ZBYN,2004-10-25 23:00,ZBYN 252300Z AUTO 00000KT 6SM M02/M09 A3059 RMK T10201090 IEM_DS3505
ZBYN,2004-10-26 00:00,ZBYN 260000Z AUTO 25004KT 7SM 02/M07 A3059 RMK SLP401 T00201073 52007 IEM_DS3505
ZBYN,2004-10-26 01:00,ZBYN 260100Z AUTO 23004KT 2SM 00/M06 A3062 RMK T00001060 IEM_DS3505
ZBYN,2004-10-26 02:00,ZBYN 260200Z AUTO 26004KT 2 1/2SM 04/M08 A3059 RMK T00401080 IEM_DS3505
ZBYN,2004-10-26 03:00,ZBYN 260300Z AUTO 16006KT 5SM 07/M05 A3059 RMK SLP389 T00721048 57011 IEM_DS3505
ZBYN,2004-10-26 04:00,ZBYN 260400Z AUTO 28002KT 6SM 07/M12 A3053 RMK T00701120 IEM_DS3505
ZBYN,2004-10-26 05:00,ZBYN 260500Z AUTO 30004KT 6SM 09/M15 A3050 RMK T00901150 IEM_DS3505
ZBYN,2004-10-26 06:00,ZBYN 260600Z AUTO 16006KT 6SM 11/M08 A3047 RMK SLP342 T01131085 57036 IEM_DS3505
ZBYN,2004-10-26 07:00,ZBYN 260700Z AUTO 23004KT 6SM 10/M13 A3045 RMK T01001130 IEM_DS3505
ZBYN,2004-10-26 08:00,ZBYN 260800Z AUTO 21004KT 6SM 10/M14 A3042 RMK T01001140 IEM_DS3505
ZBYN,2004-10-26 09:00,ZBYN 260900Z AUTO 18004KT 6SM 10/M09 A3042 RMK SLP326 T01041092 57018 IEM_DS3505
ZBYN,2004-10-26 10:00,ZBYN 261000Z AUTO 00000KT 6SM 06/M14 A3042 RMK T00601140 IEM_DS3505
ZBYN,2004-10-26 11:00,ZBYN 261100Z AUTO 09002KT 6SM 03/M13 A3042 RMK T00301130 IEM_DS3505
ZBYN,2004-10-26 12:00,ZBYN 261200Z AUTO 11002KT 6SM 03/M07 A3042 RMK SLP340 T00331072 52001 IEM_DS3505
ZBYN,2004-10-26 13:00,ZBYN 261300Z AUTO 11004KT 6SM M01/M11 A3042 RMK T10101110 IEM_DS3505
ZBYN,2004-10-26 14:00,ZBYN 261400Z AUTO 00000KT 6SM M01/M11 A3042 RMK T10101110 IEM_DS3505
ZBYN,2004-10-26 15:00,ZBYN 261500Z AUTO 11002KT 6SM M00/M06 A3042 RMK SLP337 T10031064 54000 IEM_DS3505
ZBYN,2004-10-26 16:00,ZBYN 261600Z AUTO 11002KT 6SM M04/M11 A3039 RMK T10401110 IEM_DS3505
ZBYN,2004-10-26 17:00,ZBYN 261700Z AUTO 12004KT 6SM M05/M11 A3039 RMK T10501110 IEM_DS3505
ZBYN,2004-10-26 18:00,ZBYN 261800Z AUTO 09002KT 6SM M02/M06 A3036 RMK SLP318 T10231063 57014 IEM_DS3505
ZBYN,2004-10-26 19:00,ZBYN 261900Z AUTO 11002KT 6SM M05/M11 A3036 RMK T10501110 IEM_DS3505
ZBYN,2004-10-26 20:00,ZBYN 262000Z AUTO 10004KT 6SM M05/M11 A3033 RMK T10501110 IEM_DS3505
ZBYN,2004-10-26 21:00,ZBYN 262100Z AUTO 00000KT 6SM M04/M07 A3033 RMK SLP309 T10421070 57012 IEM_DS3505
ZBYN,2004-10-26 22:00,ZBYN 262200Z AUTO 12002KT 6SM M06/M11 A3033 RMK T10601110 IEM_DS3505
ZBYN,2004-10-26 23:00,ZBYN 262300Z AUTO 00000KT 6SM M05/M11 A3033 RMK T10501110 IEM_DS3505
ZBYN,2004-10-27 00:00,ZBYN 270000Z AUTO 00000KT 4SM M03/M07 A3033 RMK SLP321 T10281069 52001 IEM_DS3505
ZBYN,2004-10-27 01:00,ZBYN 270100Z AUTO 12002KT 2 1/2SM M01/M09 A3033 RMK T10101090 IEM_DS3505
ZBYN,2004-10-27 02:00,ZBYN 270200Z AUTO 00000KT 2 1/2SM 03/M10 A3033 RMK T00301100 IEM_DS3505
ZBYN,2004-10-27 03:00,ZBYN 270300Z AUTO 14004KT 3SM 08/M08 A3030 RMK SLP295 T00771083 57012 IEM_DS3505
ZBYN,2004-10-27 04:00,ZBYN 270400Z AUTO 08/M11 A3024 RMK T00801110 IEM_DS3505
ZBYN,2004-10-27 05:00,ZBYN 270500Z AUTO 22004KT 6SM 10/M13 A3021 RMK T01001130 IEM_DS3505
ZBYN,2004-10-27 06:00,ZBYN 270600Z AUTO 18006KT 4SM 13/M08 A3018 RMK SLP249 T01271084 57037 IEM_DS3505
ZBYN,2004-10-27 07:00,ZBYN 270700Z AUTO 20004KT 6SM 12/M13 A3015 RMK T01201130 IEM_DS3505
ZBYN,2004-10-27 08:00,ZBYN 270800Z AUTO 22002KT 6SM 12/M11 A3015 RMK T01201110 IEM_DS3505
ZBYN,2004-10-27 09:00,ZBYN 270900Z AUTO 16004KT 5SM 12/M07 A3012 RMK SLP240 T01161067 57013 IEM_DS3505
ZBYN,2004-10-27 10:00,ZBYN 271000Z AUTO 00000KT 5SM 09/M10 A3015 RMK T00901100 IEM_DS3505
ZBYN,2004-10-27 11:00,ZBYN 271100Z AUTO 10002KT 04/M08 A3015 RMK T00401080 IEM_DS3505
ZBYN,2004-10-27 12:00,ZBYN 271200Z AUTO 09002KT 4SM 05/M05 A3015 RMK SLP258 T00491051 52008 IEM_DS3505
ZBYN,2004-10-27 13:00,ZBYN 271300Z AUTO 12004KT 3SM 02/M09 A3015 RMK T00201090 IEM_DS3505
ZBYN,2004-10-27 14:00,ZBYN 271400Z AUTO 12004KT 6SM 01/M10 A3018 RMK T00101100 IEM_DS3505
ZBYN,2004-10-27 15:00,ZBYN 271500Z AUTO 11002KT 3SM 02/M04 A3018 RMK SLP253 T00231040 52008 IEM_DS3505
ZBYN,2004-10-27 16:00,ZBYN 271600Z AUTO 00000KT 6SM 01/M09 A3018 RMK T00101090 IEM_DS3505
ZBYN,2004-10-27 17:00,ZBYN 271700Z AUTO 00000KT 00/M08 A3018 RMK T00001080 IEM_DS3505
ZBYN,2004-10-27 18:00,ZBYN 271800Z AUTO 00000KT 2 1/2SM 02/M04 A3018 RMK SLP240 T00241043 57004 IEM_DS3505
ZBYN,2004-10-27 19:00,ZBYN 271900Z AUTO 00000KT 3SM 02/M06 A3015 RMK T00201060 IEM_DS3505
ZBYN,2004-10-27 21:00,ZBYN 272100Z AUTO 00000KT 2 1/2SM 01/M03 RMK SLP240 T00091030 57004 IEM_DS3505
ZBYN,2004-10-28 00:00,ZBYN 280000Z AUTO 29002KT 2 1/2SM 01/M03 RMK SLP263 T00101027 52010 IEM_DS3505
ZBYN,2004-10-28 02:00,ZBYN 280200Z AUTO 00000KT 1 1/2SM 07/M05 A3018 RMK T00701050 IEM_DS3505
ZBYN,2004-10-28 03:00,ZBYN 280300Z AUTO 07002KT 2 1/2SM 11/M03 A3018 RMK SLP246 T01091032 57004 IEM_DS3505
ZBYN,2004-10-28 04:00,ZBYN 280400Z AUTO 00000KT 3SM 11/M07 A3015 RMK T01101070 IEM_DS3505
ZBYN,2004-10-28 05:00,ZBYN 280500Z AUTO 13/M06 A3012 RMK T01301060 IEM_DS3505
ZBYN,2004-10-28 06:00,ZBYN 280600Z AUTO 11004KT 3SM 16/M02 A3009 RMK SLP206 T01581017 57028 IEM_DS3505
ZBYN,2004-10-28 07:00,ZBYN 280700Z AUTO 15/M04 A3009 RMK T01501040 IEM_DS3505
ZBYN,2004-10-28 08:00,ZBYN 280800Z AUTO 6SM 16/M03 A3006 RMK T01601030 IEM_DS3505
ZBYN,2004-10-28 09:00,ZBYN 280900Z AUTO 09002KT 4SM 16/01 A3006 RMK SLP203 T01550013 57006 IEM_DS3505
ZBYN,2004-10-28 10:00,ZBYN 281000Z AUTO 00000KT 6SM 10/M02 A3009 RMK T01001020 IEM_DS3505
ZBYN,2004-10-28 11:00,ZBYN 281100Z AUTO 09002KT 5SM 09/M01 A3009 RMK T00901010 IEM_DS3505
ZBYN,2004-10-28 12:00,ZBYN 281200Z AUTO 14002KT 4SM 08/02 A3012 RMK SLP236 T00760021 52018 IEM_DS3505
ZBYN,2004-10-28 13:00,ZBYN 281300Z AUTO 15002KT 6SM 07/M02 A3012 RMK T00701020 IEM_DS3505
ZBYN,2004-10-28 14:00,ZBYN 281400Z AUTO 11006KT 5SM 06/M03 A3015 RMK T00601030 IEM_DS3505
ZBYN,2004-10-28 15:00,ZBYN 281500Z AUTO 00000KT 4SM 05/01 A3018 RMK SLP239 T00510012 52014 IEM_DS3505
ZBYN,2004-10-28 16:00,ZBYN 281600Z AUTO 00000KT 04/M03 A3018 RMK T00401030 IEM_DS3505
ZBYN,2004-10-28 17:00,ZBYN 281700Z AUTO 00000KT 03/M03 A3018 RMK T00301030 IEM_DS3505
ZBYN,2004-10-28 18:00,ZBYN 281800Z AUTO 00000KT 4SM 03/00 A3018 RMK SLP237 T00310002 52003 IEM_DS3505
ZBYN,2004-10-28 19:00,ZBYN 281900Z AUTO 00000KT 3SM 02/M03 A3018 RMK T00201030 IEM_DS3505
ZBYN,2004-10-28 20:00,ZBYN 282000Z AUTO 00000KT 2SM 01/M03 A3018 RMK T00101030 IEM_DS3505
ZBYN,2004-10-28 21:00,ZBYN 282100Z AUTO 14002KT 2SM 02/00 A3018 RMK SLP242 T00160001 52002 IEM_DS3505
ZBYN,2004-10-28 22:00,ZBYN 282200Z AUTO 00000KT 2SM 00/M03 A3018 RMK T00001030 IEM_DS3505
ZBYN,2004-10-28 23:00,ZBYN 282300Z AUTO 00000KT 1 1/4SM 00/M03 A3018 RMK T00001030 IEM_DS3505
ZBYN,2004-10-29 00:00,ZBYN 290000Z AUTO 36002KT 1 1/4SM 05/M00 A3021 RMK SLP259 T00531001 52009 IEM_DS3505
ZBYN,2004-10-29 01:00,ZBYN 290100Z AUTO 00000KT 1SM 04/00 A3021 RMK T00400000 IEM_DS3505
ZBYN,2004-10-29 02:00,ZBYN 290200Z AUTO 32006KT 1SM 09/M01 A3021 RMK T00901010 IEM_DS3505
ZBYN,2004-10-29 03:00,ZBYN 290300Z AUTO 04002KT 3SM 12/M00 A3021 RMK SLP249 T01171001 57003 IEM_DS3505
ZBYN,2004-10-29 04:00,ZBYN 290400Z AUTO 00000KT 1 1/4SM 13/00 A3018 RMK T01300000 IEM_DS3505
ZBYN,2004-10-29 05:00,ZBYN 290500Z AUTO 00000KT 2 1/2SM 15/00 A3015 RMK T01500000 IEM_DS3505
ZBYN,2004-10-29 06:00,ZBYN 290600Z AUTO 20002KT 3SM 18/02 A3012 RMK SLP213 T01790019 57027 IEM_DS3505
ZBYN,2004-10-29 07:00,ZBYN 290700Z AUTO 00000KT 3SM 16/00 A3012 RMK T01600000 IEM_DS3505
ZBYN,2004-10-29 08:00,ZBYN 290800Z AUTO 24002KT 3SM 16/01 A3012 RMK T01600010 IEM_DS3505
ZBYN,2004-10-29 09:00,ZBYN 290900Z AUTO 18004KT 2 1/2SM 16/04 A3012 RMK SLP215 T01570041 57003 IEM_DS3505
ZBYN,2004-10-29 10:00,ZBYN 291000Z AUTO 18002KT 2SM 12/01 A3012 RMK T01200010 IEM_DS3505
ZBYN,2004-10-29 11:00,ZBYN 291100Z AUTO 12004KT 1 1/2SM 08/01 A3015 RMK T00800010 IEM_DS3505
ZBYN,2004-10-29 12:00,ZBYN 291200Z AUTO 18002KT 2 1/2SM 09/04 A3015 RMK SLP235 T00940038 52014 IEM_DS3505
ZBYN,2004-10-29 13:00,ZBYN 291300Z AUTO 12004KT 1 1/2SM 07/01 A3018 RMK T00700010 IEM_DS3505
ZBYN,2004-10-29 14:00,ZBYN 291400Z AUTO 00000KT 1 1/2SM 06/01 A3018 RMK T00600010 IEM_DS3505
ZBYN,2004-10-29 15:00,ZBYN 291500Z AUTO 04002KT 2 1/2SM 07/04 A3018 RMK SLP236 T00690037 52007 IEM_DS3505
ZBYN,2004-10-29 16:00,ZBYN 291600Z AUTO 00000KT 1 1/4SM 06/01 A3018 RMK T00600010 IEM_DS3505
ZBYN,2004-10-29 17:00,ZBYN 291700Z AUTO 12004KT 1 1/2SM 05/01 A3018 RMK T00500010 IEM_DS3505
ZBYN,2004-10-29 18:00,ZBYN 291800Z AUTO 25002KT 1 1/4SM 06/04 A3018 RMK SLP226 T00630036 57001 IEM_DS3505
ZBYN,2004-10-29 19:00,ZBYN 291900Z AUTO 00000KT 1 1/4SM 04/00 A3015 RMK T00400000 IEM_DS3505
ZBYN,2004-10-29 20:00,ZBYN 292000Z AUTO 00000KT 1 1/4SM 03/00 A3015 RMK T00300000 IEM_DS3505
ZBYN,2004-10-29 21:00,ZBYN 292100Z AUTO 25002KT 1 1/4SM 06/04 A3015 RMK SLP222 T00620042 57007 IEM_DS3505
ZBYN,2004-10-29 22:00,ZBYN 292200Z AUTO 00000KT 1 1/4SM 06/02 A3015 RMK T00600020 IEM_DS3505
ZBYN,2004-10-29 23:00,ZBYN 292300Z AUTO 00000KT 1 1/4SM 05/02 A3015 RMK T00500020 IEM_DS3505
ZBYN,2004-10-30 00:00,ZBYN 300000Z AUTO 00000KT 1 1/4SM 08/06 A3018 RMK SLP238 T00770057 52007 IEM_DS3505
ZBYN,2004-10-30 01:00,ZBYN 300100Z AUTO 00000KT 1SM 08/03 A3018 RMK T00800030 IEM_DS3505
ZBYN,2004-10-30 02:00,ZBYN 300200Z AUTO 00000KT 1SM 08/03 A3018 RMK T00800030 IEM_DS3505
ZBYN,2004-10-30 03:00,ZBYN 300300Z AUTO 32004KT 1SM 10/06 A3018 RMK SLP238 T01020062 54000 IEM_DS3505
ZBYN,2004-10-30 04:00,ZBYN 300400Z AUTO 31004KT 1/2SM 11/05 A3015 RMK T01100050 IEM_DS3505
ZBYN,2004-10-30 05:00,ZBYN 300500Z AUTO 00000KT 1/2SM 12/05 A3012 RMK T01200050 IEM_DS3505
ZBYN,2004-10-30 06:00,ZBYN 300600Z AUTO 34004KT 1SM 12/08 A3009 RMK SLP211 T01170076 57023 IEM_DS3505
ZBYN,2004-10-30 07:00,ZBYN 300700Z AUTO 30002KT 1/2SM 11/06 A3009 RMK T01100060 IEM_DS3505
ZBYN,2004-10-30 08:00,ZBYN 300800Z AUTO 30002KT 3/8SM 10/07 A3009 RMK T01000070 IEM_DS3505
ZBYN,2004-10-30 09:00,ZBYN 300900Z AUTO 02002KT 1SM 11/09 A3009 RMK SLP210 T01060087 57003 IEM_DS3505
ZBYN,2004-10-30 10:00,ZBYN 301000Z AUTO 11002KT 1/2SM 09/08 A3009 RMK T00900080 IEM_DS3505
ZBYN,2004-10-30 11:00,ZBYN 301100Z AUTO 11002KT 3/8SM 09/08 A3009 RMK T00900080 IEM_DS3505
ZBYN,2004-10-30 12:00,ZBYN 301200Z AUTO 32002KT 1 1/4SM 10/08 A3009 RMK 60001 SLP207 T01010079 57001 IEM_DS3505
ZBYN,2004-10-30 13:00,ZBYN 301300Z AUTO 28004KT 3/8SM 09/07 A3009 RMK T00900070 IEM_DS3505
ZBYN,2004-10-30 15:00,ZBYN 301500Z AUTO 27002KT 1 1/4SM 09/09 RMK SLP216 T00940088 52011 IEM_DS3505
ZBYN,2004-10-30 17:00,ZBYN 301700Z AUTO 24004KT 1/4SM 08/07 A3012 RMK T00800070 IEM_DS3505
ZBYN,2004-10-30 18:00,ZBYN 301800Z AUTO 22002KT 1SM 10/09 RMK 60035 SLP206 T00950092 57007 IEM_DS3505
ZBYN,2004-10-30 19:00,ZBYN 301900Z AUTO 21002KT 1/4SM 08/08 A3009 RMK T00800080 IEM_DS3505
ZBYN,2004-10-30 20:00,ZBYN 302000Z AUTO 25004KT 1/4SM 08/08 A3009 RMK T00800080 IEM_DS3505
ZBYN,2004-10-30 21:00,ZBYN 302100Z AUTO 25002KT 1SM 09/09 A3009 RMK 70040 SLP207 T00930090 57001 IEM_DS3505
ZBYN,2004-10-30 22:00,ZBYN 302200Z AUTO 00000KT 1/4SM 08/07 A3009 RMK T00800070 IEM_DS3505
ZBYN,2004-10-30 23:00,ZBYN 302300Z AUTO 00000KT 1/8SM 07/06 A3009 RMK T00700060 IEM_DS3505
ZBYN,2004-10-31 00:00,ZBYN 310000Z AUTO 20004KT 1/8SM 06/06 A3012 RMK 70036 SLP223 T00640058 52010 IEM_DS3505
ZBYN,2004-10-31 01:00,ZBYN 310100Z AUTO 00000KT 0SM 06/05 A3012 RMK T00600050 IEM_DS3505
ZBYN,2004-10-31 02:00,ZBYN 310200Z AUTO 00000KT 1/2SM 08/08 A3012 RMK T00800080 IEM_DS3505
ZBYN,2004-10-31 03:00,ZBYN 310300Z AUTO 18004KT 1SM 12/08 A3012 RMK SLP210 T01220075 57004 IEM_DS3505
ZBYN,2004-10-31 04:00,ZBYN 310400Z AUTO 19004KT 6SM 13/03 A3009 RMK T01300030 IEM_DS3505
ZBYN,2004-10-31 05:00,ZBYN 310500Z AUTO 21006KT 6SM 14/01 A3006 RMK T01400010 IEM_DS3505
ZBYN,2004-10-31 06:00,ZBYN 310600Z AUTO 22006KT 12SM 14/04 A3003 RMK SLP175 T01430035 57029 IEM_DS3505
ZBYN,2004-10-31 07:00,ZBYN 310700Z AUTO 32008KT 7SM 12/01 A3000 RMK T01200010 IEM_DS3505
ZBYN,2004-10-31 08:00,ZBYN 310800Z AUTO 32025G35KT 7SM 09/01 A3006 RMK T00900010 IEM_DS3505
ZBYN,2004-10-31 09:00,ZBYN 310900Z AUTO 36008KT 16SM 10/00 A3009 RMK SLP203 T01030004 52019 IEM_DS3505
ZBYN,2004-10-31 10:00,ZBYN 311000Z AUTO 29008KT 6SM 08/M02 A3009 RMK T00801020 IEM_DS3505
ZBYN,2004-10-31 11:00,ZBYN 311100Z AUTO 28002KT 6SM 07/M02 A3012 RMK T00701020 IEM_DS3505
ZBYN,2004-10-31 12:00,ZBYN 311200Z AUTO 29002KT 16SM 06/00 A3012 RMK SLP232 T00640001 52016 IEM_DS3505
ZBYN,2004-10-31 13:00,ZBYN 311300Z AUTO 30004KT 6SM 05/M04 A3015 RMK T00501040 IEM_DS3505
ZBYN,2004-10-31 14:00,ZBYN 311400Z AUTO 29008KT 6SM 06/M04 A3015 RMK T00601040 IEM_DS3505
ZBYN,2004-10-31 15:00,ZBYN 311500Z AUTO 32002KT 16SM 06/M01 A3015 RMK SLP229 T00581013 52005 IEM_DS3505
ZBYN,2004-10-31 16:00,ZBYN 311600Z AUTO 30012KT 6SM 05/M03 A3012 RMK T00501030 IEM_DS3505
ZBYN,2004-10-31 17:00,ZBYN 311700Z AUTO 30010KT 6SM 04/M04 A3012 RMK T00401040 IEM_DS3505
ZBYN,2004-10-31 18:00,ZBYN 311800Z AUTO 32008KT 16SM 06/M02 A3012 RMK SLP216 T00551025 57009 IEM_DS3505
ZBYN,2004-10-31 19:00,ZBYN 311900Z AUTO 24002KT 6SM 03/M04 A3012 RMK T00301040 IEM_DS3505
ZBYN,2004-10-31 20:00,ZBYN 312000Z AUTO 29002KT 6SM 04/M05 A3012 RMK T00401050 IEM_DS3505
ZBYN,2004-10-31 21:00,ZBYN 312100Z AUTO 22002KT 12SM 05/M03 A3012 RMK SLP226 T00461027 52002 IEM_DS3505
ZBYN,2004-10-31 22:00,ZBYN 312200Z AUTO 10002KT 6SM 00/M03 A3015 RMK T00001030 IEM_DS3505
ZBYN,2004-10-31 23:00,ZBYN 312300Z AUTO 6SM M01/M04 A3015 RMK T10101040 IEM_DS3505
ZBYN,2004-11-01 00:00,ZBYN 010000Z AUTO 14002KT 12SM 03/M01 A3015 RMK SLP248 T00321013 52012 IEM_DS3505
ZBYN,2004-11-01 01:00,ZBYN 010100Z AUTO 14002KT 6SM 03/M02 A3018 RMK T00301020 IEM_DS3505
ZBYN,2004-11-01 02:00,ZBYN 010200Z AUTO 18002KT 06/M03 A3018 RMK T00601030 IEM_DS3505
ZBYN,2004-11-01 03:00,ZBYN 010300Z AUTO 14004KT 12SM 10/M01 A3015 RMK SLP234 T00991006 57004 IEM_DS3505
ZBYN,2004-11-01 04:00,ZBYN 010400Z AUTO 20004KT 6SM 10/M04 A3015 RMK T01001040 IEM_DS3505
ZBYN,2004-11-01 05:00,ZBYN 010500Z AUTO 22004KT 6SM 11/M04 A3012 RMK T01101040 IEM_DS3505
ZBYN,2004-11-01 06:00,ZBYN 010600Z AUTO 20008KT 12SM 13/M00 A3009 RMK SLP201 T01321004 57025 IEM_DS3505
ZBYN,2004-11-01 07:00,ZBYN 010700Z AUTO 22006KT 6SM 12/M04 A3006 RMK T01201040 IEM_DS3505
ZBYN,2004-11-01 08:00,ZBYN 010800Z AUTO 22004KT 6SM 12/M04 A3006 RMK T01201040 IEM_DS3505
ZBYN,2004-11-01 09:00,ZBYN 010900Z AUTO 29008KT 12SM 13/M03 A3006 RMK SLP199 T01281034 57004 IEM_DS3505
ZBYN,2004-11-01 10:00,ZBYN 011000Z AUTO 27004KT 6SM 09/M03 A3006 RMK T00901030 IEM_DS3505
ZBYN,2004-11-01 11:00,ZBYN 011100Z AUTO 30004KT 6SM 07/M04 A3009 RMK T00701040 IEM_DS3505
ZBYN,2004-11-01 12:00,ZBYN 011200Z AUTO 32006KT 11SM 10/M04 A3012 RMK SLP229 T00961036 52020 IEM_DS3505
ZBYN,2004-11-01 13:00,ZBYN 011300Z AUTO 34006KT 6SM 07/M05 A3012 RMK T00701050 IEM_DS3505
ZBYN,2004-11-01 14:00,ZBYN 011400Z AUTO 11002KT 6SM 03/M04 A3015 RMK T00301040 IEM_DS3505
ZBYN,2004-11-01 15:00,ZBYN 011500Z AUTO 16002KT 9SM 05/M02 A3015 RMK SLP234 T00511020 52008 IEM_DS3505
ZBYN,2004-11-01 16:00,ZBYN 011600Z AUTO 00000KT 6SM 01/M02 A3015 RMK T00101020 IEM_DS3505
ZBYN,2004-11-01 17:00,ZBYN 011700Z AUTO 11002KT 6SM 00/M03 A3015 RMK T00001030 IEM_DS3505
ZBYN,2004-11-01 18:00,ZBYN 011800Z AUTO 14002KT 6SM 01/M01 A3015 RMK SLP229 T00141010 57005 IEM_DS3505
ZBYN,2004-11-01 19:00,ZBYN 011900Z AUTO 09002KT 6SM M01/M04 A3012 RMK T10101040 IEM_DS3505
ZBYN,2004-11-01 20:00,ZBYN 012000Z AUTO 06002KT 6SM M01/M03 A3012 RMK T10101030 IEM_DS3505
ZBYN,2004-11-01 21:00,ZBYN 012100Z AUTO 16002KT 6SM M00/M02 A3012 RMK SLP228 T10051018 57004 IEM_DS3505
ZBYN,2004-11-01 22:00,ZBYN 012200Z AUTO 00000KT 6SM M02/M04 A3012 RMK T10201040 IEM_DS3505
ZBYN,2004-11-01 23:00,ZBYN 012300Z AUTO 00000KT 6SM M02/M04 A3015 RMK T10201040 IEM_DS3505
ZBYN,2004-11-02 00:00,ZBYN 020000Z AUTO 22002KT 6SM M00/M01 A3015 RMK SLP245 T10011008 52011 IEM_DS3505
ZBYN,2004-11-02 01:00,ZBYN 020100Z AUTO 00000KT 4SM 03/M01 A3015 RMK T00301010 IEM_DS3505
ZBYN,2004-11-02 02:00,ZBYN 020200Z AUTO 00000KT 5SM 05/M02 A3015 RMK T00501020 IEM_DS3505
ZBYN,2004-11-02 03:00,ZBYN 020300Z AUTO 14004KT 5SM 09/M01 A3015 RMK SLP234 T00911013 57003 IEM_DS3505
ZBYN,2004-11-02 04:00,ZBYN 020400Z AUTO 18004KT 6SM 10/M05 A3012 RMK T01001050 IEM_DS3505
ZBYN,2004-11-02 05:00,ZBYN 020500Z AUTO 22004KT 6SM 12/M05 A3009 RMK T01201050 IEM_DS3505
ZBYN,2004-11-02 06:00,ZBYN 020600Z AUTO 14004KT 6SM 14/M02 A3006 RMK SLP203 T01361019 57027 IEM_DS3505
ZBYN,2004-11-02 07:00,ZBYN 020700Z AUTO 19004KT 6SM 14/M05 A3006 RMK T01401050 IEM_DS3505
ZBYN,2004-11-02 08:00,ZBYN 020800Z AUTO 20004KT 6SM 14/M05 A3003 RMK T01401050 IEM_DS3505
ZBYN,2004-11-02 09:00,ZBYN 020900Z AUTO 11004KT 4SM 13/01 A3003 RMK SLP198 T01310008 57008 IEM_DS3505
ZBYN,2004-11-02 10:00,ZBYN 021000Z AUTO 00000KT 6SM 08/M03 A3003 RMK T00801030 IEM_DS3505
ZBYN,2004-11-02 11:00,ZBYN 021100Z AUTO 00000KT 6SM 07/M02 A3006 RMK T00701020 IEM_DS3505
ZBYN,2004-11-02 12:00,ZBYN 021200Z AUTO 32002KT 3SM 08/01 A3006 RMK SLP220 T00760013 52012 IEM_DS3505
ZBYN,2004-11-02 13:00,ZBYN 021300Z AUTO 12004KT 6SM 03/M02 A3009 RMK T00301020 IEM_DS3505
ZBYN,2004-11-02 14:00,ZBYN 021400Z AUTO 10002KT 6SM 02/M03 A3009 RMK T00201030 IEM_DS3505
ZBYN,2004-11-02 15:00,ZBYN 021500Z AUTO 29002KT 3SM 04/01 A3009 RMK SLP222 T00380009 52010 IEM_DS3505
ZBYN,2004-11-02 16:00,ZBYN 021600Z AUTO 00000KT 6SM 01/M03 A3009 RMK T00101030 IEM_DS3505
ZBYN,2004-11-02 18:00,ZBYN 021800Z AUTO 14002KT 4SM 02/M00 A3012 RMK SLP220 T00171001 52002 IEM_DS3505
ZBYN,2004-11-02 19:00,ZBYN 021900Z AUTO 00000KT 6SM 00/M03 A3009 RMK T00001030 IEM_DS3505
ZBYN,2004-11-02 20:00,ZBYN 022000Z AUTO 00000KT 5SM 00/M03 A3009 RMK T00001030 IEM_DS3505
ZBYN,2004-11-02 21:00,ZBYN 022100Z AUTO 18002KT 2 1/2SM 00/M00 A3009 RMK SLP219 T00031005 57004 IEM_DS3505
ZBYN,2004-11-02 22:00,ZBYN 022200Z AUTO 00000KT 5SM M01/M04 A3009 RMK T10101040 IEM_DS3505
ZBYN,2004-11-02 23:00,ZBYN 022300Z AUTO 00000KT 2 1/2SM M01/M03 A3012 RMK T10101030 IEM_DS3505
ZBYN,2004-11-03 00:00,ZBYN 030000Z AUTO 32002KT 1 1/4SM 01/M00 A3015 RMK SLP242 T00141005 52014 IEM_DS3505
ZBYN,2004-11-03 01:00,ZBYN 030100Z AUTO 00000KT 2SM 02/M01 A3015 RMK T00201010 IEM_DS3505
ZBYN,2004-11-03 02:00,ZBYN 030200Z AUTO 00000KT 2SM 06/M02 A3015 RMK T00601020 IEM_DS3505
ZBYN,2004-11-03 03:00,ZBYN 030300Z AUTO 14002KT 2SM 10/M00 A3012 RMK SLP229 T01021003 57004 IEM_DS3505
ZBYN,2004-11-03 04:00,ZBYN 030400Z AUTO 21002KT 3SM 11/M02 A3009 RMK T01101020 IEM_DS3505
ZBYN,2004-11-03 05:00,ZBYN 030500Z AUTO 21002KT 2 1/2SM 13/M03 A3006 RMK T01301030 IEM_DS3505
ZBYN,2004-11-03 06:00,ZBYN 030600Z AUTO 16006KT 3SM 16/00 A3003 RMK SLP186 T01630001 57033 IEM_DS3505
ZBYN,2004-11-03 07:00,ZBYN 030700Z AUTO 14002KT 16/M02 A3000 RMK T01601020 IEM_DS3505
ZBYN,2004-11-03 08:00,ZBYN 030800Z AUTO 6SM 16/M03 A3000 RMK T01601030 IEM_DS3505
ZBYN,2004-11-03 09:00,ZBYN 030900Z AUTO 14002KT 4SM 15/03 A3000 RMK SLP183 T01480027 57007 IEM_DS3505
ZBYN,2004-11-03 10:00,ZBYN 031000Z AUTO 11002KT 6SM 11/M01 A3000 RMK T01101010 IEM_DS3505
ZBYN,2004-11-03 11:00,ZBYN 031100Z AUTO 00000KT 6SM 08/00 A3003 RMK T00800000 IEM_DS3505
ZBYN,2004-11-03 12:00,ZBYN 031200Z AUTO 27002KT 5SM 09/04 A3006 RMK SLP208 T00900036 52015 IEM_DS3505
ZBYN,2004-11-03 13:00,ZBYN 031300Z AUTO 12002KT 6SM 06/00 A3006 RMK T00600000 IEM_DS3505
ZBYN,2004-11-03 13:30,ZBYN 031330Z AUTO 13004KT 6SM 05/00 A3006 RMK T00500000 IEM_DS3505
ZBYN,2004-11-03 14:00,ZBYN 031400Z AUTO 00000KT 6SM 06/00 A3006 RMK T00600000 IEM_DS3505
ZBYN,2004-11-03 15:00,ZBYN 031500Z AUTO 32002KT 4SM 06/03 A3006 RMK SLP207 T00620027 52009 IEM_DS3505
ZBYN,2004-11-03 16:00,ZBYN 031600Z AUTO 00000KT 2 1/2SM 04/00 A3009 RMK T00400000 IEM_DS3505
ZBYN,2004-11-03 17:00,ZBYN 031700Z AUTO 00000KT 2SM 03/00 A3006 RMK T00300000 IEM_DS3505
ZBYN,2004-11-03 18:00,ZBYN 031800Z AUTO 11002KT 4SM 04/02 A3006 RMK SLP198 T00360020 57003 IEM_DS3505
ZBYN,2004-11-03 19:00,ZBYN 031900Z AUTO 00000KT 2SM 02/00 A3006 RMK T00200000 IEM_DS3505
ZBYN,2004-11-03 20:00,ZBYN 032000Z AUTO 00000KT 1 1/4SM 01/M01 A3006 RMK T00101010 IEM_DS3505
ZBYN,2004-11-03 21:00,ZBYN 032100Z AUTO 00000KT 4SM 02/01 A3006 RMK SLP203 T00170008 57001 IEM_DS3505
ZBYN,2004-11-03 22:00,ZBYN 032200Z AUTO 00000KT 1 1/4SM 01/M01 A3006 RMK T00101010 IEM_DS3505
ZBYN,2004-11-03 23:00,ZBYN 032300Z AUTO 00000KT 1SM M01/M02 A3006 RMK T10101020 IEM_DS3505
ZBYN,2004-11-04 00:00,ZBYN 040000Z AUTO 00000KT 1 1/4SM 02/01 A3006 RMK SLP216 T00150009 52003 IEM_DS3505
ZBYN,2004-11-04 01:00,ZBYN 040100Z AUTO 00000KT 1SM 04/01 A3009 RMK T00400010 IEM_DS3505
ZBYN,2004-11-04 02:00,ZBYN 040200Z AUTO 00000KT 1SM 07/01 A3006 RMK T00700010 IEM_DS3505
ZBYN,2004-11-04 03:00,ZBYN 040300Z AUTO 14004KT 2SM 11/03 A3006 RMK SLP196 T01130031 57007 IEM_DS3505
ZBYN,2004-11-04 04:00,ZBYN 040400Z AUTO 14002KT 1 1/4SM 12/00 A3003 RMK T01200000 IEM_DS3505
ZBYN,2004-11-04 05:00,ZBYN 040500Z AUTO 20002KT 2SM 15/02 A3000 RMK T01500020 IEM_DS3505
ZBYN,2004-11-04 06:00,ZBYN 040600Z AUTO 20004KT 2 1/2SM 15/04 A2997 RMK SLP170 T01510045 57022 IEM_DS3505
ZBYN,2004-11-04 07:00,ZBYN 040700Z AUTO 28004KT 2 1/2SM 17/M01 A2997 RMK T01701010 IEM_DS3505
ZBYN,2004-11-04 08:00,ZBYN 040800Z AUTO 24004KT 2SM 16/02 A3000 RMK T01600020 IEM_DS3505
ZBYN,2004-11-04 09:00,ZBYN 040900Z AUTO 32008KT 11SM 17/M04 A3003 RMK SLP184 T01671045 52012 IEM_DS3505
ZBYN,2004-11-04 10:00,ZBYN 041000Z AUTO 25004KT 6SM 13/M06 A3006 RMK T01301060 IEM_DS3505
ZBYN,2004-11-04 11:00,ZBYN 041100Z AUTO 30010KT 6SM 12/M07 A3006 RMK T01201070 IEM_DS3505
ZBYN,2004-11-04 12:00,ZBYN 041200Z AUTO 29006KT 12SM 12/M04 A3012 RMK SLP229 T01231035 52034 IEM_DS3505
ZBYN,2004-11-04 13:00,ZBYN 041300Z AUTO 31012KT 6SM 10/M07 A3015 RMK T01001070 IEM_DS3505
ZBYN,2004-11-04 14:00,ZBYN 041400Z AUTO 30006KT 6SM 07/M06 A3018 RMK T00701060 IEM_DS3505
ZBYN,2004-11-04 15:00,ZBYN 041500Z AUTO 32004KT 12SM 08/M04 A3018 RMK SLP244 T00761035 52021 IEM_DS3505
ZBYN,2004-11-04 16:00,ZBYN 041600Z AUTO 33006KT 6SM 05/M04 A3021 RMK T00501040 IEM_DS3505
ZBYN,2004-11-04 17:00,ZBYN 041700Z AUTO 33004KT 6SM 03/M04 A3021 RMK T00301040 IEM_DS3505
ZBYN,2004-11-04 18:00,ZBYN 041800Z AUTO 34004KT 11SM 05/M03 A3021 RMK SLP246 T00531032 52005 IEM_DS3505
ZBYN,2004-11-04 19:00,ZBYN 041900Z AUTO 32006KT 6SM 02/M05 A3021 RMK T00201050 IEM_DS3505
ZBYN,2004-11-04 20:00,ZBYN 042000Z AUTO 32004KT 6SM 00/M06 A3021 RMK T00001060 IEM_DS3505
ZBYN,2004-11-04 21:00,ZBYN 042100Z AUTO 32004KT 11SM 02/M04 A3021 RMK SLP255 T00221037 52005 IEM_DS3505
ZBYN,2004-11-04 22:00,ZBYN 042200Z AUTO 11002KT 6SM M01/M06 A3024 RMK T10101060 IEM_DS3505
ZBYN,2004-11-04 23:00,ZBYN 042300Z AUTO 14004KT 6SM M04/M07 A3024 RMK T10401070 IEM_DS3505
ZBYN,2004-11-05 00:00,ZBYN 050000Z AUTO 16004KT 11SM 01/M04 A3024 RMK SLP270 T00121040 52006 IEM_DS3505
ZBYN,2004-11-05 01:00,ZBYN 050100Z AUTO 00000KT 6SM 02/M05 A3024 RMK T00201050 IEM_DS3505
ZBYN,2004-11-05 02:00,ZBYN 050200Z AUTO 6SM 05/M07 A3024 RMK T00501070 IEM_DS3505
ZBYN,2004-11-05 03:00,ZBYN 050300Z AUTO 18004KT 6SM 08/M05 A3021 RMK SLP259 T00761051 57008 IEM_DS3505
ZBYN,2004-11-05 04:00,ZBYN 050400Z AUTO 23004KT 6SM 08/M09 A3021 RMK T00801090 IEM_DS3505
ZBYN,2004-11-05 05:00,ZBYN 050500Z AUTO 24004KT 6SM 10/M09 A3015 RMK T01001090 IEM_DS3505
ZBYN,2004-11-05 06:00,ZBYN 050600Z AUTO 20008KT 6SM 12/M04 A3012 RMK SLP218 T01201045 57034 IEM_DS3505
ZBYN,2004-11-05 07:00,ZBYN 050700Z AUTO 24004KT 6SM 12/M09 A3009 RMK T01201090 IEM_DS3505
ZBYN,2004-11-05 08:00,ZBYN 050800Z AUTO 24004KT 6SM 13/M10 A3009 RMK T01301100 IEM_DS3505
ZBYN,2004-11-05 09:00,ZBYN 050900Z AUTO 25002KT 11SM 13/M05 A3009 RMK SLP212 T01281052 57009 IEM_DS3505
ZBYN,2004-11-05 10:00,ZBYN 051000Z AUTO 00000KT 6SM 08/M07 A3009 RMK T00801070 IEM_DS3505
ZBYN,2004-11-05 11:00,ZBYN 051100Z AUTO 34006KT 6SM 06/M07 A3009 RMK T00601070 IEM_DS3505
ZBYN,2004-11-05 12:00,ZBYN 051200Z AUTO 32002KT 11SM 07/M06 A3012 RMK SLP233 T00711055 52009 IEM_DS3505
ZBYN,2004-11-05 13:00,ZBYN 051300Z AUTO 01006KT 6SM 05/M07 A3009 RMK T00501070 IEM_DS3505
ZBYN,2004-11-05 14:00,ZBYN 051400Z AUTO 13004KT 6SM 02/M06 A3012 RMK T00201060 IEM_DS3505
ZBYN,2004-11-05 15:00,ZBYN 051500Z AUTO 09004KT 9SM 03/M04 A3012 RMK SLP225 T00281037 57004 IEM_DS3505
ZBYN,2004-11-05 16:00,ZBYN 051600Z AUTO 09004KT 6SM 01/M06 A3009 RMK T00101060 IEM_DS3505
ZBYN,2004-11-05 17:00,ZBYN 051700Z AUTO 11002KT 6SM 00/M06 A3009 RMK T00001060 IEM_DS3505
ZBYN,2004-11-05 18:00,ZBYN 051800Z AUTO 25002KT 9SM 01/M04 A3006 RMK SLP212 T00101035 57008 IEM_DS3505
ZBYN,2004-11-05 19:00,ZBYN 051900Z AUTO 00000KT 6SM 00/M06 A3006 RMK T00001060 IEM_DS3505
ZBYN,2004-11-05 20:00,ZBYN 052000Z AUTO 00000KT 6SM M02/M06 A3003 RMK T10201060 IEM_DS3505
ZBYN,2004-11-05 21:00,ZBYN 052100Z AUTO 00000KT 6SM M00/M03 A3003 RMK SLP198 T10031033 57013 IEM_DS3505
ZBYN,2004-11-05 22:00,ZBYN 052200Z AUTO 00000KT 6SM M02/M07 A3003 RMK T10201070 IEM_DS3505
ZBYN,2004-11-05 23:00,ZBYN 052300Z AUTO 00000KT 6SM M03/M06 A3003 RMK T10301060 IEM_DS3505
ZBYN,2004-11-06 00:00,ZBYN 060000Z AUTO 32002KT 5SM 01/M03 A3003 RMK SLP207 T00071030 54000 IEM_DS3505
ZBYN,2004-11-06 01:00,ZBYN 060100Z AUTO 00000KT 03/M04 A3003 RMK T00301040 IEM_DS3505
ZBYN,2004-11-06 02:00,ZBYN 060200Z AUTO 00000KT 07/M07 A3003 RMK T00701070 IEM_DS3505
ZBYN,2004-11-06 03:00,ZBYN 060300Z AUTO 14004KT 4SM 11/M04 A3003 RMK SLP190 T01061038 57006 IEM_DS3505
ZBYN,2004-11-06 04:00,ZBYN 060400Z AUTO 19002KT 5SM 11/M06 A3000 RMK T01101060 IEM_DS3505
ZBYN,2004-11-06 05:00,ZBYN 060500Z AUTO 19002KT 13/M06 A2997 RMK T01301060 IEM_DS3505
ZBYN,2004-11-06 06:00,ZBYN 060600Z AUTO 16006KT 4SM 16/M01 A2991 RMK SLP150 T01591012 57031 IEM_DS3505
ZBYN,2004-11-06 07:00,ZBYN 060700Z AUTO 21004KT 3SM 15/M04 A2991 RMK T01501040 IEM_DS3505
ZBYN,2004-11-06 08:00,ZBYN 060800Z AUTO 25002KT 3SM 14/M04 A2991 RMK T01401040 IEM_DS3505
ZBYN,2004-11-06 09:00,ZBYN 060900Z AUTO 11002KT 3SM 14/M00 A2991 RMK SLP150 T01401004 57005 IEM_DS3505
ZBYN,2004-11-06 10:00,ZBYN 061000Z AUTO 11006KT 3SM 09/M02 A2991 RMK T00901020 IEM_DS3505
ZBYN,2004-11-06 11:00,ZBYN 061100Z AUTO 10002KT 5SM 07/M01 A2994 RMK T00701010 IEM_DS3505
ZBYN,2004-11-06 12:00,ZBYN 061200Z AUTO 27002KT 3SM 08/01 A2994 RMK SLP175 T00790013 52015 IEM_DS3505
ZBYN,2004-11-06 13:00,ZBYN 061300Z AUTO 10002KT 5SM 05/M02 A2997 RMK T00501020 IEM_DS3505
ZBYN,2004-11-06 14:00,ZBYN 061400Z AUTO 12004KT 5SM 03/M02 A2997 RMK T00301020 IEM_DS3505
ZBYN,2004-11-06 15:00,ZBYN 061500Z AUTO 16002KT 4SM 04/01 A2997 RMK SLP173 T00410011 52007 IEM_DS3505
ZBYN,2004-11-06 16:00,ZBYN 061600Z AUTO 11002KT 5SM 02/M02 A2997 RMK T00201020 IEM_DS3505
ZBYN,2004-11-06 17:00,ZBYN 061700Z AUTO 00000KT 5SM 03/M02 A2997 RMK T00301020 IEM_DS3505
ZBYN,2004-11-06 18:00,ZBYN 061800Z AUTO 00000KT 4SM 04/01 A2997 RMK SLP161 T00390010 57003 IEM_DS3505
ZBYN,2004-11-06 19:00,ZBYN 061900Z AUTO 00000KT 4SM 01/M02 A2997 RMK T00101020 IEM_DS3505
ZBYN,2004-11-06 20:00,ZBYN 062000Z AUTO 00000KT 4SM 01/M02 A2994 RMK T00101020 IEM_DS3505
ZBYN,2004-11-06 21:00,ZBYN 062100Z AUTO 02002KT 4SM 02/M00 A2997 RMK SLP168 T00201004 52001 IEM_DS3505
ZBYN,2004-11-06 22:00,ZBYN 062200Z AUTO 00000KT 2SM 01/M02 A2997 RMK T00101020 IEM_DS3505
ZBYN,2004-11-06 23:00,ZBYN 062300Z AUTO 00000KT 1 1/2SM 00/M02 A3000 RMK T00001020 IEM_DS3505
ZBYN,2004-11-07 00:00,ZBYN 070000Z AUTO 32002KT 2 1/2SM 04/00 A3000 RMK SLP194 T00360000 52016 IEM_DS3505
ZBYN,2004-11-07 01:00,ZBYN 070100Z AUTO 00000KT 1SM 04/01 A3003 RMK T00400010 IEM_DS3505
ZBYN,2004-11-07 02:00,ZBYN 070200Z AUTO 00000KT 1SM 08/01 A3003 RMK T00800010 IEM_DS3505
ZBYN,2004-11-07 03:00,ZBYN 070300Z AUTO 16004KT 2 1/2SM 12/02 A3003 RMK SLP185 T01250015 54000 IEM_DS3505
ZBYN,2004-11-07 04:00,ZBYN 070400Z AUTO 16004KT 2SM 12/00 A3000 RMK T01200000 IEM_DS3505
ZBYN,2004-11-07 05:00,ZBYN 070500Z AUTO 20004KT 1 1/2SM 14/M01 A2997 RMK T01401010 IEM_DS3505
ZBYN,2004-11-07 06:00,ZBYN 070600Z AUTO 18004KT 2 1/2SM 16/03 RMK SLP160 T01560028 57018 IEM_DS3505
ZBYN,2004-11-07 07:00,ZBYN 070700Z AUTO 18002KT 1 1/4SM 15/00 A2997 RMK T01500000 IEM_DS3505
ZBYN,2004-11-07 08:00,ZBYN 070800Z AUTO 09004KT 1 1/4SM 15/01 A2997 RMK T01500010 IEM_DS3505
ZBYN,2004-11-07 09:00,ZBYN 070900Z AUTO 00000KT 3SM 13/04 RMK SLP174 T01280045 52005 IEM_DS3505
ZBYN,2004-11-07 10:00,ZBYN 071000Z AUTO 13002KT 1 1/4SM 10/02 A3000 RMK T01000020 IEM_DS3505
ZBYN,2004-11-07 11:00,ZBYN 071100Z AUTO 00000KT 1 1/4SM 08/02 A3000 RMK T00800020 IEM_DS3505
ZBYN,2004-11-07 12:00,ZBYN 071200Z AUTO 29008KT 6SM 15/M06 A3003 RMK SLP189 T01501059 52020 IEM_DS3505
ZBYN,2004-11-07 13:00,ZBYN 071300Z AUTO 07002KT 3SM 09/M03 A3006 RMK T00901030 IEM_DS3505
ZBYN,2004-11-07 14:00,ZBYN 071400Z AUTO 11004KT 2 1/2SM 04/M02 A3006 RMK T00401020 IEM_DS3505
ZBYN,2004-11-07 15:00,ZBYN 071500Z AUTO 18004KT 7SM 07/M01 A3009 RMK SLP202 T00671014 52013 IEM_DS3505
ZBYN,2004-11-07 16:00,ZBYN 071600Z AUTO 00000KT 6SM 02/M04 A3009 RMK T00201040 IEM_DS3505
ZBYN,2004-11-07 18:00,ZBYN 071800Z AUTO 00000KT 5SM 02/M01 A3009 RMK SLP211 T00241014 52006 IEM_DS3505
ZBYN,2004-11-07 19:00,ZBYN 071900Z AUTO 00000KT 6SM 01/M06 A3009 RMK T00101060 IEM_DS3505
ZBYN,2004-11-07 20:00,ZBYN 072000Z AUTO 00000KT 6SM 00/M06 A3009 RMK T00001060 IEM_DS3505
ZBYN,2004-11-07 21:00,ZBYN 072100Z AUTO 34002KT 6SM 06/M05 A3009 RMK SLP208 T00571047 57002 IEM_DS3505
ZBYN,2004-11-07 22:00,ZBYN 072200Z AUTO 00000KT 6SM M02/M07 A3009 RMK T10201070 IEM_DS3505
ZBYN,2004-11-07 23:00,ZBYN 072300Z AUTO 00000KT 6SM M01/M05 A3009 RMK T10101050 IEM_DS3505
ZBYN,2004-11-08 00:00,ZBYN 080000Z AUTO 00000KT 7SM 01/M02 A3012 RMK SLP224 T00121020 52011 IEM_DS3505
ZBYN,2004-11-08 01:00,ZBYN 080100Z AUTO 00000KT 4SM 01/M03 A3015 RMK T00101030 IEM_DS3505
ZBYN,2004-11-08 02:00,ZBYN 080200Z AUTO 32004KT 2SM 08/M03 A3012 RMK T00801030 IEM_DS3505
ZBYN,2004-11-08 03:00,ZBYN 080300Z AUTO 34004KT 6SM 13/M06 A3009 RMK SLP211 T01281057 57007 IEM_DS3505
ZBYN,2004-11-08 04:00,ZBYN 080400Z AUTO 31004KT 5SM 13/M08 A3006 RMK T01301080 IEM_DS3505
ZBYN,2004-11-08 05:00,ZBYN 080500Z AUTO 31002KT 6SM 15/M12 A3006 RMK T01501120 IEM_DS3505
ZBYN,2004-11-08 06:00,ZBYN 080600Z AUTO 04004KT 6SM 16/M06 A3003 RMK SLP183 T01621055 57027 IEM_DS3505
ZBYN,2004-11-08 07:00,ZBYN 080700Z AUTO 27002KT 6SM 15/M10 A3003 RMK T01501100 IEM_DS3505
ZBYN,2004-11-08 08:00,ZBYN 080800Z AUTO 33002KT 6SM 14/M08 A3000 RMK T01401080 IEM_DS3505
ZBYN,2004-11-08 09:00,ZBYN 080900Z AUTO 18002KT 6SM 14/M00 A3003 RMK SLP182 T01371003 52001 IEM_DS3505
ZBYN,2004-11-08 10:00,ZBYN 081000Z AUTO 03002KT 5SM 10/M03 A3003 RMK T01001030 IEM_DS3505
ZBYN,2004-11-08 11:00,ZBYN 081100Z AUTO 12004KT 6SM 09/M03 A3003 RMK T00901030 IEM_DS3505
ZBYN,2004-11-08 12:00,ZBYN 081200Z AUTO 29002KT 4SM 10/02 A3003 RMK SLP204 T00990025 52007 IEM_DS3505
ZBYN,2004-11-08 13:00,ZBYN 081300Z AUTO 08010KT 6SM 11/M04 A3006 RMK T01101040 IEM_DS3505
ZBYN,2004-11-08 14:00,ZBYN 081400Z AUTO 09006KT 6SM 10/M03 A3006 RMK T01001030 IEM_DS3505
ZBYN,2004-11-08 15:00,ZBYN 081500Z AUTO 29002KT 3SM 08/01 A3009 RMK SLP198 T00830010 52010 IEM_DS3505
ZBYN,2004-11-08 16:00,ZBYN 081600Z AUTO 07004KT 6SM 09/M01 A3006 RMK T00901010 IEM_DS3505
ZBYN,2004-11-08 17:00,ZBYN 081700Z AUTO 09006KT 6SM 09/00 A3006 RMK T00900000 IEM_DS3505
ZBYN,2004-11-08 18:00,ZBYN 081800Z AUTO 34004KT 4SM 09/M00 A3003 RMK SLP180 T00911005 57010 IEM_DS3505
ZBYN,2004-11-08 19:00,ZBYN 081900Z AUTO 06006KT 6SM 09/01 A3003 RMK T00900010 IEM_DS3505
ZBYN,2004-11-08 20:00,ZBYN 082000Z AUTO 06006KT 6SM 08/00 A3003 RMK T00800000 IEM_DS3505
ZBYN,2004-11-08 21:00,ZBYN 082100Z AUTO 00000KT 5SM 08/01 A3000 RMK SLP175 T00820007 57010 IEM_DS3505
ZBYN,2004-11-08 22:00,ZBYN 082200Z AUTO 06006KT 6SM 08/01 A3000 RMK T00800010 IEM_DS3505
ZBYN,2004-11-08 23:00,ZBYN 082300Z AUTO 05002KT 5SM 08/01 A3000 RMK T00800010 IEM_DS3505
ZBYN,2004-11-09 00:00,ZBYN 090000Z AUTO 34002KT 6SM 09/02 A3003 RMK SLP185 T00930020 52005 IEM_DS3505
ZBYN,2004-11-09 01:00,ZBYN 090100Z AUTO 08006KT 3SM 09/01 A3003 RMK T00900010 IEM_DS3505
ZBYN,2004-11-09 02:00,ZBYN 090200Z AUTO 07008KT 10/02 A3003 RMK T01000020 IEM_DS3505
ZBYN,2004-11-09 03:00,ZBYN 090300Z AUTO 29002KT 4SM 13/03 A3003 RMK SLP182 T01300029 52001 IEM_DS3505
ZBYN,2004-11-09 04:00,ZBYN 090400Z AUTO 13/02 A3000 RMK T01300020 IEM_DS3505
ZBYN,2004-11-09 05:00,ZBYN 090500Z AUTO 00000KT 14/02 A2997 RMK T01400020 IEM_DS3505
ZBYN,2004-11-09 06:00,ZBYN 090600Z AUTO 14004KT 4SM 16/05 A2997 RMK SLP151 T01590049 57023 IEM_DS3505
ZBYN,2004-11-09 07:00,ZBYN 090700Z AUTO 24004KT 15/03 A2994 RMK T01500030 IEM_DS3505
ZBYN,2004-11-09 08:00,ZBYN 090800Z AUTO 22002KT 3SM 14/04 A2997 RMK T01400040 IEM_DS3505
ZBYN,2004-11-09 09:00,ZBYN 090900Z AUTO 16004KT 4SM 14/06 A2997 RMK SLP161 T01430059 52005 IEM_DS3505
ZBYN,2004-11-09 10:00,ZBYN 091000Z AUTO 18002KT 3SM 12/04 A3000 RMK T01200040 IEM_DS3505
ZBYN,2004-11-09 11:00,ZBYN 091100Z AUTO 00000KT 11/04 A3003 RMK T01100040 IEM_DS3505
ZBYN,2004-11-09 12:00,ZBYN 091200Z AUTO 07002KT 4SM 12/06 A3003 RMK SLP183 T01190060 52018 IEM_DS3505
ZBYN,2004-11-09 13:00,ZBYN 091300Z AUTO 31012KT 6SM 12/02 A3006 RMK T01200020 IEM_DS3505
ZBYN,2004-11-09 14:00,ZBYN 091400Z AUTO 31016KT 7SM 09/M02 A3012 RMK T00901020 IEM_DS3505
ZBYN,2004-11-09 15:00,ZBYN 091500Z AUTO 32016KT 4SM 10/M01 A3015 RMK SLP218 T00961006 52034 IEM_DS3505
ZBYN,2004-11-09 16:00,ZBYN 091600Z AUTO 33008KT 6SM 08/M01 A3015 RMK T00801010 IEM_DS3505
ZBYN,2004-11-09 17:00,ZBYN 091700Z AUTO 33008KT 6SM 07/M01 A3015 RMK T00701010 IEM_DS3505
ZBYN,2004-11-09 18:00,ZBYN 091800Z AUTO 32012KT 6SM 08/M02 A3015 RMK 60000 SLP225 T00801023 52009 IEM_DS3505
ZBYN,2004-11-09 19:00,ZBYN 091900Z AUTO 33006KT 6SM 06/M02 A3018 RMK T00601020 IEM_DS3505
ZBYN,2004-11-09 20:00,ZBYN 092000Z AUTO 31008KT 6SM 04/M08 A3015 RMK T00401080 IEM_DS3505
ZBYN,2004-11-09 21:00,ZBYN 092100Z AUTO 32010KT 9SM 05/M06 A3015 RMK SLP234 T00521057 52001 IEM_DS3505
ZBYN,2004-11-09 22:00,ZBYN 092200Z AUTO 32010KT 6SM 04/M08 A3018 RMK T00401080 IEM_DS3505
ZBYN,2004-11-09 23:00,ZBYN 092300Z AUTO 31010KT 6SM 02/M08 A3018 RMK T00201080 IEM_DS3505
ZBYN,2004-11-10 00:00,ZBYN 100000Z AUTO 32010KT 9SM 04/M07 A3021 RMK SLP259 T00371071 52017 IEM_DS3505
ZBYN,2004-11-10 01:00,ZBYN 100100Z AUTO 34008KT 6SM 04/M10 A3024 RMK T00401100 IEM_DS3505
ZBYN,2004-11-10 02:00,ZBYN 100200Z AUTO 33008KT 6SM 04/M11 A3024 RMK T00401110 IEM_DS3505
ZBYN,2004-11-10 03:00,ZBYN 100300Z AUTO 34006KT 9SM 06/M12 A3024 RMK SLP261 T00621123 52002 IEM_DS3505
ZBYN,2004-11-10 04:00,ZBYN 100400Z AUTO 36008KT 6SM 06/M11 A3021 RMK T00601110 IEM_DS3505
ZBYN,2004-11-10 05:00,ZBYN 100500Z AUTO 01008KT 6SM 07/M12 A3018 RMK T00701120 IEM_DS3505
ZBYN,2004-11-10 06:00,ZBYN 100600Z AUTO 04002KT 7SM 09/M11 A3015 RMK SLP227 T00871107 57029 IEM_DS3505
ZBYN,2004-11-10 07:00,ZBYN 100700Z AUTO 32004KT 6SM 08/M15 A3012 RMK T00801150 IEM_DS3505
ZBYN,2004-11-10 08:00,ZBYN 100800Z AUTO 6SM 08/M14 A3009 RMK T00801140 IEM_DS3505
ZBYN,2004-11-10 09:00,ZBYN 100900Z AUTO 29002KT 6SM 08/M09 A3009 RMK SLP222 T00791090 57011 IEM_DS3505
ZBYN,2004-11-10 10:00,ZBYN 101000Z AUTO 21002KT 6SM 06/M12 A3012 RMK T00601120 IEM_DS3505
ZBYN,2004-11-10 11:00,ZBYN 101100Z AUTO 28004KT 6SM 03/M11 A3012 RMK T00301110 IEM_DS3505
ZBYN,2004-11-10 12:00,ZBYN 101200Z AUTO 32004KT 6SM 05/M11 A3015 RMK SLP244 T00491107 52013 IEM_DS3505
ZBYN,2004-11-10 13:00,ZBYN 101300Z AUTO 12002KT 6SM 00/M09 A3015 RMK T00001090 IEM_DS3505
ZBYN,2004-11-10 14:00,ZBYN 101400Z AUTO 36002KT 6SM 01/M10 A3018 RMK T00101100 IEM_DS3505
ZBYN,2004-11-10 15:00,ZBYN 101500Z AUTO 32006KT 6SM 03/M11 A3015 RMK SLP250 T00331106 52007 IEM_DS3505
ZBYN,2004-11-10 16:00,ZBYN 101600Z AUTO 00000KT 6SM 00/M10 A3015 RMK T00001100 IEM_DS3505
ZBYN,2004-11-10 17:00,ZBYN 101700Z AUTO 07002KT 6SM 02/M11 A3012 RMK T00201110 IEM_DS3505
ZBYN,2004-11-10 18:00,ZBYN 101800Z AUTO 36002KT 6SM 04/M09 A3012 RMK SLP232 T00431087 57011 IEM_DS3505
ZBYN,2004-11-10 19:00,ZBYN 101900Z AUTO 03002KT 6SM 03/M10 A3015 RMK T00301100 IEM_DS3505
ZBYN,2004-11-10 20:00,ZBYN 102000Z AUTO 11002KT 6SM 03/M09 A3012 RMK T00301090 IEM_DS3505
ZBYN,2004-11-10 21:00,ZBYN 102100Z AUTO 18004KT 6SM 04/M06 A3015 RMK SLP239 T00411064 52005 IEM_DS3505
ZBYN,2004-11-10 22:00,ZBYN 102200Z AUTO 6SM 02/M05 A3018 RMK T00201050 IEM_DS3505
ZBYN,2004-11-10 23:00,ZBYN 102300Z AUTO 21002KT 6SM 02/M04 A3021 RMK T00201040 IEM_DS3505
ZBYN,2004-11-11 00:00,ZBYN 110000Z AUTO 16004KT 5SM 03/M03 A3021 RMK SLP266 T00341032 52019 IEM_DS3505
ZBYN,2004-11-11 01:00,ZBYN 110100Z AUTO 00000KT 03/M04 A3024 RMK T00301040 IEM_DS3505
ZBYN,2004-11-11 02:00,ZBYN 110200Z AUTO 22004KT 05/M04 A3024 RMK T00501040 IEM_DS3505
ZBYN,2004-11-11 03:00,ZBYN 110300Z AUTO 20004KT 5SM 08/M02 A3021 RMK SLP267 T00771020 52005 IEM_DS3505
ZBYN,2004-11-11 04:00,ZBYN 110400Z AUTO 21006KT 08/M05 A3021 RMK T00801050 IEM_DS3505
ZBYN,2004-11-11 05:00,ZBYN 110500Z AUTO 25006KT 6SM 09/M10 A3018 RMK T00901100 IEM_DS3505
ZBYN,2004-11-11 06:00,ZBYN 110600Z AUTO 27019KT 11SM 10/M16 A3015 RMK SLP242 T01041158 57017 IEM_DS3505
ZBYN,2004-11-11 07:00,ZBYN 110700Z AUTO 31016KT 6SM 09/M18 A3018 RMK T00901180 IEM_DS3505
ZBYN,2004-11-11 08:00,ZBYN 110800Z AUTO 31014KT 6SM 08/M20 A3021 RMK T00801200 IEM_DS3505
ZBYN,2004-11-11 09:00,ZBYN 110900Z AUTO 29010KT 12SM 07/M16 A3024 RMK SLP278 T00671165 52027 IEM_DS3505
ZBYN,2004-11-11 10:00,ZBYN 111000Z AUTO 30010KT 6SM 04/M20 A3027 RMK T00401200 IEM_DS3505
ZBYN,2004-11-11 11:00,ZBYN 111100Z AUTO 30006KT 6SM 02/M16 A3033 RMK T00201160 IEM_DS3505
ZBYN,2004-11-11 12:00,ZBYN 111200Z AUTO 32006KT 12SM 04/M14 A3036 RMK SLP320 T00371139 52032 IEM_DS3505
ZBYN,2004-11-11 13:00,ZBYN 111300Z AUTO 35006KT 6SM 00/M14 A3039 RMK T00001140 IEM_DS3505
ZBYN,2004-11-11 14:00,ZBYN 111400Z AUTO 36002KT 6SM M02/M14 A3042 RMK T10201140 IEM_DS3505
ZBYN,2004-11-11 15:00,ZBYN 111500Z AUTO 04004KT 12SM 00/M14 A3042 RMK SLP341 T00051138 52021 IEM_DS3505
ZBYN,2004-11-11 16:00,ZBYN 111600Z AUTO 07004KT 6SM M04/M13 A3042 RMK T10401130 IEM_DS3505
ZBYN,2004-11-11 17:00,ZBYN 111700Z AUTO 14006KT 6SM M05/M13 A3042 RMK T10501130 IEM_DS3505
ZBYN,2004-11-11 18:00,ZBYN 111800Z AUTO 29002KT 12SM M03/M10 A3042 RMK SLP340 T10281105 57002 IEM_DS3505
ZBYN,2004-11-11 19:00,ZBYN 111900Z AUTO 02002KT 6SM M07/M13 A3042 RMK T10701130 IEM_DS3505
ZBYN,2004-11-11 20:00,ZBYN 112000Z AUTO 12004KT 6SM M08/M14 A3042 RMK T10801140 IEM_DS3505
ZBYN,2004-11-11 21:00,ZBYN 112100Z AUTO 34002KT 7SM M04/M10 A3042 RMK SLP345 T10371101 57003 IEM_DS3505
ZBYN,2004-11-11 22:00,ZBYN 112200Z AUTO 00000KT 6SM M08/M13 A3042 RMK T10801130 IEM_DS3505
ZBYN,2004-11-11 23:00,ZBYN 112300Z AUTO 12002KT 6SM M08/M13 A3042 RMK T10801130 IEM_DS3505
ZBYN,2004-11-12 00:00,ZBYN 120000Z AUTO 32004KT 7SM M03/M11 A3042 RMK SLP354 T10331110 52004 IEM_DS3505
ZBYN,2004-11-12 01:00,ZBYN 120100Z AUTO 14002KT 6SM M02/M09 A3042 RMK T10201090 IEM_DS3505
ZBYN,2004-11-12 02:00,ZBYN 120200Z AUTO 17002KT 6SM 00/M12 A3042 RMK T00001120 IEM_DS3505
ZBYN,2004-11-12 03:00,ZBYN 120300Z AUTO 04004KT 6SM 02/M12 A3039 RMK SLP339 T00231122 57010 IEM_DS3505
ZBYN,2004-11-12 04:00,ZBYN 120400Z AUTO 00000KT 6SM 02/M16 A3036 RMK T00201160 IEM_DS3505
ZBYN,2004-11-12 05:00,ZBYN 120500Z AUTO 21004KT 6SM 04/M16 RMK T00401160 IEM_DS3505
ZBYN,2004-11-12 06:00,ZBYN 120600Z AUTO 16006KT 6SM 06/M11 A3030 RMK SLP302 T00561110 57033 IEM_DS3505
ZBYN,2004-11-12 07:00,ZBYN 120700Z AUTO 22004KT 6SM 04/M14 A3027 RMK T00401140 IEM_DS3505
ZBYN,2004-11-12 08:00,ZBYN 120800Z AUTO 22004KT 6SM 03/M14 A3027 RMK T00301140 IEM_DS3505
ZBYN,2004-11-12 09:00,ZBYN 120900Z AUTO 16006KT 5SM 04/M11 A3027 RMK SLP298 T00411107 57008 IEM_DS3505
ZBYN,2004-11-12 10:00,ZBYN 121000Z AUTO 18002KT 6SM 03/M13 A3030 RMK T00301130 IEM_DS3505
ZBYN,2004-11-12 11:00,ZBYN 121100Z AUTO 18002KT 6SM 02/M12 A3030 RMK T00201120 IEM_DS3505
ZBYN,2004-11-12 12:00,ZBYN 121200Z AUTO 14006KT 6SM 03/M09 A3033 RMK SLP317 T00301089 52016 IEM_DS3505
ZBYN,2004-11-12 13:00,ZBYN 121300Z AUTO 13004KT 5SM 01/M12 A3033 RMK T00101120 IEM_DS3505
ZBYN,2004-11-12 14:00,ZBYN 121400Z AUTO 12004KT 5SM 01/M11 A3033 RMK T00101110 IEM_DS3505
ZBYN,2004-11-12 15:00,ZBYN 121500Z AUTO 11004KT 6SM 02/M08 A3033 RMK SLP310 T00161079 52001 IEM_DS3505
ZBYN,2004-11-12 16:00,ZBYN 121600Z AUTO 15002KT 5SM A3033 RMK IEM_DS3505
ZBYN,2004-11-12 17:00,ZBYN 121700Z AUTO 11002KT 5SM A3030 RMK IEM_DS3505
ZBYN,2004-11-12 18:00,ZBYN 121800Z AUTO 09002KT 6SM M01/M04 A3030 RMK SLP300 T10101042 57008 IEM_DS3505
ZBYN,2004-11-12 19:00,ZBYN 121900Z AUTO 11002KT 4SM M04/M07 A3027 RMK T10401070 IEM_DS3505
ZBYN,2004-11-12 20:00,ZBYN 122000Z AUTO 11002KT 2 1/2SM M05/M07 A3027 RMK T10501070 IEM_DS3505
ZBYN,2004-11-12 21:00,ZBYN 122100Z AUTO 22002KT 6SM M03/M04 A3024 RMK SLP288 T10271043 57016 IEM_DS3505
ZBYN,2004-11-12 22:00,ZBYN 122200Z AUTO 12002KT 2 1/2SM M04/M07 A3024 RMK T10401070 IEM_DS3505
ZBYN,2004-11-12 23:00,ZBYN 122300Z AUTO 00000KT 2SM M04/M07 A3024 RMK T10401070 IEM_DS3505
ZBYN,2004-11-13 00:00,ZBYN 130000Z AUTO 29002KT 4SM M02/M03 A3024 RMK SLP296 T10231031 52006 IEM_DS3505
ZBYN,2004-11-13 01:00,ZBYN 130100Z AUTO 14002KT 1 1/4SM A3027 RMK IEM_DS3505
ZBYN,2004-11-13 02:00,ZBYN 130200Z AUTO 15002KT 1SM 00/M04 A3027 RMK T00001040 IEM_DS3505
ZBYN,2004-11-13 03:00,ZBYN 130300Z AUTO 11004KT 4SM 03/M01 A3027 RMK SLP292 T00281012 52002 IEM_DS3505
ZBYN,2004-11-13 04:00,ZBYN 130400Z AUTO 20004KT 1SM 03/M05 A3024 RMK T00301050 IEM_DS3505
ZBYN,2004-11-13 05:00,ZBYN 130500Z AUTO 1SM 05/M05 A3021 RMK T00501050 IEM_DS3505
ZBYN,2004-11-13 05:30,ZBYN 130530Z AUTO 21004KT 1SM 05/M04 A3021 RMK T00501040 IEM_DS3505
ZBYN,2004-11-13 06:00,ZBYN 130600Z AUTO 16006KT 4SM 07/00 A3021 RMK SLP263 T00670000 57024 IEM_DS3505
ZBYN,2004-11-13 07:00,ZBYN 130700Z AUTO 19004KT 2SM 06/M02 A3018 RMK T00601020 IEM_DS3505
ZBYN,2004-11-13 08:00,ZBYN 130800Z AUTO 19004KT 2 1/2SM 06/M03 A3018 RMK T00601030 IEM_DS3505
ZBYN,2004-11-13 09:00,ZBYN 130900Z AUTO 14006KT 4SM 07/M02 A3018 RMK SLP259 T00671022 57006 IEM_DS3505
ZBYN,2004-11-13 10:00,ZBYN 131000Z AUTO 12004KT 3SM 01/M04 A3018 RMK T00101040 IEM_DS3505
ZBYN,2004-11-13 11:00,ZBYN 131100Z AUTO 10002KT 3SM 01/M03 A3018 RMK T00101030 IEM_DS3505
ZBYN,2004-11-13 12:00,ZBYN 131200Z AUTO 14002KT 4SM 04/M01 A3021 RMK SLP278 T00391010 52013 IEM_DS3505
ZBYN,2004-11-13 13:00,ZBYN 131300Z AUTO 12002KT 3SM 00/M04 A3021 RMK T00001040 IEM_DS3505
ZBYN,2004-11-13 14:00,ZBYN 131400Z AUTO 11002KT 3SM A3024 RMK IEM_DS3505
ZBYN,2004-11-13 15:00,ZBYN 131500Z AUTO 11002KT 4SM 01/M02 A3024 RMK SLP288 T00081017 52012 IEM_DS3505
ZBYN,2004-11-13 16:00,ZBYN 131600Z AUTO 13002KT 1 1/2SM A3027 RMK IEM_DS3505
ZBYN,2004-11-13 17:00,ZBYN 131700Z AUTO 09004KT 1 1/4SM A3027 RMK IEM_DS3505
ZBYN,2004-11-13 18:00,ZBYN 131800Z AUTO 14004KT 1 1/4SM 00/M01 A3027 RMK SLP284 T00011007 52002 IEM_DS3505
ZBYN,2004-11-13 19:00,ZBYN 131900Z AUTO 11004KT 1SM A3027 RMK IEM_DS3505
ZBYN,2004-11-13 20:00,ZBYN 132000Z AUTO 20002KT 1SM A3027 RMK IEM_DS3505
ZBYN,2004-11-13 21:00,ZBYN 132100Z AUTO 11004KT 1 1/4SM 00/M01 A3024 RMK SLP284 T00021006 54000 IEM_DS3505
ZBYN,2004-11-13 22:00,ZBYN 132200Z AUTO 21002KT 1SM A3027 RMK IEM_DS3505
ZBYN,2004-11-13 23:00,ZBYN 132300Z AUTO 1SM A3027 RMK IEM_DS3505
ZBYN,2004-11-14 00:00,ZBYN 140000Z AUTO 16002KT 1 1/4SM 00/M01 A3030 RMK SLP299 T00001008 52009 IEM_DS3505
ZBYN,2004-11-14 01:00,ZBYN 140100Z AUTO 1/2SM A3030 RMK IEM_DS3505
ZBYN,2004-11-14 02:00,ZBYN 140200Z AUTO 27004KT 1SM 01/M02 A3030 RMK T00101020 IEM_DS3505
ZBYN,2004-11-14 03:00,ZBYN 140300Z AUTO 16008KT 2SM 04/M00 A3027 RMK SLP296 T00351003 57002 IEM_DS3505
ZBYN,2004-11-14 04:00,ZBYN 140400Z AUTO 29006KT 3SM 06/M09 A3027 RMK T00601090 IEM_DS3505
ZBYN,2004-11-14 05:00,ZBYN 140500Z AUTO 31004KT 07/M10 A3024 RMK T00701100 IEM_DS3505
ZBYN,2004-11-14 06:00,ZBYN 140600Z AUTO 29012KT 12SM 10/M11 A3021 RMK SLP265 T01011106 57019 IEM_DS3505
ZBYN,2004-11-14 07:00,ZBYN 140700Z AUTO 28012KT 6SM 09/M14 A3021 RMK T00901140 IEM_DS3505
ZBYN,2004-11-14 09:00,ZBYN 140900Z AUTO 29010KT 12SM 08/M11 A3024 RMK SLP279 T00811112 52010 IEM_DS3505
ZBYN,2004-11-14 10:00,ZBYN 141000Z AUTO 29008KT 6SM 05/M13 A3027 RMK T00501130 IEM_DS3505
ZBYN,2004-11-14 11:00,ZBYN 141100Z AUTO 29006KT 6SM 04/M12 A3030 RMK T00401120 IEM_DS3505
ZBYN,2004-11-14 12:00,ZBYN 141200Z AUTO 04002KT 11SM 04/M09 A3033 RMK SLP314 T00401093 52025 IEM_DS3505
ZBYN,2004-11-14 13:00,ZBYN 141300Z AUTO 00000KT 6SM 03/M12 A3033 RMK T00301120 IEM_DS3505
ZBYN,2004-11-14 14:00,ZBYN 141400Z AUTO 00000KT 6SM M01/M11 A3036 RMK T10101110 IEM_DS3505
ZBYN,2004-11-14 15:00,ZBYN 141500Z AUTO 29004KT 11SM 04/M11 A3036 RMK SLP320 T00351108 52010 IEM_DS3505
ZBYN,2004-11-14 16:00,ZBYN 141600Z AUTO 33004KT 6SM M01/M13 A3036 RMK T10101130 IEM_DS3505
ZBYN,2004-11-14 17:00,ZBYN 141700Z AUTO 15002KT 6SM M02/M12 A3036 RMK T10201120 IEM_DS3505
ZBYN,2004-11-14 18:00,ZBYN 141800Z AUTO 02002KT 9SM M00/M10 A3036 RMK SLP319 T10031099 52003 IEM_DS3505
ZBYN,2004-11-14 19:00,ZBYN 141900Z AUTO 24002KT 6SM M04/M11 A3036 RMK T10401110 IEM_DS3505
ZBYN,2004-11-14 20:00,ZBYN 142000Z AUTO 00000KT 6SM M05/M10 A3036 RMK T10501100 IEM_DS3505
ZBYN,2004-11-14 21:00,ZBYN 142100Z AUTO 16004KT 9SM M02/M09 A3036 RMK SLP323 T10211092 57002 IEM_DS3505
ZBYN,2004-11-14 23:00,ZBYN 142300Z AUTO 07002KT 6SM M07/M12 A3039 RMK T10701120 IEM_DS3505
ZBYN,2004-11-15 00:00,ZBYN 150000Z AUTO 11002KT 12SM M02/M09 A3039 RMK SLP339 T10241093 52007 IEM_DS3505
ZBYN,2004-11-15 01:00,ZBYN 150100Z AUTO 12002KT 5SM M01/M10 A3039 RMK T10101100 IEM_DS3505
ZBYN,2004-11-15 02:00,ZBYN 150200Z AUTO 19004KT 01/M11 A3036 RMK T00101110 IEM_DS3505
ZBYN,2004-11-15 03:00,ZBYN 150300Z AUTO 29010KT 16SM 07/M13 A3036 RMK SLP311 T00681133 57011 IEM_DS3505
ZBYN,2004-11-15 04:00,ZBYN 150400Z AUTO 24006KT 6SM 06/M15 A3033 RMK T00601150 IEM_DS3505
ZBYN,2004-11-15 05:00,ZBYN 150500Z AUTO 24006KT 6SM 07/M17 A3030 RMK T00701170 IEM_DS3505
ZBYN,2004-11-15 06:00,ZBYN 150600Z AUTO 20010KT 12SM 09/M12 A3027 RMK SLP282 T00881122 57029 IEM_DS3505
ZBYN,2004-11-15 07:00,ZBYN 150700Z AUTO 23008KT 6SM 08/M16 A3024 RMK T00801160 IEM_DS3505
ZBYN,2004-11-15 08:00,ZBYN 150800Z AUTO 26006KT 6SM 08/M17 A3024 RMK T00801170 IEM_DS3505
ZBYN,2004-11-15 09:00,ZBYN 150900Z AUTO 29006KT 16SM 08/M16 A3027 RMK SLP287 T00821160 54000 IEM_DS3505
ZBYN,2004-11-15 10:00,ZBYN 151000Z AUTO 29006KT 6SM 05/M19 A3027 RMK T00501190 IEM_DS3505
ZBYN,2004-11-15 11:00,ZBYN 151100Z AUTO 29008KT 6SM 03/M17 A3027 RMK T00301170 IEM_DS3505
ZBYN,2004-11-15 12:00,ZBYN 151200Z AUTO 32004KT 12SM 04/M13 A3030 RMK SLP311 T00361131 52014 IEM_DS3505
ZBYN,2004-11-15 13:00,ZBYN 151300Z AUTO 19002KT 6SM 02/M16 A3030 RMK T00201160 IEM_DS3505
ZBYN,2004-11-15 14:00,ZBYN 151400Z AUTO 14004KT 6SM M04/M14 A3033 RMK T10401140 IEM_DS3505
ZBYN,2004-11-15 15:00,ZBYN 151500Z AUTO 07002KT 11SM M01/M10 A3030 RMK SLP305 T10131103 52002 IEM_DS3505
ZBYN,2004-11-15 16:00,ZBYN 151600Z AUTO 10002KT 6SM M05/M12 A3030 RMK T10501120 IEM_DS3505
ZBYN,2004-11-15 17:00,ZBYN 151700Z AUTO 00000KT 6SM M04/M11 A3030 RMK T10401110 IEM_DS3505
ZBYN,2004-11-15 18:00,ZBYN 151800Z AUTO 20002KT 9SM M03/M10 A3027 RMK SLP295 T10311097 57009 IEM_DS3505
ZBYN,2004-11-15 19:00,ZBYN 151900Z AUTO 12004KT 6SM M07/M12 A3030 RMK T10701120 IEM_DS3505
ZBYN,2004-11-15 21:00,ZBYN 152100Z AUTO 14002KT 9SM M04/M10 A3027 RMK SLP295 T10371097 57002 IEM_DS3505
ZBYN,2004-11-15 22:00,ZBYN 152200Z AUTO 10002KT 6SM M07/M12 A3027 RMK T10701120 IEM_DS3505
ZBYN,2004-11-15 23:00,ZBYN 152300Z AUTO 10002KT 6SM M07/M12 A3030 RMK T10701120 IEM_DS3505
ZBYN,2004-11-16 00:00,ZBYN 160000Z AUTO 00000KT 6SM M05/M10 A3030 RMK SLP314 T10461098 52008 IEM_DS3505
ZBYN,2004-11-16 01:00,ZBYN 160100Z AUTO 10002KT M01/M10 A3030 RMK T10101100 IEM_DS3505
ZBYN,2004-11-16 02:00,ZBYN 160200Z AUTO 16002KT 01/M12 A3030 RMK T00101120 IEM_DS3505
ZBYN,2004-11-16 03:00,ZBYN 160300Z AUTO 11002KT 6SM 05/M09 A3027 RMK SLP296 T00481093 57009 IEM_DS3505
ZBYN,2004-11-16 04:00,ZBYN 160400Z AUTO 5SM 06/M13 A3024 RMK T00601130 IEM_DS3505
ZBYN,2004-11-16 05:00,ZBYN 160500Z AUTO 22006KT 5SM 08/M14 A3021 RMK T00801140 IEM_DS3505
ZBYN,2004-11-16 06:00,ZBYN 160600Z AUTO 20006KT 12SM 10/M12 A3018 RMK SLP250 T01031116 57035 IEM_DS3505
ZBYN,2004-11-16 07:00,ZBYN 160700Z AUTO 23006KT 6SM 09/M17 A3015 RMK T00901170 IEM_DS3505
ZBYN,2004-11-16 08:00,ZBYN 160800Z AUTO 24004KT 6SM 09/M18 A3015 RMK T00901180 IEM_DS3505
ZBYN,2004-11-16 09:00,ZBYN 160900Z AUTO 29008KT 16SM 09/M15 A3015 RMK SLP255 T00941150 52002 IEM_DS3505
ZBYN,2004-11-16 10:00,ZBYN 161000Z AUTO 28006KT 6SM 05/M16 A3018 RMK T00501160 IEM_DS3505
ZBYN,2004-11-16 11:00,ZBYN 161100Z AUTO 33006KT 6SM 02/M15 A3021 RMK T00201150 IEM_DS3505
ZBYN,2004-11-16 12:00,ZBYN 161200Z AUTO 34006KT 16SM 06/M15 A3024 RMK SLP287 T00591147 52022 IEM_DS3505
ZBYN,2004-11-16 12:30,ZBYN 161230Z AUTO 32006KT 6SM 00/M16 A3024 RMK T00001160 IEM_DS3505
ZBYN,2004-11-16 13:00,ZBYN 161300Z AUTO 34006KT 6SM 03/M17 A3024 RMK T00301170 IEM_DS3505
ZBYN,2004-11-16 14:00,ZBYN 161400Z AUTO 00000KT 6SM 02/M16 A3024 RMK T00201160 IEM_DS3505
ZBYN,2004-11-16 15:00,ZBYN 161500Z AUTO 04002KT 12SM 03/M12 A3024 RMK SLP280 T00261124 52003 IEM_DS3505
ZBYN,2004-11-16 16:00,ZBYN 161600Z AUTO 00000KT 6SM M02/M13 A3024 RMK T10201130 IEM_DS3505
ZBYN,2004-11-16 17:00,ZBYN 161700Z AUTO 11002KT 6SM M04/M13 A3024 RMK T10401130 IEM_DS3505
ZBYN,2004-11-16 18:00,ZBYN 161800Z AUTO 14002KT 12SM M03/M10 A3024 RMK SLP276 T10271098 57003 IEM_DS3505
ZBYN,2004-11-16 19:00,ZBYN 161900Z AUTO 09002KT 6SM M05/M13 A3024 RMK T10501130 IEM_DS3505
ZBYN,2004-11-16 20:00,ZBYN 162000Z AUTO 08002KT 6SM M05/M13 A3024 RMK T10501130 IEM_DS3505
ZBYN,2004-11-16 21:00,ZBYN 162100Z AUTO 00000KT 9SM M05/M09 RMK SLP277 T10481092 57004 IEM_DS3505
ZBYN,2004-11-16 22:00,ZBYN 162200Z AUTO 06002KT 6SM M06/M12 A3021 RMK T10601120 IEM_DS3505
ZBYN,2004-11-16 23:00,ZBYN 162300Z AUTO 00000KT 6SM M06/M13 A3024 RMK T10601130 IEM_DS3505
ZBYN,2004-11-17 00:00,ZBYN 170000Z AUTO 16002KT 6SM M05/M09 A3024 RMK SLP292 T10491086 52008 IEM_DS3505
ZBYN,2004-11-17 01:00,ZBYN 170100Z AUTO 12002KT 2 1/2SM M02/M11 A3027 RMK T10201110 IEM_DS3505
ZBYN,2004-11-17 02:00,ZBYN 170200Z AUTO 01/M14 A3027 RMK T00101140 IEM_DS3505
ZBYN,2004-11-17 03:00,ZBYN 170300Z AUTO 14002KT 5SM 05/M11 A3024 RMK SLP281 T00501106 54000 IEM_DS3505
ZBYN,2004-11-17 04:00,ZBYN 170400Z AUTO 00000KT 6SM 06/M14 A3021 RMK T00601140 IEM_DS3505
ZBYN,2004-11-17 05:00,ZBYN 170500Z AUTO 21004KT 6SM 08/M14 A3021 RMK T00801140 IEM_DS3505
ZBYN,2004-11-17 06:00,ZBYN 170600Z AUTO 20006KT 5SM 10/M10 A3018 RMK SLP254 T00971098 57025 IEM_DS3505
ZBYN,2004-11-17 07:00,ZBYN 170700Z AUTO 18006KT 6SM 09/M15 A3015 RMK T00901150 IEM_DS3505
ZBYN,2004-11-17 08:00,ZBYN 170800Z AUTO 23002KT 6SM 09/M15 A3015 RMK T00901150 IEM_DS3505
ZBYN,2004-11-17 09:00,ZBYN 170900Z AUTO 14004KT 9SM 08/M10 A3015 RMK SLP256 T00801098 57004 IEM_DS3505
ZBYN,2004-11-17 10:00,ZBYN 171000Z AUTO 28004KT 6SM 05/M13 A3015 RMK T00501130 IEM_DS3505
ZBYN,2004-11-17 11:00,ZBYN 171100Z AUTO 29004KT 6SM 06/M11 A3018 RMK T00601110 IEM_DS3505
ZBYN,2004-11-17 12:00,ZBYN 171200Z AUTO 34002KT 9SM 03/M08 A3018 RMK SLP279 T00281076 52012 IEM_DS3505
ZBYN,2004-11-17 13:00,ZBYN 171300Z AUTO 12004KT 6SM M01/M12 A3021 RMK T10101120 IEM_DS3505
ZBYN,2004-11-17 14:00,ZBYN 171400Z AUTO 10002KT 6SM M03/M12 A3021 RMK T10301120 IEM_DS3505
ZBYN,2004-11-17 15:00,ZBYN 171500Z AUTO 18002KT 9SM M00/M09 A3021 RMK SLP277 T10041090 52009 IEM_DS3505
ZBYN,2004-11-17 16:00,ZBYN 171600Z AUTO 00000KT 6SM M05/M11 A3021 RMK T10501110 IEM_DS3505
ZBYN,2004-11-17 17:00,ZBYN 171700Z AUTO 07004KT 6SM M03/M10 A3021 RMK T10301100 IEM_DS3505
ZBYN,2004-11-17 18:00,ZBYN 171800Z AUTO 00000KT 7SM M03/M09 A3021 RMK SLP269 T10261086 57003 IEM_DS3505
ZBYN,2004-11-17 19:00,ZBYN 171900Z AUTO 10002KT 6SM M04/M11 A3021 RMK T10401110 IEM_DS3505
ZBYN,2004-11-17 20:00,ZBYN 172000Z AUTO 09002KT 6SM M05/M12 A3021 RMK T10501120 IEM_DS3505
ZBYN,2004-11-17 21:00,ZBYN 172100Z AUTO 29002KT 7SM M05/M07 A3021 RMK SLP272 T10481074 57004 IEM_DS3505
ZBYN,2004-11-17 22:00,ZBYN 172200Z AUTO 12004KT 6SM M06/M12 A3021 RMK T10601120 IEM_DS3505
ZBYN,2004-11-17 23:00,ZBYN 172300Z AUTO 00000KT 6SM M06/M12 A3021 RMK T10601120 IEM_DS3505
ZBYN,2004-11-18 00:00,ZBYN 180000Z AUTO 11002KT 5SM M04/M08 A3021 RMK SLP285 T10451077 52004 IEM_DS3505
ZBYN,2004-11-18 01:00,ZBYN 180100Z AUTO 00000KT 2 1/2SM M02/M10 A3021 RMK T10201100 IEM_DS3505
ZBYN,2004-11-18 02:00,ZBYN 180200Z AUTO 00000KT 2SM 01/M11 A3024 RMK T00101110 IEM_DS3505
ZBYN,2004-11-18 03:00,ZBYN 180300Z AUTO 18002KT 3SM 05/M09 A3021 RMK SLP275 T00521086 52001 IEM_DS3505
ZBYN,2004-11-18 04:00,ZBYN 180400Z AUTO 06/M12 A3018 RMK T00601120 IEM_DS3505
ZBYN,2004-11-18 05:00,ZBYN 180500Z AUTO 5SM 08/M13 A3015 RMK T00801130 IEM_DS3505
ZBYN,2004-11-18 06:00,ZBYN 180600Z AUTO 18004KT 5SM 10/M09 RMK SLP238 T01021089 57029 IEM_DS3505
ZBYN,2004-11-18 07:00,ZBYN 180700Z AUTO 18004KT 6SM 10/M14 A3012 RMK T01001140 IEM_DS3505
ZBYN,2004-11-18 08:00,ZBYN 180800Z AUTO 19002KT 6SM 10/M14 A3012 RMK T01001140 IEM_DS3505
ZBYN,2004-11-18 09:00,ZBYN 180900Z AUTO 11004KT 6SM 09/M08 A3012 RMK SLP241 T00881082 57003 IEM_DS3505
ZBYN,2004-11-18 10:00,ZBYN 181000Z AUTO 09002KT 5SM 03/M12 A3012 RMK T00301120 IEM_DS3505
ZBYN,2004-11-18 11:00,ZBYN 181100Z AUTO 00000KT 6SM 01/M11 A3015 RMK T00101110 IEM_DS3505
ZBYN,2004-11-18 12:00,ZBYN 181200Z AUTO 32004KT 4SM 04/M06 A3015 RMK SLP265 T00431060 52015 IEM_DS3505
ZBYN,2004-11-18 13:00,ZBYN 181300Z AUTO 00000KT 6SM 01/M12 A3018 RMK T00101120 IEM_DS3505
ZBYN,2004-11-18 14:00,ZBYN 181400Z AUTO 00000KT 6SM M01/M12 A3018 RMK T10101120 IEM_DS3505
ZBYN,2004-11-18 15:00,ZBYN 181500Z AUTO 18004KT 4SM 02/M08 A3021 RMK SLP264 T00181077 52011 IEM_DS3505
ZBYN,2004-11-18 16:00,ZBYN 181600Z AUTO 06002KT 6SM M01/M11 A3021 RMK T10101110 IEM_DS3505
ZBYN,2004-11-18 17:00,ZBYN 181700Z AUTO 00000KT 6SM M02/M11 A3021 RMK T10201110 IEM_DS3505
ZBYN,2004-11-18 18:00,ZBYN 181800Z AUTO 00000KT 4SM M02/M07 A3021 RMK SLP264 T10181073 52002 IEM_DS3505
ZBYN,2004-11-18 19:00,ZBYN 181900Z AUTO 12004KT 6SM M05/M11 A3021 RMK T10501110 IEM_DS3505
ZBYN,2004-11-18 20:00,ZBYN 182000Z AUTO 6SM M03/M11 A3021 RMK T10301110 IEM_DS3505
ZBYN,2004-11-18 21:00,ZBYN 182100Z AUTO 09002KT 6SM M03/M08 A3021 RMK SLP269 T10341079 54000 IEM_DS3505
ZBYN,2004-11-18 22:00,ZBYN 182200Z AUTO 00000KT 6SM M04/M11 A3021 RMK T10401110 IEM_DS3505
ZBYN,2004-11-18 23:00,ZBYN 182300Z AUTO 00000KT M05/M11 A3021 RMK T10501110 IEM_DS3505
ZBYN,2004-11-19 00:00,ZBYN 190000Z AUTO 14002KT 6SM M04/M07 A3024 RMK SLP288 T10391071 52009 IEM_DS3505
ZBYN,2004-11-19 01:00,ZBYN 190100Z AUTO 14002KT M02/M10 A3027 RMK T10201100 IEM_DS3505
ZBYN,2004-11-19 02:00,ZBYN 190200Z AUTO 18002KT 3SM 01/M11 A3027 RMK T00101110 IEM_DS3505
ZBYN,2004-11-19 03:00,ZBYN 190300Z AUTO 04002KT 4SM 08/M08 A3024 RMK SLP275 T00751085 52003 IEM_DS3505
ZBYN,2004-11-19 04:00,ZBYN 190400Z AUTO 2 1/2SM 06/M11 A3021 RMK T00601110 IEM_DS3505
ZBYN,2004-11-19 05:00,ZBYN 190500Z AUTO 20004KT 6SM 09/M12 A3018 RMK T00901120 IEM_DS3505
ZBYN,2004-11-19 06:00,ZBYN 190600Z AUTO 32006KT 6SM 12/M10 A3018 RMK SLP250 T01171104 57022 IEM_DS3505
ZBYN,2004-11-19 07:00,ZBYN 190700Z AUTO 24008KT 6SM 10/M12 A3018 RMK T01001120 IEM_DS3505
ZBYN,2004-11-19 08:00,ZBYN 190800Z AUTO 24006KT 08/M09 A3018 RMK T00801090 IEM_DS3505
ZBYN,2004-11-19 09:00,ZBYN 190900Z AUTO 02004KT 4SM 09/M10 A3021 RMK SLP267 T00901099 52008 IEM_DS3505
ZBYN,2004-11-19 10:00,ZBYN 191000Z AUTO 34006KT 6SM 04/M12 A3021 RMK T00401120 IEM_DS3505
ZBYN,2004-11-19 11:00,ZBYN 191100Z AUTO 36004KT 6SM 04/M13 A3024 RMK T00401130 IEM_DS3505
ZBYN,2004-11-19 12:00,ZBYN 191200Z AUTO 34006KT 5SM 06/M10 A3024 RMK SLP293 T00641098 52019 IEM_DS3505
ZBYN,2004-11-19 13:00,ZBYN 191300Z AUTO 34010KT 6SM 04/M13 A3027 RMK T00401130 IEM_DS3505
ZBYN,2004-11-19 14:00,ZBYN 191400Z AUTO 36004KT 6SM 02/M13 A3030 RMK T00201130 IEM_DS3505
ZBYN,2004-11-19 15:00,ZBYN 191500Z AUTO 32002KT 6SM 03/M09 A3030 RMK SLP294 T00291087 52014 IEM_DS3505
ZBYN,2004-11-19 16:00,ZBYN 191600Z AUTO 36006KT 6SM M01/M11 A3030 RMK T10101110 IEM_DS3505
ZBYN,2004-11-19 17:00,ZBYN 191700Z AUTO 36006KT 6SM 00/M11 A3033 RMK T00001110 IEM_DS3505
ZBYN,2004-11-19 18:00,ZBYN 191800Z AUTO 04002KT 6SM 01/M09 A3033 RMK SLP297 T00071093 52006 IEM_DS3505
ZBYN,2004-11-19 19:00,ZBYN 191900Z AUTO 03002KT 6SM M03/M11 A3033 RMK T10301110 IEM_DS3505
ZBYN,2004-11-19 20:00,ZBYN 192000Z AUTO 03004KT 6SM M04/M11 A3033 RMK T10401110 IEM_DS3505
ZBYN,2004-11-19 21:00,ZBYN 192100Z AUTO 11002KT 6SM M02/M08 A3033 RMK SLP307 T10221081 54000 IEM_DS3505
ZBYN,2004-11-19 22:00,ZBYN 192200Z AUTO 17002KT 6SM M05/M11 A3033 RMK T10501110 IEM_DS3505
ZBYN,2004-11-19 23:00,ZBYN 192300Z AUTO 00000KT 6SM M07/M11 A3036 RMK T10701110 IEM_DS3505
ZBYN,2004-11-20 00:00,ZBYN 200000Z AUTO 29002KT 6SM M04/M07 A3036 RMK SLP328 T10371073 52012 IEM_DS3505
ZBYN,2004-11-20 01:00,ZBYN 200100Z AUTO 20002KT 2SM M02/M09 A3039 RMK T10201090 IEM_DS3505
ZBYN,2004-11-20 02:00,ZBYN 200200Z AUTO 22004KT 3SM 00/M09 A3039 RMK T00001090 IEM_DS3505
ZBYN,2004-11-20 03:00,ZBYN 200300Z AUTO 18004KT 3SM 05/M08 A3036 RMK SLP317 T00511077 57001 IEM_DS3505
ZBYN,2004-11-20 04:00,ZBYN 200400Z AUTO 05/M12 A3033 RMK T00501120 IEM_DS3505
ZBYN,2004-11-20 05:00,ZBYN 200500Z AUTO 5SM 07/M12 A3030 RMK T00701120 IEM_DS3505
ZBYN,2004-11-20 06:00,ZBYN 200600Z AUTO 20006KT 4SM 08/M09 A3030 RMK SLP291 T00841090 57022 IEM_DS3505
ZBYN,2004-11-20 07:00,ZBYN 200700Z AUTO 24004KT 5SM 08/M12 A3027 RMK T00801120 IEM_DS3505
ZBYN,2004-11-20 08:00,ZBYN 200800Z AUTO 23004KT 5SM 07/M12 A3027 RMK T00701120 IEM_DS3505
ZBYN,2004-11-20 09:00,ZBYN 200900Z AUTO 16002KT 5SM 07/M08 A3027 RMK SLP297 T00691082 57002 IEM_DS3505
ZBYN,2004-11-20 10:00,ZBYN 201000Z AUTO 00000KT 5SM 02/M10 A3030 RMK T00201100 IEM_DS3505
ZBYN,2004-11-20 11:00,ZBYN 201100Z AUTO 11002KT 5SM M01/M09 A3030 RMK T10101090 IEM_DS3505
ZBYN,2004-11-20 12:00,ZBYN 201200Z AUTO 32002KT 2 1/2SM 02/M07 A3033 RMK SLP323 T00251068 52014 IEM_DS3505
ZBYN,2004-11-20 13:00,ZBYN 201300Z AUTO 00000KT 5SM M02/M10 A3033 RMK T10201100 IEM_DS3505
ZBYN,2004-11-20 14:00,ZBYN 201400Z AUTO 13004KT 6SM M02/M11 A3036 RMK T10201110 IEM_DS3505
ZBYN,2004-11-20 15:00,ZBYN 201500Z AUTO 16002KT 4SM M01/M07 A3036 RMK SLP324 T10111070 52010 IEM_DS3505
ZBYN,2004-11-20 16:00,ZBYN 201600Z AUTO 11002KT 6SM M03/M11 A3036 RMK T10301110 IEM_DS3505
ZBYN,2004-11-20 17:00,ZBYN 201700Z AUTO 12002KT 6SM M05/M11 A3036 RMK T10501110 IEM_DS3505
ZBYN,2004-11-20 18:00,ZBYN 201800Z AUTO 14002KT 4SM M03/M07 A3036 RMK SLP323 T10321071 52001 IEM_DS3505
ZBYN,2004-11-20 19:00,ZBYN 201900Z AUTO 00000KT 6SM M05/M10 A3036 RMK T10501100 IEM_DS3505
ZBYN,2004-11-20 20:00,ZBYN 202000Z AUTO 10002KT 6SM M07/M11 A3036 RMK T10701110 IEM_DS3505
ZBYN,2004-11-20 21:00,ZBYN 202100Z AUTO 14002KT 4SM M05/M07 A3036 RMK SLP325 T10471073 57003 IEM_DS3505
ZBYN,2004-11-20 22:00,ZBYN 202200Z AUTO 11002KT 6SM M07/M12 A3036 RMK T10701120 IEM_DS3505
ZBYN,2004-11-20 23:00,ZBYN 202300Z AUTO 12002KT 6SM M06/M11 A3036 RMK T10601110 IEM_DS3505
ZBYN,2004-11-21 00:00,ZBYN 210000Z AUTO 20002KT 4SM M05/M08 A3039 RMK SLP346 T10491075 52011 IEM_DS3505
ZBYN,2004-11-21 01:00,ZBYN 210100Z AUTO 05002KT 5SM M02/M09 A3039 RMK T10201090 IEM_DS3505
ZBYN,2004-11-21 02:00,ZBYN 210200Z AUTO 16002KT 6SM 00/M10 A3039 RMK T00001100 IEM_DS3505
ZBYN,2004-11-21 03:00,ZBYN 210300Z AUTO 25002KT 3SM 04/M08 A3036 RMK SLP329 T00421075 57006 IEM_DS3505
ZBYN,2004-11-21 04:00,ZBYN 210400Z AUTO 00000KT 5SM 05/M11 A3033 RMK T00501110 IEM_DS3505
ZBYN,2004-11-21 06:00,ZBYN 210600Z AUTO 16004KT 5SM 09/M08 A3027 RMK SLP285 T00911084 57036 IEM_DS3505
ZBYN,2004-11-21 07:00,ZBYN 210700Z AUTO 00000KT 09/M12 A3024 RMK T00901120 IEM_DS3505
ZBYN,2004-11-21 08:00,ZBYN 210800Z AUTO 24002KT 5SM 08/M12 A3024 RMK T00801120 IEM_DS3505
ZBYN,2004-11-21 09:00,ZBYN 210900Z AUTO 25002KT 4SM 07/M08 A3021 RMK SLP281 T00731078 57009 IEM_DS3505
ZBYN,2004-11-21 10:00,ZBYN 211000Z AUTO 00000KT 02/M10 A3024 RMK T00201100 IEM_DS3505
ZBYN,2004-11-21 11:00,ZBYN 211100Z AUTO 01/M09 A3024 RMK T00101090 IEM_DS3505
ZBYN,2004-11-21 12:00,ZBYN 211200Z AUTO 14002KT 6SM 01/M05 A3027 RMK SLP305 T00121050 52012 IEM_DS3505
ZBYN,2004-11-21 13:00,ZBYN 211300Z AUTO 09002KT 6SM 01/M11 A3027 RMK T00101110 IEM_DS3505
ZBYN,2004-11-21 14:00,ZBYN 211400Z AUTO 13002KT 6SM 00/M11 A3027 RMK T00001110 IEM_DS3505
ZBYN,2004-11-21 15:00,ZBYN 211500Z AUTO 32004KT 6SM 02/M05 A3027 RMK SLP288 T00171046 54000 IEM_DS3505
ZBYN,2004-11-21 16:00,ZBYN 211600Z AUTO 00000KT 6SM M01/M08 A3027 RMK T10101080 IEM_DS3505
ZBYN,2004-11-21 17:00,ZBYN 211700Z AUTO 12002KT 6SM M01/M09 A3024 RMK T10101090 IEM_DS3505
ZBYN,2004-11-21 18:00,ZBYN 211800Z AUTO 18002KT 6SM M01/M05 A3027 RMK SLP283 T10101050 57001 IEM_DS3505
ZBYN,2004-11-21 19:00,ZBYN 211900Z AUTO 00000KT 6SM M02/M09 A3027 RMK T10201090 IEM_DS3505
ZBYN,2004-11-21 20:00,ZBYN 212000Z AUTO 12004KT 3SM M03/M07 A3024 RMK T10301070 IEM_DS3505
ZBYN,2004-11-21 21:00,ZBYN 212100Z AUTO 16002KT 6SM 00/M07 A3024 RMK SLP282 T00011067 57002 IEM_DS3505
ZBYN,2004-11-21 22:00,ZBYN 212200Z AUTO 00000KT 3SM M02/M08 A3024 RMK T10201080 IEM_DS3505
ZBYN,2004-11-21 23:00,ZBYN 212300Z AUTO 00000KT 3SM M02/M07 A3027 RMK T10201070 IEM_DS3505
ZBYN,2004-11-22 00:00,ZBYN 220000Z AUTO 29002KT 4SM M00/M06 A3027 RMK SLP304 T10051064 52009 IEM_DS3505
ZBYN,2004-11-22 01:00,ZBYN 220100Z AUTO 00000KT 1SM A3030 RMK IEM_DS3505
ZBYN,2004-11-22 02:00,ZBYN 220200Z AUTO 13002KT 1SM 01/M07 A3030 RMK T00101070 IEM_DS3505
ZBYN,2004-11-22 03:00,ZBYN 220300Z AUTO 14002KT 2SM 05/M05 A3027 RMK SLP293 T00521046 54000 IEM_DS3505
ZBYN,2004-11-22 04:00,ZBYN 220400Z AUTO 1SM 05/M08 A3027 RMK T00501080 IEM_DS3505
ZBYN,2004-11-22 05:00,ZBYN 220500Z AUTO 22002KT 1 1/4SM 06/M08 A3024 RMK T00601080 IEM_DS3505
ZBYN,2004-11-22 06:00,ZBYN 220600Z AUTO 16002KT 1 1/4SM 07/M05 A3021 RMK SLP271 T00711052 57021 IEM_DS3505
ZBYN,2004-11-22 07:00,ZBYN 220700Z AUTO 17002KT 1SM 06/M07 A3021 RMK T00601070 IEM_DS3505
ZBYN,2004-11-22 08:00,ZBYN 220800Z AUTO 17006KT 1SM 06/M05 A3021 RMK T00601050 IEM_DS3505
ZBYN,2004-11-22 09:00,ZBYN 220900Z AUTO 18002KT 1 1/4SM 07/M03 A3024 RMK SLP278 T00671029 52007 IEM_DS3505
ZBYN,2004-11-22 10:00,ZBYN 221000Z AUTO 00000KT 1SM 05/M05 A3024 RMK T00501050 IEM_DS3505
ZBYN,2004-11-22 11:00,ZBYN 221100Z AUTO 20002KT 1 1/4SM 05/M05 A3027 RMK T00501050 IEM_DS3505
ZBYN,2004-11-22 12:00,ZBYN 221200Z AUTO 00000KT 2SM 04/M03 A3027 RMK SLP294 T00401030 52010 IEM_DS3505
ZBYN,2004-11-22 13:00,ZBYN 221300Z AUTO 14002KT 1SM 01/M05 A3027 RMK T00101050 IEM_DS3505
ZBYN,2004-11-22 14:00,ZBYN 221400Z AUTO 09002KT 1SM A3030 RMK IEM_DS3505
ZBYN,2004-11-22 15:00,ZBYN 221500Z AUTO 34004KT 6SM 06/M08 A3030 RMK SLP288 T00591076 52006 IEM_DS3505
ZBYN,2004-11-22 17:00,ZBYN 221700Z AUTO 06004KT 1SM M03/M07 A3030 RMK T10301070 IEM_DS3505
ZBYN,2004-11-22 18:00,ZBYN 221800Z AUTO 14002KT 2SM M01/M04 A3030 RMK SLP298 T10111044 52001 IEM_DS3505
ZBYN,2004-11-22 19:00,ZBYN 221900Z AUTO 11004KT 1SM M04/M08 A3030 RMK T10401080 IEM_DS3505
ZBYN,2004-11-22 20:00,ZBYN 222000Z AUTO 10002KT 1 1/4SM M05/M09 A3030 RMK T10501090 IEM_DS3505
ZBYN,2004-11-22 21:00,ZBYN 222100Z AUTO 18002KT 2SM M02/M06 A3027 RMK SLP298 T10211061 57002 IEM_DS3505
ZBYN,2004-11-22 22:00,ZBYN 222200Z AUTO 09002KT 2 1/2SM M04/M09 A3027 RMK T10401090 IEM_DS3505
ZBYN,2004-11-22 23:00,ZBYN 222300Z AUTO 2SM M05/M09 A3030 RMK T10501090 IEM_DS3505
ZBYN,2004-11-23 00:00,ZBYN 230000Z AUTO 18002KT 1 1/4SM M04/M05 A3030 RMK SLP316 T10381050 52009 IEM_DS3505
ZBYN,2004-11-23 01:00,ZBYN 230100Z AUTO 12002KT 1 1/4SM M02/M07 A3033 RMK T10201070 IEM_DS3505
ZBYN,2004-11-23 02:00,ZBYN 230200Z AUTO 2SM 02/M08 A3033 RMK T00201080 IEM_DS3505
ZBYN,2004-11-23 03:00,ZBYN 230300Z AUTO 14002KT 2 1/2SM 06/M06 A3030 RMK SLP296 T00611058 52001 IEM_DS3505
ZBYN,2004-11-23 04:00,ZBYN 230400Z AUTO 20002KT 06/M09 A3030 RMK T00601090 IEM_DS3505
ZBYN,2004-11-23 05:00,ZBYN 230500Z AUTO 6SM 07/M10 A3027 RMK T00701100 IEM_DS3505
ZBYN,2004-11-23 06:00,ZBYN 230600Z AUTO 14004KT 2 1/2SM 08/M07 A3024 RMK SLP275 T00851068 57026 IEM_DS3505
ZBYN,2004-11-23 07:00,ZBYN 230700Z AUTO 00000KT 6SM 08/M12 A3021 RMK T00801120 IEM_DS3505
ZBYN,2004-11-23 08:00,ZBYN 230800Z AUTO 22002KT 6SM 08/M11 A3021 RMK T00801110 IEM_DS3505
ZBYN,2004-11-23 09:00,ZBYN 230900Z AUTO 16002KT 2 1/2SM 07/M07 A3021 RMK SLP278 T00741066 57001 IEM_DS3505
ZBYN,2004-11-23 10:00,ZBYN 231000Z AUTO 00000KT 6SM 04/M09 A3024 RMK T00401090 IEM_DS3505
ZBYN,2004-11-23 11:00,ZBYN 231100Z AUTO 12004KT 6SM 02/M09 A3027 RMK T00201090 IEM_DS3505
ZBYN,2004-11-23 12:00,ZBYN 231200Z AUTO 34002KT 4SM 05/M05 A3030 RMK SLP305 T00491051 52018 IEM_DS3505
ZBYN,2004-11-23 13:00,ZBYN 231300Z AUTO 00000KT 6SM 02/M09 A3030 RMK T00201090 IEM_DS3505
ZBYN,2004-11-23 14:00,ZBYN 231400Z AUTO 00000KT 6SM 00/M08 A3033 RMK T00001080 IEM_DS3505
ZBYN,2004-11-23 15:00,ZBYN 231500Z AUTO 36002KT 4SM 04/M08 A3036 RMK SLP312 T00401077 52021 IEM_DS3505
ZBYN,2004-11-23 16:00,ZBYN 231600Z AUTO 10002KT 6SM M03/M09 A3036 RMK T10301090 IEM_DS3505
ZBYN,2004-11-23 17:00,ZBYN 231700Z AUTO 12004KT 6SM M03/M09 A3036 RMK T10301090 IEM_DS3505
ZBYN,2004-11-23 18:00,ZBYN 231800Z AUTO 20002KT 6SM M00/M06 A3039 RMK SLP325 T10041057 52008 IEM_DS3505
ZBYN,2004-11-23 19:00,ZBYN 231900Z AUTO 12002KT 6SM M05/M10 A3039 RMK T10501100 IEM_DS3505
ZBYN,2004-11-23 20:00,ZBYN 232000Z AUTO 11004KT 6SM M04/M09 A3039 RMK T10401090 IEM_DS3505
ZBYN,2004-11-23 21:00,ZBYN 232100Z AUTO 34006KT 6SM 02/M07 A3042 RMK SLP333 T00161074 52009 IEM_DS3505
ZBYN,2004-11-23 22:00,ZBYN 232200Z AUTO 00000KT 6SM M05/M09 A3042 RMK T10501090 IEM_DS3505
ZBYN,2004-11-23 23:00,ZBYN 232300Z AUTO 04004KT 6SM M03/M09 A3045 RMK T10301090 IEM_DS3505
ZBYN,2004-11-24 00:00,ZBYN 240000Z AUTO 36008KT 5SM 02/M08 A3050 RMK SLP370 T00241077 52031 IEM_DS3505
ZBYN,2004-11-24 01:00,ZBYN 240100Z AUTO 00000KT 4SM A3053 RMK IEM_DS3505
ZBYN,2004-11-24 02:00,ZBYN 240200Z AUTO 02004KT 01/M09 A3056 RMK T00101090 IEM_DS3505
ZBYN,2004-11-24 03:00,ZBYN 240300Z AUTO 36004KT 5SM 03/M05 A3062 RMK SLP411 T00271052 52036 IEM_DS3505
ZBYN,2004-11-24 04:00,ZBYN 240400Z AUTO 05008KT 2 1/2SM 00/M05 A3062 RMK T00001050 IEM_DS3505
ZBYN,2004-11-24 05:00,ZBYN 240500Z AUTO 36008KT 2 1/2SM A3059 RMK IEM_DS3505
ZBYN,2004-11-24 06:00,ZBYN 240600Z AUTO 34004KT 3SM 01/M02 A3059 RMK SLP416 T00061019 57006 IEM_DS3505
ZBYN,2004-11-24 07:00,ZBYN 240700Z AUTO 36008KT 2 1/2SM A3059 RMK IEM_DS3505
ZBYN,2004-11-24 08:00,ZBYN 240800Z AUTO 36008KT 2 1/2SM A3062 RMK IEM_DS3505
ZBYN,2004-11-24 09:00,ZBYN 240900Z AUTO 36006KT 2SM M01/M02 A3065 RMK SLP433 T10081025 52016 IEM_DS3505
ZBYN,2004-11-24 10:00,ZBYN 241000Z AUTO 36004KT 2SM M02/M04 A3065 RMK T10201040 IEM_DS3505
ZBYN,2004-11-24 11:00,ZBYN 241100Z AUTO 35006KT 1 1/2SM M03/M04 A3068 RMK T10301040 IEM_DS3505
ZBYN,2004-11-24 12:00,ZBYN 241200Z AUTO 36008KT 2SM M03/M05 A3071 RMK 60008 SLP460 T10271049 52023 IEM_DS3505
ZBYN,2004-11-24 13:00,ZBYN 241300Z AUTO 34010KT 1 1/2SM M04/M06 A3071 RMK T10401060 IEM_DS3505
ZBYN,2004-11-24 14:00,ZBYN 241400Z AUTO 34012KT 1 1/2SM M04/M06 A3071 RMK T10401060 IEM_DS3505
ZBYN,2004-11-24 15:00,ZBYN 241500Z AUTO 36006KT 3SM M04/M06 A3074 RMK SLP468 T10351056 52006 IEM_DS3505
ZBYN,2004-11-24 16:00,ZBYN 241600Z AUTO 34008KT 4SM A3071 RMK IEM_DS3505
ZBYN,2004-11-24 17:00,ZBYN 241700Z AUTO 34010KT 7SM A3071 RMK IEM_DS3505
ZBYN,2004-11-24 18:00,ZBYN 241800Z AUTO 36006KT 5SM M04/M07 A3071 RMK 60004 SLP463 T10391070 57008 IEM_DS3505
ZBYN,2004-11-24 19:00,ZBYN 241900Z AUTO 35006KT 6SM M04/M09 A3071 RMK T10401090 IEM_DS3505
ZBYN,2004-11-24 20:00,ZBYN 242000Z AUTO 34008KT 6SM M05/M09 A3068 RMK T10501090 IEM_DS3505
ZBYN,2004-11-24 21:00,ZBYN 242100Z AUTO 34004KT 5SM M04/M09 A3068 RMK 70011 SLP453 T10421086 57012 IEM_DS3505
ZBYN,2004-11-24 22:00,ZBYN 242200Z AUTO 31006KT 6SM M06/M10 A3065 RMK T10601100 IEM_DS3505
ZBYN,2004-11-24 23:00,ZBYN 242300Z AUTO 30006KT 6SM M07/M11 A3065 RMK T10701110 IEM_DS3505
ZBYN,2004-11-25 00:00,ZBYN 250000Z AUTO 32004KT 4SM M05/M09 A3068 RMK 70011 SLP460 T10471086 52002 IEM_DS3505
ZBYN,2004-11-25 01:00,ZBYN 250100Z AUTO 32008KT 6SM M05/M10 A3068 RMK T10501100 IEM_DS3505
ZBYN,2004-11-25 02:00,ZBYN 250200Z AUTO 33006KT 6SM M04/M11 A3071 RMK T10401110 IEM_DS3505
ZBYN,2004-11-25 03:00,ZBYN 250300Z AUTO 27004KT 5SM M02/M09 A3068 RMK SLP456 T10221089 57001 IEM_DS3505
ZBYN,2004-11-25 04:00,ZBYN 250400Z AUTO 26004KT 6SM M03/M09 A3065 RMK T10301090 IEM_DS3505
ZBYN,2004-11-25 05:00,ZBYN 250500Z AUTO 32014KT 7SM M02/M16 A3059 RMK T10201160 IEM_DS3505
ZBYN,2004-11-25 06:00,ZBYN 250600Z AUTO 32010KT 12SM M00/M15 A3056 RMK SLP414 T10041146 57035 IEM_DS3505
ZBYN,2004-11-25 07:00,ZBYN 250700Z AUTO 22006KT 6SM M02/M08 A3056 RMK T10201080 IEM_DS3505
ZBYN,2004-11-25 08:00,ZBYN 250800Z AUTO 31012KT 7SM M02/M16 A3056 RMK T10201160 IEM_DS3505
ZBYN,2004-11-25 09:00,ZBYN 250900Z AUTO 32010KT 12SM M03/M18 A3056 RMK SLP417 T10281175 57002 IEM_DS3505
ZBYN,2004-11-25 10:00,ZBYN 251000Z AUTO 30014KT 6SM M05/M18 A3059 RMK T10501180 IEM_DS3505
ZBYN,2004-11-25 11:00,ZBYN 251100Z AUTO 31010KT 6SM M06/M16 A3062 RMK T10601160 IEM_DS3505
ZBYN,2004-11-25 12:00,ZBYN 251200Z AUTO 29008KT 12SM M05/M15 A3062 RMK SLP438 T10471150 52015 IEM_DS3505
ZBYN,2004-11-25 13:00,ZBYN 251300Z AUTO 25002KT 6SM M06/M16 A3062 RMK T10601160 IEM_DS3505
ZBYN,2004-11-25 14:00,ZBYN 251400Z AUTO 27004KT 6SM M08/M16 A3062 RMK T10801160 IEM_DS3505
ZBYN,2004-11-25 15:00,ZBYN 251500Z AUTO 29002KT 11SM M07/M14 A3062 RMK SLP435 T10661141 57002 IEM_DS3505
ZBYN,2004-11-25 16:00,ZBYN 251600Z AUTO 27002KT 6SM M07/M17 A3059 RMK T10701170 IEM_DS3505
ZBYN,2004-11-25 17:00,ZBYN 251700Z AUTO 25002KT 6SM M08/M17 A3056 RMK T10801170 IEM_DS3505
ZBYN,2004-11-25 18:00,ZBYN 251800Z AUTO 25004KT 9SM M07/M15 A3056 RMK SLP417 T10701147 57014 IEM_DS3505
ZBYN,2004-11-25 19:00,ZBYN 251900Z AUTO 20004KT 6SM M10/M16 A3056 RMK T11001160 IEM_DS3505
ZBYN,2004-11-25 20:00,ZBYN 252000Z AUTO 25004KT 6SM M10/M16 A3053 RMK T11001160 IEM_DS3505
ZBYN,2004-11-25 21:00,ZBYN 252100Z AUTO 18006KT 9SM M09/M14 RMK SLP412 T10881138 57012 IEM_DS3505
ZBYN,2004-11-25 22:00,ZBYN 252200Z AUTO 23004KT 6SM M09/M16 A3053 RMK T10901160 IEM_DS3505
ZBYN,2004-11-25 23:00,ZBYN 252300Z AUTO 24006KT 6SM M09/M16 A3053 RMK T10901160 IEM_DS3505
ZBYN,2004-11-26 00:00,ZBYN 260000Z AUTO 14004KT 9SM M08/M14 A3053 RMK SLP419 T10781138 52005 IEM_DS3505
ZBYN,2004-11-26 01:00,ZBYN 260100Z AUTO 22004KT 6SM M07/M15 A3056 RMK T10701150 IEM_DS3505
ZBYN,2004-11-26 02:00,ZBYN 260200Z AUTO 22004KT 6SM M04/M13 A3056 RMK T10401130 IEM_DS3505
ZBYN,2004-11-26 03:00,ZBYN 260300Z AUTO 18006KT 6SM M03/M13 A3056 RMK SLP413 T10271129 54000 IEM_DS3505
ZBYN,2004-11-26 04:00,ZBYN 260400Z AUTO 21006KT 6SM M02/M16 A3050 RMK T10201160 IEM_DS3505
ZBYN,2004-11-26 05:00,ZBYN 260500Z AUTO 23006KT 6SM M01/M16 A3047 RMK T10101160 IEM_DS3505
ZBYN,2004-11-26 06:00,ZBYN 260600Z AUTO 16008KT 6SM 01/M14 A3045 RMK SLP364 T00131139 57038 IEM_DS3505
ZBYN,2004-11-26 07:00,ZBYN 260700Z AUTO 19004KT 6SM 01/M16 A3042 RMK T00101160 IEM_DS3505
ZBYN,2004-11-26 08:00,ZBYN 260800Z AUTO 20004KT 6SM 02/M16 A3042 RMK T00201160 IEM_DS3505
ZBYN,2004-11-26 09:00,ZBYN 260900Z AUTO 14006KT 6SM 01/M11 A3042 RMK SLP358 T00091111 57009 IEM_DS3505
ZBYN,2004-11-26 10:00,ZBYN 261000Z AUTO 11004KT 6SM M03/M12 A3042 RMK T10301120 IEM_DS3505
ZBYN,2004-11-26 11:00,ZBYN 261100Z AUTO 10002KT 6SM M05/M12 A3042 RMK T10501120 IEM_DS3505
ZBYN,2004-11-26 12:00,ZBYN 261200Z AUTO 09002KT 6SM M04/M10 A3042 RMK SLP373 T10351101 52007 IEM_DS3505
ZBYN,2004-11-26 13:00,ZBYN 261300Z AUTO 07004KT 6SM M06/M11 A3042 RMK T10601110 IEM_DS3505
ZBYN,2004-11-26 14:00,ZBYN 261400Z AUTO 11002KT 5SM A3042 RMK IEM_DS3505
ZBYN,2004-11-26 15:00,ZBYN 261500Z AUTO 29002KT 6SM M06/M10 A3042 RMK SLP365 T10601095 57002 IEM_DS3505
ZBYN,2004-11-26 16:00,ZBYN 261600Z AUTO 11002KT 5SM A3042 RMK IEM_DS3505
ZBYN,2004-11-26 17:00,ZBYN 261700Z AUTO 11004KT 5SM A3042 RMK IEM_DS3505
ZBYN,2004-11-26 18:00,ZBYN 261800Z AUTO 14002KT 2 1/2SM M08/M10 A3039 RMK SLP360 T10811105 57002 IEM_DS3505
ZBYN,2004-11-26 19:00,ZBYN 261900Z AUTO 00000KT 4SM M10/M13 A3042 RMK T11001130 IEM_DS3505
ZBYN,2004-11-26 20:00,ZBYN 262000Z AUTO 10002KT 4SM M11/M14 A3039 RMK T11101140 IEM_DS3505
ZBYN,2004-11-26 21:00,ZBYN 262100Z AUTO 22002KT 2 1/2SM M09/M11 A3036 RMK SLP350 T10891114 57011 IEM_DS3505
ZBYN,2004-11-26 22:00,ZBYN 262200Z AUTO 00000KT 4SM M12/M14 A3036 RMK T11201140 IEM_DS3505
ZBYN,2004-11-26 23:00,ZBYN 262300Z AUTO 00000KT 2 1/2SM M12/M14 A3036 RMK T11201140 IEM_DS3505
ZBYN,2004-11-27 00:00,ZBYN 270000Z AUTO 32004KT 2 1/2SM M08/M10 A3036 RMK SLP354 T10801105 57002 IEM_DS3505
ZBYN,2004-11-27 01:00,ZBYN 270100Z AUTO 13002KT 1 1/2SM M09/M13 A3039 RMK T10901130 IEM_DS3505
ZBYN,2004-11-27 02:00,ZBYN 270200Z AUTO 13002KT 1SM M05/M11 A3039 RMK T10501110 IEM_DS3505
ZBYN,2004-11-27 03:00,ZBYN 270300Z AUTO 14002KT 2SM M02/M09 A3036 RMK SLP350 T10221089 52002 IEM_DS3505
ZBYN,2004-11-27 04:00,ZBYN 270400Z AUTO 16002KT 1 1/4SM 00/M11 A3033 RMK T00001110 IEM_DS3505
ZBYN,2004-11-27 05:00,ZBYN 270500Z AUTO 15002KT 1 1/4SM 01/M10 A3030 RMK T00101100 IEM_DS3505
ZBYN,2004-11-27 06:00,ZBYN 270600Z AUTO 18004KT 3SM 03/M11 A3024 RMK SLP305 T00281107 57036 IEM_DS3505
ZBYN,2004-11-27 07:00,ZBYN 270700Z AUTO 16002KT 2SM 03/M12 A3024 RMK T00301120 IEM_DS3505
ZBYN,2004-11-27 08:00,ZBYN 270800Z AUTO 14002KT 2SM 03/M13 A3024 RMK T00301130 IEM_DS3505
ZBYN,2004-11-27 09:00,ZBYN 270900Z AUTO 29002KT 2 1/2SM 01/M09 A3024 RMK SLP302 T00081092 57007 IEM_DS3505
ZBYN,2004-11-27 10:00,ZBYN 271000Z AUTO 00000KT 2SM M02/M10 A3024 RMK T10201100 IEM_DS3505
ZBYN,2004-11-27 12:00,ZBYN 271200Z AUTO 14002KT 2SM M04/M07 A3024 RMK SLP316 T10381070 52006 IEM_DS3505
ZBYN,2004-11-27 13:00,ZBYN 271300Z AUTO 11002KT 2 1/2SM M06/M10 A3027 RMK T10601100 IEM_DS3505
ZBYN,2004-11-27 14:00,ZBYN 271400Z AUTO 11002KT 2 1/2SM M07/M11 A3027 RMK T10701110 IEM_DS3505
ZBYN,2004-11-27 15:00,ZBYN 271500Z AUTO 20002KT 1SM M06/M08 A3027 RMK SLP317 T10581082 52007 IEM_DS3505
ZBYN,2004-11-27 16:00,ZBYN 271600Z AUTO 11002KT 2SM M08/M12 A3027 RMK T10801120 IEM_DS3505
ZBYN,2004-11-27 17:00,ZBYN 271700Z AUTO 03002KT 1 1/2SM M08/M12 A3027 RMK T10801120 IEM_DS3505
ZBYN,2004-11-27 18:00,ZBYN 271800Z AUTO 32004KT 1SM M07/M09 A3027 RMK SLP308 T10701086 57001 IEM_DS3505
ZBYN,2004-11-27 19:00,ZBYN 271900Z AUTO 10002KT 1 1/4SM M10/M13 A3027 RMK T11001130 IEM_DS3505
ZBYN,2004-11-27 20:00,ZBYN 272000Z AUTO 00000KT 1 1/4SM M09/M12 A3027 RMK T10901120 IEM_DS3505
ZBYN,2004-11-27 21:00,ZBYN 272100Z AUTO 25002KT 1 1/4SM M08/M10 A3027 RMK SLP311 T10781096 57002 IEM_DS3505
ZBYN,2004-11-27 22:00,ZBYN 272200Z AUTO 1 1/4SM M10/M13 A3027 RMK T11001130 IEM_DS3505
ZBYN,2004-11-27 23:00,ZBYN 272300Z AUTO 12002KT 1 1/4SM M10/M13 A3030 RMK T11001130 IEM_DS3505
ZBYN,2004-11-28 00:00,ZBYN 280000Z AUTO 22002KT 1 1/4SM M08/M10 A3030 RMK SLP336 T10791104 52014 IEM_DS3505
ZBYN,2004-11-28 01:00,ZBYN 280100Z AUTO 00000KT 1SM M07/M10 A3033 RMK T10701100 IEM_DS3505
ZBYN,2004-11-28 02:00,ZBYN 280200Z AUTO 00000KT 1/2SM M03/M07 A3033 RMK T10301070 IEM_DS3505
ZBYN,2004-11-28 03:00,ZBYN 280300Z AUTO 11004KT 2SM M01/M07 A3030 RMK SLP326 T10071072 54000 IEM_DS3505
ZBYN,2004-11-28 04:00,ZBYN 280400Z AUTO 16004KT 1SM 02/M08 A3027 RMK T00201080 IEM_DS3505
ZBYN,2004-11-28 05:00,ZBYN 280500Z AUTO 14002KT 1 1/4SM 04/M11 A3024 RMK T00401110 IEM_DS3505
ZBYN,2004-11-28 06:00,ZBYN 280600Z AUTO 14004KT 2 1/2SM 06/M09 A3021 RMK SLP282 T00571089 57031 IEM_DS3505
ZBYN,2004-11-28 07:00,ZBYN 280700Z AUTO 12002KT 2SM 06/M12 A3021 RMK T00601120 IEM_DS3505
ZBYN,2004-11-28 08:00,ZBYN 280800Z AUTO 14002KT 2 1/2SM 05/M09 A3018 RMK T00501090 IEM_DS3505
ZBYN,2004-11-28 09:00,ZBYN 280900Z AUTO 00000KT 3SM 04/M07 A3018 RMK SLP279 T00351070 57008 IEM_DS3505
ZBYN,2004-11-28 10:00,ZBYN 281000Z AUTO 14004KT 2 1/2SM 01/M09 A3018 RMK T00101090 IEM_DS3505
ZBYN,2004-11-28 11:00,ZBYN 281100Z AUTO 00000KT 2SM M01/M09 A3021 RMK T10101090 IEM_DS3505
ZBYN,2004-11-28 12:00,ZBYN 281200Z AUTO 32002KT 1 1/4SM M00/M05 A3021 RMK SLP299 T10051053 52011 IEM_DS3505
ZBYN,2004-11-28 13:00,ZBYN 281300Z AUTO 12004KT 2SM M03/M08 A3021 RMK T10301080 IEM_DS3505
ZBYN,2004-11-28 14:00,ZBYN 281400Z AUTO 11004KT 2SM M02/M07 A3021 RMK T10201070 IEM_DS3505
ZBYN,2004-11-28 15:00,ZBYN 281500Z AUTO 04002KT 2SM M03/M06 A3024 RMK SLP292 T10261062 52003 IEM_DS3505
ZBYN,2004-11-28 16:00,ZBYN 281600Z AUTO 12004KT 1 1/4SM M05/M08 A3024 RMK T10501080 IEM_DS3505
ZBYN,2004-11-28 17:00,ZBYN 281700Z AUTO 1 1/4SM M04/M07 A3024 RMK T10401070 IEM_DS3505
ZBYN,2004-11-28 18:00,ZBYN 281800Z AUTO 36002KT 2SM M05/M07 A3024 RMK SLP285 T10481069 54000 IEM_DS3505
ZBYN,2004-11-28 19:00,ZBYN 281900Z AUTO 13004KT 1 1/4SM M05/M08 A3024 RMK T10501080 IEM_DS3505
ZBYN,2004-11-28 20:00,ZBYN 282000Z AUTO 1 1/4SM M05/M08 A3024 RMK T10501080 IEM_DS3505
ZBYN,2004-11-28 21:00,ZBYN 282100Z AUTO 29002KT 1 1/4SM M05/M07 A3021 RMK SLP288 T10461070 54000 IEM_DS3505
ZBYN,2004-11-28 22:00,ZBYN 282200Z AUTO 00000KT 1 1/4SM M08/M10 A3024 RMK T10801100 IEM_DS3505
ZBYN,2004-11-28 23:00,ZBYN 282300Z AUTO 1SM M08/M10 A3024 RMK T10801100 IEM_DS3505
ZBYN,2004-11-29 00:00,ZBYN 290000Z AUTO 34002KT 1SM M06/M07 A3027 RMK SLP308 T10551070 52010 IEM_DS3505
ZBYN,2004-11-29 01:00,ZBYN 290100Z AUTO 00000KT 1/2SM M05/M08 A3027 RMK T10501080 IEM_DS3505
ZBYN,2004-11-29 02:00,ZBYN 290200Z AUTO 22002KT 1SM M01/M06 A3027 RMK T10101060 IEM_DS3505
ZBYN,2004-11-29 03:00,ZBYN 290300Z AUTO 11002KT 1SM 02/M04 A3027 RMK SLP302 T00221045 52003 IEM_DS3505
ZBYN,2004-11-29 04:00,ZBYN 290400Z AUTO 15002KT 1SM 03/M06 A3027 RMK T00301060 IEM_DS3505
ZBYN,2004-11-29 05:00,ZBYN 290500Z AUTO 21002KT 1SM 06/M07 A3024 RMK T00601070 IEM_DS3505
ZBYN,2004-11-29 06:00,ZBYN 290600Z AUTO 20008KT 1 1/4SM 08/M09 A3021 RMK SLP271 T00831086 57021 IEM_DS3505
ZBYN,2004-11-29 07:00,ZBYN 290700Z AUTO 20006KT 3SM 08/M10 A3021 RMK T00801100 IEM_DS3505
ZBYN,2004-11-29 08:00,ZBYN 290800Z AUTO 16002KT 2 1/2SM 07/M09 A3021 RMK T00701090 IEM_DS3505
ZBYN,2004-11-29 09:00,ZBYN 290900Z AUTO 11004KT 6SM 05/M07 A3021 RMK SLP272 T00541067 57004 IEM_DS3505
ZBYN,2004-11-29 10:00,ZBYN 291000Z AUTO 08002KT 02/M08 A3021 RMK T00201080 IEM_DS3505
ZBYN,2004-11-29 11:00,ZBYN 291100Z AUTO 11004KT 4SM M02/M07 A3021 RMK T10201070 IEM_DS3505
ZBYN,2004-11-29 11:30,ZBYN 291130Z AUTO 10004KT 4SM M02/M07 A3021 RMK T10201070 IEM_DS3505
ZBYN,2004-11-29 12:00,ZBYN 291200Z AUTO 14002KT 5SM M01/M06 A3021 RMK SLP292 T10091055 52006 IEM_DS3505
ZBYN,2004-11-29 12:30,ZBYN 291230Z AUTO 08002KT 5SM M02/M08 A3021 RMK T10201080 IEM_DS3505
ZBYN,2004-11-29 13:00,ZBYN 291300Z AUTO 10002KT 5SM M03/M08 A3021 RMK T10301080 IEM_DS3505
ZBYN,2004-11-29 13:30,ZBYN 291330Z AUTO 11002KT 6SM M03/M08 A3024 RMK T10301080 IEM_DS3505
ZBYN,2004-11-29 14:00,ZBYN 291400Z AUTO 12002KT 6SM M04/M08 A3024 RMK T10401080 IEM_DS3505
ZBYN,2004-11-29 15:00,ZBYN 291500Z AUTO 27002KT 3SM M02/M06 A3024 RMK SLP295 T10251056 52013 IEM_DS3505
ZBYN,2004-11-29 16:00,ZBYN 291600Z AUTO 09002KT 6SM M03/M08 A3024 RMK T10301080 IEM_DS3505
ZBYN,2004-11-29 17:00,ZBYN 291700Z AUTO 10002KT 5SM M05/M09 A3024 RMK T10501090 IEM_DS3505
ZBYN,2004-11-29 18:00,ZBYN 291800Z AUTO 36002KT 2 1/2SM M03/M08 A3024 RMK SLP278 T10291078 57006 IEM_DS3505
ZBYN,2004-11-29 19:00,ZBYN 291900Z AUTO 00000KT 5SM M07/M10 A3024 RMK T10701100 IEM_DS3505
ZBYN,2004-11-29 20:00,ZBYN 292000Z AUTO 14004KT 4SM M07/M09 A3024 RMK T10701090 IEM_DS3505
ZBYN,2004-11-29 21:00,ZBYN 292100Z AUTO 20002KT 2 1/2SM M05/M07 A3024 RMK SLP290 T10531073 52002 IEM_DS3505
ZBYN,2004-11-29 22:00,ZBYN 292200Z AUTO 00000KT 2 1/2SM M07/M10 A3024 RMK T10701100 IEM_DS3505
ZBYN,2004-11-29 23:00,ZBYN 292300Z AUTO 00000KT 2SM M08/M10 A3024 RMK T10801100 IEM_DS3505
ZBYN,2004-11-30 00:00,ZBYN 300000Z AUTO 34002KT 2 1/2SM M06/M08 A3027 RMK SLP311 T10561080 52008 IEM_DS3505
ZBYN,2004-11-30 01:00,ZBYN 300100Z AUTO 18002KT 1SM M05/M08 A3027 RMK T10501080 IEM_DS3505
ZBYN,2004-11-30 02:00,ZBYN 300200Z AUTO 00000KT 1 1/4SM M01/M06 A3027 RMK T10101060 IEM_DS3505
ZBYN,2004-11-30 03:00,ZBYN 300300Z AUTO 34002KT 2 1/2SM 03/M06 A3030 RMK SLP308 T00301061 52009 IEM_DS3505
ZBYN,2004-11-30 04:00,ZBYN 300400Z AUTO 1 1/2SM 04/M09 A3027 RMK T00401090 IEM_DS3505
ZBYN,2004-11-30 05:00,ZBYN 300500Z AUTO 16002KT 2SM 05/M09 A3024 RMK T00501090 IEM_DS3505
ZBYN,2004-11-30 06:00,ZBYN 300600Z AUTO 14002KT 2 1/2SM 08/M08 A3021 RMK SLP270 T00751081 57027 IEM_DS3505
ZBYN,2004-11-30 07:00,ZBYN 300700Z AUTO 00000KT 2SM 06/M08 A3021 RMK T00601080 IEM_DS3505
ZBYN,2004-11-30 08:00,ZBYN 300800Z AUTO 25002KT 2SM 05/M07 A3021 RMK T00501070 IEM_DS3505
ZBYN,2004-11-30 09:00,ZBYN 300900Z AUTO 20004KT 2 1/2SM 05/M06 A3021 RMK SLP284 T00471062 52004 IEM_DS3505
ZBYN,2004-11-30 10:00,ZBYN 301000Z AUTO 08002KT 1 1/2SM 00/M06 A3024 RMK T00001060 IEM_DS3505
ZBYN,2004-11-30 11:00,ZBYN 301100Z AUTO 05002KT 2SM A3024 RMK IEM_DS3505
ZBYN,2004-11-30 12:00,ZBYN 301200Z AUTO 29002KT 2 1/2SM 01/M05 A3027 RMK SLP311 T00111047 52018 IEM_DS3505
ZBYN,2004-11-30 13:00,ZBYN 301300Z AUTO 10002KT 2 1/2SM A3030 RMK IEM_DS3505
ZBYN,2004-11-30 14:00,ZBYN 301400Z AUTO 00000KT 4SM A3030 RMK IEM_DS3505
ZBYN,2004-11-30 15:00,ZBYN 301500Z AUTO 36002KT 3SM M00/M05 A3030 RMK SLP303 T10051049 52004 IEM_DS3505
ZBYN,2004-11-30 16:00,ZBYN 301600Z AUTO 00000KT 4SM A3030 RMK IEM_DS3505
ZBYN,2004-11-30 17:00,ZBYN 301700Z AUTO 05002KT 4SM A3030 RMK IEM_DS3505
ZBYN,2004-11-30 18:00,ZBYN 301800Z AUTO 34002KT 4SM 01/M06 A3030 RMK SLP292 T00141059 54000 IEM_DS3505
ZBYN,2004-11-30 19:00,ZBYN 301900Z AUTO 00000KT 4SM A3030 RMK IEM_DS3505
ZBYN,2004-11-30 20:00,ZBYN 302000Z AUTO 00000KT 4SM A3030 RMK IEM_DS3505
ZBYN,2004-11-30 21:00,ZBYN 302100Z AUTO 32004KT 4SM 01/M06 A3030 RMK SLP300 T00121059 52003 IEM_DS3505
ZBYN,2004-11-30 23:00,ZBYN 302300Z AUTO 03002KT 2 1/2SM A3033 RMK IEM_DS3505
ZBYN,2004-12-01 00:00,ZBYN 010000Z AUTO 36006KT 4SM 01/M06 A3033 RMK SLP323 T00081058 52014 IEM_DS3505
ZBYN,2004-12-01 01:00,ZBYN 010100Z AUTO 06002KT 1SM A3036 RMK IEM_DS3505
ZBYN,2004-12-01 02:00,ZBYN 010200Z AUTO 32006KT 1 1/4SM 03/M06 A3036 RMK T00301060 IEM_DS3505
ZBYN,2004-12-01 03:00,ZBYN 010300Z AUTO 34004KT 2 1/2SM 06/M06 A3036 RMK SLP322 T00591063 52005 IEM_DS3505
ZBYN,2004-12-01 04:00,ZBYN 010400Z AUTO 11002KT 1 1/4SM 05/M05 A3036 RMK T00501050 IEM_DS3505
ZBYN,2004-12-01 05:00,ZBYN 010500Z AUTO 00000KT 1 1/4SM 06/M05 A3033 RMK T00601050 IEM_DS3505
ZBYN,2004-12-01 06:00,ZBYN 010600Z AUTO 36002KT 2 1/2SM 09/M06 A3033 RMK SLP298 T00941056 57013 IEM_DS3505
ZBYN,2004-12-01 07:00,ZBYN 010700Z AUTO 21004KT 1 1/4SM 07/M03 A3033 RMK T00701030 IEM_DS3505
ZBYN,2004-12-01 08:00,ZBYN 010800Z AUTO 29002KT 1SM 06/M03 A3033 RMK T00601030 IEM_DS3505
ZBYN,2004-12-01 09:00,ZBYN 010900Z AUTO 14004KT 2SM 06/M02 A3033 RMK SLP309 T00641017 52005 IEM_DS3505
ZBYN,2004-12-01 10:00,ZBYN 011000Z AUTO 12004KT 1/2SM 02/M02 A3036 RMK T00201020 IEM_DS3505
ZBYN,2004-12-01 11:00,ZBYN 011100Z AUTO 12004KT 1SM 03/M01 A3039 RMK T00301010 IEM_DS3505
ZBYN,2004-12-01 12:00,ZBYN 011200Z AUTO 32004KT 1 1/4SM 04/M00 A3039 RMK SLP336 T00421004 52020 IEM_DS3505
ZBYN,2004-12-01 13:00,ZBYN 011300Z AUTO 27002KT 03/M03 A3039 RMK T00301030 IEM_DS3505
ZBYN,2004-12-01 14:00,ZBYN 011400Z AUTO 15004KT 04/M04 A3039 RMK T00401040 IEM_DS3505
ZBYN,2004-12-01 15:00,ZBYN 011500Z AUTO 00000KT 1 1/4SM 04/M00 A3039 RMK SLP326 T00411003 57001 IEM_DS3505
ZBYN,2004-12-01 16:00,ZBYN 011600Z AUTO 10006KT 6SM 05/M08 A3039 RMK T00501080 IEM_DS3505
ZBYN,2004-12-01 17:00,ZBYN 011700Z AUTO 07006KT 6SM 05/M07 A3039 RMK T00501070 IEM_DS3505
ZBYN,2004-12-01 18:00,ZBYN 011800Z AUTO 20002KT 1 1/4SM 04/M00 A3039 RMK 60000 SLP323 T00351005 52002 IEM_DS3505
ZBYN,2004-12-01 19:00,ZBYN 011900Z AUTO 08006KT 6SM 04/M07 A3039 RMK T00401070 IEM_DS3505
ZBYN,2004-12-01 20:00,ZBYN 012000Z AUTO 09008KT 6SM 04/M06 A3039 RMK T00401060 IEM_DS3505
ZBYN,2004-12-01 21:00,ZBYN 012100Z AUTO 25002KT 2 1/2SM 04/M03 A3039 RMK 70000 SLP320 T00391029 57007 IEM_DS3505
ZBYN,2004-12-01 23:00,ZBYN 012300Z AUTO 09004KT 5SM 04/M06 A3039 RMK T00401060 IEM_DS3505
ZBYN,2004-12-02 00:00,ZBYN 020000Z AUTO 18002KT 2SM 04/M03 A3039 RMK 70000 SLP332 T00401030 52008 IEM_DS3505
ZBYN,2004-12-02 01:00,ZBYN 020100Z AUTO 07010KT 04/M06 A3042 RMK T00401060 IEM_DS3505
ZBYN,2004-12-02 02:00,ZBYN 020200Z AUTO 06004KT 3SM 04/M05 A3045 RMK T00401050 IEM_DS3505
ZBYN,2004-12-02 03:00,ZBYN 020300Z AUTO 29002KT 2 1/2SM 06/M03 A3045 RMK SLP339 T00601033 52009 IEM_DS3505
ZBYN,2004-12-02 04:00,ZBYN 020400Z AUTO 11004KT 1SM 04/00 A3042 RMK T00400000 IEM_DS3505
ZBYN,2004-12-02 05:00,ZBYN 020500Z AUTO 09002KT 1SM 04/01 A3039 RMK T00400010 IEM_DS3505
ZBYN,2004-12-02 06:00,ZBYN 020600Z AUTO 32004KT 2 1/2SM 06/01 A3036 RMK SLP314 T00580010 57024 IEM_DS3505
ZBYN,2004-12-02 06:30,ZBYN 020630Z AUTO 00000KT 1SM 05/01 A3036 RMK T00500010 IEM_DS3505
ZBYN,2004-12-02 07:00,ZBYN 020700Z AUTO 27002KT 1SM 04/01 A3036 RMK T00400010 IEM_DS3505
ZBYN,2004-12-02 08:00,ZBYN 020800Z AUTO 34002KT 1 1/4SM 04/01 A3036 RMK T00400010 IEM_DS3505
ZBYN,2004-12-02 09:00,ZBYN 020900Z AUTO 36004KT 2SM 04/02 A3036 RMK SLP314 T00450017 57001 IEM_DS3505
ZBYN,2004-12-02 10:00,ZBYN 021000Z AUTO 35004KT 2SM 03/00 A3036 RMK T00300000 IEM_DS3505
ZBYN,2004-12-02 11:00,ZBYN 021100Z AUTO 11002KT 2 1/2SM 03/00 A3036 RMK T00300000 IEM_DS3505
ZBYN,2004-12-02 12:00,ZBYN 021200Z AUTO 34004KT 2SM 04/01 A3036 RMK SLP319 T00430008 52004 IEM_DS3505
ZBYN,2004-12-02 13:00,ZBYN 021300Z AUTO 00000KT 1 1/4SM 03/00 A3036 RMK T00300000 IEM_DS3505
ZBYN,2004-12-02 14:00,ZBYN 021400Z AUTO 35002KT 1SM 03/01 A3036 RMK T00300010 IEM_DS3505
ZBYN,2004-12-02 15:00,ZBYN 021500Z AUTO 32004KT 2SM 04/01 A3033 RMK SLP307 T00410011 57008 IEM_DS3505
ZBYN,2004-12-02 16:00,ZBYN 021600Z AUTO 19002KT 1SM 03/01 A3033 RMK T00300010 IEM_DS3505
ZBYN,2004-12-02 17:00,ZBYN 021700Z AUTO 24002KT 1SM 02/01 A3033 RMK T00200010 IEM_DS3505
ZBYN,2004-12-02 18:00,ZBYN 021800Z AUTO 14004KT 1SM 03/02 A3030 RMK SLP297 T00310022 57011 IEM_DS3505
ZBYN,2004-12-02 19:00,ZBYN 021900Z AUTO 15002KT 1/2SM 02/01 A3030 RMK T00200010 IEM_DS3505
ZBYN,2004-12-02 20:00,ZBYN 022000Z AUTO 11002KT 1/2SM 02/01 A3030 RMK T00200010 IEM_DS3505
ZBYN,2004-12-02 21:00,ZBYN 022100Z AUTO 11004KT 1SM 03/02 A3027 RMK 70001 SLP290 T00270021 57009 IEM_DS3505
ZBYN,2004-12-02 22:00,ZBYN 022200Z AUTO 11002KT 1/2SM 02/01 A3027 RMK T00200010 IEM_DS3505
ZBYN,2004-12-02 23:00,ZBYN 022300Z AUTO 14002KT 1/2SM 02/01 A3027 RMK T00200010 IEM_DS3505
ZBYN,2004-12-03 00:00,ZBYN 030000Z AUTO 20002KT 1/2SM 03/02 A3027 RMK 70001 SLP294 T00290022 52004 IEM_DS3505
ZBYN,2004-12-03 01:00,ZBYN 030100Z AUTO 00000KT 3/8SM 02/01 A3030 RMK T00200010 IEM_DS3505
ZBYN,2004-12-03 02:00,ZBYN 030200Z AUTO 00000KT 1/4SM 02/01 A3030 RMK T00200010 IEM_DS3505
ZBYN,2004-12-03 03:00,ZBYN 030300Z AUTO 18004KT 1/8SM 04/03 A3027 RMK SLP289 T00390029 57004 IEM_DS3505
ZBYN,2004-12-03 04:00,ZBYN 030400Z AUTO 21004KT 1/4SM 04/02 A3024 RMK T00400020 IEM_DS3505
ZBYN,2004-12-03 05:00,ZBYN 030500Z AUTO 26004KT 3/8SM 05/03 A3024 RMK T00500030 IEM_DS3505
ZBYN,2004-12-03 06:00,ZBYN 030600Z AUTO 22004KT 1SM 09/01 A3021 RMK SLP253 T00870009 57026 IEM_DS3505
ZBYN,2004-12-03 07:00,ZBYN 030700Z AUTO 24004KT 1SM 07/01 A3018 RMK T00700010 IEM_DS3505
ZBYN,2004-12-03 08:00,ZBYN 030800Z AUTO 25006KT 1SM 07/01 A3021 RMK T00700010 IEM_DS3505
ZBYN,2004-12-03 09:00,ZBYN 030900Z AUTO 32006KT 11SM 08/M04 A3021 RMK SLP263 T00791036 52007 IEM_DS3505
ZBYN,2004-12-03 10:00,ZBYN 031000Z AUTO 31002KT 6SM 05/M04 A3024 RMK T00501040 IEM_DS3505
ZBYN,2004-12-03 11:00,ZBYN 031100Z AUTO 30008KT 6SM 04/M05 A3024 RMK T00401050 IEM_DS3505
ZBYN,2004-12-03 12:00,ZBYN 031200Z AUTO 34002KT 11SM 05/M04 A3027 RMK SLP283 T00511044 52014 IEM_DS3505
ZBYN,2004-12-03 13:00,ZBYN 031300Z AUTO 34004KT 6SM 02/M05 A3024 RMK T00201050 IEM_DS3505
ZBYN,2004-12-03 14:00,ZBYN 031400Z AUTO 14002KT 6SM 00/M04 A3024 RMK T00001040 IEM_DS3505
ZBYN,2004-12-03 15:00,ZBYN 031500Z AUTO 07004KT 9SM 01/M03 A3024 RMK SLP282 T00091028 57006 IEM_DS3505
ZBYN,2004-12-03 16:00,ZBYN 031600Z AUTO 24004KT 6SM 00/M04 A3024 RMK T00001040 IEM_DS3505
ZBYN,2004-12-03 17:00,ZBYN 031700Z AUTO 30008KT 6SM 03/M07 A3024 RMK T00301070 IEM_DS3505
ZBYN,2004-12-03 18:00,ZBYN 031800Z AUTO 29006KT 9SM 04/M06 A3021 RMK SLP263 T00381059 57005 IEM_DS3505
ZBYN,2004-12-03 20:00,ZBYN 032000Z AUTO 25004KT 6SM 01/M07 A3024 RMK T00101070 IEM_DS3505
ZBYN,2004-12-03 21:00,ZBYN 032100Z AUTO 32006KT 9SM 03/M06 A3021 RMK SLP265 T00291062 57001 IEM_DS3505
ZBYN,2004-12-03 22:00,ZBYN 032200Z AUTO 6SM M03/M07 A3024 RMK T10301070 IEM_DS3505
ZBYN,2004-12-03 23:00,ZBYN 032300Z AUTO 6SM M02/M07 A3024 RMK T10201070 IEM_DS3505
ZBYN,2004-12-04 00:00,ZBYN 040000Z AUTO 11004KT 12SM 00/M06 A3027 RMK SLP290 T00021060 52014 IEM_DS3505
ZBYN,2004-12-04 01:00,ZBYN 040100Z AUTO 14002KT 6SM M01/M05 A3027 RMK T10101050 IEM_DS3505
ZBYN,2004-12-04 02:00,ZBYN 040200Z AUTO 22002KT 5SM 02/M05 A3027 RMK T00201050 IEM_DS3505
ZBYN,2004-12-04 03:00,ZBYN 040300Z AUTO 18004KT 7SM 06/M06 A3024 RMK SLP279 T00601065 57008 IEM_DS3505
ZBYN,2004-12-04 04:00,ZBYN 040400Z AUTO 22004KT 6SM 05/M09 A3021 RMK T00501090 IEM_DS3505
ZBYN,2004-12-04 05:00,ZBYN 040500Z AUTO 23004KT 6SM 06/M10 A3018 RMK T00601100 IEM_DS3505
ZBYN,2004-12-04 06:00,ZBYN 040600Z AUTO 14006KT 11SM 08/M07 A3015 RMK SLP242 T00771067 57026 IEM_DS3505
ZBYN,2004-12-04 07:00,ZBYN 040700Z AUTO 20004KT 6SM 07/M09 A3015 RMK T00701090 IEM_DS3505
ZBYN,2004-12-04 08:00,ZBYN 040800Z AUTO 18004KT 6SM 06/M09 A3018 RMK T00601090 IEM_DS3505
ZBYN,2004-12-04 09:00,ZBYN 040900Z AUTO 14002KT 9SM 06/M07 A3018 RMK SLP255 T00601068 52008 IEM_DS3505
ZBYN,2004-12-04 10:00,ZBYN 041000Z AUTO 6SM 02/M08 A3018 RMK T00201080 IEM_DS3505
ZBYN,2004-12-04 11:00,ZBYN 041100Z AUTO 12002KT 6SM M01/M06 A3021 RMK T10101060 IEM_DS3505
ZBYN,2004-12-04 12:00,ZBYN 041200Z AUTO 32006KT 7SM 03/M11 A3021 RMK SLP280 T00281114 52013 IEM_DS3505
ZBYN,2004-12-04 13:00,ZBYN 041300Z AUTO 10002KT 6SM M02/M10 A3024 RMK T10201100 IEM_DS3505
ZBYN,2004-12-04 14:00,ZBYN 041400Z AUTO 36006KT 6SM M01/M11 A3024 RMK T10101110 IEM_DS3505
ZBYN,2004-12-04 15:00,ZBYN 041500Z AUTO 36004KT 6SM 01/M10 A3024 RMK SLP283 T00101095 52009 IEM_DS3505
ZBYN,2004-12-04 16:00,ZBYN 041600Z AUTO 07004KT 6SM M03/M10 A3027 RMK T10301100 IEM_DS3505
ZBYN,2004-12-04 17:00,ZBYN 041700Z AUTO 05004KT 6SM M03/M10 A3024 RMK T10301100 IEM_DS3505
ZBYN,2004-12-04 18:00,ZBYN 041800Z AUTO 27002KT 6SM M01/M09 A3024 RMK SLP279 T10071086 57003 IEM_DS3505
ZBYN,2004-12-04 19:00,ZBYN 041900Z AUTO 6SM M05/M10 A3024 RMK T10501100 IEM_DS3505
ZBYN,2004-12-04 20:00,ZBYN 042000Z AUTO 00000KT 6SM M06/M10 A3024 RMK T10601100 IEM_DS3505
ZBYN,2004-12-04 21:00,ZBYN 042100Z AUTO 18002KT 6SM M05/M08 A3024 RMK SLP284 T10461083 57005 IEM_DS3505
ZBYN,2004-12-04 22:00,ZBYN 042200Z AUTO 00000KT 6SM M07/M10 A3024 RMK T10701100 IEM_DS3505
ZBYN,2004-12-04 23:00,ZBYN 042300Z AUTO 6SM M07/M11 A3024 RMK T10701110 IEM_DS3505
ZBYN,2004-12-05 00:00,ZBYN 050000Z AUTO 14002KT 6SM M05/M09 A3027 RMK SLP302 T10491090 52011 IEM_DS3505
ZBYN,2004-12-05 01:00,ZBYN 050100Z AUTO 00000KT 4SM M04/M09 A3027 RMK T10401090 IEM_DS3505
ZBYN,2004-12-05 02:00,ZBYN 050200Z AUTO 12002KT M02/M09 A3027 RMK T10201090 IEM_DS3505
ZBYN,2004-12-05 03:00,ZBYN 050300Z AUTO 14002KT 4SM 02/M07 A3027 RMK SLP292 T00191074 57001 IEM_DS3505
ZBYN,2004-12-05 04:00,ZBYN 050400Z AUTO 02/M10 A3021 RMK T00201100 IEM_DS3505
ZBYN,2004-12-05 05:00,ZBYN 050500Z AUTO 04/M10 A3018 RMK T00401100 IEM_DS3505
ZBYN,2004-12-05 06:00,ZBYN 050600Z AUTO 18006KT 4SM 06/M08 A3015 RMK SLP252 T00581081 57033 IEM_DS3505
ZBYN,2004-12-05 07:00,ZBYN 050700Z AUTO 19004KT 5SM 05/M09 A3015 RMK T00501090 IEM_DS3505
ZBYN,2004-12-05 08:00,ZBYN 050800Z AUTO 16004KT 5SM 05/M09 A3015 RMK T00501090 IEM_DS3505
ZBYN,2004-12-05 09:00,ZBYN 050900Z AUTO 16008KT 4SM 04/M06 A3018 RMK SLP261 T00441062 54000 IEM_DS3505
ZBYN,2004-12-05 10:00,ZBYN 051000Z AUTO 09002KT 5SM 00/M08 A3018 RMK T00001080 IEM_DS3505
ZBYN,2004-12-05 11:00,ZBYN 051100Z AUTO 11004KT 4SM M02/M07 A3018 RMK T10201070 IEM_DS3505
ZBYN,2004-12-05 12:00,ZBYN 051200Z AUTO 00000KT 3SM M00/M06 A3021 RMK SLP286 T10041057 52014 IEM_DS3505
ZBYN,2004-12-05 13:00,ZBYN 051300Z AUTO 11004KT 4SM M02/M07 A3021 RMK T10201070 IEM_DS3505
ZBYN,2004-12-05 14:00,ZBYN 051400Z AUTO 11002KT 4SM M02/M07 A3024 RMK T10201070 IEM_DS3505
ZBYN,2004-12-05 15:00,ZBYN 051500Z AUTO 20002KT 3SM M02/M06 A3024 RMK SLP289 T10161058 52012 IEM_DS3505
ZBYN,2004-12-05 16:00,ZBYN 051600Z AUTO 2 1/2SM M02/M06 A3024 RMK T10201060 IEM_DS3505
ZBYN,2004-12-05 17:00,ZBYN 051700Z AUTO 2SM M02/M06 A3024 RMK T10201060 IEM_DS3505
ZBYN,2004-12-05 18:00,ZBYN 051800Z AUTO 32006KT 2 1/2SM 04/M10 A3024 RMK SLP277 T00351098 52003 IEM_DS3505
ZBYN,2004-12-05 19:00,ZBYN 051900Z AUTO 30010KT 6SM 03/M12 A3024 RMK T00301120 IEM_DS3505
ZBYN,2004-12-05 20:00,ZBYN 052000Z AUTO 30017KT 6SM 03/M16 A3027 RMK T00301160 IEM_DS3505
ZBYN,2004-12-05 21:00,ZBYN 052100Z AUTO 29016KT 6SM 02/M18 A3030 RMK SLP300 T00231177 52017 IEM_DS3505
ZBYN,2004-12-05 22:00,ZBYN 052200Z AUTO 30017KT 4SM 00/M20 A3033 RMK T00001200 IEM_DS3505
ZBYN,2004-12-05 23:00,ZBYN 052300Z AUTO 29010KT 00/M19 A3036 RMK T00001190 IEM_DS3505
ZBYN,2004-12-06 00:00,ZBYN 060000Z AUTO 29010KT 6SM 00/M17 A3039 RMK SLP341 T00021169 52026 IEM_DS3505
ZBYN,2004-12-06 01:00,ZBYN 060100Z AUTO 29012KT 3SM 00/M20 A3042 RMK T00001200 IEM_DS3505
ZBYN,2004-12-06 03:00,ZBYN 060300Z AUTO 29010KT 6SM 02/M17 A3042 RMK SLP355 T00221167 52014 IEM_DS3505
ZBYN,2004-12-06 04:00,ZBYN 060400Z AUTO 28012KT 6SM 03/M20 A3042 RMK T00301200 IEM_DS3505
ZBYN,2004-12-06 05:00,ZBYN 060500Z AUTO 30014KT 6SM 04/M20 A3039 RMK T00401200 IEM_DS3505
ZBYN,2004-12-06 06:00,ZBYN 060600Z AUTO 29012KT 6SM 05/M18 A3036 RMK SLP320 T00521177 57018 IEM_DS3505
ZBYN,2004-12-06 07:00,ZBYN 060700Z AUTO 28012KT 6SM 05/M23 A3036 RMK T00501230 IEM_DS3505
ZBYN,2004-12-06 08:00,ZBYN 060800Z AUTO 29010KT 6SM 04/M23 A3036 RMK T00401230 IEM_DS3505
ZBYN,2004-12-06 09:00,ZBYN 060900Z AUTO 29008KT 12SM 04/M19 A3039 RMK SLP328 T00381189 52003 IEM_DS3505
ZBYN,2004-12-06 10:00,ZBYN 061000Z AUTO 29006KT 6SM 01/M20 A3039 RMK T00101200 IEM_DS3505
ZBYN,2004-12-06 11:00,ZBYN 061100Z AUTO 30006KT 6SM 00/M18 A3039 RMK T00001180 IEM_DS3505
ZBYN,2004-12-06 12:00,ZBYN 061200Z AUTO 27006KT 11SM 02/M18 A3042 RMK SLP345 T00161177 52008 IEM_DS3505
ZBYN,2004-12-06 13:00,ZBYN 061300Z AUTO 21004KT 6SM M02/M14 A3042 RMK T10201140 IEM_DS3505
ZBYN,2004-12-06 14:00,ZBYN 061400Z AUTO 00000KT 6SM M03/M13 A3042 RMK T10301130 IEM_DS3505
ZBYN,2004-12-06 15:00,ZBYN 061500Z AUTO 11004KT 9SM M03/M12 A3042 RMK SLP356 T10331117 52005 IEM_DS3505
ZBYN,2004-12-06 16:00,ZBYN 061600Z AUTO 6SM M05/M13 A3039 RMK T10501130 IEM_DS3505
ZBYN,2004-12-06 17:00,ZBYN 061700Z AUTO 12002KT 6SM M05/M13 A3039 RMK T10501130 IEM_DS3505
ZBYN,2004-12-06 18:00,ZBYN 061800Z AUTO 02002KT 7SM M05/M12 A3036 RMK SLP335 T10541117 57017 IEM_DS3505
ZBYN,2004-12-06 19:00,ZBYN 061900Z AUTO 6SM M07/M13 A3036 RMK T10701130 IEM_DS3505
ZBYN,2004-12-06 20:00,ZBYN 062000Z AUTO 12004KT 6SM M06/M13 A3033 RMK T10601130 IEM_DS3505
ZBYN,2004-12-06 21:00,ZBYN 062100Z AUTO 11002KT 7SM M06/M12 A3033 RMK SLP321 T10601117 57016 IEM_DS3505
ZBYN,2004-12-06 22:00,ZBYN 062200Z AUTO 6SM M08/M13 A3033 RMK T10801130 IEM_DS3505
ZBYN,2004-12-06 23:00,ZBYN 062300Z AUTO 07002KT 6SM M08/M13 A3033 RMK T10801130 IEM_DS3505
ZBYN,2004-12-07 00:00,ZBYN 070000Z AUTO 11004KT 9SM M07/M12 A3033 RMK SLP325 T10661115 57001 IEM_DS3505
ZBYN,2004-12-07 01:00,ZBYN 070100Z AUTO 10004KT M04/M11 A3033 RMK T10401110 IEM_DS3505
ZBYN,2004-12-07 02:00,ZBYN 070200Z AUTO 13002KT 5SM M01/M12 A3033 RMK T10101120 IEM_DS3505
ZBYN,2004-12-07 03:00,ZBYN 070300Z AUTO 16004KT 6SM 02/M10 A3030 RMK SLP314 T00211100 57004 IEM_DS3505
ZBYN,2004-12-07 04:00,ZBYN 070400Z AUTO 23008KT 6SM 05/M14 A3027 RMK T00501140 IEM_DS3505
ZBYN,2004-12-07 05:00,ZBYN 070500Z AUTO 24008KT 6SM 06/M15 A3024 RMK T00601150 IEM_DS3505
ZBYN,2004-12-07 06:00,ZBYN 070600Z AUTO 20010KT 9SM 08/M11 A3018 RMK SLP266 T00841114 57037 IEM_DS3505
ZBYN,2004-12-07 07:00,ZBYN 070700Z AUTO 25008KT 6SM 08/M14 A3018 RMK T00801140 IEM_DS3505
ZBYN,2004-12-07 08:00,ZBYN 070800Z AUTO 23006KT 6SM 09/M14 A3015 RMK T00901140 IEM_DS3505
ZBYN,2004-12-07 09:00,ZBYN 070900Z AUTO 32002KT 12SM 08/M10 A3015 RMK SLP260 T00761101 57007 IEM_DS3505
ZBYN,2004-12-07 10:00,ZBYN 071000Z AUTO 20004KT 6SM 04/M12 A3018 RMK T00401120 IEM_DS3505
ZBYN,2004-12-07 11:00,ZBYN 071100Z AUTO 19002KT 6SM 02/M12 A3018 RMK T00201120 IEM_DS3505
ZBYN,2004-12-07 12:00,ZBYN 071200Z AUTO 11004KT 12SM 02/M10 A3018 RMK SLP279 T00161096 52006 IEM_DS3505
ZBYN,2004-12-07 13:00,ZBYN 071300Z AUTO 14004KT 6SM 00/M12 A3018 RMK T00001120 IEM_DS3505
ZBYN,2004-12-07 14:00,ZBYN 071400Z AUTO 09002KT 6SM M03/M10 A3018 RMK T10301100 IEM_DS3505
ZBYN,2004-12-07 15:00,ZBYN 071500Z AUTO 14002KT 9SM M02/M09 A3018 RMK SLP270 T10161092 52001 IEM_DS3505
ZBYN,2004-12-07 16:00,ZBYN 071600Z AUTO 09004KT 6SM M03/M11 A3018 RMK T10301110 IEM_DS3505
ZBYN,2004-12-07 17:00,ZBYN 071700Z AUTO 10002KT 6SM M04/M10 A3018 RMK T10401100 IEM_DS3505
ZBYN,2004-12-07 18:00,ZBYN 071800Z AUTO 02002KT 9SM M04/M10 A3015 RMK SLP255 T10391095 57007 IEM_DS3505
ZBYN,2004-12-07 19:00,ZBYN 071900Z AUTO 12002KT 6SM M06/M11 A3015 RMK T10601110 IEM_DS3505
ZBYN,2004-12-07 20:00,ZBYN 072000Z AUTO 07002KT 6SM M05/M11 A3015 RMK T10501110 IEM_DS3505
ZBYN,2004-12-07 21:00,ZBYN 072100Z AUTO 34002KT 9SM M04/M08 A3015 RMK SLP254 T10411082 57003 IEM_DS3505
ZBYN,2004-12-07 22:00,ZBYN 072200Z AUTO 12002KT 6SM M07/M11 A3015 RMK T10701110 IEM_DS3505
ZBYN,2004-12-07 23:00,ZBYN 072300Z AUTO 00000KT 6SM M07/M11 A3015 RMK T10701110 IEM_DS3505
ZBYN,2004-12-08 00:00,ZBYN 080000Z AUTO 29004KT 6SM M04/M10 A3018 RMK SLP273 T10411097 52008 IEM_DS3505
ZBYN,2004-12-08 01:00,ZBYN 080100Z AUTO 13004KT 1 1/2SM M05/M09 A3018 RMK T10501090 IEM_DS3505
ZBYN,2004-12-08 02:00,ZBYN 080200Z AUTO 15002KT 1 1/2SM M01/M09 A3018 RMK T10101090 IEM_DS3505
ZBYN,2004-12-08 03:00,ZBYN 080300Z AUTO 09002KT 2 1/2SM 03/M08 A3015 RMK SLP264 T00291075 57002 IEM_DS3505
ZBYN,2004-12-08 04:00,ZBYN 080400Z AUTO 19002KT 05/M11 A3012 RMK T00501110 IEM_DS3505
ZBYN,2004-12-08 05:00,ZBYN 080500Z AUTO 00000KT 06/M11 A3009 RMK T00601110 IEM_DS3505
ZBYN,2004-12-08 06:00,ZBYN 080600Z AUTO 20002KT 4SM 08/M09 A3006 RMK SLP223 T00761088 57034 IEM_DS3505
ZBYN,2004-12-08 07:00,ZBYN 080700Z AUTO 17004KT 6SM 08/M13 A3003 RMK T00801130 IEM_DS3505
ZBYN,2004-12-08 08:00,ZBYN 080800Z AUTO 16004KT 6SM 08/M13 A3003 RMK T00801130 IEM_DS3505
ZBYN,2004-12-08 09:00,ZBYN 080900Z AUTO 20002KT 4SM 06/M08 A3003 RMK SLP215 T00551083 57011 IEM_DS3505
ZBYN,2004-12-08 10:00,ZBYN 081000Z AUTO 09002KT 3SM 03/M11 A3003 RMK T00301110 IEM_DS3505
ZBYN,2004-12-08 11:00,ZBYN 081100Z AUTO 12004KT 6SM M01/M11 A3006 RMK T10101110 IEM_DS3505
ZBYN,2004-12-08 12:00,ZBYN 081200Z AUTO 29002KT 1 1/4SM 01/M06 A3006 RMK SLP238 T00081065 52014 IEM_DS3505
ZBYN,2004-12-08 13:00,ZBYN 081300Z AUTO 11002KT 6SM M03/M11 A3006 RMK T10301110 IEM_DS3505
ZBYN,2004-12-08 14:00,ZBYN 081400Z AUTO 11004KT 5SM M03/M10 A3006 RMK T10301100 IEM_DS3505
ZBYN,2004-12-08 15:00,ZBYN 081500Z AUTO 16004KT 1 1/4SM M01/M07 A3006 RMK SLP227 T10131066 57002 IEM_DS3505
ZBYN,2004-12-08 16:00,ZBYN 081600Z AUTO 00000KT 6SM M03/M09 A3006 RMK T10301090 IEM_DS3505
ZBYN,2004-12-08 17:00,ZBYN 081700Z AUTO 08002KT 6SM M05/M09 A3006 RMK T10501090 IEM_DS3505
ZBYN,2004-12-08 18:00,ZBYN 081800Z AUTO 32002KT 1 1/4SM M03/M07 A3006 RMK SLP220 T10301070 57002 IEM_DS3505
ZBYN,2004-12-08 19:00,ZBYN 081900Z AUTO 36002KT 4SM M05/M09 A3009 RMK T10501090 IEM_DS3505
ZBYN,2004-12-08 20:00,ZBYN 082000Z AUTO 00000KT 2SM M05/M09 A3006 RMK T10501090 IEM_DS3505
ZBYN,2004-12-08 21:00,ZBYN 082100Z AUTO 09002KT 1 1/4SM M04/M07 A3009 RMK SLP234 T10371073 52008 IEM_DS3505
ZBYN,2004-12-08 22:00,ZBYN 082200Z AUTO 00000KT 1 1/2SM A3009 RMK IEM_DS3505
ZBYN,2004-12-08 23:00,ZBYN 082300Z AUTO 1 1/4SM A3012 RMK IEM_DS3505
ZBYN,2004-12-09 00:00,ZBYN 090000Z AUTO 32008KT 4SM 01/M10 A3015 RMK SLP255 T00091105 52019 IEM_DS3505
ZBYN,2004-12-09 01:00,ZBYN 090100Z AUTO 1SM A3018 RMK IEM_DS3505
ZBYN,2004-12-09 02:00,ZBYN 090200Z AUTO 22002KT 1SM 01/M07 A3021 RMK T00101070 IEM_DS3505
ZBYN,2004-12-09 03:00,ZBYN 090300Z AUTO 32019KT 7SM 07/M16 A3021 RMK SLP269 T00701156 52019 IEM_DS3505
ZBYN,2004-12-09 04:00,ZBYN 090400Z AUTO 31016KT 6SM 07/M19 A3021 RMK T00701190 IEM_DS3505
ZBYN,2004-12-09 05:00,ZBYN 090500Z AUTO 30014KT 6SM 07/M19 A3021 RMK T00701190 IEM_DS3505
ZBYN,2004-12-09 06:00,ZBYN 090600Z AUTO 32016KT 7SM 08/M15 A3018 RMK SLP267 T00781149 57003 IEM_DS3505
ZBYN,2004-12-09 07:00,ZBYN 090700Z AUTO 33014KT 6SM 07/M19 A3021 RMK T00701190 IEM_DS3505
ZBYN,2004-12-09 08:00,ZBYN 090800Z AUTO 31014KT 6SM 07/M18 A3024 RMK T00701180 IEM_DS3505
ZBYN,2004-12-09 09:00,ZBYN 090900Z AUTO 32008KT 11SM 06/M15 A3024 RMK SLP288 T00591152 52015 IEM_DS3505
ZBYN,2004-12-09 10:00,ZBYN 091000Z AUTO 33012KT 6SM 04/M19 A3027 RMK T00401190 IEM_DS3505
ZBYN,2004-12-09 11:00,ZBYN 091100Z AUTO 30004KT 6SM 02/M17 A3030 RMK T00201170 IEM_DS3505
ZBYN,2004-12-09 12:00,ZBYN 091200Z AUTO 29008KT 12SM 02/M15 A3030 RMK SLP304 T00231151 52016 IEM_DS3505
ZBYN,2004-12-09 13:00,ZBYN 091300Z AUTO 32012KT 6SM 01/M18 A3030 RMK T00101180 IEM_DS3505
ZBYN,2004-12-09 14:00,ZBYN 091400Z AUTO 13002KT 6SM M01/M16 A3033 RMK T10101160 IEM_DS3505
ZBYN,2004-12-09 15:00,ZBYN 091500Z AUTO 07002KT 11SM M02/M12 A3033 RMK SLP310 T10231118 52008 IEM_DS3505
ZBYN,2004-12-09 16:00,ZBYN 091600Z AUTO 11004KT 6SM M05/M13 A3033 RMK T10501130 IEM_DS3505
ZBYN,2004-12-09 17:00,ZBYN 091700Z AUTO 07004KT 6SM M06/M13 A3033 RMK T10601130 IEM_DS3505
ZBYN,2004-12-09 18:00,ZBYN 091800Z AUTO 18002KT 9SM M04/M12 A3033 RMK SLP316 T10361117 52005 IEM_DS3505
ZBYN,2004-12-09 21:00,ZBYN 092100Z AUTO 14002KT 9SM M06/M11 A3036 RMK SLP325 T10591114 52001 IEM_DS3505
ZBYN,2004-12-09 22:00,ZBYN 092200Z AUTO 6SM M06/M13 A3033 RMK T10601130 IEM_DS3505
ZBYN,2004-12-09 23:00,ZBYN 092300Z AUTO 07002KT 6SM M07/M13 A3036 RMK T10701130 IEM_DS3505
ZBYN,2004-12-10 00:00,ZBYN 100000Z AUTO 32004KT 7SM M04/M13 A3036 RMK SLP334 T10381126 52006 IEM_DS3505
ZBYN,2004-12-10 01:00,ZBYN 100100Z AUTO 13002KT 5SM M05/M11 A3036 RMK T10501110 IEM_DS3505
ZBYN,2004-12-10 02:00,ZBYN 100200Z AUTO 00000KT 5SM M01/M12 A3036 RMK T10101120 IEM_DS3505
ZBYN,2004-12-10 03:00,ZBYN 100300Z AUTO 14002KT 6SM 03/M12 A3036 RMK SLP331 T00261116 54000 IEM_DS3505
ZBYN,2004-12-10 04:00,ZBYN 100400Z AUTO 00000KT 6SM 04/M14 A3033 RMK T00401140 IEM_DS3505
ZBYN,2004-12-10 05:00,ZBYN 100500Z AUTO 6SM 06/M16 A3027 RMK T00601160 IEM_DS3505
ZBYN,2004-12-10 06:00,ZBYN 100600Z AUTO 16004KT 6SM 08/M12 A3027 RMK SLP287 T00751122 57034 IEM_DS3505
ZBYN,2004-12-10 07:00,ZBYN 100700Z AUTO 23004KT 6SM 07/M16 A3024 RMK T00701160 IEM_DS3505
ZBYN,2004-12-10 08:00,ZBYN 100800Z AUTO 6SM 07/M16 A3024 RMK T00701160 IEM_DS3505
ZBYN,2004-12-10 11:00,ZBYN 101100Z AUTO 12002KT 6SM 00/M14 A3027 RMK T00001140 IEM_DS3505
ZBYN,2004-12-10 12:00,ZBYN 101200Z AUTO 27002KT 6SM 01/M09 A3030 RMK SLP316 T00081094 52016 IEM_DS3505
ZBYN,2004-12-10 13:00,ZBYN 101300Z AUTO 09002KT 6SM M02/M12 A3030 RMK T10201120 IEM_DS3505
ZBYN,2004-12-10 14:00,ZBYN 101400Z AUTO 12004KT 6SM M03/M11 A3030 RMK T10301110 IEM_DS3505
ZBYN,2004-12-10 15:00,ZBYN 101500Z AUTO 29002KT 6SM M02/M08 A3030 RMK SLP311 T10201085 52001 IEM_DS3505
ZBYN,2004-12-10 16:00,ZBYN 101600Z AUTO 00000KT 6SM M03/M12 A3030 RMK T10301120 IEM_DS3505
ZBYN,2004-12-10 17:00,ZBYN 101700Z AUTO 6SM M04/M12 A3030 RMK T10401120 IEM_DS3505
ZBYN,2004-12-10 18:00,ZBYN 101800Z AUTO 00000KT 2SM M04/M08 A3027 RMK SLP299 T10411085 57006 IEM_DS3505
ZBYN,2004-12-10 19:00,ZBYN 101900Z AUTO 06002KT 6SM M05/M11 A3027 RMK T10501110 IEM_DS3505
ZBYN,2004-12-10 20:00,ZBYN 102000Z AUTO 00000KT 6SM M06/M11 A3027 RMK T10601110 IEM_DS3505
ZBYN,2004-12-10 21:00,ZBYN 102100Z AUTO 32004KT 2SM M05/M10 A3024 RMK SLP294 T10481096 57010 IEM_DS3505
ZBYN,2004-12-10 22:00,ZBYN 102200Z AUTO 12002KT 4SM A3024 RMK IEM_DS3505
ZBYN,2004-12-10 23:00,ZBYN 102300Z AUTO 05002KT 4SM A3027 RMK IEM_DS3505
ZBYN,2004-12-11 00:00,ZBYN 110000Z AUTO 00000KT 3SM M06/M09 A3027 RMK SLP312 T10581093 52008 IEM_DS3505
ZBYN,2004-12-11 01:00,ZBYN 110100Z AUTO 00000KT 1 1/2SM A3030 RMK IEM_DS3505
ZBYN,2004-12-11 02:00,ZBYN 110200Z AUTO 00000KT 1 1/2SM A3030 RMK IEM_DS3505
ZBYN,2004-12-11 03:00,ZBYN 110300Z AUTO 14002KT 2SM 02/M08 A3030 RMK SLP308 T00161077 52004 IEM_DS3505
ZBYN,2004-12-11 04:00,ZBYN 110400Z AUTO 18004KT 2SM 03/M11 A3027 RMK T00301110 IEM_DS3505
ZBYN,2004-12-11 05:00,ZBYN 110500Z AUTO 17004KT 2 1/2SM 05/M12 A3024 RMK T00501120 IEM_DS3505
ZBYN,2004-12-11 06:00,ZBYN 110600Z AUTO 18006KT 3SM 06/M09 A3021 RMK SLP279 T00641090 57022 IEM_DS3505
ZBYN,2004-12-11 07:00,ZBYN 110700Z AUTO 22004KT 2 1/2SM 07/M12 A3021 RMK T00701120 IEM_DS3505
ZBYN,2004-12-11 08:00,ZBYN 110800Z AUTO 23002KT 2 1/2SM 06/M12 A3021 RMK T00601120 IEM_DS3505
ZBYN,2004-12-11 09:00,ZBYN 110900Z AUTO 09002KT 3SM 04/M09 A3021 RMK SLP287 T00411092 52002 IEM_DS3505
ZBYN,2004-12-11 10:00,ZBYN 111000Z AUTO 00000KT 2 1/2SM 02/M11 A3024 RMK T00201110 IEM_DS3505
ZBYN,2004-12-11 11:00,ZBYN 111100Z AUTO 00000KT 3SM M01/M11 A3027 RMK T10101110 IEM_DS3505
ZBYN,2004-12-11 12:00,ZBYN 111200Z AUTO 02002KT 2 1/2SM 01/M08 A3030 RMK SLP323 T00091083 52026 IEM_DS3505
ZBYN,2004-12-11 13:00,ZBYN 111300Z AUTO 11004KT 3SM M03/M11 A3033 RMK T10301110 IEM_DS3505
ZBYN,2004-12-11 14:00,ZBYN 111400Z AUTO 3SM M03/M11 A3033 RMK T10301110 IEM_DS3505
ZBYN,2004-12-11 15:00,ZBYN 111500Z AUTO 07004KT 2 1/2SM M02/M08 A3036 RMK SLP329 T10201085 52013 IEM_DS3505
ZBYN,2004-12-11 16:00,ZBYN 111600Z AUTO M05/M11 A3036 RMK T10501110 IEM_DS3505
ZBYN,2004-12-11 17:00,ZBYN 111700Z AUTO 09002KT M04/M11 A3036 RMK T10401110 IEM_DS3505
ZBYN,2004-12-11 18:00,ZBYN 111800Z AUTO 32002KT 2SM M03/M08 RMK SLP328 T10331078 52005 IEM_DS3505
ZBYN,2004-12-11 19:00,ZBYN 111900Z AUTO 11004KT 6SM M06/M12 A3039 RMK T10601120 IEM_DS3505
ZBYN,2004-12-11 20:00,ZBYN 112000Z AUTO 00000KT 6SM M07/M12 A3039 RMK T10701120 IEM_DS3505
ZBYN,2004-12-11 21:00,ZBYN 112100Z AUTO 14002KT 2SM M06/M10 A3039 RMK SLP342 T10561096 52005 IEM_DS3505
ZBYN,2004-12-11 22:00,ZBYN 112200Z AUTO 11002KT 6SM M08/M12 A3039 RMK T10801120 IEM_DS3505
ZBYN,2004-12-11 23:00,ZBYN 112300Z AUTO 10002KT 6SM M08/M13 A3039 RMK T10801130 IEM_DS3505
ZBYN,2004-12-12 00:00,ZBYN 120000Z AUTO 29002KT 2SM M07/M10 A3042 RMK SLP365 T10681100 52013 IEM_DS3505
ZBYN,2004-12-12 01:00,ZBYN 120100Z AUTO 00000KT 1 1/4SM M05/M10 A3042 RMK T10501100 IEM_DS3505
ZBYN,2004-12-12 02:00,ZBYN 120200Z AUTO 16002KT 3SM M01/M10 A3042 RMK T10101100 IEM_DS3505
ZBYN,2004-12-12 03:00,ZBYN 120300Z AUTO 22002KT 5SM 03/M10 A3042 RMK SLP349 T00301105 57003 IEM_DS3505
ZBYN,2004-12-12 04:00,ZBYN 120400Z AUTO 16002KT 03/M13 A3039 RMK T00301130 IEM_DS3505
ZBYN,2004-12-12 05:00,ZBYN 120500Z AUTO 18004KT 6SM 05/M13 A3033 RMK T00501130 IEM_DS3505
ZBYN,2004-12-12 06:00,ZBYN 120600Z AUTO 18004KT 4SM 06/M10 A3030 RMK SLP308 T00651102 57033 IEM_DS3505
ZBYN,2004-12-12 07:00,ZBYN 120700Z AUTO 20002KT 6SM 07/M14 A3027 RMK T00701140 IEM_DS3505
ZBYN,2004-12-12 08:00,ZBYN 120800Z AUTO 00000KT 6SM 07/M14 A3027 RMK T00701140 IEM_DS3505
ZBYN,2004-12-12 09:00,ZBYN 120900Z AUTO 11002KT 4SM 04/M10 A3027 RMK SLP295 T00451099 57019 IEM_DS3505
ZBYN,2004-12-12 10:00,ZBYN 121000Z AUTO 09002KT 6SM 01/M13 A3024 RMK T00101130 IEM_DS3505
ZBYN,2004-12-12 11:00,ZBYN 121100Z AUTO 12004KT 6SM M01/M12 A3024 RMK T10101120 IEM_DS3505
ZBYN,2004-12-12 12:00,ZBYN 121200Z AUTO 27002KT 2SM M00/M07 A3024 RMK SLP305 T10021074 57001 IEM_DS3505
ZBYN,2004-12-12 12:30,ZBYN 121230Z AUTO 00000KT 6SM M02/M12 A3024 RMK T10201120 IEM_DS3505
ZBYN,2004-12-12 13:00,ZBYN 121300Z AUTO 00000KT 6SM M02/M12 A3024 RMK T10201120 IEM_DS3505
ZBYN,2004-12-12 14:00,ZBYN 121400Z AUTO 13004KT 6SM M03/M12 A3024 RMK T10301120 IEM_DS3505
ZBYN,2004-12-12 15:00,ZBYN 121500Z AUTO 09004KT 2 1/2SM M02/M08 A3024 RMK SLP290 T10201085 54000 IEM_DS3505
ZBYN,2004-12-12 16:00,ZBYN 121600Z AUTO 04002KT 6SM M04/M12 A3024 RMK T10401120 IEM_DS3505
ZBYN,2004-12-12 17:00,ZBYN 121700Z AUTO 00000KT 6SM M05/M11 A3021 RMK T10501110 IEM_DS3505
ZBYN,2004-12-12 18:00,ZBYN 121800Z AUTO 32002KT 2SM M03/M09 A3021 RMK SLP273 T10261090 57011 IEM_DS3505
ZBYN,2004-12-12 19:00,ZBYN 121900Z AUTO 00000KT 6SM M06/M12 A3021 RMK T10601120 IEM_DS3505
ZBYN,2004-12-12 20:00,ZBYN 122000Z AUTO 11002KT 6SM M06/M12 A3018 RMK T10601120 IEM_DS3505
ZBYN,2004-12-12 21:00,ZBYN 122100Z AUTO 11002KT 6SM M07/M12 A3018 RMK T10701120 IEM_DS3505
ZBYN,2004-12-12 22:00,ZBYN 122200Z AUTO 00000KT 6SM M06/M11 A3018 RMK T10601110 IEM_DS3505
ZBYN,2004-12-12 23:00,ZBYN 122300Z AUTO 11002KT 6SM M07/M12 A3018 RMK T10701120 IEM_DS3505
ZBYN,2004-12-13 00:00,ZBYN 130000Z AUTO 00000KT 6SM M07/M12 A3018 RMK T10701120 IEM_DS3505
ZBYN,2004-12-13 01:00,ZBYN 130100Z AUTO 00000KT 2 1/2SM M05/M09 A3021 RMK T10501090 IEM_DS3505
ZBYN,2004-12-13 02:00,ZBYN 130200Z AUTO 00000KT 3SM M01/M10 A3021 RMK T10101100 IEM_DS3505
ZBYN,2004-12-13 03:00,ZBYN 130300Z AUTO 07002KT 3SM 03/M09 A3018 RMK SLP266 T00341092 57003 IEM_DS3505
ZBYN,2004-12-13 04:00,ZBYN 130400Z AUTO 03/M11 A3015 RMK T00301110 IEM_DS3505
ZBYN,2004-12-13 05:00,ZBYN 130500Z AUTO 2 1/2SM 05/M11 A3009 RMK T00501110 IEM_DS3505
ZBYN,2004-12-13 06:00,ZBYN 130600Z AUTO 16004KT 4SM 07/M09 A3006 RMK SLP223 T00661088 57035 IEM_DS3505
ZBYN,2004-12-13 07:00,ZBYN 130700Z AUTO 16002KT 08/M10 A3003 RMK T00801100 IEM_DS3505
ZBYN,2004-12-13 08:00,ZBYN 130800Z AUTO 00000KT 07/M10 A3003 RMK T00701100 IEM_DS3505
ZBYN,2004-12-13 09:00,ZBYN 130900Z AUTO 29002KT 4SM 04/M08 A3003 RMK SLP220 T00431077 57007 IEM_DS3505
ZBYN,2004-12-13 10:00,ZBYN 131000Z AUTO 32002KT 2SM 02/M09 A3006 RMK T00201090 IEM_DS3505
ZBYN,2004-12-13 11:00,ZBYN 131100Z AUTO 2SM 00/M09 A3006 RMK T00001090 IEM_DS3505
ZBYN,2004-12-13 12:00,ZBYN 131200Z AUTO 32002KT 2SM 02/M07 A3006 RMK SLP236 T00201070 52011 IEM_DS3505
ZBYN,2004-12-13 13:00,ZBYN 131300Z AUTO 12002KT 2 1/2SM M01/M09 A3009 RMK T10101090 IEM_DS3505
ZBYN,2004-12-13 14:00,ZBYN 131400Z AUTO 09002KT M03/M09 A3009 RMK T10301090 IEM_DS3505
ZBYN,2004-12-13 15:00,ZBYN 131500Z AUTO 00000KT 2SM M02/M07 A3006 RMK SLP230 T10201067 57002 IEM_DS3505
ZBYN,2004-12-13 16:00,ZBYN 131600Z AUTO 00000KT 3SM M04/M09 A3006 RMK T10401090 IEM_DS3505
ZBYN,2004-12-13 17:00,ZBYN 131700Z AUTO 03004KT 2SM M04/M09 A3006 RMK T10401090 IEM_DS3505
ZBYN,2004-12-13 18:00,ZBYN 131800Z AUTO 32002KT 1 1/4SM M02/M07 A3003 RMK SLP219 T10251066 57006 IEM_DS3505
ZBYN,2004-12-13 19:00,ZBYN 131900Z AUTO 1 1/2SM M05/M09 A3006 RMK T10501090 IEM_DS3505
ZBYN,2004-12-13 20:00,ZBYN 132000Z AUTO 10002KT 1 1/2SM M05/M09 A3006 RMK T10501090 IEM_DS3505
ZBYN,2004-12-13 21:00,ZBYN 132100Z AUTO 00000KT 2 1/2SM M03/M06 A3006 RMK SLP224 T10321061 54000 IEM_DS3505
ZBYN,2004-12-13 22:00,ZBYN 132200Z AUTO 15002KT 1 1/2SM M05/M08 A3006 RMK T10501080 IEM_DS3505
ZBYN,2004-12-13 23:00,ZBYN 132300Z AUTO 00000KT 1 1/2SM M04/M08 A3006 RMK T10401080 IEM_DS3505
ZBYN,2004-12-14 00:00,ZBYN 140000Z AUTO 18002KT 2 1/2SM M04/M06 RMK SLP233 T10361064 52004 IEM_DS3505
ZBYN,2004-12-14 01:00,ZBYN 140100Z AUTO 00000KT 1SM A3006 RMK IEM_DS3505
ZBYN,2004-12-14 02:00,ZBYN 140200Z AUTO 00000KT 1SM A3006 RMK IEM_DS3505
ZBYN,2004-12-14 03:00,ZBYN 140300Z AUTO 14002KT 1 1/4SM 03/M06 A3006 RMK SLP228 T00331056 54000 IEM_DS3505
ZBYN,2004-12-14 04:00,ZBYN 140400Z AUTO 1SM 03/M07 A3003 RMK T00301070 IEM_DS3505
ZBYN,2004-12-14 05:00,ZBYN 140500Z AUTO 18004KT 1 1/4SM 04/M07 A3000 RMK T00401070 IEM_DS3505
ZBYN,2004-12-14 06:00,ZBYN 140600Z AUTO 16004KT 1 1/4SM 07/M04 A2997 RMK SLP192 T00731041 57027 IEM_DS3505
ZBYN,2004-12-14 07:00,ZBYN 140700Z AUTO 23002KT 2SM 07/M08 A2997 RMK T00701080 IEM_DS3505
ZBYN,2004-12-14 08:00,ZBYN 140800Z AUTO 15002KT 2SM 07/M08 A2997 RMK T00701080 IEM_DS3505
ZBYN,2004-12-14 09:00,ZBYN 140900Z AUTO 29002KT 1 1/4SM 04/M05 A3000 RMK SLP204 T00451052 52005 IEM_DS3505
ZBYN,2004-12-14 10:00,ZBYN 141000Z AUTO 00000KT 1 1/4SM 01/M07 A3000 RMK T00101070 IEM_DS3505
ZBYN,2004-12-14 11:00,ZBYN 141100Z AUTO 00000KT 1 1/2SM A3003 RMK IEM_DS3505
ZBYN,2004-12-14 12:00,ZBYN 141200Z AUTO 29002KT 1 1/4SM 02/M05 A3006 RMK SLP228 T00201047 52017 IEM_DS3505
ZBYN,2004-12-14 13:00,ZBYN 141300Z AUTO 10002KT 1 1/4SM A3006 RMK IEM_DS3505
ZBYN,2004-12-14 14:00,ZBYN 141400Z AUTO 12002KT 1 1/2SM A3006 RMK IEM_DS3505
ZBYN,2004-12-14 15:00,ZBYN 141500Z AUTO 11002KT 1 1/4SM M02/M06 A3009 RMK SLP233 T10181056 52010 IEM_DS3505
ZBYN,2004-12-14 16:00,ZBYN 141600Z AUTO 09002KT 1 1/2SM A3009 RMK IEM_DS3505
ZBYN,2004-12-14 17:00,ZBYN 141700Z AUTO 03002KT 1 1/4SM A3009 RMK IEM_DS3505
ZBYN,2004-12-14 18:00,ZBYN 141800Z AUTO 29002KT 1 1/4SM M02/M06 A3009 RMK SLP229 T10241055 52002 IEM_DS3505
ZBYN,2004-12-14 19:00,ZBYN 141900Z AUTO 00000KT 1 1/4SM A3009 RMK IEM_DS3505
ZBYN,2004-12-14 20:00,ZBYN 142000Z AUTO 1SM A3009 RMK IEM_DS3505
ZBYN,2004-12-14 21:00,ZBYN 142100Z AUTO 32002KT 1 1/4SM M04/M06 A3009 RMK SLP240 T10431061 52002 IEM_DS3505
ZBYN,2004-12-14 22:00,ZBYN 142200Z AUTO 11002KT 1SM A3009 RMK IEM_DS3505
ZBYN,2004-12-14 23:00,ZBYN 142300Z AUTO 00000KT 1SM A3012 RMK IEM_DS3505
ZBYN,2004-12-15 00:00,ZBYN 150000Z AUTO 18002KT 1 1/4SM M04/M06 A3012 RMK SLP257 T10411061 52012 IEM_DS3505
ZBYN,2004-12-15 01:00,ZBYN 150100Z AUTO 11002KT 3/8SM A3015 RMK IEM_DS3505
ZBYN,2004-12-15 02:00,ZBYN 150200Z AUTO 00000KT 1/2SM M02/M06 A3018 RMK T10201060 IEM_DS3505
ZBYN,2004-12-15 03:00,ZBYN 150300Z AUTO 14002KT 1 1/4SM 03/M04 A3015 RMK SLP261 T00271036 52008 IEM_DS3505
ZBYN,2004-12-15 04:00,ZBYN 150400Z AUTO 00000KT 1SM 04/M06 A3012 RMK T00401060 IEM_DS3505
ZBYN,2004-12-15 04:30,ZBYN 150430Z AUTO 1SM 05/M06 A3012 RMK T00501060 IEM_DS3505
ZBYN,2004-12-15 05:00,ZBYN 150500Z AUTO 16002KT 1SM 06/M07 A3012 RMK T00601070 IEM_DS3505
ZBYN,2004-12-15 06:00,ZBYN 150600Z AUTO 18004KT 1 1/4SM 09/M05 A3009 RMK SLP229 T00881054 57020 IEM_DS3505
ZBYN,2004-12-15 07:00,ZBYN 150700Z AUTO 18002KT 1 1/2SM 09/M09 A3009 RMK T00901090 IEM_DS3505
ZBYN,2004-12-15 08:00,ZBYN 150800Z AUTO 00000KT 1 1/4SM 09/M08 A3009 RMK T00901080 IEM_DS3505
ZBYN,2004-12-15 09:00,ZBYN 150900Z AUTO 09004KT 2SM 06/M06 A3012 RMK SLP242 T00591060 52004 IEM_DS3505
ZBYN,2004-12-15 10:00,ZBYN 151000Z AUTO 08004KT 1 1/2SM 03/M09 A3012 RMK T00301090 IEM_DS3505
ZBYN,2004-12-15 11:00,ZBYN 151100Z AUTO 08014KT 6SM 04/M11 A3015 RMK T00401110 IEM_DS3505
ZBYN,2004-12-15 12:00,ZBYN 151200Z AUTO 16004KT 2SM 04/M08 A3018 RMK SLP271 T00351085 52023 IEM_DS3505
ZBYN,2004-12-15 13:00,ZBYN 151300Z AUTO 06010KT 6SM 01/M12 A3021 RMK T00101120 IEM_DS3505
ZBYN,2004-12-15 14:00,ZBYN 151400Z AUTO 07014KT 6SM 01/M13 A3021 RMK T00101130 IEM_DS3505
ZBYN,2004-12-15 15:00,ZBYN 151500Z AUTO 34004KT 2SM 02/M09 A3021 RMK SLP277 T00151091 52013 IEM_DS3505
ZBYN,2004-12-15 16:00,ZBYN 151600Z AUTO 06010KT 6SM 01/M13 A3024 RMK T00101130 IEM_DS3505
ZBYN,2004-12-15 17:00,ZBYN 151700Z AUTO 06010KT 6SM 00/M12 A3024 RMK T00001120 IEM_DS3505
ZBYN,2004-12-15 18:00,ZBYN 151800Z AUTO 34004KT 2 1/2SM M00/M10 A3024 RMK SLP277 T10041103 52007 IEM_DS3505
ZBYN,2004-12-15 19:00,ZBYN 151900Z AUTO 05010KT 6SM 00/M11 A3024 RMK T00001110 IEM_DS3505
ZBYN,2004-12-15 20:00,ZBYN 152000Z AUTO 05008KT 6SM M01/M12 A3027 RMK T10101120 IEM_DS3505
ZBYN,2004-12-15 21:00,ZBYN 152100Z AUTO 32004KT 2 1/2SM M01/M11 A3027 RMK SLP288 T10111109 52004 IEM_DS3505
ZBYN,2004-12-15 22:00,ZBYN 152200Z AUTO 05006KT 6SM M02/M11 A3027 RMK T10201110 IEM_DS3505
ZBYN,2004-12-15 23:00,ZBYN 152300Z AUTO 06008KT 6SM M02/M11 A3027 RMK T10201110 IEM_DS3505
ZBYN,2004-12-16 00:00,ZBYN 160000Z AUTO 32004KT 2 1/2SM M02/M10 A3027 RMK SLP301 T10201105 52007 IEM_DS3505
ZBYN,2004-12-16 01:00,ZBYN 160100Z AUTO 06004KT 4SM A3030 RMK IEM_DS3505
ZBYN,2004-12-16 02:00,ZBYN 160200Z AUTO 07006KT 4SM A3030 RMK IEM_DS3505
ZBYN,2004-12-16 03:00,ZBYN 160300Z AUTO 32002KT 3SM 01/M09 A3027 RMK SLP301 T00081092 52001 IEM_DS3505
ZBYN,2004-12-16 04:00,ZBYN 160400Z AUTO 09006KT 01/M11 A3024 RMK T00101110 IEM_DS3505
ZBYN,2004-12-16 05:00,ZBYN 160500Z AUTO 08006KT 02/M11 A3021 RMK T00201110 IEM_DS3505
ZBYN,2004-12-16 06:00,ZBYN 160600Z AUTO 14004KT 3SM 03/M09 A3015 RMK SLP260 T00281091 57037 IEM_DS3505
ZBYN,2004-12-16 07:00,ZBYN 160700Z AUTO 13006KT 03/M10 A3015 RMK T00301100 IEM_DS3505
ZBYN,2004-12-16 08:00,ZBYN 160800Z AUTO 16004KT 02/M09 A3018 RMK T00201090 IEM_DS3505
ZBYN,2004-12-16 09:00,ZBYN 160900Z AUTO 18004KT 2 1/2SM 00/M04 A3021 RMK SLP276 T00031039 52009 IEM_DS3505
ZBYN,2004-12-16 10:00,ZBYN 161000Z AUTO 19004KT 3SM A3021 RMK IEM_DS3505
ZBYN,2004-12-16 11:00,ZBYN 161100Z AUTO 21004KT 2SM A3021 RMK IEM_DS3505
ZBYN,2004-12-16 12:00,ZBYN 161200Z AUTO 16006KT 2 1/2SM M01/M03 A3021 RMK SLP288 T10141034 52007 IEM_DS3505
ZBYN,2004-12-16 13:00,ZBYN 161300Z AUTO 17002KT 2SM A3021 RMK IEM_DS3505
ZBYN,2004-12-16 14:00,ZBYN 161400Z AUTO 15002KT 2SM A3021 RMK IEM_DS3505
ZBYN,2004-12-16 15:00,ZBYN 161500Z AUTO 16004KT 2 1/2SM M02/M03 A3021 RMK SLP279 T10151028 57004 IEM_DS3505
ZBYN,2004-12-16 16:00,ZBYN 161600Z AUTO 00000KT 1 1/4SM A3021 RMK IEM_DS3505
ZBYN,2004-12-16 17:00,ZBYN 161700Z AUTO 00000KT 1 1/4SM A3018 RMK IEM_DS3505
ZBYN,2004-12-16 18:00,ZBYN 161800Z AUTO 14002KT 2 1/2SM M02/M03 A3018 RMK SLP269 T10161027 57006 IEM_DS3505
ZBYN,2004-12-16 19:00,ZBYN 161900Z AUTO 00000KT 1 1/4SM A3018 RMK IEM_DS3505
ZBYN,2004-12-16 20:00,ZBYN 162000Z AUTO 32002KT 1SM A3018 RMK IEM_DS3505
ZBYN,2004-12-16 21:00,ZBYN 162100Z AUTO 20002KT 2 1/2SM M02/M03 A3018 RMK 70000 SLP271 T10151026 57002 IEM_DS3505
ZBYN,2004-12-16 22:00,ZBYN 162200Z AUTO 01002KT 1SM A3018 RMK IEM_DS3505
ZBYN,2004-12-16 23:00,ZBYN 162300Z AUTO 00000KT 1SM A3018 RMK IEM_DS3505
ZBYN,2004-12-17 00:00,ZBYN 170000Z AUTO 18002KT 1 1/4SM M02/M03 A3021 RMK 70000 SLP283 T10201030 52007 IEM_DS3505
ZBYN,2004-12-17 01:00,ZBYN 170100Z AUTO 17002KT 1/2SM A3021 RMK IEM_DS3505
ZBYN,2004-12-17 02:00,ZBYN 170200Z AUTO 1/2SM A3021 RMK IEM_DS3505
ZBYN,2004-12-17 03:00,ZBYN 170300Z AUTO 18002KT 1 1/4SM M00/M03 A3021 RMK SLP283 T10011026 52003 IEM_DS3505
ZBYN,2004-12-17 04:00,ZBYN 170400Z AUTO 17002KT 1SM 00/M04 A3018 RMK T00001040 IEM_DS3505
ZBYN,2004-12-17 05:00,ZBYN 170500Z AUTO 18004KT 1SM 02/M04 A3015 RMK T00201040 IEM_DS3505
ZBYN,2004-12-17 06:00,ZBYN 170600Z AUTO 18004KT 1 1/4SM 03/M02 A3012 RMK SLP245 T00301025 57029 IEM_DS3505
ZBYN,2004-12-17 07:00,ZBYN 170700Z AUTO 24002KT 1SM 03/M04 A3012 RMK T00301040 IEM_DS3505
ZBYN,2004-12-17 08:00,ZBYN 170800Z AUTO 00000KT 1SM 03/M05 A3012 RMK T00301050 IEM_DS3505
ZBYN,2004-12-17 09:00,ZBYN 170900Z AUTO 07002KT 1 1/4SM 02/M04 A3012 RMK SLP253 T00241035 52006 IEM_DS3505
ZBYN,2004-12-17 10:00,ZBYN 171000Z AUTO 00000KT 1SM A3015 RMK IEM_DS3505
ZBYN,2004-12-17 11:00,ZBYN 171100Z AUTO 11002KT 1SM A3015 RMK IEM_DS3505
ZBYN,2004-12-17 12:00,ZBYN 171200Z AUTO 32004KT 1 1/4SM M01/M04 A3018 RMK SLP274 T10111039 52013 IEM_DS3505
ZBYN,2004-12-17 13:00,ZBYN 171300Z AUTO 12002KT 2SM A3018 RMK IEM_DS3505
ZBYN,2004-12-17 14:00,ZBYN 171400Z AUTO 11004KT 4SM A3018 RMK IEM_DS3505
ZBYN,2004-12-17 15:00,ZBYN 171500Z AUTO 02002KT 1 1/4SM M03/M05 A3018 RMK SLP279 T10331054 52004 IEM_DS3505
ZBYN,2004-12-17 17:00,ZBYN 171700Z AUTO 13002KT 6SM M05/M09 A3018 RMK T10501090 IEM_DS3505
ZBYN,2004-12-17 18:00,ZBYN 171800Z AUTO 11002KT 2SM M05/M07 A3021 RMK SLP281 T10531074 52003 IEM_DS3505
ZBYN,2004-12-17 19:00,ZBYN 171900Z AUTO 09002KT 4SM A3021 RMK IEM_DS3505
ZBYN,2004-12-17 20:00,ZBYN 172000Z AUTO 12002KT 2SM A3018 RMK IEM_DS3505
ZBYN,2004-12-17 21:00,ZBYN 172100Z AUTO 00000KT 2SM M06/M08 A3018 RMK SLP275 T10631077 57008 IEM_DS3505
ZBYN,2004-12-17 22:00,ZBYN 172200Z AUTO 12002KT 2SM M08/M11 A3018 RMK T10801110 IEM_DS3505
ZBYN,2004-12-17 23:00,ZBYN 172300Z AUTO 2SM A3018 RMK IEM_DS3505
ZBYN,2004-12-18 00:00,ZBYN 180000Z AUTO 16002KT 2SM M06/M07 A3021 RMK SLP289 T10551073 52008 IEM_DS3505
ZBYN,2004-12-18 01:00,ZBYN 180100Z AUTO 16002KT 1SM A3021 RMK IEM_DS3505
ZBYN,2004-12-18 02:00,ZBYN 180200Z AUTO 00000KT 1 1/4SM A3018 RMK IEM_DS3505
ZBYN,2004-12-18 03:00,ZBYN 180300Z AUTO 18002KT 2SM M00/M05 A3018 RMK SLP272 T10031049 57010 IEM_DS3505
ZBYN,2004-12-18 04:00,ZBYN 180400Z AUTO 29002KT 1 1/4SM 00/M06 A3012 RMK T00001060 IEM_DS3505
ZBYN,2004-12-18 05:00,ZBYN 180500Z AUTO 24002KT 1 1/4SM 01/M07 A3009 RMK T00101070 IEM_DS3505
ZBYN,2004-12-18 06:00,ZBYN 180600Z AUTO 18004KT 2 1/2SM 02/M05 A3003 RMK SLP227 T00251047 57040 IEM_DS3505
ZBYN,2004-12-18 07:00,ZBYN 180700Z AUTO 23004KT 1SM 02/M05 A3003 RMK T00201050 IEM_DS3505
ZBYN,2004-12-18 08:00,ZBYN 180800Z AUTO 00000KT 1SM 02/M05 A3000 RMK T00201050 IEM_DS3505
ZBYN,2004-12-18 09:00,ZBYN 180900Z AUTO 16006KT 2SM 01/M05 A3000 RMK SLP216 T00141046 57013 IEM_DS3505
ZBYN,2004-12-18 10:00,ZBYN 181000Z AUTO 12002KT 1SM A3000 RMK IEM_DS3505
ZBYN,2004-12-18 11:00,ZBYN 181100Z AUTO 00000KT 1SM A2997 RMK IEM_DS3505
ZBYN,2004-12-18 12:00,ZBYN 181200Z AUTO 09004KT 1 1/4SM A2997 RMK IEM_DS3505
ZBYN,2004-12-18 13:00,ZBYN 181300Z AUTO 10002KT 1SM A2997 RMK IEM_DS3505
ZBYN,2004-12-18 14:00,ZBYN 181400Z AUTO 13006KT 4SM A2994 RMK IEM_DS3505
ZBYN,2004-12-18 15:00,ZBYN 181500Z AUTO 14004KT 1 1/4SM M03/M06 A2994 RMK SLP193 T10301061 57006 IEM_DS3505
ZBYN,2004-12-18 16:00,ZBYN 181600Z AUTO 09002KT 2SM A2994 RMK IEM_DS3505
ZBYN,2004-12-18 17:00,ZBYN 181700Z AUTO 00000KT 1 1/4SM A2991 RMK IEM_DS3505
ZBYN,2004-12-18 18:00,ZBYN 181800Z AUTO 29002KT 1SM M04/M05 A2991 RMK SLP183 T10361054 57006 IEM_DS3505
ZBYN,2004-12-18 19:00,ZBYN 181900Z AUTO 00000KT 1 1/4SM A2991 RMK IEM_DS3505
ZBYN,2004-12-18 20:00,ZBYN 182000Z AUTO 00000KT 1 1/4SM A2991 RMK IEM_DS3505
ZBYN,2004-12-18 21:00,ZBYN 182100Z AUTO 32004KT 1SM M03/M05 A2991 RMK SLP184 T10261049 52001 IEM_DS3505
ZBYN,2004-12-18 22:00,ZBYN 182200Z AUTO 00000KT 1SM A2994 RMK IEM_DS3505
ZBYN,2004-12-18 23:00,ZBYN 182300Z AUTO 00000KT 1SM A2997 RMK IEM_DS3505
ZBYN,2004-12-19 00:00,ZBYN 190000Z AUTO 36008KT 1SM M01/M06 A3000 RMK SLP216 T10101061 52025 IEM_DS3505
ZBYN,2004-12-19 01:00,ZBYN 190100Z AUTO 01004KT 2 1/2SM A3006 RMK IEM_DS3505
ZBYN,2004-12-19 02:00,ZBYN 190200Z AUTO 35008KT 4SM A3009 RMK IEM_DS3505
ZBYN,2004-12-19 03:00,ZBYN 190300Z AUTO 02008KT 1 1/4SM 00/M12 A3009 RMK SLP246 T00051121 52029 IEM_DS3505
ZBYN,2004-12-19 04:00,ZBYN 190400Z AUTO 01010KT 6SM 01/M18 A3009 RMK T00101180 IEM_DS3505
ZBYN,2004-12-19 05:00,ZBYN 190500Z AUTO 02010KT 6SM 03/M19 A3009 RMK T00301190 IEM_DS3505
ZBYN,2004-12-19 06:00,ZBYN 190600Z AUTO 36010KT 5SM 02/M17 A3006 RMK SLP237 T00241170 57006 IEM_DS3505
ZBYN,2004-12-19 07:00,ZBYN 190700Z AUTO 34012KT 6SM 03/M22 A3009 RMK T00301220 IEM_DS3505
ZBYN,2004-12-19 08:00,ZBYN 190800Z AUTO 33010KT 6SM 02/M25 A3009 RMK T00201250 IEM_DS3505
ZBYN,2004-12-19 09:00,ZBYN 190900Z AUTO 36006KT 6SM 01/M21 A3012 RMK SLP256 T00081214 52016 IEM_DS3505
ZBYN,2004-12-19 10:00,ZBYN 191000Z AUTO 33010KT 6SM M01/M25 A3015 RMK T10101250 IEM_DS3505
ZBYN,2004-12-19 11:00,ZBYN 191100Z AUTO 33008KT 6SM M03/M24 A3018 RMK T10301240 IEM_DS3505
ZBYN,2004-12-19 12:00,ZBYN 191200Z AUTO 36008KT 7SM M02/M21 A3021 RMK SLP291 T10151209 52031 IEM_DS3505
ZBYN,2004-12-19 13:00,ZBYN 191300Z AUTO 03002KT 6SM M06/M22 A3024 RMK T10601220 IEM_DS3505
ZBYN,2004-12-19 14:00,ZBYN 191400Z AUTO 31002KT 6SM M05/M23 A3027 RMK T10501230 IEM_DS3505
ZBYN,2004-12-19 15:00,ZBYN 191500Z AUTO 32006KT 6SM M03/M20 A3027 RMK SLP311 T10331195 52018 IEM_DS3505
ZBYN,2004-12-19 16:00,ZBYN 191600Z AUTO 34002KT 6SM M05/M23 A3030 RMK T10501230 IEM_DS3505
ZBYN,2004-12-19 17:00,ZBYN 191700Z AUTO 28002KT 6SM M08/M22 A3030 RMK T10801220 IEM_DS3505
ZBYN,2004-12-19 18:00,ZBYN 191800Z AUTO 32004KT 6SM M06/M18 A3027 RMK SLP312 T10651181 57002 IEM_DS3505
ZBYN,2004-12-19 19:00,ZBYN 191900Z AUTO 6SM M09/M19 A3027 RMK T10901190 IEM_DS3505
ZBYN,2004-12-19 20:00,ZBYN 192000Z AUTO 03002KT 6SM M09/M20 A3027 RMK T10901200 IEM_DS3505
ZBYN,2004-12-19 21:00,ZBYN 192100Z AUTO 32004KT 6SM M07/M18 A3027 RMK SLP313 T10671183 57002 IEM_DS3505
ZBYN,2004-12-19 22:00,ZBYN 192200Z AUTO 07002KT 6SM M10/M19 A3027 RMK T11001190 IEM_DS3505
ZBYN,2004-12-19 23:00,ZBYN 192300Z AUTO 11002KT 6SM M10/M16 A3027 RMK T11001160 IEM_DS3505
ZBYN,2004-12-20 00:00,ZBYN 200000Z AUTO 32004KT 6SM M08/M19 A3030 RMK SLP325 T10801186 52005 IEM_DS3505
ZBYN,2004-12-20 01:00,ZBYN 200100Z AUTO 00000KT 2 1/2SM M09/M14 A3030 RMK T10901140 IEM_DS3505
ZBYN,2004-12-20 02:00,ZBYN 200200Z AUTO 04002KT 3SM A3030 RMK IEM_DS3505
ZBYN,2004-12-20 03:00,ZBYN 200300Z AUTO 02002KT 5SM M03/M15 A3030 RMK SLP321 T10331149 52001 IEM_DS3505
ZBYN,2004-12-20 04:00,ZBYN 200400Z AUTO 4SM A3027 RMK IEM_DS3505
ZBYN,2004-12-20 05:00,ZBYN 200500Z AUTO 4SM A3021 RMK IEM_DS3505
ZBYN,2004-12-20 06:00,ZBYN 200600Z AUTO 16002KT 5SM M00/M10 A3015 RMK SLP277 T10011103 57040 IEM_DS3505
ZBYN,2004-12-20 07:00,ZBYN 200700Z AUTO 00/M11 A3015 RMK T00001110 IEM_DS3505
ZBYN,2004-12-20 08:00,ZBYN 200800Z AUTO 12004KT 4SM A3015 RMK IEM_DS3505
ZBYN,2004-12-20 09:00,ZBYN 200900Z AUTO 32002KT 5SM M01/M09 A3012 RMK SLP266 T10081089 57011 IEM_DS3505
ZBYN,2004-12-20 10:00,ZBYN 201000Z AUTO 10006KT 5SM A3015 RMK IEM_DS3505
ZBYN,2004-12-20 11:00,ZBYN 201100Z AUTO 08012KT 6SM M03/M14 A3015 RMK T10301140 IEM_DS3505
ZBYN,2004-12-20 12:00,ZBYN 201200Z AUTO 16004KT 4SM M02/M11 A3018 RMK SLP283 T10201112 52011 IEM_DS3505
ZBYN,2004-12-20 13:00,ZBYN 201300Z AUTO 09010KT 6SM M04/M16 A3018 RMK T10401160 IEM_DS3505
ZBYN,2004-12-20 14:00,ZBYN 201400Z AUTO 08010KT 6SM M04/M16 A3018 RMK T10401160 IEM_DS3505
ZBYN,2004-12-20 15:00,ZBYN 201500Z AUTO 14002KT 2 1/2SM M04/M06 A3021 RMK SLP290 T10381058 52011 IEM_DS3505
ZBYN,2004-12-20 16:00,ZBYN 201600Z AUTO 08006KT 1 1/2SM A3018 RMK IEM_DS3505
ZBYN,2004-12-20 17:00,ZBYN 201700Z AUTO 10006KT 2SM A3018 RMK IEM_DS3505
ZBYN,2004-12-20 18:00,ZBYN 201800Z AUTO 22002KT 2SM M05/M06 A3018 RMK 60004 SLP276 T10501061 57009 IEM_DS3505
ZBYN,2004-12-20 19:00,ZBYN 201900Z AUTO 09008KT 4SM A3018 RMK IEM_DS3505
ZBYN,2004-12-20 20:00,ZBYN 202000Z AUTO 08008KT 4SM A3015 RMK IEM_DS3505
ZBYN,2004-12-20 21:00,ZBYN 202100Z AUTO 32004KT 2SM M05/M06 A3015 RMK 70006 SLP266 T10501064 57010 IEM_DS3505
ZBYN,2004-12-20 22:00,ZBYN 202200Z AUTO 09008KT 4SM A3015 RMK IEM_DS3505
ZBYN,2004-12-20 23:00,ZBYN 202300Z AUTO 09010KT 4SM A3015 RMK IEM_DS3505
ZBYN,2004-12-21 00:00,ZBYN 210000Z AUTO 32004KT 5SM M05/M07 A3015 RMK 60001 70006 SLP274 T10481072 52005 IEM_DS3505
ZBYN,2004-12-21 01:00,ZBYN 210100Z AUTO 09008KT 1 1/2SM A3018 RMK IEM_DS3505
ZBYN,2004-12-21 02:00,ZBYN 210200Z AUTO 09008KT 2SM A3018 RMK IEM_DS3505
ZBYN,2004-12-21 03:00,ZBYN 210300Z AUTO 16004KT 5SM M04/M07 A3018 RMK SLP283 T10451066 52006 IEM_DS3505
ZBYN,2004-12-21 04:00,ZBYN 210400Z AUTO 08008KT 4SM A3015 RMK IEM_DS3505
ZBYN,2004-12-21 05:00,ZBYN 210500Z AUTO 09010KT 2SM A3012 RMK IEM_DS3505
ZBYN,2004-12-21 06:00,ZBYN 210600Z AUTO 16004KT 5SM M04/M06 A3012 RMK 60003 SLP265 T10421062 57018 IEM_DS3505
ZBYN,2004-12-21 07:00,ZBYN 210700Z AUTO 07008KT 2 1/2SM A3012 RMK IEM_DS3505
ZBYN,2004-12-21 08:00,ZBYN 210800Z AUTO 08010KT 4SM A3012 RMK IEM_DS3505
ZBYN,2004-12-21 09:00,ZBYN 210900Z AUTO 11006KT 5SM M05/M07 A3015 RMK SLP277 T10501068 52010 IEM_DS3505
ZBYN,2004-12-21 10:00,ZBYN 211000Z AUTO 08010KT 1 1/4SM M07/M09 A3018 RMK T10701090 IEM_DS3505
ZBYN,2004-12-21 11:00,ZBYN 211100Z AUTO 08012KT 2 1/2SM M07/M10 A3018 RMK T10701100 IEM_DS3505
ZBYN,2004-12-21 12:00,ZBYN 211200Z AUTO 22002KT 4SM M06/M07 A3021 RMK 60008 SLP300 T10591071 52019 IEM_DS3505
ZBYN,2004-12-21 13:00,ZBYN 211300Z AUTO 08010KT 5SM M07/M12 A3021 RMK T10701120 IEM_DS3505
ZBYN,2004-12-21 14:00,ZBYN 211400Z AUTO 08010KT 4SM M07/M12 A3024 RMK T10701120 IEM_DS3505
ZBYN,2004-12-21 15:00,ZBYN 211500Z AUTO 07010KT 2SM M08/M11 A3024 RMK T10801110 IEM_DS3505
ZBYN,2004-12-21 16:00,ZBYN 211600Z AUTO 08012KT 2SM M08/M12 A3024 RMK T10801120 IEM_DS3505
ZBYN,2004-12-21 18:00,ZBYN 211800Z AUTO 22002KT 4SM M07/M08 A3024 RMK 60012 SLP312 T10711080 54000 IEM_DS3505
ZBYN,2004-12-21 19:00,ZBYN 211900Z AUTO 05008KT 2SM M08/M12 A3024 RMK T10801120 IEM_DS3505
ZBYN,2004-12-21 20:00,ZBYN 212000Z AUTO 06008KT 4SM M08/M12 A3024 RMK T10801120 IEM_DS3505
ZBYN,2004-12-21 21:00,ZBYN 212100Z AUTO 36004KT 2 1/2SM M07/M09 A3024 RMK 70024 SLP313 T10691088 54000 IEM_DS3505
ZBYN,2004-12-21 22:00,ZBYN 212200Z AUTO 05008KT 5SM M08/M12 A3024 RMK T10801120 IEM_DS3505
ZBYN,2004-12-21 23:00,ZBYN 212300Z AUTO 06010KT 7SM M08/M13 A3027 RMK T10801130 IEM_DS3505
ZBYN,2004-12-22 00:00,ZBYN 220000Z AUTO 29002KT 2SM M07/M08 A3027 RMK 60002 70025 SLP326 T10701085 52010 IEM_DS3505
ZBYN,2004-12-22 01:00,ZBYN 220100Z AUTO 05008KT 2SM M08/M12 A3030 RMK T10801120 IEM_DS3505
ZBYN,2004-12-22 02:00,ZBYN 220200Z AUTO 06008KT 3SM A3030 RMK IEM_DS3505
ZBYN,2004-12-22 03:00,ZBYN 220300Z AUTO 29004KT 2SM M06/M09 A3030 RMK SLP339 T10581087 52012 IEM_DS3505
ZBYN,2004-12-22 04:00,ZBYN 220400Z AUTO 07010KT 4SM M06/M12 A3030 RMK T10601120 IEM_DS3505
ZBYN,2004-12-22 05:00,ZBYN 220500Z AUTO 07010KT 5SM M06/M13 A3027 RMK T10601130 IEM_DS3505
ZBYN,2004-12-22 06:00,ZBYN 220600Z AUTO 32004KT 2SM M05/M08 A3027 RMK 60002 SLP319 T10471084 57016 IEM_DS3505
ZBYN,2004-12-22 07:00,ZBYN 220700Z AUTO 06010KT 5SM A3027 RMK IEM_DS3505
ZBYN,2004-12-22 08:00,ZBYN 220800Z AUTO 06008KT 5SM A3027 RMK IEM_DS3505
ZBYN,2004-12-22 09:00,ZBYN 220900Z AUTO 18002KT 2 1/2SM M06/M09 A3027 RMK SLP327 T10601094 52005 IEM_DS3505
ZBYN,2004-12-22 10:00,ZBYN 221000Z AUTO 08008KT 5SM A3030 RMK IEM_DS3505
ZBYN,2004-12-22 11:00,ZBYN 221100Z AUTO 09010KT 5SM A3030 RMK IEM_DS3505
ZBYN,2004-12-22 12:00,ZBYN 221200Z AUTO 18002KT 4SM M08/M12 A3033 RMK SLP352 T10801116 52019 IEM_DS3505
ZBYN,2004-12-22 13:00,ZBYN 221300Z AUTO 08010KT 6SM M08/M13 A3036 RMK T10801130 IEM_DS3505
ZBYN,2004-12-22 14:00,ZBYN 221400Z AUTO 08010KT 6SM M08/M13 A3036 RMK T10801130 IEM_DS3505
ZBYN,2004-12-22 15:00,ZBYN 221500Z AUTO 18004KT 4SM M07/M11 A3036 RMK SLP358 T10741114 52009 IEM_DS3505
ZBYN,2004-12-22 16:00,ZBYN 221600Z AUTO 08008KT 6SM M08/M13 A3036 RMK T10801130 IEM_DS3505
ZBYN,2004-12-22 17:00,ZBYN 221700Z AUTO 10006KT 6SM M09/M14 A3036 RMK T10901140 IEM_DS3505
ZBYN,2004-12-22 18:00,ZBYN 221800Z AUTO 27004KT 5SM M09/M12 A3036 RMK SLP357 T10941125 57003 IEM_DS3505
ZBYN,2004-12-22 19:00,ZBYN 221900Z AUTO 09002KT 7SM A3036 RMK IEM_DS3505
ZBYN,2004-12-22 20:00,ZBYN 222000Z AUTO 00000KT 6SM M10/M13 A3036 RMK T11001130 IEM_DS3505
ZBYN,2004-12-22 21:00,ZBYN 222100Z AUTO 16002KT 5SM M09/M12 A3036 RMK 70003 SLP353 T10901118 57005 IEM_DS3505
ZBYN,2004-12-22 22:00,ZBYN 222200Z AUTO 06002KT 4SM A3033 RMK IEM_DS3505
ZBYN,2004-12-22 23:00,ZBYN 222300Z AUTO 14002KT 4SM A3036 RMK IEM_DS3505
ZBYN,2004-12-23 00:00,ZBYN 230000Z AUTO 18002KT 5SM M08/M11 A3036 RMK 70002 SLP364 T10841111 52007 IEM_DS3505
ZBYN,2004-12-23 01:00,ZBYN 230100Z AUTO 13002KT 1 1/4SM A3036 RMK IEM_DS3505
ZBYN,2004-12-23 02:00,ZBYN 230200Z AUTO 00000KT 1SM A3039 RMK IEM_DS3505
ZBYN,2004-12-23 03:00,ZBYN 230300Z AUTO 14002KT 3SM M06/M10 A3036 RMK SLP361 T10621097 52003 IEM_DS3505
ZBYN,2004-12-23 04:00,ZBYN 230400Z AUTO 00000KT 3SM A3033 RMK IEM_DS3505
ZBYN,2004-12-23 05:00,ZBYN 230500Z AUTO 00000KT 2 1/2SM A3030 RMK IEM_DS3505
ZBYN,2004-12-23 06:00,ZBYN 230600Z AUTO 14002KT 2 1/2SM M05/M09 A3027 RMK SLP329 T10481094 57030 IEM_DS3505
ZBYN,2004-12-23 07:00,ZBYN 230700Z AUTO 14002KT 2SM A3027 RMK IEM_DS3505
ZBYN,2004-12-23 08:00,ZBYN 230800Z AUTO 00000KT 2SM A3027 RMK IEM_DS3505
ZBYN,2004-12-23 09:00,ZBYN 230900Z AUTO 16002KT 2 1/2SM M06/M09 A3027 RMK SLP331 T10561093 52001 IEM_DS3505
ZBYN,2004-12-23 10:00,ZBYN 231000Z AUTO 00000KT 2SM A3030 RMK IEM_DS3505
ZBYN,2004-12-23 11:00,ZBYN 231100Z AUTO 00000KT 3SM A3030 RMK IEM_DS3505
ZBYN,2004-12-23 12:00,ZBYN 231200Z AUTO 00000KT 2 1/2SM M09/M10 A3030 RMK SLP344 T10861101 52007 IEM_DS3505
ZBYN,2004-12-23 13:00,ZBYN 231300Z AUTO 07002KT 3SM A3030 RMK IEM_DS3505
ZBYN,2004-12-23 14:00,ZBYN 231400Z AUTO 08002KT 4SM A3033 RMK IEM_DS3505
ZBYN,2004-12-23 15:00,ZBYN 231500Z AUTO 16002KT 2 1/2SM M10/M11 A3033 RMK SLP352 T10981107 52009 IEM_DS3505
ZBYN,2004-12-23 16:00,ZBYN 231600Z AUTO 00000KT 4SM A3033 RMK IEM_DS3505
ZBYN,2004-12-23 17:00,ZBYN 231700Z AUTO 00000KT 2 1/2SM A3033 RMK IEM_DS3505
ZBYN,2004-12-23 18:00,ZBYN 231800Z AUTO 22002KT 2SM M11/M12 A3030 RMK SLP343 T11091119 57007 IEM_DS3505
ZBYN,2004-12-23 19:00,ZBYN 231900Z AUTO 12004KT 2 1/2SM A3030 RMK IEM_DS3505
ZBYN,2004-12-23 20:00,ZBYN 232000Z AUTO 08002KT 2 1/2SM A3030 RMK IEM_DS3505
ZBYN,2004-12-23 21:00,ZBYN 232100Z AUTO 16002KT 2SM M10/M11 A3030 RMK 70000 SLP338 T10981108 57004 IEM_DS3505
ZBYN,2004-12-23 22:00,ZBYN 232200Z AUTO 00000KT 2SM A3030 RMK IEM_DS3505
ZBYN,2004-12-23 23:00,ZBYN 232300Z AUTO 00000KT 1 1/2SM A3030 RMK IEM_DS3505
ZBYN,2004-12-24 00:00,ZBYN 240000Z AUTO 20002KT 1SM M08/M09 A3033 RMK 70000 SLP352 T10771090 52011 IEM_DS3505
ZBYN,2004-12-24 01:00,ZBYN 240100Z AUTO 00000KT 1SM A3033 RMK IEM_DS3505
ZBYN,2004-12-24 02:00,ZBYN 240200Z AUTO 19002KT 1SM A3036 RMK IEM_DS3505
ZBYN,2004-12-24 03:00,ZBYN 240300Z AUTO 16002KT 1SM M05/M08 A3033 RMK SLP353 T10541081 52003 IEM_DS3505
ZBYN,2004-12-24 04:00,ZBYN 240400Z AUTO 20002KT 1SM A3033 RMK IEM_DS3505
ZBYN,2004-12-24 05:00,ZBYN 240500Z AUTO 16002KT 1SM A3027 RMK IEM_DS3505
ZBYN,2004-12-24 06:00,ZBYN 240600Z AUTO 14004KT 1 1/4SM M04/M08 A3027 RMK SLP322 T10421081 57028 IEM_DS3505
ZBYN,2004-12-24 07:00,ZBYN 240700Z AUTO 00000KT 1SM M04/M09 A3024 RMK T10401090 IEM_DS3505
ZBYN,2004-12-24 08:00,ZBYN 240800Z AUTO 11002KT 1SM M04/M09 A3024 RMK T10401090 IEM_DS3505
ZBYN,2004-12-24 09:00,ZBYN 240900Z AUTO 11002KT 1 1/4SM M05/M09 A3024 RMK SLP323 T10541088 54000 IEM_DS3505
ZBYN,2004-12-24 10:00,ZBYN 241000Z AUTO 00000KT 1SM M07/M10 A3027 RMK T10701100 IEM_DS3505
ZBYN,2004-12-24 11:00,ZBYN 241100Z AUTO 09002KT 1 1/4SM M10/M12 A3027 RMK T11001120 IEM_DS3505
ZBYN,2004-12-24 12:00,ZBYN 241200Z AUTO 18002KT 1 1/4SM M09/M10 A3030 RMK SLP337 T10891100 52011 IEM_DS3505
ZBYN,2004-12-24 13:00,ZBYN 241300Z AUTO 11004KT 1 1/4SM A3030 RMK IEM_DS3505
ZBYN,2004-12-24 14:00,ZBYN 241400Z AUTO 12004KT 1 1/4SM A3030 RMK IEM_DS3505
ZBYN,2004-12-24 15:00,ZBYN 241500Z AUTO 14002KT 1 1/4SM M11/M12 A3030 RMK SLP340 T11071119 52003 IEM_DS3505
ZBYN,2004-12-24 16:00,ZBYN 241600Z AUTO 10002KT 1 1/4SM A3030 RMK IEM_DS3505
ZBYN,2004-12-24 17:00,ZBYN 241700Z AUTO 00000KT 1 1/4SM A3030 RMK IEM_DS3505
ZBYN,2004-12-24 18:00,ZBYN 241800Z AUTO 11002KT 1 1/4SM M09/M10 A3027 RMK SLP329 T10931103 57005 IEM_DS3505
ZBYN,2004-12-24 19:00,ZBYN 241900Z AUTO 11002KT 1 1/4SM A3027 RMK IEM_DS3505
ZBYN,2004-12-24 20:00,ZBYN 242000Z AUTO 00000KT 1 1/4SM A3027 RMK IEM_DS3505
ZBYN,2004-12-24 21:00,ZBYN 242100Z AUTO 20002KT 1 1/4SM M10/M11 A3024 RMK SLP323 T10961111 57008 IEM_DS3505
ZBYN,2004-12-24 22:00,ZBYN 242200Z AUTO 00000KT 1SM A3024 RMK IEM_DS3505
ZBYN,2004-12-24 23:00,ZBYN 242300Z AUTO 00000KT 1SM A3024 RMK IEM_DS3505
ZBYN,2004-12-25 00:00,ZBYN 250000Z AUTO 18002KT 1 1/4SM M10/M11 A3027 RMK SLP333 T10951111 52003 IEM_DS3505
ZBYN,2004-12-25 01:00,ZBYN 250100Z AUTO 00000KT 1/2SM A3027 RMK IEM_DS3505
ZBYN,2004-12-25 02:00,ZBYN 250200Z AUTO 20002KT 3/8SM A3027 RMK IEM_DS3505
ZBYN,2004-12-25 03:00,ZBYN 250300Z AUTO 11002KT 3/8SM M08/M09 A3027 RMK SLP333 T10751090 54000 IEM_DS3505
ZBYN,2004-12-25 04:00,ZBYN 250400Z AUTO 00000KT 3/8SM A3024 RMK IEM_DS3505
ZBYN,2004-12-25 05:00,ZBYN 250500Z AUTO 30002KT 3/8SM A3021 RMK IEM_DS3505
ZBYN,2004-12-25 06:00,ZBYN 250600Z AUTO 18002KT 1SM M04/M08 A3018 RMK SLP295 T10401079 57026 IEM_DS3505
ZBYN,2004-12-25 07:00,ZBYN 250700Z AUTO 24002KT 1/2SM A3015 RMK IEM_DS3505
ZBYN,2004-12-25 08:00,ZBYN 250800Z AUTO 00000KT 1/2SM A3018 RMK IEM_DS3505
ZBYN,2004-12-25 09:00,ZBYN 250900Z AUTO 14002KT 3/8SM M04/M07 A3018 RMK SLP294 T10411072 57001 IEM_DS3505
ZBYN,2004-12-25 10:00,ZBYN 251000Z AUTO 00000KT 1/2SM A3018 RMK IEM_DS3505
ZBYN,2004-12-25 11:00,ZBYN 251100Z AUTO 00000KT 1/2SM A3021 RMK IEM_DS3505
ZBYN,2004-12-25 12:00,ZBYN 251200Z AUTO 22004KT 1 1/4SM M04/M07 A3024 RMK SLP313 T10441071 52017 IEM_DS3505
ZBYN,2004-12-25 13:00,ZBYN 251300Z AUTO 00000KT 1/2SM A3024 RMK IEM_DS3505
ZBYN,2004-12-25 14:00,ZBYN 251400Z AUTO 00000KT 1/2SM A3024 RMK IEM_DS3505
ZBYN,2004-12-25 15:00,ZBYN 251500Z AUTO 14002KT 1SM M05/M07 A3027 RMK SLP324 T10461067 52013 IEM_DS3505
ZBYN,2004-12-25 16:00,ZBYN 251600Z AUTO 12002KT 1/2SM A3027 RMK IEM_DS3505
ZBYN,2004-12-25 17:00,ZBYN 251700Z AUTO 14004KT 1SM A3024 RMK IEM_DS3505
ZBYN,2004-12-25 18:00,ZBYN 251800Z AUTO 09002KT 1SM M06/M07 A3024 RMK SLP312 T10601072 57008 IEM_DS3505
ZBYN,2004-12-25 19:00,ZBYN 251900Z AUTO 12002KT 1/2SM A3024 RMK IEM_DS3505
ZBYN,2004-12-25 20:00,ZBYN 252000Z AUTO 00000KT 1/2SM A3027 RMK IEM_DS3505
ZBYN,2004-12-25 21:00,ZBYN 252100Z AUTO 11002KT 1SM M06/M07 A3027 RMK SLP315 T10551070 52004 IEM_DS3505
ZBYN,2004-12-25 22:00,ZBYN 252200Z AUTO 00000KT 1/2SM A3027 RMK IEM_DS3505
ZBYN,2004-12-25 23:00,ZBYN 252300Z AUTO 00000KT 3/8SM A3030 RMK IEM_DS3505
ZBYN,2004-12-26 00:00,ZBYN 260000Z AUTO 00000KT 3/8SM A3030 RMK IEM_DS3505
ZBYN,2004-12-26 01:00,ZBYN 260100Z AUTO 00000KT 1/4SM A3030 RMK IEM_DS3505
ZBYN,2004-12-26 02:00,ZBYN 260200Z AUTO 00000KT 1/4SM A3033 RMK IEM_DS3505
ZBYN,2004-12-26 03:00,ZBYN 260300Z AUTO 11002KT 1/4SM M04/M06 A3033 RMK SLP338 T10371063 52009 IEM_DS3505
ZBYN,2004-12-26 04:00,ZBYN 260400Z AUTO 22002KT 3/8SM 00/M04 A3030 RMK T00001040 IEM_DS3505
ZBYN,2004-12-26 05:00,ZBYN 260500Z AUTO 22004KT 3/8SM 00/M05 A3027 RMK T00001050 IEM_DS3505
ZBYN,2004-12-26 06:00,ZBYN 260600Z AUTO 22004KT 1SM 00/M07 A3027 RMK SLP312 T00031072 57019 IEM_DS3505
ZBYN,2004-12-26 07:00,ZBYN 260700Z AUTO 27004KT 2SM 01/M07 A3027 RMK T00101070 IEM_DS3505
ZBYN,2004-12-26 08:00,ZBYN 260800Z AUTO 32006KT 2 1/2SM 00/M08 A3027 RMK T00001080 IEM_DS3505
ZBYN,2004-12-26 09:00,ZBYN 260900Z AUTO 02004KT 5SM M01/M09 A3030 RMK SLP323 T10121090 52008 IEM_DS3505
ZBYN,2004-12-26 10:00,ZBYN 261000Z AUTO 36006KT 3SM A3033 RMK IEM_DS3505
ZBYN,2004-12-26 11:00,ZBYN 261100Z AUTO 35002KT 6SM M05/M12 A3036 RMK T10501120 IEM_DS3505
ZBYN,2004-12-26 12:00,ZBYN 261200Z AUTO 36004KT 6SM M04/M12 A3036 RMK SLP353 T10381119 52022 IEM_DS3505
ZBYN,2004-12-26 13:00,ZBYN 261300Z AUTO 34004KT 6SM M07/M14 A3039 RMK T10701140 IEM_DS3505
ZBYN,2004-12-26 14:00,ZBYN 261400Z AUTO 34008KT 6SM M07/M14 A3042 RMK T10701140 IEM_DS3505
ZBYN,2004-12-26 15:00,ZBYN 261500Z AUTO 36006KT 7SM M06/M14 A3042 RMK SLP376 T10571137 52021 IEM_DS3505
ZBYN,2004-12-26 16:00,ZBYN 261600Z AUTO 34008KT 6SM M08/M16 A3045 RMK T10801160 IEM_DS3505
ZBYN,2004-12-26 17:00,ZBYN 261700Z AUTO 35008KT 6SM M09/M17 A3045 RMK T10901170 IEM_DS3505
ZBYN,2004-12-26 18:00,ZBYN 261800Z AUTO 02004KT 7SM M07/M15 A3045 RMK SLP373 T10731152 52002 IEM_DS3505
ZBYN,2004-12-26 19:00,ZBYN 261900Z AUTO 34010KT 6SM M09/M18 A3045 RMK T10901180 IEM_DS3505
ZBYN,2004-12-26 20:00,ZBYN 262000Z AUTO 36008KT 6SM M10/M18 A3045 RMK T11001180 IEM_DS3505
ZBYN,2004-12-26 21:00,ZBYN 262100Z AUTO 34004KT 7SM M08/M17 A3045 RMK SLP377 T10851168 57001 IEM_DS3505
ZBYN,2004-12-26 22:00,ZBYN 262200Z AUTO 34010KT 6SM M11/M19 A3045 RMK T11101190 IEM_DS3505
ZBYN,2004-12-26 23:00,ZBYN 262300Z AUTO 34008KT 6SM M11/M19 A3045 RMK T11101190 IEM_DS3505
ZBYN,2004-12-27 00:00,ZBYN 270000Z AUTO 34004KT 6SM M09/M17 A3047 RMK SLP395 T10931166 52010 IEM_DS3505
ZBYN,2004-12-27 01:00,ZBYN 270100Z AUTO 01006KT 6SM M10/M18 A3047 RMK T11001180 IEM_DS3505
ZBYN,2004-12-27 02:00,ZBYN 270200Z AUTO 34010KT 6SM M09/M19 A3050 RMK T10901190 IEM_DS3505
ZBYN,2004-12-27 03:00,ZBYN 270300Z AUTO 29002KT 6SM M07/M16 A3047 RMK SLP401 T10701156 52006 IEM_DS3505
ZBYN,2004-12-27 04:00,ZBYN 270400Z AUTO 32010KT 6SM M06/M19 A3047 RMK T10601190 IEM_DS3505
ZBYN,2004-12-27 05:00,ZBYN 270500Z AUTO 32006KT 6SM M05/M20 A3045 RMK T10501200 IEM_DS3505
ZBYN,2004-12-27 06:00,ZBYN 270600Z AUTO 20004KT 6SM M04/M16 A3042 RMK SLP370 T10411165 57025 IEM_DS3505
ZBYN,2004-12-27 07:00,ZBYN 270700Z AUTO 26004KT 6SM M05/M18 A3039 RMK T10501180 IEM_DS3505
ZBYN,2004-12-27 08:00,ZBYN 270800Z AUTO 25002KT 3SM A3039 RMK IEM_DS3505
ZBYN,2004-12-27 09:00,ZBYN 270900Z AUTO 22002KT 4SM M06/M14 A3039 RMK SLP373 T10591143 57003 IEM_DS3505
ZBYN,2004-12-27 10:00,ZBYN 271000Z AUTO 00000KT 3SM A3042 RMK IEM_DS3505
ZBYN,2004-12-27 11:00,ZBYN 271100Z AUTO 00000KT 4SM A3042 RMK IEM_DS3505
ZBYN,2004-12-27 12:00,ZBYN 271200Z AUTO 00000KT 4SM M08/M13 A3039 RMK SLP380 T10821132 52001 IEM_DS3505
ZBYN,2004-12-27 13:00,ZBYN 271300Z AUTO 13002KT 3SM A3039 RMK IEM_DS3505
ZBYN,2004-12-27 14:00,ZBYN 271400Z AUTO 10002KT 4SM A3042 RMK IEM_DS3505
ZBYN,2004-12-27 15:00,ZBYN 271500Z AUTO 18002KT 2 1/2SM M08/M12 A3039 RMK SLP374 T10841125 57002 IEM_DS3505
ZBYN,2004-12-27 16:00,ZBYN 271600Z AUTO 00000KT 4SM A3039 RMK IEM_DS3505
ZBYN,2004-12-27 17:00,ZBYN 271700Z AUTO 00000KT 2SM A3039 RMK IEM_DS3505
ZBYN,2004-12-27 18:00,ZBYN 271800Z AUTO 25002KT 2SM M11/M13 A3036 RMK SLP361 T11081134 57011 IEM_DS3505
ZBYN,2004-12-27 19:00,ZBYN 271900Z AUTO 06002KT 2SM A3036 RMK IEM_DS3505
ZBYN,2004-12-27 20:00,ZBYN 272000Z AUTO 00000KT 2 1/2SM A3033 RMK IEM_DS3505
ZBYN,2004-12-27 21:00,ZBYN 272100Z AUTO 29002KT 2SM M13/M15 A3033 RMK SLP351 T11261146 57015 IEM_DS3505
ZBYN,2004-12-27 22:00,ZBYN 272200Z AUTO 09002KT 4SM M14/M18 A3030 RMK T11401180 IEM_DS3505
ZBYN,2004-12-27 23:00,ZBYN 272300Z AUTO 00000KT 3SM M15/M18 A3033 RMK T11501180 IEM_DS3505
ZBYN,2004-12-28 00:00,ZBYN 280000Z AUTO 34004KT 5SM M11/M17 A3033 RMK SLP353 T11071169 52001 IEM_DS3505
ZBYN,2004-12-28 01:00,ZBYN 280100Z AUTO 00000KT 2 1/2SM M14/M18 A3033 RMK T11401180 IEM_DS3505
ZBYN,2004-12-28 02:00,ZBYN 280200Z AUTO 00000KT 1 1/2SM M11/M16 A3033 RMK T11101160 IEM_DS3505
ZBYN,2004-12-28 03:00,ZBYN 280300Z AUTO 34006KT 7SM M07/M17 A3033 RMK SLP348 T10661168 52002 IEM_DS3505
ZBYN,2004-12-28 04:00,ZBYN 280400Z AUTO 00000KT 3SM M03/M14 A3030 RMK T10301140 IEM_DS3505
ZBYN,2004-12-28 05:00,ZBYN 280500Z AUTO 00000KT M02/M14 A3024 RMK T10201140 IEM_DS3505
ZBYN,2004-12-28 06:00,ZBYN 280600Z AUTO 32006KT 6SM M04/M17 A3021 RMK SLP309 T10361174 57034 IEM_DS3505
ZBYN,2004-12-28 07:00,ZBYN 280700Z AUTO 33008KT 6SM M01/M16 A3021 RMK T10101160 IEM_DS3505
ZBYN,2004-12-28 08:00,ZBYN 280800Z AUTO 32008KT 6SM M03/M15 A3021 RMK T10301150 IEM_DS3505
ZBYN,2004-12-28 09:00,ZBYN 280900Z AUTO 32004KT 6SM M05/M17 A3021 RMK SLP317 T10481169 52002 IEM_DS3505
ZBYN,2004-12-28 10:00,ZBYN 281000Z AUTO 35002KT 6SM M07/M17 A3024 RMK T10701170 IEM_DS3505
ZBYN,2004-12-28 11:00,ZBYN 281100Z AUTO 06008KT 6SM M07/M16 A3024 RMK T10701160 IEM_DS3505
ZBYN,2004-12-28 12:00,ZBYN 281200Z AUTO 32004KT 6SM M08/M17 A3027 RMK SLP336 T10771172 52016 IEM_DS3505
ZBYN,2004-12-28 13:00,ZBYN 281300Z AUTO 04008KT 6SM M08/M16 A3027 RMK T10801160 IEM_DS3505
ZBYN,2004-12-28 14:00,ZBYN 281400Z AUTO 05006KT 6SM M08/M16 A3030 RMK T10801160 IEM_DS3505
ZBYN,2004-12-28 15:00,ZBYN 281500Z AUTO 34004KT 6SM M08/M15 A3030 RMK SLP337 T10801150 52007 IEM_DS3505
ZBYN,2004-12-28 16:00,ZBYN 281600Z AUTO 06006KT 4SM A3030 RMK IEM_DS3505
ZBYN,2004-12-28 17:00,ZBYN 281700Z AUTO 00000KT 4SM A3030 RMK IEM_DS3505
ZBYN,2004-12-28 18:00,ZBYN 281800Z AUTO 32004KT 6SM M08/M15 A3027 RMK SLP323 T10851150 57008 IEM_DS3505
ZBYN,2004-12-28 19:00,ZBYN 281900Z AUTO 34002KT 4SM A3027 RMK IEM_DS3505
ZBYN,2004-12-28 20:00,ZBYN 282000Z AUTO 17002KT 4SM A3030 RMK IEM_DS3505
ZBYN,2004-12-28 21:00,ZBYN 282100Z AUTO 20004KT 6SM M08/M14 A3027 RMK SLP330 T10831135 52004 IEM_DS3505
ZBYN,2004-12-28 22:00,ZBYN 282200Z AUTO 07006KT 4SM A3027 RMK IEM_DS3505
ZBYN,2004-12-28 23:00,ZBYN 282300Z AUTO 09006KT 4SM A3027 RMK IEM_DS3505
ZBYN,2004-12-29 00:00,ZBYN 290000Z AUTO 34004KT 5SM M08/M14 A3030 RMK SLP337 T10831139 52002 IEM_DS3505
ZBYN,2004-12-29 01:00,ZBYN 290100Z AUTO 09002KT 2 1/2SM A3030 RMK IEM_DS3505
ZBYN,2004-12-29 02:00,ZBYN 290200Z AUTO 11002KT 2 1/2SM A3033 RMK IEM_DS3505
ZBYN,2004-12-29 03:00,ZBYN 290300Z AUTO 36004KT 4SM M07/M13 A3030 RMK SLP343 T10661130 52008 IEM_DS3505
ZBYN,2004-12-29 04:00,ZBYN 290400Z AUTO 00000KT 2 1/2SM A3030 RMK IEM_DS3505
ZBYN,2004-12-29 05:00,ZBYN 290500Z AUTO 00000KT 1 1/4SM A3027 RMK IEM_DS3505
ZBYN,2004-12-29 06:00,ZBYN 290600Z AUTO 20004KT 4SM M05/M12 A3027 RMK SLP322 T10511116 57018 IEM_DS3505
ZBYN,2004-12-29 07:00,ZBYN 290700Z AUTO 25002KT 1 1/4SM A3027 RMK IEM_DS3505
ZBYN,2004-12-29 08:00,ZBYN 290800Z AUTO 19002KT 1 1/4SM A3024 RMK IEM_DS3505
ZBYN,2004-12-29 09:00,ZBYN 290900Z AUTO 18002KT 3SM M06/M11 A3027 RMK SLP328 T10591112 52005 IEM_DS3505
ZBYN,2004-12-29 12:00,ZBYN 291200Z AUTO 20004KT 2 1/2SM M08/M11 A3030 RMK SLP347 T10751108 52014 IEM_DS3505
ZBYN,2004-12-29 13:00,ZBYN 291300Z AUTO 00000KT 1SM A3033 RMK IEM_DS3505
ZBYN,2004-12-29 14:00,ZBYN 291400Z AUTO 1SM A3033 RMK IEM_DS3505
ZBYN,2004-12-29 15:00,ZBYN 291500Z AUTO 32004KT 9SM M06/M14 A3036 RMK SLP352 T10631145 52010 IEM_DS3505
ZBYN,2004-12-29 16:00,ZBYN 291600Z AUTO 30014KT 6SM M08/M14 A3036 RMK T10801140 IEM_DS3505
ZBYN,2004-12-29 17:00,ZBYN 291700Z AUTO 30014KT 6SM M08/M18 A3036 RMK T10801180 IEM_DS3505
ZBYN,2004-12-29 18:00,ZBYN 291800Z AUTO 29006KT 9SM M09/M17 A3036 RMK SLP362 T10871174 52007 IEM_DS3505
ZBYN,2004-12-29 19:00,ZBYN 291900Z AUTO 32017KT 6SM M11/M20 A3039 RMK T11101200 IEM_DS3505
ZBYN,2004-12-29 20:00,ZBYN 292000Z AUTO 32019KT 6SM M12/M23 A3039 RMK T11201230 IEM_DS3505
ZBYN,2004-12-29 21:00,ZBYN 292100Z AUTO 32014KT 9SM M13/M22 A3042 RMK SLP386 T11261225 52014 IEM_DS3505
ZBYN,2004-12-29 22:00,ZBYN 292200Z AUTO 30014KT 6SM M13/M23 A3042 RMK T11301230 IEM_DS3505
ZBYN,2004-12-29 23:00,ZBYN 292300Z AUTO 31008KT 6SM M14/M24 A3047 RMK T11401240 IEM_DS3505
ZBYN,2004-12-30 00:00,ZBYN 300000Z AUTO 32016KT 9SM M13/M22 A3047 RMK SLP412 T11321225 52019 IEM_DS3505
ZBYN,2004-12-30 01:00,ZBYN 300100Z AUTO 30010KT 6SM M13/M24 A3050 RMK T11301240 IEM_DS3505
ZBYN,2004-12-30 02:00,ZBYN 300200Z AUTO 30012KT 6SM M12/M23 A3053 RMK T11201230 IEM_DS3505
ZBYN,2004-12-30 03:00,ZBYN 300300Z AUTO 29014KT 12SM M11/M21 A3053 RMK SLP421 T11081214 52015 IEM_DS3505
ZBYN,2004-12-30 04:00,ZBYN 300400Z AUTO 28014KT 6SM M10/M23 A3050 RMK T11001230 IEM_DS3505
ZBYN,2004-12-30 05:00,ZBYN 300500Z AUTO 30012KT 6SM M09/M22 A3047 RMK T10901220 IEM_DS3505
ZBYN,2004-12-30 06:00,ZBYN 300600Z AUTO 29010KT 12SM M08/M20 A3047 RMK SLP402 T10841201 57017 IEM_DS3505
ZBYN,2004-12-30 07:00,ZBYN 300700Z AUTO 29010KT 6SM M08/M22 A3045 RMK T10801220 IEM_DS3505
ZBYN,2004-12-30 08:00,ZBYN 300800Z AUTO 29012KT 6SM M08/M23 A3047 RMK T10801230 IEM_DS3505
ZBYN,2004-12-30 09:00,ZBYN 300900Z AUTO 29014KT 11SM M10/M21 A3050 RMK SLP422 T11001207 52008 IEM_DS3505
ZBYN,2004-12-30 10:00,ZBYN 301000Z AUTO 31016KT 6SM M12/M24 A3050 RMK T11201240 IEM_DS3505
ZBYN,2004-12-30 11:00,ZBYN 301100Z AUTO 30016KT 6SM M12/M23 A3053 RMK T11201230 IEM_DS3505
ZBYN,2004-12-30 12:00,ZBYN 301200Z AUTO 32012KT 12SM M12/M21 A3056 RMK SLP451 T11201214 52021 IEM_DS3505
ZBYN,2004-12-30 13:00,ZBYN 301300Z AUTO 30010KT 6SM M13/M23 A3056 RMK T11301230 IEM_DS3505
ZBYN,2004-12-30 14:00,ZBYN 301400Z AUTO 30008KT 6SM M13/M23 A3056 RMK T11301230 IEM_DS3505
ZBYN,2004-12-30 15:00,ZBYN 301500Z AUTO 32004KT 12SM M12/M21 A3056 RMK SLP447 T11241213 54000 IEM_DS3505
ZBYN,2004-12-30 16:00,ZBYN 301600Z AUTO 29004KT 6SM M14/M23 A3056 RMK T11401230 IEM_DS3505
ZBYN,2004-12-30 17:00,ZBYN 301700Z AUTO 11004KT 6SM M18/M23 A3056 RMK T11801230 IEM_DS3505
ZBYN,2004-12-30 18:00,ZBYN 301800Z AUTO 32006KT 11SM M13/M22 A3053 RMK SLP437 T11301219 57005 IEM_DS3505
ZBYN,2004-12-30 19:00,ZBYN 301900Z AUTO 02002KT 6SM M17/M24 A3056 RMK T11701240 IEM_DS3505
ZBYN,2004-12-30 20:00,ZBYN 302000Z AUTO 11002KT 6SM M19/M24 A3056 RMK T11901240 IEM_DS3505
ZBYN,2004-12-30 21:00,ZBYN 302100Z AUTO 34004KT 9SM M15/M22 A3053 RMK SLP439 T11461222 57004 IEM_DS3505
ZBYN,2004-12-30 22:00,ZBYN 302200Z AUTO 35004KT 6SM M16/M23 A3056 RMK T11601230 IEM_DS3505
ZBYN,2004-12-30 23:00,ZBYN 302300Z AUTO 33004KT 6SM M16/M23 A3059 RMK T11601230 IEM_DS3505
