station,valid,metar
ZBYN,1989-01-01 00:00,ZBYN 010000Z AUTO 00000KT 4SM M05/M07 RMK SLP322 T10461070 57007 IEM_DS3505
ZBYN,1989-01-01 00:15,ZBYN 010015Z AUTO 33004KT 3SM M05/M08 A3036 RMK T10501080 IEM_DS3505
ZBYN,1989-01-01 00:33,ZBYN 010033Z AUTO 33004KT 3SM M05/M08 A3036 RMK T10501080 IEM_DS3505
ZBYN,1989-01-01 00:53,ZBYN 010053Z AUTO 33004KT 3SM M05/M08 A3036 RMK T10501080 IEM_DS3505
ZBYN,1989-01-01 01:21,ZBYN 010121Z AUTO 00000KT 2SM M04/M09 RMK T10401090 IEM_DS3505
ZBYN,1989-01-01 01:38,ZBYN 010138Z AUTO 00000KT 2SM M04/M09 RMK T10401090 IEM_DS3505
ZBYN,1989-01-01 02:00,ZBYN 010200Z AUTO 30004KT 1 1/2SM M04/M08 A3039 RMK T10401080 IEM_DS3505
ZBYN,1989-01-01 02:24,ZBYN 010224Z AUTO 33004KT 3SM M05/M08 A3036 RMK T10501080 IEM_DS3505
ZBYN,1989-01-01 02:34,ZBYN 010234Z AUTO 30004KT 1 1/2SM M04/M08 A3039 RMK T10401080 IEM_DS3505
ZBYN,1989-01-01 03:00,ZBYN 010300Z AUTO 32002KT 4SM M04/M08 A3039 RMK SLP322 T10411084 54000 IEM_DS3505
ZBYN,1989-01-01 03:17,ZBYN 010317Z AUTO 28004KT 1 1/2SM M04/M08 A3039 RMK T10401080 IEM_DS3505
ZBYN,1989-01-01 04:25,ZBYN 010425Z AUTO 00000KT M03/M08 A3036 RMK T10301080 IEM_DS3505
ZBYN,1989-01-01 04:27,ZBYN 010427Z AUTO 00000KT M03/M08 A3036 RMK T10301080 IEM_DS3505
ZBYN,1989-01-01 05:00,ZBYN 010500Z AUTO 00000KT M03/M08 A3036 RMK T10301080 IEM_DS3505
ZBYN,1989-01-01 06:00,ZBYN 010600Z AUTO 16002KT 4SM M02/M08 RMK SLP284 T10241083 4////1053 57031 IEM_DS3505
ZBYN,1989-01-01 07:00,ZBYN 010700Z AUTO 00000KT 2SM M02/M06 A3027 RMK T10201060 IEM_DS3505
ZBYN,1989-01-01 08:00,ZBYN 010800Z AUTO 00000KT 2SM M02/M06 A3027 RMK T10201060 IEM_DS3505
ZBYN,1989-01-01 08:25,ZBYN 010825Z AUTO 00000KT 2SM M02/M06 A3027 RMK T10201060 IEM_DS3505
ZBYN,1989-01-01 09:00,ZBYN 010900Z AUTO 00000KT 4SM M02/M06 A3027 RMK SLP281 T10201064 57002 IEM_DS3505
ZBYN,1989-01-01 09:29,ZBYN 010929Z AUTO 00000KT 1 1/2SM M02/M06 A3027 RMK T10201060 IEM_DS3505
ZBYN,1989-01-01 10:00,ZBYN 011000Z AUTO 12004KT 1 1/2SM M03/M06 A3027 RMK T10301060 IEM_DS3505
ZBYN,1989-01-01 10:21,ZBYN 011021Z AUTO 12004KT 1 1/2SM M03/M06 A3027 RMK T10301060 IEM_DS3505
ZBYN,1989-01-01 11:00,ZBYN 011100Z AUTO 07006KT 2SM M05/M07 A3027 RMK T10501070 IEM_DS3505
ZBYN,1989-01-01 11:26,ZBYN 011126Z AUTO 07006KT 2SM M05/M07 A3027 RMK T10501070 IEM_DS3505
ZBYN,1989-01-01 12:00,ZBYN 011200Z AUTO 00000KT 4SM M06/M07 A3027 RMK SLP290 T10601071 52001 IEM_DS3505
ZBYN,1989-01-01 12:26,ZBYN 011226Z AUTO 00000KT 2 1/2SM M07/M10 A3030 RMK T10701100 IEM_DS3505
ZBYN,1989-01-01 13:00,ZBYN 011300Z AUTO 00000KT 2 1/2SM M08/M10 A3030 RMK T10801100 IEM_DS3505
ZBYN,1989-01-01 13:30,ZBYN 011330Z AUTO 00000KT 2 1/2SM M08/M10 A3030 RMK T10801100 IEM_DS3505
ZBYN,1989-01-01 14:00,ZBYN 011400Z AUTO 00000KT 3SM M08/M10 A3027 RMK T10801100 IEM_DS3505
ZBYN,1989-01-01 14:26,ZBYN 011426Z AUTO 00000KT 3SM M08/M10 A3027 RMK T10801100 IEM_DS3505
ZBYN,1989-01-01 14:28,ZBYN 011428Z AUTO 00000KT 3SM M08/M10 A3027 RMK T10801100 IEM_DS3505
ZBYN,1989-01-01 15:00,ZBYN 011500Z AUTO 34002KT 4SM M07/M08 A3030 RMK SLP292 T10701083 52001 IEM_DS3505
ZBYN,1989-01-01 15:22,ZBYN 011522Z AUTO 00000KT 3SM M10/M12 A3030 RMK T11001120 IEM_DS3505
ZBYN,1989-01-01 16:00,ZBYN 011600Z AUTO 00000KT 3SM M10/M12 A3030 RMK T11001120 IEM_DS3505
ZBYN,1989-01-01 17:00,ZBYN 011700Z AUTO 00000KT 3SM M10/M12 A3030 RMK T11001120 IEM_DS3505
ZBYN,1989-01-01 18:00,ZBYN 011800Z AUTO 00000KT 4SM M10/M11 RMK SLP289 T10951107 41017//// 57004 IEM_DS3505
ZBYN,1989-01-01 21:00,ZBYN 012100Z AUTO 00000KT 3SM M09/M10 RMK SLP281 T10931104 57006 IEM_DS3505
ZBYN,1989-01-01 22:00,ZBYN 012200Z AUTO 00000KT 1 1/2SM M11/M12 A3024 RMK T11101120 IEM_DS3505
ZBYN,1989-01-01 22:26,ZBYN 012226Z AUTO 00000KT 1 1/2SM M11/M12 A3024 RMK T11101120 IEM_DS3505
ZBYN,1989-01-01 23:00,ZBYN 012300Z AUTO 00000KT 1 1/2SM M13/M14 A3027 RMK T11301140 IEM_DS3505
ZBYN,1989-01-01 23:29,ZBYN 012329Z AUTO 00000KT 1 1/2SM M13/M14 A3027 RMK T11301140 IEM_DS3505
ZBYN,1989-01-02 00:00,ZBYN 020000Z AUTO 34002KT 1SM M09/M10 RMK SLP304 T10881099 52015 IEM_DS3505
ZBYN,1989-01-02 02:00,ZBYN 020200Z AUTO 00000KT 1SM M07/M08 A3030 RMK T10701080 IEM_DS3505
ZBYN,1989-01-02 02:31,ZBYN 020231Z AUTO 00000KT 1SM M07/M08 A3030 RMK T10701080 IEM_DS3505
ZBYN,1989-01-02 03:00,ZBYN 020300Z AUTO 34002KT 1 1/4SM M06/M08 RMK SLP307 T10591078 52006 IEM_DS3505
ZBYN,1989-01-02 03:22,ZBYN 020322Z AUTO 00000KT 1SM M05/M07 RMK T10501070 IEM_DS3505
ZBYN,1989-01-02 03:24,ZBYN 020324Z AUTO 00000KT 1SM M05/M07 RMK T10501070 IEM_DS3505
ZBYN,1989-01-02 04:00,ZBYN 020400Z AUTO 00000KT 1SM M04/M07 A3030 RMK T10401070 IEM_DS3505
ZBYN,1989-01-02 04:26,ZBYN 020426Z AUTO 00000KT 1SM M04/M07 A3030 RMK T10401070 IEM_DS3505
ZBYN,1989-01-02 04:30,ZBYN 020430Z AUTO 00000KT 1SM M04/M07 A3030 RMK T10401070 IEM_DS3505
ZBYN,1989-01-02 05:00,ZBYN 020500Z AUTO 00000KT 1SM M02/M06 A3027 RMK T10201060 IEM_DS3505
ZBYN,1989-01-02 05:26,ZBYN 020526Z AUTO 00000KT 1SM M02/M06 A3027 RMK T10201060 IEM_DS3505
ZBYN,1989-01-02 06:00,ZBYN 020600Z AUTO 34004KT 4SM M02/M08 A3024 RMK SLP278 T10161075 4////1102 57023 IEM_DS3505
ZBYN,1989-01-02 06:23,ZBYN 020623Z AUTO 26006KT 1SM 00/M07 A3024 RMK T00001070 IEM_DS3505
ZBYN,1989-01-02 06:41,ZBYN 020641Z AUTO 26006KT 1SM 00/M07 A3024 RMK T00001070 IEM_DS3505
ZBYN,1989-01-02 07:00,ZBYN 020700Z AUTO 24006KT 1SM 01/M06 A3024 RMK T00101060 IEM_DS3505
ZBYN,1989-01-02 08:00,ZBYN 020800Z AUTO 19006KT 1 1/4SM M01/M05 A3024 RMK T10101050 IEM_DS3505
ZBYN,1989-01-02 08:15,ZBYN 020815Z AUTO 19006KT 1 1/4SM M01/M05 A3024 RMK T10101050 IEM_DS3505
ZBYN,1989-01-02 08:24,ZBYN 020824Z AUTO 19006KT 1 1/4SM M01/M05 A3024 RMK T10101050 IEM_DS3505
ZBYN,1989-01-02 09:00,ZBYN 020900Z AUTO 32004KT 4SM M01/M05 A3024 RMK SLP275 T10061052 57001 IEM_DS3505
ZBYN,1989-01-02 09:24,ZBYN 020924Z AUTO 19006KT 1SM M02/M05 A3024 RMK T10201050 IEM_DS3505
ZBYN,1989-01-02 09:30,ZBYN 020930Z AUTO 19006KT 1SM M02/M05 A3024 RMK T10201050 IEM_DS3505
ZBYN,1989-01-02 10:00,ZBYN 021000Z AUTO 00000KT 1SM M03/M05 A3027 RMK T10301050 IEM_DS3505
ZBYN,1989-01-02 10:16,ZBYN 021016Z AUTO 00000KT 1SM M03/M05 A3027 RMK T10301050 IEM_DS3505
ZBYN,1989-01-02 10:24,ZBYN 021024Z AUTO 00000KT 1SM M03/M05 A3027 RMK T10301050 IEM_DS3505
ZBYN,1989-01-02 11:00,ZBYN 021100Z AUTO 00000KT 1SM M03/M05 A3027 RMK T10301050 IEM_DS3505
ZBYN,1989-01-02 12:00,ZBYN 021200Z AUTO 02002KT 4SM M04/M08 A3030 RMK SLP301 T10421077 52018 IEM_DS3505
ZBYN,1989-01-02 12:21,ZBYN 021221Z AUTO 00000KT 1SM M05/M07 A3030 RMK T10501070 IEM_DS3505
ZBYN,1989-01-02 12:30,ZBYN 021230Z AUTO 00000KT 1SM M05/M07 A3030 RMK T10501070 IEM_DS3505
ZBYN,1989-01-02 13:00,ZBYN 021300Z AUTO 00000KT 1SM M07/M09 A3033 RMK T10701090 IEM_DS3505
ZBYN,1989-01-02 13:23,ZBYN 021323Z AUTO 00000KT 1SM M07/M09 A3033 RMK T10701090 IEM_DS3505
ZBYN,1989-01-02 13:28,ZBYN 021328Z AUTO 00000KT 1SM M07/M09 A3033 RMK T10701090 IEM_DS3505
ZBYN,1989-01-02 13:38,ZBYN 021338Z AUTO 00000KT 1SM M05/M07 A3030 RMK T10501070 IEM_DS3505
ZBYN,1989-01-02 14:00,ZBYN 021400Z AUTO 08004KT 1SM M08/M09 A3036 RMK T10801090 IEM_DS3505
ZBYN,1989-01-02 14:21,ZBYN 021421Z AUTO 00000KT 1SM M08/M09 A3036 RMK T10801090 IEM_DS3505
ZBYN,1989-01-02 14:28,ZBYN 021428Z AUTO 00000KT 1SM M08/M09 A3036 RMK T10801090 IEM_DS3505
ZBYN,1989-01-02 15:00,ZBYN 021500Z AUTO 34006KT 4SM M06/M09 A3036 RMK SLP326 T10641088 52024 IEM_DS3505
ZBYN,1989-01-02 15:20,ZBYN 021520Z AUTO 08004KT 1SM M08/M09 A3036 RMK T10801090 IEM_DS3505
ZBYN,1989-01-02 16:00,ZBYN 021600Z AUTO 00000KT 1SM M09/M10 A3039 RMK T10901100 IEM_DS3505
ZBYN,1989-01-02 16:10,ZBYN 021610Z AUTO 00000KT 1SM M09/M10 A3039 RMK T10901100 IEM_DS3505
ZBYN,1989-01-02 16:20,ZBYN 021620Z AUTO 00000KT 1SM M09/M10 A3039 RMK T10901100 IEM_DS3505
ZBYN,1989-01-02 17:00,ZBYN 021700Z AUTO 00000KT 1 1/4SM M10/M11 A3039 RMK T11001110 IEM_DS3505
ZBYN,1989-01-02 18:00,ZBYN 021800Z AUTO 36002KT 5SM M08/M09 RMK SLP329 T10761094 40005//// 52008 IEM_DS3505
ZBYN,1989-01-02 18:01,ZBYN 021801Z AUTO 00000KT 1 1/4SM M10/M11 A3039 RMK T11001110 IEM_DS3505
ZBYN,1989-01-02 19:00,ZBYN 021900Z AUTO 15004KT 1/4SM M10/M11 A3042 RMK T11001110 IEM_DS3505
ZBYN,1989-01-02 20:00,ZBYN 022000Z AUTO 15004KT 1/4SM M10/M11 A3042 RMK T11001110 IEM_DS3505
ZBYN,1989-01-02 20:23,ZBYN 022023Z AUTO 15004KT 1/4SM M10/M11 A3042 RMK T11001110 IEM_DS3505
ZBYN,1989-01-02 21:00,ZBYN 022100Z AUTO 11002KT 1/4SM M10/M12 A3045 RMK SLP350 T11041116 52016 IEM_DS3505
ZBYN,1989-01-02 22:20,ZBYN 022220Z AUTO 30004KT M09/M10 A3045 RMK T10901100 IEM_DS3505
ZBYN,1989-01-02 22:21,ZBYN 022221Z AUTO 30004KT M09/M10 A3045 RMK T10901100 IEM_DS3505
ZBYN,1989-01-02 22:24,ZBYN 022224Z AUTO 30004KT M09/M10 A3045 RMK T10901100 IEM_DS3505
ZBYN,1989-01-02 23:00,ZBYN 022300Z AUTO 00000KT 1/4SM M09/M10 A3047 RMK T10901100 IEM_DS3505
ZBYN,1989-01-02 23:21,ZBYN 022321Z AUTO 00000KT 1/4SM M09/M10 A3047 RMK T10901100 IEM_DS3505
ZBYN,1989-01-03 00:00,ZBYN 030000Z AUTO 34004KT 2SM M10/M11 A3047 RMK SLP367 T10981110 52010 IEM_DS3505
ZBYN,1989-01-03 00:25,ZBYN 030025Z AUTO 34004KT 1/8SM M09/M10 A3047 RMK T10901100 IEM_DS3505
ZBYN,1989-01-03 00:27,ZBYN 030027Z AUTO 34004KT 1/8SM M09/M10 A3047 RMK T10901100 IEM_DS3505
ZBYN,1989-01-03 01:00,ZBYN 030100Z AUTO 00000KT 1/4SM M09/M10 A3050 RMK T10901100 IEM_DS3505
ZBYN,1989-01-03 01:24,ZBYN 030124Z AUTO 00000KT 1/4SM M09/M10 A3050 RMK T10901100 IEM_DS3505
ZBYN,1989-01-03 02:22,ZBYN 030222Z AUTO 00000KT 1/4SM M09/M10 A3053 RMK T10901100 IEM_DS3505
ZBYN,1989-01-03 02:24,ZBYN 030224Z AUTO 00000KT 1/4SM M09/M10 A3053 RMK T10901100 IEM_DS3505
ZBYN,1989-01-03 03:00,ZBYN 030300Z AUTO 34002KT 3SM M05/M07 RMK SLP374 T10511073 52011 IEM_DS3505
ZBYN,1989-01-03 04:00,ZBYN 030400Z AUTO 00000KT 1/2SM M05/M05 A3053 RMK T10501050 IEM_DS3505
ZBYN,1989-01-03 05:00,ZBYN 030500Z AUTO 21008KT 1SM A3047 RMK IEM_DS3505
ZBYN,1989-01-03 06:00,ZBYN 030600Z AUTO 18004KT 3SM 02/M05 A3047 RMK SLP347 T00151053 4////1110 57015 IEM_DS3505
ZBYN,1989-01-03 07:00,ZBYN 030700Z AUTO 21004KT 1SM M01/M06 A3047 RMK T10101060 IEM_DS3505
ZBYN,1989-01-03 07:28,ZBYN 030728Z AUTO 20006KT 1SM M01/M06 A3047 RMK T10101060 IEM_DS3505
ZBYN,1989-01-03 08:00,ZBYN 030800Z AUTO 21004KT 1SM M01/M06 A3047 RMK T10101060 IEM_DS3505
ZBYN,1989-01-03 08:28,ZBYN 030828Z AUTO 21004KT 1SM M01/M06 A3047 RMK T10101060 IEM_DS3505
ZBYN,1989-01-03 08:30,ZBYN 030830Z AUTO 21004KT 1SM M01/M06 A3047 RMK T10101060 IEM_DS3505
ZBYN,1989-01-03 08:31,ZBYN 030831Z AUTO 21004KT 1SM M01/M06 A3047 RMK T10101060 IEM_DS3505
ZBYN,1989-01-03 09:00,ZBYN 030900Z AUTO 00000KT 3SM M02/M05 A3047 RMK SLP365 T10241051 52005 IEM_DS3505
ZBYN,1989-01-03 09:19,ZBYN 030919Z AUTO 00000KT 1SM M02/M05 A3047 RMK T10201050 IEM_DS3505
ZBYN,1989-01-03 10:00,ZBYN 031000Z AUTO 00000KT 1SM M03/M05 A3047 RMK T10301050 IEM_DS3505
ZBYN,1989-01-03 10:26,ZBYN 031026Z AUTO 00000KT 1SM M03/M05 A3047 RMK T10301050 IEM_DS3505
ZBYN,1989-01-03 11:00,ZBYN 031100Z AUTO 00000KT 2 1/2SM M04/M07 A3047 RMK SLP359 T10421073 40015//// 57001 IEM_DS3505
ZBYN,1989-01-03 11:26,ZBYN 031126Z AUTO 00000KT 1SM M03/M05 A3047 RMK T10301050 IEM_DS3505
ZBYN,1989-01-03 12:00,ZBYN 031200Z AUTO 00000KT 3SM M04/M05 A3047 RMK SLP369 T10381050 52002 IEM_DS3505
ZBYN,1989-01-03 12:26,ZBYN 031226Z AUTO 18004KT 1SM M04/M05 A3047 RMK T10401050 IEM_DS3505
ZBYN,1989-01-03 14:00,ZBYN 031400Z AUTO 35004KT 1 1/2SM M04/M06 A3050 RMK T10401060 IEM_DS3505
ZBYN,1989-01-03 14:24,ZBYN 031424Z AUTO 35004KT 1 1/2SM M04/M06 A3050 RMK T10401060 IEM_DS3505
ZBYN,1989-01-03 14:27,ZBYN 031427Z AUTO 35004KT 1 1/2SM M04/M06 A3050 RMK T10401060 IEM_DS3505
ZBYN,1989-01-03 15:00,ZBYN 031500Z AUTO 00000KT 3SM M03/M07 A3050 RMK SLP370 T10321072 52010 IEM_DS3505
ZBYN,1989-01-03 16:00,ZBYN 031600Z AUTO 29004KT 2 1/2SM M05/M08 A3050 RMK T10501080 IEM_DS3505
ZBYN,1989-01-03 16:24,ZBYN 031624Z AUTO 29004KT 2 1/2SM M05/M08 A3050 RMK T10501080 IEM_DS3505
ZBYN,1989-01-03 17:23,ZBYN 031723Z AUTO 00000KT 3SM M05/M08 A3050 RMK T10501080 IEM_DS3505
ZBYN,1989-01-03 17:24,ZBYN 031724Z AUTO 00000KT 3SM M05/M08 A3050 RMK T10501080 IEM_DS3505
ZBYN,1989-01-03 18:00,ZBYN 031800Z AUTO 00000KT 2 1/2SM M04/M07 RMK SLP359 T10421073 40015//// 57001 IEM_DS3505
ZBYN,1989-01-03 19:00,ZBYN 031900Z AUTO 00000KT 3SM M05/M08 A3053 RMK T10501080 IEM_DS3505
ZBYN,1989-01-03 19:25,ZBYN 031925Z AUTO 00000KT 3SM M05/M08 A3053 RMK T10501080 IEM_DS3505
ZBYN,1989-01-03 19:30,ZBYN 031930Z AUTO 00000KT 3SM M05/M08 A3053 RMK T10501080 IEM_DS3505
ZBYN,1989-01-03 21:00,ZBYN 032100Z AUTO 36002KT 5SM M04/M08 A3053 RMK SLP358 T10371083 57006 IEM_DS3505
ZBYN,1989-01-03 22:00,ZBYN 032200Z AUTO 00000KT 4SM M06/M08 A3050 RMK T10601080 IEM_DS3505
ZBYN,1989-01-03 22:25,ZBYN 032225Z AUTO 00000KT 4SM RMK IEM_DS3505
ZBYN,1989-01-03 23:00,ZBYN 032300Z AUTO 00000KT 4SM M06/M08 A3050 RMK T10601080 IEM_DS3505
ZBYN,1989-01-03 23:30,ZBYN 032330Z AUTO 00000KT 4SM M06/M08 A3050 RMK T10601080 IEM_DS3505
ZBYN,1989-01-04 00:00,ZBYN 040000Z AUTO 34004KT 5SM M04/M08 A3050 RMK SLP368 T10401079 52006 IEM_DS3505
ZBYN,1989-01-04 00:20,ZBYN 040020Z AUTO 00000KT 2SM M06/M08 A3053 RMK T10601080 IEM_DS3505
ZBYN,1989-01-04 00:35,ZBYN 040035Z AUTO 00000KT 2SM M06/M08 A3053 RMK T10601080 IEM_DS3505
ZBYN,1989-01-04 01:00,ZBYN 040100Z AUTO 24004KT 1 1/2SM M05/M08 A3053 RMK T10501080 IEM_DS3505
ZBYN,1989-01-04 01:25,ZBYN 040125Z AUTO 24004KT 1 1/2SM M05/M08 A3053 RMK T10501080 IEM_DS3505
ZBYN,1989-01-04 02:00,ZBYN 040200Z AUTO 34004KT 2SM M02/M08 A3056 RMK T10201080 IEM_DS3505
ZBYN,1989-01-04 02:35,ZBYN 040235Z AUTO 34004KT 2SM M02/M08 A3056 RMK T10201080 IEM_DS3505
ZBYN,1989-01-04 03:00,ZBYN 040300Z AUTO 36004KT 5SM M02/M09 A3056 RMK SLP374 T10181087 52010 IEM_DS3505
ZBYN,1989-01-04 03:32,ZBYN 040332Z AUTO 33004KT 1 1/2SM M01/M07 A3056 RMK T10101070 IEM_DS3505
ZBYN,1989-01-04 03:34,ZBYN 040334Z AUTO 33004KT 1 1/2SM M01/M07 A3056 RMK T10101070 IEM_DS3505
ZBYN,1989-01-04 04:00,ZBYN 040400Z AUTO 33004KT 1 1/4SM M01/M08 A3053 RMK T10101080 IEM_DS3505
ZBYN,1989-01-04 04:25,ZBYN 040425Z AUTO 33004KT 1 1/4SM M01/M08 A3053 RMK T10101080 IEM_DS3505
ZBYN,1989-01-04 05:00,ZBYN 040500Z AUTO 30006KT 1 1/4SM 00/M07 A3047 RMK T00001070 IEM_DS3505
ZBYN,1989-01-04 05:18,ZBYN 040518Z AUTO 30006KT 1 1/4SM 00/M07 A3047 RMK T00001070 IEM_DS3505
ZBYN,1989-01-04 06:00,ZBYN 040600Z AUTO 34002KT 5SM M01/M04 A3045 RMK SLP345 T10081041 4////1048 57026 IEM_DS3505
ZBYN,1989-01-04 06:26,ZBYN 040626Z AUTO 31006KT 2SM 00/M06 A3045 RMK T00001060 IEM_DS3505
ZBYN,1989-01-04 07:00,ZBYN 040700Z AUTO 33006KT 1SM M01/M03 A3045 RMK T10101030 IEM_DS3505
ZBYN,1989-01-04 08:00,ZBYN 040800Z AUTO 35004KT 1SM M01/M02 A3045 RMK T10101020 IEM_DS3505
ZBYN,1989-01-04 08:25,ZBYN 040825Z AUTO 35004KT 1SM M01/M02 A3045 RMK T10101020 IEM_DS3505
ZBYN,1989-01-04 09:00,ZBYN 040900Z AUTO 34004KT 4SM M01/M02 A3045 RMK SLP336 T10101023 57008 IEM_DS3505
ZBYN,1989-01-04 11:00,ZBYN 041100Z AUTO 00000KT 1SM M01/M01 A3045 RMK T10101010 IEM_DS3505
ZBYN,1989-01-04 11:18,ZBYN 041118Z AUTO 00000KT 1SM M01/M01 A3045 RMK T10101010 IEM_DS3505
ZBYN,1989-01-04 11:20,ZBYN 041120Z AUTO 00000KT 1SM M01/M01 A3045 RMK T10101010 IEM_DS3505
ZBYN,1989-01-04 11:59,ZBYN 041159Z AUTO 00000KT 1SM M01/M01 A3045 RMK T10101010 IEM_DS3505
ZBYN,1989-01-04 12:00,ZBYN 041200Z AUTO 00000KT 4SM M02/M03 A3045 RMK SLP342 T10151033 52004 IEM_DS3505
ZBYN,1989-01-04 12:08,ZBYN 041208Z AUTO 00000KT 1SM M01/M01 A3045 RMK T10101010 IEM_DS3505
ZBYN,1989-01-04 13:00,ZBYN 041300Z AUTO 00000KT 1SM M02/M02 A3045 RMK T10201020 IEM_DS3505
ZBYN,1989-01-04 14:00,ZBYN 041400Z AUTO 00000KT 1 1/4SM M02/M03 A3045 RMK T10201030 IEM_DS3505
ZBYN,1989-01-04 14:24,ZBYN 041424Z AUTO 00000KT 1 1/4SM M02/M02 A3045 RMK T10201020 IEM_DS3505
ZBYN,1989-01-04 15:00,ZBYN 041500Z AUTO 00000KT 4SM M02/M03 A3045 RMK SLP331 T10151029 57006 IEM_DS3505
ZBYN,1989-01-04 16:00,ZBYN 041600Z AUTO 00000KT 1 1/2SM M02/M03 A3045 RMK T10201030 IEM_DS3505
ZBYN,1989-01-04 18:00,ZBYN 041800Z AUTO 00000KT 4SM M02/M03 RMK 60000 SLP315 T10181033 41003//// 57013 IEM_DS3505
ZBYN,1989-01-04 21:00,ZBYN 042100Z AUTO 00000KT 4SM M02/M03 RMK SLP304 T10251031 57012 IEM_DS3505
ZBYN,1989-01-04 22:00,ZBYN 042200Z AUTO 00000KT 2SM M03/M03 A3033 RMK T10301030 IEM_DS3505
ZBYN,1989-01-04 23:00,ZBYN 042300Z AUTO 00000KT 2SM M03/M03 A3033 RMK T10301030 IEM_DS3505
ZBYN,1989-01-04 23:24,ZBYN 042324Z AUTO 00000KT 2SM M03/M03 A3033 RMK T10301030 IEM_DS3505
ZBYN,1989-01-05 00:00,ZBYN 050000Z AUTO 00000KT 4SM M03/M04 RMK 60004 SLP298 T10281038 57007 IEM_DS3505
ZBYN,1989-01-05 00:24,ZBYN 050024Z AUTO 00000KT 1SM M03/M03 A3033 RMK T10301030 IEM_DS3505
ZBYN,1989-01-05 00:28,ZBYN 050028Z AUTO 00000KT 1SM M03/M03 A3033 RMK T10301030 IEM_DS3505
ZBYN,1989-01-05 01:00,ZBYN 050100Z AUTO 00000KT 1SM M03/M03 A3033 RMK T10301030 IEM_DS3505
ZBYN,1989-01-05 01:28,ZBYN 050128Z AUTO 00000KT 1SM M03/M03 A3033 RMK T10301030 IEM_DS3505
ZBYN,1989-01-05 03:00,ZBYN 050300Z AUTO 34002KT 4SM M02/ A3036 RMK SLP305 52009 IEM_DS3505
ZBYN,1989-01-05 03:24,ZBYN 050324Z AUTO 08004KT 2SM M01/M03 A3036 RMK T10101030 IEM_DS3505
ZBYN,1989-01-05 04:00,ZBYN 050400Z AUTO 08006KT 4SM M01/M05 A3033 RMK T10101050 IEM_DS3505
ZBYN,1989-01-05 05:00,ZBYN 050500Z AUTO 07006KT 4SM M01/M04 A3030 RMK T10101040 IEM_DS3505
ZBYN,1989-01-05 05:29,ZBYN 050529Z AUTO 07006KT 4SM M01/M04 A3030 RMK T10101040 IEM_DS3505
ZBYN,1989-01-05 06:00,ZBYN 050600Z AUTO 36004KT 4SM M00/M04 A3027 RMK SLP270 T10051037 4////1033 57031 IEM_DS3505
ZBYN,1989-01-05 07:00,ZBYN 050700Z AUTO 00000KT 7SM 00/M02 A3024 RMK T00001020 IEM_DS3505
ZBYN,1989-01-05 07:12,ZBYN 050712Z AUTO 07002KT 6SM 01/M07 A3024 RMK T00101070 IEM_DS3505
ZBYN,1989-01-05 07:24,ZBYN 050724Z AUTO 07002KT 6SM 01/M07 A3024 RMK T00101070 IEM_DS3505
ZBYN,1989-01-05 08:00,ZBYN 050800Z AUTO 00000KT 7SM 00/M02 A3024 RMK T00001020 IEM_DS3505
ZBYN,1989-01-05 08:26,ZBYN 050826Z AUTO 07006KT 6SM 00/M04 A3027 RMK T00001040 IEM_DS3505
ZBYN,1989-01-05 08:27,ZBYN 050827Z AUTO 00000KT 7SM 00/M02 A3024 RMK T00001020 IEM_DS3505
ZBYN,1989-01-05 09:00,ZBYN 050900Z AUTO 00000KT 4SM M00/M03 A3024 RMK SLP263 T10021031 57007 IEM_DS3505
ZBYN,1989-01-05 09:25,ZBYN 050925Z AUTO 08002KT 7SM 00/M04 A3024 RMK T00001040 IEM_DS3505
ZBYN,1989-01-05 09:26,ZBYN 050926Z AUTO 08002KT 7SM 00/M04 A3024 RMK T00001040 IEM_DS3505
ZBYN,1989-01-05 10:00,ZBYN 051000Z AUTO 07006KT 5SM M01/M05 A3024 RMK T10101050 IEM_DS3505
ZBYN,1989-01-05 11:00,ZBYN 051100Z AUTO 4SM M01/M04 A3021 RMK T10101040 IEM_DS3505
ZBYN,1989-01-05 11:23,ZBYN 051123Z AUTO 08006KT 6SM M01/M04 A3021 RMK T10101040 IEM_DS3505
ZBYN,1989-01-05 11:28,ZBYN 051128Z AUTO 08006KT 6SM M01/M04 A3021 RMK T10101040 IEM_DS3505
ZBYN,1989-01-05 12:00,ZBYN 051200Z AUTO 32002KT 4SM M01/M04 A3021 RMK 60004 SLP257 T10101040 57006 IEM_DS3505
ZBYN,1989-01-05 12:24,ZBYN 051224Z AUTO 4SM M01/M04 A3021 RMK T10101040 IEM_DS3505
ZBYN,1989-01-05 14:24,ZBYN 051424Z AUTO 00000KT 4SM M02/M04 A3021 RMK T10201040 IEM_DS3505
ZBYN,1989-01-05 14:26,ZBYN 051426Z AUTO 00000KT 4SM M02/M04 A3021 RMK T10201040 IEM_DS3505
ZBYN,1989-01-05 15:00,ZBYN 051500Z AUTO 32004KT 4SM M02/M04 A3021 RMK SLP254 T10201042 57002 IEM_DS3505
ZBYN,1989-01-05 15:23,ZBYN 051523Z AUTO 12006KT 2 1/2SM M02/M04 A3021 RMK T10201040 IEM_DS3505
ZBYN,1989-01-05 16:00,ZBYN 051600Z AUTO 00000KT 1 1/2SM A3021 RMK IEM_DS3505
ZBYN,1989-01-05 16:05,ZBYN 051605Z AUTO 00000KT 1 1/2SM M03/M03 A3021 RMK T10301030 IEM_DS3505
ZBYN,1989-01-05 16:23,ZBYN 051623Z AUTO 00000KT 1 1/2SM M03/M03 A3021 RMK T10301030 IEM_DS3505
ZBYN,1989-01-05 17:00,ZBYN 051700Z AUTO 00000KT 1 1/4SM M03/M03 A3018 RMK T10301030 IEM_DS3505
ZBYN,1989-01-05 18:00,ZBYN 051800Z AUTO 34004KT 1 1/4SM M03/M04 A3018 RMK 60008 SLP241 T10301037 40003//// 57012 IEM_DS3505
ZBYN,1989-01-05 18:20,ZBYN 051820Z AUTO 00000KT 1SM M03/M03 A3018 RMK T10301030 IEM_DS3505
ZBYN,1989-01-05 18:22,ZBYN 051822Z AUTO 00000KT 1SM M03/M03 A3018 RMK T10301030 IEM_DS3505
ZBYN,1989-01-05 18:30,ZBYN 051830Z AUTO 00000KT 1SM M03/M04 A3018 RMK T10301040 IEM_DS3505
ZBYN,1989-01-05 19:00,ZBYN 051900Z AUTO 00000KT 1SM M03/M04 A3018 RMK T10301040 IEM_DS3505
ZBYN,1989-01-05 20:00,ZBYN 052000Z AUTO 07004KT 1SM M03/M04 A3012 RMK T10301040 IEM_DS3505
ZBYN,1989-01-05 21:00,ZBYN 052100Z AUTO 00000KT 1 1/4SM M03/M04 RMK SLP227 T10321039 57013 IEM_DS3505
ZBYN,1989-01-05 23:00,ZBYN 052300Z AUTO 00000KT 1SM M03/M04 A3012 RMK T10301040 IEM_DS3505
ZBYN,1989-01-05 23:22,ZBYN 052322Z AUTO 00000KT 1SM M03/M04 A3012 RMK T10301040 IEM_DS3505
ZBYN,1989-01-06 00:00,ZBYN 060000Z AUTO 00000KT 3SM M03/M05 A3012 RMK 70016 SLP226 T10321046 57002 IEM_DS3505
ZBYN,1989-01-06 00:18,ZBYN 060018Z AUTO 00000KT 1SM M04/M04 A3012 RMK T10401040 IEM_DS3505
ZBYN,1989-01-06 00:35,ZBYN 060035Z AUTO 00000KT 1SM M04/M04 A3012 RMK T10401040 IEM_DS3505
ZBYN,1989-01-06 01:25,ZBYN 060125Z AUTO 00000KT 1SM M04/M04 A3012 RMK T10401040 IEM_DS3505
ZBYN,1989-01-06 01:28,ZBYN 060128Z AUTO 00000KT 1SM M04/M04 A3012 RMK T10401040 IEM_DS3505
ZBYN,1989-01-06 01:37,ZBYN 060137Z AUTO 00000KT 1SM M04/M04 A3012 RMK T10401040 IEM_DS3505
ZBYN,1989-01-06 03:00,ZBYN 060300Z AUTO 32002KT 3SM M02/M04 RMK SLP230 T10251041 52003 IEM_DS3505
ZBYN,1989-01-06 04:00,ZBYN 060400Z AUTO 00000KT 1 1/4SM M02/M04 A3012 RMK T10201040 IEM_DS3505
ZBYN,1989-01-06 04:30,ZBYN 060430Z AUTO 00000KT 1 1/4SM M02/M04 A3012 RMK T10201040 IEM_DS3505
ZBYN,1989-01-06 06:00,ZBYN 060600Z AUTO 34004KT 3SM M01/M04 RMK 60001 SLP206 T10101040 4////1034 57021 IEM_DS3505
ZBYN,1989-01-06 06:27,ZBYN 060627Z AUTO 00000KT 1 1/4SM 00/M05 A3006 RMK T00001050 IEM_DS3505
ZBYN,1989-01-06 07:00,ZBYN 060700Z AUTO 00000KT 3SM 01/M03 A3006 RMK T00101030 IEM_DS3505
ZBYN,1989-01-06 07:49,ZBYN 060749Z AUTO 00000KT 3SM 01/M03 A3006 RMK T00101030 IEM_DS3505
ZBYN,1989-01-06 08:00,ZBYN 060800Z AUTO 00000KT 7SM 00/M03 A3006 RMK T00001030 IEM_DS3505
ZBYN,1989-01-06 08:24,ZBYN 060824Z AUTO 00000KT 7SM 00/M03 A3006 RMK T00001030 IEM_DS3505
ZBYN,1989-01-06 08:30,ZBYN 060830Z AUTO 00000KT 7SM 00/M03 A3006 RMK T00001030 IEM_DS3505
ZBYN,1989-01-06 09:00,ZBYN 060900Z AUTO 00000KT 4SM M00/M04 A3006 RMK SLP204 T10041039 57001 IEM_DS3505
ZBYN,1989-01-06 09:24,ZBYN 060924Z AUTO 00000KT 7SM 00/M02 A3006 RMK T00001020 IEM_DS3505
ZBYN,1989-01-06 10:00,ZBYN 061000Z AUTO 00000KT 4SM M01/M06 A3006 RMK T10101060 IEM_DS3505
ZBYN,1989-01-06 10:26,ZBYN 061026Z AUTO 00000KT 4SM M01/M06 A3006 RMK T10101060 IEM_DS3505
ZBYN,1989-01-06 11:00,ZBYN 061100Z AUTO 00000KT 3SM M01/M02 A3009 RMK T10101020 IEM_DS3505
ZBYN,1989-01-06 11:27,ZBYN 061127Z AUTO 00000KT 3SM M01/M02 A3009 RMK T10101020 IEM_DS3505
ZBYN,1989-01-06 11:30,ZBYN 061130Z AUTO 00000KT 3SM M01/M02 A3009 RMK T10101020 IEM_DS3505
ZBYN,1989-01-06 12:00,ZBYN 061200Z AUTO 00000KT 3SM M01/M05 A3009 RMK SLP216 T10121049 52010 IEM_DS3505
ZBYN,1989-01-06 12:27,ZBYN 061227Z AUTO 00000KT 2 1/2SM M01/M03 A3009 RMK T10101030 IEM_DS3505
ZBYN,1989-01-06 12:30,ZBYN 061230Z AUTO 00000KT 2 1/2SM M01/M03 A3009 RMK T10101030 IEM_DS3505
ZBYN,1989-01-06 13:00,ZBYN 061300Z AUTO 30004KT 2 1/2SM M02/M04 A3009 RMK T10201040 IEM_DS3505
ZBYN,1989-01-06 14:00,ZBYN 061400Z AUTO 30004KT 2 1/2SM M02/M04 A3009 RMK T10201040 IEM_DS3505
ZBYN,1989-01-06 15:00,ZBYN 061500Z AUTO 34004KT 3SM M03/M07 RMK SLP219 T10331069 54000 IEM_DS3505
ZBYN,1989-01-06 15:26,ZBYN 061526Z AUTO 30006KT 2 1/2SM M02/M04 A3012 RMK T10201040 IEM_DS3505
ZBYN,1989-01-06 15:29,ZBYN 061529Z AUTO 30006KT 2 1/2SM M02/M04 A3012 RMK T10201040 IEM_DS3505
ZBYN,1989-01-06 16:00,ZBYN 061600Z AUTO 30004KT 2SM M02/M04 A3009 RMK T10201040 IEM_DS3505
ZBYN,1989-01-06 16:23,ZBYN 061623Z AUTO 30004KT 2SM M02/M04 A3009 RMK T10201040 IEM_DS3505
ZBYN,1989-01-06 18:00,ZBYN 061800Z AUTO 34004KT 5SM M06/M08 RMK SLP221 T10581081 40002//// 54000 IEM_DS3505
ZBYN,1989-01-06 21:00,ZBYN 062100Z AUTO 36004KT 5SM M07/M08 A3009 RMK SLP223 T10661078 52002 IEM_DS3505
ZBYN,1989-01-06 21:21,ZBYN 062121Z AUTO 05004KT 2SM M08/M11 A3009 RMK T10801110 IEM_DS3505
ZBYN,1989-01-06 22:00,ZBYN 062200Z AUTO 00000KT 7SM A3006 RMK IEM_DS3505
ZBYN,1989-01-07 00:00,ZBYN 070000Z AUTO 34006KT 5SM M06/M07 RMK SLP231 T10621074 52006 IEM_DS3505
ZBYN,1989-01-07 02:00,ZBYN 070200Z AUTO 00000KT 1 1/4SM M05/M07 A3015 RMK T10501070 IEM_DS3505
ZBYN,1989-01-07 02:21,ZBYN 070221Z AUTO 00000KT 1 1/4SM M05/M07 A3015 RMK T10501070 IEM_DS3505
ZBYN,1989-01-07 02:42,ZBYN 070242Z AUTO 00000KT 1 1/4SM M05/M07 A3015 RMK T10501070 IEM_DS3505
ZBYN,1989-01-07 03:00,ZBYN 070300Z AUTO 34008KT 5SM M05/M07 A3015 RMK SLP246 T10501070 52016 IEM_DS3505
ZBYN,1989-01-07 04:00,ZBYN 070400Z AUTO 33008KT 2 1/2SM 01/M05 A3012 RMK T00101050 IEM_DS3505
ZBYN,1989-01-07 05:00,ZBYN 070500Z AUTO 36004KT 5SM M01/M05 A3012 RMK SLP234 T10071050 52006 IEM_DS3505
ZBYN,1989-01-07 05:20,ZBYN 070520Z AUTO 33008KT 2 1/2SM 01/M05 A3012 RMK T00101050 IEM_DS3505
ZBYN,1989-01-07 06:00,ZBYN 070600Z AUTO 34006KT 5SM M01/M06 A3009 RMK SLP226 T10101058 4////1077 57019 IEM_DS3505
ZBYN,1989-01-07 07:23,ZBYN 070723Z AUTO 30004KT 2SM 01/M03 A3012 RMK T00101030 IEM_DS3505
ZBYN,1989-01-07 07:25,ZBYN 070725Z AUTO 30004KT 2SM 01/M03 A3012 RMK T00101030 IEM_DS3505
ZBYN,1989-01-07 08:00,ZBYN 070800Z AUTO 21004KT 2SM 02/M03 A3012 RMK T00201030 IEM_DS3505
ZBYN,1989-01-07 08:36,ZBYN 070836Z AUTO 21004KT 2SM 02/M03 A3012 RMK T00201030 IEM_DS3505
ZBYN,1989-01-07 09:00,ZBYN 070900Z AUTO 36004KT 5SM M01/M05 A3012 RMK SLP234 T10071050 52006 IEM_DS3505
ZBYN,1989-01-07 09:18,ZBYN 070918Z AUTO 09008KT 3SM 02/M05 A3012 RMK T00201050 IEM_DS3505
ZBYN,1989-01-07 10:00,ZBYN 071000Z AUTO 33006KT 1SM M01/M04 A3015 RMK T10101040 IEM_DS3505
ZBYN,1989-01-07 10:23,ZBYN 071023Z AUTO 33006KT 1SM M01/M04 A3015 RMK T10101040 IEM_DS3505
ZBYN,1989-01-07 11:00,ZBYN 071100Z AUTO 00000KT 2SM M03/M04 A3015 RMK T10301040 IEM_DS3505
ZBYN,1989-01-07 11:20,ZBYN 071120Z AUTO 00000KT 2SM M03/M04 A3015 RMK T10301040 IEM_DS3505
ZBYN,1989-01-07 12:00,ZBYN 071200Z AUTO 00000KT 5SM M03/ RMK SLP258 52019 IEM_DS3505
ZBYN,1989-01-07 14:00,ZBYN 071400Z AUTO 00000KT 1 1/2SM M02/M03 A3021 RMK T10201030 IEM_DS3505
ZBYN,1989-01-07 14:18,ZBYN 071418Z AUTO 00000KT 1 1/2SM M02/M03 A3021 RMK T10201030 IEM_DS3505
ZBYN,1989-01-07 14:23,ZBYN 071423Z AUTO 00000KT 1 1/2SM M02/M03 A3021 RMK T10201030 IEM_DS3505
ZBYN,1989-01-07 15:00,ZBYN 071500Z AUTO 34004KT 4SM M03/M07 RMK SLP259 T10321068 50006 IEM_DS3505
ZBYN,1989-01-07 16:00,ZBYN 071600Z AUTO 33004KT 1 1/4SM A3024 RMK IEM_DS3505
ZBYN,1989-01-07 17:00,ZBYN 071700Z AUTO 33004KT 1 1/4SM M03/M04 A3024 RMK T10301040 IEM_DS3505
ZBYN,1989-01-07 18:00,ZBYN 071800Z AUTO 34004KT 4SM M04/M07 A3021 RMK SLP258 T10371067 40002//// 52001 IEM_DS3505
ZBYN,1989-01-07 18:15,ZBYN 071815Z AUTO 34006KT 1 1/4SM M02/M04 A3021 RMK T10201040 IEM_DS3505
ZBYN,1989-01-07 21:00,ZBYN 072100Z AUTO 36002KT 4SM M02/M06 RMK SLP251 T10241062 57003 IEM_DS3505
ZBYN,1989-01-08 00:00,ZBYN 080000Z AUTO 32004KT 4SM M03/M06 RMK SLP255 T10341063 57002 IEM_DS3505
ZBYN,1989-01-08 01:00,ZBYN 080100Z AUTO 00000KT 1SM M03/M05 A3021 RMK T10301050 IEM_DS3505
ZBYN,1989-01-08 01:25,ZBYN 080125Z AUTO 00000KT 1SM M03/M05 A3021 RMK T10301050 IEM_DS3505
ZBYN,1989-01-08 01:53,ZBYN 080153Z AUTO 00000KT 1SM M01/M05 A3021 RMK T10101050 IEM_DS3505
ZBYN,1989-01-08 02:00,ZBYN 080200Z AUTO 00000KT 1SM M01/M05 A3021 RMK T10101050 IEM_DS3505
ZBYN,1989-01-08 02:20,ZBYN 080220Z AUTO 00000KT 1SM M01/M05 A3021 RMK T10101050 IEM_DS3505
ZBYN,1989-01-08 03:00,ZBYN 080300Z AUTO 00000KT 4SM 00/M05 A3021 RMK SLP252 T00031051 52003 IEM_DS3505
ZBYN,1989-01-08 04:00,ZBYN 080400Z AUTO 00000KT 2SM 02/M02 A3018 RMK T00201020 IEM_DS3505
ZBYN,1989-01-08 04:13,ZBYN 080413Z AUTO 00000KT 2SM 02/M02 A3018 RMK T00201020 IEM_DS3505
ZBYN,1989-01-08 06:00,ZBYN 080600Z AUTO 20002KT 4SM 02/M04 A3012 RMK SLP220 T00161036 4////1041 57028 IEM_DS3505
ZBYN,1989-01-08 06:30,ZBYN 080630Z AUTO 21004KT 2 1/2SM 02/M04 A3012 RMK T00201040 IEM_DS3505
ZBYN,1989-01-08 07:00,ZBYN 080700Z AUTO 21004KT 2 1/2SM 02/M04 A3012 RMK T00201040 IEM_DS3505
ZBYN,1989-01-08 07:20,ZBYN 080720Z AUTO 00000KT 3SM 02/M04 A3012 RMK T00201040 IEM_DS3505
ZBYN,1989-01-08 08:00,ZBYN 080800Z AUTO 3SM 02/M03 A3012 RMK T00201030 IEM_DS3505
ZBYN,1989-01-08 09:00,ZBYN 080900Z AUTO 18002KT 5SM 01/M03 A3012 RMK SLP219 T00111026 52001 IEM_DS3505
ZBYN,1989-01-08 09:20,ZBYN 080920Z AUTO 3SM 01/M02 A3012 RMK T00101020 IEM_DS3505
ZBYN,1989-01-08 09:22,ZBYN 080922Z AUTO 3SM 01/M02 A3012 RMK T00101020 IEM_DS3505
ZBYN,1989-01-08 10:00,ZBYN 081000Z AUTO 00000KT 3SM 00/M01 A3012 RMK T00001010 IEM_DS3505
ZBYN,1989-01-08 11:00,ZBYN 081100Z AUTO 00000KT 4SM 00/M03 A3012 RMK T00001030 IEM_DS3505
ZBYN,1989-01-08 11:30,ZBYN 081130Z AUTO 00000KT 4SM 00/M03 A3012 RMK T00001030 IEM_DS3505
ZBYN,1989-01-08 12:00,ZBYN 081200Z AUTO 00000KT 4SM 01/M02 A3012 RMK SLP229 T00071015 52006 IEM_DS3505
ZBYN,1989-01-08 12:21,ZBYN 081221Z AUTO 00000KT 4SM 00/M03 A3012 RMK T00001030 IEM_DS3505
ZBYN,1989-01-08 12:23,ZBYN 081223Z AUTO 00000KT 4SM 00/M03 A3012 RMK T00001030 IEM_DS3505
ZBYN,1989-01-08 13:00,ZBYN 081300Z AUTO 00000KT 4SM 00/M02 A3015 RMK T00001020 IEM_DS3505
ZBYN,1989-01-08 13:20,ZBYN 081320Z AUTO 00000KT 4SM 00/M02 A3015 RMK T00001020 IEM_DS3505
ZBYN,1989-01-08 14:00,ZBYN 081400Z AUTO 13004KT 3SM 00/M02 A3015 RMK T00001020 IEM_DS3505
ZBYN,1989-01-08 14:19,ZBYN 081419Z AUTO 13004KT 3SM 00/M02 A3015 RMK T00001020 IEM_DS3505
ZBYN,1989-01-08 14:21,ZBYN 081421Z AUTO 13004KT 3SM 00/M02 A3015 RMK T00001020 IEM_DS3505
ZBYN,1989-01-08 15:00,ZBYN 081500Z AUTO 00000KT 4SM M00/M03 A3015 RMK T10051027 52010 IEM_DS3505
ZBYN,1989-01-08 15:22,ZBYN 081522Z AUTO 00000KT 3SM M01/M02 A3015 RMK T10101020 IEM_DS3505
ZBYN,1989-01-08 16:14,ZBYN 081614Z AUTO 00000KT 4SM M01/M02 A3015 RMK T10101020 IEM_DS3505
ZBYN,1989-01-08 17:00,ZBYN 081700Z AUTO 00000KT 4SM M03/M04 RMK T10301040 IEM_DS3505
ZBYN,1989-01-08 17:20,ZBYN 081720Z AUTO 00000KT 4SM M01/M02 A3015 RMK T10101020 IEM_DS3505
ZBYN,1989-01-08 18:00,ZBYN 081800Z AUTO 00000KT 3SM M04/M05 A3015 RMK SLP229 T10361047 40022//// 57008 IEM_DS3505
ZBYN,1989-01-08 18:19,ZBYN 081819Z AUTO 00000KT 4SM M03/M04 A3015 RMK T10301040 IEM_DS3505
ZBYN,1989-01-08 18:21,ZBYN 081821Z AUTO 00000KT 4SM M03/M04 A3015 RMK T10301040 IEM_DS3505
ZBYN,1989-01-08 19:00,ZBYN 081900Z AUTO 00000KT 4SM M03/M04 RMK T10301040 IEM_DS3505
ZBYN,1989-01-08 19:16,ZBYN 081916Z AUTO 00000KT 4SM M05/M07 A3012 RMK T10501070 IEM_DS3505
ZBYN,1989-01-08 21:00,ZBYN 082100Z AUTO 00000KT 2 1/2SM M03/M05 RMK SLP225 T10311048 57004 IEM_DS3505
ZBYN,1989-01-08 23:00,ZBYN 082300Z AUTO 08004KT 4SM M04/M06 A3012 RMK T10401060 IEM_DS3505
ZBYN,1989-01-08 23:20,ZBYN 082320Z AUTO 08004KT 4SM M04/M06 A3012 RMK T10401060 IEM_DS3505
ZBYN,1989-01-08 23:24,ZBYN 082324Z AUTO 08004KT 4SM M04/M06 A3012 RMK T10401060 IEM_DS3505
ZBYN,1989-01-09 00:00,ZBYN 090000Z AUTO 00000KT 4SM M03/M04 A3015 RMK SLP230 T10341045 52003 IEM_DS3505
ZBYN,1989-01-09 00:14,ZBYN 090014Z AUTO 08004KT 4SM M04/M06 A3012 RMK T10401060 IEM_DS3505
ZBYN,1989-01-09 02:00,ZBYN 090200Z AUTO 33006KT 1SM 01/M03 A3015 RMK T00101030 IEM_DS3505
ZBYN,1989-01-09 03:00,ZBYN 090300Z AUTO 34004KT 4SM 01/M06 A3015 RMK SLP232 T00141062 52008 IEM_DS3505
ZBYN,1989-01-09 04:00,ZBYN 090400Z AUTO 34008KT 1SM 01/M03 A3015 RMK T00101030 IEM_DS3505
ZBYN,1989-01-09 04:02,ZBYN 090402Z AUTO 33006KT 1SM 01/M03 A3015 RMK T00101030 IEM_DS3505
ZBYN,1989-01-09 04:23,ZBYN 090423Z AUTO 34008KT 1SM 01/M03 A3015 RMK T00101030 IEM_DS3505
ZBYN,1989-01-09 04:29,ZBYN 090429Z AUTO 34008KT 1SM 01/M03 A3015 RMK T00101030 IEM_DS3505
ZBYN,1989-01-09 04:52,ZBYN 090452Z AUTO 34008KT 1SM 01/M03 A3015 RMK T00101030 IEM_DS3505
ZBYN,1989-01-09 05:00,ZBYN 090500Z AUTO 35008KT 2SM 02/M03 A3012 RMK T00201030 IEM_DS3505
ZBYN,1989-01-09 05:19,ZBYN 090519Z AUTO 35008KT 2SM 02/M03 A3012 RMK T00201030 IEM_DS3505
ZBYN,1989-01-09 05:21,ZBYN 090521Z AUTO 35008KT 2SM 02/M03 A3012 RMK T00201030 IEM_DS3505
ZBYN,1989-01-09 06:00,ZBYN 090600Z AUTO 34006KT 4SM 01/M04 A3012 RMK SLP225 T00141039 4////1047 57011 IEM_DS3505
ZBYN,1989-01-09 06:31,ZBYN 090631Z AUTO 35006KT 6SM 02/M02 A3012 RMK T00201020 IEM_DS3505
ZBYN,1989-01-09 07:25,ZBYN 090725Z AUTO 35004KT 6SM 04/M03 A3012 RMK T00401030 IEM_DS3505
ZBYN,1989-01-09 07:27,ZBYN 090727Z AUTO 35004KT 6SM 04/M03 A3012 RMK T00401030 IEM_DS3505
ZBYN,1989-01-09 07:36,ZBYN 090736Z AUTO 35004KT 6SM 04/M03 A3012 RMK T00401030 IEM_DS3505
ZBYN,1989-01-09 09:00,ZBYN 090900Z AUTO 34002KT 4SM 01/M04 A3015 RMK SLP223 T00131037 57002 IEM_DS3505
ZBYN,1989-01-09 09:17,ZBYN 090917Z AUTO 05006KT 6SM 03/M03 A3015 RMK T00301030 IEM_DS3505
ZBYN,1989-01-09 09:43,ZBYN 090943Z AUTO 05006KT 6SM 03/M03 A3015 RMK T00301030 IEM_DS3505
ZBYN,1989-01-09 10:00,ZBYN 091000Z AUTO 33006KT 4SM 02/M02 A3015 RMK T00201020 IEM_DS3505
ZBYN,1989-01-09 10:25,ZBYN 091025Z AUTO 33006KT 4SM 02/M02 A3015 RMK T00201020 IEM_DS3505
ZBYN,1989-01-09 12:00,ZBYN 091200Z AUTO 02004KT 5SM 01/M04 A3018 RMK SLP245 T00111036 52020 IEM_DS3505
ZBYN,1989-01-09 14:07,ZBYN 091407Z AUTO 36006KT 2SM 00/00 A3024 RMK T00000000 IEM_DS3505
ZBYN,1989-01-09 14:20,ZBYN 091420Z AUTO 36006KT 2SM 00/00 A3024 RMK T00000000 IEM_DS3505
ZBYN,1989-01-09 15:00,ZBYN 091500Z AUTO 36004KT 5SM M00/M01 A3027 RMK SLP272 T10051006 52028 IEM_DS3505
ZBYN,1989-01-09 15:19,ZBYN 091519Z AUTO 35006KT 1SM M01/M01 A3027 RMK T10101010 IEM_DS3505
ZBYN,1989-01-09 16:00,ZBYN 091600Z AUTO 36008KT 1 1/4SM M01/M01 A3027 RMK T10101010 IEM_DS3505
ZBYN,1989-01-09 16:21,ZBYN 091621Z AUTO 36008KT 1 1/4SM M01/M01 A3027 RMK T10101010 IEM_DS3505
ZBYN,1989-01-09 18:00,ZBYN 091800Z AUTO 36006KT 3SM M01/M01 RMK 60004 SLP277 T10121014 40020//// 52005 IEM_DS3505
ZBYN,1989-01-09 19:00,ZBYN 091900Z AUTO 36010KT 4SM M02/M04 A3030 RMK T10201040 IEM_DS3505
ZBYN,1989-01-09 20:00,ZBYN 092000Z AUTO 01006KT 2 1/2SM M02/M04 A3030 RMK T10201040 IEM_DS3505
ZBYN,1989-01-09 20:15,ZBYN 092015Z AUTO 01006KT 2 1/2SM M02/M04 A3030 RMK T10201040 IEM_DS3505
ZBYN,1989-01-09 21:00,ZBYN 092100Z AUTO 36004KT 4SM M03/M04 A3030 RMK SLP285 T10281045 52004 IEM_DS3505
ZBYN,1989-01-09 22:00,ZBYN 092200Z AUTO 06006KT 6SM M03/M06 A3030 RMK T10301060 IEM_DS3505
ZBYN,1989-01-09 22:19,ZBYN 092219Z AUTO 06006KT 6SM M03/M06 A3030 RMK T10301060 IEM_DS3505
ZBYN,1989-01-09 23:00,ZBYN 092300Z AUTO 07008KT 7SM M03/M06 A3033 RMK T10301060 IEM_DS3505
ZBYN,1989-01-09 23:22,ZBYN 092322Z AUTO 07008KT 7SM M03/M06 A3033 RMK T10301060 IEM_DS3505
ZBYN,1989-01-10 00:00,ZBYN 100000Z AUTO 00000KT 4SM M03/M05 A3036 RMK 60004 SLP306 T10331054 52018 IEM_DS3505
ZBYN,1989-01-10 01:00,ZBYN 100100Z AUTO 10008KT 7SM M05/M09 A3042 RMK T10501090 IEM_DS3505
ZBYN,1989-01-10 01:14,ZBYN 100114Z AUTO 10008KT 7SM M05/M09 A3042 RMK T10501090 IEM_DS3505
ZBYN,1989-01-10 01:34,ZBYN 100134Z AUTO 05008KT 6SM M04/M09 A3042 RMK T10401090 IEM_DS3505
ZBYN,1989-01-10 02:30,ZBYN 100230Z AUTO 05008KT 6SM M04/M09 A3042 RMK T10401090 IEM_DS3505
ZBYN,1989-01-10 03:00,ZBYN 100300Z AUTO 04002KT 6SM M03/M07 A3042 RMK SLP323 T10271074 52013 IEM_DS3505
ZBYN,1989-01-10 03:20,ZBYN 100320Z AUTO 07010KT 6SM M03/M10 A3042 RMK T10301100 IEM_DS3505
ZBYN,1989-01-10 04:00,ZBYN 100400Z AUTO 07008KT 7SM M03/M11 A3042 RMK T10301110 IEM_DS3505
ZBYN,1989-01-10 04:22,ZBYN 100422Z AUTO 07008KT 7SM M03/M11 A3042 RMK T10301110 IEM_DS3505
ZBYN,1989-01-10 05:00,ZBYN 100500Z AUTO 07008KT 7SM M03/M11 A3042 RMK T10301110 IEM_DS3505
ZBYN,1989-01-10 06:31,ZBYN 100631Z AUTO 09008KT 6SM M03/M09 A3039 RMK T10301090 IEM_DS3505
ZBYN,1989-01-10 07:00,ZBYN 100700Z AUTO 08008KT 7SM M04/M08 A3039 RMK T10401080 IEM_DS3505
ZBYN,1989-01-10 07:27,ZBYN 100727Z AUTO 08008KT 7SM M04/M08 A3039 RMK T10401080 IEM_DS3505
ZBYN,1989-01-10 07:32,ZBYN 100732Z AUTO 08008KT 7SM M04/M08 A3039 RMK T10401080 IEM_DS3505
ZBYN,1989-01-10 08:00,ZBYN 100800Z AUTO 08006KT 6SM M04/M08 A3039 RMK T10401080 IEM_DS3505
ZBYN,1989-01-10 08:28,ZBYN 100828Z AUTO 08006KT 6SM M04/M08 A3039 RMK T10401080 IEM_DS3505
ZBYN,1989-01-10 09:00,ZBYN 100900Z AUTO 11004KT 4SM M05/M06 A3042 RMK SLP335 T10481061 52013 IEM_DS3505
ZBYN,1989-01-10 10:00,ZBYN 101000Z AUTO 11008KT 7SM M05/M08 A3042 RMK T10501080 IEM_DS3505
ZBYN,1989-01-10 10:26,ZBYN 101026Z AUTO 11008KT 7SM M05/M08 A3042 RMK T10501080 IEM_DS3505
ZBYN,1989-01-10 11:00,ZBYN 101100Z AUTO 11010KT 6SM RMK IEM_DS3505
ZBYN,1989-01-10 11:23,ZBYN 101123Z AUTO 11010KT 6SM RMK IEM_DS3505
ZBYN,1989-01-10 11:26,ZBYN 101126Z AUTO 11010KT 6SM RMK IEM_DS3505
ZBYN,1989-01-10 12:00,ZBYN 101200Z AUTO 00000KT 5SM M06/M08 A3045 RMK 60008 SLP352 T10601075 52015 IEM_DS3505
ZBYN,1989-01-10 12:21,ZBYN 101221Z AUTO 10004KT 6SM M08/M09 A3045 RMK T10801090 IEM_DS3505
ZBYN,1989-01-10 14:20,ZBYN 101420Z AUTO 00000KT 6SM M08/M10 A3047 RMK T10801100 IEM_DS3505
ZBYN,1989-01-10 14:21,ZBYN 101421Z AUTO 00000KT 6SM M08/M10 A3047 RMK T10801100 IEM_DS3505
ZBYN,1989-01-10 15:00,ZBYN 101500Z AUTO 00000KT 5SM M07/M10 A3047 RMK SLP351 T10731095 57002 IEM_DS3505
ZBYN,1989-01-10 16:00,ZBYN 101600Z AUTO 00000KT 6SM M08/M10 A3047 RMK T10801100 IEM_DS3505
ZBYN,1989-01-10 16:21,ZBYN 101621Z AUTO 00000KT 6SM M08/M10 A3047 RMK T10801100 IEM_DS3505
ZBYN,1989-01-10 18:00,ZBYN 101800Z AUTO 00000KT 5SM M07/M09 A3047 RMK SLP354 T10741092 41014//// 52001 IEM_DS3505
ZBYN,1989-01-10 18:19,ZBYN 101819Z AUTO 00000KT 6SM M08/M11 A3047 RMK T10801110 IEM_DS3505
ZBYN,1989-01-10 18:21,ZBYN 101821Z AUTO 00000KT 6SM M08/M11 A3047 RMK T10801110 IEM_DS3505
ZBYN,1989-01-10 21:00,ZBYN 102100Z AUTO 04002KT 5SM M08/M10 A3047 RMK SLP358 T10781096 52001 IEM_DS3505
ZBYN,1989-01-10 21:21,ZBYN 102121Z AUTO 00000KT 6SM M08/M11 A3047 RMK T10801110 IEM_DS3505
ZBYN,1989-01-10 22:00,ZBYN 102200Z AUTO 00000KT 6SM M08/M11 A3047 RMK T10801110 IEM_DS3505
ZBYN,1989-01-10 22:21,ZBYN 102221Z AUTO 00000KT 6SM M10/M11 A3047 RMK T11001110 IEM_DS3505
ZBYN,1989-01-10 23:00,ZBYN 102300Z AUTO 00000KT 6SM M10/M11 A3047 RMK T11001110 IEM_DS3505
ZBYN,1989-01-11 00:00,ZBYN 110000Z AUTO 00000KT 5SM M11/M12 A3047 RMK SLP378 T11121125 52010 IEM_DS3505
ZBYN,1989-01-11 00:24,ZBYN 110024Z AUTO 00000KT 6SM M12/M14 A3047 RMK T11201140 IEM_DS3505
ZBYN,1989-01-11 00:31,ZBYN 110031Z AUTO 00000KT 6SM M12/M14 A3047 RMK T11201140 IEM_DS3505
ZBYN,1989-01-11 01:00,ZBYN 110100Z AUTO 00000KT 7SM M12/M13 A3053 RMK T11201130 IEM_DS3505
ZBYN,1989-01-11 01:26,ZBYN 110126Z AUTO 00000KT 7SM M12/M13 A3053 RMK T11201130 IEM_DS3505
ZBYN,1989-01-11 02:00,ZBYN 110200Z AUTO 11004KT 7SM M09/M14 A3053 RMK T10901140 IEM_DS3505
ZBYN,1989-01-11 03:00,ZBYN 110300Z AUTO 36002KT 5SM M06/M13 RMK SLP318 T10581129 52016 IEM_DS3505
ZBYN,1989-01-11 03:47,ZBYN 110347Z AUTO 00000KT 6SM M12/M14 A3047 RMK T11201140 IEM_DS3505
ZBYN,1989-01-11 04:00,ZBYN 110400Z AUTO 00000KT 6SM A3053 RMK IEM_DS3505
ZBYN,1989-01-11 04:23,ZBYN 110423Z AUTO 00000KT 6SM M04/M11 A3053 RMK T10401110 IEM_DS3505
ZBYN,1989-01-11 05:00,ZBYN 110500Z AUTO 00000KT 6SM M04/M11 A3053 RMK T10401110 IEM_DS3505
ZBYN,1989-01-11 05:18,ZBYN 110518Z AUTO 00000KT 6SM M02/M09 A3050 RMK T10201090 IEM_DS3505
ZBYN,1989-01-11 05:19,ZBYN 110519Z AUTO 00000KT 6SM M02/M09 A3050 RMK T10201090 IEM_DS3505
ZBYN,1989-01-11 06:00,ZBYN 110600Z AUTO 5SM M03/M09 A3047 RMK SLP355 T10261090 4////1129 57025 IEM_DS3505
ZBYN,1989-01-11 06:20,ZBYN 110620Z AUTO 10004KT 6SM M02/M12 A3047 RMK T10201120 IEM_DS3505
ZBYN,1989-01-11 06:38,ZBYN 110638Z AUTO 10004KT 6SM M02/M12 A3047 RMK T10201120 IEM_DS3505
ZBYN,1989-01-11 07:00,ZBYN 110700Z AUTO 20004KT 6SM M02/M13 A3047 RMK T10201130 IEM_DS3505
ZBYN,1989-01-11 07:24,ZBYN 110724Z AUTO 14006KT 6SM M01/M10 A3047 RMK T10101100 IEM_DS3505
ZBYN,1989-01-11 08:00,ZBYN 110800Z AUTO 20004KT 6SM M02/M13 A3047 RMK T10201130 IEM_DS3505
ZBYN,1989-01-11 08:37,ZBYN 110837Z AUTO 20004KT 6SM M02/M13 A3047 RMK T10201130 IEM_DS3505
ZBYN,1989-01-11 08:41,ZBYN 110841Z AUTO 14006KT 6SM M01/M10 A3047 RMK T10101100 IEM_DS3505
ZBYN,1989-01-11 09:00,ZBYN 110900Z AUTO 22002KT 5SM M03/M10 A3047 RMK SLP363 T10341102 52006 IEM_DS3505
ZBYN,1989-01-11 09:24,ZBYN 110924Z AUTO 22006KT 6SM M03/M10 A3047 RMK T10301100 IEM_DS3505
ZBYN,1989-01-11 10:00,ZBYN 111000Z AUTO 00000KT 6SM M05/M10 A3050 RMK T10501100 IEM_DS3505
ZBYN,1989-01-11 10:33,ZBYN 111033Z AUTO 00000KT 6SM M05/M10 A3050 RMK T10501100 IEM_DS3505
ZBYN,1989-01-11 11:00,ZBYN 111100Z AUTO 00000KT 6SM M06/M09 A3053 RMK T10601090 IEM_DS3505
ZBYN,1989-01-11 11:26,ZBYN 111126Z AUTO 00000KT 6SM M06/M09 A3053 RMK T10601090 IEM_DS3505
ZBYN,1989-01-11 12:00,ZBYN 111200Z AUTO 32002KT 5SM M06/M09 A3053 RMK SLP389 T10581094 52013 IEM_DS3505
ZBYN,1989-01-11 12:28,ZBYN 111228Z AUTO 00000KT 6SM M06/M09 A3053 RMK T10601090 IEM_DS3505
ZBYN,1989-01-11 13:00,ZBYN 111300Z AUTO 00000KT 4SM M06/M10 A3056 RMK T10601100 IEM_DS3505
ZBYN,1989-01-11 13:22,ZBYN 111322Z AUTO 00000KT 4SM M06/M10 A3056 RMK T10601100 IEM_DS3505
ZBYN,1989-01-11 13:24,ZBYN 111324Z AUTO 00000KT 4SM M06/M10 A3056 RMK T10601100 IEM_DS3505
ZBYN,1989-01-11 14:00,ZBYN 111400Z AUTO 13004KT 4SM M07/M10 A3056 RMK T10701100 IEM_DS3505
ZBYN,1989-01-11 15:00,ZBYN 111500Z AUTO 00000KT 4SM M07/M09 RMK SLP391 T10671092 52010 IEM_DS3505
ZBYN,1989-01-11 16:00,ZBYN 111600Z AUTO 00000KT 4SM M08/M10 A3056 RMK T10801100 IEM_DS3505
ZBYN,1989-01-11 17:00,ZBYN 111700Z AUTO 00000KT 4SM M07/M10 A3056 RMK T10701100 IEM_DS3505
ZBYN,1989-01-11 17:24,ZBYN 111724Z AUTO 00000KT 4SM M07/M10 A3056 RMK T10701100 IEM_DS3505
ZBYN,1989-01-11 18:00,ZBYN 111800Z AUTO 36004KT 2 1/2SM M03/ RMK SLP382 41025//// 57003 IEM_DS3505
ZBYN,1989-01-11 21:00,ZBYN 112100Z AUTO 34004KT 5SM M08/M12 RMK SLP377 T10781115 57008 IEM_DS3505
ZBYN,1989-01-11 23:00,ZBYN 112300Z AUTO 00000KT 5SM M08/M11 A3053 RMK T10801110 IEM_DS3505
ZBYN,1989-01-11 23:26,ZBYN 112326Z AUTO 00000KT 5SM M08/M11 A3053 RMK T10801110 IEM_DS3505
ZBYN,1989-01-12 00:00,ZBYN 120000Z AUTO 32004KT 5SM M08/M11 A3056 RMK SLP395 T10801113 52012 IEM_DS3505
ZBYN,1989-01-12 00:24,ZBYN 120024Z AUTO 00000KT 2 1/2SM M09/M11 A3056 RMK T10901110 IEM_DS3505
ZBYN,1989-01-12 00:27,ZBYN 120027Z AUTO 00000KT 2 1/2SM M09/M11 A3056 RMK T10901110 IEM_DS3505
ZBYN,1989-01-12 01:00,ZBYN 120100Z AUTO 00000KT 2 1/2SM M08/M11 A3056 RMK T10801110 IEM_DS3505
ZBYN,1989-01-12 01:30,ZBYN 120130Z AUTO 00000KT 2 1/2SM M08/M11 A3056 RMK T10801110 IEM_DS3505
ZBYN,1989-01-12 02:00,ZBYN 120200Z AUTO 00000KT 2 1/2SM M07/M11 A3027 RMK T10701110 IEM_DS3505
ZBYN,1989-01-12 02:24,ZBYN 120224Z AUTO 00000KT 2 1/2SM M07/M11 A3027 RMK T10701110 IEM_DS3505
ZBYN,1989-01-12 03:00,ZBYN 120300Z AUTO 36002KT 5SM M05/M12 A3059 RMK SLP402 T10541123 52009 IEM_DS3505
ZBYN,1989-01-12 03:30,ZBYN 120330Z AUTO 00000KT 2SM M05/M10 A3059 RMK T10501100 IEM_DS3505
ZBYN,1989-01-12 04:00,ZBYN 120400Z AUTO 00000KT 2SM M04/M11 A3056 RMK T10401110 IEM_DS3505
ZBYN,1989-01-12 04:23,ZBYN 120423Z AUTO 00000KT 2SM M04/M11 A3056 RMK T10401110 IEM_DS3505
ZBYN,1989-01-12 05:00,ZBYN 120500Z AUTO 00000KT 3SM M02/M10 A3053 RMK T10201100 IEM_DS3505
ZBYN,1989-01-12 05:21,ZBYN 120521Z AUTO 00000KT 3SM M02/M10 A3053 RMK T10201100 IEM_DS3505
ZBYN,1989-01-12 05:24,ZBYN 120524Z AUTO 00000KT 3SM M02/M10 A3053 RMK T10201100 IEM_DS3505
ZBYN,1989-01-12 06:00,ZBYN 120600Z AUTO 18006KT 6SM M02/M11 A3050 RMK SLP368 T10221109 4////1087 57025 IEM_DS3505
ZBYN,1989-01-12 06:23,ZBYN 120623Z AUTO 22006KT 3SM M02/M10 A3050 RMK T10201100 IEM_DS3505
ZBYN,1989-01-12 06:37,ZBYN 120637Z AUTO 22006KT 3SM M02/M10 A3050 RMK T10201100 IEM_DS3505
ZBYN,1989-01-12 07:00,ZBYN 120700Z AUTO 23008KT 3SM M03/M09 A3050 RMK T10301090 IEM_DS3505
ZBYN,1989-01-12 07:26,ZBYN 120726Z AUTO 23008KT 3SM M03/M09 A3050 RMK T10301090 IEM_DS3505
ZBYN,1989-01-12 07:47,ZBYN 120747Z AUTO 23008KT 3SM M03/M09 A3050 RMK T10301090 IEM_DS3505
ZBYN,1989-01-12 08:00,ZBYN 120800Z AUTO 00000KT 3SM M03/M08 A3050 RMK T10301080 IEM_DS3505
ZBYN,1989-01-12 08:39,ZBYN 120839Z AUTO 00000KT 3SM M03/M08 A3050 RMK T10301080 IEM_DS3505
ZBYN,1989-01-12 09:00,ZBYN 120900Z AUTO 00000KT 6SM M04/M09 RMK SLP368 T10401087 57005 IEM_DS3505
ZBYN,1989-01-12 10:00,ZBYN 121000Z AUTO 00000KT 2 1/2SM M05/M10 A3053 RMK T10501100 IEM_DS3505
ZBYN,1989-01-12 11:00,ZBYN 121100Z AUTO 00000KT 2 1/2SM M05/M10 A3053 RMK T10501100 IEM_DS3505
ZBYN,1989-01-12 11:22,ZBYN 121122Z AUTO 00000KT 2 1/2SM M07/M10 A3053 RMK T10701100 IEM_DS3505
ZBYN,1989-01-12 11:25,ZBYN 121125Z AUTO 00000KT 2 1/2SM M07/M10 A3053 RMK T10701100 IEM_DS3505
ZBYN,1989-01-12 12:00,ZBYN 121200Z AUTO 00000KT 5SM A3053 RMK SLP387 52009 IEM_DS3505
ZBYN,1989-01-12 13:00,ZBYN 121300Z AUTO 00000KT 4SM M09/M11 A3056 RMK T10901110 IEM_DS3505
ZBYN,1989-01-12 13:25,ZBYN 121325Z AUTO 00000KT 4SM M09/M11 A3056 RMK T10901110 IEM_DS3505
ZBYN,1989-01-12 13:53,ZBYN 121353Z AUTO 09004KT 3SM M11/M13 A3056 RMK T11101130 IEM_DS3505
ZBYN,1989-01-12 14:00,ZBYN 121400Z AUTO 09004KT 3SM M11/M13 A3056 RMK T11101130 IEM_DS3505
ZBYN,1989-01-12 14:24,ZBYN 121424Z AUTO 09004KT 3SM M11/M13 A3056 RMK T11101130 IEM_DS3505
ZBYN,1989-01-12 15:00,ZBYN 121500Z AUTO 00000KT 6SM M11/M13 A3056 RMK SLP403 T11081131 52015 IEM_DS3505
ZBYN,1989-01-12 15:24,ZBYN 121524Z AUTO 00000KT 3SM M12/M13 A3056 RMK T11201130 IEM_DS3505
ZBYN,1989-01-12 15:30,ZBYN 121530Z AUTO 00000KT 3SM M12/M13 A3056 RMK T11201130 IEM_DS3505
ZBYN,1989-01-12 16:00,ZBYN 121600Z AUTO 11004KT 5SM M13/M15 A3059 RMK T11301150 IEM_DS3505
ZBYN,1989-01-12 16:26,ZBYN 121626Z AUTO 11004KT 5SM M13/M15 A3059 RMK T11301150 IEM_DS3505
ZBYN,1989-01-12 21:00,ZBYN 122100Z AUTO 00000KT 6SM M14/M16 RMK SLP396 T11421157 54000 IEM_DS3505
ZBYN,1989-01-12 23:00,ZBYN 122300Z AUTO 10004KT 6SM M16/M18 A3056 RMK T11601180 IEM_DS3505
ZBYN,1989-01-12 23:22,ZBYN 122322Z AUTO 10004KT 6SM M16/M18 A3056 RMK T11601180 IEM_DS3505
ZBYN,1989-01-13 00:00,ZBYN 130000Z AUTO 00000KT 5SM M16/M18 A3056 RMK SLP414 T11641182 52005 IEM_DS3505
ZBYN,1989-01-13 00:26,ZBYN 130026Z AUTO 09004KT 6SM M17/M19 A3056 RMK T11701190 IEM_DS3505
ZBYN,1989-01-13 01:00,ZBYN 130100Z AUTO 00000KT 3SM M15/M17 A3056 RMK T11501170 IEM_DS3505
ZBYN,1989-01-13 01:27,ZBYN 130127Z AUTO 00000KT 3SM M15/M17 A3056 RMK T11501170 IEM_DS3505
ZBYN,1989-01-13 01:30,ZBYN 130130Z AUTO 00000KT 3SM M15/M17 A3056 RMK T11501170 IEM_DS3505
ZBYN,1989-01-13 02:00,ZBYN 130200Z AUTO 00000KT 3SM M11/M15 A3059 RMK T11101150 IEM_DS3505
ZBYN,1989-01-13 02:30,ZBYN 130230Z AUTO 00000KT 3SM M11/M15 A3059 RMK T11101150 IEM_DS3505
ZBYN,1989-01-13 03:00,ZBYN 130300Z AUTO 00000KT 4SM M08/M14 A3059 RMK SLP407 T10821136 52004 IEM_DS3505
ZBYN,1989-01-13 03:27,ZBYN 130327Z AUTO 00000KT 4SM M08/M14 A3059 RMK T10801140 IEM_DS3505
ZBYN,1989-01-13 03:37,ZBYN 130337Z AUTO 00000KT 4SM M08/M14 A3059 RMK T10801140 IEM_DS3505
ZBYN,1989-01-13 04:12,ZBYN 130412Z AUTO 00000KT 6SM M07/M14 A3056 RMK T10701140 IEM_DS3505
ZBYN,1989-01-13 04:24,ZBYN 130424Z AUTO 00000KT 6SM M07/M14 A3056 RMK T10701140 IEM_DS3505
ZBYN,1989-01-13 04:28,ZBYN 130428Z AUTO 00000KT 6SM M07/M14 A3056 RMK T10701140 IEM_DS3505
ZBYN,1989-01-13 05:00,ZBYN 130500Z AUTO 20006KT 7SM M05/M14 A3053 RMK T10501140 IEM_DS3505
ZBYN,1989-01-13 05:26,ZBYN 130526Z AUTO 20006KT 7SM M05/M14 A3053 RMK T10501140 IEM_DS3505
ZBYN,1989-01-13 06:00,ZBYN 130600Z AUTO 22004KT 4SM M05/M12 A3053 RMK SLP363 T10501116 4////1176 57029 IEM_DS3505
ZBYN,1989-01-13 06:18,ZBYN 130618Z AUTO 22004KT 7SM M04/M15 A3050 RMK T10401150 IEM_DS3505
ZBYN,1989-01-13 07:00,ZBYN 130700Z AUTO 00000KT 7SM M04/M16 A3047 RMK T10401160 IEM_DS3505
ZBYN,1989-01-13 08:00,ZBYN 130800Z AUTO 23006KT 7SM M06/M13 A3047 RMK T10601130 IEM_DS3505
ZBYN,1989-01-13 08:44,ZBYN 130844Z AUTO 22004KT 7SM M04/M15 A3047 RMK T10401150 IEM_DS3505
ZBYN,1989-01-13 09:00,ZBYN 130900Z AUTO 00000KT 31SM M06/M13 A3047 RMK SLP373 T10601130 57003 IEM_DS3505
ZBYN,1989-01-13 09:34,ZBYN 130934Z AUTO 23006KT 7SM M06/M13 A3047 RMK T10601130 IEM_DS3505
ZBYN,1989-01-13 10:00,ZBYN 131000Z AUTO 00000KT 7SM M08/M14 A3047 RMK T10801140 IEM_DS3505
ZBYN,1989-01-13 10:24,ZBYN 131024Z AUTO 00000KT 7SM M08/M14 A3047 RMK T10801140 IEM_DS3505
ZBYN,1989-01-13 10:38,ZBYN 131038Z AUTO 00000KT 7SM M08/M14 A3047 RMK T10801140 IEM_DS3505
ZBYN,1989-01-13 11:00,ZBYN 131100Z AUTO 00000KT 7SM M09/M15 A3047 RMK T10901150 IEM_DS3505
ZBYN,1989-01-13 12:00,ZBYN 131200Z AUTO 00000KT 4SM M11/M14 A3050 RMK SLP398 T11081142 52009 IEM_DS3505
ZBYN,1989-01-13 12:35,ZBYN 131235Z AUTO 10004KT 7SM M12/M16 A3050 RMK T11201160 IEM_DS3505
ZBYN,1989-01-13 13:00,ZBYN 131300Z AUTO 11004KT 7SM M13/M16 A3050 RMK T11301160 IEM_DS3505
ZBYN,1989-01-13 14:00,ZBYN 131400Z AUTO 00000KT 7SM M14/M17 A3053 RMK T11401170 IEM_DS3505
ZBYN,1989-01-13 14:26,ZBYN 131426Z AUTO 00000KT 7SM M14/M17 A3053 RMK T11401170 IEM_DS3505
ZBYN,1989-01-13 15:00,ZBYN 131500Z AUTO 34002KT 5SM M11/M15 A3053 RMK SLP394 T11061148 52011 IEM_DS3505
ZBYN,1989-01-13 15:25,ZBYN 131525Z AUTO 00000KT 7SM M14/M17 A3053 RMK T11401170 IEM_DS3505
ZBYN,1989-01-13 18:00,ZBYN 131800Z AUTO 00000KT 5SM M16/M17 RMK SLP397 T11561174 41042//// 54000 IEM_DS3505
ZBYN,1989-01-13 20:00,ZBYN 132000Z AUTO 00000KT 7SM M17/M19 A3053 RMK T11701190 IEM_DS3505
ZBYN,1989-01-13 20:21,ZBYN 132021Z AUTO 00000KT 7SM M17/M19 A3053 RMK T11701190 IEM_DS3505
ZBYN,1989-01-13 20:56,ZBYN 132056Z AUTO 11004KT 7SM M17/M19 A3050 RMK T11701190 IEM_DS3505
ZBYN,1989-01-13 21:00,ZBYN 132100Z AUTO 00000KT 1 1/4SM M16/M18 A3050 RMK SLP390 T11601178 57008 IEM_DS3505
ZBYN,1989-01-13 21:30,ZBYN 132130Z AUTO 11004KT 7SM M17/M19 A3050 RMK T11701190 IEM_DS3505
ZBYN,1989-01-13 23:00,ZBYN 132300Z AUTO 12006KT 7SM M18/M19 A3050 RMK T11801190 IEM_DS3505
ZBYN,1989-01-13 23:20,ZBYN 132320Z AUTO 12006KT 7SM M18/M19 A3050 RMK T11801190 IEM_DS3505
ZBYN,1989-01-14 00:00,ZBYN 140000Z AUTO 00000KT 3SM M17/M19 A3053 RMK SLP407 T11741190 52003 IEM_DS3505
ZBYN,1989-01-14 00:27,ZBYN 140027Z AUTO 00000KT 2 1/2SM M18/M20 A3053 RMK T11801200 IEM_DS3505
ZBYN,1989-01-14 01:37,ZBYN 140137Z AUTO 00000KT 2SM M17/M18 A3053 RMK T11701180 IEM_DS3505
ZBYN,1989-01-14 02:00,ZBYN 140200Z AUTO 00000KT 2SM M13/M16 A3053 RMK T11301160 IEM_DS3505
ZBYN,1989-01-14 02:28,ZBYN 140228Z AUTO 00000KT 2SM M13/M16 A3053 RMK T11301160 IEM_DS3505
ZBYN,1989-01-14 03:00,ZBYN 140300Z AUTO 00000KT 5SM M10/M15 A3053 RMK SLP399 T11051149 52006 IEM_DS3505
ZBYN,1989-01-14 05:00,ZBYN 140500Z AUTO 17004KT 6SM M07/M14 A3047 RMK T10701140 IEM_DS3505
ZBYN,1989-01-14 05:23,ZBYN 140523Z AUTO 17004KT 6SM M07/M14 A3047 RMK T10701140 IEM_DS3505
ZBYN,1989-01-14 06:00,ZBYN 140600Z AUTO 18004KT 6SM M06/M13 A3045 RMK SLP371 T10641132 4////1179 57027 IEM_DS3505
ZBYN,1989-01-14 06:26,ZBYN 140626Z AUTO 00000KT 6SM M06/M14 A3045 RMK T10601140 IEM_DS3505
ZBYN,1989-01-14 07:00,ZBYN 140700Z AUTO 17004KT 7SM M06/M14 A3045 RMK T10601140 IEM_DS3505
ZBYN,1989-01-14 07:25,ZBYN 140725Z AUTO 17004KT 7SM M06/M14 A3045 RMK T10601140 IEM_DS3505
ZBYN,1989-01-14 08:00,ZBYN 140800Z AUTO 16004KT 7SM M05/M13 A3042 RMK T10501130 IEM_DS3505
ZBYN,1989-01-14 08:23,ZBYN 140823Z AUTO 16004KT 7SM M05/M13 A3042 RMK T10501130 IEM_DS3505
ZBYN,1989-01-14 08:32,ZBYN 140832Z AUTO 16004KT 7SM M05/M13 A3042 RMK T10501130 IEM_DS3505
ZBYN,1989-01-14 09:00,ZBYN 140900Z AUTO 16002KT 6SM M07/M13 A3042 RMK SLP364 T10661130 57008 IEM_DS3505
ZBYN,1989-01-14 09:41,ZBYN 140941Z AUTO 16004KT 7SM M05/M13 A3042 RMK T10501130 IEM_DS3505
ZBYN,1989-01-14 10:00,ZBYN 141000Z AUTO 16004KT 7SM M06/M13 A3042 RMK T10601130 IEM_DS3505
ZBYN,1989-01-14 10:40,ZBYN 141040Z AUTO 00000KT 6SM M08/M14 A3042 RMK T10801140 IEM_DS3505
ZBYN,1989-01-14 11:00,ZBYN 141100Z AUTO 00000KT 4SM M10/M14 A3045 RMK T11001140 IEM_DS3505
ZBYN,1989-01-14 12:00,ZBYN 141200Z AUTO 00000KT 4SM M12/M14 A3047 RMK SLP387 T11191135 52009 IEM_DS3505
ZBYN,1989-01-14 12:35,ZBYN 141235Z AUTO 00000KT 4SM M13/M17 A3047 RMK T11301170 IEM_DS3505
ZBYN,1989-01-14 13:00,ZBYN 141300Z AUTO 00000KT 4SM M14/M17 A3047 RMK T11401170 IEM_DS3505
ZBYN,1989-01-14 13:26,ZBYN 141326Z AUTO 00000KT 4SM M14/M17 A3047 RMK T11401170 IEM_DS3505
ZBYN,1989-01-14 14:00,ZBYN 141400Z AUTO 00000KT 4SM M15/M18 A3047 RMK T11501180 IEM_DS3505
ZBYN,1989-01-14 14:22,ZBYN 141422Z AUTO 00000KT 4SM M15/M18 A3047 RMK T11501180 IEM_DS3505
ZBYN,1989-01-14 14:24,ZBYN 141424Z AUTO 00000KT 4SM M15/M18 A3047 RMK T11501180 IEM_DS3505
ZBYN,1989-01-14 14:55,ZBYN 141455Z AUTO 00000KT 4SM M15/M18 A3047 RMK T11501180 IEM_DS3505
ZBYN,1989-01-14 15:00,ZBYN 141500Z AUTO 00000KT 1SM M15/M17 A3047 RMK SLP387 T11531171 52006 IEM_DS3505
ZBYN,1989-01-14 15:22,ZBYN 141522Z AUTO 00000KT 4SM M15/M18 A3047 RMK T11501180 IEM_DS3505
ZBYN,1989-01-14 16:00,ZBYN 141600Z AUTO 00000KT 4SM M16/M19 A3047 RMK T11601190 IEM_DS3505
ZBYN,1989-01-14 16:22,ZBYN 141622Z AUTO 00000KT 4SM M16/M19 A3047 RMK T11601190 IEM_DS3505
ZBYN,1989-01-14 16:24,ZBYN 141624Z AUTO 00000KT 4SM M16/M19 A3047 RMK T11601190 IEM_DS3505
ZBYN,1989-01-14 18:00,ZBYN 141800Z AUTO 00000KT 4SM M17/M18 A3047 RMK SLP379 T11671184 57002 IEM_DS3505
ZBYN,1989-01-14 18:14,ZBYN 141814Z AUTO 00000KT 4SM M16/M18 A3047 RMK T11601180 IEM_DS3505
ZBYN,1989-01-14 18:15,ZBYN 141815Z AUTO 00000KT 4SM M16/M18 A3047 RMK T11601180 IEM_DS3505
ZBYN,1989-01-14 20:00,ZBYN 142000Z AUTO 00000KT 3SM A3047 RMK IEM_DS3505
ZBYN,1989-01-14 20:24,ZBYN 142024Z AUTO 00000KT 3SM A3047 RMK IEM_DS3505
ZBYN,1989-01-14 21:00,ZBYN 142100Z AUTO 00000KT 3SM M17/M19 A3045 RMK SLP371 T11721188 57008 IEM_DS3505
ZBYN,1989-01-14 21:20,ZBYN 142120Z AUTO 00000KT 4SM M17/M19 A3045 RMK T11701190 IEM_DS3505
ZBYN,1989-01-14 21:21,ZBYN 142121Z AUTO 00000KT 4SM M17/M19 A3045 RMK T11701190 IEM_DS3505
ZBYN,1989-01-14 22:00,ZBYN 142200Z AUTO 00000KT 4SM M18/M20 A3045 RMK T11801200 IEM_DS3505
ZBYN,1989-01-14 22:20,ZBYN 142220Z AUTO 00000KT 4SM M18/M20 A3045 RMK T11801200 IEM_DS3505
ZBYN,1989-01-14 23:20,ZBYN 142320Z AUTO 10002KT 4SM A3045 RMK IEM_DS3505
ZBYN,1989-01-15 00:00,ZBYN 150000Z AUTO 00000KT 3SM M16/M18 A3047 RMK SLP380 T11621179 54000 IEM_DS3505
ZBYN,1989-01-15 00:24,ZBYN 150024Z AUTO 00000KT 2SM M13/M20 A3045 RMK T11301200 IEM_DS3505
ZBYN,1989-01-15 00:27,ZBYN 150027Z AUTO 00000KT 2SM M13/M20 A3045 RMK T11301200 IEM_DS3505
ZBYN,1989-01-15 01:25,ZBYN 150125Z AUTO 00000KT 1 1/2SM M17/M19 A3047 RMK T11701190 IEM_DS3505
ZBYN,1989-01-15 02:00,ZBYN 150200Z AUTO 00000KT 1SM M13/M15 A3047 RMK T11301150 IEM_DS3505
ZBYN,1989-01-15 02:22,ZBYN 150222Z AUTO 00000KT 1SM M13/M15 A3047 RMK T11301150 IEM_DS3505
ZBYN,1989-01-15 03:00,ZBYN 150300Z AUTO 00000KT 2 1/2SM M11/M12 A3047 RMK SLP388 T11071123 52011 IEM_DS3505
ZBYN,1989-01-15 03:06,ZBYN 150306Z AUTO 00000KT 1 1/2SM M10/M14 A3047 RMK T11001140 IEM_DS3505
ZBYN,1989-01-15 04:00,ZBYN 150400Z AUTO 00000KT 1 1/2SM M08/M16 A3045 RMK T10801160 IEM_DS3505
ZBYN,1989-01-15 04:26,ZBYN 150426Z AUTO 00000KT 1 1/2SM M08/M16 A3045 RMK T10801160 IEM_DS3505
ZBYN,1989-01-15 05:21,ZBYN 150521Z AUTO 00000KT 1 1/4SM M05/M15 A3042 RMK T10501150 IEM_DS3505
ZBYN,1989-01-15 05:24,ZBYN 150524Z AUTO 00000KT 1 1/4SM M05/M15 A3042 RMK T10501150 IEM_DS3505
ZBYN,1989-01-15 06:00,ZBYN 150600Z AUTO 14004KT 2 1/2SM M05/M12 A3039 RMK SLP346 T10521125 4////1176 57031 IEM_DS3505
ZBYN,1989-01-15 07:00,ZBYN 150700Z AUTO 18006KT 1 1/4SM M05/M13 A3039 RMK T10501130 IEM_DS3505
ZBYN,1989-01-15 07:25,ZBYN 150725Z AUTO 00000KT 2SM M03/M13 A3039 RMK T10301130 IEM_DS3505
ZBYN,1989-01-15 08:24,ZBYN 150824Z AUTO 00000KT 2SM M04/M14 A3039 RMK T10401140 IEM_DS3505
ZBYN,1989-01-15 09:00,ZBYN 150900Z AUTO 00000KT 3SM M05/M10 A3039 RMK SLP347 T10531105 54000 IEM_DS3505
ZBYN,1989-01-15 09:27,ZBYN 150927Z AUTO 00000KT 2 1/2SM M04/M14 A3039 RMK T10401140 IEM_DS3505
ZBYN,1989-01-15 10:28,ZBYN 151028Z AUTO 00000KT 2SM M03/M13 A3039 RMK T10301130 IEM_DS3505
ZBYN,1989-01-15 11:00,ZBYN 151100Z AUTO 00000KT 5SM M09/M13 A3039 RMK T10901130 IEM_DS3505
ZBYN,1989-01-15 11:20,ZBYN 151120Z AUTO 00000KT 5SM M09/M13 A3039 RMK T10901130 IEM_DS3505
ZBYN,1989-01-15 12:00,ZBYN 151200Z AUTO 00000KT 0SM M11/M13 A3039 RMK T11081128 52008 IEM_DS3505
ZBYN,1989-01-15 12:30,ZBYN 151230Z AUTO 00000KT 4SM M12/M16 A3042 RMK T11201160 IEM_DS3505
ZBYN,1989-01-15 13:00,ZBYN 151300Z AUTO 00000KT 4SM M13/M17 A3042 RMK T11301170 IEM_DS3505
ZBYN,1989-01-15 13:24,ZBYN 151324Z AUTO 00000KT 4SM M13/M17 A3042 RMK T11301170 IEM_DS3505
ZBYN,1989-01-15 14:00,ZBYN 151400Z AUTO 00000KT 2 1/2SM M14/M17 A3042 RMK T11401170 IEM_DS3505
ZBYN,1989-01-15 15:00,ZBYN 151500Z AUTO 00000KT 1SM M14/M15 A3045 RMK SLP374 T11381154 52013 IEM_DS3505
ZBYN,1989-01-15 15:25,ZBYN 151525Z AUTO 11006KT 2 1/2SM M15/M17 A3045 RMK T11501170 IEM_DS3505
ZBYN,1989-01-15 16:00,ZBYN 151600Z AUTO 00000KT 2 1/2SM M15/M18 A3045 RMK T11501180 IEM_DS3505
ZBYN,1989-01-15 17:00,ZBYN 151700Z AUTO 00000KT 2 1/2SM M16/M18 RMK T11601180 IEM_DS3505
ZBYN,1989-01-15 17:24,ZBYN 151724Z AUTO 00000KT 2 1/2SM M16/M18 RMK T11601180 IEM_DS3505
ZBYN,1989-01-15 18:00,ZBYN 151800Z AUTO 34002KT 1SM M15/M16 RMK SLP361 T11461161 41041//// 57003 IEM_DS3505
ZBYN,1989-01-15 18:30,ZBYN 151830Z AUTO 00000KT 2SM M16/M18 A3042 RMK T11601180 IEM_DS3505
ZBYN,1989-01-15 20:00,ZBYN 152000Z AUTO 00000KT 2SM M16/M18 A3045 RMK T11601180 IEM_DS3505
ZBYN,1989-01-15 20:24,ZBYN 152024Z AUTO 00000KT 2SM M16/M18 A3045 RMK T11601180 IEM_DS3505
ZBYN,1989-01-15 21:00,ZBYN 152100Z AUTO 00000KT 1 1/4SM M14/M16 RMK SLP352 T11371155 57007 IEM_DS3505
ZBYN,1989-01-15 22:00,ZBYN 152200Z AUTO 00000KT 3SM M17/M19 A3042 RMK T11701190 IEM_DS3505
ZBYN,1989-01-15 23:00,ZBYN 152300Z AUTO 00000KT 2 1/2SM M18/M19 A3042 RMK T11801190 IEM_DS3505
ZBYN,1989-01-15 23:24,ZBYN 152324Z AUTO 00000KT 2 1/2SM M18/M19 A3042 RMK T11801190 IEM_DS3505
ZBYN,1989-01-16 00:00,ZBYN 160000Z AUTO 00000KT 2 1/2SM M17/M19 RMK SLP378 T11731188 52007 IEM_DS3505
ZBYN,1989-01-16 00:26,ZBYN 160026Z AUTO 00000KT 1 1/2SM M18/M19 A3045 RMK T11801190 IEM_DS3505
ZBYN,1989-01-16 00:32,ZBYN 160032Z AUTO 00000KT 1 1/2SM M18/M19 A3045 RMK T11801190 IEM_DS3505
ZBYN,1989-01-16 01:00,ZBYN 160100Z AUTO 00000KT 1 1/2SM M17/M18 A3045 RMK T11701180 IEM_DS3505
ZBYN,1989-01-16 01:25,ZBYN 160125Z AUTO 00000KT 1 1/2SM M17/M18 A3045 RMK T11701180 IEM_DS3505
ZBYN,1989-01-16 02:00,ZBYN 160200Z AUTO 00000KT 0SM M14/M15 A3047 RMK T11401150 IEM_DS3505
ZBYN,1989-01-16 02:23,ZBYN 160223Z AUTO 00000KT 1 1/2SM M17/M18 A3045 RMK T11701180 IEM_DS3505
ZBYN,1989-01-16 02:45,ZBYN 160245Z AUTO 00000KT 1/8SM M12/M13 A3047 RMK T11201130 IEM_DS3505
ZBYN,1989-01-16 03:00,ZBYN 160300Z AUTO 16002KT 1 1/4SM M13/M14 A3047 RMK SLP385 T11271143 52009 IEM_DS3505
ZBYN,1989-01-16 04:00,ZBYN 160400Z AUTO 19002KT 1/4SM M11/M11 A3045 RMK T11101110 IEM_DS3505
ZBYN,1989-01-16 04:25,ZBYN 160425Z AUTO 19002KT 1/4SM M11/M11 A3045 RMK T11101110 IEM_DS3505
ZBYN,1989-01-16 05:00,ZBYN 160500Z AUTO 00000KT 1SM M09/M11 A3039 RMK T10901110 IEM_DS3505
ZBYN,1989-01-16 05:08,ZBYN 160508Z AUTO 00000KT 1/8SM M12/M13 A3047 RMK T11201130 IEM_DS3505
ZBYN,1989-01-16 06:00,ZBYN 160600Z AUTO 22002KT 3SM M07/M12 A3045 RMK SLP342 T10661119 4////1175 57029 IEM_DS3505
ZBYN,1989-01-16 06:20,ZBYN 160620Z AUTO 00000KT 1SM M09/M11 A3039 RMK T10901110 IEM_DS3505
ZBYN,1989-01-16 07:00,ZBYN 160700Z AUTO 00000KT 1 1/4SM M05/M12 A3036 RMK T10501120 IEM_DS3505
ZBYN,1989-01-16 07:28,ZBYN 160728Z AUTO 00000KT 1 1/4SM M05/M12 A3036 RMK T10501120 IEM_DS3505
ZBYN,1989-01-16 08:00,ZBYN 160800Z AUTO 21004KT 1 1/2SM M05/M12 A3036 RMK T10501120 IEM_DS3505
ZBYN,1989-01-16 09:00,ZBYN 160900Z AUTO 00000KT 4SM M06/M12 A3033 RMK SLP327 T10591124 57011 IEM_DS3505
ZBYN,1989-01-16 10:24,ZBYN 161024Z AUTO 00000KT 1 1/2SM M08/M12 A3033 RMK T10801120 IEM_DS3505
ZBYN,1989-01-16 10:27,ZBYN 161027Z AUTO 00000KT 1 1/2SM M08/M12 A3033 RMK T10801120 IEM_DS3505
ZBYN,1989-01-16 10:30,ZBYN 161030Z AUTO 00000KT 1 1/2SM M08/M12 A3033 RMK T10801120 IEM_DS3505
ZBYN,1989-01-16 11:00,ZBYN 161100Z AUTO 00000KT 1SM M10/M12 A3036 RMK T11001120 IEM_DS3505
ZBYN,1989-01-16 11:24,ZBYN 161124Z AUTO 00000KT 1SM M10/M12 A3036 RMK T11001120 IEM_DS3505
ZBYN,1989-01-16 12:00,ZBYN 161200Z AUTO 00000KT 5SM M10/M12 RMK SLP354 T11031119 52010 IEM_DS3505
ZBYN,1989-01-16 13:00,ZBYN 161300Z AUTO 09004KT 1SM M13/M15 A3039 RMK T11301150 IEM_DS3505
ZBYN,1989-01-16 14:00,ZBYN 161400Z AUTO 09004KT 1SM M13/M15 A3039 RMK T11301150 IEM_DS3505
ZBYN,1989-01-16 15:00,ZBYN 161500Z AUTO 00000KT 4SM M13/M14 A3039 RMK SLP356 T11261138 52006 IEM_DS3505
ZBYN,1989-01-16 15:08,ZBYN 161508Z AUTO 00000KT 1SM M13/M16 A3039 RMK T11301160 IEM_DS3505
ZBYN,1989-01-16 16:00,ZBYN 161600Z AUTO 00000KT 1SM M14/M16 A3039 RMK T11401160 IEM_DS3505
ZBYN,1989-01-16 17:00,ZBYN 161700Z AUTO 17006KT 1SM M13/M15 A3042 RMK T11301150 IEM_DS3505
ZBYN,1989-01-16 18:00,ZBYN 161800Z AUTO 14004KT 5SM M12/M14 RMK SLP349 T11221136 41051//// 52006 IEM_DS3505
ZBYN,1989-01-16 20:00,ZBYN 162000Z AUTO 00000KT 1SM M12/M12 A3039 RMK T11201120 IEM_DS3505
ZBYN,1989-01-16 21:00,ZBYN 162100Z AUTO 00000KT 1 1/4SM M11/M12 RMK SLP336 T11081121 57008 IEM_DS3505
ZBYN,1989-01-16 22:21,ZBYN 162221Z AUTO 00000KT 1SM M12/M12 A3039 RMK T11201120 IEM_DS3505
ZBYN,1989-01-16 22:27,ZBYN 162227Z AUTO 00000KT 1SM M12/M12 A3039 RMK T11201120 IEM_DS3505
ZBYN,1989-01-16 23:00,ZBYN 162300Z AUTO 07006KT 1SM M14/M14 A3042 RMK T11401140 IEM_DS3505
ZBYN,1989-01-17 00:00,ZBYN 170000Z AUTO 00000KT 3/8SM M14/M16 A3042 RMK SLP365 T11431157 52029 IEM_DS3505
ZBYN,1989-01-17 00:25,ZBYN 170025Z AUTO 00000KT 3/8SM M15/M15 A3042 RMK T11501150 IEM_DS3505
ZBYN,1989-01-17 01:00,ZBYN 170100Z AUTO 00000KT 1SM M14/M15 A3042 RMK T11401150 IEM_DS3505
ZBYN,1989-01-17 01:30,ZBYN 170130Z AUTO 00000KT 1SM M14/M15 A3042 RMK T11401150 IEM_DS3505
ZBYN,1989-01-17 02:00,ZBYN 170200Z AUTO 00000KT 1SM M11/M12 A3045 RMK T11101120 IEM_DS3505
ZBYN,1989-01-17 02:25,ZBYN 170225Z AUTO 00000KT 1SM M11/M12 A3045 RMK T11101120 IEM_DS3505
ZBYN,1989-01-17 03:00,ZBYN 170300Z AUTO 00000KT 1SM M09/M11 A3045 RMK SLP366 T10861106 52007 IEM_DS3505
ZBYN,1989-01-17 03:25,ZBYN 170325Z AUTO 00000KT 1SM M08/M12 A3045 RMK T10801120 IEM_DS3505
ZBYN,1989-01-17 04:00,ZBYN 170400Z AUTO 00000KT 1SM M06/M12 A3042 RMK T10601120 IEM_DS3505
ZBYN,1989-01-17 04:26,ZBYN 170426Z AUTO 00000KT 1SM M06/M12 A3042 RMK T10601120 IEM_DS3505
ZBYN,1989-01-17 05:00,ZBYN 170500Z AUTO 19004KT 1SM M03/M11 A3039 RMK T10301110 IEM_DS3505
ZBYN,1989-01-17 06:00,ZBYN 170600Z AUTO 20002KT 2 1/2SM M03/M09 A3036 RMK SLP324 T10301091 4////1150 57028 IEM_DS3505
ZBYN,1989-01-17 07:00,ZBYN 170700Z AUTO 00000KT 1 1/4SM M01/M13 A3033 RMK T10101130 IEM_DS3505
ZBYN,1989-01-17 08:00,ZBYN 170800Z AUTO 21004KT 1 1/2SM M02/M12 A3033 RMK T10201120 IEM_DS3505
ZBYN,1989-01-17 08:24,ZBYN 170824Z AUTO 21004KT 1 1/2SM M02/M12 A3033 RMK T10201120 IEM_DS3505
ZBYN,1989-01-17 09:00,ZBYN 170900Z AUTO 00000KT 2SM M03/M09 A3033 RMK SLP319 T10301091 57002 IEM_DS3505
ZBYN,1989-01-17 09:28,ZBYN 170928Z AUTO 00000KT 1 1/2SM M03/M10 A3033 RMK T10301100 IEM_DS3505
ZBYN,1989-01-17 10:00,ZBYN 171000Z AUTO 00000KT 1 1/4SM M05/M08 A3036 RMK T10501080 IEM_DS3505
ZBYN,1989-01-17 10:45,ZBYN 171045Z AUTO 00000KT 1 1/4SM M05/M08 A3036 RMK T10501080 IEM_DS3505
ZBYN,1989-01-17 11:00,ZBYN 171100Z AUTO 00000KT 1 1/4SM M07/M11 A3036 RMK T10701110 IEM_DS3505
ZBYN,1989-01-17 11:22,ZBYN 171122Z AUTO 00000KT 1 1/4SM M07/M11 A3036 RMK T10701110 IEM_DS3505
ZBYN,1989-01-17 12:00,ZBYN 171200Z AUTO 00000KT 2 1/2SM M08/M10 RMK SLP339 T10781105 52004 IEM_DS3505
ZBYN,1989-01-17 12:25,ZBYN 171225Z AUTO 07004KT 1 1/4SM M10/M12 A3036 RMK T11001120 IEM_DS3505
ZBYN,1989-01-17 12:27,ZBYN 171227Z AUTO 07004KT 1 1/4SM M10/M12 A3036 RMK T11001120 IEM_DS3505
ZBYN,1989-01-17 12:28,ZBYN 171228Z AUTO 07004KT 1 1/4SM M10/M12 A3036 RMK T11001120 IEM_DS3505
ZBYN,1989-01-17 13:00,ZBYN 171300Z AUTO 00000KT 1 1/4SM M10/M13 A3036 RMK T11001130 IEM_DS3505
ZBYN,1989-01-17 13:35,ZBYN 171335Z AUTO 00000KT 1 1/4SM M10/M13 A3036 RMK T11001130 IEM_DS3505
ZBYN,1989-01-17 14:00,ZBYN 171400Z AUTO 00000KT 1 1/4SM M12/M15 A3036 RMK T11201150 IEM_DS3505
ZBYN,1989-01-17 14:24,ZBYN 171424Z AUTO 00000KT 1 1/4SM M12/M15 A3036 RMK T11201150 IEM_DS3505
ZBYN,1989-01-17 15:00,ZBYN 171500Z AUTO 00000KT 2SM M10/M12 A3036 RMK SLP335 T11051121 52001 IEM_DS3505
ZBYN,1989-01-17 15:24,ZBYN 171524Z AUTO 00000KT 1 1/4SM M11/M14 A3036 RMK T11101140 IEM_DS3505
ZBYN,1989-01-17 15:28,ZBYN 171528Z AUTO 00000KT 1 1/4SM M11/M14 A3036 RMK T11101140 IEM_DS3505
ZBYN,1989-01-17 16:00,ZBYN 171600Z AUTO 15002KT 1 1/4SM M12/M14 A3039 RMK T11201140 IEM_DS3505
ZBYN,1989-01-17 17:00,ZBYN 171700Z AUTO 00000KT 2SM M11/M14 A3036 RMK T11101140 IEM_DS3505
ZBYN,1989-01-17 17:31,ZBYN 171731Z AUTO 00000KT 2SM M11/M14 A3036 RMK T11101140 IEM_DS3505
ZBYN,1989-01-17 18:00,ZBYN 171800Z AUTO 00000KT 2SM M12/M13 A3036 RMK SLP325 T11171134 41012//// 57001 IEM_DS3505
ZBYN,1989-01-17 19:00,ZBYN 171900Z AUTO 00000KT 2SM M12/M14 A3036 RMK T11201140 IEM_DS3505
ZBYN,1989-01-17 19:26,ZBYN 171926Z AUTO 00000KT 2SM M12/M14 A3036 RMK T11201140 IEM_DS3505
ZBYN,1989-01-17 21:00,ZBYN 172100Z AUTO 00000KT 2 1/2SM M11/M13 RMK SLP315 T11101127 57008 IEM_DS3505
ZBYN,1989-01-17 22:00,ZBYN 172200Z AUTO 00000KT 1 1/2SM M11/M15 A3033 RMK T11101150 IEM_DS3505
ZBYN,1989-01-17 22:30,ZBYN 172230Z AUTO 00000KT 1 1/2SM M11/M15 A3033 RMK T11101150 IEM_DS3505
ZBYN,1989-01-17 23:00,ZBYN 172300Z AUTO 00000KT 1 1/2SM M12/M16 A3033 RMK T11201160 IEM_DS3505
ZBYN,1989-01-17 23:24,ZBYN 172324Z AUTO 00000KT 1 1/2SM M12/M16 A3033 RMK T11201160 IEM_DS3505
ZBYN,1989-01-18 00:00,ZBYN 180000Z AUTO 00000KT 2SM M11/M13 A3033 RMK SLP329 T11141130 52004 IEM_DS3505
ZBYN,1989-01-18 00:26,ZBYN 180026Z AUTO 00000KT 1SM M11/M13 A3033 RMK T11101130 IEM_DS3505
ZBYN,1989-01-18 01:00,ZBYN 180100Z AUTO 00000KT 1SM M10/M12 A3036 RMK T11001120 IEM_DS3505
ZBYN,1989-01-18 01:27,ZBYN 180127Z AUTO 00000KT 1SM M10/M12 A3036 RMK T11001120 IEM_DS3505
ZBYN,1989-01-18 02:00,ZBYN 180200Z AUTO 00000KT 1SM M08/M11 A3033 RMK T10801110 IEM_DS3505
ZBYN,1989-01-18 03:00,ZBYN 180300Z AUTO 00000KT 2 1/2SM M06/M10 A3033 RMK SLP321 T10581098 57002 IEM_DS3505
ZBYN,1989-01-18 04:00,ZBYN 180400Z AUTO 00000KT 1SM M03/M10 A3030 RMK T10301100 IEM_DS3505
ZBYN,1989-01-18 04:19,ZBYN 180419Z AUTO 00000KT 1SM M03/M10 A3030 RMK T10301100 IEM_DS3505
ZBYN,1989-01-18 04:28,ZBYN 180428Z AUTO 00000KT 1SM M03/M10 A3030 RMK T10301100 IEM_DS3505
ZBYN,1989-01-18 05:00,ZBYN 180500Z AUTO 00000KT 1SM M01/M11 A3027 RMK T10101110 IEM_DS3505
ZBYN,1989-01-18 05:10,ZBYN 180510Z AUTO 00000KT 1SM M01/M11 A3027 RMK T10101110 IEM_DS3505
ZBYN,1989-01-18 05:57,ZBYN 180557Z AUTO 00000KT 1SM M03/M10 A3030 RMK T10301100 IEM_DS3505
ZBYN,1989-01-18 06:00,ZBYN 180600Z AUTO 14002KT 2 1/2SM M00/M11 A3027 RMK SLP275 T10021108 4////1120 57034 IEM_DS3505
ZBYN,1989-01-18 06:24,ZBYN 180624Z AUTO 22006KT 1 1/4SM 00/M10 A3024 RMK T00001100 IEM_DS3505
ZBYN,1989-01-18 06:27,ZBYN 180627Z AUTO 22006KT 1 1/4SM 00/M10 A3024 RMK T00001100 IEM_DS3505
ZBYN,1989-01-18 07:00,ZBYN 180700Z AUTO 23006KT 1 1/4SM 00/M10 A3021 RMK T00001100 IEM_DS3505
ZBYN,1989-01-18 09:00,ZBYN 180900Z AUTO 00000KT 2 1/2SM M01/M06 A3021 RMK SLP269 T10121057 57006 IEM_DS3505
ZBYN,1989-01-18 09:25,ZBYN 180925Z AUTO 00000KT 1 1/4SM M01/M06 A3021 RMK T10101060 IEM_DS3505
ZBYN,1989-01-18 09:27,ZBYN 180927Z AUTO 00000KT 1 1/4SM M01/M06 A3021 RMK T10101060 IEM_DS3505
ZBYN,1989-01-18 10:00,ZBYN 181000Z AUTO 19004KT 1SM M03/M09 A3021 RMK T10301090 IEM_DS3505
ZBYN,1989-01-18 11:00,ZBYN 181100Z AUTO 00000KT 1SM M05/M09 A3021 RMK T10501090 IEM_DS3505
ZBYN,1989-01-18 11:24,ZBYN 181124Z AUTO 00000KT 1SM M05/M09 A3021 RMK T10501090 IEM_DS3505
ZBYN,1989-01-18 11:29,ZBYN 181129Z AUTO 00000KT 1SM M05/M09 A3021 RMK T10501090 IEM_DS3505
ZBYN,1989-01-18 12:00,ZBYN 181200Z AUTO 00000KT 4SM M04/M08 A3021 RMK SLP274 T10421077 57002 IEM_DS3505
ZBYN,1989-01-18 12:28,ZBYN 181228Z AUTO 00000KT 1SM M06/M09 A3021 RMK T10601090 IEM_DS3505
ZBYN,1989-01-18 13:27,ZBYN 181327Z AUTO 11004KT 1SM M07/M10 A3024 RMK T10701100 IEM_DS3505
ZBYN,1989-01-18 14:00,ZBYN 181400Z AUTO 00000KT 1SM M08/M11 A3024 RMK T10801110 IEM_DS3505
ZBYN,1989-01-18 14:02,ZBYN 181402Z AUTO 19004KT 1SM M03/M09 A3021 RMK T10301090 IEM_DS3505
ZBYN,1989-01-18 15:00,ZBYN 181500Z AUTO 00000KT 4SM M08/M10 RMK SLP285 T10761098 52014 IEM_DS3505
ZBYN,1989-01-18 15:24,ZBYN 181524Z AUTO 00000KT 1 1/4SM M09/M12 A3024 RMK T10901120 IEM_DS3505
ZBYN,1989-01-18 15:26,ZBYN 181526Z AUTO 00000KT 1 1/4SM M09/M12 A3024 RMK T10901120 IEM_DS3505
ZBYN,1989-01-18 15:30,ZBYN 181530Z AUTO 00000KT 1 1/4SM M09/M12 A3024 RMK T10901120 IEM_DS3505
ZBYN,1989-01-18 18:00,ZBYN 181800Z AUTO 00000KT 2SM M09/M11 RMK SLP275 T10911107 40008//// 57002 IEM_DS3505
ZBYN,1989-01-18 21:00,ZBYN 182100Z AUTO 00000KT 2SM M10/M12 RMK SLP267 T11041119 57011 IEM_DS3505
ZBYN,1989-01-19 00:00,ZBYN 190000Z AUTO 00000KT 4SM M10/M13 RMK SLP271 T10951131 54000 IEM_DS3505
ZBYN,1989-01-19 00:25,ZBYN 190025Z AUTO 00000KT 1/4SM M09/M10 A3021 RMK T10901100 IEM_DS3505
ZBYN,1989-01-19 00:27,ZBYN 190027Z AUTO 00000KT 1/4SM M09/M10 A3021 RMK T10901100 IEM_DS3505
ZBYN,1989-01-19 01:24,ZBYN 190124Z AUTO 00000KT 1/8SM M03/M09 A3024 RMK T10301090 IEM_DS3505
ZBYN,1989-01-19 01:26,ZBYN 190126Z AUTO 00000KT 1/4SM M09/M10 A3021 RMK T10901100 IEM_DS3505
ZBYN,1989-01-19 01:27,ZBYN 190127Z AUTO 00000KT 1/8SM M03/M09 A3024 RMK T10301090 IEM_DS3505
ZBYN,1989-01-19 02:00,ZBYN 190200Z AUTO 00000KT 1/8SM M03/M09 A3024 RMK T10301090 IEM_DS3505
ZBYN,1989-01-19 02:26,ZBYN 190226Z AUTO 00000KT 1/8SM M08/M09 A3024 RMK T10801090 IEM_DS3505
ZBYN,1989-01-19 03:00,ZBYN 190300Z AUTO 11004KT 1SM M08/M09 A3024 RMK SLP284 T10761086 52009 IEM_DS3505
ZBYN,1989-01-19 03:30,ZBYN 190330Z AUTO 00000KT 3/8SM M07/M08 A3024 RMK T10701080 IEM_DS3505
ZBYN,1989-01-19 04:00,ZBYN 190400Z AUTO 00000KT 3/8SM M07/M08 A3024 RMK T10701080 IEM_DS3505
ZBYN,1989-01-19 04:20,ZBYN 190420Z AUTO 00000KT 1/2SM M05/M07 A3021 RMK T10501070 IEM_DS3505
ZBYN,1989-01-19 04:21,ZBYN 190421Z AUTO 00000KT 1/2SM M05/M07 A3021 RMK T10501070 IEM_DS3505
ZBYN,1989-01-19 04:53,ZBYN 190453Z AUTO 00000KT 1/2SM M05/M07 A3021 RMK T10501070 IEM_DS3505
ZBYN,1989-01-19 05:00,ZBYN 190500Z AUTO 21006KT 1SM M04/M08 A3018 RMK T10401080 IEM_DS3505
ZBYN,1989-01-19 05:24,ZBYN 190524Z AUTO 21006KT 1SM M04/M08 A3018 RMK T10401080 IEM_DS3505
ZBYN,1989-01-19 05:27,ZBYN 190527Z AUTO 21006KT 1SM M04/M08 A3018 RMK T10401080 IEM_DS3505
ZBYN,1989-01-19 06:00,ZBYN 190600Z AUTO 18004KT 3SM M02/M07 A3015 RMK SLP251 T10231068 4////1113 57023 IEM_DS3505
ZBYN,1989-01-19 06:20,ZBYN 190620Z AUTO 23006KT 1SM M03/M07 A3015 RMK T10301070 IEM_DS3505
ZBYN,1989-01-19 07:00,ZBYN 190700Z AUTO 21004KT 1SM M02/M07 A3012 RMK T10201070 IEM_DS3505
ZBYN,1989-01-19 07:24,ZBYN 190724Z AUTO 21004KT 1SM M02/M07 A3012 RMK T10201070 IEM_DS3505
ZBYN,1989-01-19 07:34,ZBYN 190734Z AUTO 21004KT 1SM M02/M07 A3012 RMK T10201070 IEM_DS3505
ZBYN,1989-01-19 08:00,ZBYN 190800Z AUTO 00000KT 1SM M02/M06 A3012 RMK T10201060 IEM_DS3505
ZBYN,1989-01-19 08:36,ZBYN 190836Z AUTO 00000KT 1SM M02/M06 A3012 RMK T10201060 IEM_DS3505
ZBYN,1989-01-19 09:00,ZBYN 190900Z AUTO 00000KT 4SM M02/M06 A3012 RMK SLP246 T10241058 57007 IEM_DS3505
ZBYN,1989-01-19 09:25,ZBYN 190925Z AUTO 00000KT 1SM M03/M06 A3012 RMK T10301060 IEM_DS3505
ZBYN,1989-01-19 09:27,ZBYN 190927Z AUTO 00000KT 1SM M03/M06 A3012 RMK T10301060 IEM_DS3505
ZBYN,1989-01-19 10:00,ZBYN 191000Z AUTO 00000KT 1SM M04/M06 A3012 RMK T10401060 IEM_DS3505
ZBYN,1989-01-19 10:25,ZBYN 191025Z AUTO 00000KT 1SM M04/M06 A3012 RMK T10401060 IEM_DS3505
ZBYN,1989-01-19 10:34,ZBYN 191034Z AUTO 00000KT 1SM M04/M06 A3012 RMK T10401060 IEM_DS3505
ZBYN,1989-01-19 11:00,ZBYN 191100Z AUTO 00000KT 1SM M06/M08 A3015 RMK T10601080 IEM_DS3505
ZBYN,1989-01-19 11:16,ZBYN 191116Z AUTO 00000KT 1SM M06/M08 A3015 RMK T10601080 IEM_DS3505
ZBYN,1989-01-19 12:00,ZBYN 191200Z AUTO 00000KT 4SM M06/M07 A3018 RMK SLP264 T10611069 52011 IEM_DS3505
ZBYN,1989-01-19 12:24,ZBYN 191224Z AUTO 10004KT 1SM M08/M10 A3018 RMK T10801100 IEM_DS3505
ZBYN,1989-01-19 12:28,ZBYN 191228Z AUTO 10004KT 1SM M08/M10 A3018 RMK T10801100 IEM_DS3505
ZBYN,1989-01-19 13:00,ZBYN 191300Z AUTO 09006KT 1SM M09/M11 A3021 RMK T10901110 IEM_DS3505
ZBYN,1989-01-19 13:13,ZBYN 191313Z AUTO 09006KT 1SM M09/M11 A3021 RMK T10901110 IEM_DS3505
ZBYN,1989-01-19 13:21,ZBYN 191321Z AUTO 09006KT 1SM M09/M11 A3021 RMK T10901110 IEM_DS3505
ZBYN,1989-01-19 14:00,ZBYN 191400Z AUTO 11006KT 1SM M10/M12 A3024 RMK T11001120 IEM_DS3505
ZBYN,1989-01-19 14:22,ZBYN 191422Z AUTO 11006KT 1SM M10/M12 A3024 RMK T11001120 IEM_DS3505
ZBYN,1989-01-19 15:00,ZBYN 191500Z AUTO 00000KT 3SM M09/M10 A3024 RMK SLP288 T10881099 52021 IEM_DS3505
ZBYN,1989-01-19 17:22,ZBYN 191722Z AUTO 00000KT 1SM M12/M13 A3024 RMK T11201130 IEM_DS3505
ZBYN,1989-01-19 18:00,ZBYN 191800Z AUTO 00000KT 1/4SM M11/M12 RMK SLP284 T11121124 41018//// 52001 IEM_DS3505
ZBYN,1989-01-19 21:00,ZBYN 192100Z AUTO 00000KT 1/8SM M09/M11 A3027 RMK SLP284 T10931109 52003 IEM_DS3505
ZBYN,1989-01-19 21:44,ZBYN 192144Z AUTO 00000KT 1SM M10/M11 A3027 RMK T11001110 IEM_DS3505
ZBYN,1989-01-19 23:21,ZBYN 192321Z AUTO 13006KT 1/8SM M10/M11 A3030 RMK T11001110 IEM_DS3505
ZBYN,1989-01-20 00:00,ZBYN 200000Z AUTO 00000KT 1/8SM M11/M12 A3030 RMK SLP313 T11101122 52017 IEM_DS3505
ZBYN,1989-01-20 00:16,ZBYN 200016Z AUTO 00000KT 0SM M11/M11 A3033 RMK T11101110 IEM_DS3505
ZBYN,1989-01-20 03:00,ZBYN 200300Z AUTO 18002KT 1/4SM M08/M09 A3033 RMK SLP315 T10811091 52002 IEM_DS3505
ZBYN,1989-01-20 04:00,ZBYN 200400Z AUTO 00000KT 1/2SM M07/M09 A3033 RMK T10701090 IEM_DS3505
ZBYN,1989-01-20 05:00,ZBYN 200500Z AUTO 00000KT 1SM M05/M06 A3030 RMK T10501060 IEM_DS3505
ZBYN,1989-01-20 06:00,ZBYN 200600Z AUTO 18004KT 1/2SM M03/M06 A3027 RMK SLP292 T10331062 4////1129 57016 IEM_DS3505
ZBYN,1989-01-20 07:00,ZBYN 200700Z AUTO 00000KT 1SM M01/M07 A3024 RMK T10101070 IEM_DS3505
ZBYN,1989-01-20 08:00,ZBYN 200800Z AUTO 00000KT 1SM M01/M07 A3024 RMK T10101070 IEM_DS3505
ZBYN,1989-01-20 09:00,ZBYN 200900Z AUTO 00000KT 4SM M02/M06 A3024 RMK SLP278 T10181061 57007 IEM_DS3505
ZBYN,1989-01-20 10:00,ZBYN 201000Z AUTO 00000KT 1/2SM M04/M06 A3024 RMK T10401060 IEM_DS3505
ZBYN,1989-01-20 11:00,ZBYN 201100Z AUTO 00000KT 1SM M06/M08 A3027 RMK T10601080 IEM_DS3505
ZBYN,1989-01-20 12:00,ZBYN 201200Z AUTO 00000KT 1 1/4SM M06/M08 A3030 RMK SLP303 T10631075 50025 IEM_DS3505
ZBYN,1989-01-20 13:00,ZBYN 201300Z AUTO 00000KT 1SM M08/M11 A3030 RMK T10801110 IEM_DS3505
ZBYN,1989-01-20 14:00,ZBYN 201400Z AUTO 12004KT 1SM M09/M12 A3033 RMK T10901120 IEM_DS3505
ZBYN,1989-01-20 15:00,ZBYN 201500Z AUTO 16002KT 3SM M09/M10 A3036 RMK SLP331 T10911102 52025 IEM_DS3505
ZBYN,1989-01-20 16:00,ZBYN 201600Z AUTO 00000KT 1 1/4SM M10/M12 A3036 RMK T11001120 IEM_DS3505
ZBYN,1989-01-20 17:00,ZBYN 201700Z AUTO 12004KT 1 1/4SM M11/M15 A3036 RMK T11101150 IEM_DS3505
ZBYN,1989-01-20 18:00,ZBYN 201800Z AUTO 00000KT 1/8SM M12/M13 RMK T11181130 41011//// 52002 IEM_DS3505
ZBYN,1989-01-20 20:00,ZBYN 202000Z AUTO 00000KT 1 1/4SM M13/M14 A3036 RMK T11301140 IEM_DS3505
ZBYN,1989-01-20 21:00,ZBYN 202100Z AUTO 00000KT 1/8SM M10/M12 RMK SLP323 T11031115 54000 IEM_DS3505
ZBYN,1989-01-20 22:00,ZBYN 202200Z AUTO 00000KT 1SM RMK IEM_DS3505
ZBYN,1989-01-20 23:00,ZBYN 202300Z AUTO 00000KT 1/2SM M13/M13 A3039 RMK T11301130 IEM_DS3505
ZBYN,1989-01-21 00:00,ZBYN 210000Z AUTO 00000KT 1/8SM M11/M12 A3039 RMK SLP348 T11111123 52013 IEM_DS3505
ZBYN,1989-01-21 01:00,ZBYN 210100Z AUTO 00000KT 0SM M12/M13 A3042 RMK T11201130 IEM_DS3505
ZBYN,1989-01-21 02:00,ZBYN 210200Z AUTO 00000KT 0SM M11/M12 A3045 RMK T11101120 IEM_DS3505
ZBYN,1989-01-21 03:00,ZBYN 210300Z AUTO 00000KT 2 1/2SM M06/M06 A3042 RMK SLP348 T10571064 52005 IEM_DS3505
ZBYN,1989-01-21 04:00,ZBYN 210400Z AUTO 20004KT 1/2SM M05/M07 A3039 RMK T10501070 IEM_DS3505
ZBYN,1989-01-21 05:00,ZBYN 210500Z AUTO 21004KT 1SM M01/M09 A3036 RMK T10101090 IEM_DS3505
ZBYN,1989-01-21 06:00,ZBYN 210600Z AUTO 18002KT 4SM M01/M07 RMK SLP311 T10081071 4////1134 57030 IEM_DS3505
ZBYN,1989-01-21 07:00,ZBYN 210700Z AUTO 00000KT 1SM A3030 RMK IEM_DS3505
ZBYN,1989-01-21 08:00,ZBYN 210800Z AUTO 1SM 00/M07 A3033 RMK T00001070 IEM_DS3505
ZBYN,1989-01-21 09:00,ZBYN 210900Z AUTO 18002KT 2 1/2SM M01/M05 RMK SLP282 T10141049 57025 IEM_DS3505
ZBYN,1989-01-21 10:00,ZBYN 211000Z AUTO 18004KT 1SM M03/M06 A3033 RMK T10301060 IEM_DS3505
ZBYN,1989-01-21 11:00,ZBYN 211100Z AUTO 11006KT 1SM M04/M08 A3036 RMK T10401080 IEM_DS3505
ZBYN,1989-01-21 12:00,ZBYN 211200Z AUTO 14002KT 5SM M04/M08 A3036 RMK SLP326 T10381076 52015 IEM_DS3505
ZBYN,1989-01-21 13:00,ZBYN 211300Z AUTO 00000KT 1SM M05/M08 A3039 RMK T10501080 IEM_DS3505
ZBYN,1989-01-21 14:00,ZBYN 211400Z AUTO 15006KT 1SM M06/M08 A3036 RMK T10601080 IEM_DS3505
ZBYN,1989-01-21 15:00,ZBYN 211500Z AUTO 00000KT 5SM M06/M08 A3036 RMK SLP322 T10621082 52001 IEM_DS3505
ZBYN,1989-01-21 16:00,ZBYN 211600Z AUTO 36004KT 1SM M07/M08 A3033 RMK T10701080 IEM_DS3505
ZBYN,1989-01-21 17:00,ZBYN 211700Z AUTO 00000KT 1SM M08/M10 A3030 RMK T10801100 IEM_DS3505
ZBYN,1989-01-21 18:00,ZBYN 211800Z AUTO 00000KT 4SM M07/M09 A3030 RMK SLP291 T10701087 40002//// 57021 IEM_DS3505
ZBYN,1989-01-21 21:00,ZBYN 212100Z AUTO 00000KT 2SM M08/M09 RMK SLP275 T10791089 57017 IEM_DS3505
ZBYN,1989-01-22 00:00,ZBYN 220000Z AUTO 00000KT 2SM M09/M10 RMK SLP279 T10931104 57003 IEM_DS3505
ZBYN,1989-01-22 01:00,ZBYN 220100Z AUTO 10006KT 1SM M09/M12 A3024 RMK T10901120 IEM_DS3505
ZBYN,1989-01-22 02:00,ZBYN 220200Z AUTO 00000KT 1SM M07/M09 A3021 RMK T10701090 IEM_DS3505
ZBYN,1989-01-22 03:00,ZBYN 220300Z AUTO 00000KT 2SM M04/M07 A3021 RMK SLP270 T10451073 57004 IEM_DS3505
ZBYN,1989-01-22 04:00,ZBYN 220400Z AUTO 18004KT 1SM M02/M06 A3021 RMK T10201060 IEM_DS3505
ZBYN,1989-01-22 06:00,ZBYN 220600Z AUTO 16004KT 3SM 00/M07 A3015 RMK SLP232 T00011066 4////1095 57028 IEM_DS3505
ZBYN,1989-01-22 07:00,ZBYN 220700Z AUTO 21008KT 2SM 02/M08 A3012 RMK T00201080 IEM_DS3505
ZBYN,1989-01-22 08:00,ZBYN 220800Z AUTO 25008KT 2SM 02/M06 A3012 RMK T00201060 IEM_DS3505
ZBYN,1989-01-22 09:00,ZBYN 220900Z AUTO 20004KT 4SM 01/M06 RMK SLP229 T00071061 57003 IEM_DS3505
ZBYN,1989-01-22 10:00,ZBYN 221000Z AUTO 00000KT 2SM M01/M06 A3012 RMK T10101060 IEM_DS3505
ZBYN,1989-01-22 11:00,ZBYN 221100Z AUTO 00000KT 2SM M02/M06 A3012 RMK T10201060 IEM_DS3505
ZBYN,1989-01-22 12:00,ZBYN 221200Z AUTO 00000KT 5SM M03/M06 RMK SLP252 T10261064 52013 IEM_DS3505
ZBYN,1989-01-22 13:00,ZBYN 221300Z AUTO 33010KT 7SM M02/M09 A3018 RMK T10201090 IEM_DS3505
ZBYN,1989-01-22 16:00,ZBYN 221600Z AUTO 31012KT 7SM M03/M13 A3024 RMK T10301130 IEM_DS3505
ZBYN,1989-01-22 17:00,ZBYN 221700Z AUTO 28008KT 7SM M02/M13 A3024 RMK T10201130 IEM_DS3505
ZBYN,1989-01-22 18:00,ZBYN 221800Z AUTO 22004KT 9SM M06/M12 RMK SLP267 T10581117 40016//// 52005 IEM_DS3505
ZBYN,1989-01-22 21:00,ZBYN 222100Z AUTO 14004KT 6SM M08/M13 RMK SLP272 T10841128 52001 IEM_DS3505
ZBYN,1989-01-22 23:00,ZBYN 222300Z AUTO 09006KT 7SM M11/M14 A3027 RMK T11101140 IEM_DS3505
ZBYN,1989-01-23 00:00,ZBYN 230000Z AUTO 11004KT 11SM M09/M13 A3030 RMK SLP300 T10931134 52018 IEM_DS3505
ZBYN,1989-01-23 01:00,ZBYN 230100Z AUTO 08006KT 7SM M08/M14 A3030 RMK T10801140 IEM_DS3505
ZBYN,1989-01-23 02:00,ZBYN 230200Z AUTO 13006KT 7SM M05/M12 A3033 RMK T10501120 IEM_DS3505
ZBYN,1989-01-23 03:00,ZBYN 230300Z AUTO 11006KT 7SM M02/M09 A3033 RMK SLP298 T10201094 52012 IEM_DS3505
ZBYN,1989-01-23 04:00,ZBYN 230400Z AUTO 00000KT 7SM 00/M10 A3033 RMK T00001100 IEM_DS3505
ZBYN,1989-01-23 05:00,ZBYN 230500Z AUTO 19008KT 7SM 02/M09 A3030 RMK T00201090 IEM_DS3505
ZBYN,1989-01-23 06:00,ZBYN 230600Z AUTO 16004KT 7SM 02/M10 RMK SLP281 T00201098 4////1097 57017 IEM_DS3505
ZBYN,1989-01-23 07:00,ZBYN 230700Z AUTO 20006KT 7SM 03/M11 A3027 RMK T00301110 IEM_DS3505
ZBYN,1989-01-23 08:00,ZBYN 230800Z AUTO 20008KT 7SM 03/M12 A3027 RMK T00301120 IEM_DS3505
ZBYN,1989-01-23 09:00,ZBYN 230900Z AUTO 20004KT 8SM 01/M11 A3027 RMK SLP281 T00101107 57006 IEM_DS3505
ZBYN,1989-01-23 10:00,ZBYN 231000Z AUTO 18002KT 7SM A3027 RMK IEM_DS3505
ZBYN,1989-01-23 12:00,ZBYN 231200Z AUTO 00000KT 11SM M02/M08 A3030 RMK SLP298 T10161083 52009 IEM_DS3505
ZBYN,1989-01-23 13:00,ZBYN 231300Z AUTO 12006KT 6SM M05/M10 A3030 RMK T10501100 IEM_DS3505
ZBYN,1989-01-23 14:00,ZBYN 231400Z AUTO 00000KT 6SM M06/M08 A3030 RMK T10601080 IEM_DS3505
ZBYN,1989-01-23 15:00,ZBYN 231500Z AUTO 00000KT 7SM M05/M07 A3030 RMK SLP294 T10501071 52003 IEM_DS3505
ZBYN,1989-01-23 16:00,ZBYN 231600Z AUTO 11006KT 6SM M07/M10 A3030 RMK T10701100 IEM_DS3505
ZBYN,1989-01-23 18:00,ZBYN 231800Z AUTO 00000KT 7SM M06/M09 RMK SLP280 T10611093 40027//// 57008 IEM_DS3505
ZBYN,1989-01-23 23:00,ZBYN 232300Z AUTO 00000KT 6SM M10/M12 A3027 RMK T11001120 IEM_DS3505
ZBYN,1989-01-24 00:00,ZBYN 240000Z AUTO 00000KT 5SM M08/M10 RMK SLP290 T10801099 52007 IEM_DS3505
ZBYN,1989-01-24 03:00,ZBYN 240300Z AUTO 16002KT 5SM M02/M10 A3027 RMK SLP285 T10191102 54000 IEM_DS3505
ZBYN,1989-01-24 04:00,ZBYN 240400Z AUTO 00000KT 7SM 00/M09 A3027 RMK T00001090 IEM_DS3505
ZBYN,1989-01-24 05:00,ZBYN 240500Z AUTO 00000KT 7SM 02/M09 A3021 RMK T00201090 IEM_DS3505
ZBYN,1989-01-24 06:00,ZBYN 240600Z AUTO 18006KT 4SM 01/M10 A3018 RMK SLP242 T00121098 4////1085 57035 IEM_DS3505
ZBYN,1989-01-24 07:00,ZBYN 240700Z AUTO 16004KT 7SM 03/M07 A3015 RMK T00301070 IEM_DS3505
ZBYN,1989-01-24 08:00,ZBYN 240800Z AUTO 21008KT 7SM 03/M10 A3012 RMK T00301100 IEM_DS3505
ZBYN,1989-01-24 09:00,ZBYN 240900Z AUTO 18006KT 4SM 02/M08 RMK SLP231 T00161082 57011 IEM_DS3505
ZBYN,1989-01-24 11:00,ZBYN 241100Z AUTO 09004KT 7SM M02/M06 A3015 RMK T10201060 IEM_DS3505
ZBYN,1989-01-24 12:00,ZBYN 241200Z AUTO 00000KT 9SM M01/M05 A3015 RMK SLP246 T10141052 52007 IEM_DS3505
ZBYN,1989-01-24 13:00,ZBYN 241300Z AUTO 00000KT 7SM M04/M06 A3015 RMK T10401060 IEM_DS3505
ZBYN,1989-01-24 14:00,ZBYN 241400Z AUTO 00000KT 7SM M05/M07 A3015 RMK T10501070 IEM_DS3505
ZBYN,1989-01-24 15:00,ZBYN 241500Z AUTO 00000KT 7SM M04/M06 A3015 RMK SLP238 T10431056 57002 IEM_DS3505
ZBYN,1989-01-24 16:00,ZBYN 241600Z AUTO 09004KT 7SM M06/M09 A3015 RMK T10601090 IEM_DS3505
ZBYN,1989-01-24 18:00,ZBYN 241800Z AUTO 00000KT 9SM M06/M08 RMK SLP238 T10641080 40023//// 52001 IEM_DS3505
ZBYN,1989-01-24 19:00,ZBYN 241900Z AUTO 08006KT 7SM M07/M10 A3015 RMK T10701100 IEM_DS3505
ZBYN,1989-01-24 21:00,ZBYN 242100Z AUTO 00000KT 7SM M08/M09 RMK SLP235 T10771087 57004 IEM_DS3505
ZBYN,1989-01-24 22:00,ZBYN 242200Z AUTO 00000KT 7SM M10/M11 A3012 RMK T11001110 IEM_DS3505
ZBYN,1989-01-24 23:00,ZBYN 242300Z AUTO 11006KT 7SM M10/M13 A3015 RMK T11001130 IEM_DS3505
ZBYN,1989-01-25 00:00,ZBYN 250000Z AUTO 22002KT 6SM M09/M10 A3015 RMK SLP257 T10901101 52013 IEM_DS3505
ZBYN,1989-01-25 01:00,ZBYN 250100Z AUTO 00000KT 5SM M08/M11 A3021 RMK T10801110 IEM_DS3505
ZBYN,1989-01-25 02:00,ZBYN 250200Z AUTO 00000KT 2SM M06/M08 A3021 RMK T10601080 IEM_DS3505
ZBYN,1989-01-25 03:00,ZBYN 250300Z AUTO 14004KT 5SM M04/M09 A3021 RMK SLP266 T10431087 52011 IEM_DS3505
ZBYN,1989-01-25 04:00,ZBYN 250400Z AUTO 21006KT 5SM M02/M07 A3021 RMK T10201070 IEM_DS3505
ZBYN,1989-01-25 05:00,ZBYN 250500Z AUTO 21008KT 5SM 01/M08 A3015 RMK T00101080 IEM_DS3505
ZBYN,1989-01-25 06:00,ZBYN 250600Z AUTO 25006KT 5SM 03/M08 A3015 RMK SLP239 T00261075 4////1092 57016 IEM_DS3505
ZBYN,1989-01-25 07:00,ZBYN 250700Z AUTO 27008KT 6SM 03/M13 A3015 RMK T00301130 IEM_DS3505
ZBYN,1989-01-25 08:00,ZBYN 250800Z AUTO 32021KT 6SM M03/M16 A3015 RMK T10301160 IEM_DS3505
ZBYN,1989-01-25 09:00,ZBYN 250900Z AUTO 32014KT 11SM 01/M22 A3018 RMK SLP255 T00141220 52010 IEM_DS3505
ZBYN,1989-01-25 10:00,ZBYN 251000Z AUTO 33014KT 6SM 00/M21 A3021 RMK T00001210 IEM_DS3505
ZBYN,1989-01-25 11:00,ZBYN 251100Z AUTO 31016KT 6SM M01/M15 A3024 RMK T10101150 IEM_DS3505
ZBYN,1989-01-25 12:00,ZBYN 251200Z AUTO 32004KT 9SM M02/M16 RMK SLP296 T10151161 52030 IEM_DS3505
ZBYN,1989-01-25 13:00,ZBYN 251300Z AUTO 29006KT 7SM M04/M13 A3030 RMK T10401130 IEM_DS3505
ZBYN,1989-01-25 15:00,ZBYN 251500Z AUTO 32006KT 9SM M05/M13 A3033 RMK SLP312 T10511128 52016 IEM_DS3505
ZBYN,1989-01-25 18:00,ZBYN 251800Z AUTO 32004KT 7SM M06/M20 RMK SLP323 T10561195 40035//// 52021 IEM_DS3505
ZBYN,1989-01-25 19:00,ZBYN 251900Z AUTO 30010KT 7SM M08/M18 A3042 RMK T10801180 IEM_DS3505
ZBYN,1989-01-25 20:00,ZBYN 252000Z AUTO 31008KT 7SM M09/M18 A3042 RMK T10901180 IEM_DS3505
ZBYN,1989-01-25 21:00,ZBYN 252100Z AUTO 32004KT 7SM M08/M20 A3045 RMK SLP335 T10761196 52006 IEM_DS3505
ZBYN,1989-01-25 23:00,ZBYN 252300Z AUTO 34006KT 7SM M12/M17 A3047 RMK T11201170 IEM_DS3505
ZBYN,1989-01-26 00:00,ZBYN 260000Z AUTO 34006KT 9SM M09/M19 RMK SLP370 T10921186 52024 IEM_DS3505
ZBYN,1989-01-26 02:00,ZBYN 260200Z AUTO 32017KT 7SM M07/M18 A3053 RMK T10701180 IEM_DS3505
ZBYN,1989-01-26 03:00,ZBYN 260300Z AUTO 32008KT 12SM M06/M17 RMK SLP385 T10571173 52013 IEM_DS3505
ZBYN,1989-01-26 04:00,ZBYN 260400Z AUTO 35014KT 7SM M05/M17 A3056 RMK T10501170 IEM_DS3505
ZBYN,1989-01-26 05:00,ZBYN 260500Z AUTO 31008KT 7SM M04/M18 A3053 RMK T10401180 IEM_DS3505
ZBYN,1989-01-26 06:00,ZBYN 260600Z AUTO 22004KT 12SM M03/M16 A3053 RMK SLP365 T10341161 4////1099 57015 IEM_DS3505
ZBYN,1989-01-26 08:00,ZBYN 260800Z AUTO 25006KT 7SM M02/M17 A3050 RMK T10201170 IEM_DS3505
ZBYN,1989-01-26 09:00,ZBYN 260900Z AUTO 34004KT 9SM M03/M17 A3050 RMK SLP373 T10301167 52005 IEM_DS3505
ZBYN,1989-01-26 10:00,ZBYN 261000Z AUTO 35004KT 7SM M05/M16 A3053 RMK T10501160 IEM_DS3505
ZBYN,1989-01-26 11:00,ZBYN 261100Z AUTO 36006KT 7SM M07/M14 A3056 RMK T10701140 IEM_DS3505
ZBYN,1989-01-26 12:00,ZBYN 261200Z AUTO 36004KT 9SM M06/M19 A3056 RMK SLP399 T10581191 52016 IEM_DS3505
ZBYN,1989-01-26 13:00,ZBYN 261300Z AUTO 33006KT 7SM M09/M16 A3059 RMK T10901160 IEM_DS3505
ZBYN,1989-01-26 15:00,ZBYN 261500Z AUTO 32006KT 9SM M08/M19 RMK SLP410 T10801188 52012 IEM_DS3505
ZBYN,1989-01-26 17:00,ZBYN 261700Z AUTO 36008KT 7SM M10/M20 A3062 RMK T11001200 IEM_DS3505
ZBYN,1989-01-26 18:00,ZBYN 261800Z AUTO 36008KT 9SM M09/M19 A3062 RMK SLP412 T10891189 41017//// 52004 IEM_DS3505
ZBYN,1989-01-26 20:00,ZBYN 262000Z AUTO 11006KT 7SM A3065 RMK IEM_DS3505
ZBYN,1989-01-26 21:00,ZBYN 262100Z AUTO 00000KT 6SM M12/M19 A3062 RMK T11241194 IEM_DS3505
ZBYN,1989-01-26 22:00,ZBYN 262200Z AUTO 11006KT 7SM M14/M18 A3065 RMK T11401180 IEM_DS3505
ZBYN,1989-01-26 23:00,ZBYN 262300Z AUTO 09006KT 7SM M15/M18 A3068 RMK T11501180 IEM_DS3505
ZBYN,1989-01-27 00:00,ZBYN 270000Z AUTO 00000KT 6SM M13/M17 A3068 RMK SLP451 T11281170 52019 IEM_DS3505
ZBYN,1989-01-27 01:00,ZBYN 270100Z AUTO 00000KT 7SM M13/M16 RMK T11301160 IEM_DS3505
ZBYN,1989-01-27 02:00,ZBYN 270200Z AUTO 00000KT 6SM M10/M20 A3071 RMK T11001200 IEM_DS3505
ZBYN,1989-01-27 03:00,ZBYN 270300Z AUTO 36006KT 6SM M07/M16 A3071 RMK SLP450 T10681165 52006 IEM_DS3505
ZBYN,1989-01-27 04:00,ZBYN 270400Z AUTO 34010KT 6SM M05/M19 A3071 RMK T10501190 IEM_DS3505
ZBYN,1989-01-27 05:00,ZBYN 270500Z AUTO 36012KT 7SM M04/M19 A3068 RMK T10401190 IEM_DS3505
ZBYN,1989-01-27 06:00,ZBYN 270600Z AUTO 36004KT 7SM M05/M20 A3065 RMK SLP418 T10461199 4////1139 57027 IEM_DS3505
ZBYN,1989-01-27 07:00,ZBYN 270700Z AUTO 35012KT 7SM M04/M19 A3062 RMK T10401190 IEM_DS3505
ZBYN,1989-01-27 08:00,ZBYN 270800Z AUTO 33012KT 7SM M03/M19 A3062 RMK T10301190 IEM_DS3505
ZBYN,1989-01-27 09:00,ZBYN 270900Z AUTO 02004KT 11SM M04/M21 A3059 RMK SLP411 T10401212 57011 IEM_DS3505
ZBYN,1989-01-27 11:00,ZBYN 271100Z AUTO 16008KT 7SM M06/M19 A3059 RMK T10601190 IEM_DS3505
ZBYN,1989-01-27 12:00,ZBYN 271200Z AUTO 00000KT 12SM M08/M15 A3062 RMK SLP422 T10761151 52003 IEM_DS3505
ZBYN,1989-01-27 13:00,ZBYN 271300Z AUTO 01004KT 7SM M10/M16 A3062 RMK T11001160 IEM_DS3505
ZBYN,1989-01-27 14:00,ZBYN 271400Z AUTO 00000KT 7SM M10/M17 A3062 RMK T11001170 IEM_DS3505
ZBYN,1989-01-27 15:00,ZBYN 271500Z AUTO 34006KT 7SM M09/M16 A3065 RMK SLP424 T10911162 52010 IEM_DS3505
ZBYN,1989-01-27 17:00,ZBYN 271700Z AUTO 00000KT 7SM M12/M19 A3062 RMK T11201190 IEM_DS3505
ZBYN,1989-01-27 18:00,ZBYN 271800Z AUTO 34006KT 7SM M10/M18 RMK SLP420 T11041179 41033//// 57002 IEM_DS3505
ZBYN,1989-01-27 21:00,ZBYN 272100Z AUTO 36004KT 7SM M10/M18 RMK SLP416 T11021177 57003 IEM_DS3505
ZBYN,1989-01-27 22:00,ZBYN 272200Z AUTO 00000KT 6SM M14/M17 A3062 RMK T11401170 IEM_DS3505
ZBYN,1989-01-27 23:00,ZBYN 272300Z AUTO 00000KT 6SM M14/M18 A3062 RMK T11401180 IEM_DS3505
ZBYN,1989-01-28 00:00,ZBYN 280000Z AUTO 00000KT 6SM M11/M18 RMK SLP416 T11141184 57008 IEM_DS3505
ZBYN,1989-01-28 01:00,ZBYN 280100Z AUTO 35006KT 6SM M12/M15 A3062 RMK T11201150 IEM_DS3505
ZBYN,1989-01-28 02:00,ZBYN 280200Z AUTO 36006KT 6SM M08/M18 A3062 RMK T10801180 IEM_DS3505
ZBYN,1989-01-28 03:00,ZBYN 280300Z AUTO 32004KT 9SM M06/M18 A3062 RMK SLP410 T10641180 52001 IEM_DS3505
ZBYN,1989-01-28 04:00,ZBYN 280400Z AUTO 12004KT 6SM M03/M18 A3059 RMK T10301180 IEM_DS3505
ZBYN,1989-01-28 05:00,ZBYN 280500Z AUTO 00000KT 6SM M03/M18 A3053 RMK T10301180 IEM_DS3505
ZBYN,1989-01-28 06:00,ZBYN 280600Z AUTO 16004KT 16SM M02/M18 A3050 RMK SLP366 T10221180 4////1117 57035 IEM_DS3505
ZBYN,1989-01-28 07:00,ZBYN 280700Z AUTO 22006KT 6SM M02/M17 A3047 RMK T10201170 IEM_DS3505
ZBYN,1989-01-28 08:00,ZBYN 280800Z AUTO 00000KT 6SM M02/M20 A3045 RMK T10201200 IEM_DS3505
ZBYN,1989-01-28 09:00,ZBYN 280900Z AUTO 00000KT 16SM M03/M16 RMK SLP356 T10291157 57010 IEM_DS3505
ZBYN,1989-01-28 11:00,ZBYN 281100Z AUTO 20006KT 6SM M04/M15 A3045 RMK T10401150 IEM_DS3505
ZBYN,1989-01-28 12:00,ZBYN 281200Z AUTO 14002KT 12SM M04/M15 A3045 RMK SLP364 T10371153 52004 IEM_DS3505
ZBYN,1989-01-28 13:00,ZBYN 281300Z AUTO 13004KT 6SM M04/M15 A3047 RMK T10401150 IEM_DS3505
ZBYN,1989-01-28 14:00,ZBYN 281400Z AUTO 00000KT 6SM M05/M14 A3047 RMK T10501140 IEM_DS3505
ZBYN,1989-01-28 15:00,ZBYN 281500Z AUTO 11002KT 12SM M05/M13 A3047 RMK SLP359 T10541134 52001 IEM_DS3505
ZBYN,1989-01-28 16:00,ZBYN 281600Z AUTO 15004KT 6SM M07/M15 A3047 RMK T10701150 IEM_DS3505
ZBYN,1989-01-28 18:00,ZBYN 281800Z AUTO 11002KT 9SM M08/M12 A3045 RMK SLP349 T10821125 41017//// 57007 IEM_DS3505
ZBYN,1989-01-28 19:00,ZBYN 281900Z AUTO 08004KT 6SM M09/M15 A3042 RMK T10901150 IEM_DS3505
ZBYN,1989-01-28 21:00,ZBYN 282100Z AUTO 00000KT 9SM M09/M12 A3042 RMK SLP339 T10861125 57011 IEM_DS3505
ZBYN,1989-01-28 22:00,ZBYN 282200Z AUTO 11004KT 6SM M10/M14 A3042 RMK T11001140 IEM_DS3505
ZBYN,1989-01-28 23:00,ZBYN 282300Z AUTO 09004KT 6SM M11/M14 A3042 RMK T11101140 IEM_DS3505
ZBYN,1989-01-29 00:00,ZBYN 290000Z AUTO 00000KT 5SM M10/M14 A3042 RMK SLP345 T11021136 52002 IEM_DS3505
ZBYN,1989-01-29 01:00,ZBYN 290100Z AUTO 00000KT 2 1/2SM M10/M12 A3045 RMK T11001120 IEM_DS3505
ZBYN,1989-01-29 02:00,ZBYN 290200Z AUTO 00000KT 6SM M07/M14 A3045 RMK T10701140 IEM_DS3505
ZBYN,1989-01-29 03:00,ZBYN 290300Z AUTO 18004KT 7SM M05/M13 A3045 RMK SLP340 T10461132 52002 IEM_DS3505
ZBYN,1989-01-29 04:00,ZBYN 290400Z AUTO 00000KT 7SM M02/M13 A3042 RMK T10201130 IEM_DS3505
ZBYN,1989-01-29 05:00,ZBYN 290500Z AUTO 14004KT 7SM M02/M12 A3036 RMK SLP301 T10171120 57007 IEM_DS3505
ZBYN,1989-01-29 06:00,ZBYN 290600Z AUTO 22004KT 9SM M01/M13 RMK SLP307 T10121134 4////1105 57029 IEM_DS3505
ZBYN,1989-01-29 07:00,ZBYN 290700Z AUTO 21006KT 7SM M01/M13 A3030 RMK T10101130 IEM_DS3505
ZBYN,1989-01-29 08:00,ZBYN 290800Z AUTO 22006KT 6SM M02/M12 A3030 RMK T10201120 IEM_DS3505
ZBYN,1989-01-29 09:00,ZBYN 290900Z AUTO 14004KT 7SM M02/M12 A3030 RMK SLP301 T10171120 57007 IEM_DS3505
ZBYN,1989-01-29 10:00,ZBYN 291000Z AUTO 18004KT 6SM M03/M10 A3033 RMK T10301100 IEM_DS3505
ZBYN,1989-01-29 11:00,ZBYN 291100Z AUTO 13004KT 6SM M03/M11 A3036 RMK T10301110 IEM_DS3505
ZBYN,1989-01-29 12:00,ZBYN 291200Z AUTO 11004KT 7SM M03/M11 A3036 RMK SLP321 T10341112 52012 IEM_DS3505
ZBYN,1989-01-29 15:00,ZBYN 291500Z AUTO 14004KT 9SM M04/M09 RMK SLP322 T10401087 52010 IEM_DS3505
ZBYN,1989-01-29 16:00,ZBYN 291600Z AUTO 12006KT 6SM M06/M11 A3036 RMK T10601110 IEM_DS3505
ZBYN,1989-01-29 18:00,ZBYN 291800Z AUTO 00000KT 9SM M06/M09 RMK SLP299 T10641092 41010//// 57013 IEM_DS3505
ZBYN,1989-01-29 19:00,ZBYN 291900Z AUTO 11002KT 7SM M09/M12 A3033 RMK T10901120 IEM_DS3505
ZBYN,1989-01-29 21:00,ZBYN 292100Z AUTO 00000KT 6SM M10/M11 RMK SLP293 T10961112 57012 IEM_DS3505
ZBYN,1989-01-29 22:00,ZBYN 292200Z AUTO 00000KT 7SM M11/M15 A3030 RMK T11101150 IEM_DS3505
ZBYN,1989-01-29 23:00,ZBYN 292300Z AUTO 00000KT 7SM M11/M15 A3033 RMK T11101150 IEM_DS3505
ZBYN,1989-01-30 00:00,ZBYN 300000Z AUTO 00000KT 5SM M10/M12 RMK SLP321 T10961117 52022 IEM_DS3505
ZBYN,1989-01-30 01:00,ZBYN 300100Z AUTO 10004KT 2SM M09/M13 A3036 RMK T10901130 IEM_DS3505
ZBYN,1989-01-30 02:00,ZBYN 300200Z AUTO 00000KT 2SM M06/M11 A3036 RMK T10601110 IEM_DS3505
ZBYN,1989-01-30 03:00,ZBYN 300300Z AUTO 00000KT 5SM M04/M10 A3036 RMK SLP311 T10421104 54000 IEM_DS3505
ZBYN,1989-01-30 04:00,ZBYN 300400Z AUTO 26004KT 2 1/2SM M03/M09 A3033 RMK T10301090 IEM_DS3505
ZBYN,1989-01-30 05:00,ZBYN 300500Z AUTO 32010KT 4SM M01/M09 A3030 RMK T10101090 IEM_DS3505
ZBYN,1989-01-30 06:00,ZBYN 300600Z AUTO 34006KT 5SM 00/M09 A3027 RMK SLP285 T00001094 4////1103 57021 IEM_DS3505
ZBYN,1989-01-30 07:00,ZBYN 300700Z AUTO 00000KT 6SM 00/M09 A3027 RMK T00001090 IEM_DS3505
ZBYN,1989-01-30 08:00,ZBYN 300800Z AUTO 4SM 00/M09 A3030 RMK T00001090 IEM_DS3505
ZBYN,1989-01-30 09:00,ZBYN 300900Z AUTO 00000KT 5SM M01/M09 RMK SLP293 T10061086 52001 IEM_DS3505
ZBYN,1989-01-30 11:00,ZBYN 301100Z AUTO 36010KT 6SM M01/M11 A3036 RMK T10101110 IEM_DS3505
ZBYN,1989-01-30 12:00,ZBYN 301200Z AUTO 36014KT 5SM M02/M11 A3039 RMK SLP329 T10181106 52030 IEM_DS3505
ZBYN,1989-01-30 13:00,ZBYN 301300Z AUTO 09004KT 4SM M06/M09 A3039 RMK T10601090 IEM_DS3505
ZBYN,1989-01-30 14:00,ZBYN 301400Z AUTO 11006KT 4SM M06/M09 A3042 RMK T10601090 IEM_DS3505
ZBYN,1989-01-30 15:00,ZBYN 301500Z AUTO 09004KT 4SM M06/M10 A3039 RMK SLP319 T10641097 57007 IEM_DS3505
ZBYN,1989-01-30 16:00,ZBYN 301600Z AUTO 08006KT 5SM M08/M11 A3036 RMK T10801110 IEM_DS3505
ZBYN,1989-01-30 18:00,ZBYN 301800Z AUTO 00000KT 4SM M08/M09 A3039 RMK SLP321 T10751093 40005//// 52007 IEM_DS3505
ZBYN,1989-01-30 20:00,ZBYN 302000Z AUTO 11006KT 4SM M09/M12 A3039 RMK T10901120 IEM_DS3505
ZBYN,1989-01-30 21:00,ZBYN 302100Z AUTO 00000KT 4SM M08/M10 RMK SLP318 T10841103 57005 IEM_DS3505
ZBYN,1989-01-30 22:00,ZBYN 302200Z AUTO 4SM M10/M12 A3036 RMK T11001120 IEM_DS3505
ZBYN,1989-01-30 23:00,ZBYN 302300Z AUTO 00000KT 3SM M12/M12 A3036 RMK T11201120 IEM_DS3505
ZBYN,1989-01-31 00:00,ZBYN 310000Z AUTO 16002KT 4SM M07/M12 A3039 RMK SLP323 T10691123 52005 IEM_DS3505
ZBYN,1989-01-31 01:00,ZBYN 310100Z AUTO 28008KT 1SM M09/M11 A3042 RMK T10901110 IEM_DS3505
ZBYN,1989-01-31 02:00,ZBYN 310200Z AUTO 00000KT 3SM M03/M15 A3042 RMK T10301150 IEM_DS3505
ZBYN,1989-01-31 03:00,ZBYN 310300Z AUTO 32016KT 11SM M01/M14 A3045 RMK SLP335 T10081145 52013 IEM_DS3505
ZBYN,1989-01-31 04:00,ZBYN 310400Z AUTO 30023G27KT 7SM 00/M15 A3042 RMK T00001150 IEM_DS3505
ZBYN,1989-01-31 05:00,ZBYN 310500Z AUTO 30012KT 7SM 01/M12 A3039 RMK T00101120 IEM_DS3505
ZBYN,1989-01-31 06:00,ZBYN 310600Z AUTO 32016KT 16SM 00/M11 A3039 RMK SLP319 T00051106 4////1101 57014 IEM_DS3505
ZBYN,1989-01-31 07:00,ZBYN 310700Z AUTO 30019KT 7SM 01/M08 A3039 RMK T00101080 IEM_DS3505
ZBYN,1989-01-31 09:00,ZBYN 310900Z AUTO 32012KT 12SM M01/M20 A3039 RMK SLP326 T10131199 52002 IEM_DS3505
ZBYN,1989-01-31 10:00,ZBYN 311000Z AUTO 29012KT 7SM M03/M16 A3042 RMK T10301160 IEM_DS3505
ZBYN,1989-01-31 11:00,ZBYN 311100Z AUTO 30012KT 7SM M04/M16 A3045 RMK T10401160 IEM_DS3505
ZBYN,1989-01-31 12:00,ZBYN 311200Z AUTO 32006KT 19SM M04/M18 A3047 RMK SLP363 T10441184 52030 IEM_DS3505
ZBYN,1989-01-31 13:00,ZBYN 311300Z AUTO 30010KT 7SM M06/M17 A3047 RMK T10601170 IEM_DS3505
ZBYN,1989-01-31 15:00,ZBYN 311500Z AUTO 00000KT 19SM M07/M16 A3050 RMK SLP363 T10721165 52006 IEM_DS3505
ZBYN,1989-01-31 16:00,ZBYN 311600Z AUTO 28006KT 7SM M08/M17 A3050 RMK T10801170 IEM_DS3505
ZBYN,1989-01-31 18:00,ZBYN 311800Z AUTO 20004KT 19SM M09/M16 A3047 RMK SLP352 T10861161 40012//// 57010 IEM_DS3505
ZBYN,1989-01-31 19:00,ZBYN 311900Z AUTO 25008KT 7SM M10/M15 A3047 RMK T11001150 IEM_DS3505
ZBYN,1989-01-31 20:00,ZBYN 312000Z AUTO 11006KT 7SM M12/M15 A3045 RMK T11201150 IEM_DS3505
ZBYN,1989-01-31 21:00,ZBYN 312100Z AUTO 00000KT 7SM M11/M15 A3045 RMK SLP350 T11111147 57009 IEM_DS3505
ZBYN,1989-01-31 22:00,ZBYN 312200Z AUTO 08006KT 7SM M13/M14 A3047 RMK T11301140 IEM_DS3505
ZBYN,1989-01-31 23:00,ZBYN 312300Z AUTO 11004KT 7SM M14/M15 A3047 RMK T11401150 IEM_DS3505
ZBYN,1989-02-01 00:00,ZBYN 010000Z AUTO 00000KT 16SM M13/M16 A3047 RMK SLP371 T11291158 52010 IEM_DS3505
ZBYN,1989-02-01 01:00,ZBYN 010100Z AUTO 25008KT 7SM M10/M12 A3047 RMK T11001120 IEM_DS3505
ZBYN,1989-02-01 02:00,ZBYN 010200Z AUTO 27006KT 7SM M06/M17 A3047 RMK T10601170 IEM_DS3505
ZBYN,1989-02-01 03:00,ZBYN 010300Z AUTO 34004KT 12SM M03/M20 A3047 RMK SLP347 T10281196 57009 IEM_DS3505
ZBYN,1989-02-01 04:00,ZBYN 010400Z AUTO 32010KT 7SM M01/M19 A3045 RMK T10101190 IEM_DS3505
ZBYN,1989-02-01 06:00,ZBYN 010600Z AUTO 20006KT 12SM 00/M14 A3039 RMK SLP318 T00041138 4////1140 57023 IEM_DS3505
ZBYN,1989-02-01 07:00,ZBYN 010700Z AUTO 29010KT 7SM 01/M16 A3036 RMK T00101160 IEM_DS3505
ZBYN,1989-02-01 09:00,ZBYN 010900Z AUTO 32004KT 12SM 01/M26 A3036 RMK SLP316 T00101255 57005 IEM_DS3505
ZBYN,1989-02-01 11:00,ZBYN 011100Z AUTO 31006KT 7SM M04/M18 A3042 RMK T10401180 IEM_DS3505
ZBYN,1989-02-01 12:00,ZBYN 011200Z AUTO 00000KT 12SM M04/M22 RMK SLP365 T10431220 IEM_DS3505
ZBYN,1989-02-01 13:00,ZBYN 011300Z AUTO 35008KT 7SM M07/M16 A3047 RMK T10701160 IEM_DS3505
ZBYN,1989-02-01 14:00,ZBYN 011400Z AUTO 35006KT 7SM M07/M16 A3047 RMK T10701160 IEM_DS3505
ZBYN,1989-02-01 15:00,ZBYN 011500Z AUTO 36004KT 9SM M05/M15 A3050 RMK SLP362 T10541152 52013 IEM_DS3505
ZBYN,1989-02-01 16:00,ZBYN 011600Z AUTO 33004KT 7SM M09/M15 A3053 RMK T10901150 IEM_DS3505
ZBYN,1989-02-01 18:00,ZBYN 011800Z AUTO 34006KT 11SM M07/M15 RMK SLP371 T10701154 40027//// 52011 IEM_DS3505
ZBYN,1989-02-01 21:00,ZBYN 012100Z AUTO 34004KT 9SM M09/M19 RMK SLP374 T10921194 54000 IEM_DS3505
ZBYN,1989-02-01 22:00,ZBYN 012200Z AUTO 00000KT 7SM M12/M17 A3053 RMK T11201170 IEM_DS3505
ZBYN,1989-02-01 23:00,ZBYN 012300Z AUTO 00000KT 7SM M13/M17 A3056 RMK T11301170 IEM_DS3505
ZBYN,1989-02-02 00:00,ZBYN 020000Z AUTO 36004KT 9SM M10/M18 RMK SLP403 T10981181 52016 IEM_DS3505
ZBYN,1989-02-02 01:00,ZBYN 020100Z AUTO 00000KT 7SM M11/M16 A3062 RMK T11101160 IEM_DS3505
ZBYN,1989-02-02 02:00,ZBYN 020200Z AUTO 01012KT 7SM M06/M19 A3059 RMK T10601190 IEM_DS3505
ZBYN,1989-02-02 03:00,ZBYN 020300Z AUTO 36006KT 7SM M04/M17 RMK SLP397 T10371168 52003 IEM_DS3505
ZBYN,1989-02-02 04:00,ZBYN 020400Z AUTO 35008KT 7SM M02/M15 A3059 RMK T10201150 IEM_DS3505
ZBYN,1989-02-02 05:00,ZBYN 020500Z AUTO 13004KT 6SM 00/M12 A3053 RMK T00001120 IEM_DS3505
ZBYN,1989-02-02 06:00,ZBYN 020600Z AUTO 34006KT 9SM 00/M17 A3050 RMK SLP360 T00001171 4////1103 57030 IEM_DS3505
ZBYN,1989-02-02 07:00,ZBYN 020700Z AUTO 36004KT 6SM 01/M21 A3050 RMK T00101210 IEM_DS3505
ZBYN,1989-02-02 08:00,ZBYN 020800Z AUTO 00000KT 6SM 03/M18 A3047 RMK T00301180 IEM_DS3505
ZBYN,1989-02-02 09:00,ZBYN 020900Z AUTO 00000KT 7SM 00/M15 A3047 RMK SLP350 T00041149 57012 IEM_DS3505
ZBYN,1989-02-02 10:00,ZBYN 021000Z AUTO 23006KT 6SM M02/M11 A3047 RMK T10201110 IEM_DS3505
ZBYN,1989-02-02 11:00,ZBYN 021100Z AUTO 21002KT 6SM M04/M13 A3047 RMK T10401130 IEM_DS3505
ZBYN,1989-02-02 12:00,ZBYN 021200Z AUTO 00000KT 6SM M04/M10 A3047 RMK SLP362 T10361096 52003 IEM_DS3505
ZBYN,1989-02-02 13:00,ZBYN 021300Z AUTO 00000KT 6SM M05/M13 A3047 RMK T10501130 IEM_DS3505
ZBYN,1989-02-02 15:00,ZBYN 021500Z AUTO 00000KT 6SM M05/M08 A3045 RMK SLP347 T10531083 57006 IEM_DS3505
ZBYN,1989-02-02 16:00,ZBYN 021600Z AUTO 10002KT 6SM M07/M13 A3045 RMK T10701130 IEM_DS3505
ZBYN,1989-02-02 18:00,ZBYN 021800Z AUTO 00000KT 6SM M06/M10 A3042 RMK SLP330 T10641101 40019//// 57011 IEM_DS3505
ZBYN,1989-02-02 21:00,ZBYN 022100Z AUTO 34002KT 6SM M07/M14 RMK SLP319 T10741136 57011 IEM_DS3505
ZBYN,1989-02-02 22:00,ZBYN 022200Z AUTO 00000KT 6SM M09/M12 A3036 RMK T10901120 IEM_DS3505
ZBYN,1989-02-02 23:00,ZBYN 022300Z AUTO 00000KT 6SM M10/M11 A3036 RMK T11001110 IEM_DS3505
ZBYN,1989-02-03 00:00,ZBYN 030000Z AUTO 34002KT 6SM M09/M14 A3036 RMK SLP323 T10861142 57005 IEM_DS3505
ZBYN,1989-02-03 01:00,ZBYN 030100Z AUTO 00000KT 5SM M08/M13 A3039 RMK T10801130 IEM_DS3505
ZBYN,1989-02-03 02:00,ZBYN 030200Z AUTO 00000KT 7SM M04/M13 A3036 RMK T10401130 IEM_DS3505
ZBYN,1989-02-03 03:00,ZBYN 030300Z AUTO 02002KT 5SM M02/M14 A3036 RMK SLP311 T10241140 57004 IEM_DS3505
ZBYN,1989-02-03 04:00,ZBYN 030400Z AUTO 00000KT 6SM 00/M15 A3033 RMK T00001150 IEM_DS3505
ZBYN,1989-02-03 05:00,ZBYN 030500Z AUTO 17006KT 6SM 02/M13 A3030 RMK T00201130 IEM_DS3505
ZBYN,1989-02-03 06:00,ZBYN 030600Z AUTO 00000KT 5SM 03/M16 A3027 RMK SLP270 T00321158 4////1088 57029 IEM_DS3505
ZBYN,1989-02-03 07:00,ZBYN 030700Z AUTO 00000KT 7SM 04/M13 A3024 RMK T00401130 IEM_DS3505
ZBYN,1989-02-03 08:00,ZBYN 030800Z AUTO 24006KT 7SM 05/M15 A3024 RMK T00501150 IEM_DS3505
ZBYN,1989-02-03 09:00,ZBYN 030900Z AUTO 18002KT 5SM 03/M10 A3024 RMK SLP263 T00321103 57008 IEM_DS3505
ZBYN,1989-02-03 10:00,ZBYN 031000Z AUTO 17002KT 6SM 01/M11 A3024 RMK T00101110 IEM_DS3505
ZBYN,1989-02-03 11:00,ZBYN 031100Z AUTO 18004KT 6SM M01/M13 A3027 RMK T10101130 IEM_DS3505
ZBYN,1989-02-03 12:00,ZBYN 031200Z AUTO 00000KT 7SM M02/M12 RMK SLP288 T10201120 52012 IEM_DS3505
ZBYN,1989-02-03 15:00,ZBYN 031500Z AUTO 00000KT 6SM M05/M10 RMK SLP291 T10491095 52008 IEM_DS3505
ZBYN,1989-02-03 18:00,ZBYN 031800Z AUTO 00000KT 6SM M07/M10 RMK SLP282 T10661104 40045//// 57002 IEM_DS3505
ZBYN,1989-02-03 21:00,ZBYN 032100Z AUTO 34004KT 6SM M05/M11 RMK SLP279 T10511112 54000 IEM_DS3505
ZBYN,1989-02-04 00:00,ZBYN 040000Z AUTO 29002KT 5SM M06/M10 A3033 RMK SLP302 T10601101 52011 IEM_DS3505
ZBYN,1989-02-04 02:00,ZBYN 040200Z AUTO 35004KT 2SM M03/M11 A3036 RMK T10301110 IEM_DS3505
ZBYN,1989-02-04 03:00,ZBYN 040300Z AUTO 34004KT 4SM M01/M10 A3033 RMK SLP308 T10091100 52009 IEM_DS3505
ZBYN,1989-02-04 04:00,ZBYN 040400Z AUTO 11006KT 6SM 01/M12 A3033 RMK T00101120 IEM_DS3505
ZBYN,1989-02-04 05:00,ZBYN 040500Z AUTO 09006KT 6SM 02/M12 A3030 RMK T00201120 IEM_DS3505
ZBYN,1989-02-04 06:00,ZBYN 040600Z AUTO 11002KT 4SM 03/M11 A3027 RMK SLP274 T00311110 4////1078 57027 IEM_DS3505
ZBYN,1989-02-04 07:00,ZBYN 040700Z AUTO 12006KT 6SM 04/M09 A3027 RMK T00401090 IEM_DS3505
ZBYN,1989-02-04 08:00,ZBYN 040800Z AUTO 16006KT 6SM 04/M12 A3027 RMK T00401120 IEM_DS3505
ZBYN,1989-02-04 09:00,ZBYN 040900Z AUTO 22002KT 7SM 03/M10 A3027 RMK SLP268 T00301101 57003 IEM_DS3505
ZBYN,1989-02-04 10:00,ZBYN 041000Z AUTO 00000KT 6SM 01/M08 A3027 RMK T00101080 IEM_DS3505
ZBYN,1989-02-04 11:00,ZBYN 041100Z AUTO 17008KT 6SM M01/M10 A3030 RMK T10101100 IEM_DS3505
ZBYN,1989-02-04 12:00,ZBYN 041200Z AUTO 00000KT 7SM M02/M11 RMK SLP305 T10161113 52024 IEM_DS3505
ZBYN,1989-02-04 13:00,ZBYN 041300Z AUTO 06010KT 6SM M02/M11 A3033 RMK T10201110 IEM_DS3505
ZBYN,1989-02-04 15:00,ZBYN 041500Z AUTO 00000KT 7SM M04/M10 A3039 RMK SLP317 T10431101 52015 IEM_DS3505
ZBYN,1989-02-04 16:00,ZBYN 041600Z AUTO 00000KT 6SM M05/M12 A3039 RMK T10501120 IEM_DS3505
ZBYN,1989-02-04 18:00,ZBYN 041800Z AUTO 00000KT 6SM M06/M10 RMK SLP317 T10551099 40042//// 52005 IEM_DS3505
ZBYN,1989-02-04 19:00,ZBYN 041900Z AUTO 12006KT 4SM M08/M12 A3039 RMK T10801120 IEM_DS3505
ZBYN,1989-02-04 20:00,ZBYN 042000Z AUTO 00000KT 6SM M09/M12 A3039 RMK T10901120 IEM_DS3505
ZBYN,1989-02-04 21:00,ZBYN 042100Z AUTO 00000KT 4SM M08/M10 A3039 RMK SLP317 T10831102 57005 IEM_DS3505
ZBYN,1989-02-04 22:00,ZBYN 042200Z AUTO 00000KT 4SM M09/M12 A3039 RMK T10901120 IEM_DS3505
ZBYN,1989-02-04 23:00,ZBYN 042300Z AUTO 00000KT 4SM M10/M10 A3039 RMK T11001100 IEM_DS3505
ZBYN,1989-02-05 00:00,ZBYN 050000Z AUTO 36004KT 6SM M08/M12 A3042 RMK SLP333 T10761117 52008 IEM_DS3505
ZBYN,1989-02-05 01:00,ZBYN 050100Z AUTO 00000KT 4SM M08/M12 A3045 RMK T10801120 IEM_DS3505
ZBYN,1989-02-05 02:00,ZBYN 050200Z AUTO 00000KT 4SM M05/M11 A3045 RMK T10501110 IEM_DS3505
ZBYN,1989-02-05 03:00,ZBYN 050300Z AUTO 00000KT 6SM M01/M11 A3045 RMK SLP339 T10091106 52012 IEM_DS3505
ZBYN,1989-02-05 04:00,ZBYN 050400Z AUTO 00000KT 6SM 01/ A3045 RMK IEM_DS3505
ZBYN,1989-02-05 05:00,ZBYN 050500Z AUTO 00000KT 6SM 02/M10 A3042 RMK T00201100 IEM_DS3505
ZBYN,1989-02-05 06:00,ZBYN 050600Z AUTO 00000KT 6SM 03/M10 A3039 RMK SLP307 T00321098 4////1090 57024 IEM_DS3505
ZBYN,1989-02-05 08:00,ZBYN 050800Z AUTO 00000KT 7SM 06/M07 A3033 RMK T00601070 IEM_DS3505
ZBYN,1989-02-05 09:00,ZBYN 050900Z AUTO 25004KT 6SM 04/M08 A3033 RMK SLP298 T00431078 57011 IEM_DS3505
ZBYN,1989-02-05 10:00,ZBYN 051000Z AUTO 27004KT 6SM 02/M07 A3036 RMK T00201070 IEM_DS3505
ZBYN,1989-02-05 11:00,ZBYN 051100Z AUTO 00000KT 6SM M01/M07 RMK T10101070 IEM_DS3505
ZBYN,1989-02-05 12:00,ZBYN 051200Z AUTO 00000KT 7SM M03/M08 RMK SLP314 T10261085 52004 IEM_DS3505
ZBYN,1989-02-05 13:00,ZBYN 051300Z AUTO 11006KT 7SM M04/M10 A3039 RMK T10401100 IEM_DS3505
ZBYN,1989-02-05 14:00,ZBYN 051400Z AUTO 08006KT 7SM M04/M09 A3042 RMK T10401090 IEM_DS3505
ZBYN,1989-02-05 15:00,ZBYN 051500Z AUTO 00000KT 7SM M04/M08 A3039 RMK SLP315 T10351080 52011 IEM_DS3505
ZBYN,1989-02-05 16:00,ZBYN 051600Z AUTO 00000KT 7SM M07/M09 A3042 RMK T10701090 IEM_DS3505
ZBYN,1989-02-05 17:00,ZBYN 051700Z AUTO 00000KT 7SM M06/M10 A3039 RMK T10601100 IEM_DS3505
ZBYN,1989-02-05 18:00,ZBYN 051800Z AUTO 00000KT 7SM M04/M07 A3039 RMK SLP313 T10391073 40052//// 52004 IEM_DS3505
ZBYN,1989-02-05 20:00,ZBYN 052000Z AUTO 00000KT 6SM M07/M10 A3039 RMK T10701100 IEM_DS3505
ZBYN,1989-02-05 21:00,ZBYN 052100Z AUTO 36004KT 6SM M03/M10 A3036 RMK SLP300 T10341097 57009 IEM_DS3505
ZBYN,1989-02-05 22:00,ZBYN 052200Z AUTO 00000KT 4SM M07/M10 RMK T10701100 IEM_DS3505
ZBYN,1989-02-05 23:00,ZBYN 052300Z AUTO 00000KT 4SM M06/M09 A3036 RMK T10601090 IEM_DS3505
ZBYN,1989-02-06 00:00,ZBYN 060000Z AUTO 00000KT 5SM M03/M10 A3039 RMK SLP314 T10301096 52002 IEM_DS3505
ZBYN,1989-02-06 01:00,ZBYN 060100Z AUTO 00000KT 2SM M04/M08 A3039 RMK T10401080 IEM_DS3505
ZBYN,1989-02-06 03:00,ZBYN 060300Z AUTO 36004KT 5SM 01/M08 A3039 RMK SLP316 T00101080 52005 IEM_DS3505
ZBYN,1989-02-06 04:00,ZBYN 060400Z AUTO 06008KT 6SM 03/M10 A3039 RMK T00301100 IEM_DS3505
ZBYN,1989-02-06 06:00,ZBYN 060600Z AUTO 00000KT 5SM 04/M09 A3033 RMK SLP282 T00371089 4////1055 57025 IEM_DS3505
ZBYN,1989-02-06 07:00,ZBYN 060700Z AUTO 00000KT 6SM 05/M10 A3030 RMK T00501100 IEM_DS3505
ZBYN,1989-02-06 08:00,ZBYN 060800Z AUTO 22006KT 6SM 05/M12 A3027 RMK T00501120 IEM_DS3505
ZBYN,1989-02-06 09:00,ZBYN 060900Z AUTO 20006KT 7SM 02/M08 RMK SLP281 T00241076 57003 IEM_DS3505
ZBYN,1989-02-06 10:00,ZBYN 061000Z AUTO 24008KT 6SM 01/M06 A3030 RMK T00101060 IEM_DS3505
ZBYN,1989-02-06 11:00,ZBYN 061100Z AUTO 32004KT 6SM 00/M05 A3033 RMK T00001050 IEM_DS3505
ZBYN,1989-02-06 12:00,ZBYN 061200Z AUTO 00000KT 6SM 00/M04 RMK SLP292 T00051038 52008 IEM_DS3505
ZBYN,1989-02-06 13:00,ZBYN 061300Z AUTO 20004KT 6SM M01/M05 A3033 RMK T10101050 IEM_DS3505
ZBYN,1989-02-06 14:00,ZBYN 061400Z AUTO 00000KT 6SM M01/M05 A3036 RMK T10101050 IEM_DS3505
ZBYN,1989-02-06 15:00,ZBYN 061500Z AUTO 00000KT 6SM 01/M04 RMK SLP292 T00071036 52003 IEM_DS3505
ZBYN,1989-02-06 16:00,ZBYN 061600Z AUTO 00000KT 7SM M01/M04 A3033 RMK T10101040 IEM_DS3505
ZBYN,1989-02-06 17:00,ZBYN 061700Z AUTO 7SM M01/M03 A3033 RMK T10101030 IEM_DS3505
ZBYN,1989-02-06 18:00,ZBYN 061800Z AUTO 09004KT 6SM M02/M04 A3033 RMK 60000 SLP280 T10171045 40047//// 57007 IEM_DS3505
ZBYN,1989-02-06 21:00,ZBYN 062100Z AUTO 00000KT 6SM M03/M04 A3027 RMK SLP272 T10291043 57011 IEM_DS3505
ZBYN,1989-02-06 23:00,ZBYN 062300Z AUTO 00000KT 5SM M03/M05 A3027 RMK T10301050 IEM_DS3505
ZBYN,1989-02-07 00:00,ZBYN 070000Z AUTO 00000KT 5SM M03/M04 A3027 RMK 60004 SLP275 T10321043 57001 IEM_DS3505
ZBYN,1989-02-07 01:00,ZBYN 070100Z AUTO 4SM M03/M05 A3027 RMK T10301050 IEM_DS3505
ZBYN,1989-02-07 02:00,ZBYN 070200Z AUTO 00000KT 4SM M02/M04 A3030 RMK T10201040 IEM_DS3505
ZBYN,1989-02-07 03:00,ZBYN 070300Z AUTO 18004KT 5SM M01/M04 RMK SLP274 T10141038 54000 IEM_DS3505
ZBYN,1989-02-07 04:00,ZBYN 070400Z AUTO 00000KT 4SM M01/M04 A3027 RMK T10101040 IEM_DS3505
ZBYN,1989-02-07 06:00,ZBYN 070600Z AUTO 22004KT 5SM 00/M03 A3021 RMK SLP241 T00031033 4////1035 57029 IEM_DS3505
ZBYN,1989-02-07 07:00,ZBYN 070700Z AUTO 19006KT 7SM 01/M05 A3018 RMK T00101050 IEM_DS3505
ZBYN,1989-02-07 08:00,ZBYN 070800Z AUTO 00000KT 7SM 01/M05 A3018 RMK T00101050 IEM_DS3505
ZBYN,1989-02-07 09:00,ZBYN 070900Z AUTO 00000KT 5SM 01/M04 A3018 RMK SLP234 T00091035 57007 IEM_DS3505
ZBYN,1989-02-07 10:00,ZBYN 071000Z AUTO 00000KT 4SM 00/M04 A3018 RMK T00001040 IEM_DS3505
ZBYN,1989-02-07 11:00,ZBYN 071100Z AUTO 11004KT 5SM M01/M04 A3018 RMK T10101040 IEM_DS3505
ZBYN,1989-02-07 12:00,ZBYN 071200Z AUTO 00000KT 6SM M01/M04 A3021 RMK SLP256 T10121042 52016 IEM_DS3505
ZBYN,1989-02-07 14:00,ZBYN 071400Z AUTO 00000KT 7SM M03/M04 A3024 RMK T10301040 IEM_DS3505
ZBYN,1989-02-07 15:00,ZBYN 071500Z AUTO 00000KT 5SM M04/M05 RMK SLP270 T10401049 52011 IEM_DS3505
ZBYN,1989-02-07 16:00,ZBYN 071600Z AUTO 11004KT 5SM M07/M10 A3024 RMK T10701100 IEM_DS3505
ZBYN,1989-02-07 17:00,ZBYN 071700Z AUTO 10004KT 5SM M05/M07 A3024 RMK T10501070 IEM_DS3505
ZBYN,1989-02-07 18:00,ZBYN 071800Z AUTO 11002KT 4SM M05/M06 RMK SLP271 T10491059 40014//// 52007 IEM_DS3505
ZBYN,1989-02-07 19:00,ZBYN 071900Z AUTO 00000KT 4SM M06/M06 A3024 RMK T10601060 IEM_DS3505
ZBYN,1989-02-07 21:00,ZBYN 072100Z AUTO 32002KT 3/8SM M07/M08 A3024 RMK SLP267 T10701079 57006 IEM_DS3505
ZBYN,1989-02-07 22:00,ZBYN 072200Z AUTO 00000KT 1SM M06/M07 A3027 RMK T10601070 IEM_DS3505
ZBYN,1989-02-07 23:00,ZBYN 072300Z AUTO 16004KT 3/8SM M06/M07 A3027 RMK T10601070 IEM_DS3505
ZBYN,1989-02-08 00:00,ZBYN 080000Z AUTO 00000KT 1/8SM M06/M07 RMK SLP289 T10601068 52018 IEM_DS3505
ZBYN,1989-02-08 01:00,ZBYN 080100Z AUTO 00000KT 1/8SM M07/M07 A3030 RMK T10701070 IEM_DS3505
ZBYN,1989-02-08 02:00,ZBYN 080200Z AUTO 00000KT 1SM M05/M06 A3030 RMK T10501060 IEM_DS3505
ZBYN,1989-02-08 03:00,ZBYN 080300Z AUTO 18002KT 1/4SM M05/M05 A3030 RMK SLP296 T10461052 52004 IEM_DS3505
ZBYN,1989-02-08 04:00,ZBYN 080400Z AUTO 22008KT 1 1/4SM M01/M05 A3027 RMK T10101050 IEM_DS3505
ZBYN,1989-02-08 05:00,ZBYN 080500Z AUTO 22006KT 4SM 02/M06 A3024 RMK T00201060 IEM_DS3505
ZBYN,1989-02-08 06:00,ZBYN 080600Z AUTO 22004KT 7SM 03/M07 A3021 RMK SLP252 T00261072 4////1078 57029 IEM_DS3505
ZBYN,1989-02-08 07:00,ZBYN 080700Z AUTO 00000KT 5SM 03/M08 A3024 RMK T00301080 IEM_DS3505
ZBYN,1989-02-08 09:00,ZBYN 080900Z AUTO 04006KT 9SM 02/M10 A3021 RMK SLP254 T00251095 57002 IEM_DS3505
ZBYN,1989-02-08 10:00,ZBYN 081000Z AUTO 36006KT 6SM 01/M09 A3024 RMK T00101090 IEM_DS3505
ZBYN,1989-02-08 11:00,ZBYN 081100Z AUTO 33006KT 6SM M01/M09 A3027 RMK T10101090 IEM_DS3505
ZBYN,1989-02-08 12:00,ZBYN 081200Z AUTO 34006KT M00/M13 A3027 RMK SLP286 T10011129 52026 IEM_DS3505
ZBYN,1989-02-08 15:00,ZBYN 081500Z AUTO 00000KT 9SM M02/M13 A3033 RMK SLP304 T10231131 52015 IEM_DS3505
ZBYN,1989-02-08 16:00,ZBYN 081600Z AUTO 35006KT 7SM M03/M14 A3033 RMK T10301140 IEM_DS3505
ZBYN,1989-02-08 18:00,ZBYN 081800Z AUTO 00000KT 11SM M04/M14 RMK SLP289 T10361138 40039//// 57003 IEM_DS3505
ZBYN,1989-02-08 21:00,ZBYN 082100Z AUTO 36004KT 9SM M05/M13 RMK SLP294 T10501127 52002 IEM_DS3505
ZBYN,1989-02-08 23:00,ZBYN 082300Z AUTO 35006KT 7SM M07/M14 A3036 RMK T10701140 IEM_DS3505
ZBYN,1989-02-09 00:00,ZBYN 090000Z AUTO 36006KT 11SM M06/M14 A3039 RMK SLP321 T10591136 52018 IEM_DS3505
ZBYN,1989-02-09 01:00,ZBYN 090100Z AUTO 35014KT 7SM M05/M16 A3042 RMK T10501160 IEM_DS3505
ZBYN,1989-02-09 02:00,ZBYN 090200Z AUTO 36014KT 7SM M03/M15 A3045 RMK T10301150 IEM_DS3505
ZBYN,1989-02-09 03:00,ZBYN 090300Z AUTO 04006KT 9SM M03/M15 A3045 RMK SLP338 T10281148 52017 IEM_DS3505
ZBYN,1989-02-09 04:00,ZBYN 090400Z AUTO 36014KT 7SM M01/M16 A3045 RMK T10101160 IEM_DS3505
ZBYN,1989-02-09 05:00,ZBYN 090500Z AUTO 34008KT 7SM 00/M13 RMK T00001130 IEM_DS3505
ZBYN,1989-02-09 06:00,ZBYN 090600Z AUTO 02010KT 11SM 00/M15 RMK SLP308 T00031154 4////1081 57024 IEM_DS3505
ZBYN,1989-02-09 07:00,ZBYN 090700Z AUTO 01014KT 7SM 01/M18 A3036 RMK T00101180 IEM_DS3505
ZBYN,1989-02-09 08:00,ZBYN 090800Z AUTO 36014KT 7SM 01/M17 A3036 RMK T00101170 IEM_DS3505
ZBYN,1989-02-09 09:00,ZBYN 090900Z AUTO 02006KT 11SM 00/M15 A3036 RMK SLP304 T00001154 57004 IEM_DS3505
ZBYN,1989-02-09 11:00,ZBYN 091100Z AUTO 00000KT 7SM M03/M16 A3042 RMK T10301160 IEM_DS3505
ZBYN,1989-02-09 12:00,ZBYN 091200Z AUTO 00000KT 9SM M04/M13 RMK SLP340 T10421131 52024 IEM_DS3505
ZBYN,1989-02-09 13:00,ZBYN 091300Z AUTO 00000KT 7SM M05/M15 A3045 RMK T10501150 IEM_DS3505
ZBYN,1989-02-09 14:00,ZBYN 091400Z AUTO 00000KT 7SM M07/M14 A3045 RMK T10701140 IEM_DS3505
ZBYN,1989-02-09 15:00,ZBYN 091500Z AUTO 32006KT 9SM M05/M14 A3047 RMK SLP343 T10521142 52006 IEM_DS3505
ZBYN,1989-02-09 16:00,ZBYN 091600Z AUTO 32010KT 7SM M05/M16 A3045 RMK T10501160 IEM_DS3505
ZBYN,1989-02-09 17:00,ZBYN 091700Z AUTO 31008KT 7SM M07/M16 A3045 RMK T10701160 IEM_DS3505
ZBYN,1989-02-09 18:00,ZBYN 091800Z AUTO 00000KT 9SM M06/M15 A3045 RMK SLP338 T10601150 40012//// 57001 IEM_DS3505
ZBYN,1989-02-09 19:00,ZBYN 091900Z AUTO 00000KT 7SM M10/M16 A3045 RMK T11001160 IEM_DS3505
ZBYN,1989-02-09 20:00,ZBYN 092000Z AUTO 11008KT 7SM M10/M14 A3045 RMK T11001140 IEM_DS3505
ZBYN,1989-02-09 21:00,ZBYN 092100Z AUTO 09004KT 11SM M08/M16 A3042 RMK SLP336 T10841157 57006 IEM_DS3505
ZBYN,1989-02-09 22:00,ZBYN 092200Z AUTO 00000KT 7SM M10/M13 A3042 RMK T11001130 IEM_DS3505
ZBYN,1989-02-09 23:00,ZBYN 092300Z AUTO 00000KT 7SM M12/M14 A3042 RMK T11201140 IEM_DS3505
ZBYN,1989-02-10 00:00,ZBYN 100000Z AUTO 00000KT 7SM M10/M16 A3045 RMK SLP353 T11031160 52005 IEM_DS3505
ZBYN,1989-02-10 01:00,ZBYN 100100Z AUTO 20006KT 7SM A3042 RMK SLP289 4////1112 57033 IEM_DS3505
ZBYN,1989-02-10 03:00,ZBYN 100300Z AUTO 20004KT 6SM M02/M13 A3042 RMK SLP332 T10211128 57007 IEM_DS3505
ZBYN,1989-02-10 04:00,ZBYN 100400Z AUTO 24008KT 6SM M01/M15 A3039 RMK T10101150 IEM_DS3505
ZBYN,1989-02-10 05:00,ZBYN 100500Z AUTO 00000KT 6SM 01/M17 A3036 RMK T00101170 IEM_DS3505
ZBYN,1989-02-10 06:00,ZBYN 100600Z AUTO 20006KT 7SM 03/M11 RMK SLP289 T00261107 4////1112 57033 IEM_DS3505
ZBYN,1989-02-10 07:00,ZBYN 100700Z AUTO 21008KT 6SM 03/M15 A3030 RMK T00301150 IEM_DS3505
ZBYN,1989-02-10 08:00,ZBYN 100800Z AUTO 21008KT 6SM 04/M16 A3027 RMK T00401160 IEM_DS3505
ZBYN,1989-02-10 09:00,ZBYN 100900Z AUTO 20006KT 9SM 03/M10 A3027 RMK SLP275 T00341095 57015 IEM_DS3505
ZBYN,1989-02-10 10:00,ZBYN 101000Z AUTO 19004KT 6SM 01/M14 A3027 RMK T00101140 IEM_DS3505
ZBYN,1989-02-10 11:00,ZBYN 101100Z AUTO 24010KT 6SM 00/M13 RMK T00001130 IEM_DS3505
ZBYN,1989-02-10 12:00,ZBYN 101200Z AUTO 32004KT 19SM M00/M16 A3027 RMK SLP293 T10021159 52007 IEM_DS3505
ZBYN,1989-02-10 13:00,ZBYN 101300Z AUTO 31010KT 6SM M02/M15 A3030 RMK T10201150 IEM_DS3505
ZBYN,1989-02-10 14:00,ZBYN 101400Z AUTO 26008KT 7SM M02/M17 A3030 RMK T10201170 IEM_DS3505
ZBYN,1989-02-10 15:00,ZBYN 101500Z AUTO 36004KT 19SM M01/M20 RMK SLP285 T10131198 52005 IEM_DS3505
ZBYN,1989-02-10 17:00,ZBYN 101700Z AUTO 21006KT 7SM M06/M13 A3030 RMK T10601130 IEM_DS3505
ZBYN,1989-02-10 18:00,ZBYN 101800Z AUTO 00000KT 19SM M04/M13 RMK SLP276 T10401133 40040//// 57005 IEM_DS3505
ZBYN,1989-02-10 19:00,ZBYN 101900Z AUTO 00000KT 7SM M08/M14 A3030 RMK T10801140 IEM_DS3505
ZBYN,1989-02-10 21:00,ZBYN 102100Z AUTO 14004KT 12SM M08/M14 A3024 RMK SLP268 T10841139 57013 IEM_DS3505
ZBYN,1989-02-10 22:00,ZBYN 102200Z AUTO 09006KT 7SM M09/M15 A3024 RMK T10901150 IEM_DS3505
ZBYN,1989-02-10 23:00,ZBYN 102300Z AUTO 10006KT 7SM M09/M16 A3024 RMK T10901160 IEM_DS3505
ZBYN,1989-02-11 00:00,ZBYN 110000Z AUTO 00000KT 11SM M10/M14 A3024 RMK SLP278 T10981135 52001 IEM_DS3505
ZBYN,1989-02-11 01:00,ZBYN 110100Z AUTO 10006KT 7SM M05/M15 A3024 RMK T10501150 IEM_DS3505
ZBYN,1989-02-11 03:00,ZBYN 110300Z AUTO 11004KT 7SM M01/M13 A3024 RMK SLP255 T10071129 57008 IEM_DS3505
ZBYN,1989-02-11 04:00,ZBYN 110400Z AUTO 22004KT 7SM 01/M15 A3021 RMK T00101150 IEM_DS3505
ZBYN,1989-02-11 06:00,ZBYN 110600Z AUTO 20006KT 12SM 05/M11 A3012 RMK SLP217 T00541106 4////1102 57029 IEM_DS3505
ZBYN,1989-02-11 07:00,ZBYN 110700Z AUTO 23012KT 7SM 06/M12 A3012 RMK T00601120 IEM_DS3505
ZBYN,1989-02-11 08:00,ZBYN 110800Z AUTO 31012KT 7SM 07/M14 A3012 RMK T00701140 IEM_DS3505
ZBYN,1989-02-11 09:00,ZBYN 110900Z AUTO 29008KT 12SM 06/M12 A3012 RMK SLP213 T00611120 57009 IEM_DS3505
ZBYN,1989-02-11 11:00,ZBYN 111100Z AUTO 30008KT 7SM 00/M11 A3012 RMK T00001110 IEM_DS3505
ZBYN,1989-02-11 12:00,ZBYN 111200Z AUTO 00000KT 12SM 01/M12 A3012 RMK SLP237 T00121119 52011 IEM_DS3505
ZBYN,1989-02-11 13:00,ZBYN 111300Z AUTO 29006KT 7SM 01/M11 A3015 RMK T00101110 IEM_DS3505
ZBYN,1989-02-11 14:00,ZBYN 111400Z AUTO 25008KT 7SM 00/M11 A3015 RMK T00001110 IEM_DS3505
ZBYN,1989-02-11 15:00,ZBYN 111500Z AUTO 27004KT 11SM M02/M10 RMK SLP233 T10241105 52010 IEM_DS3505
ZBYN,1989-02-11 17:00,ZBYN 111700Z AUTO 12006KT 7SM M05/M09 A3018 RMK T10501090 IEM_DS3505
ZBYN,1989-02-11 18:00,ZBYN 111800Z AUTO 04002KT 9SM M02/M11 RMK SLP232 T10171114 40070//// 52006 IEM_DS3505
ZBYN,1989-02-11 20:00,ZBYN 112000Z AUTO 09004KT 7SM M07/M13 A3021 RMK T10701130 IEM_DS3505
ZBYN,1989-02-11 21:00,ZBYN 112100Z AUTO 04002KT 9SM M07/M11 A3021 RMK SLP245 T10661114 52005 IEM_DS3505
ZBYN,1989-02-11 22:00,ZBYN 112200Z AUTO 00000KT 7SM M08/M12 A3021 RMK T10801120 IEM_DS3505
ZBYN,1989-02-11 23:00,ZBYN 112300Z AUTO 00000KT 7SM M09/M13 A3024 RMK T10901130 IEM_DS3505
ZBYN,1989-02-12 00:00,ZBYN 120000Z AUTO 02004KT 9SM M03/M13 A3027 RMK SLP264 T10301132 52015 IEM_DS3505
ZBYN,1989-02-12 03:00,ZBYN 120300Z AUTO 22004KT 5SM 03/M12 A3030 RMK SLP278 T00261118 52016 IEM_DS3505
ZBYN,1989-02-12 04:00,ZBYN 120400Z AUTO 00000KT 7SM 05/M14 A3030 RMK T00501140 IEM_DS3505
ZBYN,1989-02-12 05:00,ZBYN 120500Z AUTO 36008KT 7SM 06/M19 A3027 RMK T00601190 IEM_DS3505
ZBYN,1989-02-12 06:00,ZBYN 120600Z AUTO 22002KT 7SM 07/M16 A3024 RMK SLP243 T00691163 4////1084 57024 IEM_DS3505
ZBYN,1989-02-12 07:00,ZBYN 120700Z AUTO 22008KT 7SM 08/M17 A3021 RMK T00801170 IEM_DS3505
ZBYN,1989-02-12 08:00,ZBYN 120800Z AUTO 24006KT 7SM 07/M18 A3021 RMK T00701180 IEM_DS3505
ZBYN,1989-02-12 09:00,ZBYN 120900Z AUTO 18002KT 12SM 07/M21 A3021 RMK SLP248 T00701208 57003 IEM_DS3505
ZBYN,1989-02-12 10:00,ZBYN 121000Z AUTO 00000KT 7SM 05/M12 A3021 RMK T00501120 IEM_DS3505
ZBYN,1989-02-12 11:00,ZBYN 121100Z AUTO 00000KT 7SM 02/M13 A3024 RMK T00201130 IEM_DS3505
ZBYN,1989-02-12 12:00,ZBYN 121200Z AUTO 34002KT 11SM M01/M11 A3027 RMK SLP270 T10091113 52013 IEM_DS3505
ZBYN,1989-02-12 13:00,ZBYN 121300Z AUTO 10004KT 7SM M05/M11 A3027 RMK T10501110 IEM_DS3505
ZBYN,1989-02-12 14:00,ZBYN 121400Z AUTO 00000KT 7SM M05/M13 A3030 RMK T10501130 IEM_DS3505
ZBYN,1989-02-12 15:00,ZBYN 121500Z AUTO 34004KT 11SM M02/M12 A3030 RMK SLP272 T10171122 52009 IEM_DS3505
ZBYN,1989-02-12 18:00,ZBYN 121800Z AUTO 00000KT 11SM M04/M13 RMK SLP270 T10391131 40080//// 52002 IEM_DS3505
ZBYN,1989-02-12 21:00,ZBYN 122100Z AUTO 34004KT 9SM M04/M16 RMK SLP266 T10431158 57004 IEM_DS3505
ZBYN,1989-02-13 00:00,ZBYN 130000Z AUTO 00000KT 6SM M05/M13 A3030 RMK T10471133 52009 IEM_DS3505
ZBYN,1989-02-13 01:00,ZBYN 130100Z AUTO 00000KT 6SM M04/M15 A3033 RMK T10401150 IEM_DS3505
ZBYN,1989-02-13 02:00,ZBYN 130200Z AUTO 34004KT 6SM 00/M09 A3033 RMK T00001090 IEM_DS3505
ZBYN,1989-02-13 03:00,ZBYN 130300Z AUTO 36002KT 6SM 05/M13 A3033 RMK SLP282 T00501130 52003 IEM_DS3505
ZBYN,1989-02-13 04:00,ZBYN 130400Z AUTO 00000KT 6SM 05/M11 A3030 RMK T00501110 IEM_DS3505
ZBYN,1989-02-13 05:00,ZBYN 130500Z AUTO 19006KT 6SM 07/M12 A3024 RMK T00701120 IEM_DS3505
ZBYN,1989-02-13 06:00,ZBYN 130600Z AUTO 16006KT 9SM 07/M11 A3021 RMK SLP239 T00741108 4////1072 57035 IEM_DS3505
ZBYN,1989-02-13 07:00,ZBYN 130700Z AUTO 15004KT 6SM 08/M11 A3018 RMK T00801110 IEM_DS3505
ZBYN,1989-02-13 08:00,ZBYN 130800Z AUTO 16006KT 6SM 08/M12 A3018 RMK T00801120 IEM_DS3505
ZBYN,1989-02-13 09:00,ZBYN 130900Z AUTO 25004KT 12SM 07/M09 A3015 RMK SLP227 T00661092 57013 IEM_DS3505
ZBYN,1989-02-13 11:00,ZBYN 131100Z AUTO 14008KT 6SM 04/M12 A3018 RMK T00401120 IEM_DS3505
ZBYN,1989-02-13 12:00,ZBYN 131200Z AUTO 16006KT 9SM 03/M09 A3018 RMK SLP236 T00321092 52002 IEM_DS3505
ZBYN,1989-02-13 13:00,ZBYN 131300Z AUTO 14008KT 6SM 04/M11 A3021 RMK T00401110 IEM_DS3505
ZBYN,1989-02-13 14:00,ZBYN 131400Z AUTO 11006KT 6SM 01/M11 A3021 RMK T00101110 IEM_DS3505
ZBYN,1989-02-13 15:00,ZBYN 131500Z AUTO 11002KT 9SM 00/M10 A3021 RMK SLP233 T00011097 52004 IEM_DS3505
ZBYN,1989-02-13 16:00,ZBYN 131600Z AUTO 11008KT 6SM RMK IEM_DS3505
ZBYN,1989-02-13 18:00,ZBYN 131800Z AUTO 14006KT 9SM 01/M08 RMK SLP214 T00111085 40087//// 57008 IEM_DS3505
ZBYN,1989-02-13 21:00,ZBYN 132100Z AUTO 14002KT 9SM 00/M10 RMK SLP206 T00041096 57010 IEM_DS3505
ZBYN,1989-02-14 00:00,ZBYN 140000Z AUTO 11006KT 6SM M02/M10 A3015 RMK SLP225 T10211104 52008 IEM_DS3505
ZBYN,1989-02-14 01:00,ZBYN 140100Z AUTO 11008KT 5SM M02/M03 A3015 RMK T10201030 IEM_DS3505
ZBYN,1989-02-14 02:00,ZBYN 140200Z AUTO 09006KT 3SM M01/M03 A3018 RMK T10101030 IEM_DS3505
ZBYN,1989-02-14 03:00,ZBYN 140300Z AUTO 11004KT 3SM M01/M03 A3015 RMK SLP234 T10131027 52004 IEM_DS3505
ZBYN,1989-02-14 04:00,ZBYN 140400Z AUTO 00000KT 2 1/2SM 00/M01 A3015 RMK T00001010 IEM_DS3505
ZBYN,1989-02-14 05:00,ZBYN 140500Z AUTO 00000KT 7SM 01/M02 A3012 RMK T00101020 IEM_DS3505
ZBYN,1989-02-14 06:00,ZBYN 140600Z AUTO 14004KT 5SM 02/M03 A3009 RMK 60004 SLP204 T00171034 4////1021 57020 IEM_DS3505
ZBYN,1989-02-14 07:00,ZBYN 140700Z AUTO 00000KT 7SM 04/M05 A3006 RMK T00401050 IEM_DS3505
ZBYN,1989-02-14 08:00,ZBYN 140800Z AUTO 28004KT 6SM 04/M06 RMK T00401060 IEM_DS3505
ZBYN,1989-02-14 09:00,ZBYN 140900Z AUTO 34004KT 5SM 02/M03 A3003 RMK SLP184 T00231027 57019 IEM_DS3505
ZBYN,1989-02-14 10:00,ZBYN 141000Z AUTO 34008KT 6SM 02/M03 A3003 RMK T00201030 IEM_DS3505
ZBYN,1989-02-14 11:00,ZBYN 141100Z AUTO 00000KT 6SM 01/M02 A3006 RMK T00101020 IEM_DS3505
ZBYN,1989-02-14 12:00,ZBYN 141200Z AUTO 00000KT 4SM 01/M04 A3006 RMK SLP199 T00111035 52008 IEM_DS3505
ZBYN,1989-02-14 13:00,ZBYN 141300Z AUTO 33002KT 6SM 00/M03 A3006 RMK T00001030 IEM_DS3505
ZBYN,1989-02-14 14:00,ZBYN 141400Z AUTO 00000KT 5SM 00/M03 A3009 RMK T00001030 IEM_DS3505
ZBYN,1989-02-14 15:00,ZBYN 141500Z AUTO 00000KT 4SM 01/M03 A3009 RMK SLP207 T00081032 52008 IEM_DS3505
ZBYN,1989-02-14 16:00,ZBYN 141600Z AUTO 00000KT 4SM 00/M03 A3009 RMK T00001030 IEM_DS3505
ZBYN,1989-02-14 17:00,ZBYN 141700Z AUTO 00000KT 3SM M01/M03 A3009 RMK T10101030 IEM_DS3505
ZBYN,1989-02-14 18:00,ZBYN 141800Z AUTO 00000KT 4SM 00/M03 A3006 RMK SLP200 T00031029 40038//// 57002 IEM_DS3505
ZBYN,1989-02-14 20:00,ZBYN 142000Z AUTO 00000KT 4SM 00/M02 A3006 RMK T00001020 IEM_DS3505
ZBYN,1989-02-14 22:00,ZBYN 142200Z AUTO 00000KT 4SM M01/M02 A3006 RMK T10101020 IEM_DS3505
ZBYN,1989-02-14 23:00,ZBYN 142300Z AUTO 00000KT 4SM M01/M02 A3006 RMK T10101020 IEM_DS3505
ZBYN,1989-02-15 00:00,ZBYN 150000Z AUTO 34002KT 4SM 01/M04 A3006 RMK SLP200 T00101036 52010 IEM_DS3505
ZBYN,1989-02-15 01:00,ZBYN 150100Z AUTO 00000KT 3SM 01/M04 A3012 RMK T00101040 IEM_DS3505
ZBYN,1989-02-15 02:00,ZBYN 150200Z AUTO 36006KT 4SM 02/M02 A3012 RMK T00201020 IEM_DS3505
ZBYN,1989-02-15 03:00,ZBYN 150300Z AUTO 04004KT 5SM 03/M04 RMK SLP204 T00331045 52007 IEM_DS3505
ZBYN,1989-02-15 04:00,ZBYN 150400Z AUTO 15006KT 6SM 06/M04 A3012 RMK T00601040 IEM_DS3505
ZBYN,1989-02-15 05:00,ZBYN 150500Z AUTO 00000KT 6SM 07/M04 A3006 RMK T00701040 IEM_DS3505
ZBYN,1989-02-15 06:00,ZBYN 150600Z AUTO 00000KT 5SM 07/M05 A3003 RMK SLP172 T00701049 4////1001 57024 IEM_DS3505
ZBYN,1989-02-15 07:00,ZBYN 150700Z AUTO 00000KT 6SM 08/M03 A3003 RMK T00801030 IEM_DS3505
ZBYN,1989-02-15 08:00,ZBYN 150800Z AUTO 01004KT 6SM 09/M03 A3003 RMK T00901030 IEM_DS3505
ZBYN,1989-02-15 09:00,ZBYN 150900Z AUTO 34004KT 6SM 08/M05 A3003 RMK SLP170 T00801048 54000 IEM_DS3505
ZBYN,1989-02-15 10:00,ZBYN 151000Z AUTO 02008KT 6SM 07/M02 A3006 RMK T00701020 IEM_DS3505
ZBYN,1989-02-15 11:00,ZBYN 151100Z AUTO 06008KT 6SM 06/M05 A3006 RMK T00601050 IEM_DS3505
ZBYN,1989-02-15 12:00,ZBYN 151200Z AUTO 00000KT 6SM 05/M06 A3009 RMK SLP190 T00541059 52015 IEM_DS3505
ZBYN,1989-02-15 13:00,ZBYN 151300Z AUTO 08010KT 6SM 05/M06 A3009 RMK T00501060 IEM_DS3505
ZBYN,1989-02-15 14:00,ZBYN 151400Z AUTO 07010KT 6SM 05/M06 A3012 RMK T00501060 IEM_DS3505
ZBYN,1989-02-15 15:00,ZBYN 151500Z AUTO 00000KT 6SM 05/M08 RMK SLP168 T00521075 57017 IEM_DS3505
ZBYN,1989-02-15 16:00,ZBYN 151600Z AUTO 07010KT 6SM 04/M07 A3012 RMK T00401070 IEM_DS3505
ZBYN,1989-02-15 18:00,ZBYN 151800Z AUTO 34004KT 7SM 03/M07 A3012 RMK SLP198 T00341066 40082//// 52030 IEM_DS3505
ZBYN,1989-02-15 20:00,ZBYN 152000Z AUTO 00000KT 6SM 03/M06 A3015 RMK T00301060 IEM_DS3505
ZBYN,1989-02-15 21:00,ZBYN 152100Z AUTO 32004KT 6SM 02/M05 RMK SLP203 T00221053 52005 IEM_DS3505
ZBYN,1989-02-15 22:00,ZBYN 152200Z AUTO 00000KT 6SM 03/M05 A3015 RMK T00301050 IEM_DS3505
ZBYN,1989-02-15 23:00,ZBYN 152300Z AUTO 09006KT 6SM 02/M04 A3018 RMK T00201040 IEM_DS3505
ZBYN,1989-02-16 00:00,ZBYN 160000Z AUTO 14004KT 6SM 02/M06 A3021 RMK SLP240 T00161057 52028 IEM_DS3505
ZBYN,1989-02-16 01:00,ZBYN 160100Z AUTO 09010KT 6SM 02/M05 A3024 RMK T00201050 IEM_DS3505
ZBYN,1989-02-16 03:00,ZBYN 160300Z AUTO 09008KT 5SM 02/M04 RMK SLP254 T00231041 52014 IEM_DS3505
ZBYN,1989-02-16 05:00,ZBYN 160500Z AUTO 07014KT 7SM 03/M06 A3027 RMK T00301060 IEM_DS3505
ZBYN,1989-02-16 06:00,ZBYN 160600Z AUTO 04006KT 5SM M02/M05 RMK SLP248 T10201048 57009 IEM_DS3505
ZBYN,1989-02-16 06:25,ZBYN 160625Z AUTO 07010KT 7SM 02/M03 A3024 RMK T00201030 IEM_DS3505
ZBYN,1989-02-16 08:24,ZBYN 160824Z AUTO 07006KT 3SM 00/M01 A3024 RMK T00001010 IEM_DS3505
ZBYN,1989-02-16 08:27,ZBYN 160827Z AUTO 07006KT 3SM 00/M01 A3024 RMK T00001010 IEM_DS3505
ZBYN,1989-02-16 08:30,ZBYN 160830Z AUTO 07006KT 3SM 00/M01 A3024 RMK T00001010 IEM_DS3505
ZBYN,1989-02-16 08:50,ZBYN 160850Z AUTO 07010KT 7SM 02/M03 A3024 RMK T00201030 IEM_DS3505
ZBYN,1989-02-16 09:00,ZBYN 160900Z AUTO 34002KT 5SM 00/M03 RMK SLP256 T00011026 52002 IEM_DS3505
ZBYN,1989-02-16 09:24,ZBYN 160924Z AUTO 07008KT 7SM 00/M01 A3024 RMK T00001010 IEM_DS3505
ZBYN,1989-02-16 09:34,ZBYN 160934Z AUTO 07008KT 7SM 00/M01 A3024 RMK T00001010 IEM_DS3505
ZBYN,1989-02-16 10:37,ZBYN 161037Z AUTO 05006KT 7SM 00/M05 A3027 RMK T00001050 IEM_DS3505
ZBYN,1989-02-16 11:24,ZBYN 161124Z AUTO 07006KT 7SM 00/M06 A3027 RMK T00001060 IEM_DS3505
ZBYN,1989-02-16 11:28,ZBYN 161128Z AUTO 07006KT 7SM 00/M06 A3027 RMK T00001060 IEM_DS3505
ZBYN,1989-02-16 12:00,ZBYN 161200Z AUTO 00000KT 4SM M01/M03 A3030 RMK 60000 SLP274 T10061026 52014 IEM_DS3505
ZBYN,1989-02-16 12:15,ZBYN 161215Z AUTO 07006KT 7SM 00/M06 A3027 RMK T00001060 IEM_DS3505
ZBYN,1989-02-16 15:00,ZBYN 161500Z AUTO 11004KT 5SM M03/M04 RMK SLP286 T10281038 52009 IEM_DS3505
ZBYN,1989-02-16 15:24,ZBYN 161524Z AUTO 04004KT 7SM M03/M05 A3033 RMK T10301050 IEM_DS3505
ZBYN,1989-02-16 15:26,ZBYN 161526Z AUTO 04004KT 7SM M03/M05 A3033 RMK T10301050 IEM_DS3505
ZBYN,1989-02-16 15:28,ZBYN 161528Z AUTO 04004KT 7SM M03/M05 A3033 RMK T10301050 IEM_DS3505
ZBYN,1989-02-16 17:00,ZBYN 161700Z AUTO 10004KT 7SM M03/M04 A3033 RMK T10301040 IEM_DS3505
ZBYN,1989-02-16 17:29,ZBYN 161729Z AUTO 10004KT 7SM M03/M04 A3033 RMK T10301040 IEM_DS3505
ZBYN,1989-02-16 18:00,ZBYN 161800Z AUTO 00000KT 4SM M03/M04 RMK 60004 SLP281 T10301037 40037//// 57006 IEM_DS3505
ZBYN,1989-02-16 19:00,ZBYN 161900Z AUTO 05004KT 7SM M03/M04 A3030 RMK T10301040 IEM_DS3505
ZBYN,1989-02-16 19:26,ZBYN 161926Z AUTO 05004KT 7SM M03/M04 A3030 RMK T10301040 IEM_DS3505
ZBYN,1989-02-16 20:24,ZBYN 162024Z AUTO 08004KT 3SM M03/M04 A3027 RMK T10301040 IEM_DS3505
ZBYN,1989-02-16 20:26,ZBYN 162026Z AUTO 08004KT 3SM M03/M04 A3027 RMK T10301040 IEM_DS3505
ZBYN,1989-02-16 20:27,ZBYN 162027Z AUTO 08004KT 3SM M03/M04 A3027 RMK T10301040 IEM_DS3505
ZBYN,1989-02-16 23:25,ZBYN 162325Z AUTO 2 1/2SM M03/M04 A3027 RMK T10301040 IEM_DS3505
ZBYN,1989-02-16 23:31,ZBYN 162331Z AUTO 2 1/2SM M03/M04 A3027 RMK T10301040 IEM_DS3505
ZBYN,1989-02-17 00:00,ZBYN 170000Z AUTO 00000KT 4SM M03/M04 A3030 RMK 60008 SLP281 T10261036 52008 IEM_DS3505
ZBYN,1989-02-17 03:00,ZBYN 170300Z AUTO 00000KT 5SM M01/M03 RMK SLP294 T10061028 52011 IEM_DS3505
ZBYN,1989-02-17 03:28,ZBYN 170328Z AUTO 08008KT 6SM M01/M04 A3033 RMK T10101040 IEM_DS3505
ZBYN,1989-02-17 03:30,ZBYN 170330Z AUTO 08008KT 6SM M01/M04 A3033 RMK T10101040 IEM_DS3505
ZBYN,1989-02-17 03:36,ZBYN 170336Z AUTO 08008KT 6SM M01/M04 A3033 RMK T10101040 IEM_DS3505
ZBYN,1989-02-17 04:00,ZBYN 170400Z AUTO 07008KT 6SM 01/M05 A3030 RMK T00101050 IEM_DS3505
ZBYN,1989-02-17 04:24,ZBYN 170424Z AUTO 07008KT 6SM 01/M05 A3030 RMK T00101050 IEM_DS3505
ZBYN,1989-02-17 04:27,ZBYN 170427Z AUTO 07008KT 6SM 01/M05 A3030 RMK T00101050 IEM_DS3505
ZBYN,1989-02-17 04:41,ZBYN 170441Z AUTO 07008KT 6SM 01/M05 A3030 RMK T00101050 IEM_DS3505
ZBYN,1989-02-17 05:00,ZBYN 170500Z AUTO 06006KT 7SM 02/M04 A3027 RMK T00201040 IEM_DS3505
ZBYN,1989-02-17 05:26,ZBYN 170526Z AUTO 06006KT 7SM 02/M04 A3027 RMK T00201040 IEM_DS3505
ZBYN,1989-02-17 05:37,ZBYN 170537Z AUTO 06006KT 7SM 02/M04 A3027 RMK T00201040 IEM_DS3505
ZBYN,1989-02-17 06:00,ZBYN 170600Z AUTO 36006KT 6SM 01/M03 A3024 RMK SLP258 T00091034 4////1034 57030 IEM_DS3505
ZBYN,1989-02-17 06:28,ZBYN 170628Z AUTO 08006KT 7SM 03/M05 A3024 RMK T00301050 IEM_DS3505
ZBYN,1989-02-17 07:00,ZBYN 170700Z AUTO 36006KT 12SM 01/M03 A3021 RMK 60016 SLP258 T00091034 57030 IEM_DS3505
ZBYN,1989-02-17 07:25,ZBYN 170725Z AUTO 7SM 02/M03 A3021 RMK T00201030 IEM_DS3505
ZBYN,1989-02-17 07:27,ZBYN 170727Z AUTO 7SM 02/M03 A3021 RMK T00201030 IEM_DS3505
ZBYN,1989-02-17 08:24,ZBYN 170824Z AUTO 09006KT 7SM 03/M05 A3021 RMK T00301050 IEM_DS3505
ZBYN,1989-02-17 08:27,ZBYN 170827Z AUTO 09006KT 7SM 03/M05 A3021 RMK T00301050 IEM_DS3505
ZBYN,1989-02-17 08:32,ZBYN 170832Z AUTO 09006KT 7SM 03/M05 A3021 RMK T00301050 IEM_DS3505
ZBYN,1989-02-17 09:00,ZBYN 170900Z AUTO 18002KT 7SM 02/M05 A3021 RMK SLP243 T00221053 57012 IEM_DS3505
ZBYN,1989-02-17 09:28,ZBYN 170928Z AUTO 09008KT 7SM 02/M06 A3021 RMK T00201060 IEM_DS3505
ZBYN,1989-02-17 10:24,ZBYN 171024Z AUTO 06008KT 7SM 01/M06 A3021 RMK T00101060 IEM_DS3505
ZBYN,1989-02-17 10:27,ZBYN 171027Z AUTO 06008KT 7SM 01/M06 A3021 RMK T00101060 IEM_DS3505
ZBYN,1989-02-17 11:26,ZBYN 171126Z AUTO 10008KT 7SM 00/M05 A3024 RMK T00001050 IEM_DS3505
ZBYN,1989-02-17 11:27,ZBYN 171127Z AUTO 10008KT 7SM 00/M05 A3024 RMK T00001050 IEM_DS3505
ZBYN,1989-02-17 12:00,ZBYN 171200Z AUTO 14004KT 6SM M00/M05 A3024 RMK SLP265 T10011047 52017 IEM_DS3505
ZBYN,1989-02-17 13:24,ZBYN 171324Z AUTO 09010KT 7SM M01/M06 A3027 RMK T10101060 IEM_DS3505
ZBYN,1989-02-17 13:27,ZBYN 171327Z AUTO 09010KT 7SM M01/M06 A3027 RMK T10101060 IEM_DS3505
ZBYN,1989-02-17 13:33,ZBYN 171333Z AUTO 09010KT 7SM M01/M06 A3027 RMK T10101060 IEM_DS3505
ZBYN,1989-02-17 14:26,ZBYN 171426Z AUTO 09010KT 7SM M02/M06 A3027 RMK T10201060 IEM_DS3505
ZBYN,1989-02-17 14:41,ZBYN 171441Z AUTO 09010KT 7SM M02/M06 A3027 RMK T10201060 IEM_DS3505
ZBYN,1989-02-17 15:00,ZBYN 171500Z AUTO 00000KT 6SM M02/M05 RMK SLP276 T10221052 52010 IEM_DS3505
ZBYN,1989-02-17 15:24,ZBYN 171524Z AUTO 08008KT 7SM M02/M09 A3030 RMK T10201090 IEM_DS3505
ZBYN,1989-02-17 15:27,ZBYN 171527Z AUTO 08008KT 7SM M02/M09 A3030 RMK T10201090 IEM_DS3505
ZBYN,1989-02-17 15:33,ZBYN 171533Z AUTO 08008KT 7SM M02/M09 A3030 RMK T10201090 IEM_DS3505
ZBYN,1989-02-17 16:23,ZBYN 171623Z AUTO 07006KT 6SM M02/M06 A3030 RMK T10201060 IEM_DS3505
ZBYN,1989-02-17 16:29,ZBYN 171629Z AUTO 07006KT 6SM M02/M06 A3030 RMK T10201060 IEM_DS3505
ZBYN,1989-02-17 18:00,ZBYN 171800Z AUTO 00000KT 7SM M04/M05 RMK SLP273 T10361051 40027//// 57003 IEM_DS3505
ZBYN,1989-02-17 18:23,ZBYN 171823Z AUTO 09004KT 6SM M04/M06 A3027 RMK T10401060 IEM_DS3505
ZBYN,1989-02-17 18:27,ZBYN 171827Z AUTO 09004KT 6SM M04/M06 A3027 RMK T10401060 IEM_DS3505
ZBYN,1989-02-17 18:28,ZBYN 171828Z AUTO 09004KT 6SM M04/M06 A3027 RMK T10401060 IEM_DS3505
ZBYN,1989-02-17 20:23,ZBYN 172023Z AUTO 00000KT 6SM M05/M08 A3024 RMK T10501080 IEM_DS3505
ZBYN,1989-02-17 20:25,ZBYN 172025Z AUTO 00000KT 6SM M05/M08 A3024 RMK T10501080 IEM_DS3505
ZBYN,1989-02-17 20:28,ZBYN 172028Z AUTO 00000KT 6SM M05/M08 A3024 RMK T10501080 IEM_DS3505
ZBYN,1989-02-17 21:00,ZBYN 172100Z AUTO 00000KT 7SM M04/M06 RMK SLP263 T10401059 57007 IEM_DS3505
ZBYN,1989-02-17 22:24,ZBYN 172224Z AUTO 14006KT 4SM M05/M08 A3021 RMK T10501080 IEM_DS3505
ZBYN,1989-02-17 22:26,ZBYN 172226Z AUTO 14006KT 4SM M05/M08 A3021 RMK T10501080 IEM_DS3505
ZBYN,1989-02-17 22:29,ZBYN 172229Z AUTO 14006KT 4SM M05/M08 A3021 RMK T10501080 IEM_DS3505
ZBYN,1989-02-17 23:25,ZBYN 172325Z AUTO 00000KT 5SM M05/M08 A3027 RMK T10501080 IEM_DS3505
ZBYN,1989-02-17 23:27,ZBYN 172327Z AUTO 00000KT 5SM M05/M08 A3027 RMK T10501080 IEM_DS3505
ZBYN,1989-02-17 23:30,ZBYN 172330Z AUTO 00000KT 5SM M05/M08 A3027 RMK T10501080 IEM_DS3505
ZBYN,1989-02-18 00:00,ZBYN 180000Z AUTO 00000KT 5SM M04/M06 A3027 RMK SLP273 T10421062 52005 IEM_DS3505
ZBYN,1989-02-18 01:31,ZBYN 180131Z AUTO 00000KT 5SM RMK IEM_DS3505
ZBYN,1989-02-18 02:24,ZBYN 180224Z AUTO 00000KT 4SM M01/M05 A3030 RMK T10101050 IEM_DS3505
ZBYN,1989-02-18 02:29,ZBYN 180229Z AUTO 00000KT 4SM M01/M05 A3030 RMK T10101050 IEM_DS3505
ZBYN,1989-02-18 03:00,ZBYN 180300Z AUTO 00000KT 5SM 01/M05 RMK SLP275 T00061047 52006 IEM_DS3505
ZBYN,1989-02-18 03:32,ZBYN 180332Z AUTO 00000KT 7SM 01/M04 RMK T00101040 IEM_DS3505
ZBYN,1989-02-18 04:24,ZBYN 180424Z AUTO 22006KT 7SM 03/M05 A3027 RMK T00301050 IEM_DS3505
ZBYN,1989-02-18 05:25,ZBYN 180525Z AUTO 27004KT 7SM 04/M04 A3027 RMK T00401040 IEM_DS3505
ZBYN,1989-02-18 05:27,ZBYN 180527Z AUTO 27004KT 7SM 04/M04 A3027 RMK T00401040 IEM_DS3505
ZBYN,1989-02-18 05:35,ZBYN 180535Z AUTO 27004KT 7SM 04/M04 A3027 RMK T00401040 IEM_DS3505
ZBYN,1989-02-18 06:00,ZBYN 180600Z AUTO 14004KT 6SM 04/M04 RMK SLP252 T00401042 4////1045 57018 IEM_DS3505
ZBYN,1989-02-18 06:26,ZBYN 180626Z AUTO 00000KT 6SM 05/M04 A3024 RMK T00501040 IEM_DS3505
ZBYN,1989-02-18 06:27,ZBYN 180627Z AUTO 00000KT 6SM 05/M04 A3024 RMK T00501040 IEM_DS3505
ZBYN,1989-02-18 06:37,ZBYN 180637Z AUTO 00000KT 6SM 05/M04 A3024 RMK T00501040 IEM_DS3505
ZBYN,1989-02-18 07:00,ZBYN 180700Z AUTO 18004KT 6SM 05/M04 A3021 RMK T00501040 IEM_DS3505
ZBYN,1989-02-18 07:27,ZBYN 180727Z AUTO 18004KT 6SM 05/M04 A3021 RMK T00501040 IEM_DS3505
ZBYN,1989-02-18 07:32,ZBYN 180732Z AUTO 18004KT 6SM 05/M04 A3021 RMK T00501040 IEM_DS3505
ZBYN,1989-02-18 08:24,ZBYN 180824Z AUTO 00000KT 6SM 05/M04 A3021 RMK T00501040 IEM_DS3505
ZBYN,1989-02-18 08:27,ZBYN 180827Z AUTO 00000KT 6SM 05/M04 A3021 RMK T00501040 IEM_DS3505
ZBYN,1989-02-18 08:29,ZBYN 180829Z AUTO 00000KT 6SM 05/M04 A3021 RMK T00501040 IEM_DS3505
ZBYN,1989-02-18 09:00,ZBYN 180900Z AUTO 00000KT 6SM 04/M05 RMK SLP246 T00401046 57006 IEM_DS3505
ZBYN,1989-02-18 09:25,ZBYN 180925Z AUTO 00000KT 6SM 05/M05 A3021 RMK T00501050 IEM_DS3505
ZBYN,1989-02-18 09:27,ZBYN 180927Z AUTO 00000KT 6SM 05/M05 A3021 RMK T00501050 IEM_DS3505
ZBYN,1989-02-18 09:29,ZBYN 180929Z AUTO 00000KT 6SM 05/M05 A3021 RMK T00501050 IEM_DS3505
ZBYN,1989-02-18 10:00,ZBYN 181000Z AUTO 00000KT 6SM 03/M04 A3021 RMK T00301040 IEM_DS3505
ZBYN,1989-02-18 10:40,ZBYN 181040Z AUTO 00000KT 6SM 03/M04 A3021 RMK T00301040 IEM_DS3505
ZBYN,1989-02-18 11:24,ZBYN 181124Z AUTO 00000KT 6SM 01/M03 A3024 RMK T00101030 IEM_DS3505
ZBYN,1989-02-18 11:27,ZBYN 181127Z AUTO 00000KT 6SM 01/M03 A3024 RMK T00101030 IEM_DS3505
ZBYN,1989-02-18 11:29,ZBYN 181129Z AUTO 00000KT 6SM 01/M03 A3024 RMK T00101030 IEM_DS3505
ZBYN,1989-02-18 12:00,ZBYN 181200Z AUTO 00000KT 5SM M00/M04 A3024 RMK T10031036 IEM_DS3505
ZBYN,1989-02-18 13:24,ZBYN 181324Z AUTO 11004KT 6SM M02/M04 A3027 RMK T10201040 IEM_DS3505
ZBYN,1989-02-18 13:27,ZBYN 181327Z AUTO 11004KT 6SM M02/M04 A3027 RMK T10201040 IEM_DS3505
ZBYN,1989-02-18 15:00,ZBYN 181500Z AUTO 00000KT 4SM M02/M04 RMK SLP268 T10161041 52003 IEM_DS3505
ZBYN,1989-02-18 15:24,ZBYN 181524Z AUTO 12006KT 6SM M02/M04 A3027 RMK T10201040 IEM_DS3505
ZBYN,1989-02-18 15:32,ZBYN 181532Z AUTO 12006KT 6SM M02/M04 A3027 RMK T10201040 IEM_DS3505
ZBYN,1989-02-18 18:00,ZBYN 181800Z AUTO 00000KT 2SM M03/M05 RMK SLP277 T10271051 40050//// 52006 IEM_DS3505
ZBYN,1989-02-18 21:00,ZBYN 182100Z AUTO 00000KT 5SM M02/M03 RMK SLP259 T10151033 57009 IEM_DS3505
ZBYN,1989-02-18 21:23,ZBYN 182123Z AUTO 12004KT 4SM M02/M03 A3027 RMK T10201030 IEM_DS3505
ZBYN,1989-02-18 21:32,ZBYN 182132Z AUTO 12004KT 4SM M02/M03 A3027 RMK T10201030 IEM_DS3505
ZBYN,1989-02-18 23:25,ZBYN 182325Z AUTO 00000KT 4SM M01/M04 A3027 RMK T10101040 IEM_DS3505
ZBYN,1989-02-19 00:00,ZBYN 190000Z AUTO 00000KT 6SM M01/M03 A3027 RMK SLP272 T10131028 52005 IEM_DS3505
ZBYN,1989-02-19 01:24,ZBYN 190124Z AUTO 15004KT 2 1/2SM 00/M03 A3030 RMK T00001030 IEM_DS3505
ZBYN,1989-02-19 01:27,ZBYN 190127Z AUTO 15004KT 2 1/2SM 00/M03 A3030 RMK T00001030 IEM_DS3505
ZBYN,1989-02-19 01:30,ZBYN 190130Z AUTO 15004KT 2 1/2SM 00/M03 A3030 RMK T00001030 IEM_DS3505
ZBYN,1989-02-19 03:00,ZBYN 190300Z AUTO 16004KT 6SM 01/M02 RMK SLP277 T00061016 52006 IEM_DS3505
ZBYN,1989-02-19 03:24,ZBYN 190324Z AUTO 17008KT 1SM 01/M01 A3030 RMK T00101010 IEM_DS3505
ZBYN,1989-02-19 03:27,ZBYN 190327Z AUTO 17008KT 1SM 01/M01 A3030 RMK T00101010 IEM_DS3505
ZBYN,1989-02-19 03:33,ZBYN 190333Z AUTO 17008KT 1SM 01/M01 A3030 RMK T00101010 IEM_DS3505
ZBYN,1989-02-19 04:00,ZBYN 190400Z AUTO 20004KT 1SM 01/M01 A3030 RMK T00101010 IEM_DS3505
ZBYN,1989-02-19 04:24,ZBYN 190424Z AUTO 20004KT 1SM 01/M01 A3030 RMK T00101010 IEM_DS3505
ZBYN,1989-02-19 04:25,ZBYN 190425Z AUTO 20004KT 1SM 01/M01 A3030 RMK T00101010 IEM_DS3505
ZBYN,1989-02-19 04:32,ZBYN 190432Z AUTO 20004KT 1SM 01/M01 A3030 RMK T00101010 IEM_DS3505
ZBYN,1989-02-19 05:00,ZBYN 190500Z AUTO 18008KT 1SM 01/M01 A3027 RMK T00101010 IEM_DS3505
ZBYN,1989-02-19 06:00,ZBYN 190600Z AUTO 16006KT 6SM 02/M00 A3027 RMK 60001 SLP260 T00211003 4////1032 57015 IEM_DS3505
ZBYN,1989-02-19 07:00,ZBYN 190700Z AUTO 00000KT 1 1/4SM 03/00 A3024 RMK T00300000 IEM_DS3505
ZBYN,1989-02-19 08:00,ZBYN 190800Z AUTO 22006KT 2SM 04/00 A3024 RMK T00400000 IEM_DS3505
ZBYN,1989-02-19 09:00,ZBYN 190900Z AUTO 29010KT 12SM 04/M09 A3024 RMK SLP255 T00411091 52001 IEM_DS3505
ZBYN,1989-02-19 11:00,ZBYN 191100Z AUTO 29010KT 6SM 02/M13 A3027 RMK T00201130 IEM_DS3505
ZBYN,1989-02-19 12:00,ZBYN 191200Z AUTO 32010KT 16SM 02/M09 A3033 RMK SLP280 T00211091 52019 IEM_DS3505
ZBYN,1989-02-19 13:00,ZBYN 191300Z AUTO 32016KT 6SM 01/M14 A3033 RMK T00101140 IEM_DS3505
ZBYN,1989-02-19 14:00,ZBYN 191400Z AUTO 31014KT 6SM 01/M12 A3033 RMK T00101120 IEM_DS3505
ZBYN,1989-02-19 15:00,ZBYN 191500Z AUTO 31012KT 6SM 00/M13 A3036 RMK T00001130 IEM_DS3505
ZBYN,1989-02-19 16:00,ZBYN 191600Z AUTO 33014KT 6SM M01/M11 A3036 RMK T10101110 IEM_DS3505
ZBYN,1989-02-19 18:00,ZBYN 191800Z AUTO 32008KT 9SM M01/M15 RMK SLP302 T10121147 40057//// 52010 IEM_DS3505
ZBYN,1989-02-19 21:00,ZBYN 192100Z AUTO 34008KT 6SM M02/M14 A3039 RMK SLP307 T10191142 52006 IEM_DS3505
ZBYN,1989-02-19 22:00,ZBYN 192200Z AUTO 6SM M03/M19 A3039 RMK T10301190 IEM_DS3505
ZBYN,1989-02-19 23:00,ZBYN 192300Z AUTO 34006KT 6SM M04/M16 A3039 RMK T10401160 IEM_DS3505
ZBYN,1989-02-20 00:00,ZBYN 200000Z AUTO 04006KT 9SM M04/M16 A3042 RMK SLP322 T10361158 52008 IEM_DS3505
ZBYN,1989-02-20 01:00,ZBYN 200100Z AUTO 01008KT 6SM M03/M18 A3045 RMK T10301180 IEM_DS3505
ZBYN,1989-02-20 02:00,ZBYN 200200Z AUTO 36010KT 6SM M02/M16 A3045 RMK T10201160 IEM_DS3505
ZBYN,1989-02-20 03:00,ZBYN 200300Z AUTO 36008KT 12SM M02/M16 A3045 RMK SLP331 T10221156 52007 IEM_DS3505
ZBYN,1989-02-20 04:00,ZBYN 200400Z AUTO 36006KT 6SM M01/M16 A3042 RMK T10101160 IEM_DS3505
ZBYN,1989-02-20 05:00,ZBYN 200500Z AUTO 35008KT 6SM M01/M18 A3039 RMK T10101180 IEM_DS3505
ZBYN,1989-02-20 06:00,ZBYN 200600Z AUTO 36002KT 12SM M01/M16 A3039 RMK SLP312 T10131157 4////1040 57018 IEM_DS3505
ZBYN,1989-02-20 08:00,ZBYN 200800Z AUTO 33006KT 6SM 00/M16 A3039 RMK T00001160 IEM_DS3505
ZBYN,1989-02-20 09:00,ZBYN 200900Z AUTO 36004KT 12SM M01/M16 RMK SLP315 T10081159 52002 IEM_DS3505
ZBYN,1989-02-20 10:00,ZBYN 201000Z AUTO 36006KT 6SM M01/M17 A3039 RMK T10101170 IEM_DS3505
ZBYN,1989-02-20 12:00,ZBYN 201200Z AUTO 36004KT 9SM M02/M17 A3042 RMK SLP332 T10201166 52011 IEM_DS3505
ZBYN,1989-02-20 13:00,ZBYN 201300Z AUTO 36004KT 6SM M03/M16 RMK T10301160 IEM_DS3505
ZBYN,1989-02-20 14:00,ZBYN 201400Z AUTO 01006KT 6SM M04/M17 RMK T10401170 IEM_DS3505
ZBYN,1989-02-20 15:00,ZBYN 201500Z AUTO 34004KT 9SM M03/M13 A3045 RMK SLP333 T10321131 52001 IEM_DS3505
ZBYN,1989-02-20 16:00,ZBYN 201600Z AUTO 36004KT 6SM M05/M15 A3045 RMK T10501150 IEM_DS3505
ZBYN,1989-02-20 18:00,ZBYN 201800Z AUTO 36006KT 9SM M04/M17 RMK SLP345 T10401174 40005//// 52011 IEM_DS3505
ZBYN,1989-02-20 19:00,ZBYN 201900Z AUTO 02004KT 6SM M07/M16 A3047 RMK T10701160 IEM_DS3505
ZBYN,1989-02-20 21:00,ZBYN 202100Z AUTO 34004KT 7SM M07/M16 RMK SLP357 T10671156 52007 IEM_DS3505
ZBYN,1989-02-20 22:00,ZBYN 202200Z AUTO 07004KT 6SM M10/M10 A3050 RMK T11001100 IEM_DS3505
ZBYN,1989-02-20 23:00,ZBYN 202300Z AUTO 01006KT 7SM M08/M17 A3050 RMK T10801170 IEM_DS3505
ZBYN,1989-02-21 00:00,ZBYN 210000Z AUTO 34006KT 7SM M08/M16 A3050 RMK SLP380 T10761158 52018 IEM_DS3505
ZBYN,1989-02-21 01:00,ZBYN 210100Z AUTO 34012KT 6SM M06/M18 A3056 RMK T10601180 IEM_DS3505
ZBYN,1989-02-21 02:00,ZBYN 210200Z AUTO 36008KT 6SM M04/M19 A3056 RMK T10401190 IEM_DS3505
ZBYN,1989-02-21 03:00,ZBYN 210300Z AUTO 34006KT 6SM M03/M16 A3056 RMK SLP383 T10341161 52008 IEM_DS3505
ZBYN,1989-02-21 04:00,ZBYN 210400Z AUTO 33008KT 6SM M01/M17 A3053 RMK T10101170 IEM_DS3505
ZBYN,1989-02-21 05:00,ZBYN 210500Z AUTO 33004KT 6SM 00/M18 A3050 RMK T00001180 IEM_DS3505
ZBYN,1989-02-21 06:00,ZBYN 210600Z AUTO 07004KT 6SM 00/M15 A3047 RMK SLP346 T00011152 4////1077 57029 IEM_DS3505
ZBYN,1989-02-21 07:00,ZBYN 210700Z AUTO 00000KT 6SM 02/M10 A3047 RMK T00201100 IEM_DS3505
ZBYN,1989-02-21 08:00,ZBYN 210800Z AUTO 00000KT 6SM 01/M17 A3047 RMK T00101170 IEM_DS3505
ZBYN,1989-02-21 09:00,ZBYN 210900Z AUTO 22002KT 9SM 01/M14 A3047 RMK SLP345 T00061140 57005 IEM_DS3505
ZBYN,1989-02-21 10:00,ZBYN 211000Z AUTO 21004KT 6SM 00/M15 A3047 RMK T00001150 IEM_DS3505
ZBYN,1989-02-21 11:00,ZBYN 211100Z AUTO 00000KT 6SM M02/M13 A3047 RMK T10201130 IEM_DS3505
ZBYN,1989-02-21 12:00,ZBYN 211200Z AUTO 34004KT 12SM M02/M14 A3053 RMK SLP364 T10221136 52011 IEM_DS3505
ZBYN,1989-02-21 12:23,ZBYN 211223Z AUTO 32006KT 6SM M04/M13 A3050 RMK T10401130 IEM_DS3505
ZBYN,1989-02-21 12:32,ZBYN 211232Z AUTO 32006KT 6SM M04/M13 A3050 RMK T10401130 IEM_DS3505
ZBYN,1989-02-21 13:37,ZBYN 211337Z AUTO 32010KT 6SM M03/M16 A3053 RMK T10301160 IEM_DS3505
ZBYN,1989-02-21 14:00,ZBYN 211400Z AUTO 33006KT 6SM M05/M15 A3053 RMK T10501150 IEM_DS3505
ZBYN,1989-02-21 15:00,ZBYN 211500Z AUTO 34006KT 12SM M04/M15 A3053 RMK SLP366 T10401153 52006 IEM_DS3505
ZBYN,1989-02-21 15:27,ZBYN 211527Z AUTO 00000KT 6SM M06/M17 A3053 RMK T10601170 IEM_DS3505
ZBYN,1989-02-21 16:00,ZBYN 211600Z AUTO 00000KT 6SM M05/M15 A3053 RMK T10501150 IEM_DS3505
ZBYN,1989-02-21 17:00,ZBYN 211700Z AUTO 30006KT 6SM M07/M15 A3053 RMK T10701150 IEM_DS3505
ZBYN,1989-02-21 17:36,ZBYN 211736Z AUTO 30006KT 6SM M07/M15 A3053 RMK T10701150 IEM_DS3505
ZBYN,1989-02-21 17:37,ZBYN 211737Z AUTO 30006KT 6SM M07/M15 A3053 RMK T10701150 IEM_DS3505
ZBYN,1989-02-21 20:44,ZBYN 212044Z AUTO 32006KT 6SM M08/M16 A3053 RMK T10801160 IEM_DS3505
ZBYN,1989-02-21 20:45,ZBYN 212045Z AUTO 32006KT 6SM M08/M16 A3053 RMK T10801160 IEM_DS3505
ZBYN,1989-02-21 21:00,ZBYN 212100Z AUTO 34002KT 9SM M07/M14 RMK SLP370 T10701142 52005 IEM_DS3505
ZBYN,1989-02-21 23:00,ZBYN 212300Z AUTO 00000KT 6SM M09/M14 A3053 RMK T10901140 IEM_DS3505
ZBYN,1989-02-22 00:00,ZBYN 220000Z AUTO 34006KT 6SM M07/M15 A3056 RMK SLP377 T10731147 52001 IEM_DS3505
ZBYN,1989-02-22 01:00,ZBYN 220100Z AUTO 34006KT 2 1/2SM M07/M13 A3053 RMK T10701130 IEM_DS3505
ZBYN,1989-02-22 02:00,ZBYN 220200Z AUTO 35004KT 4SM M04/M14 A3053 RMK T10401140 IEM_DS3505
ZBYN,1989-02-22 03:00,ZBYN 220300Z AUTO 34004KT 7SM M02/M14 A3053 RMK SLP366 T10201145 57004 IEM_DS3505
ZBYN,1989-02-22 04:00,ZBYN 220400Z AUTO 19002KT 6SM 01/M09 A3053 RMK T00101090 IEM_DS3505
ZBYN,1989-02-22 05:00,ZBYN 220500Z AUTO 00000KT 6SM 01/M11 A3047 RMK T00101110 IEM_DS3505
ZBYN,1989-02-22 06:00,ZBYN 220600Z AUTO 32002KT 7SM 03/M12 A3045 RMK SLP326 T00291124 4////1076 57031 IEM_DS3505
ZBYN,1989-02-22 07:00,ZBYN 220700Z AUTO 18008KT 6SM 04/M10 A3042 RMK T00401100 IEM_DS3505
ZBYN,1989-02-22 08:00,ZBYN 220800Z AUTO 00000KT 6SM 03/M08 A3042 RMK T00301080 IEM_DS3505
ZBYN,1989-02-22 09:00,ZBYN 220900Z AUTO 20002KT 7SM 03/M11 A3039 RMK SLP314 T00301107 57013 IEM_DS3505
ZBYN,1989-02-22 10:00,ZBYN 221000Z AUTO 23006KT 6SM 02/M07 A3039 RMK T00201070 IEM_DS3505
ZBYN,1989-02-22 11:00,ZBYN 221100Z AUTO 23004KT 6SM 00/M07 A3042 RMK T00001070 IEM_DS3505
ZBYN,1989-02-22 12:00,ZBYN 221200Z AUTO 00000KT 6SM M00/M07 A3042 RMK SLP327 T10031072 52006 IEM_DS3505
ZBYN,1989-02-22 13:00,ZBYN 221300Z AUTO 10006KT 6SM M01/M09 A3042 RMK T10101090 IEM_DS3505
ZBYN,1989-02-22 14:00,ZBYN 221400Z AUTO 08010KT 6SM M01/M08 A3045 RMK T10101080 IEM_DS3505
ZBYN,1989-02-22 15:00,ZBYN 221500Z AUTO 00000KT 6SM M01/M11 A3042 RMK SLP322 T10071107 52004 IEM_DS3505
ZBYN,1989-02-22 16:00,ZBYN 221600Z AUTO 10006KT 6SM M02/M11 A3045 RMK T10201110 IEM_DS3505
ZBYN,1989-02-22 18:00,ZBYN 221800Z AUTO 36004KT 6SM M02/M09 A3042 RMK SLP315 T10161090 40040//// 54000 IEM_DS3505
ZBYN,1989-02-22 21:00,ZBYN 222100Z AUTO 00000KT 6SM M03/M10 RMK SLP303 T10261099 57012 IEM_DS3505
ZBYN,1989-02-22 23:00,ZBYN 222300Z AUTO 22004KT 6SM M03/M09 A3039 RMK T10301090 IEM_DS3505
ZBYN,1989-02-23 00:00,ZBYN 230000Z AUTO 00000KT 5SM M03/M10 A3036 RMK SLP304 T10281097 57005 IEM_DS3505
ZBYN,1989-02-23 01:00,ZBYN 230100Z AUTO 19006KT 4SM M02/M09 A3042 RMK T10201090 IEM_DS3505
ZBYN,1989-02-23 02:00,ZBYN 230200Z AUTO 00000KT 4SM M01/M10 A3039 RMK T10101100 IEM_DS3505
ZBYN,1989-02-23 03:00,ZBYN 230300Z AUTO 00000KT 4SM 01/M09 A3039 RMK SLP305 T00101090 52006 IEM_DS3505
ZBYN,1989-02-23 04:00,ZBYN 230400Z AUTO 29006KT 4SM 02/M07 A3036 RMK T00201070 IEM_DS3505
ZBYN,1989-02-23 05:00,ZBYN 230500Z AUTO 00000KT 2 1/2SM 04/M08 A3033 RMK T00401080 IEM_DS3505
ZBYN,1989-02-23 08:00,ZBYN 230800Z AUTO 24004KT 6SM 06/M09 A3024 RMK T00601090 IEM_DS3505
ZBYN,1989-02-23 09:00,ZBYN 230900Z AUTO 22004KT 4SM 05/M09 A3024 RMK T00481088 57014 IEM_DS3505
ZBYN,1989-02-23 10:00,ZBYN 231000Z AUTO 21008KT 7SM 03/M07 A3024 RMK T00301070 IEM_DS3505
ZBYN,1989-02-23 11:00,ZBYN 231100Z AUTO 23006KT 6SM 01/M07 A3027 RMK T00101070 IEM_DS3505
ZBYN,1989-02-23 12:00,ZBYN 231200Z AUTO 00000KT 5SM M00/M06 RMK SLP281 T10031064 52015 IEM_DS3505
ZBYN,1989-02-23 13:00,ZBYN 231300Z AUTO 08006KT 7SM 00/M07 A3030 RMK T00001070 IEM_DS3505
ZBYN,1989-02-23 14:00,ZBYN 231400Z AUTO 11006KT 6SM M02/M09 A3030 RMK T10201090 IEM_DS3505
ZBYN,1989-02-23 15:00,ZBYN 231500Z AUTO 00000KT 5SM M02/M08 A3033 RMK SLP289 T10191075 52011 IEM_DS3505
ZBYN,1989-02-23 18:00,ZBYN 231800Z AUTO 00000KT 4SM M04/M09 A3033 RMK SLP284 T10391086 40062//// 57001 IEM_DS3505
ZBYN,1989-02-23 21:00,ZBYN 232100Z AUTO 00000KT 4SM M06/M09 RMK SLP271 T10621086 57016 IEM_DS3505
ZBYN,1989-02-23 22:00,ZBYN 232200Z AUTO 08006KT 5SM M06/M09 A3027 RMK T10601090 IEM_DS3505
ZBYN,1989-02-23 23:00,ZBYN 232300Z AUTO 08006KT 5SM M06/M09 A3027 RMK T10601090 IEM_DS3505
ZBYN,1989-02-24 00:00,ZBYN 240000Z AUTO 00000KT 5SM M06/M08 A3030 RMK SLP297 T10581077 52015 IEM_DS3505
ZBYN,1989-02-24 01:00,ZBYN 240100Z AUTO 00000KT 2SM M03/M07 A3033 RMK T10301070 IEM_DS3505
ZBYN,1989-02-24 02:00,ZBYN 240200Z AUTO 13004KT 3SM M01/M07 A3033 RMK T10101070 IEM_DS3505
ZBYN,1989-02-24 03:00,ZBYN 240300Z AUTO 00000KT 5SM 02/M05 A3030 RMK SLP276 T00201052 57008 IEM_DS3505
ZBYN,1989-02-24 04:00,ZBYN 240400Z AUTO 00000KT 4SM 03/M04 A3027 RMK T00301040 IEM_DS3505
ZBYN,1989-02-24 05:00,ZBYN 240500Z AUTO 27004KT 5SM 05/M05 A3024 RMK SLP218 T00501050 IEM_DS3505
ZBYN,1989-02-24 06:00,ZBYN 240600Z AUTO 18002KT 5SM 05/M07 A3021 RMK SLP236 T00541072 57034 IEM_DS3505
ZBYN,1989-02-24 07:00,ZBYN 240700Z AUTO 20006KT 6SM 07/M06 A3015 RMK T00701060 IEM_DS3505
ZBYN,1989-02-24 08:00,ZBYN 240800Z AUTO 24006KT 6SM 07/M07 A3015 RMK T00701070 IEM_DS3505
ZBYN,1989-02-24 09:00,ZBYN 240900Z AUTO 27004KT 5SM 06/M06 A3012 RMK SLP218 T00631065 57019 IEM_DS3505
ZBYN,1989-02-24 10:00,ZBYN 241000Z AUTO 27006KT 6SM 05/M05 A3012 RMK T00501050 IEM_DS3505
ZBYN,1989-02-24 11:00,ZBYN 241100Z AUTO 00000KT 6SM 03/M05 A3012 RMK T00301050 IEM_DS3505
ZBYN,1989-02-24 12:00,ZBYN 241200Z AUTO 14004KT 6SM M01/M08 A3015 RMK SLP231 T10131078 52004 IEM_DS3505
ZBYN,1989-02-24 14:00,ZBYN 241400Z AUTO 09012KT 6SM 01/M07 A3015 RMK T00101070 IEM_DS3505
ZBYN,1989-02-24 15:00,ZBYN 241500Z AUTO 27002KT 7SM M00/M09 A3018 RMK SLP225 T10041086 52005 IEM_DS3505
ZBYN,1989-02-24 16:00,ZBYN 241600Z AUTO 09008KT 6SM 01/M08 A3015 RMK T00101080 IEM_DS3505
ZBYN,1989-02-24 18:00,ZBYN 241800Z AUTO 18002KT 6SM M03/M08 A3015 RMK SLP219 T10261076 40066//// 57004 IEM_DS3505
ZBYN,1989-02-24 19:00,ZBYN 241900Z AUTO 10004KT 7SM M03/M08 A3015 RMK T10301080 IEM_DS3505
ZBYN,1989-02-24 21:00,ZBYN 242100Z AUTO 14004KT 5SM M03/M07 A3015 RMK SLP215 T10341068 57003 IEM_DS3505
ZBYN,1989-02-24 22:00,ZBYN 242200Z AUTO 09006KT 3SM M05/M09 A3015 RMK T10501090 IEM_DS3505
ZBYN,1989-02-24 23:00,ZBYN 242300Z AUTO 09006KT 2 1/2SM M06/M09 A3015 RMK T10601090 IEM_DS3505
ZBYN,1989-02-25 00:00,ZBYN 250000Z AUTO 00000KT 4SM M05/M07 A3015 RMK SLP237 T10501071 52009 IEM_DS3505
ZBYN,1989-02-25 01:00,ZBYN 250100Z AUTO 11004KT 2 1/2SM M02/M07 A3018 RMK T10201070 IEM_DS3505
ZBYN,1989-02-25 02:00,ZBYN 250200Z AUTO 15004KT 2 1/2SM 00/M05 A3018 RMK T00001050 IEM_DS3505
ZBYN,1989-02-25 03:00,ZBYN 250300Z AUTO 14004KT 5SM 02/M04 A3015 RMK SLP228 T00241039 52001 IEM_DS3505
ZBYN,1989-02-25 04:00,ZBYN 250400Z AUTO 00000KT 6SM 04/M06 A3015 RMK T00401060 IEM_DS3505
ZBYN,1989-02-25 05:00,ZBYN 250500Z AUTO 19004KT 6SM 06/M06 A3015 RMK T00601060 IEM_DS3505
ZBYN,1989-02-25 06:00,ZBYN 250600Z AUTO 20004KT 5SM 07/M06 A3012 RMK SLP206 T00691063 4////1052 57016 IEM_DS3505
ZBYN,1989-02-25 07:00,ZBYN 250700Z AUTO 22012KT 6SM 07/M07 A3012 RMK T00701070 IEM_DS3505
ZBYN,1989-02-25 08:00,ZBYN 250800Z AUTO 23014KT 6SM 07/M06 A3012 RMK T00701060 IEM_DS3505
ZBYN,1989-02-25 09:00,ZBYN 250900Z AUTO 18006KT 9SM 08/M05 A3012 RMK SLP205 T00771053 57001 IEM_DS3505
ZBYN,1989-02-25 10:00,ZBYN 251000Z AUTO 16004KT 6SM 06/M03 A3012 RMK T00601030 IEM_DS3505
ZBYN,1989-02-25 11:00,ZBYN 251100Z AUTO 14004KT 6SM 04/M05 A3015 RMK T00401050 IEM_DS3505
ZBYN,1989-02-25 12:00,ZBYN 251200Z AUTO 00000KT 7SM 02/M05 A3018 RMK SLP242 T00181051 52021 IEM_DS3505
ZBYN,1989-02-25 13:00,ZBYN 251300Z AUTO 14002KT 6SM M01/M06 A3018 RMK T10101060 IEM_DS3505
ZBYN,1989-02-25 14:00,ZBYN 251400Z AUTO 00000KT 6SM M01/M05 A3021 RMK T10101050 IEM_DS3505
ZBYN,1989-02-25 15:00,ZBYN 251500Z AUTO 00000KT 7SM M02/M05 RMK SLP248 T10151046 52013 IEM_DS3505
ZBYN,1989-02-25 17:00,ZBYN 251700Z AUTO 09004KT 7SM M03/M06 A3024 RMK T10301060 IEM_DS3505
ZBYN,1989-02-25 18:00,ZBYN 251800Z AUTO 00000KT 7SM M02/M05 A3024 RMK SLP254 T10241053 40082//// 52011 IEM_DS3505
ZBYN,1989-02-25 20:00,ZBYN 252000Z AUTO 00000KT 7SM M06/M08 A3027 RMK T10601080 IEM_DS3505
ZBYN,1989-02-25 21:00,ZBYN 252100Z AUTO 32002KT 6SM M02/M06 A3027 RMK SLP255 T10241056 52002 IEM_DS3505
ZBYN,1989-02-25 22:00,ZBYN 252200Z AUTO 00000KT 7SM M06/M08 RMK T10601080 IEM_DS3505
ZBYN,1989-02-25 23:00,ZBYN 252300Z AUTO 00000KT 4SM M06/M08 A3027 RMK T10601080 IEM_DS3505
ZBYN,1989-02-26 00:00,ZBYN 260000Z AUTO 00000KT 3SM M04/M06 RMK SLP273 T10401060 52004 IEM_DS3505
ZBYN,1989-02-26 01:00,ZBYN 260100Z AUTO 00000KT 6SM RMK IEM_DS3505
ZBYN,1989-02-26 02:00,ZBYN 260200Z AUTO 00000KT 1 1/4SM 03/M04 A3030 RMK T00301040 IEM_DS3505
ZBYN,1989-02-26 03:00,ZBYN 260300Z AUTO 29004KT 5SM 06/M05 A3030 RMK SLP269 T00571051 52007 IEM_DS3505
ZBYN,1989-02-26 04:00,ZBYN 260400Z AUTO 25008KT 3SM 08/M05 A3027 RMK T00801050 IEM_DS3505
ZBYN,1989-02-26 06:00,ZBYN 260600Z AUTO 22002KT 5SM 09/M08 A3024 RMK SLP232 T00911075 4////1047 57030 IEM_DS3505
ZBYN,1989-02-26 07:00,ZBYN 260700Z AUTO 20006KT 6SM 10/M04 A3015 RMK T01001040 IEM_DS3505
ZBYN,1989-02-26 08:00,ZBYN 260800Z AUTO 26006KT 6SM 10/M03 A3015 RMK T01001030 IEM_DS3505
ZBYN,1989-02-26 09:00,ZBYN 260900Z AUTO 14002KT 6SM 10/M06 A3015 RMK SLP208 T00981057 57020 IEM_DS3505
ZBYN,1989-02-26 10:00,ZBYN 261000Z AUTO 00000KT 6SM 09/M01 A3012 RMK T00901010 IEM_DS3505
ZBYN,1989-02-26 11:00,ZBYN 261100Z AUTO 6SM 06/M02 A3012 RMK T00601020 IEM_DS3505
ZBYN,1989-02-26 12:00,ZBYN 261200Z AUTO 00000KT 6SM 04/M02 A3015 RMK SLP228 T00441020 52007 IEM_DS3505
ZBYN,1989-02-26 13:00,ZBYN 261300Z AUTO 06004KT 6SM 02/M06 A3015 RMK T00201060 IEM_DS3505
ZBYN,1989-02-26 15:00,ZBYN 261500Z AUTO 00000KT 6SM 00/M05 A3018 RMK SLP221 T00011048 52002 IEM_DS3505
ZBYN,1989-02-26 16:00,ZBYN 261600Z AUTO 10006KT 6SM 01/M07 A3015 RMK T00101070 IEM_DS3505
ZBYN,1989-02-26 18:00,ZBYN 261800Z AUTO 00000KT 7SM M02/M05 RMK SLP210 T10191047 40105//// 57008 IEM_DS3505
ZBYN,1989-02-26 21:00,ZBYN 262100Z AUTO 00000KT 5SM M02/M04 RMK SLP207 T10201042 57002 IEM_DS3505
ZBYN,1989-02-26 23:00,ZBYN 262300Z AUTO 00000KT 4SM M02/M05 A3012 RMK T10201050 IEM_DS3505
ZBYN,1989-02-27 00:00,ZBYN 270000Z AUTO 00000KT 4SM M01/M03 A3012 RMK SLP214 T10141028 57001 IEM_DS3505
ZBYN,1989-02-27 01:00,ZBYN 270100Z AUTO 16002KT 2SM 01/M04 A3015 RMK T00101040 IEM_DS3505
ZBYN,1989-02-27 02:00,ZBYN 270200Z AUTO 00000KT 1 1/2SM 02/M02 A3015 RMK T00201020 IEM_DS3505
ZBYN,1989-02-27 03:00,ZBYN 270300Z AUTO 14004KT 6SM 05/ RMK SLP212 52001 IEM_DS3505
ZBYN,1989-02-27 05:00,ZBYN 270500Z AUTO 25012KT 5SM 10/M02 A3012 RMK T01001020 IEM_DS3505
ZBYN,1989-02-27 06:00,ZBYN 270600Z AUTO 32017KT 7SM 11/M15 A3012 RMK SLP192 T01101146 4////1027 57011 IEM_DS3505
ZBYN,1989-02-27 07:00,ZBYN 270700Z AUTO 33012KT 5SM 09/M16 A3012 RMK T00901160 IEM_DS3505
ZBYN,1989-02-27 08:00,ZBYN 270800Z AUTO 28010KT 5SM 09/M12 A3015 RMK T00901120 IEM_DS3505
ZBYN,1989-02-27 09:00,ZBYN 270900Z AUTO 29012KT 5SM 09/M18 A3015 RMK SLP212 T00911183 52015 IEM_DS3505
ZBYN,1989-02-27 10:00,ZBYN 271000Z AUTO 27008KT 5SM 07/M14 A3015 RMK T00701140 IEM_DS3505
ZBYN,1989-02-27 11:00,ZBYN 271100Z AUTO 32010KT 6SM 05/M11 A3018 RMK T00501110 IEM_DS3505
ZBYN,1989-02-27 12:00,ZBYN 271200Z AUTO 36006KT 9SM 05/M14 A3021 RMK SLP242 T00521143 52022 IEM_DS3505
ZBYN,1989-02-27 13:00,ZBYN 271300Z AUTO 35010KT 7SM 04/M14 A3021 RMK T00401140 IEM_DS3505
ZBYN,1989-02-27 14:00,ZBYN 271400Z AUTO 34008KT 6SM 01/M11 A3021 RMK T00101110 IEM_DS3505
ZBYN,1989-02-27 15:00,ZBYN 271500Z AUTO 34006KT 9SM 03/M16 A3024 RMK SLP247 T00311162 52011 IEM_DS3505
ZBYN,1989-02-27 16:00,ZBYN 271600Z AUTO 03004KT 6SM 00/M10 A3027 RMK T00001100 IEM_DS3505
ZBYN,1989-02-27 17:00,ZBYN 271700Z AUTO 03004KT 6SM M02/M11 A3027 RMK T10201110 IEM_DS3505
ZBYN,1989-02-27 18:00,ZBYN 271800Z AUTO 00000KT 9SM M01/M10 A3027 RMK SLP251 T10141101 40124//// 52006 IEM_DS3505
ZBYN,1989-02-27 19:00,ZBYN 271900Z AUTO 6SM M05/M13 A3027 RMK T10501130 IEM_DS3505
ZBYN,1989-02-27 20:00,ZBYN 272000Z AUTO 17006KT 6SM M05/M08 A3027 RMK T10501080 IEM_DS3505
ZBYN,1989-02-27 21:00,ZBYN 272100Z AUTO 00000KT 9SM M03/M08 A3030 RMK SLP262 T10281085 52005 IEM_DS3505
ZBYN,1989-02-27 23:00,ZBYN 272300Z AUTO 00000KT 5SM M04/M10 A3030 RMK T10401100 IEM_DS3505
ZBYN,1989-02-28 00:00,ZBYN 280000Z AUTO 00000KT 9SM M02/M07 A3033 RMK SLP277 T10221070 52008 IEM_DS3505
ZBYN,1989-02-28 01:00,ZBYN 280100Z AUTO 00000KT 2SM M01/M08 A3033 RMK T10101080 IEM_DS3505
ZBYN,1989-02-28 03:00,ZBYN 280300Z AUTO 32002KT 7SM 05/M10 A3033 RMK SLP269 T00501105 52001 IEM_DS3505
ZBYN,1989-02-28 04:00,ZBYN 280400Z AUTO 00000KT 3SM 07/M09 A3030 RMK T00701090 IEM_DS3505
ZBYN,1989-02-28 05:00,ZBYN 280500Z AUTO 32006KT 6SM 08/M12 A3027 RMK T00801120 IEM_DS3505
ZBYN,1989-02-28 06:00,ZBYN 280600Z AUTO 20006KT 6SM 09/M12 A3027 RMK SLP244 T00901117 4////1036 57023 IEM_DS3505
ZBYN,1989-02-28 07:00,ZBYN 280700Z AUTO 00000KT 6SM 10/M11 A3024 RMK T01001110 IEM_DS3505
ZBYN,1989-02-28 08:00,ZBYN 280800Z AUTO 06006KT 6SM 11/M11 A3021 RMK T01101110 IEM_DS3505
ZBYN,1989-02-28 09:00,ZBYN 280900Z AUTO 02006KT 6SM 10/M15 A3024 RMK SLP234 T01001151 57010 IEM_DS3505
ZBYN,1989-02-28 10:00,ZBYN 281000Z AUTO 00000KT 6SM 09/M09 A3024 RMK T00901090 IEM_DS3505
ZBYN,1989-02-28 12:00,ZBYN 281200Z AUTO 34006KT 6SM 04/M11 A3027 RMK SLP259 T00411112 52014 IEM_DS3505
ZBYN,1989-02-28 13:00,ZBYN 281300Z AUTO 00000KT 7SM 01/M10 A3030 RMK T00101100 IEM_DS3505
ZBYN,1989-02-28 14:00,ZBYN 281400Z AUTO 00000KT 7SM 02/M11 A3030 RMK T00201110 IEM_DS3505
ZBYN,1989-02-28 15:00,ZBYN 281500Z AUTO 09010KT 7SM 03/M10 A3030 RMK T00301100 IEM_DS3505
ZBYN,1989-02-28 16:00,ZBYN 281600Z AUTO 09008KT 7SM 03/M09 A3030 RMK T00301090 IEM_DS3505
ZBYN,1989-02-28 17:00,ZBYN 281700Z AUTO 07008KT 7SM 02/M07 A3030 RMK T00201070 IEM_DS3505
ZBYN,1989-02-28 18:00,ZBYN 281800Z AUTO 00000KT 6SM M00/M10 RMK SLP267 T10011100 52004 IEM_DS3505
ZBYN,1989-02-28 21:00,ZBYN 282100Z AUTO 00000KT 6SM M02/M09 RMK SLP264 T10221088 57005 IEM_DS3505
ZBYN,1989-03-01 00:00,ZBYN 010000Z AUTO 00000KT 6SM M01/M07 A3033 RMK SLP283 T10141072 52009 IEM_DS3505
ZBYN,1989-03-01 01:00,ZBYN 010100Z AUTO 09012KT 4SM 01/M03 A3033 RMK T00101030 IEM_DS3505
ZBYN,1989-03-01 02:00,ZBYN 010200Z AUTO 11006KT 6SM 02/M06 A3033 RMK T00201060 IEM_DS3505
ZBYN,1989-03-01 03:00,ZBYN 010300Z AUTO 11004KT 4SM 03/M07 A3033 RMK SLP273 T00311072 57005 IEM_DS3505
ZBYN,1989-03-01 04:00,ZBYN 010400Z AUTO 21006KT 6SM 03/M05 A3030 RMK T00301050 IEM_DS3505
ZBYN,1989-03-01 05:00,ZBYN 010500Z AUTO 12008KT 1SM 02/M03 A3027 RMK T00201030 IEM_DS3505
ZBYN,1989-03-01 06:00,ZBYN 010600Z AUTO 14002KT 3SM M00/M00 A3026 RMK 60002 SLP266 T10011001 4////1028 57015 IEM_DS3505
ZBYN,1989-03-01 07:00,ZBYN 010700Z AUTO 10006KT 1 1/2SM 01/00 A3024 RMK T00100000 IEM_DS3505
ZBYN,1989-03-01 08:00,ZBYN 010800Z AUTO 10004KT 4SM 01/00 A3021 RMK T00100000 IEM_DS3505
ZBYN,1989-03-01 09:00,ZBYN 010900Z AUTO 00000KT 5SM 01/M01 A3021 RMK SLP250 T00061008 57017 IEM_DS3505
ZBYN,1989-03-01 11:00,ZBYN 011100Z AUTO 07008KT 3SM 01/M01 A3021 RMK T00101010 IEM_DS3505
ZBYN,1989-03-01 12:00,ZBYN 011200Z AUTO 16002KT 4SM 00/M01 A3027 RMK 60004 SLP263 T00021009 52013 IEM_DS3505
ZBYN,1989-03-01 13:00,ZBYN 011300Z AUTO 08008KT 4SM 00/M02 A3027 RMK T00001020 IEM_DS3505
ZBYN,1989-03-01 14:00,ZBYN 011400Z AUTO 08010KT 4SM 00/M03 A3027 RMK T00001030 IEM_DS3505
ZBYN,1989-03-01 15:00,ZBYN 011500Z AUTO 00000KT 4SM 00/M02 A3025 RMK SLP256 T00021015 52001 IEM_DS3505
ZBYN,1989-03-01 16:00,ZBYN 011600Z AUTO 00000KT 5SM 00/M03 A3024 RMK T00001030 IEM_DS3505
ZBYN,1989-03-01 18:00,ZBYN 011800Z AUTO 00000KT 4SM 00/M02 A3022 RMK SLP252 T00001020 40033//// 57009 IEM_DS3505
ZBYN,1989-03-01 19:00,ZBYN 011900Z AUTO 00000KT 4SM 00/M03 A3021 RMK T00001030 IEM_DS3505
ZBYN,1989-03-01 20:00,ZBYN 012000Z AUTO 00000KT 4SM 00/M01 A3021 RMK T00001010 IEM_DS3505
ZBYN,1989-03-01 21:00,ZBYN 012100Z AUTO 34002KT 4SM 00/M03 A3021 RMK SLP247 T00011028 57004 IEM_DS3505
ZBYN,1989-03-01 22:00,ZBYN 012200Z AUTO 00000KT 5SM 00/M02 A3021 RMK T00001020 IEM_DS3505
ZBYN,1989-03-01 23:00,ZBYN 012300Z AUTO 00000KT 2 1/2SM 00/M01 A3021 RMK T00001010 IEM_DS3505
ZBYN,1989-03-02 00:00,ZBYN 020000Z AUTO 36004KT 4SM 00/M03 A3021 RMK SLP241 T00041031 57005 IEM_DS3505
ZBYN,1989-03-02 01:00,ZBYN 020100Z AUTO 17004KT 2SM 00/00 A3021 RMK T00000000 IEM_DS3505
ZBYN,1989-03-02 02:00,ZBYN 020200Z AUTO 00000KT 1SM 00/M01 A3024 RMK T00001010 IEM_DS3505
ZBYN,1989-03-02 03:00,ZBYN 020300Z AUTO 04004KT 4SM M00/M02 A3024 RMK SLP257 T10011015 52013 IEM_DS3505
ZBYN,1989-03-02 05:00,ZBYN 020500Z AUTO 34004KT 1SM 00/M01 A3021 RMK T00001010 IEM_DS3505
ZBYN,1989-03-02 06:00,ZBYN 020600Z AUTO 36006KT 4SM 00/M01 A3018 RMK 60004 SLP239 T00011013 4////1003 57006 IEM_DS3505
ZBYN,1989-03-02 07:00,ZBYN 020700Z AUTO 00000KT 1SM 00/M01 A3015 RMK T00001010 IEM_DS3505
ZBYN,1989-03-02 08:00,ZBYN 020800Z AUTO 00000KT 1SM 00/00 A3018 RMK T00000000 IEM_DS3505
ZBYN,1989-03-02 09:00,ZBYN 020900Z AUTO 36002KT 4SM 00/M01 A3018 RMK SLP241 T00041007 52003 IEM_DS3505
ZBYN,1989-03-02 10:00,ZBYN 021000Z AUTO 00000KT 1/2SM 00/00 A3021 RMK T00000000 IEM_DS3505
ZBYN,1989-03-02 11:00,ZBYN 021100Z AUTO 00000KT 1/2SM 00/00 A3024 RMK T00000000 IEM_DS3505
ZBYN,1989-03-02 12:00,ZBYN 021200Z AUTO 00000KT 2SM 00/00 A3024 RMK 60004 SLP262 T00030000 52019 IEM_DS3505
ZBYN,1989-03-02 13:00,ZBYN 021300Z AUTO 00000KT 1/2SM 00/M01 A3027 RMK T00001010 IEM_DS3505
ZBYN,1989-03-02 14:00,ZBYN 021400Z AUTO 00000KT 1/2SM 00/00 A3030 RMK T00000000 IEM_DS3505
ZBYN,1989-03-02 15:00,ZBYN 021500Z AUTO 00000KT 1/4SM 00/M00 A3033 RMK SLP283 T00021001 52018 IEM_DS3505
ZBYN,1989-03-02 16:00,ZBYN 021600Z AUTO 00000KT 1SM M01/M01 A3030 RMK T10101010 IEM_DS3505
ZBYN,1989-03-02 17:00,ZBYN 021700Z AUTO 00000KT 3SM M01/M01 A3030 RMK T10101010 IEM_DS3505
ZBYN,1989-03-02 18:00,ZBYN 021800Z AUTO 00000KT 1/2SM M00/M01 A3033 RMK 60008 SLP284 T10041007 40008//// 54000 IEM_DS3505
ZBYN,1989-03-02 19:00,ZBYN 021900Z AUTO 00000KT 3SM M01/M01 A3033 RMK T10101010 IEM_DS3505
ZBYN,1989-03-02 20:00,ZBYN 022000Z AUTO 00000KT 1SM M01/M01 A3033 RMK T10101010 IEM_DS3505
ZBYN,1989-03-02 21:00,ZBYN 022100Z AUTO 00000KT 1 1/4SM M01/M01 A3033 RMK SLP288 T10061009 52004 IEM_DS3505
ZBYN,1989-03-02 22:00,ZBYN 022200Z AUTO 00000KT 1SM M02/M02 A3030 RMK T10201020 IEM_DS3505
ZBYN,1989-03-02 23:00,ZBYN 022300Z AUTO 22004KT 1/2SM M02/M02 A3033 RMK T10201020 IEM_DS3505
ZBYN,1989-03-03 00:00,ZBYN 030000Z AUTO 00000KT 1SM M00/M01 A3039 RMK SLP305 T10011009 52016 IEM_DS3505
ZBYN,1989-03-03 01:00,ZBYN 030100Z AUTO 00000KT 1/8SM M01/M01 A3039 RMK T10101010 IEM_DS3505
ZBYN,1989-03-03 02:00,ZBYN 030200Z AUTO 00000KT 1SM 00/M01 A3039 RMK T00001010 IEM_DS3505
ZBYN,1989-03-03 03:00,ZBYN 030300Z AUTO 02006KT 5SM 02/M05 A3039 RMK SLP306 T00171052 52004 IEM_DS3505
ZBYN,1989-03-03 04:00,ZBYN 030400Z AUTO 00000KT 1SM 01/00 A3039 RMK T00100000 IEM_DS3505
ZBYN,1989-03-03 05:00,ZBYN 030500Z AUTO 36006KT 7SM 03/M07 A3039 RMK SLP300 T00261067 52005 IEM_DS3505
ZBYN,1989-03-03 06:00,ZBYN 030600Z AUTO 36006KT 7SM 02/M06 A3036 RMK SLP296 T00191061 4////1010 57010 IEM_DS3505
ZBYN,1989-03-03 07:00,ZBYN 030700Z AUTO 01006KT 7SM 02/M04 A3036 RMK T00201040 IEM_DS3505
ZBYN,1989-03-03 08:00,ZBYN 030800Z AUTO 35006KT 7SM 02/M04 A3036 RMK T00201040 IEM_DS3505
ZBYN,1989-03-03 09:00,ZBYN 030900Z AUTO 36006KT 7SM 03/M07 A3039 RMK SLP300 T00261067 52005 IEM_DS3505
ZBYN,1989-03-03 10:00,ZBYN 031000Z AUTO 01010KT 7SM 00/M03 A3036 RMK T00001030 IEM_DS3505
ZBYN,1989-03-03 11:00,ZBYN 031100Z AUTO 01006KT 7SM 01/M06 A3042 RMK T00101060 IEM_DS3505
ZBYN,1989-03-03 12:00,ZBYN 031200Z AUTO 34002KT 7SM 02/M07 A3045 RMK SLP329 T00151067 52021 IEM_DS3505
ZBYN,1989-03-03 13:00,ZBYN 031300Z AUTO 00000KT 7SM 00/M06 A3045 RMK T00001060 IEM_DS3505
ZBYN,1989-03-03 14:00,ZBYN 031400Z AUTO 01006KT 6SM 00/M08 A3045 RMK T00001080 IEM_DS3505
ZBYN,1989-03-03 15:00,ZBYN 031500Z AUTO 36006KT 7SM 00/M15 A3047 RMK SLP333 T00041148 52009 IEM_DS3505
ZBYN,1989-03-03 16:00,ZBYN 031600Z AUTO 01008KT 6SM M01/M08 RMK T10101080 IEM_DS3505
ZBYN,1989-03-03 17:00,ZBYN 031700Z AUTO 36012KT 6SM M01/M06 A3050 RMK T10101060 IEM_DS3505
ZBYN,1989-03-03 18:00,ZBYN 031800Z AUTO 36010KT 7SM M01/M15 A3050 RMK SLP339 T10121148 40030//// 52003 IEM_DS3505
ZBYN,1989-03-03 19:00,ZBYN 031900Z AUTO 36014KT 6SM M03/M11 A3047 RMK T10301110 IEM_DS3505
ZBYN,1989-03-03 20:00,ZBYN 032000Z AUTO 36010KT 6SM M04/M14 A3047 RMK T10401140 IEM_DS3505
ZBYN,1989-03-03 21:00,ZBYN 032100Z AUTO 02010KT 9SM M03/M16 A3047 RMK SLP338 T10321157 57003 IEM_DS3505
ZBYN,1989-03-03 22:00,ZBYN 032200Z AUTO 01008KT 6SM M04/M15 A3047 RMK T10401150 IEM_DS3505
ZBYN,1989-03-03 23:00,ZBYN 032300Z AUTO 36008KT 6SM M05/M15 A3047 RMK T10501150 IEM_DS3505
ZBYN,1989-03-04 00:00,ZBYN 040000Z AUTO 02006KT 7SM M04/M15 A3050 RMK SLP353 T10411148 52010 IEM_DS3505
ZBYN,1989-03-04 01:00,ZBYN 040100Z AUTO 02006KT 6SM M03/M15 A3050 RMK T10301150 IEM_DS3505
ZBYN,1989-03-04 03:00,ZBYN 040300Z AUTO 00000KT 6SM M02/M14 A3047 RMK SLP337 T10161136 57012 IEM_DS3505
ZBYN,1989-03-04 04:00,ZBYN 040400Z AUTO 25006KT 6SM 00/M15 A3045 RMK T00001150 IEM_DS3505
ZBYN,1989-03-04 05:00,ZBYN 040500Z AUTO 30017KT 7SM 02/M11 A3042 RMK T00201110 IEM_DS3505
ZBYN,1989-03-04 06:00,ZBYN 040600Z AUTO 29017KT 19SM 01/M16 A3036 RMK SLP297 T00101156 4////1047 57035 IEM_DS3505
ZBYN,1989-03-04 07:00,ZBYN 040700Z AUTO 28017KT 7SM 03/M10 A3033 RMK T00301100 IEM_DS3505
ZBYN,1989-03-04 08:00,ZBYN 040800Z AUTO 29019KT 7SM 02/M12 A3033 RMK T00201120 IEM_DS3505
ZBYN,1989-03-04 09:00,ZBYN 040900Z AUTO 32012KT 12SM 01/M16 A3030 RMK SLP283 T00131164 57015 IEM_DS3505
ZBYN,1989-03-04 11:00,ZBYN 041100Z AUTO 29010KT 7SM M01/M15 A3030 RMK T10101150 IEM_DS3505
ZBYN,1989-03-04 12:00,ZBYN 041200Z AUTO 29004KT 12SM M01/M18 A3030 RMK SLP298 T10141183 52007 IEM_DS3505
ZBYN,1989-03-04 13:00,ZBYN 041300Z AUTO 31016KT 7SM M02/M12 A3033 RMK T10201120 IEM_DS3505
ZBYN,1989-03-04 14:00,ZBYN 041400Z AUTO 33008KT 7SM M02/M13 A3036 RMK T10201130 IEM_DS3505
ZBYN,1989-03-04 15:00,ZBYN 041500Z AUTO 34004KT 9SM M02/M14 A3036 RMK SLP299 T10191142 52005 IEM_DS3505
ZBYN,1989-03-04 16:00,ZBYN 041600Z AUTO 30008KT 7SM M03/M13 A3033 RMK T10301130 IEM_DS3505
ZBYN,1989-03-04 18:00,ZBYN 041800Z AUTO 32004KT 9SM M02/M14 A3033 RMK SLP286 T10251141 40028//// 57009 IEM_DS3505
ZBYN,1989-03-04 19:00,ZBYN 041900Z AUTO 26004KT 7SM M04/M14 A3030 RMK T10401140 IEM_DS3505
ZBYN,1989-03-04 21:00,ZBYN 042100Z AUTO 09002KT 9SM M06/M13 A3028 RMK SLP280 T10571130 57010 IEM_DS3505
ZBYN,1989-03-04 22:00,ZBYN 042200Z AUTO 11004KT 7SM M07/M13 A3030 RMK T10701130 IEM_DS3505
ZBYN,1989-03-04 23:00,ZBYN 042300Z AUTO 00000KT 7SM M09/M12 A3030 RMK T10901120 IEM_DS3505
ZBYN,1989-03-05 00:00,ZBYN 050000Z AUTO 11002KT 9SM M06/M09 A3030 RMK SLP297 T10571092 52011 IEM_DS3505
ZBYN,1989-03-05 01:00,ZBYN 050100Z AUTO 14004KT 7SM M02/M11 A3033 RMK T10201110 IEM_DS3505
ZBYN,1989-03-05 02:00,ZBYN 050200Z AUTO 17006KT 7SM M01/M11 A3033 RMK T10101110 IEM_DS3505
ZBYN,1989-03-05 03:00,ZBYN 050300Z AUTO 32006KT 19SM 02/M13 A3033 RMK SLP287 T00181131 52002 IEM_DS3505
ZBYN,1989-03-05 04:00,ZBYN 050400Z AUTO 18006KT 7SM 03/M12 RMK T00301120 IEM_DS3505
ZBYN,1989-03-05 06:00,ZBYN 050600Z AUTO 07002KT 19SM 05/M13 A3027 RMK SLP262 T00461126 4////1077 57019 IEM_DS3505
ZBYN,1989-03-05 07:00,ZBYN 050700Z AUTO 22008KT 7SM 06/M10 A3024 RMK T00601100 IEM_DS3505
ZBYN,1989-03-05 08:00,ZBYN 050800Z AUTO 19010KT 7SM 05/M08 A3024 RMK T00501080 IEM_DS3505
ZBYN,1989-03-05 09:00,ZBYN 050900Z AUTO 32012KT 19SM 06/M17 A3021 RMK SLP250 T00601166 57014 IEM_DS3505
ZBYN,1989-03-05 10:00,ZBYN 051000Z AUTO 07004KT 7SM 05/M09 A3024 RMK T00501090 IEM_DS3505
ZBYN,1989-03-05 12:00,ZBYN 051200Z AUTO 04004KT 19SM 02/M15 A3030 RMK SLP284 T00201146 52025 IEM_DS3505
ZBYN,1989-03-05 13:00,ZBYN 051300Z AUTO 01006KT 7SM 00/M12 A3033 RMK T00001120 IEM_DS3505
ZBYN,1989-03-05 15:00,ZBYN 051500Z AUTO 34002KT 16SM M01/M12 A3036 RMK SLP296 T10141120 52017 IEM_DS3505
ZBYN,1989-03-05 16:00,ZBYN 051600Z AUTO 01004KT 7SM M03/M12 A3036 RMK T10301120 IEM_DS3505
ZBYN,1989-03-05 17:00,ZBYN 051700Z AUTO 00000KT 7SM M03/M12 A3039 RMK T10301120 IEM_DS3505
ZBYN,1989-03-05 18:00,ZBYN 051800Z AUTO 02002KT 12SM M03/M13 A3039 RMK SLP301 T10301133 40067//// 52007 IEM_DS3505
ZBYN,1989-03-05 19:00,ZBYN 051900Z AUTO 02002KT 12SM M04/M13 RMK SLP301 T10381133 52007 IEM_DS3505
ZBYN,1989-03-05 21:00,ZBYN 052100Z AUTO 00000KT 12SM M05/M10 A3039 RMK SLP303 T10461105 52001 IEM_DS3505
ZBYN,1989-03-05 23:00,ZBYN 052300Z AUTO 35008KT 6SM M06/M12 A3039 RMK T10601120 IEM_DS3505
ZBYN,1989-03-06 00:00,ZBYN 060000Z AUTO 00000KT 6SM M04/M10 A3042 RMK SLP325 T10421099 52014 IEM_DS3505
ZBYN,1989-03-06 01:00,ZBYN 060100Z AUTO 34010KT 6SM M03/M13 A3045 RMK T10301130 IEM_DS3505
ZBYN,1989-03-06 03:00,ZBYN 060300Z AUTO 34004KT 11SM 00/M14 A3045 RMK SLP329 T00021136 52006 IEM_DS3505
ZBYN,1989-03-06 06:00,ZBYN 060600Z AUTO 14004KT 19SM 02/M14 A3039 RMK SLP301 T00241144 4////1062 57025 IEM_DS3505
ZBYN,1989-03-06 07:00,ZBYN 060700Z AUTO 00000KT 7SM 04/M14 A3036 RMK T00401140 IEM_DS3505
ZBYN,1989-03-06 08:00,ZBYN 060800Z AUTO 31017KT 7SM 05/M18 A3033 RMK T00501180 IEM_DS3505
ZBYN,1989-03-06 09:00,ZBYN 060900Z AUTO 32012KT 19SM 04/M11 A3033 RMK SLP295 T00361112 57006 IEM_DS3505
ZBYN,1989-03-06 10:00,ZBYN 061000Z AUTO 32019KT 7SM 03/M18 A3036 RMK T00301180 IEM_DS3505
ZBYN,1989-03-06 11:00,ZBYN 061100Z AUTO 32016KT 7SM 01/M14 A3039 RMK T00101140 IEM_DS3505
ZBYN,1989-03-06 12:00,ZBYN 061200Z AUTO 34006KT 12SM 01/M15 A3039 RMK SLP326 T00061147 52024 IEM_DS3505
ZBYN,1989-03-06 13:00,ZBYN 061300Z AUTO 33014KT 7SM 00/M11 A3045 RMK T00001110 IEM_DS3505
ZBYN,1989-03-06 14:00,ZBYN 061400Z AUTO 33016KT 7SM M01/M12 A3047 RMK T10101120 IEM_DS3505
ZBYN,1989-03-06 15:00,ZBYN 061500Z AUTO 34010KT 9SM M01/M14 A3050 RMK SLP351 T10141145 52027 IEM_DS3505
ZBYN,1989-03-06 16:00,ZBYN 061600Z AUTO 33012KT 7SM M02/M15 A3050 RMK T10201150 IEM_DS3505
ZBYN,1989-03-06 17:00,ZBYN 061700Z AUTO 34006KT 7SM M04/M17 A3053 RMK T10401170 IEM_DS3505
ZBYN,1989-03-06 18:00,ZBYN 061800Z AUTO 32004KT 9SM M04/M17 A3055 RMK SLP367 T10431166 40048//// 52013 IEM_DS3505
ZBYN,1989-03-07 00:00,ZBYN 070000Z AUTO 09004KT 9SM M06/M17 A3056 RMK SLP387 T10601171 IEM_DS3505
ZBYN,1989-03-07 01:00,ZBYN 070100Z AUTO 35010KT 7SM M04/M18 A3056 RMK T10401180 IEM_DS3505
ZBYN,1989-03-07 02:00,ZBYN 070200Z AUTO 35004KT 7SM M03/M16 A3059 RMK T10301160 IEM_DS3505
ZBYN,1989-03-07 03:00,ZBYN 070300Z AUTO 34004KT 9SM M02/M15 A3056 RMK SLP380 T10201150 52003 IEM_DS3505
ZBYN,1989-03-07 04:00,ZBYN 070400Z AUTO 21010KT 7SM 00/M19 A3056 RMK T00001190 IEM_DS3505
ZBYN,1989-03-07 05:00,ZBYN 070500Z AUTO 33006KT 7SM 01/M19 A3053 RMK T00101190 IEM_DS3505
ZBYN,1989-03-07 06:00,ZBYN 070600Z AUTO 32010KT 19SM 03/M21 A3047 RMK SLP338 T00281212 4////1080 57036 IEM_DS3505
ZBYN,1989-03-07 07:00,ZBYN 070700Z AUTO 00000KT 7SM 04/ A3045 RMK IEM_DS3505
ZBYN,1989-03-07 09:00,ZBYN 070900Z AUTO 32008KT 19SM 04/M26 A3042 RMK SLP317 T00381262 57022 IEM_DS3505
ZBYN,1989-03-07 10:00,ZBYN 071000Z AUTO 28012KT 7SM 03/M24 A3042 RMK T00301240 IEM_DS3505
ZBYN,1989-03-07 11:00,ZBYN 071100Z AUTO 28008KT 7SM 00/M17 A3042 RMK T00001170 IEM_DS3505
ZBYN,1989-03-07 12:00,ZBYN 071200Z AUTO 32006KT 19SM 00/M18 A3045 RMK SLP342 T00001179 52018 IEM_DS3505
ZBYN,1989-03-07 13:00,ZBYN 071300Z AUTO 32006KT 7SM M03/M17 A3047 RMK T10301170 IEM_DS3505
ZBYN,1989-03-07 14:00,ZBYN 071400Z AUTO 33008KT 7SM M02/M20 A3047 RMK T10201200 IEM_DS3505
ZBYN,1989-03-07 15:00,ZBYN 071500Z AUTO 32002KT 7SM M04/M15 A3047 RMK SLP347 T10371146 52006 IEM_DS3505
ZBYN,1989-03-07 16:00,ZBYN 071600Z AUTO 00000KT 7SM M06/M15 A3047 RMK T10601150 IEM_DS3505
ZBYN,1989-03-07 17:00,ZBYN 071700Z AUTO 11004KT 7SM M08/M14 A3045 RMK T10801140 IEM_DS3505
ZBYN,1989-03-07 18:00,ZBYN 071800Z AUTO 14002KT 16SM M06/M13 A3042 RMK SLP332 T10641127 40050//// 57011 IEM_DS3505
ZBYN,1989-03-07 20:00,ZBYN 072000Z AUTO 11004KT 7SM M08/M15 A3042 RMK T10801150 IEM_DS3505
ZBYN,1989-03-07 21:00,ZBYN 072100Z AUTO 00000KT 12SM M09/M14 A3039 RMK SLP314 T10881139 57018 IEM_DS3505
ZBYN,1989-03-07 22:00,ZBYN 072200Z AUTO 00000KT 7SM M11/M12 A3039 RMK T11101120 IEM_DS3505
ZBYN,1989-03-07 23:00,ZBYN 072300Z AUTO 08004KT 7SM M10/M15 A3039 RMK T11001150 IEM_DS3505
ZBYN,1989-03-08 00:00,ZBYN 080000Z AUTO 00000KT 12SM M07/M12 A3039 RMK SLP321 T10741115 52002 IEM_DS3505
ZBYN,1989-03-08 01:00,ZBYN 080100Z AUTO 00000KT 7SM M03/M12 A3042 RMK T10301120 IEM_DS3505
ZBYN,1989-03-08 02:00,ZBYN 080200Z AUTO 18006KT 7SM 00/M12 A3042 RMK T00001120 IEM_DS3505
ZBYN,1989-03-08 03:00,ZBYN 080300Z AUTO 32008KT 19SM 03/M10 A3039 RMK SLP304 T00311097 57004 IEM_DS3505
ZBYN,1989-03-08 04:00,ZBYN 080400Z AUTO 32021KT 7SM 05/M09 A3036 RMK T00501090 IEM_DS3505
ZBYN,1989-03-08 05:00,ZBYN 080500Z AUTO 31014KT 7SM 06/M16 A3030 RMK T00601160 IEM_DS3505
ZBYN,1989-03-08 06:00,ZBYN 080600Z AUTO 32014KT 19SM 07/M22 A3027 RMK SLP265 T00721225 4////1101 57033 IEM_DS3505
ZBYN,1989-03-08 07:00,ZBYN 080700Z AUTO 29014KT 7SM 07/M14 A3024 RMK T00701140 IEM_DS3505
ZBYN,1989-03-08 08:00,ZBYN 080800Z AUTO 29017KT 7SM 07/M14 A3024 RMK T00701140 IEM_DS3505
ZBYN,1989-03-08 09:00,ZBYN 080900Z AUTO 29012KT 19SM 06/ A3024 RMK SLP261 57009 IEM_DS3505
ZBYN,1989-03-08 10:00,ZBYN 081000Z AUTO 29014KT 7SM 05/M16 A3024 RMK T00501160 IEM_DS3505
ZBYN,1989-03-08 11:00,ZBYN 081100Z AUTO 27008KT 7SM 03/M14 A3027 RMK T00301140 IEM_DS3505
ZBYN,1989-03-08 12:00,ZBYN 081200Z AUTO 27004KT 12SM 02/M14 A3028 RMK SLP281 T00171140 52013 IEM_DS3505
ZBYN,1989-03-08 14:00,ZBYN 081400Z AUTO 24008KT 7SM 00/M12 A3030 RMK T00001120 IEM_DS3505
ZBYN,1989-03-08 15:00,ZBYN 081500Z AUTO 00000KT 12SM M02/M13 A3030 RMK SLP283 T10241127 52012 IEM_DS3505
ZBYN,1989-03-08 17:00,ZBYN 081700Z AUTO 09008KT 7SM M04/M13 A3033 RMK T10401130 IEM_DS3505
ZBYN,1989-03-08 18:00,ZBYN 081800Z AUTO 04002KT 12SM M03/M12 A3032 RMK SLP277 T10281117 40075//// 52001 IEM_DS3505
ZBYN,1989-03-08 19:00,ZBYN 081900Z AUTO 09006KT 7SM A3033 RMK IEM_DS3505
ZBYN,1989-03-08 21:00,ZBYN 082100Z AUTO 00000KT 12SM M06/M11 A3030 RMK SLP283 T10621113 57002 IEM_DS3505
ZBYN,1989-03-08 22:00,ZBYN 082200Z AUTO 11006KT 6SM M07/M12 A3030 RMK T10701120 IEM_DS3505
ZBYN,1989-03-08 23:00,ZBYN 082300Z AUTO 08006KT 6SM M07/M13 A3030 RMK T10701130 IEM_DS3505
ZBYN,1989-03-09 00:00,ZBYN 090000Z AUTO 00000KT 11SM M06/M11 A3029 RMK SLP283 T10551113 57006 IEM_DS3505
ZBYN,1989-03-09 01:00,ZBYN 090100Z AUTO 10006KT 7SM M01/M11 A3030 RMK T10101110 IEM_DS3505
ZBYN,1989-03-09 02:00,ZBYN 090200Z AUTO 16008KT 7SM 02/M09 A3030 RMK T00201090 IEM_DS3505
ZBYN,1989-03-09 03:00,ZBYN 090300Z AUTO 16006KT 12SM 04/M12 A3029 RMK SLP273 T00371117 57001 IEM_DS3505
ZBYN,1989-03-09 04:00,ZBYN 090400Z AUTO 20012KT 7SM 07/M09 A3027 RMK T00701090 IEM_DS3505
ZBYN,1989-03-09 05:00,ZBYN 090500Z AUTO 25010KT 7SM 08/M11 A3024 RMK T00801110 IEM_DS3505
ZBYN,1989-03-09 06:00,ZBYN 090600Z AUTO 32010KT 12SM 09/M18 A3018 RMK SLP223 T00941182 4////1074 57037 IEM_DS3505
ZBYN,1989-03-09 07:00,ZBYN 090700Z AUTO 29010KT 7SM 11/M13 A3015 RMK T01101130 IEM_DS3505
ZBYN,1989-03-09 08:00,ZBYN 090800Z AUTO 29016KT 7SM 10/M14 A3012 RMK T01001140 IEM_DS3505
ZBYN,1989-03-09 09:00,ZBYN 090900Z AUTO 32008KT 12SM 09/M17 A3012 RMK SLP210 T00941171 57017 IEM_DS3505
ZBYN,1989-03-09 12:00,ZBYN 091200Z AUTO 29004KT 12SM 03/M13 A3016 RMK SLP233 T00341127 52012 IEM_DS3505
ZBYN,1989-03-09 13:00,ZBYN 091300Z AUTO 32012KT 7SM 01/M10 A3018 RMK T00101100 IEM_DS3505
ZBYN,1989-03-09 14:00,ZBYN 091400Z AUTO 30004KT 7SM 01/M09 A3018 RMK T00101090 IEM_DS3505
ZBYN,1989-03-09 15:00,ZBYN 091500Z AUTO 00000KT 12SM M00/M10 A3018 RMK SLP236 T10051097 52011 IEM_DS3505
ZBYN,1989-03-09 16:00,ZBYN 091600Z AUTO 12006KT 7SM M03/M08 A3021 RMK T10301080 IEM_DS3505
ZBYN,1989-03-09 18:00,ZBYN 091800Z AUTO 00000KT 11SM M03/M09 A3018 RMK SLP226 T10321089 40103//// 57004 IEM_DS3505
ZBYN,1989-03-09 19:00,ZBYN 091900Z AUTO 09006KT 7SM M04/M13 A3018 RMK T10401130 IEM_DS3505
ZBYN,1989-03-09 21:00,ZBYN 092100Z AUTO 00000KT 7SM M05/M09 A3015 RMK SLP225 T10531091 57004 IEM_DS3505
ZBYN,1989-03-09 23:00,ZBYN 092300Z AUTO 00000KT 6SM M06/M12 A3018 RMK T10601120 IEM_DS3505
ZBYN,1989-03-10 00:00,ZBYN 100000Z AUTO 00000KT 5SM M03/M11 A3021 RMK SLP244 T10301110 52011 IEM_DS3505
ZBYN,1989-03-10 01:00,ZBYN 100100Z AUTO 00000KT 6SM 00/M09 A3021 RMK T00001090 IEM_DS3505
ZBYN,1989-03-10 02:00,ZBYN 100200Z AUTO 00000KT 6SM 04/M10 A3021 RMK T00401100 IEM_DS3505
ZBYN,1989-03-10 03:00,ZBYN 100300Z AUTO 00000KT 5SM 06/M16 A3018 RMK SLP228 T00551160 57007 IEM_DS3505
ZBYN,1989-03-10 04:00,ZBYN 100400Z AUTO 17006KT 6SM 08/M10 A3018 RMK T00801100 IEM_DS3505
ZBYN,1989-03-10 05:00,ZBYN 100500Z AUTO 20008KT 6SM 10/M09 A3015 RMK T01001090 IEM_DS3505
ZBYN,1989-03-10 06:00,ZBYN 100600Z AUTO 20008KT 6SM 10/M10 A3009 RMK SLP194 T01041099 4////1061 57027 IEM_DS3505
ZBYN,1989-03-10 07:00,ZBYN 100700Z AUTO 22008KT 6SM 11/M08 A3006 RMK T01101080 IEM_DS3505
ZBYN,1989-03-10 08:00,ZBYN 100800Z AUTO 20010KT 6SM 12/M07 A3006 RMK T01201070 IEM_DS3505
ZBYN,1989-03-10 09:00,ZBYN 100900Z AUTO 20006KT 7SM 11/M07 A3003 RMK SLP179 T01121074 57016 IEM_DS3505
ZBYN,1989-03-10 10:00,ZBYN 101000Z AUTO 23010KT 6SM 10/M05 A3006 RMK T01001050 IEM_DS3505
ZBYN,1989-03-10 11:00,ZBYN 101100Z AUTO 24008KT 6SM 08/M04 A3006 RMK T00801040 IEM_DS3505
ZBYN,1989-03-10 12:00,ZBYN 101200Z AUTO 29006KT 7SM 07/M12 A3009 RMK SLP199 T00701116 52015 IEM_DS3505
ZBYN,1989-03-10 13:00,ZBYN 101300Z AUTO 00000KT 6SM 07/M08 A3012 RMK T00701080 IEM_DS3505
ZBYN,1989-03-10 14:00,ZBYN 101400Z AUTO 36004KT 6SM 06/M10 A3015 RMK T00601100 IEM_DS3505
ZBYN,1989-03-10 15:00,ZBYN 101500Z AUTO 09004KT 9SM 06/ A3015 RMK SLP208 52020 IEM_DS3505
ZBYN,1989-03-10 16:00,ZBYN 101600Z AUTO 20004KT 6SM 03/M11 A3015 RMK T00301110 IEM_DS3505
ZBYN,1989-03-10 17:00,ZBYN 101700Z AUTO 09006KT 6SM A3018 RMK IEM_DS3505
ZBYN,1989-03-10 18:00,ZBYN 101800Z AUTO 27002KT 9SM M02/M18 A3017 RMK SLP219 T10151180 52011 IEM_DS3505
ZBYN,1989-03-10 19:00,ZBYN 101900Z AUTO 00000KT 6SM M04/M11 A3015 RMK T10401110 IEM_DS3505
ZBYN,1989-03-10 20:00,ZBYN 102000Z AUTO 00000KT 7SM M05/M12 A3015 RMK T10501120 IEM_DS3505
ZBYN,1989-03-10 21:00,ZBYN 102100Z AUTO 00000KT 9SM M04/M09 A3016 RMK SLP219 T10401092 57004 IEM_DS3505
ZBYN,1989-03-10 22:00,ZBYN 102200Z AUTO 11006KT 6SM M05/M12 A3015 RMK T10501120 IEM_DS3505
ZBYN,1989-03-10 23:00,ZBYN 102300Z AUTO 09004KT 6SM M06/M12 A3018 RMK T10601120 IEM_DS3505
ZBYN,1989-03-11 00:00,ZBYN 110000Z AUTO 00000KT 6SM M04/M09 A3020 RMK SLP237 T10381089 52011 IEM_DS3505
ZBYN,1989-03-11 01:00,ZBYN 110100Z AUTO 00000KT 6SM 01/M08 A3021 RMK T00101080 IEM_DS3505
ZBYN,1989-03-11 02:00,ZBYN 110200Z AUTO 00000KT 6SM 04/M06 A3021 RMK T00401060 IEM_DS3505
ZBYN,1989-03-11 03:00,ZBYN 110300Z AUTO 20004KT 5SM 04/M10 A3018 RMK SLP222 T00441100 57002 IEM_DS3505
ZBYN,1989-03-11 04:00,ZBYN 110400Z AUTO 23008KT 6SM 08/M08 A3018 RMK T00801080 IEM_DS3505
ZBYN,1989-03-11 05:00,ZBYN 110500Z AUTO 6SM 09/M10 A3015 RMK T00901100 IEM_DS3505
ZBYN,1989-03-11 06:00,ZBYN 110600Z AUTO 20010KT 5SM 11/M14 A3009 RMK SLP192 T01071135 4////1057 57029 IEM_DS3505
ZBYN,1989-03-11 07:00,ZBYN 110700Z AUTO 22012KT 6SM 11/M11 A3006 RMK T01101110 IEM_DS3505
ZBYN,1989-03-11 08:00,ZBYN 110800Z AUTO 22014KT 6SM 11/M15 A3006 RMK T01101150 IEM_DS3505
ZBYN,1989-03-11 09:00,ZBYN 110900Z AUTO 22008KT 7SM 11/M15 A3003 RMK SLP174 T01081154 57021 IEM_DS3505
ZBYN,1989-03-11 10:00,ZBYN 111000Z AUTO 16006KT 6SM 10/M08 A3003 RMK T01001080 IEM_DS3505
ZBYN,1989-03-11 11:00,ZBYN 111100Z AUTO 20002KT 6SM 09/M07 A3003 RMK T00901070 IEM_DS3505
ZBYN,1989-03-11 12:00,ZBYN 111200Z AUTO 22006KT 7SM 09/M14 A3003 RMK SLP178 T00901142 52002 IEM_DS3505
ZBYN,1989-03-11 13:00,ZBYN 111300Z AUTO 00000KT 6SM 06/M07 A3006 RMK T00601070 IEM_DS3505
ZBYN,1989-03-11 15:00,ZBYN 111500Z AUTO 36004KT 9SM 06/M10 A3009 RMK SLP184 T00561097 52013 IEM_DS3505
ZBYN,1989-03-11 18:00,ZBYN 111800Z AUTO 00000KT 9SM 02/M08 A3006 RMK SLP172 T00251081 40125//// 57006 IEM_DS3505
ZBYN,1989-03-11 21:00,ZBYN 112100Z AUTO 00000KT 9SM M02/M08 RMK SLP164 T10161081 57013 IEM_DS3505
ZBYN,1989-03-11 23:00,ZBYN 112300Z AUTO 00000KT 7SM M03/M06 A3003 RMK T10301060 IEM_DS3505
ZBYN,1989-03-12 00:00,ZBYN 120000Z AUTO 00000KT 6SM M02/M07 A3003 RMK SLP174 T10191070 52005 IEM_DS3505
ZBYN,1989-03-12 01:00,ZBYN 120100Z AUTO 00000KT 4SM 03/M05 A3003 RMK T00301050 IEM_DS3505
ZBYN,1989-03-12 02:00,ZBYN 120200Z AUTO 17004KT 4SM 05/M07 A3006 RMK T00501070 IEM_DS3505
ZBYN,1989-03-12 03:00,ZBYN 120300Z AUTO 16002KT 6SM 07/M06 A3003 RMK SLP163 T00701060 57001 IEM_DS3505
ZBYN,1989-03-12 04:00,ZBYN 120400Z AUTO 22012KT 6SM 10/M07 A3000 RMK T01001070 IEM_DS3505
ZBYN,1989-03-12 05:00,ZBYN 120500Z AUTO 24014KT 6SM 11/M09 A3000 RMK T01101090 IEM_DS3505
ZBYN,1989-03-12 06:00,ZBYN 120600Z AUTO 20010KT 9SM 13/M10 A2994 RMK SLP132 T01301100 4////1033 57024 IEM_DS3505
ZBYN,1989-03-12 07:00,ZBYN 120700Z AUTO 23012KT 6SM 14/M13 A2991 RMK T01401130 IEM_DS3505
ZBYN,1989-03-12 08:00,ZBYN 120800Z AUTO 21012KT 6SM 14/M11 A2988 RMK T01401110 IEM_DS3505
ZBYN,1989-03-12 09:00,ZBYN 120900Z AUTO 20006KT 9SM 13/M13 A2988 RMK SLP116 T01331130 57020 IEM_DS3505
ZBYN,1989-03-12 10:00,ZBYN 121000Z AUTO 24006KT 6SM 12/M10 A2991 RMK T01201100 IEM_DS3505
ZBYN,1989-03-12 11:00,ZBYN 121100Z AUTO 31004KT 6SM 10/M07 A2994 RMK T01001070 IEM_DS3505
ZBYN,1989-03-12 12:00,ZBYN 121200Z AUTO 29004KT 6SM 08/M12 A2997 RMK SLP167 T00841124 52020 IEM_DS3505
ZBYN,1989-03-12 13:00,ZBYN 121300Z AUTO 27006KT 6SM 09/M13 A2997 RMK T00901130 IEM_DS3505
ZBYN,1989-03-12 14:00,ZBYN 121400Z AUTO 25008KT 6SM 08/M13 A2997 RMK T00801130 IEM_DS3505
ZBYN,1989-03-12 15:00,ZBYN 121500Z AUTO 27006KT 6SM 07/M11 A2997 RMK SLP135 T00731108 52002 IEM_DS3505
ZBYN,1989-03-12 16:00,ZBYN 121600Z AUTO 26010KT 6SM 08/M14 A2997 RMK T00801140 IEM_DS3505
ZBYN,1989-03-12 17:00,ZBYN 121700Z AUTO 27008KT 6SM 08/M14 A3000 RMK T00801140 IEM_DS3505
ZBYN,1989-03-12 18:00,ZBYN 121800Z AUTO 27004KT 6SM 07/M12 A3000 RMK SLP142 T00701120 40147//// 52012 IEM_DS3505
ZBYN,1989-03-12 19:00,ZBYN 121900Z AUTO 26006KT 6SM 06/M12 A3000 RMK T00601120 IEM_DS3505
ZBYN,1989-03-12 21:00,ZBYN 122100Z AUTO 32004KT 6SM 04/M12 A3000 RMK SLP153 T00381117 52008 IEM_DS3505
ZBYN,1989-03-12 22:00,ZBYN 122200Z AUTO 26008KT 6SM 04/M14 A3003 RMK T00401140 IEM_DS3505
ZBYN,1989-03-12 23:00,ZBYN 122300Z AUTO 28006KT 6SM 04/M14 A3006 RMK T00401140 IEM_DS3505
ZBYN,1989-03-13 00:00,ZBYN 130000Z AUTO 00000KT 6SM 05/M16 A3006 RMK SLP176 T00501162 52015 IEM_DS3505
ZBYN,1989-03-13 01:00,ZBYN 130100Z AUTO 27010KT 6SM 07/M19 A3009 RMK T00701190 IEM_DS3505
ZBYN,1989-03-13 02:00,ZBYN 130200Z AUTO 29010KT 6SM 08/M23 A3006 RMK T00801230 IEM_DS3505
ZBYN,1989-03-13 03:00,ZBYN 130300Z AUTO 32010KT 6SM 09/M24 A3006 RMK SLP169 T00941241 57001 IEM_DS3505
ZBYN,1989-03-13 04:00,ZBYN 130400Z AUTO 30023KT 7SM 11/M22 A3003 RMK T01101220 IEM_DS3505
ZBYN,1989-03-13 05:00,ZBYN 130500Z AUTO 27010KT 7SM 12/M23 A3000 RMK T01201230 IEM_DS3505
ZBYN,1989-03-13 06:00,ZBYN 130600Z AUTO 29014KT 7SM 12/M23 A2997 RMK SLP134 T01221231 4////0014 57031 IEM_DS3505
ZBYN,1989-03-13 08:00,ZBYN 130800Z AUTO 27017KT 7SM 13/M26 A2994 RMK T01301260 IEM_DS3505
ZBYN,1989-03-13 09:00,ZBYN 130900Z AUTO 25016KT 7SM 13/M23 A2994 RMK SLP122 T01301230 57013 IEM_DS3505
ZBYN,1989-03-13 10:00,ZBYN 131000Z AUTO 27014KT 7SM 11/M21 A2994 RMK T01101210 IEM_DS3505
ZBYN,1989-03-13 12:00,ZBYN 131200Z AUTO 00000KT 7SM 08/M13 A2997 RMK SLP141 T00811132 52013 IEM_DS3505
ZBYN,1989-03-13 14:00,ZBYN 131400Z AUTO 12004KT 7SM 04/M11 A3000 RMK T00401110 IEM_DS3505
ZBYN,1989-03-13 15:00,ZBYN 131500Z AUTO 07004KT 7SM 02/ A3000 RMK SLP148 52004 IEM_DS3505
ZBYN,1989-03-13 16:00,ZBYN 131600Z AUTO 00000KT 7SM 03/M09 A2997 RMK T00301090 IEM_DS3505
ZBYN,1989-03-13 18:00,ZBYN 131800Z AUTO 00000KT 7SM 03/M09 A2997 RMK SLP143 T00271086 40137//// 54000 IEM_DS3505
ZBYN,1989-03-13 19:00,ZBYN 131900Z AUTO 24012KT 7SM 04/M11 A2997 RMK T00401110 IEM_DS3505
ZBYN,1989-03-13 20:00,ZBYN 132000Z AUTO 24010KT 7SM 04/M13 A2997 RMK T00401130 IEM_DS3505
ZBYN,1989-03-13 21:00,ZBYN 132100Z AUTO 32006KT 7SM 05/M17 A3000 RMK SLP145 T00531169 52006 IEM_DS3505
ZBYN,1989-03-13 22:00,ZBYN 132200Z AUTO 25006KT 7SM 04/M13 A3000 RMK T00401130 IEM_DS3505
ZBYN,1989-03-14 00:00,ZBYN 140000Z AUTO 27004KT 5SM 04/M13 A3006 RMK SLP180 T00451126 52024 IEM_DS3505
ZBYN,1989-03-14 01:00,ZBYN 140100Z AUTO 07012KT 7SM 08/M20 A3009 RMK T00801200 IEM_DS3505
ZBYN,1989-03-14 02:00,ZBYN 140200Z AUTO 26016KT 7SM 09/M23 A3009 RMK T00901230 IEM_DS3505
ZBYN,1989-03-14 03:00,ZBYN 140300Z AUTO 32010KT 5SM 11/M20 A3009 RMK SLP185 T01061203 52005 IEM_DS3505
ZBYN,1989-03-14 04:00,ZBYN 140400Z AUTO 31019KT 7SM 13/M21 A3006 RMK T01301210 IEM_DS3505
ZBYN,1989-03-14 06:00,ZBYN 140600Z AUTO 20006KT 6SM 14/M12 A3000 RMK SLP155 T01351125 4////0013 57022 IEM_DS3505
ZBYN,1989-03-14 07:00,ZBYN 140700Z AUTO 21012KT 7SM 15/M17 A2997 RMK T01501170 IEM_DS3505
ZBYN,1989-03-14 09:00,ZBYN 140900Z AUTO 32012KT 9SM 14/M17 A2997 RMK SLP139 T01421174 57009 IEM_DS3505
ZBYN,1989-03-14 10:00,ZBYN 141000Z AUTO 32010KT 7SM 13/M18 A2997 RMK T01301180 IEM_DS3505
ZBYN,1989-03-14 11:00,ZBYN 141100Z AUTO 32008KT 7SM 09/M13 A3000 RMK T00901130 IEM_DS3505
ZBYN,1989-03-14 12:00,ZBYN 141200Z AUTO 32004KT 11SM 09/M13 A3003 RMK SLP158 T00901128 52008 IEM_DS3505
ZBYN,1989-03-14 13:00,ZBYN 141300Z AUTO 19004KT 7SM 06/M11 A3003 RMK T00601110 IEM_DS3505
ZBYN,1989-03-14 14:00,ZBYN 141400Z AUTO 07008KT 7SM 04/M13 A3006 RMK T00401130 IEM_DS3505
ZBYN,1989-03-14 15:00,ZBYN 141500Z AUTO 14002KT 12SM 04/M14 A3006 RMK SLP165 T00381136 52008 IEM_DS3505
ZBYN,1989-03-14 16:00,ZBYN 141600Z AUTO 11008KT 7SM 02/M13 A3006 RMK T00201130 IEM_DS3505
ZBYN,1989-03-14 18:00,ZBYN 141800Z AUTO 34004KT 12SM 00/M10 A3006 RMK SLP172 T00041101 40153//// 52005 IEM_DS3505
ZBYN,1989-03-14 20:00,ZBYN 142000Z AUTO 00000KT 7SM M01/M10 A3006 RMK T10101100 IEM_DS3505
ZBYN,1989-03-14 21:00,ZBYN 142100Z AUTO 00000KT 9SM M02/M07 A3003 RMK SLP169 T10201070 57005 IEM_DS3505
ZBYN,1989-03-14 22:00,ZBYN 142200Z AUTO 10004KT 6SM M02/M11 A3006 RMK T10201110 IEM_DS3505
ZBYN,1989-03-15 00:00,ZBYN 150000Z AUTO 00000KT 6SM M01/M06 A3006 RMK SLP188 T10071057 52011 IEM_DS3505
ZBYN,1989-03-15 01:00,ZBYN 150100Z AUTO 00000KT 5SM 02/M07 A3009 RMK T00201070 IEM_DS3505
ZBYN,1989-03-15 02:00,ZBYN 150200Z AUTO 12004KT 6SM 06/M11 A3009 RMK T00601110 IEM_DS3505
ZBYN,1989-03-15 03:00,ZBYN 150300Z AUTO 18004KT 5SM 07/M07 A3009 RMK SLP182 T00731069 57001 IEM_DS3505
ZBYN,1989-03-15 04:00,ZBYN 150400Z AUTO 14006KT 6SM 10/M07 A3006 RMK T01001070 IEM_DS3505
ZBYN,1989-03-15 05:00,ZBYN 150500Z AUTO 22008KT 6SM 14/M11 A3003 RMK T01401110 IEM_DS3505
ZBYN,1989-03-15 06:00,ZBYN 150600Z AUTO 32004KT 6SM 16/M04 A2997 RMK SLP137 T01611042 4////1024 57033 IEM_DS3505
ZBYN,1989-03-15 07:00,ZBYN 150700Z AUTO 29025G35KT 6SM 18/M23 A2997 RMK T01801230 IEM_DS3505
ZBYN,1989-03-15 08:00,ZBYN 150800Z AUTO 28016KT 6SM 17/M26 A2997 RMK T01701260 IEM_DS3505
ZBYN,1989-03-15 09:00,ZBYN 150900Z AUTO 32014KT 11SM 16/M17 A2997 RMK SLP139 T01581170 57002 IEM_DS3505
ZBYN,1989-03-15 10:00,ZBYN 151000Z AUTO 32010KT 7SM 15/M16 A2997 RMK T01501160 IEM_DS3505
ZBYN,1989-03-15 12:00,ZBYN 151200Z AUTO 32008KT 4SM 11/M15 A3009 RMK SLP186 T01131154 52038 IEM_DS3505
ZBYN,1989-03-15 13:00,ZBYN 151300Z AUTO 33016KT 7SM 09/M15 A3015 RMK T00901150 IEM_DS3505
ZBYN,1989-03-15 14:00,ZBYN 151400Z AUTO 35016KT 7SM 08/ RMK IEM_DS3505
ZBYN,1989-03-15 15:00,ZBYN 151500Z AUTO 04006KT 9SM 06/M11 A3024 RMK SLP238 T00641114 52052 IEM_DS3505
ZBYN,1989-03-15 16:00,ZBYN 151600Z AUTO 03014KT 7SM 04/M19 A3027 RMK T00401190 IEM_DS3505
ZBYN,1989-03-15 18:00,ZBYN 151800Z AUTO 36010KT 16SM 03/M16 A3031 RMK SLP247 T00311163 40183//// 52017 IEM_DS3505
ZBYN,1989-03-15 19:00,ZBYN 151900Z AUTO 36008KT 7SM 02/M12 A3030 RMK T00201120 IEM_DS3505
ZBYN,1989-03-15 21:00,ZBYN 152100Z AUTO 02004KT 16SM 00/M22 A3034 RMK SLP265 T00021220 52011 IEM_DS3505
ZBYN,1989-03-15 23:00,ZBYN 152300Z AUTO 00000KT 6SM M04/M19 A3039 RMK T10401190 IEM_DS3505
ZBYN,1989-03-16 00:00,ZBYN 160000Z AUTO 34002KT 9SM M01/M15 A3042 RMK SLP300 T10111152 52023 IEM_DS3505
ZBYN,1989-03-16 01:00,ZBYN 160100Z AUTO 34008KT 6SM 03/M21 A3042 RMK T00301210 IEM_DS3505
ZBYN,1989-03-16 02:00,ZBYN 160200Z AUTO 34010KT 6SM 05/M14 A3045 RMK T00501140 IEM_DS3505
ZBYN,1989-03-16 03:00,ZBYN 160300Z AUTO 04006KT 11SM 05/M22 A3042 RMK SLP300 T00501216 52002 IEM_DS3505
ZBYN,1989-03-16 04:00,ZBYN 160400Z AUTO 00000KT 6SM 07/M20 A3039 RMK T00701200 IEM_DS3505
ZBYN,1989-03-16 05:00,ZBYN 160500Z AUTO 00000KT 6SM 08/M22 A3036 RMK T00801220 IEM_DS3505
ZBYN,1989-03-16 06:00,ZBYN 160600Z AUTO 14023KT 11SM 09/M18 A3033 RMK SLP259 T00911176 4////1031 IEM_DS3505
ZBYN,1989-03-16 07:00,ZBYN 160700Z AUTO 00000KT 6SM 10/M24 A3027 RMK T01001240 IEM_DS3505
ZBYN,1989-03-16 08:00,ZBYN 160800Z AUTO 14004KT 6SM 11/M20 A3024 RMK T01101200 IEM_DS3505
ZBYN,1989-03-16 09:00,ZBYN 160900Z AUTO 34002KT 12SM 10/M21 A3023 RMK SLP236 T01031209 57024 IEM_DS3505
ZBYN,1989-03-16 10:00,ZBYN 161000Z AUTO 00000KT 17SM 10/M24 A3024 RMK SLP257 T01001240 52007 IEM_DS3505
ZBYN,1989-03-16 11:00,ZBYN 161100Z AUTO 00000KT 6SM 08/M14 A3024 RMK T00801140 IEM_DS3505
ZBYN,1989-03-16 12:00,ZBYN 161200Z AUTO 11004KT 12SM 04/M13 A3027 RMK SLP257 T00401126 52007 IEM_DS3505
ZBYN,1989-03-16 13:00,ZBYN 161300Z AUTO 07010KT 6SM 05/M22 A3027 RMK T00501220 IEM_DS3505
ZBYN,1989-03-16 14:00,ZBYN 161400Z AUTO 09012KT 6SM 05/M22 A3027 RMK T00501220 IEM_DS3505
ZBYN,1989-03-16 15:00,ZBYN 161500Z AUTO 00000KT 12SM 03/M12 A3029 RMK SLP260 T00301124 52011 IEM_DS3505
ZBYN,1989-03-16 16:00,ZBYN 161600Z AUTO 10006KT 6SM 03/M18 A3030 RMK T00301180 IEM_DS3505
ZBYN,1989-03-16 17:00,ZBYN 161700Z AUTO 09006KT 6SM 03/M18 A3030 RMK T00301180 IEM_DS3505
ZBYN,1989-03-16 18:00,ZBYN 161800Z AUTO 00000KT 9SM 02/M13 A3027 RMK SLP270 T00201127 40110//// 57007 IEM_DS3505
ZBYN,1989-03-16 21:00,ZBYN 162100Z AUTO 34002KT 9SM 02/M14 A3025 RMK SLP241 T00161135 57004 IEM_DS3505
ZBYN,1989-03-16 22:00,ZBYN 162200Z AUTO 09006KT 6SM 01/M15 A3024 RMK T00101150 IEM_DS3505
ZBYN,1989-03-16 23:00,ZBYN 162300Z AUTO 08004KT 6SM 02/M15 A3024 RMK T00201150 IEM_DS3505
ZBYN,1989-03-17 00:00,ZBYN 170000Z AUTO 34004KT 6SM 03/M14 A3024 RMK SLP246 T00261139 57004 IEM_DS3505
ZBYN,1989-03-17 02:00,ZBYN 170200Z AUTO 00000KT 2 1/2SM 04/ A3024 RMK IEM_DS3505
ZBYN,1989-03-17 02:28,ZBYN 170228Z AUTO 00000KT 2 1/2SM 04/ A3024 RMK IEM_DS3505
ZBYN,1989-03-17 03:00,ZBYN 170300Z AUTO 11008KT 6SM 05/M21 A3027 RMK SLP245 T00531210 52002 IEM_DS3505
ZBYN,1989-03-17 04:00,ZBYN 170400Z AUTO 09008KT 6SM 06/M10 A3024 RMK T00601100 IEM_DS3505
ZBYN,1989-03-17 05:00,ZBYN 170500Z AUTO 16008KT 6SM 07/M15 A3018 RMK T00701150 IEM_DS3505
ZBYN,1989-03-17 06:00,ZBYN 170600Z AUTO 16002KT 11SM 07/M12 A3015 RMK SLP208 T00661120 4////1009 57033 IEM_DS3505
ZBYN,1989-03-17 08:00,ZBYN 170800Z AUTO 16016KT 6SM 05/M07 A3012 RMK T00501070 IEM_DS3505
ZBYN,1989-03-17 08:26,ZBYN 170826Z AUTO 16016KT 6SM 05/M07 A3012 RMK T00501070 IEM_DS3505
ZBYN,1989-03-17 09:00,ZBYN 170900Z AUTO 16008KT 7SM 04/M06 A3012 RMK SLP203 T00451065 57009 IEM_DS3505
ZBYN,1989-03-17 10:00,ZBYN 171000Z AUTO 16010KT 6SM 03/M03 A3012 RMK T00301030 IEM_DS3505
ZBYN,1989-03-17 11:00,ZBYN 171100Z AUTO 15008KT 1SM 01/M01 A3015 RMK T00101010 IEM_DS3505
ZBYN,1989-03-17 12:00,ZBYN 171200Z AUTO 14004KT 5SM M00/M00 A3015 RMK 60002 SLP220 T10011001 52010 IEM_DS3505
ZBYN,1989-03-17 12:28,ZBYN 171228Z AUTO 17010KT 1 1/2SM 00/00 A3015 RMK T00000000 IEM_DS3505
ZBYN,1989-03-17 15:00,ZBYN 171500Z AUTO 16002KT 5SM M00/M01 A3012 RMK SLP210 T10021007 57005 IEM_DS3505
ZBYN,1989-03-17 17:00,ZBYN 171700Z AUTO 13004KT 7SM 00/M01 A3009 RMK T00001010 IEM_DS3505
ZBYN,1989-03-17 18:00,ZBYN 171800Z AUTO 14004KT 4SM M00/M01 A3006 RMK 60004 SLP186 T10021010 40070//// 57020 IEM_DS3505
ZBYN,1989-03-17 19:00,ZBYN 171900Z AUTO 14004KT 4SM 00/M01 A3006 RMK T00001010 IEM_DS3505
ZBYN,1989-03-17 20:00,ZBYN 172000Z AUTO 16004KT 4SM 00/M01 A3006 RMK T00001010 IEM_DS3505
ZBYN,1989-03-17 21:00,ZBYN 172100Z AUTO 11002KT 4SM M00/M01 A3003 RMK SLP181 T10021013 57008 IEM_DS3505
ZBYN,1989-03-17 22:00,ZBYN 172200Z AUTO 12004KT 5SM 00/M01 A3006 RMK T00001010 IEM_DS3505
ZBYN,1989-03-17 23:00,ZBYN 172300Z AUTO 14004KT 4SM 00/M01 A3006 RMK T00001010 IEM_DS3505
ZBYN,1989-03-18 00:00,ZBYN 180000Z AUTO 11002KT 4SM M00/M01 A3006 RMK SLP193 T10011012 52004 IEM_DS3505
ZBYN,1989-03-18 01:00,ZBYN 180100Z AUTO 00000KT 5SM 01/M01 A3006 RMK T00101010 IEM_DS3505
ZBYN,1989-03-18 02:00,ZBYN 180200Z AUTO 00000KT 5SM 02/M01 A3006 RMK T00201010 IEM_DS3505
ZBYN,1989-03-18 03:00,ZBYN 180300Z AUTO 18004KT 6SM 02/M00 A3006 RMK SLP187 T00241002 57002 IEM_DS3505
ZBYN,1989-03-18 04:00,ZBYN 180400Z AUTO 00000KT 03/M01 A3003 RMK T00301010 IEM_DS3505
ZBYN,1989-03-18 05:00,ZBYN 180500Z AUTO 22006KT 04/M01 A3003 RMK T00401010 IEM_DS3505
ZBYN,1989-03-18 06:00,ZBYN 180600Z AUTO 29002KT 6SM 05/M01 A3000 RMK SLP164 T00541013 4////1007 IEM_DS3505
ZBYN,1989-03-18 07:00,ZBYN 180700Z AUTO 19004KT 7SM 06/00 A3000 RMK T00600000 IEM_DS3505
ZBYN,1989-03-18 09:00,ZBYN 180900Z AUTO 27002KT 6SM 07/00 A2997 RMK SLP153 T00740004 57007 IEM_DS3505
ZBYN,1989-03-18 10:00,ZBYN 181000Z AUTO 27002KT 6SM A2997 RMK IEM_DS3505
ZBYN,1989-03-18 11:00,ZBYN 181100Z AUTO 29004KT 4SM 05/01 A3003 RMK T00500010 IEM_DS3505
ZBYN,1989-03-18 12:00,ZBYN 181200Z AUTO 00000KT 4SM 03/01 A3003 RMK SLP181 T00340009 52020 IEM_DS3505
ZBYN,1989-03-18 13:00,ZBYN 181300Z AUTO 00000KT 3SM 03/01 A3006 RMK T00300010 IEM_DS3505
ZBYN,1989-03-18 14:00,ZBYN 181400Z AUTO 11004KT 2SM 01/00 A3006 RMK T00100000 IEM_DS3505
ZBYN,1989-03-18 15:00,ZBYN 181500Z AUTO 00000KT 2 1/2SM 01/00 A3006 RMK SLP193 T00120002 52011 IEM_DS3505
ZBYN,1989-03-18 16:00,ZBYN 181600Z AUTO 07006KT 2SM 01/00 A3006 RMK T00100000 IEM_DS3505
ZBYN,1989-03-18 17:00,ZBYN 181700Z AUTO 00000KT 2SM 00/M01 A3009 RMK T00001010 IEM_DS3505
ZBYN,1989-03-18 18:00,ZBYN 181800Z AUTO 00000KT 3SM 00/M01 A3012 RMK SLP201 T00001011 40075//// 52010 IEM_DS3505
ZBYN,1989-03-18 19:00,ZBYN 181900Z AUTO 00000KT 1 1/2SM M01/M01 A3012 RMK T10101010 IEM_DS3505
ZBYN,1989-03-18 21:00,ZBYN 182100Z AUTO 00000KT 2SM M00/M00 A3010 RMK SLP198 T10021005 54000 IEM_DS3505
ZBYN,1989-03-19 00:00,ZBYN 190000Z AUTO 00000KT 4SM 02/M00 A3015 RMK SLP220 T00161002 52017 IEM_DS3505
ZBYN,1989-03-19 01:00,ZBYN 190100Z AUTO 27006KT 1SM 03/01 A3018 RMK T00300010 IEM_DS3505
ZBYN,1989-03-19 02:00,ZBYN 190200Z AUTO 35014KT 4SM 06/M01 A3018 RMK T00601010 IEM_DS3505
ZBYN,1989-03-19 03:00,ZBYN 190300Z AUTO 36008KT 4SM 06/M06 A3018 RMK SLP228 T00601062 52011 IEM_DS3505
ZBYN,1989-03-19 04:00,ZBYN 190400Z AUTO 35008KT 6SM 07/M05 A3018 RMK T00701050 IEM_DS3505
ZBYN,1989-03-19 05:00,ZBYN 190500Z AUTO 34010KT 6SM 08/M05 A3018 RMK T00801050 IEM_DS3505
ZBYN,1989-03-19 06:00,ZBYN 190600Z AUTO 34008KT 5SM 08/M08 A3015 RMK SLP219 T00811082 4////1013 57007 IEM_DS3505
ZBYN,1989-03-19 07:00,ZBYN 190700Z AUTO 36017KT 6SM 07/M02 A3018 RMK T00701020 IEM_DS3505
ZBYN,1989-03-19 09:00,ZBYN 190900Z AUTO 36004KT 6SM 07/M02 A3018 RMK SLP233 T00661023 52010 IEM_DS3505
ZBYN,1989-03-19 10:00,ZBYN 191000Z AUTO 36010KT 6SM 07/M02 A3021 RMK T00701020 IEM_DS3505
ZBYN,1989-03-19 11:00,ZBYN 191100Z AUTO 00000KT 7SM 05/M06 A3021 RMK T00501060 IEM_DS3505
ZBYN,1989-03-19 12:00,ZBYN 191200Z AUTO 36006KT 6SM 05/M04 A3024 RMK SLP249 T00541037 52015 IEM_DS3505
ZBYN,1989-03-19 13:00,ZBYN 191300Z AUTO 00000KT 7SM 04/01 A3027 RMK T00400010 IEM_DS3505
ZBYN,1989-03-19 14:00,ZBYN 191400Z AUTO 00000KT 6SM 01/00 A3027 RMK T00100000 IEM_DS3505
ZBYN,1989-03-19 15:00,ZBYN 191500Z AUTO 02002KT 9SM 02/M02 A3030 RMK SLP256 T00231018 52009 IEM_DS3505
ZBYN,1989-03-19 16:00,ZBYN 191600Z AUTO 00000KT 6SM M02/M02 A3030 RMK T10201020 IEM_DS3505
ZBYN,1989-03-19 17:00,ZBYN 191700Z AUTO 35008KT 6SM M02/M06 A3030 RMK T10201060 IEM_DS3505
ZBYN,1989-03-19 18:00,ZBYN 191800Z AUTO 34004KT 7SM 00/M06 A3030 RMK SLP266 T00011059 40084//// 52009 IEM_DS3505
ZBYN,1989-03-19 21:00,ZBYN 192100Z AUTO 34008KT 7SM M01/M10 A3030 RMK T10111099 IEM_DS3505
ZBYN,1989-03-19 23:00,ZBYN 192300Z AUTO 00000KT 7SM M04/M09 A3036 RMK T10401090 IEM_DS3505
ZBYN,1989-03-20 00:00,ZBYN 200000Z AUTO 32004KT 6SM M01/M09 A3039 RMK SLP298 T10121086 52014 IEM_DS3505
ZBYN,1989-03-20 01:00,ZBYN 200100Z AUTO 00000KT 6SM 01/M08 A3042 RMK T00101080 IEM_DS3505
ZBYN,1989-03-20 03:00,ZBYN 200300Z AUTO 32004KT 7SM 06/M15 A3042 RMK SLP292 T00551151 52001 IEM_DS3505
ZBYN,1989-03-20 04:00,ZBYN 200400Z AUTO 18006KT 7SM 08/M06 A3039 RMK T00801060 IEM_DS3505
ZBYN,1989-03-20 05:00,ZBYN 200500Z AUTO 00000KT 6SM 08/M10 A3036 RMK T00801100 IEM_DS3505
ZBYN,1989-03-20 06:00,ZBYN 200600Z AUTO 32004KT 9SM 10/M14 A3033 RMK SLP267 T00981137 4////1026 57021 IEM_DS3505
ZBYN,1989-03-20 07:00,ZBYN 200700Z AUTO 00000KT 6SM 11/M12 A3030 RMK T01101120 IEM_DS3505
ZBYN,1989-03-20 09:00,ZBYN 200900Z AUTO 16006KT 7SM 10/M14 A3027 RMK SLP252 T01041139 57013 IEM_DS3505
ZBYN,1989-03-20 10:00,ZBYN 201000Z AUTO 00000KT 6SM 09/M08 A3030 RMK T00901080 IEM_DS3505
ZBYN,1989-03-20 11:00,ZBYN 201100Z AUTO 24006KT 6SM 07/M06 A3030 RMK T00701060 IEM_DS3505
ZBYN,1989-03-20 12:00,ZBYN 201200Z AUTO 00000KT 6SM 06/M04 A3033 RMK SLP281 T00621039 52019 IEM_DS3505
ZBYN,1989-03-20 13:00,ZBYN 201300Z AUTO 00000KT 6SM 03/M05 A3036 RMK T00301050 IEM_DS3505
ZBYN,1989-03-20 14:00,ZBYN 201400Z AUTO 08008KT 6SM RMK IEM_DS3505
ZBYN,1989-03-20 15:00,ZBYN 201500Z AUTO 25004KT 11SM 01/M08 A3039 RMK SLP295 T00141081 52016 IEM_DS3505
ZBYN,1989-03-20 17:00,ZBYN 201700Z AUTO 02004KT 6SM 01/M07 A3039 RMK T00101070 IEM_DS3505
ZBYN,1989-03-20 18:00,ZBYN 201800Z AUTO 34004KT 11SM 00/M09 A3039 RMK SLP293 T00051086 40109//// 52002 IEM_DS3505
ZBYN,1989-03-20 19:00,ZBYN 201900Z AUTO 00000KT 6SM M01/M05 A3039 RMK T10101050 IEM_DS3505
ZBYN,1989-03-20 20:00,ZBYN 202000Z AUTO 11006KT 6SM M02/M06 A3039 RMK T10201060 IEM_DS3505
ZBYN,1989-03-20 21:00,ZBYN 202100Z AUTO 00000KT 9SM M02/M07 A3038 RMK SLP292 T10161067 57002 IEM_DS3505
ZBYN,1989-03-20 22:00,ZBYN 202200Z AUTO 6SM M03/M07 A3039 RMK T10301070 IEM_DS3505
ZBYN,1989-03-20 23:00,ZBYN 202300Z AUTO 00000KT 3SM M03/M07 A3042 RMK T10301070 IEM_DS3505
ZBYN,1989-03-21 00:00,ZBYN 210000Z AUTO 34002KT 5SM M00/M09 A3042 RMK SLP309 T10011086 52011 IEM_DS3505
ZBYN,1989-03-21 01:00,ZBYN 210100Z AUTO 00000KT 1 1/2SM 03/M05 A3042 RMK T00301050 IEM_DS3505
ZBYN,1989-03-21 02:00,ZBYN 210200Z AUTO 00000KT 2 1/2SM 06/M02 A3042 RMK T00601020 IEM_DS3505
ZBYN,1989-03-21 03:00,ZBYN 210300Z AUTO 16004KT 5SM 07/M03 A3042 RMK SLP305 T00681027 54000 IEM_DS3505
ZBYN,1989-03-21 04:00,ZBYN 210400Z AUTO 25004KT 6SM 09/M02 A3042 RMK T00901020 IEM_DS3505
ZBYN,1989-03-21 05:00,ZBYN 210500Z AUTO 00000KT 6SM 10/M01 A3036 RMK T01001010 IEM_DS3505
ZBYN,1989-03-21 06:00,ZBYN 210600Z AUTO 18002KT 5SM 11/M04 A3033 RMK SLP263 T01061043 4////1019 57033 IEM_DS3505
ZBYN,1989-03-21 07:00,ZBYN 210700Z AUTO 30004KT 6SM 11/M04 A3030 RMK T01101040 IEM_DS3505
ZBYN,1989-03-21 09:00,ZBYN 210900Z AUTO 00000KT 6SM A3027 RMK SLP252 57015 IEM_DS3505
ZBYN,1989-03-21 11:00,ZBYN 211100Z AUTO 28002KT 6SM 08/M02 A3027 RMK T00761025 IEM_DS3505
ZBYN,1989-03-21 12:00,ZBYN 211200Z AUTO 22002KT 6SM 08/M02 A3027 RMK SLP255 T00761025 52002 IEM_DS3505
ZBYN,1989-03-21 13:00,ZBYN 211300Z AUTO 00000KT 7SM 07/00 RMK T00700000 IEM_DS3505
ZBYN,1989-03-21 15:00,ZBYN 211500Z AUTO 18004KT 6SM 06/M01 A3030 RMK SLP245 T00591010 57001 IEM_DS3505
ZBYN,1989-03-21 18:00,ZBYN 211800Z AUTO 00000KT 6SM 05/M02 A3027 RMK SLP241 T00531024 40110//// 52001 IEM_DS3505
ZBYN,1989-03-21 21:00,ZBYN 212100Z AUTO 11004KT 9SM 05/M07 A3024 RMK SLP232 T00461068 57010 IEM_DS3505
ZBYN,1989-03-21 23:00,ZBYN 212300Z AUTO 11008KT 6SM 04/M05 A3024 RMK T00401050 IEM_DS3505
ZBYN,1989-03-22 00:00,ZBYN 220000Z AUTO 00000KT 9SM 04/M03 A3024 RMK SLP239 T00451028 52002 IEM_DS3505
ZBYN,1989-03-22 01:00,ZBYN 220100Z AUTO 12008KT 6SM 07/M05 A3024 RMK T00701050 IEM_DS3505
ZBYN,1989-03-22 02:00,ZBYN 220200Z AUTO 6SM 08/M04 A3024 RMK T00801040 IEM_DS3505
ZBYN,1989-03-22 03:00,ZBYN 220300Z AUTO 00000KT 6SM 09/M03 A3024 RMK SLP230 T00941033 57003 IEM_DS3505
ZBYN,1989-03-22 04:00,ZBYN 220400Z AUTO 22008KT 6SM 10/M02 A3021 RMK T01001020 IEM_DS3505
ZBYN,1989-03-22 05:00,ZBYN 220500Z AUTO 17010KT 6SM 12/M02 A3018 RMK T01201020 IEM_DS3505
ZBYN,1989-03-22 06:00,ZBYN 220600Z AUTO 18008KT 6SM 11/M04 A3015 RMK T01141036 4////0025 57026 IEM_DS3505
ZBYN,1989-03-22 07:00,ZBYN 220700Z AUTO 20008KT 6SM 11/M04 A3012 RMK T01101040 IEM_DS3505
ZBYN,1989-03-22 08:00,ZBYN 220800Z AUTO 22008KT 6SM 11/M03 A3009 RMK T01101030 IEM_DS3505
ZBYN,1989-03-22 09:00,ZBYN 220900Z AUTO 25002KT 6SM 11/M03 A3009 RMK SLP178 T01101030 57021 IEM_DS3505
ZBYN,1989-03-22 10:00,ZBYN 221000Z AUTO 18006KT 6SM 11/M02 A3009 RMK T01101020 IEM_DS3505
ZBYN,1989-03-22 11:00,ZBYN 221100Z AUTO 22006KT 6SM 09/00 A3009 RMK T00900000 IEM_DS3505
ZBYN,1989-03-22 12:00,ZBYN 221200Z AUTO 18006KT 6SM 08/M01 A3009 RMK SLP187 T00821010 52009 IEM_DS3505
ZBYN,1989-03-22 13:00,ZBYN 221300Z AUTO 21016KT 6SM 06/01 A3012 RMK T00600010 IEM_DS3505
ZBYN,1989-03-22 14:00,ZBYN 221400Z AUTO 19008KT 6SM 05/01 A3015 RMK T00500010 IEM_DS3505
ZBYN,1989-03-22 15:00,ZBYN 221500Z AUTO 14004KT 6SM 05/00 A3015 RMK SLP200 T00470002 52014 IEM_DS3505
ZBYN,1989-03-22 16:00,ZBYN 221600Z AUTO 15006KT 6SM 04/01 A3015 RMK T00400010 IEM_DS3505
ZBYN,1989-03-22 17:00,ZBYN 221700Z AUTO 12004KT 6SM 04/01 A3015 RMK T00400010 IEM_DS3505
ZBYN,1989-03-22 18:00,ZBYN 221800Z AUTO 14002KT 6SM 03/00 A3015 RMK SLP197 T00340004 40118//// 57002 IEM_DS3505
ZBYN,1989-03-22 19:00,ZBYN 221900Z AUTO 16004KT 6SM 03/00 A3012 RMK T00300000 IEM_DS3505
ZBYN,1989-03-22 20:00,ZBYN 222000Z AUTO 17004KT 6SM 04/M01 A3012 RMK T00401010 IEM_DS3505
ZBYN,1989-03-22 21:00,ZBYN 222100Z AUTO 00000KT 5SM 02/M00 A3009 RMK SLP187 T00221001 57012 IEM_DS3505
ZBYN,1989-03-22 22:00,ZBYN 222200Z AUTO 16006KT 6SM 04/00 A3015 RMK T00400000 IEM_DS3505
ZBYN,1989-03-22 23:00,ZBYN 222300Z AUTO 17006KT 6SM 02/00 A3012 RMK T00200000 IEM_DS3505
ZBYN,1989-03-23 00:00,ZBYN 230000Z AUTO 18002KT 4SM 02/00 A3012 RMK SLP204 T00190001 52011 IEM_DS3505
ZBYN,1989-03-23 01:00,ZBYN 230100Z AUTO 00000KT 4SM 03/00 A3015 RMK T00300000 IEM_DS3505
ZBYN,1989-03-23 02:00,ZBYN 230200Z AUTO 00000KT 5SM 04/01 A3015 RMK T00400010 IEM_DS3505
ZBYN,1989-03-23 03:00,ZBYN 230300Z AUTO 14002KT 5SM 05/00 A3015 RMK SLP205 T00510004 52001 IEM_DS3505
ZBYN,1989-03-23 04:00,ZBYN 230400Z AUTO 00000KT 6SM 08/01 A3012 RMK T00800010 IEM_DS3505
ZBYN,1989-03-23 05:00,ZBYN 230500Z AUTO 00000KT 6SM 09/00 A3012 RMK T00900000 IEM_DS3505
ZBYN,1989-03-23 06:00,ZBYN 230600Z AUTO 20006KT 5SM 10/00 A3008 RMK SLP181 T00960001 4////0007 57017 IEM_DS3505
ZBYN,1989-03-23 07:00,ZBYN 230700Z AUTO 25008KT 6SM 11/01 A3006 RMK T01100010 IEM_DS3505
ZBYN,1989-03-23 08:00,ZBYN 230800Z AUTO 27012KT 5SM 11/01 A3006 RMK T01100010 IEM_DS3505
ZBYN,1989-03-23 09:00,ZBYN 230900Z AUTO 32006KT 5SM 10/01 A3006 RMK SLP175 T01010008 57007 IEM_DS3505
ZBYN,1989-03-23 10:00,ZBYN 231000Z AUTO 35006KT 6SM 10/01 A3006 RMK T01000010 IEM_DS3505
ZBYN,1989-03-23 11:00,ZBYN 231100Z AUTO 01004KT 6SM 08/02 A3009 RMK T00800020 IEM_DS3505
ZBYN,1989-03-23 12:00,ZBYN 231200Z AUTO 00000KT 6SM 06/01 A3012 RMK SLP198 T00610010 52015 IEM_DS3505
ZBYN,1989-03-23 15:00,ZBYN 231500Z AUTO 36008KT 9SM 07/M15 A3021 RMK SLP226 T00691154 52031 IEM_DS3505
ZBYN,1989-03-23 17:00,ZBYN 231700Z AUTO 35012KT 6SM 04/M15 A3024 RMK T00401150 IEM_DS3505
ZBYN,1989-03-23 18:00,ZBYN 231800Z AUTO 36008KT 9SM 04/M17 A3027 RMK SLP246 T00401169 40106//// 52021 IEM_DS3505
ZBYN,1989-03-23 20:00,ZBYN 232000Z AUTO 33014KT 6SM 02/M16 A3027 RMK T00201160 IEM_DS3505
ZBYN,1989-03-23 21:00,ZBYN 232100Z AUTO 36006KT 16SM 03/M18 A3027 RMK SLP248 T00281180 52001 IEM_DS3505
ZBYN,1989-03-23 23:00,ZBYN 232300Z AUTO 36006KT 6SM 00/M12 A3030 RMK T00001120 IEM_DS3505
ZBYN,1989-03-24 00:00,ZBYN 240000Z AUTO 36006KT 9SM 03/M19 A3033 RMK SLP280 T00261187 52022 IEM_DS3505
ZBYN,1989-03-24 01:00,ZBYN 240100Z AUTO 6SM 05/M12 A3036 RMK T00501120 IEM_DS3505
ZBYN,1989-03-24 03:00,ZBYN 240300Z AUTO 36004KT 12SM 06/M14 A3036 RMK SLP235 T00591140 52002 IEM_DS3505
ZBYN,1989-03-24 04:00,ZBYN 240400Z AUTO 00000KT 6SM 07/M11 A3033 RMK T00701110 IEM_DS3505
ZBYN,1989-03-24 05:00,ZBYN 240500Z AUTO 10006KT 6SM 09/M09 A3030 RMK T00901090 IEM_DS3505
ZBYN,1989-03-24 06:00,ZBYN 240600Z AUTO 00000KT 6SM 10/M12 A3027 RMK SLP239 T01031121 4////0018 57030 IEM_DS3505
ZBYN,1989-03-24 07:00,ZBYN 240700Z AUTO 00000KT 6SM 10/M14 A3024 RMK T01001140 IEM_DS3505
ZBYN,1989-03-24 08:00,ZBYN 240800Z AUTO 00000KT 6SM 11/M18 A3021 RMK T01101180 IEM_DS3505
ZBYN,1989-03-24 09:00,ZBYN 240900Z AUTO 18004KT 16SM 11/M20 A3021 RMK SLP217 T01081195 57021 IEM_DS3505
ZBYN,1989-03-24 10:00,ZBYN 241000Z AUTO 14008KT 6SM 10/M13 A3021 RMK T01001130 IEM_DS3505
ZBYN,1989-03-24 11:00,ZBYN 241100Z AUTO 12006KT 6SM 08/M13 A3021 RMK T00801130 IEM_DS3505
ZBYN,1989-03-24 12:00,ZBYN 241200Z AUTO 00000KT 9SM 06/M12 A3021 RMK SLP234 T00601117 52007 IEM_DS3505
ZBYN,1989-03-24 13:00,ZBYN 241300Z AUTO 09006KT 6SM 05/M17 A3024 RMK T00501170 IEM_DS3505
ZBYN,1989-03-24 14:00,ZBYN 241400Z AUTO 08010KT 6SM 04/M17 A3024 RMK T00401170 IEM_DS3505
ZBYN,1989-03-24 15:00,ZBYN 241500Z AUTO 00000KT 9SM 01/M11 A3024 RMK SLP248 T00101112 52010 IEM_DS3505
ZBYN,1989-03-24 16:00,ZBYN 241600Z AUTO 11008KT 6SM 02/M10 A3027 RMK T00201100 IEM_DS3505
ZBYN,1989-03-24 18:00,ZBYN 241800Z AUTO 00000KT 9SM 00/M08 A3027 RMK SLP245 T00001080 40113//// 57003 IEM_DS3505
ZBYN,1989-03-24 19:00,ZBYN 241900Z AUTO 09008KT 6SM 00/M08 A3027 RMK T00001080 IEM_DS3505
ZBYN,1989-03-24 21:00,ZBYN 242100Z AUTO 14002KT 6SM M02/M04 A3023 RMK SLP238 T10161044 57008 IEM_DS3505
ZBYN,1989-03-24 22:00,ZBYN 242200Z AUTO 11006KT 6SM M02/M04 A3024 RMK T10201040 IEM_DS3505
ZBYN,1989-03-24 23:00,ZBYN 242300Z AUTO 09004KT 2 1/2SM M01/M03 A3024 RMK T10101030 IEM_DS3505
ZBYN,1989-03-25 00:00,ZBYN 250000Z AUTO 00000KT 5SM 02/M03 A3024 RMK SLP248 T00201030 52002 IEM_DS3505
ZBYN,1989-03-25 01:00,ZBYN 250100Z AUTO 17006KT 2 1/2SM 03/M01 A3024 RMK T00301010 IEM_DS3505
ZBYN,1989-03-25 02:00,ZBYN 250200Z AUTO 20006KT 4SM 04/M01 A3024 RMK T00401010 IEM_DS3505
ZBYN,1989-03-25 03:00,ZBYN 250300Z AUTO 22006KT 5SM 06/M01 A3021 RMK SLP234 T00631011 57009 IEM_DS3505
ZBYN,1989-03-25 04:00,ZBYN 250400Z AUTO 19004KT 4SM 08/00 A3018 RMK T00800000 IEM_DS3505
ZBYN,1989-03-25 05:00,ZBYN 250500Z AUTO 20008KT 6SM 08/M01 A3015 RMK T00801010 IEM_DS3505
ZBYN,1989-03-25 06:00,ZBYN 250600Z AUTO 18008KT 5SM 09/M02 A3009 RMK SLP191 T00931016 4////1035 57036 IEM_DS3505
ZBYN,1989-03-25 07:00,ZBYN 250700Z AUTO 21010KT 6SM 10/M01 A3006 RMK T01001010 IEM_DS3505
ZBYN,1989-03-25 08:00,ZBYN 250800Z AUTO 20016KT 6SM 11/M01 A3006 RMK T01101010 IEM_DS3505
ZBYN,1989-03-25 09:00,ZBYN 250900Z AUTO 20006KT 6SM 11/M00 A3000 RMK SLP160 T01141004 57027 IEM_DS3505
ZBYN,1989-03-25 10:00,ZBYN 251000Z AUTO 22014KT 6SM 10/M01 A3000 RMK T01001010 IEM_DS3505
ZBYN,1989-03-25 12:00,ZBYN 251200Z AUTO 20008KT 7SM 08/M00 A3000 RMK SLP167 T00791004 52001 IEM_DS3505
ZBYN,1989-03-25 13:00,ZBYN 251300Z AUTO 22010KT 6SM 07/ RMK IEM_DS3505
ZBYN,1989-03-25 14:00,ZBYN 251400Z AUTO 15006KT 6SM 05/01 A3003 RMK T00500010 IEM_DS3505
ZBYN,1989-03-25 15:00,ZBYN 251500Z AUTO 11002KT 7SM 05/01 A3003 RMK SLP165 T00500006 52006 IEM_DS3505
ZBYN,1989-03-25 16:00,ZBYN 251600Z AUTO 00000KT 6SM 05/01 A3003 RMK T00500010 IEM_DS3505
ZBYN,1989-03-25 17:00,ZBYN 251700Z AUTO 00000KT 5SM 05/02 A3003 RMK T00500020 IEM_DS3505
ZBYN,1989-03-25 18:00,ZBYN 251800Z AUTO 25004KT 9SM 04/01 A3004 RMK 60001 SLP167 T00360011 40118//// 52004 IEM_DS3505
ZBYN,1989-03-25 21:00,ZBYN 252100Z AUTO 11002KT 12SM 01/M02 A3002 RMK SLP159 T00121015 57008 IEM_DS3505
ZBYN,1989-03-25 22:00,ZBYN 252200Z AUTO 08004KT 1 1/2SM M01/M02 A3003 RMK T10101020 IEM_DS3505
ZBYN,1989-03-26 00:00,ZBYN 260000Z AUTO 36004KT 5SM 04/M01 A3006 RMK SLP170 T00431012 52010 IEM_DS3505
ZBYN,1989-03-26 01:00,ZBYN 260100Z AUTO 00000KT 6SM 06/00 A3009 RMK T00600000 IEM_DS3505
ZBYN,1989-03-26 02:00,ZBYN 260200Z AUTO 03008KT 08/M02 RMK T00801020 IEM_DS3505
ZBYN,1989-03-26 03:00,ZBYN 260300Z AUTO 34002KT 16SM 10/M03 A3009 RMK SLP173 T01021030 52007 IEM_DS3505
ZBYN,1989-03-26 05:00,ZBYN 260500Z AUTO 01014KT 7SM 12/M10 A3006 RMK T01201100 IEM_DS3505
ZBYN,1989-03-26 06:00,ZBYN 260600Z AUTO 29008KT 19SM 12/M06 A3003 RMK SLP164 T01151059 4////1016 57008 IEM_DS3505
ZBYN,1989-03-26 07:00,ZBYN 260700Z AUTO 31010KT 7SM 12/M09 A3006 RMK T01201090 IEM_DS3505
ZBYN,1989-03-26 08:00,ZBYN 260800Z AUTO 01004KT 7SM 11/M13 A3006 RMK T01101130 IEM_DS3505
ZBYN,1989-03-26 09:00,ZBYN 260900Z AUTO 32014KT 9SM 10/M10 A3006 RMK SLP177 T01021098 52006 IEM_DS3505
ZBYN,1989-03-26 10:00,ZBYN 261000Z AUTO 32012KT 7SM 07/M04 A3009 RMK T00701040 IEM_DS3505
ZBYN,1989-03-26 11:00,ZBYN 261100Z AUTO 29010KT 7SM 07/M06 A3012 RMK T00701060 IEM_DS3505
ZBYN,1989-03-26 12:00,ZBYN 261200Z AUTO 35008KT 6SM 02/M05 A3012 RMK SLP207 T00211052 52024 IEM_DS3505
ZBYN,1989-03-26 13:00,ZBYN 261300Z AUTO 01006KT 6SM 03/M04 A3018 RMK T00301040 IEM_DS3505
ZBYN,1989-03-26 14:00,ZBYN 261400Z AUTO 29004KT 7SM 02/M04 A3021 RMK T00201040 IEM_DS3505
ZBYN,1989-03-26 15:00,ZBYN 261500Z AUTO 00000KT 12SM 02/M04 A3021 RMK SLP221 T00181037 52017 IEM_DS3505
ZBYN,1989-03-26 16:00,ZBYN 261600Z AUTO 01006KT 7SM 01/M04 A3021 RMK T00101040 IEM_DS3505
ZBYN,1989-03-26 17:00,ZBYN 261700Z AUTO 32006KT 7SM 00/M05 A3024 RMK T00001050 IEM_DS3505
ZBYN,1989-03-26 18:00,ZBYN 261800Z AUTO 36010KT 12SM 01/M08 A3023 RMK SLP231 T00141081 40122//// 52010 IEM_DS3505
ZBYN,1989-03-26 19:00,ZBYN 261900Z AUTO 30008KT 7SM A3024 RMK IEM_DS3505
ZBYN,1989-03-26 21:00,ZBYN 262100Z AUTO 34004KT 11SM M02/M08 A3024 RMK SLP239 T10211076 54000 IEM_DS3505
ZBYN,1989-03-26 22:00,ZBYN 262200Z AUTO 31002KT 7SM M04/M07 A3024 RMK T10401070 IEM_DS3505
ZBYN,1989-03-26 23:00,ZBYN 262300Z AUTO 29004KT 7SM M05/M09 A3024 RMK T10501090 IEM_DS3505
ZBYN,1989-03-27 00:00,ZBYN 270000Z AUTO 32012KT 11SM 02/M12 A3027 RMK SLP250 T00151119 52008 IEM_DS3505
ZBYN,1989-03-27 01:00,ZBYN 270100Z AUTO 36019KT 7SM 03/M19 A3030 RMK T00301190 IEM_DS3505
ZBYN,1989-03-27 01:25,ZBYN 270125Z AUTO 36019KT 7SM 03/M19 A3030 RMK T00301190 IEM_DS3505
ZBYN,1989-03-27 02:00,ZBYN 270200Z AUTO 36023KT 7SM 05/M17 A3030 RMK T00501170 IEM_DS3505
ZBYN,1989-03-27 03:00,ZBYN 270300Z AUTO 36012KT 12SM 06/M09 A3028 RMK SLP257 T00591087 52008 IEM_DS3505
ZBYN,1989-03-27 04:00,ZBYN 270400Z AUTO 36023KT 7SM 07/M16 A3059 RMK T00701160 IEM_DS3505
ZBYN,1989-03-27 05:00,ZBYN 270500Z AUTO 36023KT 7SM 07/M16 A3059 RMK T00701160 IEM_DS3505
ZBYN,1989-03-27 06:00,ZBYN 270600Z AUTO 36014KT 12SM 09/M15 A3024 RMK SLP240 T00871146 4////1037 57012 IEM_DS3505
ZBYN,1989-03-27 07:00,ZBYN 270700Z AUTO 04017KT 7SM 10/M12 A3024 RMK T01001120 IEM_DS3505
ZBYN,1989-03-27 08:00,ZBYN 270800Z AUTO 03019KT 7SM 10/M13 A3021 RMK T01001130 IEM_DS3505
ZBYN,1989-03-27 09:00,ZBYN 270900Z AUTO 02008KT 16SM 09/M11 A3021 RMK SLP239 T00941107 57005 IEM_DS3505
ZBYN,1989-03-27 10:00,ZBYN 271000Z AUTO 02010KT 7SM 08/M11 A3024 RMK T00801110 IEM_DS3505
ZBYN,1989-03-27 11:00,ZBYN 271100Z AUTO 04008KT 7SM 07/M10 A3024 RMK T00701100 IEM_DS3505
ZBYN,1989-03-27 12:00,ZBYN 271200Z AUTO 34006KT 12SM 06/M11 A3027 RMK SLP255 T00641108 52015 IEM_DS3505
ZBYN,1989-03-27 13:00,ZBYN 271300Z AUTO 33006KT 7SM 04/M09 A3030 RMK T00401090 IEM_DS3505
ZBYN,1989-03-27 14:00,ZBYN 271400Z AUTO 07004KT 7SM 03/M08 A3030 RMK T00301080 IEM_DS3505
ZBYN,1989-03-27 15:00,ZBYN 271500Z AUTO 02004KT 12SM 04/M13 A3030 RMK SLP254 T00441130 52003 IEM_DS3505
ZBYN,1989-03-27 17:00,ZBYN 271700Z AUTO 00000KT 7SM M03/M06 A3027 RMK T10301060 IEM_DS3505
ZBYN,1989-03-27 18:00,ZBYN 271800Z AUTO 00000KT 11SM M00/M10 A3026 RMK SLP249 T10041101 40102//// 57008 IEM_DS3505
ZBYN,1989-03-27 20:00,ZBYN 272000Z AUTO 11006KT 7SM M04/M12 A3024 RMK T10401120 IEM_DS3505
ZBYN,1989-03-27 21:00,ZBYN 272100Z AUTO 00000KT 7SM M04/M11 A3024 RMK SLP246 T10441107 57008 IEM_DS3505
ZBYN,1989-03-27 22:00,ZBYN 272200Z AUTO 00000KT 7SM M06/M13 A3024 RMK T10601130 IEM_DS3505
ZBYN,1989-03-27 23:00,ZBYN 272300Z AUTO 08002KT 7SM M07/M13 A3024 RMK T10701130 IEM_DS3505
ZBYN,1989-03-28 00:00,ZBYN 280000Z AUTO 00000KT 11SM M01/M12 A3024 RMK SLP247 T10081125 52002 IEM_DS3505
ZBYN,1989-03-28 01:00,ZBYN 280100Z AUTO 16008KT 7SM 03/M12 A3024 RMK T00301120 IEM_DS3505
ZBYN,1989-03-28 02:00,ZBYN 280200Z AUTO 17004KT 7SM 04/M11 A3024 RMK T00401110 IEM_DS3505
ZBYN,1989-03-28 03:00,ZBYN 280300Z AUTO 18004KT 6SM 07/M14 A3021 RMK SLP222 T00711141 57013 IEM_DS3505
ZBYN,1989-03-28 04:00,ZBYN 280400Z AUTO 25006KT 7SM 10/M15 A3015 RMK T01001150 IEM_DS3505
ZBYN,1989-03-28 05:00,ZBYN 280500Z AUTO 21008KT 7SM 11/M15 A3012 RMK T01101150 IEM_DS3505
ZBYN,1989-03-28 06:00,ZBYN 280600Z AUTO 16006KT 9SM 12/M12 A3009 RMK SLP183 T01161115 4////1057 57036 IEM_DS3505
ZBYN,1989-03-28 07:00,ZBYN 280700Z AUTO 17004KT 7SM 13/M11 A3006 RMK T01301110 IEM_DS3505
ZBYN,1989-03-28 08:00,ZBYN 280800Z AUTO 19008KT 7SM 14/M16 A3003 RMK T01401160 IEM_DS3505
ZBYN,1989-03-28 09:00,ZBYN 280900Z AUTO 20006KT 12SM 13/M11 A3000 RMK SLP156 T01331111 57028 IEM_DS3505
ZBYN,1989-03-28 11:00,ZBYN 281100Z AUTO 00000KT 7SM 10/M09 A2997 RMK T01001090 IEM_DS3505
ZBYN,1989-03-28 12:00,ZBYN 281200Z AUTO 00000KT 12SM 07/M07 A2997 RMK SLP157 T00741071 57003 IEM_DS3505
ZBYN,1989-03-28 13:00,ZBYN 281300Z AUTO 09004KT 7SM 04/M11 A3000 RMK T00401110 IEM_DS3505
ZBYN,1989-03-28 14:00,ZBYN 281400Z AUTO 11006KT 7SM 02/M12 A3000 RMK T00201120 IEM_DS3505
ZBYN,1989-03-28 15:00,ZBYN 281500Z AUTO 00000KT 9SM 02/M10 A3000 RMK SLP165 T00191095 52011 IEM_DS3505
ZBYN,1989-03-28 16:00,ZBYN 281600Z AUTO 09002KT 6SM 02/M12 A3000 RMK T00201120 IEM_DS3505
ZBYN,1989-03-28 17:00,ZBYN 281700Z AUTO 10006KT 7SM 02/M15 A2997 RMK T00201150 IEM_DS3505
ZBYN,1989-03-28 18:00,ZBYN 281800Z AUTO 00000KT 9SM M00/M12 A2998 RMK SLP147 T10041120 40137//// 57013 IEM_DS3505
ZBYN,1989-03-28 21:00,ZBYN 282100Z AUTO 36004KT 7SM M00/M07 A2997 RMK T10021074 57007 IEM_DS3505
ZBYN,1989-03-29 00:00,ZBYN 290000Z AUTO 00000KT 7SM 01/M08 A2997 RMK SLP144 T00081076 54000 IEM_DS3505
ZBYN,1989-03-29 02:00,ZBYN 290200Z AUTO 15006KT 7SM 10/ A2997 RMK IEM_DS3505
ZBYN,1989-03-29 03:00,ZBYN 290300Z AUTO 14004KT 5SM 11/M08 A2994 RMK SLP130 T01141079 57005 IEM_DS3505
ZBYN,1989-03-29 04:00,ZBYN 290400Z AUTO 21012KT 7SM 14/M07 A2991 RMK T01401070 IEM_DS3505
ZBYN,1989-03-29 05:00,ZBYN 290500Z AUTO 24010KT 7SM 16/M05 A2988 RMK T01601050 IEM_DS3505
ZBYN,1989-03-29 06:00,ZBYN 290600Z AUTO 18008KT 6SM 17/M04 A2983 RMK SLP091 T01661043 4////1023 57031 IEM_DS3505
ZBYN,1989-03-29 08:00,ZBYN 290800Z AUTO 19012KT 6SM 17/M05 A2977 RMK T01701050 IEM_DS3505
ZBYN,1989-03-29 09:00,ZBYN 290900Z AUTO 16004KT 6SM 17/M01 A2977 RMK SLP060 T01681014 57028 IEM_DS3505
ZBYN,1989-03-29 10:00,ZBYN 291000Z AUTO 00000KT 6SM 16/02 A2974 RMK T01600020 IEM_DS3505
ZBYN,1989-03-29 11:00,ZBYN 291100Z AUTO 00000KT 6SM 15/02 A2974 RMK T01500020 IEM_DS3505
ZBYN,1989-03-29 12:00,ZBYN 291200Z AUTO 36004KT 6SM 13/M00 A2976 RMK SLP068 T01341004 52004 IEM_DS3505
ZBYN,1989-03-29 13:00,ZBYN 291300Z AUTO 30010KT 6SM 15/M01 A2980 RMK T01501010 IEM_DS3505
ZBYN,1989-03-29 14:00,ZBYN 291400Z AUTO 35017KT 6SM 14/M01 A2983 RMK T01401010 IEM_DS3505
ZBYN,1989-03-29 15:00,ZBYN 291500Z AUTO 34012KT 7SM 14/M00 A2985 RMK SLP083 T01421001 52031 IEM_DS3505
ZBYN,1989-03-29 18:00,ZBYN 291800Z AUTO 32008KT 6SM 12/M09 A2988 RMK SLP091 T01251090 52012 IEM_DS3505
ZBYN,1989-03-29 21:00,ZBYN 292100Z AUTO 32004KT 9SM 09/M05 A2994 RMK SLP109 T00901050 52012 IEM_DS3505
ZBYN,1989-03-29 22:00,ZBYN 292200Z AUTO 29019KT 6SM 08/M04 A2997 RMK T00801040 IEM_DS3505
ZBYN,1989-03-29 23:00,ZBYN 292300Z AUTO 32016KT 7SM 07/M02 A2997 RMK T00701020 IEM_DS3505
ZBYN,1989-03-30 00:00,ZBYN 300000Z AUTO 32012KT 5SM 08/M04 A3003 RMK SLP139 T00831043 52021 IEM_DS3505
ZBYN,1989-03-30 01:00,ZBYN 300100Z AUTO 30019KT 7SM 10/M03 A3003 RMK T01001030 IEM_DS3505
ZBYN,1989-03-30 02:00,ZBYN 300200Z AUTO 30014KT 7SM 12/M04 A3009 RMK T01201040 IEM_DS3505
ZBYN,1989-03-30 03:00,ZBYN 300300Z AUTO 29016KT 5SM 13/M07 A3006 RMK SLP149 T01281073 52017 IEM_DS3505
ZBYN,1989-03-30 04:00,ZBYN 300400Z AUTO 34014KT 7SM 16/M08 A3006 RMK T01601080 IEM_DS3505
ZBYN,1989-03-30 05:00,ZBYN 300500Z AUTO 29025KT 7SM 17/M09 A3003 RMK T01701090 IEM_DS3505
ZBYN,1989-03-30 06:00,ZBYN 300600Z AUTO 32010KT 9SM 17/M12 A3000 RMK SLP126 T01741123 4////0071 57017 IEM_DS3505
ZBYN,1989-03-30 07:00,ZBYN 300700Z AUTO 30021KT 7SM 18/M10 A3000 RMK T01801100 IEM_DS3505
ZBYN,1989-03-30 08:00,ZBYN 300800Z AUTO 28023KT 7SM 17/M12 A3000 RMK T01701120 IEM_DS3505
ZBYN,1989-03-30 09:00,ZBYN 300900Z AUTO 32012KT 9SM 16/M14 A3000 RMK SLP131 T01651141 57002 IEM_DS3505
ZBYN,1989-03-30 10:00,ZBYN 301000Z AUTO 28017KT 7SM 16/M12 A3000 RMK T01601120 IEM_DS3505
ZBYN,1989-03-30 11:00,ZBYN 301100Z AUTO 29017KT 7SM 13/M11 A3003 RMK T01301110 IEM_DS3505
ZBYN,1989-03-30 12:00,ZBYN 301200Z AUTO 29008KT 9SM 12/M12 A3003 RMK SLP149 T01241118 52010 IEM_DS3505
ZBYN,1989-03-30 13:00,ZBYN 301300Z AUTO 29008KT 7SM 10/M08 A3006 RMK T01001080 IEM_DS3505
ZBYN,1989-03-30 14:00,ZBYN 301400Z AUTO 27006KT 7SM 09/M08 A3006 RMK T00901080 IEM_DS3505
ZBYN,1989-03-30 15:00,ZBYN 301500Z AUTO 20004KT 9SM 09/M09 A3007 RMK SLP163 T00881087 52014 IEM_DS3505
ZBYN,1989-03-30 18:00,ZBYN 301800Z AUTO 09004KT 9SM 04/M08 A3009 RMK SLP164 T00441085 40180//// 52001 IEM_DS3505
ZBYN,1989-03-30 21:00,ZBYN 302100Z AUTO 00000KT 12SM 00/M08 A3006 RMK SLP162 T00001075 57010 IEM_DS3505
ZBYN,1989-03-30 22:00,ZBYN 302200Z AUTO 10008KT 7SM M01/M09 A3006 RMK T10101090 IEM_DS3505
ZBYN,1989-03-30 23:00,ZBYN 302300Z AUTO 08008KT 7SM M01/M09 A3006 RMK T10101090 IEM_DS3505
ZBYN,1989-03-31 00:00,ZBYN 310000Z AUTO 00000KT 6SM 04/M12 A3006 RMK SLP174 T00401119 52011 IEM_DS3505
ZBYN,1989-03-31 02:00,ZBYN 310200Z AUTO 15006KT 7SM 12/M07 A3006 RMK T01201070 IEM_DS3505
ZBYN,1989-03-31 03:00,ZBYN 310300Z AUTO 16004KT 6SM 14/M08 A3003 RMK SLP148 T01451079 57013 IEM_DS3505
ZBYN,1989-03-31 04:00,ZBYN 310400Z AUTO 00000KT 7SM 18/M07 A3000 RMK T01801070 IEM_DS3505
ZBYN,1989-03-31 05:00,ZBYN 310500Z AUTO 12006KT 6SM 20/M08 A2997 RMK T02001080 IEM_DS3505
ZBYN,1989-03-31 06:00,ZBYN 310600Z AUTO 18004KT 9SM 21/M09 A2994 RMK SLP101 T02081088 4////1023 57040 IEM_DS3505
ZBYN,1989-03-31 07:00,ZBYN 310700Z AUTO 27010KT 6SM 22/ A2988 RMK IEM_DS3505
ZBYN,1989-03-31 08:00,ZBYN 310800Z AUTO 21010KT 6SM 21/M09 A2988 RMK T02101090 IEM_DS3505
ZBYN,1989-03-31 09:00,ZBYN 310900Z AUTO 25006KT 12SM 20/M09 A2985 RMK SLP096 T01981089 57013 IEM_DS3505
ZBYN,1989-03-31 10:00,ZBYN 311000Z AUTO 24008KT 6SM 19/M04 A2985 RMK T01901040 IEM_DS3505
ZBYN,1989-03-31 11:00,ZBYN 311100Z AUTO 00000KT 6SM 16/M01 RMK T01601010 IEM_DS3505
ZBYN,1989-03-31 12:00,ZBYN 311200Z AUTO 07002KT 12SM 16/M06 A2988 RMK SLP098 T01631064 52003 IEM_DS3505
ZBYN,1989-03-31 14:00,ZBYN 311400Z AUTO 18008KT 6SM 11/M05 A2991 RMK T01101050 IEM_DS3505
ZBYN,1989-03-31 15:00,ZBYN 311500Z AUTO 00000KT 12SM 10/M04 A2991 RMK SLP102 T01051036 IEM_DS3505
ZBYN,1989-03-31 16:00,ZBYN 311600Z AUTO 6SM 09/M03 A2991 RMK T00901030 IEM_DS3505
ZBYN,1989-03-31 18:00,ZBYN 311800Z AUTO 00000KT 9SM 09/M01 A2991 RMK SLP095 T00861007 40214//// 54000 IEM_DS3505
ZBYN,1989-03-31 20:00,ZBYN 312000Z AUTO 6SM 05/M03 A2991 RMK T00501030 IEM_DS3505
ZBYN,1989-03-31 21:00,ZBYN 312100Z AUTO 36002KT 7SM 09/M08 A2991 RMK SLP094 T00911079 57001 IEM_DS3505
ZBYN,1989-03-31 22:00,ZBYN 312200Z AUTO 00000KT 6SM 04/M05 A2991 RMK T00401050 IEM_DS3505
ZBYN,1989-03-31 23:00,ZBYN 312300Z AUTO 00000KT 6SM 04/M05 A2991 RMK T00401050 IEM_DS3505
ZBYN,1989-04-01 00:00,ZBYN 010000Z AUTO 00000KT 11SM 10/M05 A2997 RMK SLP118 T00961052 52017 IEM_DS3505
ZBYN,1989-04-01 01:00,ZBYN 010100Z AUTO 6SM 13/M08 A2997 RMK T01301080 IEM_DS3505
ZBYN,1989-04-01 02:00,ZBYN 010200Z AUTO 07016KT 6SM 15/M07 A3000 RMK T01501070 IEM_DS3505
ZBYN,1989-04-01 03:00,ZBYN 010300Z AUTO 11010KT 6SM 17/M08 A2997 RMK SLP120 T01681084 52004 IEM_DS3505
ZBYN,1989-04-01 05:00,ZBYN 010500Z AUTO 09017KT 6SM 19/M08 A2991 RMK T01901080 IEM_DS3505
ZBYN,1989-04-01 06:00,ZBYN 010600Z AUTO 09010KT 9SM 20/M09 A2988 RMK T01951092 57021 IEM_DS3505
ZBYN,1989-04-01 07:00,ZBYN 010700Z AUTO 07017KT 6SM 20/M07 A2985 RMK T02001070 IEM_DS3505
ZBYN,1989-04-01 08:00,ZBYN 010800Z AUTO 07014KT 7SM 20/M08 A2985 RMK T02001080 IEM_DS3505
ZBYN,1989-04-01 09:00,ZBYN 010900Z AUTO 09012KT 9SM 20/M07 A2985 RMK SLP077 T01951074 57016 IEM_DS3505
ZBYN,1989-04-01 10:00,ZBYN 011000Z AUTO 07016KT 6SM 18/M07 A2985 RMK T01801070 IEM_DS3505
ZBYN,1989-04-01 11:00,ZBYN 011100Z AUTO 07014KT 6SM 15/M09 A2988 RMK T01501090 IEM_DS3505
ZBYN,1989-04-01 12:00,ZBYN 011200Z AUTO 09010KT 12SM 15/M08 A2991 RMK SLP099 T01481081 52014 IEM_DS3505
ZBYN,1989-04-01 13:00,ZBYN 011300Z AUTO 08017KT 6SM 13/M10 A2994 RMK T01301100 IEM_DS3505
ZBYN,1989-04-01 14:00,ZBYN 011400Z AUTO 07017KT 7SM 12/M09 A2994 RMK T01201090 IEM_DS3505
ZBYN,1989-04-01 15:00,ZBYN 011500Z AUTO 00000KT 12SM 10/M05 A2994 RMK SLP120 T01041046 52023 IEM_DS3505
ZBYN,1989-04-01 17:00,ZBYN 011700Z AUTO 06004KT 7SM 10/M05 A2997 RMK T01001050 IEM_DS3505
ZBYN,1989-04-01 18:00,ZBYN 011800Z AUTO 00000KT 9SM 06/M02 A2997 RMK SLP122 T00651024 40207//// 54000 IEM_DS3505
ZBYN,1989-04-01 19:00,ZBYN 011900Z AUTO 00000KT 6SM 06/M04 A2997 RMK T00601040 IEM_DS3505
ZBYN,1989-04-01 20:00,ZBYN 012000Z AUTO 00000KT 6SM 06/M03 A2994 RMK T00601030 IEM_DS3505
ZBYN,1989-04-01 21:00,ZBYN 012100Z AUTO 00000KT 6SM 06/M04 A2994 RMK SLP113 T00621035 57009 IEM_DS3505
ZBYN,1989-04-01 22:00,ZBYN 012200Z AUTO 00000KT 6SM 04/M05 A2994 RMK T00401050 IEM_DS3505
ZBYN,1989-04-01 23:00,ZBYN 012300Z AUTO 00000KT 6SM 03/M05 A2994 RMK T00301050 IEM_DS3505
ZBYN,1989-04-02 00:00,ZBYN 020000Z AUTO 00000KT 6SM 08/M03 RMK SLP125 T00821033 52007 IEM_DS3505
ZBYN,1989-04-02 01:00,ZBYN 020100Z AUTO 00000KT 6SM 11/M04 A2997 RMK T01101040 IEM_DS3505
ZBYN,1989-04-02 02:00,ZBYN 020200Z AUTO 00000KT 6SM 15/M04 A2997 RMK T01501040 IEM_DS3505
ZBYN,1989-04-02 03:00,ZBYN 020300Z AUTO 22002KT 5SM 16/M04 A2997 RMK SLP117 T01601040 57003 IEM_DS3505
ZBYN,1989-04-02 04:00,ZBYN 020400Z AUTO 17006KT 6SM 18/M02 A2994 RMK T01801020 IEM_DS3505
ZBYN,1989-04-02 05:00,ZBYN 020500Z AUTO 27006KT 6SM 19/M02 A2991 RMK T01901020 IEM_DS3505
ZBYN,1989-04-02 06:00,ZBYN 020600Z AUTO 20004KT 5SM 21/M02 A2988 RMK SLP084 T02061015 4////0052 57028 IEM_DS3505
ZBYN,1989-04-02 07:00,ZBYN 020700Z AUTO 22006KT 7SM 22/M01 A2983 RMK T02201010 IEM_DS3505
ZBYN,1989-04-02 08:00,ZBYN 020800Z AUTO 24006KT 7SM 23/M01 A2980 RMK T02301010 IEM_DS3505
ZBYN,1989-04-02 09:00,ZBYN 020900Z AUTO 36004KT 16SM 23/M04 A2980 RMK SLP055 T02291043 57024 IEM_DS3505
ZBYN,1989-04-02 10:00,ZBYN 021000Z AUTO 22006KT 6SM 21/M03 A2980 RMK T02101030 IEM_DS3505
ZBYN,1989-04-02 11:00,ZBYN 021100Z AUTO 22002KT 6SM 19/M01 A2983 RMK T01901010 IEM_DS3505
ZBYN,1989-04-02 12:00,ZBYN 021200Z AUTO 00000KT 9SM 15/01 A2985 RMK SLP082 T01520009 52017 IEM_DS3505
ZBYN,1989-04-02 13:00,ZBYN 021300Z AUTO 07006KT 6SM 11/M02 A2988 RMK T01101020 IEM_DS3505
ZBYN,1989-04-02 14:00,ZBYN 021400Z AUTO 12004KT 7SM 11/M04 A2988 RMK T01101040 IEM_DS3505
ZBYN,1989-04-02 15:00,ZBYN 021500Z AUTO 16002KT 9SM 11/M02 RMK SLP097 T01091022 52018 IEM_DS3505
ZBYN,1989-04-02 16:00,ZBYN 021600Z AUTO 09008KT 7SM 10/M06 A2991 RMK T01001060 IEM_DS3505
ZBYN,1989-04-02 18:00,ZBYN 021800Z AUTO 34002KT 7SM 09/M03 A2994 RMK SLP097 T00931030 52005 IEM_DS3505
ZBYN,1989-04-02 19:00,ZBYN 021900Z AUTO 00000KT 7SM 03/M04 A2994 RMK T00301040 IEM_DS3505
ZBYN,1989-04-02 20:00,ZBYN 022000Z AUTO 00000KT 7SM 04/M05 A2994 RMK T00401050 IEM_DS3505
ZBYN,1989-04-02 21:00,ZBYN 022100Z AUTO 09002KT 7SM 04/M02 A2997 RMK SLP116 T00361023 52012 IEM_DS3505
ZBYN,1989-04-02 22:00,ZBYN 022200Z AUTO 00000KT 6SM 02/M09 A2997 RMK T00201090 IEM_DS3505
ZBYN,1989-04-02 23:00,ZBYN 022300Z AUTO 12004KT 6SM 05/M06 A3003 RMK T00501060 IEM_DS3505
ZBYN,1989-04-03 00:00,ZBYN 030000Z AUTO 32004KT 6SM 11/M03 A3003 RMK SLP149 T01121028 52030 IEM_DS3505
ZBYN,1989-04-03 03:00,ZBYN 030300Z AUTO 07006KT 6SM 20/M03 A3009 RMK SLP152 T01971032 52009 IEM_DS3505
ZBYN,1989-04-03 04:00,ZBYN 030400Z AUTO 09017KT 7SM 20/M05 A3006 RMK T02001050 IEM_DS3505
ZBYN,1989-04-03 05:00,ZBYN 030500Z AUTO 08010KT 7SM A3006 RMK IEM_DS3505
ZBYN,1989-04-03 06:00,ZBYN 030600Z AUTO 09010KT 6SM 22/M04 A3003 RMK SLP133 T02161040 4////0027 57017 IEM_DS3505
ZBYN,1989-04-03 08:00,ZBYN 030800Z AUTO 07010KT 7SM 23/M06 A2997 RMK T02301060 IEM_DS3505
ZBYN,1989-04-03 09:00,ZBYN 030900Z AUTO 07004KT 9SM 22/M04 A2997 RMK SLP120 T02251036 57019 IEM_DS3505
ZBYN,1989-04-03 10:00,ZBYN 031000Z AUTO 6SM 21/M04 A2997 RMK T02101040 IEM_DS3505
ZBYN,1989-04-03 12:00,ZBYN 031200Z AUTO 09008KT 9SM 17/M02 A3000 RMK SLP125 T01681023 52008 IEM_DS3505
ZBYN,1989-04-03 13:00,ZBYN 031300Z AUTO 08012KT 6SM 15/M02 A3003 RMK T01501020 IEM_DS3505
ZBYN,1989-04-03 14:00,ZBYN 031400Z AUTO 07010KT 6SM 15/M03 A3006 RMK T01501030 IEM_DS3505
ZBYN,1989-04-03 15:00,ZBYN 031500Z AUTO 22002KT 12SM 11/M02 A3006 RMK SLP146 T01121017 52023 IEM_DS3505
ZBYN,1989-04-03 16:00,ZBYN 031600Z AUTO 08010KT 6SM 12/M02 A3006 RMK T01201020 IEM_DS3505
ZBYN,1989-04-03 17:00,ZBYN 031700Z AUTO 09008KT 6SM 12/M02 A3006 RMK T01201020 IEM_DS3505
ZBYN,1989-04-03 18:00,ZBYN 031800Z AUTO 00000KT 12SM 09/M06 A3006 RMK SLP155 T00941058 40228//// 52008 IEM_DS3505
ZBYN,1989-04-03 19:00,ZBYN 031900Z AUTO 08006KT 6SM 09/M01 A3006 RMK T00901010 IEM_DS3505
ZBYN,1989-04-03 21:00,ZBYN 032100Z AUTO 00000KT 7SM 07/M01 A3006 RMK T00701010 IEM_DS3505
ZBYN,1989-04-03 22:00,ZBYN 032200Z AUTO 00000KT 7SM 05/M01 A3009 RMK T00501010 IEM_DS3505
ZBYN,1989-04-03 23:00,ZBYN 032300Z AUTO 00000KT 6SM 04/ RMK IEM_DS3505
ZBYN,1989-04-04 00:00,ZBYN 040000Z AUTO 00000KT 6SM 07/02 A3009 RMK SLP171 T00690017 52008 IEM_DS3505
ZBYN,1989-04-04 02:00,ZBYN 040200Z AUTO 00000KT 6SM 14/01 A3012 RMK T01400010 IEM_DS3505
ZBYN,1989-04-04 03:00,ZBYN 040300Z AUTO 16004KT 5SM 16/M06 A3012 RMK SLP166 T01581060 52001 IEM_DS3505
ZBYN,1989-04-04 04:00,ZBYN 040400Z AUTO 21006KT 6SM 17/01 A3009 RMK T01700010 IEM_DS3505
ZBYN,1989-04-04 05:00,ZBYN 040500Z AUTO 22008KT 6SM 19/00 A3006 RMK T01900000 IEM_DS3505
ZBYN,1989-04-04 06:00,ZBYN 040600Z AUTO 20004KT 11SM 20/M03 A3000 RMK SLP129 T02001033 57031 IEM_DS3505
ZBYN,1989-04-04 07:00,ZBYN 040700Z AUTO 21012KT 6SM 21/M03 A2997 RMK T02101030 IEM_DS3505
ZBYN,1989-04-04 08:00,ZBYN 040800Z AUTO 21010KT 6SM 21/M04 A2994 RMK T02101040 IEM_DS3505
ZBYN,1989-04-04 09:00,ZBYN 040900Z AUTO 20004KT 12SM 21/M04 A2994 RMK SLP106 T02121040 57024 IEM_DS3505
ZBYN,1989-04-04 11:00,ZBYN 041100Z AUTO 18004KT 6SM 18/00 A2994 RMK T01800000 IEM_DS3505
ZBYN,1989-04-04 12:00,ZBYN 041200Z AUTO 00000KT 6SM 15/01 A2997 RMK SLP127 T01470010 52011 IEM_DS3505
ZBYN,1989-04-04 13:00,ZBYN 041300Z AUTO 12004KT 6SM 13/01 A2997 RMK T01300010 IEM_DS3505
ZBYN,1989-04-04 14:00,ZBYN 041400Z AUTO 12006KT 6SM 12/00 A3000 RMK T01200000 IEM_DS3505
ZBYN,1989-04-04 15:00,ZBYN 041500Z AUTO 00000KT 7SM 12/01 A3000 RMK SLP125 T01190010 52007 IEM_DS3505
ZBYN,1989-04-04 16:00,ZBYN 041600Z AUTO 13008KT 6SM 11/00 A3000 RMK T01100000 IEM_DS3505
ZBYN,1989-04-04 18:00,ZBYN 041800Z AUTO 14004KT 7SM 11/02 RMK SLP123 T01080015 40227//// 52003 IEM_DS3505
ZBYN,1989-04-04 20:00,ZBYN 042000Z AUTO 11004KT 7SM 10/02 A3000 RMK T01000020 54000 IEM_DS3505
ZBYN,1989-04-04 21:00,ZBYN 042100Z AUTO 11004KT 7SM 09/02 A2997 RMK SLP124 T00900019 54000 IEM_DS3505
ZBYN,1989-04-04 22:00,ZBYN 042200Z AUTO 12006KT 5SM 08/02 A2997 RMK T00800020 IEM_DS3505
ZBYN,1989-04-04 23:00,ZBYN 042300Z AUTO 10004KT 6SM 08/02 A3000 RMK T00800020 IEM_DS3505
ZBYN,1989-04-05 00:00,ZBYN 050000Z AUTO 00000KT 6SM 09/03 A3003 RMK SLP143 T00920027 52008 IEM_DS3505
ZBYN,1989-04-05 01:00,ZBYN 050100Z AUTO 00000KT 6SM 12/04 A3003 RMK T01200040 IEM_DS3505
ZBYN,1989-04-05 02:00,ZBYN 050200Z AUTO 00000KT 5SM 15/05 A3003 RMK T01500050 IEM_DS3505
ZBYN,1989-04-05 03:00,ZBYN 050300Z AUTO 20002KT 7SM 16/02 A3003 RMK SLP135 T01620021 57001 IEM_DS3505
ZBYN,1989-04-05 05:34,ZBYN 050534Z AUTO 00000KT 6SM 20/04 A3000 RMK T02000040 IEM_DS3505
ZBYN,1989-04-05 05:36,ZBYN 050536Z AUTO 00000KT 6SM 20/04 A3000 RMK T02000040 IEM_DS3505
ZBYN,1989-04-05 05:41,ZBYN 050541Z AUTO 00000KT 6SM 20/04 A3000 RMK T02000040 IEM_DS3505
ZBYN,1989-04-05 06:00,ZBYN 050600Z AUTO 18002KT 7SM 22/02 RMK SLP102 T02190017 4////0055 57023 IEM_DS3505
ZBYN,1989-04-05 06:02,ZBYN 050602Z AUTO 00000KT 6SM 20/04 A3000 RMK T02000040 IEM_DS3505
ZBYN,1989-04-05 06:31,ZBYN 050631Z AUTO 12008KT 6SM 22/03 A2997 RMK T02200030 IEM_DS3505
ZBYN,1989-04-05 06:39,ZBYN 050639Z AUTO 12008KT 6SM 22/03 A2997 RMK T02200030 IEM_DS3505
ZBYN,1989-04-05 07:44,ZBYN 050744Z AUTO 16008KT 6SM 23/00 A2994 RMK T02300000 IEM_DS3505
ZBYN,1989-04-05 07:50,ZBYN 050750Z AUTO 16008KT 6SM 23/00 A2994 RMK T02300000 IEM_DS3505
ZBYN,1989-04-05 09:00,ZBYN 050900Z AUTO 07012KT 6SM 20/M00 RMK SLP098 T02021005 57009 IEM_DS3505
ZBYN,1989-04-05 09:31,ZBYN 050931Z AUTO 08025G35KT 6SM 20/M01 A2994 RMK T02001010 IEM_DS3505
ZBYN,1989-04-05 09:34,ZBYN 050934Z AUTO 08025G35KT 6SM 20/M01 A2994 RMK T02001010 IEM_DS3505
ZBYN,1989-04-05 09:38,ZBYN 050938Z AUTO 08025G35KT 6SM 20/M01 A2994 RMK T02001010 IEM_DS3505
ZBYN,1989-04-05 10:31,ZBYN 051031Z AUTO 09023KT 7SM 19/00 A2994 RMK T01900000 IEM_DS3505
ZBYN,1989-04-05 10:34,ZBYN 051034Z AUTO 09023KT 7SM 19/00 A2994 RMK T01900000 IEM_DS3505
ZBYN,1989-04-05 10:39,ZBYN 051039Z AUTO 09023KT 7SM 19/00 A2994 RMK T01900000 IEM_DS3505
ZBYN,1989-04-05 11:31,ZBYN 051131Z AUTO 10019KT 7SM 16/00 A2997 RMK T01600000 IEM_DS3505
ZBYN,1989-04-05 11:34,ZBYN 051134Z AUTO 10019KT 7SM 16/00 A2997 RMK T01600000 IEM_DS3505
ZBYN,1989-04-05 11:35,ZBYN 051135Z AUTO 10019KT 7SM 16/00 A2997 RMK T01600000 IEM_DS3505
ZBYN,1989-04-05 12:00,ZBYN 051200Z AUTO 11002KT 7SM 16/01 A3000 RMK SLP147 T01610007 52039 IEM_DS3505
ZBYN,1989-04-05 14:30,ZBYN 051430Z AUTO 06008KT 6SM 13/00 A3009 RMK T01300000 IEM_DS3505
ZBYN,1989-04-05 14:33,ZBYN 051433Z AUTO 06008KT 6SM 13/00 A3009 RMK T01300000 IEM_DS3505
ZBYN,1989-04-05 15:00,ZBYN 051500Z AUTO 10008KT 6SM 12/01 A3009 RMK T01200010 IEM_DS3505
ZBYN,1989-04-05 18:00,ZBYN 051800Z AUTO 00000KT 7SM 07/02 RMK SLP148 T00730019 57005 IEM_DS3505
ZBYN,1989-04-05 21:00,ZBYN 052100Z AUTO 00000KT 6SM 05/03 RMK SLP147 T00540026 57006 IEM_DS3505
ZBYN,1989-04-05 21:31,ZBYN 052131Z AUTO 00000KT 6SM 05/02 A3003 RMK T00500020 IEM_DS3505
ZBYN,1989-04-05 21:34,ZBYN 052134Z AUTO 00000KT 6SM 05/02 A3003 RMK T00500020 IEM_DS3505
ZBYN,1989-04-05 21:35,ZBYN 052135Z AUTO 00000KT 6SM 05/02 A3003 RMK T00500020 IEM_DS3505
ZBYN,1989-04-05 22:31,ZBYN 052231Z AUTO 00000KT 05/01 A3006 RMK T00500010 IEM_DS3505
ZBYN,1989-04-05 22:34,ZBYN 052234Z AUTO 00000KT 05/01 A3006 RMK T00500010 IEM_DS3505
ZBYN,1989-04-05 22:37,ZBYN 052237Z AUTO 00000KT 05/01 A3006 RMK T00500010 IEM_DS3505
ZBYN,1989-04-05 23:34,ZBYN 052334Z AUTO 14004KT 6SM 06/02 A3006 RMK T00600020 IEM_DS3505
ZBYN,1989-04-05 23:37,ZBYN 052337Z AUTO 14004KT 6SM 06/02 A3006 RMK T00600020 IEM_DS3505
ZBYN,1989-04-05 23:40,ZBYN 052340Z AUTO 14004KT 6SM 06/02 A3006 RMK T00600020 IEM_DS3505
ZBYN,1989-04-06 00:00,ZBYN 060000Z AUTO 00000KT 5SM 08/03 A3006 RMK SLP158 T00760026 52007 IEM_DS3505
ZBYN,1989-04-06 01:00,ZBYN 060100Z AUTO 16004KT 5SM 11/03 A3006 RMK T01100030 IEM_DS3505
ZBYN,1989-04-06 02:00,ZBYN 060200Z AUTO 15004KT 4SM 13/04 A3006 RMK T01300040 IEM_DS3505
ZBYN,1989-04-06 03:00,ZBYN 060300Z AUTO 14004KT 5SM 14/03 A3006 RMK SLP149 T01410027 57009 IEM_DS3505
ZBYN,1989-04-06 04:00,ZBYN 060400Z AUTO 19006KT 6SM 16/02 A3003 RMK T01600020 IEM_DS3505
ZBYN,1989-04-06 05:00,ZBYN 060500Z AUTO 22014KT 6SM 18/02 A3000 RMK T01800020 IEM_DS3505
ZBYN,1989-04-06 06:00,ZBYN 060600Z AUTO 18006KT 5SM 17/02 RMK SLP126 T01740019 4////0052 57021 IEM_DS3505
ZBYN,1989-04-06 07:00,ZBYN 060700Z AUTO 21008KT 6SM 18/03 A2997 RMK T01800030 IEM_DS3505
ZBYN,1989-04-06 09:00,ZBYN 060900Z AUTO 34006KT 6SM 17/02 A2994 RMK SLP123 T01740019 57006 IEM_DS3505
ZBYN,1989-04-06 10:00,ZBYN 061000Z AUTO 02016KT 6SM 16/03 A2997 RMK T01600030 IEM_DS3505
ZBYN,1989-04-06 11:00,ZBYN 061100Z AUTO 35017KT 6SM 13/05 A2997 RMK T01300050 IEM_DS3505
ZBYN,1989-04-06 12:00,ZBYN 061200Z AUTO 34010KT 6SM 13/05 A3003 RMK SLP157 T01260054 52027 IEM_DS3505
ZBYN,1989-04-06 13:00,ZBYN 061300Z AUTO 36016KT 6SM 13/04 A3006 RMK T01300040 IEM_DS3505
ZBYN,1989-04-06 14:00,ZBYN 061400Z AUTO 34014KT 6SM 13/04 A3009 RMK T01300040 IEM_DS3505
ZBYN,1989-04-06 15:00,ZBYN 061500Z AUTO 00000KT 9SM 12/05 A3012 RMK SLP172 T01220052 52023 IEM_DS3505
ZBYN,1989-04-06 16:00,ZBYN 061600Z AUTO 34006KT 6SM 12/04 A3012 RMK T01200040 IEM_DS3505
ZBYN,1989-04-06 17:00,ZBYN 061700Z AUTO 35006KT 6SM 12/03 A3012 RMK T01200030 IEM_DS3505
ZBYN,1989-04-06 18:00,ZBYN 061800Z AUTO 34002KT 9SM 09/04 A3012 RMK SLP173 T00900035 52001 IEM_DS3505
ZBYN,1989-04-06 19:00,ZBYN 061900Z AUTO 00000KT 6SM 10/01 A3012 RMK T01000010 IEM_DS3505
ZBYN,1989-04-06 20:00,ZBYN 062000Z AUTO 36006KT 6SM 07/M01 A3012 RMK T00701010 IEM_DS3505
ZBYN,1989-04-06 21:00,ZBYN 062100Z AUTO 00000KT 9SM 08/M01 A3012 RMK SLP178 T00831008 52004 IEM_DS3505
ZBYN,1989-04-06 22:00,ZBYN 062200Z AUTO 01004KT 6SM 06/M01 A3015 RMK T00601010 IEM_DS3505
ZBYN,1989-04-07 00:00,ZBYN 070000Z AUTO 34004KT 9SM 08/M03 A3018 RMK SLP213 T00821027 52024 IEM_DS3505
ZBYN,1989-04-07 01:00,ZBYN 070100Z AUTO 34012KT 6SM 12/M08 A3021 RMK T01201080 IEM_DS3505
ZBYN,1989-04-07 02:00,ZBYN 070200Z AUTO 34012KT 6SM 12/M08 A3021 RMK T01201080 IEM_DS3505
ZBYN,1989-04-07 03:00,ZBYN 070300Z AUTO 34006KT 11SM 13/M08 A3021 RMK SLP213 T01341081 54000 IEM_DS3505
ZBYN,1989-04-07 04:00,ZBYN 070400Z AUTO 36006KT 6SM 16/M04 A3021 RMK T01601040 IEM_DS3505
ZBYN,1989-04-07 05:00,ZBYN 070500Z AUTO 27004KT 6SM 15/M03 A3021 RMK T01501030 IEM_DS3505
ZBYN,1989-04-07 06:00,ZBYN 070600Z AUTO 16004KT 12SM 17/M05 A3018 RMK SLP190 T01681054 4////0012 57020 IEM_DS3505
ZBYN,1989-04-07 07:00,ZBYN 070700Z AUTO 24010KT 6SM 18/M05 A3015 RMK T01801050 IEM_DS3505
ZBYN,1989-04-07 08:00,ZBYN 070800Z AUTO 18006KT 6SM 18/M05 A3012 RMK T01801050 IEM_DS3505
ZBYN,1989-04-07 11:00,ZBYN 071100Z AUTO 00000KT 7SM 15/00 A3012 RMK T01500000 IEM_DS3505
ZBYN,1989-04-07 13:00,ZBYN 071300Z AUTO 00000KT 7SM 11/M04 A3015 RMK T01101040 IEM_DS3505
ZBYN,1989-04-07 14:00,ZBYN 071400Z AUTO 09006KT 3SM RMK IEM_DS3505
ZBYN,1989-04-07 15:00,ZBYN 071500Z AUTO 34002KT 16SM 09/M04 RMK SLP199 T00891041 52011 IEM_DS3505
ZBYN,1989-04-07 16:00,ZBYN 071600Z AUTO 00000KT 7SM 05/M04 A3018 RMK T00501040 IEM_DS3505
ZBYN,1989-04-07 17:00,ZBYN 071700Z AUTO 10006KT 7SM 04/M05 A3021 RMK T00401050 IEM_DS3505
ZBYN,1989-04-07 18:00,ZBYN 071800Z AUTO 00000KT 16SM 04/M05 RMK SLP205 T00421047 40189//// 52003 IEM_DS3505
ZBYN,1989-04-07 19:00,ZBYN 071900Z AUTO 11006KT 7SM 03/M06 A3018 RMK T00301060 IEM_DS3505
ZBYN,1989-04-07 21:00,ZBYN 072100Z AUTO 00000KT 12SM 02/M04 RMK SLP201 T00251041 57004 IEM_DS3505
ZBYN,1989-04-07 22:00,ZBYN 072200Z AUTO 16004KT 7SM 01/M04 A3018 RMK T00101040 IEM_DS3505
ZBYN,1989-04-07 23:00,ZBYN 072300Z AUTO 00000KT 7SM 00/M05 A3018 RMK T00001050 IEM_DS3505
ZBYN,1989-04-08 00:00,ZBYN 080000Z AUTO 00000KT 5SM 06/M04 RMK SLP210 T00561044 52003 IEM_DS3505
ZBYN,1989-04-08 01:00,ZBYN 080100Z AUTO 00000KT 7SM 11/M03 A3021 RMK T01101030 IEM_DS3505
ZBYN,1989-04-08 02:00,ZBYN 080200Z AUTO 15006KT 7SM 13/M02 A3018 RMK T01301020 IEM_DS3505
ZBYN,1989-04-08 03:00,ZBYN 080300Z AUTO 18004KT 6SM 15/M03 A3015 RMK SLP192 T01531030 57006 IEM_DS3505
ZBYN,1989-04-08 04:00,ZBYN 080400Z AUTO 24006KT 7SM 17/00 A3012 RMK T01700000 IEM_DS3505
ZBYN,1989-04-08 05:00,ZBYN 080500Z AUTO 16006KT 6SM 19/M01 A3009 RMK T01901010 IEM_DS3505
ZBYN,1989-04-08 06:00,ZBYN 080600Z AUTO 18008KT 9SM 20/M10 A3006 RMK SLP154 T02041103 4////0002 57034 IEM_DS3505
ZBYN,1989-04-08 07:00,ZBYN 080700Z AUTO 00000KT 7SM 21/M07 A3003 RMK T02101070 IEM_DS3505
ZBYN,1989-04-08 08:00,ZBYN 080800Z AUTO 22006KT 6SM 21/M05 A3000 RMK T02101050 IEM_DS3505
ZBYN,1989-04-08 09:00,ZBYN 080900Z AUTO 20004KT 9SM 21/M07 A3000 RMK SLP135 T02081072 57019 IEM_DS3505
ZBYN,1989-04-08 11:00,ZBYN 081100Z AUTO 00000KT 7SM 18/01 A3000 RMK T01800010 IEM_DS3505
ZBYN,1989-04-08 12:00,ZBYN 081200Z AUTO 00000KT 9SM 14/M01 A3000 RMK SLP153 T01401009 52011 IEM_DS3505
ZBYN,1989-04-08 13:00,ZBYN 081300Z AUTO 10006KT 7SM 11/M04 A3003 RMK T01101040 IEM_DS3505
ZBYN,1989-04-08 14:00,ZBYN 081400Z AUTO 00000KT 7SM 11/M03 A3006 RMK T01101030 IEM_DS3505
ZBYN,1989-04-08 15:00,ZBYN 081500Z AUTO 36004KT 9SM 12/M03 A3006 RMK SLP149 T01191031 52007 IEM_DS3505
ZBYN,1989-04-08 16:00,ZBYN 081600Z AUTO 11006KT 7SM 08/M05 A3006 RMK T00801050 IEM_DS3505
ZBYN,1989-04-08 17:00,ZBYN 081700Z AUTO 07008KT 7SM 07/M07 A3009 RMK T00701070 IEM_DS3505
ZBYN,1989-04-08 18:00,ZBYN 081800Z AUTO 02004KT 9SM 07/M03 RMK SLP153 T00701030 40216//// 52004 IEM_DS3505
ZBYN,1989-04-08 20:00,ZBYN 082000Z AUTO 00000KT 7SM 03/M07 A3006 RMK T00301070 IEM_DS3505
ZBYN,1989-04-08 21:00,ZBYN 082100Z AUTO 02002KT 9SM 09/M09 RMK SLP164 T00941091 52008 IEM_DS3505
ZBYN,1989-04-08 22:00,ZBYN 082200Z AUTO 09006KT 7SM A3009 RMK IEM_DS3505
ZBYN,1989-04-08 23:00,ZBYN 082300Z AUTO 07006KT 7SM 02/M07 A3015 RMK T00201070 IEM_DS3505
ZBYN,1989-04-09 00:00,ZBYN 090000Z AUTO 34004KT 7SM 12/M06 A3015 RMK SLP197 T01161062 52030 IEM_DS3505
ZBYN,1989-04-09 01:00,ZBYN 090100Z AUTO 08012KT 7SM 14/M06 A3018 RMK T01401060 IEM_DS3505
ZBYN,1989-04-09 02:00,ZBYN 090200Z AUTO 09017KT 7SM 15/M05 A3018 RMK T01501050 IEM_DS3505
ZBYN,1989-04-09 03:00,ZBYN 090300Z AUTO 11010KT 7SM 16/M09 A3021 RMK SLP206 T01551087 52011 IEM_DS3505
ZBYN,1989-04-09 04:00,ZBYN 090400Z AUTO 07014KT 7SM 16/M09 A3021 RMK T01601090 IEM_DS3505
ZBYN,1989-04-09 05:00,ZBYN 090500Z AUTO 06016KT 7SM 17/M09 A3018 RMK T01701090 IEM_DS3505
ZBYN,1989-04-09 06:00,ZBYN 090600Z AUTO 11010KT 9SM 18/M09 A3018 RMK SLP189 T01801086 4////0052 57019 IEM_DS3505
ZBYN,1989-04-09 07:00,ZBYN 090700Z AUTO 07014KT 7SM 19/M09 A3015 RMK T01901090 IEM_DS3505
ZBYN,1989-04-09 08:00,ZBYN 090800Z AUTO 11016KT 7SM 18/M09 A3012 RMK T01801090 IEM_DS3505
ZBYN,1989-04-09 09:00,ZBYN 090900Z AUTO 11012KT 9SM 18/M09 RMK SLP176 T01821086 57011 IEM_DS3505
ZBYN,1989-04-09 10:00,ZBYN 091000Z AUTO 09016KT 7SM 17/M10 A3012 RMK T01701100 IEM_DS3505
ZBYN,1989-04-09 11:00,ZBYN 091100Z AUTO 07016KT 7SM 15/M11 A3015 RMK T01501110 IEM_DS3505
ZBYN,1989-04-09 12:00,ZBYN 091200Z AUTO 09008KT 9SM 14/M09 RMK SLP195 T01361087 52016 IEM_DS3505
ZBYN,1989-04-09 13:00,ZBYN 091300Z AUTO 09016KT 7SM 12/M09 A3021 RMK T01201090 IEM_DS3505
ZBYN,1989-04-09 14:00,ZBYN 091400Z AUTO 09012KT 7SM 10/M08 A3024 RMK T01001080 IEM_DS3505
ZBYN,1989-04-09 15:00,ZBYN 091500Z AUTO 09006KT 9SM 10/M07 A3027 RMK SLP225 T01001068 52028 IEM_DS3505
ZBYN,1989-04-09 18:00,ZBYN 091800Z AUTO 00000KT 9SM 06/M05 A3027 RMK SLP236 T00621047 40190//// 52008 IEM_DS3505
ZBYN,1989-04-09 21:00,ZBYN 092100Z AUTO 34004KT 9SM 04/M05 RMK SLP239 T00451050 52001 IEM_DS3505
ZBYN,1989-04-09 23:00,ZBYN 092300Z AUTO 00000KT 7SM 03/M06 A3030 RMK T00301060 IEM_DS3505
ZBYN,1989-04-10 00:00,ZBYN 100000Z AUTO 34002KT 7SM 07/M06 A3033 RMK SLP252 T00701060 52008 IEM_DS3505
ZBYN,1989-04-10 01:00,ZBYN 100100Z AUTO 30006KT 7SM 10/M06 A3033 RMK T01001060 IEM_DS3505
ZBYN,1989-04-10 02:00,ZBYN 100200Z AUTO 00000KT 7SM 14/M08 A3030 RMK T01401080 IEM_DS3505
ZBYN,1989-04-10 03:00,ZBYN 100300Z AUTO 00000KT 6SM 15/M09 A3030 RMK SLP240 T01501090 57004 IEM_DS3505
ZBYN,1989-04-10 04:00,ZBYN 100400Z AUTO 00000KT 7SM 16/M07 A3027 RMK T01601070 IEM_DS3505
ZBYN,1989-04-10 06:00,ZBYN 100600Z AUTO 22004KT 12SM 18/M06 RMK SLP205 T01841065 4////0032 57032 IEM_DS3505
ZBYN,1989-04-10 07:02,ZBYN 100702Z AUTO 23004KT 7SM 18/M04 A3024 RMK T01801040 IEM_DS3505
ZBYN,1989-04-10 09:00,ZBYN 100900Z AUTO 32004KT 3SM 14/M05 RMK SLP181 T01401052 57010 IEM_DS3505
ZBYN,1989-04-10 11:00,ZBYN 101100Z AUTO 25008KT 7SM 20/M06 A3012 RMK T02001060 IEM_DS3505
ZBYN,1989-04-10 12:00,ZBYN 101200Z AUTO 09008KT 12SM 16/M08 A3015 RMK SLP190 T01601079 IEM_DS3505
ZBYN,1989-04-10 13:00,ZBYN 101300Z AUTO 11010KT 7SM 14/M09 A3018 RMK T01401090 IEM_DS3505
ZBYN,1989-04-10 14:00,ZBYN 101400Z AUTO 09010KT 7SM 13/M08 A3021 RMK T01301080 IEM_DS3505
ZBYN,1989-04-10 15:00,ZBYN 101500Z AUTO 00000KT 12SM 11/M04 A3021 RMK SLP207 T01081039 52020 IEM_DS3505
ZBYN,1989-04-10 15:28,ZBYN 101528Z AUTO 09010KT 7SM 13/M06 A3021 RMK T01301060 IEM_DS3505
ZBYN,1989-04-10 16:00,ZBYN 101600Z AUTO 09006KT 7SM 11/M07 A3024 RMK T01101070 IEM_DS3505
ZBYN,1989-04-10 17:00,ZBYN 101700Z AUTO 11008KT 7SM 10/M06 A3024 RMK T01001060 IEM_DS3505
ZBYN,1989-04-10 18:00,ZBYN 101800Z AUTO 00000KT 12SM 07/M03 A3024 RMK SLP215 T00701027 40207//// 52007 IEM_DS3505
ZBYN,1989-04-10 19:00,ZBYN 101900Z AUTO 00000KT 7SM 07/M04 A3024 RMK T00701040 IEM_DS3505
ZBYN,1989-04-10 21:00,ZBYN 102100Z AUTO 34002KT 16SM 06/M01 RMK SLP214 T00561014 54000 IEM_DS3505
ZBYN,1989-04-10 22:00,ZBYN 102200Z AUTO 00000KT 7SM 04/M05 A3024 RMK T00401050 IEM_DS3505
ZBYN,1989-04-10 23:00,ZBYN 102300Z AUTO 10006KT 7SM 09/M05 A3024 RMK T00901050 IEM_DS3505
ZBYN,1989-04-11 00:00,ZBYN 110000Z AUTO 34004KT 6SM 09/M06 RMK SLP226 T00881055 52009 IEM_DS3505
ZBYN,1989-04-11 01:00,ZBYN 110100Z AUTO 00000KT 5SM 12/M03 A3027 RMK T01201030 IEM_DS3505
ZBYN,1989-04-11 02:00,ZBYN 110200Z AUTO 00000KT 6SM 15/M02 A3027 RMK T01501020 IEM_DS3505
ZBYN,1989-04-11 03:00,ZBYN 110300Z AUTO 36006KT 5SM 17/M04 A3024 RMK SLP216 T01671039 57005 IEM_DS3505
ZBYN,1989-04-11 06:00,ZBYN 110600Z AUTO 25004KT 5SM 21/M05 RMK SLP184 T02071050 4////0050 57029 IEM_DS3505
ZBYN,1989-04-11 09:00,ZBYN 110900Z AUTO 18004KT 12SM 20/M05 RMK SLP170 T02021052 57016 IEM_DS3505
ZBYN,1989-04-11 10:00,ZBYN 111000Z AUTO 16006KT 6SM 20/M09 A3009 RMK T02001090 IEM_DS3505
ZBYN,1989-04-11 12:00,ZBYN 111200Z AUTO 11008KT 11SM 16/M10 A3015 RMK SLP192 T01561102 52018 IEM_DS3505
ZBYN,1989-04-11 13:00,ZBYN 111300Z AUTO 11010KT 6SM 14/M11 A3018 RMK T01401110 IEM_DS3505
ZBYN,1989-04-11 14:00,ZBYN 111400Z AUTO 09008KT 7SM 12/M10 A3021 RMK T01201100 IEM_DS3505
ZBYN,1989-04-11 15:00,ZBYN 111500Z AUTO 16002KT 9SM 12/M06 A3024 RMK SLP209 T01231057 52023 IEM_DS3505
ZBYN,1989-04-11 16:00,ZBYN 111600Z AUTO 08008KT 6SM 11/M06 A3024 RMK T01101060 IEM_DS3505
ZBYN,1989-04-11 17:00,ZBYN 111700Z AUTO 12006KT 6SM 09/M04 A3027 RMK T00901040 IEM_DS3505
ZBYN,1989-04-11 18:00,ZBYN 111800Z AUTO 00000KT 7SM 06/M02 A3027 RMK SLP223 T00581021 40217//// 52009 IEM_DS3505
ZBYN,1989-04-11 19:20,ZBYN 111920Z AUTO 11006KT 7SM 05/M05 A3027 RMK T00501050 IEM_DS3505
ZBYN,1989-04-11 20:00,ZBYN 112000Z AUTO 10006KT 7SM 05/M05 A3027 RMK T00501050 IEM_DS3505
ZBYN,1989-04-11 21:00,ZBYN 112100Z AUTO 00000KT 9SM 03/M02 RMK SLP231 T00301025 52002 IEM_DS3505
ZBYN,1989-04-11 22:00,ZBYN 112200Z AUTO 00000KT 6SM 03/M03 A3027 RMK T00301030 IEM_DS3505
ZBYN,1989-04-12 00:00,ZBYN 120000Z AUTO 34004KT 6SM 08/M06 A3030 RMK SLP239 T00771062 52008 IEM_DS3505
ZBYN,1989-04-12 02:00,ZBYN 120200Z AUTO 00000KT 6SM 15/M06 A3030 RMK T01501060 IEM_DS3505
ZBYN,1989-04-12 03:00,ZBYN 120300Z AUTO 14004KT 9SM 16/M05 A3027 RMK SLP231 T01571052 57001 IEM_DS3505
ZBYN,1989-04-12 06:00,ZBYN 120600Z AUTO 20006KT 9SM 17/M06 RMK SLP221 T01671057 4////0017 57017 IEM_DS3505
ZBYN,1989-04-12 09:00,ZBYN 120900Z AUTO 20006KT 9SM 15/M02 RMK SLP223 T01481024 57005 IEM_DS3505
ZBYN,1989-04-12 12:00,ZBYN 121200Z AUTO 25002KT 12SM 12/M01 RMK SLP221 T01231007 52001 IEM_DS3505
ZBYN,1989-04-12 15:00,ZBYN 121500Z AUTO 00000KT 12SM 10/02 RMK SLP221 T01000021 52009 IEM_DS3505
ZBYN,1989-04-12 18:00,ZBYN 121800Z AUTO 00000KT 12SM 09/02 RMK SLP218 T00880019 40173//// 57003 IEM_DS3505
ZBYN,1989-04-12 21:00,ZBYN 122100Z AUTO 00000KT 12SM 08/02 RMK SLP215 T00760018 57008 IEM_DS3505
ZBYN,1989-04-12 22:00,ZBYN 122200Z AUTO 11006KT 6SM 08/M01 A3021 RMK T00801010 IEM_DS3505
ZBYN,1989-04-12 23:00,ZBYN 122300Z AUTO 09006KT 6SM 08/M02 A3021 RMK T00801020 IEM_DS3505
ZBYN,1989-04-13 00:00,ZBYN 130000Z AUTO 00000KT 6SM 09/00 RMK SLP216 T00900001 54000 IEM_DS3505
ZBYN,1989-04-13 06:00,ZBYN 130600Z AUTO 14004KT 16SM 17/M02 RMK SLP184 T01701016 4////0067 57024 IEM_DS3505
ZBYN,1989-04-13 07:00,ZBYN 130700Z AUTO 19004KT 6SM 17/00 A3012 RMK T01700000 IEM_DS3505
ZBYN,1989-04-13 08:00,ZBYN 130800Z AUTO 24004KT 6SM 17/M01 RMK T01701010 IEM_DS3505
ZBYN,1989-04-13 09:00,ZBYN 130900Z AUTO 22004KT 9SM 16/01 A3009 RMK SLP165 T01650007 57020 IEM_DS3505
ZBYN,1989-04-13 10:00,ZBYN 131000Z AUTO 27008KT 6SM A3009 RMK IEM_DS3505
ZBYN,1989-04-13 11:00,ZBYN 131100Z AUTO 00000KT 6SM 15/01 A3009 RMK T01500010 IEM_DS3505
ZBYN,1989-04-13 12:00,ZBYN 131200Z AUTO 00000KT 6SM 13/01 A3009 RMK T01300010 IEM_DS3505
ZBYN,1989-04-13 13:00,ZBYN 131300Z AUTO 11006KT 6SM 10/M01 A3012 RMK T01001010 IEM_DS3505
ZBYN,1989-04-13 14:00,ZBYN 131400Z AUTO 09006KT 6SM 09/M01 A3012 RMK T00901010 IEM_DS3505
ZBYN,1989-04-13 15:00,ZBYN 131500Z AUTO 00000KT 9SM 09/00 A3015 RMK SLP184 T00860002 52012 IEM_DS3505
ZBYN,1989-04-13 16:00,ZBYN 131600Z AUTO 00000KT 6SM 06/M02 A3012 RMK T00601020 IEM_DS3505
ZBYN,1989-04-13 17:00,ZBYN 131700Z AUTO 00000KT 6SM 06/M02 A3012 RMK T00601020 IEM_DS3505
ZBYN,1989-04-13 18:00,ZBYN 131800Z AUTO 14002KT 9SM 06/01 A3012 RMK SLP182 T00650010 40175//// 57001 IEM_DS3505
ZBYN,1989-04-13 19:00,ZBYN 131900Z AUTO 00000KT 6SM 06/M01 A3012 RMK T00601010 IEM_DS3505
ZBYN,1989-04-13 20:00,ZBYN 132000Z AUTO 11004KT 6SM 06/M01 A3012 RMK T00601010 IEM_DS3505
ZBYN,1989-04-13 21:00,ZBYN 132100Z AUTO 00000KT 9SM 06/02 A3012 RMK SLP182 T00570024 57002 IEM_DS3505
ZBYN,1989-04-13 22:00,ZBYN 132200Z AUTO 08006KT 6SM 06/00 A3012 RMK T00600000 IEM_DS3505
ZBYN,1989-04-13 23:00,ZBYN 132300Z AUTO 00000KT 6SM 07/00 A3012 RMK T00700000 IEM_DS3505
ZBYN,1989-04-14 00:00,ZBYN 140000Z AUTO 36006KT 6SM 10/01 A3015 RMK SLP189 T01050007 52007 IEM_DS3505
ZBYN,1989-04-14 02:00,ZBYN 140200Z AUTO 36014KT 6SM 15/M01 A3015 RMK T01501010 IEM_DS3505
ZBYN,1989-04-14 03:00,ZBYN 140300Z AUTO 36004KT 7SM 16/00 A3012 RMK SLP179 T01610003 57006 IEM_DS3505
ZBYN,1989-04-14 04:00,ZBYN 140400Z AUTO 00000KT 6SM 18/01 A3012 RMK T01800010 IEM_DS3505
ZBYN,1989-04-14 05:00,ZBYN 140500Z AUTO 21004KT 7SM 19/00 A3006 RMK T01900000 IEM_DS3505
ZBYN,1989-04-14 06:00,ZBYN 140600Z AUTO 14002KT 9SM 19/01 A3003 RMK SLP146 T01930006 4////0051 57028 IEM_DS3505
ZBYN,1989-04-14 07:00,ZBYN 140700Z AUTO 00000KT 6SM 20/02 A3000 RMK T02000020 IEM_DS3505
ZBYN,1989-04-14 08:00,ZBYN 140800Z AUTO 11006KT 6SM 20/01 A3000 RMK T02000010 IEM_DS3505
ZBYN,1989-04-14 09:00,ZBYN 140900Z AUTO 27006KT 9SM 18/02 A2997 RMK SLP132 T01800016 57016 IEM_DS3505
ZBYN,1989-04-14 10:00,ZBYN 141000Z AUTO 32010KT 7SM 18/02 A3000 RMK T01800020 IEM_DS3505
ZBYN,1989-04-14 11:00,ZBYN 141100Z AUTO 07014KT 7SM 17/00 A3000 RMK T01700000 IEM_DS3505
ZBYN,1989-04-14 12:00,ZBYN 141200Z AUTO 09008KT 7SM 16/01 A3003 RMK SLP143 T01580011 52014 IEM_DS3505
ZBYN,1989-04-14 13:00,ZBYN 141300Z AUTO 08014KT 7SM 15/00 A3006 RMK T01500000 IEM_DS3505
ZBYN,1989-04-14 14:00,ZBYN 141400Z AUTO 05004KT 7SM 14/01 A3006 RMK T01400010 IEM_DS3505
ZBYN,1989-04-14 15:00,ZBYN 141500Z AUTO 34004KT 6SM 13/05 A3006 RMK SLP156 T01310048 52016 IEM_DS3505
ZBYN,1989-04-14 16:00,ZBYN 141600Z AUTO 10004KT 4SM 13/05 A3000 RMK T01300050 IEM_DS3505
ZBYN,1989-04-14 18:00,ZBYN 141800Z AUTO 00000KT 7SM 10/06 A3003 RMK 60000 SLP145 T00960063 40207//// 57011 IEM_DS3505
ZBYN,1989-04-14 21:00,ZBYN 142100Z AUTO 00000KT 5SM 09/04 RMK SLP130 T00920042 57016 IEM_DS3505
ZBYN,1989-04-14 22:00,ZBYN 142200Z AUTO 00000KT 4SM 08/05 A3000 RMK T00800050 IEM_DS3505
ZBYN,1989-04-14 23:00,ZBYN 142300Z AUTO 00000KT 3SM 08/05 A2997 RMK T00800050 IEM_DS3505
ZBYN,1989-04-15 00:00,ZBYN 150000Z AUTO 00000KT 5SM 10/06 A2997 RMK SLP128 T00980059 57004 IEM_DS3505
ZBYN,1989-04-15 01:00,ZBYN 150100Z AUTO 00000KT 4SM 12/06 A2997 RMK T01200060 IEM_DS3505
ZBYN,1989-04-15 02:00,ZBYN 150200Z AUTO 00000KT 4SM 13/05 A2997 RMK T01300050 IEM_DS3505
ZBYN,1989-04-15 03:00,ZBYN 150300Z AUTO 18002KT 5SM 14/04 A2997 RMK SLP111 T01420042 57013 IEM_DS3505
ZBYN,1989-04-15 04:00,ZBYN 150400Z AUTO 24006KT 7SM 16/02 A2991 RMK T01600020 IEM_DS3505
ZBYN,1989-04-15 05:00,ZBYN 150500Z AUTO 25010KT 7SM 17/03 A2988 RMK T01700030 IEM_DS3505
ZBYN,1989-04-15 06:00,ZBYN 150600Z AUTO 32008KT 12SM 17/M02 A2985 RMK SLP077 T01741018 4////0074 57032 IEM_DS3505
ZBYN,1989-04-15 07:00,ZBYN 150700Z AUTO 25006KT 7SM 17/M02 A2983 RMK T01701020 IEM_DS3505
ZBYN,1989-04-15 09:00,ZBYN 150900Z AUTO 29014KT 11SM 16/M06 A2985 RMK SLP076 T01641057 57003 IEM_DS3505
ZBYN,1989-04-15 10:00,ZBYN 151000Z AUTO 30019KT 7SM 16/M06 A2985 RMK T01601060 IEM_DS3505
ZBYN,1989-04-15 11:00,ZBYN 151100Z AUTO 31012KT 7SM 14/M09 A2985 RMK T01401090 IEM_DS3505
ZBYN,1989-04-15 12:00,ZBYN 151200Z AUTO 29006KT 7SM 12/M02 A2988 RMK SLP101 T01181021 52017 IEM_DS3505
ZBYN,1989-04-15 13:00,ZBYN 151300Z AUTO 26006KT 7SM 11/M05 A2988 RMK T01101050 IEM_DS3505
ZBYN,1989-04-15 14:00,ZBYN 151400Z AUTO 26002KT 7SM 09/M02 A2991 RMK T00901020 IEM_DS3505
ZBYN,1989-04-15 15:00,ZBYN 151500Z AUTO 00000KT 7SM 09/00 RMK SLP101 T00870004 52002 IEM_DS3505
ZBYN,1989-04-15 16:00,ZBYN 151600Z AUTO 08006KT 6SM 07/M04 A2988 RMK T00701040 IEM_DS3505
ZBYN,1989-04-15 17:00,ZBYN 151700Z AUTO 09006KT 6SM 07/M04 A2988 RMK T00701040 IEM_DS3505
ZBYN,1989-04-15 18:00,ZBYN 151800Z AUTO 00000KT 7SM 06/M01 A2988 RMK SLP092 T00621010 40184//// 57007 IEM_DS3505
ZBYN,1989-04-15 19:00,ZBYN 151900Z AUTO 11006KT 6SM 04/M05 A2988 RMK T00401050 IEM_DS3505
ZBYN,1989-04-15 20:00,ZBYN 152000Z AUTO 08006KT 7SM 04/M05 A2985 RMK T00401050 IEM_DS3505
ZBYN,1989-04-15 21:00,ZBYN 152100Z AUTO 00000KT 7SM 03/M01 A2985 RMK SLP092 T00291013 57006 IEM_DS3505
ZBYN,1989-04-15 22:00,ZBYN 152200Z AUTO 09006KT 7SM 02/M06 A2988 RMK T00201060 IEM_DS3505
ZBYN,1989-04-15 23:00,ZBYN 152300Z AUTO 08006KT 7SM 04/M06 A2988 RMK T00401060 IEM_DS3505
ZBYN,1989-04-16 00:00,ZBYN 160000Z AUTO 11004KT 6SM 07/M02 A2988 RMK SLP098 T00701020 52004 IEM_DS3505
ZBYN,1989-04-16 01:00,ZBYN 160100Z AUTO 16006KT 7SM 10/M05 A2988 RMK T01001050 IEM_DS3505
ZBYN,1989-04-16 02:00,ZBYN 160200Z AUTO 18004KT 7SM 13/M04 A2988 RMK T01301040 IEM_DS3505
ZBYN,1989-04-16 03:00,ZBYN 160300Z AUTO 20008KT 6SM 15/M02 A2985 RMK SLP078 T01541015 57010 IEM_DS3505
ZBYN,1989-04-16 04:00,ZBYN 160400Z AUTO 20010KT 6SM 13/M07 A2980 RMK T01301070 IEM_DS3505
ZBYN,1989-04-16 05:00,ZBYN 160500Z AUTO 22016KT 6SM 20/M09 A2977 RMK T02001090 IEM_DS3505
ZBYN,1989-04-16 06:00,ZBYN 160600Z AUTO 20010KT 6SM 18/M04 A2971 RMK SLP034 T01851035 4////0011 57039 IEM_DS3505
ZBYN,1989-04-16 07:00,ZBYN 160700Z AUTO 22021KT 6SM 20/M08 A2968 RMK T02001080 IEM_DS3505
ZBYN,1989-04-16 08:00,ZBYN 160800Z AUTO 22016KT 6SM 21/M10 A2965 RMK T02101100 IEM_DS3505
ZBYN,1989-04-16 09:00,ZBYN 160900Z AUTO 20010KT 11SM 19/M01 A2965 RMK SLP019 T01941008 57017 IEM_DS3505
ZBYN,1989-04-16 10:00,ZBYN 161000Z AUTO 24019KT 7SM 20/M07 A2965 RMK T02001070 IEM_DS3505
ZBYN,1989-04-16 11:00,ZBYN 161100Z AUTO 25014KT 7SM 18/M05 A2965 RMK T01801050 IEM_DS3505
ZBYN,1989-04-16 12:00,ZBYN 161200Z AUTO 25012KT 6SM 19/00 A2968 RMK SLP030 T01880005 52015 IEM_DS3505
ZBYN,1989-04-16 13:00,ZBYN 161300Z AUTO 25006KT 7SM 18/M03 A2971 RMK T01801030 IEM_DS3505
ZBYN,1989-04-16 14:00,ZBYN 161400Z AUTO 33016KT 7SM 18/M07 A2977 RMK T01801070 IEM_DS3505
ZBYN,1989-04-16 15:00,ZBYN 161500Z AUTO 34004KT 6SM 17/M01 A2977 RMK SLP045 T01741011 52024 IEM_DS3505
ZBYN,1989-04-16 16:00,ZBYN 161600Z AUTO 31019KT 4SM 17/M12 A2980 RMK T01701120 IEM_DS3505
ZBYN,1989-04-16 17:00,ZBYN 161700Z AUTO 32014KT 3SM 15/M12 A2983 RMK T01501120 IEM_DS3505
ZBYN,1989-04-16 18:00,ZBYN 161800Z AUTO 02004KT 6SM 14/M05 A2985 RMK SLP072 T01421051 40216//// 52024 IEM_DS3505
ZBYN,1989-04-16 20:00,ZBYN 162000Z AUTO 00000KT 6SM 09/M08 A2988 RMK T00901080 IEM_DS3505
ZBYN,1989-04-16 21:00,ZBYN 162100Z AUTO 27004KT 6SM 07/M04 A2988 RMK SLP084 T00731036 52002 IEM_DS3505
ZBYN,1989-04-16 22:00,ZBYN 162200Z AUTO 02006KT 5SM 03/M07 A2988 RMK T00301070 IEM_DS3505
ZBYN,1989-04-16 23:00,ZBYN 162300Z AUTO 07004KT 4SM 05/M07 A2991 RMK T00501070 IEM_DS3505
ZBYN,1989-04-17 00:00,ZBYN 170000Z AUTO 00000KT 5SM 12/M07 A2991 RMK SLP095 T01171073 IEM_DS3505
ZBYN,1989-04-17 02:00,ZBYN 170200Z AUTO 00000KT 7SM 16/M11 A2994 RMK T01601110 IEM_DS3505
ZBYN,1989-04-17 03:00,ZBYN 170300Z AUTO 18004KT 5SM 18/M06 A2994 RMK SLP090 T01791060 52002 IEM_DS3505
ZBYN,1989-04-17 04:00,ZBYN 170400Z AUTO 21014KT 7SM 18/M10 A2991 RMK T01801100 IEM_DS3505
ZBYN,1989-04-17 06:00,ZBYN 170600Z AUTO 16006KT 6SM 22/M03 A2985 RMK SLP064 T02151034 4////0033 57025 IEM_DS3505
ZBYN,1989-04-17 07:00,ZBYN 170700Z AUTO 22010KT 7SM 21/M08 A2983 RMK T02101080 IEM_DS3505
ZBYN,1989-04-17 09:00,ZBYN 170900Z AUTO 18006KT 6SM 21/M02 A2977 RMK SLP048 T02091024 57023 IEM_DS3505
ZBYN,1989-04-17 10:00,ZBYN 171000Z AUTO 18004KT 6SM A2977 RMK IEM_DS3505
ZBYN,1989-04-17 12:00,ZBYN 171200Z AUTO 00000KT 6SM 15/03 RMK SLP055 T01510028 52004 IEM_DS3505
ZBYN,1989-04-17 13:00,ZBYN 171300Z AUTO 00000KT 6SM 16/M01 A2980 RMK T01601010 IEM_DS3505
ZBYN,1989-04-17 14:00,ZBYN 171400Z AUTO 00000KT 6SM 14/M01 A2980 RMK T01401010 IEM_DS3505
ZBYN,1989-04-17 15:00,ZBYN 171500Z AUTO 32006KT 6SM 15/M00 A2985 RMK SLP066 T01501005 52019 IEM_DS3505
ZBYN,1989-04-17 16:00,ZBYN 171600Z AUTO 15008KT 6SM 18/M01 A2985 RMK T01801010 IEM_DS3505
ZBYN,1989-04-17 17:00,ZBYN 171700Z AUTO 13006KT 6SM 16/01 A2985 RMK T01600010 IEM_DS3505
ZBYN,1989-04-17 18:00,ZBYN 171800Z AUTO 00000KT 6SM 13/04 RMK SLP068 T01280040 40209//// 52002 IEM_DS3505
ZBYN,1989-04-17 21:00,ZBYN 172100Z AUTO 11004KT 9SM 13/05 A2985 RMK SLP071 T01290051 52004 IEM_DS3505
ZBYN,1989-04-17 22:00,ZBYN 172200Z AUTO 13006KT 6SM 14/04 A2988 RMK T01400040 IEM_DS3505
ZBYN,1989-04-18 00:00,ZBYN 180000Z AUTO 00000KT 5SM 14/06 A2991 RMK T01440063 52018 IEM_DS3505
ZBYN,1989-04-18 01:00,ZBYN 180100Z AUTO 22004KT 7SM 15/05 A2994 RMK T01500050 IEM_DS3505
ZBYN,1989-04-18 02:00,ZBYN 180200Z AUTO 00000KT 6SM 18/06 A2994 RMK T01800060 IEM_DS3505
ZBYN,1989-04-18 03:00,ZBYN 180300Z AUTO 18002KT 6SM 22/04 A2997 RMK SLP092 T02180038 52005 IEM_DS3505
ZBYN,1989-04-18 04:00,ZBYN 180400Z AUTO 20006KT 7SM 22/03 A2994 RMK T02200030 IEM_DS3505
ZBYN,1989-04-18 05:00,ZBYN 180500Z AUTO 02004KT 6SM 24/03 A2991 RMK T02400030 IEM_DS3505
ZBYN,1989-04-18 06:00,ZBYN 180600Z AUTO 16004KT 6SM 24/03 RMK SLP074 T02360030 4////0106 57017 IEM_DS3505
ZBYN,1989-04-18 07:00,ZBYN 180700Z AUTO 00000KT 6SM 25/01 A2985 RMK T02500010 IEM_DS3505
ZBYN,1989-04-18 08:00,ZBYN 180800Z AUTO 13004KT 7SM 24/01 A2983 RMK T02400010 IEM_DS3505
ZBYN,1989-04-18 09:00,ZBYN 180900Z AUTO 00000KT 6SM 24/05 A2983 RMK SLP059 T02400052 57013 IEM_DS3505
ZBYN,1989-04-18 10:00,ZBYN 181000Z AUTO 14004KT 7SM 24/01 A2983 RMK T02400010 IEM_DS3505
ZBYN,1989-04-18 11:00,ZBYN 181100Z AUTO 05004KT 7SM 22/07 A2985 RMK T02200070 IEM_DS3505
ZBYN,1989-04-18 12:00,ZBYN 181200Z AUTO 11004KT 7SM 21/00 A2988 RMK SLP070 T02140005 52009 IEM_DS3505
ZBYN,1989-04-18 13:00,ZBYN 181300Z AUTO 07017KT 7SM 19/00 A2991 RMK T01900000 IEM_DS3505
ZBYN,1989-04-18 14:00,ZBYN 181400Z AUTO 07021KT 7SM 19/01 A2991 RMK T01900010 IEM_DS3505
ZBYN,1989-04-18 15:00,ZBYN 181500Z AUTO 00000KT 7SM 17/05 A2994 RMK SLP091 T01700050 52023 IEM_DS3505
ZBYN,1989-04-18 18:00,ZBYN 181800Z AUTO 32004KT 7SM 15/04 RMK SLP110 T01470039 40250//// 52017 IEM_DS3505
ZBYN,1989-04-18 20:00,ZBYN 182000Z AUTO 07008KT 6SM 15/05 A2997 RMK T01500050 IEM_DS3505
ZBYN,1989-04-18 21:00,ZBYN 182100Z AUTO 34002KT 7SM 12/05 RMK SLP114 T01230053 52001 IEM_DS3505
ZBYN,1989-04-18 22:00,ZBYN 182200Z AUTO 00000KT 6SM 13/04 A3000 RMK T01300040 IEM_DS3505
ZBYN,1989-04-19 00:00,ZBYN 190000Z AUTO 00000KT 6SM 15/06 A3003 RMK SLP123 T01490062 52008 IEM_DS3505
ZBYN,1989-04-19 01:00,ZBYN 190100Z AUTO 04006KT 5SM 18/05 A3003 RMK T01800050 IEM_DS3505
ZBYN,1989-04-19 02:00,ZBYN 190200Z AUTO 33008KT 6SM 19/08 A3006 RMK T01900080 IEM_DS3505
ZBYN,1989-04-19 03:00,ZBYN 190300Z AUTO 36006KT 5SM 20/09 A3006 RMK SLP125 T02020087 52003 IEM_DS3505
ZBYN,1989-04-19 03:35,ZBYN 190335Z AUTO 05006KT 6SM 21/09 A3006 RMK T02100090 IEM_DS3505
ZBYN,1989-04-19 04:00,ZBYN 190400Z AUTO 10006KT 7SM 23/10 A3003 RMK T02300100 IEM_DS3505
ZBYN,1989-04-19 05:00,ZBYN 190500Z AUTO 24008KT 7SM 24/10 A2997 RMK T02400100 IEM_DS3505
ZBYN,1989-04-19 06:00,ZBYN 190600Z AUTO 07002KT 5SM 25/09 RMK SLP082 T02460088 4////0107 57036 IEM_DS3505
ZBYN,1989-04-19 07:00,ZBYN 190700Z AUTO 09014KT 25/09 A2988 RMK T02500090 IEM_DS3505
ZBYN,1989-04-19 08:00,ZBYN 190800Z AUTO 08017KT 7SM 25/09 A2985 RMK T02500090 IEM_DS3505
ZBYN,1989-04-19 09:00,ZBYN 190900Z AUTO 09008KT 5SM 22/10 A2983 RMK SLP062 T02220105 57025 IEM_DS3505
ZBYN,1989-04-19 10:00,ZBYN 191000Z AUTO 08021KT 7SM 20/10 A2983 RMK T02000100 IEM_DS3505
ZBYN,1989-04-19 11:00,ZBYN 191100Z AUTO 08016KT 7SM 19/10 A2985 RMK T01900100 IEM_DS3505
ZBYN,1989-04-19 12:00,ZBYN 191200Z AUTO 09014KT 5SM 18/10 A2988 RMK SLP084 T01840102 52018 IEM_DS3505
ZBYN,1989-04-19 13:00,ZBYN 191300Z AUTO 08016KT 7SM 17/10 A2991 RMK T01700100 IEM_DS3505
ZBYN,1989-04-19 14:00,ZBYN 191400Z AUTO 08012KT 7SM 16/11 A2997 RMK T01600110 IEM_DS3505
ZBYN,1989-04-19 15:00,ZBYN 191500Z AUTO 16002KT 5SM 14/12 A2997 RMK SLP115 T01370125 52029 IEM_DS3505
ZBYN,1989-04-19 16:00,ZBYN 191600Z AUTO 07006KT 2 1/2SM 14/12 A2997 RMK T01400120 IEM_DS3505
ZBYN,1989-04-19 17:00,ZBYN 191700Z AUTO 08012KT 2 1/2SM 14/11 A2997 RMK T01400110 IEM_DS3505
ZBYN,1989-04-19 18:00,ZBYN 191800Z AUTO 32006KT 5SM 14/13 RMK 60020 SLP099 T01370126 40256//// 57008 IEM_DS3505
ZBYN,1989-04-19 19:00,ZBYN 191900Z AUTO 07006KT 14/11 A2994 RMK T01400110 IEM_DS3505
ZBYN,1989-04-19 20:00,ZBYN 192000Z AUTO 08006KT 4SM 14/11 A2994 RMK T01400110 IEM_DS3505
ZBYN,1989-04-19 21:00,ZBYN 192100Z AUTO 00000KT 6SM 13/12 A2994 RMK SLP089 T01320116 57013 IEM_DS3505
ZBYN,1989-04-19 22:00,ZBYN 192200Z AUTO 05006KT 4SM 13/12 A2994 RMK T01300120 IEM_DS3505
ZBYN,1989-04-19 23:00,ZBYN 192300Z AUTO 07006KT 7SM 13/12 A2994 RMK T01300120 IEM_DS3505
ZBYN,1989-04-20 00:00,ZBYN 200000Z AUTO 36004KT 5SM 13/12 A2997 RMK 60028 SLP106 T01280123 52009 IEM_DS3505
ZBYN,1989-04-20 01:00,ZBYN 200100Z AUTO 08010KT 7SM 14/11 A2997 RMK T01400110 IEM_DS3505
ZBYN,1989-04-20 02:00,ZBYN 200200Z AUTO 08012KT 7SM 14/11 A2997 RMK T01400110 IEM_DS3505
ZBYN,1989-04-20 03:00,ZBYN 200300Z AUTO 07008KT 5SM 14/11 A2997 RMK SLP124 T01380111 52011 IEM_DS3505
ZBYN,1989-04-20 04:00,ZBYN 200400Z AUTO 07017KT 7SM 14/11 A2997 RMK T01400110 IEM_DS3505
ZBYN,1989-04-20 05:00,ZBYN 200500Z AUTO 32008KT 7SM 15/12 A2997 RMK T01500120 IEM_DS3505
ZBYN,1989-04-20 06:00,ZBYN 200600Z AUTO 34004KT 5SM 15/13 A2994 RMK 60008 SLP110 T01520126 4////0124 57011 IEM_DS3505
ZBYN,1989-04-20 07:00,ZBYN 200700Z AUTO 00000KT 5SM 16/13 A2994 RMK T01600130 IEM_DS3505
ZBYN,1989-04-20 08:00,ZBYN 200800Z AUTO 00000KT 5SM 16/13 A2994 RMK T01600130 IEM_DS3505
ZBYN,1989-04-20 09:00,ZBYN 200900Z AUTO 02002KT 5SM 16/12 A2994 RMK SLP108 T01580125 57001 IEM_DS3505
ZBYN,1989-04-20 10:00,ZBYN 201000Z AUTO 00000KT 7SM 16/13 A2994 RMK T01600130 IEM_DS3505
ZBYN,1989-04-20 11:00,ZBYN 201100Z AUTO 00000KT 7SM 16/13 A2997 RMK T01600130 IEM_DS3505
ZBYN,1989-04-20 12:00,ZBYN 201200Z AUTO 00000KT 6SM 14/13 A2997 RMK 60004 SLP128 T01410132 52015 IEM_DS3505
ZBYN,1989-04-20 13:00,ZBYN 201300Z AUTO 00000KT 7SM 13/12 A3000 RMK T01300120 IEM_DS3505
ZBYN,1989-04-20 14:00,ZBYN 201400Z AUTO 00000KT 5SM 13/13 A3003 RMK T01300130 IEM_DS3505
ZBYN,1989-04-20 15:00,ZBYN 201500Z AUTO 06004KT 5SM 13/12 A3003 RMK SLP140 T01300119 52011 IEM_DS3505
ZBYN,1989-04-20 16:00,ZBYN 201600Z AUTO 16004KT 2SM 12/11 A3003 RMK T01200110 IEM_DS3505
ZBYN,1989-04-20 18:00,ZBYN 201800Z AUTO 29012KT 6SM 14/05 RMK SLP140 T01350048 40164//// 52002 IEM_DS3505
ZBYN,1989-04-20 19:00,ZBYN 201900Z AUTO 30008KT 2SM 13/05 A3003 RMK T01300050 IEM_DS3505
ZBYN,1989-04-20 20:00,ZBYN 202000Z AUTO 31010KT 6SM 12/03 A3006 RMK T01200030 IEM_DS3505
ZBYN,1989-04-20 21:00,ZBYN 202100Z AUTO 29010KT 6SM 12/02 A3006 RMK SLP153 T01230021 52011 IEM_DS3505
ZBYN,1989-04-20 22:00,ZBYN 202200Z AUTO 27006KT 6SM 11/03 A3009 RMK T01100030 IEM_DS3505
ZBYN,1989-04-20 23:00,ZBYN 202300Z AUTO 31006KT 5SM 12/03 A3012 RMK T01200030 IEM_DS3505
ZBYN,1989-04-21 00:00,ZBYN 210000Z AUTO 32006KT 6SM 12/01 A3015 RMK SLP178 T01240008 52021 IEM_DS3505
ZBYN,1989-04-21 01:00,ZBYN 210100Z AUTO 00000KT 5SM 13/02 A3015 RMK T01300020 IEM_DS3505
ZBYN,1989-04-21 02:00,ZBYN 210200Z AUTO 31008KT 5SM 15/02 A3015 RMK T01500020 IEM_DS3505
ZBYN,1989-04-21 03:00,ZBYN 210300Z AUTO 29008KT 6SM 17/M02 A3015 RMK SLP175 T01701020 52001 IEM_DS3505
ZBYN,1989-04-21 05:00,ZBYN 210500Z AUTO 29016KT 6SM 18/M05 A3009 RMK T01801050 IEM_DS3505
ZBYN,1989-04-21 06:00,ZBYN 210600Z AUTO 29012KT 9SM 17/00 A3009 RMK SLP159 T01690000 4////0112 57013 IEM_DS3505
ZBYN,1989-04-21 07:00,ZBYN 210700Z AUTO 29021KT 6SM 18/M05 A3006 RMK T01801050 IEM_DS3505
ZBYN,1989-04-21 08:00,ZBYN 210800Z AUTO 29016KT 6SM 17/M03 A3006 RMK T01701030 IEM_DS3505
ZBYN,1989-04-21 09:00,ZBYN 210900Z AUTO 32008KT 16SM 17/M01 A3006 RMK SLP148 T01681012 57012 IEM_DS3505
ZBYN,1989-04-21 10:00,ZBYN 211000Z AUTO 31012KT 6SM 16/M06 A3006 RMK T01601060 IEM_DS3505
ZBYN,1989-04-21 11:00,ZBYN 211100Z AUTO 31010KT 6SM 15/M05 A3006 RMK T01501050 IEM_DS3505
ZBYN,1989-04-21 12:00,ZBYN 211200Z AUTO 27002KT 9SM 13/01 A3009 RMK SLP167 T01300011 52012 IEM_DS3505
ZBYN,1989-04-21 13:00,ZBYN 211300Z AUTO 26008KT 6SM 12/M02 A3009 RMK T01201020 IEM_DS3505
ZBYN,1989-04-21 14:00,ZBYN 211400Z AUTO 32010KT 6SM 12/M03 A3012 RMK T01201030 IEM_DS3505
ZBYN,1989-04-21 15:00,ZBYN 211500Z AUTO 32004KT 9SM 10/01 A3012 RMK SLP179 T00990008 52012 IEM_DS3505
ZBYN,1989-04-21 18:00,ZBYN 211800Z AUTO 34002KT 7SM 09/M04 RMK SLP183 T00881041 40172//// 52003 IEM_DS3505
ZBYN,1989-04-21 21:00,ZBYN 212100Z AUTO 34017KT 9SM 08/M02 RMK SLP179 T00841020 57004 IEM_DS3505
ZBYN,1989-04-21 23:00,ZBYN 212300Z AUTO 09004KT 7SM 05/00 A3015 RMK T00500000 IEM_DS3505
ZBYN,1989-04-22 00:00,ZBYN 220000Z AUTO 00000KT 6SM 09/M00 A3018 RMK SLP194 T00901005 52009 IEM_DS3505
ZBYN,1989-04-22 01:00,ZBYN 220100Z AUTO 00000KT 6SM 12/M03 A3018 RMK T01201030 IEM_DS3505
ZBYN,1989-04-22 02:00,ZBYN 220200Z AUTO 25006KT 6SM 14/M05 A3015 RMK T01401050 IEM_DS3505
ZBYN,1989-04-22 03:00,ZBYN 220300Z AUTO 32004KT 5SM 14/M00 A3015 RMK SLP191 T01411004 54000 IEM_DS3505
ZBYN,1989-04-22 05:00,ZBYN 220500Z AUTO 35010KT 6SM 17/M11 A3009 RMK T01701110 IEM_DS3505
ZBYN,1989-04-22 06:00,ZBYN 220600Z AUTO 09004KT 9SM 17/M05 A3006 RMK SLP157 T01711047 4////0066 57028 IEM_DS3505
ZBYN,1989-04-22 08:00,ZBYN 220800Z AUTO 6SM 17/M06 A3003 RMK T01701060 IEM_DS3505
ZBYN,1989-04-22 09:00,ZBYN 220900Z AUTO 11002KT 9SM 17/M02 A3000 RMK SLP137 T01661020 57020 IEM_DS3505
ZBYN,1989-04-22 10:00,ZBYN 221000Z AUTO 24004KT 6SM 16/M03 A3000 RMK T01601030 IEM_DS3505
ZBYN,1989-04-22 11:00,ZBYN 221100Z AUTO 00000KT 6SM 15/00 A3000 RMK T01500000 IEM_DS3505
ZBYN,1989-04-22 12:00,ZBYN 221200Z AUTO 00000KT 9SM 13/02 A3003 RMK T01260017 52001 IEM_DS3505
ZBYN,1989-04-22 13:00,ZBYN 221300Z AUTO 6SM 11/00 A3003 RMK T01100000 IEM_DS3505
ZBYN,1989-04-22 14:00,ZBYN 221400Z AUTO 09004KT 6SM 11/00 A3006 RMK T01100000 IEM_DS3505
ZBYN,1989-04-22 15:00,ZBYN 221500Z AUTO 00000KT 9SM 11/02 A3006 RMK SLP152 T01100015 52013 IEM_DS3505
ZBYN,1989-04-22 16:00,ZBYN 221600Z AUTO 00000KT 6SM 09/00 A3006 RMK T00900000 IEM_DS3505
ZBYN,1989-04-22 17:00,ZBYN 221700Z AUTO 12004KT 6SM 09/01 A3006 RMK T00900010 IEM_DS3505
ZBYN,1989-04-22 18:00,ZBYN 221800Z AUTO 00000KT 7SM 07/04 A3006 RMK SLP153 T00730035 40175//// 54000 IEM_DS3505
ZBYN,1989-04-22 19:00,ZBYN 221900Z AUTO 00000KT 6SM 07/03 A3003 RMK T00700030 IEM_DS3505
ZBYN,1989-04-22 20:00,ZBYN 222000Z AUTO 00000KT 6SM 07/03 A3003 RMK T00700030 IEM_DS3505
ZBYN,1989-04-22 21:00,ZBYN 222100Z AUTO 36002KT 7SM 07/02 A3003 RMK SLP151 T00710017 57003 IEM_DS3505
ZBYN,1989-04-22 22:00,ZBYN 222200Z AUTO 00000KT 6SM 06/03 A3003 RMK T00600030 IEM_DS3505
ZBYN,1989-04-22 23:00,ZBYN 222300Z AUTO 00000KT 6SM 07/03 A3003 RMK T00700030 IEM_DS3505
ZBYN,1989-04-23 00:00,ZBYN 230000Z AUTO 00000KT 6SM 10/01 A3003 RMK SLP156 T00950009 52002 IEM_DS3505
ZBYN,1989-04-23 01:00,ZBYN 230100Z AUTO 00000KT 6SM 12/02 A3003 RMK T01200020 IEM_DS3505
ZBYN,1989-04-23 02:00,ZBYN 230200Z AUTO 16004KT 7SM 16/01 A3006 RMK T01600010 IEM_DS3505
ZBYN,1989-04-23 03:00,ZBYN 230300Z AUTO 09004KT 6SM 17/02 A3003 RMK SLP145 T01700015 57001 IEM_DS3505
ZBYN,1989-04-23 04:00,ZBYN 230400Z AUTO 23006KT 7SM 17/M04 A3003 RMK T01701040 IEM_DS3505
ZBYN,1989-04-23 05:00,ZBYN 230500Z AUTO 00000KT 7SM 18/M05 A3003 RMK T01801050 IEM_DS3505
ZBYN,1989-04-23 06:00,ZBYN 230600Z AUTO 25006KT 17SM 20/M00 A2997 RMK SLP120 T01981005 4////0062 57024 IEM_DS3505
ZBYN,1989-04-23 07:00,ZBYN 230700Z AUTO 25012KT 7SM 20/M02 A2994 RMK T02001020 IEM_DS3505
ZBYN,1989-04-23 08:00,ZBYN 230800Z AUTO 19012KT 7SM 20/M04 A2994 RMK T02001040 IEM_DS3505
ZBYN,1989-04-23 09:00,ZBYN 230900Z AUTO 18004KT 12SM 19/M04 A2994 RMK SLP103 T01921038 57017 IEM_DS3505
ZBYN,1989-04-23 10:00,ZBYN 231000Z AUTO 11008KT 7SM 18/M02 A2994 RMK T01801020 IEM_DS3505
ZBYN,1989-04-23 11:00,ZBYN 231100Z AUTO 20004KT 7SM 18/00 A2994 RMK T01800000 IEM_DS3505
ZBYN,1989-04-23 12:00,ZBYN 231200Z AUTO 00000KT 9SM 14/02 A2994 RMK SLP119 T01420020 52011 IEM_DS3505
ZBYN,1989-04-23 13:00,ZBYN 231300Z AUTO 00000KT 7SM 14/01 A2997 RMK T01400010 IEM_DS3505
ZBYN,1989-04-23 14:00,ZBYN 231400Z AUTO 00000KT 7SM 11/02 A3000 RMK T01100020 IEM_DS3505
ZBYN,1989-04-23 15:00,ZBYN 231500Z AUTO 09004KT 9SM 10/01 RMK SLP134 T01050008 52019 IEM_DS3505
ZBYN,1989-04-23 16:00,ZBYN 231600Z AUTO 10008KT 6SM 10/00 A3003 RMK T01000000 IEM_DS3505
ZBYN,1989-04-23 17:00,ZBYN 231700Z AUTO 10006KT 7SM 10/00 A3003 RMK T01000000 IEM_DS3505
ZBYN,1989-04-23 18:00,ZBYN 231800Z AUTO 00000KT 11SM 08/02 RMK SLP139 T00780023 52005 IEM_DS3505
ZBYN,1989-04-23 19:00,ZBYN 231900Z AUTO 09006KT 6SM 09/02 A3003 RMK T00900020 IEM_DS3505
ZBYN,1989-04-23 21:00,ZBYN 232100Z AUTO 09002KT 11SM 03/02 A3000 RMK SLP141 T00310024 52001 IEM_DS3505
ZBYN,1989-04-23 22:00,ZBYN 232200Z AUTO 00000KT 6SM 06/02 A3003 RMK T00600020 IEM_DS3505
ZBYN,1989-04-24 00:00,ZBYN 240000Z AUTO 11004KT 5SM 10/04 A3006 RMK SLP153 T01050035 52007 IEM_DS3505
ZBYN,1989-04-24 01:00,ZBYN 240100Z AUTO 00000KT 6SM 13/05 A3006 RMK T01300050 IEM_DS3505
ZBYN,1989-04-24 02:00,ZBYN 240200Z AUTO 00000KT 6SM 11/03 A3006 RMK T01100030 IEM_DS3505
ZBYN,1989-04-24 03:00,ZBYN 240300Z AUTO 18008KT 6SM 17/03 A3003 RMK SLP142 T01680033 57006 IEM_DS3505
ZBYN,1989-04-24 04:00,ZBYN 240400Z AUTO 20008KT 6SM 19/03 A3000 RMK T01900030 IEM_DS3505
ZBYN,1989-04-24 05:00,ZBYN 240500Z AUTO 22010KT 6SM 19/02 A2997 RMK T01900020 IEM_DS3505
ZBYN,1989-04-24 06:00,ZBYN 240600Z AUTO 22006KT 7SM 21/03 A2994 RMK SLP107 T02060033 57030 IEM_DS3505
ZBYN,1989-04-24 07:00,ZBYN 240700Z AUTO 24012KT 6SM 22/03 A2991 RMK T02200030 IEM_DS3505
ZBYN,1989-04-24 08:00,ZBYN 240800Z AUTO 21012KT 7SM 22/00 A2988 RMK T02200000 IEM_DS3505
ZBYN,1989-04-24 09:00,ZBYN 240900Z AUTO 20006KT 7SM 21/02 A2985 RMK SLP078 T02140025 57025 IEM_DS3505
ZBYN,1989-04-24 10:00,ZBYN 241000Z AUTO 22010KT 7SM 21/02 A2985 RMK T02100020 IEM_DS3505
ZBYN,1989-04-24 11:00,ZBYN 241100Z AUTO 27008KT 6SM 20/00 A2988 RMK T02000000 IEM_DS3505
ZBYN,1989-04-24 12:00,ZBYN 241200Z AUTO 29002KT 9SM 16/02 A2988 RMK SLP089 T01630020 52006 IEM_DS3505
ZBYN,1989-04-24 13:00,ZBYN 241300Z AUTO 00000KT 6SM 14/00 A2991 RMK T01400000 IEM_DS3505
ZBYN,1989-04-24 15:00,ZBYN 241500Z AUTO 00000KT 9SM 11/03 A2991 RMK SLP102 T01100029 52013 IEM_DS3505
ZBYN,1989-04-24 16:00,ZBYN 241600Z AUTO 07008KT 7SM 11/02 A2991 RMK T01100020 IEM_DS3505
ZBYN,1989-04-24 17:00,ZBYN 241700Z AUTO 12008KT 6SM 10/01 A2994 RMK T01000010 IEM_DS3505
ZBYN,1989-04-24 18:00,ZBYN 241800Z AUTO 00000KT 9SM 09/02 RMK SLP096 T00860020 40222//// 57006 IEM_DS3505
ZBYN,1989-04-24 19:00,ZBYN 241900Z AUTO 08008KT 6SM 09/01 A2991 RMK T00900010 IEM_DS3505
ZBYN,1989-04-24 21:00,ZBYN 242100Z AUTO 00000KT 6SM 07/03 A2988 RMK SLP090 T00660027 57007 IEM_DS3505
ZBYN,1989-04-24 22:00,ZBYN 242200Z AUTO 10004KT 7SM 07/02 A2988 RMK T00700020 IEM_DS3505
ZBYN,1989-04-24 23:00,ZBYN 242300Z AUTO 10004KT 7SM 08/03 A2988 RMK T00800030 IEM_DS3505
ZBYN,1989-04-25 00:00,ZBYN 250000Z AUTO 00000KT 6SM 11/04 A2991 RMK SLP099 T01080042 52007 IEM_DS3505
ZBYN,1989-04-25 01:00,ZBYN 250100Z AUTO 00000KT 7SM 15/03 A2991 RMK T01500030 IEM_DS3505
ZBYN,1989-04-25 02:00,ZBYN 250200Z AUTO 18006KT 6SM 17/04 A2991 RMK T01700040 IEM_DS3505
ZBYN,1989-04-25 03:00,ZBYN 250300Z AUTO 16004KT 5SM 19/05 A2991 RMK SLP088 T01940048 57006 IEM_DS3505
ZBYN,1989-04-25 04:00,ZBYN 250400Z AUTO 21012KT 6SM 21/04 A2988 RMK T02100040 IEM_DS3505
ZBYN,1989-04-25 05:00,ZBYN 250500Z AUTO 24010KT 6SM 24/03 A2985 RMK T02400030 IEM_DS3505
ZBYN,1989-04-25 06:00,ZBYN 250600Z AUTO 18004KT 6SM 22/01 A2983 RMK SLP057 T02220010 4////0054 57027 IEM_DS3505
ZBYN,1989-04-25 07:00,ZBYN 250700Z AUTO 00000KT 7SM 21/04 A2983 RMK T02100040 IEM_DS3505
ZBYN,1989-04-25 08:00,ZBYN 250800Z AUTO 33014KT 7SM 24/M06 RMK T02401060 IEM_DS3505
ZBYN,1989-04-25 09:00,ZBYN 250900Z AUTO 32010KT 9SM 23/M01 A2980 RMK SLP057 T02271009 57002 IEM_DS3505
ZBYN,1989-04-25 10:00,ZBYN 251000Z AUTO 32004KT 9SM A2980 RMK SLP065 52007 IEM_DS3505
ZBYN,1989-04-25 11:00,ZBYN 251100Z AUTO 32014KT 6SM 21/M04 A2980 RMK T02101040 IEM_DS3505
ZBYN,1989-04-25 12:00,ZBYN 251200Z AUTO 32004KT 9SM 13/00 A2983 RMK SLP065 T01340004 52007 IEM_DS3505
ZBYN,1989-04-25 13:00,ZBYN 251300Z AUTO 30008KT 7SM 14/00 A2985 RMK T01400000 IEM_DS3505
ZBYN,1989-04-25 14:00,ZBYN 251400Z AUTO 10004KT 6SM 14/00 A2985 RMK T01400000 IEM_DS3505
ZBYN,1989-04-25 15:00,ZBYN 251500Z AUTO 00000KT 9SM 13/02 A2985 RMK SLP075 T01270025 52013 IEM_DS3505
ZBYN,1989-04-25 16:00,ZBYN 251600Z AUTO 16006KT 6SM 11/00 A2988 RMK T01100000 IEM_DS3505
ZBYN,1989-04-25 17:00,ZBYN 251700Z AUTO 34006KT 9SM 12/M00 A2988 RMK SLP078 T01241001 40243//// IEM_DS3505
ZBYN,1989-04-25 18:00,ZBYN 251800Z AUTO 34006KT 9SM 12/M00 A2988 RMK SLP078 T01241001 40243//// 52006 IEM_DS3505
ZBYN,1989-04-25 19:00,ZBYN 251900Z AUTO 35008KT 6SM 12/M02 A2988 RMK T01201020 IEM_DS3505
ZBYN,1989-04-25 20:00,ZBYN 252000Z AUTO 01008KT 6SM 12/M04 A2988 RMK T01201040 IEM_DS3505
ZBYN,1989-04-25 21:00,ZBYN 252100Z AUTO 34006KT 9SM 11/M03 A2991 RMK SLP094 T01111033 52014 IEM_DS3505
ZBYN,1989-04-25 22:00,ZBYN 252200Z AUTO 34012KT 6SM 11/M09 A2994 RMK T01101090 IEM_DS3505
ZBYN,1989-04-25 23:00,ZBYN 252300Z AUTO 33014KT 6SM 12/M09 A2997 RMK T01201090 IEM_DS3505
ZBYN,1989-04-26 00:00,ZBYN 260000Z AUTO 34008KT 8SM 13/M05 A3000 RMK SLP123 T01271048 52022 IEM_DS3505
ZBYN,1989-04-26 01:00,ZBYN 260100Z AUTO 33016KT 7SM 16/M11 A3000 RMK T01601110 IEM_DS3505
ZBYN,1989-04-26 02:00,ZBYN 260200Z AUTO 36014KT 7SM 17/M08 A3000 RMK T01701080 IEM_DS3505
ZBYN,1989-04-26 03:00,ZBYN 260300Z AUTO 02004KT 7SM 18/M06 A3000 RMK SLP123 T01821063 54000 IEM_DS3505
ZBYN,1989-04-26 04:00,ZBYN 260400Z AUTO 02008KT 6SM 21/M06 A2997 RMK T02101060 IEM_DS3505
ZBYN,1989-04-26 05:00,ZBYN 260500Z AUTO 00000KT 6SM 21/M04 A2994 RMK T02101040 IEM_DS3505
ZBYN,1989-04-26 06:00,ZBYN 260600Z AUTO 14002KT 9SM 22/M03 A2994 RMK SLP093 T02191032 4////0091 57022 IEM_DS3505
ZBYN,1989-04-26 07:00,ZBYN 260700Z AUTO 00000KT 6SM 22/M05 A2991 RMK T02201050 IEM_DS3505
ZBYN,1989-04-26 08:00,ZBYN 260800Z AUTO 21006KT 6SM 23/M05 A2991 RMK T02301050 IEM_DS3505
ZBYN,1989-04-26 09:00,ZBYN 260900Z AUTO 27002KT 12SM 23/M07 A2991 RMK SLP088 T02341066 57005 IEM_DS3505
ZBYN,1989-04-26 10:00,ZBYN 261000Z AUTO 34012KT 6SM 22/M07 A2991 RMK T02201070 IEM_DS3505
ZBYN,1989-04-26 11:00,ZBYN 261100Z AUTO 35008KT 6SM 20/ A2991 RMK IEM_DS3505
ZBYN,1989-04-26 12:00,ZBYN 261200Z AUTO 02006KT 11SM 19/M11 A2994 RMK SLP107 T01921109 52014 IEM_DS3505
ZBYN,1989-04-26 13:00,ZBYN 261300Z AUTO 00000KT 6SM 17/M04 A2997 RMK T01701040 IEM_DS3505
ZBYN,1989-04-26 13:24,ZBYN 261324Z AUTO 00000KT 6SM 17/M04 A2997 RMK T01701040 IEM_DS3505
ZBYN,1989-04-26 14:00,ZBYN 261400Z AUTO 00000KT 6SM 17/M03 A3003 RMK T01701030 IEM_DS3505
ZBYN,1989-04-26 15:00,ZBYN 261500Z AUTO 36008KT 11SM 17/M14 A3006 RMK SLP135 T01681139 52030 IEM_DS3505
ZBYN,1989-04-26 16:00,ZBYN 261600Z AUTO 35006KT 6SM 15/M06 A3006 RMK T01501060 IEM_DS3505
ZBYN,1989-04-26 18:00,ZBYN 261800Z AUTO 36006KT 11SM 14/M13 A3009 RMK SLP151 T01421132 40247//// 52016 IEM_DS3505
ZBYN,1989-04-26 19:00,ZBYN 261900Z AUTO 34006KT 6SM 13/M05 A3012 RMK T01301050 IEM_DS3505
ZBYN,1989-04-26 20:00,ZBYN 262000Z AUTO 08008KT 6SM 13/M03 A3012 RMK T01301030 IEM_DS3505
ZBYN,1989-04-26 21:00,ZBYN 262100Z AUTO 00000KT 9SM 11/M00 A3015 RMK SLP172 T01091002 52017 IEM_DS3505
ZBYN,1989-04-26 22:00,ZBYN 262200Z AUTO 07019KT 6SM 11/M02 A3018 RMK T01101020 IEM_DS3505
ZBYN,1989-04-26 23:00,ZBYN 262300Z AUTO 07017KT 6SM 11/M07 A3021 RMK T01101070 IEM_DS3505
ZBYN,1989-04-27 00:00,ZBYN 270000Z AUTO 09010KT 6SM 11/M07 RMK T01081070 52034 IEM_DS3505
ZBYN,1989-04-27 01:00,ZBYN 270100Z AUTO 6SM 11/M09 A3027 RMK T01101090 IEM_DS3505
ZBYN,1989-04-27 05:00,ZBYN 270500Z AUTO 7SM 15/M07 A3024 RMK T01501070 IEM_DS3505
ZBYN,1989-04-27 06:00,ZBYN 270600Z AUTO 09010KT 9SM 15/M06 RMK SLP208 T01501063 4////0104 57021 IEM_DS3505
ZBYN,1989-04-27 08:00,ZBYN 270800Z AUTO 06012KT 7SM 14/M05 A3021 RMK T01401050 IEM_DS3505
ZBYN,1989-04-27 09:00,ZBYN 270900Z AUTO 09004KT 9SM 13/M05 A3024 RMK SLP218 T01321048 52002 IEM_DS3505
ZBYN,1989-04-27 10:00,ZBYN 271000Z AUTO 07014KT 6SM 12/M04 A3024 RMK T01201040 IEM_DS3505
ZBYN,1989-04-27 11:00,ZBYN 271100Z AUTO 07014KT 6SM 12/M04 A3027 RMK T01201040 IEM_DS3505
ZBYN,1989-04-27 12:00,ZBYN 271200Z AUTO 34006KT 9SM 09/04 A3030 RMK SLP250 T00890036 52022 IEM_DS3505
ZBYN,1989-04-27 13:00,ZBYN 271300Z AUTO 05008KT 6SM 10/03 A3033 RMK T01000030 IEM_DS3505
ZBYN,1989-04-27 14:00,ZBYN 271400Z AUTO 35010KT 6SM 09/02 A3033 RMK T00900020 IEM_DS3505
ZBYN,1989-04-27 15:00,ZBYN 271500Z AUTO 36006KT 9SM 09/02 A3033 RMK SLP263 T00860024 52015 IEM_DS3505
ZBYN,1989-04-27 16:00,ZBYN 271600Z AUTO 33010KT 6SM 09/01 A3036 RMK T00900010 IEM_DS3505
ZBYN,1989-04-27 18:00,ZBYN 271800Z AUTO 34006KT 9SM 08/03 RMK SLP258 T00810034 40153//// 57002 IEM_DS3505
ZBYN,1989-04-27 19:00,ZBYN 271900Z AUTO 34006KT 6SM 08/02 RMK T00800020 IEM_DS3505
ZBYN,1989-04-27 21:00,ZBYN 272100Z AUTO 32004KT 9SM 07/05 RMK SLP264 T00720046 52001 IEM_DS3505
ZBYN,1989-04-27 22:00,ZBYN 272200Z AUTO 33010KT 6SM 09/01 A3036 RMK T00900010 IEM_DS3505
ZBYN,1989-04-27 23:00,ZBYN 272300Z AUTO 33008KT 6SM 08/04 A3033 RMK T00800040 IEM_DS3505
ZBYN,1989-04-28 00:00,ZBYN 280000Z AUTO 34004KT 7SM 08/04 RMK SLP268 T00830036 57001 IEM_DS3505
ZBYN,1989-04-28 01:00,ZBYN 280100Z AUTO 34008KT 6SM 10/03 A3036 RMK T01000030 IEM_DS3505
ZBYN,1989-04-28 02:00,ZBYN 280200Z AUTO 32008KT 6SM 10/03 A3036 RMK T01000030 IEM_DS3505
ZBYN,1989-04-28 03:00,ZBYN 280300Z AUTO 34002KT 7SM 10/03 A3036 RMK SLP270 T01000026 52004 IEM_DS3505
ZBYN,1989-04-28 05:00,ZBYN 280500Z AUTO 34004KT 6SM 12/02 A3033 RMK T01200020 IEM_DS3505
ZBYN,1989-04-28 06:00,ZBYN 280600Z AUTO 16002KT 9SM 13/01 A3030 RMK T01340013 4////0067 IEM_DS3505
ZBYN,1989-04-28 07:00,ZBYN 280700Z AUTO 27006KT 6SM 14/03 A3027 RMK T01400030 IEM_DS3505
ZBYN,1989-04-28 08:00,ZBYN 280800Z AUTO 22006KT 6SM 14/04 A3024 RMK T01400040 IEM_DS3505
ZBYN,1989-04-28 09:00,ZBYN 280900Z AUTO 00000KT 7SM 14/04 A3024 RMK SLP225 T01360039 57016 IEM_DS3505
ZBYN,1989-04-28 10:00,ZBYN 281000Z AUTO 25006KT 6SM 13/04 A3024 RMK T01300040 IEM_DS3505
ZBYN,1989-04-28 11:00,ZBYN 281100Z AUTO 24006KT 6SM 13/04 A3024 RMK T01300040 IEM_DS3505
ZBYN,1989-04-28 12:00,ZBYN 281200Z AUTO 20002KT 6SM 12/06 A3024 RMK SLP225 T01190055 57001 IEM_DS3505
ZBYN,1989-04-28 13:00,ZBYN 281300Z AUTO 18006KT 6SM 10/05 A3024 RMK T01000050 IEM_DS3505
ZBYN,1989-04-28 14:00,ZBYN 281400Z AUTO 00000KT 6SM 09/04 A3027 RMK T00900040 IEM_DS3505
ZBYN,1989-04-28 15:00,ZBYN 281500Z AUTO 00000KT 7SM 09/04 A3027 RMK SLP233 T00900044 52006 IEM_DS3505
ZBYN,1989-04-28 16:00,ZBYN 281600Z AUTO 10004KT 7SM 07/04 A3027 RMK T00700040 IEM_DS3505
ZBYN,1989-04-28 17:00,ZBYN 281700Z AUTO 07004KT 7SM 06/03 A3024 RMK T00600030 IEM_DS3505
ZBYN,1989-04-28 18:00,ZBYN 281800Z AUTO 00000KT 6SM 06/04 A3024 RMK SLP223 T00610043 40145//// 57009 IEM_DS3505
ZBYN,1989-04-28 20:00,ZBYN 282000Z AUTO 09004KT 6SM 06/04 A3021 RMK T00600040 IEM_DS3505
ZBYN,1989-04-28 21:00,ZBYN 282100Z AUTO 18002KT 6SM 05/04 A3021 RMK T00530044 57004 IEM_DS3505
ZBYN,1989-04-28 22:00,ZBYN 282200Z AUTO 00000KT 6SM 05/04 A3021 RMK T00500040 IEM_DS3505
ZBYN,1989-04-28 23:00,ZBYN 282300Z AUTO 6SM 07/04 A3021 RMK T00700040 IEM_DS3505
ZBYN,1989-04-29 00:00,ZBYN 290000Z AUTO 00000KT 5SM 09/05 A3021 RMK SLP214 T00870046 57002 IEM_DS3505
ZBYN,1989-04-29 02:00,ZBYN 290200Z AUTO 00000KT 6SM 14/06 A3021 RMK T01400060 IEM_DS3505
ZBYN,1989-04-29 03:00,ZBYN 290300Z AUTO 14004KT 5SM 15/06 A3021 RMK SLP202 T01480058 57006 IEM_DS3505
ZBYN,1989-04-29 04:00,ZBYN 290400Z AUTO 20004KT 6SM 16/06 A3018 RMK T01600060 IEM_DS3505
ZBYN,1989-04-29 05:00,ZBYN 290500Z AUTO 25010KT 6SM 16/07 A3015 RMK T01600070 IEM_DS3505
ZBYN,1989-04-29 06:00,ZBYN 290600Z AUTO 20006KT 5SM 14/06 RMK SLP187 T01450056 4////0052 57019 IEM_DS3505
ZBYN,1989-04-29 07:00,ZBYN 290700Z AUTO 22019KT 6SM 14/06 A3012 RMK T01400060 IEM_DS3505
ZBYN,1989-04-29 08:00,ZBYN 290800Z AUTO 21012KT 7SM 13/06 A3012 RMK T01300060 IEM_DS3505
ZBYN,1989-04-29 09:00,ZBYN 290900Z AUTO 18008KT 5SM 12/06 RMK SLP186 T01160063 57006 IEM_DS3505
ZBYN,1989-04-29 10:00,ZBYN 291000Z AUTO 20010KT 7SM 11/07 A3015 RMK T01100070 IEM_DS3505
ZBYN,1989-04-29 12:00,ZBYN 291200Z AUTO 18008KT 5SM 09/07 RMK SLP194 T00940074 52009 IEM_DS3505
ZBYN,1989-04-29 14:00,ZBYN 291400Z AUTO 00000KT 2 1/2SM 09/08 A3015 RMK T00900080 IEM_DS3505
ZBYN,1989-04-29 15:00,ZBYN 291500Z AUTO 14002KT 4SM 08/07 A3018 RMK SLP192 T00780070 52005 IEM_DS3505
ZBYN,1989-04-29 16:00,ZBYN 291600Z AUTO 17006KT 2SM A3018 RMK IEM_DS3505
ZBYN,1989-04-29 17:00,ZBYN 291700Z AUTO 15006KT 2SM 08/07 A3015 RMK T00800070 IEM_DS3505
ZBYN,1989-04-29 18:00,ZBYN 291800Z AUTO 16004KT 3SM 08/07 RMK SLP186 T00800068 40161//// 57006 IEM_DS3505
ZBYN,1989-04-29 20:00,ZBYN 292000Z AUTO 18006KT 2SM 08/07 A3015 RMK T00800070 IEM_DS3505
ZBYN,1989-04-29 21:00,ZBYN 292100Z AUTO 11004KT 5SM 08/06 A3012 RMK SLP185 T00760061 57006 IEM_DS3505
ZBYN,1989-04-29 23:00,ZBYN 292300Z AUTO 00000KT 3SM 08/06 A3012 RMK T00800060 IEM_DS3505
ZBYN,1989-04-30 00:00,ZBYN 300000Z AUTO 00000KT 5SM 08/06 RMK SLP191 T00800061 52003 IEM_DS3505
ZBYN,1989-04-30 01:00,ZBYN 300100Z AUTO 00000KT 6SM 10/06 A3015 RMK T01000060 IEM_DS3505
ZBYN,1989-04-30 02:00,ZBYN 300200Z AUTO 00000KT 6SM 12/07 A3012 RMK T01200070 IEM_DS3505
ZBYN,1989-04-30 03:00,ZBYN 300300Z AUTO 00000KT 5SM 14/08 A3009 RMK SLP177 T01430077 57006 IEM_DS3505
ZBYN,1989-04-30 04:00,ZBYN 300400Z AUTO 00000KT 7SM 16/08 A3006 RMK T01600080 IEM_DS3505
ZBYN,1989-04-30 05:00,ZBYN 300500Z AUTO 20006KT 7SM 18/09 A3003 RMK T01800090 IEM_DS3505
ZBYN,1989-04-30 06:00,ZBYN 300600Z AUTO 20006KT 5SM 20/09 A3000 RMK SLP134 T02020087 4////0067 57030 IEM_DS3505
ZBYN,1989-04-30 07:00,ZBYN 300700Z AUTO 22008KT 7SM 21/05 A2997 RMK T02100050 IEM_DS3505
ZBYN,1989-04-30 08:00,ZBYN 300800Z AUTO 21004KT 6SM 22/06 A2997 RMK T02200060 IEM_DS3505
ZBYN,1989-04-30 09:00,ZBYN 300900Z AUTO 20002KT 6SM 22/07 RMK SLP111 T02200066 57019 IEM_DS3505
ZBYN,1989-04-30 10:00,ZBYN 301000Z AUTO 23008KT 6SM 22/04 A2994 RMK T02200040 IEM_DS3505
ZBYN,1989-04-30 11:00,ZBYN 301100Z AUTO 25008KT 6SM 20/06 A2994 RMK T02000060 IEM_DS3505
ZBYN,1989-04-30 12:00,ZBYN 301200Z AUTO 00000KT 6SM 16/09 A2994 RMK SLP123 T01620092 52003 IEM_DS3505
ZBYN,1989-04-30 13:00,ZBYN 301300Z AUTO 20010KT 6SM 15/08 A3000 RMK T01500080 IEM_DS3505
ZBYN,1989-04-30 14:00,ZBYN 301400Z AUTO 6SM 14/09 A3000 RMK T01400090 IEM_DS3505
ZBYN,1989-04-30 15:00,ZBYN 301500Z AUTO 14002KT 6SM 12/09 A3003 RMK SLP136 T01190086 52015 IEM_DS3505
ZBYN,1989-04-30 16:00,ZBYN 301600Z AUTO 11008KT 7SM 11/08 A3003 RMK T01100080 IEM_DS3505
ZBYN,1989-04-30 17:00,ZBYN 301700Z AUTO 10006KT 6SM 11/08 A3003 RMK T01100080 IEM_DS3505
ZBYN,1989-04-30 18:00,ZBYN 301800Z AUTO 14004KT 6SM 10/08 RMK SLP134 T01010077 40221//// 52004 IEM_DS3505
ZBYN,1989-04-30 19:00,ZBYN 301900Z AUTO 11004KT 4SM 09/08 A3000 RMK T00900080 IEM_DS3505
ZBYN,1989-04-30 21:00,ZBYN 302100Z AUTO 00000KT 5SM 07/06 A3000 RMK SLP130 T00710065 57005 IEM_DS3505
ZBYN,1989-04-30 22:00,ZBYN 302200Z AUTO 08002KT 3SM 07/06 A3000 RMK T00700060 IEM_DS3505
ZBYN,1989-04-30 23:00,ZBYN 302300Z AUTO 06004KT 3SM 09/07 A3000 RMK T00900070 IEM_DS3505
ZBYN,1989-05-01 00:00,ZBYN 010000Z AUTO 11002KT 1 1/4SM 10/08 A3003 RMK SLP144 T01040082 52009 IEM_DS3505
ZBYN,1989-05-01 01:00,ZBYN 010100Z AUTO 00000KT 4SM 14/09 A3003 RMK T01400090 IEM_DS3505
ZBYN,1989-05-01 02:00,ZBYN 010200Z AUTO 00000KT 5SM 15/10 A3003 RMK T01500100 IEM_DS3505
ZBYN,1989-05-01 02:27,ZBYN 010227Z AUTO 00000KT 5SM 15/10 A3003 RMK T01500100 IEM_DS3505
ZBYN,1989-05-01 03:00,ZBYN 010300Z AUTO 00000KT 5SM 18/10 RMK SLP132 T01820095 57012 IEM_DS3505
ZBYN,1989-05-01 04:00,ZBYN 010400Z AUTO 18004KT 6SM 20/10 A2997 RMK T02000100 IEM_DS3505
ZBYN,1989-05-01 05:00,ZBYN 010500Z AUTO 00000KT 6SM 22/09 A2994 RMK T02200090 IEM_DS3505
ZBYN,1989-05-01 06:00,ZBYN 010600Z AUTO 22004KT 5SM 24/07 RMK SLP089 T02400066 4////0064 57033 IEM_DS3505
ZBYN,1989-05-01 07:00,ZBYN 010700Z AUTO 00000KT 6SM 22/09 A2994 RMK T02200090 IEM_DS3505
ZBYN,1989-05-01 08:00,ZBYN 010800Z AUTO 11004KT 7SM 26/M01 A2985 RMK T02601010 IEM_DS3505
ZBYN,1989-05-01 09:00,ZBYN 010900Z AUTO 09004KT 11SM 25/M00 A2985 RMK SLP073 T02541001 57017 IEM_DS3505
ZBYN,1989-05-01 10:00,ZBYN 011000Z AUTO 27004KT 7SM 23/07 A2985 RMK T02300070 IEM_DS3505
ZBYN,1989-05-01 11:00,ZBYN 011100Z AUTO 07004KT 7SM 21/08 A2988 RMK T02100080 IEM_DS3505
ZBYN,1989-05-01 12:00,ZBYN 011200Z AUTO 09004KT 9SM 20/02 A2991 RMK SLP094 T02000016 52016 IEM_DS3505
ZBYN,1989-05-01 13:00,ZBYN 011300Z AUTO 09010KT 7SM 18/00 A2994 RMK T01800000 IEM_DS3505
ZBYN,1989-05-01 14:00,ZBYN 011400Z AUTO 11006KT 6SM 15/01 A2997 RMK T01500010 IEM_DS3505
ZBYN,1989-05-01 15:00,ZBYN 011500Z AUTO 00000KT 9SM 12/03 A2997 RMK SLP118 T01230033 52022 IEM_DS3505
ZBYN,1989-05-01 16:00,ZBYN 011600Z AUTO 00000KT 6SM A3000 RMK IEM_DS3505
ZBYN,1989-05-01 17:00,ZBYN 011700Z AUTO 12006KT 6SM 11/02 A3000 RMK T01100020 IEM_DS3505
ZBYN,1989-05-01 18:00,ZBYN 011800Z AUTO 00000KT 7SM 10/04 RMK SLP118 T00980037 40262//// 52005 IEM_DS3505
ZBYN,1989-05-01 20:00,ZBYN 012000Z AUTO 00000KT 7SM 06/02 A3000 RMK T00600020 IEM_DS3505
ZBYN,1989-05-01 21:00,ZBYN 012100Z AUTO 00000KT 7SM 07/02 A3000 RMK SLP121 T00730025 52001 IEM_DS3505
ZBYN,1989-05-01 22:00,ZBYN 012200Z AUTO 00000KT 6SM 06/02 A3000 RMK T00600020 IEM_DS3505
ZBYN,1989-05-01 23:00,ZBYN 012300Z AUTO 00000KT 6SM 09/02 A3003 RMK T00900020 IEM_DS3505
ZBYN,1989-05-02 00:00,ZBYN 020000Z AUTO 00000KT 5SM 13/04 RMK SLP140 T01340044 52019 IEM_DS3505
ZBYN,1989-05-02 01:00,ZBYN 020100Z AUTO 00000KT 7SM 17/05 A3006 RMK T01700050 IEM_DS3505
ZBYN,1989-05-02 02:00,ZBYN 020200Z AUTO 00000KT 6SM 18/06 A3006 RMK T01800060 IEM_DS3505
ZBYN,1989-05-02 03:00,ZBYN 020300Z AUTO 14004KT 5SM 21/04 A3003 RMK SLP131 T02120042 57008 IEM_DS3505
ZBYN,1989-05-02 04:00,ZBYN 020400Z AUTO 00000KT 7SM 23/01 A3000 RMK T02300010 IEM_DS3505
ZBYN,1989-05-02 05:00,ZBYN 020500Z AUTO 00000KT 7SM 25/05 A2997 RMK T02500050 IEM_DS3505
ZBYN,1989-05-02 06:00,ZBYN 020600Z AUTO 27008KT 7SM 26/02 A2994 RMK SLP100 T02570023 4////0049 57025 IEM_DS3505
ZBYN,1989-05-02 07:00,ZBYN 020700Z AUTO 09010KT 7SM 28/M01 A2994 RMK T02801010 IEM_DS3505
ZBYN,1989-05-02 08:00,ZBYN 020800Z AUTO 08010KT 7SM 27/M04 A2991 RMK T02701040 IEM_DS3505
ZBYN,1989-05-02 09:00,ZBYN 020900Z AUTO 09008KT 16SM 26/00 A2991 RMK SLP090 T02650000 57012 IEM_DS3505
ZBYN,1989-05-02 10:00,ZBYN 021000Z AUTO 08012KT 7SM 26/M04 A2994 RMK T02601040 IEM_DS3505
ZBYN,1989-05-02 11:00,ZBYN 021100Z AUTO 11014KT 7SM 24/M02 A2994 RMK T02401020 IEM_DS3505
ZBYN,1989-05-02 12:00,ZBYN 021200Z AUTO 14004KT 12SM 21/02 A2997 RMK SLP105 T02060023 52014 IEM_DS3505
ZBYN,1989-05-02 13:00,ZBYN 021300Z AUTO 10006KT 7SM 18/M01 A2997 RMK T01801010 IEM_DS3505
ZBYN,1989-05-02 14:00,ZBYN 021400Z AUTO 26008KT 7SM 14/M02 A3000 RMK T01401020 IEM_DS3505
ZBYN,1989-05-02 15:00,ZBYN 021500Z AUTO 00000KT 12SM 14/M00 A3003 RMK SLP120 T01441005 52016 IEM_DS3505
ZBYN,1989-05-02 16:00,ZBYN 021600Z AUTO 08004KT 6SM 12/M01 A3003 RMK T01201010 IEM_DS3505
ZBYN,1989-05-02 17:00,ZBYN 021700Z AUTO 00000KT 6SM 11/00 A3000 RMK T01100000 IEM_DS3505
ZBYN,1989-05-02 18:00,ZBYN 021800Z AUTO 00000KT 12SM 10/03 RMK SLP120 T01040029 40282//// 52001 IEM_DS3505
ZBYN,1989-05-02 21:00,ZBYN 022100Z AUTO 00000KT 9SM 07/02 A3000 RMK SLP119 T00680024 57005 IEM_DS3505
ZBYN,1989-05-02 22:00,ZBYN 022200Z AUTO 00000KT 6SM 07/01 A3000 RMK T00700010 IEM_DS3505
ZBYN,1989-05-02 23:00,ZBYN 022300Z AUTO 00000KT 6SM A3003 RMK IEM_DS3505
ZBYN,1989-05-03 00:00,ZBYN 030000Z AUTO 00000KT 6SM 13/06 RMK SLP129 T01260059 52009 IEM_DS3505
ZBYN,1989-05-03 01:00,ZBYN 030100Z AUTO 00000KT 5SM 17/04 A3003 RMK T01700040 IEM_DS3505
ZBYN,1989-05-03 03:00,ZBYN 030300Z AUTO 00000KT 7SM 21/01 A3003 RMK SLP122 T02120014 57003 IEM_DS3505
ZBYN,1989-05-03 04:00,ZBYN 030400Z AUTO 00000KT 6SM 23/06 A3000 RMK T02300060 IEM_DS3505
ZBYN,1989-05-03 05:00,ZBYN 030500Z AUTO 25006KT 6SM 24/03 A2997 RMK T02400030 IEM_DS3505
ZBYN,1989-05-03 06:00,ZBYN 030600Z AUTO 00000KT 11SM 25/M01 A2997 RMK SLP103 T02531008 4////0061 57017 IEM_DS3505
ZBYN,1989-05-03 07:00,ZBYN 030700Z AUTO 35004KT 6SM 27/01 A2994 RMK T02700010 IEM_DS3505
ZBYN,1989-05-03 08:00,ZBYN 030800Z AUTO 31004KT 6SM 27/02 A2994 RMK T02700020 IEM_DS3505
ZBYN,1989-05-03 09:00,ZBYN 030900Z AUTO 11008KT 12SM 28/M08 A2991 RMK SLP094 T02771080 57010 IEM_DS3505
ZBYN,1989-05-03 10:00,ZBYN 031000Z AUTO 07008KT 6SM 26/M05 A2991 RMK T02601050 IEM_DS3505
ZBYN,1989-05-03 11:00,ZBYN 031100Z AUTO 10012KT 6SM 24/M04 A2994 RMK T02401040 IEM_DS3505
ZBYN,1989-05-03 12:00,ZBYN 031200Z AUTO 09008KT 16SM 22/M05 A2994 RMK SLP105 T02231046 52010 IEM_DS3505
ZBYN,1989-05-03 14:00,ZBYN 031400Z AUTO 09008KT 7SM 17/03 A3000 RMK T01700030 IEM_DS3505
ZBYN,1989-05-03 15:00,ZBYN 031500Z AUTO 00000KT 12SM 18/04 A3003 RMK SLP125 T01760045 52024 IEM_DS3505
ZBYN,1989-05-03 18:00,ZBYN 031800Z AUTO 00000KT 11SM 10/05 RMK SLP123 T00980049 40279//// 57007 IEM_DS3505
ZBYN,1989-05-03 21:00,ZBYN 032100Z AUTO 00000KT 9SM 07/04 A3000 RMK SLP120 T00740038 57003 IEM_DS3505
ZBYN,1989-05-03 23:00,ZBYN 032300Z AUTO 00000KT 7SM 09/02 A3003 RMK T00900020 IEM_DS3505
ZBYN,1989-05-04 00:00,ZBYN 040000Z AUTO 00000KT 5SM 14/03 A3003 RMK T01450030 52006 IEM_DS3505
ZBYN,1989-05-04 02:00,ZBYN 040200Z AUTO 00000KT 7SM 20/05 A3003 RMK T02000050 IEM_DS3505
ZBYN,1989-05-04 03:00,ZBYN 040300Z AUTO 02002KT 6SM 22/04 A3003 RMK SLP119 T02160037 57001 IEM_DS3505
ZBYN,1989-05-04 04:00,ZBYN 040400Z AUTO 27004KT 7SM 23/03 A3000 RMK T02300030 IEM_DS3505
ZBYN,1989-05-04 05:00,ZBYN 040500Z AUTO 33008KT 7SM 25/05 A2997 RMK T02500050 IEM_DS3505
ZBYN,1989-05-04 06:00,ZBYN 040600Z AUTO 27004KT 7SM 26/02 RMK SLP099 T02590017 57023 IEM_DS3505
ZBYN,1989-05-04 07:00,ZBYN 040700Z AUTO 08012KT 7SM 28/M02 A2994 RMK T02801020 IEM_DS3505
ZBYN,1989-05-04 08:00,ZBYN 040800Z AUTO 09014KT 6SM 28/02 A2991 RMK T02800020 IEM_DS3505
ZBYN,1989-05-04 09:00,ZBYN 040900Z AUTO 09010KT 12SM 27/M00 A2991 RMK SLP092 T02681001 57008 IEM_DS3505
ZBYN,1989-05-04 10:00,ZBYN 041000Z AUTO 09010KT 6SM 26/01 A2994 RMK T02600010 IEM_DS3505
ZBYN,1989-05-04 11:00,ZBYN 041100Z AUTO 10010KT 6SM 24/04 A2994 RMK T02400040 IEM_DS3505
ZBYN,1989-05-04 12:00,ZBYN 041200Z AUTO 09006KT 12SM 22/04 A2994 RMK SLP097 T02160037 52007 IEM_DS3505
ZBYN,1989-05-04 13:00,ZBYN 041300Z AUTO 09008KT 6SM 20/04 A2997 RMK T02000040 IEM_DS3505
ZBYN,1989-05-04 14:00,ZBYN 041400Z AUTO 07008KT 6SM 19/04 A3000 RMK T01900040 IEM_DS3505
ZBYN,1989-05-04 15:00,ZBYN 041500Z AUTO 00000KT 12SM 15/05 A3003 RMK SLP121 T01530052 52023 IEM_DS3505
ZBYN,1989-05-04 16:00,ZBYN 041600Z AUTO 11006KT 6SM 16/06 A3003 RMK T01600060 IEM_DS3505
ZBYN,1989-05-04 18:00,ZBYN 041800Z AUTO 00000KT 12SM 12/06 A3006 RMK SLP130 T01160056 40281//// 52009 IEM_DS3505
ZBYN,1989-05-04 19:00,ZBYN 041900Z AUTO 08004KT 6SM 14/06 A3006 RMK T01400060 IEM_DS3505
ZBYN,1989-05-04 20:00,ZBYN 042000Z AUTO 09004KT 6SM 13/06 A3006 RMK T01300060 IEM_DS3505
ZBYN,1989-05-04 21:00,ZBYN 042100Z AUTO 00000KT 7SM 09/06 RMK SLP140 T00920056 52007 IEM_DS3505
ZBYN,1989-05-04 22:00,ZBYN 042200Z AUTO 00000KT 7SM 09/05 A3006 RMK T00900050 IEM_DS3505
ZBYN,1989-05-04 23:00,ZBYN 042300Z AUTO 00000KT 7SM 11/07 A3009 RMK T01100070 IEM_DS3505
ZBYN,1989-05-05 00:00,ZBYN 050000Z AUTO 00000KT 11SM 16/07 A3009 RMK SLP150 T01640069 52012 IEM_DS3505
ZBYN,1989-05-05 01:00,ZBYN 050100Z AUTO 12006KT 7SM 19/09 A3009 RMK T01900090 IEM_DS3505
ZBYN,1989-05-05 02:00,ZBYN 050200Z AUTO 17008KT 6SM 21/10 A3009 RMK T02100100 IEM_DS3505
ZBYN,1989-05-05 03:00,ZBYN 050300Z AUTO 14004KT 9SM 22/09 A3009 RMK SLP145 T02220086 57005 IEM_DS3505
ZBYN,1989-05-05 04:00,ZBYN 050400Z AUTO 15014KT 7SM 24/08 A3006 RMK T02400080 IEM_DS3505
ZBYN,1989-05-05 05:00,ZBYN 050500Z AUTO 19010KT 7SM 26/06 A3003 RMK T02600060 IEM_DS3505
ZBYN,1989-05-05 06:00,ZBYN 050600Z AUTO 14002KT 12SM 26/10 A3000 RMK SLP114 T02570097 4////0076 57029 IEM_DS3505
ZBYN,1989-05-05 07:00,ZBYN 050700Z AUTO 19016KT 7SM 28/04 A2997 RMK T02800040 IEM_DS3505
ZBYN,1989-05-05 08:00,ZBYN 050800Z AUTO 20012KT 7SM 27/03 A2994 RMK T02700030 IEM_DS3505
ZBYN,1989-05-05 09:00,ZBYN 050900Z AUTO 16006KT 12SM 26/06 A2991 RMK SLP089 T02570061 57026 IEM_DS3505
ZBYN,1989-05-05 10:00,ZBYN 051000Z AUTO 18016KT 6SM 26/05 A2991 RMK T02600050 IEM_DS3505
ZBYN,1989-05-05 11:00,ZBYN 051100Z AUTO 15010KT 6SM 24/09 A2991 RMK T02400090 IEM_DS3505
ZBYN,1989-05-05 12:00,ZBYN 051200Z AUTO 11004KT 9SM 22/08 A2991 RMK SLP088 T02160078 52003 IEM_DS3505
ZBYN,1989-05-05 13:00,ZBYN 051300Z AUTO 16014KT 6SM 21/06 A2994 RMK T02100060 IEM_DS3505
ZBYN,1989-05-05 14:00,ZBYN 051400Z AUTO 17012KT 6SM 21/07 A2997 RMK T02100070 IEM_DS3505
ZBYN,1989-05-05 15:00,ZBYN 051500Z AUTO 18004KT 9SM 14/08 A3000 RMK SLP103 T01390077 52017 IEM_DS3505
ZBYN,1989-05-05 16:00,ZBYN 051600Z AUTO 13008KT 6SM 17/08 A3003 RMK T01700080 IEM_DS3505
ZBYN,1989-05-05 17:00,ZBYN 051700Z AUTO 00000KT 6SM 16/08 A3003 RMK T01600080 IEM_DS3505
ZBYN,1989-05-05 18:00,ZBYN 051800Z AUTO 14004KT 9SM 15/07 A3000 RMK SLP111 T01480068 40272//// 52008 IEM_DS3505
ZBYN,1989-05-05 20:00,ZBYN 052000Z AUTO 16012KT 6SM 19/07 A3000 RMK T01900070 IEM_DS3505
ZBYN,1989-05-05 21:00,ZBYN 052100Z AUTO 16002KT 9SM 13/08 A2997 RMK SLP100 T01270076 57013 IEM_DS3505
ZBYN,1989-05-05 22:00,ZBYN 052200Z AUTO 12008KT 6SM 13/08 A2997 RMK T01300080 IEM_DS3505
ZBYN,1989-05-05 23:00,ZBYN 052300Z AUTO 11004KT 6SM 14/10 A2997 RMK T01400100 IEM_DS3505
ZBYN,1989-05-06 00:00,ZBYN 060000Z AUTO 00000KT 5SM 15/10 A2997 RMK SLP103 T01520099 54000 IEM_DS3505
ZBYN,1989-05-06 01:00,ZBYN 060100Z AUTO 17006KT 6SM 18/11 A2997 RMK T01800110 IEM_DS3505
ZBYN,1989-05-06 02:00,ZBYN 060200Z AUTO 21012KT 6SM 20/11 A2997 RMK T02000110 IEM_DS3505
ZBYN,1989-05-06 03:00,ZBYN 060300Z AUTO 18006KT 6SM 19/11 A2997 RMK SLP097 T01930106 57005 IEM_DS3505
ZBYN,1989-05-06 04:00,ZBYN 060400Z AUTO 21006KT 6SM 20/12 A2994 RMK T02000120 IEM_DS3505
ZBYN,1989-05-06 05:00,ZBYN 060500Z AUTO 23008KT 6SM 20/11 A2994 RMK T02000110 IEM_DS3505
ZBYN,1989-05-06 06:00,ZBYN 060600Z AUTO 18004KT 6SM 19/11 RMK SLP095 T01920113 4////0114 57006 IEM_DS3505
ZBYN,1989-05-06 07:00,ZBYN 060700Z AUTO 22006KT 6SM 19/11 A2991 RMK T01900110 IEM_DS3505
ZBYN,1989-05-06 08:00,ZBYN 060800Z AUTO 22004KT 6SM 20/11 RMK T02000110 IEM_DS3505
ZBYN,1989-05-06 09:00,ZBYN 060900Z AUTO 36002KT 4SM 18/12 A2991 RMK SLP094 T01850123 57005 IEM_DS3505
ZBYN,1989-05-06 10:00,ZBYN 061000Z AUTO 01008KT 7SM 19/10 A2991 RMK T01900100 IEM_DS3505
ZBYN,1989-05-06 11:00,ZBYN 061100Z AUTO 36002KT 6SM 19/11 RMK T01900110 IEM_DS3505
ZBYN,1989-05-06 12:00,ZBYN 061200Z AUTO 00000KT 6SM 18/10 A2994 RMK SLP102 T01760102 52010 IEM_DS3505
ZBYN,1989-05-06 13:00,ZBYN 061300Z AUTO 00000KT 6SM 15/10 A2997 RMK T01500100 IEM_DS3505
ZBYN,1989-05-06 14:00,ZBYN 061400Z AUTO 00000KT 6SM 14/10 A2997 RMK T01400100 IEM_DS3505
ZBYN,1989-05-06 15:00,ZBYN 061500Z AUTO 34004KT 5SM 14/10 A2997 RMK SLP110 T01420098 52008 IEM_DS3505
ZBYN,1989-05-06 16:00,ZBYN 061600Z AUTO 27006KT 7SM 13/09 A2997 RMK T01300090 IEM_DS3505
ZBYN,1989-05-06 17:00,ZBYN 061700Z AUTO 28008KT 7SM 12/09 A2997 RMK T01200090 IEM_DS3505
ZBYN,1989-05-06 18:00,ZBYN 061800Z AUTO 00000KT 4SM 12/09 RMK SLP114 T01200093 40197//// 54000 IEM_DS3505
ZBYN,1989-05-06 21:00,ZBYN 062100Z AUTO 00000KT 6SM 09/07 A2994 RMK SLP120 T00900074 54000 IEM_DS3505
ZBYN,1989-05-06 22:00,ZBYN 062200Z AUTO 00000KT 6SM 09/07 A2997 RMK SLP120 T00900074 54000 IEM_DS3505
ZBYN,1989-05-06 23:00,ZBYN 062300Z AUTO 00000KT 6SM 11/08 A2997 RMK T01100080 IEM_DS3505
ZBYN,1989-05-07 00:00,ZBYN 070000Z AUTO 00000KT 6SM 13/09 A2997 RMK SLP120 T01300090 52005 IEM_DS3505
ZBYN,1989-05-07 01:00,ZBYN 070100Z AUTO 00000KT 6SM 16/10 A2997 RMK T01600100 IEM_DS3505
ZBYN,1989-05-07 02:00,ZBYN 070200Z AUTO 00000KT 6SM 19/10 A2997 RMK T01900100 IEM_DS3505
ZBYN,1989-05-07 03:00,ZBYN 070300Z AUTO 14002KT 6SM 20/09 A2994 RMK SLP101 T02030086 57012 IEM_DS3505
ZBYN,1989-05-07 04:00,ZBYN 070400Z AUTO 00000KT 6SM 22/09 A2991 RMK T02200090 IEM_DS3505
ZBYN,1989-05-07 05:00,ZBYN 070500Z AUTO 00000KT 6SM 23/08 A2988 RMK T02300080 IEM_DS3505
ZBYN,1989-05-07 06:00,ZBYN 070600Z AUTO 18004KT 6SM 24/07 A2985 RMK SLP056 T02360068 4////0080 57039 IEM_DS3505
ZBYN,1989-05-07 07:00,ZBYN 070700Z AUTO 25006KT 6SM 25/07 A2980 RMK T02500070 IEM_DS3505
ZBYN,1989-05-07 08:00,ZBYN 070800Z AUTO 21012KT 6SM 26/08 A2977 RMK T02600080 IEM_DS3505
ZBYN,1989-05-07 09:00,ZBYN 070900Z AUTO 22008KT 6SM 25/12 A2977 RMK SLP032 T02520115 57024 IEM_DS3505
ZBYN,1989-05-07 10:00,ZBYN 071000Z AUTO 22008KT 7SM 25/10 A2974 RMK T02500100 IEM_DS3505
ZBYN,1989-05-07 11:00,ZBYN 071100Z AUTO 23012KT 6SM 23/10 A2974 RMK T02300100 IEM_DS3505
ZBYN,1989-05-07 12:00,ZBYN 071200Z AUTO 20004KT 9SM 22/10 A2977 RMK SLP035 T02180104 52003 IEM_DS3505
ZBYN,1989-05-07 13:00,ZBYN 071300Z AUTO 23006KT 6SM 21/10 A2980 RMK T02100100 IEM_DS3505
ZBYN,1989-05-07 14:00,ZBYN 071400Z AUTO 16004KT 6SM 19/11 A2980 RMK T01900110 IEM_DS3505
ZBYN,1989-05-07 15:00,ZBYN 071500Z AUTO 11004KT 9SM 16/10 A2980 RMK SLP048 T01590099 52014 IEM_DS3505
ZBYN,1989-05-07 18:00,ZBYN 071800Z AUTO 00000KT 9SM 14/10 A2980 RMK SLP048 T01360105 52002 IEM_DS3505
ZBYN,1989-05-07 19:00,ZBYN 071900Z AUTO 11008KT 6SM 14/11 A2983 RMK T01400110 IEM_DS3505
ZBYN,1989-05-07 21:00,ZBYN 072100Z AUTO 00000KT 5SM 11/09 A2983 RMK SLP051 T01060093 54000 IEM_DS3505
ZBYN,1989-05-07 22:00,ZBYN 072200Z AUTO 11006KT 4SM 11/10 A2983 RMK T01100100 IEM_DS3505
ZBYN,1989-05-07 23:00,ZBYN 072300Z AUTO 00000KT 3SM 13/11 A2983 RMK T01300110 IEM_DS3505
ZBYN,1989-05-08 00:00,ZBYN 080000Z AUTO 00000KT 6SM 14/10 A2983 RMK SLP058 T01380095 52007 IEM_DS3505
ZBYN,1989-05-08 01:00,ZBYN 080100Z AUTO 18004KT 5SM 18/12 A2983 RMK T01800120 IEM_DS3505
ZBYN,1989-05-08 03:00,ZBYN 080300Z AUTO 16004KT 5SM 23/11 A2983 RMK SLP044 T02340108 57008 IEM_DS3505
ZBYN,1989-05-08 04:00,ZBYN 080400Z AUTO 24004KT 7SM 26/09 A2980 RMK T02600090 IEM_DS3505
ZBYN,1989-05-08 05:00,ZBYN 080500Z AUTO 30014KT 7SM 29/M04 A2977 RMK T02901040 IEM_DS3505
ZBYN,1989-05-08 06:00,ZBYN 080600Z AUTO 32017KT 12SM 28/M07 A2974 RMK SLP016 T02761074 4////0101 57023 IEM_DS3505
ZBYN,1989-05-08 07:00,ZBYN 080700Z AUTO 31010KT 7SM 29/M03 A2974 RMK T02901030 IEM_DS3505
ZBYN,1989-05-08 08:00,ZBYN 080800Z AUTO 30012KT 7SM 28/01 A2971 RMK T02800010 IEM_DS3505
ZBYN,1989-05-08 09:00,ZBYN 080900Z AUTO 29008KT 12SM 28/M04 A2968 RMK SLP010 T02761040 57010 IEM_DS3505
ZBYN,1989-05-08 10:00,ZBYN 081000Z AUTO 32016KT 7SM 28/M02 A2968 RMK T02801020 IEM_DS3505
ZBYN,1989-05-08 11:00,ZBYN 081100Z AUTO 33006KT 7SM 25/00 A2968 RMK T02500000 IEM_DS3505
ZBYN,1989-05-08 12:00,ZBYN 081200Z AUTO 11016KT 12SM 20/10 A2974 RMK SLP024 T01980098 52007 IEM_DS3505
ZBYN,1989-05-08 13:00,ZBYN 081300Z AUTO 09023KT 5SM 18/11 A2977 RMK T01800110 IEM_DS3505
ZBYN,1989-05-08 14:00,ZBYN 081400Z AUTO 08016KT 4SM 17/11 A2980 RMK T01700110 IEM_DS3505
ZBYN,1989-05-08 15:00,ZBYN 081500Z AUTO 09004KT 9SM 16/10 A2980 RMK SLP040 T01620096 52023 IEM_DS3505
ZBYN,1989-05-08 16:00,ZBYN 081600Z AUTO 06017KT 4SM 16/11 A2980 RMK T01600110 IEM_DS3505
ZBYN,1989-05-08 17:00,ZBYN 081700Z AUTO 07010KT 4SM 15/11 A2980 RMK T01500110 IEM_DS3505
ZBYN,1989-05-08 18:00,ZBYN 081800Z AUTO 00000KT 9SM 11/09 RMK SLP051 T01130088 40285//// 52009 IEM_DS3505
ZBYN,1989-05-08 19:00,ZBYN 081900Z AUTO 08006KT 7SM 14/ A2980 RMK IEM_DS3505
ZBYN,1989-05-08 20:00,ZBYN 082000Z AUTO 00000KT 7SM 12/10 A2983 RMK T01200100 IEM_DS3505
ZBYN,1989-05-08 21:00,ZBYN 082100Z AUTO 00000KT 6SM 11/07 A2980 RMK SLP044 T01110071 57007 IEM_DS3505
ZBYN,1989-05-08 22:00,ZBYN 082200Z AUTO 00000KT 4SM 11/09 A2983 RMK T01100090 IEM_DS3505
ZBYN,1989-05-08 23:00,ZBYN 082300Z AUTO 00000KT 4SM 11/10 A2983 RMK T01100100 IEM_DS3505
ZBYN,1989-05-09 00:00,ZBYN 090000Z AUTO 36004KT 6SM 14/09 A2983 RMK SLP058 T01410088 52006 IEM_DS3505
ZBYN,1989-05-09 01:00,ZBYN 090100Z AUTO 00000KT 4SM 17/11 A2983 RMK T01700110 IEM_DS3505
ZBYN,1989-05-09 02:00,ZBYN 090200Z AUTO 00000KT 4SM 18/12 A2983 RMK T01800120 IEM_DS3505
ZBYN,1989-05-09 03:00,ZBYN 090300Z AUTO 18002KT 6SM 21/11 A2980 RMK SLP046 T02100107 57006 IEM_DS3505
ZBYN,1989-05-09 04:00,ZBYN 090400Z AUTO 20004KT 6SM 23/13 A2977 RMK T02300130 IEM_DS3505
ZBYN,1989-05-09 05:00,ZBYN 090500Z AUTO 14004KT 6SM 25/13 A2974 RMK T02500130 IEM_DS3505
ZBYN,1989-05-09 06:00,ZBYN 090600Z AUTO 18006KT 6SM 25/13 A2974 RMK SLP018 T02480131 4////0085 57027 IEM_DS3505
ZBYN,1989-05-09 07:00,ZBYN 090700Z AUTO 18004KT 6SM 27/12 A2971 RMK T02700120 IEM_DS3505
ZBYN,1989-05-09 08:00,ZBYN 090800Z AUTO 21006KT 6SM 27/12 A2965 RMK T02700120 IEM_DS3505
ZBYN,1989-05-09 09:00,ZBYN 090900Z AUTO 18002KT 7SM 27/12 A2965 RMK SLP998 T02720119 57015 IEM_DS3505
ZBYN,1989-05-09 10:00,ZBYN 091000Z AUTO 08016KT 25/09 A2968 RMK T02500090 IEM_DS3505
ZBYN,1989-05-09 11:00,ZBYN 091100Z AUTO 09017KT 7SM 21/08 A2971 RMK T02100080 IEM_DS3505
ZBYN,1989-05-09 12:00,ZBYN 091200Z AUTO 09008KT 6SM 21/08 A2977 RMK SLP035 T02140078 52029 IEM_DS3505
ZBYN,1989-05-09 13:00,ZBYN 091300Z AUTO 10008KT 7SM 19/09 A2985 RMK T01900090 IEM_DS3505
ZBYN,1989-05-09 14:00,ZBYN 091400Z AUTO 14010KT 7SM 18/09 A2988 RMK T01800090 IEM_DS3505
ZBYN,1989-05-09 15:00,ZBYN 091500Z AUTO 14006KT 9SM 16/11 A2988 RMK SLP067 T01550110 52031 IEM_DS3505
ZBYN,1989-05-09 16:00,ZBYN 091600Z AUTO 10006KT 7SM 16/11 RMK T01600110 IEM_DS3505
ZBYN,1989-05-09 17:00,ZBYN 091700Z AUTO 01010KT 7SM 17/11 A2983 RMK T01700110 IEM_DS3505
ZBYN,1989-05-09 18:00,ZBYN 091800Z AUTO 29004KT 7SM 16/11 RMK SLP057 T01590113 40284//// 57003 IEM_DS3505
ZBYN,1989-05-09 19:00,ZBYN 091900Z AUTO 09014KT 6SM 14/08 A2983 RMK T01400080 IEM_DS3505
ZBYN,1989-05-09 20:00,ZBYN 092000Z AUTO 11016KT 6SM 13/08 A2983 RMK T01300080 IEM_DS3505
ZBYN,1989-05-09 21:00,ZBYN 092100Z AUTO 11006KT 6SM 13/08 A2985 RMK SLP057 T01330077 54000 IEM_DS3505
ZBYN,1989-05-09 22:00,ZBYN 092200Z AUTO 07012KT 6SM 13/07 A2985 RMK T01300070 IEM_DS3505
ZBYN,1989-05-09 23:00,ZBYN 092300Z AUTO 07014KT 6SM 13/08 A2985 RMK T01300080 IEM_DS3505
ZBYN,1989-05-10 00:00,ZBYN 100000Z AUTO 00000KT 5SM 14/12 RMK SLP080 T01440115 52014 IEM_DS3505
ZBYN,1989-05-10 01:00,ZBYN 100100Z AUTO 08012KT 6SM 14/06 A2991 RMK T01400060 IEM_DS3505
ZBYN,1989-05-10 02:00,ZBYN 100200Z AUTO 08012KT 7SM 15/07 A2994 RMK T01500070 IEM_DS3505
ZBYN,1989-05-10 03:00,ZBYN 100300Z AUTO 29004KT 5SM 16/09 RMK SLP099 T01600091 52011 IEM_DS3505
ZBYN,1989-05-10 04:00,ZBYN 100400Z AUTO 06008KT 7SM 17/08 A2991 RMK T01700080 IEM_DS3505
ZBYN,1989-05-10 05:00,ZBYN 100500Z AUTO 09008KT 7SM 17/09 A2991 RMK T01700090 IEM_DS3505
ZBYN,1989-05-10 06:00,ZBYN 100600Z AUTO 11008KT 6SM 18/09 A2988 RMK SLP080 T01790089 57014 IEM_DS3505
ZBYN,1989-05-10 07:00,ZBYN 100700Z AUTO 17008KT 6SM 13/10 A2988 RMK T01300100 IEM_DS3505
ZBYN,1989-05-10 09:00,ZBYN 100900Z AUTO 00000KT 6SM 19/10 RMK SLP066 T01920101 57015 IEM_DS3505
ZBYN,1989-05-10 10:00,ZBYN 101000Z AUTO 17004KT 6SM 19/10 A2983 RMK T01900100 IEM_DS3505
ZBYN,1989-05-10 11:00,ZBYN 101100Z AUTO 00000KT 6SM 18/11 A2983 RMK T01800110 IEM_DS3505
ZBYN,1989-05-10 12:00,ZBYN 101200Z AUTO 00000KT 7SM 16/11 A2985 RMK SLP073 T01600108 52007 IEM_DS3505
ZBYN,1989-05-10 13:00,ZBYN 101300Z AUTO 02004KT 6SM 15/10 A2988 RMK T01500100 IEM_DS3505
ZBYN,1989-05-10 14:00,ZBYN 101400Z AUTO 10012KT 6SM 16/03 A2991 RMK T01600030 IEM_DS3505
ZBYN,1989-05-10 15:00,ZBYN 101500Z AUTO 14002KT 7SM 14/08 A2988 RMK SLP087 T01390084 52012 IEM_DS3505
ZBYN,1989-05-10 18:00,ZBYN 101800Z AUTO 11004KT 7SM 12/09 RMK SLP079 T01220086 40200//// 57007 IEM_DS3505
ZBYN,1989-05-10 21:00,ZBYN 102100Z AUTO 14004KT 6SM 12/10 RMK SLP080 T01220105 52003 IEM_DS3505
ZBYN,1989-05-10 23:00,ZBYN 102300Z AUTO 16006KT 5SM 14/12 A2988 RMK T01400120 IEM_DS3505
ZBYN,1989-05-11 00:00,ZBYN 110000Z AUTO 18006KT 5SM 15/12 RMK SLP089 T01510123 52007 IEM_DS3505
ZBYN,1989-05-11 01:00,ZBYN 110100Z AUTO 20006KT 6SM 17/13 A2991 RMK T01700130 IEM_DS3505
ZBYN,1989-05-11 02:00,ZBYN 110200Z AUTO 22010KT 7SM 19/12 A2991 RMK T01900120 IEM_DS3505
ZBYN,1989-05-11 03:00,ZBYN 110300Z AUTO 22004KT 5SM 19/12 A2991 RMK SLP090 T01880121 52004 IEM_DS3505
ZBYN,1989-05-11 05:00,ZBYN 110500Z AUTO 35012KT 4SM 17/11 A2991 RMK T01700110 IEM_DS3505
ZBYN,1989-05-11 06:00,ZBYN 110600Z AUTO 36008KT 5SM 15/09 A2994 RMK SLP120 T01500090 4////0113 52017 IEM_DS3505
ZBYN,1989-05-11 07:00,ZBYN 110700Z AUTO 35014KT 7SM 15/12 A2994 RMK T01500120 IEM_DS3505
ZBYN,1989-05-11 08:00,ZBYN 110800Z AUTO 35017KT 7SM 15/09 A2994 RMK T01500090 IEM_DS3505
ZBYN,1989-05-11 09:00,ZBYN 110900Z AUTO 36004KT 7SM 14/10 A2994 RMK SLP119 T01350096 57001 IEM_DS3505
ZBYN,1989-05-11 10:00,ZBYN 111000Z AUTO 00000KT 7SM 13/11 A2997 RMK T01300110 IEM_DS3505
ZBYN,1989-05-11 11:00,ZBYN 111100Z AUTO 14006KT 7SM 13/12 A2997 RMK T01300120 IEM_DS3505
ZBYN,1989-05-11 12:00,ZBYN 111200Z AUTO 16002KT 7SM 13/12 A2997 RMK 60016 SLP119 T01260115 52003 IEM_DS3505
ZBYN,1989-05-11 13:00,ZBYN 111300Z AUTO 00000KT 7SM 13/11 A2997 RMK T01300110 IEM_DS3505
ZBYN,1989-05-11 15:00,ZBYN 111500Z AUTO 11004KT 6SM 12/11 A3000 RMK SLP124 T01220113 52009 IEM_DS3505
ZBYN,1989-05-11 16:00,ZBYN 111600Z AUTO 11004KT 4SM 12/11 A3000 RMK T01200110 IEM_DS3505
ZBYN,1989-05-11 18:00,ZBYN 111800Z AUTO 00000KT 6SM 12/11 RMK SLP131 T01160109 40193//// 57002 IEM_DS3505
ZBYN,1989-05-11 19:00,ZBYN 111900Z AUTO 00000KT 2 1/2SM 12/11 A3000 RMK T01200110 IEM_DS3505
ZBYN,1989-05-11 21:00,ZBYN 112100Z AUTO 32002KT 3SM 11/10 A3003 RMK SLP147 T01060104 52013 IEM_DS3505
ZBYN,1989-05-11 22:00,ZBYN 112200Z AUTO 00000KT 1 1/4SM 10/10 A3003 RMK T01000100 IEM_DS3505
ZBYN,1989-05-11 23:00,ZBYN 112300Z AUTO 23004KT 1SM 11/11 A3006 RMK T01100110 IEM_DS3505
ZBYN,1989-05-12 00:00,ZBYN 120000Z AUTO 32008KT 19SM 13/03 A3006 RMK SLP158 T01300028 52012 IEM_DS3505
ZBYN,1989-05-12 01:00,ZBYN 120100Z AUTO 29012KT 6SM 15/01 A3006 RMK T01500010 IEM_DS3505
ZBYN,1989-05-12 02:00,ZBYN 120200Z AUTO 29017KT 6SM 16/M02 A3009 RMK T01601020 IEM_DS3505
ZBYN,1989-05-12 03:00,ZBYN 120300Z AUTO 32019KT 19SM 15/M04 A3009 RMK SLP164 T01541040 52009 IEM_DS3505
ZBYN,1989-05-12 04:00,ZBYN 120400Z AUTO 32029G33KT 6SM 18/M08 A3009 RMK T01801080 IEM_DS3505
ZBYN,1989-05-12 05:00,ZBYN 120500Z AUTO 32033KT 6SM 19/M08 A3009 RMK T01901080 IEM_DS3505
ZBYN,1989-05-12 06:00,ZBYN 120600Z AUTO 32016KT 19SM 17/M06 RMK SLP160 T01691056 4////0095 57003 IEM_DS3505
ZBYN,1989-05-12 07:00,ZBYN 120700Z AUTO 33025KT 6SM 19/M07 A3009 RMK T01901070 IEM_DS3505
ZBYN,1989-05-12 08:00,ZBYN 120800Z AUTO 33016KT 6SM 18/M09 A3006 RMK T01801090 IEM_DS3505
ZBYN,1989-05-12 09:00,ZBYN 120900Z AUTO 32010KT 19SM 17/M04 A3006 RMK SLP155 T01691038 57006 IEM_DS3505
ZBYN,1989-05-12 10:00,ZBYN 121000Z AUTO 31014KT 7SM 17/M10 A3006 RMK T01701100 IEM_DS3505
ZBYN,1989-05-12 11:00,ZBYN 121100Z AUTO 33012KT 7SM 15/ A3009 RMK IEM_DS3505
ZBYN,1989-05-12 12:00,ZBYN 121200Z AUTO 34004KT 16SM 13/M04 A3009 RMK SLP162 T01331041 52005 IEM_DS3505
ZBYN,1989-05-12 13:00,ZBYN 121300Z AUTO 31012KT 7SM 12/M09 A3012 RMK T01201090 IEM_DS3505
ZBYN,1989-05-12 14:00,ZBYN 121400Z AUTO 28008KT 7SM 11/M07 A3012 RMK T01101070 IEM_DS3505
ZBYN,1989-05-12 15:00,ZBYN 121500Z AUTO 29004KT 12SM 09/M02 A3012 RMK SLP183 T00871019 52016 IEM_DS3505
ZBYN,1989-05-12 16:00,ZBYN 121600Z AUTO 27006KT 7SM 09/M06 A3012 RMK T00901060 IEM_DS3505
ZBYN,1989-05-12 18:00,ZBYN 121800Z AUTO 29004KT 12SM 07/M04 RMK SLP172 T00671035 40178//// 57011 IEM_DS3505
ZBYN,1989-05-12 19:00,ZBYN 121900Z AUTO 00000KT 7SM 04/M02 A3009 RMK T00401020 IEM_DS3505
ZBYN,1989-05-12 20:00,ZBYN 122000Z AUTO 00000KT 7SM 03/M02 A3006 RMK T00301020 IEM_DS3505
ZBYN,1989-05-12 21:00,ZBYN 122100Z AUTO 00000KT 11SM 03/M02 A3006 RMK SLP170 T00291023 57008 IEM_DS3505
ZBYN,1989-05-12 23:00,ZBYN 122300Z AUTO 7SM 08/M04 A3015 RMK T00801040 IEM_DS3505
ZBYN,1989-05-13 00:00,ZBYN 130000Z AUTO 36008KT 12SM 07/M00 A3018 RMK SLP198 T00721002 52027 IEM_DS3505
ZBYN,1989-05-13 01:00,ZBYN 130100Z AUTO 30008KT 7SM 10/M01 A3018 RMK T01001010 IEM_DS3505
ZBYN,1989-05-13 02:00,ZBYN 130200Z AUTO 29010KT 7SM 12/M04 A3018 RMK T01201040 IEM_DS3505
ZBYN,1989-05-13 03:00,ZBYN 130300Z AUTO 34008KT 19SM 13/M04 A3015 RMK SLP193 T01331045 57002 IEM_DS3505
ZBYN,1989-05-13 04:00,ZBYN 130400Z AUTO 33017KT 7SM 15/M05 A3015 RMK T01501050 IEM_DS3505
ZBYN,1989-05-13 05:00,ZBYN 130500Z AUTO 32014KT 7SM 16/M05 A3012 RMK T01601050 IEM_DS3505
ZBYN,1989-05-13 06:00,ZBYN 130600Z AUTO 34012KT 19SM 15/M04 A3012 RMK SLP175 T01521040 57017 IEM_DS3505
ZBYN,1989-05-13 07:00,ZBYN 130700Z AUTO 36016KT 7SM 16/M06 A3012 RMK T01601060 IEM_DS3505
ZBYN,1989-05-13 08:00,ZBYN 130800Z AUTO 33019KT 7SM 18/M07 A3009 RMK T01801070 IEM_DS3505
ZBYN,1989-05-13 09:00,ZBYN 130900Z AUTO 34008KT 11SM 17/M02 A3009 RMK SLP167 T01701024 57010 IEM_DS3505
ZBYN,1989-05-13 10:00,ZBYN 131000Z AUTO 32021KT 7SM 17/M08 A3009 RMK T01701080 IEM_DS3505
ZBYN,1989-05-13 11:00,ZBYN 131100Z AUTO 00000KT 11SM A3009 RMK 40173//// IEM_DS3505
ZBYN,1989-05-13 12:00,ZBYN 131200Z AUTO 34012KT 6SM 15/M01 A3012 RMK SLP180 T01511006 52015 IEM_DS3505
ZBYN,1989-05-13 14:00,ZBYN 131400Z AUTO 34014KT 7SM 13/M04 RMK T01301040 IEM_DS3505
ZBYN,1989-05-13 15:00,ZBYN 131500Z AUTO 34006KT 12SM 12/M00 A3015 RMK SLP196 T01181001 52019 IEM_DS3505
ZBYN,1989-05-13 16:00,ZBYN 131600Z AUTO 01010KT 7SM 10/M02 A3018 RMK T01001020 IEM_DS3505
ZBYN,1989-05-13 18:00,ZBYN 131800Z AUTO 00000KT 11SM 05/01 RMK SLP207 T00540010 40173//// 52003 IEM_DS3505
ZBYN,1989-05-13 21:00,ZBYN 132100Z AUTO 00000KT 9SM 03/00 RMK T00260000 54000 IEM_DS3505
ZBYN,1989-05-13 22:00,ZBYN 132200Z AUTO 00000KT 7SM 03/M01 A3021 RMK T00301010 IEM_DS3505
ZBYN,1989-05-13 23:00,ZBYN 132300Z AUTO 00000KT 7SM 07/00 A3024 RMK T00700000 IEM_DS3505
ZBYN,1989-05-14 00:00,ZBYN 140000Z AUTO 00000KT 7SM 10/01 A3024 RMK SLP215 T00980006 52014 IEM_DS3505
ZBYN,1989-05-14 01:00,ZBYN 140100Z AUTO 00000KT 7SM 13/00 A3024 RMK T01300000 IEM_DS3505
ZBYN,1989-05-14 02:00,ZBYN 140200Z AUTO 00000KT 7SM 15/01 A3024 RMK T01500010 IEM_DS3505
ZBYN,1989-05-14 03:00,ZBYN 140300Z AUTO 04002KT 12SM 17/M02 A3021 RMK SLP199 T01701017 57009 IEM_DS3505
ZBYN,1989-05-14 05:00,ZBYN 140500Z AUTO 35004KT 6SM 19/00 A3015 RMK T01900000 IEM_DS3505
ZBYN,1989-05-14 06:00,ZBYN 140600Z AUTO 25002KT 12SM 20/M02 A3012 RMK SLP170 T01951016 4////0020 57032 IEM_DS3505
ZBYN,1989-05-14 08:00,ZBYN 140800Z AUTO 18004KT 7SM 20/M02 A3003 RMK T02001020 IEM_DS3505
ZBYN,1989-05-14 09:00,ZBYN 140900Z AUTO 22004KT 19SM 21/01 RMK SLP138 T02090010 57031 IEM_DS3505
ZBYN,1989-05-14 12:00,ZBYN 141200Z AUTO 16002KT 16SM 16/03 RMK SLP129 T01620030 57005 IEM_DS3505
ZBYN,1989-05-14 15:00,ZBYN 141500Z AUTO 11004KT 12SM 11/00 A3000 RMK SLP130 T01100000 52004 IEM_DS3505
ZBYN,1989-05-14 18:00,ZBYN 141800Z AUTO 11002KT 12SM 09/02 RMK SLP125 T00930023 40212//// 57003 IEM_DS3505
ZBYN,1989-05-14 20:00,ZBYN 142000Z AUTO 6SM 09/01 A2997 RMK T00900010 IEM_DS3505
ZBYN,1989-05-14 21:00,ZBYN 142100Z AUTO 00000KT 5SM 17/04 A2997 RMK SLP118 T01680044 57008 IEM_DS3505
ZBYN,1989-05-14 23:00,ZBYN 142300Z AUTO 13004KT 6SM 10/04 A2997 RMK T01000040 IEM_DS3505
ZBYN,1989-05-15 00:00,ZBYN 150000Z AUTO 00000KT 6SM 11/04 A2994 RMK SLP113 T01130040 57005 IEM_DS3505
ZBYN,1989-05-15 02:00,ZBYN 150200Z AUTO 21006KT 6SM 17/02 A2994 RMK T01700020 IEM_DS3505
ZBYN,1989-05-15 03:00,ZBYN 150300Z AUTO 18004KT 6SM 20/04 A2991 RMK SLP088 T01960040 57018 IEM_DS3505
ZBYN,1989-05-15 04:00,ZBYN 150400Z AUTO 20014KT 6SM 21/04 A2988 RMK T02100040 IEM_DS3505
ZBYN,1989-05-15 05:00,ZBYN 150500Z AUTO 22010KT 6SM 22/04 A2985 RMK T02200040 IEM_DS3505
ZBYN,1989-05-15 06:00,ZBYN 150600Z AUTO 20008KT 7SM 23/06 A2983 RMK SLP054 T02270056 4////0057 57029 IEM_DS3505
ZBYN,1989-05-15 09:00,ZBYN 150900Z AUTO 20006KT 7SM 23/08 RMK SLP036 T02320075 57020 IEM_DS3505
ZBYN,1989-05-15 10:00,ZBYN 151000Z AUTO 21016KT 6SM 23/06 A2974 RMK T02300060 IEM_DS3505
ZBYN,1989-05-15 11:00,ZBYN 151100Z AUTO 21012KT 6SM 22/08 A2974 RMK T02200080 IEM_DS3505
ZBYN,1989-05-15 12:00,ZBYN 151200Z AUTO 18006KT 9SM 20/08 RMK SLP038 T01950078 52003 IEM_DS3505
ZBYN,1989-05-15 15:00,ZBYN 151500Z AUTO 09004KT 7SM 16/08 RMK SLP043 T01580085 52012 IEM_DS3505
ZBYN,1989-05-15 18:00,ZBYN 151800Z AUTO 11006KT 7SM 13/08 RMK SLP051 T01290079 40240//// 52007 IEM_DS3505
ZBYN,1989-05-15 21:00,ZBYN 152100Z AUTO 1SM 10/07 RMK SLP054 T00950073 57001 IEM_DS3505
ZBYN,1989-05-16 00:00,ZBYN 160000Z AUTO 14004KT 6SM 14/09 A2983 RMK SLP067 T01360091 52012 IEM_DS3505
ZBYN,1989-05-16 03:00,ZBYN 160300Z AUTO 18004KT 6SM 20/01 RMK SLP055 T01990010 57007 IEM_DS3505
ZBYN,1989-05-16 06:00,ZBYN 160600Z AUTO 20006KT 6SM 23/04 RMK SLP026 T02320045 4////0088 57026 IEM_DS3505
ZBYN,1989-05-16 09:00,ZBYN 160900Z AUTO 32008KT 12SM 24/M00 RMK SLP032 T02421003 52002 IEM_DS3505
ZBYN,1989-05-16 12:00,ZBYN 161200Z AUTO 00000KT 11SM 18/06 RMK SLP074 T01800062 52035 IEM_DS3505
ZBYN,1989-05-16 15:00,ZBYN 161500Z AUTO 29004KT 7SM 14/09 RMK SLP087 T01420087 52016 IEM_DS3505
ZBYN,1989-05-16 18:00,ZBYN 161800Z AUTO 00000KT 7SM 10/08 RMK SLP081 T00990085 40265//// 57007 IEM_DS3505
ZBYN,1989-05-16 21:00,ZBYN 162100Z AUTO 00000KT 6SM 08/07 RMK SLP081 T00820074 57001 IEM_DS3505
ZBYN,1989-05-17 00:00,ZBYN 170000Z AUTO 00000KT 5SM 14/09 RMK SLP099 T01370090 52015 IEM_DS3505
ZBYN,1989-05-17 03:00,ZBYN 170300Z AUTO 20004KT 5SM 21/10 RMK SLP096 T02130095 57002 IEM_DS3505
ZBYN,1989-05-17 06:00,ZBYN 170600Z AUTO 18006KT 6SM 27/09 RMK SLP059 T02680094 4////0062 57027 IEM_DS3505
ZBYN,1989-05-17 09:00,ZBYN 170900Z AUTO 18004KT 9SM 29/08 RMK SLP037 T02870079 57020 IEM_DS3505
ZBYN,1989-05-17 12:00,ZBYN 171200Z AUTO 11004KT 9SM 23/10 RMK SLP038 T02260097 54000 IEM_DS3505
ZBYN,1989-05-17 15:00,ZBYN 171500Z AUTO 14004KT 9SM 21/10 RMK SLP051 T02100103 52021 IEM_DS3505
ZBYN,1989-05-17 18:00,ZBYN 171800Z AUTO 14002KT 9SM 18/11 RMK SLP048 T01790112 40288//// 54000 IEM_DS3505
ZBYN,1989-05-17 21:00,ZBYN 172100Z AUTO 18002KT 6SM 15/10 RMK SLP044 T01540105 57004 IEM_DS3505
ZBYN,1989-05-18 00:00,ZBYN 180000Z AUTO 14004KT 7SM 20/13 RMK SLP055 T02050133 52008 IEM_DS3505
ZBYN,1989-05-18 03:00,ZBYN 180300Z AUTO 18006KT 7SM 27/14 RMK SLP043 T02700145 57004 IEM_DS3505
ZBYN,1989-05-18 06:00,ZBYN 180600Z AUTO 07004KT 7SM 25/13 RMK 60008 SLP040 T02470126 4////0145 57010 IEM_DS3505
ZBYN,1989-05-18 07:00,ZBYN 180700Z AUTO 10006KT 7SM 26/11 A2983 RMK T02600110 IEM_DS3505
ZBYN,1989-05-18 08:00,ZBYN 180800Z AUTO 17014KT 6SM 23/13 A2983 RMK T02300130 IEM_DS3505
ZBYN,1989-05-18 09:00,ZBYN 180900Z AUTO 18006KT 7SM 22/15 A2983 RMK SLP059 T02250147 52011 IEM_DS3505
ZBYN,1989-05-18 10:00,ZBYN 181000Z AUTO 26006KT 6SM 20/14 A2988 RMK T02000140 IEM_DS3505
ZBYN,1989-05-18 11:00,ZBYN 181100Z AUTO 26006KT 6SM 20/14 A2988 RMK T02000140 IEM_DS3505
ZBYN,1989-05-18 12:00,ZBYN 181200Z AUTO 00000KT 7SM 19/14 A2991 RMK SLP079 T01900144 52020 IEM_DS3505
ZBYN,1989-05-18 13:00,ZBYN 181300Z AUTO 09010KT 6SM 17/13 A2994 RMK T01700130 IEM_DS3505
ZBYN,1989-05-18 14:00,ZBYN 181400Z AUTO 09006KT 6SM 17/12 A2997 RMK T01700120 IEM_DS3505
ZBYN,1989-05-18 15:00,ZBYN 181500Z AUTO 00000KT 7SM RMK SLP104 52027 IEM_DS3505
ZBYN,1989-05-18 16:00,ZBYN 181600Z AUTO 30006KT 6SM 16/12 A2997 RMK T01600120 IEM_DS3505
ZBYN,1989-05-18 18:00,ZBYN 181800Z AUTO 32004KT 7SM 16/10 A3000 RMK SLP113 T01600104 40284//// 52006 IEM_DS3505
ZBYN,1989-05-18 19:00,ZBYN 181900Z AUTO 00000KT 6SM A3003 RMK IEM_DS3505
ZBYN,1989-05-18 20:00,ZBYN 182000Z AUTO 11004KT 6SM 14/06 A3006 RMK T01400060 IEM_DS3505
ZBYN,1989-05-18 21:00,ZBYN 182100Z AUTO 02006KT 7SM 18/03 A3009 RMK SLP133 T01780031 52018 IEM_DS3505
ZBYN,1989-05-18 22:00,ZBYN 182200Z AUTO 34010KT 6SM 16/01 A3012 RMK T01600010 IEM_DS3505
ZBYN,1989-05-18 23:00,ZBYN 182300Z AUTO 35012KT 6SM 17/00 A3015 RMK T01700000 IEM_DS3505
ZBYN,1989-05-19 00:00,ZBYN 190000Z AUTO 36010KT 6SM 17/M01 A3015 RMK SLP173 T01681013 52030 IEM_DS3505
ZBYN,1989-05-19 01:00,ZBYN 190100Z AUTO 36016KT 7SM 18/M02 A3018 RMK T01801020 IEM_DS3505
ZBYN,1989-05-19 02:00,ZBYN 190200Z AUTO 36012KT 6SM 18/M02 A3021 RMK T01801020 IEM_DS3505
ZBYN,1989-05-19 03:00,ZBYN 190300Z AUTO 36010KT 7SM 18/M02 RMK SLP194 T01791022 52015 IEM_DS3505
ZBYN,1989-05-19 04:00,ZBYN 190400Z AUTO 36012KT 6SM 19/M01 A3021 RMK T01901010 IEM_DS3505
ZBYN,1989-05-19 05:00,ZBYN 190500Z AUTO 34014KT 6SM 23/04 A3015 RMK T02300040 IEM_DS3505
ZBYN,1989-05-19 06:00,ZBYN 190600Z AUTO 36006KT 7SM 22/05 A3012 RMK SLP160 T02200049 4////0140 IEM_DS3505
ZBYN,1989-05-19 07:00,ZBYN 190700Z AUTO 36006KT 7SM 23/08 A3009 RMK T02300080 IEM_DS3505
ZBYN,1989-05-19 08:00,ZBYN 190800Z AUTO 01006KT 7SM 23/08 A3009 RMK T02300080 IEM_DS3505
ZBYN,1989-05-19 09:00,ZBYN 190900Z AUTO 09004KT 7SM 23/05 A3009 RMK SLP135 T02300052 57019 IEM_DS3505
ZBYN,1989-05-19 10:00,ZBYN 191000Z AUTO 07006KT 7SM 22/06 A3006 RMK T02200060 IEM_DS3505
ZBYN,1989-05-19 11:00,ZBYN 191100Z AUTO 27006KT 6SM 22/04 A3009 RMK T02200040 IEM_DS3505
ZBYN,1989-05-19 12:00,ZBYN 191200Z AUTO 00000KT 9SM 20/06 A3009 RMK SLP149 T02000064 52007 IEM_DS3505
ZBYN,1989-05-19 15:00,ZBYN 191500Z AUTO 00000KT 9SM 15/11 A3015 RMK SLP177 T01540107 52021 IEM_DS3505
ZBYN,1989-05-19 16:00,ZBYN 191600Z AUTO 00000KT 6SM A3015 RMK IEM_DS3505
ZBYN,1989-05-19 18:00,ZBYN 191800Z AUTO 34002KT 7SM 13/09 A3015 RMK SLP173 T01300094 40234//// 57001 IEM_DS3505
ZBYN,1989-05-19 19:00,ZBYN 191900Z AUTO 00000KT 6SM 12/09 A3015 RMK T01200090 IEM_DS3505
ZBYN,1989-05-19 20:00,ZBYN 192000Z AUTO 00000KT 6SM 10/09 A3015 RMK T01000090 IEM_DS3505
ZBYN,1989-05-19 21:00,ZBYN 192100Z AUTO 34004KT 6SM 12/04 A3015 RMK SLP176 T01240036 52003 IEM_DS3505
ZBYN,1989-05-19 22:00,ZBYN 192200Z AUTO 01006KT 6SM 11/07 A3018 RMK T01100070 IEM_DS3505
ZBYN,1989-05-19 23:00,ZBYN 192300Z AUTO 35010KT 6SM 15/03 A3021 RMK T01500030 IEM_DS3505
ZBYN,1989-05-20 00:00,ZBYN 200000Z AUTO 36006KT 9SM 17/01 RMK SLP189 T01680014 52014 IEM_DS3505
ZBYN,1989-05-20 02:00,ZBYN 200200Z AUTO 35008KT 7SM 21/M01 A3021 RMK T02101010 IEM_DS3505
ZBYN,1989-05-20 03:00,ZBYN 200300Z AUTO 04004KT 9SM 23/01 A3021 RMK SLP186 T02330012 54000 IEM_DS3505
ZBYN,1989-05-20 04:00,ZBYN 200400Z AUTO 31008KT 6SM 24/M01 A3021 RMK T02401010 IEM_DS3505
ZBYN,1989-05-20 05:00,ZBYN 200500Z AUTO 36004KT 19SM 27/02 A3018 RMK SLP134 T02720018 57022 IEM_DS3505
ZBYN,1989-05-20 06:00,ZBYN 200600Z AUTO 09004KT 12SM 26/02 A3012 RMK SLP159 T02630021 4////0111 57024 IEM_DS3505
ZBYN,1989-05-20 06:06,ZBYN 200606Z AUTO 31006KT 7SM RMK IEM_DS3505
ZBYN,1989-05-20 07:00,ZBYN 200700Z AUTO 29012KT 6SM 27/01 A3012 RMK T02700010 IEM_DS3505
ZBYN,1989-05-20 08:00,ZBYN 200800Z AUTO 23006KT 7SM 27/03 A3009 RMK T02700030 IEM_DS3505
ZBYN,1989-05-20 09:00,ZBYN 200900Z AUTO 36004KT 19SM 27/02 A3006 RMK SLP134 T02720018 57022 IEM_DS3505
ZBYN,1989-05-20 10:00,ZBYN 201000Z AUTO 02006KT 6SM 26/02 A3006 RMK T02600020 IEM_DS3505
ZBYN,1989-05-20 11:00,ZBYN 201100Z AUTO 21006KT 6SM 24/06 A3009 RMK T02400060 IEM_DS3505
ZBYN,1989-05-20 12:00,ZBYN 201200Z AUTO 20002KT 16SM 20/08 A3012 RMK SLP149 T01970082 52009 IEM_DS3505
ZBYN,1989-05-20 14:00,ZBYN 201400Z AUTO 08002KT 6SM 17/07 A3015 RMK T01700070 IEM_DS3505
ZBYN,1989-05-20 15:00,ZBYN 201500Z AUTO 00000KT 12SM 18/07 A3015 RMK SLP162 T01780068 52018 IEM_DS3505
ZBYN,1989-05-20 16:00,ZBYN 201600Z AUTO 12006KT 6SM 16/04 A3015 RMK T01600040 IEM_DS3505
ZBYN,1989-05-20 18:00,ZBYN 201800Z AUTO 00000KT 12SM 14/06 RMK SLP170 T01380057 40276//// 52006 IEM_DS3505
ZBYN,1989-05-20 21:00,ZBYN 202100Z AUTO 09002KT 12SM 15/01 RMK SLP169 T01460014 52002 IEM_DS3505
ZBYN,1989-05-20 22:00,ZBYN 202200Z AUTO 32004KT 6SM 11/05 A3018 RMK T01100050 IEM_DS3505
ZBYN,1989-05-21 00:00,ZBYN 210000Z AUTO 34004KT 6SM 17/03 A3021 RMK SLP185 T01720030 52007 IEM_DS3505
ZBYN,1989-05-21 00:24,ZBYN 210024Z AUTO 09006KT 3SM RMK IEM_DS3505
ZBYN,1989-05-21 01:00,ZBYN 210100Z AUTO 32008KT 6SM 21/02 A3018 RMK T02100020 IEM_DS3505
ZBYN,1989-05-21 02:00,ZBYN 210200Z AUTO 29006KT 6SM 23/01 A3018 RMK T02300010 IEM_DS3505
ZBYN,1989-05-21 03:00,ZBYN 210300Z AUTO 00000KT 9SM 24/03 A3015 RMK SLP165 T02450032 57010 IEM_DS3505
ZBYN,1989-05-21 04:00,ZBYN 210400Z AUTO 00000KT 6SM 25/02 A3012 RMK T02500020 IEM_DS3505
ZBYN,1989-05-21 05:00,ZBYN 210500Z AUTO 19004KT RMK IEM_DS3505
ZBYN,1989-05-21 06:00,ZBYN 210600Z AUTO 18006KT 9SM 25/07 A3006 RMK SLP138 T02510069 4////0109 57030 IEM_DS3505
ZBYN,1989-05-21 07:00,ZBYN 210700Z AUTO 24010KT 6SM 25/05 A3006 RMK T02500050 IEM_DS3505
ZBYN,1989-05-21 08:00,ZBYN 210800Z AUTO 23010KT 6SM 24/03 A3003 RMK T02400030 IEM_DS3505
ZBYN,1989-05-21 09:00,ZBYN 210900Z AUTO 20008KT 9SM 23/08 A3000 RMK SLP121 T02280076 57017 IEM_DS3505
ZBYN,1989-05-21 10:00,ZBYN 211000Z AUTO 19006KT 6SM 22/06 A3000 RMK T02200060 IEM_DS3505
ZBYN,1989-05-21 11:00,ZBYN 211100Z AUTO 20006KT 6SM 21/06 A3000 RMK T02100060 IEM_DS3505
ZBYN,1989-05-21 12:00,ZBYN 211200Z AUTO 22008KT 9SM 21/07 A3003 RMK SLP120 T02100074 54000 IEM_DS3505
ZBYN,1989-05-21 13:00,ZBYN 211300Z AUTO 22012KT 6SM 20/04 A3003 RMK T02000040 IEM_DS3505
ZBYN,1989-05-21 14:00,ZBYN 211400Z AUTO 22012KT 6SM A3006 RMK IEM_DS3505
ZBYN,1989-05-21 15:00,ZBYN 211500Z AUTO 18004KT 7SM 18/08 A3003 RMK SLP121 T01810084 52007 IEM_DS3505
ZBYN,1989-05-21 16:00,ZBYN 211600Z AUTO 18008KT 6SM 17/07 A3003 RMK T01700070 IEM_DS3505
ZBYN,1989-05-21 18:00,ZBYN 211800Z AUTO 20006KT 7SM 16/09 A3003 RMK SLP113 T01600087 40260//// 57009 IEM_DS3505
ZBYN,1989-05-21 21:00,ZBYN 212100Z AUTO 11004KT 7SM 13/09 A3000 RMK SLP115 T01300090 57006 IEM_DS3505
ZBYN,1989-05-21 22:00,ZBYN 212200Z AUTO 00000KT 6SM 12/09 A3000 RMK T01200090 IEM_DS3505
ZBYN,1989-05-22 00:00,ZBYN 220000Z AUTO 16002KT 7SM 16/11 A2997 RMK SLP113 T01620106 54000 IEM_DS3505
ZBYN,1989-05-22 01:00,ZBYN 220100Z AUTO 00000KT 6SM 18/12 A2997 RMK T01800120 IEM_DS3505
ZBYN,1989-05-22 02:00,ZBYN 220200Z AUTO 00000KT 6SM 21/11 A2994 RMK T02100110 IEM_DS3505
ZBYN,1989-05-22 03:00,ZBYN 220300Z AUTO 18004KT 9SM 23/11 A2994 RMK SLP083 T02340112 57021 IEM_DS3505
ZBYN,1989-05-22 04:00,ZBYN 220400Z AUTO 22008KT 6SM 25/09 A2991 RMK T02500090 IEM_DS3505
ZBYN,1989-05-22 05:00,ZBYN 220500Z AUTO 22012KT 7SM 26/08 A2988 RMK T02600080 IEM_DS3505
ZBYN,1989-05-22 06:00,ZBYN 220600Z AUTO 20006KT 16SM 27/09 A2985 RMK SLP050 T02700090 4////0117 57028 IEM_DS3505
ZBYN,1989-05-22 07:00,ZBYN 220700Z AUTO 24012KT 7SM 28/06 A2983 RMK T02800060 IEM_DS3505
ZBYN,1989-05-22 08:00,ZBYN 220800Z AUTO 30016KT 7SM 26/04 A2983 RMK T02600040 IEM_DS3505
ZBYN,1989-05-22 09:00,ZBYN 220900Z AUTO 29010KT 12SM A2983 RMK SLP043 57013 IEM_DS3505
ZBYN,1989-05-22 10:00,ZBYN 221000Z AUTO 09008KT 7SM 25/06 A2983 RMK T02500060 IEM_DS3505
ZBYN,1989-05-22 11:00,ZBYN 221100Z AUTO 19012KT 7SM 23/07 A2985 RMK T02300070 IEM_DS3505
ZBYN,1989-05-22 13:00,ZBYN 221300Z AUTO 11004KT 6SM 19/09 A2985 RMK T01900090 IEM_DS3505
ZBYN,1989-05-22 14:00,ZBYN 221400Z AUTO 09006KT 7SM 18/08 A2988 RMK T01800080 IEM_DS3505
ZBYN,1989-05-22 15:00,ZBYN 221500Z AUTO 25002KT 12SM 15/09 A2988 RMK SLP073 T01460088 52014 IEM_DS3505
ZBYN,1989-05-22 17:00,ZBYN 221700Z AUTO 09006KT 7SM 14/06 A2988 RMK T01400060 IEM_DS3505
ZBYN,1989-05-22 18:00,ZBYN 221800Z AUTO 07002KT 9SM 13/08 RMK SLP070 T01310077 40281//// 54000 IEM_DS3505
ZBYN,1989-05-22 19:00,ZBYN 221900Z AUTO 09006KT 7SM 13/06 A2988 RMK T01300060 IEM_DS3505
ZBYN,1989-05-22 21:00,ZBYN 222100Z AUTO 00000KT 9SM 11/04 A2988 RMK SLP074 T01090037 57002 IEM_DS3505
ZBYN,1989-05-22 22:00,ZBYN 222200Z AUTO 09006KT 7SM 12/05 A2991 RMK T01200050 IEM_DS3505
ZBYN,1989-05-22 23:00,ZBYN 222300Z AUTO 11006KT 7SM 15/08 A2991 RMK T01500080 IEM_DS3505
ZBYN,1989-05-23 00:00,ZBYN 230000Z AUTO 00000KT 6SM 16/11 RMK SLP082 T01590111 52007 IEM_DS3505
ZBYN,1989-05-23 01:00,ZBYN 230100Z AUTO 00000KT 7SM 20/10 A2991 RMK T02000100 IEM_DS3505
ZBYN,1989-05-23 02:00,ZBYN 230200Z AUTO 00000KT 7SM 22/10 A2991 RMK T02200100 IEM_DS3505
ZBYN,1989-05-23 03:00,ZBYN 230300Z AUTO 20006KT 7SM 24/11 A2991 RMK SLP075 T02400112 57003 IEM_DS3505
ZBYN,1989-05-23 04:00,ZBYN 230400Z AUTO 22006KT 7SM 27/09 A2988 RMK T02700090 IEM_DS3505
ZBYN,1989-05-23 05:00,ZBYN 230500Z AUTO 18004KT 7SM 28/08 A2985 RMK T02800080 IEM_DS3505
ZBYN,1989-05-23 06:00,ZBYN 230600Z AUTO 18006KT 9SM 26/ A2983 RMK SLP053 4////0083 57019 IEM_DS3505
ZBYN,1989-05-23 07:00,ZBYN 230700Z AUTO 25010KT 7SM 28/03 A2983 RMK T02800030 IEM_DS3505
ZBYN,1989-05-23 08:00,ZBYN 230800Z AUTO 02008KT 7SM 27/05 A2983 RMK T02700050 IEM_DS3505
ZBYN,1989-05-23 09:00,ZBYN 230900Z AUTO 22002KT 9SM 27/ A2983 RMK SLP050 57005 IEM_DS3505
ZBYN,1989-05-23 10:00,ZBYN 231000Z AUTO 22006KT 7SM 27/07 A2983 RMK T02700070 IEM_DS3505
ZBYN,1989-05-23 11:00,ZBYN 231100Z AUTO 09014KT 7SM 23/10 A2985 RMK T02300100 IEM_DS3505
ZBYN,1989-05-23 12:00,ZBYN 231200Z AUTO 11008KT 6SM 21/12 A2991 RMK SLP084 T02080125 52030 IEM_DS3505
ZBYN,1989-05-23 13:00,ZBYN 231300Z AUTO 07025KT 7SM 18/10 A2997 RMK T01800100 IEM_DS3505
ZBYN,1989-05-23 14:00,ZBYN 231400Z AUTO 08014G25KT 7SM 16/10 A3003 RMK T01600100 IEM_DS3505
ZBYN,1989-05-23 15:00,ZBYN 231500Z AUTO 07010KT 11SM 15/08 A3006 RMK SLP138 T01490082 52052 IEM_DS3505
ZBYN,1989-05-23 17:00,ZBYN 231700Z AUTO 07016KT 6SM 13/07 A3012 RMK T01300070 IEM_DS3505
ZBYN,1989-05-23 18:00,ZBYN 231800Z AUTO 07010KT 9SM 12/08 A3015 RMK SLP177 T01220083 40205//// 52035 IEM_DS3505
ZBYN,1989-05-23 19:00,ZBYN 231900Z AUTO 08006KT 7SM 11/07 A3018 RMK T01100070 IEM_DS3505
ZBYN,1989-05-23 20:00,ZBYN 232000Z AUTO 08008KT 7SM 10/07 A3018 RMK T01000070 IEM_DS3505
ZBYN,1989-05-23 21:00,ZBYN 232100Z AUTO 00000KT 4SM 11/08 A3021 RMK SLP189 T01080080 52010 IEM_DS3505
ZBYN,1989-05-23 22:00,ZBYN 232200Z AUTO 00000KT 6SM 08/07 A3021 RMK T00800070 IEM_DS3505
ZBYN,1989-05-23 23:00,ZBYN 232300Z AUTO 15006KT 7SM 12/07 A3024 RMK T01200070 IEM_DS3505
ZBYN,1989-05-24 00:00,ZBYN 240000Z AUTO 36006KT 12SM 13/08 A3027 RMK SLP213 T01330079 52017 IEM_DS3505
ZBYN,1989-05-24 01:00,ZBYN 240100Z AUTO 00000KT 7SM 15/08 A3027 RMK T01500080 IEM_DS3505
ZBYN,1989-05-24 02:00,ZBYN 240200Z AUTO 35006KT 7SM 17/06 A3027 RMK T01700060 IEM_DS3505
ZBYN,1989-05-24 03:00,ZBYN 240300Z AUTO 09004KT 12SM 18/10 RMK SLP212 T01830098 57002 IEM_DS3505
ZBYN,1989-05-24 04:00,ZBYN 240400Z AUTO 33014KT 7SM 20/00 A3027 RMK T02000000 IEM_DS3505
ZBYN,1989-05-24 05:00,ZBYN 240500Z AUTO 03006KT 7SM 21/01 A3027 RMK T02100010 IEM_DS3505
ZBYN,1989-05-24 06:00,ZBYN 240600Z AUTO 36006KT 16SM 21/M07 A3024 RMK SLP195 T02101068 4////0096 57016 IEM_DS3505
ZBYN,1989-05-24 08:00,ZBYN 240800Z AUTO 33010KT 7SM 23/01 A3018 RMK T02300010 IEM_DS3505
ZBYN,1989-05-24 09:00,ZBYN 240900Z AUTO 04008KT 16SM 22/M03 A3018 RMK SLP177 T02241027 57016 IEM_DS3505
ZBYN,1989-05-24 10:00,ZBYN 241000Z AUTO 03006KT 7SM 22/00 A3015 RMK T02200000 IEM_DS3505
ZBYN,1989-05-24 11:00,ZBYN 241100Z AUTO 04008KT 7SM 21/M03 A3015 RMK T02101030 IEM_DS3505
ZBYN,1989-05-24 12:00,ZBYN 241200Z AUTO 02004KT 12SM 20/M01 A3015 RMK SLP183 T01981010 52005 IEM_DS3505
ZBYN,1989-05-24 13:00,ZBYN 241300Z AUTO 25006KT 7SM 15/01 A3018 RMK T01500010 IEM_DS3505
ZBYN,1989-05-24 15:00,ZBYN 241500Z AUTO 00000KT 9SM 10/05 A3021 RMK SLP203 T01010050 52011 IEM_DS3505
ZBYN,1989-05-24 16:00,ZBYN 241600Z AUTO 12004KT 7SM 10/01 A3021 RMK T01000010 IEM_DS3505
ZBYN,1989-05-24 17:00,ZBYN 241700Z AUTO 10004KT 7SM 10/M01 A3021 RMK T01001010 IEM_DS3505
ZBYN,1989-05-24 18:00,ZBYN 241800Z AUTO 00000KT 12SM 08/02 RMK SLP201 T00820020 40230//// 54000 IEM_DS3505
ZBYN,1989-05-24 21:00,ZBYN 242100Z AUTO 00000KT 12SM 05/03 RMK T00540031 52003 IEM_DS3505
ZBYN,1989-05-24 22:00,ZBYN 242200Z AUTO 00000KT 7SM 05/00 A3024 RMK T00500000 IEM_DS3505
ZBYN,1989-05-24 23:00,ZBYN 242300Z AUTO 10004KT 7SM 11/02 A3024 RMK T01100020 IEM_DS3505
ZBYN,1989-05-25 00:00,ZBYN 250000Z AUTO 14002KT 6SM 13/02 A3024 RMK SLP202 T01290024 52003 IEM_DS3505
ZBYN,1989-05-25 01:00,ZBYN 250100Z AUTO 00000KT 7SM 16/04 A3024 RMK T01600040 IEM_DS3505
ZBYN,1989-05-25 02:00,ZBYN 250200Z AUTO 21004KT 7SM 19/03 A3021 RMK T01900030 IEM_DS3505
ZBYN,1989-05-25 03:00,ZBYN 250300Z AUTO 20004KT 6SM 21/03 RMK T02100032 57013 IEM_DS3505
ZBYN,1989-05-25 04:00,ZBYN 250400Z AUTO 18008KT 7SM 23/05 A3015 RMK T02300050 IEM_DS3505
ZBYN,1989-05-25 06:00,ZBYN 250600Z AUTO 18004KT 7SM 25/03 A3006 RMK SLP145 T02540033 4////0048 57038 IEM_DS3505
ZBYN,1989-05-25 07:00,ZBYN 250700Z AUTO 21006KT 7SM 27/02 A3003 RMK T02700020 IEM_DS3505
ZBYN,1989-05-25 08:00,ZBYN 250800Z AUTO 21012KT 7SM 28/03 A3003 RMK T02800030 IEM_DS3505
ZBYN,1989-05-25 09:00,ZBYN 250900Z AUTO 18006KT 7SM 27/03 A3000 RMK SLP122 T02700032 57023 IEM_DS3505
ZBYN,1989-05-25 10:00,ZBYN 251000Z AUTO 20006KT 7SM 27/06 A2997 RMK T02700060 IEM_DS3505
ZBYN,1989-05-25 12:00,ZBYN 251200Z AUTO 11004KT 9SM 22/07 A2997 RMK SLP111 T02200070 57007 IEM_DS3505
ZBYN,1989-05-25 13:00,ZBYN 251300Z AUTO 09006KT 6SM 20/05 A2997 RMK T02000050 IEM_DS3505
ZBYN,1989-05-25 14:00,ZBYN 251400Z AUTO 12006KT 6SM 17/04 A3000 RMK T01700040 IEM_DS3505
ZBYN,1989-05-25 15:00,ZBYN 251500Z AUTO 11004KT 9SM 16/04 A3000 RMK SLP110 T01580041 52003 IEM_DS3505
ZBYN,1989-05-25 16:00,ZBYN 251600Z AUTO 11006KT 7SM 16/04 A3000 RMK T01600040 IEM_DS3505
ZBYN,1989-05-25 18:00,ZBYN 251800Z AUTO 14002KT 9SM 13/06 A3000 RMK SLP111 T01260057 52002 IEM_DS3505
ZBYN,1989-05-25 21:00,ZBYN 252100Z AUTO 00000KT 7SM 20/05 RMK SLP112 T01980052 54000 IEM_DS3505
ZBYN,1989-05-26 00:00,ZBYN 260000Z AUTO 00000KT 5SM 16/05 RMK SLP115 T01560054 52002 IEM_DS3505
ZBYN,1989-05-26 06:00,ZBYN 260600Z AUTO 20004KT 7SM 28/06 RMK SLP070 T02830060 4////0092 57022 IEM_DS3505
ZBYN,1989-05-26 09:00,ZBYN 260900Z AUTO 18002KT 12SM 30/02 RMK SLP054 T02970024 57017 IEM_DS3505
ZBYN,1989-05-26 12:00,ZBYN 261200Z AUTO 00000KT 17SM 23/08 RMK SLP058 T02320082 52003 IEM_DS3505
ZBYN,1989-05-26 15:00,ZBYN 261500Z AUTO 00000KT 16SM 17/07 RMK SLP069 T01730067 52015 IEM_DS3505
ZBYN,1989-05-26 18:00,ZBYN 261800Z AUTO 00000KT 16SM 14/08 RMK SLP075 T01380083 40300//// 52005 IEM_DS3505
ZBYN,1989-05-26 21:00,ZBYN 262100Z AUTO 00000KT 7SM 11/07 RMK SLP088 T01060072 52010 IEM_DS3505
ZBYN,1989-05-27 00:00,ZBYN 270000Z AUTO 36002KT 6SM 18/09 A2997 RMK SLP101 T01840086 52013 IEM_DS3505
ZBYN,1989-05-27 01:00,ZBYN 270100Z AUTO 00000KT 6SM 21/10 A2997 RMK T02100100 IEM_DS3505
ZBYN,1989-05-27 02:00,ZBYN 270200Z AUTO 00000KT 6SM 24/09 A2997 RMK T02400090 IEM_DS3505
ZBYN,1989-05-27 03:00,ZBYN 270300Z AUTO 00000KT 6SM 26/06 A2997 RMK SLP094 T02570063 57004 IEM_DS3505
ZBYN,1989-05-27 04:00,ZBYN 270400Z AUTO 20004KT 6SM 28/06 A2997 RMK T02800060 IEM_DS3505
ZBYN,1989-05-27 06:00,ZBYN 270600Z AUTO 09002KT 7SM 30/05 A2991 RMK SLP070 T02950052 4////0099 57022 IEM_DS3505
ZBYN,1989-05-27 07:00,ZBYN 270700Z AUTO 00000KT 6SM 30/08 A2988 RMK T03000080 IEM_DS3505
ZBYN,1989-05-27 08:00,ZBYN 270800Z AUTO 16006KT 6SM 30/08 A2988 RMK T03000080 IEM_DS3505
ZBYN,1989-05-27 09:00,ZBYN 270900Z AUTO 22002KT 12SM 30/07 A2985 RMK SLP062 T02970071 57011 IEM_DS3505
ZBYN,1989-05-27 10:00,ZBYN 271000Z AUTO 23008KT 6SM 29/08 A2985 RMK T02900080 IEM_DS3505
ZBYN,1989-05-27 12:00,ZBYN 271200Z AUTO 11004KT 12SM 24/10 RMK SLP068 T02420096 52009 IEM_DS3505
ZBYN,1989-05-27 14:00,ZBYN 271400Z AUTO 12008KT 7SM 23/10 A2994 RMK T02300100 IEM_DS3505
ZBYN,1989-05-27 15:00,ZBYN 271500Z AUTO 11004KT 9SM 21/08 A2994 RMK SLP085 T02060083 52020 IEM_DS3505
ZBYN,1989-05-27 16:00,ZBYN 271600Z AUTO 11006KT 6SM 19/11 A2997 RMK T01900110 IEM_DS3505
ZBYN,1989-05-27 18:00,ZBYN 271800Z AUTO 11004KT 9SM 18/09 A2997 RMK SLP084 T01770088 40304//// 52001 IEM_DS3505
ZBYN,1989-05-27 20:00,ZBYN 272000Z AUTO 11006KT 6SM 15/08 A2997 RMK T01500080 IEM_DS3505
ZBYN,1989-05-27 21:00,ZBYN 272100Z AUTO 14006KT 9SM 16/09 RMK SLP096 T01570090 52008 IEM_DS3505
ZBYN,1989-05-28 00:00,ZBYN 280000Z AUTO 16006KT 6SM 19/10 A3000 RMK SLP113 T01870101 52012 IEM_DS3505
ZBYN,1989-05-28 01:00,ZBYN 280100Z AUTO 6SM A3003 RMK IEM_DS3505
ZBYN,1989-05-28 02:00,ZBYN 280200Z AUTO 23006KT 7SM 21/12 A3003 RMK T02100120 IEM_DS3505
ZBYN,1989-05-28 03:00,ZBYN 280300Z AUTO 16004KT 7SM 23/12 A3000 RMK SLP105 T02290118 57006 IEM_DS3505
ZBYN,1989-05-28 04:00,ZBYN 280400Z AUTO 21004KT 7SM 25/11 A3000 RMK T02500110 IEM_DS3505
ZBYN,1989-05-28 05:00,ZBYN 280500Z AUTO 14004KT 7SM 26/11 A2997 RMK T02600110 IEM_DS3505
ZBYN,1989-05-28 06:00,ZBYN 280600Z AUTO 14004KT 9SM 26/11 A2991 RMK SLP076 T02580108 4////0152 57027 IEM_DS3505
ZBYN,1989-05-28 07:00,ZBYN 280700Z AUTO 7SM 27/11 A2988 RMK T02700110 IEM_DS3505
ZBYN,1989-05-28 08:00,ZBYN 280800Z AUTO 18004KT 7SM 27/12 A2988 RMK T02700120 IEM_DS3505
ZBYN,1989-05-28 09:00,ZBYN 280900Z AUTO 02002KT 9SM 26/12 A2985 RMK SLP058 T02580125 57019 IEM_DS3505
ZBYN,1989-05-28 10:00,ZBYN 281000Z AUTO 06006KT 7SM 26/12 A2985 RMK T02600120 IEM_DS3505
ZBYN,1989-05-28 11:00,ZBYN 281100Z AUTO 33025KT 7SM A2997 RMK IEM_DS3505
ZBYN,1989-05-28 12:00,ZBYN 281200Z AUTO 00000KT 9SM 18/13 A2997 RMK 60016 SLP102 T01750129 52033 IEM_DS3505
ZBYN,1989-05-28 13:00,ZBYN 281300Z AUTO 08010KT 7SM 17/12 A2997 RMK T01700120 IEM_DS3505
ZBYN,1989-05-28 14:00,ZBYN 281400Z AUTO 34008KT 7SM 17/14 A3000 RMK T01700140 IEM_DS3505
ZBYN,1989-05-28 15:00,ZBYN 281500Z AUTO 36004KT 9SM 15/14 A3003 RMK SLP119 T01520144 52018 IEM_DS3505
ZBYN,1989-05-28 16:00,ZBYN 281600Z AUTO 08006KT 6SM 16/13 A3003 RMK T01600130 IEM_DS3505
ZBYN,1989-05-28 18:00,ZBYN 281800Z AUTO 36004KT 9SM 15/14 RMK 60004 SLP114 T01510136 40279//// 57001 IEM_DS3505
ZBYN,1989-05-28 21:00,ZBYN 282100Z AUTO 00000KT 9SM 14/12 RMK SLP113 T01400124 57002 IEM_DS3505
ZBYN,1989-05-28 22:00,ZBYN 282200Z AUTO 36006KT 4SM 14/12 A3003 RMK T01400120 IEM_DS3505
ZBYN,1989-05-28 23:00,ZBYN 282300Z AUTO 34006KT 7SM 15/13 A3003 RMK T01500130 IEM_DS3505
ZBYN,1989-05-29 00:00,ZBYN 290000Z AUTO 32002KT 7SM 17/14 A3003 RMK SLP136 T01710135 52013 IEM_DS3505
ZBYN,1989-05-29 02:00,ZBYN 290200Z AUTO 20006KT 6SM 22/13 A3006 RMK T02200130 IEM_DS3505
ZBYN,1989-05-29 03:00,ZBYN 290300Z AUTO 14004KT 9SM 23/13 A3006 RMK SLP132 T02280133 52002 IEM_DS3505
ZBYN,1989-05-29 05:00,ZBYN 290500Z AUTO 00000KT 6SM 24/12 A3006 RMK T02400120 IEM_DS3505
ZBYN,1989-05-29 06:00,ZBYN 290600Z AUTO 16006KT 12SM 25/11 A3003 RMK SLP115 T02520113 4////0133 57013 IEM_DS3505
ZBYN,1989-05-29 08:00,ZBYN 290800Z AUTO 17008KT 6SM 27/11 A3000 RMK T02700110 IEM_DS3505
ZBYN,1989-05-29 09:00,ZBYN 290900Z AUTO 00000KT 9SM 25/12 A2997 RMK SLP104 T02500125 57012 IEM_DS3505
ZBYN,1989-05-29 10:00,ZBYN 291000Z AUTO 29006KT 9SM 21/13 A2997 RMK SLP122 T02070133 52005 IEM_DS3505
ZBYN,1989-05-29 11:00,ZBYN 291100Z AUTO 32008KT 7SM 23/15 A2997 RMK T02300150 IEM_DS3505
ZBYN,1989-05-29 12:00,ZBYN 291200Z AUTO 29006KT 9SM 21/13 A3000 RMK SLP122 T02070133 52015 IEM_DS3505
ZBYN,1989-05-29 13:00,ZBYN 291300Z AUTO 12010KT 7SM 19/13 A3006 RMK T01900130 IEM_DS3505
ZBYN,1989-05-29 14:00,ZBYN 291400Z AUTO 09010KT 7SM 19/14 A3006 RMK T01900140 IEM_DS3505
ZBYN,1989-05-29 15:00,ZBYN 291500Z AUTO 14002KT 7SM 19/14 A3009 RMK SLP140 T01870142 52022 IEM_DS3505
ZBYN,1989-05-29 18:00,ZBYN 291800Z AUTO 00000KT 7SM 16/15 A3009 RMK SLP140 T01650148 54000 IEM_DS3505
ZBYN,1989-05-29 19:00,ZBYN 291900Z AUTO 09004KT 7SM 16/14 A3009 RMK T01600140 IEM_DS3505
ZBYN,1989-05-29 21:00,ZBYN 292100Z AUTO 34002KT 4SM 16/14 A3009 RMK SLP139 T01650141 57001 IEM_DS3505
ZBYN,1989-05-29 22:00,ZBYN 292200Z AUTO 00000KT 5SM 16/15 A3009 RMK T01600150 IEM_DS3505
ZBYN,1989-05-29 23:00,ZBYN 292300Z AUTO 00000KT 6SM 17/14 RMK T01700140 IEM_DS3505
ZBYN,1989-05-30 00:00,ZBYN 300000Z AUTO 00000KT 4SM 18/14 A3012 RMK SLP157 T01770136 52012 IEM_DS3505
ZBYN,1989-05-30 01:00,ZBYN 300100Z AUTO 00000KT 6SM 21/14 A3012 RMK T02100140 IEM_DS3505
ZBYN,1989-05-30 02:00,ZBYN 300200Z AUTO 15006KT 6SM 23/15 A3012 RMK T02300150 IEM_DS3505
ZBYN,1989-05-30 03:00,ZBYN 300300Z AUTO 16006KT 5SM 24/15 A3012 RMK SLP147 T02420147 57003 IEM_DS3505
ZBYN,1989-05-30 04:00,ZBYN 300400Z AUTO 19006KT 7SM 25/15 A3009 RMK T02500150 IEM_DS3505
ZBYN,1989-05-30 05:00,ZBYN 300500Z AUTO 23008KT 7SM 26/14 A3006 RMK T02600140 IEM_DS3505
ZBYN,1989-05-30 06:00,ZBYN 300600Z AUTO 18008KT 6SM 26/14 A3003 RMK SLP117 T02640135 4////0156 57027 IEM_DS3505
ZBYN,1989-05-30 07:00,ZBYN 300700Z AUTO 27006KT 7SM 26/13 A3003 RMK T02600130 IEM_DS3505
ZBYN,1989-05-30 09:00,ZBYN 300900Z AUTO 07004KT 12SM 25/12 A3000 RMK SLP108 T02540120 57010 IEM_DS3505
ZBYN,1989-05-30 10:00,ZBYN 301000Z AUTO 19004KT 7SM 25/13 A3000 RMK T02500130 IEM_DS3505
ZBYN,1989-05-30 12:00,ZBYN 301200Z AUTO 09004KT 11SM 24/13 A3003 RMK SLP117 T02350134 52007 IEM_DS3505
ZBYN,1989-05-30 13:00,ZBYN 301300Z AUTO 11012KT 7SM 22/14 A3003 RMK T02200140 IEM_DS3505
ZBYN,1989-05-30 14:00,ZBYN 301400Z AUTO 08006KT 6SM 21/13 A3003 RMK T02100130 IEM_DS3505
ZBYN,1989-05-30 15:00,ZBYN 301500Z AUTO 00000KT 9SM 18/14 A3003 RMK SLP122 T01820138 52007 IEM_DS3505
ZBYN,1989-05-30 16:00,ZBYN 301600Z AUTO 00000KT 6SM 18/14 A3003 RMK T01800140 IEM_DS3505
ZBYN,1989-05-30 18:00,ZBYN 301800Z AUTO 18002KT 9SM 17/14 A3003 RMK SLP109 T01710141 40270//// 57011 IEM_DS3505
ZBYN,1989-05-30 19:00,ZBYN 301900Z AUTO 13006KT 6SM 18/14 A3000 RMK T01800140 IEM_DS3505
ZBYN,1989-05-30 20:00,ZBYN 302000Z AUTO 12006KT 7SM 17/14 A3000 RMK T01700140 IEM_DS3505
ZBYN,1989-05-30 21:00,ZBYN 302100Z AUTO 00000KT 6SM 14/13 A3000 RMK SLP110 T01440130 57004 IEM_DS3505
ZBYN,1989-05-30 22:00,ZBYN 302200Z AUTO 00000KT 7SM 15/13 RMK T01500130 IEM_DS3505
ZBYN,1989-05-30 23:00,ZBYN 302300Z AUTO 00000KT 7SM 18/15 A3003 RMK T01800150 IEM_DS3505
ZBYN,1989-05-31 00:00,ZBYN 310000Z AUTO 14002KT 6SM 20/14 A3000 RMK SLP107 T01980140 52002 IEM_DS3505
ZBYN,1989-05-31 01:00,ZBYN 310100Z AUTO 00000KT 6SM 22/13 A3000 RMK T02200130 IEM_DS3505
ZBYN,1989-05-31 02:00,ZBYN 310200Z AUTO 18010KT 7SM 24/14 A3000 RMK T02400140 IEM_DS3505
ZBYN,1989-05-31 03:00,ZBYN 310300Z AUTO 18006KT 6SM 26/14 A2997 RMK SLP092 T02560145 57013 IEM_DS3505
ZBYN,1989-05-31 04:00,ZBYN 310400Z AUTO 20008KT 7SM 27/15 A2994 RMK T02700150 IEM_DS3505
ZBYN,1989-05-31 05:00,ZBYN 310500Z AUTO 21008KT 7SM 28/14 A2988 RMK T02800140 IEM_DS3505
ZBYN,1989-05-31 06:00,ZBYN 310600Z AUTO 00000KT 7SM 27/15 A2988 RMK SLP062 T02670149 4////0135 57027 IEM_DS3505
ZBYN,1989-05-31 07:00,ZBYN 310700Z AUTO 17010KT 7SM 27/08 A2985 RMK T02700080 IEM_DS3505
ZBYN,1989-05-31 08:00,ZBYN 310800Z AUTO 12010KT 7SM 23/13 A2988 RMK T02300130 IEM_DS3505
ZBYN,1989-05-31 09:00,ZBYN 310900Z AUTO 34004KT 7SM 22/15 RMK SLP073 T02190151 57001 IEM_DS3505
ZBYN,1989-05-31 10:00,ZBYN 311000Z AUTO 00000KT 7SM 23/16 A2985 RMK T02300160 IEM_DS3505
ZBYN,1989-05-31 11:00,ZBYN 311100Z AUTO 00000KT 7SM 23/17 A2985 RMK T02300170 IEM_DS3505
ZBYN,1989-05-31 12:00,ZBYN 311200Z AUTO 34002KT 7SM 22/16 A2988 RMK 60012 SLP072 T02190162 52007 IEM_DS3505
ZBYN,1989-05-31 13:00,ZBYN 311300Z AUTO 00000KT 6SM RMK IEM_DS3505
ZBYN,1989-05-31 14:00,ZBYN 311400Z AUTO 14008KT 7SM 21/15 A2994 RMK T02100150 IEM_DS3505
ZBYN,1989-05-31 15:00,ZBYN 311500Z AUTO 00000KT 7SM 19/16 A2994 RMK SLP086 T01940155 52017 IEM_DS3505
ZBYN,1989-05-31 16:00,ZBYN 311600Z AUTO 10004KT 6SM 19/14 A2994 RMK T01900140 IEM_DS3505
ZBYN,1989-05-31 18:00,ZBYN 311800Z AUTO 00000KT 9SM 16/14 A2994 RMK SLP090 T01610141 40290//// 52001 IEM_DS3505
ZBYN,1989-05-31 19:00,ZBYN 311900Z AUTO 00000KT 7SM 16/13 A2994 RMK T01600130 IEM_DS3505
ZBYN,1989-05-31 20:00,ZBYN 312000Z AUTO 33004KT 7SM 13/13 A2994 RMK T01300130 IEM_DS3505
ZBYN,1989-05-31 21:00,ZBYN 312100Z AUTO 32004KT 6SM 14/10 A2994 RMK SLP100 T01450105 54000 IEM_DS3505
ZBYN,1989-05-31 22:00,ZBYN 312200Z AUTO 00000KT 7SM 13/13 A2997 RMK T01300130 IEM_DS3505
ZBYN,1989-05-31 23:00,ZBYN 312300Z AUTO 00000KT 7SM 15/13 A2997 RMK T01500130 IEM_DS3505
ZBYN,1989-06-01 00:00,ZBYN 010000Z AUTO 00000KT 6SM 18/12 A2997 RMK SLP102 T01770125 52006 IEM_DS3505
ZBYN,1989-06-01 01:00,ZBYN 010100Z AUTO 00000KT 7SM 21/15 A3000 RMK T02100150 IEM_DS3505
ZBYN,1989-06-01 02:00,ZBYN 010200Z AUTO 00000KT 7SM 21/15 A3000 RMK T02100150 IEM_DS3505
ZBYN,1989-06-01 03:00,ZBYN 010300Z AUTO 18002KT 5SM 25/14 A2997 RMK SLP093 T02480135 57001 IEM_DS3505
ZBYN,1989-06-01 04:00,ZBYN 010400Z AUTO 29004KT 7SM 28/12 A2997 RMK T02800120 IEM_DS3505
ZBYN,1989-06-01 05:00,ZBYN 010500Z AUTO 21010KT 7SM 28/07 A2994 RMK T02800070 IEM_DS3505
ZBYN,1989-06-01 06:00,ZBYN 010600Z AUTO 22006KT 7SM 29/08 A2991 RMK SLP071 T02890076 4////0130 57019 IEM_DS3505
ZBYN,1989-06-01 07:00,ZBYN 010700Z AUTO 25010KT 7SM 30/06 A2991 RMK T03000060 IEM_DS3505
ZBYN,1989-06-01 08:00,ZBYN 010800Z AUTO 31008KT 7SM 31/03 A2988 RMK T03100030 IEM_DS3505
ZBYN,1989-06-01 09:00,ZBYN 010900Z AUTO 32004KT 16SM 29/M00 RMK SLP061 T02901005 57012 IEM_DS3505
ZBYN,1989-06-01 10:00,ZBYN 011000Z AUTO 32008KT 7SM 29/03 A2988 RMK T02900030 IEM_DS3505
ZBYN,1989-06-01 11:00,ZBYN 011100Z AUTO 32006KT 7SM 27/04 A2988 RMK T02700040 IEM_DS3505
ZBYN,1989-06-01 12:00,ZBYN 011200Z AUTO 32002KT 12SM 24/03 A2988 RMK SLP072 T02410026 52008 IEM_DS3505
ZBYN,1989-06-01 13:00,ZBYN 011300Z AUTO 00000KT 7SM 22/04 A2991 RMK T02200040 IEM_DS3505
ZBYN,1989-06-01 15:00,ZBYN 011500Z AUTO 00000KT 12SM 17/07 A2994 RMK SLP088 T01680070 52014 IEM_DS3505
ZBYN,1989-06-01 16:00,ZBYN 011600Z AUTO 00000KT 7SM 15/04 A2994 RMK T01500040 IEM_DS3505
ZBYN,1989-06-01 17:00,ZBYN 011700Z AUTO 00000KT 7SM 13/06 A2994 RMK T01300060 IEM_DS3505
ZBYN,1989-06-01 18:00,ZBYN 011800Z AUTO 00000KT 12SM 17/02 RMK SLP081 T01670023 40302//// 54000 IEM_DS3505
ZBYN,1989-06-01 21:00,ZBYN 012100Z AUTO 34004KT 12SM 15/01 RMK SLP084 T01510010 54000 IEM_DS3505
ZBYN,1989-06-01 22:00,ZBYN 012200Z AUTO 00000KT 7SM 11/04 A2994 RMK T01100040 IEM_DS3505
ZBYN,1989-06-01 23:00,ZBYN 012300Z AUTO 00000KT 6SM 14/06 A2994 RMK T01400060 IEM_DS3505
ZBYN,1989-06-02 00:00,ZBYN 020000Z AUTO 36002KT 6SM 19/04 A2997 RMK SLP091 T01860044 52005 IEM_DS3505
ZBYN,1989-06-02 01:00,ZBYN 020100Z AUTO 32006KT 7SM 22/02 A2997 RMK T02200020 IEM_DS3505
ZBYN,1989-06-02 03:00,ZBYN 020300Z AUTO 00000KT 9SM 27/06 A2994 RMK SLP083 T02680057 57006 IEM_DS3505
ZBYN,1989-06-02 04:00,ZBYN 020400Z AUTO 19004KT 6SM 30/07 A2991 RMK T03000070 IEM_DS3505
ZBYN,1989-06-02 05:00,ZBYN 020500Z AUTO 26004KT 6SM 30/07 A2988 RMK T03000070 IEM_DS3505
ZBYN,1989-06-02 06:00,ZBYN 020600Z AUTO 16006KT 9SM 30/10 A2985 RMK SLP049 T03020096 4////0122 57027 IEM_DS3505
ZBYN,1989-06-02 07:00,ZBYN 020700Z AUTO 21008KT 6SM 31/08 A2983 RMK T03100080 IEM_DS3505
ZBYN,1989-06-02 08:00,ZBYN 020800Z AUTO 22006KT 6SM 31/10 A2983 RMK T03100100 IEM_DS3505
ZBYN,1989-06-02 09:00,ZBYN 020900Z AUTO 16004KT 9SM 31/12 A2980 RMK SLP029 T03130123 57019 IEM_DS3505
ZBYN,1989-06-02 11:00,ZBYN 021100Z AUTO 14008KT 6SM 30/12 A2980 RMK T03000120 IEM_DS3505
ZBYN,1989-06-02 12:00,ZBYN 021200Z AUTO 11008KT 9SM 27/12 A2980 RMK SLP032 T02670123 52001 IEM_DS3505
ZBYN,1989-06-02 13:00,ZBYN 021300Z AUTO 09008KT 6SM 27/07 A2983 RMK T02700070 IEM_DS3505
ZBYN,1989-06-02 14:00,ZBYN 021400Z AUTO 10008KT 6SM 26/10 A2985 RMK T02600100 IEM_DS3505
ZBYN,1989-06-02 15:00,ZBYN 021500Z AUTO 11004KT 12SM 24/12 RMK SLP055 T02360115 52028 IEM_DS3505
ZBYN,1989-06-02 16:00,ZBYN 021600Z AUTO 09004KT 6SM 23/13 A2988 RMK T02300130 IEM_DS3505
ZBYN,1989-06-02 18:00,ZBYN 021800Z AUTO 11002KT 12SM 21/13 A2988 RMK SLP054 T02060134 40318//// 54000 IEM_DS3505
ZBYN,1989-06-02 19:00,ZBYN 021900Z AUTO 12006KT 6SM 21/14 A2988 RMK T02100140 IEM_DS3505
ZBYN,1989-06-02 20:00,ZBYN 022000Z AUTO 11004KT 6SM 20/14 A2988 RMK T02000140 IEM_DS3505
ZBYN,1989-06-02 21:00,ZBYN 022100Z AUTO 11002KT 12SM 18/14 A2985 RMK SLP046 T01800145 57009 IEM_DS3505
ZBYN,1989-06-02 22:00,ZBYN 022200Z AUTO 00000KT 6SM 20/14 A2985 RMK T02000140 IEM_DS3505
ZBYN,1989-06-02 23:00,ZBYN 022300Z AUTO 05004KT 6SM 21/15 A2988 RMK T02100150 IEM_DS3505
ZBYN,1989-06-03 00:00,ZBYN 030000Z AUTO 11004KT 9SM 22/16 RMK SLP049 T02250163 52002 IEM_DS3505
ZBYN,1989-06-03 01:00,ZBYN 030100Z AUTO 11006KT 6SM 23/15 A2985 RMK T02300150 IEM_DS3505
ZBYN,1989-06-03 02:00,ZBYN 030200Z AUTO 15008KT 6SM 26/13 A2985 RMK T02600130 IEM_DS3505
ZBYN,1989-06-03 03:00,ZBYN 030300Z AUTO 16006KT 6SM 28/15 A2983 RMK SLP036 T02760151 57009 IEM_DS3505
ZBYN,1989-06-03 04:00,ZBYN 030400Z AUTO 20006KT 6SM 28/14 A2985 RMK T02800140 IEM_DS3505
ZBYN,1989-06-03 05:00,ZBYN 030500Z AUTO 22008KT 6SM 28/14 A2983 RMK T02800140 IEM_DS3505
ZBYN,1989-06-03 06:00,ZBYN 030600Z AUTO 18004KT 7SM 29/15 A2980 RMK SLP022 T02880153 4////0177 57015 IEM_DS3505
ZBYN,1989-06-03 07:00,ZBYN 030700Z AUTO 22008KT 6SM 29/14 A2980 RMK T02900140 IEM_DS3505
ZBYN,1989-06-03 08:00,ZBYN 030800Z AUTO 17008KT 6SM 29/14 A2977 RMK T02900140 IEM_DS3505
ZBYN,1989-06-03 09:00,ZBYN 030900Z AUTO 16004KT 7SM 28/15 A2977 RMK SLP010 T02840152 57015 IEM_DS3505
ZBYN,1989-06-03 10:00,ZBYN 031000Z AUTO 19012KT 6SM 28/11 A2974 RMK T02800110 IEM_DS3505
ZBYN,1989-06-03 11:00,ZBYN 031100Z AUTO 23008KT 6SM 27/13 A2977 RMK T02700130 IEM_DS3505
ZBYN,1989-06-03 12:00,ZBYN 031200Z AUTO 00000KT 7SM 24/14 RMK SLP022 T02420143 52011 IEM_DS3505
ZBYN,1989-06-03 13:00,ZBYN 031300Z AUTO 16010KT 6SM 24/11 A2980 RMK T02400110 IEM_DS3505
ZBYN,1989-06-03 14:00,ZBYN 031400Z AUTO 17008KT 6SM 23/12 A2983 RMK T02300120 IEM_DS3505
ZBYN,1989-06-03 15:00,ZBYN 031500Z AUTO 18002KT 7SM 20/14 A2985 RMK SLP049 T02000142 52026 IEM_DS3505
ZBYN,1989-06-03 16:00,ZBYN 031600Z AUTO 17006KT 6SM 21/13 A2985 RMK T02100130 IEM_DS3505
ZBYN,1989-06-03 17:00,ZBYN 031700Z AUTO 13008KT 6SM 20/ A2983 RMK IEM_DS3505
ZBYN,1989-06-03 18:00,ZBYN 031800Z AUTO 14002KT 7SM 19/14 RMK SLP027 T01860137 40295//// 57020 IEM_DS3505
ZBYN,1989-06-03 19:00,ZBYN 031900Z AUTO 00000KT 6SM 18/13 A2980 RMK T01800130 IEM_DS3505
ZBYN,1989-06-03 20:00,ZBYN 032000Z AUTO 6SM 18/12 RMK T01800120 IEM_DS3505
ZBYN,1989-06-03 21:00,ZBYN 032100Z AUTO 00000KT 7SM 15/13 A2980 RMK SLP040 T01480129 52006 IEM_DS3505
ZBYN,1989-06-03 22:00,ZBYN 032200Z AUTO 11004KT 6SM 16/13 A2980 RMK T01600130 IEM_DS3505
ZBYN,1989-06-03 23:00,ZBYN 032300Z AUTO 00000KT 7SM 18/13 A2983 RMK T01800130 IEM_DS3505
ZBYN,1989-06-04 00:00,ZBYN 040000Z AUTO 18004KT 6SM 19/13 RMK SLP052 T01900133 52011 IEM_DS3505
ZBYN,1989-06-04 01:00,ZBYN 040100Z AUTO 21006KT 7SM 22/10 A2985 RMK T02200100 IEM_DS3505
ZBYN,1989-06-04 02:00,ZBYN 040200Z AUTO 18010KT 7SM 23/11 A2983 RMK T02300110 IEM_DS3505
ZBYN,1989-06-04 03:00,ZBYN 040300Z AUTO 16004KT 7SM 25/13 A2983 RMK SLP045 T02490132 57004 IEM_DS3505
ZBYN,1989-06-04 04:00,ZBYN 040400Z AUTO 23006KT 6SM 27/13 A2983 RMK T02700130 IEM_DS3505
ZBYN,1989-06-04 05:00,ZBYN 040500Z AUTO 20008KT 7SM 27/12 RMK T02700120 IEM_DS3505
ZBYN,1989-06-04 06:00,ZBYN 040600Z AUTO 22004KT 7SM 25/15 A2983 RMK SLP040 T02480151 4////0145 57007 IEM_DS3505
ZBYN,1989-06-04 07:00,ZBYN 040700Z AUTO 20012KT 7SM 25/14 A2980 RMK T02500140 IEM_DS3505
ZBYN,1989-06-04 08:00,ZBYN 040800Z AUTO 16006KT 7SM 26/14 A2977 RMK T02600140 IEM_DS3505
ZBYN,1989-06-04 09:00,ZBYN 040900Z AUTO 18002KT 12SM 28/16 A2974 RMK SLP027 T02760157 57013 IEM_DS3505
ZBYN,1989-06-04 10:00,ZBYN 041000Z AUTO 11006KT 7SM 28/15 A2974 RMK T02800150 IEM_DS3505
ZBYN,1989-06-04 11:00,ZBYN 041100Z AUTO 21004KT 7SM 27/15 A2974 RMK T02700150 IEM_DS3505
ZBYN,1989-06-04 12:00,ZBYN 041200Z AUTO 25004KT 12SM 25/16 A2977 RMK SLP023 T02480162 57002 IEM_DS3505
ZBYN,1989-06-04 14:00,ZBYN 041400Z AUTO 08004KT 6SM 21/14 A2980 RMK T02100140 IEM_DS3505
ZBYN,1989-06-04 15:00,ZBYN 041500Z AUTO 00000KT 9SM 20/13 A2980 RMK SLP032 T01980129 52010 IEM_DS3505
ZBYN,1989-06-04 17:00,ZBYN 041700Z AUTO 00000KT 7SM 18/13 A2983 RMK T01800130 IEM_DS3505
ZBYN,1989-06-04 18:00,ZBYN 041800Z AUTO 00000KT 9SM 16/13 RMK SLP044 T01570131 52005 IEM_DS3505
ZBYN,1989-06-04 20:00,ZBYN 042000Z AUTO 00000KT 7SM 18/13 A2983 RMK T01800130 IEM_DS3505
ZBYN,1989-06-04 21:00,ZBYN 042100Z AUTO 00000KT 6SM 14/12 A2985 RMK SLP052 T01380124 52008 IEM_DS3505
ZBYN,1989-06-04 22:00,ZBYN 042200Z AUTO 06006KT 7SM 14/11 A2985 RMK T01400110 IEM_DS3505
ZBYN,1989-06-04 23:00,ZBYN 042300Z AUTO 00000KT 6SM 16/13 A2988 RMK T01600130 IEM_DS3505
ZBYN,1989-06-05 00:00,ZBYN 050000Z AUTO 00000KT 5SM 21/15 A2988 RMK SLP057 T02100146 52011 IEM_DS3505
ZBYN,1989-06-05 01:00,ZBYN 050100Z AUTO 00000KT 6SM 24/12 A2988 RMK T02400120 IEM_DS3505
ZBYN,1989-06-05 02:00,ZBYN 050200Z AUTO 28004KT 6SM 27/09 A2988 RMK T02700090 IEM_DS3505
ZBYN,1989-06-05 03:00,ZBYN 050300Z AUTO 04004KT 5SM 29/10 A2988 RMK SLP051 T02900099 57001 IEM_DS3505
ZBYN,1989-06-05 04:00,ZBYN 050400Z AUTO 33006KT 6SM 30/07 A2985 RMK T03000070 IEM_DS3505
ZBYN,1989-06-05 05:00,ZBYN 050500Z AUTO 31004KT 6SM 29/07 A2985 RMK T02900070 IEM_DS3505
ZBYN,1989-06-05 06:00,ZBYN 050600Z AUTO 18004KT 6SM 29/09 A2983 RMK SLP048 T02940090 4////0124 IEM_DS3505
ZBYN,1989-06-05 07:00,ZBYN 050700Z AUTO 17006KT 6SM 28/09 A2983 RMK T02800090 IEM_DS3505
ZBYN,1989-06-05 08:00,ZBYN 050800Z AUTO 17006KT 6SM 30/10 A2980 RMK T03000100 IEM_DS3505
ZBYN,1989-06-05 09:00,ZBYN 050900Z AUTO 32004KT 7SM 28/07 A2980 RMK SLP037 T02850070 57014 IEM_DS3505
ZBYN,1989-06-05 10:00,ZBYN 051000Z AUTO 07014KT 7SM 28/04 A2980 RMK T02800040 IEM_DS3505
ZBYN,1989-06-05 11:00,ZBYN 051100Z AUTO 08016KT 7SM 27/09 A2980 RMK T02700090 IEM_DS3505
ZBYN,1989-06-05 12:00,ZBYN 051200Z AUTO 04004KT 7SM 26/10 A2980 RMK SLP038 T02610098 52007 IEM_DS3505
ZBYN,1989-06-05 13:00,ZBYN 051300Z AUTO 07012KT 6SM 25/11 A2983 RMK T02500110 IEM_DS3505
ZBYN,1989-06-05 14:00,ZBYN 051400Z AUTO 07012KT 7SM A2985 RMK IEM_DS3505
ZBYN,1989-06-05 15:00,ZBYN 051500Z AUTO 29004KT 5SM 19/16 A2988 RMK SLP067 T01860164 52028 IEM_DS3505
ZBYN,1989-06-05 16:00,ZBYN 051600Z AUTO 08010KT 7SM 17/16 A2991 RMK T01700160 IEM_DS3505
ZBYN,1989-06-05 18:00,ZBYN 051800Z AUTO 29004KT 6SM 19/14 A2988 RMK 60079 SLP064 T01900144 40308//// 57002 IEM_DS3505
ZBYN,1989-06-05 19:00,ZBYN 051900Z AUTO 7SM 12/11 A2991 RMK T01200110 IEM_DS3505
ZBYN,1989-06-05 21:00,ZBYN 052100Z AUTO 34006KT 6SM 16/13 A2991 RMK SLP074 T01650129 52004 IEM_DS3505
ZBYN,1989-06-05 22:00,ZBYN 052200Z AUTO 04006KT 6SM 18/13 A2991 RMK T01800130 IEM_DS3505
ZBYN,1989-06-06 00:00,ZBYN 060000Z AUTO 02004KT 6SM 19/12 A2991 RMK SLP068 T01880117 57005 IEM_DS3505
ZBYN,1989-06-06 01:00,ZBYN 060100Z AUTO 09016KT 7SM 19/13 A2991 RMK T01900130 IEM_DS3505
ZBYN,1989-06-06 02:00,ZBYN 060200Z AUTO 07016KT 7SM 19/13 A2991 RMK T01900130 IEM_DS3505
ZBYN,1989-06-06 03:00,ZBYN 060300Z AUTO 07006KT 7SM 20/13 RMK SLP085 T02030127 52007 IEM_DS3505
ZBYN,1989-06-06 06:00,ZBYN 060600Z AUTO 07010KT 7SM 21/14 RMK SLP074 T02090140 4////0161 57009 IEM_DS3505
ZBYN,1989-06-06 09:00,ZBYN 060900Z AUTO 36006KT 7SM 20/14 RMK SLP072 T02020135 57006 IEM_DS3505
ZBYN,1989-06-06 12:00,ZBYN 061200Z AUTO 00000KT 7SM 19/13 A2991 RMK SLP077 T01880130 52006 IEM_DS3505
ZBYN,1989-06-06 13:00,ZBYN 061300Z AUTO 09014KT 6SM 17/12 A2991 RMK T01700120 IEM_DS3505
ZBYN,1989-06-06 14:00,ZBYN 061400Z AUTO 09010KT 6SM 17/12 A2994 RMK T01700120 IEM_DS3505
ZBYN,1989-06-06 15:00,ZBYN 061500Z AUTO 00000KT 6SM 17/13 A2994 RMK SLP095 T01730127 52016 IEM_DS3505
ZBYN,1989-06-06 16:00,ZBYN 061600Z AUTO 09012KT 6SM 16/12 A2994 RMK T01600120 IEM_DS3505
ZBYN,1989-06-06 17:00,ZBYN 061700Z AUTO 06010KT 6SM 16/12 A2994 RMK T01600120 IEM_DS3505
ZBYN,1989-06-06 18:00,ZBYN 061800Z AUTO 00000KT 6SM 17/13 RMK SLP086 T01680127 40216//// 57008 IEM_DS3505
ZBYN,1989-06-06 19:00,ZBYN 061900Z AUTO 06008KT 6SM 16/12 A2994 RMK T01600120 IEM_DS3505
ZBYN,1989-06-06 21:00,ZBYN 062100Z AUTO 00000KT 5SM 15/14 A2988 RMK SLP083 T01500138 57006 IEM_DS3505
ZBYN,1989-06-06 22:00,ZBYN 062200Z AUTO 03006KT 7SM 15/12 A2988 RMK T01500120 IEM_DS3505
ZBYN,1989-06-07 00:00,ZBYN 070000Z AUTO 00000KT 5SM 16/13 A2988 RMK 60002 SLP080 T01580132 57004 IEM_DS3505
ZBYN,1989-06-07 02:00,ZBYN 070200Z AUTO 02004KT 7SM 17/13 A2985 RMK T01700130 IEM_DS3505
ZBYN,1989-06-07 03:00,ZBYN 070300Z AUTO 02006KT 6SM 16/13 A2988 RMK SLP078 T01580129 57004 IEM_DS3505
ZBYN,1989-06-07 04:00,ZBYN 070400Z AUTO 34008KT 7SM 16/14 A2985 RMK T01600140 IEM_DS3505
ZBYN,1989-06-07 05:00,ZBYN 070500Z AUTO 35008KT 7SM 15/13 A2985 RMK T01500130 IEM_DS3505
ZBYN,1989-06-07 06:00,ZBYN 070600Z AUTO 32002KT 4SM 14/14 RMK 60028 SLP073 T01420137 4////0141 57007 IEM_DS3505
ZBYN,1989-06-07 07:00,ZBYN 070700Z AUTO 01008KT 4SM 14/13 A2985 RMK T01400130 IEM_DS3505
ZBYN,1989-06-07 08:00,ZBYN 070800Z AUTO 34008KT 5SM 14/14 A2983 RMK T01400140 IEM_DS3505
ZBYN,1989-06-07 09:00,ZBYN 070900Z AUTO 02002KT 4SM 14/14 A2985 RMK SLP077 T01380135 54000 IEM_DS3505
ZBYN,1989-06-07 10:00,ZBYN 071000Z AUTO 31004KT 4SM 14/14 A2985 RMK T01400140 IEM_DS3505
ZBYN,1989-06-07 11:00,ZBYN 071100Z AUTO 00000KT 4SM 14/14 A2983 RMK T01400140 IEM_DS3505
ZBYN,1989-06-07 12:00,ZBYN 071200Z AUTO 00000KT 3SM 14/14 A2983 RMK 60079 SLP075 T01400138 54000 IEM_DS3505
ZBYN,1989-06-07 13:00,ZBYN 071300Z AUTO 32006KT 4SM 14/14 A2985 RMK T01400140 IEM_DS3505
ZBYN,1989-06-07 14:00,ZBYN 071400Z AUTO 00000KT 6SM 14/14 A2985 RMK T01400140 IEM_DS3505
ZBYN,1989-06-07 15:00,ZBYN 071500Z AUTO 36002KT 4SM 14/14 A2985 RMK SLP074 T01420139 57001 IEM_DS3505
ZBYN,1989-06-07 18:00,ZBYN 071800Z AUTO 27004KT 6SM 14/14 RMK 60008 SLP075 T01380135 40169//// 57002 IEM_DS3505
ZBYN,1989-06-07 21:00,ZBYN 072100Z AUTO 00000KT 2SM 13/13 A2985 RMK SLP076 T01300128 57001 IEM_DS3505
ZBYN,1989-06-07 22:00,ZBYN 072200Z AUTO 00000KT 1/8SM 13/13 A2985 RMK T01300130 IEM_DS3505
ZBYN,1989-06-07 23:00,ZBYN 072300Z AUTO 20004KT 1/8SM 13/13 A2985 RMK T01300130 IEM_DS3505
ZBYN,1989-06-08 00:00,ZBYN 080000Z AUTO 00000KT 5SM 16/15 A2985 RMK SLP078 T01650150 52007 IEM_DS3505
ZBYN,1989-06-08 01:00,ZBYN 080100Z AUTO 24006KT 7SM 18/15 A2988 RMK T01800150 IEM_DS3505
ZBYN,1989-06-08 02:00,ZBYN 080200Z AUTO 23006KT 7SM 19/15 A2988 RMK T01900150 IEM_DS3505
ZBYN,1989-06-08 03:00,ZBYN 080300Z AUTO 18004KT 5SM 20/16 A2988 RMK SLP075 T02000155 52003 IEM_DS3505
ZBYN,1989-06-08 04:00,ZBYN 080400Z AUTO 24012KT 7SM 22/16 A2988 RMK T02200160 IEM_DS3505
ZBYN,1989-06-08 05:00,ZBYN 080500Z AUTO 29010KT 7SM 24/17 A2988 RMK T02400170 IEM_DS3505
ZBYN,1989-06-08 06:00,ZBYN 080600Z AUTO 22006KT 6SM 24/16 A2988 RMK SLP068 T02390162 4////0111 57001 IEM_DS3505
ZBYN,1989-06-08 07:00,ZBYN 080700Z AUTO 26008KT 6SM 25/17 A2988 RMK T02500170 IEM_DS3505
ZBYN,1989-06-08 08:00,ZBYN 080800Z AUTO 24010KT 7SM 25/16 A2988 RMK T02500160 IEM_DS3505
ZBYN,1989-06-08 09:00,ZBYN 080900Z AUTO 20002KT 12SM 24/17 A2988 RMK SLP071 T02400170 52001 IEM_DS3505
ZBYN,1989-06-08 10:00,ZBYN 081000Z AUTO 22004KT 6SM 24/17 A2985 RMK T02400170 IEM_DS3505
ZBYN,1989-06-08 11:00,ZBYN 081100Z AUTO 00000KT 6SM 23/19 A2988 RMK T02300190 IEM_DS3505
ZBYN,1989-06-08 12:00,ZBYN 081200Z AUTO 00000KT 12SM 21/17 A2988 RMK SLP079 T02140170 52009 IEM_DS3505
ZBYN,1989-06-08 13:00,ZBYN 081300Z AUTO 00000KT 6SM 21/18 A2988 RMK T02100180 IEM_DS3505
ZBYN,1989-06-08 14:00,ZBYN 081400Z AUTO 00000KT 6SM 20/18 A2991 RMK T02000180 IEM_DS3505
ZBYN,1989-06-08 15:00,ZBYN 081500Z AUTO 00000KT 9SM 19/15 A2991 RMK SLP083 T01880147 52005 IEM_DS3505
ZBYN,1989-06-08 16:00,ZBYN 081600Z AUTO 00000KT 6SM 19/16 A2991 RMK T01900160 IEM_DS3505
ZBYN,1989-06-08 18:00,ZBYN 081800Z AUTO 00000KT 9SM 18/16 RMK SLP085 T01790160 40252//// 52006 IEM_DS3505
ZBYN,1989-06-08 21:00,ZBYN 082100Z AUTO 00000KT 5SM 16/15 A2994 RMK SLP093 T01640152 52005 IEM_DS3505
ZBYN,1989-06-08 22:00,ZBYN 082200Z AUTO 12004KT 7SM 17/15 A2994 RMK T01700150 IEM_DS3505
ZBYN,1989-06-09 00:00,ZBYN 090000Z AUTO 00000KT 4SM 19/17 RMK SLP100 T01880167 52006 IEM_DS3505
ZBYN,1989-06-09 03:00,ZBYN 090300Z AUTO 11002KT 6SM 24/16 RMK SLP095 T02360160 57001 IEM_DS3505
ZBYN,1989-06-09 04:00,ZBYN 090400Z AUTO 18002KT 6SM 25/16 A2997 RMK T02500160 IEM_DS3505
ZBYN,1989-06-09 05:00,ZBYN 090500Z AUTO 20006KT 7SM A2994 RMK IEM_DS3505
ZBYN,1989-06-09 06:00,ZBYN 090600Z AUTO 20002KT 6SM 26/26 A2991 RMK T02620256 4////0158 57013 IEM_DS3505
ZBYN,1989-06-09 07:00,ZBYN 090700Z AUTO 26008KT 7SM 27/16 A2991 RMK T02700160 IEM_DS3505
ZBYN,1989-06-09 09:00,ZBYN 090900Z AUTO 34006KT 9SM 26/10 A2991 RMK SLP081 T02620104 54000 IEM_DS3505
ZBYN,1989-06-09 10:00,ZBYN 091000Z AUTO 02010KT 7SM 25/11 A2994 RMK T02500110 IEM_DS3505
ZBYN,1989-06-09 11:00,ZBYN 091100Z AUTO 09008KT 7SM 22/14 A2994 RMK T02200140 IEM_DS3505
ZBYN,1989-06-09 12:00,ZBYN 091200Z AUTO 25006KT 7SM 22/13 A2997 RMK SLP102 T02200128 52017 IEM_DS3505
ZBYN,1989-06-09 13:00,ZBYN 091300Z AUTO 00000KT 7SM 20/15 A3000 RMK T02000150 IEM_DS3505
ZBYN,1989-06-09 15:00,ZBYN 091500Z AUTO 09006KT 9SM 19/13 A3000 RMK SLP108 T01920129 52008 IEM_DS3505
ZBYN,1989-06-09 16:00,ZBYN 091600Z AUTO 04010KT 7SM 20/13 A2997 RMK T02000130 IEM_DS3505
ZBYN,1989-06-09 18:00,ZBYN 091800Z AUTO 07002KT 9SM 17/15 RMK SLP101 T01730146 40274//// 57005 IEM_DS3505
ZBYN,1989-06-09 20:00,ZBYN 092000Z AUTO 29004KT 6SM 17/14 A2997 RMK T01700140 IEM_DS3505
ZBYN,1989-06-09 21:00,ZBYN 092100Z AUTO 00000KT 6SM 17/15 A3000 RMK SLP100 T01700150 57001 IEM_DS3505
ZBYN,1989-06-09 22:00,ZBYN 092200Z AUTO 12004KT 6SM 16/15 A3000 RMK T01600150 IEM_DS3505
ZBYN,1989-06-09 23:00,ZBYN 092300Z AUTO 00000KT 6SM 17/15 A3003 RMK T01700150 IEM_DS3505
ZBYN,1989-06-10 00:00,ZBYN 100000Z AUTO 00000KT 6SM 19/14 A3000 RMK SLP115 T01880140 52009 IEM_DS3505
ZBYN,1989-06-10 01:00,ZBYN 100100Z AUTO 00000KT 6SM 22/16 A3000 RMK T02200160 IEM_DS3505
ZBYN,1989-06-10 02:00,ZBYN 100200Z AUTO 15004KT 7SM 23/15 A3003 RMK T02300150 IEM_DS3505
ZBYN,1989-06-10 03:00,ZBYN 100300Z AUTO 11004KT 9SM 24/14 A2997 RMK SLP104 T02410144 57006 IEM_DS3505
ZBYN,1989-06-10 04:00,ZBYN 100400Z AUTO 22004KT 7SM 25/15 A2997 RMK T02500150 IEM_DS3505
ZBYN,1989-06-10 06:00,ZBYN 100600Z AUTO 00000KT 16SM 27/14 A2991 RMK SLP078 T02700145 4////0157 57022 IEM_DS3505
ZBYN,1989-06-10 07:00,ZBYN 100700Z AUTO 07012KT 7SM 26/15 A2988 RMK T02600150 IEM_DS3505
ZBYN,1989-06-10 08:00,ZBYN 100800Z AUTO 07010KT 7SM 27/13 A2988 RMK T02700130 IEM_DS3505
ZBYN,1989-06-10 09:00,ZBYN 100900Z AUTO 11006KT 9SM 26/16 A2988 RMK SLP061 T02590155 57017 IEM_DS3505
ZBYN,1989-06-10 10:00,ZBYN 101000Z AUTO 08014KT 7SM 25/14 A2985 RMK T02500140 IEM_DS3505
ZBYN,1989-06-10 11:00,ZBYN 101100Z AUTO 09016KT 7SM 24/14 A2988 RMK T02400140 IEM_DS3505
ZBYN,1989-06-10 12:00,ZBYN 101200Z AUTO 09008KT 12SM 23/15 A2988 RMK SLP066 T02300147 52003 IEM_DS3505
ZBYN,1989-06-10 13:00,ZBYN 101300Z AUTO 09014KT 7SM 22/16 A2991 RMK T02200160 IEM_DS3505
ZBYN,1989-06-10 14:00,ZBYN 101400Z AUTO 09014KT 7SM 21/16 A2994 RMK T02100160 IEM_DS3505
ZBYN,1989-06-10 15:00,ZBYN 101500Z AUTO 11016KT 9SM 20/15 A2994 RMK SLP088 T02050151 52024 IEM_DS3505
ZBYN,1989-06-10 16:00,ZBYN 101600Z AUTO 09017KT 6SM 19/15 A2997 RMK T01900150 IEM_DS3505
ZBYN,1989-06-10 18:00,ZBYN 101800Z AUTO 09004KT 9SM 19/13 A2997 RMK SLP095 T01880134 40281//// 52007 IEM_DS3505
ZBYN,1989-06-10 20:00,ZBYN 102000Z AUTO 00000KT 7SM 17/14 A2997 RMK T01700140 IEM_DS3505
ZBYN,1989-06-10 21:00,ZBYN 102100Z AUTO 00000KT 6SM 15/14 RMK SLP104 T01540137 52002 IEM_DS3505
ZBYN,1989-06-10 23:00,ZBYN 102300Z AUTO 09004KT 6SM 17/14 A2997 RMK T01700140 IEM_DS3505
ZBYN,1989-06-11 00:00,ZBYN 110000Z AUTO 11004KT 6SM 19/15 A3000 RMK SLP107 T01860146 52003 IEM_DS3505
ZBYN,1989-06-11 01:00,ZBYN 110100Z AUTO 12006KT 6SM 20/14 A3000 RMK T02000140 IEM_DS3505
ZBYN,1989-06-11 02:00,ZBYN 110200Z AUTO 10004KT 6SM 22/14 A3000 RMK T02200140 IEM_DS3505
ZBYN,1989-06-11 03:00,ZBYN 110300Z AUTO 00000KT 7SM 22/14 A2997 RMK SLP104 T02190136 57002 IEM_DS3505
ZBYN,1989-06-11 04:00,ZBYN 110400Z AUTO 16010KT 7SM 23/13 A3000 RMK T02300130 IEM_DS3505
ZBYN,1989-06-11 05:00,ZBYN 110500Z AUTO 18008KT 7SM 24/13 A2997 RMK T02400130 IEM_DS3505
ZBYN,1989-06-11 06:00,ZBYN 110600Z AUTO 20006KT 12SM 24/13 A2994 RMK SLP085 T02380128 4////0145 57017 IEM_DS3505
ZBYN,1989-06-11 07:00,ZBYN 110700Z AUTO 18014KT 7SM 26/13 A2991 RMK T02600130 IEM_DS3505
ZBYN,1989-06-11 08:00,ZBYN 110800Z AUTO 11010KT 6SM 25/17 A2988 RMK T02500170 IEM_DS3505
ZBYN,1989-06-11 09:00,ZBYN 110900Z AUTO 11004KT 7SM 24/16 A2988 RMK SLP070 T02350157 57019 IEM_DS3505
ZBYN,1989-06-11 10:00,ZBYN 111000Z AUTO 09012KT 7SM 22/16 A2988 RMK T02200160 IEM_DS3505
ZBYN,1989-06-11 11:00,ZBYN 111100Z AUTO 09008KT 7SM 22/15 A2985 RMK T02200150 IEM_DS3505
ZBYN,1989-06-11 12:00,ZBYN 111200Z AUTO 16004KT 6SM 21/16 A2991 RMK SLP077 T02060156 52007 IEM_DS3505
ZBYN,1989-06-11 13:00,ZBYN 111300Z AUTO 11006KT 5SM 18/17 A2991 RMK T01800170 IEM_DS3505
ZBYN,1989-06-11 14:00,ZBYN 111400Z AUTO 11008KT 5SM 18/17 A2994 RMK T01800170 IEM_DS3505
ZBYN,1989-06-11 15:00,ZBYN 111500Z AUTO 00000KT 6SM 17/17 A2991 RMK SLP087 T01710168 52009 IEM_DS3505
ZBYN,1989-06-11 17:00,ZBYN 111700Z AUTO 10006KT 4SM 17/16 A2991 RMK T01700160 IEM_DS3505
ZBYN,1989-06-11 18:00,ZBYN 111800Z AUTO 00000KT 6SM 17/16 RMK 60024 SLP077 T01680165 40255//// 57007 IEM_DS3505
ZBYN,1989-06-11 19:00,ZBYN 111900Z AUTO 00000KT 4SM 17/16 A2988 RMK T01700160 IEM_DS3505
ZBYN,1989-06-11 20:00,ZBYN 112000Z AUTO 31004KT 7SM 17/16 A2988 RMK T01700160 IEM_DS3505
ZBYN,1989-06-11 21:00,ZBYN 112100Z AUTO 00000KT 5SM 17/16 A2988 RMK SLP069 T01730163 57007 IEM_DS3505
ZBYN,1989-06-11 22:00,ZBYN 112200Z AUTO 09004KT 4SM 18/16 A2988 RMK T01800160 IEM_DS3505
ZBYN,1989-06-11 23:00,ZBYN 112300Z AUTO 10008KT 7SM 17/16 A2991 RMK T01700160 IEM_DS3505
ZBYN,1989-06-12 00:00,ZBYN 120000Z AUTO 00000KT 5SM 18/16 A2991 RMK SLP083 T01760165 52009 IEM_DS3505
ZBYN,1989-06-12 01:00,ZBYN 120100Z AUTO 07006KT 7SM 19/16 A2991 RMK T01900160 IEM_DS3505
ZBYN,1989-06-12 02:00,ZBYN 120200Z AUTO 08010KT 7SM 20/16 A2991 RMK T02000160 IEM_DS3505
ZBYN,1989-06-12 03:00,ZBYN 120300Z AUTO 09006KT 5SM 20/16 A2991 RMK SLP081 T02010161 57003 IEM_DS3505
ZBYN,1989-06-12 04:00,ZBYN 120400Z AUTO 07010KT 7SM 21/16 A2991 RMK T02100160 IEM_DS3505
ZBYN,1989-06-12 05:00,ZBYN 120500Z AUTO 09010KT 7SM 21/16 A2991 RMK T02100160 IEM_DS3505
ZBYN,1989-06-12 06:00,ZBYN 120600Z AUTO 11006KT 6SM 20/16 A2988 RMK SLP076 T02050158 4////0160 57005 IEM_DS3505
ZBYN,1989-06-12 09:00,ZBYN 120900Z AUTO 11014KT 6SM 20/15 RMK SLP071 T01980154 57004 IEM_DS3505
ZBYN,1989-06-12 10:00,ZBYN 121000Z AUTO 10014KT 7SM 19/15 A2988 RMK T01900150 IEM_DS3505
ZBYN,1989-06-12 11:00,ZBYN 121100Z AUTO 09012KT 7SM 18/15 A2988 RMK T01800150 IEM_DS3505
ZBYN,1989-06-12 12:00,ZBYN 121200Z AUTO 11008KT 5SM 18/15 A2988 RMK SLP081 T01800147 52007 IEM_DS3505
ZBYN,1989-06-12 13:00,ZBYN 121300Z AUTO 10010KT 7SM 17/15 A2988 RMK T01700150 IEM_DS3505
ZBYN,1989-06-12 14:00,ZBYN 121400Z AUTO 08006KT 7SM 18/15 A2991 RMK T01800150 IEM_DS3505
ZBYN,1989-06-12 15:00,ZBYN 121500Z AUTO 00000KT 5SM 16/16 A2991 RMK SLP086 T01640159 52005 IEM_DS3505
ZBYN,1989-06-12 17:00,ZBYN 121700Z AUTO 08010KT 4SM 18/14 A2991 RMK T01800140 IEM_DS3505
ZBYN,1989-06-12 18:00,ZBYN 121800Z AUTO 36004KT 4SM 17/15 A2988 RMK 60004 SLP077 T01700154 40221//// 57006 IEM_DS3505
ZBYN,1989-06-12 19:00,ZBYN 121900Z AUTO 07012KT 5SM 17/14 A2988 RMK T01700140 IEM_DS3505
ZBYN,1989-06-12 21:00,ZBYN 122100Z AUTO 00000KT 5SM 16/15 A2985 RMK 70004 SLP066 T01650150 57012 IEM_DS3505
ZBYN,1989-06-12 22:00,ZBYN 122200Z AUTO 06006KT 7SM 17/15 RMK T01700150 IEM_DS3505
ZBYN,1989-06-12 23:00,ZBYN 122300Z AUTO 07006KT 7SM 16/15 A2985 RMK T01600150 IEM_DS3505
ZBYN,1989-06-13 00:00,ZBYN 130000Z AUTO 36002KT 4SM 16/15 A2985 RMK 60016 SLP074 T01620154 52004 IEM_DS3505
ZBYN,1989-06-13 02:00,ZBYN 130200Z AUTO 06006KT 7SM 17/15 A2985 RMK T01700150 IEM_DS3505
ZBYN,1989-06-13 03:00,ZBYN 130300Z AUTO 32004KT 4SM 16/16 A2983 RMK SLP066 T01640159 57009 IEM_DS3505
ZBYN,1989-06-13 04:00,ZBYN 130400Z AUTO 06006KT 7SM 16/15 A2983 RMK T01600150 IEM_DS3505
ZBYN,1989-06-13 05:00,ZBYN 130500Z AUTO 09008KT 7SM 16/14 A2985 RMK T01600140 IEM_DS3505
ZBYN,1989-06-13 06:00,ZBYN 130600Z AUTO 07002KT 5SM 16/14 A2985 RMK 60035 SLP063 T01560143 4////0154 57003 IEM_DS3505
ZBYN,1989-06-13 07:00,ZBYN 130700Z AUTO 07008KT 7SM 15/14 A2983 RMK T01500140 IEM_DS3505
ZBYN,1989-06-13 08:00,ZBYN 130800Z AUTO 07006KT 7SM 15/14 A2983 RMK T01500140 IEM_DS3505
ZBYN,1989-06-13 09:00,ZBYN 130900Z AUTO 00000KT 5SM 15/15 A2983 RMK SLP063 T01540146 57001 IEM_DS3505
ZBYN,1989-06-13 10:00,ZBYN 131000Z AUTO 07004KT 7SM 15/13 A2983 RMK T01500130 IEM_DS3505
ZBYN,1989-06-13 11:00,ZBYN 131100Z AUTO 00000KT 7SM 15/14 A2983 RMK T01500140 IEM_DS3505
ZBYN,1989-06-13 12:00,ZBYN 131200Z AUTO 34004KT 9SM 15/14 A2983 RMK 60035 SLP067 T01530141 52003 IEM_DS3505
ZBYN,1989-06-13 13:00,ZBYN 131300Z AUTO 00000KT 5SM 15/15 A2983 RMK T01500150 IEM_DS3505
ZBYN,1989-06-13 14:00,ZBYN 131400Z AUTO 00000KT 6SM 15/15 A2983 RMK T01500150 IEM_DS3505
ZBYN,1989-06-13 15:00,ZBYN 131500Z AUTO 00000KT 7SM 15/14 A2983 RMK SLP068 T01480140 54000 IEM_DS3505
ZBYN,1989-06-13 18:00,ZBYN 131800Z AUTO 16004KT 7SM 14/13 A2980 RMK SLP058 T01380131 40169//// 57011 IEM_DS3505
ZBYN,1989-06-13 19:00,ZBYN 131900Z AUTO 00000KT 4SM 14/13 A2983 RMK T01400130 IEM_DS3505
ZBYN,1989-06-13 20:00,ZBYN 132000Z AUTO 15004KT 4SM 13/13 A2983 RMK T01300130 IEM_DS3505
ZBYN,1989-06-13 21:00,ZBYN 132100Z AUTO 00000KT 4SM 12/12 A2983 RMK SLP065 T01250121 52004 IEM_DS3505
ZBYN,1989-06-13 23:00,ZBYN 132300Z AUTO 00000KT 4SM 14/14 A2985 RMK T01400140 IEM_DS3505
ZBYN,1989-06-14 00:00,ZBYN 140000Z AUTO 00000KT 3SM 14/13 A2985 RMK SLP070 T01410134 52007 IEM_DS3505
ZBYN,1989-06-14 02:00,ZBYN 140200Z AUTO 00000KT 7SM 17/15 A2985 RMK T01700150 IEM_DS3505
ZBYN,1989-06-14 03:00,ZBYN 140300Z AUTO 04002KT 5SM 18/14 A2985 RMK SLP069 T01780145 52003 IEM_DS3505
ZBYN,1989-06-14 04:00,ZBYN 140400Z AUTO 00000KT 6SM 21/16 A2983 RMK T02100160 IEM_DS3505
ZBYN,1989-06-14 05:00,ZBYN 140500Z AUTO 25006KT 6SM 23/17 A2983 RMK T02300170 IEM_DS3505
ZBYN,1989-06-14 06:00,ZBYN 140600Z AUTO 25006KT 5SM 20/16 A2980 RMK SLP045 T02040163 4////0121 57015 IEM_DS3505
ZBYN,1989-06-14 07:00,ZBYN 140700Z AUTO 24008KT 6SM 25/18 RMK T02500180 IEM_DS3505
ZBYN,1989-06-14 08:00,ZBYN 140800Z AUTO 17006KT 6SM 26/17 A2977 RMK T02600170 IEM_DS3505
ZBYN,1989-06-14 09:00,ZBYN 140900Z AUTO 00000KT 6SM 26/18 A2977 RMK SLP033 T02600181 57009 IEM_DS3505
ZBYN,1989-06-14 10:00,ZBYN 141000Z AUTO 29004KT 7SM 26/17 A2977 RMK T02600170 IEM_DS3505
ZBYN,1989-06-14 11:00,ZBYN 141100Z AUTO 32012KT 7SM 24/12 A2977 RMK T02400120 IEM_DS3505
ZBYN,1989-06-14 12:00,ZBYN 141200Z AUTO 34004KT 16SM 22/11 A2980 RMK SLP052 T02240112 52014 IEM_DS3505
ZBYN,1989-06-14 13:00,ZBYN 141300Z AUTO 32008KT 6SM 21/10 A2983 RMK T02100100 IEM_DS3505
ZBYN,1989-06-14 14:00,ZBYN 141400Z AUTO 33008KT 6SM 20/12 A2983 RMK T02000120 IEM_DS3505
ZBYN,1989-06-14 15:00,ZBYN 141500Z AUTO 34004KT 12SM 20/09 A2985 RMK SLP059 T02040088 52009 IEM_DS3505
ZBYN,1989-06-14 17:00,ZBYN 141700Z AUTO 04004KT 6SM 16/13 A2985 RMK T01600130 IEM_DS3505
ZBYN,1989-06-14 18:00,ZBYN 141800Z AUTO 00000KT 12SM 18/10 RMK SLP055 T01790095 40265//// 52001 IEM_DS3505
ZBYN,1989-06-14 20:00,ZBYN 142000Z AUTO 00000KT 7SM 13/12 A2985 RMK T01300120 IEM_DS3505
ZBYN,1989-06-14 21:00,ZBYN 142100Z AUTO 36002KT 9SM 13/11 A2985 RMK SLP057 T01340110 57001 IEM_DS3505
ZBYN,1989-06-14 23:00,ZBYN 142300Z AUTO 00000KT 6SM 14/13 A2988 RMK T01400130 IEM_DS3505
ZBYN,1989-06-15 00:00,ZBYN 150000Z AUTO 36004KT 6SM 17/11 A2985 RMK SLP062 T01740110 52005 IEM_DS3505
ZBYN,1989-06-15 01:00,ZBYN 150100Z AUTO 00000KT 6SM 19/13 A2985 RMK T01900130 IEM_DS3505
ZBYN,1989-06-15 02:00,ZBYN 150200Z AUTO 25004KT 6SM 21/14 A2985 RMK T02100140 IEM_DS3505
ZBYN,1989-06-15 03:00,ZBYN 150300Z AUTO 20004KT 6SM 22/13 A2985 RMK SLP053 T02250132 57004 IEM_DS3505
ZBYN,1989-06-15 05:00,ZBYN 150500Z AUTO 18004KT 6SM 26/14 A2980 RMK T02600140 IEM_DS3505
ZBYN,1989-06-15 06:00,ZBYN 150600Z AUTO 18004KT 12SM 27/10 A2977 RMK SLP021 T02700095 4////0124 57026 IEM_DS3505
ZBYN,1989-06-15 07:00,ZBYN 150700Z AUTO 21008KT 6SM 24/13 A2980 RMK T02400130 IEM_DS3505
ZBYN,1989-06-15 08:00,ZBYN 150800Z AUTO 28010KT 6SM 27/08 A2974 RMK T02700080 IEM_DS3505
ZBYN,1989-06-15 09:00,ZBYN 150900Z AUTO 32008KT 16SM 27/07 A2974 RMK SLP024 T02660068 57004 IEM_DS3505
ZBYN,1989-06-15 10:00,ZBYN 151000Z AUTO 32014KT 6SM 25/07 A2974 RMK T02500070 IEM_DS3505
ZBYN,1989-06-15 11:00,ZBYN 151100Z AUTO 32008KT 7SM 24/08 RMK T02400080 IEM_DS3505
ZBYN,1989-06-15 12:00,ZBYN 151200Z AUTO 32002KT 16SM 23/09 A2977 RMK SLP030 T02300091 52006 IEM_DS3505
ZBYN,1989-06-15 13:00,ZBYN 151300Z AUTO 00000KT 6SM 20/10 A2977 RMK T02000100 IEM_DS3505
ZBYN,1989-06-15 14:00,ZBYN 151400Z AUTO 12004KT 6SM 19/12 A2980 RMK T01900120 IEM_DS3505
ZBYN,1989-06-15 15:00,ZBYN 151500Z AUTO 00000KT 9SM 17/12 A2980 RMK SLP039 T01720120 52007 IEM_DS3505
ZBYN,1989-06-15 16:00,ZBYN 151600Z AUTO 00000KT 6SM 15/13 A2980 RMK T01500130 IEM_DS3505
ZBYN,1989-06-15 17:00,ZBYN 151700Z AUTO 00000KT 6SM 14/12 A2980 RMK T01400120 IEM_DS3505
ZBYN,1989-06-15 18:00,ZBYN 151800Z AUTO 00000KT 9SM 14/12 RMK SLP038 T01420115 40320//// 52001 IEM_DS3505
ZBYN,1989-06-15 21:00,ZBYN 152100Z AUTO 00000KT 7SM 11/10 RMK SLP042 T01120105 57001 IEM_DS3505
ZBYN,1989-06-15 22:00,ZBYN 152200Z AUTO 11002KT 6SM 12/09 A2980 RMK T01200090 IEM_DS3505
ZBYN,1989-06-15 23:00,ZBYN 152300Z AUTO 10002KT 6SM 15/11 A2980 RMK T01500110 IEM_DS3505
ZBYN,1989-06-16 00:00,ZBYN 160000Z AUTO 14002KT 7SM 17/12 RMK SLP044 T01690116 52005 IEM_DS3505
ZBYN,1989-06-16 01:00,ZBYN 160100Z AUTO 19004KT 7SM 21/14 A2983 RMK T02100140 IEM_DS3505
ZBYN,1989-06-16 02:00,ZBYN 160200Z AUTO 21004KT 7SM 22/13 A2983 RMK T02200130 IEM_DS3505
ZBYN,1989-06-16 03:00,ZBYN 160300Z AUTO 18004KT 6SM 24/12 A2983 RMK SLP044 T02400125 52002 IEM_DS3505
ZBYN,1989-06-16 04:00,ZBYN 160400Z AUTO 22006KT 6SM 26/10 A2980 RMK T02600100 IEM_DS3505
ZBYN,1989-06-16 05:00,ZBYN 160500Z AUTO 22006KT 7SM 27/12 A2977 RMK T02700120 IEM_DS3505
ZBYN,1989-06-16 06:00,ZBYN 160600Z AUTO 18004KT 6SM 27/10 A2977 RMK SLP024 T02720103 4////0106 IEM_DS3505
ZBYN,1989-06-16 07:00,ZBYN 160700Z AUTO 20004KT 7SM 28/12 A2974 RMK T02800120 IEM_DS3505
ZBYN,1989-06-16 08:00,ZBYN 160800Z AUTO 25006KT 7SM 29/13 A2974 RMK T02900130 IEM_DS3505
ZBYN,1989-06-16 09:00,ZBYN 160900Z AUTO 27002KT 7SM 29/11 A2974 RMK SLP017 T02910113 57008 IEM_DS3505
ZBYN,1989-06-16 10:00,ZBYN 161000Z AUTO 25006KT 7SM 29/13 A2974 RMK T02900130 IEM_DS3505
ZBYN,1989-06-16 12:00,ZBYN 161200Z AUTO 00000KT 12SM 26/09 A2977 RMK SLP025 T02550094 52010 IEM_DS3505
ZBYN,1989-06-16 13:00,ZBYN 161300Z AUTO 08004KT 7SM 22/12 A2977 RMK T02200120 IEM_DS3505
ZBYN,1989-06-16 14:00,ZBYN 161400Z AUTO 01004KT 7SM 19/12 A2980 RMK T01900120 IEM_DS3505
ZBYN,1989-06-16 15:00,ZBYN 161500Z AUTO 00000KT 12SM 20/11 A2980 RMK SLP029 T02010109 52006 IEM_DS3505
ZBYN,1989-06-16 16:00,ZBYN 161600Z AUTO 32006KT 6SM 18/11 A2980 RMK T01800110 IEM_DS3505
ZBYN,1989-06-16 18:00,ZBYN 161800Z AUTO 36004KT 9SM 18/10 A2983 RMK SLP039 T01760096 40294//// 50010 IEM_DS3505
ZBYN,1989-06-16 20:00,ZBYN 162000Z AUTO 00000KT 6SM 15/12 A2983 RMK T01500120 IEM_DS3505
ZBYN,1989-06-16 21:00,ZBYN 162100Z AUTO 34004KT 12SM 16/09 A2983 RMK SLP043 T01640094 52005 IEM_DS3505
ZBYN,1989-06-16 22:00,ZBYN 162200Z AUTO 00000KT 6SM 13/12 A2985 RMK T01300120 IEM_DS3505
ZBYN,1989-06-16 23:00,ZBYN 162300Z AUTO 24002KT 6SM 16/13 A2985 RMK T01600130 IEM_DS3505
ZBYN,1989-06-17 00:00,ZBYN 170000Z AUTO 36004KT 12SM 20/11 RMK SLP062 T01980113 52017 IEM_DS3505
ZBYN,1989-06-17 01:00,ZBYN 170100Z AUTO 00000KT 6SM 21/12 A2988 RMK T02100120 IEM_DS3505
ZBYN,1989-06-17 02:00,ZBYN 170200Z AUTO 33006KT 6SM 23/14 A2988 RMK T02300140 IEM_DS3505
ZBYN,1989-06-17 03:00,ZBYN 170300Z AUTO 34004KT 7SM 25/12 A2988 RMK SLP062 T02470117 57001 IEM_DS3505
ZBYN,1989-06-17 05:00,ZBYN 170500Z AUTO 31006KT 6SM 26/14 A2985 RMK T02600140 IEM_DS3505
ZBYN,1989-06-17 06:00,ZBYN 170600Z AUTO 16004KT 12SM 27/11 A2985 RMK SLP050 T02730109 4////0155 57011 IEM_DS3505
ZBYN,1989-06-17 07:00,ZBYN 170700Z AUTO 00000KT 7SM 28/12 A2983 RMK T02800120 IEM_DS3505
ZBYN,1989-06-17 08:00,ZBYN 170800Z AUTO 17012KT 7SM 29/12 A2983 RMK T02900120 IEM_DS3505
ZBYN,1989-06-17 09:00,ZBYN 170900Z AUTO 09004KT 19SM 28/09 A2983 RMK SLP042 T02810092 57008 IEM_DS3505
ZBYN,1989-06-17 10:00,ZBYN 171000Z AUTO 18008KT 6SM 28/09 A2980 RMK T02800090 IEM_DS3505
ZBYN,1989-06-17 11:00,ZBYN 171100Z AUTO 00000KT 6SM 28/14 A2983 RMK T02800140 IEM_DS3505
ZBYN,1989-06-17 12:00,ZBYN 171200Z AUTO 00000KT 19SM 24/15 A2985 RMK SLP053 T02380153 52009 IEM_DS3505
ZBYN,1989-06-17 13:00,ZBYN 171300Z AUTO 00000KT 7SM 22/14 A2985 RMK T02200140 IEM_DS3505
ZBYN,1989-06-17 14:00,ZBYN 171400Z AUTO 11010KT 7SM 23/11 A2988 RMK T02300110 IEM_DS3505
ZBYN,1989-06-17 15:00,ZBYN 171500Z AUTO 00000KT 19SM 20/14 A2991 RMK SLP070 T02000135 52017 IEM_DS3505
ZBYN,1989-06-17 16:00,ZBYN 171600Z AUTO 09014KT 7SM 22/11 A2991 RMK T02200110 IEM_DS3505
ZBYN,1989-06-17 18:00,ZBYN 171800Z AUTO 34002KT 19SM 19/12 RMK SLP079 T01910120 40289//// 52011 IEM_DS3505
ZBYN,1989-06-17 21:00,ZBYN 172100Z AUTO 34004KT 9SM 17/12 RMK SLP087 T01740120 52006 IEM_DS3505
ZBYN,1989-06-17 22:00,ZBYN 172200Z AUTO 00000KT 7SM 16/13 A2997 RMK T01600130 IEM_DS3505
ZBYN,1989-06-17 23:00,ZBYN 172300Z AUTO 33004KT 7SM 18/14 A2997 RMK T01800140 IEM_DS3505
ZBYN,1989-06-18 00:00,ZBYN 180000Z AUTO 36002KT 6SM 20/13 A2997 RMK SLP103 T02000131 52012 IEM_DS3505
ZBYN,1989-06-18 01:00,ZBYN 180100Z AUTO 35004KT 6SM 23/13 A3000 RMK T02300130 IEM_DS3505
ZBYN,1989-06-18 02:00,ZBYN 180200Z AUTO 00000KT 6SM 24/13 A3000 RMK T02400130 IEM_DS3505
ZBYN,1989-06-18 03:00,ZBYN 180300Z AUTO 36002KT 7SM 26/13 RMK SLP096 T02580131 57003 IEM_DS3505
ZBYN,1989-06-18 04:00,ZBYN 180400Z AUTO 33002KT 6SM 26/14 A2997 RMK T02600140 IEM_DS3505
ZBYN,1989-06-18 05:00,ZBYN 180500Z AUTO 00000KT 7SM 28/16 A2997 RMK T02800160 IEM_DS3505
ZBYN,1989-06-18 06:00,ZBYN 180600Z AUTO 29004KT 7SM 28/12 A2994 RMK SLP074 T02850122 4////0169 57018 IEM_DS3505
ZBYN,1989-06-18 07:00,ZBYN 180700Z AUTO 13004KT 7SM 28/14 A2991 RMK T02800140 IEM_DS3505
ZBYN,1989-06-18 09:00,ZBYN 180900Z AUTO 00000KT 16SM 28/15 A2991 RMK SLP068 T02780150 57009 IEM_DS3505
ZBYN,1989-06-18 10:00,ZBYN 181000Z AUTO 10017KT 6SM 27/14 A2991 RMK T02700140 IEM_DS3505
ZBYN,1989-06-18 11:00,ZBYN 181100Z AUTO 09012KT 6SM 25/14 A2991 RMK T02500140 IEM_DS3505
ZBYN,1989-06-18 12:00,ZBYN 181200Z AUTO 09008KT 9SM 24/14 A2994 RMK SLP090 T02370139 52018 IEM_DS3505
ZBYN,1989-06-18 13:00,ZBYN 181300Z AUTO 09010KT 6SM 23/12 A2997 RMK T02300120 IEM_DS3505
ZBYN,1989-06-18 14:00,ZBYN 181400Z AUTO 00000KT 6SM 22/12 A3000 RMK T02200120 IEM_DS3505
ZBYN,1989-06-18 15:00,ZBYN 181500Z AUTO 09008KT 7SM 22/14 A3000 RMK SLP108 T02190136 52022 IEM_DS3505
ZBYN,1989-06-18 16:00,ZBYN 181600Z AUTO 08023KT 7SM 21/12 A3003 RMK T02100120 IEM_DS3505
ZBYN,1989-06-18 18:00,ZBYN 181800Z AUTO 36002KT 7SM 21/14 A3003 RMK SLP116 T02070141 40292//// 52010 IEM_DS3505
ZBYN,1989-06-18 21:00,ZBYN 182100Z AUTO 00000KT 6SM 18/14 A3006 RMK SLP123 T01800145 52001 IEM_DS3505
ZBYN,1989-06-18 22:00,ZBYN 182200Z AUTO 00000KT 6SM 22/12 A3000 RMK T02200120 IEM_DS3505
ZBYN,1989-06-19 00:00,ZBYN 190000Z AUTO 00000KT 6SM 20/15 A3009 RMK SLP137 T02020146 52010 IEM_DS3505
ZBYN,1989-06-19 01:00,ZBYN 190100Z AUTO 00000KT 6SM 22/16 A3006 RMK T02200160 IEM_DS3505
ZBYN,1989-06-19 02:00,ZBYN 190200Z AUTO 00000KT 6SM 22/15 A3006 RMK T02200150 IEM_DS3505
ZBYN,1989-06-19 03:00,ZBYN 190300Z AUTO 18002KT 6SM 23/16 A3006 RMK SLP125 T02300156 57009 IEM_DS3505
ZBYN,1989-06-19 04:00,ZBYN 190400Z AUTO 12002KT 6SM 26/17 A3006 RMK T02600170 IEM_DS3505
ZBYN,1989-06-19 05:00,ZBYN 190500Z AUTO 00000KT 6SM 26/15 A3003 RMK T02600150 IEM_DS3505
ZBYN,1989-06-19 06:00,ZBYN 190600Z AUTO 00000KT 11SM 27/18 A3003 RMK SLP103 T02660176 4////0169 57017 IEM_DS3505
ZBYN,1989-06-19 07:00,ZBYN 190700Z AUTO 19004KT 7SM 27/16 A3000 RMK T02700160 IEM_DS3505
ZBYN,1989-06-19 08:00,ZBYN 190800Z AUTO 00000KT 6SM 28/17 A2997 RMK T02800170 IEM_DS3505
ZBYN,1989-06-19 09:00,ZBYN 190900Z AUTO 22004KT 7SM 28/18 A2997 RMK SLP085 T02760175 57019 IEM_DS3505
ZBYN,1989-06-19 10:00,ZBYN 191000Z AUTO 24006KT 7SM 27/16 A2994 RMK T02700160 IEM_DS3505
ZBYN,1989-06-19 11:00,ZBYN 191100Z AUTO 12004KT 6SM 26/18 A2994 RMK T02600180 IEM_DS3505
ZBYN,1989-06-19 12:00,ZBYN 191200Z AUTO 14004KT 6SM 25/18 A2997 RMK SLP091 T02540179 52006 IEM_DS3505
ZBYN,1989-06-19 13:00,ZBYN 191300Z AUTO 12008KT 7SM 24/16 A2997 RMK T02400160 IEM_DS3505
ZBYN,1989-06-19 14:00,ZBYN 191400Z AUTO 09006KT 7SM 23/15 A3000 RMK T02300150 IEM_DS3505
ZBYN,1989-06-19 15:00,ZBYN 191500Z AUTO 14008KT 6SM 23/17 A3000 RMK SLP104 T02340167 52013 IEM_DS3505
ZBYN,1989-06-19 16:00,ZBYN 191600Z AUTO 08008KT 7SM 23/15 A3000 RMK T02300150 IEM_DS3505
ZBYN,1989-06-19 17:00,ZBYN 191700Z AUTO 11006KT 7SM 22/16 A3000 RMK T02200160 IEM_DS3505
ZBYN,1989-06-19 18:00,ZBYN 191800Z AUTO 11004KT 6SM 22/17 A3000 RMK SLP103 T02160170 40280//// 52001 IEM_DS3505
ZBYN,1989-06-19 20:00,ZBYN 192000Z AUTO 13006KT 7SM 21/16 A3000 RMK T02100160 IEM_DS3505
ZBYN,1989-06-19 21:00,ZBYN 192100Z AUTO 14004KT 6SM 20/17 A3000 RMK SLP097 T02020169 57006 IEM_DS3505
ZBYN,1989-06-19 22:00,ZBYN 192200Z AUTO 18004KT 7SM A3000 RMK IEM_DS3505
ZBYN,1989-06-19 23:00,ZBYN 192300Z AUTO 00000KT 7SM 20/17 A3006 RMK T02000170 IEM_DS3505
ZBYN,1989-06-20 00:00,ZBYN 200000Z AUTO 00000KT 6SM 20/18 A3000 RMK 60001 SLP106 T01970183 52005 IEM_DS3505
ZBYN,1989-06-20 01:00,ZBYN 200100Z AUTO 35004KT 5SM 20/18 A3003 RMK T02000180 IEM_DS3505
ZBYN,1989-06-20 02:00,ZBYN 200200Z AUTO 36008KT 3SM 20/18 A3003 RMK T02000180 IEM_DS3505
ZBYN,1989-06-20 03:00,ZBYN 200300Z AUTO 00000KT 5SM 21/19 A3003 RMK SLP110 T02110190 52003 IEM_DS3505
ZBYN,1989-06-20 05:00,ZBYN 200500Z AUTO 33014KT 4SM 21/17 A3000 RMK T02100170 IEM_DS3505
ZBYN,1989-06-20 06:00,ZBYN 200600Z AUTO 00000KT 5SM 22/19 RMK 60008 SLP106 T02160189 4////0185 57006 IEM_DS3505
ZBYN,1989-06-20 08:00,ZBYN 200800Z AUTO 23004KT 4SM 17/17 A3000 RMK T01700170 IEM_DS3505
ZBYN,1989-06-20 09:00,ZBYN 200900Z AUTO 09004KT 4SM 19/18 A3000 RMK SLP108 T01860180 57004 IEM_DS3505
ZBYN,1989-06-20 11:00,ZBYN 201100Z AUTO 00000KT 7SM 19/17 A2997 RMK T01900170 IEM_DS3505
ZBYN,1989-06-20 12:00,ZBYN 201200Z AUTO 00000KT 5SM 18/18 A3000 RMK 60012 SLP117 T01800180 52006 IEM_DS3505
ZBYN,1989-06-20 12:12,ZBYN 201212Z AUTO 07006KT 3SM RMK IEM_DS3505
ZBYN,1989-06-20 13:00,ZBYN 201300Z AUTO 14004KT 7SM 18/16 A3003 RMK T01800160 IEM_DS3505
ZBYN,1989-06-20 14:00,ZBYN 201400Z AUTO 29004KT 7SM 17/16 A3003 RMK T01700160 IEM_DS3505
ZBYN,1989-06-20 15:00,ZBYN 201500Z AUTO 00000KT 3SM 17/16 A3003 RMK SLP127 T01660164 52010 IEM_DS3505
ZBYN,1989-06-20 18:00,ZBYN 201800Z AUTO 00000KT 1/2SM 15/15 RMK SLP124 T01500148 40217//// 57005 IEM_DS3505
ZBYN,1989-06-20 20:00,ZBYN 202000Z AUTO 00000KT 3SM 14/14 A3003 RMK T01400140 IEM_DS3505
ZBYN,1989-06-20 21:00,ZBYN 202100Z AUTO 00000KT 4SM 15/15 A3003 RMK SLP131 T01480148 52002 IEM_DS3505
ZBYN,1989-06-20 23:00,ZBYN 202300Z AUTO 00000KT 2SM 15/14 A3006 RMK T01500140 IEM_DS3505
ZBYN,1989-06-21 00:00,ZBYN 210000Z AUTO 00000KT 4SM 17/15 A3003 RMK SLP131 T01740149 52003 IEM_DS3505
ZBYN,1989-06-21 01:00,ZBYN 210100Z AUTO 00000KT 3SM 19/16 RMK T01900160 IEM_DS3505
ZBYN,1989-06-21 02:00,ZBYN 210200Z AUTO 00000KT 5SM 20/16 A3003 RMK T02000160 IEM_DS3505
ZBYN,1989-06-21 03:00,ZBYN 210300Z AUTO 00000KT 6SM RMK SLP125 57001 IEM_DS3505
ZBYN,1989-06-21 04:00,ZBYN 210400Z AUTO 28004KT 7SM 24/15 RMK T02400150 IEM_DS3505
ZBYN,1989-06-21 05:00,ZBYN 210500Z AUTO 24004KT 7SM 25/12 A3000 RMK T02500120 IEM_DS3505
ZBYN,1989-06-21 06:00,ZBYN 210600Z AUTO 25004KT 12SM 26/15 A3000 RMK SLP111 T02580147 4////0140 57010 IEM_DS3505
ZBYN,1989-06-21 07:00,ZBYN 210700Z AUTO 00000KT 7SM 26/13 A2997 RMK T02600130 IEM_DS3505
ZBYN,1989-06-21 08:00,ZBYN 210800Z AUTO 00000KT 7SM 27/14 A2997 RMK T02700140 IEM_DS3505
ZBYN,1989-06-21 09:00,ZBYN 210900Z AUTO 22002KT 12SM 26/15 A2994 RMK SLP094 T02640147 57015 IEM_DS3505
ZBYN,1989-06-21 11:00,ZBYN 211100Z AUTO 23004KT 7SM 25/14 A2994 RMK T02500140 IEM_DS3505
ZBYN,1989-06-21 12:00,ZBYN 211200Z AUTO 00000KT 12SM 23/17 A2994 RMK SLP094 T02290173 57001 IEM_DS3505
ZBYN,1989-06-21 14:00,ZBYN 211400Z AUTO 00000KT 7SM 21/15 A3000 RMK T02100150 IEM_DS3505
ZBYN,1989-06-21 15:00,ZBYN 211500Z AUTO 00000KT 9SM 19/17 RMK SLP109 T01900168 52015 IEM_DS3505
ZBYN,1989-06-21 18:00,ZBYN 211800Z AUTO 11004KT 7SM 18/16 RMK SLP110 T01820161 40267//// 52005 IEM_DS3505
ZBYN,1989-06-21 21:00,ZBYN 212100Z AUTO 11002KT 6SM 16/15 RMK SLP112 T01560148 57001 IEM_DS3505
ZBYN,1989-06-21 22:00,ZBYN 212200Z AUTO 13006KT 7SM 16/13 A3003 RMK T01600130 IEM_DS3505
ZBYN,1989-06-21 23:00,ZBYN 212300Z AUTO 00000KT 7SM 18/13 A3006 RMK T01800130 IEM_DS3505
ZBYN,1989-06-22 00:00,ZBYN 220000Z AUTO 00000KT 5SM 18/16 RMK SLP132 T01850157 52017 IEM_DS3505
ZBYN,1989-06-22 01:00,ZBYN 220100Z AUTO 18004KT 6SM 20/14 A3006 RMK T02000140 IEM_DS3505
ZBYN,1989-06-22 02:00,ZBYN 220200Z AUTO 20006KT 6SM 22/14 A3006 RMK T02200140 IEM_DS3505
ZBYN,1989-06-22 03:00,ZBYN 220300Z AUTO 18004KT 6SM 23/17 RMK SLP125 T02300172 57005 IEM_DS3505
ZBYN,1989-06-22 05:00,ZBYN 220500Z AUTO 00000KT 6SM 26/15 A3000 RMK T02600150 IEM_DS3505
ZBYN,1989-06-22 06:00,ZBYN 220600Z AUTO 20004KT 7SM 27/16 A3000 RMK SLP099 T02680165 4////0151 57020 IEM_DS3505
ZBYN,1989-06-22 07:00,ZBYN 220700Z AUTO 18006KT 6SM 28/14 A2997 RMK T02800140 IEM_DS3505
ZBYN,1989-06-22 08:00,ZBYN 220800Z AUTO 21004KT 6SM 28/15 A2985 RMK T02800150 IEM_DS3505
ZBYN,1989-06-22 09:00,ZBYN 220900Z AUTO 00000KT 9SM 28/16 A2994 RMK SLP084 T02780165 57016 IEM_DS3505
ZBYN,1989-06-22 10:00,ZBYN 221000Z AUTO 00000KT 7SM 28/16 RMK T02800160 IEM_DS3505
ZBYN,1989-06-22 11:00,ZBYN 221100Z AUTO 00000KT 6SM 26/16 A2991 RMK T02600160 IEM_DS3505
ZBYN,1989-06-22 12:00,ZBYN 221200Z AUTO 00000KT 9SM 23/18 A2991 RMK SLP080 T02340180 57005 IEM_DS3505
ZBYN,1989-06-22 13:00,ZBYN 221300Z AUTO 18008KT 6SM 23/14 A2994 RMK T02300140 IEM_DS3505
ZBYN,1989-06-22 14:00,ZBYN 221400Z AUTO 17006KT 7SM 22/16 A2994 RMK T02200160 IEM_DS3505
ZBYN,1989-06-22 15:00,ZBYN 221500Z AUTO 11004KT 7SM 19/18 RMK SLP091 T01940178 52010 IEM_DS3505
ZBYN,1989-06-22 16:00,ZBYN 221600Z AUTO 00000KT 7SM 20/14 A2994 RMK T02000140 IEM_DS3505
ZBYN,1989-06-22 18:00,ZBYN 221800Z AUTO 16002KT 6SM 19/15 A2997 RMK SLP086 T01870151 40283//// 54000 IEM_DS3505
ZBYN,1989-06-22 20:00,ZBYN 222000Z AUTO 11006KT 6SM 17/13 A2997 RMK T01700130 IEM_DS3505
ZBYN,1989-06-22 21:00,ZBYN 222100Z AUTO 14002KT 6SM 16/14 A2997 RMK SLP093 T01640142 52005 IEM_DS3505
ZBYN,1989-06-22 22:00,ZBYN 222200Z AUTO 00000KT 6SM 16/13 A2997 RMK T01600130 IEM_DS3505
ZBYN,1989-06-23 00:00,ZBYN 230000Z AUTO 16004KT 6SM 20/17 A2997 RMK SLP099 T01970170 52004 IEM_DS3505
ZBYN,1989-06-23 01:00,ZBYN 230100Z AUTO 16004KT 6SM 20/17 A2997 RMK SLP099 T01970170 52004 IEM_DS3505
ZBYN,1989-06-23 02:00,ZBYN 230200Z AUTO 23006KT 6SM 23/14 A2997 RMK T02300140 IEM_DS3505
ZBYN,1989-06-23 03:00,ZBYN 230300Z AUTO 18002KT 6SM 25/17 A2994 RMK SLP080 T02530171 57016 IEM_DS3505
ZBYN,1989-06-23 04:00,ZBYN 230400Z AUTO 20010KT 6SM 26/13 A2991 RMK T02600130 IEM_DS3505
ZBYN,1989-06-23 05:00,ZBYN 230500Z AUTO 20010KT 6SM 28/14 A2988 RMK T02800140 IEM_DS3505
ZBYN,1989-06-23 06:00,ZBYN 230600Z AUTO 18008KT 7SM 27/15 A2988 RMK SLP056 T02740152 4////0154 57020 IEM_DS3505
ZBYN,1989-06-23 07:00,ZBYN 230700Z AUTO 22008KT 6SM 28/13 A2985 RMK T02800130 IEM_DS3505
ZBYN,1989-06-23 08:00,ZBYN 230800Z AUTO 19008KT 6SM 28/14 A2983 RMK T02800140 IEM_DS3505
ZBYN,1989-06-23 09:00,ZBYN 230900Z AUTO 18004KT 7SM 28/16 RMK SLP044 T02810160 57013 IEM_DS3505
ZBYN,1989-06-23 10:00,ZBYN 231000Z AUTO 25002KT 6SM 28/17 A2983 RMK T02800170 IEM_DS3505
ZBYN,1989-06-23 11:00,ZBYN 231100Z AUTO 00000KT 6SM 27/19 A2983 RMK T02700190 IEM_DS3505
ZBYN,1989-06-23 12:00,ZBYN 231200Z AUTO 00000KT 6SM 24/21 A2983 RMK SLP040 T02440210 57004 IEM_DS3505
ZBYN,1989-06-23 13:00,ZBYN 231300Z AUTO 16004KT 6SM 23/17 A2983 RMK T02300170 IEM_DS3505
ZBYN,1989-06-23 14:00,ZBYN 231400Z AUTO 00000KT 6SM 22/17 A2983 RMK T02200170 IEM_DS3505
ZBYN,1989-06-23 15:00,ZBYN 231500Z AUTO 00000KT 6SM 23/18 RMK SLP038 T02340184 52005 IEM_DS3505
ZBYN,1989-06-23 18:00,ZBYN 231800Z AUTO 00000KT 6SM 25/19 RMK SLP036 T02480194 IEM_DS3505
ZBYN,1989-06-23 21:00,ZBYN 232100Z AUTO 00000KT 5SM 21/20 RMK SLP037 T02060198 52002 IEM_DS3505
ZBYN,1989-06-23 22:00,ZBYN 232200Z AUTO 6SM 21/16 A2983 RMK T02100160 IEM_DS3505
ZBYN,1989-06-23 23:00,ZBYN 232300Z AUTO 00000KT 7SM 21/19 A2985 RMK T02100190 IEM_DS3505
ZBYN,1989-06-24 00:00,ZBYN 240000Z AUTO 36006KT 5SM 23/19 RMK SLP053 T02320191 52013 IEM_DS3505
ZBYN,1989-06-24 01:00,ZBYN 240100Z AUTO 35008KT 6SM 26/16 A2985 RMK T02600160 IEM_DS3505
ZBYN,1989-06-24 02:00,ZBYN 240200Z AUTO 32014KT 6SM 27/16 A2985 RMK T02700160 IEM_DS3505
ZBYN,1989-06-24 03:00,ZBYN 240300Z AUTO 34010KT 7SM 28/20 A2985 RMK SLP041 T02770197 57006 IEM_DS3505
ZBYN,1989-06-24 04:00,ZBYN 240400Z AUTO 35019KT 7SM 27/15 A2985 RMK T02700150 IEM_DS3505
ZBYN,1989-06-24 05:00,ZBYN 240500Z AUTO 36016KT 7SM 27/13 A2985 RMK T02700130 IEM_DS3505
ZBYN,1989-06-24 06:00,ZBYN 240600Z AUTO 36004KT 12SM 28/18 A2985 RMK SLP041 T02800182 4////0200 57004 IEM_DS3505
ZBYN,1989-06-24 07:00,ZBYN 240700Z AUTO 02014KT 7SM 26/13 A2985 RMK T02600130 IEM_DS3505
ZBYN,1989-06-24 08:00,ZBYN 240800Z AUTO 02014KT 7SM 26/13 A2985 RMK T02600130 IEM_DS3505
ZBYN,1989-06-24 09:00,ZBYN 240900Z AUTO 36006KT 12SM 25/18 A2985 RMK SLP054 T02520175 52008 IEM_DS3505
ZBYN,1989-06-24 10:00,ZBYN 241000Z AUTO 03006KT 7SM 24/15 A2988 RMK T02400150 IEM_DS3505
ZBYN,1989-06-24 12:00,ZBYN 241200Z AUTO 36004KT 12SM 24/16 A2988 RMK SLP058 T02360164 52005 IEM_DS3505
ZBYN,1989-06-24 14:00,ZBYN 241400Z AUTO 00000KT 7SM 19/14 A2988 RMK T01900140 IEM_DS3505
ZBYN,1989-06-24 15:00,ZBYN 241500Z AUTO 00000KT 9SM 18/16 RMK SLP066 T01750157 52005 IEM_DS3505
ZBYN,1989-06-24 18:00,ZBYN 241800Z AUTO 00000KT 9SM 17/16 RMK SLP063 T01690163 40283//// 57003 IEM_DS3505
ZBYN,1989-06-24 21:00,ZBYN 242100Z AUTO 00000KT 9SM 17/16 A2988 RMK SLP068 T01700157 52001 IEM_DS3505
ZBYN,1989-06-24 22:00,ZBYN 242200Z AUTO 00000KT 6SM 16/14 A2988 RMK T01600140 IEM_DS3505
ZBYN,1989-06-24 23:00,ZBYN 242300Z AUTO 00000KT 6SM 18/15 A2991 RMK T01800150 IEM_DS3505
ZBYN,1989-06-25 00:00,ZBYN 250000Z AUTO 00000KT 6SM 19/17 A2994 RMK SLP085 T01900171 52016 IEM_DS3505
ZBYN,1989-06-25 01:00,ZBYN 250100Z AUTO 00000KT 6SM 23/16 A2994 RMK T02300160 IEM_DS3505
ZBYN,1989-06-25 02:00,ZBYN 250200Z AUTO 00000KT 6SM 23/17 A2994 RMK T02300170 IEM_DS3505
ZBYN,1989-06-25 03:00,ZBYN 250300Z AUTO 00000KT 6SM 25/19 A2991 RMK SLP080 T02490190 57005 IEM_DS3505
ZBYN,1989-06-25 06:00,ZBYN 250600Z AUTO 18002KT 7SM 27/19 RMK SLP059 T02730193 4////0154 57016 IEM_DS3505
ZBYN,1989-06-25 07:00,ZBYN 250700Z AUTO 6SM 29/16 A2985 RMK T02900160 IEM_DS3505
ZBYN,1989-06-25 08:00,ZBYN 250800Z AUTO 19019KT 7SM 27/17 A2985 RMK T02700170 IEM_DS3505
ZBYN,1989-06-25 09:00,ZBYN 250900Z AUTO 11006KT 6SM 28/21 A2985 RMK SLP048 T02850206 57009 IEM_DS3505
ZBYN,1989-06-25 10:00,ZBYN 251000Z AUTO 11008KT 7SM 28/15 A2983 RMK T02800150 IEM_DS3505
ZBYN,1989-06-25 11:00,ZBYN 251100Z AUTO 26012KT 7SM 26/16 A2985 RMK T02600160 IEM_DS3505
ZBYN,1989-06-25 12:00,ZBYN 251200Z AUTO 00000KT 9SM 24/18 A2985 RMK SLP060 T02370177 52007 IEM_DS3505
ZBYN,1989-06-25 13:00,ZBYN 251300Z AUTO 00000KT 6SM 22/17 A2988 RMK T02200170 IEM_DS3505
ZBYN,1989-06-25 14:00,ZBYN 251400Z AUTO 09006KT 3SM RMK IEM_DS3505
ZBYN,1989-06-25 15:00,ZBYN 251500Z AUTO 16002KT 7SM 18/17 A2988 RMK SLP068 T01820174 52008 IEM_DS3505
ZBYN,1989-06-25 16:00,ZBYN 251600Z AUTO 11008KT 6SM 18/15 A2988 RMK T01800150 IEM_DS3505
ZBYN,1989-06-25 18:00,ZBYN 251800Z AUTO 16002KT 9SM 17/16 A2988 RMK SLP063 T01730165 40296//// 57002 IEM_DS3505
ZBYN,1989-06-25 20:00,ZBYN 252000Z AUTO 11008KT 6SM 19/16 A2988 RMK T01900160 IEM_DS3505
ZBYN,1989-06-25 21:00,ZBYN 252100Z AUTO 00000KT 6SM 18/ A2988 RMK SLP058 57003 IEM_DS3505
ZBYN,1989-06-25 22:00,ZBYN 252200Z AUTO 13008KT 19/17 A2988 RMK T01900170 IEM_DS3505
ZBYN,1989-06-26 00:00,ZBYN 260000Z AUTO 00000KT 5SM 21/19 A2988 RMK SLP067 T02100193 52007 IEM_DS3505
ZBYN,1989-06-26 01:00,ZBYN 260100Z AUTO 18014KT 6SM 24/18 A2988 RMK T02400180 IEM_DS3505
ZBYN,1989-06-26 02:00,ZBYN 260200Z AUTO 23006KT 6SM 24/18 A2988 RMK T02400180 IEM_DS3505
ZBYN,1989-06-26 03:00,ZBYN 260300Z AUTO 20004KT 5SM 25/22 A2988 RMK SLP063 T02540215 57006 IEM_DS3505
ZBYN,1989-06-26 04:00,ZBYN 260400Z AUTO 21010KT 6SM 27/19 A2985 RMK T02700190 IEM_DS3505
ZBYN,1989-06-26 05:00,ZBYN 260500Z AUTO 19008KT 6SM 28/18 A2985 RMK T02800180 IEM_DS3505
ZBYN,1989-06-26 06:00,ZBYN 260600Z AUTO 22006KT 6SM 28/18 A2983 RMK SLP046 T02800184 4////0165 57013 IEM_DS3505
ZBYN,1989-06-26 07:00,ZBYN 260700Z AUTO 19010KT 6SM 29/18 A2983 RMK T02900180 IEM_DS3505
ZBYN,1989-06-26 08:00,ZBYN 260800Z AUTO 21012KT 6SM 29/16 A2980 RMK T02900160 IEM_DS3505
ZBYN,1989-06-26 09:00,ZBYN 260900Z AUTO 36002KT 12SM 31/16 RMK SLP019 T03090157 57020 IEM_DS3505
ZBYN,1989-06-26 10:00,ZBYN 261000Z AUTO 33008KT 6SM A2977 RMK IEM_DS3505
ZBYN,1989-06-26 11:00,ZBYN 261100Z AUTO 30008KT 6SM 29/07 A2977 RMK T02900070 IEM_DS3505
ZBYN,1989-06-26 12:00,ZBYN 261200Z AUTO 32004KT 16SM 26/07 A2980 RMK SLP030 T02630074 52008 IEM_DS3505
ZBYN,1989-06-26 13:00,ZBYN 261300Z AUTO 32004KT 6SM 21/11 A2983 RMK T02100110 IEM_DS3505
ZBYN,1989-06-26 15:00,ZBYN 261500Z AUTO 29004KT 16SM 23/08 RMK SLP058 T02280083 52027 IEM_DS3505
ZBYN,1989-06-26 18:00,ZBYN 261800Z AUTO 16002KT 16SM 16/10 RMK SLP067 T01640100 40314//// 52003 IEM_DS3505
ZBYN,1989-06-26 21:00,ZBYN 262100Z AUTO 32002KT 12SM 14/10 RMK SLP077 T01370104 52010 IEM_DS3505
ZBYN,1989-06-26 22:00,ZBYN 262200Z AUTO 00000KT 6SM 14/12 A2991 RMK T01400120 IEM_DS3505
ZBYN,1989-06-26 23:00,ZBYN 262300Z AUTO 00000KT 6SM 18/15 A2994 RMK T01800150 IEM_DS3505
ZBYN,1989-06-27 00:00,ZBYN 270000Z AUTO 09002KT 7SM 22/15 A2994 RMK SLP082 T02160146 52009 IEM_DS3505
ZBYN,1989-06-27 01:00,ZBYN 270100Z AUTO 00000KT 7SM 24/13 A2994 RMK T02400130 IEM_DS3505
ZBYN,1989-06-27 02:00,ZBYN 270200Z AUTO 33008KT 6SM 26/09 A2994 RMK T02600090 IEM_DS3505
ZBYN,1989-06-27 03:00,ZBYN 270300Z AUTO 34006KT 16SM 27/08 RMK SLP077 T02690075 57002 IEM_DS3505
ZBYN,1989-06-27 04:00,ZBYN 270400Z AUTO 34014KT 7SM 28/07 A2994 RMK T02800070 IEM_DS3505
ZBYN,1989-06-27 05:00,ZBYN 270500Z AUTO 01019KT 7SM 29/08 A2991 RMK T02900080 IEM_DS3505
ZBYN,1989-06-27 06:00,ZBYN 270600Z AUTO 32004KT 19SM 30/07 A2991 RMK SLP012 T02970068 4////0133 57019 IEM_DS3505
ZBYN,1989-06-27 07:00,ZBYN 270700Z AUTO 24012KT 7SM 30/09 A2988 RMK T03000090 IEM_DS3505
ZBYN,1989-06-27 08:00,ZBYN 270800Z AUTO 00000KT 7SM 30/10 A2988 RMK T03000100 IEM_DS3505
ZBYN,1989-06-27 09:00,ZBYN 270900Z AUTO 11002KT 19SM 30/10 A2985 RMK SLP052 T03010097 57012 IEM_DS3505
ZBYN,1989-06-27 10:00,ZBYN 271000Z AUTO 21008KT 7SM 29/09 A2985 RMK T02900090 IEM_DS3505
ZBYN,1989-06-27 11:00,ZBYN 271100Z AUTO 22010KT 7SM 28/11 A2985 RMK T02800110 IEM_DS3505
ZBYN,1989-06-27 12:00,ZBYN 271200Z AUTO 00000KT 19SM 27/11 A2988 RMK SLP052 T02660108 52006 IEM_DS3505
ZBYN,1989-06-27 13:00,ZBYN 271300Z AUTO 22006KT 7SM 22/11 A2988 RMK T02200110 IEM_DS3505
ZBYN,1989-06-27 14:00,ZBYN 271400Z AUTO 11004KT 7SM 20/13 A2991 RMK T02000130 IEM_DS3505
ZBYN,1989-06-27 15:00,ZBYN 271500Z AUTO 00000KT 19SM 17/13 A2991 RMK SLP076 T01680130 52015 IEM_DS3505
ZBYN,1989-06-27 16:00,ZBYN 271600Z AUTO 11006KT 7SM 17/14 A2988 RMK T01700140 IEM_DS3505
ZBYN,1989-06-27 17:00,ZBYN 271700Z AUTO 11004KT 7SM 16/09 A2988 RMK T01600090 IEM_DS3505
ZBYN,1989-06-27 18:00,ZBYN 271800Z AUTO 00000KT 12SM 14/11 RMK SLP063 T01350113 40314//// 57012 IEM_DS3505
ZBYN,1989-06-27 19:00,ZBYN 271900Z AUTO 12004KT 7SM 14/09 A2988 RMK T01400090 IEM_DS3505
ZBYN,1989-06-27 20:00,ZBYN 272000Z AUTO 00000KT 7SM 13/09 A2988 RMK T01300090 IEM_DS3505
ZBYN,1989-06-27 21:00,ZBYN 272100Z AUTO 00000KT 6SM 13/10 A2988 RMK SLP062 T01340095 57001 IEM_DS3505
ZBYN,1989-06-27 22:00,ZBYN 272200Z AUTO 00000KT 6SM 12/09 A2988 RMK T01200090 IEM_DS3505
ZBYN,1989-06-27 23:00,ZBYN 272300Z AUTO 00000KT 6SM 16/11 A2988 RMK T01600110 IEM_DS3505
ZBYN,1989-06-28 00:00,ZBYN 280000Z AUTO 00000KT 5SM 18/11 A2988 RMK SLP067 T01810114 52007 IEM_DS3505
ZBYN,1989-06-28 01:00,ZBYN 280100Z AUTO 00000KT 6SM 23/09 A2988 RMK T02300090 IEM_DS3505
ZBYN,1989-06-28 02:00,ZBYN 280200Z AUTO 18004KT 6SM 24/10 A2988 RMK T02400100 IEM_DS3505
ZBYN,1989-06-28 03:00,ZBYN 280300Z AUTO 14002KT 6SM 25/11 A2985 RMK SLP055 T02510107 57015 IEM_DS3505
ZBYN,1989-06-28 04:00,ZBYN 280400Z AUTO 19004KT 6SM 26/11 A2983 RMK T02600110 IEM_DS3505
ZBYN,1989-06-28 05:00,ZBYN 280500Z AUTO 00000KT 6SM 27/12 A2980 RMK T02700120 IEM_DS3505
ZBYN,1989-06-28 06:00,ZBYN 280600Z AUTO 32004KT 6SM 27/12 A2980 RMK SLP038 T02710124 4////0117 57018 IEM_DS3505
ZBYN,1989-06-28 08:00,ZBYN 280800Z AUTO 32016KT 7SM 25/11 A2980 RMK T02500110 IEM_DS3505
ZBYN,1989-06-28 09:00,ZBYN 280900Z AUTO 36004KT 11SM 24/12 A2980 RMK SLP046 T02370123 52003 IEM_DS3505
ZBYN,1989-06-28 10:00,ZBYN 281000Z AUTO 35010KT 7SM 22/12 A2983 RMK T02200120 IEM_DS3505
ZBYN,1989-06-28 11:00,ZBYN 281100Z AUTO 25010KT 7SM 19/14 A2985 RMK T01900140 IEM_DS3505
ZBYN,1989-06-28 12:00,ZBYN 281200Z AUTO 00000KT 11SM 19/15 RMK 60001 SLP051 T01860146 52004 IEM_DS3505
ZBYN,1989-06-28 13:00,ZBYN 281300Z AUTO 14004KT 7SM 18/15 A2983 RMK T01800150 IEM_DS3505
ZBYN,1989-06-28 15:00,ZBYN 281500Z AUTO 00000KT 11SM 15/14 A2980 RMK SLP036 T01540144 57009 IEM_DS3505
ZBYN,1989-06-28 16:00,ZBYN 281600Z AUTO 00000KT 7SM 14/14 A2980 RMK T01400140 IEM_DS3505
ZBYN,1989-06-28 17:00,ZBYN 281700Z AUTO 00000KT 7SM 14/14 A2977 RMK T01400140 IEM_DS3505
ZBYN,1989-06-28 18:00,ZBYN 281800Z AUTO 22002KT 9SM 13/13 RMK SLP033 T01340131 40286//// 57002 IEM_DS3505
ZBYN,1989-06-28 21:00,ZBYN 282100Z AUTO 00000KT 1 1/4SM 13/13 A2980 RMK SLP035 T01280126 57004 IEM_DS3505
ZBYN,1989-06-28 22:00,ZBYN 282200Z AUTO 00000KT 5SM 12/12 A2980 RMK T01200120 IEM_DS3505
ZBYN,1989-06-28 23:00,ZBYN 282300Z AUTO 00000KT 4SM 15/14 A2980 RMK T01500140 IEM_DS3505
ZBYN,1989-06-29 00:00,ZBYN 290000Z AUTO 00000KT 3SM 18/14 RMK SLP043 T01750145 52007 IEM_DS3505
ZBYN,1989-06-29 01:00,ZBYN 290100Z AUTO 00000KT 5SM 20/18 A2980 RMK T02000180 IEM_DS3505
ZBYN,1989-06-29 03:00,ZBYN 290300Z AUTO 02006KT 12SM 25/11 A2980 RMK SLP036 T02460111 57001 IEM_DS3505
ZBYN,1989-06-29 04:00,ZBYN 290400Z AUTO 36014KT 7SM 26/11 A2980 RMK T02600110 IEM_DS3505
ZBYN,1989-06-29 05:00,ZBYN 290500Z AUTO 05008KT 7SM 26/10 A2980 RMK T02600100 IEM_DS3505
ZBYN,1989-06-29 06:00,ZBYN 290600Z AUTO 02004KT 16SM 28/10 A2977 RMK SLP027 T02770101 4////0118 57007 IEM_DS3505
ZBYN,1989-06-29 07:00,ZBYN 290700Z AUTO 33014KT 7SM 28/11 A2977 RMK T02800110 IEM_DS3505
ZBYN,1989-06-29 08:00,ZBYN 290800Z AUTO 00000KT 7SM 28/12 A2977 RMK T02800120 IEM_DS3505
ZBYN,1989-06-29 09:00,ZBYN 290900Z AUTO 02004KT 19SM 27/12 A2974 RMK SLP020 T02690117 57008 IEM_DS3505
ZBYN,1989-06-29 10:00,ZBYN 291000Z AUTO 00000KT 7SM 26/12 A2974 RMK T02600120 IEM_DS3505
ZBYN,1989-06-29 11:00,ZBYN 291100Z AUTO 00000KT 7SM 25/15 A2974 RMK T02500150 IEM_DS3505
ZBYN,1989-06-29 12:00,ZBYN 291200Z AUTO 00000KT 19SM 23/16 A2977 RMK SLP031 T02260158 52010 IEM_DS3505
ZBYN,1989-06-29 13:00,ZBYN 291300Z AUTO 00000KT 7SM 21/12 A2977 RMK T02100120 IEM_DS3505
ZBYN,1989-06-29 15:00,ZBYN 291500Z AUTO 32004KT 12SM 19/09 A2980 RMK SLP039 T01910087 52013 IEM_DS3505
ZBYN,1989-06-29 16:00,ZBYN 291600Z AUTO 11006KT 7SM 16/10 A2983 RMK T01600100 IEM_DS3505
ZBYN,1989-06-29 18:00,ZBYN 291800Z AUTO 34002KT 12SM 16/08 RMK SLP048 T01560078 40286//// 52007 IEM_DS3505
ZBYN,1989-06-29 21:00,ZBYN 292100Z AUTO 36004KT 11SM 15/09 A2983 RMK SLP053 T01500090 52006 IEM_DS3505
ZBYN,1989-06-29 22:00,ZBYN 292200Z AUTO 33006KT 7SM 15/08 A2985 RMK T01500080 IEM_DS3505
ZBYN,1989-06-29 23:00,ZBYN 292300Z AUTO 33002KT 6SM 18/11 A2988 RMK T01800110 IEM_DS3505
ZBYN,1989-06-30 00:00,ZBYN 300000Z AUTO 34004KT 6SM 19/10 A2988 RMK SLP073 T01930098 52015 IEM_DS3505
ZBYN,1989-06-30 01:00,ZBYN 300100Z AUTO 29006KT 7SM 22/13 A2988 RMK T02200130 IEM_DS3505
ZBYN,1989-06-30 02:00,ZBYN 300200Z AUTO 00000KT 7SM 24/13 A2988 RMK T02400130 IEM_DS3505
ZBYN,1989-06-30 03:00,ZBYN 300300Z AUTO 00000KT 7SM 26/14 A2988 RMK SLP063 T02560141 57005 IEM_DS3505
ZBYN,1989-06-30 04:00,ZBYN 300400Z AUTO 16006KT 7SM 27/15 A2988 RMK T02700150 IEM_DS3505
ZBYN,1989-06-30 06:00,ZBYN 300600Z AUTO 00000KT 9SM 29/16 A2985 RMK SLP042 T02860156 4////0144 57020 IEM_DS3505
ZBYN,1989-06-30 09:00,ZBYN 300900Z AUTO 14006KT 7SM 29/14 A2977 RMK SLP025 T02940137 57012 IEM_DS3505
ZBYN,1989-06-30 10:00,ZBYN 301000Z AUTO 10016KT 7SM 27/12 A2980 RMK T02700120 IEM_DS3505
ZBYN,1989-06-30 11:00,ZBYN 301100Z AUTO 09012KT 7SM 26/10 A2980 RMK T02600100 IEM_DS3505
ZBYN,1989-06-30 12:00,ZBYN 301200Z AUTO 09008KT 9SM 24/13 A2983 RMK T02440128 52014 IEM_DS3505
ZBYN,1989-06-30 13:00,ZBYN 301300Z AUTO 12010KT 7SM 24/12 A2985 RMK T02400120 IEM_DS3505
ZBYN,1989-06-30 14:00,ZBYN 301400Z AUTO 16008KT 7SM 23/12 A2988 RMK T02300120 IEM_DS3505
ZBYN,1989-06-30 15:00,ZBYN 301500Z AUTO 00000KT 9SM 21/14 RMK SLP058 T02080144 52016 IEM_DS3505
ZBYN,1989-06-30 17:00,ZBYN 301700Z AUTO 11006KT 7SM 21/13 A2991 RMK T02100130 IEM_DS3505
ZBYN,1989-06-30 18:00,ZBYN 301800Z AUTO 00000KT 7SM 18/16 RMK 60000 SLP063 T01850159 40304//// 52005 IEM_DS3505
ZBYN,1989-06-30 21:00,ZBYN 302100Z AUTO 00000KT 6SM 17/16 A2991 RMK SLP067 T01730158 52003 IEM_DS3505
ZBYN,1989-06-30 22:00,ZBYN 302200Z AUTO 00000KT 7SM 17/16 A2991 RMK T01700160 IEM_DS3505
ZBYN,1989-06-30 23:00,ZBYN 302300Z AUTO 00000KT 6SM 19/17 A2994 RMK T01900170 IEM_DS3505
ZBYN,1989-07-01 00:00,ZBYN 010000Z AUTO 00000KT 6SM 20/15 A2991 RMK 60004 SLP080 T01980151 52009 IEM_DS3505
ZBYN,1989-07-01 02:00,ZBYN 010200Z AUTO 00000KT 7SM 25/14 A2991 RMK T02500140 IEM_DS3505
ZBYN,1989-07-01 03:00,ZBYN 010300Z AUTO 18006KT 6SM 26/16 A2980 RMK SLP068 T02560158 57008 IEM_DS3505
ZBYN,1989-07-01 04:00,ZBYN 010400Z AUTO 26004KT 7SM 27/16 A2988 RMK T02700160 IEM_DS3505
ZBYN,1989-07-01 06:00,ZBYN 010600Z AUTO 18004KT 6SM 29/16 A2985 RMK SLP043 T02890158 4////0161 57022 IEM_DS3505
ZBYN,1989-07-01 07:00,ZBYN 010700Z AUTO 25012KT 7SM 28/15 A2985 RMK T02800150 IEM_DS3505
ZBYN,1989-07-01 08:00,ZBYN 010800Z AUTO 32006KT 7SM 27/14 A2983 RMK T02700140 IEM_DS3505
ZBYN,1989-07-01 09:00,ZBYN 010900Z AUTO 11002KT 7SM 26/14 A2985 RMK T02580138 52001 IEM_DS3505
ZBYN,1989-07-01 10:00,ZBYN 011000Z AUTO 00000KT 6SM 28/15 A2983 RMK T02800150 IEM_DS3505
ZBYN,1989-07-01 11:00,ZBYN 011100Z AUTO 15004KT 6SM 27/16 A2983 RMK T02700160 IEM_DS3505
ZBYN,1989-07-01 12:00,ZBYN 011200Z AUTO 14006KT 9SM 24/16 A2985 RMK SLP058 T02370163 52008 IEM_DS3505
ZBYN,1989-07-01 13:00,ZBYN 011300Z AUTO 17008KT 6SM 23/13 A2988 RMK T02300130 IEM_DS3505
ZBYN,1989-07-01 14:00,ZBYN 011400Z AUTO 11004KT 7SM 21/14 A2991 RMK T02100140 IEM_DS3505
ZBYN,1989-07-01 15:00,ZBYN 011500Z AUTO 11006KT 9SM 20/14 A2991 RMK SLP075 T02040136 52019 IEM_DS3505
ZBYN,1989-07-01 17:00,ZBYN 011700Z AUTO 13004KT 7SM 20/14 A2994 RMK T02000140 IEM_DS3505
ZBYN,1989-07-01 18:00,ZBYN 011800Z AUTO 11004KT 9SM 17/14 RMK SLP075 T01730145 40298//// 54000 IEM_DS3505
ZBYN,1989-07-01 20:00,ZBYN 012000Z AUTO 00000KT 7SM 17/14 A2994 RMK T01700140 IEM_DS3505
ZBYN,1989-07-01 21:00,ZBYN 012100Z AUTO 00000KT 9SM 15/15 A2994 RMK SLP086 T01540146 52003 IEM_DS3505
ZBYN,1989-07-01 22:00,ZBYN 012200Z AUTO 00000KT 6SM 17/14 A2994 RMK T01700140 IEM_DS3505
ZBYN,1989-07-01 23:00,ZBYN 012300Z AUTO 00000KT 5SM 19/15 A2994 RMK T01900150 IEM_DS3505
ZBYN,1989-07-02 00:00,ZBYN 020000Z AUTO 00000KT 7SM 21/16 A2997 RMK SLP090 T02090158 52008 IEM_DS3505
ZBYN,1989-07-02 01:00,ZBYN 020100Z AUTO 00000KT 7SM 24/16 A2997 RMK T02400160 IEM_DS3505
ZBYN,1989-07-02 02:00,ZBYN 020200Z AUTO 16004KT 7SM 25/17 A2994 RMK T02500170 IEM_DS3505
ZBYN,1989-07-02 03:00,ZBYN 020300Z AUTO 00000KT 6SM 26/18 A2994 RMK SLP080 T02630176 57006 IEM_DS3505
ZBYN,1989-07-02 04:00,ZBYN 020400Z AUTO 19006KT 7SM 28/17 A2994 RMK T02800170 IEM_DS3505
ZBYN,1989-07-02 05:00,ZBYN 020500Z AUTO 23006KT 7SM 29/18 A2991 RMK T02900180 IEM_DS3505
ZBYN,1989-07-02 06:00,ZBYN 020600Z AUTO 22004KT 9SM 31/19 A2991 RMK SLP064 T03060189 4////0146 57013 IEM_DS3505
ZBYN,1989-07-02 07:00,ZBYN 020700Z AUTO 21008KT 7SM 31/17 A2988 RMK T03100170 IEM_DS3505
ZBYN,1989-07-02 08:00,ZBYN 020800Z AUTO 00000KT 7SM 32/16 A2988 RMK T03200160 IEM_DS3505
ZBYN,1989-07-02 09:00,ZBYN 020900Z AUTO 00000KT 12SM 32/14 RMK SLP052 T03190138 57012 IEM_DS3505
ZBYN,1989-07-02 10:00,ZBYN 021000Z AUTO 16012KT 7SM 31/14 A2988 RMK T03100140 IEM_DS3505
ZBYN,1989-07-02 11:00,ZBYN 021100Z AUTO 12006KT 7SM 28/16 A2988 RMK T02800160 IEM_DS3505
ZBYN,1989-07-02 12:00,ZBYN 021200Z AUTO 09008KT 9SM 26/16 A2991 RMK SLP066 T02570160 52012 IEM_DS3505
ZBYN,1989-07-02 13:00,ZBYN 021300Z AUTO 09014KT 6SM 23/15 A2994 RMK T02300150 IEM_DS3505
ZBYN,1989-07-02 14:00,ZBYN 021400Z AUTO 09037KT 6SM 22/15 A2997 RMK T02200150 IEM_DS3505
ZBYN,1989-07-02 15:00,ZBYN 021500Z AUTO 09006KT 7SM 22/16 A2997 RMK SLP091 T02230159 52026 IEM_DS3505
ZBYN,1989-07-02 18:00,ZBYN 021800Z AUTO 04002KT 6SM 21/16 RMK SLP092 T02100160 40326//// 52005 IEM_DS3505
ZBYN,1989-07-02 21:00,ZBYN 022100Z AUTO 34004KT 5SM 19/16 RMK SLP090 T01940160 57002 IEM_DS3505
ZBYN,1989-07-02 22:00,ZBYN 022200Z AUTO 00000KT 5SM 17/16 A3000 RMK T01700160 IEM_DS3505
ZBYN,1989-07-02 23:00,ZBYN 022300Z AUTO 00000KT 3SM 20/17 A3000 RMK T02000170 IEM_DS3505
ZBYN,1989-07-03 00:00,ZBYN 030000Z AUTO 34004KT 5SM 21/17 A3000 RMK SLP104 T02100167 52006 IEM_DS3505
ZBYN,1989-07-03 01:00,ZBYN 030100Z AUTO 08004KT 6SM 24/17 A3000 RMK T02400170 IEM_DS3505
ZBYN,1989-07-03 02:00,ZBYN 030200Z AUTO 00000KT 6SM 26/17 A2997 RMK T02600170 IEM_DS3505
ZBYN,1989-07-03 03:00,ZBYN 030300Z AUTO 16004KT 6SM 27/16 A2997 RMK SLP091 T02680165 57008 IEM_DS3505
ZBYN,1989-07-03 04:00,ZBYN 030400Z AUTO 20008KT 6SM 28/17 A2994 RMK T02800170 IEM_DS3505
ZBYN,1989-07-03 05:00,ZBYN 030500Z AUTO 19006KT 6SM 29/17 A2994 RMK T02900170 IEM_DS3505
ZBYN,1989-07-03 06:00,ZBYN 030600Z AUTO 16006KT 6SM 30/17 A2991 RMK SLP066 T03010166 4////0190 57021 IEM_DS3505
ZBYN,1989-07-03 07:00,ZBYN 030700Z AUTO 20010KT 6SM 31/15 A2988 RMK T03100150 IEM_DS3505
ZBYN,1989-07-03 08:00,ZBYN 030800Z AUTO 16012KT 6SM 31/15 A2988 RMK T03100150 IEM_DS3505
ZBYN,1989-07-03 09:00,ZBYN 030900Z AUTO 18014KT 7SM 27/15 A2988 RMK SLP059 T02680154 57013 IEM_DS3505
ZBYN,1989-07-03 10:00,ZBYN 031000Z AUTO 14010KT 7SM 26/16 A2988 RMK T02600160 IEM_DS3505
ZBYN,1989-07-03 12:00,ZBYN 031200Z AUTO 09008KT 12SM 25/17 A2988 RMK 60008 SLP063 T02520170 52004 IEM_DS3505
ZBYN,1989-07-03 13:00,ZBYN 031300Z AUTO 08014KT 6SM 24/17 A2991 RMK T02400170 IEM_DS3505
ZBYN,1989-07-03 14:00,ZBYN 031400Z AUTO 08010KT 7SM 23/17 A2994 RMK T02300170 IEM_DS3505
ZBYN,1989-07-03 15:00,ZBYN 031500Z AUTO 14004KT 9SM 22/16 A2994 RMK SLP078 T02230165 52018 IEM_DS3505
ZBYN,1989-07-03 16:00,ZBYN 031600Z AUTO 10008KT 7SM 21/17 A2997 RMK T02100170 IEM_DS3505
ZBYN,1989-07-03 17:00,ZBYN 031700Z AUTO 11006KT 7SM 21/17 A2997 RMK T02100170 IEM_DS3505
ZBYN,1989-07-03 18:00,ZBYN 031800Z AUTO 00000KT 9SM 19/16 RMK SLP085 T01880162 40317//// 52006 IEM_DS3505
ZBYN,1989-07-03 19:00,ZBYN 031900Z AUTO 08006KT 6SM 20/16 A2994 RMK T02000160 IEM_DS3505
ZBYN,1989-07-03 21:00,ZBYN 032100Z AUTO 00000KT 6SM 18/15 RMK SLP090 T01790149 57001 IEM_DS3505
ZBYN,1989-07-03 22:00,ZBYN 032200Z AUTO 13004KT 6SM A2997 RMK IEM_DS3505
ZBYN,1989-07-03 23:00,ZBYN 032300Z AUTO 11008KT 5SM 20/16 A2997 RMK T02000160 IEM_DS3505
ZBYN,1989-07-04 00:00,ZBYN 040000Z AUTO 09010KT 6SM 22/16 A2997 RMK SLP096 T02150163 52008 IEM_DS3505
ZBYN,1989-07-04 02:00,ZBYN 040200Z AUTO 12010KT 6SM 25/15 A2997 RMK T02500150 IEM_DS3505
ZBYN,1989-07-04 03:00,ZBYN 040300Z AUTO 18006KT 5SM 26/14 A2997 RMK SLP088 T02640145 57005 IEM_DS3505
ZBYN,1989-07-04 04:00,ZBYN 040400Z AUTO 15006KT 6SM 28/14 A2994 RMK T02800140 IEM_DS3505
ZBYN,1989-07-04 05:00,ZBYN 040500Z AUTO 15006KT 6SM 29/12 A2994 RMK T02900120 IEM_DS3505
ZBYN,1989-07-04 06:00,ZBYN 040600Z AUTO 18008KT 9SM 30/13 A2991 RMK SLP058 T03020129 4////0170 57027 IEM_DS3505
ZBYN,1989-07-04 07:00,ZBYN 040700Z AUTO 18008KT 9SM 31/12 A2988 RMK SLP058 T03100120 57027 IEM_DS3505
ZBYN,1989-07-04 08:00,ZBYN 040800Z AUTO 19014KT 6SM 31/13 A2988 RMK T03100130 IEM_DS3505
ZBYN,1989-07-04 09:00,ZBYN 040900Z AUTO 14008KT 9SM 29/14 RMK SLP053 T02860140 57008 IEM_DS3505
ZBYN,1989-07-04 10:00,ZBYN 041000Z AUTO 14010KT 6SM 28/14 A2985 RMK T02800140 IEM_DS3505
ZBYN,1989-07-04 11:00,ZBYN 041100Z AUTO 15016KT 6SM 28/13 A2988 RMK T02800130 IEM_DS3505
ZBYN,1989-07-04 14:00,ZBYN 041400Z AUTO 6SM 25/12 A2994 RMK T02500120 IEM_DS3505
ZBYN,1989-07-04 15:00,ZBYN 041500Z AUTO 16006KT 9SM 24/15 RMK SLP080 T02370146 52018 IEM_DS3505
ZBYN,1989-07-04 18:00,ZBYN 041800Z AUTO 00000KT 6SM 20/16 RMK 60001 SLP084 T02000163 40306//// 52004 IEM_DS3505
ZBYN,1989-07-04 19:00,ZBYN 041900Z AUTO 31004KT 7SM 19/16 A2994 RMK T01900160 IEM_DS3505
ZBYN,1989-07-04 21:00,ZBYN 042100Z AUTO 00000KT 12SM 19/16 A2994 RMK T01900164 57005 IEM_DS3505
ZBYN,1989-07-04 22:00,ZBYN 042200Z AUTO 15008KT 7SM 22/15 A2997 RMK T02200150 IEM_DS3505
ZBYN,1989-07-05 00:00,ZBYN 050000Z AUTO 11002KT 5SM 20/16 A2997 RMK 60000 SLP091 T01980158 52006 IEM_DS3505
ZBYN,1989-07-05 01:00,ZBYN 050100Z AUTO 11008KT 7SM 20/14 A2997 RMK T02000140 IEM_DS3505
ZBYN,1989-07-05 02:00,ZBYN 050200Z AUTO 07010KT 7SM 19/15 A2997 RMK T01900150 IEM_DS3505
ZBYN,1989-07-05 03:00,ZBYN 050300Z AUTO 11004KT 7SM 20/15 A2997 RMK SLP098 T01950153 52002 IEM_DS3505
ZBYN,1989-07-05 04:00,ZBYN 050400Z AUTO 09004KT 7SM 20/15 A2997 RMK T02000150 IEM_DS3505
ZBYN,1989-07-05 06:00,ZBYN 050600Z AUTO 34002KT 5SM 19/17 A2994 RMK SLP094 T01900169 4////0180 57010 IEM_DS3505
ZBYN,1989-07-05 07:00,ZBYN 050700Z AUTO 07008KT 7SM 19/18 A2994 RMK T01900180 IEM_DS3505
ZBYN,1989-07-05 08:00,ZBYN 050800Z AUTO 06004KT 7SM 20/17 A2994 RMK T02000170 IEM_DS3505
ZBYN,1989-07-05 09:00,ZBYN 050900Z AUTO 00000KT 5SM 19/18 A2991 RMK SLP090 T01880175 57005 IEM_DS3505
ZBYN,1989-07-05 10:00,ZBYN 051000Z AUTO 03002KT 7SM 20/17 A2991 RMK T02000170 IEM_DS3505
ZBYN,1989-07-05 11:00,ZBYN 051100Z AUTO 34004KT 7SM 19/18 A2994 RMK T01900180 IEM_DS3505
ZBYN,1989-07-05 12:00,ZBYN 051200Z AUTO 36004KT 5SM 18/18 RMK 60002 SLP092 T01830180 52002 IEM_DS3505
ZBYN,1989-07-05 14:00,ZBYN 051400Z AUTO 00000KT 7SM 19/18 A2994 RMK T01900180 IEM_DS3505
ZBYN,1989-07-05 15:00,ZBYN 051500Z AUTO 00000KT 5SM 19/18 A2994 RMK SLP093 T01870178 52001 IEM_DS3505
ZBYN,1989-07-05 16:00,ZBYN 051600Z AUTO 00000KT 7SM 19/17 A2994 RMK T01900170 IEM_DS3505
ZBYN,1989-07-05 17:00,ZBYN 051700Z AUTO 00000KT 7SM 19/17 A2994 RMK T01900170 IEM_DS3505
ZBYN,1989-07-05 21:00,ZBYN 052100Z AUTO 00000KT 4SM 19/18 A2991 RMK SLP081 T01870179 57007 IEM_DS3505
ZBYN,1989-07-05 23:00,ZBYN 052300Z AUTO 09004KT 7SM 20/17 A2994 RMK T02000170 IEM_DS3505
ZBYN,1989-07-06 00:00,ZBYN 060000Z AUTO 32002KT 4SM 20/18 A2991 RMK SLP082 T01970178 52002 IEM_DS3505
ZBYN,1989-07-06 02:00,ZBYN 060200Z AUTO 00000KT 7SM 22/17 A2991 RMK T02200170 IEM_DS3505
ZBYN,1989-07-06 03:00,ZBYN 060300Z AUTO 00000KT 6SM 22/18 A2988 RMK SLP072 T02200175 57005 IEM_DS3505
ZBYN,1989-07-06 04:00,ZBYN 060400Z AUTO 00000KT 7SM 25/19 A2988 RMK T02500190 IEM_DS3505
ZBYN,1989-07-06 05:00,ZBYN 060500Z AUTO 32004KT 7SM 24/18 A2985 RMK T02400180 IEM_DS3505
ZBYN,1989-07-06 06:00,ZBYN 060600Z AUTO 29002KT 6SM 25/18 A2985 RMK SLP052 T02520182 4////0181 57014 IEM_DS3505
ZBYN,1989-07-06 07:00,ZBYN 060700Z AUTO 07008KT 7SM 25/18 A2983 RMK T02500180 IEM_DS3505
ZBYN,1989-07-06 08:00,ZBYN 060800Z AUTO 09006KT 7SM 24/18 A2983 RMK T02400180 IEM_DS3505
ZBYN,1989-07-06 09:00,ZBYN 060900Z AUTO 09006KT 7SM 24/18 A2983 RMK SLP041 T02400180 57012 IEM_DS3505
ZBYN,1989-07-06 10:00,ZBYN 061000Z AUTO 11008KT 6SM 24/18 A2980 RMK T02400180 IEM_DS3505
ZBYN,1989-07-06 11:00,ZBYN 061100Z AUTO 09004KT 7SM 24/18 A2980 RMK T02400180 IEM_DS3505
ZBYN,1989-07-06 12:00,ZBYN 061200Z AUTO 14004KT 12SM 23/18 A2983 RMK SLP041 T02300183 54000 IEM_DS3505
ZBYN,1989-07-06 14:00,ZBYN 061400Z AUTO 06004KT 7SM 21/18 A2983 RMK T02100180 IEM_DS3505
ZBYN,1989-07-06 15:00,ZBYN 061500Z AUTO 00000KT 6SM 21/19 A2983 RMK SLP046 T02080194 52005 IEM_DS3505
ZBYN,1989-07-06 16:00,ZBYN 061600Z AUTO 10008KT 6SM 21/18 A2983 RMK T02100180 IEM_DS3505
ZBYN,1989-07-06 17:00,ZBYN 061700Z AUTO 10008KT 6SM 21/18 RMK T02100180 IEM_DS3505
ZBYN,1989-07-06 18:00,ZBYN 061800Z AUTO 14004KT 6SM 20/18 A2980 RMK T02020180 40257//// 57009 IEM_DS3505
ZBYN,1989-07-06 19:00,ZBYN 061900Z AUTO 13004KT 4SM 21/18 A2980 RMK T02100180 IEM_DS3505
ZBYN,1989-07-06 20:00,ZBYN 062000Z AUTO 00000KT 4SM 20/19 A2980 RMK T02000190 IEM_DS3505
ZBYN,1989-07-06 21:00,ZBYN 062100Z AUTO 00000KT 5SM 20/19 A2980 RMK SLP036 T01980187 52001 IEM_DS3505
ZBYN,1989-07-06 22:00,ZBYN 062200Z AUTO 00000KT 4SM 20/19 A2980 RMK T02000190 IEM_DS3505
ZBYN,1989-07-06 23:00,ZBYN 062300Z AUTO 00000KT 4SM 20/19 A2983 RMK T02000190 IEM_DS3505
ZBYN,1989-07-07 00:00,ZBYN 070000Z AUTO 00000KT 4SM 20/19 A2983 RMK 60004 SLP046 T02000194 52008 IEM_DS3505
ZBYN,1989-07-07 01:00,ZBYN 070100Z AUTO 00000KT 3SM 20/19 A2983 RMK T02000190 IEM_DS3505
ZBYN,1989-07-07 02:00,ZBYN 070200Z AUTO 00000KT 3SM 21/20 A2983 RMK T02100200 IEM_DS3505
ZBYN,1989-07-07 03:00,ZBYN 070300Z AUTO 00000KT 5SM 22/20 RMK SLP046 T02210202 54000 IEM_DS3505
ZBYN,1989-07-07 04:00,ZBYN 070400Z AUTO 00000KT 5SM 23/20 A2983 RMK T02300200 IEM_DS3505
ZBYN,1989-07-07 05:00,ZBYN 070500Z AUTO 00000KT 4SM 24/20 A2983 RMK T02400200 IEM_DS3505
ZBYN,1989-07-07 06:00,ZBYN 070600Z AUTO 18004KT 6SM 25/20 A2983 RMK 60039 SLP035 T02500198 4////0193 57007 IEM_DS3505
ZBYN,1989-07-07 07:00,ZBYN 070700Z AUTO 21004KT 7SM 26/20 A2980 RMK T02600200 IEM_DS3505
ZBYN,1989-07-07 08:00,ZBYN 070800Z AUTO 20004KT 6SM 26/20 A2980 RMK T02600200 IEM_DS3505
ZBYN,1989-07-07 09:00,ZBYN 070900Z AUTO 18004KT 6SM 25/21 A2977 RMK SLP026 T02540206 57008 IEM_DS3505
ZBYN,1989-07-07 10:00,ZBYN 071000Z AUTO 20002KT 6SM 26/20 A2977 RMK T02600200 IEM_DS3505
ZBYN,1989-07-07 11:00,ZBYN 071100Z AUTO 19004KT 6SM 25/19 A2977 RMK T02500190 IEM_DS3505
ZBYN,1989-07-07 12:00,ZBYN 071200Z AUTO 18004KT 6SM 24/19 A2977 RMK SLP021 T02390191 57007 IEM_DS3505
ZBYN,1989-07-07 13:00,ZBYN 071300Z AUTO 12006KT 6SM 23/19 A2977 RMK T02300190 IEM_DS3505
ZBYN,1989-07-07 14:00,ZBYN 071400Z AUTO 11004KT 6SM 21/20 A2980 RMK T02100200 IEM_DS3505
ZBYN,1989-07-07 15:00,ZBYN 071500Z AUTO 14006KT 7SM 21/19 RMK SLP029 T02140190 52007 IEM_DS3505
ZBYN,1989-07-07 16:00,ZBYN 071600Z AUTO 11004KT 6SM 21/19 A2980 RMK T02100190 IEM_DS3505
ZBYN,1989-07-07 17:00,ZBYN 071700Z AUTO 12006KT 7SM 20/18 A2980 RMK T02000180 IEM_DS3505
ZBYN,1989-07-07 18:00,ZBYN 071800Z AUTO 11004KT 5SM 20/19 RMK SLP032 T01970188 40265//// 52005 IEM_DS3505
ZBYN,1989-07-07 21:00,ZBYN 072100Z AUTO 14002KT 2SM 20/20 A2980 RMK SLP037 T02020197 52005 IEM_DS3505
ZBYN,1989-07-07 22:00,ZBYN 072200Z AUTO 00000KT 3SM 20/19 A2983 RMK T02000190 IEM_DS3505
ZBYN,1989-07-07 23:00,ZBYN 072300Z AUTO 17004KT 3SM 21/19 A2983 RMK T02100190 IEM_DS3505
ZBYN,1989-07-08 00:00,ZBYN 080000Z AUTO 00000KT 3SM 22/20 A2985 RMK SLP053 T02200201 52015 IEM_DS3505
ZBYN,1989-07-08 01:00,ZBYN 080100Z AUTO 24002KT 4SM 22/20 A2985 RMK T02200200 IEM_DS3505
ZBYN,1989-07-08 02:00,ZBYN 080200Z AUTO 10004KT 5SM 24/20 A2988 RMK T02400200 IEM_DS3505
ZBYN,1989-07-08 03:00,ZBYN 080300Z AUTO 02004KT 4SM 26/19 A2985 RMK SLP051 T02650190 52001 IEM_DS3505
ZBYN,1989-07-08 04:00,ZBYN 080400Z AUTO 04008KT 6SM 29/09 A2985 RMK T02900090 IEM_DS3505
ZBYN,1989-07-08 05:00,ZBYN 080500Z AUTO 02008KT 6SM 30/11 A2983 RMK T03000110 IEM_DS3505
ZBYN,1989-07-08 06:00,ZBYN 080600Z AUTO 29006KT 9SM 30/14 A2980 RMK SLP037 T02970137 4////0183 57010 IEM_DS3505
ZBYN,1989-07-08 07:00,ZBYN 080700Z AUTO 22010KT 6SM 30/14 A2980 RMK T03000140 IEM_DS3505
ZBYN,1989-07-08 08:00,ZBYN 080800Z AUTO 23008KT 6SM 31/13 A2980 RMK T03100130 IEM_DS3505
ZBYN,1989-07-08 09:00,ZBYN 080900Z AUTO 27002KT 9SM 30/16 A2980 RMK SLP032 T03010157 57004 IEM_DS3505
ZBYN,1989-07-08 10:00,ZBYN 081000Z AUTO 24008KT 6SM 30/16 A2980 RMK T03000160 IEM_DS3505
ZBYN,1989-07-08 11:00,ZBYN 081100Z AUTO 26006KT 6SM 28/18 A2980 RMK T02800180 IEM_DS3505
ZBYN,1989-07-08 12:00,ZBYN 081200Z AUTO 02002KT 9SM 26/15 A2980 RMK SLP040 T02600150 52004 IEM_DS3505
ZBYN,1989-07-08 13:00,ZBYN 081300Z AUTO 00000KT 6SM 25/10 A2985 RMK T02500100 IEM_DS3505
ZBYN,1989-07-08 14:00,ZBYN 081400Z AUTO 32006KT 6SM 21/12 A2988 RMK T02100120 IEM_DS3505
ZBYN,1989-07-08 15:00,ZBYN 081500Z AUTO 34006KT 9SM 22/10 A2988 RMK SLP055 T02240101 52015 IEM_DS3505
ZBYN,1989-07-08 16:00,ZBYN 081600Z AUTO 26004KT 6SM 19/12 A2988 RMK T01900120 IEM_DS3505
ZBYN,1989-07-08 17:00,ZBYN 081700Z AUTO 33006KT 6SM RMK IEM_DS3505
ZBYN,1989-07-08 18:00,ZBYN 081800Z AUTO 34004KT 9SM 19/09 RMK SLP064 T01930089 40308//// 52009 IEM_DS3505
ZBYN,1989-07-08 20:00,ZBYN 082000Z AUTO 00000KT 6SM 14/11 A2991 RMK T01400110 IEM_DS3505
ZBYN,1989-07-08 21:00,ZBYN 082100Z AUTO 02004KT 9SM 17/08 A2994 RMK SLP075 T01680084 52007 IEM_DS3505
ZBYN,1989-07-08 22:00,ZBYN 082200Z AUTO 00000KT 6SM 13/10 A2994 RMK T01300100 IEM_DS3505
ZBYN,1989-07-08 23:00,ZBYN 082300Z AUTO 00000KT 6SM 17/12 A2994 RMK T01700120 IEM_DS3505
ZBYN,1989-07-09 00:00,ZBYN 090000Z AUTO 34002KT 7SM 20/11 RMK SLP083 T02040112 52007 IEM_DS3505
ZBYN,1989-07-09 01:00,ZBYN 090100Z AUTO 00000KT 6SM 23/09 A2994 RMK T02300090 IEM_DS3505
ZBYN,1989-07-09 02:00,ZBYN 090200Z AUTO 00000KT 6SM 25/09 A2994 RMK T02500090 IEM_DS3505
ZBYN,1989-07-09 03:00,ZBYN 090300Z AUTO 22006KT 6SM 27/10 A2991 RMK T02700100 IEM_DS3505
ZBYN,1989-07-09 04:00,ZBYN 090400Z AUTO 25004KT 6SM 28/11 A2991 RMK T02800110 IEM_DS3505
ZBYN,1989-07-09 05:00,ZBYN 090500Z AUTO 25004KT 6SM 28/11 A2991 RMK T02800110 IEM_DS3505
ZBYN,1989-07-09 06:00,ZBYN 090600Z AUTO 32002KT 9SM 30/15 A2988 RMK SLP053 T02990154 4////0156 57017 IEM_DS3505
ZBYN,1989-07-09 07:00,ZBYN 090700Z AUTO 25006KT 6SM 31/09 A2988 RMK T03100090 IEM_DS3505
ZBYN,1989-07-09 08:00,ZBYN 090800Z AUTO 24004KT 6SM 30/12 A2985 RMK T03000120 IEM_DS3505
ZBYN,1989-07-09 09:00,ZBYN 090900Z AUTO 22006KT 9SM 31/13 A2983 RMK SLP041 T03080133 57013 IEM_DS3505
ZBYN,1989-07-09 10:00,ZBYN 091000Z AUTO 21004KT 6SM 29/12 A2980 RMK T02900120 IEM_DS3505
ZBYN,1989-07-09 11:00,ZBYN 091100Z AUTO 00000KT 6SM 27/16 A2983 RMK T02700160 IEM_DS3505
ZBYN,1989-07-09 12:00,ZBYN 091200Z AUTO 00000KT 9SM 25/19 A2983 RMK SLP046 T02460190 52001 IEM_DS3505
ZBYN,1989-07-09 13:00,ZBYN 091300Z AUTO 08006KT 6SM 23/ RMK IEM_DS3505
ZBYN,1989-07-09 14:00,ZBYN 091400Z AUTO 20008KT 6SM 22/13 A2985 RMK T02200130 IEM_DS3505
ZBYN,1989-07-09 15:00,ZBYN 091500Z AUTO 00000KT 7SM 21/16 A2985 RMK SLP052 T02100161 52008 IEM_DS3505
ZBYN,1989-07-09 18:00,ZBYN 091800Z AUTO 14004KT 7SM 21/16 RMK SLP041 T02080164 40316//// 57005 IEM_DS3505
ZBYN,1989-07-09 21:00,ZBYN 092100Z AUTO 14002KT 7SM 21/18 RMK SLP039 T02060181 57001 IEM_DS3505
ZBYN,1989-07-09 22:00,ZBYN 092200Z AUTO 12004KT 4SM 21/18 A2985 RMK T02100180 IEM_DS3505
ZBYN,1989-07-09 23:00,ZBYN 092300Z AUTO 11006KT 4SM 22/18 A2985 RMK T02200180 IEM_DS3505
ZBYN,1989-07-10 00:00,ZBYN 100000Z AUTO 32002KT 6SM 22/19 A2985 RMK SLP049 T02210194 52003 IEM_DS3505
ZBYN,1989-07-10 01:00,ZBYN 100100Z AUTO 00000KT 5SM 24/20 A2985 RMK T02400200 IEM_DS3505
ZBYN,1989-07-10 02:00,ZBYN 100200Z AUTO 21008KT 6SM 24/19 A2985 RMK T02400190 IEM_DS3505
ZBYN,1989-07-10 03:00,ZBYN 100300Z AUTO 18002KT 6SM 25/18 A2985 RMK SLP049 T02460185 57002 IEM_DS3505
ZBYN,1989-07-10 04:00,ZBYN 100400Z AUTO 21004KT 6SM 26/20 A2983 RMK T02600200 IEM_DS3505
ZBYN,1989-07-10 05:00,ZBYN 100500Z AUTO 19004KT 6SM 27/19 A2983 RMK T02700190 IEM_DS3505
ZBYN,1989-07-10 06:00,ZBYN 100600Z AUTO 20006KT 6SM 27/21 A2980 RMK SLP032 T02700209 4////0194 57012 IEM_DS3505
ZBYN,1989-07-10 07:00,ZBYN 100700Z AUTO 20012KT 6SM 27/18 A2980 RMK T02700180 IEM_DS3505
ZBYN,1989-07-10 08:00,ZBYN 100800Z AUTO 20010KT 6SM 27/17 RMK T02700170 IEM_DS3505
ZBYN,1989-07-10 09:00,ZBYN 100900Z AUTO 32010KT 5SM 22/20 A2980 RMK SLP040 T02200201 54000 IEM_DS3505
ZBYN,1989-07-10 10:00,ZBYN 101000Z AUTO 01006KT 7SM 20/18 A2983 RMK T02000180 IEM_DS3505
ZBYN,1989-07-10 11:00,ZBYN 101100Z AUTO 30006KT 7SM 20/19 A2980 RMK T02000190 IEM_DS3505
ZBYN,1989-07-10 12:00,ZBYN 101200Z AUTO 34002KT 6SM 21/18 A2985 RMK 60016 SLP050 T02070177 52009 IEM_DS3505
ZBYN,1989-07-10 13:00,ZBYN 101300Z AUTO 00000KT 4SM 20/19 A2985 RMK T02000190 IEM_DS3505
ZBYN,1989-07-10 14:00,ZBYN 101400Z AUTO 24004KT 3SM 20/19 A2988 RMK T02000190 IEM_DS3505
ZBYN,1989-07-10 15:00,ZBYN 101500Z AUTO 00000KT 6SM 19/19 RMK SLP063 T01940186 52014 IEM_DS3505
ZBYN,1989-07-10 18:00,ZBYN 101800Z AUTO 32002KT 6SM 19/18 RMK T01920175 52003 IEM_DS3505
ZBYN,1989-07-10 21:00,ZBYN 102100Z AUTO 32002KT 6SM 18/16 RMK SLP080 T01760160 52006 IEM_DS3505
ZBYN,1989-07-10 22:00,ZBYN 102200Z AUTO 36006KT 6SM 16/13 A2994 RMK T01600130 IEM_DS3505
ZBYN,1989-07-10 23:00,ZBYN 102300Z AUTO 35006KT 6SM 17/12 A2994 RMK T01700120 IEM_DS3505
ZBYN,1989-07-11 00:00,ZBYN 110000Z AUTO 36004KT 7SM 22/12 RMK SLP089 T02150119 52012 IEM_DS3505
ZBYN,1989-07-11 01:00,ZBYN 110100Z AUTO 33010KT 6SM 25/06 A2994 RMK T02500060 IEM_DS3505
ZBYN,1989-07-11 02:00,ZBYN 110200Z AUTO 34012KT 6SM 25/09 A2991 RMK T02500090 IEM_DS3505
ZBYN,1989-07-11 03:00,ZBYN 110300Z AUTO 34006KT 12SM 26/11 A2991 RMK SLP078 T02560107 57006 IEM_DS3505
ZBYN,1989-07-11 04:00,ZBYN 110400Z AUTO 29008KT 6SM A2988 RMK IEM_DS3505
ZBYN,1989-07-11 05:00,ZBYN 110500Z AUTO 29006KT 6SM 28/08 A2991 RMK T02800080 IEM_DS3505
ZBYN,1989-07-11 06:00,ZBYN 110600Z AUTO 32004KT 16SM 28/11 RMK SLP057 T02820113 4////0172 IEM_DS3505
ZBYN,1989-07-11 07:00,ZBYN 110700Z AUTO 29008KT 6SM 30/06 A2985 RMK T03000060 IEM_DS3505
ZBYN,1989-07-11 08:00,ZBYN 110800Z AUTO 6SM 30/04 A2983 RMK T03000040 IEM_DS3505
ZBYN,1989-07-11 09:00,ZBYN 110900Z AUTO 25002KT 17SM 30/11 A2983 RMK SLP043 T02960113 57013 IEM_DS3505
ZBYN,1989-07-11 11:00,ZBYN 111100Z AUTO 30006KT 6SM 27/11 A2985 RMK T02700110 IEM_DS3505
ZBYN,1989-07-11 12:00,ZBYN 111200Z AUTO 02004KT 12SM 25/11 A2985 RMK T02540113 52010 IEM_DS3505
ZBYN,1989-07-11 13:00,ZBYN 111300Z AUTO 01008KT 7SM 22/09 A2988 RMK T02200090 IEM_DS3505
ZBYN,1989-07-11 14:00,ZBYN 111400Z AUTO 00000KT 7SM 22/10 A2991 RMK T02200100 IEM_DS3505
ZBYN,1989-07-11 15:00,ZBYN 111500Z AUTO 34004KT 11SM 21/12 A2991 RMK SLP068 T02120122 52012 IEM_DS3505
ZBYN,1989-07-11 16:00,ZBYN 111600Z AUTO 34004KT 7SM 19/11 A2991 RMK T01900110 IEM_DS3505
ZBYN,1989-07-11 17:00,ZBYN 111700Z AUTO 00000KT 7SM 19/11 A2991 RMK T01900110 IEM_DS3505
ZBYN,1989-07-11 18:00,ZBYN 111800Z AUTO 00000KT 11SM 19/12 A2991 RMK SLP073 T01870121 40302//// 52005 IEM_DS3505
ZBYN,1989-07-11 20:00,ZBYN 112000Z AUTO 06004KT 7SM 15/11 A2991 RMK T01500110 IEM_DS3505
ZBYN,1989-07-11 21:00,ZBYN 112100Z AUTO 00000KT 6SM 17/12 A2994 RMK SLP080 T01680115 52006 IEM_DS3505
ZBYN,1989-07-11 22:00,ZBYN 112200Z AUTO 10004KT 7SM 13/10 A2994 RMK T01300100 IEM_DS3505
ZBYN,1989-07-11 23:00,ZBYN 112300Z AUTO 00000KT 7SM 18/12 A2997 RMK T01800120 IEM_DS3505
ZBYN,1989-07-12 00:00,ZBYN 120000Z AUTO 00000KT 6SM 20/13 A2997 RMK SLP094 T01980128 52011 IEM_DS3505
ZBYN,1989-07-12 02:00,ZBYN 120200Z AUTO 00000KT 7SM 25/13 A2997 RMK T02500130 IEM_DS3505
ZBYN,1989-07-12 03:00,ZBYN 120300Z AUTO 20002KT 5SM 26/14 A2997 RMK SLP083 T02630140 57007 IEM_DS3505
ZBYN,1989-07-12 05:00,ZBYN 120500Z AUTO 20008KT 7SM 29/ A2994 RMK IEM_DS3505
ZBYN,1989-07-12 06:00,ZBYN 120600Z AUTO 00000KT 16SM 29/14 RMK SLP066 T02910145 4////0136 57015 IEM_DS3505
ZBYN,1989-07-12 08:00,ZBYN 120800Z AUTO 20008KT 7SM 30/10 A2988 RMK T03000100 IEM_DS3505
ZBYN,1989-07-12 09:00,ZBYN 120900Z AUTO 16004KT 16SM 30/14 RMK SLP052 T03000137 57014 IEM_DS3505
ZBYN,1989-07-12 10:00,ZBYN 121000Z AUTO 00000KT 7SM 30/10 A2988 RMK T03000100 IEM_DS3505
ZBYN,1989-07-12 12:00,ZBYN 121200Z AUTO 00000KT 16SM 25/18 RMK SLP055 T02520175 54000 IEM_DS3505
ZBYN,1989-07-12 15:00,ZBYN 121500Z AUTO 00000KT 16SM 19/16 A2991 RMK SLP068 T01900163 52012 IEM_DS3505
ZBYN,1989-07-12 18:00,ZBYN 121800Z AUTO 00000KT 12SM 17/16 RMK SLP072 T01720157 40303//// 52005 IEM_DS3505
ZBYN,1989-07-12 19:00,ZBYN 121900Z AUTO 00000KT 6SM 19/14 A2991 RMK T01900140 IEM_DS3505
ZBYN,1989-07-12 21:00,ZBYN 122100Z AUTO 00000KT 6SM 16/14 RMK SLP075 T01640144 52003 IEM_DS3505
ZBYN,1989-07-12 23:00,ZBYN 122300Z AUTO 00000KT 19/15 A2994 RMK T01900150 IEM_DS3505
ZBYN,1989-07-13 00:00,ZBYN 130000Z AUTO 00000KT 5SM 21/16 RMK SLP080 T02120159 52005 IEM_DS3505
ZBYN,1989-07-13 01:00,ZBYN 130100Z AUTO 13004KT 6SM 25/17 A2994 RMK T02500170 IEM_DS3505
ZBYN,1989-07-13 02:00,ZBYN 130200Z AUTO 00000KT 6SM 26/18 A2994 RMK T02600180 IEM_DS3505
ZBYN,1989-07-13 03:00,ZBYN 130300Z AUTO 14002KT 5SM 27/18 RMK SLP071 T02740178 57008 IEM_DS3505
ZBYN,1989-07-13 04:00,ZBYN 130400Z AUTO 25006KT 6SM RMK IEM_DS3505
ZBYN,1989-07-13 05:00,ZBYN 130500Z AUTO 26006KT 7SM 28/15 A2988 RMK T02800150 IEM_DS3505
ZBYN,1989-07-13 06:00,ZBYN 130600Z AUTO 18004KT 9SM 28/17 A2988 RMK SLP058 T02780172 4////0156 57014 IEM_DS3505
ZBYN,1989-07-13 08:00,ZBYN 130800Z AUTO 11010KT 7SM 26/15 A2985 RMK T02600150 IEM_DS3505
ZBYN,1989-07-13 09:00,ZBYN 130900Z AUTO 09010KT 12SM 26/16 A2985 RMK SLP054 T02620164 57007 IEM_DS3505
ZBYN,1989-07-13 10:00,ZBYN 131000Z AUTO 11010KT 7SM 24/15 A2985 RMK T02400150 IEM_DS3505
ZBYN,1989-07-13 11:00,ZBYN 131100Z AUTO 09004KT 7SM 24/14 A2985 RMK T02400140 IEM_DS3505
ZBYN,1989-07-13 12:00,ZBYN 131200Z AUTO 34006KT 9SM 23/16 RMK SLP066 T02260156 52012 IEM_DS3505
ZBYN,1989-07-13 13:00,ZBYN 131300Z AUTO 29006KT 7SM 21/15 A2988 RMK T02100150 IEM_DS3505
ZBYN,1989-07-13 14:00,ZBYN 131400Z AUTO 32008KT 6SM 20/15 A2991 RMK T02000150 IEM_DS3505
ZBYN,1989-07-13 15:00,ZBYN 131500Z AUTO 34006KT 7SM 20/15 A2997 RMK SLP075 T01980147 52013 IEM_DS3505
ZBYN,1989-07-13 16:00,ZBYN 131600Z AUTO 33008KT 7SM 19/15 A2991 RMK T01900150 IEM_DS3505
ZBYN,1989-07-13 17:00,ZBYN 131700Z AUTO 33008KT 7SM 19/14 A2991 RMK T01900140 IEM_DS3505
ZBYN,1989-07-13 18:00,ZBYN 131800Z AUTO 32006KT 7SM 18/15 A2991 RMK SLP074 T01770152 40285//// 57003 IEM_DS3505
ZBYN,1989-07-13 19:00,ZBYN 131900Z AUTO 33006KT 7SM 18/15 A2991 RMK T01800150 IEM_DS3505
ZBYN,1989-07-13 20:00,ZBYN 132000Z AUTO 34004KT 7SM 17/14 A2991 RMK T01700140 IEM_DS3505
ZBYN,1989-07-13 21:00,ZBYN 132100Z AUTO 26004KT 6SM 16/14 A2994 RMK T01600140 IEM_DS3505
ZBYN,1989-07-13 22:00,ZBYN 132200Z AUTO 34004KT 7SM 16/14 A2994 RMK T01600140 IEM_DS3505
ZBYN,1989-07-13 23:00,ZBYN 132300Z AUTO 00000KT 5SM 18/15 A2994 RMK T01800150 IEM_DS3505
ZBYN,1989-07-14 00:00,ZBYN 140000Z AUTO 04002KT 6SM 20/15 A2994 RMK SLP092 T02010149 52008 IEM_DS3505
ZBYN,1989-07-14 01:00,ZBYN 140100Z AUTO 00000KT 6SM 23/16 A2994 RMK T02300160 IEM_DS3505
ZBYN,1989-07-14 02:00,ZBYN 140200Z AUTO 00000KT 6SM 24/17 A2994 RMK T02400170 IEM_DS3505
ZBYN,1989-07-14 03:00,ZBYN 140300Z AUTO 00000KT 6SM 26/18 A2994 RMK SLP080 T02570181 57007 IEM_DS3505
ZBYN,1989-07-14 04:00,ZBYN 140400Z AUTO 00000KT 7SM 27/17 A2991 RMK T02700170 IEM_DS3505
ZBYN,1989-07-14 05:00,ZBYN 140500Z AUTO 03002KT 7SM 29/16 A2988 RMK T02900160 IEM_DS3505
ZBYN,1989-07-14 06:00,ZBYN 140600Z AUTO 22002KT 12SM 30/16 RMK SLP058 T02960161 4////0166 57018 IEM_DS3505
ZBYN,1989-07-14 07:00,ZBYN 140700Z AUTO 22004KT 7SM 31/14 A2988 RMK T03100140 IEM_DS3505
ZBYN,1989-07-14 08:00,ZBYN 140800Z AUTO 18006KT 7SM 31/14 A2985 RMK T03100140 IEM_DS3505
ZBYN,1989-07-14 09:00,ZBYN 140900Z AUTO 18004KT 19SM 31/18 A2983 RMK SLP039 T03080179 57017 IEM_DS3505
ZBYN,1989-07-14 10:00,ZBYN 141000Z AUTO 22004KT 6SM 30/13 A2983 RMK T03000130 IEM_DS3505
ZBYN,1989-07-14 11:00,ZBYN 141100Z AUTO 10006KT 6SM 29/17 A2983 RMK T02900170 IEM_DS3505
ZBYN,1989-07-14 12:00,ZBYN 141200Z AUTO 07006KT 12SM 27/18 A2985 RMK SLP051 T02710180 52010 IEM_DS3505
ZBYN,1989-07-14 15:00,ZBYN 141500Z AUTO 07002KT 9SM 24/20 RMK SLP063 T02420196 52015 IEM_DS3505
ZBYN,1989-07-14 16:00,ZBYN 141600Z AUTO 07008KT 7SM 23/17 A2988 RMK T02300170 IEM_DS3505
ZBYN,1989-07-14 17:00,ZBYN 141700Z AUTO 07006KT 6SM 22/18 A2991 RMK T02200180 IEM_DS3505
ZBYN,1989-07-14 18:00,ZBYN 141800Z AUTO 34002KT 7SM 21/18 A2991 RMK SLP065 T02100181 40317//// 52003 IEM_DS3505
ZBYN,1989-07-14 19:00,ZBYN 141900Z AUTO 00000KT 7SM 20/18 A2991 RMK T02000180 IEM_DS3505
ZBYN,1989-07-14 21:00,ZBYN 142100Z AUTO 36002KT 5SM 22/18 A2991 RMK SLP064 T02150184 52001 IEM_DS3505
ZBYN,1989-07-14 22:00,ZBYN 142200Z AUTO 00000KT 4SM 21/18 A2994 RMK T02100180 IEM_DS3505
ZBYN,1989-07-14 23:00,ZBYN 142300Z AUTO 00000KT 4SM 21/18 A2994 RMK T02100180 IEM_DS3505
ZBYN,1989-07-15 00:00,ZBYN 150000Z AUTO 00000KT 4SM 23/19 A2994 RMK SLP076 T02260194 52008 IEM_DS3505
ZBYN,1989-07-15 01:00,ZBYN 150100Z AUTO 00000KT 6SM 26/19 A2994 RMK T02600190 IEM_DS3505
ZBYN,1989-07-15 02:00,ZBYN 150200Z AUTO 00000KT 6SM 27/19 A2994 RMK T02700190 IEM_DS3505
ZBYN,1989-07-15 03:00,ZBYN 150300Z AUTO 16004KT 6SM 28/22 RMK SLP060 T02810215 57011 IEM_DS3505
ZBYN,1989-07-15 04:00,ZBYN 150400Z AUTO 21006KT 6SM 29/18 A2988 RMK T02900180 IEM_DS3505
ZBYN,1989-07-15 05:00,ZBYN 150500Z AUTO 00000KT 6SM 30/19 A2988 RMK T03000190 IEM_DS3505
ZBYN,1989-07-15 06:00,ZBYN 150600Z AUTO 18002KT 6SM 31/22 A2985 RMK SLP038 T03140215 4////0195 57020 IEM_DS3505
ZBYN,1989-07-15 08:00,ZBYN 150800Z AUTO 25004KT 6SM 33/19 A2980 RMK T03300190 IEM_DS3505
ZBYN,1989-07-15 09:00,ZBYN 150900Z AUTO 25006KT 7SM 33/21 A2980 RMK SLP017 T03290208 57017 IEM_DS3505
ZBYN,1989-07-15 10:00,ZBYN 151000Z AUTO 00000KT 7SM 32/19 A2980 RMK T03200190 IEM_DS3505
ZBYN,1989-07-15 11:00,ZBYN 151100Z AUTO 15006KT 7SM 31/19 A2980 RMK T03100190 IEM_DS3505
ZBYN,1989-07-15 12:00,ZBYN 151200Z AUTO 11006KT 6SM 27/20 A2983 RMK SLP035 T02740205 52011 IEM_DS3505
ZBYN,1989-07-15 12:23,ZBYN 151223Z AUTO 10006KT 7SM 26/19 A2983 RMK T02600190 IEM_DS3505
ZBYN,1989-07-15 13:00,ZBYN 151300Z AUTO 11006KT 7SM 26/18 A2983 RMK T02600180 IEM_DS3505
ZBYN,1989-07-15 14:00,ZBYN 151400Z AUTO 09012KT 7SM 26/20 A2988 RMK T02600200 IEM_DS3505
ZBYN,1989-07-15 15:00,ZBYN 151500Z AUTO 11004KT 6SM 26/21 A2988 RMK SLP045 T02590212 52014 IEM_DS3505
ZBYN,1989-07-15 17:00,ZBYN 151700Z AUTO 08006KT 6SM 25/20 A2988 RMK T02500200 IEM_DS3505
ZBYN,1989-07-15 18:00,ZBYN 151800Z AUTO 00000KT 6SM 23/21 RMK SLP035 T02340212 40337//// 57008 IEM_DS3505
ZBYN,1989-07-15 19:00,ZBYN 151900Z AUTO 10006KT 6SM 23/20 A2985 RMK T02300200 IEM_DS3505
ZBYN,1989-07-15 20:00,ZBYN 152000Z AUTO 08006KT 6SM 23/20 A2985 RMK T02300200 IEM_DS3505
ZBYN,1989-07-15 21:00,ZBYN 152100Z AUTO 00000KT 4SM 22/21 A2983 RMK SLP032 T02230207 57002 IEM_DS3505
ZBYN,1989-07-15 22:00,ZBYN 152200Z AUTO 07004KT 4SM 22/20 A2985 RMK T02200200 IEM_DS3505
ZBYN,1989-07-15 23:00,ZBYN 152300Z AUTO 09006KT 3SM 24/20 A2985 RMK T02400200 IEM_DS3505
ZBYN,1989-07-16 00:00,ZBYN 160000Z AUTO 00000KT 4SM 25/22 A2985 RMK SLP047 T02460219 52009 IEM_DS3505
ZBYN,1989-07-16 01:00,ZBYN 160100Z AUTO 08008KT 4SM 25/21 A2985 RMK T02500210 IEM_DS3505
ZBYN,1989-07-16 02:00,ZBYN 160200Z AUTO 07004KT 4SM 26/21 A2985 RMK T02600210 IEM_DS3505
ZBYN,1989-07-16 03:00,ZBYN 160300Z AUTO 32002KT 6SM 26/22 A2985 RMK SLP040 T02650224 57006 IEM_DS3505
ZBYN,1989-07-16 04:00,ZBYN 160400Z AUTO 07008KT 4SM 27/21 A2983 RMK T02700210 IEM_DS3505
ZBYN,1989-07-16 05:00,ZBYN 160500Z AUTO 09006KT 4SM 27/21 A2980 RMK T02700210 IEM_DS3505
ZBYN,1989-07-16 06:00,ZBYN 160600Z AUTO 00000KT 6SM 26/23 A2980 RMK SLP025 T02620229 4////0210 57017 IEM_DS3505
ZBYN,1989-07-16 07:00,ZBYN 160700Z AUTO 01008KT 6SM 21/20 A2980 RMK T02100200 IEM_DS3505
ZBYN,1989-07-16 08:00,ZBYN 160800Z AUTO 00000KT 7SM 22/21 A2977 RMK T02200210 IEM_DS3505
ZBYN,1989-07-16 09:00,ZBYN 160900Z AUTO 00000KT 6SM 22/21 RMK SLP022 T02200210 57010 IEM_DS3505
ZBYN,1989-07-16 10:00,ZBYN 161000Z AUTO 35004KT 6SM 22/21 A2977 RMK T02200210 IEM_DS3505
ZBYN,1989-07-16 12:00,ZBYN 161200Z AUTO 32004KT 6SM 21/21 A2974 RMK 60142 SLP018 T02120211 57002 IEM_DS3505
ZBYN,1989-07-16 13:00,ZBYN 161300Z AUTO 09004KT 7SM 22/21 A2974 RMK T02200210 IEM_DS3505
ZBYN,1989-07-16 14:00,ZBYN 161400Z AUTO 11012KT 7SM 21/21 A2974 RMK T02100210 IEM_DS3505
ZBYN,1989-07-16 15:00,ZBYN 161500Z AUTO 02002KT 2 1/2SM 21/21 A2974 RMK SLP012 T02080207 57003 IEM_DS3505
ZBYN,1989-07-16 17:00,ZBYN 161700Z AUTO 03004KT 4SM 22/20 RMK T02200200 IEM_DS3505
ZBYN,1989-07-16 18:00,ZBYN 161800Z AUTO 36004KT 5SM 20/20 RMK 60244 SLP991 T02040204 40334//// 57020 IEM_DS3505
ZBYN,1989-07-16 19:00,ZBYN 161900Z AUTO 07006KT 4SM 21/20 A2968 RMK T02100200 IEM_DS3505
ZBYN,1989-07-16 21:00,ZBYN 162100Z AUTO 00000KT 7SM 20/20 A2968 RMK SLP992 T02040201 57005 IEM_DS3505
ZBYN,1989-07-16 23:00,ZBYN 162300Z AUTO 34010KT 7SM 21/19 RMK T02100190 IEM_DS3505
ZBYN,1989-07-17 00:00,ZBYN 170000Z AUTO 36004KT 6SM 21/20 RMK 60008 SLP002 T02100201 52009 IEM_DS3505
ZBYN,1989-07-17 03:00,ZBYN 170300Z AUTO 00000KT 6SM 25/22 A2971 RMK SLP999 T02540219 52002 IEM_DS3505
ZBYN,1989-07-17 04:00,ZBYN 170400Z AUTO 16006KT 7SM 26/22 A2971 RMK T02600220 IEM_DS3505
ZBYN,1989-07-17 05:00,ZBYN 170500Z AUTO 21004KT 7SM 28/22 A2971 RMK T02800220 IEM_DS3505
ZBYN,1989-07-17 06:00,ZBYN 170600Z AUTO 18004KT 6SM 28/24 A2968 RMK SLP993 T02790240 4////0202 57002 IEM_DS3505
ZBYN,1989-07-17 07:00,ZBYN 170700Z AUTO 23004KT 7SM 30/22 A2968 RMK T03000220 IEM_DS3505
ZBYN,1989-07-17 08:00,ZBYN 170800Z AUTO 00000KT 6SM 30/23 A2968 RMK T03000230 IEM_DS3505
ZBYN,1989-07-17 09:00,ZBYN 170900Z AUTO 14004KT 7SM 29/25 A2968 RMK SLP983 T02910247 57008 IEM_DS3505
ZBYN,1989-07-17 10:00,ZBYN 171000Z AUTO 19006KT 6SM 29/22 A2968 RMK T02900220 IEM_DS3505
ZBYN,1989-07-17 11:00,ZBYN 171100Z AUTO 00000KT 6SM 29/23 A2968 RMK T02900230 IEM_DS3505
ZBYN,1989-07-17 12:00,ZBYN 171200Z AUTO 14002KT 9SM 27/24 A2968 RMK SLP993 T02700239 52007 IEM_DS3505
ZBYN,1989-07-17 13:00,ZBYN 171300Z AUTO 11002KT 7SM 26/24 A2974 RMK T02600240 IEM_DS3505
ZBYN,1989-07-17 14:00,ZBYN 171400Z AUTO 11006KT 7SM 25/23 A2974 RMK T02500230 IEM_DS3505
ZBYN,1989-07-17 15:00,ZBYN 171500Z AUTO 11004KT 6SM 24/23 A2977 RMK SLP010 T02380228 52018 IEM_DS3505
ZBYN,1989-07-17 16:00,ZBYN 171600Z AUTO 10004KT 7SM 23/22 A2977 RMK T02300220 IEM_DS3505
ZBYN,1989-07-17 20:00,ZBYN 172000Z AUTO 09006KT 6SM 22/21 A2977 RMK T02200210 IEM_DS3505
ZBYN,1989-07-17 21:00,ZBYN 172100Z AUTO 00000KT 2 1/2SM 21/21 A2977 RMK SLP046 T02070206 52002 IEM_DS3505
ZBYN,1989-07-17 22:00,ZBYN 172200Z AUTO 10004KT 7SM 21/20 A2977 RMK T02100200 IEM_DS3505
ZBYN,1989-07-17 23:00,ZBYN 172300Z AUTO 08004KT 6SM 22/21 A2977 RMK T02200210 IEM_DS3505
ZBYN,1989-07-18 00:00,ZBYN 180000Z AUTO 00000KT 4SM 23/22 A2977 RMK SLP026 T02280215 52009 IEM_DS3505
ZBYN,1989-07-18 01:00,ZBYN 180100Z AUTO 00000KT 6SM 24/21 A2980 RMK T02400210 IEM_DS3505
ZBYN,1989-07-18 02:00,ZBYN 180200Z AUTO 14004KT 6SM 26/22 A2980 RMK T02600220 IEM_DS3505
ZBYN,1989-07-18 03:00,ZBYN 180300Z AUTO 00000KT 4SM 27/24 A2980 RMK SLP026 T02670235 52001 IEM_DS3505
ZBYN,1989-07-18 04:00,ZBYN 180400Z AUTO 22004KT 6SM 26/21 A2980 RMK T02600210 IEM_DS3505
ZBYN,1989-07-18 05:00,ZBYN 180500Z AUTO 18008KT 6SM 26/21 A2980 RMK T02600210 IEM_DS3505
ZBYN,1989-07-18 06:00,ZBYN 180600Z AUTO 16006KT 4SM 25/22 A2980 RMK SLP032 T02480224 4////0202 54000 IEM_DS3505
ZBYN,1989-07-18 07:00,ZBYN 180700Z AUTO 18006KT 7SM 25/23 A2983 RMK T02500230 IEM_DS3505
ZBYN,1989-07-18 08:00,ZBYN 180800Z AUTO 20006KT 6SM 26/21 A2980 RMK T02600210 IEM_DS3505
ZBYN,1989-07-18 09:00,ZBYN 180900Z AUTO 22004KT 5SM 26/23 A2980 RMK SLP031 T02560226 57001 IEM_DS3505
ZBYN,1989-07-18 11:00,ZBYN 181100Z AUTO 21008KT 6SM 25/18 A2980 RMK T02500180 IEM_DS3505
ZBYN,1989-07-18 12:00,ZBYN 181200Z AUTO 11004KT 6SM 23/21 A2980 RMK SLP036 T02340206 52004 IEM_DS3505
ZBYN,1989-07-18 13:00,ZBYN 181300Z AUTO 16006KT 6SM 24/18 A2983 RMK T02400180 IEM_DS3505
ZBYN,1989-07-18 14:00,ZBYN 181400Z AUTO 00000KT 7SM 23/20 A2985 RMK T02300200 IEM_DS3505
ZBYN,1989-07-18 15:00,ZBYN 181500Z AUTO 00000KT 6SM 23/20 RMK SLP053 T02280204 52020 IEM_DS3505
ZBYN,1989-07-18 18:00,ZBYN 181800Z AUTO 00000KT 6SM 22/21 RMK SLP047 T02160206 40268//// 57009 IEM_DS3505
ZBYN,1989-07-18 21:00,ZBYN 182100Z AUTO 14002KT 6SM 21/19 RMK SLP053 T02080194 52005 IEM_DS3505
ZBYN,1989-07-18 23:00,ZBYN 182300Z AUTO 20006KT 7SM 20/19 A2988 RMK T02000190 IEM_DS3505
ZBYN,1989-07-19 00:00,ZBYN 190000Z AUTO 18002KT 6SM 21/20 RMK SLP069 T02130196 52012 IEM_DS3505
ZBYN,1989-07-19 01:00,ZBYN 190100Z AUTO 00000KT 6SM 23/19 A2988 RMK T02300190 IEM_DS3505
ZBYN,1989-07-19 02:00,ZBYN 190200Z AUTO 21008KT 7SM 24/19 A2988 RMK T02400190 IEM_DS3505
ZBYN,1989-07-19 03:00,ZBYN 190300Z AUTO 22004KT 6SM 25/22 A2988 RMK SLP061 T02520216 57002 IEM_DS3505
ZBYN,1989-07-19 04:00,ZBYN 190400Z AUTO 15002KT 7SM 27/21 A2988 RMK T02700210 IEM_DS3505
ZBYN,1989-07-19 05:00,ZBYN 190500Z AUTO 21006KT 7SM 28/22 A2985 RMK T02800220 IEM_DS3505
ZBYN,1989-07-19 06:00,ZBYN 190600Z AUTO 18006KT 6SM 28/24 A2985 RMK SLP040 T02820236 4////0205 57017 IEM_DS3505
ZBYN,1989-07-19 07:00,ZBYN 190700Z AUTO 00000KT 7SM 30/21 A2983 RMK T03000210 IEM_DS3505
ZBYN,1989-07-19 08:00,ZBYN 190800Z AUTO 00000KT 7SM 30/ A2983 RMK IEM_DS3505
ZBYN,1989-07-19 09:00,ZBYN 190900Z AUTO 20004KT 7SM 30/24 A2980 RMK SLP025 T02980240 57013 IEM_DS3505
ZBYN,1989-07-19 10:00,ZBYN 191000Z AUTO 18004KT 6SM A2977 RMK IEM_DS3505
ZBYN,1989-07-19 11:00,ZBYN 191100Z AUTO 22004KT 6SM A2980 RMK IEM_DS3505
ZBYN,1989-07-19 12:00,ZBYN 191200Z AUTO 00000KT 9SM 26/25 A2980 RMK SLP032 T02640247 52003 IEM_DS3505
ZBYN,1989-07-19 13:00,ZBYN 191300Z AUTO 09006KT 6SM 25/23 A2980 RMK T02500230 IEM_DS3505
ZBYN,1989-07-19 14:00,ZBYN 191400Z AUTO 00000KT 6SM 24/22 A2983 RMK T02400220 IEM_DS3505
ZBYN,1989-07-19 15:00,ZBYN 191500Z AUTO 00000KT 6SM 24/23 A2983 RMK SLP047 T02380232 52015 IEM_DS3505
ZBYN,1989-07-19 16:00,ZBYN 191600Z AUTO 00000KT 6SM 23/21 A2983 RMK T02300210 IEM_DS3505
ZBYN,1989-07-19 17:00,ZBYN 191700Z AUTO 00000KT 6SM 29/21 RMK T02900210 IEM_DS3505
ZBYN,1989-07-19 18:00,ZBYN 191800Z AUTO 00000KT 6SM 23/22 A2983 RMK SLP039 T02280224 57004 IEM_DS3505
ZBYN,1989-07-19 19:00,ZBYN 191900Z AUTO 00000KT 6SM 23/21 A2985 RMK T02300210 IEM_DS3505
ZBYN,1989-07-19 20:59,ZBYN 192059Z AUTO 22004KT 6SM A2980 RMK IEM_DS3505
ZBYN,1989-07-19 21:00,ZBYN 192100Z AUTO 36002KT 6SM 23/21 A2985 RMK SLP039 T02290214 52002 IEM_DS3505
ZBYN,1989-07-19 22:00,ZBYN 192200Z AUTO 00000KT 3SM 23/21 A2988 RMK T02300210 IEM_DS3505
ZBYN,1989-07-19 23:00,ZBYN 192300Z AUTO 30006KT 4SM 24/21 A2988 RMK T02400210 IEM_DS3505
ZBYN,1989-07-20 00:00,ZBYN 200000Z AUTO 32004KT 6SM 24/22 A2988 RMK SLP052 T02410218 52009 IEM_DS3505
ZBYN,1989-07-20 01:00,ZBYN 200100Z AUTO 36006KT 4SM 27/22 A2988 RMK T02700220 IEM_DS3505
ZBYN,1989-07-20 02:00,ZBYN 200200Z AUTO 00000KT 6SM 28/23 A2988 RMK T02800230 IEM_DS3505
ZBYN,1989-07-20 03:00,ZBYN 200300Z AUTO 36004KT 6SM 29/25 A2988 RMK SLP046 T02920251 57002 IEM_DS3505
ZBYN,1989-07-20 04:00,ZBYN 200400Z AUTO 00000KT 6SM 31/22 A2985 RMK T03100220 IEM_DS3505
ZBYN,1989-07-20 05:00,ZBYN 200500Z AUTO 09004KT 7SM 32/23 A2985 RMK T03200230 IEM_DS3505
ZBYN,1989-07-20 06:00,ZBYN 200600Z AUTO 09006KT 6SM 32/26 A2983 RMK SLP033 T03200258 4////0220 57010 IEM_DS3505
ZBYN,1989-07-20 07:00,ZBYN 200700Z AUTO 08010KT 6SM 31/23 A2983 RMK T03100230 IEM_DS3505
ZBYN,1989-07-20 08:00,ZBYN 200800Z AUTO 09008KT 7SM 31/23 A2983 RMK T03100230 IEM_DS3505
ZBYN,1989-07-20 09:00,ZBYN 200900Z AUTO 07010KT 6SM 31/25 A2983 RMK SLP028 T03070248 57006 IEM_DS3505
ZBYN,1989-07-20 10:00,ZBYN 201000Z AUTO 07012KT 5SM 30/23 A2983 RMK T03000230 IEM_DS3505
ZBYN,1989-07-20 12:00,ZBYN 201200Z AUTO 07014KT 4SM 27/22 A2985 RMK T02700220 IEM_DS3505
ZBYN,1989-07-20 13:00,ZBYN 201300Z AUTO 08014KT 5SM 27/22 A2988 RMK T02700220 IEM_DS3505
ZBYN,1989-07-20 14:00,ZBYN 201400Z AUTO 11010KT 7SM 26/22 A2988 RMK T02600220 IEM_DS3505
ZBYN,1989-07-20 15:00,ZBYN 201500Z AUTO 07004KT 4SM 26/23 A2991 RMK SLP052 T02630233 52016 IEM_DS3505
ZBYN,1989-07-20 16:00,ZBYN 201600Z AUTO 10010KT 7SM 26/19 A2988 RMK T02600190 IEM_DS3505
ZBYN,1989-07-20 18:00,ZBYN 201800Z AUTO 00000KT 4SM 24/23 RMK SLP047 T02440233 40322//// 57004 IEM_DS3505
ZBYN,1989-07-20 21:00,ZBYN 202100Z AUTO 32002KT 3SM 24/23 A2988 RMK SLP046 T02430232 57003 IEM_DS3505
ZBYN,1989-07-20 22:00,ZBYN 202200Z AUTO 09008KT 6SM 25/22 A2988 RMK T02500220 IEM_DS3505
ZBYN,1989-07-21 00:00,ZBYN 210000Z AUTO 00000KT 3SM 25/23 A2988 RMK SLP049 T02520232 54000 IEM_DS3505
ZBYN,1989-07-21 01:00,ZBYN 210100Z AUTO 00000KT 4SM 26/23 A2988 RMK T02600230 IEM_DS3505
ZBYN,1989-07-21 02:00,ZBYN 210200Z AUTO 00000KT 5SM 27/23 A2988 RMK T02700230 IEM_DS3505
ZBYN,1989-07-21 03:00,ZBYN 210300Z AUTO 00000KT 3SM 27/25 RMK SLP050 T02720251 52002 IEM_DS3505
ZBYN,1989-07-21 04:00,ZBYN 210400Z AUTO 09008KT 6SM 27/22 A2983 RMK T02700220 IEM_DS3505
ZBYN,1989-07-21 05:00,ZBYN 210500Z AUTO 06004KT 6SM 26/22 A2983 RMK T02600220 IEM_DS3505
ZBYN,1989-07-21 06:00,ZBYN 210600Z AUTO 16004KT 4SM 30/26 RMK SLP036 T02980261 4////0239 57012 IEM_DS3505
ZBYN,1989-07-21 07:00,ZBYN 210700Z AUTO 17012KT 7SM 29/23 A2983 RMK T02900230 IEM_DS3505
ZBYN,1989-07-21 09:00,ZBYN 210900Z AUTO 00000KT 9SM 26/24 RMK SLP038 T02640237 57003 IEM_DS3505
ZBYN,1989-07-21 10:41,ZBYN 211041Z AUTO 08008KT 6SM 28/23 A2983 RMK T02800230 IEM_DS3505
ZBYN,1989-07-21 12:00,ZBYN 211200Z AUTO 34004KT 6SM 26/24 RMK SLP039 T02630243 52002 IEM_DS3505
ZBYN,1989-07-21 15:00,ZBYN 211500Z AUTO 29002KT 5SM 24/24 RMK T02440237 52006 IEM_DS3505
ZBYN,1989-07-21 16:33,ZBYN 211633Z AUTO 00000KT 7SM 24/23 A2985 RMK T02400230 IEM_DS3505
ZBYN,1989-07-21 18:00,ZBYN 211800Z AUTO 32002KT 5SM 24/23 A2985 RMK 60008 SLP033 T02400234 40305//// 57008 IEM_DS3505
ZBYN,1989-07-21 19:00,ZBYN 211900Z AUTO 00000KT 4SM 24/23 A2983 RMK T02400230 IEM_DS3505
ZBYN,1989-07-21 20:00,ZBYN 212000Z AUTO 33006KT 7SM 24/23 A2980 RMK T02400230 IEM_DS3505
ZBYN,1989-07-21 21:00,ZBYN 212100Z AUTO 34002KT 5SM 23/23 RMK SLP034 T02330230 57005 IEM_DS3505
ZBYN,1989-07-21 21:32,ZBYN 212132Z AUTO 32004KT 7SM 24/23 A2980 RMK T02400230 IEM_DS3505
ZBYN,1989-07-21 22:00,ZBYN 212200Z AUTO 00000KT 4SM 23/23 A2980 RMK T02300230 IEM_DS3505
ZBYN,1989-07-21 23:00,ZBYN 212300Z AUTO 00000KT 7SM 24/23 A2983 RMK T02400230 IEM_DS3505
ZBYN,1989-07-22 00:00,ZBYN 220000Z AUTO 00000KT 4SM 24/23 A2983 RMK 70008 SLP037 T02400233 52004 IEM_DS3505
ZBYN,1989-07-22 01:00,ZBYN 220100Z AUTO 00000KT 2SM 25/24 A2983 RMK T02500240 IEM_DS3505
ZBYN,1989-07-22 02:00,ZBYN 220200Z AUTO 00000KT 2 1/2SM 25/24 A2983 RMK T02500240 IEM_DS3505
ZBYN,1989-07-22 03:00,ZBYN 220300Z AUTO 00000KT 4SM 26/25 A2983 RMK SLP035 T02550247 57003 IEM_DS3505
ZBYN,1989-07-22 04:00,ZBYN 220400Z AUTO 15002KT 5SM 27/23 A2983 RMK T02700230 IEM_DS3505
ZBYN,1989-07-22 05:00,ZBYN 220500Z AUTO 18006KT 7SM 28/23 A2983 RMK T02800230 IEM_DS3505
ZBYN,1989-07-22 06:00,ZBYN 220600Z AUTO 00000KT 4SM 28/25 A2980 RMK SLP022 T02780253 4////0233 57009 IEM_DS3505
ZBYN,1989-07-22 07:00,ZBYN 220700Z AUTO 00000KT 7SM 29/23 A2980 RMK T02900230 IEM_DS3505
ZBYN,1989-07-22 08:00,ZBYN 220800Z AUTO 00000KT 7SM 29/24 A2977 RMK T02900240 IEM_DS3505
ZBYN,1989-07-22 09:00,ZBYN 220900Z AUTO 00000KT 4SM 28/26 A2977 RMK SLP012 T02830260 57009 IEM_DS3505
ZBYN,1989-07-22 10:00,ZBYN 221000Z AUTO 12002KT 7SM 29/24 A2977 RMK T02900240 IEM_DS3505
ZBYN,1989-07-22 11:00,ZBYN 221100Z AUTO 00000KT 7SM 28/24 A2977 RMK T02800240 IEM_DS3505
ZBYN,1989-07-22 12:00,ZBYN 221200Z AUTO 00000KT 4SM 27/26 RMK SLP016 T02680263 52002 IEM_DS3505
ZBYN,1989-07-22 15:00,ZBYN 221500Z AUTO 00000KT 5SM 23/23 A2983 RMK SLP029 T02290226 52009 IEM_DS3505
ZBYN,1989-07-22 17:00,ZBYN 221700Z AUTO 13004KT 7SM 22/22 A2980 RMK T02200220 IEM_DS3505
ZBYN,1989-07-22 18:00,ZBYN 221800Z AUTO 00000KT 5SM 22/22 RMK 60016 SLP023 T02240223 40286//// 57003 IEM_DS3505
ZBYN,1989-07-22 21:00,ZBYN 222100Z AUTO 00000KT 5SM 22/22 A2977 RMK SLP022 T02200220 57001 IEM_DS3505
ZBYN,1989-07-22 22:00,ZBYN 222200Z AUTO 00000KT 4SM 22/22 A2977 RMK T02200220 IEM_DS3505
ZBYN,1989-07-22 23:00,ZBYN 222300Z AUTO 00000KT 3SM 23/23 A2977 RMK T02300230 IEM_DS3505
ZBYN,1989-07-23 00:00,ZBYN 230000Z AUTO 00000KT 5SM 24/23 RMK SLP024 T02440230 52003 IEM_DS3505
ZBYN,1989-07-23 01:00,ZBYN 230100Z AUTO 00000KT 4SM 26/23 A2980 RMK T02600230 IEM_DS3505
ZBYN,1989-07-23 02:00,ZBYN 230200Z AUTO 00000KT 5SM 26/23 A2980 RMK T02600230 IEM_DS3505
ZBYN,1989-07-23 03:00,ZBYN 230300Z AUTO 00000KT 5SM 27/24 A2980 RMK SLP025 T02670245 57001 IEM_DS3505
ZBYN,1989-07-23 04:00,ZBYN 230400Z AUTO 25004KT 5SM 27/23 A2980 RMK T02700230 IEM_DS3505
ZBYN,1989-07-23 05:00,ZBYN 230500Z AUTO 25004KT 5SM 27/23 A2980 RMK T02700230 IEM_DS3505
ZBYN,1989-07-23 06:00,ZBYN 230600Z AUTO 00000KT 5SM 29/25 A2974 RMK SLP005 T02880252 4////0217 57016 IEM_DS3505
ZBYN,1989-07-23 07:00,ZBYN 230700Z AUTO 03014KT 7SM 29/24 A2974 RMK T02900240 IEM_DS3505
ZBYN,1989-07-23 08:00,ZBYN 230800Z AUTO 00000KT 7SM 25/24 A2974 RMK T02500240 IEM_DS3505
ZBYN,1989-07-23 09:00,ZBYN 230900Z AUTO 14004KT 6SM 26/25 RMK SLP018 T02650251 52008 IEM_DS3505
ZBYN,1989-07-23 10:00,ZBYN 231000Z AUTO 09010KT 7SM 25/23 A2977 RMK T02500230 IEM_DS3505
ZBYN,1989-07-23 11:00,ZBYN 231100Z AUTO 09004KT 7SM 25/23 A2980 RMK T02500230 IEM_DS3505
ZBYN,1989-07-23 12:00,ZBYN 231200Z AUTO 04002KT 6SM 26/23 A2980 RMK 60031 SLP026 T02580234 52010 IEM_DS3505
ZBYN,1989-07-23 13:00,ZBYN 231300Z AUTO 13004KT 7SM 25/23 A2983 RMK T02500230 IEM_DS3505
ZBYN,1989-07-23 14:00,ZBYN 231400Z AUTO 09008KT 7SM 24/22 A2983 RMK T02400220 IEM_DS3505
ZBYN,1989-07-23 15:00,ZBYN 231500Z AUTO 00000KT 6SM 23/23 A2983 RMK SLP036 T02340231 52009 IEM_DS3505
ZBYN,1989-07-23 16:00,ZBYN 231600Z AUTO 00000KT 7SM 24/22 A2983 RMK T02400220 IEM_DS3505
ZBYN,1989-07-23 18:00,ZBYN 231800Z AUTO 00000KT 6SM 23/23 A2983 RMK SLP030 T02320231 40295//// 57003 IEM_DS3505
ZBYN,1989-07-23 21:00,ZBYN 232100Z AUTO 00000KT 5SM 23/23 RMK SLP039 T02280227 52004 IEM_DS3505
ZBYN,1989-07-23 22:00,ZBYN 232200Z AUTO 00000KT 4SM 22/22 A2983 RMK T02200220 IEM_DS3505
ZBYN,1989-07-23 23:00,ZBYN 232300Z AUTO 6SM 24/21 A2983 RMK T02400210 IEM_DS3505
ZBYN,1989-07-24 00:00,ZBYN 240000Z AUTO 36004KT 6SM 26/21 A2985 RMK SLP041 T02550213 52005 IEM_DS3505
ZBYN,1989-07-24 01:00,ZBYN 240100Z AUTO 36012KT 6SM 26/19 A2985 RMK T02600190 IEM_DS3505
ZBYN,1989-07-24 03:00,ZBYN 240300Z AUTO 36004KT 16SM 28/21 A2983 RMK SLP038 T02840213 57002 IEM_DS3505
ZBYN,1989-07-24 04:00,ZBYN 240400Z AUTO 01012KT 6SM 29/16 A2983 RMK T02900160 IEM_DS3505
ZBYN,1989-07-24 05:00,ZBYN 240500Z AUTO 02006KT 6SM 30/17 A2983 RMK T03000170 IEM_DS3505
ZBYN,1989-07-24 06:00,ZBYN 240600Z AUTO 36006KT 16SM 30/16 A2980 RMK SLP026 T03020160 4////0223 57009 IEM_DS3505
ZBYN,1989-07-24 07:00,ZBYN 240700Z AUTO 36008KT 6SM 31/17 A2980 RMK T03100170 IEM_DS3505
ZBYN,1989-07-24 08:00,ZBYN 240800Z AUTO 34012KT 6SM 30/18 A2980 RMK T03000180 IEM_DS3505
ZBYN,1989-07-24 09:00,ZBYN 240900Z AUTO 36006KT 16SM 30/16 A2980 RMK SLP016 T02980157 57010 IEM_DS3505
ZBYN,1989-07-24 10:00,ZBYN 241000Z AUTO 02008KT 6SM 28/15 A2977 RMK T02800150 IEM_DS3505
ZBYN,1989-07-24 11:00,ZBYN 241100Z AUTO 01006KT 6SM 28/18 A2977 RMK T02800180 IEM_DS3505
ZBYN,1989-07-24 12:00,ZBYN 241200Z AUTO 36004KT 16SM 26/14 A2980 RMK SLP019 T02610138 52001 IEM_DS3505
ZBYN,1989-07-24 13:00,ZBYN 241300Z AUTO 36004KT 6SM 22/16 A2983 RMK T02200160 IEM_DS3505
ZBYN,1989-07-24 14:00,ZBYN 241400Z AUTO 35006KT 6SM 21/17 A2983 RMK T02100170 IEM_DS3505
ZBYN,1989-07-24 15:00,ZBYN 241500Z AUTO 00000KT 9SM 20/17 RMK SLP044 T02040168 52019 IEM_DS3505
ZBYN,1989-07-24 17:00,ZBYN 241700Z AUTO 02008KT 6SM 22/13 RMK T02200130 IEM_DS3505
ZBYN,1989-07-24 18:00,ZBYN 241800Z AUTO 00000KT 7SM 20/16 RMK SLP048 T02000162 40308//// 52006 IEM_DS3505
ZBYN,1989-07-24 19:00,ZBYN 241900Z AUTO 34006KT 6SM 18/16 A2985 RMK T01800160 IEM_DS3505
ZBYN,1989-07-24 20:00,ZBYN 242000Z AUTO 33006KT 6SM 18/16 A2985 RMK T01800160 IEM_DS3505
ZBYN,1989-07-24 21:00,ZBYN 242100Z AUTO 00000KT 7SM 20/15 RMK SLP049 T01960149 54000 IEM_DS3505
ZBYN,1989-07-24 22:00,ZBYN 242200Z AUTO 00000KT 6SM 17/16 A2985 RMK T01700160 IEM_DS3505
ZBYN,1989-07-24 23:00,ZBYN 242300Z AUTO 02004KT 6SM 21/16 A2985 RMK T02100160 IEM_DS3505
ZBYN,1989-07-25 00:00,ZBYN 250000Z AUTO 00000KT 9SM 22/15 A2988 RMK SLP053 T02240152 52002 IEM_DS3505
ZBYN,1989-07-25 01:00,ZBYN 250100Z AUTO 01012KT 6SM 24/12 A2985 RMK T02400120 IEM_DS3505
ZBYN,1989-07-25 03:00,ZBYN 250300Z AUTO 04008KT 9SM 25/11 RMK SLP055 T02460113 57003 IEM_DS3505
ZBYN,1989-07-25 06:00,ZBYN 250600Z AUTO 04004KT 16SM 25/12 RMK SLP042 T02520115 4////0182 57012 IEM_DS3505
ZBYN,1989-07-25 08:00,ZBYN 250800Z AUTO 01010KT 6SM 25/14 A2980 RMK T02500140 IEM_DS3505
ZBYN,1989-07-25 09:00,ZBYN 250900Z AUTO 02002KT 16SM 25/10 A2980 RMK SLP037 T02540105 57004 IEM_DS3505
ZBYN,1989-07-25 12:00,ZBYN 251200Z AUTO 29002KT 12SM 22/15 A2983 RMK SLP044 T02200147 52005 IEM_DS3505
ZBYN,1989-07-25 13:00,ZBYN 251300Z AUTO 00000KT 6SM 21/16 A2985 RMK T02100160 IEM_DS3505
ZBYN,1989-07-25 14:00,ZBYN 251400Z AUTO 36006KT 6SM 20/17 A2985 RMK T02000170 IEM_DS3505
ZBYN,1989-07-25 15:00,ZBYN 251500Z AUTO 36004KT 12SM 22/15 A2988 RMK SLP063 T02160150 52020 IEM_DS3505
ZBYN,1989-07-25 16:00,ZBYN 251600Z AUTO 02008KT 7SM 21/13 A2988 RMK T02100130 IEM_DS3505
ZBYN,1989-07-25 18:00,ZBYN 251800Z AUTO 32006KT 9SM 20/12 RMK SLP070 T01960118 40264//// 52004 IEM_DS3505
ZBYN,1989-07-25 21:00,ZBYN 252100Z AUTO 00000KT 4SM 16/13 A2994 RMK SLP088 T01600134 52012 IEM_DS3505
ZBYN,1989-07-25 22:00,ZBYN 252200Z AUTO 00000KT 7SM 15/14 A2994 RMK T01500140 IEM_DS3505
ZBYN,1989-07-25 23:00,ZBYN 252300Z AUTO 00000KT 6SM 16/15 A2994 RMK T01600150 IEM_DS3505
ZBYN,1989-07-26 00:00,ZBYN 260000Z AUTO 23006KT 16SM 18/12 A2994 RMK 60004 70004 SLP093 T01750125 52002 IEM_DS3505
ZBYN,1989-07-26 02:00,ZBYN 260200Z AUTO 00000KT 6SM 21/13 A2994 RMK T02100130 IEM_DS3505
ZBYN,1989-07-26 03:00,ZBYN 260300Z AUTO 00000KT 16SM 22/14 A2994 RMK SLP081 T02200145 57005 IEM_DS3505
ZBYN,1989-07-26 04:00,ZBYN 260400Z AUTO 31006KT 7SM 23/14 A2991 RMK T02300140 IEM_DS3505
ZBYN,1989-07-26 06:00,ZBYN 260600Z AUTO 27006KT 16SM 21/12 A2988 RMK SLP077 T02070124 4////0149 57008 IEM_DS3505
ZBYN,1989-07-26 07:00,ZBYN 260700Z AUTO 26010KT 7SM 22/14 A2988 RMK T02200140 IEM_DS3505
ZBYN,1989-07-26 08:00,ZBYN 260800Z AUTO 01004KT 7SM 22/11 A2988 RMK T02200110 IEM_DS3505
ZBYN,1989-07-26 09:00,ZBYN 260900Z AUTO 35008KT 7SM 23/13 A2988 RMK T02300130 IEM_DS3505
ZBYN,1989-07-26 10:00,ZBYN 261000Z AUTO 34016KT 7SM 21/11 A2991 RMK T02100110 IEM_DS3505
ZBYN,1989-07-26 11:00,ZBYN 261100Z AUTO 30006KT 7SM 19/14 A2994 RMK T01900140 IEM_DS3505
ZBYN,1989-07-26 12:00,ZBYN 261200Z AUTO 27004KT 7SM 17/16 A2994 RMK 60004 SLP103 T01740158 52018 IEM_DS3505
ZBYN,1989-07-26 13:00,ZBYN 261300Z AUTO 00000KT 7SM 15/14 A2997 RMK T01500140 IEM_DS3505
ZBYN,1989-07-26 15:00,ZBYN 261500Z AUTO 00000KT 7SM 15/14 A2997 RMK SLP114 T01460137 52012 IEM_DS3505
ZBYN,1989-07-26 18:00,ZBYN 261800Z AUTO 00000KT 7SM 13/13 RMK SLP124 T01320127 40256//// 52005 IEM_DS3505
ZBYN,1989-07-26 21:00,ZBYN 262100Z AUTO 00000KT 6SM 12/11 RMK 70008 SLP131 T01180114 52008 IEM_DS3505
ZBYN,1989-07-26 23:00,ZBYN 262300Z AUTO 00000KT 7SM 14/12 A3006 RMK T01400120 IEM_DS3505
ZBYN,1989-07-27 00:00,ZBYN 270000Z AUTO 18002KT 6SM 16/13 A3006 RMK SLP147 T01580134 52012 IEM_DS3505
ZBYN,1989-07-27 01:00,ZBYN 270100Z AUTO 00000KT 7SM 18/13 A3006 RMK T01800130 IEM_DS3505
ZBYN,1989-07-27 02:00,ZBYN 270200Z AUTO 21004KT 7SM 20/14 A3006 RMK T02000140 IEM_DS3505
ZBYN,1989-07-27 03:00,ZBYN 270300Z AUTO 29004KT 6SM 22/12 A3006 RMK SLP140 T02220116 57001 IEM_DS3505
ZBYN,1989-07-27 04:00,ZBYN 270400Z AUTO 24008KT 7SM 24/11 A3006 RMK T02400110 IEM_DS3505
ZBYN,1989-07-27 05:00,ZBYN 270500Z AUTO 25008KT 7SM 25/10 A3006 RMK T02500100 IEM_DS3505
ZBYN,1989-07-27 06:00,ZBYN 270600Z AUTO 36004KT 12SM 26/08 A3003 RMK SLP128 T02570079 4////0111 57008 IEM_DS3505
ZBYN,1989-07-27 07:00,ZBYN 270700Z AUTO 30004KT 7SM 27/09 A3000 RMK T02700090 IEM_DS3505
ZBYN,1989-07-27 08:00,ZBYN 270800Z AUTO 00000KT 7SM 27/08 A3000 RMK T02700080 IEM_DS3505
ZBYN,1989-07-27 09:00,ZBYN 270900Z AUTO 20008KT 7SM 26/10 A3000 RMK T02600100 IEM_DS3505
ZBYN,1989-07-27 10:00,ZBYN 271000Z AUTO 22008KT 7SM 25/10 A3000 RMK T02500100 IEM_DS3505
ZBYN,1989-07-27 11:00,ZBYN 271100Z AUTO 20006KT 7SM 24/13 A3000 RMK T02400130 IEM_DS3505
ZBYN,1989-07-27 12:00,ZBYN 271200Z AUTO 20002KT 12SM 21/14 A3003 RMK SLP118 T02120137 52003 IEM_DS3505
ZBYN,1989-07-27 13:00,ZBYN 271300Z AUTO 12002KT 7SM 19/13 A3003 RMK T01900130 IEM_DS3505
ZBYN,1989-07-27 14:00,ZBYN 271400Z AUTO 00000KT 7SM 18/13 A3006 RMK T01800130 IEM_DS3505
ZBYN,1989-07-27 15:00,ZBYN 271500Z AUTO 00000KT 12SM 16/14 A3006 RMK T01600140 52014 IEM_DS3505
ZBYN,1989-07-27 16:00,ZBYN 271600Z AUTO 09006KT 7SM 15/13 A3006 RMK T01500130 IEM_DS3505
ZBYN,1989-07-27 18:00,ZBYN 271800Z AUTO 00000KT 12SM 14/13 RMK SLP128 T01400130 40270//// 57001 IEM_DS3505
ZBYN,1989-07-27 19:00,ZBYN 271900Z AUTO 00000KT 7SM 14/12 A3003 RMK T01400120 IEM_DS3505
ZBYN,1989-07-27 20:00,ZBYN 272000Z AUTO 00000KT 7SM 13/12 A3003 RMK T01300120 IEM_DS3505
ZBYN,1989-07-27 21:00,ZBYN 272100Z AUTO 00000KT 6SM 12/ A3000 RMK SLP120 57008 IEM_DS3505
ZBYN,1989-07-27 22:00,ZBYN 272200Z AUTO 00000KT 7SM 11/11 A3000 RMK T01100110 IEM_DS3505
ZBYN,1989-07-28 00:00,ZBYN 280000Z AUTO 00000KT 6SM 17/13 A3003 RMK SLP127 T01690131 52005 IEM_DS3505
ZBYN,1989-07-28 01:00,ZBYN 280100Z AUTO 19004KT 7SM 19/13 A3003 RMK T01900130 IEM_DS3505
ZBYN,1989-07-28 02:00,ZBYN 280200Z AUTO 00000KT 7SM 21/13 A3003 RMK T02100130 IEM_DS3505
ZBYN,1989-07-28 03:00,ZBYN 280300Z AUTO 18002KT 5SM 24/13 A3000 RMK SLP116 T02350128 57008 IEM_DS3505
ZBYN,1989-07-28 04:00,ZBYN 280400Z AUTO 18006KT 7SM 25/13 A3000 RMK T02500130 IEM_DS3505
ZBYN,1989-07-28 05:00,ZBYN 280500Z AUTO 19004KT 7SM 27/14 A2997 RMK T02700140 IEM_DS3505
ZBYN,1989-07-28 06:00,ZBYN 280600Z AUTO 18004KT 6SM 27/15 A2994 RMK SLP093 T02700151 4////0117 57019 IEM_DS3505
ZBYN,1989-07-28 07:00,ZBYN 280700Z AUTO 23008KT 6SM 29/14 A2994 RMK T02900140 IEM_DS3505
ZBYN,1989-07-28 08:00,ZBYN 280800Z AUTO 21008KT 6SM 29/11 A2991 RMK T02900110 IEM_DS3505
ZBYN,1989-07-28 09:00,ZBYN 280900Z AUTO 00000KT 12SM 28/14 A2991 RMK SLP080 T02820143 57012 IEM_DS3505
ZBYN,1989-07-28 10:00,ZBYN 281000Z AUTO 22004KT 6SM 28/13 A2991 RMK T02800130 IEM_DS3505
ZBYN,1989-07-28 11:00,ZBYN 281100Z AUTO 00000KT 6SM 26/15 A2991 RMK T02600150 IEM_DS3505
ZBYN,1989-07-28 12:00,ZBYN 281200Z AUTO 00000KT 12SM 23/17 A2991 RMK SLP081 T02270174 57001 IEM_DS3505
ZBYN,1989-07-28 13:00,ZBYN 281300Z AUTO 10004KT 6SM 21/16 A2991 RMK T02100160 IEM_DS3505
ZBYN,1989-07-28 14:00,ZBYN 281400Z AUTO 12006KT 6SM 19/15 A2991 RMK T01900150 IEM_DS3505
ZBYN,1989-07-28 15:00,ZBYN 281500Z AUTO 00000KT 6SM 18/15 RMK SLP085 T01810151 52007 IEM_DS3505
ZBYN,1989-07-28 18:00,ZBYN 281800Z AUTO 00000KT 7SM 16/15 A2991 RMK SLP095 T01560148 40286//// 54000 IEM_DS3505
ZBYN,1989-07-28 21:00,ZBYN 282100Z AUTO 00000KT 5SM 14/14 A2991 RMK SLP083 T01430140 57001 IEM_DS3505
ZBYN,1989-07-28 22:00,ZBYN 282200Z AUTO 00000KT 7SM 14/13 A2994 RMK T01400130 IEM_DS3505
ZBYN,1989-07-28 23:00,ZBYN 282300Z AUTO 00000KT 6SM 16/13 A2994 RMK T01600130 IEM_DS3505
ZBYN,1989-07-29 00:00,ZBYN 290000Z AUTO 00000KT 5SM 18/14 RMK SLP092 T01780140 52006 IEM_DS3505
ZBYN,1989-07-29 01:00,ZBYN 290100Z AUTO 00000KT 6SM 19/15 A2994 RMK T01900150 IEM_DS3505
ZBYN,1989-07-29 02:00,ZBYN 290200Z AUTO 00000KT 6SM 23/15 A2994 RMK T02300150 IEM_DS3505
ZBYN,1989-07-29 03:00,ZBYN 290300Z AUTO 00000KT 5SM 25/14 A2994 RMK SLP088 T02470145 57001 IEM_DS3505
ZBYN,1989-07-29 04:00,ZBYN 290400Z AUTO 00000KT 6SM 25/15 A2994 RMK T02500150 IEM_DS3505
ZBYN,1989-07-29 05:00,ZBYN 290500Z AUTO 00000KT 6SM 27/18 A2994 RMK T02700180 IEM_DS3505
ZBYN,1989-07-29 06:00,ZBYN 290600Z AUTO 00000KT 6SM 29/16 A2991 RMK SLP071 T02920158 4////0139 57013 IEM_DS3505
ZBYN,1989-07-29 07:00,ZBYN 290700Z AUTO 00000KT 7SM 31/17 A2991 RMK T03100170 IEM_DS3505
ZBYN,1989-07-29 08:00,ZBYN 290800Z AUTO 22004KT 7SM 32/16 A2988 RMK T03200160 IEM_DS3505
ZBYN,1989-07-29 09:00,ZBYN 290900Z AUTO 26006KT 7SM 30/15 A2988 RMK T03000150 IEM_DS3505
ZBYN,1989-07-29 10:00,ZBYN 291000Z AUTO 05008KT 7SM 29/16 A2985 RMK T02900160 IEM_DS3505
ZBYN,1989-07-29 11:00,ZBYN 291100Z AUTO 11004KT 7SM 27/17 A2988 RMK T02700170 IEM_DS3505
ZBYN,1989-07-29 12:00,ZBYN 291200Z AUTO 14002KT 9SM 26/15 A2988 RMK SLP068 T02600154 52007 IEM_DS3505
ZBYN,1989-07-29 13:00,ZBYN 291300Z AUTO 09008KT 6SM 25/17 A2991 RMK T02500170 IEM_DS3505
ZBYN,1989-07-29 14:00,ZBYN 291400Z AUTO 12006KT 7SM 24/18 A2994 RMK T02400180 IEM_DS3505
ZBYN,1989-07-29 15:00,ZBYN 291500Z AUTO 00000KT 9SM 21/18 A2994 RMK SLP086 T02130185 52020 IEM_DS3505
ZBYN,1989-07-29 17:00,ZBYN 291700Z AUTO 10008KT 6SM 22/19 A2994 RMK T02200190 IEM_DS3505
ZBYN,1989-07-29 18:00,ZBYN 291800Z AUTO 00000KT 9SM 21/18 A2994 RMK SLP086 T02130185 52020 IEM_DS3505
ZBYN,1989-07-29 19:00,ZBYN 291900Z AUTO 00000KT 6SM 20/18 A2994 RMK T02000180 IEM_DS3505
ZBYN,1989-07-29 20:00,ZBYN 292000Z AUTO 00000KT 6SM 19/17 A2994 RMK T01900170 IEM_DS3505
ZBYN,1989-07-29 21:00,ZBYN 292100Z AUTO 00000KT 4SM 18/17 A2994 RMK SLP075 T01850171 54000 IEM_DS3505
ZBYN,1989-07-29 22:00,ZBYN 292200Z AUTO 00000KT 2 1/2SM 19/17 A2994 RMK T01900170 IEM_DS3505
ZBYN,1989-07-29 23:00,ZBYN 292300Z AUTO 00000KT 2SM 19/18 A2997 RMK T01900180 IEM_DS3505
ZBYN,1989-07-30 00:00,ZBYN 300000Z AUTO 34004KT 4SM 21/19 RMK SLP095 T02060186 52015 IEM_DS3505
ZBYN,1989-07-30 01:00,ZBYN 300100Z AUTO 00000KT 2SM 22/19 A2997 RMK T02200190 IEM_DS3505
ZBYN,1989-07-30 02:00,ZBYN 300200Z AUTO 09008KT 6SM 23/17 A2997 RMK T02300170 IEM_DS3505
ZBYN,1989-07-30 03:00,ZBYN 300300Z AUTO 09002KT 5SM 23/16 A3000 RMK SLP108 T02310165 52009 IEM_DS3505
ZBYN,1989-07-30 06:00,ZBYN 300600Z AUTO 11002KT 7SM 22/16 RMK SLP099 T02250158 4////0174 57012 IEM_DS3505
ZBYN,1989-07-30 08:00,ZBYN 300800Z AUTO 07006KT 6SM 22/15 A2997 RMK T02200150 IEM_DS3505
ZBYN,1989-07-30 09:00,ZBYN 300900Z AUTO 00000KT 9SM 22/16 A2994 RMK SLP093 T02160157 57008 IEM_DS3505
ZBYN,1989-07-30 10:00,ZBYN 301000Z AUTO 09008KT 6SM 22/15 A2994 RMK T02200150 IEM_DS3505
ZBYN,1989-07-30 11:00,ZBYN 301100Z AUTO 08006KT 6SM 21/16 A2994 RMK T02100160 IEM_DS3505
ZBYN,1989-07-30 12:00,ZBYN 301200Z AUTO 11004KT 6SM 21/16 RMK SLP101 T02100157 52009 IEM_DS3505
ZBYN,1989-07-30 13:00,ZBYN 301300Z AUTO 11008KT 7SM 20/14 A2997 RMK T02000140 IEM_DS3505
ZBYN,1989-07-30 14:00,ZBYN 301400Z AUTO 12006KT 6SM 19/13 A3000 RMK T01900130 IEM_DS3505
ZBYN,1989-07-30 15:00,ZBYN 301500Z AUTO 00000KT 7SM 19/14 RMK SLP107 T01930138 52007 IEM_DS3505
ZBYN,1989-07-30 18:00,ZBYN 301800Z AUTO 04004KT 7SM 18/16 RMK SLP100 T01820159 40232//// 57009 IEM_DS3505
ZBYN,1989-07-30 19:00,ZBYN 301900Z AUTO 06006KT 6SM 19/13 A3000 RMK T01900130 IEM_DS3505
ZBYN,1989-07-30 21:00,ZBYN 302100Z AUTO 00000KT 6SM 18/15 A2994 RMK SLP093 T01810148 57008 IEM_DS3505
ZBYN,1989-07-30 23:00,ZBYN 302300Z AUTO 00000KT 3SM 17/16 A2994 RMK T01700160 IEM_DS3505
ZBYN,1989-07-31 00:00,ZBYN 310000Z AUTO 34004KT 5SM 17/16 A2994 RMK 60012 SLP097 T01700162 52002 IEM_DS3505
ZBYN,1989-07-31 01:00,ZBYN 310100Z AUTO 00000KT 2 1/2SM 18/17 A2994 RMK T01800170 IEM_DS3505
ZBYN,1989-07-31 03:00,ZBYN 310300Z AUTO 36004KT 6SM 18/17 A2997 RMK SLP100 T01790173 52001 IEM_DS3505
ZBYN,1989-07-31 04:00,ZBYN 310400Z AUTO 04008KT 7SM 19/18 A2991 RMK T01900180 IEM_DS3505
ZBYN,1989-07-31 05:00,ZBYN 310500Z AUTO 32004KT 7SM 20/18 A2991 RMK T02000180 IEM_DS3505
ZBYN,1989-07-31 06:00,ZBYN 310600Z AUTO 32006KT 6SM 20/18 A2991 RMK 60024 SLP080 T02040178 4////0165 57016 IEM_DS3505
ZBYN,1989-07-31 07:00,ZBYN 310700Z AUTO 07006KT 7SM 21/18 A2991 RMK T02100180 IEM_DS3505
ZBYN,1989-07-31 08:00,ZBYN 310800Z AUTO 09010KT 7SM 22/17 A2988 RMK T02200170 IEM_DS3505
ZBYN,1989-07-31 09:00,ZBYN 310900Z AUTO 36004KT 6SM 22/18 A2988 RMK SLP073 T02200177 57004 IEM_DS3505
ZBYN,1989-07-31 10:00,ZBYN 311000Z AUTO 08008KT 7SM 22/17 A2988 RMK T02200170 IEM_DS3505
ZBYN,1989-07-31 11:00,ZBYN 311100Z AUTO 08006KT 6SM 21/17 A2988 RMK T02100170 IEM_DS3505
ZBYN,1989-07-31 12:00,ZBYN 311200Z AUTO 32004KT 6SM 20/18 A2988 RMK SLP079 T02050177 52001 IEM_DS3505
ZBYN,1989-07-31 13:00,ZBYN 311300Z AUTO 05004KT 6SM 20/17 A2991 RMK T02000170 IEM_DS3505
ZBYN,1989-07-31 14:00,ZBYN 311400Z AUTO 06004KT 6SM 19/17 A2991 RMK T01900170 IEM_DS3505
ZBYN,1989-07-31 15:00,ZBYN 311500Z AUTO 34002KT 6SM 19/17 A2991 RMK SLP091 T01880171 52010 IEM_DS3505
ZBYN,1989-07-31 17:00,ZBYN 311700Z AUTO 00000KT 6SM 18/17 A2994 RMK T01800170 IEM_DS3505
ZBYN,1989-07-31 18:00,ZBYN 311800Z AUTO 00000KT 6SM 19/18 RMK SLP090 T01890176 40225//// 52003 IEM_DS3505
ZBYN,1989-07-31 21:00,ZBYN 312100Z AUTO 00000KT 6SM 20/18 A2991 RMK SLP089 T01960176 52002 IEM_DS3505
ZBYN,1989-07-31 22:00,ZBYN 312200Z AUTO 00000KT 1 1/2SM 19/18 A2994 RMK T01900180 IEM_DS3505
ZBYN,1989-07-31 23:00,ZBYN 312300Z AUTO 00000KT 2SM 20/19 A2994 RMK T02000190 IEM_DS3505
ZBYN,1989-08-01 00:00,ZBYN 010000Z AUTO 00000KT 5SM 21/18 RMK SLP098 T02080183 52008 IEM_DS3505
ZBYN,1989-08-01 01:00,ZBYN 010100Z AUTO 00000KT 5SM 23/19 A2997 RMK T02300190 IEM_DS3505
ZBYN,1989-08-01 02:00,ZBYN 010200Z AUTO 00000KT 7SM 24/19 A2997 RMK T02400190 IEM_DS3505
ZBYN,1989-08-01 03:00,ZBYN 010300Z AUTO 29004KT 6SM 23/19 A2997 RMK SLP105 T02310192 52007 IEM_DS3505
ZBYN,1989-08-01 04:00,ZBYN 010400Z AUTO 31004KT 6SM 24/20 A2997 RMK T02400200 IEM_DS3505
ZBYN,1989-08-01 05:00,ZBYN 010500Z AUTO 31006KT 6SM 25/20 A2997 RMK T02500200 IEM_DS3505
ZBYN,1989-08-01 06:00,ZBYN 010600Z AUTO 20002KT 6SM 26/19 A2994 RMK SLP088 T02600189 4////0176 57011 IEM_DS3505
ZBYN,1989-08-01 07:00,ZBYN 010700Z AUTO 33006KT 7SM 27/21 A2994 RMK T02700210 IEM_DS3505
ZBYN,1989-08-01 08:00,ZBYN 010800Z AUTO 05010KT 7SM 25/20 A2994 RMK T02500200 IEM_DS3505
ZBYN,1989-08-01 09:00,ZBYN 010900Z AUTO 09006KT 6SM 25/19 A2994 RMK SLP081 T02480194 57007 IEM_DS3505
ZBYN,1989-08-01 10:00,ZBYN 011000Z AUTO 09012KT 7SM 24/19 A2994 RMK T02400190 IEM_DS3505
ZBYN,1989-08-01 11:00,ZBYN 011100Z AUTO 09008KT 6SM 24/18 A2994 RMK T02400180 IEM_DS3505
ZBYN,1989-08-01 12:00,ZBYN 011200Z AUTO 07004KT 6SM 23/18 A2997 RMK SLP087 T02340180 52005 IEM_DS3505
ZBYN,1989-08-01 13:00,ZBYN 011300Z AUTO 09016KT 6SM 23/18 A2997 RMK T02300180 IEM_DS3505
ZBYN,1989-08-01 14:00,ZBYN 011400Z AUTO 09012KT 6SM 22/18 A3000 RMK T02200180 IEM_DS3505
ZBYN,1989-08-01 15:00,ZBYN 011500Z AUTO 04002KT 6SM 22/17 A3000 RMK SLP103 T02250168 52017 IEM_DS3505
ZBYN,1989-08-01 18:00,ZBYN 011800Z AUTO 00000KT 6SM 22/18 RMK SLP100 T02220182 52001 IEM_DS3505
ZBYN,1989-08-01 21:00,ZBYN 012100Z AUTO 00000KT 4SM 21/19 RMK SLP109 T02090186 52004 IEM_DS3505
ZBYN,1989-08-01 22:00,ZBYN 012200Z AUTO 07004KT 6SM 21/16 A3003 RMK T02100160 IEM_DS3505
ZBYN,1989-08-01 23:00,ZBYN 012300Z AUTO 09004KT 6SM 22/16 A3003 RMK T02200160 IEM_DS3505
ZBYN,1989-08-02 00:00,ZBYN 020000Z AUTO 00000KT 11SM 24/14 RMK SLP115 T02430136 52009 IEM_DS3505
ZBYN,1989-08-02 01:00,ZBYN 020100Z AUTO 09012KT 6SM 24/15 A3006 RMK T02400150 IEM_DS3505
ZBYN,1989-08-02 02:00,ZBYN 020200Z AUTO 09014KT 6SM 25/15 A3006 RMK T02500150 IEM_DS3505
ZBYN,1989-08-02 03:00,ZBYN 020300Z AUTO 09012KT 11SM 26/16 A3003 RMK SLP117 T02570165 52002 IEM_DS3505
ZBYN,1989-08-02 05:00,ZBYN 020500Z AUTO 09016KT 6SM 27/15 A3003 RMK T02700150 IEM_DS3505
ZBYN,1989-08-02 06:00,ZBYN 020600Z AUTO 07006KT 7SM 27/16 A3000 RMK SLP103 T02670164 4////0206 57012 IEM_DS3505
ZBYN,1989-08-02 08:00,ZBYN 020800Z AUTO 08012KT 6SM 27/16 A2997 RMK T02700160 IEM_DS3505
ZBYN,1989-08-02 09:00,ZBYN 020900Z AUTO 07006KT 6SM 26/17 A2997 RMK SLP091 T02650167 57013 IEM_DS3505
ZBYN,1989-08-02 10:00,ZBYN 021000Z AUTO 09010KT 6SM 25/16 A2997 RMK T02500160 IEM_DS3505
ZBYN,1989-08-02 11:00,ZBYN 021100Z AUTO 08010KT 6SM 24/15 A2997 RMK T02400150 IEM_DS3505
ZBYN,1989-08-02 12:00,ZBYN 021200Z AUTO 07006KT 6SM 24/16 A2997 RMK SLP090 T02350164 54000 IEM_DS3505
ZBYN,1989-08-02 14:00,ZBYN 021400Z AUTO 07010KT 6SM 23/16 A3000 RMK T02300160 IEM_DS3505
ZBYN,1989-08-02 15:00,ZBYN 021500Z AUTO 00000KT 9SM 23/16 A3003 RMK SLP112 T02300158 52021 IEM_DS3505
ZBYN,1989-08-02 17:00,ZBYN 021700Z AUTO 06006KT 6SM 22/17 A3003 RMK T02200170 IEM_DS3505
ZBYN,1989-08-02 18:00,ZBYN 021800Z AUTO 00000KT 6SM 20/16 A3003 RMK SLP117 T02010164 40275//// 52002 IEM_DS3505
ZBYN,1989-08-02 20:00,ZBYN 022000Z AUTO 33004KT 6SM 18/17 A3003 RMK T01800170 IEM_DS3505
ZBYN,1989-08-02 21:00,ZBYN 022100Z AUTO 34002KT 6SM 20/16 RMK SLP119 T01950160 52001 IEM_DS3505
ZBYN,1989-08-02 22:00,ZBYN 022200Z AUTO 35004KT 4SM 19/17 A3006 RMK T01900170 IEM_DS3505
ZBYN,1989-08-02 23:00,ZBYN 022300Z AUTO 35004KT 4SM 20/18 A3006 RMK T02000180 IEM_DS3505
ZBYN,1989-08-03 00:00,ZBYN 030000Z AUTO 34004KT 5SM 21/17 A3006 RMK SLP126 T02070171 52004 IEM_DS3505
ZBYN,1989-08-03 01:00,ZBYN 030100Z AUTO 07004KT 6SM 23/18 A3006 RMK T02300180 IEM_DS3505
ZBYN,1989-08-03 02:00,ZBYN 030200Z AUTO 04006KT 6SM 24/18 A3006 RMK T02400180 IEM_DS3505
ZBYN,1989-08-03 03:00,ZBYN 030300Z AUTO 02004KT 5SM 25/18 A3006 RMK SLP117 T02460182 57004 IEM_DS3505
ZBYN,1989-08-03 04:00,ZBYN 030400Z AUTO 12006KT 7SM 26/16 A3006 RMK T02600160 IEM_DS3505
ZBYN,1989-08-03 05:00,ZBYN 030500Z AUTO 7SM 27/17 A3003 RMK T02700170 IEM_DS3505
ZBYN,1989-08-03 06:00,ZBYN 030600Z AUTO 11014KT 6SM 26/16 A3003 RMK SLP105 T02640155 4////0193 57012 IEM_DS3505
ZBYN,1989-08-03 07:00,ZBYN 030700Z AUTO 08008KT 7SM 27/16 A3000 RMK T02700160 IEM_DS3505
ZBYN,1989-08-03 08:00,ZBYN 030800Z AUTO 06010KT 6SM 27/16 A3000 RMK T02700160 IEM_DS3505
ZBYN,1989-08-03 09:00,ZBYN 030900Z AUTO 09006KT 9SM 27/17 A3000 RMK SLP093 T02680171 57011 IEM_DS3505
ZBYN,1989-08-03 10:00,ZBYN 031000Z AUTO 07010KT 6SM 26/15 A2997 RMK T02600150 IEM_DS3505
ZBYN,1989-08-03 11:00,ZBYN 031100Z AUTO 09012KT 6SM 25/16 A2997 RMK T02500160 IEM_DS3505
ZBYN,1989-08-03 12:00,ZBYN 031200Z AUTO 07004KT 9SM 24/16 A2997 RMK SLP101 T02380159 52004 IEM_DS3505
ZBYN,1989-08-03 13:00,ZBYN 031300Z AUTO 07008KT 6SM 23/15 A3000 RMK T02300150 IEM_DS3505
ZBYN,1989-08-03 14:00,ZBYN 031400Z AUTO 09010KT 6SM 23/15 A3000 RMK T02300150 IEM_DS3505
ZBYN,1989-08-03 15:00,ZBYN 031500Z AUTO 04004KT 7SM 23/16 A3003 RMK SLP119 T02260159 52021 IEM_DS3505
ZBYN,1989-08-03 16:00,ZBYN 031600Z AUTO 07006KT 6SM 21/17 A3003 RMK T02100170 IEM_DS3505
ZBYN,1989-08-03 18:00,ZBYN 031800Z AUTO 00000KT 7SM 20/17 A3003 RMK SLP114 T02000167 40280//// 57006 IEM_DS3505
ZBYN,1989-08-03 19:00,ZBYN 031900Z AUTO 00000KT 6SM 18/16 A3003 RMK T01800160 IEM_DS3505
ZBYN,1989-08-03 20:00,ZBYN 032000Z AUTO 36006KT 6SM 17/16 A3003 RMK T01700160 IEM_DS3505
ZBYN,1989-08-03 21:00,ZBYN 032100Z AUTO 34002KT 6SM 17/16 A3003 RMK SLP116 T01700160 54000 IEM_DS3505
ZBYN,1989-08-03 22:00,ZBYN 032200Z AUTO 00000KT 6SM 16/16 A3003 RMK T01600160 IEM_DS3505
ZBYN,1989-08-03 23:00,ZBYN 032300Z AUTO 00000KT 6SM 18/16 A3003 RMK T01800160 IEM_DS3505
ZBYN,1989-08-04 00:00,ZBYN 040000Z AUTO 34004KT 5SM 20/16 A3003 RMK SLP119 T01970165 54000 IEM_DS3505
ZBYN,1989-08-04 01:00,ZBYN 040100Z AUTO 31006KT 7SM 23/18 A3003 RMK T02300180 IEM_DS3505
ZBYN,1989-08-04 02:00,ZBYN 040200Z AUTO 00000KT 7SM 24/18 A3003 RMK T02400180 IEM_DS3505
ZBYN,1989-08-04 03:00,ZBYN 040300Z AUTO 14002KT 6SM 25/18 A3003 RMK SLP110 T02540176 57002 IEM_DS3505
ZBYN,1989-08-04 04:00,ZBYN 040400Z AUTO 12004KT 7SM 27/17 A3000 RMK T02700170 IEM_DS3505
ZBYN,1989-08-04 05:00,ZBYN 040500Z AUTO 05010KT 7SM 26/17 A3000 RMK T02600170 IEM_DS3505
ZBYN,1989-08-04 06:00,ZBYN 040600Z AUTO 02004KT 6SM 27/19 A2997 RMK SLP097 T02660186 4////0180 57013 IEM_DS3505
ZBYN,1989-08-04 07:00,ZBYN 040700Z AUTO 06006KT 7SM 28/17 A2997 RMK T02800170 IEM_DS3505
ZBYN,1989-08-04 08:00,ZBYN 040800Z AUTO 09010KT 7SM 28/16 A2994 RMK T02800160 IEM_DS3505
ZBYN,1989-08-04 09:00,ZBYN 040900Z AUTO 09004KT 7SM 27/19 A2994 RMK SLP086 T02680187 57013 IEM_DS3505
ZBYN,1989-08-04 10:00,ZBYN 041000Z AUTO 10008KT 7SM 27/16 A2994 RMK T02700160 IEM_DS3505
ZBYN,1989-08-04 11:00,ZBYN 041100Z AUTO 10008KT 6SM 25/15 A2994 RMK T02500150 IEM_DS3505
ZBYN,1989-08-04 12:00,ZBYN 041200Z AUTO 09004KT 6SM 24/16 A2997 RMK SLP094 T02360164 52005 IEM_DS3505
ZBYN,1989-08-04 13:00,ZBYN 041300Z AUTO 07008KT 7SM 24/14 A3000 RMK T02400140 IEM_DS3505
ZBYN,1989-08-04 14:00,ZBYN 041400Z AUTO 09008KT 7SM 21/16 A3000 RMK T02100160 IEM_DS3505
ZBYN,1989-08-04 15:00,ZBYN 041500Z AUTO 00000KT 6SM 19/17 A3000 RMK SLP110 T01940170 52017 IEM_DS3505
ZBYN,1989-08-04 16:00,ZBYN 041600Z AUTO 07004KT 7SM 21/16 RMK T02100160 IEM_DS3505
ZBYN,1989-08-04 18:00,ZBYN 041800Z AUTO 36004KT 6SM 20/16 RMK SLP101 T02010161 40285//// 57006 IEM_DS3505
ZBYN,1989-08-04 19:00,ZBYN 041900Z AUTO 34006KT 4SM 20/16 A3000 RMK T02000160 IEM_DS3505
ZBYN,1989-08-04 21:00,ZBYN 042100Z AUTO 00000KT 6SM 19/17 RMK SLP098 T01900171 57004 IEM_DS3505
ZBYN,1989-08-04 22:00,ZBYN 042200Z AUTO 4SM 19/17 A2997 RMK T01900170 IEM_DS3505
ZBYN,1989-08-04 23:00,ZBYN 042300Z AUTO 34006KT 4SM 20/17 A2997 RMK T02000170 IEM_DS3505
ZBYN,1989-08-05 00:00,ZBYN 050000Z AUTO 34004KT 6SM 20/16 A2997 RMK SLP099 T02040164 57001 IEM_DS3505
ZBYN,1989-08-05 03:00,ZBYN 050300Z AUTO 00000KT 6SM 25/18 A2997 RMK SLP093 T02510184 57005 IEM_DS3505
ZBYN,1989-08-05 04:00,ZBYN 050400Z AUTO 11008KT 7SM 26/18 A2994 RMK T02600180 IEM_DS3505
ZBYN,1989-08-05 05:00,ZBYN 050500Z AUTO 09008KT 7SM 24/19 A2994 RMK T02400190 IEM_DS3505
ZBYN,1989-08-05 06:00,ZBYN 050600Z AUTO 14006KT 6SM 25/20 RMK SLP083 T02510197 4////0178 57008 IEM_DS3505
ZBYN,1989-08-05 07:00,ZBYN 050700Z AUTO 13006KT 7SM 25/20 A2991 RMK T02500200 IEM_DS3505
ZBYN,1989-08-05 08:00,ZBYN 050800Z AUTO 13006KT 7SM 26/20 A2991 RMK T02600200 IEM_DS3505
ZBYN,1989-08-05 09:00,ZBYN 050900Z AUTO 14002KT 6SM 25/21 RMK SLP075 T02520206 57009 IEM_DS3505
ZBYN,1989-08-05 10:00,ZBYN 051000Z AUTO 11008KT 7SM 26/20 A2991 RMK T02600200 IEM_DS3505
ZBYN,1989-08-05 11:00,ZBYN 051100Z AUTO 12006KT 6SM 24/20 A2991 RMK T02400200 IEM_DS3505
ZBYN,1989-08-05 12:00,ZBYN 051200Z AUTO 00000KT 6SM 23/21 RMK SLP075 T02270209 57001 IEM_DS3505
ZBYN,1989-08-05 13:00,ZBYN 051300Z AUTO 09002KT 6SM 22/20 A2991 RMK T02200200 IEM_DS3505
ZBYN,1989-08-05 14:00,ZBYN 051400Z AUTO 11004KT 6SM 21/19 A2991 RMK T02100190 IEM_DS3505
ZBYN,1989-08-05 15:00,ZBYN 051500Z AUTO 00000KT 5SM 22/19 A2991 RMK SLP073 T02200190 52001 IEM_DS3505
ZBYN,1989-08-05 16:00,ZBYN 051600Z AUTO 09006KT 6SM 21/19 A2994 RMK T02100190 IEM_DS3505
ZBYN,1989-08-05 17:00,ZBYN 051700Z AUTO 09010KT 6SM 21/19 A2994 RMK T02100190 IEM_DS3505
ZBYN,1989-08-05 18:00,ZBYN 051800Z AUTO 00000KT 5SM 20/19 A2991 RMK SLP071 T01960190 40265//// 57003 IEM_DS3505
ZBYN,1989-08-05 19:00,ZBYN 051900Z AUTO 31004KT 6SM 19/18 A2988 RMK T01900180 IEM_DS3505
ZBYN,1989-08-05 20:00,ZBYN 052000Z AUTO 03004KT 6SM 20/19 A2988 RMK T02000190 IEM_DS3505
ZBYN,1989-08-05 21:00,ZBYN 052100Z AUTO 00000KT 4SM 20/19 RMK SLP062 T01970191 57008 IEM_DS3505
ZBYN,1989-08-06 00:00,ZBYN 060000Z AUTO 00000KT 3SM 20/20 A2991 RMK SLP070 T01990196 52004 IEM_DS3505
ZBYN,1989-08-06 01:00,ZBYN 060100Z AUTO 04002KT 6SM 22/20 A2991 RMK T02200200 IEM_DS3505
ZBYN,1989-08-06 03:00,ZBYN 060300Z AUTO 00000KT 6SM 27/20 A2988 RMK SLP064 T02660203 54000 IEM_DS3505
ZBYN,1989-08-06 04:00,ZBYN 060400Z AUTO 00000KT 7SM 28/20 A2988 RMK T02800200 IEM_DS3505
ZBYN,1989-08-06 05:00,ZBYN 060500Z AUTO 14004KT 7SM 29/20 A2985 RMK T02900200 IEM_DS3505
ZBYN,1989-08-06 06:00,ZBYN 060600Z AUTO 00000KT 9SM 29/21 A2983 RMK SLP041 T02920213 4////0185 57018 IEM_DS3505
ZBYN,1989-08-06 07:00,ZBYN 060700Z AUTO 21004KT 7SM 31/20 A2983 RMK T03100200 IEM_DS3505
ZBYN,1989-08-06 08:00,ZBYN 060800Z AUTO 00000KT 7SM 31/20 A2980 RMK T03100200 IEM_DS3505
ZBYN,1989-08-06 09:00,ZBYN 060900Z AUTO 25004KT 16SM 29/22 RMK SLP024 T02900215 57017 IEM_DS3505
ZBYN,1989-08-06 12:00,ZBYN 061200Z AUTO 11002KT 12SM 26/21 A2980 RMK SLP039 T02600210 52010 IEM_DS3505
ZBYN,1989-08-06 13:00,ZBYN 061300Z AUTO 09006KT 7SM 24/20 A2983 RMK T02400200 IEM_DS3505
ZBYN,1989-08-06 14:00,ZBYN 061400Z AUTO 03006KT 7SM 25/19 A2985 RMK T02500190 IEM_DS3505
ZBYN,1989-08-06 16:00,ZBYN 061600Z AUTO 33006KT 7SM 23/20 A2985 RMK T02300200 IEM_DS3505
ZBYN,1989-08-06 18:00,ZBYN 061800Z AUTO 34002KT 6SM 22/20 RMK 60001 SLP049 T02220203 40312//// 57004 IEM_DS3505
ZBYN,1989-08-06 21:00,ZBYN 062100Z AUTO 34002KT 6SM 22/19 A2985 RMK SLP052 T02170193 52002 IEM_DS3505
ZBYN,1989-08-06 22:00,ZBYN 062200Z AUTO 00000KT 6SM RMK IEM_DS3505
ZBYN,1989-08-07 00:00,ZBYN 070000Z AUTO 00000KT 6SM 23/21 A2991 RMK SLP062 T02300206 52007 IEM_DS3505
ZBYN,1989-08-07 01:00,ZBYN 070100Z AUTO 00000KT 6SM 25/21 A2991 RMK T02500210 IEM_DS3505
ZBYN,1989-08-07 03:00,ZBYN 070300Z AUTO 36006KT 7SM 25/16 RMK SLP072 T02500157 52007 IEM_DS3505
ZBYN,1989-08-07 06:00,ZBYN 070600Z AUTO 36008KT 12SM 24/17 A2991 RMK SLP075 T02450169 4////0211 52002 IEM_DS3505
ZBYN,1989-08-07 07:00,ZBYN 070700Z AUTO 10008KT 7SM 24/19 A2994 RMK T02400190 IEM_DS3505
ZBYN,1989-08-07 08:00,ZBYN 070800Z AUTO 11016KT 7SM 22/18 A2997 RMK T02200180 IEM_DS3505
ZBYN,1989-08-07 09:00,ZBYN 070900Z AUTO 11006KT 11SM 22/18 RMK SLP093 T02160182 52011 IEM_DS3505
ZBYN,1989-08-07 10:00,ZBYN 071000Z AUTO 06008KT 7SM 22/17 A2997 RMK T02200170 IEM_DS3505
ZBYN,1989-08-07 11:00,ZBYN 071100Z AUTO 06012KT 7SM 21/17 A2997 RMK T02100170 IEM_DS3505
ZBYN,1989-08-07 12:00,ZBYN 071200Z AUTO 00000KT 4SM 20/19 A2997 RMK 60020 SLP100 T02040190 52007 IEM_DS3505
ZBYN,1989-08-07 14:00,ZBYN 071400Z AUTO 08008KT 7SM 20/16 A3000 RMK T02000160 IEM_DS3505
ZBYN,1989-08-07 15:00,ZBYN 071500Z AUTO 00000KT 4SM 18/17 A3000 RMK SLP109 T01830174 52008 IEM_DS3505
ZBYN,1989-08-07 16:00,ZBYN 071600Z AUTO 07006KT 5SM 20/16 A3000 RMK T02000160 IEM_DS3505
ZBYN,1989-08-07 17:00,ZBYN 071700Z AUTO 06008KT 5SM 20/16 A3000 RMK T02000160 IEM_DS3505
ZBYN,1989-08-07 18:00,ZBYN 071800Z AUTO 32002KT 6SM 19/17 A3000 RMK SLP113 T01880174 40261//// 52004 IEM_DS3505
ZBYN,1989-08-07 21:00,ZBYN 072100Z AUTO 00000KT 6SM 19/17 A3003 RMK 70020 SLP120 T01930171 52003 IEM_DS3505
ZBYN,1989-08-08 00:00,ZBYN 080000Z AUTO 00000KT 5SM 21/18 RMK SLP124 T02110182 52004 IEM_DS3505
ZBYN,1989-08-08 01:00,ZBYN 080100Z AUTO 00000KT 6SM 22/19 A3003 RMK T02200190 IEM_DS3505
ZBYN,1989-08-08 03:00,ZBYN 080300Z AUTO 00000KT 6SM 25/18 A3003 RMK SLP120 T02510181 57001 IEM_DS3505
ZBYN,1989-08-08 04:00,ZBYN 080400Z AUTO 00000KT 6SM 27/19 A3000 RMK T02700190 IEM_DS3505
ZBYN,1989-08-08 05:00,ZBYN 080500Z AUTO 06004KT 6SM 28/20 A3000 RMK T02800200 IEM_DS3505
ZBYN,1989-08-08 06:00,ZBYN 080600Z AUTO 00000KT 7SM 28/19 RMK SLP090 T02820193 4////0175 57022 IEM_DS3505
ZBYN,1989-08-08 08:00,ZBYN 080800Z AUTO 00000KT 7SM 30/17 A2994 RMK T03000170 IEM_DS3505
ZBYN,1989-08-08 09:00,ZBYN 080900Z AUTO 18004KT 7SM 30/18 A2994 RMK T03000180 IEM_DS3505
ZBYN,1989-08-08 10:00,ZBYN 081000Z AUTO 00000KT 7SM 30/20 A2994 RMK T03000200 IEM_DS3505
ZBYN,1989-08-08 11:00,ZBYN 081100Z AUTO 00000KT 7SM 28/21 A2994 RMK T02800210 IEM_DS3505
ZBYN,1989-08-08 12:00,ZBYN 081200Z AUTO 09004KT 6SM 26/19 A2994 RMK SLP085 T02600193 52007 IEM_DS3505
ZBYN,1989-08-08 13:00,ZBYN 081300Z AUTO 07016KT 7SM 25/18 A2997 RMK T02500180 IEM_DS3505
ZBYN,1989-08-08 14:00,ZBYN 081400Z AUTO 08012KT 7SM 24/15 A2997 RMK T02400150 IEM_DS3505
ZBYN,1989-08-08 18:00,ZBYN 081800Z AUTO 00000KT 9SM 21/18 RMK SLP095 T02140178 40299//// 54000 IEM_DS3505
ZBYN,1989-08-08 21:00,ZBYN 082100Z AUTO 00000KT 6SM 20/15 RMK SLP092 T02000151 57003 IEM_DS3505
ZBYN,1989-08-08 22:00,ZBYN 082200Z AUTO 00000KT 6SM 19/17 A3000 RMK T01900170 IEM_DS3505
ZBYN,1989-08-08 23:00,ZBYN 082300Z AUTO 00000KT 6SM 20/17 A3000 RMK T02000170 IEM_DS3505
ZBYN,1989-08-09 00:00,ZBYN 090000Z AUTO 00000KT 6SM 22/16 A3000 RMK T02180159 52005 IEM_DS3505
ZBYN,1989-08-09 01:00,ZBYN 090100Z AUTO 00000KT 6SM 26/18 A3000 RMK T02600180 IEM_DS3505
ZBYN,1989-08-09 02:00,ZBYN 090200Z AUTO 17006KT 6SM 26/16 A3000 RMK T02600160 IEM_DS3505
ZBYN,1989-08-09 03:00,ZBYN 090300Z AUTO 18002KT 5SM 27/19 A3000 RMK SLP086 T02670194 57008 IEM_DS3505
ZBYN,1989-08-09 04:00,ZBYN 090400Z AUTO 18008KT 6SM 28/19 A2997 RMK T02800190 IEM_DS3505
ZBYN,1989-08-09 05:00,ZBYN 090500Z AUTO 21004KT 6SM 29/19 A2994 RMK T02900190 IEM_DS3505
ZBYN,1989-08-09 06:00,ZBYN 090600Z AUTO 25004KT 5SM 30/19 A2991 RMK SLP064 T03000190 4////0195 57021 IEM_DS3505
ZBYN,1989-08-09 07:00,ZBYN 090700Z AUTO 18006KT 7SM 31/20 A2988 RMK T03100200 IEM_DS3505
ZBYN,1989-08-09 08:00,ZBYN 090800Z AUTO 21006KT 7SM 31/19 A2988 RMK T03100190 IEM_DS3505
ZBYN,1989-08-09 09:00,ZBYN 090900Z AUTO 00000KT 5SM 30/20 A2985 RMK SLP047 T02990204 57017 IEM_DS3505
ZBYN,1989-08-09 10:00,ZBYN 091000Z AUTO 20004KT 6SM 29/20 A2985 RMK T02900200 IEM_DS3505
ZBYN,1989-08-09 11:00,ZBYN 091100Z AUTO 22004KT 6SM 28/22 A2985 RMK T02800220 IEM_DS3505
ZBYN,1989-08-09 12:00,ZBYN 091200Z AUTO 11004KT 6SM 26/22 A2985 RMK SLP049 T02560220 57001 IEM_DS3505
ZBYN,1989-08-09 14:00,ZBYN 091400Z AUTO 13006KT 6SM 24/18 A2988 RMK T02400180 IEM_DS3505
ZBYN,1989-08-09 15:00,ZBYN 091500Z AUTO 00000KT 6SM 22/19 A2985 RMK SLP056 T02230193 52008 IEM_DS3505
ZBYN,1989-08-09 18:00,ZBYN 091800Z AUTO 14004KT 7SM 22/17 A2985 RMK SLP047 T02160174 57005 IEM_DS3505
ZBYN,1989-08-09 20:00,ZBYN 092000Z AUTO 08008KT 6SM 20/17 A2985 RMK T02000170 IEM_DS3505
ZBYN,1989-08-09 21:00,ZBYN 092100Z AUTO 11006KT 6SM 21/18 RMK SLP043 T02060178 57004 IEM_DS3505
ZBYN,1989-08-09 22:00,ZBYN 092200Z AUTO 17006KT 6SM 20/18 A2985 RMK T02000180 IEM_DS3505
ZBYN,1989-08-10 00:00,ZBYN 100000Z AUTO 14004KT 6SM 22/19 A2985 RMK SLP049 T02240189 52002 IEM_DS3505
ZBYN,1989-08-10 01:00,ZBYN 100100Z AUTO 22008KT 6SM 25/20 A2983 RMK T02500200 IEM_DS3505
ZBYN,1989-08-10 02:00,ZBYN 100200Z AUTO 22006KT 6SM 26/20 A2983 RMK T02600200 IEM_DS3505
ZBYN,1989-08-10 03:00,ZBYN 100300Z AUTO 20004KT 6SM 26/21 A2983 RMK SLP049 T02620206 54000 IEM_DS3505
ZBYN,1989-08-10 04:00,ZBYN 100400Z AUTO 27006KT 7SM 26/21 A2983 RMK T02600210 IEM_DS3505
ZBYN,1989-08-10 05:00,ZBYN 100500Z AUTO 32004KT 4SM 24/22 A2980 RMK T02400220 IEM_DS3505
ZBYN,1989-08-10 06:00,ZBYN 100600Z AUTO 34006KT 8SM 24/19 A2980 RMK 60004 SLP047 T02420188 4////0200 57005 IEM_DS3505
ZBYN,1989-08-10 07:00,ZBYN 100700Z AUTO 31006KT 7SM 24/20 A2980 RMK T02400200 IEM_DS3505
ZBYN,1989-08-10 08:00,ZBYN 100800Z AUTO 00000KT 6SM 26/19 A2980 RMK T02600190 IEM_DS3505
ZBYN,1989-08-10 09:00,ZBYN 100900Z AUTO 00000KT 9SM 25/20 A2977 RMK SLP039 T02500203 57008 IEM_DS3505
ZBYN,1989-08-10 12:00,ZBYN 101200Z AUTO 14004KT 9SM 22/21 RMK T02220206 54000 IEM_DS3505
ZBYN,1989-08-10 13:00,ZBYN 101300Z AUTO 00000KT 6SM 22/20 A2980 RMK T02200200 IEM_DS3505
ZBYN,1989-08-10 14:00,ZBYN 101400Z AUTO 15004KT 6SM 21/20 A2980 RMK T02100200 IEM_DS3505
ZBYN,1989-08-10 15:00,ZBYN 101500Z AUTO 00000KT 6SM 21/20 A2980 RMK SLP044 T02070199 52008 IEM_DS3505
ZBYN,1989-08-10 16:00,ZBYN 101600Z AUTO 00000KT 6SM 20/19 A2980 RMK T02000190 IEM_DS3505
ZBYN,1989-08-10 17:00,ZBYN 101700Z AUTO 00000KT 6SM 20/19 A2980 RMK T02000190 IEM_DS3505
ZBYN,1989-08-10 18:00,ZBYN 101800Z AUTO 00000KT 7SM 19/19 A2977 RMK SLP044 T01910186 40271//// 57005 IEM_DS3505
ZBYN,1989-08-10 20:00,ZBYN 102000Z AUTO 00000KT 2 1/2SM 18/17 A2977 RMK T01800170 IEM_DS3505
ZBYN,1989-08-10 21:00,ZBYN 102100Z AUTO 00000KT 2SM 19/19 A2977 RMK SLP038 T01890187 57005 IEM_DS3505
ZBYN,1989-08-10 22:00,ZBYN 102200Z AUTO 00000KT 1SM RMK IEM_DS3505
ZBYN,1989-08-10 23:00,ZBYN 102300Z AUTO 00000KT 1SM 18/18 A2977 RMK T01800180 IEM_DS3505
ZBYN,1989-08-11 00:00,ZBYN 110000Z AUTO 00000KT 1 1/4SM 21/20 A2977 RMK SLP042 T02100196 52003 IEM_DS3505
ZBYN,1989-08-11 01:00,ZBYN 110100Z AUTO 00000KT 2 1/2SM 22/21 A2977 RMK T02200210 IEM_DS3505
ZBYN,1989-08-11 02:00,ZBYN 110200Z AUTO 03006KT 4SM 23/21 A2977 RMK T02300210 IEM_DS3505
ZBYN,1989-08-11 03:00,ZBYN 110300Z AUTO 20006KT 4SM 24/21 A2977 RMK SLP040 T02430209 54000 IEM_DS3505
ZBYN,1989-08-11 04:00,ZBYN 110400Z AUTO 16006KT 6SM 27/21 A2977 RMK T02700210 IEM_DS3505
ZBYN,1989-08-11 05:00,ZBYN 110500Z AUTO 19006KT 6SM 29/ RMK IEM_DS3505
ZBYN,1989-08-11 06:00,ZBYN 110600Z AUTO 20004KT 4SM 29/21 RMK SLP020 T02860212 4////0181 57014 IEM_DS3505
ZBYN,1989-08-11 07:00,ZBYN 110700Z AUTO 20004KT 6SM 30/21 A2971 RMK T03000210 IEM_DS3505
ZBYN,1989-08-11 08:00,ZBYN 110800Z AUTO 21008KT 6SM 29/22 A2971 RMK T02900220 IEM_DS3505
ZBYN,1989-08-11 09:00,ZBYN 110900Z AUTO 00000KT 6SM 28/21 A2968 RMK SLP010 T02840213 57010 IEM_DS3505
ZBYN,1989-08-11 10:00,ZBYN 111000Z AUTO 20004KT 7SM 28/21 A2971 RMK T02800210 IEM_DS3505
ZBYN,1989-08-11 11:00,ZBYN 111100Z AUTO 20004KT 7SM 28/21 A2971 RMK T02800210 IEM_DS3505
ZBYN,1989-08-11 12:00,ZBYN 111200Z AUTO 00000KT 6SM 25/22 RMK SLP022 T02460222 52009 IEM_DS3505
ZBYN,1989-08-11 13:00,ZBYN 111300Z AUTO 09006KT 7SM 24/22 A2977 RMK T02400220 IEM_DS3505
ZBYN,1989-08-11 14:00,ZBYN 111400Z AUTO 00000KT 7SM 24/22 A2977 RMK T02400220 IEM_DS3505
ZBYN,1989-08-11 15:00,ZBYN 111500Z AUTO 20041KT 6SM 23/22 A2980 RMK SLP035 T02300215 52014 IEM_DS3505
ZBYN,1989-08-11 16:00,ZBYN 111600Z AUTO 00000KT 7SM 23/21 A2980 RMK T02300210 IEM_DS3505
ZBYN,1989-08-11 18:00,ZBYN 111800Z AUTO 34004KT 6SM 26/15 A2980 RMK SLP028 T02580148 52003 IEM_DS3505
ZBYN,1989-08-11 19:00,ZBYN 111900Z AUTO 35008KT 6SM 24/15 A2977 RMK T02400150 IEM_DS3505
ZBYN,1989-08-11 22:00,ZBYN 112200Z AUTO 00000KT 6SM 23/12 A2980 RMK T02300120 IEM_DS3505
ZBYN,1989-08-11 23:00,ZBYN 112300Z AUTO 00000KT 6SM 21/17 A2980 RMK T02100170 IEM_DS3505
ZBYN,1989-08-12 00:00,ZBYN 120000Z AUTO 00000KT 9SM 22/17 A2983 RMK SLP052 T02190169 52008 IEM_DS3505
ZBYN,1989-08-12 01:00,ZBYN 120100Z AUTO 00000KT 6SM 24/17 A2983 RMK T02400170 IEM_DS3505
ZBYN,1989-08-12 02:00,ZBYN 120200Z AUTO 15006KT 6SM 26/16 A2983 RMK T02600160 IEM_DS3505
ZBYN,1989-08-12 03:00,ZBYN 120300Z AUTO 14004KT 6SM 28/16 A2983 RMK SLP045 T02810165 54000 IEM_DS3505
ZBYN,1989-08-12 04:00,ZBYN 120400Z AUTO 20004KT 7SM 29/15 A2980 RMK T02900150 IEM_DS3505
ZBYN,1989-08-12 05:00,ZBYN 120500Z AUTO 00000KT 7SM 30/15 A2980 RMK T03000150 IEM_DS3505
ZBYN,1989-08-12 06:00,ZBYN 120600Z AUTO 00000KT 7SM 30/16 A2977 RMK SLP022 T02990162 4////0211 57015 IEM_DS3505
ZBYN,1989-08-12 07:00,ZBYN 120700Z AUTO 25006KT 7SM 30/16 A2977 RMK T03000160 IEM_DS3505
ZBYN,1989-08-12 08:00,ZBYN 120800Z AUTO 22006KT 7SM 31/15 A2974 RMK T03100150 IEM_DS3505
ZBYN,1989-08-12 09:00,ZBYN 120900Z AUTO 00000KT 9SM 30/17 A2977 RMK SLP020 T03020173 57005 IEM_DS3505
ZBYN,1989-08-12 11:00,ZBYN 121100Z AUTO 00000KT 7SM 28/19 A2977 RMK T02800190 IEM_DS3505
ZBYN,1989-08-12 12:00,ZBYN 121200Z AUTO 00000KT 7SM 25/20 RMK SLP040 T02480197 52010 IEM_DS3505
ZBYN,1989-08-12 13:00,ZBYN 121300Z AUTO 15004KT 7SM 24/18 A2980 RMK T02400180 IEM_DS3505
ZBYN,1989-08-12 15:00,ZBYN 121500Z AUTO 11004KT 6SM 22/17 RMK SLP063 T02180173 52025 IEM_DS3505
ZBYN,1989-08-12 16:00,ZBYN 121600Z AUTO 12008KT 6SM 20/17 A2985 RMK T02000170 IEM_DS3505
ZBYN,1989-08-12 18:00,ZBYN 121800Z AUTO 14004KT 6SM 19/17 A2988 RMK SLP071 T01940172 40310//// 52007 IEM_DS3505
ZBYN,1989-08-12 21:00,ZBYN 122100Z AUTO 00000KT 6SM 17/16 A2988 RMK SLP082 T01710165 52007 IEM_DS3505
ZBYN,1989-08-12 22:00,ZBYN 122200Z AUTO 10004KT 7SM 18/16 A2988 RMK T01800160 IEM_DS3505
ZBYN,1989-08-12 23:00,ZBYN 122300Z AUTO 00000KT 7SM 19/17 A2991 RMK T01900170 IEM_DS3505
ZBYN,1989-08-13 00:00,ZBYN 130000Z AUTO 34004KT 4SM 20/17 A2994 RMK SLP099 T02020172 52012 IEM_DS3505
ZBYN,1989-08-13 01:00,ZBYN 130100Z AUTO 00000KT 5SM 23/18 A2994 RMK T02300180 IEM_DS3505
ZBYN,1989-08-13 02:00,ZBYN 130200Z AUTO 00000KT 7SM 25/18 A2994 RMK T02500180 IEM_DS3505
ZBYN,1989-08-13 03:00,ZBYN 130300Z AUTO 00000KT 6SM 26/18 A2991 RMK SLP090 T02640185 57004 IEM_DS3505
ZBYN,1989-08-13 04:00,ZBYN 130400Z AUTO 15002KT 7SM 29/18 A2991 RMK T02900180 IEM_DS3505
ZBYN,1989-08-13 05:00,ZBYN 130500Z AUTO 14008KT 7SM 31/16 A2991 RMK T03100160 IEM_DS3505
ZBYN,1989-08-13 06:00,ZBYN 130600Z AUTO 22002KT 9SM 31/17 A2988 RMK SLP066 T03090174 4////0159 57019 IEM_DS3505
ZBYN,1989-08-13 07:00,ZBYN 130700Z AUTO 15006KT 7SM 32/13 A2985 RMK T03200130 IEM_DS3505
ZBYN,1989-08-13 08:00,ZBYN 130800Z AUTO 11004KT 7SM 32/15 A2985 RMK T03200150 IEM_DS3505
ZBYN,1989-08-13 09:00,ZBYN 130900Z AUTO 09008KT 16SM 30/17 A2985 RMK SLP061 T02950172 57009 IEM_DS3505
ZBYN,1989-08-13 10:00,ZBYN 131000Z AUTO 07012KT 7SM 29/19 A2985 RMK T02900190 IEM_DS3505
ZBYN,1989-08-13 11:00,ZBYN 131100Z AUTO 08012KT 7SM 27/17 A2985 RMK T02700170 IEM_DS3505
ZBYN,1989-08-13 12:00,ZBYN 131200Z AUTO 09008KT 11SM 26/18 RMK SLP074 T02590183 52011 IEM_DS3505
ZBYN,1989-08-13 14:00,ZBYN 131400Z AUTO 08016KT 7SM 24/19 A2991 RMK T02400190 IEM_DS3505
ZBYN,1989-08-13 15:00,ZBYN 131500Z AUTO 11006KT 9SM 25/18 A2994 RMK SLP084 T02480179 52016 IEM_DS3505
ZBYN,1989-08-13 18:00,ZBYN 131800Z AUTO 00000KT 9SM 20/18 A2994 RMK SLP087 T01960180 40320//// 52005 IEM_DS3505
ZBYN,1989-08-13 19:00,ZBYN 131900Z AUTO 10006KT 7SM 20/18 A2994 RMK T02000180 IEM_DS3505
ZBYN,1989-08-13 20:00,ZBYN 132000Z AUTO 10006KT 7SM 20/18 A2994 RMK T02000180 IEM_DS3505
ZBYN,1989-08-13 21:00,ZBYN 132100Z AUTO 00000KT 6SM 18/17 RMK SLP096 T01780172 52004 IEM_DS3505
ZBYN,1989-08-13 23:00,ZBYN 132300Z AUTO 00000KT 5SM 20/18 A2994 RMK T02000180 IEM_DS3505
ZBYN,1989-08-14 00:00,ZBYN 140000Z AUTO 00000KT 4SM 21/19 A2994 RMK SLP103 T02120188 52006 IEM_DS3505
ZBYN,1989-08-14 02:00,ZBYN 140200Z AUTO 14006KT 6SM 27/16 A2994 RMK T02700160 IEM_DS3505
ZBYN,1989-08-14 03:00,ZBYN 140300Z AUTO 18004KT 7SM 27/16 A2994 RMK SLP096 T02670162 57001 IEM_DS3505
ZBYN,1989-08-14 04:00,ZBYN 140400Z AUTO 20010KT 6SM 29/13 A2994 RMK T02900130 IEM_DS3505
ZBYN,1989-08-14 05:00,ZBYN 140500Z AUTO 18010KT 6SM 29/14 A2991 RMK T02900140 IEM_DS3505
ZBYN,1989-08-14 06:00,ZBYN 140600Z AUTO 00000KT 16SM 28/16 A2991 RMK SLP085 T02830156 4////0168 57015 IEM_DS3505
ZBYN,1989-08-14 07:00,ZBYN 140700Z AUTO 19006KT 6SM 30/15 A2988 RMK T03000150 IEM_DS3505
ZBYN,1989-08-14 09:00,ZBYN 140900Z AUTO 00000KT 9SM 28/17 A2988 RMK SLP074 T02820166 57012 IEM_DS3505
ZBYN,1989-08-14 10:00,ZBYN 141000Z AUTO 25004KT 6SM 27/17 A2988 RMK T02700170 IEM_DS3505
ZBYN,1989-08-14 11:00,ZBYN 141100Z AUTO 23004KT 6SM 27/17 A2988 RMK T02700170 IEM_DS3505
ZBYN,1989-08-14 12:00,ZBYN 141200Z AUTO 20006KT 6SM 25/18 A2988 RMK SLP075 T02490177 52001 IEM_DS3505
ZBYN,1989-08-14 13:00,ZBYN 141300Z AUTO 23006KT 6SM 24/18 A2988 RMK T02400180 IEM_DS3505
ZBYN,1989-08-14 14:00,ZBYN 141400Z AUTO 12006KT 6SM 22/18 A2991 RMK T02200180 IEM_DS3505
ZBYN,1989-08-14 15:00,ZBYN 141500Z AUTO 14004KT 7SM 22/18 A2991 RMK SLP086 T02210184 52014 IEM_DS3505
ZBYN,1989-08-14 16:00,ZBYN 141600Z AUTO 11004KT 6SM 22/18 A2991 RMK T02200180 IEM_DS3505
ZBYN,1989-08-14 17:00,ZBYN 141700Z AUTO 00000KT 6SM 21/19 A2991 RMK T02100190 IEM_DS3505
ZBYN,1989-08-14 18:00,ZBYN 141800Z AUTO 00000KT 7SM 21/19 A2991 RMK SLP081 T02100190 40293//// 57004 IEM_DS3505
ZBYN,1989-08-14 19:00,ZBYN 141900Z AUTO 12006KT 6SM 22/19 A2991 RMK T02200190 IEM_DS3505
ZBYN,1989-08-14 20:00,ZBYN 142000Z AUTO 00000KT 6SM 21/19 A2991 RMK T02100190 IEM_DS3505
ZBYN,1989-08-14 21:00,ZBYN 142100Z AUTO 00000KT 6SM 21/19 A2991 RMK SLP080 T02060186 57002 IEM_DS3505
ZBYN,1989-08-14 22:00,ZBYN 142200Z AUTO 13004KT 6SM 21/18 A2991 RMK T02100180 IEM_DS3505
ZBYN,1989-08-15 00:00,ZBYN 150000Z AUTO 14002KT 5SM 22/19 A2991 RMK SLP086 T02230186 52003 IEM_DS3505
ZBYN,1989-08-15 01:00,ZBYN 150100Z AUTO 12004KT 6SM 25/18 A2991 RMK T02500180 IEM_DS3505
ZBYN,1989-08-15 02:00,ZBYN 150200Z AUTO 20006KT 6SM 27/18 A2991 RMK T02700180 IEM_DS3505
ZBYN,1989-08-15 03:00,ZBYN 150300Z AUTO 18004KT 6SM 26/19 A2991 RMK SLP082 T02650190 57001 IEM_DS3505
ZBYN,1989-08-15 04:00,ZBYN 150400Z AUTO 20006KT 7SM 28/18 A2988 RMK T02800180 IEM_DS3505
ZBYN,1989-08-15 05:00,ZBYN 150500Z AUTO 17010KT 6SM 29/18 A2988 RMK T02900180 IEM_DS3505
ZBYN,1989-08-15 06:00,ZBYN 150600Z AUTO 22006KT 6SM 28/19 A2985 RMK SLP070 T02840194 4////0195 57010 IEM_DS3505
ZBYN,1989-08-15 08:00,ZBYN 150800Z AUTO 18008KT 7SM 30/18 A2980 RMK T03000180 IEM_DS3505
ZBYN,1989-08-15 09:00,ZBYN 150900Z AUTO 22004KT 9SM 30/20 A2980 RMK SLP046 T02960198 57021 IEM_DS3505
ZBYN,1989-08-15 10:00,ZBYN 151000Z AUTO 36014KT 7SM 27/18 A2980 RMK T02700180 IEM_DS3505
ZBYN,1989-08-15 11:00,ZBYN 151100Z AUTO 35016KT 7SM 24/17 A2983 RMK T02400170 IEM_DS3505
ZBYN,1989-08-15 12:00,ZBYN 151200Z AUTO 36006KT 6SM 23/17 A2988 RMK SLP075 T02340170 52020 IEM_DS3505
ZBYN,1989-08-15 13:00,ZBYN 151300Z AUTO 35006KT 7SM 23/17 A2991 RMK T02300170 IEM_DS3505
ZBYN,1989-08-15 14:00,ZBYN 151400Z AUTO 01012KT 7SM 23/17 A2991 RMK T02300170 IEM_DS3505
ZBYN,1989-08-15 15:00,ZBYN 151500Z AUTO 36008KT 6SM 23/16 A2994 RMK SLP098 T02280165 52026 IEM_DS3505
ZBYN,1989-08-15 16:00,ZBYN 151600Z AUTO 04004KT 7SM 22/18 A2994 RMK T02200180 IEM_DS3505
ZBYN,1989-08-15 17:00,ZBYN 151700Z AUTO 05010KT 7SM 21/18 A2991 RMK T02100180 IEM_DS3505
ZBYN,1989-08-15 18:00,ZBYN 151800Z AUTO 34002KT 6SM 21/19 A2991 RMK 60002 SLP093 T02060192 40299//// 57005 IEM_DS3505
ZBYN,1989-08-15 20:00,ZBYN 152000Z AUTO 06010KT 7SM 19/17 A2991 RMK T01900170 IEM_DS3505
ZBYN,1989-08-15 21:00,ZBYN 152100Z AUTO 36004KT 4SM 20/18 RMK SLP091 T01950181 57001 IEM_DS3505
ZBYN,1989-08-15 23:00,ZBYN 152300Z AUTO 36012KT 7SM 17/16 A2994 RMK T01700160 IEM_DS3505
ZBYN,1989-08-16 00:00,ZBYN 160000Z AUTO 34006KT 5SM 17/16 RMK 60071 SLP121 T01700160 52015 IEM_DS3505
ZBYN,1989-08-16 01:00,ZBYN 160100Z AUTO 02010KT 17/16 A2997 RMK T01700160 IEM_DS3505
ZBYN,1989-08-16 02:00,ZBYN 160200Z AUTO 35010KT 7SM 17/17 A3000 RMK T01700170 IEM_DS3505
ZBYN,1989-08-16 03:00,ZBYN 160300Z AUTO 36006KT 5SM 17/16 RMK SLP136 T01720164 52013 IEM_DS3505
ZBYN,1989-08-16 04:00,ZBYN 160400Z AUTO 00000KT 7SM 17/17 A3003 RMK T01700170 IEM_DS3505
ZBYN,1989-08-16 05:00,ZBYN 160500Z AUTO 35006KT 4SM 17/17 A3003 RMK T01700170 IEM_DS3505
ZBYN,1989-08-16 06:00,ZBYN 160600Z AUTO 32002KT 5SM 18/17 A3003 RMK 60071 SLP141 T01750167 4////0162 52002 IEM_DS3505
ZBYN,1989-08-16 07:00,ZBYN 160700Z AUTO 36004KT 4SM 18/18 A3003 RMK T01800180 IEM_DS3505
ZBYN,1989-08-16 08:00,ZBYN 160800Z AUTO 35004KT 7SM 18/17 A3003 RMK T01800170 IEM_DS3505
ZBYN,1989-08-16 09:00,ZBYN 160900Z AUTO 00000KT 5SM 18/17 A3003 RMK SLP145 T01800172 52003 IEM_DS3505
ZBYN,1989-08-16 10:00,ZBYN 161000Z AUTO 00000KT 7SM 18/17 A3003 RMK T01800170 IEM_DS3505
ZBYN,1989-08-16 11:00,ZBYN 161100Z AUTO 09006KT 7SM 18/17 A3006 RMK T01800170 IEM_DS3505
ZBYN,1989-08-16 12:00,ZBYN 161200Z AUTO 36004KT 5SM 18/15 A3006 RMK 60012 SLP160 T01790154 52010 IEM_DS3505
ZBYN,1989-08-16 13:00,ZBYN 161300Z AUTO 00000KT 7SM 18/17 A3006 RMK T01800170 IEM_DS3505
ZBYN,1989-08-16 14:00,ZBYN 161400Z AUTO 00000KT 7SM 16/16 A3009 RMK T01600160 IEM_DS3505
ZBYN,1989-08-16 15:00,ZBYN 161500Z AUTO 00000KT 6SM 16/15 A3009 RMK SLP170 T01640154 52007 IEM_DS3505
ZBYN,1989-08-16 16:00,ZBYN 161600Z AUTO 09004KT 6SM 16/15 A3009 RMK T01600150 IEM_DS3505
ZBYN,1989-08-16 18:00,ZBYN 161800Z AUTO 00000KT 6SM 17/16 A3009 RMK SLP170 T01670157 52001 IEM_DS3505
ZBYN,1989-08-16 21:00,ZBYN 162100Z AUTO 00000KT 6SM 15/14 A3009 RMK SLP169 T01540139 57002 IEM_DS3505
ZBYN,1989-08-16 22:00,ZBYN 162200Z AUTO 00000KT 6SM 14/14 A3009 RMK T01400140 IEM_DS3505
ZBYN,1989-08-16 23:00,ZBYN 162300Z AUTO 02004KT 7SM 17/15 A3009 RMK T01700150 IEM_DS3505
ZBYN,1989-08-17 00:00,ZBYN 170000Z AUTO 34002KT 7SM 17/14 A3012 RMK SLP174 T01720144 52007 IEM_DS3505
ZBYN,1989-08-17 02:00,ZBYN 170200Z AUTO 08006KT 7SM 21/14 A3012 RMK T02100140 IEM_DS3505
ZBYN,1989-08-17 03:00,ZBYN 170300Z AUTO 11008KT 7SM 21/14 A3012 RMK T02060143 52003 IEM_DS3505
ZBYN,1989-08-17 04:00,ZBYN 170400Z AUTO 14006KT 7SM 23/16 RMK SLP154 T02310165 4////0148 57015 IEM_DS3505
ZBYN,1989-08-17 05:00,ZBYN 170500Z AUTO 06004KT 7SM 22/14 A3009 RMK T02200140 IEM_DS3505
ZBYN,1989-08-17 06:00,ZBYN 170600Z AUTO 14006KT 7SM 23/16 A3006 RMK SLP154 T02310165 4////0148 57015 IEM_DS3505
ZBYN,1989-08-17 07:00,ZBYN 170700Z AUTO 11010KT 6SM 24/16 A3006 RMK T02400160 IEM_DS3505
ZBYN,1989-08-17 08:00,ZBYN 170800Z AUTO 09010KT 6SM 24/14 A3003 RMK T02400140 IEM_DS3505
ZBYN,1989-08-17 09:00,ZBYN 170900Z AUTO 09004KT 9SM 24/15 RMK SLP140 T02370150 57014 IEM_DS3505
ZBYN,1989-08-17 12:00,ZBYN 171200Z AUTO 11004KT 9SM 20/ RMK SLP144 55001 IEM_DS3505
ZBYN,1989-08-17 13:00,ZBYN 171300Z AUTO 09008KT 6SM 19/15 A3006 RMK T01900150 IEM_DS3505
ZBYN,1989-08-17 14:00,ZBYN 171400Z AUTO 07008KT 6SM 20/15 A3003 RMK T02000150 IEM_DS3505
ZBYN,1989-08-17 15:00,ZBYN 171500Z AUTO 07002KT 9SM 20/15 A3006 RMK SLP147 T01960148 52007 IEM_DS3505
ZBYN,1989-08-17 16:00,ZBYN 171600Z AUTO 09010KT 6SM 19/15 A3006 RMK T01900150 IEM_DS3505
ZBYN,1989-08-17 17:00,ZBYN 171700Z AUTO 03004KT 6SM 19/16 A3006 RMK T01900160 IEM_DS3505
ZBYN,1989-08-17 18:00,ZBYN 171800Z AUTO 00000KT 9SM 19/16 A3006 RMK SLP141 T01900163 40237//// 57002 IEM_DS3505
ZBYN,1989-08-17 21:00,ZBYN 172100Z AUTO 00000KT 9SM 17/15 RMK SLP135 T01710149 57008 IEM_DS3505
ZBYN,1989-08-17 22:00,ZBYN 172200Z AUTO 00000KT 4SM 17/16 A3003 RMK T01700160 IEM_DS3505
ZBYN,1989-08-17 23:00,ZBYN 172300Z AUTO 00000KT 4SM 17/16 A3003 RMK T01700160 IEM_DS3505
ZBYN,1989-08-18 00:00,ZBYN 180000Z AUTO 00000KT 6SM 18/15 RMK SLP140 T01850154 52001 IEM_DS3505
ZBYN,1989-08-18 02:00,ZBYN 180200Z AUTO 00000KT 6SM 24/16 A3000 RMK T02400160 IEM_DS3505
ZBYN,1989-08-18 03:00,ZBYN 180300Z AUTO 16004KT 6SM 23/16 A3000 RMK SLP125 T02300164 57007 IEM_DS3505
ZBYN,1989-08-18 05:00,ZBYN 180500Z AUTO 21006KT 7SM 24/16 A2997 RMK T02400160 IEM_DS3505
ZBYN,1989-08-18 06:00,ZBYN 180600Z AUTO 16004KT 6SM 23/17 A2997 RMK SLP108 T02340167 4////0168 57016 IEM_DS3505
ZBYN,1989-08-18 07:00,ZBYN 180700Z AUTO 21008KT 7SM 23/16 A2994 RMK T02300160 IEM_DS3505
ZBYN,1989-08-18 09:00,ZBYN 180900Z AUTO 18004KT 6SM 22/17 A2994 RMK SLP103 T02150174 57010 IEM_DS3505
ZBYN,1989-08-18 10:00,ZBYN 181000Z AUTO 19006KT 6SM 21/17 A2994 RMK T02100170 IEM_DS3505
ZBYN,1989-08-18 11:00,ZBYN 181100Z AUTO 18004KT 6SM 21/17 A2994 RMK T02100170 IEM_DS3505
ZBYN,1989-08-18 12:00,ZBYN 181200Z AUTO 06004KT 4SM 20/18 A2997 RMK SLP122 T02000180 52017 IEM_DS3505
ZBYN,1989-08-18 13:00,ZBYN 181300Z AUTO 33006KT 7SM 19/16 A2997 RMK T01900160 IEM_DS3505
ZBYN,1989-08-18 14:00,ZBYN 181400Z AUTO 34006KT 7SM 18/16 A2997 RMK T01800160 IEM_DS3505
ZBYN,1989-08-18 15:00,ZBYN 181500Z AUTO 34002KT 4SM 18/15 A2997 RMK SLP122 T01800152 52004 IEM_DS3505
ZBYN,1989-08-18 18:00,ZBYN 181800Z AUTO 36004KT 4SM 18/16 RMK SLP119 T01750155 40237//// 57003 IEM_DS3505
ZBYN,1989-08-18 21:00,ZBYN 182100Z AUTO 00000KT 4SM 17/16 RMK SLP116 T01670164 57007 IEM_DS3505
ZBYN,1989-08-18 23:00,ZBYN 182300Z AUTO 00000KT 1 1/4SM 17/16 A2997 RMK T01700160 IEM_DS3505
ZBYN,1989-08-19 00:00,ZBYN 190000Z AUTO 36002KT 2SM 17/16 A2997 RMK 60016 SLP123 T01680165 52005 IEM_DS3505
ZBYN,1989-08-19 01:00,ZBYN 190100Z AUTO 24004KT 1 1/4SM 17/17 A2997 RMK T01700170 IEM_DS3505
ZBYN,1989-08-19 02:00,ZBYN 190200Z AUTO 28004KT 3SM 18/17 A2997 RMK T01800170 IEM_DS3505
ZBYN,1989-08-19 03:00,ZBYN 190300Z AUTO 00000KT 3SM 20/17 A2997 RMK SLP180 T01960169 57004 IEM_DS3505
ZBYN,1989-08-19 04:00,ZBYN 190400Z AUTO 10004KT 6SM 21/17 A2994 RMK T02100170 IEM_DS3505
ZBYN,1989-08-19 05:00,ZBYN 190500Z AUTO 24004KT 7SM 22/17 A2994 RMK T02200170 IEM_DS3505
ZBYN,1989-08-19 06:00,ZBYN 190600Z AUTO 20002KT 6SM 23/17 A2991 RMK 60002 SLP090 T02300170 4////0160 57022 IEM_DS3505
ZBYN,1989-08-19 07:00,ZBYN 190700Z AUTO 22006KT 7SM RMK IEM_DS3505
ZBYN,1989-08-19 08:00,ZBYN 190800Z AUTO 17008KT 7SM 22/18 A2985 RMK T02200180 IEM_DS3505
ZBYN,1989-08-19 09:00,ZBYN 190900Z AUTO 16006KT 12SM 19/15 A2985 RMK SLP080 T01930151 57015 IEM_DS3505
ZBYN,1989-08-19 10:00,ZBYN 191000Z AUTO 21004KT 7SM 19/14 A2985 RMK T01900140 IEM_DS3505
ZBYN,1989-08-19 11:00,ZBYN 191100Z AUTO 04006KT 7SM 17/15 A2988 RMK T01700150 IEM_DS3505
ZBYN,1989-08-19 12:00,ZBYN 191200Z AUTO 00000KT 12SM 16/15 A2988 RMK 60004 SLP100 T01590151 52014 IEM_DS3505
ZBYN,1989-08-19 13:00,ZBYN 191300Z AUTO 00000KT 7SM 15/15 A2988 RMK T01500150 IEM_DS3505
ZBYN,1989-08-19 15:00,ZBYN 191500Z AUTO 00000KT 7SM 15/15 A2991 RMK T01500150 IEM_DS3505
ZBYN,1989-08-19 16:00,ZBYN 191600Z AUTO 00000KT 4SM 15/15 A2994 RMK T01500150 IEM_DS3505
ZBYN,1989-08-19 18:00,ZBYN 191800Z AUTO 00000KT 4SM 14/13 A2994 RMK SLP106 T01370134 40233//// 57001 IEM_DS3505
ZBYN,1989-08-19 20:00,ZBYN 192000Z AUTO 00000KT 3SM 13/13 A2991 RMK T01300130 IEM_DS3505
ZBYN,1989-08-19 21:00,ZBYN 192100Z AUTO 00000KT 2SM 13/12 A2994 RMK SLP115 T01260124 52002 IEM_DS3505
ZBYN,1989-08-19 23:00,ZBYN 192300Z AUTO 00000KT 3/8SM 13/13 A2994 RMK T01300130 IEM_DS3505
ZBYN,1989-08-20 00:00,ZBYN 200000Z AUTO 34008KT 9SM 16/12 RMK SLP133 T01580117 52016 IEM_DS3505
ZBYN,1989-08-20 01:00,ZBYN 200100Z AUTO 36014KT 7SM 17/12 A3000 RMK T01700120 IEM_DS3505
ZBYN,1989-08-20 02:00,ZBYN 200200Z AUTO 36012KT 7SM RMK IEM_DS3505
ZBYN,1989-08-20 03:00,ZBYN 200300Z AUTO 36006KT 9SM 20/11 A3003 RMK SLP133 T02050111 52005 IEM_DS3505
ZBYN,1989-08-20 04:00,ZBYN 200400Z AUTO 01012KT 7SM 21/10 A3000 RMK T02100100 IEM_DS3505
ZBYN,1989-08-20 05:00,ZBYN 200500Z AUTO 01012KT 7SM 22/10 A3000 RMK T02200100 IEM_DS3505
ZBYN,1989-08-20 06:00,ZBYN 200600Z AUTO 34004KT 9SM 22/11 A2997 RMK SLP126 T02230108 4////0114 57005 IEM_DS3505
ZBYN,1989-08-20 07:00,ZBYN 200700Z AUTO 01010KT 7SM 22/10 A2997 RMK T02200100 IEM_DS3505
ZBYN,1989-08-20 08:00,ZBYN 200800Z AUTO 04010KT 7SM 22/11 A2997 RMK T02200110 IEM_DS3505
ZBYN,1989-08-20 09:00,ZBYN 200900Z AUTO 02004KT 16SM 22/10 A2997 RMK SLP126 T02180104 57002 IEM_DS3505
ZBYN,1989-08-20 10:00,ZBYN 201000Z AUTO 04012KT 7SM 21/08 A2997 RMK T02100080 IEM_DS3505
ZBYN,1989-08-20 11:00,ZBYN 201100Z AUTO 01006KT 7SM 19/10 A2997 RMK T01900100 IEM_DS3505
ZBYN,1989-08-20 12:00,ZBYN 201200Z AUTO 34004KT 12SM 19/09 A3000 RMK SLP143 T01860093 IEM_DS3505
ZBYN,1989-08-20 13:00,ZBYN 201300Z AUTO 31006KT 7SM 14/10 A3003 RMK T01400100 IEM_DS3505
ZBYN,1989-08-20 14:00,ZBYN 201400Z AUTO 00000KT 7SM 13/10 A3000 RMK T01300100 IEM_DS3505
ZBYN,1989-08-20 15:00,ZBYN 201500Z AUTO 00000KT 11SM 15/10 A3006 RMK SLP160 T01460098 52017 IEM_DS3505
ZBYN,1989-08-20 16:00,ZBYN 201600Z AUTO 01004KT 7SM 12/09 A3006 RMK T01200090 IEM_DS3505
ZBYN,1989-08-20 17:00,ZBYN 201700Z AUTO 03004KT 7SM 12/08 A3006 RMK T01200080 IEM_DS3505
ZBYN,1989-08-20 18:00,ZBYN 201800Z AUTO 00000KT 11SM 12/10 A3006 RMK SLP164 T01180097 40223//// 52002 IEM_DS3505
ZBYN,1989-08-20 19:00,ZBYN 201900Z AUTO 00000KT 7SM 10/08 A3009 RMK T01000080 IEM_DS3505
ZBYN,1989-08-20 21:00,ZBYN 202100Z AUTO 34006KT 7SM 08/08 A3006 RMK SLP165 T00800080 54000 IEM_DS3505
ZBYN,1989-08-20 22:00,ZBYN 202200Z AUTO 17004KT 7SM 09/08 A3009 RMK T00900080 IEM_DS3505
ZBYN,1989-08-20 23:00,ZBYN 202300Z AUTO 11004KT 7SM 11/08 A3009 RMK T01100080 IEM_DS3505
ZBYN,1989-08-21 00:00,ZBYN 210000Z AUTO 34002KT 4SM 14/10 A3009 RMK SLP177 T01430099 52010 IEM_DS3505
ZBYN,1989-08-21 01:00,ZBYN 210100Z AUTO 01004KT 7SM 17/10 A3012 RMK T01700100 IEM_DS3505
ZBYN,1989-08-21 02:00,ZBYN 210200Z AUTO 00000KT 7SM 19/08 A3012 RMK T01900080 IEM_DS3505
ZBYN,1989-08-21 03:00,ZBYN 210300Z AUTO 00000KT 12SM 20/08 A3009 RMK SLP170 T02000084 57004 IEM_DS3505
ZBYN,1989-08-21 04:00,ZBYN 210400Z AUTO 00000KT 7SM 21/08 A3009 RMK T02100080 IEM_DS3505
ZBYN,1989-08-21 05:00,ZBYN 210500Z AUTO 16004KT 7SM 23/09 A3006 RMK T02300090 IEM_DS3505
ZBYN,1989-08-21 06:00,ZBYN 210600Z AUTO 00000KT 12SM 23/09 A3006 RMK SLP151 T02280090 4////0102 57017 IEM_DS3505
ZBYN,1989-08-21 08:00,ZBYN 210800Z AUTO 00000KT 7SM 25/11 A3000 RMK T02500110 IEM_DS3505
ZBYN,1989-08-21 09:00,ZBYN 210900Z AUTO 14004KT 11SM 24/11 A3000 RMK SLP140 T02380109 57009 IEM_DS3505
ZBYN,1989-08-21 10:00,ZBYN 211000Z AUTO 00000KT 7SM 24/09 A3000 RMK T02400090 IEM_DS3505
ZBYN,1989-08-21 11:00,ZBYN 211100Z AUTO 12004KT 7SM 22/14 A3000 RMK T02200140 IEM_DS3505
ZBYN,1989-08-21 12:00,ZBYN 211200Z AUTO 11004KT 12SM 19/12 A3003 RMK SLP149 T01900123 52005 IEM_DS3505
ZBYN,1989-08-21 13:00,ZBYN 211300Z AUTO 08014KT 7SM 18/13 A3003 RMK T01800130 IEM_DS3505
ZBYN,1989-08-21 14:00,ZBYN 211400Z AUTO 09014KT 6SM 18/13 A3006 RMK T01800130 IEM_DS3505
ZBYN,1989-08-21 15:00,ZBYN 211500Z AUTO 00000KT 12SM 18/13 A3006 RMK SLP153 T01770133 52010 IEM_DS3505
ZBYN,1989-08-21 16:00,ZBYN 211600Z AUTO 07008KT 6SM 17/13 A3006 RMK T01700130 IEM_DS3505
ZBYN,1989-08-21 17:00,ZBYN 211700Z AUTO 07008KT 6SM 17/13 A3009 RMK T01700130 IEM_DS3505
ZBYN,1989-08-21 18:00,ZBYN 211800Z AUTO 00000KT 9SM 16/13 RMK SLP163 T01560126 40244//// 52010 IEM_DS3505
ZBYN,1989-08-21 19:00,ZBYN 211900Z AUTO 00000KT 6SM 17/13 A3009 RMK T01700130 IEM_DS3505
ZBYN,1989-08-21 20:00,ZBYN 212000Z AUTO 6SM 17/13 A3009 RMK T01700130 IEM_DS3505
ZBYN,1989-08-21 21:00,ZBYN 212100Z AUTO 36004KT 6SM 16/13 RMK SLP160 T01640128 54000 IEM_DS3505
ZBYN,1989-08-21 23:00,ZBYN 212300Z AUTO 00000KT 17/15 A3012 RMK T01700150 IEM_DS3505
ZBYN,1989-08-22 00:00,ZBYN 220000Z AUTO 32004KT 5SM 17/13 A3012 RMK SLP178 T01720131 52001 IEM_DS3505
ZBYN,1989-08-22 01:00,ZBYN 220100Z AUTO 14004KT 5SM 24/15 A3012 RMK SLP149 T02450146 4////0147 57021 IEM_DS3505
ZBYN,1989-08-22 02:00,ZBYN 220200Z AUTO 00000KT 6SM 21/13 A3012 RMK T02100130 IEM_DS3505
ZBYN,1989-08-22 03:00,ZBYN 220300Z AUTO 07017KT 5SM 22/14 RMK SLP173 T02180144 54000 IEM_DS3505
ZBYN,1989-08-22 04:00,ZBYN 220400Z AUTO 00000KT 6SM 23/15 A3012 RMK T02300150 IEM_DS3505
ZBYN,1989-08-22 05:00,ZBYN 220500Z AUTO 00000KT 6SM 24/15 A3009 RMK T02400150 IEM_DS3505
ZBYN,1989-08-22 06:00,ZBYN 220600Z AUTO 14004KT 5SM 24/15 RMK SLP149 T02450146 4////0147 57021 IEM_DS3505
ZBYN,1989-08-22 07:00,ZBYN 220700Z AUTO 13008KT 6SM 26/15 A3003 RMK T02600150 IEM_DS3505
ZBYN,1989-08-22 09:00,ZBYN 220900Z AUTO 00000KT 6SM 26/16 A3003 RMK SLP129 T02590160 57015 IEM_DS3505
ZBYN,1989-08-22 10:00,ZBYN 221000Z AUTO 25004KT 7SM 26/17 A3003 RMK T02600170 IEM_DS3505
ZBYN,1989-08-22 11:00,ZBYN 221100Z AUTO 13004KT 6SM 23/17 A3003 RMK T02300170 IEM_DS3505
ZBYN,1989-08-22 12:00,ZBYN 221200Z AUTO 07002KT 7SM 22/16 A3003 RMK SLP142 T02160162 52007 IEM_DS3505
ZBYN,1989-08-22 14:00,ZBYN 221400Z AUTO 08014KT 6SM 20/15 A3006 RMK T02000150 IEM_DS3505
ZBYN,1989-08-22 15:00,ZBYN 221500Z AUTO 00000KT 7SM 20/16 A3009 RMK SLP153 T02000163 52014 IEM_DS3505
ZBYN,1989-08-22 16:00,ZBYN 221600Z AUTO 10008KT 6SM 20/15 A3009 RMK T02000150 IEM_DS3505
ZBYN,1989-08-22 17:00,ZBYN 221700Z AUTO 09008KT 6SM 19/15 A3009 RMK T01900150 IEM_DS3505
ZBYN,1989-08-22 18:00,ZBYN 221800Z AUTO 00000KT 6SM 19/17 A3009 RMK SLP151 T01860168 40259//// 54000 IEM_DS3505
ZBYN,1989-08-22 21:00,ZBYN 222100Z AUTO 00000KT 4SM 17/16 A3006 RMK SLP149 T01680157 57002 IEM_DS3505
ZBYN,1989-08-22 22:00,ZBYN 222200Z AUTO 09006KT 7SM 19/15 A3009 RMK T01900150 IEM_DS3505
ZBYN,1989-08-22 23:00,ZBYN 222300Z AUTO 11004KT 6SM 16/15 A3009 RMK T01600150 IEM_DS3505
ZBYN,1989-08-23 00:00,ZBYN 230000Z AUTO 00000KT 5SM 17/15 RMK SLP159 T01740154 52004 IEM_DS3505
ZBYN,1989-08-23 01:00,ZBYN 230100Z AUTO 12004KT 6SM 19/15 A3009 RMK T01900150 IEM_DS3505
ZBYN,1989-08-23 02:00,ZBYN 230200Z AUTO 12006KT 6SM 20/15 A3009 RMK T02000150 IEM_DS3505
ZBYN,1989-08-23 03:00,ZBYN 230300Z AUTO 09004KT 6SM 21/15 A3009 RMK SLP153 T02110147 57003 IEM_DS3505
ZBYN,1989-08-23 04:00,ZBYN 230400Z AUTO 07006KT 6SM 22/15 A3006 RMK T02200150 IEM_DS3505
ZBYN,1989-08-23 05:00,ZBYN 230500Z AUTO 07008KT 6SM 22/15 A3003 RMK T02200150 IEM_DS3505
ZBYN,1989-08-23 06:00,ZBYN 230600Z AUTO 16004KT 5SM 22/16 A3003 RMK SLP135 T02240160 4////0150 57016 IEM_DS3505
ZBYN,1989-08-23 07:00,ZBYN 230700Z AUTO 09006KT 6SM 24/15 A3000 RMK T02400150 IEM_DS3505
ZBYN,1989-08-23 08:00,ZBYN 230800Z AUTO 03004KT 6SM 25/16 A3000 RMK T02500160 IEM_DS3505
ZBYN,1989-08-23 09:00,ZBYN 230900Z AUTO 16006KT 6SM 24/15 A3000 RMK SLP124 T02370154 57011 IEM_DS3505
ZBYN,1989-08-23 10:00,ZBYN 231000Z AUTO 08010KT 6SM 22/14 A3000 RMK T02200140 IEM_DS3505
ZBYN,1989-08-23 12:00,ZBYN 231200Z AUTO 11008KT 5SM 20/15 RMK SLP131 T02010149 52002 IEM_DS3505
ZBYN,1989-08-23 13:00,ZBYN 231300Z AUTO 09008KT 6SM 20/15 A3003 RMK T02000150 IEM_DS3505
ZBYN,1989-08-23 14:00,ZBYN 231400Z AUTO 09012KT 6SM 19/15 A3003 RMK T01900150 IEM_DS3505
ZBYN,1989-08-23 15:00,ZBYN 231500Z AUTO 00000KT 6SM 17/16 A3003 RMK SLP137 T01740156 52007 IEM_DS3505
ZBYN,1989-08-23 18:00,ZBYN 231800Z AUTO 00000KT 4SM 17/16 A3003 RMK SLP130 T01740163 40246//// 57003 IEM_DS3505
ZBYN,1989-08-23 19:00,ZBYN 231900Z AUTO 11006KT 6SM 18/15 A3000 RMK T01800150 IEM_DS3505
ZBYN,1989-08-23 20:00,ZBYN 232000Z AUTO 12004KT 6SM 18/15 A3000 RMK T01800150 IEM_DS3505
ZBYN,1989-08-23 21:00,ZBYN 232100Z AUTO 00000KT 4SM 16/16 A3000 RMK SLP124 T01630156 57007 IEM_DS3505
ZBYN,1989-08-23 22:00,ZBYN 232200Z AUTO 09006KT 5SM 17/15 A3000 RMK T01700150 IEM_DS3505
ZBYN,1989-08-23 23:00,ZBYN 232300Z AUTO 10004KT 5SM 17/15 A3000 RMK T01700150 IEM_DS3505
ZBYN,1989-08-24 00:00,ZBYN 240000Z AUTO 00000KT 4SM 18/16 A3000 RMK SLP138 T01780157 52010 IEM_DS3505
ZBYN,1989-08-24 01:00,ZBYN 240100Z AUTO 13006KT 6SM 19/15 A3000 RMK T01900150 IEM_DS3505
ZBYN,1989-08-24 03:00,ZBYN 240300Z AUTO 00000KT 4SM 21/16 A3000 RMK SLP134 T02130157 57003 IEM_DS3505
ZBYN,1989-08-24 04:00,ZBYN 240400Z AUTO 18004KT 7SM 23/15 A3000 RMK T02300150 IEM_DS3505
ZBYN,1989-08-24 05:00,ZBYN 240500Z AUTO 15008KT 7SM 24/15 RMK T02400150 IEM_DS3505
ZBYN,1989-08-24 06:00,ZBYN 240600Z AUTO 16006KT 5SM 24/16 A2997 RMK SLP109 T02440164 4////0160 57018 IEM_DS3505
ZBYN,1989-08-24 07:00,ZBYN 240700Z AUTO 18006KT 7SM 25/16 A2994 RMK T02500160 IEM_DS3505
ZBYN,1989-08-24 09:00,ZBYN 240900Z AUTO 20004KT 6SM 25/17 RMK SLP094 T02460170 57015 IEM_DS3505
ZBYN,1989-08-24 10:00,ZBYN 241000Z AUTO 00000KT 7SM 25/16 A2991 RMK T02500160 IEM_DS3505
ZBYN,1989-08-24 11:00,ZBYN 241100Z AUTO 33004KT 7SM 23/19 A2991 RMK T02300190 IEM_DS3505
ZBYN,1989-08-24 12:00,ZBYN 241200Z AUTO 34004KT 6SM 22/17 A2991 RMK SLP103 T02160170 52006 IEM_DS3505
ZBYN,1989-08-24 13:00,ZBYN 241300Z AUTO 08010KT 7SM 21/16 A2994 RMK T02100160 IEM_DS3505
ZBYN,1989-08-24 14:00,ZBYN 241400Z AUTO 05006KT 7SM 20/15 A2997 RMK T02000150 IEM_DS3505
ZBYN,1989-08-24 15:00,ZBYN 241500Z AUTO 00000KT 6SM 19/17 A2997 RMK SLP124 T01940170 52021 IEM_DS3505
ZBYN,1989-08-24 16:00,ZBYN 241600Z AUTO 05004KT 7SM 18/16 A3000 RMK T01800160 IEM_DS3505
ZBYN,1989-08-24 18:00,ZBYN 241800Z AUTO 00000KT 6SM 18/16 A3000 RMK SLP120 T01790163 40253//// 57001 IEM_DS3505
ZBYN,1989-08-24 20:00,ZBYN 242000Z AUTO 00000KT 1SM 15/15 A2997 RMK T01500150 IEM_DS3505
ZBYN,1989-08-24 21:00,ZBYN 242100Z AUTO 00000KT 4SM 16/14 A2997 RMK SLP115 T01590140 57007 IEM_DS3505
ZBYN,1989-08-24 22:00,ZBYN 242200Z AUTO 00000KT 1 1/4SM 15/15 A2997 RMK T01500150 IEM_DS3505
ZBYN,1989-08-24 23:00,ZBYN 242300Z AUTO 00000KT 1 1/2SM 16/16 A2997 RMK T01600160 IEM_DS3505
ZBYN,1989-08-25 00:00,ZBYN 250000Z AUTO 00000KT 1/2SM 17/16 A3000 RMK SLP125 T01740164 52007 IEM_DS3505
ZBYN,1989-08-25 02:00,ZBYN 250200Z AUTO 00000KT 2 1/2SM 22/17 A3000 RMK T02200170 IEM_DS3505
ZBYN,1989-08-25 03:00,ZBYN 250300Z AUTO 00000KT 2SM 24/17 A3000 RMK SLP118 T02390174 57001 IEM_DS3505
ZBYN,1989-08-25 06:00,ZBYN 250600Z AUTO 16002KT 5SM 27/17 A2994 RMK SLP096 T02700173 4////0151 57013 IEM_DS3505
ZBYN,1989-08-25 07:00,ZBYN 250700Z AUTO 07006KT 6SM 28/14 A2991 RMK T02800140 IEM_DS3505
ZBYN,1989-08-25 08:00,ZBYN 250800Z AUTO 15006KT 6SM 29/15 A2991 RMK T02900150 IEM_DS3505
ZBYN,1989-08-25 09:00,ZBYN 250900Z AUTO 00000KT 6SM 28/16 A2991 RMK SLP084 T02760162 57013 IEM_DS3505
ZBYN,1989-08-25 10:00,ZBYN 251000Z AUTO 00000KT 6SM 27/17 A2988 RMK T02700170 IEM_DS3505
ZBYN,1989-08-25 11:00,ZBYN 251100Z AUTO 00000KT 5SM 24/18 A2988 RMK SLP096 T02400180 52005 IEM_DS3505
ZBYN,1989-08-25 12:00,ZBYN 251200Z AUTO 00000KT 5SM 22/20 A2991 RMK SLP096 T02180195 52005 IEM_DS3505
ZBYN,1989-08-25 13:00,ZBYN 251300Z AUTO 08006KT 6SM 22/16 A2991 RMK T02200160 IEM_DS3505
ZBYN,1989-08-25 14:00,ZBYN 251400Z AUTO 09006KT 6SM 22/14 A2991 RMK T02200140 IEM_DS3505
ZBYN,1989-08-25 15:00,ZBYN 251500Z AUTO 36002KT 6SM 21/14 A2994 RMK SLP096 T02130138 52009 IEM_DS3505
ZBYN,1989-08-25 16:00,ZBYN 251600Z AUTO 26004KT 6SM 20/10 A2994 RMK T02000100 IEM_DS3505
ZBYN,1989-08-25 18:00,ZBYN 251800Z AUTO 00000KT 6SM 18/16 A2994 RMK SLP096 T01850156 40280//// 54000 IEM_DS3505
ZBYN,1989-08-25 19:00,ZBYN 251900Z AUTO 00000KT 6SM 18/17 A2991 RMK T01800170 IEM_DS3505
ZBYN,1989-08-25 20:00,ZBYN 252000Z AUTO 29004KT 4SM 17/16 A2991 RMK T01700160 IEM_DS3505
ZBYN,1989-08-25 21:00,ZBYN 252100Z AUTO 00000KT 6SM 18/15 A2991 RMK SLP092 T01800149 57003 IEM_DS3505
ZBYN,1989-08-25 23:00,ZBYN 252300Z AUTO 00000KT 3SM 17/16 A2994 RMK T01700160 IEM_DS3505
ZBYN,1989-08-26 00:00,ZBYN 260000Z AUTO 00000KT 2 1/2SM 19/16 A2994 RMK SLP103 T01870161 52003 IEM_DS3505
ZBYN,1989-08-26 01:00,ZBYN 260100Z AUTO 25006KT 1 1/4SM 21/18 A2997 RMK T02100180 IEM_DS3505
ZBYN,1989-08-26 02:00,ZBYN 260200Z AUTO 00000KT 4SM 23/18 A2994 RMK T02300180 IEM_DS3505
ZBYN,1989-08-26 03:00,ZBYN 260300Z AUTO 00000KT 4SM 24/16 A2994 RMK SLP098 T02360165 52001 IEM_DS3505
ZBYN,1989-08-26 04:00,ZBYN 260400Z AUTO 00000KT 5SM 25/18 A2991 RMK T02500180 IEM_DS3505
ZBYN,1989-08-26 05:00,ZBYN 260500Z AUTO 00000KT 6SM 26/17 A2991 RMK T02600170 IEM_DS3505
ZBYN,1989-08-26 06:00,ZBYN 260600Z AUTO 22004KT 5SM 27/18 A2988 RMK SLP078 T02700179 4////0170 57017 IEM_DS3505
ZBYN,1989-08-26 07:00,ZBYN 260700Z AUTO 20010KT 7SM 28/17 A2988 RMK T02800170 IEM_DS3505
ZBYN,1989-08-26 08:00,ZBYN 260800Z AUTO 23008KT 7SM 28/17 A2985 RMK T02800170 IEM_DS3505
ZBYN,1989-08-26 09:00,ZBYN 260900Z AUTO 00000KT 6SM 28/16 A2985 RMK SLP064 T02750165 57013 IEM_DS3505
ZBYN,1989-08-26 10:00,ZBYN 261000Z AUTO 21006KT 6SM 27/18 A2985 RMK T02700180 IEM_DS3505
ZBYN,1989-08-26 11:00,ZBYN 261100Z AUTO 21004KT 5SM 25/19 A2985 RMK T02500190 IEM_DS3505
ZBYN,1989-08-26 12:00,ZBYN 261200Z AUTO 00000KT 6SM 22/18 A2985 RMK SLP075 T02160181 52003 IEM_DS3505
ZBYN,1989-08-26 13:00,ZBYN 261300Z AUTO 12008KT 6SM 21/18 A2985 RMK T02100180 IEM_DS3505
ZBYN,1989-08-26 14:00,ZBYN 261400Z AUTO 6SM 20/17 A2988 RMK T02000170 IEM_DS3505
ZBYN,1989-08-26 15:00,ZBYN 261500Z AUTO 12006KT 6SM 20/17 A2991 RMK T02000170 IEM_DS3505
ZBYN,1989-08-26 18:00,ZBYN 261800Z AUTO 00000KT 4SM 16/16 RMK SLP091 T01630160 40279//// 52003 IEM_DS3505
ZBYN,1989-08-26 21:00,ZBYN 262100Z AUTO 00000KT 2 1/2SM 15/15 RMK SLP085 T01500148 57007 IEM_DS3505
ZBYN,1989-08-26 23:00,ZBYN 262300Z AUTO 00000KT 2 1/2SM 15/14 A2991 RMK T01500140 IEM_DS3505
ZBYN,1989-08-27 00:00,ZBYN 270000Z AUTO 34002KT 3SM 17/15 A2991 RMK SLP100 T01710148 52008 IEM_DS3505
ZBYN,1989-08-27 01:00,ZBYN 270100Z AUTO 00000KT 4SM 20/16 A2991 RMK T02000160 IEM_DS3505
ZBYN,1989-08-27 02:00,ZBYN 270200Z AUTO 00000KT 5SM 23/17 A2991 RMK T02300170 IEM_DS3505
ZBYN,1989-08-27 03:00,ZBYN 270300Z AUTO 00000KT 6SM 24/17 A2988 RMK SLP084 T02370172 57009 IEM_DS3505
ZBYN,1989-08-27 04:00,ZBYN 270400Z AUTO 17002KT 6SM 26/16 A2988 RMK T02600160 IEM_DS3505
ZBYN,1989-08-27 05:00,ZBYN 270500Z AUTO 00000KT 6SM 27/17 A2985 RMK T02700170 IEM_DS3505
ZBYN,1989-08-27 06:00,ZBYN 270600Z AUTO 18002KT 6SM 28/17 A2985 RMK SLP062 T02790172 4////0136 57019 IEM_DS3505
ZBYN,1989-08-27 07:00,ZBYN 270700Z AUTO 18004KT 6SM 29/14 A2983 RMK T02900140 IEM_DS3505
ZBYN,1989-08-27 07:39,ZBYN 270739Z AUTO 18004KT 6SM 29/14 A2983 RMK T02900140 IEM_DS3505
ZBYN,1989-08-27 08:00,ZBYN 270800Z AUTO 19004KT 6SM 30/15 A2980 RMK T03000150 IEM_DS3505
ZBYN,1989-08-27 09:00,ZBYN 270900Z AUTO 16SM 28/14 RMK SLP046 T02800141 57015 IEM_DS3505
ZBYN,1989-08-27 10:00,ZBYN 271000Z AUTO 00000KT 6SM 28/16 A2977 RMK T02800160 IEM_DS3505
ZBYN,1989-08-27 11:00,ZBYN 271100Z AUTO 00000KT 6SM 24/19 A2977 RMK T02400190 IEM_DS3505
ZBYN,1989-08-27 12:00,ZBYN 271200Z AUTO 00000KT 11SM 21/19 A2980 RMK SLP057 T02110190 52002 IEM_DS3505
ZBYN,1989-08-27 13:00,ZBYN 271300Z AUTO 11004KT 6SM 20/16 A2983 RMK T02000160 IEM_DS3505
ZBYN,1989-08-27 14:00,ZBYN 271400Z AUTO 10004KT 6SM 18/15 A2983 RMK T01800150 IEM_DS3505
ZBYN,1989-08-27 15:00,ZBYN 271500Z AUTO 00000KT 11SM 18/16 A2983 RMK SLP065 T01760158 52012 IEM_DS3505
ZBYN,1989-08-27 18:00,ZBYN 271800Z AUTO 00000KT 9SM 15/15 RMK SLP063 T01540146 40298//// 52001 IEM_DS3505
ZBYN,1989-08-27 20:00,ZBYN 272000Z AUTO 00000KT 6SM 14/13 A2983 RMK T01400130 IEM_DS3505
ZBYN,1989-08-27 21:00,ZBYN 272100Z AUTO 00000KT 5SM 14/14 RMK SLP061 T01430138 57002 IEM_DS3505
ZBYN,1989-08-27 22:00,ZBYN 272200Z AUTO 00000KT 2 1/2SM 13/13 A2983 RMK T01300130 IEM_DS3505
ZBYN,1989-08-27 23:00,ZBYN 272300Z AUTO 00000KT 4SM 15/14 A2983 RMK T01500140 IEM_DS3505
ZBYN,1989-08-28 00:00,ZBYN 280000Z AUTO 00000KT 2 1/2SM 18/15 A2985 RMK SLP076 T01820154 52008 IEM_DS3505
ZBYN,1989-08-28 01:00,ZBYN 280100Z AUTO 00000KT 6SM 20/16 A2985 RMK T02000160 IEM_DS3505
ZBYN,1989-08-28 02:00,ZBYN 280200Z AUTO 00000KT 6SM 23/15 A2985 RMK T02300150 IEM_DS3505
ZBYN,1989-08-28 03:00,ZBYN 280300Z AUTO 00000KT 6SM 24/14 A2983 RMK SLP065 T02440138 57006 IEM_DS3505
ZBYN,1989-08-28 04:00,ZBYN 280400Z AUTO 12004KT 6SM 25/14 A2980 RMK T02500140 IEM_DS3505
ZBYN,1989-08-28 05:00,ZBYN 280500Z AUTO 00000KT 6SM 27/15 A2980 RMK T02700150 IEM_DS3505
ZBYN,1989-08-28 06:00,ZBYN 280600Z AUTO 00000KT 6SM 27/15 A2977 RMK SLP046 T02680153 4////0139 57017 IEM_DS3505
ZBYN,1989-08-28 07:00,ZBYN 280700Z AUTO 18002KT 6SM 27/15 A2977 RMK T02700150 IEM_DS3505
ZBYN,1989-08-28 09:00,ZBYN 280900Z AUTO 00000KT 6SM 27/18 A2974 RMK SLP029 T02700184 57017 IEM_DS3505
ZBYN,1989-08-28 10:00,ZBYN 281000Z AUTO 00000KT 6SM 26/20 A2974 RMK T02600200 IEM_DS3505
ZBYN,1989-08-28 11:00,ZBYN 281100Z AUTO 00000KT 6SM 23/20 A2974 RMK T02300200 IEM_DS3505
ZBYN,1989-08-28 12:00,ZBYN 281200Z AUTO 00000KT 6SM 21/19 A2974 RMK SLP037 T02090191 52004 IEM_DS3505
ZBYN,1989-08-28 13:00,ZBYN 281300Z AUTO 00000KT 6SM 21/17 RMK T02100170 IEM_DS3505
ZBYN,1989-08-28 14:00,ZBYN 281400Z AUTO 12002KT 6SM 20/17 A2977 RMK T02000170 IEM_DS3505
ZBYN,1989-08-28 15:00,ZBYN 281500Z AUTO 00000KT 7SM 18/16 A2977 RMK SLP043 T01780162 52010 IEM_DS3505
ZBYN,1989-08-28 18:00,ZBYN 281800Z AUTO 00000KT 7SM 16/15 RMK SLP045 T01640151 40275//// 52003 IEM_DS3505
ZBYN,1989-08-28 21:00,ZBYN 282100Z AUTO 00000KT 4SM 16/15 RMK SLP052 T01630153 52007 IEM_DS3505
ZBYN,1989-08-28 22:00,ZBYN 282200Z AUTO 00000KT 1 1/4SM 16/15 A2980 RMK T01600150 IEM_DS3505
ZBYN,1989-08-28 23:00,ZBYN 282300Z AUTO 10004KT 2 1/2SM 18/17 A2983 RMK T01800170 IEM_DS3505
ZBYN,1989-08-29 00:00,ZBYN 290000Z AUTO 00000KT 4SM 20/16 A2983 RMK SLP067 T01970163 52010 IEM_DS3505
ZBYN,1989-08-29 01:00,ZBYN 290100Z AUTO 08008KT 6SM 21/15 A2983 RMK T02100150 IEM_DS3505
ZBYN,1989-08-29 02:00,ZBYN 290200Z AUTO 06008KT 6SM 22/16 A2983 RMK T02200160 IEM_DS3505
ZBYN,1989-08-29 03:00,ZBYN 290300Z AUTO 32004KT 6SM 24/16 A2983 RMK SLP068 T02420165 52002 IEM_DS3505
ZBYN,1989-08-29 04:00,ZBYN 290400Z AUTO 13004KT 7SM 25/16 A2983 RMK T02500160 IEM_DS3505
ZBYN,1989-08-29 05:00,ZBYN 290500Z AUTO 15004KT 7SM 27/16 A2980 RMK T02700160 IEM_DS3505
ZBYN,1989-08-29 06:00,ZBYN 290600Z AUTO 18002KT 6SM 28/16 A2980 RMK SLP049 T02750163 4////0154 57014 IEM_DS3505
ZBYN,1989-08-29 07:00,ZBYN 290700Z AUTO 22006KT 7SM 28/17 A2977 RMK T02800170 IEM_DS3505
ZBYN,1989-08-29 08:00,ZBYN 290800Z AUTO 25004KT 6SM 29/16 A2977 RMK T02900160 IEM_DS3505
ZBYN,1989-08-29 09:00,ZBYN 290900Z AUTO 20004KT 7SM 28/16 A2977 RMK SLP036 T02750156 57012 IEM_DS3505
ZBYN,1989-08-29 10:00,ZBYN 291000Z AUTO 21004KT 6SM 27/15 RMK T02700150 IEM_DS3505
ZBYN,1989-08-29 11:00,ZBYN 291100Z AUTO 00000KT 6SM 24/18 A2977 RMK T02400180 IEM_DS3505
ZBYN,1989-08-29 12:00,ZBYN 291200Z AUTO 00000KT 6SM 21/18 A2980 RMK SLP053 T02070176 52011 IEM_DS3505
ZBYN,1989-08-29 14:00,ZBYN 291400Z AUTO 09008KT 6SM 21/15 A2983 RMK T02100150 IEM_DS3505
ZBYN,1989-08-29 15:00,ZBYN 291500Z AUTO 32002KT 6SM 19/18 A2983 RMK SLP064 T01940175 52014 IEM_DS3505
ZBYN,1989-08-29 16:00,ZBYN 291600Z AUTO 00000KT 6SM 21/18 A2985 RMK T02100180 IEM_DS3505
ZBYN,1989-08-29 17:00,ZBYN 291700Z AUTO 09004KT 6SM 21/18 A2985 RMK T02100180 IEM_DS3505
ZBYN,1989-08-29 18:00,ZBYN 291800Z AUTO 00000KT 6SM 19/18 RMK SLP065 T01860175 40280//// 52005 IEM_DS3505
ZBYN,1989-08-29 19:00,ZBYN 291900Z AUTO 00000KT 6SM 20/18 A2985 RMK T02000180 IEM_DS3505
ZBYN,1989-08-29 20:00,ZBYN 292000Z AUTO 00000KT 6SM 19/18 A2985 RMK SLP065 T01860175 52005 IEM_DS3505
ZBYN,1989-08-29 21:00,ZBYN 292100Z AUTO 00000KT 6SM 18/17 A2985 RMK SLP067 T01780173 54000 IEM_DS3505
ZBYN,1989-08-29 22:00,ZBYN 292200Z AUTO 00000KT 4SM 18/17 A2985 RMK T01800170 IEM_DS3505
ZBYN,1989-08-29 23:00,ZBYN 292300Z AUTO 00000KT 5SM 19/17 A2985 RMK T01900170 IEM_DS3505
ZBYN,1989-08-30 00:00,ZBYN 300000Z AUTO 00000KT 6SM 20/18 RMK SLP085 T02010178 52011 IEM_DS3505
ZBYN,1989-08-30 01:00,ZBYN 300100Z AUTO 00000KT 5SM 22/18 A2988 RMK T02200180 IEM_DS3505
ZBYN,1989-08-30 02:00,ZBYN 300200Z AUTO 15004KT 6SM 24/18 A2988 RMK T02400180 IEM_DS3505
ZBYN,1989-08-30 03:00,ZBYN 300300Z AUTO 18002KT 6SM 25/19 A2988 RMK SLP074 T02520194 57005 IEM_DS3505
ZBYN,1989-08-30 04:00,ZBYN 300400Z AUTO 00000KT 6SM 27/18 A2985 RMK T02700180 IEM_DS3505
ZBYN,1989-08-30 05:00,ZBYN 300500Z AUTO 24002KT 6SM 29/18 A2985 RMK T02900180 IEM_DS3505
ZBYN,1989-08-30 06:00,ZBYN 300600Z AUTO 20006KT 5SM 28/18 A2983 RMK SLP052 T02790177 4////0167 57018 IEM_DS3505
ZBYN,1989-08-30 07:00,ZBYN 300700Z AUTO 20004KT 7SM 29/17 A2980 RMK T02900170 IEM_DS3505
ZBYN,1989-08-30 08:00,ZBYN 300800Z AUTO 27006KT 7SM 28/19 A2980 RMK T02800190 IEM_DS3505
ZBYN,1989-08-30 09:00,ZBYN 300900Z AUTO 34006KT 6SM 24/16 A2980 RMK SLP059 T02440160 52001 IEM_DS3505
ZBYN,1989-08-30 10:00,ZBYN 301000Z AUTO 32016KT 7SM 24/13 A2983 RMK T02400130 IEM_DS3505
ZBYN,1989-08-30 11:00,ZBYN 301100Z AUTO 35006KT 7SM 23/14 A2983 RMK T02300140 IEM_DS3505
ZBYN,1989-08-30 12:00,ZBYN 301200Z AUTO 34002KT 7SM 21/15 A2985 RMK SLP076 T02140151 52014 IEM_DS3505
ZBYN,1989-08-30 14:00,ZBYN 301400Z AUTO 01004KT 6SM 20/16 A2988 RMK T02000160 IEM_DS3505
ZBYN,1989-08-30 15:00,ZBYN 301500Z AUTO 00000KT 6SM 21/16 RMK SLP080 T02060163 52010 IEM_DS3505
ZBYN,1989-08-30 16:00,ZBYN 301600Z AUTO 00000KT 6SM 20/17 A2988 RMK T02000170 IEM_DS3505
ZBYN,1989-08-30 18:00,ZBYN 301800Z AUTO 00000KT 6SM 18/17 A2988 RMK SLP078 T01800168 4////1029 57001 IEM_DS3505
ZBYN,1989-08-30 19:00,ZBYN 301900Z AUTO 00000KT 6SM 19/17 A2988 RMK T01900170 IEM_DS3505
ZBYN,1989-08-30 20:00,ZBYN 302000Z AUTO 00000KT 6SM 18/16 A2988 RMK T01800160 IEM_DS3505
ZBYN,1989-08-30 21:00,ZBYN 302100Z AUTO 00000KT 5SM 18/17 RMK SLP077 T01820171 57006 IEM_DS3505
ZBYN,1989-08-30 22:00,ZBYN 302200Z AUTO 00000KT 4SM 18/16 A2988 RMK T01800160 IEM_DS3505
ZBYN,1989-08-30 23:00,ZBYN 302300Z AUTO 00000KT 4SM 18/16 A2988 RMK T01800160 IEM_DS3505
ZBYN,1989-08-31 00:00,ZBYN 310000Z AUTO 00000KT 5SM 19/17 A2988 RMK SLP091 T01930174 52010 IEM_DS3505
ZBYN,1989-08-31 01:00,ZBYN 310100Z AUTO 00000KT 5SM 21/17 A2991 RMK T02100170 IEM_DS3505
ZBYN,1989-08-31 02:00,ZBYN 310200Z AUTO 00000KT 3SM 24/18 A2988 RMK T02400180 IEM_DS3505
ZBYN,1989-08-31 03:00,ZBYN 310300Z AUTO 34004KT 5SM 25/16 A2988 RMK SLP084 T02520159 52001 IEM_DS3505
ZBYN,1989-08-31 04:00,ZBYN 310400Z AUTO 00000KT 7SM 27/16 A2988 RMK T02700160 IEM_DS3505
ZBYN,1989-08-31 05:00,ZBYN 310500Z AUTO 19004KT 7SM 29/16 A2985 RMK T02900160 IEM_DS3505
ZBYN,1989-08-31 06:00,ZBYN 310600Z AUTO 22006KT 5SM 27/17 RMK SLP059 T02700168 4////0116 57023 IEM_DS3505
ZBYN,1989-08-31 07:00,ZBYN 310700Z AUTO 23008KT 7SM 26/18 A2983 RMK T02600180 IEM_DS3505
ZBYN,1989-08-31 08:00,ZBYN 310800Z AUTO 32016KT 7SM 21/14 A2985 RMK T02100140 IEM_DS3505
ZBYN,1989-08-31 09:00,ZBYN 310900Z AUTO 00000KT 7SM 21/19 A2985 RMK SLP074 T02080188 52004 IEM_DS3505
ZBYN,1989-08-31 10:00,ZBYN 311000Z AUTO 00000KT 6SM 22/19 A2985 RMK T02200190 IEM_DS3505
ZBYN,1989-08-31 11:00,ZBYN 311100Z AUTO 00000KT 6SM 22/20 A2985 RMK T02200200 IEM_DS3505
ZBYN,1989-08-31 12:00,ZBYN 311200Z AUTO 09002KT 7SM 21/19 A2985 RMK 60024 SLP081 T02100192 52008 IEM_DS3505
ZBYN,1989-08-31 13:00,ZBYN 311300Z AUTO 00000KT 6SM 21/19 A2988 RMK T02100190 IEM_DS3505
ZBYN,1989-08-31 14:00,ZBYN 311400Z AUTO 00000KT 6SM 20/19 A2988 RMK T02000190 IEM_DS3505
ZBYN,1989-08-31 15:00,ZBYN 311500Z AUTO 00000KT 7SM 20/19 A2991 RMK SLP087 T02010189 52013 IEM_DS3505
ZBYN,1989-08-31 16:00,ZBYN 311600Z AUTO 4SM 19/19 A2991 RMK T01900190 IEM_DS3505
ZBYN,1989-08-31 18:00,ZBYN 311800Z AUTO 36004KT 7SM 18/14 RMK SLP087 T01760135 40290//// 57001 IEM_DS3505
ZBYN,1989-08-31 20:00,ZBYN 312000Z AUTO 34006KT 4SM 14/12 A2991 RMK T01400120 IEM_DS3505
ZBYN,1989-08-31 21:00,ZBYN 312100Z AUTO 34004KT 7SM 15/09 A2994 RMK SLP108 T01480094 52006 IEM_DS3505
ZBYN,1989-08-31 23:00,ZBYN 312300Z AUTO 00000KT 7SM 14/10 A2997 RMK T01400100 IEM_DS3505
ZBYN,1989-09-01 00:00,ZBYN 010000Z AUTO 36006KT 11SM 17/09 A2997 RMK SLP123 T01690094 52017 IEM_DS3505
ZBYN,1989-09-01 01:00,ZBYN 010100Z AUTO 34012KT 7SM 20/08 A2997 RMK T02000080 IEM_DS3505
ZBYN,1989-09-01 02:00,ZBYN 010200Z AUTO 33012KT 7SM 23/07 A2997 RMK T02300070 IEM_DS3505
ZBYN,1989-09-01 03:00,ZBYN 010300Z AUTO 34006KT 12SM 23/08 A2997 RMK SLP112 T02310078 57002 IEM_DS3505
ZBYN,1989-09-01 04:00,ZBYN 010400Z AUTO 35010KT 6SM 25/07 A2997 RMK T02500070 IEM_DS3505
ZBYN,1989-09-01 05:00,ZBYN 010500Z AUTO 33010KT 6SM 26/06 A2994 RMK T02600060 IEM_DS3505
ZBYN,1989-09-01 06:00,ZBYN 010600Z AUTO 32004KT 11SM 25/09 A2991 RMK SLP096 T02530093 4////0140 57015 IEM_DS3505
ZBYN,1989-09-01 07:00,ZBYN 010700Z AUTO 35008KT 6SM 26/09 A2991 RMK T02600090 IEM_DS3505
ZBYN,1989-09-01 08:00,ZBYN 010800Z AUTO 01012KT 6SM 26/08 A2991 RMK T02600080 IEM_DS3505
ZBYN,1989-09-01 09:00,ZBYN 010900Z AUTO 02004KT 12SM 23/09 A2991 RMK SLP103 T02340087 57001 IEM_DS3505
ZBYN,1989-09-01 10:00,ZBYN 011000Z AUTO 33006KT 6SM 22/07 A2991 RMK T02200070 IEM_DS3505
ZBYN,1989-09-01 11:00,ZBYN 011100Z AUTO 32008KT 6SM 20/09 A2991 RMK T02000090 IEM_DS3505
ZBYN,1989-09-01 12:00,ZBYN 011200Z AUTO 34002KT 7SM 18/14 A2994 RMK SLP117 T01790135 52008 IEM_DS3505
ZBYN,1989-09-01 13:00,ZBYN 011300Z AUTO 33004KT 6SM 16/13 A2997 RMK T01600130 IEM_DS3505
ZBYN,1989-09-01 14:00,ZBYN 011400Z AUTO 10006KT 6SM 17/09 A2997 RMK T01700090 IEM_DS3505
ZBYN,1989-09-01 16:00,ZBYN 011600Z AUTO 33008KT 6SM 14/10 A3000 RMK T01400100 IEM_DS3505
ZBYN,1989-09-01 18:00,ZBYN 011800Z AUTO 14004KT 11SM 15/10 RMK SLP135 T01520099 52012 IEM_DS3505
ZBYN,1989-09-01 21:00,ZBYN 012100Z AUTO 00000KT 11SM 12/10 A3003 RMK SLP149 T01220096 52006 IEM_DS3505
ZBYN,1989-09-01 22:00,ZBYN 012200Z AUTO 31006KT 7SM 10/08 A3003 RMK T01000080 IEM_DS3505
ZBYN,1989-09-01 23:00,ZBYN 012300Z AUTO 00000KT 7SM 12/09 A3006 RMK T01200090 IEM_DS3505
ZBYN,1989-09-02 00:00,ZBYN 020000Z AUTO 32006KT 12SM 16/10 A3006 RMK SLP158 T01650095 52006 IEM_DS3505
ZBYN,1989-09-02 02:00,ZBYN 020200Z AUTO 34012KT 7SM 22/ RMK IEM_DS3505
ZBYN,1989-09-02 03:00,ZBYN 020300Z AUTO 02004KT 11SM 22/10 A3006 RMK SLP149 T02220096 57001 IEM_DS3505
ZBYN,1989-09-02 04:00,ZBYN 020400Z AUTO 35004KT 7SM 24/09 A3006 RMK T02400090 IEM_DS3505
ZBYN,1989-09-02 05:00,ZBYN 020500Z AUTO 11004KT 7SM 24/08 A3003 RMK T02400080 IEM_DS3505
ZBYN,1989-09-02 06:00,ZBYN 020600Z AUTO 29006KT 12SM 25/09 A3000 RMK SLP130 T02490087 4////0111 57016 IEM_DS3505
ZBYN,1989-09-02 07:00,ZBYN 020700Z AUTO 11004KT 7SM 25/09 A3000 RMK T02500090 IEM_DS3505
ZBYN,1989-09-02 08:00,ZBYN 020800Z AUTO 30008KT 7SM 26/08 A2997 RMK T02600080 IEM_DS3505
ZBYN,1989-09-02 09:00,ZBYN 020900Z AUTO 34004KT 12SM 25/09 A2997 RMK SLP120 T02470087 57014 IEM_DS3505
ZBYN,1989-09-02 10:00,ZBYN 021000Z AUTO 36008KT 7SM 24/10 A2997 RMK T02400100 IEM_DS3505
ZBYN,1989-09-02 11:00,ZBYN 021100Z AUTO 10006KT 7SM 22/11 A2997 RMK T02200110 IEM_DS3505
ZBYN,1989-09-02 12:00,ZBYN 021200Z AUTO 00000KT 12SM 17/12 A2997 RMK SLP125 T01720123 54000 IEM_DS3505
ZBYN,1989-09-02 13:00,ZBYN 021300Z AUTO 08008KT 7SM 18/10 A3000 RMK T01800100 IEM_DS3505
ZBYN,1989-09-02 15:00,ZBYN 021500Z AUTO 00000KT 12SM 14/12 A3000 RMK SLP131 T01420117 52009 IEM_DS3505
ZBYN,1989-09-02 18:00,ZBYN 021800Z AUTO 00000KT 9SM 14/10 RMK SLP127 T01400105 54000 IEM_DS3505
ZBYN,1989-09-02 21:00,ZBYN 022100Z AUTO 00000KT 9SM 12/10 RMK SLP125 T01230099 57004 IEM_DS3505
ZBYN,1989-09-02 22:00,ZBYN 022200Z AUTO 00000KT 6SM 11/10 A2997 RMK T01100100 IEM_DS3505
ZBYN,1989-09-03 00:00,ZBYN 030000Z AUTO 36004KT 9SM 15/10 A2997 RMK SLP129 T01530098 57003 IEM_DS3505
ZBYN,1989-09-03 01:00,ZBYN 030100Z AUTO 00000KT 4SM A2997 RMK IEM_DS3505
ZBYN,1989-09-03 02:00,ZBYN 030200Z AUTO 00000KT 6SM 20/13 A2997 RMK T02000130 IEM_DS3505
ZBYN,1989-09-03 03:00,ZBYN 030300Z AUTO 00000KT 7SM 22/13 A2994 RMK SLP115 T02180129 57008 IEM_DS3505
ZBYN,1989-09-03 04:00,ZBYN 030400Z AUTO 12004KT 6SM 22/12 A2991 RMK T02200120 IEM_DS3505
ZBYN,1989-09-03 05:00,ZBYN 030500Z AUTO 00000KT 6SM 23/13 A2988 RMK T02300130 IEM_DS3505
ZBYN,1989-09-03 06:00,ZBYN 030600Z AUTO 00000KT 7SM 23/14 A2988 RMK SLP084 T02300138 4////0112 57027 IEM_DS3505
ZBYN,1989-09-03 07:00,ZBYN 030700Z AUTO 00000KT 6SM 23/13 A2985 RMK T02300130 IEM_DS3505
ZBYN,1989-09-03 08:00,ZBYN 030800Z AUTO 00000KT 6SM 24/13 A2985 RMK T02400130 IEM_DS3505
ZBYN,1989-09-03 09:00,ZBYN 030900Z AUTO 00000KT 12SM 22/16 RMK SLP077 T02180157 57010 IEM_DS3505
ZBYN,1989-09-03 10:00,ZBYN 031000Z AUTO 00000KT 5SM 15/ A2983 RMK 60012 SLP080 40234//// 57009 IEM_DS3505
ZBYN,1989-09-03 11:00,ZBYN 031100Z AUTO 20006KT 7SM 18/16 A2985 RMK T01800160 IEM_DS3505
ZBYN,1989-09-03 12:00,ZBYN 031200Z AUTO 00000KT 6SM 17/16 A2985 RMK 60002 SLP091 T01680157 52010 IEM_DS3505
ZBYN,1989-09-03 13:00,ZBYN 031300Z AUTO 32006KT 4SM 17/16 A2988 RMK T01700160 IEM_DS3505
ZBYN,1989-09-03 15:00,ZBYN 031500Z AUTO 32002KT 5SM 16/15 A2988 RMK SLP090 T01600152 52007 IEM_DS3505
ZBYN,1989-09-03 16:00,ZBYN 031600Z AUTO 34004KT 2 1/2SM 15/15 A2988 RMK T01500150 IEM_DS3505
ZBYN,1989-09-03 18:00,ZBYN 031800Z AUTO 00000KT 5SM 15/15 A2985 RMK 60012 SLP080 T01520147 57009 IEM_DS3505
ZBYN,1989-09-03 21:00,ZBYN 032100Z AUTO 00000KT 4SM 15/15 RMK SLP071 T01500148 57010 IEM_DS3505
ZBYN,1989-09-03 22:00,ZBYN 032200Z AUTO 00000KT 7SM 15/14 A2983 RMK T01500140 IEM_DS3505
ZBYN,1989-09-03 23:00,ZBYN 032300Z AUTO 00000KT 7SM 15/14 A2983 RMK T01500140 IEM_DS3505
ZBYN,1989-09-04 00:00,ZBYN 040000Z AUTO 36002KT 4SM 15/15 A2983 RMK 60004 SLP078 T01540146 54000 IEM_DS3505
ZBYN,1989-09-04 01:00,ZBYN 040100Z AUTO 00000KT 5SM 15/14 A2983 RMK T01500140 IEM_DS3505
ZBYN,1989-09-04 02:00,ZBYN 040200Z AUTO 00000KT 3SM 15/14 A2983 RMK T01500140 IEM_DS3505
ZBYN,1989-09-04 03:00,ZBYN 040300Z AUTO 00000KT 5SM 15/14 A2983 RMK SLP083 T01490141 52003 IEM_DS3505
ZBYN,1989-09-04 04:00,ZBYN 040400Z AUTO 00000KT 4SM 16/15 A2983 RMK T01600150 IEM_DS3505
ZBYN,1989-09-04 05:00,ZBYN 040500Z AUTO 00000KT 6SM 17/14 A2980 RMK T01700140 IEM_DS3505
ZBYN,1989-09-04 06:00,ZBYN 040600Z AUTO 16004KT 6SM 19/15 A2980 RMK 60002 SLP063 T01890150 4////0145 57014 IEM_DS3505
ZBYN,1989-09-04 07:00,ZBYN 040700Z AUTO 19004KT 7SM 18/14 A2977 RMK T01800140 IEM_DS3505
ZBYN,1989-09-04 08:00,ZBYN 040800Z AUTO 16004KT 6SM 19/15 A2977 RMK SLP063 T01900150 57014 IEM_DS3505
ZBYN,1989-09-04 09:00,ZBYN 040900Z AUTO 00000KT 6SM 18/16 RMK SLP063 T01770159 57002 IEM_DS3505
ZBYN,1989-09-04 10:00,ZBYN 041000Z AUTO 00000KT 7SM 18/15 A2980 RMK T01800150 IEM_DS3505
ZBYN,1989-09-04 11:00,ZBYN 041100Z AUTO 00000KT 6SM 18/16 A2980 RMK T01800160 IEM_DS3505
ZBYN,1989-09-04 12:00,ZBYN 041200Z AUTO 00000KT 1SM 17/16 A2980 RMK SLP074 T01660158 52009 IEM_DS3505
ZBYN,1989-09-04 13:00,ZBYN 041300Z AUTO 00000KT 7SM 15/14 A2983 RMK T01500140 IEM_DS3505
ZBYN,1989-09-04 14:00,ZBYN 041400Z AUTO 00000KT 7SM 14/14 A2983 RMK T01400140 IEM_DS3505
ZBYN,1989-09-04 15:00,ZBYN 041500Z AUTO 00000KT 2SM 14/13 A2983 RMK SLP091 T01360134 52010 IEM_DS3505
ZBYN,1989-09-04 17:00,ZBYN 041700Z AUTO 09004KT 4SM 13/13 A2983 RMK T01300130 IEM_DS3505
ZBYN,1989-09-04 18:00,ZBYN 041800Z AUTO 00000KT 5SM 14/14 A2983 RMK SLP082 T01380136 40193//// 57002 IEM_DS3505
ZBYN,1989-09-04 19:00,ZBYN 041900Z AUTO 00000KT 2 1/2SM 13/13 A2983 RMK T01300130 IEM_DS3505
ZBYN,1989-09-04 20:00,ZBYN 042000Z AUTO 00000KT 2SM 14/13 A2988 RMK T01400130 IEM_DS3505
ZBYN,1989-09-04 21:00,ZBYN 042100Z AUTO 00000KT 3/8SM 13/13 RMK SLP084 T01340132 54000 IEM_DS3505
ZBYN,1989-09-04 22:00,ZBYN 042200Z AUTO 11004KT 3SM 14/14 A2985 RMK T01400140 IEM_DS3505
ZBYN,1989-09-04 23:00,ZBYN 042300Z AUTO 00000KT 2SM 14/14 A2988 RMK T01400140 IEM_DS3505
ZBYN,1989-09-05 00:00,ZBYN 050000Z AUTO 00000KT 3SM 15/14 RMK 70004 SLP095 T01520144 52011 IEM_DS3505
ZBYN,1989-09-05 01:00,ZBYN 050100Z AUTO 11004KT 4SM 17/15 A2988 RMK T01700150 IEM_DS3505
ZBYN,1989-09-05 02:00,ZBYN 050200Z AUTO 5SM 19/15 A2988 RMK T01900150 IEM_DS3505
ZBYN,1989-09-05 03:00,ZBYN 050300Z AUTO 14006KT 6SM 20/15 RMK SLP098 T02030154 52006 IEM_DS3505
ZBYN,1989-09-05 04:00,ZBYN 050400Z AUTO 00000KT 7SM 24/18 A2985 RMK T02400180 IEM_DS3505
ZBYN,1989-09-05 05:00,ZBYN 050500Z AUTO 19004KT 7SM 23/15 A2985 RMK T02300150 IEM_DS3505
ZBYN,1989-09-05 06:00,ZBYN 050600Z AUTO 22004KT 6SM 24/15 A2983 RMK SLP074 T02420153 4////0122 57016 IEM_DS3505
ZBYN,1989-09-05 07:00,ZBYN 050700Z AUTO 17006KT 7SM 25/15 A2983 RMK T02500150 IEM_DS3505
ZBYN,1989-09-05 08:00,ZBYN 050800Z AUTO 21010KT 7SM 27/18 A2980 RMK T02700180 IEM_DS3505
ZBYN,1989-09-05 09:00,ZBYN 050900Z AUTO 09004KT 7SM 22/15 RMK SLP077 T02180152 57002 IEM_DS3505
ZBYN,1989-09-05 10:00,ZBYN 051000Z AUTO 09004KT 7SM 21/16 A2983 RMK T02100160 IEM_DS3505
ZBYN,1989-09-05 11:00,ZBYN 051100Z AUTO 00000KT 7SM 20/16 A2983 RMK T02000160 IEM_DS3505
ZBYN,1989-09-05 12:00,ZBYN 051200Z AUTO 00000KT 7SM 18/16 A2985 RMK SLP092 T01770159 52011 IEM_DS3505
ZBYN,1989-09-05 13:00,ZBYN 051300Z AUTO 07008KT 7SM 18/15 A2991 RMK T01800150 IEM_DS3505
ZBYN,1989-09-05 14:00,ZBYN 051400Z AUTO 08004KT 7SM 19/14 A2991 RMK T01900140 IEM_DS3505
ZBYN,1989-09-05 15:00,ZBYN 051500Z AUTO 34004KT 7SM 17/15 A2991 RMK SLP107 T01680150 52019 IEM_DS3505
ZBYN,1989-09-05 16:00,ZBYN 051600Z AUTO 34004KT 4SM 15/14 A2991 RMK T01500140 IEM_DS3505
ZBYN,1989-09-05 18:00,ZBYN 051800Z AUTO 34004KT 6SM 16/14 A2991 RMK SLP103 T01580139 40254//// 52001 IEM_DS3505
ZBYN,1989-09-05 19:00,ZBYN 051900Z AUTO 29004KT 2SM 14/13 A2994 RMK T01400130 IEM_DS3505
ZBYN,1989-09-05 21:00,ZBYN 052100Z AUTO 34004KT 5SM 14/13 A2994 RMK SLP117 T01420128 52007 IEM_DS3505
ZBYN,1989-09-05 22:00,ZBYN 052200Z AUTO 00000KT 1SM 11/11 A2997 RMK T01100110 IEM_DS3505
ZBYN,1989-09-06 00:00,ZBYN 060000Z AUTO 00000KT 6SM 16/13 RMK SLP144 T01600134 52021 IEM_DS3505
ZBYN,1989-09-06 01:00,ZBYN 060100Z AUTO 00000KT 3SM 18/14 A3000 RMK T01800140 IEM_DS3505
ZBYN,1989-09-06 02:00,ZBYN 060200Z AUTO 00000KT 7SM 21/15 A3003 RMK T02100150 IEM_DS3505
ZBYN,1989-09-06 03:00,ZBYN 060300Z AUTO 00000KT 6SM 22/14 A3000 RMK SLP135 T02230141 54000 IEM_DS3505
ZBYN,1989-09-06 04:00,ZBYN 060400Z AUTO 19004KT 7SM 24/15 A3000 RMK T02400150 IEM_DS3505
ZBYN,1989-09-06 05:00,ZBYN 060500Z AUTO 18006KT 6SM 25/15 A3000 RMK T02500150 IEM_DS3505
ZBYN,1989-09-06 06:00,ZBYN 060600Z AUTO 16002KT 7SM 25/16 A2997 RMK SLP116 T02530155 4////0138 57015 IEM_DS3505
ZBYN,1989-09-06 07:00,ZBYN 060700Z AUTO 17008KT 6SM 26/12 A2994 RMK T02600120 IEM_DS3505
ZBYN,1989-09-06 08:00,ZBYN 060800Z AUTO 20008KT 6SM 27/14 A2994 RMK T02700140 IEM_DS3505
ZBYN,1989-09-06 10:00,ZBYN 061000Z AUTO 16006KT 7SM 25/14 A2997 RMK T02500140 IEM_DS3505
ZBYN,1989-09-06 11:00,ZBYN 061100Z AUTO 00000KT 7SM RMK IEM_DS3505
ZBYN,1989-09-06 12:00,ZBYN 061200Z AUTO 09002KT 9SM 18/16 A2997 RMK SLP132 T01830159 52009 IEM_DS3505
ZBYN,1989-09-06 13:00,ZBYN 061300Z AUTO 08008KT 7SM 20/16 A3000 RMK T02000160 IEM_DS3505
ZBYN,1989-09-06 15:00,ZBYN 061500Z AUTO 09008KT 7SM 19/16 A3003 RMK T01900160 IEM_DS3505
ZBYN,1989-09-06 18:00,ZBYN 061800Z AUTO 36004KT 7SM 17/14 RMK SLP137 T01690144 40264//// 52004 IEM_DS3505
ZBYN,1989-09-06 19:00,ZBYN 061900Z AUTO 00000KT 4SM 15/15 A3003 RMK T01500150 IEM_DS3505
ZBYN,1989-09-06 20:00,ZBYN 062000Z AUTO 00000KT 2 1/2SM 15/14 A3003 RMK T01500140 IEM_DS3505
ZBYN,1989-09-06 21:00,ZBYN 062100Z AUTO 32002KT 6SM 15/14 RMK SLP146 T01500140 52006 IEM_DS3505
ZBYN,1989-09-07 00:00,ZBYN 070000Z AUTO 32002KT 6SM 16/16 A3009 RMK SLP170 T01600155 52013 IEM_DS3505
ZBYN,1989-09-07 01:00,ZBYN 070100Z AUTO 09004KT 5SM 21/16 A3009 RMK T02100160 IEM_DS3505
ZBYN,1989-09-07 02:00,ZBYN 070200Z AUTO 12006KT 5SM 23/16 A3009 RMK T02300160 IEM_DS3505
ZBYN,1989-09-07 03:00,ZBYN 070300Z AUTO 00000KT 4SM 24/16 A3009 RMK SLP157 T02390165 57003 IEM_DS3505
ZBYN,1989-09-07 04:00,ZBYN 070400Z AUTO 12006KT 6SM 24/15 A3006 RMK T02400150 IEM_DS3505
ZBYN,1989-09-07 05:00,ZBYN 070500Z AUTO 00000KT 7SM 26/13 A3006 RMK T02600130 IEM_DS3505
ZBYN,1989-09-07 06:00,ZBYN 070600Z AUTO 00000KT 7SM 26/12 RMK SLP128 T02620124 4////0130 57023 IEM_DS3505
ZBYN,1989-09-07 07:00,ZBYN 070700Z AUTO 18008KT 6SM 27/13 A3000 RMK T02700130 IEM_DS3505
ZBYN,1989-09-07 08:00,ZBYN 070800Z AUTO 00000KT 7SM 27/15 A2997 RMK T02700150 IEM_DS3505
ZBYN,1989-09-07 09:00,ZBYN 070900Z AUTO 14004KT 12SM 24/15 RMK SLP126 T02430148 57007 IEM_DS3505
ZBYN,1989-09-07 10:00,ZBYN 071000Z AUTO 11002KT 7SM 21/14 A3003 RMK T02100140 IEM_DS3505
ZBYN,1989-09-07 11:00,ZBYN 071100Z AUTO 10008KT 7SM 20/15 A3003 RMK T02000150 IEM_DS3505
ZBYN,1989-09-07 15:00,ZBYN 071500Z AUTO 00000KT 6SM 18/15 RMK SLP148 T01800154 52006 IEM_DS3505
ZBYN,1989-09-07 16:00,ZBYN 071600Z AUTO 10004KT 6SM 18/15 A3009 RMK T01800150 IEM_DS3505
ZBYN,1989-09-07 17:00,ZBYN 071700Z AUTO 00000KT 6SM 18/16 A3009 RMK T01800160 IEM_DS3505
ZBYN,1989-09-07 18:00,ZBYN 071800Z AUTO 00000KT 4SM 17/16 A3009 RMK SLP153 T01700159 40267//// 52006 IEM_DS3505
ZBYN,1989-09-07 19:00,ZBYN 071900Z AUTO 12004KT 6SM 18/15 A3009 RMK T01800150 IEM_DS3505
ZBYN,1989-09-07 20:00,ZBYN 072000Z AUTO 00000KT 6SM 17/16 A3009 RMK T01700160 IEM_DS3505
ZBYN,1989-09-07 21:00,ZBYN 072100Z AUTO 00000KT 4SM 17/16 A3009 RMK SLP159 T01680157 52003 IEM_DS3505
ZBYN,1989-09-07 22:00,ZBYN 072200Z AUTO 00000KT 2SM 17/16 A3009 RMK T01700160 IEM_DS3505
ZBYN,1989-09-07 23:00,ZBYN 072300Z AUTO 05004KT 3SM 16/16 A3012 RMK T01600160 IEM_DS3505
ZBYN,1989-09-08 00:00,ZBYN 080000Z AUTO 00000KT 4SM 18/16 A3012 RMK SLP171 T01790156 52005 IEM_DS3505
ZBYN,1989-09-08 01:00,ZBYN 080100Z AUTO 12004KT 6SM 22/14 A3012 RMK T02200140 IEM_DS3505
ZBYN,1989-09-08 02:00,ZBYN 080200Z AUTO 19004KT 6SM 22/13 A3012 RMK T02200130 IEM_DS3505
ZBYN,1989-09-08 03:00,ZBYN 080300Z AUTO 11006KT 7SM 23/13 A3012 RMK SLP165 T02320126 54000 IEM_DS3505
ZBYN,1989-09-08 04:00,ZBYN 080400Z AUTO 15006KT 7SM 24/11 A3009 RMK T02400110 IEM_DS3505
ZBYN,1989-09-08 05:00,ZBYN 080500Z AUTO 15012KT 7SM 25/11 A3009 RMK T02500110 IEM_DS3505
ZBYN,1989-09-08 06:00,ZBYN 080600Z AUTO 20004KT 12SM 24/11 A3006 RMK SLP166 T02400113 4////0153 52001 IEM_DS3505
ZBYN,1989-09-08 07:00,ZBYN 080700Z AUTO 18010KT 7SM 24/11 A3003 RMK T02400110 IEM_DS3505
ZBYN,1989-09-08 08:00,ZBYN 080800Z AUTO 19006KT 7SM 24/11 A3003 RMK T02400110 IEM_DS3505
ZBYN,1989-09-08 09:00,ZBYN 080900Z AUTO 20002KT 9SM 22/14 A3003 RMK SLP147 T02230141 57027 IEM_DS3505
ZBYN,1989-09-08 10:00,ZBYN 081000Z AUTO 23004KT 6SM 22/13 A3003 RMK T02200130 IEM_DS3505
ZBYN,1989-09-08 11:00,ZBYN 081100Z AUTO 00000KT 6SM 21/15 A3003 RMK T02100150 IEM_DS3505
ZBYN,1989-09-08 12:00,ZBYN 081200Z AUTO 00000KT 7SM 20/16 A3003 RMK SLP148 T01960159 52005 IEM_DS3505
ZBYN,1989-09-08 13:00,ZBYN 081300Z AUTO 10008KT 6SM 20/16 A3006 RMK T02000160 IEM_DS3505
ZBYN,1989-09-08 15:00,ZBYN 081500Z AUTO 11002KT 7SM 19/15 A3006 RMK SLP143 T01900151 52003 IEM_DS3505
ZBYN,1989-09-08 16:00,ZBYN 081600Z AUTO 09006KT 6SM 19/15 A3006 RMK T01900150 IEM_DS3505
ZBYN,1989-09-08 18:00,ZBYN 081800Z AUTO 00000KT 7SM 18/15 A3006 RMK SLP144 T01790151 40253//// 54000 IEM_DS3505
ZBYN,1989-09-08 19:00,ZBYN 081900Z AUTO 12004KT 6SM 18/15 A3006 RMK T01800150 IEM_DS3505
ZBYN,1989-09-08 21:00,ZBYN 082100Z AUTO 00000KT 7SM 17/15 A3006 RMK SLP141 T01660151 57007 IEM_DS3505
ZBYN,1989-09-08 22:00,ZBYN 082200Z AUTO 14002KT 4SM 17/15 A3006 RMK T01700150 IEM_DS3505
ZBYN,1989-09-08 23:00,ZBYN 082300Z AUTO 12004KT 2 1/2SM 17/15 A3006 RMK T01700150 IEM_DS3505
ZBYN,1989-09-09 00:00,ZBYN 090000Z AUTO 00000KT 5SM 17/16 RMK SLP155 T01730155 52010 IEM_DS3505
ZBYN,1989-09-09 01:00,ZBYN 090100Z AUTO 17006KT 6SM 20/14 A3012 RMK T02000140 IEM_DS3505
ZBYN,1989-09-09 02:00,ZBYN 090200Z AUTO 23004KT 6SM 22/14 A3012 RMK T02200140 IEM_DS3505
ZBYN,1989-09-09 03:00,ZBYN 090300Z AUTO 22004KT 6SM 22/14 A3006 RMK SLP143 T02240138 57005 IEM_DS3505
ZBYN,1989-09-09 04:00,ZBYN 090400Z AUTO 21006KT 6SM 24/13 A3003 RMK T02400130 IEM_DS3505
ZBYN,1989-09-09 05:00,ZBYN 090500Z AUTO 00000KT 6SM 25/14 A3000 RMK T02500140 IEM_DS3505
ZBYN,1989-09-09 06:00,ZBYN 090600Z AUTO 22002KT 7SM 24/14 A3000 RMK SLP123 T02400144 4////0160 57017 IEM_DS3505
ZBYN,1989-09-09 07:00,ZBYN 090700Z AUTO 00000KT 6SM 25/14 A2997 RMK T02500140 IEM_DS3505
ZBYN,1989-09-09 08:00,ZBYN 090800Z AUTO 00000KT 7SM 24/14 A2997 RMK T02400140 IEM_DS3505
ZBYN,1989-09-09 09:00,ZBYN 090900Z AUTO 00000KT 6SM 23/15 A2997 RMK SLP117 T02320146 57009 IEM_DS3505
ZBYN,1989-09-09 10:00,ZBYN 091000Z AUTO 21006KT 6SM 22/14 A2997 RMK T02200140 IEM_DS3505
ZBYN,1989-09-09 12:00,ZBYN 091200Z AUTO 20004KT 6SM RMK SLP127 52006 IEM_DS3505
ZBYN,1989-09-09 12:12,ZBYN 091212Z AUTO 09006KT 3SM RMK IEM_DS3505
ZBYN,1989-09-09 15:00,ZBYN 091500Z AUTO 14004KT 6SM 18/14 RMK SLP126 T01850143 52004 IEM_DS3505
ZBYN,1989-09-09 18:00,ZBYN 091800Z AUTO 11004KT 6SM 16/15 RMK SLP123 T01640151 40250//// 57003 IEM_DS3505
ZBYN,1989-09-09 21:00,ZBYN 092100Z AUTO 14002KT 6SM 16/15 RMK SLP122 T01580150 57003 IEM_DS3505
ZBYN,1989-09-10 00:00,ZBYN 100000Z AUTO 00000KT 5SM 16/15 A3000 RMK SLP129 T01630153 52002 IEM_DS3505
ZBYN,1989-09-10 01:00,ZBYN 100100Z AUTO 00000KT 5SM 18/15 A3006 RMK T01800150 IEM_DS3505
ZBYN,1989-09-10 02:00,ZBYN 100200Z AUTO 00000KT 4SM 18/16 A3006 RMK T01800160 IEM_DS3505
ZBYN,1989-09-10 03:00,ZBYN 100300Z AUTO 16004KT 6SM 19/16 A3003 RMK SLP132 T01940162 52005 IEM_DS3505
ZBYN,1989-09-10 04:00,ZBYN 100400Z AUTO 20008KT 6SM 22/16 A3000 RMK T02200160 IEM_DS3505
ZBYN,1989-09-10 05:00,ZBYN 100500Z AUTO 17006KT 6SM 24/16 A2994 RMK T02400160 IEM_DS3505
ZBYN,1989-09-10 06:00,ZBYN 100600Z AUTO 18004KT 11SM 25/15 A2994 RMK SLP097 T02540154 4////0151 57026 IEM_DS3505
ZBYN,1989-09-10 07:00,ZBYN 100700Z AUTO 23008KT 6SM 27/12 A2991 RMK T02700120 IEM_DS3505
ZBYN,1989-09-10 08:00,ZBYN 100800Z AUTO 28016KT 6SM 28/04 A2988 RMK T02800040 IEM_DS3505
ZBYN,1989-09-10 09:00,ZBYN 100900Z AUTO 32008KT 12SM 27/06 RMK SLP086 T02660062 57009 IEM_DS3505
ZBYN,1989-09-10 10:00,ZBYN 101000Z AUTO 29006KT 6SM RMK IEM_DS3505
ZBYN,1989-09-10 11:00,ZBYN 101100Z AUTO 29006KT 6SM 20/10 A2988 RMK T02000100 IEM_DS3505
ZBYN,1989-09-10 12:00,ZBYN 101200Z AUTO 29002KT 12SM 19/08 A2997 RMK SLP110 T01900083 52012 IEM_DS3505
ZBYN,1989-09-10 15:00,ZBYN 101500Z AUTO 36002KT 6SM 13/11 RMK SLP124 T01330111 52009 IEM_DS3505
ZBYN,1989-09-10 16:00,ZBYN 101600Z AUTO 00000KT 7SM 12/10 A2997 RMK T01200100 IEM_DS3505
ZBYN,1989-09-10 18:00,ZBYN 101800Z AUTO 14002KT 6SM 11/10 RMK SLP122 T01100101 40277//// 52003 IEM_DS3505
ZBYN,1989-09-10 21:00,ZBYN 102100Z AUTO 00000KT 9SM 09/09 RMK SLP124 T00920086 52001 IEM_DS3505
ZBYN,1989-09-10 23:00,ZBYN 102300Z AUTO 11004KT 6SM 10/09 A2997 RMK T01000090 IEM_DS3505
ZBYN,1989-09-11 00:00,ZBYN 110000Z AUTO 00000KT 5SM 13/10 RMK T01310099 52006 IEM_DS3505
ZBYN,1989-09-11 01:00,ZBYN 110100Z AUTO 18006KT 6SM 18/10 A2997 RMK T01800100 IEM_DS3505
ZBYN,1989-09-11 02:00,ZBYN 110200Z AUTO 22006KT 6SM 20/14 A3000 RMK T02000140 IEM_DS3505
ZBYN,1989-09-11 03:00,ZBYN 110300Z AUTO 14002KT 7SM 24/11 A2997 RMK SLP122 T02380107 57006 IEM_DS3505
ZBYN,1989-09-11 04:00,ZBYN 110400Z AUTO 00000KT 6SM 24/07 A2994 RMK T02400070 IEM_DS3505
ZBYN,1989-09-11 05:00,ZBYN 110500Z AUTO 00000KT 6SM 27/07 A2997 RMK T02700070 IEM_DS3505
ZBYN,1989-09-11 06:00,ZBYN 110600Z AUTO 04002KT 12SM 26/09 A2997 RMK SLP100 T02610091 4////0078 57020 IEM_DS3505
ZBYN,1989-09-11 07:00,ZBYN 110700Z AUTO 01012KT 7SM 27/06 A2994 RMK T02700060 IEM_DS3505
ZBYN,1989-09-11 08:00,ZBYN 110800Z AUTO 7SM 26/07 A2994 RMK T02600070 IEM_DS3505
ZBYN,1989-09-11 09:00,ZBYN 110900Z AUTO 32006KT 12SM 25/05 RMK SLP100 T02530054 57004 IEM_DS3505
ZBYN,1989-09-11 12:00,ZBYN 111200Z AUTO 32002KT 12SM 18/09 RMK SLP123 T01780092 52016 IEM_DS3505
ZBYN,1989-09-11 15:00,ZBYN 111500Z AUTO 00000KT 12SM 12/10 RMK SLP134 T01160097 52017 IEM_DS3505
ZBYN,1989-09-11 18:00,ZBYN 111800Z AUTO 00000KT 12SM 13/09 RMK SLP129 T01260086 40265//// 54000 IEM_DS3505
ZBYN,1989-09-11 21:00,ZBYN 112100Z AUTO 00000KT 7SM 08/07 RMK SLP140 T00810073 52002 IEM_DS3505
ZBYN,1989-09-11 22:00,ZBYN 112200Z AUTO 00000KT 7SM 07/06 A3006 RMK T00700060 IEM_DS3505
ZBYN,1989-09-11 23:00,ZBYN 112300Z AUTO 00000KT 7SM 07/06 A3006 RMK T00700060 IEM_DS3505
ZBYN,1989-09-12 00:00,ZBYN 120000Z AUTO 00000KT 6SM 13/09 RMK SLP156 T01270093 52011 IEM_DS3505
ZBYN,1989-09-12 03:00,ZBYN 120300Z AUTO 18004KT 6SM 21/09 RMK SLP150 T02140092 57002 IEM_DS3505
ZBYN,1989-09-12 05:00,ZBYN 120500Z AUTO 25010KT 6SM 25/06 A3006 RMK T02500060 IEM_DS3505
ZBYN,1989-09-12 06:00,ZBYN 120600Z AUTO 00000KT 9SM 25/09 A3000 RMK SLP118 T02470094 4////0069 57023 IEM_DS3505
ZBYN,1989-09-12 07:00,ZBYN 120700Z AUTO 13006KT 6SM 26/08 A3000 RMK T02600080 IEM_DS3505
ZBYN,1989-09-12 08:00,ZBYN 120800Z AUTO 18008KT 6SM 26/07 A3000 RMK T02600070 IEM_DS3505
ZBYN,1989-09-12 09:00,ZBYN 120900Z AUTO 18002KT 7SM 24/10 A2997 RMK SLP114 T02430100 57011 IEM_DS3505
ZBYN,1989-09-12 10:00,ZBYN 121000Z AUTO 21004KT 6SM 24/09 A2997 RMK T02400090 IEM_DS3505
ZBYN,1989-09-12 11:00,ZBYN 121100Z AUTO 21006KT 6SM 20/08 A2997 RMK T02000080 IEM_DS3505
ZBYN,1989-09-12 12:00,ZBYN 121200Z AUTO 00000KT 7SM 16/11 A2997 RMK SLP122 T01650110 52003 IEM_DS3505
ZBYN,1989-09-12 13:00,ZBYN 121300Z AUTO 09006KT 6SM 15/09 A3000 RMK T01500090 IEM_DS3505
ZBYN,1989-09-12 15:00,ZBYN 121500Z AUTO 00000KT 7SM 13/11 A3003 RMK SLP126 T01300106 52011 IEM_DS3505
ZBYN,1989-09-12 16:00,ZBYN 121600Z AUTO 00000KT 6SM 11/09 A3003 RMK T01100090 IEM_DS3505
ZBYN,1989-09-12 17:00,ZBYN 121700Z AUTO 00000KT 6SM 10/09 A3003 RMK T01000090 IEM_DS3505
ZBYN,1989-09-12 18:00,ZBYN 121800Z AUTO 00000KT 6SM 10/09 A3003 RMK SLP129 T01000092 40262//// 52003 IEM_DS3505
ZBYN,1989-09-12 19:00,ZBYN 121900Z AUTO 00000KT 7SM 09/08 A3003 RMK T00900080 IEM_DS3505
ZBYN,1989-09-12 21:00,ZBYN 122100Z AUTO 36004KT 6SM 12/08 A3003 RMK SLP129 T01240081 52003 IEM_DS3505
ZBYN,1989-09-12 22:00,ZBYN 122200Z AUTO 14004KT 5SM 09/08 A3003 RMK T00900080 IEM_DS3505
ZBYN,1989-09-12 23:00,ZBYN 122300Z AUTO 00000KT 7SM 08/08 A3006 RMK T00800080 IEM_DS3505
ZBYN,1989-09-13 03:00,ZBYN 130300Z AUTO 00000KT 5SM 22/11 RMK SLP144 T02210112 57002 IEM_DS3505
ZBYN,1989-09-13 06:00,ZBYN 130600Z AUTO 18006KT 6SM 26/12 A2997 RMK SLP119 T02550117 57022 IEM_DS3505
ZBYN,1989-09-13 07:00,ZBYN 130700Z AUTO 20008KT 6SM 28/11 A2997 RMK T02800110 IEM_DS3505
ZBYN,1989-09-13 08:00,ZBYN 130800Z AUTO 00000KT 6SM 28/08 A2994 RMK T02800080 IEM_DS3505
ZBYN,1989-09-13 09:00,ZBYN 130900Z AUTO 20002KT 11SM 26/13 A2994 RMK SLP105 T02590133 57009 IEM_DS3505
ZBYN,1989-09-13 10:00,ZBYN 131000Z AUTO 17004KT 6SM 24/09 A2994 RMK T02400090 IEM_DS3505
ZBYN,1989-09-13 11:00,ZBYN 131100Z AUTO 22004KT 6SM 19/13 A2994 RMK T01900130 IEM_DS3505
ZBYN,1989-09-13 12:00,ZBYN 131200Z AUTO 00000KT 6SM 17/14 A2997 RMK SLP135 T01690139 52010 IEM_DS3505
ZBYN,1989-09-13 13:00,ZBYN 131300Z AUTO 09006KT 6SM 17/09 A2997 RMK T01700090 IEM_DS3505
ZBYN,1989-09-13 14:00,ZBYN 131400Z AUTO 00000KT 6SM 15/10 A3000 RMK T01500100 IEM_DS3505
ZBYN,1989-09-13 15:00,ZBYN 131500Z AUTO 00000KT 6SM 14/12 A3000 RMK SLP138 T01420121 52014 IEM_DS3505
ZBYN,1989-09-13 18:00,ZBYN 131800Z AUTO 00000KT 5SM 11/10 A3000 RMK SLP139 T01140105 40270//// 52001 IEM_DS3505
ZBYN,1989-09-13 19:00,ZBYN 131900Z AUTO 00000KT 6SM 11/09 A3000 RMK T01100090 IEM_DS3505
ZBYN,1989-09-13 20:00,ZBYN 132000Z AUTO 00000KT 6SM 11/09 A3000 RMK T01100090 IEM_DS3505
ZBYN,1989-09-13 21:00,ZBYN 132100Z AUTO 00000KT 6SM 12/10 A3000 RMK SLP132 T01240104 57004 IEM_DS3505
ZBYN,1989-09-13 22:00,ZBYN 132200Z AUTO 00000KT 6SM 10/08 A3000 RMK T01000080 IEM_DS3505
ZBYN,1989-09-14 00:00,ZBYN 140000Z AUTO 00000KT 6SM 13/11 A3006 RMK SLP159 T01340114 52013 IEM_DS3505
ZBYN,1989-09-14 01:00,ZBYN 140100Z AUTO 00000KT 7SM 19/11 A3006 RMK T01900110 IEM_DS3505
ZBYN,1989-09-14 02:00,ZBYN 140200Z AUTO 00000KT 7SM 22/10 A3006 RMK T02200100 IEM_DS3505
ZBYN,1989-09-14 03:00,ZBYN 140300Z AUTO 11002KT 6SM 24/11 RMK SLP148 T02390114 52001 IEM_DS3505
ZBYN,1989-09-14 04:00,ZBYN 140400Z AUTO 6SM 26/10 A3003 RMK T02600100 IEM_DS3505
ZBYN,1989-09-14 06:00,ZBYN 140600Z AUTO 22006KT 6SM 28/12 A3000 RMK SLP128 T02820124 4////0104 57016 IEM_DS3505
ZBYN,1989-09-14 09:00,ZBYN 140900Z AUTO 00000KT 6SM 27/15 RMK SLP117 T02730153 57010 IEM_DS3505
ZBYN,1989-09-14 10:00,ZBYN 141000Z AUTO 00000KT 6SM 27/17 A2997 RMK T02700170 IEM_DS3505
ZBYN,1989-09-14 11:00,ZBYN 141100Z AUTO 08004KT 6SM 23/15 A2997 RMK T02300150 IEM_DS3505
ZBYN,1989-09-14 12:00,ZBYN 141200Z AUTO 00000KT 9SM 19/15 A2997 RMK SLP142 T01920151 52013 IEM_DS3505
ZBYN,1989-09-14 14:00,ZBYN 141400Z AUTO 08008KT 6SM 23/12 A3006 RMK T02300120 IEM_DS3505
ZBYN,1989-09-14 15:00,ZBYN 141500Z AUTO 34004KT 7SM 19/12 A3006 RMK SLP153 T01920125 52025 IEM_DS3505
ZBYN,1989-09-14 16:00,ZBYN 141600Z AUTO 08012KT 6SM 22/14 A3009 RMK T02200140 IEM_DS3505
ZBYN,1989-09-14 17:00,ZBYN 141700Z AUTO 06004KT 6SM 21/14 A3009 RMK T02100140 IEM_DS3505
ZBYN,1989-09-14 18:00,ZBYN 141800Z AUTO 34004KT 7SM 19/13 A3012 RMK SLP159 T01910134 40288//// 52011 IEM_DS3505
ZBYN,1989-09-14 19:00,ZBYN 141900Z AUTO 09006KT 6SM 20/13 A3012 RMK T02000130 IEM_DS3505
ZBYN,1989-09-14 20:00,ZBYN 142000Z AUTO 06016KT 6SM 20/13 A3015 RMK T02000130 IEM_DS3505
ZBYN,1989-09-14 21:00,ZBYN 142100Z AUTO 36004KT 7SM 18/13 A3015 RMK SLP172 T01780132 52009 IEM_DS3505
ZBYN,1989-09-14 23:00,ZBYN 142300Z AUTO 06008KT 6SM 18/13 A3018 RMK T01800130 IEM_DS3505
ZBYN,1989-09-15 00:00,ZBYN 150000Z AUTO 00000KT 4SM 18/14 A3018 RMK SLP206 T01810141 52020 IEM_DS3505
ZBYN,1989-09-15 01:00,ZBYN 150100Z AUTO 07006G16KT 7SM 21/13 A3021 RMK T02100130 IEM_DS3505
ZBYN,1989-09-15 03:00,ZBYN 150300Z AUTO 11006KT 11SM 24/12 RMK SLP200 T02380125 52003 IEM_DS3505
ZBYN,1989-09-15 05:00,ZBYN 150500Z AUTO 07002G14KT 7SM 26/15 A3018 RMK T02600150 IEM_DS3505
ZBYN,1989-09-15 06:00,ZBYN 150600Z AUTO 11006KT 12SM 26/13 RMK SLP176 T02560126 4////0160 57020 IEM_DS3505
ZBYN,1989-09-15 07:00,ZBYN 150700Z AUTO 09006G17KT 6SM 24/13 A3015 RMK T02400130 IEM_DS3505
ZBYN,1989-09-15 09:00,ZBYN 150900Z AUTO 07006KT 6SM 23/14 A3015 RMK SLP177 T02260140 50001 IEM_DS3505
ZBYN,1989-09-15 10:00,ZBYN 151000Z AUTO 04006G19KT 7SM 21/14 A3015 RMK T02100140 IEM_DS3505
ZBYN,1989-09-15 11:00,ZBYN 151100Z AUTO 6SM 18/ RMK SLP206 52022 IEM_DS3505
ZBYN,1989-09-15 12:00,ZBYN 151200Z AUTO 34002KT 6SM 18/12 A3021 RMK SLP206 T01790120 52022 IEM_DS3505
ZBYN,1989-09-15 13:00,ZBYN 151300Z AUTO 07012KT 7SM 18/14 A3024 RMK T01800140 IEM_DS3505
ZBYN,1989-09-15 14:00,ZBYN 151400Z AUTO 07010KT 6SM 18/13 A3024 RMK T01800130 IEM_DS3505
ZBYN,1989-09-15 15:00,ZBYN 151500Z AUTO 00000KT 7SM 16/14 A3024 RMK SLP203 T01640135 52002 IEM_DS3505
ZBYN,1989-09-15 16:00,ZBYN 151600Z AUTO 10006KT 6SM 17/13 A3021 RMK T01700130 IEM_DS3505
ZBYN,1989-09-15 18:00,ZBYN 151800Z AUTO 34002KT 7SM 16/14 A3024 RMK SLP198 T01600140 40263//// 57003 IEM_DS3505
ZBYN,1989-09-15 19:00,ZBYN 151900Z AUTO 00000KT 4SM 16/14 A3021 RMK T01600140 IEM_DS3505
ZBYN,1989-09-15 20:00,ZBYN 152000Z AUTO 10002KT 3SM 15/14 A3021 RMK T01500140 IEM_DS3505
ZBYN,1989-09-15 21:00,ZBYN 152100Z AUTO 00000KT 6SM 16/14 A3021 RMK SLP203 T01620138 52001 IEM_DS3505
ZBYN,1989-09-15 23:00,ZBYN 152300Z AUTO 12008KT 4SM 16/13 A3021 RMK T01600130 IEM_DS3505
ZBYN,1989-09-16 00:00,ZBYN 160000Z AUTO 00000KT 5SM 16/14 A3024 RMK SLP210 T01550140 52003 IEM_DS3505
ZBYN,1989-09-16 01:00,ZBYN 160100Z AUTO 00000KT 5SM 17/15 A3021 RMK T01700150 IEM_DS3505
ZBYN,1989-09-16 03:00,ZBYN 160300Z AUTO 00000KT 4SM 19/14 A3024 RMK SLP210 T01880143 57002 IEM_DS3505
ZBYN,1989-09-16 04:00,ZBYN 160400Z AUTO 00000KT 6SM 20/15 A3018 RMK T02000150 IEM_DS3505
ZBYN,1989-09-16 06:00,ZBYN 160600Z AUTO 18002KT 5SM 22/14 A3012 RMK SLP173 T02180140 4////0143 57030 IEM_DS3505
ZBYN,1989-09-16 07:00,ZBYN 160700Z AUTO 19006KT 6SM 24/14 A3009 RMK T02400140 IEM_DS3505
ZBYN,1989-09-16 08:00,ZBYN 160800Z AUTO 18006KT 6SM 24/14 A3006 RMK T02400140 IEM_DS3505
ZBYN,1989-09-16 09:00,ZBYN 160900Z AUTO 00000KT 6SM 23/14 A3003 RMK SLP145 T02300140 57024 IEM_DS3505
ZBYN,1989-09-16 10:00,ZBYN 161000Z AUTO 00000KT 6SM 23/15 A3003 RMK T02300150 IEM_DS3505
ZBYN,1989-09-16 11:00,ZBYN 161100Z AUTO 00000KT 6SM 20/14 A3003 RMK T02000140 IEM_DS3505
ZBYN,1989-09-16 12:00,ZBYN 161200Z AUTO 00000KT 6SM 17/15 RMK SLP156 T01680146 54000 IEM_DS3505
ZBYN,1989-09-16 14:00,ZBYN 161400Z AUTO 09006KT 7SM RMK IEM_DS3505
ZBYN,1989-09-16 15:00,ZBYN 161500Z AUTO 00000KT 4SM 14/14 RMK SLP153 T01430136 57001 IEM_DS3505
ZBYN,1989-09-16 18:00,ZBYN 161800Z AUTO 00000KT 4SM 13/13 RMK SLP147 T01330129 40235//// 57003 IEM_DS3505
ZBYN,1989-09-16 21:00,ZBYN 162100Z AUTO 00000KT 2SM 12/12 RMK SLP141 T01240120 57005 IEM_DS3505
ZBYN,1989-09-17 00:00,ZBYN 170000Z AUTO 00000KT 2 1/2SM 14/13 A3000 RMK SLP150 T01410134 52002 IEM_DS3505
ZBYN,1989-09-17 02:00,ZBYN 170200Z AUTO 00000KT 7SM 20/15 A3000 RMK T02000150 IEM_DS3505
ZBYN,1989-09-17 03:00,ZBYN 170300Z AUTO 00000KT 5SM 22/15 RMK SLP137 T02160146 57005 IEM_DS3505
ZBYN,1989-09-17 05:00,ZBYN 170500Z AUTO 21010KT 7SM 26/13 A2994 RMK T02600130 IEM_DS3505
ZBYN,1989-09-17 06:00,ZBYN 170600Z AUTO 16004KT 6SM 24/15 A2991 RMK SLP109 T02380149 4////0102 57024 IEM_DS3505
ZBYN,1989-09-17 07:00,ZBYN 170700Z AUTO 20010KT 7SM 26/15 A2991 RMK T02600150 IEM_DS3505
ZBYN,1989-09-17 08:00,ZBYN 170800Z AUTO 19008KT 6SM 27/14 A2988 RMK T02700140 IEM_DS3505
ZBYN,1989-09-17 09:00,ZBYN 170900Z AUTO 18004KT 6SM 25/17 A2985 RMK SLP087 T02480169 57020 IEM_DS3505
ZBYN,1989-09-17 10:00,ZBYN 171000Z AUTO 20002KT 7SM A2985 RMK IEM_DS3505
ZBYN,1989-09-17 11:00,ZBYN 171100Z AUTO 15006KT 7SM 17/13 A2991 RMK T01700130 IEM_DS3505
ZBYN,1989-09-17 12:00,ZBYN 171200Z AUTO 00000KT 7SM 16/14 A2988 RMK 60008 SLP108 T01560137 52009 IEM_DS3505
ZBYN,1989-09-17 15:00,ZBYN 171500Z AUTO 00000KT 7SM 14/13 A2994 RMK SLP110 T01360129 52009 IEM_DS3505
ZBYN,1989-09-17 16:00,ZBYN 171600Z AUTO 00000KT 5SM 14/14 A2994 RMK T01400140 IEM_DS3505
ZBYN,1989-09-17 17:00,ZBYN 171700Z AUTO 00000KT 5SM 13/12 A2994 RMK T01300120 IEM_DS3505
ZBYN,1989-09-17 18:00,ZBYN 171800Z AUTO 00000KT 7SM 13/12 A2994 RMK SLP111 T01260124 52003 IEM_DS3505
ZBYN,1989-09-17 19:00,ZBYN 171900Z AUTO 00000KT 4SM 13/12 A2994 RMK T01300120 IEM_DS3505
ZBYN,1989-09-17 21:00,ZBYN 172100Z AUTO 00000KT 4SM 13/12 A2991 RMK SLP108 T01300125 57001 IEM_DS3505
ZBYN,1989-09-17 22:00,ZBYN 172200Z AUTO 00000KT 2SM 13/12 A2994 RMK T01300120 IEM_DS3505
ZBYN,1989-09-18 00:00,ZBYN 180000Z AUTO 00000KT 5SM 15/12 RMK SLP136 T01480120 52015 IEM_DS3505
ZBYN,1989-09-18 03:00,ZBYN 180300Z AUTO 36002KT 6SM 22/10 A2997 RMK SLP134 T02250102 52007 IEM_DS3505
ZBYN,1989-09-18 04:00,ZBYN 180400Z AUTO 34004KT 7SM 25/13 A2997 RMK T02500130 IEM_DS3505
ZBYN,1989-09-18 06:00,ZBYN 180600Z AUTO 36004KT 5SM 23/06 RMK SLP126 T02310062 4////0115 57008 IEM_DS3505
ZBYN,1989-09-18 07:00,ZBYN 180700Z AUTO 34008KT 6SM 25/03 A2997 RMK T02500030 IEM_DS3505
ZBYN,1989-09-18 08:00,ZBYN 180800Z AUTO 35004KT 6SM 25/02 A2997 RMK T02500020 IEM_DS3505
ZBYN,1989-09-18 09:00,ZBYN 180900Z AUTO 36008KT 6SM 22/03 RMK SLP131 T02170033 52003 IEM_DS3505
ZBYN,1989-09-18 12:00,ZBYN 181200Z AUTO 36004KT 9SM 17/04 RMK SLP163 T01720039 52025 IEM_DS3505
ZBYN,1989-09-18 15:00,ZBYN 181500Z AUTO 36006KT 9SM 12/05 A3012 RMK SLP135 T01200046 52015 IEM_DS3505
ZBYN,1989-09-18 18:00,ZBYN 181800Z AUTO 32002KT 9SM 10/04 RMK SLP177 T01020044 40238//// 54000 IEM_DS3505
ZBYN,1989-09-18 21:00,ZBYN 182100Z AUTO 32004KT 9SM 10/05 RMK SLP185 T00960047 52004 IEM_DS3505
ZBYN,1989-09-18 22:00,ZBYN 182200Z AUTO 00000KT 4SM 11/07 A3012 RMK T01100070 IEM_DS3505
ZBYN,1989-09-18 23:00,ZBYN 182300Z AUTO 00000KT 4SM 11/07 A3015 RMK T01100070 IEM_DS3505
ZBYN,1989-09-19 00:00,ZBYN 190000Z AUTO 32004KT 7SM 11/05 A3018 RMK SLP203 T01070048 52012 IEM_DS3505
ZBYN,1989-09-19 03:00,ZBYN 190300Z AUTO 07002KT 5SM 16/08 A3018 RMK SLP201 T01600078 57002 IEM_DS3505
ZBYN,1989-09-19 04:00,ZBYN 190400Z AUTO 05008KT 6SM 18/08 A3015 RMK T01800080 IEM_DS3505
ZBYN,1989-09-19 05:00,ZBYN 190500Z AUTO 00000KT 6SM 19/08 A3012 RMK T01900080 IEM_DS3505
ZBYN,1989-09-19 06:00,ZBYN 190600Z AUTO 20002KT 6SM 21/10 A3006 RMK SLP163 T02060099 4////0088 57031 IEM_DS3505
ZBYN,1989-09-19 07:00,ZBYN 190700Z AUTO 20004KT 6SM 22/10 A3003 RMK T02200100 IEM_DS3505
ZBYN,1989-09-19 08:00,ZBYN 190800Z AUTO 00000KT 6SM 22/09 A3003 RMK T02200090 IEM_DS3505
ZBYN,1989-09-19 09:00,ZBYN 190900Z AUTO 00000KT 6SM 21/11 RMK SLP152 T02110110 57010 IEM_DS3505
ZBYN,1989-09-19 11:00,ZBYN 191100Z AUTO 09010KT 6SM 18/07 A3003 RMK T01800070 IEM_DS3505
ZBYN,1989-09-19 12:00,ZBYN 191200Z AUTO 14006KT 6SM 17/07 A3006 RMK SLP166 T01680070 52008 IEM_DS3505
ZBYN,1989-09-19 13:00,ZBYN 191300Z AUTO 09010KT 6SM 15/04 A3006 RMK T01500040 IEM_DS3505
ZBYN,1989-09-19 14:00,ZBYN 191400Z AUTO 07010KT 6SM 15/04 A3006 RMK T01500040 IEM_DS3505
ZBYN,1989-09-19 15:00,ZBYN 191500Z AUTO 00000KT 7SM 13/08 A3006 RMK SLP172 T01280084 52008 IEM_DS3505
ZBYN,1989-09-19 16:00,ZBYN 191600Z AUTO 09004KT 6SM 14/06 A3006 RMK T01400060 IEM_DS3505
ZBYN,1989-09-19 18:00,ZBYN 191800Z AUTO 00000KT 7SM 12/08 A3006 RMK SLP159 T01150078 40219//// 57007 IEM_DS3505
ZBYN,1989-09-19 21:00,ZBYN 192100Z AUTO 07008KT 6SM A3000 RMK IEM_DS3505
ZBYN,1989-09-19 22:00,ZBYN 192200Z AUTO 00000KT 7SM 12/07 A3003 RMK T01200070 IEM_DS3505
ZBYN,1989-09-19 23:00,ZBYN 192300Z AUTO 13004KT 7SM 12/07 A3003 RMK T01200070 IEM_DS3505
ZBYN,1989-09-20 00:00,ZBYN 200000Z AUTO 00000KT 4SM 12/10 RMK SLP153 T01220100 52005 IEM_DS3505
ZBYN,1989-09-20 01:00,ZBYN 200100Z AUTO 00000KT 7SM 15/08 A3003 RMK T01500080 IEM_DS3505
ZBYN,1989-09-20 02:00,ZBYN 200200Z AUTO 00000KT 7SM RMK IEM_DS3505
ZBYN,1989-09-20 03:00,ZBYN 200300Z AUTO 00000KT 4SM 13/11 A3003 RMK SLP161 T01260113 52002 IEM_DS3505
ZBYN,1989-09-20 04:00,ZBYN 200400Z AUTO 09006KT 6SM 16/13 A3000 RMK T01600130 IEM_DS3505
ZBYN,1989-09-20 05:00,ZBYN 200500Z AUTO 07004KT 7SM 19/11 A2997 RMK T01900110 IEM_DS3505
ZBYN,1989-09-20 06:00,ZBYN 200600Z AUTO 16004KT 6SM 20/11 A2994 RMK 60008 T01960114 4////0106 57030 IEM_DS3505
ZBYN,1989-09-20 07:00,ZBYN 200700Z AUTO 15006KT 7SM 21/11 A2994 RMK T02100110 IEM_DS3505
ZBYN,1989-09-20 08:00,ZBYN 200800Z AUTO 00000KT 6SM 22/12 A2991 RMK T02200120 IEM_DS3505
ZBYN,1989-09-20 09:00,ZBYN 200900Z AUTO 11006KT 6SM 21/13 A2988 RMK SLP100 T02080129 57015 IEM_DS3505
ZBYN,1989-09-20 10:00,ZBYN 201000Z AUTO 10006KT 7SM 19/13 A2988 RMK T01900130 IEM_DS3505
ZBYN,1989-09-20 11:00,ZBYN 201100Z AUTO 09004KT 7SM 18/13 A2988 RMK T01800130 IEM_DS3505
ZBYN,1989-09-20 12:00,ZBYN 201200Z AUTO 32004KT 6SM 16/11 RMK SLP123 T01590107 52014 IEM_DS3505
ZBYN,1989-09-20 13:00,ZBYN 201300Z AUTO 23004KT 7SM 16/11 A2991 RMK T01600110 IEM_DS3505
ZBYN,1989-09-20 14:00,ZBYN 201400Z AUTO 17008KT 14/13 A2997 RMK T01400130 IEM_DS3505
ZBYN,1989-09-20 15:00,ZBYN 201500Z AUTO 22004KT 5SM 12/12 RMK SLP145 T01250121 52016 IEM_DS3505
ZBYN,1989-09-20 16:00,ZBYN 201600Z AUTO 35006KT 4SM 12/12 A3000 RMK T01200120 IEM_DS3505
ZBYN,1989-09-20 18:00,ZBYN 201800Z AUTO 00000KT 5SM 12/11 RMK 60024 SLP134 T01150111 40213//// 57002 IEM_DS3505
ZBYN,1989-09-20 20:00,ZBYN 202000Z AUTO 32006KT 3SM 12/11 A2997 RMK T01200110 IEM_DS3505
ZBYN,1989-09-20 21:00,ZBYN 202100Z AUTO 00000KT 4SM 12/11 RMK SLP117 T01160112 57013 IEM_DS3505
ZBYN,1989-09-20 23:00,ZBYN 202300Z AUTO 10008KT 1SM 11/10 A2994 RMK T01100100 IEM_DS3505
ZBYN,1989-09-21 00:00,ZBYN 210000Z AUTO 00000KT 4SM 12/12 RMK 60004 SLP136 T01250120 52011 IEM_DS3505
ZBYN,1989-09-21 01:00,ZBYN 210100Z AUTO 15004KT 3SM 15/12 A2997 RMK T01500120 IEM_DS3505
ZBYN,1989-09-21 02:00,ZBYN 210200Z AUTO 00000KT 7SM 17/13 A3000 RMK T01700130 IEM_DS3505
ZBYN,1989-09-21 03:00,ZBYN 210300Z AUTO 00000KT 6SM 18/14 RMK SLP135 T01830139 52003 IEM_DS3505
ZBYN,1989-09-21 04:00,ZBYN 210400Z AUTO 22006KT 7SM 20/14 A2997 RMK T02000140 IEM_DS3505
ZBYN,1989-09-21 05:00,ZBYN 210500Z AUTO 21006KT 7SM 22/13 A2994 RMK T02200130 IEM_DS3505
ZBYN,1989-09-21 06:00,ZBYN 210600Z AUTO 16004KT 6SM 22/14 A2991 RMK SLP105 T02220140 4////0100 57023 IEM_DS3505
ZBYN,1989-09-21 07:00,ZBYN 210700Z AUTO 00000KT 7SM 24/14 A2988 RMK T02400140 IEM_DS3505
ZBYN,1989-09-21 09:00,ZBYN 210900Z AUTO 00000KT 6SM 23/16 A2985 RMK SLP090 T02340158 57012 IEM_DS3505
ZBYN,1989-09-21 10:00,ZBYN 211000Z AUTO 00000KT 6SM 23/17 A2988 RMK T02300170 IEM_DS3505
ZBYN,1989-09-21 11:00,ZBYN 211100Z AUTO 01002KT 6SM 18/15 A2988 RMK T01800150 IEM_DS3505
ZBYN,1989-09-21 12:00,ZBYN 211200Z AUTO 00000KT 6SM 17/16 A2994 RMK SLP119 T01680160 52018 IEM_DS3505
ZBYN,1989-09-21 13:00,ZBYN 211300Z AUTO 08012KT 7SM 18/13 A2994 RMK T01800130 IEM_DS3505
ZBYN,1989-09-21 14:00,ZBYN 211400Z AUTO 00000KT 7SM 17/13 A2997 RMK T01700130 IEM_DS3505
ZBYN,1989-09-21 15:00,ZBYN 211500Z AUTO 00000KT 4SM 14/13 A2997 RMK SLP131 T01410132 52016 IEM_DS3505
ZBYN,1989-09-21 16:00,ZBYN 211600Z AUTO 09004KT 7SM 15/12 A3000 RMK T01500120 IEM_DS3505
ZBYN,1989-09-21 17:00,ZBYN 211700Z AUTO 09004KT 7SM 15/12 A3000 RMK T01500120 IEM_DS3505
ZBYN,1989-09-21 18:00,ZBYN 211800Z AUTO 00000KT 4SM 12/12 RMK SLP135 T01240119 40240//// 52006 IEM_DS3505
ZBYN,1989-09-21 21:00,ZBYN 212100Z AUTO 00000KT 2 1/2SM 11/11 RMK SLP140 T01120112 52005 IEM_DS3505
ZBYN,1989-09-21 23:00,ZBYN 212300Z AUTO 00000KT 1 1/4SM 11/10 A3003 RMK T01100100 IEM_DS3505
ZBYN,1989-09-22 00:00,ZBYN 220000Z AUTO 00000KT 2 1/2SM 13/12 A3003 RMK SLP158 T01340125 52011 IEM_DS3505
ZBYN,1989-09-22 02:00,ZBYN 220200Z AUTO 00000KT 5SM 20/14 A3003 RMK T02000140 IEM_DS3505
ZBYN,1989-09-22 03:00,ZBYN 220300Z AUTO 00000KT 6SM 21/14 A3003 RMK SLP147 T02090141 57003 IEM_DS3505
ZBYN,1989-09-22 05:00,ZBYN 220500Z AUTO 20008KT 7SM 25/14 A2997 RMK T02500140 IEM_DS3505
ZBYN,1989-09-22 06:00,ZBYN 220600Z AUTO 18004KT 6SM 25/14 A2994 RMK SLP112 T02480145 4////0103 57029 IEM_DS3505
ZBYN,1989-09-22 07:00,ZBYN 220700Z AUTO 14008KT 7SM 26/13 A2991 RMK T02600130 IEM_DS3505
ZBYN,1989-09-22 08:00,ZBYN 220800Z AUTO 15010KT 6SM 27/13 A2988 RMK T02700130 IEM_DS3505
ZBYN,1989-09-22 09:00,ZBYN 220900Z AUTO 00000KT 6SM 24/18 A2988 RMK SLP098 T02390176 57016 IEM_DS3505
ZBYN,1989-09-22 10:00,ZBYN 221000Z AUTO 00000KT 6SM 24/15 A2988 RMK T02400150 IEM_DS3505
ZBYN,1989-09-22 11:00,ZBYN 221100Z AUTO 10006KT 7SM 21/15 RMK T02100150 IEM_DS3505
ZBYN,1989-09-22 12:00,ZBYN 221200Z AUTO 14004KT 6SM 20/14 A2991 RMK SLP110 T02010145 52009 IEM_DS3505
ZBYN,1989-09-22 13:00,ZBYN 221300Z AUTO 09012KT 7SM 20/14 A2994 RMK T02000140 IEM_DS3505
ZBYN,1989-09-22 14:00,ZBYN 221400Z AUTO 09008KT 7SM 20/14 A2997 RMK T02000140 IEM_DS3505
ZBYN,1989-09-22 15:00,ZBYN 221500Z AUTO 11006KT 6SM 19/14 A2997 RMK SLP114 T01920142 52013 IEM_DS3505
ZBYN,1989-09-22 16:00,ZBYN 221600Z AUTO 11006KT 7SM 19/14 A2997 RMK T01900140 IEM_DS3505
ZBYN,1989-09-22 18:00,ZBYN 221800Z AUTO 11006KT 5SM 17/16 RMK 60008 T01680158 40261//// 57002 IEM_DS3505
ZBYN,1989-09-22 21:00,ZBYN 222100Z AUTO 00000KT 5SM 17/16 RMK SLP105 T01690158 57005 IEM_DS3505
ZBYN,1989-09-22 22:00,ZBYN 222200Z AUTO 12004KT 6SM 17/16 A2994 RMK T01700160 IEM_DS3505
ZBYN,1989-09-22 23:00,ZBYN 222300Z AUTO 2 1/2SM 17/16 A2994 RMK T01700160 IEM_DS3505
ZBYN,1989-09-23 00:00,ZBYN 230000Z AUTO 00000KT 4SM 16/16 A2994 RMK 60012 SLP113 T01640162 52001 IEM_DS3505
ZBYN,1989-09-23 01:00,ZBYN 230100Z AUTO 00000KT 4SM 16/16 A2997 RMK 60012 70413 SLP113 T01640162 52001 IEM_DS3505
ZBYN,1989-09-23 02:00,ZBYN 230200Z AUTO 21006KT 2 1/2SM 17/16 A2997 RMK T01700160 IEM_DS3505
ZBYN,1989-09-23 03:00,ZBYN 230300Z AUTO 18004KT 5SM 17/16 A3000 RMK SLP126 T01660163 52011 IEM_DS3505
ZBYN,1989-09-23 04:00,ZBYN 230400Z AUTO 21004KT 4SM 17/16 A2997 RMK T01700160 IEM_DS3505
ZBYN,1989-09-23 05:00,ZBYN 230500Z AUTO 19006KT 4SM 18/17 A2997 RMK T01800170 IEM_DS3505
ZBYN,1989-09-23 06:00,ZBYN 230600Z AUTO 20004KT 5SM 18/17 A2994 RMK 60020 SLP115 T01830167 4////0161 57011 IEM_DS3505
ZBYN,1989-09-23 09:00,ZBYN 230900Z AUTO 20004KT 5SM 18/17 A2997 RMK SLP117 T01820172 52002 IEM_DS3505
ZBYN,1989-09-23 10:00,ZBYN 231000Z AUTO 00000KT 6SM 18/17 A2997 RMK T01800170 IEM_DS3505
ZBYN,1989-09-23 11:00,ZBYN 231100Z AUTO 00000KT 4SM 18/17 A2997 RMK T01800170 IEM_DS3505
ZBYN,1989-09-23 12:00,ZBYN 231200Z AUTO 00000KT 6SM 17/16 A3000 RMK 60001 SLP139 T01680158 52017 IEM_DS3505
ZBYN,1989-09-23 15:00,ZBYN 231500Z AUTO 32002KT 7SM 15/12 RMK SLP159 T01460125 52015 IEM_DS3505
ZBYN,1989-09-23 16:00,ZBYN 231600Z AUTO 00000KT 7SM 13/12 A3003 RMK T01300120 IEM_DS3505
ZBYN,1989-09-23 17:00,ZBYN 231700Z AUTO 00000KT 7SM 11/10 A3003 RMK T01100100 IEM_DS3505
ZBYN,1989-09-23 18:00,ZBYN 231800Z AUTO 34004KT 7SM 13/11 A3003 RMK SLP155 T01310109 40190//// 57003 IEM_DS3505
ZBYN,1989-09-23 19:00,ZBYN 231900Z AUTO 00000KT 6SM 12/11 A3003 RMK T01200110 IEM_DS3505
ZBYN,1989-09-23 21:00,ZBYN 232100Z AUTO 00000KT 7SM 12/10 A3006 RMK SLP162 T01220103 52005 IEM_DS3505
ZBYN,1989-09-23 22:00,ZBYN 232200Z AUTO 00000KT 3SM 10/10 A3006 RMK T01000100 IEM_DS3505
ZBYN,1989-09-23 23:00,ZBYN 232300Z AUTO 00000KT 4SM 10/09 A3009 RMK T01000090 IEM_DS3505
ZBYN,1989-09-24 00:00,ZBYN 240000Z AUTO 34004KT 6SM 13/10 A3009 RMK SLP179 T01290099 52014 IEM_DS3505
ZBYN,1989-09-24 01:00,ZBYN 240100Z AUTO 33008KT 6SM A3009 RMK IEM_DS3505
ZBYN,1989-09-24 03:00,ZBYN 240300Z AUTO 36004KT 6SM 19/11 A3009 RMK SLP167 T01890114 57005 IEM_DS3505
ZBYN,1989-09-24 04:00,ZBYN 240400Z AUTO 30006KT 6SM 21/11 A3006 RMK T02100110 IEM_DS3505
ZBYN,1989-09-24 05:00,ZBYN 240500Z AUTO 04004KT 7SM 22/12 A3006 RMK T02200120 IEM_DS3505
ZBYN,1989-09-24 06:00,ZBYN 240600Z AUTO 32002KT 7SM 22/12 A3003 RMK SLP146 T02210118 4////0107 57017 IEM_DS3505
ZBYN,1989-09-24 07:00,ZBYN 240700Z AUTO 33006KT 6SM 24/13 A3003 RMK T02400130 IEM_DS3505
ZBYN,1989-09-24 08:00,ZBYN 240800Z AUTO 00000KT 6SM 24/13 A3006 RMK T02400130 IEM_DS3505
ZBYN,1989-09-24 09:00,ZBYN 240900Z AUTO 00000KT 7SM 22/12 A3000 RMK SLP141 T02220118 57005 IEM_DS3505
ZBYN,1989-09-24 10:00,ZBYN 241000Z AUTO 17006KT 7SM 21/16 A3003 RMK T02100160 IEM_DS3505
ZBYN,1989-09-24 11:00,ZBYN 241100Z AUTO 13004KT 7SM 20/12 A3006 RMK T02000120 IEM_DS3505
ZBYN,1989-09-24 12:00,ZBYN 241200Z AUTO 00000KT 7SM 18/15 A3006 RMK SLP171 T01770147 52021 IEM_DS3505
ZBYN,1989-09-24 13:00,ZBYN 241300Z AUTO 09012KT 7SM 17/10 A3009 RMK T01700100 IEM_DS3505
ZBYN,1989-09-24 14:00,ZBYN 241400Z AUTO 09012KT 7SM 15/11 A3009 RMK T01500110 IEM_DS3505
ZBYN,1989-09-24 15:00,ZBYN 241500Z AUTO 04004KT 9SM 17/10 A3009 RMK SLP171 T01680101 52008 IEM_DS3505
ZBYN,1989-09-24 16:00,ZBYN 241600Z AUTO 08010KT 7SM A3009 RMK IEM_DS3505
ZBYN,1989-09-24 17:00,ZBYN 241700Z AUTO 06006KT 7SM 16/09 A3009 RMK T01600090 IEM_DS3505
ZBYN,1989-09-24 18:00,ZBYN 241800Z AUTO 34008KT 9SM 14/12 RMK 60004 SLP180 T01400120 40236//// 52009 IEM_DS3505
ZBYN,1989-09-24 21:00,ZBYN 242100Z AUTO 34004KT 4SM 12/11 A3015 RMK SLP189 T01180109 52005 IEM_DS3505
ZBYN,1989-09-24 22:00,ZBYN 242200Z AUTO 35004KT 4SM 12/10 A3015 RMK T01200100 IEM_DS3505
ZBYN,1989-09-24 23:00,ZBYN 242300Z AUTO 04008KT 7SM 13/09 A3015 RMK T01300090 IEM_DS3505
ZBYN,1989-09-25 00:00,ZBYN 250000Z AUTO 00000KT 9SM 13/10 A3021 RMK 60004 SLP212 T01270101 52016 IEM_DS3505
ZBYN,1989-09-25 01:00,ZBYN 250100Z AUTO 06010KT 7SM 13/10 A3021 RMK T01300100 IEM_DS3505
ZBYN,1989-09-25 02:00,ZBYN 250200Z AUTO 09010KT 7SM 13/10 A3021 RMK T01300100 IEM_DS3505
ZBYN,1989-09-25 03:00,ZBYN 250300Z AUTO 11006KT 7SM 13/09 A3021 RMK SLP222 T01260092 52007 IEM_DS3505
ZBYN,1989-09-25 04:00,ZBYN 250400Z AUTO 10016KT 7SM 12/05 A3021 RMK T01200050 IEM_DS3505
ZBYN,1989-09-25 05:00,ZBYN 250500Z AUTO 10008KT 6SM 13/05 A3021 RMK T01300050 IEM_DS3505
ZBYN,1989-09-25 06:00,ZBYN 250600Z AUTO 09004KT 16SM 13/04 A3018 RMK 60004 SLP209 T01310045 4////0113 57015 IEM_DS3505
ZBYN,1989-09-25 07:00,ZBYN 250700Z AUTO 10014KT 6SM 13/04 A3015 RMK T01300040 IEM_DS3505
ZBYN,1989-09-25 08:00,ZBYN 250800Z AUTO 11008KT 6SM 13/05 A3015 RMK T01300050 IEM_DS3505
ZBYN,1989-09-25 09:00,ZBYN 250900Z AUTO 11008KT 12SM 12/07 RMK SLP202 T01240068 57011 IEM_DS3505
ZBYN,1989-09-25 12:00,ZBYN 251200Z AUTO 36004KT 6SM 10/09 A3018 RMK 60012 SLP213 T00960086 52007 IEM_DS3505
ZBYN,1989-09-25 15:00,ZBYN 251500Z AUTO 00000KT 6SM 08/06 RMK SLP208 T00770064 IEM_DS3505
ZBYN,1989-09-25 16:00,ZBYN 251600Z AUTO 00000KT 3SM A3015 RMK IEM_DS3505
ZBYN,1989-09-25 18:00,ZBYN 251800Z AUTO 36004KT 6SM 08/08 A3012 RMK SLP196 T00820080 40141//// 57010 IEM_DS3505
ZBYN,1989-09-25 21:00,ZBYN 252100Z AUTO 00000KT 6SM 08/08 RMK SLP184 T00820080 57011 IEM_DS3505
ZBYN,1989-09-25 23:00,ZBYN 252300Z AUTO 00000KT 6SM 09/08 A3006 RMK T00900080 IEM_DS3505
ZBYN,1989-09-26 00:00,ZBYN 260000Z AUTO 00000KT 5SM 09/08 A3006 RMK 60035 SLP187 T00900080 57001 IEM_DS3505
ZBYN,1989-09-26 01:00,ZBYN 260100Z AUTO 00000KT 5SM 10/08 A3006 RMK T01000080 IEM_DS3505
ZBYN,1989-09-26 02:00,ZBYN 260200Z AUTO 21004KT 7SM 10/09 A3009 RMK T01000090 IEM_DS3505
ZBYN,1989-09-26 03:00,ZBYN 260300Z AUTO 18002KT 5SM 10/08 A3009 RMK SLP195 T01010085 52006 IEM_DS3505
ZBYN,1989-09-26 04:00,ZBYN 260400Z AUTO 18004KT 7SM 10/09 A3009 RMK T01000090 IEM_DS3505
ZBYN,1989-09-26 05:00,ZBYN 260500Z AUTO 18004KT 5SM 10/09 A3009 RMK T01000090 IEM_DS3505
ZBYN,1989-09-26 06:00,ZBYN 260600Z AUTO 18002KT 5SM 10/09 A3006 RMK 60004 SLP188 T01000094 4////0077 57006 IEM_DS3505
ZBYN,1989-09-26 07:00,ZBYN 260700Z AUTO 21006KT 7SM 11/10 A3006 RMK T01100100 IEM_DS3505
ZBYN,1989-09-26 08:00,ZBYN 260800Z AUTO 22006KT 7SM 11/10 A3006 RMK T01100100 IEM_DS3505
ZBYN,1989-09-26 09:00,ZBYN 260900Z AUTO 20004KT 5SM 11/11 A3006 RMK SLP180 T01140107 57004 IEM_DS3505
ZBYN,1989-09-26 11:00,ZBYN 261100Z AUTO 00000KT 4SM 11/10 A3009 RMK T01100100 IEM_DS3505
ZBYN,1989-09-26 12:00,ZBYN 261200Z AUTO 11002KT 6SM 10/10 A3009 RMK 60002 SLP195 T01020100 52012 IEM_DS3505
ZBYN,1989-09-26 13:00,ZBYN 261300Z AUTO 00000KT 2 1/2SM 10/10 A3012 RMK T01000100 IEM_DS3505
ZBYN,1989-09-26 14:00,ZBYN 261400Z AUTO 00000KT 1 1/4SM 10/09 A3012 RMK T01000090 IEM_DS3505
ZBYN,1989-09-26 15:00,ZBYN 261500Z AUTO 00000KT 3SM 10/09 A3015 RMK SLP206 T00960094 52011 IEM_DS3505
ZBYN,1989-09-26 16:00,ZBYN 261600Z AUTO 00000KT 1 1/2SM 10/09 A3015 RMK T01000090 IEM_DS3505
ZBYN,1989-09-26 17:00,ZBYN 261700Z AUTO 12004KT 1 1/2SM 09/09 A3015 RMK T00900090 IEM_DS3505
ZBYN,1989-09-26 18:00,ZBYN 261800Z AUTO 14002KT 4SM 09/09 RMK SLP207 T00910087 40118//// 54000 IEM_DS3505
ZBYN,1989-09-26 21:00,ZBYN 262100Z AUTO 00000KT 4SM 07/07 RMK SLP198 T00710069 57009 IEM_DS3505
ZBYN,1989-09-26 23:00,ZBYN 262300Z AUTO 13004KT 5SM 08/07 A3012 RMK T00800070 IEM_DS3505
ZBYN,1989-09-27 00:00,ZBYN 270000Z AUTO 14002KT 4SM 08/08 A3012 RMK T00800078 52009 IEM_DS3505
ZBYN,1989-09-27 01:00,ZBYN 270100Z AUTO 18002KT 6SM 12/09 A3015 RMK T01200090 IEM_DS3505
ZBYN,1989-09-27 02:00,ZBYN 270200Z AUTO 20006KT 6SM 14/11 A3015 RMK T01400110 IEM_DS3505
ZBYN,1989-09-27 03:00,ZBYN 270300Z AUTO 20004KT 3SM 14/11 A3015 RMK SLP199 T01400110 54000 IEM_DS3505
ZBYN,1989-09-27 05:00,ZBYN 270500Z AUTO 32016KT 6SM 21/04 A3009 RMK T02100040 IEM_DS3505
ZBYN,1989-09-27 06:00,ZBYN 270600Z AUTO 29010KT 12SM 21/M00 A3009 RMK SLP169 T02081001 4////0062 57018 IEM_DS3505
ZBYN,1989-09-27 07:00,ZBYN 270700Z AUTO 33016KT 6SM 22/M01 A3006 RMK T02201010 IEM_DS3505
ZBYN,1989-09-27 08:00,ZBYN 270800Z AUTO 30008KT 6SM 21/01 A3006 RMK T02100010 IEM_DS3505
ZBYN,1989-09-27 09:00,ZBYN 270900Z AUTO 32006KT 17SM 18/02 A3006 RMK SLP176 T01810024 57001 IEM_DS3505
ZBYN,1989-09-27 10:00,ZBYN 271000Z AUTO 29010KT 6SM 16/00 A3009 RMK T01600000 IEM_DS3505
ZBYN,1989-09-27 11:00,ZBYN 271100Z AUTO 33006KT 6SM 13/03 A3012 RMK T01300030 IEM_DS3505
ZBYN,1989-09-27 12:00,ZBYN 271200Z AUTO 29004KT 9SM 13/04 A3015 RMK SLP209 T01320036 52024 IEM_DS3505
ZBYN,1989-09-27 13:00,ZBYN 271300Z AUTO 35014KT 6SM 14/03 A3015 RMK T01400030 IEM_DS3505
ZBYN,1989-09-27 14:00,ZBYN 271400Z AUTO 35008KT 7SM 12/04 A3018 RMK T01200040 IEM_DS3505
ZBYN,1989-09-27 15:00,ZBYN 271500Z AUTO 02004KT 9SM 12/04 A3018 RMK SLP212 T01230045 52011 IEM_DS3505
ZBYN,1989-09-27 16:00,ZBYN 271600Z AUTO 03004KT 7SM 09/04 A3018 RMK T00900040 IEM_DS3505
ZBYN,1989-09-27 17:00,ZBYN 271700Z AUTO 15006KT 7SM 08/04 A3021 RMK T00800040 IEM_DS3505
ZBYN,1989-09-27 18:00,ZBYN 271800Z AUTO 00000KT 9SM 07/05 RMK SLP216 T00660046 40214//// 52005 IEM_DS3505
ZBYN,1989-09-27 21:00,ZBYN 272100Z AUTO 00000KT 9SM 04/03 RMK SLP232 T00360034 52006 IEM_DS3505
ZBYN,1989-09-27 23:00,ZBYN 272300Z AUTO 11002KT 7SM 03/02 A3024 RMK T00300020 IEM_DS3505
ZBYN,1989-09-28 00:00,ZBYN 280000Z AUTO 00000KT 5SM 06/05 A3024 RMK SLP251 T00560049 52013 IEM_DS3505
ZBYN,1989-09-28 01:00,ZBYN 280100Z AUTO 00000KT 7SM 11/06 A3027 RMK T01100060 IEM_DS3505
ZBYN,1989-09-28 02:00,ZBYN 280200Z AUTO 00000KT 7SM 15/05 A3027 RMK T01500050 IEM_DS3505
ZBYN,1989-09-28 03:00,ZBYN 280300Z AUTO 00000KT 6SM 16/04 A3027 RMK SLP238 T01610044 52002 IEM_DS3505
ZBYN,1989-09-28 04:00,ZBYN 280400Z AUTO 26004KT 7SM 19/03 A3024 RMK T01900030 IEM_DS3505
ZBYN,1989-09-28 05:00,ZBYN 280500Z AUTO 03008KT 7SM 20/02 A3024 RMK T02000020 IEM_DS3505
ZBYN,1989-09-28 06:00,ZBYN 280600Z AUTO 00000KT 7SM 20/05 A3021 RMK SLP216 T02050053 4////0023 57022 IEM_DS3505
ZBYN,1989-09-28 07:00,ZBYN 280700Z AUTO 00000KT 7SM 22/04 A3021 RMK T02200040 IEM_DS3505
ZBYN,1989-09-28 09:00,ZBYN 280900Z AUTO 00000KT 7SM 20/06 A3018 RMK SLP206 T02050061 57013 IEM_DS3505
ZBYN,1989-09-28 10:00,ZBYN 281000Z AUTO 00000KT 7SM 18/08 A3018 RMK T01800080 IEM_DS3505
ZBYN,1989-09-28 11:00,ZBYN 281100Z AUTO 18004KT 7SM 14/09 A3018 RMK T01400090 IEM_DS3505
ZBYN,1989-09-28 12:00,ZBYN 281200Z AUTO 00000KT 7SM 11/09 RMK SLP235 T01080089 IEM_DS3505
ZBYN,1989-09-28 13:00,ZBYN 281300Z AUTO 00000KT 7SM 10/07 A3021 RMK T01000070 IEM_DS3505
ZBYN,1989-09-28 15:00,ZBYN 281500Z AUTO 00000KT 7SM 08/07 A3021 RMK SLP230 T00760070 52007 IEM_DS3505
ZBYN,1989-09-28 16:00,ZBYN 281600Z AUTO 00000KT 6SM 07/06 A3024 RMK T00700060 IEM_DS3505
ZBYN,1989-09-28 17:00,ZBYN 281700Z AUTO 00000KT 4SM 06/06 A3024 RMK T00600060 IEM_DS3505
ZBYN,1989-09-28 18:00,ZBYN 281800Z AUTO 00000KT 7SM 06/06 RMK SLP225 T00640060 40214//// 54000 IEM_DS3505
ZBYN,1989-09-28 19:00,ZBYN 281900Z AUTO 00000KT 4SM 04/04 A3024 RMK T00400040 IEM_DS3505
ZBYN,1989-09-28 21:00,ZBYN 282100Z AUTO 00000KT 6SM 08/05 A3024 RMK SLP227 T00770053 52004 IEM_DS3505
ZBYN,1989-09-28 22:00,ZBYN 282200Z AUTO 00000KT 2 1/2SM 05/05 RMK T00500050 IEM_DS3505
ZBYN,1989-09-28 23:00,ZBYN 282300Z AUTO 3SM 04/04 A3024 RMK T00400040 IEM_DS3505
ZBYN,1989-09-29 00:00,ZBYN 290000Z AUTO 36004KT 6SM 09/06 A3027 RMK SLP254 T00920056 52012 IEM_DS3505
ZBYN,1989-09-29 01:00,ZBYN 290100Z AUTO 00000KT 4SM 12/08 A3027 RMK T01200080 IEM_DS3505
ZBYN,1989-09-29 02:00,ZBYN 290200Z AUTO 00000KT 6SM 15/09 A3027 RMK T01500090 IEM_DS3505
ZBYN,1989-09-29 03:00,ZBYN 290300Z AUTO 00000KT 6SM 17/07 A3027 RMK SLP245 T01700067 57001 IEM_DS3505
ZBYN,1989-09-29 04:00,ZBYN 290400Z AUTO 17006KT 6SM 20/07 A3027 RMK T02000070 IEM_DS3505
ZBYN,1989-09-29 05:00,ZBYN 290500Z AUTO 18008KT 6SM 21/05 A3024 RMK T02100050 IEM_DS3505
ZBYN,1989-09-29 06:00,ZBYN 290600Z AUTO 20004KT 6SM 20/07 A3021 RMK SLP214 T02020067 4////0049 57025 IEM_DS3505
ZBYN,1989-09-29 07:00,ZBYN 290700Z AUTO 21006KT 6SM 21/07 A3018 RMK T02100070 IEM_DS3505
ZBYN,1989-09-29 08:00,ZBYN 290800Z AUTO 20008KT 6SM A3018 RMK IEM_DS3505
ZBYN,1989-09-29 09:00,ZBYN 290900Z AUTO 16002KT 7SM 20/08 A3015 RMK SLP198 T02000082 57013 IEM_DS3505
ZBYN,1989-09-29 10:00,ZBYN 291000Z AUTO 6SM 19/09 A3015 RMK T01900090 IEM_DS3505
ZBYN,1989-09-29 11:00,ZBYN 291100Z AUTO 7SM 15/09 A3015 RMK T01500090 IEM_DS3505
ZBYN,1989-09-29 12:00,ZBYN 291200Z AUTO 14002KT 7SM 12/09 RMK SLP213 T01200093 52004 IEM_DS3505
ZBYN,1989-09-29 15:00,ZBYN 291500Z AUTO 00000KT 5SM 09/08 A3021 RMK SLP219 T00860082 52012 IEM_DS3505
ZBYN,1989-09-29 18:00,ZBYN 291800Z AUTO 00000KT 3SM 07/06 A3021 RMK SLP217 T00660064 40213//// 54000 IEM_DS3505
ZBYN,1989-09-29 19:00,ZBYN 291900Z AUTO 00000KT 7SM 06/06 A3021 RMK T00600060 IEM_DS3505
ZBYN,1989-09-29 20:00,ZBYN 292000Z AUTO 08004KT 7SM 06/05 A3021 RMK T00600050 IEM_DS3505
ZBYN,1989-09-29 21:00,ZBYN 292100Z AUTO 00000KT 3SM 06/06 A3021 RMK SLP221 T00580056 52002 IEM_DS3505
ZBYN,1989-09-29 22:00,ZBYN 292200Z AUTO 00000KT 05/05 A3021 RMK T00500050 IEM_DS3505
ZBYN,1989-09-29 23:00,ZBYN 292300Z AUTO 00000KT 3SM 05/05 A3024 RMK T00500050 IEM_DS3505
ZBYN,1989-09-30 00:00,ZBYN 300000Z AUTO 00000KT 3SM 08/07 A3024 RMK SLP239 T00750073 52007 IEM_DS3505
ZBYN,1989-09-30 01:00,ZBYN 300100Z AUTO 00000KT 5SM 12/10 RMK T01200100 IEM_DS3505
ZBYN,1989-09-30 02:00,ZBYN 300200Z AUTO 00000KT 7SM 15/08 A3024 RMK T01500080 IEM_DS3505
ZBYN,1989-09-30 03:00,ZBYN 300300Z AUTO 00000KT 6SM 17/09 A3024 RMK SLP230 T01720093 52001 IEM_DS3505
ZBYN,1989-09-30 05:00,ZBYN 300500Z AUTO 00000KT 7SM 21/10 A3018 RMK T02100100 IEM_DS3505
ZBYN,1989-09-30 06:00,ZBYN 300600Z AUTO 00000KT 6SM 22/10 A3015 RMK SLP197 T02250095 4////0044 57025 IEM_DS3505
ZBYN,1989-09-30 09:00,ZBYN 300900Z AUTO 00000KT 9SM 24/13 A3012 RMK SLP181 T02420127 57013 IEM_DS3505
ZBYN,1989-09-30 10:00,ZBYN 301000Z AUTO 00000KT 7SM 20/12 A3012 RMK T02000120 IEM_DS3505
ZBYN,1989-09-30 11:00,ZBYN 301100Z AUTO 00000KT 7SM 16/11 A3012 RMK T01600110 IEM_DS3505
ZBYN,1989-09-30 12:00,ZBYN 301200Z AUTO 00000KT 9SM 13/12 A3015 RMK SLP207 T01340122 52010 IEM_DS3505
ZBYN,1989-09-30 14:00,ZBYN 301400Z AUTO 09006KT 7SM 16/10 A3018 RMK T01600100 IEM_DS3505
ZBYN,1989-09-30 15:00,ZBYN 301500Z AUTO 00000KT 7SM 11/09 A3021 RMK SLP217 T01060093 52019 IEM_DS3505
ZBYN,1989-09-30 18:00,ZBYN 301800Z AUTO 00000KT 7SM 11/09 RMK SLP210 T01120091 40249//// 52003 IEM_DS3505
ZBYN,1989-09-30 21:00,ZBYN 302100Z AUTO 34004KT 6SM 11/09 RMK SLP220 T01070088 52010 IEM_DS3505
ZBYN,1989-10-01 00:00,ZBYN 010000Z AUTO 32002KT 5SM 12/10 A3027 RMK SLP250 T01160095 52013 IEM_DS3505
ZBYN,1989-10-01 01:00,ZBYN 010100Z AUTO 34008KT 1 1/4SM 14/11 A3030 RMK T01400110 IEM_DS3505
ZBYN,1989-10-01 02:00,ZBYN 010200Z AUTO 00000KT 4SM 17/12 A3030 RMK T01700120 IEM_DS3505
ZBYN,1989-10-01 03:00,ZBYN 010300Z AUTO 34002KT 6SM 19/ A3030 RMK SLP244 52001 IEM_DS3505
ZBYN,1989-10-01 04:00,ZBYN 010400Z AUTO 00000KT 6SM 22/10 A3027 RMK T02200100 IEM_DS3505
ZBYN,1989-10-01 05:00,ZBYN 010500Z AUTO 00000KT 7SM 23/07 A3024 RMK T02300070 IEM_DS3505
ZBYN,1989-10-01 06:00,ZBYN 010600Z AUTO 18004KT 7SM 23/07 A3021 RMK SLP212 T02340074 4////0090 57021 IEM_DS3505
ZBYN,1989-10-01 07:00,ZBYN 010700Z AUTO 21008KT 6SM 24/07 A3021 RMK T02400070 IEM_DS3505
ZBYN,1989-10-01 08:00,ZBYN 010800Z AUTO 23004KT 6SM 23/06 A3018 RMK T02300060 IEM_DS3505
ZBYN,1989-10-01 09:00,ZBYN 010900Z AUTO 00000KT 7SM 22/12 A3018 RMK SLP204 T02210124 57010 IEM_DS3505
ZBYN,1989-10-01 10:00,ZBYN 011000Z AUTO 18004KT 6SM 20/11 A3021 RMK T02000110 IEM_DS3505
ZBYN,1989-10-01 11:00,ZBYN 011100Z AUTO 14004KT 6SM 18/11 A3021 RMK T01800110 IEM_DS3505
ZBYN,1989-10-01 12:00,ZBYN 011200Z AUTO 00000KT 7SM 15/12 A3021 RMK SLP224 T01510123 52009 IEM_DS3505
ZBYN,1989-10-01 13:00,ZBYN 011300Z AUTO 10006KT 6SM 16/11 A3024 RMK T01600110 IEM_DS3505
ZBYN,1989-10-01 14:00,ZBYN 011400Z AUTO 12006KT 6SM 16/10 A3024 RMK T01600100 IEM_DS3505
ZBYN,1989-10-01 15:00,ZBYN 011500Z AUTO 00000KT 9SM 14/11 RMK SLP225 T01370112 52009 IEM_DS3505
ZBYN,1989-10-01 16:00,ZBYN 011600Z AUTO 10006KT 6SM 16/12 A3024 RMK T01600120 IEM_DS3505
ZBYN,1989-10-01 18:00,ZBYN 011800Z AUTO 00000KT 6SM 13/11 RMK SLP220 T01260109 40240//// 52001 IEM_DS3505
ZBYN,1989-10-01 21:00,ZBYN 012100Z AUTO 00000KT 4SM 12/10 RMK SLP224 T01150102 54000 IEM_DS3505
ZBYN,1989-10-01 23:00,ZBYN 012300Z AUTO 00000KT 1SM 11/10 A3027 RMK T01100100 IEM_DS3505
ZBYN,1989-10-02 00:00,ZBYN 020000Z AUTO 00000KT 6SM 11/11 A3030 RMK SLP247 T01120108 52010 IEM_DS3505
ZBYN,1989-10-02 01:00,ZBYN 020100Z AUTO 00000KT 2 1/2SM 15/11 A3030 RMK T01500110 IEM_DS3505
ZBYN,1989-10-02 02:00,ZBYN 020200Z AUTO 17004KT 6SM 16/12 A3030 RMK T01600120 IEM_DS3505
ZBYN,1989-10-02 03:00,ZBYN 020300Z AUTO 18004KT 6SM 19/13 A3027 RMK SLP231 T01860126 57005 IEM_DS3505
ZBYN,1989-10-02 04:00,ZBYN 020400Z AUTO 20004KT 6SM 20/11 A3027 RMK T02000110 IEM_DS3505
ZBYN,1989-10-02 05:00,ZBYN 020500Z AUTO 25004KT 6SM 22/09 A3024 RMK T02200090 IEM_DS3505
ZBYN,1989-10-02 06:00,ZBYN 020600Z AUTO 20002KT 6SM 22/10 RMK SLP199 T02250102 4////0102 57025 IEM_DS3505
ZBYN,1989-10-02 07:00,ZBYN 020700Z AUTO 22010KT 7SM 23/10 A3018 RMK T02300100 IEM_DS3505
ZBYN,1989-10-02 08:00,ZBYN 020800Z AUTO 23006KT 7SM 23/10 A3018 RMK T02300100 IEM_DS3505
ZBYN,1989-10-02 09:00,ZBYN 020900Z AUTO 00000KT 6SM 22/12 A3018 RMK SLP193 T02200115 57008 IEM_DS3505
ZBYN,1989-10-02 10:00,ZBYN 021000Z AUTO 00000KT 7SM 19/13 A3018 RMK T01900130 IEM_DS3505
ZBYN,1989-10-02 11:00,ZBYN 021100Z AUTO 00000KT 6SM 16/12 A3018 RMK T01600120 IEM_DS3505
ZBYN,1989-10-02 12:00,ZBYN 021200Z AUTO 00000KT 6SM 14/12 A3018 RMK SLP210 T01410116 52003 IEM_DS3505
ZBYN,1989-10-02 13:00,ZBYN 021300Z AUTO 09004KT 6SM 14/10 A3018 RMK T01400100 IEM_DS3505
ZBYN,1989-10-02 15:00,ZBYN 021500Z AUTO 18002KT 6SM 13/10 RMK SLP209 T01290105 52008 IEM_DS3505
ZBYN,1989-10-02 16:00,ZBYN 021600Z AUTO 00000KT 6SM 12/10 A3021 RMK T01200100 IEM_DS3505
ZBYN,1989-10-02 18:00,ZBYN 021800Z AUTO 00000KT 6SM 11/09 RMK SLP208 T01110094 40229//// 52003 IEM_DS3505
ZBYN,1989-10-02 19:00,ZBYN 021900Z AUTO 00000KT 6SM 11/09 A3021 RMK T01100090 IEM_DS3505
ZBYN,1989-10-02 21:00,ZBYN 022100Z AUTO 00000KT 6SM 08/08 RMK SLP210 T00830077 57003 IEM_DS3505
ZBYN,1989-10-02 22:00,ZBYN 022200Z AUTO 10004KT 7SM 09/08 A3021 RMK T00900080 IEM_DS3505
ZBYN,1989-10-02 23:00,ZBYN 022300Z AUTO 12006KT 7SM 09/08 A3021 RMK T00900080 IEM_DS3505
ZBYN,1989-10-03 00:00,ZBYN 030000Z AUTO 00000KT 5SM 10/09 A3021 RMK SLP227 T01000094 52006 IEM_DS3505
ZBYN,1989-10-03 01:00,ZBYN 030100Z AUTO 00000KT 6SM 14/10 A3021 RMK T01400100 IEM_DS3505
ZBYN,1989-10-03 02:00,ZBYN 030200Z AUTO 00000KT 6SM 16/09 A3024 RMK T01600090 IEM_DS3505
ZBYN,1989-10-03 03:00,ZBYN 030300Z AUTO 18002KT 5SM 18/09 A3021 RMK SLP219 T01820093 52003 IEM_DS3505
ZBYN,1989-10-03 04:00,ZBYN 030400Z AUTO 18006KT 6SM 20/08 RMK T02000080 IEM_DS3505
ZBYN,1989-10-03 05:00,ZBYN 030500Z AUTO 23006KT 6SM 21/08 A3021 RMK T02100080 IEM_DS3505
ZBYN,1989-10-03 06:00,ZBYN 030600Z AUTO 20004KT 6SM 21/09 A3015 RMK SLP192 T02140089 4////0073 57023 IEM_DS3505
ZBYN,1989-10-03 07:00,ZBYN 030700Z AUTO 19008KT 6SM 22/09 A3015 RMK T02200090 IEM_DS3505
ZBYN,1989-10-03 08:00,ZBYN 030800Z AUTO 23006KT 6SM 21/09 A3015 RMK T02100090 IEM_DS3505
ZBYN,1989-10-03 09:00,ZBYN 030900Z AUTO 14002KT 6SM 20/12 A3015 RMK SLP192 T01960122 57006 IEM_DS3505
ZBYN,1989-10-03 10:00,ZBYN 031000Z AUTO 00000KT 6SM 18/12 A3012 RMK T01800120 IEM_DS3505
ZBYN,1989-10-03 11:00,ZBYN 031100Z AUTO 14004KT 6SM 16/11 A3015 RMK T01600110 IEM_DS3505
ZBYN,1989-10-03 12:00,ZBYN 031200Z AUTO 00000KT 6SM 14/12 RMK SLP211 T01350119 52010 IEM_DS3505
ZBYN,1989-10-03 13:00,ZBYN 031300Z AUTO 11004KT 6SM 13/10 A3015 RMK T01300100 IEM_DS3505
ZBYN,1989-10-03 14:00,ZBYN 031400Z AUTO 00000KT 6SM 12/09 A3018 RMK T01200090 IEM_DS3505
ZBYN,1989-10-03 15:00,ZBYN 031500Z AUTO 00000KT 4SM 11/10 A3018 RMK SLP207 T01090100 52005 IEM_DS3505
ZBYN,1989-10-03 16:00,ZBYN 031600Z AUTO 09043KT 6SM 12/10 A3018 RMK T01200100 IEM_DS3505
ZBYN,1989-10-03 18:00,ZBYN 031800Z AUTO 00000KT 2 1/2SM 09/09 A3018 RMK SLP204 T00940092 54000 IEM_DS3505
ZBYN,1989-10-03 20:00,ZBYN 032000Z AUTO 00000KT 5SM 09/08 A3018 RMK T00900080 IEM_DS3505
ZBYN,1989-10-03 21:00,ZBYN 032100Z AUTO 00000KT 3SM 11/10 A3018 RMK SLP202 T01110096 57002 IEM_DS3505
ZBYN,1989-10-03 22:00,ZBYN 032200Z AUTO 00000KT 4SM 08/07 A3018 RMK T00800070 IEM_DS3505
ZBYN,1989-10-03 23:00,ZBYN 032300Z AUTO 00000KT 4SM 08/08 A3018 RMK T00800080 IEM_DS3505
ZBYN,1989-10-04 00:00,ZBYN 040000Z AUTO 00000KT 4SM 12/10 A3021 RMK SLP218 T01180097 52006 IEM_DS3505
ZBYN,1989-10-04 01:00,ZBYN 040100Z AUTO 00000KT 4SM 13/10 A3021 RMK T01300100 IEM_DS3505
ZBYN,1989-10-04 02:00,ZBYN 040200Z AUTO 00000KT 5SM 17/11 A3021 RMK T01700110 IEM_DS3505
ZBYN,1989-10-04 03:00,ZBYN 040300Z AUTO 00000KT 4SM 16/11 A3018 RMK SLP213 T01610107 57002 IEM_DS3505
ZBYN,1989-10-04 04:00,ZBYN 040400Z AUTO 34010KT 6SM 19/11 A3018 RMK T01900110 IEM_DS3505
ZBYN,1989-10-04 05:00,ZBYN 040500Z AUTO 35012KT 6SM 19/16 A3015 RMK T01900160 IEM_DS3505
ZBYN,1989-10-04 06:00,ZBYN 040600Z AUTO 34006KT 5SM 19/11 A3015 RMK SLP193 T01860110 4////0087 57016 IEM_DS3505
ZBYN,1989-10-04 07:00,ZBYN 040700Z AUTO 01012KT 6SM 18/11 A3012 RMK T01800110 IEM_DS3505
ZBYN,1989-10-04 08:00,ZBYN 040800Z AUTO 07012KT 5SM 18/12 A3015 RMK T01800120 IEM_DS3505
ZBYN,1989-10-04 09:00,ZBYN 040900Z AUTO 32004KT 5SM 15/12 A3018 RMK SLP218 T01480120 52019 IEM_DS3505
ZBYN,1989-10-04 10:00,ZBYN 041000Z AUTO 00000KT 2SM 15/14 A3021 RMK T01500140 IEM_DS3505
ZBYN,1989-10-04 11:00,ZBYN 041100Z AUTO 00000KT 2SM 13/13 A3024 RMK T01300130 IEM_DS3505
ZBYN,1989-10-04 12:00,ZBYN 041200Z AUTO 36002KT 4SM 13/12 A3024 RMK 60012 SLP235 T01300125 52014 IEM_DS3505
ZBYN,1989-10-04 14:00,ZBYN 041400Z AUTO 33006KT 2SM 13/12 A3027 RMK T01300120 IEM_DS3505
ZBYN,1989-10-04 15:00,ZBYN 041500Z AUTO 32004KT 4SM 12/11 RMK SLP235 T01230106 52006 IEM_DS3505
ZBYN,1989-10-04 16:00,ZBYN 041600Z AUTO 5SM 12/10 A3027 RMK T01200100 IEM_DS3505
ZBYN,1989-10-04 18:00,ZBYN 041800Z AUTO 00000KT 4SM 12/07 RMK 60000 SLP232 T01170069 40187//// 54000 IEM_DS3505
ZBYN,1989-10-04 19:00,ZBYN 041900Z AUTO 34008KT 6SM 11/05 A3027 RMK T01100050 IEM_DS3505
ZBYN,1989-10-04 20:00,ZBYN 042000Z AUTO 6SM 10/03 RMK T01000030 IEM_DS3505
ZBYN,1989-10-04 21:00,ZBYN 042100Z AUTO 36006KT 7SM 10/M00 RMK SLP239 T01041001 57002 IEM_DS3505
ZBYN,1989-10-04 22:00,ZBYN 042200Z AUTO 34010KT 6SM 08/M01 A3027 RMK T00801010 IEM_DS3505
ZBYN,1989-10-04 23:00,ZBYN 042300Z AUTO 33010KT 6SM 07/M01 A3027 RMK T00701010 IEM_DS3505
ZBYN,1989-10-05 00:00,ZBYN 050000Z AUTO 00000KT 9SM 09/02 A3030 RMK SLP261 T00870023 52015 IEM_DS3505
ZBYN,1989-10-05 02:00,ZBYN 050200Z AUTO 35012KT 6SM 14/M01 A3030 RMK T01401010 IEM_DS3505
ZBYN,1989-10-05 03:00,ZBYN 050300Z AUTO 07004G14KT 9SM 14/M01 A3030 RMK SLP252 T01421010 57001 IEM_DS3505
ZBYN,1989-10-05 04:00,ZBYN 050400Z AUTO 35004G14KT 6SM 16/M07 A3030 RMK T01601070 IEM_DS3505
ZBYN,1989-10-05 05:00,ZBYN 050500Z AUTO 00000KT 6SM 19/M02 A3021 RMK T01901020 IEM_DS3505
ZBYN,1989-10-05 06:00,ZBYN 050600Z AUTO 00000KT 9SM 18/03 A3021 RMK SLP217 T01750026 4////0063 57028 IEM_DS3505
ZBYN,1989-10-05 07:00,ZBYN 050700Z AUTO 00000KT 6SM 20/02 A3018 RMK T02000020 IEM_DS3505
ZBYN,1989-10-05 08:00,ZBYN 050800Z AUTO 14006KT 6SM 20/04 A3018 RMK T02000040 IEM_DS3505
ZBYN,1989-10-05 09:00,ZBYN 050900Z AUTO 29006KT 12SM 18/M03 A3018 RMK SLP209 T01831030 57008 IEM_DS3505
ZBYN,1989-10-05 12:00,ZBYN 051200Z AUTO 34006KT 12SM 13/M06 A3024 RMK SLP238 T01341062 52017 IEM_DS3505
ZBYN,1989-10-05 13:00,ZBYN 051300Z AUTO 00000KT 7SM 09/M11 A3027 RMK T00901110 IEM_DS3505
ZBYN,1989-10-05 14:00,ZBYN 051400Z AUTO 34002KT 7SM 08/M09 A3027 RMK T00801090 IEM_DS3505
ZBYN,1989-10-05 15:00,ZBYN 051500Z AUTO 00000KT 12SM 06/02 RMK SLP253 T00600017 52011 IEM_DS3505
ZBYN,1989-10-05 18:00,ZBYN 051800Z AUTO 00000KT 9SM 03/02 RMK SLP257 T00310016 40193//// 52004 IEM_DS3505
ZBYN,1989-10-05 19:00,ZBYN 051900Z AUTO 00000KT 6SM 02/M04 A3030 RMK T00201040 IEM_DS3505
ZBYN,1989-10-05 20:00,ZBYN 052000Z AUTO 00000KT 7SM 02/M02 A3030 RMK T00201020 IEM_DS3505
ZBYN,1989-10-05 21:00,ZBYN 052100Z AUTO 34004KT 7SM 04/00 RMK SLP259 T00420001 52005 IEM_DS3505
ZBYN,1989-10-05 22:00,ZBYN 052200Z AUTO 33010KT 7SM 01/M05 A3030 RMK T00101050 IEM_DS3505
ZBYN,1989-10-06 00:00,ZBYN 060000Z AUTO 34002KT 7SM 06/00 RMK SLP272 T00580004 52006 IEM_DS3505
ZBYN,1989-10-06 01:00,ZBYN 060100Z AUTO 00000KT 7SM 09/M02 A3033 RMK T00901020 IEM_DS3505
ZBYN,1989-10-06 02:00,ZBYN 060200Z AUTO 00000KT 7SM 13/M01 A3033 RMK T01301010 IEM_DS3505
ZBYN,1989-10-06 03:00,ZBYN 060300Z AUTO 32004KT 7SM 14/M02 A3030 RMK SLP268 T01361017 57003 IEM_DS3505
ZBYN,1989-10-06 04:00,ZBYN 060400Z AUTO 00000KT 7SM 16/M09 A3027 RMK T01601090 IEM_DS3505
ZBYN,1989-10-06 05:00,ZBYN 060500Z AUTO 00000KT 6SM 17/00 A3030 RMK T01700000 IEM_DS3505
ZBYN,1989-10-06 06:00,ZBYN 060600Z AUTO 20004KT 7SM 17/02 A3027 RMK SLP236 T01710019 4////0017 57028 IEM_DS3505
ZBYN,1989-10-06 07:00,ZBYN 060700Z AUTO 00000KT 6SM 18/M01 A3021 RMK T01801010 IEM_DS3505
ZBYN,1989-10-06 08:00,ZBYN 060800Z AUTO 23006KT 6SM 19/M01 A3021 RMK T01901010 IEM_DS3505
ZBYN,1989-10-06 09:00,ZBYN 060900Z AUTO 22004KT 9SM 18/02 A3021 RMK SLP223 T01760015 57009 IEM_DS3505
ZBYN,1989-10-06 10:00,ZBYN 061000Z AUTO 00000KT 7SM 15/06 A3021 RMK T01500060 IEM_DS3505
ZBYN,1989-10-06 11:00,ZBYN 061100Z AUTO 00000KT 7SM 11/06 A3018 RMK T01100060 IEM_DS3505
ZBYN,1989-10-06 12:00,ZBYN 061200Z AUTO 32002KT 7SM 10/04 A3021 RMK SLP245 T01040039 52011 IEM_DS3505
ZBYN,1989-10-06 13:00,ZBYN 061300Z AUTO 00000KT 7SM 09/04 A3024 RMK T00900040 IEM_DS3505
ZBYN,1989-10-06 14:00,ZBYN 061400Z AUTO 17004KT 7SM 07/04 A3024 RMK T00700040 IEM_DS3505
ZBYN,1989-10-06 15:00,ZBYN 061500Z AUTO 02002KT 7SM 10/04 RMK SLP240 T00990043 52007 IEM_DS3505
ZBYN,1989-10-06 18:00,ZBYN 061800Z AUTO 00000KT 7SM 08/06 RMK SLP240 T00840061 40181//// 52003 IEM_DS3505
ZBYN,1989-10-06 21:00,ZBYN 062100Z AUTO 00000KT 7SM 05/05 A3027 RMK SLP245 T00510047 54000 IEM_DS3505
ZBYN,1989-10-06 23:00,ZBYN 062300Z AUTO 00000KT 6SM 04/03 A3027 RMK T00400030 IEM_DS3505
ZBYN,1989-10-07 00:00,ZBYN 070000Z AUTO 00000KT 6SM 06/04 RMK SLP267 T00630045 52011 IEM_DS3505
ZBYN,1989-10-07 01:00,ZBYN 070100Z AUTO 00000KT 5SM 11/03 A3033 RMK T01100030 IEM_DS3505
ZBYN,1989-10-07 02:00,ZBYN 070200Z AUTO 34004KT 7SM 15/M05 A3030 RMK T01501050 IEM_DS3505
ZBYN,1989-10-07 03:00,ZBYN 070300Z AUTO 36006KT 11SM 14/M02 RMK SLP263 T01431023 52008 IEM_DS3505
ZBYN,1989-10-07 04:00,ZBYN 070400Z AUTO 35004KT 7SM 18/M09 A3030 RMK T01801090 IEM_DS3505
ZBYN,1989-10-07 05:00,ZBYN 070500Z AUTO 33006KT 7SM 19/M09 A3024 RMK T01901090 IEM_DS3505
ZBYN,1989-10-07 06:00,ZBYN 070600Z AUTO 32004KT 12SM 18/00 A3021 RMK SLP233 T01800002 4////0032 57024 IEM_DS3505
ZBYN,1989-10-07 09:00,ZBYN 070900Z AUTO 36006KT 16SM 16/M00 A3024 RMK SLP240 T01631005 57001 IEM_DS3505
ZBYN,1989-10-07 10:00,ZBYN 071000Z AUTO 35008KT 7SM 15/M03 A3024 RMK T01501030 IEM_DS3505
ZBYN,1989-10-07 12:00,ZBYN 071200Z AUTO 32004KT 12SM 12/M03 RMK SLP270 T01191028 52022 IEM_DS3505
ZBYN,1989-10-07 15:00,ZBYN 071500Z AUTO 32002KT 9SM 07/M02 RMK SLP280 T00721018 52014 IEM_DS3505
ZBYN,1989-10-07 16:00,ZBYN 071600Z AUTO 34004KT 7SM 05/M01 A3036 RMK T00501010 IEM_DS3505
ZBYN,1989-10-07 18:00,ZBYN 071800Z AUTO 34004KT 9SM 05/M02 RMK SLP281 T00511021 40184//// 52004 IEM_DS3505
ZBYN,1989-10-07 19:00,ZBYN 071900Z AUTO 00000KT 7SM 03/00 A3036 RMK T00300000 IEM_DS3505
ZBYN,1989-10-07 20:00,ZBYN 072000Z AUTO 00000KT 7SM 02/M01 A3036 RMK T00201010 IEM_DS3505
ZBYN,1989-10-07 21:00,ZBYN 072100Z AUTO 34004KT 9SM 04/M02 RMK SLP287 T00371020 54000 IEM_DS3505
ZBYN,1989-10-07 22:00,ZBYN 072200Z AUTO 00000KT 7SM 02/00 A3036 RMK T00200000 IEM_DS3505
ZBYN,1989-10-07 23:00,ZBYN 072300Z AUTO 00000KT 7SM 00/M01 A3039 RMK T00001010 IEM_DS3505
ZBYN,1989-10-08 00:00,ZBYN 080000Z AUTO 34004KT 9SM 05/M03 A3039 RMK T00481028 52009 IEM_DS3505
ZBYN,1989-10-08 01:00,ZBYN 080100Z AUTO 00000KT 7SM 08/01 A3039 RMK T00800010 IEM_DS3505
ZBYN,1989-10-08 02:00,ZBYN 080200Z AUTO 00000KT 7SM 11/M02 A3039 RMK T01101020 IEM_DS3505
ZBYN,1989-10-08 03:00,ZBYN 080300Z AUTO 02002KT 7SM 14/M01 A3036 RMK SLP277 T01401010 57018 IEM_DS3505
ZBYN,1989-10-08 04:00,ZBYN 080400Z AUTO 00000KT 7SM 16/M08 A3033 RMK T01601080 IEM_DS3505
ZBYN,1989-10-08 06:00,ZBYN 080600Z AUTO 16004KT 7SM 17/00 RMK SLP255 T01660004 4////0025 57027 IEM_DS3505
ZBYN,1989-10-08 07:00,ZBYN 080700Z AUTO 24008KT 7SM 18/01 A3024 RMK T01800010 IEM_DS3505
ZBYN,1989-10-08 08:00,ZBYN 080800Z AUTO 00000KT 7SM 19/01 A3021 RMK T01900010 IEM_DS3505
ZBYN,1989-10-08 09:00,ZBYN 080900Z AUTO 00000KT 7SM 17/01 RMK SLP227 T01730013 57017 IEM_DS3505
ZBYN,1989-10-08 10:00,ZBYN 081000Z AUTO 00000KT 7SM 16/06 A3018 RMK T01600060 IEM_DS3505
ZBYN,1989-10-08 12:00,ZBYN 081200Z AUTO 00000KT 7SM 09/05 A3021 RMK SLP236 T00880054 57003 IEM_DS3505
ZBYN,1989-10-08 13:00,ZBYN 081300Z AUTO 00000KT 7SM 07/04 A3021 RMK T00700040 IEM_DS3505
ZBYN,1989-10-08 15:00,ZBYN 081500Z AUTO 00000KT 5SM 06/05 RMK SLP237 T00590046 52009 IEM_DS3505
ZBYN,1989-10-08 18:00,ZBYN 081800Z AUTO 00000KT 6SM 04/04 A3021 RMK SLP222 T00450040 40181//// 57010 IEM_DS3505
ZBYN,1989-10-08 19:00,ZBYN 081900Z AUTO 00000KT 7SM 03/02 A3018 RMK T00300020 IEM_DS3505
ZBYN,1989-10-08 19:27,ZBYN 081927Z AUTO 00000KT 7SM 03/02 A3018 RMK T00300020 IEM_DS3505
ZBYN,1989-10-08 21:00,ZBYN 082100Z AUTO 32002KT 4SM 04/03 A3015 RMK SLP216 T00410034 57005 IEM_DS3505
ZBYN,1989-10-08 23:00,ZBYN 082300Z AUTO 00000KT 3SM 04/02 A3015 RMK T00400020 IEM_DS3505
ZBYN,1989-10-09 00:00,ZBYN 090000Z AUTO 00000KT 5SM 06/04 A3018 RMK SLP229 T00560040 52001 IEM_DS3505
ZBYN,1989-10-09 01:00,ZBYN 090100Z AUTO 00000KT 4SM 10/05 A3018 RMK T01000050 IEM_DS3505
ZBYN,1989-10-09 02:00,ZBYN 090200Z AUTO 17004KT 6SM 14/04 A3018 RMK T01400040 IEM_DS3505
ZBYN,1989-10-09 03:00,ZBYN 090300Z AUTO 16004KT 6SM A3012 RMK SLP205 57012 IEM_DS3505
ZBYN,1989-10-09 06:00,ZBYN 090600Z AUTO 20004KT 5SM 18/07 A3006 RMK SLP169 T01780071 4////0029 57031 IEM_DS3505
ZBYN,1989-10-09 07:00,ZBYN 090700Z AUTO 20006KT 6SM 19/07 RMK T01900070 IEM_DS3505
ZBYN,1989-10-09 08:00,ZBYN 090800Z AUTO 19008KT 6SM 18/07 A3000 RMK T01800070 IEM_DS3505
ZBYN,1989-10-09 09:00,ZBYN 090900Z AUTO 14004KT 5SM 17/09 RMK SLP154 T01700091 57015 IEM_DS3505
ZBYN,1989-10-09 10:00,ZBYN 091000Z AUTO 14002KT 6SM 17/09 A2997 RMK T01700090 IEM_DS3505
ZBYN,1989-10-09 12:00,ZBYN 091200Z AUTO 16/09 RMK SLP154 T01550092 54000 IEM_DS3505
ZBYN,1989-10-09 15:00,ZBYN 091500Z AUTO 11004KT 6SM 13/08 RMK SLP150 T01320080 52007 IEM_DS3505
ZBYN,1989-10-09 17:26,ZBYN 091726Z AUTO 00000KT 6SM 11/11 A3000 RMK T01100110 IEM_DS3505
ZBYN,1989-10-09 18:00,ZBYN 091800Z AUTO 00000KT 6SM 10/01 RMK SLP149 T00980014 40183//// 57002 IEM_DS3505
ZBYN,1989-10-09 21:00,ZBYN 092100Z AUTO 00000KT 6SM 07/07 RMK SLP156 T00720066 52001 IEM_DS3505
ZBYN,1989-10-09 21:16,ZBYN 092116Z AUTO 05002G12KT 6SM 08/08 A2997 RMK T00800080 IEM_DS3505
ZBYN,1989-10-09 21:41,ZBYN 092141Z AUTO 00000KT 6SM 08/07 A2997 RMK T00800070 IEM_DS3505
ZBYN,1989-10-09 22:00,ZBYN 092200Z AUTO 00000KT 5SM 06/05 A3000 RMK T00600050 IEM_DS3505
ZBYN,1989-10-10 00:00,ZBYN 100000Z AUTO 00000KT 6SM 08/08 A3003 RMK SLP168 T00840080 52012 IEM_DS3505
ZBYN,1989-10-10 01:00,ZBYN 100100Z AUTO 00000KT 5SM 12/09 A3006 RMK T01200090 IEM_DS3505
ZBYN,1989-10-10 02:00,ZBYN 100200Z AUTO 29014G25KT 7SM 17/03 A3006 RMK T01700030 IEM_DS3505
ZBYN,1989-10-10 03:00,ZBYN 100300Z AUTO 27010KT 9SM 17/M02 A3003 RMK SLP163 T01671022 52004 IEM_DS3505
ZBYN,1989-10-10 04:00,ZBYN 100400Z AUTO 27027KT 7SM 18/M04 A3006 RMK T01801040 IEM_DS3505
ZBYN,1989-10-10 06:00,ZBYN 100600Z AUTO 29010KT 12SM 18/M02 RMK SLP153 T01801019 4////0046 57010 IEM_DS3505
ZBYN,1989-10-10 09:00,ZBYN 100900Z AUTO 29010KT 12SM 16/01 RMK SLP160 T01640011 54000 IEM_DS3505
ZBYN,1989-10-10 12:00,ZBYN 101200Z AUTO 00000KT 12SM 09/04 RMK SLP188 T00920045 52016 IEM_DS3505
ZBYN,1989-10-10 13:00,ZBYN 101300Z AUTO 00000KT 7SM 08/02 A3006 RMK T00800020 IEM_DS3505
ZBYN,1989-10-10 15:00,ZBYN 101500Z AUTO 00000KT 11SM 06/04 RMK SLP189 T00620035 52009 IEM_DS3505
ZBYN,1989-10-10 17:00,ZBYN 101700Z AUTO 00000KT 7SM 05/03 A3009 RMK T00500030 IEM_DS3505
ZBYN,1989-10-10 18:00,ZBYN 101800Z AUTO 00000KT 9SM 03/03 A3009 RMK SLP194 T00330028 40186//// 52003 IEM_DS3505
ZBYN,1989-10-10 19:00,ZBYN 101900Z AUTO 00000KT 7SM 03/02 A3009 RMK T00300020 IEM_DS3505
ZBYN,1989-10-10 20:00,ZBYN 102000Z AUTO 00000KT 7SM 03/03 A3009 RMK T00300030 IEM_DS3505
ZBYN,1989-10-10 21:00,ZBYN 102100Z AUTO 00000KT 9SM 02/01 A3009 RMK SLP200 T00220012 52001 IEM_DS3505
ZBYN,1989-10-10 22:00,ZBYN 102200Z AUTO 00000KT 7SM 01/01 A3012 RMK T00100010 IEM_DS3505
ZBYN,1989-10-10 23:00,ZBYN 102300Z AUTO 00000KT 7SM 01/01 A3012 RMK T00100010 IEM_DS3505
ZBYN,1989-10-11 00:00,ZBYN 110000Z AUTO 00000KT 9SM 05/02 RMK SLP228 T00500021 52019 IEM_DS3505
ZBYN,1989-10-11 02:00,ZBYN 110200Z AUTO 33002KT 7SM 14/M03 A3021 RMK T01401030 IEM_DS3505
ZBYN,1989-10-11 03:00,ZBYN 110300Z AUTO 36006KT 9SM 14/02 A3021 RMK SLP230 T01350015 52010 IEM_DS3505
ZBYN,1989-10-11 04:00,ZBYN 110400Z AUTO 00000KT 7SM 16/M05 A3018 RMK T01601050 IEM_DS3505
ZBYN,1989-10-11 06:00,ZBYN 110600Z AUTO 18004KT 6SM 17/04 A3012 RMK SLP205 T01690037 4////0012 57022 IEM_DS3505
ZBYN,1989-10-11 08:00,ZBYN 110800Z AUTO 19002KT 7SM 19/M03 A3009 RMK T01901030 IEM_DS3505
ZBYN,1989-10-11 09:00,ZBYN 110900Z AUTO 00000KT 9SM 17/03 RMK SLP209 T01700030 52002 IEM_DS3505
ZBYN,1989-10-11 12:00,ZBYN 111200Z AUTO 32002KT 7SM 08/05 A3015 RMK SLP225 T00790049 52005 IEM_DS3505
ZBYN,1989-10-11 13:00,ZBYN 111300Z AUTO 00000KT 7SM 08/04 A3015 RMK T00800040 IEM_DS3505
ZBYN,1989-10-11 14:00,ZBYN 111400Z AUTO 00000KT 7SM 07/01 A3006 RMK T00700010 IEM_DS3505
ZBYN,1989-10-11 15:00,ZBYN 111500Z AUTO 32004KT 7SM 08/03 A3018 RMK SLP226 T00820027 52014 IEM_DS3505
ZBYN,1989-10-11 18:00,ZBYN 111800Z AUTO 04004KT 7SM 06/03 RMK SLP228 T00630026 40181//// 52004 IEM_DS3505
ZBYN,1989-10-11 21:00,ZBYN 112100Z AUTO 34004KT 7SM 06/01 RMK SLP229 T00610013 52001 IEM_DS3505
ZBYN,1989-10-12 00:00,ZBYN 120000Z AUTO 36004KT 11SM 07/02 RMK SLP256 T00700018 52012 IEM_DS3505
ZBYN,1989-10-12 02:00,ZBYN 120200Z AUTO 35006KT 7SM 14/M02 A3024 RMK T01401020 IEM_DS3505
ZBYN,1989-10-12 03:00,ZBYN 120300Z AUTO 00000KT 7SM 15/03 A3024 RMK SLP244 T01540031 52003 IEM_DS3505
ZBYN,1989-10-12 04:00,ZBYN 120400Z AUTO 00000KT 7SM 19/M02 A3021 RMK T01901020 IEM_DS3505
ZBYN,1989-10-12 05:00,ZBYN 120500Z AUTO 00000KT 7SM 20/M02 A3018 RMK T02001020 IEM_DS3505
ZBYN,1989-10-12 06:00,ZBYN 120600Z AUTO 00000KT 7SM 20/01 A3015 RMK SLP209 T02030006 4////0050 57028 IEM_DS3505
ZBYN,1989-10-12 07:00,ZBYN 120700Z AUTO 10004KT 7SM 22/01 A3012 RMK T02200010 IEM_DS3505
ZBYN,1989-10-12 08:00,ZBYN 120800Z AUTO 00000KT 7SM 23/M04 A3012 RMK T02301040 IEM_DS3505
ZBYN,1989-10-12 09:00,ZBYN 120900Z AUTO 25002KT 9SM 21/09 RMK SLP197 T02080090 57010 IEM_DS3505
ZBYN,1989-10-12 10:00,ZBYN 121000Z AUTO 00000KT 6SM 18/08 A3012 RMK T01800080 IEM_DS3505
ZBYN,1989-10-12 11:00,ZBYN 121100Z AUTO 00000KT 9SM 14/07 A3012 RMK SLP220 T01400070 52008 IEM_DS3505
ZBYN,1989-10-12 12:00,ZBYN 121200Z AUTO 00000KT 9SM 12/08 A3015 RMK SLP220 T01160076 52008 IEM_DS3505
ZBYN,1989-10-12 13:00,ZBYN 121300Z AUTO 06010KT 7SM 14/M03 A3018 RMK T01401030 IEM_DS3505
ZBYN,1989-10-12 14:00,ZBYN 121400Z AUTO 08008KT 7SM 14/03 A3018 RMK T01400030 IEM_DS3505
ZBYN,1989-10-12 15:00,ZBYN 121500Z AUTO 00000KT 9SM 09/07 A3021 RMK SLP222 T00940067 52011 IEM_DS3505
ZBYN,1989-10-12 16:00,ZBYN 121600Z AUTO 00000KT 9SM 10/05 A3021 RMK T00960049 52010 IEM_DS3505
ZBYN,1989-10-12 18:00,ZBYN 121800Z AUTO 00000KT 9SM 10/05 RMK SLP219 T00960047 40213//// 52005 IEM_DS3505
ZBYN,1989-10-12 21:00,ZBYN 122100Z AUTO 34004KT 7SM 08/05 RMK SLP224 T00810046 52003 IEM_DS3505
ZBYN,1989-10-12 22:00,ZBYN 122200Z AUTO 00000KT 4SM 05/05 A3024 RMK T00500050 IEM_DS3505
ZBYN,1989-10-12 23:00,ZBYN 122300Z AUTO 00000KT 2SM 05/05 A3021 RMK T00500050 IEM_DS3505
ZBYN,1989-10-13 00:00,ZBYN 130000Z AUTO 36004KT 6SM 09/05 A3024 RMK SLP246 T00880047 52008 IEM_DS3505
ZBYN,1989-10-13 01:00,ZBYN 130100Z AUTO 00000KT 2 1/2SM 11/05 A3024 RMK T01100050 IEM_DS3505
ZBYN,1989-10-13 02:00,ZBYN 130200Z AUTO 00000KT 4SM 15/05 A3024 RMK T01500050 IEM_DS3505
ZBYN,1989-10-13 03:00,ZBYN 130300Z AUTO 00000KT 5SM 17/07 A3021 RMK SLP230 T01680069 57006 IEM_DS3505
ZBYN,1989-10-13 04:00,ZBYN 130400Z AUTO 00000KT 6SM 20/03 A3018 RMK T02000030 IEM_DS3505
ZBYN,1989-10-13 06:00,ZBYN 130600Z AUTO 00000KT 7SM 22/M06 A3012 RMK T02201060 57033 IEM_DS3505
ZBYN,1989-10-13 07:00,ZBYN 130700Z AUTO 14004KT 6SM 22/06 A3009 RMK T02200060 IEM_DS3505
ZBYN,1989-10-13 08:00,ZBYN 130800Z AUTO 12010KT 6SM 21/04 A3009 RMK T02100040 IEM_DS3505
ZBYN,1989-10-13 09:00,ZBYN 130900Z AUTO 00000KT 6SM 19/11 A3006 RMK SLP176 T01940112 57015 IEM_DS3505
ZBYN,1989-10-13 10:00,ZBYN 131000Z AUTO 09006KT 6SM 20/06 A3006 RMK T02000060 IEM_DS3505
ZBYN,1989-10-13 11:00,ZBYN 131100Z AUTO 08008KT 6SM 18/03 A3009 RMK T01800030 IEM_DS3505
ZBYN,1989-10-13 12:00,ZBYN 131200Z AUTO 11006KT 6SM 17/07 A3009 RMK SLP186 T01690073 52007 IEM_DS3505
ZBYN,1989-10-13 13:00,ZBYN 131300Z AUTO 09010KT 6SM 16/04 A3012 RMK T01600040 IEM_DS3505
ZBYN,1989-10-13 14:00,ZBYN 131400Z AUTO 08008KT 6SM 16/06 A3012 RMK T01600060 IEM_DS3505
ZBYN,1989-10-13 15:00,ZBYN 131500Z AUTO 00000KT 6SM 13/08 A3012 RMK SLP191 T01280084 52010 IEM_DS3505
ZBYN,1989-10-13 16:00,ZBYN 131600Z AUTO 07004KT 6SM 15/05 A3012 RMK T01500050 IEM_DS3505
ZBYN,1989-10-13 17:00,ZBYN 131700Z AUTO 18002KT 4SM 14/13 A3015 RMK T01400130 IEM_DS3505
ZBYN,1989-10-13 18:00,ZBYN 131800Z AUTO 00000KT 4SM 12/12 A3015 RMK 60016 SLP196 T01210117 40220//// 52011 IEM_DS3505
ZBYN,1989-10-13 19:00,ZBYN 131900Z AUTO 04004KT 4SM 13/13 A3015 RMK T01300130 IEM_DS3505
ZBYN,1989-10-13 20:00,ZBYN 132000Z AUTO 07004KT 4SM 13/13 A3012 RMK T01300130 IEM_DS3505
ZBYN,1989-10-13 21:00,ZBYN 132100Z AUTO 29002KT 4SM 11/11 A3012 RMK SLP192 T01130109 57008 IEM_DS3505
ZBYN,1989-10-14 00:00,ZBYN 140000Z AUTO 00000KT 2 1/2SM 12/11 RMK 60024 SLP194 T01160114 57002 IEM_DS3505
ZBYN,1989-10-14 01:00,ZBYN 140100Z AUTO 00000KT 1/2SM 13/13 A3012 RMK T01300130 IEM_DS3505
ZBYN,1989-10-14 03:00,ZBYN 140300Z AUTO 00000KT 4SM 13/12 A3012 RMK SLP193 T01310120 57004 IEM_DS3505
ZBYN,1989-10-14 04:00,ZBYN 140400Z AUTO 00000KT 1 1/4SM 14/14 A3009 RMK T01400140 IEM_DS3505
ZBYN,1989-10-14 05:00,ZBYN 140500Z AUTO 00000KT 2 1/2SM 14/14 A3006 RMK T01400140 IEM_DS3505
ZBYN,1989-10-14 06:00,ZBYN 140600Z AUTO 00000KT 4SM 12/12 RMK 60016 SLP182 T01240119 4////0106 57013 IEM_DS3505
ZBYN,1989-10-14 07:00,ZBYN 140700Z AUTO 00000KT 1 1/4SM 13/13 A3006 RMK T01300130 IEM_DS3505
ZBYN,1989-10-14 08:00,ZBYN 140800Z AUTO 10002KT 1 1/2SM 13/13 A3003 RMK T01300130 IEM_DS3505
ZBYN,1989-10-14 09:00,ZBYN 140900Z AUTO 00000KT 5SM 13/12 RMK SLP170 T01260117 57011 IEM_DS3505
ZBYN,1989-10-14 10:00,ZBYN 141000Z AUTO 00000KT 2 1/2SM 13/13 A3003 RMK T01300130 IEM_DS3505
ZBYN,1989-10-14 11:00,ZBYN 141100Z AUTO 00000KT 4SM 13/13 A3006 RMK 60012 SLP182 T01300130 52010 IEM_DS3505
ZBYN,1989-10-14 12:00,ZBYN 141200Z AUTO 00000KT 4SM 12/12 A3006 RMK 60012 SLP182 T01210117 52010 IEM_DS3505
ZBYN,1989-10-14 13:00,ZBYN 141300Z AUTO 00000KT 2 1/2SM 13/13 A3006 RMK T01300130 IEM_DS3505
ZBYN,1989-10-14 14:00,ZBYN 141400Z AUTO 00000KT 1 1/4SM 12/12 A3009 RMK T01200120 IEM_DS3505
ZBYN,1989-10-14 15:00,ZBYN 141500Z AUTO 00000KT 4SM 12/11 A3009 RMK SLP185 T01170113 52005 IEM_DS3505
ZBYN,1989-10-14 17:00,ZBYN 141700Z AUTO 00000KT 1 1/4SM 13/13 A3009 RMK T01300130 IEM_DS3505
ZBYN,1989-10-14 18:00,ZBYN 141800Z AUTO 00000KT 3SM 12/12 RMK SLP195 T01210117 40133//// 52008 IEM_DS3505
ZBYN,1989-10-14 19:00,ZBYN 141900Z AUTO 28002KT 1SM 13/13 A3012 RMK T01300130 IEM_DS3505
ZBYN,1989-10-14 20:00,ZBYN 142000Z AUTO 35010KT 5SM 12/09 A3012 RMK T01200090 IEM_DS3505
ZBYN,1989-10-14 21:00,ZBYN 142100Z AUTO 02008KT 4SM 11/05 A3012 RMK SLP205 T01090048 52008 IEM_DS3505
ZBYN,1989-10-14 23:00,ZBYN 142300Z AUTO 36014KT 7SM 09/02 A3018 RMK T00900020 IEM_DS3505
ZBYN,1989-10-15 00:00,ZBYN 150000Z AUTO 36008KT 12SM 09/02 A3021 RMK SLP235 T00900021 52024 IEM_DS3505
ZBYN,1989-10-15 02:00,ZBYN 150200Z AUTO 35014G23KT 6SM 10/01 A3027 RMK T01000010 IEM_DS3505
ZBYN,1989-10-15 03:00,ZBYN 150300Z AUTO 36010KT 9SM 10/02 A3030 RMK T00990019 52027 IEM_DS3505
ZBYN,1989-10-15 05:00,ZBYN 150500Z AUTO 33017G27KT 6SM 13/01 A3030 RMK T01300010 IEM_DS3505
ZBYN,1989-10-15 06:00,ZBYN 150600Z AUTO 36010KT 12SM 11/01 A3030 RMK SLP257 T01100011 4////0042 57004 IEM_DS3505
ZBYN,1989-10-15 07:00,ZBYN 150700Z AUTO 36012G21KT 6SM 11/00 A3030 RMK T01100000 IEM_DS3505
ZBYN,1989-10-15 08:00,ZBYN 150800Z AUTO 02010KT 6SM 11/M02 A3030 RMK T01101020 IEM_DS3505
ZBYN,1989-10-15 09:00,ZBYN 150900Z AUTO 36010KT 12SM 10/M01 A3030 RMK SLP269 T01001010 52007 IEM_DS3505
ZBYN,1989-10-15 10:00,ZBYN 151000Z AUTO 34008KT 6SM 09/M02 A3033 RMK T00901020 IEM_DS3505
ZBYN,1989-10-15 12:00,ZBYN 151200Z AUTO 34006KT 12SM 08/00 A3039 RMK SLP309 T00780000 52030 IEM_DS3505
ZBYN,1989-10-15 15:00,ZBYN 151500Z AUTO 36004KT 9SM 06/M03 RMK SLP323 T00651028 52017 IEM_DS3505
ZBYN,1989-10-15 16:00,ZBYN 151600Z AUTO 34004KT 6SM 04/M02 A3047 RMK T00401020 IEM_DS3505
ZBYN,1989-10-15 17:00,ZBYN 151700Z AUTO 00000KT 6SM 03/M02 A3050 RMK T00301020 IEM_DS3505
ZBYN,1989-10-15 18:00,ZBYN 151800Z AUTO 00000KT 9SM 02/M00 A3050 RMK SLP347 T00191005 40123//// 52012 IEM_DS3505
ZBYN,1989-10-15 19:00,ZBYN 151900Z AUTO 00000KT 6SM 00/M05 A3050 RMK T00001050 IEM_DS3505
ZBYN,1989-10-15 21:00,ZBYN 152100Z AUTO 06004KT 9SM 03/M05 RMK SLP349 T00341048 52002 IEM_DS3505
ZBYN,1989-10-15 23:00,ZBYN 152300Z AUTO 36008KT 6SM 03/M10 A3053 RMK T00301100 IEM_DS3505
ZBYN,1989-10-16 00:00,ZBYN 160000Z AUTO 04004KT 9SM 04/M07 RMK SLP370 T00351066 52016 IEM_DS3505
ZBYN,1989-10-16 02:00,ZBYN 160200Z AUTO 35014G23KT 6SM 07/M11 A3059 RMK T00701110 IEM_DS3505
ZBYN,1989-10-16 03:00,ZBYN 160300Z AUTO 36004KT 12SM 07/M07 RMK SLP372 T00721069 52006 IEM_DS3505
ZBYN,1989-10-16 06:00,ZBYN 160600Z AUTO 09004KT 9SM 11/M04 A3047 RMK SLP339 T01081041 57032 IEM_DS3505
ZBYN,1989-10-16 07:00,ZBYN 160700Z AUTO 22002KT 7SM 12/M06 A3045 RMK T01201060 IEM_DS3505
ZBYN,1989-10-16 08:00,ZBYN 160800Z AUTO 22008KT 7SM 11/M06 A3045 RMK T01101060 IEM_DS3505
ZBYN,1989-10-16 09:00,ZBYN 160900Z AUTO 20002KT 9SM 10/M03 A3045 RMK SLP325 T00991026 57012 IEM_DS3505
ZBYN,1989-10-16 10:00,ZBYN 161000Z AUTO 19002KT 7SM 09/M02 A3045 RMK T00901020 IEM_DS3505
ZBYN,1989-10-16 12:00,ZBYN 161200Z AUTO 00000KT 9SM 03/00 A3045 RMK SLP343 T00340003 52007 IEM_DS3505
ZBYN,1989-10-16 13:00,ZBYN 161300Z AUTO 00000KT 7SM 02/00 A3045 RMK T00200000 IEM_DS3505
ZBYN,1989-10-16 14:00,ZBYN 161400Z AUTO 00000KT 7SM 02/01 A3045 RMK T00200010 IEM_DS3505
ZBYN,1989-10-16 15:00,ZBYN 161500Z AUTO 00000KT 7SM 03/M01 A3045 RMK SLP337 T00261006 57001 IEM_DS3505
ZBYN,1989-10-16 16:00,ZBYN 161600Z AUTO 00000KT 7SM 00/00 A3045 RMK T00000000 IEM_DS3505
ZBYN,1989-10-16 17:00,ZBYN 161700Z AUTO 10004KT 5SM M01/M02 A3047 RMK T10101020 IEM_DS3505
ZBYN,1989-10-16 18:00,ZBYN 161800Z AUTO 00000KT 6SM M01/M01 A3045 RMK SLP338 T10091012 40113//// 52001 IEM_DS3505
ZBYN,1989-10-16 20:00,ZBYN 162000Z AUTO 09004KT 4SM M02/M03 A3045 RMK T10201030 IEM_DS3505
ZBYN,1989-10-16 21:00,ZBYN 162100Z AUTO 00000KT 4SM M02/M02 A3045 RMK SLP329 T10151021 57001 IEM_DS3505
ZBYN,1989-10-16 22:00,ZBYN 162200Z AUTO 00000KT 6SM M03/M06 A3042 RMK T10301060 IEM_DS3505
ZBYN,1989-10-16 23:00,ZBYN 162300Z AUTO 00000KT 6SM M03/M03 A3045 RMK T10301030 IEM_DS3505
ZBYN,1989-10-17 00:00,ZBYN 170000Z AUTO 00000KT 5SM 00/M01 A3042 RMK SLP333 T00001014 57004 IEM_DS3505
ZBYN,1989-10-17 02:00,ZBYN 170200Z AUTO 22002KT 6SM 07/M02 A3042 RMK T00701020 IEM_DS3505
ZBYN,1989-10-17 03:00,ZBYN 170300Z AUTO 22002KT 5SM 09/01 A3036 RMK SLP308 T00870012 57010 IEM_DS3505
ZBYN,1989-10-17 05:00,ZBYN 170500Z AUTO 10002KT 6SM 13/M03 A3030 RMK T01301030 IEM_DS3505
ZBYN,1989-10-17 06:00,ZBYN 170600Z AUTO 14006KT 6SM 13/03 RMK SLP270 T01340031 4////1040 57033 IEM_DS3505
ZBYN,1989-10-17 07:00,ZBYN 170700Z AUTO 17004KT 6SM 15/ A3021 RMK IEM_DS3505
ZBYN,1989-10-17 09:00,ZBYN 170900Z AUTO 00000KT 9SM 13/02 A3018 RMK SLP245 T01290021 57024 IEM_DS3505
ZBYN,1989-10-17 10:00,ZBYN 171000Z AUTO 00000KT 6SM 10/00 A3018 RMK T01000000 IEM_DS3505
ZBYN,1989-10-17 11:00,ZBYN 171100Z AUTO 11002KT 6SM 07/00 A3018 RMK T00700000 IEM_DS3505
ZBYN,1989-10-17 12:00,ZBYN 171200Z AUTO 00000KT 7SM 06/01 A3018 RMK SLP250 T00640008 57004 IEM_DS3505
ZBYN,1989-10-17 13:00,ZBYN 171300Z AUTO 09002KT 6SM 05/01 A3018 RMK T00500010 IEM_DS3505
ZBYN,1989-10-17 14:00,ZBYN 171400Z AUTO 00000KT 6SM 06/M02 A3021 RMK T00601020 IEM_DS3505
ZBYN,1989-10-17 15:00,ZBYN 171500Z AUTO 00000KT 7SM 05/02 RMK SLP238 T00500024 52001 IEM_DS3505
ZBYN,1989-10-17 17:00,ZBYN 171700Z AUTO 10002KT 6SM 07/M01 A3018 RMK T00701010 IEM_DS3505
ZBYN,1989-10-17 18:00,ZBYN 171800Z AUTO 00000KT 5SM 05/04 A3021 RMK SLP231 T00490035 40144//// 52001 IEM_DS3505
ZBYN,1989-10-17 20:00,ZBYN 172000Z AUTO 00000KT 6SM 06/02 A3015 RMK T00600020 IEM_DS3505
ZBYN,1989-10-17 21:00,ZBYN 172100Z AUTO 00000KT 5SM 05/04 A3015 RMK SLP221 T00490035 57010 IEM_DS3505
ZBYN,1989-10-17 23:00,ZBYN 172300Z AUTO 15002KT 6SM 07/02 A3015 RMK T00700020 IEM_DS3505
ZBYN,1989-10-18 00:00,ZBYN 180000Z AUTO 11004KT 5SM 06/03 A3018 RMK SLP230 T00560031 57001 IEM_DS3505
ZBYN,1989-10-18 01:19,ZBYN 180119Z AUTO 00000KT 6SM 09/01 A3018 RMK T00900010 IEM_DS3505
ZBYN,1989-10-18 02:00,ZBYN 180200Z AUTO 20010KT 6SM 09/02 A3018 RMK T00900020 IEM_DS3505
ZBYN,1989-10-18 03:00,ZBYN 180300Z AUTO 18004KT 5SM 10/05 A3015 RMK SLP226 T00990048 52001 IEM_DS3505
ZBYN,1989-10-18 04:00,ZBYN 180400Z AUTO 19004KT 6SM 13/03 A3015 RMK T01300030 IEM_DS3505
ZBYN,1989-10-18 05:00,ZBYN 180500Z AUTO 00000KT 6SM 15/02 A3012 RMK T01500020 IEM_DS3505
ZBYN,1989-10-18 06:00,ZBYN 180600Z AUTO 29010KT 11SM 14/02 A3009 RMK SLP199 T01420020 4////0035 57018 IEM_DS3505
ZBYN,1989-10-18 07:00,ZBYN 180700Z AUTO 28014KT 7SM 14/M01 A3009 RMK T01401010 IEM_DS3505
ZBYN,1989-10-18 08:00,ZBYN 180800Z AUTO 28012KT 7SM 14/M04 A3009 RMK T01401040 IEM_DS3505
ZBYN,1989-10-18 09:00,ZBYN 180900Z AUTO 29010KT 12SM 12/01 RMK SLP205 T01200011 52002 IEM_DS3505
ZBYN,1989-10-18 10:00,ZBYN 181000Z AUTO 27006KT 6SM 12/01 A3012 RMK T01200010 IEM_DS3505
ZBYN,1989-10-18 11:00,ZBYN 181100Z AUTO 30004KT 6SM 08/03 A3012 RMK T00800030 IEM_DS3505
ZBYN,1989-10-18 12:00,ZBYN 181200Z AUTO 29002KT 12SM 09/02 A3015 RMK SLP224 T00910023 52014 IEM_DS3505
ZBYN,1989-10-18 13:00,ZBYN 181300Z AUTO 00000KT 6SM 07/03 A3015 RMK T00700030 IEM_DS3505
ZBYN,1989-10-18 14:00,ZBYN 181400Z AUTO 00000KT 6SM 05/02 A3018 RMK T00500020 IEM_DS3505
ZBYN,1989-10-18 15:00,ZBYN 181500Z AUTO 00000KT 9SM 05/03 A3018 RMK SLP234 T00540028 52010 IEM_DS3505
ZBYN,1989-10-18 18:00,ZBYN 181800Z AUTO 14004KT 9SM 04/03 RMK SLP248 T00450029 40145//// 52018 IEM_DS3505
ZBYN,1989-10-18 20:00,ZBYN 182000Z AUTO 00000KT 7SM 01/00 A3027 RMK T00100000 IEM_DS3505
ZBYN,1989-10-18 21:00,ZBYN 182100Z AUTO 00000KT 9SM 01/00 RMK SLP263 T00090004 52004 IEM_DS3505
ZBYN,1989-10-18 23:00,ZBYN 182300Z AUTO 22004KT 7SM M01/M02 A3033 RMK T10101020 IEM_DS3505
ZBYN,1989-10-19 00:00,ZBYN 190000Z AUTO 00000KT 04/02 RMK SLP292 T00400016 52027 IEM_DS3505
ZBYN,1989-10-19 02:00,ZBYN 190200Z AUTO 00000KT 7SM 11/01 A3036 RMK T01100010 IEM_DS3505
ZBYN,1989-10-19 03:00,ZBYN 190300Z AUTO 09004KT 5SM 12/03 RMK SLP286 T01220030 52002 IEM_DS3505
ZBYN,1989-10-19 04:00,ZBYN 190400Z AUTO 00000KT 7SM 15/M04 A3036 RMK T01501040 IEM_DS3505
ZBYN,1989-10-19 06:00,ZBYN 190600Z AUTO 16006KT 9SM 16/00 A3027 RMK SLP260 T01610005 4////1001 57019 IEM_DS3505
ZBYN,1989-10-19 07:00,ZBYN 190700Z AUTO 18006KT 6SM 18/M04 A3027 RMK T01801040 IEM_DS3505
ZBYN,1989-10-19 08:00,ZBYN 190800Z AUTO 17002KT 6SM 18/M06 A3024 RMK T01801060 IEM_DS3505
ZBYN,1989-10-19 09:00,ZBYN 190900Z AUTO 20006KT 9SM 15/01 A3024 RMK SLP251 T01530009 57015 IEM_DS3505
ZBYN,1989-10-19 10:00,ZBYN 191000Z AUTO 17006KT 6SM 13/02 A3024 RMK T01300020 IEM_DS3505
ZBYN,1989-10-19 11:00,ZBYN 191100Z AUTO 11002KT 6SM 09/01 A3024 RMK T00900010 IEM_DS3505
ZBYN,1989-10-19 12:00,ZBYN 191200Z AUTO 09002KT 9SM 08/02 A3027 RMK SLP265 T00830018 52006 IEM_DS3505
ZBYN,1989-10-19 15:00,ZBYN 191500Z AUTO 00000KT 6SM 03/01 RMK SLP271 T00300013 52010 IEM_DS3505
ZBYN,1989-10-19 16:00,ZBYN 191600Z AUTO 10004KT 6SM 04/00 A3030 RMK T00400000 IEM_DS3505
ZBYN,1989-10-19 17:00,ZBYN 191700Z AUTO 07004KT 6SM 04/00 A3030 RMK T00400000 IEM_DS3505
ZBYN,1989-10-19 18:00,ZBYN 191800Z AUTO 00000KT 6SM 01/00 RMK SLP269 T00110003 52002 IEM_DS3505
ZBYN,1989-10-19 19:00,ZBYN 191900Z AUTO 00000KT 7SM 01/M01 A3030 RMK T00101010 IEM_DS3505
ZBYN,1989-10-19 20:00,ZBYN 192000Z AUTO 16004KT 7SM 01/M02 A3027 RMK T00101020 IEM_DS3505
ZBYN,1989-10-19 21:00,ZBYN 192100Z AUTO 00000KT 4SM M00/M00 A3027 RMK T10041004 57005 IEM_DS3505
ZBYN,1989-10-20 00:00,ZBYN 200000Z AUTO 00000KT 4SM M00/M01 RMK SLP289 T10031006 52008 IEM_DS3505
ZBYN,1989-10-20 01:00,ZBYN 200100Z AUTO 00000KT 5SM 06/03 A3033 RMK T00600030 IEM_DS3505
ZBYN,1989-10-20 02:00,ZBYN 200200Z AUTO 15002KT 7SM 10/00 A3030 RMK T01000000 IEM_DS3505
ZBYN,1989-10-20 03:00,ZBYN 200300Z AUTO 16004KT 5SM 12/04 RMK SLP274 T01190035 57002 IEM_DS3505
ZBYN,1989-10-20 04:00,ZBYN 200400Z AUTO 11004KT 7SM 15/M02 A3027 RMK T01501020 IEM_DS3505
ZBYN,1989-10-20 05:00,ZBYN 200500Z AUTO 20004KT 7SM 17/M02 A3024 RMK T01701020 IEM_DS3505
ZBYN,1989-10-20 06:00,ZBYN 200600Z AUTO 16004KT 6SM 17/02 RMK SLP241 T01710016 4////1012 57025 IEM_DS3505
ZBYN,1989-10-20 07:00,ZBYN 200700Z AUTO 23004KT 7SM 19/M02 A3018 RMK T01901020 IEM_DS3505
ZBYN,1989-10-20 08:00,ZBYN 200800Z AUTO 23004KT 7SM 19/M03 A3018 RMK T01901030 IEM_DS3505
ZBYN,1989-10-20 09:00,ZBYN 200900Z AUTO 00000KT 12SM 17/05 A3015 RMK SLP229 T01660046 57014 IEM_DS3505
ZBYN,1989-10-20 11:00,ZBYN 201100Z AUTO 9SM RMK SLP259 40180//// 52005 IEM_DS3505
ZBYN,1989-10-20 12:00,ZBYN 201200Z AUTO 00000KT 9SM 08/05 A3021 RMK SLP258 T00770046 52012 IEM_DS3505
ZBYN,1989-10-20 13:00,ZBYN 201300Z AUTO 00000KT 7SM 05/04 A3024 RMK T00500040 IEM_DS3505
ZBYN,1989-10-20 14:00,ZBYN 201400Z AUTO 09002KT 7SM 06/02 A3024 RMK T00600020 IEM_DS3505
ZBYN,1989-10-20 15:00,ZBYN 201500Z AUTO 11002G14KT 9SM 05/03 A3027 RMK SLP258 T00490028 52015 IEM_DS3505
ZBYN,1989-10-20 18:00,ZBYN 201800Z AUTO 9SM RMK 52005 IEM_DS3505
ZBYN,1989-10-20 19:00,ZBYN 201900Z AUTO 00000KT 7SM 02/01 A3030 RMK T00200010 IEM_DS3505
ZBYN,1989-10-20 20:00,ZBYN 202000Z AUTO 00000KT 7SM 01/M02 A3027 RMK T00101020 IEM_DS3505
ZBYN,1989-10-20 21:00,ZBYN 202100Z AUTO 00000KT 5SM 02/M01 A3030 RMK SLP280 T00201010 52007 IEM_DS3505
ZBYN,1989-10-20 22:00,ZBYN 202200Z AUTO 00000KT 5SM 01/M01 A3030 RMK T00101010 IEM_DS3505
ZBYN,1989-10-20 23:00,ZBYN 202300Z AUTO 00000KT 7SM 01/M01 A3030 RMK T00101010 IEM_DS3505
ZBYN,1989-10-21 00:00,ZBYN 210000Z AUTO 00000KT 2 1/2SM 01/01 A3033 RMK SLP298 T00130010 IEM_DS3505
ZBYN,1989-10-21 01:00,ZBYN 210100Z AUTO 00000KT 7SM 07/03 A3036 RMK T00700030 IEM_DS3505
ZBYN,1989-10-21 03:00,ZBYN 210300Z AUTO 00000KT 4SM 14/02 A3033 RMK SLP281 T01420025 54000 IEM_DS3505
ZBYN,1989-10-21 04:00,ZBYN 210400Z AUTO 00000KT 6SM 17/02 A3030 RMK T01700020 IEM_DS3505
ZBYN,1989-10-21 05:00,ZBYN 210500Z AUTO 19004KT 6SM 19/01 A3027 RMK T01900010 IEM_DS3505
ZBYN,1989-10-21 06:00,ZBYN 210600Z AUTO 20004KT 4SM 19/03 A3024 RMK SLP249 T01890033 4////1003 57025 IEM_DS3505
ZBYN,1989-10-21 07:00,ZBYN 210700Z AUTO 17002KT 7SM 21/M01 A3024 RMK T02101010 IEM_DS3505
ZBYN,1989-10-21 08:00,ZBYN 210800Z AUTO 21004KT 6SM 21/M02 A3021 RMK T02101020 IEM_DS3505
ZBYN,1989-10-21 09:00,ZBYN 210900Z AUTO 20004KT 7SM 19/01 RMK SLP242 T01860009 57010 IEM_DS3505
ZBYN,1989-10-21 10:00,ZBYN 211000Z AUTO 00000KT 6SM 14/06 A3024 RMK T01400060 IEM_DS3505
ZBYN,1989-10-21 11:00,ZBYN 211100Z AUTO 06004KT 6SM 14/M02 A3024 RMK T01401020 IEM_DS3505
ZBYN,1989-10-21 12:00,ZBYN 211200Z AUTO 32002KT 7SM 11/05 A3024 RMK T01100050 52008 IEM_DS3505
ZBYN,1989-10-21 15:00,ZBYN 211500Z AUTO 00000KT 7SM 06/04 RMK SLP255 T00570039 52005 IEM_DS3505
ZBYN,1989-10-21 17:00,ZBYN 211700Z AUTO 00000KT 7SM 04/03 A3027 RMK T00400030 IEM_DS3505
ZBYN,1989-10-21 18:00,ZBYN 211800Z AUTO 00000KT 6SM 04/03 A3027 RMK SLP249 T00380033 57001 IEM_DS3505
ZBYN,1989-10-21 19:00,ZBYN 211900Z AUTO 00000KT 5SM RMK IEM_DS3505
ZBYN,1989-10-21 20:00,ZBYN 212000Z AUTO 00000KT 6SM 04/01 A3024 RMK T00400010 IEM_DS3505
ZBYN,1989-10-21 21:00,ZBYN 212100Z AUTO 00000KT 5SM 04/02 A3024 RMK SLP241 T00400020 57007 IEM_DS3505
ZBYN,1989-10-21 23:00,ZBYN 212300Z AUTO 00000KT 4SM 04/02 A3024 RMK T00400020 IEM_DS3505
ZBYN,1989-10-22 00:00,ZBYN 220000Z AUTO 00000KT 4SM 04/03 A3024 RMK SLP259 T00420030 52004 IEM_DS3505
ZBYN,1989-10-22 01:00,ZBYN 220100Z AUTO 00000KT 5SM 12/01 A3024 RMK T01200010 IEM_DS3505
ZBYN,1989-10-22 03:00,ZBYN 220300Z AUTO 00000KT 4SM 15/02 A3024 RMK SLP241 T01540020 57007 IEM_DS3505
ZBYN,1989-10-22 04:00,ZBYN 220400Z AUTO 00000KT 7SM 18/00 A3021 RMK T01800000 IEM_DS3505
ZBYN,1989-10-22 05:00,ZBYN 220500Z AUTO 00000KT 7SM 20/03 A3018 RMK T02000030 IEM_DS3505
ZBYN,1989-10-22 06:00,ZBYN 220600Z AUTO 18004KT 6SM 20/01 A3012 RMK SLP205 T01980014 4////0028 57029 IEM_DS3505
ZBYN,1989-10-22 07:00,ZBYN 220700Z AUTO 00000KT 6SM 21/01 A3012 RMK T02100010 IEM_DS3505
ZBYN,1989-10-22 08:00,ZBYN 220800Z AUTO 21002KT 6SM 22/00 A3009 RMK T02200000 IEM_DS3505
ZBYN,1989-10-22 09:00,ZBYN 220900Z AUTO 00000KT 7SM 18/06 A3009 RMK SLP192 T01770057 57014 IEM_DS3505
ZBYN,1989-10-22 11:00,ZBYN 221100Z AUTO 08002KT 6SM 13/05 A3012 RMK T01300050 IEM_DS3505
ZBYN,1989-10-22 12:00,ZBYN 221200Z AUTO 00000KT 7SM 12/06 RMK SLP208 T01230055 52006 IEM_DS3505
ZBYN,1989-10-22 14:00,ZBYN 221400Z AUTO 31006KT 6SM 13/00 A3012 RMK T01300000 IEM_DS3505
ZBYN,1989-10-22 14:51,ZBYN 221451Z AUTO 04006KT 6SM 17/M07 A3012 RMK T01701070 IEM_DS3505
ZBYN,1989-10-22 15:00,ZBYN 221500Z AUTO 00000KT 7SM 13/03 A3012 RMK SLP189 T01340028 52001 IEM_DS3505
ZBYN,1989-10-22 16:19,ZBYN 221619Z AUTO 33002KT 6SM 13/02 A3012 RMK T01300020 IEM_DS3505
ZBYN,1989-10-22 16:52,ZBYN 221652Z AUTO 24002KT 6SM 11/03 A3012 RMK T01100030 IEM_DS3505
ZBYN,1989-10-22 17:00,ZBYN 221700Z AUTO 33002KT 6SM 13/02 A3012 RMK T01300020 IEM_DS3505
ZBYN,1989-10-22 18:00,ZBYN 221800Z AUTO 00000KT 7SM 09/03 RMK SLP178 T00930028 40205//// 54000 IEM_DS3505
ZBYN,1989-10-22 21:00,ZBYN 222100Z AUTO 00000KT 6SM 07/02 RMK SLP192 T00710025 57003 IEM_DS3505
ZBYN,1989-10-23 00:00,ZBYN 230000Z AUTO 00000KT 4SM 05/03 A3012 RMK SLP211 T00460032 52005 IEM_DS3505
ZBYN,1989-10-23 01:00,ZBYN 230100Z AUTO 00000KT 4SM RMK SLP211 52005 IEM_DS3505
ZBYN,1989-10-23 01:10,ZBYN 230110Z AUTO 00000KT 5SM 09/01 A3015 RMK T00900010 IEM_DS3505
ZBYN,1989-10-23 01:12,ZBYN 230112Z AUTO 00000KT 5SM 09/01 A3015 RMK T00900010 IEM_DS3505
ZBYN,1989-10-23 01:13,ZBYN 230113Z AUTO 00000KT 5SM 09/01 A3015 RMK T00900010 IEM_DS3505
ZBYN,1989-10-23 03:00,ZBYN 230300Z AUTO 18002KT 4SM 17/02 RMK SLP184 T01680021 57004 IEM_DS3505
ZBYN,1989-10-23 06:00,ZBYN 230600Z AUTO 16006KT 5SM 21/00 A3000 RMK SLP145 T02130005 4////0024 57035 IEM_DS3505
ZBYN,1989-10-23 08:00,ZBYN 230800Z AUTO 21004KT 7SM 23/ A2994 RMK IEM_DS3505
ZBYN,1989-10-23 09:00,ZBYN 230900Z AUTO 16002KT 6SM 20/04 A2994 RMK SLP135 T01960042 57015 IEM_DS3505
ZBYN,1989-10-23 12:00,ZBYN 231200Z AUTO 00000KT 6SM 11/06 RMK SLP162 T01110060 52008 IEM_DS3505
ZBYN,1989-10-23 13:00,ZBYN 231300Z AUTO 00000KT 7SM 10/05 A2997 RMK T01000050 IEM_DS3505
ZBYN,1989-10-23 14:00,ZBYN 231400Z AUTO 00000KT 7SM 08/05 A3000 RMK T00800050 IEM_DS3505
ZBYN,1989-10-23 15:00,ZBYN 231500Z AUTO 00000KT 6SM 08/06 A2997 RMK SLP152 T00760055 52004 IEM_DS3505
ZBYN,1989-10-23 16:00,ZBYN 231600Z AUTO 10004KT 7SM 07/04 A2997 RMK T00700040 IEM_DS3505
ZBYN,1989-10-23 17:00,ZBYN 231700Z AUTO 09004KT 6SM 09/04 A2997 RMK T00900040 IEM_DS3505
ZBYN,1989-10-23 18:00,ZBYN 231800Z AUTO 00000KT 6SM 10/04 A2997 RMK T01000040 40220//// 57002 IEM_DS3505
ZBYN,1989-10-23 21:00,ZBYN 232100Z AUTO 00000KT 3SM 05/04 RMK SLP147 T00500041 57002 IEM_DS3505
ZBYN,1989-10-23 22:00,ZBYN 232200Z AUTO 00000KT 7SM 03/02 A2997 RMK T00300020 IEM_DS3505
ZBYN,1989-10-24 00:00,ZBYN 240000Z AUTO 00000KT 3SM 07/04 RMK SLP162 T00660042 52003 IEM_DS3505
ZBYN,1989-10-24 00:24,ZBYN 240024Z AUTO 09006KT 3SM RMK IEM_DS3505
ZBYN,1989-10-24 01:00,ZBYN 240100Z AUTO 00000KT 7SM 10/04 A3003 RMK T01000040 IEM_DS3505
ZBYN,1989-10-24 02:00,ZBYN 240200Z AUTO 00000KT 7SM 16/04 A3000 RMK T01600040 IEM_DS3505
ZBYN,1989-10-24 03:00,ZBYN 240300Z AUTO 18004KT 6SM 16/08 RMK SLP155 T01650078 52003 IEM_DS3505
ZBYN,1989-10-24 05:00,ZBYN 240500Z AUTO 20006KT 7SM 21/05 A2994 RMK T02100050 IEM_DS3505
ZBYN,1989-10-24 06:00,ZBYN 240600Z AUTO 16004KT 6SM 21/09 A2991 RMK SLP122 T02140087 4////0040 57023 IEM_DS3505
ZBYN,1989-10-24 07:00,ZBYN 240700Z AUTO 20004KT 7SM 23/05 A2988 RMK T02300050 IEM_DS3505
ZBYN,1989-10-24 08:00,ZBYN 240800Z AUTO 22002KT 7SM 23/05 A2988 RMK T02300050 IEM_DS3505
ZBYN,1989-10-24 09:00,ZBYN 240900Z AUTO 16004KT 6SM 21/13 A2988 RMK SLP123 T02060126 57004 IEM_DS3505
ZBYN,1989-10-24 12:00,ZBYN 241200Z AUTO 36004KT 7SM 16/02 RMK SLP142 T01600018 52013 IEM_DS3505
ZBYN,1989-10-24 18:00,ZBYN 241800Z AUTO 00000KT 7SM 05/03 RMK SLP158 T00500029 52006 IEM_DS3505
ZBYN,1989-10-24 21:00,ZBYN 242100Z AUTO 00000KT 6SM 03/02 RMK SLP163 T00310024 52001 IEM_DS3505
ZBYN,1989-10-24 23:00,ZBYN 242300Z AUTO 12004KT 6SM 03/M01 A3006 RMK T00301010 IEM_DS3505
ZBYN,1989-10-25 00:00,ZBYN 250000Z AUTO 00000KT 4SM 05/02 RMK SLP189 T00460022 52019 IEM_DS3505
ZBYN,1989-10-25 03:00,ZBYN 250300Z AUTO 00000KT 5SM 14/05 A3012 RMK SLP197 T01420050 52013 IEM_DS3505
ZBYN,1989-10-25 04:00,ZBYN 250400Z AUTO 28004KT 5SM 16/03 A3012 RMK T01600030 IEM_DS3505
ZBYN,1989-10-25 06:00,ZBYN 250600Z AUTO 32004KT 6SM 17/02 RMK SLP192 T01730017 4////0012 57008 IEM_DS3505
ZBYN,1989-10-25 06:06,ZBYN 250606Z AUTO 33006KT 3SM RMK IEM_DS3505
ZBYN,1989-10-25 09:00,ZBYN 250900Z AUTO 34002KT 6SM 16/05 RMK SLP195 T01570047 57002 IEM_DS3505
ZBYN,1989-10-25 10:00,ZBYN 251000Z AUTO 00000KT 5SM 14/03 A3009 RMK T01400030 IEM_DS3505
ZBYN,1989-10-25 12:00,ZBYN 251200Z AUTO 32002KT 6SM 12/03 A3012 RMK SLP210 T01190032 52010 IEM_DS3505
ZBYN,1989-10-25 13:00,ZBYN 251300Z AUTO 35002KT 6SM 09/05 A3012 RMK T00900050 IEM_DS3505
ZBYN,1989-10-25 14:00,ZBYN 251400Z AUTO 00000KT 6SM 09/02 A3015 RMK T00900020 IEM_DS3505
ZBYN,1989-10-25 15:00,ZBYN 251500Z AUTO 32006KT 6SM 10/01 A3018 RMK SLP212 T00950011 52013 IEM_DS3505
ZBYN,1989-10-25 21:00,ZBYN 252100Z AUTO 36004KT 6SM 08/01 RMK SLP217 T00770010 52001 IEM_DS3505
ZBYN,1989-10-25 23:00,ZBYN 252300Z AUTO 00000KT 5SM 06/02 A3021 RMK T00600020 IEM_DS3505
ZBYN,1989-10-26 00:00,ZBYN 260000Z AUTO 32004KT 6SM 08/02 A3021 RMK SLP238 T00790016 52013 IEM_DS3505
ZBYN,1989-10-26 01:00,ZBYN 260100Z AUTO 00000KT 2 1/2SM 09/03 A3024 RMK T00900030 IEM_DS3505
ZBYN,1989-10-26 03:00,ZBYN 260300Z AUTO 34004KT 6SM 11/01 A3024 RMK SLP250 T01130012 52013 IEM_DS3505
ZBYN,1989-10-26 04:00,ZBYN 260400Z AUTO 00000KT 4SM 12/01 A3024 RMK T01200010 IEM_DS3505
ZBYN,1989-10-26 05:00,ZBYN 260500Z AUTO 25002KT 4SM 13/01 A3024 RMK T01300010 IEM_DS3505
ZBYN,1989-10-26 06:00,ZBYN 260600Z AUTO 11002KT 5SM 09/05 A3024 RMK 60001 SLP248 T00890046 4////0054 57008 IEM_DS3505
ZBYN,1989-10-26 08:00,ZBYN 260800Z AUTO 18004KT 4SM 08/05 A3024 RMK T00800050 IEM_DS3505
ZBYN,1989-10-26 09:00,ZBYN 260900Z AUTO 20004KT 5SM 07/06 A3024 RMK SLP253 T00720055 52001 IEM_DS3505
ZBYN,1989-10-26 10:00,ZBYN 261000Z AUTO 00000KT 4SM RMK IEM_DS3505
ZBYN,1989-10-26 11:00,ZBYN 261100Z AUTO 00000KT 07/06 A3021 RMK T00700060 IEM_DS3505
ZBYN,1989-10-26 12:00,ZBYN 261200Z AUTO 00000KT 5SM 06/05 A3024 RMK 60004 SLP248 T00640053 57005 IEM_DS3505
ZBYN,1989-10-26 13:00,ZBYN 261300Z AUTO 00000KT 4SM 07/06 A3021 RMK T00700060 IEM_DS3505
ZBYN,1989-10-26 15:00,ZBYN 261500Z AUTO 00000KT 3SM 06/06 RMK SLP247 T00620056 52004 IEM_DS3505
ZBYN,1989-10-26 16:00,ZBYN 261600Z AUTO 00000KT 2 1/2SM 06/06 A3024 RMK T00600060 IEM_DS3505
ZBYN,1989-10-26 17:00,ZBYN 261700Z AUTO 00000KT 1 1/2SM 05/05 A3024 RMK T00500050 IEM_DS3505
ZBYN,1989-10-26 18:00,ZBYN 261800Z AUTO 00000KT 1 1/4SM 05/05 A3024 RMK SLP246 T00540052 40122//// 57006 IEM_DS3505
ZBYN,1989-10-26 19:00,ZBYN 261900Z AUTO 00000KT 1SM 05/05 A3018 RMK T00500050 IEM_DS3505
ZBYN,1989-10-26 20:00,ZBYN 262000Z AUTO 00000KT 1SM 05/05 A3018 RMK T00500050 IEM_DS3505
ZBYN,1989-10-26 21:00,ZBYN 262100Z AUTO 16002KT 3/8SM 05/05 A3018 RMK SLP241 T00530051 57007 IEM_DS3505
ZBYN,1989-10-26 22:00,ZBYN 262200Z AUTO 00000KT 3/8SM 06/06 A3018 RMK T00600060 IEM_DS3505
ZBYN,1989-10-26 23:00,ZBYN 262300Z AUTO 00000KT 1/4SM 06/06 A3018 RMK T00600060 IEM_DS3505
ZBYN,1989-10-27 00:00,ZBYN 270000Z AUTO 00000KT 1/8SM 05/05 A3024 RMK SLP246 T00530051 52003 IEM_DS3505
ZBYN,1989-10-27 03:00,ZBYN 270300Z AUTO 16004KT 3SM 08/06 A3018 RMK SLP240 T00750065 57002 IEM_DS3505
ZBYN,1989-10-27 05:25,ZBYN 270525Z AUTO 18008KT 2 1/2SM 12/08 A3015 RMK T01200080 IEM_DS3505
ZBYN,1989-10-27 06:00,ZBYN 270600Z AUTO 16004KT 5SM 13/08 A3009 RMK SLP205 T01280075 4////0044 57025 IEM_DS3505
ZBYN,1989-10-27 07:00,ZBYN 270700Z AUTO 08004KT 5SM 14/09 A3012 RMK T01400090 IEM_DS3505
ZBYN,1989-10-27 08:00,ZBYN 270800Z AUTO 00000KT 5SM 14/09 RMK T01400090 IEM_DS3505
ZBYN,1989-10-27 09:00,ZBYN 270900Z AUTO 00000KT 31SM 13/09 RMK SLP209 T01270093 52003 IEM_DS3505
ZBYN,1989-10-27 10:00,ZBYN 271000Z AUTO 00000KT 3SM 10/08 A3012 RMK T01000080 IEM_DS3505
ZBYN,1989-10-27 12:00,ZBYN 271200Z AUTO 00000KT 4SM 06/06 A3018 RMK SLP241 T00620058 52019 IEM_DS3505
ZBYN,1989-10-27 13:00,ZBYN 271300Z AUTO 00000KT 2 1/2SM 04/02 A3021 RMK T00400020 IEM_DS3505
ZBYN,1989-10-27 14:00,ZBYN 271400Z AUTO 06004KT 7SM 03/01 A3024 RMK T00300010 IEM_DS3505
ZBYN,1989-10-27 15:00,ZBYN 271500Z AUTO 00000KT 2SM 02/02 RMK SLP262 T00220022 52016 IEM_DS3505
ZBYN,1989-10-27 16:00,ZBYN 271600Z AUTO 08002KT 7SM 03/00 A3024 RMK T00300000 IEM_DS3505
ZBYN,1989-10-27 17:00,ZBYN 271700Z AUTO 00000KT 1SM 01/01 RMK SLP258 T00060006 40135//// 52003 IEM_DS3505
ZBYN,1989-10-27 18:00,ZBYN 271800Z AUTO 00000KT 1SM 01/01 RMK SLP258 T00060006 40135//// 52003 IEM_DS3505
ZBYN,1989-10-27 21:00,ZBYN 272100Z AUTO 00000KT 1SM M01/M01 RMK SLP258 T10061006 57002 IEM_DS3505
ZBYN,1989-10-28 00:00,ZBYN 280000Z AUTO 00000KT 5SM 00/M01 RMK SLP280 T00041013 52011 IEM_DS3505
ZBYN,1989-10-28 01:00,ZBYN 280100Z AUTO 00000KT 5SM 04/03 A3027 RMK T00400030 IEM_DS3505
ZBYN,1989-10-28 02:00,ZBYN 280200Z AUTO 00000KT 7SM 09/00 A3027 RMK T00900000 IEM_DS3505
ZBYN,1989-10-28 03:00,ZBYN 280300Z AUTO 00000KT 6SM 11/02 A3027 RMK SLP274 T01080025 52005 IEM_DS3505
ZBYN,1989-10-28 04:00,ZBYN 280400Z AUTO 12004KT 7SM 14/00 A3024 RMK T01400000 IEM_DS3505
ZBYN,1989-10-28 05:00,ZBYN 280500Z AUTO 00000KT 7SM 16/00 A3021 RMK T01600000 IEM_DS3505
ZBYN,1989-10-28 06:00,ZBYN 280600Z AUTO 18006KT 9SM 16/01 A3018 RMK SLP231 T01580007 4////1015 57040 IEM_DS3505
ZBYN,1989-10-28 07:00,ZBYN 280700Z AUTO 00000KT 7SM 18/00 A3015 RMK T01800000 IEM_DS3505
ZBYN,1989-10-28 08:00,ZBYN 280800Z AUTO 16002KT 7SM 18/00 A3012 RMK T01800000 IEM_DS3505
ZBYN,1989-10-28 09:00,ZBYN 280900Z AUTO 00000KT 9SM 16/03 RMK SLP229 T01570033 57004 IEM_DS3505
ZBYN,1989-10-28 10:00,ZBYN 281000Z AUTO 00000KT 7SM 11/07 A3012 RMK T01100070 IEM_DS3505
ZBYN,1989-10-28 11:00,ZBYN 281100Z AUTO 00000KT 5SM A3012 RMK SLP219 57003 IEM_DS3505
ZBYN,1989-10-28 12:00,ZBYN 281200Z AUTO 00000KT 9SM 06/04 RMK SLP235 T00640037 57008 IEM_DS3505
ZBYN,1989-10-28 13:00,ZBYN 281300Z AUTO 12004KT 7SM 06/02 A3015 RMK T00600020 IEM_DS3505
ZBYN,1989-10-28 14:00,ZBYN 281400Z AUTO 00000KT 7SM 03/02 A3018 RMK T00300020 IEM_DS3505
ZBYN,1989-10-28 15:00,ZBYN 281500Z AUTO 00000KT 6SM 03/02 A3018 RMK SLP229 T00270022 52005 IEM_DS3505
ZBYN,1989-10-28 17:00,ZBYN 281700Z AUTO 00000KT 7SM 03/01 A3018 RMK T00300010 IEM_DS3505
ZBYN,1989-10-28 18:00,ZBYN 281800Z AUTO 00000KT 5SM 01/01 A3015 RMK SLP219 T00140011 40168//// 57003 IEM_DS3505
ZBYN,1989-10-28 21:00,ZBYN 282100Z AUTO 00000KT 4SM 01/01 RMK SLP211 T00120009 57008 IEM_DS3505
ZBYN,1989-10-28 22:00,ZBYN 282200Z AUTO 00000KT 5SM 02/01 A3012 RMK T00200010 IEM_DS3505
ZBYN,1989-10-29 00:00,ZBYN 290000Z AUTO 00000KT 4SM 02/01 RMK SLP229 T00200010 52003 IEM_DS3505
ZBYN,1989-10-29 01:15,ZBYN 290115Z AUTO 00000KT 2SM 06/04 A3012 RMK T00600040 IEM_DS3505
ZBYN,1989-10-29 02:20,ZBYN 290220Z AUTO 00000KT 10/03 A3012 RMK T01000030 IEM_DS3505
ZBYN,1989-10-29 03:00,ZBYN 290300Z AUTO 18002KT 4SM 13/01 A3012 RMK SLP208 T01260014 57008 IEM_DS3505
ZBYN,1989-10-29 04:19,ZBYN 290419Z AUTO 15002KT 6SM 16/02 A3009 RMK T01600020 IEM_DS3505
ZBYN,1989-10-29 05:14,ZBYN 290514Z AUTO 22004KT 7SM 17/01 A3006 RMK T01700010 IEM_DS3505
ZBYN,1989-10-29 06:00,ZBYN 290600Z AUTO 22002KT 5SM 17/03 RMK SLP176 T01740028 4////0010 57024 IEM_DS3505
ZBYN,1989-10-29 06:13,ZBYN 290613Z AUTO 19004KT 6SM 19/02 A3003 RMK T01900020 IEM_DS3505
ZBYN,1989-10-29 07:00,ZBYN 290700Z AUTO 22004KT 6SM 19/03 A3000 RMK T01900030 IEM_DS3505
ZBYN,1989-10-29 09:00,ZBYN 290900Z AUTO 14002KT 5SM 16/05 RMK SLP160 T01570047 57017 IEM_DS3505
ZBYN,1989-10-29 11:00,ZBYN 291100Z AUTO 09006KT 2 1/2SM 11/06 A2997 RMK T01100060 IEM_DS3505
ZBYN,1989-10-29 12:00,ZBYN 291200Z AUTO 00000KT 6SM 09/06 A3000 RMK SLP177 T00870058 52006 IEM_DS3505
ZBYN,1989-10-29 13:00,ZBYN 291300Z AUTO 08002KT 5SM 08/05 A3000 RMK T00800050 IEM_DS3505
ZBYN,1989-10-29 15:00,ZBYN 291500Z AUTO 00000KT 5SM 06/05 RMK SLP173 T00650047 52009 IEM_DS3505
ZBYN,1989-10-29 18:00,ZBYN 291800Z AUTO 00000KT 4SM 07/05 RMK SLP165 T00660053 40175//// 54000 IEM_DS3505
ZBYN,1989-10-29 21:00,ZBYN 292100Z AUTO 32006KT 6SM 12/11 RMK SLP153 T01160111 57006 IEM_DS3505
ZBYN,1989-10-29 23:00,ZBYN 292300Z AUTO 33012KT 7SM 11/M05 A3006 RMK T01101050 IEM_DS3505
ZBYN,1989-10-30 00:00,ZBYN 300000Z AUTO 34010KT 11SM 10/M03 RMK SLP192 T00991032 52023 IEM_DS3505
ZBYN,1989-10-30 01:19,ZBYN 300119Z AUTO 29019KT 7SM 11/M06 A3012 RMK T01101060 IEM_DS3505
ZBYN,1989-10-30 02:19,ZBYN 300219Z AUTO 30019KT 7SM 12/M10 A3012 RMK T01201100 IEM_DS3505
ZBYN,1989-10-30 03:00,ZBYN 300300Z AUTO 32014KT 9SM 12/M07 A3009 RMK SLP199 T01221068 52006 IEM_DS3505
ZBYN,1989-10-30 04:00,ZBYN 300400Z AUTO 31017KT 7SM 14/M10 A3009 RMK T01401100 IEM_DS3505
ZBYN,1989-10-30 05:00,ZBYN 300500Z AUTO 30021KT 7SM 15/M09 A3006 RMK T01501090 IEM_DS3505
ZBYN,1989-10-30 06:00,ZBYN 300600Z AUTO 29016KT 12SM 14/M08 A3003 RMK SLP176 T01451079 4////0052 57017 IEM_DS3505
ZBYN,1989-10-30 07:00,ZBYN 300700Z AUTO 29014KT 7SM 16/M08 A3003 RMK T01601080 IEM_DS3505
ZBYN,1989-10-30 08:00,ZBYN 300800Z AUTO 27014KT 7SM 16/M07 A3006 RMK T01601070 IEM_DS3505
ZBYN,1989-10-30 09:00,ZBYN 300900Z AUTO 32008KT 12SM 14/M08 RMK SLP178 T01361081 52008 IEM_DS3505
ZBYN,1989-10-30 10:00,ZBYN 301000Z AUTO 27008KT 7SM 12/M07 A3009 RMK T01201070 IEM_DS3505
ZBYN,1989-10-30 11:00,ZBYN 301100Z AUTO 27006KT 7SM 10/M05 A3012 RMK T01001050 IEM_DS3505
ZBYN,1989-10-30 12:00,ZBYN 301200Z AUTO 34006KT 12SM 11/M06 A3015 RMK SLP218 T01071058 52029 IEM_DS3505
ZBYN,1989-10-30 13:00,ZBYN 301300Z AUTO 00000KT 7SM 07/M01 A3018 RMK T00701010 IEM_DS3505
ZBYN,1989-10-30 14:00,ZBYN 301400Z AUTO 00000KT 7SM 05/M03 A3021 RMK T00501030 IEM_DS3505
ZBYN,1989-10-30 15:00,ZBYN 301500Z AUTO 02004KT 12SM 08/M03 A3024 RMK SLP253 T00781026 52031 IEM_DS3505
ZBYN,1989-10-30 17:00,ZBYN 301700Z AUTO 33004KT 7SM 05/M03 A3027 RMK T00501030 IEM_DS3505
ZBYN,1989-10-30 18:00,ZBYN 301800Z AUTO 32004KT 9SM 04/M02 RMK SLP264 T00421023 40152//// 52008 IEM_DS3505
ZBYN,1989-10-30 21:00,ZBYN 302100Z AUTO 36004KT 9SM 03/M04 RMK SLP263 T00341037 57003 IEM_DS3505
ZBYN,1989-10-31 00:00,ZBYN 310000Z AUTO 36002KT 9SM 03/M04 RMK SLP283 T00321036 52013 IEM_DS3505
ZBYN,1989-10-31 02:00,ZBYN 310200Z AUTO 33006KT 7SM 06/M02 A3036 RMK T00601020 IEM_DS3505
ZBYN,1989-10-31 03:00,ZBYN 310300Z AUTO 32002KT 9SM 10/M02 RMK SLP288 T00961017 52010 IEM_DS3505
ZBYN,1989-10-31 03:17,ZBYN 310317Z AUTO 33004KT 7SM 11/M02 A3036 RMK T01101020 IEM_DS3505
ZBYN,1989-10-31 04:15,ZBYN 310415Z AUTO 26004KT 7SM 12/M02 A3033 RMK T01201020 IEM_DS3505
ZBYN,1989-10-31 05:16,ZBYN 310516Z AUTO 25004KT 7SM 13/M02 A3030 RMK T01301020 IEM_DS3505
ZBYN,1989-10-31 06:00,ZBYN 310600Z AUTO 18006KT 9SM 13/M02 RMK SLP263 T01331022 57022 IEM_DS3505
ZBYN,1989-10-31 07:00,ZBYN 310700Z AUTO 16006KT 7SM 14/00 A3027 RMK T01400000 IEM_DS3505
ZBYN,1989-10-31 08:00,ZBYN 310800Z AUTO 00000KT 7SM 15/M01 A3024 RMK T01501010 IEM_DS3505
ZBYN,1989-10-31 09:00,ZBYN 310900Z AUTO 00000KT 6SM 12/M01 A3024 RMK SLP255 T01251011 57010 IEM_DS3505
ZBYN,1989-10-31 12:00,ZBYN 311200Z AUTO 00000KT 6SM 06/M01 RMK SLP273 T00621009 52006 IEM_DS3505
ZBYN,1989-10-31 15:00,ZBYN 311500Z AUTO 00000KT 6SM 02/M01 RMK SLP274 T00171010 52004 IEM_DS3505
ZBYN,1989-10-31 18:00,ZBYN 311800Z AUTO 00000KT 6SM 00/M01 RMK SLP267 T00021012 40141//// 57003 IEM_DS3505
ZBYN,1989-10-31 21:00,ZBYN 312100Z AUTO 00000KT 6SM M02/M02 RMK SLP266 T10151024 57005 IEM_DS3505
ZBYN,1989-10-31 22:00,ZBYN 312200Z AUTO 00000KT 7SM M03/M07 A3027 RMK T10301070 IEM_DS3505
ZBYN,1989-10-31 23:00,ZBYN 312300Z AUTO 00000KT 5SM M04/M05 A3027 RMK T10401050 IEM_DS3505
ZBYN,1989-11-01 00:00,ZBYN 010000Z AUTO 00000KT 4SM M03/M05 A3027 RMK SLP282 T10301050 52005 IEM_DS3505
ZBYN,1989-11-01 01:00,ZBYN 010100Z AUTO 00000KT 5SM 02/M03 A3030 RMK T00201030 IEM_DS3505
ZBYN,1989-11-01 03:00,ZBYN 010300Z AUTO 14002KT 5SM 11/M01 A3024 RMK SLP262 T01061011 57006 IEM_DS3505
ZBYN,1989-11-01 04:00,ZBYN 010400Z AUTO 00000KT 6SM 13/M01 A3021 RMK T01301010 IEM_DS3505
ZBYN,1989-11-01 06:00,ZBYN 010600Z AUTO 20004KT 5SM 16/M03 RMK SLP222 T01591027 4////1019 57031 IEM_DS3505
ZBYN,1989-11-01 07:00,ZBYN 010700Z AUTO 17004KT 6SM 16/M02 A3012 RMK T01601020 IEM_DS3505
ZBYN,1989-11-01 08:00,ZBYN 010800Z AUTO 19002KT 6SM 15/M01 A3012 RMK T01501010 IEM_DS3505
ZBYN,1989-11-01 09:00,ZBYN 010900Z AUTO 00000KT 5SM 13/00 RMK SLP220 T01280001 57001 IEM_DS3505
ZBYN,1989-11-01 10:00,ZBYN 011000Z AUTO 00000KT 6SM 12/02 A3012 RMK T01200020 IEM_DS3505
ZBYN,1989-11-01 11:00,ZBYN 011100Z AUTO 14002KT 4SM 12/01 A3012 RMK T01200010 IEM_DS3505
ZBYN,1989-11-01 12:00,ZBYN 011200Z AUTO 00000KT 5SM 10/02 A3012 RMK SLP222 T01000023 57003 IEM_DS3505
ZBYN,1989-11-01 13:00,ZBYN 011300Z AUTO 00000KT 3SM 10/01 A3012 RMK T01000010 IEM_DS3505
ZBYN,1989-11-01 14:00,ZBYN 011400Z AUTO 00000KT 6SM 08/01 A3012 RMK T00800010 IEM_DS3505
ZBYN,1989-11-01 15:00,ZBYN 011500Z AUTO 29002KT 6SM 09/03 A3012 RMK SLP200 T00870026 57003 IEM_DS3505
ZBYN,1989-11-01 18:00,ZBYN 011800Z AUTO 36002KT 6SM 09/04 RMK SLP176 T00890039 40163//// 57014 IEM_DS3505
ZBYN,1989-11-01 21:00,ZBYN 012100Z AUTO 00000KT 2 1/2SM 08/04 A3003 RMK T00800040 IEM_DS3505
ZBYN,1989-11-01 22:00,ZBYN 012200Z AUTO 00000KT 1 1/4SM 08/04 A3003 RMK T00800040 IEM_DS3505
ZBYN,1989-11-01 23:00,ZBYN 012300Z AUTO 00000KT 2SM 08/04 A3003 RMK T00800040 IEM_DS3505
ZBYN,1989-11-02 00:00,ZBYN 020000Z AUTO 34002KT 5SM 09/02 RMK SLP179 T00860025 52002 IEM_DS3505
ZBYN,1989-11-02 02:00,ZBYN 020200Z AUTO 32002KT 1SM 13/03 A3006 RMK T01300030 IEM_DS3505
ZBYN,1989-11-02 03:00,ZBYN 020300Z AUTO 32004KT 5SM 14/00 RMK SLP176 T01360001 52003 IEM_DS3505
ZBYN,1989-11-02 06:00,ZBYN 020600Z AUTO 11006KT 6SM 16/03 A2994 RMK SLP143 T01650029 4////0082 57026 IEM_DS3505
ZBYN,1989-11-02 08:00,ZBYN 020800Z AUTO 15004KT 6SM 15/05 A2991 RMK T01500050 IEM_DS3505
ZBYN,1989-11-02 09:00,ZBYN 020900Z AUTO 11004KT 9SM 15/05 RMK SLP137 T01460050 57008 IEM_DS3505
ZBYN,1989-11-02 11:00,ZBYN 021100Z AUTO 07002KT 6SM 10/06 RMK T01000060 IEM_DS3505
ZBYN,1989-11-02 12:00,ZBYN 021200Z AUTO 00000KT 9SM 08/05 A2997 RMK SLP160 T00840052 52011 IEM_DS3505
ZBYN,1989-11-02 14:00,ZBYN 021400Z AUTO 09004KT 6SM 10/02 A3000 RMK T01000020 IEM_DS3505
ZBYN,1989-11-02 15:00,ZBYN 021500Z AUTO 00000KT 9SM 06/04 RMK SLP167 T00620042 52011 IEM_DS3505
ZBYN,1989-11-02 17:00,ZBYN 021700Z AUTO 08002KT 6SM 08/02 A3000 RMK T00800020 IEM_DS3505
ZBYN,1989-11-02 18:00,ZBYN 021800Z AUTO 00000KT 5SM 04/03 RMK SLP172 T00390029 40166//// 57005 IEM_DS3505
ZBYN,1989-11-02 19:00,ZBYN 021900Z AUTO 05002KT 7SM 04/01 A3003 RMK T00400010 IEM_DS3505
ZBYN,1989-11-02 21:00,ZBYN 022100Z AUTO 00000KT 6SM 04/02 RMK SLP173 T00420025 57001 IEM_DS3505
ZBYN,1989-11-02 23:00,ZBYN 022300Z AUTO 00000KT 2 1/2SM 01/01 A3006 RMK T00100010 IEM_DS3505
ZBYN,1989-11-03 03:00,ZBYN 030300Z AUTO 00000KT 6SM 11/03 RMK SLP197 T01100031 52006 IEM_DS3505
ZBYN,1989-11-03 06:00,ZBYN 030600Z AUTO 00000KT 11SM 15/07 RMK SLP173 T01530074 4////0023 57019 IEM_DS3505
ZBYN,1989-11-03 09:00,ZBYN 030900Z AUTO 11004KT 12SM 14/06 RMK SLP173 T01360062 57002 IEM_DS3505
ZBYN,1989-11-03 11:00,ZBYN 031100Z AUTO 07006KT 6SM 12/03 A3006 RMK T01200030 IEM_DS3505
ZBYN,1989-11-03 12:00,ZBYN 031200Z AUTO 09012KT 16SM 12/05 A3009 RMK SLP194 T01170050 52016 IEM_DS3505
ZBYN,1989-11-03 14:00,ZBYN 031400Z AUTO 03004KT 6SM 10/05 A3012 RMK T01000050 IEM_DS3505
ZBYN,1989-11-03 15:00,ZBYN 031500Z AUTO 00000KT 19SM 09/06 A3009 RMK SLP210 T00920061 52021 IEM_DS3505
ZBYN,1989-11-03 16:00,ZBYN 031600Z AUTO 03006KT 6SM 09/03 A3015 RMK T00900030 IEM_DS3505
ZBYN,1989-11-03 17:00,ZBYN 031700Z AUTO 04002KT 6SM 10/03 A3015 RMK T01000030 IEM_DS3505
ZBYN,1989-11-03 18:00,ZBYN 031800Z AUTO 00000KT 16SM 10/06 RMK SLP201 T01000063 40160//// 54000 IEM_DS3505
ZBYN,1989-11-03 21:00,ZBYN 032100Z AUTO 00000KT 9SM 09/05 RMK SLP197 T00860054 57008 IEM_DS3505
ZBYN,1989-11-04 00:00,ZBYN 040000Z AUTO 27002KT 6SM 09/05 RMK SLP212 T00880054 52011 IEM_DS3505
ZBYN,1989-11-04 03:00,ZBYN 040300Z AUTO 14002KT 4SM 11/06 A3015 RMK SLP214 T01120063 52001 IEM_DS3505
ZBYN,1989-11-04 06:00,ZBYN 040600Z AUTO 09004KT 7SM 14/06 RMK SLP184 T01370061 4////0081 57022 IEM_DS3505
ZBYN,1989-11-04 09:00,ZBYN 040900Z AUTO 12SM 11/06 RMK SLP190 T01140059 54000 IEM_DS3505
ZBYN,1989-11-04 11:00,ZBYN 041100Z AUTO 08008KT 7SM 10/06 A3009 RMK T01000060 IEM_DS3505
ZBYN,1989-11-04 12:00,ZBYN 041200Z AUTO 00000KT 9SM 10/08 A3012 RMK 60001 SLP205 T00960082 52011 IEM_DS3505
ZBYN,1989-11-04 13:00,ZBYN 041300Z AUTO 06004KT 7SM 09/08 A3012 RMK T00900080 IEM_DS3505
ZBYN,1989-11-04 14:00,ZBYN 041400Z AUTO 00000KT 7SM 09/08 A3015 RMK T00900080 IEM_DS3505
ZBYN,1989-11-04 15:00,ZBYN 041500Z AUTO 00000KT 6SM 09/08 RMK SLP210 T00880080 52007 IEM_DS3505
ZBYN,1989-11-04 16:00,ZBYN 041600Z AUTO 07006KT 4SM 09/07 A3012 RMK T00900070 IEM_DS3505
ZBYN,1989-11-04 18:00,ZBYN 041800Z AUTO 00000KT 6SM 08/08 RMK 60008 SLP196 T00850075 40148//// 57009 IEM_DS3505
ZBYN,1989-11-04 20:00,ZBYN 042000Z AUTO 00000KT 6SM 09/06 A3009 RMK T00900060 IEM_DS3505
ZBYN,1989-11-04 21:00,ZBYN 042100Z AUTO 00000KT 4SM 08/07 RMK SLP194 T00850073 57006 IEM_DS3505
ZBYN,1989-11-04 22:00,ZBYN 042200Z AUTO 00000KT 7SM 09/07 A3009 RMK T00900070 IEM_DS3505
ZBYN,1989-11-04 23:00,ZBYN 042300Z AUTO 00000KT 6SM 09/02 A3012 RMK T00900020 IEM_DS3505
ZBYN,1989-11-05 00:00,ZBYN 050000Z AUTO 00000KT 7SM 09/ A3015 RMK 70008 SLP217 52018 IEM_DS3505
ZBYN,1989-11-05 01:00,ZBYN 050100Z AUTO 18002KT 2 1/2SM 08/07 A3015 RMK T00800070 IEM_DS3505
ZBYN,1989-11-05 03:00,ZBYN 050300Z AUTO 00000KT 4SM 11/07 RMK SLP213 T01080074 57001 IEM_DS3505
ZBYN,1989-11-05 05:00,ZBYN 050500Z AUTO 18002KT 7SM 13/05 A3009 RMK T01300050 IEM_DS3505
ZBYN,1989-11-05 06:00,ZBYN 050600Z AUTO 20002KT 5SM 11/07 A3009 RMK SLP198 T01110066 4////0080 57013 IEM_DS3505
ZBYN,1989-11-05 07:00,ZBYN 050700Z AUTO 00000KT 7SM 13/05 A3009 RMK T01300050 IEM_DS3505
ZBYN,1989-11-05 09:00,ZBYN 050900Z AUTO 00000KT 9SM 11/07 RMK SLP198 T01120074 54000 IEM_DS3505
ZBYN,1989-11-05 12:00,ZBYN 051200Z AUTO 34004KT 9SM 10/04 RMK SLP219 T01020039 52017 IEM_DS3505
ZBYN,1989-11-05 15:00,ZBYN 051500Z AUTO 29002KT 6SM 07/04 RMK SLP235 T00680044 52013 IEM_DS3505
ZBYN,1989-11-05 18:00,ZBYN 051800Z AUTO 00000KT 6SM 06/04 RMK 60000 SLP243 T00640037 40123//// 52007 IEM_DS3505
ZBYN,1989-11-05 19:00,ZBYN 051900Z AUTO 33004KT 7SM 06/04 A3024 RMK T00600040 IEM_DS3505
ZBYN,1989-11-05 21:00,ZBYN 052100Z AUTO 36004KT 6SM 06/02 RMK SLP248 T00590021 52004 IEM_DS3505
ZBYN,1989-11-05 23:00,ZBYN 052300Z AUTO 33004KT 6SM 06/01 A3024 RMK T00600010 IEM_DS3505
ZBYN,1989-11-06 00:00,ZBYN 060000Z AUTO 34002KT 7SM 05/02 A3027 RMK 60000 SLP262 T00540023 52011 IEM_DS3505
ZBYN,1989-11-06 02:00,ZBYN 060200Z AUTO 34006KT 7SM 08/01 A3030 RMK T00800010 IEM_DS3505
ZBYN,1989-11-06 03:00,ZBYN 060300Z AUTO 04002KT 6SM 09/02 RMK SLP275 T00860019 52011 IEM_DS3505
ZBYN,1989-11-06 06:00,ZBYN 060600Z AUTO 00000KT 6SM 11/05 RMK SLP252 T01090050 4////0053 57018 IEM_DS3505
ZBYN,1989-11-06 09:00,ZBYN 060900Z AUTO 11004KT 9SM 10/04 RMK SLP250 T00970035 57004 IEM_DS3505
ZBYN,1989-11-06 12:00,ZBYN 061200Z AUTO 09004KT 7SM 08/04 A3027 RMK SLP271 T00820035 52016 IEM_DS3505
ZBYN,1989-11-06 15:00,ZBYN 061500Z AUTO 02004KT 7SM 08/03 A3030 RMK SLP271 T00840032 52005 IEM_DS3505
ZBYN,1989-11-06 16:00,ZBYN 061600Z AUTO 05002KT 6SM 08/00 A3027 RMK T00800000 IEM_DS3505
ZBYN,1989-11-06 18:00,ZBYN 061800Z AUTO 34002KT 7SM 06/05 RMK 60004 SLP281 T00640051 40120//// 52010 IEM_DS3505
ZBYN,1989-11-06 21:00,ZBYN 062100Z AUTO 00000KT 7SM 06/04 A3030 RMK SLP281 T00550041 57004 IEM_DS3505
ZBYN,1989-11-06 22:00,ZBYN 062200Z AUTO 05004KT 7SM 05/04 A3033 RMK T00500040 IEM_DS3505
ZBYN,1989-11-07 00:00,ZBYN 070000Z AUTO 00000KT 7SM 05/04 RMK 60020 70024 SLP292 T00460041 52007 IEM_DS3505
ZBYN,1989-11-07 03:00,ZBYN 070300Z AUTO 00000KT 6SM 05/04 RMK SLP295 T00470035 52003 IEM_DS3505
ZBYN,1989-11-07 06:00,ZBYN 070600Z AUTO 29002KT 6SM 07/04 RMK 60008 SLP289 T00690037 4////0046 57005 IEM_DS3505
ZBYN,1989-11-07 09:00,ZBYN 070900Z AUTO 00000KT 6SM 07/04 A3039 RMK SLP293 T00720038 52002 IEM_DS3505
ZBYN,1989-11-07 10:00,ZBYN 071000Z AUTO 33004KT 7SM 07/04 A3036 RMK T00700040 IEM_DS3505
ZBYN,1989-11-07 11:00,ZBYN 071100Z AUTO 00000KT 6SM 06/05 RMK 60000 SLP318 T00630050 52020 IEM_DS3505
ZBYN,1989-11-07 12:00,ZBYN 071200Z AUTO 00000KT 6SM 06/05 RMK 60000 SLP318 T00630050 52020 IEM_DS3505
ZBYN,1989-11-07 13:00,ZBYN 071300Z AUTO 00000KT 7SM 05/02 A3045 RMK T00500020 IEM_DS3505
ZBYN,1989-11-07 16:00,ZBYN 071600Z AUTO 00000KT 4SM 02/01 A3045 RMK T00200010 IEM_DS3505
ZBYN,1989-11-07 17:00,ZBYN 071700Z AUTO 00000KT 4SM 01/01 A3047 RMK T00100010 IEM_DS3505
ZBYN,1989-11-07 18:00,ZBYN 071800Z AUTO 00000KT 4SM 02/02 RMK SLP340 T00190016 40077//// 52006 IEM_DS3505
ZBYN,1989-11-07 19:00,ZBYN 071900Z AUTO 15004KT 1/2SM 02/01 A3045 RMK T00200010 IEM_DS3505
ZBYN,1989-11-07 20:00,ZBYN 072000Z AUTO 09004KT 1/8SM 01/01 A3045 RMK T00100010 IEM_DS3505
ZBYN,1989-11-07 21:00,ZBYN 072100Z AUTO 00000KT 2 1/2SM 01/01 RMK SLP334 T00080008 57007 IEM_DS3505
ZBYN,1989-11-08 00:00,ZBYN 080000Z AUTO 14002KT 1/8SM 01/01 RMK 70008 SLP340 T00140014 52005 IEM_DS3505
ZBYN,1989-11-08 01:00,ZBYN 080100Z AUTO 00000KT 1 1/2SM 02/02 A3047 RMK T00200020 IEM_DS3505
ZBYN,1989-11-08 03:00,ZBYN 080300Z AUTO 27002KT 4SM 05/03 A3045 RMK SLP339 T00500029 54000 IEM_DS3505
ZBYN,1989-11-08 04:00,ZBYN 080400Z AUTO 10004KT 7SM 08/M02 A3042 RMK T00801020 IEM_DS3505
ZBYN,1989-11-08 06:00,ZBYN 080600Z AUTO 14002KT 7SM 10/M02 A3036 RMK SLP298 T00961019 4////0006 IEM_DS3505
ZBYN,1989-11-08 07:00,ZBYN 080700Z AUTO 00000KT 7SM 11/M02 A3033 RMK T01101020 IEM_DS3505
ZBYN,1989-11-08 08:00,ZBYN 080800Z AUTO 18002KT 7SM 10/M02 A3033 RMK T01001020 IEM_DS3505
ZBYN,1989-11-08 09:00,ZBYN 080900Z AUTO 20004KT 6SM 09/00 A3033 RMK SLP293 T00900000 57008 IEM_DS3505
ZBYN,1989-11-08 10:00,ZBYN 081000Z AUTO 20004KT 7SM 07/01 A3033 RMK T00700010 IEM_DS3505
ZBYN,1989-11-08 11:00,ZBYN 081100Z AUTO 09010KT 7SM 06/02 A3033 RMK T00600020 IEM_DS3505
ZBYN,1989-11-08 12:00,ZBYN 081200Z AUTO 00000KT 6SM 05/02 A3033 RMK SLP300 T00510017 52002 IEM_DS3505
ZBYN,1989-11-08 13:00,ZBYN 081300Z AUTO 07006KT 7SM 05/M01 A3033 RMK T00501010 IEM_DS3505
ZBYN,1989-11-08 14:00,ZBYN 081400Z AUTO 11006KT 7SM 04/M01 A3036 RMK T00401010 IEM_DS3505
ZBYN,1989-11-08 15:00,ZBYN 081500Z AUTO 00000KT 7SM 04/02 RMK SLP300 T00350018 52003 IEM_DS3505
ZBYN,1989-11-08 16:00,ZBYN 081600Z AUTO 09004KT 7SM 04/01 A3033 RMK T00400010 IEM_DS3505
ZBYN,1989-11-08 18:00,ZBYN 081800Z AUTO 14004KT 7SM 04/02 A3030 RMK SLP279 T00380019 40103//// 57011 IEM_DS3505
ZBYN,1989-11-08 20:00,ZBYN 082000Z AUTO 00000KT 7SM 03/01 A3030 RMK T00300010 IEM_DS3505
ZBYN,1989-11-08 21:00,ZBYN 082100Z AUTO 11006KT 6SM 02/01 A3027 RMK SLP278 T00160008 57007 IEM_DS3505
ZBYN,1989-11-08 23:00,ZBYN 082300Z AUTO 11002KT 2 1/2SM 02/00 A3030 RMK T00200000 IEM_DS3505
ZBYN,1989-11-09 00:00,ZBYN 090000Z AUTO 11004KT 5SM 02/00 RMK SLP289 T00150005 52005 IEM_DS3505
ZBYN,1989-11-09 01:00,ZBYN 090100Z AUTO 00000KT 04/02 A3033 RMK T00400020 IEM_DS3505
ZBYN,1989-11-09 03:00,ZBYN 090300Z AUTO 18004KT 5SM 07/03 RMK SLP293 T00720031 52010 IEM_DS3505
ZBYN,1989-11-09 04:00,ZBYN 090400Z AUTO 22010KT 7SM 10/02 A3030 RMK T01000020 IEM_DS3505
ZBYN,1989-11-09 05:00,ZBYN 090500Z AUTO 24002KT 7SM 12/M02 A3024 RMK T01201020 IEM_DS3505
ZBYN,1989-11-09 06:00,ZBYN 090600Z AUTO 22004KT 7SM 12/02 RMK SLP253 T01190015 4////0009 57028 IEM_DS3505
ZBYN,1989-11-09 09:00,ZBYN 090900Z AUTO 32004KT 9SM 10/M05 RMK SLP268 T00981054 52007 IEM_DS3505
ZBYN,1989-11-09 10:00,ZBYN 091000Z AUTO 05004KT 7SM 07/M02 A3027 RMK T00701020 IEM_DS3505
ZBYN,1989-11-09 11:00,ZBYN 091100Z AUTO 33006KT 7SM 05/M05 A3030 RMK T00501050 IEM_DS3505
ZBYN,1989-11-09 12:00,ZBYN 091200Z AUTO 32006KT 12SM 06/M05 A3036 RMK SLP301 T00561053 52023 IEM_DS3505
ZBYN,1989-11-09 15:00,ZBYN 091500Z AUTO 36002KT 12SM 02/M04 A3036 RMK SLP306 T00161036 52007 IEM_DS3505
ZBYN,1989-11-09 16:00,ZBYN 091600Z AUTO 33004KT 6SM M01/M04 A3036 RMK T10101040 IEM_DS3505
ZBYN,1989-11-09 17:00,ZBYN 091700Z AUTO 33004KT 7SM M02/M04 A3036 RMK T10201040 IEM_DS3505
ZBYN,1989-11-09 18:00,ZBYN 091800Z AUTO 32004KT 12SM 01/M04 A3036 RMK SLP295 T00071044 40122//// 57004 IEM_DS3505
ZBYN,1989-11-09 19:00,ZBYN 091900Z AUTO 33008KT 6SM 00/M04 A3033 RMK T00001040 IEM_DS3505
ZBYN,1989-11-09 20:00,ZBYN 092000Z AUTO 35002KT 6SM M01/M04 A3033 RMK T10101040 IEM_DS3505
ZBYN,1989-11-09 21:00,ZBYN 092100Z AUTO 34006KT 9SM 00/M04 RMK SLP294 T00021043 57005 IEM_DS3505
ZBYN,1989-11-09 22:00,ZBYN 092200Z AUTO 33004KT 6SM 01/M05 A3033 RMK T00101050 IEM_DS3505
ZBYN,1989-11-10 00:00,ZBYN 100000Z AUTO 32004KT 6SM 01/M04 A3036 RMK SLP303 T00061042 52002 IEM_DS3505
ZBYN,1989-11-10 01:00,ZBYN 100100Z AUTO 36008KT 6SM 02/M05 A3036 RMK T00201050 IEM_DS3505
ZBYN,1989-11-10 02:00,ZBYN 100200Z AUTO 24004KT 6SM 03/M05 A3036 RMK T00301050 IEM_DS3505
ZBYN,1989-11-10 03:00,ZBYN 100300Z AUTO 00000KT 5SM 03/M04 A3033 RMK SLP306 T00341037 52001 IEM_DS3505
ZBYN,1989-11-10 04:00,ZBYN 100400Z AUTO 08006KT 7SM 04/M01 A3033 RMK T00401010 IEM_DS3505
ZBYN,1989-11-10 05:00,ZBYN 100500Z AUTO 11004KT 6SM 06/00 A3024 RMK T00600000 IEM_DS3505
ZBYN,1989-11-10 06:00,ZBYN 100600Z AUTO 00000KT 5SM 05/M00 A3024 RMK SLP267 T00461002 4////1006 57035 IEM_DS3505
ZBYN,1989-11-10 07:00,ZBYN 100700Z AUTO 00000KT 7SM 05/01 A3021 RMK T00500010 IEM_DS3505
ZBYN,1989-11-10 08:00,ZBYN 100800Z AUTO 33002KT 1 1/2SM 04/00 A3021 RMK T00400000 IEM_DS3505
ZBYN,1989-11-10 09:00,ZBYN 100900Z AUTO 00000KT 4SM 02/02 RMK SLP272 T00210016 54000 IEM_DS3505
ZBYN,1989-11-10 11:00,ZBYN 101100Z AUTO 00000KT 1 1/4SM 02/02 A3024 RMK T00200020 IEM_DS3505
ZBYN,1989-11-10 12:00,ZBYN 101200Z AUTO 32002KT 4SM 02/01 A3024 RMK 60004 SLP277 T00160011 52004 IEM_DS3505
ZBYN,1989-11-10 13:00,ZBYN 101300Z AUTO 00000KT 1SM 02/02 A3024 RMK T00200020 IEM_DS3505
ZBYN,1989-11-10 14:00,ZBYN 101400Z AUTO 00000KT 1 1/4SM 02/02 A3024 RMK T00200020 IEM_DS3505
ZBYN,1989-11-10 15:00,ZBYN 101500Z AUTO 18004KT 4SM 02/02 A3024 RMK SLP272 T00220020 52001 IEM_DS3505
ZBYN,1989-11-10 18:00,ZBYN 101800Z AUTO 18004KT 4SM 02/02 RMK SLP260 T00210019 40049//// 57009 IEM_DS3505
ZBYN,1989-11-10 21:00,ZBYN 102100Z AUTO 18002KT 4SM 02/02 RMK SLP254 T00250018 57009 IEM_DS3505
ZBYN,1989-11-11 00:00,ZBYN 110000Z AUTO 00000KT 2 1/2SM 03/02 A3018 RMK 70004 SLP259 T00270022 52004 IEM_DS3505
ZBYN,1989-11-11 01:00,ZBYN 110100Z AUTO 00000KT 1SM 03/01 RMK T00300010 IEM_DS3505
ZBYN,1989-11-11 03:00,ZBYN 110300Z AUTO 00000KT 4SM 06/03 RMK SLP260 T00570027 52007 IEM_DS3505
ZBYN,1989-11-11 04:00,ZBYN 110400Z AUTO 17006KT 2 1/2SM 06/03 A3024 RMK T00600030 IEM_DS3505
ZBYN,1989-11-11 05:00,ZBYN 110500Z AUTO 00000KT 2 1/2SM 05/02 A3021 RMK T00500020 IEM_DS3505
ZBYN,1989-11-11 06:00,ZBYN 110600Z AUTO 00000KT 6SM 07/03 A3015 RMK SLP239 T00720026 4////0015 57017 IEM_DS3505
ZBYN,1989-11-11 08:00,ZBYN 110800Z AUTO 00000KT 6SM 09/01 A3015 RMK T00900010 IEM_DS3505
ZBYN,1989-11-11 09:00,ZBYN 110900Z AUTO 00000KT 11SM 07/01 A3015 RMK SLP240 T00710011 52001 IEM_DS3505
ZBYN,1989-11-11 12:00,ZBYN 111200Z AUTO 25002KT 11SM 05/M02 RMK SLP263 T00491020 52018 IEM_DS3505
ZBYN,1989-11-11 13:00,ZBYN 111300Z AUTO 30019KT 6SM 05/M04 A3027 RMK T00501040 IEM_DS3505
ZBYN,1989-11-11 15:00,ZBYN 111500Z AUTO 25002KT 9SM 04/M03 RMK SLP288 T00421033 52026 IEM_DS3505
ZBYN,1989-11-11 16:00,ZBYN 111600Z AUTO 26006KT 6SM 04/M04 A3033 RMK T00401040 IEM_DS3505
ZBYN,1989-11-11 18:00,ZBYN 111800Z AUTO 32004KT 12SM 04/M08 RMK SLP297 T00381083 40087//// 52010 IEM_DS3505
ZBYN,1989-11-11 20:00,ZBYN 112000Z AUTO 30004KT 6SM 03/M09 A3033 RMK T00301090 IEM_DS3505
ZBYN,1989-11-11 21:00,ZBYN 112100Z AUTO 00000KT 9SM 02/M09 A3033 RMK SLP297 T00241088 57002 IEM_DS3505
ZBYN,1989-11-11 23:00,ZBYN 112300Z AUTO 30006KT 6SM 04/M04 A3036 RMK T00401040 IEM_DS3505
ZBYN,1989-11-12 00:00,ZBYN 120000Z AUTO 34004KT 16SM 01/M07 A3039 RMK T00111069 52013 IEM_DS3505
ZBYN,1989-11-12 01:00,ZBYN 120100Z AUTO 31008KT 6SM 03/M09 A3042 RMK T00301090 IEM_DS3505
ZBYN,1989-11-12 02:00,ZBYN 120200Z AUTO 35004KT 6SM 05/M08 A3045 RMK T00501080 IEM_DS3505
ZBYN,1989-11-12 03:00,ZBYN 120300Z AUTO 34002KT 9SM 03/M08 RMK SLP333 T00321075 52016 IEM_DS3505
ZBYN,1989-11-12 05:00,ZBYN 120500Z AUTO 34006KT 6SM 06/M09 A3039 RMK T00601090 IEM_DS3505
ZBYN,1989-11-12 06:00,ZBYN 120600Z AUTO 36002KT 9SM 06/M09 RMK SLP309 T00561088 4////0010 57018 IEM_DS3505
ZBYN,1989-11-12 07:00,ZBYN 120700Z AUTO 29004KT 6SM 07/M07 A3039 RMK T00701070 IEM_DS3505
ZBYN,1989-11-12 09:00,ZBYN 120900Z AUTO 6SM 05/M07 RMK SLP322 T00481066 52008 IEM_DS3505
ZBYN,1989-11-12 12:00,ZBYN 121200Z AUTO 32002KT 6SM 00/M06 RMK SLP352 T00051058 52018 IEM_DS3505
ZBYN,1989-11-12 15:00,ZBYN 121500Z AUTO 32002KT 6SM 00/M07 RMK SLP373 T00001068 52022 IEM_DS3505
ZBYN,1989-11-12 18:00,ZBYN 121800Z AUTO 34004KT 6SM M02/M10 RMK SLP381 T10161098 40066//// 52008 IEM_DS3505
ZBYN,1989-11-12 21:00,ZBYN 122100Z AUTO 34004KT 7SM M03/M10 RMK SLP379 T10261104 57004 IEM_DS3505
ZBYN,1989-11-12 23:00,ZBYN 122300Z AUTO 00000KT 6SM M06/M08 A3056 RMK T10601080 IEM_DS3505
ZBYN,1989-11-13 00:00,ZBYN 130000Z AUTO 00000KT 6SM M03/M10 A3056 RMK SLP400 T10291099 52012 IEM_DS3505
ZBYN,1989-11-13 01:00,ZBYN 130100Z AUTO 35004KT 4SM M02/M07 A3059 RMK T10201070 IEM_DS3505
ZBYN,1989-11-13 02:00,ZBYN 130200Z AUTO 35012KT 6SM 00/M11 A3059 RMK T00001110 IEM_DS3505
ZBYN,1989-11-13 03:00,ZBYN 130300Z AUTO 34004KT 3SM 00/M11 RMK SLP401 T00001110 52004 IEM_DS3505
ZBYN,1989-11-13 06:00,ZBYN 130600Z AUTO 00000KT 6SM 02/M11 A3053 RMK SLP375 T00241112 4////1048 57022 IEM_DS3505
ZBYN,1989-11-13 09:00,ZBYN 130900Z AUTO 00000KT 5SM 02/M08 RMK SLP366 T00201079 57011 IEM_DS3505
ZBYN,1989-11-13 12:00,ZBYN 131200Z AUTO 00000KT 6SM 00/M06 RMK SLP377 T00021063 52006 IEM_DS3505
ZBYN,1989-11-13 15:00,ZBYN 131500Z AUTO 00000KT 6SM M02/M05 RMK SLP377 T10211051 52002 IEM_DS3505
ZBYN,1989-11-13 18:00,ZBYN 131800Z AUTO 00000KT 5SM M03/M05 RMK SLP368 T10261050 40029//// 57005 IEM_DS3505
ZBYN,1989-11-13 21:00,ZBYN 132100Z AUTO 00000KT 5SM M03/M06 RMK SLP360 T10341063 57010 IEM_DS3505
ZBYN,1989-11-14 00:00,ZBYN 140000Z AUTO 00000KT 5SM M02/M05 RMK SLP340 T10251052 52002 IEM_DS3505
ZBYN,1989-11-14 03:00,ZBYN 140300Z AUTO 00000KT 5SM 01/M02 A3045 RMK SLP357 T00091022 57004 IEM_DS3505
ZBYN,1989-11-14 06:00,ZBYN 140600Z AUTO 16004KT 6SM 03/M03 RMK SLP326 T00261027 4////1047 57026 IEM_DS3505
ZBYN,1989-11-14 09:00,ZBYN 140900Z AUTO 18006KT 5SM 03/M01 A3033 RMK SLP316 T00271013 57010 IEM_DS3505
ZBYN,1989-11-14 12:00,ZBYN 141200Z AUTO 11004KT 5SM 01/M01 RMK SLP321 T00111014 52003 IEM_DS3505
ZBYN,1989-11-14 13:00,ZBYN 141300Z AUTO 00000KT 4SM 00/00 A3036 RMK T00000000 IEM_DS3505
ZBYN,1989-11-14 15:00,ZBYN 141500Z AUTO 00000KT 5SM 02/M01 RMK SLP317 T00161011 52003 IEM_DS3505
ZBYN,1989-11-14 18:00,ZBYN 141800Z AUTO 00000KT 5SM M00/M02 RMK SLP312 T10011015 40038//// 57005 IEM_DS3505
ZBYN,1989-11-14 21:00,ZBYN 142100Z AUTO 00000KT 4SM M02/M03 RMK SLP299 T10181027 57014 IEM_DS3505
ZBYN,1989-11-15 00:00,ZBYN 150000Z AUTO 10002KT 2SM M01/M02 A3033 RMK T10101020 IEM_DS3505
ZBYN,1989-11-15 03:00,ZBYN 150300Z AUTO 18004KT 6SM 04/M02 A3033 RMK SLP303 T00351025 52003 IEM_DS3505
ZBYN,1989-11-15 06:00,ZBYN 150600Z AUTO 25004KT 6SM 08/M02 RMK SLP267 T00751020 4////1026 57029 IEM_DS3505
ZBYN,1989-11-15 09:00,ZBYN 150900Z AUTO 32008KT 12SM 08/M07 RMK SLP265 T00761069 57004 IEM_DS3505
ZBYN,1989-11-15 10:00,ZBYN 151000Z AUTO 27004KT 7SM 04/M02 RMK T00401020 IEM_DS3505
ZBYN,1989-11-15 11:00,ZBYN 151100Z AUTO 30010KT 7SM 03/M04 A3027 RMK T00301040 IEM_DS3505
ZBYN,1989-11-15 12:00,ZBYN 151200Z AUTO 32002KT 9SM 03/M07 A3030 RMK SLP296 T00281068 52021 IEM_DS3505
ZBYN,1989-11-15 13:00,ZBYN 151300Z AUTO 28006KT 7SM 03/M05 A3033 RMK T00301050 IEM_DS3505
ZBYN,1989-11-15 15:00,ZBYN 151500Z AUTO 00000KT 9SM M01/M04 RMK SLP307 T10131037 52011 IEM_DS3505
ZBYN,1989-11-15 16:00,ZBYN 151600Z AUTO 11004KT 7SM M03/M05 A3036 RMK T10301050 IEM_DS3505
ZBYN,1989-11-15 17:00,ZBYN 151700Z AUTO 11002KT 7SM M03/M05 A3036 RMK T10301050 IEM_DS3505
ZBYN,1989-11-15 18:00,ZBYN 151800Z AUTO 11002KT 7SM M03/M04 A3033 RMK SLP302 T10261045 40087//// 54000 IEM_DS3505
ZBYN,1989-11-15 20:00,ZBYN 152000Z AUTO 08002KT 4SM M03/M05 A3030 RMK T10301050 IEM_DS3505
ZBYN,1989-11-15 21:00,ZBYN 152100Z AUTO 16004KT 6SM M01/M02 A3030 RMK SLP294 T10131021 57005 IEM_DS3505
ZBYN,1989-11-15 22:00,ZBYN 152200Z AUTO 15002KT 1 1/2SM M01/M02 A3033 RMK T10101020 IEM_DS3505
ZBYN,1989-11-16 00:00,ZBYN 160000Z AUTO 00000KT 4SM M02/M03 A3036 RMK SLP307 T10151026 52004 IEM_DS3505
ZBYN,1989-11-16 01:00,ZBYN 160100Z AUTO 15002KT 1 1/2SM M01/M01 A3036 RMK T10101010 IEM_DS3505
ZBYN,1989-11-16 03:00,ZBYN 160300Z AUTO 00000KT 5SM 00/M03 A3033 RMK SLP318 T00011029 52006 IEM_DS3505
ZBYN,1989-11-16 06:00,ZBYN 160600Z AUTO 20010KT 5SM 07/M00 RMK SLP270 T00731004 4////1039 57034 IEM_DS3505
ZBYN,1989-11-16 09:00,ZBYN 160900Z AUTO 27004KT 9SM 08/M01 RMK SLP258 T00801014 IEM_DS3505
ZBYN,1989-11-16 12:00,ZBYN 161200Z AUTO 00000KT 16SM 04/M07 A3024 RMK SLP277 T00421067 52011 IEM_DS3505
ZBYN,1989-11-16 15:00,ZBYN 161500Z AUTO 00000KT 7SM M00/M02 RMK SLP292 T10021025 52009 IEM_DS3505
ZBYN,1989-11-16 18:00,ZBYN 161800Z AUTO 00000KT 6SM M02/M04 RMK SLP282 T10191041 40091//// 54000 IEM_DS3505
ZBYN,1989-11-16 21:00,ZBYN 162100Z AUTO 32004KT 5SM M04/M05 RMK SLP285 T10371049 52001 IEM_DS3505
ZBYN,1989-11-16 23:00,ZBYN 162300Z AUTO 00000KT 1 1/2SM M05/M07 A3033 RMK T10501070 IEM_DS3505
ZBYN,1989-11-17 00:00,ZBYN 170000Z AUTO 29008KT 12SM 01/M08 RMK SLP307 T00101082 52021 IEM_DS3505
ZBYN,1989-11-17 01:00,ZBYN 170100Z AUTO 31014KT 7SM 02/M11 A3039 RMK T00201110 IEM_DS3505
ZBYN,1989-11-17 02:00,ZBYN 170200Z AUTO 31016KT 7SM 04/M15 A3042 RMK T00401150 IEM_DS3505
ZBYN,1989-11-17 03:00,ZBYN 170300Z AUTO 29010KT 12SM 04/M11 RMK SLP328 T00431110 52017 IEM_DS3505
ZBYN,1989-11-17 04:00,ZBYN 170400Z AUTO 30019KT 7SM 05/M20 A3042 RMK T00501200 IEM_DS3505
ZBYN,1989-11-17 05:00,ZBYN 170500Z AUTO 27016KT 7SM 05/M21 A3039 RMK T00501210 IEM_DS3505
ZBYN,1989-11-17 06:00,ZBYN 170600Z AUTO 32012KT 12SM 05/M11 A3039 RMK SLP323 T00471110 4////1048 57006 IEM_DS3505
ZBYN,1989-11-17 07:00,ZBYN 170700Z AUTO 36021KT 12SM 05/M11 A3039 RMK SLP323 T00471110 4////1048 57006 IEM_DS3505
ZBYN,1989-11-17 09:00,ZBYN 170900Z AUTO 32008KT 12SM 02/M24 RMK SLP341 T00151240 52008 IEM_DS3505
ZBYN,1989-11-17 10:00,ZBYN 171000Z AUTO 32014KT 7SM 01/M20 A3045 RMK T00101200 IEM_DS3505
ZBYN,1989-11-17 11:00,ZBYN 171100Z AUTO 30016KT 7SM M01/ A3047 RMK IEM_DS3505
ZBYN,1989-11-17 12:00,ZBYN 171200Z AUTO 32010KT 17SM M01/M24 A3050 RMK SLP372 T10141240 52031 IEM_DS3505
ZBYN,1989-11-17 14:00,ZBYN 171400Z AUTO 31014KT 7SM M04/M19 A3056 RMK T10401190 IEM_DS3505
ZBYN,1989-11-17 15:00,ZBYN 171500Z AUTO 32004KT 12SM M03/M20 RMK SLP384 T10341195 52013 IEM_DS3505
ZBYN,1989-11-17 18:00,ZBYN 171800Z AUTO 02002KT 12SM M04/M17 RMK SLP392 T10441168 40048//// 52006 IEM_DS3505
ZBYN,1989-11-17 21:00,ZBYN 172100Z AUTO 34004KT 12SM M06/M18 RMK SLP404 T10621176 52003 IEM_DS3505
ZBYN,1989-11-17 23:00,ZBYN 172300Z AUTO 35006KT 7SM M11/M15 RMK T11101150 IEM_DS3505
ZBYN,1989-11-18 01:00,ZBYN 180100Z AUTO 25004KT 7SM M05/M15 A3062 RMK T10501150 IEM_DS3505
ZBYN,1989-11-18 03:00,ZBYN 180300Z AUTO 20002KT 9SM M01/M18 RMK SLP413 T10131182 57005 IEM_DS3505
ZBYN,1989-11-18 05:00,ZBYN 180500Z AUTO 00000KT 7SM 02/M16 A3050 RMK T00201160 IEM_DS3505
ZBYN,1989-11-18 06:00,ZBYN 180600Z AUTO 18004KT 12SM 01/M16 A3047 RMK SLP369 T00141164 4////1081 57037 IEM_DS3505
ZBYN,1989-11-18 07:00,ZBYN 180700Z AUTO 00000KT 7SM 02/M18 A3045 RMK T00201180 IEM_DS3505
ZBYN,1989-11-18 09:00,ZBYN 180900Z AUTO 00000KT 16SM 00/M14 A3045 RMK SLP350 T00041145 IEM_DS3505
ZBYN,1989-11-18 11:00,ZBYN 181100Z AUTO 00000KT 7SM M05/M14 A3042 RMK T10501140 IEM_DS3505
ZBYN,1989-11-18 12:00,ZBYN 181200Z AUTO 00000KT 12SM M04/M10 A3042 RMK T10411103 57001 IEM_DS3505
ZBYN,1989-11-18 13:00,ZBYN 181300Z AUTO 00000KT 6SM M06/M12 A3042 RMK T10601120 IEM_DS3505
ZBYN,1989-11-18 15:00,ZBYN 181500Z AUTO 34004KT 12SM M02/M11 RMK SLP342 T10241106 57003 IEM_DS3505
ZBYN,1989-11-18 18:00,ZBYN 181800Z AUTO 00000KT 12SM M03/M08 RMK SLP328 T10281084 40019//// 57009 IEM_DS3505
ZBYN,1989-11-18 21:00,ZBYN 182100Z AUTO 34002KT 7SM M02/M14 A3033 RMK SLP318 T10201145 57009 IEM_DS3505
ZBYN,1989-11-19 00:00,ZBYN 190000Z AUTO 00000KT 6SM M03/M11 RMK SLP333 T10281112 52005 IEM_DS3505
ZBYN,1989-11-19 00:17,ZBYN 190017Z AUTO 00000KT 4SM M03/M09 A3036 RMK T10301090 IEM_DS3505
ZBYN,1989-11-19 00:20,ZBYN 190020Z AUTO 00000KT 4SM M03/M09 A3036 RMK T10301090 IEM_DS3505
ZBYN,1989-11-19 01:15,ZBYN 190115Z AUTO 00000KT 2 1/2SM M03/M10 A3039 RMK T10301100 IEM_DS3505
ZBYN,1989-11-19 01:19,ZBYN 190119Z AUTO 00000KT 2 1/2SM M03/M10 A3039 RMK T10301100 IEM_DS3505
ZBYN,1989-11-19 02:00,ZBYN 190200Z AUTO 07002KT 2SM 01/M09 A3036 RMK T00101090 IEM_DS3505
ZBYN,1989-11-19 03:00,ZBYN 190300Z AUTO 16004KT 5SM 03/M11 RMK SLP322 T00261107 52002 IEM_DS3505
ZBYN,1989-11-19 04:00,ZBYN 190400Z AUTO 20004KT 7SM 03/M14 A3033 RMK T00301140 IEM_DS3505
ZBYN,1989-11-19 06:00,ZBYN 190600Z AUTO 18008KT 5SM 05/M14 RMK SLP287 T00501135 4////1049 57029 IEM_DS3505
ZBYN,1989-11-19 09:00,ZBYN 190900Z AUTO 11002KT 7SM 03/M10 RMK SLP283 T00261104 57006 IEM_DS3505
ZBYN,1989-11-19 12:00,ZBYN 191200Z AUTO 00000KT 6SM M01/M07 RMK SLP306 T10071073 52014 IEM_DS3505
ZBYN,1989-11-19 14:00,ZBYN 191400Z AUTO 11004KT 5SM M04/M11 A3033 RMK T10401110 IEM_DS3505
ZBYN,1989-11-19 15:00,ZBYN 191500Z AUTO 14002KT 6SM M04/M08 RMK SLP318 T10411084 52014 IEM_DS3505
ZBYN,1989-11-19 16:00,ZBYN 191600Z AUTO 11004KT 7SM M05/M11 A3036 RMK T10501110 IEM_DS3505
ZBYN,1989-11-19 17:00,ZBYN 191700Z AUTO 07002KT 7SM M06/M11 A3036 RMK T10601110 IEM_DS3505
ZBYN,1989-11-19 18:00,ZBYN 191800Z AUTO 00000KT 5SM M05/M09 A3036 RMK SLP318 T10501093 40057//// 52003 IEM_DS3505
ZBYN,1989-11-19 19:00,ZBYN 191900Z AUTO 07004KT 7SM M06/M11 A3036 RMK T10601110 IEM_DS3505
ZBYN,1989-11-19 20:00,ZBYN 192000Z AUTO 00000KT 7SM M08/M11 A3036 RMK T10801110 IEM_DS3505
ZBYN,1989-11-19 21:00,ZBYN 192100Z AUTO 00000KT 5SM M06/M08 A3036 RMK SLP324 T10641080 57001 IEM_DS3505
ZBYN,1989-11-19 22:00,ZBYN 192200Z AUTO 00000KT 5SM M08/M10 A3036 RMK T10801100 IEM_DS3505
ZBYN,1989-11-20 00:00,ZBYN 200000Z AUTO 00000KT 4SM M07/M08 RMK SLP341 T10721081 52008 IEM_DS3505
ZBYN,1989-11-20 02:00,ZBYN 200200Z AUTO 00000KT 2 1/2SM 00/M08 A3039 RMK T00001080 IEM_DS3505
ZBYN,1989-11-20 03:00,ZBYN 200300Z AUTO 00000KT 4SM 02/M07 A3039 RMK SLP335 T00161074 52004 IEM_DS3505
ZBYN,1989-11-20 04:00,ZBYN 200400Z AUTO 00000KT 2SM 03/M11 A3036 RMK T00301110 IEM_DS3505
ZBYN,1989-11-20 05:00,ZBYN 200500Z AUTO 00000KT 4SM 05/M11 A3033 RMK T00501110 IEM_DS3505
ZBYN,1989-11-20 06:00,ZBYN 200600Z AUTO 00000KT 5SM 05/M10 A3033 RMK SLP303 T00461097 4////1080 57026 IEM_DS3505
ZBYN,1989-11-20 08:00,ZBYN 200800Z AUTO 00000KT 6SM 05/M09 A3027 RMK T00501090 IEM_DS3505
ZBYN,1989-11-20 09:00,ZBYN 200900Z AUTO 00000KT 6SM 03/M07 A3027 RMK SLP298 T00301069 57009 IEM_DS3505
ZBYN,1989-11-20 10:00,ZBYN 201000Z AUTO 00000KT 2 1/2SM 01/M05 A3027 RMK T00101050 IEM_DS3505
ZBYN,1989-11-20 11:00,ZBYN 201100Z AUTO 00000KT 4SM M01/M06 A3033 RMK T10101060 IEM_DS3505
ZBYN,1989-11-20 12:00,ZBYN 201200Z AUTO 00000KT 6SM M01/M05 A3033 RMK SLP322 T10061053 52014 IEM_DS3505
ZBYN,1989-11-20 13:00,ZBYN 201300Z AUTO 11004KT 4SM M02/M07 A3033 RMK T10201070 IEM_DS3505
ZBYN,1989-11-20 14:00,ZBYN 201400Z AUTO 4SM M03/M06 A3036 RMK T10301060 IEM_DS3505
ZBYN,1989-11-20 15:00,ZBYN 201500Z AUTO 00000KT 4SM M03/M06 A3036 RMK SLP317 T10281061 52007 IEM_DS3505
ZBYN,1989-11-20 18:00,ZBYN 201800Z AUTO 00000KT 4SM M04/M06 RMK SLP307 T10431063 40064//// 57007 IEM_DS3505
ZBYN,1989-11-20 19:00,ZBYN 201900Z AUTO 00000KT 6SM M06/M09 A3033 RMK T10601090 IEM_DS3505
ZBYN,1989-11-20 21:00,ZBYN 202100Z AUTO 00000KT 4SM M05/M07 A3030 RMK SLP304 T10501067 57006 IEM_DS3505
ZBYN,1989-11-20 22:00,ZBYN 202200Z AUTO 00000KT 4SM M07/M09 A3030 RMK T10701090 IEM_DS3505
ZBYN,1989-11-20 23:00,ZBYN 202300Z AUTO 00000KT 2SM M07/M08 A3030 RMK T10701080 IEM_DS3505
ZBYN,1989-11-21 00:00,ZBYN 210000Z AUTO 00000KT 3SM M05/M07 A3033 RMK SLP316 T10461070 52005 IEM_DS3505
ZBYN,1989-11-21 01:00,ZBYN 210100Z AUTO 00000KT 1 1/2SM M04/M07 A3036 RMK T10401070 IEM_DS3505
ZBYN,1989-11-21 03:00,ZBYN 210300Z AUTO 07004KT 4SM 03/M06 A3036 RMK SLP312 T00261063 52005 IEM_DS3505
ZBYN,1989-11-21 04:00,ZBYN 210400Z AUTO 2 1/2SM 06/M07 A3036 RMK T00601070 IEM_DS3505
ZBYN,1989-11-21 06:00,ZBYN 210600Z AUTO 22004KT 4SM 07/M03 A3027 RMK SLP290 T00741032 4////1053 57015 IEM_DS3505
ZBYN,1989-11-21 07:00,ZBYN 210700Z AUTO 21002KT 2 1/2SM 08/M04 A3027 RMK T00801040 IEM_DS3505
ZBYN,1989-11-21 08:00,ZBYN 210800Z AUTO 00000KT 4SM 08/M02 A3027 RMK T00801020 IEM_DS3505
ZBYN,1989-11-21 09:00,ZBYN 210900Z AUTO 00000KT 4SM 05/M03 A3027 RMK SLP290 T00541026 57004 IEM_DS3505
ZBYN,1989-11-21 11:00,ZBYN 211100Z AUTO 00000KT 2 1/2SM 00/M05 A3030 RMK T00001050 IEM_DS3505
ZBYN,1989-11-21 12:00,ZBYN 211200Z AUTO 00000KT 4SM 01/M03 A3030 RMK SLP308 T00121034 52010 IEM_DS3505
ZBYN,1989-11-21 14:00,ZBYN 211400Z AUTO 08002KT 2 1/2SM M02/M06 A3033 RMK T10201060 IEM_DS3505
ZBYN,1989-11-21 15:00,ZBYN 211500Z AUTO 00000KT 4SM M02/M04 A3036 RMK SLP311 T10161044 52010 IEM_DS3505
ZBYN,1989-11-21 16:00,ZBYN 211600Z AUTO 00000KT 2 1/2SM M04/M06 A3036 RMK T10401060 IEM_DS3505
ZBYN,1989-11-21 17:00,ZBYN 211700Z AUTO 00000KT 2SM M05/M07 A3036 RMK T10501070 IEM_DS3505
ZBYN,1989-11-21 18:00,ZBYN 211800Z AUTO 00000KT 3SM M04/M05 A3036 RMK SLP309 T10351050 40082//// 52003 IEM_DS3505
ZBYN,1989-11-21 21:00,ZBYN 212100Z AUTO 00000KT 4SM M04/M05 A3036 RMK SLP315 T10421047 52001 IEM_DS3505
ZBYN,1989-11-21 22:00,ZBYN 212200Z AUTO 00000KT 2SM M06/M07 A3036 RMK T10601070 IEM_DS3505
ZBYN,1989-11-21 23:00,ZBYN 212300Z AUTO 00000KT 1 1/4SM M06/M08 A3036 RMK T10601080 IEM_DS3505
ZBYN,1989-11-22 00:00,ZBYN 220000Z AUTO 00000KT 2 1/2SM M04/M05 A3039 RMK T10361054 IEM_DS3505
ZBYN,1989-11-22 01:00,ZBYN 220100Z AUTO 00000KT 1SM M03/M06 A3039 RMK T10301060 IEM_DS3505
ZBYN,1989-11-22 02:00,ZBYN 220200Z AUTO 00000KT 1SM 00/M03 A3039 RMK T00001030 IEM_DS3505
ZBYN,1989-11-22 03:00,ZBYN 220300Z AUTO 00000KT 4SM 03/M02 A3039 RMK SLP325 T00341017 52004 IEM_DS3505
ZBYN,1989-11-22 04:00,ZBYN 220400Z AUTO 20006KT 2SM 06/M02 A3036 RMK T00601020 IEM_DS3505
ZBYN,1989-11-22 05:00,ZBYN 220500Z AUTO 22006KT 4SM 08/M03 A3033 RMK T00801030 IEM_DS3505
ZBYN,1989-11-22 06:00,ZBYN 220600Z AUTO 16004KT 6SM 09/M05 RMK SLP287 T00881047 4////1050 57029 IEM_DS3505
ZBYN,1989-11-22 07:00,ZBYN 220700Z AUTO 11002KT 7SM 10/M03 A3027 RMK T01001030 IEM_DS3505
ZBYN,1989-11-22 08:00,ZBYN 220800Z AUTO 17004KT 6SM 10/M05 A3027 RMK T01001050 IEM_DS3505
ZBYN,1989-11-22 09:00,ZBYN 220900Z AUTO 00000KT 6SM 07/M04 RMK SLP283 T00721043 57007 IEM_DS3505
ZBYN,1989-11-22 10:00,ZBYN 221000Z AUTO 08004KT 7SM 02/M03 A3027 RMK T00201030 IEM_DS3505
ZBYN,1989-11-22 12:00,ZBYN 221200Z AUTO 00000KT 4SM 01/M04 A3030 RMK T00141039 52011 IEM_DS3505
ZBYN,1989-11-22 13:00,ZBYN 221300Z AUTO 10004KT 7SM M01/M05 A3033 RMK T10101050 IEM_DS3505
ZBYN,1989-11-22 15:00,ZBYN 221500Z AUTO 00000KT 4SM M01/M04 A3033 RMK SLP309 T10111035 52011 IEM_DS3505
ZBYN,1989-11-22 16:00,ZBYN 221600Z AUTO 05006KT 6SM M02/M05 A3036 RMK T10201050 IEM_DS3505
ZBYN,1989-11-22 17:00,ZBYN 221700Z AUTO 00000KT 4SM M04/M06 A3036 RMK T10401060 IEM_DS3505
ZBYN,1989-11-22 18:00,ZBYN 221800Z AUTO 00000KT 4SM M02/M05 A3036 RMK SLP302 T10201052 40093//// 52001 IEM_DS3505
ZBYN,1989-11-22 19:00,ZBYN 221900Z AUTO 00000KT 7SM M03/M06 A3036 RMK T10301060 IEM_DS3505
ZBYN,1989-11-22 20:00,ZBYN 222000Z AUTO 03002KT 7SM M05/M07 A3039 RMK T10501070 IEM_DS3505
ZBYN,1989-11-22 21:00,ZBYN 222100Z AUTO 34004KT 5SM M01/M07 A3039 RMK SLP308 T10091073 52005 IEM_DS3505
ZBYN,1989-11-22 22:00,ZBYN 222200Z AUTO 11004KT 7SM M03/M07 A3039 RMK T10301070 IEM_DS3505
ZBYN,1989-11-22 23:00,ZBYN 222300Z AUTO 00000KT 7SM M05/M08 A3042 RMK T10501080 IEM_DS3505
ZBYN,1989-11-23 00:00,ZBYN 230000Z AUTO 34006KT 6SM M01/M08 A3042 RMK SLP334 T10141085 52013 IEM_DS3505
ZBYN,1989-11-23 02:00,ZBYN 230200Z AUTO 00000KT 3SM 02/M06 A3042 RMK T00201060 IEM_DS3505
ZBYN,1989-11-23 03:00,ZBYN 230300Z AUTO 34004KT 6SM 05/M07 A3042 RMK SLP337 T00521068 52010 IEM_DS3505
ZBYN,1989-11-23 04:00,ZBYN 230400Z AUTO 36004KT 7SM 07/M01 A3039 RMK T00701010 IEM_DS3505
ZBYN,1989-11-23 05:00,ZBYN 230500Z AUTO 00000KT 7SM 09/00 A3036 RMK T00900000 IEM_DS3505
ZBYN,1989-11-23 06:00,ZBYN 230600Z AUTO 34004KT 6SM 08/M06 RMK SLP299 T00811056 4////1031 57032 IEM_DS3505
ZBYN,1989-11-23 07:00,ZBYN 230700Z AUTO 00000KT 6SM 10/M01 A3030 RMK T01001010 IEM_DS3505
ZBYN,1989-11-23 09:00,ZBYN 230900Z AUTO 29002KT 6SM 06/M04 A3030 RMK SLP298 T00561041 IEM_DS3505
ZBYN,1989-11-23 12:00,ZBYN 231200Z AUTO 32004KT 6SM 03/M06 RMK SLP312 T00311064 52008 IEM_DS3505
ZBYN,1989-11-23 13:00,ZBYN 231300Z AUTO 00000KT 4SM 01/M03 A3036 RMK T00101030 IEM_DS3505
ZBYN,1989-11-23 15:00,ZBYN 231500Z AUTO 34004KT 6SM 01/M08 A3039 RMK SLP313 T00141077 52009 IEM_DS3505
ZBYN,1989-11-23 16:00,ZBYN 231600Z AUTO 00000KT 4SM M03/M04 A3039 RMK T10301040 IEM_DS3505
ZBYN,1989-11-23 18:00,ZBYN 231800Z AUTO 00000KT 6SM 00/M07 A3039 RMK SLP308 T00011067 40087//// 57002 IEM_DS3505
ZBYN,1989-11-23 19:00,ZBYN 231900Z AUTO 00000KT 4SM M04/M08 A3039 RMK T10401080 IEM_DS3505
ZBYN,1989-11-23 20:00,ZBYN 232000Z AUTO 00000KT 4SM M04/M07 A3036 RMK T10401070 IEM_DS3505
ZBYN,1989-11-23 21:00,ZBYN 232100Z AUTO 34004KT 6SM M01/M08 A3036 RMK SLP315 T10131075 54000 IEM_DS3505
ZBYN,1989-11-23 22:00,ZBYN 232200Z AUTO 00000KT 4SM M05/M08 A3039 RMK T10501080 IEM_DS3505
ZBYN,1989-11-24 00:00,ZBYN 240000Z AUTO 00000KT 5SM M04/M07 RMK SLP331 T10371067 52006 IEM_DS3505
ZBYN,1989-11-24 01:00,ZBYN 240100Z AUTO 00000KT 1SM M03/M06 A3042 RMK T10301060 IEM_DS3505
ZBYN,1989-11-24 02:00,ZBYN 240200Z AUTO 00000KT 2SM 01/M05 A3045 RMK T00101050 IEM_DS3505
ZBYN,1989-11-24 03:00,ZBYN 240300Z AUTO 00000KT 5SM 04/M05 A3042 RMK SLP333 T00391048 52012 IEM_DS3505
ZBYN,1989-11-24 04:00,ZBYN 240400Z AUTO 18004KT 4SM 06/M02 A3042 RMK T00601020 IEM_DS3505
ZBYN,1989-11-24 05:00,ZBYN 240500Z AUTO 00000KT 7SM 09/M03 A3036 RMK T00901030 IEM_DS3505
ZBYN,1989-11-24 06:00,ZBYN 240600Z AUTO 00000KT 5SM 08/M06 RMK SLP303 T00841059 4////1045 57022 IEM_DS3505
ZBYN,1989-11-24 07:00,ZBYN 240700Z AUTO 19002KT 7SM 09/M02 A3033 RMK T00901020 IEM_DS3505
ZBYN,1989-11-24 08:00,ZBYN 240800Z AUTO 00000KT 7SM 07/M02 A3036 RMK T00701020 IEM_DS3505
ZBYN,1989-11-24 09:00,ZBYN 240900Z AUTO 00000KT 6SM 06/M02 A3036 RMK SLP299 T00561017 57011 IEM_DS3505
ZBYN,1989-11-24 11:00,ZBYN 241100Z AUTO 00000KT 4SM 01/M03 A3036 RMK T00101030 IEM_DS3505
ZBYN,1989-11-24 12:00,ZBYN 241200Z AUTO 00000KT 4SM 01/M04 A3039 RMK SLP327 T00061038 52014 IEM_DS3505
ZBYN,1989-11-24 13:00,ZBYN 241300Z AUTO 00000KT 2 1/2SM M03/M04 A3039 RMK T10301040 IEM_DS3505
ZBYN,1989-11-24 14:00,ZBYN 241400Z AUTO 00000KT 4SM M02/M05 A3039 RMK T10201050 IEM_DS3505
ZBYN,1989-11-24 15:00,ZBYN 241500Z AUTO 00000KT 6SM M01/M05 A3039 RMK SLP323 T10061049 52007 IEM_DS3505
ZBYN,1989-11-24 16:00,ZBYN 241600Z AUTO 00000KT 4SM M03/M05 A3039 RMK T10301050 IEM_DS3505
ZBYN,1989-11-24 17:00,ZBYN 241700Z AUTO 00000KT 4SM M05/M08 A3039 RMK T10501080 IEM_DS3505
ZBYN,1989-11-24 18:00,ZBYN 241800Z AUTO 00000KT 5SM M03/M05 RMK SLP321 T10321052 40086//// 52011 IEM_DS3505
ZBYN,1989-11-24 20:00,ZBYN 242000Z AUTO 00000KT 2 1/2SM M06/M08 A3042 RMK T10601080 IEM_DS3505
ZBYN,1989-11-24 21:00,ZBYN 242100Z AUTO 00000KT 5SM M04/M06 RMK SLP325 T10411057 57003 IEM_DS3505
ZBYN,1989-11-24 22:00,ZBYN 242200Z AUTO 00000KT 2 1/2SM M07/M09 A3039 RMK T10701090 IEM_DS3505
ZBYN,1989-11-24 23:00,ZBYN 242300Z AUTO 00000KT 1 1/2SM M06/M08 A3039 RMK T10601080 IEM_DS3505
ZBYN,1989-11-25 00:00,ZBYN 250000Z AUTO 00000KT 5SM M03/M06 A3042 RMK SLP342 T10311063 52009 IEM_DS3505
ZBYN,1989-11-25 01:00,ZBYN 250100Z AUTO 00000KT 1SM M03/M06 A3042 RMK T10301060 IEM_DS3505
ZBYN,1989-11-25 02:00,ZBYN 250200Z AUTO 00000KT 6SM 02/M07 A3042 RMK T00201070 IEM_DS3505
ZBYN,1989-11-25 03:00,ZBYN 250300Z AUTO 00000KT 4SM 02/M04 A3042 RMK SLP334 T00211037 54000 IEM_DS3505
ZBYN,1989-11-25 04:00,ZBYN 250400Z AUTO 00000KT 2 1/2SM 05/M02 A3039 RMK T00501020 IEM_DS3505
ZBYN,1989-11-25 05:00,ZBYN 250500Z AUTO 00000KT 3SM 06/M01 A3036 RMK T00601010 IEM_DS3505
ZBYN,1989-11-25 06:00,ZBYN 250600Z AUTO 14004KT 4SM 06/M04 A3030 RMK SLP298 T00611037 4////1052 IEM_DS3505
ZBYN,1989-11-25 07:00,ZBYN 250700Z AUTO 00000KT 4SM 08/00 A3027 RMK T00800000 IEM_DS3505
ZBYN,1989-11-25 08:00,ZBYN 250800Z AUTO 00000KT 4SM 07/00 A3024 RMK T00700000 IEM_DS3505
ZBYN,1989-11-25 09:00,ZBYN 250900Z AUTO 00000KT 5SM 05/M02 A3024 RMK SLP283 T00471023 57017 IEM_DS3505
ZBYN,1989-11-25 10:00,ZBYN 251000Z AUTO 00000KT 3SM 04/00 A3024 RMK T00400000 IEM_DS3505
ZBYN,1989-11-25 12:00,ZBYN 251200Z AUTO 14002KT 5SM 03/M02 A3030 RMK SLP288 T00291017 52003 IEM_DS3505
ZBYN,1989-11-25 13:00,ZBYN 251300Z AUTO 00000KT 3SM 03/M01 A3030 RMK T00301010 IEM_DS3505
ZBYN,1989-11-25 15:00,ZBYN 251500Z AUTO 00000KT 5SM 00/M02 A3027 RMK SLP284 T00041018 52001 IEM_DS3505
ZBYN,1989-11-25 16:00,ZBYN 251600Z AUTO 00000KT 3SM M01/M02 A3027 RMK T10101020 IEM_DS3505
ZBYN,1989-11-25 17:00,ZBYN 251700Z AUTO 00000KT 2 1/2SM M01/M02 A3027 RMK T10101020 IEM_DS3505
ZBYN,1989-11-25 18:00,ZBYN 251800Z AUTO 00000KT 5SM M00/M02 A3030 RMK SLP277 T10041024 40070//// 57001 IEM_DS3505
ZBYN,1989-11-25 20:00,ZBYN 252000Z AUTO 00000KT 2 1/2SM M03/M05 A3027 RMK T10301050 IEM_DS3505
ZBYN,1989-11-25 21:00,ZBYN 252100Z AUTO 00000KT 3SM M01/M03 A3027 RMK T10141029 52003 IEM_DS3505
ZBYN,1989-11-25 22:00,ZBYN 252200Z AUTO 00000KT 2SM M02/M05 A3027 RMK T10201050 IEM_DS3505
ZBYN,1989-11-25 23:00,ZBYN 252300Z AUTO 08002KT 1 1/4SM M01/M04 A3030 RMK T10101040 IEM_DS3505
ZBYN,1989-11-26 00:00,ZBYN 260000Z AUTO 00000KT 4SM M01/M03 A3033 RMK SLP303 T10121030 52014 IEM_DS3505
ZBYN,1989-11-26 01:00,ZBYN 260100Z AUTO 00000KT 1SM 01/M03 A3039 RMK T00101030 IEM_DS3505
ZBYN,1989-11-26 02:00,ZBYN 260200Z AUTO 32012KT 6SM 06/M10 A3033 RMK T00601100 IEM_DS3505
ZBYN,1989-11-26 03:00,ZBYN 260300Z AUTO 29008KT 7SM 07/M09 A3033 RMK SLP295 T00661093 52001 IEM_DS3505
ZBYN,1989-11-26 04:00,ZBYN 260400Z AUTO 32017KT 6SM 07/M09 A3033 RMK T00701090 IEM_DS3505
ZBYN,1989-11-26 05:00,ZBYN 260500Z AUTO 30017KT 7SM 08/M12 A3030 RMK T00801120 IEM_DS3505
ZBYN,1989-11-26 06:00,ZBYN 260600Z AUTO 32010KT 9SM 07/M15 RMK SLP288 T00721147 4////1026 IEM_DS3505
ZBYN,1989-11-26 07:00,ZBYN 260700Z AUTO 30023KT 7SM 07/M14 A3030 RMK T00701140 IEM_DS3505
ZBYN,1989-11-26 08:00,ZBYN 260800Z AUTO 31021KT 7SM 04/M12 A3036 RMK T00401120 IEM_DS3505
ZBYN,1989-11-26 09:00,ZBYN 260900Z AUTO 32010KT 7SM 04/M12 A3036 RMK SLP312 T00371121 52015 IEM_DS3505
ZBYN,1989-11-26 11:00,ZBYN 261100Z AUTO 29016KT 7SM 03/M11 A3036 RMK T00301110 IEM_DS3505
ZBYN,1989-11-26 12:00,ZBYN 261200Z AUTO 34008KT 7SM 02/M11 A3042 RMK SLP333 T00201109 52017 IEM_DS3505
ZBYN,1989-11-26 13:00,ZBYN 261300Z AUTO 31008KT 7SM 01/M09 A3045 RMK T00101090 IEM_DS3505
ZBYN,1989-11-26 14:00,ZBYN 261400Z AUTO 30006KT 7SM M01/M10 A3045 RMK T10101100 IEM_DS3505
ZBYN,1989-11-26 15:00,ZBYN 261500Z AUTO 02006KT 7SM M01/M09 RMK SLP347 T10101088 52020 IEM_DS3505
ZBYN,1989-11-26 16:00,ZBYN 261600Z AUTO 32004KT 7SM M03/M11 A3047 RMK T10301110 IEM_DS3505
ZBYN,1989-11-26 17:00,ZBYN 261700Z AUTO 33002KT 7SM M03/M11 A3047 RMK T10301110 IEM_DS3505
ZBYN,1989-11-26 18:00,ZBYN 261800Z AUTO 02006KT 7SM M01/M09 A3047 RMK SLP347 T10101088 52020 IEM_DS3505
ZBYN,1989-11-26 19:00,ZBYN 261900Z AUTO 32012KT 7SM M04/M12 A3050 RMK T10401120 IEM_DS3505
ZBYN,1989-11-26 20:00,ZBYN 262000Z AUTO 31012KT 7SM M04/M13 A3050 RMK T10401130 IEM_DS3505
ZBYN,1989-11-26 21:00,ZBYN 262100Z AUTO 34008KT 11SM M04/M13 RMK SLP369 T10351130 52004 IEM_DS3505
ZBYN,1989-11-26 23:00,ZBYN 262300Z AUTO 31006KT 7SM M05/M13 A3056 RMK T10501130 IEM_DS3505
ZBYN,1989-11-27 00:00,ZBYN 270000Z AUTO 32008KT 16SM M04/M12 A3056 RMK SLP396 T10401122 52021 IEM_DS3505
ZBYN,1989-11-27 02:00,ZBYN 270200Z AUTO 31012KT 7SM M01/M12 A3059 RMK T10101120 IEM_DS3505
ZBYN,1989-11-27 03:00,ZBYN 270300Z AUTO 34004KT 19SM M01/M15 A3059 RMK SLP402 T10071151 52006 IEM_DS3505
ZBYN,1989-11-27 04:00,ZBYN 270400Z AUTO 29012KT 7SM 00/M16 A3056 RMK T00001160 IEM_DS3505
ZBYN,1989-11-27 05:00,ZBYN 270500Z AUTO 29014KT 7SM 00/M20 A3056 RMK T00001200 IEM_DS3505
ZBYN,1989-11-27 06:00,ZBYN 270600Z AUTO 32010KT 19SM 00/M11 RMK SLP386 T00041114 57015 IEM_DS3505
ZBYN,1989-11-27 07:00,ZBYN 270700Z AUTO 36008KT 7SM 00/M17 A3056 RMK T00001170 IEM_DS3505
ZBYN,1989-11-27 08:00,ZBYN 270800Z AUTO 31016KT 7SM 00/M18 A3056 RMK T00001180 IEM_DS3505
ZBYN,1989-11-27 09:00,ZBYN 270900Z AUTO 32006KT 19SM M02/M16 RMK SLP401 T10201160 52008 IEM_DS3505
ZBYN,1989-11-27 11:00,ZBYN 271100Z AUTO 29004KT 7SM M04/M16 A3059 RMK T10401160 IEM_DS3505
ZBYN,1989-11-27 12:00,ZBYN 271200Z AUTO 32004KT 16SM M04/M17 A3062 RMK SLP411 T10361174 52005 IEM_DS3505
ZBYN,1989-11-27 13:00,ZBYN 271300Z AUTO 29006KT 7SM M06/M15 RMK T10601150 IEM_DS3505
ZBYN,1989-11-27 14:00,ZBYN 271400Z AUTO 28008KT 7SM M05/M15 A3062 RMK T10501150 IEM_DS3505
ZBYN,1989-11-27 15:00,ZBYN 271500Z AUTO 29006KT 16SM M04/M17 A3062 RMK SLP408 T10411170 52002 IEM_DS3505
ZBYN,1989-11-27 16:00,ZBYN 271600Z AUTO 29004KT 7SM M06/M15 A3062 RMK T10601150 IEM_DS3505
ZBYN,1989-11-27 17:00,ZBYN 271700Z AUTO 30010KT 7SM M06/M17 A3059 RMK T10601170 IEM_DS3505
ZBYN,1989-11-27 18:00,ZBYN 271800Z AUTO 32008KT 16SM M04/M18 RMK SLP397 T10441185 40009//// 57008 IEM_DS3505
ZBYN,1989-11-27 19:00,ZBYN 271900Z AUTO 32010KT 7SM M06/M18 A3056 RMK T10601180 IEM_DS3505
ZBYN,1989-11-27 20:00,ZBYN 272000Z AUTO 25006KT 7SM M07/M16 A3056 RMK T10701160 IEM_DS3505
ZBYN,1989-11-27 21:00,ZBYN 272100Z AUTO 11004KT 12SM RMK SLP396 57007 IEM_DS3505
ZBYN,1989-11-27 22:00,ZBYN 272200Z AUTO 10006KT 7SM M09/M16 A3056 RMK T10901160 IEM_DS3505
ZBYN,1989-11-27 23:00,ZBYN 272300Z AUTO 09006KT 7SM M10/M16 A3053 RMK T11001160 IEM_DS3505
ZBYN,1989-11-28 00:00,ZBYN 280000Z AUTO 00000KT 12SM M09/M13 RMK SLP407 T10881133 52001 IEM_DS3505
ZBYN,1989-11-28 01:00,ZBYN 280100Z AUTO 10004KT 7SM M06/M14 A3056 RMK T10601140 IEM_DS3505
ZBYN,1989-11-28 02:00,ZBYN 280200Z AUTO 16004KT 7SM M03/M14 A3056 RMK T10301140 IEM_DS3505
ZBYN,1989-11-28 03:00,ZBYN 280300Z AUTO 16004KT 7SM M01/M08 RMK SLP395 T10111083 52002 IEM_DS3505
ZBYN,1989-11-28 05:00,ZBYN 280500Z AUTO 00000KT 7SM 03/M13 A3050 RMK T00301130 IEM_DS3505
ZBYN,1989-11-28 06:00,ZBYN 280600Z AUTO 16006KT 7SM 03/M07 A3047 RMK SLP364 T00341072 4////1096 57021 IEM_DS3505
ZBYN,1989-11-28 07:00,ZBYN 280700Z AUTO 21004KT 7SM 04/M15 A3047 RMK T00401150 IEM_DS3505
ZBYN,1989-11-28 09:00,ZBYN 280900Z AUTO 11002KT 7SM 02/M10 A3045 RMK SLP361 T00221102 57007 IEM_DS3505
ZBYN,1989-11-28 10:00,ZBYN 281000Z AUTO 03006KT 7SM 00/M12 A3047 RMK T00001120 IEM_DS3505
ZBYN,1989-11-28 11:00,ZBYN 281100Z AUTO 29004KT 7SM M03/M08 A3047 RMK T10301080 IEM_DS3505
ZBYN,1989-11-28 12:00,ZBYN 281200Z AUTO 34002KT 7SM M02/M11 A3050 RMK SLP384 T10221113 52008 IEM_DS3505
ZBYN,1989-11-28 13:00,ZBYN 281300Z AUTO 00000KT 7SM M05/M13 A3050 RMK T10501130 IEM_DS3505
ZBYN,1989-11-28 14:00,ZBYN 281400Z AUTO 09002KT 7SM M05/M13 A3050 RMK T10501130 IEM_DS3505
ZBYN,1989-11-28 15:00,ZBYN 281500Z AUTO 00000KT 7SM M06/M10 A3053 RMK SLP393 T10581098 52015 IEM_DS3505
ZBYN,1989-11-28 16:00,ZBYN 281600Z AUTO 06004KT 7SM M08/M13 A3053 RMK T10801130 IEM_DS3505
ZBYN,1989-11-28 17:00,ZBYN 281700Z AUTO 08002KT 7SM M07/M13 A3053 RMK T10701130 IEM_DS3505
ZBYN,1989-11-28 18:00,ZBYN 281800Z AUTO 36004KT 7SM M06/M10 A3053 RMK SLP384 T10561100 40040//// 54000 IEM_DS3505
ZBYN,1989-11-28 19:00,ZBYN 281900Z AUTO 00000KT 7SM M09/M13 A3053 RMK T10901130 IEM_DS3505
ZBYN,1989-11-28 20:00,ZBYN 282000Z AUTO 00000KT 7SM M09/M13 A3053 RMK T10901130 IEM_DS3505
ZBYN,1989-11-28 21:00,ZBYN 282100Z AUTO 36002KT 7SM M08/M10 A3056 RMK SLP393 T10801099 52002 IEM_DS3505
ZBYN,1989-11-28 22:00,ZBYN 282200Z AUTO 00000KT 7SM M09/M13 A3056 RMK T10901130 IEM_DS3505
ZBYN,1989-11-28 23:00,ZBYN 282300Z AUTO 00000KT 7SM M10/M14 A3056 RMK T11001140 IEM_DS3505
ZBYN,1989-11-29 00:00,ZBYN 290000Z AUTO 36002KT 7SM M05/M10 A3056 RMK SLP409 T10531096 52012 IEM_DS3505
ZBYN,1989-11-29 02:00,ZBYN 290200Z AUTO 34010KT 7SM 00/M13 A3059 RMK T00001130 IEM_DS3505
ZBYN,1989-11-29 03:00,ZBYN 290300Z AUTO 34006KT 6SM 02/M15 RMK SLP408 T00181146 52005 IEM_DS3505
ZBYN,1989-11-29 04:00,ZBYN 290400Z AUTO 21006KT 7SM 04/M13 A3056 RMK T00401130 IEM_DS3505
ZBYN,1989-11-29 05:00,ZBYN 290500Z AUTO 24010KT 7SM 04/M12 A3053 RMK T00401120 IEM_DS3505
ZBYN,1989-11-29 06:00,ZBYN 290600Z AUTO 22008KT 6SM 04/M13 A3053 RMK SLP382 T00431128 4////1092 57019 IEM_DS3505
ZBYN,1989-11-29 07:00,ZBYN 290700Z AUTO 23002KT 7SM 04/M11 A3053 RMK T00401110 IEM_DS3505
ZBYN,1989-11-29 08:00,ZBYN 290800Z AUTO 23002KT 7SM 04/M11 A3053 RMK T00401110 IEM_DS3505
ZBYN,1989-11-29 09:00,ZBYN 290900Z AUTO 00000KT 6SM 01/M07 A3053 RMK SLP382 T00101070 57008 IEM_DS3505
ZBYN,1989-11-29 11:00,ZBYN 291100Z AUTO 34004KT 4SM M03/M05 A3053 RMK T10301050 IEM_DS3505
ZBYN,1989-11-29 12:00,ZBYN 291200Z AUTO 32004KT 5SM M02/M10 A3053 RMK SLP388 T10161105 52004 IEM_DS3505
ZBYN,1989-11-29 14:00,ZBYN 291400Z AUTO 00000KT 2 1/2SM M05/M13 A3056 RMK T10501130 IEM_DS3505
ZBYN,1989-11-29 15:00,ZBYN 291500Z AUTO 00000KT 5SM M03/M12 A3059 RMK SLP393 T10301116 52014 IEM_DS3505
ZBYN,1989-11-29 16:00,ZBYN 291600Z AUTO 05002KT 4SM M06/M12 A3059 RMK T10601120 IEM_DS3505
ZBYN,1989-11-29 17:00,ZBYN 291700Z AUTO 18002KT 5SM M07/M13 A3059 RMK T10701130 IEM_DS3505
ZBYN,1989-11-29 18:00,ZBYN 291800Z AUTO 00000KT 6SM M06/M10 A3059 RMK SLP399 T10621104 40045//// 52004 IEM_DS3505
ZBYN,1989-11-29 19:00,ZBYN 291900Z AUTO 09004KT 7SM M09/M11 A3059 RMK T10901110 IEM_DS3505
ZBYN,1989-11-29 21:00,ZBYN 292100Z AUTO 00000KT 6SM M08/M11 A3059 RMK SLP410 T10801108 52003 IEM_DS3505
ZBYN,1989-11-29 22:00,ZBYN 292200Z AUTO 09004KT 7SM M09/M13 A3062 RMK T10901130 IEM_DS3505
ZBYN,1989-11-29 23:00,ZBYN 292300Z AUTO 00000KT 2 1/2SM M11/M13 A3062 RMK T11101130 IEM_DS3505
ZBYN,1989-11-30 00:00,ZBYN 300000Z AUTO 00000KT 5SM M09/M11 RMK SLP425 T10881111 52006 IEM_DS3505
ZBYN,1989-11-30 01:00,ZBYN 300100Z AUTO 00000KT 2 1/2SM M11/M13 A3062 RMK T11101130 IEM_DS3505
ZBYN,1989-11-30 02:00,ZBYN 300200Z AUTO 16004KT 1 1/2SM M07/M11 A3062 RMK T10701110 IEM_DS3505
ZBYN,1989-11-30 03:00,ZBYN 300300Z AUTO 20002KT 5SM 01/M11 A3062 RMK SLP409 T00081112 54000 IEM_DS3505
ZBYN,1989-11-30 04:00,ZBYN 300400Z AUTO 21002KT 4SM 03/M14 A3059 RMK T00301140 IEM_DS3505
ZBYN,1989-11-30 05:00,ZBYN 300500Z AUTO 26002KT 7SM 05/M13 A3053 RMK T00501130 IEM_DS3505
ZBYN,1989-11-30 05:10,ZBYN 300510Z AUTO 26002KT 7SM 05/M13 A3053 RMK T00501130 IEM_DS3505
ZBYN,1989-11-30 05:37,ZBYN 300537Z AUTO 26002KT 7SM 05/M13 A3053 RMK T00501130 IEM_DS3505
ZBYN,1989-11-30 05:40,ZBYN 300540Z AUTO 26002KT 7SM 05/M13 A3053 RMK T00501130 IEM_DS3505
ZBYN,1989-11-30 06:00,ZBYN 300600Z AUTO 14004KT 6SM 05/M07 A3050 RMK SLP375 T00521072 4////1094 57030 IEM_DS3505
ZBYN,1989-11-30 07:00,ZBYN 300700Z AUTO 17004KT 7SM 06/M10 A3050 RMK T00601100 IEM_DS3505
ZBYN,1989-11-30 08:00,ZBYN 300800Z AUTO 00000KT 6SM 06/M10 RMK T00601100 IEM_DS3505
ZBYN,1989-11-30 09:00,ZBYN 300900Z AUTO 11002KT 6SM 02/M09 A3047 RMK SLP371 T00211093 57011 IEM_DS3505
ZBYN,1989-11-30 10:00,ZBYN 301000Z AUTO 07002KT 6SM 01/M10 RMK T00101100 IEM_DS3505
ZBYN,1989-11-30 11:00,ZBYN 301100Z AUTO 00000KT 7SM M04/M10 A3050 RMK T10401100 IEM_DS3505
ZBYN,1989-11-30 12:00,ZBYN 301200Z AUTO 00000KT 6SM M02/M08 A3050 RMK SLP381 T10241078 54000 IEM_DS3505
ZBYN,1989-11-30 13:00,ZBYN 301300Z AUTO 00000KT 7SM M04/M10 A3050 RMK T10401100 IEM_DS3505
ZBYN,1989-11-30 15:00,ZBYN 301500Z AUTO 00000KT 6SM M04/M08 A3050 RMK SLP365 T10381085 57001 IEM_DS3505
ZBYN,1989-11-30 16:00,ZBYN 301600Z AUTO 10006KT 6SM M05/M11 A3047 RMK T10501110 IEM_DS3505
ZBYN,1989-11-30 17:00,ZBYN 301700Z AUTO 09006KT 6SM M05/M11 A3047 RMK T10501110 IEM_DS3505
ZBYN,1989-11-30 19:00,ZBYN 301900Z AUTO 10006KT 7SM M05/M12 A3045 RMK T10501120 IEM_DS3505
ZBYN,1989-11-30 21:00,ZBYN 302100Z AUTO 00000KT 6SM M06/M09 A3039 RMK SLP344 T10601092 57004 IEM_DS3505
ZBYN,1989-11-30 23:00,ZBYN 302300Z AUTO 16004KT 1 1/2SM M07/M11 RMK T10701110 IEM_DS3505
ZBYN,1989-12-01 00:00,ZBYN 010000Z AUTO 00000KT 6SM M08/M10 A3041 RMK SLP353 T10761098 57002 IEM_DS3505
ZBYN,1989-12-01 02:00,ZBYN 010200Z AUTO 10004KT 6SM M01/ A3039 RMK IEM_DS3505
ZBYN,1989-12-01 03:00,ZBYN 010300Z AUTO 14004KT 6SM 00/M06 A3039 RMK SLP333 T00021065 57008 IEM_DS3505
ZBYN,1989-12-01 04:00,ZBYN 010400Z AUTO 11006KT 7SM 04/00 A3036 RMK T00400000 IEM_DS3505
ZBYN,1989-12-01 05:00,ZBYN 010500Z AUTO 21002KT 7SM 06/M09 A3033 RMK T00601090 IEM_DS3505
ZBYN,1989-12-01 06:00,ZBYN 010600Z AUTO 25002KT 5SM 08/M08 A3027 RMK SLP283 T00851075 4////1089 57033 IEM_DS3505
ZBYN,1989-12-01 07:00,ZBYN 010700Z AUTO 25004KT 7SM 10/M06 A3027 RMK T01001060 IEM_DS3505
ZBYN,1989-12-01 08:00,ZBYN 010800Z AUTO 29006KT 7SM 10/M10 A3027 RMK T01001100 IEM_DS3505
ZBYN,1989-12-01 09:00,ZBYN 010900Z AUTO 32008KT 9SM 07/M11 A3027 RMK SLP282 T00741114 57005 IEM_DS3505
ZBYN,1989-12-01 10:00,ZBYN 011000Z AUTO 28008KT 7SM 04/M10 A3027 RMK T00401100 IEM_DS3505
ZBYN,1989-12-01 12:00,ZBYN 011200Z AUTO 00000KT 9SM 02/M10 A3028 RMK SLP298 T00211103 52003 IEM_DS3505
ZBYN,1989-12-01 14:00,ZBYN 011400Z AUTO 10002KT 7SM M01/M09 RMK T10101090 IEM_DS3505
ZBYN,1989-12-01 15:00,ZBYN 011500Z AUTO 16002KT 9SM M02/M09 A3029 RMK SLP295 T10201092 52004 IEM_DS3505
ZBYN,1989-12-01 17:00,ZBYN 011700Z AUTO 07002KT 7SM M03/M10 A3024 RMK T10301100 IEM_DS3505
ZBYN,1989-12-01 18:00,ZBYN 011800Z AUTO 00000KT 7SM M05/M09 A3024 RMK SLP272 T10461091 40102//// 57012 IEM_DS3505
ZBYN,1989-12-01 19:00,ZBYN 011900Z AUTO 08004KT 7SM M03/M11 A3021 RMK T10301110 IEM_DS3505
ZBYN,1989-12-01 20:00,ZBYN 012000Z AUTO 10006KT 7SM M04/M09 A3021 RMK T10401090 IEM_DS3505
ZBYN,1989-12-01 21:00,ZBYN 012100Z AUTO 00000KT 7SM M06/M09 A3022 RMK SLP265 T10641092 57011 IEM_DS3505
ZBYN,1989-12-01 22:00,ZBYN 012200Z AUTO 07004KT 7SM M04/M10 RMK T10401100 IEM_DS3505
ZBYN,1989-12-02 00:00,ZBYN 020000Z AUTO 00000KT 7SM M06/M08 A3019 RMK SLP266 T10641080 57008 IEM_DS3505
ZBYN,1989-12-02 01:00,ZBYN 020100Z AUTO 09002KT 7SM M01/M08 A3018 RMK T10101080 IEM_DS3505
ZBYN,1989-12-02 02:00,ZBYN 020200Z AUTO 16004KT 7SM 04/M07 A3018 RMK T00401070 IEM_DS3505
ZBYN,1989-12-02 03:00,ZBYN 020300Z AUTO 00000KT 6SM 06/M06 A3018 RMK SLP247 T00561065 57004 IEM_DS3505
ZBYN,1989-12-02 04:00,ZBYN 020400Z AUTO 15004KT 7SM 09/M05 A3012 RMK T00901050 IEM_DS3505
ZBYN,1989-12-02 06:00,ZBYN 020600Z AUTO 18004KT 6SM 13/M08 A3006 RMK SLP197 T01271081 4////1070 57038 IEM_DS3505
ZBYN,1989-12-02 07:00,ZBYN 020700Z AUTO 19006KT 7SM 13/M05 A3003 RMK T01301050 IEM_DS3505
ZBYN,1989-12-02 09:00,ZBYN 020900Z AUTO 20006KT 6SM 11/M07 A3000 RMK SLP189 T01061073 57014 IEM_DS3505
ZBYN,1989-12-02 11:00,ZBYN 021100Z AUTO 22010KT 7SM 07/M06 A3000 RMK T00701060 IEM_DS3505
ZBYN,1989-12-02 12:00,ZBYN 021200Z AUTO 14004KT 6SM 03/M07 A3000 RMK SLP194 T00321074 57007 IEM_DS3505
ZBYN,1989-12-02 13:00,ZBYN 021300Z AUTO 12006KT 7SM 03/M06 A3000 RMK T00301060 IEM_DS3505
ZBYN,1989-12-02 14:00,ZBYN 021400Z AUTO 22010KT 7SM 07/M06 A3000 RMK T00701060 IEM_DS3505
ZBYN,1989-12-02 15:00,ZBYN 021500Z AUTO 14004KT 6SM 01/M08 A2997 RMK SLP172 T00091079 57004 IEM_DS3505
ZBYN,1989-12-02 16:00,ZBYN 021600Z AUTO 10008KT 7SM 00/M06 A2997 RMK T00001060 IEM_DS3505
ZBYN,1989-12-02 18:00,ZBYN 021800Z AUTO 00000KT 6SM M02/M06 A2994 RMK SLP152 T10221061 40130//// 57012 IEM_DS3505
ZBYN,1989-12-02 19:00,ZBYN 021900Z AUTO 00000KT 7SM M03/M07 A2994 RMK T10301070 IEM_DS3505
ZBYN,1989-12-02 20:00,ZBYN 022000Z AUTO 00000KT 7SM M04/M07 A2991 RMK T10401070 IEM_DS3505
ZBYN,1989-12-02 21:00,ZBYN 022100Z AUTO 34004KT 5SM M02/M06 A2991 RMK SLP142 T10221062 57013 IEM_DS3505
ZBYN,1989-12-02 22:00,ZBYN 022200Z AUTO 00000KT 7SM M05/M08 RMK T10501080 IEM_DS3505
ZBYN,1989-12-02 23:00,ZBYN 022300Z AUTO 00000KT 4SM M06/M08 A2991 RMK T10601080 IEM_DS3505
ZBYN,1989-12-03 00:00,ZBYN 030000Z AUTO 29004KT 4SM M04/M06 A2991 RMK SLP169 T10371063 52011 IEM_DS3505
ZBYN,1989-12-03 01:00,ZBYN 030100Z AUTO 00000KT 1 1/2SM M02/M06 A2991 RMK T10201060 IEM_DS3505
ZBYN,1989-12-03 02:00,ZBYN 030200Z AUTO 00000KT 2SM 04/M06 A2991 RMK T00401060 IEM_DS3505
ZBYN,1989-12-03 03:00,ZBYN 030300Z AUTO 16006KT 5SM 07/M06 A2991 RMK SLP146 T00681060 57008 IEM_DS3505
ZBYN,1989-12-03 04:00,ZBYN 030400Z AUTO 16002KT 3SM 09/M06 A2988 RMK T00901060 IEM_DS3505
ZBYN,1989-12-03 05:00,ZBYN 030500Z AUTO 18002KT 5SM 13/M06 A2985 RMK T01301060 IEM_DS3505
ZBYN,1989-12-03 06:00,ZBYN 030600Z AUTO 00000KT 5SM 13/M03 A2983 RMK SLP123 T01341026 4////1053 57016 IEM_DS3505
ZBYN,1989-12-03 09:00,ZBYN 030900Z AUTO 29006KT 6SM 13/M08 A2988 RMK SLP136 T01341084 52012 IEM_DS3505
ZBYN,1989-12-03 12:00,ZBYN 031200Z AUTO 32006KT 6SM 10/M08 A2997 RMK SLP187 T01011079 52039 IEM_DS3505
ZBYN,1989-12-03 13:00,ZBYN 031300Z AUTO 00000KT 7SM 06/M06 A3000 RMK T00601060 IEM_DS3505
ZBYN,1989-12-03 14:00,ZBYN 031400Z AUTO 00000KT 6SM 04/M06 A3003 RMK T00401060 IEM_DS3505
ZBYN,1989-12-03 15:00,ZBYN 031500Z AUTO 36002KT 6SM 05/M05 A3006 RMK SLP194 T00511048 52015 IEM_DS3505
ZBYN,1989-12-03 16:00,ZBYN 031600Z AUTO 09004KT 6SM 00/M06 A3006 RMK T00001060 IEM_DS3505
ZBYN,1989-12-03 17:00,ZBYN 031700Z AUTO 16002KT 6SM 00/M07 A3009 RMK T00001070 IEM_DS3505
ZBYN,1989-12-03 18:00,ZBYN 031800Z AUTO 00000KT 6SM M00/M06 A3009 RMK SLP204 T10011057 40160//// 52011 IEM_DS3505
ZBYN,1989-12-03 19:00,ZBYN 031900Z AUTO 00000KT 7SM M03/M07 A3012 RMK T10301070 IEM_DS3505
ZBYN,1989-12-03 20:00,ZBYN 032000Z AUTO 00000KT 7SM M03/M08 RMK T10301080 IEM_DS3505
ZBYN,1989-12-03 21:00,ZBYN 032100Z AUTO 00000KT 6SM M01/M05 A3012 RMK SLP220 T10091049 52014 IEM_DS3505
ZBYN,1989-12-03 23:00,ZBYN 032300Z AUTO 00000KT 7SM M04/M08 A3015 RMK T10401080 IEM_DS3505
ZBYN,1989-12-04 00:00,ZBYN 040000Z AUTO 00000KT 6SM M03/M06 A3018 RMK T10301063 IEM_DS3505
ZBYN,1989-12-04 01:00,ZBYN 040100Z AUTO 00000KT 4SM 03/M06 A3021 RMK T00301060 IEM_DS3505
ZBYN,1989-12-04 02:00,ZBYN 040200Z AUTO 00000KT 4SM 03/M06 A3021 RMK T00301060 IEM_DS3505
ZBYN,1989-12-04 03:00,ZBYN 040300Z AUTO 22002KT 6SM 07/M06 A3021 RMK SLP249 T00711060 52010 IEM_DS3505
ZBYN,1989-12-04 04:00,ZBYN 040400Z AUTO 00000KT 6SM 10/M05 A3018 RMK T01001050 IEM_DS3505
ZBYN,1989-12-04 05:00,ZBYN 040500Z AUTO 13008KT 7SM 12/M06 A3015 RMK T01201060 IEM_DS3505
ZBYN,1989-12-04 06:00,ZBYN 040600Z AUTO 14006KT 6SM 12/M07 A3012 RMK SLP217 T01191070 4////1034 57030 IEM_DS3505
ZBYN,1989-12-04 07:00,ZBYN 040700Z AUTO 20006KT 7SM 13/00 A3009 RMK T01300000 IEM_DS3505
ZBYN,1989-12-04 08:00,ZBYN 040800Z AUTO 00000KT 7SM 09/M03 A3009 RMK T00901030 IEM_DS3505
ZBYN,1989-12-04 09:00,ZBYN 040900Z AUTO 18004KT 6SM 07/M04 A3009 RMK SLP214 T00741035 57011 IEM_DS3505
ZBYN,1989-12-04 11:00,ZBYN 041100Z AUTO 10004KT 7SM 03/M05 A3009 RMK T00301050 IEM_DS3505
ZBYN,1989-12-04 12:00,ZBYN 041200Z AUTO 00000KT 6SM 03/M03 A3009 RMK SLP224 T00331034 57001 IEM_DS3505
ZBYN,1989-12-04 13:00,ZBYN 041300Z AUTO 09004KT 7SM 01/M06 A3009 RMK T00101060 IEM_DS3505
ZBYN,1989-12-04 14:00,ZBYN 041400Z AUTO 00000KT 7SM M02/M06 A3009 RMK T10201060 IEM_DS3505
ZBYN,1989-12-04 15:00,ZBYN 041500Z AUTO 00000KT 5SM M01/M05 A3009 RMK SLP215 T10061049 52002 IEM_DS3505
ZBYN,1989-12-04 16:00,ZBYN 041600Z AUTO 00000KT 7SM M02/M06 A3009 RMK T10201060 IEM_DS3505
ZBYN,1989-12-04 17:00,ZBYN 041700Z AUTO 00000KT 4SM M02/M05 A3009 RMK T10201050 IEM_DS3505
ZBYN,1989-12-04 18:00,ZBYN 041800Z AUTO 32004KT 4SM M01/M06 A3009 RMK SLP203 T10081055 40126//// 57004 IEM_DS3505
ZBYN,1989-12-04 20:00,ZBYN 042000Z AUTO 00000KT 7SM M04/M06 A3000 RMK T10401060 IEM_DS3505
ZBYN,1989-12-04 21:00,ZBYN 042100Z AUTO 00000KT 4SM M01/M05 A3006 RMK SLP203 T10061049 57007 IEM_DS3505
ZBYN,1989-12-04 22:00,ZBYN 042200Z AUTO 00000KT 7SM M05/M08 A3006 RMK T10501080 IEM_DS3505
ZBYN,1989-12-04 23:00,ZBYN 042300Z AUTO 00000KT 7SM M04/M07 A3006 RMK T10401070 IEM_DS3505
ZBYN,1989-12-05 00:00,ZBYN 050000Z AUTO 00000KT 4SM M02/M05 A3009 RMK SLP217 T10161051 52005 IEM_DS3505
ZBYN,1989-12-05 01:00,ZBYN 050100Z AUTO 00000KT 2 1/2SM M02/M06 A3006 RMK T10201060 IEM_DS3505
ZBYN,1989-12-05 02:00,ZBYN 050200Z AUTO 00000KT 1 1/4SM 03/M05 A3006 RMK T00301050 IEM_DS3505
ZBYN,1989-12-05 03:00,ZBYN 050300Z AUTO 02004KT 3SM 06/M07 A3006 RMK SLP211 T00561068 54000 IEM_DS3505
ZBYN,1989-12-05 04:00,ZBYN 050400Z AUTO 00000KT 1 1/4SM 10/M04 A3003 RMK T01001040 IEM_DS3505
ZBYN,1989-12-05 06:00,ZBYN 050600Z AUTO 16004KT 3SM 11/M04 A2997 RMK SLP172 T01121035 4////1032 57027 IEM_DS3505
ZBYN,1989-12-05 08:00,ZBYN 050800Z AUTO 17004KT 7SM 12/M03 A2997 RMK T01201030 IEM_DS3505
ZBYN,1989-12-05 09:00,ZBYN 050900Z AUTO 00000KT 4SM 08/M01 A2997 RMK SLP173 T00821013 57004 IEM_DS3505
ZBYN,1989-12-05 12:00,ZBYN 051200Z AUTO 00000KT 5SM 02/M02 A3003 RMK SLP200 T00201024 52013 IEM_DS3505
ZBYN,1989-12-05 13:00,ZBYN 051300Z AUTO 08010KT 6SM 06/M05 A3003 RMK T00601050 IEM_DS3505
ZBYN,1989-12-05 14:00,ZBYN 051400Z AUTO 07010KT 6SM 06/M05 A3003 RMK T00601050 IEM_DS3505
ZBYN,1989-12-05 15:00,ZBYN 051500Z AUTO 29002KT 4SM M00/M03 A3006 RMK SLP202 T10011033 52010 IEM_DS3505
ZBYN,1989-12-05 16:00,ZBYN 051600Z AUTO 00000KT 6SM 04/M04 A3006 RMK T00401040 IEM_DS3505
ZBYN,1989-12-05 17:00,ZBYN 051700Z AUTO 09010KT 6SM 03/M04 A3003 RMK T00301040 IEM_DS3505
ZBYN,1989-12-05 18:00,ZBYN 051800Z AUTO 29002KT 4SM M00/M03 A3005 RMK SLP189 T10041030 40119//// 57003 IEM_DS3505
ZBYN,1989-12-05 19:00,ZBYN 051900Z AUTO 11006KT 7SM 00/M04 A3003 RMK T00001040 IEM_DS3505
ZBYN,1989-12-05 21:00,ZBYN 052100Z AUTO 25002KT 4SM M02/M04 A3000 RMK SLP192 T10241040 57002 IEM_DS3505
ZBYN,1989-12-05 22:00,ZBYN 052200Z AUTO 10006KT 5SM M01/M04 A3000 RMK T10101040 IEM_DS3505
ZBYN,1989-12-05 23:00,ZBYN 052300Z AUTO 05004KT 4SM M02/M04 A3000 RMK T10201040 IEM_DS3505
ZBYN,1989-12-06 00:00,ZBYN 060000Z AUTO 00000KT 5SM M03/M04 A3003 RMK SLP204 T10261036 54000 IEM_DS3505
ZBYN,1989-12-06 01:00,ZBYN 060100Z AUTO 10004KT 2SM M03/M03 A3006 RMK T10301030 IEM_DS3505
ZBYN,1989-12-06 02:00,ZBYN 060200Z AUTO 34004KT 3SM 02/M03 A3006 RMK T00201030 IEM_DS3505
ZBYN,1989-12-06 03:00,ZBYN 060300Z AUTO 00000KT 6SM 03/M06 A3006 RMK SLP214 T00291062 52015 IEM_DS3505
ZBYN,1989-12-06 05:00,ZBYN 060500Z AUTO 00000KT 3SM 06/M03 A3000 RMK T00601030 IEM_DS3505
ZBYN,1989-12-06 06:00,ZBYN 060600Z AUTO 16004KT 6SM 07/M02 A3000 RMK SLP185 T00691021 4////1041 57021 IEM_DS3505
ZBYN,1989-12-06 08:00,ZBYN 060800Z AUTO 00000KT 4SM 08/M01 A3000 RMK T00801010 IEM_DS3505
ZBYN,1989-12-06 09:00,ZBYN 060900Z AUTO 00000KT 6SM 06/M00 A3000 RMK SLP191 T00571003 52001 IEM_DS3505
ZBYN,1989-12-06 11:00,ZBYN 061100Z AUTO 33004KT 7SM 03/M05 A3006 RMK T00301050 IEM_DS3505
ZBYN,1989-12-06 12:00,ZBYN 061200Z AUTO 36006KT 6SM 04/M05 A3009 RMK SLP228 T00411052 52030 IEM_DS3505
ZBYN,1989-12-06 13:00,ZBYN 061300Z AUTO 33010KT 7SM 01/M07 A3015 RMK T00101070 IEM_DS3505
ZBYN,1989-12-06 14:00,ZBYN 061400Z AUTO 33008KT 7SM 00/M08 A3015 RMK T00001080 IEM_DS3505
ZBYN,1989-12-06 15:00,ZBYN 061500Z AUTO 36008KT 6SM 02/M06 A3016 RMK SLP240 T00161061 52016 IEM_DS3505
ZBYN,1989-12-06 18:00,ZBYN 061800Z AUTO 34006KT 6SM M01/M09 A3023 RMK SLP261 T10141092 40077//// 52021 IEM_DS3505
ZBYN,1989-12-06 21:00,ZBYN 062100Z AUTO 34002KT 6SM M04/M10 A3023 RMK SLP271 T10421104 52002 IEM_DS3505
ZBYN,1989-12-06 23:00,ZBYN 062300Z AUTO 08004KT 7SM M07/M10 A3024 RMK T10701100 IEM_DS3505
ZBYN,1989-12-07 00:00,ZBYN 070000Z AUTO 34004KT 6SM M06/M10 A3026 RMK SLP284 T10581098 52013 IEM_DS3505
ZBYN,1989-12-07 03:00,ZBYN 070300Z AUTO 00000KT 6SM 02/M10 A3030 RMK SLP285 T00151102 52009 IEM_DS3505
ZBYN,1989-12-07 04:00,ZBYN 070400Z AUTO 20006KT 7SM 03/M06 RMK T00301060 IEM_DS3505
ZBYN,1989-12-07 05:00,ZBYN 070500Z AUTO 00000KT 7SM 03/M06 A3024 RMK T00301060 IEM_DS3505
ZBYN,1989-12-07 06:00,ZBYN 070600Z AUTO 18004KT 6SM 05/M08 A3021 RMK SLP253 T00491081 4////1063 57029 IEM_DS3505
ZBYN,1989-12-07 07:00,ZBYN 070700Z AUTO 20010KT 7SM 06/M08 A3018 RMK T00601080 IEM_DS3505
ZBYN,1989-12-07 08:00,ZBYN 070800Z AUTO 24008KT 7SM 06/M08 A3021 RMK T00601080 IEM_DS3505
ZBYN,1989-12-07 09:00,ZBYN 070900Z AUTO 29006KT 7SM 06/M16 A3021 RMK SLP255 T00551157 57001 IEM_DS3505
ZBYN,1989-12-07 10:00,ZBYN 071000Z AUTO 07006KT 7SM 01/M05 A3021 RMK T00101050 IEM_DS3505
ZBYN,1989-12-07 11:00,ZBYN 071100Z AUTO 35006KT 7SM M01/M07 A3021 RMK T10101070 IEM_DS3505
ZBYN,1989-12-07 12:00,ZBYN 071200Z AUTO 29002KT 7SM M02/M10 A3025 RMK T10171101 52019 IEM_DS3505
ZBYN,1989-12-07 13:00,ZBYN 071300Z AUTO 06004KT 7SM M03/M07 A3027 RMK T10301070 IEM_DS3505
ZBYN,1989-12-07 14:00,ZBYN 071400Z AUTO 00000KT 7SM M05/M08 A3030 RMK T10501080 IEM_DS3505
ZBYN,1989-12-07 15:00,ZBYN 071500Z AUTO 00000KT 7SM M04/M10 A3030 RMK SLP298 T10361095 52014 IEM_DS3505
ZBYN,1989-12-07 18:00,ZBYN 071800Z AUTO 00000KT 7SM M06/M09 A3031 RMK SLP301 T10621086 40061//// 52004 IEM_DS3505
ZBYN,1989-12-07 19:00,ZBYN 071900Z AUTO 00000KT 7SM M08/M12 A3033 RMK T10801120 IEM_DS3505
ZBYN,1989-12-07 20:00,ZBYN 072000Z AUTO 00000KT 7SM M07/M10 A3033 RMK T10701100 IEM_DS3505
ZBYN,1989-12-07 21:00,ZBYN 072100Z AUTO 34002KT 6SM M06/M10 A3033 RMK SLP302 T10601101 52002 IEM_DS3505
ZBYN,1989-12-07 23:00,ZBYN 072300Z AUTO 00000KT 7SM M08/M12 A3036 RMK T10801120 IEM_DS3505
ZBYN,1989-12-08 00:00,ZBYN 080000Z AUTO 00000KT 6SM M08/M09 A3036 RMK SLP335 T10761094 52015 IEM_DS3505
ZBYN,1989-12-08 01:00,ZBYN 080100Z AUTO 00000KT 7SM M06/M10 A3039 RMK T10601100 IEM_DS3505
ZBYN,1989-12-08 02:00,ZBYN 080200Z AUTO 00000KT 7SM M02/M08 A3042 RMK T10201080 IEM_DS3505
ZBYN,1989-12-08 03:00,ZBYN 080300Z AUTO 14004KT 6SM 01/M10 A3042 RMK SLP338 T00111095 52015 IEM_DS3505
ZBYN,1989-12-08 04:00,ZBYN 080400Z AUTO 00000KT 7SM 03/M08 A3036 RMK T00301080 IEM_DS3505
ZBYN,1989-12-08 05:00,ZBYN 080500Z AUTO 00000KT 7SM 04/M09 A3036 RMK T00401090 IEM_DS3505
ZBYN,1989-12-08 06:00,ZBYN 080600Z AUTO 20002KT 6SM 06/M08 A3033 RMK SLP308 T00601085 4////1087 57024 IEM_DS3505
ZBYN,1989-12-08 07:00,ZBYN 080700Z AUTO 22004KT 7SM 06/M08 A3033 RMK T00601080 IEM_DS3505
ZBYN,1989-12-08 08:00,ZBYN 080800Z AUTO 24006KT 7SM 06/M08 A3030 RMK T00601080 IEM_DS3505
ZBYN,1989-12-08 09:00,ZBYN 080900Z AUTO 00000KT 6SM 03/M06 A3030 RMK SLP307 T00331056 57005 IEM_DS3505
ZBYN,1989-12-08 10:00,ZBYN 081000Z AUTO 00000KT 4SM A3030 RMK SLP290 40063//// 57003 IEM_DS3505
ZBYN,1989-12-08 11:00,ZBYN 081100Z AUTO 04006KT 7SM M02/M07 A3030 RMK T10201070 IEM_DS3505
ZBYN,1989-12-08 12:00,ZBYN 081200Z AUTO 00000KT 6SM M03/M06 A3031 RMK SLP320 T10281061 57001 IEM_DS3505
ZBYN,1989-12-08 13:00,ZBYN 081300Z AUTO 00000KT 7SM M04/M11 A3030 RMK T10401110 IEM_DS3505
ZBYN,1989-12-08 14:00,ZBYN 081400Z AUTO 00000KT 7SM M06/M10 A3030 RMK T10601100 IEM_DS3505
ZBYN,1989-12-08 16:00,ZBYN 081600Z AUTO 00000KT 7SM M06/M11 A3030 RMK T10601110 IEM_DS3505
ZBYN,1989-12-08 18:00,ZBYN 081800Z AUTO 00000KT 4SM M06/M09 A3030 RMK SLP290 T10551086 40063//// 57003 IEM_DS3505
ZBYN,1989-12-08 19:00,ZBYN 081900Z AUTO 10004KT 7SM M08/M13 A3027 RMK T10801130 IEM_DS3505
ZBYN,1989-12-08 20:00,ZBYN 082000Z AUTO 00000KT 7SM M09/M13 A3024 RMK T10901130 IEM_DS3505
ZBYN,1989-12-08 21:00,ZBYN 082100Z AUTO 32004KT 5SM M05/M11 A3021 RMK SLP277 T10531110 57016 IEM_DS3505
ZBYN,1989-12-08 22:00,ZBYN 082200Z AUTO 00000KT 5SM M08/M11 A3021 RMK T10801110 IEM_DS3505
ZBYN,1989-12-08 23:00,ZBYN 082300Z AUTO 07002KT 7SM M08/M12 RMK T10801120 IEM_DS3505
ZBYN,1989-12-09 00:00,ZBYN 090000Z AUTO 00000KT 5SM M05/M10 A3021 RMK SLP288 T10541102 54000 IEM_DS3505
ZBYN,1989-12-09 01:00,ZBYN 090100Z AUTO 00000KT 5SM M06/M10 A3024 RMK T10601100 IEM_DS3505
ZBYN,1989-12-09 02:00,ZBYN 090200Z AUTO 00000KT 5SM M02/M09 A3024 RMK T10201090 IEM_DS3505
ZBYN,1989-12-09 03:00,ZBYN 090300Z AUTO 00000KT 6SM 02/M07 A3024 RMK SLP268 T00221074 57005 IEM_DS3505
ZBYN,1989-12-09 06:00,ZBYN 090600Z AUTO 00000KT 6SM 07/M07 A3018 RMK SLP239 T00661073 4////1070 57024 IEM_DS3505
ZBYN,1989-12-09 07:00,ZBYN 090700Z AUTO 22008KT 4SM 05/M05 A3015 RMK T00501050 IEM_DS3505
ZBYN,1989-12-09 09:00,ZBYN 090900Z AUTO 00000KT 6SM 02/M05 A3015 RMK SLP248 T00241054 52001 IEM_DS3505
ZBYN,1989-12-09 10:00,ZBYN 091000Z AUTO 00000KT 2 1/2SM 01/M06 A3015 RMK T00101060 IEM_DS3505
ZBYN,1989-12-09 11:00,ZBYN 091100Z AUTO 10002KT 2SM M02/M07 A3015 RMK T10201070 IEM_DS3505
ZBYN,1989-12-09 12:00,ZBYN 091200Z AUTO 00000KT 6SM M02/M05 A3018 RMK SLP266 T10161054 52015 IEM_DS3505
ZBYN,1989-12-09 13:00,ZBYN 091300Z AUTO 09004KT 4SM M03/M08 A3018 RMK T10301080 IEM_DS3505
ZBYN,1989-12-09 14:00,ZBYN 091400Z AUTO 00000KT 4SM M04/M09 A3021 RMK T10401090 IEM_DS3505
ZBYN,1989-12-09 15:00,ZBYN 091500Z AUTO 00000KT 5SM M04/M07 A3021 RMK SLP262 T10381068 52005 IEM_DS3505
ZBYN,1989-12-09 16:00,ZBYN 091600Z AUTO 00000KT 4SM M05/M08 A3021 RMK T10501080 IEM_DS3505
ZBYN,1989-12-09 18:00,ZBYN 091800Z AUTO 34002KT 5SM M03/M07 A3020 RMK SLP256 T10291072 40074//// 52003 IEM_DS3505
ZBYN,1989-12-09 20:00,ZBYN 092000Z AUTO 00000KT 4SM M05/M09 A3021 RMK T10501090 IEM_DS3505
ZBYN,1989-12-09 21:00,ZBYN 092100Z AUTO 00000KT 5SM M05/M07 A3021 RMK SLP268 T10501071 52001 IEM_DS3505
ZBYN,1989-12-09 22:00,ZBYN 092200Z AUTO 00000KT 4SM M06/M09 A3021 RMK T10601090 IEM_DS3505
ZBYN,1989-12-10 00:00,ZBYN 100000Z AUTO 00000KT 5SM M04/M07 A3024 RMK SLP287 T10431074 52012 IEM_DS3505
ZBYN,1989-12-10 01:00,ZBYN 100100Z AUTO 00000KT 2 1/2SM M05/M08 A3027 RMK T10501080 IEM_DS3505
ZBYN,1989-12-10 02:00,ZBYN 100200Z AUTO 00000KT 2 1/2SM M01/M06 A3027 RMK T10101060 IEM_DS3505
ZBYN,1989-12-10 03:00,ZBYN 100300Z AUTO 00000KT 6SM 01/M06 A3027 RMK SLP296 T00061062 52012 IEM_DS3505
ZBYN,1989-12-10 05:00,ZBYN 100500Z AUTO 12002KT 4SM 06/M05 A3024 RMK T00601050 IEM_DS3505
ZBYN,1989-12-10 06:00,ZBYN 100600Z AUTO 00000KT 6SM 07/M05 A3024 RMK SLP266 T00741051 4////1061 57014 IEM_DS3505
ZBYN,1989-12-10 07:00,ZBYN 100700Z AUTO 00000KT 4SM 07/M04 A3021 RMK T00701040 IEM_DS3505
ZBYN,1989-12-10 08:00,ZBYN 100800Z AUTO 00000KT 4SM 07/M04 A3021 RMK T00701040 IEM_DS3505
ZBYN,1989-12-10 09:00,ZBYN 100900Z AUTO 00000KT 6SM 04/M04 A3025 RMK SLP279 T00441037 52003 IEM_DS3505
ZBYN,1989-12-10 10:00,ZBYN 101000Z AUTO 00000KT 2SM 03/M03 A3027 RMK T00301030 IEM_DS3505
ZBYN,1989-12-10 11:00,ZBYN 101100Z AUTO 09008KT 2 1/2SM 00/M05 A3027 RMK T00001050 IEM_DS3505
ZBYN,1989-12-10 12:00,ZBYN 101200Z AUTO 00000KT 6SM M01/M05 A3030 RMK SLP301 T10101051 52012 IEM_DS3505
ZBYN,1989-12-10 13:00,ZBYN 101300Z AUTO 01004KT 2 1/2SM M02/M06 A3030 RMK T10201060 IEM_DS3505
ZBYN,1989-12-10 14:00,ZBYN 101400Z AUTO 00000KT 2 1/2SM 01/M05 A3033 RMK T00101050 IEM_DS3505
ZBYN,1989-12-10 15:00,ZBYN 101500Z AUTO 00000KT 3/8SM 01/M02 A3035 RMK SLP311 T00061025 52020 IEM_DS3505
ZBYN,1989-12-10 18:00,ZBYN 101800Z AUTO 00000KT 1SM 02/M02 A3039 RMK SLP305 T00171025 40077//// 52008 IEM_DS3505
ZBYN,1989-12-10 19:00,ZBYN 101900Z AUTO 07010KT 6SM 04/M10 A3039 RMK T00401100 IEM_DS3505
ZBYN,1989-12-10 20:00,ZBYN 102000Z AUTO 08008KT 6SM 04/M10 A3039 RMK T00401100 IEM_DS3505
ZBYN,1989-12-10 21:00,ZBYN 102100Z AUTO 00000KT 9SM 02/M06 A3042 RMK SLP313 T00241062 52003 IEM_DS3505
ZBYN,1989-12-11 00:00,ZBYN 110000Z AUTO 14002KT 7SM 03/M08 A3045 RMK SLP336 T00271079 52013 IEM_DS3505
ZBYN,1989-12-11 01:00,ZBYN 110100Z AUTO 07010KT 6SM 03/M08 A3045 RMK T00301080 IEM_DS3505
ZBYN,1989-12-11 02:00,ZBYN 110200Z AUTO 08008KT 6SM 03/M07 A3047 RMK T00301070 IEM_DS3505
ZBYN,1989-12-11 03:00,ZBYN 110300Z AUTO 09006KT 5SM 04/M07 A3049 RMK SLP352 T00371067 52019 IEM_DS3505
ZBYN,1989-12-11 06:00,ZBYN 110600Z AUTO 32002KT 5SM 05/M05 A3045 RMK SLP330 T00471051 4////1019 57017 IEM_DS3505
ZBYN,1989-12-11 07:00,ZBYN 110700Z AUTO 09012KT 5SM 03/M04 A3045 RMK T00301040 IEM_DS3505
ZBYN,1989-12-11 08:00,ZBYN 110800Z AUTO 09014KT 5SM 03/M03 A3047 RMK T00301030 IEM_DS3505
ZBYN,1989-12-11 09:00,ZBYN 110900Z AUTO 16002KT 5SM 02/M03 A3047 RMK SLP341 T00231028 52007 IEM_DS3505
ZBYN,1989-12-11 10:00,ZBYN 111000Z AUTO 09012KT 5SM 01/M03 A3047 RMK T00101030 IEM_DS3505
ZBYN,1989-12-11 12:00,ZBYN 111200Z AUTO 00000KT 6SM 00/M03 A3050 RMK SLP358 T00031029 52013 IEM_DS3505
ZBYN,1989-12-11 13:00,ZBYN 111300Z AUTO 07004KT 5SM 00/M04 A3050 RMK T00001040 IEM_DS3505
ZBYN,1989-12-11 14:00,ZBYN 111400Z AUTO 07004KT 5SM 00/M04 A3050 RMK T00001040 IEM_DS3505
ZBYN,1989-12-11 15:00,ZBYN 111500Z AUTO 00000KT 6SM M01/M03 A3050 RMK SLP362 T10111032 52003 IEM_DS3505
ZBYN,1989-12-11 17:00,ZBYN 111700Z AUTO 00000KT 1 1/4SM 00/M03 A3050 RMK T00001030 IEM_DS3505
ZBYN,1989-12-11 18:00,ZBYN 111800Z AUTO 00000KT 6SM M01/M03 A3050 RMK SLP362 T10081029 40049//// 52002 IEM_DS3505
ZBYN,1989-12-11 19:00,ZBYN 111900Z AUTO 00000KT 1 1/4SM 00/M03 A3050 RMK T00001030 IEM_DS3505
ZBYN,1989-12-11 20:00,ZBYN 112000Z AUTO 00000KT 1 1/4SM M01/M03 A3053 RMK T10101030 IEM_DS3505
ZBYN,1989-12-11 21:00,ZBYN 112100Z AUTO 00000KT 5SM M00/M02 A3053 RMK SLP372 T10051025 52006 IEM_DS3505
ZBYN,1989-12-11 22:00,ZBYN 112200Z AUTO 05004KT 2SM 00/M03 A3053 RMK T00001030 IEM_DS3505
ZBYN,1989-12-12 00:00,ZBYN 120000Z AUTO 00000KT 5SM M00/M02 A3053 RMK SLP383 T10011024 52007 IEM_DS3505
ZBYN,1989-12-12 01:00,ZBYN 120100Z AUTO 08002KT 3SM 01/M03 A3056 RMK T00101030 IEM_DS3505
ZBYN,1989-12-12 02:00,ZBYN 120200Z AUTO 03004KT 5SM 02/M03 A3059 RMK T00201030 IEM_DS3505
ZBYN,1989-12-12 03:00,ZBYN 120300Z AUTO 00000KT 5SM 03/M03 A3059 RMK SLP390 T00301032 52009 IEM_DS3505
ZBYN,1989-12-12 04:00,ZBYN 120400Z AUTO 10008KT 6SM 04/M04 A3056 RMK T00401040 IEM_DS3505
ZBYN,1989-12-12 05:00,ZBYN 120500Z AUTO 6SM 04/M04 A3056 RMK T00401040 IEM_DS3505
ZBYN,1989-12-12 06:00,ZBYN 120600Z AUTO 14006KT 5SM 04/M03 A3053 RMK SLP367 T00441034 4////1013 57018 IEM_DS3505
ZBYN,1989-12-12 07:00,ZBYN 120700Z AUTO 11004KT 6SM 04/M03 RMK T00401030 IEM_DS3505
ZBYN,1989-12-12 09:00,ZBYN 120900Z AUTO 18004KT 5SM 02/M03 A3053 RMK SLP367 T00161026 57004 IEM_DS3505
ZBYN,1989-12-12 10:00,ZBYN 121000Z AUTO 15004KT 3SM 00/M03 A3053 RMK T00001030 IEM_DS3505
ZBYN,1989-12-12 11:00,ZBYN 121100Z AUTO 12004KT 2 1/2SM M01/M03 A3053 RMK T10101030 IEM_DS3505
ZBYN,1989-12-12 12:00,ZBYN 121200Z AUTO 11002KT 5SM M01/M03 A3053 RMK SLP378 T10101034 52006 IEM_DS3505
ZBYN,1989-12-12 13:00,ZBYN 121300Z AUTO 09006KT 2 1/2SM M03/M05 A3056 RMK T10301050 IEM_DS3505
ZBYN,1989-12-12 14:00,ZBYN 121400Z AUTO 09006KT 2 1/2SM M03/M05 A3056 RMK T10301050 IEM_DS3505
ZBYN,1989-12-12 15:00,ZBYN 121500Z AUTO 00000KT 4SM M02/M03 A3056 RMK SLP376 T10221034 52002 IEM_DS3505
ZBYN,1989-12-12 17:00,ZBYN 121700Z AUTO 09004KT 2 1/2SM M05/M07 A3056 RMK T10501070 IEM_DS3505
ZBYN,1989-12-12 18:00,ZBYN 121800Z AUTO 00000KT 1 1/4SM M04/M05 A3053 RMK SLP376 T10441053 40045//// 57002 IEM_DS3505
ZBYN,1989-12-12 19:00,ZBYN 121900Z AUTO 00000KT 1 1/2SM M06/M07 A3056 RMK T10601070 IEM_DS3505
ZBYN,1989-12-12 20:00,ZBYN 122000Z AUTO 00000KT 1 1/4SM M05/M06 A3053 RMK T10501060 IEM_DS3505
ZBYN,1989-12-12 21:00,ZBYN 122100Z AUTO 00000KT 1 1/4SM M05/M05 A3053 RMK SLP375 T10471053 57006 IEM_DS3505
ZBYN,1989-12-12 22:00,ZBYN 122200Z AUTO 11004KT 1/4SM M03/M04 A3053 RMK T10301040 IEM_DS3505
ZBYN,1989-12-12 23:00,ZBYN 122300Z AUTO 00000KT 1/4SM M02/M03 A3053 RMK T10201030 IEM_DS3505
ZBYN,1989-12-13 00:00,ZBYN 130000Z AUTO 00000KT 1/2SM M02/M03 A3053 RMK SLP377 T10251031 52001 IEM_DS3505
ZBYN,1989-12-13 01:00,ZBYN 130100Z AUTO 01004KT 1SM M02/M02 A3056 RMK T10201020 IEM_DS3505
ZBYN,1989-12-13 02:00,ZBYN 130200Z AUTO 00000KT 1SM M02/M02 A3056 RMK T10201020 IEM_DS3505
ZBYN,1989-12-13 03:00,ZBYN 130300Z AUTO 16004KT 2SM 01/M02 A3056 RMK SLP387 T00071025 52013 IEM_DS3505
ZBYN,1989-12-13 04:00,ZBYN 130400Z AUTO 00000KT 1SM 02/M02 A3056 RMK T00201020 IEM_DS3505
ZBYN,1989-12-13 05:00,ZBYN 130500Z AUTO 21006KT 1SM 03/M02 A3053 RMK T00301020 IEM_DS3505
ZBYN,1989-12-13 06:00,ZBYN 130600Z AUTO 18002KT 4SM 04/M03 A3053 RMK SLP366 T00441034 4////1062 57017 IEM_DS3505
ZBYN,1989-12-13 07:00,ZBYN 130700Z AUTO 27006KT 1 1/2SM 05/M03 A3053 RMK T00501030 IEM_DS3505
ZBYN,1989-12-13 09:00,ZBYN 130900Z AUTO 00000KT 4SM 03/M04 A3051 RMK SLP371 T00281042 52002 IEM_DS3505
ZBYN,1989-12-13 10:00,ZBYN 131000Z AUTO 01006KT 1 1/2SM 01/M04 A3053 RMK T00101040 IEM_DS3505
ZBYN,1989-12-13 11:00,ZBYN 131100Z AUTO 00000KT 4SM M02/M06 A3051 RMK SLP378 T10251058 52001 IEM_DS3505
ZBYN,1989-12-13 12:00,ZBYN 131200Z AUTO 00000KT 4SM M02/M06 A3051 RMK SLP378 T10251058 52001 IEM_DS3505
ZBYN,1989-12-13 14:00,ZBYN 131400Z AUTO 00000KT 4SM M05/M08 A3056 RMK T10501080 IEM_DS3505
ZBYN,1989-12-13 15:00,ZBYN 131500Z AUTO 00000KT 6SM M04/M10 A3056 RMK SLP382 T10421095 52006 IEM_DS3505
ZBYN,1989-12-13 16:00,ZBYN 131600Z AUTO 11002KT 3SM M05/M09 A3056 RMK T10501090 IEM_DS3505
ZBYN,1989-12-13 18:00,ZBYN 131800Z AUTO 07002KT 6SM M05/M09 A3056 RMK SLP378 T10541089 40053//// 54000 IEM_DS3505
ZBYN,1989-12-13 20:00,ZBYN 132000Z AUTO 00000KT 6SM M07/M11 A3050 RMK T10701110 IEM_DS3505
ZBYN,1989-12-13 21:00,ZBYN 132100Z AUTO 00000KT 4SM M08/M09 A3052 RMK SLP380 T10751093 57004 IEM_DS3505
ZBYN,1989-12-13 22:00,ZBYN 132200Z AUTO 00000KT 7SM M08/M11 A3050 RMK T10801110 IEM_DS3505
ZBYN,1989-12-13 23:00,ZBYN 132300Z AUTO 00000KT 7SM M09/M12 A3050 RMK T10901120 IEM_DS3505
ZBYN,1989-12-14 00:00,ZBYN 140000Z AUTO 00000KT 1 1/4SM M07/M09 A3050 RMK SLP386 T10721089 57003 IEM_DS3505
ZBYN,1989-12-14 01:00,ZBYN 140100Z AUTO 00000KT 4SM M07/M10 A3050 RMK T10701100 IEM_DS3505
ZBYN,1989-12-14 02:00,ZBYN 140200Z AUTO 00000KT 4SM M03/M08 A3053 RMK T10301080 IEM_DS3505
ZBYN,1989-12-14 03:00,ZBYN 140300Z AUTO 00000KT 4SM 01/M09 A3050 RMK SLP371 T00131091 57002 IEM_DS3505
ZBYN,1989-12-14 04:00,ZBYN 140400Z AUTO 00000KT 7SM 03/M07 A3047 RMK T00301070 IEM_DS3505
ZBYN,1989-12-14 05:00,ZBYN 140500Z AUTO 19004KT 7SM 04/M08 A3042 RMK T00401080 IEM_DS3505
ZBYN,1989-12-14 06:00,ZBYN 140600Z AUTO 14002KT 5SM 05/M07 A3038 RMK SLP326 T00511074 4////1079 57045 IEM_DS3505
ZBYN,1989-12-14 08:00,ZBYN 140800Z AUTO 19004KT 6SM 06/M07 A3036 RMK T00601070 IEM_DS3505
ZBYN,1989-12-14 09:00,ZBYN 140900Z AUTO 00000KT 5SM 03/M04 A3036 RMK SLP320 T00301037 57012 IEM_DS3505
ZBYN,1989-12-14 10:00,ZBYN 141000Z AUTO 09004KT 6SM 01/M07 A3036 RMK T00101070 IEM_DS3505
ZBYN,1989-12-14 11:00,ZBYN 141100Z AUTO 10004KT 6SM M02/M08 A3033 RMK T10201080 IEM_DS3505
ZBYN,1989-12-14 12:00,ZBYN 141200Z AUTO 00000KT 5SM M02/M06 A3034 RMK SLP326 T10241057 57003 IEM_DS3505
ZBYN,1989-12-14 13:00,ZBYN 141300Z AUTO 00000KT 6SM M05/M07 A3036 RMK T10501070 IEM_DS3505
ZBYN,1989-12-14 14:00,ZBYN 141400Z AUTO 00000KT 6SM M04/M09 A3033 RMK T10401090 IEM_DS3505
ZBYN,1989-12-14 15:00,ZBYN 141500Z AUTO 00000KT 5SM M04/M06 A3031 RMK SLP304 T10441065 57009 IEM_DS3505
ZBYN,1989-12-14 16:00,ZBYN 141600Z AUTO 00000KT 6SM M05/M10 A3030 RMK T10501100 IEM_DS3505
ZBYN,1989-12-14 17:00,ZBYN 141700Z AUTO 00000KT 6SM M06/M09 A3030 RMK T10601090 IEM_DS3505
ZBYN,1989-12-14 18:00,ZBYN 141800Z AUTO 00000KT 5SM A3027 RMK SLP287 40056//// 57010 IEM_DS3505
ZBYN,1989-12-14 19:00,ZBYN 141900Z AUTO 00000KT 6SM M04/M09 A3033 RMK T10401090 IEM_DS3505
ZBYN,1989-12-14 20:00,ZBYN 142000Z AUTO 00000KT 12SM A3027 RMK SLP287 IEM_DS3505
ZBYN,1989-12-14 21:00,ZBYN 142100Z AUTO 34002KT 3SM M06/M08 A3027 RMK SLP280 T10621078 57012 IEM_DS3505
ZBYN,1989-12-14 22:00,ZBYN 142200Z AUTO 00000KT 3SM M07/M10 A3024 RMK T10701100 IEM_DS3505
ZBYN,1989-12-14 23:00,ZBYN 142300Z AUTO 00000KT 3SM M06/M09 A3024 RMK T10601090 IEM_DS3505
ZBYN,1989-12-15 00:00,ZBYN 150000Z AUTO 00000KT 3SM M04/M08 A3024 RMK SLP285 T10401083 57001 IEM_DS3505
ZBYN,1989-12-15 01:00,ZBYN 150100Z AUTO 00000KT 1 1/2SM M04/M08 A3024 RMK T10401080 IEM_DS3505
ZBYN,1989-12-15 02:00,ZBYN 150200Z AUTO 00000KT 1 1/4SM M01/M06 A3024 RMK T10101060 IEM_DS3505
ZBYN,1989-12-15 03:00,ZBYN 150300Z AUTO 00000KT 4SM 02/M07 A3024 RMK SLP277 T00241074 54000 IEM_DS3505
ZBYN,1989-12-15 04:00,ZBYN 150400Z AUTO 19002KT 7SM 04/M07 RMK T00401070 IEM_DS3505
ZBYN,1989-12-15 06:00,ZBYN 150600Z AUTO 20004KT 5SM 06/M10 A3015 RMK SLP241 T00591096 4////1073 57027 IEM_DS3505
ZBYN,1989-12-15 08:00,ZBYN 150800Z AUTO 00000KT 7SM 06/M05 A3015 RMK T00601050 IEM_DS3505
ZBYN,1989-12-15 09:00,ZBYN 150900Z AUTO 11004KT 5SM 04/M06 A3015 RMK SLP242 T00381064 57005 IEM_DS3505
ZBYN,1989-12-15 11:00,ZBYN 151100Z AUTO 00000KT 2SM 00/M07 A3018 RMK T00001070 IEM_DS3505
ZBYN,1989-12-15 12:00,ZBYN 151200Z AUTO 32006KT 6SM 04/M10 A3021 RMK SLP264 T00361095 52032 IEM_DS3505
ZBYN,1989-12-15 13:00,ZBYN 151300Z AUTO 31008KT 7SM 02/M09 A3021 RMK T00201090 IEM_DS3505
ZBYN,1989-12-15 14:00,ZBYN 151400Z AUTO 00000KT 7SM M01/M09 A3021 RMK T10101090 IEM_DS3505
ZBYN,1989-12-15 15:00,ZBYN 151500Z AUTO 11002KT 6SM M00/M09 A3024 RMK SLP269 T10011091 52009 IEM_DS3505
ZBYN,1989-12-15 16:00,ZBYN 151600Z AUTO 11006KT 7SM M04/M09 RMK T10401090 IEM_DS3505
ZBYN,1989-12-15 17:00,ZBYN 151700Z AUTO 12004KT 7SM M06/M09 A3024 RMK T10601090 IEM_DS3505
ZBYN,1989-12-15 18:00,ZBYN 151800Z AUTO 00000KT 6SM M05/M08 A3023 RMK SLP271 T10501083 40066//// 57001 IEM_DS3505
ZBYN,1989-12-15 19:00,ZBYN 151900Z AUTO 09006KT 7SM M07/M10 A3024 RMK T10701100 IEM_DS3505
ZBYN,1989-12-15 20:00,ZBYN 152000Z AUTO 11004KT 7SM M07/M10 A3024 RMK T10701100 IEM_DS3505
ZBYN,1989-12-15 22:00,ZBYN 152200Z AUTO 09004KT 7SM M08/M11 A3024 RMK T10801110 IEM_DS3505
ZBYN,1989-12-15 23:00,ZBYN 152300Z AUTO 09004KT 7SM M08/M11 A3027 RMK T10801110 IEM_DS3505
ZBYN,1989-12-16 00:00,ZBYN 160000Z AUTO 00000KT 6SM M08/M10 A3026 RMK SLP291 T10781096 52008 IEM_DS3505
ZBYN,1989-12-16 01:00,ZBYN 160100Z AUTO 00000KT 7SM M05/M10 A3027 RMK T10501100 IEM_DS3505
ZBYN,1989-12-16 02:00,ZBYN 160200Z AUTO 12004KT 7SM M01/M08 A3030 RMK T10101080 IEM_DS3505
ZBYN,1989-12-16 03:00,ZBYN 160300Z AUTO 16004KT 6SM 02/M06 A3030 RMK SLP286 T00151055 52005 IEM_DS3505
ZBYN,1989-12-16 06:00,ZBYN 160600Z AUTO 16006KT 6SM 07/M08 A3021 RMK SLP257 T00661078 4////1083 57026 IEM_DS3505
ZBYN,1989-12-16 07:00,ZBYN 160700Z AUTO 19008KT 7SM 07/M06 A3018 RMK T00701060 IEM_DS3505
ZBYN,1989-12-16 08:00,ZBYN 160800Z AUTO 20008KT 7SM 07/M05 A3018 RMK T00701050 IEM_DS3505
ZBYN,1989-12-16 09:00,ZBYN 160900Z AUTO 16004KT 6SM 04/M08 A3018 RMK SLP265 T00381082 54000 IEM_DS3505
ZBYN,1989-12-16 11:00,ZBYN 161100Z AUTO 09002KT 7SM M01/M06 A3018 RMK T10101060 IEM_DS3505
ZBYN,1989-12-16 12:00,ZBYN 161200Z AUTO 11002KT 12SM M02/M09 A3020 RMK SLP279 T10191086 52001 IEM_DS3505
ZBYN,1989-12-16 13:00,ZBYN 161300Z AUTO 10004KT 7SM M02/M09 A3018 RMK T10201090 IEM_DS3505
ZBYN,1989-12-16 14:00,ZBYN 161400Z AUTO 07008KT 7SM M04/M11 RMK T10401110 IEM_DS3505
ZBYN,1989-12-16 15:00,ZBYN 161500Z AUTO 14002KT 9SM M02/M10 A3021 RMK SLP266 T10241096 52003 IEM_DS3505
ZBYN,1989-12-16 16:00,ZBYN 161600Z AUTO 07002KT 7SM M04/M10 A3021 RMK T10401100 IEM_DS3505
ZBYN,1989-12-16 17:00,ZBYN 161700Z AUTO 07004KT 7SM M04/M11 A3021 RMK T10401110 IEM_DS3505
ZBYN,1989-12-16 18:00,ZBYN 161800Z AUTO 00000KT 6SM M06/M08 A3021 RMK SLP264 T10591082 40076//// 52001 IEM_DS3505
ZBYN,1989-12-16 19:00,ZBYN 161900Z AUTO 08002KT 7SM M05/M10 A3021 RMK T10501100 IEM_DS3505
ZBYN,1989-12-16 20:00,ZBYN 162000Z AUTO 00000KT 7SM M08/M11 A3021 RMK T10801110 IEM_DS3505
ZBYN,1989-12-16 21:00,ZBYN 162100Z AUTO 00000KT 5SM M05/M08 A3022 RMK SLP271 T10541084 IEM_DS3505
ZBYN,1989-12-16 23:00,ZBYN 162300Z AUTO 00000KT 7SM M08/M11 A3024 RMK T10801110 IEM_DS3505
ZBYN,1989-12-17 00:00,ZBYN 170000Z AUTO 00000KT 5SM M06/M10 A3024 RMK SLP288 T10591095 52005 IEM_DS3505
ZBYN,1989-12-17 01:00,ZBYN 170100Z AUTO 00000KT 7SM M07/M10 A3027 RMK T10701100 IEM_DS3505
ZBYN,1989-12-17 02:00,ZBYN 170200Z AUTO 00000KT 7SM M01/M08 A3027 RMK T10101080 IEM_DS3505
ZBYN,1989-12-17 03:00,ZBYN 170300Z AUTO 34004KT 6SM 02/M09 A3030 RMK SLP289 T00181091 52013 IEM_DS3505
ZBYN,1989-12-17 05:00,ZBYN 170500Z AUTO 34004KT 2 1/2SM 07/M08 A3024 RMK T00701080 IEM_DS3505
ZBYN,1989-12-17 06:00,ZBYN 170600Z AUTO 36004KT 6SM 08/M11 A3024 RMK SLP261 T00801106 4////1074 57021 IEM_DS3505
ZBYN,1989-12-17 07:00,ZBYN 170700Z AUTO 31004KT 6SM 10/M07 A3021 RMK T01001070 IEM_DS3505
ZBYN,1989-12-17 09:00,ZBYN 170900Z AUTO 09004KT 11SM 07/M12 A3024 RMK SLP271 T00701118 52009 IEM_DS3505
ZBYN,1989-12-17 10:00,ZBYN 171000Z AUTO 08014KT 7SM 04/M11 A3027 RMK T00401110 IEM_DS3505
ZBYN,1989-12-17 12:00,ZBYN 171200Z AUTO 04004G29KT 7SM 03/M11 A3036 RMK SLP321 T00321109 52038 IEM_DS3505
ZBYN,1989-12-17 13:00,ZBYN 171300Z AUTO 08023KT 7SM 01/M09 A3039 RMK T00101090 IEM_DS3505
ZBYN,1989-12-17 14:00,ZBYN 171400Z AUTO 06019KT 7SM M01/M08 RMK T10101080 IEM_DS3505
ZBYN,1989-12-17 15:00,ZBYN 171500Z AUTO 02004KT 7SM 00/M10 A3047 RMK SLP343 T00011103 52027 IEM_DS3505
ZBYN,1989-12-17 16:00,ZBYN 171600Z AUTO 08012KT 7SM M03/M07 A3050 RMK T10301070 IEM_DS3505
ZBYN,1989-12-17 17:00,ZBYN 171700Z AUTO 08012KT 6SM M03/M07 A3053 RMK T10301070 IEM_DS3505
ZBYN,1989-12-17 18:00,ZBYN 171800Z AUTO 00000KT 7SM M04/M07 A3051 RMK SLP361 T10361074 40094//// 52021 IEM_DS3505
ZBYN,1989-12-17 19:00,ZBYN 171900Z AUTO 06014KT 6SM M03/M07 A3059 RMK T10301070 IEM_DS3505
ZBYN,1989-12-17 20:00,ZBYN 172000Z AUTO 07010KT 6SM M03/M07 A3053 RMK T10301070 IEM_DS3505
ZBYN,1989-12-17 21:00,ZBYN 172100Z AUTO 04006KT 7SM M03/M07 A3053 RMK SLP363 T10271070 52002 IEM_DS3505
ZBYN,1989-12-17 22:00,ZBYN 172200Z AUTO 08010KT 6SM M03/M08 A3053 RMK T10301080 IEM_DS3505
ZBYN,1989-12-17 23:00,ZBYN 172300Z AUTO 08010KT 6SM M03/M08 A3042 RMK T10301080 IEM_DS3505
ZBYN,1989-12-18 00:00,ZBYN 180000Z AUTO 04008KT 7SM M03/M07 A3056 RMK SLP388 T10261073 52016 IEM_DS3505
ZBYN,1989-12-18 01:00,ZBYN 180100Z AUTO 09016KT 7SM M03/M08 A3059 RMK T10301080 IEM_DS3505
ZBYN,1989-12-18 02:00,ZBYN 180200Z AUTO 09010KT 2 1/2SM 04/00 A3059 RMK T00400000 IEM_DS3505
ZBYN,1989-12-18 03:00,ZBYN 180300Z AUTO 36002KT 6SM M03/M06 A3059 RMK SLP408 T10331062 52012 IEM_DS3505
ZBYN,1989-12-18 04:00,ZBYN 180400Z AUTO 09014KT 6SM M03/M07 A3059 RMK T10301070 IEM_DS3505
ZBYN,1989-12-18 05:00,ZBYN 180500Z AUTO 09010KT 7SM M03/M08 A3056 RMK T10301080 IEM_DS3505
ZBYN,1989-12-18 06:00,ZBYN 180600Z AUTO 09006KT 5SM M02/M08 A3056 RMK 60000 SLP395 T10251080 4////1051 57017 IEM_DS3505
ZBYN,1989-12-18 07:00,ZBYN 180700Z AUTO 09010KT 4SM M03/M07 A3053 RMK T10301070 IEM_DS3505
ZBYN,1989-12-18 09:00,ZBYN 180900Z AUTO 00000KT 5SM M04/M07 A3053 RMK SLP394 T10351068 57001 IEM_DS3505
ZBYN,1989-12-18 10:00,ZBYN 181000Z AUTO 34002KT 5SM M04/M09 A3053 RMK 60001 SLP393 T10401090 57002 IEM_DS3505
ZBYN,1989-12-18 11:00,ZBYN 181100Z AUTO 08008KT 4SM M04/M09 A3056 RMK T10401090 IEM_DS3505
ZBYN,1989-12-18 12:00,ZBYN 181200Z AUTO 34002KT 5SM M04/M06 A3056 RMK 60001 SLP393 T10431059 57002 IEM_DS3505
ZBYN,1989-12-18 13:00,ZBYN 181300Z AUTO 05006KT 7SM M05/M09 A3056 RMK T10501090 IEM_DS3505
ZBYN,1989-12-18 14:00,ZBYN 181400Z AUTO 06006KT 7SM M05/M09 A3056 RMK T10501090 IEM_DS3505
ZBYN,1989-12-18 15:00,ZBYN 181500Z AUTO 34004KT 5SM M05/M06 A3056 RMK SLP396 T10531063 54000 IEM_DS3505
ZBYN,1989-12-18 17:00,ZBYN 181700Z AUTO 08006KT 5SM M05/M08 A3053 RMK T10501080 IEM_DS3505
ZBYN,1989-12-18 18:00,ZBYN 181800Z AUTO 34002KT 5SM M06/M07 A3053 RMK 60001 SLP388 T10591070 40032//// 57007 IEM_DS3505
ZBYN,1989-12-18 19:00,ZBYN 181900Z AUTO 00000KT 5SM M06/M08 A3053 RMK T10601080 IEM_DS3505
ZBYN,1989-12-18 20:00,ZBYN 182000Z AUTO 27004KT 1 1/2SM M06/M07 A3050 RMK T10601070 IEM_DS3505
ZBYN,1989-12-18 21:00,ZBYN 182100Z AUTO 34004KT 4SM M06/M08 A3047 RMK SLP380 T10601075 57009 IEM_DS3505
ZBYN,1989-12-18 22:00,ZBYN 182200Z AUTO 00000KT 1 1/2SM M06/M07 A3047 RMK T10601070 IEM_DS3505
ZBYN,1989-12-18 23:00,ZBYN 182300Z AUTO 36002KT 1 1/2SM M06/M07 A3047 RMK T10601070 IEM_DS3505
ZBYN,1989-12-19 00:00,ZBYN 190000Z AUTO 36004KT 2 1/2SM M06/M08 A3047 RMK T10601080 IEM_DS3505
ZBYN,1989-12-19 01:00,ZBYN 190100Z AUTO 36004KT 2 1/2SM M06/M08 A3047 RMK T10601080 IEM_DS3505
ZBYN,1989-12-19 02:00,ZBYN 190200Z AUTO 00000KT 2SM M06/M07 A3047 RMK T10601070 IEM_DS3505
ZBYN,1989-12-19 03:00,ZBYN 190300Z AUTO 34006KT 5SM M05/M08 A3047 RMK SLP375 T10501075 52002 IEM_DS3505
ZBYN,1989-12-19 04:00,ZBYN 190400Z AUTO 00000KT 3SM M04/M07 A3045 RMK T10401070 IEM_DS3505
ZBYN,1989-12-19 06:00,ZBYN 190600Z AUTO 32002KT 5SM M04/M08 A3040 RMK 60001 SLP348 T10361078 4////1068 57023 IEM_DS3505
ZBYN,1989-12-19 08:00,ZBYN 190800Z AUTO 00000KT 4SM M04/M07 A3042 RMK T10401070 IEM_DS3505
ZBYN,1989-12-19 09:00,ZBYN 190900Z AUTO 00000KT 5SM M03/M07 A3038 RMK SLP341 T10341067 57006 IEM_DS3505
ZBYN,1989-12-19 12:00,ZBYN 191200Z AUTO 00000KT 6SM M04/M06 A3039 RMK SLP347 T10441060 52006 IEM_DS3505
ZBYN,1989-12-19 15:00,ZBYN 191500Z AUTO 00000KT 6SM M04/M06 A3040 RMK SLP348 T10451058 52002 IEM_DS3505
ZBYN,1989-12-19 18:00,ZBYN 191800Z AUTO 00000KT 6SM M05/M06 A3040 RMK SLP345 T10471060 40032//// 57001 IEM_DS3505
ZBYN,1989-12-19 21:00,ZBYN 192100Z AUTO 00000KT 5SM M05/M06 A3038 RMK SLP340 T10481061 57004 IEM_DS3505
ZBYN,1989-12-20 00:00,ZBYN 200000Z AUTO 00000KT 3SM M05/M06 A3039 RMK SLP345 T10481061 52003 IEM_DS3505
ZBYN,1989-12-20 03:00,ZBYN 200300Z AUTO 00000KT 5SM M02/M07 A3044 RMK SLP358 T10251067 52015 IEM_DS3505
ZBYN,1989-12-20 04:00,ZBYN 200400Z AUTO 00000KT 3SM M01/M07 A3045 RMK T10101070 IEM_DS3505
ZBYN,1989-12-20 06:00,ZBYN 200600Z AUTO 00000KT 6SM M00/M04 A3039 RMK SLP339 T10011042 4////1058 57013 IEM_DS3505
ZBYN,1989-12-20 07:00,ZBYN 200700Z AUTO 00000KT 3SM 00/M05 A3039 RMK T00001050 IEM_DS3505
ZBYN,1989-12-20 08:00,ZBYN 200800Z AUTO 00000KT 2 1/2SM 00/M05 A3039 RMK T00001050 IEM_DS3505
ZBYN,1989-12-20 09:00,ZBYN 200900Z AUTO 00000KT 6SM M02/M04 A3040 RMK SLP342 T10201042 57001 IEM_DS3505
ZBYN,1989-12-20 12:00,ZBYN 201200Z AUTO 00000KT 3/8SM M07/M08 A3044 RMK SLP365 T10681085 52013 IEM_DS3505
ZBYN,1989-12-20 14:00,ZBYN 201400Z AUTO 00000KT 1SM M07/M08 A3042 RMK T10701080 IEM_DS3505
ZBYN,1989-12-20 15:00,ZBYN 201500Z AUTO 00000KT 3/8SM M07/M08 A3044 RMK SLP360 T10711080 57001 IEM_DS3505
ZBYN,1989-12-20 18:00,ZBYN 201800Z AUTO 00000KT 1/2SM M07/M08 A3043 RMK SLP354 T10701079 40003//// 57002 IEM_DS3505
ZBYN,1989-12-20 21:00,ZBYN 202100Z AUTO 00000KT 1SM M09/M10 A3042 RMK SLP354 T10871098 57006 IEM_DS3505
ZBYN,1989-12-20 22:00,ZBYN 202200Z AUTO 00000KT 1SM M09/M10 A3042 RMK T10901100 IEM_DS3505
ZBYN,1989-12-21 00:00,ZBYN 210000Z AUTO 00000KT 1/2SM M09/M10 A3042 RMK SLP365 T10861097 52002 IEM_DS3505
ZBYN,1989-12-21 02:00,ZBYN 210200Z AUTO 00000KT 1SM M06/M08 A3045 RMK T10601080 IEM_DS3505
ZBYN,1989-12-21 03:00,ZBYN 210300Z AUTO 18002KT 4SM M04/M05 A3045 RMK SLP362 T10401052 52005 IEM_DS3505
ZBYN,1989-12-21 04:00,ZBYN 210400Z AUTO 00000KT 1SM M03/M06 A3042 RMK T10301060 IEM_DS3505
ZBYN,1989-12-21 05:00,ZBYN 210500Z AUTO 16004KT 1SM M01/M06 A3039 RMK T10101060 IEM_DS3505
ZBYN,1989-12-21 06:00,ZBYN 210600Z AUTO 20002KT 3SM M01/M05 A3035 RMK SLP330 T10141049 4////1097 57025 IEM_DS3505
ZBYN,1989-12-21 09:00,ZBYN 210900Z AUTO 16002KT 2 1/2SM M01/M04 A3036 RMK SLP335 T10121042 52002 IEM_DS3505
ZBYN,1989-12-21 12:00,ZBYN 211200Z AUTO 00000KT 2 1/2SM M04/M05 A3038 RMK T10351053 52006 IEM_DS3505
ZBYN,1989-12-21 13:00,ZBYN 211300Z AUTO 00000KT 1SM M03/M05 A3039 RMK T10301050 IEM_DS3505
ZBYN,1989-12-21 15:00,ZBYN 211500Z AUTO 00000KT 2 1/2SM M03/M05 A3039 RMK SLP342 T10321050 52005 IEM_DS3505
ZBYN,1989-12-21 18:00,ZBYN 211800Z AUTO 00000KT 1 1/4SM M04/M04 A3038 RMK SLP333 T10371045 41009//// 57004 IEM_DS3505
ZBYN,1989-12-22 00:00,ZBYN 220000Z AUTO 00000KT 4SM M04/M05 A3035 RMK SLP328 T10411050 57004 IEM_DS3505
ZBYN,1989-12-22 01:00,ZBYN 220100Z AUTO 00000KT 1SM M04/M05 A3036 RMK T10401050 IEM_DS3505
ZBYN,1989-12-22 03:00,ZBYN 220300Z AUTO 00000KT 1SM M01/M04 A3035 RMK SLP321 T10061038 54000 IEM_DS3505
ZBYN,1989-12-22 04:00,ZBYN 220400Z AUTO 00000KT 1SM 00/M03 A3033 RMK T00001030 IEM_DS3505
ZBYN,1989-12-22 05:00,ZBYN 220500Z AUTO 14004KT 1SM 00/M03 A3030 RMK T00001030 IEM_DS3505
ZBYN,1989-12-22 06:00,ZBYN 220600Z AUTO 16002KT 2 1/2SM 00/M04 A3027 RMK SLP288 T00041035 4////1051 57029 IEM_DS3505
ZBYN,1989-12-22 07:00,ZBYN 220700Z AUTO 00000KT 1 1/4SM 01/M03 A3024 RMK T00101030 IEM_DS3505
ZBYN,1989-12-22 08:00,ZBYN 220800Z AUTO 00000KT 1 1/4SM 01/M02 A3024 RMK T00101020 IEM_DS3505
ZBYN,1989-12-22 09:00,ZBYN 220900Z AUTO 00000KT 2 1/2SM 00/M03 A3023 RMK SLP277 T00001027 57011 IEM_DS3505
ZBYN,1989-12-22 10:00,ZBYN 221000Z AUTO 00000KT 1SM M01/M02 A3024 RMK T10101020 IEM_DS3505
ZBYN,1989-12-22 11:00,ZBYN 221100Z AUTO 00000KT 1 1/2SM M02/M04 A3024 RMK T10201040 IEM_DS3505
ZBYN,1989-12-22 12:00,ZBYN 221200Z AUTO 00000KT 4SM M01/M03 A3024 RMK T10081032 52003 IEM_DS3505
ZBYN,1989-12-22 13:00,ZBYN 221300Z AUTO 00000KT 1 1/2SM M01/M03 A3024 RMK T10101030 IEM_DS3505
ZBYN,1989-12-22 15:00,ZBYN 221500Z AUTO 00000KT 4SM M03/M05 A3024 RMK SLP281 T10281047 57004 IEM_DS3505
ZBYN,1989-12-22 16:00,ZBYN 221600Z AUTO 00000KT 1 1/2SM M05/M08 A3021 RMK T10501080 IEM_DS3505
ZBYN,1989-12-22 17:00,ZBYN 221700Z AUTO 00000KT 1 1/2SM M06/M08 A3021 RMK T10601080 IEM_DS3505
ZBYN,1989-12-22 18:00,ZBYN 221800Z AUTO 00000KT 1 1/4SM M04/M05 A3021 RMK SLP274 T10381046 40006//// 57006 IEM_DS3505
ZBYN,1989-12-22 19:00,ZBYN 221900Z AUTO 00000KT 1 1/4SM M06/M08 A3021 RMK T10601080 IEM_DS3505
ZBYN,1989-12-22 21:00,ZBYN 222100Z AUTO 00000KT 2SM M06/M08 A3022 RMK SLP278 T10641084 57001 IEM_DS3505
ZBYN,1989-12-22 22:00,ZBYN 222200Z AUTO 00000KT 1SM M08/M09 A3021 RMK T10801090 IEM_DS3505
ZBYN,1989-12-22 23:00,ZBYN 222300Z AUTO 09006KT 1SM M08/M09 A3021 RMK T10801090 IEM_DS3505
ZBYN,1989-12-23 00:00,ZBYN 230000Z AUTO 00000KT 4SM M07/M10 A3021 RMK SLP281 T10671096 52001 IEM_DS3505
ZBYN,1989-12-23 01:00,ZBYN 230100Z AUTO 00000KT 1/4SM M08/M10 A3024 RMK T10801100 IEM_DS3505
ZBYN,1989-12-23 03:00,ZBYN 230300Z AUTO 18002KT 4SM M04/M06 A3023 RMK SLP284 T10381061 52004 IEM_DS3505
ZBYN,1989-12-23 04:00,ZBYN 230400Z AUTO 21006KT 2SM M01/M07 A3021 RMK T10101070 IEM_DS3505
ZBYN,1989-12-23 05:00,ZBYN 230500Z AUTO 23006KT 2SM 00/M06 A3018 RMK T00001060 IEM_DS3505
ZBYN,1989-12-23 06:00,ZBYN 230600Z AUTO 00000KT 6SM 01/M05 A3015 RMK SLP250 T00081048 4////1079 57025 IEM_DS3505
ZBYN,1989-12-23 09:00,ZBYN 230900Z AUTO 22002KT 6SM M01/M06 A3012 RMK SLP255 T10121057 57010 IEM_DS3505
ZBYN,1989-12-23 12:00,ZBYN 231200Z AUTO 00000KT 5SM M05/M08 A3015 RMK SLP265 T10511076 52002 IEM_DS3505
ZBYN,1989-12-23 13:00,ZBYN 231300Z AUTO 12006KT 4SM M06/M08 A3018 RMK T10601080 IEM_DS3505
ZBYN,1989-12-23 14:00,ZBYN 231400Z AUTO 20004KT 4SM 01/M06 A3012 RMK T00101060 IEM_DS3505
ZBYN,1989-12-23 15:00,ZBYN 231500Z AUTO 00000KT 5SM M07/M08 A3015 RMK SLP264 T10721085 54000 IEM_DS3505
ZBYN,1989-12-23 16:00,ZBYN 231600Z AUTO 00000KT 3SM M08/M10 A3015 RMK T10801100 IEM_DS3505
ZBYN,1989-12-23 17:00,ZBYN 231700Z AUTO 10006KT 4SM M08/M11 A3015 RMK T10801110 IEM_DS3505
ZBYN,1989-12-23 18:00,ZBYN 231800Z AUTO 00000KT 5SM M08/M09 A3015 RMK SLP256 T10821092 40012//// 57001 IEM_DS3505
ZBYN,1989-12-23 19:00,ZBYN 231900Z AUTO 06004KT 4SM M09/M11 A3018 RMK T10901110 IEM_DS3505
ZBYN,1989-12-23 20:00,ZBYN 232000Z AUTO 09004KT 2 1/2SM M08/M11 A3015 RMK T10801110 IEM_DS3505
ZBYN,1989-12-23 21:00,ZBYN 232100Z AUTO 00000KT 4SM M09/M10 A3012 RMK SLP257 T10921099 57004 IEM_DS3505
ZBYN,1989-12-23 23:00,ZBYN 232300Z AUTO 00000KT 2SM A3012 RMK IEM_DS3505
ZBYN,1989-12-24 00:00,ZBYN 240000Z AUTO 00000KT 4SM M07/M08 A3015 RMK SLP266 T10661078 52006 IEM_DS3505
ZBYN,1989-12-24 01:00,ZBYN 240100Z AUTO 09004KT 1 1/4SM M04/M06 RMK T10401060 IEM_DS3505
ZBYN,1989-12-24 02:00,ZBYN 240200Z AUTO 00000KT 2SM M04/M05 A3021 RMK T10401050 IEM_DS3505
ZBYN,1989-12-24 03:00,ZBYN 240300Z AUTO 00000KT 5SM M04/M05 A3018 RMK SLP270 T10361054 52005 IEM_DS3505
ZBYN,1989-12-24 04:00,ZBYN 240400Z AUTO 00000KT 2SM M03/M04 A3015 RMK T10301040 IEM_DS3505
ZBYN,1989-12-24 05:00,ZBYN 240500Z AUTO 00000KT 2 1/2SM M03/M04 A3012 RMK T10301040 IEM_DS3505
ZBYN,1989-12-24 06:00,ZBYN 240600Z AUTO 14004KT 5SM M02/M05 A3012 RMK SLP247 T10191051 4////1097 57020 IEM_DS3505
ZBYN,1989-12-24 07:00,ZBYN 240700Z AUTO 00000KT 2 1/2SM M02/M05 A3009 RMK T10201050 IEM_DS3505
ZBYN,1989-12-24 08:00,ZBYN 240800Z AUTO 00000KT 2 1/2SM M02/M05 A3012 RMK T10201050 IEM_DS3505
ZBYN,1989-12-24 09:00,ZBYN 240900Z AUTO 00000KT 5SM M02/M05 A3009 RMK SLP249 T10241054 54000 IEM_DS3505
ZBYN,1989-12-24 10:00,ZBYN 241000Z AUTO 02004KT 2 1/2SM M04/M05 A3012 RMK T10401050 IEM_DS3505
ZBYN,1989-12-24 11:00,ZBYN 241100Z AUTO 36004KT 2 1/2SM M04/M06 A3015 RMK T10401060 IEM_DS3505
ZBYN,1989-12-24 12:00,ZBYN 241200Z AUTO 00000KT 4SM M03/M05 A3015 RMK SLP267 T10341052 52019 IEM_DS3505
ZBYN,1989-12-24 13:00,ZBYN 241300Z AUTO 14004KT 2 1/2SM M05/M07 A3018 RMK T10501070 IEM_DS3505
ZBYN,1989-12-24 14:00,ZBYN 241400Z AUTO 00000KT 2 1/2SM M06/M07 A3018 RMK T10601070 IEM_DS3505
ZBYN,1989-12-24 15:00,ZBYN 241500Z AUTO 00000KT 2 1/2SM M04/M06 A3018 RMK SLP270 T10381057 52007 IEM_DS3505
ZBYN,1989-12-24 18:00,ZBYN 241800Z AUTO 00000KT 4SM M08/M09 A3020 RMK T10761086 41011//// 52003 IEM_DS3505
ZBYN,1989-12-24 21:00,ZBYN 242100Z AUTO 32002KT 3SM M07/M08 A3018 RMK SLP283 T10721085 52005 IEM_DS3505
ZBYN,1989-12-24 22:00,ZBYN 242200Z AUTO 00000KT 2 1/2SM M11/M13 A3021 RMK T11101130 IEM_DS3505
ZBYN,1989-12-24 22:47,ZBYN 242247Z AUTO 00000KT 2 1/2SM M11/M13 A3021 RMK T11101130 IEM_DS3505
ZBYN,1989-12-24 23:00,ZBYN 242300Z AUTO 11006KT 4SM M11/M13 A3024 RMK T11101130 IEM_DS3505
ZBYN,1989-12-25 00:00,ZBYN 250000Z AUTO 02002KT 6SM M06/M08 A3023 RMK SLP291 T10651081 52007 IEM_DS3505
ZBYN,1989-12-25 01:00,ZBYN 250100Z AUTO 00000KT 1/8SM M10/M11 A3027 RMK T11001110 IEM_DS3505
ZBYN,1989-12-25 02:00,ZBYN 250200Z AUTO 00000KT 1/8SM M08/M09 A3027 RMK T10801090 IEM_DS3505
ZBYN,1989-12-25 03:00,ZBYN 250300Z AUTO 00000KT 5SM M05/M07 A3030 RMK SLP310 T10521074 52018 IEM_DS3505
ZBYN,1989-12-25 06:00,ZBYN 250600Z AUTO 18004KT 6SM 01/M08 A3020 RMK SLP275 T00071082 4////1095 57028 IEM_DS3505
ZBYN,1989-12-25 09:00,ZBYN 250900Z AUTO 12004KT 11SM M00/M09 A3020 RMK SLP274 T10051088 57002 IEM_DS3505
ZBYN,1989-12-25 10:00,ZBYN 251000Z AUTO 24008KT 7SM M02/M08 RMK T10201080 IEM_DS3505
ZBYN,1989-12-25 12:00,ZBYN 251200Z AUTO 29006KT 12SM M01/M11 A3024 RMK SLP290 T10131112 52014 IEM_DS3505
ZBYN,1989-12-25 13:00,ZBYN 251300Z AUTO 28006KT 7SM M03/M10 RMK T10301100 IEM_DS3505
ZBYN,1989-12-25 14:00,ZBYN 251400Z AUTO 26006KT 7SM M03/M12 RMK T10301120 IEM_DS3505
ZBYN,1989-12-25 15:00,ZBYN 251500Z AUTO 22002KT 12SM M04/M11 A3027 RMK SLP301 T10411107 52008 IEM_DS3505
ZBYN,1989-12-25 16:00,ZBYN 251600Z AUTO 26006KT 7SM M06/M12 A3027 RMK T10601120 IEM_DS3505
ZBYN,1989-12-25 17:00,ZBYN 251700Z AUTO 00000KT 7SM M06/M11 A3027 RMK T10601110 IEM_DS3505
ZBYN,1989-12-25 18:00,ZBYN 251800Z AUTO 00000KT 11SM M06/M10 A3027 RMK SLP299 T10631100 40028//// 52004 IEM_DS3505
ZBYN,1989-12-25 20:00,ZBYN 252000Z AUTO 09006KT 7SM M10/M13 A3027 RMK T11001130 IEM_DS3505
ZBYN,1989-12-25 21:00,ZBYN 252100Z AUTO 00000KT 7SM M10/M12 A3024 RMK SLP298 T10961120 57008 IEM_DS3505
ZBYN,1989-12-25 22:00,ZBYN 252200Z AUTO 09008KT 7SM M10/M13 A3024 RMK T11001130 IEM_DS3505
ZBYN,1989-12-25 23:00,ZBYN 252300Z AUTO 10004KT 7SM M10/M12 A3027 RMK T11001120 IEM_DS3505
ZBYN,1989-12-26 00:00,ZBYN 260000Z AUTO 00000KT 11SM M11/M12 A3027 RMK SLP314 T11081121 52011 IEM_DS3505
ZBYN,1989-12-26 03:00,ZBYN 260300Z AUTO 18002KT 6SM M03/M08 A3030 RMK SLP306 T10261081 52002 IEM_DS3505
ZBYN,1989-12-26 05:24,ZBYN 260524Z AUTO 22006KT 7SM 00/M11 A3024 RMK T00001110 IEM_DS3505
ZBYN,1989-12-26 05:26,ZBYN 260526Z AUTO 22006KT 7SM 00/M11 A3024 RMK T00001110 IEM_DS3505
ZBYN,1989-12-26 05:31,ZBYN 260531Z AUTO 22006KT 7SM 00/M11 A3024 RMK T00001110 IEM_DS3505
ZBYN,1989-12-26 05:35,ZBYN 260535Z AUTO 22006KT 7SM 00/M11 A3024 RMK T00001110 IEM_DS3505
ZBYN,1989-12-26 05:37,ZBYN 260537Z AUTO 22006KT 7SM 00/M11 A3024 RMK T00001110 IEM_DS3505
ZBYN,1989-12-26 05:38,ZBYN 260538Z AUTO 22006KT 7SM 00/M11 A3024 RMK T00001110 IEM_DS3505
ZBYN,1989-12-26 06:00,ZBYN 260600Z AUTO 16004KT 6SM 01/M10 A3022 RMK SLP276 T00131096 4////1117 57025 IEM_DS3505
ZBYN,1989-12-26 07:21,ZBYN 260721Z AUTO 20006KT 7SM 01/M08 A3021 RMK T00101080 IEM_DS3505
ZBYN,1989-12-26 07:22,ZBYN 260722Z AUTO 20006KT 7SM 01/M08 A3021 RMK T00101080 IEM_DS3505
ZBYN,1989-12-26 07:23,ZBYN 260723Z AUTO 20006KT 7SM 01/M08 A3021 RMK T00101080 IEM_DS3505
ZBYN,1989-12-26 07:24,ZBYN 260724Z AUTO 20006KT 7SM 01/M08 A3021 RMK T00101080 IEM_DS3505
ZBYN,1989-12-26 07:26,ZBYN 260726Z AUTO 20006KT 7SM 01/M08 A3021 RMK T00101080 IEM_DS3505
ZBYN,1989-12-26 07:27,ZBYN 260727Z AUTO 20006KT 7SM 01/M08 A3021 RMK T00101080 IEM_DS3505
ZBYN,1989-12-26 08:23,ZBYN 260823Z AUTO 19008KT 7SM 02/M10 RMK T00201100 IEM_DS3505
ZBYN,1989-12-26 09:00,ZBYN 260900Z AUTO 18004KT 6SM 00/M09 A3020 RMK SLP278 T00011088 57006 IEM_DS3505
ZBYN,1989-12-26 09:40,ZBYN 260940Z AUTO 00000KT 7SM 00/M09 A3018 RMK T00001090 IEM_DS3505
ZBYN,1989-12-26 09:41,ZBYN 260941Z AUTO 00000KT 7SM 00/M09 A3018 RMK T00001090 IEM_DS3505
ZBYN,1989-12-26 09:42,ZBYN 260942Z AUTO 00000KT 7SM 00/M09 A3018 RMK T00001090 IEM_DS3505
ZBYN,1989-12-26 09:43,ZBYN 260943Z AUTO 00000KT 7SM 00/M09 A3018 RMK T00001090 IEM_DS3505
ZBYN,1989-12-26 10:17,ZBYN 261017Z AUTO 15006KT 7SM M02/M09 A3018 RMK T10201090 IEM_DS3505
ZBYN,1989-12-26 10:20,ZBYN 261020Z AUTO 15006KT 7SM M02/M09 A3018 RMK T10201090 IEM_DS3505
ZBYN,1989-12-26 12:00,ZBYN 261200Z AUTO 00000KT 9SM M04/M09 A3021 RMK SLP293 T10411088 52005 IEM_DS3505
ZBYN,1989-12-26 13:00,ZBYN 261300Z AUTO 10004KT 7SM M06/M11 A3021 RMK T10601110 IEM_DS3505
ZBYN,1989-12-26 15:00,ZBYN 261500Z AUTO 00000KT 7SM M07/M10 A3023 RMK SLP288 T10701095 52004 IEM_DS3505
ZBYN,1989-12-26 16:00,ZBYN 261600Z AUTO 00000KT 7SM M09/M12 RMK T10901120 IEM_DS3505
ZBYN,1989-12-26 17:00,ZBYN 261700Z AUTO 11004KT 7SM M09/M12 A3024 RMK T10901120 IEM_DS3505
ZBYN,1989-12-26 18:00,ZBYN 261800Z AUTO 00000KT 6SM M09/M10 A3023 RMK SLP284 T10871102 40018//// 54000 IEM_DS3505
ZBYN,1989-12-26 20:00,ZBYN 262000Z AUTO 00000KT 7SM M09/M12 A3024 RMK T10901120 IEM_DS3505
ZBYN,1989-12-26 21:00,ZBYN 262100Z AUTO 00000KT 6SM M09/M10 A3021 RMK SLP284 T10871102 54000 IEM_DS3505
ZBYN,1989-12-26 22:00,ZBYN 262200Z AUTO 00000KT 7SM M10/M13 A3021 RMK T11001130 IEM_DS3505
ZBYN,1989-12-27 00:00,ZBYN 270000Z AUTO 00000KT 5SM M10/M12 A3022 RMK SLP295 T11041121 52005 IEM_DS3505
ZBYN,1989-12-27 02:00,ZBYN 270200Z AUTO 00000KT 2 1/2SM M07/M11 A3024 RMK T10701110 IEM_DS3505
ZBYN,1989-12-27 03:00,ZBYN 270300Z AUTO 00000KT 3SM M02/M10 A3021 RMK T10201100 IEM_DS3505
ZBYN,1989-12-27 04:00,ZBYN 270400Z AUTO 00000KT 5SM M01/M11 A3018 RMK T10101110 IEM_DS3505
ZBYN,1989-12-27 06:00,ZBYN 270600Z AUTO 20006KT 6SM 01/M04 A3015 RMK SLP254 T00091042 4////1104 57032 IEM_DS3505
ZBYN,1989-12-27 07:00,ZBYN 270700Z AUTO 18006KT 6SM 02/M10 A3012 RMK T00201100 IEM_DS3505
ZBYN,1989-12-27 08:00,ZBYN 270800Z AUTO 00000KT 6SM 01/M09 A3012 RMK T00101090 IEM_DS3505
ZBYN,1989-12-27 09:00,ZBYN 270900Z AUTO 00000KT 5SM M00/M06 A3012 RMK SLP248 T10021062 57008 IEM_DS3505
ZBYN,1989-12-27 10:00,ZBYN 271000Z AUTO 00000KT 6SM M02/M07 A3012 RMK T10201070 IEM_DS3505
ZBYN,1989-12-27 11:00,ZBYN 271100Z AUTO 00000KT 7SM M03/M08 A3012 RMK T10301080 IEM_DS3505
ZBYN,1989-12-27 12:00,ZBYN 271200Z AUTO 00000KT 5SM M04/M06 A3013 RMK SLP263 T10451061 52004 IEM_DS3505
ZBYN,1989-12-27 14:00,ZBYN 271400Z AUTO 00000KT 6SM M07/M09 A3015 RMK T10701090 IEM_DS3505
ZBYN,1989-12-27 15:00,ZBYN 271500Z AUTO 00000KT 5SM M06/M07 A3013 RMK SLP257 T10621074 52002 IEM_DS3505
ZBYN,1989-12-27 16:00,ZBYN 271600Z AUTO 00000KT 6SM M08/M11 A3015 RMK T10801110 IEM_DS3505
ZBYN,1989-12-27 17:00,ZBYN 271700Z AUTO 00000KT 3SM M09/M12 A3015 RMK T10901120 IEM_DS3505
ZBYN,1989-12-27 18:00,ZBYN 271800Z AUTO 00000KT 6SM M08/M09 A3015 RMK SLP250 T10801090 40013//// 57001 IEM_DS3505
ZBYN,1989-12-27 19:00,ZBYN 271900Z AUTO 00000KT 2 1/2SM M10/M12 A3015 RMK T11001120 IEM_DS3505
ZBYN,1989-12-27 20:00,ZBYN 272000Z AUTO 00000KT 2 1/2SM M09/M12 A3015 RMK T10901120 IEM_DS3505
ZBYN,1989-12-27 21:00,ZBYN 272100Z AUTO 00000KT 5SM M08/M09 A3012 RMK SLP252 T10801090 54000 IEM_DS3505
ZBYN,1989-12-27 22:00,ZBYN 272200Z AUTO 00000KT 2 1/2SM M10/M12 A3012 RMK T11001120 IEM_DS3505
ZBYN,1989-12-27 23:00,ZBYN 272300Z AUTO 00000KT 2 1/2SM M09/M11 A3009 RMK T10901110 IEM_DS3505
ZBYN,1989-12-28 00:00,ZBYN 280000Z AUTO 00000KT 4SM M07/M08 A3013 RMK SLP258 T10721081 54000 IEM_DS3505
ZBYN,1989-12-28 01:00,ZBYN 280100Z AUTO 00000KT 2SM M09/M11 A3015 RMK T10901110 IEM_DS3505
ZBYN,1989-12-28 02:00,ZBYN 280200Z AUTO 00000KT 1SM M06/M09 A3018 RMK T10601090 IEM_DS3505
ZBYN,1989-12-28 03:00,ZBYN 280300Z AUTO 34002KT 5SM M03/M05 A3016 RMK SLP263 T10331054 52008 IEM_DS3505
ZBYN,1989-12-28 05:00,ZBYN 280500Z AUTO 36006KT 6SM 01/M09 A3009 RMK T00101090 IEM_DS3505
ZBYN,1989-12-28 06:00,ZBYN 280600Z AUTO 36002KT 6SM 02/M08 A3009 RMK SLP233 T00161076 4////1089 57022 IEM_DS3505
ZBYN,1989-12-28 07:00,ZBYN 280700Z AUTO 03004KT 6SM 02/M12 A3006 RMK T00201120 IEM_DS3505
ZBYN,1989-12-28 08:00,ZBYN 280800Z AUTO 23006KT 6SM RMK IEM_DS3505
ZBYN,1989-12-28 09:00,ZBYN 280900Z AUTO 00000KT 6SM M00/M08 A3009 RMK SLP238 T10011077 52002 IEM_DS3505
ZBYN,1989-12-28 10:00,ZBYN 281000Z AUTO 26006KT 4SM M02/M08 A3009 RMK T10201080 IEM_DS3505
ZBYN,1989-12-28 11:00,ZBYN 281100Z AUTO 28004KT 5SM M03/M07 RMK T10301070 IEM_DS3505
ZBYN,1989-12-28 12:00,ZBYN 281200Z AUTO 00000KT 6SM M01/M08 A3012 RMK SLP255 T10141084 52014 IEM_DS3505
ZBYN,1989-12-28 14:00,ZBYN 281400Z AUTO 00000KT 6SM M03/M09 A3018 RMK T10301090 IEM_DS3505
ZBYN,1989-12-28 15:00,ZBYN 281500Z AUTO 34004KT 6SM M02/M11 A3018 RMK SLP267 T10161112 52017 IEM_DS3505
ZBYN,1989-12-28 17:00,ZBYN 281700Z AUTO 09004KT 6SM M05/M09 A3018 RMK T10501090 IEM_DS3505
ZBYN,1989-12-28 18:00,ZBYN 281800Z AUTO 00000KT 6SM M05/M08 A3018 RMK SLP261 T10461082 40018//// 57002 IEM_DS3505
ZBYN,1989-12-28 19:00,ZBYN 281900Z AUTO 00000KT 6SM M07/M10 A3018 RMK T10701100 IEM_DS3505
ZBYN,1989-12-28 20:00,ZBYN 282000Z AUTO 09004KT 6SM M09/M12 A3018 RMK T10901120 IEM_DS3505
ZBYN,1989-12-28 21:00,ZBYN 282100Z AUTO 00000KT 6SM M08/M10 A3018 RMK SLP265 T10761098 57004 IEM_DS3505
ZBYN,1989-12-28 22:00,ZBYN 282200Z AUTO 11004KT 4SM M10/M13 A3018 RMK T11001130 IEM_DS3505
ZBYN,1989-12-28 23:00,ZBYN 282300Z AUTO 00000KT 4SM M10/M13 A3018 RMK T11001130 IEM_DS3505
ZBYN,1989-12-29 00:00,ZBYN 290000Z AUTO 00000KT 6SM M10/M11 A3018 RMK SLP281 T10971114 52008 IEM_DS3505
ZBYN,1989-12-29 02:00,ZBYN 290200Z AUTO 00000KT 4SM M06/M11 A3024 RMK T10601110 IEM_DS3505
ZBYN,1989-12-29 02:18,ZBYN 290218Z AUTO 00000KT 4SM M06/M11 A3024 RMK T10601110 IEM_DS3505
ZBYN,1989-12-29 02:48,ZBYN 290248Z AUTO 00000KT 4SM M06/M11 A3024 RMK T10601110 IEM_DS3505
ZBYN,1989-12-29 03:00,ZBYN 290300Z AUTO 14004KT 6SM M02/M11 A3023 RMK SLP279 T10171109 52012 IEM_DS3505
ZBYN,1989-12-29 03:15,ZBYN 290315Z AUTO 00000KT 4SM M01/M17 A3033 RMK T10101170 IEM_DS3505
ZBYN,1989-12-29 03:24,ZBYN 290324Z AUTO 00000KT 4SM M03/M09 A3024 RMK T10301090 IEM_DS3505
ZBYN,1989-12-29 04:00,ZBYN 290400Z AUTO 18002KT 7SM M01/M07 RMK T10101070 IEM_DS3505
ZBYN,1989-12-29 05:00,ZBYN 290500Z AUTO 21006KT 7SM 01/M11 A3018 RMK T00101110 IEM_DS3505
ZBYN,1989-12-29 06:00,ZBYN 290600Z AUTO 18006KT 6SM 02/M08 A3018 RMK SLP256 T00181081 4////1102 57020 IEM_DS3505
ZBYN,1989-12-29 07:00,ZBYN 290700Z AUTO 21010KT 7SM 02/M08 A3018 RMK T00201080 IEM_DS3505
ZBYN,1989-12-29 08:00,ZBYN 290800Z AUTO 22008KT 7SM 03/M10 A3015 RMK T00301100 IEM_DS3505
ZBYN,1989-12-29 09:00,ZBYN 290900Z AUTO 29006KT 12SM 01/M09 A3018 RMK SLP264 T00111094 52001 IEM_DS3505
ZBYN,1989-12-29 10:00,ZBYN 291000Z AUTO 33006KT 7SM M01/M11 A3018 RMK T10101110 IEM_DS3505
ZBYN,1989-12-29 11:00,ZBYN 291100Z AUTO 00000KT 7SM M01/M10 RMK T10101100 IEM_DS3505
ZBYN,1989-12-29 12:00,ZBYN 291200Z AUTO 27006KT 9SM M02/M11 A3021 RMK SLP300 T10241111 52023 IEM_DS3505
ZBYN,1989-12-29 13:00,ZBYN 291300Z AUTO 00000KT 6SM M03/M10 RMK T10301100 IEM_DS3505
ZBYN,1989-12-29 15:00,ZBYN 291500Z AUTO 22002KT 7SM M05/M10 A3021 RMK SLP289 T10501096 57001 IEM_DS3505
ZBYN,1989-12-29 16:00,ZBYN 291600Z AUTO 07004KT 7SM M07/M11 A3021 RMK T10701110 IEM_DS3505
ZBYN,1989-12-29 17:00,ZBYN 291700Z AUTO 07004KT 7SM M08/M12 A3021 RMK T10801120 IEM_DS3505
ZBYN,1989-12-29 18:00,ZBYN 291800Z AUTO 00000KT 7SM M08/M10 A3021 RMK SLP280 T10771099 40027//// 57007 IEM_DS3505
ZBYN,1989-12-29 19:00,ZBYN 291900Z AUTO 00000KT 7SM M09/M13 A3021 RMK T10901130 IEM_DS3505
ZBYN,1989-12-29 21:00,ZBYN 292100Z AUTO 00000KT 7SM M09/M11 A3020 RMK SLP277 T10921108 57006 IEM_DS3505
ZBYN,1989-12-29 22:00,ZBYN 292200Z AUTO 11004KT 6SM M10/M12 A3018 RMK T11001120 IEM_DS3505
ZBYN,1989-12-30 00:00,ZBYN 300000Z AUTO 00000KT 7SM M10/M11 A3018 RMK SLP282 T10961108 57002 IEM_DS3505
ZBYN,1989-12-30 02:00,ZBYN 300200Z AUTO 00000KT 3SM M05/M11 A3021 RMK T10501110 IEM_DS3505
ZBYN,1989-12-30 03:00,ZBYN 300300Z AUTO 18002KT 6SM M02/M09 A3021 RMK SLP276 T10211091 52003 IEM_DS3505
ZBYN,1989-12-30 04:00,ZBYN 300400Z AUTO 00000KT 7SM 00/M11 A3018 RMK T00001110 IEM_DS3505
ZBYN,1989-12-30 06:00,ZBYN 300600Z AUTO 00000KT 6SM 02/M09 A3012 RMK SLP239 T00221088 4////1109 57031 IEM_DS3505
ZBYN,1989-12-30 08:00,ZBYN 300800Z AUTO 21006KT 7SM 03/M07 A3009 RMK T00301070 IEM_DS3505
ZBYN,1989-12-30 09:00,ZBYN 300900Z AUTO 14002KT 7SM 01/M08 A3008 RMK SLP235 T00141075 57008 IEM_DS3505
ZBYN,1989-12-30 10:00,ZBYN 301000Z AUTO 11004KT 5SM M04/M09 A3009 RMK T10401090 IEM_DS3505
ZBYN,1989-12-30 12:00,ZBYN 301200Z AUTO 00000KT 7SM M04/M07 A3009 RMK SLP249 T10351072 52004 IEM_DS3505
ZBYN,1989-12-30 14:00,ZBYN 301400Z AUTO 10006KT 7SM M07/M11 A3012 RMK T10701110 IEM_DS3505
ZBYN,1989-12-30 15:00,ZBYN 301500Z AUTO 00000KT 6SM M06/M08 A3012 RMK SLP243 T10561078 52004 IEM_DS3505
ZBYN,1989-12-30 16:00,ZBYN 301600Z AUTO 12002KT 7SM M08/M11 RMK T10801110 IEM_DS3505
ZBYN,1989-12-30 18:00,ZBYN 301800Z AUTO 00000KT 6SM M07/M09 A3012 RMK SLP236 T10671088 40036//// 57001 IEM_DS3505
ZBYN,1989-12-30 20:00,ZBYN 302000Z AUTO 07004KT 7SM M11/M13 RMK T11101130 IEM_DS3505
ZBYN,1989-12-30 21:00,ZBYN 302100Z AUTO 00000KT 6SM M09/M10 A3009 RMK SLP242 T10921103 54000 IEM_DS3505
ZBYN,1989-12-30 22:00,ZBYN 302200Z AUTO 07004KT 7SM M11/M13 RMK T11101130 IEM_DS3505
