station,valid,metar
ZBYN,1995-01-01 00:00,ZBYN 010000Z AUTO 00000KT 6SM M14/M16 RMK SLP429 T11381161 52006 IEM_DS3505
ZBYN,1995-01-01 03:00,ZBYN 010300Z AUTO 00000KT 6SM M05/M15 RMK SLP421 T10541146 52002 IEM_DS3505
ZBYN,1995-01-01 06:00,ZBYN 010600Z AUTO 18002KT 6SM M03/M14 RMK SLP383 T10261138 57032 IEM_DS3505
ZBYN,1995-01-01 08:00,ZBYN 010800Z AUTO 21006KT 3SM M02/M13 A3042 RMK T10201130 IEM_DS3505
ZBYN,1995-01-01 09:00,ZBYN 010900Z AUTO 18002KT 6SM M04/M10 A3042 RMK SLP381 T10411103 57007 IEM_DS3505
ZBYN,1995-01-01 12:00,ZBYN 011200Z AUTO 09002KT 6SM M05/M11 RMK SLP377 T10501111 57006 IEM_DS3505
ZBYN,1995-01-01 15:00,ZBYN 011500Z AUTO 18002KT 6SM M08/M11 RMK SLP368 T10751106 52002 IEM_DS3505
ZBYN,1995-01-01 18:00,ZBYN 011800Z AUTO 14002KT 6SM M07/M10 RMK SLP350 T10691103 57010 IEM_DS3505
ZBYN,1995-01-01 21:00,ZBYN 012100Z AUTO 00000KT 6SM M08/M11 RMK SLP337 T10821110 57017 IEM_DS3505
ZBYN,1995-01-02 00:00,ZBYN 020000Z AUTO 00000KT 4SM M10/M11 RMK SLP335 T10981110 57006 IEM_DS3505
ZBYN,1995-01-02 03:00,ZBYN 020300Z AUTO 14002KT 4SM M04/M09 RMK SLP331 T10401092 52002 IEM_DS3505
ZBYN,1995-01-02 06:00,ZBYN 020600Z AUTO 18002KT 3SM M01/M10 RMK SLP294 T10061105 57027 IEM_DS3505
ZBYN,1995-01-02 09:00,ZBYN 020900Z AUTO 29008KT 6SM M00/M16 RMK SLP286 T10041156 57009 IEM_DS3505
ZBYN,1995-01-02 12:00,ZBYN 021200Z AUTO 29008KT 7SM M03/M16 RMK SLP302 T10321163 52007 IEM_DS3505
ZBYN,1995-01-02 15:00,ZBYN 021500Z AUTO 27002KT 6SM M06/M14 RMK SLP299 T10571144 52003 IEM_DS3505
ZBYN,1995-01-02 18:00,ZBYN 021800Z AUTO 20002KT 9SM M07/M14 RMK SLP292 T10711143 57003 IEM_DS3505
ZBYN,1995-01-02 21:00,ZBYN 022100Z AUTO 14002KT 9SM M12/M14 RMK SLP294 T11171137 57006 IEM_DS3505
ZBYN,1995-01-03 00:00,ZBYN 030000Z AUTO 00000KT 7SM M12/M13 RMK SLP302 T11211134 52002 IEM_DS3505
ZBYN,1995-01-03 03:00,ZBYN 030300Z AUTO 20002KT 7SM M04/M11 RMK SLP301 T10441112 52008 IEM_DS3505
ZBYN,1995-01-03 06:00,ZBYN 030600Z AUTO 29012KT 9SM 01/M16 RMK SLP265 T00131165 57025 IEM_DS3505
ZBYN,1995-01-03 09:00,ZBYN 030900Z AUTO 29010KT 9SM M00/M20 RMK SLP278 T10031196 52001 IEM_DS3505
ZBYN,1995-01-03 12:00,ZBYN 031200Z AUTO 32006KT 9SM M03/M18 RMK SLP308 T10331181 52021 IEM_DS3505
ZBYN,1995-01-03 15:00,ZBYN 031500Z AUTO 29004KT 7SM M04/M17 RMK SLP304 T10441167 52008 IEM_DS3505
ZBYN,1995-01-03 18:00,ZBYN 031800Z AUTO 29004KT 6SM M06/M16 RMK SLP298 T10571157 52002 IEM_DS3505
ZBYN,1995-01-03 21:00,ZBYN 032100Z AUTO 29004KT 6SM M06/M15 RMK SLP301 T10591148 54000 IEM_DS3505
ZBYN,1995-01-04 00:00,ZBYN 040000Z AUTO 16002KT 7SM M10/M14 RMK SLP323 T11051141 52007 IEM_DS3505
ZBYN,1995-01-04 02:00,ZBYN 040200Z AUTO 00000KT 4SM M10/M14 A3033 RMK T11001140 IEM_DS3505
ZBYN,1995-01-04 03:00,ZBYN 040300Z AUTO 16002KT 7SM M03/M12 RMK SLP325 T10261120 52013 IEM_DS3505
ZBYN,1995-01-04 06:00,ZBYN 040600Z AUTO 29010KT 12SM 02/M13 RMK SLP287 T00171133 57029 IEM_DS3505
ZBYN,1995-01-04 08:00,ZBYN 040800Z AUTO 29017KT 7SM 02/M09 A3024 RMK T00201090 IEM_DS3505
ZBYN,1995-01-04 09:00,ZBYN 040900Z AUTO 29010KT 16SM 01/M14 RMK SLP295 T00071144 52005 IEM_DS3505
ZBYN,1995-01-04 12:00,ZBYN 041200Z AUTO 32004KT 12SM M02/M16 RMK SLP315 T10151161 52007 IEM_DS3505
ZBYN,1995-01-04 14:00,ZBYN 041400Z AUTO 28006KT 7SM RMK IEM_DS3505
ZBYN,1995-01-04 15:00,ZBYN 041500Z AUTO 20002KT 9SM M05/M15 RMK SLP307 T10511146 54000 IEM_DS3505
ZBYN,1995-01-04 18:00,ZBYN 041800Z AUTO 00000KT 7SM M07/M12 RMK SLP296 T10731123 57007 IEM_DS3505
ZBYN,1995-01-04 21:00,ZBYN 042100Z AUTO 11002KT 7SM M10/M12 RMK SLP286 T11021119 57015 IEM_DS3505
ZBYN,1995-01-05 00:00,ZBYN 050000Z AUTO 11004KT 9SM M10/M12 RMK SLP291 T11051121 54000 IEM_DS3505
ZBYN,1995-01-05 01:00,ZBYN 050100Z AUTO 00000KT 6SM M08/M12 A3024 RMK T10801120 IEM_DS3505
ZBYN,1995-01-05 02:00,ZBYN 050200Z AUTO 00000KT 6SM M03/M10 A3024 RMK T10301100 IEM_DS3505
ZBYN,1995-01-05 03:00,ZBYN 050300Z AUTO 20002KT 9SM M01/M10 A3024 RMK SLP207 T10081098 52007 IEM_DS3505
ZBYN,1995-01-05 06:00,ZBYN 050600Z AUTO 22004KT 16SM 06/M14 RMK SLP252 T00621137 57024 IEM_DS3505
ZBYN,1995-01-05 09:00,ZBYN 050900Z AUTO 29006KT 19SM 06/M17 RMK SLP261 T00601170 52003 IEM_DS3505
ZBYN,1995-01-05 11:00,ZBYN 051100Z AUTO 11004KT 1 1/4SM RMK IEM_DS3505
ZBYN,1995-01-05 12:00,ZBYN 051200Z AUTO 18006KT 19SM 00/M10 A3024 RMK SLP295 T00021101 52020 IEM_DS3505
ZBYN,1995-01-05 13:00,ZBYN 051300Z AUTO 13004KT 0SM RMK IEM_DS3505
ZBYN,1995-01-05 14:00,ZBYN 051400Z AUTO 14004KT 1SM RMK IEM_DS3505
ZBYN,1995-01-05 15:00,ZBYN 051500Z AUTO 09002KT 19SM M03/M10 RMK SLP295 T10321099 52011 IEM_DS3505
ZBYN,1995-01-05 16:00,ZBYN 051600Z AUTO 00000KT 4SM M03/M05 A3024 RMK T10301050 IEM_DS3505
ZBYN,1995-01-05 17:00,ZBYN 051700Z AUTO 00000KT 4SM M03/M05 A3024 RMK T10301050 IEM_DS3505
ZBYN,1995-01-05 18:00,ZBYN 051800Z AUTO 00000KT 12SM M06/M11 A3024 RMK SLP286 T10651112 57002 IEM_DS3505
ZBYN,1995-01-05 19:00,ZBYN 051900Z AUTO 00000KT 2 1/2SM M02/M06 A3027 RMK T10201060 IEM_DS3505
ZBYN,1995-01-05 20:00,ZBYN 052000Z AUTO 00000KT 2 1/2SM M02/M06 A3027 RMK T10201060 IEM_DS3505
ZBYN,1995-01-05 21:00,ZBYN 052100Z AUTO 00000KT 9SM M09/M12 RMK SLP288 T10861115 57002 IEM_DS3505
ZBYN,1995-01-06 00:00,ZBYN 060000Z AUTO 00000KT 6SM M10/M12 RMK SLP300 T10981115 57001 IEM_DS3505
ZBYN,1995-01-06 02:00,ZBYN 060200Z AUTO 00000KT 4SM M01/M09 A3024 RMK T10101090 IEM_DS3505
ZBYN,1995-01-06 03:00,ZBYN 060300Z AUTO 14006KT 9SM 01/M08 A3024 RMK SLP285 T00101077 57001 IEM_DS3505
ZBYN,1995-01-06 04:00,ZBYN 060400Z AUTO 23004KT 7SM 04/M09 A3018 RMK T00401090 IEM_DS3505
ZBYN,1995-01-06 05:00,ZBYN 060500Z AUTO 18006KT 7SM 06/M08 A3015 RMK T00601080 IEM_DS3505
ZBYN,1995-01-06 06:00,ZBYN 060600Z AUTO 18008KT 9SM 07/M12 A3012 RMK SLP244 T00711115 57033 IEM_DS3505
ZBYN,1995-01-06 09:00,ZBYN 060900Z AUTO 20004KT 12SM 06/M11 A3009 RMK SLP237 T00631110 57011 IEM_DS3505
ZBYN,1995-01-06 10:00,ZBYN 061000Z AUTO 12006KT 7SM 03/M09 A3009 RMK T00301090 IEM_DS3505
ZBYN,1995-01-06 11:00,ZBYN 061100Z AUTO 00000KT 7SM M01/M09 A3012 RMK T10101090 IEM_DS3505
ZBYN,1995-01-06 12:00,ZBYN 061200Z AUTO 00000KT 12SM M00/M07 A3012 RMK SLP256 T10051074 52004 IEM_DS3505
ZBYN,1995-01-06 13:00,ZBYN 061300Z AUTO 09006KT 7SM M03/M09 A3012 RMK T10301090 IEM_DS3505
ZBYN,1995-01-06 14:00,ZBYN 061400Z AUTO 10006KT 7SM M04/M09 A3015 RMK T10401090 IEM_DS3505
ZBYN,1995-01-06 15:00,ZBYN 061500Z AUTO 11002KT 12SM M04/M09 A3015 RMK SLP251 T10451094 52007 IEM_DS3505
ZBYN,1995-01-06 16:00,ZBYN 061600Z AUTO 09006KT 7SM M05/M10 A3015 RMK T10501100 IEM_DS3505
ZBYN,1995-01-06 18:00,ZBYN 061800Z AUTO 00000KT 12SM M08/M09 A3012 RMK SLP245 T10761094 57001 IEM_DS3505
ZBYN,1995-01-06 20:00,ZBYN 062000Z AUTO 00000KT 7SM M08/M11 A3012 RMK T10801110 IEM_DS3505
ZBYN,1995-01-06 21:00,ZBYN 062100Z AUTO 00000KT 11SM M09/M11 A3012 RMK SLP251 T10941106 52002 IEM_DS3505
ZBYN,1995-01-06 22:00,ZBYN 062200Z AUTO 00000KT 7SM M09/M12 A3012 RMK T10901120 IEM_DS3505
ZBYN,1995-01-06 23:00,ZBYN 062300Z AUTO 00000KT 7SM M09/M12 A3012 RMK T10901120 IEM_DS3505
ZBYN,1995-01-07 00:00,ZBYN 070000Z AUTO 18002KT 6SM M10/M11 A3015 RMK SLP273 T11031109 52007 IEM_DS3505
ZBYN,1995-01-07 01:00,ZBYN 070100Z AUTO 00000KT 1 1/2SM M08/M12 A3018 RMK T10801120 IEM_DS3505
ZBYN,1995-01-07 02:00,ZBYN 070200Z AUTO 00000KT 1SM M04/M08 A3018 RMK T10401080 IEM_DS3505
ZBYN,1995-01-07 03:00,ZBYN 070300Z AUTO 00000KT 6SM M00/M11 A3015 RMK SLP263 T10051108 54000 IEM_DS3505
ZBYN,1995-01-07 04:00,ZBYN 070400Z AUTO 00000KT 2SM 04/M12 A3012 RMK T00401120 IEM_DS3505
ZBYN,1995-01-07 05:00,ZBYN 070500Z AUTO 18006KT 2 1/2SM 07/M13 A3009 RMK T00701130 IEM_DS3505
ZBYN,1995-01-07 06:00,ZBYN 070600Z AUTO 18006KT 6SM 06/M14 RMK SLP224 T00601135 57029 IEM_DS3505
ZBYN,1995-01-07 08:00,ZBYN 070800Z AUTO 16006KT 7SM 07/M06 A3003 RMK T00701060 IEM_DS3505
ZBYN,1995-01-07 09:00,ZBYN 070900Z AUTO 00000KT 6SM 04/M14 A3003 RMK SLP221 T00441142 57009 IEM_DS3505
ZBYN,1995-01-07 10:00,ZBYN 071000Z AUTO 07004KT 7SM 02/M10 A3006 RMK T00201100 IEM_DS3505
ZBYN,1995-01-07 11:00,ZBYN 071100Z AUTO 11004KT 7SM M02/M12 A3006 RMK T10201120 IEM_DS3505
ZBYN,1995-01-07 12:00,ZBYN 071200Z AUTO 00000KT 6SM M04/M10 A3006 RMK SLP247 T10381098 52008 IEM_DS3505
ZBYN,1995-01-07 13:00,ZBYN 071300Z AUTO 09006KT 7SM M04/M11 A3009 RMK T10401110 IEM_DS3505
ZBYN,1995-01-07 14:00,ZBYN 071400Z AUTO 09006KT 7SM M04/M11 A3009 RMK T10401110 IEM_DS3505
ZBYN,1995-01-07 15:00,ZBYN 071500Z AUTO 27002KT 6SM M05/M10 A3009 RMK SLP238 T10501096 52007 IEM_DS3505
ZBYN,1995-01-07 16:00,ZBYN 071600Z AUTO 09006KT 7SM M05/M11 A3006 RMK T10501110 IEM_DS3505
ZBYN,1995-01-07 17:00,ZBYN 071700Z AUTO 09006KT 7SM M07/M10 A3006 RMK T10701100 IEM_DS3505
ZBYN,1995-01-07 18:00,ZBYN 071800Z AUTO 34002KT 5SM M06/M09 A3006 RMK SLP223 T10621090 57005 IEM_DS3505
ZBYN,1995-01-07 19:00,ZBYN 071900Z AUTO 09006KT 7SM M07/M11 A3006 RMK T10701110 IEM_DS3505
ZBYN,1995-01-07 20:00,ZBYN 072000Z AUTO 00000KT 7SM M08/M12 A3006 RMK T10801120 IEM_DS3505
ZBYN,1995-01-07 21:00,ZBYN 072100Z AUTO 02002KT 1 1/4SM M09/M11 A3006 RMK SLP228 T10911107 57003 IEM_DS3505
ZBYN,1995-01-07 22:00,ZBYN 072200Z AUTO 00000KT 7SM M09/M12 A3006 RMK T10901120 IEM_DS3505
ZBYN,1995-01-07 23:00,ZBYN 072300Z AUTO 00000KT 7SM M08/M11 A3006 RMK T10801110 IEM_DS3505
ZBYN,1995-01-08 00:00,ZBYN 080000Z AUTO 11002KT 3SM M08/M10 A3009 RMK SLP253 T10821096 52010 IEM_DS3505
ZBYN,1995-01-08 01:00,ZBYN 080100Z AUTO 00000KT 1 1/4SM M07/M09 A3012 RMK T10701090 IEM_DS3505
ZBYN,1995-01-08 02:00,ZBYN 080200Z AUTO 16002KT 1 1/4SM M03/M09 A3015 RMK T10301090 IEM_DS3505
ZBYN,1995-01-08 03:00,ZBYN 080300Z AUTO 00000KT 6SM 00/M08 A3015 RMK SLP259 T00021077 52018 IEM_DS3505
ZBYN,1995-01-08 04:00,ZBYN 080400Z AUTO 00000KT 2 1/2SM 04/M11 A3015 RMK T00401110 IEM_DS3505
ZBYN,1995-01-08 05:00,ZBYN 080500Z AUTO 27006KT 7SM 06/M10 A3009 RMK T00601100 IEM_DS3505
ZBYN,1995-01-08 06:00,ZBYN 080600Z AUTO 20008KT 7SM 07/M14 A3006 RMK SLP229 T00661140 57019 IEM_DS3505
ZBYN,1995-01-08 07:00,ZBYN 080700Z AUTO 22012KT 7SM 06/M13 A3009 RMK T00601130 IEM_DS3505
ZBYN,1995-01-08 08:00,ZBYN 080800Z AUTO 22012KT 7SM 06/M12 A3009 RMK T00601120 IEM_DS3505
ZBYN,1995-01-08 09:00,ZBYN 080900Z AUTO 36006KT 9SM 06/M18 A3009 RMK SLP240 T00601184 52005 IEM_DS3505
ZBYN,1995-01-08 10:00,ZBYN 081000Z AUTO 29016KT 7SM 04/M16 A3015 RMK T00401160 IEM_DS3505
ZBYN,1995-01-08 11:00,ZBYN 081100Z AUTO 32002KT 7SM 02/M11 A3021 RMK T00201110 IEM_DS3505
ZBYN,1995-01-08 12:00,ZBYN 081200Z AUTO 29012KT 12SM 01/M19 A3024 RMK SLP283 T00121186 52032 IEM_DS3505
ZBYN,1995-01-08 13:00,ZBYN 081300Z AUTO 29012KT 7SM 00/M13 A3027 RMK T00001130 IEM_DS3505
ZBYN,1995-01-08 14:00,ZBYN 081400Z AUTO 29016KT 7SM M02/M16 A3030 RMK T10201160 IEM_DS3505
ZBYN,1995-01-08 15:00,ZBYN 081500Z AUTO 29004KT 12SM M02/M18 A3030 RMK SLP302 T10211176 52026 IEM_DS3505
ZBYN,1995-01-08 16:00,ZBYN 081600Z AUTO 33004KT 7SM M02/M14 A3033 RMK T10201140 IEM_DS3505
ZBYN,1995-01-08 17:00,ZBYN 081700Z AUTO 00000KT 7SM M03/M16 A3033 RMK T10301160 IEM_DS3505
ZBYN,1995-01-08 18:00,ZBYN 081800Z AUTO 00000KT 9SM M04/M15 A3036 RMK SLP306 T10351149 52012 IEM_DS3505
ZBYN,1995-01-08 19:00,ZBYN 081900Z AUTO 33004KT 7SM M05/M16 A3036 RMK T10501160 IEM_DS3505
ZBYN,1995-01-08 20:00,ZBYN 082000Z AUTO 30004KT 7SM M05/M15 A3036 RMK T10501150 IEM_DS3505
ZBYN,1995-01-08 21:00,ZBYN 082100Z AUTO 36002KT 9SM M05/M19 A3036 RMK SLP316 T10541190 52005 IEM_DS3505
ZBYN,1995-01-08 22:00,ZBYN 082200Z AUTO 33004KT 7SM M06/ A3036 RMK IEM_DS3505
ZBYN,1995-01-08 23:00,ZBYN 082300Z AUTO 30002KT 7SM M07/M16 A3039 RMK T10701160 IEM_DS3505
ZBYN,1995-01-09 00:00,ZBYN 090000Z AUTO 36004KT 9SM M07/M22 A3039 RMK SLP345 T10661221 52016 IEM_DS3505
ZBYN,1995-01-09 01:00,ZBYN 090100Z AUTO 31004KT 7SM M07/M19 A3042 RMK T10701190 IEM_DS3505
ZBYN,1995-01-09 02:00,ZBYN 090200Z AUTO 33006KT 7SM M05/M22 A3042 RMK T10501220 IEM_DS3505
ZBYN,1995-01-09 03:00,ZBYN 090300Z AUTO 36006KT 9SM M04/M23 A3039 RMK SLP348 T10381227 52002 IEM_DS3505
ZBYN,1995-01-09 04:00,ZBYN 090400Z AUTO 32004KT 6SM M02/M20 A3039 RMK T10201200 IEM_DS3505
ZBYN,1995-01-09 05:00,ZBYN 090500Z AUTO 35006KT 6SM M02/M19 A3033 RMK T10201190 IEM_DS3505
ZBYN,1995-01-09 06:00,ZBYN 090600Z AUTO 27002KT 9SM M02/M21 A3030 RMK SLP309 T10161209 57034 IEM_DS3505
ZBYN,1995-01-09 07:00,ZBYN 090700Z AUTO 00000KT 6SM M01/M21 A3027 RMK T10101210 IEM_DS3505
ZBYN,1995-01-09 08:00,ZBYN 090800Z AUTO 00000KT 6SM M02/M19 A3027 RMK T10201190 IEM_DS3505
ZBYN,1995-01-09 09:00,ZBYN 090900Z AUTO 22002KT 6SM M02/M21 RMK SLP308 T10241213 57006 IEM_DS3505
ZBYN,1995-01-09 10:00,ZBYN 091000Z AUTO 00000KT 6SM M03/M18 RMK T10301180 IEM_DS3505
ZBYN,1995-01-09 11:00,ZBYN 091100Z AUTO 00000KT 6SM M03/M16 A3030 RMK T10301160 IEM_DS3505
ZBYN,1995-01-09 12:00,ZBYN 091200Z AUTO 00000KT 6SM M03/M19 A3036 RMK SLP338 T10341193 52024 IEM_DS3505
ZBYN,1995-01-09 13:00,ZBYN 091300Z AUTO 00000KT 6SM M04/M16 A3036 RMK T10401160 IEM_DS3505
ZBYN,1995-01-09 14:00,ZBYN 091400Z AUTO 00000KT 6SM M05/M18 A3036 RMK T10501180 IEM_DS3505
ZBYN,1995-01-09 15:00,ZBYN 091500Z AUTO 32002KT 6SM M06/M19 A3036 RMK SLP340 T10601187 52002 IEM_DS3505
ZBYN,1995-01-09 16:00,ZBYN 091600Z AUTO 00000KT 6SM M08/M16 A3036 RMK T10801160 IEM_DS3505
ZBYN,1995-01-09 17:00,ZBYN 091700Z AUTO 00000KT 6SM M09/M16 A3033 RMK T10901160 IEM_DS3505
ZBYN,1995-01-09 18:00,ZBYN 091800Z AUTO 34002KT 6SM M07/M18 A3033 RMK SLP333 T10661183 57004 IEM_DS3505
ZBYN,1995-01-09 19:00,ZBYN 091900Z AUTO 14010KT 7SM M10/M17 A3033 RMK T11001170 IEM_DS3505
ZBYN,1995-01-09 20:00,ZBYN 092000Z AUTO 15004KT 6SM M10/M16 A3033 RMK T11001160 IEM_DS3505
ZBYN,1995-01-09 21:00,ZBYN 092100Z AUTO 00000KT 6SM M09/M16 A3033 RMK SLP333 T10861161 57004 IEM_DS3505
ZBYN,1995-01-09 22:00,ZBYN 092200Z AUTO 00000KT 7SM M10/M16 A3033 RMK T11001160 IEM_DS3505
ZBYN,1995-01-09 23:00,ZBYN 092300Z AUTO 00000KT 7SM M11/M16 A3033 RMK T11101160 IEM_DS3505
ZBYN,1995-01-10 00:00,ZBYN 100000Z AUTO 34004KT 6SM M09/M19 A3036 RMK SLP337 T10931187 54000 IEM_DS3505
ZBYN,1995-01-10 01:00,ZBYN 100100Z AUTO 22002KT 6SM A3036 RMK SLP296 57032 IEM_DS3505
ZBYN,1995-01-10 02:00,ZBYN 100200Z AUTO 00000KT 6SM M07/M16 A3036 RMK T10701160 IEM_DS3505
ZBYN,1995-01-10 03:00,ZBYN 100300Z AUTO 34002KT 6SM M03/M21 A3036 RMK SLP338 T10341213 52007 IEM_DS3505
ZBYN,1995-01-10 04:00,ZBYN 100400Z AUTO 31002KT 6SM M01/M21 A3033 RMK T10101210 IEM_DS3505
ZBYN,1995-01-10 05:00,ZBYN 100500Z AUTO 29004KT 6SM M01/M18 A3027 RMK T10101180 IEM_DS3505
ZBYN,1995-01-10 06:00,ZBYN 100600Z AUTO 22002KT 6SM 01/M23 A3024 RMK SLP296 T00091231 57032 IEM_DS3505
ZBYN,1995-01-10 07:00,ZBYN 100700Z AUTO 18004KT 6SM 02/M16 A3024 RMK T00201160 IEM_DS3505
ZBYN,1995-01-10 08:00,ZBYN 100800Z AUTO 19004KT 6SM 02/M18 A3021 RMK T00201180 IEM_DS3505
ZBYN,1995-01-10 09:00,ZBYN 100900Z AUTO 22002KT 6SM 00/M15 A3024 RMK SLP296 T00001154 57005 IEM_DS3505
ZBYN,1995-01-10 11:00,ZBYN 101100Z AUTO 00000KT 7SM M04/M15 A3027 RMK T10401150 IEM_DS3505
ZBYN,1995-01-10 12:00,ZBYN 101200Z AUTO 00000KT 6SM M06/M14 A3027 RMK SLP322 T10621141 52012 IEM_DS3505
ZBYN,1995-01-10 13:00,ZBYN 101300Z AUTO 00000KT 7SM M07/M16 A3030 RMK T10701160 IEM_DS3505
ZBYN,1995-01-10 14:00,ZBYN 101400Z AUTO 07002KT 7SM M08/M16 A3030 RMK T10801160 IEM_DS3505
ZBYN,1995-01-10 15:00,ZBYN 101500Z AUTO 00000KT 6SM M09/M17 A3030 RMK SLP321 T10921170 52004 IEM_DS3505
ZBYN,1995-01-10 16:00,ZBYN 101600Z AUTO 00000KT 7SM M09/M15 A3030 RMK T10901150 IEM_DS3505
ZBYN,1995-01-10 17:00,ZBYN 101700Z AUTO 12004KT 7SM M09/M16 A3030 RMK T10901160 IEM_DS3505
ZBYN,1995-01-10 18:00,ZBYN 101800Z AUTO 00000KT 6SM M10/M14 A3030 RMK SLP315 T11041145 54000 IEM_DS3505
ZBYN,1995-01-10 19:00,ZBYN 101900Z AUTO 08006KT 7SM M10/M16 A3027 RMK T11001160 IEM_DS3505
ZBYN,1995-01-10 20:00,ZBYN 102000Z AUTO 07006KT 7SM M11/M16 A3027 RMK T11101160 IEM_DS3505
ZBYN,1995-01-10 21:00,ZBYN 102100Z AUTO 00000KT 6SM M11/M13 A3024 RMK SLP312 T11091128 57005 IEM_DS3505
ZBYN,1995-01-10 22:00,ZBYN 102200Z AUTO 00000KT 7SM M12/M16 A3027 RMK T11201160 IEM_DS3505
ZBYN,1995-01-10 23:00,ZBYN 102300Z AUTO 00000KT 6SM M12/M16 A3027 RMK T11201160 IEM_DS3505
ZBYN,1995-01-11 00:00,ZBYN 110000Z AUTO 00000KT 5SM M10/M12 A3027 RMK SLP323 T11021121 54000 IEM_DS3505
ZBYN,1995-01-11 01:00,ZBYN 110100Z AUTO 00000KT 2 1/2SM M08/M11 A3027 RMK T10801110 IEM_DS3505
ZBYN,1995-01-11 02:00,ZBYN 110200Z AUTO 18004KT 2 1/2SM M05/M13 A3030 RMK T10501130 IEM_DS3505
ZBYN,1995-01-11 03:00,ZBYN 110300Z AUTO 00000KT 5SM M04/M13 A3030 RMK SLP321 T10361126 52005 IEM_DS3505
ZBYN,1995-01-11 04:00,ZBYN 110400Z AUTO 23004KT 4SM M01/M14 A3027 RMK T10101140 IEM_DS3505
ZBYN,1995-01-11 05:00,ZBYN 110500Z AUTO 18004KT 4SM 01/M12 A3021 RMK T00101120 IEM_DS3505
ZBYN,1995-01-11 06:00,ZBYN 110600Z AUTO 20004KT 5SM 01/M17 A3015 RMK SLP272 T00111171 57039 IEM_DS3505
ZBYN,1995-01-11 07:00,ZBYN 110700Z AUTO 22006KT 5SM 02/M13 A3015 RMK T00201130 IEM_DS3505
ZBYN,1995-01-11 08:00,ZBYN 110800Z AUTO 23006KT 7SM 02/M09 A3015 RMK T00201090 IEM_DS3505
ZBYN,1995-01-11 09:00,ZBYN 110900Z AUTO 29006KT 12SM 01/M20 A3015 RMK SLP263 T00141198 57008 IEM_DS3505
ZBYN,1995-01-11 10:00,ZBYN 111000Z AUTO 28010KT 7SM M01/M18 A3015 RMK T10101180 IEM_DS3505
ZBYN,1995-01-11 11:00,ZBYN 111100Z AUTO 27014KT 7SM M03/M18 A3021 RMK T10301180 IEM_DS3505
ZBYN,1995-01-11 12:00,ZBYN 111200Z AUTO 27002KT 12SM M03/M23 A3021 RMK SLP299 T10321228 52026 IEM_DS3505
ZBYN,1995-01-11 13:00,ZBYN 111300Z AUTO 29010KT 7SM M03/M15 A3024 RMK T10301150 IEM_DS3505
ZBYN,1995-01-11 14:00,ZBYN 111400Z AUTO 28006KT 7SM M04/M16 A3024 RMK T10401160 IEM_DS3505
ZBYN,1995-01-11 15:00,ZBYN 111500Z AUTO 27002KT 9SM M08/M21 A3024 RMK SLP298 T10761214 52003 IEM_DS3505
ZBYN,1995-01-11 16:00,ZBYN 111600Z AUTO 22004KT 7SM M07/M18 A3024 RMK T10701180 IEM_DS3505
ZBYN,1995-01-11 17:00,ZBYN 111700Z AUTO 29008KT 7SM M07/M19 A3024 RMK T10701190 IEM_DS3505
ZBYN,1995-01-11 18:00,ZBYN 111800Z AUTO 00000KT 9SM M07/M18 A3024 RMK SLP285 T10701175 57003 IEM_DS3505
ZBYN,1995-01-11 19:00,ZBYN 111900Z AUTO 00000KT 7SM M08/M19 A3024 RMK T10801190 IEM_DS3505
ZBYN,1995-01-11 21:00,ZBYN 112100Z AUTO 32002KT 9SM M05/M18 A3024 RMK SLP288 T10501180 52006 IEM_DS3505
ZBYN,1995-01-11 22:00,ZBYN 112200Z AUTO 27010KT 7SM M06/M20 A3024 RMK T10601200 IEM_DS3505
ZBYN,1995-01-11 23:00,ZBYN 112300Z AUTO 27012KT 7SM M06/M18 A3027 RMK T10601180 IEM_DS3505
ZBYN,1995-01-12 00:00,ZBYN 120000Z AUTO 29002KT 11SM M07/M19 A3027 RMK SLP313 T10671193 52012 IEM_DS3505
ZBYN,1995-01-12 01:00,ZBYN 120100Z AUTO 28014KT 7SM M05/M18 A3030 RMK T10501180 IEM_DS3505
ZBYN,1995-01-12 02:00,ZBYN 120200Z AUTO 28017KT 7SM M04/M16 A3033 RMK T10401160 IEM_DS3505
ZBYN,1995-01-12 03:00,ZBYN 120300Z AUTO 32004KT 12SM M02/M16 A3033 RMK SLP324 T10251155 52010 IEM_DS3505
ZBYN,1995-01-12 04:00,ZBYN 120400Z AUTO 28016KT 7SM M02/M15 A3030 RMK T10201150 IEM_DS3505
ZBYN,1995-01-12 05:00,ZBYN 120500Z AUTO 29016KT 7SM M01/M12 A3027 RMK T10101120 IEM_DS3505
ZBYN,1995-01-12 06:00,ZBYN 120600Z AUTO 29012KT 12SM M00/M13 A3024 RMK SLP298 T10041130 57019 IEM_DS3505
ZBYN,1995-01-12 07:00,ZBYN 120700Z AUTO 27016KT 7SM 00/M12 A3024 RMK T00001120 IEM_DS3505
ZBYN,1995-01-12 08:00,ZBYN 120800Z AUTO 27016KT 7SM 00/M13 A3024 RMK T00001130 IEM_DS3505
ZBYN,1995-01-12 09:00,ZBYN 120900Z AUTO 27006KT 12SM M02/M20 A3024 RMK SLP293 T10161198 57003 IEM_DS3505
ZBYN,1995-01-12 10:00,ZBYN 121000Z AUTO 29014KT 7SM M03/M14 A3024 RMK T10301140 IEM_DS3505
ZBYN,1995-01-12 11:00,ZBYN 121100Z AUTO 28010KT 7SM M04/M16 A3030 RMK T10401160 IEM_DS3505
ZBYN,1995-01-12 12:00,ZBYN 121200Z AUTO 27004KT 12SM M04/M19 A3030 RMK SLP317 T10451194 52014 IEM_DS3505
ZBYN,1995-01-12 13:00,ZBYN 121300Z AUTO 29006KT 7SM M05/M21 A3030 RMK T10501210 IEM_DS3505
ZBYN,1995-01-12 15:00,ZBYN 121500Z AUTO 29002KT 9SM M08/M20 RMK SLP326 T10761196 52010 IEM_DS3505
ZBYN,1995-01-12 18:00,ZBYN 121800Z AUTO 32002KT 6SM M07/M18 RMK SLP322 T10731181 54000 IEM_DS3505
ZBYN,1995-01-12 21:00,ZBYN 122100Z AUTO 16002KT 6SM M11/M19 RMK SLP334 T11071189 52003 IEM_DS3505
ZBYN,1995-01-12 23:00,ZBYN 122300Z AUTO 10004KT 7SM M14/M18 A3036 RMK T11401180 IEM_DS3505
ZBYN,1995-01-13 00:00,ZBYN 130000Z AUTO 00000KT 7SM M12/M18 A3039 RMK SLP361 T11211185 52017 IEM_DS3505
ZBYN,1995-01-13 01:00,ZBYN 130100Z AUTO 36006KT 7SM M09/M22 A3039 RMK T10901220 IEM_DS3505
ZBYN,1995-01-13 02:00,ZBYN 130200Z AUTO 29004KT 7SM M07/M21 A3042 RMK T10701210 IEM_DS3505
ZBYN,1995-01-13 03:00,ZBYN 130300Z AUTO 36002KT 12SM M05/M17 RMK SLP361 T10461172 52008 IEM_DS3505
ZBYN,1995-01-13 04:00,ZBYN 130400Z AUTO 30006KT 7SM M03/M16 A3039 RMK T10301160 IEM_DS3505
ZBYN,1995-01-13 06:00,ZBYN 130600Z AUTO 20004KT 12SM M01/M23 RMK SLP328 T10101234 57023 IEM_DS3505
ZBYN,1995-01-13 09:00,ZBYN 130900Z AUTO 22002KT 12SM M02/M24 RMK SLP333 T10201235 57003 IEM_DS3505
ZBYN,1995-01-13 12:00,ZBYN 131200Z AUTO 34002KT 9SM M05/M21 RMK SLP355 T10541209 52011 IEM_DS3505
ZBYN,1995-01-13 14:00,ZBYN 131400Z AUTO 00000KT 7SM M07/M20 A3039 RMK T10701200 IEM_DS3505
ZBYN,1995-01-13 15:00,ZBYN 131500Z AUTO 36002KT 9SM M06/M20 A3039 RMK SLP354 T10611198 52011 IEM_DS3505
ZBYN,1995-01-13 16:00,ZBYN 131600Z AUTO 00000KT 7SM M11/M21 A3042 RMK T11101210 IEM_DS3505
ZBYN,1995-01-13 17:00,ZBYN 131700Z AUTO 07004KT 7SM M12/M20 A3042 RMK T11201200 IEM_DS3505
ZBYN,1995-01-13 18:00,ZBYN 131800Z AUTO 00000KT 9SM M08/M19 A3039 RMK SLP347 T10781191 57003 IEM_DS3505
ZBYN,1995-01-13 19:00,ZBYN 131900Z AUTO 00000KT 7SM M12/M20 A3042 RMK T11201200 IEM_DS3505
ZBYN,1995-01-13 20:00,ZBYN 132000Z AUTO 03004KT 7SM M11/M18 A3039 RMK T11101180 IEM_DS3505
ZBYN,1995-01-13 21:00,ZBYN 132100Z AUTO 34004KT 9SM M10/M20 A3039 RMK SLP352 T10971195 54000 IEM_DS3505
ZBYN,1995-01-13 22:00,ZBYN 132200Z AUTO 09004KT 7SM M15/M21 A3039 RMK T11501210 IEM_DS3505
ZBYN,1995-01-13 23:00,ZBYN 132300Z AUTO 00000KT 7SM M15/M21 A3039 RMK T11501210 IEM_DS3505
ZBYN,1995-01-14 00:00,ZBYN 140000Z AUTO 34002KT 9SM M14/M19 A3042 RMK SLP371 T11421190 52003 IEM_DS3505
ZBYN,1995-01-14 01:00,ZBYN 140100Z AUTO 00000KT 7SM M14/M19 A3042 RMK T11401190 IEM_DS3505
ZBYN,1995-01-14 02:00,ZBYN 140200Z AUTO 00000KT 7SM M09/M19 A3042 RMK T10901190 IEM_DS3505
ZBYN,1995-01-14 03:00,ZBYN 140300Z AUTO 32002KT 6SM M05/M18 A3042 RMK SLP360 T10541182 52004 IEM_DS3505
ZBYN,1995-01-14 04:00,ZBYN 140400Z AUTO 19006KT 7SM M04/M18 A3036 RMK T10401180 IEM_DS3505
ZBYN,1995-01-14 05:00,ZBYN 140500Z AUTO 17004KT 7SM M02/M18 A3033 RMK T10201180 IEM_DS3505
ZBYN,1995-01-14 06:00,ZBYN 140600Z AUTO 18006KT 6SM M01/M19 A3030 RMK SLP319 T10141192 57033 IEM_DS3505
ZBYN,1995-01-14 07:00,ZBYN 140700Z AUTO 21004KT 7SM 00/M20 A3027 RMK T00001200 IEM_DS3505
ZBYN,1995-01-14 08:00,ZBYN 140800Z AUTO 00000KT 6SM 01/M17 A3027 RMK T00101170 IEM_DS3505
ZBYN,1995-01-14 09:00,ZBYN 140900Z AUTO 16004KT 6SM M01/M20 A3027 RMK SLP311 T10101199 57010 IEM_DS3505
ZBYN,1995-01-14 10:00,ZBYN 141000Z AUTO 00000KT 6SM M03/M20 A3027 RMK T10301200 IEM_DS3505
ZBYN,1995-01-14 11:00,ZBYN 141100Z AUTO 00000KT 6SM M05/M17 A3027 RMK T10501170 IEM_DS3505
ZBYN,1995-01-14 12:00,ZBYN 141200Z AUTO 00000KT 6SM M06/M16 A3030 RMK SLP329 T10621160 54000 IEM_DS3505
ZBYN,1995-01-14 13:00,ZBYN 141300Z AUTO 00000KT 6SM M09/M20 A3030 RMK T10901200 IEM_DS3505
ZBYN,1995-01-14 14:00,ZBYN 141400Z AUTO 00000KT 7SM M10/M20 A3030 RMK T11001200 IEM_DS3505
ZBYN,1995-01-14 15:00,ZBYN 141500Z AUTO 00000KT 6SM M09/M15 RMK SLP334 T10881151 52015 IEM_DS3505
ZBYN,1995-01-14 16:00,ZBYN 141600Z AUTO 00000KT 7SM M10/M18 A3030 RMK T11001180 IEM_DS3505
ZBYN,1995-01-14 17:00,ZBYN 141700Z AUTO 00000KT 7SM M11/M19 A3030 RMK T11101190 IEM_DS3505
ZBYN,1995-01-14 18:00,ZBYN 141800Z AUTO 00000KT 6SM M11/M15 A3030 RMK SLP327 T11121151 57004 IEM_DS3505
ZBYN,1995-01-14 19:00,ZBYN 141900Z AUTO 00000KT 7SM M11/M18 A3030 RMK T11101180 IEM_DS3505
ZBYN,1995-01-14 20:00,ZBYN 142000Z AUTO 00000KT 7SM M12/M17 A3030 RMK T11201170 IEM_DS3505
ZBYN,1995-01-14 21:00,ZBYN 142100Z AUTO 34004KT 6SM M11/M14 A3027 RMK SLP319 T11061140 57005 IEM_DS3505
ZBYN,1995-01-14 22:00,ZBYN 142200Z AUTO 00000KT 7SM M12/M17 A3027 RMK T11201170 IEM_DS3505
ZBYN,1995-01-14 23:00,ZBYN 142300Z AUTO 00000KT 7SM M12/M17 A3027 RMK T11201170 IEM_DS3505
ZBYN,1995-01-15 00:00,ZBYN 150000Z AUTO 00000KT 6SM M12/M15 A3030 RMK T11221149 54000 IEM_DS3505
ZBYN,1995-01-15 02:00,ZBYN 150200Z AUTO 00000KT 1 1/2SM M07/M16 A3030 RMK T10701160 IEM_DS3505
ZBYN,1995-01-15 03:00,ZBYN 150300Z AUTO 14004KT 6SM M03/M15 RMK SLP322 T10261150 52003 IEM_DS3505
ZBYN,1995-01-15 06:00,ZBYN 150600Z AUTO 20008KT 6SM 02/M15 RMK SLP286 T00211151 57029 IEM_DS3505
ZBYN,1995-01-15 08:00,ZBYN 150800Z AUTO 18004KT 5SM 04/M16 A3018 RMK T00401160 IEM_DS3505
ZBYN,1995-01-15 09:00,ZBYN 150900Z AUTO 11004KT 6SM 02/M11 A3018 RMK SLP281 T00201108 57003 IEM_DS3505
ZBYN,1995-01-15 10:00,ZBYN 151000Z AUTO 15004KT 5SM M01/M06 A3018 RMK T10101060 IEM_DS3505
ZBYN,1995-01-15 11:00,ZBYN 151100Z AUTO 00000KT 6SM M02/M05 A3021 RMK T10201050 IEM_DS3505
ZBYN,1995-01-15 12:00,ZBYN 151200Z AUTO 00000KT 6SM M02/M13 A3024 RMK SLP304 T10171132 52011 IEM_DS3505
ZBYN,1995-01-15 13:00,ZBYN 151300Z AUTO 00000KT 7SM M05/M17 A3024 RMK T10501170 IEM_DS3505
ZBYN,1995-01-15 14:00,ZBYN 151400Z AUTO 00000KT 7SM M06/M15 A3027 RMK T10601150 IEM_DS3505
ZBYN,1995-01-15 16:00,ZBYN 151600Z AUTO 06006KT 7SM M08/M14 A3027 RMK T10801140 IEM_DS3505
ZBYN,1995-01-15 17:00,ZBYN 151700Z AUTO 08004KT 7SM M08/M14 A3027 RMK T10801140 IEM_DS3505
ZBYN,1995-01-15 18:00,ZBYN 151800Z AUTO 20002KT 6SM M08/M13 A3027 RMK SLP297 T10781130 52001 IEM_DS3505
ZBYN,1995-01-15 19:00,ZBYN 151900Z AUTO 09004KT 4SM M10/M14 A3027 RMK T11001140 IEM_DS3505
ZBYN,1995-01-15 20:00,ZBYN 152000Z AUTO 06004KT 4SM M09/M14 A3027 RMK T10901140 IEM_DS3505
ZBYN,1995-01-15 21:00,ZBYN 152100Z AUTO 32004KT 6SM M11/M12 A3027 RMK SLP305 T11091124 52002 IEM_DS3505
ZBYN,1995-01-15 22:00,ZBYN 152200Z AUTO 06004KT 5SM M11/M14 A3027 RMK T11101140 IEM_DS3505
ZBYN,1995-01-15 23:00,ZBYN 152300Z AUTO 06004KT 7SM M10/M13 A3030 RMK T11001130 IEM_DS3505
ZBYN,1995-01-16 00:00,ZBYN 160000Z AUTO 27004KT 5SM M12/M13 A3030 RMK SLP327 T11241130 52011 IEM_DS3505
ZBYN,1995-01-16 01:00,ZBYN 160100Z AUTO 33004KT 4SM M10/M14 A3033 RMK T11001140 IEM_DS3505
ZBYN,1995-01-16 02:00,ZBYN 160200Z AUTO 00000KT 2SM M05/M11 A3036 RMK T10501110 IEM_DS3505
ZBYN,1995-01-16 03:00,ZBYN 160300Z AUTO 36004KT 5SM M03/M12 A3036 RMK SLP335 T10261120 52015 IEM_DS3505
ZBYN,1995-01-16 04:00,ZBYN 160400Z AUTO 00000KT 5SM 02/M15 A3033 RMK T00201150 IEM_DS3505
ZBYN,1995-01-16 05:00,ZBYN 160500Z AUTO 12004KT 5SM 04/M12 A3033 RMK T00401120 IEM_DS3505
ZBYN,1995-01-16 06:00,ZBYN 160600Z AUTO 22002KT 5SM 04/M14 A3027 RMK SLP306 T00401136 57017 IEM_DS3505
ZBYN,1995-01-16 07:00,ZBYN 160700Z AUTO 00000KT 6SM 06/M14 A3027 RMK T00601140 IEM_DS3505
ZBYN,1995-01-16 08:00,ZBYN 160800Z AUTO 20006KT 6SM 05/M14 A3027 RMK T00501140 IEM_DS3505
ZBYN,1995-01-16 09:00,ZBYN 160900Z AUTO 18004KT 6SM 03/M12 A3030 RMK SLP314 T00331115 52001 IEM_DS3505
ZBYN,1995-01-16 10:00,ZBYN 161000Z AUTO 00000KT 6SM 00/M13 A3030 RMK T00001130 IEM_DS3505
ZBYN,1995-01-16 11:00,ZBYN 161100Z AUTO 00000KT 6SM M03/M14 A3033 RMK T10301140 IEM_DS3505
ZBYN,1995-01-16 12:00,ZBYN 161200Z AUTO 36004KT 6SM M02/M12 A3033 RMK SLP341 T10241116 52012 IEM_DS3505
ZBYN,1995-01-16 13:00,ZBYN 161300Z AUTO 14002KT 6SM M05/M15 A3036 RMK T10501150 IEM_DS3505
ZBYN,1995-01-16 14:00,ZBYN 161400Z AUTO 00000KT 6SM M05/M15 A3036 RMK T10501150 IEM_DS3505
ZBYN,1995-01-16 15:00,ZBYN 161500Z AUTO 36004KT 5SM M03/M16 A3036 RMK SLP333 T10271160 52009 IEM_DS3505
ZBYN,1995-01-16 16:00,ZBYN 161600Z AUTO 00000KT 6SM M07/M13 A3036 RMK T10701130 IEM_DS3505
ZBYN,1995-01-16 17:00,ZBYN 161700Z AUTO 00000KT 6SM M07/M13 A3036 RMK T10701130 IEM_DS3505
ZBYN,1995-01-16 18:00,ZBYN 161800Z AUTO 32002KT 6SM M05/M15 A3036 RMK SLP324 T10511153 57001 IEM_DS3505
ZBYN,1995-01-16 19:00,ZBYN 161900Z AUTO 36004KT 6SM M08/M14 A3036 RMK T10801140 IEM_DS3505
ZBYN,1995-01-16 20:00,ZBYN 162000Z AUTO 00000KT 6SM M09/M15 A3036 RMK T10901150 IEM_DS3505
ZBYN,1995-01-16 21:00,ZBYN 162100Z AUTO 09004KT 6SM M09/M15 A3036 RMK SLP335 T10931152 52002 IEM_DS3505
ZBYN,1995-01-16 22:00,ZBYN 162200Z AUTO 00000KT 6SM M10/M15 A3036 RMK T11001150 IEM_DS3505
ZBYN,1995-01-16 23:00,ZBYN 162300Z AUTO 00000KT 6SM M11/M15 A3033 RMK T11101150 IEM_DS3505
ZBYN,1995-01-17 00:00,ZBYN 170000Z AUTO 04004KT 6SM M11/M14 RMK SLP343 T11121138 57006 IEM_DS3505
ZBYN,1995-01-17 01:00,ZBYN 170100Z AUTO 00000KT 5SM M09/M11 A3036 RMK T10901110 IEM_DS3505
ZBYN,1995-01-17 02:00,ZBYN 170200Z AUTO 00000KT 3SM M06/M13 A3036 RMK T10601130 IEM_DS3505
ZBYN,1995-01-17 03:00,ZBYN 170300Z AUTO 02004KT 6SM M02/M16 A3039 RMK SLP332 T10171159 52006 IEM_DS3505
ZBYN,1995-01-17 04:00,ZBYN 170400Z AUTO 00000KT 2 1/2SM 01/M14 A3036 RMK T00101140 IEM_DS3505
ZBYN,1995-01-17 05:00,ZBYN 170500Z AUTO 00000KT 2 1/2SM 02/M16 A3030 RMK T00201160 IEM_DS3505
ZBYN,1995-01-17 06:00,ZBYN 170600Z AUTO 16004KT 6SM 04/M15 A3027 RMK SLP293 T00411151 57030 IEM_DS3505
ZBYN,1995-01-17 07:00,ZBYN 170700Z AUTO 00000KT 4SM 05/M15 A3024 RMK T00501150 IEM_DS3505
ZBYN,1995-01-17 08:00,ZBYN 170800Z AUTO 18004KT 4SM 05/M16 A3024 RMK T00501160 IEM_DS3505
ZBYN,1995-01-17 09:00,ZBYN 170900Z AUTO 00000KT 6SM 03/M20 A3021 RMK SLP290 T00281199 57012 IEM_DS3505
ZBYN,1995-01-17 10:00,ZBYN 171000Z AUTO 00000KT 1 1/2SM 01/M17 A3021 RMK T00101170 IEM_DS3505
ZBYN,1995-01-17 11:00,ZBYN 171100Z AUTO 00000KT 2SM M02/M13 A3024 RMK T10201130 IEM_DS3505
ZBYN,1995-01-17 12:00,ZBYN 171200Z AUTO 34002KT 6SM M02/M11 A3024 RMK SLP305 T10161113 52003 IEM_DS3505
ZBYN,1995-01-17 13:00,ZBYN 171300Z AUTO 00000KT 2 1/2SM M04/M13 A3027 RMK T10401130 IEM_DS3505
ZBYN,1995-01-17 14:00,ZBYN 171400Z AUTO 09004KT 3SM M05/M13 A3027 RMK T10501130 IEM_DS3505
ZBYN,1995-01-17 15:00,ZBYN 171500Z AUTO 00000KT 6SM M05/M11 A3030 RMK SLP308 T10511112 52013 IEM_DS3505
ZBYN,1995-01-17 16:00,ZBYN 171600Z AUTO 00000KT 3SM M07/M14 A3030 RMK T10701140 IEM_DS3505
ZBYN,1995-01-17 17:00,ZBYN 171700Z AUTO 00000KT 3SM M07/M15 A3030 RMK T10701150 IEM_DS3505
ZBYN,1995-01-17 18:00,ZBYN 171800Z AUTO 34004KT 6SM M05/M13 A3027 RMK SLP295 T10471128 57001 IEM_DS3505
ZBYN,1995-01-17 19:00,ZBYN 171900Z AUTO 00000KT 3SM M08/M14 A3030 RMK T10801140 IEM_DS3505
ZBYN,1995-01-17 20:00,ZBYN 172000Z AUTO 00000KT 3SM M06/M14 A3030 RMK T10601140 IEM_DS3505
ZBYN,1995-01-17 21:00,ZBYN 172100Z AUTO 36010KT 6SM M02/M15 A3030 RMK SLP303 T10221149 52009 IEM_DS3505
ZBYN,1995-01-17 22:00,ZBYN 172200Z AUTO 32008KT 3SM M03/M16 A3033 RMK T10301160 IEM_DS3505
ZBYN,1995-01-17 23:00,ZBYN 172300Z AUTO 36010KT 5SM M04/M16 A3036 RMK T10401160 IEM_DS3505
ZBYN,1995-01-18 00:00,ZBYN 180000Z AUTO 34008KT 6SM M04/M18 A3039 RMK SLP350 T10411177 52032 IEM_DS3505
ZBYN,1995-01-18 01:00,ZBYN 180100Z AUTO 33008KT 6SM M04/M19 A3045 RMK T10401190 IEM_DS3505
ZBYN,1995-01-18 02:00,ZBYN 180200Z AUTO 35014KT 6SM M04/M20 A3045 RMK T10401200 IEM_DS3505
ZBYN,1995-01-18 03:00,ZBYN 180300Z AUTO 36012KT 7SM M03/M18 A3045 RMK SLP363 T10291181 52008 IEM_DS3505
ZBYN,1995-01-18 04:00,ZBYN 180400Z AUTO 32008KT 6SM M01/M17 A3042 RMK T10101170 IEM_DS3505
ZBYN,1995-01-18 05:00,ZBYN 180500Z AUTO 30012KT 6SM M01/M14 A3039 RMK T10101140 IEM_DS3505
ZBYN,1995-01-18 06:00,ZBYN 180600Z AUTO 36010KT 7SM M01/M18 A3036 RMK SLP337 T10081176 57019 IEM_DS3505
ZBYN,1995-01-18 07:00,ZBYN 180700Z AUTO 31010KT 6SM 00/M16 A3036 RMK T00001160 IEM_DS3505
ZBYN,1995-01-18 08:00,ZBYN 180800Z AUTO 34008KT 6SM 00/M16 A3036 RMK T00001160 IEM_DS3505
ZBYN,1995-01-18 09:00,ZBYN 180900Z AUTO 36008KT 7SM M01/M20 A3036 RMK SLP328 T10101200 57005 IEM_DS3505
ZBYN,1995-01-18 10:00,ZBYN 181000Z AUTO 33004KT 6SM M02/M18 A3039 RMK T10201180 IEM_DS3505
ZBYN,1995-01-18 11:00,ZBYN 181100Z AUTO 32008KT 7SM M03/M15 A3039 RMK T10301150 IEM_DS3505
ZBYN,1995-01-18 12:00,ZBYN 181200Z AUTO 34006KT 6SM M03/M26 A3039 RMK SLP343 T10261261 52008 IEM_DS3505
ZBYN,1995-01-18 13:00,ZBYN 181300Z AUTO 32006KT 6SM M03/M25 A3039 RMK T10301250 IEM_DS3505
ZBYN,1995-01-18 14:00,ZBYN 181400Z AUTO 36004KT 6SM M04/M24 A3039 RMK T10401240 IEM_DS3505
ZBYN,1995-01-18 15:00,ZBYN 181500Z AUTO 32004KT 6SM M05/M26 A3039 RMK SLP348 T10481264 52003 IEM_DS3505
ZBYN,1995-01-18 16:00,ZBYN 181600Z AUTO 00000KT 6SM M05/M19 A3039 RMK T10501190 IEM_DS3505
ZBYN,1995-01-18 17:00,ZBYN 181700Z AUTO 00000KT 6SM M05/M21 A3036 RMK T10501210 IEM_DS3505
ZBYN,1995-01-18 18:00,ZBYN 181800Z AUTO 32006KT 6SM M06/M25 A3036 RMK SLP339 T10601251 57007 IEM_DS3505
ZBYN,1995-01-18 19:00,ZBYN 181900Z AUTO 00000KT 6SM M06/M21 A3036 RMK T10601210 IEM_DS3505
ZBYN,1995-01-18 20:00,ZBYN 182000Z AUTO 00000KT 6SM M07/M19 A3033 RMK T10701190 IEM_DS3505
ZBYN,1995-01-18 21:00,ZBYN 182100Z AUTO 32006KT 6SM M06/M22 A3030 RMK SLP324 T10601215 57014 IEM_DS3505
ZBYN,1995-01-18 22:00,ZBYN 182200Z AUTO 00000KT 6SM M08/M18 A3027 RMK T10801180 IEM_DS3505
ZBYN,1995-01-18 23:00,ZBYN 182300Z AUTO 00000KT 6SM M07/M14 A3027 RMK T10701140 IEM_DS3505
ZBYN,1995-01-19 00:00,ZBYN 190000Z AUTO 00000KT 6SM M06/M19 A3027 RMK SLP309 T10591193 57016 IEM_DS3505
ZBYN,1995-01-19 01:00,ZBYN 190100Z AUTO 00000KT 6SM M06/M16 A3027 RMK T10601160 IEM_DS3505
ZBYN,1995-01-19 02:00,ZBYN 190200Z AUTO 19004KT 6SM M04/M18 A3027 RMK T10401180 IEM_DS3505
ZBYN,1995-01-19 03:00,ZBYN 190300Z AUTO 20002KT 6SM M03/M13 A3024 RMK SLP303 T10271130 57005 IEM_DS3505
ZBYN,1995-01-19 04:00,ZBYN 190400Z AUTO 00000KT 6SM M01/M21 A3021 RMK T10101210 IEM_DS3505
ZBYN,1995-01-19 05:00,ZBYN 190500Z AUTO 00000KT 6SM 01/M16 A3015 RMK T00101160 IEM_DS3505
ZBYN,1995-01-19 06:00,ZBYN 190600Z AUTO 16008KT 6SM 02/M18 A3012 RMK SLP252 T00181184 57040 IEM_DS3505
ZBYN,1995-01-19 07:00,ZBYN 190700Z AUTO 19006KT 6SM 03/M13 A3009 RMK T00301130 IEM_DS3505
ZBYN,1995-01-19 08:00,ZBYN 190800Z AUTO 19006KT 7SM 03/M17 A3009 RMK T00301170 IEM_DS3505
ZBYN,1995-01-19 09:00,ZBYN 190900Z AUTO 18006KT 6SM 01/M16 A3006 RMK SLP232 T00141161 57019 IEM_DS3505
ZBYN,1995-01-19 12:00,ZBYN 191200Z AUTO 32006KT 7SM M03/M15 RMK SLP241 T10311146 52001 IEM_DS3505
ZBYN,1995-01-19 15:00,ZBYN 191500Z AUTO 34002KT 6SM M04/M13 RMK SLP240 T10441133 52002 IEM_DS3505
ZBYN,1995-01-19 18:00,ZBYN 191800Z AUTO 34004KT 6SM M06/M15 RMK SLP226 T10571150 57007 IEM_DS3505
ZBYN,1995-01-19 21:00,ZBYN 192100Z AUTO 36002KT 6SM M08/M13 RMK SLP213 T10841133 57017 IEM_DS3505
ZBYN,1995-01-20 00:00,ZBYN 200000Z AUTO 16002KT 6SM M11/M14 RMK SLP234 T11121141 52006 IEM_DS3505
ZBYN,1995-01-20 01:00,ZBYN 200100Z AUTO 00000KT 5SM M09/M15 A3003 RMK T10901150 IEM_DS3505
ZBYN,1995-01-20 02:00,ZBYN 200200Z AUTO 00000KT 5SM M06/M14 A3006 RMK T10601140 IEM_DS3505
ZBYN,1995-01-20 03:00,ZBYN 200300Z AUTO 36004KT 6SM M03/M12 A3003 RMK SLP228 T10281122 52007 IEM_DS3505
ZBYN,1995-01-20 04:00,ZBYN 200400Z AUTO 00000KT 5SM M01/M13 A3000 RMK T10101130 IEM_DS3505
ZBYN,1995-01-20 05:00,ZBYN 200500Z AUTO 17004KT 4SM 01/M14 A2997 RMK T00101140 IEM_DS3505
ZBYN,1995-01-20 06:00,ZBYN 200600Z AUTO 18002KT 6SM 01/M13 A2994 RMK SLP190 T00141132 57030 IEM_DS3505
ZBYN,1995-01-20 07:00,ZBYN 200700Z AUTO 17006KT 4SM 03/M14 A2991 RMK T00301140 IEM_DS3505
ZBYN,1995-01-20 08:00,ZBYN 200800Z AUTO 18006KT 7SM 03/M14 A2991 RMK T00301140 IEM_DS3505
ZBYN,1995-01-20 09:00,ZBYN 200900Z AUTO 18004KT 6SM 01/M14 A2994 RMK SLP191 T00061138 57005 IEM_DS3505
ZBYN,1995-01-20 10:00,ZBYN 201000Z AUTO 00000KT 7SM M01/M16 A2994 RMK T10101160 IEM_DS3505
ZBYN,1995-01-20 11:00,ZBYN 201100Z AUTO 35004KT 7SM M02/M13 A2997 RMK T10201130 IEM_DS3505
ZBYN,1995-01-20 12:00,ZBYN 201200Z AUTO 32004KT 6SM M04/M12 A3000 RMK SLP223 T10401121 52017 IEM_DS3505
ZBYN,1995-01-20 13:00,ZBYN 201300Z AUTO 00000KT 2 1/2SM M06/M14 A3003 RMK T10601140 IEM_DS3505
ZBYN,1995-01-20 14:00,ZBYN 201400Z AUTO 00000KT 2 1/2SM M06/M14 A3003 RMK T10601140 IEM_DS3505
ZBYN,1995-01-20 15:00,ZBYN 201500Z AUTO 00000KT 6SM M05/M13 A3006 RMK SLP232 T10541133 52020 IEM_DS3505
ZBYN,1995-01-20 16:00,ZBYN 201600Z AUTO 00000KT 2 1/2SM M08/M14 A3006 RMK T10801140 IEM_DS3505
ZBYN,1995-01-20 17:00,ZBYN 201700Z AUTO 00000KT 2 1/2SM M08/M16 A3006 RMK T10801160 IEM_DS3505
ZBYN,1995-01-20 18:00,ZBYN 201800Z AUTO 00000KT 6SM M08/M13 A3006 RMK SLP236 T10801133 52006 IEM_DS3505
ZBYN,1995-01-20 19:00,ZBYN 201900Z AUTO 00000KT 2 1/2SM M08/M13 A3009 RMK T10801130 IEM_DS3505
ZBYN,1995-01-20 20:00,ZBYN 202000Z AUTO 00000KT 2 1/2SM M08/M13 A3006 RMK T10801130 IEM_DS3505
ZBYN,1995-01-20 21:00,ZBYN 202100Z AUTO 32004KT 6SM M08/M11 A3006 RMK SLP234 T10761112 57002 IEM_DS3505
ZBYN,1995-01-20 22:00,ZBYN 202200Z AUTO 00000KT 3SM M07/M13 A3006 RMK T10701130 IEM_DS3505
ZBYN,1995-01-20 23:00,ZBYN 202300Z AUTO 00000KT 3SM M07/M12 A3006 RMK T10701120 IEM_DS3505
ZBYN,1995-01-21 00:00,ZBYN 210000Z AUTO 00000KT 6SM M07/M10 A3009 RMK SLP246 T10671105 52004 IEM_DS3505
ZBYN,1995-01-21 01:00,ZBYN 210100Z AUTO 00000KT 4SM M06/M11 A3009 RMK T10601110 IEM_DS3505
ZBYN,1995-01-21 02:00,ZBYN 210200Z AUTO 18006KT 5SM M02/M12 A3012 RMK T10201120 IEM_DS3505
ZBYN,1995-01-21 03:00,ZBYN 210300Z AUTO 29008KT 9SM 00/M16 A3012 RMK SLP252 T00021156 52015 IEM_DS3505
ZBYN,1995-01-21 04:00,ZBYN 210400Z AUTO 27004KT 5SM 00/M13 A3009 RMK T00001130 IEM_DS3505
ZBYN,1995-01-21 05:00,ZBYN 210500Z AUTO 27012KT 6SM 01/M12 A3006 RMK T00101120 IEM_DS3505
ZBYN,1995-01-21 06:00,ZBYN 210600Z AUTO 29012KT 9SM 01/M18 A3003 RMK SLP226 T00141178 57026 IEM_DS3505
ZBYN,1995-01-21 07:00,ZBYN 210700Z AUTO 30016KT 6SM 01/M11 A3003 RMK T00101110 IEM_DS3505
ZBYN,1995-01-21 08:00,ZBYN 210800Z AUTO 29008KT 6SM 01/M11 A3003 RMK T00101110 IEM_DS3505
ZBYN,1995-01-21 09:00,ZBYN 210900Z AUTO 32010KT 12SM 01/M17 A3003 RMK SLP227 T00081170 52001 IEM_DS3505
ZBYN,1995-01-21 10:00,ZBYN 211000Z AUTO 28008KT 6SM 00/M12 A3006 RMK T00001120 IEM_DS3505
ZBYN,1995-01-21 11:00,ZBYN 211100Z AUTO 29008KT 6SM M01/M09 A3006 RMK T10101090 IEM_DS3505
ZBYN,1995-01-21 12:00,ZBYN 211200Z AUTO 32010KT 9SM M02/M16 A3009 RMK SLP241 T10161155 52010 IEM_DS3505
ZBYN,1995-01-21 13:00,ZBYN 211300Z AUTO 29010KT 6SM M03/M15 A3012 RMK T10301150 IEM_DS3505
ZBYN,1995-01-21 14:00,ZBYN 211400Z AUTO 30012KT 6SM M02/M14 A3012 RMK T10201140 IEM_DS3505
ZBYN,1995-01-21 15:00,ZBYN 211500Z AUTO 32004KT 7SM M03/M15 A3012 RMK SLP247 T10281147 52015 IEM_DS3505
ZBYN,1995-01-21 16:00,ZBYN 211600Z AUTO 00000KT 6SM M03/M16 A3015 RMK T10301160 IEM_DS3505
ZBYN,1995-01-21 18:00,ZBYN 211800Z AUTO 11006KT 6SM M08/M15 A3015 RMK SLP257 T10761151 52003 IEM_DS3505
ZBYN,1995-01-21 19:00,ZBYN 211900Z AUTO 08008KT 6SM M09/M16 A3015 RMK T10901160 IEM_DS3505
ZBYN,1995-01-21 20:00,ZBYN 212000Z AUTO 08006KT 6SM M08/M16 A3012 RMK T10801160 IEM_DS3505
ZBYN,1995-01-21 21:00,ZBYN 212100Z AUTO 11006KT 6SM M08/M14 A3015 RMK SLP259 T10791143 54000 IEM_DS3505
ZBYN,1995-01-21 22:00,ZBYN 212200Z AUTO 00000KT 6SM M08/M16 A3015 RMK T10801160 IEM_DS3505
ZBYN,1995-01-21 23:00,ZBYN 212300Z AUTO 09004KT 6SM M07/M16 A3015 RMK T10701160 IEM_DS3505
ZBYN,1995-01-22 00:00,ZBYN 220000Z AUTO 09006KT 6SM M06/M12 A3021 RMK SLP271 T10571116 52011 IEM_DS3505
ZBYN,1995-01-22 01:00,ZBYN 220100Z AUTO 00000KT 5SM M06/M15 A3024 RMK T10601150 IEM_DS3505
ZBYN,1995-01-22 02:00,ZBYN 220200Z AUTO 00000KT 5SM M03/M14 A3024 RMK T10301140 IEM_DS3505
ZBYN,1995-01-22 03:00,ZBYN 220300Z AUTO 34006KT 7SM M01/M17 A3027 RMK SLP291 T10081167 52024 IEM_DS3505
ZBYN,1995-01-22 04:00,ZBYN 220400Z AUTO 00000KT 6SM 00/M16 A3024 RMK T00001160 IEM_DS3505
ZBYN,1995-01-22 05:00,ZBYN 220500Z AUTO 30006KT 6SM 00/M16 A3021 RMK T00001160 IEM_DS3505
ZBYN,1995-01-22 06:00,ZBYN 220600Z AUTO 29008KT 9SM 01/M16 A3018 RMK SLP279 T00131157 57015 IEM_DS3505
ZBYN,1995-01-22 07:00,ZBYN 220700Z AUTO 27008KT 6SM 02/M15 A3021 RMK T00201150 IEM_DS3505
ZBYN,1995-01-22 08:00,ZBYN 220800Z AUTO 29008KT 6SM 02/M11 A3021 RMK T00201110 IEM_DS3505
ZBYN,1995-01-22 09:00,ZBYN 220900Z AUTO 27012KT 12SM 01/M14 A3021 RMK SLP280 T00121138 54000 IEM_DS3505
ZBYN,1995-01-22 10:00,ZBYN 221000Z AUTO 28010KT 6SM 00/M20 A3021 RMK T00001200 IEM_DS3505
ZBYN,1995-01-22 11:00,ZBYN 221100Z AUTO 32008KT 6SM M01/M17 A3027 RMK SLP315 T10121169 52031 IEM_DS3505
ZBYN,1995-01-22 12:00,ZBYN 221200Z AUTO 32008KT 6SM M01/M17 A3030 RMK SLP315 T10121169 52031 IEM_DS3505
ZBYN,1995-01-22 13:00,ZBYN 221300Z AUTO 30006KT 7SM M02/M13 A3033 RMK T10201130 IEM_DS3505
ZBYN,1995-01-22 14:00,ZBYN 221400Z AUTO 31006KT 7SM M02/M16 A3033 RMK T10201160 IEM_DS3505
ZBYN,1995-01-22 15:00,ZBYN 221500Z AUTO 00000KT 6SM M06/M17 A3033 RMK SLP326 T10601171 52010 IEM_DS3505
ZBYN,1995-01-22 16:00,ZBYN 221600Z AUTO 00000KT 7SM M06/M16 A3033 RMK T10601160 IEM_DS3505
ZBYN,1995-01-22 17:00,ZBYN 221700Z AUTO 00000KT 7SM M07/M17 A3033 RMK T10701170 IEM_DS3505
ZBYN,1995-01-22 18:00,ZBYN 221800Z AUTO 32002KT 6SM M08/M12 A3036 RMK SLP329 T10831123 52003 IEM_DS3505
ZBYN,1995-01-22 19:00,ZBYN 221900Z AUTO 30002KT 7SM M05/M16 A3033 RMK T10501160 IEM_DS3505
ZBYN,1995-01-22 20:00,ZBYN 222000Z AUTO 31008KT 7SM M05/M16 A3036 RMK T10501160 IEM_DS3505
ZBYN,1995-01-22 21:00,ZBYN 222100Z AUTO 32010KT 6SM M05/M19 A3036 RMK SLP328 T10531188 52004 IEM_DS3505
ZBYN,1995-01-22 22:00,ZBYN 222200Z AUTO 31006KT 7SM M06/M13 A3036 RMK T10601130 IEM_DS3505
ZBYN,1995-01-22 23:00,ZBYN 222300Z AUTO 28006KT 7SM M07/M19 A3039 RMK T10701190 IEM_DS3505
ZBYN,1995-01-23 00:00,ZBYN 230000Z AUTO 27002KT 7SM M08/M19 A3039 RMK SLP350 T10761187 52012 IEM_DS3505
ZBYN,1995-01-23 01:00,ZBYN 230100Z AUTO 27008KT 7SM M06/M16 A3042 RMK T10601160 IEM_DS3505
ZBYN,1995-01-23 02:00,ZBYN 230200Z AUTO 29014KT 7SM M04/M13 A3042 RMK T10401130 IEM_DS3505
ZBYN,1995-01-23 03:00,ZBYN 230300Z AUTO 32006KT 12SM M03/ A3042 RMK SLP357 52005 IEM_DS3505
ZBYN,1995-01-23 04:00,ZBYN 230400Z AUTO 29017KT 7SM M01/M13 A3039 RMK T10101130 IEM_DS3505
ZBYN,1995-01-23 05:00,ZBYN 230500Z AUTO 32010KT 7SM M01/M13 A3033 RMK T10101130 IEM_DS3505
ZBYN,1995-01-23 06:00,ZBYN 230600Z AUTO 27012KT 12SM M00/M22 A3030 RMK SLP317 T10041222 57035 IEM_DS3505
ZBYN,1995-01-23 07:00,ZBYN 230700Z AUTO 31014KT 7SM 00/M19 A3027 RMK T00001190 IEM_DS3505
ZBYN,1995-01-23 08:00,ZBYN 230800Z AUTO 30012KT 7SM 00/M24 A3027 RMK T00001240 IEM_DS3505
ZBYN,1995-01-23 09:00,ZBYN 230900Z AUTO 32008KT 16SM M02/M22 A3027 RMK SLP307 T10181215 57006 IEM_DS3505
ZBYN,1995-01-23 10:00,ZBYN 231000Z AUTO 30010KT 7SM M03/M24 A3030 RMK T10301240 IEM_DS3505
ZBYN,1995-01-23 11:00,ZBYN 231100Z AUTO 30008KT 7SM M04/M15 A3030 RMK T10401150 IEM_DS3505
ZBYN,1995-01-23 12:00,ZBYN 231200Z AUTO 20004KT 12SM M07/M19 A3030 RMK SLP329 T10691188 52007 IEM_DS3505
ZBYN,1995-01-23 13:00,ZBYN 231300Z AUTO 00000KT 7SM M07/M14 A3030 RMK T10701140 IEM_DS3505
ZBYN,1995-01-23 14:00,ZBYN 231400Z AUTO 00000KT 7SM M10/M17 A3030 RMK T11001170 IEM_DS3505
ZBYN,1995-01-23 15:00,ZBYN 231500Z AUTO 11006KT 12SM M10/M19 A3030 RMK SLP325 T11001187 57002 IEM_DS3505
ZBYN,1995-01-23 16:00,ZBYN 231600Z AUTO 09004KT 7SM M11/M22 A3027 RMK T11101220 IEM_DS3505
ZBYN,1995-01-23 18:00,ZBYN 231800Z AUTO 11006KT 9SM M10/M17 A3027 RMK SLP309 T11031172 57010 IEM_DS3505
ZBYN,1995-01-23 19:00,ZBYN 231900Z AUTO 11004KT 7SM M11/M22 A3024 RMK T11101220 IEM_DS3505
ZBYN,1995-01-23 20:00,ZBYN 232000Z AUTO 09004KT 7SM M12/M21 A3024 RMK T11201210 IEM_DS3505
ZBYN,1995-01-23 21:00,ZBYN 232100Z AUTO 14002KT 6SM M12/M17 A3024 RMK SLP308 T11161169 57005 IEM_DS3505
ZBYN,1995-01-23 22:00,ZBYN 232200Z AUTO 00000KT 7SM M12/M21 A3024 RMK T11201210 IEM_DS3505
ZBYN,1995-01-23 23:00,ZBYN 232300Z AUTO 07004KT 7SM M14/M21 A3024 RMK T11401210 IEM_DS3505
ZBYN,1995-01-24 00:00,ZBYN 240000Z AUTO 00000KT 6SM M15/M17 A3024 RMK SLP326 T11481171 52002 IEM_DS3505
ZBYN,1995-01-24 01:00,ZBYN 240100Z AUTO 07004KT 7SM M11/M17 A3027 RMK T11101170 IEM_DS3505
ZBYN,1995-01-24 03:00,ZBYN 240300Z AUTO 16004KT 6SM M04/M18 A3024 RMK SLP315 T10451185 52002 IEM_DS3505
ZBYN,1995-01-24 04:00,ZBYN 240400Z AUTO 20004KT 7SM M02/M19 A3021 RMK T10201190 IEM_DS3505
ZBYN,1995-01-24 05:00,ZBYN 240500Z AUTO 20010KT 7SM 02/M12 A3015 RMK T00201120 IEM_DS3505
ZBYN,1995-01-24 06:00,ZBYN 240600Z AUTO 20012KT 6SM 03/ A3012 RMK SLP255 57041 IEM_DS3505
ZBYN,1995-01-24 07:00,ZBYN 240700Z AUTO 24010KT 7SM 04/M08 A3009 RMK T00401080 IEM_DS3505
ZBYN,1995-01-24 08:00,ZBYN 240800Z AUTO 26008KT 7SM 05/M08 A3009 RMK T00501080 IEM_DS3505
ZBYN,1995-01-24 09:00,ZBYN 240900Z AUTO 29012KT 7SM 04/ A3009 RMK SLP251 57004 IEM_DS3505
ZBYN,1995-01-24 10:00,ZBYN 241000Z AUTO 30012KT 7SM 02/M16 A3012 RMK T00201160 IEM_DS3505
ZBYN,1995-01-24 11:00,ZBYN 241100Z AUTO 30010KT 7SM 01/M13 A3015 RMK T00101130 IEM_DS3505
ZBYN,1995-01-24 12:00,ZBYN 241200Z AUTO 32004KT 7SM M02/M21 A3018 RMK SLP286 T10181214 52015 IEM_DS3505
ZBYN,1995-01-24 13:00,ZBYN 241300Z AUTO 00000KT 7SM M02/M21 A3018 RMK T10201210 IEM_DS3505
ZBYN,1995-01-24 14:00,ZBYN 241400Z AUTO 00000KT 7SM M05/M19 A3018 RMK T10501190 IEM_DS3505
ZBYN,1995-01-24 15:00,ZBYN 241500Z AUTO 00000KT 6SM M05/ A3021 RMK SLP289 52015 IEM_DS3505
ZBYN,1995-01-24 16:00,ZBYN 241600Z AUTO 04004KT 7SM M06/M20 A3024 RMK T10601200 IEM_DS3505
ZBYN,1995-01-24 17:00,ZBYN 241700Z AUTO 00000KT 7SM M06/M20 A3024 RMK T10601200 IEM_DS3505
ZBYN,1995-01-24 18:00,ZBYN 241800Z AUTO 32006KT 6SM M04/M17 A3027 RMK SLP288 T10421170 52014 IEM_DS3505
ZBYN,1995-01-24 19:00,ZBYN 241900Z AUTO 00000KT 7SM M07/M18 A3027 RMK T10701180 IEM_DS3505
ZBYN,1995-01-24 20:00,ZBYN 242000Z AUTO 00000KT 7SM M08/M19 A3030 RMK T10801190 IEM_DS3505
ZBYN,1995-01-24 21:00,ZBYN 242100Z AUTO 16006KT 6SM M09/M21 A3030 RMK SLP302 T10931214 52006 IEM_DS3505
ZBYN,1995-01-24 22:00,ZBYN 242200Z AUTO 06006KT 7SM M09/M19 A3033 RMK T10901190 IEM_DS3505
ZBYN,1995-01-24 23:00,ZBYN 242300Z AUTO 03004KT 4SM M09/M20 A3036 RMK T10901200 IEM_DS3505
ZBYN,1995-01-25 00:00,ZBYN 250000Z AUTO 00000KT 6SM M15/M17 A3039 RMK SLP326 T11481171 52002 IEM_DS3505
ZBYN,1995-01-25 01:00,ZBYN 250100Z AUTO 00000KT 7SM M08/M19 A3042 RMK T10801190 IEM_DS3505
ZBYN,1995-01-25 02:00,ZBYN 250200Z AUTO 30006KT 7SM M02/M20 A3045 RMK T10201200 IEM_DS3505
ZBYN,1995-01-25 03:00,ZBYN 250300Z AUTO 16004KT 6SM M04/M18 A3045 RMK SLP315 T10451185 52002 IEM_DS3505
ZBYN,1995-01-25 04:00,ZBYN 250400Z AUTO 35008KT 7SM 00/M16 A3042 RMK T00001160 IEM_DS3505
ZBYN,1995-01-25 05:00,ZBYN 250500Z AUTO 31006KT 6SM 01/M13 A3039 RMK T00101130 IEM_DS3505
ZBYN,1995-01-25 06:00,ZBYN 250600Z AUTO 20012KT 6SM 03/M18 RMK SLP255 T00331180 57041 IEM_DS3505
ZBYN,1995-01-25 07:00,ZBYN 250700Z AUTO 00000KT 6SM 01/M13 A3039 RMK T00101130 IEM_DS3505
ZBYN,1995-01-25 08:00,ZBYN 250800Z AUTO 23004KT 6SM 01/M20 A3042 RMK T00101200 IEM_DS3505
ZBYN,1995-01-25 09:00,ZBYN 250900Z AUTO 29012KT 7SM 04/M28 A3042 RMK SLP251 T00431276 57004 IEM_DS3505
ZBYN,1995-01-25 10:00,ZBYN 251000Z AUTO 33006KT 6SM M01/M19 A3045 RMK T10101190 IEM_DS3505
ZBYN,1995-01-25 11:00,ZBYN 251100Z AUTO 35008KT 7SM M02/M17 A3047 RMK T10201170 IEM_DS3505
ZBYN,1995-01-25 12:00,ZBYN 251200Z AUTO 36008KT 6SM M03/M22 A3047 RMK SLP383 T10261222 52021 IEM_DS3505
ZBYN,1995-01-25 13:00,ZBYN 251300Z AUTO 07002KT 7SM M05/M15 A3050 RMK T10501150 IEM_DS3505
ZBYN,1995-01-25 14:00,ZBYN 251400Z AUTO 36008KT 7SM M04/M16 A3053 RMK T10401160 IEM_DS3505
ZBYN,1995-01-25 15:00,ZBYN 251500Z AUTO 36006KT 6SM M05/M22 A3053 RMK SLP392 T10511223 52012 IEM_DS3505
ZBYN,1995-01-25 16:00,ZBYN 251600Z AUTO 00000KT 7SM M06/M19 A3053 RMK T10601190 IEM_DS3505
ZBYN,1995-01-25 17:00,ZBYN 251700Z AUTO 30006KT 7SM M06/M21 A3053 RMK T10601210 IEM_DS3505
ZBYN,1995-01-25 18:00,ZBYN 251800Z AUTO 34006KT 6SM M08/M22 A3053 RMK SLP399 T10841225 52003 IEM_DS3505
ZBYN,1995-01-25 19:00,ZBYN 251900Z AUTO 07004KT 7SM M07/M22 A3053 RMK T10701220 IEM_DS3505
ZBYN,1995-01-25 21:00,ZBYN 252100Z AUTO 34008KT 6SM M09/M22 RMK SLP389 T10881224 57011 IEM_DS3505
ZBYN,1995-01-26 00:00,ZBYN 260000Z AUTO 36002KT 6SM M12/M19 RMK SLP406 T11161188 52007 IEM_DS3505
ZBYN,1995-01-26 01:00,ZBYN 260100Z AUTO 00000KT 7SM M13/M20 A3053 RMK T11301200 IEM_DS3505
ZBYN,1995-01-26 02:00,ZBYN 260200Z AUTO 00000KT 7SM M07/M16 A3053 RMK T10701160 IEM_DS3505
ZBYN,1995-01-26 03:00,ZBYN 260300Z AUTO 36004KT 6SM M04/M22 A3050 RMK SLP393 T10421218 57003 IEM_DS3505
ZBYN,1995-01-26 04:00,ZBYN 260400Z AUTO 00000KT 7SM M01/M25 A3050 RMK T10101250 IEM_DS3505
ZBYN,1995-01-26 05:00,ZBYN 260500Z AUTO 22004KT 7SM M01/M17 A3045 RMK T10101170 IEM_DS3505
ZBYN,1995-01-26 06:00,ZBYN 260600Z AUTO 20008KT 6SM 01/M19 A3042 RMK SLP361 T00111191 57026 IEM_DS3505
ZBYN,1995-01-26 07:00,ZBYN 260700Z AUTO 20008KT 7SM 02/M11 A3039 RMK T00201110 IEM_DS3505
ZBYN,1995-01-26 08:00,ZBYN 260800Z AUTO 17004KT 7SM 03/M14 A3039 RMK T00301140 IEM_DS3505
ZBYN,1995-01-26 09:00,ZBYN 260900Z AUTO 16006KT 6SM 01/M25 A3039 RMK SLP351 T00061252 57010 IEM_DS3505
ZBYN,1995-01-26 10:00,ZBYN 261000Z AUTO 00000KT 7SM M02/M22 A3039 RMK T10201220 IEM_DS3505
ZBYN,1995-01-26 11:00,ZBYN 261100Z AUTO 07006KT 7SM M05/M17 A3039 RMK T10501170 IEM_DS3505
ZBYN,1995-01-26 12:00,ZBYN 261200Z AUTO 32004KT 6SM M06/M18 A3042 RMK SLP371 T10561178 52002 IEM_DS3505
ZBYN,1995-01-26 13:00,ZBYN 261300Z AUTO 00000KT 5SM M09/M23 A3042 RMK T10901230 IEM_DS3505
ZBYN,1995-01-26 14:00,ZBYN 261400Z AUTO 11004KT 5SM M09/M23 A3045 RMK T10901230 IEM_DS3505
ZBYN,1995-01-26 15:00,ZBYN 261500Z AUTO 34002KT 6SM M06/M20 A3045 RMK SLP366 T10601205 52008 IEM_DS3505
ZBYN,1995-01-26 18:00,ZBYN 261800Z AUTO 34004KT 6SM M08/M21 RMK SLP364 T10791212 52004 IEM_DS3505
ZBYN,1995-01-26 21:00,ZBYN 262100Z AUTO 34004KT 6SM M10/M19 RMK SLP364 T10961193 57004 IEM_DS3505
ZBYN,1995-01-26 23:00,ZBYN 262300Z AUTO 00000KT 7SM M14/M22 A3045 RMK T11401220 IEM_DS3505
ZBYN,1995-01-27 00:00,ZBYN 270000Z AUTO 36006KT 9SM M10/M18 A3047 RMK SLP382 T10961177 52006 IEM_DS3505
ZBYN,1995-01-27 01:00,ZBYN 270100Z AUTO 00000KT 7SM M12/M19 A3047 RMK T11201190 IEM_DS3505
ZBYN,1995-01-27 02:00,ZBYN 270200Z AUTO 00000KT 7SM M05/M22 A3047 RMK T10501220 IEM_DS3505
ZBYN,1995-01-27 03:00,ZBYN 270300Z AUTO 36004KT 9SM M02/M20 A3047 RMK SLP377 T10241195 52007 IEM_DS3505
ZBYN,1995-01-27 04:00,ZBYN 270400Z AUTO 30006KT 7SM 00/M14 A3045 RMK T00001140 IEM_DS3505
ZBYN,1995-01-27 05:00,ZBYN 270500Z AUTO 00000KT 7SM 02/M13 A3042 RMK T00201130 IEM_DS3505
ZBYN,1995-01-27 06:00,ZBYN 270600Z AUTO 25004KT 9SM 03/M21 A3039 RMK SLP338 T00321207 57029 IEM_DS3505
ZBYN,1995-01-27 07:00,ZBYN 270700Z AUTO 21006KT 7SM 02/M10 A3036 RMK T00201100 IEM_DS3505
ZBYN,1995-01-27 08:00,ZBYN 270800Z AUTO 24008KT 7SM 03/M10 A3036 RMK T00301100 IEM_DS3505
ZBYN,1995-01-27 09:00,ZBYN 270900Z AUTO 22006KT 9SM 01/M20 A3039 RMK SLP340 T00121197 57005 IEM_DS3505
ZBYN,1995-01-27 10:00,ZBYN 271000Z AUTO 00000KT 7SM 00/M18 A3039 RMK T00001180 IEM_DS3505
ZBYN,1995-01-27 11:00,ZBYN 271100Z AUTO 02004KT 7SM M04/M20 A3039 RMK T10401200 IEM_DS3505
ZBYN,1995-01-27 12:00,ZBYN 271200Z AUTO 34002KT 6SM M05/M20 A3039 RMK SLP361 T10461198 52009 IEM_DS3505
ZBYN,1995-01-27 13:00,ZBYN 271300Z AUTO 00000KT 2 1/2SM M08/M21 A3042 RMK T10801210 IEM_DS3505
ZBYN,1995-01-27 14:00,ZBYN 271400Z AUTO 00000KT 4SM M08/M22 A3045 RMK T10801220 IEM_DS3505
ZBYN,1995-01-27 15:00,ZBYN 271500Z AUTO 34006KT 6SM M05/M22 A3045 RMK SLP359 T10481224 52011 IEM_DS3505
ZBYN,1995-01-27 16:00,ZBYN 271600Z AUTO 00000KT 4SM M09/M23 A3045 RMK T10901230 IEM_DS3505
ZBYN,1995-01-27 17:00,ZBYN 271700Z AUTO 00000KT 4SM M10/M21 A3045 RMK T11001210 IEM_DS3505
ZBYN,1995-01-27 18:00,ZBYN 271800Z AUTO 6SM M09/M20 A3045 RMK SLP358 T10901199 52001 IEM_DS3505
ZBYN,1995-01-27 19:00,ZBYN 271900Z AUTO 00000KT 4SM M12/M22 A3045 RMK T11201220 IEM_DS3505
ZBYN,1995-01-27 20:00,ZBYN 272000Z AUTO 00000KT 4SM M13/M22 A3045 RMK T11301220 IEM_DS3505
ZBYN,1995-01-27 21:00,ZBYN 272100Z AUTO 16004KT 6SM M13/M19 A3045 RMK SLP364 T11321191 57005 IEM_DS3505
ZBYN,1995-01-27 22:00,ZBYN 272200Z AUTO 00000KT 7SM M14/M23 A3045 RMK T11401230 IEM_DS3505
ZBYN,1995-01-27 23:00,ZBYN 272300Z AUTO 00000KT 7SM M14/M23 A3045 RMK T11401230 IEM_DS3505
ZBYN,1995-01-28 00:00,ZBYN 280000Z AUTO 14002KT 7SM M14/M18 A3047 RMK SLP396 T11411182 52017 IEM_DS3505
ZBYN,1995-01-28 01:00,ZBYN 280100Z AUTO 00000KT 7SM M12/M18 A3047 RMK T11201180 IEM_DS3505
ZBYN,1995-01-28 02:00,ZBYN 280200Z AUTO 00000KT 7SM M07/M23 A3047 RMK T10701230 IEM_DS3505
ZBYN,1995-01-28 03:00,ZBYN 280300Z AUTO 29002KT 6SM M03/M14 A3047 RMK SLP377 T10321137 52002 IEM_DS3505
ZBYN,1995-01-28 04:00,ZBYN 280400Z AUTO 00000KT 7SM M01/M17 A3045 RMK T10101170 IEM_DS3505
ZBYN,1995-01-28 05:00,ZBYN 280500Z AUTO 26004KT 7SM 00/M13 A3042 RMK T00001130 IEM_DS3505
ZBYN,1995-01-28 06:00,ZBYN 280600Z AUTO 20002KT 6SM 02/M14 A3039 RMK SLP342 T00211144 57030 IEM_DS3505
ZBYN,1995-01-28 07:00,ZBYN 280700Z AUTO 19008KT 7SM 02/M13 A3036 RMK T00201130 IEM_DS3505
ZBYN,1995-01-28 08:00,ZBYN 280800Z AUTO 19008KT 7SM 03/M15 A3036 RMK T00301150 IEM_DS3505
ZBYN,1995-01-28 09:00,ZBYN 280900Z AUTO 18006KT 6SM 01/M16 A3036 RMK SLP339 T00141155 57011 IEM_DS3505
ZBYN,1995-01-28 10:00,ZBYN 281000Z AUTO 00000KT 7SM M01/M12 A3036 RMK T10101120 IEM_DS3505
ZBYN,1995-01-28 11:00,ZBYN 281100Z AUTO 00000KT 7SM M03/M21 A3039 RMK T10301210 IEM_DS3505
ZBYN,1995-01-28 12:00,ZBYN 281200Z AUTO 32004KT 6SM M05/M17 A3039 RMK SLP366 T10471167 52012 IEM_DS3505
ZBYN,1995-01-28 13:00,ZBYN 281300Z AUTO 00000KT 7SM M04/M19 A3042 RMK T10401190 IEM_DS3505
ZBYN,1995-01-28 14:00,ZBYN 281400Z AUTO 00000KT 7SM M08/M20 A3042 RMK T10801200 IEM_DS3505
ZBYN,1995-01-28 15:00,ZBYN 281500Z AUTO 36006KT 6SM M03/M15 A3045 RMK SLP360 T10331152 52016 IEM_DS3505
ZBYN,1995-01-28 16:00,ZBYN 281600Z AUTO 00000KT 7SM M07/M19 A3045 RMK T10701190 IEM_DS3505
ZBYN,1995-01-28 17:00,ZBYN 281700Z AUTO 00000KT 7SM M09/M18 A3045 RMK T10901180 IEM_DS3505
ZBYN,1995-01-28 18:00,ZBYN 281800Z AUTO 32006KT 6SM M07/M17 A3047 RMK SLP364 T10681172 52006 IEM_DS3505
ZBYN,1995-01-28 19:00,ZBYN 281900Z AUTO 00000KT 7SM M10/M18 A3045 RMK T11001180 IEM_DS3505
ZBYN,1995-01-28 20:00,ZBYN 282000Z AUTO 00000KT 7SM M12/M18 A3045 RMK T11201180 IEM_DS3505
ZBYN,1995-01-28 21:00,ZBYN 282100Z AUTO 02006KT 6SM M10/M18 A3045 RMK SLP368 T10961177 57002 IEM_DS3505
ZBYN,1995-01-28 22:00,ZBYN 282200Z AUTO 00000KT 7SM M12/M17 A3045 RMK T11201170 IEM_DS3505
ZBYN,1995-01-28 23:00,ZBYN 282300Z AUTO 00000KT 7SM M13/M18 A3045 RMK T11301180 IEM_DS3505
ZBYN,1995-01-29 00:00,ZBYN 290000Z AUTO 36006KT 6SM M07/M15 A3047 RMK SLP376 T10661154 52002 IEM_DS3505
ZBYN,1995-01-29 01:00,ZBYN 290100Z AUTO 00000KT 6SM M09/M16 A3047 RMK T10901160 IEM_DS3505
ZBYN,1995-01-29 02:00,ZBYN 290200Z AUTO 16004KT 6SM M07/M16 A3047 RMK T10701160 IEM_DS3505
ZBYN,1995-01-29 03:00,ZBYN 290300Z AUTO 11006KT 6SM M04/M17 A3047 RMK SLP371 T10361166 52003 IEM_DS3505
ZBYN,1995-01-29 04:00,ZBYN 290400Z AUTO 00000KT 6SM M01/M18 A3045 RMK T10101180 IEM_DS3505
ZBYN,1995-01-29 05:00,ZBYN 290500Z AUTO 21006KT 6SM 00/M19 A3039 RMK T00001190 IEM_DS3505
ZBYN,1995-01-29 06:00,ZBYN 290600Z AUTO 32004KT 6SM 01/M16 A3036 RMK SLP336 T00111164 57030 IEM_DS3505
ZBYN,1995-01-29 07:00,ZBYN 290700Z AUTO 26006KT 6SM 02/M11 A3033 RMK T00201110 IEM_DS3505
ZBYN,1995-01-29 08:00,ZBYN 290800Z AUTO 20004KT 6SM 02/M19 A3033 RMK T00201190 IEM_DS3505
ZBYN,1995-01-29 09:00,ZBYN 290900Z AUTO 00000KT 6SM 02/M16 A3033 RMK SLP330 T00221156 57008 IEM_DS3505
ZBYN,1995-01-29 10:00,ZBYN 291000Z AUTO 22004KT 6SM 00/M19 A3036 RMK T00001190 IEM_DS3505
ZBYN,1995-01-29 11:00,ZBYN 291100Z AUTO 01004KT 6SM M02/M16 A3036 RMK T10201160 IEM_DS3505
ZBYN,1995-01-29 12:00,ZBYN 291200Z AUTO 34004KT 6SM M03/M16 A3039 RMK SLP347 T10321164 52011 IEM_DS3505
ZBYN,1995-01-29 13:00,ZBYN 291300Z AUTO 00000KT 7SM M06/M19 A3039 RMK T10601190 IEM_DS3505
ZBYN,1995-01-29 14:00,ZBYN 291400Z AUTO 00000KT 7SM M08/M18 A3042 RMK T10801180 IEM_DS3505
ZBYN,1995-01-29 15:00,ZBYN 291500Z AUTO 34004KT 6SM M04/M17 A3042 RMK SLP356 T10401167 52012 IEM_DS3505
ZBYN,1995-01-29 18:00,ZBYN 291800Z AUTO 00000KT 6SM M10/M16 RMK SLP371 T11021157 52011 IEM_DS3505
ZBYN,1995-01-29 21:00,ZBYN 292100Z AUTO 00000KT 6SM M11/M16 RMK SLP363 T11131155 57007 IEM_DS3505
ZBYN,1995-01-30 00:00,ZBYN 300000Z AUTO 09002KT 6SM M14/M16 RMK SLP386 T11351165 52008 IEM_DS3505
ZBYN,1995-01-30 02:00,ZBYN 300200Z AUTO 00000KT 7SM M06/M14 A3050 RMK T10601140 IEM_DS3505
ZBYN,1995-01-30 03:00,ZBYN 300300Z AUTO 20004KT 6SM M02/M16 A3047 RMK SLP373 T10191164 52007 IEM_DS3505
ZBYN,1995-01-30 04:00,ZBYN 300400Z AUTO 00000KT 7SM 00/M10 A3045 RMK T00001100 IEM_DS3505
ZBYN,1995-01-30 05:00,ZBYN 300500Z AUTO 00000KT 7SM 02/M16 A3042 RMK T00201160 IEM_DS3505
ZBYN,1995-01-30 06:00,ZBYN 300600Z AUTO 11006KT 6SM 02/M21 A3039 RMK SLP348 T00251213 57026 IEM_DS3505
ZBYN,1995-01-30 07:00,ZBYN 300700Z AUTO 00000KT 7SM 04/M16 A3036 RMK T00401160 IEM_DS3505
ZBYN,1995-01-30 08:00,ZBYN 300800Z AUTO 31006KT 7SM 04/M13 A3036 RMK T00401130 IEM_DS3505
ZBYN,1995-01-30 09:00,ZBYN 300900Z AUTO 32010KT 9SM 04/ A3039 RMK SLP345 57003 IEM_DS3505
ZBYN,1995-01-30 10:00,ZBYN 301000Z AUTO 36004KT 7SM 01/M15 A3042 RMK T00101150 IEM_DS3505
ZBYN,1995-01-30 11:00,ZBYN 301100Z AUTO 36004KT 7SM 00/M12 A3045 RMK T00001120 IEM_DS3505
ZBYN,1995-01-30 12:00,ZBYN 301200Z AUTO 34004KT 6SM M01/ A3047 RMK SLP389 52029 IEM_DS3505
ZBYN,1995-01-30 13:00,ZBYN 301300Z AUTO 04012KT 7SM M01/M13 A3050 RMK T10101130 IEM_DS3505
ZBYN,1995-01-30 14:00,ZBYN 301400Z AUTO 36010KT 7SM M02/M16 A3050 RMK T10201160 IEM_DS3505
ZBYN,1995-01-30 15:00,ZBYN 301500Z AUTO 36008KT 6SM M03/M24 A3050 RMK SLP387 T10301237 52014 IEM_DS3505
ZBYN,1995-01-30 16:00,ZBYN 301600Z AUTO 32010KT 7SM M04/M24 A3053 RMK T10401240 IEM_DS3505
ZBYN,1995-01-30 17:00,ZBYN 301700Z AUTO 02004KT 7SM M05/M23 A3056 RMK T10501230 IEM_DS3505
ZBYN,1995-01-30 18:00,ZBYN 301800Z AUTO 34004KT 6SM M06/M21 A3056 RMK SLP395 T10631214 52009 IEM_DS3505
ZBYN,1995-01-30 19:00,ZBYN 301900Z AUTO 32006KT 7SM M07/M18 A3056 RMK T10701180 IEM_DS3505
ZBYN,1995-01-30 20:00,ZBYN 302000Z AUTO 32006KT 7SM M07/M21 A3056 RMK T10701210 IEM_DS3505
ZBYN,1995-01-30 21:00,ZBYN 302100Z AUTO 34004KT 6SM M08/M18 A3056 RMK SLP402 T10801180 52006 IEM_DS3505
ZBYN,1995-01-30 22:00,ZBYN 302200Z AUTO 00000KT 7SM M09/M16 A3056 RMK T10901160 IEM_DS3505
ZBYN,1995-01-30 23:00,ZBYN 302300Z AUTO 30006KT 7SM M09/M18 A3059 RMK T10901180 IEM_DS3505
ZBYN,1995-01-31 00:00,ZBYN 310000Z AUTO 34006KT 6SM M08/M17 A3062 RMK SLP425 T10841172 52012 IEM_DS3505
ZBYN,1995-01-31 01:00,ZBYN 310100Z AUTO 31008KT 7SM M07/M21 A3062 RMK T10701210 IEM_DS3505
ZBYN,1995-01-31 02:00,ZBYN 310200Z AUTO 32010KT 7SM M06/M20 A3062 RMK T10601200 IEM_DS3505
ZBYN,1995-01-31 03:00,ZBYN 310300Z AUTO 34010KT 6SM M04/M18 A3062 RMK SLP423 T10451179 52009 IEM_DS3505
ZBYN,1995-01-31 04:00,ZBYN 310400Z AUTO 33008KT 7SM M03/M18 A3062 RMK T10301180 IEM_DS3505
ZBYN,1995-01-31 05:00,ZBYN 310500Z AUTO 36006KT 7SM M01/M17 A3059 RMK T10101170 IEM_DS3505
ZBYN,1995-01-31 06:00,ZBYN 310600Z AUTO 36006KT 6SM M01/M19 A3056 RMK SLP417 T10081186 57013 IEM_DS3505
ZBYN,1995-01-31 07:00,ZBYN 310700Z AUTO 06006KT 7SM 00/M15 A3056 RMK T00001150 IEM_DS3505
ZBYN,1995-01-31 08:00,ZBYN 310800Z AUTO 22006KT 7SM 01/M15 A3056 RMK T00101150 IEM_DS3505
ZBYN,1995-01-31 09:00,ZBYN 310900Z AUTO 22006KT 6SM M00/M22 A3056 RMK SLP415 T10021218 57003 IEM_DS3505
ZBYN,1995-01-31 10:00,ZBYN 311000Z AUTO 23004KT 7SM M03/M18 A3056 RMK T10301180 IEM_DS3505
ZBYN,1995-01-31 11:00,ZBYN 311100Z AUTO 00000KT 7SM M06/M19 A3059 RMK T10601190 IEM_DS3505
ZBYN,1995-01-31 12:00,ZBYN 311200Z AUTO 32004KT 6SM M07/M21 A3062 RMK SLP438 T10671214 52009 IEM_DS3505
ZBYN,1995-01-31 13:00,ZBYN 311300Z AUTO 00000KT 7SM M09/M23 A3065 RMK T10901230 IEM_DS3505
ZBYN,1995-01-31 14:00,ZBYN 311400Z AUTO 13004KT 7SM M10/M20 A3065 RMK T11001200 IEM_DS3505
ZBYN,1995-01-31 15:00,ZBYN 311500Z AUTO 34004KT 6SM M06/M16 A3065 RMK SLP442 T10561164 52012 IEM_DS3505
ZBYN,1995-01-31 16:00,ZBYN 311600Z AUTO 06006KT 7SM M10/M19 A3065 RMK T11001190 IEM_DS3505
ZBYN,1995-01-31 17:00,ZBYN 311700Z AUTO 12004KT 7SM M12/M20 A3065 RMK T11201200 IEM_DS3505
ZBYN,1995-01-31 18:00,ZBYN 311800Z AUTO 00000KT 6SM M11/M18 A3065 RMK SLP441 T11061177 57003 IEM_DS3505
ZBYN,1995-01-31 19:00,ZBYN 311900Z AUTO 08004KT 7SM M12/M20 A3065 RMK T11201200 IEM_DS3505
ZBYN,1995-01-31 20:00,ZBYN 312000Z AUTO 00000KT 7SM M13/M20 A3062 RMK T11301200 IEM_DS3505
ZBYN,1995-01-31 21:00,ZBYN 312100Z AUTO 11002KT 6SM M14/M19 A3065 RMK SLP445 T11361188 57001 IEM_DS3505
ZBYN,1995-01-31 22:00,ZBYN 312200Z AUTO 00000KT 7SM M14/M20 A3062 RMK T11401200 IEM_DS3505
ZBYN,1995-01-31 23:00,ZBYN 312300Z AUTO 00000KT 7SM M14/M20 A3065 RMK T11401200 IEM_DS3505
ZBYN,1995-02-01 00:00,ZBYN 010000Z AUTO 00000KT 6SM M14/M18 A3065 RMK SLP460 T11431181 52001 IEM_DS3505
ZBYN,1995-02-01 01:00,ZBYN 010100Z AUTO 00000KT 6SM M12/M17 A3065 RMK T11201170 IEM_DS3505
ZBYN,1995-02-01 02:00,ZBYN 010200Z AUTO 00000KT 6SM M09/M21 A3065 RMK T10901210 IEM_DS3505
ZBYN,1995-02-01 03:00,ZBYN 010300Z AUTO 11004KT 6SM M06/M15 A3062 RMK SLP439 T10641151 57003 IEM_DS3505
ZBYN,1995-02-01 04:00,ZBYN 010400Z AUTO 00000KT 6SM M04/M19 A3059 RMK T10401190 IEM_DS3505
ZBYN,1995-02-01 05:00,ZBYN 010500Z AUTO 00000KT 6SM M01/M15 A3056 RMK T10101150 IEM_DS3505
ZBYN,1995-02-01 06:00,ZBYN 010600Z AUTO 18006KT 6SM M01/M16 A3053 RMK SLP400 T10091155 57035 IEM_DS3505
ZBYN,1995-02-01 07:00,ZBYN 010700Z AUTO 00000KT 6SM 02/M13 A3050 RMK T00201130 IEM_DS3505
ZBYN,1995-02-01 08:00,ZBYN 010800Z AUTO 17008KT 6SM 03/M15 A3050 RMK T00301150 IEM_DS3505
ZBYN,1995-02-01 09:00,ZBYN 010900Z AUTO 16008KT 6SM M00/M21 A3047 RMK SLP392 T10021206 57011 IEM_DS3505
ZBYN,1995-02-01 10:00,ZBYN 011000Z AUTO 00000KT 6SM M03/M23 A3047 RMK T10301230 IEM_DS3505
ZBYN,1995-02-01 11:00,ZBYN 011100Z AUTO 00000KT 6SM M05/M23 A3050 RMK T10501230 IEM_DS3505
ZBYN,1995-02-01 12:00,ZBYN 011200Z AUTO 29002KT 6SM M05/M18 A3050 RMK SLP405 T10491179 52002 IEM_DS3505
ZBYN,1995-02-01 13:00,ZBYN 011300Z AUTO 00000KT 6SM M08/M22 A3050 RMK T10801220 IEM_DS3505
ZBYN,1995-02-01 14:00,ZBYN 011400Z AUTO 11006KT 6SM M09/M20 A3050 RMK T10901200 IEM_DS3505
ZBYN,1995-02-01 15:00,ZBYN 011500Z AUTO 18004KT 6SM M08/M24 A3050 RMK SLP396 T10841236 54000 IEM_DS3505
ZBYN,1995-02-01 16:00,ZBYN 011600Z AUTO 00000KT 6SM M09/M20 A3047 RMK T10901200 IEM_DS3505
ZBYN,1995-02-01 17:00,ZBYN 011700Z AUTO 00000KT 6SM M10/M20 A3047 RMK T11001200 IEM_DS3505
ZBYN,1995-02-01 18:00,ZBYN 011800Z AUTO 29002KT 6SM M10/M17 A3047 RMK SLP383 T11051166 57006 IEM_DS3505
ZBYN,1995-02-01 19:00,ZBYN 011900Z AUTO 00000KT 6SM M11/M19 A3047 RMK T11101190 IEM_DS3505
ZBYN,1995-02-01 20:00,ZBYN 012000Z AUTO 00000KT 6SM M11/M18 A3045 RMK T11101180 IEM_DS3505
ZBYN,1995-02-01 21:00,ZBYN 012100Z AUTO 34004KT 6SM M09/M16 A3042 RMK SLP366 T10921157 57012 IEM_DS3505
ZBYN,1995-02-01 22:00,ZBYN 012200Z AUTO 00000KT 6SM M12/M18 A3042 RMK T11201180 IEM_DS3505
ZBYN,1995-02-01 23:00,ZBYN 012300Z AUTO 00000KT 7SM M12/M18 A3042 RMK T11201180 IEM_DS3505
ZBYN,1995-02-02 00:00,ZBYN 020000Z AUTO 34004KT 6SM M10/M17 A3045 RMK SLP373 T10961170 57002 IEM_DS3505
ZBYN,1995-02-02 01:00,ZBYN 020100Z AUTO 00000KT 7SM M11/M16 A3045 RMK T11101160 IEM_DS3505
ZBYN,1995-02-02 02:00,ZBYN 020200Z AUTO 00000KT 7SM M06/M19 A3045 RMK T10601190 IEM_DS3505
ZBYN,1995-02-02 03:00,ZBYN 020300Z AUTO 14002KT 6SM M02/M19 A3045 RMK SLP385 T10211186 52014 IEM_DS3505
ZBYN,1995-02-02 04:00,ZBYN 020400Z AUTO 19004KT 7SM 00/M12 A3045 RMK T00001120 IEM_DS3505
ZBYN,1995-02-02 05:00,ZBYN 020500Z AUTO 14004KT 7SM 02/M07 A3042 RMK T00201070 IEM_DS3505
ZBYN,1995-02-02 06:00,ZBYN 020600Z AUTO 18008KT 6SM 03/M15 A3039 RMK SLP355 T00291147 57019 IEM_DS3505
ZBYN,1995-02-02 07:00,ZBYN 020700Z AUTO 21006KT 7SM 04/M09 A3036 RMK T00401090 IEM_DS3505
ZBYN,1995-02-02 08:00,ZBYN 020800Z AUTO 19008KT 7SM 05/M15 A3036 RMK T00501150 IEM_DS3505
ZBYN,1995-02-02 09:00,ZBYN 020900Z AUTO 18006KT 7SM 03/M15 A3036 RMK SLP339 T00321146 57011 IEM_DS3505
ZBYN,1995-02-02 10:00,ZBYN 021000Z AUTO 00000KT 7SM 00/M16 A3039 RMK T00001160 IEM_DS3505
ZBYN,1995-02-02 11:00,ZBYN 021100Z AUTO 00000KT 7SM M01/M19 A3042 RMK T10101190 IEM_DS3505
ZBYN,1995-02-02 12:00,ZBYN 021200Z AUTO 32006KT 6SM M02/M13 A3045 RMK SLP371 T10211128 52019 IEM_DS3505
ZBYN,1995-02-02 15:00,ZBYN 021500Z AUTO 16004KT 6SM M04/M15 A3050 RMK SLP382 T10421150 52019 IEM_DS3505
ZBYN,1995-02-02 17:00,ZBYN 021700Z AUTO 07006KT 6SM M05/M16 A3053 RMK T10501160 IEM_DS3505
ZBYN,1995-02-02 18:00,ZBYN 021800Z AUTO 18004KT 6SM M05/M15 A3053 RMK SLP383 T10521149 52008 IEM_DS3505
ZBYN,1995-02-02 19:00,ZBYN 021900Z AUTO 12006KT 6SM M05/M14 A3053 RMK T10501140 IEM_DS3505
ZBYN,1995-02-02 20:00,ZBYN 022000Z AUTO 12006KT 6SM M06/M13 A3050 RMK T10601130 IEM_DS3505
ZBYN,1995-02-02 21:00,ZBYN 022100Z AUTO 02006KT 6SM M04/M18 A3050 RMK SLP377 T10441176 57004 IEM_DS3505
ZBYN,1995-02-02 22:00,ZBYN 022200Z AUTO 00000KT 6SM M06/M15 A3050 RMK T10601150 IEM_DS3505
ZBYN,1995-02-02 23:00,ZBYN 022300Z AUTO 00000KT 6SM M07/M16 A3050 RMK T10701160 IEM_DS3505
ZBYN,1995-02-03 00:00,ZBYN 030000Z AUTO 36006KT 9SM M06/M19 A3053 RMK SLP392 T10601187 52002 IEM_DS3505
ZBYN,1995-02-03 01:00,ZBYN 030100Z AUTO 36006KT 6SM M05/M19 A3053 RMK T10501190 IEM_DS3505
ZBYN,1995-02-03 02:00,ZBYN 030200Z AUTO 36012KT 6SM M05/M23 A3053 RMK T10501230 IEM_DS3505
ZBYN,1995-02-03 03:00,ZBYN 030300Z AUTO 36006KT 9SM M04/M21 A3053 RMK SLP398 T10401212 52005 IEM_DS3505
ZBYN,1995-02-03 04:00,ZBYN 030400Z AUTO 33004KT 6SM M02/M14 A3050 RMK T10201140 IEM_DS3505
ZBYN,1995-02-03 05:00,ZBYN 030500Z AUTO 22006KT 6SM M02/M17 A3047 RMK T10201170 IEM_DS3505
ZBYN,1995-02-03 06:00,ZBYN 030600Z AUTO 29012KT 12SM M01/M21 A3045 RMK SLP362 T10061208 57028 IEM_DS3505
ZBYN,1995-02-03 07:00,ZBYN 030700Z AUTO 29010KT 6SM 00/M13 A3042 RMK T00001130 IEM_DS3505
ZBYN,1995-02-03 08:00,ZBYN 030800Z AUTO 29016KT 6SM 00/M12 A3042 RMK T00001120 IEM_DS3505
ZBYN,1995-02-03 09:00,ZBYN 030900Z AUTO 29017KT 12SM M02/ RMK SLP362 57001 IEM_DS3505
ZBYN,1995-02-03 10:00,ZBYN 031000Z AUTO 35008KT 6SM M03/M14 A3047 RMK T10301140 IEM_DS3505
ZBYN,1995-02-03 11:00,ZBYN 031100Z AUTO 34004KT 7SM M05/M20 A3050 RMK T10501200 IEM_DS3505
ZBYN,1995-02-03 12:00,ZBYN 031200Z AUTO 29012KT 12SM M01/M21 A3056 RMK SLP362 T10061208 57028 IEM_DS3505
ZBYN,1995-02-03 13:00,ZBYN 031300Z AUTO 31008KT 7SM M07/M19 A3056 RMK T10701190 IEM_DS3505
ZBYN,1995-02-03 14:00,ZBYN 031400Z AUTO 36004KT 7SM M07/M20 A3059 RMK T10701200 IEM_DS3505
ZBYN,1995-02-03 15:00,ZBYN 031500Z AUTO 32010KT 12SM M08/M21 A3059 RMK SLP416 T10811208 52008 IEM_DS3505
ZBYN,1995-02-03 16:00,ZBYN 031600Z AUTO 00000KT 7SM M10/M23 A3059 RMK T11001230 IEM_DS3505
ZBYN,1995-02-03 17:00,ZBYN 031700Z AUTO 33004KT 7SM M10/M22 A3056 RMK T11001220 IEM_DS3505
ZBYN,1995-02-03 18:00,ZBYN 031800Z AUTO 36004KT 12SM A3056 RMK SLP417 52002 IEM_DS3505
ZBYN,1995-02-03 19:00,ZBYN 031900Z AUTO 00000KT 7SM M13/M24 A3056 RMK T11301240 IEM_DS3505
ZBYN,1995-02-03 20:00,ZBYN 032000Z AUTO 00000KT 7SM M14/M24 A3056 RMK T11401240 IEM_DS3505
ZBYN,1995-02-03 21:00,ZBYN 032100Z AUTO 14002KT 12SM M14/M23 RMK SLP417 T11401226 57007 IEM_DS3505
ZBYN,1995-02-03 22:00,ZBYN 032200Z AUTO 00000KT 7SM M14/M24 A3056 RMK T11401240 IEM_DS3505
ZBYN,1995-02-03 23:00,ZBYN 032300Z AUTO 00000KT 7SM M15/M22 A3056 RMK T11501220 IEM_DS3505
ZBYN,1995-02-04 00:00,ZBYN 040000Z AUTO 16004KT 12SM M15/M22 A3056 RMK SLP432 T11471215 52004 IEM_DS3505
ZBYN,1995-02-04 01:00,ZBYN 040100Z AUTO 00000KT 7SM M12/M18 A3059 RMK T11201180 IEM_DS3505
ZBYN,1995-02-04 02:00,ZBYN 040200Z AUTO 00000KT 7SM M08/M23 A3059 RMK T10801230 IEM_DS3505
ZBYN,1995-02-04 03:00,ZBYN 040300Z AUTO 14006KT 6SM M07/M20 A3056 RMK SLP424 T10681197 52003 IEM_DS3505
ZBYN,1995-02-04 04:00,ZBYN 040400Z AUTO 15004KT 7SM M06/M16 A3056 RMK T10601160 IEM_DS3505
ZBYN,1995-02-04 05:00,ZBYN 040500Z AUTO 00000KT 7SM M02/M14 A3053 RMK T10201140 IEM_DS3505
ZBYN,1995-02-04 06:00,ZBYN 040600Z AUTO 14006KT 9SM M02/M18 A3047 RMK SLP389 T10161181 57027 IEM_DS3505
ZBYN,1995-02-04 07:00,ZBYN 040700Z AUTO 18008KT 7SM 00/M12 A3047 RMK T00001120 IEM_DS3505
ZBYN,1995-02-04 08:00,ZBYN 040800Z AUTO 22008KT 7SM 01/M16 A3045 RMK T00101160 IEM_DS3505
ZBYN,1995-02-04 09:00,ZBYN 040900Z AUTO 18008KT 9SM M00/M20 A3045 RMK SLP380 T10021205 57011 IEM_DS3505
ZBYN,1995-02-04 10:00,ZBYN 041000Z AUTO 00000KT 7SM M01/M23 A3045 RMK T10101230 IEM_DS3505
ZBYN,1995-02-04 11:00,ZBYN 041100Z AUTO 00000KT 7SM M04/M21 A3045 RMK T10401210 IEM_DS3505
ZBYN,1995-02-04 12:00,ZBYN 041200Z AUTO 32006KT 9SM M04/M20 A3047 RMK SLP395 T10381205 52006 IEM_DS3505
ZBYN,1995-02-04 13:00,ZBYN 041300Z AUTO 26006KT 7SM M07/M25 A3050 RMK T10701250 IEM_DS3505
ZBYN,1995-02-04 14:00,ZBYN 041400Z AUTO 24006KT 7SM M07/M24 A3050 RMK T10701240 IEM_DS3505
ZBYN,1995-02-04 15:00,ZBYN 041500Z AUTO 16006KT 6SM M09/M24 A3050 RMK SLP400 T10881235 52009 IEM_DS3505
ZBYN,1995-02-04 16:00,ZBYN 041600Z AUTO 00000KT 7SM M10/M21 A3050 RMK T11001210 IEM_DS3505
ZBYN,1995-02-04 18:00,ZBYN 041800Z AUTO 00000KT 6SM M12/M22 A3050 RMK SLP392 T11161219 57003 IEM_DS3505
ZBYN,1995-02-04 19:00,ZBYN 041900Z AUTO 09004KT 7SM M13/M22 A3050 RMK T11301220 IEM_DS3505
ZBYN,1995-02-04 20:00,ZBYN 042000Z AUTO 09006KT 7SM M13/M21 A3047 RMK T11301210 IEM_DS3505
ZBYN,1995-02-04 21:00,ZBYN 042100Z AUTO 00000KT 6SM M14/M21 A3047 RMK SLP387 T11421213 57006 IEM_DS3505
ZBYN,1995-02-04 22:00,ZBYN 042200Z AUTO 00000KT 7SM M13/M22 A3047 RMK T11301220 IEM_DS3505
ZBYN,1995-02-04 23:00,ZBYN 042300Z AUTO 00000KT 7SM M16/M22 A3047 RMK T11601220 IEM_DS3505
ZBYN,1995-02-05 00:00,ZBYN 050000Z AUTO 32002KT 6SM M17/M22 A3047 RMK SLP404 T11661220 52004 IEM_DS3505
ZBYN,1995-02-05 01:00,ZBYN 050100Z AUTO 00000KT 7SM M12/M18 A3050 RMK T11201180 IEM_DS3505
ZBYN,1995-02-05 02:00,ZBYN 050200Z AUTO 00000KT 7SM M06/M23 A3047 RMK T10601230 IEM_DS3505
ZBYN,1995-02-05 03:00,ZBYN 050300Z AUTO 16006KT 6SM M05/M21 A3047 RMK SLP389 T10491206 57001 IEM_DS3505
ZBYN,1995-02-05 04:00,ZBYN 050400Z AUTO 22004KT 7SM M01/M24 A3045 RMK T10101240 IEM_DS3505
ZBYN,1995-02-05 05:00,ZBYN 050500Z AUTO 26006KT 7SM 01/M19 A3039 RMK T00101190 IEM_DS3505
ZBYN,1995-02-05 06:00,ZBYN 050600Z AUTO 18006KT 6SM 02/M20 A3036 RMK SLP347 T00161204 57032 IEM_DS3505
ZBYN,1995-02-05 07:00,ZBYN 050700Z AUTO 17006KT 7SM 04/M13 A3036 RMK T00401130 IEM_DS3505
ZBYN,1995-02-05 08:00,ZBYN 050800Z AUTO 19006KT 7SM 04/M15 A3033 RMK T00401150 IEM_DS3505
ZBYN,1995-02-05 09:00,ZBYN 050900Z AUTO 18008KT 6SM 03/M23 A3033 RMK SLP377 T00321232 57011 IEM_DS3505
ZBYN,1995-02-05 10:00,ZBYN 051000Z AUTO 00000KT 7SM 01/M24 A3033 RMK T00101240 IEM_DS3505
ZBYN,1995-02-05 11:00,ZBYN 051100Z AUTO 06006KT 7SM M03/M23 A3036 RMK T10301230 IEM_DS3505
ZBYN,1995-02-05 12:00,ZBYN 051200Z AUTO 34004KT 12SM M03/M20 A3036 RMK SLP357 T10281196 52004 IEM_DS3505
ZBYN,1995-02-05 13:00,ZBYN 051300Z AUTO 00000KT 7SM M08/M22 A3039 RMK T10801220 IEM_DS3505
ZBYN,1995-02-05 14:00,ZBYN 051400Z AUTO 00000KT 7SM M08/M22 A3039 RMK T10801220 IEM_DS3505
ZBYN,1995-02-05 15:00,ZBYN 051500Z AUTO 00000KT 12SM M09/M23 A3039 RMK SLP356 T10861229 52009 IEM_DS3505
ZBYN,1995-02-05 16:00,ZBYN 051600Z AUTO 00000KT 7SM M09/M24 A3042 RMK T10901240 IEM_DS3505
ZBYN,1995-02-05 17:00,ZBYN 051700Z AUTO 09004KT 7SM M09/M22 A3042 RMK T10901220 IEM_DS3505
ZBYN,1995-02-05 18:00,ZBYN 051800Z AUTO 00000KT 9SM M10/M21 A3039 RMK SLP349 T11011211 52002 IEM_DS3505
ZBYN,1995-02-05 19:00,ZBYN 051900Z AUTO 00000KT 7SM M11/M20 A3039 RMK T11101200 IEM_DS3505
ZBYN,1995-02-05 20:00,ZBYN 052000Z AUTO 09004KT 7SM M11/M20 A3039 RMK T11101200 IEM_DS3505
ZBYN,1995-02-05 21:00,ZBYN 052100Z AUTO 34002KT 9SM M12/M18 A3039 RMK SLP347 T11171185 57001 IEM_DS3505
ZBYN,1995-02-05 22:00,ZBYN 052200Z AUTO 00000KT 7SM M13/M21 A3039 RMK T11301210 IEM_DS3505
ZBYN,1995-02-05 23:00,ZBYN 052300Z AUTO 00000KT 7SM M13/M20 A3042 RMK T11301200 IEM_DS3505
ZBYN,1995-02-06 00:00,ZBYN 060000Z AUTO 00000KT 6SM M13/M19 A3042 RMK SLP367 T11311190 52005 IEM_DS3505
ZBYN,1995-02-06 01:00,ZBYN 060100Z AUTO 00000KT 5SM M10/M16 A3042 RMK T11001160 IEM_DS3505
ZBYN,1995-02-06 02:00,ZBYN 060200Z AUTO 16004KT 7SM M04/M21 A3042 RMK T10401210 IEM_DS3505
ZBYN,1995-02-06 03:00,ZBYN 060300Z AUTO 25004KT 6SM M01/M22 A3042 RMK SLP361 T10071223 52006 IEM_DS3505
ZBYN,1995-02-06 04:00,ZBYN 060400Z AUTO 16004KT 7SM 03/M20 A3039 RMK T00301200 IEM_DS3505
ZBYN,1995-02-06 05:00,ZBYN 060500Z AUTO 00000KT 7SM 04/M13 A3033 RMK T00401130 IEM_DS3505
ZBYN,1995-02-06 06:00,ZBYN 060600Z AUTO 14004KT 6SM 06/M20 A3030 RMK SLP308 T00581204 57040 IEM_DS3505
ZBYN,1995-02-06 07:00,ZBYN 060700Z AUTO 20008KT 7SM 07/M09 A3027 RMK T00701090 IEM_DS3505
ZBYN,1995-02-06 08:00,ZBYN 060800Z AUTO 20008KT 7SM 08/M11 A3024 RMK T00801110 IEM_DS3505
ZBYN,1995-02-06 09:00,ZBYN 060900Z AUTO 18006KT 6SM 06/M21 A3024 RMK SLP292 T00611214 57016 IEM_DS3505
ZBYN,1995-02-06 10:00,ZBYN 061000Z AUTO 00000KT 7SM 04/M17 A3021 RMK T00401170 IEM_DS3505
ZBYN,1995-02-06 11:00,ZBYN 061100Z AUTO 06004KT 4SM M01/M17 A3024 RMK T10101170 IEM_DS3505
ZBYN,1995-02-06 12:00,ZBYN 061200Z AUTO 00000KT 6SM M02/M16 A3024 RMK SLP308 T10201158 57002 IEM_DS3505
ZBYN,1995-02-06 13:00,ZBYN 061300Z AUTO 00000KT 7SM M05/M23 A3021 RMK T10501230 IEM_DS3505
ZBYN,1995-02-06 14:00,ZBYN 061400Z AUTO 13004KT 7SM M07/M18 A3024 RMK T10701180 IEM_DS3505
ZBYN,1995-02-06 15:00,ZBYN 061500Z AUTO 00000KT 6SM M07/M17 A3024 RMK SLP294 T10721171 54000 IEM_DS3505
ZBYN,1995-02-06 17:00,ZBYN 061700Z AUTO 11006KT 7SM M08/M20 A3021 RMK T10801200 IEM_DS3505
ZBYN,1995-02-06 18:00,ZBYN 061800Z AUTO 00000KT 6SM M08/M18 A3021 RMK SLP279 T10821182 57005 IEM_DS3505
ZBYN,1995-02-06 19:00,ZBYN 061900Z AUTO 03004KT 7SM M10/M19 A3021 RMK T11001190 IEM_DS3505
ZBYN,1995-02-06 20:00,ZBYN 062000Z AUTO 00000KT 7SM M11/M18 A3018 RMK T11101180 IEM_DS3505
ZBYN,1995-02-06 21:00,ZBYN 062100Z AUTO 34004KT 6SM M09/M18 A3018 RMK SLP266 T10881178 57012 IEM_DS3505
ZBYN,1995-02-06 22:00,ZBYN 062200Z AUTO 08004KT 7SM M11/M18 A3015 RMK T11101180 IEM_DS3505
ZBYN,1995-02-06 23:00,ZBYN 062300Z AUTO 00000KT 7SM M12/M18 A3015 RMK T11201180 IEM_DS3505
ZBYN,1995-02-07 00:00,ZBYN 070000Z AUTO 32002KT 6SM M08/M18 A3015 RMK SLP273 T10821175 57006 IEM_DS3505
ZBYN,1995-02-07 01:00,ZBYN 070100Z AUTO 00000KT 7SM M09/M14 A3018 RMK T10901140 IEM_DS3505
ZBYN,1995-02-07 02:00,ZBYN 070200Z AUTO 00000KT 7SM M02/M19 A3015 RMK T10201190 IEM_DS3505
ZBYN,1995-02-07 03:00,ZBYN 070300Z AUTO 20004KT 6SM 00/M14 A3015 RMK SLP266 T00011137 57001 IEM_DS3505
ZBYN,1995-02-07 04:00,ZBYN 070400Z AUTO 00000KT 6SM 03/M15 A3012 RMK T00301150 IEM_DS3505
ZBYN,1995-02-07 05:00,ZBYN 070500Z AUTO 19006KT 6SM 05/M22 A3006 RMK T00501220 IEM_DS3505
ZBYN,1995-02-07 06:00,ZBYN 070600Z AUTO 11004KT 6SM 08/M15 A3003 RMK SLP212 T00791154 57038 IEM_DS3505
ZBYN,1995-02-07 07:00,ZBYN 070700Z AUTO 19006KT 6SM 09/M20 A3000 RMK T00901200 IEM_DS3505
ZBYN,1995-02-07 08:00,ZBYN 070800Z AUTO 20006KT 6SM 09/M21 A3000 RMK T00901210 IEM_DS3505
ZBYN,1995-02-07 09:00,ZBYN 070900Z AUTO 18008KT 6SM 07/M21 A3000 RMK SLP208 T00721209 57006 IEM_DS3505
ZBYN,1995-02-07 10:00,ZBYN 071000Z AUTO 00000KT 6SM 05/M20 A3000 RMK T00501200 IEM_DS3505
ZBYN,1995-02-07 11:00,ZBYN 071100Z AUTO 00000KT 6SM 01/M17 A3000 RMK T00101170 IEM_DS3505
ZBYN,1995-02-07 12:00,ZBYN 071200Z AUTO 00000KT 6SM M01/M20 A3003 RMK SLP222 T10131197 54000 IEM_DS3505
ZBYN,1995-02-07 13:00,ZBYN 071300Z AUTO 00000KT 7SM M04/M21 A3003 RMK T10401210 IEM_DS3505
ZBYN,1995-02-07 14:00,ZBYN 071400Z AUTO 00000KT 7SM M03/M17 A3003 RMK T10301170 IEM_DS3505
ZBYN,1995-02-07 15:00,ZBYN 071500Z AUTO 00000KT 6SM M04/M16 A3000 RMK SLP211 T10361164 54000 IEM_DS3505
ZBYN,1995-02-07 16:00,ZBYN 071600Z AUTO 00000KT 6SM M05/M17 A3000 RMK T10501170 IEM_DS3505
ZBYN,1995-02-07 18:00,ZBYN 071800Z AUTO 29002KT 6SM M06/M16 A2997 RMK SLP195 T10561155 57005 IEM_DS3505
ZBYN,1995-02-07 20:00,ZBYN 072000Z AUTO 00000KT 6SM M08/M17 A3000 RMK T10801170 IEM_DS3505
ZBYN,1995-02-07 21:00,ZBYN 072100Z AUTO 34004KT 6SM M07/M14 A2997 RMK SLP199 T10711142 54000 IEM_DS3505
ZBYN,1995-02-07 22:00,ZBYN 072200Z AUTO 00000KT 6SM M08/M17 A3000 RMK T10801170 IEM_DS3505
ZBYN,1995-02-07 23:00,ZBYN 072300Z AUTO 00000KT 6SM M08/M18 A3000 RMK T10801180 IEM_DS3505
ZBYN,1995-02-08 00:00,ZBYN 080000Z AUTO 11002KT 6SM M07/M14 A3003 RMK SLP226 T10721144 52010 IEM_DS3505
ZBYN,1995-02-08 01:00,ZBYN 080100Z AUTO 00000KT 6SM M05/M15 A3006 RMK T10501150 IEM_DS3505
ZBYN,1995-02-08 03:00,ZBYN 080300Z AUTO 14002KT 6SM 04/M12 A3006 RMK SLP221 T00401115 52010 IEM_DS3505
ZBYN,1995-02-08 04:00,ZBYN 080400Z AUTO 00000KT 6SM 06/M20 A3006 RMK T00601200 IEM_DS3505
ZBYN,1995-02-08 05:00,ZBYN 080500Z AUTO 20006KT 6SM 08/M19 A3006 RMK T00801190 IEM_DS3505
ZBYN,1995-02-08 06:00,ZBYN 080600Z AUTO 20004KT 6SM 09/M14 A3000 RMK SLP203 T00871145 57012 IEM_DS3505
ZBYN,1995-02-08 07:00,ZBYN 080700Z AUTO 21004KT 6SM 10/M16 A3000 RMK T01001160 IEM_DS3505
ZBYN,1995-02-08 08:00,ZBYN 080800Z AUTO 22006KT 6SM 09/M17 A3000 RMK T00901170 IEM_DS3505
ZBYN,1995-02-08 09:00,ZBYN 080900Z AUTO 25004KT 6SM 08/M17 A3000 RMK SLP203 T00851167 57003 IEM_DS3505
ZBYN,1995-02-08 10:00,ZBYN 081000Z AUTO 00000KT 6SM 06/M16 A3003 RMK T00601160 IEM_DS3505
ZBYN,1995-02-08 11:00,ZBYN 081100Z AUTO 00000KT 6SM 04/M17 A3006 RMK T00401170 IEM_DS3505
ZBYN,1995-02-08 12:00,ZBYN 081200Z AUTO 09006KT 6SM 04/M17 A3009 RMK SLP230 T00361172 52017 IEM_DS3505
ZBYN,1995-02-08 13:00,ZBYN 081300Z AUTO 10006KT 6SM 01/M16 A3012 RMK T00101160 IEM_DS3505
ZBYN,1995-02-08 14:00,ZBYN 081400Z AUTO 07004KT 6SM 02/M16 A3012 RMK T00201160 IEM_DS3505
ZBYN,1995-02-08 15:00,ZBYN 081500Z AUTO 34004KT 6SM 03/M17 A3012 RMK SLP228 T00281169 52015 IEM_DS3505
ZBYN,1995-02-08 17:00,ZBYN 081700Z AUTO 12006KT 6SM 01/M16 A3015 RMK T00101160 IEM_DS3505
ZBYN,1995-02-08 18:00,ZBYN 081800Z AUTO 20002KT 6SM 00/M13 A3015 RMK SLP236 T00001127 52010 IEM_DS3505
ZBYN,1995-02-08 19:00,ZBYN 081900Z AUTO 00000KT 6SM M01/M16 A3018 RMK T10101160 IEM_DS3505
ZBYN,1995-02-08 20:00,ZBYN 082000Z AUTO 00000KT 6SM M02/M18 A3018 RMK T10201180 IEM_DS3505
ZBYN,1995-02-08 21:00,ZBYN 082100Z AUTO 00000KT 6SM M03/M10 A3018 RMK SLP248 T10301105 52006 IEM_DS3505
ZBYN,1995-02-08 22:00,ZBYN 082200Z AUTO 00000KT 6SM M04/M16 A3018 RMK T10401160 IEM_DS3505
ZBYN,1995-02-08 23:00,ZBYN 082300Z AUTO 12004KT 6SM M05/M16 A3021 RMK T10501160 IEM_DS3505
ZBYN,1995-02-09 00:00,ZBYN 090000Z AUTO 09002KT 6SM M05/M11 A3024 RMK SLP282 T10471111 52010 IEM_DS3505
ZBYN,1995-02-09 01:00,ZBYN 090100Z AUTO 00000KT 3SM M04/M13 A3027 RMK T10401130 IEM_DS3505
ZBYN,1995-02-09 02:00,ZBYN 090200Z AUTO 00000KT 3SM 01/M14 A3027 RMK T00101140 IEM_DS3505
ZBYN,1995-02-09 03:00,ZBYN 090300Z AUTO 34006KT 6SM 06/M15 A3030 RMK SLP279 T00621146 52014 IEM_DS3505
ZBYN,1995-02-09 04:00,ZBYN 090400Z AUTO 00000KT 4SM 08/M13 A3030 RMK T00801130 IEM_DS3505
ZBYN,1995-02-09 05:00,ZBYN 090500Z AUTO 00000KT 7SM 09/M14 A3027 RMK T00901140 IEM_DS3505
ZBYN,1995-02-09 06:00,ZBYN 090600Z AUTO 18006KT 6SM 10/M16 A3024 RMK SLP263 T00991164 57013 IEM_DS3505
ZBYN,1995-02-09 07:00,ZBYN 090700Z AUTO 00000KT 7SM 10/M16 A3021 RMK T01001160 IEM_DS3505
ZBYN,1995-02-09 08:00,ZBYN 090800Z AUTO 00000KT 7SM 11/M13 A3021 RMK T01101130 IEM_DS3505
ZBYN,1995-02-09 09:00,ZBYN 090900Z AUTO 16002KT 6SM 10/M10 A3021 RMK SLP266 T01031097 57002 IEM_DS3505
ZBYN,1995-02-09 10:00,ZBYN 091000Z AUTO 00000KT 7SM 07/M14 A3024 RMK T00701140 IEM_DS3505
ZBYN,1995-02-09 11:00,ZBYN 091100Z AUTO 10006KT 7SM 03/M16 A3027 RMK T00301160 IEM_DS3505
ZBYN,1995-02-09 12:00,ZBYN 091200Z AUTO 16004KT 6SM 01/M17 A3027 RMK SLP296 T00071171 52009 IEM_DS3505
ZBYN,1995-02-09 13:00,ZBYN 091300Z AUTO 06006KT 4SM 02/M16 A3030 RMK T00201160 IEM_DS3505
ZBYN,1995-02-09 14:00,ZBYN 091400Z AUTO 06004KT 4SM 01/M14 A3030 RMK T00101140 IEM_DS3505
ZBYN,1995-02-09 15:00,ZBYN 091500Z AUTO 34002KT 6SM M02/M14 A3030 RMK SLP295 T10181142 52013 IEM_DS3505
ZBYN,1995-02-09 16:00,ZBYN 091600Z AUTO 00000KT 4SM M01/M16 A3030 RMK T10101160 IEM_DS3505
ZBYN,1995-02-09 17:00,ZBYN 091700Z AUTO 00000KT 2 1/2SM M02/M14 A3030 RMK T10201140 IEM_DS3505
ZBYN,1995-02-09 18:00,ZBYN 091800Z AUTO 00000KT 6SM M04/M12 A3030 RMK SLP293 T10401122 54000 IEM_DS3505
ZBYN,1995-02-09 20:00,ZBYN 092000Z AUTO 00000KT 2 1/2SM M03/M11 A3027 RMK T10301110 IEM_DS3505
ZBYN,1995-02-09 21:00,ZBYN 092100Z AUTO 00000KT 6SM M03/M13 A3027 RMK SLP279 T10311134 57010 IEM_DS3505
ZBYN,1995-02-09 22:00,ZBYN 092200Z AUTO 00000KT 2 1/2SM M04/M13 A3027 RMK T10401130 IEM_DS3505
ZBYN,1995-02-09 23:00,ZBYN 092300Z AUTO 00000KT 2SM M04/M13 A3027 RMK T10401130 IEM_DS3505
ZBYN,1995-02-10 00:00,ZBYN 100000Z AUTO 00000KT 5SM M04/M12 A3028 RMK SLP303 T10431121 52004 IEM_DS3505
ZBYN,1995-02-10 01:00,ZBYN 100100Z AUTO 00000KT 2 1/2SM M02/M11 A3030 RMK T10201110 IEM_DS3505
ZBYN,1995-02-10 02:00,ZBYN 100200Z AUTO 00000KT 2 1/2SM 00/M11 A3030 RMK T00001110 IEM_DS3505
ZBYN,1995-02-10 03:00,ZBYN 100300Z AUTO 14004KT 5SM 03/M12 A3027 RMK SLP293 T00331115 57001 IEM_DS3505
ZBYN,1995-02-10 04:00,ZBYN 100400Z AUTO 00000KT 2 1/2SM 07/M10 A3024 RMK T00701100 IEM_DS3505
ZBYN,1995-02-10 05:00,ZBYN 100500Z AUTO 15008KT 2 1/2SM 09/M10 A3021 RMK T00901100 IEM_DS3505
ZBYN,1995-02-10 06:00,ZBYN 100600Z AUTO 18014KT 5SM 09/M12 A3015 RMK SLP251 T00871118 57033 IEM_DS3505
ZBYN,1995-02-10 07:00,ZBYN 100700Z AUTO 17008KT 7SM 10/M10 A3012 RMK T01001100 IEM_DS3505
ZBYN,1995-02-10 08:00,ZBYN 100800Z AUTO 21008KT 7SM 11/M09 A3012 RMK T01101090 IEM_DS3505
ZBYN,1995-02-10 09:00,ZBYN 100900Z AUTO 18006KT 5SM 09/M10 A3012 RMK SLP232 T00921100 57015 IEM_DS3505
ZBYN,1995-02-10 10:00,ZBYN 101000Z AUTO 00000KT 6SM 06/M09 A3012 RMK T00601090 IEM_DS3505
ZBYN,1995-02-10 11:00,ZBYN 101100Z AUTO 09004KT 6SM 04/M09 A3012 RMK T00401090 IEM_DS3505
ZBYN,1995-02-10 12:00,ZBYN 101200Z AUTO 11004KT 6SM 01/M12 A3012 RMK SLP250 T00061119 52001 IEM_DS3505
ZBYN,1995-02-10 13:00,ZBYN 101300Z AUTO 09006KT 6SM M01/M12 A3015 RMK T10101120 IEM_DS3505
ZBYN,1995-02-10 14:00,ZBYN 101400Z AUTO 09006KT 6SM M01/M12 A3015 RMK T10101120 IEM_DS3505
ZBYN,1995-02-10 15:00,ZBYN 101500Z AUTO 00000KT 6SM M02/M11 A3018 RMK SLP253 T10161107 52011 IEM_DS3505
ZBYN,1995-02-10 16:00,ZBYN 101600Z AUTO 07006KT 7SM M02/M09 A3018 RMK T10201090 IEM_DS3505
ZBYN,1995-02-10 17:00,ZBYN 101700Z AUTO 08006KT 7SM M02/M10 A3018 RMK T10201100 IEM_DS3505
ZBYN,1995-02-10 18:00,ZBYN 101800Z AUTO 34004KT 6SM M03/M08 A3015 RMK SLP242 T10261085 57003 IEM_DS3505
ZBYN,1995-02-10 19:00,ZBYN 101900Z AUTO 00000KT 7SM M04/M11 A3015 RMK T10401110 IEM_DS3505
ZBYN,1995-02-10 21:00,ZBYN 102100Z AUTO 36002KT 6SM M02/M08 RMK SLP235 T10161079 57004 IEM_DS3505
ZBYN,1995-02-10 23:00,ZBYN 102300Z AUTO 00000KT 5SM M06/M10 A3012 RMK T10601100 IEM_DS3505
ZBYN,1995-02-11 00:00,ZBYN 110000Z AUTO 34004KT 6SM M03/M09 A3015 RMK SLP255 T10301086 52002 IEM_DS3505
ZBYN,1995-02-11 01:00,ZBYN 110100Z AUTO 09004KT 5SM M04/M09 A3018 RMK T10401090 IEM_DS3505
ZBYN,1995-02-11 02:00,ZBYN 110200Z AUTO 00000KT 5SM 00/M08 A3018 RMK T00001080 IEM_DS3505
ZBYN,1995-02-11 03:00,ZBYN 110300Z AUTO 36004KT 6SM 04/M06 A3015 RMK SLP252 T00391055 52005 IEM_DS3505
ZBYN,1995-02-11 04:00,ZBYN 110400Z AUTO 00000KT 5SM 08/M07 A3012 RMK T00801070 IEM_DS3505
ZBYN,1995-02-11 05:00,ZBYN 110500Z AUTO 00000KT 5SM 10/M06 A3009 RMK T01001060 IEM_DS3505
ZBYN,1995-02-11 06:00,ZBYN 110600Z AUTO 36002KT 6SM 10/M06 A3006 RMK SLP266 T01041055 57033 IEM_DS3505
ZBYN,1995-02-11 07:00,ZBYN 110700Z AUTO 00000KT 6SM 12/M09 A3003 RMK T01201090 IEM_DS3505
ZBYN,1995-02-11 08:00,ZBYN 110800Z AUTO 00000KT 6SM 12/M07 A3000 RMK T01201070 IEM_DS3505
ZBYN,1995-02-11 09:00,ZBYN 110900Z AUTO 29004KT 6SM 11/M07 A3003 RMK SLP190 T01101069 57012 IEM_DS3505
ZBYN,1995-02-11 10:00,ZBYN 111000Z AUTO 26004KT 6SM 09/M08 A3003 RMK T00901080 IEM_DS3505
ZBYN,1995-02-11 11:00,ZBYN 111100Z AUTO 07008KT 6SM 05/M09 A3003 RMK T00501090 IEM_DS3505
ZBYN,1995-02-11 12:00,ZBYN 111200Z AUTO 00000KT 6SM 05/M07 A3006 RMK SLP215 T00461068 52011 IEM_DS3505
ZBYN,1995-02-11 13:00,ZBYN 111300Z AUTO 08010KT 6SM 06/M07 A3006 RMK T00601070 IEM_DS3505
ZBYN,1995-02-11 14:00,ZBYN 111400Z AUTO 09008KT 6SM 05/M09 A3009 RMK T00501090 IEM_DS3505
ZBYN,1995-02-11 15:00,ZBYN 111500Z AUTO 00000KT 6SM 03/M06 A3009 RMK SLP215 T00281056 52008 IEM_DS3505
ZBYN,1995-02-11 16:00,ZBYN 111600Z AUTO 09006KT 6SM 03/M09 A3009 RMK T00301090 IEM_DS3505
ZBYN,1995-02-11 17:00,ZBYN 111700Z AUTO 09006KT 6SM 02/M08 A3009 RMK T00201080 IEM_DS3505
ZBYN,1995-02-11 18:00,ZBYN 111800Z AUTO 27002KT 6SM 00/M06 A3009 RMK SLP211 T00001064 52002 IEM_DS3505
ZBYN,1995-02-11 19:00,ZBYN 111900Z AUTO 00000KT 6SM 00/M08 A3009 RMK T00001080 IEM_DS3505
ZBYN,1995-02-11 20:00,ZBYN 112000Z AUTO 00000KT 6SM 00/M08 A3006 RMK T00001080 IEM_DS3505
ZBYN,1995-02-11 21:00,ZBYN 112100Z AUTO 14002KT 6SM M03/M09 A3006 RMK SLP211 T10261089 57003 IEM_DS3505
ZBYN,1995-02-11 22:00,ZBYN 112200Z AUTO 00000KT 6SM M01/M08 A3009 RMK T10101080 IEM_DS3505
ZBYN,1995-02-11 23:00,ZBYN 112300Z AUTO 00000KT 6SM M02/M09 A3009 RMK T10201090 IEM_DS3505
ZBYN,1995-02-12 00:00,ZBYN 120000Z AUTO 20002KT 6SM M04/M08 A3009 RMK SLP228 T10381084 52003 IEM_DS3505
ZBYN,1995-02-12 01:00,ZBYN 120100Z AUTO 00000KT 6SM 00/M09 A3012 RMK T00001090 IEM_DS3505
ZBYN,1995-02-12 02:00,ZBYN 120200Z AUTO 30002KT 5SM 02/M09 A3012 RMK T00201090 IEM_DS3505
ZBYN,1995-02-12 03:00,ZBYN 120300Z AUTO 18002KT 6SM 04/M06 A3012 RMK SLP228 T00431057 52010 IEM_DS3505
ZBYN,1995-02-12 04:00,ZBYN 120400Z AUTO 10004KT 5SM 08/M06 A3012 RMK T00801060 IEM_DS3505
ZBYN,1995-02-12 06:00,ZBYN 120600Z AUTO 18006KT 6SM 08/M04 A3006 RMK SLP199 T00821045 57024 IEM_DS3505
ZBYN,1995-02-12 07:00,ZBYN 120700Z AUTO 17006KT 3SM 08/M04 A3003 RMK T00801040 IEM_DS3505
ZBYN,1995-02-12 08:00,ZBYN 120800Z AUTO 10004KT 3SM 08/M04 A3003 RMK T00801040 IEM_DS3505
ZBYN,1995-02-12 09:00,ZBYN 120900Z AUTO 09004KT 6SM 07/M04 A3003 RMK SLP200 T00671042 57006 IEM_DS3505
ZBYN,1995-02-12 10:00,ZBYN 121000Z AUTO 10004KT 3SM 05/M05 A3003 RMK T00501050 IEM_DS3505
ZBYN,1995-02-12 11:00,ZBYN 121100Z AUTO 08006KT 4SM 04/M06 A3003 RMK T00401060 IEM_DS3505
ZBYN,1995-02-12 12:00,ZBYN 121200Z AUTO 00000KT 6SM 03/M07 A3006 RMK SLP222 T00341071 52013 IEM_DS3505
ZBYN,1995-02-12 13:00,ZBYN 121300Z AUTO 08006KT 3SM 02/M08 A3006 RMK T00201080 IEM_DS3505
ZBYN,1995-02-12 14:00,ZBYN 121400Z AUTO 00000KT 3SM 02/M08 A3009 RMK T00201080 IEM_DS3505
ZBYN,1995-02-12 15:00,ZBYN 121500Z AUTO 34002KT 6SM M01/M07 A3009 RMK SLP224 T10091072 52008 IEM_DS3505
ZBYN,1995-02-12 16:00,ZBYN 121600Z AUTO 00000KT 3SM M01/M10 A3009 RMK T10101100 IEM_DS3505
ZBYN,1995-02-12 17:00,ZBYN 121700Z AUTO 09006KT 3SM M01/M09 A3012 RMK T10101090 IEM_DS3505
ZBYN,1995-02-12 18:00,ZBYN 121800Z AUTO 22006KT 6SM M03/M08 A3012 RMK SLP229 T10291080 52007 IEM_DS3505
ZBYN,1995-02-12 19:00,ZBYN 121900Z AUTO 00000KT 3SM M02/M10 A3012 RMK T10201100 IEM_DS3505
ZBYN,1995-02-12 20:00,ZBYN 122000Z AUTO 00000KT 3SM M02/M12 A3012 RMK T10201120 IEM_DS3505
ZBYN,1995-02-12 21:00,ZBYN 122100Z AUTO 22002KT 6SM M02/M06 A3012 RMK SLP233 T10241062 52002 IEM_DS3505
ZBYN,1995-02-12 22:00,ZBYN 122200Z AUTO 22006KT 3SM M03/ A3012 RMK IEM_DS3505
ZBYN,1995-02-12 23:00,ZBYN 122300Z AUTO 00000KT 1 1/4SM M03/M04 A3015 RMK T10301040 IEM_DS3505
ZBYN,1995-02-13 00:00,ZBYN 130000Z AUTO 00000KT 5SM M02/M02 A3015 RMK 60004 70004 SLP247 T10161021 52009 IEM_DS3505
ZBYN,1995-02-13 01:00,ZBYN 130100Z AUTO 00000KT 2SM M01/M03 A3018 RMK T10101030 IEM_DS3505
ZBYN,1995-02-13 02:00,ZBYN 130200Z AUTO 00000KT 2 1/2SM 00/M03 A3018 RMK T00001030 IEM_DS3505
ZBYN,1995-02-13 03:00,ZBYN 130300Z AUTO 14004KT 5SM 00/M02 A3018 RMK SLP267 T00021018 52014 IEM_DS3505
ZBYN,1995-02-13 04:00,ZBYN 130400Z AUTO 08004KT 2 1/2SM 02/M02 A3018 RMK T00201020 IEM_DS3505
ZBYN,1995-02-13 05:00,ZBYN 130500Z AUTO 08004KT 4SM 04/00 A3015 RMK T00400000 IEM_DS3505
ZBYN,1995-02-13 06:00,ZBYN 130600Z AUTO 04002KT 6SM 05/M05 A3015 RMK SLP245 T00501054 57015 IEM_DS3505
ZBYN,1995-02-13 07:00,ZBYN 130700Z AUTO 15010KT 5SM 06/M06 A3012 RMK T00601060 IEM_DS3505
ZBYN,1995-02-13 08:00,ZBYN 130800Z AUTO 15008KT 5SM 06/M05 A3012 RMK T00601050 IEM_DS3505
ZBYN,1995-02-13 09:00,ZBYN 130900Z AUTO 20006KT 6SM 04/M03 A3012 RMK SLP244 T00381028 57002 IEM_DS3505
ZBYN,1995-02-13 10:00,ZBYN 131000Z AUTO 24002KT 5SM 02/M03 A3012 RMK T00201030 IEM_DS3505
ZBYN,1995-02-13 11:00,ZBYN 131100Z AUTO 00000KT 4SM 01/M02 A3015 RMK T00101020 IEM_DS3505
ZBYN,1995-02-13 12:00,ZBYN 131200Z AUTO 00000KT 4SM M01/M02 A3015 RMK SLP261 T10131025 52008 IEM_DS3505
ZBYN,1995-02-13 13:00,ZBYN 131300Z AUTO 00000KT 2 1/2SM M01/M03 A3015 RMK T10101030 IEM_DS3505
ZBYN,1995-02-13 14:00,ZBYN 131400Z AUTO 12004KT 2 1/2SM M03/M05 A3018 RMK T10301050 IEM_DS3505
ZBYN,1995-02-13 15:00,ZBYN 131500Z AUTO 16002KT 3/8SM M05/M06 A3018 RMK SLP268 T10491055 52003 IEM_DS3505
ZBYN,1995-02-13 16:00,ZBYN 131600Z AUTO 07004KT 4SM M04/M09 A3018 RMK T10401090 IEM_DS3505
ZBYN,1995-02-13 17:00,ZBYN 131700Z AUTO 00000KT 7SM M05/M07 A3018 RMK T10501070 IEM_DS3505
ZBYN,1995-02-13 18:00,ZBYN 131800Z AUTO 00000KT 1/8SM M06/M06 A3018 RMK SLP260 T10581065 54000 IEM_DS3505
ZBYN,1995-02-13 19:00,ZBYN 131900Z AUTO 00000KT 1/4SM M05/M06 A3018 RMK T10501060 IEM_DS3505
ZBYN,1995-02-13 20:00,ZBYN 132000Z AUTO 00000KT 1/4SM M05/M06 A3015 RMK T10501060 IEM_DS3505
ZBYN,1995-02-13 21:00,ZBYN 132100Z AUTO 16004KT 1/8SM M07/M08 A3015 RMK SLP259 T10671075 57005 IEM_DS3505
ZBYN,1995-02-13 22:00,ZBYN 132200Z AUTO 00000KT 1/4SM M06/M07 A3015 RMK T10601070 IEM_DS3505
ZBYN,1995-02-13 23:00,ZBYN 132300Z AUTO 15004KT 1/4SM M06/M07 A3015 RMK T10601070 IEM_DS3505
ZBYN,1995-02-14 00:00,ZBYN 140000Z AUTO 18004KT 1/8SM M07/M08 A3018 RMK SLP273 T10691078 52004 IEM_DS3505
ZBYN,1995-02-14 01:00,ZBYN 140100Z AUTO 15004KT 1/2SM M05/M05 A3018 RMK T10501050 IEM_DS3505
ZBYN,1995-02-14 02:00,ZBYN 140200Z AUTO 18004KT 1/2SM M05/M05 A3018 RMK T10501050 IEM_DS3505
ZBYN,1995-02-14 03:00,ZBYN 140300Z AUTO 14004KT 1/2SM M05/M05 A3018 RMK SLP276 T10481054 54000 IEM_DS3505
ZBYN,1995-02-14 04:00,ZBYN 140400Z AUTO 15006KT 1 1/4SM M01/M02 A3015 RMK T10101020 IEM_DS3505
ZBYN,1995-02-14 05:00,ZBYN 140500Z AUTO 15008KT 2 1/2SM 03/M05 A3009 RMK T00301050 IEM_DS3505
ZBYN,1995-02-14 06:00,ZBYN 140600Z AUTO 18008KT 4SM 05/M07 A3003 RMK SLP219 T00501074 57037 IEM_DS3505
ZBYN,1995-02-14 07:00,ZBYN 140700Z AUTO 19008KT 7SM 07/M12 A3000 RMK T00701120 IEM_DS3505
ZBYN,1995-02-14 08:00,ZBYN 140800Z AUTO 26016KT 7SM 08/M16 A3000 RMK T00801160 IEM_DS3505
ZBYN,1995-02-14 09:00,ZBYN 140900Z AUTO 32014KT 12SM 08/M21 A3000 RMK SLP200 T00751207 57014 IEM_DS3505
ZBYN,1995-02-14 10:00,ZBYN 141000Z AUTO 27012KT 7SM 05/M15 A3003 RMK T00501150 IEM_DS3505
ZBYN,1995-02-14 11:00,ZBYN 141100Z AUTO 28010KT 7SM 03/M15 A3006 RMK T00301150 IEM_DS3505
ZBYN,1995-02-14 12:00,ZBYN 141200Z AUTO 00000KT 12SM 03/M21 A3006 RMK SLP227 T00281207 52016 IEM_DS3505
ZBYN,1995-02-14 13:00,ZBYN 141300Z AUTO 27004KT 7SM 03/M13 A3006 RMK T00301130 IEM_DS3505
ZBYN,1995-02-14 14:00,ZBYN 141400Z AUTO 00000KT 7SM M01/M12 A3006 RMK T10101120 IEM_DS3505
ZBYN,1995-02-14 15:00,ZBYN 141500Z AUTO 09004KT 9SM M03/M14 A3006 RMK SLP233 T10271138 54000 IEM_DS3505
ZBYN,1995-02-14 16:00,ZBYN 141600Z AUTO 08006KT 7SM M04/M12 A3006 RMK T10401120 IEM_DS3505
ZBYN,1995-02-14 17:00,ZBYN 141700Z AUTO 12006KT 7SM M04/M11 A3006 RMK T10401110 IEM_DS3505
ZBYN,1995-02-14 18:00,ZBYN 141800Z AUTO 34004KT 9SM M04/M12 A3006 RMK SLP217 T10371121 54000 IEM_DS3505
ZBYN,1995-02-14 19:00,ZBYN 141900Z AUTO 12006KT 7SM M05/M12 A3006 RMK T10501120 IEM_DS3505
ZBYN,1995-02-14 20:00,ZBYN 142000Z AUTO 08004KT 7SM M06/M12 A3006 RMK T10601120 IEM_DS3505
ZBYN,1995-02-14 21:00,ZBYN 142100Z AUTO 34006KT 9SM M02/M16 A3006 RMK SLP212 T10161155 52003 IEM_DS3505
ZBYN,1995-02-14 22:00,ZBYN 142200Z AUTO 00000KT 7SM M06/M13 A3006 RMK T10601130 IEM_DS3505
ZBYN,1995-02-14 23:00,ZBYN 142300Z AUTO 05004KT 6SM M07/M12 A3006 RMK T10701120 IEM_DS3505
ZBYN,1995-02-15 00:00,ZBYN 150000Z AUTO 04004KT 12SM M04/M13 A3012 RMK SLP238 T10401132 52012 IEM_DS3505
ZBYN,1995-02-15 01:00,ZBYN 150100Z AUTO 18006KT 6SM M01/M12 A3012 RMK T10101120 IEM_DS3505
ZBYN,1995-02-15 02:00,ZBYN 150200Z AUTO 34008KT 6SM 00/M14 A3015 RMK T00001140 IEM_DS3505
ZBYN,1995-02-15 03:00,ZBYN 150300Z AUTO 34006KT 9SM 02/M13 A3012 RMK SLP244 T00191128 52006 IEM_DS3505
ZBYN,1995-02-15 04:00,ZBYN 150400Z AUTO 32010KT 6SM 04/M10 A3012 RMK T00401100 IEM_DS3505
ZBYN,1995-02-15 05:00,ZBYN 150500Z AUTO 29004KT 6SM 04/M11 A3009 RMK T00401110 IEM_DS3505
ZBYN,1995-02-15 06:00,ZBYN 150600Z AUTO 32004KT 9SM 05/M15 A3006 RMK SLP224 T00531148 57014 IEM_DS3505
ZBYN,1995-02-15 07:00,ZBYN 150700Z AUTO 21012KT 6SM 06/M19 A3006 RMK T00601190 IEM_DS3505
ZBYN,1995-02-15 08:00,ZBYN 150800Z AUTO 20008KT 7SM 07/M10 A3006 RMK T00701100 IEM_DS3505
ZBYN,1995-02-15 09:00,ZBYN 150900Z AUTO 20006KT 12SM 05/M16 A3006 RMK SLP222 T00531162 54000 IEM_DS3505
ZBYN,1995-02-15 10:00,ZBYN 151000Z AUTO 21008KT 7SM 04/M14 A3009 RMK T00401140 IEM_DS3505
ZBYN,1995-02-15 11:00,ZBYN 151100Z AUTO 17004KT 7SM 02/M16 A3012 RMK T00201160 IEM_DS3505
ZBYN,1995-02-15 12:00,ZBYN 151200Z AUTO 32006KT 12SM 00/M16 A3012 RMK SLP251 T00041158 52016 IEM_DS3505
ZBYN,1995-02-15 13:00,ZBYN 151300Z AUTO 29010KT 7SM 01/M14 A3015 RMK T00101140 IEM_DS3505
ZBYN,1995-02-15 14:00,ZBYN 151400Z AUTO 32006KT 7SM 01/M15 A3018 RMK T00101150 IEM_DS3505
ZBYN,1995-02-15 15:00,ZBYN 151500Z AUTO 34006KT 12SM 00/M17 A3018 RMK SLP258 T00011170 52015 IEM_DS3505
ZBYN,1995-02-15 16:00,ZBYN 151600Z AUTO 07004KT 7SM M05/M13 A3021 RMK T10501130 IEM_DS3505
ZBYN,1995-02-15 17:00,ZBYN 151700Z AUTO 00000KT 7SM M06/M13 A3021 RMK T10601130 IEM_DS3505
ZBYN,1995-02-15 18:00,ZBYN 151800Z AUTO 09002KT 12SM M06/M15 A3021 RMK SLP267 T10571151 52005 IEM_DS3505
ZBYN,1995-02-15 21:00,ZBYN 152100Z AUTO 36004KT 9SM M08/M13 RMK SLP272 T10771134 52001 IEM_DS3505
ZBYN,1995-02-15 22:00,ZBYN 152200Z AUTO 00000KT 7SM M09/M14 A3021 RMK T10901140 IEM_DS3505
ZBYN,1995-02-15 23:00,ZBYN 152300Z AUTO 00000KT 7SM M09/M14 A3024 RMK T10901140 IEM_DS3505
ZBYN,1995-02-16 00:00,ZBYN 160000Z AUTO 11002KT 6SM M09/M14 A3027 RMK SLP304 T10921139 52018 IEM_DS3505
ZBYN,1995-02-16 03:00,ZBYN 160300Z AUTO 36004KT 5SM 02/M16 A3024 RMK SLP282 T00181159 57002 IEM_DS3505
ZBYN,1995-02-16 04:00,ZBYN 160400Z AUTO 00000KT 7SM 05/M18 A3024 RMK T00501180 IEM_DS3505
ZBYN,1995-02-16 05:00,ZBYN 160500Z AUTO 18004KT 7SM 05/M16 A3021 RMK T00501160 IEM_DS3505
ZBYN,1995-02-16 06:00,ZBYN 160600Z AUTO 18006KT 6SM 06/M17 A3018 RMK SLP259 T00631174 57023 IEM_DS3505
ZBYN,1995-02-16 07:00,ZBYN 160700Z AUTO 19004KT 7SM 09/M14 A3015 RMK T00901140 IEM_DS3505
ZBYN,1995-02-16 08:00,ZBYN 160800Z AUTO 19010KT 7SM 09/M15 A3015 RMK T00901150 IEM_DS3505
ZBYN,1995-02-16 09:00,ZBYN 160900Z AUTO 18008KT 6SM 08/M17 A3012 RMK SLP241 T00771170 57017 IEM_DS3505
ZBYN,1995-02-16 10:00,ZBYN 161000Z AUTO 12004KT 7SM 05/M13 A3012 RMK T00501130 IEM_DS3505
ZBYN,1995-02-16 11:00,ZBYN 161100Z AUTO 09006KT 7SM 02/M14 A3012 RMK T00201140 IEM_DS3505
ZBYN,1995-02-16 12:00,ZBYN 161200Z AUTO 32004KT 6SM 02/M15 A3012 RMK SLP259 T00201153 52004 IEM_DS3505
ZBYN,1995-02-16 13:00,ZBYN 161300Z AUTO 00000KT 7SM M02/M16 A3015 RMK T10201160 IEM_DS3505
ZBYN,1995-02-16 14:00,ZBYN 161400Z AUTO 09004KT 7SM M03/M15 A3015 RMK T10301150 IEM_DS3505
ZBYN,1995-02-16 15:00,ZBYN 161500Z AUTO 00000KT 7SM M05/M15 A3015 RMK T10501150 IEM_DS3505
ZBYN,1995-02-16 16:00,ZBYN 161600Z AUTO 00000KT 7SM M05/M14 A3015 RMK T10501140 IEM_DS3505
ZBYN,1995-02-16 17:00,ZBYN 161700Z AUTO 00000KT 7SM M07/M15 A3015 RMK T10701150 IEM_DS3505
ZBYN,1995-02-16 18:00,ZBYN 161800Z AUTO 00000KT 6SM M08/M14 A3015 RMK SLP254 T10751137 52002 IEM_DS3505
ZBYN,1995-02-16 19:00,ZBYN 161900Z AUTO 00000KT 7SM M08/M15 A3015 RMK T10801150 IEM_DS3505
ZBYN,1995-02-16 20:00,ZBYN 162000Z AUTO 00000KT 7SM M08/M16 A3012 RMK T10801160 IEM_DS3505
ZBYN,1995-02-16 21:00,ZBYN 162100Z AUTO 36002KT 6SM M08/M13 A3012 RMK SLP247 T10821130 57005 IEM_DS3505
ZBYN,1995-02-16 22:00,ZBYN 162200Z AUTO 00000KT 7SM M09/M15 A3012 RMK T10901150 IEM_DS3505
ZBYN,1995-02-16 23:00,ZBYN 162300Z AUTO 17004KT 7SM M09/M15 A3012 RMK T10901150 IEM_DS3505
ZBYN,1995-02-17 00:00,ZBYN 170000Z AUTO 11004KT 6SM M09/M14 A3015 RMK SLP261 T10911143 52002 IEM_DS3505
ZBYN,1995-02-17 01:00,ZBYN 170100Z AUTO 11004KT 6SM M09/M14 A3015 RMK T10911143 52002 IEM_DS3505
ZBYN,1995-02-17 02:00,ZBYN 170200Z AUTO 00000KT 7SM 01/M17 A3015 RMK T00101170 IEM_DS3505
ZBYN,1995-02-17 03:00,ZBYN 170300Z AUTO 04004KT 6SM 02/M12 A3012 RMK SLP239 T00211123 57006 IEM_DS3505
ZBYN,1995-02-17 04:00,ZBYN 170400Z AUTO 21006KT 7SM 05/M16 A3009 RMK T00501160 IEM_DS3505
ZBYN,1995-02-17 05:00,ZBYN 170500Z AUTO 00000KT 6SM 06/M16 A3006 RMK T00601160 IEM_DS3505
ZBYN,1995-02-17 06:00,ZBYN 170600Z AUTO 20004KT 6SM 08/M15 A3003 RMK SLP207 T00751151 57031 IEM_DS3505
ZBYN,1995-02-17 07:00,ZBYN 170700Z AUTO 16006KT 6SM 09/M13 A3000 RMK T00901130 IEM_DS3505
ZBYN,1995-02-17 08:00,ZBYN 170800Z AUTO 16006KT 6SM 09/M14 A2997 RMK T00901140 IEM_DS3505
ZBYN,1995-02-17 09:00,ZBYN 170900Z AUTO 16006KT 6SM 08/M16 A2994 RMK SLP189 T00771160 57017 IEM_DS3505
ZBYN,1995-02-17 10:00,ZBYN 171000Z AUTO 09004KT 6SM 05/M11 A2994 RMK T00501110 IEM_DS3505
ZBYN,1995-02-17 11:00,ZBYN 171100Z AUTO 00000KT 6SM 04/M14 A2994 RMK T00401140 IEM_DS3505
ZBYN,1995-02-17 12:00,ZBYN 171200Z AUTO 32002KT 6SM 02/M15 A2997 RMK SLP198 T00221147 57003 IEM_DS3505
ZBYN,1995-02-17 13:00,ZBYN 171300Z AUTO 10006KT 6SM 00/M13 A2997 RMK T00001130 IEM_DS3505
ZBYN,1995-02-17 14:00,ZBYN 171400Z AUTO 11006KT 6SM M01/M13 A3000 RMK T10101130 IEM_DS3505
ZBYN,1995-02-17 15:00,ZBYN 171500Z AUTO 00000KT 6SM M00/M14 A3000 RMK SLP193 T10051137 52010 IEM_DS3505
ZBYN,1995-02-17 16:00,ZBYN 171600Z AUTO 10004KT 7SM M03/M12 A3000 RMK T10301120 IEM_DS3505
ZBYN,1995-02-17 17:00,ZBYN 171700Z AUTO 03004KT 7SM M03/M12 A3000 RMK T10301120 IEM_DS3505
ZBYN,1995-02-17 18:00,ZBYN 171800Z AUTO 32004KT 6SM M04/M12 A3000 RMK SLP193 T10371121 52003 IEM_DS3505
ZBYN,1995-02-17 19:00,ZBYN 171900Z AUTO 00000KT 7SM M05/M14 A3003 RMK T10501140 IEM_DS3505
ZBYN,1995-02-17 21:00,ZBYN 172100Z AUTO 00000KT 6SM M06/M12 A3003 RMK SLP201 T10561119 52005 IEM_DS3505
ZBYN,1995-02-17 22:00,ZBYN 172200Z AUTO 00000KT 7SM M06/M14 A3003 RMK T10601140 IEM_DS3505
ZBYN,1995-02-17 23:00,ZBYN 172300Z AUTO 10004KT 7SM M07/M13 A3003 RMK T10701130 IEM_DS3505
ZBYN,1995-02-18 00:00,ZBYN 180000Z AUTO 11004KT 6SM M07/M12 A3006 RMK SLP223 T10741119 52008 IEM_DS3505
ZBYN,1995-02-18 01:00,ZBYN 180100Z AUTO 6SM M04/M11 A3009 RMK SLP197 T10401110 57016 IEM_DS3505
ZBYN,1995-02-18 02:00,ZBYN 180200Z AUTO 00000KT 2 1/2SM 00/M11 A3009 RMK T00001110 IEM_DS3505
ZBYN,1995-02-18 03:00,ZBYN 180300Z AUTO 32002KT 6SM 05/M12 A3009 RMK SLP220 T00501115 52013 IEM_DS3505
ZBYN,1995-02-18 04:00,ZBYN 180400Z AUTO 00000KT 4SM 07/M09 A3006 RMK T00701090 IEM_DS3505
ZBYN,1995-02-18 05:00,ZBYN 180500Z AUTO 00000KT 7SM 10/M11 A3003 RMK T01001110 IEM_DS3505
ZBYN,1995-02-18 06:00,ZBYN 180600Z AUTO 16004KT 6SM 12/M10 A3003 RMK SLP197 T01161103 57016 IEM_DS3505
ZBYN,1995-02-18 07:00,ZBYN 180700Z AUTO 13004KT 7SM 14/M18 A3000 RMK T01401180 IEM_DS3505
ZBYN,1995-02-18 08:00,ZBYN 180800Z AUTO 00000KT 7SM 13/M10 A3000 RMK T01301100 IEM_DS3505
ZBYN,1995-02-18 09:00,ZBYN 180900Z AUTO 18004KT 12SM 12/M13 A3000 RMK SLP196 T01211128 57003 IEM_DS3505
ZBYN,1995-02-18 10:00,ZBYN 181000Z AUTO 00000KT 7SM 10/M10 A3000 RMK T01001100 IEM_DS3505
ZBYN,1995-02-18 11:00,ZBYN 181100Z AUTO 00000KT 7SM 05/M11 A3003 RMK T00501110 IEM_DS3505
ZBYN,1995-02-18 12:00,ZBYN 181200Z AUTO 09004KT 12SM 04/M10 A3006 RMK SLP235 T00381101 52019 IEM_DS3505
ZBYN,1995-02-18 14:00,ZBYN 181400Z AUTO 06010KT 7SM 05/M11 A3012 RMK T00501110 IEM_DS3505
ZBYN,1995-02-18 15:00,ZBYN 181500Z AUTO 34002KT 11SM 02/M09 A3012 RMK SLP236 T00201094 52018 IEM_DS3505
ZBYN,1995-02-18 16:00,ZBYN 181600Z AUTO 00000KT 7SM 03/M11 A3015 RMK T00301110 IEM_DS3505
ZBYN,1995-02-18 17:00,ZBYN 181700Z AUTO 06002KT 7SM 03/M12 A3018 RMK T00301120 IEM_DS3505
ZBYN,1995-02-18 18:00,ZBYN 181800Z AUTO 34004KT 9SM 00/M10 A3018 RMK SLP241 T00041102 52013 IEM_DS3505
ZBYN,1995-02-18 19:00,ZBYN 181900Z AUTO 33002KT 7SM 01/M14 A3021 RMK T00101140 IEM_DS3505
ZBYN,1995-02-18 20:00,ZBYN 182000Z AUTO 30004KT 7SM 00/M14 A3021 RMK T00001140 IEM_DS3505
ZBYN,1995-02-18 21:00,ZBYN 182100Z AUTO 34004KT 9SM M01/M09 A3021 RMK SLP250 T10091089 52007 IEM_DS3505
ZBYN,1995-02-18 22:00,ZBYN 182200Z AUTO 00000KT 7SM M02/M09 A3024 RMK T10201090 IEM_DS3505
ZBYN,1995-02-18 23:00,ZBYN 182300Z AUTO 00000KT 5SM M02/M08 A3024 RMK T10201080 IEM_DS3505
ZBYN,1995-02-19 00:00,ZBYN 190000Z AUTO 11004KT 6SM M07/M12 A3027 RMK SLP223 T10741119 52008 IEM_DS3505
ZBYN,1995-02-19 01:00,ZBYN 190100Z AUTO 35006KT 1 1/2SM 01/M07 A3030 RMK T00101070 IEM_DS3505
ZBYN,1995-02-19 02:00,ZBYN 190200Z AUTO 04008KT 2SM 03/M06 A3030 RMK T00301060 IEM_DS3505
ZBYN,1995-02-19 03:00,ZBYN 190300Z AUTO 36006KT 6SM 04/M05 A3030 RMK SLP295 T00451054 52017 IEM_DS3505
ZBYN,1995-02-19 04:00,ZBYN 190400Z AUTO 04008KT 3SM 08/M04 A3030 RMK T00801040 IEM_DS3505
ZBYN,1995-02-19 05:00,ZBYN 190500Z AUTO 34004KT 5SM 08/M06 A3027 RMK T00801060 IEM_DS3505
ZBYN,1995-02-19 06:00,ZBYN 190600Z AUTO 32004KT 6SM 10/M04 A3024 RMK SLP264 T00961037 57022 IEM_DS3505
ZBYN,1995-02-19 07:00,ZBYN 190700Z AUTO 00000KT 4SM 11/M08 A3021 RMK T01101080 IEM_DS3505
ZBYN,1995-02-19 08:00,ZBYN 190800Z AUTO 02006KT 7SM 12/M06 A3021 RMK T01201060 IEM_DS3505
ZBYN,1995-02-19 09:00,ZBYN 190900Z AUTO 32002KT 6SM 10/M09 A3021 RMK SLP254 T01001093 57011 IEM_DS3505
ZBYN,1995-02-19 10:00,ZBYN 191000Z AUTO 10008KT 4SM 07/M06 A3021 RMK T00701060 IEM_DS3505
ZBYN,1995-02-19 11:00,ZBYN 191100Z AUTO 07014KT 7SM 05/M05 A3024 RMK T00501050 IEM_DS3505
ZBYN,1995-02-19 12:00,ZBYN 191200Z AUTO 36004KT 6SM 05/M06 A3027 RMK SLP283 T00531061 52017 IEM_DS3505
ZBYN,1995-02-19 13:00,ZBYN 191300Z AUTO 06017KT 6SM 04/M06 A3030 RMK T00401060 IEM_DS3505
ZBYN,1995-02-19 14:00,ZBYN 191400Z AUTO 09010KT 6SM 03/M06 A3033 RMK T00301060 IEM_DS3505
ZBYN,1995-02-19 15:00,ZBYN 191500Z AUTO 22004KT 6SM 02/M05 A3033 RMK SLP297 T00201052 52018 IEM_DS3505
ZBYN,1995-02-19 16:00,ZBYN 191600Z AUTO 08008KT 6SM 01/M06 A3033 RMK T00101060 IEM_DS3505
ZBYN,1995-02-19 17:00,ZBYN 191700Z AUTO 09006KT 6SM 01/M06 A3036 RMK T00101060 IEM_DS3505
ZBYN,1995-02-19 18:00,ZBYN 191800Z AUTO 20002KT 6SM M01/M06 A3033 RMK SLP299 T10141059 52005 IEM_DS3505
ZBYN,1995-02-19 20:00,ZBYN 192000Z AUTO 06008KT 6SM M01/M05 A3036 RMK T10101050 IEM_DS3505
ZBYN,1995-02-19 21:00,ZBYN 192100Z AUTO 14006KT 6SM M03/M07 A3036 RMK SLP309 T10261068 52007 IEM_DS3505
ZBYN,1995-02-19 22:00,ZBYN 192200Z AUTO 09012KT 6SM M01/M06 A3039 RMK T10101060 IEM_DS3505
ZBYN,1995-02-19 23:00,ZBYN 192300Z AUTO 09017KT 6SM M01/M06 A3039 RMK T10101060 IEM_DS3505
ZBYN,1995-02-20 00:00,ZBYN 200000Z AUTO 32004KT 6SM M01/M06 A3042 RMK SLP340 T10111064 52023 IEM_DS3505
ZBYN,1995-02-20 01:00,ZBYN 200100Z AUTO 08016KT 5SM 01/M06 A3045 RMK T00101060 IEM_DS3505
ZBYN,1995-02-20 02:00,ZBYN 200200Z AUTO 06012KT 6SM 02/M07 A3045 RMK T00201070 IEM_DS3505
ZBYN,1995-02-20 03:00,ZBYN 200300Z AUTO 07010KT 6SM 03/M06 A3045 RMK SLP344 T00281056 52005 IEM_DS3505
ZBYN,1995-02-20 04:00,ZBYN 200400Z AUTO 06012KT 6SM 03/M07 A3042 RMK T00301070 IEM_DS3505
ZBYN,1995-02-20 05:00,ZBYN 200500Z AUTO 06008KT 3SM 04/M06 A3039 RMK T00401060 IEM_DS3505
ZBYN,1995-02-20 06:00,ZBYN 200600Z AUTO 09004KT 6SM 04/M06 A3039 RMK SLP327 T00351062 57020 IEM_DS3505
ZBYN,1995-02-20 07:00,ZBYN 200700Z AUTO 10008KT 3SM 05/M06 A3036 RMK T00501060 IEM_DS3505
ZBYN,1995-02-20 08:00,ZBYN 200800Z AUTO 10008KT 3SM 05/M07 A3033 RMK T00501070 IEM_DS3505
ZBYN,1995-02-20 09:00,ZBYN 200900Z AUTO 11006KT 6SM 04/M08 A3033 RMK SLP303 T00451084 57022 IEM_DS3505
ZBYN,1995-02-20 11:00,ZBYN 201100Z AUTO 09008KT 2 1/2SM 01/M07 A3033 RMK T00101070 IEM_DS3505
ZBYN,1995-02-20 12:00,ZBYN 201200Z AUTO 11004KT 6SM M00/M07 A3033 RMK SLP318 T10051071 52008 IEM_DS3505
ZBYN,1995-02-20 13:00,ZBYN 201300Z AUTO 06008KT 3SM M01/M06 A3036 RMK T10101060 IEM_DS3505
ZBYN,1995-02-20 14:00,ZBYN 201400Z AUTO 09008KT 3SM M01/M06 A3036 RMK T10101060 IEM_DS3505
ZBYN,1995-02-20 15:00,ZBYN 201500Z AUTO 22004KT 6SM M02/M07 RMK SLP325 T10251073 52009 IEM_DS3505
ZBYN,1995-02-20 16:00,ZBYN 201600Z AUTO 31004KT 4SM M02/M06 A3036 RMK T10201060 IEM_DS3505
ZBYN,1995-02-20 17:00,ZBYN 201700Z AUTO 00000KT 4SM M02/M07 A3036 RMK T10201070 IEM_DS3505
ZBYN,1995-02-20 18:00,ZBYN 201800Z AUTO 36004KT 6SM M02/M06 A3036 RMK SLP322 T10211064 57001 IEM_DS3505
ZBYN,1995-02-20 21:00,ZBYN 202100Z AUTO 36002KT 6SM M04/M08 A3033 RMK SLP309 T10421077 57013 IEM_DS3505
ZBYN,1995-02-20 22:00,ZBYN 202200Z AUTO 00000KT 2 1/2SM M05/M09 A3033 RMK T10501090 IEM_DS3505
ZBYN,1995-02-20 23:00,ZBYN 202300Z AUTO 00000KT 1 1/4SM M06/M09 A3033 RMK T10601090 IEM_DS3505
ZBYN,1995-02-21 00:00,ZBYN 210000Z AUTO 36004KT 4SM M03/M06 A3036 RMK SLP321 T10261064 52005 IEM_DS3505
ZBYN,1995-02-21 01:00,ZBYN 210100Z AUTO 00000KT 1 1/4SM M02/M06 A3036 RMK T10201060 IEM_DS3505
ZBYN,1995-02-21 02:00,ZBYN 210200Z AUTO 00000KT 3SM 01/M07 A3036 RMK T00101070 IEM_DS3505
ZBYN,1995-02-21 03:00,ZBYN 210300Z AUTO 16004KT 4SM 01/M08 A3033 RMK SLP318 T00101077 54000 IEM_DS3505
ZBYN,1995-02-21 04:00,ZBYN 210400Z AUTO 00000KT 4SM 03/M07 A3033 RMK T00301070 IEM_DS3505
ZBYN,1995-02-21 05:00,ZBYN 210500Z AUTO 20008KT 4SM 04/M06 A3027 RMK T00401060 IEM_DS3505
ZBYN,1995-02-21 06:00,ZBYN 210600Z AUTO 18010KT 4SM 04/M08 A3024 RMK SLP280 T00451079 57028 IEM_DS3505
ZBYN,1995-02-21 07:00,ZBYN 210700Z AUTO 20012KT 5SM 06/M06 A3021 RMK T00601060 IEM_DS3505
ZBYN,1995-02-21 08:00,ZBYN 210800Z AUTO 22010KT 5SM 05/M07 A3021 RMK T00501070 IEM_DS3505
ZBYN,1995-02-21 09:00,ZBYN 210900Z AUTO 22008KT 6SM 04/M07 A3021 RMK SLP272 T00441072 57011 IEM_DS3505
ZBYN,1995-02-21 10:00,ZBYN 211000Z AUTO 20004KT 5SM 03/M05 A3021 RMK T00301050 IEM_DS3505
ZBYN,1995-02-21 11:00,ZBYN 211100Z AUTO 00000KT 5SM 02/M05 A3024 RMK T00201050 IEM_DS3505
ZBYN,1995-02-21 12:00,ZBYN 211200Z AUTO 11006KT 6SM M01/M06 A3024 RMK SLP284 T10081063 52005 IEM_DS3505
ZBYN,1995-02-21 13:00,ZBYN 211300Z AUTO 09006KT 4SM M02/M07 A3024 RMK T10201070 IEM_DS3505
ZBYN,1995-02-21 14:00,ZBYN 211400Z AUTO 10006KT 5SM M03/M07 A3024 RMK T10301070 IEM_DS3505
ZBYN,1995-02-21 15:00,ZBYN 211500Z AUTO 11004KT 6SM M02/M06 A3027 RMK SLP288 T10201064 52008 IEM_DS3505
ZBYN,1995-02-21 16:00,ZBYN 211600Z AUTO 13006KT 5SM M02/M07 A3024 RMK T10201070 IEM_DS3505
ZBYN,1995-02-21 17:00,ZBYN 211700Z AUTO 00000KT 5SM M02/M06 A3027 RMK T10201060 IEM_DS3505
ZBYN,1995-02-21 18:00,ZBYN 211800Z AUTO 16004KT 6SM M04/M06 A3024 RMK SLP283 T10351064 57002 IEM_DS3505
ZBYN,1995-02-21 19:00,ZBYN 211900Z AUTO 00000KT 5SM M03/M06 A3024 RMK T10301060 IEM_DS3505
ZBYN,1995-02-21 20:00,ZBYN 212000Z AUTO 06006KT 5SM M04/M07 A3021 RMK T10401070 IEM_DS3505
ZBYN,1995-02-21 21:00,ZBYN 212100Z AUTO 09004KT 5SM M04/M06 A3024 RMK SLP277 T10391062 57006 IEM_DS3505
ZBYN,1995-02-21 22:00,ZBYN 212200Z AUTO 10004KT 3SM M05/M07 A3024 RMK T10501070 IEM_DS3505
ZBYN,1995-02-21 23:00,ZBYN 212300Z AUTO 07004KT 2 1/2SM M05/M07 A3024 RMK T10501070 IEM_DS3505
ZBYN,1995-02-22 00:00,ZBYN 220000Z AUTO 34002KT 1 1/4SM M04/M06 A3024 RMK SLP291 T10411060 52004 IEM_DS3505
ZBYN,1995-02-22 01:00,ZBYN 220100Z AUTO 06004KT 1 1/2SM M03/M06 A3027 RMK T10301060 IEM_DS3505
ZBYN,1995-02-22 02:00,ZBYN 220200Z AUTO 00000KT 2 1/2SM 01/M05 A3027 RMK T00101050 IEM_DS3505
ZBYN,1995-02-22 03:00,ZBYN 220300Z AUTO 14004KT 3SM 02/M05 A3024 RMK SLP285 T00211051 52003 IEM_DS3505
ZBYN,1995-02-22 04:00,ZBYN 220400Z AUTO 00000KT 5SM 05/M05 A3024 RMK T00501050 IEM_DS3505
ZBYN,1995-02-22 05:00,ZBYN 220500Z AUTO 15004KT 6SM 07/M05 A3021 RMK T00701050 IEM_DS3505
ZBYN,1995-02-22 06:00,ZBYN 220600Z AUTO 14004KT 4SM 08/M07 A3018 RMK SLP251 T00751066 57025 IEM_DS3505
ZBYN,1995-02-22 07:00,ZBYN 220700Z AUTO 21002KT 5SM 08/M06 A3015 RMK T00801060 IEM_DS3505
ZBYN,1995-02-22 08:00,ZBYN 220800Z AUTO 00000KT 5SM 08/M06 A3015 RMK T00801060 IEM_DS3505
ZBYN,1995-02-22 09:00,ZBYN 220900Z AUTO 22004KT 5SM 07/M05 A3012 RMK SLP241 T00671054 57011 IEM_DS3505
ZBYN,1995-02-22 10:00,ZBYN 221000Z AUTO 30002KT 5SM 06/M05 A3015 RMK T00601050 IEM_DS3505
ZBYN,1995-02-22 11:00,ZBYN 221100Z AUTO 00000KT 5SM 04/M05 A3015 RMK T00401050 IEM_DS3505
ZBYN,1995-02-22 12:00,ZBYN 221200Z AUTO 32002KT 6SM 03/M04 A3018 RMK SLP258 T00291040 52009 IEM_DS3505
ZBYN,1995-02-22 13:00,ZBYN 221300Z AUTO 00000KT 5SM 02/M05 A3021 RMK T00201050 IEM_DS3505
ZBYN,1995-02-22 14:00,ZBYN 221400Z AUTO 18004KT 5SM 02/M06 A3021 RMK T00201060 IEM_DS3505
ZBYN,1995-02-22 15:00,ZBYN 221500Z AUTO 34002KT 6SM 04/M05 A3021 RMK SLP263 T00371047 52016 IEM_DS3505
ZBYN,1995-02-22 16:00,ZBYN 221600Z AUTO 00000KT 6SM 01/M05 A3021 RMK T00101050 IEM_DS3505
ZBYN,1995-02-22 17:00,ZBYN 221700Z AUTO 09004KT 6SM 01/M05 A3021 RMK T00101050 IEM_DS3505
ZBYN,1995-02-22 18:00,ZBYN 221800Z AUTO 07004KT 6SM 01/M06 A3021 RMK SLP258 T00121055 54000 IEM_DS3505
ZBYN,1995-02-22 19:00,ZBYN 221900Z AUTO 00000KT 7SM 01/M05 A3021 RMK T00101050 IEM_DS3505
ZBYN,1995-02-22 20:00,ZBYN 222000Z AUTO 00000KT 7SM 00/M05 A3021 RMK T00001050 IEM_DS3505
ZBYN,1995-02-22 21:00,ZBYN 222100Z AUTO 00000KT 6SM M00/M04 A3021 RMK SLP262 T10021041 54000 IEM_DS3505
ZBYN,1995-02-22 22:00,ZBYN 222200Z AUTO 00000KT 6SM RMK IEM_DS3505
ZBYN,1995-02-22 23:00,ZBYN 222300Z AUTO 00000KT 3SM 00/M05 A3024 RMK T00001050 IEM_DS3505
ZBYN,1995-02-23 00:00,ZBYN 230000Z AUTO 11004KT 6SM M00/M05 A3024 RMK SLP276 T10051048 52006 IEM_DS3505
ZBYN,1995-02-23 01:00,ZBYN 230100Z AUTO 12004KT 1 1/4SM 01/M03 A3027 RMK T00101030 IEM_DS3505
ZBYN,1995-02-23 02:00,ZBYN 230200Z AUTO 00000KT 2 1/2SM 04/M02 A3027 RMK T00401020 IEM_DS3505
ZBYN,1995-02-23 03:00,ZBYN 230300Z AUTO 18004KT 5SM 04/M03 A3024 RMK SLP268 T00401029 52002 IEM_DS3505
ZBYN,1995-02-23 04:00,ZBYN 230400Z AUTO 00000KT 4SM 06/00 A3021 RMK T00600000 IEM_DS3505
ZBYN,1995-02-23 05:00,ZBYN 230500Z AUTO 20004KT 4SM 07/M04 A3018 RMK T00701040 IEM_DS3505
ZBYN,1995-02-23 06:00,ZBYN 230600Z AUTO 16008KT 5SM 07/M06 A3015 RMK SLP233 T00711056 57031 IEM_DS3505
ZBYN,1995-02-23 07:00,ZBYN 230700Z AUTO 16006KT 5SM 08/M05 A3012 RMK T00801050 IEM_DS3505
ZBYN,1995-02-23 08:00,ZBYN 230800Z AUTO 24006KT 5SM 08/M07 A3012 RMK T00801070 IEM_DS3505
ZBYN,1995-02-23 09:00,ZBYN 230900Z AUTO 22010KT 5SM 07/M07 A3009 RMK SLP222 T00731069 57012 IEM_DS3505
ZBYN,1995-02-23 10:00,ZBYN 231000Z AUTO 30008KT 6SM 06/M04 A3012 RMK T00601040 IEM_DS3505
ZBYN,1995-02-23 11:00,ZBYN 231100Z AUTO 29006KT 6SM 05/M04 A3012 RMK T00501040 IEM_DS3505
ZBYN,1995-02-23 12:00,ZBYN 231200Z AUTO 32006KT 7SM 04/M04 A3015 RMK T00401039 52009 IEM_DS3505
ZBYN,1995-02-23 13:00,ZBYN 231300Z AUTO 00000KT 6SM 04/M03 A3015 RMK T00401030 IEM_DS3505
ZBYN,1995-02-23 14:00,ZBYN 231400Z AUTO 31004KT 6SM 04/M04 A3015 RMK T00401040 IEM_DS3505
ZBYN,1995-02-23 15:00,ZBYN 231500Z AUTO 32004KT 6SM 03/M05 A3018 RMK SLP243 T00291054 52010 IEM_DS3505
ZBYN,1995-02-23 16:00,ZBYN 231600Z AUTO 00000KT 6SM 03/M05 A3015 RMK T00301050 IEM_DS3505
ZBYN,1995-02-23 18:00,ZBYN 231800Z AUTO 14004KT 6SM M02/M06 A3015 RMK SLP246 T10161058 54000 IEM_DS3505
ZBYN,1995-02-23 19:00,ZBYN 231900Z AUTO 00000KT 6SM M02/M07 A3015 RMK T10201070 IEM_DS3505
ZBYN,1995-02-23 20:00,ZBYN 232000Z AUTO 00000KT 6SM M03/M08 A3015 RMK T10301080 IEM_DS3505
ZBYN,1995-02-23 21:00,ZBYN 232100Z AUTO 09004KT 6SM M04/M05 A3012 RMK SLP238 T10361054 57010 IEM_DS3505
ZBYN,1995-02-23 22:00,ZBYN 232200Z AUTO 00000KT 6SM M03/M06 A3012 RMK T10301060 IEM_DS3505
ZBYN,1995-02-23 23:00,ZBYN 232300Z AUTO 00000KT 1 1/4SM M04/M07 A3015 RMK T10401070 IEM_DS3505
ZBYN,1995-02-24 00:00,ZBYN 240000Z AUTO 18002KT 6SM M05/M06 A3015 RMK SLP253 T10491059 52006 IEM_DS3505
ZBYN,1995-02-24 01:00,ZBYN 240100Z AUTO 13004KT 1SM M02/M05 A3018 RMK T10201050 IEM_DS3505
ZBYN,1995-02-24 02:00,ZBYN 240200Z AUTO 17006KT 2 1/2SM 01/M05 A3018 RMK T00101050 IEM_DS3505
ZBYN,1995-02-24 03:00,ZBYN 240300Z AUTO 32012KT 9SM 05/M10 A3015 RMK SLP239 T00531104 52002 IEM_DS3505
ZBYN,1995-02-24 04:00,ZBYN 240400Z AUTO 30008KT 7SM 06/M08 A3015 RMK T00601080 IEM_DS3505
ZBYN,1995-02-24 05:00,ZBYN 240500Z AUTO 28016KT 7SM 07/M10 A3009 RMK T00701100 IEM_DS3505
ZBYN,1995-02-24 06:00,ZBYN 240600Z AUTO 32012KT 12SM 07/M13 A3006 RMK SLP216 T00711134 57025 IEM_DS3505
ZBYN,1995-02-24 07:00,ZBYN 240700Z AUTO 29012KT 7SM 07/M09 A3006 RMK T00701090 IEM_DS3505
ZBYN,1995-02-24 08:00,ZBYN 240800Z AUTO 28017KT 7SM 06/M05 A3006 RMK T00601050 IEM_DS3505
ZBYN,1995-02-24 09:00,ZBYN 240900Z AUTO 32014KT 12SM 06/M12 A3006 RMK SLP215 T00611120 57006 IEM_DS3505
ZBYN,1995-02-24 10:00,ZBYN 241000Z AUTO 24006KT 6SM 05/M09 A3006 RMK T00501090 IEM_DS3505
ZBYN,1995-02-24 11:00,ZBYN 241100Z AUTO 28008KT 7SM 05/M10 A3006 RMK T00501100 IEM_DS3505
ZBYN,1995-02-24 12:00,ZBYN 241200Z AUTO 32012KT 9SM 05/M16 A3009 RMK SLP233 T00461159 52012 IEM_DS3505
ZBYN,1995-02-24 13:00,ZBYN 241300Z AUTO 30010KT 7SM 03/M10 A3012 RMK T00301100 IEM_DS3505
ZBYN,1995-02-24 14:00,ZBYN 241400Z AUTO 30012KT 7SM 03/M11 A3015 RMK T00301110 IEM_DS3505
ZBYN,1995-02-24 15:00,ZBYN 241500Z AUTO 32008KT 9SM 01/M18 RMK SLP236 T00121185 52014 IEM_DS3505
ZBYN,1995-02-24 16:00,ZBYN 241600Z AUTO 00000KT 7SM 01/M14 A3015 RMK T00101140 IEM_DS3505
ZBYN,1995-02-24 17:00,ZBYN 241700Z AUTO 29006KT 7SM 00/M14 A3018 RMK T00001140 IEM_DS3505
ZBYN,1995-02-24 18:00,ZBYN 241800Z AUTO 32008KT 9SM M01/M15 A3018 RMK SLP247 T10101149 52009 IEM_DS3505
ZBYN,1995-02-24 19:00,ZBYN 241900Z AUTO 29006KT 7SM M01/M13 A3018 RMK T10101130 IEM_DS3505
ZBYN,1995-02-24 20:00,ZBYN 242000Z AUTO 27006KT 7SM M02/M12 A3018 RMK T10201120 IEM_DS3505
ZBYN,1995-02-24 21:00,ZBYN 242100Z AUTO 32010KT 9SM M02/M14 A3018 RMK SLP253 T10231144 52002 IEM_DS3505
ZBYN,1995-02-24 22:00,ZBYN 242200Z AUTO 30006KT 7SM M03/M14 A3018 RMK T10301140 IEM_DS3505
ZBYN,1995-02-24 23:00,ZBYN 242300Z AUTO 00000KT 7SM M03/M15 A3021 RMK T10301150 IEM_DS3505
ZBYN,1995-02-25 00:00,ZBYN 250000Z AUTO 07004KT 12SM M04/M15 A3021 RMK SLP269 T10411154 52009 IEM_DS3505
ZBYN,1995-02-25 01:00,ZBYN 250100Z AUTO 11004KT 7SM M01/M15 A3021 RMK T10101150 IEM_DS3505
ZBYN,1995-02-25 02:00,ZBYN 250200Z AUTO 30014KT 7SM 02/M15 A3021 RMK T00201150 IEM_DS3505
ZBYN,1995-02-25 03:00,ZBYN 250300Z AUTO 32012KT 16SM 04/M13 A3021 RMK SLP259 T00361132 57002 IEM_DS3505
ZBYN,1995-02-25 04:00,ZBYN 250400Z AUTO 28008KT 7SM 05/M15 A3018 RMK T00501150 IEM_DS3505
ZBYN,1995-02-25 05:00,ZBYN 250500Z AUTO 30008KT 7SM 06/M14 A3012 RMK T00601140 IEM_DS3505
ZBYN,1995-02-25 06:00,ZBYN 250600Z AUTO 22008KT 12SM 07/M12 A3009 RMK SLP221 T00731122 57032 IEM_DS3505
ZBYN,1995-02-25 07:00,ZBYN 250700Z AUTO 20008KT 7SM 07/M17 A3006 RMK T00701170 IEM_DS3505
ZBYN,1995-02-25 08:00,ZBYN 250800Z AUTO 25010KT 7SM 07/M19 A3003 RMK T00701190 IEM_DS3505
ZBYN,1995-02-25 09:00,ZBYN 250900Z AUTO 20006KT 12SM 08/M14 A3003 RMK SLP203 T00771145 57018 IEM_DS3505
ZBYN,1995-02-25 10:00,ZBYN 251000Z AUTO 30010KT 7SM 06/M19 A3003 RMK T00601190 IEM_DS3505
ZBYN,1995-02-25 11:00,ZBYN 251100Z AUTO 30008KT 7SM 04/M19 A3006 RMK T00401190 IEM_DS3505
ZBYN,1995-02-25 12:00,ZBYN 251200Z AUTO 22004KT 11SM 01/M14 A3006 RMK SLP227 T00131142 52008 IEM_DS3505
ZBYN,1995-02-25 13:00,ZBYN 251300Z AUTO 00000KT 7SM 02/M16 A3006 RMK T00201160 IEM_DS3505
ZBYN,1995-02-25 14:00,ZBYN 251400Z AUTO 16012KT 7SM M02/M16 A3006 RMK T10201160 IEM_DS3505
ZBYN,1995-02-25 15:00,ZBYN 251500Z AUTO 11004KT 9SM M02/M16 A3006 RMK SLP219 T10201165 54000 IEM_DS3505
ZBYN,1995-02-25 16:00,ZBYN 251600Z AUTO 09004KT 7SM M04/M14 A3006 RMK T10401140 IEM_DS3505
ZBYN,1995-02-25 17:00,ZBYN 251700Z AUTO 09004KT 7SM M04/M15 A3006 RMK T10401150 IEM_DS3505
ZBYN,1995-02-25 18:00,ZBYN 251800Z AUTO 00000KT 9SM M04/M15 A3003 RMK SLP211 T10451148 57005 IEM_DS3505
ZBYN,1995-02-25 19:00,ZBYN 251900Z AUTO 00000KT 7SM M05/M14 A3003 RMK T10501140 IEM_DS3505
ZBYN,1995-02-25 20:00,ZBYN 252000Z AUTO 00000KT 7SM M05/M13 A3000 RMK T10501130 IEM_DS3505
ZBYN,1995-02-25 21:00,ZBYN 252100Z AUTO 00000KT 6SM M06/M13 A3000 RMK SLP200 T10621134 57012 IEM_DS3505
ZBYN,1995-02-25 22:00,ZBYN 252200Z AUTO 00000KT 7SM M06/M14 A2997 RMK T10601140 IEM_DS3505
ZBYN,1995-02-25 23:00,ZBYN 252300Z AUTO 00000KT 7SM M06/M15 A2997 RMK T10601150 IEM_DS3505
ZBYN,1995-02-26 00:00,ZBYN 260000Z AUTO 32002KT 5SM M06/M11 A3000 RMK SLP210 T10631114 57002 IEM_DS3505
ZBYN,1995-02-26 01:00,ZBYN 260100Z AUTO 00000KT 7SM 00/M13 A3000 RMK T00001130 IEM_DS3505
ZBYN,1995-02-26 02:00,ZBYN 260200Z AUTO 00000KT 7SM 03/M13 A3000 RMK T00301130 IEM_DS3505
ZBYN,1995-02-26 03:00,ZBYN 260300Z AUTO 14006KT 5SM 04/M15 A2997 RMK SLP191 T00411149 57005 IEM_DS3505
ZBYN,1995-02-26 04:00,ZBYN 260400Z AUTO 22008KT 7SM 07/M12 A2994 RMK T00701120 IEM_DS3505
ZBYN,1995-02-26 05:00,ZBYN 260500Z AUTO 18008KT 7SM 09/ A2988 RMK IEM_DS3505
ZBYN,1995-02-26 06:00,ZBYN 260600Z AUTO 22008KT 6SM 11/M14 A2983 RMK SLP137 T01101139 57042 IEM_DS3505
ZBYN,1995-02-26 07:00,ZBYN 260700Z AUTO 11006KT 7SM 10/M17 A2980 RMK T01001170 IEM_DS3505
ZBYN,1995-02-26 08:00,ZBYN 260800Z AUTO 29010KT 7SM 10/M20 A2980 RMK T01001200 IEM_DS3505
ZBYN,1995-02-26 09:00,ZBYN 260900Z AUTO 32010KT 7SM 10/M21 A2980 RMK SLP130 T00991210 57011 IEM_DS3505
ZBYN,1995-02-26 10:00,ZBYN 261000Z AUTO 30012KT 7SM 08/M14 A2980 RMK T00801140 IEM_DS3505
ZBYN,1995-02-26 11:00,ZBYN 261100Z AUTO 23006KT 6SM 05/M17 A2983 RMK T00501170 IEM_DS3505
ZBYN,1995-02-26 12:00,ZBYN 261200Z AUTO 22008KT 7SM 07/M14 A2983 RMK SLP136 T00691144 54000 IEM_DS3505
ZBYN,1995-02-26 13:00,ZBYN 261300Z AUTO 28006KT 6SM 06/M13 A2983 RMK T00601130 IEM_DS3505
ZBYN,1995-02-26 14:00,ZBYN 261400Z AUTO 29010KT 6SM 06/M13 A2983 RMK T00601130 IEM_DS3505
ZBYN,1995-02-26 15:00,ZBYN 261500Z AUTO 32010KT 7SM 06/M13 A2980 RMK SLP119 T00561130 57001 IEM_DS3505
ZBYN,1995-02-26 16:00,ZBYN 261600Z AUTO 32014KT 6SM 05/M14 A2980 RMK T00501140 IEM_DS3505
ZBYN,1995-02-26 17:00,ZBYN 261700Z AUTO 29017KT 6SM 04/M12 A2983 RMK T00401120 IEM_DS3505
ZBYN,1995-02-26 18:00,ZBYN 261800Z AUTO 32019KT 7SM 04/M18 A2983 RMK SLP111 T00411180 52001 IEM_DS3505
ZBYN,1995-02-26 20:00,ZBYN 262000Z AUTO 29017KT 7SM 02/M16 A2983 RMK T00201160 IEM_DS3505
ZBYN,1995-02-26 21:00,ZBYN 262100Z AUTO 34006KT 7SM 00/M18 A2991 RMK SLP140 T00041181 52019 IEM_DS3505
ZBYN,1995-02-26 22:00,ZBYN 262200Z AUTO 32010KT 7SM M02/M13 A2997 RMK T10201130 IEM_DS3505
ZBYN,1995-02-26 23:00,ZBYN 262300Z AUTO 35017KT 7SM M02/M23 A2997 RMK T10201230 IEM_DS3505
ZBYN,1995-02-27 00:00,ZBYN 270000Z AUTO 34012KT 12SM M02/M21 A3003 RMK SLP201 T10201209 52047 IEM_DS3505
ZBYN,1995-02-27 01:00,ZBYN 270100Z AUTO 36014KT 7SM M02/M18 A3006 RMK T10201180 IEM_DS3505
ZBYN,1995-02-27 02:00,ZBYN 270200Z AUTO 01014KT 7SM 00/M17 A3009 RMK T00001170 IEM_DS3505
ZBYN,1995-02-27 03:00,ZBYN 270300Z AUTO 36014KT 9SM 01/ A3012 RMK SLP226 52026 IEM_DS3505
ZBYN,1995-02-27 04:00,ZBYN 270400Z AUTO 34012KT 7SM 02/M12 A3012 RMK T00201120 IEM_DS3505
ZBYN,1995-02-27 05:00,ZBYN 270500Z AUTO 36017KT 7SM 02/M13 A3009 RMK T00201130 IEM_DS3505
ZBYN,1995-02-27 06:00,ZBYN 270600Z AUTO 34017KT 12SM 04/ A3006 RMK SLP210 57013 IEM_DS3505
ZBYN,1995-02-27 07:00,ZBYN 270700Z AUTO 31006KT 7SM 04/M09 A3006 RMK T00401090 IEM_DS3505
ZBYN,1995-02-27 08:00,ZBYN 270800Z AUTO 32006KT 7SM 03/M09 A3006 RMK T00301090 IEM_DS3505
ZBYN,1995-02-27 09:00,ZBYN 270900Z AUTO 32014KT 12SM 04/M26 A3006 RMK SLP219 T00351256 52002 IEM_DS3505
ZBYN,1995-02-27 11:00,ZBYN 271100Z AUTO 02004KT 7SM 00/M18 A3009 RMK T00001180 IEM_DS3505
ZBYN,1995-02-27 12:00,ZBYN 271200Z AUTO 32004KT 12SM M02/M23 A3012 RMK SLP246 T10151226 52012 IEM_DS3505
ZBYN,1995-02-27 13:00,ZBYN 271300Z AUTO 06004KT 7SM M05/M17 A3012 RMK T10501170 IEM_DS3505
ZBYN,1995-02-27 14:00,ZBYN 271400Z AUTO 07004KT 7SM M05/M18 A3012 RMK T10501180 IEM_DS3505
ZBYN,1995-02-27 15:00,ZBYN 271500Z AUTO 22004KT 9SM M07/M23 A3012 RMK SLP250 T10671233 52001 IEM_DS3505
ZBYN,1995-02-27 16:00,ZBYN 271600Z AUTO 11004KT 7SM M07/M20 A3012 RMK T10701200 IEM_DS3505
ZBYN,1995-02-27 17:00,ZBYN 271700Z AUTO 07004KT 7SM M07/M21 A3012 RMK T10701210 IEM_DS3505
ZBYN,1995-02-27 18:00,ZBYN 271800Z AUTO 00000KT 6SM M09/M19 A3009 RMK SLP245 T10861190 57004 IEM_DS3505
ZBYN,1995-02-27 19:00,ZBYN 271900Z AUTO 09004KT 7SM M08/M23 A3009 RMK T10801230 IEM_DS3505
ZBYN,1995-02-27 20:00,ZBYN 272000Z AUTO 00000KT 7SM M08/M25 A3009 RMK T10801250 IEM_DS3505
ZBYN,1995-02-27 21:00,ZBYN 272100Z AUTO 00000KT 6SM M11/M15 A3006 RMK SLP239 T11071153 57009 IEM_DS3505
ZBYN,1995-02-27 22:00,ZBYN 272200Z AUTO 00000KT 7SM M09/M14 A3006 RMK T10901140 IEM_DS3505
ZBYN,1995-02-27 23:00,ZBYN 272300Z AUTO 00000KT 7SM M10/M15 A3006 RMK T11001150 IEM_DS3505
ZBYN,1995-02-28 00:00,ZBYN 280000Z AUTO 32004KT 6SM M08/M15 A3009 RMK SLP242 T10821154 57002 IEM_DS3505
ZBYN,1995-02-28 01:00,ZBYN 280100Z AUTO 00000KT 7SM M04/M20 A3009 RMK T10401200 IEM_DS3505
ZBYN,1995-02-28 02:00,ZBYN 280200Z AUTO 14004KT 7SM 01/M23 A3006 RMK T00101230 IEM_DS3505
ZBYN,1995-02-28 03:00,ZBYN 280300Z AUTO 14008KT 5SM 01/M19 A3006 RMK SLP231 T00141187 57002 IEM_DS3505
ZBYN,1995-02-28 04:00,ZBYN 280400Z AUTO 21006KT 7SM 04/M22 A3003 RMK T00401220 IEM_DS3505
ZBYN,1995-02-28 05:00,ZBYN 280500Z AUTO 15004KT 7SM 06/M23 A2997 RMK T00601230 IEM_DS3505
ZBYN,1995-02-28 06:00,ZBYN 280600Z AUTO 16010KT 7SM 07/M27 A2994 RMK SLP183 T00691268 57038 IEM_DS3505
ZBYN,1995-02-28 07:00,ZBYN 280700Z AUTO 20010KT 7SM 08/M22 A2991 RMK T00801220 IEM_DS3505
ZBYN,1995-02-28 08:00,ZBYN 280800Z AUTO 00000KT 7SM 10/M19 A2988 RMK T01001190 IEM_DS3505
ZBYN,1995-02-28 09:00,ZBYN 280900Z AUTO 16006KT 7SM 08/M19 A2985 RMK SLP157 T00841188 57024 IEM_DS3505
ZBYN,1995-02-28 10:00,ZBYN 281000Z AUTO 00000KT 7SM 07/M12 A2985 RMK T00701120 IEM_DS3505
ZBYN,1995-02-28 11:00,ZBYN 281100Z AUTO 00000KT 7SM 05/M18 A2985 RMK T00501180 IEM_DS3505
ZBYN,1995-02-28 12:00,ZBYN 281200Z AUTO 32002KT 12SM 01/M16 A2988 RMK SLP169 T00121163 52003 IEM_DS3505
ZBYN,1995-02-28 13:00,ZBYN 281300Z AUTO 10008KT 7SM 03/M14 A2988 RMK T00301140 IEM_DS3505
ZBYN,1995-02-28 14:00,ZBYN 281400Z AUTO 06012KT 7SM 03/M12 A2991 RMK T00301120 IEM_DS3505
ZBYN,1995-02-28 15:00,ZBYN 281500Z AUTO 34002KT 12SM M00/M14 A2994 RMK SLP174 T10021140 52018 IEM_DS3505
ZBYN,1995-02-28 16:00,ZBYN 281600Z AUTO 00000KT 7SM 00/M16 A2994 RMK T00001160 IEM_DS3505
ZBYN,1995-02-28 17:00,ZBYN 281700Z AUTO 00000KT 7SM M01/M14 A2994 RMK T10101140 IEM_DS3505
ZBYN,1995-02-28 18:00,ZBYN 281800Z AUTO 34004KT 12SM M03/M14 A2994 RMK SLP171 T10271138 52002 IEM_DS3505
ZBYN,1995-02-28 19:00,ZBYN 281900Z AUTO 00000KT 7SM M03/M14 A2994 RMK T10301140 IEM_DS3505
ZBYN,1995-02-28 20:00,ZBYN 282000Z AUTO 00000KT 7SM M04/M13 A2994 RMK T10401130 IEM_DS3505
ZBYN,1995-02-28 21:00,ZBYN 282100Z AUTO 34006KT 12SM M04/M12 A2994 RMK SLP169 T10361125 57001 IEM_DS3505
ZBYN,1995-02-28 22:00,ZBYN 282200Z AUTO 00000KT 7SM M05/M13 A2994 RMK T10501130 IEM_DS3505
ZBYN,1995-02-28 23:00,ZBYN 282300Z AUTO 00000KT 3SM M06/M14 A2997 RMK T10601140 IEM_DS3505
ZBYN,1995-03-01 00:00,ZBYN 010000Z AUTO 20002KT 9SM M03/M13 A2997 RMK SLP190 T10261130 52009 IEM_DS3505
ZBYN,1995-03-01 01:00,ZBYN 010100Z AUTO 00000KT 4SM M02/M12 A3000 RMK T10201120 IEM_DS3505
ZBYN,1995-03-01 02:00,ZBYN 010200Z AUTO 00000KT 2 1/2SM 02/M13 A2997 RMK T00201130 IEM_DS3505
ZBYN,1995-03-01 03:00,ZBYN 010300Z AUTO 34004KT 6SM 04/M15 A2997 RMK SLP187 T00451146 52007 IEM_DS3505
ZBYN,1995-03-01 04:00,ZBYN 010400Z AUTO 18002KT 7SM 08/M14 A2997 RMK T00801140 IEM_DS3505
ZBYN,1995-03-01 05:00,ZBYN 010500Z AUTO 00000KT 7SM 09/M13 A2991 RMK T00901130 IEM_DS3505
ZBYN,1995-03-01 06:00,ZBYN 010600Z AUTO 18006KT 6SM 10/M14 A2988 RMK SLP154 T00951141 57026 IEM_DS3505
ZBYN,1995-03-01 07:00,ZBYN 010700Z AUTO 17006KT 6SM 11/M10 A2988 RMK T01101100 IEM_DS3505
ZBYN,1995-03-01 08:00,ZBYN 010800Z AUTO 17008KT 6SM 11/M09 A2985 RMK T01101090 IEM_DS3505
ZBYN,1995-03-01 09:00,ZBYN 010900Z AUTO 16004KT 6SM 10/M13 A2985 RMK SLP146 T01031131 57008 IEM_DS3505
ZBYN,1995-03-01 10:00,ZBYN 011000Z AUTO 00000KT 6SM 09/M08 A2988 RMK T00901080 IEM_DS3505
ZBYN,1995-03-01 11:00,ZBYN 011100Z AUTO 00000KT 3SM 07/M08 A2991 RMK T00701080 IEM_DS3505
ZBYN,1995-03-01 12:00,ZBYN 011200Z AUTO 32004KT 6SM 05/M07 A2994 RMK SLP172 T00521071 52017 IEM_DS3505
ZBYN,1995-03-01 13:00,ZBYN 011300Z AUTO 00000KT 5SM 06/M08 A2994 RMK T00601080 IEM_DS3505
ZBYN,1995-03-01 14:00,ZBYN 011400Z AUTO 00000KT 5SM 04/M09 A2997 RMK T00401090 IEM_DS3505
ZBYN,1995-03-01 15:00,ZBYN 011500Z AUTO 14006KT 6SM 04/M10 A3000 RMK SLP183 T00441105 52020 IEM_DS3505
ZBYN,1995-03-01 16:00,ZBYN 011600Z AUTO 00000KT 5SM 03/M08 A3000 RMK T00301080 IEM_DS3505
ZBYN,1995-03-01 18:00,ZBYN 011800Z AUTO 32008KT 6SM 06/M14 A3003 RMK SLP183 T00591138 52010 IEM_DS3505
ZBYN,1995-03-01 19:00,ZBYN 011900Z AUTO 30008KT 7SM 05/M16 A3006 RMK T00501160 IEM_DS3505
ZBYN,1995-03-01 20:00,ZBYN 012000Z AUTO 23008KT 7SM 03/M15 A3006 RMK T00301150 IEM_DS3505
ZBYN,1995-03-01 21:00,ZBYN 012100Z AUTO 29010KT 6SM 03/M17 A3006 RMK SLP196 T00301172 52009 IEM_DS3505
ZBYN,1995-03-01 22:00,ZBYN 012200Z AUTO 31006KT 7SM 02/M14 A3009 RMK T00201140 IEM_DS3505
ZBYN,1995-03-01 23:00,ZBYN 012300Z AUTO 32008KT 6SM 02/M14 A3012 RMK T00201140 IEM_DS3505
ZBYN,1995-03-02 00:00,ZBYN 020000Z AUTO 36008KT 9SM 02/M18 A3015 RMK SLP245 T00161179 52034 IEM_DS3505
ZBYN,1995-03-02 01:00,ZBYN 020100Z AUTO 33006KT 6SM 03/M16 A3018 RMK T00301160 IEM_DS3505
ZBYN,1995-03-02 02:00,ZBYN 020200Z AUTO 31004KT 7SM 04/M15 A3018 RMK T00401150 IEM_DS3505
ZBYN,1995-03-02 03:00,ZBYN 020300Z AUTO 34008KT 9SM 07/M19 A3018 RMK SLP241 T00671188 52003 IEM_DS3505
ZBYN,1995-03-02 04:00,ZBYN 020400Z AUTO 30004KT 7SM 07/M13 A3015 RMK T00701130 IEM_DS3505
ZBYN,1995-03-02 05:00,ZBYN 020500Z AUTO 29010KT 7SM 07/M19 A3012 RMK T00701190 IEM_DS3505
ZBYN,1995-03-02 06:00,ZBYN 020600Z AUTO 29017KT 12SM 09/M21 A3012 RMK SLP211 T00881208 57021 IEM_DS3505
ZBYN,1995-03-02 07:00,ZBYN 020700Z AUTO 27012KT 7SM 09/M18 A3009 RMK T00901180 IEM_DS3505
ZBYN,1995-03-02 08:00,ZBYN 020800Z AUTO 29016KT 7SM 09/M17 A3009 RMK T00901170 IEM_DS3505
ZBYN,1995-03-02 09:00,ZBYN 020900Z AUTO 29014KT 12SM 08/M18 A3009 RMK SLP216 T00781176 57002 IEM_DS3505
ZBYN,1995-03-02 10:00,ZBYN 021000Z AUTO 29012KT 7SM 07/M14 A3012 RMK T00701140 IEM_DS3505
ZBYN,1995-03-02 11:00,ZBYN 021100Z AUTO 30008KT 7SM 05/M16 A3015 RMK T00501160 IEM_DS3505
ZBYN,1995-03-02 12:00,ZBYN 021200Z AUTO 25004KT 9SM 03/M13 A3015 RMK SLP240 T00311127 52012 IEM_DS3505
ZBYN,1995-03-02 13:00,ZBYN 021300Z AUTO 00000KT 7SM 04/M12 A3015 RMK T00401120 IEM_DS3505
ZBYN,1995-03-02 14:00,ZBYN 021400Z AUTO 26006KT 7SM 03/M14 A3015 RMK T00301140 IEM_DS3505
ZBYN,1995-03-02 15:00,ZBYN 021500Z AUTO 25004KT 6SM 01/M10 A3015 RMK SLP238 T00141095 52004 IEM_DS3505
ZBYN,1995-03-02 16:00,ZBYN 021600Z AUTO 30012KT 7SM 04/M13 A3015 RMK T00401130 IEM_DS3505
ZBYN,1995-03-02 17:00,ZBYN 021700Z AUTO 30016KT 7SM 04/M15 A3015 RMK T00401150 IEM_DS3505
ZBYN,1995-03-02 18:00,ZBYN 021800Z AUTO 32014KT 6SM 02/M13 A3015 RMK SLP238 T00211131 52004 IEM_DS3505
ZBYN,1995-03-02 19:00,ZBYN 021900Z AUTO 30012KT 7SM 03/M13 A3015 RMK T00301130 IEM_DS3505
ZBYN,1995-03-02 20:00,ZBYN 022000Z AUTO 34006KT 7SM 01/M10 A3015 RMK T00101100 IEM_DS3505
ZBYN,1995-03-02 21:00,ZBYN 022100Z AUTO 32010KT 6SM M01/M15 A3015 RMK SLP245 T10091154 54000 IEM_DS3505
ZBYN,1995-03-02 22:00,ZBYN 022200Z AUTO 31008KT 7SM M01/M12 A3018 RMK T10101120 IEM_DS3505
ZBYN,1995-03-02 23:00,ZBYN 022300Z AUTO 30008KT 7SM M01/M13 A3021 RMK T10101130 IEM_DS3505
ZBYN,1995-03-03 00:00,ZBYN 030000Z AUTO 32010KT 12SM M02/M13 A3027 RMK SLP286 T10211133 52028 IEM_DS3505
ZBYN,1995-03-03 02:00,ZBYN 030200Z AUTO 01016KT 7SM 00/M12 A3033 RMK T00001120 IEM_DS3505
ZBYN,1995-03-03 03:00,ZBYN 030300Z AUTO 04008KT 12SM 01/M11 A3033 RMK SLP309 T00121114 52024 IEM_DS3505
ZBYN,1995-03-03 04:00,ZBYN 030400Z AUTO 01010KT 7SM 02/M18 A3033 RMK T00201180 IEM_DS3505
ZBYN,1995-03-03 05:00,ZBYN 030500Z AUTO 36002KT 7SM 03/M16 A3033 RMK T00301160 IEM_DS3505
ZBYN,1995-03-03 06:00,ZBYN 030600Z AUTO 29004KT 12SM 04/M15 A3030 RMK SLP288 T00401147 57014 IEM_DS3505
ZBYN,1995-03-03 07:00,ZBYN 030700Z AUTO 31012KT 7SM 06/M18 A3027 RMK T00601180 IEM_DS3505
ZBYN,1995-03-03 08:00,ZBYN 030800Z AUTO 31006KT 7SM 05/M15 A3027 RMK T00501150 IEM_DS3505
ZBYN,1995-03-03 09:00,ZBYN 030900Z AUTO 32014KT 12SM 05/M21 A3027 RMK SLP285 T00501214 57006 IEM_DS3505
ZBYN,1995-03-03 10:00,ZBYN 031000Z AUTO 31012KT 7SM 04/M21 A3027 RMK T00401210 IEM_DS3505
ZBYN,1995-03-03 11:00,ZBYN 031100Z AUTO 29010KT 7SM 03/M19 A3030 RMK T00301190 IEM_DS3505
ZBYN,1995-03-03 12:00,ZBYN 031200Z AUTO 32006KT 9SM 01/M15 A3033 RMK SLP309 T00081154 52013 IEM_DS3505
ZBYN,1995-03-03 13:00,ZBYN 031300Z AUTO 28006KT 7SM 01/M14 A3033 RMK T00101140 IEM_DS3505
ZBYN,1995-03-03 14:00,ZBYN 031400Z AUTO 27006KT 7SM 00/M16 A3033 RMK T00001160 IEM_DS3505
ZBYN,1995-03-03 15:00,ZBYN 031500Z AUTO 29006KT 6SM M02/M15 A3033 RMK SLP312 T10201151 52004 IEM_DS3505
ZBYN,1995-03-03 16:00,ZBYN 031600Z AUTO 27004KT 7SM M01/M14 A3033 RMK T10101140 IEM_DS3505
ZBYN,1995-03-03 17:00,ZBYN 031700Z AUTO 00000KT 7SM M05/M16 A3033 RMK T10501160 IEM_DS3505
ZBYN,1995-03-03 18:00,ZBYN 031800Z AUTO 34004KT 6SM M01/M14 A3033 RMK SLP303 T10091141 57002 IEM_DS3505
ZBYN,1995-03-03 19:00,ZBYN 031900Z AUTO 09006KT 7SM M07/M14 A3030 RMK T10701140 IEM_DS3505
ZBYN,1995-03-03 20:00,ZBYN 032000Z AUTO 09006KT 7SM M06/M16 A3030 RMK T10601160 IEM_DS3505
ZBYN,1995-03-03 21:00,ZBYN 032100Z AUTO 00000KT 6SM M06/M16 A3030 RMK SLP298 T10601156 57011 IEM_DS3505
ZBYN,1995-03-03 22:00,ZBYN 032200Z AUTO 06004KT 7SM M06/M14 A3030 RMK T10601140 IEM_DS3505
ZBYN,1995-03-03 23:00,ZBYN 032300Z AUTO 00000KT 7SM M08/M16 A3030 RMK T10801160 IEM_DS3505
ZBYN,1995-03-04 00:00,ZBYN 040000Z AUTO 14002KT 6SM M05/M13 A3030 RMK SLP314 T10531126 52008 IEM_DS3505
ZBYN,1995-03-04 01:00,ZBYN 040100Z AUTO 30006KT 7SM 00/M16 A3033 RMK T00001160 IEM_DS3505
ZBYN,1995-03-04 02:00,ZBYN 040200Z AUTO 25008KT 7SM 02/M13 A3033 RMK T00201130 IEM_DS3505
ZBYN,1995-03-04 03:00,ZBYN 040300Z AUTO 16006KT 6SM 05/M17 A3030 RMK SLP296 T00471166 57004 IEM_DS3505
ZBYN,1995-03-04 04:00,ZBYN 040400Z AUTO 25004KT 7SM 06/M17 A3027 RMK T00601170 IEM_DS3505
ZBYN,1995-03-04 05:00,ZBYN 040500Z AUTO 16004KT 7SM 08/M16 A3024 RMK T00801160 IEM_DS3505
ZBYN,1995-03-04 06:00,ZBYN 040600Z AUTO 20006KT 6SM 08/M13 A3018 RMK SLP251 T00781129 57034 IEM_DS3505
ZBYN,1995-03-04 07:00,ZBYN 040700Z AUTO 20010KT 7SM 09/M14 A3015 RMK T00901140 IEM_DS3505
ZBYN,1995-03-04 08:00,ZBYN 040800Z AUTO 20006KT 7SM 09/M16 A3012 RMK T00901160 IEM_DS3505
ZBYN,1995-03-04 09:00,ZBYN 040900Z AUTO 20008KT 9SM 09/M15 A3009 RMK SLP231 T00871153 57025 IEM_DS3505
ZBYN,1995-03-04 10:00,ZBYN 041000Z AUTO 21006KT 7SM 08/M13 A3009 RMK T00801130 IEM_DS3505
ZBYN,1995-03-04 11:00,ZBYN 041100Z AUTO 00000KT 7SM 05/M07 A3009 RMK T00501070 IEM_DS3505
ZBYN,1995-03-04 12:00,ZBYN 041200Z AUTO 14006KT 9SM 02/M14 A3012 RMK SLP242 T00241143 52001 IEM_DS3505
ZBYN,1995-03-04 13:00,ZBYN 041300Z AUTO 09004KT 7SM M01/M13 A3012 RMK T10101130 IEM_DS3505
ZBYN,1995-03-04 14:00,ZBYN 041400Z AUTO 12004KT 7SM M02/M13 A3012 RMK T10201130 IEM_DS3505
ZBYN,1995-03-04 15:00,ZBYN 041500Z AUTO 16004KT 9SM M02/M12 A3012 RMK SLP238 T10221123 52005 IEM_DS3505
ZBYN,1995-03-04 16:00,ZBYN 041600Z AUTO 09006KT 7SM M02/M12 A3012 RMK T10201120 IEM_DS3505
ZBYN,1995-03-04 17:00,ZBYN 041700Z AUTO 09004KT 7SM M03/M11 A3012 RMK T10301110 IEM_DS3505
ZBYN,1995-03-04 18:00,ZBYN 041800Z AUTO 02002KT 9SM M03/M11 A3012 RMK SLP234 T10341111 57001 IEM_DS3505
ZBYN,1995-03-04 19:00,ZBYN 041900Z AUTO 09004KT 7SM M04/M11 A3009 RMK T10401110 IEM_DS3505
ZBYN,1995-03-04 20:00,ZBYN 042000Z AUTO 09002KT 7SM M05/M13 A3009 RMK T10501130 IEM_DS3505
ZBYN,1995-03-04 21:00,ZBYN 042100Z AUTO 00000KT 6SM M06/M12 A3009 RMK SLP226 T10561120 57009 IEM_DS3505
ZBYN,1995-03-04 22:00,ZBYN 042200Z AUTO 00000KT 7SM M07/M12 A3009 RMK T10701120 IEM_DS3505
ZBYN,1995-03-04 23:00,ZBYN 042300Z AUTO 00000KT 5SM M07/M12 A3009 RMK T10701120 IEM_DS3505
ZBYN,1995-03-05 00:00,ZBYN 050000Z AUTO 16004KT 5SM M06/M11 A3009 RMK SLP241 T10631114 52002 IEM_DS3505
ZBYN,1995-03-05 01:00,ZBYN 050100Z AUTO 00000KT 5SM M01/M10 A3012 RMK T10101100 IEM_DS3505
ZBYN,1995-03-05 02:00,ZBYN 050200Z AUTO 15002KT 5SM 02/M13 A3009 RMK T00201130 IEM_DS3505
ZBYN,1995-03-05 03:00,ZBYN 050300Z AUTO 00000KT 5SM 04/M13 A3009 RMK SLP221 T00421129 57008 IEM_DS3505
ZBYN,1995-03-05 04:00,ZBYN 050400Z AUTO 17006KT 6SM 08/M13 A3003 RMK T00801130 IEM_DS3505
ZBYN,1995-03-05 05:00,ZBYN 050500Z AUTO 00000KT 6SM 08/M13 A3000 RMK T00801130 IEM_DS3505
ZBYN,1995-03-05 06:00,ZBYN 050600Z AUTO 16004KT 5SM 08/M15 A2997 RMK SLP179 T00851150 57033 IEM_DS3505
ZBYN,1995-03-05 07:00,ZBYN 050700Z AUTO 18004KT 6SM 12/M11 A2991 RMK T01201110 IEM_DS3505
ZBYN,1995-03-05 08:00,ZBYN 050800Z AUTO 18010KT 6SM 12/M12 A2991 RMK T01201120 IEM_DS3505
ZBYN,1995-03-05 09:00,ZBYN 050900Z AUTO 20004KT 6SM 12/M19 A2991 RMK SLP156 T01181193 57020 IEM_DS3505
ZBYN,1995-03-05 10:00,ZBYN 051000Z AUTO 29017KT 7SM 11/M19 A2991 RMK T01101190 IEM_DS3505
ZBYN,1995-03-05 11:00,ZBYN 051100Z AUTO 29004KT 7SM 08/M15 A2994 RMK T00801150 IEM_DS3505
ZBYN,1995-03-05 12:00,ZBYN 051200Z AUTO 27004KT 9SM 06/M11 A2997 RMK SLP187 T00571111 52018 IEM_DS3505
ZBYN,1995-03-05 13:00,ZBYN 051300Z AUTO 00000KT 7SM 03/M13 A2997 RMK T00301130 IEM_DS3505
ZBYN,1995-03-05 14:00,ZBYN 051400Z AUTO 10004KT 7SM 01/M13 A3000 RMK T00101130 IEM_DS3505
ZBYN,1995-03-05 15:00,ZBYN 051500Z AUTO 11006KT 6SM 00/M13 A3000 RMK SLP190 T00001126 52010 IEM_DS3505
ZBYN,1995-03-05 16:00,ZBYN 051600Z AUTO 08006KT 7SM M01/M13 A3000 RMK T10101130 IEM_DS3505
ZBYN,1995-03-05 17:00,ZBYN 051700Z AUTO 09006KT 7SM M02/M15 A3000 RMK T10201150 IEM_DS3505
ZBYN,1995-03-05 18:00,ZBYN 051800Z AUTO 16004KT 6SM M03/M11 A3000 RMK SLP189 T10271110 52002 IEM_DS3505
ZBYN,1995-03-05 20:00,ZBYN 052000Z AUTO 00000KT 7SM M03/M13 A2997 RMK T10301130 IEM_DS3505
ZBYN,1995-03-05 21:00,ZBYN 052100Z AUTO 00000KT 6SM M04/M10 A2997 RMK SLP178 T10391104 57007 IEM_DS3505
ZBYN,1995-03-05 22:00,ZBYN 052200Z AUTO 00000KT 7SM M05/M13 A3000 RMK T10501130 IEM_DS3505
ZBYN,1995-03-05 23:00,ZBYN 052300Z AUTO 08006KT 7SM M06/M13 A3000 RMK T10601130 IEM_DS3505
ZBYN,1995-03-06 00:00,ZBYN 060000Z AUTO 16004KT 6SM M04/M10 A3000 RMK SLP202 T10421104 52012 IEM_DS3505
ZBYN,1995-03-06 01:00,ZBYN 060100Z AUTO 12006KT 5SM 02/M14 A3003 RMK T00201140 IEM_DS3505
ZBYN,1995-03-06 02:00,ZBYN 060200Z AUTO 15002KT 5SM 06/M12 A3000 RMK T00601120 IEM_DS3505
ZBYN,1995-03-06 03:00,ZBYN 060300Z AUTO 14004KT 7SM 08/M13 A3000 RMK SLP190 T00771130 57001 IEM_DS3505
ZBYN,1995-03-06 05:00,ZBYN 060500Z AUTO 16004KT 7SM 12/M13 A2997 RMK T01201130 IEM_DS3505
ZBYN,1995-03-06 06:00,ZBYN 060600Z AUTO 20004KT 7SM 14/M19 A2994 RMK SLP160 T01351186 57023 IEM_DS3505
ZBYN,1995-03-06 07:00,ZBYN 060700Z AUTO 23006KT 7SM 14/M19 A2991 RMK T01401190 IEM_DS3505
ZBYN,1995-03-06 08:00,ZBYN 060800Z AUTO 28006KT 7SM 14/M20 A2991 RMK T01401200 IEM_DS3505
ZBYN,1995-03-06 09:00,ZBYN 060900Z AUTO 18010KT 9SM 14/M20 A2991 RMK SLP150 T01391199 57010 IEM_DS3505
ZBYN,1995-03-06 10:00,ZBYN 061000Z AUTO 19004KT 6SM 12/M08 A2991 RMK T01201080 IEM_DS3505
ZBYN,1995-03-06 11:00,ZBYN 061100Z AUTO 24006KT 7SM 09/M14 A2994 RMK T00901140 IEM_DS3505
ZBYN,1995-03-06 12:00,ZBYN 061200Z AUTO 29006KT 6SM 08/M16 A2997 RMK SLP180 T00801158 52017 IEM_DS3505
ZBYN,1995-03-06 14:00,ZBYN 061400Z AUTO 08006KT 7SM 01/M11 A3003 RMK T00101110 IEM_DS3505
ZBYN,1995-03-06 15:00,ZBYN 061500Z AUTO 09004KT 6SM 02/M18 A3003 RMK SLP190 T00151181 52018 IEM_DS3505
ZBYN,1995-03-06 16:00,ZBYN 061600Z AUTO 06006KT 7SM M01/M14 A3003 RMK T10101140 IEM_DS3505
ZBYN,1995-03-06 17:00,ZBYN 061700Z AUTO 09006KT 7SM M01/M16 A3003 RMK T10101160 IEM_DS3505
ZBYN,1995-03-06 18:00,ZBYN 061800Z AUTO 34002KT 6SM M00/M14 A3003 RMK SLP189 T10021137 52006 IEM_DS3505
ZBYN,1995-03-06 19:00,ZBYN 061900Z AUTO 06002KT 7SM M03/M14 A3006 RMK T10301140 IEM_DS3505
ZBYN,1995-03-06 20:00,ZBYN 062000Z AUTO 00000KT 7SM M04/M15 A3003 RMK T10401150 IEM_DS3505
ZBYN,1995-03-06 21:00,ZBYN 062100Z AUTO 11004KT 6SM M04/M10 A3006 RMK SLP199 T10441097 52003 IEM_DS3505
ZBYN,1995-03-06 22:00,ZBYN 062200Z AUTO 00000KT 6SM M06/M14 A3006 RMK T10601140 IEM_DS3505
ZBYN,1995-03-06 23:00,ZBYN 062300Z AUTO 00000KT 5SM M05/M09 A3009 RMK T10501090 IEM_DS3505
ZBYN,1995-03-07 00:00,ZBYN 070000Z AUTO 34004KT 6SM M02/M09 A3009 RMK SLP216 T10201094 52010 IEM_DS3505
ZBYN,1995-03-07 01:00,ZBYN 070100Z AUTO 00000KT 3SM 02/M14 A3012 RMK T00201140 IEM_DS3505
ZBYN,1995-03-07 02:00,ZBYN 070200Z AUTO 00000KT 1 1/2SM 06/M14 A3012 RMK T00601140 IEM_DS3505
ZBYN,1995-03-07 03:00,ZBYN 070300Z AUTO 20004KT 6SM 10/M16 A3009 RMK SLP215 T01001159 52007 IEM_DS3505
ZBYN,1995-03-07 04:00,ZBYN 070400Z AUTO 20008KT 2 1/2SM 12/M12 A3009 RMK T01201120 IEM_DS3505
ZBYN,1995-03-07 05:00,ZBYN 070500Z AUTO 18008KT 4SM 15/M11 A3006 RMK T01501110 IEM_DS3505
ZBYN,1995-03-07 06:00,ZBYN 070600Z AUTO 18010KT 7SM 15/M17 A3000 RMK SLP176 T01531166 57029 IEM_DS3505
ZBYN,1995-03-07 07:00,ZBYN 070700Z AUTO 18004KT 7SM 17/M13 A2997 RMK T01701130 IEM_DS3505
ZBYN,1995-03-07 08:00,ZBYN 070800Z AUTO 18004KT 7SM 17/M12 A2997 RMK T01701120 IEM_DS3505
ZBYN,1995-03-07 09:00,ZBYN 070900Z AUTO 16004KT 6SM 16/M17 A2994 RMK SLP167 T01591167 57014 IEM_DS3505
ZBYN,1995-03-07 10:00,ZBYN 071000Z AUTO 00000KT 6SM 15/M09 A2994 RMK T01501090 IEM_DS3505
ZBYN,1995-03-07 11:00,ZBYN 071100Z AUTO 00000KT 6SM 10/M09 A2997 RMK T01001090 IEM_DS3505
ZBYN,1995-03-07 12:00,ZBYN 071200Z AUTO 34002KT 6SM 10/M13 A3000 RMK SLP182 T00971129 52007 IEM_DS3505
ZBYN,1995-03-07 13:00,ZBYN 071300Z AUTO 00000KT 7SM 05/M09 A3000 RMK T00501090 IEM_DS3505
ZBYN,1995-03-07 14:00,ZBYN 071400Z AUTO 08004KT 7SM 04/M11 A3000 RMK T00401110 IEM_DS3505
ZBYN,1995-03-07 15:00,ZBYN 071500Z AUTO 32004KT 6SM 06/M10 A3000 RMK SLP173 T00621103 52006 IEM_DS3505
ZBYN,1995-03-07 16:00,ZBYN 071600Z AUTO 11006KT 6SM 02/M09 A3000 RMK T00201090 IEM_DS3505
ZBYN,1995-03-07 17:00,ZBYN 071700Z AUTO 00000KT 6SM 01/M08 A3000 RMK T00101080 IEM_DS3505
ZBYN,1995-03-07 18:00,ZBYN 071800Z AUTO 00000KT 6SM 03/M10 A3003 RMK SLP174 T00301096 52004 IEM_DS3505
ZBYN,1995-03-07 19:00,ZBYN 071900Z AUTO 00000KT 6SM 02/M08 A3000 RMK T00201080 IEM_DS3505
ZBYN,1995-03-07 20:00,ZBYN 072000Z AUTO 00000KT 6SM 01/M07 A3000 RMK T00101070 IEM_DS3505
ZBYN,1995-03-07 21:00,ZBYN 072100Z AUTO 34004KT 6SM 02/M10 A3000 RMK SLP173 T00211102 57002 IEM_DS3505
ZBYN,1995-03-07 22:00,ZBYN 072200Z AUTO 00000KT 6SM 00/M10 A3000 RMK T00001100 IEM_DS3505
ZBYN,1995-03-07 23:00,ZBYN 072300Z AUTO 00000KT 1 1/4SM 02/M09 A3000 RMK T00201090 IEM_DS3505
ZBYN,1995-03-08 00:00,ZBYN 080000Z AUTO 36004KT 5SM 05/M13 A3000 RMK SLP175 T00471128 57003 IEM_DS3505
ZBYN,1995-03-08 01:00,ZBYN 080100Z AUTO 00000KT 2SM 05/M07 A3000 RMK T00501070 IEM_DS3505
ZBYN,1995-03-08 02:00,ZBYN 080200Z AUTO 00000KT 2SM 08/M05 A3000 RMK T00801050 IEM_DS3505
ZBYN,1995-03-08 03:00,ZBYN 080300Z AUTO 27002KT 6SM 11/M09 A3000 RMK SLP167 T01061093 57004 IEM_DS3505
ZBYN,1995-03-08 04:00,ZBYN 080400Z AUTO 28004KT 4SM 12/M07 A2997 RMK T01201070 IEM_DS3505
ZBYN,1995-03-08 05:00,ZBYN 080500Z AUTO 26006KT 5SM 13/M08 A2994 RMK T01301080 IEM_DS3505
ZBYN,1995-03-08 06:00,ZBYN 080600Z AUTO 18008KT 6SM 14/M07 A2991 RMK SLP142 T01371072 57023 IEM_DS3505
ZBYN,1995-03-08 07:00,ZBYN 080700Z AUTO 21008KT 5SM 13/M04 A2988 RMK T01301040 IEM_DS3505
ZBYN,1995-03-08 08:00,ZBYN 080800Z AUTO 21002KT 3SM 13/M04 A2988 RMK T01301040 IEM_DS3505
ZBYN,1995-03-08 09:00,ZBYN 080900Z AUTO 16004KT 6SM 12/M08 A2988 RMK SLP138 T01231085 57007 IEM_DS3505
ZBYN,1995-03-08 10:00,ZBYN 081000Z AUTO 31019KT 5SM 11/M04 A2994 RMK T01101040 IEM_DS3505
ZBYN,1995-03-08 11:00,ZBYN 081100Z AUTO 29025KT 2SM 07/00 A3000 RMK T00700000 IEM_DS3505
ZBYN,1995-03-08 12:00,ZBYN 081200Z AUTO 32010KT 6SM 04/02 A3006 RMK 60000 SLP205 T00400016 52052 IEM_DS3505
ZBYN,1995-03-08 13:00,ZBYN 081300Z AUTO 31014KT 5SM 02/01 A3009 RMK T00200010 IEM_DS3505
ZBYN,1995-03-08 14:00,ZBYN 081400Z AUTO 30014KT 5SM 02/00 A3012 RMK T00200000 IEM_DS3505
ZBYN,1995-03-08 15:00,ZBYN 081500Z AUTO 34012KT 6SM 01/00 A3015 RMK SLP227 T00130000 52025 IEM_DS3505
ZBYN,1995-03-08 16:00,ZBYN 081600Z AUTO 30012KT 2 1/2SM 01/00 A3015 RMK T00100000 IEM_DS3505
ZBYN,1995-03-08 17:00,ZBYN 081700Z AUTO 34010KT 7SM 01/M01 A3015 RMK T00101010 IEM_DS3505
ZBYN,1995-03-08 18:00,ZBYN 081800Z AUTO 36004KT 6SM 02/M03 A3015 RMK 60001 SLP222 T00161029 52001 IEM_DS3505
ZBYN,1995-03-08 19:00,ZBYN 081900Z AUTO 25006KT 7SM 00/M03 A3015 RMK T00001030 IEM_DS3505
ZBYN,1995-03-08 20:00,ZBYN 082000Z AUTO 29014KT 7SM 01/M07 A3012 RMK T00101070 IEM_DS3505
ZBYN,1995-03-08 21:00,ZBYN 082100Z AUTO 29010KT 6SM 01/M14 A3012 RMK SLP219 T00121145 57006 IEM_DS3505
ZBYN,1995-03-08 22:00,ZBYN 082200Z AUTO 28014KT 7SM 00/M11 A3015 RMK T00001110 IEM_DS3505
ZBYN,1995-03-08 23:00,ZBYN 082300Z AUTO 29014KT 7SM M01/M13 A3018 RMK T10101130 IEM_DS3505
ZBYN,1995-03-09 00:00,ZBYN 090000Z AUTO 34006KT 6SM M01/M19 A3018 RMK 70002 SLP256 T10121186 52017 IEM_DS3505
ZBYN,1995-03-09 01:00,ZBYN 090100Z AUTO 29012KT 7SM 00/M14 A3021 RMK T00001140 IEM_DS3505
ZBYN,1995-03-09 02:00,ZBYN 090200Z AUTO 30012KT 7SM 01/M13 A3021 RMK T00101130 IEM_DS3505
ZBYN,1995-03-09 03:00,ZBYN 090300Z AUTO 32012KT 6SM 02/M18 A3018 RMK SLP259 T00181175 52003 IEM_DS3505
ZBYN,1995-03-09 04:00,ZBYN 090400Z AUTO 29010KT 7SM 03/M14 A3015 RMK T00301140 IEM_DS3505
ZBYN,1995-03-09 05:00,ZBYN 090500Z AUTO 30016KT 7SM 04/M09 A3012 RMK T00401090 IEM_DS3505
ZBYN,1995-03-09 06:00,ZBYN 090600Z AUTO 32014KT 6SM 04/M19 A3009 RMK SLP220 T00411189 57031 IEM_DS3505
ZBYN,1995-03-09 07:00,ZBYN 090700Z AUTO 30017KT 7SM 05/M19 A3006 RMK T00501190 IEM_DS3505
ZBYN,1995-03-09 08:00,ZBYN 090800Z AUTO 27012KT 7SM 05/M16 A3003 RMK T00501160 IEM_DS3505
ZBYN,1995-03-09 09:00,ZBYN 090900Z AUTO 34010KT 12SM 05/M23 A3003 RMK SLP198 T00501230 57019 IEM_DS3505
ZBYN,1995-03-09 12:00,ZBYN 091200Z AUTO 27004KT 12SM 01/M18 A3006 RMK SLP215 T00131181 52005 IEM_DS3505
ZBYN,1995-03-09 13:00,ZBYN 091300Z AUTO 27008KT 7SM 01/M12 A3006 RMK T00101120 IEM_DS3505
ZBYN,1995-03-09 14:00,ZBYN 091400Z AUTO 25006KT 7SM M01/M14 A3006 RMK T10101140 IEM_DS3505
ZBYN,1995-03-09 15:00,ZBYN 091500Z AUTO 22006KT 9SM M01/M18 A3006 RMK SLP214 T10061176 52001 IEM_DS3505
ZBYN,1995-03-09 16:00,ZBYN 091600Z AUTO 07004KT 7SM M01/M14 A3003 RMK T10101140 IEM_DS3505
ZBYN,1995-03-09 17:00,ZBYN 091700Z AUTO 00000KT 7SM M05/M13 A3003 RMK T10501130 IEM_DS3505
ZBYN,1995-03-09 18:00,ZBYN 091800Z AUTO 09004KT 9SM A3000 RMK SLP205 57009 IEM_DS3505
ZBYN,1995-03-09 19:00,ZBYN 091900Z AUTO 00000KT 7SM M06/M14 A3000 RMK T10601140 IEM_DS3505
ZBYN,1995-03-09 20:00,ZBYN 092000Z AUTO 09004KT 7SM M07/M14 A2997 RMK T10701140 IEM_DS3505
ZBYN,1995-03-09 21:00,ZBYN 092100Z AUTO 07002KT 9SM M06/M12 A2997 RMK SLP192 T10631119 57015 IEM_DS3505
ZBYN,1995-03-09 22:00,ZBYN 092200Z AUTO 07006KT 7SM M06/M14 A2997 RMK T10601140 IEM_DS3505
ZBYN,1995-03-09 23:00,ZBYN 092300Z AUTO 00000KT 4SM M06/M15 A3000 RMK T10601150 IEM_DS3505
ZBYN,1995-03-10 00:00,ZBYN 100000Z AUTO 00000KT 6SM M05/M12 A3000 RMK SLP210 T10541116 52012 IEM_DS3505
ZBYN,1995-03-10 01:00,ZBYN 100100Z AUTO 09006KT 7SM 00/M04 A3003 RMK T00001040 IEM_DS3505
ZBYN,1995-03-10 02:00,ZBYN 100200Z AUTO 15006KT 5SM 04/M15 A3003 RMK T00401150 IEM_DS3505
ZBYN,1995-03-10 03:00,ZBYN 100300Z AUTO 11008KT 6SM 05/M12 A3000 RMK SLP192 T00461118 57003 IEM_DS3505
ZBYN,1995-03-10 04:00,ZBYN 100400Z AUTO 18006KT 7SM 08/M14 A2997 RMK T00801140 IEM_DS3505
ZBYN,1995-03-10 05:00,ZBYN 100500Z AUTO 22012KT 7SM 09/M16 A2994 RMK T00901160 IEM_DS3505
ZBYN,1995-03-10 06:00,ZBYN 100600Z AUTO 18012KT 6SM 11/M12 A2991 RMK SLP157 T01081124 57027 IEM_DS3505
ZBYN,1995-03-10 07:00,ZBYN 100700Z AUTO 19012KT 7SM 14/M15 A2985 RMK T01401150 IEM_DS3505
ZBYN,1995-03-10 08:00,ZBYN 100800Z AUTO 22008KT 7SM 14/M14 A2985 RMK T01401140 IEM_DS3505
ZBYN,1995-03-10 09:00,ZBYN 100900Z AUTO 18010KT 6SM 12/M14 A2985 RMK SLP144 T01221137 57014 IEM_DS3505
ZBYN,1995-03-10 10:00,ZBYN 101000Z AUTO 00000KT 6SM 12/M09 A2988 RMK T01201090 IEM_DS3505
ZBYN,1995-03-10 11:00,ZBYN 101100Z AUTO 07006KT 6SM 08/M09 A2988 RMK T00801090 IEM_DS3505
ZBYN,1995-03-10 12:00,ZBYN 101200Z AUTO 16004KT 6SM 06/M07 A2988 RMK SLP159 T00571070 52005 IEM_DS3505
ZBYN,1995-03-10 13:00,ZBYN 101300Z AUTO 00000KT 6SM 04/M09 A2991 RMK T00401090 IEM_DS3505
ZBYN,1995-03-10 14:00,ZBYN 101400Z AUTO 00000KT 7SM 03/M09 A2994 RMK T00301090 IEM_DS3505
ZBYN,1995-03-10 15:00,ZBYN 101500Z AUTO 32016KT 4SM 09/M23 A3000 RMK SLP171 T00881232 52031 IEM_DS3505
ZBYN,1995-03-10 16:00,ZBYN 101600Z AUTO 32014KT 3SM 08/M28 A3003 RMK T00801280 IEM_DS3505
ZBYN,1995-03-10 17:00,ZBYN 101700Z AUTO 15004KT 7SM 07/M22 A3003 RMK T00701220 IEM_DS3505
ZBYN,1995-03-10 18:00,ZBYN 101800Z AUTO 27008KT 3SM 06/ A3003 RMK SLP183 52016 IEM_DS3505
ZBYN,1995-03-10 19:00,ZBYN 101900Z AUTO 31017KT 7SM 05/M28 A3003 RMK T00501280 IEM_DS3505
ZBYN,1995-03-10 20:00,ZBYN 102000Z AUTO 36017KT 7SM 05/M28 A3003 RMK T00501280 IEM_DS3505
ZBYN,1995-03-10 21:00,ZBYN 102100Z AUTO 32016G35KT 4SM 01/M18 A3009 RMK SLP208 T00141178 52018 IEM_DS3505
ZBYN,1995-03-10 22:00,ZBYN 102200Z AUTO 30019KT 1 1/4SM 01/M19 A3012 RMK T00101190 IEM_DS3505
ZBYN,1995-03-10 23:00,ZBYN 102300Z AUTO 28019KT 1SM 01/M18 A3012 RMK T00101180 IEM_DS3505
ZBYN,1995-03-11 00:00,ZBYN 110000Z AUTO 32014KT 3SM M00/ A3015 RMK SLP237 52014 IEM_DS3505
ZBYN,1995-03-11 01:00,ZBYN 110100Z AUTO 29017KT 2SM 00/M11 A3018 RMK T00001110 IEM_DS3505
ZBYN,1995-03-11 02:00,ZBYN 110200Z AUTO 30012KT 2SM 01/M11 A3018 RMK T00101110 IEM_DS3505
ZBYN,1995-03-11 03:00,ZBYN 110300Z AUTO 29017KT 5SM 02/ A3018 RMK SLP239 52011 IEM_DS3505
ZBYN,1995-03-11 04:00,ZBYN 110400Z AUTO 30016G27KT 6SM 04/M09 A3015 RMK T00401090 IEM_DS3505
ZBYN,1995-03-11 05:00,ZBYN 110500Z AUTO 31016KT 7SM 05/M07 A3012 RMK T00501070 IEM_DS3505
ZBYN,1995-03-11 06:00,ZBYN 110600Z AUTO 27017KT 9SM 06/ A3009 RMK SLP210 57026 IEM_DS3505
ZBYN,1995-03-11 07:00,ZBYN 110700Z AUTO 28014KT 7SM 07/M02 A3006 RMK T00701020 IEM_DS3505
ZBYN,1995-03-11 08:00,ZBYN 110800Z AUTO 29014KT 7SM 07/M07 A3006 RMK T00701070 IEM_DS3505
ZBYN,1995-03-11 09:00,ZBYN 110900Z AUTO 29014KT 9SM 06/M22 A3006 RMK SLP209 T00651217 57007 IEM_DS3505
ZBYN,1995-03-11 10:00,ZBYN 111000Z AUTO 29014KT 7SM 06/M27 A3006 RMK T00601270 IEM_DS3505
ZBYN,1995-03-11 11:00,ZBYN 111100Z AUTO 29010KT 7SM 04/M28 A3009 RMK T00401280 IEM_DS3505
ZBYN,1995-03-11 12:00,ZBYN 111200Z AUTO 29004KT 6SM 03/M22 A3011 RMK SLP235 T00301224 52015 IEM_DS3505
ZBYN,1995-03-11 13:00,ZBYN 111300Z AUTO 29006KT 7SM 03/M25 A3015 RMK T00301250 IEM_DS3505
ZBYN,1995-03-11 15:00,ZBYN 111500Z AUTO 14002KT 6SM M00/M23 A3018 RMK SLP251 T10041233 52014 IEM_DS3505
ZBYN,1995-03-11 16:00,ZBYN 111600Z AUTO 00000KT 7SM M01/M16 A3018 RMK T10101160 IEM_DS3505
ZBYN,1995-03-11 17:00,ZBYN 111700Z AUTO 00000KT 7SM M03/M15 A3015 RMK T10301150 IEM_DS3505
ZBYN,1995-03-11 18:00,ZBYN 111800Z AUTO 11006KT 6SM M05/M21 A3015 RMK SLP250 T10481211 57003 IEM_DS3505
ZBYN,1995-03-11 19:00,ZBYN 111900Z AUTO 07006KT 7SM M05/M16 A3012 RMK T10501160 IEM_DS3505
ZBYN,1995-03-11 20:00,ZBYN 112000Z AUTO 09006KT 7SM M07/M18 A3012 RMK T10701180 IEM_DS3505
ZBYN,1995-03-11 21:00,ZBYN 112100Z AUTO 00000KT 6SM M06/M16 A3012 RMK SLP246 T10611158 57004 IEM_DS3505
ZBYN,1995-03-11 22:00,ZBYN 112200Z AUTO 00000KT 7SM M07/M19 A3015 RMK T10701190 IEM_DS3505
ZBYN,1995-03-11 23:00,ZBYN 112300Z AUTO 00000KT 7SM M07/M18 A3015 RMK T10701180 IEM_DS3505
ZBYN,1995-03-12 00:00,ZBYN 120000Z AUTO 11002KT 6SM M06/M13 A3018 RMK SLP259 T10591130 52006 IEM_DS3505
ZBYN,1995-03-12 01:00,ZBYN 120100Z AUTO 00000KT 7SM 00/M13 A3018 RMK T00001130 IEM_DS3505
ZBYN,1995-03-12 02:00,ZBYN 120200Z AUTO 00000KT 7SM 04/M14 A3018 RMK T00401140 IEM_DS3505
ZBYN,1995-03-12 03:00,ZBYN 120300Z AUTO 16004KT 6SM 05/M21 A3015 RMK SLP249 T00471214 52003 IEM_DS3505
ZBYN,1995-03-12 04:00,ZBYN 120400Z AUTO 00000KT 7SM 08/M09 A3015 RMK T00801090 IEM_DS3505
ZBYN,1995-03-12 05:00,ZBYN 120500Z AUTO 18006KT 7SM 09/M16 A3009 RMK T00901160 IEM_DS3505
ZBYN,1995-03-12 06:00,ZBYN 120600Z AUTO 18004KT 6SM 10/M20 A3006 RMK SLP210 T01021200 57034 IEM_DS3505
ZBYN,1995-03-12 07:00,ZBYN 120700Z AUTO 19006KT 7SM 12/M16 A3003 RMK T01201160 IEM_DS3505
ZBYN,1995-03-12 08:00,ZBYN 120800Z AUTO 18006KT 7SM 12/M17 A3000 RMK T01201170 IEM_DS3505
ZBYN,1995-03-12 09:00,ZBYN 120900Z AUTO 20010KT 6SM 11/M22 A3000 RMK SLP196 T01111215 57013 IEM_DS3505
ZBYN,1995-03-12 10:00,ZBYN 121000Z AUTO 21006KT 7SM 11/M14 A3000 RMK T01101140 IEM_DS3505
ZBYN,1995-03-12 11:00,ZBYN 121100Z AUTO 00000KT 7SM 07/M13 A3003 RMK T00701130 IEM_DS3505
ZBYN,1995-03-12 12:00,ZBYN 121200Z AUTO 16004KT 6SM 05/M22 A3003 RMK SLP213 T00461216 52005 IEM_DS3505
ZBYN,1995-03-12 13:00,ZBYN 121300Z AUTO 08002KT 5SM 01/M16 A3006 RMK T00101160 IEM_DS3505
ZBYN,1995-03-12 14:00,ZBYN 121400Z AUTO 12004KT 5SM M01/M12 A3006 RMK T10101120 IEM_DS3505
ZBYN,1995-03-12 15:00,ZBYN 121500Z AUTO 18004KT 6SM M00/M16 A3009 RMK SLP219 T10011159 52015 IEM_DS3505
ZBYN,1995-03-12 16:00,ZBYN 121600Z AUTO 07002KT 7SM M02/M14 A3009 RMK T10201140 IEM_DS3505
ZBYN,1995-03-12 17:00,ZBYN 121700Z AUTO 09004KT 7SM M03/M13 A3009 RMK T10301130 IEM_DS3505
ZBYN,1995-03-12 18:00,ZBYN 121800Z AUTO 20004KT 6SM M03/M13 A3009 RMK SLP216 T10301132 52002 IEM_DS3505
ZBYN,1995-03-12 19:00,ZBYN 121900Z AUTO 09002KT 7SM M04/M12 A3009 RMK T10401120 IEM_DS3505
ZBYN,1995-03-12 20:00,ZBYN 122000Z AUTO 00000KT 7SM M03/M13 A3006 RMK T10301130 IEM_DS3505
ZBYN,1995-03-12 21:00,ZBYN 122100Z AUTO 34002KT 6SM M04/M10 A3006 RMK SLP214 T10411097 57003 IEM_DS3505
ZBYN,1995-03-12 22:00,ZBYN 122200Z AUTO 00000KT 5SM M03/M11 A3009 RMK T10301110 IEM_DS3505
ZBYN,1995-03-12 23:00,ZBYN 122300Z AUTO 00000KT 4SM M03/M12 A3009 RMK T10301120 IEM_DS3505
ZBYN,1995-03-13 00:00,ZBYN 130000Z AUTO 34004KT 5SM M01/M10 A3012 RMK SLP232 T10101102 52011 IEM_DS3505
ZBYN,1995-03-13 02:00,ZBYN 130200Z AUTO 00000KT 4SM 04/M13 A3012 RMK T00401130 IEM_DS3505
ZBYN,1995-03-13 03:00,ZBYN 130300Z AUTO 00000KT 5SM 06/M11 A3012 RMK SLP230 T00571112 52002 IEM_DS3505
ZBYN,1995-03-13 04:00,ZBYN 130400Z AUTO 14006KT 5SM 09/M13 A3009 RMK T00901130 IEM_DS3505
ZBYN,1995-03-13 05:00,ZBYN 130500Z AUTO 00000KT 5SM 11/M17 A3006 RMK T01101170 IEM_DS3505
ZBYN,1995-03-13 06:00,ZBYN 130600Z AUTO 16006KT 5SM 12/M14 A3000 RMK SLP195 T01191142 57027 IEM_DS3505
ZBYN,1995-03-13 07:00,ZBYN 130700Z AUTO 18006KT 5SM 13/M09 A2997 RMK T01301090 IEM_DS3505
ZBYN,1995-03-13 08:00,ZBYN 130800Z AUTO 21010KT 5SM 11/M11 A3000 RMK T01101110 IEM_DS3505
ZBYN,1995-03-13 09:00,ZBYN 130900Z AUTO 18008KT 5SM 10/M12 A3000 RMK SLP189 T01041116 57009 IEM_DS3505
ZBYN,1995-03-13 10:00,ZBYN 131000Z AUTO 17004KT 3SM 10/M06 A3000 RMK T01001060 IEM_DS3505
ZBYN,1995-03-13 11:00,ZBYN 131100Z AUTO 16006KT 3SM 09/M07 A3003 RMK T00901070 IEM_DS3505
ZBYN,1995-03-13 12:00,ZBYN 131200Z AUTO 11002KT 5SM 07/M09 A3003 RMK SLP194 T00731088 52004 IEM_DS3505
ZBYN,1995-03-13 13:00,ZBYN 131300Z AUTO 10004KT 3SM 06/M07 A3006 RMK T00601070 IEM_DS3505
ZBYN,1995-03-13 14:00,ZBYN 131400Z AUTO 00000KT 2 1/2SM 04/M07 A3006 RMK T00401070 IEM_DS3505
ZBYN,1995-03-13 15:00,ZBYN 131500Z AUTO 11002KT 5SM 05/M07 A3006 RMK SLP202 T00481073 52014 IEM_DS3505
ZBYN,1995-03-13 16:00,ZBYN 131600Z AUTO 11006KT 3SM 04/M07 A3006 RMK T00401070 IEM_DS3505
ZBYN,1995-03-13 17:00,ZBYN 131700Z AUTO 07008KT 5SM 04/M06 A3003 RMK T00401060 IEM_DS3505
ZBYN,1995-03-13 18:00,ZBYN 131800Z AUTO 29002KT 4SM 04/M08 A3006 RMK SLP189 T00421075 57003 IEM_DS3505
ZBYN,1995-03-13 20:00,ZBYN 132000Z AUTO 00000KT 5SM 02/M06 A3006 RMK T00201060 IEM_DS3505
ZBYN,1995-03-13 21:00,ZBYN 132100Z AUTO 02002KT 6SM 02/M06 A3006 RMK SLP196 T00151055 54000 IEM_DS3505
ZBYN,1995-03-13 22:00,ZBYN 132200Z AUTO 00000KT 4SM 00/M06 A3006 RMK T00001060 IEM_DS3505
ZBYN,1995-03-13 23:00,ZBYN 132300Z AUTO 26002KT 3SM M01/M09 A3006 RMK T10101090 IEM_DS3505
ZBYN,1995-03-14 00:00,ZBYN 140000Z AUTO 36004KT 4SM 01/M04 A3009 RMK SLP212 T00101040 52009 IEM_DS3505
ZBYN,1995-03-14 01:00,ZBYN 140100Z AUTO 18002KT 2SM 04/M06 A3015 RMK T00401060 IEM_DS3505
ZBYN,1995-03-14 02:00,ZBYN 140200Z AUTO 00000KT 1 1/2SM 07/M04 A3015 RMK T00701040 IEM_DS3505
ZBYN,1995-03-14 03:00,ZBYN 140300Z AUTO 16004KT 4SM 09/M06 A3015 RMK SLP224 T00891062 52019 IEM_DS3505
ZBYN,1995-03-14 04:00,ZBYN 140400Z AUTO 00000KT 3SM 12/M05 A3012 RMK T01201050 IEM_DS3505
ZBYN,1995-03-14 05:00,ZBYN 140500Z AUTO 17004KT 3SM 14/M06 A3009 RMK T01401060 IEM_DS3505
ZBYN,1995-03-14 06:00,ZBYN 140600Z AUTO 20006KT 4SM 14/M03 A3006 RMK SLP192 T01361031 57023 IEM_DS3505
ZBYN,1995-03-14 07:00,ZBYN 140700Z AUTO 00000KT 5SM 15/M01 A3003 RMK T01501010 IEM_DS3505
ZBYN,1995-03-14 08:00,ZBYN 140800Z AUTO 00000KT 6SM 15/M02 A3003 RMK T01501020 IEM_DS3505
ZBYN,1995-03-14 09:00,ZBYN 140900Z AUTO 14002KT 4SM 14/M01 A3003 RMK SLP176 T01411011 57018 IEM_DS3505
ZBYN,1995-03-14 10:00,ZBYN 141000Z AUTO 00000KT 6SM 13/M03 A3000 RMK T01301030 IEM_DS3505
ZBYN,1995-03-14 11:00,ZBYN 141100Z AUTO 08004KT 5SM 11/M02 A3000 RMK T01101020 IEM_DS3505
ZBYN,1995-03-14 12:00,ZBYN 141200Z AUTO 07008KT 4SM 12/M05 A3003 RMK SLP182 T01201053 52002 IEM_DS3505
ZBYN,1995-03-14 13:00,ZBYN 141300Z AUTO 07014KT 2 1/2SM 10/M03 A3003 RMK T01001030 IEM_DS3505
ZBYN,1995-03-14 14:00,ZBYN 141400Z AUTO 06012KT 3SM 10/M03 A3006 RMK T01001030 IEM_DS3505
ZBYN,1995-03-14 15:00,ZBYN 141500Z AUTO 14010KT 4SM 10/M04 A3009 RMK SLP192 T00981041 52018 IEM_DS3505
ZBYN,1995-03-14 16:00,ZBYN 141600Z AUTO 11006KT 4SM 09/M03 A3009 RMK T00901030 IEM_DS3505
ZBYN,1995-03-14 17:00,ZBYN 141700Z AUTO 07004KT 4SM 08/M04 A3006 RMK T00801040 IEM_DS3505
ZBYN,1995-03-14 18:00,ZBYN 141800Z AUTO 11006KT 4SM 07/M04 A3006 RMK SLP187 T00721042 57002 IEM_DS3505
ZBYN,1995-03-14 19:00,ZBYN 141900Z AUTO 09006KT 4SM 07/M06 A3003 RMK T00701060 IEM_DS3505
ZBYN,1995-03-14 20:00,ZBYN 142000Z AUTO 08006KT 4SM 06/M05 A3003 RMK T00601050 IEM_DS3505
ZBYN,1995-03-14 21:00,ZBYN 142100Z AUTO 25004KT 6SM 06/M03 A3003 RMK SLP178 T00551028 57010 IEM_DS3505
ZBYN,1995-03-14 23:00,ZBYN 142300Z AUTO 09006KT 5SM 05/M02 A3003 RMK T00501020 IEM_DS3505
ZBYN,1995-03-15 00:00,ZBYN 150000Z AUTO 20004KT 4SM 05/M02 A3003 RMK SLP184 T00501018 52002 IEM_DS3505
ZBYN,1995-03-15 01:00,ZBYN 150100Z AUTO 10012KT 6SM 09/M04 A3003 RMK T00901040 IEM_DS3505
ZBYN,1995-03-15 02:00,ZBYN 150200Z AUTO 17008KT 6SM 10/M04 A3003 RMK T01001040 IEM_DS3505
ZBYN,1995-03-15 03:00,ZBYN 150300Z AUTO 22006KT 5SM 09/M05 RMK SLP176 T00891049 57005 IEM_DS3505
ZBYN,1995-03-15 04:00,ZBYN 150400Z AUTO 19008KT 6SM 10/M04 A3000 RMK T01001040 IEM_DS3505
ZBYN,1995-03-15 05:00,ZBYN 150500Z AUTO 27004KT 6SM 10/M05 A2997 RMK T01001050 IEM_DS3505
ZBYN,1995-03-15 06:00,ZBYN 150600Z AUTO 20006KT 6SM 10/M06 A2991 RMK SLP142 T01021058 57033 IEM_DS3505
ZBYN,1995-03-15 07:00,ZBYN 150700Z AUTO 18002KT 6SM 10/M03 A2988 RMK T01001030 IEM_DS3505
ZBYN,1995-03-15 08:00,ZBYN 150800Z AUTO 24008KT 6SM 10/M04 A2991 RMK T01001040 IEM_DS3505
ZBYN,1995-03-15 09:00,ZBYN 150900Z AUTO 20008KT 6SM 10/M05 A2991 RMK SLP135 T00981048 57009 IEM_DS3505
ZBYN,1995-03-15 10:00,ZBYN 151000Z AUTO 26008KT 6SM 09/M03 A2991 RMK T00901030 IEM_DS3505
ZBYN,1995-03-15 11:00,ZBYN 151100Z AUTO 29012KT 7SM 09/M01 A2991 RMK T00901010 IEM_DS3505
ZBYN,1995-03-15 12:00,ZBYN 151200Z AUTO 25006KT 6SM 08/M02 A2991 RMK SLP146 T00791020 52006 IEM_DS3505
ZBYN,1995-03-15 13:00,ZBYN 151300Z AUTO 28008KT 6SM 07/M02 A2991 RMK T00701020 IEM_DS3505
ZBYN,1995-03-15 14:00,ZBYN 151400Z AUTO 28010KT 6SM 07/M02 A2997 RMK T00701020 IEM_DS3505
ZBYN,1995-03-15 16:00,ZBYN 151600Z AUTO 29012KT 6SM 05/M06 A3000 RMK T00501060 IEM_DS3505
ZBYN,1995-03-15 17:00,ZBYN 151700Z AUTO 29014KT 6SM 04/M09 A3000 RMK T00401090 IEM_DS3505
ZBYN,1995-03-15 18:00,ZBYN 151800Z AUTO 29012KT 6SM 03/M08 A3000 RMK SLP175 T00301077 52010 IEM_DS3505
ZBYN,1995-03-15 19:00,ZBYN 151900Z AUTO 31010KT 6SM 03/M09 A3003 RMK T00301090 IEM_DS3505
ZBYN,1995-03-15 21:00,ZBYN 152100Z AUTO 32008KT 6SM 02/M13 A3006 RMK SLP192 T00201126 52013 IEM_DS3505
ZBYN,1995-03-15 22:00,ZBYN 152200Z AUTO 00000KT 6SM 01/M12 A3009 RMK T00101120 IEM_DS3505
ZBYN,1995-03-16 00:00,ZBYN 160000Z AUTO 32012KT 6SM 01/M14 A3015 RMK SLP235 T00111140 52035 IEM_DS3505
ZBYN,1995-03-16 01:00,ZBYN 160100Z AUTO 29014KT 6SM 02/M11 A3021 RMK T00201110 IEM_DS3505
ZBYN,1995-03-16 02:00,ZBYN 160200Z AUTO 30016KT 6SM 01/M12 A3024 RMK T00101120 IEM_DS3505
ZBYN,1995-03-16 03:00,ZBYN 160300Z AUTO 29017KT 6SM 01/M15 A3027 RMK SLP272 T00081148 52030 IEM_DS3505
ZBYN,1995-03-16 04:00,ZBYN 160400Z AUTO 29017KT 6SM 01/M12 A3030 RMK T00101120 IEM_DS3505
ZBYN,1995-03-16 05:00,ZBYN 160500Z AUTO 30021KT 6SM 01/M09 A3030 RMK T00101090 IEM_DS3505
ZBYN,1995-03-16 06:00,ZBYN 160600Z AUTO 29023KT 6SM 00/M17 A3030 RMK SLP292 T00051172 4////1008 52013 IEM_DS3505
ZBYN,1995-03-16 07:00,ZBYN 160700Z AUTO 29029KT 5SM 01/M17 A3033 RMK T00101170 IEM_DS3505
ZBYN,1995-03-16 08:00,ZBYN 160800Z AUTO 30019KT 7SM M01/M21 A3036 RMK T10101210 IEM_DS3505
ZBYN,1995-03-16 09:00,ZBYN 160900Z AUTO 34010KT 9SM M01/M16 A3039 RMK SLP327 T10101165 52027 IEM_DS3505
ZBYN,1995-03-16 10:00,ZBYN 161000Z AUTO 29023KT 6SM M03/M16 A3042 RMK T10301160 IEM_DS3505
ZBYN,1995-03-16 11:00,ZBYN 161100Z AUTO 29017KT 6SM M03/M14 A3045 RMK T10301140 IEM_DS3505
ZBYN,1995-03-16 12:00,ZBYN 161200Z AUTO 32010KT 6SM M04/M19 A3045 RMK SLP360 T10351188 52025 IEM_DS3505
ZBYN,1995-03-16 13:00,ZBYN 161300Z AUTO 29008KT 7SM M04/M17 A3047 RMK T10401170 IEM_DS3505
ZBYN,1995-03-16 14:00,ZBYN 161400Z AUTO 29010KT 7SM M04/M17 A3050 RMK T10401170 IEM_DS3505
ZBYN,1995-03-16 15:00,ZBYN 161500Z AUTO 29008KT 6SM M05/M20 A3050 RMK SLP377 T10501199 52012 IEM_DS3505
ZBYN,1995-03-16 16:00,ZBYN 161600Z AUTO 28008KT 7SM M05/M17 A3050 RMK T10501170 IEM_DS3505
ZBYN,1995-03-16 17:00,ZBYN 161700Z AUTO 27006KT 7SM M05/M13 A3050 RMK T10501130 IEM_DS3505
ZBYN,1995-03-16 18:00,ZBYN 161800Z AUTO 29006KT 6SM M06/M19 A3047 RMK SLP378 T10651190 57002 IEM_DS3505
ZBYN,1995-03-16 19:00,ZBYN 161900Z AUTO 25008KT 7SM M07/M20 A3047 RMK T10701200 IEM_DS3505
ZBYN,1995-03-16 20:00,ZBYN 162000Z AUTO 24008KT 7SM M07/M21 A3045 RMK T10701210 IEM_DS3505
ZBYN,1995-03-16 21:00,ZBYN 162100Z AUTO 18008KT 6SM M08/M20 A3042 RMK SLP359 T10781200 57022 IEM_DS3505
ZBYN,1995-03-16 22:00,ZBYN 162200Z AUTO 23008KT 7SM M08/M19 A3042 RMK T10801190 IEM_DS3505
ZBYN,1995-03-16 23:00,ZBYN 162300Z AUTO 22008KT 7SM M08/M19 A3042 RMK T10801190 IEM_DS3505
ZBYN,1995-03-17 00:00,ZBYN 170000Z AUTO 20008KT 6SM M06/M18 A3042 RMK SLP358 T10591177 57002 IEM_DS3505
ZBYN,1995-03-17 01:00,ZBYN 170100Z AUTO 21012KT 7SM M03/M16 A3042 RMK T10301160 IEM_DS3505
ZBYN,1995-03-17 02:00,ZBYN 170200Z AUTO 24010KT 7SM M02/M16 A3042 RMK T10201160 IEM_DS3505
ZBYN,1995-03-17 03:00,ZBYN 170300Z AUTO 29010KT 12SM 02/M19 A3039 RMK SLP337 T00181186 57009 IEM_DS3505
ZBYN,1995-03-17 04:00,ZBYN 170400Z AUTO 24012KT 7SM 02/M21 A3036 RMK T00201210 IEM_DS3505
ZBYN,1995-03-17 05:00,ZBYN 170500Z AUTO 20014KT 7SM 04/ A3030 RMK IEM_DS3505
ZBYN,1995-03-17 06:00,ZBYN 170600Z AUTO 27008KT 12SM 05/M20 A3027 RMK SLP291 T00531202 57038 IEM_DS3505
ZBYN,1995-03-17 07:00,ZBYN 170700Z AUTO 29012KT 7SM 06/M06 A3021 RMK T00601060 IEM_DS3505
ZBYN,1995-03-17 08:00,ZBYN 170800Z AUTO 30008KT 7SM 06/M03 A3021 RMK T00601030 IEM_DS3505
ZBYN,1995-03-17 09:00,ZBYN 170900Z AUTO 32010KT 9SM 06/ A3021 RMK SLP273 57018 IEM_DS3505
ZBYN,1995-03-17 10:00,ZBYN 171000Z AUTO 27010KT 7SM 06/M05 A3021 RMK T00601050 IEM_DS3505
ZBYN,1995-03-17 11:00,ZBYN 171100Z AUTO 29014KT 7SM 05/M05 A3021 RMK T00501050 IEM_DS3505
ZBYN,1995-03-17 12:00,ZBYN 171200Z AUTO 29006KT 6SM 04/ A3024 RMK SLP282 52009 IEM_DS3505
ZBYN,1995-03-17 13:00,ZBYN 171300Z AUTO 25008KT 7SM 03/M12 A3024 RMK T00301120 IEM_DS3505
ZBYN,1995-03-17 14:00,ZBYN 171400Z AUTO 21004KT 7SM 01/M14 A3027 RMK T00101140 IEM_DS3505
ZBYN,1995-03-17 15:00,ZBYN 171500Z AUTO 32006KT 6SM 02/M18 A3030 RMK SLP290 T00161181 52016 IEM_DS3505
ZBYN,1995-03-17 16:00,ZBYN 171600Z AUTO 28004KT 7SM 01/M16 A3030 RMK T00101160 IEM_DS3505
ZBYN,1995-03-17 17:00,ZBYN 171700Z AUTO 30010KT 7SM 02/M12 A3030 RMK T00201120 IEM_DS3505
ZBYN,1995-03-17 18:00,ZBYN 171800Z AUTO 32004KT 6SM 01/M18 A3030 RMK SLP291 T00121175 52006 IEM_DS3505
ZBYN,1995-03-17 19:00,ZBYN 171900Z AUTO 30008KT 7SM 01/M14 A3027 RMK T00101140 IEM_DS3505
ZBYN,1995-03-17 20:00,ZBYN 172000Z AUTO 17004KT 7SM M01/M16 A3027 RMK T10101160 IEM_DS3505
ZBYN,1995-03-17 21:00,ZBYN 172100Z AUTO 25004KT 6SM M02/M16 A3027 RMK SLP282 T10151161 57012 IEM_DS3505
ZBYN,1995-03-17 22:00,ZBYN 172200Z AUTO 06004KT 7SM M05/M16 A3030 RMK T10501160 IEM_DS3505
ZBYN,1995-03-17 23:00,ZBYN 172300Z AUTO 08004KT 7SM M06/M16 A3030 RMK T10601160 IEM_DS3505
ZBYN,1995-03-18 00:00,ZBYN 180000Z AUTO 11004KT 9SM M01/M15 A3033 RMK SLP300 T10061154 52015 IEM_DS3505
ZBYN,1995-03-18 01:00,ZBYN 180100Z AUTO 00000KT 7SM 03/M14 A3033 RMK T00301140 IEM_DS3505
ZBYN,1995-03-18 02:00,ZBYN 180200Z AUTO 23008KT 7SM 05/M14 A3033 RMK T00501140 IEM_DS3505
ZBYN,1995-03-18 03:00,ZBYN 180300Z AUTO 22008KT 12SM 07/M18 A3030 RMK SLP291 T00661175 57001 IEM_DS3505
ZBYN,1995-03-18 04:00,ZBYN 180400Z AUTO 25012KT 7SM 07/M09 A3027 RMK T00701090 IEM_DS3505
ZBYN,1995-03-18 05:00,ZBYN 180500Z AUTO 19012KT 7SM 10/M07 A3024 RMK T01001070 IEM_DS3505
ZBYN,1995-03-18 06:00,ZBYN 180600Z AUTO 25008KT 9SM 09/M18 A3018 RMK SLP249 T00931177 57034 IEM_DS3505
ZBYN,1995-03-18 07:00,ZBYN 180700Z AUTO 22008KT 7SM 10/M15 A3015 RMK T01001150 IEM_DS3505
ZBYN,1995-03-18 08:00,ZBYN 180800Z AUTO 25008KT 7SM 11/M14 A3015 RMK T01101140 IEM_DS3505
ZBYN,1995-03-18 09:00,ZBYN 180900Z AUTO 32012KT 9SM 11/M18 A3012 RMK SLP233 T01081185 57017 IEM_DS3505
ZBYN,1995-03-18 10:00,ZBYN 181000Z AUTO 28008KT 7SM 10/M16 A3012 RMK T01001160 IEM_DS3505
ZBYN,1995-03-18 11:00,ZBYN 181100Z AUTO 26004KT 7SM 08/M11 A3012 RMK T00801110 IEM_DS3505
ZBYN,1995-03-18 12:00,ZBYN 181200Z AUTO 22004KT 9SM 06/M10 A3015 RMK SLP237 T00551105 57003 IEM_DS3505
ZBYN,1995-03-18 13:00,ZBYN 181300Z AUTO 00000KT 7SM 01/M10 A3015 RMK T00101100 IEM_DS3505
ZBYN,1995-03-18 14:00,ZBYN 181400Z AUTO 00000KT 7SM 00/M11 A3015 RMK T00001110 IEM_DS3505
ZBYN,1995-03-18 15:00,ZBYN 181500Z AUTO 14002KT 9SM 00/M12 A3018 RMK SLP244 T00041123 52010 IEM_DS3505
ZBYN,1995-03-18 16:00,ZBYN 181600Z AUTO 00000KT 7SM 00/M12 A3018 RMK T00001120 IEM_DS3505
ZBYN,1995-03-18 18:00,ZBYN 181800Z AUTO 34004KT 7SM 02/M10 A3018 RMK SLP241 T00151103 52003 IEM_DS3505
ZBYN,1995-03-18 19:00,ZBYN 181900Z AUTO 11004KT 7SM M03/M13 A3018 RMK T10301130 IEM_DS3505
ZBYN,1995-03-18 20:00,ZBYN 182000Z AUTO 00000KT 7SM M03/M14 A3018 RMK T10301140 IEM_DS3505
ZBYN,1995-03-18 21:00,ZBYN 182100Z AUTO 27006KT 7SM M02/M11 A3018 RMK SLP244 T10211111 57001 IEM_DS3505
ZBYN,1995-03-18 22:00,ZBYN 182200Z AUTO 00000KT 7SM M05/M13 A3018 RMK T10501130 IEM_DS3505
ZBYN,1995-03-18 23:00,ZBYN 182300Z AUTO 00000KT 7SM M06/M14 A3021 RMK T10601140 IEM_DS3505
ZBYN,1995-03-19 00:00,ZBYN 190000Z AUTO 32002KT 7SM 00/M08 A3021 RMK SLP256 T00041078 52007 IEM_DS3505
ZBYN,1995-03-19 01:00,ZBYN 190100Z AUTO 00000KT 7SM 04/M13 A3021 RMK T00401130 IEM_DS3505
ZBYN,1995-03-19 02:00,ZBYN 190200Z AUTO 00000KT 7SM 06/M17 A3021 RMK T00601170 IEM_DS3505
ZBYN,1995-03-19 03:00,ZBYN 190300Z AUTO 18006KT 9SM 08/M12 A3018 RMK SLP251 T00811115 57001 IEM_DS3505
ZBYN,1995-03-19 04:00,ZBYN 190400Z AUTO 00000KT 7SM 09/M19 A3015 RMK T00901190 IEM_DS3505
ZBYN,1995-03-19 05:00,ZBYN 190500Z AUTO 21012KT 7SM 12/M15 A3012 RMK T01201150 IEM_DS3505
ZBYN,1995-03-19 06:00,ZBYN 190600Z AUTO 18006KT 9SM 08/M12 A3009 RMK SLP251 T00811115 57001 IEM_DS3505
ZBYN,1995-03-19 07:00,ZBYN 190700Z AUTO 23010KT 7SM 14/M18 A3003 RMK T01401180 IEM_DS3505
ZBYN,1995-03-19 08:00,ZBYN 190800Z AUTO 18010KT 7SM 15/M14 A3000 RMK T01501140 IEM_DS3505
ZBYN,1995-03-19 09:00,ZBYN 190900Z AUTO 18010KT 9SM 14/M12 A2997 RMK SLP179 T01451115 57026 IEM_DS3505
ZBYN,1995-03-19 10:00,ZBYN 191000Z AUTO 22008KT 7SM 14/M14 A2997 RMK T01401140 IEM_DS3505
ZBYN,1995-03-19 11:00,ZBYN 191100Z AUTO 00000KT 7SM 12/M11 A2997 RMK T01201110 IEM_DS3505
ZBYN,1995-03-19 12:00,ZBYN 191200Z AUTO 29004KT 6SM 07/M06 A3000 RMK SLP185 T00701061 57002 IEM_DS3505
ZBYN,1995-03-19 13:00,ZBYN 191300Z AUTO 00000KT 4SM 05/M10 A3003 RMK T00501100 IEM_DS3505
ZBYN,1995-03-19 14:00,ZBYN 191400Z AUTO 36006KT 7SM 08/M13 A3003 RMK T00801130 IEM_DS3505
ZBYN,1995-03-19 15:00,ZBYN 191500Z AUTO 14004KT 6SM 05/M10 A3003 RMK SLP185 T00541096 52009 IEM_DS3505
ZBYN,1995-03-19 16:00,ZBYN 191600Z AUTO 09006KT 7SM 02/M12 A3003 RMK T00201120 IEM_DS3505
ZBYN,1995-03-19 17:00,ZBYN 191700Z AUTO 09006KT 7SM 01/M11 A3000 RMK T00101110 IEM_DS3505
ZBYN,1995-03-19 18:00,ZBYN 191800Z AUTO 14006KT 6SM 02/M10 A3000 RMK SLP174 T00171104 57009 IEM_DS3505
ZBYN,1995-03-19 19:00,ZBYN 191900Z AUTO 00000KT 7SM 00/M12 A2997 RMK T00001120 IEM_DS3505
ZBYN,1995-03-19 20:00,ZBYN 192000Z AUTO 08006KT 7SM M02/M13 A2997 RMK T10201130 IEM_DS3505
ZBYN,1995-03-19 21:00,ZBYN 192100Z AUTO 34004KT 6SM M00/M09 A2994 RMK SLP158 T10011086 57014 IEM_DS3505
ZBYN,1995-03-19 22:00,ZBYN 192200Z AUTO 00000KT 7SM M03/M09 A2994 RMK T10301090 IEM_DS3505
ZBYN,1995-03-19 23:00,ZBYN 192300Z AUTO 00000KT 7SM M03/M11 A2994 RMK T10301110 IEM_DS3505
ZBYN,1995-03-20 00:00,ZBYN 200000Z AUTO 00000KT 6SM M01/M06 A2994 RMK SLP173 T10111055 54000 IEM_DS3505
ZBYN,1995-03-20 01:00,ZBYN 200100Z AUTO 12004KT 4SM 07/M13 A2994 RMK T00701130 IEM_DS3505
ZBYN,1995-03-20 02:00,ZBYN 200200Z AUTO 00000KT 4SM 09/M09 A2994 RMK T00901090 IEM_DS3505
ZBYN,1995-03-20 03:00,ZBYN 200300Z AUTO 16004KT 6SM 12/M08 A2994 RMK SLP148 T01221077 57004 IEM_DS3505
ZBYN,1995-03-20 04:00,ZBYN 200400Z AUTO 25008KT 5SM 16/M14 A2988 RMK T01601140 IEM_DS3505
ZBYN,1995-03-20 05:00,ZBYN 200500Z AUTO 22010KT 7SM 18/M02 A2985 RMK T01801020 IEM_DS3505
ZBYN,1995-03-20 06:00,ZBYN 200600Z AUTO 20012KT 6SM 20/M10 A2983 RMK SLP103 T02031098 57034 IEM_DS3505
ZBYN,1995-03-20 07:00,ZBYN 200700Z AUTO 35008KT 7SM 20/M10 A2980 RMK T02001100 IEM_DS3505
ZBYN,1995-03-20 08:00,ZBYN 200800Z AUTO 30010KT 7SM 20/M09 A2980 RMK T02001090 IEM_DS3505
ZBYN,1995-03-20 09:00,ZBYN 200900Z AUTO 32012KT 6SM 19/M11 A2980 RMK SLP103 T01921108 57005 IEM_DS3505
ZBYN,1995-03-20 10:00,ZBYN 201000Z AUTO 30010KT 7SM 17/M13 A2983 RMK T01701130 IEM_DS3505
ZBYN,1995-03-20 11:00,ZBYN 201100Z AUTO 30010KT 7SM 16/M14 A2985 RMK T01601140 IEM_DS3505
ZBYN,1995-03-20 12:00,ZBYN 201200Z AUTO 27006KT 6SM 12/M07 A2988 RMK SLP135 T01241067 52017 IEM_DS3505
ZBYN,1995-03-20 13:00,ZBYN 201300Z AUTO 26002KT 7SM 12/M10 A2988 RMK T01201100 IEM_DS3505
ZBYN,1995-03-20 14:00,ZBYN 201400Z AUTO 27004KT 7SM 12/M12 A2991 RMK T01201120 IEM_DS3505
ZBYN,1995-03-20 15:00,ZBYN 201500Z AUTO 22004KT 6SM 11/M06 A2991 RMK SLP130 T01121065 52014 IEM_DS3505
ZBYN,1995-03-20 16:00,ZBYN 201600Z AUTO 00000KT 7SM 08/M11 A2994 RMK T00801110 IEM_DS3505
ZBYN,1995-03-20 17:00,ZBYN 201700Z AUTO 09004KT 7SM 05/M08 A2994 RMK T00501080 IEM_DS3505
ZBYN,1995-03-20 18:00,ZBYN 201800Z AUTO 00000KT 6SM 06/M10 A2994 RMK SLP130 T00561101 52004 IEM_DS3505
ZBYN,1995-03-20 20:00,ZBYN 202000Z AUTO 09004KT 7SM 03/M10 A2994 RMK T00301100 IEM_DS3505
ZBYN,1995-03-20 21:00,ZBYN 202100Z AUTO 27004KT 6SM 02/M07 A2997 RMK SLP151 T00151066 52011 IEM_DS3505
ZBYN,1995-03-20 22:00,ZBYN 202200Z AUTO 00000KT 7SM 02/M10 A2997 RMK T00201100 IEM_DS3505
ZBYN,1995-03-20 23:00,ZBYN 202300Z AUTO 08002KT 5SM 01/M11 A3000 RMK T00101110 IEM_DS3505
ZBYN,1995-03-21 00:00,ZBYN 210000Z AUTO 18006KT 5SM 01/M06 A3003 RMK SLP180 T00111060 52016 IEM_DS3505
ZBYN,1995-03-21 01:00,ZBYN 210100Z AUTO 00000KT 4SM 06/M08 A3003 RMK T00601080 IEM_DS3505
ZBYN,1995-03-21 02:00,ZBYN 210200Z AUTO 00000KT 2 1/2SM 10/M08 A3003 RMK T01001080 IEM_DS3505
ZBYN,1995-03-21 03:00,ZBYN 210300Z AUTO 14006KT 4SM 14/M12 A3003 RMK SLP170 T01371120 52008 IEM_DS3505
ZBYN,1995-03-21 05:00,ZBYN 210500Z AUTO 21008KT 7SM 19/M14 A2997 RMK T01901140 IEM_DS3505
ZBYN,1995-03-21 06:00,ZBYN 210600Z AUTO 18008KT 6SM 19/M18 A2991 RMK SLP132 T01921180 57035 IEM_DS3505
ZBYN,1995-03-21 07:00,ZBYN 210700Z AUTO 21010KT 7SM 21/M16 A2988 RMK T02101160 IEM_DS3505
ZBYN,1995-03-21 08:00,ZBYN 210800Z AUTO 23010KT 7SM 21/M16 A2985 RMK T02101160 IEM_DS3505
ZBYN,1995-03-21 09:00,ZBYN 210900Z AUTO 20008KT 6SM 20/M10 A2985 RMK SLP121 T01961102 57015 IEM_DS3505
ZBYN,1995-03-21 10:00,ZBYN 211000Z AUTO 00000KT 7SM 18/M12 A2983 RMK T01801120 IEM_DS3505
ZBYN,1995-03-21 11:00,ZBYN 211100Z AUTO 08004KT 5SM 15/M09 A2985 RMK T01501090 IEM_DS3505
ZBYN,1995-03-21 12:00,ZBYN 211200Z AUTO 36002KT 6SM 12/M06 A2985 RMK SLP125 T01221057 57009 IEM_DS3505
ZBYN,1995-03-21 13:00,ZBYN 211300Z AUTO 07006KT 5SM 08/M07 A2988 RMK T00801070 IEM_DS3505
ZBYN,1995-03-21 14:00,ZBYN 211400Z AUTO 00000KT 5SM 07/M09 A2988 RMK T00701090 IEM_DS3505
ZBYN,1995-03-21 15:00,ZBYN 211500Z AUTO 11006KT 6SM 07/M08 A2991 RMK SLP124 T00691076 52011 IEM_DS3505
ZBYN,1995-03-21 16:00,ZBYN 211600Z AUTO 11010KT 7SM 07/M04 A2988 RMK T00701040 IEM_DS3505
ZBYN,1995-03-21 17:00,ZBYN 211700Z AUTO 10006KT 7SM 08/M04 A2988 RMK T00801040 IEM_DS3505
ZBYN,1995-03-21 18:00,ZBYN 211800Z AUTO 00000KT 6SM 06/M02 A2988 RMK SLP116 T00591019 57001 IEM_DS3505
ZBYN,1995-03-21 19:00,ZBYN 211900Z AUTO 00000KT 7SM 04/M06 A2988 RMK T00401060 IEM_DS3505
ZBYN,1995-03-21 21:00,ZBYN 212100Z AUTO 09006KT 6SM 02/M04 RMK SLP119 T00201037 57002 IEM_DS3505
ZBYN,1995-03-21 23:00,ZBYN 212300Z AUTO 00000KT 5SM 02/M07 A2991 RMK T00201070 IEM_DS3505
ZBYN,1995-03-22 00:00,ZBYN 220000Z AUTO 34002KT 6SM 06/M07 A2991 RMK SLP136 T00591067 52010 IEM_DS3505
ZBYN,1995-03-22 01:00,ZBYN 220100Z AUTO 00000KT 1 1/2SM 07/M05 A2991 RMK T00701050 IEM_DS3505
ZBYN,1995-03-22 02:00,ZBYN 220200Z AUTO 00000KT 1 1/2SM 12/M04 A2991 RMK T01201040 IEM_DS3505
ZBYN,1995-03-22 03:00,ZBYN 220300Z AUTO 14004KT 5SM 14/M05 A2991 RMK SLP134 T01381051 52002 IEM_DS3505
ZBYN,1995-03-22 04:00,ZBYN 220400Z AUTO 15004KT 3SM 18/M05 A2988 RMK T01801050 IEM_DS3505
ZBYN,1995-03-22 05:00,ZBYN 220500Z AUTO 21006KT 3SM 20/M06 A2983 RMK T02001060 IEM_DS3505
ZBYN,1995-03-22 06:00,ZBYN 220600Z AUTO 20004KT 5SM 20/M06 A2980 RMK SLP087 T02001061 57035 IEM_DS3505
ZBYN,1995-03-22 07:00,ZBYN 220700Z AUTO 18006KT 4SM 23/M04 A2977 RMK T02301040 IEM_DS3505
ZBYN,1995-03-22 08:00,ZBYN 220800Z AUTO 19006KT 5SM 23/M05 A2977 RMK T02301050 IEM_DS3505
ZBYN,1995-03-22 09:00,ZBYN 220900Z AUTO 11016KT 5SM 19/M05 A2977 RMK SLP079 T01881051 57015 IEM_DS3505
ZBYN,1995-03-22 10:00,ZBYN 221000Z AUTO 08017KT 1 1/2SM 13/M01 A2980 RMK T01301010 IEM_DS3505
ZBYN,1995-03-22 11:00,ZBYN 221100Z AUTO 08021KT 2SM 10/M01 A2985 RMK T01001010 IEM_DS3505
ZBYN,1995-03-22 12:00,ZBYN 221200Z AUTO 09012KT 6SM 10/M04 A2991 RMK SLP138 T01011043 52046 IEM_DS3505
ZBYN,1995-03-22 13:00,ZBYN 221300Z AUTO 07017KT 2SM 06/00 A2997 RMK T00600000 IEM_DS3505
ZBYN,1995-03-22 14:00,ZBYN 221400Z AUTO 09019KT 2SM 05/M01 A3000 RMK T00501010 IEM_DS3505
ZBYN,1995-03-22 15:00,ZBYN 221500Z AUTO 09014KT 6SM 05/M02 A3000 RMK SLP169 T00501025 52033 IEM_DS3505
ZBYN,1995-03-22 16:00,ZBYN 221600Z AUTO 06019KT 2SM 04/M01 A3003 RMK T00401010 IEM_DS3505
ZBYN,1995-03-22 17:00,ZBYN 221700Z AUTO 06019KT 2SM 03/M02 A3003 RMK T00301020 IEM_DS3505
ZBYN,1995-03-22 18:00,ZBYN 221800Z AUTO 11004KT 6SM 04/M02 A3006 RMK SLP176 T00351015 52013 IEM_DS3505
ZBYN,1995-03-22 19:00,ZBYN 221900Z AUTO 03014KT 2SM 02/M03 A3006 RMK T00201030 IEM_DS3505
ZBYN,1995-03-22 20:00,ZBYN 222000Z AUTO 03008KT 2SM 01/M02 A3006 RMK T00101020 IEM_DS3505
ZBYN,1995-03-22 21:00,ZBYN 222100Z AUTO 32004KT 6SM 02/M03 A3003 RMK SLP182 T00171028 52001 IEM_DS3505
ZBYN,1995-03-22 22:00,ZBYN 222200Z AUTO 06010KT 5SM 00/M02 A3006 RMK T00001020 IEM_DS3505
ZBYN,1995-03-22 23:00,ZBYN 222300Z AUTO 07008KT 6SM 02/M06 A3006 RMK T00201060 IEM_DS3505
ZBYN,1995-03-23 00:00,ZBYN 230000Z AUTO 32004KT 6SM 02/M04 A3009 RMK SLP205 T00251045 52009 IEM_DS3505
ZBYN,1995-03-23 01:00,ZBYN 230100Z AUTO 08008KT 6SM 03/M05 A3009 RMK T00301050 IEM_DS3505
ZBYN,1995-03-23 02:00,ZBYN 230200Z AUTO 06010KT 6SM 04/M06 A3009 RMK T00401060 IEM_DS3505
ZBYN,1995-03-23 03:00,ZBYN 230300Z AUTO 27004KT 6SM 04/M06 A3006 RMK SLP205 T00431057 57005 IEM_DS3505
ZBYN,1995-03-23 04:00,ZBYN 230400Z AUTO 07012KT 6SM 04/M06 A3006 RMK T00401060 IEM_DS3505
ZBYN,1995-03-23 05:00,ZBYN 230500Z AUTO 06008KT 6SM 04/M06 A3003 RMK T00401060 IEM_DS3505
ZBYN,1995-03-23 06:00,ZBYN 230600Z AUTO 11010KT 6SM 05/M08 A3000 RMK SLP188 T00511077 57017 IEM_DS3505
ZBYN,1995-03-23 07:00,ZBYN 230700Z AUTO 09010KT 6SM 05/M09 A2997 RMK T00501090 IEM_DS3505
ZBYN,1995-03-23 08:00,ZBYN 230800Z AUTO 08012KT 6SM 05/M08 A2997 RMK T00501080 IEM_DS3505
ZBYN,1995-03-23 09:00,ZBYN 230900Z AUTO 22006KT 6SM 05/M06 A2997 RMK SLP178 T00541055 57011 IEM_DS3505
ZBYN,1995-03-23 10:00,ZBYN 231000Z AUTO 09010KT 6SM 05/M05 A3000 RMK T00501050 IEM_DS3505
ZBYN,1995-03-23 11:00,ZBYN 231100Z AUTO 10010KT 6SM 04/M06 A3003 RMK T00401060 IEM_DS3505
ZBYN,1995-03-23 12:00,ZBYN 231200Z AUTO 22006KT 6SM 03/M06 A3003 RMK SLP207 T00341058 52024 IEM_DS3505
ZBYN,1995-03-23 13:00,ZBYN 231300Z AUTO 09008KT 6SM 03/M06 A3006 RMK T00301060 IEM_DS3505
ZBYN,1995-03-23 14:00,ZBYN 231400Z AUTO 09008KT 6SM 03/M06 A3006 RMK T00301060 IEM_DS3505
ZBYN,1995-03-23 15:00,ZBYN 231500Z AUTO 22006KT 6SM 02/M05 A3009 RMK SLP216 T00241054 52010 IEM_DS3505
ZBYN,1995-03-23 16:00,ZBYN 231600Z AUTO 10006KT 6SM 02/M06 A3009 RMK T00201060 IEM_DS3505
ZBYN,1995-03-23 17:00,ZBYN 231700Z AUTO 10006KT 6SM 02/M06 A3012 RMK T00201060 IEM_DS3505
ZBYN,1995-03-23 18:00,ZBYN 231800Z AUTO 25002KT 6SM 02/M05 A3009 RMK SLP219 T00181051 52003 IEM_DS3505
ZBYN,1995-03-23 19:00,ZBYN 231900Z AUTO 12004KT 7SM 02/M06 A3009 RMK T00201060 IEM_DS3505
ZBYN,1995-03-23 20:00,ZBYN 232000Z AUTO 11004KT 7SM 02/M06 A3006 RMK T00201060 IEM_DS3505
ZBYN,1995-03-23 21:00,ZBYN 232100Z AUTO 22004KT 6SM 01/M05 A3009 RMK SLP215 T00101054 57005 IEM_DS3505
ZBYN,1995-03-23 22:00,ZBYN 232200Z AUTO 00000KT 7SM 01/M06 A3009 RMK T00101060 IEM_DS3505
ZBYN,1995-03-23 23:00,ZBYN 232300Z AUTO 00000KT 4SM 01/M06 A3012 RMK T00101060 IEM_DS3505
ZBYN,1995-03-24 00:00,ZBYN 240000Z AUTO 18004KT 6SM 01/M05 A3012 RMK SLP233 T00131047 52013 IEM_DS3505
ZBYN,1995-03-24 01:00,ZBYN 240100Z AUTO 14004KT 6SM 04/M05 A3015 RMK T00401050 IEM_DS3505
ZBYN,1995-03-24 02:00,ZBYN 240200Z AUTO 16006KT 6SM 05/M04 A3012 RMK T00501040 IEM_DS3505
ZBYN,1995-03-24 03:00,ZBYN 240300Z AUTO 18006KT 6SM 05/M04 A3012 RMK SLP231 T00531045 52003 IEM_DS3505
ZBYN,1995-03-24 04:00,ZBYN 240400Z AUTO 17006KT 6SM 08/M03 A3012 RMK T00801030 IEM_DS3505
ZBYN,1995-03-24 05:00,ZBYN 240500Z AUTO 00000KT 6SM 08/M02 A3009 RMK T00801020 IEM_DS3505
ZBYN,1995-03-24 06:00,ZBYN 240600Z AUTO 14004KT 6SM 08/M03 A3006 RMK SLP209 T00831032 57016 IEM_DS3505
ZBYN,1995-03-24 07:00,ZBYN 240700Z AUTO 10004KT 6SM 11/M02 A3006 RMK T01101020 IEM_DS3505
ZBYN,1995-03-24 08:00,ZBYN 240800Z AUTO 28006KT 7SM 10/M03 A3006 RMK T01001030 IEM_DS3505
ZBYN,1995-03-24 09:00,ZBYN 240900Z AUTO 36010KT 6SM 06/01 A3012 RMK SLP235 T00550009 52018 IEM_DS3505
ZBYN,1995-03-24 11:00,ZBYN 241100Z AUTO 05004KT 7SM 02/01 A3024 RMK T00200010 IEM_DS3505
ZBYN,1995-03-24 12:00,ZBYN 241200Z AUTO 04004KT 6SM 03/01 A3030 RMK 60008 SLP289 T00260008 52045 IEM_DS3505
ZBYN,1995-03-24 13:00,ZBYN 241300Z AUTO 36004KT 7SM 02/00 A3033 RMK T00200000 IEM_DS3505
ZBYN,1995-03-24 14:00,ZBYN 241400Z AUTO 00000KT 7SM 02/00 A3036 RMK T00200000 IEM_DS3505
ZBYN,1995-03-24 15:00,ZBYN 241500Z AUTO 36006KT 6SM 03/M03 A3036 RMK SLP309 T00261030 52024 IEM_DS3505
ZBYN,1995-03-24 16:00,ZBYN 241600Z AUTO 35012KT 6SM 02/M07 A3036 RMK T00201070 IEM_DS3505
ZBYN,1995-03-24 17:00,ZBYN 241700Z AUTO 36014KT 6SM 01/M13 A3036 RMK T00101130 IEM_DS3505
ZBYN,1995-03-24 18:00,ZBYN 241800Z AUTO 36008KT 6SM 00/M12 A3039 RMK SLP320 T00051117 52012 IEM_DS3505
ZBYN,1995-03-24 19:00,ZBYN 241900Z AUTO 03010KT 7SM M02/M09 A3039 RMK T10201090 IEM_DS3505
ZBYN,1995-03-24 20:00,ZBYN 242000Z AUTO 35008KT 7SM M02/M15 A3039 RMK T10201150 IEM_DS3505
ZBYN,1995-03-24 21:00,ZBYN 242100Z AUTO 34008KT 7SM M02/M16 A3042 RMK SLP334 T10191157 52004 IEM_DS3505
ZBYN,1995-03-24 22:00,ZBYN 242200Z AUTO 00000KT 7SM M04/M13 A3045 RMK T10401130 IEM_DS3505
ZBYN,1995-03-24 23:00,ZBYN 242300Z AUTO 01004KT 7SM M04/M14 A3045 RMK T10401140 IEM_DS3505
ZBYN,1995-03-25 00:00,ZBYN 250000Z AUTO 34004KT 9SM M03/M15 A3045 RMK 70008 SLP360 T10261151 52018 IEM_DS3505
ZBYN,1995-03-25 01:00,ZBYN 250100Z AUTO 34006KT 7SM M01/M14 A3047 RMK T10101140 IEM_DS3505
ZBYN,1995-03-25 02:00,ZBYN 250200Z AUTO 34006KT 7SM 01/M12 A3047 RMK T00101120 IEM_DS3505
ZBYN,1995-03-25 03:00,ZBYN 250300Z AUTO 34006KT 11SM 02/M15 A3045 RMK SLP340 T00251149 57010 IEM_DS3505
ZBYN,1995-03-25 04:00,ZBYN 250400Z AUTO 17008KT 7SM 04/M14 A3039 RMK T00401140 IEM_DS3505
ZBYN,1995-03-25 05:00,ZBYN 250500Z AUTO 23006KT 7SM 05/ A3033 RMK IEM_DS3505
ZBYN,1995-03-25 06:00,ZBYN 250600Z AUTO 18012KT 11SM 07/M11 A3027 RMK SLP283 T00671113 57049 IEM_DS3505
ZBYN,1995-03-25 07:00,ZBYN 250700Z AUTO 21014KT 7SM 08/M07 A3021 RMK T00801070 IEM_DS3505
ZBYN,1995-03-25 08:00,ZBYN 250800Z AUTO 19017KT 7SM 08/M09 A3018 RMK T00801090 IEM_DS3505
ZBYN,1995-03-25 09:00,ZBYN 250900Z AUTO 20014KT 11SM 08/M12 A3015 RMK SLP231 T00801117 57049 IEM_DS3505
ZBYN,1995-03-25 10:00,ZBYN 251000Z AUTO 22010KT 7SM 08/M09 A3015 RMK T00801090 IEM_DS3505
ZBYN,1995-03-25 11:00,ZBYN 251100Z AUTO 29010KT 7SM 07/M11 A3012 RMK T00701110 IEM_DS3505
ZBYN,1995-03-25 12:00,ZBYN 251200Z AUTO 29004KT 9SM 05/M12 A3012 RMK SLP240 T00501115 52003 IEM_DS3505
ZBYN,1995-03-25 13:00,ZBYN 251300Z AUTO 19006KT 7SM 02/M10 A3012 RMK T00201100 IEM_DS3505
ZBYN,1995-03-25 14:00,ZBYN 251400Z AUTO 19006KT 7SM 02/M08 A3012 RMK T00201080 IEM_DS3505
ZBYN,1995-03-25 15:00,ZBYN 251500Z AUTO 20010KT 7SM 02/M10 A3009 RMK SLP223 T00251100 57012 IEM_DS3505
ZBYN,1995-03-25 16:00,ZBYN 251600Z AUTO 00000KT 7SM M01/M07 A3006 RMK T10101070 IEM_DS3505
ZBYN,1995-03-25 17:00,ZBYN 251700Z AUTO 09006KT 7SM M02/M08 A3006 RMK T10201080 IEM_DS3505
ZBYN,1995-03-25 18:00,ZBYN 251800Z AUTO 11008KT 7SM M01/M09 A3003 RMK SLP200 T10101092 57019 IEM_DS3505
ZBYN,1995-03-25 19:00,ZBYN 251900Z AUTO 11008KT 7SM M03/M10 A3000 RMK T10301100 IEM_DS3505
ZBYN,1995-03-25 20:00,ZBYN 252000Z AUTO 08004KT 7SM M03/M11 A2997 RMK T10301110 IEM_DS3505
ZBYN,1995-03-25 21:00,ZBYN 252100Z AUTO 14002KT 7SM M03/M10 A2997 RMK SLP179 T10301095 57021 IEM_DS3505
ZBYN,1995-03-25 22:00,ZBYN 252200Z AUTO 09008KT 7SM M03/M10 A2997 RMK T10301100 IEM_DS3505
ZBYN,1995-03-25 23:00,ZBYN 252300Z AUTO 08006KT 7SM M04/M09 A2997 RMK T10401090 IEM_DS3505
ZBYN,1995-03-26 00:00,ZBYN 260000Z AUTO 00000KT 7SM 00/M08 A2997 RMK SLP181 T00001084 52002 IEM_DS3505
ZBYN,1995-03-26 01:00,ZBYN 260100Z AUTO 16004KT 6SM 05/M07 A2997 RMK T00501070 IEM_DS3505
ZBYN,1995-03-26 02:00,ZBYN 260200Z AUTO 13006KT 6SM 06/M09 A2997 RMK T00601090 IEM_DS3505
ZBYN,1995-03-26 03:00,ZBYN 260300Z AUTO 18008KT 6SM 08/M10 A2997 RMK SLP170 T00811096 57001 IEM_DS3505
ZBYN,1995-03-26 04:00,ZBYN 260400Z AUTO 24004KT 6SM 12/M10 A2994 RMK T01201100 IEM_DS3505
ZBYN,1995-03-26 05:00,ZBYN 260500Z AUTO 20008KT 6SM 13/M13 A2991 RMK T01301130 IEM_DS3505
ZBYN,1995-03-26 06:00,ZBYN 260600Z AUTO 20012KT 6SM 14/M12 A2985 RMK SLP128 T01421116 57034 IEM_DS3505
ZBYN,1995-03-26 07:00,ZBYN 260700Z AUTO 23008KT 7SM 17/M10 A2980 RMK T01701100 IEM_DS3505
ZBYN,1995-03-26 08:00,ZBYN 260800Z AUTO 23006KT 7SM 17/M12 A2977 RMK T01701120 IEM_DS3505
ZBYN,1995-03-26 09:00,ZBYN 260900Z AUTO 18006KT 7SM 16/M09 RMK SLP102 T01621094 57024 IEM_DS3505
ZBYN,1995-03-26 10:00,ZBYN 261000Z AUTO 21004KT 7SM 16/M13 A2977 RMK T01601130 IEM_DS3505
ZBYN,1995-03-26 11:00,ZBYN 261100Z AUTO 00000KT 6SM 13/M08 A2977 RMK T01301080 IEM_DS3505
ZBYN,1995-03-26 12:00,ZBYN 261200Z AUTO 34006KT 6SM 12/M07 A2980 RMK SLP106 T01241067 52003 IEM_DS3505
ZBYN,1995-03-26 13:00,ZBYN 261300Z AUTO 30006KT 7SM 10/M07 A2983 RMK T01001070 IEM_DS3505
ZBYN,1995-03-26 14:00,ZBYN 261400Z AUTO 00000KT 7SM 08/M07 A2985 RMK T00801070 IEM_DS3505
ZBYN,1995-03-26 15:00,ZBYN 261500Z AUTO 34004KT 6SM 08/M05 A2988 RMK SLP128 T00791053 52025 IEM_DS3505
ZBYN,1995-03-26 16:00,ZBYN 261600Z AUTO 00000KT 7SM 05/M07 A2988 RMK T00501070 IEM_DS3505
ZBYN,1995-03-26 17:00,ZBYN 261700Z AUTO 09006KT 7SM 02/M08 A2991 RMK T00201080 IEM_DS3505
ZBYN,1995-03-26 18:00,ZBYN 261800Z AUTO 32006KT 6SM 02/M05 A2991 RMK SLP140 T00151051 52011 IEM_DS3505
ZBYN,1995-03-26 19:00,ZBYN 261900Z AUTO 09008KT 7SM 00/M07 A2994 RMK T00001070 IEM_DS3505
ZBYN,1995-03-26 20:00,ZBYN 262000Z AUTO 00000KT 7SM 03/M10 A2994 RMK T00301100 IEM_DS3505
ZBYN,1995-03-26 21:00,ZBYN 262100Z AUTO 32004KT 7SM 04/M06 A2997 RMK SLP154 T00421058 52020 IEM_DS3505
ZBYN,1995-03-26 22:00,ZBYN 262200Z AUTO 02004KT 7SM 06/M04 A3000 RMK T00601040 IEM_DS3505
ZBYN,1995-03-26 23:00,ZBYN 262300Z AUTO 06010KT 6SM 05/M06 A3000 RMK T00501060 IEM_DS3505
ZBYN,1995-03-27 00:00,ZBYN 270000Z AUTO 06012KT 6SM 06/M07 A3006 RMK T00601070 IEM_DS3505
ZBYN,1995-03-27 01:00,ZBYN 270100Z AUTO 06016KT 6SM 08/M06 A3006 RMK T00801060 IEM_DS3505
ZBYN,1995-03-27 02:00,ZBYN 270200Z AUTO 05010KT 6SM 09/M06 A3009 RMK T00901060 IEM_DS3505
ZBYN,1995-03-27 04:00,ZBYN 270400Z AUTO 09014KT 6SM 12/M04 A3006 RMK T01201040 IEM_DS3505
ZBYN,1995-03-27 05:00,ZBYN 270500Z AUTO 09010KT 6SM 13/M04 A3003 RMK T01301040 IEM_DS3505
ZBYN,1995-03-27 06:00,ZBYN 270600Z AUTO 02006KT 6SM 13/M07 A3001 RMK SLP176 T01301069 57023 IEM_DS3505
ZBYN,1995-03-27 07:00,ZBYN 270700Z AUTO 06010KT 6SM 14/01 A2997 RMK T01400010 IEM_DS3505
ZBYN,1995-03-27 08:00,ZBYN 270800Z AUTO 07016KT 6SM 13/00 A2994 RMK T01300000 IEM_DS3505
ZBYN,1995-03-27 09:00,ZBYN 270900Z AUTO 07010KT 6SM 12/M05 A2994 RMK SLP159 T01151050 57014 IEM_DS3505
ZBYN,1995-03-27 10:00,ZBYN 271000Z AUTO 06019KT 5SM 09/M01 A2994 RMK T00901010 IEM_DS3505
ZBYN,1995-03-27 11:00,ZBYN 271100Z AUTO 06016KT 6SM 08/M03 A3000 RMK T00801030 IEM_DS3505
ZBYN,1995-03-27 12:00,ZBYN 271200Z AUTO 09016KT 6SM 08/M06 A3003 RMK SLP184 T00761055 52027 IEM_DS3505
ZBYN,1995-03-27 13:00,ZBYN 271300Z AUTO 06016KT 6SM 06/M04 A3006 RMK T00601040 IEM_DS3505
ZBYN,1995-03-27 14:00,ZBYN 271400Z AUTO 07016KT 6SM 06/M04 A3009 RMK T00601040 IEM_DS3505
ZBYN,1995-03-27 15:00,ZBYN 271500Z AUTO 09012KT 6SM 06/M06 A3012 RMK SLP211 T00591064 52027 IEM_DS3505
ZBYN,1995-03-27 16:00,ZBYN 271600Z AUTO 07014KT 6SM 05/M06 A3012 RMK T00501060 IEM_DS3505
ZBYN,1995-03-27 17:00,ZBYN 271700Z AUTO 08010KT 6SM 04/M07 A3012 RMK T00401070 IEM_DS3505
ZBYN,1995-03-27 18:00,ZBYN 271800Z AUTO 04004KT 6SM 05/M06 A3009 RMK SLP205 T00541059 57002 IEM_DS3505
ZBYN,1995-03-27 21:00,ZBYN 272100Z AUTO 36004KT 6SM 05/M06 A3006 RMK SLP194 T00501062 57013 IEM_DS3505
ZBYN,1995-03-27 23:00,ZBYN 272300Z AUTO 15008KT 7SM 04/M06 A3009 RMK T00401060 IEM_DS3505
ZBYN,1995-03-28 00:00,ZBYN 280000Z AUTO 11006KT 6SM 01/00 A3012 RMK 60000 SLP221 T00130003 52013 IEM_DS3505
ZBYN,1995-03-28 01:00,ZBYN 280100Z AUTO 09010KT 1 1/2SM 01/00 A3012 RMK T00100000 IEM_DS3505
ZBYN,1995-03-28 02:00,ZBYN 280200Z AUTO 08008KT 1 1/2SM 02/00 A3009 RMK T00200000 IEM_DS3505
ZBYN,1995-03-28 03:00,ZBYN 280300Z AUTO 11006KT 6SM 02/01 A3009 RMK SLP222 T00230008 54000 IEM_DS3505
ZBYN,1995-03-28 04:00,ZBYN 280400Z AUTO 08004KT 2SM 03/02 A3009 RMK T00300020 IEM_DS3505
ZBYN,1995-03-28 05:00,ZBYN 280500Z AUTO 11004KT 7SM 04/02 A3003 RMK T00400020 IEM_DS3505
ZBYN,1995-03-28 06:00,ZBYN 280600Z AUTO 18004KT 4SM 04/01 A3000 RMK 60001 SLP188 T00400013 57029 IEM_DS3505
ZBYN,1995-03-28 07:00,ZBYN 280700Z AUTO 13004KT 7SM 06/02 A2997 RMK T00600020 IEM_DS3505
ZBYN,1995-03-28 08:00,ZBYN 280800Z AUTO 22002KT 7SM 05/02 A2994 RMK T00500020 IEM_DS3505
ZBYN,1995-03-28 09:00,ZBYN 280900Z AUTO 18006KT 5SM 05/02 A2994 RMK SLP163 T00510025 57022 IEM_DS3505
ZBYN,1995-03-28 10:00,ZBYN 281000Z AUTO 16004KT 4SM 05/03 A2994 RMK T00500030 IEM_DS3505
ZBYN,1995-03-28 11:00,ZBYN 281100Z AUTO 18004KT 4SM 05/02 A2994 RMK T00500020 IEM_DS3505
ZBYN,1995-03-28 12:00,ZBYN 281200Z AUTO 16008KT 3SM 04/02 A2994 RMK SLP170 T00400021 57001 IEM_DS3505
ZBYN,1995-03-28 13:00,ZBYN 281300Z AUTO 00000KT 2 1/2SM 04/02 A2997 RMK T00400020 IEM_DS3505
ZBYN,1995-03-28 14:00,ZBYN 281400Z AUTO 00000KT 2 1/2SM 04/02 A2997 RMK T00400020 IEM_DS3505
ZBYN,1995-03-28 15:00,ZBYN 281500Z AUTO 16004KT 3SM 04/02 A2994 RMK SLP172 T00380024 52003 IEM_DS3505
ZBYN,1995-03-28 16:00,ZBYN 281600Z AUTO 00000KT 2SM 04/03 A2994 RMK T00400030 IEM_DS3505
ZBYN,1995-03-28 17:00,ZBYN 281700Z AUTO 00000KT 2SM 04/02 A2994 RMK T00400020 IEM_DS3505
ZBYN,1995-03-28 18:00,ZBYN 281800Z AUTO 00000KT 3SM 03/02 A2994 RMK SLP167 T00340019 57003 IEM_DS3505
ZBYN,1995-03-28 19:00,ZBYN 281900Z AUTO 00000KT 2SM 04/03 A2994 RMK T00400030 IEM_DS3505
ZBYN,1995-03-28 20:00,ZBYN 282000Z AUTO 00000KT 2SM 04/03 A2991 RMK T00400030 IEM_DS3505
ZBYN,1995-03-28 21:00,ZBYN 282100Z AUTO 00000KT 3SM 04/02 A2991 RMK SLP159 T00350021 57005 IEM_DS3505
ZBYN,1995-03-28 22:00,ZBYN 282200Z AUTO 00000KT 2SM 04/04 A2994 RMK T00400040 IEM_DS3505
ZBYN,1995-03-28 23:00,ZBYN 282300Z AUTO 00000KT 1SM 05/03 A2994 RMK T00500030 IEM_DS3505
ZBYN,1995-03-29 00:00,ZBYN 290000Z AUTO 00000KT 3SM 04/02 A2994 RMK 70001 SLP170 T00400023 52009 IEM_DS3505
ZBYN,1995-03-29 01:00,ZBYN 290100Z AUTO 00000KT 1SM 05/03 A2997 RMK T00500030 IEM_DS3505
ZBYN,1995-03-29 02:00,ZBYN 290200Z AUTO 32002KT 2 1/2SM 06/02 A2997 RMK T00600020 IEM_DS3505
ZBYN,1995-03-29 03:00,ZBYN 290300Z AUTO 27004KT 4SM 07/02 A2997 RMK SLP171 T00660016 52005 IEM_DS3505
ZBYN,1995-03-29 04:00,ZBYN 290400Z AUTO 23006KT 1 1/2SM 09/02 A2994 RMK T00900020 IEM_DS3505
ZBYN,1995-03-29 05:00,ZBYN 290500Z AUTO 00000KT 2SM 10/03 A2991 RMK T01000030 IEM_DS3505
ZBYN,1995-03-29 06:00,ZBYN 290600Z AUTO 14006KT 5SM 12/03 A2988 RMK SLP136 T01170030 57025 IEM_DS3505
ZBYN,1995-03-29 07:00,ZBYN 290700Z AUTO 00000KT 2 1/2SM 15/02 A2983 RMK T01500020 IEM_DS3505
ZBYN,1995-03-29 08:00,ZBYN 290800Z AUTO 21006KT 3SM 15/04 A2983 RMK T01500040 IEM_DS3505
ZBYN,1995-03-29 09:00,ZBYN 290900Z AUTO 22004KT 5SM 15/03 A2983 RMK SLP105 T01520032 57023 IEM_DS3505
ZBYN,1995-03-29 11:00,ZBYN 291100Z AUTO 35004KT 4SM 14/01 A2983 RMK T01400010 IEM_DS3505
ZBYN,1995-03-29 12:00,ZBYN 291200Z AUTO 09008KT 7SM 12/03 A2985 RMK SLP121 T01170027 52010 IEM_DS3505
ZBYN,1995-03-29 13:00,ZBYN 291300Z AUTO 06012KT 4SM 10/01 A2988 RMK T01000010 IEM_DS3505
ZBYN,1995-03-29 14:00,ZBYN 291400Z AUTO 08010KT 7SM 10/04 A2991 RMK T01000040 IEM_DS3505
ZBYN,1995-03-29 15:00,ZBYN 291500Z AUTO 27004KT 7SM 08/02 A2991 RMK SLP146 T00790024 52021 IEM_DS3505
ZBYN,1995-03-29 16:00,ZBYN 291600Z AUTO 04006KT 6SM 08/01 A2991 RMK T00800010 IEM_DS3505
ZBYN,1995-03-29 17:00,ZBYN 291700Z AUTO 12004KT 6SM 07/01 A2994 RMK T00700010 IEM_DS3505
ZBYN,1995-03-29 18:00,ZBYN 291800Z AUTO 25002KT 7SM 05/02 A2991 RMK SLP143 T00510015 52001 IEM_DS3505
ZBYN,1995-03-29 19:00,ZBYN 291900Z AUTO 12004KT 7SM 05/00 A2994 RMK T00500000 IEM_DS3505
ZBYN,1995-03-29 20:00,ZBYN 292000Z AUTO 14006KT 7SM 04/00 A2994 RMK T00400000 IEM_DS3505
ZBYN,1995-03-29 21:00,ZBYN 292100Z AUTO 09006KT 7SM 03/00 A2994 RMK SLP152 T00280003 52010 IEM_DS3505
ZBYN,1995-03-29 22:00,ZBYN 292200Z AUTO 00000KT 3SM 02/M01 A2997 RMK T00201010 IEM_DS3505
ZBYN,1995-03-29 23:00,ZBYN 292300Z AUTO 00000KT 2SM 02/00 A3000 RMK T00200000 IEM_DS3505
ZBYN,1995-03-30 00:00,ZBYN 300000Z AUTO 14002KT 2SM 04/01 A3003 RMK SLP177 T00360011 52019 IEM_DS3505
ZBYN,1995-03-30 01:00,ZBYN 300100Z AUTO 14004KT 1 1/4SM 06/03 A3003 RMK T00600030 IEM_DS3505
ZBYN,1995-03-30 02:00,ZBYN 300200Z AUTO 15002KT 1SM 07/03 A3003 RMK T00700030 IEM_DS3505
ZBYN,1995-03-30 03:00,ZBYN 300300Z AUTO 14006KT 4SM 10/02 A3003 RMK SLP173 T00980024 54000 IEM_DS3505
ZBYN,1995-03-30 04:00,ZBYN 300400Z AUTO 00000KT 2SM 13/02 A3000 RMK T01300020 IEM_DS3505
ZBYN,1995-03-30 05:00,ZBYN 300500Z AUTO 10004KT 6SM 15/M04 A2997 RMK T01501040 IEM_DS3505
ZBYN,1995-03-30 06:00,ZBYN 300600Z AUTO 18004KT 7SM 15/M04 A2994 RMK SLP149 T01541044 57018 IEM_DS3505
ZBYN,1995-03-30 07:00,ZBYN 300700Z AUTO 24008KT 6SM 16/M06 A2991 RMK T01601060 IEM_DS3505
ZBYN,1995-03-30 08:00,ZBYN 300800Z AUTO 18006KT 6SM 17/M03 A2988 RMK T01701030 IEM_DS3505
ZBYN,1995-03-30 09:00,ZBYN 300900Z AUTO 32010KT 11SM 17/M12 A2991 RMK SLP135 T01701122 57014 IEM_DS3505
ZBYN,1995-03-30 10:00,ZBYN 301000Z AUTO 32012KT 7SM 16/M17 A2991 RMK T01601170 IEM_DS3505
ZBYN,1995-03-30 11:00,ZBYN 301100Z AUTO 31012KT 7SM 14/M15 A2994 RMK T01401150 IEM_DS3505
ZBYN,1995-03-30 12:00,ZBYN 301200Z AUTO 32010KT 9SM 12/M11 A3000 RMK SLP167 T01251109 52024 IEM_DS3505
ZBYN,1995-03-30 13:00,ZBYN 301300Z AUTO 36010KT 7SM 10/M11 A3006 RMK T01001110 IEM_DS3505
ZBYN,1995-03-30 14:00,ZBYN 301400Z AUTO 36012KT 7SM 09/M12 A3009 RMK T00901120 IEM_DS3505
ZBYN,1995-03-30 15:00,ZBYN 301500Z AUTO 02010KT 6SM 08/M12 A3012 RMK SLP211 T00841120 52043 IEM_DS3505
ZBYN,1995-03-30 17:00,ZBYN 301700Z AUTO 35012KT 7SM 07/M14 A3018 RMK T00701140 IEM_DS3505
ZBYN,1995-03-30 18:00,ZBYN 301800Z AUTO 02010KT 6SM 04/M10 A3021 RMK SLP235 T00431103 52024 IEM_DS3505
ZBYN,1995-03-30 19:00,ZBYN 301900Z AUTO 34006KT 7SM 05/M14 A3024 RMK T00501140 IEM_DS3505
ZBYN,1995-03-30 20:00,ZBYN 302000Z AUTO 31006KT 7SM 03/M11 A3024 RMK T00301110 IEM_DS3505
ZBYN,1995-03-30 21:00,ZBYN 302100Z AUTO 32006KT 6SM 00/M10 A3024 RMK SLP251 T00001104 52011 IEM_DS3505
ZBYN,1995-03-30 22:00,ZBYN 302200Z AUTO 00000KT 7SM 00/M11 A3027 RMK T00001110 IEM_DS3505
ZBYN,1995-03-30 23:00,ZBYN 302300Z AUTO 36004KT 7SM 00/M15 A3027 RMK T00001150 IEM_DS3505
ZBYN,1995-03-31 00:00,ZBYN 310000Z AUTO 36004KT 6SM 02/M07 A3027 RMK SLP262 T00221073 52006 IEM_DS3505
ZBYN,1995-03-31 01:00,ZBYN 310100Z AUTO 03006KT 7SM 04/M05 A3027 RMK T00401050 IEM_DS3505
ZBYN,1995-03-31 02:00,ZBYN 310200Z AUTO 33008KT 7SM 06/M13 A3027 RMK T00601130 IEM_DS3505
ZBYN,1995-03-31 03:00,ZBYN 310300Z AUTO 02006KT 12SM 08/M13 A3024 RMK SLP257 T00761128 57002 IEM_DS3505
ZBYN,1995-03-31 04:00,ZBYN 310400Z AUTO 00000KT 7SM 09/M16 A3021 RMK T00901160 IEM_DS3505
ZBYN,1995-03-31 05:00,ZBYN 310500Z AUTO 23012KT 7SM 10/M11 A3018 RMK T01001110 IEM_DS3505
ZBYN,1995-03-31 06:00,ZBYN 310600Z AUTO 18010KT 7SM 10/M07 A3014 RMK SLP223 T01011070 57034 IEM_DS3505
ZBYN,1995-03-31 07:00,ZBYN 310700Z AUTO 22006KT 7SM 12/M13 A3009 RMK T01201130 IEM_DS3505
ZBYN,1995-03-31 08:00,ZBYN 310800Z AUTO 22006KT 7SM 13/M10 A3006 RMK T01301100 IEM_DS3505
ZBYN,1995-03-31 09:00,ZBYN 310900Z AUTO 18010KT 7SM 12/M06 A3003 RMK SLP191 T01231061 57032 IEM_DS3505
ZBYN,1995-03-31 10:00,ZBYN 311000Z AUTO 21004KT 7SM 13/M10 A3000 RMK T01301100 IEM_DS3505
ZBYN,1995-03-31 11:00,ZBYN 311100Z AUTO 00000KT 7SM 11/M08 A3000 RMK T01101080 IEM_DS3505
ZBYN,1995-03-31 12:00,ZBYN 311200Z AUTO 36004KT 6SM 10/M03 A3003 RMK SLP187 T00971028 57004 IEM_DS3505
ZBYN,1995-03-31 13:00,ZBYN 311300Z AUTO 00000KT 7SM 05/M08 A3006 RMK T00501080 IEM_DS3505
ZBYN,1995-03-31 14:00,ZBYN 311400Z AUTO 01004KT 7SM 07/M08 A3006 RMK T00701080 IEM_DS3505
ZBYN,1995-03-31 15:00,ZBYN 311500Z AUTO 34006KT 6SM 09/M11 A3009 RMK SLP198 T00871106 52016 IEM_DS3505
ZBYN,1995-03-31 16:00,ZBYN 311600Z AUTO 00000KT 7SM 04/M09 A3009 RMK T00401090 IEM_DS3505
ZBYN,1995-03-31 17:00,ZBYN 311700Z AUTO 05004KT 7SM 01/M07 A3009 RMK T00101070 IEM_DS3505
ZBYN,1995-03-31 18:00,ZBYN 311800Z AUTO 00000KT 6SM 02/M06 A3006 RMK SLP207 T00191065 52002 IEM_DS3505
ZBYN,1995-03-31 19:00,ZBYN 311900Z AUTO 07006KT 7SM M01/M08 A3006 RMK T10101080 IEM_DS3505
ZBYN,1995-03-31 20:00,ZBYN 312000Z AUTO 09006KT 7SM 00/M09 A3006 RMK T00001090 IEM_DS3505
ZBYN,1995-03-31 21:00,ZBYN 312100Z AUTO 29002KT 6SM M01/M07 A3006 RMK SLP199 T10091072 57008 IEM_DS3505
ZBYN,1995-03-31 22:00,ZBYN 312200Z AUTO 00000KT 7SM M02/M07 A3006 RMK T10201070 IEM_DS3505
ZBYN,1995-03-31 23:00,ZBYN 312300Z AUTO 00000KT 6SM M02/M12 A3006 RMK T10201120 IEM_DS3505
ZBYN,1995-04-01 00:00,ZBYN 010000Z AUTO 32002KT 6SM 02/M08 A3006 RMK SLP203 T00201080 52004 IEM_DS3505
ZBYN,1995-04-01 01:00,ZBYN 010100Z AUTO 16006KT 5SM 06/M09 A3006 RMK T00601090 IEM_DS3505
ZBYN,1995-04-01 02:00,ZBYN 010200Z AUTO 19004KT 6SM 11/M09 A3006 RMK T01101090 IEM_DS3505
ZBYN,1995-04-01 03:00,ZBYN 010300Z AUTO 18008KT 6SM 12/M08 A3006 RMK SLP179 T01231080 57008 IEM_DS3505
ZBYN,1995-04-01 04:00,ZBYN 010400Z AUTO 16006KT 6SM 15/M09 A3000 RMK T01501090 IEM_DS3505
ZBYN,1995-04-01 05:00,ZBYN 010500Z AUTO 19006KT 6SM 17/M08 A2997 RMK T01701080 IEM_DS3505
ZBYN,1995-04-01 06:00,ZBYN 010600Z AUTO 16008KT 6SM 18/M07 A2994 RMK SLP150 T01771066 57028 IEM_DS3505
ZBYN,1995-04-01 07:00,ZBYN 010700Z AUTO 20004KT 6SM 19/M09 A2991 RMK T01901090 IEM_DS3505
ZBYN,1995-04-01 08:00,ZBYN 010800Z AUTO 19012KT 6SM 19/M07 A2991 RMK T01901070 IEM_DS3505
ZBYN,1995-04-01 09:00,ZBYN 010900Z AUTO 22006KT 6SM 18/M07 A2994 RMK SLP140 T01761068 57014 IEM_DS3505
ZBYN,1995-04-01 10:00,ZBYN 011000Z AUTO 08010KT 4SM 11/M02 A3000 RMK T01101020 IEM_DS3505
ZBYN,1995-04-01 11:00,ZBYN 011100Z AUTO 07016KT 4SM 09/M01 A3006 RMK T00901010 IEM_DS3505
ZBYN,1995-04-01 12:00,ZBYN 011200Z AUTO 07014KT 6SM 08/M04 A3012 RMK SLP218 T00841042 52061 IEM_DS3505
ZBYN,1995-04-01 13:00,ZBYN 011300Z AUTO 08016KT 7SM 06/M02 A3018 RMK T00601020 IEM_DS3505
ZBYN,1995-04-01 14:00,ZBYN 011400Z AUTO 09019KT 7SM 05/M03 A3024 RMK T00501030 IEM_DS3505
ZBYN,1995-04-01 15:00,ZBYN 011500Z AUTO 07010KT 6SM 05/M05 A3027 RMK SLP262 T00501046 52051 IEM_DS3505
ZBYN,1995-04-01 16:00,ZBYN 011600Z AUTO 06008KT 7SM 04/M03 A3030 RMK T00401030 IEM_DS3505
ZBYN,1995-04-01 17:00,ZBYN 011700Z AUTO 03008KT 6SM 04/M03 A3033 RMK T00401030 IEM_DS3505
ZBYN,1995-04-01 18:00,ZBYN 011800Z AUTO 07006KT 6SM 05/M05 A3033 RMK SLP270 T00461049 52015 IEM_DS3505
ZBYN,1995-04-01 19:00,ZBYN 011900Z AUTO 05012KT 6SM 03/M03 A3033 RMK T00301030 IEM_DS3505
ZBYN,1995-04-01 20:00,ZBYN 012000Z AUTO 06019KT 6SM 02/M04 A3036 RMK T00201040 IEM_DS3505
ZBYN,1995-04-01 21:00,ZBYN 012100Z AUTO 07010KT 6SM 01/M05 A3042 RMK SLP305 T00141053 52027 IEM_DS3505
ZBYN,1995-04-01 22:00,ZBYN 012200Z AUTO 05014KT 7SM 01/M04 A3042 RMK T00101040 IEM_DS3505
ZBYN,1995-04-01 23:00,ZBYN 012300Z AUTO 05016KT 7SM 01/M07 A3045 RMK T00101070 IEM_DS3505
ZBYN,1995-04-02 00:00,ZBYN 020000Z AUTO 02004KT 7SM 01/M09 A3047 RMK SLP351 T00061094 52026 IEM_DS3505
ZBYN,1995-04-02 01:00,ZBYN 020100Z AUTO 09008KT 6SM 03/M09 A3050 RMK T00301090 IEM_DS3505
ZBYN,1995-04-02 02:00,ZBYN 020200Z AUTO 04006KT 6SM 05/M11 A3050 RMK T00501110 IEM_DS3505
ZBYN,1995-04-02 03:00,ZBYN 020300Z AUTO 29002KT 7SM 04/M11 A3050 RMK SLP357 T00391114 52005 IEM_DS3505
ZBYN,1995-04-02 04:00,ZBYN 020400Z AUTO 29006KT 6SM 06/M11 A3045 RMK T00601110 IEM_DS3505
ZBYN,1995-04-02 05:00,ZBYN 020500Z AUTO 00000KT 7SM 07/M05 A3042 RMK T00701050 IEM_DS3505
ZBYN,1995-04-02 06:00,ZBYN 020600Z AUTO 34004KT 7SM 08/M10 A3039 RMK SLP314 T00811099 57033 IEM_DS3505
ZBYN,1995-04-02 07:00,ZBYN 020700Z AUTO 28008KT 7SM 10/M13 A3036 RMK T01001130 IEM_DS3505
ZBYN,1995-04-02 08:00,ZBYN 020800Z AUTO 22006KT 7SM 11/M11 A3033 RMK T01101110 IEM_DS3505
ZBYN,1995-04-02 09:00,ZBYN 020900Z AUTO 20008KT 9SM 09/M09 A3030 RMK SLP290 T00931088 57025 IEM_DS3505
ZBYN,1995-04-02 10:00,ZBYN 021000Z AUTO 21008KT 7SM 09/M10 A3030 RMK T00901100 IEM_DS3505
ZBYN,1995-04-02 11:00,ZBYN 021100Z AUTO 23006KT 7SM 07/M08 A3030 RMK T00701080 IEM_DS3505
ZBYN,1995-04-02 12:00,ZBYN 021200Z AUTO 18006KT 7SM 06/M06 A3033 RMK SLP296 T00581062 57001 IEM_DS3505
ZBYN,1995-04-02 13:00,ZBYN 021300Z AUTO 00000KT 5SM 05/M08 A3033 RMK T00501080 IEM_DS3505
ZBYN,1995-04-02 14:00,ZBYN 021400Z AUTO 09004KT 5SM 02/M09 A3036 RMK T00201090 IEM_DS3505
ZBYN,1995-04-02 15:00,ZBYN 021500Z AUTO 34004KT 6SM 01/M05 A3036 RMK SLP309 T00131054 52010 IEM_DS3505
ZBYN,1995-04-02 16:00,ZBYN 021600Z AUTO 10004KT 7SM 00/M09 A3036 RMK T00001090 IEM_DS3505
ZBYN,1995-04-02 17:00,ZBYN 021700Z AUTO 11004KT 7SM M01/M09 A3036 RMK T10101090 IEM_DS3505
ZBYN,1995-04-02 18:00,ZBYN 021800Z AUTO 00000KT 6SM M01/M07 A3033 RMK SLP297 T10091073 57008 IEM_DS3505
ZBYN,1995-04-02 19:00,ZBYN 021900Z AUTO 00000KT 7SM M02/M09 A3030 RMK T10201090 IEM_DS3505
ZBYN,1995-04-02 20:00,ZBYN 022000Z AUTO 00000KT 7SM M03/M09 A3030 RMK T10301090 IEM_DS3505
ZBYN,1995-04-02 21:00,ZBYN 022100Z AUTO 00000KT 6SM M03/M08 A3030 RMK SLP289 T10281075 57008 IEM_DS3505
ZBYN,1995-04-02 22:00,ZBYN 022200Z AUTO 00000KT 7SM M04/M09 A3030 RMK T10401090 IEM_DS3505
ZBYN,1995-04-02 23:00,ZBYN 022300Z AUTO 00000KT 4SM M04/M09 A3030 RMK T10401090 IEM_DS3505
ZBYN,1995-04-03 00:00,ZBYN 030000Z AUTO 00000KT 6SM M01/M06 A3033 RMK SLP298 T10141056 52005 IEM_DS3505
ZBYN,1995-04-03 01:00,ZBYN 030100Z AUTO 18012KT 6SM A3030 RMK SLP240 57043 IEM_DS3505
ZBYN,1995-04-03 02:00,ZBYN 030200Z AUTO 15006KT 4SM 06/M07 A3030 RMK T00601070 IEM_DS3505
ZBYN,1995-04-03 03:00,ZBYN 030300Z AUTO 16006KT 6SM 07/M06 A3027 RMK SLP277 T00731065 57013 IEM_DS3505
ZBYN,1995-04-03 04:00,ZBYN 030400Z AUTO 18004KT 5SM 11/M12 A3021 RMK T01101120 IEM_DS3505
ZBYN,1995-04-03 05:00,ZBYN 030500Z AUTO 23006KT 7SM 12/M07 A3018 RMK T01201070 IEM_DS3505
ZBYN,1995-04-03 06:00,ZBYN 030600Z AUTO 25006KT 6SM 07/M06 A3012 RMK SLP277 T00731065 57013 IEM_DS3505
ZBYN,1995-04-03 07:00,ZBYN 030700Z AUTO 22012KT 7SM 14/M09 A3009 RMK T01401090 IEM_DS3505
ZBYN,1995-04-03 08:00,ZBYN 030800Z AUTO 22004KT 7SM 15/M11 A3003 RMK T01501110 IEM_DS3505
ZBYN,1995-04-03 09:00,ZBYN 030900Z AUTO 18010KT 7SM 14/M12 A3000 RMK SLP189 T01451122 57032 IEM_DS3505
ZBYN,1995-04-03 10:00,ZBYN 031000Z AUTO 21004KT 7SM 15/M09 A3000 RMK T01501090 IEM_DS3505
ZBYN,1995-04-03 11:00,ZBYN 031100Z AUTO 00000KT 7SM 12/M06 A3000 RMK T01201060 IEM_DS3505
ZBYN,1995-04-03 12:00,ZBYN 031200Z AUTO 16004KT 7SM 10/M04 A3003 RMK SLP188 T00981045 57006 IEM_DS3505
ZBYN,1995-04-03 13:00,ZBYN 031300Z AUTO 09004KT 7SM 07/M05 A3003 RMK T00701050 IEM_DS3505
ZBYN,1995-04-03 14:00,ZBYN 031400Z AUTO 12004KT 7SM 05/M07 A3006 RMK T00501070 IEM_DS3505
ZBYN,1995-04-03 15:00,ZBYN 031500Z AUTO 11008KT 7SM 05/M07 A3003 RMK SLP189 T00461072 52006 IEM_DS3505
ZBYN,1995-04-03 16:00,ZBYN 031600Z AUTO 09008KT 6SM 04/M07 A3003 RMK T00401070 IEM_DS3505
ZBYN,1995-04-03 18:00,ZBYN 031800Z AUTO 34002KT 6SM 04/M05 A3003 RMK SLP179 T00421050 57001 IEM_DS3505
ZBYN,1995-04-03 19:00,ZBYN 031900Z AUTO 10004KT 6SM 03/M07 A3000 RMK T00301070 IEM_DS3505
ZBYN,1995-04-03 21:00,ZBYN 032100Z AUTO 32002KT 6SM 02/M05 A3000 RMK SLP171 T00241050 57007 IEM_DS3505
ZBYN,1995-04-03 22:00,ZBYN 032200Z AUTO 00000KT 6SM 01/M07 A3000 RMK T00101070 IEM_DS3505
ZBYN,1995-04-03 23:00,ZBYN 032300Z AUTO 00000KT 2SM 01/M07 A3000 RMK T00101070 IEM_DS3505
ZBYN,1995-04-04 00:00,ZBYN 040000Z AUTO 29002KT 4SM 04/M03 A3000 RMK SLP181 T00451032 52005 IEM_DS3505
ZBYN,1995-04-04 01:00,ZBYN 040100Z AUTO 00000KT 5SM 08/M05 A3000 RMK T00801050 IEM_DS3505
ZBYN,1995-04-04 02:00,ZBYN 040200Z AUTO 20004KT 5SM 11/M04 A3000 RMK T01101040 IEM_DS3505
ZBYN,1995-04-04 03:00,ZBYN 040300Z AUTO 16004KT 4SM 11/M05 A3000 RMK SLP172 T01141048 57007 IEM_DS3505
ZBYN,1995-04-04 04:00,ZBYN 040400Z AUTO 23008KT 5SM 15/M02 A2997 RMK T01501020 IEM_DS3505
ZBYN,1995-04-04 05:00,ZBYN 040500Z AUTO 21008KT 6SM 17/M01 A2991 RMK T01701010 IEM_DS3505
ZBYN,1995-04-04 06:00,ZBYN 040600Z AUTO 18008KT 6SM 16/M01 A2991 RMK SLP137 T01591010 57024 IEM_DS3505
ZBYN,1995-04-04 07:00,ZBYN 040700Z AUTO 26006KT 6SM 17/00 A2988 RMK T01700000 IEM_DS3505
ZBYN,1995-04-04 08:00,ZBYN 040800Z AUTO 00000KT 6SM 17/00 A2988 RMK T01700000 IEM_DS3505
ZBYN,1995-04-04 09:00,ZBYN 040900Z AUTO 32010KT 6SM 15/01 A2988 RMK SLP134 T01490013 57007 IEM_DS3505
ZBYN,1995-04-04 10:00,ZBYN 041000Z AUTO 36006KT 6SM 15/02 A2988 RMK T01500020 IEM_DS3505
ZBYN,1995-04-04 11:00,ZBYN 041100Z AUTO 30004KT 4SM 14/02 A2991 RMK T01400020 IEM_DS3505
ZBYN,1995-04-04 12:00,ZBYN 041200Z AUTO 00000KT 6SM 12/03 A2994 RMK SLP145 T01190030 52008 IEM_DS3505
ZBYN,1995-04-04 13:00,ZBYN 041300Z AUTO 00000KT 4SM 11/02 A2997 RMK T01100020 IEM_DS3505
ZBYN,1995-04-04 14:00,ZBYN 041400Z AUTO 14004KT 4SM 09/00 A2997 RMK T00900000 IEM_DS3505
ZBYN,1995-04-04 15:00,ZBYN 041500Z AUTO 11004KT 6SM 08/01 A3000 RMK SLP159 T00750011 52017 IEM_DS3505
ZBYN,1995-04-04 16:00,ZBYN 041600Z AUTO 00000KT 6SM 06/00 A3000 RMK T00600000 IEM_DS3505
ZBYN,1995-04-04 17:00,ZBYN 041700Z AUTO 00000KT 6SM 05/M01 A3000 RMK T00501010 IEM_DS3505
ZBYN,1995-04-04 18:00,ZBYN 041800Z AUTO 00000KT 6SM 04/M00 A3000 RMK SLP166 T00401001 52008 IEM_DS3505
ZBYN,1995-04-04 19:00,ZBYN 041900Z AUTO 07004KT 7SM 04/M01 A3000 RMK T00401010 IEM_DS3505
ZBYN,1995-04-04 20:00,ZBYN 042000Z AUTO 03004KT 7SM 03/M01 A3000 RMK T00301010 IEM_DS3505
ZBYN,1995-04-04 21:00,ZBYN 042100Z AUTO 32002KT 6SM 02/M01 RMK SLP175 T00201012 52003 IEM_DS3505
ZBYN,1995-04-04 22:00,ZBYN 042200Z AUTO 00000KT 5SM 02/M03 A3006 RMK T00201030 IEM_DS3505
ZBYN,1995-04-04 23:00,ZBYN 042300Z AUTO 00000KT 4SM 01/M02 A3006 RMK T00101020 IEM_DS3505
ZBYN,1995-04-05 00:00,ZBYN 050000Z AUTO 00000KT 2 1/2SM 04/00 A3009 RMK SLP198 T00400002 52020 IEM_DS3505
ZBYN,1995-04-05 01:00,ZBYN 050100Z AUTO 00000KT 7SM 10/00 A3009 RMK T01000000 IEM_DS3505
ZBYN,1995-04-05 02:00,ZBYN 050200Z AUTO 00000KT 7SM 12/01 A3009 RMK T01200010 IEM_DS3505
ZBYN,1995-04-05 03:00,ZBYN 050300Z AUTO 16004KT 4SM 15/01 A3006 RMK SLP189 T01470006 52001 IEM_DS3505
ZBYN,1995-04-05 04:00,ZBYN 050400Z AUTO 19010KT 7SM 18/M02 A3006 RMK T01801020 IEM_DS3505
ZBYN,1995-04-05 05:00,ZBYN 050500Z AUTO 31014KT 7SM 20/M10 A3000 RMK T02001100 IEM_DS3505
ZBYN,1995-04-05 06:00,ZBYN 050600Z AUTO 29016KT 7SM 21/M13 A2997 RMK SLP151 T02111129 57030 IEM_DS3505
ZBYN,1995-04-05 07:00,ZBYN 050700Z AUTO 29016KT 6SM 22/M13 A2994 RMK T02201130 IEM_DS3505
ZBYN,1995-04-05 08:00,ZBYN 050800Z AUTO 29017KT 6SM 21/M13 A2994 RMK T02101130 IEM_DS3505
ZBYN,1995-04-05 09:00,ZBYN 050900Z AUTO 32016KT 7SM 20/M11 A2994 RMK SLP142 T02011106 57013 IEM_DS3505
ZBYN,1995-04-05 10:00,ZBYN 051000Z AUTO 28014KT 7SM 20/M14 A2994 RMK T02001140 IEM_DS3505
ZBYN,1995-04-05 11:00,ZBYN 051100Z AUTO 27006KT 6SM 17/M09 A2994 RMK T01701090 IEM_DS3505
ZBYN,1995-04-05 12:00,ZBYN 051200Z AUTO 32006KT 9SM 16/M06 A2997 RMK SLP153 T01601063 52007 IEM_DS3505
ZBYN,1995-04-05 13:00,ZBYN 051300Z AUTO 36017KT 6SM 16/M08 A3003 RMK T01601080 IEM_DS3505
ZBYN,1995-04-05 14:00,ZBYN 051400Z AUTO 36012KT 6SM 14/M08 A3009 RMK T01401080 IEM_DS3505
ZBYN,1995-04-05 15:00,ZBYN 051500Z AUTO 32010KT 6SM 13/M05 A3009 RMK SLP187 T01331054 52043 IEM_DS3505
ZBYN,1995-04-05 16:00,ZBYN 051600Z AUTO 32012KT 6SM 11/M04 A3012 RMK T01101040 IEM_DS3505
ZBYN,1995-04-05 17:00,ZBYN 051700Z AUTO 32012KT 6SM 10/M03 A3015 RMK T01001030 IEM_DS3505
ZBYN,1995-04-05 18:00,ZBYN 051800Z AUTO 36006KT 6SM 09/M08 A3018 RMK SLP210 T00901083 52024 IEM_DS3505
ZBYN,1995-04-05 21:00,ZBYN 052100Z AUTO 32012KT 6SM 06/M14 A3021 RMK SLP223 T00581135 52006 IEM_DS3505
ZBYN,1995-04-05 22:00,ZBYN 052200Z AUTO 31006KT 6SM 05/M07 A3021 RMK T00501070 IEM_DS3505
ZBYN,1995-04-05 23:00,ZBYN 052300Z AUTO 31016KT 7SM 05/M14 A3024 RMK T00501140 IEM_DS3505
ZBYN,1995-04-06 00:00,ZBYN 060000Z AUTO 32016KT 12SM 06/M19 A3021 RMK SLP238 T00641190 52008 IEM_DS3505
ZBYN,1995-04-06 01:00,ZBYN 060100Z AUTO 30016KT 7SM 08/M13 A3021 RMK T00801130 IEM_DS3505
ZBYN,1995-04-06 02:00,ZBYN 060200Z AUTO 27014KT 7SM 10/M14 A3018 RMK T01001140 IEM_DS3505
ZBYN,1995-04-06 03:00,ZBYN 060300Z AUTO 34014KT 12SM 14/M15 A3015 RMK SLP205 T01351151 57023 IEM_DS3505
ZBYN,1995-04-06 04:00,ZBYN 060400Z AUTO 32019KT 7SM 15/M14 A3012 RMK T01501140 IEM_DS3505
ZBYN,1995-04-06 05:00,ZBYN 060500Z AUTO 30019KT 7SM 16/M10 A3006 RMK T01601100 IEM_DS3505
ZBYN,1995-04-06 06:00,ZBYN 060600Z AUTO 29014KT 12SM 16/M13 A3003 RMK SLP172 T01631127 57033 IEM_DS3505
ZBYN,1995-04-06 07:00,ZBYN 060700Z AUTO 27017KT 7SM 17/M09 A3000 RMK T01701090 IEM_DS3505
ZBYN,1995-04-06 08:00,ZBYN 060800Z AUTO 30019KT 7SM 17/M08 A2997 RMK T01701080 IEM_DS3505
ZBYN,1995-04-06 09:00,ZBYN 060900Z AUTO 29010KT 12SM 16/M11 A2994 RMK SLP150 T01621108 57025 IEM_DS3505
ZBYN,1995-04-06 10:00,ZBYN 061000Z AUTO 29012KT 7SM 16/M07 A2994 RMK T01601070 IEM_DS3505
ZBYN,1995-04-06 11:00,ZBYN 061100Z AUTO 28008KT 6SM 15/M07 A2994 RMK T01501070 IEM_DS3505
ZBYN,1995-04-06 12:00,ZBYN 061200Z AUTO 29006KT 6SM 13/M07 A2994 RMK SLP152 T01291071 57002 IEM_DS3505
ZBYN,1995-04-06 13:00,ZBYN 061300Z AUTO 28006KT 7SM 12/M06 A2997 RMK T01201060 IEM_DS3505
ZBYN,1995-04-06 14:00,ZBYN 061400Z AUTO 16006KT 7SM 11/M07 A2997 RMK T01101070 IEM_DS3505
ZBYN,1995-04-06 15:00,ZBYN 061500Z AUTO 27004KT 6SM 09/M05 A2997 RMK SLP149 T00871052 52002 IEM_DS3505
ZBYN,1995-04-06 16:00,ZBYN 061600Z AUTO 00000KT 7SM 08/M07 A2994 RMK T00801070 IEM_DS3505
ZBYN,1995-04-06 17:00,ZBYN 061700Z AUTO 09004KT 7SM 05/M07 A2994 RMK T00501070 IEM_DS3505
ZBYN,1995-04-06 18:00,ZBYN 061800Z AUTO 11002KT 6SM 04/M06 A2994 RMK SLP145 T00431060 57006 IEM_DS3505
ZBYN,1995-04-06 19:00,ZBYN 061900Z AUTO 09004KT 7SM 01/M08 A2988 RMK T00101080 IEM_DS3505
ZBYN,1995-04-06 20:00,ZBYN 062000Z AUTO 10006KT 7SM 01/M08 A2988 RMK T00101080 IEM_DS3505
ZBYN,1995-04-06 21:00,ZBYN 062100Z AUTO 11002KT 6SM 02/M07 A2988 RMK SLP128 T00221072 57019 IEM_DS3505
ZBYN,1995-04-06 22:00,ZBYN 062200Z AUTO 09006KT 7SM 01/M09 A2985 RMK T00101090 IEM_DS3505
ZBYN,1995-04-07 00:00,ZBYN 070000Z AUTO 11006KT 6SM 04/M07 A2985 RMK SLP125 T00451073 57004 IEM_DS3505
ZBYN,1995-04-07 01:00,ZBYN 070100Z AUTO 16004KT 7SM 09/M06 A2985 RMK T00901060 IEM_DS3505
ZBYN,1995-04-07 02:00,ZBYN 070200Z AUTO 00000KT 7SM 12/M05 A2983 RMK T01201050 IEM_DS3505
ZBYN,1995-04-07 03:00,ZBYN 070300Z AUTO 16008KT 6SM 14/M03 A2980 RMK SLP092 T01351032 57023 IEM_DS3505
ZBYN,1995-04-07 04:00,ZBYN 070400Z AUTO 20012KT 7SM 17/M04 A2974 RMK T01701040 IEM_DS3505
ZBYN,1995-04-07 06:00,ZBYN 070600Z AUTO 16008KT 6SM 14/M03 A2968 RMK SLP092 T01351032 57023 IEM_DS3505
ZBYN,1995-04-07 07:00,ZBYN 070700Z AUTO 30012KT 6SM 20/M04 A2965 RMK T02001040 IEM_DS3505
ZBYN,1995-04-07 08:00,ZBYN 070800Z AUTO 31016KT 6SM 20/M04 A2962 RMK T02001040 IEM_DS3505
ZBYN,1995-04-07 09:00,ZBYN 070900Z AUTO 32014KT 12SM 19/ A2962 RMK SLP028 57023 IEM_DS3505
ZBYN,1995-04-07 10:00,ZBYN 071000Z AUTO 25016KT 6SM 19/M02 A2959 RMK T01901020 IEM_DS3505
ZBYN,1995-04-07 11:00,ZBYN 071100Z AUTO 29012KT 7SM 17/M01 A2962 RMK T01701010 IEM_DS3505
ZBYN,1995-04-07 12:00,ZBYN 071200Z AUTO 00000KT 6SM 16/ A2965 RMK SLP038 52008 IEM_DS3505
ZBYN,1995-04-07 13:00,ZBYN 071300Z AUTO 31006KT 7SM 15/00 A2965 RMK T01500000 IEM_DS3505
ZBYN,1995-04-07 14:00,ZBYN 071400Z AUTO 36004KT 7SM 13/M02 A2968 RMK T01301020 IEM_DS3505
ZBYN,1995-04-07 15:00,ZBYN 071500Z AUTO 34006KT 6SM 13/M10 A2968 RMK SLP045 T01281098 52015 IEM_DS3505
ZBYN,1995-04-07 16:00,ZBYN 071600Z AUTO 33004KT 7SM 11/M01 A2971 RMK T01101010 IEM_DS3505
ZBYN,1995-04-07 17:00,ZBYN 071700Z AUTO 36016KT 7SM 11/M01 A2971 RMK T01101010 IEM_DS3505
ZBYN,1995-04-07 18:00,ZBYN 071800Z AUTO 36014KT 5SM 11/M09 A2974 RMK SLP055 T01071089 52015 IEM_DS3505
ZBYN,1995-04-07 19:00,ZBYN 071900Z AUTO 33004KT 7SM 09/M01 A2977 RMK T00901010 IEM_DS3505
ZBYN,1995-04-07 20:00,ZBYN 072000Z AUTO 06004KT 7SM 09/M01 A2977 RMK T00901010 IEM_DS3505
ZBYN,1995-04-07 21:00,ZBYN 072100Z AUTO 09002KT 5SM 07/M05 A2977 RMK SLP077 T00701048 52014 IEM_DS3505
ZBYN,1995-04-07 22:00,ZBYN 072200Z AUTO 01004KT 7SM 05/M03 A2977 RMK T00501030 IEM_DS3505
ZBYN,1995-04-07 23:00,ZBYN 072300Z AUTO 15004KT 6SM 04/M04 A2980 RMK T00401040 IEM_DS3505
ZBYN,1995-04-08 00:00,ZBYN 080000Z AUTO 32004KT 5SM 09/M06 A2980 RMK SLP091 T00871064 52010 IEM_DS3505
ZBYN,1995-04-08 01:00,ZBYN 080100Z AUTO 32004KT 6SM 12/00 A2980 RMK T01200000 IEM_DS3505
ZBYN,1995-04-08 02:00,ZBYN 080200Z AUTO 00000KT 6SM 13/M07 A2980 RMK T01301070 IEM_DS3505
ZBYN,1995-04-08 03:00,ZBYN 080300Z AUTO 14008KT 6SM 15/M05 A2980 RMK SLP083 T01491054 57002 IEM_DS3505
ZBYN,1995-04-08 04:00,ZBYN 080400Z AUTO 22008KT 6SM 16/M06 A2980 RMK T01601060 IEM_DS3505
ZBYN,1995-04-08 05:00,ZBYN 080500Z AUTO 24012KT 7SM 17/M08 A2977 RMK T01701080 IEM_DS3505
ZBYN,1995-04-08 06:00,ZBYN 080600Z AUTO 14008KT 6SM 15/M05 A2974 RMK SLP083 T01491054 57002 IEM_DS3505
ZBYN,1995-04-08 07:00,ZBYN 080700Z AUTO 36016KT 7SM 18/M10 A2974 RMK T01801100 IEM_DS3505
ZBYN,1995-04-08 08:00,ZBYN 080800Z AUTO 30010KT 7SM 19/M12 A2977 RMK T01901120 IEM_DS3505
ZBYN,1995-04-08 09:00,ZBYN 080900Z AUTO 36008KT 11SM 17/M05 A2977 RMK SLP078 T01661052 52009 IEM_DS3505
ZBYN,1995-04-08 10:00,ZBYN 081000Z AUTO 34012KT 6SM 16/ A2983 RMK IEM_DS3505
ZBYN,1995-04-08 11:00,ZBYN 081100Z AUTO 33012KT 6SM 13/M11 A2988 RMK T01301110 IEM_DS3505
ZBYN,1995-04-08 12:00,ZBYN 081200Z AUTO 34010KT 11SM 11/M07 A2994 RMK SLP151 T01071071 52060 IEM_DS3505
ZBYN,1995-04-08 13:00,ZBYN 081300Z AUTO 03012KT 6SM 10/M06 A3003 RMK T01001060 IEM_DS3505
ZBYN,1995-04-08 14:00,ZBYN 081400Z AUTO 00000KT 6SM 08/M06 A3006 RMK T00801060 IEM_DS3505
ZBYN,1995-04-08 15:00,ZBYN 081500Z AUTO 34004KT 7SM 08/M06 A3006 RMK SLP188 T00761055 52039 IEM_DS3505
ZBYN,1995-04-08 16:00,ZBYN 081600Z AUTO 00000KT 7SM 07/M06 A3012 RMK T00701060 IEM_DS3505
ZBYN,1995-04-08 17:00,ZBYN 081700Z AUTO 00000KT 7SM 06/M05 A3012 RMK T00601050 IEM_DS3505
ZBYN,1995-04-08 18:00,ZBYN 081800Z AUTO 34004KT 7SM 03/M05 A3012 RMK SLP206 T00321046 52012 IEM_DS3505
ZBYN,1995-04-08 19:00,ZBYN 081900Z AUTO 01006KT 7SM 04/M08 A3012 RMK T00401080 IEM_DS3505
ZBYN,1995-04-08 20:00,ZBYN 082000Z AUTO 33006KT 7SM 03/M08 A3012 RMK T00301080 IEM_DS3505
ZBYN,1995-04-08 21:00,ZBYN 082100Z AUTO 32006KT 6SM 02/M11 A3015 RMK SLP219 T00151108 52009 IEM_DS3505
ZBYN,1995-04-08 22:00,ZBYN 082200Z AUTO 00000KT 7SM 01/M09 A3018 RMK T00101090 IEM_DS3505
ZBYN,1995-04-08 23:00,ZBYN 082300Z AUTO 35006KT 7SM 03/M12 A3018 RMK T00301120 IEM_DS3505
ZBYN,1995-04-09 00:00,ZBYN 090000Z AUTO 36008KT 7SM 04/M10 A3021 RMK SLP245 T00381102 52018 IEM_DS3505
ZBYN,1995-04-09 01:00,ZBYN 090100Z AUTO 00000KT 7SM 06/M12 A3021 RMK T00601120 IEM_DS3505
ZBYN,1995-04-09 02:00,ZBYN 090200Z AUTO 30006KT 7SM 08/M13 A3018 RMK T00801130 IEM_DS3505
ZBYN,1995-04-09 03:00,ZBYN 090300Z AUTO 18006KT 7SM 09/M16 A3018 RMK SLP229 T00921162 57011 IEM_DS3505
ZBYN,1995-04-09 04:00,ZBYN 090400Z AUTO 22008KT 6SM 10/M14 A3015 RMK T01001140 IEM_DS3505
ZBYN,1995-04-09 05:00,ZBYN 090500Z AUTO 21010KT 6SM 13/M09 A3009 RMK T01301090 IEM_DS3505
ZBYN,1995-04-09 06:00,ZBYN 090600Z AUTO 16008KT 7SM 12/M12 A3006 RMK SLP196 T01201124 57032 IEM_DS3505
ZBYN,1995-04-09 07:00,ZBYN 090700Z AUTO 21008KT 6SM 13/M16 A3003 RMK T01301160 IEM_DS3505
ZBYN,1995-04-09 08:00,ZBYN 090800Z AUTO 00000KT 6SM 14/M12 A3003 RMK T01401120 IEM_DS3505
ZBYN,1995-04-09 09:00,ZBYN 090900Z AUTO 18006KT 7SM 13/M11 A3003 RMK SLP180 T01301114 57016 IEM_DS3505
ZBYN,1995-04-09 10:00,ZBYN 091000Z AUTO 24010KT 7SM 13/M08 A3003 RMK T01301080 IEM_DS3505
ZBYN,1995-04-09 11:00,ZBYN 091100Z AUTO 30012KT 7SM 11/M03 A3003 RMK T01101030 IEM_DS3505
ZBYN,1995-04-09 12:00,ZBYN 091200Z AUTO 02004KT 7SM 11/M03 A3000 RMK SLP180 T01071026 54000 IEM_DS3505
ZBYN,1995-04-09 13:00,ZBYN 091300Z AUTO 16004KT 6SM 10/M02 A3003 RMK T01001020 IEM_DS3505
ZBYN,1995-04-09 14:00,ZBYN 091400Z AUTO 00000KT 6SM 09/M02 A3003 RMK T00901020 IEM_DS3505
ZBYN,1995-04-09 15:00,ZBYN 091500Z AUTO 34006KT 7SM 09/M05 A3000 RMK SLP172 T00871052 57002 IEM_DS3505
ZBYN,1995-04-09 16:00,ZBYN 091600Z AUTO 32010KT 6SM 08/M04 A3003 RMK T00801040 IEM_DS3505
ZBYN,1995-04-09 17:00,ZBYN 091700Z AUTO 32008KT 6SM 07/M02 A3000 RMK T00701020 IEM_DS3505
ZBYN,1995-04-09 18:00,ZBYN 091800Z AUTO 34008KT 6SM 06/M01 A3000 RMK SLP169 T00631014 57002 IEM_DS3505
ZBYN,1995-04-09 19:00,ZBYN 091900Z AUTO 32010KT 7SM 07/M02 A2997 RMK T00701020 IEM_DS3505
ZBYN,1995-04-09 20:00,ZBYN 092000Z AUTO 30006KT 7SM 05/M01 A2997 RMK T00501010 IEM_DS3505
ZBYN,1995-04-09 21:00,ZBYN 092100Z AUTO 32008KT 6SM 05/M01 A2997 RMK SLP164 T00481008 57005 IEM_DS3505
ZBYN,1995-04-09 22:00,ZBYN 092200Z AUTO 33006KT 6SM 05/00 A3000 RMK T00500000 IEM_DS3505
ZBYN,1995-04-10 00:00,ZBYN 100000Z AUTO 34008KT 6SM 05/M00 A3000 RMK SLP178 T00531002 52010 IEM_DS3505
ZBYN,1995-04-10 01:00,ZBYN 100100Z AUTO 34008KT 7SM 08/00 A3003 RMK T00800000 IEM_DS3505
ZBYN,1995-04-10 02:00,ZBYN 100200Z AUTO 28006KT 7SM 10/M01 A3003 RMK T01001010 IEM_DS3505
ZBYN,1995-04-10 03:00,ZBYN 100300Z AUTO 32004KT 6SM 12/M00 A3000 RMK SLP167 T01191003 57003 IEM_DS3505
ZBYN,1995-04-10 04:00,ZBYN 100400Z AUTO 27006KT 6SM 13/M04 A2997 RMK T01301040 IEM_DS3505
ZBYN,1995-04-10 05:00,ZBYN 100500Z AUTO 24010KT 6SM 12/M03 A2997 RMK T01201030 IEM_DS3505
ZBYN,1995-04-10 06:00,ZBYN 100600Z AUTO 25008KT 7SM 12/M03 A2997 RMK SLP157 T01241033 57012 IEM_DS3505
ZBYN,1995-04-10 07:00,ZBYN 100700Z AUTO 32008KT 7SM 13/M01 A2994 RMK T01301010 IEM_DS3505
ZBYN,1995-04-10 08:00,ZBYN 100800Z AUTO 32010KT 7SM 13/M05 A2994 RMK T01301050 IEM_DS3505
ZBYN,1995-04-10 09:00,ZBYN 100900Z AUTO 02008KT 7SM 11/M01 A3000 RMK SLP167 T01061006 52004 IEM_DS3505
ZBYN,1995-04-10 10:00,ZBYN 101000Z AUTO 36012KT 7SM 09/M03 A3003 RMK T00901030 IEM_DS3505
ZBYN,1995-04-10 11:00,ZBYN 101100Z AUTO 34008KT 7SM 08/M02 A3006 RMK T00801020 IEM_DS3505
ZBYN,1995-04-10 12:00,ZBYN 101200Z AUTO 36012KT 7SM 08/M02 A3012 RMK SLP209 T00811018 52035 IEM_DS3505
ZBYN,1995-04-10 13:00,ZBYN 101300Z AUTO 03004KT 6SM 07/M02 A3015 RMK T00701020 IEM_DS3505
ZBYN,1995-04-10 14:00,ZBYN 101400Z AUTO 09002KT 7SM 05/M03 A3015 RMK T00501030 IEM_DS3505
ZBYN,1995-04-10 15:00,ZBYN 101500Z AUTO 11004KT 7SM 04/M03 A3015 RMK SLP224 T00411034 52018 IEM_DS3505
ZBYN,1995-04-10 16:00,ZBYN 101600Z AUTO 13004KT 7SM 03/M04 A3018 RMK T00301040 IEM_DS3505
ZBYN,1995-04-10 17:00,ZBYN 101700Z AUTO 06004KT 7SM 02/M04 A3018 RMK T00201040 IEM_DS3505
ZBYN,1995-04-10 18:00,ZBYN 101800Z AUTO 00000KT 9SM 01/M03 A3018 RMK SLP234 T00061028 52004 IEM_DS3505
ZBYN,1995-04-10 19:00,ZBYN 101900Z AUTO 00000KT 7SM 00/M04 A3018 RMK T00001040 IEM_DS3505
ZBYN,1995-04-10 20:00,ZBYN 102000Z AUTO 00000KT 7SM M01/M05 A3018 RMK T10101050 IEM_DS3505
ZBYN,1995-04-10 21:00,ZBYN 102100Z AUTO 09002KT 9SM M01/M04 A3018 RMK SLP241 T10141042 54000 IEM_DS3505
ZBYN,1995-04-10 22:00,ZBYN 102200Z AUTO 08004KT 7SM M03/M07 A3018 RMK T10301070 IEM_DS3505
ZBYN,1995-04-10 23:00,ZBYN 102300Z AUTO 08004KT 7SM M02/M05 A3021 RMK T10201050 IEM_DS3505
ZBYN,1995-04-11 00:00,ZBYN 110000Z AUTO 14006KT 6SM 02/M02 A3021 RMK SLP252 T00201018 52012 IEM_DS3505
ZBYN,1995-04-11 01:00,ZBYN 110100Z AUTO 00000KT 7SM 06/M05 A3021 RMK T00601050 IEM_DS3505
ZBYN,1995-04-11 02:00,ZBYN 110200Z AUTO 24006KT 7SM 09/M11 A3018 RMK T00901110 IEM_DS3505
ZBYN,1995-04-11 03:00,ZBYN 110300Z AUTO 29017KT 9SM 11/M16 A3018 RMK SLP230 T01131165 57012 IEM_DS3505
ZBYN,1995-04-11 04:00,ZBYN 110400Z AUTO 30023KT 7SM 13/M13 A3012 RMK T01301130 IEM_DS3505
ZBYN,1995-04-11 05:00,ZBYN 110500Z AUTO 28019KT 7SM 14/M14 A3012 RMK T01401140 IEM_DS3505
ZBYN,1995-04-11 06:00,ZBYN 110600Z AUTO 29017KT 9SM 14/M17 A3009 RMK SLP209 T01351168 4////1046 57012 IEM_DS3505
ZBYN,1995-04-11 07:00,ZBYN 110700Z AUTO 32017KT 7SM 15/M20 A3006 RMK T01501200 IEM_DS3505
ZBYN,1995-04-11 08:00,ZBYN 110800Z AUTO 29017KT 7SM 15/M24 A3003 RMK T01501240 IEM_DS3505
ZBYN,1995-04-11 09:00,ZBYN 110900Z AUTO 29014KT 7SM 14/M11 A3003 RMK SLP193 T01391114 57017 IEM_DS3505
ZBYN,1995-04-11 10:00,ZBYN 111000Z AUTO 28016KT 7SM 14/M14 A3003 RMK T01401140 IEM_DS3505
ZBYN,1995-04-11 11:00,ZBYN 111100Z AUTO 30014KT 7SM 12/M18 A3003 RMK T01201180 IEM_DS3505
ZBYN,1995-04-11 12:00,ZBYN 111200Z AUTO 27004KT 7SM 09/M08 A3003 RMK SLP192 T00911080 57003 IEM_DS3505
ZBYN,1995-04-11 14:00,ZBYN 111400Z AUTO 00000KT 7SM 06/M15 A3003 RMK T00601150 IEM_DS3505
ZBYN,1995-04-11 15:00,ZBYN 111500Z AUTO 25004KT 6SM 04/M07 A3003 RMK SLP181 T00421070 57003 IEM_DS3505
ZBYN,1995-04-11 17:00,ZBYN 111700Z AUTO 09006KT 6SM 01/M14 A2997 RMK T00101140 IEM_DS3505
ZBYN,1995-04-11 18:00,ZBYN 111800Z AUTO 11004KT 6SM 02/M07 A2997 RMK SLP163 T00241073 57016 IEM_DS3505
ZBYN,1995-04-11 19:00,ZBYN 111900Z AUTO 09004KT 6SM 02/M12 A2997 RMK T00201120 IEM_DS3505
ZBYN,1995-04-11 21:00,ZBYN 112100Z AUTO 25002KT 6SM 01/M08 A2991 RMK SLP144 T00081076 57019 IEM_DS3505
ZBYN,1995-04-11 21:06,ZBYN 112106Z AUTO 09006KT 7SM RMK IEM_DS3505
ZBYN,1995-04-11 22:00,ZBYN 112200Z AUTO 07006KT 6SM 00/M09 A2988 RMK T00001090 IEM_DS3505
ZBYN,1995-04-12 00:00,ZBYN 120000Z AUTO 36006KT 6SM 04/M07 A2991 RMK SLP146 T00401069 57001 IEM_DS3505
ZBYN,1995-04-12 01:00,ZBYN 120100Z AUTO 00000KT 6SM 07/M14 A2988 RMK T00701140 IEM_DS3505
ZBYN,1995-04-12 02:00,ZBYN 120200Z AUTO 14004KT 6SM 11/M11 A2985 RMK T01101110 IEM_DS3505
ZBYN,1995-04-12 03:00,ZBYN 120300Z AUTO 14008KT 6SM 13/ A2985 RMK SLP117 57020 IEM_DS3505
ZBYN,1995-04-12 04:00,ZBYN 120400Z AUTO 19014KT 6SM 16/M12 A2980 RMK T01601120 IEM_DS3505
ZBYN,1995-04-12 05:00,ZBYN 120500Z AUTO 17010KT 6SM 19/M08 A2974 RMK T01901080 IEM_DS3505
ZBYN,1995-04-12 06:00,ZBYN 120600Z AUTO 18014KT 6SM 18/M05 A2971 RMK SLP070 T01821051 57038 IEM_DS3505
ZBYN,1995-04-12 07:00,ZBYN 120700Z AUTO 21012KT 6SM 21/M11 A2968 RMK T02101110 IEM_DS3505
ZBYN,1995-04-12 08:00,ZBYN 120800Z AUTO 23010KT 6SM 21/M10 A2962 RMK T02101100 IEM_DS3505
ZBYN,1995-04-12 09:00,ZBYN 120900Z AUTO 20010KT 6SM 21/M04 A2962 RMK SLP034 T02111045 57030 IEM_DS3505
ZBYN,1995-04-12 10:00,ZBYN 121000Z AUTO 00000KT 6SM 21/M07 A2959 RMK T02101070 IEM_DS3505
ZBYN,1995-04-12 11:00,ZBYN 121100Z AUTO 24006KT 7SM 18/M08 A2962 RMK T01801080 IEM_DS3505
ZBYN,1995-04-12 12:00,ZBYN 121200Z AUTO 29006KT 7SM 17/M06 A2965 RMK SLP039 T01731058 52003 IEM_DS3505
ZBYN,1995-04-12 13:00,ZBYN 121300Z AUTO 31006KT 7SM 16/M10 A2968 RMK T01601100 IEM_DS3505
ZBYN,1995-04-12 14:00,ZBYN 121400Z AUTO 33004KT 7SM 15/M12 A2968 RMK T01501120 IEM_DS3505
ZBYN,1995-04-12 15:00,ZBYN 121500Z AUTO 34006KT 7SM 14/M06 A2968 RMK SLP043 T01421059 52013 IEM_DS3505
ZBYN,1995-04-12 16:00,ZBYN 121600Z AUTO 00000KT 7SM 10/M10 A2971 RMK T01001100 IEM_DS3505
ZBYN,1995-04-12 17:00,ZBYN 121700Z AUTO 00000KT 7SM 08/M09 A2974 RMK T00801090 IEM_DS3505
ZBYN,1995-04-12 18:00,ZBYN 121800Z AUTO 07004KT 6SM 09/M05 A2971 RMK SLP055 T00941051 52011 IEM_DS3505
ZBYN,1995-04-12 19:00,ZBYN 121900Z AUTO 00000KT 7SM 07/M09 A2968 RMK T00701090 IEM_DS3505
ZBYN,1995-04-12 20:00,ZBYN 122000Z AUTO 00000KT 6SM 06/M07 A2968 RMK T00601070 IEM_DS3505
ZBYN,1995-04-12 21:00,ZBYN 122100Z AUTO 22002KT 6SM 06/M03 A2968 RMK SLP039 T00551027 57016 IEM_DS3505
ZBYN,1995-04-12 22:00,ZBYN 122200Z AUTO 00000KT 6SM 04/M07 A2971 RMK T00401070 IEM_DS3505
ZBYN,1995-04-12 23:00,ZBYN 122300Z AUTO 00000KT 6SM 05/M07 A2977 RMK T00501070 IEM_DS3505
ZBYN,1995-04-13 00:00,ZBYN 130000Z AUTO 29002KT 4SM 08/M00 A2974 RMK SLP072 T00851005 52029 IEM_DS3505
ZBYN,1995-04-13 01:00,ZBYN 130100Z AUTO 00000KT 5SM 11/M07 A2974 RMK T01101070 IEM_DS3505
ZBYN,1995-04-13 02:00,ZBYN 130200Z AUTO 16008KT 5SM 14/M06 A2977 RMK T01401060 IEM_DS3505
ZBYN,1995-04-13 03:00,ZBYN 130300Z AUTO 16006KT 4SM 14/M02 A2974 RMK SLP066 T01411024 57002 IEM_DS3505
ZBYN,1995-04-13 04:00,ZBYN 130400Z AUTO 16006KT 5SM 19/01 A2974 RMK SLP046 T01920009 57018 IEM_DS3505
ZBYN,1995-04-13 05:00,ZBYN 130500Z AUTO 23008KT 4SM 18/M04 A2971 RMK T01801040 IEM_DS3505
ZBYN,1995-04-13 06:00,ZBYN 130600Z AUTO 16006KT 5SM 19/01 A2969 RMK SLP046 T01920009 57018 IEM_DS3505
ZBYN,1995-04-13 07:00,ZBYN 130700Z AUTO 21012KT 6SM 22/M04 A2965 RMK T02201040 IEM_DS3505
ZBYN,1995-04-13 08:00,ZBYN 130800Z AUTO 30019KT 6SM 24/ A2962 RMK IEM_DS3505
ZBYN,1995-04-13 09:00,ZBYN 130900Z AUTO 29010KT 7SM 22/M08 A2965 RMK SLP031 T02221078 57015 IEM_DS3505
ZBYN,1995-04-13 10:00,ZBYN 131000Z AUTO 30014KT 6SM 21/M17 A2965 RMK T02101170 IEM_DS3505
ZBYN,1995-04-13 11:00,ZBYN 131100Z AUTO 30012KT 6SM 20/M16 A2968 RMK T02001160 IEM_DS3505
ZBYN,1995-04-13 12:00,ZBYN 131200Z AUTO 29010KT 6SM 18/M08 A2971 RMK SLP053 T01791085 52019 IEM_DS3505
ZBYN,1995-04-13 13:00,ZBYN 131300Z AUTO 32004KT 6SM 17/M12 A2977 RMK T01701120 IEM_DS3505
ZBYN,1995-04-13 14:00,ZBYN 131400Z AUTO 00000KT 6SM 13/M16 A2980 RMK T01301160 IEM_DS3505
ZBYN,1995-04-13 15:00,ZBYN 131500Z AUTO 27004KT 6SM 14/M05 A2983 RMK SLP087 T01381051 52033 IEM_DS3505
ZBYN,1995-04-13 16:00,ZBYN 131600Z AUTO 00000KT 6SM 09/M10 A2983 RMK T00901100 IEM_DS3505
ZBYN,1995-04-13 18:00,ZBYN 131800Z AUTO 34006KT 6SM 12/M07 A2983 RMK SLP089 T01211073 52007 IEM_DS3505
ZBYN,1995-04-13 21:00,ZBYN 132100Z AUTO 09004KT 6SM 06/M06 A2985 RMK SLP097 T00631064 52003 IEM_DS3505
ZBYN,1995-04-13 22:00,ZBYN 132200Z AUTO 00000KT 6SM 05/M09 A2985 RMK T00501090 IEM_DS3505
ZBYN,1995-04-13 23:00,ZBYN 132300Z AUTO 00000KT 6SM 05/M05 A2988 RMK T00501050 IEM_DS3505
ZBYN,1995-04-14 00:00,ZBYN 140000Z AUTO 00000KT 6SM 07/M03 A2991 RMK SLP124 T00711032 52019 IEM_DS3505
ZBYN,1995-04-14 01:00,ZBYN 140100Z AUTO 00000KT 6SM 14/M06 A2991 RMK T01401060 IEM_DS3505
ZBYN,1995-04-14 02:00,ZBYN 140200Z AUTO 00000KT 6SM 16/M07 A2991 RMK T01601070 IEM_DS3505
ZBYN,1995-04-14 03:00,ZBYN 140300Z AUTO 14002KT 4SM 19/M10 A2988 RMK SLP107 T01861096 57004 IEM_DS3505
ZBYN,1995-04-14 04:00,ZBYN 140400Z AUTO 17006KT 6SM 21/M05 A2988 RMK T02101050 IEM_DS3505
ZBYN,1995-04-14 05:00,ZBYN 140500Z AUTO 16008KT 6SM 22/M09 A2983 RMK T02201090 IEM_DS3505
ZBYN,1995-04-14 06:00,ZBYN 140600Z AUTO 16006KT 9SM 22/M09 A2980 RMK SLP071 T02241092 57030 IEM_DS3505
ZBYN,1995-04-14 07:00,ZBYN 140700Z AUTO 19004KT 6SM 23/M12 A2977 RMK T02301120 IEM_DS3505
ZBYN,1995-04-14 08:00,ZBYN 140800Z AUTO 00000KT 6SM 24/M10 A2977 RMK T02401100 IEM_DS3505
ZBYN,1995-04-14 09:00,ZBYN 140900Z AUTO 18008KT 7SM 23/M11 A2974 RMK SLP059 T02311106 57019 IEM_DS3505
ZBYN,1995-04-14 10:00,ZBYN 141000Z AUTO 07008KT 6SM 23/01 A2974 RMK T02300010 IEM_DS3505
ZBYN,1995-04-14 11:00,ZBYN 141100Z AUTO 08014KT 5SM 17/06 A2977 RMK T01700060 IEM_DS3505
ZBYN,1995-04-14 12:00,ZBYN 141200Z AUTO 07010KT 9SM 16/04 A2980 RMK SLP084 T01650040 52015 IEM_DS3505
ZBYN,1995-04-14 13:00,ZBYN 141300Z AUTO 06017KT 6SM 14/05 A2983 RMK T01400050 IEM_DS3505
ZBYN,1995-04-14 14:00,ZBYN 141400Z AUTO 09012KT 6SM 13/05 A2985 RMK T01300050 IEM_DS3505
ZBYN,1995-04-14 15:00,ZBYN 141500Z AUTO 22004KT 9SM 13/05 A2985 RMK SLP099 T01310048 52025 IEM_DS3505
ZBYN,1995-04-14 16:00,ZBYN 141600Z AUTO 07010KT 6SM 12/04 A2985 RMK T01200040 IEM_DS3505
ZBYN,1995-04-14 17:00,ZBYN 141700Z AUTO 12006KT 6SM 11/05 A2985 RMK T01100050 IEM_DS3505
ZBYN,1995-04-14 18:00,ZBYN 141800Z AUTO 32004KT 9SM 10/05 A2985 RMK SLP095 T01010053 57002 IEM_DS3505
ZBYN,1995-04-14 20:00,ZBYN 142000Z AUTO 00000KT 6SM 08/04 A2983 RMK T00800040 IEM_DS3505
ZBYN,1995-04-14 21:00,ZBYN 142100Z AUTO 20004KT 6SM 08/05 A2983 RMK SLP090 T00770047 57007 IEM_DS3505
ZBYN,1995-04-14 22:00,ZBYN 142200Z AUTO 11006KT 3SM 08/04 A2983 RMK T00800040 IEM_DS3505
ZBYN,1995-04-14 23:00,ZBYN 142300Z AUTO 13006KT 3SM 09/04 A2983 RMK T00900040 IEM_DS3505
ZBYN,1995-04-15 00:00,ZBYN 150000Z AUTO 32004KT 6SM 09/05 A2985 RMK SLP104 T00940054 52005 IEM_DS3505
ZBYN,1995-04-15 01:00,ZBYN 150100Z AUTO 00000KT 2 1/2SM 11/06 A2988 RMK T01100060 IEM_DS3505
ZBYN,1995-04-15 02:00,ZBYN 150200Z AUTO 30014KT 6SM 15/01 A2988 RMK T01500010 IEM_DS3505
ZBYN,1995-04-15 03:00,ZBYN 150300Z AUTO 29014KT 9SM 15/02 A2991 RMK SLP114 T01510025 52013 IEM_DS3505
ZBYN,1995-04-15 04:00,ZBYN 150400Z AUTO 30016KT 6SM 16/02 A2991 RMK T01600020 IEM_DS3505
ZBYN,1995-04-15 05:00,ZBYN 150500Z AUTO 29010KT 7SM 16/02 A2988 RMK T01600020 IEM_DS3505
ZBYN,1995-04-15 06:00,ZBYN 150600Z AUTO 16008KT 12SM 17/03 A2988 RMK SLP108 T01670026 57008 IEM_DS3505
ZBYN,1995-04-15 07:00,ZBYN 150700Z AUTO 00000KT 7SM 19/02 A2985 RMK T01900020 IEM_DS3505
ZBYN,1995-04-15 08:00,ZBYN 150800Z AUTO 29016KT 7SM 18/M01 A2985 RMK T01801010 IEM_DS3505
ZBYN,1995-04-15 09:00,ZBYN 150900Z AUTO 29017KT 12SM 17/M02 A2985 RMK SLP111 T01731025 54000 IEM_DS3505
ZBYN,1995-04-15 10:00,ZBYN 151000Z AUTO 30014KT 7SM 16/M02 A2988 RMK T01601020 IEM_DS3505
ZBYN,1995-04-15 11:00,ZBYN 151100Z AUTO 31014KT 6SM 15/M01 A2991 RMK T01501010 IEM_DS3505
ZBYN,1995-04-15 12:00,ZBYN 151200Z AUTO 32010KT 12SM 15/M05 A2994 RMK SLP134 T01471054 52020 IEM_DS3505
ZBYN,1995-04-15 14:00,ZBYN 151400Z AUTO 25006KT 6SM 12/M01 A3000 RMK T01201010 IEM_DS3505
ZBYN,1995-04-15 15:00,ZBYN 151500Z AUTO 27004KT 9SM 12/M01 A3000 RMK SLP155 T01151009 52023 IEM_DS3505
ZBYN,1995-04-15 16:00,ZBYN 151600Z AUTO 27004KT 6SM 12/M02 A3000 RMK T01201020 IEM_DS3505
ZBYN,1995-04-15 17:00,ZBYN 151700Z AUTO 28006KT 6SM 12/M02 A3003 RMK T01201020 IEM_DS3505
ZBYN,1995-04-15 18:00,ZBYN 151800Z AUTO 29004KT 7SM 10/M02 A3003 RMK SLP160 T00991017 52004 IEM_DS3505
ZBYN,1995-04-15 19:00,ZBYN 151900Z AUTO 00000KT 6SM 11/M04 A3000 RMK T01101040 IEM_DS3505
ZBYN,1995-04-15 20:00,ZBYN 152000Z AUTO 00000KT 6SM 11/M05 A3003 RMK T01101050 IEM_DS3505
ZBYN,1995-04-15 21:00,ZBYN 152100Z AUTO 34004KT 6SM 07/M04 A3003 RMK SLP165 T00731037 52002 IEM_DS3505
ZBYN,1995-04-15 22:00,ZBYN 152200Z AUTO 07004KT 6SM 07/M01 A3003 RMK T00701010 IEM_DS3505
ZBYN,1995-04-15 23:00,ZBYN 152300Z AUTO 02004KT 4SM 05/M04 A3006 RMK T00501040 IEM_DS3505
ZBYN,1995-04-16 00:00,ZBYN 160000Z AUTO 34004KT 5SM 10/M06 A3006 RMK SLP175 T01031065 52010 IEM_DS3505
ZBYN,1995-04-16 01:00,ZBYN 160100Z AUTO 27004KT 4SM 13/M05 A3006 RMK T01301050 IEM_DS3505
ZBYN,1995-04-16 02:00,ZBYN 160200Z AUTO 22006KT 4SM 15/M03 A3006 RMK T01501030 IEM_DS3505
ZBYN,1995-04-16 03:00,ZBYN 160300Z AUTO 09008KT 6SM 17/M06 A3006 RMK SLP170 T01661059 54000 IEM_DS3505
ZBYN,1995-04-16 04:00,ZBYN 160400Z AUTO 31004KT 6SM 18/M11 A3003 RMK T01801110 IEM_DS3505
ZBYN,1995-04-16 05:00,ZBYN 160500Z AUTO 00000KT 6SM 19/M08 A3000 RMK T01901080 IEM_DS3505
ZBYN,1995-04-16 06:00,ZBYN 160600Z AUTO 22006KT 6SM 18/M08 A2997 RMK SLP147 T01781085 57022 IEM_DS3505
ZBYN,1995-04-16 07:00,ZBYN 160700Z AUTO 16012KT 6SM 19/M12 A2994 RMK T01901120 IEM_DS3505
ZBYN,1995-04-16 08:00,ZBYN 160800Z AUTO 20010KT 6SM 20/M09 A2991 RMK T02001090 IEM_DS3505
ZBYN,1995-04-16 09:00,ZBYN 160900Z AUTO 20012KT 6SM 18/M11 A2991 RMK SLP131 T01811106 57018 IEM_DS3505
ZBYN,1995-04-16 10:00,ZBYN 161000Z AUTO 21008KT 6SM 19/M06 A2991 RMK T01901060 IEM_DS3505
ZBYN,1995-04-16 11:00,ZBYN 161100Z AUTO 00000KT 7SM 17/M06 A2991 RMK T01701060 IEM_DS3505
ZBYN,1995-04-16 12:00,ZBYN 161200Z AUTO 00000KT 7SM 14/M04 A2991 RMK SLP130 T01351044 57003 IEM_DS3505
ZBYN,1995-04-16 13:00,ZBYN 161300Z AUTO 00000KT 7SM 12/M06 A2994 RMK T01201060 IEM_DS3505
ZBYN,1995-04-16 14:00,ZBYN 161400Z AUTO 00000KT 7SM 09/M08 A2997 RMK T00901080 IEM_DS3505
ZBYN,1995-04-16 15:00,ZBYN 161500Z AUTO 14006KT 7SM 07/M02 A2997 RMK SLP149 T00661022 52016 IEM_DS3505
ZBYN,1995-04-16 16:00,ZBYN 161600Z AUTO 08006KT 7SM 07/M07 A2997 RMK T00701070 IEM_DS3505
ZBYN,1995-04-16 17:00,ZBYN 161700Z AUTO 08006KT 7SM 06/M05 A2997 RMK T00601050 IEM_DS3505
ZBYN,1995-04-16 18:00,ZBYN 161800Z AUTO 14006KT 7SM 06/M03 A2997 RMK SLP147 T00591026 57001 IEM_DS3505
ZBYN,1995-04-16 19:00,ZBYN 161900Z AUTO 10006KT 7SM 05/M04 A2997 RMK T00501040 IEM_DS3505
ZBYN,1995-04-16 20:00,ZBYN 162000Z AUTO 09006KT 7SM 04/M05 A2997 RMK T00401050 IEM_DS3505
ZBYN,1995-04-16 21:00,ZBYN 162100Z AUTO 00000KT 7SM 04/M02 A2997 RMK SLP152 T00401018 52002 IEM_DS3505
ZBYN,1995-04-16 22:00,ZBYN 162200Z AUTO 10004KT 6SM 04/M04 A2997 RMK T00401040 IEM_DS3505
ZBYN,1995-04-16 23:00,ZBYN 162300Z AUTO 08004KT 4SM 04/M02 A2997 RMK T00401020 IEM_DS3505
ZBYN,1995-04-17 00:00,ZBYN 170000Z AUTO 00000KT 6SM 08/M01 A3000 RMK SLP160 T00751007 52006 IEM_DS3505
ZBYN,1995-04-17 01:00,ZBYN 170100Z AUTO 00000KT 5SM 12/00 A2997 RMK T01200000 IEM_DS3505
ZBYN,1995-04-17 02:00,ZBYN 170200Z AUTO 00000KT 6SM 13/00 A3000 RMK T01300000 IEM_DS3505
ZBYN,1995-04-17 03:00,ZBYN 170300Z AUTO 18010KT 6SM 14/01 A3000 RMK SLP161 T01360011 54000 IEM_DS3505
ZBYN,1995-04-17 04:00,ZBYN 170400Z AUTO 18006KT 6SM 16/00 A2997 RMK T01600000 IEM_DS3505
ZBYN,1995-04-17 05:00,ZBYN 170500Z AUTO 18006KT 6SM 17/01 A2994 RMK T01700010 IEM_DS3505
ZBYN,1995-04-17 06:00,ZBYN 170600Z AUTO 32006KT 6SM 18/M01 A2994 RMK SLP141 T01781008 57013 IEM_DS3505
ZBYN,1995-04-17 07:00,ZBYN 170700Z AUTO 19008KT 6SM 20/M03 A2991 RMK T02001030 IEM_DS3505
ZBYN,1995-04-17 08:00,ZBYN 170800Z AUTO 25019KT 6SM 20/M09 A2991 RMK T02001090 IEM_DS3505
ZBYN,1995-04-17 09:00,ZBYN 170900Z AUTO 29006KT 12SM 19/M07 A2991 RMK SLP129 T01891070 57012 IEM_DS3505
ZBYN,1995-04-17 10:00,ZBYN 171000Z AUTO 27008KT 7SM 19/M06 A2991 RMK T01901060 IEM_DS3505
ZBYN,1995-04-17 11:00,ZBYN 171100Z AUTO 27010KT 6SM 17/M07 A2994 RMK T01701070 IEM_DS3505
ZBYN,1995-04-17 12:00,ZBYN 171200Z AUTO 29008KT 9SM 17/M07 A2997 RMK SLP141 T01711066 52013 IEM_DS3505
ZBYN,1995-04-17 13:00,ZBYN 171300Z AUTO 29004KT 6SM 16/M05 A2997 RMK T01601050 IEM_DS3505
ZBYN,1995-04-17 14:00,ZBYN 171400Z AUTO 29012KT 6SM 15/M05 A3000 RMK T01501050 IEM_DS3505
ZBYN,1995-04-17 15:00,ZBYN 171500Z AUTO 32012KT 9SM 13/M04 A3003 RMK SLP163 T01341035 52024 IEM_DS3505
ZBYN,1995-04-17 16:00,ZBYN 171600Z AUTO 02010KT 6SM 13/M03 A3009 RMK T01301030 IEM_DS3505
ZBYN,1995-04-17 18:00,ZBYN 171800Z AUTO 34010KT 9SM 09/M06 A3009 RMK SLP179 T00921065 52014 IEM_DS3505
ZBYN,1995-04-17 19:00,ZBYN 171900Z AUTO 02010KT 6SM 08/M05 A3012 RMK T00801050 IEM_DS3505
ZBYN,1995-04-17 20:00,ZBYN 172000Z AUTO 36006KT 6SM 07/M05 A3012 RMK T00701050 IEM_DS3505
ZBYN,1995-04-17 21:00,ZBYN 172100Z AUTO 34008KT 9SM 07/M09 A3015 RMK SLP203 T00691091 52020 IEM_DS3505
ZBYN,1995-04-17 22:00,ZBYN 172200Z AUTO 05006KT 6SM 04/M09 A3015 RMK T00401090 IEM_DS3505
ZBYN,1995-04-17 23:00,ZBYN 172300Z AUTO 00000KT 7SM 06/M10 A3018 RMK T00601100 IEM_DS3505
ZBYN,1995-04-18 00:00,ZBYN 180000Z AUTO 36004KT 12SM 07/M11 A3021 RMK SLP224 T00721113 52017 IEM_DS3505
ZBYN,1995-04-18 01:00,ZBYN 180100Z AUTO 01010KT 7SM 09/M11 A3021 RMK T00901110 IEM_DS3505
ZBYN,1995-04-18 02:00,ZBYN 180200Z AUTO 35008KT 7SM 11/M12 A3021 RMK T01101120 IEM_DS3505
ZBYN,1995-04-18 03:00,ZBYN 180300Z AUTO 07006KT 12SM 11/M16 A3018 RMK SLP221 T01121160 57002 IEM_DS3505
ZBYN,1995-04-18 04:00,ZBYN 180400Z AUTO 06008KT 7SM 13/M11 A3015 RMK T01301110 IEM_DS3505
ZBYN,1995-04-18 05:00,ZBYN 180500Z AUTO 06006KT 7SM 14/M11 A3012 RMK T01401110 IEM_DS3505
ZBYN,1995-04-18 06:00,ZBYN 180600Z AUTO 04008KT 12SM 14/M17 A3009 RMK SLP195 T01451174 57025 IEM_DS3505
ZBYN,1995-04-18 07:00,ZBYN 180700Z AUTO 36008KT 6SM 16/M07 A3006 RMK T01601070 IEM_DS3505
ZBYN,1995-04-18 08:00,ZBYN 180800Z AUTO 31006KT 7SM 17/M09 A3006 RMK T01701090 IEM_DS3505
ZBYN,1995-04-18 09:00,ZBYN 180900Z AUTO 04006KT 11SM 15/M16 A3006 RMK SLP183 T01521161 57013 IEM_DS3505
ZBYN,1995-04-18 10:00,ZBYN 181000Z AUTO 36006KT 7SM 15/M08 A3006 RMK T01501080 IEM_DS3505
ZBYN,1995-04-18 11:00,ZBYN 181100Z AUTO 03004KT 7SM 13/M06 A3006 RMK T01301060 IEM_DS3505
ZBYN,1995-04-18 12:00,ZBYN 181200Z AUTO 34004KT 9SM 12/M12 A3009 RMK SLP200 T01211121 52011 IEM_DS3505
ZBYN,1995-04-18 13:00,ZBYN 181300Z AUTO 09004KT 7SM 08/M12 A3012 RMK T00801120 IEM_DS3505
ZBYN,1995-04-18 14:00,ZBYN 181400Z AUTO 09002KT 6SM 05/M13 A3015 RMK T00501130 IEM_DS3505
ZBYN,1995-04-18 15:00,ZBYN 181500Z AUTO 34004KT 6SM 07/M09 A3015 RMK SLP216 T00731094 52013 IEM_DS3505
ZBYN,1995-04-18 16:00,ZBYN 181600Z AUTO 08004KT 6SM 03/M14 A3015 RMK T00301140 IEM_DS3505
ZBYN,1995-04-18 17:00,ZBYN 181700Z AUTO 10004KT 6SM 02/M14 A3015 RMK T00201140 IEM_DS3505
ZBYN,1995-04-18 18:00,ZBYN 181800Z AUTO 34002KT 6SM 05/M11 A3012 RMK SLP213 T00491106 57001 IEM_DS3505
ZBYN,1995-04-18 19:00,ZBYN 181900Z AUTO 10004KT 7SM 01/M13 A3012 RMK T00101130 IEM_DS3505
ZBYN,1995-04-18 20:00,ZBYN 182000Z AUTO 00000KT 7SM 01/M13 A3012 RMK T00101130 IEM_DS3505
ZBYN,1995-04-18 21:00,ZBYN 182100Z AUTO 32006KT 6SM M00/M07 A3012 RMK SLP212 T10041073 57008 IEM_DS3505
ZBYN,1995-04-18 22:00,ZBYN 182200Z AUTO 00000KT 7SM M02/M12 A3012 RMK T10201120 IEM_DS3505
ZBYN,1995-04-18 23:00,ZBYN 182300Z AUTO 00000KT 7SM 00/M13 A3012 RMK T00001130 IEM_DS3505
ZBYN,1995-04-19 00:00,ZBYN 190000Z AUTO 14004KT 6SM 04/M05 A3012 RMK SLP207 T00451050 57002 IEM_DS3505
ZBYN,1995-04-19 01:00,ZBYN 190100Z AUTO 14004KT 7SM 10/M08 A3009 RMK T01001080 IEM_DS3505
ZBYN,1995-04-19 02:00,ZBYN 190200Z AUTO 17006KT 7SM 12/M08 A3009 RMK T01201080 IEM_DS3505
ZBYN,1995-04-19 03:00,ZBYN 190300Z AUTO 16012KT 6SM 12/M08 A3006 RMK SLP192 T01231081 57009 IEM_DS3505
ZBYN,1995-04-19 04:00,ZBYN 190400Z AUTO 20010KT 7SM 16/M09 A3003 RMK T01601090 IEM_DS3505
ZBYN,1995-04-19 05:00,ZBYN 190500Z AUTO 16012KT 7SM 17/M08 A2997 RMK T01701080 IEM_DS3505
ZBYN,1995-04-19 06:00,ZBYN 190600Z AUTO 20014KT 6SM 18/M08 A2991 RMK SLP141 T01751076 57042 IEM_DS3505
ZBYN,1995-04-19 07:00,ZBYN 190700Z AUTO 18008KT 7SM 20/M06 A2985 RMK T02001060 IEM_DS3505
ZBYN,1995-04-19 08:00,ZBYN 190800Z AUTO 17010KT 7SM 21/M04 A2983 RMK T02101040 IEM_DS3505
ZBYN,1995-04-19 09:00,ZBYN 190900Z AUTO 18010KT 6SM 19/M04 A2980 RMK SLP102 T01941038 57041 IEM_DS3505
ZBYN,1995-04-19 10:00,ZBYN 191000Z AUTO 19010KT 7SM 20/M03 A2980 RMK T02001030 IEM_DS3505
ZBYN,1995-04-19 11:00,ZBYN 191100Z AUTO 15004KT 7SM 18/01 A2980 RMK T01800010 IEM_DS3505
ZBYN,1995-04-19 12:00,ZBYN 191200Z AUTO 20008KT 6SM 16/M00 A2980 RMK SLP086 T01651003 57011 IEM_DS3505
ZBYN,1995-04-19 13:00,ZBYN 191300Z AUTO 15012KT 7SM 16/03 A2983 RMK T01600030 IEM_DS3505
ZBYN,1995-04-19 14:00,ZBYN 191400Z AUTO 15012KT 6SM 15/02 A2983 RMK T01500020 IEM_DS3505
ZBYN,1995-04-19 15:00,ZBYN 191500Z AUTO 14010KT 6SM 14/03 A2983 RMK SLP094 T01440029 52015 IEM_DS3505
ZBYN,1995-04-19 16:00,ZBYN 191600Z AUTO 12008KT 6SM 12/03 A2985 RMK T01200030 IEM_DS3505
ZBYN,1995-04-19 18:00,ZBYN 191800Z AUTO 11008KT 6SM 10/M01 A2983 RMK SLP091 T00991013 57001 IEM_DS3505
ZBYN,1995-04-19 19:00,ZBYN 191900Z AUTO 11008KT 6SM 09/00 A2983 RMK T00900000 IEM_DS3505
ZBYN,1995-04-19 20:00,ZBYN 192000Z AUTO 10008KT 6SM 08/00 A2983 RMK T00800000 IEM_DS3505
ZBYN,1995-04-19 21:00,ZBYN 192100Z AUTO 11008KT 6SM 07/M02 A2983 RMK SLP093 T00681023 54000 IEM_DS3505
ZBYN,1995-04-19 22:00,ZBYN 192200Z AUTO 09006KT 6SM 06/00 A2983 RMK T00600000 IEM_DS3505
ZBYN,1995-04-19 23:00,ZBYN 192300Z AUTO 09006KT 6SM 08/00 A2983 RMK T00800000 IEM_DS3505
ZBYN,1995-04-20 00:00,ZBYN 200000Z AUTO 14006KT 6SM 11/00 A2983 RMK SLP095 T01060000 52003 IEM_DS3505
ZBYN,1995-04-20 01:00,ZBYN 200100Z AUTO 16012KT 6SM A2983 RMK SLP031 57031 IEM_DS3505
ZBYN,1995-04-20 02:00,ZBYN 200200Z AUTO 00000KT 6SM 16/00 A2980 RMK T01600000 IEM_DS3505
ZBYN,1995-04-20 03:00,ZBYN 200300Z AUTO 11004KT 6SM 18/02 A2977 RMK SLP066 T01830023 57018 IEM_DS3505
ZBYN,1995-04-20 04:00,ZBYN 200400Z AUTO 27004KT 6SM 20/00 A2974 RMK T02000000 IEM_DS3505
ZBYN,1995-04-20 06:00,ZBYN 200600Z AUTO 16012KT 6SM 24/03 A2965 RMK SLP031 T02380031 57031 IEM_DS3505
ZBYN,1995-04-20 07:00,ZBYN 200700Z AUTO 15012KT 6SM 25/03 A2959 RMK T02500030 IEM_DS3505
ZBYN,1995-04-20 08:00,ZBYN 200800Z AUTO 21012KT 7SM 20/09 RMK T02000090 IEM_DS3505
ZBYN,1995-04-20 09:00,ZBYN 200900Z AUTO 32006KT 6SM 14/12 RMK SLP050 T01410123 57001 IEM_DS3505
ZBYN,1995-04-20 10:00,ZBYN 201000Z AUTO 31006KT 7SM 14/13 RMK T01400130 IEM_DS3505
ZBYN,1995-04-20 11:00,ZBYN 201100Z AUTO 01004KT 7SM 13/12 A2971 RMK T01300120 IEM_DS3505
ZBYN,1995-04-20 12:00,ZBYN 201200Z AUTO 32008KT 5SM 12/11 A2974 RMK 60039 SLP067 T01220113 52018 IEM_DS3505
ZBYN,1995-04-20 13:00,ZBYN 201300Z AUTO 34004KT 4SM 12/11 A2977 RMK T01200110 IEM_DS3505
ZBYN,1995-04-20 14:00,ZBYN 201400Z AUTO 35008KT 4SM 11/09 A2980 RMK T01100090 IEM_DS3505
ZBYN,1995-04-20 15:00,ZBYN 201500Z AUTO 34008KT 5SM 10/10 A2977 RMK SLP074 T01030097 52015 IEM_DS3505
ZBYN,1995-04-20 17:00,ZBYN 201700Z AUTO 32008KT 7SM 11/09 A2977 RMK T01100090 IEM_DS3505
ZBYN,1995-04-20 18:00,ZBYN 201800Z AUTO 02004KT 5SM 10/09 A2974 RMK 60020 SLP052 T01050088 57012 IEM_DS3505
ZBYN,1995-04-20 19:00,ZBYN 201900Z AUTO 36008KT 7SM 10/08 A2974 RMK T01000080 IEM_DS3505
ZBYN,1995-04-20 20:00,ZBYN 202000Z AUTO 00000KT 7SM 10/08 A2974 RMK T01000080 IEM_DS3505
ZBYN,1995-04-20 21:00,ZBYN 202100Z AUTO 36004KT 5SM 10/08 A2974 RMK 70059 SLP066 T00950077 57003 IEM_DS3505
ZBYN,1995-04-20 22:00,ZBYN 202200Z AUTO 29006KT 6SM 08/07 A2974 RMK T00800070 IEM_DS3505
ZBYN,1995-04-20 23:00,ZBYN 202300Z AUTO 33004KT 2 1/2SM 09/08 A2977 RMK T00900080 IEM_DS3505
ZBYN,1995-04-21 00:00,ZBYN 210000Z AUTO 04004KT 5SM 11/08 A2977 RMK 70059 SLP078 T01110080 52011 IEM_DS3505
ZBYN,1995-04-21 01:00,ZBYN 210100Z AUTO 31008KT 7SM 13/08 A2977 RMK T01300080 IEM_DS3505
ZBYN,1995-04-21 02:00,ZBYN 210200Z AUTO 20010KT 7SM 14/09 A2977 RMK T01400090 IEM_DS3505
ZBYN,1995-04-21 03:00,ZBYN 210300Z AUTO 18008KT 5SM 15/10 A2977 RMK SLP078 T01500105 52003 IEM_DS3505
ZBYN,1995-04-21 04:00,ZBYN 210400Z AUTO 18006KT 7SM 17/11 A2977 RMK T01700110 IEM_DS3505
ZBYN,1995-04-21 05:00,ZBYN 210500Z AUTO 22006KT 6SM 18/11 A2974 RMK T01800110 IEM_DS3505
ZBYN,1995-04-21 06:00,ZBYN 210600Z AUTO 11006KT 6SM 18/11 A2971 RMK SLP053 T01840110 57018 IEM_DS3505
ZBYN,1995-04-21 07:00,ZBYN 210700Z AUTO 16006KT 6SM 21/12 A2968 RMK T02100120 IEM_DS3505
ZBYN,1995-04-21 08:00,ZBYN 210800Z AUTO 21006KT 6SM 22/10 A2968 RMK T02200100 IEM_DS3505
ZBYN,1995-04-21 09:00,ZBYN 210900Z AUTO 18006KT 6SM 20/11 A2968 RMK SLP041 T02010108 57010 IEM_DS3505
ZBYN,1995-04-21 10:00,ZBYN 211000Z AUTO 22006KT 6SM 20/10 A2968 RMK T02000100 IEM_DS3505
ZBYN,1995-04-21 11:00,ZBYN 211100Z AUTO 27002KT 6SM 19/11 A2971 RMK T01900110 IEM_DS3505
ZBYN,1995-04-21 12:00,ZBYN 211200Z AUTO 04012KT 6SM 19/M03 A2974 RMK SLP059 T01881033 52017 IEM_DS3505
ZBYN,1995-04-21 13:00,ZBYN 211300Z AUTO 34017KT 7SM 16/00 A2980 RMK T01600000 IEM_DS3505
ZBYN,1995-04-21 14:00,ZBYN 211400Z AUTO 36019KT 7SM 15/00 A2985 RMK T01500000 IEM_DS3505
ZBYN,1995-04-21 15:00,ZBYN 211500Z AUTO 02006KT 6SM 14/M01 A2988 RMK SLP108 T01351007 52043 IEM_DS3505
ZBYN,1995-04-21 16:00,ZBYN 211600Z AUTO 34016KT 7SM 09/01 A2994 RMK T00900010 IEM_DS3505
ZBYN,1995-04-21 17:00,ZBYN 211700Z AUTO 34012KT 7SM 08/03 A2997 RMK T00800030 IEM_DS3505
ZBYN,1995-04-21 18:00,ZBYN 211800Z AUTO 04006KT 6SM 08/06 A2997 RMK 60012 SLP144 T00750062 52029 IEM_DS3505
ZBYN,1995-04-21 19:00,ZBYN 211900Z AUTO 30006KT 7SM 08/04 A2994 RMK T00800040 IEM_DS3505
ZBYN,1995-04-21 20:00,ZBYN 212000Z AUTO 00000KT 7SM 09/04 A2994 RMK T00900040 IEM_DS3505
ZBYN,1995-04-21 21:00,ZBYN 212100Z AUTO 02006KT 6SM 09/ A2997 RMK 70016 SLP136 57003 IEM_DS3505
ZBYN,1995-04-21 22:00,ZBYN 212200Z AUTO 36010KT 7SM 08/05 A2997 RMK T00800050 IEM_DS3505
ZBYN,1995-04-21 23:00,ZBYN 212300Z AUTO 36010KT 6SM 08/M05 A3000 RMK T00801050 IEM_DS3505
ZBYN,1995-04-22 00:00,ZBYN 220000Z AUTO 02008KT 6SM 09/M11 A3003 RMK 60000 70016 SLP162 T00861108 52021 IEM_DS3505
ZBYN,1995-04-22 01:00,ZBYN 220100Z AUTO 35012KT 6SM 09/M10 A3006 RMK T00901100 IEM_DS3505
ZBYN,1995-04-22 02:00,ZBYN 220200Z AUTO 35008KT 6SM 10/M13 A3003 RMK T01001130 IEM_DS3505
ZBYN,1995-04-22 03:00,ZBYN 220300Z AUTO 02006KT 12SM 11/M12 A3003 RMK SLP163 T01061117 57004 IEM_DS3505
ZBYN,1995-04-22 04:00,ZBYN 220400Z AUTO 03004KT 6SM 13/M07 A3000 RMK T01301070 IEM_DS3505
ZBYN,1995-04-22 05:00,ZBYN 220500Z AUTO 29006KT 6SM 13/M10 A2997 RMK T01301100 IEM_DS3505
ZBYN,1995-04-22 06:00,ZBYN 220600Z AUTO 22006KT 12SM 14/M07 A2994 RMK SLP145 T01401070 57020 IEM_DS3505
ZBYN,1995-04-22 07:00,ZBYN 220700Z AUTO 20008KT 6SM 13/M05 A2994 RMK T01301050 IEM_DS3505
ZBYN,1995-04-22 08:00,ZBYN 220800Z AUTO 29006KT 6SM 15/M13 A2988 RMK T01501130 IEM_DS3505
ZBYN,1995-04-22 09:00,ZBYN 220900Z AUTO 32012KT 12SM 14/M13 A2991 RMK SLP125 T01381129 57016 IEM_DS3505
ZBYN,1995-04-22 10:00,ZBYN 221000Z AUTO 30017KT 6SM 13/M09 A2991 RMK T01301090 IEM_DS3505
ZBYN,1995-04-22 11:00,ZBYN 221100Z AUTO 31008KT 6SM 12/M08 A2994 RMK T01201080 IEM_DS3505
ZBYN,1995-04-22 12:00,ZBYN 221200Z AUTO 32006KT 9SM 10/M04 A2994 RMK SLP148 T01041042 52015 IEM_DS3505
ZBYN,1995-04-22 13:00,ZBYN 221300Z AUTO 31004KT 6SM 11/M04 A2997 RMK T01101040 IEM_DS3505
ZBYN,1995-04-22 14:00,ZBYN 221400Z AUTO 30008KT 6SM 11/M07 A3000 RMK T01101070 IEM_DS3505
ZBYN,1995-04-22 15:00,ZBYN 221500Z AUTO 27008KT 6SM 08/M06 A3000 RMK SLP172 T00761059 52021 IEM_DS3505
ZBYN,1995-04-22 16:00,ZBYN 221600Z AUTO 29010KT 7SM 09/M06 A3000 RMK T00901060 IEM_DS3505
ZBYN,1995-04-22 17:00,ZBYN 221700Z AUTO 00000KT 7SM 08/M06 A3000 RMK T00801060 IEM_DS3505
ZBYN,1995-04-22 18:00,ZBYN 221800Z AUTO 25006KT 6SM 07/M07 A3000 RMK SLP167 T00671066 57001 IEM_DS3505
ZBYN,1995-04-22 19:00,ZBYN 221900Z AUTO 00000KT 7SM 07/M06 A3000 RMK T00701060 IEM_DS3505
ZBYN,1995-04-22 20:00,ZBYN 222000Z AUTO 00000KT 7SM 07/M07 A3000 RMK T00701070 IEM_DS3505
ZBYN,1995-04-22 21:00,ZBYN 222100Z AUTO 22004KT 6SM 04/M03 A3000 RMK SLP170 T00431027 57009 IEM_DS3505
ZBYN,1995-04-22 22:00,ZBYN 222200Z AUTO 09004KT 6SM 03/M04 A3000 RMK T00301040 IEM_DS3505
ZBYN,1995-04-22 23:00,ZBYN 222300Z AUTO 00000KT 6SM 04/M01 A3000 RMK T00401010 IEM_DS3505
ZBYN,1995-04-23 00:00,ZBYN 230000Z AUTO 16004KT 7SM 06/M02 A3003 RMK SLP181 T00591022 52007 IEM_DS3505
ZBYN,1995-04-23 01:00,ZBYN 230100Z AUTO 15004KT 6SM 09/M01 A3003 RMK T00901010 IEM_DS3505
ZBYN,1995-04-23 02:00,ZBYN 230200Z AUTO 17006KT 6SM 12/02 A3003 RMK T01200020 IEM_DS3505
ZBYN,1995-04-23 03:00,ZBYN 230300Z AUTO 20008KT 7SM 13/M02 A3000 RMK SLP165 T01291024 57008 IEM_DS3505
ZBYN,1995-04-23 04:00,ZBYN 230400Z AUTO 21019KT 6SM 14/M06 A3000 RMK T01401060 IEM_DS3505
ZBYN,1995-04-23 05:00,ZBYN 230500Z AUTO 20016KT 6SM 14/M06 A2997 RMK T01401060 IEM_DS3505
ZBYN,1995-04-23 06:00,ZBYN 230600Z AUTO 20014KT 12SM 12/M06 A2994 RMK SLP143 T01181057 57019 IEM_DS3505
ZBYN,1995-04-23 07:00,ZBYN 230700Z AUTO 20016KT 6SM 17/M04 A2991 RMK T01701040 IEM_DS3505
ZBYN,1995-04-23 08:00,ZBYN 230800Z AUTO 17010KT 6SM 18/M04 A2988 RMK T01801040 IEM_DS3505
ZBYN,1995-04-23 09:00,ZBYN 230900Z AUTO 29016KT 16SM 18/M10 A2988 RMK SLP121 T01751099 57019 IEM_DS3505
ZBYN,1995-04-23 10:00,ZBYN 231000Z AUTO 29012KT 6SM 17/M06 A2988 RMK T01701060 IEM_DS3505
ZBYN,1995-04-23 11:00,ZBYN 231100Z AUTO 29016KT 7SM 15/M05 A2988 RMK T01501050 IEM_DS3505
ZBYN,1995-04-23 12:00,ZBYN 231200Z AUTO 29008KT 9SM 14/M09 A2994 RMK SLP144 T01351088 52017 IEM_DS3505
ZBYN,1995-04-23 13:00,ZBYN 231300Z AUTO 28004KT 7SM 12/M04 A2994 RMK T01201040 IEM_DS3505
ZBYN,1995-04-23 14:00,ZBYN 231400Z AUTO 29006KT 7SM 12/M03 A2994 RMK T01201030 IEM_DS3505
ZBYN,1995-04-23 15:00,ZBYN 231500Z AUTO 29002KT 9SM 09/M03 A2997 RMK SLP145 T00891033 52005 IEM_DS3505
ZBYN,1995-04-23 16:00,ZBYN 231600Z AUTO 09006KT 7SM 07/M01 A2997 RMK T00701010 IEM_DS3505
ZBYN,1995-04-23 17:00,ZBYN 231700Z AUTO 06004KT 7SM 05/M02 A2997 RMK T00501020 IEM_DS3505
ZBYN,1995-04-23 18:00,ZBYN 231800Z AUTO 07002KT 9SM 07/M05 A2997 RMK SLP148 T00721049 52003 IEM_DS3505
ZBYN,1995-04-23 19:00,ZBYN 231900Z AUTO 00000KT 7SM 05/M02 A2994 RMK T00501020 IEM_DS3505
ZBYN,1995-04-23 20:00,ZBYN 232000Z AUTO 00000KT 7SM 03/M03 A2994 RMK T00301030 IEM_DS3505
ZBYN,1995-04-23 21:00,ZBYN 232100Z AUTO 04004KT 6SM 05/M04 A2994 RMK SLP142 T00481038 57005 IEM_DS3505
ZBYN,1995-04-23 22:00,ZBYN 232200Z AUTO 09006KT 6SM 02/M02 A2994 RMK T00201020 IEM_DS3505
ZBYN,1995-04-23 23:00,ZBYN 232300Z AUTO 06006KT 6SM 03/M01 A2997 RMK T00301010 IEM_DS3505
ZBYN,1995-04-24 00:00,ZBYN 240000Z AUTO 14004KT 6SM 06/M00 A3000 RMK SLP160 T00611004 52012 IEM_DS3505
ZBYN,1995-04-24 01:00,ZBYN 240100Z AUTO 15006KT 4SM 11/M02 A2997 RMK T01101020 IEM_DS3505
ZBYN,1995-04-24 02:00,ZBYN 240200Z AUTO 19006KT 4SM 13/M03 A2997 RMK T01301030 IEM_DS3505
ZBYN,1995-04-24 03:00,ZBYN 240300Z AUTO 22012KT 5SM 15/M01 A2997 RMK SLP148 T01501009 57005 IEM_DS3505
ZBYN,1995-04-24 04:00,ZBYN 240400Z AUTO 21012KT 6SM 18/M04 A2994 RMK T01801040 IEM_DS3505
ZBYN,1995-04-24 05:00,ZBYN 240500Z AUTO 22014KT 6SM 20/M05 A2988 RMK T02001050 IEM_DS3505
ZBYN,1995-04-24 06:00,ZBYN 240600Z AUTO 27014KT 12SM 21/ A2985 RMK SLP106 57032 IEM_DS3505
ZBYN,1995-04-24 07:00,ZBYN 240700Z AUTO 27016KT 6SM 21/M05 A2983 RMK T02101050 IEM_DS3505
ZBYN,1995-04-24 08:00,ZBYN 240800Z AUTO 27016KT 6SM 22/M05 A2980 RMK T02201050 IEM_DS3505
ZBYN,1995-04-24 09:00,ZBYN 240900Z AUTO 29012KT 6SM 22/M11 A2977 RMK SLP081 T02151110 57025 IEM_DS3505
ZBYN,1995-04-24 10:00,ZBYN 241000Z AUTO 27019KT 5SM 21/M02 A2977 RMK T02101020 IEM_DS3505
ZBYN,1995-04-24 11:00,ZBYN 241100Z AUTO 29016KT 2SM 20/M01 A2980 RMK T02001010 IEM_DS3505
ZBYN,1995-04-24 12:00,ZBYN 241200Z AUTO 34016KT 2 1/2SM 19/ A2985 RMK SLP103 52018 IEM_DS3505
ZBYN,1995-04-24 13:00,ZBYN 241300Z AUTO 30012KT 2SM 18/M05 A2991 RMK T01801050 IEM_DS3505
ZBYN,1995-04-24 14:00,ZBYN 241400Z AUTO 30014KT 2SM 15/M04 A2997 RMK T01501040 IEM_DS3505
ZBYN,1995-04-24 15:00,ZBYN 241500Z AUTO 34010KT 6SM 12/M10 A3003 RMK SLP159 T01251097 52055 IEM_DS3505
ZBYN,1995-04-24 16:00,ZBYN 241600Z AUTO 30012KT 4SM 12/M07 A3006 RMK T01201070 IEM_DS3505
ZBYN,1995-04-24 17:00,ZBYN 241700Z AUTO 30017KT 4SM 11/M09 A3006 RMK T01101090 IEM_DS3505
ZBYN,1995-04-24 18:00,ZBYN 241800Z AUTO 34006KT 9SM 10/M13 A3005 RMK SLP164 T01011132 52009 IEM_DS3505
ZBYN,1995-04-24 19:00,ZBYN 241900Z AUTO 30012KT 7SM 10/M07 A3006 RMK T01001070 IEM_DS3505
ZBYN,1995-04-24 20:00,ZBYN 242000Z AUTO 30016KT 7SM 08/M08 A3009 RMK T00801080 IEM_DS3505
ZBYN,1995-04-24 21:00,ZBYN 242100Z AUTO 34004KT 9SM 06/M13 A3015 RMK SLP197 T00651130 52026 IEM_DS3505
ZBYN,1995-04-24 22:00,ZBYN 242200Z AUTO 00000KT 7SM 05/M07 A3015 RMK T00501070 IEM_DS3505
ZBYN,1995-04-24 23:00,ZBYN 242300Z AUTO 00000KT 7SM 05/M07 A3018 RMK T00501070 IEM_DS3505
ZBYN,1995-04-25 00:00,ZBYN 250000Z AUTO 36008KT 9SM 07/ A3021 RMK SLP224 52021 IEM_DS3505
ZBYN,1995-04-25 01:00,ZBYN 250100Z AUTO 35008KT 7SM 08/M06 A3024 RMK T00801060 IEM_DS3505
ZBYN,1995-04-25 02:00,ZBYN 250200Z AUTO 32006KT 7SM 10/M13 A3021 RMK T01001130 IEM_DS3505
ZBYN,1995-04-25 03:00,ZBYN 250300Z AUTO 29006KT 12SM 11/M13 A3021 RMK SLP229 T01101128 52002 IEM_DS3505
ZBYN,1995-04-25 04:00,ZBYN 250400Z AUTO 03004KT 7SM 12/M09 A3018 RMK T01201090 IEM_DS3505
ZBYN,1995-04-25 05:00,ZBYN 250500Z AUTO 00000KT 7SM 14/M09 A3015 RMK T01401090 IEM_DS3505
ZBYN,1995-04-25 06:00,ZBYN 250600Z AUTO 11008KT 9SM 14/M12 A3009 RMK SLP193 T01451116 57031 IEM_DS3505
ZBYN,1995-04-25 07:00,ZBYN 250700Z AUTO 22006KT 7SM 16/M06 A3006 RMK T01601060 IEM_DS3505
ZBYN,1995-04-25 08:00,ZBYN 250800Z AUTO 21010KT 6SM 17/M06 A3003 RMK T01701060 IEM_DS3505
ZBYN,1995-04-25 09:00,ZBYN 250900Z AUTO 22008KT 9SM 16/M12 A3003 RMK SLP174 T01581115 57021 IEM_DS3505
ZBYN,1995-04-25 10:00,ZBYN 251000Z AUTO 16006KT 6SM 17/M03 A3003 RMK T01701030 IEM_DS3505
ZBYN,1995-04-25 11:00,ZBYN 251100Z AUTO 17004KT 6SM 16/M04 A3003 RMK T01601040 IEM_DS3505
ZBYN,1995-04-25 12:00,ZBYN 251200Z AUTO 00000KT 9SM 12/M03 A3003 RMK SLP177 T01161029 57003 IEM_DS3505
ZBYN,1995-04-25 13:00,ZBYN 251300Z AUTO 00000KT 6SM 11/M02 A3006 RMK T01101020 IEM_DS3505
ZBYN,1995-04-25 14:00,ZBYN 251400Z AUTO 09004KT 7SM 08/M01 A3006 RMK T00801010 IEM_DS3505
ZBYN,1995-04-25 15:00,ZBYN 251500Z AUTO 00000KT 6SM 07/M02 A3006 RMK SLP184 T00721017 52006 IEM_DS3505
ZBYN,1995-04-25 16:00,ZBYN 251600Z AUTO 11004KT 6SM 06/M02 A3006 RMK T00601020 IEM_DS3505
ZBYN,1995-04-25 17:00,ZBYN 251700Z AUTO 00000KT 6SM 07/M03 A3006 RMK T00701030 IEM_DS3505
ZBYN,1995-04-25 18:00,ZBYN 251800Z AUTO 34004KT 6SM 08/M03 A3003 RMK SLP173 T00841030 57003 IEM_DS3505
ZBYN,1995-04-25 20:00,ZBYN 252000Z AUTO 00000KT 6SM 06/M01 A3000 RMK T00601010 IEM_DS3505
ZBYN,1995-04-25 21:00,ZBYN 252100Z AUTO 34004KT 6SM 08/M03 A3003 RMK SLP166 T00751030 57006 IEM_DS3505
ZBYN,1995-04-25 22:00,ZBYN 252200Z AUTO 00000KT 6SM 06/M01 A3003 RMK T00601010 IEM_DS3505
ZBYN,1995-04-25 23:00,ZBYN 252300Z AUTO 00000KT 6SM 07/M02 A3003 RMK T00701020 IEM_DS3505
ZBYN,1995-04-26 00:00,ZBYN 260000Z AUTO 36004KT 6SM 10/M05 A3003 RMK SLP172 T01001049 52003 IEM_DS3505
ZBYN,1995-04-26 01:00,ZBYN 260100Z AUTO 30004KT 4SM 12/M01 A3003 RMK T01201010 IEM_DS3505
ZBYN,1995-04-26 02:00,ZBYN 260200Z AUTO 30006KT 4SM 14/M04 A3003 RMK T01401040 IEM_DS3505
ZBYN,1995-04-26 03:00,ZBYN 260300Z AUTO 29002KT 5SM 15/M04 A3000 RMK SLP168 T01541044 57002 IEM_DS3505
ZBYN,1995-04-26 04:00,ZBYN 260400Z AUTO 17006KT 6SM 17/00 A3000 RMK T01700000 IEM_DS3505
ZBYN,1995-04-26 05:00,ZBYN 260500Z AUTO 16010KT 6SM 17/00 A2997 RMK T01700000 IEM_DS3505
ZBYN,1995-04-26 06:00,ZBYN 260600Z AUTO 20012KT 12SM 16/M04 A2997 RMK SLP152 T01621044 57012 IEM_DS3505
ZBYN,1995-04-26 07:00,ZBYN 260700Z AUTO 17010KT 6SM 17/02 A2997 RMK T01700020 IEM_DS3505
ZBYN,1995-04-26 08:00,ZBYN 260800Z AUTO 19010KT 6SM 16/M01 A2994 RMK T01601010 IEM_DS3505
ZBYN,1995-04-26 09:00,ZBYN 260900Z AUTO 20012KT 6SM 15/M00 A2994 RMK SLP144 T01491004 57010 IEM_DS3505
ZBYN,1995-04-26 10:00,ZBYN 261000Z AUTO 19012KT 6SM 13/04 A2994 RMK T01300040 IEM_DS3505
ZBYN,1995-04-26 11:00,ZBYN 261100Z AUTO 19012KT 6SM 12/05 A2997 RMK T01200050 IEM_DS3505
ZBYN,1995-04-26 12:00,ZBYN 261200Z AUTO 18012KT 6SM 10/05 A3000 RMK SLP161 T01040047 52012 IEM_DS3505
ZBYN,1995-04-26 13:00,ZBYN 261300Z AUTO 15006KT 4SM 09/05 A3003 RMK T00900050 IEM_DS3505
ZBYN,1995-04-26 14:00,ZBYN 261400Z AUTO 17006KT 4SM 09/06 A3006 RMK T00900060 IEM_DS3505
ZBYN,1995-04-26 15:00,ZBYN 261500Z AUTO 16012KT 6SM 09/05 A3003 RMK SLP174 T00870051 52017 IEM_DS3505
ZBYN,1995-04-26 16:00,ZBYN 261600Z AUTO 14010KT 4SM 09/06 A3006 RMK T00900060 IEM_DS3505
ZBYN,1995-04-26 17:00,ZBYN 261700Z AUTO 20010KT 5SM 08/06 A3003 RMK T00800060 IEM_DS3505
ZBYN,1995-04-26 18:00,ZBYN 261800Z AUTO 16006KT 6SM 07/05 A3000 RMK SLP166 T00670052 57009 IEM_DS3505
ZBYN,1995-04-26 19:00,ZBYN 261900Z AUTO 12006KT 4SM 06/05 A3000 RMK T00600050 IEM_DS3505
ZBYN,1995-04-26 20:00,ZBYN 262000Z AUTO 14006KT 3SM 07/05 A3003 RMK T00700050 IEM_DS3505
ZBYN,1995-04-26 21:00,ZBYN 262100Z AUTO 14002KT 6SM 06/05 A3003 RMK SLP173 T00570046 52003 IEM_DS3505
ZBYN,1995-04-26 23:00,ZBYN 262300Z AUTO 15004KT 2SM 08/06 A3006 RMK T00800060 IEM_DS3505
ZBYN,1995-04-27 00:00,ZBYN 270000Z AUTO 16004KT 4SM 07/05 A3006 RMK SLP191 T00710054 52012 IEM_DS3505
ZBYN,1995-04-27 01:00,ZBYN 270100Z AUTO 17006KT 3SM 09/06 A3009 RMK T00900060 IEM_DS3505
ZBYN,1995-04-27 02:00,ZBYN 270200Z AUTO 12006KT 5SM 12/06 A3006 RMK T01200060 IEM_DS3505
ZBYN,1995-04-27 03:00,ZBYN 270300Z AUTO 18010KT 5SM 14/07 A3003 RMK SLP178 T01390066 57004 IEM_DS3505
ZBYN,1995-04-27 04:00,ZBYN 270400Z AUTO 20008KT 5SM 18/07 A3000 RMK T01800070 IEM_DS3505
ZBYN,1995-04-27 05:00,ZBYN 270500Z AUTO 20010KT 5SM 20/08 A2997 RMK T02000080 IEM_DS3505
ZBYN,1995-04-27 06:00,ZBYN 270600Z AUTO 18010KT 5SM 20/07 A2994 RMK SLP140 T01990068 57029 IEM_DS3505
ZBYN,1995-04-27 07:00,ZBYN 270700Z AUTO 20012KT 6SM 23/06 A2991 RMK T02300060 IEM_DS3505
ZBYN,1995-04-27 08:00,ZBYN 270800Z AUTO 23012KT 7SM 24/00 A2988 RMK T02400000 IEM_DS3505
ZBYN,1995-04-27 09:00,ZBYN 270900Z AUTO 25012KT 6SM 24/M02 A2985 RMK SLP111 T02361018 57022 IEM_DS3505
ZBYN,1995-04-27 10:00,ZBYN 271000Z AUTO 20008KT 7SM 23/00 A2985 RMK T02300000 IEM_DS3505
ZBYN,1995-04-27 11:00,ZBYN 271100Z AUTO 21010KT 7SM 21/02 A2985 RMK T02100020 IEM_DS3505
ZBYN,1995-04-27 12:00,ZBYN 271200Z AUTO 22010KT 6SM 19/02 A2988 RMK SLP109 T01870025 57007 IEM_DS3505
ZBYN,1995-04-27 13:00,ZBYN 271300Z AUTO 21012KT 7SM 18/04 A2991 RMK T01800040 IEM_DS3505
ZBYN,1995-04-27 14:00,ZBYN 271400Z AUTO 12008KT 7SM 15/05 A2994 RMK T01500050 IEM_DS3505
ZBYN,1995-04-27 15:00,ZBYN 271500Z AUTO 20008KT 6SM 15/04 A2994 RMK SLP125 T01530036 52019 IEM_DS3505
ZBYN,1995-04-27 16:00,ZBYN 271600Z AUTO 10006KT 7SM 12/06 A2994 RMK T01200060 IEM_DS3505
ZBYN,1995-04-27 17:00,ZBYN 271700Z AUTO 11008KT 7SM 11/06 A2994 RMK T01100060 IEM_DS3505
ZBYN,1995-04-27 18:00,ZBYN 271800Z AUTO 11008KT 6SM 11/07 A2994 RMK SLP126 T01140068 52004 IEM_DS3505
ZBYN,1995-04-27 19:00,ZBYN 271900Z AUTO 09006KT 7SM 10/06 A2994 RMK T01000060 IEM_DS3505
ZBYN,1995-04-27 20:00,ZBYN 272000Z AUTO 09008KT 7SM 09/05 A2994 RMK T00900050 IEM_DS3505
ZBYN,1995-04-27 21:00,ZBYN 272100Z AUTO 14004KT 6SM 08/06 A2994 RMK SLP125 T00810060 54000 IEM_DS3505
ZBYN,1995-04-27 22:00,ZBYN 272200Z AUTO 09006KT 4SM 08/07 A2994 RMK T00800070 IEM_DS3505
ZBYN,1995-04-27 23:00,ZBYN 272300Z AUTO 12006KT 2 1/2SM 09/07 A2994 RMK T00900070 IEM_DS3505
ZBYN,1995-04-28 00:00,ZBYN 280000Z AUTO 18002KT 4SM 11/07 A2997 RMK SLP134 T01120070 52006 IEM_DS3505
ZBYN,1995-04-28 01:00,ZBYN 280100Z AUTO 12006KT 5SM 15/08 A2997 RMK T01500080 IEM_DS3505
ZBYN,1995-04-28 02:00,ZBYN 280200Z AUTO 15006KT 5SM 18/07 A2997 RMK T01800070 IEM_DS3505
ZBYN,1995-04-28 03:00,ZBYN 280300Z AUTO 16008KT 6SM 19/06 A2994 RMK SLP125 T01890056 57002 IEM_DS3505
ZBYN,1995-04-28 04:00,ZBYN 280400Z AUTO 21016KT 6SM 22/04 A2991 RMK T02200040 IEM_DS3505
ZBYN,1995-04-28 05:00,ZBYN 280500Z AUTO 19014KT 6SM 25/05 A2985 RMK T02500050 IEM_DS3505
ZBYN,1995-04-28 06:00,ZBYN 280600Z AUTO 22017KT 6SM 24/01 A2983 RMK SLP089 T02410012 57031 IEM_DS3505
ZBYN,1995-04-28 07:00,ZBYN 280700Z AUTO 21016KT 6SM 27/M03 A2980 RMK T02701030 IEM_DS3505
ZBYN,1995-04-28 08:00,ZBYN 280800Z AUTO 22016KT 6SM 26/M01 A2980 RMK T02601010 IEM_DS3505
ZBYN,1995-04-28 09:00,ZBYN 280900Z AUTO 22016KT 6SM 25/M02 A2980 RMK SLP080 T02491025 57012 IEM_DS3505
ZBYN,1995-04-28 10:00,ZBYN 281000Z AUTO 24014KT 7SM 24/00 A2980 RMK T02400000 IEM_DS3505
ZBYN,1995-04-28 11:00,ZBYN 281100Z AUTO 23014KT 7SM 23/02 A2983 RMK T02300020 IEM_DS3505
ZBYN,1995-04-28 12:00,ZBYN 281200Z AUTO 22008KT 6SM 21/02 A2983 RMK SLP085 T02080021 52003 IEM_DS3505
ZBYN,1995-04-28 13:00,ZBYN 281300Z AUTO 25010KT 6SM 20/03 A2985 RMK T02000030 IEM_DS3505
ZBYN,1995-04-28 14:00,ZBYN 281400Z AUTO 00000KT 6SM 18/04 A2991 RMK T01800040 IEM_DS3505
ZBYN,1995-04-28 15:00,ZBYN 281500Z AUTO 32008KT 6SM 21/M11 A2991 RMK SLP102 T02141108 52027 IEM_DS3505
ZBYN,1995-04-28 16:00,ZBYN 281600Z AUTO 31012KT 6SM 20/M03 A2994 RMK T02001030 IEM_DS3505
ZBYN,1995-04-28 17:00,ZBYN 281700Z AUTO 31016KT 6SM 20/M04 A2994 RMK T02001040 IEM_DS3505
ZBYN,1995-04-28 18:00,ZBYN 281800Z AUTO 32008KT 6SM 18/ A2994 RMK SLP110 52010 IEM_DS3505
ZBYN,1995-04-28 19:00,ZBYN 281900Z AUTO 00000KT 7SM 16/M04 A2994 RMK T01601040 IEM_DS3505
ZBYN,1995-04-28 20:00,ZBYN 282000Z AUTO 00000KT 7SM 15/M07 A2997 RMK T01501070 IEM_DS3505
ZBYN,1995-04-28 21:00,ZBYN 282100Z AUTO 11010KT 6SM 12/M09 A2997 RMK SLP125 T01161086 52006 IEM_DS3505
ZBYN,1995-04-28 22:00,ZBYN 282200Z AUTO 33004KT 7SM 13/M08 A3000 RMK T01301080 IEM_DS3505
ZBYN,1995-04-28 23:00,ZBYN 282300Z AUTO 09004KT 7SM 10/M04 A3000 RMK T01001040 IEM_DS3505
ZBYN,1995-04-29 00:00,ZBYN 290000Z AUTO 32004KT 6SM 16/M10 A3003 RMK SLP146 T01581095 52019 IEM_DS3505
ZBYN,1995-04-29 01:00,ZBYN 290100Z AUTO 27004KT 7SM 18/M06 A3003 RMK T01801060 IEM_DS3505
ZBYN,1995-04-29 02:00,ZBYN 290200Z AUTO 00000KT 7SM 20/M09 A3003 RMK T02001090 IEM_DS3505
ZBYN,1995-04-29 03:00,ZBYN 290300Z AUTO 22006KT 6SM 21/M13 A3000 RMK SLP132 T02101133 57004 IEM_DS3505
ZBYN,1995-04-29 04:00,ZBYN 290400Z AUTO 00000KT 6SM 22/M08 A2997 RMK T02201080 IEM_DS3505
ZBYN,1995-04-29 05:00,ZBYN 290500Z AUTO 19014KT 6SM 24/M10 A2994 RMK T02401100 IEM_DS3505
ZBYN,1995-04-29 06:00,ZBYN 290600Z AUTO 20010KT 7SM 24/M15 A2991 RMK SLP101 T02351151 57030 IEM_DS3505
ZBYN,1995-04-29 07:00,ZBYN 290700Z AUTO 19010KT 6SM 26/M04 A2988 RMK T02601040 IEM_DS3505
ZBYN,1995-04-29 08:00,ZBYN 290800Z AUTO 23014KT 6SM 26/M03 A2985 RMK T02601030 IEM_DS3505
ZBYN,1995-04-29 09:00,ZBYN 290900Z AUTO 20008KT 7SM 24/ A2983 RMK SLP081 57026 IEM_DS3505
ZBYN,1995-04-29 10:00,ZBYN 291000Z AUTO 17008KT 6SM 25/M03 A2983 RMK T02501030 IEM_DS3505
ZBYN,1995-04-29 11:00,ZBYN 291100Z AUTO 16004KT 6SM 21/M01 A2983 RMK T02101010 IEM_DS3505
ZBYN,1995-04-29 12:00,ZBYN 291200Z AUTO 25006KT 6SM 19/01 A2983 RMK SLP086 T01870009 52002 IEM_DS3505
ZBYN,1995-04-29 13:00,ZBYN 291300Z AUTO 14004KT 6SM 17/M01 A2985 RMK T01701010 IEM_DS3505
ZBYN,1995-04-29 14:00,ZBYN 291400Z AUTO 18002KT 7SM 17/M04 A2985 RMK T01701040 IEM_DS3505
ZBYN,1995-04-29 15:00,ZBYN 291500Z AUTO 22012KT 6SM 20/02 A2985 RMK SLP079 T02030018 52004 IEM_DS3505
ZBYN,1995-04-29 16:00,ZBYN 291600Z AUTO 21008KT 7SM 19/01 A2985 RMK T01900010 IEM_DS3505
ZBYN,1995-04-29 17:00,ZBYN 291700Z AUTO 09008KT 7SM 15/M02 A2983 RMK T01501020 IEM_DS3505
ZBYN,1995-04-29 18:00,ZBYN 291800Z AUTO 16006KT 6SM 16/03 A2983 RMK SLP076 T01550031 57006 IEM_DS3505
ZBYN,1995-04-29 19:00,ZBYN 291900Z AUTO 12010KT 7SM 14/00 A2980 RMK T01400000 IEM_DS3505
ZBYN,1995-04-29 20:00,ZBYN 292000Z AUTO 12010KT 6SM 15/01 A2980 RMK T01500010 IEM_DS3505
ZBYN,1995-04-29 21:00,ZBYN 292100Z AUTO 14010KT 7SM 15/01 A2980 RMK SLP068 T01490013 57007 IEM_DS3505
ZBYN,1995-04-29 22:00,ZBYN 292200Z AUTO 12010KT 6SM 14/03 A2980 RMK T01400030 IEM_DS3505
ZBYN,1995-04-29 23:00,ZBYN 292300Z AUTO 13006KT 7SM 14/05 A2983 RMK T01400050 IEM_DS3505
ZBYN,1995-04-30 00:00,ZBYN 300000Z AUTO 14006KT 5SM 16/03 A2983 RMK SLP079 T01570034 52003 IEM_DS3505
ZBYN,1995-04-30 01:00,ZBYN 300100Z AUTO 15008KT 7SM 19/06 A2983 RMK T01900060 IEM_DS3505
ZBYN,1995-04-30 03:00,ZBYN 300300Z AUTO 16014KT 6SM 23/02 RMK SLP056 T02340019 57008 IEM_DS3505
ZBYN,1995-04-30 04:00,ZBYN 300400Z AUTO 21014KT 7SM 26/06 A2977 RMK T02600060 IEM_DS3505
ZBYN,1995-04-30 05:00,ZBYN 300500Z AUTO 20016KT 6SM 28/M02 A2971 RMK T02801020 IEM_DS3505
ZBYN,1995-04-30 06:00,ZBYN 300600Z AUTO 22014KT 6SM 28/M06 A2971 RMK SLP027 T02761057 57027 IEM_DS3505
ZBYN,1995-04-30 07:00,ZBYN 300700Z AUTO 21014KT 6SM 28/M02 A2968 RMK T02801020 IEM_DS3505
ZBYN,1995-04-30 08:00,ZBYN 300800Z AUTO 23008KT 6SM 28/00 A2965 RMK T02800000 IEM_DS3505
ZBYN,1995-04-30 09:00,ZBYN 300900Z AUTO 32016KT 6SM 28/M07 A2965 RMK SLP014 T02781073 57013 IEM_DS3505
ZBYN,1995-04-30 10:00,ZBYN 301000Z AUTO 28014KT 6SM 27/M02 A2968 RMK T02701020 IEM_DS3505
ZBYN,1995-04-30 11:00,ZBYN 301100Z AUTO 32008KT 6SM 26/M03 A2968 RMK T02601030 IEM_DS3505
ZBYN,1995-04-30 12:00,ZBYN 301200Z AUTO 36006KT 6SM 23/M02 A2968 RMK SLP031 T02301022 52010 IEM_DS3505
ZBYN,1995-04-30 15:00,ZBYN 301500Z AUTO 36006KT 6SM 22/M05 RMK SLP054 T02171051 52030 IEM_DS3505
ZBYN,1995-04-30 16:00,ZBYN 301600Z AUTO 02004KT 7SM 19/11 A2983 RMK T01900110 IEM_DS3505
ZBYN,1995-04-30 17:00,ZBYN 301700Z AUTO 00000KT 7SM 17/08 A2980 RMK T01700080 IEM_DS3505
ZBYN,1995-04-30 18:00,ZBYN 301800Z AUTO 32006KT 6SM 17/M02 A2980 RMK SLP057 T01711024 52002 IEM_DS3505
ZBYN,1995-04-30 20:00,ZBYN 302000Z AUTO 32008KT 6SM 15/03 A2983 RMK T01500030 IEM_DS3505
ZBYN,1995-04-30 21:00,ZBYN 302100Z AUTO 32008KT 6SM 15/M10 A2985 RMK SLP077 T01461098 52015 IEM_DS3505
ZBYN,1995-04-30 22:00,ZBYN 302200Z AUTO 32016KT 6SM 14/M05 A2985 RMK T01401050 IEM_DS3505
ZBYN,1995-04-30 23:00,ZBYN 302300Z AUTO 36012KT 7SM 14/M10 A2988 RMK T01401100 IEM_DS3505
ZBYN,1995-05-01 00:00,ZBYN 010000Z AUTO 34014KT 6SM 13/M12 A2991 RMK SLP114 T01331117 52026 IEM_DS3505
ZBYN,1995-05-01 01:00,ZBYN 010100Z AUTO 36017KT 7SM 13/M08 A2991 RMK T01301080 IEM_DS3505
ZBYN,1995-05-01 02:00,ZBYN 010200Z AUTO 35014KT 7SM 13/M09 A2994 RMK T01301090 IEM_DS3505
ZBYN,1995-05-01 03:00,ZBYN 010300Z AUTO 36010KT 6SM 13/M14 A2997 RMK SLP131 T01331140 52013 IEM_DS3505
ZBYN,1995-05-01 04:00,ZBYN 010400Z AUTO 36010KT 7SM 12/M05 A3003 RMK T01201050 IEM_DS3505
ZBYN,1995-05-01 05:00,ZBYN 010500Z AUTO 35014KT 7SM 08/00 A3003 RMK T00800000 IEM_DS3505
ZBYN,1995-05-01 06:00,ZBYN 010600Z AUTO 36006KT 6SM 08/01 A3003 RMK 60001 SLP169 T00820006 52021 IEM_DS3505
ZBYN,1995-05-01 07:00,ZBYN 010700Z AUTO 35008KT 7SM 07/05 A3000 RMK T00700050 IEM_DS3505
ZBYN,1995-05-01 08:00,ZBYN 010800Z AUTO 31016KT 7SM 07/06 A3000 RMK T00700060 IEM_DS3505
ZBYN,1995-05-01 09:00,ZBYN 010900Z AUTO 34006KT 6SM 07/06 A3006 RMK SLP184 T00710063 52008 IEM_DS3505
ZBYN,1995-05-01 10:00,ZBYN 011000Z AUTO 01004KT 7SM 07/07 A3006 RMK T00700070 IEM_DS3505
ZBYN,1995-05-01 11:00,ZBYN 011100Z AUTO 11010KT 7SM 07/06 A3006 RMK T00700060 IEM_DS3505
ZBYN,1995-05-01 12:00,ZBYN 011200Z AUTO 09002KT 5SM 07/04 A3003 RMK 60051 SLP184 T00690040 57002 IEM_DS3505
ZBYN,1995-05-01 13:00,ZBYN 011300Z AUTO 00000KT 7SM 06/05 A3006 RMK T00600050 IEM_DS3505
ZBYN,1995-05-01 14:00,ZBYN 011400Z AUTO 09004KT 6SM 06/05 A3006 RMK T00600050 IEM_DS3505
ZBYN,1995-05-01 15:00,ZBYN 011500Z AUTO 14004KT 6SM 05/04 A3003 RMK SLP185 T00500041 57002 IEM_DS3505
ZBYN,1995-05-01 18:00,ZBYN 011800Z AUTO 14008KT 4SM 05/04 A3000 RMK SLP186 T00500041 57007 IEM_DS3505
ZBYN,1995-05-01 19:00,ZBYN 011900Z AUTO 00000KT 7SM 03/03 A3000 RMK T00300030 IEM_DS3505
ZBYN,1995-05-01 21:00,ZBYN 012100Z AUTO 00000KT 4SM 06/06 A3000 RMK 70055 SLP171 T00610057 57014 IEM_DS3505
ZBYN,1995-05-01 22:00,ZBYN 012200Z AUTO 00000KT 2SM 04/03 A3000 RMK T00400030 IEM_DS3505
ZBYN,1995-05-01 23:00,ZBYN 012300Z AUTO 13004KT 1 1/2SM 07/06 A3003 RMK T00700060 IEM_DS3505
ZBYN,1995-05-02 00:00,ZBYN 020000Z AUTO 11006KT 4SM 09/05 A3005 RMK 70055 SLP191 T00920052 52023 IEM_DS3505
ZBYN,1995-05-02 01:00,ZBYN 020100Z AUTO 31014KT 7SM 11/M04 A3006 RMK T01101040 IEM_DS3505
ZBYN,1995-05-02 02:00,ZBYN 020200Z AUTO 31017KT 7SM 12/M04 A3006 RMK T01201040 IEM_DS3505
ZBYN,1995-05-02 03:00,ZBYN 020300Z AUTO 29017KT 7SM 13/M05 A3009 RMK SLP206 T01281047 52016 IEM_DS3505
ZBYN,1995-05-02 04:00,ZBYN 020400Z AUTO 30023KT 7SM 14/M05 A3009 RMK T01401050 IEM_DS3505
ZBYN,1995-05-02 05:00,ZBYN 020500Z AUTO 30021KT 7SM 15/M04 A3009 RMK T01501040 IEM_DS3505
ZBYN,1995-05-02 06:00,ZBYN 020600Z AUTO 34014KT 12SM 14/M04 A3006 RMK SLP196 T01421044 57007 IEM_DS3505
ZBYN,1995-05-02 07:00,ZBYN 020700Z AUTO 31016KT 7SM 15/M04 A3006 RMK T01501040 IEM_DS3505
ZBYN,1995-05-02 09:00,ZBYN 020900Z AUTO 32014KT 12SM 14/M04 RMK SLP186 T01451042 57007 IEM_DS3505
ZBYN,1995-05-02 10:00,ZBYN 021000Z AUTO 31019KT 7SM 14/M04 A3006 RMK T01401040 IEM_DS3505
ZBYN,1995-05-02 11:00,ZBYN 021100Z AUTO 30014KT 7SM 13/M04 A3009 RMK T01301040 IEM_DS3505
ZBYN,1995-05-02 12:00,ZBYN 021200Z AUTO 29008KT 12SM 11/M04 A3009 RMK SLP202 T01111038 52014 IEM_DS3505
ZBYN,1995-05-02 13:00,ZBYN 021300Z AUTO 35010KT 7SM 11/M08 A3012 RMK T01101080 IEM_DS3505
ZBYN,1995-05-02 14:00,ZBYN 021400Z AUTO 36006KT 7SM 09/M03 A3015 RMK T00901030 IEM_DS3505
ZBYN,1995-05-02 15:00,ZBYN 021500Z AUTO 32002KT 9SM 08/M04 A3018 RMK SLP221 T00801037 52018 IEM_DS3505
ZBYN,1995-05-02 16:00,ZBYN 021600Z AUTO 00000KT 7SM 06/00 A3018 RMK T00600000 IEM_DS3505
ZBYN,1995-05-02 17:00,ZBYN 021700Z AUTO 00000KT 7SM 06/M01 A3021 RMK T00601010 IEM_DS3505
ZBYN,1995-05-02 18:00,ZBYN 021800Z AUTO 34004KT 6SM 05/M02 A3018 RMK SLP229 T00531024 52006 IEM_DS3505
ZBYN,1995-05-02 19:00,ZBYN 021900Z AUTO 00000KT 7SM 03/00 A3018 RMK T00300000 IEM_DS3505
ZBYN,1995-05-02 20:00,ZBYN 022000Z AUTO 00000KT 7SM 03/00 A3018 RMK T00300000 IEM_DS3505
ZBYN,1995-05-02 21:00,ZBYN 022100Z AUTO 32004KT 6SM 03/M03 A3018 RMK SLP236 T00331034 52003 IEM_DS3505
ZBYN,1995-05-02 22:00,ZBYN 022200Z AUTO 32006KT 7SM 05/M05 A3018 RMK T00501050 IEM_DS3505
ZBYN,1995-05-02 23:00,ZBYN 022300Z AUTO 32008KT 7SM 06/M07 A3021 RMK T00601070 IEM_DS3505
ZBYN,1995-05-03 00:00,ZBYN 030000Z AUTO 36006KT 6SM 07/M06 A3021 RMK SLP245 T00681057 52009 IEM_DS3505
ZBYN,1995-05-03 01:00,ZBYN 030100Z AUTO 01006KT 6SM 09/M09 A3021 RMK T00901090 IEM_DS3505
ZBYN,1995-05-03 02:00,ZBYN 030200Z AUTO 36006KT 6SM 11/M05 A3021 RMK T01101050 IEM_DS3505
ZBYN,1995-05-03 03:00,ZBYN 030300Z AUTO 04004KT 7SM 13/M06 A3018 RMK SLP230 T01261065 57010 IEM_DS3505
ZBYN,1995-05-03 04:00,ZBYN 030400Z AUTO 14004KT 7SM 15/M02 A3015 RMK T01501020 IEM_DS3505
ZBYN,1995-05-03 05:00,ZBYN 030500Z AUTO 17006KT 6SM 15/00 A3012 RMK T01500000 IEM_DS3505
ZBYN,1995-05-03 06:00,ZBYN 030600Z AUTO 16006KT 7SM 16/M05 A3009 RMK SLP197 T01591052 57029 IEM_DS3505
ZBYN,1995-05-03 07:00,ZBYN 030700Z AUTO 22008KT 7SM 16/M04 A3006 RMK T01601040 IEM_DS3505
ZBYN,1995-05-03 08:00,ZBYN 030800Z AUTO 25008KT 7SM 17/M03 A3006 RMK T01701030 IEM_DS3505
ZBYN,1995-05-03 09:00,ZBYN 030900Z AUTO 32012KT 9SM 16/M08 A3003 RMK SLP183 T01651082 57015 IEM_DS3505
ZBYN,1995-05-03 10:00,ZBYN 031000Z AUTO 31008KT 6SM 17/M02 A3006 RMK T01701020 IEM_DS3505
ZBYN,1995-05-03 11:00,ZBYN 031100Z AUTO 01006KT 7SM 15/00 A3006 RMK T01500000 IEM_DS3505
ZBYN,1995-05-03 12:00,ZBYN 031200Z AUTO 02004KT 12SM 12/M01 A3006 RMK SLP190 T01191013 52005 IEM_DS3505
ZBYN,1995-05-03 13:00,ZBYN 031300Z AUTO 02004KT 7SM 11/00 A3012 RMK T01100000 IEM_DS3505
ZBYN,1995-05-03 14:00,ZBYN 031400Z AUTO 32006KT 7SM 11/02 A3015 RMK T01100020 IEM_DS3505
ZBYN,1995-05-03 15:00,ZBYN 031500Z AUTO 36004KT 12SM 11/M04 A3018 RMK SLP224 T01101040 52038 IEM_DS3505
ZBYN,1995-05-03 17:00,ZBYN 031700Z AUTO 36004KT 7SM 09/M01 A3021 RMK T00901010 IEM_DS3505
ZBYN,1995-05-03 18:00,ZBYN 031800Z AUTO 32006KT 9SM 08/M06 A3021 RMK SLP227 T00761060 52003 IEM_DS3505
ZBYN,1995-05-03 19:00,ZBYN 031900Z AUTO 31004KT 7SM 06/M01 A3021 RMK T00601010 IEM_DS3505
ZBYN,1995-05-03 20:00,ZBYN 032000Z AUTO 13004KT 7SM 04/00 A3021 RMK T00400000 IEM_DS3505
ZBYN,1995-05-03 21:00,ZBYN 032100Z AUTO 00000KT 9SM 03/M04 A3021 RMK SLP239 T00341040 52005 IEM_DS3505
ZBYN,1995-05-03 22:00,ZBYN 032200Z AUTO 09006KT 7SM 01/M02 A3021 RMK T00101020 IEM_DS3505
ZBYN,1995-05-03 23:00,ZBYN 032300Z AUTO 10006KT 7SM 03/M01 A3021 RMK T00301010 IEM_DS3505
ZBYN,1995-05-04 00:00,ZBYN 040000Z AUTO 14006KT 9SM 08/M04 A3021 RMK SLP241 T00751041 52001 IEM_DS3505
ZBYN,1995-05-04 01:00,ZBYN 040100Z AUTO 17008KT 7SM 11/M04 A3021 RMK T01101040 IEM_DS3505
ZBYN,1995-05-04 02:00,ZBYN 040200Z AUTO 26008KT 7SM 14/M06 A3018 RMK T01401060 IEM_DS3505
ZBYN,1995-05-04 03:00,ZBYN 040300Z AUTO 29014KT 12SM 16/M12 A3015 RMK SLP210 T01581123 57017 IEM_DS3505
ZBYN,1995-05-04 04:00,ZBYN 040400Z AUTO 27016KT 7SM 18/M12 A3012 RMK T01801120 IEM_DS3505
ZBYN,1995-05-04 05:00,ZBYN 040500Z AUTO 29014KT 7SM 19/M07 A3009 RMK T01901070 IEM_DS3505
ZBYN,1995-05-04 06:00,ZBYN 040600Z AUTO 29017KT 12SM 20/M09 A3006 RMK SLP178 T01961092 57028 IEM_DS3505
ZBYN,1995-05-04 07:00,ZBYN 040700Z AUTO 29021KT 7SM 21/M07 A3003 RMK T02101070 IEM_DS3505
ZBYN,1995-05-04 08:00,ZBYN 040800Z AUTO 29019KT 7SM 21/M05 A3000 RMK T02101050 IEM_DS3505
ZBYN,1995-05-04 09:00,ZBYN 040900Z AUTO 29012KT 12SM 21/M09 A2997 RMK SLP155 T02081090 57026 IEM_DS3505
ZBYN,1995-05-04 10:00,ZBYN 041000Z AUTO 29019KT 7SM 21/M04 A2997 RMK T02101040 IEM_DS3505
ZBYN,1995-05-04 11:00,ZBYN 041100Z AUTO 27012KT 7SM 20/M02 A2994 RMK T02001020 IEM_DS3505
ZBYN,1995-05-04 12:00,ZBYN 041200Z AUTO 22004KT 12SM 17/M04 A2994 RMK SLP142 T01701036 57011 IEM_DS3505
ZBYN,1995-05-04 13:00,ZBYN 041300Z AUTO 24008KT 7SM 15/01 A2994 RMK T01500010 IEM_DS3505
ZBYN,1995-05-04 14:00,ZBYN 041400Z AUTO 24006KT 7SM 15/M01 A2994 RMK T01501010 IEM_DS3505
ZBYN,1995-05-04 15:00,ZBYN 041500Z AUTO 22006KT 7SM 13/M05 A2994 RMK SLP135 T01341051 54000 IEM_DS3505
ZBYN,1995-05-04 16:00,ZBYN 041600Z AUTO 09006KT 7SM 09/01 A2994 RMK T00900010 IEM_DS3505
ZBYN,1995-05-04 17:00,ZBYN 041700Z AUTO 06004KT 7SM 08/00 A2997 RMK T00800000 IEM_DS3505
ZBYN,1995-05-04 18:00,ZBYN 041800Z AUTO 11006KT 6SM 08/M04 A2994 RMK SLP132 T00841037 57004 IEM_DS3505
ZBYN,1995-05-04 19:00,ZBYN 041900Z AUTO 10008KT 7SM 07/M01 A2991 RMK T00701010 IEM_DS3505
ZBYN,1995-05-04 20:00,ZBYN 042000Z AUTO 09006KT 7SM 06/M01 A2991 RMK T00601010 IEM_DS3505
ZBYN,1995-05-04 21:00,ZBYN 042100Z AUTO 14006KT 6SM 06/M04 A2991 RMK SLP130 T00581045 57004 IEM_DS3505
ZBYN,1995-05-04 22:00,ZBYN 042200Z AUTO 13008KT 7SM 06/M02 A2991 RMK T00601020 IEM_DS3505
ZBYN,1995-05-04 23:00,ZBYN 042300Z AUTO 12006KT 7SM 08/01 A2994 RMK T00800010 IEM_DS3505
ZBYN,1995-05-05 00:00,ZBYN 050000Z AUTO 11008KT 12SM 12/M03 A2994 RMK SLP131 T01151026 52004 IEM_DS3505
ZBYN,1995-05-05 01:00,ZBYN 050100Z AUTO 11004KT 7SM 16/01 A2994 RMK T01600010 IEM_DS3505
ZBYN,1995-05-05 02:00,ZBYN 050200Z AUTO 17004KT 7SM 19/00 A2991 RMK T01900000 IEM_DS3505
ZBYN,1995-05-05 03:00,ZBYN 050300Z AUTO 14008KT 9SM 21/M02 A2988 RMK SLP099 T02081019 57021 IEM_DS3505
ZBYN,1995-05-05 04:00,ZBYN 050400Z AUTO 00000KT 7SM 24/M03 A2985 RMK T02401030 IEM_DS3505
ZBYN,1995-05-05 05:00,ZBYN 050500Z AUTO 30008KT 6SM 26/M03 A2983 RMK T02601030 IEM_DS3505
ZBYN,1995-05-05 06:00,ZBYN 050600Z AUTO 32010KT 16SM 27/M08 A2978 RMK SLP068 T02711081 57027 IEM_DS3505
ZBYN,1995-05-05 07:00,ZBYN 050700Z AUTO 30016KT 6SM 27/M14 A2977 RMK T02701140 IEM_DS3505
ZBYN,1995-05-05 08:00,ZBYN 050800Z AUTO 30016KT 6SM 27/M14 A2974 RMK T02701140 IEM_DS3505
ZBYN,1995-05-05 09:00,ZBYN 050900Z AUTO 29010KT 16SM 26/M10 A2974 RMK SLP057 T02651104 57014 IEM_DS3505
ZBYN,1995-05-05 10:00,ZBYN 051000Z AUTO 29010KT 6SM 26/M16 A2974 RMK T02601160 IEM_DS3505
ZBYN,1995-05-05 11:00,ZBYN 051100Z AUTO 26012KT 6SM 24/M10 A2974 RMK T02401100 IEM_DS3505
ZBYN,1995-05-05 12:00,ZBYN 051200Z AUTO 25006KT 12SM 22/M04 A2977 RMK SLP062 T02201038 52006 IEM_DS3505
ZBYN,1995-05-05 13:00,ZBYN 051300Z AUTO 09004KT 6SM 18/M01 A2980 RMK T01801010 IEM_DS3505
ZBYN,1995-05-05 14:00,ZBYN 051400Z AUTO 12006KT 6SM 16/01 A2983 RMK T01600010 IEM_DS3505
ZBYN,1995-05-05 15:00,ZBYN 051500Z AUTO 07008KT 12SM 17/M02 A2983 RMK SLP073 T01671021 52016 IEM_DS3505
ZBYN,1995-05-05 16:00,ZBYN 051600Z AUTO 08006KT 6SM 14/03 A2983 RMK T01400030 IEM_DS3505
ZBYN,1995-05-05 17:00,ZBYN 051700Z AUTO 08008KT 6SM 14/03 A2983 RMK T01400030 IEM_DS3505
ZBYN,1995-05-05 18:00,ZBYN 051800Z AUTO 11008KT 12SM 13/02 A2983 RMK SLP071 T01320020 52002 IEM_DS3505
ZBYN,1995-05-05 19:00,ZBYN 051900Z AUTO 07006KT 6SM 11/02 A2983 RMK T01100020 IEM_DS3505
ZBYN,1995-05-05 20:00,ZBYN 052000Z AUTO 10006KT 6SM 10/02 A2983 RMK T01000020 IEM_DS3505
ZBYN,1995-05-05 21:00,ZBYN 052100Z AUTO 02004KT 9SM 09/03 A2983 RMK SLP082 T00910026 52003 IEM_DS3505
ZBYN,1995-05-05 22:00,ZBYN 052200Z AUTO 08004KT 6SM 08/02 A2985 RMK T00800020 IEM_DS3505
ZBYN,1995-05-05 23:00,ZBYN 052300Z AUTO 00000KT 6SM 09/03 A2988 RMK T00900030 IEM_DS3505
ZBYN,1995-05-06 00:00,ZBYN 060000Z AUTO 32004KT 6SM 14/04 A2991 RMK SLP104 T01380037 52021 IEM_DS3505
ZBYN,1995-05-06 01:00,ZBYN 060100Z AUTO 12006KT 6SM 20/04 A2991 RMK T02000040 IEM_DS3505
ZBYN,1995-05-06 02:00,ZBYN 060200Z AUTO 09004KT 7SM 23/05 A2991 RMK T02300050 IEM_DS3505
ZBYN,1995-05-06 03:00,ZBYN 060300Z AUTO 14006KT 5SM 23/M01 A2991 RMK SLP108 T02281008 52009 IEM_DS3505
ZBYN,1995-05-06 04:00,ZBYN 060400Z AUTO 11004KT 7SM 26/08 A2991 RMK T02600080 IEM_DS3505
ZBYN,1995-05-06 05:00,ZBYN 060500Z AUTO 09008KT 7SM 28/07 A2988 RMK T02800070 IEM_DS3505
ZBYN,1995-05-06 06:00,ZBYN 060600Z AUTO 11008KT 6SM 26/ A2985 RMK SLP091 57016 IEM_DS3505
ZBYN,1995-05-06 07:00,ZBYN 060700Z AUTO 13006KT 7SM 29/08 A2985 RMK T02900080 IEM_DS3505
ZBYN,1995-05-06 08:00,ZBYN 060800Z AUTO 13004KT 7SM 28/08 A2983 RMK T02800080 IEM_DS3505
ZBYN,1995-05-06 09:00,ZBYN 060900Z AUTO 14004KT 7SM 26/ A2983 RMK 57011 IEM_DS3505
ZBYN,1995-05-06 10:00,ZBYN 061000Z AUTO 06006KT 6SM 26/07 A2983 RMK T02600070 IEM_DS3505
ZBYN,1995-05-06 11:00,ZBYN 061100Z AUTO 08008KT 6SM 23/06 A2985 RMK T02300060 IEM_DS3505
ZBYN,1995-05-06 12:00,ZBYN 061200Z AUTO 09010KT 7SM 22/M01 A2988 RMK SLP098 T02201013 52012 IEM_DS3505
ZBYN,1995-05-06 13:00,ZBYN 061300Z AUTO 06012KT 7SM 20/05 A2991 RMK T02000050 IEM_DS3505
ZBYN,1995-05-06 15:00,ZBYN 061500Z AUTO 00000KT 6SM 16/03 A2994 RMK SLP113 T01590031 52018 IEM_DS3505
ZBYN,1995-05-06 16:00,ZBYN 061600Z AUTO 05006KT 7SM 16/06 A2994 RMK T01600060 IEM_DS3505
ZBYN,1995-05-06 17:00,ZBYN 061700Z AUTO 07006KT 7SM 14/06 A2994 RMK T01400060 IEM_DS3505
ZBYN,1995-05-06 18:00,ZBYN 061800Z AUTO 34004KT 6SM 12/04 A2994 RMK SLP115 T01210038 52002 IEM_DS3505
ZBYN,1995-05-06 19:00,ZBYN 061900Z AUTO 00000KT 7SM 12/06 A2994 RMK T01200060 IEM_DS3505
ZBYN,1995-05-06 20:00,ZBYN 062000Z AUTO 00000KT 7SM 11/07 A2994 RMK T01100070 IEM_DS3505
ZBYN,1995-05-06 21:00,ZBYN 062100Z AUTO 00000KT 6SM 10/04 A2994 RMK SLP116 T01010038 57003 IEM_DS3505
ZBYN,1995-05-06 22:00,ZBYN 062200Z AUTO 00000KT 7SM 09/05 A2994 RMK T00900050 IEM_DS3505
ZBYN,1995-05-06 23:00,ZBYN 062300Z AUTO 00000KT 7SM 10/06 A2994 RMK T01000060 IEM_DS3505
ZBYN,1995-05-07 00:00,ZBYN 070000Z AUTO 36002KT 5SM 14/04 A2994 RMK SLP122 T01440037 52006 IEM_DS3505
ZBYN,1995-05-07 01:00,ZBYN 070100Z AUTO 11002KT 5SM 19/06 A2994 RMK T01900060 IEM_DS3505
ZBYN,1995-05-07 02:00,ZBYN 070200Z AUTO 18004KT 5SM 20/08 A2991 RMK T02000080 IEM_DS3505
ZBYN,1995-05-07 03:00,ZBYN 070300Z AUTO 18008KT 6SM 22/04 A2991 RMK SLP106 T02150045 57013 IEM_DS3505
ZBYN,1995-05-07 04:00,ZBYN 070400Z AUTO 22006KT 7SM 25/04 A2988 RMK T02500040 IEM_DS3505
ZBYN,1995-05-07 05:00,ZBYN 070500Z AUTO 20010KT 7SM 27/07 A2983 RMK T02700070 IEM_DS3505
ZBYN,1995-05-07 06:00,ZBYN 070600Z AUTO 16012KT 6SM 27/05 A2980 RMK SLP067 T02720046 57033 IEM_DS3505
ZBYN,1995-05-07 07:00,ZBYN 070700Z AUTO 22010KT 6SM 30/04 A2977 RMK T03000040 IEM_DS3505
ZBYN,1995-05-07 08:00,ZBYN 070800Z AUTO 23006KT 6SM 30/06 A2974 RMK T03000060 IEM_DS3505
ZBYN,1995-05-07 09:00,ZBYN 070900Z AUTO 29008KT 9SM 32/M01 A2971 RMK SLP033 T03211010 57027 IEM_DS3505
ZBYN,1995-05-07 10:00,ZBYN 071000Z AUTO 21010KT 6SM 31/01 A2971 RMK T03100010 IEM_DS3505
ZBYN,1995-05-07 11:00,ZBYN 071100Z AUTO 21010KT 7SM 28/02 A2971 RMK T02800020 IEM_DS3505
ZBYN,1995-05-07 12:00,ZBYN 071200Z AUTO 22012KT 6SM 27/00 A2971 RMK SLP029 T02680000 57008 IEM_DS3505
ZBYN,1995-05-07 13:00,ZBYN 071300Z AUTO 22014KT 6SM 25/01 A2971 RMK T02500010 IEM_DS3505
ZBYN,1995-05-07 14:00,ZBYN 071400Z AUTO 22014KT 6SM 25/01 A2971 RMK T02500010 IEM_DS3505
ZBYN,1995-05-07 15:00,ZBYN 071500Z AUTO 36004KT 6SM 24/03 A2974 RMK SLP027 T02440032 52005 IEM_DS3505
ZBYN,1995-05-07 16:00,ZBYN 071600Z AUTO 36004KT 7SM 22/M01 A2974 RMK T02201010 IEM_DS3505
ZBYN,1995-05-07 17:00,ZBYN 071700Z AUTO 09006KT 7SM 20/M02 A2974 RMK T02001020 IEM_DS3505
ZBYN,1995-05-07 18:00,ZBYN 071800Z AUTO 11006KT 6SM 17/05 A2974 RMK SLP031 T01730052 52001 IEM_DS3505
ZBYN,1995-05-07 19:00,ZBYN 071900Z AUTO 00000KT 7SM 17/M01 A2971 RMK T01701010 IEM_DS3505
ZBYN,1995-05-07 20:00,ZBYN 072000Z AUTO 10004KT 7SM 16/01 A2971 RMK T01600010 IEM_DS3505
ZBYN,1995-05-07 21:00,ZBYN 072100Z AUTO 14004KT 6SM 13/06 A2971 RMK SLP024 T01330063 57005 IEM_DS3505
ZBYN,1995-05-07 22:00,ZBYN 072200Z AUTO 09006KT 7SM 15/05 A2971 RMK T01500050 IEM_DS3505
ZBYN,1995-05-07 23:00,ZBYN 072300Z AUTO 11004KT 7SM 16/07 A2971 RMK T01600070 IEM_DS3505
ZBYN,1995-05-08 00:00,ZBYN 080000Z AUTO 18002KT 6SM 17/07 A2971 RMK SLP027 T01700068 52001 IEM_DS3505
ZBYN,1995-05-08 01:00,ZBYN 080100Z AUTO 18006KT 7SM 23/08 A2971 RMK T02300080 IEM_DS3505
ZBYN,1995-05-08 02:00,ZBYN 080200Z AUTO 17010KT 6SM 25/05 A2968 RMK T02500050 IEM_DS3505
ZBYN,1995-05-08 03:00,ZBYN 080300Z AUTO 18012KT 6SM 27/05 A2965 RMK SLP001 T02680046 57014 IEM_DS3505
ZBYN,1995-05-08 04:00,ZBYN 080400Z AUTO 19010KT 6SM 30/07 A2962 RMK T03000070 IEM_DS3505
ZBYN,1995-05-08 05:00,ZBYN 080500Z AUTO 21017KT 6SM 31/07 A2956 RMK T03100070 IEM_DS3505
ZBYN,1995-05-08 06:00,ZBYN 080600Z AUTO 22014KT 6SM 31/06 A2955 RMK SLP969 T03120065 57033 IEM_DS3505
ZBYN,1995-05-08 08:00,ZBYN 080800Z AUTO 23012KT 7SM 31/01 A2950 RMK T03100010 IEM_DS3505
ZBYN,1995-05-08 09:00,ZBYN 080900Z AUTO 29010KT 7SM 29/02 RMK SLP974 T02900021 57004 IEM_DS3505
ZBYN,1995-05-08 10:00,ZBYN 081000Z AUTO 30012KT 7SM 28/02 A2956 RMK T02800020 IEM_DS3505
ZBYN,1995-05-08 11:00,ZBYN 081100Z AUTO 31004KT 7SM 26/08 A2959 RMK T02600080 IEM_DS3505
ZBYN,1995-05-08 12:00,ZBYN 081200Z AUTO 34002KT 6SM 26/06 A2962 RMK SLP997 T02550055 52021 IEM_DS3505
ZBYN,1995-05-08 15:00,ZBYN 081500Z AUTO 34004KT 6SM 18/09 A2968 RMK SLP013 T01850092 52019 IEM_DS3505
ZBYN,1995-05-08 16:00,ZBYN 081600Z AUTO 31008KT 7SM 19/10 A2968 RMK T01900100 IEM_DS3505
ZBYN,1995-05-08 17:00,ZBYN 081700Z AUTO 22004KT 7SM 18/10 A2968 RMK T01800100 IEM_DS3505
ZBYN,1995-05-08 18:00,ZBYN 081800Z AUTO 34004KT 6SM 18/08 A2968 RMK SLP009 T01790085 52001 IEM_DS3505
ZBYN,1995-05-08 20:00,ZBYN 082000Z AUTO 31012KT 7SM 18/05 A2968 RMK T01800050 IEM_DS3505
ZBYN,1995-05-08 21:00,ZBYN 082100Z AUTO 29006KT 6SM 16/04 A2968 RMK SLP019 T01620039 52004 IEM_DS3505
ZBYN,1995-05-08 22:00,ZBYN 082200Z AUTO 29017KT 7SM 17/03 A2977 RMK T01700030 IEM_DS3505
ZBYN,1995-05-08 23:00,ZBYN 082300Z AUTO 35023KT 7SM 11/03 A2983 RMK T01100030 IEM_DS3505
ZBYN,1995-05-09 00:00,ZBYN 090000Z AUTO 02008KT 9SM 12/02 A2988 RMK SLP105 T01150022 52067 IEM_DS3505
ZBYN,1995-05-09 01:00,ZBYN 090100Z AUTO 36019KT 7SM 13/01 A2991 RMK T01300010 IEM_DS3505
ZBYN,1995-05-09 02:00,ZBYN 090200Z AUTO 36012KT 7SM 14/01 A2994 RMK T01400010 IEM_DS3505
ZBYN,1995-05-09 03:00,ZBYN 090300Z AUTO 02010KT 11SM 15/00 A2994 RMK SLP122 T01530000 52011 IEM_DS3505
ZBYN,1995-05-09 04:00,ZBYN 090400Z AUTO 32016KT 7SM 16/M01 A2991 RMK T01601010 IEM_DS3505
ZBYN,1995-05-09 05:00,ZBYN 090500Z AUTO 31012KT 7SM 15/00 A2991 RMK T01500000 IEM_DS3505
ZBYN,1995-05-09 06:00,ZBYN 090600Z AUTO 34016KT 11SM 15/M01 A2994 RMK SLP125 T01501012 52002 IEM_DS3505
ZBYN,1995-05-09 07:00,ZBYN 090700Z AUTO 30012KT 7SM 17/M03 A2994 RMK T01701030 IEM_DS3505
ZBYN,1995-05-09 08:00,ZBYN 090800Z AUTO 02014KT 7SM 18/M04 A2994 RMK T01801040 IEM_DS3505
ZBYN,1995-05-09 09:00,ZBYN 090900Z AUTO 20010KT 19SM 15/M03 A2994 RMK SLP131 T01511029 52003 IEM_DS3505
ZBYN,1995-05-09 10:00,ZBYN 091000Z AUTO 02012KT 7SM 15/M02 A2997 RMK T01501020 IEM_DS3505
ZBYN,1995-05-09 11:00,ZBYN 091100Z AUTO 30016KT 7SM 15/M09 A3000 RMK T01501090 IEM_DS3505
ZBYN,1995-05-09 12:00,ZBYN 091200Z AUTO 32010KT 12SM 13/M08 A3003 RMK SLP165 T01291082 52021 IEM_DS3505
ZBYN,1995-05-09 13:00,ZBYN 091300Z AUTO 32008KT 7SM 11/M04 A3006 RMK T01101040 IEM_DS3505
ZBYN,1995-05-09 14:00,ZBYN 091400Z AUTO 32006KT 7SM 11/M05 A3009 RMK T01101050 IEM_DS3505
ZBYN,1995-05-09 15:00,ZBYN 091500Z AUTO 00000KT 12SM 10/M02 A3009 RMK SLP184 T00981023 52018 IEM_DS3505
ZBYN,1995-05-09 16:00,ZBYN 091600Z AUTO 12004KT 7SM 07/M01 A3009 RMK T00701010 IEM_DS3505
ZBYN,1995-05-09 17:00,ZBYN 091700Z AUTO 10004KT 7SM 06/M01 A3009 RMK T00601010 IEM_DS3505
ZBYN,1995-05-09 18:00,ZBYN 091800Z AUTO 07004KT 11SM 05/M02 A3009 RMK SLP196 T00541019 52004 IEM_DS3505
ZBYN,1995-05-09 19:00,ZBYN 091900Z AUTO 09004KT 7SM 05/M02 A3009 RMK T00501020 IEM_DS3505
ZBYN,1995-05-09 20:00,ZBYN 092000Z AUTO 00000KT 7SM 05/M02 A3009 RMK T00501020 IEM_DS3505
ZBYN,1995-05-09 21:00,ZBYN 092100Z AUTO 14006KT 9SM 02/M02 A3009 RMK SLP203 T00161020 52001 IEM_DS3505
ZBYN,1995-05-09 22:00,ZBYN 092200Z AUTO 12004KT 7SM 02/M02 A3009 RMK T00201020 IEM_DS3505
ZBYN,1995-05-09 23:00,ZBYN 092300Z AUTO 12002KT 7SM 05/M02 A3012 RMK T00501020 IEM_DS3505
ZBYN,1995-05-10 00:00,ZBYN 100000Z AUTO 14004KT 9SM 08/M02 A3012 RMK SLP203 T00801023 52006 IEM_DS3505
ZBYN,1995-05-10 01:00,ZBYN 100100Z AUTO 20006KT 7SM 12/M02 A3009 RMK T01201020 IEM_DS3505
ZBYN,1995-05-10 02:00,ZBYN 100200Z AUTO 19010KT 7SM 14/M05 A3009 RMK T01401050 IEM_DS3505
ZBYN,1995-05-10 03:00,ZBYN 100300Z AUTO 16010KT 11SM 15/M06 A3006 RMK SLP180 T01511065 57015 IEM_DS3505
ZBYN,1995-05-10 04:00,ZBYN 100400Z AUTO 17006KT 6SM 17/M05 A3003 RMK T01701050 IEM_DS3505
ZBYN,1995-05-10 05:00,ZBYN 100500Z AUTO 00000KT 6SM 17/M09 A2997 RMK T01701090 IEM_DS3505
ZBYN,1995-05-10 06:00,ZBYN 100600Z AUTO 18014KT 12SM 17/M06 A2994 RMK SLP140 T01711065 57040 IEM_DS3505
ZBYN,1995-05-10 07:00,ZBYN 100700Z AUTO 22010KT 6SM 19/M10 A2988 RMK T01901100 IEM_DS3505
ZBYN,1995-05-10 08:00,ZBYN 100800Z AUTO 22010KT 6SM 19/M08 A2988 RMK T01901080 IEM_DS3505
ZBYN,1995-05-10 09:00,ZBYN 100900Z AUTO 20010KT 12SM 18/M10 A2983 RMK SLP115 T01791099 57027 IEM_DS3505
ZBYN,1995-05-10 10:00,ZBYN 101000Z AUTO 20006KT 6SM 19/M10 A2980 RMK T01901100 IEM_DS3505
ZBYN,1995-05-10 11:00,ZBYN 101100Z AUTO 16004KT 6SM 17/M04 A2980 RMK T01701040 IEM_DS3505
ZBYN,1995-05-10 12:00,ZBYN 101200Z AUTO 14006KT 6SM 15/M07 A2980 RMK SLP087 T01521066 57020 IEM_DS3505
ZBYN,1995-05-10 13:00,ZBYN 101300Z AUTO 22006KT 6SM 16/M07 A2980 RMK T01601070 IEM_DS3505
ZBYN,1995-05-10 14:00,ZBYN 101400Z AUTO 00000KT 6SM 15/01 A2983 RMK T01500010 IEM_DS3505
ZBYN,1995-05-10 15:00,ZBYN 101500Z AUTO 20006KT 6SM 15/M05 A2980 RMK SLP080 T01541047 52004 IEM_DS3505
ZBYN,1995-05-10 16:00,ZBYN 101600Z AUTO 15006KT 6SM 14/M01 A2980 RMK T01401010 IEM_DS3505
ZBYN,1995-05-10 17:00,ZBYN 101700Z AUTO 09006KT 6SM 12/00 A2977 RMK T01200000 IEM_DS3505
ZBYN,1995-05-10 18:00,ZBYN 101800Z AUTO 14006KT 6SM 12/M04 A2977 RMK SLP066 T01191038 57015 IEM_DS3505
ZBYN,1995-05-10 19:00,ZBYN 101900Z AUTO 08006KT 7SM 10/M02 A2977 RMK T01001020 IEM_DS3505
ZBYN,1995-05-10 20:00,ZBYN 102000Z AUTO 15006KT 6SM 10/00 A2974 RMK T01000000 IEM_DS3505
ZBYN,1995-05-10 21:00,ZBYN 102100Z AUTO 09006KT 6SM 09/M03 A2974 RMK SLP064 T00941031 57004 IEM_DS3505
ZBYN,1995-05-10 22:00,ZBYN 102200Z AUTO 00000KT 6SM 09/02 A2974 RMK T00900020 IEM_DS3505
ZBYN,1995-05-11 00:00,ZBYN 110000Z AUTO 14006KT 6SM 13/M00 A2977 RMK SLP070 T01321004 52007 IEM_DS3505
ZBYN,1995-05-11 01:00,ZBYN 110100Z AUTO 18006KT 7SM 16/02 A2977 RMK T01600020 IEM_DS3505
ZBYN,1995-05-11 02:00,ZBYN 110200Z AUTO 19008KT 6SM 18/01 A2977 RMK T01800010 IEM_DS3505
ZBYN,1995-05-11 03:00,ZBYN 110300Z AUTO 20014KT 6SM 19/01 A2974 RMK SLP058 T01890006 57002 IEM_DS3505
ZBYN,1995-05-11 04:00,ZBYN 110400Z AUTO 21008KT 6SM 21/03 A2974 RMK T02100030 IEM_DS3505
ZBYN,1995-05-11 05:00,ZBYN 110500Z AUTO 19004KT 6SM 23/05 A2971 RMK T02300050 IEM_DS3505
ZBYN,1995-05-11 06:00,ZBYN 110600Z AUTO 16006KT 6SM 23/03 A2965 RMK SLP026 T02310034 57029 IEM_DS3505
ZBYN,1995-05-11 07:00,ZBYN 110700Z AUTO 24008KT 6SM 25/04 A2962 RMK T02500040 IEM_DS3505
ZBYN,1995-05-11 08:00,ZBYN 110800Z AUTO 00000KT 6SM 26/05 A2959 RMK T02600050 IEM_DS3505
ZBYN,1995-05-11 09:00,ZBYN 110900Z AUTO 18006KT 6SM 26/05 A2959 RMK SLP001 T02560048 57022 IEM_DS3505
ZBYN,1995-05-11 10:00,ZBYN 111000Z AUTO 00000KT 6SM 25/13 A2959 RMK T02500130 IEM_DS3505
ZBYN,1995-05-11 11:00,ZBYN 111100Z AUTO 05004KT 7SM 23/11 A2962 RMK T02300110 IEM_DS3505
ZBYN,1995-05-11 12:00,ZBYN 111200Z AUTO 00000KT 6SM 22/08 A2962 RMK SLP017 T02200077 52014 IEM_DS3505
ZBYN,1995-05-11 13:00,ZBYN 111300Z AUTO 12010KT 7SM 20/09 A2965 RMK T02000090 IEM_DS3505
ZBYN,1995-05-11 14:00,ZBYN 111400Z AUTO 09010KT 7SM 19/08 A2971 RMK T01900080 IEM_DS3505
ZBYN,1995-05-11 15:00,ZBYN 111500Z AUTO 18008KT 6SM 20/06 A2968 RMK SLP029 T01960062 52016 IEM_DS3505
ZBYN,1995-05-11 16:00,ZBYN 111600Z AUTO 10010KT 6SM 18/09 A2971 RMK T01800090 IEM_DS3505
ZBYN,1995-05-11 17:00,ZBYN 111700Z AUTO 14006KT 6SM 12/M04 A2971 RMK SLP066 T01191038 57015 IEM_DS3505
ZBYN,1995-05-11 18:00,ZBYN 111800Z AUTO 14006KT 6SM 12/M04 A2968 RMK SLP066 T01191038 57015 IEM_DS3505
ZBYN,1995-05-11 19:00,ZBYN 111900Z AUTO 09006KT 6SM 17/09 A2968 RMK T01700090 IEM_DS3505
ZBYN,1995-05-11 20:00,ZBYN 112000Z AUTO 08006KT 6SM 16/09 A2968 RMK T01600090 IEM_DS3505
ZBYN,1995-05-11 21:00,ZBYN 112100Z AUTO 25004KT 6SM 15/08 A2971 RMK SLP027 T01540084 57002 IEM_DS3505
ZBYN,1995-05-11 22:00,ZBYN 112200Z AUTO 11006KT 6SM 15/10 A2971 RMK T01500100 IEM_DS3505
ZBYN,1995-05-11 23:00,ZBYN 112300Z AUTO 12004KT 6SM 15/10 A2974 RMK T01500100 IEM_DS3505
ZBYN,1995-05-12 00:00,ZBYN 120000Z AUTO 18006KT 6SM 16/09 A2974 RMK SLP050 T01580093 52016 IEM_DS3505
ZBYN,1995-05-12 01:00,ZBYN 120100Z AUTO 12008KT 7SM 18/11 A2977 RMK T01800110 IEM_DS3505
ZBYN,1995-05-12 02:00,ZBYN 120200Z AUTO 17006KT 7SM 19/10 A2974 RMK T01900100 IEM_DS3505
ZBYN,1995-05-12 03:00,ZBYN 120300Z AUTO 20008KT 5SM 18/09 A2977 RMK SLP048 T01810089 57002 IEM_DS3505
ZBYN,1995-05-12 04:00,ZBYN 120400Z AUTO 19014KT 6SM 21/10 A2974 RMK T02100100 IEM_DS3505
ZBYN,1995-05-12 06:00,ZBYN 120600Z AUTO 22014KT 7SM 24/09 A2968 RMK SLP020 T02370092 57020 IEM_DS3505
ZBYN,1995-05-12 07:00,ZBYN 120700Z AUTO 21017KT 7SM 25/08 A2965 RMK T02500080 IEM_DS3505
ZBYN,1995-05-12 08:00,ZBYN 120800Z AUTO 20023KT 7SM 25/08 A2962 RMK T02500080 IEM_DS3505
ZBYN,1995-05-12 09:00,ZBYN 120900Z AUTO 22012KT 6SM 24/08 A2962 RMK SLP007 T02390085 57015 IEM_DS3505
ZBYN,1995-05-12 10:00,ZBYN 121000Z AUTO 22016KT 4SM 23/09 A2962 RMK T02300090 IEM_DS3505
ZBYN,1995-05-12 11:00,ZBYN 121100Z AUTO 23021KT 4SM 21/08 A2965 RMK T02100080 IEM_DS3505
ZBYN,1995-05-12 12:00,ZBYN 121200Z AUTO 20016KT 6SM 19/09 A2965 RMK SLP025 T01860094 52010 IEM_DS3505
ZBYN,1995-05-12 14:00,ZBYN 121400Z AUTO 18006KT 5SM 17/10 A2971 RMK T01700100 IEM_DS3505
ZBYN,1995-05-12 15:00,ZBYN 121500Z AUTO 32019KT 4SM 22/ A2974 RMK SLP050 52030 IEM_DS3505
ZBYN,1995-05-12 16:00,ZBYN 121600Z AUTO 20012KT 4SM 17/09 A2974 RMK T01700090 IEM_DS3505
ZBYN,1995-05-12 18:00,ZBYN 121800Z AUTO 27006KT 4SM 19/M01 A2974 RMK SLP040 T01871011 40255//// 57005 IEM_DS3505
ZBYN,1995-05-12 19:00,ZBYN 121900Z AUTO 27008KT 4SM 18/M02 A2974 RMK T01801020 IEM_DS3505
ZBYN,1995-05-12 20:00,ZBYN 122000Z AUTO 30012KT 4SM 17/M02 A2974 RMK T01701020 IEM_DS3505
ZBYN,1995-05-12 21:00,ZBYN 122100Z AUTO 29008KT 6SM 16/01 A2974 RMK SLP041 T01570007 57003 IEM_DS3505
ZBYN,1995-05-12 22:00,ZBYN 122200Z AUTO 28006KT 5SM 15/01 A2977 RMK T01500010 IEM_DS3505
ZBYN,1995-05-12 23:00,ZBYN 122300Z AUTO 28006KT 7SM 16/02 A2980 RMK T01600020 IEM_DS3505
ZBYN,1995-05-13 00:00,ZBYN 130000Z AUTO 29008KT 6SM 16/05 A2980 RMK SLP070 T01590053 52019 IEM_DS3505
ZBYN,1995-05-13 01:00,ZBYN 130100Z AUTO 30012KT 7SM 17/04 A2983 RMK T01700040 IEM_DS3505
ZBYN,1995-05-13 02:00,ZBYN 130200Z AUTO 30014KT 7SM 17/04 A2983 RMK T01700040 IEM_DS3505
ZBYN,1995-05-13 03:00,ZBYN 130300Z AUTO 29012KT 7SM 18/05 A2983 RMK SLP076 T01800046 52012 IEM_DS3505
ZBYN,1995-05-13 04:00,ZBYN 130400Z AUTO 35004KT 7SM 18/06 A2985 RMK T01800060 IEM_DS3505
ZBYN,1995-05-13 05:00,ZBYN 130500Z AUTO 34006KT 7SM 19/05 A2983 RMK T01900050 IEM_DS3505
ZBYN,1995-05-13 06:00,ZBYN 130600Z AUTO 36012KT 12SM 20/04 A2983 RMK SLP078 T01980040 52001 IEM_DS3505
ZBYN,1995-05-13 07:00,ZBYN 130700Z AUTO 30019KT 7SM 20/04 A2983 RMK T02000040 IEM_DS3505
ZBYN,1995-05-13 08:00,ZBYN 130800Z AUTO 29017KT 7SM 19/04 A2985 RMK T01900040 IEM_DS3505
ZBYN,1995-05-13 09:00,ZBYN 130900Z AUTO 32008KT 12SM 19/05 A2985 RMK SLP089 T01890046 52011 IEM_DS3505
ZBYN,1995-05-13 10:00,ZBYN 131000Z AUTO 30008KT 7SM 19/05 A2985 RMK T01900050 IEM_DS3505
ZBYN,1995-05-13 11:00,ZBYN 131100Z AUTO 30008KT 7SM 19/05 A2985 RMK T01900050 IEM_DS3505
ZBYN,1995-05-13 12:00,ZBYN 131200Z AUTO 34010KT 9SM 16/08 A2991 RMK 60000 SLP117 T01580082 52022 IEM_DS3505
ZBYN,1995-05-13 13:00,ZBYN 131300Z AUTO 30012KT 7SM 15/08 A2994 RMK T01500080 IEM_DS3505
ZBYN,1995-05-13 14:00,ZBYN 131400Z AUTO 32012KT 7SM 16/06 A2997 RMK T01600060 IEM_DS3505
ZBYN,1995-05-13 15:00,ZBYN 131500Z AUTO 34004KT 9SM 14/08 A2997 RMK SLP138 T01430077 52020 IEM_DS3505
ZBYN,1995-05-13 16:00,ZBYN 131600Z AUTO 35008KT 7SM 15/06 A2997 RMK T01500060 IEM_DS3505
ZBYN,1995-05-13 17:00,ZBYN 131700Z AUTO 00000KT 7SM 13/09 A2997 RMK T01300090 IEM_DS3505
ZBYN,1995-05-13 18:00,ZBYN 131800Z AUTO 32002KT 9SM 12/07 A2997 RMK 60004 SLP139 T01220070 54000 IEM_DS3505
ZBYN,1995-05-13 19:00,ZBYN 131900Z AUTO 00000KT 6SM 09/08 A2997 RMK T00900080 IEM_DS3505
ZBYN,1995-05-13 20:00,ZBYN 132000Z AUTO 00000KT 6SM 08/07 A2997 RMK T00800070 IEM_DS3505
ZBYN,1995-05-13 21:00,ZBYN 132100Z AUTO 07004KT 4SM 08/07 A2997 RMK 70004 SLP143 T00750067 57004 IEM_DS3505
ZBYN,1995-05-13 22:00,ZBYN 132200Z AUTO 07004KT 6SM 07/05 A2997 RMK T00700050 IEM_DS3505
ZBYN,1995-05-13 23:00,ZBYN 132300Z AUTO 09004KT 6SM 09/04 A3000 RMK T00900040 IEM_DS3505
ZBYN,1995-05-14 00:00,ZBYN 140000Z AUTO 16004KT 4SM 13/08 A3000 RMK 70004 SLP152 T01260075 52011 IEM_DS3505
ZBYN,1995-05-14 01:00,ZBYN 140100Z AUTO 00000KT 7SM 15/07 A3000 RMK T01500070 IEM_DS3505
ZBYN,1995-05-14 02:00,ZBYN 140200Z AUTO 34006KT 7SM 19/03 A3000 RMK T01900030 IEM_DS3505
ZBYN,1995-05-14 03:00,ZBYN 140300Z AUTO 34010KT 9SM 20/02 A2997 RMK SLP141 T02050021 57001 IEM_DS3505
ZBYN,1995-05-14 04:00,ZBYN 140400Z AUTO 36016KT 7SM 23/00 A2997 RMK T02300000 IEM_DS3505
ZBYN,1995-05-14 05:00,ZBYN 140500Z AUTO 29010KT 7SM 24/M01 A2994 RMK T02401010 IEM_DS3505
ZBYN,1995-05-14 06:00,ZBYN 140600Z AUTO 04008KT 12SM 24/M05 A2991 RMK SLP114 T02361051 57023 IEM_DS3505
ZBYN,1995-05-14 07:00,ZBYN 140700Z AUTO 01010KT 7SM 25/M05 A2988 RMK T02501050 IEM_DS3505
ZBYN,1995-05-14 08:00,ZBYN 140800Z AUTO 30008KT 7SM 25/M06 A2985 RMK T02501060 IEM_DS3505
ZBYN,1995-05-14 09:00,ZBYN 140900Z AUTO 36008KT 12SM 24/M05 A2985 RMK SLP099 T02431046 57020 IEM_DS3505
ZBYN,1995-05-14 10:00,ZBYN 141000Z AUTO 34008KT 7SM 23/M02 A2985 RMK T02301020 IEM_DS3505
ZBYN,1995-05-14 11:00,ZBYN 141100Z AUTO 27019KT 7SM 21/M02 A2988 RMK T02101020 IEM_DS3505
ZBYN,1995-05-14 12:00,ZBYN 141200Z AUTO 25008KT 12SM 20/M01 A2988 RMK SLP106 T01981013 52008 IEM_DS3505
ZBYN,1995-05-14 13:00,ZBYN 141300Z AUTO 27006KT 7SM 19/M01 A2991 RMK T01901010 IEM_DS3505
ZBYN,1995-05-14 14:00,ZBYN 141400Z AUTO 11004KT 7SM 16/M04 A2991 RMK T01601040 IEM_DS3505
ZBYN,1995-05-14 15:00,ZBYN 141500Z AUTO 18004KT 6SM 13/03 A2991 RMK SLP114 T01300026 52009 IEM_DS3505
ZBYN,1995-05-14 17:00,ZBYN 141700Z AUTO 00000KT 7SM 11/04 A2991 RMK T01100040 IEM_DS3505
ZBYN,1995-05-14 18:00,ZBYN 141800Z AUTO 00000KT 6SM 12/01 A2991 RMK SLP112 T01170007 54000 IEM_DS3505
ZBYN,1995-05-14 19:00,ZBYN 141900Z AUTO 00000KT 7SM 09/06 A2991 RMK T00900060 IEM_DS3505
ZBYN,1995-05-14 20:00,ZBYN 142000Z AUTO 14002KT 7SM 08/05 A2991 RMK T00800050 IEM_DS3505
ZBYN,1995-05-14 21:00,ZBYN 142100Z AUTO 00000KT 6SM 07/03 A2991 RMK SLP116 T00690028 57002 IEM_DS3505
ZBYN,1995-05-14 22:00,ZBYN 142200Z AUTO 00000KT 7SM 07/05 A2991 RMK T00700050 IEM_DS3505
ZBYN,1995-05-14 23:00,ZBYN 142300Z AUTO 00000KT 5SM 09/02 A2991 RMK T00900020 IEM_DS3505
ZBYN,1995-05-15 00:00,ZBYN 150000Z AUTO 16004KT 5SM 13/02 A2991 RMK SLP114 T01260023 54000 IEM_DS3505
ZBYN,1995-05-15 01:00,ZBYN 150100Z AUTO 00000KT 7SM 17/02 A2991 RMK T01700020 IEM_DS3505
ZBYN,1995-05-15 02:00,ZBYN 150200Z AUTO 19004KT 7SM 19/04 A2988 RMK T01900040 IEM_DS3505
ZBYN,1995-05-15 03:00,ZBYN 150300Z AUTO 16008KT 5SM 21/02 A2985 RMK SLP097 T02090022 57013 IEM_DS3505
ZBYN,1995-05-15 06:00,ZBYN 150600Z AUTO 18008KT 7SM 26/M02 A2977 RMK SLP060 T02571018 57029 IEM_DS3505
ZBYN,1995-05-15 07:00,ZBYN 150700Z AUTO 18004KT 7SM 26/M04 A2974 RMK T02601040 IEM_DS3505
ZBYN,1995-05-15 08:00,ZBYN 150800Z AUTO 19006KT 7SM 26/02 A2971 RMK T02600020 IEM_DS3505
ZBYN,1995-05-15 09:00,ZBYN 150900Z AUTO 18006KT 7SM 26/01 A2971 RMK SLP041 T02600010 57024 IEM_DS3505
ZBYN,1995-05-15 10:00,ZBYN 151000Z AUTO 19006KT 7SM 26/05 A2968 RMK T02600050 IEM_DS3505
ZBYN,1995-05-15 12:00,ZBYN 151200Z AUTO 00000KT 6SM 21/04 A2971 RMK SLP044 T02130042 52004 IEM_DS3505
ZBYN,1995-05-15 13:00,ZBYN 151300Z AUTO 10006KT 7SM 18/04 A2974 RMK T01800040 IEM_DS3505
ZBYN,1995-05-15 14:00,ZBYN 151400Z AUTO 16004KT 7SM 17/03 A2977 RMK T01700030 IEM_DS3505
ZBYN,1995-05-15 15:00,ZBYN 151500Z AUTO 00000KT 6SM 16/04 A2977 RMK SLP057 T01650035 52017 IEM_DS3505
ZBYN,1995-05-15 16:00,ZBYN 151600Z AUTO 17004KT 7SM 16/03 A2977 RMK T01600030 IEM_DS3505
ZBYN,1995-05-15 17:00,ZBYN 151700Z AUTO 15004KT 7SM 15/04 A2977 RMK T01500040 IEM_DS3505
ZBYN,1995-05-15 18:00,ZBYN 151800Z AUTO 00000KT 6SM 11/04 A2977 RMK SLP057 T01110043 57001 IEM_DS3505
ZBYN,1995-05-15 19:00,ZBYN 151900Z AUTO 10006KT 7SM 12/03 A2974 RMK T01200030 IEM_DS3505
ZBYN,1995-05-15 20:00,ZBYN 152000Z AUTO 00000KT 7SM 11/02 A2974 RMK T01100020 IEM_DS3505
ZBYN,1995-05-15 21:00,ZBYN 152100Z AUTO 00000KT 6SM 10/04 A2974 RMK SLP055 T00970038 57004 IEM_DS3505
ZBYN,1995-05-15 22:00,ZBYN 152200Z AUTO 00000KT 7SM 10/05 A2974 RMK T01000050 IEM_DS3505
ZBYN,1995-05-15 23:00,ZBYN 152300Z AUTO 00000KT 6SM 12/05 A2974 RMK T01200050 IEM_DS3505
ZBYN,1995-05-16 00:00,ZBYN 160000Z AUTO 00000KT 6SM 16/05 A2977 RMK SLP053 T01560046 52001 IEM_DS3505
ZBYN,1995-05-16 01:00,ZBYN 160100Z AUTO 15008KT 6SM 20/06 A2977 RMK T02000060 IEM_DS3505
ZBYN,1995-05-16 02:00,ZBYN 160200Z AUTO 18008KT 6SM 23/04 A2974 RMK T02300040 IEM_DS3505
ZBYN,1995-05-16 03:00,ZBYN 160300Z AUTO 18012KT 6SM 23/04 A2974 RMK SLP044 T02330043 57004 IEM_DS3505
ZBYN,1995-05-16 04:00,ZBYN 160400Z AUTO 16008KT 6SM 25/05 A2971 RMK T02500050 IEM_DS3505
ZBYN,1995-05-16 05:00,ZBYN 160500Z AUTO 18012KT 6SM 26/05 A2968 RMK T02600050 IEM_DS3505
ZBYN,1995-05-16 06:00,ZBYN 160600Z AUTO 20010KT 6SM 24/05 A2968 RMK SLP035 T02410054 57015 IEM_DS3505
ZBYN,1995-05-16 07:00,ZBYN 160700Z AUTO 29010KT 7SM 25/00 A2968 RMK T02500000 IEM_DS3505
ZBYN,1995-05-16 08:00,ZBYN 160800Z AUTO 16008KT 7SM 24/05 A2968 RMK T02400050 IEM_DS3505
ZBYN,1995-05-16 09:00,ZBYN 160900Z AUTO 11006KT 9SM 24/06 A2965 RMK SLP030 T02380060 57007 IEM_DS3505
ZBYN,1995-05-16 10:00,ZBYN 161000Z AUTO 18006KT 7SM 25/07 A2965 RMK T02500070 IEM_DS3505
ZBYN,1995-05-16 11:00,ZBYN 161100Z AUTO 21006KT 7SM 24/06 A2965 RMK T02400060 IEM_DS3505
ZBYN,1995-05-16 12:00,ZBYN 161200Z AUTO 18004KT 9SM 21/07 A2965 RMK SLP020 T02070066 57005 IEM_DS3505
ZBYN,1995-05-16 13:00,ZBYN 161300Z AUTO 09006KT 7SM 18/06 A2968 RMK T01800060 IEM_DS3505
ZBYN,1995-05-16 14:00,ZBYN 161400Z AUTO 18004KT 6SM 18/07 A2974 RMK T01800070 IEM_DS3505
ZBYN,1995-05-16 15:00,ZBYN 161500Z AUTO 20008KT 9SM 20/05 A2971 RMK SLP032 T01990048 52020 IEM_DS3505
ZBYN,1995-05-16 16:00,ZBYN 161600Z AUTO 11004KT 7SM 17/09 A2971 RMK T01700090 IEM_DS3505
ZBYN,1995-05-16 17:00,ZBYN 161700Z AUTO 10006KT 7SM 15/08 A2971 RMK T01500080 IEM_DS3505
ZBYN,1995-05-16 18:00,ZBYN 161800Z AUTO 09006KT 6SM 15/06 A2968 RMK SLP028 T01490065 57009 IEM_DS3505
ZBYN,1995-05-16 19:00,ZBYN 161900Z AUTO 10004KT 7SM 14/07 A2968 RMK T01400070 IEM_DS3505
ZBYN,1995-05-16 20:00,ZBYN 162000Z AUTO 09004KT 7SM 14/07 A2968 RMK T01400070 IEM_DS3505
ZBYN,1995-05-16 21:00,ZBYN 162100Z AUTO 00000KT 6SM 13/08 A2968 RMK SLP033 T01260075 52001 IEM_DS3505
ZBYN,1995-05-16 22:00,ZBYN 162200Z AUTO 01004KT 7SM 13/07 A2971 RMK T01300070 IEM_DS3505
ZBYN,1995-05-16 23:00,ZBYN 162300Z AUTO 14004KT 7SM 15/07 A2971 RMK T01500070 IEM_DS3505
ZBYN,1995-05-17 00:00,ZBYN 170000Z AUTO 16004KT 7SM 17/08 A2974 RMK SLP040 T01700080 IEM_DS3505
ZBYN,1995-05-17 01:00,ZBYN 170100Z AUTO 16004KT 6SM 21/10 A2971 RMK T02100100 IEM_DS3505
ZBYN,1995-05-17 02:00,ZBYN 170200Z AUTO 17004KT 7SM 23/08 A2971 RMK T02300080 IEM_DS3505
ZBYN,1995-05-17 03:00,ZBYN 170300Z AUTO 23008KT 6SM 25/05 A2971 RMK T02500050 IEM_DS3505
ZBYN,1995-05-17 04:00,ZBYN 170400Z AUTO 19006KT 6SM 27/04 A2968 RMK T02700040 IEM_DS3505
ZBYN,1995-05-17 05:00,ZBYN 170500Z AUTO 08004KT 6SM 28/03 A2965 RMK T02800030 IEM_DS3505
ZBYN,1995-05-17 06:00,ZBYN 170600Z AUTO 16006KT 6SM 28/03 A2962 RMK SLP004 T02850030 57025 IEM_DS3505
ZBYN,1995-05-17 07:00,ZBYN 170700Z AUTO 15010KT 6SM 30/05 A2959 RMK T03000050 IEM_DS3505
ZBYN,1995-05-17 08:00,ZBYN 170800Z AUTO 18010KT 6SM 31/05 A2959 RMK T03100050 IEM_DS3505
ZBYN,1995-05-17 09:00,ZBYN 170900Z AUTO 20008KT 6SM 29/M00 A2959 RMK SLP993 T02891001 57013 IEM_DS3505
ZBYN,1995-05-17 10:00,ZBYN 171000Z AUTO 18008KT 6SM 29/05 A2956 RMK T02900050 IEM_DS3505
ZBYN,1995-05-17 11:00,ZBYN 171100Z AUTO 26002KT 6SM 26/10 A2956 RMK T02600100 IEM_DS3505
ZBYN,1995-05-17 12:00,ZBYN 171200Z AUTO 27002KT 6SM 23/07 A2956 RMK SLP989 T02340073 57005 IEM_DS3505
ZBYN,1995-05-17 13:00,ZBYN 171300Z AUTO 07008KT 6SM 20/09 A2959 RMK T02000090 IEM_DS3505
ZBYN,1995-05-17 14:00,ZBYN 171400Z AUTO 11006KT 6SM 21/10 A2959 RMK T02100100 IEM_DS3505
ZBYN,1995-05-17 15:00,ZBYN 171500Z AUTO 14004KT 6SM 18/08 A2962 RMK SLP993 T01800079 52008 IEM_DS3505
ZBYN,1995-05-17 16:00,ZBYN 171600Z AUTO 11008KT 6SM 19/08 A2959 RMK T01900080 IEM_DS3505
ZBYN,1995-05-17 17:00,ZBYN 171700Z AUTO 07006KT 6SM 19/07 A2962 RMK T01900070 IEM_DS3505
ZBYN,1995-05-17 18:00,ZBYN 171800Z AUTO 09006KT 6SM 17/08 A2962 RMK SLP991 T01680082 52001 IEM_DS3505
ZBYN,1995-05-17 19:00,ZBYN 171900Z AUTO 11006KT 6SM 17/10 A2959 RMK T01700100 IEM_DS3505
ZBYN,1995-05-17 20:00,ZBYN 172000Z AUTO 09006KT 6SM 17/10 A2959 RMK T01700100 IEM_DS3505
ZBYN,1995-05-17 21:00,ZBYN 172100Z AUTO 14002KT 6SM 15/10 A2959 RMK SLP989 T01510102 57004 IEM_DS3505
ZBYN,1995-05-17 22:00,ZBYN 172200Z AUTO 08006KT 6SM 17/12 A2959 RMK T01700120 IEM_DS3505
ZBYN,1995-05-17 23:00,ZBYN 172300Z AUTO 13004KT 6SM 17/13 A2962 RMK T01700130 IEM_DS3505
ZBYN,1995-05-18 00:00,ZBYN 180000Z AUTO 14002KT 6SM 20/12 A2965 RMK SLP003 T02030123 52013 IEM_DS3505
ZBYN,1995-05-18 01:00,ZBYN 180100Z AUTO 16008KT 6SM 22/14 A2965 RMK T02200140 IEM_DS3505
ZBYN,1995-05-18 03:00,ZBYN 180300Z AUTO 18006KT 6SM 24/12 RMK SLP011 T02390115 52004 IEM_DS3505
ZBYN,1995-05-18 06:00,ZBYN 180600Z AUTO 16006KT 6SM 25/10 A2958 RMK SLP988 T02540096 57020 IEM_DS3505
ZBYN,1995-05-18 09:00,ZBYN 180900Z AUTO 18004KT 6SM 26/12 RMK SLP979 T02650116 57009 IEM_DS3505
ZBYN,1995-05-18 11:00,ZBYN 181100Z AUTO 09008KT 24/15 A2959 RMK T02400150 IEM_DS3505
ZBYN,1995-05-18 12:00,ZBYN 181200Z AUTO 34012KT 6SM 21/09 A2962 RMK SLP011 T02060093 52028 IEM_DS3505
ZBYN,1995-05-18 13:00,ZBYN 181300Z AUTO 35014KT 5SM 19/11 A2971 RMK T01900110 IEM_DS3505
ZBYN,1995-05-18 15:00,ZBYN 181500Z AUTO 31012KT 7SM 16/12 A2977 RMK T01600120 IEM_DS3505
ZBYN,1995-05-18 16:00,ZBYN 181600Z AUTO 32014KT 7SM 15/13 A2980 RMK T01500130 IEM_DS3505
ZBYN,1995-05-18 17:00,ZBYN 181700Z AUTO 30006KT 7SM 15/13 RMK T01500130 IEM_DS3505
ZBYN,1995-05-18 18:00,ZBYN 181800Z AUTO 07006KT 5SM 15/13 A2980 RMK 60012 SLP054 T01470133 57002 IEM_DS3505
ZBYN,1995-05-18 19:00,ZBYN 181900Z AUTO 34004KT 7SM 15/14 A2977 RMK T01500140 IEM_DS3505
ZBYN,1995-05-18 20:00,ZBYN 182000Z AUTO 34008KT 7SM 15/13 A2977 RMK T01500130 IEM_DS3505
ZBYN,1995-05-18 21:00,ZBYN 182100Z AUTO 34004KT 6SM 15/13 A2980 RMK 70012 SLP064 T01480127 52011 IEM_DS3505
ZBYN,1995-05-18 22:00,ZBYN 182200Z AUTO 31008KT 6SM 15/12 A2980 RMK T01500120 IEM_DS3505
ZBYN,1995-05-18 23:00,ZBYN 182300Z AUTO 36008KT 6SM 17/12 A2983 RMK T01700120 IEM_DS3505
ZBYN,1995-05-19 00:00,ZBYN 190000Z AUTO 02006KT 7SM 17/12 A2985 RMK 70012 SLP087 T01730115 52016 IEM_DS3505
ZBYN,1995-05-19 01:00,ZBYN 190100Z AUTO 33008KT 6SM 18/11 A2985 RMK T01800110 IEM_DS3505
ZBYN,1995-05-19 02:00,ZBYN 190200Z AUTO 30008KT 6SM 20/11 A2985 RMK T02000110 IEM_DS3505
ZBYN,1995-05-19 03:00,ZBYN 190300Z AUTO 34006KT 7SM 21/09 A2985 RMK SLP093 T02070094 52005 IEM_DS3505
ZBYN,1995-05-19 04:00,ZBYN 190400Z AUTO 35008KT 6SM 23/08 A2983 RMK T02300080 IEM_DS3505
ZBYN,1995-05-19 05:00,ZBYN 190500Z AUTO 30010KT 6SM 23/07 A2983 RMK T02300070 IEM_DS3505
ZBYN,1995-05-19 06:00,ZBYN 190600Z AUTO 02006KT 7SM 24/06 A2983 RMK SLP074 T02350061 57016 IEM_DS3505
ZBYN,1995-05-19 07:00,ZBYN 190700Z AUTO 03010KT 6SM 24/09 A2980 RMK T02400090 IEM_DS3505
ZBYN,1995-05-19 08:00,ZBYN 190800Z AUTO 36014KT 6SM 25/04 A2980 RMK T02500040 IEM_DS3505
ZBYN,1995-05-19 09:00,ZBYN 190900Z AUTO 36008KT 7SM 24/04 A2980 RMK SLP065 T02370035 57008 IEM_DS3505
ZBYN,1995-05-19 10:00,ZBYN 191000Z AUTO 36010KT 6SM 23/06 A2980 RMK T02300060 IEM_DS3505
ZBYN,1995-05-19 11:00,ZBYN 191100Z AUTO 35006KT 6SM 22/03 A2983 RMK T02200030 IEM_DS3505
ZBYN,1995-05-19 12:00,ZBYN 191200Z AUTO 36006KT 6SM 22/03 A2985 RMK SLP090 T02190027 52024 IEM_DS3505
ZBYN,1995-05-19 13:00,ZBYN 191300Z AUTO 03004KT 7SM 20/06 A2988 RMK T02000060 IEM_DS3505
ZBYN,1995-05-19 14:00,ZBYN 191400Z AUTO 36006KT 7SM 20/04 A2988 RMK T02000040 IEM_DS3505
ZBYN,1995-05-19 15:00,ZBYN 191500Z AUTO 36006KT 6SM 20/03 A2991 RMK SLP106 T01970026 52016 IEM_DS3505
ZBYN,1995-05-19 16:00,ZBYN 191600Z AUTO 02006KT 6SM 18/05 A2994 RMK T01800050 IEM_DS3505
ZBYN,1995-05-19 17:00,ZBYN 191700Z AUTO 03006KT 6SM 17/02 A2994 RMK T01700020 IEM_DS3505
ZBYN,1995-05-19 18:00,ZBYN 191800Z AUTO 34004KT 6SM 16/02 A2991 RMK SLP112 T01590019 52004 IEM_DS3505
ZBYN,1995-05-19 19:00,ZBYN 191900Z AUTO 30010KT 6SM 15/M01 A2997 RMK T01501010 IEM_DS3505
ZBYN,1995-05-19 20:00,ZBYN 192000Z AUTO 35006KT 6SM 15/M01 A2997 RMK T01501010 IEM_DS3505
ZBYN,1995-05-19 21:00,ZBYN 192100Z AUTO 34004KT 9SM 14/M02 A2997 RMK SLP130 T01411025 52014 IEM_DS3505
ZBYN,1995-05-19 22:00,ZBYN 192200Z AUTO 36008KT 6SM 14/M07 A3000 RMK T01401070 IEM_DS3505
ZBYN,1995-05-19 23:00,ZBYN 192300Z AUTO 00000KT 6SM 13/M01 A3003 RMK T01301010 IEM_DS3505
ZBYN,1995-05-20 00:00,ZBYN 200000Z AUTO 36002KT 9SM 14/M02 A3003 RMK SLP154 T01351021 52019 IEM_DS3505
ZBYN,1995-05-20 01:00,ZBYN 200100Z AUTO 34006KT 6SM 15/M05 A3003 RMK T01501050 IEM_DS3505
ZBYN,1995-05-20 02:00,ZBYN 200200Z AUTO 36008KT 6SM 17/M07 A3003 RMK T01701070 IEM_DS3505
ZBYN,1995-05-20 03:00,ZBYN 200300Z AUTO 04006KT 12SM 18/M07 A3003 RMK SLP146 T01801069 57004 IEM_DS3505
ZBYN,1995-05-20 04:00,ZBYN 200400Z AUTO 02010KT 6SM 19/M03 A3003 RMK T01901030 IEM_DS3505
ZBYN,1995-05-20 05:00,ZBYN 200500Z AUTO 36012KT 6SM 19/M07 A3000 RMK T01901070 IEM_DS3505
ZBYN,1995-05-20 06:00,ZBYN 200600Z AUTO 34006KT 12SM 19/M10 A3000 RMK SLP141 T01911101 57009 IEM_DS3505
ZBYN,1995-05-20 07:00,ZBYN 200700Z AUTO 35008KT 6SM 19/M08 A2997 RMK T01901080 IEM_DS3505
ZBYN,1995-05-20 08:00,ZBYN 200800Z AUTO 36010KT 6SM 19/M08 A2997 RMK T01901080 IEM_DS3505
ZBYN,1995-05-20 09:00,ZBYN 200900Z AUTO 32004KT 12SM 19/M10 A2994 RMK SLP131 T01921097 57011 IEM_DS3505
ZBYN,1995-05-20 10:00,ZBYN 201000Z AUTO 29004KT 6SM 19/M06 A2994 RMK T01901060 IEM_DS3505
ZBYN,1995-05-20 11:00,ZBYN 201100Z AUTO 24006KT 6SM 18/M03 A2997 RMK T01801030 IEM_DS3505
ZBYN,1995-05-20 12:00,ZBYN 201200Z AUTO 22004KT 12SM 16/00 A2997 RMK SLP143 T01630000 52006 IEM_DS3505
ZBYN,1995-05-20 13:00,ZBYN 201300Z AUTO 23006KT 6SM 16/03 A3000 RMK T01600030 IEM_DS3505
ZBYN,1995-05-20 14:00,ZBYN 201400Z AUTO 13004KT 6SM 14/05 A3000 RMK T01400050 IEM_DS3505
ZBYN,1995-05-20 15:00,ZBYN 201500Z AUTO 11006KT 9SM 13/03 A3000 RMK SLP145 T01310030 52003 IEM_DS3505
ZBYN,1995-05-20 16:00,ZBYN 201600Z AUTO 12004KT 6SM 12/06 A3000 RMK T01200060 IEM_DS3505
ZBYN,1995-05-20 18:00,ZBYN 201800Z AUTO 09002KT 9SM 11/03 A2997 RMK SLP140 T01120034 57005 IEM_DS3505
ZBYN,1995-05-20 19:00,ZBYN 201900Z AUTO 00000KT 7SM 12/07 A2997 RMK T01200070 IEM_DS3505
ZBYN,1995-05-20 20:00,ZBYN 202000Z AUTO 10004KT 7SM 11/06 A2994 RMK T01100060 IEM_DS3505
ZBYN,1995-05-20 21:00,ZBYN 202100Z AUTO 11006KT 6SM 11/02 A2994 RMK SLP130 T01090019 57010 IEM_DS3505
ZBYN,1995-05-20 22:00,ZBYN 202200Z AUTO 10004KT 6SM 10/04 A2994 RMK T01000040 IEM_DS3505
ZBYN,1995-05-20 23:00,ZBYN 202300Z AUTO 15004KT 6SM 12/04 A2994 RMK T01200040 IEM_DS3505
ZBYN,1995-05-21 00:00,ZBYN 210000Z AUTO 14006KT 6SM 13/04 A2994 RMK SLP131 T01320037 54000 IEM_DS3505
ZBYN,1995-05-21 01:00,ZBYN 210100Z AUTO 18006KT 6SM 15/05 A2991 RMK T01500050 IEM_DS3505
ZBYN,1995-05-21 02:00,ZBYN 210200Z AUTO 24004KT 6SM 18/03 A2988 RMK T01800030 IEM_DS3505
ZBYN,1995-05-21 03:00,ZBYN 210300Z AUTO 27014KT 9SM 21/M02 A2985 RMK SLP090 T02081019 57031 IEM_DS3505
ZBYN,1995-05-21 04:00,ZBYN 210400Z AUTO 29014KT 7SM 22/M02 A2983 RMK T02201020 IEM_DS3505
ZBYN,1995-05-21 05:00,ZBYN 210500Z AUTO 21016KT 7SM 23/01 A2977 RMK T02300010 IEM_DS3505
ZBYN,1995-05-21 06:00,ZBYN 210600Z AUTO 34010KT 12SM 23/M04 A2974 RMK SLP054 T02291038 57032 IEM_DS3505
ZBYN,1995-05-21 07:00,ZBYN 210700Z AUTO 29012KT 7SM 23/M01 A2971 RMK T02301010 IEM_DS3505
ZBYN,1995-05-21 08:00,ZBYN 210800Z AUTO 29014KT 7SM 24/M04 A2971 RMK T02401040 IEM_DS3505
ZBYN,1995-05-21 09:00,ZBYN 210900Z AUTO 27017KT 12SM 24/M02 A2968 RMK SLP036 T02371023 57016 IEM_DS3505
ZBYN,1995-05-21 10:00,ZBYN 211000Z AUTO 29012KT 7SM 23/M04 A2968 RMK T02301040 IEM_DS3505
ZBYN,1995-05-21 11:00,ZBYN 211100Z AUTO 29008KT 7SM 22/M04 A2971 RMK T02201040 IEM_DS3505
ZBYN,1995-05-21 12:00,ZBYN 211200Z AUTO 29002KT 6SM 21/M03 A2971 RMK SLP045 T02101031 52008 IEM_DS3505
ZBYN,1995-05-21 13:00,ZBYN 211300Z AUTO 00000KT 7SM 19/07 A2974 RMK T01900070 IEM_DS3505
ZBYN,1995-05-21 14:00,ZBYN 211400Z AUTO 00000KT 7SM 17/05 A2974 RMK T01700050 IEM_DS3505
ZBYN,1995-05-21 15:00,ZBYN 211500Z AUTO 32004KT 6SM 16/03 A2974 RMK SLP050 T01590026 52008 IEM_DS3505
ZBYN,1995-05-21 16:00,ZBYN 211600Z AUTO 00000KT 7SM 14/05 A2974 RMK T01400050 IEM_DS3505
ZBYN,1995-05-21 17:00,ZBYN 211700Z AUTO 00000KT 7SM 13/07 A2974 RMK T01300070 IEM_DS3505
ZBYN,1995-05-21 18:00,ZBYN 211800Z AUTO 14006KT 6SM 12/03 A2974 RMK SLP048 T01230033 57004 IEM_DS3505
ZBYN,1995-05-21 19:00,ZBYN 211900Z AUTO 08004KT 7SM 11/06 A2971 RMK T01100060 IEM_DS3505
ZBYN,1995-05-21 20:00,ZBYN 212000Z AUTO 00000KT 7SM 11/06 A2971 RMK T01100060 IEM_DS3505
ZBYN,1995-05-21 21:00,ZBYN 212100Z AUTO 34004KT 6SM 10/04 A2974 RMK SLP048 T01050043 57002 IEM_DS3505
ZBYN,1995-05-21 22:00,ZBYN 212200Z AUTO 00000KT 7SM 10/06 A2974 RMK T01000060 IEM_DS3505
ZBYN,1995-05-21 23:00,ZBYN 212300Z AUTO 00000KT 7SM 12/05 A2977 RMK T01200050 IEM_DS3505
ZBYN,1995-05-22 00:00,ZBYN 220000Z AUTO 00000KT 6SM 16/03 A2977 RMK SLP062 T01580027 52017 IEM_DS3505
ZBYN,1995-05-22 01:00,ZBYN 220100Z AUTO 13004KT 4SM 18/06 A2980 RMK T01800060 IEM_DS3505
ZBYN,1995-05-22 02:00,ZBYN 220200Z AUTO 00000KT 5SM 21/08 A2977 RMK T02100080 IEM_DS3505
ZBYN,1995-05-22 03:00,ZBYN 220300Z AUTO 18006KT 6SM 22/03 A2977 RMK SLP058 T02210031 57002 IEM_DS3505
ZBYN,1995-05-22 04:00,ZBYN 220400Z AUTO 18004KT 7SM 24/04 A2974 RMK T02400040 IEM_DS3505
ZBYN,1995-05-22 05:00,ZBYN 220500Z AUTO 18010KT 6SM 26/05 A2971 RMK T02600050 IEM_DS3505
ZBYN,1995-05-22 06:00,ZBYN 220600Z AUTO 18010KT 6SM 26/02 A2968 RMK SLP034 T02640021 57021 IEM_DS3505
ZBYN,1995-05-22 07:00,ZBYN 220700Z AUTO 21008KT 6SM 27/02 A2968 RMK T02700020 IEM_DS3505
ZBYN,1995-05-22 08:00,ZBYN 220800Z AUTO 11006KT 6SM 28/09 A2965 RMK T02800090 IEM_DS3505
ZBYN,1995-05-22 09:00,ZBYN 220900Z AUTO 11006KT 6SM 27/04 A2965 RMK SLP015 T02710036 57019 IEM_DS3505
ZBYN,1995-05-22 10:00,ZBYN 221000Z AUTO 06004KT 6SM 26/12 A2962 RMK T02600120 IEM_DS3505
ZBYN,1995-05-22 11:00,ZBYN 221100Z AUTO 04006KT 6SM 25/10 A2965 RMK T02500100 IEM_DS3505
ZBYN,1995-05-22 12:00,ZBYN 221200Z AUTO 04002KT 6SM 24/06 A2965 RMK SLP019 T02360063 52006 IEM_DS3505
ZBYN,1995-05-22 13:00,ZBYN 221300Z AUTO 06012KT 6SM 21/10 A2971 RMK T02100100 IEM_DS3505
ZBYN,1995-05-22 14:00,ZBYN 221400Z AUTO 06012KT 6SM 20/11 A2974 RMK T02000110 IEM_DS3505
ZBYN,1995-05-22 15:00,ZBYN 221500Z AUTO 34004KT 6SM 20/07 A2974 RMK SLP042 T01980067 52025 IEM_DS3505
ZBYN,1995-05-22 16:00,ZBYN 221600Z AUTO 11006KT 7SM 19/08 A2977 RMK T01900080 IEM_DS3505
ZBYN,1995-05-22 17:00,ZBYN 221700Z AUTO 04002KT 7SM 17/07 A2977 RMK T01700070 IEM_DS3505
ZBYN,1995-05-22 18:00,ZBYN 221800Z AUTO 36004KT 6SM 16/05 A2977 RMK SLP047 T01620049 52005 IEM_DS3505
ZBYN,1995-05-22 19:00,ZBYN 221900Z AUTO 00000KT 7SM 16/07 A2977 RMK T01600070 IEM_DS3505
ZBYN,1995-05-22 20:00,ZBYN 222000Z AUTO 00000KT 7SM 14/06 A2980 RMK T01400060 IEM_DS3505
ZBYN,1995-05-22 21:00,ZBYN 222100Z AUTO 32002KT 6SM 12/07 A2980 RMK SLP065 T01230069 52012 IEM_DS3505
ZBYN,1995-05-22 22:00,ZBYN 222200Z AUTO 00000KT 5SM 13/08 A2980 RMK T01300080 IEM_DS3505
ZBYN,1995-05-22 23:00,ZBYN 222300Z AUTO 00000KT 5SM 14/10 A2983 RMK T01400100 IEM_DS3505
ZBYN,1995-05-23 00:00,ZBYN 230000Z AUTO 34004KT 6SM 18/07 A2983 RMK SLP075 T01750070 52012 IEM_DS3505
ZBYN,1995-05-23 02:00,ZBYN 230200Z AUTO 00000KT 7SM 23/10 A2983 RMK T02300100 IEM_DS3505
ZBYN,1995-05-23 03:00,ZBYN 230300Z AUTO 16010KT 6SM 25/07 A2980 RMK SLP062 T02540070 57006 IEM_DS3505
ZBYN,1995-05-23 04:00,ZBYN 230400Z AUTO 00000KT 6SM 27/08 A2977 RMK T02700080 IEM_DS3505
ZBYN,1995-05-23 05:00,ZBYN 230500Z AUTO 24008KT 6SM 29/07 A2974 RMK T02900070 IEM_DS3505
ZBYN,1995-05-23 06:00,ZBYN 230600Z AUTO 18010KT 6SM 29/06 A2971 RMK SLP029 T02920062 57030 IEM_DS3505
ZBYN,1995-05-23 07:00,ZBYN 230700Z AUTO 17006KT 6SM 31/06 A2968 RMK T03100060 IEM_DS3505
ZBYN,1995-05-23 08:00,ZBYN 230800Z AUTO 16008KT 6SM 32/03 A2965 RMK T03200030 IEM_DS3505
ZBYN,1995-05-23 09:00,ZBYN 230900Z AUTO 18006KT 6SM 30/06 A2965 RMK SLP010 T03040058 57021 IEM_DS3505
ZBYN,1995-05-23 10:00,ZBYN 231000Z AUTO 24006KT 6SM 30/06 A2965 RMK T03000060 IEM_DS3505
ZBYN,1995-05-23 11:00,ZBYN 231100Z AUTO 14010KT 6SM 27/07 A2965 RMK T02700070 IEM_DS3505
ZBYN,1995-05-23 12:00,ZBYN 231200Z AUTO 16006KT 6SM 25/07 A2965 RMK SLP009 T02530074 57001 IEM_DS3505
ZBYN,1995-05-23 13:00,ZBYN 231300Z AUTO 16008KT 6SM 24/04 A2971 RMK T02400040 IEM_DS3505
ZBYN,1995-05-23 14:00,ZBYN 231400Z AUTO 17010KT 6SM 23/05 A2971 RMK T02300050 IEM_DS3505
ZBYN,1995-05-23 15:00,ZBYN 231500Z AUTO 14006KT 6SM 21/06 A2974 RMK SLP027 T02060056 52021 IEM_DS3505
ZBYN,1995-05-23 16:00,ZBYN 231600Z AUTO 14006KT 6SM 20/06 A2974 RMK T02000060 IEM_DS3505
ZBYN,1995-05-23 17:00,ZBYN 231700Z AUTO 12006KT 6SM 19/06 A2974 RMK T01900060 IEM_DS3505
ZBYN,1995-05-23 18:00,ZBYN 231800Z AUTO 11008KT 6SM 19/04 A2971 RMK SLP025 T01870043 54000 IEM_DS3505
ZBYN,1995-05-23 19:00,ZBYN 231900Z AUTO 11006KT 7SM 17/07 A2971 RMK T01700070 IEM_DS3505
ZBYN,1995-05-23 20:00,ZBYN 232000Z AUTO 08004KT 6SM 16/08 A2974 RMK T01600080 IEM_DS3505
ZBYN,1995-05-23 21:00,ZBYN 232100Z AUTO 11006KT 6SM 16/05 A2971 RMK SLP029 T01640052 52003 IEM_DS3505
ZBYN,1995-05-23 22:00,ZBYN 232200Z AUTO 08006KT 6SM 15/07 A2974 RMK T01500070 IEM_DS3505
ZBYN,1995-05-23 23:00,ZBYN 232300Z AUTO 13004KT 7SM 16/11 A2974 RMK T01600110 IEM_DS3505
ZBYN,1995-05-24 00:00,ZBYN 240000Z AUTO 14004KT 6SM 18/08 A2974 RMK SLP035 T01840077 52001 IEM_DS3505
ZBYN,1995-05-24 01:00,ZBYN 240100Z AUTO 12004KT 7SM 22/09 A2974 RMK T02200090 IEM_DS3505
ZBYN,1995-05-24 02:00,ZBYN 240200Z AUTO 16004KT 6SM 24/09 A2974 RMK T02400090 IEM_DS3505
ZBYN,1995-05-24 03:00,ZBYN 240300Z AUTO 00000KT 5SM 25/07 A2974 RMK SLP032 T02540073 54000 IEM_DS3505
ZBYN,1995-05-24 04:00,ZBYN 240400Z AUTO 00000KT 6SM 26/08 A2974 RMK T02600080 IEM_DS3505
ZBYN,1995-05-24 05:00,ZBYN 240500Z AUTO 00000KT 6SM 27/13 A2971 RMK T02700130 IEM_DS3505
ZBYN,1995-05-24 06:00,ZBYN 240600Z AUTO 36006KT 5SM 30/07 A2968 RMK SLP012 T03010067 57014 IEM_DS3505
ZBYN,1995-05-24 07:00,ZBYN 240700Z AUTO 00000KT 6SM 30/09 A2968 RMK T03000090 IEM_DS3505
ZBYN,1995-05-24 08:00,ZBYN 240800Z AUTO 01004KT 6SM 30/10 A2965 RMK T03000100 IEM_DS3505
ZBYN,1995-05-24 09:00,ZBYN 240900Z AUTO 34008KT 6SM 29/03 A2968 RMK SLP015 T02930026 57002 IEM_DS3505
ZBYN,1995-05-24 10:00,ZBYN 241000Z AUTO 01010KT 7SM 29/06 A2968 RMK T02900060 IEM_DS3505
ZBYN,1995-05-24 11:00,ZBYN 241100Z AUTO 07004KT 6SM 27/10 A2971 RMK T02700100 IEM_DS3505
ZBYN,1995-05-24 12:00,ZBYN 241200Z AUTO 00000KT 6SM 25/05 A2974 RMK SLP043 T02530054 52023 IEM_DS3505
ZBYN,1995-05-24 13:00,ZBYN 241300Z AUTO 06004KT 6SM 23/10 A2977 RMK T02300100 IEM_DS3505
ZBYN,1995-05-24 14:00,ZBYN 241400Z AUTO 09006KT 6SM 22/13 A2980 RMK T02200130 IEM_DS3505
ZBYN,1995-05-24 15:00,ZBYN 241500Z AUTO 27004KT 6SM 20/09 RMK SLP058 T02050087 52017 IEM_DS3505
ZBYN,1995-05-24 17:00,ZBYN 241700Z AUTO 00000KT 6SM 19/11 A2983 RMK T01900110 IEM_DS3505
ZBYN,1995-05-24 18:00,ZBYN 241800Z AUTO 36004KT 6SM 20/05 A2982 RMK SLP057 T02020049 52005 IEM_DS3505
ZBYN,1995-05-24 20:00,ZBYN 242000Z AUTO 00000KT 6SM 18/10 A2985 RMK T01800100 IEM_DS3505
ZBYN,1995-05-24 21:00,ZBYN 242100Z AUTO 34004KT 6SM 18/02 A2985 RMK SLP068 T01810018 52006 IEM_DS3505
ZBYN,1995-05-24 22:00,ZBYN 242200Z AUTO 10004KT 6SM 14/07 A2988 RMK T01400070 IEM_DS3505
ZBYN,1995-05-24 23:00,ZBYN 242300Z AUTO 00000KT 7SM 15/08 A2988 RMK T01500080 IEM_DS3505
ZBYN,1995-05-25 00:00,ZBYN 250000Z AUTO 29004KT 6SM 20/04 A2988 RMK SLP085 T01950038 52012 IEM_DS3505
ZBYN,1995-05-25 01:00,ZBYN 250100Z AUTO 00000KT 7SM 22/05 A2988 RMK T02200050 IEM_DS3505
ZBYN,1995-05-25 02:00,ZBYN 250200Z AUTO 00000KT 7SM 25/05 A2985 RMK T02500050 IEM_DS3505
ZBYN,1995-05-25 03:00,ZBYN 250300Z AUTO 27012KT 6SM 28/M01 A2985 RMK SLP067 T02831006 57011 IEM_DS3505
ZBYN,1995-05-25 04:00,ZBYN 250400Z AUTO 27019KT 7SM 30/M11 A2983 RMK T03001110 IEM_DS3505
ZBYN,1995-05-25 05:00,ZBYN 250500Z AUTO 28019KT 7SM 32/M20 A2983 RMK T03201200 IEM_DS3505
ZBYN,1995-05-25 06:00,ZBYN 250600Z AUTO 32012KT 9SM 31/M13 A2980 RMK SLP048 T03091131 57014 IEM_DS3505
ZBYN,1995-05-25 07:00,ZBYN 250700Z AUTO 30019KT 6SM 31/M14 A2980 RMK T03101140 IEM_DS3505
ZBYN,1995-05-25 08:00,ZBYN 250800Z AUTO 04010KT 6SM 31/M14 A2980 RMK T03101140 IEM_DS3505
ZBYN,1995-05-25 09:00,ZBYN 250900Z AUTO 32008KT 9SM 30/M04 A2983 RMK SLP059 T02951037 52005 IEM_DS3505
ZBYN,1995-05-25 10:00,ZBYN 251000Z AUTO 30016KT 6SM 29/M08 A2983 RMK T02901080 IEM_DS3505
ZBYN,1995-05-25 11:00,ZBYN 251100Z AUTO 32006KT 6SM 27/M07 A2985 RMK T02701070 IEM_DS3505
ZBYN,1995-05-25 12:00,ZBYN 251200Z AUTO 32006KT 9SM 25/M07 A2988 RMK SLP081 T02501068 52016 IEM_DS3505
ZBYN,1995-05-25 13:00,ZBYN 251300Z AUTO 36006KT 6SM 22/M02 A2991 RMK T02201020 IEM_DS3505
ZBYN,1995-05-25 14:00,ZBYN 251400Z AUTO 31006KT 6SM 21/M03 A2994 RMK T02101030 IEM_DS3505
ZBYN,1995-05-25 15:00,ZBYN 251500Z AUTO 32006KT 6SM 20/M03 A2997 RMK SLP107 T02001034 52029 IEM_DS3505
ZBYN,1995-05-25 16:00,ZBYN 251600Z AUTO 34006KT 6SM 21/M06 A2997 RMK T02101060 IEM_DS3505
ZBYN,1995-05-25 17:00,ZBYN 251700Z AUTO 33004KT 6SM 20/M03 A2997 RMK T02001030 IEM_DS3505
ZBYN,1995-05-25 18:00,ZBYN 251800Z AUTO 36008KT 6SM 20/M08 A3000 RMK SLP115 T01951076 52010 IEM_DS3505
ZBYN,1995-05-25 19:00,ZBYN 251900Z AUTO 30006KT 6SM 18/M04 A3000 RMK T01801040 IEM_DS3505
ZBYN,1995-05-25 21:00,ZBYN 252100Z AUTO 36006KT 6SM 17/M07 A3003 RMK SLP128 T01731066 52007 IEM_DS3505
ZBYN,1995-05-25 22:00,ZBYN 252200Z AUTO 33006KT 7SM 17/M04 A3003 RMK T01701040 IEM_DS3505
ZBYN,1995-05-25 23:00,ZBYN 252300Z AUTO 03006KT 7SM 17/M06 A3006 RMK T01701060 IEM_DS3505
ZBYN,1995-05-26 00:00,ZBYN 260000Z AUTO 02010KT 9SM 18/M09 A3009 RMK SLP156 T01801092 52020 IEM_DS3505
ZBYN,1995-05-26 01:00,ZBYN 260100Z AUTO 17008KT 7SM 20/01 A3006 RMK T02000010 IEM_DS3505
ZBYN,1995-05-26 02:00,ZBYN 260200Z AUTO 07006KT 7SM 22/05 A3006 RMK T02200050 IEM_DS3505
ZBYN,1995-05-26 03:00,ZBYN 260300Z AUTO 32008KT 7SM 23/M00 A3003 RMK SLP146 T02281005 57009 IEM_DS3505
ZBYN,1995-05-26 04:00,ZBYN 260400Z AUTO 13004KT 7SM 25/05 A3000 RMK T02500050 IEM_DS3505
ZBYN,1995-05-26 05:00,ZBYN 260500Z AUTO 00000KT 7SM 25/03 A2997 RMK T02500030 IEM_DS3505
ZBYN,1995-05-26 06:00,ZBYN 260600Z AUTO 25004KT 7SM 26/M04 A2994 RMK SLP105 T02641043 57033 IEM_DS3505
ZBYN,1995-05-26 07:00,ZBYN 260700Z AUTO 13008KT 7SM 28/06 A2991 RMK T02800060 IEM_DS3505
ZBYN,1995-05-26 08:00,ZBYN 260800Z AUTO 00000KT 7SM 28/00 A2988 RMK T02800000 IEM_DS3505
ZBYN,1995-05-26 09:00,ZBYN 260900Z AUTO 20006KT 7SM 27/M01 A2985 RMK SLP079 T02721012 57026 IEM_DS3505
ZBYN,1995-05-26 10:00,ZBYN 261000Z AUTO 14008KT 7SM 27/02 A2985 RMK T02700020 IEM_DS3505
ZBYN,1995-05-26 11:00,ZBYN 261100Z AUTO 00000KT 7SM 25/05 A2983 RMK T02500050 IEM_DS3505
ZBYN,1995-05-26 12:00,ZBYN 261200Z AUTO 00000KT 7SM 23/05 A2985 RMK SLP079 T02260054 57005 IEM_DS3505
ZBYN,1995-05-26 13:00,ZBYN 261300Z AUTO 06006KT 7SM 22/00 A2988 RMK T02200000 IEM_DS3505
ZBYN,1995-05-26 14:00,ZBYN 261400Z AUTO 08008KT 7SM 21/03 A2988 RMK T02100030 IEM_DS3505
ZBYN,1995-05-26 15:00,ZBYN 261500Z AUTO 09004KT 7SM 20/02 A2991 RMK SLP097 T01990024 52019 IEM_DS3505
ZBYN,1995-05-26 16:00,ZBYN 261600Z AUTO 06006KT 7SM 19/04 A2991 RMK T01900040 IEM_DS3505
ZBYN,1995-05-26 17:00,ZBYN 261700Z AUTO 10006KT 7SM 17/05 A2991 RMK T01700050 IEM_DS3505
ZBYN,1995-05-26 18:00,ZBYN 261800Z AUTO 11006KT 7SM 18/04 A2991 RMK SLP096 T01760045 52001 IEM_DS3505
ZBYN,1995-05-26 19:00,ZBYN 261900Z AUTO 07004KT 7SM 17/08 A2991 RMK T01700080 IEM_DS3505
ZBYN,1995-05-26 20:00,ZBYN 262000Z AUTO 13006KT 7SM 17/08 A2988 RMK T01700080 IEM_DS3505
ZBYN,1995-05-26 21:00,ZBYN 262100Z AUTO 11008KT 7SM 16/07 A2988 RMK SLP087 T01560073 57010 IEM_DS3505
ZBYN,1995-05-26 22:00,ZBYN 262200Z AUTO 11008KT 6SM 16/09 A2988 RMK T01600090 IEM_DS3505
ZBYN,1995-05-26 23:00,ZBYN 262300Z AUTO 15008KT 6SM 18/11 A2988 RMK T01800110 IEM_DS3505
ZBYN,1995-05-27 00:00,ZBYN 270000Z AUTO 11008KT 7SM 20/10 A2991 RMK SLP093 T01960095 52005 IEM_DS3505
ZBYN,1995-05-27 01:00,ZBYN 270100Z AUTO 15008KT 6SM 22/13 A2988 RMK T02200130 IEM_DS3505
ZBYN,1995-05-27 02:00,ZBYN 270200Z AUTO 18006KT 6SM 24/11 A2988 RMK T02400110 IEM_DS3505
ZBYN,1995-05-27 03:00,ZBYN 270300Z AUTO 18016KT 6SM A2985 RMK SLP081 57008 IEM_DS3505
ZBYN,1995-05-27 05:00,ZBYN 270500Z AUTO 21021KT 6SM 27/11 A2980 RMK T02700110 IEM_DS3505
ZBYN,1995-05-27 06:00,ZBYN 270600Z AUTO 22016KT 6SM 26/12 A2977 RMK SLP052 T02590118 57028 IEM_DS3505
ZBYN,1995-05-27 07:00,ZBYN 270700Z AUTO 22016KT 7SM 26/11 A2977 RMK T02600110 IEM_DS3505
ZBYN,1995-05-27 08:00,ZBYN 270800Z AUTO 36010KT 4SM A2983 RMK IEM_DS3505
ZBYN,1995-05-27 09:00,ZBYN 270900Z AUTO 16008KT 5SM 16/15 A2983 RMK SLP085 T01640152 52014 IEM_DS3505
ZBYN,1995-05-27 10:00,ZBYN 271000Z AUTO 19010KT 7SM 17/16 A2983 RMK T01700160 IEM_DS3505
ZBYN,1995-05-27 11:00,ZBYN 271100Z AUTO 20008KT 7SM 17/14 A2983 RMK T01700140 IEM_DS3505
ZBYN,1995-05-27 12:00,ZBYN 271200Z AUTO 02002KT 6SM 17/16 A2983 RMK SLP080 T01660155 52001 IEM_DS3505
ZBYN,1995-05-27 13:00,ZBYN 271300Z AUTO 15006KT 4SM 15/14 A2985 RMK T01500140 IEM_DS3505
ZBYN,1995-05-27 14:00,ZBYN 271400Z AUTO 11004KT 4SM 16/15 A2985 RMK T01600150 IEM_DS3505
ZBYN,1995-05-27 15:00,ZBYN 271500Z AUTO 18004KT 6SM 16/15 A2988 RMK SLP084 T01580150 52010 IEM_DS3505
ZBYN,1995-05-27 16:00,ZBYN 271600Z AUTO 14006KT 4SM 15/15 A2985 RMK T01500150 IEM_DS3505
ZBYN,1995-05-27 17:00,ZBYN 271700Z AUTO 15006KT 6SM 15/14 A2985 RMK T01500140 IEM_DS3505
ZBYN,1995-05-27 18:00,ZBYN 271800Z AUTO 18006KT 1 1/4SM 15/15 A2985 RMK SLP083 T01540146 54000 IEM_DS3505
ZBYN,1995-05-27 19:00,ZBYN 271900Z AUTO 00000KT 6SM 15/15 A2988 RMK T01500150 IEM_DS3505
ZBYN,1995-05-27 20:00,ZBYN 272000Z AUTO 00000KT 6SM 15/14 A2988 RMK T01500140 IEM_DS3505
ZBYN,1995-05-27 21:00,ZBYN 272100Z AUTO 09002KT 1 1/4SM 15/14 A2988 RMK 70079 SLP100 T01520144 52002 IEM_DS3505
ZBYN,1995-05-27 22:00,ZBYN 272200Z AUTO 17004KT 5SM 16/15 A2988 RMK T01600150 IEM_DS3505
ZBYN,1995-05-27 23:00,ZBYN 272300Z AUTO 19004KT 4SM 16/15 A2988 RMK T01600150 IEM_DS3505
ZBYN,1995-05-28 00:00,ZBYN 280000Z AUTO 18004KT 1SM 17/15 A2988 RMK 70079 SLP104 T01670150 52006 IEM_DS3505
ZBYN,1995-05-28 01:00,ZBYN 280100Z AUTO 00000KT 4SM 19/15 A2988 RMK T01900150 IEM_DS3505
ZBYN,1995-05-28 02:00,ZBYN 280200Z AUTO 00000KT 4SM 20/16 A2988 RMK T02000160 IEM_DS3505
ZBYN,1995-05-28 03:00,ZBYN 280300Z AUTO 16006KT 4SM 21/15 A2988 RMK SLP096 T02120152 57002 IEM_DS3505
ZBYN,1995-05-28 04:00,ZBYN 280400Z AUTO 18006KT 4SM 23/16 A2985 RMK T02300160 IEM_DS3505
ZBYN,1995-05-28 05:00,ZBYN 280500Z AUTO 15008KT 5SM 24/14 A2983 RMK T02400140 IEM_DS3505
ZBYN,1995-05-28 06:00,ZBYN 280600Z AUTO 18010KT 6SM 24/12 A2980 RMK SLP069 T02420119 57021 IEM_DS3505
ZBYN,1995-05-28 07:00,ZBYN 280700Z AUTO 20010KT 6SM 26/14 A2980 RMK T02600140 IEM_DS3505
ZBYN,1995-05-28 08:00,ZBYN 280800Z AUTO 19004KT 6SM 27/14 A2977 RMK T02700140 IEM_DS3505
ZBYN,1995-05-28 09:00,ZBYN 280900Z AUTO 32010KT 9SM 27/13 A2974 RMK SLP043 T02720134 57020 IEM_DS3505
ZBYN,1995-05-28 10:00,ZBYN 281000Z AUTO 30008KT 7SM 28/07 A2974 RMK T02800070 IEM_DS3505
ZBYN,1995-05-28 11:00,ZBYN 281100Z AUTO 29004KT 7SM 27/13 A2974 RMK T02700130 IEM_DS3505
ZBYN,1995-05-28 12:00,ZBYN 281200Z AUTO 27004KT 6SM 23/10 A2974 RMK SLP046 T02310095 57001 IEM_DS3505
ZBYN,1995-05-28 13:00,ZBYN 281300Z AUTO 29008KT 7SM 23/06 A2977 RMK T02300060 IEM_DS3505
ZBYN,1995-05-28 14:00,ZBYN 281400Z AUTO 29004KT 7SM 22/04 A2980 RMK T02200040 IEM_DS3505
ZBYN,1995-05-28 15:00,ZBYN 281500Z AUTO 34004KT 6SM 20/03 A2980 RMK SLP064 T02020032 52019 IEM_DS3505
ZBYN,1995-05-28 16:00,ZBYN 281600Z AUTO 16004KT 7SM 17/08 A2983 RMK T01700080 IEM_DS3505
ZBYN,1995-05-28 17:00,ZBYN 281700Z AUTO 27004KT 7SM 20/10 A2985 RMK T02000100 IEM_DS3505
ZBYN,1995-05-28 18:00,ZBYN 281800Z AUTO 00000KT 6SM 17/03 A2985 RMK SLP080 T01730033 52015 IEM_DS3505
ZBYN,1995-05-28 19:00,ZBYN 281900Z AUTO 00000KT 7SM 14/10 A2988 RMK T01400100 IEM_DS3505
ZBYN,1995-05-28 20:00,ZBYN 282000Z AUTO 00000KT 7SM 11/08 A2988 RMK T01100080 IEM_DS3505
ZBYN,1995-05-28 21:00,ZBYN 282100Z AUTO 32004KT 6SM 11/07 A2991 RMK SLP105 T01070071 52018 IEM_DS3505
ZBYN,1995-05-28 22:00,ZBYN 282200Z AUTO 32004KT 7SM 14/08 A2994 RMK T01400080 IEM_DS3505
ZBYN,1995-05-28 23:00,ZBYN 282300Z AUTO 36012KT 7SM 17/M01 A2994 RMK T01701010 IEM_DS3505
ZBYN,1995-05-29 00:00,ZBYN 290000Z AUTO 36006KT 6SM 18/01 A2994 RMK SLP115 T01800006 52013 IEM_DS3505
ZBYN,1995-05-29 01:00,ZBYN 290100Z AUTO 35010KT 6SM 20/M01 A2994 RMK T02001010 IEM_DS3505
ZBYN,1995-05-29 02:00,ZBYN 290200Z AUTO 31006KT 6SM 22/02 A2994 RMK T02200020 IEM_DS3505
ZBYN,1995-05-29 03:00,ZBYN 290300Z AUTO 32004KT 6SM 24/03 A2991 RMK SLP097 T02370031 57012 IEM_DS3505
ZBYN,1995-05-29 04:00,ZBYN 290400Z AUTO 00000KT 6SM 25/07 A2988 RMK T02500070 IEM_DS3505
ZBYN,1995-05-29 05:00,ZBYN 290500Z AUTO 14006KT 6SM 27/06 A2985 RMK T02700060 IEM_DS3505
ZBYN,1995-05-29 06:00,ZBYN 290600Z AUTO 16008KT 9SM 26/03 A2983 RMK SLP075 T02650029 57020 IEM_DS3505
ZBYN,1995-05-29 07:00,ZBYN 290700Z AUTO 20008KT 6SM 28/05 A2983 RMK T02800050 IEM_DS3505
ZBYN,1995-05-29 08:00,ZBYN 290800Z AUTO 19008KT 6SM 29/04 A2980 RMK T02900040 IEM_DS3505
ZBYN,1995-05-29 09:00,ZBYN 290900Z AUTO 22008KT 12SM 27/04 A2980 RMK SLP066 T02690041 57017 IEM_DS3505
ZBYN,1995-05-29 11:00,ZBYN 291100Z AUTO 28004KT 6SM 27/07 A2980 RMK T02700070 IEM_DS3505
ZBYN,1995-05-29 12:00,ZBYN 291200Z AUTO 02006KT 12SM 25/04 A2983 RMK SLP070 T02490038 52011 IEM_DS3505
ZBYN,1995-05-29 13:00,ZBYN 291300Z AUTO 01004KT 6SM 21/05 A2983 RMK T02100050 IEM_DS3505
ZBYN,1995-05-29 14:00,ZBYN 291400Z AUTO 00000KT 6SM 21/05 A2985 RMK T02100050 IEM_DS3505
ZBYN,1995-05-29 15:00,ZBYN 291500Z AUTO 36004KT 12SM 20/03 A2985 RMK SLP078 T02040026 52009 IEM_DS3505
ZBYN,1995-05-29 16:00,ZBYN 291600Z AUTO 16004KT 7SM 17/06 A2988 RMK T01700060 IEM_DS3505
ZBYN,1995-05-29 17:00,ZBYN 291700Z AUTO 00000KT 7SM 17/07 A2988 RMK T01700070 IEM_DS3505
ZBYN,1995-05-29 18:00,ZBYN 291800Z AUTO 34002KT 9SM 18/03 A2988 RMK SLP092 T01810027 52013 IEM_DS3505
ZBYN,1995-05-29 19:00,ZBYN 291900Z AUTO 20004KT 7SM 15/07 A2991 RMK T01500070 IEM_DS3505
ZBYN,1995-05-29 20:00,ZBYN 292000Z AUTO 00000KT 7SM 14/07 A2991 RMK T01400070 IEM_DS3505
ZBYN,1995-05-29 21:00,ZBYN 292100Z AUTO 36004KT 9SM 13/06 A2991 RMK SLP102 T01310056 52003 IEM_DS3505
ZBYN,1995-05-29 22:00,ZBYN 292200Z AUTO 00000KT 7SM 12/08 A2991 RMK T01200080 IEM_DS3505
ZBYN,1995-05-29 23:00,ZBYN 292300Z AUTO 00000KT 7SM 14/08 A2991 RMK T01400080 IEM_DS3505
ZBYN,1995-05-30 00:00,ZBYN 300000Z AUTO 36004KT 9SM 19/04 A2991 RMK SLP095 T01890043 57001 IEM_DS3505
ZBYN,1995-05-30 01:00,ZBYN 300100Z AUTO 00000KT 7SM 23/07 A2991 RMK T02300070 IEM_DS3505
ZBYN,1995-05-30 02:00,ZBYN 300200Z AUTO 16004KT 7SM 23/08 A2988 RMK T02300080 IEM_DS3505
ZBYN,1995-05-30 03:00,ZBYN 300300Z AUTO 16006KT 6SM 25/07 A2988 RMK SLP087 T02460073 57006 IEM_DS3505
ZBYN,1995-05-30 04:00,ZBYN 300400Z AUTO 21004KT 6SM 27/08 A2985 RMK T02700080 IEM_DS3505
ZBYN,1995-05-30 05:00,ZBYN 300500Z AUTO 18004KT 6SM 29/09 A2983 RMK T02900090 IEM_DS3505
ZBYN,1995-05-30 06:00,ZBYN 300600Z AUTO 18008KT 6SM 29/10 A2980 RMK SLP055 T02920100 57026 IEM_DS3505
ZBYN,1995-05-30 07:00,ZBYN 300700Z AUTO 16008KT 6SM 32/07 A2977 RMK T03200070 IEM_DS3505
ZBYN,1995-05-30 08:00,ZBYN 300800Z AUTO 18006KT 6SM 32/09 A2974 RMK T03200090 IEM_DS3505
ZBYN,1995-05-30 09:00,ZBYN 300900Z AUTO 16006KT 6SM 30/08 A2974 RMK SLP038 T03040081 57021 IEM_DS3505
ZBYN,1995-05-30 10:00,ZBYN 301000Z AUTO 17004KT 7SM 31/12 A2971 RMK T03100120 IEM_DS3505
ZBYN,1995-05-30 11:00,ZBYN 301100Z AUTO 20004KT 7SM 29/12 A2974 RMK T02900120 IEM_DS3505
ZBYN,1995-05-30 12:00,ZBYN 301200Z AUTO 22006KT 6SM 28/12 A2974 RMK SLP035 T02770119 52002 IEM_DS3505
ZBYN,1995-05-30 13:00,ZBYN 301300Z AUTO 22010KT 6SM 27/07 A2977 RMK T02700070 IEM_DS3505
ZBYN,1995-05-30 14:00,ZBYN 301400Z AUTO 12010KT 6SM 25/07 A2980 RMK T02500070 IEM_DS3505
ZBYN,1995-05-30 15:00,ZBYN 301500Z AUTO 11008KT 6SM 23/12 A2980 RMK SLP049 T02300120 52014 IEM_DS3505
ZBYN,1995-05-30 16:00,ZBYN 301600Z AUTO 09012KT 7SM 21/14 A2983 RMK T02100140 IEM_DS3505
ZBYN,1995-05-30 17:00,ZBYN 301700Z AUTO 11004KT 7SM 21/13 A2985 RMK T02100130 IEM_DS3505
ZBYN,1995-05-30 18:00,ZBYN 301800Z AUTO 00000KT 6SM 19/13 A2985 RMK SLP067 T01900129 52017 IEM_DS3505
ZBYN,1995-05-30 19:00,ZBYN 301900Z AUTO 11002KT 7SM 19/12 A2985 RMK T01900120 IEM_DS3505
ZBYN,1995-05-30 20:00,ZBYN 302000Z AUTO 09004KT 7SM 18/12 A2985 RMK T01800120 IEM_DS3505
ZBYN,1995-05-30 21:00,ZBYN 302100Z AUTO 14002KT 6SM 16/12 A2985 RMK SLP081 T01610124 52011 IEM_DS3505
ZBYN,1995-05-30 22:00,ZBYN 302200Z AUTO 00000KT 5SM 17/12 A2985 RMK T01700120 IEM_DS3505
ZBYN,1995-05-30 23:00,ZBYN 302300Z AUTO 00000KT 4SM 18/15 A2991 RMK T01800150 IEM_DS3505
ZBYN,1995-05-31 00:00,ZBYN 310000Z AUTO 29002KT 6SM 20/13 A2991 RMK SLP094 T02030127 52014 IEM_DS3505
ZBYN,1995-05-31 01:00,ZBYN 310100Z AUTO 04016KT 7SM 22/12 A2994 RMK T02200120 IEM_DS3505
ZBYN,1995-05-31 02:00,ZBYN 310200Z AUTO 06010KT 7SM 24/12 A2994 RMK T02400120 IEM_DS3505
ZBYN,1995-05-31 03:00,ZBYN 310300Z AUTO 34006KT 5SM 26/12 A2994 RMK SLP109 T02590116 52015 IEM_DS3505
ZBYN,1995-05-31 04:00,ZBYN 310400Z AUTO 07010KT 7SM 27/13 A2994 RMK T02700130 IEM_DS3505
ZBYN,1995-05-31 05:00,ZBYN 310500Z AUTO 09012KT 7SM 27/13 A2991 RMK T02700130 IEM_DS3505
ZBYN,1995-05-31 06:00,ZBYN 310600Z AUTO 11014KT 9SM 28/08 A2988 RMK SLP087 T02850083 57014 IEM_DS3505
ZBYN,1995-05-31 07:00,ZBYN 310700Z AUTO 06010KT 6SM 29/13 A2985 RMK T02900130 IEM_DS3505
ZBYN,1995-05-31 08:00,ZBYN 310800Z AUTO 09010KT 6SM 29/13 A2985 RMK T02900130 IEM_DS3505
ZBYN,1995-05-31 09:00,ZBYN 310900Z AUTO 09012KT 6SM 29/08 A2983 RMK SLP073 T02890084 57017 IEM_DS3505
ZBYN,1995-05-31 10:00,ZBYN 311000Z AUTO 06010KT 6SM 26/10 A2983 RMK T02600100 IEM_DS3505
ZBYN,1995-05-31 11:00,ZBYN 311100Z AUTO 08017KT 6SM 25/09 A2985 RMK T02500090 IEM_DS3505
ZBYN,1995-05-31 12:00,ZBYN 311200Z AUTO 11008KT 6SM 25/10 A2985 RMK SLP076 T02470099 52003 IEM_DS3505
ZBYN,1995-05-31 13:00,ZBYN 311300Z AUTO 09021KT 7SM 22/08 A2988 RMK T02200080 IEM_DS3505
ZBYN,1995-05-31 14:00,ZBYN 311400Z AUTO 07019KT 7SM 21/09 A2991 RMK T02100090 IEM_DS3505
ZBYN,1995-05-31 15:00,ZBYN 311500Z AUTO 04004KT 6SM 22/09 A2991 RMK SLP097 T02200093 52023 IEM_DS3505
ZBYN,1995-05-31 16:00,ZBYN 311600Z AUTO 14006KT 7SM 20/09 A2994 RMK T02000090 IEM_DS3505
ZBYN,1995-05-31 17:00,ZBYN 311700Z AUTO 06006KT 7SM 19/11 A2994 RMK T01900110 IEM_DS3505
ZBYN,1995-05-31 18:00,ZBYN 311800Z AUTO 34006KT 6SM 20/09 A2994 RMK SLP105 T01950087 52008 IEM_DS3505
ZBYN,1995-05-31 19:00,ZBYN 311900Z AUTO 07006KT 7SM 18/13 A2994 RMK T01800130 IEM_DS3505
ZBYN,1995-05-31 20:00,ZBYN 312000Z AUTO 00000KT 7SM 18/12 A2991 RMK T01800120 IEM_DS3505
ZBYN,1995-05-31 21:00,ZBYN 312100Z AUTO 34004KT 6SM 18/10 A2991 RMK SLP096 T01770099 57010 IEM_DS3505
ZBYN,1995-05-31 22:00,ZBYN 312200Z AUTO 00000KT 5SM 17/12 A2991 RMK T01700120 IEM_DS3505
ZBYN,1995-05-31 23:00,ZBYN 312300Z AUTO 15006KT 5SM 17/14 A2991 RMK T01700140 IEM_DS3505
ZBYN,1995-06-01 00:00,ZBYN 010000Z AUTO 32002KT 6SM 20/12 A2991 RMK SLP103 T01950121 52003 IEM_DS3505
ZBYN,1995-06-01 01:00,ZBYN 010100Z AUTO 15006KT 7SM 22/16 A2991 RMK T02200160 IEM_DS3505
ZBYN,1995-06-01 02:00,ZBYN 010200Z AUTO 16008KT 7SM 23/15 A2988 RMK T02300150 IEM_DS3505
ZBYN,1995-06-01 03:00,ZBYN 010300Z AUTO 14012KT 5SM 25/16 A2988 RMK SLP081 T02500155 57017 IEM_DS3505
ZBYN,1995-06-01 04:00,ZBYN 010400Z AUTO 19008KT 6SM 28/17 A2983 RMK T02800170 IEM_DS3505
ZBYN,1995-06-01 05:00,ZBYN 010500Z AUTO 20012KT 7SM 30/17 A2980 RMK T03000170 IEM_DS3505
ZBYN,1995-06-01 06:00,ZBYN 010600Z AUTO 18014KT 6SM 31/14 A2974 RMK SLP028 T03070140 57044 IEM_DS3505
ZBYN,1995-06-01 07:00,ZBYN 010700Z AUTO 21016KT 6SM 32/12 A2968 RMK T03200120 IEM_DS3505
ZBYN,1995-06-01 08:00,ZBYN 010800Z AUTO 20004KT 7SM 30/14 A2971 RMK T03000140 IEM_DS3505
ZBYN,1995-06-01 09:00,ZBYN 010900Z AUTO 36014KT 6SM 28/13 A2971 RMK SLP031 T02820133 57003 IEM_DS3505
ZBYN,1995-06-01 10:00,ZBYN 011000Z AUTO 10012KT 7SM A2977 RMK IEM_DS3505
ZBYN,1995-06-01 11:00,ZBYN 011100Z AUTO 35008KT 7SM 20/18 A2983 RMK T02000180 IEM_DS3505
ZBYN,1995-06-01 12:00,ZBYN 011200Z AUTO 14004KT 5SM 20/18 A2985 RMK 60055 SLP080 T01950179 52035 IEM_DS3505
ZBYN,1995-06-01 13:00,ZBYN 011300Z AUTO 07008KT 3SM 20/19 A2983 RMK T02000190 IEM_DS3505
ZBYN,1995-06-01 14:00,ZBYN 011400Z AUTO 30006KT 3SM 20/19 A2985 RMK T02000190 IEM_DS3505
ZBYN,1995-06-01 15:00,ZBYN 011500Z AUTO 29004KT 5SM 19/18 A2983 RMK SLP073 T01930179 52001 IEM_DS3505
ZBYN,1995-06-01 16:00,ZBYN 011600Z AUTO 16006KT 3SM 19/18 A2983 RMK T01900180 IEM_DS3505
ZBYN,1995-06-01 17:00,ZBYN 011700Z AUTO 00000KT 3SM 19/18 A2983 RMK T01900180 IEM_DS3505
ZBYN,1995-06-01 18:00,ZBYN 011800Z AUTO 29004KT 5SM 19/18 A2983 RMK SLP063 T01920180 57001 IEM_DS3505
ZBYN,1995-06-01 19:00,ZBYN 011900Z AUTO 33004KT 3SM 19/18 A2983 RMK T01900180 IEM_DS3505
ZBYN,1995-06-01 20:00,ZBYN 012000Z AUTO 00000KT 2 1/2SM 19/18 A2983 RMK T01900180 IEM_DS3505
ZBYN,1995-06-01 21:00,ZBYN 012100Z AUTO 00000KT 5SM 19/17 A2983 RMK 70055 SLP062 T01890172 57005 IEM_DS3505
ZBYN,1995-06-01 22:00,ZBYN 012200Z AUTO 34004KT 3SM 19/18 A2983 RMK T01900180 IEM_DS3505
ZBYN,1995-06-01 23:00,ZBYN 012300Z AUTO 12002KT 2SM 19/18 A2985 RMK T01900180 IEM_DS3505
ZBYN,1995-06-02 00:00,ZBYN 020000Z AUTO 20002KT 5SM 20/18 A2985 RMK 70055 SLP085 T01960179 52010 IEM_DS3505
ZBYN,1995-06-02 01:00,ZBYN 020100Z AUTO 00000KT 1 1/4SM 21/19 A2985 RMK T02100190 IEM_DS3505
ZBYN,1995-06-02 02:00,ZBYN 020200Z AUTO 16004KT 1 1/4SM 23/19 A2985 RMK T02300190 IEM_DS3505
ZBYN,1995-06-02 03:00,ZBYN 020300Z AUTO 14006KT 6SM 25/17 A2983 RMK SLP070 T02500173 57006 IEM_DS3505
ZBYN,1995-06-02 04:00,ZBYN 020400Z AUTO 21006KT 2 1/2SM 27/17 A2983 RMK T02700170 IEM_DS3505
ZBYN,1995-06-02 05:00,ZBYN 020500Z AUTO 17012KT 6SM 28/12 A2977 RMK T02800120 IEM_DS3505
ZBYN,1995-06-02 06:00,ZBYN 020600Z AUTO 18010KT 6SM 28/13 A2974 RMK SLP035 T02780129 57029 IEM_DS3505
ZBYN,1995-06-02 07:00,ZBYN 020700Z AUTO 24010KT 7SM 31/12 A2971 RMK T03100120 IEM_DS3505
ZBYN,1995-06-02 08:00,ZBYN 020800Z AUTO 27017KT 7SM 32/11 A2968 RMK T03200110 IEM_DS3505
ZBYN,1995-06-02 09:00,ZBYN 020900Z AUTO 29010KT 9SM 31/05 A2968 RMK SLP007 T03070048 57022 IEM_DS3505
ZBYN,1995-06-02 10:00,ZBYN 021000Z AUTO 30008KT 7SM 30/12 A2965 RMK T03000120 IEM_DS3505
ZBYN,1995-06-02 11:00,ZBYN 021100Z AUTO 30010KT 7SM 29/07 A2965 RMK T02900070 IEM_DS3505
ZBYN,1995-06-02 12:00,ZBYN 021200Z AUTO 32008KT 6SM 28/M01 A2968 RMK SLP016 T02791006 52006 IEM_DS3505
ZBYN,1995-06-02 13:00,ZBYN 021300Z AUTO 32008KT 7SM 26/06 A2971 RMK T02600060 IEM_DS3505
ZBYN,1995-06-02 14:00,ZBYN 021400Z AUTO 35017KT 7SM 25/03 A2977 RMK T02500030 IEM_DS3505
ZBYN,1995-06-02 15:00,ZBYN 021500Z AUTO 36006KT 6SM 24/04 A2980 RMK SLP049 T02390044 52032 IEM_DS3505
ZBYN,1995-06-02 16:00,ZBYN 021600Z AUTO 09004KT 7SM 22/09 A2983 RMK T02200090 IEM_DS3505
ZBYN,1995-06-02 17:00,ZBYN 021700Z AUTO 00000KT 7SM 20/14 A2983 RMK T02000140 IEM_DS3505
ZBYN,1995-06-02 18:00,ZBYN 021800Z AUTO 09004KT 6SM 19/07 A2983 RMK SLP066 T01910070 52013 IEM_DS3505
ZBYN,1995-06-02 20:00,ZBYN 022000Z AUTO 00000KT 7SM 16/13 A2985 RMK T01600130 IEM_DS3505
ZBYN,1995-06-02 21:00,ZBYN 022100Z AUTO 16002KT 6SM 13/10 A2985 RMK SLP076 T01320101 52005 IEM_DS3505
ZBYN,1995-06-02 22:00,ZBYN 022200Z AUTO 00000KT 6SM 14/11 A2985 RMK T01400110 IEM_DS3505
ZBYN,1995-06-02 23:00,ZBYN 022300Z AUTO 13004KT 6SM 15/12 A2985 RMK T01500120 IEM_DS3505
ZBYN,1995-06-03 00:00,ZBYN 030000Z AUTO 20002KT 9SM 19/10 A2988 RMK SLP079 T01910104 52007 IEM_DS3505
ZBYN,1995-06-03 01:00,ZBYN 030100Z AUTO 00000KT 7SM 22/13 A2988 RMK T02200130 IEM_DS3505
ZBYN,1995-06-03 02:00,ZBYN 030200Z AUTO 00000KT 7SM 24/12 A2988 RMK T02400120 IEM_DS3505
ZBYN,1995-06-03 03:00,ZBYN 030300Z AUTO 36002KT 9SM 25/03 A2985 RMK SLP075 T02540028 57001 IEM_DS3505
ZBYN,1995-06-03 04:00,ZBYN 030400Z AUTO 32006KT 7SM 26/06 A2985 RMK T02600060 IEM_DS3505
ZBYN,1995-06-03 05:00,ZBYN 030500Z AUTO 03006KT 7SM 27/09 A2983 RMK T02700090 IEM_DS3505
ZBYN,1995-06-03 06:00,ZBYN 030600Z AUTO 04006KT 11SM 27/02 A2983 RMK SLP067 T02700022 57012 IEM_DS3505
ZBYN,1995-06-03 07:00,ZBYN 030700Z AUTO 03008KT 7SM 28/09 A2980 RMK T02800090 IEM_DS3505
ZBYN,1995-06-03 08:00,ZBYN 030800Z AUTO 04008KT 7SM 28/06 A2980 RMK T02800060 IEM_DS3505
ZBYN,1995-06-03 09:00,ZBYN 030900Z AUTO 04004KT 9SM 28/03 A2980 RMK SLP061 T02780032 57012 IEM_DS3505
ZBYN,1995-06-03 10:00,ZBYN 031000Z AUTO 36010KT 7SM 27/06 A2980 RMK T02700060 IEM_DS3505
ZBYN,1995-06-03 11:00,ZBYN 031100Z AUTO 03008KT 6SM 25/09 A2980 RMK T02500090 IEM_DS3505
ZBYN,1995-06-03 12:00,ZBYN 031200Z AUTO 02002KT 9SM 26/03 A2983 RMK SLP066 T02550033 52009 IEM_DS3505
ZBYN,1995-06-03 13:00,ZBYN 031300Z AUTO 06008KT 7SM 22/14 A2985 RMK T02200140 IEM_DS3505
ZBYN,1995-06-03 14:00,ZBYN 031400Z AUTO 05008KT 7SM 21/13 A2988 RMK T02100130 IEM_DS3505
ZBYN,1995-06-03 15:00,ZBYN 031500Z AUTO 34006KT 7SM 21/12 A2988 RMK SLP087 T02100125 52022 IEM_DS3505
ZBYN,1995-06-03 16:00,ZBYN 031600Z AUTO 00000KT 7SM 20/15 A2991 RMK T02000150 IEM_DS3505
ZBYN,1995-06-03 17:00,ZBYN 031700Z AUTO 07006KT 7SM 18/14 A2991 RMK T01800140 IEM_DS3505
ZBYN,1995-06-03 18:00,ZBYN 031800Z AUTO 32004KT 6SM 17/13 A2994 RMK SLP101 T01700130 52009 IEM_DS3505
ZBYN,1995-06-03 19:00,ZBYN 031900Z AUTO 00000KT 7SM 17/14 A2994 RMK T01700140 IEM_DS3505
ZBYN,1995-06-03 21:00,ZBYN 032100Z AUTO 34004KT 5SM 15/11 A2994 RMK SLP110 T01530108 52008 IEM_DS3505
ZBYN,1995-06-03 22:00,ZBYN 032200Z AUTO 00000KT 7SM 14/13 A2997 RMK T01400130 IEM_DS3505
ZBYN,1995-06-03 23:00,ZBYN 032300Z AUTO 00000KT 7SM 15/13 A2997 RMK T01500130 IEM_DS3505
ZBYN,1995-06-04 00:00,ZBYN 040000Z AUTO 14002KT 6SM 19/13 A3000 RMK SLP120 T01940126 52011 IEM_DS3505
ZBYN,1995-06-04 01:00,ZBYN 040100Z AUTO 00000KT 7SM 21/13 A2997 RMK T02100130 IEM_DS3505
ZBYN,1995-06-04 02:00,ZBYN 040200Z AUTO 00000KT 6SM 25/13 A2997 RMK T02500130 IEM_DS3505
ZBYN,1995-06-04 03:00,ZBYN 040300Z AUTO 11004KT 6SM 26/10 A2994 RMK SLP105 T02600101 57011 IEM_DS3505
ZBYN,1995-06-04 04:00,ZBYN 040400Z AUTO 18006KT 6SM 27/08 A2994 RMK T02700080 IEM_DS3505
ZBYN,1995-06-04 05:00,ZBYN 040500Z AUTO 15006KT 6SM 28/09 A2991 RMK T02800090 IEM_DS3505
ZBYN,1995-06-04 06:00,ZBYN 040600Z AUTO 16006KT 9SM 29/07 A2988 RMK SLP089 T02860068 57016 IEM_DS3505
ZBYN,1995-06-04 07:00,ZBYN 040700Z AUTO 16008KT 6SM 29/10 A2985 RMK T02900100 IEM_DS3505
ZBYN,1995-06-04 08:00,ZBYN 040800Z AUTO 12006KT 6SM 29/15 A2985 RMK T02900150 IEM_DS3505
ZBYN,1995-06-04 09:00,ZBYN 040900Z AUTO 20004KT 11SM 29/ A2983 RMK SLP071 57019 IEM_DS3505
ZBYN,1995-06-04 10:00,ZBYN 041000Z AUTO 00000KT 7SM 28/14 A2983 RMK T02800140 IEM_DS3505
ZBYN,1995-06-04 11:00,ZBYN 041100Z AUTO 10006KT 7SM 26/13 A2983 RMK T02600130 IEM_DS3505
ZBYN,1995-06-04 12:00,ZBYN 041200Z AUTO 00000KT 9SM 24/10 A2983 RMK SLP069 T02410102 57002 IEM_DS3505
ZBYN,1995-06-04 13:00,ZBYN 041300Z AUTO 00000KT 7SM 22/12 A2983 RMK T02200120 IEM_DS3505
ZBYN,1995-06-04 14:00,ZBYN 041400Z AUTO 08006KT 7SM 21/09 A2985 RMK T02100090 IEM_DS3505
ZBYN,1995-06-04 15:00,ZBYN 041500Z AUTO 08006KT 9SM 20/08 A2988 RMK SLP082 T02020082 52015 IEM_DS3505
ZBYN,1995-06-04 16:00,ZBYN 041600Z AUTO 09006KT 7SM 19/11 A2988 RMK T01900110 IEM_DS3505
ZBYN,1995-06-04 17:00,ZBYN 041700Z AUTO 09006KT 7SM 18/10 A2988 RMK T01800100 IEM_DS3505
ZBYN,1995-06-04 18:00,ZBYN 041800Z AUTO 00000KT 9SM 19/10 A2988 RMK SLP085 T01860095 52004 IEM_DS3505
ZBYN,1995-06-04 19:00,ZBYN 041900Z AUTO 09006KT 7SM 18/10 A2988 RMK T01800100 IEM_DS3505
ZBYN,1995-06-04 20:00,ZBYN 042000Z AUTO 09004KT 7SM 17/11 A2988 RMK T01700110 IEM_DS3505
ZBYN,1995-06-04 21:00,ZBYN 042100Z AUTO 00000KT 9SM 16/11 RMK SLP090 T01580108 52001 IEM_DS3505
ZBYN,1995-06-04 22:00,ZBYN 042200Z AUTO 09006KT 6SM 16/11 A2988 RMK T01600110 IEM_DS3505
ZBYN,1995-06-04 23:00,ZBYN 042300Z AUTO 09002KT 6SM 17/13 A2988 RMK T01700130 IEM_DS3505
ZBYN,1995-06-05 00:00,ZBYN 050000Z AUTO 14004KT 6SM 22/10 A2988 RMK SLP088 T02150104 54000 IEM_DS3505
ZBYN,1995-06-05 01:00,ZBYN 050100Z AUTO 17004KT 6SM 23/14 A2988 RMK T02300140 IEM_DS3505
ZBYN,1995-06-05 02:00,ZBYN 050200Z AUTO 21008KT 6SM 23/12 A2988 RMK T02300120 IEM_DS3505
ZBYN,1995-06-05 03:00,ZBYN 050300Z AUTO 14008KT 5SM 21/11 A2988 RMK SLP093 T02130108 57001 IEM_DS3505
ZBYN,1995-06-05 04:00,ZBYN 050400Z AUTO 17008KT 6SM 24/12 A2988 RMK T02400120 IEM_DS3505
ZBYN,1995-06-05 05:00,ZBYN 050500Z AUTO 22006KT 6SM 25/09 A2988 RMK T02500090 IEM_DS3505
ZBYN,1995-06-05 06:00,ZBYN 050600Z AUTO 18008KT 6SM 24/11 A2985 RMK SLP078 T02390106 57013 IEM_DS3505
ZBYN,1995-06-05 07:00,ZBYN 050700Z AUTO 20010KT 7SM 26/12 A2983 RMK T02600120 IEM_DS3505
ZBYN,1995-06-05 08:00,ZBYN 050800Z AUTO 18008KT 6SM 26/13 A2980 RMK T02600130 IEM_DS3505
ZBYN,1995-06-05 09:00,ZBYN 050900Z AUTO 18004KT 6SM 24/12 A2977 RMK SLP059 T02390125 57021 IEM_DS3505
ZBYN,1995-06-05 10:00,ZBYN 051000Z AUTO 17006KT 6SM 25/13 A2977 RMK T02500130 IEM_DS3505
ZBYN,1995-06-05 11:00,ZBYN 051100Z AUTO 15004KT 6SM 23/15 A2977 RMK T02300150 IEM_DS3505
ZBYN,1995-06-05 12:00,ZBYN 051200Z AUTO 14004KT 6SM 21/14 A2980 RMK SLP054 T02130144 54000 IEM_DS3505
ZBYN,1995-06-05 13:00,ZBYN 051300Z AUTO 13004KT 6SM 21/14 A2980 RMK T02100140 IEM_DS3505
ZBYN,1995-06-05 14:00,ZBYN 051400Z AUTO 00000KT 6SM 20/14 A2983 RMK T02000140 IEM_DS3505
ZBYN,1995-06-05 15:00,ZBYN 051500Z AUTO 16004KT 6SM 20/14 A2980 RMK SLP065 T01950136 52007 IEM_DS3505
ZBYN,1995-06-05 16:00,ZBYN 051600Z AUTO 00000KT 6SM 20/14 A2983 RMK T02000140 IEM_DS3505
ZBYN,1995-06-05 17:00,ZBYN 051700Z AUTO 30006KT 6SM 20/13 A2983 RMK T02000130 IEM_DS3505
ZBYN,1995-06-05 18:00,ZBYN 051800Z AUTO 34006KT 6SM 21/10 A2983 RMK SLP066 T02100102 52007 IEM_DS3505
ZBYN,1995-06-05 19:00,ZBYN 051900Z AUTO 00000KT 6SM 20/07 A2983 RMK T02000070 IEM_DS3505
ZBYN,1995-06-05 20:00,ZBYN 052000Z AUTO 00000KT 6SM 19/08 A2983 RMK T01900080 IEM_DS3505
ZBYN,1995-06-05 21:00,ZBYN 052100Z AUTO 32002KT 6SM 19/12 A2983 RMK SLP068 T01930119 57001 IEM_DS3505
ZBYN,1995-06-05 22:00,ZBYN 052200Z AUTO 00000KT 6SM 18/13 A2983 RMK T01800130 IEM_DS3505
ZBYN,1995-06-05 23:00,ZBYN 052300Z AUTO 00000KT 7SM 18/14 A2983 RMK T01800140 IEM_DS3505
ZBYN,1995-06-06 00:00,ZBYN 060000Z AUTO 36002KT 6SM 20/13 A2983 RMK SLP075 T01950133 52003 IEM_DS3505
ZBYN,1995-06-06 01:00,ZBYN 060100Z AUTO 00000KT 6SM 22/14 A2983 RMK T02200140 IEM_DS3505
ZBYN,1995-06-06 02:00,ZBYN 060200Z AUTO 28006KT 7SM 22/12 A2985 RMK T02200120 IEM_DS3505
ZBYN,1995-06-06 03:00,ZBYN 060300Z AUTO 00000KT 6SM 18/15 A2988 RMK SLP099 T01840148 52018 IEM_DS3505
ZBYN,1995-06-06 04:00,ZBYN 060400Z AUTO 00000KT 7SM 18/17 A2988 RMK T01800170 IEM_DS3505
ZBYN,1995-06-06 05:00,ZBYN 060500Z AUTO 16006KT 6SM 20/16 A2988 RMK T02000160 IEM_DS3505
ZBYN,1995-06-06 06:00,ZBYN 060600Z AUTO 18008KT 6SM 18/16 A2988 RMK 60008 SLP093 T01780164 57004 IEM_DS3505
ZBYN,1995-06-06 07:00,ZBYN 060700Z AUTO 21008KT 7SM 17/16 A2988 RMK T01700160 IEM_DS3505
ZBYN,1995-06-06 08:00,ZBYN 060800Z AUTO 19008KT 6SM 19/16 A2985 RMK T01900160 IEM_DS3505
ZBYN,1995-06-06 09:00,ZBYN 060900Z AUTO 14004KT 6SM 19/16 A2983 RMK SLP078 T01930157 57014 IEM_DS3505
ZBYN,1995-06-06 10:00,ZBYN 061000Z AUTO 00000KT 7SM 20/16 A2983 RMK T02000160 IEM_DS3505
ZBYN,1995-06-06 11:00,ZBYN 061100Z AUTO 00000KT 6SM 19/16 A2985 RMK T01900160 IEM_DS3505
ZBYN,1995-06-06 12:00,ZBYN 061200Z AUTO 18002KT 6SM 18/15 A2985 RMK 60000 SLP086 T01820154 52006 IEM_DS3505
ZBYN,1995-06-06 13:00,ZBYN 061300Z AUTO 00000KT 6SM 18/16 A2985 RMK T01800160 IEM_DS3505
ZBYN,1995-06-06 14:00,ZBYN 061400Z AUTO 00000KT 6SM 17/16 A2988 RMK T01700160 IEM_DS3505
ZBYN,1995-06-06 15:00,ZBYN 061500Z AUTO 00000KT 6SM 16/15 A2988 RMK SLP096 T01610153 52005 IEM_DS3505
ZBYN,1995-06-06 16:00,ZBYN 061600Z AUTO 00000KT 6SM 16/15 A2985 RMK T01600150 IEM_DS3505
ZBYN,1995-06-06 17:00,ZBYN 061700Z AUTO 00000KT 7SM 15/14 A2985 RMK T01500140 IEM_DS3505
ZBYN,1995-06-06 18:00,ZBYN 061800Z AUTO 18004KT 6SM 14/13 A2985 RMK SLP093 T01410127 57007 IEM_DS3505
ZBYN,1995-06-06 19:00,ZBYN 061900Z AUTO 00000KT 7SM 14/13 A2983 RMK T01400130 IEM_DS3505
ZBYN,1995-06-06 20:00,ZBYN 062000Z AUTO 00000KT 7SM 13/13 A2983 RMK T01300130 IEM_DS3505
ZBYN,1995-06-06 21:00,ZBYN 062100Z AUTO 16002KT 1/2SM 12/12 A2983 RMK 70008 SLP093 T01250123 54000 IEM_DS3505
ZBYN,1995-06-06 22:00,ZBYN 062200Z AUTO 08004KT 1 1/4SM 14/14 A2985 RMK T01400140 IEM_DS3505
ZBYN,1995-06-06 23:00,ZBYN 062300Z AUTO 06004KT 1SM 15/15 A2985 RMK T01500150 IEM_DS3505
ZBYN,1995-06-07 00:00,ZBYN 070000Z AUTO 16004KT 5SM 16/15 A2985 RMK 70008 SLP098 T01610153 52008 IEM_DS3505
ZBYN,1995-06-07 01:00,ZBYN 070100Z AUTO 15008KT 1SM 18/16 A2985 RMK T01800160 IEM_DS3505
ZBYN,1995-06-07 02:00,ZBYN 070200Z AUTO 05006KT 1SM 19/16 A2985 RMK T01900160 IEM_DS3505
ZBYN,1995-06-07 03:00,ZBYN 070300Z AUTO 14004KT 4SM 21/15 A2983 RMK SLP083 T02060151 57010 IEM_DS3505
ZBYN,1995-06-07 04:00,ZBYN 070400Z AUTO 18004KT 5SM 23/16 A2980 RMK T02300160 IEM_DS3505
ZBYN,1995-06-07 05:00,ZBYN 070500Z AUTO 14004KT 6SM 25/16 A2977 RMK T02500160 IEM_DS3505
ZBYN,1995-06-07 06:00,ZBYN 070600Z AUTO 22010KT 6SM 22/17 A2977 RMK SLP060 T02220167 57022 IEM_DS3505
ZBYN,1995-06-07 07:00,ZBYN 070700Z AUTO 09004KT 7SM 25/17 A2974 RMK T02500170 IEM_DS3505
ZBYN,1995-06-07 08:00,ZBYN 070800Z AUTO 33006KT 7SM 26/11 A2971 RMK T02600110 IEM_DS3505
ZBYN,1995-06-07 09:00,ZBYN 070900Z AUTO 29016KT 6SM 22/10 A2977 RMK SLP060 T02210095 57002 IEM_DS3505
ZBYN,1995-06-07 10:00,ZBYN 071000Z AUTO 30008KT 7SM 22/11 A2977 RMK T02200110 IEM_DS3505
ZBYN,1995-06-07 11:00,ZBYN 071100Z AUTO 09008KT 7SM 22/09 A2980 RMK T02200090 IEM_DS3505
ZBYN,1995-06-07 12:00,ZBYN 071200Z AUTO 09010KT 6SM 20/07 A2983 RMK SLP078 T02030074 52019 IEM_DS3505
ZBYN,1995-06-07 13:00,ZBYN 071300Z AUTO 09006KT 7SM 19/09 A2983 RMK T01900090 IEM_DS3505
ZBYN,1995-06-07 14:00,ZBYN 071400Z AUTO 09010KT 7SM 18/09 A2983 RMK T01800090 IEM_DS3505
ZBYN,1995-06-07 15:00,ZBYN 071500Z AUTO 00000KT 6SM 16/10 A2983 RMK SLP080 T01630105 52002 IEM_DS3505
ZBYN,1995-06-07 16:00,ZBYN 071600Z AUTO 12004KT 7SM 16/11 A2983 RMK T01600110 IEM_DS3505
ZBYN,1995-06-07 17:00,ZBYN 071700Z AUTO 33002KT 7SM 16/11 A2983 RMK T01600110 IEM_DS3505
ZBYN,1995-06-07 18:00,ZBYN 071800Z AUTO 36004KT 6SM 15/10 A2983 RMK SLP077 T01490103 57002 IEM_DS3505
ZBYN,1995-06-07 19:00,ZBYN 071900Z AUTO 12002KT 7SM 14/10 A2980 RMK T01400100 IEM_DS3505
ZBYN,1995-06-07 20:00,ZBYN 072000Z AUTO 00000KT 7SM 13/10 A2980 RMK T01300100 IEM_DS3505
ZBYN,1995-06-07 21:00,ZBYN 072100Z AUTO 32004KT 6SM 13/10 A2983 RMK SLP081 T01270105 54000 IEM_DS3505
ZBYN,1995-06-07 22:00,ZBYN 072200Z AUTO 00000KT 7SM 12/10 A2983 RMK T01200100 IEM_DS3505
ZBYN,1995-06-07 23:00,ZBYN 072300Z AUTO 00000KT 7SM 14/11 A2983 RMK T01400110 IEM_DS3505
ZBYN,1995-06-08 00:00,ZBYN 080000Z AUTO 34006KT 6SM 17/10 A2983 RMK SLP081 T01710105 52004 IEM_DS3505
ZBYN,1995-06-08 01:00,ZBYN 080100Z AUTO 30006KT 7SM 20/12 A2983 RMK T02000120 IEM_DS3505
ZBYN,1995-06-08 02:00,ZBYN 080200Z AUTO 00000KT 7SM 22/11 A2983 RMK T02200110 IEM_DS3505
ZBYN,1995-06-08 03:00,ZBYN 080300Z AUTO 32002KT 6SM 24/11 A2980 RMK SLP073 T02350109 57004 IEM_DS3505
ZBYN,1995-06-08 04:00,ZBYN 080400Z AUTO 00000KT 7SM 25/11 A2980 RMK T02500110 IEM_DS3505
ZBYN,1995-06-08 05:00,ZBYN 080500Z AUTO 17004KT 7SM 27/11 A2977 RMK T02700110 IEM_DS3505
ZBYN,1995-06-08 06:00,ZBYN 080600Z AUTO 20006KT 12SM 27/10 A2974 RMK SLP046 T02720105 57021 IEM_DS3505
ZBYN,1995-06-08 07:00,ZBYN 080700Z AUTO 12008KT 7SM 29/12 A2971 RMK T02900120 IEM_DS3505
ZBYN,1995-06-08 08:00,ZBYN 080800Z AUTO 15006KT 7SM 29/10 A2971 RMK T02900100 IEM_DS3505
ZBYN,1995-06-08 09:00,ZBYN 080900Z AUTO 20008KT 12SM 28/15 A2968 RMK SLP026 T02810150 57020 IEM_DS3505
ZBYN,1995-06-08 10:00,ZBYN 081000Z AUTO 25004KT 7SM 27/11 A2968 RMK T02700110 IEM_DS3505
ZBYN,1995-06-08 11:00,ZBYN 081100Z AUTO 12014KT 7SM 25/11 A2965 RMK T02500110 IEM_DS3505
ZBYN,1995-06-08 12:00,ZBYN 081200Z AUTO 22004KT 6SM 24/16 A2971 RMK SLP029 T02410161 52003 IEM_DS3505
ZBYN,1995-06-08 13:00,ZBYN 081300Z AUTO 07008KT 7SM 17/13 A2974 RMK T01700130 IEM_DS3505
ZBYN,1995-06-08 14:00,ZBYN 081400Z AUTO 10012KT 6SM 17/13 A2977 RMK T01700130 IEM_DS3505
ZBYN,1995-06-08 15:00,ZBYN 081500Z AUTO 14002KT 6SM 18/14 A2977 RMK SLP046 T01840135 52016 IEM_DS3505
ZBYN,1995-06-08 16:00,ZBYN 081600Z AUTO 09004KT 7SM 17/13 A2974 RMK T01700130 IEM_DS3505
ZBYN,1995-06-08 17:00,ZBYN 081700Z AUTO 00000KT 6SM 17/13 A2977 RMK T01700130 IEM_DS3505
ZBYN,1995-06-08 18:00,ZBYN 081800Z AUTO 34002KT 6SM 18/13 A2977 RMK 60001 SLP043 T01760126 52002 IEM_DS3505
ZBYN,1995-06-08 19:00,ZBYN 081900Z AUTO 00000KT 6SM 17/13 A2974 RMK T01700130 IEM_DS3505
ZBYN,1995-06-08 20:00,ZBYN 082000Z AUTO 36004KT 6SM 17/14 A2974 RMK T01700140 IEM_DS3505
ZBYN,1995-06-08 21:00,ZBYN 082100Z AUTO 29004KT 3SM 16/12 A2974 RMK 70001 SLP038 T01590121 57006 IEM_DS3505
ZBYN,1995-06-08 22:00,ZBYN 082200Z AUTO 03004KT 7SM 16/14 A2974 RMK T01600140 IEM_DS3505
ZBYN,1995-06-08 23:00,ZBYN 082300Z AUTO 00000KT 7SM 18/14 A2974 RMK T01800140 IEM_DS3505
ZBYN,1995-06-09 00:00,ZBYN 090000Z AUTO 32004KT 4SM 19/15 A2977 RMK 70001 SLP041 T01940148 52002 IEM_DS3505
ZBYN,1995-06-09 01:00,ZBYN 090100Z AUTO 08010KT 5SM 21/16 A2974 RMK T02100160 IEM_DS3505
ZBYN,1995-06-09 02:00,ZBYN 090200Z AUTO 08010KT 6SM 22/16 A2974 RMK T02200160 IEM_DS3505
ZBYN,1995-06-09 03:00,ZBYN 090300Z AUTO 11006KT 5SM 22/15 A2974 RMK SLP043 T02160148 57003 IEM_DS3505
ZBYN,1995-06-09 04:00,ZBYN 090400Z AUTO 05006KT 6SM 25/18 A2971 RMK T02500180 IEM_DS3505
ZBYN,1995-06-09 05:00,ZBYN 090500Z AUTO 06012KT 7SM 26/17 A2968 RMK T02600170 IEM_DS3505
ZBYN,1995-06-09 06:00,ZBYN 090600Z AUTO 14006KT 6SM 25/17 A2965 RMK SLP017 T02470171 57021 IEM_DS3505
ZBYN,1995-06-09 07:00,ZBYN 090700Z AUTO 05014KT 7SM 23/16 A2959 RMK T02300160 IEM_DS3505
ZBYN,1995-06-09 08:00,ZBYN 090800Z AUTO 12010KT 7SM A2968 RMK IEM_DS3505
ZBYN,1995-06-09 09:00,ZBYN 090900Z AUTO 04008KT 6SM 17/14 A2968 RMK SLP042 T01720138 52010 IEM_DS3505
ZBYN,1995-06-09 10:00,ZBYN 091000Z AUTO 07006KT 7SM 15/14 A2977 RMK T01500140 IEM_DS3505
ZBYN,1995-06-09 11:00,ZBYN 091100Z AUTO 03004KT 7SM 15/13 A2974 RMK T01500130 IEM_DS3505
ZBYN,1995-06-09 12:00,ZBYN 091200Z AUTO 32006KT 6SM 14/12 A2974 RMK 60016 SLP053 T01440123 52011 IEM_DS3505
ZBYN,1995-06-09 13:00,ZBYN 091300Z AUTO 29006KT 6SM 15/11 A2980 RMK T01500110 IEM_DS3505
ZBYN,1995-06-09 14:00,ZBYN 091400Z AUTO 29004KT 7SM 15/12 A2980 RMK T01500120 IEM_DS3505
ZBYN,1995-06-09 15:00,ZBYN 091500Z AUTO 34006KT 6SM 15/12 A2983 RMK SLP077 T01510119 52026 IEM_DS3505
ZBYN,1995-06-09 16:00,ZBYN 091600Z AUTO 36008KT 6SM 15/12 A2983 RMK T01500120 IEM_DS3505
ZBYN,1995-06-09 17:00,ZBYN 091700Z AUTO 32004KT 6SM 15/12 A2983 RMK T01500120 IEM_DS3505
ZBYN,1995-06-09 18:00,ZBYN 091800Z AUTO 32004KT 6SM 14/12 A2983 RMK SLP072 T01450124 57001 IEM_DS3505
ZBYN,1995-06-09 19:00,ZBYN 091900Z AUTO 33006KT 7SM 15/13 A2983 RMK T01500130 IEM_DS3505
ZBYN,1995-06-09 20:00,ZBYN 092000Z AUTO 35004KT 7SM 15/13 A2983 RMK T01500130 IEM_DS3505
ZBYN,1995-06-09 21:00,ZBYN 092100Z AUTO 34004KT 5SM 14/13 A2983 RMK SLP058 T01390134 57024 IEM_DS3505
ZBYN,1995-06-09 22:00,ZBYN 092200Z AUTO 36006KT 7SM 14/13 A2983 RMK T01400130 IEM_DS3505
ZBYN,1995-06-09 23:00,ZBYN 092300Z AUTO 00000KT 7SM 15/13 A2985 RMK T01500130 IEM_DS3505
ZBYN,1995-06-10 00:00,ZBYN 100000Z AUTO 34004KT 6SM 16/13 A2988 RMK 60008 70024 SLP107 T01610132 52015 IEM_DS3505
ZBYN,1995-06-10 01:00,ZBYN 100100Z AUTO 00000KT 7SM 17/15 A2988 RMK T01700150 IEM_DS3505
ZBYN,1995-06-10 02:00,ZBYN 100200Z AUTO 00000KT 7SM 18/15 A2988 RMK T01800150 IEM_DS3505
ZBYN,1995-06-10 03:00,ZBYN 100300Z AUTO 34008KT 6SM 19/13 A2988 RMK SLP104 T01940131 52003 IEM_DS3505
ZBYN,1995-06-10 04:00,ZBYN 100400Z AUTO 11006KT 7SM 19/16 A2991 RMK T01900160 IEM_DS3505
ZBYN,1995-06-10 05:00,ZBYN 100500Z AUTO 07012KT 7SM 20/14 A2991 RMK T02000140 IEM_DS3505
ZBYN,1995-06-10 06:00,ZBYN 100600Z AUTO 09006KT 7SM 20/13 A2988 RMK SLP105 T02030132 52001 IEM_DS3505
ZBYN,1995-06-10 07:00,ZBYN 100700Z AUTO 12006KT 7SM 21/15 A2988 RMK T02100150 IEM_DS3505
ZBYN,1995-06-10 08:00,ZBYN 100800Z AUTO 10008KT 6SM 21/15 A2985 RMK T02100150 IEM_DS3505
ZBYN,1995-06-10 09:00,ZBYN 100900Z AUTO 16008KT 7SM 21/ A2985 RMK SLP096 57008 IEM_DS3505
ZBYN,1995-06-10 10:00,ZBYN 101000Z AUTO 08004KT 6SM 21/15 A2985 RMK T02100150 IEM_DS3505
ZBYN,1995-06-10 11:00,ZBYN 101100Z AUTO 10006KT 6SM 20/14 A2988 RMK T02000140 IEM_DS3505
ZBYN,1995-06-10 12:00,ZBYN 101200Z AUTO 00000KT 12SM 18/14 A2991 RMK SLP109 T01820138 52011 IEM_DS3505
ZBYN,1995-06-10 13:00,ZBYN 101300Z AUTO 06004KT 7SM 16/14 A2991 RMK T01600140 IEM_DS3505
ZBYN,1995-06-10 14:00,ZBYN 101400Z AUTO 00000KT 7SM 16/13 A2994 RMK T01600130 IEM_DS3505
ZBYN,1995-06-10 15:00,ZBYN 101500Z AUTO 36002KT 6SM 16/13 A2994 RMK SLP118 T01630132 52010 IEM_DS3505
ZBYN,1995-06-10 16:00,ZBYN 101600Z AUTO 00000KT 7SM 15/12 A2991 RMK T01500120 IEM_DS3505
ZBYN,1995-06-10 17:00,ZBYN 101700Z AUTO 00000KT 7SM 14/12 A2994 RMK T01400120 IEM_DS3505
ZBYN,1995-06-10 18:00,ZBYN 101800Z AUTO 34004KT 6SM 14/12 A2994 RMK SLP129 T01450122 52001 IEM_DS3505
ZBYN,1995-06-10 19:00,ZBYN 101900Z AUTO 00000KT 4SM 12/12 A2994 RMK T01200120 IEM_DS3505
ZBYN,1995-06-10 20:00,ZBYN 102000Z AUTO 00000KT 4SM 12/12 A2994 RMK T01200120 IEM_DS3505
ZBYN,1995-06-10 21:00,ZBYN 102100Z AUTO 34004KT 6SM 14/12 RMK SLP119 T01370119 57001 IEM_DS3505
ZBYN,1995-06-10 23:00,ZBYN 102300Z AUTO 00000KT 2 1/2SM 13/12 A2997 RMK T01300120 IEM_DS3505
ZBYN,1995-06-11 00:00,ZBYN 110000Z AUTO 02004KT 6SM 18/12 A2997 RMK SLP130 T01790122 52012 IEM_DS3505
ZBYN,1995-06-11 01:00,ZBYN 110100Z AUTO 00000KT 5SM 19/14 A2997 RMK T01900140 IEM_DS3505
ZBYN,1995-06-11 02:00,ZBYN 110200Z AUTO 14004KT 7SM 22/12 A2997 RMK T02200120 IEM_DS3505
ZBYN,1995-06-11 03:00,ZBYN 110300Z AUTO 07002KT 6SM 23/09 A2997 RMK SLP128 T02330093 52003 IEM_DS3505
ZBYN,1995-06-11 04:00,ZBYN 110400Z AUTO 17006KT 7SM 24/11 A2994 RMK T02400110 IEM_DS3505
ZBYN,1995-06-11 05:00,ZBYN 110500Z AUTO 18006KT 7SM 26/14 A2994 RMK T02600140 IEM_DS3505
ZBYN,1995-06-11 06:00,ZBYN 110600Z AUTO 16004KT 6SM 26/10 A2991 RMK SLP105 T02550099 57020 IEM_DS3505
ZBYN,1995-06-11 07:00,ZBYN 110700Z AUTO 15006KT 7SM 26/12 A2988 RMK T02600120 IEM_DS3505
ZBYN,1995-06-11 08:00,ZBYN 110800Z AUTO 19006KT 7SM 27/13 A2985 RMK T02700130 IEM_DS3505
ZBYN,1995-06-11 09:00,ZBYN 110900Z AUTO 16008KT 9SM 27/08 A2985 RMK SLP086 T02670085 57017 IEM_DS3505
ZBYN,1995-06-11 10:00,ZBYN 111000Z AUTO 14004KT 7SM 26/13 A2985 RMK T02600130 IEM_DS3505
ZBYN,1995-06-11 11:00,ZBYN 111100Z AUTO 18006KT 7SM 26/13 A2985 RMK T02600130 IEM_DS3505
ZBYN,1995-06-11 12:00,ZBYN 111200Z AUTO 00000KT 9SM 23/13 A2988 RMK SLP092 T02300130 52006 IEM_DS3505
ZBYN,1995-06-11 13:00,ZBYN 111300Z AUTO 06006KT 7SM 20/15 A2988 RMK T02000150 IEM_DS3505
ZBYN,1995-06-11 14:00,ZBYN 111400Z AUTO 07008KT 7SM 20/13 A2991 RMK T02000130 IEM_DS3505
ZBYN,1995-06-11 15:00,ZBYN 111500Z AUTO 29002KT 9SM 19/13 A2991 RMK SLP104 T01910126 52013 IEM_DS3505
ZBYN,1995-06-11 16:00,ZBYN 111600Z AUTO 12006KT 6SM 18/13 A2994 RMK T01800130 IEM_DS3505
ZBYN,1995-06-11 17:00,ZBYN 111700Z AUTO 09006KT 7SM 17/13 A2994 RMK T01700130 IEM_DS3505
ZBYN,1995-06-11 18:00,ZBYN 111800Z AUTO 29002KT 6SM 17/12 A2991 RMK SLP110 T01720125 52006 IEM_DS3505
ZBYN,1995-06-11 19:00,ZBYN 111900Z AUTO 06004KT 7SM 15/13 A2994 RMK T01500130 IEM_DS3505
ZBYN,1995-06-11 20:00,ZBYN 112000Z AUTO 00000KT 7SM 15/13 A2994 RMK T01500130 IEM_DS3505
ZBYN,1995-06-11 21:00,ZBYN 112100Z AUTO 00000KT 6SM 14/12 A2994 RMK SLP116 T01380122 52002 IEM_DS3505
ZBYN,1995-06-11 22:00,ZBYN 112200Z AUTO 14004KT 4SM 14/12 A2997 RMK T01400120 IEM_DS3505
ZBYN,1995-06-11 23:00,ZBYN 112300Z AUTO 00000KT 4SM 16/13 A2997 RMK T01600130 IEM_DS3505
ZBYN,1995-06-12 00:00,ZBYN 120000Z AUTO 14004KT 6SM 18/13 A2997 RMK SLP126 T01780132 52010 IEM_DS3505
ZBYN,1995-06-12 01:00,ZBYN 120100Z AUTO 17006KT 7SM 21/14 A2997 RMK T02100140 IEM_DS3505
ZBYN,1995-06-12 03:00,ZBYN 120300Z AUTO 14006KT 6SM 24/13 A2994 RMK SLP113 T02410134 57009 IEM_DS3505
ZBYN,1995-06-12 04:00,ZBYN 120400Z AUTO 23006KT 7SM 26/14 A2994 RMK T02600140 IEM_DS3505
ZBYN,1995-06-12 05:00,ZBYN 120500Z AUTO 17004KT 7SM 27/14 A2991 RMK T02700140 IEM_DS3505
ZBYN,1995-06-12 06:00,ZBYN 120600Z AUTO 18008KT 7SM 28/16 A2988 RMK SLP084 T02750165 57024 IEM_DS3505
ZBYN,1995-06-12 07:00,ZBYN 120700Z AUTO 00000KT 7SM 28/15 A2985 RMK T02800150 IEM_DS3505
ZBYN,1995-06-12 08:00,ZBYN 120800Z AUTO 08004KT 7SM 29/16 A2983 RMK T02900160 IEM_DS3505
ZBYN,1995-06-12 09:00,ZBYN 120900Z AUTO 27004KT 7SM 28/20 A2983 RMK SLP070 T02830202 57016 IEM_DS3505
ZBYN,1995-06-12 10:00,ZBYN 121000Z AUTO 00000KT 7SM 27/16 A2983 RMK T02700160 IEM_DS3505
ZBYN,1995-06-12 11:00,ZBYN 121100Z AUTO 00000KT 7SM 26/16 A2983 RMK T02600160 IEM_DS3505
ZBYN,1995-06-12 12:00,ZBYN 121200Z AUTO 14004KT 6SM 25/18 A2983 RMK SLP067 T02460185 57003 IEM_DS3505
ZBYN,1995-06-12 13:00,ZBYN 121300Z AUTO 07006KT 7SM 22/16 A2983 RMK T02200160 IEM_DS3505
ZBYN,1995-06-12 14:00,ZBYN 121400Z AUTO 09006KT 7SM 21/15 A2985 RMK T02100150 IEM_DS3505
ZBYN,1995-06-12 15:00,ZBYN 121500Z AUTO 00000KT 6SM 20/15 A2985 RMK SLP079 T02050153 52014 IEM_DS3505
ZBYN,1995-06-12 16:00,ZBYN 121600Z AUTO 11008KT 7SM 20/13 A2988 RMK T02000130 IEM_DS3505
ZBYN,1995-06-12 17:00,ZBYN 121700Z AUTO 09006KT 7SM 18/13 A2988 RMK T01800130 IEM_DS3505
ZBYN,1995-06-12 18:00,ZBYN 121800Z AUTO 27002KT 6SM 18/14 A2985 RMK SLP082 T01760135 52004 IEM_DS3505
ZBYN,1995-06-12 19:00,ZBYN 121900Z AUTO 09006KT 7SM 17/13 A2988 RMK T01700130 IEM_DS3505
ZBYN,1995-06-12 20:00,ZBYN 122000Z AUTO 09006KT 6SM 16/13 A2988 RMK T01600130 IEM_DS3505
ZBYN,1995-06-12 21:00,ZBYN 122100Z AUTO 00000KT 6SM 16/13 A2988 RMK SLP090 T01610132 52006 IEM_DS3505
ZBYN,1995-06-12 22:00,ZBYN 122200Z AUTO 10006KT 6SM 16/14 A2991 RMK T01600140 IEM_DS3505
ZBYN,1995-06-12 23:00,ZBYN 122300Z AUTO 14004KT 6SM 18/15 A2991 RMK T01800150 IEM_DS3505
ZBYN,1995-06-13 00:00,ZBYN 130000Z AUTO 00000KT 6SM 20/14 A2991 RMK SLP095 T01960139 52004 IEM_DS3505
ZBYN,1995-06-13 01:00,ZBYN 130100Z AUTO 11006KT 6SM 23/15 A2991 RMK T02300150 IEM_DS3505
ZBYN,1995-06-13 02:00,ZBYN 130200Z AUTO 13004KT 6SM 25/15 A2991 RMK T02500150 IEM_DS3505
ZBYN,1995-06-13 03:00,ZBYN 130300Z AUTO 11006KT 6SM 26/18 A2988 RMK SLP087 T02560178 57004 IEM_DS3505
ZBYN,1995-06-13 04:00,ZBYN 130400Z AUTO 12006KT 6SM 27/16 A2985 RMK T02700160 IEM_DS3505
ZBYN,1995-06-13 05:00,ZBYN 130500Z AUTO 00000KT 6SM 28/15 A2983 RMK T02800150 IEM_DS3505
ZBYN,1995-06-13 06:00,ZBYN 130600Z AUTO 18002KT 9SM 30/22 A2983 RMK SLP062 T02950219 57022 IEM_DS3505
ZBYN,1995-06-13 07:00,ZBYN 130700Z AUTO 23010KT 6SM 30/15 A2980 RMK T03000150 IEM_DS3505
ZBYN,1995-06-13 08:00,ZBYN 130800Z AUTO 19008KT 7SM 30/13 A2980 RMK T03000130 IEM_DS3505
ZBYN,1995-06-13 09:00,ZBYN 130900Z AUTO 22008KT 6SM 30/ A2977 RMK SLP048 57014 IEM_DS3505
ZBYN,1995-06-13 10:00,ZBYN 131000Z AUTO 11016KT 7SM 26/12 A2980 RMK T02600120 IEM_DS3505
ZBYN,1995-06-13 11:00,ZBYN 131100Z AUTO 09010KT 7SM 24/13 A2983 RMK T02400130 IEM_DS3505
ZBYN,1995-06-13 12:00,ZBYN 131200Z AUTO 07010KT 6SM 25/20 A2983 RMK SLP063 T02510199 52012 IEM_DS3505
ZBYN,1995-06-13 13:00,ZBYN 131300Z AUTO 30004KT 6SM 24/11 A2983 RMK T02400110 IEM_DS3505
ZBYN,1995-06-13 14:00,ZBYN 131400Z AUTO 15006KT 6SM 22/13 A2983 RMK T02200130 IEM_DS3505
ZBYN,1995-06-13 15:00,ZBYN 131500Z AUTO 14004KT 6SM 23/17 A2983 RMK SLP062 T02260171 52004 IEM_DS3505
ZBYN,1995-06-13 16:00,ZBYN 131600Z AUTO 09004KT 6SM 20/15 A2983 RMK T02000150 IEM_DS3505
ZBYN,1995-06-13 17:00,ZBYN 131700Z AUTO 00000KT 6SM 20/15 A2983 RMK T02000150 IEM_DS3505
ZBYN,1995-06-13 18:00,ZBYN 131800Z AUTO 29002KT 6SM 20/16 A2984 RMK SLP064 T01990155 52003 IEM_DS3505
ZBYN,1995-06-13 19:00,ZBYN 131900Z AUTO 00000KT 6SM 19/15 A2985 RMK T01900150 IEM_DS3505
ZBYN,1995-06-13 20:00,ZBYN 132000Z AUTO 00000KT 6SM 19/15 A2985 RMK T01900150 IEM_DS3505
ZBYN,1995-06-13 21:00,ZBYN 132100Z AUTO 34002KT 4SM 19/15 A2985 RMK SLP071 T01880149 52005 IEM_DS3505
ZBYN,1995-06-13 22:00,ZBYN 132200Z AUTO 00000KT 6SM 19/14 A2985 RMK T01900140 IEM_DS3505
ZBYN,1995-06-13 23:00,ZBYN 132300Z AUTO 00000KT 6SM 20/15 A2988 RMK T02000150 IEM_DS3505
ZBYN,1995-06-14 00:00,ZBYN 140000Z AUTO 32004KT 5SM 22/16 A2988 RMK SLP086 T02160158 52012 IEM_DS3505
ZBYN,1995-06-14 01:00,ZBYN 140100Z AUTO 09010KT 7SM 22/15 A2991 RMK T02200150 IEM_DS3505
ZBYN,1995-06-14 02:00,ZBYN 140200Z AUTO 06008KT 7SM 22/16 A2991 RMK T02200160 IEM_DS3505
ZBYN,1995-06-14 03:00,ZBYN 140300Z AUTO 09012KT 6SM 24/20 A2988 RMK SLP089 T02390197 52002 IEM_DS3505
ZBYN,1995-06-14 04:00,ZBYN 140400Z AUTO 05010KT 7SM 25/17 A2988 RMK T02500170 IEM_DS3505
ZBYN,1995-06-14 05:00,ZBYN 140500Z AUTO 10010KT 7SM 26/18 A2985 RMK T02600180 IEM_DS3505
ZBYN,1995-06-14 06:00,ZBYN 140600Z AUTO 11012KT 6SM 27/22 A2985 RMK SLP071 T02680224 57016 IEM_DS3505
ZBYN,1995-06-14 07:00,ZBYN 140700Z AUTO 09006KT 6SM 27/18 A2983 RMK T02700180 IEM_DS3505
ZBYN,1995-06-14 08:00,ZBYN 140800Z AUTO 10006KT 6SM 27/17 A2980 RMK T02700170 IEM_DS3505
ZBYN,1995-06-14 09:00,ZBYN 140900Z AUTO 11010KT 6SM 27/22 A2980 RMK SLP053 T02730225 57017 IEM_DS3505
ZBYN,1995-06-14 10:00,ZBYN 141000Z AUTO 12004KT 7SM 26/16 A2980 RMK T02600160 IEM_DS3505
ZBYN,1995-06-14 11:00,ZBYN 141100Z AUTO 35010KT 7SM 23/14 A2983 RMK T02300140 IEM_DS3505
ZBYN,1995-06-14 12:00,ZBYN 141200Z AUTO 16002KT 6SM 22/18 A2983 RMK SLP070 T02240178 52012 IEM_DS3505
ZBYN,1995-06-14 13:00,ZBYN 141300Z AUTO 04006KT 7SM 21/17 A2983 RMK T02100170 IEM_DS3505
ZBYN,1995-06-14 14:00,ZBYN 141400Z AUTO 00000KT 7SM 19/16 A2985 RMK T01900160 IEM_DS3505
ZBYN,1995-06-14 15:00,ZBYN 141500Z AUTO 32006KT 6SM 19/16 A2985 RMK SLP079 T01900160 52008 IEM_DS3505
ZBYN,1995-06-14 16:00,ZBYN 141600Z AUTO 31006KT 7SM 20/15 A2985 RMK T02000150 IEM_DS3505
ZBYN,1995-06-14 17:00,ZBYN 141700Z AUTO 00000KT 7SM 20/15 A2983 RMK T02000150 IEM_DS3505
ZBYN,1995-06-14 18:00,ZBYN 141800Z AUTO 00000KT 6SM 18/15 A2980 RMK SLP065 T01750152 57012 IEM_DS3505
ZBYN,1995-06-14 19:00,ZBYN 141900Z AUTO 00000KT 6SM 17/16 A2980 RMK T01700160 IEM_DS3505
ZBYN,1995-06-14 20:00,ZBYN 142000Z AUTO 00000KT 6SM 17/14 A2980 RMK T01700140 IEM_DS3505
ZBYN,1995-06-14 21:00,ZBYN 142100Z AUTO 34004KT 6SM 17/15 A2983 RMK SLP065 T01710153 54000 IEM_DS3505
ZBYN,1995-06-14 22:00,ZBYN 142200Z AUTO 00000KT 4SM 16/15 A2983 RMK T01600150 IEM_DS3505
ZBYN,1995-06-14 23:00,ZBYN 142300Z AUTO 00000KT 2SM 17/16 A2983 RMK T01700160 IEM_DS3505
ZBYN,1995-06-15 00:00,ZBYN 150000Z AUTO 11002KT 6SM 19/15 A2985 RMK SLP077 T01910154 52007 IEM_DS3505
ZBYN,1995-06-15 01:00,ZBYN 150100Z AUTO 15006KT 5SM 20/16 A2985 RMK T02000160 IEM_DS3505
ZBYN,1995-06-15 02:00,ZBYN 150200Z AUTO 18006KT 5SM 22/17 A2983 RMK T02200170 IEM_DS3505
ZBYN,1995-06-15 03:00,ZBYN 150300Z AUTO 16004KT 5SM 24/17 A2983 RMK SLP067 T02410171 57006 IEM_DS3505
ZBYN,1995-06-15 04:00,ZBYN 150400Z AUTO 20008KT 6SM 26/16 A2980 RMK T02600160 IEM_DS3505
ZBYN,1995-06-15 05:00,ZBYN 150500Z AUTO 14006KT 6SM 28/15 A2977 RMK T02800150 IEM_DS3505
ZBYN,1995-06-15 06:00,ZBYN 150600Z AUTO 14008KT 6SM 28/22 A2974 RMK SLP040 T02850219 57021 IEM_DS3505
ZBYN,1995-06-15 07:00,ZBYN 150700Z AUTO 14006KT 6SM 30/18 A2974 RMK T03000180 IEM_DS3505
ZBYN,1995-06-15 08:00,ZBYN 150800Z AUTO 21008KT 6SM 30/15 A2971 RMK T03000150 IEM_DS3505
ZBYN,1995-06-15 09:00,ZBYN 150900Z AUTO 18004KT 6SM 29/22 A2971 RMK SLP024 T02890225 57015 IEM_DS3505
ZBYN,1995-06-15 10:00,ZBYN 151000Z AUTO 00000KT 6SM 26/16 A2968 RMK T02600160 IEM_DS3505
ZBYN,1995-06-15 11:00,ZBYN 151100Z AUTO 09004KT 7SM 25/17 A2971 RMK T02500170 IEM_DS3505
ZBYN,1995-06-15 12:00,ZBYN 151200Z AUTO 11004KT 6SM 25/20 A2971 RMK SLP028 T02530195 52001 IEM_DS3505
ZBYN,1995-06-15 13:00,ZBYN 151300Z AUTO 06006KT 7SM 23/17 A2971 RMK T02300170 IEM_DS3505
ZBYN,1995-06-15 14:00,ZBYN 151400Z AUTO 06008KT 7SM 23/17 A2974 RMK T02300170 IEM_DS3505
ZBYN,1995-06-15 15:00,ZBYN 151500Z AUTO 00000KT 6SM 22/18 A2977 RMK SLP039 T02240181 52013 IEM_DS3505
ZBYN,1995-06-15 16:00,ZBYN 151600Z AUTO 00000KT 7SM 22/16 A2974 RMK T02200160 IEM_DS3505
ZBYN,1995-06-15 17:00,ZBYN 151700Z AUTO 09002KT 7SM 22/16 A2974 RMK T02200160 IEM_DS3505
ZBYN,1995-06-15 18:00,ZBYN 151800Z AUTO 27004KT 6SM 20/16 A2974 RMK SLP032 T02030165 57003 IEM_DS3505
ZBYN,1995-06-15 19:00,ZBYN 151900Z AUTO 09004KT 6SM 20/16 A2974 RMK T02000160 IEM_DS3505
ZBYN,1995-06-15 20:00,ZBYN 152000Z AUTO 09006KT 6SM 20/16 A2974 RMK T02000160 IEM_DS3505
ZBYN,1995-06-15 21:00,ZBYN 152100Z AUTO 18002KT 6SM 19/15 A2974 RMK SLP029 T01870153 57004 IEM_DS3505
ZBYN,1995-06-15 22:00,ZBYN 152200Z AUTO 09002KT 5SM 18/16 A2974 RMK T01800160 IEM_DS3505
ZBYN,1995-06-15 23:00,ZBYN 152300Z AUTO 00000KT 6SM 19/16 A2974 RMK T01900160 IEM_DS3505
ZBYN,1995-06-16 00:00,ZBYN 160000Z AUTO 14006KT 5SM 22/17 A2974 RMK SLP027 T02150166 57003 IEM_DS3505
ZBYN,1995-06-16 01:00,ZBYN 160100Z AUTO 11004KT 6SM 23/17 A2971 RMK T02300170 IEM_DS3505
ZBYN,1995-06-16 02:00,ZBYN 160200Z AUTO 16006KT 7SM 25/18 A2971 RMK T02500180 IEM_DS3505
ZBYN,1995-06-16 03:00,ZBYN 160300Z AUTO 16008KT 6SM 25/20 A2971 RMK SLP024 T02520203 57002 IEM_DS3505
ZBYN,1995-06-16 04:00,ZBYN 160400Z AUTO 17008KT 6SM 26/14 A2968 RMK T02600140 IEM_DS3505
ZBYN,1995-06-16 05:00,ZBYN 160500Z AUTO 22008KT 6SM 26/13 A2971 RMK T02600130 IEM_DS3505
ZBYN,1995-06-16 06:00,ZBYN 160600Z AUTO 20010KT 6SM 25/20 A2968 RMK SLP019 T02490203 57008 IEM_DS3505
ZBYN,1995-06-16 07:00,ZBYN 160700Z AUTO 27010KT 7SM 24/13 A2971 RMK T02400130 IEM_DS3505
ZBYN,1995-06-16 08:00,ZBYN 160800Z AUTO 22008KT 7SM 24/14 A2968 RMK T02400140 IEM_DS3505
ZBYN,1995-06-16 09:00,ZBYN 160900Z AUTO 18010KT 6SM 21/18 A2971 RMK SLP035 T02090175 52007 IEM_DS3505
ZBYN,1995-06-16 10:00,ZBYN 161000Z AUTO 17004KT 7SM 20/15 A2974 RMK T02000150 IEM_DS3505
ZBYN,1995-06-16 11:00,ZBYN 161100Z AUTO 13004KT 7SM 19/16 A2974 RMK T01900160 IEM_DS3505
ZBYN,1995-06-16 12:00,ZBYN 161200Z AUTO 18006KT 6SM 18/16 A2974 RMK 60004 SLP045 T01800157 52009 IEM_DS3505
ZBYN,1995-06-16 13:00,ZBYN 161300Z AUTO 14006KT 7SM 18/16 A2974 RMK T01800160 IEM_DS3505
ZBYN,1995-06-16 14:00,ZBYN 161400Z AUTO 15008KT 7SM 18/16 A2974 RMK T01800160 IEM_DS3505
ZBYN,1995-06-16 15:00,ZBYN 161500Z AUTO 11004KT 6SM 17/14 A2974 RMK SLP041 T01730141 52001 IEM_DS3505
ZBYN,1995-06-16 16:00,ZBYN 161600Z AUTO 13004KT 7SM 17/15 A2974 RMK T01700150 IEM_DS3505
ZBYN,1995-06-16 17:00,ZBYN 161700Z AUTO 11004KT 7SM 17/15 A2971 RMK T01700150 IEM_DS3505
ZBYN,1995-06-16 18:00,ZBYN 161800Z AUTO 16004KT 6SM 17/15 A2969 RMK SLP025 T01670151 57016 IEM_DS3505
ZBYN,1995-06-16 19:00,ZBYN 161900Z AUTO 21006KT 4SM 16/16 A2968 RMK T01600160 IEM_DS3505
ZBYN,1995-06-16 20:00,ZBYN 162000Z AUTO 19006KT 4SM 16/16 A2965 RMK T01600160 IEM_DS3505
ZBYN,1995-06-16 21:00,ZBYN 162100Z AUTO 18002KT 2 1/2SM 16/16 A2965 RMK 70004 SLP025 T01600155 57007 IEM_DS3505
ZBYN,1995-06-16 22:00,ZBYN 162200Z AUTO 00000KT 1SM 16/16 A2965 RMK T01600160 IEM_DS3505
ZBYN,1995-06-16 23:00,ZBYN 162300Z AUTO 15006KT 1 1/4SM 17/16 A2965 RMK T01700160 IEM_DS3505
ZBYN,1995-06-17 00:00,ZBYN 170000Z AUTO 14004KT 3SM 16/16 A2965 RMK 60002 70004 SLP026 T01630156 57003 IEM_DS3505
ZBYN,1995-06-17 01:00,ZBYN 170100Z AUTO 17006KT 4SM 17/16 A2965 RMK T01700160 IEM_DS3505
ZBYN,1995-06-17 02:00,ZBYN 170200Z AUTO 21004KT 3SM 19/15 A2965 RMK T01900150 IEM_DS3505
ZBYN,1995-06-17 03:00,ZBYN 170300Z AUTO 14008KT 3SM 18/16 A2962 RMK SLP014 T01780160 57009 IEM_DS3505
ZBYN,1995-06-17 04:00,ZBYN 170400Z AUTO 36012KT 3SM 20/16 RMK T02000160 IEM_DS3505
ZBYN,1995-06-17 05:00,ZBYN 170500Z AUTO 04006KT 7SM 14/14 RMK T01400140 IEM_DS3505
ZBYN,1995-06-17 06:00,ZBYN 170600Z AUTO 11004KT 6SM 16/14 A2963 RMK 60008 SLP018 T01560137 57001 IEM_DS3505
ZBYN,1995-06-17 07:00,ZBYN 170700Z AUTO 15004KT 7SM 16/15 A2962 RMK T01600150 IEM_DS3505
ZBYN,1995-06-17 08:00,ZBYN 170800Z AUTO 20004KT 7SM 18/15 A2959 RMK T01800150 IEM_DS3505
ZBYN,1995-06-17 09:00,ZBYN 170900Z AUTO 14004KT 6SM 18/15 A2959 RMK SLP006 T01840150 57008 IEM_DS3505
ZBYN,1995-06-17 10:00,ZBYN 171000Z AUTO 00000KT 7SM 19/15 A2959 RMK T01900150 IEM_DS3505
ZBYN,1995-06-17 11:00,ZBYN 171100Z AUTO 25004KT 7SM 17/14 RMK T01700140 IEM_DS3505
ZBYN,1995-06-17 12:00,ZBYN 171200Z AUTO 00000KT 4SM 17/15 A2962 RMK 60020 SLP016 T01690151 52008 IEM_DS3505
ZBYN,1995-06-17 13:00,ZBYN 171300Z AUTO 35004KT 3SM 16/15 RMK T01600150 IEM_DS3505
ZBYN,1995-06-17 14:00,ZBYN 171400Z AUTO 00000KT 3SM 15/15 A2965 RMK T01500150 IEM_DS3505
ZBYN,1995-06-17 15:00,ZBYN 171500Z AUTO 34004KT 9SM 17/11 A2965 RMK SLP019 T01660107 52004 IEM_DS3505
ZBYN,1995-06-17 16:00,ZBYN 171600Z AUTO 15004KT 7SM 15/14 A2965 RMK T01500140 IEM_DS3505
ZBYN,1995-06-17 17:00,ZBYN 171700Z AUTO 07004KT 7SM 14/14 A2965 RMK T01400140 IEM_DS3505
ZBYN,1995-06-17 18:00,ZBYN 171800Z AUTO 18002KT 9SM 13/12 A2962 RMK SLP028 T01320121 54000 IEM_DS3505
ZBYN,1995-06-17 19:00,ZBYN 171900Z AUTO 07002KT 3SM 14/13 A2962 RMK T01400130 IEM_DS3505
ZBYN,1995-06-17 20:00,ZBYN 172000Z AUTO 00000KT 2 1/2SM 14/13 A2965 RMK T01400130 IEM_DS3505
ZBYN,1995-06-17 21:00,ZBYN 172100Z AUTO 16006KT 5SM 11/11 A2965 RMK 70028 SLP031 T01110109 52004 IEM_DS3505
ZBYN,1995-06-17 22:00,ZBYN 172200Z AUTO 13004KT 4SM 11/11 A2965 RMK T01100110 IEM_DS3505
ZBYN,1995-06-17 23:00,ZBYN 172300Z AUTO 10004KT 5SM 13/12 A2968 RMK T01300120 IEM_DS3505
ZBYN,1995-06-18 00:00,ZBYN 180000Z AUTO 14004KT 5SM 16/12 A2968 RMK 70028 SLP035 T01550122 52008 IEM_DS3505
ZBYN,1995-06-18 01:00,ZBYN 180100Z AUTO 00000KT 3SM 19/14 A2968 RMK T01900140 IEM_DS3505
ZBYN,1995-06-18 02:00,ZBYN 180200Z AUTO 00000KT 7SM 21/14 A2968 RMK T02100140 IEM_DS3505
ZBYN,1995-06-18 03:00,ZBYN 180300Z AUTO 00000KT 7SM 24/14 A2968 RMK T02400140 IEM_DS3505
ZBYN,1995-06-18 06:00,ZBYN 180600Z AUTO 34004KT 12SM 26/10 A2965 RMK SLP015 T02640105 57006 IEM_DS3505
ZBYN,1995-06-18 07:00,ZBYN 180700Z AUTO 30006KT 7SM 28/10 A2965 RMK T02800100 IEM_DS3505
ZBYN,1995-06-18 08:00,ZBYN 180800Z AUTO 00000KT 7SM 28/13 A2962 RMK T02800130 IEM_DS3505
ZBYN,1995-06-18 09:00,ZBYN 180900Z AUTO 34006KT 12SM 29/07 A2962 RMK SLP994 T02870074 57007 IEM_DS3505
ZBYN,1995-06-18 10:00,ZBYN 181000Z AUTO 35008KT 7SM 28/09 A2962 RMK T02800090 IEM_DS3505
ZBYN,1995-06-18 11:00,ZBYN 181100Z AUTO 00000KT 7SM 26/14 A2965 RMK T02600140 IEM_DS3505
ZBYN,1995-06-18 12:00,ZBYN 181200Z AUTO 00000KT 12SM 24/08 A2965 RMK SLP018 T02370080 52009 IEM_DS3505
ZBYN,1995-06-18 13:00,ZBYN 181300Z AUTO 00000KT 7SM 20/13 A2968 RMK T02000130 IEM_DS3505
ZBYN,1995-06-18 15:00,ZBYN 181500Z AUTO 00000KT 9SM 16/12 A2971 RMK SLP034 T01630123 52015 IEM_DS3505
ZBYN,1995-06-18 16:00,ZBYN 181600Z AUTO 06004KT 7SM 16/12 A2971 RMK T01600120 IEM_DS3505
ZBYN,1995-06-18 17:00,ZBYN 181700Z AUTO 00000KT 7SM 15/12 A2971 RMK T01500120 IEM_DS3505
ZBYN,1995-06-18 18:00,ZBYN 181800Z AUTO 00000KT 6SM 14/12 A2971 RMK SLP033 T01430120 52001 IEM_DS3505
ZBYN,1995-06-18 19:00,ZBYN 181900Z AUTO 00000KT 7SM 14/11 A2971 RMK T01400110 IEM_DS3505
ZBYN,1995-06-18 21:00,ZBYN 182100Z AUTO 11002KT 6SM 13/12 A2974 RMK SLP039 T01270122 52006 IEM_DS3505
ZBYN,1995-06-18 22:00,ZBYN 182200Z AUTO 00000KT 7SM 12/11 A2974 RMK T01200110 IEM_DS3505
ZBYN,1995-06-18 23:00,ZBYN 182300Z AUTO 00000KT 4SM 14/12 A2974 RMK T01400120 IEM_DS3505
ZBYN,1995-06-19 00:00,ZBYN 190000Z AUTO 29002KT 6SM 18/13 A2977 RMK SLP051 T01770131 52011 IEM_DS3505
ZBYN,1995-06-19 01:00,ZBYN 190100Z AUTO 00000KT 5SM 21/13 A2977 RMK T02100130 IEM_DS3505
ZBYN,1995-06-19 02:00,ZBYN 190200Z AUTO 19004KT 7SM 25/13 A2974 RMK T02500130 IEM_DS3505
ZBYN,1995-06-19 03:00,ZBYN 190300Z AUTO 14006KT 6SM 26/13 A2974 RMK SLP043 T02610127 57006 IEM_DS3505
ZBYN,1995-06-19 04:00,ZBYN 190400Z AUTO 17006KT 7SM 28/12 A2971 RMK T02800120 IEM_DS3505
ZBYN,1995-06-19 05:00,ZBYN 190500Z AUTO 15006KT 7SM 30/12 A2971 RMK T03000120 IEM_DS3505
ZBYN,1995-06-19 06:00,ZBYN 190600Z AUTO 16008KT 12SM 30/09 A2968 RMK SLP017 T03010092 57021 IEM_DS3505
ZBYN,1995-06-19 07:00,ZBYN 190700Z AUTO 16008KT 6SM 32/13 A2965 RMK T03200130 IEM_DS3505
ZBYN,1995-06-19 08:00,ZBYN 190800Z AUTO 11008KT 6SM 31/13 A2962 RMK T03100130 IEM_DS3505
ZBYN,1995-06-19 09:00,ZBYN 190900Z AUTO 14004KT 12SM 31/10 A2962 RMK SLP002 T03060098 57015 IEM_DS3505
ZBYN,1995-06-19 10:00,ZBYN 191000Z AUTO 00000KT 6SM 28/17 A2962 RMK T02800170 IEM_DS3505
ZBYN,1995-06-19 11:00,ZBYN 191100Z AUTO 05006KT 6SM 26/15 A2962 RMK T02600150 IEM_DS3505
ZBYN,1995-06-19 12:00,ZBYN 191200Z AUTO 02002KT 9SM 26/12 A2965 RMK SLP008 T02580117 52006 IEM_DS3505
ZBYN,1995-06-19 13:00,ZBYN 191300Z AUTO 07006KT 6SM 22/13 A2965 RMK T02200130 IEM_DS3505
ZBYN,1995-06-19 14:00,ZBYN 191400Z AUTO 07006KT 6SM 21/13 A2968 RMK T02100130 IEM_DS3505
ZBYN,1995-06-19 15:00,ZBYN 191500Z AUTO 34004KT 7SM 24/11 A2971 RMK SLP015 T02420106 52016 IEM_DS3505
ZBYN,1995-06-19 16:00,ZBYN 191600Z AUTO 08004KT 6SM 22/13 A2968 RMK T02200130 IEM_DS3505
ZBYN,1995-06-19 17:00,ZBYN 191700Z AUTO 00000KT 6SM 21/13 A2971 RMK T02100130 IEM_DS3505
ZBYN,1995-06-19 18:00,ZBYN 191800Z AUTO 00000KT 6SM 21/13 A2968 RMK SLP015 T02060127 54000 IEM_DS3505
ZBYN,1995-06-19 19:00,ZBYN 191900Z AUTO 08006KT 6SM 19/13 A2968 RMK T01900130 IEM_DS3505
ZBYN,1995-06-19 20:00,ZBYN 192000Z AUTO 00000KT 6SM 19/14 A2968 RMK T01900140 IEM_DS3505
ZBYN,1995-06-19 21:00,ZBYN 192100Z AUTO 34004KT 6SM 19/13 A2968 RMK SLP009 T01910128 57007 IEM_DS3505
ZBYN,1995-06-19 22:00,ZBYN 192200Z AUTO 32004KT 4SM 19/15 A2968 RMK T01900150 IEM_DS3505
ZBYN,1995-06-19 23:00,ZBYN 192300Z AUTO 00000KT 2SM 20/15 A2968 RMK T02000150 IEM_DS3505
ZBYN,1995-06-20 00:00,ZBYN 200000Z AUTO 36002KT 6SM 21/14 A2971 RMK SLP024 T02090138 52010 IEM_DS3505
ZBYN,1995-06-20 01:00,ZBYN 200100Z AUTO 00000KT 5SM 23/15 A2971 RMK T02300150 IEM_DS3505
ZBYN,1995-06-20 02:00,ZBYN 200200Z AUTO 00000KT 5SM 25/16 A2971 RMK T02500160 IEM_DS3505
ZBYN,1995-06-20 03:00,ZBYN 200300Z AUTO 00000KT 6SM 26/14 A2971 RMK SLP020 T02600142 52001 IEM_DS3505
ZBYN,1995-06-20 04:00,ZBYN 200400Z AUTO 30006KT 6SM 26/15 A2971 RMK T02600150 IEM_DS3505
ZBYN,1995-06-20 05:00,ZBYN 200500Z AUTO 36012KT 7SM 25/13 A2971 RMK T02500130 IEM_DS3505
ZBYN,1995-06-20 06:00,ZBYN 200600Z AUTO 34006KT 6SM 23/14 A2968 RMK SLP027 T02290135 57003 IEM_DS3505
ZBYN,1995-06-20 07:00,ZBYN 200700Z AUTO 34008KT 6SM 23/13 A2971 RMK T02300130 IEM_DS3505
ZBYN,1995-06-20 08:00,ZBYN 200800Z AUTO 08006KT 6SM 23/15 A2971 RMK T02300150 IEM_DS3505
ZBYN,1995-06-20 09:00,ZBYN 200900Z AUTO 32004KT 6SM 24/15 A2971 RMK SLP031 T02370150 52003 IEM_DS3505
ZBYN,1995-06-20 10:00,ZBYN 201000Z AUTO 04006KT 6SM 22/16 A2971 RMK T02200160 IEM_DS3505
ZBYN,1995-06-20 11:00,ZBYN 201100Z AUTO 08006KT 7SM 22/16 A2971 RMK T02200160 IEM_DS3505
ZBYN,1995-06-20 12:00,ZBYN 201200Z AUTO 00000KT 6SM 22/17 A2974 RMK SLP038 T02150166 52006 IEM_DS3505
ZBYN,1995-06-20 13:00,ZBYN 201300Z AUTO 00000KT 6SM 21/16 A2974 RMK T02100160 IEM_DS3505
ZBYN,1995-06-20 14:00,ZBYN 201400Z AUTO 00000KT 6SM 20/17 A2974 RMK T02000170 IEM_DS3505
ZBYN,1995-06-20 15:00,ZBYN 201500Z AUTO 34002KT 6SM 20/15 A2974 RMK SLP037 T01950154 52003 IEM_DS3505
ZBYN,1995-06-20 16:00,ZBYN 201600Z AUTO 00000KT 6SM 18/16 A2971 RMK T01800160 IEM_DS3505
ZBYN,1995-06-20 17:00,ZBYN 201700Z AUTO 00000KT 6SM 18/15 A2974 RMK T01800150 IEM_DS3505
ZBYN,1995-06-20 18:00,ZBYN 201800Z AUTO 34002KT 6SM 19/16 A2974 RMK SLP038 T01910157 57004 IEM_DS3505
ZBYN,1995-06-20 19:00,ZBYN 201900Z AUTO 00000KT 6SM 18/16 A2974 RMK T01800160 IEM_DS3505
ZBYN,1995-06-20 20:00,ZBYN 202000Z AUTO 00000KT 6SM 18/16 A2971 RMK T01800160 IEM_DS3505
ZBYN,1995-06-20 21:00,ZBYN 202100Z AUTO 32004KT 4SM 17/15 A2971 RMK SLP039 T01680148 57001 IEM_DS3505
ZBYN,1995-06-20 22:00,ZBYN 202200Z AUTO 00000KT 4SM 17/16 A2974 RMK T01700160 IEM_DS3505
ZBYN,1995-06-20 23:00,ZBYN 202300Z AUTO 00000KT 4SM 18/16 A2974 RMK T01800160 IEM_DS3505
ZBYN,1995-06-21 00:00,ZBYN 210000Z AUTO 32004KT 5SM 20/15 A2974 RMK SLP049 T02010154 52012 IEM_DS3505
ZBYN,1995-06-21 01:00,ZBYN 210100Z AUTO 00000KT 3SM 23/16 A2974 RMK T02300160 IEM_DS3505
ZBYN,1995-06-21 02:00,ZBYN 210200Z AUTO 00000KT 6SM 24/17 A2974 RMK T02400170 IEM_DS3505
ZBYN,1995-06-21 03:00,ZBYN 210300Z AUTO 14004KT 6SM 25/16 A2974 RMK SLP035 T02510158 57009 IEM_DS3505
ZBYN,1995-06-21 04:00,ZBYN 210400Z AUTO 27006KT 6SM 27/16 A2971 RMK T02700160 IEM_DS3505
ZBYN,1995-06-21 05:00,ZBYN 210500Z AUTO 21006KT 7SM 27/16 A2968 RMK T02700160 IEM_DS3505
ZBYN,1995-06-21 06:00,ZBYN 210600Z AUTO 34012KT 6SM 24/16 A2968 RMK SLP030 T02450162 57006 IEM_DS3505
ZBYN,1995-06-21 07:00,ZBYN 210700Z AUTO 31019KT 7SM 20/17 A2977 RMK T02000170 IEM_DS3505
ZBYN,1995-06-21 08:00,ZBYN 210800Z AUTO 31012KT 7SM 19/17 A2977 RMK T01900170 IEM_DS3505
ZBYN,1995-06-21 09:00,ZBYN 210900Z AUTO 34004KT 6SM 18/17 A2974 RMK SLP053 T01830172 52009 IEM_DS3505
ZBYN,1995-06-21 10:00,ZBYN 211000Z AUTO 16008KT 7SM 18/16 A2974 RMK T01800160 IEM_DS3505
ZBYN,1995-06-21 11:00,ZBYN 211100Z AUTO 29006KT 7SM 18/17 A2977 RMK T01800170 IEM_DS3505
ZBYN,1995-06-21 12:00,ZBYN 211200Z AUTO 09004KT 6SM 18/16 A2977 RMK 60028 SLP058 T01770164 52009 IEM_DS3505
ZBYN,1995-06-21 13:00,ZBYN 211300Z AUTO 00000KT 7SM 17/16 A2977 RMK T01700160 IEM_DS3505
ZBYN,1995-06-21 14:00,ZBYN 211400Z AUTO 00000KT 7SM 17/16 A2977 RMK T01700160 IEM_DS3505
ZBYN,1995-06-21 15:00,ZBYN 211500Z AUTO 14006KT 6SM 17/16 A2977 RMK SLP053 T01670161 52001 IEM_DS3505
ZBYN,1995-06-21 16:00,ZBYN 211600Z AUTO 11006KT 7SM 17/16 A2974 RMK T01700160 IEM_DS3505
ZBYN,1995-06-21 17:00,ZBYN 211700Z AUTO 10004KT 7SM 17/16 A2974 RMK T01700160 IEM_DS3505
ZBYN,1995-06-21 18:00,ZBYN 211800Z AUTO 00000KT 6SM 16/16 A2974 RMK SLP002 T01630156 57012 IEM_DS3505
ZBYN,1995-06-21 19:00,ZBYN 211900Z AUTO 00000KT 7SM 16/16 A2971 RMK T01600160 IEM_DS3505
ZBYN,1995-06-21 20:00,ZBYN 212000Z AUTO 13004KT 7SM 16/16 A2971 RMK T01600160 IEM_DS3505
ZBYN,1995-06-21 21:00,ZBYN 212100Z AUTO 00000KT 4SM 16/16 A2971 RMK 70028 SLP045 T01630156 57006 IEM_DS3505
ZBYN,1995-06-21 22:00,ZBYN 212200Z AUTO 09004KT 3SM 15/15 A2974 RMK T01500150 IEM_DS3505
ZBYN,1995-06-21 23:00,ZBYN 212300Z AUTO 00000KT 2 1/2SM 16/16 A2974 RMK T01600160 IEM_DS3505
ZBYN,1995-06-22 00:00,ZBYN 220000Z AUTO 00000KT 4SM 18/16 A2974 RMK 70028 SLP054 T01760163 52009 IEM_DS3505
ZBYN,1995-06-22 01:00,ZBYN 220100Z AUTO 00000KT 1 1/2SM 20/17 A2974 RMK T02000170 IEM_DS3505
ZBYN,1995-06-22 02:00,ZBYN 220200Z AUTO 00000KT 2 1/2SM 22/17 A2974 RMK T02200170 IEM_DS3505
ZBYN,1995-06-22 03:00,ZBYN 220300Z AUTO 20002KT 5SM 23/16 A2974 RMK SLP040 T02290163 57006 IEM_DS3505
ZBYN,1995-06-22 04:00,ZBYN 220400Z AUTO 00000KT 6SM 26/16 A2971 RMK T02600160 IEM_DS3505
ZBYN,1995-06-22 05:00,ZBYN 220500Z AUTO 15006KT 6SM 27/16 A2968 RMK T02700160 IEM_DS3505
ZBYN,1995-06-22 06:00,ZBYN 220600Z AUTO 16006KT 6SM 27/15 A2965 RMK SLP008 T02710153 57024 IEM_DS3505
ZBYN,1995-06-22 07:00,ZBYN 220700Z AUTO 18004KT 7SM 29/15 A2962 RMK T02900150 IEM_DS3505
ZBYN,1995-06-22 08:00,ZBYN 220800Z AUTO 16006KT 7SM 30/14 A2962 RMK T03000140 IEM_DS3505
ZBYN,1995-06-22 09:00,ZBYN 220900Z AUTO 14004KT 6SM 29/13 A2959 RMK SLP990 T02930132 57014 IEM_DS3505
ZBYN,1995-06-22 10:00,ZBYN 221000Z AUTO 16006KT 7SM 28/17 A2959 RMK T02800170 IEM_DS3505
ZBYN,1995-06-22 11:00,ZBYN 221100Z AUTO 00000KT 7SM 26/17 A2959 RMK T02600170 IEM_DS3505
ZBYN,1995-06-22 12:00,ZBYN 221200Z AUTO 29002KT 9SM 25/16 A2962 RMK SLP996 T02480158 52001 IEM_DS3505
ZBYN,1995-06-22 13:00,ZBYN 221300Z AUTO 00000KT 6SM 24/15 A2962 RMK T02400150 IEM_DS3505
ZBYN,1995-06-22 15:00,ZBYN 221500Z AUTO 34004KT 6SM 22/10 A2965 RMK SLP999 T02200101 52007 IEM_DS3505
ZBYN,1995-06-22 16:00,ZBYN 221600Z AUTO 00000KT 7SM 18/11 A2965 RMK T01800110 IEM_DS3505
ZBYN,1995-06-22 17:00,ZBYN 221700Z AUTO 00000KT 6SM 17/12 A2965 RMK T01700120 IEM_DS3505
ZBYN,1995-06-22 18:00,ZBYN 221800Z AUTO 34004KT 6SM 18/12 A2965 RMK SLP002 T01830121 52003 IEM_DS3505
ZBYN,1995-06-22 19:00,ZBYN 221900Z AUTO 00000KT 6SM 16/11 A2962 RMK T01600110 IEM_DS3505
ZBYN,1995-06-22 20:00,ZBYN 222000Z AUTO 00000KT 7SM 16/11 A2962 RMK T01600110 IEM_DS3505
ZBYN,1995-06-22 21:00,ZBYN 222100Z AUTO 32002KT 6SM 16/12 A2962 RMK SLP001 T01620118 57001 IEM_DS3505
ZBYN,1995-06-22 22:00,ZBYN 222200Z AUTO 00000KT 6SM 15/11 A2965 RMK T01500110 IEM_DS3505
ZBYN,1995-06-22 23:00,ZBYN 222300Z AUTO 00000KT 6SM 17/15 A2965 RMK T01700150 IEM_DS3505
ZBYN,1995-06-23 00:00,ZBYN 230000Z AUTO 34004KT 6SM 20/11 A2965 RMK SLP007 T02010110 52005 IEM_DS3505
ZBYN,1995-06-23 01:00,ZBYN 230100Z AUTO 00000KT 7SM 23/15 A2965 RMK T02300150 IEM_DS3505
ZBYN,1995-06-23 02:00,ZBYN 230200Z AUTO 16002KT 7SM 25/16 A2965 RMK T02500160 IEM_DS3505
ZBYN,1995-06-23 03:00,ZBYN 230300Z AUTO 14008KT 6SM 26/15 A2962 RMK SLP997 T02630152 57005 IEM_DS3505
ZBYN,1995-06-23 04:00,ZBYN 230400Z AUTO 18006KT 7SM 29/16 A2962 RMK T02900160 IEM_DS3505
ZBYN,1995-06-23 05:00,ZBYN 230500Z AUTO 17010KT 7SM 30/16 A2959 RMK T03000160 IEM_DS3505
ZBYN,1995-06-23 06:00,ZBYN 230600Z AUTO 16008KT 6SM 29/14 A2956 RMK SLP978 T02940145 57018 IEM_DS3505
ZBYN,1995-06-23 07:00,ZBYN 230700Z AUTO 18004KT 7SM 31/18 A2956 RMK T03100180 IEM_DS3505
ZBYN,1995-06-23 08:00,ZBYN 230800Z AUTO 16004KT 7SM 30/17 A2953 RMK T03000170 IEM_DS3505
ZBYN,1995-06-23 09:00,ZBYN 230900Z AUTO 20004KT 7SM 31/18 A2950 RMK SLP961 T03120179 57016 IEM_DS3505
ZBYN,1995-06-23 10:00,ZBYN 231000Z AUTO 17006KT 7SM 31/16 A2950 RMK T03100160 IEM_DS3505
ZBYN,1995-06-23 11:00,ZBYN 231100Z AUTO 21004KT 7SM 30/14 A2950 RMK T03000140 IEM_DS3505
ZBYN,1995-06-23 12:00,ZBYN 231200Z AUTO 22008KT 6SM 28/14 A2953 RMK SLP958 T02800143 57002 IEM_DS3505
ZBYN,1995-06-23 13:00,ZBYN 231300Z AUTO 06004KT 7SM 24/14 A2953 RMK T02400140 IEM_DS3505
ZBYN,1995-06-23 14:00,ZBYN 231400Z AUTO 09006KT 7SM 23/15 A2956 RMK T02300150 IEM_DS3505
ZBYN,1995-06-23 15:00,ZBYN 231500Z AUTO 16004KT 6SM 23/15 A2956 RMK SLP965 T02260149 52008 IEM_DS3505
ZBYN,1995-06-23 16:00,ZBYN 231600Z AUTO 00000KT 7SM 23/15 A2959 RMK T02300150 IEM_DS3505
ZBYN,1995-06-23 17:00,ZBYN 231700Z AUTO 15006KT 7SM 22/14 A2956 RMK T02200140 IEM_DS3505
ZBYN,1995-06-23 18:00,ZBYN 231800Z AUTO 11008KT 6SM 21/14 A2956 RMK SLP965 T02110144 52002 IEM_DS3505
ZBYN,1995-06-23 19:00,ZBYN 231900Z AUTO 12006KT 7SM 21/15 A2953 RMK T02100150 IEM_DS3505
ZBYN,1995-06-23 20:00,ZBYN 232000Z AUTO 12006KT 7SM 20/15 A2953 RMK T02000150 IEM_DS3505
ZBYN,1995-06-23 21:00,ZBYN 232100Z AUTO 14008KT 6SM 20/14 A2953 RMK SLP959 T01970139 57005 IEM_DS3505
ZBYN,1995-06-23 22:00,ZBYN 232200Z AUTO 15006KT 6SM 20/14 A2953 RMK T02000140 IEM_DS3505
ZBYN,1995-06-23 23:00,ZBYN 232300Z AUTO 12008KT 7SM 20/16 A2953 RMK T02000160 IEM_DS3505
ZBYN,1995-06-24 00:00,ZBYN 240000Z AUTO 00000KT 6SM 23/16 A2953 RMK SLP959 T02310155 54000 IEM_DS3505
ZBYN,1995-06-24 01:00,ZBYN 240100Z AUTO 15008KT 7SM 26/17 A2953 RMK T02600170 IEM_DS3505
ZBYN,1995-06-24 02:00,ZBYN 240200Z AUTO 00000KT 7SM 28/17 A2950 RMK T02800170 IEM_DS3505
ZBYN,1995-06-24 03:00,ZBYN 240300Z AUTO 18006KT 6SM 30/15 A2950 RMK SLP940 T02970152 57015 IEM_DS3505
ZBYN,1995-06-24 04:00,ZBYN 240400Z AUTO 23010KT 7SM 32/16 A2947 RMK T03200160 IEM_DS3505
ZBYN,1995-06-24 05:00,ZBYN 240500Z AUTO 31017KT 7SM 34/05 A2947 RMK T03400050 IEM_DS3505
ZBYN,1995-06-24 06:00,ZBYN 240600Z AUTO 02010KT 9SM 33/02 A2947 RMK SLP935 T03320020 57002 IEM_DS3505
ZBYN,1995-06-24 07:00,ZBYN 240700Z AUTO 35012KT 6SM 32/07 A2950 RMK T03200070 IEM_DS3505
ZBYN,1995-06-24 08:00,ZBYN 240800Z AUTO 36016KT 6SM 31/09 A2950 RMK T03100090 IEM_DS3505
ZBYN,1995-06-24 09:00,ZBYN 240900Z AUTO 02006KT 12SM 31/08 A2953 RMK SLP956 T03080080 52014 IEM_DS3505
ZBYN,1995-06-24 10:00,ZBYN 241000Z AUTO 01010KT 6SM 29/09 A2953 RMK T02900090 IEM_DS3505
ZBYN,1995-06-24 11:00,ZBYN 241100Z AUTO 04010KT 6SM 27/10 A2956 RMK T02700100 IEM_DS3505
ZBYN,1995-06-24 12:00,ZBYN 241200Z AUTO 34004KT 12SM 27/07 A2959 RMK SLP979 T02740071 52021 IEM_DS3505
ZBYN,1995-06-24 13:00,ZBYN 241300Z AUTO 36004KT 6SM 24/09 A2962 RMK T02400090 IEM_DS3505
ZBYN,1995-06-24 14:00,ZBYN 241400Z AUTO 33006KT 6SM 24/06 A2965 RMK T02400060 IEM_DS3505
ZBYN,1995-06-24 15:00,ZBYN 241500Z AUTO 32004KT 9SM 23/06 A2965 RMK SLP996 T02340057 52019 IEM_DS3505
ZBYN,1995-06-24 16:00,ZBYN 241600Z AUTO 02006KT 7SM 22/07 A2968 RMK T02200070 IEM_DS3505
ZBYN,1995-06-24 17:00,ZBYN 241700Z AUTO 00000KT 6SM 22/07 A2968 RMK T02200070 IEM_DS3505
ZBYN,1995-06-24 18:00,ZBYN 241800Z AUTO 00000KT 9SM 19/09 A2970 RMK SLP012 T01880089 52013 IEM_DS3505
ZBYN,1995-06-24 19:00,ZBYN 241900Z AUTO 00000KT 7SM 19/10 A2971 RMK T01900100 IEM_DS3505
ZBYN,1995-06-24 20:00,ZBYN 242000Z AUTO 00000KT 7SM 17/10 A2971 RMK T01700100 IEM_DS3505
ZBYN,1995-06-24 21:00,ZBYN 242100Z AUTO 00000KT 9SM 15/11 A2971 RMK SLP032 T01510106 52010 IEM_DS3505
ZBYN,1995-06-24 22:00,ZBYN 242200Z AUTO 00000KT 6SM 16/12 A2974 RMK T01600120 IEM_DS3505
ZBYN,1995-06-24 23:00,ZBYN 242300Z AUTO 00000KT 6SM 18/13 A2974 RMK T01800130 IEM_DS3505
ZBYN,1995-06-25 00:00,ZBYN 250000Z AUTO 11004KT 9SM 22/14 A2977 RMK SLP037 T02210137 52010 IEM_DS3505
ZBYN,1995-06-25 01:00,ZBYN 250100Z AUTO 03006KT 6SM 23/10 A2977 RMK T02300100 IEM_DS3505
ZBYN,1995-06-25 02:00,ZBYN 250200Z AUTO 36006KT 7SM 25/09 A2977 RMK T02500090 IEM_DS3505
ZBYN,1995-06-25 03:00,ZBYN 250300Z AUTO 36010KT 12SM 26/08 A2974 RMK SLP033 T02550082 57005 IEM_DS3505
ZBYN,1995-06-25 04:00,ZBYN 250400Z AUTO 03008KT 6SM 28/10 A2974 RMK T02800100 IEM_DS3505
ZBYN,1995-06-25 05:00,ZBYN 250500Z AUTO 36008KT 7SM 28/08 A2971 RMK T02800080 IEM_DS3505
ZBYN,1995-06-25 06:00,ZBYN 250600Z AUTO 36006KT 12SM 29/11 A2971 RMK SLP020 T02890110 57013 IEM_DS3505
ZBYN,1995-06-25 07:00,ZBYN 250700Z AUTO 00000KT 7SM 29/12 A2971 RMK T02900120 IEM_DS3505
ZBYN,1995-06-25 08:00,ZBYN 250800Z AUTO 00000KT 7SM 29/10 A2968 RMK T02900100 IEM_DS3505
ZBYN,1995-06-25 09:00,ZBYN 250900Z AUTO 07006KT 12SM 29/12 A2968 RMK SLP017 T02880115 57008 IEM_DS3505
ZBYN,1995-06-25 10:00,ZBYN 251000Z AUTO 36004KT 7SM 26/13 A2968 RMK T02600130 IEM_DS3505
ZBYN,1995-06-25 11:00,ZBYN 251100Z AUTO 35006KT 7SM 27/10 A2971 RMK T02700100 IEM_DS3505
ZBYN,1995-06-25 12:00,ZBYN 251200Z AUTO 00000KT 9SM 25/14 A2971 RMK SLP026 T02480137 52012 IEM_DS3505
ZBYN,1995-06-25 13:00,ZBYN 251300Z AUTO 29002KT 6SM 25/13 A2974 RMK T02500130 IEM_DS3505
ZBYN,1995-06-25 14:00,ZBYN 251400Z AUTO 00000KT 7SM 25/12 A2974 RMK T02500120 IEM_DS3505
ZBYN,1995-06-25 15:00,ZBYN 251500Z AUTO 34004KT 6SM 22/13 A2974 RMK SLP033 T02230131 52008 IEM_DS3505
ZBYN,1995-06-25 16:00,ZBYN 251600Z AUTO 18004KT 7SM 21/12 A2977 RMK T02100120 IEM_DS3505
ZBYN,1995-06-25 17:00,ZBYN 251700Z AUTO 00000KT 7SM 20/12 A2977 RMK T02000120 IEM_DS3505
ZBYN,1995-06-25 18:00,ZBYN 251800Z AUTO 11004KT 6SM 21/12 A2977 RMK SLP034 T02100119 52003 IEM_DS3505
ZBYN,1995-06-25 19:00,ZBYN 251900Z AUTO 00000KT 7SM 19/12 A2974 RMK T01900120 IEM_DS3505
ZBYN,1995-06-25 20:00,ZBYN 252000Z AUTO 18004KT 7SM 18/12 A2974 RMK T01800120 IEM_DS3505
ZBYN,1995-06-25 21:00,ZBYN 252100Z AUTO 36004KT 9SM 18/11 A2974 RMK SLP035 T01850113 57002 IEM_DS3505
ZBYN,1995-06-25 22:00,ZBYN 252200Z AUTO 00000KT 7SM 15/11 A2977 RMK T01500110 IEM_DS3505
ZBYN,1995-06-25 23:00,ZBYN 252300Z AUTO 00000KT 7SM 16/13 A2977 RMK T01600130 IEM_DS3505
ZBYN,1995-06-26 00:00,ZBYN 260000Z AUTO 18004KT 9SM 21/13 A2977 RMK SLP044 T02130131 52006 IEM_DS3505
ZBYN,1995-06-26 01:00,ZBYN 260100Z AUTO 00000KT 7SM 25/15 A2977 RMK T02500150 IEM_DS3505
ZBYN,1995-06-26 02:00,ZBYN 260200Z AUTO 00000KT 7SM 26/13 A2974 RMK T02600130 IEM_DS3505
ZBYN,1995-06-26 03:00,ZBYN 260300Z AUTO 20008KT 5SM 28/13 A2974 RMK SLP028 T02770128 57009 IEM_DS3505
ZBYN,1995-06-26 04:00,ZBYN 260400Z AUTO 16006KT 7SM 30/13 A2971 RMK T03000130 IEM_DS3505
ZBYN,1995-06-26 05:00,ZBYN 260500Z AUTO 22006KT 7SM 29/09 A2968 RMK T02900090 IEM_DS3505
ZBYN,1995-06-26 06:00,ZBYN 260600Z AUTO 18012KT 7SM 29/11 A2965 RMK SLP003 T02910111 57023 IEM_DS3505
ZBYN,1995-06-26 07:00,ZBYN 260700Z AUTO 18010KT 7SM 31/08 A2965 RMK T03100080 IEM_DS3505
ZBYN,1995-06-26 08:00,ZBYN 260800Z AUTO 36012KT 7SM 31/09 A2962 RMK T03100090 IEM_DS3505
ZBYN,1995-06-26 09:00,ZBYN 260900Z AUTO 36006KT 7SM 30/09 A2962 RMK SLP992 T03010092 57012 IEM_DS3505
ZBYN,1995-06-26 10:00,ZBYN 261000Z AUTO 36002KT 9SM A2962 RMK SLP021 51002 IEM_DS3505
ZBYN,1995-06-26 11:00,ZBYN 261100Z AUTO 10006KT 7SM 26/14 A2965 RMK T02600140 IEM_DS3505
ZBYN,1995-06-26 12:00,ZBYN 261200Z AUTO 00000KT 12SM 25/12 A2965 RMK SLP005 T02520120 52009 IEM_DS3505
ZBYN,1995-06-26 13:00,ZBYN 261300Z AUTO 06006KT 7SM 22/13 A2968 RMK T02200130 IEM_DS3505
ZBYN,1995-06-26 14:00,ZBYN 261400Z AUTO 07012KT 7SM 22/12 A2971 RMK T02200120 IEM_DS3505
ZBYN,1995-06-26 15:00,ZBYN 261500Z AUTO 14008KT 9SM 21/11 A2971 RMK SLP023 T02140110 52020 IEM_DS3505
ZBYN,1995-06-26 16:00,ZBYN 261600Z AUTO 07010KT 7SM 20/12 A2971 RMK T02000120 IEM_DS3505
ZBYN,1995-06-26 17:00,ZBYN 261700Z AUTO 04010KT 7SM 20/11 A2971 RMK T02000110 IEM_DS3505
ZBYN,1995-06-26 18:00,ZBYN 261800Z AUTO 36002KT 9SM 20/12 A2971 RMK SLP021 T01950117 57002 IEM_DS3505
ZBYN,1995-06-26 19:00,ZBYN 261900Z AUTO 02008KT 7SM 19/10 A2971 RMK T01900100 IEM_DS3505
ZBYN,1995-06-26 20:00,ZBYN 262000Z AUTO 33006KT 7SM 18/10 A2971 RMK T01800100 IEM_DS3505
ZBYN,1995-06-26 21:00,ZBYN 262100Z AUTO 34004KT 9SM 18/11 A2971 RMK SLP026 T01780107 52003 IEM_DS3505
ZBYN,1995-06-26 22:00,ZBYN 262200Z AUTO 00000KT 7SM 16/12 A2974 RMK T01600120 IEM_DS3505
ZBYN,1995-06-26 23:00,ZBYN 262300Z AUTO 11004KT 7SM 17/12 A2977 RMK T01700120 IEM_DS3505
ZBYN,1995-06-27 00:00,ZBYN 270000Z AUTO 36004KT 7SM 21/11 A2977 RMK SLP044 T02060106 52014 IEM_DS3505
ZBYN,1995-06-27 01:00,ZBYN 270100Z AUTO 06006KT 7SM 23/12 A2977 RMK T02300120 IEM_DS3505
ZBYN,1995-06-27 02:00,ZBYN 270200Z AUTO 04010KT 7SM 26/14 A2977 RMK T02600140 IEM_DS3505
ZBYN,1995-06-27 03:00,ZBYN 270300Z AUTO 14006KT 6SM 27/11 A2977 RMK SLP036 T02670114 57004 IEM_DS3505
ZBYN,1995-06-27 04:00,ZBYN 270400Z AUTO 00000KT 7SM 28/11 A2974 RMK T02800110 IEM_DS3505
ZBYN,1995-06-27 05:00,ZBYN 270500Z AUTO 15006KT 7SM 29/13 A2971 RMK T02900130 IEM_DS3505
ZBYN,1995-06-27 06:00,ZBYN 270600Z AUTO 11006KT 12SM 30/12 A2971 RMK SLP019 T02970119 57014 IEM_DS3505
ZBYN,1995-06-27 07:00,ZBYN 270700Z AUTO 03004KT 7SM 31/13 A2968 RMK T03100130 IEM_DS3505
ZBYN,1995-06-27 08:00,ZBYN 270800Z AUTO 08010KT 7SM 31/14 A2965 RMK T03100140 IEM_DS3505
ZBYN,1995-06-27 09:00,ZBYN 270900Z AUTO 14008KT 12SM 31/12 A2965 RMK SLP995 T03060117 57023 IEM_DS3505
ZBYN,1995-06-27 10:00,ZBYN 271000Z AUTO 12012KT 7SM 29/12 A2965 RMK T02900120 IEM_DS3505
ZBYN,1995-06-27 11:00,ZBYN 271100Z AUTO 09012KT 7SM 27/12 A2965 RMK T02700120 IEM_DS3505
ZBYN,1995-06-27 12:00,ZBYN 271200Z AUTO 07012KT 12SM 26/12 A2968 RMK SLP006 T02650116 52008 IEM_DS3505
ZBYN,1995-06-27 13:00,ZBYN 271300Z AUTO 09012KT 7SM 23/14 A2971 RMK T02300140 IEM_DS3505
ZBYN,1995-06-27 14:00,ZBYN 271400Z AUTO 09008KT 7SM 22/13 A2971 RMK T02200130 IEM_DS3505
ZBYN,1995-06-27 15:00,ZBYN 271500Z AUTO 07006KT 12SM 23/13 A2971 RMK SLP025 T02310130 52021 IEM_DS3505
ZBYN,1995-06-27 16:00,ZBYN 271600Z AUTO 06008KT 7SM 21/12 A2974 RMK T02100120 IEM_DS3505
ZBYN,1995-06-27 17:00,ZBYN 271700Z AUTO 06008KT 7SM 20/13 A2974 RMK T02000130 IEM_DS3505
ZBYN,1995-06-27 18:00,ZBYN 271800Z AUTO 32004KT 12SM 20/14 A2971 RMK SLP024 T01970139 57001 IEM_DS3505
ZBYN,1995-06-27 19:00,ZBYN 271900Z AUTO 05004KT 7SM 19/13 A2971 RMK T01900130 IEM_DS3505
ZBYN,1995-06-27 20:00,ZBYN 272000Z AUTO 00000KT 7SM 16/12 A2971 RMK T01600120 IEM_DS3505
ZBYN,1995-06-27 21:00,ZBYN 272100Z AUTO 32004KT 6SM 18/13 A2974 RMK SLP026 T01800129 54000 IEM_DS3505
ZBYN,1995-06-27 22:00,ZBYN 272200Z AUTO 00000KT 6SM 17/13 A2974 RMK T01700130 IEM_DS3505
ZBYN,1995-06-27 23:00,ZBYN 272300Z AUTO 00000KT 6SM 18/15 A2974 RMK T01800150 IEM_DS3505
ZBYN,1995-06-28 00:00,ZBYN 280000Z AUTO 32002KT 6SM 21/14 A2974 RMK SLP030 T02110142 52003 IEM_DS3505
ZBYN,1995-06-28 01:00,ZBYN 280100Z AUTO 16006KT 7SM 24/15 A2971 RMK T02400150 IEM_DS3505
ZBYN,1995-06-28 02:00,ZBYN 280200Z AUTO 00000KT 6SM 25/16 A2971 RMK T02500160 IEM_DS3505
ZBYN,1995-06-28 03:00,ZBYN 280300Z AUTO 16010KT 6SM 26/16 A2968 RMK SLP011 T02570158 57016 IEM_DS3505
ZBYN,1995-06-28 04:00,ZBYN 280400Z AUTO 21006KT 6SM 28/16 A2965 RMK T02800160 IEM_DS3505
ZBYN,1995-06-28 05:00,ZBYN 280500Z AUTO 15008KT 6SM 30/18 A2962 RMK T03000180 IEM_DS3505
ZBYN,1995-06-28 06:00,ZBYN 280600Z AUTO 18008KT 6SM 30/17 A2959 RMK SLP979 T03030171 57028 IEM_DS3505
ZBYN,1995-06-28 07:00,ZBYN 280700Z AUTO 21008KT 6SM 31/15 A2956 RMK T03100150 IEM_DS3505
ZBYN,1995-06-28 08:00,ZBYN 280800Z AUTO 23006KT 7SM 31/16 A2953 RMK T03100160 IEM_DS3505
ZBYN,1995-06-28 09:00,ZBYN 280900Z AUTO 16004KT 6SM 30/18 A2953 RMK SLP961 T03050184 57018 IEM_DS3505
ZBYN,1995-06-28 10:00,ZBYN 281000Z AUTO 15008KT 7SM 30/13 A2950 RMK T03000130 IEM_DS3505
ZBYN,1995-06-28 11:00,ZBYN 281100Z AUTO 07006KT 7SM 28/13 A2953 RMK T02800130 IEM_DS3505
ZBYN,1995-06-28 12:00,ZBYN 281200Z AUTO 36010KT 6SM 28/10 A2962 RMK SLP976 T02810105 52014 IEM_DS3505
ZBYN,1995-06-28 13:00,ZBYN 281300Z AUTO 35014KT 7SM 27/14 A2962 RMK T02700140 IEM_DS3505
ZBYN,1995-06-28 14:00,ZBYN 281400Z AUTO 10002KT 7SM 24/14 A2962 RMK T02400140 IEM_DS3505
ZBYN,1995-06-28 15:00,ZBYN 281500Z AUTO 29006KT 6SM 24/14 A2965 RMK SLP001 T02350140 52023 IEM_DS3505
ZBYN,1995-06-28 16:00,ZBYN 281600Z AUTO 00000KT 7SM 22/16 A2968 RMK T02200160 IEM_DS3505
ZBYN,1995-06-28 17:00,ZBYN 281700Z AUTO 36006KT 7SM 22/14 A2968 RMK T02200140 IEM_DS3505
ZBYN,1995-06-28 18:00,ZBYN 281800Z AUTO 32006KT 6SM 21/15 A2968 RMK SLP004 T02130150 52006 IEM_DS3505
ZBYN,1995-06-28 19:00,ZBYN 281900Z AUTO 16004KT 7SM 21/15 A2968 RMK T02100150 IEM_DS3505
ZBYN,1995-06-28 20:00,ZBYN 282000Z AUTO 28004KT 7SM 21/17 A2968 RMK T02100170 IEM_DS3505
ZBYN,1995-06-28 21:00,ZBYN 282100Z AUTO 34006KT 2 1/2SM 20/15 A2971 RMK SLP010 T02040152 52005 IEM_DS3505
ZBYN,1995-06-28 22:00,ZBYN 282200Z AUTO 30006KT 7SM 19/17 A2971 RMK T01900170 IEM_DS3505
ZBYN,1995-06-28 23:00,ZBYN 282300Z AUTO 00000KT 7SM 20/17 A2971 RMK T02000170 IEM_DS3505
ZBYN,1995-06-29 00:00,ZBYN 290000Z AUTO 32002KT 2 1/2SM 20/16 A2974 RMK SLP022 T02000162 52007 IEM_DS3505
ZBYN,1995-06-29 01:00,ZBYN 290100Z AUTO 00000KT 7SM 20/16 A2974 RMK T02000160 IEM_DS3505
ZBYN,1995-06-29 02:00,ZBYN 290200Z AUTO 00000KT 6SM 22/17 A2974 RMK T02200170 IEM_DS3505
ZBYN,1995-06-29 03:00,ZBYN 290300Z AUTO 11004KT 5SM 24/16 A2974 RMK SLP030 T02350163 52006 IEM_DS3505
ZBYN,1995-06-29 04:00,ZBYN 290400Z AUTO 00000KT 6SM 26/17 A2971 RMK T02600170 IEM_DS3505
ZBYN,1995-06-29 05:00,ZBYN 290500Z AUTO 15006KT 6SM 27/17 A2968 RMK T02700170 IEM_DS3505
ZBYN,1995-06-29 06:00,ZBYN 290600Z AUTO 18006KT 6SM 27/16 A2965 RMK SLP006 T02680164 57021 IEM_DS3505
ZBYN,1995-06-29 07:00,ZBYN 290700Z AUTO 26006KT 7SM 28/16 A2965 RMK T02800160 IEM_DS3505
ZBYN,1995-06-29 08:00,ZBYN 290800Z AUTO 16006KT 7SM 27/15 A2965 RMK T02700150 IEM_DS3505
ZBYN,1995-06-29 09:00,ZBYN 290900Z AUTO 22006KT 6SM 26/16 A2965 RMK SLP006 T02620159 57002 IEM_DS3505
ZBYN,1995-06-29 10:00,ZBYN 291000Z AUTO 24004KT 7SM 27/15 A2965 RMK T02700150 IEM_DS3505
ZBYN,1995-06-29 11:00,ZBYN 291100Z AUTO 11008KT 7SM 25/16 A2968 RMK T02500160 IEM_DS3505
ZBYN,1995-06-29 12:00,ZBYN 291200Z AUTO 11008KT 6SM 24/15 A2968 RMK SLP017 T02390147 52007 IEM_DS3505
ZBYN,1995-06-29 13:00,ZBYN 291300Z AUTO 09008KT 7SM 21/11 A2971 RMK T02100110 IEM_DS3505
ZBYN,1995-06-29 14:00,ZBYN 291400Z AUTO 09008KT 7SM 20/09 A2974 RMK T02000090 IEM_DS3505
ZBYN,1995-06-29 15:00,ZBYN 291500Z AUTO 11008KT 6SM 22/08 A2974 RMK SLP034 T02150082 52017 IEM_DS3505
ZBYN,1995-06-29 16:00,ZBYN 291600Z AUTO 07006KT 7SM 18/10 A2974 RMK T01800100 IEM_DS3505
ZBYN,1995-06-29 17:00,ZBYN 291700Z AUTO 11006KT 7SM 18/10 A2974 RMK T01800100 IEM_DS3505
ZBYN,1995-06-29 18:00,ZBYN 291800Z AUTO 00000KT 6SM 18/11 A2974 RMK SLP039 T01750109 52003 IEM_DS3505
ZBYN,1995-06-29 19:00,ZBYN 291900Z AUTO 10004KT 7SM 17/12 A2974 RMK T01700120 IEM_DS3505
ZBYN,1995-06-29 20:00,ZBYN 292000Z AUTO 11004KT 7SM 16/11 A2974 RMK T01600110 IEM_DS3505
ZBYN,1995-06-29 21:00,ZBYN 292100Z AUTO 22010KT 19SM A2974 RMK 57002 IEM_DS3505
ZBYN,1995-06-29 22:00,ZBYN 292200Z AUTO 00000KT 7SM 14/11 A2974 RMK T01400110 IEM_DS3505
ZBYN,1995-06-29 23:00,ZBYN 292300Z AUTO 00000KT 7SM 16/11 A2974 RMK T01600110 IEM_DS3505
ZBYN,1995-06-30 00:00,ZBYN 300000Z AUTO 11004KT 9SM 19/12 A2974 RMK SLP037 T01940124 57002 IEM_DS3505
ZBYN,1995-06-30 01:00,ZBYN 300100Z AUTO 11006KT 7SM 22/15 A2971 RMK T02200150 IEM_DS3505
ZBYN,1995-06-30 02:00,ZBYN 300200Z AUTO 17004KT 6SM 25/17 A2968 RMK T02500170 IEM_DS3505
ZBYN,1995-06-30 03:00,ZBYN 300300Z AUTO 25004KT 6SM 25/16 A2968 RMK SLP017 T02490157 57014 IEM_DS3505
ZBYN,1995-06-30 04:00,ZBYN 300400Z AUTO 15004KT 6SM 26/17 A2965 RMK T02600170 IEM_DS3505
ZBYN,1995-06-30 06:00,ZBYN 300600Z AUTO 16010KT 6SM 28/14 A2956 RMK SLP977 T02800137 57038 IEM_DS3505
ZBYN,1995-06-30 07:00,ZBYN 300700Z AUTO 14010KT 7SM 27/13 A2953 RMK T02700130 IEM_DS3505
ZBYN,1995-06-30 08:00,ZBYN 300800Z AUTO 09006KT 7SM 26/17 A2953 RMK T02600170 IEM_DS3505
ZBYN,1995-06-30 09:00,ZBYN 300900Z AUTO 32010KT 6SM 23/16 A2959 RMK SLP000 T02260158 52011 IEM_DS3505
ZBYN,1995-06-30 10:00,ZBYN 301000Z AUTO 06008KT 7SM 21/13 RMK T02100130 IEM_DS3505
ZBYN,1995-06-30 12:00,ZBYN 301200Z AUTO 11004KT 6SM 19/14 A2965 RMK 60020 SLP015 T01860145 52014 IEM_DS3505
ZBYN,1995-06-30 13:00,ZBYN 301300Z AUTO 03006KT 7SM 16/15 A2965 RMK T01600150 IEM_DS3505
ZBYN,1995-06-30 14:00,ZBYN 301400Z AUTO 36008KT 7SM 18/15 A2968 RMK T01800150 IEM_DS3505
ZBYN,1995-06-30 15:00,ZBYN 301500Z AUTO 34006KT 6SM 17/14 A2971 RMK SLP030 T01730143 52019 IEM_DS3505
ZBYN,1995-06-30 21:00,ZBYN 302100Z AUTO 32004KT 6SM 14/12 RMK 70020 SLP032 T01400115 52008 IEM_DS3505
ZBYN,1995-06-30 22:00,ZBYN 302200Z AUTO 32006KT 5SM 14/12 A2971 RMK T01400120 IEM_DS3505
ZBYN,1995-06-30 23:00,ZBYN 302300Z AUTO 32006KT 4SM 16/13 A2971 RMK T01600130 IEM_DS3505
ZBYN,1995-07-01 00:00,ZBYN 010000Z AUTO 29006KT 6SM 18/10 A2971 RMK 70020 SLP039 T01820101 52007 IEM_DS3505
ZBYN,1995-07-01 01:00,ZBYN 010100Z AUTO 27002KT 7SM 19/11 A2974 RMK T01900110 IEM_DS3505
ZBYN,1995-07-01 02:00,ZBYN 010200Z AUTO 30008KT 7SM 21/09 A2971 RMK T02100090 IEM_DS3505
ZBYN,1995-07-01 03:00,ZBYN 010300Z AUTO 36004KT 7SM 21/11 A2974 RMK SLP043 T02090110 52005 IEM_DS3505
ZBYN,1995-07-01 04:00,ZBYN 010400Z AUTO 36012KT 7SM 23/12 A2974 RMK T02300120 IEM_DS3505
ZBYN,1995-07-01 05:00,ZBYN 010500Z AUTO 29006KT 7SM 24/10 A2974 RMK T02400100 IEM_DS3505
ZBYN,1995-07-01 06:00,ZBYN 010600Z AUTO 34006KT 6SM 25/12 A2971 RMK SLP033 T02480119 57006 IEM_DS3505
ZBYN,1995-07-01 07:00,ZBYN 010700Z AUTO 29006KT 7SM 26/12 A2968 RMK T02600120 IEM_DS3505
ZBYN,1995-07-01 08:00,ZBYN 010800Z AUTO 36006KT 7SM 26/12 A2968 RMK T02600120 IEM_DS3505
ZBYN,1995-07-01 09:00,ZBYN 010900Z AUTO 18004KT 6SM 27/14 A2968 RMK SLP024 T02670136 57007 IEM_DS3505
ZBYN,1995-07-01 10:00,ZBYN 011000Z AUTO 29006KT 7SM 27/12 A2968 RMK T02700120 IEM_DS3505
ZBYN,1995-07-01 11:00,ZBYN 011100Z AUTO 35004KT 7SM 25/12 A2971 RMK T02500120 IEM_DS3505
ZBYN,1995-07-01 12:00,ZBYN 011200Z AUTO 36006KT 9SM 24/12 A2971 RMK SLP033 T02390117 52010 IEM_DS3505
ZBYN,1995-07-01 13:00,ZBYN 011300Z AUTO 33008KT 7SM 22/12 A2974 RMK T02200120 IEM_DS3505
ZBYN,1995-07-01 14:00,ZBYN 011400Z AUTO 33004KT 7SM 21/12 A2974 RMK T02100120 IEM_DS3505
ZBYN,1995-07-01 15:00,ZBYN 011500Z AUTO 02002KT 7SM 18/14 RMK SLP046 T01800138 52007 IEM_DS3505
ZBYN,1995-07-01 18:00,ZBYN 011800Z AUTO 00000KT 7SM 16/13 A2974 RMK SLP041 T01600129 57002 IEM_DS3505
ZBYN,1995-07-01 21:00,ZBYN 012100Z AUTO 00000KT 6SM 13/12 RMK SLP047 T01340123 52005 IEM_DS3505
ZBYN,1995-07-01 22:00,ZBYN 012200Z AUTO 00000KT 6SM 13/11 A2977 RMK T01300110 IEM_DS3505
ZBYN,1995-07-01 23:00,ZBYN 012300Z AUTO 00000KT 6SM 14/12 A2977 RMK T01400120 IEM_DS3505
ZBYN,1995-07-02 00:00,ZBYN 020000Z AUTO 14004KT 6SM 18/13 A2977 RMK SLP053 T01800127 52008 IEM_DS3505
ZBYN,1995-07-02 01:00,ZBYN 020100Z AUTO 00000KT 7SM 21/13 A2977 RMK T02100130 IEM_DS3505
ZBYN,1995-07-02 02:00,ZBYN 020200Z AUTO 23006KT 6SM 24/13 A2977 RMK T02400130 IEM_DS3505
ZBYN,1995-07-02 03:00,ZBYN 020300Z AUTO 04008KT 6SM 26/13 A2977 RMK SLP043 T02650129 57006 IEM_DS3505
ZBYN,1995-07-02 04:00,ZBYN 020400Z AUTO 30014KT 7SM 28/10 A2974 RMK T02800100 IEM_DS3505
ZBYN,1995-07-02 05:00,ZBYN 020500Z AUTO 03006KT 7SM 29/12 A2971 RMK T02900120 IEM_DS3505
ZBYN,1995-07-02 06:00,ZBYN 020600Z AUTO 02008KT 16SM 29/11 A2971 RMK SLP026 T02930106 57014 IEM_DS3505
ZBYN,1995-07-02 07:00,ZBYN 020700Z AUTO 36006KT 7SM 30/09 A2971 RMK T03000090 IEM_DS3505
ZBYN,1995-07-02 08:00,ZBYN 020800Z AUTO 02010KT 7SM 30/11 A2971 RMK T03000110 IEM_DS3505
ZBYN,1995-07-02 09:00,ZBYN 020900Z AUTO 32004KT 16SM 30/13 A2971 RMK SLP028 T02960127 57002 IEM_DS3505
ZBYN,1995-07-02 10:00,ZBYN 021000Z AUTO 02006KT 7SM 29/11 A2971 RMK T02900110 IEM_DS3505
ZBYN,1995-07-02 11:00,ZBYN 021100Z AUTO 02006KT 6SM 28/10 A2971 RMK T02800100 IEM_DS3505
ZBYN,1995-07-02 12:00,ZBYN 021200Z AUTO 04004KT 12SM 27/12 A2974 RMK SLP036 T02720119 52011 IEM_DS3505
ZBYN,1995-07-02 13:00,ZBYN 021300Z AUTO 00000KT 6SM 22/13 A2977 RMK T02200130 IEM_DS3505
ZBYN,1995-07-02 14:00,ZBYN 021400Z AUTO 08004KT 6SM 21/14 A2977 RMK T02100140 IEM_DS3505
ZBYN,1995-07-02 15:00,ZBYN 021500Z AUTO 18004KT 7SM 19/15 A2980 RMK SLP053 T01940148 52016 IEM_DS3505
ZBYN,1995-07-02 18:00,ZBYN 021800Z AUTO 34004KT 6SM 20/13 A2981 RMK SLP053 T01960128 52004 IEM_DS3505
ZBYN,1995-07-02 21:00,ZBYN 022100Z AUTO 32002KT 6SM 17/14 A2983 RMK SLP063 T01690135 52006 IEM_DS3505
ZBYN,1995-07-02 22:00,ZBYN 022200Z AUTO 00000KT 6SM 16/14 A2985 RMK T01600140 IEM_DS3505
ZBYN,1995-07-02 23:00,ZBYN 022300Z AUTO 00000KT 6SM 19/15 A2985 RMK T01900150 IEM_DS3505
ZBYN,1995-07-03 00:00,ZBYN 030000Z AUTO 32004KT 5SM 21/15 A2985 RMK SLP072 T02090151 52011 IEM_DS3505
ZBYN,1995-07-03 01:00,ZBYN 030100Z AUTO 18004KT 7SM 24/16 A2985 RMK T02400160 IEM_DS3505
ZBYN,1995-07-03 02:00,ZBYN 030200Z AUTO 16004KT 7SM A2983 RMK IEM_DS3505
ZBYN,1995-07-03 03:00,ZBYN 030300Z AUTO 11004KT 5SM 27/18 A2983 RMK SLP065 T02690178 57009 IEM_DS3505
ZBYN,1995-07-03 04:00,ZBYN 030400Z AUTO 22006KT 7SM 29/16 A2980 RMK T02900160 IEM_DS3505
ZBYN,1995-07-03 05:00,ZBYN 030500Z AUTO 00000KT 6SM 30/16 A2977 RMK T03000160 IEM_DS3505
ZBYN,1995-07-03 06:00,ZBYN 030600Z AUTO 18006KT 5SM 30/15 A2977 RMK SLP037 T03030149 57021 IEM_DS3505
ZBYN,1995-07-03 07:00,ZBYN 030700Z AUTO 22004KT 7SM 31/13 A2974 RMK T03100130 IEM_DS3505
ZBYN,1995-07-03 08:00,ZBYN 030800Z AUTO 00000KT 7SM 30/19 A2974 RMK T03000190 IEM_DS3505
ZBYN,1995-07-03 09:00,ZBYN 030900Z AUTO 00000KT 6SM 30/16 A2971 RMK SLP027 T03010157 57013 IEM_DS3505
ZBYN,1995-07-03 10:00,ZBYN 031000Z AUTO 00000KT 6SM 29/18 A2971 RMK T02900180 IEM_DS3505
ZBYN,1995-07-03 11:00,ZBYN 031100Z AUTO 00000KT 6SM 26/16 A2971 RMK T02600160 IEM_DS3505
ZBYN,1995-07-03 12:00,ZBYN 031200Z AUTO 11002KT 9SM 24/19 A2974 RMK SLP033 T02410188 52003 IEM_DS3505
ZBYN,1995-07-03 13:00,ZBYN 031300Z AUTO 11006KT 7SM 24/13 A2974 RMK T02400130 IEM_DS3505
ZBYN,1995-07-03 14:00,ZBYN 031400Z AUTO 12006KT 7SM 23/13 A2977 RMK T02300130 IEM_DS3505
ZBYN,1995-07-03 15:00,ZBYN 031500Z AUTO 11006KT 9SM 22/11 A2977 RMK SLP042 T02200113 52013 IEM_DS3505
ZBYN,1995-07-03 16:00,ZBYN 031600Z AUTO 10006KT 7SM 20/13 A2977 RMK T02000130 IEM_DS3505
ZBYN,1995-07-03 17:00,ZBYN 031700Z AUTO 09006KT 7SM 19/13 A2977 RMK T01900130 IEM_DS3505
ZBYN,1995-07-03 18:00,ZBYN 031800Z AUTO 25002KT 9SM 18/12 A2977 RMK SLP040 T01830125 57002 IEM_DS3505
ZBYN,1995-07-03 19:00,ZBYN 031900Z AUTO 09006KT 7SM 18/12 A2977 RMK T01800120 IEM_DS3505
ZBYN,1995-07-03 21:00,ZBYN 032100Z AUTO 14004KT 7SM 16/12 A2977 RMK SLP045 T01560119 52001 IEM_DS3505
ZBYN,1995-07-03 22:00,ZBYN 032200Z AUTO 00000KT 6SM 16/13 A2977 RMK T01600130 IEM_DS3505
ZBYN,1995-07-03 23:00,ZBYN 032300Z AUTO 00000KT 6SM 17/14 A2977 RMK T01700140 IEM_DS3505
ZBYN,1995-07-04 00:00,ZBYN 040000Z AUTO 16004KT 6SM 22/13 A2980 RMK SLP046 T02160127 52001 IEM_DS3505
ZBYN,1995-07-04 01:00,ZBYN 040100Z AUTO 00000KT 7SM 24/12 A2977 RMK T02400120 IEM_DS3505
ZBYN,1995-07-04 04:00,ZBYN 040400Z AUTO 19008KT 7SM 31/14 A2971 RMK T03100140 IEM_DS3505
ZBYN,1995-07-04 05:00,ZBYN 040500Z AUTO 18008KT 7SM 33/14 A2968 RMK T03300140 IEM_DS3505
ZBYN,1995-07-04 06:00,ZBYN 040600Z AUTO 18008KT 6SM 33/14 A2965 RMK SLP999 T03320138 57025 IEM_DS3505
ZBYN,1995-07-04 07:00,ZBYN 040700Z AUTO 27004KT 7SM 35/11 A2965 RMK T03500110 IEM_DS3505
ZBYN,1995-07-04 08:00,ZBYN 040800Z AUTO 20004KT 7SM 34/11 A2962 RMK T03400110 IEM_DS3505
ZBYN,1995-07-04 09:00,ZBYN 040900Z AUTO 07008KT 7SM 31/13 A2962 RMK SLP998 T03130132 57008 IEM_DS3505
ZBYN,1995-07-04 10:00,ZBYN 041000Z AUTO 11008KT 7SM 30/16 A2962 RMK T03000160 IEM_DS3505
ZBYN,1995-07-04 11:00,ZBYN 041100Z AUTO 12006KT 7SM 28/17 A2962 RMK T02800170 IEM_DS3505
ZBYN,1995-07-04 12:00,ZBYN 041200Z AUTO 00000KT 7SM 27/15 A2965 RMK SLP998 T02730148 52003 IEM_DS3505
ZBYN,1995-07-04 13:00,ZBYN 041300Z AUTO 02004KT 7SM RMK IEM_DS3505
ZBYN,1995-07-04 14:00,ZBYN 041400Z AUTO 05004KT 7SM 25/12 A2968 RMK T02500120 IEM_DS3505
ZBYN,1995-07-04 15:00,ZBYN 041500Z AUTO 32004KT 6SM 25/12 A2968 RMK SLP006 T02490122 52013 IEM_DS3505
ZBYN,1995-07-04 18:00,ZBYN 041800Z AUTO 32004KT 6SM 22/12 A2969 RMK SLP004 T02150124 54000 IEM_DS3505
ZBYN,1995-07-04 21:00,ZBYN 042100Z AUTO 32004KT 6SM 19/13 RMK SLP018 T01940126 52008 IEM_DS3505
ZBYN,1995-07-04 22:00,ZBYN 042200Z AUTO 00000KT 2 1/2SM 17/13 A2974 RMK T01700130 IEM_DS3505
ZBYN,1995-07-04 23:00,ZBYN 042300Z AUTO 00000KT 2 1/2SM 18/15 A2974 RMK T01800150 IEM_DS3505
ZBYN,1995-07-05 00:00,ZBYN 050000Z AUTO 32006KT 6SM 23/14 A2974 RMK SLP030 T02300144 52010 IEM_DS3505
ZBYN,1995-07-05 01:00,ZBYN 050100Z AUTO 20010KT 7SM A2974 RMK SLP000 57016 IEM_DS3505
ZBYN,1995-07-05 02:00,ZBYN 050200Z AUTO 27004KT 5SM 28/17 A2974 RMK T02800170 IEM_DS3505
ZBYN,1995-07-05 03:00,ZBYN 050300Z AUTO 34004KT 6SM 31/12 A2971 RMK SLP015 T03060124 57006 IEM_DS3505
ZBYN,1995-07-05 04:00,ZBYN 050400Z AUTO 17006KT 7SM 32/14 A2971 RMK T03200140 IEM_DS3505
ZBYN,1995-07-05 05:00,ZBYN 050500Z AUTO 21004KT 7SM 34/16 A2968 RMK T03400160 IEM_DS3505
ZBYN,1995-07-05 06:00,ZBYN 050600Z AUTO 20010KT 7SM 32/15 A2965 RMK SLP000 T03230146 57016 IEM_DS3505
ZBYN,1995-07-05 07:00,ZBYN 050700Z AUTO 19012KT 7SM 33/10 A2965 RMK T03300100 IEM_DS3505
ZBYN,1995-07-05 08:00,ZBYN 050800Z AUTO 21006KT 7SM 34/12 A2962 RMK T03400120 IEM_DS3505
ZBYN,1995-07-05 09:00,ZBYN 050900Z AUTO 09006KT 7SM 34/12 A2962 RMK SLP987 T03380117 57013 IEM_DS3505
ZBYN,1995-07-05 10:00,ZBYN 051000Z AUTO 07012KT 7SM 29/16 A2965 RMK T02900160 IEM_DS3505
ZBYN,1995-07-05 11:00,ZBYN 051100Z AUTO 04010KT 7SM 28/14 A2968 RMK T02800140 IEM_DS3505
ZBYN,1995-07-05 12:00,ZBYN 051200Z AUTO 07014KT 6SM 28/13 A2968 RMK SLP006 T02850127 52015 IEM_DS3505
ZBYN,1995-07-05 13:00,ZBYN 051300Z AUTO 08012KT 7SM 25/13 A2971 RMK T02500130 IEM_DS3505
ZBYN,1995-07-05 14:00,ZBYN 051400Z AUTO 08010KT 6SM 25/13 A2974 RMK T02500130 IEM_DS3505
ZBYN,1995-07-05 15:00,ZBYN 051500Z AUTO 00000KT 6SM 24/14 A2974 RMK SLP024 T02430141 52021 IEM_DS3505
ZBYN,1995-07-05 16:00,ZBYN 051600Z AUTO 10006KT 7SM 23/15 A2974 RMK T02300150 IEM_DS3505
ZBYN,1995-07-05 18:00,ZBYN 051800Z AUTO 34004KT 6SM 23/13 A2975 RMK SLP022 T02330128 57001 IEM_DS3505
ZBYN,1995-07-05 21:00,ZBYN 052100Z AUTO 34004KT 6SM RMK SLP023 57001 IEM_DS3505
ZBYN,1995-07-05 22:00,ZBYN 052200Z AUTO 00000KT 6SM 18/14 A2977 RMK T01800140 IEM_DS3505
ZBYN,1995-07-05 23:00,ZBYN 052300Z AUTO 00000KT 6SM 19/15 A2977 RMK T01900150 IEM_DS3505
ZBYN,1995-07-06 00:00,ZBYN 060000Z AUTO 36004KT 6SM 23/14 A2980 RMK SLP041 T02320140 52013 IEM_DS3505
ZBYN,1995-07-06 01:00,ZBYN 060100Z AUTO 00000KT 7SM 26/15 A2980 RMK T02600150 IEM_DS3505
ZBYN,1995-07-06 02:00,ZBYN 060200Z AUTO 00000KT 6SM 28/16 A2977 RMK T02800160 IEM_DS3505
ZBYN,1995-07-06 03:00,ZBYN 060300Z AUTO 16004KT 5SM 29/17 A2977 RMK SLP030 T02920166 57007 IEM_DS3505
ZBYN,1995-07-06 06:00,ZBYN 060600Z AUTO 27002KT 6SM 29/17 A2968 RMK SLP012 T02910167 57018 IEM_DS3505
ZBYN,1995-07-06 07:00,ZBYN 060700Z AUTO 30004KT 7SM RMK IEM_DS3505
ZBYN,1995-07-06 08:00,ZBYN 060800Z AUTO 18008KT 7SM 29/18 A2971 RMK T02900180 IEM_DS3505
ZBYN,1995-07-06 09:00,ZBYN 060900Z AUTO 18008KT 6SM 27/14 A2971 RMK SLP021 T02700142 52001 IEM_DS3505
ZBYN,1995-07-06 10:00,ZBYN 061000Z AUTO 17008KT 7SM 27/13 A2974 RMK T02700130 IEM_DS3505
ZBYN,1995-07-06 11:00,ZBYN 061100Z AUTO 21010KT 7SM 26/11 A2974 RMK T02600110 IEM_DS3505
ZBYN,1995-07-06 12:00,ZBYN 061200Z AUTO 16008KT 9SM 23/13 A2977 RMK SLP045 T02330132 52021 IEM_DS3505
ZBYN,1995-07-06 13:00,ZBYN 061300Z AUTO 06004KT 6SM 22/15 A2980 RMK T02200150 IEM_DS3505
ZBYN,1995-07-06 14:00,ZBYN 061400Z AUTO 15004KT 6SM 21/15 A2980 RMK T02100150 IEM_DS3505
ZBYN,1995-07-06 15:00,ZBYN 061500Z AUTO 18002KT 6SM 18/16 RMK SLP053 T01850157 52009 IEM_DS3505
ZBYN,1995-07-06 18:00,ZBYN 061800Z AUTO 29004KT 6SM 20/15 A2980 RMK SLP050 T01970146 57001 IEM_DS3505
ZBYN,1995-07-06 21:00,ZBYN 062100Z AUTO 34002KT 6SM 20/15 RMK SLP050 T01990150 57003 IEM_DS3505
ZBYN,1995-07-06 22:00,ZBYN 062200Z AUTO 35006KT 7SM 22/14 A2980 RMK T02200140 IEM_DS3505
ZBYN,1995-07-06 23:00,ZBYN 062300Z AUTO 00000KT 7SM 21/15 A2980 RMK T02100150 IEM_DS3505
ZBYN,1995-07-07 00:00,ZBYN 070000Z AUTO 00000KT 6SM 22/15 A2980 RMK SLP056 T02160148 52003 IEM_DS3505
ZBYN,1995-07-07 01:00,ZBYN 070100Z AUTO 00000KT 7SM 23/17 A2980 RMK T02300170 IEM_DS3505
ZBYN,1995-07-07 02:00,ZBYN 070200Z AUTO 30008KT 7SM 24/16 A2983 RMK T02400160 IEM_DS3505
ZBYN,1995-07-07 03:00,ZBYN 070300Z AUTO 14008KT 6SM 23/15 A2983 RMK SLP073 T02340154 52011 IEM_DS3505
ZBYN,1995-07-07 04:00,ZBYN 070400Z AUTO 36006KT 7SM 21/18 A2980 RMK T02100180 IEM_DS3505
ZBYN,1995-07-07 05:00,ZBYN 070500Z AUTO 02006KT 7SM 25/18 A2977 RMK T02500180 IEM_DS3505
ZBYN,1995-07-07 06:00,ZBYN 070600Z AUTO 32004KT 6SM 26/16 A2977 RMK 60008 SLP042 T02650160 57022 IEM_DS3505
ZBYN,1995-07-07 07:00,ZBYN 070700Z AUTO 10010KT 6SM 30/19 A2974 RMK T03000190 IEM_DS3505
ZBYN,1995-07-07 08:00,ZBYN 070800Z AUTO 10008KT 6SM 30/15 A2974 RMK T03000150 IEM_DS3505
ZBYN,1995-07-07 09:00,ZBYN 070900Z AUTO 09008KT 6SM 29/14 A2971 RMK SLP026 T02890138 57011 IEM_DS3505
ZBYN,1995-07-07 10:00,ZBYN 071000Z AUTO 05010KT 7SM 26/16 A2974 RMK T02600160 IEM_DS3505
ZBYN,1995-07-07 11:00,ZBYN 071100Z AUTO 05010KT 7SM 26/17 A2974 RMK T02600170 IEM_DS3505
ZBYN,1995-07-07 12:00,ZBYN 071200Z AUTO 09014KT 6SM 26/18 A2977 RMK SLP037 T02570176 52008 IEM_DS3505
ZBYN,1995-07-07 13:00,ZBYN 071300Z AUTO 09012KT 6SM 24/19 A2980 RMK T02400190 IEM_DS3505
ZBYN,1995-07-07 14:00,ZBYN 071400Z AUTO 08010KT 6SM 23/19 A2980 RMK T02300190 IEM_DS3505
ZBYN,1995-07-07 15:00,ZBYN 071500Z AUTO 07004KT 6SM 23/18 A2980 RMK SLP060 T02310184 52020 IEM_DS3505
ZBYN,1995-07-07 16:00,ZBYN 071600Z AUTO 05008KT 6SM 22/19 A2980 RMK T02200190 IEM_DS3505
ZBYN,1995-07-07 18:00,ZBYN 071800Z AUTO 36002KT 6SM 20/18 A2979 RMK T02050175 57010 IEM_DS3505
ZBYN,1995-07-07 21:00,ZBYN 072100Z AUTO 00000KT 4SM 18/16 RMK 70008 SLP050 T01780165 52001 IEM_DS3505
ZBYN,1995-07-07 22:00,ZBYN 072200Z AUTO 00000KT 2 1/2SM 18/18 A2980 RMK T01800180 IEM_DS3505
ZBYN,1995-07-07 23:00,ZBYN 072300Z AUTO 00000KT 2SM 19/18 A2980 RMK T01900180 IEM_DS3505
ZBYN,1995-07-08 00:00,ZBYN 080000Z AUTO 29002KT 4SM 21/18 A2983 RMK 70008 SLP060 T02110178 52009 IEM_DS3505
ZBYN,1995-07-08 01:00,ZBYN 080100Z AUTO 14004KT 7SM 23/19 A2983 RMK T02300190 IEM_DS3505
ZBYN,1995-07-08 02:00,ZBYN 080200Z AUTO 13006KT 7SM 25/18 RMK T02500180 IEM_DS3505
ZBYN,1995-07-08 03:00,ZBYN 080300Z AUTO 16006KT 4SM 26/18 A2980 RMK SLP052 T02600181 57004 IEM_DS3505
ZBYN,1995-07-08 04:00,ZBYN 080400Z AUTO 16008KT 6SM 28/19 A2977 RMK T02800190 IEM_DS3505
ZBYN,1995-07-08 05:00,ZBYN 080500Z AUTO 16006KT 7SM 29/19 A2974 RMK T02900190 IEM_DS3505
ZBYN,1995-07-08 06:00,ZBYN 080600Z AUTO 20008KT 5SM 30/17 A2971 RMK SLP024 T02950172 57025 IEM_DS3505
ZBYN,1995-07-08 07:00,ZBYN 080700Z AUTO 15006KT 7SM 32/18 A2968 RMK T03200180 IEM_DS3505
ZBYN,1995-07-08 08:00,ZBYN 080800Z AUTO 22006KT 6SM 32/17 A2968 RMK T03200170 IEM_DS3505
ZBYN,1995-07-08 09:00,ZBYN 080900Z AUTO 16004KT 6SM 30/18 A2968 RMK SLP014 T02960178 57012 IEM_DS3505
ZBYN,1995-07-08 10:00,ZBYN 081000Z AUTO 31006KT 7SM 30/16 A2968 RMK T03000160 IEM_DS3505
ZBYN,1995-07-08 11:00,ZBYN 081100Z AUTO 30008KT 7SM 28/14 A2968 RMK T02800140 IEM_DS3505
ZBYN,1995-07-08 12:00,ZBYN 081200Z AUTO 02008KT 6SM 27/15 A2971 RMK SLP022 T02670148 52008 IEM_DS3505
ZBYN,1995-07-08 13:00,ZBYN 081300Z AUTO 31004KT 7SM 26/15 A2971 RMK T02600150 IEM_DS3505
ZBYN,1995-07-08 14:00,ZBYN 081400Z AUTO 00000KT 7SM 25/15 A2971 RMK T02500150 IEM_DS3505
ZBYN,1995-07-08 15:00,ZBYN 081500Z AUTO 32004KT 6SM 24/15 RMK SLP018 T02390147 57001 IEM_DS3505
ZBYN,1995-07-08 18:00,ZBYN 081800Z AUTO 14004KT 6SM 21/15 A2971 RMK SLP019 T02070150 52001 IEM_DS3505
ZBYN,1995-07-08 21:00,ZBYN 082100Z AUTO 34002KT 3SM 18/15 RMK SLP021 T01820151 57001 IEM_DS3505
ZBYN,1995-07-08 23:00,ZBYN 082300Z AUTO 00000KT 7SM 18/16 A2974 RMK T01800160 IEM_DS3505
ZBYN,1995-07-09 00:00,ZBYN 090000Z AUTO 27002KT 6SM 22/16 A2974 RMK SLP024 T02200158 52004 IEM_DS3505
ZBYN,1995-07-09 01:00,ZBYN 090100Z AUTO 12004KT 7SM 25/17 A2974 RMK T02500170 IEM_DS3505
ZBYN,1995-07-09 02:00,ZBYN 090200Z AUTO 00000KT 7SM 26/17 A2971 RMK T02600170 IEM_DS3505
ZBYN,1995-07-09 03:00,ZBYN 090300Z AUTO 14004KT 6SM 28/17 A2971 RMK SLP020 T02780174 54000 IEM_DS3505
ZBYN,1995-07-09 04:00,ZBYN 090400Z AUTO 17010KT 7SM 30/16 A2971 RMK T03000160 IEM_DS3505
ZBYN,1995-07-09 05:00,ZBYN 090500Z AUTO 19006KT 7SM 32/17 A2968 RMK T03200170 IEM_DS3505
ZBYN,1995-07-09 06:00,ZBYN 090600Z AUTO 16006KT 6SM 32/16 A2965 RMK SLP991 T03230165 52015 IEM_DS3505
ZBYN,1995-07-09 07:00,ZBYN 090700Z AUTO 00000KT 7SM 35/16 A2962 RMK T03500160 IEM_DS3505
ZBYN,1995-07-09 08:00,ZBYN 090800Z AUTO 18004KT 7SM 35/14 A2959 RMK T03500140 IEM_DS3505
ZBYN,1995-07-09 09:00,ZBYN 090900Z AUTO 00000KT 7SM 34/14 A2959 RMK SLP974 T03420142 57016 IEM_DS3505
ZBYN,1995-07-09 10:00,ZBYN 091000Z AUTO 00000KT 6SM 32/21 A2956 RMK T03200210 IEM_DS3505
ZBYN,1995-07-09 11:00,ZBYN 091100Z AUTO 00000KT 6SM 32/18 A2956 RMK T03200180 IEM_DS3505
ZBYN,1995-07-09 12:00,ZBYN 091200Z AUTO 00000KT 9SM 29/20 A2959 RMK SLP918 T02920195 57053 IEM_DS3505
ZBYN,1995-07-09 13:00,ZBYN 091300Z AUTO 09010KT 7SM 28/19 A2959 RMK T02800190 IEM_DS3505
ZBYN,1995-07-09 14:00,ZBYN 091400Z AUTO 07014KT 6SM 27/19 A2962 RMK T02700190 IEM_DS3505
ZBYN,1995-07-09 15:00,ZBYN 091500Z AUTO 27004KT 9SM 26/19 RMK SLP982 T02610187 52012 IEM_DS3505
ZBYN,1995-07-09 18:00,ZBYN 091800Z AUTO 27004KT 6SM 23/19 A2961 RMK SLP977 T02340189 57002 IEM_DS3505
ZBYN,1995-07-09 21:00,ZBYN 092100Z AUTO 32004KT 6SM 20/18 A2959 RMK SLP977 T02050185 57001 IEM_DS3505
ZBYN,1995-07-09 22:00,ZBYN 092200Z AUTO 00000KT 6SM 20/18 A2959 RMK T02000180 IEM_DS3505
ZBYN,1995-07-09 23:00,ZBYN 092300Z AUTO 11002KT 4SM 22/18 A2962 RMK T02200180 IEM_DS3505
ZBYN,1995-07-10 00:00,ZBYN 100000Z AUTO 00000KT 6SM 26/19 A2959 RMK SLP977 T02550194 54000 IEM_DS3505
ZBYN,1995-07-10 02:00,ZBYN 100200Z AUTO 00000KT RMK IEM_DS3505
ZBYN,1995-07-10 03:00,ZBYN 100300Z AUTO 07002KT 5SM 30/19 A2956 RMK SLP960 T02970187 57014 IEM_DS3505
ZBYN,1995-07-10 04:00,ZBYN 100400Z AUTO 26004KT 7SM 31/19 A2953 RMK T03100190 IEM_DS3505
ZBYN,1995-07-10 05:00,ZBYN 100500Z AUTO 23006KT 7SM 32/18 A2953 RMK T03200180 IEM_DS3505
ZBYN,1995-07-10 06:00,ZBYN 100600Z AUTO 25006KT 6SM 33/18 A2950 RMK SLP939 T03290175 57019 IEM_DS3505
ZBYN,1995-07-10 07:00,ZBYN 100700Z AUTO 06012KT 7SM 27/18 A2950 RMK T02700180 IEM_DS3505
ZBYN,1995-07-10 08:00,ZBYN 100800Z AUTO 20004KT 7SM 29/17 A2950 RMK T02900170 IEM_DS3505
ZBYN,1995-07-10 09:00,ZBYN 100900Z AUTO 34002KT 6SM 30/18 RMK SLP942 T03030175 57005 IEM_DS3505
ZBYN,1995-07-10 10:00,ZBYN 101000Z AUTO 07008KT 7SM 28/19 A2947 RMK T02800190 IEM_DS3505
ZBYN,1995-07-10 11:00,ZBYN 101100Z AUTO 09006KT 7SM 27/19 A2950 RMK T02700190 IEM_DS3505
ZBYN,1995-07-10 12:00,ZBYN 101200Z AUTO 09010KT 6SM 26/18 A2953 RMK SLP953 T02620182 52012 IEM_DS3505
ZBYN,1995-07-10 13:00,ZBYN 101300Z AUTO 08008KT 7SM RMK IEM_DS3505
ZBYN,1995-07-10 14:00,ZBYN 101400Z AUTO 32014KT 7SM RMK IEM_DS3505
ZBYN,1995-07-10 15:00,ZBYN 101500Z AUTO 34008KT 6SM 24/17 RMK SLP971 T02360167 52018 IEM_DS3505
ZBYN,1995-07-10 18:00,ZBYN 101800Z AUTO 34008KT 6SM 22/17 A2958 RMK SLP967 T02200170 57001 IEM_DS3505
ZBYN,1995-07-10 20:00,ZBYN 102000Z AUTO 34006KT 6SM 21/14 A2953 RMK T02100140 IEM_DS3505
ZBYN,1995-07-10 21:00,ZBYN 102100Z AUTO 34008KT 6SM 22/16 A2953 RMK SLP966 T02180164 57005 IEM_DS3505
ZBYN,1995-07-10 22:00,ZBYN 102200Z AUTO 34008KT 6SM 22/16 A2956 RMK T02200160 IEM_DS3505
ZBYN,1995-07-10 23:00,ZBYN 102300Z AUTO 32004KT 6SM 22/16 A2956 RMK T02200160 IEM_DS3505
ZBYN,1995-07-11 00:00,ZBYN 110000Z AUTO 36004KT 5SM 23/16 A2956 RMK SLP975 T02330162 52005 IEM_DS3505
ZBYN,1995-07-11 01:00,ZBYN 110100Z AUTO 30008KT 7SM 25/18 A2956 RMK T02500180 IEM_DS3505
ZBYN,1995-07-11 02:00,ZBYN 110200Z AUTO 00000KT 7SM 27/18 A2956 RMK T02700180 IEM_DS3505
ZBYN,1995-07-11 03:00,ZBYN 110300Z AUTO 02004KT 6SM 28/18 A2956 RMK SLP969 T02830182 57002 IEM_DS3505
ZBYN,1995-07-11 04:00,ZBYN 110400Z AUTO 31006KT 7SM 30/19 A2953 RMK T03000190 IEM_DS3505
ZBYN,1995-07-11 05:00,ZBYN 110500Z AUTO 34008KT 7SM 31/20 A2953 RMK T03100200 IEM_DS3505
ZBYN,1995-07-11 06:00,ZBYN 110600Z AUTO 07004KT 7SM 31/17 A2953 RMK SLP952 T03140166 57014 IEM_DS3505
ZBYN,1995-07-11 07:00,ZBYN 110700Z AUTO 00000KT 7SM 33/18 A2950 RMK T03300180 IEM_DS3505
ZBYN,1995-07-11 08:00,ZBYN 110800Z AUTO 12006KT 7SM 33/18 A2950 RMK T03300180 IEM_DS3505
ZBYN,1995-07-11 09:00,ZBYN 110900Z AUTO 09002KT 6SM 33/18 A2950 RMK SLP944 T03310179 57005 IEM_DS3505
ZBYN,1995-07-11 10:00,ZBYN 111000Z AUTO 09004KT 7SM 32/19 A2950 RMK T03200190 IEM_DS3505
ZBYN,1995-07-11 11:00,ZBYN 111100Z AUTO 10004KT 7SM 29/20 A2953 RMK T02900200 IEM_DS3505
ZBYN,1995-07-11 12:00,ZBYN 111200Z AUTO 11004KT 6SM 28/19 A2956 RMK SLP961 T02810194 52011 IEM_DS3505
ZBYN,1995-07-11 13:00,ZBYN 111300Z AUTO 09006KT 6SM 27/19 A2959 RMK T02700190 IEM_DS3505
ZBYN,1995-07-11 14:00,ZBYN 111400Z AUTO 06006KT 6SM 26/19 A2962 RMK T02600190 IEM_DS3505
ZBYN,1995-07-11 15:00,ZBYN 111500Z AUTO 09008KT 6SM 26/19 A2962 RMK SLP977 T02650189 52019 IEM_DS3505
ZBYN,1995-07-11 18:00,ZBYN 111800Z AUTO 07006KT 6SM 25/20 A2963 RMK SLP982 T02520195 52007 IEM_DS3505
ZBYN,1995-07-11 21:00,ZBYN 112100Z AUTO 34004KT 6SM 23/20 RMK SLP989 T02330199 52006 IEM_DS3505
ZBYN,1995-07-11 22:00,ZBYN 112200Z AUTO 00000KT 2 1/2SM 22/20 A2968 RMK T02200200 IEM_DS3505
ZBYN,1995-07-11 23:00,ZBYN 112300Z AUTO 08004KT 1 1/2SM 23/21 A2968 RMK T02300210 IEM_DS3505
ZBYN,1995-07-12 00:00,ZBYN 120000Z AUTO 34004KT 6SM 25/21 A2971 RMK SLP009 T02470207 52013 IEM_DS3505
ZBYN,1995-07-12 01:00,ZBYN 120100Z AUTO 11006KT 4SM 27/21 A2968 RMK T02700210 IEM_DS3505
ZBYN,1995-07-12 02:00,ZBYN 120200Z AUTO 00000KT 6SM 28/20 A2968 RMK T02800200 IEM_DS3505
ZBYN,1995-07-12 03:00,ZBYN 120300Z AUTO 07002KT 6SM 30/20 A2968 RMK SLP004 T02970202 54000 IEM_DS3505
ZBYN,1995-07-12 04:00,ZBYN 120400Z AUTO 00000KT 6SM 31/21 A2968 RMK T03100210 IEM_DS3505
ZBYN,1995-07-12 05:00,ZBYN 120500Z AUTO 15004KT 6SM 33/22 A2965 RMK T03300220 IEM_DS3505
ZBYN,1995-07-12 06:00,ZBYN 120600Z AUTO 34002KT 7SM 32/19 A2965 RMK SLP984 T03230189 57016 IEM_DS3505
ZBYN,1995-07-12 07:00,ZBYN 120700Z AUTO 29002KT 6SM 33/19 A2962 RMK T03300190 IEM_DS3505
ZBYN,1995-07-12 08:00,ZBYN 120800Z AUTO 29004KT 6SM 32/20 A2962 RMK T03200200 IEM_DS3505
ZBYN,1995-07-12 09:00,ZBYN 120900Z AUTO 29010KT 5SM 27/21 A2968 RMK SLP012 T02690206 52016 IEM_DS3505
ZBYN,1995-07-12 10:00,ZBYN 121000Z AUTO 36008KT 7SM 25/19 A2971 RMK T02500190 IEM_DS3505
ZBYN,1995-07-12 11:00,ZBYN 121100Z AUTO 17004KT 7SM 26/19 A2971 RMK T02600190 IEM_DS3505
ZBYN,1995-07-12 12:00,ZBYN 121200Z AUTO 34008KT 6SM 24/19 A2974 RMK SLP032 T02350191 52015 IEM_DS3505
ZBYN,1995-07-12 13:00,ZBYN 121300Z AUTO 29008KT 7SM 24/20 A2977 RMK T02400200 IEM_DS3505
ZBYN,1995-07-12 15:00,ZBYN 121500Z AUTO 04004KT 6SM 23/20 A2980 RMK SLP045 T02270195 52018 IEM_DS3505
ZBYN,1995-07-12 18:00,ZBYN 121800Z AUTO 02004KT 5SM 21/20 A2979 RMK 60083 SLP042 T02100204 57002 IEM_DS3505
ZBYN,1995-07-12 21:00,ZBYN 122100Z AUTO 34006KT 5SM 22/20 RMK 70083 SLP052 T02150197 52003 IEM_DS3505
ZBYN,1995-07-12 22:00,ZBYN 122200Z AUTO 31006KT 7SM 22/20 A2980 RMK T02200200 IEM_DS3505
ZBYN,1995-07-12 23:00,ZBYN 122300Z AUTO 31006KT 6SM 22/20 A2980 RMK T02200200 IEM_DS3505
ZBYN,1995-07-13 00:00,ZBYN 130000Z AUTO 34004KT 5SM 23/20 A2980 RMK 70083 SLP056 T02260201 54000 IEM_DS3505
ZBYN,1995-07-13 01:00,ZBYN 130100Z AUTO 09002KT 5SM 25/22 A2980 RMK T02500220 IEM_DS3505
ZBYN,1995-07-13 02:00,ZBYN 130200Z AUTO 30008KT 5SM 26/22 A2980 RMK T02600220 IEM_DS3505
ZBYN,1995-07-13 03:00,ZBYN 130300Z AUTO 34004KT 6SM 28/22 A2980 RMK SLP047 T02800220 57004 IEM_DS3505
ZBYN,1995-07-13 04:00,ZBYN 130400Z AUTO 10006KT 6SM 30/24 A2977 RMK T03000240 IEM_DS3505
ZBYN,1995-07-13 05:00,ZBYN 130500Z AUTO 06010KT 6SM 31/23 A2974 RMK T03100230 IEM_DS3505
ZBYN,1995-07-13 06:00,ZBYN 130600Z AUTO 02002KT 6SM 31/23 A2971 RMK SLP016 T03100232 57024 IEM_DS3505
ZBYN,1995-07-13 07:00,ZBYN 130700Z AUTO 03008KT 6SM 31/25 A2968 RMK T03100250 IEM_DS3505
ZBYN,1995-07-13 08:00,ZBYN 130800Z AUTO 09014KT 7SM A2971 RMK IEM_DS3505
ZBYN,1995-07-13 09:00,ZBYN 130900Z AUTO 29006KT 6SM 24/22 A2971 RMK SLP028 T02390223 52002 IEM_DS3505
ZBYN,1995-07-13 10:00,ZBYN 131000Z AUTO 06006KT 5SM 25/23 A2968 RMK T02500230 IEM_DS3505
ZBYN,1995-07-13 11:00,ZBYN 131100Z AUTO 04006KT 7SM 25/23 A2968 RMK T02500230 IEM_DS3505
ZBYN,1995-07-13 12:00,ZBYN 131200Z AUTO 32004KT 6SM 24/22 A2971 RMK 60008 SLP014 T02430221 57011 IEM_DS3505
ZBYN,1995-07-13 13:00,ZBYN 131300Z AUTO 07006KT 7SM 24/22 A2971 RMK T02400220 IEM_DS3505
ZBYN,1995-07-13 14:00,ZBYN 131400Z AUTO 04006KT 7SM RMK IEM_DS3505
ZBYN,1995-07-13 15:00,ZBYN 131500Z AUTO 07004KT 6SM 25/22 RMK SLP020 T02530217 52012 IEM_DS3505
ZBYN,1995-07-13 18:00,ZBYN 131800Z AUTO 14004KT 6SM 24/22 A2969 RMK SLP002 T02450217 57011 IEM_DS3505
ZBYN,1995-07-13 21:00,ZBYN 132100Z AUTO 04002KT 5SM 23/22 A2965 RMK 70035 SLP005 T02330224 57009 IEM_DS3505
ZBYN,1995-07-13 22:00,ZBYN 132200Z AUTO 09006KT 4SM 23/23 A2965 RMK T02300230 IEM_DS3505
ZBYN,1995-07-13 23:00,ZBYN 132300Z AUTO 12004KT 5SM 24/23 A2965 RMK T02400230 IEM_DS3505
ZBYN,1995-07-14 00:00,ZBYN 140000Z AUTO 16006KT 3SM 24/23 A2965 RMK 60031 70039 SLP999 T02370230 57004 IEM_DS3505
ZBYN,1995-07-14 01:00,ZBYN 140100Z AUTO 18006KT 4SM 25/23 A2965 RMK T02500230 IEM_DS3505
ZBYN,1995-07-14 02:00,ZBYN 140200Z AUTO 22012KT 6SM 26/22 A2965 RMK T02600220 IEM_DS3505
ZBYN,1995-07-14 03:00,ZBYN 140300Z AUTO 20008KT 5SM 25/22 A2965 RMK SLP993 T02510222 57002 IEM_DS3505
ZBYN,1995-07-14 04:00,ZBYN 140400Z AUTO 21010KT 6SM 27/23 A2962 RMK T02700230 IEM_DS3505
ZBYN,1995-07-14 05:00,ZBYN 140500Z AUTO 10010KT 6SM 30/23 A2962 RMK T03000230 IEM_DS3505
ZBYN,1995-07-14 06:00,ZBYN 140600Z AUTO 22008KT 6SM 28/22 A2959 RMK SLP981 T02770218 57009 IEM_DS3505
ZBYN,1995-07-14 07:00,ZBYN 140700Z AUTO 22008KT 7SM 30/22 A2959 RMK T03000220 IEM_DS3505
ZBYN,1995-07-14 08:00,ZBYN 140800Z AUTO 21008KT 7SM 29/21 A2959 RMK T02900210 IEM_DS3505
ZBYN,1995-07-14 09:00,ZBYN 140900Z AUTO 29012KT 12SM 29/18 A2959 RMK SLP979 T02920179 57001 IEM_DS3505
ZBYN,1995-07-14 10:00,ZBYN 141000Z AUTO 31008KT 7SM 28/17 A2959 RMK T02800170 IEM_DS3505
ZBYN,1995-07-14 11:00,ZBYN 141100Z AUTO 34004KT 7SM 27/18 A2959 RMK T02700180 IEM_DS3505
ZBYN,1995-07-14 12:00,ZBYN 141200Z AUTO 02004KT 12SM 26/18 A2962 RMK SLP987 T02620182 52003 IEM_DS3505
ZBYN,1995-07-14 13:00,ZBYN 141300Z AUTO 30006KT 7SM 26/17 A2965 RMK T02600170 IEM_DS3505
ZBYN,1995-07-14 14:00,ZBYN 141400Z AUTO 00000KT 7SM 24/19 A2965 RMK T02400190 IEM_DS3505
ZBYN,1995-07-14 15:00,ZBYN 141500Z AUTO 32004KT 9SM 24/18 RMK SLP991 T02390179 52003 IEM_DS3505
ZBYN,1995-07-14 18:00,ZBYN 141800Z AUTO 02002KT 9SM 22/18 A2964 RMK SLP995 T02240181 52005 IEM_DS3505
ZBYN,1995-07-14 21:00,ZBYN 142100Z AUTO 07002KT 6SM 20/19 RMK 70001 SLP998 T02020190 52002 IEM_DS3505
ZBYN,1995-07-14 22:00,ZBYN 142200Z AUTO 00000KT 20/19 A2965 RMK T02000190 IEM_DS3505
ZBYN,1995-07-14 23:00,ZBYN 142300Z AUTO 11002KT 7SM 21/19 A2968 RMK T02100190 IEM_DS3505
ZBYN,1995-07-15 00:00,ZBYN 150000Z AUTO 09004KT 5SM 21/20 A2968 RMK SLP012 T02130195 52010 IEM_DS3505
ZBYN,1995-07-15 01:00,ZBYN 150100Z AUTO 11004KT 5SM 22/20 A2968 RMK T02200200 IEM_DS3505
ZBYN,1995-07-15 02:00,ZBYN 150200Z AUTO 00000KT 5SM 24/21 A2968 RMK T02400210 IEM_DS3505
ZBYN,1995-07-15 03:00,ZBYN 150300Z AUTO 14002KT 5SM 25/20 A2968 RMK SLP010 T02480196 54000 IEM_DS3505
ZBYN,1995-07-15 04:00,ZBYN 150400Z AUTO 00000KT 7SM 26/20 A2968 RMK T02600200 IEM_DS3505
ZBYN,1995-07-15 05:00,ZBYN 150500Z AUTO 00000KT 7SM 27/21 A2968 RMK T02700210 IEM_DS3505
ZBYN,1995-07-15 06:00,ZBYN 150600Z AUTO 14006KT 6SM 28/20 A2965 RMK SLP998 T02820200 57009 IEM_DS3505
ZBYN,1995-07-15 07:00,ZBYN 150700Z AUTO 17006KT 6SM 31/20 A2962 RMK T03100200 IEM_DS3505
ZBYN,1995-07-15 09:00,ZBYN 150900Z AUTO 18006KT 6SM 29/20 A2959 RMK SLP986 T02910199 57012 IEM_DS3505
ZBYN,1995-07-15 10:00,ZBYN 151000Z AUTO 18004KT 6SM 30/19 A2959 RMK T03000190 IEM_DS3505
ZBYN,1995-07-15 11:00,ZBYN 151100Z AUTO 00000KT 6SM 28/20 A2959 RMK T02800200 IEM_DS3505
ZBYN,1995-07-15 12:00,ZBYN 151200Z AUTO 14004KT 6SM 26/21 A2962 RMK SLP990 T02570212 54000 IEM_DS3505
ZBYN,1995-07-15 13:00,ZBYN 151300Z AUTO 00000KT 6SM 24/21 A2965 RMK T02400210 IEM_DS3505
ZBYN,1995-07-15 14:00,ZBYN 151400Z AUTO 00000KT 7SM 24/20 A2965 RMK T02400200 IEM_DS3505
ZBYN,1995-07-15 15:00,ZBYN 151500Z AUTO 14006KT 6SM 22/20 RMK SLP008 T02220204 52017 IEM_DS3505
ZBYN,1995-07-15 18:00,ZBYN 151800Z AUTO 00000KT 6SM 20/20 A2968 RMK SLP011 T02040196 52005 IEM_DS3505
ZBYN,1995-07-15 21:00,ZBYN 152100Z AUTO 00000KT 3SM 19/19 RMK SLP020 T01910186 52007 IEM_DS3505
ZBYN,1995-07-15 23:00,ZBYN 152300Z AUTO 07004KT 1SM 20/20 A2974 RMK T02000200 IEM_DS3505
ZBYN,1995-07-16 00:00,ZBYN 160000Z AUTO 11004KT 3SM 22/21 A2974 RMK SLP031 T02250206 52010 IEM_DS3505
ZBYN,1995-07-16 01:00,ZBYN 160100Z AUTO 09004KT 2SM 25/22 A2974 RMK T02500220 IEM_DS3505
ZBYN,1995-07-16 02:00,ZBYN 160200Z AUTO 15002KT 2SM 27/21 A2974 RMK T02700210 IEM_DS3505
ZBYN,1995-07-16 03:00,ZBYN 160300Z AUTO 00000KT 5SM 29/20 A2974 RMK SLP032 T02870204 52005 IEM_DS3505
ZBYN,1995-07-16 04:00,ZBYN 160400Z AUTO 15004KT 5SM 31/22 A2974 RMK T03100220 IEM_DS3505
ZBYN,1995-07-16 05:00,ZBYN 160500Z AUTO 11006KT 6SM 32/19 A2971 RMK T03200190 IEM_DS3505
ZBYN,1995-07-16 06:00,ZBYN 160600Z AUTO 20002KT 6SM 32/16 A2971 RMK SLP015 T03210156 57013 IEM_DS3505
ZBYN,1995-07-16 07:00,ZBYN 160700Z AUTO 10004KT 7SM 33/22 A2968 RMK T03300220 IEM_DS3505
ZBYN,1995-07-16 09:00,ZBYN 160900Z AUTO 11006KT 9SM 32/20 A2968 RMK SLP006 T03150200 57011 IEM_DS3505
ZBYN,1995-07-16 10:00,ZBYN 161000Z AUTO 09012KT 6SM 30/22 A2965 RMK T03000220 IEM_DS3505
ZBYN,1995-07-16 11:00,ZBYN 161100Z AUTO 07014KT 6SM 28/21 A2968 RMK T02800210 IEM_DS3505
ZBYN,1995-07-16 12:00,ZBYN 161200Z AUTO 09012KT 9SM 27/20 A2971 RMK SLP020 T02690196 52011 IEM_DS3505
ZBYN,1995-07-16 13:00,ZBYN 161300Z AUTO 09016KT 7SM 24/20 A2977 RMK T02400200 IEM_DS3505
ZBYN,1995-07-16 14:00,ZBYN 161400Z AUTO 07012KT 7SM 24/20 A2977 RMK T02400200 IEM_DS3505
ZBYN,1995-07-16 15:00,ZBYN 161500Z AUTO 07002KT 6SM 24/21 A2980 RMK SLP041 T02430209 52024 IEM_DS3505
ZBYN,1995-07-16 18:00,ZBYN 161800Z AUTO 32004KT 6SM 23/21 A2980 RMK SLP041 T02330208 52003 IEM_DS3505
ZBYN,1995-07-16 21:00,ZBYN 162100Z AUTO 29002KT 4SM 22/22 A2980 RMK SLP046 T02250215 52003 IEM_DS3505
ZBYN,1995-07-16 22:00,ZBYN 162200Z AUTO 06008KT 5SM 23/20 A2980 RMK T02300200 IEM_DS3505
ZBYN,1995-07-16 23:00,ZBYN 162300Z AUTO 06008KT 4SM 23/20 A2980 RMK T02300200 IEM_DS3505
ZBYN,1995-07-17 00:00,ZBYN 170000Z AUTO 32004KT 2 1/2SM 23/21 A2980 RMK SLP057 T02310212 52005 IEM_DS3505
ZBYN,1995-07-17 01:00,ZBYN 170100Z AUTO 07012KT 4SM 23/21 A2983 RMK T02300210 IEM_DS3505
ZBYN,1995-07-17 02:00,ZBYN 170200Z AUTO 09008KT 4SM 23/21 A2980 RMK T02300210 IEM_DS3505
ZBYN,1995-07-17 03:00,ZBYN 170300Z AUTO 09008KT 6SM 25/20 A2980 RMK SLP050 T02470204 57008 IEM_DS3505
ZBYN,1995-07-17 04:00,ZBYN 170400Z AUTO 10008KT 4SM 24/22 A2980 RMK T02400220 IEM_DS3505
ZBYN,1995-07-17 05:00,ZBYN 170500Z AUTO 09004KT 5SM 23/22 A2977 RMK T02300220 IEM_DS3505
ZBYN,1995-07-17 06:00,ZBYN 170600Z AUTO 09008KT 6SM 22/21 A2977 RMK 60039 SLP047 T02220209 57008 IEM_DS3505
ZBYN,1995-07-17 07:00,ZBYN 170700Z AUTO 07006KT 7SM 22/21 A2974 RMK T02200210 IEM_DS3505
ZBYN,1995-07-17 08:00,ZBYN 170800Z AUTO 08004KT 7SM 22/21 A2971 RMK T02200210 IEM_DS3505
ZBYN,1995-07-17 09:00,ZBYN 170900Z AUTO 02002KT 6SM 22/21 A2971 RMK SLP031 T02190210 57016 IEM_DS3505
ZBYN,1995-07-17 10:00,ZBYN 171000Z AUTO 08010KT 7SM 22/20 RMK T02200200 IEM_DS3505
ZBYN,1995-07-17 11:00,ZBYN 171100Z AUTO 09008KT 7SM 21/19 A2971 RMK T02100190 IEM_DS3505
ZBYN,1995-07-17 12:00,ZBYN 171200Z AUTO 00000KT 5SM 22/20 A2974 RMK 60002 SLP039 T02150203 52008 IEM_DS3505
ZBYN,1995-07-17 13:00,ZBYN 171300Z AUTO 09012KT 7SM 20/18 A2974 RMK T02000180 IEM_DS3505
ZBYN,1995-07-17 14:00,ZBYN 171400Z AUTO 08010KT 7SM 19/18 A2977 RMK T01900180 IEM_DS3505
ZBYN,1995-07-17 15:00,ZBYN 171500Z AUTO 11006KT 5SM 19/18 A2977 RMK SLP045 T01930182 52004 IEM_DS3505
ZBYN,1995-07-17 18:00,ZBYN 171800Z AUTO 29002KT 5SM 19/18 A2972 RMK 60063 SLP035 T01920184 57012 IEM_DS3505
ZBYN,1995-07-17 21:00,ZBYN 172100Z AUTO 09008KT 6SM 22/21 A2977 RMK 60039 SLP047 T02220209 57008 IEM_DS3505
ZBYN,1995-07-17 22:00,ZBYN 172200Z AUTO 02004KT 7SM 17/17 A2971 RMK T01700170 IEM_DS3505
ZBYN,1995-07-17 23:00,ZBYN 172300Z AUTO 00000KT 2 1/2SM 18/18 A2971 RMK T01800180 IEM_DS3505
ZBYN,1995-07-18 00:00,ZBYN 180000Z AUTO 32004KT 4SM 18/17 A2971 RMK 60043 70146 SLP040 T01790174 52012 IEM_DS3505
ZBYN,1995-07-18 01:00,ZBYN 180100Z AUTO 10004KT 5SM 19/18 A2974 RMK T01900180 IEM_DS3505
ZBYN,1995-07-18 02:00,ZBYN 180200Z AUTO 04008KT 7SM 18/17 A2974 RMK T01800170 IEM_DS3505
ZBYN,1995-07-18 03:00,ZBYN 180300Z AUTO 34002KT 6SM 19/18 A2977 RMK SLP049 T01920175 52007 IEM_DS3505
ZBYN,1995-07-18 04:00,ZBYN 180400Z AUTO 08012KT 7SM 19/16 A2977 RMK T01900160 IEM_DS3505
ZBYN,1995-07-18 05:00,ZBYN 180500Z AUTO 08006KT 7SM 19/17 A2977 RMK T01900170 IEM_DS3505
ZBYN,1995-07-18 06:00,ZBYN 180600Z AUTO 27004KT 6SM 19/17 A2977 RMK 60002 SLP052 T01900166 52003 IEM_DS3505
ZBYN,1995-07-18 07:00,ZBYN 180700Z AUTO 06012KT 7SM 18/15 A2977 RMK T01800150 IEM_DS3505
ZBYN,1995-07-18 08:00,ZBYN 180800Z AUTO 09012KT 7SM 19/16 A2977 RMK T01900160 IEM_DS3505
ZBYN,1995-07-18 09:00,ZBYN 180900Z AUTO 09008KT 12SM 19/14 A2977 RMK SLP057 T01870142 52005 IEM_DS3505
ZBYN,1995-07-18 10:00,ZBYN 181000Z AUTO 11008KT 7SM 19/15 A2977 RMK T01900150 IEM_DS3505
ZBYN,1995-07-18 11:00,ZBYN 181100Z AUTO 03010KT 7SM 18/15 A2977 RMK T01800150 IEM_DS3505
ZBYN,1995-07-18 12:00,ZBYN 181200Z AUTO 11006KT 12SM 18/15 A2980 RMK SLP062 T01810146 52004 IEM_DS3505
ZBYN,1995-07-18 13:00,ZBYN 181300Z AUTO 09008KT 7SM 17/14 A2980 RMK T01700140 IEM_DS3505
ZBYN,1995-07-18 14:00,ZBYN 181400Z AUTO 09008KT 7SM 17/14 A2980 RMK T01700140 IEM_DS3505
ZBYN,1995-07-18 15:00,ZBYN 181500Z AUTO 11006KT 9SM 17/14 A2980 RMK SLP068 T01720144 52006 IEM_DS3505
ZBYN,1995-07-18 18:00,ZBYN 181800Z AUTO 18004KT 7SM 17/15 A2976 RMK SLP052 T01700148 57012 IEM_DS3505
ZBYN,1995-07-18 21:00,ZBYN 182100Z AUTO 14004KT 6SM 17/15 RMK 70012 SLP049 T01660153 57007 IEM_DS3505
ZBYN,1995-07-18 22:00,ZBYN 182200Z AUTO 00000KT 6SM 17/15 A2974 RMK T01700150 IEM_DS3505
ZBYN,1995-07-18 23:00,ZBYN 182300Z AUTO 12004KT 6SM 17/16 A2974 RMK T01700160 IEM_DS3505
ZBYN,1995-07-19 00:00,ZBYN 190000Z AUTO 14004KT 5SM 18/16 A2977 RMK 70002 SLP054 T01750155 52005 IEM_DS3505
ZBYN,1995-07-19 01:00,ZBYN 190100Z AUTO 00000KT 7SM 19/16 A2977 RMK T01900160 IEM_DS3505
ZBYN,1995-07-19 02:00,ZBYN 190200Z AUTO 00000KT 7SM 21/17 A2974 RMK T02100170 IEM_DS3505
ZBYN,1995-07-19 03:00,ZBYN 190300Z AUTO 16008KT 5SM 22/17 A2974 RMK SLP046 T02150173 57003 IEM_DS3505
ZBYN,1995-07-19 04:00,ZBYN 190400Z AUTO 00000KT 7SM 24/18 A2974 RMK T02400180 IEM_DS3505
ZBYN,1995-07-19 05:00,ZBYN 190500Z AUTO 20008KT 7SM 25/18 A2974 RMK T02500180 IEM_DS3505
ZBYN,1995-07-19 06:00,ZBYN 190600Z AUTO 16004KT 5SM 24/18 A2971 RMK SLP038 T02410181 57004 IEM_DS3505
ZBYN,1995-07-19 07:00,ZBYN 190700Z AUTO 22006KT 7SM 25/18 A2971 RMK T02500180 IEM_DS3505
ZBYN,1995-07-19 08:00,ZBYN 190800Z AUTO 19006KT 7SM 26/18 A2968 RMK T02600180 IEM_DS3505
ZBYN,1995-07-19 09:00,ZBYN 190900Z AUTO 16008KT 7SM 26/19 A2968 RMK SLP024 T02610186 57011 IEM_DS3505
ZBYN,1995-07-19 10:00,ZBYN 191000Z AUTO 20006KT 7SM 25/19 A2968 RMK T02500190 IEM_DS3505
ZBYN,1995-07-19 11:00,ZBYN 191100Z AUTO 19006KT 6SM 25/18 A2971 RMK T02500180 IEM_DS3505
ZBYN,1995-07-19 12:00,ZBYN 191200Z AUTO 20006KT 7SM 24/18 A2971 RMK SLP031 T02350183 52004 IEM_DS3505
ZBYN,1995-07-19 13:00,ZBYN 191300Z AUTO 00000KT 6SM 21/18 A2974 RMK T02100180 IEM_DS3505
ZBYN,1995-07-19 14:00,ZBYN 191400Z AUTO 00000KT 7SM 20/18 A2974 RMK T02000180 IEM_DS3505
ZBYN,1995-07-19 15:00,ZBYN 191500Z AUTO 32004KT 6SM 20/18 RMK SLP041 T01990176 52010 IEM_DS3505
ZBYN,1995-07-19 18:00,ZBYN 191800Z AUTO 32002KT 5SM 19/17 A2975 RMK SLP042 T01900166 52003 IEM_DS3505
ZBYN,1995-07-19 21:00,ZBYN 192100Z AUTO 00000KT 3SM 16/16 A2974 RMK SLP042 T01640156 54000 IEM_DS3505
ZBYN,1995-07-19 22:00,ZBYN 192200Z AUTO 00000KT 1SM 16/15 A2974 RMK T01600150 IEM_DS3505
ZBYN,1995-07-19 23:00,ZBYN 192300Z AUTO 00000KT 1SM 16/16 A2977 RMK T01600160 IEM_DS3505
ZBYN,1995-07-20 00:00,ZBYN 200000Z AUTO 34004KT 5SM 20/16 A2977 RMK SLP047 T01990162 52005 IEM_DS3505
ZBYN,1995-07-20 01:00,ZBYN 200100Z AUTO 12002KT 7SM 21/18 A2977 RMK T02100180 IEM_DS3505
ZBYN,1995-07-20 02:00,ZBYN 200200Z AUTO 15004KT 6SM 24/18 A2977 RMK T02400180 IEM_DS3505
ZBYN,1995-07-20 03:00,ZBYN 200300Z AUTO 32004KT 6SM 25/16 A2974 RMK SLP036 T02520165 57007 IEM_DS3505
ZBYN,1995-07-20 04:00,ZBYN 200400Z AUTO 15006KT 7SM 27/18 A2974 RMK T02700180 IEM_DS3505
ZBYN,1995-07-20 05:00,ZBYN 200500Z AUTO 18004KT 6SM 28/19 A2971 RMK SLP024 T02760188 57009 IEM_DS3505
ZBYN,1995-07-20 06:00,ZBYN 200600Z AUTO 18004KT 6SM 28/19 A2971 RMK SLP024 T02760188 57009 IEM_DS3505
ZBYN,1995-07-20 07:00,ZBYN 200700Z AUTO 00000KT 7SM 29/17 A2971 RMK T02900170 IEM_DS3505
ZBYN,1995-07-20 08:00,ZBYN 200800Z AUTO 21006KT 7SM 30/19 A2968 RMK T03000190 IEM_DS3505
ZBYN,1995-07-20 09:00,ZBYN 200900Z AUTO 20006KT 6SM 28/19 A2968 RMK SLP018 T02770189 57009 IEM_DS3505
ZBYN,1995-07-20 10:00,ZBYN 201000Z AUTO 00000KT 7SM 29/20 A2968 RMK T02900200 IEM_DS3505
ZBYN,1995-07-20 11:00,ZBYN 201100Z AUTO 10004KT 6SM 26/20 A2968 RMK T02600200 IEM_DS3505
ZBYN,1995-07-20 12:00,ZBYN 201200Z AUTO 04004KT 6SM 25/19 A2968 RMK SLP023 T02490194 52005 IEM_DS3505
ZBYN,1995-07-20 13:00,ZBYN 201300Z AUTO 07014KT 7SM 22/18 A2971 RMK T02200180 IEM_DS3505
ZBYN,1995-07-20 14:00,ZBYN 201400Z AUTO 07010KT 7SM 21/19 A2974 RMK T02100190 IEM_DS3505
ZBYN,1995-07-20 15:00,ZBYN 201500Z AUTO 04004KT 6SM 23/17 RMK SLP028 T02340174 52010 IEM_DS3505
ZBYN,1995-07-20 18:00,ZBYN 201800Z AUTO 34006KT 6SM 21/18 A2973 RMK SLP026 T02090180 57002 IEM_DS3505
ZBYN,1995-07-20 21:00,ZBYN 202100Z AUTO 32004KT 6SM 19/17 A2974 RMK SLP028 T01940172 54000 IEM_DS3505
ZBYN,1995-07-20 22:00,ZBYN 202200Z AUTO 00000KT 6SM 18/17 A2974 RMK T01800170 IEM_DS3505
ZBYN,1995-07-20 23:00,ZBYN 202300Z AUTO 00000KT 6SM 19/17 A2974 RMK T01900170 IEM_DS3505
ZBYN,1995-07-21 00:00,ZBYN 210000Z AUTO 34004KT 6SM 21/17 A2977 RMK SLP040 T02140173 52010 IEM_DS3505
ZBYN,1995-07-21 01:00,ZBYN 210100Z AUTO 00000KT 7SM 24/18 A2977 RMK T02400180 IEM_DS3505
ZBYN,1995-07-21 02:00,ZBYN 210200Z AUTO 00000KT 7SM 26/19 A2974 RMK T02600190 IEM_DS3505
ZBYN,1995-07-21 03:00,ZBYN 210300Z AUTO 14002KT 6SM 26/19 A2974 RMK SLP031 T02620188 57004 IEM_DS3505
ZBYN,1995-07-21 04:00,ZBYN 210400Z AUTO 00000KT 7SM 28/19 A2974 RMK T02800190 IEM_DS3505
ZBYN,1995-07-21 05:00,ZBYN 210500Z AUTO 00000KT 7SM 30/21 A2971 RMK T03000210 IEM_DS3505
ZBYN,1995-07-21 06:00,ZBYN 210600Z AUTO 20006KT 6SM 29/20 A2968 RMK SLP010 T02940197 57018 IEM_DS3505
ZBYN,1995-07-21 07:00,ZBYN 210700Z AUTO 16004KT 7SM 32/20 A2968 RMK T03200200 IEM_DS3505
ZBYN,1995-07-21 08:00,ZBYN 210800Z AUTO 19004KT 6SM 32/20 A2965 RMK T03200200 IEM_DS3505
ZBYN,1995-07-21 09:00,ZBYN 210900Z AUTO 18002KT 6SM 30/20 A2965 RMK SLP998 T03040205 57012 IEM_DS3505
ZBYN,1995-07-21 10:00,ZBYN 211000Z AUTO 00000KT 6SM 31/19 A2965 RMK T03100190 IEM_DS3505
ZBYN,1995-07-21 11:00,ZBYN 211100Z AUTO 08008KT 7SM 28/22 A2968 RMK T02800220 IEM_DS3505
ZBYN,1995-07-21 12:00,ZBYN 211200Z AUTO 07008KT 6SM 27/19 A2968 RMK SLP013 T02690193 52012 IEM_DS3505
ZBYN,1995-07-21 13:00,ZBYN 211300Z AUTO 08008KT 6SM 25/21 A2971 RMK T02500210 IEM_DS3505
ZBYN,1995-07-21 15:00,ZBYN 211500Z AUTO 32002KT 6SM 25/20 RMK SLP027 T02530204 52017 IEM_DS3505
ZBYN,1995-07-21 18:00,ZBYN 211800Z AUTO 34002KT 6SM 22/20 A2975 RMK SLP028 T02210202 52001 IEM_DS3505
ZBYN,1995-07-21 21:00,ZBYN 212100Z AUTO 00000KT 6SM 20/19 RMK SLP028 T02050191 57001 IEM_DS3505
ZBYN,1995-07-21 22:00,ZBYN 212200Z AUTO 00000KT 6SM 20/19 A2977 RMK T02000190 IEM_DS3505
ZBYN,1995-07-21 23:00,ZBYN 212300Z AUTO 00000KT 5SM 21/19 A2977 RMK T02100190 IEM_DS3505
ZBYN,1995-07-22 00:00,ZBYN 220000Z AUTO 34004KT 2 1/2SM 22/18 A2977 RMK SLP041 T02220175 52010 IEM_DS3505
ZBYN,1995-07-22 01:00,ZBYN 220100Z AUTO 00000KT 4SM 24/22 A2977 RMK T02400220 IEM_DS3505
ZBYN,1995-07-22 02:00,ZBYN 220200Z AUTO 16006KT 4SM 27/22 A2977 RMK T02700220 IEM_DS3505
ZBYN,1995-07-22 03:00,ZBYN 220300Z AUTO 16006KT 4SM 27/21 A2977 RMK SLP035 T02660212 57002 IEM_DS3505
ZBYN,1995-07-22 04:00,ZBYN 220400Z AUTO 18008KT 5SM 29/22 A2977 RMK T02900220 IEM_DS3505
ZBYN,1995-07-22 05:00,ZBYN 220500Z AUTO 00000KT 7SM 30/22 A2974 RMK T03000220 IEM_DS3505
ZBYN,1995-07-22 06:00,ZBYN 220600Z AUTO 16004KT 5SM 29/22 A2977 RMK SLP023 T02920218 57012 IEM_DS3505
ZBYN,1995-07-22 07:00,ZBYN 220700Z AUTO 00000KT 6SM 31/22 A2971 RMK T03100220 IEM_DS3505
ZBYN,1995-07-22 08:00,ZBYN 220800Z AUTO 00000KT 6SM 31/22 A2968 RMK T03100220 IEM_DS3505
ZBYN,1995-07-22 09:00,ZBYN 220900Z AUTO 11004KT 5SM 29/24 A2968 RMK SLP011 T02870240 57014 IEM_DS3505
ZBYN,1995-07-22 10:00,ZBYN 221000Z AUTO 31014KT 7SM 24/20 RMK T02400200 IEM_DS3505
ZBYN,1995-07-22 11:00,ZBYN 221100Z AUTO 31014KT 7SM 23/19 A2971 RMK T02300190 IEM_DS3505
ZBYN,1995-07-22 12:00,ZBYN 221200Z AUTO 34006KT 6SM 22/20 A2977 RMK 60039 T02150205 52021 IEM_DS3505
ZBYN,1995-07-22 13:00,ZBYN 221300Z AUTO 33004KT 7SM 22/21 A2977 RMK T02200210 IEM_DS3505
ZBYN,1995-07-22 14:00,ZBYN 221400Z AUTO 33004KT 7SM 23/20 A2980 RMK T02300200 IEM_DS3505
ZBYN,1995-07-22 15:00,ZBYN 221500Z AUTO 32006KT 6SM 22/21 A2980 RMK SLP048 T02220209 52013 IEM_DS3505
ZBYN,1995-07-22 16:00,ZBYN 221600Z AUTO 30002KT 7SM 23/22 A2980 RMK T02300220 IEM_DS3505
ZBYN,1995-07-22 18:00,ZBYN 221800Z AUTO 34004KT 6SM 22/20 A2978 RMK 60000 SLP039 T02200201 57005 IEM_DS3505
ZBYN,1995-07-22 21:00,ZBYN 222100Z AUTO 32004KT 6SM 21/21 A2980 RMK 70039 SLP048 T02130207 52006 IEM_DS3505
ZBYN,1995-07-23 00:00,ZBYN 230000Z AUTO 34006KT 7SM 21/17 A2983 RMK 70039 SLP074 T02090173 52014 IEM_DS3505
ZBYN,1995-07-23 01:00,ZBYN 230100Z AUTO 33012KT 7SM 22/17 A2983 RMK T02200170 IEM_DS3505
ZBYN,1995-07-23 02:00,ZBYN 230200Z AUTO 36010KT 7SM 23/17 A2983 RMK T02300170 IEM_DS3505
ZBYN,1995-07-23 03:00,ZBYN 230300Z AUTO 02006KT 6SM 23/16 A2983 RMK SLP070 T02310160 54000 IEM_DS3505
ZBYN,1995-07-23 04:00,ZBYN 230400Z AUTO 35012KT 7SM 24/17 A2983 RMK T02400170 IEM_DS3505
ZBYN,1995-07-23 05:00,ZBYN 230500Z AUTO 36014KT 6SM 24/14 A2983 RMK T02400140 IEM_DS3505
ZBYN,1995-07-23 06:00,ZBYN 230600Z AUTO 36010KT 6SM 24/14 A2983 RMK SLP069 T02400143 54000 IEM_DS3505
ZBYN,1995-07-23 07:00,ZBYN 230700Z AUTO 34014KT 6SM 24/14 A2983 RMK T02400140 IEM_DS3505
ZBYN,1995-07-23 08:00,ZBYN 230800Z AUTO 32010KT 7SM 23/15 A2983 RMK T02300150 IEM_DS3505
ZBYN,1995-07-23 09:00,ZBYN 230900Z AUTO 36002KT 6SM 24/14 A2980 RMK SLP060 T02360141 57010 IEM_DS3505
ZBYN,1995-07-23 10:00,ZBYN 231000Z AUTO 36006KT 7SM 23/12 A2980 RMK T02300120 IEM_DS3505
ZBYN,1995-07-23 11:00,ZBYN 231100Z AUTO 12006KT 7SM 24/19 A2983 RMK T02400190 IEM_DS3505
ZBYN,1995-07-23 12:00,ZBYN 231200Z AUTO 07004KT 6SM 22/14 A2983 RMK SLP069 T02190142 52006 IEM_DS3505
ZBYN,1995-07-23 13:00,ZBYN 231300Z AUTO 10006KT 6SM 20/18 A2985 RMK T02000180 IEM_DS3505
ZBYN,1995-07-23 14:00,ZBYN 231400Z AUTO 12004KT 7SM 19/18 A2988 RMK T01900180 IEM_DS3505
ZBYN,1995-07-23 15:00,ZBYN 231500Z AUTO 36002KT 6SM 18/18 RMK SLP088 T01830175 52015 IEM_DS3505
ZBYN,1995-07-23 18:00,ZBYN 231800Z AUTO 34004KT 6SM 18/14 A2988 RMK SLP088 T01760143 54000 IEM_DS3505
ZBYN,1995-07-23 21:00,ZBYN 232100Z AUTO 32006KT 6SM 17/14 A2985 RMK SLP087 T01680145 57002 IEM_DS3505
ZBYN,1995-07-23 22:00,ZBYN 232200Z AUTO 10004KT 7SM 14/13 A2988 RMK T01400130 IEM_DS3505
ZBYN,1995-07-23 23:00,ZBYN 232300Z AUTO 01004KT 6SM 16/14 A2988 RMK T01600140 IEM_DS3505
ZBYN,1995-07-24 00:00,ZBYN 240000Z AUTO 36006KT 6SM 19/15 A2988 RMK SLP094 T01900149 52007 IEM_DS3505
ZBYN,1995-07-24 01:00,ZBYN 240100Z AUTO 36006KT 7SM 22/15 A2988 RMK T02200150 IEM_DS3505
ZBYN,1995-07-24 02:00,ZBYN 240200Z AUTO 36006KT 6SM 24/15 A2988 RMK T02400150 IEM_DS3505
ZBYN,1995-07-24 03:00,ZBYN 240300Z AUTO 02004KT 6SM 25/16 A2985 RMK SLP083 T02530160 57006 IEM_DS3505
ZBYN,1995-07-24 04:00,ZBYN 240400Z AUTO 10004KT 6SM 28/17 A2985 RMK T02800170 IEM_DS3505
ZBYN,1995-07-24 05:00,ZBYN 240500Z AUTO 10012KT 7SM 28/15 A2983 RMK T02800150 IEM_DS3505
ZBYN,1995-07-24 06:00,ZBYN 240600Z AUTO 11008KT 12SM 26/15 A2983 RMK SLP071 T02550148 57012 IEM_DS3505
ZBYN,1995-07-24 07:00,ZBYN 240700Z AUTO 10010KT 7SM 25/16 A2983 RMK T02500160 IEM_DS3505
ZBYN,1995-07-24 08:00,ZBYN 240800Z AUTO 06008KT 7SM 25/14 A2983 RMK T02500140 IEM_DS3505
ZBYN,1995-07-24 09:00,ZBYN 240900Z AUTO 09008KT 12SM 24/14 A2980 RMK SLP070 T02390143 57004 IEM_DS3505
ZBYN,1995-07-24 10:00,ZBYN 241000Z AUTO 09012KT 7SM 23/14 A2980 RMK T02300140 IEM_DS3505
ZBYN,1995-07-24 11:00,ZBYN 241100Z AUTO 06008KT 7SM 22/14 A2983 RMK T02200140 IEM_DS3505
ZBYN,1995-07-24 12:00,ZBYN 241200Z AUTO 09006KT 12SM 22/12 A2983 RMK SLP072 T02190116 52002 IEM_DS3505
ZBYN,1995-07-24 13:00,ZBYN 241300Z AUTO 02006KT 7SM 20/14 A2983 RMK T02000140 IEM_DS3505
ZBYN,1995-07-24 14:00,ZBYN 241400Z AUTO 07006KT 7SM 20/13 A2985 RMK T02000130 IEM_DS3505
ZBYN,1995-07-24 15:00,ZBYN 241500Z AUTO 00000KT 6SM 20/14 A2985 RMK SLP069 T01960145 52003 IEM_DS3505
ZBYN,1995-07-24 18:00,ZBYN 241800Z AUTO 32004KT 6SM 18/16 A2982 RMK 60002 SLP066 T01760160 57006 IEM_DS3505
ZBYN,1995-07-24 21:00,ZBYN 242100Z AUTO 36004KT 6SM 17/15 A2977 RMK SLP005 T01740149 57016 IEM_DS3505
ZBYN,1995-07-24 22:00,ZBYN 242200Z AUTO 00000KT 7SM 17/16 A2974 RMK T01700160 IEM_DS3505
ZBYN,1995-07-24 23:00,ZBYN 242300Z AUTO 14004KT 7SM 17/17 A2974 RMK T01700170 IEM_DS3505
ZBYN,1995-07-25 00:00,ZBYN 250000Z AUTO 34002KT 7SM 18/14 A2977 RMK 60001 70004 SLP048 T01840141 57004 IEM_DS3505
ZBYN,1995-07-25 01:00,ZBYN 250100Z AUTO 15004KT 7SM 19/17 A2977 RMK T01900170 IEM_DS3505
ZBYN,1995-07-25 02:00,ZBYN 250200Z AUTO 17004KT 7SM 19/17 A2977 RMK T01900170 IEM_DS3505
ZBYN,1995-07-25 03:00,ZBYN 250300Z AUTO 18004KT 6SM 18/17 A2977 RMK SLP063 T01820166 52010 IEM_DS3505
ZBYN,1995-07-25 04:00,ZBYN 250400Z AUTO 17004KT 7SM 19/18 A2977 RMK T01900180 IEM_DS3505
ZBYN,1995-07-25 05:00,ZBYN 250500Z AUTO 12008KT 7SM 19/17 A2977 RMK T01900170 IEM_DS3505
ZBYN,1995-07-25 06:00,ZBYN 250600Z AUTO 18008KT 6SM 19/17 A2977 RMK 60008 SLP062 T01940169 57002 IEM_DS3505
ZBYN,1995-07-25 07:00,ZBYN 250700Z AUTO 15006KT 7SM 22/18 A2977 RMK T02200180 IEM_DS3505
ZBYN,1995-07-25 08:00,ZBYN 250800Z AUTO 15006KT 7SM 22/18 A2977 RMK T02200180 IEM_DS3505
ZBYN,1995-07-25 09:00,ZBYN 250900Z AUTO 14006KT 12SM 22/16 A2974 RMK SLP047 T02150157 57011 IEM_DS3505
ZBYN,1995-07-25 10:00,ZBYN 251000Z AUTO 12004KT 6SM 21/17 A2974 RMK T02100170 IEM_DS3505
ZBYN,1995-07-25 11:00,ZBYN 251100Z AUTO 11006KT 7SM 22/17 A2971 RMK T02200170 IEM_DS3505
ZBYN,1995-07-25 12:00,ZBYN 251200Z AUTO 18004KT 6SM 19/17 A2974 RMK SLP047 T01910174 57002 IEM_DS3505
ZBYN,1995-07-25 13:00,ZBYN 251300Z AUTO 00000KT 7SM 18/16 A2977 RMK T01800160 IEM_DS3505
ZBYN,1995-07-25 14:00,ZBYN 251400Z AUTO 11006KT 7SM 17/16 A2977 RMK T01700160 IEM_DS3505
ZBYN,1995-07-25 15:00,ZBYN 251500Z AUTO 00000KT 9SM 16/16 A2980 RMK SLP069 T01620155 52016 IEM_DS3505
ZBYN,1995-07-25 16:00,ZBYN 251600Z AUTO 00000KT 7SM 15/15 A2980 RMK T01500150 IEM_DS3505
ZBYN,1995-07-25 17:00,ZBYN 251700Z AUTO 00000KT 7SM 15/15 A2980 RMK T01500150 IEM_DS3505
ZBYN,1995-07-25 18:00,ZBYN 251800Z AUTO 14004KT 9SM 15/15 A2983 RMK SLP082 T01480146 52011 IEM_DS3505
ZBYN,1995-07-25 21:00,ZBYN 252100Z AUTO 00000KT 1 1/4SM 14/14 RMK 70008 SLP075 T01410138 57004 IEM_DS3505
ZBYN,1995-07-25 22:00,ZBYN 252200Z AUTO 00000KT 2SM 14/14 A2983 RMK T01400140 IEM_DS3505
ZBYN,1995-07-25 23:00,ZBYN 252300Z AUTO 00000KT 1 1/4SM 15/14 A2983 RMK T01500140 IEM_DS3505
ZBYN,1995-07-26 00:00,ZBYN 260000Z AUTO 32004KT 3SM 17/16 A2983 RMK 70008 SLP084 T01730155 52009 IEM_DS3505
ZBYN,1995-07-26 01:00,ZBYN 260100Z AUTO 29010KT 2SM 20/17 A2983 RMK T02000170 IEM_DS3505
ZBYN,1995-07-26 02:00,ZBYN 260200Z AUTO 00000KT 4SM 23/18 A2983 RMK T02300180 IEM_DS3505
ZBYN,1995-07-26 03:00,ZBYN 260300Z AUTO 18004KT 6SM 24/17 A2985 RMK SLP082 T02430173 52004 IEM_DS3505
ZBYN,1995-07-26 04:00,ZBYN 260400Z AUTO 17004KT 7SM 26/17 A2983 RMK T02600170 IEM_DS3505
ZBYN,1995-07-26 05:00,ZBYN 260500Z AUTO 26006KT 7SM 28/17 A2980 RMK T02800170 IEM_DS3505
ZBYN,1995-07-26 06:00,ZBYN 260600Z AUTO 00000KT 6SM 29/16 A2980 RMK SLP056 T02870165 57019 IEM_DS3505
ZBYN,1995-07-26 07:00,ZBYN 260700Z AUTO 17006KT 7SM 31/16 A2980 RMK T03100160 IEM_DS3505
ZBYN,1995-07-26 08:00,ZBYN 260800Z AUTO 14012KT 7SM 31/16 A2977 RMK T03100160 IEM_DS3505
ZBYN,1995-07-26 09:00,ZBYN 260900Z AUTO 16006KT 12SM 30/16 A2977 RMK SLP046 T02970163 57009 IEM_DS3505
ZBYN,1995-07-26 10:00,ZBYN 261000Z AUTO 16008KT 7SM 30/14 A2977 RMK T03000140 IEM_DS3505
ZBYN,1995-07-26 11:00,ZBYN 261100Z AUTO 15006KT 7SM 27/18 A2977 RMK T02700180 IEM_DS3505
ZBYN,1995-07-26 12:00,ZBYN 261200Z AUTO 11004KT 9SM 24/18 A2980 RMK SLP056 T02430179 52006 IEM_DS3505
ZBYN,1995-07-26 13:00,ZBYN 261300Z AUTO 08010KT 6SM 22/18 A2983 RMK T02200180 IEM_DS3505
ZBYN,1995-07-26 14:00,ZBYN 261400Z AUTO 09008KT 7SM 23/19 A2985 RMK T02300190 IEM_DS3505
ZBYN,1995-07-26 15:00,ZBYN 261500Z AUTO 09010KT 6SM 24/19 RMK SLP071 T02350191 52022 IEM_DS3505
ZBYN,1995-07-26 16:00,ZBYN 261600Z AUTO 08010KT 7SM 22/19 A2988 RMK T02200190 IEM_DS3505
ZBYN,1995-07-26 17:00,ZBYN 261700Z AUTO 07010KT 7SM 22/19 A2988 RMK T02200190 IEM_DS3505
ZBYN,1995-07-26 18:00,ZBYN 261800Z AUTO 36002KT 5SM 22/19 A2988 RMK SLP077 T02170193 52009 IEM_DS3505
ZBYN,1995-07-26 19:00,ZBYN 261900Z AUTO 08006KT 7SM 21/19 A2988 RMK T02100190 IEM_DS3505
ZBYN,1995-07-26 20:00,ZBYN 262000Z AUTO 08006KT 7SM 20/19 A2988 RMK T02000190 IEM_DS3505
ZBYN,1995-07-26 21:00,ZBYN 262100Z AUTO 00000KT 5SM 22/19 A2988 RMK SLP073 T02150191 57002 IEM_DS3505
ZBYN,1995-07-26 22:00,ZBYN 262200Z AUTO 10006KT 6SM 20/18 A2988 RMK T02000180 IEM_DS3505
ZBYN,1995-07-26 23:00,ZBYN 262300Z AUTO 05006KT 6SM 21/19 A2991 RMK T02100190 IEM_DS3505
ZBYN,1995-07-27 00:00,ZBYN 270000Z AUTO 34004KT 5SM 22/20 A2991 RMK SLP091 T02210200 52010 IEM_DS3505
ZBYN,1995-07-27 01:00,ZBYN 270100Z AUTO 10006KT 6SM 25/21 A2991 RMK T02500210 IEM_DS3505
ZBYN,1995-07-27 02:00,ZBYN 270200Z AUTO 12006KT 7SM 27/21 A2991 RMK T02700210 IEM_DS3505
ZBYN,1995-07-27 03:00,ZBYN 270300Z AUTO 16006KT 6SM 27/20 RMK SLP082 T02680200 57003 IEM_DS3505
ZBYN,1995-07-27 05:00,ZBYN 270500Z AUTO 16008KT 7SM 30/22 A2988 RMK T03000220 IEM_DS3505
ZBYN,1995-07-27 06:00,ZBYN 270600Z AUTO 16008KT 6SM 29/20 A2988 RMK SLP072 T02860203 57009 IEM_DS3505
ZBYN,1995-07-27 08:00,ZBYN 270800Z AUTO 15010KT 7SM 30/22 A2985 RMK T03000220 IEM_DS3505
ZBYN,1995-07-27 09:00,ZBYN 270900Z AUTO 16006KT 6SM 29/22 A2983 RMK SLP057 T02920217 57013 IEM_DS3505
ZBYN,1995-07-27 10:00,ZBYN 271000Z AUTO 15010KT 7SM 30/20 A2983 RMK T03000200 IEM_DS3505
ZBYN,1995-07-27 11:00,ZBYN 271100Z AUTO 16010KT 7SM 28/21 A2983 RMK T02800210 IEM_DS3505
ZBYN,1995-07-27 12:00,ZBYN 271200Z AUTO 14006KT 6SM 26/21 A2985 RMK SLP069 T02610212 52007 IEM_DS3505
ZBYN,1995-07-27 13:00,ZBYN 271300Z AUTO 15010KT 7SM 26/21 A2985 RMK T02600210 IEM_DS3505
ZBYN,1995-07-27 14:00,ZBYN 271400Z AUTO 12008KT 7SM 26/21 A2988 RMK T02600210 IEM_DS3505
ZBYN,1995-07-27 15:00,ZBYN 271500Z AUTO 18004KT 6SM 24/22 A2985 RMK SLP071 T02450216 52006 IEM_DS3505
ZBYN,1995-07-27 16:00,ZBYN 271600Z AUTO 15004KT 7SM 25/21 A2988 RMK T02500210 IEM_DS3505
ZBYN,1995-07-27 17:00,ZBYN 271700Z AUTO 00000KT 7SM 24/21 A2985 RMK T02400210 IEM_DS3505
ZBYN,1995-07-27 18:00,ZBYN 271800Z AUTO 09002KT 6SM 24/22 A2985 RMK SLP059 T02380216 57009 IEM_DS3505
ZBYN,1995-07-27 19:00,ZBYN 271900Z AUTO 00000KT 7SM 23/21 A2983 RMK T02300210 IEM_DS3505
ZBYN,1995-07-27 20:00,ZBYN 272000Z AUTO 00000KT 23/21 A2983 RMK T02300210 IEM_DS3505
ZBYN,1995-07-27 21:00,ZBYN 272100Z AUTO 11004KT 6SM 22/21 A2983 RMK SLP057 T02250212 57003 IEM_DS3505
ZBYN,1995-07-27 22:00,ZBYN 272200Z AUTO 00000KT 5SM 22/21 A2983 RMK T02200210 IEM_DS3505
ZBYN,1995-07-27 23:00,ZBYN 272300Z AUTO 00000KT 5SM 22/21 A2983 RMK T02200210 IEM_DS3505
ZBYN,1995-07-28 00:00,ZBYN 280000Z AUTO 16006KT 6SM 24/22 A2983 RMK SLP061 T02400217 52001 IEM_DS3505
ZBYN,1995-07-28 01:00,ZBYN 280100Z AUTO 16006KT 6SM 26/22 A2983 RMK T02600220 IEM_DS3505
ZBYN,1995-07-28 02:00,ZBYN 280200Z AUTO 21008KT 6SM 28/22 A2983 RMK T02800220 IEM_DS3505
ZBYN,1995-07-28 03:00,ZBYN 280300Z AUTO 18008KT 6SM 28/22 A2980 RMK SLP049 T02810216 57007 IEM_DS3505
ZBYN,1995-07-28 04:00,ZBYN 280400Z AUTO 19006KT 7SM 29/22 A2980 RMK T02900220 IEM_DS3505
ZBYN,1995-07-28 05:00,ZBYN 280500Z AUTO 15008KT 7SM 31/23 A2977 RMK T03100230 IEM_DS3505
ZBYN,1995-07-28 06:00,ZBYN 280600Z AUTO 14008KT 6SM 29/22 A2974 RMK SLP024 T02930223 57022 IEM_DS3505
ZBYN,1995-07-28 07:00,ZBYN 280700Z AUTO 12008KT 7SM 31/22 A2971 RMK T03100220 IEM_DS3505
ZBYN,1995-07-28 08:00,ZBYN 280800Z AUTO 18004KT 7SM 31/23 A2968 RMK T03100230 IEM_DS3505
ZBYN,1995-07-28 09:00,ZBYN 280900Z AUTO 16006KT 6SM 30/24 A2968 RMK SLP005 T03050237 57018 IEM_DS3505
ZBYN,1995-07-28 10:00,ZBYN 281000Z AUTO 16012KT 7SM 32/22 A2968 RMK T03200220 IEM_DS3505
ZBYN,1995-07-28 11:00,ZBYN 281100Z AUTO 16008KT 7SM 29/22 A2968 RMK T02900220 IEM_DS3505
ZBYN,1995-07-28 12:00,ZBYN 281200Z AUTO 14006KT 7SM 28/23 A2971 RMK SLP010 T02770230 52003 IEM_DS3505
ZBYN,1995-07-28 13:00,ZBYN 281300Z AUTO 13006KT 7SM 27/22 A2974 RMK T02700220 IEM_DS3505
ZBYN,1995-07-28 14:00,ZBYN 281400Z AUTO 13006KT 7SM 26/22 A2974 RMK T02600220 IEM_DS3505
ZBYN,1995-07-28 15:00,ZBYN 281500Z AUTO 09004KT 6SM 25/22 A2974 RMK SLP022 T02520223 52013 IEM_DS3505
ZBYN,1995-07-28 16:00,ZBYN 281600Z AUTO 14006KT 7SM 25/22 A2971 RMK T02500220 IEM_DS3505
ZBYN,1995-07-28 17:00,ZBYN 281700Z AUTO 14006KT 7SM 25/22 A2971 RMK T02500220 IEM_DS3505
ZBYN,1995-07-28 18:00,ZBYN 281800Z AUTO 14004KT 6SM 24/22 A2971 RMK SLP015 T02350219 57007 IEM_DS3505
ZBYN,1995-07-28 19:00,ZBYN 281900Z AUTO 12006KT 7SM 25/22 A2971 RMK T02500220 IEM_DS3505
ZBYN,1995-07-28 20:00,ZBYN 282000Z AUTO 14006KT 7SM 24/22 A2968 RMK T02400220 IEM_DS3505
ZBYN,1995-07-28 21:00,ZBYN 282100Z AUTO 11008KT 6SM 23/21 A2968 RMK SLP006 T02280213 57008 IEM_DS3505
ZBYN,1995-07-28 22:00,ZBYN 282200Z AUTO 15006KT 7SM 23/21 A2968 RMK T02300210 IEM_DS3505
ZBYN,1995-07-28 23:00,ZBYN 282300Z AUTO 11006KT 5SM 23/22 A2968 RMK T02300220 IEM_DS3505
ZBYN,1995-07-29 00:00,ZBYN 290000Z AUTO 14006KT 6SM 24/22 A2968 RMK SLP007 T02430221 54000 IEM_DS3505
ZBYN,1995-07-29 01:00,ZBYN 290100Z AUTO 18004KT 5SM 26/23 A2968 RMK T02600230 IEM_DS3505
ZBYN,1995-07-29 02:00,ZBYN 290200Z AUTO 17004KT 5SM 27/23 A2968 RMK T02700230 IEM_DS3505
ZBYN,1995-07-29 03:00,ZBYN 290300Z AUTO 18010KT 6SM 28/22 A2965 RMK SLP998 T02790223 57007 IEM_DS3505
ZBYN,1995-07-29 04:00,ZBYN 290400Z AUTO 21008KT 6SM 29/23 A2965 RMK T02900230 IEM_DS3505
ZBYN,1995-07-29 05:00,ZBYN 290500Z AUTO 23006KT 7SM 29/22 A2962 RMK T02900220 IEM_DS3505
ZBYN,1995-07-29 06:00,ZBYN 290600Z AUTO 00000KT 6SM 28/25 A2962 RMK SLP988 T02830246 57011 IEM_DS3505
ZBYN,1995-07-29 07:00,ZBYN 290700Z AUTO 30006KT 7SM 29/24 A2962 RMK T02900240 IEM_DS3505
ZBYN,1995-07-29 08:00,ZBYN 290800Z AUTO 32004KT 7SM 27/24 A2962 RMK T02700240 IEM_DS3505
ZBYN,1995-07-29 09:00,ZBYN 290900Z AUTO 14002KT 5SM 27/25 A2962 RMK SLP989 T02710249 57002 IEM_DS3505
ZBYN,1995-07-29 10:00,ZBYN 291000Z AUTO 24008KT 7SM 28/22 A2962 RMK T02800220 IEM_DS3505
ZBYN,1995-07-29 11:00,ZBYN 291100Z AUTO 26008KT 7SM 27/21 A2962 RMK T02700210 IEM_DS3505
ZBYN,1995-07-29 12:00,ZBYN 291200Z AUTO 32008KT 6SM 26/20 A2965 RMK 60000 SLP997 T02600204 52008 IEM_DS3505
ZBYN,1995-07-29 13:00,ZBYN 291300Z AUTO 30010KT 6SM 25/20 A2965 RMK T02500200 IEM_DS3505
ZBYN,1995-07-29 14:00,ZBYN 291400Z AUTO 29010KT 6SM 25/19 A2968 RMK T02500190 IEM_DS3505
ZBYN,1995-07-29 15:00,ZBYN 291500Z AUTO 32004KT 6SM 24/19 A2968 RMK SLP009 T02390192 52013 IEM_DS3505
ZBYN,1995-07-29 16:00,ZBYN 291600Z AUTO 33006KT 7SM 24/19 A2971 RMK T02400190 IEM_DS3505
ZBYN,1995-07-29 17:00,ZBYN 291700Z AUTO 31004KT 7SM 23/19 A2971 RMK T02300190 IEM_DS3505
ZBYN,1995-07-29 18:00,ZBYN 291800Z AUTO 34004KT 6SM 23/19 A2971 RMK SLP010 T02320194 52001 IEM_DS3505
ZBYN,1995-07-29 19:00,ZBYN 291900Z AUTO 31004KT 6SM 23/19 A2971 RMK T02300190 IEM_DS3505
ZBYN,1995-07-29 20:00,ZBYN 292000Z AUTO 30006KT 6SM 23/20 A2971 RMK T02300200 IEM_DS3505
ZBYN,1995-07-29 21:00,ZBYN 292100Z AUTO 34002KT 6SM 22/19 A2971 RMK 70001 SLP016 T02210189 52002 IEM_DS3505
ZBYN,1995-07-29 22:00,ZBYN 292200Z AUTO 32004KT 6SM 22/17 A2971 RMK T02200170 IEM_DS3505
ZBYN,1995-07-29 23:00,ZBYN 292300Z AUTO 00000KT 6SM 22/18 A2974 RMK T02200180 IEM_DS3505
ZBYN,1995-07-30 00:00,ZBYN 300000Z AUTO 34002KT 7SM 22/20 A2976 RMK 70001 SLP038 T02180199 52018 IEM_DS3505
ZBYN,1995-07-30 01:00,ZBYN 300100Z AUTO 27004KT 6SM 24/18 A2977 RMK T02400180 IEM_DS3505
ZBYN,1995-07-30 02:00,ZBYN 300200Z AUTO 30004KT 6SM 25/18 A2977 RMK T02500180 IEM_DS3505
ZBYN,1995-07-30 03:00,ZBYN 300300Z AUTO 09002KT 6SM 26/18 A2977 RMK SLP040 T02590183 52005 IEM_DS3505
ZBYN,1995-07-30 04:00,ZBYN 300400Z AUTO 24006KT 6SM 26/18 A2977 RMK T02600180 IEM_DS3505
ZBYN,1995-07-30 05:00,ZBYN 300500Z AUTO 27006KT 6SM 28/18 A2977 RMK T02800180 IEM_DS3505
ZBYN,1995-07-30 06:00,ZBYN 300600Z AUTO 14004KT 6SM 30/20 A2974 RMK SLP025 T02960204 57010 IEM_DS3505
ZBYN,1995-07-30 07:00,ZBYN 300700Z AUTO 17008KT 6SM 32/18 A2974 RMK T03200180 IEM_DS3505
ZBYN,1995-07-30 08:00,ZBYN 300800Z AUTO 17008KT 7SM 31/20 A2974 RMK T03100200 IEM_DS3505
ZBYN,1995-07-30 09:00,ZBYN 300900Z AUTO 16008KT 11SM 31/20 A2971 RMK SLP017 T03070204 57007 IEM_DS3505
ZBYN,1995-07-30 10:00,ZBYN 301000Z AUTO 18004KT 6SM 31/20 A2971 RMK T03100200 IEM_DS3505
ZBYN,1995-07-30 11:00,ZBYN 301100Z AUTO 21004KT 6SM 30/19 A2971 RMK T03000190 IEM_DS3505
ZBYN,1995-07-30 12:00,ZBYN 301200Z AUTO 18004KT 11SM 27/21 A2974 RMK SLP029 T02670213 52005 IEM_DS3505
ZBYN,1995-07-30 13:00,ZBYN 301300Z AUTO 16004KT 6SM 25/20 A2977 RMK T02500200 IEM_DS3505
ZBYN,1995-07-30 14:00,ZBYN 301400Z AUTO 09006KT 6SM 23/20 A2980 RMK T02300200 IEM_DS3505
ZBYN,1995-07-30 15:00,ZBYN 301500Z AUTO 00000KT 9SM 23/21 A2980 RMK SLP048 T02260208 52017 IEM_DS3505
ZBYN,1995-07-30 16:00,ZBYN 301600Z AUTO 09004KT 6SM 23/19 A2980 RMK T02300190 IEM_DS3505
ZBYN,1995-07-30 17:00,ZBYN 301700Z AUTO 00000KT 6SM 22/19 A2980 RMK T02200190 IEM_DS3505
ZBYN,1995-07-30 18:00,ZBYN 301800Z AUTO 00000KT 6SM 22/21 A2980 RMK SLP041 T02170207 57002 IEM_DS3505
ZBYN,1995-07-30 19:00,ZBYN 301900Z AUTO 00000KT 6SM 23/19 A2977 RMK T02300190 IEM_DS3505
ZBYN,1995-07-30 20:00,ZBYN 302000Z AUTO 00000KT 6SM 23/19 A2977 RMK T02300190 IEM_DS3505
ZBYN,1995-07-30 21:00,ZBYN 302100Z AUTO 32004KT 6SM 22/19 A2977 RMK SLP043 T02230191 52004 IEM_DS3505
ZBYN,1995-07-30 22:00,ZBYN 302200Z AUTO 00000KT 4SM 22/20 A2983 RMK T02200200 IEM_DS3505
ZBYN,1995-07-30 23:00,ZBYN 302300Z AUTO 00000KT 4SM 22/20 A2983 RMK T02200200 IEM_DS3505
ZBYN,1995-07-31 00:00,ZBYN 310000Z AUTO 29002KT 6SM 24/21 A2983 RMK SLP059 T02390211 52011 IEM_DS3505
ZBYN,1995-07-31 01:00,ZBYN 310100Z AUTO 27004KT 6SM 25/20 A2983 RMK T02500200 IEM_DS3505
ZBYN,1995-07-31 02:00,ZBYN 310200Z AUTO 00000KT 6SM 29/20 A2983 RMK T02900200 IEM_DS3505
ZBYN,1995-07-31 03:00,ZBYN 310300Z AUTO 11006KT 6SM 30/20 A2983 RMK SLP054 T02990201 57002 IEM_DS3505
ZBYN,1995-07-31 04:00,ZBYN 310400Z AUTO 16006KT 6SM 31/17 A2983 RMK T03100170 IEM_DS3505
ZBYN,1995-07-31 05:00,ZBYN 310500Z AUTO 18004KT 6SM 33/17 A2980 RMK T03300170 IEM_DS3505
ZBYN,1995-07-31 06:00,ZBYN 310600Z AUTO 07004KT 12SM 32/19 A2977 RMK SLP040 T03200188 57011 IEM_DS3505
ZBYN,1995-07-31 07:00,ZBYN 310700Z AUTO 17002KT 6SM 34/18 A2977 RMK T03400180 IEM_DS3505
ZBYN,1995-07-31 08:00,ZBYN 310800Z AUTO 12004KT 6SM 35/19 A2974 RMK T03500190 IEM_DS3505
ZBYN,1995-07-31 09:00,ZBYN 310900Z AUTO 18004KT 12SM 32/20 A2974 RMK SLP022 T03250198 57015 IEM_DS3505
ZBYN,1995-07-31 10:00,ZBYN 311000Z AUTO 16004KT 6SM 33/19 A2974 RMK T03300190 IEM_DS3505
ZBYN,1995-07-31 11:00,ZBYN 311100Z AUTO 09008KT 7SM 29/20 A2974 RMK T02900200 IEM_DS3505
ZBYN,1995-07-31 12:00,ZBYN 311200Z AUTO 09006KT 12SM 28/22 A2977 RMK SLP033 T02810221 52006 IEM_DS3505
ZBYN,1995-07-31 13:00,ZBYN 311300Z AUTO 06008KT 7SM 27/20 A2980 RMK T02700200 IEM_DS3505
ZBYN,1995-07-31 14:00,ZBYN 311400Z AUTO 08008KT 7SM 27/20 A2980 RMK T02700200 IEM_DS3505
ZBYN,1995-07-31 15:00,ZBYN 311500Z AUTO 22004KT 6SM 26/21 A2983 RMK SLP048 T02590214 52019 IEM_DS3505
ZBYN,1995-07-31 16:00,ZBYN 311600Z AUTO 33006KT 7SM 23/21 A2983 RMK T02300210 IEM_DS3505
ZBYN,1995-07-31 17:00,ZBYN 311700Z AUTO 32006KT 7SM 23/20 A2983 RMK T02300200 IEM_DS3505
ZBYN,1995-07-31 18:00,ZBYN 311800Z AUTO 32004KT 6SM 22/21 A2983 RMK 60008 SLP050 T02230214 54000 IEM_DS3505
ZBYN,1995-07-31 20:00,ZBYN 312000Z AUTO 35004KT 7SM 21/20 A2980 RMK T02100200 IEM_DS3505
ZBYN,1995-07-31 21:00,ZBYN 312100Z AUTO 32006KT 6SM 22/20 A2980 RMK SLP044 T02210202 57005 IEM_DS3505
ZBYN,1995-07-31 22:00,ZBYN 312200Z AUTO 30004KT 7SM 21/20 A2980 RMK T02100200 IEM_DS3505
ZBYN,1995-07-31 23:00,ZBYN 312300Z AUTO 00000KT 7SM 23/21 A2980 RMK T02300210 IEM_DS3505
ZBYN,1995-08-01 00:00,ZBYN 010000Z AUTO 27002KT 6SM 23/20 A2983 RMK 60001 70008 SLP054 T02290205 52004 IEM_DS3505
ZBYN,1995-08-01 01:00,ZBYN 010100Z AUTO 31006KT 5SM 24/21 A2983 RMK T02400210 IEM_DS3505
ZBYN,1995-08-01 02:00,ZBYN 010200Z AUTO 34004KT 5SM 25/21 A2983 RMK T02500210 IEM_DS3505
ZBYN,1995-08-01 03:00,ZBYN 010300Z AUTO 34010KT 6SM 24/19 A2983 RMK SLP059 T02350193 52003 IEM_DS3505
ZBYN,1995-08-01 04:00,ZBYN 010400Z AUTO 32012KT 6SM 26/21 A2980 RMK T02600210 IEM_DS3505
ZBYN,1995-08-01 05:00,ZBYN 010500Z AUTO 30012KT 6SM 24/20 A2980 RMK T02400200 IEM_DS3505
ZBYN,1995-08-01 06:00,ZBYN 010600Z AUTO 32010KT 6SM 23/20 A2979 RMK SLP054 T02310195 57010 IEM_DS3505
ZBYN,1995-08-01 07:00,ZBYN 010700Z AUTO 34008KT 6SM 26/20 A2977 RMK T02600200 IEM_DS3505
ZBYN,1995-08-01 08:00,ZBYN 010800Z AUTO 32012KT 7SM 23/19 A2977 RMK T02300190 IEM_DS3505
ZBYN,1995-08-01 09:00,ZBYN 010900Z AUTO 34006KT 6SM 21/20 A2977 RMK SLP050 T02090198 57007 IEM_DS3505
ZBYN,1995-08-01 10:00,ZBYN 011000Z AUTO 36010KT 7SM 22/20 A2977 RMK T02200200 IEM_DS3505
ZBYN,1995-08-01 11:00,ZBYN 011100Z AUTO 32008KT 7SM 22/19 A2977 RMK T02200190 IEM_DS3505
ZBYN,1995-08-01 12:00,ZBYN 011200Z AUTO 36006KT 6SM 22/19 A2977 RMK 60008 SLP053 T02150189 52004 IEM_DS3505
ZBYN,1995-08-01 13:00,ZBYN 011300Z AUTO 33008KT 7SM 21/19 A2980 RMK T02100190 IEM_DS3505
ZBYN,1995-08-01 14:00,ZBYN 011400Z AUTO 35004KT 7SM 21/19 A2980 RMK T02100190 IEM_DS3505
ZBYN,1995-08-01 15:00,ZBYN 011500Z AUTO 34006KT 6SM 21/19 A2980 RMK SLP060 T02090191 52007 IEM_DS3505
ZBYN,1995-08-01 16:00,ZBYN 011600Z AUTO 00000KT 7SM 21/19 A2980 RMK T02100190 IEM_DS3505
ZBYN,1995-08-01 17:00,ZBYN 011700Z AUTO 32004KT 7SM 21/19 A2977 RMK T02100190 IEM_DS3505
ZBYN,1995-08-01 18:00,ZBYN 011800Z AUTO 32004KT 6SM 20/20 A2977 RMK 60004 SLP047 T02050196 57013 IEM_DS3505
ZBYN,1995-08-01 20:00,ZBYN 012000Z AUTO 34004KT 7SM 21/20 A2974 RMK T02100200 IEM_DS3505
ZBYN,1995-08-01 21:00,ZBYN 012100Z AUTO 00000KT 4SM 20/20 A2974 RMK 70012 SLP042 T02050199 57008 IEM_DS3505
ZBYN,1995-08-01 22:00,ZBYN 012200Z AUTO 00000KT 3SM 21/20 A2974 RMK T02100200 IEM_DS3505
ZBYN,1995-08-01 23:00,ZBYN 012300Z AUTO 33004KT 2SM 21/20 A2974 RMK T02100200 IEM_DS3505
ZBYN,1995-08-02 00:00,ZBYN 020000Z AUTO 00000KT 4SM 22/20 A2974 RMK 70012 SLP041 T02170205 52002 IEM_DS3505
ZBYN,1995-08-02 01:00,ZBYN 020100Z AUTO 19004KT 1 1/4SM 22/21 A2977 RMK T02200210 IEM_DS3505
ZBYN,1995-08-02 02:00,ZBYN 020200Z AUTO 00000KT 2SM 22/21 A2977 RMK T02200210 IEM_DS3505
ZBYN,1995-08-02 03:00,ZBYN 020300Z AUTO 11002KT 4SM 24/21 A2974 RMK SLP039 T02360213 54000 IEM_DS3505
ZBYN,1995-08-02 04:00,ZBYN 020400Z AUTO 26006KT 1 1/2SM 26/21 A2974 RMK T02600210 IEM_DS3505
ZBYN,1995-08-02 05:00,ZBYN 020500Z AUTO 30010KT 5SM 26/20 A2971 RMK T02600200 IEM_DS3505
ZBYN,1995-08-02 06:00,ZBYN 020600Z AUTO 34004KT 5SM 24/21 A2972 RMK 60008 SLP029 T02430206 57009 IEM_DS3505
ZBYN,1995-08-02 07:00,ZBYN 020700Z AUTO 27004KT 7SM 25/20 A2971 RMK T02500200 IEM_DS3505
ZBYN,1995-08-02 08:00,ZBYN 020800Z AUTO 28004KT 7SM 26/20 A2968 RMK T02600200 IEM_DS3505
ZBYN,1995-08-02 09:00,ZBYN 020900Z AUTO 00000KT 6SM 26/21 A2968 RMK SLP017 T02600212 57009 IEM_DS3505
ZBYN,1995-08-02 10:00,ZBYN 021000Z AUTO 21006KT 6SM 26/21 A2968 RMK T02600210 IEM_DS3505
ZBYN,1995-08-02 11:00,ZBYN 021100Z AUTO 20004KT 3SM 25/21 A2968 RMK T02500210 IEM_DS3505
ZBYN,1995-08-02 12:00,ZBYN 021200Z AUTO 00000KT 6SM 24/22 A2971 RMK SLP019 T02380219 52001 IEM_DS3505
ZBYN,1995-08-02 13:00,ZBYN 021300Z AUTO 00000KT 2 1/2SM 24/21 A2974 RMK T02400210 IEM_DS3505
ZBYN,1995-08-02 14:00,ZBYN 021400Z AUTO 00000KT 2SM 23/22 A2974 RMK T02300220 IEM_DS3505
ZBYN,1995-08-02 15:00,ZBYN 021500Z AUTO 32006KT 5SM 23/20 A2974 RMK SLP033 T02280204 52014 IEM_DS3505
ZBYN,1995-08-02 16:00,ZBYN 021600Z AUTO 00000KT 2 1/2SM 23/20 A2974 RMK T02300200 IEM_DS3505
ZBYN,1995-08-02 17:00,ZBYN 021700Z AUTO 31006KT 2 1/2SM 23/20 A2974 RMK T02300200 IEM_DS3505
ZBYN,1995-08-02 18:00,ZBYN 021800Z AUTO 36002KT 5SM 22/21 A2974 RMK SLP031 T02210206 57002 IEM_DS3505
ZBYN,1995-08-02 19:00,ZBYN 021900Z AUTO 32004KT 2 1/2SM 22/20 A2974 RMK T02200200 IEM_DS3505
ZBYN,1995-08-02 20:00,ZBYN 022000Z AUTO 00000KT 2 1/2SM 22/19 A2971 RMK T02200190 IEM_DS3505
ZBYN,1995-08-02 21:00,ZBYN 022100Z AUTO 34002KT 5SM 21/20 A2974 RMK 70008 SLP031 T02090200 52001 IEM_DS3505
ZBYN,1995-08-02 22:00,ZBYN 022200Z AUTO 28004KT 2 1/2SM 21/20 A2974 RMK T02100200 IEM_DS3505
ZBYN,1995-08-02 23:00,ZBYN 022300Z AUTO 34004KT 2 1/2SM 21/19 A2977 RMK T02100190 IEM_DS3505
ZBYN,1995-08-03 00:00,ZBYN 030000Z AUTO 32002KT 5SM 22/20 A2977 RMK 70008 SLP044 T02180203 52010 IEM_DS3505
ZBYN,1995-08-03 01:00,ZBYN 030100Z AUTO 32004KT 4SM 23/19 A2977 RMK T02300190 IEM_DS3505
ZBYN,1995-08-03 02:00,ZBYN 030200Z AUTO 31004KT 5SM 24/20 A2977 RMK T02400200 IEM_DS3505
ZBYN,1995-08-03 03:00,ZBYN 030300Z AUTO 36006KT 6SM 25/20 A2980 RMK SLP047 T02470198 52005 IEM_DS3505
ZBYN,1995-08-03 04:00,ZBYN 030400Z AUTO 03006KT 6SM 27/21 A2977 RMK T02700210 IEM_DS3505
ZBYN,1995-08-03 05:00,ZBYN 030500Z AUTO 24004KT 7SM 29/21 A2977 RMK T02900210 IEM_DS3505
ZBYN,1995-08-03 06:00,ZBYN 030600Z AUTO 27006KT 9SM 30/20 A2974 RMK SLP032 T02950203 57008 IEM_DS3505
ZBYN,1995-08-03 07:00,ZBYN 030700Z AUTO 00000KT 7SM 30/20 A2974 RMK T03000200 IEM_DS3505
ZBYN,1995-08-03 08:00,ZBYN 030800Z AUTO 02004KT 7SM 30/20 A2974 RMK T03000200 IEM_DS3505
ZBYN,1995-08-03 09:00,ZBYN 030900Z AUTO 35006KT 9SM 29/21 A2971 RMK SLP027 T02890211 57007 IEM_DS3505
ZBYN,1995-08-03 10:00,ZBYN 031000Z AUTO 05004KT 7SM 27/21 A2971 RMK T02700210 IEM_DS3505
ZBYN,1995-08-03 11:00,ZBYN 031100Z AUTO 07006KT 6SM 26/21 A2974 RMK T02600210 IEM_DS3505
ZBYN,1995-08-03 12:00,ZBYN 031200Z AUTO 09010KT 9SM 25/20 A2977 RMK SLP048 T02480196 52015 IEM_DS3505
ZBYN,1995-08-03 13:00,ZBYN 031300Z AUTO 05012KT 6SM 22/19 A2980 RMK T02200190 IEM_DS3505
ZBYN,1995-08-03 14:00,ZBYN 031400Z AUTO 07012KT 6SM 22/19 A2983 RMK T02200190 IEM_DS3505
ZBYN,1995-08-03 15:00,ZBYN 031500Z AUTO 09004KT 6SM 22/19 A2985 RMK SLP077 T02160189 52026 IEM_DS3505
ZBYN,1995-08-03 16:00,ZBYN 031600Z AUTO 07006KT 7SM 21/18 A2985 RMK T02100180 IEM_DS3505
ZBYN,1995-08-03 17:00,ZBYN 031700Z AUTO 02006KT 7SM 20/18 A2985 RMK T02000180 IEM_DS3505
ZBYN,1995-08-03 18:00,ZBYN 031800Z AUTO 36004KT 6SM 20/19 A2985 RMK SLP071 T02030188 57001 IEM_DS3505
ZBYN,1995-08-03 19:00,ZBYN 031900Z AUTO 04006KT 7SM 20/17 A2985 RMK T02000170 IEM_DS3505
ZBYN,1995-08-03 20:00,ZBYN 032000Z AUTO 35004KT 6SM 20/17 A2985 RMK T02000170 IEM_DS3505
ZBYN,1995-08-03 21:00,ZBYN 032100Z AUTO 34004KT 6SM 20/18 A2985 RMK SLP073 T01990182 52001 IEM_DS3505
ZBYN,1995-08-03 22:00,ZBYN 032200Z AUTO 00000KT 4SM 19/18 A2988 RMK T01900180 IEM_DS3505
ZBYN,1995-08-03 23:00,ZBYN 032300Z AUTO 00000KT 2 1/2SM 20/19 A2988 RMK T02000190 IEM_DS3505
ZBYN,1995-08-04 00:00,ZBYN 040000Z AUTO 29004KT 6SM 22/19 A2988 RMK SLP087 T02220190 52010 IEM_DS3505
ZBYN,1995-08-04 01:00,ZBYN 040100Z AUTO 00000KT 7SM 24/19 A2988 RMK T02400190 IEM_DS3505
ZBYN,1995-08-04 02:00,ZBYN 040200Z AUTO 11004KT 7SM 26/19 A2988 RMK T02600190 IEM_DS3505
ZBYN,1995-08-04 03:00,ZBYN 040300Z AUTO 00000KT 6SM 26/20 A2991 RMK SLP090 T02590195 52003 IEM_DS3505
ZBYN,1995-08-04 04:00,ZBYN 040400Z AUTO 00000KT 7SM 27/19 A2988 RMK T02700190 IEM_DS3505
ZBYN,1995-08-04 05:00,ZBYN 040500Z AUTO 03002KT 6SM 28/20 A2985 RMK T02800200 IEM_DS3505
ZBYN,1995-08-04 06:00,ZBYN 040600Z AUTO 11004KT 6SM 29/21 A2983 RMK SLP064 T02940207 57020 IEM_DS3505
ZBYN,1995-08-04 07:00,ZBYN 040700Z AUTO 05006KT 7SM 31/18 A2983 RMK T03100180 IEM_DS3505
ZBYN,1995-08-04 08:00,ZBYN 040800Z AUTO 09010KT 6SM 32/18 A2980 RMK T03200180 IEM_DS3505
ZBYN,1995-08-04 09:00,ZBYN 040900Z AUTO 11006KT 6SM 30/19 A2980 RMK SLP051 T03020194 57012 IEM_DS3505
ZBYN,1995-08-04 10:00,ZBYN 041000Z AUTO 06006KT 7SM 29/20 A2980 RMK T02900200 IEM_DS3505
ZBYN,1995-08-04 11:00,ZBYN 041100Z AUTO 09010KT 6SM 27/19 A2980 RMK T02700190 IEM_DS3505
ZBYN,1995-08-04 12:00,ZBYN 041200Z AUTO 09006KT 6SM 26/19 A2980 RMK SLP055 T02570188 52001 IEM_DS3505
ZBYN,1995-08-04 13:00,ZBYN 041300Z AUTO 08014KT 7SM 24/19 A2985 RMK T02400190 IEM_DS3505
ZBYN,1995-08-04 14:00,ZBYN 041400Z AUTO 07014KT 7SM 23/19 A2988 RMK T02300190 IEM_DS3505
ZBYN,1995-08-04 15:00,ZBYN 041500Z AUTO 09006KT 6SM 24/19 A2988 RMK SLP077 T02390189 52023 IEM_DS3505
ZBYN,1995-08-04 16:00,ZBYN 041600Z AUTO 06010KT 7SM 23/19 A2988 RMK T02300190 IEM_DS3505
ZBYN,1995-08-04 17:00,ZBYN 041700Z AUTO 06006KT 7SM 22/19 A2988 RMK T02200190 IEM_DS3505
ZBYN,1995-08-04 18:00,ZBYN 041800Z AUTO 36002KT 6SM 23/19 A2988 RMK SLP070 T02290194 57003 IEM_DS3505
ZBYN,1995-08-04 19:00,ZBYN 041900Z AUTO 06004KT 7SM 21/18 A2985 RMK T02100180 IEM_DS3505
ZBYN,1995-08-04 20:00,ZBYN 042000Z AUTO 00000KT 7SM 21/18 A2985 RMK T02100180 IEM_DS3505
ZBYN,1995-08-04 21:00,ZBYN 042100Z AUTO 00000KT 6SM 21/20 A2985 RMK SLP065 T02120197 57006 IEM_DS3505
ZBYN,1995-08-04 22:00,ZBYN 042200Z AUTO 09006KT 7SM 21/19 A2985 RMK T02100190 IEM_DS3505
ZBYN,1995-08-04 23:00,ZBYN 042300Z AUTO 00000KT 7SM 22/19 A2985 RMK T02200190 IEM_DS3505
ZBYN,1995-08-05 00:00,ZBYN 050000Z AUTO 29002KT 5SM 22/20 A2985 RMK SLP071 T02250196 52001 IEM_DS3505
ZBYN,1995-08-05 01:00,ZBYN 050100Z AUTO 06004KT 4SM 23/20 A2985 RMK T02300200 IEM_DS3505
ZBYN,1995-08-05 02:00,ZBYN 050200Z AUTO 06004KT 4SM 23/20 A2985 RMK T02300200 IEM_DS3505
ZBYN,1995-08-05 03:00,ZBYN 050300Z AUTO 29004KT 5SM 21/20 A2985 RMK SLP078 T02060197 52001 IEM_DS3505
ZBYN,1995-08-05 04:00,ZBYN 050400Z AUTO 32006KT 2SM 22/20 A2983 RMK T02200200 IEM_DS3505
ZBYN,1995-08-05 05:00,ZBYN 050500Z AUTO 32008KT 1 1/4SM 22/21 A2983 RMK T02200210 IEM_DS3505
ZBYN,1995-08-05 06:00,ZBYN 050600Z AUTO 07004KT 3SM 20/20 A2983 RMK 60043 SLP064 T02050204 57014 IEM_DS3505
ZBYN,1995-08-05 07:00,ZBYN 050700Z AUTO 07010KT 4SM 20/20 A2980 RMK T02000200 IEM_DS3505
ZBYN,1995-08-05 08:00,ZBYN 050800Z AUTO 00000KT 1 1/2SM 21/20 A2980 RMK T02100200 IEM_DS3505
ZBYN,1995-08-05 09:00,ZBYN 050900Z AUTO 36002KT 3SM 21/20 A2980 RMK SLP062 T02080204 57004 IEM_DS3505
ZBYN,1995-08-05 10:00,ZBYN 051000Z AUTO 35004KT 1 1/4SM 21/20 A2977 RMK T02100200 IEM_DS3505
ZBYN,1995-08-05 11:00,ZBYN 051100Z AUTO 31002KT 1 1/2SM 21/20 A2977 RMK T02100200 IEM_DS3505
ZBYN,1995-08-05 12:00,ZBYN 051200Z AUTO 34004KT 3SM 20/20 A2977 RMK 60055 SLP052 T02050202 57008 IEM_DS3505
ZBYN,1995-08-05 13:00,ZBYN 051300Z AUTO 30006KT 2SM 21/20 A2980 RMK T02100200 IEM_DS3505
ZBYN,1995-08-05 14:00,ZBYN 051400Z AUTO 34006KT 2SM 20/20 A2980 RMK T02000200 IEM_DS3505
ZBYN,1995-08-05 15:00,ZBYN 051500Z AUTO 34004KT 3SM 20/20 A2977 RMK SLP056 T01990197 52001 IEM_DS3505
ZBYN,1995-08-05 16:00,ZBYN 051600Z AUTO 34006KT 1 1/2SM 20/20 A2977 RMK T02000200 IEM_DS3505
ZBYN,1995-08-05 17:00,ZBYN 051700Z AUTO 31006KT 2SM 20/19 A2977 RMK T02000190 IEM_DS3505
ZBYN,1995-08-05 18:00,ZBYN 051800Z AUTO 34004KT 3SM 19/19 A2974 RMK 60083 SLP046 T01890186 57011 IEM_DS3505
ZBYN,1995-08-05 19:00,ZBYN 051900Z AUTO 36010KT 7SM 19/19 A2974 RMK T01900190 IEM_DS3505
ZBYN,1995-08-05 20:00,ZBYN 052000Z AUTO 33012KT 7SM 19/17 A2971 RMK T01900170 IEM_DS3505
ZBYN,1995-08-05 21:00,ZBYN 052100Z AUTO 36008KT 7SM 18/17 A2974 RMK T01800170 IEM_DS3505
ZBYN,1995-08-05 22:00,ZBYN 052200Z AUTO 31006KT 7SM 18/17 A2974 RMK T01800170 IEM_DS3505
ZBYN,1995-08-05 23:00,ZBYN 052300Z AUTO 31008KT 7SM 18/17 A2974 RMK T01800170 IEM_DS3505
ZBYN,1995-08-06 00:00,ZBYN 060000Z AUTO 34004KT 4SM 18/18 A2977 RMK 60047 70228 SLP063 T01780176 52016 IEM_DS3505
ZBYN,1995-08-06 01:00,ZBYN 060100Z AUTO 01006KT 7SM 18/17 A2977 RMK T01800170 IEM_DS3505
ZBYN,1995-08-06 02:00,ZBYN 060200Z AUTO 36006KT 7SM 19/18 A2980 RMK T01900180 IEM_DS3505
ZBYN,1995-08-06 03:00,ZBYN 060300Z AUTO 36006KT 5SM 20/18 A2977 RMK SLP059 T02000177 57002 IEM_DS3505
ZBYN,1995-08-06 04:00,ZBYN 060400Z AUTO 33006KT 7SM 21/18 A2977 RMK T02100180 IEM_DS3505
ZBYN,1995-08-06 05:00,ZBYN 060500Z AUTO 35006KT 7SM 21/18 A2977 RMK T02100180 IEM_DS3505
ZBYN,1995-08-06 06:00,ZBYN 060600Z AUTO 34006KT 6SM 23/19 A2977 RMK 60004 SLP056 T02280192 54000 IEM_DS3505
ZBYN,1995-08-06 07:00,ZBYN 060700Z AUTO 00000KT 7SM 22/19 A2977 RMK T02200190 IEM_DS3505
ZBYN,1995-08-06 08:00,ZBYN 060800Z AUTO 00000KT 7SM 25/20 A2974 RMK T02500200 IEM_DS3505
ZBYN,1995-08-06 09:00,ZBYN 060900Z AUTO 14006KT 7SM 24/20 A2974 RMK SLP037 T02430203 57016 IEM_DS3505
ZBYN,1995-08-06 10:00,ZBYN 061000Z AUTO 00000KT 7SM 25/19 A2974 RMK T02500190 IEM_DS3505
ZBYN,1995-08-06 11:00,ZBYN 061100Z AUTO 19004KT 7SM 24/19 A2974 RMK T02400190 IEM_DS3505
ZBYN,1995-08-06 12:00,ZBYN 061200Z AUTO 14004KT 7SM 21/20 A2977 RMK SLP049 T02130201 52006 IEM_DS3505
ZBYN,1995-08-06 13:00,ZBYN 061300Z AUTO 00000KT 7SM 20/19 A2977 RMK T02000190 IEM_DS3505
ZBYN,1995-08-06 14:00,ZBYN 061400Z AUTO 10004KT 7SM 20/19 A2980 RMK T02000190 IEM_DS3505
ZBYN,1995-08-06 15:00,ZBYN 061500Z AUTO 00000KT 7SM 19/18 A2980 RMK SLP061 T01890184 52011 IEM_DS3505
ZBYN,1995-08-06 16:00,ZBYN 061600Z AUTO 12006KT 7SM 18/18 A2980 RMK T01800180 IEM_DS3505
ZBYN,1995-08-06 18:00,ZBYN 061800Z AUTO 16004KT 6SM 18/17 A2977 RMK SLP053 T01760174 57005 IEM_DS3505
ZBYN,1995-08-06 20:00,ZBYN 062000Z AUTO 00000KT 7SM 17/17 A2977 RMK T01700170 IEM_DS3505
ZBYN,1995-08-06 21:00,ZBYN 062100Z AUTO 00000KT 2 1/2SM 16/16 A2977 RMK 70043 SLP054 T01630161 52001 IEM_DS3505
ZBYN,1995-08-06 22:00,ZBYN 062200Z AUTO 00000KT 4SM 17/16 A2980 RMK T01700160 IEM_DS3505
ZBYN,1995-08-06 23:00,ZBYN 062300Z AUTO 00000KT 4SM 18/17 A2980 RMK T01800170 IEM_DS3505
ZBYN,1995-08-07 00:00,ZBYN 070000Z AUTO 18002KT 1 1/4SM 19/19 A2980 RMK 70004 SLP068 T01910186 52012 IEM_DS3505
ZBYN,1995-08-07 01:00,ZBYN 070100Z AUTO 00000KT 5SM 22/19 A2983 RMK T02200190 IEM_DS3505
ZBYN,1995-08-07 02:00,ZBYN 070200Z AUTO 00000KT 5SM 24/20 A2980 RMK T02400200 IEM_DS3505
ZBYN,1995-08-07 03:00,ZBYN 070300Z AUTO 14002KT 3SM 25/21 A2980 RMK SLP058 T02470210 57004 IEM_DS3505
ZBYN,1995-08-07 04:00,ZBYN 070400Z AUTO 18004KT 5SM 27/21 A2980 RMK T02700210 IEM_DS3505
ZBYN,1995-08-07 06:00,ZBYN 070600Z AUTO 20004KT 6SM 28/21 A2974 RMK SLP036 T02790206 57018 IEM_DS3505
ZBYN,1995-08-07 07:00,ZBYN 070700Z AUTO 00000KT 7SM 30/19 A2971 RMK T03000190 IEM_DS3505
ZBYN,1995-08-07 08:00,ZBYN 070800Z AUTO 17004KT 7SM 30/20 A2971 RMK T03000200 IEM_DS3505
ZBYN,1995-08-07 09:00,ZBYN 070900Z AUTO 09004KT 6SM 29/19 A2968 RMK SLP022 T02920193 57013 IEM_DS3505
ZBYN,1995-08-07 10:00,ZBYN 071000Z AUTO 27004KT 6SM 30/19 A2968 RMK T03000190 IEM_DS3505
ZBYN,1995-08-07 11:00,ZBYN 071100Z AUTO 30002KT 7SM 27/21 A2968 RMK T02700210 IEM_DS3505
ZBYN,1995-08-07 12:00,ZBYN 071200Z AUTO 14002KT 6SM 24/22 A2971 RMK SLP028 T02380219 52002 IEM_DS3505
ZBYN,1995-08-07 13:00,ZBYN 071300Z AUTO 09004KT 7SM 23/21 A2974 RMK T02300210 IEM_DS3505
ZBYN,1995-08-07 14:00,ZBYN 071400Z AUTO 07004KT 7SM 22/21 A2974 RMK T02200210 IEM_DS3505
ZBYN,1995-08-07 15:00,ZBYN 071500Z AUTO 34004KT 6SM 22/20 A2977 RMK SLP036 T02250200 52014 IEM_DS3505
ZBYN,1995-08-07 16:00,ZBYN 071600Z AUTO 11002KT 7SM 22/19 A2977 RMK T02200190 IEM_DS3505
ZBYN,1995-08-07 18:00,ZBYN 071800Z AUTO 00000KT 6SM 20/19 A2975 RMK SLP036 T02040189 52001 IEM_DS3505
ZBYN,1995-08-07 21:00,ZBYN 072100Z AUTO 34004KT 6SM 20/18 RMK SLP040 T01950176 52004 IEM_DS3505
ZBYN,1995-08-07 22:00,ZBYN 072200Z AUTO 00000KT 1SM 19/19 A2977 RMK T01900190 IEM_DS3505
ZBYN,1995-08-07 23:00,ZBYN 072300Z AUTO 00000KT 1 1/4SM 19/19 A2980 RMK T01900190 IEM_DS3505
ZBYN,1995-08-08 00:00,ZBYN 080000Z AUTO 32004KT 5SM 21/18 A2980 RMK SLP058 T02130184 52012 IEM_DS3505
ZBYN,1995-08-08 01:00,ZBYN 080100Z AUTO 00000KT 3SM 23/19 A2980 RMK T02300190 IEM_DS3505
ZBYN,1995-08-08 02:00,ZBYN 080200Z AUTO 00000KT 5SM 25/20 A2980 RMK T02500200 IEM_DS3505
ZBYN,1995-08-08 03:00,ZBYN 080300Z AUTO 18004KT 6SM 27/21 A2980 RMK SLP051 T02690212 57001 IEM_DS3505
ZBYN,1995-08-08 04:00,ZBYN 080400Z AUTO 15004KT 7SM 28/21 A2980 RMK T02800210 IEM_DS3505
ZBYN,1995-08-08 05:00,ZBYN 080500Z AUTO 21004KT 7SM 29/22 A2977 RMK T02900220 IEM_DS3505
ZBYN,1995-08-08 06:00,ZBYN 080600Z AUTO 02002KT 6SM 30/23 A2974 RMK SLP032 T02950233 57016 IEM_DS3505
ZBYN,1995-08-08 07:00,ZBYN 080700Z AUTO 22006KT 7SM 32/19 A2974 RMK T03200190 IEM_DS3505
ZBYN,1995-08-08 08:00,ZBYN 080800Z AUTO 26006KT 7SM 32/19 A2974 RMK T03200190 IEM_DS3505
ZBYN,1995-08-08 09:00,ZBYN 080900Z AUTO 14004KT 6SM 29/24 RMK SLP031 T02860243 57004 IEM_DS3505
ZBYN,1995-08-08 10:00,ZBYN 081000Z AUTO 10008KT 6SM 28/22 A2974 RMK T02800220 IEM_DS3505
ZBYN,1995-08-08 11:00,ZBYN 081100Z AUTO 07008KT 6SM 25/21 A2974 RMK T02500210 IEM_DS3505
ZBYN,1995-08-08 12:00,ZBYN 081200Z AUTO 09004KT 7SM 25/21 A2977 RMK SLP043 T02520208 52009 IEM_DS3505
ZBYN,1995-08-08 13:00,ZBYN 081300Z AUTO 07008KT 7SM 23/21 A2980 RMK T02300210 IEM_DS3505
ZBYN,1995-08-08 14:00,ZBYN 081400Z AUTO 10006KT 7SM 23/21 A2980 RMK T02300210 IEM_DS3505
ZBYN,1995-08-08 15:00,ZBYN 081500Z AUTO 00000KT 7SM 22/20 A2983 RMK SLP060 T02150205 52018 IEM_DS3505
ZBYN,1995-08-08 16:00,ZBYN 081600Z AUTO 09004KT 7SM 22/20 A2983 RMK T02200200 IEM_DS3505
ZBYN,1995-08-08 17:00,ZBYN 081700Z AUTO 08002KT 7SM 21/20 A2983 RMK T02100200 IEM_DS3505
ZBYN,1995-08-08 18:00,ZBYN 081800Z AUTO 00000KT 6SM 20/20 A2984 RMK SLP064 T02000195 52005 IEM_DS3505
ZBYN,1995-08-08 19:00,ZBYN 081900Z AUTO 00000KT 7SM 20/19 A2985 RMK T02000190 IEM_DS3505
ZBYN,1995-08-08 20:00,ZBYN 082000Z AUTO 00000KT 4SM 20/19 A2985 RMK T02000190 IEM_DS3505
ZBYN,1995-08-08 21:00,ZBYN 082100Z AUTO 36002KT 6SM 20/19 A2985 RMK SLP071 T02010192 52006 IEM_DS3505
ZBYN,1995-08-08 22:00,ZBYN 082200Z AUTO 00000KT 4SM 19/18 A2988 RMK T01900180 IEM_DS3505
ZBYN,1995-08-08 23:00,ZBYN 082300Z AUTO 00000KT 2SM 20/19 A2988 RMK T02000190 IEM_DS3505
ZBYN,1995-08-09 00:00,ZBYN 090000Z AUTO 29004KT 4SM 22/20 A2988 RMK SLP084 T02180198 52009 IEM_DS3505
ZBYN,1995-08-09 01:00,ZBYN 090100Z AUTO 00000KT 5SM 24/21 A2988 RMK T02400210 IEM_DS3505
ZBYN,1995-08-09 02:00,ZBYN 090200Z AUTO 00000KT 4SM 25/21 A2988 RMK T02500210 IEM_DS3505
ZBYN,1995-08-09 03:00,ZBYN 090300Z AUTO 20002KT 6SM 27/21 A2988 RMK SLP080 T02740208 57001 IEM_DS3505
ZBYN,1995-08-09 04:00,ZBYN 090400Z AUTO 17004KT 7SM 29/22 A2988 RMK T02900220 IEM_DS3505
ZBYN,1995-08-09 05:00,ZBYN 090500Z AUTO 02006KT 7SM 30/22 A2985 RMK T03000220 IEM_DS3505
ZBYN,1995-08-09 06:00,ZBYN 090600Z AUTO 16004KT 6SM 31/19 A2983 RMK SLP061 T03110193 57014 IEM_DS3505
ZBYN,1995-08-09 07:00,ZBYN 090700Z AUTO 15006KT 7SM 33/17 A2983 RMK T03300170 IEM_DS3505
ZBYN,1995-08-09 08:00,ZBYN 090800Z AUTO 10006KT 7SM 32/20 A2980 RMK T03200200 IEM_DS3505
ZBYN,1995-08-09 09:00,ZBYN 090900Z AUTO 16004KT 11SM 31/18 A2980 RMK SLP050 T03130180 57010 IEM_DS3505
ZBYN,1995-08-09 10:00,ZBYN 091000Z AUTO 09006KT 7SM 31/21 A2980 RMK T03100210 IEM_DS3505
ZBYN,1995-08-09 11:00,ZBYN 091100Z AUTO 08006KT 7SM 28/22 A2983 RMK T02800220 IEM_DS3505
ZBYN,1995-08-09 12:00,ZBYN 091200Z AUTO 09008KT 9SM 27/18 A2985 RMK SLP068 T02710178 52013 IEM_DS3505
ZBYN,1995-08-09 13:00,ZBYN 091300Z AUTO 06012KT 7SM 25/21 A2988 RMK T02500210 IEM_DS3505
ZBYN,1995-08-09 14:00,ZBYN 091400Z AUTO 07008KT 7SM 25/21 A2988 RMK T02500210 IEM_DS3505
ZBYN,1995-08-09 15:00,ZBYN 091500Z AUTO 27004KT 9SM 24/20 A2988 RMK SLP079 T02380204 52013 IEM_DS3505
ZBYN,1995-08-09 16:00,ZBYN 091600Z AUTO 10006KT 7SM 23/20 A2991 RMK T02300200 IEM_DS3505
ZBYN,1995-08-09 17:00,ZBYN 091700Z AUTO 00000KT 7SM 23/20 A2991 RMK T02300200 IEM_DS3505
ZBYN,1995-08-09 18:00,ZBYN 091800Z AUTO 32002KT 9SM 22/20 A2991 RMK SLP083 T02250200 52007 IEM_DS3505
ZBYN,1995-08-09 19:00,ZBYN 091900Z AUTO 00000KT 6SM 22/20 A2991 RMK T02200200 IEM_DS3505
ZBYN,1995-08-09 20:00,ZBYN 092000Z AUTO 00000KT 7SM 22/20 A2991 RMK T02200200 IEM_DS3505
ZBYN,1995-08-09 21:00,ZBYN 092100Z AUTO 00000KT 7SM 20/19 A2991 RMK SLP085 T01970186 57001 IEM_DS3505
ZBYN,1995-08-09 22:00,ZBYN 092200Z AUTO 03004KT 2 1/2SM 21/20 A2991 RMK T02100200 IEM_DS3505
ZBYN,1995-08-09 23:00,ZBYN 092300Z AUTO 00000KT 1 1/2SM 21/20 A2991 RMK T02100200 IEM_DS3505
ZBYN,1995-08-10 00:00,ZBYN 100000Z AUTO 32002KT 6SM 23/20 A2994 RMK SLP090 T02280201 52003 IEM_DS3505
ZBYN,1995-08-10 01:00,ZBYN 100100Z AUTO 08004KT 3SM 25/21 A2991 RMK T02500210 IEM_DS3505
ZBYN,1995-08-10 02:00,ZBYN 100200Z AUTO 17004KT 5SM 27/20 A2991 RMK T02700200 IEM_DS3505
ZBYN,1995-08-10 03:00,ZBYN 100300Z AUTO 18006KT 6SM 28/20 A2991 RMK SLP084 T02820196 57003 IEM_DS3505
ZBYN,1995-08-10 04:00,ZBYN 100400Z AUTO 16006KT 7SM 30/21 A2988 RMK T03000210 IEM_DS3505
ZBYN,1995-08-10 05:00,ZBYN 100500Z AUTO 16006KT 7SM 32/20 A2988 RMK T03200200 IEM_DS3505
ZBYN,1995-08-10 06:00,ZBYN 100600Z AUTO 18006KT 7SM 31/20 A2985 RMK SLP071 T03060196 57010 IEM_DS3505
ZBYN,1995-08-10 07:00,ZBYN 100700Z AUTO 16012KT 7SM 33/17 A2985 RMK T03300170 IEM_DS3505
ZBYN,1995-08-10 08:00,ZBYN 100800Z AUTO 16012KT 7SM 33/17 A2985 RMK T03300170 IEM_DS3505
ZBYN,1995-08-10 09:00,ZBYN 100900Z AUTO 14008KT 12SM 30/16 A2985 RMK SLP064 T03020165 57011 IEM_DS3505
ZBYN,1995-08-10 10:00,ZBYN 101000Z AUTO 16004KT 6SM 30/20 A2983 RMK T03000200 IEM_DS3505
ZBYN,1995-08-10 11:00,ZBYN 101100Z AUTO 13006KT 6SM 27/20 A2983 RMK T02700200 IEM_DS3505
ZBYN,1995-08-10 12:00,ZBYN 101200Z AUTO 11006KT 12SM 26/20 A2985 RMK SLP065 T02620195 54000 IEM_DS3505
ZBYN,1995-08-10 13:00,ZBYN 101300Z AUTO 06008KT 4SM 25/21 A2988 RMK T02500210 IEM_DS3505
ZBYN,1995-08-10 14:00,ZBYN 101400Z AUTO 06012KT 2 1/2SM 25/21 A2988 RMK T02500210 IEM_DS3505
ZBYN,1995-08-10 15:00,ZBYN 101500Z AUTO 11010KT 6SM 26/20 A2988 RMK SLP072 T02570201 52013 IEM_DS3505
ZBYN,1995-08-10 16:00,ZBYN 101600Z AUTO 06010KT 2 1/2SM 25/21 A2988 RMK T02500210 IEM_DS3505
ZBYN,1995-08-10 17:00,ZBYN 101700Z AUTO 08008KT 2 1/2SM 24/21 A2988 RMK T02400210 IEM_DS3505
ZBYN,1995-08-10 18:00,ZBYN 101800Z AUTO 16004KT 6SM 23/21 A2988 RMK SLP072 T02330208 54000 IEM_DS3505
ZBYN,1995-08-10 19:00,ZBYN 101900Z AUTO 09006KT 2 1/2SM 23/22 A2988 RMK T02300220 IEM_DS3505
ZBYN,1995-08-10 20:00,ZBYN 102000Z AUTO 09006KT 2 1/2SM 23/22 A2985 RMK T02300220 IEM_DS3505
ZBYN,1995-08-10 21:00,ZBYN 102100Z AUTO 14004KT 6SM 22/22 A2985 RMK 70008 SLP067 T02230216 57007 IEM_DS3505
ZBYN,1995-08-10 22:00,ZBYN 102200Z AUTO 08006KT 1 1/2SM 21/21 A2985 RMK T02100210 IEM_DS3505
ZBYN,1995-08-10 23:00,ZBYN 102300Z AUTO 09006KT 1 1/2SM 22/21 A2985 RMK T02200210 IEM_DS3505
ZBYN,1995-08-11 00:00,ZBYN 110000Z AUTO 16004KT 6SM 24/21 A2986 RMK 60008 70008 SLP071 T02370209 54000 IEM_DS3505
ZBYN,1995-08-11 01:00,ZBYN 110100Z AUTO 19004KT 7SM 25/22 A2985 RMK T02500220 IEM_DS3505
ZBYN,1995-08-11 02:00,ZBYN 110200Z AUTO 19004KT 7SM 26/22 A2985 RMK T02600220 IEM_DS3505
ZBYN,1995-08-11 03:00,ZBYN 110300Z AUTO 32006KT 6SM 26/21 A2985 RMK SLP071 T02610210 52003 IEM_DS3505
ZBYN,1995-08-11 04:00,ZBYN 110400Z AUTO 30010KT 7SM 25/18 A2985 RMK T02500180 IEM_DS3505
ZBYN,1995-08-11 05:00,ZBYN 110500Z AUTO 35014KT 7SM 24/16 A2985 RMK T02400160 IEM_DS3505
ZBYN,1995-08-11 06:00,ZBYN 110600Z AUTO 34010KT 9SM 22/18 A2985 RMK SLP083 T02150179 52001 IEM_DS3505
ZBYN,1995-08-11 07:00,ZBYN 110700Z AUTO 32010KT 7SM 23/16 A2985 RMK T02300160 IEM_DS3505
ZBYN,1995-08-11 08:00,ZBYN 110800Z AUTO 32008KT 7SM 24/17 A2985 RMK T02400170 IEM_DS3505
ZBYN,1995-08-11 09:00,ZBYN 110900Z AUTO 02002KT 9SM 23/17 A2985 RMK SLP075 T02300169 57006 IEM_DS3505
ZBYN,1995-08-11 10:00,ZBYN 111000Z AUTO 33006KT 7SM 24/15 A2983 RMK T02400150 IEM_DS3505
ZBYN,1995-08-11 11:00,ZBYN 111100Z AUTO 28004KT 7SM 23/17 A2985 RMK T02300170 IEM_DS3505
ZBYN,1995-08-11 12:00,ZBYN 111200Z AUTO 18002KT 9SM 22/17 A2985 RMK SLP075 T02160171 54000 IEM_DS3505
ZBYN,1995-08-11 13:00,ZBYN 111300Z AUTO 00000KT 7SM 21/19 A2988 RMK T02100190 IEM_DS3505
ZBYN,1995-08-11 14:00,ZBYN 111400Z AUTO 00000KT 7SM 21/18 A2988 RMK T02100180 IEM_DS3505
ZBYN,1995-08-11 15:00,ZBYN 111500Z AUTO 00000KT 9SM 20/19 A2988 RMK SLP081 T02030188 52007 IEM_DS3505
ZBYN,1995-08-11 16:00,ZBYN 111600Z AUTO 00000KT 7SM 21/19 A2988 RMK T02100190 IEM_DS3505
ZBYN,1995-08-11 17:00,ZBYN 111700Z AUTO 00000KT 7SM 20/18 A2988 RMK T02000180 IEM_DS3505
ZBYN,1995-08-11 18:00,ZBYN 111800Z AUTO 00000KT 6SM 20/19 A2985 RMK SLP082 T01970188 57007 IEM_DS3505
ZBYN,1995-08-11 19:00,ZBYN 111900Z AUTO 00000KT 7SM 20/19 A2983 RMK T02000190 IEM_DS3505
ZBYN,1995-08-11 20:00,ZBYN 112000Z AUTO 00000KT 7SM 19/18 A2983 RMK T01900180 IEM_DS3505
ZBYN,1995-08-11 21:00,ZBYN 112100Z AUTO 11004KT 6SM 19/18 A2983 RMK SLP070 T01890183 57010 IEM_DS3505
ZBYN,1995-08-11 22:00,ZBYN 112200Z AUTO 00000KT 7SM 19/18 A2983 RMK T01900180 IEM_DS3505
ZBYN,1995-08-11 23:00,ZBYN 112300Z AUTO 00000KT 6SM 19/18 A2985 RMK T01900180 IEM_DS3505
ZBYN,1995-08-12 00:00,ZBYN 120000Z AUTO 00000KT 6SM 19/18 A2985 RMK SLP082 T01910183 52010 IEM_DS3505
ZBYN,1995-08-12 01:00,ZBYN 120100Z AUTO 00000KT 7SM 20/18 A2985 RMK T02000180 IEM_DS3505
ZBYN,1995-08-12 02:00,ZBYN 120200Z AUTO 00000KT 7SM 21/18 A2985 RMK T02100180 IEM_DS3505
ZBYN,1995-08-12 03:00,ZBYN 120300Z AUTO 14004KT 6SM 22/18 A2985 RMK SLP080 T02160185 57001 IEM_DS3505
ZBYN,1995-08-12 04:00,ZBYN 120400Z AUTO 00000KT 7SM 23/18 A2983 RMK T02300180 IEM_DS3505
ZBYN,1995-08-12 05:00,ZBYN 120500Z AUTO 18004KT 7SM 24/19 A2983 RMK T02400190 IEM_DS3505
ZBYN,1995-08-12 06:00,ZBYN 120600Z AUTO 18006KT 6SM 24/18 A2983 RMK SLP067 T02410175 57009 IEM_DS3505
ZBYN,1995-08-12 07:00,ZBYN 120700Z AUTO 20008KT 6SM 24/19 A2983 RMK T02400190 IEM_DS3505
ZBYN,1995-08-12 08:00,ZBYN 120800Z AUTO 17004KT 6SM 25/18 A2980 RMK T02500180 IEM_DS3505
ZBYN,1995-08-12 09:00,ZBYN 120900Z AUTO 14006KT 6SM 24/19 A2980 RMK SLP060 T02350191 57008 IEM_DS3505
ZBYN,1995-08-12 10:00,ZBYN 121000Z AUTO 15006KT 6SM 23/19 A2980 RMK T02300190 IEM_DS3505
ZBYN,1995-08-12 11:00,ZBYN 121100Z AUTO 12006KT 6SM 22/19 A2980 RMK T02200190 IEM_DS3505
ZBYN,1995-08-12 12:00,ZBYN 121200Z AUTO 14006KT 6SM 22/19 A2980 RMK SLP063 T02150186 54000 IEM_DS3505
ZBYN,1995-08-12 13:00,ZBYN 121300Z AUTO 16006KT 6SM 21/18 A2983 RMK T02100180 IEM_DS3505
ZBYN,1995-08-12 14:00,ZBYN 121400Z AUTO 18006KT 6SM 21/17 A2985 RMK T02100170 IEM_DS3505
ZBYN,1995-08-12 15:00,ZBYN 121500Z AUTO 16008KT 6SM 20/17 A2985 RMK SLP078 T01990166 52015 IEM_DS3505
ZBYN,1995-08-12 16:00,ZBYN 121600Z AUTO 11006KT 6SM 19/17 A2985 RMK T01900170 IEM_DS3505
ZBYN,1995-08-12 17:00,ZBYN 121700Z AUTO 15004KT 6SM 19/17 A2985 RMK T01900170 IEM_DS3505
ZBYN,1995-08-12 18:00,ZBYN 121800Z AUTO 11004KT 6SM 18/16 A2983 RMK SLP072 T01780165 57005 IEM_DS3505
ZBYN,1995-08-12 19:00,ZBYN 121900Z AUTO 12006KT 5SM 18/17 A2983 RMK T01800170 IEM_DS3505
ZBYN,1995-08-12 20:00,ZBYN 122000Z AUTO 00000KT 5SM 17/17 A2983 RMK T01700170 IEM_DS3505
ZBYN,1995-08-12 21:00,ZBYN 122100Z AUTO 11002KT 5SM 17/17 A2983 RMK SLP073 T01740166 54000 IEM_DS3505
ZBYN,1995-08-12 22:00,ZBYN 122200Z AUTO 00000KT 2 1/2SM 17/17 A2983 RMK T01700170 IEM_DS3505
ZBYN,1995-08-12 23:00,ZBYN 122300Z AUTO 00000KT 2SM 18/17 A2985 RMK T01800170 IEM_DS3505
ZBYN,1995-08-13 00:00,ZBYN 130000Z AUTO 00000KT 3SM 18/17 A2985 RMK SLP084 T01790174 52008 IEM_DS3505
ZBYN,1995-08-13 01:00,ZBYN 130100Z AUTO 22004KT 2 1/2SM 21/17 A2985 RMK T02100170 IEM_DS3505
ZBYN,1995-08-13 02:00,ZBYN 130200Z AUTO 17004KT 2 1/2SM 22/18 A2985 RMK T02200180 IEM_DS3505
ZBYN,1995-08-13 03:00,ZBYN 130300Z AUTO 18008KT 5SM 24/19 A2985 RMK SLP078 T02360189 54000 IEM_DS3505
ZBYN,1995-08-13 04:00,ZBYN 130400Z AUTO 17004KT 4SM 25/19 A2983 RMK T02500190 IEM_DS3505
ZBYN,1995-08-13 05:00,ZBYN 130500Z AUTO 17006KT 4SM 27/20 A2980 RMK T02700200 IEM_DS3505
ZBYN,1995-08-13 06:00,ZBYN 130600Z AUTO 11004KT 6SM 28/18 A2980 RMK SLP055 T02800180 57018 IEM_DS3505
ZBYN,1995-08-13 07:00,ZBYN 130700Z AUTO 15006KT 4SM 30/19 A2980 RMK T03000190 IEM_DS3505
ZBYN,1995-08-13 08:00,ZBYN 130800Z AUTO 21008KT 4SM 30/18 A2980 RMK T03000180 IEM_DS3505
ZBYN,1995-08-13 09:00,ZBYN 130900Z AUTO 20006KT 6SM 27/18 A2980 RMK SLP054 T02680185 57003 IEM_DS3505
ZBYN,1995-08-13 10:00,ZBYN 131000Z AUTO 25004KT 4SM 28/18 A2980 RMK T02800180 IEM_DS3505
ZBYN,1995-08-13 11:00,ZBYN 131100Z AUTO 02008KT 6SM 26/15 A2980 RMK T02600150 IEM_DS3505
ZBYN,1995-08-13 12:00,ZBYN 131200Z AUTO 32006KT 7SM 23/16 A2983 RMK SLP074 T02310163 52014 IEM_DS3505
ZBYN,1995-08-13 13:00,ZBYN 131300Z AUTO 09006KT 6SM 22/16 A2985 RMK T02200160 IEM_DS3505
ZBYN,1995-08-13 14:00,ZBYN 131400Z AUTO 00000KT 6SM 22/16 A2988 RMK T02200160 IEM_DS3505
ZBYN,1995-08-13 15:00,ZBYN 131500Z AUTO 32004KT 7SM 20/16 A2988 RMK SLP093 T02030160 52021 IEM_DS3505
ZBYN,1995-08-13 16:00,ZBYN 131600Z AUTO 00000KT 6SM 21/17 A2991 RMK T02100170 IEM_DS3505
ZBYN,1995-08-13 18:00,ZBYN 131800Z AUTO 34002KT 7SM 19/16 A2991 RMK SLP093 T01870161 52004 IEM_DS3505
ZBYN,1995-08-13 19:00,ZBYN 131900Z AUTO 10002KT 6SM 19/16 A2991 RMK T01900160 IEM_DS3505
ZBYN,1995-08-13 20:00,ZBYN 132000Z AUTO 00000KT 6SM 19/16 A2991 RMK T01900160 IEM_DS3505
ZBYN,1995-08-13 21:00,ZBYN 132100Z AUTO 00000KT 6SM 19/16 A2991 RMK SLP097 T01880159 52002 IEM_DS3505
ZBYN,1995-08-13 22:00,ZBYN 132200Z AUTO 00000KT 6SM 18/16 A2994 RMK T01800160 IEM_DS3505
ZBYN,1995-08-13 23:00,ZBYN 132300Z AUTO 11002KT 6SM 18/17 A2994 RMK T01800170 IEM_DS3505
ZBYN,1995-08-14 00:00,ZBYN 140000Z AUTO 34004KT 6SM 20/16 A2996 RMK SLP114 T02010156 52012 IEM_DS3505
ZBYN,1995-08-14 01:00,ZBYN 140100Z AUTO 34004KT 6SM 20/16 A2997 RMK SLP114 T02010156 52012 IEM_DS3505
ZBYN,1995-08-14 02:00,ZBYN 140200Z AUTO 29004KT 6SM 24/18 A2997 RMK T02400180 IEM_DS3505
ZBYN,1995-08-14 03:00,ZBYN 140300Z AUTO 32006KT 6SM 25/17 A2997 RMK SLP113 T02520173 52003 IEM_DS3505
ZBYN,1995-08-14 04:00,ZBYN 140400Z AUTO 00000KT 7SM 27/19 A2994 RMK T02700190 IEM_DS3505
ZBYN,1995-08-14 05:00,ZBYN 140500Z AUTO 17006KT 7SM 29/19 A2991 RMK T02900190 IEM_DS3505
ZBYN,1995-08-14 06:00,ZBYN 140600Z AUTO 09006KT 6SM 27/18 A2991 RMK SLP099 T02690176 57013 IEM_DS3505
ZBYN,1995-08-14 07:00,ZBYN 140700Z AUTO 03008KT 7SM 27/18 A2991 RMK T02700180 IEM_DS3505
ZBYN,1995-08-14 09:00,ZBYN 140900Z AUTO 36002KT 9SM 25/20 RMK SLP105 T02460205 52002 IEM_DS3505
ZBYN,1995-08-14 10:00,ZBYN 141000Z AUTO 05008KT 7SM 25/19 A2994 RMK T02500190 IEM_DS3505
ZBYN,1995-08-14 11:00,ZBYN 141100Z AUTO 10016KT 6SM 23/18 A2994 RMK T02300180 IEM_DS3505
ZBYN,1995-08-14 12:00,ZBYN 141200Z AUTO 07010KT 6SM 22/17 A2997 RMK 60035 SLP120 T02210167 52012 IEM_DS3505
ZBYN,1995-08-14 13:00,ZBYN 141300Z AUTO 06008KT 6SM 21/17 A3003 RMK T02100170 IEM_DS3505
ZBYN,1995-08-14 14:00,ZBYN 141400Z AUTO 07006KT 6SM 20/18 A3003 RMK T02000180 IEM_DS3505
ZBYN,1995-08-14 15:00,ZBYN 141500Z AUTO 07006KT 6SM 21/17 A3003 RMK SLP135 T02060170 52019 IEM_DS3505
ZBYN,1995-08-14 16:00,ZBYN 141600Z AUTO 00000KT 6SM 19/19 A3006 RMK T01900190 IEM_DS3505
ZBYN,1995-08-14 17:00,ZBYN 141700Z AUTO 07004KT 6SM 19/18 A3006 RMK T01900180 IEM_DS3505
ZBYN,1995-08-14 18:00,ZBYN 141800Z AUTO 07004KT 5SM 19/17 A3006 RMK SLP140 T01930172 52005 IEM_DS3505
ZBYN,1995-08-14 20:00,ZBYN 142000Z AUTO 00000KT 6SM 19/18 A3006 RMK T01900180 IEM_DS3505
ZBYN,1995-08-14 21:00,ZBYN 142100Z AUTO 00000KT 5SM 19/17 A3006 RMK 70035 SLP142 T01940172 57001 IEM_DS3505
ZBYN,1995-08-14 22:00,ZBYN 142200Z AUTO 03004KT 6SM 18/17 A3006 RMK T01800170 IEM_DS3505
ZBYN,1995-08-14 23:00,ZBYN 142300Z AUTO 02004KT 7SM 19/18 A3009 RMK T01900180 IEM_DS3505
ZBYN,1995-08-15 00:00,ZBYN 150000Z AUTO 32004KT 5SM 20/18 A3009 RMK 70035 SLP153 T02040177 52008 IEM_DS3505
ZBYN,1995-08-15 01:00,ZBYN 150100Z AUTO 09006KT 5SM 20/18 A3006 RMK SLP147 T02000180 57010 IEM_DS3505
ZBYN,1995-08-15 02:00,ZBYN 150200Z AUTO 06004KT 7SM 21/18 A3009 RMK T02100180 IEM_DS3505
ZBYN,1995-08-15 03:00,ZBYN 150300Z AUTO 02004KT 5SM 22/18 A3009 RMK SLP156 T02160175 52002 IEM_DS3505
ZBYN,1995-08-15 04:00,ZBYN 150400Z AUTO 04010KT 7SM 22/18 A3006 RMK T02200180 IEM_DS3505
ZBYN,1995-08-15 05:00,ZBYN 150500Z AUTO 06004KT 7SM 21/18 A3006 RMK T02100180 IEM_DS3505
ZBYN,1995-08-15 06:00,ZBYN 150600Z AUTO 09006KT 5SM 21/17 A3006 RMK SLP147 T02140170 57010 IEM_DS3505
ZBYN,1995-08-15 07:00,ZBYN 150700Z AUTO 06008KT 7SM 22/18 A3003 RMK T02200180 IEM_DS3505
ZBYN,1995-08-15 08:00,ZBYN 150800Z AUTO 08006KT 7SM 21/18 A3003 RMK T02100180 IEM_DS3505
ZBYN,1995-08-15 09:00,ZBYN 150900Z AUTO 09004KT 5SM 21/18 A3003 RMK SLP138 T02090180 57009 IEM_DS3505
ZBYN,1995-08-15 10:00,ZBYN 151000Z AUTO 06006KT 7SM 21/17 A3000 RMK T02100170 IEM_DS3505
ZBYN,1995-08-15 11:00,ZBYN 151100Z AUTO 06012KT 7SM 20/17 A3003 RMK T02000170 IEM_DS3505
ZBYN,1995-08-15 12:00,ZBYN 151200Z AUTO 09002KT 6SM 20/17 A3003 RMK 60001 SLP145 T01970170 52006 IEM_DS3505
ZBYN,1995-08-15 13:00,ZBYN 151300Z AUTO 00000KT 7SM 19/18 A3006 RMK T01900180 IEM_DS3505
ZBYN,1995-08-15 14:00,ZBYN 151400Z AUTO 02002KT 7SM 19/18 A3006 RMK T01900180 IEM_DS3505
ZBYN,1995-08-15 15:00,ZBYN 151500Z AUTO 32004KT 5SM 18/17 A3006 RMK SLP151 T01800174 52005 IEM_DS3505
ZBYN,1995-08-15 16:00,ZBYN 151600Z AUTO 32004KT 2 1/2SM 18/18 A3003 RMK T01800180 IEM_DS3505
ZBYN,1995-08-15 17:00,ZBYN 151700Z AUTO 32004KT 2 1/2SM 18/18 A3000 RMK T01800180 IEM_DS3505
ZBYN,1995-08-15 18:00,ZBYN 151800Z AUTO 32004KT 5SM 18/17 A3000 RMK 60071 SLP135 T01770174 57015 IEM_DS3505
ZBYN,1995-08-15 19:00,ZBYN 151900Z AUTO 33004KT 4SM 18/18 A2997 RMK T01800180 IEM_DS3505
ZBYN,1995-08-15 20:00,ZBYN 152000Z AUTO 30004KT 4SM 18/18 A2997 RMK T01800180 IEM_DS3505
ZBYN,1995-08-15 21:00,ZBYN 152100Z AUTO 34004KT 4SM 18/18 A2997 RMK 70134 SLP126 T01780176 57009 IEM_DS3505
ZBYN,1995-08-15 22:00,ZBYN 152200Z AUTO 32004KT 2 1/2SM 18/18 A2997 RMK T01800180 IEM_DS3505
ZBYN,1995-08-15 23:00,ZBYN 152300Z AUTO 36006KT 4SM 18/18 A2997 RMK T01800180 IEM_DS3505
ZBYN,1995-08-16 00:00,ZBYN 160000Z AUTO 32004KT 4SM 18/18 A2997 RMK 60083 70154 SLP126 T01830178 57001 IEM_DS3505
ZBYN,1995-08-16 01:00,ZBYN 160100Z AUTO 36004KT 2 1/2SM 19/18 A2997 RMK T01900180 IEM_DS3505
ZBYN,1995-08-16 02:00,ZBYN 160200Z AUTO 06010KT 7SM 19/19 A2994 RMK T01900190 IEM_DS3505
ZBYN,1995-08-16 03:00,ZBYN 160300Z AUTO 04002KT 4SM 19/18 A2994 RMK SLP122 T01890184 57005 IEM_DS3505
ZBYN,1995-08-16 04:00,ZBYN 160400Z AUTO 04006KT 7SM 19/18 A2991 RMK T01900180 IEM_DS3505
ZBYN,1995-08-16 05:00,ZBYN 160500Z AUTO 06006KT 7SM 19/18 A2991 RMK T01900180 IEM_DS3505
ZBYN,1995-08-16 06:00,ZBYN 160600Z AUTO 34006KT 4SM 19/18 A2988 RMK 60024 SLP104 T01910182 57017 IEM_DS3505
ZBYN,1995-08-16 07:00,ZBYN 160700Z AUTO 33006KT 7SM 20/19 A2988 RMK T02000190 IEM_DS3505
ZBYN,1995-08-16 08:00,ZBYN 160800Z AUTO 30006KT 4SM 20/19 A2985 RMK T02000190 IEM_DS3505
ZBYN,1995-08-16 09:00,ZBYN 160900Z AUTO 02004KT 4SM 19/18 A2988 RMK SLP095 T01890183 57008 IEM_DS3505
ZBYN,1995-08-16 10:00,ZBYN 161000Z AUTO 28006KT 4SM 19/19 A2985 RMK T01900190 IEM_DS3505
ZBYN,1995-08-16 11:00,ZBYN 161100Z AUTO 28004KT 3SM 19/19 A2985 RMK T01900190 IEM_DS3505
ZBYN,1995-08-16 12:00,ZBYN 161200Z AUTO 11004KT 2 1/2SM 19/19 A2985 RMK 60004 SLP088 T01910188 57006 IEM_DS3505
ZBYN,1995-08-16 13:00,ZBYN 161300Z AUTO 00000KT 3SM 19/19 A2988 RMK T01900190 IEM_DS3505
ZBYN,1995-08-16 14:00,ZBYN 161400Z AUTO 29004KT 2SM 19/19 A2988 RMK T01900190 IEM_DS3505
ZBYN,1995-08-16 15:00,ZBYN 161500Z AUTO 14004KT 3SM 19/19 A2988 RMK SLP096 T01920187 52009 IEM_DS3505
ZBYN,1995-08-16 16:00,ZBYN 161600Z AUTO 16004KT 1 1/4SM 19/19 A2988 RMK T01900190 IEM_DS3505
ZBYN,1995-08-16 17:00,ZBYN 161700Z AUTO 00000KT 1 1/4SM 19/19 A2985 RMK T01900190 IEM_DS3505
ZBYN,1995-08-16 18:00,ZBYN 161800Z AUTO 00000KT 4SM 19/19 A2985 RMK 60000 SLP089 T01900187 57007 IEM_DS3505
ZBYN,1995-08-16 19:00,ZBYN 161900Z AUTO 00000KT 1 1/4SM 19/19 A2985 RMK T01900190 IEM_DS3505
ZBYN,1995-08-16 20:00,ZBYN 162000Z AUTO 00000KT 2SM 19/19 A2985 RMK T01900190 IEM_DS3505
ZBYN,1995-08-16 21:00,ZBYN 162100Z AUTO 14002KT 4SM 19/19 A2985 RMK 70047 SLP087 T01900187 57002 IEM_DS3505
ZBYN,1995-08-16 22:00,ZBYN 162200Z AUTO 00000KT 2SM 19/19 A2985 RMK T01900190 IEM_DS3505
ZBYN,1995-08-16 23:00,ZBYN 162300Z AUTO 00000KT 1 1/4SM 19/19 A2985 RMK T01900190 IEM_DS3505
ZBYN,1995-08-17 00:00,ZBYN 170000Z AUTO 16004KT 4SM 19/19 A2985 RMK 70028 SLP090 T01930188 52004 IEM_DS3505
ZBYN,1995-08-17 01:00,ZBYN 170100Z AUTO 16004KT 2SM 21/19 A2985 RMK T02100190 IEM_DS3505
ZBYN,1995-08-17 02:00,ZBYN 170200Z AUTO 15006KT 2SM 22/19 A2985 RMK T02200190 IEM_DS3505
ZBYN,1995-08-17 03:00,ZBYN 170300Z AUTO 14006KT 4SM 23/19 A2985 RMK SLP080 T02310190 57004 IEM_DS3505
ZBYN,1995-08-17 04:00,ZBYN 170400Z AUTO 24004KT 3SM 25/20 A2983 RMK T02500200 IEM_DS3505
ZBYN,1995-08-17 05:00,ZBYN 170500Z AUTO 19006KT 5SM 27/20 A2980 RMK T02700200 IEM_DS3505
ZBYN,1995-08-17 06:00,ZBYN 170600Z AUTO 16006KT 5SM 28/20 A2977 RMK SLP048 T02770205 57023 IEM_DS3505
ZBYN,1995-08-17 07:00,ZBYN 170700Z AUTO 21014KT 7SM 29/17 A2977 RMK T02900170 IEM_DS3505
ZBYN,1995-08-17 08:00,ZBYN 170800Z AUTO 20012KT 7SM 30/18 A2977 RMK T03000180 IEM_DS3505
ZBYN,1995-08-17 09:00,ZBYN 170900Z AUTO 32008KT 12SM 28/14 A2977 RMK SLP041 T02810142 57006 IEM_DS3505
ZBYN,1995-08-17 10:00,ZBYN 171000Z AUTO 28006KT 7SM 28/18 A2977 RMK T02800180 IEM_DS3505
ZBYN,1995-08-17 11:00,ZBYN 171100Z AUTO 31010KT 7SM 26/14 A2977 RMK T02600140 IEM_DS3505
ZBYN,1995-08-17 12:00,ZBYN 171200Z AUTO 27004KT 12SM 24/13 A2980 RMK SLP059 T02370129 52011 IEM_DS3505
ZBYN,1995-08-17 13:00,ZBYN 171300Z AUTO 29010KT 7SM 24/11 A2983 RMK T02400110 IEM_DS3505
ZBYN,1995-08-17 14:00,ZBYN 171400Z AUTO 30008KT 7SM 22/13 A2985 RMK T02200130 IEM_DS3505
ZBYN,1995-08-17 15:00,ZBYN 171500Z AUTO 27006KT 12SM 22/12 A2985 RMK SLP080 T02150121 52021 IEM_DS3505
ZBYN,1995-08-17 16:00,ZBYN 171600Z AUTO 26006KT 7SM 21/12 A2988 RMK T02100120 IEM_DS3505
ZBYN,1995-08-17 17:00,ZBYN 171700Z AUTO 27004KT 7SM 21/11 A2985 RMK T02100110 IEM_DS3505
ZBYN,1995-08-17 18:00,ZBYN 171800Z AUTO 29006KT 12SM 18/12 A2985 RMK SLP077 T01830123 57001 IEM_DS3505
ZBYN,1995-08-17 19:00,ZBYN 171900Z AUTO 00000KT 7SM 20/11 A2985 RMK T02000110 IEM_DS3505
ZBYN,1995-08-17 20:00,ZBYN 172000Z AUTO 00000KT 7SM 20/12 A2985 RMK T02000120 IEM_DS3505
ZBYN,1995-08-17 21:00,ZBYN 172100Z AUTO 14006KT 12SM 15/13 A2985 RMK SLP078 T01490126 57003 IEM_DS3505
ZBYN,1995-08-17 22:00,ZBYN 172200Z AUTO 00000KT 7SM 16/11 A2985 RMK T01600110 IEM_DS3505
ZBYN,1995-08-17 23:00,ZBYN 172300Z AUTO 32002KT 7SM 14/13 A2988 RMK T01400130 IEM_DS3505
ZBYN,1995-08-18 00:00,ZBYN 180000Z AUTO 14004KT 12SM 18/14 A2988 RMK SLP087 T01770142 52006 IEM_DS3505
ZBYN,1995-08-18 01:00,ZBYN 180100Z AUTO 20008KT 6SM 20/15 A2988 RMK T02000150 IEM_DS3505
ZBYN,1995-08-18 02:00,ZBYN 180200Z AUTO 18004KT 6SM 22/14 A2988 RMK T02200140 IEM_DS3505
ZBYN,1995-08-18 03:00,ZBYN 180300Z AUTO 20006KT 6SM 21/14 A2988 RMK SLP085 T02140136 54000 IEM_DS3505
ZBYN,1995-08-18 04:00,ZBYN 180400Z AUTO 17008KT 7SM 23/15 A2988 RMK T02300150 IEM_DS3505
ZBYN,1995-08-18 05:00,ZBYN 180500Z AUTO 24008KT 7SM 24/15 A2985 RMK T02400150 IEM_DS3505
ZBYN,1995-08-18 06:00,ZBYN 180600Z AUTO 32008KT 12SM 28/07 A2985 RMK SLP071 T02820073 57007 IEM_DS3505
ZBYN,1995-08-18 07:00,ZBYN 180700Z AUTO 27016KT 7SM 26/11 A2983 RMK T02600110 IEM_DS3505
ZBYN,1995-08-18 08:00,ZBYN 180800Z AUTO 35010KT 7SM 23/14 A2983 RMK T02300140 IEM_DS3505
ZBYN,1995-08-18 09:00,ZBYN 180900Z AUTO 04002KT 12SM 23/14 A2983 RMK SLP081 T02270138 57004 IEM_DS3505
ZBYN,1995-08-18 10:00,ZBYN 181000Z AUTO 29006KT 7SM 22/15 A2983 RMK T02200150 IEM_DS3505
ZBYN,1995-08-18 11:00,ZBYN 181100Z AUTO 30008KT 6SM 22/15 A2985 RMK T02200150 IEM_DS3505
ZBYN,1995-08-18 12:00,ZBYN 181200Z AUTO 32004KT 12SM 21/14 A2985 RMK SLP090 T02070137 52010 IEM_DS3505
ZBYN,1995-08-18 13:00,ZBYN 181300Z AUTO 00000KT 6SM 21/14 A2988 RMK T02100140 IEM_DS3505
ZBYN,1995-08-18 14:00,ZBYN 181400Z AUTO 00000KT 7SM 19/14 A2988 RMK T01900140 IEM_DS3505
ZBYN,1995-08-18 15:00,ZBYN 181500Z AUTO 34004KT 11SM 18/13 A2988 RMK SLP101 T01810132 52011 IEM_DS3505
ZBYN,1995-08-18 16:00,ZBYN 181600Z AUTO 00000KT 7SM 17/15 A2988 RMK T01700150 IEM_DS3505
ZBYN,1995-08-18 17:00,ZBYN 181700Z AUTO 07004KT 7SM 16/14 A2991 RMK T01600140 IEM_DS3505
ZBYN,1995-08-18 18:00,ZBYN 181800Z AUTO 04004KT 11SM 16/14 A2990 RMK SLP099 T01570138 54000 IEM_DS3505
ZBYN,1995-08-18 19:00,ZBYN 181900Z AUTO 00000KT 7SM 14/13 A2991 RMK T01400130 IEM_DS3505
ZBYN,1995-08-18 21:00,ZBYN 182100Z AUTO 00000KT 11SM 13/13 A2991 RMK SLP105 T01330128 57001 IEM_DS3505
ZBYN,1995-08-18 22:00,ZBYN 182200Z AUTO 00000KT 7SM 13/12 A2991 RMK T01300120 IEM_DS3505
ZBYN,1995-08-18 23:00,ZBYN 182300Z AUTO 09004KT 4SM 13/12 A2991 RMK T01300120 IEM_DS3505
ZBYN,1995-08-19 00:00,ZBYN 190000Z AUTO 14002KT 9SM 17/14 A2994 RMK SLP111 T01680138 52008 IEM_DS3505
ZBYN,1995-08-19 01:00,ZBYN 190100Z AUTO 00000KT 5SM 18/15 A2991 RMK T01800150 IEM_DS3505
ZBYN,1995-08-19 02:00,ZBYN 190200Z AUTO 27004KT 7SM 22/14 A2991 RMK T02200140 IEM_DS3505
ZBYN,1995-08-19 03:00,ZBYN 190300Z AUTO 34004KT 7SM 23/14 A2991 RMK SLP103 T02300136 57003 IEM_DS3505
ZBYN,1995-08-19 04:00,ZBYN 190400Z AUTO 35006KT 7SM 24/14 A2991 RMK T02400140 IEM_DS3505
ZBYN,1995-08-19 05:00,ZBYN 190500Z AUTO 29006KT 7SM 26/14 A2988 RMK T02600140 IEM_DS3505
ZBYN,1995-08-19 06:00,ZBYN 190600Z AUTO 32004KT 9SM 26/14 A2988 RMK SLP092 T02590143 57009 IEM_DS3505
ZBYN,1995-08-19 07:00,ZBYN 190700Z AUTO 32006KT 7SM 26/13 A2985 RMK T02600130 IEM_DS3505
ZBYN,1995-08-19 09:00,ZBYN 190900Z AUTO 36004KT 11SM 26/16 A2985 RMK SLP087 T02600159 57008 IEM_DS3505
ZBYN,1995-08-19 10:00,ZBYN 191000Z AUTO 03004KT 6SM 25/13 A2985 RMK T02500130 IEM_DS3505
ZBYN,1995-08-19 11:00,ZBYN 191100Z AUTO 35004KT 7SM 23/13 A2985 RMK T02300130 IEM_DS3505
ZBYN,1995-08-19 12:00,ZBYN 191200Z AUTO 02002KT 9SM 20/15 A2988 RMK SLP100 T02040150 52009 IEM_DS3505
ZBYN,1995-08-19 13:00,ZBYN 191300Z AUTO 00000KT 7SM 20/15 A2991 RMK T02000150 IEM_DS3505
ZBYN,1995-08-19 14:00,ZBYN 191400Z AUTO 00000KT 7SM 19/15 A2991 RMK T01900150 IEM_DS3505
ZBYN,1995-08-19 15:00,ZBYN 191500Z AUTO 00000KT 9SM 18/14 A2991 RMK SLP109 T01780145 52013 IEM_DS3505
ZBYN,1995-08-19 16:00,ZBYN 191600Z AUTO 00000KT 7SM 15/13 A2994 RMK T01500130 IEM_DS3505
ZBYN,1995-08-19 17:00,ZBYN 191700Z AUTO 00000KT 7SM 15/13 A2994 RMK T01500130 IEM_DS3505
ZBYN,1995-08-19 18:00,ZBYN 191800Z AUTO 00000KT 7SM 15/14 A2994 RMK SLP112 T01540137 52004 IEM_DS3505
ZBYN,1995-08-19 19:00,ZBYN 191900Z AUTO 00000KT 7SM 14/12 A2994 RMK T01400120 IEM_DS3505
ZBYN,1995-08-19 20:00,ZBYN 192000Z AUTO 15004KT 7SM 14/13 A2994 RMK T01400130 IEM_DS3505
ZBYN,1995-08-19 21:00,ZBYN 192100Z AUTO 16006KT 6SM 13/12 A2994 RMK SLP118 T01270118 52002 IEM_DS3505
ZBYN,1995-08-19 22:00,ZBYN 192200Z AUTO 00000KT 7SM 13/12 A2997 RMK T01300120 IEM_DS3505
ZBYN,1995-08-19 23:00,ZBYN 192300Z AUTO 00000KT 6SM 13/13 A2997 RMK T01300130 IEM_DS3505
ZBYN,1995-08-20 00:00,ZBYN 200000Z AUTO 00000KT 4SM 18/14 A3000 RMK SLP103 T01750143 57015 IEM_DS3505
ZBYN,1995-08-20 01:00,ZBYN 200100Z AUTO 00000KT 6SM 19/14 A3000 RMK T01900140 IEM_DS3505
ZBYN,1995-08-20 02:00,ZBYN 200200Z AUTO 00000KT 6SM 23/16 A3000 RMK T02300160 IEM_DS3505
ZBYN,1995-08-20 03:00,ZBYN 200300Z AUTO 07002KT 6SM 25/15 A3000 RMK SLP125 T02510150 54000 IEM_DS3505
ZBYN,1995-08-20 04:00,ZBYN 200400Z AUTO 00000KT 7SM 26/18 A2997 RMK T02600180 IEM_DS3505
ZBYN,1995-08-20 05:00,ZBYN 200500Z AUTO 15006KT 6SM 28/14 A2994 RMK T02800140 IEM_DS3505
ZBYN,1995-08-20 06:00,ZBYN 200600Z AUTO 18004KT 7SM 28/15 A2994 RMK SLP109 T02750148 57015 IEM_DS3505
ZBYN,1995-08-20 07:00,ZBYN 200700Z AUTO 17002KT 6SM 28/14 A2991 RMK T02800140 IEM_DS3505
ZBYN,1995-08-20 08:00,ZBYN 200800Z AUTO 17008KT 6SM 28/15 A2991 RMK T02800150 IEM_DS3505
ZBYN,1995-08-20 09:00,ZBYN 200900Z AUTO 14006KT 11SM 27/12 A2991 RMK SLP102 T02710124 57010 IEM_DS3505
ZBYN,1995-08-20 10:00,ZBYN 201000Z AUTO 17004KT 7SM 27/15 A2991 RMK T02700150 IEM_DS3505
ZBYN,1995-08-20 11:00,ZBYN 201100Z AUTO 00000KT 7SM 23/15 A2991 RMK T02300150 IEM_DS3505
ZBYN,1995-08-20 12:00,ZBYN 201200Z AUTO 00000KT 12SM 20/16 A2991 RMK SLP111 T01950165 52004 IEM_DS3505
ZBYN,1995-08-20 13:00,ZBYN 201300Z AUTO 08006KT 7SM 19/15 A2994 RMK T01900150 IEM_DS3505
ZBYN,1995-08-20 14:00,ZBYN 201400Z AUTO 09006KT 7SM 19/16 A2997 RMK T01900160 IEM_DS3505
ZBYN,1995-08-20 15:00,ZBYN 201500Z AUTO 29004KT 12SM 18/14 A2997 RMK SLP117 T01790144 52014 IEM_DS3505
ZBYN,1995-08-20 16:00,ZBYN 201600Z AUTO 00000KT 7SM 18/16 A2997 RMK T01800160 IEM_DS3505
ZBYN,1995-08-20 17:00,ZBYN 201700Z AUTO 00000KT 7SM 17/16 A3000 RMK T01700160 IEM_DS3505
ZBYN,1995-08-20 18:00,ZBYN 201800Z AUTO 00000KT 9SM 16/15 A3000 RMK SLP122 T01650148 52006 IEM_DS3505
ZBYN,1995-08-20 19:00,ZBYN 201900Z AUTO 09006KT 7SM 16/15 A2997 RMK T01600150 IEM_DS3505
ZBYN,1995-08-20 20:00,ZBYN 202000Z AUTO 09006KT 7SM 16/15 A2997 RMK T01600150 IEM_DS3505
ZBYN,1995-08-20 21:00,ZBYN 202100Z AUTO 32004KT 6SM 16/15 A2997 RMK SLP120 T01650147 57003 IEM_DS3505
ZBYN,1995-08-20 22:00,ZBYN 202200Z AUTO 00000KT 2 1/2SM 16/15 A3000 RMK T01600150 IEM_DS3505
ZBYN,1995-08-20 23:00,ZBYN 202300Z AUTO 00000KT 1 1/2SM 16/15 A3000 RMK T01600150 IEM_DS3505
ZBYN,1995-08-21 00:00,ZBYN 210000Z AUTO 34004KT 5SM 18/14 A3000 RMK SLP135 T01820142 52006 IEM_DS3505
ZBYN,1995-08-21 01:00,ZBYN 210100Z AUTO 36006KT 5SM 21/16 A3000 RMK T02100160 IEM_DS3505
ZBYN,1995-08-21 02:00,ZBYN 210200Z AUTO 31004KT 6SM 23/17 A2997 RMK T02300170 IEM_DS3505
ZBYN,1995-08-21 03:00,ZBYN 210300Z AUTO 32004KT 4SM 24/17 A2997 RMK SLP119 T02360171 57009 IEM_DS3505
ZBYN,1995-08-21 04:00,ZBYN 210400Z AUTO 32002KT 6SM 25/17 A2994 RMK T02500170 IEM_DS3505
ZBYN,1995-08-21 05:00,ZBYN 210500Z AUTO 31006KT 6SM 25/17 A2994 RMK T02500170 IEM_DS3505
ZBYN,1995-08-21 06:00,ZBYN 210600Z AUTO 32004KT 4SM 25/18 A2991 RMK SLP106 T02500180 57013 IEM_DS3505
ZBYN,1995-08-21 07:00,ZBYN 210700Z AUTO 00000KT 5SM 25/18 A2991 RMK T02500180 IEM_DS3505
ZBYN,1995-08-21 08:00,ZBYN 210800Z AUTO 10008KT 5SM 24/19 A2991 RMK T02400190 IEM_DS3505
ZBYN,1995-08-21 09:00,ZBYN 210900Z AUTO 18010KT 4SM 22/16 A2991 RMK SLP107 T02150157 57003 IEM_DS3505
ZBYN,1995-08-21 11:00,ZBYN 211100Z AUTO 19006KT 1SM 18/18 A2994 RMK T01800180 IEM_DS3505
ZBYN,1995-08-21 12:00,ZBYN 211200Z AUTO 09002KT 2 1/2SM 18/18 A2994 RMK 60020 SLP121 T01810176 52010 IEM_DS3505
ZBYN,1995-08-21 13:00,ZBYN 211300Z AUTO 10002KT 1SM 18/18 A2997 RMK T01800180 IEM_DS3505
ZBYN,1995-08-21 15:00,ZBYN 211500Z AUTO 36004KT 3SM 17/16 A2994 RMK SLP118 T01690161 52003 IEM_DS3505
ZBYN,1995-08-21 16:00,ZBYN 211600Z AUTO 34002KT 1SM 18/17 A2994 RMK T01800170 IEM_DS3505
ZBYN,1995-08-21 17:00,ZBYN 211700Z AUTO 33004KT 1SM 18/17 A2994 RMK T01800170 IEM_DS3505
ZBYN,1995-08-21 18:00,ZBYN 211800Z AUTO 34004KT 3SM 17/17 A2991 RMK 60031 SLP105 T01710166 57010 IEM_DS3505
ZBYN,1995-08-21 19:00,ZBYN 211900Z AUTO 29006KT 1SM 17/16 A2988 RMK T01700160 IEM_DS3505
ZBYN,1995-08-21 20:00,ZBYN 212000Z AUTO 36006KT 2SM 17/17 A2988 RMK T01700170 IEM_DS3505
ZBYN,1995-08-21 21:00,ZBYN 212100Z AUTO 36004KT 3SM 17/16 A2985 RMK 70067 SLP099 T01670164 57010 IEM_DS3505
ZBYN,1995-08-21 22:00,ZBYN 212200Z AUTO 31006KT 3SM 17/16 A2988 RMK T01700160 IEM_DS3505
ZBYN,1995-08-21 23:00,ZBYN 212300Z AUTO 33006KT 2SM 17/16 A2988 RMK T01700160 IEM_DS3505
ZBYN,1995-08-22 00:00,ZBYN 220000Z AUTO 29004KT 3SM 16/16 A2988 RMK 60024 70079 SLP103 T01620155 57002 IEM_DS3505
ZBYN,1995-08-22 01:00,ZBYN 220100Z AUTO 34006KT 2SM 17/16 A2988 RMK T01700160 IEM_DS3505
ZBYN,1995-08-22 02:00,ZBYN 220200Z AUTO 35006KT 2 1/2SM 17/16 RMK T01700160 IEM_DS3505
ZBYN,1995-08-22 03:00,ZBYN 220300Z AUTO 32006KT 3SM 16/16 RMK SLP110 T01650162 52005 IEM_DS3505
ZBYN,1995-08-22 05:00,ZBYN 220500Z AUTO 32006KT 4SM 17/17 A2988 RMK T01700170 IEM_DS3505
ZBYN,1995-08-22 06:00,ZBYN 220600Z AUTO 32004KT 4SM 17/17 A2988 RMK SLP106 T01700170 57013 IEM_DS3505
ZBYN,1995-08-22 07:00,ZBYN 220700Z AUTO 28008KT 2 1/2SM 17/16 A2985 RMK T01700160 IEM_DS3505
ZBYN,1995-08-22 08:00,ZBYN 220800Z AUTO 32008KT 4SM 16/16 A2985 RMK T01600160 IEM_DS3505
ZBYN,1995-08-22 09:00,ZBYN 220900Z AUTO 34006KT 3SM 16/15 A2985 RMK SLP098 T01560151 57007 IEM_DS3505
ZBYN,1995-08-22 10:00,ZBYN 221000Z AUTO 32006KT 5SM 16/16 A2985 RMK T01600160 IEM_DS3505
ZBYN,1995-08-22 11:00,ZBYN 221100Z AUTO 33006KT 7SM 17/16 A2985 RMK T01700160 IEM_DS3505
ZBYN,1995-08-22 12:00,ZBYN 221200Z AUTO 34002KT 3SM 17/16 A2985 RMK 60016 SLP095 T01670159 57002 IEM_DS3505
ZBYN,1995-08-22 13:00,ZBYN 221300Z AUTO 32004KT 7SM 17/16 A2988 RMK T01700160 IEM_DS3505
ZBYN,1995-08-22 15:00,ZBYN 221500Z AUTO 09004KT 4SM 16/16 A2988 RMK SLP103 T01640159 52008 IEM_DS3505
ZBYN,1995-08-22 16:00,ZBYN 221600Z AUTO 15004KT 2 1/2SM 16/16 A2988 RMK T01600160 IEM_DS3505
ZBYN,1995-08-22 17:00,ZBYN 221700Z AUTO 09002KT 2 1/2SM 16/15 A2988 RMK T01600150 IEM_DS3505
ZBYN,1995-08-22 18:00,ZBYN 221800Z AUTO 00000KT 1SM 14/14 A2987 RMK SLP104 T01410139 57002 IEM_DS3505
ZBYN,1995-08-22 19:00,ZBYN 221900Z AUTO 00000KT 2 1/2SM 16/16 A2988 RMK T01600160 IEM_DS3505
ZBYN,1995-08-22 20:00,ZBYN 222000Z AUTO 00000KT 2 1/2SM 16/16 A2988 RMK T01600160 IEM_DS3505
ZBYN,1995-08-22 21:00,ZBYN 222100Z AUTO 36004KT 3SM 17/16 A2985 RMK 70067 SLP099 T01670164 57010 IEM_DS3505
ZBYN,1995-08-22 22:00,ZBYN 222200Z AUTO 00000KT 1 1/4SM 16/15 A2988 RMK T01600150 IEM_DS3505
ZBYN,1995-08-23 00:00,ZBYN 230000Z AUTO 32002KT 1SM 15/15 A2991 RMK 70043 SLP114 T01500150 52013 IEM_DS3505
ZBYN,1995-08-23 01:00,ZBYN 230100Z AUTO 00000KT 1SM 17/16 A2991 RMK T01700160 IEM_DS3505
ZBYN,1995-08-23 02:00,ZBYN 230200Z AUTO 28004KT 2SM 19/18 A2991 RMK T01900180 IEM_DS3505
ZBYN,1995-08-23 03:00,ZBYN 230300Z AUTO 11004KT 4SM 21/16 A2991 RMK SLP110 T02130164 52004 IEM_DS3505
ZBYN,1995-08-23 04:00,ZBYN 230400Z AUTO 00000KT 4SM 23/17 A2991 RMK T02300170 IEM_DS3505
ZBYN,1995-08-23 05:00,ZBYN 230500Z AUTO 00000KT 7SM 25/17 A2988 RMK T02500170 IEM_DS3505
ZBYN,1995-08-23 06:00,ZBYN 230600Z AUTO 32002KT 6SM 26/17 A2988 RMK SLP089 T02570172 57016 IEM_DS3505
ZBYN,1995-08-23 07:00,ZBYN 230700Z AUTO 20004KT 7SM 27/17 A2985 RMK T02700170 IEM_DS3505
ZBYN,1995-08-23 08:00,ZBYN 230800Z AUTO 21006KT 7SM 27/18 A2985 RMK T02700180 IEM_DS3505
ZBYN,1995-08-23 09:00,ZBYN 230900Z AUTO 20008KT 7SM 25/19 A2983 RMK SLP079 T02540188 57008 IEM_DS3505
ZBYN,1995-08-23 10:00,ZBYN 231000Z AUTO 21006KT 7SM 26/20 A2985 RMK T02600200 IEM_DS3505
ZBYN,1995-08-23 11:00,ZBYN 231100Z AUTO 00000KT 7SM 23/20 A2985 RMK T02300200 IEM_DS3505
ZBYN,1995-08-23 12:00,ZBYN 231200Z AUTO 14004KT 5SM 21/19 A2985 RMK SLP091 T02070187 52004 IEM_DS3505
ZBYN,1995-08-23 13:00,ZBYN 231300Z AUTO 00000KT 4SM 20/19 A2988 RMK T02000190 IEM_DS3505
ZBYN,1995-08-23 14:00,ZBYN 231400Z AUTO 09004KT 4SM 19/18 A2991 RMK T01900180 IEM_DS3505
ZBYN,1995-08-23 15:00,ZBYN 231500Z AUTO 32002KT 5SM 19/18 A2991 RMK SLP104 T01940178 52019 IEM_DS3505
ZBYN,1995-08-23 16:00,ZBYN 231600Z AUTO 00000KT 2 1/2SM 18/18 A2994 RMK T01800180 IEM_DS3505
ZBYN,1995-08-23 17:00,ZBYN 231700Z AUTO 00000KT 2 1/2SM 18/18 A2994 RMK T01800180 IEM_DS3505
ZBYN,1995-08-23 18:00,ZBYN 231800Z AUTO 00000KT 4SM 17/17 A2994 RMK SLP107 T01730171 52006 IEM_DS3505
ZBYN,1995-08-23 19:00,ZBYN 231900Z AUTO 00000KT 2 1/2SM 17/17 A2994 RMK T01700170 IEM_DS3505
ZBYN,1995-08-23 20:00,ZBYN 232000Z AUTO 00000KT 2 1/2SM 16/15 A2997 RMK T01600150 IEM_DS3505
ZBYN,1995-08-23 21:00,ZBYN 232100Z AUTO 00000KT 1SM 15/14 A2997 RMK SLP116 T01460144 52004 IEM_DS3505
ZBYN,1995-08-23 22:00,ZBYN 232200Z AUTO 08004KT 2SM 15/15 A2997 RMK T01500150 IEM_DS3505
ZBYN,1995-08-23 23:00,ZBYN 232300Z AUTO 21004KT 1 1/4SM 16/16 A3000 RMK T01600160 IEM_DS3505
ZBYN,1995-08-24 00:00,ZBYN 240000Z AUTO 16004KT 2 1/2SM 18/17 A3003 RMK SLP138 T01750172 52017 IEM_DS3505
ZBYN,1995-08-24 01:00,ZBYN 240100Z AUTO 00000KT 1 1/4SM 20/18 A3003 RMK T02000180 IEM_DS3505
ZBYN,1995-08-24 02:00,ZBYN 240200Z AUTO 30004KT 2 1/2SM 22/19 A3003 RMK T02200190 IEM_DS3505
ZBYN,1995-08-24 03:00,ZBYN 240300Z AUTO 14004KT 5SM 24/18 A3003 RMK SLP133 T02420177 52003 IEM_DS3505
ZBYN,1995-08-24 04:00,ZBYN 240400Z AUTO 30002KT 3SM 27/19 A3000 RMK T02700190 IEM_DS3505
ZBYN,1995-08-24 05:00,ZBYN 240500Z AUTO 30006KT 3SM 29/20 A2997 RMK T02900200 IEM_DS3505
ZBYN,1995-08-24 06:00,ZBYN 240600Z AUTO 18004KT 6SM 28/19 A2994 RMK SLP111 T02820189 57017 IEM_DS3505
ZBYN,1995-08-24 07:00,ZBYN 240700Z AUTO 25006KT 7SM 29/17 A2994 RMK T02900170 IEM_DS3505
ZBYN,1995-08-24 08:00,ZBYN 240800Z AUTO 28008KT 7SM 24/17 A2997 RMK T02400170 IEM_DS3505
ZBYN,1995-08-24 09:00,ZBYN 240900Z AUTO 16006KT 7SM 22/18 A2997 RMK SLP130 T02250175 52005 IEM_DS3505
ZBYN,1995-08-24 10:00,ZBYN 241000Z AUTO 10004KT 7SM 23/18 A2994 RMK T02300180 IEM_DS3505
ZBYN,1995-08-24 11:00,ZBYN 241100Z AUTO 10004KT 6SM 22/18 A2997 RMK T02200180 IEM_DS3505
ZBYN,1995-08-24 12:00,ZBYN 241200Z AUTO 00000KT 7SM 19/18 A2997 RMK 60001 SLP132 T01920178 52002 IEM_DS3505
ZBYN,1995-08-24 13:00,ZBYN 241300Z AUTO 13004KT 7SM 20/18 A2997 RMK T02000180 IEM_DS3505
ZBYN,1995-08-24 14:00,ZBYN 241400Z AUTO 33004KT 6SM 19/18 A3000 RMK T01900180 IEM_DS3505
ZBYN,1995-08-24 15:00,ZBYN 241500Z AUTO 36002KT 6SM 19/17 A3003 RMK SLP133 T01860167 52009 IEM_DS3505
ZBYN,1995-08-24 16:00,ZBYN 241600Z AUTO 00000KT 6SM 18/17 A3003 RMK T01800170 IEM_DS3505
ZBYN,1995-08-24 17:00,ZBYN 241700Z AUTO 09006KT 7SM 19/17 A3003 RMK T01900170 IEM_DS3505
ZBYN,1995-08-24 18:00,ZBYN 241800Z AUTO 00000KT 6SM 17/16 A3003 RMK SLP135 T01670159 52005 IEM_DS3505
ZBYN,1995-08-24 19:00,ZBYN 241900Z AUTO 36004KT 7SM 18/17 A3003 RMK T01800170 IEM_DS3505
ZBYN,1995-08-24 20:00,ZBYN 242000Z AUTO 00000KT 7SM 18/17 A3003 RMK T01800170 IEM_DS3505
ZBYN,1995-08-24 21:00,ZBYN 242100Z AUTO 36002KT 6SM 17/15 A3003 RMK 70001 SLP142 T01730153 57001 IEM_DS3505
ZBYN,1995-08-24 22:00,ZBYN 242200Z AUTO 00000KT 3SM 16/16 A3003 RMK T01600160 IEM_DS3505
ZBYN,1995-08-24 23:00,ZBYN 242300Z AUTO 00000KT 1 1/4SM 16/16 A3003 RMK T01600160 IEM_DS3505
ZBYN,1995-08-25 00:00,ZBYN 250000Z AUTO 00000KT 4SM 19/16 A3006 RMK 70001 SLP153 T01930162 52008 IEM_DS3505
ZBYN,1995-08-25 01:00,ZBYN 250100Z AUTO 14004KT 4SM 21/18 A3006 RMK T02100180 IEM_DS3505
ZBYN,1995-08-25 02:00,ZBYN 250200Z AUTO 00000KT 7SM 24/17 A3003 RMK T02400170 IEM_DS3505
ZBYN,1995-08-25 03:00,ZBYN 250300Z AUTO 02002KT 6SM 25/18 A3003 RMK SLP144 T02470176 57011 IEM_DS3505
ZBYN,1995-08-25 04:00,ZBYN 250400Z AUTO 00000KT 7SM 27/19 A3000 RMK T02700190 IEM_DS3505
ZBYN,1995-08-25 05:00,ZBYN 250500Z AUTO 17004KT 7SM 29/19 A3000 RMK T02900190 IEM_DS3505
ZBYN,1995-08-25 06:00,ZBYN 250600Z AUTO 11006KT 6SM 28/18 A2997 RMK SLP117 T02850175 57022 IEM_DS3505
ZBYN,1995-08-25 07:00,ZBYN 250700Z AUTO 05006KT 7SM 30/17 A2994 RMK T03000170 IEM_DS3505
ZBYN,1995-08-25 08:00,ZBYN 250800Z AUTO 08010KT 7SM 30/18 A2994 RMK T03000180 IEM_DS3505
ZBYN,1995-08-25 09:00,ZBYN 250900Z AUTO 09008KT 11SM 27/15 A2994 RMK SLP106 T02660150 57012 IEM_DS3505
ZBYN,1995-08-25 10:00,ZBYN 251000Z AUTO 08006KT 6SM 25/18 A2994 RMK T02500180 IEM_DS3505
ZBYN,1995-08-25 11:00,ZBYN 251100Z AUTO 08008KT 7SM 23/17 A2994 RMK T02300170 IEM_DS3505
ZBYN,1995-08-25 12:00,ZBYN 251200Z AUTO 04004KT 11SM 24/16 A2997 RMK SLP119 T02350164 52010 IEM_DS3505
ZBYN,1995-08-25 13:00,ZBYN 251300Z AUTO 07012KT 6SM 21/17 A2997 RMK T02100170 IEM_DS3505
ZBYN,1995-08-25 14:00,ZBYN 251400Z AUTO 07008KT 6SM 21/17 A3000 RMK T02100170 IEM_DS3505
ZBYN,1995-08-25 15:00,ZBYN 251500Z AUTO 34002KT 9SM 20/16 A3000 RMK SLP122 T02040162 52006 IEM_DS3505
ZBYN,1995-08-25 16:00,ZBYN 251600Z AUTO 07010KT 6SM 20/17 A3000 RMK T02000170 IEM_DS3505
ZBYN,1995-08-25 17:00,ZBYN 251700Z AUTO 07006KT 6SM 20/17 A2997 RMK T02000170 IEM_DS3505
ZBYN,1995-08-25 18:00,ZBYN 251800Z AUTO 34002KT 9SM 20/16 A2997 RMK SLP114 T01990159 57002 IEM_DS3505
ZBYN,1995-08-25 19:00,ZBYN 251900Z AUTO 00000KT 7SM 19/17 A2997 RMK T01900170 IEM_DS3505
ZBYN,1995-08-25 20:00,ZBYN 252000Z AUTO 15004KT 7SM 19/17 A2997 RMK T01900170 IEM_DS3505
ZBYN,1995-08-25 21:00,ZBYN 252100Z AUTO 36002KT 6SM 18/17 A2997 RMK 70020 SLP116 T01810171 57004 IEM_DS3505
ZBYN,1995-08-25 22:00,ZBYN 252200Z AUTO 18004KT 1SM 18/18 A2997 RMK T01800180 IEM_DS3505
ZBYN,1995-08-25 23:00,ZBYN 252300Z AUTO 00000KT 1/2SM 18/18 A2997 RMK T01800180 IEM_DS3505
ZBYN,1995-08-26 00:00,ZBYN 260000Z AUTO 27004KT 3SM 18/18 A2997 RMK 60020 70020 SLP120 T01850180 54000 IEM_DS3505
ZBYN,1995-08-26 01:00,ZBYN 260100Z AUTO 00000KT 1 1/4SM 19/18 A2997 RMK T01900180 IEM_DS3505
ZBYN,1995-08-26 02:00,ZBYN 260200Z AUTO 00000KT 1 1/4SM 19/19 A2997 RMK T01900190 IEM_DS3505
ZBYN,1995-08-26 03:00,ZBYN 260300Z AUTO 22004KT 4SM 19/18 A3000 RMK SLP132 T01870179 52007 IEM_DS3505
ZBYN,1995-08-26 04:00,ZBYN 260400Z AUTO 00000KT 1 1/4SM 19/18 A2997 RMK T01900180 IEM_DS3505
ZBYN,1995-08-26 05:00,ZBYN 260500Z AUTO 00000KT 6SM 21/20 A2991 RMK T02100200 IEM_DS3505
ZBYN,1995-08-26 06:00,ZBYN 260600Z AUTO 14006KT 6SM 22/18 A2991 RMK 60024 SLP103 T02230176 57022 IEM_DS3505
ZBYN,1995-08-26 07:00,ZBYN 260700Z AUTO 21004KT 6SM 25/21 A2988 RMK T02500210 IEM_DS3505
ZBYN,1995-08-26 08:00,ZBYN 260800Z AUTO 00000KT 6SM 25/19 A2988 RMK T02500190 IEM_DS3505
ZBYN,1995-08-26 09:00,ZBYN 260900Z AUTO 11006KT 6SM 24/18 A2988 RMK SLP089 T02350175 57014 IEM_DS3505
ZBYN,1995-08-26 10:00,ZBYN 261000Z AUTO 12004KT 6SM 23/19 A2985 RMK T02300190 IEM_DS3505
ZBYN,1995-08-26 11:00,ZBYN 261100Z AUTO 10006KT 6SM 21/19 A2985 RMK T02100190 IEM_DS3505
ZBYN,1995-08-26 12:00,ZBYN 261200Z AUTO 34002KT 6SM 20/18 A2988 RMK SLP096 T01970180 52002 IEM_DS3505
ZBYN,1995-08-26 13:00,ZBYN 261300Z AUTO 01004KT 7SM 20/17 A2991 RMK T02000170 IEM_DS3505
ZBYN,1995-08-26 14:00,ZBYN 261400Z AUTO 30004KT 2 1/2SM 20/18 A2991 RMK T02000180 IEM_DS3505
ZBYN,1995-08-26 15:00,ZBYN 261500Z AUTO 32006KT 5SM 19/17 A2991 RMK SLP110 T01880167 52012 IEM_DS3505
ZBYN,1995-08-26 16:00,ZBYN 261600Z AUTO 32006KT 4SM 19/17 A2991 RMK T01900170 IEM_DS3505
ZBYN,1995-08-26 18:00,ZBYN 261800Z AUTO 32004KT 5SM 18/16 A2991 RMK SLP103 T01770164 57003 IEM_DS3505
ZBYN,1995-08-26 19:00,ZBYN 261900Z AUTO 00000KT 4SM 18/17 A2991 RMK T01800170 IEM_DS3505
ZBYN,1995-08-26 21:00,ZBYN 262100Z AUTO 32004KT 5SM 17/16 A2991 RMK 70024 SLP103 T01680160 54000 IEM_DS3505
ZBYN,1995-08-26 22:00,ZBYN 262200Z AUTO 00000KT 1 1/4SM 17/16 A2991 RMK T01700160 IEM_DS3505
ZBYN,1995-08-26 23:00,ZBYN 262300Z AUTO 00000KT 1SM 17/17 A2994 RMK T01700170 IEM_DS3505
ZBYN,1995-08-27 00:00,ZBYN 270000Z AUTO 32004KT 5SM 19/17 A2994 RMK 70024 SLP113 T01890167 52007 IEM_DS3505
ZBYN,1995-08-27 02:00,ZBYN 270200Z AUTO 00000KT 3SM 22/18 A2994 RMK T02200180 IEM_DS3505
ZBYN,1995-08-27 03:00,ZBYN 270300Z AUTO 22004KT 6SM 23/18 A2994 RMK SLP109 T02310177 52001 IEM_DS3505
ZBYN,1995-08-27 04:00,ZBYN 270400Z AUTO 22006KT 5SM 25/18 A2991 RMK T02500180 IEM_DS3505
ZBYN,1995-08-27 05:00,ZBYN 270500Z AUTO 10006KT 4SM 26/18 A2991 RMK T02600180 IEM_DS3505
ZBYN,1995-08-27 06:00,ZBYN 270600Z AUTO 14004KT 6SM 26/19 A2988 RMK SLP093 T02570186 57013 IEM_DS3505
ZBYN,1995-08-27 07:00,ZBYN 270700Z AUTO 10004KT 4SM 27/19 A2985 RMK T02700190 IEM_DS3505
ZBYN,1995-08-27 08:00,ZBYN 270800Z AUTO 23004KT 4SM 27/19 A2985 RMK T02700190 IEM_DS3505
ZBYN,1995-08-27 09:00,ZBYN 270900Z AUTO 22006KT 6SM 26/19 A2985 RMK SLP080 T02610194 57012 IEM_DS3505
ZBYN,1995-08-27 10:00,ZBYN 271000Z AUTO 00000KT 4SM 26/19 A2985 RMK T02600190 IEM_DS3505
ZBYN,1995-08-27 11:00,ZBYN 271100Z AUTO 00000KT 4SM 23/20 A2985 RMK T02300200 IEM_DS3505
ZBYN,1995-08-27 12:00,ZBYN 271200Z AUTO 11002KT 5SM 21/19 A2985 RMK SLP087 T02110194 52002 IEM_DS3505
ZBYN,1995-08-27 13:00,ZBYN 271300Z AUTO 12004KT 3SM 21/19 A2988 RMK T02100190 IEM_DS3505
ZBYN,1995-08-27 14:00,ZBYN 271400Z AUTO 12008KT 3SM 20/18 A2991 RMK T02000180 IEM_DS3505
ZBYN,1995-08-27 15:00,ZBYN 271500Z AUTO 32002KT 5SM 20/18 A2991 RMK SLP099 T01950184 52015 IEM_DS3505
ZBYN,1995-08-27 16:00,ZBYN 271600Z AUTO 12004KT 3SM 19/18 A2991 RMK T01900180 IEM_DS3505
ZBYN,1995-08-27 17:00,ZBYN 271700Z AUTO 00000KT 3SM 19/18 A2991 RMK T01900180 IEM_DS3505
ZBYN,1995-08-27 18:00,ZBYN 271800Z AUTO 32004KT 5SM 18/17 A2991 RMK SLP100 T01850169 52003 IEM_DS3505
ZBYN,1995-08-27 19:00,ZBYN 271900Z AUTO 00000KT 3SM 18/18 A2991 RMK T01800180 IEM_DS3505
ZBYN,1995-08-27 20:00,ZBYN 272000Z AUTO 00000KT 3SM 18/17 A2994 RMK T01800170 IEM_DS3505
ZBYN,1995-08-27 21:00,ZBYN 272100Z AUTO 32004KT 2 1/2SM 17/16 A2991 RMK SLP100 T01730162 57001 IEM_DS3505
ZBYN,1995-08-27 22:00,ZBYN 272200Z AUTO 00000KT 1 1/2SM 17/16 A2994 RMK T01700160 IEM_DS3505
ZBYN,1995-08-27 23:00,ZBYN 272300Z AUTO 00000KT 1 1/2SM 17/17 A2994 RMK T01700170 IEM_DS3505
ZBYN,1995-08-28 00:00,ZBYN 280000Z AUTO 34002KT 4SM 19/16 A2994 RMK SLP115 T01910160 52009 IEM_DS3505
ZBYN,1995-08-28 01:00,ZBYN 280100Z AUTO 00000KT 4SM 21/17 A2994 RMK T02100170 IEM_DS3505
ZBYN,1995-08-28 02:00,ZBYN 280200Z AUTO 31004KT 5SM 23/18 A2994 RMK T02300180 IEM_DS3505
ZBYN,1995-08-28 03:00,ZBYN 280300Z AUTO 34002KT 4SM 23/18 A2994 RMK SLP108 T02300177 57003 IEM_DS3505
ZBYN,1995-08-28 04:00,ZBYN 280400Z AUTO 00000KT 6SM 25/19 A2991 RMK T02500190 IEM_DS3505
ZBYN,1995-08-28 05:00,ZBYN 280500Z AUTO 31004KT 6SM 27/19 A2988 RMK T02700190 IEM_DS3505
ZBYN,1995-08-28 06:00,ZBYN 280600Z AUTO 32004KT 4SM 25/19 A2988 RMK SLP091 T02530188 57014 IEM_DS3505
ZBYN,1995-08-28 07:00,ZBYN 280700Z AUTO 30008KT 6SM 26/20 A2988 RMK T02600200 IEM_DS3505
ZBYN,1995-08-28 08:00,ZBYN 280800Z AUTO 36006KT 6SM 26/20 A2985 RMK T02600200 IEM_DS3505
ZBYN,1995-08-28 09:00,ZBYN 280900Z AUTO 32004KT 4SM 24/20 A2985 RMK SLP087 T02410195 57007 IEM_DS3505
ZBYN,1995-08-28 10:00,ZBYN 281000Z AUTO 27006KT 6SM 25/20 A2988 RMK T02500200 IEM_DS3505
ZBYN,1995-08-28 11:00,ZBYN 281100Z AUTO 21017KT 7SM 23/20 A2988 RMK T02300200 IEM_DS3505
ZBYN,1995-08-28 12:00,ZBYN 281200Z AUTO 25012KT 4SM 20/17 A2994 RMK 60002 SLP107 T01970168 52015 IEM_DS3505
ZBYN,1995-08-28 13:00,ZBYN 281300Z AUTO 11006KT 7SM 19/19 A2997 RMK T01900190 IEM_DS3505
ZBYN,1995-08-28 14:00,ZBYN 281400Z AUTO 10006KT 7SM 19/19 A2997 RMK T01900190 IEM_DS3505
ZBYN,1995-08-28 15:00,ZBYN 281500Z AUTO 32004KT 2 1/2SM 18/18 A2994 RMK SLP116 T01850180 52012 IEM_DS3505
ZBYN,1995-08-28 16:00,ZBYN 281600Z AUTO 00000KT 7SM 19/18 A2994 RMK T01900180 IEM_DS3505
ZBYN,1995-08-28 17:00,ZBYN 281700Z AUTO 26006KT 7SM 19/18 A2994 RMK T01900180 IEM_DS3505
ZBYN,1995-08-28 18:00,ZBYN 281800Z AUTO 18004KT 4SM 19/18 A2994 RMK 60008 SLP104 T01900180 57008 IEM_DS3505
ZBYN,1995-08-28 19:00,ZBYN 281900Z AUTO 00000KT 7SM 19/18 A2991 RMK T01900180 IEM_DS3505
ZBYN,1995-08-28 20:00,ZBYN 282000Z AUTO 00000KT 7SM 18/18 A2991 RMK T01800180 IEM_DS3505
ZBYN,1995-08-28 21:00,ZBYN 282100Z AUTO 32004KT 4SM 18/17 A2991 RMK 70012 SLP103 T01790173 57003 IEM_DS3505
ZBYN,1995-08-28 22:00,ZBYN 282200Z AUTO 00000KT 7SM 18/17 A2991 RMK T01800170 IEM_DS3505
ZBYN,1995-08-28 23:00,ZBYN 282300Z AUTO 00000KT 7SM 17/17 A2991 RMK T01700170 IEM_DS3505
ZBYN,1995-08-29 00:00,ZBYN 290000Z AUTO 32004KT 4SM 18/17 A2991 RMK 60008 70016 SLP111 T01770172 54000 IEM_DS3505
ZBYN,1995-08-29 01:00,ZBYN 290100Z AUTO 09002KT 3SM 18/17 A2991 RMK T01800170 IEM_DS3505
ZBYN,1995-08-29 02:00,ZBYN 290200Z AUTO 01004KT 4SM 18/17 A2991 RMK T01800170 IEM_DS3505
ZBYN,1995-08-29 03:00,ZBYN 290300Z AUTO 32004KT 4SM 18/17 A2991 RMK SLP111 T01790171 57001 IEM_DS3505
ZBYN,1995-08-29 04:00,ZBYN 290400Z AUTO 01002KT 6SM 19/18 A2988 RMK T01900180 IEM_DS3505
ZBYN,1995-08-29 05:00,ZBYN 290500Z AUTO 00000KT 6SM 21/18 A2988 RMK T02100180 IEM_DS3505
ZBYN,1995-08-29 06:00,ZBYN 290600Z AUTO 32004KT 5SM 21/17 A2988 RMK 60024 SLP094 T02100167 57012 IEM_DS3505
ZBYN,1995-08-29 07:00,ZBYN 290700Z AUTO 33006KT 5SM 21/17 A2985 RMK T02100170 IEM_DS3505
ZBYN,1995-08-29 08:00,ZBYN 290800Z AUTO 00000KT 7SM 22/19 A2985 RMK T02200190 IEM_DS3505
ZBYN,1995-08-29 09:00,ZBYN 290900Z AUTO 29002KT 6SM 23/17 A2985 RMK SLP080 T02270173 57010 IEM_DS3505
ZBYN,1995-08-29 10:00,ZBYN 291000Z AUTO 00000KT 7SM 23/20 A2983 RMK T02300200 IEM_DS3505
ZBYN,1995-08-29 11:00,ZBYN 291100Z AUTO 08004KT 7SM 22/19 A2985 RMK T02200190 IEM_DS3505
ZBYN,1995-08-29 12:00,ZBYN 291200Z AUTO 20002KT 6SM 20/19 A2985 RMK SLP086 T02010187 52001 IEM_DS3505
ZBYN,1995-08-29 13:00,ZBYN 291300Z AUTO 07006KT 7SM 19/18 A2988 RMK T01900180 IEM_DS3505
ZBYN,1995-08-29 14:00,ZBYN 291400Z AUTO 09004KT 6SM 18/17 A2988 RMK T01800170 IEM_DS3505
ZBYN,1995-08-29 15:00,ZBYN 291500Z AUTO 00000KT 7SM 18/17 A2988 RMK SLP100 T01800170 52010 IEM_DS3505
ZBYN,1995-08-29 16:00,ZBYN 291600Z AUTO 07004KT 5SM 18/17 A2988 RMK T01800170 IEM_DS3505
ZBYN,1995-08-29 17:00,ZBYN 291700Z AUTO 07004KT 5SM 18/18 A2988 RMK T01800180 IEM_DS3505
ZBYN,1995-08-29 18:00,ZBYN 291800Z AUTO 32004KT 6SM 19/17 A2988 RMK SLP095 T01880171 52001 IEM_DS3505
ZBYN,1995-08-29 19:00,ZBYN 291900Z AUTO 02004KT 5SM 18/17 A2988 RMK T01800170 IEM_DS3505
ZBYN,1995-08-29 20:00,ZBYN 292000Z AUTO 02004KT 5SM 17/17 A2988 RMK T01700170 IEM_DS3505
ZBYN,1995-08-29 21:00,ZBYN 292100Z AUTO 32004KT 4SM 17/16 A2988 RMK 70028 SLP093 T01710160 57002 IEM_DS3505
ZBYN,1995-08-29 22:00,ZBYN 292200Z AUTO 00000KT 2SM 17/16 A2988 RMK T01700160 IEM_DS3505
ZBYN,1995-08-29 23:00,ZBYN 292300Z AUTO 36004KT 1 1/2SM 17/17 A2988 RMK T01700170 IEM_DS3505
ZBYN,1995-08-30 00:00,ZBYN 300000Z AUTO 32002KT 4SM 19/16 A2988 RMK 70024 SLP095 T01860164 52001 IEM_DS3505
ZBYN,1995-08-30 01:00,ZBYN 300100Z AUTO 00000KT 3SM 21/18 A2988 RMK T02100180 IEM_DS3505
ZBYN,1995-08-30 02:00,ZBYN 300200Z AUTO 31004KT 6SM 23/18 A2991 RMK T02300180 IEM_DS3505
ZBYN,1995-08-30 03:00,ZBYN 300300Z AUTO 36004KT 6SM 24/17 A2988 RMK SLP097 T02390172 52006 IEM_DS3505
ZBYN,1995-08-30 04:00,ZBYN 300400Z AUTO 20006KT 7SM 26/19 A2988 RMK T02600190 IEM_DS3505
ZBYN,1995-08-30 05:00,ZBYN 300500Z AUTO 07004KT 7SM 27/19 A2988 RMK T02700190 IEM_DS3505
ZBYN,1995-08-30 06:00,ZBYN 300600Z AUTO 00000KT 6SM 27/19 A2985 RMK SLP081 T02660188 57010 IEM_DS3505
ZBYN,1995-08-30 07:00,ZBYN 300700Z AUTO 18004KT 7SM 28/19 A2985 RMK T02800190 IEM_DS3505
ZBYN,1995-08-30 08:00,ZBYN 300800Z AUTO 21006KT 7SM 28/19 A2985 RMK T02800190 IEM_DS3505
ZBYN,1995-08-30 09:00,ZBYN 300900Z AUTO 18004KT 7SM 26/20 A2985 RMK SLP077 T02570198 57007 IEM_DS3505
ZBYN,1995-08-30 12:00,ZBYN 301200Z AUTO 07008KT 6SM 23/18 A2987 RMK SLP088 T02280182 52008 IEM_DS3505
ZBYN,1995-08-30 14:00,ZBYN 301400Z AUTO 08006KT 6SM 21/19 A2991 RMK T02100190 IEM_DS3505
ZBYN,1995-08-30 15:00,ZBYN 301500Z AUTO 09008KT 6SM 22/17 A2991 RMK SLP090 T02180173 52008 IEM_DS3505
ZBYN,1995-08-30 18:00,ZBYN 301800Z AUTO 00000KT 5SM 21/18 A2990 RMK SLP087 T02110178 54000 IEM_DS3505
ZBYN,1995-08-30 21:00,ZBYN 302100Z AUTO 34004KT 3SM 19/18 RMK 70012 SLP087 T01890181 57004 IEM_DS3505
ZBYN,1995-08-30 22:00,ZBYN 302200Z AUTO 06006KT 7SM 19/19 A2988 RMK T01900190 IEM_DS3505
ZBYN,1995-08-30 23:00,ZBYN 302300Z AUTO 03006KT 5SM 18/18 A2988 RMK T01800180 IEM_DS3505
ZBYN,1995-08-31 00:00,ZBYN 310000Z AUTO 32004KT 3SM 17/17 A2991 RMK 60114 70110 SLP099 T01740171 52004 IEM_DS3505
ZBYN,1995-08-31 01:00,ZBYN 310100Z AUTO 07012KT 7SM 18/18 A2988 RMK T01800180 IEM_DS3505
ZBYN,1995-08-31 02:00,ZBYN 310200Z AUTO 06012KT 7SM 18/18 A2988 RMK T01800180 IEM_DS3505
ZBYN,1995-08-31 03:00,ZBYN 310300Z AUTO 32004KT 3SM 18/18 A2988 RMK SLP098 T01790176 57001 IEM_DS3505
ZBYN,1995-08-31 04:00,ZBYN 310400Z AUTO 00000KT 7SM 19/18 A2988 RMK T01900180 IEM_DS3505
ZBYN,1995-08-31 05:00,ZBYN 310500Z AUTO 00000KT 1 1/2SM 19/18 A2988 RMK T01900180 IEM_DS3505
ZBYN,1995-08-31 06:00,ZBYN 310600Z AUTO 34004KT 3SM 18/18 A2985 RMK 60063 SLP091 T01850182 57007 IEM_DS3505
ZBYN,1995-08-31 07:00,ZBYN 310700Z AUTO 32004KT 1 1/2SM 19/19 A2985 RMK T01900190 IEM_DS3505
ZBYN,1995-08-31 08:00,ZBYN 310800Z AUTO 00000KT 1 1/2SM 19/19 A2985 RMK T01900190 IEM_DS3505
ZBYN,1995-08-31 09:00,ZBYN 310900Z AUTO 32004KT 3SM 19/18 A2985 RMK SLP088 T01870184 57005 IEM_DS3505
ZBYN,1995-08-31 10:00,ZBYN 311000Z AUTO 31004KT 1 1/2SM 19/19 A2985 RMK T01900190 IEM_DS3505
ZBYN,1995-08-31 11:00,ZBYN 311100Z AUTO 36002KT 2SM 20/18 A2985 RMK T02000180 IEM_DS3505
ZBYN,1995-08-31 12:00,ZBYN 311200Z AUTO 32004KT 4SM 19/18 A2985 RMK 60016 SLP094 T01880183 52003 IEM_DS3505
ZBYN,1995-08-31 13:00,ZBYN 311300Z AUTO 36008KT 2SM 19/19 A2988 RMK T01900190 IEM_DS3505
ZBYN,1995-08-31 14:00,ZBYN 311400Z AUTO 05008KT 2SM 19/19 A2988 RMK T01900190 IEM_DS3505
ZBYN,1995-08-31 15:00,ZBYN 311500Z AUTO 36002KT 5SM 18/18 A2988 RMK SLP098 T01850180 52004 IEM_DS3505
ZBYN,1995-08-31 16:00,ZBYN 311600Z AUTO 36006KT 2 1/2SM 19/18 A2988 RMK T01900180 IEM_DS3505
ZBYN,1995-08-31 17:00,ZBYN 311700Z AUTO 00000KT 2 1/2SM 19/18 A2988 RMK T01900180 IEM_DS3505
ZBYN,1995-08-31 18:00,ZBYN 311800Z AUTO 32004KT 5SM 18/17 A2988 RMK 60004 SLP094 T01840171 57003 IEM_DS3505
ZBYN,1995-08-31 19:00,ZBYN 311900Z AUTO 02004KT 2 1/2SM 18/18 A2985 RMK T01800180 IEM_DS3505
ZBYN,1995-08-31 20:00,ZBYN 312000Z AUTO 32004KT 5SM 18/18 A2985 RMK T01800180 IEM_DS3505
ZBYN,1995-08-31 21:00,ZBYN 312100Z AUTO 00000KT 5SM 18/18 A2985 RMK 70185 SLP087 T01830175 57006 IEM_DS3505
ZBYN,1995-08-31 22:00,ZBYN 312200Z AUTO 00000KT 5SM 18/18 A2985 RMK T01800180 IEM_DS3505
ZBYN,1995-08-31 23:00,ZBYN 312300Z AUTO 21004KT 4SM 18/18 A2985 RMK T01800180 IEM_DS3505
ZBYN,1995-09-01 00:00,ZBYN 010000Z AUTO 00000KT 5SM 19/18 A2985 RMK 60001 70083 SLP091 T01890181 52005 IEM_DS3505
ZBYN,1995-09-01 01:00,ZBYN 010100Z AUTO 19002KT 7SM 19/18 A2988 RMK T01900180 IEM_DS3505
ZBYN,1995-09-01 02:00,ZBYN 010200Z AUTO 00000KT 7SM 20/19 A2988 RMK T02000190 IEM_DS3505
ZBYN,1995-09-01 03:00,ZBYN 010300Z AUTO 09002KT 5SM 20/19 A2985 RMK SLP091 T02040189 52001 IEM_DS3505
ZBYN,1995-09-01 04:00,ZBYN 010400Z AUTO 11004KT 4SM 24/20 A2985 RMK T02400200 IEM_DS3505
ZBYN,1995-09-01 05:00,ZBYN 010500Z AUTO 20006KT 5SM 25/21 A2985 RMK T02500210 IEM_DS3505
ZBYN,1995-09-01 06:00,ZBYN 010600Z AUTO 18008KT 5SM 26/21 A2983 RMK SLP069 T02580213 57012 IEM_DS3505
ZBYN,1995-09-01 08:00,ZBYN 010800Z AUTO 16008KT 4SM 27/22 A2980 RMK T02700220 IEM_DS3505
ZBYN,1995-09-01 09:00,ZBYN 010900Z AUTO 16002KT 5SM 26/22 A2980 RMK SLP062 T02570223 57007 IEM_DS3505
ZBYN,1995-09-01 10:00,ZBYN 011000Z AUTO 15002KT 4SM 25/23 A2980 RMK T02500230 IEM_DS3505
ZBYN,1995-09-01 11:00,ZBYN 011100Z AUTO 15004KT 3SM 25/23 A2983 RMK T02500230 IEM_DS3505
ZBYN,1995-09-01 12:00,ZBYN 011200Z AUTO 32002KT 5SM 23/22 A2983 RMK SLP072 T02320216 52006 IEM_DS3505
ZBYN,1995-09-01 15:00,ZBYN 011500Z AUTO 32004KT 5SM 21/20 A2985 RMK SLP083 T02140197 52010 IEM_DS3505
ZBYN,1995-09-01 16:00,ZBYN 011600Z AUTO 31006KT 3SM 22/20 A2985 RMK T02200200 IEM_DS3505
ZBYN,1995-09-01 17:00,ZBYN 011700Z AUTO 31008KT 4SM 21/20 A2985 RMK T02100200 IEM_DS3505
ZBYN,1995-09-01 18:00,ZBYN 011800Z AUTO 34004KT 5SM 21/19 A2983 RMK SLP066 T02070192 57009 IEM_DS3505
ZBYN,1995-09-01 21:00,ZBYN 012100Z AUTO 32006KT 5SM 21/19 RMK 70001 SLP066 T02060192 54000 IEM_DS3505
ZBYN,1995-09-01 22:00,ZBYN 012200Z AUTO 00000KT 4SM 21/20 A2985 RMK T02100200 IEM_DS3505
ZBYN,1995-09-01 23:00,ZBYN 012300Z AUTO 00000KT 3SM 21/20 A2985 RMK T02100200 IEM_DS3505
ZBYN,1995-09-02 00:00,ZBYN 020000Z AUTO 32006KT 4SM 21/20 A2985 RMK 60000 70001 SLP080 T02060197 52009 IEM_DS3505
ZBYN,1995-09-02 01:00,ZBYN 020100Z AUTO 33004KT 2 1/2SM 22/20 A2985 RMK T02200200 IEM_DS3505
ZBYN,1995-09-02 03:00,ZBYN 020300Z AUTO 32004KT 5SM 23/21 RMK SLP083 T02280207 52003 IEM_DS3505
ZBYN,1995-09-02 06:00,ZBYN 020600Z AUTO 34006KT 6SM 26/22 A2980 RMK SLP059 T02620220 57018 IEM_DS3505
ZBYN,1995-09-02 07:00,ZBYN 020700Z AUTO 34010KT 5SM 28/22 A2980 RMK T02800220 IEM_DS3505
ZBYN,1995-09-02 08:00,ZBYN 020800Z AUTO 06008KT 7SM 27/23 A2977 RMK T02700230 IEM_DS3505
ZBYN,1995-09-02 09:00,ZBYN 020900Z AUTO 32004KT 6SM 23/20 A2980 RMK SLP056 T02340204 57007 IEM_DS3505
ZBYN,1995-09-02 10:00,ZBYN 021000Z AUTO 08008KT 6SM 25/21 A2980 RMK T02500210 IEM_DS3505
ZBYN,1995-09-02 11:00,ZBYN 021100Z AUTO 06010KT 6SM 23/20 A2983 RMK T02300200 IEM_DS3505
ZBYN,1995-09-02 12:00,ZBYN 021200Z AUTO 32004KT 5SM 22/20 A2983 RMK SLP069 T02170196 52010 IEM_DS3505
ZBYN,1995-09-02 13:00,ZBYN 021300Z AUTO 36004KT 5SM 22/20 A2983 RMK T02200200 IEM_DS3505
ZBYN,1995-09-02 14:00,ZBYN 021400Z AUTO 00000KT 5SM 22/20 A2983 RMK T02200200 IEM_DS3505
ZBYN,1995-09-02 15:00,ZBYN 021500Z AUTO 34002KT 5SM 21/19 A2983 RMK SLP070 T02130193 52003 IEM_DS3505
ZBYN,1995-09-02 18:00,ZBYN 021800Z AUTO 34004KT 5SM 21/19 A2980 RMK SLP051 T02130187 57012 IEM_DS3505
ZBYN,1995-09-02 21:00,ZBYN 022100Z AUTO 34002KT 5SM 21/18 RMK 70001 SLP046 T02090184 57009 IEM_DS3505
ZBYN,1995-09-02 22:00,ZBYN 022200Z AUTO 08004KT 7SM 21/19 A2980 RMK T02100190 IEM_DS3505
ZBYN,1995-09-02 23:00,ZBYN 022300Z AUTO 07006KT 7SM 21/18 A2983 RMK T02100180 IEM_DS3505
ZBYN,1995-09-03 00:00,ZBYN 030000Z AUTO 34004KT 6SM 20/18 A2983 RMK SLP073 T01990180 52021 IEM_DS3505
ZBYN,1995-09-03 01:00,ZBYN 030100Z AUTO 09008KT 7SM 20/17 A2985 RMK T02000170 IEM_DS3505
ZBYN,1995-09-03 02:00,ZBYN 030200Z AUTO 05008KT 7SM 20/17 A2985 RMK T02000170 IEM_DS3505
ZBYN,1995-09-03 03:00,ZBYN 030300Z AUTO 00000KT 6SM 21/18 A2988 RMK SLP085 T02090183 52011 IEM_DS3505
ZBYN,1995-09-03 04:00,ZBYN 030400Z AUTO 03008KT 7SM 20/17 A2985 RMK T02000170 IEM_DS3505
ZBYN,1995-09-03 05:00,ZBYN 030500Z AUTO 06014KT 7SM 20/17 A2985 RMK T02000170 IEM_DS3505
ZBYN,1995-09-03 06:00,ZBYN 030600Z AUTO 04008KT 6SM 20/16 A2985 RMK SLP085 T02030158 54000 IEM_DS3505
ZBYN,1995-09-03 07:00,ZBYN 030700Z AUTO ////14KT 7SM 20/17 A2985 RMK T02000170 IEM_DS3505
ZBYN,1995-09-03 08:00,ZBYN 030800Z AUTO ////14KT 7SM 19/17 A2983 RMK T01900170 IEM_DS3505
ZBYN,1995-09-03 09:00,ZBYN 030900Z AUTO 04006KT 9SM 20/16 A2985 RMK SLP084 T01970157 57003 IEM_DS3505
ZBYN,1995-09-03 10:00,ZBYN 031000Z AUTO ////12KT 7SM 19/16 A2985 RMK T01900160 IEM_DS3505
ZBYN,1995-09-03 11:00,ZBYN 031100Z AUTO 06012KT 7SM 18/16 A2985 RMK T01800160 IEM_DS3505
ZBYN,1995-09-03 12:00,ZBYN 031200Z AUTO 34004KT 6SM 18/17 A2988 RMK 60002 SLP098 T01770171 52009 IEM_DS3505
ZBYN,1995-09-03 13:00,ZBYN 031300Z AUTO 00000KT 7SM 18/17 A2988 RMK T01800170 IEM_DS3505
ZBYN,1995-09-03 14:00,ZBYN 031400Z AUTO 30006KT 7SM 18/17 A2988 RMK T01800170 IEM_DS3505
ZBYN,1995-09-03 15:00,ZBYN 031500Z AUTO 29004KT 5SM 17/16 RMK SLP094 T01700165 57003 IEM_DS3505
ZBYN,1995-09-03 18:00,ZBYN 031800Z AUTO 32004KT 4SM 16/16 A2986 RMK 60047 SLP089 T01640162 57007 IEM_DS3505
ZBYN,1995-09-03 21:00,ZBYN 032100Z AUTO 34004KT 4SM 16/16 RMK 70110 SLP083 T01600158 57007 IEM_DS3505
ZBYN,1995-09-03 23:00,ZBYN 032300Z AUTO 00000KT 2SM 16/16 A2983 RMK T01600160 IEM_DS3505
ZBYN,1995-09-04 00:00,ZBYN 040000Z AUTO 32004KT 4SM 16/16 A2985 RMK 60083 70134 T01620159 52005 IEM_DS3505
ZBYN,1995-09-04 01:00,ZBYN 040100Z AUTO 36004KT 2SM 17/16 A2985 RMK T01700160 IEM_DS3505
ZBYN,1995-09-04 02:00,ZBYN 040200Z AUTO 32004KT 2 1/2SM 17/16 A2985 RMK T01700160 IEM_DS3505
ZBYN,1995-09-04 03:00,ZBYN 040300Z AUTO 36004KT 4SM 17/17 A2985 RMK SLP094 T01720166 52003 IEM_DS3505
ZBYN,1995-09-04 04:00,ZBYN 040400Z AUTO 00000KT 4SM 18/18 A2983 RMK T01800180 IEM_DS3505
ZBYN,1995-09-04 05:00,ZBYN 040500Z AUTO 32004KT 7SM 19/17 A2983 RMK T01900170 IEM_DS3505
ZBYN,1995-09-04 06:00,ZBYN 040600Z AUTO 00000KT 6SM 19/17 A2980 RMK 60016 SLP078 T01900173 57013 IEM_DS3505
ZBYN,1995-09-04 07:00,ZBYN 040700Z AUTO 07010KT 7SM 19/18 A2980 RMK T01900180 IEM_DS3505
ZBYN,1995-09-04 08:00,ZBYN 040800Z AUTO 07008KT 7SM 19/17 A2980 RMK T01900170 IEM_DS3505
ZBYN,1995-09-04 09:00,ZBYN 040900Z AUTO 36002KT 5SM 19/17 A2980 RMK SLP075 T01900169 57003 IEM_DS3505
ZBYN,1995-09-04 10:00,ZBYN 041000Z AUTO 07012KT 7SM 18/17 A2980 RMK T01800170 IEM_DS3505
ZBYN,1995-09-04 11:00,ZBYN 041100Z AUTO 10004KT 7SM 17/16 A2980 RMK T01700160 IEM_DS3505
ZBYN,1995-09-04 12:00,ZBYN 041200Z AUTO 14004KT 5SM 18/16 A2980 RMK SLP076 T01790165 54000 IEM_DS3505
ZBYN,1995-09-04 13:00,ZBYN 041300Z AUTO 10004KT 7SM 17/16 A2983 RMK T01700160 IEM_DS3505
ZBYN,1995-09-04 15:00,ZBYN 041500Z AUTO 29004KT 5SM 18/16 A2983 RMK SLP076 T01770159 52001 IEM_DS3505
ZBYN,1995-09-04 16:00,ZBYN 041600Z AUTO 00000KT 7SM 18/17 A2983 RMK T01800170 IEM_DS3505
ZBYN,1995-09-04 17:00,ZBYN 041700Z AUTO 00000KT 7SM 18/17 A2980 RMK T01800170 IEM_DS3505
ZBYN,1995-09-04 18:00,ZBYN 041800Z AUTO 32004KT 5SM 18/16 A2977 RMK SLP064 T01760161 57009 IEM_DS3505
ZBYN,1995-09-04 19:00,ZBYN 041900Z AUTO 00000KT 7SM 17/16 A2977 RMK T01700160 IEM_DS3505
ZBYN,1995-09-04 20:00,ZBYN 042000Z AUTO 00000KT 7SM 17/16 A2977 RMK T01700160 IEM_DS3505
ZBYN,1995-09-04 21:00,ZBYN 042100Z AUTO 00000KT 5SM 18/16 A2977 RMK 70035 SLP056 T01750162 57007 IEM_DS3505
ZBYN,1995-09-04 22:00,ZBYN 042200Z AUTO 00000KT 7SM 17/16 A2977 RMK T01700160 IEM_DS3505
ZBYN,1995-09-04 23:00,ZBYN 042300Z AUTO 00000KT 5SM 17/16 A2980 RMK T01700160 IEM_DS3505
ZBYN,1995-09-05 00:00,ZBYN 050000Z AUTO 00000KT 5SM 18/16 A2977 RMK 70016 SLP063 T01770161 52005 IEM_DS3505
ZBYN,1995-09-05 01:00,ZBYN 050100Z AUTO 15004KT 7SM 18/15 A2977 RMK T01800150 IEM_DS3505
ZBYN,1995-09-05 02:00,ZBYN 050200Z AUTO 00000KT 6SM 19/14 A2977 RMK T01900140 IEM_DS3505
ZBYN,1995-09-05 03:00,ZBYN 050300Z AUTO 00000KT 5SM 20/16 A2977 RMK SLP058 T02030158 57001 IEM_DS3505
ZBYN,1995-09-05 04:00,ZBYN 050400Z AUTO 00000KT 7SM 23/17 A2974 RMK T02300170 IEM_DS3505
ZBYN,1995-09-05 05:00,ZBYN 050500Z AUTO 24004KT 7SM 23/18 A2971 RMK T02300180 IEM_DS3505
ZBYN,1995-09-05 06:00,ZBYN 050600Z AUTO 32002KT 6SM 22/18 A2971 RMK SLP033 T02230180 57020 IEM_DS3505
ZBYN,1995-09-05 07:00,ZBYN 050700Z AUTO 12004KT 7SM 24/19 A2968 RMK T02400190 IEM_DS3505
ZBYN,1995-09-05 08:00,ZBYN 050800Z AUTO 06004KT 7SM 24/20 A2965 RMK T02400200 IEM_DS3505
ZBYN,1995-09-05 09:00,ZBYN 050900Z AUTO 00000KT 5SM 24/19 A2965 RMK SLP015 T02380193 57015 IEM_DS3505
ZBYN,1995-09-05 10:00,ZBYN 051000Z AUTO 00000KT 7SM 22/20 A2965 RMK T02200200 IEM_DS3505
ZBYN,1995-09-05 11:00,ZBYN 051100Z AUTO 31008KT 7SM 23/20 A2965 RMK T02300200 IEM_DS3505
ZBYN,1995-09-05 12:00,ZBYN 051200Z AUTO 32004KT 5SM 21/19 A2965 RMK SLP022 T02130193 52003 IEM_DS3505
ZBYN,1995-09-05 13:00,ZBYN 051300Z AUTO 16004KT 4SM 22/20 A2968 RMK T02200200 IEM_DS3505
ZBYN,1995-09-05 14:00,ZBYN 051400Z AUTO 09004KT 3SM 21/19 A2968 RMK T02100190 IEM_DS3505
ZBYN,1995-09-05 15:00,ZBYN 051500Z AUTO 32004KT 5SM 20/19 A2968 RMK SLP028 T02040190 52008 IEM_DS3505
ZBYN,1995-09-05 16:00,ZBYN 051600Z AUTO 32004KT 4SM 21/19 A2968 RMK T02100190 IEM_DS3505
ZBYN,1995-09-05 17:00,ZBYN 051700Z AUTO 32004KT 4SM 20/19 A2968 RMK T02000190 IEM_DS3505
ZBYN,1995-09-05 18:00,ZBYN 051800Z AUTO 36004KT 5SM 20/19 A2965 RMK SLP019 T01970186 57006 IEM_DS3505
ZBYN,1995-09-05 19:00,ZBYN 051900Z AUTO 00000KT 4SM 20/18 A2965 RMK T02000180 IEM_DS3505
ZBYN,1995-09-05 20:00,ZBYN 052000Z AUTO 00000KT 4SM 20/19 A2965 RMK T02000190 IEM_DS3505
ZBYN,1995-09-05 21:00,ZBYN 052100Z AUTO 00000KT 5SM 20/19 A2965 RMK SLP007 T01970189 57009 IEM_DS3505
ZBYN,1995-09-05 22:00,ZBYN 052200Z AUTO 18004KT 2 1/2SM 20/19 A2965 RMK T02000190 IEM_DS3505
ZBYN,1995-09-05 23:00,ZBYN 052300Z AUTO 09006KT 4SM 20/19 A2968 RMK T02000190 IEM_DS3505
ZBYN,1995-09-06 00:00,ZBYN 060000Z AUTO 00000KT 5SM 20/19 A2968 RMK SLP022 T02020194 52011 IEM_DS3505
ZBYN,1995-09-06 01:00,ZBYN 060100Z AUTO 10006KT 5SM 20/19 A2968 RMK T02000190 IEM_DS3505
ZBYN,1995-09-06 02:00,ZBYN 060200Z AUTO 10006KT 7SM 21/19 A2971 RMK T02100190 IEM_DS3505
ZBYN,1995-09-06 03:00,ZBYN 060300Z AUTO 11004KT 5SM 22/19 A2971 RMK SLP032 T02180194 52010 IEM_DS3505
ZBYN,1995-09-06 04:00,ZBYN 060400Z AUTO 09012KT 6SM 22/19 A2971 RMK T02200190 IEM_DS3505
ZBYN,1995-09-06 05:00,ZBYN 060500Z AUTO 06010KT 6SM 23/19 A2971 RMK T02300190 IEM_DS3505
ZBYN,1995-09-06 06:00,ZBYN 060600Z AUTO 09006KT 6SM 23/19 A2968 RMK SLP023 T02310189 57007 IEM_DS3505
ZBYN,1995-09-06 07:00,ZBYN 060700Z AUTO 09008KT 7SM 21/17 A2968 RMK T02100170 IEM_DS3505
ZBYN,1995-09-06 08:00,ZBYN 060800Z AUTO 09012KT 7SM 21/18 A2968 RMK T02100180 IEM_DS3505
ZBYN,1995-09-06 09:00,ZBYN 060900Z AUTO 29004KT 5SM 21/17 A2971 RMK SLP037 T02060173 52009 IEM_DS3505
ZBYN,1995-09-06 10:00,ZBYN 061000Z AUTO 05010KT 7SM 19/16 A2974 RMK T01900160 IEM_DS3505
ZBYN,1995-09-06 11:00,ZBYN 061100Z AUTO 05010KT 7SM 18/16 A2974 RMK T01800160 IEM_DS3505
ZBYN,1995-09-06 12:00,ZBYN 061200Z AUTO 36004KT 5SM 19/16 A2977 RMK SLP055 T01900161 52015 IEM_DS3505
ZBYN,1995-09-06 13:00,ZBYN 061300Z AUTO 05008KT 7SM 18/16 A2980 RMK T01800160 IEM_DS3505
ZBYN,1995-09-06 14:00,ZBYN 061400Z AUTO 08006KT 7SM 17/16 A2983 RMK T01700160 IEM_DS3505
ZBYN,1995-09-06 15:00,ZBYN 061500Z AUTO 34002KT 5SM 17/16 A2985 RMK SLP079 T01660159 52021 IEM_DS3505
ZBYN,1995-09-06 16:00,ZBYN 061600Z AUTO 10008KT 7SM 15/15 A2985 RMK T01500150 IEM_DS3505
ZBYN,1995-09-06 17:00,ZBYN 061700Z AUTO 06006KT 7SM 15/14 A2985 RMK T01500140 IEM_DS3505
ZBYN,1995-09-06 18:00,ZBYN 061800Z AUTO 00000KT 5SM 16/15 A2985 RMK 60008 SLP084 T01600147 52005 IEM_DS3505
ZBYN,1995-09-06 19:00,ZBYN 061900Z AUTO 09006KT 7SM 15/13 A2985 RMK T01500130 IEM_DS3505
ZBYN,1995-09-06 20:00,ZBYN 062000Z AUTO 10004KT 7SM 15/13 A2988 RMK T01500130 IEM_DS3505
ZBYN,1995-09-06 21:00,ZBYN 062100Z AUTO 29004KT 5SM 15/14 A2988 RMK 70012 SLP100 T01490137 52010 IEM_DS3505
ZBYN,1995-09-06 22:00,ZBYN 062200Z AUTO 09006KT 7SM 14/14 A2991 RMK T01400140 IEM_DS3505
ZBYN,1995-09-06 23:00,ZBYN 062300Z AUTO 09004KT 7SM 15/14 A2994 RMK T01500140 IEM_DS3505
ZBYN,1995-09-07 00:00,ZBYN 070000Z AUTO 34004KT 5SM 15/14 A2997 RMK 60004 70012 SLP126 T01490139 52021 IEM_DS3505
ZBYN,1995-09-07 01:00,ZBYN 070100Z AUTO 00000KT 5SM 15/14 A3000 RMK T01500140 IEM_DS3505
ZBYN,1995-09-07 02:00,ZBYN 070200Z AUTO 00000KT 5SM 15/14 A3003 RMK T01500140 IEM_DS3505
ZBYN,1995-09-07 03:00,ZBYN 070300Z AUTO 29002KT 5SM 15/14 A3003 RMK SLP155 T01540144 52024 IEM_DS3505
ZBYN,1995-09-07 04:00,ZBYN 070400Z AUTO 00000KT 7SM 17/16 A3003 RMK T01700160 IEM_DS3505
ZBYN,1995-09-07 05:00,ZBYN 070500Z AUTO 09006KT 7SM 16/15 A3003 RMK T01600150 IEM_DS3505
ZBYN,1995-09-07 06:00,ZBYN 070600Z AUTO 00000KT 5SM 16/15 A3003 RMK 60028 SLP155 T01590149 54000 IEM_DS3505
ZBYN,1995-09-07 07:00,ZBYN 070700Z AUTO 09008KT 7SM 15/14 A3003 RMK T01500140 IEM_DS3505
ZBYN,1995-09-07 08:00,ZBYN 070800Z AUTO 10010KT 7SM 14/13 A3006 RMK T01400130 IEM_DS3505
ZBYN,1995-09-07 09:00,ZBYN 070900Z AUTO 11008KT 6SM 14/12 A3006 RMK SLP171 T01440123 52010 IEM_DS3505
ZBYN,1995-09-07 10:00,ZBYN 071000Z AUTO 09010KT 7SM 14/13 A3009 RMK T01400130 IEM_DS3505
ZBYN,1995-09-07 11:00,ZBYN 071100Z AUTO 09006KT 7SM 13/13 A3012 RMK T01300130 IEM_DS3505
ZBYN,1995-09-07 12:00,ZBYN 071200Z AUTO 09006KT 6SM 13/12 A3012 RMK 60000 SLP189 T01300119 52015 IEM_DS3505
ZBYN,1995-09-07 13:00,ZBYN 071300Z AUTO 08006KT 7SM 13/13 A3012 RMK T01300130 IEM_DS3505
ZBYN,1995-09-07 14:00,ZBYN 071400Z AUTO 08004KT 7SM 13/13 A3012 RMK T01300130 IEM_DS3505
ZBYN,1995-09-07 15:00,ZBYN 071500Z AUTO 00000KT 6SM 13/12 RMK SLP194 T01310124 52005 IEM_DS3505
ZBYN,1995-09-07 17:00,ZBYN 071700Z AUTO 01006KT 7SM 13/13 A3012 RMK T01300130 IEM_DS3505
ZBYN,1995-09-07 18:00,ZBYN 071800Z AUTO 32004KT 6SM 13/12 A3009 RMK 60051 SLP190 T01280124 57003 IEM_DS3505
ZBYN,1995-09-07 19:00,ZBYN 071900Z AUTO 00000KT 7SM 13/13 A3012 RMK T01300130 IEM_DS3505
ZBYN,1995-09-07 20:00,ZBYN 072000Z AUTO 00000KT 7SM 13/13 A3012 RMK T01300130 IEM_DS3505
ZBYN,1995-09-07 21:00,ZBYN 072100Z AUTO 00000KT 7SM 13/13 A3009 RMK T01300130 IEM_DS3505
ZBYN,1995-09-07 22:00,ZBYN 072200Z AUTO 00000KT 7SM 13/13 A3009 RMK T01300130 IEM_DS3505
ZBYN,1995-09-07 23:00,ZBYN 072300Z AUTO 00000KT 3SM 13/13 A3009 RMK T01300130 IEM_DS3505
ZBYN,1995-09-08 00:00,ZBYN 080000Z AUTO 00000KT 6SM 13/13 A3009 RMK 60016 70098 SLP189 T01310127 52001 IEM_DS3505
ZBYN,1995-09-08 01:00,ZBYN 080100Z AUTO 00000KT 2 1/2SM 14/13 A3009 RMK T01400130 IEM_DS3505
ZBYN,1995-09-08 02:00,ZBYN 080200Z AUTO 29002KT 4SM 14/13 A3012 RMK T01400130 IEM_DS3505
ZBYN,1995-09-08 03:00,ZBYN 080300Z AUTO 00000KT 5SM 14/13 A3009 RMK SLP190 T01380133 52002 IEM_DS3505
ZBYN,1995-09-08 04:00,ZBYN 080400Z AUTO 25002KT 5SM 14/13 A3009 RMK T01400130 IEM_DS3505
ZBYN,1995-09-08 05:00,ZBYN 080500Z AUTO 00000KT 7SM 14/14 A3009 RMK T01400140 IEM_DS3505
ZBYN,1995-09-08 06:00,ZBYN 080600Z AUTO 14004KT 5SM 15/13 A3006 RMK 60002 SLP175 T01480134 57012 IEM_DS3505
ZBYN,1995-09-08 07:00,ZBYN 080700Z AUTO 00000KT 7SM 15/14 A3006 RMK T01500140 IEM_DS3505
ZBYN,1995-09-08 08:00,ZBYN 080800Z AUTO 00000KT 7SM 15/14 A3003 RMK T01500140 IEM_DS3505
ZBYN,1995-09-08 09:00,ZBYN 080900Z AUTO 14002KT 5SM 14/14 A3006 RMK SLP172 T01410136 57004 IEM_DS3505
ZBYN,1995-09-08 10:00,ZBYN 081000Z AUTO 00000KT 1 1/2SM 14/14 A3006 RMK T01400140 IEM_DS3505
ZBYN,1995-09-08 11:00,ZBYN 081100Z AUTO 00000KT 1 1/2SM 15/14 A3006 RMK T01500140 IEM_DS3505
ZBYN,1995-09-08 12:00,ZBYN 081200Z AUTO 14002KT 5SM 14/14 A3006 RMK 60016 SLP177 T01420139 52005 IEM_DS3505
ZBYN,1995-09-08 13:00,ZBYN 081300Z AUTO 15002KT 1 1/2SM 14/14 A3009 RMK T01400140 IEM_DS3505
ZBYN,1995-09-08 14:00,ZBYN 081400Z AUTO 15002KT 1 1/2SM 14/14 A3009 RMK T01400140 IEM_DS3505
ZBYN,1995-09-08 15:00,ZBYN 081500Z AUTO 07004KT 5SM 14/14 A3009 RMK SLP184 T01400138 52007 IEM_DS3505
ZBYN,1995-09-08 16:00,ZBYN 081600Z AUTO 11004KT 1 1/4SM 14/14 A3009 RMK T01400140 IEM_DS3505
ZBYN,1995-09-08 17:00,ZBYN 081700Z AUTO 00000KT 1 1/4SM 14/14 A3009 RMK T01400140 IEM_DS3505
ZBYN,1995-09-08 18:00,ZBYN 081800Z AUTO 11002KT 4SM 14/14 A3009 RMK 60002 SLP183 T01370135 54000 IEM_DS3505
ZBYN,1995-09-08 19:00,ZBYN 081900Z AUTO 11002KT 1 1/2SM 13/13 A3006 RMK T01300130 IEM_DS3505
ZBYN,1995-09-08 20:00,ZBYN 082000Z AUTO 00000KT 1 1/2SM 13/13 A3006 RMK T01300130 IEM_DS3505
ZBYN,1995-09-08 21:00,ZBYN 082100Z AUTO 00000KT 1SM 13/12 A3006 RMK 70020 SLP180 T01270125 57005 IEM_DS3505
ZBYN,1995-09-08 22:00,ZBYN 082200Z AUTO 00000KT 1SM 13/13 A3006 RMK T01300130 IEM_DS3505
ZBYN,1995-09-08 23:00,ZBYN 082300Z AUTO 36002KT 1/2SM 13/13 A3009 RMK T01300130 IEM_DS3505
ZBYN,1995-09-09 00:00,ZBYN 090000Z AUTO 04004KT 1 1/4SM 14/14 A3009 RMK 70020 SLP180 T01370135 52002 IEM_DS3505
ZBYN,1995-09-09 01:00,ZBYN 090100Z AUTO 00000KT 1 1/4SM 15/14 A3009 RMK T01500140 IEM_DS3505
ZBYN,1995-09-09 02:00,ZBYN 090200Z AUTO 00000KT 7SM 17/14 A3009 RMK T01700140 IEM_DS3505
ZBYN,1995-09-09 03:00,ZBYN 090300Z AUTO 14006KT 4SM 17/14 RMK SLP177 T01710142 52002 IEM_DS3505
ZBYN,1995-09-09 04:00,ZBYN 090400Z AUTO 19004KT 7SM 18/14 A3006 RMK T01800140 IEM_DS3505
ZBYN,1995-09-09 05:00,ZBYN 090500Z AUTO 21008KT 7SM 19/13 A3003 RMK T01900130 IEM_DS3505
ZBYN,1995-09-09 06:00,ZBYN 090600Z AUTO 22006KT 6SM 19/13 A3003 RMK SLP154 T01920133 57019 IEM_DS3505
ZBYN,1995-09-09 08:00,ZBYN 090800Z AUTO 19008KT 6SM 20/13 A2997 RMK T02000130 IEM_DS3505
ZBYN,1995-09-09 09:00,ZBYN 090900Z AUTO 22008KT 6SM 20/13 A2997 RMK SLP135 T01950133 57018 IEM_DS3505
ZBYN,1995-09-09 10:00,ZBYN 091000Z AUTO 20006KT 6SM 19/15 A2997 RMK T01900150 IEM_DS3505
ZBYN,1995-09-09 11:00,ZBYN 091100Z AUTO 00000KT 6SM 17/15 A2997 RMK T01700150 IEM_DS3505
ZBYN,1995-09-09 12:00,ZBYN 091200Z AUTO 07004KT 6SM 16/15 A3000 RMK SLP145 T01640146 52006 IEM_DS3505
ZBYN,1995-09-09 13:00,ZBYN 091300Z AUTO 00000KT 6SM 17/15 A3003 RMK T01700150 IEM_DS3505
ZBYN,1995-09-09 14:00,ZBYN 091400Z AUTO 00000KT 6SM 17/14 A3003 RMK T01700140 IEM_DS3505
ZBYN,1995-09-09 15:00,ZBYN 091500Z AUTO 32002KT 5SM 16/14 A3006 RMK SLP158 T01580143 52016 IEM_DS3505
ZBYN,1995-09-09 16:00,ZBYN 091600Z AUTO 00000KT 6SM 15/14 A3006 RMK T01500140 IEM_DS3505
ZBYN,1995-09-09 17:00,ZBYN 091700Z AUTO 00000KT 6SM 14/13 A3006 RMK T01400130 IEM_DS3505
ZBYN,1995-09-09 18:00,ZBYN 091800Z AUTO 36006KT 6SM 15/11 A3009 RMK SLP171 T01520107 52014 IEM_DS3505
ZBYN,1995-09-09 19:00,ZBYN 091900Z AUTO 36004KT 7SM 14/09 A3009 RMK T01400090 IEM_DS3505
ZBYN,1995-09-09 20:00,ZBYN 092000Z AUTO 35006KT 7SM 13/08 A3012 RMK T01300080 IEM_DS3505
ZBYN,1995-09-09 21:00,ZBYN 092100Z AUTO 02004KT 6SM 12/07 A3015 RMK SLP189 T01240066 52013 IEM_DS3505
ZBYN,1995-09-09 22:00,ZBYN 092200Z AUTO 31006KT 7SM 11/06 A3018 RMK T01100060 IEM_DS3505
ZBYN,1995-09-09 23:00,ZBYN 092300Z AUTO 31006KT 6SM 10/07 A3021 RMK T01000070 IEM_DS3505
ZBYN,1995-09-10 00:00,ZBYN 100000Z AUTO 22002KT 6SM 13/07 A3021 RMK SLP218 T01260073 52022 IEM_DS3505
ZBYN,1995-09-10 01:00,ZBYN 100100Z AUTO 00000KT 7SM 14/07 A3021 RMK T01400070 IEM_DS3505
ZBYN,1995-09-10 02:00,ZBYN 100200Z AUTO 00000KT 7SM 16/07 A3021 RMK T01600070 IEM_DS3505
ZBYN,1995-09-10 03:00,ZBYN 100300Z AUTO 22004KT 12SM 18/06 A3021 RMK SLP211 T01830060 52001 IEM_DS3505
ZBYN,1995-09-10 04:00,ZBYN 100400Z AUTO 09006KT 7SM 19/05 A3018 RMK T01900050 IEM_DS3505
ZBYN,1995-09-10 05:00,ZBYN 100500Z AUTO 09006KT 7SM 21/03 A3015 RMK T02100030 IEM_DS3505
ZBYN,1995-09-10 06:00,ZBYN 100600Z AUTO 29010KT 12SM 21/02 A3015 RMK SLP191 T02130022 57015 IEM_DS3505
ZBYN,1995-09-10 07:00,ZBYN 100700Z AUTO 09006KT 7SM 23/04 A3012 RMK T02300040 IEM_DS3505
ZBYN,1995-09-10 08:00,ZBYN 100800Z AUTO 09006KT 7SM 18/07 A3012 RMK T01800070 IEM_DS3505
ZBYN,1995-09-10 09:00,ZBYN 100900Z AUTO 29010KT 12SM 21/02 A3012 RMK SLP188 T02090021 57007 IEM_DS3505
ZBYN,1995-09-10 10:00,ZBYN 101000Z AUTO 31012KT 7SM 20/06 A3015 RMK T02000060 IEM_DS3505
ZBYN,1995-09-10 11:00,ZBYN 101100Z AUTO 27006KT 7SM 17/07 A3018 RMK T01700070 IEM_DS3505
ZBYN,1995-09-10 12:00,ZBYN 101200Z AUTO 27004KT 9SM 14/08 A3018 RMK SLP217 T01380082 52016 IEM_DS3505
ZBYN,1995-09-10 13:00,ZBYN 101300Z AUTO 00000KT 6SM 13/09 A3021 RMK T01300090 IEM_DS3505
ZBYN,1995-09-10 14:00,ZBYN 101400Z AUTO 00000KT 6SM 12/09 A3024 RMK T01200090 IEM_DS3505
ZBYN,1995-09-10 15:00,ZBYN 101500Z AUTO 32004KT 9SM 13/07 A3024 RMK SLP223 T01290072 52013 IEM_DS3505
ZBYN,1995-09-10 16:00,ZBYN 101600Z AUTO 00000KT 6SM 10/08 A3024 RMK T01000080 IEM_DS3505
ZBYN,1995-09-10 17:00,ZBYN 101700Z AUTO 09004KT 6SM 10/08 A3024 RMK T01000080 IEM_DS3505
ZBYN,1995-09-10 18:00,ZBYN 101800Z AUTO 20004KT 7SM 10/08 A3027 RMK SLP232 T00990079 52008 IEM_DS3505
ZBYN,1995-09-10 19:00,ZBYN 101900Z AUTO 00000KT 6SM 09/07 A3027 RMK T00900070 IEM_DS3505
ZBYN,1995-09-10 20:00,ZBYN 102000Z AUTO 00000KT 6SM 08/07 A3027 RMK T00800070 IEM_DS3505
ZBYN,1995-09-10 21:00,ZBYN 102100Z AUTO 14002KT 6SM 07/06 A3027 RMK SLP242 T00690063 52004 IEM_DS3505
ZBYN,1995-09-10 22:00,ZBYN 102200Z AUTO 00000KT 7SM 07/05 A3027 RMK T00700050 IEM_DS3505
ZBYN,1995-09-10 23:00,ZBYN 102300Z AUTO 00000KT 7SM 07/06 A3030 RMK T00700060 IEM_DS3505
ZBYN,1995-09-11 00:00,ZBYN 110000Z AUTO 00000KT 5SM 10/08 A3030 RMK SLP258 T00970085 52008 IEM_DS3505
ZBYN,1995-09-11 01:00,ZBYN 110100Z AUTO 00000KT 7SM 13/08 A3030 RMK T01300080 IEM_DS3505
ZBYN,1995-09-11 02:00,ZBYN 110200Z AUTO 00000KT 7SM 16/10 A3030 RMK T01600100 IEM_DS3505
ZBYN,1995-09-11 03:00,ZBYN 110300Z AUTO 22004KT 6SM 18/08 A3027 RMK SLP239 T01840081 57006 IEM_DS3505
ZBYN,1995-09-11 04:00,ZBYN 110400Z AUTO 00000KT 7SM 20/09 A3024 RMK T02000090 IEM_DS3505
ZBYN,1995-09-11 05:00,ZBYN 110500Z AUTO 00000KT 7SM 22/09 A3021 RMK T02200090 IEM_DS3505
ZBYN,1995-09-11 06:00,ZBYN 110600Z AUTO 18006KT 6SM 22/08 A3018 RMK SLP211 T02170081 57025 IEM_DS3505
ZBYN,1995-09-11 07:00,ZBYN 110700Z AUTO 18006KT 7SM 23/09 A3015 RMK T02300090 IEM_DS3505
ZBYN,1995-09-11 08:00,ZBYN 110800Z AUTO 15004KT 7SM 24/09 A3015 RMK T02400090 IEM_DS3505
ZBYN,1995-09-11 09:00,ZBYN 110900Z AUTO 18004KT 9SM 22/09 A3012 RMK SLP194 T02190089 57019 IEM_DS3505
ZBYN,1995-09-11 10:00,ZBYN 111000Z AUTO 12004KT 6SM 20/12 A3012 RMK T02000120 IEM_DS3505
ZBYN,1995-09-11 11:00,ZBYN 111100Z AUTO 09004KT 6SM 17/12 A3012 RMK T01700120 IEM_DS3505
ZBYN,1995-09-11 12:00,ZBYN 111200Z AUTO 27002KT 9SM 14/11 A3012 RMK SLP197 T01440112 57005 IEM_DS3505
ZBYN,1995-09-11 13:00,ZBYN 111300Z AUTO 09004KT 6SM 13/10 A3015 RMK T01300100 IEM_DS3505
ZBYN,1995-09-11 14:00,ZBYN 111400Z AUTO 09004KT 6SM 12/10 A3015 RMK T01200100 IEM_DS3505
ZBYN,1995-09-11 15:00,ZBYN 111500Z AUTO 00000KT 6SM 11/09 A3015 RMK SLP197 T01130090 52009 IEM_DS3505
ZBYN,1995-09-11 16:00,ZBYN 111600Z AUTO 09008KT 7SM 11/09 A3015 RMK T01100090 IEM_DS3505
ZBYN,1995-09-11 17:00,ZBYN 111700Z AUTO 10006KT 7SM 11/09 A3015 RMK T01100090 IEM_DS3505
ZBYN,1995-09-11 18:00,ZBYN 111800Z AUTO 16004KT 5SM 09/08 A3015 RMK SLP197 T00900082 52001 IEM_DS3505
ZBYN,1995-09-11 19:00,ZBYN 111900Z AUTO 08004KT 7SM 11/09 A3015 RMK T01100090 IEM_DS3505
ZBYN,1995-09-11 21:00,ZBYN 112100Z AUTO 09002KT 5SM 09/08 A3015 RMK SLP197 T00880082 54000 IEM_DS3505
ZBYN,1995-09-11 22:00,ZBYN 112200Z AUTO 00000KT 4SM 10/09 A3015 RMK T01000090 IEM_DS3505
ZBYN,1995-09-11 23:00,ZBYN 112300Z AUTO 00000KT 2 1/2SM 10/09 A3015 RMK T01000090 IEM_DS3505
ZBYN,1995-09-12 00:00,ZBYN 120000Z AUTO 27004KT 2SM 12/10 A3015 RMK T01200100 IEM_DS3505
ZBYN,1995-09-12 01:00,ZBYN 120100Z AUTO 00000KT 3SM 14/10 A3015 RMK T01400100 IEM_DS3505
ZBYN,1995-09-12 02:00,ZBYN 120200Z AUTO 00000KT 6SM 16/12 A3015 RMK T01600120 IEM_DS3505
ZBYN,1995-09-12 03:00,ZBYN 120300Z AUTO 14004KT 5SM 18/12 A3015 RMK SLP196 T01800115 57005 IEM_DS3505
ZBYN,1995-09-12 04:00,ZBYN 120400Z AUTO 20008KT 6SM 21/12 A3009 RMK T02100120 IEM_DS3505
ZBYN,1995-09-12 05:00,ZBYN 120500Z AUTO 15006KT 6SM 22/10 A3006 RMK T02200100 IEM_DS3505
ZBYN,1995-09-12 06:00,ZBYN 120600Z AUTO 20004KT 5SM 22/12 A3003 RMK SLP161 T02150117 57030 IEM_DS3505
ZBYN,1995-09-12 07:00,ZBYN 120700Z AUTO 21010KT 6SM 23/11 A3003 RMK T02300110 IEM_DS3505
ZBYN,1995-09-12 08:00,ZBYN 120800Z AUTO 25004KT 6SM 23/11 A3000 RMK T02300110 IEM_DS3505
ZBYN,1995-09-12 09:00,ZBYN 120900Z AUTO 22004KT 6SM 22/10 A3000 RMK SLP144 T02180104 57015 IEM_DS3505
ZBYN,1995-09-12 10:00,ZBYN 121000Z AUTO 00000KT 6SM 21/14 A3000 RMK T02100140 IEM_DS3505
ZBYN,1995-09-12 11:00,ZBYN 121100Z AUTO 00000KT 6SM 18/14 A3000 RMK T01800140 IEM_DS3505
ZBYN,1995-09-12 12:00,ZBYN 121200Z AUTO 32002KT 6SM 16/13 A3003 RMK SLP160 T01570131 52009 IEM_DS3505
ZBYN,1995-09-12 13:00,ZBYN 121300Z AUTO 00000KT 6SM 15/13 A3003 RMK T01500130 IEM_DS3505
ZBYN,1995-09-12 14:00,ZBYN 121400Z AUTO 17006KT 6SM 14/12 A3006 RMK T01400120 IEM_DS3505
ZBYN,1995-09-12 15:00,ZBYN 121500Z AUTO 36002KT 6SM 14/12 A3006 RMK SLP168 T01350124 52014 IEM_DS3505
ZBYN,1995-09-12 16:00,ZBYN 121600Z AUTO 08004KT 6SM 12/11 A3006 RMK T01200110 IEM_DS3505
ZBYN,1995-09-12 17:00,ZBYN 121700Z AUTO 07004KT 6SM 12/11 A3006 RMK T01200110 IEM_DS3505
ZBYN,1995-09-12 18:00,ZBYN 121800Z AUTO 00000KT 6SM 11/11 A3006 RMK SLP166 T01130113 54000 IEM_DS3505
ZBYN,1995-09-12 19:00,ZBYN 121900Z AUTO 08006KT 6SM 11/11 A3006 RMK T01100110 IEM_DS3505
ZBYN,1995-09-12 20:00,ZBYN 122000Z AUTO 07004KT 6SM 11/10 A3006 RMK T01100100 IEM_DS3505
ZBYN,1995-09-12 21:00,ZBYN 122100Z AUTO 00000KT 5SM 11/11 A3006 RMK SLP164 T01140110 57001 IEM_DS3505
ZBYN,1995-09-12 22:00,ZBYN 122200Z AUTO 08004KT 2 1/2SM 10/10 A3006 RMK T01000100 IEM_DS3505
ZBYN,1995-09-12 23:00,ZBYN 122300Z AUTO 08004KT 2SM 10/09 A3009 RMK T01000090 IEM_DS3505
ZBYN,1995-09-13 00:00,ZBYN 130000Z AUTO 00000KT 3SM 11/11 A3012 RMK SLP189 T01140112 52014 IEM_DS3505
ZBYN,1995-09-13 01:00,ZBYN 130100Z AUTO 00000KT 2 1/2SM 15/12 A3012 RMK T01500120 IEM_DS3505
ZBYN,1995-09-13 03:00,ZBYN 130300Z AUTO 34004KT 6SM 21/13 A3012 RMK SLP183 T02110126 52005 IEM_DS3505
ZBYN,1995-09-13 04:00,ZBYN 130400Z AUTO 36004KT 7SM 24/12 A3009 RMK T02400120 IEM_DS3505
ZBYN,1995-09-13 05:00,ZBYN 130500Z AUTO 11006KT 6SM 25/13 A3009 RMK T02500130 IEM_DS3505
ZBYN,1995-09-13 06:00,ZBYN 130600Z AUTO 36002KT 7SM 25/10 A3006 RMK SLP159 T02510102 57019 IEM_DS3505
ZBYN,1995-09-13 07:00,ZBYN 130700Z AUTO 02006KT 6SM 26/10 A3003 RMK T02600100 IEM_DS3505
ZBYN,1995-09-13 08:00,ZBYN 130800Z AUTO 02006KT 6SM 25/09 A3003 RMK T02500090 IEM_DS3505
ZBYN,1995-09-13 09:00,ZBYN 130900Z AUTO 04004KT 9SM 24/11 A3003 RMK SLP155 T02430109 57005 IEM_DS3505
ZBYN,1995-09-13 10:00,ZBYN 131000Z AUTO 00000KT 6SM 22/13 A3006 RMK T02200130 IEM_DS3505
ZBYN,1995-09-13 11:00,ZBYN 131100Z AUTO 00000KT 6SM 19/14 A3006 RMK T01900140 IEM_DS3505
ZBYN,1995-09-13 12:00,ZBYN 131200Z AUTO 11004KT 6SM 17/13 A3009 RMK SLP178 T01730134 52011 IEM_DS3505
ZBYN,1995-09-13 13:00,ZBYN 131300Z AUTO 05006KT 6SM 16/12 A3012 RMK T01600120 IEM_DS3505
ZBYN,1995-09-13 14:00,ZBYN 131400Z AUTO 08010KT 7SM 16/13 A3012 RMK T01600130 IEM_DS3505
ZBYN,1995-09-13 15:00,ZBYN 131500Z AUTO 34004KT 6SM 16/12 A3015 RMK SLP184 T01560119 52017 IEM_DS3505
ZBYN,1995-09-13 16:00,ZBYN 131600Z AUTO 36004KT 7SM 15/12 A3015 RMK T01500120 IEM_DS3505
ZBYN,1995-09-13 18:00,ZBYN 131800Z AUTO 34004KT 5SM 14/11 A3014 RMK SLP183 T01380107 52002 IEM_DS3505
ZBYN,1995-09-13 19:00,ZBYN 131900Z AUTO 00000KT 7SM 14/12 A3015 RMK T01400120 IEM_DS3505
ZBYN,1995-09-13 20:00,ZBYN 132000Z AUTO 00000KT 7SM 13/11 A3015 RMK T01300110 IEM_DS3505
ZBYN,1995-09-13 21:00,ZBYN 132100Z AUTO 34004KT 5SM 13/10 A3015 RMK SLP186 T01270105 54000 IEM_DS3505
ZBYN,1995-09-13 22:00,ZBYN 132200Z AUTO 18004KT 4SM 12/11 A3015 RMK T01200110 IEM_DS3505
ZBYN,1995-09-13 23:00,ZBYN 132300Z AUTO 00000KT 4SM 12/11 A3018 RMK T01200110 IEM_DS3505
ZBYN,1995-09-14 00:00,ZBYN 140000Z AUTO 34002KT 5SM 14/11 A3018 RMK SLP208 T01350109 52011 IEM_DS3505
ZBYN,1995-09-14 01:00,ZBYN 140100Z AUTO 30002KT 2 1/2SM 15/13 A3018 RMK T01500130 IEM_DS3505
ZBYN,1995-09-14 02:00,ZBYN 140200Z AUTO 00000KT 3SM 18/12 A3018 RMK T01800120 IEM_DS3505
ZBYN,1995-09-14 03:00,ZBYN 140300Z AUTO 07002KT 6SM 20/13 A3018 RMK SLP199 T02030130 54000 IEM_DS3505
ZBYN,1995-09-14 04:00,ZBYN 140400Z AUTO 00000KT 6SM 23/13 A3015 RMK T02300130 IEM_DS3505
ZBYN,1995-09-14 05:00,ZBYN 140500Z AUTO 17008KT 6SM 24/13 A3012 RMK T02400130 IEM_DS3505
ZBYN,1995-09-14 06:00,ZBYN 140600Z AUTO 20006KT 6SM 24/13 A3009 RMK SLP171 T02430128 57023 IEM_DS3505
ZBYN,1995-09-14 07:00,ZBYN 140700Z AUTO 21008KT 6SM 26/13 A3006 RMK T02600130 IEM_DS3505
ZBYN,1995-09-14 08:00,ZBYN 140800Z AUTO 21012KT 6SM 26/12 A3006 RMK T02600120 IEM_DS3505
ZBYN,1995-09-14 09:00,ZBYN 140900Z AUTO 18008KT 9SM 24/11 A3003 RMK SLP150 T02430109 57021 IEM_DS3505
ZBYN,1995-09-14 10:00,ZBYN 141000Z AUTO 17006KT 6SM 23/15 A3003 RMK T02300150 IEM_DS3505
ZBYN,1995-09-14 11:00,ZBYN 141100Z AUTO 15004KT 6SM 19/17 A3003 RMK T01900170 IEM_DS3505
ZBYN,1995-09-14 12:00,ZBYN 141200Z AUTO 11006KT 7SM 18/14 A3006 RMK SLP162 T01790140 52003 IEM_DS3505
ZBYN,1995-09-14 13:00,ZBYN 141300Z AUTO 12006KT 6SM 17/16 A3006 RMK T01700160 IEM_DS3505
ZBYN,1995-09-14 14:00,ZBYN 141400Z AUTO 14004KT 7SM 16/15 A3009 RMK T01600150 IEM_DS3505
ZBYN,1995-09-14 15:00,ZBYN 141500Z AUTO 14006KT 6SM 15/12 A3009 RMK SLP164 T01500124 52008 IEM_DS3505
ZBYN,1995-09-14 16:00,ZBYN 141600Z AUTO 12004KT 7SM 15/13 A3009 RMK T01500130 IEM_DS3505
ZBYN,1995-09-14 17:00,ZBYN 141700Z AUTO 12008KT 7SM 15/13 RMK T01500130 IEM_DS3505
ZBYN,1995-09-14 18:00,ZBYN 141800Z AUTO 18004KT 6SM 14/12 A3009 RMK SLP167 T01360116 52006 IEM_DS3505
ZBYN,1995-09-14 19:00,ZBYN 141900Z AUTO 12004KT 7SM 14/12 A3009 RMK T01400120 IEM_DS3505
ZBYN,1995-09-14 20:00,ZBYN 142000Z AUTO 12006KT 7SM 14/12 A3009 RMK T01400120 IEM_DS3505
ZBYN,1995-09-14 21:00,ZBYN 142100Z AUTO 34004KT 6SM 12/12 A3009 RMK SLP171 T01240117 52002 IEM_DS3505
ZBYN,1995-09-14 22:00,ZBYN 142200Z AUTO 31002KT 2 1/2SM 13/12 A3012 RMK T01300120 IEM_DS3505
ZBYN,1995-09-14 23:00,ZBYN 142300Z AUTO 27002KT 2SM 14/12 A3015 RMK T01400120 IEM_DS3505
ZBYN,1995-09-15 00:00,ZBYN 150000Z AUTO 36002KT 5SM 14/13 A3013 RMK SLP190 T01410127 52011 IEM_DS3505
ZBYN,1995-09-15 01:00,ZBYN 150100Z AUTO 13004KT 1 1/2SM 16/14 A3015 RMK T01600140 IEM_DS3505
ZBYN,1995-09-15 02:00,ZBYN 150200Z AUTO 17002KT 3SM 18/14 A3015 RMK T01800140 IEM_DS3505
ZBYN,1995-09-15 03:00,ZBYN 150300Z AUTO 14004KT 5SM 21/12 A3012 RMK SLP182 T02100125 57002 IEM_DS3505
ZBYN,1995-09-15 04:00,ZBYN 150400Z AUTO 00000KT 3SM 22/15 A3012 RMK T02200150 IEM_DS3505
ZBYN,1995-09-15 05:00,ZBYN 150500Z AUTO 00000KT 3SM 23/15 A3009 RMK T02300150 IEM_DS3505
ZBYN,1995-09-15 06:00,ZBYN 150600Z AUTO 32004KT 5SM 22/14 A3009 RMK SLP171 T02230135 57010 IEM_DS3505
ZBYN,1995-09-15 07:00,ZBYN 150700Z AUTO 30006KT 5SM 24/14 A3006 RMK T02400140 IEM_DS3505
ZBYN,1995-09-15 08:00,ZBYN 150800Z AUTO 24002KT 6SM 25/12 A3006 RMK T02500120 IEM_DS3505
ZBYN,1995-09-15 09:00,ZBYN 150900Z AUTO 32004KT 6SM 24/12 A3006 RMK SLP163 T02410123 57006 IEM_DS3505
ZBYN,1995-09-15 10:00,ZBYN 151000Z AUTO 29004KT 6SM 23/14 A3009 RMK T02300140 IEM_DS3505
ZBYN,1995-09-15 11:00,ZBYN 151100Z AUTO 36004KT 7SM 21/14 A3009 RMK T02100140 IEM_DS3505
ZBYN,1995-09-15 12:00,ZBYN 151200Z AUTO 34004KT 6SM 19/12 A3012 RMK SLP183 T01930124 52013 IEM_DS3505
ZBYN,1995-09-15 13:00,ZBYN 151300Z AUTO 06008KT 7SM 18/12 A3015 RMK T01800120 IEM_DS3505
ZBYN,1995-09-15 14:00,ZBYN 151400Z AUTO 06010KT 7SM 17/13 A3015 RMK T01700130 IEM_DS3505
ZBYN,1995-09-15 15:00,ZBYN 151500Z AUTO 32004KT 6SM 17/13 A3015 RMK SLP189 T01670129 52012 IEM_DS3505
ZBYN,1995-09-15 18:00,ZBYN 151800Z AUTO 32004KT 6SM 16/12 A3018 RMK SLP195 T01570120 52006 IEM_DS3505
ZBYN,1995-09-15 20:00,ZBYN 152000Z AUTO 00000KT 6SM 15/13 A3018 RMK T01500130 IEM_DS3505
ZBYN,1995-09-15 21:00,ZBYN 152100Z AUTO 32004KT 6SM 14/11 RMK SLP198 T01370114 52002 IEM_DS3505
ZBYN,1995-09-15 22:00,ZBYN 152200Z AUTO 00000KT 3SM 13/12 A3021 RMK T01300120 IEM_DS3505
ZBYN,1995-09-15 23:00,ZBYN 152300Z AUTO 00000KT 3SM 13/11 A3021 RMK T01300110 IEM_DS3505
ZBYN,1995-09-16 00:00,ZBYN 160000Z AUTO 32004KT 5SM 15/11 A3024 RMK SLP217 T01510113 52013 IEM_DS3505
ZBYN,1995-09-16 01:00,ZBYN 160100Z AUTO 31004KT 2SM 18/12 A3024 RMK T01800120 IEM_DS3505
ZBYN,1995-09-16 02:00,ZBYN 160200Z AUTO 00000KT 4SM 20/13 A3024 RMK T02000130 IEM_DS3505
ZBYN,1995-09-16 03:00,ZBYN 160300Z AUTO 36002KT 6SM 21/11 A3024 RMK SLP214 T02130106 52002 IEM_DS3505
ZBYN,1995-09-16 04:00,ZBYN 160400Z AUTO 17008KT 6SM 24/10 A3021 RMK T02400100 IEM_DS3505
ZBYN,1995-09-16 05:00,ZBYN 160500Z AUTO 15004KT 6SM 25/ A3018 RMK IEM_DS3505
ZBYN,1995-09-16 06:00,ZBYN 160600Z AUTO 18006KT 6SM 25/11 A3015 RMK SLP188 T02460108 57020 IEM_DS3505
ZBYN,1995-09-16 07:00,ZBYN 160700Z AUTO 00000KT 6SM 26/09 A3015 RMK T02600090 IEM_DS3505
ZBYN,1995-09-16 08:00,ZBYN 160800Z AUTO 00000KT 6SM 27/10 A3012 RMK T02700100 IEM_DS3505
ZBYN,1995-09-16 09:00,ZBYN 160900Z AUTO 22004KT 6SM 24/12 A3012 RMK SLP184 T02420125 57007 IEM_DS3505
ZBYN,1995-09-16 10:00,ZBYN 161000Z AUTO 29004KT 6SM 24/12 A3012 RMK T02400120 IEM_DS3505
ZBYN,1995-09-16 11:00,ZBYN 161100Z AUTO 00000KT 6SM 20/14 A3012 RMK T02000140 IEM_DS3505
ZBYN,1995-09-16 12:00,ZBYN 161200Z AUTO 36002KT 6SM 19/15 A3015 RMK SLP191 T01870146 54000 IEM_DS3505
ZBYN,1995-09-16 13:00,ZBYN 161300Z AUTO 08006KT 6SM 18/14 A3018 RMK T01800140 IEM_DS3505
ZBYN,1995-09-16 14:00,ZBYN 161400Z AUTO 08004KT 6SM 17/13 A3018 RMK T01700130 IEM_DS3505
ZBYN,1995-09-16 15:00,ZBYN 161500Z AUTO 11004KT 6SM 16/13 A3021 RMK SLP200 T01550133 52013 IEM_DS3505
ZBYN,1995-09-16 16:00,ZBYN 161600Z AUTO 00000KT 6SM 16/14 A3018 RMK T01600140 IEM_DS3505
ZBYN,1995-09-16 17:00,ZBYN 161700Z AUTO 00000KT 7SM 15/13 A3018 RMK T01500130 IEM_DS3505
ZBYN,1995-09-16 18:00,ZBYN 161800Z AUTO 32004KT 6SM 15/12 A3018 RMK SLP195 T01530121 54000 IEM_DS3505
ZBYN,1995-09-16 19:00,ZBYN 161900Z AUTO 00000KT 7SM 15/13 A3018 RMK T01500130 IEM_DS3505
ZBYN,1995-09-16 20:00,ZBYN 162000Z AUTO 00000KT 7SM 14/13 A3018 RMK T01400130 IEM_DS3505
ZBYN,1995-09-16 21:00,ZBYN 162100Z AUTO 34004KT 6SM 14/12 A3021 RMK SLP199 T01420115 52001 IEM_DS3505
ZBYN,1995-09-16 22:00,ZBYN 162200Z AUTO 00000KT 7SM 13/12 A3021 RMK T01300120 IEM_DS3505
ZBYN,1995-09-16 23:00,ZBYN 162300Z AUTO 00000KT 3SM 13/12 A3021 RMK T01300120 IEM_DS3505
ZBYN,1995-09-17 00:00,ZBYN 170000Z AUTO 34006KT 6SM 15/12 A3024 RMK SLP220 T01480121 52012 IEM_DS3505
ZBYN,1995-09-17 01:00,ZBYN 170100Z AUTO 34004KT 4SM 16/13 A3024 RMK T01600130 IEM_DS3505
ZBYN,1995-09-17 02:00,ZBYN 170200Z AUTO 00000KT 4SM 19/14 A3024 RMK T01900140 IEM_DS3505
ZBYN,1995-09-17 03:00,ZBYN 170300Z AUTO 22002KT 6SM 20/13 A3021 RMK SLP212 T02030126 57004 IEM_DS3505
ZBYN,1995-09-17 04:00,ZBYN 170400Z AUTO 00000KT 5SM 22/13 A3018 RMK T02200130 IEM_DS3505
ZBYN,1995-09-17 05:00,ZBYN 170500Z AUTO 18006KT 5SM 24/14 A3015 RMK T02400140 IEM_DS3505
ZBYN,1995-09-17 06:00,ZBYN 170600Z AUTO 18008KT 5SM 24/14 A3012 RMK SLP177 T02380136 57027 IEM_DS3505
ZBYN,1995-09-17 07:00,ZBYN 170700Z AUTO 22004KT 6SM 25/13 A3009 RMK T02500130 IEM_DS3505
ZBYN,1995-09-17 08:00,ZBYN 170800Z AUTO 21006KT 6SM 25/14 A3009 RMK T02500140 IEM_DS3505
ZBYN,1995-09-17 09:00,ZBYN 170900Z AUTO 18004KT 6SM 24/13 A3006 RMK SLP162 T02370133 57015 IEM_DS3505
ZBYN,1995-09-17 10:00,ZBYN 171000Z AUTO 00000KT 6SM 22/14 A3009 RMK T02200140 IEM_DS3505
ZBYN,1995-09-17 11:00,ZBYN 171100Z AUTO 00000KT 6SM 20/16 A3009 RMK T02000160 IEM_DS3505
ZBYN,1995-09-17 12:00,ZBYN 171200Z AUTO 14002KT 6SM 18/15 A3009 RMK SLP177 T01790154 52006 IEM_DS3505
ZBYN,1995-09-17 13:00,ZBYN 171300Z AUTO 07006KT 6SM 18/15 A3012 RMK T01800150 IEM_DS3505
ZBYN,1995-09-17 14:00,ZBYN 171400Z AUTO 25006KT 6SM 19/15 A3015 RMK T01900150 IEM_DS3505
ZBYN,1995-09-17 15:00,ZBYN 171500Z AUTO 00000KT 6SM 18/15 A3015 RMK T01800150 IEM_DS3505
ZBYN,1995-09-17 16:00,ZBYN 171600Z AUTO 24004KT 6SM 18/15 A3015 RMK T01800150 IEM_DS3505
ZBYN,1995-09-17 17:00,ZBYN 171700Z AUTO 00000KT 6SM 17/14 A3015 RMK T01700140 IEM_DS3505
ZBYN,1995-09-17 18:00,ZBYN 171800Z AUTO 00000KT 6SM 14/13 A3012 RMK SLP180 T01410129 57003 IEM_DS3505
ZBYN,1995-09-17 19:00,ZBYN 171900Z AUTO 00000KT 6SM 15/14 A3012 RMK T01500140 IEM_DS3505
ZBYN,1995-09-17 20:00,ZBYN 172000Z AUTO 00000KT 6SM 14/14 A3012 RMK T01400140 IEM_DS3505
ZBYN,1995-09-17 21:00,ZBYN 172100Z AUTO 02002KT 6SM 14/12 A3012 RMK SLP180 T01430124 54000 IEM_DS3505
ZBYN,1995-09-17 22:00,ZBYN 172200Z AUTO 00000KT 2 1/2SM 13/13 A3015 RMK T01300130 IEM_DS3505
ZBYN,1995-09-17 23:00,ZBYN 172300Z AUTO 00000KT 2SM 13/13 A3015 RMK T01300130 IEM_DS3505
ZBYN,1995-09-18 00:00,ZBYN 180000Z AUTO 34002KT 4SM 15/13 A3015 RMK SLP198 T01490133 52009 IEM_DS3505
ZBYN,1995-09-18 01:00,ZBYN 180100Z AUTO 00000KT 4SM 17/15 A3018 RMK T01700150 IEM_DS3505
ZBYN,1995-09-18 02:00,ZBYN 180200Z AUTO 13004KT 5SM 19/14 A3018 RMK T01900140 IEM_DS3505
ZBYN,1995-09-18 03:00,ZBYN 180300Z AUTO 11002KT 6SM 21/15 A3015 RMK SLP186 T02110149 57003 IEM_DS3505
ZBYN,1995-09-18 04:00,ZBYN 180400Z AUTO 19006KT 6SM 23/13 A3012 RMK T02300130 IEM_DS3505
ZBYN,1995-09-18 05:00,ZBYN 180500Z AUTO 21004KT 6SM 25/13 A3009 RMK T02500130 IEM_DS3505
ZBYN,1995-09-18 06:00,ZBYN 180600Z AUTO 16006KT 6SM 25/13 A3006 RMK SLP154 T02470129 57028 IEM_DS3505
ZBYN,1995-09-18 07:00,ZBYN 180700Z AUTO 17004KT 6SM 26/13 A3003 RMK T02600130 IEM_DS3505
ZBYN,1995-09-18 08:00,ZBYN 180800Z AUTO 00000KT 6SM 25/13 A3003 RMK T02500130 IEM_DS3505
ZBYN,1995-09-18 09:00,ZBYN 180900Z AUTO 00000KT 6SM 23/16 A3003 RMK SLP145 T02330162 57010 IEM_DS3505
ZBYN,1995-09-18 10:00,ZBYN 181000Z AUTO 34008KT 7SM 23/12 A3003 RMK T02300120 IEM_DS3505
ZBYN,1995-09-18 11:00,ZBYN 181100Z AUTO 08010KT 7SM 20/16 A3006 RMK T02000160 IEM_DS3505
ZBYN,1995-09-18 12:00,ZBYN 181200Z AUTO 11002KT 6SM 17/15 A3009 RMK 60004 SLP178 T01660146 52021 IEM_DS3505
ZBYN,1995-09-18 13:00,ZBYN 181300Z AUTO 06006KT 7SM 16/15 A3015 RMK T01600150 IEM_DS3505
ZBYN,1995-09-18 14:00,ZBYN 181400Z AUTO 11006KT 7SM 16/15 A3015 RMK T01600150 IEM_DS3505
ZBYN,1995-09-18 15:00,ZBYN 181500Z AUTO 07004KT 6SM 16/14 A3015 RMK SLP188 T01620140 52018 IEM_DS3505
ZBYN,1995-09-18 16:00,ZBYN 181600Z AUTO 06008KT 6SM 16/15 A3015 RMK T01600150 IEM_DS3505
ZBYN,1995-09-18 18:00,ZBYN 181800Z AUTO 32004KT 6SM 16/14 A3012 RMK 60000 SLP174 T01560141 57009 IEM_DS3505
ZBYN,1995-09-18 19:00,ZBYN 181900Z AUTO 00000KT 7SM 15/14 A3012 RMK T01500140 IEM_DS3505
ZBYN,1995-09-18 20:00,ZBYN 182000Z AUTO 06004KT 5SM 14/14 A3012 RMK T01400140 IEM_DS3505
ZBYN,1995-09-18 21:00,ZBYN 182100Z AUTO 18002KT 6SM 15/14 A3012 RMK 70008 SLP173 T01480138 57004 IEM_DS3505
ZBYN,1995-09-18 22:00,ZBYN 182200Z AUTO 00000KT 4SM 15/14 A3012 RMK T01500140 IEM_DS3505
ZBYN,1995-09-18 23:00,ZBYN 182300Z AUTO 00000KT 1 1/2SM 15/14 A3012 RMK T01500140 IEM_DS3505
ZBYN,1995-09-19 00:00,ZBYN 190000Z AUTO 14004KT 3SM 15/15 A3013 RMK 60000 70008 SLP189 T01530148 52006 IEM_DS3505
ZBYN,1995-09-19 01:00,ZBYN 190100Z AUTO 00000KT 1 1/2SM 16/15 A3015 RMK T01600150 IEM_DS3505
ZBYN,1995-09-19 02:00,ZBYN 190200Z AUTO 15004KT 3SM 17/15 A3015 RMK T01700150 IEM_DS3505
ZBYN,1995-09-19 03:00,ZBYN 190300Z AUTO 22006KT 4SM 18/15 A3015 RMK SLP190 T01750147 52003 IEM_DS3505
ZBYN,1995-09-19 04:00,ZBYN 190400Z AUTO 00000KT 7SM 19/15 A3012 RMK T01900150 IEM_DS3505
ZBYN,1995-09-19 05:00,ZBYN 190500Z AUTO 29008KT 4SM 20/15 A3009 RMK T02000150 IEM_DS3505
ZBYN,1995-09-19 06:00,ZBYN 190600Z AUTO 32004KT 6SM 20/15 A3006 RMK 60000 SLP166 T01970146 57019 IEM_DS3505
ZBYN,1995-09-19 07:00,ZBYN 190700Z AUTO 18010KT 7SM 17/13 A3006 RMK T01700130 IEM_DS3505
ZBYN,1995-09-19 08:00,ZBYN 190800Z AUTO 13006KT 1 1/4SM 15/15 A3009 RMK T01500150 IEM_DS3505
ZBYN,1995-09-19 09:00,ZBYN 190900Z AUTO 14010KT 5SM 15/14 A3009 RMK SLP183 T01530138 52008 IEM_DS3505
ZBYN,1995-09-19 10:00,ZBYN 191000Z AUTO 00000KT 7SM 15/13 A3009 RMK T01500130 IEM_DS3505
ZBYN,1995-09-19 11:00,ZBYN 191100Z AUTO 00000KT 7SM 14/13 A3009 RMK T01400130 IEM_DS3505
ZBYN,1995-09-19 12:00,ZBYN 191200Z AUTO 34002KT 5SM 13/12 A3012 RMK 60001 SLP188 T01330124 52002 IEM_DS3505
ZBYN,1995-09-19 13:00,ZBYN 191300Z AUTO 00000KT 7SM 13/13 A3012 RMK T01300130 IEM_DS3505
ZBYN,1995-09-19 15:00,ZBYN 191500Z AUTO 32004KT 5SM 14/13 A3012 RMK SLP193 T01350126 52008 IEM_DS3505
ZBYN,1995-09-19 18:00,ZBYN 191800Z AUTO 00000KT 4SM 11/11 A3012 RMK SLP187 T01100106 57006 IEM_DS3505
ZBYN,1995-09-19 21:00,ZBYN 192100Z AUTO 00000KT 1/2SM 12/12 RMK 70002 SLP188 T01190119 57004 IEM_DS3505
ZBYN,1995-09-19 22:00,ZBYN 192200Z AUTO 00000KT 3/8SM 10/10 A3012 RMK T01000100 IEM_DS3505
ZBYN,1995-09-19 23:00,ZBYN 192300Z AUTO 00000KT 3/8SM 12/12 A3012 RMK T01200120 IEM_DS3505
ZBYN,1995-09-20 00:00,ZBYN 200000Z AUTO 00000KT 1 1/4SM 12/12 A3012 RMK SLP201 T01250121 52010 IEM_DS3505
ZBYN,1995-09-20 01:00,ZBYN 200100Z AUTO 00000KT 1SM 14/13 A3015 RMK T01400130 IEM_DS3505
ZBYN,1995-09-20 02:00,ZBYN 200200Z AUTO 00000KT 1 1/4SM 15/13 A3015 RMK T01500130 IEM_DS3505
ZBYN,1995-09-20 03:00,ZBYN 200300Z AUTO 18004KT 3SM 16/13 A3015 RMK SLP198 T01550131 52002 IEM_DS3505
ZBYN,1995-09-20 05:00,ZBYN 200500Z AUTO 00000KT 6SM 20/13 A3009 RMK T02000130 IEM_DS3505
ZBYN,1995-09-20 06:00,ZBYN 200600Z AUTO 14006KT 5SM 21/13 A3006 RMK SLP168 T02100129 57023 IEM_DS3505
ZBYN,1995-09-20 07:00,ZBYN 200700Z AUTO 00000KT 7SM 23/13 A3006 RMK T02300130 IEM_DS3505
ZBYN,1995-09-20 08:00,ZBYN 200800Z AUTO 17006KT 7SM 23/13 A3003 RMK T02300130 IEM_DS3505
ZBYN,1995-09-20 09:00,ZBYN 200900Z AUTO 18004KT 5SM 22/12 A3003 RMK SLP151 T02190120 57013 IEM_DS3505
ZBYN,1995-09-20 10:00,ZBYN 201000Z AUTO 00000KT 7SM 21/14 A3003 RMK T02100140 IEM_DS3505
ZBYN,1995-09-20 11:00,ZBYN 201100Z AUTO 00000KT 7SM 17/15 A3003 RMK T01700150 IEM_DS3505
ZBYN,1995-09-20 12:00,ZBYN 201200Z AUTO 07002KT 6SM 16/14 A3006 RMK SLP171 T01560135 52010 IEM_DS3505
ZBYN,1995-09-20 13:00,ZBYN 201300Z AUTO 21004KT 6SM 16/14 A3009 RMK T01600140 IEM_DS3505
ZBYN,1995-09-20 14:00,ZBYN 201400Z AUTO 30006KT 6SM 17/13 A3009 RMK T01700130 IEM_DS3505
ZBYN,1995-09-20 15:00,ZBYN 201500Z AUTO 07004KT 6SM 14/13 RMK SLP170 T01450126 52002 IEM_DS3505
ZBYN,1995-09-20 17:00,ZBYN 201700Z AUTO 09006KT 7SM 13/12 A3009 RMK T01300120 IEM_DS3505
ZBYN,1995-09-20 18:00,ZBYN 201800Z AUTO 00000KT 6SM 13/12 A3009 RMK SLP168 T01300125 52004 IEM_DS3505
ZBYN,1995-09-20 19:00,ZBYN 201900Z AUTO 11004KT 7SM 11/11 A3009 RMK T01100110 IEM_DS3505
ZBYN,1995-09-20 21:00,ZBYN 202100Z AUTO 20002KT 9SM 11/11 A3009 RMK SLP169 T01090107 57001 IEM_DS3505
ZBYN,1995-09-20 22:00,ZBYN 202200Z AUTO 11004KT 6SM 11/10 A3009 RMK T01100100 IEM_DS3505
ZBYN,1995-09-20 23:00,ZBYN 202300Z AUTO 36004KT 2SM 12/11 A3012 RMK T01200110 IEM_DS3505
ZBYN,1995-09-21 00:00,ZBYN 210000Z AUTO 00000KT 4SM 13/12 A3012 RMK SLP188 T01310124 52011 IEM_DS3505
ZBYN,1995-09-21 01:00,ZBYN 210100Z AUTO 10004KT 4SM 15/13 A3012 RMK T01500130 IEM_DS3505
ZBYN,1995-09-21 02:00,ZBYN 210200Z AUTO 17004KT 4SM 18/14 A3012 RMK T01800140 IEM_DS3505
ZBYN,1995-09-21 03:00,ZBYN 210300Z AUTO 11004KT 6SM 19/13 A3009 RMK SLP177 T01890131 57003 IEM_DS3505
ZBYN,1995-09-21 04:00,ZBYN 210400Z AUTO 18006KT 5SM 22/14 A3006 RMK T02200140 IEM_DS3505
ZBYN,1995-09-21 05:00,ZBYN 210500Z AUTO 19006KT 6SM 24/14 A3003 RMK T02400140 IEM_DS3505
ZBYN,1995-09-21 06:00,ZBYN 210600Z AUTO 16006KT 6SM 24/13 A3000 RMK SLP138 T02420127 57030 IEM_DS3505
ZBYN,1995-09-21 07:00,ZBYN 210700Z AUTO 20006KT 7SM 26/14 A2997 RMK T02600140 IEM_DS3505
ZBYN,1995-09-21 08:00,ZBYN 210800Z AUTO 18006KT 7SM 26/14 A2997 RMK T02600140 IEM_DS3505
ZBYN,1995-09-21 09:00,ZBYN 210900Z AUTO 18006KT 7SM 25/13 A2994 RMK SLP125 T02480126 57014 IEM_DS3505
ZBYN,1995-09-21 10:00,ZBYN 211000Z AUTO 14004KT 7SM 22/16 A2994 RMK T02200160 IEM_DS3505
ZBYN,1995-09-21 11:00,ZBYN 211100Z AUTO 07004KT 7SM 19/14 A2994 RMK T01900140 IEM_DS3505
ZBYN,1995-09-21 12:00,ZBYN 211200Z AUTO 14004KT 6SM 18/14 A2997 RMK SLP136 T01750136 52002 IEM_DS3505
ZBYN,1995-09-21 13:00,ZBYN 211300Z AUTO 09004KT 7SM 17/14 A3000 RMK T01700140 IEM_DS3505
ZBYN,1995-09-21 14:00,ZBYN 211400Z AUTO 10004KT 6SM 16/14 A3000 RMK T01600140 IEM_DS3505
ZBYN,1995-09-21 15:00,ZBYN 211500Z AUTO 14004KT 6SM 14/13 A3000 RMK SLP143 T01430127 52011 IEM_DS3505
ZBYN,1995-09-21 16:00,ZBYN 211600Z AUTO 06006KT 6SM 14/13 A3000 RMK T01400130 IEM_DS3505
ZBYN,1995-09-21 17:00,ZBYN 211700Z AUTO 09004KT 6SM 13/13 A3000 RMK T01300130 IEM_DS3505
ZBYN,1995-09-21 18:00,ZBYN 211800Z AUTO 00000KT 6SM 12/12 A3000 RMK SLP141 T01220117 52002 IEM_DS3505
ZBYN,1995-09-21 19:00,ZBYN 211900Z AUTO 08006KT 5SM 13/12 A3000 RMK T01300120 IEM_DS3505
ZBYN,1995-09-21 20:00,ZBYN 212000Z AUTO 08004KT 3SM 12/12 A3000 RMK T01200120 IEM_DS3505
ZBYN,1995-09-21 21:00,ZBYN 212100Z AUTO 00000KT 1 1/4SM 10/10 A3000 RMK SLP144 T01030101 52001 IEM_DS3505
ZBYN,1995-09-21 22:00,ZBYN 212200Z AUTO 09002KT 1 1/2SM 11/11 A3000 RMK T01100110 IEM_DS3505
ZBYN,1995-09-21 23:00,ZBYN 212300Z AUTO 00000KT 1 1/2SM 11/11 A3003 RMK T01100110 IEM_DS3505
ZBYN,1995-09-22 00:00,ZBYN 220000Z AUTO 32004KT 1 1/4SM 12/12 A3003 RMK SLP161 T01210119 52008 IEM_DS3505
ZBYN,1995-09-22 01:00,ZBYN 220100Z AUTO 00000KT 6SM A3003 RMK IEM_DS3505
ZBYN,1995-09-22 02:00,ZBYN 220200Z AUTO 12004KT 2 1/2SM 18/14 A3003 RMK T01800140 IEM_DS3505
ZBYN,1995-09-22 03:00,ZBYN 220300Z AUTO 11004KT 5SM 21/13 A3000 RMK SLP143 T02140128 57008 IEM_DS3505
ZBYN,1995-09-22 04:00,ZBYN 220400Z AUTO 14008KT 7SM 23/14 A3000 RMK T02300140 IEM_DS3505
ZBYN,1995-09-22 05:00,ZBYN 220500Z AUTO 18008KT 7SM 26/12 A2997 RMK T02600120 IEM_DS3505
ZBYN,1995-09-22 06:00,ZBYN 220600Z AUTO 20008KT 6SM 26/13 A2994 RMK SLP113 T02600130 57023 IEM_DS3505
ZBYN,1995-09-22 07:00,ZBYN 220700Z AUTO 19010KT 7SM 27/11 A2991 RMK T02700110 IEM_DS3505
ZBYN,1995-09-22 08:00,ZBYN 220800Z AUTO 22010KT 7SM 27/09 A2988 RMK T02700090 IEM_DS3505
ZBYN,1995-09-22 09:00,ZBYN 220900Z AUTO 18004KT 9SM 25/12 A2985 RMK SLP094 T02520121 57021 IEM_DS3505
ZBYN,1995-09-22 10:00,ZBYN 221000Z AUTO 18004KT 7SM 24/12 A2985 RMK T02400120 IEM_DS3505
ZBYN,1995-09-22 11:00,ZBYN 221100Z AUTO 15006KT 7SM 19/13 A2985 RMK T01900130 IEM_DS3505
ZBYN,1995-09-22 12:00,ZBYN 221200Z AUTO 11004KT 6SM 18/12 A2991 RMK SLP116 T01760118 52012 IEM_DS3505
ZBYN,1995-09-22 13:00,ZBYN 221300Z AUTO 16008KT 7SM 17/13 A2991 RMK T01700130 IEM_DS3505
ZBYN,1995-09-22 14:00,ZBYN 221400Z AUTO 18006KT 7SM 18/13 A2994 RMK T01800130 IEM_DS3505
ZBYN,1995-09-22 15:00,ZBYN 221500Z AUTO 09004KT 6SM 15/12 A2994 RMK SLP115 T01510123 52009 IEM_DS3505
ZBYN,1995-09-22 16:00,ZBYN 221600Z AUTO 10004KT 7SM 15/13 A2991 RMK T01500130 IEM_DS3505
ZBYN,1995-09-22 18:00,ZBYN 221800Z AUTO 22004KT 6SM 14/12 A2992 RMK SLP107 T01400122 57003 IEM_DS3505
ZBYN,1995-09-22 21:00,ZBYN 222100Z AUTO 36004KT 5SM 18/10 A2994 RMK SLP112 T01770101 52009 IEM_DS3505
ZBYN,1995-09-22 22:00,ZBYN 222200Z AUTO 27006KT 7SM 16/15 A3000 RMK T01600150 IEM_DS3505
ZBYN,1995-09-22 23:00,ZBYN 222300Z AUTO 27017KT 7SM 16/09 A3003 RMK T01600090 IEM_DS3505
ZBYN,1995-09-23 00:00,ZBYN 230000Z AUTO 32012KT 11SM 16/03 A3006 RMK SLP164 T01600032 52034 IEM_DS3505
ZBYN,1995-09-23 01:00,ZBYN 230100Z AUTO 32019KT 7SM 16/01 A3012 RMK T01600010 IEM_DS3505
ZBYN,1995-09-23 02:00,ZBYN 230200Z AUTO 29021KT 6SM 14/M03 A3012 RMK T01401030 IEM_DS3505
ZBYN,1995-09-23 03:00,ZBYN 230300Z AUTO 32016KT 12SM 14/M04 A3012 RMK SLP192 T01411042 52020 IEM_DS3505
ZBYN,1995-09-23 04:00,ZBYN 230400Z AUTO 29023KT 7SM 16/M08 A3012 RMK T01601080 IEM_DS3505
ZBYN,1995-09-23 05:00,ZBYN 230500Z AUTO 27017KT 6SM 17/M04 A3012 RMK T01701040 IEM_DS3505
ZBYN,1995-09-23 06:00,ZBYN 230600Z AUTO 32014KT 16SM 14/M06 A3012 RMK SLP195 T01411060 52001 IEM_DS3505
ZBYN,1995-09-23 07:00,ZBYN 230700Z AUTO 27016KT 6SM 17/M04 A3012 RMK T01701040 IEM_DS3505
ZBYN,1995-09-23 08:00,ZBYN 230800Z AUTO 29016KT 6SM 17/M05 A3012 RMK T01701050 IEM_DS3505
ZBYN,1995-09-23 09:00,ZBYN 230900Z AUTO 32014KT 12SM 15/M04 A3012 RMK SLP184 T01531043 57003 IEM_DS3505
ZBYN,1995-09-23 10:00,ZBYN 231000Z AUTO 28016KT 7SM 15/M04 A3012 RMK T01501040 IEM_DS3505
ZBYN,1995-09-23 11:00,ZBYN 231100Z AUTO 30012KT 7SM 12/01 A3015 RMK T01200010 IEM_DS3505
ZBYN,1995-09-23 12:00,ZBYN 231200Z AUTO 32010KT 12SM 11/M03 A3018 RMK SLP207 T01141029 52012 IEM_DS3505
ZBYN,1995-09-23 13:00,ZBYN 231300Z AUTO 31010KT 7SM 11/M03 A3018 RMK T01101030 IEM_DS3505
ZBYN,1995-09-23 14:00,ZBYN 231400Z AUTO 31006KT 7SM 10/M01 A3018 RMK T01001010 IEM_DS3505
ZBYN,1995-09-23 15:00,ZBYN 231500Z AUTO 32004KT 12SM 08/00 A3021 RMK SLP223 T00840002 52008 IEM_DS3505
ZBYN,1995-09-23 16:00,ZBYN 231600Z AUTO 00000KT 7SM 07/02 A3021 RMK T00700020 IEM_DS3505
ZBYN,1995-09-23 17:00,ZBYN 231700Z AUTO 00000KT 7SM 06/01 A3021 RMK T00600010 IEM_DS3505
ZBYN,1995-09-23 18:00,ZBYN 231800Z AUTO 00000KT 12SM 04/01 A3018 RMK SLP228 T00430014 57002 IEM_DS3505
ZBYN,1995-09-23 19:00,ZBYN 231900Z AUTO 00000KT 7SM 03/01 A3018 RMK T00300010 IEM_DS3505
ZBYN,1995-09-23 20:00,ZBYN 232000Z AUTO 07004KT 7SM 03/00 A3015 RMK T00300000 IEM_DS3505
ZBYN,1995-09-23 21:00,ZBYN 232100Z AUTO 04002KT 9SM 02/00 A3015 RMK SLP224 T00220001 57005 IEM_DS3505
ZBYN,1995-09-23 22:00,ZBYN 232200Z AUTO 00000KT 7SM 01/01 A3015 RMK T00100010 IEM_DS3505
ZBYN,1995-09-23 23:00,ZBYN 232300Z AUTO 31008KT 7SM 03/00 A3015 RMK T00300000 IEM_DS3505
ZBYN,1995-09-24 00:00,ZBYN 240000Z AUTO 00000KT 9SM 08/02 A3015 RMK SLP221 T00750016 57001 IEM_DS3505
ZBYN,1995-09-24 01:00,ZBYN 240100Z AUTO 00000KT 7SM 09/M01 A3015 RMK T00901010 IEM_DS3505
ZBYN,1995-09-24 02:00,ZBYN 240200Z AUTO 15006KT 7SM 11/M05 A3015 RMK T01101050 IEM_DS3505
ZBYN,1995-09-24 03:00,ZBYN 240300Z AUTO 14004KT 12SM 13/M03 A3012 RMK SLP209 T01311029 57007 IEM_DS3505
ZBYN,1995-09-24 04:00,ZBYN 240400Z AUTO 18010KT 9SM 16/M02 A3009 RMK T01651018 57033 IEM_DS3505
ZBYN,1995-09-24 05:00,ZBYN 240500Z AUTO 00000KT 7SM 17/M01 A3006 RMK T01701010 IEM_DS3505
ZBYN,1995-09-24 06:00,ZBYN 240600Z AUTO 18010KT 9SM 16/M02 A3003 RMK SLP173 T01651018 57033 IEM_DS3505
ZBYN,1995-09-24 07:00,ZBYN 240700Z AUTO 22008KT 7SM 18/M01 A3000 RMK T01801010 IEM_DS3505
ZBYN,1995-09-24 08:00,ZBYN 240800Z AUTO 24006KT 7SM 17/M03 A2997 RMK T01701030 IEM_DS3505
ZBYN,1995-09-24 09:00,ZBYN 240900Z AUTO 20008KT 9SM 17/00 A2997 RMK SLP162 T01670000 57013 IEM_DS3505
ZBYN,1995-09-24 10:00,ZBYN 241000Z AUTO 30010KT 7SM 16/M06 A2997 RMK T01601060 IEM_DS3505
ZBYN,1995-09-24 11:00,ZBYN 241100Z AUTO 31010KT 7SM 13/M04 A3000 RMK T01301040 IEM_DS3505
ZBYN,1995-09-24 12:00,ZBYN 241200Z AUTO 36002KT 9SM 11/M01 A3003 RMK SLP173 T01121007 52009 IEM_DS3505
ZBYN,1995-09-24 13:00,ZBYN 241300Z AUTO 00000KT 7SM 10/01 A3003 RMK T01000010 IEM_DS3505
ZBYN,1995-09-24 14:00,ZBYN 241400Z AUTO 14004KT 7SM 08/02 A3006 RMK T00800020 IEM_DS3505
ZBYN,1995-09-24 15:00,ZBYN 241500Z AUTO 07004KT 9SM 07/01 A3006 RMK SLP185 T00670012 52013 IEM_DS3505
ZBYN,1995-09-24 16:00,ZBYN 241600Z AUTO 08006KT 7SM 05/02 A3006 RMK T00500020 IEM_DS3505
ZBYN,1995-09-24 17:00,ZBYN 241700Z AUTO 08004KT 7SM 04/02 A3006 RMK T00400020 IEM_DS3505
ZBYN,1995-09-24 18:00,ZBYN 241800Z AUTO 00000KT 9SM 03/02 A3003 RMK SLP182 T00300015 57003 IEM_DS3505
ZBYN,1995-09-24 19:00,ZBYN 241900Z AUTO 00000KT 7SM 03/01 A3003 RMK T00300010 IEM_DS3505
ZBYN,1995-09-24 20:00,ZBYN 242000Z AUTO 00000KT 7SM 02/01 A3003 RMK T00200010 IEM_DS3505
ZBYN,1995-09-24 21:00,ZBYN 242100Z AUTO 20004KT 9SM 09/00 A3003 RMK SLP182 T00880000 57003 IEM_DS3505
ZBYN,1995-09-24 22:00,ZBYN 242200Z AUTO 00000KT 7SM 01/00 A3006 RMK T00100000 IEM_DS3505
ZBYN,1995-09-24 23:00,ZBYN 242300Z AUTO 00000KT 2 1/2SM 02/00 A3009 RMK T00200000 IEM_DS3505
ZBYN,1995-09-25 00:00,ZBYN 250000Z AUTO 09004KT 9SM 06/02 A3009 RMK SLP201 T00550025 52016 IEM_DS3505
ZBYN,1995-09-25 01:00,ZBYN 250100Z AUTO 00000KT 5SM 08/02 A3009 RMK T00800020 IEM_DS3505
ZBYN,1995-09-25 02:00,ZBYN 250200Z AUTO 00000KT 7SM 11/01 A3009 RMK T01100010 IEM_DS3505
ZBYN,1995-09-25 03:00,ZBYN 250300Z AUTO 32006KT 9SM 14/M02 A3009 RMK SLP192 T01351021 57003 IEM_DS3505
ZBYN,1995-09-25 04:00,ZBYN 250400Z AUTO 02008KT 7SM 15/M03 A3006 RMK T01501030 IEM_DS3505
ZBYN,1995-09-25 05:00,ZBYN 250500Z AUTO 30006KT 7SM 16/M05 A3003 RMK T01601050 IEM_DS3505
ZBYN,1995-09-25 06:00,ZBYN 250600Z AUTO 32012KT 12SM 17/M03 A3003 RMK SLP174 T01691034 57017 IEM_DS3505
ZBYN,1995-09-25 07:00,ZBYN 250700Z AUTO 30014KT 7SM 18/M03 A3000 RMK T01801030 IEM_DS3505
ZBYN,1995-09-25 08:00,ZBYN 250800Z AUTO 30017KT 7SM 18/M03 A3000 RMK T01801030 IEM_DS3505
ZBYN,1995-09-25 09:00,ZBYN 250900Z AUTO 32010KT 12SM 14/02 A3003 RMK SLP180 T01430015 54000 IEM_DS3505
ZBYN,1995-09-25 10:00,ZBYN 251000Z AUTO 36008KT 7SM 15/01 A3003 RMK T01500010 IEM_DS3505
ZBYN,1995-09-25 11:00,ZBYN 251100Z AUTO 01016KT 7SM 13/M02 A3006 RMK T01301020 IEM_DS3505
ZBYN,1995-09-25 12:00,ZBYN 251200Z AUTO 36006KT 9SM 11/M00 A3009 RMK SLP210 T01121001 52028 IEM_DS3505
ZBYN,1995-09-25 13:00,ZBYN 251300Z AUTO 00000KT 7SM 10/00 A3012 RMK T01000000 IEM_DS3505
ZBYN,1995-09-25 14:00,ZBYN 251400Z AUTO 00000KT 7SM 08/01 A3015 RMK T00800010 IEM_DS3505
ZBYN,1995-09-25 15:00,ZBYN 251500Z AUTO 32004KT 9SM 08/00 A3018 RMK SLP218 T00820005 52015 IEM_DS3505
ZBYN,1995-09-25 16:00,ZBYN 251600Z AUTO 36004KT 7SM 08/00 A3018 RMK T00800000 IEM_DS3505
ZBYN,1995-09-25 17:00,ZBYN 251700Z AUTO 00000KT 7SM 06/01 A3018 RMK T00600010 IEM_DS3505
ZBYN,1995-09-25 18:00,ZBYN 251800Z AUTO 32004KT 9SM 06/01 A3018 RMK SLP220 T00600012 52004 IEM_DS3505
ZBYN,1995-09-25 19:00,ZBYN 251900Z AUTO 00000KT 7SM 05/00 A3018 RMK T00500000 IEM_DS3505
ZBYN,1995-09-25 20:00,ZBYN 252000Z AUTO 00000KT 7SM 04/00 A3018 RMK T00400000 IEM_DS3505
ZBYN,1995-09-25 21:00,ZBYN 252100Z AUTO 32002KT 9SM 04/01 A3018 RMK SLP230 T00400010 52002 IEM_DS3505
ZBYN,1995-09-25 22:00,ZBYN 252200Z AUTO 00000KT 7SM 02/00 A3021 RMK T00200000 IEM_DS3505
ZBYN,1995-09-25 23:00,ZBYN 252300Z AUTO 00000KT 7SM 01/00 A3021 RMK T00100000 IEM_DS3505
ZBYN,1995-09-26 00:00,ZBYN 260000Z AUTO 20006KT 9SM 05/02 A3024 RMK SLP249 T00500024 52014 IEM_DS3505
ZBYN,1995-09-26 01:00,ZBYN 260100Z AUTO 28006KT 7SM 09/01 A3024 RMK T00900010 IEM_DS3505
ZBYN,1995-09-26 02:00,ZBYN 260200Z AUTO 03004KT 7SM 11/00 A3027 RMK T01100000 IEM_DS3505
ZBYN,1995-09-26 03:00,ZBYN 260300Z AUTO 32004KT 9SM 13/M00 A3024 RMK SLP247 T01331004 52006 IEM_DS3505
ZBYN,1995-09-26 04:00,ZBYN 260400Z AUTO 31004KT 7SM 14/M03 A3024 RMK T01401030 IEM_DS3505
ZBYN,1995-09-26 05:00,ZBYN 260500Z AUTO 03006KT 7SM 16/M01 A3018 RMK T01601010 IEM_DS3505
ZBYN,1995-09-26 06:00,ZBYN 260600Z AUTO 32004KT 9SM 17/00 A3018 RMK SLP224 T01670003 57019 IEM_DS3505
ZBYN,1995-09-26 07:00,ZBYN 260700Z AUTO 32004KT 7SM 18/00 A3015 RMK T01800000 IEM_DS3505
ZBYN,1995-09-26 08:00,ZBYN 260800Z AUTO 22006KT 7SM 18/01 A3015 RMK T01800010 IEM_DS3505
ZBYN,1995-09-26 09:00,ZBYN 260900Z AUTO 18008KT 6SM 16/01 A3015 RMK SLP218 T01610012 57009 IEM_DS3505
ZBYN,1995-09-26 10:00,ZBYN 261000Z AUTO 00000KT 7SM 15/05 A3015 RMK T01500050 IEM_DS3505
ZBYN,1995-09-26 11:00,ZBYN 261100Z AUTO 00000KT 7SM 11/05 A3015 RMK T01100050 IEM_DS3505
ZBYN,1995-09-26 12:00,ZBYN 261200Z AUTO 11002KT 6SM 09/04 A3018 RMK SLP233 T00920044 52004 IEM_DS3505
ZBYN,1995-09-26 13:00,ZBYN 261300Z AUTO 09004KT 3SM 08/05 A3018 RMK T00800050 IEM_DS3505
ZBYN,1995-09-26 14:00,ZBYN 261400Z AUTO 12006KT 5SM 06/04 A3021 RMK T00600040 IEM_DS3505
ZBYN,1995-09-26 15:00,ZBYN 261500Z AUTO 32002KT 5SM 05/04 A3021 RMK SLP235 T00530039 52009 IEM_DS3505
ZBYN,1995-09-26 16:00,ZBYN 261600Z AUTO 00000KT 5SM 06/04 A3021 RMK T00600040 IEM_DS3505
ZBYN,1995-09-26 18:00,ZBYN 261800Z AUTO 16002KT 5SM 04/03 A3021 RMK SLP234 T00380029 52002 IEM_DS3505
ZBYN,1995-09-26 19:00,ZBYN 261900Z AUTO 06004KT 5SM 04/03 A3021 RMK T00400030 IEM_DS3505
ZBYN,1995-09-26 20:00,ZBYN 262000Z AUTO 00000KT 5SM 04/03 A3021 RMK T00400030 IEM_DS3505
ZBYN,1995-09-26 21:00,ZBYN 262100Z AUTO 00000KT 5SM 03/01 A3018 RMK T00300010 IEM_DS3505
ZBYN,1995-09-26 22:00,ZBYN 262200Z AUTO 00000KT 2 1/2SM 03/02 A3018 RMK T00300020 IEM_DS3505
ZBYN,1995-09-26 23:00,ZBYN 262300Z AUTO 06002KT 2 1/2SM 03/02 A3021 RMK T00300020 IEM_DS3505
ZBYN,1995-09-27 00:00,ZBYN 270000Z AUTO 02002KT 5SM 06/03 A3021 RMK SLP244 T00630033 52005 IEM_DS3505
ZBYN,1995-09-27 01:00,ZBYN 270100Z AUTO 00000KT 4SM 07/04 A3021 RMK T00700040 IEM_DS3505
ZBYN,1995-09-27 03:00,ZBYN 270300Z AUTO 14006KT 6SM 14/04 RMK SLP226 T01420042 57010 IEM_DS3505
ZBYN,1995-09-27 04:00,ZBYN 270400Z AUTO 21004KT 7SM 17/04 A3015 RMK T01700040 IEM_DS3505
ZBYN,1995-09-27 05:00,ZBYN 270500Z AUTO 21010KT 6SM 19/04 A3009 RMK T01900040 IEM_DS3505
ZBYN,1995-09-27 06:00,ZBYN 270600Z AUTO 18010KT 6SM 20/04 A3006 RMK SLP179 T01960036 57037 IEM_DS3505
ZBYN,1995-09-27 08:00,ZBYN 270800Z AUTO 21010KT 6SM 21/04 A3003 RMK T02100040 IEM_DS3505
ZBYN,1995-09-27 09:00,ZBYN 270900Z AUTO 18004KT 6SM 19/08 A3000 RMK SLP162 T01860075 57019 IEM_DS3505
ZBYN,1995-09-27 10:00,ZBYN 271000Z AUTO 17004KT 6SM 17/10 A3000 RMK T01700100 IEM_DS3505
ZBYN,1995-09-27 11:00,ZBYN 271100Z AUTO 00000KT 4SM 15/09 A3000 RMK T01500090 IEM_DS3505
ZBYN,1995-09-27 12:00,ZBYN 271200Z AUTO 11004KT 6SM 15/08 A3003 RMK SLP171 T01470075 52008 IEM_DS3505
ZBYN,1995-09-27 13:00,ZBYN 271300Z AUTO 00000KT 4SM 12/09 A3003 RMK T01200090 IEM_DS3505
ZBYN,1995-09-27 14:00,ZBYN 271400Z AUTO 10006KT 7SM 11/09 A3006 RMK T01100090 IEM_DS3505
ZBYN,1995-09-27 15:00,ZBYN 271500Z AUTO 00000KT 6SM 11/09 A3006 RMK SLP169 T01070086 52004 IEM_DS3505
ZBYN,1995-09-27 18:00,ZBYN 271800Z AUTO 34004KT 6SM 10/09 A3003 RMK SLP161 T00960086 57001 IEM_DS3505
ZBYN,1995-09-27 21:00,ZBYN 272100Z AUTO 36002KT 6SM 09/08 RMK SLP166 T00920076 52003 IEM_DS3505
ZBYN,1995-09-27 23:00,ZBYN 272300Z AUTO 00000KT 1 1/2SM 07/07 A3006 RMK T00700070 IEM_DS3505
ZBYN,1995-09-28 00:00,ZBYN 280000Z AUTO 32004KT 4SM 10/08 A3009 RMK SLP185 T01000078 52012 IEM_DS3505
ZBYN,1995-09-28 02:00,ZBYN 280200Z AUTO 00000KT 2SM 16/11 A3009 RMK T01600110 IEM_DS3505
ZBYN,1995-09-28 03:00,ZBYN 280300Z AUTO 00000KT 4SM 18/10 A3009 RMK SLP181 T01810095 52003 IEM_DS3505
ZBYN,1995-09-28 04:00,ZBYN 280400Z AUTO 00000KT 2 1/2SM 20/10 A3006 RMK T02000100 IEM_DS3505
ZBYN,1995-09-28 05:00,ZBYN 280500Z AUTO 00000KT 5SM 23/12 A3003 RMK T02300120 IEM_DS3505
ZBYN,1995-09-28 06:00,ZBYN 280600Z AUTO 14004KT 6SM 23/08 A3000 RMK SLP146 T02320076 57026 IEM_DS3505
ZBYN,1995-09-28 07:00,ZBYN 280700Z AUTO 00000KT 6SM 25/12 A3000 RMK T02500120 IEM_DS3505
ZBYN,1995-09-28 08:00,ZBYN 280800Z AUTO 27006KT 6SM 25/10 A2997 RMK T02500100 IEM_DS3505
ZBYN,1995-09-28 09:00,ZBYN 280900Z AUTO 20004KT 5SM 22/12 A2997 RMK SLP138 T02230125 57009 IEM_DS3505
ZBYN,1995-09-28 10:00,ZBYN 281000Z AUTO 00000KT 6SM 19/14 A2997 RMK T01900140 IEM_DS3505
ZBYN,1995-09-28 11:00,ZBYN 281100Z AUTO 07004KT 2SM 17/14 A3000 RMK T01700140 IEM_DS3505
ZBYN,1995-09-28 12:00,ZBYN 281200Z AUTO 34004KT 5SM 17/13 A3003 RMK SLP161 T01700129 52014 IEM_DS3505
ZBYN,1995-09-28 13:00,ZBYN 281300Z AUTO 00000KT 2SM 14/12 A3003 RMK T01400120 IEM_DS3505
ZBYN,1995-09-28 14:00,ZBYN 281400Z AUTO 13004KT 2SM 13/11 A3006 RMK T01300110 IEM_DS3505
ZBYN,1995-09-28 15:00,ZBYN 281500Z AUTO 00000KT 6SM 13/10 RMK SLP168 T01260104 52012 IEM_DS3505
ZBYN,1995-09-28 16:00,ZBYN 281600Z AUTO 00000KT 2 1/2SM 11/10 A3009 RMK T01100100 IEM_DS3505
ZBYN,1995-09-28 17:00,ZBYN 281700Z AUTO 00000KT 2 1/2SM 11/10 A3009 RMK T01100100 IEM_DS3505
ZBYN,1995-09-28 18:00,ZBYN 281800Z AUTO 00000KT 6SM 12/09 A3009 RMK SLP166 T01180093 52004 IEM_DS3505
ZBYN,1995-09-28 19:00,ZBYN 281900Z AUTO 00000KT 2 1/2SM 10/09 A3009 RMK T01000090 IEM_DS3505
ZBYN,1995-09-28 20:00,ZBYN 282000Z AUTO 00000KT 2 1/2SM 09/09 A3009 RMK T00900090 IEM_DS3505
ZBYN,1995-09-28 21:00,ZBYN 282100Z AUTO 36004KT 6SM 10/08 A3009 RMK SLP175 T01050075 52005 IEM_DS3505
ZBYN,1995-09-28 22:00,ZBYN 282200Z AUTO 00000KT 2 1/2SM 09/08 A3012 RMK T00900080 IEM_DS3505
ZBYN,1995-09-28 23:00,ZBYN 282300Z AUTO 00000KT 1 1/4SM 08/08 A3012 RMK T00800080 IEM_DS3505
ZBYN,1995-09-29 00:00,ZBYN 290000Z AUTO 34006KT 6SM 12/06 A3012 RMK SLP196 T01170062 52013 IEM_DS3505
ZBYN,1995-09-29 01:00,ZBYN 290100Z AUTO 09004KT 2SM 13/09 A3015 RMK T01300090 IEM_DS3505
ZBYN,1995-09-29 02:00,ZBYN 290200Z AUTO 00000KT 2 1/2SM 16/08 A3015 RMK T01600080 IEM_DS3505
ZBYN,1995-09-29 03:00,ZBYN 290300Z AUTO 36004KT 6SM 20/07 A3012 RMK SLP187 T01960069 57003 IEM_DS3505
ZBYN,1995-09-29 04:00,ZBYN 290400Z AUTO 00000KT 4SM 22/09 A3009 RMK T02200090 IEM_DS3505
ZBYN,1995-09-29 05:00,ZBYN 290500Z AUTO 00000KT 5SM 25/11 A3006 RMK T02500110 IEM_DS3505
ZBYN,1995-09-29 06:00,ZBYN 290600Z AUTO 16004KT 6SM 26/10 A3003 RMK SLP149 T02580100 57038 IEM_DS3505
ZBYN,1995-09-29 07:00,ZBYN 290700Z AUTO 18010KT 7SM 27/08 A3000 RMK T02700080 IEM_DS3505
ZBYN,1995-09-29 08:00,ZBYN 290800Z AUTO 15012KT 7SM 27/09 A3000 RMK T02700090 IEM_DS3505
ZBYN,1995-09-29 09:00,ZBYN 290900Z AUTO 16006KT 6SM 25/09 A3000 RMK SLP140 T02520087 57011 IEM_DS3505
ZBYN,1995-09-29 10:00,ZBYN 291000Z AUTO 15006KT 7SM 21/11 A3000 RMK T02100110 IEM_DS3505
ZBYN,1995-09-29 11:00,ZBYN 291100Z AUTO 09010KT 2SM 18/11 A3003 RMK T01800110 IEM_DS3505
ZBYN,1995-09-29 12:00,ZBYN 291200Z AUTO 11012KT 6SM 19/11 A3006 RMK SLP162 T01930110 52014 IEM_DS3505
ZBYN,1995-09-29 13:00,ZBYN 291300Z AUTO 09012KT 3SM 17/12 A3009 RMK T01700120 IEM_DS3505
ZBYN,1995-09-29 14:00,ZBYN 291400Z AUTO 09010KT 2 1/2SM 16/12 A3009 RMK T01600120 IEM_DS3505
ZBYN,1995-09-29 15:00,ZBYN 291500Z AUTO 00000KT 6SM 15/11 A3012 RMK SLP178 T01500110 52020 IEM_DS3505
ZBYN,1995-09-29 16:00,ZBYN 291600Z AUTO 08008KT 2 1/2SM 15/12 A3012 RMK T01500120 IEM_DS3505
ZBYN,1995-09-29 17:00,ZBYN 291700Z AUTO 08008KT 2 1/2SM 15/12 A3012 RMK T01500120 IEM_DS3505
ZBYN,1995-09-29 18:00,ZBYN 291800Z AUTO 34004KT 4SM 12/11 A3012 RMK SLP176 T01230112 52003 IEM_DS3505
ZBYN,1995-09-29 20:00,ZBYN 292000Z AUTO 08004KT 2 1/2SM 13/11 A3012 RMK T01300110 IEM_DS3505
ZBYN,1995-09-29 21:00,ZBYN 292100Z AUTO 29002KT 4SM 13/11 A3012 RMK SLP175 T01330109 57001 IEM_DS3505
ZBYN,1995-09-29 22:00,ZBYN 292200Z AUTO 06006KT 2 1/2SM 13/11 A3012 RMK T01300110 IEM_DS3505
ZBYN,1995-09-29 23:00,ZBYN 292300Z AUTO 32006KT 1SM 13/12 A3012 RMK T01300120 IEM_DS3505
ZBYN,1995-09-30 00:00,ZBYN 300000Z AUTO 04004KT 1 1/4SM 14/12 A3015 RMK SLP192 T01430116 52009 IEM_DS3505
ZBYN,1995-09-30 01:00,ZBYN 300100Z AUTO 34004KT 1SM 16/13 A3015 RMK T01600130 IEM_DS3505
ZBYN,1995-09-30 02:00,ZBYN 300200Z AUTO 30004KT 1SM 19/14 A3018 RMK T01900140 IEM_DS3505
ZBYN,1995-09-30 03:00,ZBYN 300300Z AUTO 34004KT 3SM 20/13 A3015 RMK SLP194 T02000127 52004 IEM_DS3505
ZBYN,1995-09-30 04:00,ZBYN 300400Z AUTO 18010KT 7SM 24/13 A3012 RMK T02400130 IEM_DS3505
ZBYN,1995-09-30 05:00,ZBYN 300500Z AUTO 17010KT 7SM 24/13 A3009 RMK T02400130 IEM_DS3505
ZBYN,1995-09-30 06:00,ZBYN 300600Z AUTO 14006KT 5SM 23/12 A3006 RMK SLP168 T02340123 57023 IEM_DS3505
ZBYN,1995-09-30 07:00,ZBYN 300700Z AUTO 17012KT 7SM 25/13 A3006 RMK T02500130 IEM_DS3505
ZBYN,1995-09-30 08:00,ZBYN 300800Z AUTO 17012KT 6SM 25/12 A3003 RMK T02500120 IEM_DS3505
ZBYN,1995-09-30 09:00,ZBYN 300900Z AUTO 16008KT 5SM 23/13 A3003 RMK SLP150 T02330128 57015 IEM_DS3505
ZBYN,1995-09-30 10:00,ZBYN 301000Z AUTO 10006KT 3SM 21/15 A3003 RMK T02100150 IEM_DS3505
ZBYN,1995-09-30 11:00,ZBYN 301100Z AUTO 09010KT 2 1/2SM 19/15 A3006 RMK T01900150 IEM_DS3505
ZBYN,1995-09-30 12:00,ZBYN 301200Z AUTO 09010KT 5SM 20/13 A3012 RMK SLP172 T02000134 52017 IEM_DS3505
ZBYN,1995-09-30 13:00,ZBYN 301300Z AUTO 09016KT 2 1/2SM 18/15 A3012 RMK T01800150 IEM_DS3505
ZBYN,1995-09-30 14:00,ZBYN 301400Z AUTO 09014KT 2 1/2SM 18/15 A3012 RMK T01800150 IEM_DS3505
ZBYN,1995-09-30 15:00,ZBYN 301500Z AUTO 11008KT 6SM 18/13 A3012 RMK SLP173 T01750130 52005 IEM_DS3505
ZBYN,1995-09-30 16:00,ZBYN 301600Z AUTO 09008KT 2 1/2SM 17/14 A3012 RMK T01700140 IEM_DS3505
ZBYN,1995-09-30 17:00,ZBYN 301700Z AUTO 09008KT 2 1/2SM 17/14 A3012 RMK T01700140 IEM_DS3505
ZBYN,1995-09-30 18:00,ZBYN 301800Z AUTO 11004KT 6SM 16/14 A3012 RMK SLP171 T01590139 52001 IEM_DS3505
ZBYN,1995-09-30 19:00,ZBYN 301900Z AUTO 09008KT 2 1/2SM 16/13 A3009 RMK T01600130 IEM_DS3505
ZBYN,1995-09-30 20:00,ZBYN 302000Z AUTO 09008KT 2 1/2SM 16/13 A3009 RMK T01600130 IEM_DS3505
ZBYN,1995-09-30 21:00,ZBYN 302100Z AUTO 11002KT 6SM 16/13 A3006 RMK SLP160 T01550133 57011 IEM_DS3505
ZBYN,1995-09-30 22:00,ZBYN 302200Z AUTO 09010KT 2 1/2SM 16/13 A3006 RMK T01600130 IEM_DS3505
ZBYN,1995-09-30 23:00,ZBYN 302300Z AUTO 09008KT 2 1/2SM 16/14 A3006 RMK T01600140 IEM_DS3505
ZBYN,1995-10-01 00:00,ZBYN 010000Z AUTO 16004KT 6SM 16/14 A3006 RMK SLP160 T01570138 57004 IEM_DS3505
ZBYN,1995-10-01 01:00,ZBYN 010100Z AUTO 12010KT 4SM 18/14 A3006 RMK T01800140 IEM_DS3505
ZBYN,1995-10-01 02:00,ZBYN 010200Z AUTO 13006KT 4SM 18/15 A3006 RMK T01800150 IEM_DS3505
ZBYN,1995-10-01 03:00,ZBYN 010300Z AUTO 16006KT 6SM 17/16 A3006 RMK SLP167 T01680157 52004 IEM_DS3505
ZBYN,1995-10-01 04:00,ZBYN 010400Z AUTO 21004KT 3SM 18/16 A3006 RMK T01800160 IEM_DS3505
ZBYN,1995-10-01 05:00,ZBYN 010500Z AUTO 01004KT 3SM 18/17 A3003 RMK T01800170 IEM_DS3505
ZBYN,1995-10-01 06:00,ZBYN 010600Z AUTO 22004KT 5SM 17/16 A3000 RMK 60008 SLP152 T01670162 57016 IEM_DS3505
ZBYN,1995-10-01 07:00,ZBYN 010700Z AUTO 09004KT 2SM 17/17 A3000 RMK T01700170 IEM_DS3505
ZBYN,1995-10-01 08:00,ZBYN 010800Z AUTO 00000KT 1 1/4SM 17/17 A3000 RMK T01700170 IEM_DS3505
ZBYN,1995-10-01 09:00,ZBYN 010900Z AUTO 20004KT 4SM 16/16 A3000 RMK SLP150 T01620157 57003 IEM_DS3505
ZBYN,1995-10-01 10:00,ZBYN 011000Z AUTO 20008KT 1 1/2SM 16/16 A3003 RMK T01600160 IEM_DS3505
ZBYN,1995-10-01 11:00,ZBYN 011100Z AUTO 21014KT 2 1/2SM 14/13 A3006 RMK T01400130 IEM_DS3505
ZBYN,1995-10-01 12:00,ZBYN 011200Z AUTO 22006KT 4SM 14/13 A3006 RMK 60004 SLP175 T01380127 52019 IEM_DS3505
ZBYN,1995-10-01 13:00,ZBYN 011300Z AUTO 21012KT 4SM 14/12 A3012 RMK T01400120 IEM_DS3505
ZBYN,1995-10-01 14:00,ZBYN 011400Z AUTO 21010KT 4SM 13/11 A3012 RMK T01300110 IEM_DS3505
ZBYN,1995-10-01 15:00,ZBYN 011500Z AUTO 11002KT 4SM 12/11 A3012 RMK SLP190 T01240111 52014 IEM_DS3505
ZBYN,1995-10-01 16:00,ZBYN 011600Z AUTO 00000KT 4SM 13/11 A3015 RMK T01300110 IEM_DS3505
ZBYN,1995-10-01 18:00,ZBYN 011800Z AUTO 00000KT 4SM 12/11 A3015 RMK SLP194 T01230114 52003 IEM_DS3505
ZBYN,1995-10-01 19:00,ZBYN 011900Z AUTO 30004KT 4SM 12/10 A3012 RMK T01200100 IEM_DS3505
ZBYN,1995-10-01 20:00,ZBYN 012000Z AUTO 36008KT 7SM 12/08 A3015 RMK T01200080 IEM_DS3505
ZBYN,1995-10-01 21:00,ZBYN 012100Z AUTO 36006KT 6SM 12/07 A3015 RMK 70012 SLP208 T01150069 52011 IEM_DS3505
ZBYN,1995-10-01 22:00,ZBYN 012200Z AUTO ////14KT 7SM 10/06 A3018 RMK T01000060 IEM_DS3505
ZBYN,1995-10-01 23:00,ZBYN 012300Z AUTO 36010KT 7SM 10/05 A3021 RMK T01000050 IEM_DS3505
ZBYN,1995-10-02 00:00,ZBYN 020000Z AUTO 02006KT 12SM 10/04 A3021 RMK 70012 SLP231 T01030045 52015 IEM_DS3505
ZBYN,1995-10-02 01:00,ZBYN 020100Z AUTO 01012KT 6SM 11/03 A3024 RMK T01100030 IEM_DS3505
ZBYN,1995-10-02 02:00,ZBYN 020200Z AUTO 01014KT 6SM 11/03 A3024 RMK T01100030 IEM_DS3505
ZBYN,1995-10-02 03:00,ZBYN 020300Z AUTO 02008KT 9SM 14/05 A3024 RMK SLP231 T01390048 52004 IEM_DS3505
ZBYN,1995-10-02 04:00,ZBYN 020400Z AUTO 34012KT 6SM 14/03 A3024 RMK T01400030 IEM_DS3505
ZBYN,1995-10-02 05:00,ZBYN 020500Z AUTO 04012KT 6SM 14/04 A3021 RMK T01400040 IEM_DS3505
ZBYN,1995-10-02 06:00,ZBYN 020600Z AUTO 36010KT 12SM 16/00 A3018 RMK SLP216 T01580001 57011 IEM_DS3505
ZBYN,1995-10-02 07:00,ZBYN 020700Z AUTO 36012KT 6SM 16/00 A3018 RMK T01600000 IEM_DS3505
ZBYN,1995-10-02 08:00,ZBYN 020800Z AUTO 04008KT 6SM 16/00 A3018 RMK T01600000 IEM_DS3505
ZBYN,1995-10-02 09:00,ZBYN 020900Z AUTO 00000KT 12SM 16/03 A3018 RMK SLP214 T01560032 57004 IEM_DS3505
ZBYN,1995-10-02 10:00,ZBYN 021000Z AUTO 00000KT 6SM 13/04 A3021 RMK T01300040 IEM_DS3505
ZBYN,1995-10-02 11:00,ZBYN 021100Z AUTO 33006KT 6SM 13/03 A3024 RMK T01300030 IEM_DS3505
ZBYN,1995-10-02 12:00,ZBYN 021200Z AUTO 34006KT 7SM 13/03 A3024 RMK SLP245 T01280033 52023 IEM_DS3505
ZBYN,1995-10-02 13:00,ZBYN 021300Z AUTO 31010KT 6SM 12/03 A3027 RMK T01200030 IEM_DS3505
ZBYN,1995-10-02 14:00,ZBYN 021400Z AUTO 33006KT 6SM 12/03 A3027 RMK T01200030 IEM_DS3505
ZBYN,1995-10-02 15:00,ZBYN 021500Z AUTO 02002KT 6SM 11/04 A3027 RMK SLP249 T01090040 52006 IEM_DS3505
ZBYN,1995-10-02 16:00,ZBYN 021600Z AUTO 32006KT 7SM 10/02 A3027 RMK T01000020 IEM_DS3505
ZBYN,1995-10-02 17:00,ZBYN 021700Z AUTO 32006KT 7SM 10/02 A3027 RMK T01000020 IEM_DS3505
ZBYN,1995-10-02 18:00,ZBYN 021800Z AUTO 02004KT 6SM 07/04 A3027 RMK SLP254 T00700039 52001 IEM_DS3505
ZBYN,1995-10-02 19:00,ZBYN 021900Z AUTO 00000KT 7SM 07/01 A3027 RMK T00700010 IEM_DS3505
ZBYN,1995-10-02 20:00,ZBYN 022000Z AUTO 36006KT 7SM 07/M01 A3027 RMK T00701010 IEM_DS3505
ZBYN,1995-10-02 21:00,ZBYN 022100Z AUTO 00000KT 9SM 06/03 A3027 RMK SLP254 T00550034 57002 IEM_DS3505
ZBYN,1995-10-02 22:00,ZBYN 022200Z AUTO 00000KT 7SM 04/02 A3027 RMK T00400020 IEM_DS3505
ZBYN,1995-10-02 23:00,ZBYN 022300Z AUTO 00000KT 4SM 04/03 A3030 RMK T00400030 IEM_DS3505
ZBYN,1995-10-03 00:00,ZBYN 030000Z AUTO 14002KT 6SM 05/04 A3030 RMK SLP264 T00510040 52004 IEM_DS3505
ZBYN,1995-10-03 01:00,ZBYN 030100Z AUTO 12004KT 6SM 08/05 A3030 RMK T00800050 IEM_DS3505
ZBYN,1995-10-03 02:00,ZBYN 030200Z AUTO 18008KT 7SM 12/05 A3027 RMK T01200050 IEM_DS3505
ZBYN,1995-10-03 03:00,ZBYN 030300Z AUTO 18006KT 6SM 14/05 A3024 RMK SLP242 T01410046 57009 IEM_DS3505
ZBYN,1995-10-03 04:00,ZBYN 030400Z AUTO 18006KT 7SM 17/04 A3021 RMK T01700040 IEM_DS3505
ZBYN,1995-10-03 05:00,ZBYN 030500Z AUTO 24010KT 7SM 18/03 A3018 RMK T01800030 IEM_DS3505
ZBYN,1995-10-03 06:00,ZBYN 030600Z AUTO 18010KT 9SM 18/04 A3013 RMK SLP204 T01820040 57035 IEM_DS3505
ZBYN,1995-10-03 07:00,ZBYN 030700Z AUTO 18004KT 7SM 20/02 A3009 RMK T02000020 IEM_DS3505
ZBYN,1995-10-03 08:00,ZBYN 030800Z AUTO 24010KT 7SM 20/05 A3009 RMK T02000050 IEM_DS3505
ZBYN,1995-10-03 09:00,ZBYN 030900Z AUTO 32014KT 12SM 20/03 A3006 RMK SLP182 T01970026 57020 IEM_DS3505
ZBYN,1995-10-03 10:00,ZBYN 031000Z AUTO 30012KT 7SM 18/02 A3009 RMK T01800020 IEM_DS3505
ZBYN,1995-10-03 11:00,ZBYN 031100Z AUTO 29006KT 7SM 16/04 A3009 RMK T01600040 IEM_DS3505
ZBYN,1995-10-03 12:00,ZBYN 031200Z AUTO 22004KT 12SM 13/05 A3012 RMK SLP207 T01260053 52012 IEM_DS3505
ZBYN,1995-10-03 13:00,ZBYN 031300Z AUTO 00000KT 7SM 11/06 A3012 RMK T01100060 IEM_DS3505
ZBYN,1995-10-03 14:00,ZBYN 031400Z AUTO 10004KT 7SM 09/06 A3015 RMK T00900060 IEM_DS3505
ZBYN,1995-10-03 15:00,ZBYN 031500Z AUTO 11006KT 7SM 08/05 A3015 RMK SLP211 T00800054 52010 IEM_DS3505
ZBYN,1995-10-03 16:00,ZBYN 031600Z AUTO 08006KT 7SM 08/06 A3015 RMK T00800060 IEM_DS3505
ZBYN,1995-10-03 17:00,ZBYN 031700Z AUTO 08006KT 7SM 07/06 A3015 RMK T00700060 IEM_DS3505
ZBYN,1995-10-03 18:00,ZBYN 031800Z AUTO 00000KT 6SM 06/05 A3015 RMK SLP209 T00650054 52002 IEM_DS3505
ZBYN,1995-10-03 19:00,ZBYN 031900Z AUTO 00000KT 7SM 07/05 A3018 RMK T00700050 IEM_DS3505
ZBYN,1995-10-03 20:00,ZBYN 032000Z AUTO 36004KT 7SM 07/05 A3018 RMK T00700050 IEM_DS3505
ZBYN,1995-10-03 21:00,ZBYN 032100Z AUTO 32004KT 5SM 08/05 A3018 RMK SLP213 T00770051 52008 IEM_DS3505
ZBYN,1995-10-03 22:00,ZBYN 032200Z AUTO 00000KT 5SM 06/05 A3021 RMK T00600050 IEM_DS3505
ZBYN,1995-10-03 23:00,ZBYN 032300Z AUTO 00000KT 5SM 05/05 A3021 RMK T00500050 IEM_DS3505
ZBYN,1995-10-04 00:00,ZBYN 040000Z AUTO 02004KT 6SM 10/04 A3027 RMK SLP246 T01000044 52023 IEM_DS3505
ZBYN,1995-10-04 01:00,ZBYN 040100Z AUTO 03010KT 7SM 11/M02 A3027 RMK T01101020 IEM_DS3505
ZBYN,1995-10-04 03:00,ZBYN 040300Z AUTO 36002KT 9SM 15/M00 A3027 RMK SLP252 T01531005 52006 IEM_DS3505
ZBYN,1995-10-04 04:00,ZBYN 040400Z AUTO 03006KT 6SM 17/M01 A3024 RMK T01701010 IEM_DS3505
ZBYN,1995-10-04 05:00,ZBYN 040500Z AUTO 35004KT 6SM 16/M03 A3021 RMK T01601030 IEM_DS3505
ZBYN,1995-10-04 06:00,ZBYN 040600Z AUTO 34004KT 12SM 16/M04 A3021 RMK SLP234 T01571035 57018 IEM_DS3505
ZBYN,1995-10-04 07:00,ZBYN 040700Z AUTO 31008KT 6SM 17/M03 A3018 RMK T01701030 IEM_DS3505
ZBYN,1995-10-04 08:00,ZBYN 040800Z AUTO 30004KT 6SM 17/M02 A3018 RMK T01701020 IEM_DS3505
ZBYN,1995-10-04 09:00,ZBYN 040900Z AUTO 22004KT 12SM 16/M01 A3021 RMK SLP227 T01611012 57004 IEM_DS3505
ZBYN,1995-10-04 10:00,ZBYN 041000Z AUTO 31004KT 6SM 15/00 A3021 RMK T01500000 IEM_DS3505
ZBYN,1995-10-04 11:00,ZBYN 041100Z AUTO 01004KT 6SM 12/02 A3021 RMK T01200020 IEM_DS3505
ZBYN,1995-10-04 12:00,ZBYN 041200Z AUTO 32002KT 12SM 11/02 A3024 RMK SLP245 T01130015 52013 IEM_DS3505
ZBYN,1995-10-04 13:00,ZBYN 041300Z AUTO 00000KT 6SM 10/02 A3027 RMK T01000020 IEM_DS3505
ZBYN,1995-10-04 14:00,ZBYN 041400Z AUTO 36006KT 6SM 11/M01 A3030 RMK T01101010 IEM_DS3505
ZBYN,1995-10-04 15:00,ZBYN 041500Z AUTO 32002KT 7SM 11/00 A3030 RMK SLP251 T01090004 52013 IEM_DS3505
ZBYN,1995-10-04 16:00,ZBYN 041600Z AUTO 00000KT 6SM 07/02 A3030 RMK T00700020 IEM_DS3505
ZBYN,1995-10-04 17:00,ZBYN 041700Z AUTO 10002KT 6SM 06/02 A3030 RMK T00600020 IEM_DS3505
ZBYN,1995-10-04 18:00,ZBYN 041800Z AUTO 07002KT 7SM 04/00 A3027 RMK SLP257 T00450005 57004 IEM_DS3505
ZBYN,1995-10-04 19:00,ZBYN 041900Z AUTO 04004KT 6SM 03/01 A3030 RMK T00300010 IEM_DS3505
ZBYN,1995-10-04 20:00,ZBYN 042000Z AUTO 00000KT 7SM 03/00 A3030 RMK T00300000 IEM_DS3505
ZBYN,1995-10-04 21:00,ZBYN 042100Z AUTO 32002KT 6SM 03/01 A3033 RMK SLP272 T00300007 52012 IEM_DS3505
ZBYN,1995-10-04 22:00,ZBYN 042200Z AUTO 33004KT 7SM 03/00 A3033 RMK T00300000 IEM_DS3505
ZBYN,1995-10-04 23:00,ZBYN 042300Z AUTO 30010KT 6SM 06/M03 A3036 RMK T00601030 IEM_DS3505
ZBYN,1995-10-05 00:00,ZBYN 050000Z AUTO 32006KT 7SM 08/M03 A3039 RMK SLP296 T00821031 52023 IEM_DS3505
ZBYN,1995-10-05 01:00,ZBYN 050100Z AUTO 36006KT 6SM 09/M07 A3042 RMK T00901070 IEM_DS3505
ZBYN,1995-10-05 02:00,ZBYN 050200Z AUTO 36010KT 6SM 10/M07 A3042 RMK T01001070 IEM_DS3505
ZBYN,1995-10-05 03:00,ZBYN 050300Z AUTO 02010KT 12SM 11/ A3042 RMK SLP299 52007 IEM_DS3505
ZBYN,1995-10-05 04:00,ZBYN 050400Z AUTO 01012KT 6SM 13/M13 A3039 RMK T01301130 IEM_DS3505
ZBYN,1995-10-05 05:00,ZBYN 050500Z AUTO 33012KT 6SM 14/M13 A3036 RMK T01401130 IEM_DS3505
ZBYN,1995-10-05 06:00,ZBYN 050600Z AUTO 32006KT 12SM 14/M07 A3033 RMK SLP277 T01391070 57026 IEM_DS3505
ZBYN,1995-10-05 07:00,ZBYN 050700Z AUTO 30008KT 6SM 15/M09 A3030 RMK T01501090 IEM_DS3505
ZBYN,1995-10-05 08:00,ZBYN 050800Z AUTO 30008KT 6SM 15/M09 A3033 RMK T01501090 IEM_DS3505
ZBYN,1995-10-05 09:00,ZBYN 050900Z AUTO 32004KT 7SM 14/M02 RMK SLP277 T01351022 57003 IEM_DS3505
ZBYN,1995-10-05 10:00,ZBYN 051000Z AUTO 28006KT 6SM 13/M03 A3033 RMK T01301030 IEM_DS3505
ZBYN,1995-10-05 11:00,ZBYN 051100Z AUTO 29004KT 6SM 11/M01 A3033 RMK T01101010 IEM_DS3505
ZBYN,1995-10-05 12:00,ZBYN 051200Z AUTO 00000KT 6SM 10/01 A3033 RMK SLP280 T00980006 52005 IEM_DS3505
ZBYN,1995-10-05 13:00,ZBYN 051300Z AUTO 10004KT 6SM 08/01 A3036 RMK T00800010 IEM_DS3505
ZBYN,1995-10-05 14:00,ZBYN 051400Z AUTO 08008KT 6SM 07/00 A3036 RMK T00700000 IEM_DS3505
ZBYN,1995-10-05 15:00,ZBYN 051500Z AUTO 34002KT 6SM 07/02 A3036 RMK SLP289 T00690017 52008 IEM_DS3505
ZBYN,1995-10-05 16:00,ZBYN 051600Z AUTO 00000KT 6SM 07/00 A3036 RMK T00700000 IEM_DS3505
ZBYN,1995-10-05 17:00,ZBYN 051700Z AUTO 00000KT 6SM 06/01 A3036 RMK T00600010 IEM_DS3505
ZBYN,1995-10-05 18:00,ZBYN 051800Z AUTO 00000KT 6SM 06/02 A3033 RMK SLP284 T00560018 57002 IEM_DS3505
ZBYN,1995-10-05 19:00,ZBYN 051900Z AUTO 00000KT 6SM 04/01 A3033 RMK T00400010 IEM_DS3505
ZBYN,1995-10-05 20:00,ZBYN 052000Z AUTO 00000KT 6SM 03/01 A3033 RMK T00300010 IEM_DS3505
ZBYN,1995-10-05 21:00,ZBYN 052100Z AUTO 07002KT 6SM 05/01 A3033 RMK SLP283 T00510006 57003 IEM_DS3505
ZBYN,1995-10-05 22:00,ZBYN 052200Z AUTO 00000KT 6SM 04/01 A3033 RMK T00400010 IEM_DS3505
ZBYN,1995-10-05 23:00,ZBYN 052300Z AUTO 00000KT 6SM 04/02 A3036 RMK T00400020 IEM_DS3505
ZBYN,1995-10-06 00:00,ZBYN 060000Z AUTO 34004KT 6SM 06/01 A3036 RMK SLP292 T00570011 52004 IEM_DS3505
ZBYN,1995-10-06 01:00,ZBYN 060100Z AUTO 00000KT 3SM 08/01 A3036 RMK T00800010 IEM_DS3505
ZBYN,1995-10-06 02:00,ZBYN 060200Z AUTO 00000KT 4SM 09/01 A3036 RMK T00900010 IEM_DS3505
ZBYN,1995-10-06 03:00,ZBYN 060300Z AUTO 16004KT 6SM 12/M01 A3033 RMK SLP283 T01231011 57003 IEM_DS3505
ZBYN,1995-10-06 04:00,ZBYN 060400Z AUTO 17008KT 6SM 15/00 A3033 RMK T01500000 IEM_DS3505
ZBYN,1995-10-06 06:00,ZBYN 060600Z AUTO 18010KT 6SM 17/03 A3024 RMK SLP242 T01690031 57032 IEM_DS3505
ZBYN,1995-10-06 07:00,ZBYN 060700Z AUTO 20010KT 6SM 18/02 A3021 RMK T01800020 IEM_DS3505
ZBYN,1995-10-06 08:00,ZBYN 060800Z AUTO 20010KT 6SM 17/01 A3021 RMK T01700010 IEM_DS3505
ZBYN,1995-10-06 09:00,ZBYN 060900Z AUTO 20010KT 6SM 16/04 A3021 RMK SLP227 T01640043 57015 IEM_DS3505
ZBYN,1995-10-06 10:00,ZBYN 061000Z AUTO 17008KT 6SM 15/04 A3021 RMK T01500040 IEM_DS3505
ZBYN,1995-10-06 11:00,ZBYN 061100Z AUTO 18006KT 6SM 13/05 A3024 RMK T01300050 IEM_DS3505
ZBYN,1995-10-06 12:00,ZBYN 061200Z AUTO 16006KT 6SM 11/06 A3024 RMK SLP249 T01130062 52013 IEM_DS3505
ZBYN,1995-10-06 13:00,ZBYN 061300Z AUTO 15006KT 4SM 10/06 A3027 RMK T01000060 IEM_DS3505
ZBYN,1995-10-06 14:00,ZBYN 061400Z AUTO 14006KT 3SM 09/06 A3027 RMK T00900060 IEM_DS3505
ZBYN,1995-10-06 15:00,ZBYN 061500Z AUTO 11006KT 6SM 08/06 A3027 RMK SLP257 T00770058 52012 IEM_DS3505
ZBYN,1995-10-06 16:00,ZBYN 061600Z AUTO 12008KT 2SM 07/06 A3027 RMK T00700060 IEM_DS3505
ZBYN,1995-10-06 18:00,ZBYN 061800Z AUTO 11004KT 6SM 06/05 A3026 RMK SLP251 T00620053 57001 IEM_DS3505
ZBYN,1995-10-06 21:00,ZBYN 062100Z AUTO 32004KT 4SM 05/04 RMK SLP251 T00490044 57003 IEM_DS3505
ZBYN,1995-10-06 22:00,ZBYN 062200Z AUTO 00000KT 2SM 05/04 A3027 RMK T00500040 IEM_DS3505
ZBYN,1995-10-06 23:00,ZBYN 062300Z AUTO 00000KT 1SM 05/04 A3027 RMK T00500040 IEM_DS3505
ZBYN,1995-10-07 00:00,ZBYN 070000Z AUTO 32002KT 4SM 06/05 A3027 RMK SLP260 T00560052 52002 IEM_DS3505
ZBYN,1995-10-07 01:00,ZBYN 070100Z AUTO 00000KT 1SM 08/06 A3027 RMK T00800060 IEM_DS3505
ZBYN,1995-10-07 02:00,ZBYN 070200Z AUTO 00000KT 2 1/2SM 10/04 A3030 RMK T01000040 IEM_DS3505
ZBYN,1995-10-07 03:00,ZBYN 070300Z AUTO 14004KT 4SM 13/07 A3027 RMK SLP256 T01260070 52001 IEM_DS3505
ZBYN,1995-10-07 04:00,ZBYN 070400Z AUTO 00000KT 5SM 16/07 A3024 RMK T01600070 IEM_DS3505
ZBYN,1995-10-07 05:00,ZBYN 070500Z AUTO 22006KT 5SM 17/07 A3021 RMK T01700070 IEM_DS3505
ZBYN,1995-10-07 06:00,ZBYN 070600Z AUTO 20006KT 4SM 18/08 A3018 RMK SLP222 T01770076 57025 IEM_DS3505
ZBYN,1995-10-07 07:00,ZBYN 070700Z AUTO 21006KT 6SM 20/06 A3015 RMK T02000060 IEM_DS3505
ZBYN,1995-10-07 08:00,ZBYN 070800Z AUTO 19006KT 7SM 20/06 A3015 RMK T02000060 IEM_DS3505
ZBYN,1995-10-07 09:00,ZBYN 070900Z AUTO 22004KT 5SM 18/08 A3015 RMK SLP211 T01770081 57012 IEM_DS3505
ZBYN,1995-10-07 10:00,ZBYN 071000Z AUTO 00000KT 4SM 17/07 A3015 RMK T01700070 IEM_DS3505
ZBYN,1995-10-07 11:00,ZBYN 071100Z AUTO 00000KT 4SM 14/08 A3018 RMK T01400080 IEM_DS3505
ZBYN,1995-10-07 12:00,ZBYN 071200Z AUTO 09004KT 4SM 12/07 A3018 RMK T01200070 IEM_DS3505
ZBYN,1995-10-07 13:00,ZBYN 071300Z AUTO 12002KT 4SM 10/07 A3021 RMK T01000070 IEM_DS3505
ZBYN,1995-10-07 14:00,ZBYN 071400Z AUTO 06004KT 4SM 10/07 A3024 RMK T01000070 IEM_DS3505
ZBYN,1995-10-07 15:00,ZBYN 071500Z AUTO 00000KT 6SM 08/08 A3024 RMK SLP241 T00850075 52018 IEM_DS3505
ZBYN,1995-10-07 16:00,ZBYN 071600Z AUTO 11004KT 2 1/2SM 09/07 A3024 RMK T00900070 IEM_DS3505
ZBYN,1995-10-07 17:00,ZBYN 071700Z AUTO 09008KT 2 1/2SM 08/07 A3024 RMK T00800070 IEM_DS3505
ZBYN,1995-10-07 18:00,ZBYN 071800Z AUTO 11004KT 6SM 06/06 A3024 RMK SLP240 T00650059 52004 IEM_DS3505
ZBYN,1995-10-07 19:00,ZBYN 071900Z AUTO 08004KT 2 1/2SM 07/06 A3024 RMK T00700060 IEM_DS3505
ZBYN,1995-10-07 20:00,ZBYN 072000Z AUTO 08004KT 2 1/2SM 07/05 A3024 RMK T00700050 IEM_DS3505
ZBYN,1995-10-07 21:00,ZBYN 072100Z AUTO 00000KT 1 1/4SM 05/05 A3024 RMK SLP240 T00490047 57003 IEM_DS3505
ZBYN,1995-10-07 22:00,ZBYN 072200Z AUTO 00000KT 2 1/2SM 06/05 A3024 RMK T00600050 IEM_DS3505
ZBYN,1995-10-07 23:00,ZBYN 072300Z AUTO 07008KT 1 1/2SM 05/05 A3027 RMK T00500050 IEM_DS3505
ZBYN,1995-10-08 00:00,ZBYN 080000Z AUTO 00000KT 1/2SM 05/04 A3027 RMK SLP262 T00470042 52012 IEM_DS3505
ZBYN,1995-10-08 01:00,ZBYN 080100Z AUTO 00000KT 1 1/4SM 09/08 A3030 RMK T00900080 IEM_DS3505
ZBYN,1995-10-08 02:00,ZBYN 080200Z AUTO 00000KT 1 1/4SM 13/09 A3030 RMK T01300090 IEM_DS3505
ZBYN,1995-10-08 03:00,ZBYN 080300Z AUTO 14004KT 6SM 16/08 A3027 RMK SLP250 T01600082 54000 IEM_DS3505
ZBYN,1995-10-08 04:00,ZBYN 080400Z AUTO 20004KT 2 1/2SM 19/07 A3027 RMK T01900070 IEM_DS3505
ZBYN,1995-10-08 05:00,ZBYN 080500Z AUTO 10004KT 6SM 21/06 A3021 RMK T02100060 IEM_DS3505
ZBYN,1995-10-08 06:00,ZBYN 080600Z AUTO 14004KT 6SM 21/06 A3018 RMK SLP217 T02100058 57025 IEM_DS3505
ZBYN,1995-10-08 07:00,ZBYN 080700Z AUTO 25004KT 7SM 23/00 A3018 RMK T02300000 IEM_DS3505
ZBYN,1995-10-08 08:00,ZBYN 080800Z AUTO 21006KT 7SM 23/02 A3015 RMK T02300020 IEM_DS3505
ZBYN,1995-10-08 09:00,ZBYN 080900Z AUTO 20004KT 6SM 21/05 A3015 RMK SLP208 T02080052 57011 IEM_DS3505
ZBYN,1995-10-08 10:00,ZBYN 081000Z AUTO 00000KT 5SM 17/07 A3015 RMK T01700070 IEM_DS3505
ZBYN,1995-10-08 11:00,ZBYN 081100Z AUTO 09004KT 4SM 14/07 A3018 RMK T01400070 IEM_DS3505
ZBYN,1995-10-08 12:00,ZBYN 081200Z AUTO 00000KT 6SM 11/07 A3021 RMK SLP236 T01090073 52010 IEM_DS3505
ZBYN,1995-10-08 13:00,ZBYN 081300Z AUTO 09006KT 4SM 10/05 A3021 RMK T01000050 IEM_DS3505
ZBYN,1995-10-08 14:00,ZBYN 081400Z AUTO 12006KT 7SM 10/04 A3024 RMK T01000040 IEM_DS3505
ZBYN,1995-10-08 15:00,ZBYN 081500Z AUTO 20002KT 6SM 09/05 A3024 RMK SLP238 T00880054 52016 IEM_DS3505
ZBYN,1995-10-08 16:00,ZBYN 081600Z AUTO 00000KT 4SM 10/06 A3024 RMK T01000060 IEM_DS3505
ZBYN,1995-10-08 17:00,ZBYN 081700Z AUTO 00000KT 4SM 08/05 A3024 RMK T00800050 IEM_DS3505
ZBYN,1995-10-08 18:00,ZBYN 081800Z AUTO 00000KT 5SM 06/05 A3024 RMK SLP233 T00630050 57001 IEM_DS3505
ZBYN,1995-10-08 19:00,ZBYN 081900Z AUTO 00000KT 4SM 08/06 A3024 RMK T00800060 IEM_DS3505
ZBYN,1995-10-08 20:00,ZBYN 082000Z AUTO 05004KT 4SM 07/05 A3021 RMK T00700050 IEM_DS3505
ZBYN,1995-10-08 21:00,ZBYN 082100Z AUTO 00000KT 5SM 05/05 A3024 RMK SLP234 T00510047 57001 IEM_DS3505
ZBYN,1995-10-08 22:00,ZBYN 082200Z AUTO 00000KT 3SM 06/05 A3024 RMK T00600050 IEM_DS3505
ZBYN,1995-10-08 23:00,ZBYN 082300Z AUTO 00000KT 2SM 05/04 A3024 RMK T00500040 IEM_DS3505
ZBYN,1995-10-09 00:00,ZBYN 090000Z AUTO 00000KT 5SM 06/05 A3024 RMK SLP251 T00600047 52002 IEM_DS3505
ZBYN,1995-10-09 01:00,ZBYN 090100Z AUTO 00000KT 1 1/2SM 10/06 A3027 RMK T01000060 IEM_DS3505
ZBYN,1995-10-09 02:00,ZBYN 090200Z AUTO 18004KT 2SM 14/08 A3024 RMK T01400080 IEM_DS3505
ZBYN,1995-10-09 03:00,ZBYN 090300Z AUTO 14004KT 4SM 16/07 A3024 RMK SLP234 T01610070 57004 IEM_DS3505
ZBYN,1995-10-09 04:00,ZBYN 090400Z AUTO 18010KT 3SM 18/09 A3018 RMK T01800090 IEM_DS3505
ZBYN,1995-10-09 05:00,ZBYN 090500Z AUTO 23008KT 4SM 21/06 A3015 RMK T02100060 IEM_DS3505
ZBYN,1995-10-09 06:00,ZBYN 090600Z AUTO 18008KT 4SM 21/08 A3015 RMK SLP190 T02110075 57036 IEM_DS3505
ZBYN,1995-10-09 07:00,ZBYN 090700Z AUTO 23008KT 5SM 21/06 A3009 RMK T02100060 IEM_DS3505
ZBYN,1995-10-09 08:00,ZBYN 090800Z AUTO 22006KT 5SM 22/04 A3009 RMK T02200040 IEM_DS3505
ZBYN,1995-10-09 09:00,ZBYN 090900Z AUTO 16006KT 12SM 20/03 A3009 RMK SLP179 T01990026 57014 IEM_DS3505
ZBYN,1995-10-09 10:00,ZBYN 091000Z AUTO 10006KT 6SM 15/09 A3006 RMK T01500090 IEM_DS3505
ZBYN,1995-10-09 11:00,ZBYN 091100Z AUTO 09006KT 2 1/2SM 13/07 A3009 RMK T01300070 IEM_DS3505
ZBYN,1995-10-09 12:00,ZBYN 091200Z AUTO 20002KT 9SM 12/06 A3012 RMK SLP207 T01190060 52015 IEM_DS3505
ZBYN,1995-10-09 13:00,ZBYN 091300Z AUTO 09008KT 7SM 11/06 A3015 RMK T01100060 IEM_DS3505
ZBYN,1995-10-09 14:00,ZBYN 091400Z AUTO 00000KT 7SM 10/06 A3015 RMK T01000060 IEM_DS3505
ZBYN,1995-10-09 15:00,ZBYN 091500Z AUTO 22002KT 6SM 09/06 A3015 RMK SLP205 T00910057 52009 IEM_DS3505
ZBYN,1995-10-09 16:00,ZBYN 091600Z AUTO 07006KT 7SM 09/06 A3015 RMK T00900060 IEM_DS3505
ZBYN,1995-10-09 18:00,ZBYN 091800Z AUTO 32002KT 6SM 09/06 A3013 RMK SLP196 T00860063 57001 IEM_DS3505
ZBYN,1995-10-09 19:00,ZBYN 091900Z AUTO 08006KT 7SM 08/06 A3012 RMK T00800060 IEM_DS3505
ZBYN,1995-10-09 20:00,ZBYN 092000Z AUTO 12004KT 7SM 07/05 A3012 RMK T00700050 IEM_DS3505
ZBYN,1995-10-09 21:00,ZBYN 092100Z AUTO 32002KT 6SM 07/06 A3012 RMK SLP197 T00690063 57004 IEM_DS3505
ZBYN,1995-10-09 23:00,ZBYN 092300Z AUTO 00000KT 4SM 07/05 A3012 RMK T00700050 IEM_DS3505
ZBYN,1995-10-10 00:00,ZBYN 100000Z AUTO 00000KT 5SM 09/07 A3015 RMK SLP209 T00860074 52002 IEM_DS3505
ZBYN,1995-10-10 01:00,ZBYN 100100Z AUTO 00000KT 4SM 11/08 A3015 RMK T01100080 IEM_DS3505
ZBYN,1995-10-10 02:00,ZBYN 100200Z AUTO 00000KT 4SM 15/07 A3015 RMK T01500070 IEM_DS3505
ZBYN,1995-10-10 03:00,ZBYN 100300Z AUTO 20006KT 6SM 16/08 A3012 RMK SLP199 T01630079 57002 IEM_DS3505
ZBYN,1995-10-10 04:00,ZBYN 100400Z AUTO 00000KT 6SM 19/11 A3012 RMK T01900110 IEM_DS3505
ZBYN,1995-10-10 05:00,ZBYN 100500Z AUTO 23012KT 6SM 22/07 A3006 RMK T02200070 IEM_DS3505
ZBYN,1995-10-10 06:00,ZBYN 100600Z AUTO 18008KT 4SM 22/08 A3003 RMK SLP157 T02180081 57031 IEM_DS3505
ZBYN,1995-10-10 07:00,ZBYN 100700Z AUTO 18004KT 6SM 24/08 A3003 RMK T02400080 IEM_DS3505
ZBYN,1995-10-10 08:00,ZBYN 100800Z AUTO 00000KT 6SM 25/10 A3000 RMK T02500100 IEM_DS3505
ZBYN,1995-10-10 09:00,ZBYN 100900Z AUTO 18004KT 4SM 23/09 A3000 RMK SLP147 T02330093 57009 IEM_DS3505
ZBYN,1995-10-10 10:00,ZBYN 101000Z AUTO 15006KT 6SM 19/10 A3000 RMK T01900100 IEM_DS3505
ZBYN,1995-10-10 11:00,ZBYN 101100Z AUTO 15006KT 6SM 17/10 A3003 RMK T01700100 IEM_DS3505
ZBYN,1995-10-10 12:00,ZBYN 101200Z AUTO 11008KT 6SM 15/09 A3006 RMK SLP170 T01540086 52012 IEM_DS3505
ZBYN,1995-10-10 13:00,ZBYN 101300Z AUTO 08006KT 7SM 14/09 A3006 RMK T01400090 IEM_DS3505
ZBYN,1995-10-10 14:00,ZBYN 101400Z AUTO 09008KT 7SM 13/09 A3009 RMK T01300090 IEM_DS3505
ZBYN,1995-10-10 15:00,ZBYN 101500Z AUTO 10006KT 7SM 13/09 A3009 RMK T01300090 IEM_DS3505
ZBYN,1995-10-10 16:00,ZBYN 101600Z AUTO 09008KT 7SM 13/09 A3009 RMK T01300090 IEM_DS3505
ZBYN,1995-10-10 17:00,ZBYN 101700Z AUTO 11006KT 7SM 11/09 A3009 RMK T01100090 IEM_DS3505
ZBYN,1995-10-10 18:00,ZBYN 101800Z AUTO 20004KT 6SM 12/08 A3009 RMK SLP171 T01170082 52003 IEM_DS3505
ZBYN,1995-10-10 19:00,ZBYN 101900Z AUTO 00000KT 7SM 11/07 A3009 RMK T01100070 IEM_DS3505
ZBYN,1995-10-10 20:00,ZBYN 102000Z AUTO 00000KT 7SM 09/08 A3009 RMK T00900080 IEM_DS3505
ZBYN,1995-10-10 21:00,ZBYN 102100Z AUTO 00000KT 5SM 09/08 A3009 RMK SLP177 T00910081 52003 IEM_DS3505
ZBYN,1995-10-10 22:00,ZBYN 102200Z AUTO 00000KT 7SM 09/08 A3009 RMK T00900080 IEM_DS3505
ZBYN,1995-10-10 23:00,ZBYN 102300Z AUTO 01004KT 2 1/2SM 08/07 A3012 RMK T00800070 IEM_DS3505
ZBYN,1995-10-11 00:00,ZBYN 110000Z AUTO 00000KT 2SM 08/07 A3012 RMK SLP203 T00800072 52011 IEM_DS3505
ZBYN,1995-10-11 01:00,ZBYN 110100Z AUTO 00000KT 1 1/2SM 12/10 A3012 RMK T01200100 IEM_DS3505
ZBYN,1995-10-11 02:00,ZBYN 110200Z AUTO 00000KT 2SM 16/11 A3012 RMK T01600110 IEM_DS3505
ZBYN,1995-10-11 03:00,ZBYN 110300Z AUTO 20004KT 4SM 18/10 A3012 RMK SLP188 T01810097 57004 IEM_DS3505
ZBYN,1995-10-11 04:00,ZBYN 110400Z AUTO 00000KT 7SM 22/11 A3009 RMK T02200110 IEM_DS3505
ZBYN,1995-10-11 05:00,ZBYN 110500Z AUTO 36002KT 6SM 24/12 A3006 RMK T02400120 IEM_DS3505
ZBYN,1995-10-11 06:00,ZBYN 110600Z AUTO 20006KT 4SM 24/08 A3003 RMK SLP148 T02420081 57028 IEM_DS3505
ZBYN,1995-10-11 07:00,ZBYN 110700Z AUTO 36008KT 6SM 26/07 A3000 RMK T02600070 IEM_DS3505
ZBYN,1995-10-11 08:00,ZBYN 110800Z AUTO 36006KT 6SM 25/08 A3000 RMK T02500080 IEM_DS3505
ZBYN,1995-10-11 09:00,ZBYN 110900Z AUTO 20006KT 6SM 23/10 A3000 RMK SLP139 T02300098 57014 IEM_DS3505
ZBYN,1995-10-11 10:00,ZBYN 111000Z AUTO 00000KT 1 1/4SM 21/11 A3000 RMK T02100110 IEM_DS3505
ZBYN,1995-10-11 11:00,ZBYN 111100Z AUTO 00000KT 1 1/2SM 17/12 A3000 RMK T01700120 IEM_DS3505
ZBYN,1995-10-11 12:00,ZBYN 111200Z AUTO 11004KT 6SM 16/11 A3003 RMK SLP161 T01620108 52009 IEM_DS3505
ZBYN,1995-10-11 13:00,ZBYN 111300Z AUTO 13006KT 7SM 15/11 A3006 RMK T01500110 IEM_DS3505
ZBYN,1995-10-11 14:00,ZBYN 111400Z AUTO 11006KT 7SM 14/11 A3006 RMK T01400110 IEM_DS3505
ZBYN,1995-10-11 15:00,ZBYN 111500Z AUTO 00000KT 6SM 13/12 A3006 RMK SLP168 T01330117 52017 IEM_DS3505
ZBYN,1995-10-11 16:00,ZBYN 111600Z AUTO 09004KT 7SM 14/11 A3006 RMK T01400110 IEM_DS3505
ZBYN,1995-10-11 17:00,ZBYN 111700Z AUTO 09004KT 7SM 13/11 A3009 RMK T01300110 IEM_DS3505
ZBYN,1995-10-11 18:00,ZBYN 111800Z AUTO 32002KT 5SM 12/10 A3009 RMK SLP166 T01160101 52004 IEM_DS3505
ZBYN,1995-10-11 19:00,ZBYN 111900Z AUTO 00000KT 7SM 12/10 A3006 RMK T01200100 IEM_DS3505
ZBYN,1995-10-11 20:00,ZBYN 112000Z AUTO 00000KT 7SM 11/10 A3006 RMK T01100100 IEM_DS3505
ZBYN,1995-10-11 21:00,ZBYN 112100Z AUTO 34004KT 5SM 12/10 A3006 RMK SLP164 T01170104 57003 IEM_DS3505
ZBYN,1995-10-11 22:00,ZBYN 112200Z AUTO 00000KT 4SM 11/10 A3009 RMK T01100100 IEM_DS3505
ZBYN,1995-10-11 23:00,ZBYN 112300Z AUTO 00000KT 1 1/2SM 11/10 A3009 RMK T01100100 IEM_DS3505
ZBYN,1995-10-12 00:00,ZBYN 120000Z AUTO 34004KT 5SM 13/10 A3009 RMK SLP179 T01290105 52005 IEM_DS3505
ZBYN,1995-10-12 01:00,ZBYN 120100Z AUTO 03002KT 1 1/2SM 14/11 A3009 RMK T01400110 IEM_DS3505
ZBYN,1995-10-12 02:00,ZBYN 120200Z AUTO 31004KT 1SM 17/13 A3009 RMK T01700130 IEM_DS3505
ZBYN,1995-10-12 03:00,ZBYN 120300Z AUTO 34004KT 6SM 18/11 A3009 RMK SLP180 T01840112 52005 IEM_DS3505
ZBYN,1995-10-12 04:00,ZBYN 120400Z AUTO 15004KT 4SM 21/12 A3006 RMK T02100120 IEM_DS3505
ZBYN,1995-10-12 05:00,ZBYN 120500Z AUTO 15008KT 6SM 23/08 A3003 RMK T02300080 IEM_DS3505
ZBYN,1995-10-12 06:00,ZBYN 120600Z AUTO 16010KT 6SM 22/06 A3003 RMK SLP153 T02220055 57021 IEM_DS3505
ZBYN,1995-10-12 07:00,ZBYN 120700Z AUTO 17014KT 6SM 22/10 A3000 RMK T02200100 IEM_DS3505
ZBYN,1995-10-12 08:00,ZBYN 120800Z AUTO 15010KT 6SM 21/10 A3000 RMK T02100100 IEM_DS3505
ZBYN,1995-10-12 09:00,ZBYN 120900Z AUTO 14006KT 6SM 20/09 A3000 RMK SLP149 T02020094 57007 IEM_DS3505
ZBYN,1995-10-12 10:00,ZBYN 121000Z AUTO 15012KT 4SM 19/09 A3003 RMK T01900090 IEM_DS3505
ZBYN,1995-10-12 11:00,ZBYN 121100Z AUTO 15008KT 4SM 18/11 A3003 RMK T01800110 IEM_DS3505
ZBYN,1995-10-12 12:00,ZBYN 121200Z AUTO 16008KT 6SM 18/10 A3006 RMK SLP171 T01750101 52018 IEM_DS3505
ZBYN,1995-10-12 13:00,ZBYN 121300Z AUTO 15008KT 6SM 16/11 A3009 RMK T01600110 IEM_DS3505
ZBYN,1995-10-12 14:00,ZBYN 121400Z AUTO 13008KT 6SM 16/11 A3009 RMK T01600110 IEM_DS3505
ZBYN,1995-10-12 15:00,ZBYN 121500Z AUTO 20004KT 6SM 15/11 A3009 RMK SLP173 T01500106 52006 IEM_DS3505
ZBYN,1995-10-12 16:00,ZBYN 121600Z AUTO 11006KT 7SM 15/11 A3009 RMK T01500110 IEM_DS3505
ZBYN,1995-10-12 17:00,ZBYN 121700Z AUTO 11002KT 7SM 15/11 A3009 RMK T01500110 IEM_DS3505
ZBYN,1995-10-12 18:00,ZBYN 121800Z AUTO 11004KT 6SM 14/11 A3009 RMK SLP168 T01400111 54000 IEM_DS3505
ZBYN,1995-10-12 19:00,ZBYN 121900Z AUTO 12006KT 7SM 14/11 A3006 RMK T01400110 IEM_DS3505
ZBYN,1995-10-12 20:00,ZBYN 122000Z AUTO 16004KT 7SM 14/11 A3006 RMK T01400110 IEM_DS3505
ZBYN,1995-10-12 21:00,ZBYN 122100Z AUTO 09004KT 6SM 13/11 A3003 RMK SLP159 T01300110 57001 IEM_DS3505
ZBYN,1995-10-12 22:00,ZBYN 122200Z AUTO 11002KT 3SM 14/12 A3003 RMK T01400120 IEM_DS3505
ZBYN,1995-10-12 23:00,ZBYN 122300Z AUTO 13004KT 4SM 13/12 A3003 RMK T01300120 IEM_DS3505
ZBYN,1995-10-13 00:00,ZBYN 130000Z AUTO 11004KT 6SM 14/12 A3003 RMK SLP159 T01350117 57003 IEM_DS3505
ZBYN,1995-10-13 01:00,ZBYN 130100Z AUTO 15004KT 2 1/2SM 15/12 A3003 RMK T01500120 IEM_DS3505
ZBYN,1995-10-13 02:00,ZBYN 130200Z AUTO 18008KT 6SM 17/12 A3003 RMK T01700120 IEM_DS3505
ZBYN,1995-10-13 03:00,ZBYN 130300Z AUTO 18006KT 3SM 16/12 A3000 RMK SLP151 T01610117 57007 IEM_DS3505
ZBYN,1995-10-13 04:00,ZBYN 130400Z AUTO 16006KT 3SM 16/13 A3000 RMK 60004 SLP135 T01550129 57017 IEM_DS3505
ZBYN,1995-10-13 05:00,ZBYN 130500Z AUTO 22004KT 1 1/4SM 16/13 A2997 RMK T01600130 IEM_DS3505
ZBYN,1995-10-13 06:00,ZBYN 130600Z AUTO 16006KT 3SM 16/13 A2994 RMK 60004 SLP135 T01550129 57017 IEM_DS3505
ZBYN,1995-10-13 07:00,ZBYN 130700Z AUTO 16008KT 1 1/2SM 15/14 A2991 RMK T01500140 IEM_DS3505
ZBYN,1995-10-13 08:00,ZBYN 130800Z AUTO 17006KT 1 1/4SM 15/14 A2991 RMK T01500140 IEM_DS3505
ZBYN,1995-10-13 09:00,ZBYN 130900Z AUTO 14006KT 6SM 20/09 A2991 RMK SLP149 T02020094 57007 IEM_DS3505
ZBYN,1995-10-13 10:00,ZBYN 131000Z AUTO 16004KT 1 1/4SM 15/14 A2991 RMK T01500140 IEM_DS3505
ZBYN,1995-10-13 11:00,ZBYN 131100Z AUTO 23006KT 1SM 14/14 A2994 RMK T01400140 IEM_DS3505
ZBYN,1995-10-13 12:00,ZBYN 131200Z AUTO 22002KT 4SM 14/13 A2994 RMK 60008 SLP131 T01360131 52005 IEM_DS3505
ZBYN,1995-10-13 13:00,ZBYN 131300Z AUTO 08004KT 1 1/4SM 13/12 A2994 RMK T01300120 IEM_DS3505
ZBYN,1995-10-13 14:00,ZBYN 131400Z AUTO 00000KT 1SM 12/12 A2997 RMK T01200120 IEM_DS3505
ZBYN,1995-10-13 15:00,ZBYN 131500Z AUTO 22002KT 1/8SM 11/11 A3000 RMK SLP148 T01070107 52015 IEM_DS3505
ZBYN,1995-10-13 16:00,ZBYN 131600Z AUTO 00000KT 1/2SM 12/11 A2997 RMK T01200110 IEM_DS3505
ZBYN,1995-10-13 17:00,ZBYN 131700Z AUTO 08006KT 1/2SM 12/11 A2997 RMK T01200110 IEM_DS3505
ZBYN,1995-10-13 18:00,ZBYN 131800Z AUTO 22004KT 1/4SM 10/10 A2997 RMK SLP147 T01050103 57002 IEM_DS3505
ZBYN,1995-10-13 20:00,ZBYN 132000Z AUTO 00000KT 1/2SM 09/09 A2994 RMK T00900090 IEM_DS3505
ZBYN,1995-10-13 21:00,ZBYN 132100Z AUTO 00000KT 0SM 08/08 A2994 RMK 70008 SLP147 T00800080 57006 IEM_DS3505
ZBYN,1995-10-13 22:00,ZBYN 132200Z AUTO 00000KT 1/8SM 08/08 A2997 RMK T00800080 IEM_DS3505
ZBYN,1995-10-14 00:00,ZBYN 140000Z AUTO 00000KT 0SM 08/08 A3000 RMK 70008 SLP155 T00820082 52007 IEM_DS3505
ZBYN,1995-10-14 01:00,ZBYN 140100Z AUTO 18002KT 1/8SM 09/09 A3000 RMK T00900090 IEM_DS3505
ZBYN,1995-10-14 02:00,ZBYN 140200Z AUTO 00000KT 1/8SM 10/09 A3000 RMK T01000090 IEM_DS3505
ZBYN,1995-10-14 03:00,ZBYN 140300Z AUTO 14006KT 2 1/2SM 11/11 A2997 RMK SLP156 T01140110 52001 IEM_DS3505
ZBYN,1995-10-14 04:00,ZBYN 140400Z AUTO 00000KT 2 1/2SM 16/14 A2994 RMK T01600140 IEM_DS3505
ZBYN,1995-10-14 05:00,ZBYN 140500Z AUTO 00000KT 4SM 18/09 A2994 RMK T01800090 IEM_DS3505
ZBYN,1995-10-14 06:00,ZBYN 140600Z AUTO 02006KT 7SM 19/07 A2991 RMK SLP126 T01920073 57016 IEM_DS3505
ZBYN,1995-10-14 07:00,ZBYN 140700Z AUTO 32008KT 7SM 20/07 A2991 RMK T02000070 IEM_DS3505
ZBYN,1995-10-14 08:00,ZBYN 140800Z AUTO 36010KT 7SM 20/07 A2991 RMK T02000070 IEM_DS3505
ZBYN,1995-10-14 09:00,ZBYN 140900Z AUTO 02006KT 9SM 18/05 A2994 RMK SLP137 T01790047 52004 IEM_DS3505
ZBYN,1995-10-14 10:00,ZBYN 141000Z AUTO 36006KT 7SM 16/05 A2994 RMK T01600050 IEM_DS3505
ZBYN,1995-10-14 11:00,ZBYN 141100Z AUTO 25006KT 7SM 14/04 A3000 RMK T01400040 IEM_DS3505
ZBYN,1995-10-14 12:00,ZBYN 141200Z AUTO 32002KT 9SM 14/03 A3003 RMK SLP162 T01430033 52018 IEM_DS3505
ZBYN,1995-10-14 13:00,ZBYN 141300Z AUTO 33002KT 7SM 12/05 A3006 RMK T01200050 IEM_DS3505
ZBYN,1995-10-14 14:00,ZBYN 141400Z AUTO 33002KT 7SM 11/04 A3006 RMK T01100040 IEM_DS3505
ZBYN,1995-10-14 15:00,ZBYN 141500Z AUTO 34004KT 7SM 10/04 A3006 RMK SLP184 T00990045 52018 IEM_DS3505
ZBYN,1995-10-14 16:00,ZBYN 141600Z AUTO 36004KT 7SM 09/06 A3006 RMK T00900060 IEM_DS3505
ZBYN,1995-10-14 17:00,ZBYN 141700Z AUTO 36004KT 7SM 09/06 A3006 RMK T00900060 IEM_DS3505
ZBYN,1995-10-14 18:00,ZBYN 141800Z AUTO 34004KT 7SM 09/04 A3006 RMK SLP173 T00870041 54000 IEM_DS3505
ZBYN,1995-10-14 19:00,ZBYN 141900Z AUTO 33006KT 7SM 09/06 A3006 RMK T00900060 IEM_DS3505
ZBYN,1995-10-14 20:00,ZBYN 142000Z AUTO 00000KT 7SM 09/07 A3006 RMK T00900070 IEM_DS3505
ZBYN,1995-10-14 21:00,ZBYN 142100Z AUTO 34004KT 6SM 08/04 A3009 RMK SLP176 T00840045 52001 IEM_DS3505
ZBYN,1995-10-14 22:00,ZBYN 142200Z AUTO 34008KT 7SM 09/07 A3006 RMK T00900070 IEM_DS3505
ZBYN,1995-10-14 23:00,ZBYN 142300Z AUTO 06004KT 7SM 09/07 A3012 RMK T00900070 IEM_DS3505
ZBYN,1995-10-15 00:00,ZBYN 150000Z AUTO 00000KT 6SM 10/05 A3012 RMK SLP195 T00970048 52013 IEM_DS3505
ZBYN,1995-10-15 01:00,ZBYN 150100Z AUTO 35006KT 7SM 10/06 A3012 RMK T01000060 IEM_DS3505
ZBYN,1995-10-15 02:00,ZBYN 150200Z AUTO 33008KT 7SM 14/04 A3012 RMK T01400040 IEM_DS3505
ZBYN,1995-10-15 03:00,ZBYN 150300Z AUTO 34004KT 7SM 14/04 A3012 RMK SLP201 T01440045 52006 IEM_DS3505
ZBYN,1995-10-15 04:00,ZBYN 150400Z AUTO 29006KT 6SM 17/05 A3009 RMK T01700050 IEM_DS3505
ZBYN,1995-10-15 05:00,ZBYN 150500Z AUTO 07006KT 6SM 19/07 A3006 RMK T01900070 IEM_DS3505
ZBYN,1995-10-15 06:00,ZBYN 150600Z AUTO 18008KT 9SM 19/07 A3006 RMK SLP169 T01940066 57023 IEM_DS3505
ZBYN,1995-10-15 07:00,ZBYN 150700Z AUTO 17010KT 6SM 21/09 A3003 RMK T02100090 IEM_DS3505
ZBYN,1995-10-15 08:00,ZBYN 150800Z AUTO 20008KT 6SM 21/10 A3003 RMK T02100100 IEM_DS3505
ZBYN,1995-10-15 09:00,ZBYN 150900Z AUTO 18004KT 9SM 18/10 A3003 RMK SLP165 T01840101 57006 IEM_DS3505
ZBYN,1995-10-15 10:00,ZBYN 151000Z AUTO 00000KT 5SM 16/11 A3003 RMK T01600110 IEM_DS3505
ZBYN,1995-10-15 11:00,ZBYN 151100Z AUTO 14006KT 4SM 14/11 A3006 RMK T01400110 IEM_DS3505
ZBYN,1995-10-15 12:00,ZBYN 151200Z AUTO 11004KT 6SM 13/10 A3009 RMK SLP188 T01270099 52015 IEM_DS3505
ZBYN,1995-10-15 13:00,ZBYN 151300Z AUTO 10008KT 7SM 12/09 A3009 RMK T01200090 IEM_DS3505
ZBYN,1995-10-15 14:00,ZBYN 151400Z AUTO 08008KT 7SM 12/09 A3012 RMK T01200090 IEM_DS3505
ZBYN,1995-10-15 15:00,ZBYN 151500Z AUTO 36002KT 6SM 10/09 A3012 RMK SLP196 T01030089 52010 IEM_DS3505
ZBYN,1995-10-15 16:00,ZBYN 151600Z AUTO 00000KT 6SM 13/09 A3012 RMK T01300090 IEM_DS3505
ZBYN,1995-10-15 17:00,ZBYN 151700Z AUTO 00000KT 6SM 12/10 A3012 RMK T01200100 IEM_DS3505
ZBYN,1995-10-15 18:00,ZBYN 151800Z AUTO 00000KT 5SM 11/09 A3012 RMK SLP187 T01130088 52001 IEM_DS3505
ZBYN,1995-10-15 19:00,ZBYN 151900Z AUTO 29004KT 7SM 12/09 A3012 RMK T01200090 IEM_DS3505
ZBYN,1995-10-15 20:00,ZBYN 152000Z AUTO 00000KT 7SM 12/10 A3012 RMK T01200100 IEM_DS3505
ZBYN,1995-10-15 21:00,ZBYN 152100Z AUTO 34004KT 6SM 12/09 A3012 RMK SLP190 T01180087 52002 IEM_DS3505
ZBYN,1995-10-15 22:00,ZBYN 152200Z AUTO 00000KT 7SM 12/10 A3012 RMK T01200100 IEM_DS3505
ZBYN,1995-10-15 23:00,ZBYN 152300Z AUTO 00000KT 2SM 12/09 A3012 RMK T01200090 IEM_DS3505
ZBYN,1995-10-16 00:00,ZBYN 160000Z AUTO 32004KT 5SM 12/08 A3015 RMK SLP204 T01250084 52005 IEM_DS3505
ZBYN,1995-10-16 01:00,ZBYN 160100Z AUTO 00000KT 2SM 13/11 A3015 RMK T01300110 IEM_DS3505
ZBYN,1995-10-16 02:00,ZBYN 160200Z AUTO 00000KT 2SM 15/10 A3015 RMK T01500100 IEM_DS3505
ZBYN,1995-10-16 03:00,ZBYN 160300Z AUTO 00000KT 4SM 17/10 A3015 RMK SLP203 T01690102 52003 IEM_DS3505
ZBYN,1995-10-16 04:00,ZBYN 160400Z AUTO 20008KT 4SM 18/11 A3015 RMK T01800110 IEM_DS3505
ZBYN,1995-10-16 05:00,ZBYN 160500Z AUTO 20010KT 4SM 18/11 A3012 RMK T01800110 IEM_DS3505
ZBYN,1995-10-16 06:00,ZBYN 160600Z AUTO 18008KT 6SM 19/11 A3009 RMK SLP179 T01910108 57018 IEM_DS3505
ZBYN,1995-10-16 07:00,ZBYN 160700Z AUTO 15004KT 6SM 21/13 A3006 RMK T02100130 IEM_DS3505
ZBYN,1995-10-16 08:00,ZBYN 160800Z AUTO 15008KT 6SM 20/12 A3006 RMK T02000120 IEM_DS3505
ZBYN,1995-10-16 09:00,ZBYN 160900Z AUTO 16006KT 6SM 18/11 A3006 RMK SLP169 T01830110 57009 IEM_DS3505
ZBYN,1995-10-16 10:00,ZBYN 161000Z AUTO 12006KT 6SM 17/12 A3006 RMK T01700120 IEM_DS3505
ZBYN,1995-10-16 11:00,ZBYN 161100Z AUTO 12008KT 6SM 15/11 A3006 RMK T01500110 IEM_DS3505
ZBYN,1995-10-16 12:00,ZBYN 161200Z AUTO 16004KT 6SM 15/11 A3009 RMK SLP181 T01500110 52007 IEM_DS3505
ZBYN,1995-10-16 13:00,ZBYN 161300Z AUTO 10006KT 6SM 14/11 A3009 RMK T01400110 IEM_DS3505
ZBYN,1995-10-16 15:00,ZBYN 161500Z AUTO 09002KT 6SM 13/11 A3009 RMK SLP177 T01310111 54000 IEM_DS3505
ZBYN,1995-10-16 16:00,ZBYN 161600Z AUTO 06004KT 7SM 13/12 A3009 RMK T01300120 IEM_DS3505
ZBYN,1995-10-16 17:00,ZBYN 161700Z AUTO 06006KT 7SM 14/12 A3006 RMK T01400120 IEM_DS3505
ZBYN,1995-10-16 18:00,ZBYN 161800Z AUTO 09002KT 6SM 13/12 A3009 RMK SLP177 T01330122 52003 IEM_DS3505
ZBYN,1995-10-16 19:00,ZBYN 161900Z AUTO 00000KT 7SM 14/12 A3009 RMK T01400120 IEM_DS3505
ZBYN,1995-10-16 20:00,ZBYN 162000Z AUTO 00000KT 4SM 14/12 A3009 RMK T01400120 IEM_DS3505
ZBYN,1995-10-16 21:00,ZBYN 162100Z AUTO 34004KT 5SM 13/12 A3009 RMK SLP180 T01300116 52002 IEM_DS3505
ZBYN,1995-10-16 22:00,ZBYN 162200Z AUTO 01006KT 2SM 13/11 A3012 RMK T01300110 IEM_DS3505
ZBYN,1995-10-16 23:00,ZBYN 162300Z AUTO 00000KT 7SM 13/09 A3015 RMK T01300090 IEM_DS3505
ZBYN,1995-10-17 00:00,ZBYN 170000Z AUTO 36006KT 6SM 13/09 A3018 RMK SLP215 T01320090 52027 IEM_DS3505
ZBYN,1995-10-17 01:00,ZBYN 170100Z AUTO 36008KT 7SM 15/07 A3021 RMK T01500070 IEM_DS3505
ZBYN,1995-10-17 02:00,ZBYN 170200Z AUTO 36010KT 7SM 16/04 A3021 RMK T01600040 IEM_DS3505
ZBYN,1995-10-17 03:00,ZBYN 170300Z AUTO 36008KT 12SM 17/04 A3021 RMK SLP219 T01720041 52007 IEM_DS3505
ZBYN,1995-10-17 04:00,ZBYN 170400Z AUTO 01012KT 6SM 18/03 A3018 RMK T01800030 IEM_DS3505
ZBYN,1995-10-17 05:00,ZBYN 170500Z AUTO 34010KT 6SM 19/03 A3015 RMK T01900030 IEM_DS3505
ZBYN,1995-10-17 06:00,ZBYN 170600Z AUTO 34006KT 12SM 20/02 A3015 RMK SLP196 T01950016 57018 IEM_DS3505
ZBYN,1995-10-17 07:00,ZBYN 170700Z AUTO 32010KT 6SM 20/00 A3012 RMK T02000000 IEM_DS3505
ZBYN,1995-10-17 08:00,ZBYN 170800Z AUTO 36010KT 6SM 19/00 A3012 RMK T01900000 IEM_DS3505
ZBYN,1995-10-17 09:00,ZBYN 170900Z AUTO 36008KT 12SM 19/01 A3015 RMK SLP191 T01860010 57006 IEM_DS3505
ZBYN,1995-10-17 10:00,ZBYN 171000Z AUTO 36012KT 6SM 17/02 A3015 RMK T01700020 IEM_DS3505
ZBYN,1995-10-17 11:00,ZBYN 171100Z AUTO 35006KT 6SM 15/05 A3015 RMK T01500050 IEM_DS3505
ZBYN,1995-10-17 12:00,ZBYN 171200Z AUTO 02006KT 11SM 16/02 A3018 RMK SLP213 T01600023 52017 IEM_DS3505
ZBYN,1995-10-17 14:00,ZBYN 171400Z AUTO 04004KT 6SM 13/08 A3024 RMK T01300080 IEM_DS3505
ZBYN,1995-10-17 15:00,ZBYN 171500Z AUTO 34004KT 6SM 13/05 A3024 RMK SLP234 T01260046 52020 IEM_DS3505
ZBYN,1995-10-17 16:00,ZBYN 171600Z AUTO 08004KT 6SM 13/08 A3027 RMK T01300080 IEM_DS3505
ZBYN,1995-10-17 17:00,ZBYN 171700Z AUTO 05010KT 6SM 13/08 A3027 RMK T01300080 IEM_DS3505
ZBYN,1995-10-17 18:00,ZBYN 171800Z AUTO 04006KT 6SM 14/05 A3027 RMK SLP238 T01350053 52008 IEM_DS3505
ZBYN,1995-10-17 19:00,ZBYN 171900Z AUTO 06010KT 6SM 12/08 A3030 RMK T01200080 IEM_DS3505
ZBYN,1995-10-17 20:00,ZBYN 172000Z AUTO 06006KT 7SM 10/07 A3027 RMK T01000070 IEM_DS3505
ZBYN,1995-10-17 21:00,ZBYN 172100Z AUTO 36002KT 6SM 11/05 A3030 RMK SLP247 T01060051 52003 IEM_DS3505
ZBYN,1995-10-17 22:00,ZBYN 172200Z AUTO 06008KT 7SM 10/07 A3030 RMK T01000070 IEM_DS3505
ZBYN,1995-10-17 23:00,ZBYN 172300Z AUTO 10006KT 7SM 09/07 A3033 RMK T00900070 IEM_DS3505
ZBYN,1995-10-18 00:00,ZBYN 180000Z AUTO 04008KT 6SM 12/05 A3036 RMK SLP269 T01220046 52018 IEM_DS3505
ZBYN,1995-10-18 01:00,ZBYN 180100Z AUTO ////16KT 7SM 13/07 A3036 RMK T01300070 IEM_DS3505
ZBYN,1995-10-18 02:00,ZBYN 180200Z AUTO 09016KT 7SM 14/07 A3036 RMK T01400070 IEM_DS3505
ZBYN,1995-10-18 03:00,ZBYN 180300Z AUTO 09016KT 7SM 16/07 A3033 RMK T01600070 IEM_DS3505
ZBYN,1995-10-18 04:00,ZBYN 180400Z AUTO 09014KT 7SM 17/05 A3033 RMK T01700050 IEM_DS3505
ZBYN,1995-10-18 05:00,ZBYN 180500Z AUTO 09008KT 7SM 19/05 A3030 RMK T01900050 IEM_DS3505
ZBYN,1995-10-18 06:00,ZBYN 180600Z AUTO 04006KT 6SM 17/03 A3027 RMK SLP242 T01700032 57023 IEM_DS3505
ZBYN,1995-10-18 07:00,ZBYN 180700Z AUTO 06012KT 7SM 19/05 A3027 RMK T01900050 IEM_DS3505
ZBYN,1995-10-18 08:00,ZBYN 180800Z AUTO 06010KT 7SM 18/07 A3027 RMK T01800070 IEM_DS3505
ZBYN,1995-10-18 09:00,ZBYN 180900Z AUTO 09010KT 6SM 16/05 A3027 RMK SLP245 T01550046 57004 IEM_DS3505
ZBYN,1995-10-18 10:00,ZBYN 181000Z AUTO 06014KT 6SM 13/06 A3027 RMK T01300060 IEM_DS3505
ZBYN,1995-10-18 11:00,ZBYN 181100Z AUTO 07014KT 6SM 12/06 A3030 RMK T01200060 IEM_DS3505
ZBYN,1995-10-18 12:00,ZBYN 181200Z AUTO 09010KT 6SM 13/04 A3030 RMK SLP259 T01310045 52012 IEM_DS3505
ZBYN,1995-10-18 13:00,ZBYN 181300Z AUTO 07014KT 7SM 11/06 A3033 RMK T01100060 IEM_DS3505
ZBYN,1995-10-18 14:00,ZBYN 181400Z AUTO 07012KT 7SM 11/07 A3033 RMK T01100070 IEM_DS3505
ZBYN,1995-10-18 15:00,ZBYN 181500Z AUTO 07004KT 6SM 12/05 A3033 RMK SLP264 T01190050 52007 IEM_DS3505
ZBYN,1995-10-18 16:00,ZBYN 181600Z AUTO 12014KT 6SM 10/07 A3033 RMK T01000070 IEM_DS3505
ZBYN,1995-10-18 17:00,ZBYN 181700Z AUTO 10008KT 6SM 10/07 A3033 RMK T01000070 IEM_DS3505
ZBYN,1995-10-18 18:00,ZBYN 181800Z AUTO 32004KT 6SM 10/06 A3031 RMK SLP261 T00990064 57003 IEM_DS3505
ZBYN,1995-10-18 19:00,ZBYN 181900Z AUTO 09006KT 6SM 10/08 A3033 RMK T01000080 IEM_DS3505
ZBYN,1995-10-18 20:00,ZBYN 182000Z AUTO 09008KT 6SM 11/09 A3030 RMK T01100090 IEM_DS3505
ZBYN,1995-10-18 21:00,ZBYN 182100Z AUTO 32004KT 6SM 10/06 A3030 RMK SLP259 T01040063 57003 IEM_DS3505
ZBYN,1995-10-18 22:00,ZBYN 182200Z AUTO 07010KT 7SM 11/08 A3030 RMK T01100080 IEM_DS3505
ZBYN,1995-10-18 23:00,ZBYN 182300Z AUTO ////12KT 6SM 10/08 A3033 RMK T01000080 IEM_DS3505
ZBYN,1995-10-19 00:00,ZBYN 190000Z AUTO 09008KT 6SM 12/06 A3033 RMK SLP262 T01170057 52001 IEM_DS3505
ZBYN,1995-10-19 01:00,ZBYN 190100Z AUTO 08014KT 5SM 12/07 A3033 RMK T01200070 IEM_DS3505
ZBYN,1995-10-19 03:00,ZBYN 190300Z AUTO 03014KT 5SM 12/06 A3030 RMK T01200060 IEM_DS3505
ZBYN,1995-10-19 05:00,ZBYN 190500Z AUTO 09012KT 5SM 12/06 A3027 RMK T01200060 IEM_DS3505
ZBYN,1995-10-19 06:00,ZBYN 190600Z AUTO 02006KT 6SM 13/04 A3024 RMK SLP250 T01280041 57013 IEM_DS3505
ZBYN,1995-10-19 07:00,ZBYN 190700Z AUTO 05010KT 7SM 11/08 A3024 RMK T01100080 IEM_DS3505
ZBYN,1995-10-19 08:00,ZBYN 190800Z AUTO 07008KT 7SM 11/08 A3024 RMK T01100080 IEM_DS3505
ZBYN,1995-10-19 09:00,ZBYN 190900Z AUTO 07004KT 6SM 10/07 A3027 RMK SLP254 T00980072 57001 IEM_DS3505
ZBYN,1995-10-19 10:00,ZBYN 191000Z AUTO 10006KT 5SM 09/08 A3027 RMK T00900080 IEM_DS3505
ZBYN,1995-10-19 12:00,ZBYN 191200Z AUTO 09002KT 4SM 09/07 A3030 RMK 60008 SLP261 T00870066 52007 IEM_DS3505
ZBYN,1995-10-19 13:00,ZBYN 191300Z AUTO 05006KT 7SM 08/07 A3030 RMK T00800070 IEM_DS3505
ZBYN,1995-10-19 14:00,ZBYN 191400Z AUTO 08008KT 7SM 08/07 A3030 RMK T00800070 IEM_DS3505
ZBYN,1995-10-19 15:00,ZBYN 191500Z AUTO 07004KT 4SM 07/05 A3030 RMK SLP270 T00740052 52007 IEM_DS3505
ZBYN,1995-10-19 16:00,ZBYN 191600Z AUTO 08004KT 7SM 07/06 A3030 RMK T00700060 IEM_DS3505
ZBYN,1995-10-19 17:00,ZBYN 191700Z AUTO 10006KT 7SM 07/06 A3030 RMK T00700060 IEM_DS3505
ZBYN,1995-10-19 18:00,ZBYN 191800Z AUTO 32004KT 4SM 07/06 A3027 RMK 60008 SLP261 T00670061 57008 IEM_DS3505
ZBYN,1995-10-19 19:00,ZBYN 191900Z AUTO 35004KT 5SM 07/06 A3024 RMK T00700060 IEM_DS3505
ZBYN,1995-10-19 20:00,ZBYN 192000Z AUTO 00000KT 3SM 07/06 A3024 RMK T00700060 IEM_DS3505
ZBYN,1995-10-19 21:00,ZBYN 192100Z AUTO 32002KT 4SM 07/06 A3024 RMK SLP250 T00700059 57014 IEM_DS3505
ZBYN,1995-10-19 22:00,ZBYN 192200Z AUTO 33004KT 2SM 07/07 A3024 RMK T00700070 IEM_DS3505
ZBYN,1995-10-19 23:00,ZBYN 192300Z AUTO 00000KT 4SM 07/07 A3024 RMK T00700070 IEM_DS3505
ZBYN,1995-10-20 00:00,ZBYN 200000Z AUTO 32002KT 4SM 07/06 A3024 RMK 60008 70024 SLP254 T00720061 52002 IEM_DS3505
ZBYN,1995-10-20 01:00,ZBYN 200100Z AUTO 00000KT 2 1/2SM 08/07 A3024 RMK T00800070 IEM_DS3505
ZBYN,1995-10-20 02:00,ZBYN 200200Z AUTO 27004KT 2 1/2SM 09/08 A3024 RMK T00900080 IEM_DS3505
ZBYN,1995-10-20 03:00,ZBYN 200300Z AUTO 32002KT 4SM 10/07 A3024 RMK SLP257 T00950068 52004 IEM_DS3505
ZBYN,1995-10-20 04:00,ZBYN 200400Z AUTO 00000KT 2 1/2SM 11/07 A3024 RMK T01100070 IEM_DS3505
ZBYN,1995-10-20 05:00,ZBYN 200500Z AUTO 00000KT 7SM 11/07 A3021 RMK T01100070 IEM_DS3505
ZBYN,1995-10-20 06:00,ZBYN 200600Z AUTO 32002KT 4SM 12/06 A3018 RMK 60000 SLP231 T01150064 57022 IEM_DS3505
ZBYN,1995-10-20 07:00,ZBYN 200700Z AUTO 24006KT 7SM 12/06 A3015 RMK T01200060 IEM_DS3505
ZBYN,1995-10-20 08:00,ZBYN 200800Z AUTO 00000KT 7SM 12/06 A3015 RMK T01200060 IEM_DS3505
ZBYN,1995-10-20 09:00,ZBYN 200900Z AUTO 32002KT 6SM 11/07 A3015 RMK SLP225 T01070073 57006 IEM_DS3505
ZBYN,1995-10-20 10:00,ZBYN 201000Z AUTO 00000KT 7SM 11/07 A3015 RMK T01100070 IEM_DS3505
ZBYN,1995-10-20 11:00,ZBYN 201100Z AUTO 00000KT 7SM 11/08 A3018 RMK T01100080 IEM_DS3505
ZBYN,1995-10-20 12:00,ZBYN 201200Z AUTO 00000KT 6SM 10/08 A3020 RMK SLP237 T01030077 52011 IEM_DS3505
ZBYN,1995-10-20 13:00,ZBYN 201300Z AUTO 00000KT 7SM 11/08 A3021 RMK T01100080 IEM_DS3505
ZBYN,1995-10-20 14:00,ZBYN 201400Z AUTO 00000KT 7SM 10/08 A3021 RMK T01000080 IEM_DS3505
ZBYN,1995-10-20 15:00,ZBYN 201500Z AUTO 32004KT 6SM 10/08 A3021 RMK SLP238 T00990077 52004 IEM_DS3505
ZBYN,1995-10-20 16:00,ZBYN 201600Z AUTO 18004KT 7SM 10/09 A3021 RMK T01000090 IEM_DS3505
ZBYN,1995-10-20 17:00,ZBYN 201700Z AUTO 00000KT 7SM 10/09 A3021 RMK T01000090 IEM_DS3505
ZBYN,1995-10-20 18:00,ZBYN 201800Z AUTO 16006KT 6SM 10/08 A3021 RMK SLP234 T00970081 57001 IEM_DS3505
ZBYN,1995-10-20 19:00,ZBYN 201900Z AUTO 00000KT 7SM 10/09 A3021 RMK T01000090 IEM_DS3505
ZBYN,1995-10-20 20:00,ZBYN 202000Z AUTO 00000KT 7SM 10/09 A3021 RMK T01000090 IEM_DS3505
ZBYN,1995-10-20 21:00,ZBYN 202100Z AUTO 09004KT 6SM 09/08 A3018 RMK SLP228 T00930081 57008 IEM_DS3505
ZBYN,1995-10-20 22:00,ZBYN 202200Z AUTO 18004KT 4SM 10/09 A3021 RMK T01000090 IEM_DS3505
ZBYN,1995-10-20 23:00,ZBYN 202300Z AUTO 10004KT 2SM 09/08 A3021 RMK T00900080 IEM_DS3505
ZBYN,1995-10-21 00:00,ZBYN 210000Z AUTO 11002KT 4SM 10/08 A3021 RMK SLP239 T00950085 52010 IEM_DS3505
ZBYN,1995-10-21 01:00,ZBYN 210100Z AUTO 00000KT 2SM 11/08 A3024 RMK T01100080 IEM_DS3505
ZBYN,1995-10-21 02:00,ZBYN 210200Z AUTO 10004KT 2SM 12/09 A3024 RMK T01200090 IEM_DS3505
ZBYN,1995-10-21 03:00,ZBYN 210300Z AUTO 18004KT 4SM 14/08 A3021 RMK SLP232 T01380082 54000 IEM_DS3505
ZBYN,1995-10-21 04:00,ZBYN 210400Z AUTO 20006KT 4SM 16/07 A3018 RMK T01600070 IEM_DS3505
ZBYN,1995-10-21 05:00,ZBYN 210500Z AUTO 00000KT 4SM 16/07 A3015 RMK T01600070 IEM_DS3505
ZBYN,1995-10-21 06:00,ZBYN 210600Z AUTO 22004KT 5SM 17/07 A3012 RMK SLP202 T01660069 57024 IEM_DS3505
ZBYN,1995-10-21 07:00,ZBYN 210700Z AUTO 12004KT 6SM 18/08 A3012 RMK T01800080 IEM_DS3505
ZBYN,1995-10-21 08:00,ZBYN 210800Z AUTO 12006KT 7SM 18/08 A3012 RMK T01800080 IEM_DS3505
ZBYN,1995-10-21 09:00,ZBYN 210900Z AUTO 18006KT 5SM 15/08 A3015 RMK SLP204 T01480085 57001 IEM_DS3505
ZBYN,1995-10-21 10:00,ZBYN 211000Z AUTO 17008KT 5SM 14/09 A3015 RMK T01400090 IEM_DS3505
ZBYN,1995-10-21 11:00,ZBYN 211100Z AUTO 17006KT 4SM 14/09 A3018 RMK T01400090 IEM_DS3505
ZBYN,1995-10-21 12:00,ZBYN 211200Z AUTO 11008KT 6SM 12/08 A3018 RMK SLP222 T01180083 52012 IEM_DS3505
ZBYN,1995-10-21 13:00,ZBYN 211300Z AUTO 17006KT 2 1/2SM 11/09 A3018 RMK T01100090 IEM_DS3505
ZBYN,1995-10-21 14:00,ZBYN 211400Z AUTO 17004KT 2 1/2SM 10/09 A3021 RMK T01000090 IEM_DS3505
ZBYN,1995-10-21 15:00,ZBYN 211500Z AUTO 11002KT 6SM 10/09 A3024 RMK SLP233 T00960086 52013 IEM_DS3505
ZBYN,1995-10-21 16:00,ZBYN 211600Z AUTO 18006KT 4SM 09/08 A3021 RMK T00900080 IEM_DS3505
ZBYN,1995-10-21 17:00,ZBYN 211700Z AUTO 18004KT 4SM 08/08 A3024 RMK T00800080 IEM_DS3505
ZBYN,1995-10-21 18:00,ZBYN 211800Z AUTO 00000KT 6SM 08/08 A3024 RMK SLP236 T00820078 52005 IEM_DS3505
ZBYN,1995-10-21 19:00,ZBYN 211900Z AUTO 15006KT 4SM 07/07 A3021 RMK T00700070 IEM_DS3505
ZBYN,1995-10-21 20:00,ZBYN 212000Z AUTO 00000KT 4SM 07/06 A3021 RMK T00700060 IEM_DS3505
ZBYN,1995-10-21 21:00,ZBYN 212100Z AUTO 09002KT 4SM 07/07 A3021 RMK SLP231 T00730069 57009 IEM_DS3505
ZBYN,1995-10-21 22:00,ZBYN 212200Z AUTO 15004KT 4SM 07/07 A3021 RMK T00700070 IEM_DS3505
ZBYN,1995-10-21 23:00,ZBYN 212300Z AUTO 26004KT 2SM 07/07 A3024 RMK T00700070 IEM_DS3505
ZBYN,1995-10-22 00:00,ZBYN 220000Z AUTO 20004KT 3SM 08/08 A3027 RMK SLP251 T00770075 52015 IEM_DS3505
ZBYN,1995-10-22 01:00,ZBYN 220100Z AUTO 00000KT 2 1/2SM 10/09 A3027 RMK T01000090 IEM_DS3505
ZBYN,1995-10-22 02:00,ZBYN 220200Z AUTO 00000KT 2SM 11/09 A3027 RMK T01100090 IEM_DS3505
ZBYN,1995-10-22 03:00,ZBYN 220300Z AUTO 16004KT 6SM 14/09 A3027 RMK SLP248 T01410090 52003 IEM_DS3505
ZBYN,1995-10-22 04:00,ZBYN 220400Z AUTO 18008KT 2SM 15/09 A3024 RMK T01500090 IEM_DS3505
ZBYN,1995-10-22 05:00,ZBYN 220500Z AUTO 27004KT 2SM 15/09 A3021 RMK T01500090 IEM_DS3505
ZBYN,1995-10-22 06:00,ZBYN 220600Z AUTO 22004KT 6SM 15/10 A3021 RMK SLP228 T01520096 57018 IEM_DS3505
ZBYN,1995-10-22 07:00,ZBYN 220700Z AUTO 26006KT 1 1/4SM 15/10 A3018 RMK T01500100 IEM_DS3505
ZBYN,1995-10-22 08:00,ZBYN 220800Z AUTO 27006KT 1SM 15/10 A3021 RMK T01500100 IEM_DS3505
ZBYN,1995-10-22 09:00,ZBYN 220900Z AUTO 32008KT 4SM 14/09 A3021 RMK SLP234 T01450088 52003 IEM_DS3505
ZBYN,1995-10-22 10:00,ZBYN 221000Z AUTO 27010KT 4SM 13/10 A3021 RMK T01300100 IEM_DS3505
ZBYN,1995-10-22 11:00,ZBYN 221100Z AUTO 27012KT 4SM 13/09 A3024 RMK T01300090 IEM_DS3505
ZBYN,1995-10-22 12:00,ZBYN 221200Z AUTO 34002KT 9SM 12/08 A3024 RMK SLP249 T01250080 52011 IEM_DS3505
ZBYN,1995-10-22 13:00,ZBYN 221300Z AUTO 33004KT 5SM 12/10 A3027 RMK T01200100 IEM_DS3505
ZBYN,1995-10-22 14:00,ZBYN 221400Z AUTO 27002KT 5SM 12/09 A3027 RMK T01200090 IEM_DS3505
ZBYN,1995-10-22 15:00,ZBYN 221500Z AUTO 32004KT 5SM 12/06 A3030 RMK SLP250 T01190060 52010 IEM_DS3505
ZBYN,1995-10-22 16:00,ZBYN 221600Z AUTO 27008KT 7SM 11/09 A3030 RMK T01100090 IEM_DS3505
ZBYN,1995-10-22 17:00,ZBYN 221700Z AUTO 00000KT 7SM 10/08 A3027 RMK T01000080 IEM_DS3505
ZBYN,1995-10-22 18:00,ZBYN 221800Z AUTO 34004KT 4SM 10/07 A3027 RMK 60000 SLP252 T01050071 52001 IEM_DS3505
ZBYN,1995-10-22 19:00,ZBYN 221900Z AUTO 00000KT 7SM 10/08 A3030 RMK T01000080 IEM_DS3505
ZBYN,1995-10-22 20:00,ZBYN 222000Z AUTO 00000KT 7SM 10/08 A3030 RMK T01000080 IEM_DS3505
ZBYN,1995-10-22 21:00,ZBYN 222100Z AUTO 00000KT 6SM 10/05 A3030 RMK SLP255 T01010048 52001 IEM_DS3505
ZBYN,1995-10-22 22:00,ZBYN 222200Z AUTO 00000KT 2SM 09/08 A3030 RMK T00900080 IEM_DS3505
ZBYN,1995-10-22 23:00,ZBYN 222300Z AUTO 32002KT 2SM 09/08 A3033 RMK T00900080 IEM_DS3505
ZBYN,1995-10-23 00:00,ZBYN 230000Z AUTO 04004KT 11SM 10/03 A3033 RMK SLP275 T00990027 52015 IEM_DS3505
ZBYN,1995-10-23 01:00,ZBYN 230100Z AUTO 33004KT 6SM 11/03 A3036 RMK T01100030 IEM_DS3505
ZBYN,1995-10-23 02:00,ZBYN 230200Z AUTO 34008KT 6SM 13/01 A3036 RMK T01300010 IEM_DS3505
ZBYN,1995-10-23 03:00,ZBYN 230300Z AUTO 02004KT 7SM 12/00 A3036 RMK SLP274 T01230005 52002 IEM_DS3505
ZBYN,1995-10-23 04:00,ZBYN 230400Z AUTO 36010KT 6SM 13/M01 A3036 RMK T01301010 IEM_DS3505
ZBYN,1995-10-23 05:00,ZBYN 230500Z AUTO 27006KT 6SM 15/M01 A3030 RMK T01501010 IEM_DS3505
ZBYN,1995-10-23 06:00,ZBYN 230600Z AUTO 07004KT 7SM 15/00 A3030 RMK SLP252 T01500003 57018 IEM_DS3505
ZBYN,1995-10-23 07:00,ZBYN 230700Z AUTO 17006KT 6SM 16/01 A3027 RMK T01600010 IEM_DS3505
ZBYN,1995-10-23 08:00,ZBYN 230800Z AUTO 34004KT 6SM 15/00 A3027 RMK T01500000 IEM_DS3505
ZBYN,1995-10-23 09:00,ZBYN 230900Z AUTO 36002KT 7SM 14/01 A3027 RMK SLP250 T01450011 57003 IEM_DS3505
ZBYN,1995-10-23 10:00,ZBYN 231000Z AUTO 31004KT 6SM 12/00 A3030 RMK T01200000 IEM_DS3505
ZBYN,1995-10-23 11:00,ZBYN 231100Z AUTO 34008KT 7SM 12/M04 A3033 RMK T01201040 IEM_DS3505
ZBYN,1995-10-23 12:00,ZBYN 231200Z AUTO 32006KT 12SM 10/M02 A3036 RMK SLP281 T01001024 52021 IEM_DS3505
ZBYN,1995-10-23 13:00,ZBYN 231300Z AUTO 00000KT 7SM 08/01 A3039 RMK T00800010 IEM_DS3505
ZBYN,1995-10-23 14:00,ZBYN 231400Z AUTO 34004KT 7SM 06/01 A3039 RMK T00600010 IEM_DS3505
ZBYN,1995-10-23 15:00,ZBYN 231500Z AUTO 34004KT 12SM 08/M02 A3042 RMK SLP299 T00851023 52017 IEM_DS3505
ZBYN,1995-10-23 16:00,ZBYN 231600Z AUTO 00000KT 7SM 04/00 A3042 RMK T00400000 IEM_DS3505
ZBYN,1995-10-23 17:00,ZBYN 231700Z AUTO 00000KT 7SM 03/00 A3045 RMK T00300000 IEM_DS3505
ZBYN,1995-10-23 18:00,ZBYN 231800Z AUTO 04002KT 9SM 03/M00 A3045 RMK SLP318 T00281001 52013 IEM_DS3505
ZBYN,1995-10-23 19:00,ZBYN 231900Z AUTO 33008KT 7SM 05/01 A3045 RMK T00500010 IEM_DS3505
ZBYN,1995-10-23 20:00,ZBYN 232000Z AUTO 00000KT 7SM 03/M01 A3045 RMK T00301010 IEM_DS3505
ZBYN,1995-10-23 21:00,ZBYN 232100Z AUTO 34004KT 9SM 06/M05 A3045 RMK SLP312 T00591052 57001 IEM_DS3505
ZBYN,1995-10-23 22:00,ZBYN 232200Z AUTO 00000KT 7SM 01/M01 A3045 RMK T00101010 IEM_DS3505
ZBYN,1995-10-23 23:00,ZBYN 232300Z AUTO 28004KT 5SM 03/M02 A3045 RMK T00301020 IEM_DS3505
ZBYN,1995-10-24 00:00,ZBYN 240000Z AUTO 29006KT 7SM 04/M02 A3047 RMK SLP333 T00411021 52009 IEM_DS3505
ZBYN,1995-10-24 01:00,ZBYN 240100Z AUTO 00000KT 7SM 06/M01 A3050 RMK T00601010 IEM_DS3505
ZBYN,1995-10-24 02:00,ZBYN 240200Z AUTO 00000KT 7SM 10/M04 A3050 RMK T01001040 IEM_DS3505
ZBYN,1995-10-24 03:00,ZBYN 240300Z AUTO 11004KT 6SM 11/M04 A3047 RMK SLP323 T01131040 54000 IEM_DS3505
ZBYN,1995-10-24 04:00,ZBYN 240400Z AUTO 00000KT 7SM 12/M04 A3045 RMK T01201040 IEM_DS3505
ZBYN,1995-10-24 05:00,ZBYN 240500Z AUTO 18008KT 7SM 13/M03 A3042 RMK T01301030 IEM_DS3505
ZBYN,1995-10-24 06:00,ZBYN 240600Z AUTO 18004KT 6SM 14/M03 A3039 RMK SLP302 T01421033 57024 IEM_DS3505
ZBYN,1995-10-24 07:00,ZBYN 240700Z AUTO 00000KT 7SM 16/M01 A3036 RMK T01601010 IEM_DS3505
ZBYN,1995-10-24 08:00,ZBYN 240800Z AUTO 00000KT 7SM 15/M01 A3036 RMK T01501010 IEM_DS3505
ZBYN,1995-10-24 09:00,ZBYN 240900Z AUTO 16004KT 6SM 14/01 A3036 RMK SLP284 T01390014 57012 IEM_DS3505
ZBYN,1995-10-24 10:00,ZBYN 241000Z AUTO 00000KT 7SM 10/02 A3033 RMK T01000020 IEM_DS3505
ZBYN,1995-10-24 11:00,ZBYN 241100Z AUTO 16004KT 7SM 07/03 A3036 RMK T00700030 IEM_DS3505
ZBYN,1995-10-24 12:00,ZBYN 241200Z AUTO 34002KT 6SM 06/03 A3039 RMK SLP310 T00650030 52009 IEM_DS3505
ZBYN,1995-10-24 13:00,ZBYN 241300Z AUTO 26004KT 7SM 05/02 A3039 RMK T00500020 IEM_DS3505
ZBYN,1995-10-24 14:00,ZBYN 241400Z AUTO 00000KT 5SM 05/02 A3039 RMK T00500020 IEM_DS3505
ZBYN,1995-10-24 15:00,ZBYN 241500Z AUTO 00000KT 6SM 04/01 A3042 RMK SLP313 T00360014 52010 IEM_DS3505
ZBYN,1995-10-24 16:00,ZBYN 241600Z AUTO 27004KT 5SM 04/01 A3039 RMK T00400010 IEM_DS3505
ZBYN,1995-10-24 18:00,ZBYN 241800Z AUTO 09002KT 6SM 01/00 A3042 RMK SLP312 T00120001 54000 IEM_DS3505
ZBYN,1995-10-24 19:00,ZBYN 241900Z AUTO 27004KT 5SM 02/00 A3039 RMK T00200000 IEM_DS3505
ZBYN,1995-10-24 20:00,ZBYN 242000Z AUTO 00000KT 4SM 02/00 A3039 RMK T00200000 IEM_DS3505
ZBYN,1995-10-24 21:00,ZBYN 242100Z AUTO 00000KT 3SM M00/M01 A3039 RMK SLP310 T10021007 57005 IEM_DS3505
ZBYN,1995-10-24 22:00,ZBYN 242200Z AUTO 00000KT 4SM 00/M01 A3039 RMK T00001010 IEM_DS3505
ZBYN,1995-10-24 23:00,ZBYN 242300Z AUTO 00000KT 2 1/2SM 00/M01 A3039 RMK T00001010 IEM_DS3505
ZBYN,1995-10-25 00:00,ZBYN 250000Z AUTO 00000KT 3SM 01/00 A3039 RMK SLP318 T00080003 57003 IEM_DS3505
ZBYN,1995-10-25 01:00,ZBYN 250100Z AUTO 00000KT 3SM 04/00 A3039 RMK T00400000 IEM_DS3505
ZBYN,1995-10-25 02:00,ZBYN 250200Z AUTO 00000KT 3SM 07/01 A3039 RMK T00700010 IEM_DS3505
ZBYN,1995-10-25 03:00,ZBYN 250300Z AUTO 16004KT 4SM 10/01 A3036 RMK SLP302 T00990007 57004 IEM_DS3505
ZBYN,1995-10-25 04:00,ZBYN 250400Z AUTO 21004KT 4SM 12/00 A3036 RMK T01200000 IEM_DS3505
ZBYN,1995-10-25 05:00,ZBYN 250500Z AUTO 19006KT 4SM 14/M01 A3033 RMK T01401010 IEM_DS3505
ZBYN,1995-10-25 06:00,ZBYN 250600Z AUTO 22006KT 4SM 14/00 A3027 RMK SLP271 T01400000 57026 IEM_DS3505
ZBYN,1995-10-25 07:00,ZBYN 250700Z AUTO 20006KT 6SM 15/M01 A3027 RMK T01501010 IEM_DS3505
ZBYN,1995-10-25 08:00,ZBYN 250800Z AUTO 23004KT 6SM 14/00 A3024 RMK T01400000 IEM_DS3505
ZBYN,1995-10-25 09:00,ZBYN 250900Z AUTO 09004KT 4SM 13/02 A3024 RMK SLP260 T01310015 57013 IEM_DS3505
ZBYN,1995-10-25 10:00,ZBYN 251000Z AUTO 00000KT 5SM 10/03 A3024 RMK T01000030 IEM_DS3505
ZBYN,1995-10-25 11:00,ZBYN 251100Z AUTO 28004KT 2 1/2SM 08/04 A3024 RMK T00800040 IEM_DS3505
ZBYN,1995-10-25 12:00,ZBYN 251200Z AUTO 34004KT 5SM 07/02 A3027 RMK SLP277 T00730019 52007 IEM_DS3505
ZBYN,1995-10-25 13:00,ZBYN 251300Z AUTO 00000KT 3SM 05/02 A3027 RMK T00500020 IEM_DS3505
ZBYN,1995-10-25 14:00,ZBYN 251400Z AUTO 00000KT 3SM 04/02 A3027 RMK T00400020 IEM_DS3505
ZBYN,1995-10-25 15:00,ZBYN 251500Z AUTO 00000KT 5SM 03/02 A3030 RMK SLP275 T00340017 52007 IEM_DS3505
ZBYN,1995-10-25 16:00,ZBYN 251600Z AUTO 00000KT 3SM 03/01 A3030 RMK T00300010 IEM_DS3505
ZBYN,1995-10-25 17:00,ZBYN 251700Z AUTO 00000KT 3SM 02/01 A3030 RMK T00200010 IEM_DS3505
ZBYN,1995-10-25 18:00,ZBYN 251800Z AUTO 34004KT 5SM 02/01 A3030 RMK SLP270 T00200010 52002 IEM_DS3505
ZBYN,1995-10-25 19:00,ZBYN 251900Z AUTO 00000KT 3SM 01/00 A3030 RMK T00100000 IEM_DS3505
ZBYN,1995-10-25 20:00,ZBYN 252000Z AUTO 00000KT 3SM 01/00 A3027 RMK T00100000 IEM_DS3505
ZBYN,1995-10-25 21:00,ZBYN 252100Z AUTO 16002KT 3SM 00/M00 A3027 RMK SLP274 T00051003 57003 IEM_DS3505
ZBYN,1995-10-25 22:00,ZBYN 252200Z AUTO 00000KT 3SM 00/M01 A3030 RMK T00001010 IEM_DS3505
ZBYN,1995-10-25 23:00,ZBYN 252300Z AUTO 00000KT 1 1/4SM 00/M01 A3030 RMK T00001010 IEM_DS3505
ZBYN,1995-10-26 00:00,ZBYN 260000Z AUTO 00000KT 4SM M00/M01 A3033 RMK SLP297 T10011009 52011 IEM_DS3505
ZBYN,1995-10-26 01:00,ZBYN 260100Z AUTO 00000KT 2SM 03/00 A3033 RMK T00300000 IEM_DS3505
ZBYN,1995-10-26 02:00,ZBYN 260200Z AUTO 00000KT 2SM 07/02 A3033 RMK T00700020 IEM_DS3505
ZBYN,1995-10-26 03:00,ZBYN 260300Z AUTO 04004KT 5SM 13/M04 A3030 RMK SLP279 T01301040 57002 IEM_DS3505
ZBYN,1995-10-26 04:00,ZBYN 260400Z AUTO 16004KT 4SM 15/M01 A3027 RMK T01501010 IEM_DS3505
ZBYN,1995-10-26 05:00,ZBYN 260500Z AUTO 21004KT 6SM 17/M02 A3024 RMK T01701020 IEM_DS3505
ZBYN,1995-10-26 06:00,ZBYN 260600Z AUTO 34004KT 5SM 18/M02 A3021 RMK SLP238 T01811018 57028 IEM_DS3505
ZBYN,1995-10-26 07:00,ZBYN 260700Z AUTO 00000KT 6SM 19/M02 A3021 RMK T01901020 IEM_DS3505
ZBYN,1995-10-26 08:00,ZBYN 260800Z AUTO 27004KT 6SM 19/M01 A3021 RMK T01901010 IEM_DS3505
ZBYN,1995-10-26 09:00,ZBYN 260900Z AUTO 00000KT 5SM 15/03 A3021 RMK SLP243 T01540034 57005 IEM_DS3505
ZBYN,1995-10-26 10:00,ZBYN 261000Z AUTO 00000KT 6SM 12/03 A3021 RMK T01200030 IEM_DS3505
ZBYN,1995-10-26 11:00,ZBYN 261100Z AUTO 03006KT 2 1/2SM 11/04 A3024 RMK T01100040 IEM_DS3505
ZBYN,1995-10-26 12:00,ZBYN 261200Z AUTO 11006KT 6SM 12/03 A3027 RMK SLP272 T01190026 52020 IEM_DS3505
ZBYN,1995-10-26 13:00,ZBYN 261300Z AUTO 03008KT 6SM 10/01 A3027 RMK T01000010 IEM_DS3505
ZBYN,1995-10-26 14:00,ZBYN 261400Z AUTO 04006KT 6SM 10/01 A3030 RMK T01000010 IEM_DS3505
ZBYN,1995-10-26 15:00,ZBYN 261500Z AUTO 25002KT 6SM 10/02 A3030 RMK SLP268 T00950022 52013 IEM_DS3505
ZBYN,1995-10-26 16:00,ZBYN 261600Z AUTO 31004KT 6SM 10/02 A3027 RMK T01000020 IEM_DS3505
ZBYN,1995-10-26 17:00,ZBYN 261700Z AUTO 10004KT 7SM 10/00 A3027 RMK T01000000 IEM_DS3505
ZBYN,1995-10-26 18:00,ZBYN 261800Z AUTO 11002KT 6SM 09/04 A3030 RMK SLP252 T00910036 57008 IEM_DS3505
ZBYN,1995-10-26 19:00,ZBYN 261900Z AUTO 00000KT 7SM 09/04 A3027 RMK T00900040 IEM_DS3505
ZBYN,1995-10-26 20:00,ZBYN 262000Z AUTO 00000KT 6SM 09/02 A3024 RMK T00900020 IEM_DS3505
ZBYN,1995-10-26 21:00,ZBYN 262100Z AUTO 11004KT 6SM 06/04 A3027 RMK SLP253 T00590036 57008 IEM_DS3505
ZBYN,1995-10-26 22:00,ZBYN 262200Z AUTO 00000KT 6SM 06/02 A3027 RMK T00600020 IEM_DS3505
ZBYN,1995-10-26 23:00,ZBYN 262300Z AUTO 00000KT 6SM 05/02 A3024 RMK T00500020 IEM_DS3505
ZBYN,1995-10-27 00:00,ZBYN 270000Z AUTO 34002KT 5SM 04/03 A3024 RMK SLP260 T00440032 57001 IEM_DS3505
ZBYN,1995-10-27 01:00,ZBYN 270100Z AUTO 00000KT 2 1/2SM 10/02 A3027 RMK T01000020 IEM_DS3505
ZBYN,1995-10-27 02:00,ZBYN 270200Z AUTO 33004KT 5SM 13/04 A3024 RMK T01300040 IEM_DS3505
ZBYN,1995-10-27 03:00,ZBYN 270300Z AUTO 16004KT 5SM 13/03 RMK SLP238 T01330026 57010 IEM_DS3505
ZBYN,1995-10-27 04:00,ZBYN 270400Z AUTO 18008KT 6SM 17/03 A3018 RMK T01700030 IEM_DS3505
ZBYN,1995-10-27 05:00,ZBYN 270500Z AUTO 20010KT 6SM 16/00 A3015 RMK T01600000 IEM_DS3505
ZBYN,1995-10-27 06:00,ZBYN 270600Z AUTO 20010KT 6SM 18/M01 A3012 RMK SLP199 T01751007 52030 IEM_DS3505
ZBYN,1995-10-27 07:00,ZBYN 270700Z AUTO 19008KT 6SM 19/01 A3012 RMK T01900010 IEM_DS3505
ZBYN,1995-10-27 08:00,ZBYN 270800Z AUTO 18008KT 6SM 18/01 A3009 RMK T01800010 IEM_DS3505
ZBYN,1995-10-27 09:00,ZBYN 270900Z AUTO 18004KT 6SM 16/04 A3009 RMK SLP196 T01570039 57010 IEM_DS3505
ZBYN,1995-10-27 10:00,ZBYN 271000Z AUTO 08004KT 4SM 12/06 A3009 RMK T01200060 IEM_DS3505
ZBYN,1995-10-27 11:00,ZBYN 271100Z AUTO 04006KT 4SM 10/05 A3012 RMK T01000050 IEM_DS3505
ZBYN,1995-10-27 12:00,ZBYN 271200Z AUTO 14004KT 6SM 10/04 A3012 RMK SLP214 T01000042 52005 IEM_DS3505
ZBYN,1995-10-27 13:00,ZBYN 271300Z AUTO 27006KT 2 1/2SM 08/04 A3015 RMK T00800040 IEM_DS3505
ZBYN,1995-10-27 14:00,ZBYN 271400Z AUTO 05006KT 2 1/2SM 07/03 A3015 RMK T00700030 IEM_DS3505
ZBYN,1995-10-27 15:00,ZBYN 271500Z AUTO 09002KT 5SM 07/04 A3015 RMK SLP218 T00660037 52012 IEM_DS3505
ZBYN,1995-10-27 16:00,ZBYN 271600Z AUTO 06006KT 2 1/2SM 07/03 A3015 RMK T00700030 IEM_DS3505
ZBYN,1995-10-27 18:00,ZBYN 271800Z AUTO 32002KT 5SM 05/03 A3015 RMK SLP214 T00470028 54000 IEM_DS3505
ZBYN,1995-10-27 19:00,ZBYN 271900Z AUTO 00000KT 2 1/2SM 06/03 A3015 RMK T00600030 IEM_DS3505
ZBYN,1995-10-27 20:00,ZBYN 272000Z AUTO 00000KT 2 1/2SM 05/02 A3012 RMK T00500020 IEM_DS3505
ZBYN,1995-10-27 21:00,ZBYN 272100Z AUTO 00000KT 5SM 04/03 A3015 RMK SLP210 T00370030 57008 IEM_DS3505
ZBYN,1995-10-27 22:00,ZBYN 272200Z AUTO 00000KT 3SM 04/02 A3015 RMK T00400020 IEM_DS3505
ZBYN,1995-10-27 23:00,ZBYN 272300Z AUTO 00000KT 2SM 03/02 A3015 RMK T00300020 IEM_DS3505
ZBYN,1995-10-28 00:00,ZBYN 280000Z AUTO 00000KT 1 1/4SM 02/02 A3015 RMK SLP228 T00220015 52005 IEM_DS3505
ZBYN,1995-10-28 01:00,ZBYN 280100Z AUTO 00000KT 1SM 05/04 A3015 RMK T00500040 IEM_DS3505
ZBYN,1995-10-28 02:00,ZBYN 280200Z AUTO 00000KT 1SM 09/05 A3015 RMK T00900050 IEM_DS3505
ZBYN,1995-10-28 03:00,ZBYN 280300Z AUTO 14004KT 3SM 11/04 A3015 RMK SLP217 T01140039 57001 IEM_DS3505
ZBYN,1995-10-28 04:00,ZBYN 280400Z AUTO 27006KT 1 1/2SM 15/06 A3012 RMK T01500060 IEM_DS3505
ZBYN,1995-10-28 05:00,ZBYN 280500Z AUTO 18004KT 2 1/2SM 16/06 A3006 RMK T01600060 IEM_DS3505
ZBYN,1995-10-28 06:00,ZBYN 280600Z AUTO 16006KT 4SM 16/05 A3003 RMK SLP158 T01610053 57049 IEM_DS3505
ZBYN,1995-10-28 07:00,ZBYN 280700Z AUTO 17008KT 2 1/2SM 18/05 A3003 RMK T01800050 IEM_DS3505
ZBYN,1995-10-28 08:00,ZBYN 280800Z AUTO 17010KT 2 1/2SM 17/05 A3003 RMK T01700050 IEM_DS3505
ZBYN,1995-10-28 09:00,ZBYN 280900Z AUTO 16004KT 4SM 16/07 A3000 RMK SLP176 T01550067 57007 IEM_DS3505
ZBYN,1995-10-28 10:00,ZBYN 281000Z AUTO 00000KT 2 1/2SM 13/07 A3003 RMK T01300070 IEM_DS3505
ZBYN,1995-10-28 11:00,ZBYN 281100Z AUTO 00000KT 1 1/4SM 10/07 A3006 RMK T01000070 IEM_DS3505
ZBYN,1995-10-28 12:00,ZBYN 281200Z AUTO 27004KT 6SM 12/04 A3006 RMK SLP199 T01210038 52013 IEM_DS3505
ZBYN,1995-10-28 13:00,ZBYN 281300Z AUTO 06008KT 1 1/2SM 07/05 A3009 RMK T00700050 IEM_DS3505
ZBYN,1995-10-28 14:00,ZBYN 281400Z AUTO 00000KT 1 1/2SM 07/04 A3012 RMK T00700040 IEM_DS3505
ZBYN,1995-10-28 15:00,ZBYN 281500Z AUTO 29010KT 6SM 13/M04 A3012 RMK SLP198 T01341039 52015 IEM_DS3505
ZBYN,1995-10-28 16:00,ZBYN 281600Z AUTO 27016KT 4SM 12/M05 A3015 RMK T01201050 IEM_DS3505
ZBYN,1995-10-28 17:00,ZBYN 281700Z AUTO 27014KT 4SM 10/M08 A3018 RMK T01001080 IEM_DS3505
ZBYN,1995-10-28 18:00,ZBYN 281800Z AUTO 29010KT 6SM 09/M10 A3018 RMK SLP220 T00891102 52021 IEM_DS3505
ZBYN,1995-10-28 20:00,ZBYN 282000Z AUTO 26008KT 7SM 07/M09 A3018 RMK T00701090 IEM_DS3505
ZBYN,1995-10-28 21:00,ZBYN 282100Z AUTO 32010KT 6SM 07/M13 A3018 RMK SLP226 T00681129 52001 IEM_DS3505
ZBYN,1995-10-28 22:00,ZBYN 282200Z AUTO 26012KT 7SM 07/M13 A3018 RMK T00701130 IEM_DS3505
ZBYN,1995-10-28 23:00,ZBYN 282300Z AUTO 26012KT 5SM 06/M12 A3018 RMK T00601120 IEM_DS3505
ZBYN,1995-10-29 00:00,ZBYN 290000Z AUTO 29010KT 6SM 06/M12 A3021 RMK SLP242 T00611121 52008 IEM_DS3505
ZBYN,1995-10-29 01:00,ZBYN 290100Z AUTO 25012KT 7SM 08/M16 A3024 RMK T00801160 IEM_DS3505
ZBYN,1995-10-29 02:00,ZBYN 290200Z AUTO 27014KT 7SM 10/M14 A3024 RMK T01001140 IEM_DS3505
ZBYN,1995-10-29 03:00,ZBYN 290300Z AUTO 27010KT 9SM 12/M12 A3021 RMK SLP231 T01191115 52001 IEM_DS3505
ZBYN,1995-10-29 04:00,ZBYN 290400Z AUTO 17012KT 5SM 12/M08 A3018 RMK T01201080 IEM_DS3505
ZBYN,1995-10-29 05:00,ZBYN 290500Z AUTO 18008KT 7SM 13/M08 A3015 RMK T01301080 IEM_DS3505
ZBYN,1995-10-29 06:00,ZBYN 290600Z AUTO 00000KT 9SM 14/M07 A3012 RMK SLP201 T01451070 57030 IEM_DS3505
ZBYN,1995-10-29 07:00,ZBYN 290700Z AUTO 24006KT 7SM 15/M10 A3009 RMK T01501100 IEM_DS3505
ZBYN,1995-10-29 08:00,ZBYN 290800Z AUTO 27019KT 7SM 15/M15 A3009 RMK T01501150 IEM_DS3505
ZBYN,1995-10-29 09:00,ZBYN 290900Z AUTO 32006KT 12SM 12/M10 A3009 RMK SLP205 T01251098 57003 IEM_DS3505
ZBYN,1995-10-29 10:00,ZBYN 291000Z AUTO 35004KT 7SM 11/M05 A3009 RMK T01101050 IEM_DS3505
ZBYN,1995-10-29 11:00,ZBYN 291100Z AUTO 18004KT 7SM 09/M05 A3012 RMK T00901050 IEM_DS3505
ZBYN,1995-10-29 12:00,ZBYN 291200Z AUTO 16004KT 9SM 08/M05 A3012 RMK SLP213 T00771046 57001 IEM_DS3505
ZBYN,1995-10-29 13:00,ZBYN 291300Z AUTO 22008KT 7SM 08/M07 A3012 RMK T00801070 IEM_DS3505
ZBYN,1995-10-29 14:00,ZBYN 291400Z AUTO 24004KT 7SM 06/M04 A3012 RMK T00601040 IEM_DS3505
ZBYN,1995-10-29 15:00,ZBYN 291500Z AUTO 14004KT 9SM 03/M04 A3009 RMK SLP209 T00341040 57001 IEM_DS3505
ZBYN,1995-10-29 16:00,ZBYN 291600Z AUTO 00000KT 7SM 02/M03 A3009 RMK T00201030 IEM_DS3505
ZBYN,1995-10-29 18:00,ZBYN 291800Z AUTO 18004KT 9SM 01/M04 A3006 RMK SLP202 T00061035 57007 IEM_DS3505
ZBYN,1995-10-29 19:00,ZBYN 291900Z AUTO 05010KT 7SM 01/M04 A3006 RMK T00101040 IEM_DS3505
ZBYN,1995-10-29 20:00,ZBYN 292000Z AUTO 05008KT 7SM 01/M04 A3006 RMK T00101040 IEM_DS3505
ZBYN,1995-10-29 21:00,ZBYN 292100Z AUTO 18004KT 6SM 00/M05 A3006 RMK SLP197 T00011048 57008 IEM_DS3505
ZBYN,1995-10-29 22:00,ZBYN 292200Z AUTO 00000KT 7SM 00/M05 A3006 RMK T00001050 IEM_DS3505
ZBYN,1995-10-29 23:00,ZBYN 292300Z AUTO 06006KT 5SM M01/M05 A3006 RMK T10101050 IEM_DS3505
ZBYN,1995-10-30 00:00,ZBYN 300000Z AUTO 18004KT 6SM 00/M04 A3006 RMK SLP210 T00031042 52004 IEM_DS3505
ZBYN,1995-10-30 01:00,ZBYN 300100Z AUTO 00000KT 5SM 05/M04 A3009 RMK T00501040 IEM_DS3505
ZBYN,1995-10-30 02:00,ZBYN 300200Z AUTO 27023G39KT 7SM 10/M06 A3009 RMK T01001060 IEM_DS3505
ZBYN,1995-10-30 03:00,ZBYN 300300Z AUTO 29016KT 6SM 10/M14 A3009 RMK SLP211 T01021144 52010 IEM_DS3505
ZBYN,1995-10-30 04:00,ZBYN 300400Z AUTO 27019KT 7SM 11/M15 A3012 RMK T01101150 IEM_DS3505
ZBYN,1995-10-30 05:00,ZBYN 300500Z AUTO 27025KT 7SM 11/M17 A3009 RMK T01101170 IEM_DS3505
ZBYN,1995-10-30 06:00,ZBYN 300600Z AUTO 29016KT 6SM 10/M16 A3006 RMK SLP203 T01011164 4////1014 57012 IEM_DS3505
ZBYN,1995-10-30 07:00,ZBYN 300700Z AUTO 28025KT 7SM 10/M18 A3006 RMK T01001180 IEM_DS3505
ZBYN,1995-10-30 08:00,ZBYN 300800Z AUTO 28021KT 7SM 10/M16 A3009 RMK T01001160 IEM_DS3505
ZBYN,1995-10-30 09:00,ZBYN 300900Z AUTO 32010KT 6SM 08/M14 A3009 RMK SLP213 T00851144 52006 IEM_DS3505
ZBYN,1995-10-30 10:00,ZBYN 301000Z AUTO 28016KT 7SM 08/M14 A3009 RMK T00801140 IEM_DS3505
ZBYN,1995-10-30 11:00,ZBYN 301100Z AUTO 27010KT 7SM 07/M14 A3012 RMK T00701140 IEM_DS3505
ZBYN,1995-10-30 12:00,ZBYN 301200Z AUTO 32016KT 6SM 06/M17 A3015 RMK SLP240 T00651167 52022 IEM_DS3505
ZBYN,1995-10-30 13:00,ZBYN 301300Z AUTO 27016KT 7SM 06/M14 A3018 RMK T00601140 IEM_DS3505
ZBYN,1995-10-30 14:00,ZBYN 301400Z AUTO 27012KT 7SM 05/M14 A3021 RMK T00501140 IEM_DS3505
ZBYN,1995-10-30 15:00,ZBYN 301500Z AUTO 29006KT 6SM 04/M14 A3021 RMK SLP245 T00431139 52016 IEM_DS3505
ZBYN,1995-10-30 16:00,ZBYN 301600Z AUTO 27012KT 7SM 04/M14 A3021 RMK T00401140 IEM_DS3505
ZBYN,1995-10-30 17:00,ZBYN 301700Z AUTO 24006KT 7SM 03/M14 A3021 RMK T00301140 IEM_DS3505
ZBYN,1995-10-30 18:00,ZBYN 301800Z AUTO 29008KT 6SM 03/M15 A3021 RMK SLP245 T00271150 57002 IEM_DS3505
ZBYN,1995-10-30 19:00,ZBYN 301900Z AUTO 02010KT 7SM 02/M14 A3021 RMK T00201140 IEM_DS3505
ZBYN,1995-10-30 20:00,ZBYN 302000Z AUTO 22010KT 7SM 02/M15 A3018 RMK T00201150 IEM_DS3505
ZBYN,1995-10-30 21:00,ZBYN 302100Z AUTO 29008KT 6SM 01/M14 A3018 RMK SLP248 T00121144 57002 IEM_DS3505
ZBYN,1995-10-30 22:00,ZBYN 302200Z AUTO 22010KT 7SM 01/M16 A3018 RMK T00101160 IEM_DS3505
ZBYN,1995-10-30 23:00,ZBYN 302300Z AUTO 21012KT 7SM 00/M16 A3021 RMK T00001160 IEM_DS3505
ZBYN,1995-10-31 00:00,ZBYN 310000Z AUTO 22012KT 7SM 02/M16 A3021 RMK T00201160 IEM_DS3505
ZBYN,1995-10-31 01:00,ZBYN 310100Z AUTO 22010KT 7SM 05/M10 A3024 RMK T00501100 IEM_DS3505
ZBYN,1995-10-31 02:00,ZBYN 310200Z AUTO 25016KT 7SM 07/M12 A3024 RMK T00701120 IEM_DS3505
ZBYN,1995-10-31 03:00,ZBYN 310300Z AUTO 29017KT 12SM 08/M20 A3021 RMK SLP251 T00771201 57003 IEM_DS3505
ZBYN,1995-10-31 04:00,ZBYN 310400Z AUTO 29021KT 7SM 10/M16 A3018 RMK T01001160 IEM_DS3505
ZBYN,1995-10-31 05:00,ZBYN 310500Z AUTO 31016KT 7SM 11/M17 A3015 RMK T01101170 IEM_DS3505
ZBYN,1995-10-31 06:00,ZBYN 310600Z AUTO 27016KT 12SM 11/M18 A3012 RMK SLP230 T01081185 57017 IEM_DS3505
ZBYN,1995-10-31 07:00,ZBYN 310700Z AUTO 32012KT 7SM 12/M15 A3012 RMK T01201150 IEM_DS3505
ZBYN,1995-10-31 11:00,ZBYN 311100Z AUTO 36008KT 7SM 07/M11 A3021 RMK T00701110 IEM_DS3505
ZBYN,1995-10-31 12:00,ZBYN 311200Z AUTO 29004KT 9SM 05/M10 A3024 RMK SLP260 T00511103 52022 IEM_DS3505
ZBYN,1995-10-31 13:00,ZBYN 311300Z AUTO 28004KT 7SM 01/M08 A3024 RMK T00101080 IEM_DS3505
ZBYN,1995-10-31 14:00,ZBYN 311400Z AUTO 28004KT 7SM 00/M08 A3027 RMK T00001080 IEM_DS3505
ZBYN,1995-10-31 15:00,ZBYN 311500Z AUTO 29002KT 9SM 01/M07 A3027 RMK SLP272 T00071074 52011 IEM_DS3505
ZBYN,1995-10-31 16:00,ZBYN 311600Z AUTO 30004KT 7SM M01/M08 A3027 RMK T10101080 IEM_DS3505
ZBYN,1995-10-31 17:00,ZBYN 311700Z AUTO 30004KT 7SM M02/M06 A3027 RMK T10201060 IEM_DS3505
ZBYN,1995-10-31 18:00,ZBYN 311800Z AUTO 36002KT 7SM M01/M07 A3027 RMK SLP275 T10141072 52005 IEM_DS3505
ZBYN,1995-10-31 19:00,ZBYN 311900Z AUTO 00000KT 7SM M02/M07 A3027 RMK T10201070 IEM_DS3505
ZBYN,1995-10-31 21:00,ZBYN 312100Z AUTO 36004KT 7SM M02/M06 A3027 RMK SLP280 T10201060 52001 IEM_DS3505
ZBYN,1995-10-31 22:00,ZBYN 312200Z AUTO 28004KT 7SM M05/M09 A3030 RMK T10501090 IEM_DS3505
ZBYN,1995-10-31 23:00,ZBYN 312300Z AUTO 00000KT 7SM M05/M09 A3030 RMK T10501090 IEM_DS3505
ZBYN,1995-11-01 00:00,ZBYN 010000Z AUTO 16002KT 9SM M03/M05 A3033 RMK SLP299 T10261049 52009 IEM_DS3505
ZBYN,1995-11-01 01:00,ZBYN 010100Z AUTO 13004KT 7SM M01/M09 A3033 RMK T10101090 IEM_DS3505
ZBYN,1995-11-01 02:00,ZBYN 010200Z AUTO 12004KT 7SM 03/M09 A3033 RMK T00301090 IEM_DS3505
ZBYN,1995-11-01 03:00,ZBYN 010300Z AUTO 14004KT 7SM 06/M12 A3033 RMK SLP293 T00601118 52002 IEM_DS3505
ZBYN,1995-11-01 04:00,ZBYN 010400Z AUTO 03004KT 7SM 07/M09 A3030 RMK T00701090 IEM_DS3505
ZBYN,1995-11-01 05:00,ZBYN 010500Z AUTO 02008KT 7SM 09/M09 A3027 RMK T00901090 IEM_DS3505
ZBYN,1995-11-01 06:00,ZBYN 010600Z AUTO 20004KT 6SM 10/M11 A3024 RMK SLP264 T00971106 57024 IEM_DS3505
ZBYN,1995-11-01 07:00,ZBYN 010700Z AUTO 09006KT 7SM 11/M10 A3024 RMK T01101100 IEM_DS3505
ZBYN,1995-11-01 08:00,ZBYN 010800Z AUTO 00000KT 7SM 11/M08 A3021 RMK T01101080 IEM_DS3505
ZBYN,1995-11-01 09:00,ZBYN 010900Z AUTO 02002KT 6SM 10/M07 A3021 RMK SLP259 T00991074 57005 IEM_DS3505
ZBYN,1995-11-01 10:00,ZBYN 011000Z AUTO 29006KT 7SM 07/M10 A3024 RMK T00701100 IEM_DS3505
ZBYN,1995-11-01 11:00,ZBYN 011100Z AUTO 31004KT 7SM 06/M10 A3027 RMK T00601100 IEM_DS3505
ZBYN,1995-11-01 12:00,ZBYN 011200Z AUTO 32006KT 6SM 03/M07 A3027 RMK SLP292 T00341071 52018 IEM_DS3505
ZBYN,1995-11-01 13:00,ZBYN 011300Z AUTO 00000KT 5SM 03/M06 A3033 RMK T00301060 IEM_DS3505
ZBYN,1995-11-01 14:00,ZBYN 011400Z AUTO 35006KT 5SM 05/M09 A3033 RMK T00501090 IEM_DS3505
ZBYN,1995-11-01 15:00,ZBYN 011500Z AUTO 36004KT 6SM 04/M08 A3033 RMK SLP294 T00371080 52016 IEM_DS3505
ZBYN,1995-11-01 16:00,ZBYN 011600Z AUTO 29004KT 7SM 01/M07 A3036 RMK T00101070 IEM_DS3505
ZBYN,1995-11-01 17:00,ZBYN 011700Z AUTO 25004KT 7SM M01/M06 A3036 RMK T10101060 IEM_DS3505
ZBYN,1995-11-01 18:00,ZBYN 011800Z AUTO 00000KT 6SM M01/M06 A3036 RMK SLP306 T10121065 52009 IEM_DS3505
ZBYN,1995-11-01 19:00,ZBYN 011900Z AUTO 26004KT 7SM M03/M07 A3036 RMK T10301070 IEM_DS3505
ZBYN,1995-11-01 20:00,ZBYN 012000Z AUTO 26004KT 7SM M03/M07 A3036 RMK T10301070 IEM_DS3505
ZBYN,1995-11-01 21:00,ZBYN 012100Z AUTO 20002KT 9SM M03/M06 A3036 RMK SLP308 T10281056 54000 IEM_DS3505
ZBYN,1995-11-01 22:00,ZBYN 012200Z AUTO 26004KT 7SM M03/M07 A3036 RMK T10301070 IEM_DS3505
ZBYN,1995-11-01 23:00,ZBYN 012300Z AUTO 00000KT 4SM M04/M07 A3036 RMK T10401070 IEM_DS3505
ZBYN,1995-11-02 00:00,ZBYN 020000Z AUTO 14002KT 5SM M03/M06 A3036 RMK SLP319 T10331058 57001 IEM_DS3505
ZBYN,1995-11-02 01:00,ZBYN 020100Z AUTO 00000KT 3SM 00/M06 A3036 RMK T00001060 IEM_DS3505
ZBYN,1995-11-02 02:00,ZBYN 020200Z AUTO 00000KT 5SM 04/M08 A3036 RMK T00401080 IEM_DS3505
ZBYN,1995-11-02 03:00,ZBYN 020300Z AUTO 18004KT 5SM 08/M07 A3033 RMK SLP296 T00791068 57003 IEM_DS3505
ZBYN,1995-11-02 04:00,ZBYN 020400Z AUTO 11006KT 7SM 10/M04 A3030 RMK T01001040 IEM_DS3505
ZBYN,1995-11-02 05:00,ZBYN 020500Z AUTO 09008KT 7SM 11/M08 A3027 RMK T01101080 IEM_DS3505
ZBYN,1995-11-02 06:00,ZBYN 020600Z AUTO 16008KT 5SM 12/M07 A3024 RMK SLP264 T01191071 57030 IEM_DS3505
ZBYN,1995-11-02 07:00,ZBYN 020700Z AUTO 20004KT 7SM 13/M06 A3021 RMK T01301060 IEM_DS3505
ZBYN,1995-11-02 08:00,ZBYN 020800Z AUTO 20006KT 7SM 14/M02 A3021 RMK T01401020 IEM_DS3505
ZBYN,1995-11-02 09:00,ZBYN 020900Z AUTO 14006KT 5SM 10/M04 A3018 RMK SLP250 T01051045 57018 IEM_DS3505
ZBYN,1995-11-02 11:00,ZBYN 021100Z AUTO 00000KT 4SM 04/M02 A3021 RMK T00401020 IEM_DS3505
ZBYN,1995-11-02 12:00,ZBYN 021200Z AUTO 00000KT 2 1/2SM 04/M02 A3024 RMK T00401020 IEM_DS3505
ZBYN,1995-11-02 13:00,ZBYN 021300Z AUTO 00000KT 2 1/2SM 02/M02 A3024 RMK T00201020 IEM_DS3505
ZBYN,1995-11-02 14:00,ZBYN 021400Z AUTO 09006KT 2 1/2SM 02/M04 A3027 RMK T00201040 IEM_DS3505
ZBYN,1995-11-02 15:00,ZBYN 021500Z AUTO 14004KT 6SM 02/M05 A3027 RMK SLP276 T00161054 52016 IEM_DS3505
ZBYN,1995-11-02 17:00,ZBYN 021700Z AUTO 00000KT 2 1/2SM 00/M05 A3024 RMK T00001050 IEM_DS3505
ZBYN,1995-11-02 18:00,ZBYN 021800Z AUTO 14002KT 6SM M01/M05 A3027 RMK SLP277 T10111048 52003 IEM_DS3505
ZBYN,1995-11-02 20:00,ZBYN 022000Z AUTO 00000KT 2 1/2SM M02/M05 A3027 RMK T10201050 IEM_DS3505
ZBYN,1995-11-02 21:00,ZBYN 022100Z AUTO 00000KT 6SM M02/M04 A3027 RMK SLP271 T10151039 57009 IEM_DS3505
ZBYN,1995-11-02 22:00,ZBYN 022200Z AUTO 00000KT 2 1/2SM M02/M05 A3027 RMK T10201050 IEM_DS3505
ZBYN,1995-11-02 23:00,ZBYN 022300Z AUTO 00000KT 3SM M03/M05 A3027 RMK T10301050 IEM_DS3505
ZBYN,1995-11-03 00:00,ZBYN 030000Z AUTO 00000KT 5SM M03/M04 A3030 RMK SLP292 T10281038 52010 IEM_DS3505
ZBYN,1995-11-03 01:00,ZBYN 030100Z AUTO 00000KT 5SM 01/M05 A3030 RMK T00101050 IEM_DS3505
ZBYN,1995-11-03 02:00,ZBYN 030200Z AUTO 00000KT 4SM 06/M02 A3030 RMK T00601020 IEM_DS3505
ZBYN,1995-11-03 03:00,ZBYN 030300Z AUTO 16004KT 5SM 08/M04 A3027 RMK SLP276 T00851041 57003 IEM_DS3505
ZBYN,1995-11-03 04:00,ZBYN 030400Z AUTO 18008KT 7SM 12/M02 A3024 RMK T01201020 IEM_DS3505
ZBYN,1995-11-03 05:00,ZBYN 030500Z AUTO 17006KT 7SM 14/M03 A3018 RMK T01401030 IEM_DS3505
ZBYN,1995-11-03 06:00,ZBYN 030600Z AUTO 18012KT 7SM 14/M06 A3015 RMK SLP232 T01451060 57035 IEM_DS3505
ZBYN,1995-11-03 07:00,ZBYN 030700Z AUTO 15012KT 7SM 16/M04 A3015 RMK T01601040 IEM_DS3505
ZBYN,1995-11-03 08:00,ZBYN 030800Z AUTO 13008KT 7SM 16/M04 A3012 RMK T01601040 IEM_DS3505
ZBYN,1995-11-03 09:00,ZBYN 030900Z AUTO 16006KT 7SM 13/M04 A3012 RMK SLP222 T01291041 57012 IEM_DS3505
ZBYN,1995-11-03 10:00,ZBYN 031000Z AUTO 00000KT 7SM 10/M01 A3012 RMK T01001010 IEM_DS3505
ZBYN,1995-11-03 11:00,ZBYN 031100Z AUTO 00000KT 5SM 07/M01 A3015 RMK T00701010 IEM_DS3505
ZBYN,1995-11-03 12:00,ZBYN 031200Z AUTO 02004KT 7SM 07/M02 A3015 RMK SLP242 T00661023 52006 IEM_DS3505
ZBYN,1995-11-03 13:00,ZBYN 031300Z AUTO 00000KT 5SM 04/00 A3018 RMK T00400000 IEM_DS3505
ZBYN,1995-11-03 14:00,ZBYN 031400Z AUTO 09004KT 5SM 03/00 A3018 RMK T00300000 IEM_DS3505
ZBYN,1995-11-03 15:00,ZBYN 031500Z AUTO 11004KT 6SM 02/M03 A3021 RMK SLP244 T00241033 52013 IEM_DS3505
ZBYN,1995-11-03 16:00,ZBYN 031600Z AUTO 00000KT 5SM 01/M05 A3018 RMK T00101050 IEM_DS3505
ZBYN,1995-11-03 17:00,ZBYN 031700Z AUTO 09006KT 4SM 01/M05 A3018 RMK T00101050 IEM_DS3505
ZBYN,1995-11-03 18:00,ZBYN 031800Z AUTO 22004KT 6SM 00/M04 A3021 RMK SLP240 T00001035 52002 IEM_DS3505
ZBYN,1995-11-03 19:00,ZBYN 031900Z AUTO 00000KT 4SM 01/M05 A3021 RMK T00101050 IEM_DS3505
ZBYN,1995-11-03 20:00,ZBYN 032000Z AUTO 00000KT 4SM 00/M04 A3018 RMK T00001040 IEM_DS3505
ZBYN,1995-11-03 21:00,ZBYN 032100Z AUTO 00000KT 6SM M01/M03 A3018 RMK SLP244 T10121027 57001 IEM_DS3505
ZBYN,1995-11-03 22:00,ZBYN 032200Z AUTO 00000KT 3SM M01/M04 A3021 RMK T10101040 IEM_DS3505
ZBYN,1995-11-03 23:00,ZBYN 032300Z AUTO 00000KT 2SM M01/M04 A3021 RMK T10101040 IEM_DS3505
ZBYN,1995-11-04 00:00,ZBYN 040000Z AUTO 00000KT 3SM M02/M03 A3024 RMK SLP267 T10231029 52009 IEM_DS3505
ZBYN,1995-11-04 01:00,ZBYN 040100Z AUTO 00000KT 3SM 01/M03 A3027 RMK T00101030 IEM_DS3505
ZBYN,1995-11-04 02:00,ZBYN 040200Z AUTO 14004KT 3SM 07/M02 A3027 RMK T00701020 IEM_DS3505
ZBYN,1995-11-04 03:00,ZBYN 040300Z AUTO 14004KT 6SM 10/M02 A3024 RMK SLP262 T01021024 52009 IEM_DS3505
ZBYN,1995-11-04 04:00,ZBYN 040400Z AUTO 17006KT 5SM 13/M03 A3021 RMK T01301030 IEM_DS3505
ZBYN,1995-11-04 05:00,ZBYN 040500Z AUTO 20008KT 5SM 15/M04 A3018 RMK T01501040 IEM_DS3505
ZBYN,1995-11-04 06:00,ZBYN 040600Z AUTO 18010KT 6SM 16/M02 A3015 RMK SLP224 T01611019 57029 IEM_DS3505
ZBYN,1995-11-04 07:00,ZBYN 040700Z AUTO 17006KT 7SM 18/M05 A3012 RMK T01801050 IEM_DS3505
ZBYN,1995-11-04 08:00,ZBYN 040800Z AUTO 17006KT 7SM 18/M03 A3012 RMK T01801030 IEM_DS3505
ZBYN,1995-11-04 09:00,ZBYN 040900Z AUTO 25010KT 11SM 16/M02 A3012 RMK SLP217 T01611023 57008 IEM_DS3505
ZBYN,1995-11-04 10:00,ZBYN 041000Z AUTO 08006KT 7SM 13/M03 A3012 RMK T01301030 IEM_DS3505
ZBYN,1995-11-04 11:00,ZBYN 041100Z AUTO 07004KT 7SM 12/M03 A3015 RMK T01201030 IEM_DS3505
ZBYN,1995-11-04 12:00,ZBYN 041200Z AUTO 11004KT 11SM 08/03 A3018 RMK SLP246 T00810029 52012 IEM_DS3505
ZBYN,1995-11-04 13:00,ZBYN 041300Z AUTO 27008KT 7SM 05/M02 A3018 RMK T00501020 IEM_DS3505
ZBYN,1995-11-04 14:00,ZBYN 041400Z AUTO 29006KT 7SM 05/M03 A3021 RMK T00501030 IEM_DS3505
ZBYN,1995-11-04 15:00,ZBYN 041500Z AUTO 14004KT 9SM 05/M05 A3021 RMK SLP239 T00501046 52012 IEM_DS3505
ZBYN,1995-11-04 16:00,ZBYN 041600Z AUTO 27006KT 6SM 02/M02 A3021 RMK T00201020 IEM_DS3505
ZBYN,1995-11-04 17:00,ZBYN 041700Z AUTO 28008KT 6SM 02/M03 A3021 RMK T00201030 IEM_DS3505
ZBYN,1995-11-04 18:00,ZBYN 041800Z AUTO 20002KT 9SM 02/M03 A3021 RMK SLP239 T00221028 52005 IEM_DS3505
ZBYN,1995-11-04 19:00,ZBYN 041900Z AUTO 27008KT 6SM 01/M04 A3021 RMK T00101040 IEM_DS3505
ZBYN,1995-11-04 20:00,ZBYN 042000Z AUTO 29008KT 6SM 01/M04 A3021 RMK T00101040 IEM_DS3505
ZBYN,1995-11-04 21:00,ZBYN 042100Z AUTO 00000KT 9SM 00/M03 A3021 RMK SLP247 T00021033 52004 IEM_DS3505
ZBYN,1995-11-04 22:00,ZBYN 042200Z AUTO 00000KT 7SM 00/M04 A3024 RMK T00001040 IEM_DS3505
ZBYN,1995-11-04 23:00,ZBYN 042300Z AUTO 28004KT 4SM 00/M04 A3024 RMK T00001040 IEM_DS3505
ZBYN,1995-11-05 00:00,ZBYN 050000Z AUTO 00000KT 6SM 00/M02 A3027 RMK SLP268 T00011025 52006 IEM_DS3505
ZBYN,1995-11-05 01:00,ZBYN 050100Z AUTO 25004KT 2SM 06/00 A3027 RMK T00600000 IEM_DS3505
ZBYN,1995-11-05 02:00,ZBYN 050200Z AUTO 00000KT 2SM 10/M02 A3027 RMK T01001020 IEM_DS3505
ZBYN,1995-11-05 03:00,ZBYN 050300Z AUTO 16004KT 6SM 13/M03 A3024 RMK SLP251 T01261031 54000 IEM_DS3505
ZBYN,1995-11-05 04:00,ZBYN 050400Z AUTO 17008KT 4SM 15/M02 A3021 RMK T01501020 IEM_DS3505
ZBYN,1995-11-05 05:00,ZBYN 050500Z AUTO 13010KT 4SM 15/M02 A3015 RMK T01501020 IEM_DS3505
ZBYN,1995-11-05 06:00,ZBYN 050600Z AUTO 20010KT 6SM 17/M04 A3012 RMK SLP213 T01701041 57032 IEM_DS3505
ZBYN,1995-11-05 07:00,ZBYN 050700Z AUTO 15010KT 6SM 18/M06 A3012 RMK T01801060 IEM_DS3505
ZBYN,1995-11-05 08:00,ZBYN 050800Z AUTO 15006KT 6SM 17/M01 A3012 RMK T01701010 IEM_DS3505
ZBYN,1995-11-05 09:00,ZBYN 050900Z AUTO 18006KT 6SM 15/M04 A3012 RMK SLP217 T01471042 57003 IEM_DS3505
ZBYN,1995-11-05 10:00,ZBYN 051000Z AUTO 27004KT 6SM 12/00 A3009 RMK T01200000 IEM_DS3505
ZBYN,1995-11-05 11:00,ZBYN 051100Z AUTO 28006KT 4SM 08/01 A3012 RMK T00800010 IEM_DS3505
ZBYN,1995-11-05 12:00,ZBYN 051200Z AUTO 00000KT 5SM 08/03 A3012 RMK SLP228 T00790027 57001 IEM_DS3505
ZBYN,1995-11-05 13:00,ZBYN 051300Z AUTO 29006KT 7SM 06/M01 A3015 RMK T00601010 IEM_DS3505
ZBYN,1995-11-05 14:00,ZBYN 051400Z AUTO 28008KT 7SM 05/M01 A3015 RMK T00501010 IEM_DS3505
ZBYN,1995-11-05 15:00,ZBYN 051500Z AUTO 00000KT 6SM 05/00 A3015 RMK SLP218 T00480003 52005 IEM_DS3505
ZBYN,1995-11-05 16:00,ZBYN 051600Z AUTO 27006KT 7SM 04/M01 A3015 RMK T00401010 IEM_DS3505
ZBYN,1995-11-05 17:00,ZBYN 051700Z AUTO 27004KT 7SM 04/M01 A3015 RMK T00401010 IEM_DS3505
ZBYN,1995-11-05 18:00,ZBYN 051800Z AUTO 00000KT 6SM 03/M02 A3012 RMK SLP210 T00261017 57004 IEM_DS3505
ZBYN,1995-11-05 19:00,ZBYN 051900Z AUTO 30004KT 7SM 03/M02 A3009 RMK T00301020 IEM_DS3505
ZBYN,1995-11-05 20:00,ZBYN 052000Z AUTO 00000KT 7SM 02/M02 A3009 RMK T00201020 IEM_DS3505
ZBYN,1995-11-05 21:00,ZBYN 052100Z AUTO 32004KT 6SM 02/M02 A3012 RMK SLP207 T00251015 57006 IEM_DS3505
ZBYN,1995-11-05 22:00,ZBYN 052200Z AUTO 00000KT 5SM 01/M03 A3012 RMK T00101030 IEM_DS3505
ZBYN,1995-11-05 23:00,ZBYN 052300Z AUTO 03004KT 1 1/4SM 03/M02 A3012 RMK T00301020 IEM_DS3505
ZBYN,1995-11-06 00:00,ZBYN 060000Z AUTO 32004KT 4SM 02/M02 A3015 RMK SLP227 T00201021 52007 IEM_DS3505
ZBYN,1995-11-06 01:00,ZBYN 060100Z AUTO 00000KT 2SM 03/00 A3015 RMK T00300000 IEM_DS3505
ZBYN,1995-11-06 02:00,ZBYN 060200Z AUTO 26004KT 2 1/2SM 10/00 A3012 RMK T01000000 IEM_DS3505
ZBYN,1995-11-06 03:00,ZBYN 060300Z AUTO 16004KT 4SM 11/M02 A3009 RMK SLP207 T01111019 57009 IEM_DS3505
ZBYN,1995-11-06 04:00,ZBYN 060400Z AUTO 19006KT 5SM 16/M01 A3006 RMK T01601010 IEM_DS3505
ZBYN,1995-11-06 05:00,ZBYN 060500Z AUTO 18006KT 6SM 17/M02 A3003 RMK T01701020 IEM_DS3505
ZBYN,1995-11-06 06:00,ZBYN 060600Z AUTO 20010KT 4SM 17/M05 A3000 RMK SLP162 T01671047 57036 IEM_DS3505
ZBYN,1995-11-06 07:00,ZBYN 060700Z AUTO 13010KT 5SM 17/M02 A2997 RMK T01701020 IEM_DS3505
ZBYN,1995-11-06 08:00,ZBYN 060800Z AUTO 23014KT 5SM 16/M03 A2997 RMK T01601030 IEM_DS3505
ZBYN,1995-11-06 09:00,ZBYN 060900Z AUTO 32012KT 9SM 17/M10 A2997 RMK SLP154 T01681096 57007 IEM_DS3505
ZBYN,1995-11-06 10:00,ZBYN 061000Z AUTO 34012KT 6SM 15/M06 A3000 RMK T01501060 IEM_DS3505
ZBYN,1995-11-06 11:00,ZBYN 061100Z AUTO 32010KT 6SM 14/M06 A3006 RMK T01401060 IEM_DS3505
ZBYN,1995-11-06 12:00,ZBYN 061200Z AUTO 32008KT 12SM 11/M06 A3012 RMK SLP210 T01081056 52041 IEM_DS3505
ZBYN,1995-11-06 13:00,ZBYN 061300Z AUTO 30008KT 7SM 10/M03 A3015 RMK T01001030 IEM_DS3505
ZBYN,1995-11-06 14:00,ZBYN 061400Z AUTO 32016KT 7SM 09/M05 A3021 RMK T00901050 IEM_DS3505
ZBYN,1995-11-06 15:00,ZBYN 061500Z AUTO 32010KT 12SM 07/M09 A3030 RMK SLP269 T00661093 52061 IEM_DS3505
ZBYN,1995-11-06 16:00,ZBYN 061600Z AUTO 32021KT 6SM 06/M08 A3036 RMK T00601080 IEM_DS3505
ZBYN,1995-11-06 17:00,ZBYN 061700Z AUTO 32019KT 6SM 03/M11 A3042 RMK T00301110 IEM_DS3505
ZBYN,1995-11-06 18:00,ZBYN 061800Z AUTO 32017KT 9SM 01/M15 A3045 RMK SLP322 T00131150 52049 IEM_DS3505
ZBYN,1995-11-06 19:00,ZBYN 061900Z AUTO 33023KT 7SM 01/M13 A3050 RMK T00101130 IEM_DS3505
ZBYN,1995-11-06 20:00,ZBYN 062000Z AUTO 33023KT 7SM 00/M13 A3053 RMK T00001130 IEM_DS3505
ZBYN,1995-11-06 21:00,ZBYN 062100Z AUTO 32017KT 9SM M02/M15 A3056 RMK SLP367 T10221150 52036 IEM_DS3505
ZBYN,1995-11-06 22:00,ZBYN 062200Z AUTO 33016KT 7SM M03/M21 A3056 RMK T10301210 IEM_DS3505
ZBYN,1995-11-06 23:00,ZBYN 062300Z AUTO 33016KT 7SM M04/M24 A3059 RMK T10401240 IEM_DS3505
ZBYN,1995-11-07 00:00,ZBYN 070000Z AUTO 32012KT 12SM M04/M23 A3059 RMK SLP392 T10351230 52011 IEM_DS3505
ZBYN,1995-11-07 01:00,ZBYN 070100Z AUTO 31016KT 7SM M02/M21 A3062 RMK T10201210 IEM_DS3505
ZBYN,1995-11-07 02:00,ZBYN 070200Z AUTO 30021KT 7SM M01/M15 A3059 RMK T10101150 IEM_DS3505
ZBYN,1995-11-07 03:00,ZBYN 070300Z AUTO 32014KT 12SM 00/M18 A3056 RMK SLP374 T00051183 57017 IEM_DS3505
ZBYN,1995-11-07 04:00,ZBYN 070400Z AUTO 31019KT 7SM 02/M13 A3053 RMK T00201130 IEM_DS3505
ZBYN,1995-11-07 05:00,ZBYN 070500Z AUTO 34019KT 7SM 04/ A3047 RMK IEM_DS3505
ZBYN,1995-11-07 06:00,ZBYN 070600Z AUTO 22008KT 12SM 05/M19 A3045 RMK SLP336 T00481192 57036 IEM_DS3505
ZBYN,1995-11-07 07:00,ZBYN 070700Z AUTO 26014KT 7SM 05/M12 A3042 RMK T00501120 IEM_DS3505
ZBYN,1995-11-07 08:00,ZBYN 070800Z AUTO 26016KT 7SM 05/M11 A3039 RMK T00501110 IEM_DS3505
ZBYN,1995-11-07 09:00,ZBYN 070900Z AUTO 22006KT 12SM 05/ A3036 RMK SLP319 57021 IEM_DS3505
ZBYN,1995-11-07 10:00,ZBYN 071000Z AUTO 27010KT 7SM 03/M13 A3036 RMK T00301130 IEM_DS3505
ZBYN,1995-11-07 11:00,ZBYN 071100Z AUTO 00000KT 7SM 01/M14 A3036 RMK T00101140 IEM_DS3505
ZBYN,1995-11-07 12:00,ZBYN 071200Z AUTO 32006KT 12SM 02/M09 A3036 RMK SLP329 T00201093 52002 IEM_DS3505
ZBYN,1995-11-07 13:00,ZBYN 071300Z AUTO 31010KT 7SM M01/M18 A3036 RMK T10101180 IEM_DS3505
ZBYN,1995-11-07 14:00,ZBYN 071400Z AUTO 31006KT 7SM M02/M14 A3036 RMK T10201140 IEM_DS3505
ZBYN,1995-11-07 15:00,ZBYN 071500Z AUTO 31004KT 7SM M03/M13 A3036 RMK T10301130 IEM_DS3505
ZBYN,1995-11-07 16:00,ZBYN 071600Z AUTO 05004KT 7SM M04/M13 A3036 RMK T10401130 IEM_DS3505
ZBYN,1995-11-07 17:00,ZBYN 071700Z AUTO 06004KT 7SM M04/M13 A3033 RMK T10401130 IEM_DS3505
ZBYN,1995-11-07 18:00,ZBYN 071800Z AUTO 07004KT 7SM M05/M12 A3033 RMK T10501120 IEM_DS3505
ZBYN,1995-11-07 19:00,ZBYN 071900Z AUTO 07004KT 7SM M06/M12 A3030 RMK T10601120 IEM_DS3505
ZBYN,1995-11-07 20:00,ZBYN 072000Z AUTO 06004KT 7SM M06/M11 A3030 RMK T10601110 IEM_DS3505
ZBYN,1995-11-07 21:00,ZBYN 072100Z AUTO 16004KT 6SM M06/M12 A3027 RMK SLP294 T10551124 57015 IEM_DS3505
ZBYN,1995-11-07 22:00,ZBYN 072200Z AUTO 00000KT 7SM M06/M12 A3027 RMK T10601120 IEM_DS3505
ZBYN,1995-11-07 23:00,ZBYN 072300Z AUTO 07004KT 7SM M06/M12 A3027 RMK T10601120 IEM_DS3505
ZBYN,1995-11-08 00:00,ZBYN 080000Z AUTO 00000KT 6SM M05/M11 A3027 RMK SLP299 T10471106 52001 IEM_DS3505
ZBYN,1995-11-08 01:00,ZBYN 080100Z AUTO 00000KT 7SM M02/M10 A3030 RMK T10201100 IEM_DS3505
ZBYN,1995-11-08 02:00,ZBYN 080200Z AUTO 00000KT 7SM 04/M15 A3030 RMK T00401150 IEM_DS3505
ZBYN,1995-11-08 03:00,ZBYN 080300Z AUTO 16004KT 6SM 05/M14 A3027 RMK SLP285 T00521145 57003 IEM_DS3505
ZBYN,1995-11-08 06:00,ZBYN 080600Z AUTO 18006KT 6SM 10/M14 A3015 RMK SLP244 T01021137 57033 IEM_DS3505
ZBYN,1995-11-08 07:00,ZBYN 080700Z AUTO 26006KT 7SM 13/M09 A3015 RMK T01301090 IEM_DS3505
ZBYN,1995-11-08 08:00,ZBYN 080800Z AUTO 23006KT 7SM 13/M09 A3012 RMK T01301090 IEM_DS3505
ZBYN,1995-11-08 09:00,ZBYN 080900Z AUTO 14006KT 6SM 10/M10 A3012 RMK SLP235 T01021099 57010 IEM_DS3505
ZBYN,1995-11-08 10:00,ZBYN 081000Z AUTO 12006KT 7SM 07/M04 A3012 RMK T00701040 IEM_DS3505
ZBYN,1995-11-08 11:00,ZBYN 081100Z AUTO 00000KT 7SM 03/M05 A3015 RMK T00301050 IEM_DS3505
ZBYN,1995-11-08 12:00,ZBYN 081200Z AUTO 00000KT 6SM 05/M08 A3015 RMK SLP247 T00501079 52004 IEM_DS3505
ZBYN,1995-11-08 13:00,ZBYN 081300Z AUTO 11004KT 7SM 00/M08 A3015 RMK T00001080 IEM_DS3505
ZBYN,1995-11-08 14:00,ZBYN 081400Z AUTO 13004KT 7SM M01/M08 A3018 RMK T10101080 IEM_DS3505
ZBYN,1995-11-08 15:00,ZBYN 081500Z AUTO 09004KT 6SM M01/M07 A3018 RMK SLP248 T10141067 52006 IEM_DS3505
ZBYN,1995-11-08 16:00,ZBYN 081600Z AUTO 12006KT 7SM M02/M08 A3018 RMK T10201080 IEM_DS3505
ZBYN,1995-11-08 17:00,ZBYN 081700Z AUTO 12004KT 7SM M02/M07 A3018 RMK T10201070 IEM_DS3505
ZBYN,1995-11-08 18:00,ZBYN 081800Z AUTO 00000KT 6SM M01/M07 A3018 RMK SLP238 T10111071 54000 IEM_DS3505
ZBYN,1995-11-08 19:00,ZBYN 081900Z AUTO 00000KT 7SM M01/M06 A3015 RMK T10101060 IEM_DS3505
ZBYN,1995-11-08 21:00,ZBYN 082100Z AUTO 32002KT 6SM M03/M08 A3015 RMK SLP238 T10311075 57004 IEM_DS3505
ZBYN,1995-11-08 22:00,ZBYN 082200Z AUTO 00000KT 6SM M04/M09 A3015 RMK T10401090 IEM_DS3505
ZBYN,1995-11-08 23:00,ZBYN 082300Z AUTO 00000KT 6SM M04/M09 A3015 RMK T10401090 IEM_DS3505
ZBYN,1995-11-09 00:00,ZBYN 090000Z AUTO 00000KT 4SM M04/M06 A3015 RMK SLP250 T10371063 52002 IEM_DS3505
ZBYN,1995-11-09 01:00,ZBYN 090100Z AUTO 00000KT 2SM M01/M06 A3018 RMK T10101060 IEM_DS3505
ZBYN,1995-11-09 02:00,ZBYN 090200Z AUTO 19004KT 2SM 04/M10 A3015 RMK T00401100 IEM_DS3505
ZBYN,1995-11-09 03:00,ZBYN 090300Z AUTO 14006KT 4SM 06/M09 A3015 RMK SLP236 T00621090 57007 IEM_DS3505
ZBYN,1995-11-09 04:00,ZBYN 090400Z AUTO 30008KT 4SM 11/M08 A3012 RMK T01101080 IEM_DS3505
ZBYN,1995-11-09 05:00,ZBYN 090500Z AUTO 33014KT 7SM 13/M12 A3009 RMK T01301120 IEM_DS3505
ZBYN,1995-11-09 06:00,ZBYN 090600Z AUTO 32019KT 6SM 14/M21 A3005 RMK SLP195 T01441213 57024 IEM_DS3505
ZBYN,1995-11-09 07:00,ZBYN 090700Z AUTO 30019KT 7SM 15/M21 A3006 RMK T01501210 IEM_DS3505
ZBYN,1995-11-09 08:00,ZBYN 090800Z AUTO 30019KT 7SM 14/M17 A3009 RMK T01401170 IEM_DS3505
ZBYN,1995-11-09 09:00,ZBYN 090900Z AUTO 32014KT 7SM 12/M18 A3012 RMK SLP225 T01201184 52020 IEM_DS3505
ZBYN,1995-11-09 10:00,ZBYN 091000Z AUTO 30006KT 7SM 10/M10 A3018 RMK T01001100 IEM_DS3505
ZBYN,1995-11-09 11:00,ZBYN 091100Z AUTO 00000KT 7SM 09/M04 A3021 RMK T00901040 IEM_DS3505
ZBYN,1995-11-09 12:00,ZBYN 091200Z AUTO 32008KT 7SM 09/ A3024 RMK SLP271 52036 IEM_DS3505
ZBYN,1995-11-09 13:00,ZBYN 091300Z AUTO 36010KT 7SM 08/M06 A3027 RMK T00801060 IEM_DS3505
ZBYN,1995-11-09 14:00,ZBYN 091400Z AUTO 00000KT 7SM 03/M02 A3030 RMK T00301020 IEM_DS3505
ZBYN,1995-11-09 15:00,ZBYN 091500Z AUTO 02002KT 7SM 06/M12 A3030 RMK SLP281 T00571119 52020 IEM_DS3505
ZBYN,1995-11-09 17:00,ZBYN 091700Z AUTO 00000KT 7SM M01/M10 A3033 RMK T10101100 IEM_DS3505
ZBYN,1995-11-09 18:00,ZBYN 091800Z AUTO 32002KT 7SM M02/M10 A3033 RMK SLP284 T10201095 52005 IEM_DS3505
ZBYN,1995-11-09 19:00,ZBYN 091900Z AUTO 00000KT 7SM M03/M09 A3033 RMK T10301090 IEM_DS3505
ZBYN,1995-11-09 20:00,ZBYN 092000Z AUTO 00000KT 7SM M03/M08 A3030 RMK T10301080 IEM_DS3505
ZBYN,1995-11-09 21:00,ZBYN 092100Z AUTO 11004KT 7SM M03/M08 A3033 RMK SLP288 T10311079 57003 IEM_DS3505
ZBYN,1995-11-09 22:00,ZBYN 092200Z AUTO 00000KT 7SM M04/M09 A3033 RMK T10401090 IEM_DS3505
ZBYN,1995-11-09 23:00,ZBYN 092300Z AUTO 00000KT 7SM M03/M09 A3033 RMK T10301090 IEM_DS3505
ZBYN,1995-11-10 00:00,ZBYN 100000Z AUTO 20004KT 7SM M02/M08 A3036 RMK SLP303 T10241082 52009 IEM_DS3505
ZBYN,1995-11-10 01:00,ZBYN 100100Z AUTO 00000KT 4SM 00/M07 A3036 RMK T00001070 IEM_DS3505
ZBYN,1995-11-10 02:00,ZBYN 100200Z AUTO 20004KT 4SM 06/M11 A3036 RMK T00601110 IEM_DS3505
ZBYN,1995-11-10 03:00,ZBYN 100300Z AUTO 16006KT 6SM 08/M10 A3033 RMK SLP291 T00821102 52001 IEM_DS3505
ZBYN,1995-11-10 04:00,ZBYN 100400Z AUTO 24006KT 7SM 10/M10 A3030 RMK T01001100 IEM_DS3505
ZBYN,1995-11-10 05:00,ZBYN 100500Z AUTO 23008KT 7SM 12/M08 A3027 RMK T01201080 IEM_DS3505
ZBYN,1995-11-10 06:00,ZBYN 100600Z AUTO 18008KT 6SM 13/M12 A3024 RMK SLP259 T01281122 57032 IEM_DS3505
ZBYN,1995-11-10 07:00,ZBYN 100700Z AUTO 22006KT 7SM 14/M09 A3021 RMK T01401090 IEM_DS3505
ZBYN,1995-11-10 08:00,ZBYN 100800Z AUTO 21008KT 7SM 14/M06 A3021 RMK T01401060 IEM_DS3505
ZBYN,1995-11-10 09:00,ZBYN 100900Z AUTO 16008KT 6SM 12/M09 A3018 RMK SLP248 T01201089 57015 IEM_DS3505
ZBYN,1995-11-10 10:00,ZBYN 101000Z AUTO 14004KT 7SM 08/M04 A3018 RMK T00801040 IEM_DS3505
ZBYN,1995-11-10 11:00,ZBYN 101100Z AUTO 00000KT 7SM 07/M05 A3018 RMK T00701050 IEM_DS3505
ZBYN,1995-11-10 12:00,ZBYN 101200Z AUTO 36004KT 6SM 07/M05 A3021 RMK SLP256 T00661048 54000 IEM_DS3505
ZBYN,1995-11-10 13:00,ZBYN 101300Z AUTO 17004KT 7SM 02/M05 A3021 RMK T00201050 IEM_DS3505
ZBYN,1995-11-10 14:00,ZBYN 101400Z AUTO 15004KT 7SM 02/M06 A3021 RMK T00201060 IEM_DS3505
ZBYN,1995-11-10 15:00,ZBYN 101500Z AUTO 09006KT 6SM 00/M06 A3018 RMK SLP249 T00031064 52001 IEM_DS3505
ZBYN,1995-11-10 16:00,ZBYN 101600Z AUTO 08006KT 7SM M01/M06 A3018 RMK T10101060 IEM_DS3505
ZBYN,1995-11-10 18:00,ZBYN 101800Z AUTO 22002KT 6SM M01/M05 A3018 RMK SLP240 T10121053 57004 IEM_DS3505
ZBYN,1995-11-10 20:00,ZBYN 102000Z AUTO 00000KT 7SM M03/M08 A3015 RMK T10301080 IEM_DS3505
ZBYN,1995-11-10 21:00,ZBYN 102100Z AUTO 00000KT 6SM M04/M06 A3015 RMK SLP240 T10431063 57006 IEM_DS3505
ZBYN,1995-11-10 22:00,ZBYN 102200Z AUTO 00000KT 7SM M04/M09 A3012 RMK T10401090 IEM_DS3505
ZBYN,1995-11-10 23:00,ZBYN 102300Z AUTO 00000KT 7SM M04/M09 A3012 RMK T10401090 IEM_DS3505
ZBYN,1995-11-11 00:00,ZBYN 110000Z AUTO 16004KT 6SM M05/M06 A3012 RMK SLP240 T10461055 57009 IEM_DS3505
ZBYN,1995-11-11 01:00,ZBYN 110100Z AUTO 00000KT 5SM M02/M07 A3015 RMK T10201070 IEM_DS3505
ZBYN,1995-11-11 02:00,ZBYN 110200Z AUTO 00000KT 5SM 03/M07 A3015 RMK T00301070 IEM_DS3505
ZBYN,1995-11-11 03:00,ZBYN 110300Z AUTO 14004KT 5SM 07/M06 A3012 RMK SLP233 T00691059 52002 IEM_DS3505
ZBYN,1995-11-11 04:00,ZBYN 110400Z AUTO 16002KT 7SM 10/M06 A3009 RMK T01001060 IEM_DS3505
ZBYN,1995-11-11 05:00,ZBYN 110500Z AUTO 15004KT 7SM 13/M08 A3006 RMK T01301080 IEM_DS3505
ZBYN,1995-11-11 06:00,ZBYN 110600Z AUTO 18006KT 6SM 13/M10 A3003 RMK T01281095 57024 IEM_DS3505
ZBYN,1995-11-11 07:00,ZBYN 110700Z AUTO 23006KT 7SM 14/M09 A3003 RMK T01401090 IEM_DS3505
ZBYN,1995-11-11 08:00,ZBYN 110800Z AUTO 00000KT 7SM 15/M05 A3000 RMK T01501050 IEM_DS3505
ZBYN,1995-11-11 09:00,ZBYN 110900Z AUTO 00000KT 6SM 11/M03 A3000 RMK SLP192 T01131030 57014 IEM_DS3505
ZBYN,1995-11-11 10:00,ZBYN 111000Z AUTO 00000KT 2 1/2SM 08/M02 A3000 RMK T00801020 IEM_DS3505
ZBYN,1995-11-11 11:00,ZBYN 111100Z AUTO 00000KT 2 1/2SM 05/M03 A3000 RMK T00501030 IEM_DS3505
ZBYN,1995-11-11 12:00,ZBYN 111200Z AUTO 00000KT 6SM 05/M02 A3003 RMK SLP203 T00511017 54000 IEM_DS3505
ZBYN,1995-11-11 13:00,ZBYN 111300Z AUTO 08004KT 2 1/2SM 02/M05 A3003 RMK T00201050 IEM_DS3505
ZBYN,1995-11-11 14:00,ZBYN 111400Z AUTO 09004KT 2 1/2SM 01/M06 A3006 RMK T00101060 IEM_DS3505
ZBYN,1995-11-11 15:00,ZBYN 111500Z AUTO 00000KT 6SM 01/M04 A3006 RMK SLP202 T00081036 52011 IEM_DS3505
ZBYN,1995-11-11 16:00,ZBYN 111600Z AUTO 06008KT 5SM M01/M06 A3006 RMK T10101060 IEM_DS3505
ZBYN,1995-11-11 17:00,ZBYN 111700Z AUTO 08008KT 5SM 00/M05 A3006 RMK T00001050 IEM_DS3505
ZBYN,1995-11-11 18:00,ZBYN 111800Z AUTO 00000KT 6SM M00/M05 A3006 RMK SLP197 T10051051 52002 IEM_DS3505
ZBYN,1995-11-11 19:00,ZBYN 111900Z AUTO 08008KT 5SM M01/M05 A3003 RMK T10101050 IEM_DS3505
ZBYN,1995-11-11 20:00,ZBYN 112000Z AUTO 00000KT 7SM M01/M06 A3003 RMK T10101060 IEM_DS3505
ZBYN,1995-11-11 21:00,ZBYN 112100Z AUTO 34002KT 6SM M02/M05 A3003 RMK SLP195 T10151053 57005 IEM_DS3505
ZBYN,1995-11-11 22:00,ZBYN 112200Z AUTO 00000KT 2SM M02/M05 A3003 RMK T10201050 IEM_DS3505
ZBYN,1995-11-11 23:00,ZBYN 112300Z AUTO 00000KT 1 1/2SM M03/M07 A3003 RMK T10301070 IEM_DS3505
ZBYN,1995-11-12 00:00,ZBYN 120000Z AUTO 14002KT 4SM M03/M05 A3006 RMK SLP217 T10291050 52007 IEM_DS3505
ZBYN,1995-11-12 01:00,ZBYN 120100Z AUTO 00000KT 2SM 00/M07 A3006 RMK T00001070 IEM_DS3505
ZBYN,1995-11-12 02:00,ZBYN 120200Z AUTO 19004KT 2SM 06/M13 A3003 RMK T00601130 IEM_DS3505
ZBYN,1995-11-12 03:00,ZBYN 120300Z AUTO 00000KT 2SM 08/M08 A3003 RMK T00801080 IEM_DS3505
ZBYN,1995-11-12 04:00,ZBYN 120400Z AUTO 20006KT 2 1/2SM 12/M04 A3003 RMK T01201040 IEM_DS3505
ZBYN,1995-11-12 05:00,ZBYN 120500Z AUTO 18012KT 2 1/2SM 14/M08 A3000 RMK T01401080 IEM_DS3505
ZBYN,1995-11-12 06:00,ZBYN 120600Z AUTO 18006KT 6SM 13/M04 A2997 RMK SLP168 T01321042 57024 IEM_DS3505
ZBYN,1995-11-12 07:00,ZBYN 120700Z AUTO 22004KT 2 1/2SM 16/M03 A2994 RMK T01601030 IEM_DS3505
ZBYN,1995-11-12 08:00,ZBYN 120800Z AUTO 00000KT 2SM 14/M03 A2994 RMK T01401030 IEM_DS3505
ZBYN,1995-11-12 09:00,ZBYN 120900Z AUTO 32004KT 6SM 12/00 A2994 RMK SLP166 T01170004 57006 IEM_DS3505
ZBYN,1995-11-12 10:00,ZBYN 121000Z AUTO 00000KT 2SM 10/M02 A2997 RMK T01001020 IEM_DS3505
ZBYN,1995-11-12 11:00,ZBYN 121100Z AUTO 33008KT 2SM 07/M02 A3000 RMK T00701020 IEM_DS3505
ZBYN,1995-11-12 12:00,ZBYN 121200Z AUTO 32004KT 6SM 11/M03 A3003 RMK SLP191 T01091030 52019 IEM_DS3505
ZBYN,1995-11-12 13:00,ZBYN 121300Z AUTO 30006KT 6SM 09/M05 A3003 RMK T00901050 IEM_DS3505
ZBYN,1995-11-12 14:00,ZBYN 121400Z AUTO 00000KT 6SM 06/M03 A3006 RMK T00601030 IEM_DS3505
ZBYN,1995-11-12 15:00,ZBYN 121500Z AUTO 16006KT 6SM 08/M08 A3009 RMK SLP194 T00761077 52014 IEM_DS3505
ZBYN,1995-11-12 16:00,ZBYN 121600Z AUTO 14004KT 6SM 04/M05 A3009 RMK T00401050 IEM_DS3505
ZBYN,1995-11-12 17:00,ZBYN 121700Z AUTO 14008KT 6SM 02/M04 A3012 RMK T00201040 IEM_DS3505
ZBYN,1995-11-12 18:00,ZBYN 121800Z AUTO 11004KT 6SM 02/M05 A3012 RMK SLP206 T00241054 52012 IEM_DS3505
ZBYN,1995-11-12 19:00,ZBYN 121900Z AUTO 16006KT 6SM 00/M04 A3012 RMK T00001040 IEM_DS3505
ZBYN,1995-11-12 20:00,ZBYN 122000Z AUTO 12006KT 6SM 00/M05 A3012 RMK T00001050 IEM_DS3505
ZBYN,1995-11-12 21:00,ZBYN 122100Z AUTO 14002KT 6SM 00/M06 A3015 RMK SLP227 T00031060 52013 IEM_DS3505
ZBYN,1995-11-12 22:00,ZBYN 122200Z AUTO 13006KT 6SM M01/M05 A3018 RMK T10101050 IEM_DS3505
ZBYN,1995-11-12 23:00,ZBYN 122300Z AUTO 12006KT 6SM M01/M05 A3021 RMK T10101050 IEM_DS3505
ZBYN,1995-11-13 00:00,ZBYN 130000Z AUTO 22002KT 5SM M00/M06 A3024 RMK SLP259 T10051055 52027 IEM_DS3505
ZBYN,1995-11-13 01:00,ZBYN 130100Z AUTO 00000KT 2 1/2SM 01/M04 A3027 RMK T00101040 IEM_DS3505
ZBYN,1995-11-13 02:00,ZBYN 130200Z AUTO 20004KT 2SM 07/M04 A3027 RMK T00701040 IEM_DS3505
ZBYN,1995-11-13 03:00,ZBYN 130300Z AUTO 14004KT 5SM 10/M02 A3027 RMK SLP266 T00991022 52017 IEM_DS3505
ZBYN,1995-11-13 04:00,ZBYN 130400Z AUTO 27006KT 7SM 13/M06 A3027 RMK T01301060 IEM_DS3505
ZBYN,1995-11-13 05:00,ZBYN 130500Z AUTO 00000KT 7SM 13/M06 A3024 RMK T01301060 IEM_DS3505
ZBYN,1995-11-13 06:00,ZBYN 130600Z AUTO 16004KT 5SM 15/M04 A3024 RMK SLP253 T01481037 57012 IEM_DS3505
ZBYN,1995-11-13 07:00,ZBYN 130700Z AUTO 00000KT 7SM 15/M04 A3024 RMK T01501040 IEM_DS3505
ZBYN,1995-11-13 08:00,ZBYN 130800Z AUTO 36004KT 7SM 15/M06 A3024 RMK T01501060 IEM_DS3505
ZBYN,1995-11-13 09:00,ZBYN 130900Z AUTO 04008KT 9SM 13/M02 A3027 RMK SLP264 T01301020 52004 IEM_DS3505
ZBYN,1995-11-13 10:00,ZBYN 131000Z AUTO 00000KT 7SM 09/M04 A3030 RMK T00901040 IEM_DS3505
ZBYN,1995-11-13 11:00,ZBYN 131100Z AUTO 00000KT 7SM 06/M02 A3033 RMK T00601020 IEM_DS3505
ZBYN,1995-11-13 12:00,ZBYN 131200Z AUTO 02002KT 9SM 07/M06 A3033 RMK SLP300 T00691064 52022 IEM_DS3505
ZBYN,1995-11-13 13:00,ZBYN 131300Z AUTO 04004KT 7SM 03/M05 A3036 RMK T00301050 IEM_DS3505
ZBYN,1995-11-13 14:00,ZBYN 131400Z AUTO 05006KT 7SM 01/M06 A3036 RMK T00101060 IEM_DS3505
ZBYN,1995-11-13 15:00,ZBYN 131500Z AUTO 14002KT 9SM 02/M06 A3039 RMK SLP305 T00171060 52012 IEM_DS3505
ZBYN,1995-11-13 18:00,ZBYN 131800Z AUTO 00000KT 9SM M01/M06 A3036 RMK SLP298 T10091057 57002 IEM_DS3505
ZBYN,1995-11-13 19:00,ZBYN 131900Z AUTO 00000KT 7SM M02/M06 A3039 RMK T10201060 IEM_DS3505
ZBYN,1995-11-13 20:00,ZBYN 132000Z AUTO 14004KT 7SM M02/M05 A3036 RMK T10201050 IEM_DS3505
ZBYN,1995-11-13 21:00,ZBYN 132100Z AUTO 36002KT 6SM M02/M05 A3039 RMK SLP307 T10241054 52003 IEM_DS3505
ZBYN,1995-11-13 22:00,ZBYN 132200Z AUTO 13006KT 7SM M03/M05 A3039 RMK T10301050 IEM_DS3505
ZBYN,1995-11-13 23:00,ZBYN 132300Z AUTO 00000KT 7SM M03/M06 A3039 RMK T10301060 IEM_DS3505
ZBYN,1995-11-14 00:00,ZBYN 140000Z AUTO 34004KT 6SM M03/M06 A3039 RMK SLP325 T10321061 52005 IEM_DS3505
ZBYN,1995-11-14 01:00,ZBYN 140100Z AUTO 00000KT 1 1/2SM M01/M06 A3042 RMK T10101060 IEM_DS3505
ZBYN,1995-11-14 02:00,ZBYN 140200Z AUTO 00000KT 1 1/2SM 05/M04 A3039 RMK T00501040 IEM_DS3505
ZBYN,1995-11-14 03:00,ZBYN 140300Z AUTO 16004KT 4SM 08/M07 A3039 RMK SLP308 T00831074 57005 IEM_DS3505
ZBYN,1995-11-14 04:00,ZBYN 140400Z AUTO 16002KT 7SM 11/M03 A3036 RMK T01101030 IEM_DS3505
ZBYN,1995-11-14 05:00,ZBYN 140500Z AUTO 00000KT 7SM 13/M04 A3033 RMK T01301040 IEM_DS3505
ZBYN,1995-11-14 06:00,ZBYN 140600Z AUTO 20006KT 6SM 13/M08 A3030 RMK SLP281 T01261080 57022 IEM_DS3505
ZBYN,1995-11-14 07:00,ZBYN 140700Z AUTO 00000KT 7SM 15/M02 A3030 RMK T01501020 IEM_DS3505
ZBYN,1995-11-14 08:00,ZBYN 140800Z AUTO 00000KT 7SM 15/M04 A3027 RMK T01501040 IEM_DS3505
ZBYN,1995-11-14 09:00,ZBYN 140900Z AUTO 16002KT 6SM 12/M02 A3027 RMK SLP271 T01231025 57012 IEM_DS3505
ZBYN,1995-11-14 10:00,ZBYN 141000Z AUTO 09004KT 7SM 07/M01 A3027 RMK T00701010 IEM_DS3505
ZBYN,1995-11-14 11:00,ZBYN 141100Z AUTO 12004KT 7SM 03/M04 A3027 RMK T00301040 IEM_DS3505
ZBYN,1995-11-14 12:00,ZBYN 141200Z AUTO 34002KT 6SM 03/M03 A3027 RMK SLP292 T00341033 52003 IEM_DS3505
ZBYN,1995-11-14 13:00,ZBYN 141300Z AUTO 13006KT 7SM 01/M06 A3027 RMK T00101060 IEM_DS3505
ZBYN,1995-11-14 14:00,ZBYN 141400Z AUTO 16004KT 7SM 01/M08 A3027 RMK T00101080 IEM_DS3505
ZBYN,1995-11-14 15:00,ZBYN 141500Z AUTO 00000KT 6SM M00/M05 A3027 RMK SLP275 T10031046 57003 IEM_DS3505
ZBYN,1995-11-14 16:00,ZBYN 141600Z AUTO 16004KT 7SM M01/M07 A3027 RMK T10101070 IEM_DS3505
ZBYN,1995-11-14 17:00,ZBYN 141700Z AUTO 00000KT 7SM M02/M08 A3024 RMK T10201080 IEM_DS3505
ZBYN,1995-11-14 18:00,ZBYN 141800Z AUTO 00000KT 6SM M02/M07 A3024 RMK SLP262 T10181068 57007 IEM_DS3505
ZBYN,1995-11-14 19:00,ZBYN 141900Z AUTO 14004KT 7SM M03/M08 A3024 RMK T10301080 IEM_DS3505
ZBYN,1995-11-14 20:00,ZBYN 142000Z AUTO 00000KT 7SM M03/M07 A3021 RMK T10301070 IEM_DS3505
ZBYN,1995-11-14 21:00,ZBYN 142100Z AUTO 32002KT 6SM M02/M07 A3021 RMK SLP255 T10181073 57007 IEM_DS3505
ZBYN,1995-11-14 22:00,ZBYN 142200Z AUTO 00000KT 7SM M04/M08 A3021 RMK T10401080 IEM_DS3505
ZBYN,1995-11-14 23:00,ZBYN 142300Z AUTO 00000KT 7SM M04/M09 A3021 RMK T10401090 IEM_DS3505
ZBYN,1995-11-15 00:00,ZBYN 150000Z AUTO 14004KT 4SM M04/M07 A3021 RMK SLP272 T10381068 57002 IEM_DS3505
ZBYN,1995-11-15 01:00,ZBYN 150100Z AUTO 00000KT 2SM M02/M07 A3021 RMK T10201070 IEM_DS3505
ZBYN,1995-11-15 02:00,ZBYN 150200Z AUTO 00000KT 3SM 02/M07 A3018 RMK T00201070 IEM_DS3505
ZBYN,1995-11-15 03:00,ZBYN 150300Z AUTO 18004KT 6SM 05/M07 A3015 RMK SLP249 T00501066 57012 IEM_DS3505
ZBYN,1995-11-15 04:00,ZBYN 150400Z AUTO 18004KT 3SM 09/M04 A3012 RMK T00901040 IEM_DS3505
ZBYN,1995-11-15 05:00,ZBYN 150500Z AUTO 23006KT 4SM 11/M04 A3009 RMK T01101040 IEM_DS3505
ZBYN,1995-11-15 06:00,ZBYN 150600Z AUTO 16008KT 6SM 11/M06 A3006 RMK SLP203 T01101056 57035 IEM_DS3505
ZBYN,1995-11-15 07:00,ZBYN 150700Z AUTO 24006KT 4SM 12/M04 A3003 RMK T01201040 IEM_DS3505
ZBYN,1995-11-15 08:00,ZBYN 150800Z AUTO 00000KT 4SM 11/01 A3003 RMK T01100010 IEM_DS3505
ZBYN,1995-11-15 09:00,ZBYN 150900Z AUTO 34004KT 5SM 09/M04 A3003 RMK SLP198 T00871036 57008 IEM_DS3505
ZBYN,1995-11-15 10:00,ZBYN 151000Z AUTO 00000KT 2 1/2SM 06/M01 A3003 RMK T00601010 IEM_DS3505
ZBYN,1995-11-15 11:00,ZBYN 151100Z AUTO 00000KT 1 1/2SM 04/M01 A3006 RMK T00401010 IEM_DS3505
ZBYN,1995-11-15 12:00,ZBYN 151200Z AUTO 34004KT 5SM 05/M04 A3006 RMK SLP218 T00461037 52008 IEM_DS3505
ZBYN,1995-11-15 13:00,ZBYN 151300Z AUTO 00000KT 2 1/2SM 02/M03 A3006 RMK T00201030 IEM_DS3505
ZBYN,1995-11-15 14:00,ZBYN 151400Z AUTO 00000KT 5SM 01/M04 A3009 RMK T00101040 IEM_DS3505
ZBYN,1995-11-15 15:00,ZBYN 151500Z AUTO 34004KT 5SM 03/M05 A3009 RMK SLP215 T00271049 52008 IEM_DS3505
ZBYN,1995-11-15 16:00,ZBYN 151600Z AUTO 00000KT 7SM M01/M04 A3009 RMK T10101040 IEM_DS3505
ZBYN,1995-11-15 17:00,ZBYN 151700Z AUTO 00000KT 7SM M02/M05 A3009 RMK T10201050 IEM_DS3505
ZBYN,1995-11-15 18:00,ZBYN 151800Z AUTO 29004KT 5SM M01/M04 A3009 RMK SLP212 T10101044 52001 IEM_DS3505
ZBYN,1995-11-15 19:00,ZBYN 151900Z AUTO 00000KT 7SM M02/M05 A3009 RMK T10201050 IEM_DS3505
ZBYN,1995-11-15 20:00,ZBYN 152000Z AUTO 00000KT 7SM M02/M05 A3009 RMK T10201050 IEM_DS3505
ZBYN,1995-11-15 21:00,ZBYN 152100Z AUTO 00000KT 5SM M03/M05 A3009 RMK SLP218 T10281052 57001 IEM_DS3505
ZBYN,1995-11-15 22:00,ZBYN 152200Z AUTO 00000KT 7SM M03/M06 A3012 RMK T10301060 IEM_DS3505
ZBYN,1995-11-15 23:00,ZBYN 152300Z AUTO 00000KT 3SM M04/M07 A3015 RMK T10401070 IEM_DS3505
ZBYN,1995-11-16 00:00,ZBYN 160000Z AUTO 27002KT 3SM M03/M05 A3015 RMK SLP250 T10321050 52022 IEM_DS3505
ZBYN,1995-11-16 01:00,ZBYN 160100Z AUTO 00000KT 1SM M01/M05 A3018 RMK T10101050 IEM_DS3505
ZBYN,1995-11-16 02:00,ZBYN 160200Z AUTO 00000KT 1SM 04/M04 A3018 RMK T00401040 IEM_DS3505
ZBYN,1995-11-16 03:00,ZBYN 160300Z AUTO 16004KT 4SM 07/M04 A3018 RMK SLP241 T00711036 52005 IEM_DS3505
ZBYN,1995-11-16 05:00,ZBYN 160500Z AUTO 27006KT 4SM 12/M06 A3012 RMK T01201060 IEM_DS3505
ZBYN,1995-11-16 06:00,ZBYN 160600Z AUTO 16004KT 4SM 13/M06 A3012 RMK SLP217 T01321065 57018 IEM_DS3505
ZBYN,1995-11-16 07:00,ZBYN 160700Z AUTO 27006KT 5SM 14/M05 A3012 RMK T01401050 IEM_DS3505
ZBYN,1995-11-16 08:00,ZBYN 160800Z AUTO 00000KT 5SM 14/M05 A3012 RMK T01401050 IEM_DS3505
ZBYN,1995-11-16 09:00,ZBYN 160900Z AUTO 00000KT 4SM 11/M06 A3012 RMK SLP222 T01091063 57002 IEM_DS3505
ZBYN,1995-11-16 10:00,ZBYN 161000Z AUTO 00000KT 5SM 07/M02 A3012 RMK T00701020 IEM_DS3505
ZBYN,1995-11-16 11:00,ZBYN 161100Z AUTO 00000KT 4SM 04/M03 A3015 RMK T00401030 IEM_DS3505
ZBYN,1995-11-16 12:00,ZBYN 161200Z AUTO 07002KT 6SM 03/M03 A3018 RMK SLP266 T00281031 52027 IEM_DS3505
ZBYN,1995-11-16 13:00,ZBYN 161300Z AUTO 07002KT 7SM 01/M04 A3021 RMK T00101040 IEM_DS3505
ZBYN,1995-11-16 14:00,ZBYN 161400Z AUTO 00000KT 4SM 02/M05 A3024 RMK T00201050 IEM_DS3505
ZBYN,1995-11-16 15:00,ZBYN 161500Z AUTO 34004KT 6SM 04/M06 A3024 RMK SLP261 T00361064 52013 IEM_DS3505
ZBYN,1995-11-16 16:00,ZBYN 161600Z AUTO 05002KT 7SM 01/M04 A3024 RMK T00101040 IEM_DS3505
ZBYN,1995-11-16 17:00,ZBYN 161700Z AUTO 00000KT 7SM 02/M02 A3027 RMK T00201020 IEM_DS3505
ZBYN,1995-11-16 18:00,ZBYN 161800Z AUTO 34004KT 6SM 02/M07 A3026 RMK SLP263 T00181067 52009 IEM_DS3505
ZBYN,1995-11-16 19:00,ZBYN 161900Z AUTO 33004KT 7SM 01/M06 A3030 RMK T00101060 IEM_DS3505
ZBYN,1995-11-16 20:00,ZBYN 162000Z AUTO 36004KT 7SM M01/M06 A3030 RMK T10101060 IEM_DS3505
ZBYN,1995-11-16 21:00,ZBYN 162100Z AUTO 36004KT 6SM 02/M07 A3030 RMK SLP280 T00151071 52011 IEM_DS3505
ZBYN,1995-11-16 22:00,ZBYN 162200Z AUTO 03004KT 4SM M02/M06 A3030 RMK T10201060 IEM_DS3505
ZBYN,1995-11-16 23:00,ZBYN 162300Z AUTO 36002KT 4SM M02/M04 A3033 RMK T10201040 IEM_DS3505
ZBYN,1995-11-17 00:00,ZBYN 170000Z AUTO 36002KT 6SM 02/M08 A3033 RMK SLP307 T00181075 52012 IEM_DS3505
ZBYN,1995-11-17 01:00,ZBYN 170100Z AUTO 32004KT 2SM 02/M07 A3036 RMK T00201070 IEM_DS3505
ZBYN,1995-11-17 02:00,ZBYN 170200Z AUTO 32004KT 2 1/2SM 06/M04 A3036 RMK T00601040 IEM_DS3505
ZBYN,1995-11-17 03:00,ZBYN 170300Z AUTO 34006KT 6SM 08/M08 A3036 RMK SLP294 T00811078 54000 IEM_DS3505
ZBYN,1995-11-17 04:00,ZBYN 170400Z AUTO 00000KT 4SM 11/M04 A3033 RMK T01101040 IEM_DS3505
ZBYN,1995-11-17 05:00,ZBYN 170500Z AUTO 28004KT 5SM 13/M04 A3030 RMK T01301040 IEM_DS3505
ZBYN,1995-11-17 06:00,ZBYN 170600Z AUTO 32004KT 6SM 14/M05 A3027 RMK SLP261 T01361053 57025 IEM_DS3505
ZBYN,1995-11-17 07:00,ZBYN 170700Z AUTO 00000KT 5SM 16/M02 A3024 RMK T01601020 IEM_DS3505
ZBYN,1995-11-17 08:00,ZBYN 170800Z AUTO 13006KT 7SM 15/M01 A3024 RMK T01501010 IEM_DS3505
ZBYN,1995-11-17 09:00,ZBYN 170900Z AUTO 14006KT 6SM 12/M04 A3024 RMK SLP259 T01211040 57004 IEM_DS3505
ZBYN,1995-11-17 10:00,ZBYN 171000Z AUTO 09012KT 7SM 08/M01 A3027 RMK T00801010 IEM_DS3505
ZBYN,1995-11-17 11:00,ZBYN 171100Z AUTO 06008KT 7SM 07/M02 A3027 RMK T00701020 IEM_DS3505
ZBYN,1995-11-17 12:00,ZBYN 171200Z AUTO 32006KT 6SM 06/M03 A3030 RMK SLP287 T00571033 52016 IEM_DS3505
ZBYN,1995-11-17 13:00,ZBYN 171300Z AUTO 06004KT 7SM 05/M02 A3030 RMK T00501020 IEM_DS3505
ZBYN,1995-11-17 14:00,ZBYN 171400Z AUTO 00000KT 7SM 04/M02 A3033 RMK T00401020 IEM_DS3505
ZBYN,1995-11-17 15:00,ZBYN 171500Z AUTO 00000KT 6SM 04/M03 A3030 RMK SLP284 T00391027 52004 IEM_DS3505
ZBYN,1995-11-17 16:00,ZBYN 171600Z AUTO 00000KT 6SM 04/M01 A3030 RMK T00401010 IEM_DS3505
ZBYN,1995-11-17 17:00,ZBYN 171700Z AUTO 00000KT 6SM 04/M01 A3030 RMK T00401010 IEM_DS3505
ZBYN,1995-11-17 18:00,ZBYN 171800Z AUTO 00000KT 3SM 05/M02 A3033 RMK T00501019 52002 IEM_DS3505
ZBYN,1995-11-17 19:00,ZBYN 171900Z AUTO 09004KT 6SM 04/01 A3030 RMK T00400010 IEM_DS3505
ZBYN,1995-11-17 20:00,ZBYN 172000Z AUTO 00000KT 6SM 04/00 A3030 RMK T00400000 IEM_DS3505
ZBYN,1995-11-17 21:00,ZBYN 172100Z AUTO 00000KT 6SM 04/00 A3030 RMK SLP273 T00400000 57006 IEM_DS3505
ZBYN,1995-11-17 22:00,ZBYN 172200Z AUTO 00000KT 5SM 04/M01 A3027 RMK T00401010 IEM_DS3505
ZBYN,1995-11-17 23:00,ZBYN 172300Z AUTO 15008KT 2SM 04/01 A3027 RMK T00400010 IEM_DS3505
ZBYN,1995-11-18 00:00,ZBYN 180000Z AUTO 18004KT 4SM 04/01 A3030 RMK SLP284 T00380008 54000 IEM_DS3505
ZBYN,1995-11-18 01:00,ZBYN 180100Z AUTO 00000KT 1SM 05/01 A3033 RMK T00500010 IEM_DS3505
ZBYN,1995-11-18 02:00,ZBYN 180200Z AUTO 00000KT 1SM 05/02 A3036 RMK T00500020 IEM_DS3505
ZBYN,1995-11-18 03:00,ZBYN 180300Z AUTO 32012KT 4SM 07/M01 RMK SLP302 T00671012 52018 IEM_DS3505
ZBYN,1995-11-18 05:00,ZBYN 180500Z AUTO 00000KT 7SM 07/03 A3033 RMK T00700030 IEM_DS3505
ZBYN,1995-11-18 06:00,ZBYN 180600Z AUTO 18006KT 6SM 06/01 A3030 RMK SLP286 T00650009 57013 IEM_DS3505
ZBYN,1995-11-18 07:00,ZBYN 180700Z AUTO 23010KT 7SM 07/02 A3033 RMK T00700020 IEM_DS3505
ZBYN,1995-11-18 08:00,ZBYN 180800Z AUTO 22006KT 7SM 07/03 A3033 RMK T00700030 IEM_DS3505
ZBYN,1995-11-18 09:00,ZBYN 180900Z AUTO 07006KT 6SM 06/02 A3033 RMK SLP293 T00590024 52004 IEM_DS3505
ZBYN,1995-11-18 10:00,ZBYN 181000Z AUTO 00000KT 6SM 05/03 A3033 RMK T00500030 IEM_DS3505
ZBYN,1995-11-18 11:00,ZBYN 181100Z AUTO 00000KT 6SM 04/02 A3036 RMK T00400020 IEM_DS3505
ZBYN,1995-11-18 12:00,ZBYN 181200Z AUTO 32012KT 6SM 06/M06 A3039 RMK SLP309 T00611065 52014 IEM_DS3505
ZBYN,1995-11-18 13:00,ZBYN 181300Z AUTO 32008KT 6SM 05/M04 A3042 RMK T00501040 IEM_DS3505
ZBYN,1995-11-18 14:00,ZBYN 181400Z AUTO 31004KT 7SM 03/M05 A3045 RMK T00301050 IEM_DS3505
ZBYN,1995-11-18 15:00,ZBYN 181500Z AUTO 32004KT 6SM 04/M09 A3045 RMK SLP335 T00361091 52025 IEM_DS3505
ZBYN,1995-11-18 16:00,ZBYN 181600Z AUTO 33014KT 7SM 03/M07 A3047 RMK T00301070 IEM_DS3505
ZBYN,1995-11-18 17:00,ZBYN 181700Z AUTO 31008KT 7SM 01/M10 RMK T00101100 IEM_DS3505
ZBYN,1995-11-18 18:00,ZBYN 181800Z AUTO 32008KT 6SM 02/M15 A3047 RMK SLP348 T00191150 52008 IEM_DS3505
ZBYN,1995-11-18 19:00,ZBYN 181900Z AUTO 32012KT 7SM 01/M12 A3047 RMK T00101120 IEM_DS3505
ZBYN,1995-11-18 20:00,ZBYN 182000Z AUTO 31010KT 7SM 00/M12 A3047 RMK T00001120 IEM_DS3505
ZBYN,1995-11-18 21:00,ZBYN 182100Z AUTO 32008KT 6SM M01/M14 A3047 RMK SLP354 T10061141 52001 IEM_DS3505
ZBYN,1995-11-18 22:00,ZBYN 182200Z AUTO 31006KT 7SM M02/M12 A3050 RMK T10201120 IEM_DS3505
ZBYN,1995-11-18 23:00,ZBYN 182300Z AUTO 12006KT 7SM M05/M10 A3050 RMK T10501100 IEM_DS3505
ZBYN,1995-11-19 00:00,ZBYN 190000Z AUTO 32008KT 16SM M02/M14 A3053 RMK SLP365 T10151135 52009 IEM_DS3505
ZBYN,1995-11-19 01:00,ZBYN 190100Z AUTO 00000KT 7SM M03/M09 A3053 RMK T10301090 IEM_DS3505
ZBYN,1995-11-19 02:00,ZBYN 190200Z AUTO 00000KT 7SM 01/M13 A3053 RMK T00101130 IEM_DS3505
ZBYN,1995-11-19 03:00,ZBYN 190300Z AUTO 09002KT 16SM 03/M14 A3053 RMK SLP371 T00321138 52009 IEM_DS3505
ZBYN,1995-11-19 04:00,ZBYN 190400Z AUTO 31006KT 7SM 04/M14 A3053 RMK T00401140 IEM_DS3505
ZBYN,1995-11-19 05:00,ZBYN 190500Z AUTO 17004KT 7SM 05/M13 A3047 RMK T00501130 IEM_DS3505
ZBYN,1995-11-19 06:00,ZBYN 190600Z AUTO 18008KT 11SM 05/M14 A3045 RMK SLP342 T00521139 57026 IEM_DS3505
ZBYN,1995-11-19 07:00,ZBYN 190700Z AUTO 23010KT 7SM 06/M13 A3042 RMK T00601130 IEM_DS3505
ZBYN,1995-11-19 08:00,ZBYN 190800Z AUTO 22010KT 7SM 05/M13 A3042 RMK T00501130 IEM_DS3505
ZBYN,1995-11-19 09:00,ZBYN 190900Z AUTO 16010KT 9SM 03/M12 A3042 RMK SLP336 T00291118 57013 IEM_DS3505
ZBYN,1995-11-19 10:00,ZBYN 191000Z AUTO 15004KT 7SM 00/M07 A3042 RMK T00001070 IEM_DS3505
ZBYN,1995-11-19 11:00,ZBYN 191100Z AUTO 00000KT 7SM M01/M09 A3042 RMK T10101090 IEM_DS3505
ZBYN,1995-11-19 12:00,ZBYN 191200Z AUTO 32006KT 9SM 00/M12 A3042 RMK SLP347 T00031116 52004 IEM_DS3505
ZBYN,1995-11-19 13:00,ZBYN 191300Z AUTO 33006KT 7SM 01/M12 A3042 RMK T00101120 IEM_DS3505
ZBYN,1995-11-19 15:00,ZBYN 191500Z AUTO 32004KT 6SM 00/M15 A3045 RMK SLP341 T00021150 52002 IEM_DS3505
ZBYN,1995-11-19 16:00,ZBYN 191600Z AUTO 11004KT 7SM M05/M09 A3045 RMK T10501090 IEM_DS3505
ZBYN,1995-11-19 18:00,ZBYN 191800Z AUTO 11004KT 6SM M05/M10 A3045 RMK SLP348 T10501097 52001 IEM_DS3505
ZBYN,1995-11-19 19:00,ZBYN 191900Z AUTO 10006KT 7SM M07/M10 A3042 RMK T10701100 IEM_DS3505
ZBYN,1995-11-19 20:00,ZBYN 192000Z AUTO 09006KT 7SM M07/M11 A3042 RMK T10701110 IEM_DS3505
ZBYN,1995-11-19 21:00,ZBYN 192100Z AUTO 16004KT 6SM M07/M10 A3042 RMK SLP354 T10701100 57002 IEM_DS3505
ZBYN,1995-11-19 22:00,ZBYN 192200Z AUTO 00000KT 7SM M07/M12 A3042 RMK T10701120 IEM_DS3505
ZBYN,1995-11-19 23:00,ZBYN 192300Z AUTO 09004KT 7SM M08/M12 A3045 RMK T10801120 IEM_DS3505
ZBYN,1995-11-20 00:00,ZBYN 200000Z AUTO 20002KT 6SM M07/M10 A3045 RMK SLP366 T10731104 52006 IEM_DS3505
ZBYN,1995-11-20 01:00,ZBYN 200100Z AUTO 00000KT 4SM M05/M10 A3045 RMK T10501100 IEM_DS3505
ZBYN,1995-11-20 02:00,ZBYN 200200Z AUTO 00000KT 7SM 00/M12 A3045 RMK T00001120 IEM_DS3505
ZBYN,1995-11-20 03:00,ZBYN 200300Z AUTO 00000KT 6SM 01/M11 A3042 RMK SLP345 T00111111 57005 IEM_DS3505
ZBYN,1995-11-20 04:00,ZBYN 200400Z AUTO 22006KT 7SM 04/M12 A3039 RMK T00401120 IEM_DS3505
ZBYN,1995-11-20 05:00,ZBYN 200500Z AUTO 24004KT 7SM 05/M13 A3036 RMK T00501130 IEM_DS3505
ZBYN,1995-11-20 06:00,ZBYN 200600Z AUTO 18006KT 6SM 05/M16 A3033 RMK SLP310 T00511156 57034 IEM_DS3505
ZBYN,1995-11-20 07:00,ZBYN 200700Z AUTO 24008KT 7SM 07/M06 A3030 RMK T00701060 IEM_DS3505
ZBYN,1995-11-20 08:00,ZBYN 200800Z AUTO 21006KT 7SM 06/M06 A3030 RMK T00601060 IEM_DS3505
ZBYN,1995-11-20 09:00,ZBYN 200900Z AUTO 14004KT 7SM 04/M13 A3030 RMK SLP305 T00381127 57010 IEM_DS3505
ZBYN,1995-11-20 10:00,ZBYN 201000Z AUTO 00000KT 7SM 01/M03 A3030 RMK T00101030 IEM_DS3505
ZBYN,1995-11-20 11:00,ZBYN 201100Z AUTO 06004KT 7SM M03/M07 A3030 RMK T10301070 IEM_DS3505
ZBYN,1995-11-20 12:00,ZBYN 201200Z AUTO 34004KT 7SM M01/M10 A3030 RMK SLP318 T10121101 52003 IEM_DS3505
ZBYN,1995-11-20 13:00,ZBYN 201300Z AUTO 00000KT 7SM M04/M10 A3033 RMK T10401100 IEM_DS3505
ZBYN,1995-11-20 14:00,ZBYN 201400Z AUTO 12004KT 7SM M04/M10 A3033 RMK T10401100 IEM_DS3505
ZBYN,1995-11-20 15:00,ZBYN 201500Z AUTO 16004KT 7SM M04/M10 A3033 RMK SLP313 T10411103 52005 IEM_DS3505
ZBYN,1995-11-20 16:00,ZBYN 201600Z AUTO 00000KT 7SM M05/M12 A3033 RMK T10501120 IEM_DS3505
ZBYN,1995-11-20 17:00,ZBYN 201700Z AUTO 11006KT 7SM M06/M13 A3030 RMK T10601130 IEM_DS3505
ZBYN,1995-11-20 18:00,ZBYN 201800Z AUTO 18004KT 7SM M05/M10 A3030 RMK SLP300 T10541102 57007 IEM_DS3505
ZBYN,1995-11-20 19:00,ZBYN 201900Z AUTO 11006KT 7SM M06/M13 A3030 RMK T10601130 IEM_DS3505
ZBYN,1995-11-20 20:00,ZBYN 202000Z AUTO 11006KT 7SM M06/M13 A3027 RMK T10601130 IEM_DS3505
ZBYN,1995-11-20 21:00,ZBYN 202100Z AUTO 00000KT 6SM M08/M10 A3027 RMK SLP296 T10761103 57010 IEM_DS3505
ZBYN,1995-11-20 22:00,ZBYN 202200Z AUTO 00000KT 7SM M07/M13 A3024 RMK T10701130 IEM_DS3505
ZBYN,1995-11-20 23:00,ZBYN 202300Z AUTO 00000KT 7SM M08/M12 A3024 RMK T10801120 IEM_DS3505
ZBYN,1995-11-21 00:00,ZBYN 210000Z AUTO 00000KT 6SM M08/M10 A3024 RMK SLP302 T10771099 57003 IEM_DS3505
ZBYN,1995-11-21 01:00,ZBYN 210100Z AUTO 00000KT 1 1/2SM M06/M10 A3024 RMK T10601100 IEM_DS3505
ZBYN,1995-11-21 02:00,ZBYN 210200Z AUTO 12004KT 1 1/2SM M01/M09 A3024 RMK T10101090 IEM_DS3505
ZBYN,1995-11-21 03:00,ZBYN 210300Z AUTO 14006KT 4SM 02/M12 A3021 RMK SLP281 T00161117 57008 IEM_DS3505
ZBYN,1995-11-21 04:00,ZBYN 210400Z AUTO 20006KT 3SM 05/M12 A3018 RMK T00501120 IEM_DS3505
ZBYN,1995-11-21 05:00,ZBYN 210500Z AUTO 23008KT 4SM 07/M11 A3012 RMK T00701110 IEM_DS3505
ZBYN,1995-11-21 06:00,ZBYN 210600Z AUTO 16010KT 3SM 06/M14 A3009 RMK SLP231 T00621137 57040 IEM_DS3505
ZBYN,1995-11-21 07:00,ZBYN 210700Z AUTO 20008KT 6SM 08/M10 A3006 RMK T00801100 IEM_DS3505
ZBYN,1995-11-21 08:00,ZBYN 210800Z AUTO 21004KT 6SM 06/M08 A3006 RMK T00601080 IEM_DS3505
ZBYN,1995-11-21 09:00,ZBYN 210900Z AUTO 14004KT 4SM 05/M12 A3006 RMK SLP218 T00491117 57018 IEM_DS3505
ZBYN,1995-11-21 10:00,ZBYN 211000Z AUTO 00000KT 6SM 02/M07 A3006 RMK T00201070 IEM_DS3505
ZBYN,1995-11-21 11:00,ZBYN 211100Z AUTO 00000KT 4SM 02/M08 A3006 RMK T00201080 IEM_DS3505
ZBYN,1995-11-21 12:00,ZBYN 211200Z AUTO 00000KT 4SM 01/M08 A3009 RMK SLP237 T00061075 52010 IEM_DS3505
ZBYN,1995-11-21 13:00,ZBYN 211300Z AUTO 00000KT 3SM 00/M07 A3009 RMK T00001070 IEM_DS3505
ZBYN,1995-11-21 14:00,ZBYN 211400Z AUTO 14002KT 3SM 00/M08 A3009 RMK T00001080 IEM_DS3505
ZBYN,1995-11-21 15:00,ZBYN 211500Z AUTO 11002KT 6SM M01/M07 A3012 RMK SLP235 T10131074 52011 IEM_DS3505
ZBYN,1995-11-21 17:00,ZBYN 211700Z AUTO 32004KT 7SM 00/M12 A3012 RMK T00001120 IEM_DS3505
ZBYN,1995-11-21 18:00,ZBYN 211800Z AUTO 25004KT 6SM M00/M11 A3012 RMK SLP228 T10041106 52002 IEM_DS3505
ZBYN,1995-11-21 19:00,ZBYN 211900Z AUTO 15004KT 7SM M03/M12 A3012 RMK T10301120 IEM_DS3505
ZBYN,1995-11-21 20:00,ZBYN 212000Z AUTO 28004KT 7SM 00/M12 A3012 RMK T00001120 IEM_DS3505
ZBYN,1995-11-21 21:00,ZBYN 212100Z AUTO 31006KT 7SM M01/M13 A3012 RMK T10101130 IEM_DS3505
ZBYN,1995-11-21 22:00,ZBYN 212200Z AUTO 32008KT 7SM M01/M14 A3012 RMK T10101140 IEM_DS3505
ZBYN,1995-11-21 23:00,ZBYN 212300Z AUTO 33010KT 5SM M01/M14 A3015 RMK T10101140 IEM_DS3505
ZBYN,1995-11-22 00:00,ZBYN 220000Z AUTO 32008KT 12SM M01/M13 A3015 RMK SLP251 T10121127 52010 IEM_DS3505
ZBYN,1995-11-22 01:00,ZBYN 220100Z AUTO 31012KT 7SM 02/M11 A3018 RMK T00201110 IEM_DS3505
ZBYN,1995-11-22 02:00,ZBYN 220200Z AUTO 31012KT 7SM 04/M18 A3018 RMK T00401180 IEM_DS3505
ZBYN,1995-11-22 03:00,ZBYN 220300Z AUTO 29010KT 12SM 05/M16 A3018 RMK SLP254 T00501164 52009 IEM_DS3505
ZBYN,1995-11-22 04:00,ZBYN 220400Z AUTO 29016KT 6SM 06/M17 A3015 RMK T00601170 IEM_DS3505
ZBYN,1995-11-22 05:00,ZBYN 220500Z AUTO 22008KT 6SM 06/M16 A3015 RMK T00601160 IEM_DS3505
ZBYN,1995-11-22 06:00,ZBYN 220600Z AUTO 29012KT 7SM 06/M19 A3015 RMK SLP238 T00591188 57011 IEM_DS3505
ZBYN,1995-11-22 07:00,ZBYN 220700Z AUTO 32012KT 6SM 06/M14 A3015 RMK T00601140 IEM_DS3505
ZBYN,1995-11-22 08:00,ZBYN 220800Z AUTO 33017KT 6SM 04/M13 A3018 RMK T00401130 IEM_DS3505
ZBYN,1995-11-22 09:00,ZBYN 220900Z AUTO 02010KT 6SM 01/M07 A3024 RMK SLP280 T00121067 52028 IEM_DS3505
ZBYN,1995-11-22 10:00,ZBYN 221000Z AUTO 03012KT 6SM 00/M07 A3027 RMK T00001070 IEM_DS3505
ZBYN,1995-11-22 11:00,ZBYN 221100Z AUTO 32004KT 6SM 01/M10 A3030 RMK T00101100 IEM_DS3505
ZBYN,1995-11-22 12:00,ZBYN 221200Z AUTO 32008KT 6SM M00/M16 A3033 RMK SLP314 T10031162 52029 IEM_DS3505
ZBYN,1995-11-22 13:00,ZBYN 221300Z AUTO 33010KT 7SM M01/M14 A3036 RMK T10101140 IEM_DS3505
ZBYN,1995-11-22 14:00,ZBYN 221400Z AUTO 02006KT 7SM M02/M15 A3039 RMK T10201150 IEM_DS3505
ZBYN,1995-11-22 15:00,ZBYN 221500Z AUTO 32008KT 6SM M02/M15 A3042 RMK SLP329 T10211147 52021 IEM_DS3505
ZBYN,1995-11-22 16:00,ZBYN 221600Z AUTO 02006KT 7SM M04/M17 A3045 RMK T10401170 IEM_DS3505
ZBYN,1995-11-22 17:00,ZBYN 221700Z AUTO 02006KT 7SM M05/M17 A3047 RMK T10501170 IEM_DS3505
ZBYN,1995-11-22 18:00,ZBYN 221800Z AUTO 32006KT 6SM M05/M18 A3050 RMK SLP366 T10511176 52030 IEM_DS3505
ZBYN,1995-11-22 20:00,ZBYN 222000Z AUTO 32014KT 7SM M06/M21 A3053 RMK T10601210 IEM_DS3505
ZBYN,1995-11-22 21:00,ZBYN 222100Z AUTO 32010KT 9SM M07/M19 A3053 RMK SLP394 T10681188 52015 IEM_DS3505
ZBYN,1995-11-22 22:00,ZBYN 222200Z AUTO 32010KT 7SM M07/M22 A3056 RMK T10701220 IEM_DS3505
ZBYN,1995-11-22 23:00,ZBYN 222300Z AUTO 30016KT 7SM M07/M21 A3056 RMK T10701210 IEM_DS3505
ZBYN,1995-11-23 00:00,ZBYN 230000Z AUTO 29006KT 12SM M08/M20 A3059 RMK SLP411 T10761197 52012 IEM_DS3505
ZBYN,1995-11-23 01:00,ZBYN 230100Z AUTO 28014KT 7SM M06/M19 A3059 RMK T10601190 IEM_DS3505
ZBYN,1995-11-23 02:00,ZBYN 230200Z AUTO 27016KT 7SM M05/M23 A3059 RMK T10501230 IEM_DS3505
ZBYN,1995-11-23 03:00,ZBYN 230300Z AUTO 32012KT 11SM M04/M23 A3056 RMK SLP403 T10351230 57004 IEM_DS3505
ZBYN,1995-11-23 04:00,ZBYN 230400Z AUTO 27010KT 7SM M03/M14 A3050 RMK T10301140 IEM_DS3505
ZBYN,1995-11-23 05:00,ZBYN 230500Z AUTO 31021KT 7SM 00/M15 A3047 RMK T00001150 IEM_DS3505
ZBYN,1995-11-23 06:00,ZBYN 230600Z AUTO 32012KT 10SM M00/M17 A3045 RMK SLP356 T10011173 57042 IEM_DS3505
ZBYN,1995-11-23 07:00,ZBYN 230700Z AUTO 33016KT 6SM 01/M17 A3042 RMK T00101170 IEM_DS3505
ZBYN,1995-11-23 08:00,ZBYN 230800Z AUTO 29021KT 7SM 00/M19 A3042 RMK T00001190 IEM_DS3505
ZBYN,1995-11-23 09:00,ZBYN 230900Z AUTO 29012KT 6SM M01/M15 A3042 RMK SLP356 T10071150 57004 IEM_DS3505
ZBYN,1995-11-23 10:00,ZBYN 231000Z AUTO 31021KT 7SM M01/M16 A3042 RMK T10101160 IEM_DS3505
ZBYN,1995-11-23 11:00,ZBYN 231100Z AUTO 29008KT 7SM M02/M20 A3042 RMK T10201200 IEM_DS3505
ZBYN,1995-11-23 12:00,ZBYN 231200Z AUTO 25002KT 9SM M02/M17 A3039 RMK SLP353 T10161172 57005 IEM_DS3505
ZBYN,1995-11-23 13:00,ZBYN 231300Z AUTO 22008KT 7SM M05/M16 A3039 RMK T10501160 IEM_DS3505
ZBYN,1995-11-23 14:00,ZBYN 231400Z AUTO 27010KT 7SM M04/M16 A3036 RMK T10401160 IEM_DS3505
ZBYN,1995-11-23 15:00,ZBYN 231500Z AUTO 20006KT 9SM M04/M16 A3036 RMK SLP335 T10371160 57013 IEM_DS3505
ZBYN,1995-11-23 16:00,ZBYN 231600Z AUTO 00000KT 7SM M04/M14 A3033 RMK T10401140 IEM_DS3505
ZBYN,1995-11-23 18:00,ZBYN 231800Z AUTO 20008KT 9SM M04/M13 A3030 RMK SLP309 T10361132 57018 IEM_DS3505
ZBYN,1995-11-23 19:00,ZBYN 231900Z AUTO 00000KT 7SM M05/M14 A3030 RMK T10501140 IEM_DS3505
ZBYN,1995-11-23 20:00,ZBYN 232000Z AUTO 09004KT 7SM M06/M14 A3027 RMK T10601140 IEM_DS3505
ZBYN,1995-11-23 21:00,ZBYN 232100Z AUTO 09004KT 9SM M06/M14 A3027 RMK SLP296 T10591136 57016 IEM_DS3505
ZBYN,1995-11-23 22:00,ZBYN 232200Z AUTO 11004KT 7SM M08/M13 A3024 RMK T10801130 IEM_DS3505
ZBYN,1995-11-23 23:00,ZBYN 232300Z AUTO 09006KT 7SM M08/M13 A3024 RMK T10801130 IEM_DS3505
ZBYN,1995-11-24 00:00,ZBYN 240000Z AUTO 14004KT 9SM M05/M14 A3024 RMK SLP292 T10541139 57005 IEM_DS3505
ZBYN,1995-11-24 01:00,ZBYN 240100Z AUTO 10006KT 7SM M05/M12 A3027 RMK T10501120 IEM_DS3505
ZBYN,1995-11-24 02:00,ZBYN 240200Z AUTO 18004KT 7SM 01/M19 A3024 RMK T00101190 IEM_DS3505
ZBYN,1995-11-24 03:00,ZBYN 240300Z AUTO 20008KT 6SM 02/M13 A3024 RMK SLP278 T00181131 57004 IEM_DS3505
ZBYN,1995-11-24 04:00,ZBYN 240400Z AUTO 23010KT 7SM 04/M10 A3018 RMK T00401100 IEM_DS3505
ZBYN,1995-11-24 05:00,ZBYN 240500Z AUTO 23008KT 7SM 05/M08 A3012 RMK T00501080 IEM_DS3505
ZBYN,1995-11-24 06:00,ZBYN 240600Z AUTO 20016KT 6SM 07/M15 A3010 RMK SLP228 T00661148 57037 IEM_DS3505
ZBYN,1995-11-24 07:00,ZBYN 240700Z AUTO 24012KT 7SM 07/M09 A3006 RMK T00701090 IEM_DS3505
ZBYN,1995-11-24 08:00,ZBYN 240800Z AUTO 24008KT 7SM 08/M07 A3006 RMK T00801070 IEM_DS3505
ZBYN,1995-11-24 09:00,ZBYN 240900Z AUTO 20010KT 9SM 06/M14 A3006 RMK SLP213 T00641145 57018 IEM_DS3505
ZBYN,1995-11-24 10:00,ZBYN 241000Z AUTO 12004KT 7SM 02/M03 A3003 RMK T00201030 IEM_DS3505
ZBYN,1995-11-24 11:00,ZBYN 241100Z AUTO 10004KT 7SM 00/M05 A3006 RMK T00001050 IEM_DS3505
ZBYN,1995-11-24 12:00,ZBYN 241200Z AUTO 11004KT 9SM 00/M10 A3006 RMK SLP226 T00011101 52002 IEM_DS3505
ZBYN,1995-11-24 13:00,ZBYN 241300Z AUTO 11004KT 7SM M02/M07 A3006 RMK T10201070 IEM_DS3505
ZBYN,1995-11-24 14:00,ZBYN 241400Z AUTO 09004KT 7SM M02/M07 A3009 RMK T10201070 IEM_DS3505
ZBYN,1995-11-24 15:00,ZBYN 241500Z AUTO 11006KT 7SM M02/M13 A3009 RMK SLP227 T10241127 52009 IEM_DS3505
ZBYN,1995-11-24 16:00,ZBYN 241600Z AUTO 00000KT 7SM M05/M08 A3009 RMK T10501080 IEM_DS3505
ZBYN,1995-11-24 17:00,ZBYN 241700Z AUTO 11006KT 7SM M05/M09 A3006 RMK T10501090 IEM_DS3505
ZBYN,1995-11-24 18:00,ZBYN 241800Z AUTO 27004KT 6SM M05/M11 A3006 RMK SLP219 T10481113 57003 IEM_DS3505
ZBYN,1995-11-24 19:00,ZBYN 241900Z AUTO 09012KT 7SM M06/M10 A3006 RMK T10601100 IEM_DS3505
ZBYN,1995-11-24 20:00,ZBYN 242000Z AUTO 09002KT 7SM M06/M10 A3003 RMK T10601100 IEM_DS3505
ZBYN,1995-11-24 21:00,ZBYN 242100Z AUTO 00000KT 6SM M06/M10 A3003 RMK SLP210 T10631100 57011 IEM_DS3505
ZBYN,1995-11-24 22:00,ZBYN 242200Z AUTO 09002KT 7SM M07/M10 A3003 RMK T10701100 IEM_DS3505
ZBYN,1995-11-24 23:00,ZBYN 242300Z AUTO 00000KT 6SM M07/M11 A3003 RMK T10701110 IEM_DS3505
ZBYN,1995-11-25 00:00,ZBYN 250000Z AUTO 14002KT 6SM M07/M10 A3003 RMK SLP225 T10691099 52002 IEM_DS3505
ZBYN,1995-11-25 01:00,ZBYN 250100Z AUTO 13004KT 5SM M04/M09 A3003 RMK T10401090 IEM_DS3505
ZBYN,1995-11-25 02:00,ZBYN 250200Z AUTO 17008KT 5SM 02/M09 A3003 RMK T00201090 IEM_DS3505
ZBYN,1995-11-25 03:00,ZBYN 250300Z AUTO 14008KT 5SM 03/M10 A3003 RMK SLP209 T00271104 57003 IEM_DS3505
ZBYN,1995-11-25 04:00,ZBYN 250400Z AUTO 21006KT 7SM 07/M08 A3000 RMK T00701080 IEM_DS3505
ZBYN,1995-11-25 05:00,ZBYN 250500Z AUTO 24010KT 6SM 08/M09 A2994 RMK T00801090 IEM_DS3505
ZBYN,1995-11-25 06:00,ZBYN 250600Z AUTO 20016KT 7SM 11/M15 A2994 RMK SLP168 T01061153 57028 IEM_DS3505
ZBYN,1995-11-25 07:00,ZBYN 250700Z AUTO 00000KT 4SM 09/M05 A2994 RMK T00901050 IEM_DS3505
ZBYN,1995-11-25 08:00,ZBYN 250800Z AUTO 24008KT 4SM 11/M08 A2991 RMK T01101080 IEM_DS3505
ZBYN,1995-11-25 09:00,ZBYN 250900Z AUTO 29016KT 12SM 10/M16 A2994 RMK SLP172 T01051156 52001 IEM_DS3505
ZBYN,1995-11-25 10:00,ZBYN 251000Z AUTO 29010KT 6SM 07/M12 A2997 RMK T00701120 IEM_DS3505
ZBYN,1995-11-25 11:00,ZBYN 251100Z AUTO 29010KT 6SM 06/M12 A3000 RMK T00601120 IEM_DS3505
ZBYN,1995-11-25 12:00,ZBYN 251200Z AUTO 36004KT 12SM 06/M14 A3006 RMK SLP217 T00631141 52033 IEM_DS3505
ZBYN,1995-11-25 13:00,ZBYN 251300Z AUTO 17006KT 7SM 05/M10 A3006 RMK T00501100 IEM_DS3505
ZBYN,1995-11-25 14:00,ZBYN 251400Z AUTO 27006KT 7SM 03/M11 A3009 RMK T00301110 IEM_DS3505
ZBYN,1995-11-25 15:00,ZBYN 251500Z AUTO 34002KT 9SM 05/M13 A3009 RMK SLP217 T00461131 52013 IEM_DS3505
ZBYN,1995-11-25 16:00,ZBYN 251600Z AUTO 00000KT 7SM M01/M09 A3012 RMK T10101090 IEM_DS3505
ZBYN,1995-11-25 17:00,ZBYN 251700Z AUTO 00000KT 7SM M01/M09 A3012 RMK T10101090 IEM_DS3505
ZBYN,1995-11-25 18:00,ZBYN 251800Z AUTO 27006KT 6SM 02/M13 A3015 RMK SLP219 T00201126 52010 IEM_DS3505
ZBYN,1995-11-25 20:00,ZBYN 252000Z AUTO 00000KT 7SM M04/M09 A3015 RMK T10401090 IEM_DS3505
ZBYN,1995-11-25 21:00,ZBYN 252100Z AUTO 14006KT 6SM M02/M12 A3015 RMK SLP240 T10231125 52012 IEM_DS3505
ZBYN,1995-11-25 22:00,ZBYN 252200Z AUTO 00000KT 7SM M05/M10 A3018 RMK T10501100 IEM_DS3505
ZBYN,1995-11-25 23:00,ZBYN 252300Z AUTO 00000KT 7SM M06/M12 A3021 RMK T10601120 IEM_DS3505
ZBYN,1995-11-26 00:00,ZBYN 260000Z AUTO 36002KT 6SM M04/M10 A3024 RMK SLP271 T10401101 52019 IEM_DS3505
ZBYN,1995-11-26 01:00,ZBYN 260100Z AUTO 00000KT 4SM M04/M09 A3024 RMK T10401090 IEM_DS3505
ZBYN,1995-11-26 02:00,ZBYN 260200Z AUTO 00000KT 4SM 00/M09 A3027 RMK T00001090 IEM_DS3505
ZBYN,1995-11-26 03:00,ZBYN 260300Z AUTO 25004KT 6SM 04/M09 A3027 RMK SLP269 T00351093 52007 IEM_DS3505
ZBYN,1995-11-26 04:00,ZBYN 260400Z AUTO 00000KT 2 1/2SM 06/M10 A3024 RMK T00601100 IEM_DS3505
ZBYN,1995-11-26 05:00,ZBYN 260500Z AUTO 23010KT 3SM 08/M10 A3021 RMK T00801100 IEM_DS3505
ZBYN,1995-11-26 06:00,ZBYN 260600Z AUTO 22008KT 6SM 07/M11 A3018 RMK SLP246 T00711109 57019 IEM_DS3505
ZBYN,1995-11-26 07:00,ZBYN 260700Z AUTO 24008KT 4SM 08/M09 A3018 RMK T00801090 IEM_DS3505
ZBYN,1995-11-26 08:00,ZBYN 260800Z AUTO 25004KT 4SM 07/M07 A3018 RMK T00701070 IEM_DS3505
ZBYN,1995-11-26 09:00,ZBYN 260900Z AUTO 14002KT 6SM 05/M10 A3018 RMK SLP253 T00491096 57004 IEM_DS3505
ZBYN,1995-11-26 10:00,ZBYN 261000Z AUTO 09004KT 3SM 02/M05 A3018 RMK T00201050 IEM_DS3505
ZBYN,1995-11-26 11:00,ZBYN 261100Z AUTO 09004KT 3SM M01/M06 A3021 RMK T10101060 IEM_DS3505
ZBYN,1995-11-26 12:00,ZBYN 261200Z AUTO 34004KT 6SM 00/M08 A3021 RMK SLP279 T00041079 52013 IEM_DS3505
ZBYN,1995-11-26 13:00,ZBYN 261300Z AUTO 16004KT 3SM M03/M10 A3024 RMK T10301100 IEM_DS3505
ZBYN,1995-11-26 14:00,ZBYN 261400Z AUTO 00000KT 5SM M03/M14 A3024 RMK T10301140 IEM_DS3505
ZBYN,1995-11-26 15:00,ZBYN 261500Z AUTO 11004KT 6SM M02/M09 A3024 RMK SLP280 T10161086 52010 IEM_DS3505
ZBYN,1995-11-26 16:00,ZBYN 261600Z AUTO 00000KT 7SM M04/M09 A3027 RMK T10401090 IEM_DS3505
ZBYN,1995-11-26 17:00,ZBYN 261700Z AUTO 09004KT 7SM M04/M09 A3027 RMK T10401090 IEM_DS3505
ZBYN,1995-11-26 18:00,ZBYN 261800Z AUTO 00000KT 6SM M03/M09 A3027 RMK SLP281 T10341092 52004 IEM_DS3505
ZBYN,1995-11-26 19:00,ZBYN 261900Z AUTO 00000KT 7SM M05/M10 A3027 RMK T10501100 IEM_DS3505
ZBYN,1995-11-26 21:00,ZBYN 262100Z AUTO 00000KT 6SM M04/M10 A3024 RMK SLP283 T10411098 57003 IEM_DS3505
ZBYN,1995-11-26 22:00,ZBYN 262200Z AUTO 00000KT 7SM M06/M10 A3024 RMK T10601100 IEM_DS3505
ZBYN,1995-11-26 23:00,ZBYN 262300Z AUTO 00000KT 7SM M06/M10 A3024 RMK T10601100 IEM_DS3505
ZBYN,1995-11-27 00:00,ZBYN 270000Z AUTO 00000KT 4SM M07/M09 A3027 RMK SLP303 T10681093 52006 IEM_DS3505
ZBYN,1995-11-27 01:00,ZBYN 270100Z AUTO 00000KT 3SM M05/M10 A3027 RMK T10501100 IEM_DS3505
ZBYN,1995-11-27 02:00,ZBYN 270200Z AUTO 00000KT 1 1/2SM M02/M08 A3027 RMK T10201080 IEM_DS3505
ZBYN,1995-11-27 03:00,ZBYN 270300Z AUTO 14002KT 4SM 01/M09 A3027 RMK SLP288 T00121088 57003 IEM_DS3505
ZBYN,1995-11-27 04:00,ZBYN 270400Z AUTO 00000KT 2 1/2SM 04/M07 A3024 RMK T00401070 IEM_DS3505
ZBYN,1995-11-27 05:00,ZBYN 270500Z AUTO 21004KT 5SM 07/M07 A3018 RMK T00701070 IEM_DS3505
ZBYN,1995-11-27 06:00,ZBYN 270600Z AUTO 00000KT 5SM 06/M10 A3015 RMK SLP245 T00641097 57034 IEM_DS3505
ZBYN,1995-11-27 07:00,ZBYN 270700Z AUTO 00000KT 5SM 08/M07 A3012 RMK T00801070 IEM_DS3505
ZBYN,1995-11-27 08:00,ZBYN 270800Z AUTO 00000KT 5SM 08/M05 A3012 RMK T00801050 IEM_DS3505
ZBYN,1995-11-27 09:00,ZBYN 270900Z AUTO 20002KT 5SM 06/M08 A3012 RMK SLP236 T00551084 57011 IEM_DS3505
ZBYN,1995-11-27 10:00,ZBYN 271000Z AUTO 00000KT 5SM 03/M05 A3012 RMK T00301050 IEM_DS3505
ZBYN,1995-11-27 11:00,ZBYN 271100Z AUTO 00000KT 4SM M02/M05 A3015 RMK T10201050 IEM_DS3505
ZBYN,1995-11-27 12:00,ZBYN 271200Z AUTO 34004KT 6SM M00/M06 A3015 RMK SLP263 T10041065 52011 IEM_DS3505
ZBYN,1995-11-27 13:00,ZBYN 271300Z AUTO 00000KT 7SM M04/M09 A3015 RMK T10401090 IEM_DS3505
ZBYN,1995-11-27 14:00,ZBYN 271400Z AUTO 00000KT 7SM M04/M09 A3018 RMK T10401090 IEM_DS3505
ZBYN,1995-11-27 15:00,ZBYN 271500Z AUTO 36004KT 6SM M02/M09 A3018 RMK SLP256 T10151091 52005 IEM_DS3505
ZBYN,1995-11-27 16:00,ZBYN 271600Z AUTO 00000KT 7SM M05/M10 A3018 RMK T10501100 IEM_DS3505
ZBYN,1995-11-27 17:00,ZBYN 271700Z AUTO 10004KT 7SM M05/M10 A3018 RMK T10501100 IEM_DS3505
ZBYN,1995-11-27 18:00,ZBYN 271800Z AUTO 34002KT 6SM M04/M10 A3018 RMK SLP254 T10381098 52003 IEM_DS3505
ZBYN,1995-11-27 19:00,ZBYN 271900Z AUTO 00000KT 7SM M06/M11 A3018 RMK T10601110 IEM_DS3505
ZBYN,1995-11-27 21:00,ZBYN 272100Z AUTO 34006KT 6SM M02/M13 A3015 RMK SLP252 T10211127 57001 IEM_DS3505
ZBYN,1995-11-27 22:00,ZBYN 272200Z AUTO 00000KT 7SM M06/M10 A3018 RMK T10601100 IEM_DS3505
ZBYN,1995-11-28 00:00,ZBYN 280000Z AUTO 02002KT 16SM M02/M12 A3018 RMK SLP268 T10151116 52006 IEM_DS3505
ZBYN,1995-11-28 01:00,ZBYN 280100Z AUTO 11004KT 4SM M03/M08 A3021 RMK T10301080 IEM_DS3505
ZBYN,1995-11-28 02:00,ZBYN 280200Z AUTO 00000KT 4SM 00/M07 A3021 RMK T00001070 IEM_DS3505
ZBYN,1995-11-28 03:00,ZBYN 280300Z AUTO 36004KT 4SM 03/M12 A3021 RMK SLP261 T00321119 54000 IEM_DS3505
ZBYN,1995-11-28 04:00,ZBYN 280400Z AUTO 00000KT 2SM 06/M06 A3018 RMK T00601060 IEM_DS3505
ZBYN,1995-11-28 05:00,ZBYN 280500Z AUTO 31004KT 2 1/2SM 08/M07 A3015 RMK T00801070 IEM_DS3505
ZBYN,1995-11-28 06:00,ZBYN 280600Z AUTO 14004KT 4SM 08/M09 A3012 RMK SLP236 T00831093 57019 IEM_DS3505
ZBYN,1995-11-28 07:00,ZBYN 280700Z AUTO 25006KT 6SM 07/M07 A3012 RMK T00701070 IEM_DS3505
ZBYN,1995-11-28 08:00,ZBYN 280800Z AUTO 24004KT 6SM 06/M06 A3015 RMK T00601060 IEM_DS3505
ZBYN,1995-11-28 09:00,ZBYN 280900Z AUTO 18004KT 4SM 05/M07 A3015 RMK SLP244 T00481074 52005 IEM_DS3505
ZBYN,1995-11-28 10:00,ZBYN 281000Z AUTO 00000KT 4SM 03/M04 A3018 RMK T00301040 IEM_DS3505
ZBYN,1995-11-28 11:00,ZBYN 281100Z AUTO 00000KT 3SM 02/M05 A3018 RMK T00201050 IEM_DS3505
ZBYN,1995-11-28 12:00,ZBYN 281200Z AUTO 14004KT 6SM 03/M06 A3021 RMK SLP266 T00271056 52016 IEM_DS3505
ZBYN,1995-11-28 13:00,ZBYN 281300Z AUTO 00000KT 3SM 01/M04 A3024 RMK T00101040 IEM_DS3505
ZBYN,1995-11-28 14:00,ZBYN 281400Z AUTO 00000KT 2 1/2SM 00/M04 A3024 RMK T00001040 IEM_DS3505
ZBYN,1995-11-28 15:00,ZBYN 281500Z AUTO 00000KT 6SM 00/M05 A3024 RMK SLP269 T00051053 52008 IEM_DS3505
ZBYN,1995-11-28 16:00,ZBYN 281600Z AUTO 00000KT 3SM 01/M05 A3024 RMK T00101050 IEM_DS3505
ZBYN,1995-11-28 17:00,ZBYN 281700Z AUTO 00000KT 3SM 01/M05 A3024 RMK T00101050 IEM_DS3505
ZBYN,1995-11-28 18:00,ZBYN 281800Z AUTO 36004KT 6SM 02/M05 A3027 RMK SLP263 T00171049 52005 IEM_DS3505
ZBYN,1995-11-28 19:00,ZBYN 281900Z AUTO 00000KT 3SM 00/M05 A3024 RMK T00001050 IEM_DS3505
ZBYN,1995-11-28 20:00,ZBYN 282000Z AUTO 00000KT 4SM 01/M04 A3027 RMK T00101040 IEM_DS3505
ZBYN,1995-11-28 21:00,ZBYN 282100Z AUTO 02002KT 6SM 02/M06 A3027 RMK SLP273 T00221061 52004 IEM_DS3505
ZBYN,1995-11-28 22:00,ZBYN 282200Z AUTO 00000KT 4SM 00/M04 A3027 RMK T00001040 IEM_DS3505
ZBYN,1995-11-28 23:00,ZBYN 282300Z AUTO 00000KT 3SM 00/M04 A3027 RMK T00001040 IEM_DS3505
ZBYN,1995-11-29 00:00,ZBYN 290000Z AUTO 36004KT 6SM 02/M07 A3030 RMK SLP292 T00181071 52012 IEM_DS3505
ZBYN,1995-11-29 01:00,ZBYN 290100Z AUTO 00000KT 1SM 01/M04 A3033 RMK T00101040 IEM_DS3505
ZBYN,1995-11-29 02:00,ZBYN 290200Z AUTO 00000KT 1SM 03/M03 A3033 RMK T00301030 IEM_DS3505
ZBYN,1995-11-29 03:00,ZBYN 290300Z AUTO 36004KT 5SM 06/M07 RMK SLP295 T00571068 52007 IEM_DS3505
ZBYN,1995-11-29 04:00,ZBYN 290400Z AUTO 00000KT 1SM 07/M04 A3030 RMK T00701040 IEM_DS3505
ZBYN,1995-11-29 05:00,ZBYN 290500Z AUTO 00000KT 1 1/2SM 09/M06 A3027 RMK T00901060 IEM_DS3505
ZBYN,1995-11-29 06:00,ZBYN 290600Z AUTO 18002KT 5SM 10/M06 A3027 RMK SLP265 T01041064 57018 IEM_DS3505
ZBYN,1995-11-29 07:00,ZBYN 290700Z AUTO 00000KT 1 1/2SM 11/M04 A3024 RMK T01101040 IEM_DS3505
ZBYN,1995-11-29 08:00,ZBYN 290800Z AUTO 00000KT 2 1/2SM 10/M03 A3024 RMK T01001030 IEM_DS3505
ZBYN,1995-11-29 09:00,ZBYN 290900Z AUTO 22004KT 5SM 07/M04 A3024 RMK SLP267 T00741036 57002 IEM_DS3505
ZBYN,1995-11-29 10:00,ZBYN 291000Z AUTO 00000KT 2 1/2SM 06/M02 A3027 RMK T00601020 IEM_DS3505
ZBYN,1995-11-29 11:00,ZBYN 291100Z AUTO 09004KT 3SM 03/M03 A3027 RMK T00301030 IEM_DS3505
ZBYN,1995-11-29 12:00,ZBYN 291200Z AUTO 00000KT 6SM 01/M04 A3030 RMK SLP289 T00131040 52009 IEM_DS3505
ZBYN,1995-11-29 13:00,ZBYN 291300Z AUTO 00000KT 4SM 00/M04 A3033 RMK T00001040 IEM_DS3505
ZBYN,1995-11-29 14:00,ZBYN 291400Z AUTO 00000KT 4SM M01/M04 A3033 RMK T10101040 IEM_DS3505
ZBYN,1995-11-29 15:00,ZBYN 291500Z AUTO 00000KT 5SM M01/M05 A3033 RMK SLP307 T10131051 52019 IEM_DS3505
ZBYN,1995-11-29 16:00,ZBYN 291600Z AUTO 00000KT 4SM M02/M05 A3036 RMK T10201050 IEM_DS3505
ZBYN,1995-11-29 17:00,ZBYN 291700Z AUTO 10004KT 4SM M02/M05 A3036 RMK T10201050 IEM_DS3505
ZBYN,1995-11-29 18:00,ZBYN 291800Z AUTO 00000KT 5SM M01/M05 A3033 RMK SLP299 T10141049 54000 IEM_DS3505
ZBYN,1995-11-29 19:00,ZBYN 291900Z AUTO 00000KT 4SM M02/M05 A3033 RMK T10201050 IEM_DS3505
ZBYN,1995-11-29 20:00,ZBYN 292000Z AUTO 00000KT 6SM M02/M05 A3033 RMK T10201050 IEM_DS3505
ZBYN,1995-11-29 21:00,ZBYN 292100Z AUTO 32004KT 6SM M02/M07 A3033 RMK SLP305 T10161067 54000 IEM_DS3505
ZBYN,1995-11-29 22:00,ZBYN 292200Z AUTO 00000KT 4SM M04/M06 A3033 RMK T10401060 IEM_DS3505
ZBYN,1995-11-29 23:00,ZBYN 292300Z AUTO 00000KT 2 1/2SM M04/M06 A3036 RMK T10401060 IEM_DS3505
ZBYN,1995-11-30 00:00,ZBYN 300000Z AUTO 00000KT 6SM M03/M05 A3039 RMK SLP335 T10331054 52015 IEM_DS3505
ZBYN,1995-11-30 01:00,ZBYN 300100Z AUTO 00000KT 1SM M02/M05 A3039 RMK T10201050 IEM_DS3505
ZBYN,1995-11-30 02:00,ZBYN 300200Z AUTO 00000KT 1SM 01/M05 A3039 RMK T00101050 IEM_DS3505
ZBYN,1995-11-30 03:00,ZBYN 300300Z AUTO 22004KT 4SM 05/M09 A3036 RMK SLP314 T00491087 57010 IEM_DS3505
ZBYN,1995-11-30 04:00,ZBYN 300400Z AUTO 00000KT 1 1/4SM 06/M04 A3033 RMK T00601040 IEM_DS3505
ZBYN,1995-11-30 05:00,ZBYN 300500Z AUTO 00000KT 1 1/4SM 09/M02 A3030 RMK T00901020 IEM_DS3505
ZBYN,1995-11-30 06:00,ZBYN 300600Z AUTO 02002KT 3SM 10/M07 A3030 RMK SLP277 T00981067 57026 IEM_DS3505
ZBYN,1995-11-30 07:00,ZBYN 300700Z AUTO 23004KT 1SM 08/M01 A3027 RMK T00801010 IEM_DS3505
ZBYN,1995-11-30 08:00,ZBYN 300800Z AUTO 24006KT 1SM 07/M01 A3027 RMK T00701010 IEM_DS3505
ZBYN,1995-11-30 09:00,ZBYN 300900Z AUTO 18006KT 3SM 06/M05 A3030 RMK SLP284 T00601050 54000 IEM_DS3505
ZBYN,1995-11-30 10:00,ZBYN 301000Z AUTO 00000KT 1 1/4SM 05/00 A3030 RMK T00500000 IEM_DS3505
ZBYN,1995-11-30 11:00,ZBYN 301100Z AUTO 13004KT 1 1/2SM 04/00 A3033 RMK T00400000 IEM_DS3505
ZBYN,1995-11-30 12:00,ZBYN 301200Z AUTO 11039KT 6SM 04/M03 A3033 RMK SLP311 T00381028 52018 IEM_DS3505
ZBYN,1995-11-30 13:00,ZBYN 301300Z AUTO 23006KT 1 1/4SM 03/M02 A3033 RMK T00301020 IEM_DS3505
ZBYN,1995-11-30 14:00,ZBYN 301400Z AUTO 18006KT 1 1/4SM 03/M01 A3036 RMK T00301010 IEM_DS3505
ZBYN,1995-11-30 15:00,ZBYN 301500Z AUTO 09002KT 6SM 03/M03 RMK SLP304 T00301028 52006 IEM_DS3505
ZBYN,1995-11-30 16:00,ZBYN 301600Z AUTO 12004KT 4SM 03/M01 A3036 RMK T00301010 IEM_DS3505
ZBYN,1995-11-30 17:00,ZBYN 301700Z AUTO 13006KT 4SM 02/M02 A3033 RMK T00201020 IEM_DS3505
ZBYN,1995-11-30 18:00,ZBYN 301800Z AUTO 11004KT 6SM 03/M03 A3033 RMK SLP288 T00261030 57008 IEM_DS3505
ZBYN,1995-11-30 19:00,ZBYN 301900Z AUTO 12004KT 6SM 02/M02 A3033 RMK T00201020 IEM_DS3505
ZBYN,1995-11-30 20:00,ZBYN 302000Z AUTO 09004KT 6SM 02/M01 A3033 RMK T00201010 IEM_DS3505
ZBYN,1995-11-30 21:00,ZBYN 302100Z AUTO 00000KT 6SM 02/M02 A3033 RMK SLP294 T00181024 57002 IEM_DS3505
ZBYN,1995-11-30 22:00,ZBYN 302200Z AUTO 00000KT 2SM 01/M02 A3033 RMK T00101020 IEM_DS3505
ZBYN,1995-11-30 23:00,ZBYN 302300Z AUTO 10002KT 2SM M01/M02 A3033 RMK T10101020 IEM_DS3505
ZBYN,1995-12-01 00:00,ZBYN 010000Z AUTO 20002KT 4SM M01/M02 A3033 RMK SLP307 T10081025 52004 IEM_DS3505
ZBYN,1995-12-01 01:00,ZBYN 010100Z AUTO 00000KT 1SM 00/M02 A3033 RMK T00001020 IEM_DS3505
ZBYN,1995-12-01 02:00,ZBYN 010200Z AUTO 00000KT 1SM 01/M01 A3033 RMK T00101010 IEM_DS3505
ZBYN,1995-12-01 03:00,ZBYN 010300Z AUTO 09002KT 3SM 04/M01 A3033 RMK SLP300 T00401007 52001 IEM_DS3505
ZBYN,1995-12-01 04:00,ZBYN 010400Z AUTO 00000KT 1SM 06/01 A3030 RMK T00600010 IEM_DS3505
ZBYN,1995-12-01 05:00,ZBYN 010500Z AUTO 23002KT 1SM 07/01 A3027 RMK T00700010 IEM_DS3505
ZBYN,1995-12-01 06:00,ZBYN 010600Z AUTO 20004KT 4SM 08/M00 A3024 RMK SLP262 T00831002 57029 IEM_DS3505
ZBYN,1995-12-01 07:00,ZBYN 010700Z AUTO 26006KT 1SM 08/01 A3024 RMK T00800010 IEM_DS3505
ZBYN,1995-12-01 08:00,ZBYN 010800Z AUTO 27004KT 1SM 07/02 A3024 RMK T00700020 IEM_DS3505
ZBYN,1995-12-01 09:00,ZBYN 010900Z AUTO 22004KT 4SM 06/M04 A3024 RMK SLP266 T00611041 57001 IEM_DS3505
ZBYN,1995-12-01 10:00,ZBYN 011000Z AUTO 00000KT 1SM 05/01 A3024 RMK T00500010 IEM_DS3505
ZBYN,1995-12-01 11:00,ZBYN 011100Z AUTO 00000KT 1SM 02/M03 A3027 RMK T00201030 IEM_DS3505
ZBYN,1995-12-01 12:00,ZBYN 011200Z AUTO 34004KT 5SM 02/M06 A3027 RMK SLP287 T00231055 52009 IEM_DS3505
ZBYN,1995-12-01 14:00,ZBYN 011400Z AUTO 00000KT 1SM M01/M04 A3030 RMK T10101040 IEM_DS3505
ZBYN,1995-12-01 15:00,ZBYN 011500Z AUTO 34004KT 6SM 02/M06 RMK SLP293 T00161065 52012 IEM_DS3505
ZBYN,1995-12-01 16:00,ZBYN 011600Z AUTO 00000KT 1SM M02/M04 A3033 RMK T10201040 IEM_DS3505
ZBYN,1995-12-01 17:00,ZBYN 011700Z AUTO 00000KT 1SM M03/M05 A3033 RMK T10301050 IEM_DS3505
ZBYN,1995-12-01 18:00,ZBYN 011800Z AUTO 36006KT 6SM 02/M07 A3033 RMK SLP289 T00161070 52003 IEM_DS3505
ZBYN,1995-12-01 19:00,ZBYN 011900Z AUTO 00000KT 1SM M03/M05 A3033 RMK T10301050 IEM_DS3505
ZBYN,1995-12-01 20:00,ZBYN 012000Z AUTO 00000KT 1SM M03/M06 A3033 RMK T10301060 IEM_DS3505
ZBYN,1995-12-01 21:00,ZBYN 012100Z AUTO 36006KT 6SM 00/M08 A3033 RMK SLP293 T00041075 57002 IEM_DS3505
ZBYN,1995-12-01 22:00,ZBYN 012200Z AUTO 00000KT 1SM M03/M05 A3033 RMK T10301050 IEM_DS3505
ZBYN,1995-12-01 23:00,ZBYN 012300Z AUTO 00000KT 1SM M03/M06 A3033 RMK T10301060 IEM_DS3505
ZBYN,1995-12-02 00:00,ZBYN 020000Z AUTO 36006KT 6SM M01/M08 A3033 RMK SLP309 T10121080 52006 IEM_DS3505
ZBYN,1995-12-02 01:00,ZBYN 020100Z AUTO 00000KT 1 1/2SM M03/M07 A3036 RMK T10301070 IEM_DS3505
ZBYN,1995-12-02 02:00,ZBYN 020200Z AUTO 00000KT 2SM 01/M05 A3033 RMK T00101050 IEM_DS3505
ZBYN,1995-12-02 03:00,ZBYN 020300Z AUTO 36008KT 6SM 04/M12 A3033 RMK SLP305 T00371118 52003 IEM_DS3505
ZBYN,1995-12-02 04:00,ZBYN 020400Z AUTO 35006KT 6SM 05/M13 A3030 RMK T00501130 IEM_DS3505
ZBYN,1995-12-02 05:00,ZBYN 020500Z AUTO 02006KT 6SM 06/M13 A3027 RMK T00601130 IEM_DS3505
ZBYN,1995-12-02 06:00,ZBYN 020600Z AUTO 07008KT 6SM 06/M14 A3024 RMK SLP269 T00601144 57029 IEM_DS3505
ZBYN,1995-12-02 07:00,ZBYN 020700Z AUTO 30004KT 7SM 07/M09 A3024 RMK T00701090 IEM_DS3505
ZBYN,1995-12-02 08:00,ZBYN 020800Z AUTO 32006KT 6SM 06/M09 A3024 RMK T00601090 IEM_DS3505
ZBYN,1995-12-02 09:00,ZBYN 020900Z AUTO 02008KT 6SM 04/M14 A3027 RMK SLP285 T00411144 52010 IEM_DS3505
ZBYN,1995-12-02 10:00,ZBYN 021000Z AUTO 32006KT 6SM 02/M12 A3027 RMK T00201120 IEM_DS3505
ZBYN,1995-12-02 11:00,ZBYN 021100Z AUTO 04004KT 6SM 03/ A3030 RMK IEM_DS3505
ZBYN,1995-12-02 12:00,ZBYN 021200Z AUTO 34006KT 6SM 00/M14 A3033 RMK SLP311 T00011145 52014 IEM_DS3505
ZBYN,1995-12-02 13:00,ZBYN 021300Z AUTO 31004KT 7SM 00/M13 A3033 RMK T00001130 IEM_DS3505
ZBYN,1995-12-02 14:00,ZBYN 021400Z AUTO 34006KT 7SM 00/M21 A3036 RMK T00001210 IEM_DS3505
ZBYN,1995-12-02 15:00,ZBYN 021500Z AUTO 36008KT 6SM M01/M15 A3036 RMK SLP317 T10101150 52012 IEM_DS3505
ZBYN,1995-12-02 16:00,ZBYN 021600Z AUTO 35006KT 7SM M02/M14 A3039 RMK T10201140 IEM_DS3505
ZBYN,1995-12-02 17:00,ZBYN 021700Z AUTO 33008KT 7SM M02/M14 A3036 RMK T10201140 IEM_DS3505
ZBYN,1995-12-02 18:00,ZBYN 021800Z AUTO 36008KT 6SM M02/M14 A3036 RMK SLP320 T10231140 52004 IEM_DS3505
ZBYN,1995-12-02 19:00,ZBYN 021900Z AUTO 34006KT 7SM M03/M14 A3036 RMK T10301140 IEM_DS3505
ZBYN,1995-12-02 20:00,ZBYN 022000Z AUTO 35004KT 7SM M03/M12 A3036 RMK T10301120 IEM_DS3505
ZBYN,1995-12-02 21:00,ZBYN 022100Z AUTO 36004KT 6SM M04/M14 A3036 RMK SLP320 T10361138 57005 IEM_DS3505
ZBYN,1995-12-02 22:00,ZBYN 022200Z AUTO 00000KT 7SM M08/M13 A3036 RMK T10801130 IEM_DS3505
ZBYN,1995-12-02 23:00,ZBYN 022300Z AUTO 00000KT 7SM M09/M13 A3036 RMK T10901130 IEM_DS3505
ZBYN,1995-12-03 00:00,ZBYN 030000Z AUTO 36004KT 6SM M06/M13 A3036 RMK SLP337 T10651134 52004 IEM_DS3505
ZBYN,1995-12-03 01:00,ZBYN 030100Z AUTO 00000KT 2SM M07/M13 A3039 RMK T10701130 IEM_DS3505
ZBYN,1995-12-03 02:00,ZBYN 030200Z AUTO 00000KT 4SM M03/M12 A3039 RMK T10301120 IEM_DS3505
ZBYN,1995-12-03 03:00,ZBYN 030300Z AUTO 00000KT 6SM M00/M15 A3036 RMK SLP325 T10031148 52002 IEM_DS3505
ZBYN,1995-12-03 04:00,ZBYN 030400Z AUTO 27006KT 4SM 00/M13 A3033 RMK T00001130 IEM_DS3505
ZBYN,1995-12-03 05:00,ZBYN 030500Z AUTO 24012KT 4SM 02/M13 A3030 RMK T00201130 IEM_DS3505
ZBYN,1995-12-03 06:00,ZBYN 030600Z AUTO 18010KT 7SM 02/M13 A3027 RMK SLP279 T00251134 57037 IEM_DS3505
ZBYN,1995-12-03 07:00,ZBYN 030700Z AUTO 23014KT 7SM 04/M11 A3024 RMK T00401110 IEM_DS3505
ZBYN,1995-12-03 08:00,ZBYN 030800Z AUTO 24010KT 7SM 03/M13 A3021 RMK T00301130 IEM_DS3505
ZBYN,1995-12-03 09:00,ZBYN 030900Z AUTO 32010KT 9SM 02/M16 A3024 RMK SLP281 T00251163 57007 IEM_DS3505
ZBYN,1995-12-03 10:00,ZBYN 031000Z AUTO 30006KT 7SM 00/M12 A3024 RMK T00001120 IEM_DS3505
ZBYN,1995-12-03 11:00,ZBYN 031100Z AUTO 31008KT 7SM 00/M16 A3027 RMK T00001160 IEM_DS3505
ZBYN,1995-12-03 12:00,ZBYN 031200Z AUTO 32012KT 7SM M00/M21 A3030 RMK SLP308 T10031207 52015 IEM_DS3505
ZBYN,1995-12-03 13:00,ZBYN 031300Z AUTO 32010KT 7SM M01/M14 A3030 RMK T10101140 IEM_DS3505
ZBYN,1995-12-03 14:00,ZBYN 031400Z AUTO 27004KT 7SM M02/M09 A3030 RMK T10201090 IEM_DS3505
ZBYN,1995-12-03 15:00,ZBYN 031500Z AUTO 32006KT 6SM M03/M18 A3033 RMK SLP310 T10271184 52008 IEM_DS3505
ZBYN,1995-12-03 16:00,ZBYN 031600Z AUTO 28008KT 7SM M03/M16 A3033 RMK T10301160 IEM_DS3505
ZBYN,1995-12-03 17:00,ZBYN 031700Z AUTO 29004KT 7SM M03/M16 A3030 RMK T10301160 IEM_DS3505
ZBYN,1995-12-03 18:00,ZBYN 031800Z AUTO 00000KT 6SM M05/M15 A3030 RMK SLP306 T10471152 57002 IEM_DS3505
ZBYN,1995-12-03 19:00,ZBYN 031900Z AUTO 12004KT 7SM M08/M14 A3030 RMK T10801140 IEM_DS3505
ZBYN,1995-12-03 20:00,ZBYN 032000Z AUTO 00000KT 7SM M09/M14 A3030 RMK T10901140 IEM_DS3505
ZBYN,1995-12-03 21:00,ZBYN 032100Z AUTO 18002KT 6SM M09/M15 A3030 RMK SLP316 T10871149 52002 IEM_DS3505
ZBYN,1995-12-03 22:00,ZBYN 032200Z AUTO 00000KT 7SM M10/M16 A3033 RMK T11001160 IEM_DS3505
ZBYN,1995-12-03 23:00,ZBYN 032300Z AUTO 10004KT 7SM M11/M15 A3033 RMK T11101150 IEM_DS3505
ZBYN,1995-12-04 00:00,ZBYN 040000Z AUTO 00000KT 9SM M09/M13 A3033 RMK SLP326 T10861130 52005 IEM_DS3505
ZBYN,1995-12-04 01:00,ZBYN 040100Z AUTO 10004KT 7SM M07/M13 A3033 RMK T10701130 IEM_DS3505
ZBYN,1995-12-04 02:00,ZBYN 040200Z AUTO 16006KT 7SM M02/M10 A3036 RMK T10201100 IEM_DS3505
ZBYN,1995-12-04 03:00,ZBYN 040300Z AUTO 14006KT 6SM 00/M12 A3033 RMK SLP319 T00031121 52004 IEM_DS3505
ZBYN,1995-12-04 04:00,ZBYN 040400Z AUTO 00000KT 7SM 03/M15 A3030 RMK T00301150 IEM_DS3505
ZBYN,1995-12-04 05:00,ZBYN 040500Z AUTO 24008KT 7SM 04/M15 A3027 RMK T00401150 IEM_DS3505
ZBYN,1995-12-04 06:00,ZBYN 040600Z AUTO 22008KT 12SM 05/M18 A3024 RMK SLP281 T00511179 57029 IEM_DS3505
ZBYN,1995-12-04 07:00,ZBYN 040700Z AUTO 23014KT 7SM 05/M14 A3021 RMK T00501140 IEM_DS3505
ZBYN,1995-12-04 08:00,ZBYN 040800Z AUTO 22014KT 7SM 05/M12 A3021 RMK T00501120 IEM_DS3505
ZBYN,1995-12-04 09:00,ZBYN 040900Z AUTO 32014KT 12SM 04/M18 A3024 RMK SLP285 T00351176 57006 IEM_DS3505
ZBYN,1995-12-04 10:00,ZBYN 041000Z AUTO 32006KT 7SM 02/M14 A3027 RMK T00201140 IEM_DS3505
ZBYN,1995-12-04 11:00,ZBYN 041100Z AUTO 33004KT 7SM M01/M09 A3030 RMK T10101090 IEM_DS3505
ZBYN,1995-12-04 12:00,ZBYN 041200Z AUTO 34004KT 12SM M01/M19 A3033 RMK SLP325 T10071190 52029 IEM_DS3505
ZBYN,1995-12-04 13:00,ZBYN 041300Z AUTO 33006KT 7SM 00/M18 A3033 RMK T00001180 IEM_DS3505
ZBYN,1995-12-04 15:00,ZBYN 041500Z AUTO 07004KT 12SM M03/M18 A3036 RMK SLP329 T10301183 52015 IEM_DS3505
ZBYN,1995-12-04 16:00,ZBYN 041600Z AUTO 15004KT 7SM M07/M16 A3039 RMK T10701160 IEM_DS3505
ZBYN,1995-12-04 17:00,ZBYN 041700Z AUTO 15004KT 7SM M07/M17 A3039 RMK T10701170 IEM_DS3505
ZBYN,1995-12-04 18:00,ZBYN 041800Z AUTO 36004KT 9SM M04/M17 A3039 RMK SLP330 T10441168 52007 IEM_DS3505
ZBYN,1995-12-04 19:00,ZBYN 041900Z AUTO 00000KT 7SM M08/M15 A3039 RMK T10801150 IEM_DS3505
ZBYN,1995-12-04 20:00,ZBYN 042000Z AUTO 00000KT 7SM M08/M16 A3039 RMK T10801160 IEM_DS3505
ZBYN,1995-12-04 21:00,ZBYN 042100Z AUTO 02006KT 7SM M04/M17 A3042 RMK SLP337 T10451170 52003 IEM_DS3505
ZBYN,1995-12-04 22:00,ZBYN 042200Z AUTO 00000KT 7SM M07/M15 A3042 RMK T10701150 IEM_DS3505
ZBYN,1995-12-04 23:00,ZBYN 042300Z AUTO 33006KT 7SM M06/M16 A3042 RMK T10601160 IEM_DS3505
ZBYN,1995-12-05 00:00,ZBYN 050000Z AUTO 32004KT 9SM M08/M17 A3045 RMK SLP369 T10821168 52016 IEM_DS3505
ZBYN,1995-12-05 01:00,ZBYN 050100Z AUTO 33006KT 7SM M05/M17 A3047 RMK T10501170 IEM_DS3505
ZBYN,1995-12-05 02:00,ZBYN 050200Z AUTO 34006KT 7SM M03/M17 A3047 RMK T10301170 IEM_DS3505
ZBYN,1995-12-05 03:00,ZBYN 050300Z AUTO 04002KT 6SM M02/M19 A3047 RMK SLP373 T10201193 52010 IEM_DS3505
ZBYN,1995-12-05 04:00,ZBYN 050400Z AUTO 04002KT 7SM 00/M16 A3047 RMK T00001160 IEM_DS3505
ZBYN,1995-12-05 05:00,ZBYN 050500Z AUTO 31006KT 7SM 00/M18 A3042 RMK T00001180 IEM_DS3505
ZBYN,1995-12-05 06:00,ZBYN 050600Z AUTO 22006KT 6SM 02/M20 A3042 RMK SLP341 T00161204 57025 IEM_DS3505
ZBYN,1995-12-05 07:00,ZBYN 050700Z AUTO 27004KT 7SM 01/M16 A3039 RMK T00101160 IEM_DS3505
ZBYN,1995-12-05 08:00,ZBYN 050800Z AUTO 23006KT 7SM 01/M13 A3039 RMK T00101130 IEM_DS3505
ZBYN,1995-12-05 09:00,ZBYN 050900Z AUTO 02006KT 6SM 00/M18 A3042 RMK SLP344 T00011185 54000 IEM_DS3505
ZBYN,1995-12-05 10:00,ZBYN 051000Z AUTO 00000KT 7SM M02/M15 A3042 RMK T10201150 IEM_DS3505
ZBYN,1995-12-05 11:00,ZBYN 051100Z AUTO 32006KT 7SM M02/M15 A3045 RMK T10201150 IEM_DS3505
ZBYN,1995-12-05 12:00,ZBYN 051200Z AUTO 36006KT 6SM M03/M16 A3045 RMK SLP380 T10341161 52020 IEM_DS3505
ZBYN,1995-12-05 13:00,ZBYN 051300Z AUTO 34008KT 7SM M02/M16 A3047 RMK T10201160 IEM_DS3505
ZBYN,1995-12-05 14:00,ZBYN 051400Z AUTO 34006KT 7SM M03/M16 A3047 RMK T10301160 IEM_DS3505
ZBYN,1995-12-05 15:00,ZBYN 051500Z AUTO 34004KT 6SM M04/M17 A3050 RMK SLP377 T10361166 52008 IEM_DS3505
ZBYN,1995-12-05 16:00,ZBYN 051600Z AUTO 00000KT 7SM M06/M14 A3047 RMK T10601140 IEM_DS3505
ZBYN,1995-12-05 17:00,ZBYN 051700Z AUTO 00000KT 7SM M06/M15 A3047 RMK T10601150 IEM_DS3505
ZBYN,1995-12-05 18:00,ZBYN 051800Z AUTO 02002KT 6SM M05/M16 A3047 RMK SLP366 T10481155 57006 IEM_DS3505
ZBYN,1995-12-05 19:00,ZBYN 051900Z AUTO 00000KT 7SM M07/M16 A3047 RMK T10701160 IEM_DS3505
ZBYN,1995-12-05 20:00,ZBYN 052000Z AUTO 00000KT 7SM M10/M16 A3045 RMK T11001160 IEM_DS3505
ZBYN,1995-12-05 21:00,ZBYN 052100Z AUTO 00000KT 6SM M08/M14 A3045 RMK SLP370 T10851141 57005 IEM_DS3505
ZBYN,1995-12-05 22:00,ZBYN 052200Z AUTO 00000KT 7SM M10/M16 A3045 RMK T11001160 IEM_DS3505
ZBYN,1995-12-05 23:00,ZBYN 052300Z AUTO 00000KT 7SM M11/M14 A3045 RMK T11101140 IEM_DS3505
ZBYN,1995-12-06 00:00,ZBYN 060000Z AUTO 00000KT 6SM M11/M14 A3047 RMK SLP384 T11101138 52002 IEM_DS3505
ZBYN,1995-12-06 01:00,ZBYN 060100Z AUTO 00000KT 7SM M09/M14 A3047 RMK T10901140 IEM_DS3505
ZBYN,1995-12-06 02:00,ZBYN 060200Z AUTO 00000KT 2 1/2SM M05/M13 A3047 RMK T10501130 IEM_DS3505
ZBYN,1995-12-06 03:00,ZBYN 060300Z AUTO 34002KT 6SM M02/M16 A3047 RMK SLP372 T10171160 52005 IEM_DS3505
ZBYN,1995-12-06 04:00,ZBYN 060400Z AUTO 23006KT 5SM M01/M17 A3045 RMK T10101170 IEM_DS3505
ZBYN,1995-12-06 05:00,ZBYN 060500Z AUTO 23008KT 5SM 01/M18 A3042 RMK T00101180 IEM_DS3505
ZBYN,1995-12-06 06:00,ZBYN 060600Z AUTO 16004KT 6SM 01/M16 A3039 RMK SLP344 T00081165 57024 IEM_DS3505
ZBYN,1995-12-06 07:00,ZBYN 060700Z AUTO 00000KT 7SM 02/M15 A3039 RMK T00201150 IEM_DS3505
ZBYN,1995-12-06 08:00,ZBYN 060800Z AUTO 00000KT 7SM 01/M14 A3039 RMK T00101140 IEM_DS3505
ZBYN,1995-12-06 09:00,ZBYN 060900Z AUTO 00000KT 6SM M01/M11 A3039 RMK SLP350 T10101110 57002 IEM_DS3505
ZBYN,1995-12-06 10:00,ZBYN 061000Z AUTO 03004KT 7SM M02/M15 A3042 RMK T10201150 IEM_DS3505
ZBYN,1995-12-06 11:00,ZBYN 061100Z AUTO 05006KT 7SM M03/M14 A3042 RMK T10301140 IEM_DS3505
ZBYN,1995-12-06 12:00,ZBYN 061200Z AUTO 32004KT 6SM M04/M15 A3045 RMK SLP381 T10361151 52018 IEM_DS3505
ZBYN,1995-12-06 13:00,ZBYN 061300Z AUTO 00000KT 7SM M04/M13 A3047 RMK T10401130 IEM_DS3505
ZBYN,1995-12-06 14:00,ZBYN 061400Z AUTO 00000KT 7SM M06/M10 A3047 RMK T10601100 IEM_DS3505
ZBYN,1995-12-06 15:00,ZBYN 061500Z AUTO 34004KT 7SM M04/M13 A3050 RMK SLP378 T10401128 52012 IEM_DS3505
ZBYN,1995-12-06 16:00,ZBYN 061600Z AUTO 00000KT 7SM M06/M15 A3050 RMK T10601150 IEM_DS3505
ZBYN,1995-12-06 17:00,ZBYN 061700Z AUTO 00000KT 7SM M07/M14 A3050 RMK T10701140 IEM_DS3505
ZBYN,1995-12-06 18:00,ZBYN 061800Z AUTO 36006KT 7SM M05/M12 A3047 RMK SLP375 T10541123 54000 IEM_DS3505
ZBYN,1995-12-06 19:00,ZBYN 061900Z AUTO 00000KT 7SM M08/M14 A3050 RMK T10801140 IEM_DS3505
ZBYN,1995-12-06 20:00,ZBYN 062000Z AUTO 00000KT 7SM M07/M15 A3050 RMK T10701150 IEM_DS3505
ZBYN,1995-12-06 21:00,ZBYN 062100Z AUTO 36004KT 7SM M08/M13 A3050 RMK SLP383 T10781131 52001 IEM_DS3505
ZBYN,1995-12-06 22:00,ZBYN 062200Z AUTO 00000KT 7SM M08/M16 A3050 RMK T10801160 IEM_DS3505
ZBYN,1995-12-06 23:00,ZBYN 062300Z AUTO 00000KT 7SM M11/M16 A3050 RMK T11101160 IEM_DS3505
ZBYN,1995-12-07 00:00,ZBYN 070000Z AUTO 00000KT 7SM M11/M14 A3053 RMK SLP407 T11061143 52011 IEM_DS3505
ZBYN,1995-12-07 01:00,ZBYN 070100Z AUTO 09006KT 4SM M09/M15 A3053 RMK T10901150 IEM_DS3505
ZBYN,1995-12-07 02:00,ZBYN 070200Z AUTO 00000KT 4SM M05/M14 A3053 RMK T10501140 IEM_DS3505
ZBYN,1995-12-07 03:00,ZBYN 070300Z AUTO 18004KT 6SM M02/M14 A3053 RMK SLP399 T10191143 52007 IEM_DS3505
ZBYN,1995-12-07 04:00,ZBYN 070400Z AUTO 21006KT 4SM M01/M15 A3053 RMK T10101150 IEM_DS3505
ZBYN,1995-12-07 05:00,ZBYN 070500Z AUTO 21004KT 7SM 01/M16 A3050 RMK T00101160 IEM_DS3505
ZBYN,1995-12-07 06:00,ZBYN 070600Z AUTO 14004KT 6SM 01/M15 A3047 RMK SLP367 T00121154 57026 IEM_DS3505
ZBYN,1995-12-07 07:00,ZBYN 070700Z AUTO 27006KT 7SM 02/M18 A3045 RMK T00201180 IEM_DS3505
ZBYN,1995-12-07 08:00,ZBYN 070800Z AUTO 00000KT 7SM 02/M14 A3045 RMK T00201140 IEM_DS3505
ZBYN,1995-12-07 09:00,ZBYN 070900Z AUTO 09004KT 6SM M00/M15 A3045 RMK SLP368 T10051146 57006 IEM_DS3505
ZBYN,1995-12-07 10:00,ZBYN 071000Z AUTO 12004KT 7SM M03/M13 A3047 RMK T10301130 IEM_DS3505
ZBYN,1995-12-07 11:00,ZBYN 071100Z AUTO 00000KT 7SM M05/M15 A3047 RMK T10501150 IEM_DS3505
ZBYN,1995-12-07 12:00,ZBYN 071200Z AUTO 34004KT 4SM M04/M13 A3047 RMK SLP391 T10411129 52010 IEM_DS3505
ZBYN,1995-12-07 13:00,ZBYN 071300Z AUTO 00000KT 7SM M08/M15 A3050 RMK T10801150 IEM_DS3505
ZBYN,1995-12-07 14:00,ZBYN 071400Z AUTO 09006KT 7SM M08/M13 A3050 RMK T10801130 IEM_DS3505
ZBYN,1995-12-07 15:00,ZBYN 071500Z AUTO 34004KT 4SM M04/M14 A3050 RMK SLP383 T10431139 52007 IEM_DS3505
ZBYN,1995-12-07 16:00,ZBYN 071600Z AUTO 00000KT 7SM M10/M16 A3050 RMK T11001160 IEM_DS3505
ZBYN,1995-12-07 18:00,ZBYN 071800Z AUTO 00000KT 6SM M09/M15 A3047 RMK SLP375 T10891152 57010 IEM_DS3505
ZBYN,1995-12-07 19:00,ZBYN 071900Z AUTO 14004KT 7SM M11/M16 A3047 RMK T11101160 IEM_DS3505
ZBYN,1995-12-07 20:00,ZBYN 072000Z AUTO 00000KT 7SM M12/M16 A3047 RMK T11201160 IEM_DS3505
ZBYN,1995-12-07 21:00,ZBYN 072100Z AUTO 00000KT 6SM M10/M13 A3047 RMK SLP380 T11041127 57001 IEM_DS3505
ZBYN,1995-12-07 22:00,ZBYN 072200Z AUTO 15004KT 7SM M12/M16 A3047 RMK T11201160 IEM_DS3505
ZBYN,1995-12-07 23:00,ZBYN 072300Z AUTO 00000KT 7SM M11/M16 A3047 RMK T11101160 IEM_DS3505
ZBYN,1995-12-08 00:00,ZBYN 080000Z AUTO 32002KT 5SM M10/M13 A3047 RMK SLP389 T11011130 52003 IEM_DS3505
ZBYN,1995-12-08 01:00,ZBYN 080100Z AUTO 00000KT 5SM M10/M13 A3047 RMK T11001130 IEM_DS3505
ZBYN,1995-12-08 02:00,ZBYN 080200Z AUTO 00000KT 4SM M07/M13 A3047 RMK T10701130 IEM_DS3505
ZBYN,1995-12-08 03:00,ZBYN 080300Z AUTO 32004KT 5SM M04/M16 A3045 RMK SLP367 T10391157 57010 IEM_DS3505
ZBYN,1995-12-08 04:00,ZBYN 080400Z AUTO 00000KT 4SM M01/M16 A3039 RMK T10101160 IEM_DS3505
ZBYN,1995-12-08 05:00,ZBYN 080500Z AUTO 00000KT 2SM 01/M13 A3033 RMK T00101130 IEM_DS3505
ZBYN,1995-12-08 06:00,ZBYN 080600Z AUTO 09002KT 6SM 02/M15 A3030 RMK SLP312 T00231153 57047 IEM_DS3505
ZBYN,1995-12-08 07:00,ZBYN 080700Z AUTO 30004KT 7SM 05/M16 A3027 RMK T00501160 IEM_DS3505
ZBYN,1995-12-08 08:00,ZBYN 080800Z AUTO 24006KT 7SM 04/M18 A3027 RMK T00401180 IEM_DS3505
ZBYN,1995-12-08 09:00,ZBYN 080900Z AUTO 18004KT 6SM 01/M14 A3027 RMK SLP312 T00101137 57005 IEM_DS3505
ZBYN,1995-12-08 10:00,ZBYN 081000Z AUTO 16004KT 4SM M02/M10 A3027 RMK T10201100 IEM_DS3505
ZBYN,1995-12-08 11:00,ZBYN 081100Z AUTO 00000KT 4SM M03/M12 A3027 RMK T10301120 IEM_DS3505
ZBYN,1995-12-08 12:00,ZBYN 081200Z AUTO 00000KT 6SM M03/M11 A3027 RMK SLP315 T10301110 57003 IEM_DS3505
ZBYN,1995-12-08 13:00,ZBYN 081300Z AUTO 00000KT 4SM M04/M11 A3030 RMK T10401110 IEM_DS3505
ZBYN,1995-12-08 14:00,ZBYN 081400Z AUTO 00000KT 4SM M03/M12 A3027 RMK T10301120 IEM_DS3505
ZBYN,1995-12-08 15:00,ZBYN 081500Z AUTO 32004KT 5SM M01/M14 A3027 RMK SLP302 T10081145 52002 IEM_DS3505
ZBYN,1995-12-08 16:00,ZBYN 081600Z AUTO 00000KT 4SM M02/M11 A3027 RMK T10201110 IEM_DS3505
ZBYN,1995-12-08 17:00,ZBYN 081700Z AUTO 00000KT 4SM M02/M10 A3027 RMK T10201100 IEM_DS3505
ZBYN,1995-12-08 18:00,ZBYN 081800Z AUTO 18004KT 5SM M01/M15 A3027 RMK SLP289 T10101149 57002 IEM_DS3505
ZBYN,1995-12-08 19:00,ZBYN 081900Z AUTO 00000KT 4SM M02/M08 A3027 RMK T10201080 IEM_DS3505
ZBYN,1995-12-08 20:00,ZBYN 082000Z AUTO 00000KT 4SM M03/M07 A3024 RMK T10301070 IEM_DS3505
ZBYN,1995-12-08 21:00,ZBYN 082100Z AUTO 00000KT 6SM M03/M10 A3024 RMK SLP286 T10291099 57008 IEM_DS3505
ZBYN,1995-12-08 22:00,ZBYN 082200Z AUTO 15004KT 4SM M03/M05 A3024 RMK T10301050 IEM_DS3505
ZBYN,1995-12-08 23:00,ZBYN 082300Z AUTO 12004KT 4SM M04/M09 A3024 RMK T10401090 IEM_DS3505
ZBYN,1995-12-09 00:00,ZBYN 090000Z AUTO 00000KT 4SM M04/M11 A3024 RMK SLP290 T10371106 57004 IEM_DS3505
ZBYN,1995-12-09 01:00,ZBYN 090100Z AUTO 00000KT 4SM M02/M13 A3024 RMK T10201130 IEM_DS3505
ZBYN,1995-12-09 02:00,ZBYN 090200Z AUTO 00000KT 4SM M01/M13 A3027 RMK T10101130 IEM_DS3505
ZBYN,1995-12-09 04:00,ZBYN 090400Z AUTO 25004KT 5SM 01/M12 A3021 RMK T00101120 IEM_DS3505
ZBYN,1995-12-09 05:00,ZBYN 090500Z AUTO 00000KT 2 1/2SM 02/M11 A3018 RMK T00201110 IEM_DS3505
ZBYN,1995-12-09 06:00,ZBYN 090600Z AUTO 14006KT 6SM 03/M13 A3015 RMK SLP249 T00301134 57030 IEM_DS3505
ZBYN,1995-12-09 07:00,ZBYN 090700Z AUTO 21004KT 2 1/2SM 05/M11 A3012 RMK T00501110 IEM_DS3505
ZBYN,1995-12-09 08:00,ZBYN 090800Z AUTO 00000KT 1 1/2SM 02/M09 A3012 RMK T00201090 IEM_DS3505
ZBYN,1995-12-09 09:00,ZBYN 090900Z AUTO 14004KT 6SM 00/M11 A3012 RMK SLP254 T00001110 57003 IEM_DS3505
ZBYN,1995-12-09 10:00,ZBYN 091000Z AUTO 10004KT 1 1/4SM M02/M08 A3018 RMK T10201080 IEM_DS3505
ZBYN,1995-12-09 11:00,ZBYN 091100Z AUTO 10004KT 2SM M04/M11 A3015 RMK T10401110 IEM_DS3505
ZBYN,1995-12-09 12:00,ZBYN 091200Z AUTO 00000KT 6SM M03/M10 A3018 RMK SLP271 T10281097 52009 IEM_DS3505
ZBYN,1995-12-09 13:00,ZBYN 091300Z AUTO 00000KT 2SM M03/M11 A3018 RMK T10301110 IEM_DS3505
ZBYN,1995-12-09 14:00,ZBYN 091400Z AUTO 00000KT 2SM M05/M11 A3018 RMK T10501110 IEM_DS3505
ZBYN,1995-12-09 15:00,ZBYN 091500Z AUTO 34002KT 6SM M03/M10 A3018 RMK SLP267 T10281097 52001 IEM_DS3505
ZBYN,1995-12-09 16:00,ZBYN 091600Z AUTO 00000KT 2 1/2SM M05/M11 A3021 RMK T10501110 IEM_DS3505
ZBYN,1995-12-09 18:00,ZBYN 091800Z AUTO 00000KT 6SM M04/M10 A3021 RMK SLP266 T10391104 52004 IEM_DS3505
ZBYN,1995-12-09 19:00,ZBYN 091900Z AUTO 00000KT 2 1/2SM M07/M12 A3021 RMK T10701120 IEM_DS3505
ZBYN,1995-12-09 20:00,ZBYN 092000Z AUTO 00000KT 2 1/2SM M07/M11 A3018 RMK T10701110 IEM_DS3505
ZBYN,1995-12-09 21:00,ZBYN 092100Z AUTO 00000KT 6SM M05/M11 A3018 RMK SLP270 T10501106 57003 IEM_DS3505
ZBYN,1995-12-09 22:00,ZBYN 092200Z AUTO 00000KT 2 1/2SM M05/M09 A3018 RMK T10501090 IEM_DS3505
ZBYN,1995-12-09 23:00,ZBYN 092300Z AUTO 00000KT 2SM M04/M09 A3018 RMK T10401090 IEM_DS3505
ZBYN,1995-12-10 00:00,ZBYN 100000Z AUTO 16004KT 4SM M03/M08 A3018 RMK SLP272 T10311079 54000 IEM_DS3505
ZBYN,1995-12-10 01:00,ZBYN 100100Z AUTO 00000KT 1 1/4SM M03/M08 A3018 RMK T10301080 IEM_DS3505
ZBYN,1995-12-10 02:00,ZBYN 100200Z AUTO 00000KT 1 1/4SM M02/M08 A3021 RMK T10201080 IEM_DS3505
ZBYN,1995-12-10 03:00,ZBYN 100300Z AUTO 14004KT 4SM M02/M09 A3021 RMK SLP275 T10151086 52005 IEM_DS3505
ZBYN,1995-12-10 04:00,ZBYN 100400Z AUTO 00000KT 1 1/4SM 00/M07 A3021 RMK T00001070 IEM_DS3505
ZBYN,1995-12-10 05:00,ZBYN 100500Z AUTO 14004KT 1SM 01/M07 A3015 RMK T00101070 IEM_DS3505
ZBYN,1995-12-10 06:00,ZBYN 100600Z AUTO 11006KT 4SM 00/M08 A3015 RMK SLP256 T00001080 57016 IEM_DS3505
ZBYN,1995-12-10 07:00,ZBYN 100700Z AUTO 14002KT 1SM 02/M07 A3012 RMK T00201070 IEM_DS3505
ZBYN,1995-12-10 08:00,ZBYN 100800Z AUTO 00000KT 1SM 02/M07 A3012 RMK T00201070 IEM_DS3505
ZBYN,1995-12-10 09:00,ZBYN 100900Z AUTO 00000KT 2 1/2SM 01/M08 A3015 RMK SLP253 T00061079 57004 IEM_DS3505
ZBYN,1995-12-10 10:00,ZBYN 101000Z AUTO 00000KT 1SM 01/M07 A3015 RMK T00101070 IEM_DS3505
ZBYN,1995-12-10 11:00,ZBYN 101100Z AUTO 00000KT 1SM M01/M07 A3018 RMK T10101070 IEM_DS3505
ZBYN,1995-12-10 12:00,ZBYN 101200Z AUTO 00000KT 3SM M03/M07 A3021 RMK SLP279 T10281071 52021 IEM_DS3505
ZBYN,1995-12-10 13:00,ZBYN 101300Z AUTO 09006KT 1SM M04/M08 A3021 RMK T10401080 IEM_DS3505
ZBYN,1995-12-10 14:00,ZBYN 101400Z AUTO 10006KT 1SM M04/M08 A3024 RMK T10401080 IEM_DS3505
ZBYN,1995-12-10 15:00,ZBYN 101500Z AUTO 34004KT 4SM M03/M07 A3024 RMK SLP293 T10321072 52015 IEM_DS3505
ZBYN,1995-12-10 16:00,ZBYN 101600Z AUTO 00000KT 1SM M05/M09 A3024 RMK T10501090 IEM_DS3505
ZBYN,1995-12-10 17:00,ZBYN 101700Z AUTO 00000KT 1SM M04/M09 A3024 RMK T10401090 IEM_DS3505
ZBYN,1995-12-10 18:00,ZBYN 101800Z AUTO 32004KT 6SM M02/M07 A3024 RMK SLP288 T10241074 57001 IEM_DS3505
ZBYN,1995-12-10 19:00,ZBYN 101900Z AUTO 00000KT 1SM M04/M07 A3024 RMK T10401070 IEM_DS3505
ZBYN,1995-12-10 20:00,ZBYN 102000Z AUTO 09004KT 1SM M04/M07 A3024 RMK T10401070 IEM_DS3505
ZBYN,1995-12-10 21:00,ZBYN 102100Z AUTO 00000KT 4SM M04/M07 A3024 RMK SLP290 T10411068 54000 IEM_DS3505
ZBYN,1995-12-10 22:00,ZBYN 102200Z AUTO 00000KT 1SM M05/M09 A3027 RMK T10501090 IEM_DS3505
ZBYN,1995-12-10 23:00,ZBYN 102300Z AUTO 00000KT 1SM M05/M09 A3027 RMK T10501090 IEM_DS3505
ZBYN,1995-12-11 00:00,ZBYN 110000Z AUTO 36004KT 1 1/4SM M05/M07 A3030 RMK SLP307 T10481073 52009 IEM_DS3505
ZBYN,1995-12-11 01:00,ZBYN 110100Z AUTO 00000KT 1/2SM M07/M09 A3030 RMK T10701090 IEM_DS3505
ZBYN,1995-12-11 02:00,ZBYN 110200Z AUTO 00000KT 1SM M03/M07 A3030 RMK T10301070 IEM_DS3505
ZBYN,1995-12-11 03:00,ZBYN 110300Z AUTO 32002KT 3SM 04/M08 A3030 RMK SLP299 T00351078 52006 IEM_DS3505
ZBYN,1995-12-11 04:00,ZBYN 110400Z AUTO 30004KT 1 1/2SM 03/M07 A3030 RMK T00301070 IEM_DS3505
ZBYN,1995-12-11 05:00,ZBYN 110500Z AUTO 36006KT 7SM 07/M15 A3024 RMK T00701150 IEM_DS3505
ZBYN,1995-12-11 06:00,ZBYN 110600Z AUTO 02006KT 5SM 07/M15 A3024 RMK SLP268 T00701152 57021 IEM_DS3505
ZBYN,1995-12-11 07:00,ZBYN 110700Z AUTO 03012KT 6SM 08/M14 A3021 RMK T00801140 IEM_DS3505
ZBYN,1995-12-11 08:00,ZBYN 110800Z AUTO 33006KT 6SM 08/M16 A3021 RMK T00801160 IEM_DS3505
ZBYN,1995-12-11 09:00,ZBYN 110900Z AUTO 34008KT 6SM 06/M22 A3024 RMK SLP274 T00561224 54000 IEM_DS3505
ZBYN,1995-12-11 10:00,ZBYN 111000Z AUTO 33006KT 6SM 03/M13 A3024 RMK T00301130 IEM_DS3505
ZBYN,1995-12-11 11:00,ZBYN 111100Z AUTO 32006KT 7SM 02/M14 A3027 RMK T00201140 IEM_DS3505
ZBYN,1995-12-11 12:00,ZBYN 111200Z AUTO 32006KT 6SM M01/M15 A3030 RMK SLP314 T10121154 52024 IEM_DS3505
ZBYN,1995-12-11 13:00,ZBYN 111300Z AUTO 09004KT 7SM M04/M15 A3033 RMK T10401150 IEM_DS3505
ZBYN,1995-12-11 14:00,ZBYN 111400Z AUTO 00000KT 7SM M04/M14 A3033 RMK T10401140 IEM_DS3505
ZBYN,1995-12-11 15:00,ZBYN 111500Z AUTO 36002KT 6SM M03/M18 A3036 RMK SLP313 T10341176 52009 IEM_DS3505
ZBYN,1995-12-11 16:00,ZBYN 111600Z AUTO 00000KT 7SM M05/M14 A3036 RMK T10501140 IEM_DS3505
ZBYN,1995-12-11 18:00,ZBYN 111800Z AUTO 36004KT 6SM M03/M15 A3033 RMK SLP305 T10271146 54000 IEM_DS3505
ZBYN,1995-12-11 19:00,ZBYN 111900Z AUTO 10004KT 7SM M07/M13 A3033 RMK T10701130 IEM_DS3505
ZBYN,1995-12-11 20:00,ZBYN 112000Z AUTO 00000KT 7SM M07/M13 A3033 RMK T10701130 IEM_DS3505
ZBYN,1995-12-11 21:00,ZBYN 112100Z AUTO 32004KT 6SM M05/M15 A3033 RMK SLP309 T10481154 57002 IEM_DS3505
ZBYN,1995-12-11 22:00,ZBYN 112200Z AUTO 00000KT 5SM M09/M13 A3033 RMK T10901130 IEM_DS3505
ZBYN,1995-12-11 23:00,ZBYN 112300Z AUTO 00000KT 5SM M09/M14 A3033 RMK T10901140 IEM_DS3505
ZBYN,1995-12-12 00:00,ZBYN 120000Z AUTO 36004KT 6SM M04/M17 A3036 RMK SLP327 T10441168 52005 IEM_DS3505
ZBYN,1995-12-12 01:00,ZBYN 120100Z AUTO 00000KT 2SM M08/M12 A3033 RMK T10801120 IEM_DS3505
ZBYN,1995-12-12 02:00,ZBYN 120200Z AUTO 00000KT 2 1/2SM M04/M12 A3033 RMK T10401120 IEM_DS3505
ZBYN,1995-12-12 03:00,ZBYN 120300Z AUTO 34008KT 6SM 00/M17 A3033 RMK T00041167 52005 IEM_DS3505
ZBYN,1995-12-12 04:00,ZBYN 120400Z AUTO 31006KT 2SM 02/M14 A3030 RMK T00201140 IEM_DS3505
ZBYN,1995-12-12 05:00,ZBYN 120500Z AUTO 35006KT 2SM 03/M11 A3027 RMK T00301110 IEM_DS3505
ZBYN,1995-12-12 06:00,ZBYN 120600Z AUTO 36006KT 4SM 04/M15 A3024 RMK SLP273 T00371151 57043 IEM_DS3505
ZBYN,1995-12-12 07:00,ZBYN 120700Z AUTO 01004KT 2 1/2SM 04/M10 A3021 RMK T00401100 IEM_DS3505
ZBYN,1995-12-12 08:00,ZBYN 120800Z AUTO 33004KT 2 1/2SM 04/M10 A3018 RMK T00401100 IEM_DS3505
ZBYN,1995-12-12 09:00,ZBYN 120900Z AUTO 36004KT 4SM 03/M14 A3018 RMK SLP256 T00331140 57019 IEM_DS3505
ZBYN,1995-12-12 10:00,ZBYN 121000Z AUTO 33004KT 3SM 02/M11 A3018 RMK T00201110 IEM_DS3505
ZBYN,1995-12-12 11:00,ZBYN 121100Z AUTO 00000KT 3SM 02/M09 A3018 RMK T00201090 IEM_DS3505
ZBYN,1995-12-12 12:00,ZBYN 121200Z AUTO 32002KT 4SM 02/M12 A3018 RMK SLP267 T00171120 52008 IEM_DS3505
ZBYN,1995-12-12 13:00,ZBYN 121300Z AUTO 00000KT 2 1/2SM 02/M09 A3021 RMK T00201090 IEM_DS3505
ZBYN,1995-12-12 14:00,ZBYN 121400Z AUTO 17006KT 2 1/2SM 01/M08 A3021 RMK T00101080 IEM_DS3505
ZBYN,1995-12-12 15:00,ZBYN 121500Z AUTO 09004KT 4SM 00/M08 A3021 RMK SLP266 T00011083 52004 IEM_DS3505
ZBYN,1995-12-12 16:00,ZBYN 121600Z AUTO 00000KT 2 1/2SM 00/M07 A3021 RMK T00001070 IEM_DS3505
ZBYN,1995-12-12 17:00,ZBYN 121700Z AUTO 18008KT 2SM 00/M08 A3018 RMK T00001080 IEM_DS3505
ZBYN,1995-12-12 18:00,ZBYN 121800Z AUTO 20010KT 3SM 00/M05 A3018 RMK SLP250 T00051048 57008 IEM_DS3505
ZBYN,1995-12-12 19:00,ZBYN 121900Z AUTO 23010KT 6SM 00/M05 A3015 RMK T00001050 IEM_DS3505
ZBYN,1995-12-12 20:00,ZBYN 122000Z AUTO 20004KT 6SM 00/M04 A3015 RMK T00001040 IEM_DS3505
ZBYN,1995-12-12 21:00,ZBYN 122100Z AUTO 16010KT 5SM M00/M05 A3012 RMK SLP235 T10041046 57016 IEM_DS3505
ZBYN,1995-12-12 22:00,ZBYN 122200Z AUTO 15006KT 4SM M01/M04 A3012 RMK T10101040 IEM_DS3505
ZBYN,1995-12-12 23:00,ZBYN 122300Z AUTO 12004KT 1 1/4SM M03/M04 A3012 RMK T10301040 IEM_DS3505
ZBYN,1995-12-13 00:00,ZBYN 130000Z AUTO 07004KT 4SM M03/M06 A3012 RMK SLP245 T10301058 52002 IEM_DS3505
ZBYN,1995-12-13 01:00,ZBYN 130100Z AUTO 00000KT 1SM M04/M05 A3015 RMK T10401050 IEM_DS3505
ZBYN,1995-12-13 02:00,ZBYN 130200Z AUTO 18002KT 1SM M01/M04 A3015 RMK T10101040 IEM_DS3505
ZBYN,1995-12-13 03:00,ZBYN 130300Z AUTO 14006KT 4SM 00/M04 A3015 RMK SLP249 T00021041 52006 IEM_DS3505
ZBYN,1995-12-13 04:00,ZBYN 130400Z AUTO 00000KT 1SM 02/M03 A3012 RMK T00201030 IEM_DS3505
ZBYN,1995-12-13 05:00,ZBYN 130500Z AUTO 22004KT 1 1/4SM 02/M04 A3009 RMK T00201040 IEM_DS3505
ZBYN,1995-12-13 06:00,ZBYN 130600Z AUTO 14006KT 4SM 03/M05 A3006 RMK SLP216 T00261047 57025 IEM_DS3505
ZBYN,1995-12-13 07:00,ZBYN 130700Z AUTO 00000KT 1 1/4SM 04/M04 A3003 RMK T00401040 IEM_DS3505
ZBYN,1995-12-13 08:00,ZBYN 130800Z AUTO 22008KT 1 1/2SM 03/M06 A3006 RMK T00301060 IEM_DS3505
ZBYN,1995-12-13 09:00,ZBYN 130900Z AUTO 14004KT 4SM 02/M07 A3006 RMK SLP216 T00231067 57002 IEM_DS3505
ZBYN,1995-12-13 10:00,ZBYN 131000Z AUTO 10004KT 1 1/2SM M01/M06 A3006 RMK T10101060 IEM_DS3505
ZBYN,1995-12-13 11:00,ZBYN 131100Z AUTO 10004KT 2 1/2SM M03/M07 A3006 RMK T10301070 IEM_DS3505
ZBYN,1995-12-13 12:00,ZBYN 131200Z AUTO 27004KT 6SM M02/M06 A3009 RMK SLP239 T10161061 52010 IEM_DS3505
ZBYN,1995-12-13 13:00,ZBYN 131300Z AUTO 00000KT 2 1/2SM M03/M08 A3012 RMK T10301080 IEM_DS3505
ZBYN,1995-12-13 14:00,ZBYN 131400Z AUTO 00000KT 6SM M03/M08 A3015 RMK T10301080 IEM_DS3505
ZBYN,1995-12-13 15:00,ZBYN 131500Z AUTO 00000KT 6SM M04/M07 A3018 RMK T10401070 IEM_DS3505
ZBYN,1995-12-13 17:00,ZBYN 131700Z AUTO 19004KT 6SM M03/M09 A3015 RMK T10301090 IEM_DS3505
ZBYN,1995-12-13 18:00,ZBYN 131800Z AUTO 00000KT 6SM M02/M08 A3015 RMK SLP250 T10191075 57001 IEM_DS3505
ZBYN,1995-12-13 19:00,ZBYN 131900Z AUTO 00000KT 6SM M03/M09 A3015 RMK T10301090 IEM_DS3505
ZBYN,1995-12-13 20:00,ZBYN 132000Z AUTO 32010KT 6SM M02/M09 A3015 RMK T10201090 IEM_DS3505
ZBYN,1995-12-13 21:00,ZBYN 132100Z AUTO 29008KT 6SM 00/M08 A3012 RMK SLP240 T00021081 57006 IEM_DS3505
ZBYN,1995-12-13 22:00,ZBYN 132200Z AUTO 32014KT 6SM 00/M10 A3015 RMK T00001100 IEM_DS3505
ZBYN,1995-12-13 23:00,ZBYN 132300Z AUTO 33008KT 6SM M01/M12 A3018 RMK T10101120 IEM_DS3505
ZBYN,1995-12-14 00:00,ZBYN 140000Z AUTO 29021KT 1/8SM A3024 RMK 57017 IEM_DS3505
ZBYN,1995-12-14 01:00,ZBYN 140100Z AUTO 32014KT 7SM M01/M15 A3024 RMK T10101150 IEM_DS3505
ZBYN,1995-12-14 02:00,ZBYN 140200Z AUTO 31017KT 7SM 00/M16 A3024 RMK T00001160 IEM_DS3505
ZBYN,1995-12-14 03:00,ZBYN 140300Z AUTO 29010KT 12SM 00/M13 A3024 RMK SLP280 T00041131 52010 IEM_DS3505
ZBYN,1995-12-14 04:00,ZBYN 140400Z AUTO 29016KT 7SM 02/ A3024 RMK IEM_DS3505
ZBYN,1995-12-14 05:00,ZBYN 140500Z AUTO 33016KT 7SM 03/M14 A3021 RMK T00301140 IEM_DS3505
ZBYN,1995-12-14 06:00,ZBYN 140600Z AUTO 27010KT 12SM 03/M16 A3021 RMK SLP273 T00291159 57007 IEM_DS3505
ZBYN,1995-12-14 07:00,ZBYN 140700Z AUTO 32012KT 6SM 03/M16 A3021 RMK T00301160 IEM_DS3505
ZBYN,1995-12-14 08:00,ZBYN 140800Z AUTO 33017KT 6SM 02/M17 A3021 RMK T00201170 IEM_DS3505
ZBYN,1995-12-14 09:00,ZBYN 140900Z AUTO 32017KT 6SM 01/M28 A3024 RMK T00101280 IEM_DS3505
ZBYN,1995-12-14 10:00,ZBYN 141000Z AUTO 31017KT 6SM 00/M25 A3027 RMK T00001250 IEM_DS3505
ZBYN,1995-12-14 11:00,ZBYN 141100Z AUTO 29010KT 6SM 02/ A3030 RMK IEM_DS3505
ZBYN,1995-12-14 12:00,ZBYN 141200Z AUTO 34008KT 12SM M01/M20 A3033 RMK SLP310 T10111203 52026 IEM_DS3505
ZBYN,1995-12-14 13:00,ZBYN 141300Z AUTO 32008KT 6SM M02/M21 A3036 RMK T10201210 IEM_DS3505
ZBYN,1995-12-14 14:00,ZBYN 141400Z AUTO 00000KT 6SM M02/M22 A3036 RMK T10201220 IEM_DS3505
ZBYN,1995-12-14 15:00,ZBYN 141500Z AUTO 32002KT 11SM M04/M20 A3036 RMK SLP330 T10351196 52017 IEM_DS3505
ZBYN,1995-12-14 16:00,ZBYN 141600Z AUTO 36004KT 7SM M04/M22 A3033 RMK T10401220 IEM_DS3505
ZBYN,1995-12-14 18:00,ZBYN 141800Z AUTO 36004KT 9SM M04/M18 A3033 RMK SLP317 T10441175 57009 IEM_DS3505
ZBYN,1995-12-14 19:00,ZBYN 141900Z AUTO 09006KT 7SM M09/M18 A3033 RMK T10901180 IEM_DS3505
ZBYN,1995-12-14 21:00,ZBYN 142100Z AUTO 16002KT 9SM M10/M22 A3036 RMK SLP333 T11021215 52001 IEM_DS3505
ZBYN,1995-12-14 22:00,ZBYN 142200Z AUTO 11004KT 7SM M11/M19 A3036 RMK T11101190 IEM_DS3505
ZBYN,1995-12-14 23:00,ZBYN 142300Z AUTO 11004KT 7SM M11/M20 A3039 RMK T11101200 IEM_DS3505
ZBYN,1995-12-15 00:00,ZBYN 150000Z AUTO 18004KT 6SM M09/M18 A3039 RMK SLP349 T10921178 52013 IEM_DS3505
ZBYN,1995-12-15 01:00,ZBYN 150100Z AUTO 00000KT 6SM M10/M20 A3042 RMK T11001200 IEM_DS3505
ZBYN,1995-12-15 02:00,ZBYN 150200Z AUTO 00000KT 5SM M05/M16 A3042 RMK T10501160 IEM_DS3505
ZBYN,1995-12-15 03:00,ZBYN 150300Z AUTO 32004KT 6SM M03/M19 A3039 RMK SLP346 T10291189 52004 IEM_DS3505
ZBYN,1995-12-15 04:00,ZBYN 150400Z AUTO 00000KT 5SM M01/M18 A3036 RMK T10101180 IEM_DS3505
ZBYN,1995-12-15 05:00,ZBYN 150500Z AUTO 00000KT 4SM 00/M19 A3033 RMK T00001190 IEM_DS3505
ZBYN,1995-12-15 06:00,ZBYN 150600Z AUTO 27002KT 6SM A3030 RMK SLP304 57032 IEM_DS3505
ZBYN,1995-12-15 07:00,ZBYN 150700Z AUTO 00000KT 4SM 01/M15 A3027 RMK T00101150 IEM_DS3505
ZBYN,1995-12-15 08:00,ZBYN 150800Z AUTO 00000KT 6SM 01/M16 A3027 RMK T00101160 IEM_DS3505
ZBYN,1995-12-15 09:00,ZBYN 150900Z AUTO 00000KT 6SM M01/M15 A3027 RMK SLP306 T10091154 57012 IEM_DS3505
ZBYN,1995-12-15 10:00,ZBYN 151000Z AUTO 00000KT 6SM M01/M13 A3027 RMK T10101130 IEM_DS3505
ZBYN,1995-12-15 11:00,ZBYN 151100Z AUTO 00000KT 6SM M01/M13 A3030 RMK T10101130 IEM_DS3505
ZBYN,1995-12-15 12:00,ZBYN 151200Z AUTO 29002KT 6SM M02/M14 A3033 RMK SLP333 T10201138 52024 IEM_DS3505
ZBYN,1995-12-15 13:00,ZBYN 151300Z AUTO 00000KT 5SM M03/M13 A3033 RMK T10301130 IEM_DS3505
ZBYN,1995-12-15 14:00,ZBYN 151400Z AUTO 00000KT 5SM M04/M12 A3033 RMK T10401120 IEM_DS3505
ZBYN,1995-12-15 15:00,ZBYN 151500Z AUTO 32004KT 6SM M02/M16 A3036 RMK SLP329 T10241160 52007 IEM_DS3505
ZBYN,1995-12-15 16:00,ZBYN 151600Z AUTO 00000KT 5SM M04/M12 A3036 RMK T10401120 IEM_DS3505
ZBYN,1995-12-15 17:00,ZBYN 151700Z AUTO 00000KT 5SM M04/M12 A3036 RMK T10401120 IEM_DS3505
ZBYN,1995-12-15 18:00,ZBYN 151800Z AUTO 34004KT 6SM M02/M18 A3036 RMK SLP322 T10231182 52001 IEM_DS3505
ZBYN,1995-12-15 19:00,ZBYN 151900Z AUTO 00000KT 5SM M04/M11 A3036 RMK T10401110 IEM_DS3505
ZBYN,1995-12-15 20:00,ZBYN 152000Z AUTO 00000KT 5SM M04/M12 A3036 RMK T10401120 IEM_DS3505
ZBYN,1995-12-15 21:00,ZBYN 152100Z AUTO 00000KT 6SM M03/M15 A3033 RMK SLP326 T10281148 57001 IEM_DS3505
ZBYN,1995-12-15 22:00,ZBYN 152200Z AUTO 00000KT 5SM M04/M12 A3036 RMK T10401120 IEM_DS3505
ZBYN,1995-12-15 23:00,ZBYN 152300Z AUTO 00000KT 5SM M04/M12 A3036 RMK T10401120 IEM_DS3505
ZBYN,1995-12-16 00:00,ZBYN 160000Z AUTO 32002KT 6SM M04/M14 A3039 RMK SLP338 T10381142 52007 IEM_DS3505
ZBYN,1995-12-16 01:00,ZBYN 160100Z AUTO 00000KT 5SM M02/M14 A3042 RMK T10201140 IEM_DS3505
ZBYN,1995-12-16 02:00,ZBYN 160200Z AUTO 02004KT 6SM 00/M14 A3042 RMK T00001140 IEM_DS3505
ZBYN,1995-12-16 03:00,ZBYN 160300Z AUTO 34010KT 6SM 01/M16 A3042 RMK SLP346 T00081165 52014 IEM_DS3505
ZBYN,1995-12-16 04:00,ZBYN 160400Z AUTO 06008KT 6SM 02/M14 A3042 RMK T00201140 IEM_DS3505
ZBYN,1995-12-16 05:00,ZBYN 160500Z AUTO 01008KT 6SM 04/M13 A3036 RMK T00401130 IEM_DS3505
ZBYN,1995-12-16 06:00,ZBYN 160600Z AUTO 02006KT 6SM 03/M16 A3036 RMK SLP320 T00311162 57019 IEM_DS3505
ZBYN,1995-12-16 07:00,ZBYN 160700Z AUTO 04008KT 7SM 04/M19 A3036 RMK T00401190 IEM_DS3505
ZBYN,1995-12-16 08:00,ZBYN 160800Z AUTO 32008KT 7SM 04/M18 A3036 RMK T00401180 IEM_DS3505
ZBYN,1995-12-16 09:00,ZBYN 160900Z AUTO 04008KT 6SM 01/M19 A3036 RMK SLP328 T00131194 52003 IEM_DS3505
ZBYN,1995-12-16 10:00,ZBYN 161000Z AUTO 04006KT 7SM 00/M16 A3039 RMK T00001160 IEM_DS3505
ZBYN,1995-12-16 11:00,ZBYN 161100Z AUTO 33006KT 7SM M01/M20 A3045 RMK T10101200 IEM_DS3505
ZBYN,1995-12-16 12:00,ZBYN 161200Z AUTO 32006KT 6SM M02/M22 A3047 RMK SLP370 T10201224 52031 IEM_DS3505
ZBYN,1995-12-16 13:00,ZBYN 161300Z AUTO 00000KT 7SM M04/M19 A3050 RMK T10401190 IEM_DS3505
ZBYN,1995-12-16 14:00,ZBYN 161400Z AUTO 01004KT 7SM M03/M22 A3050 RMK T10301220 IEM_DS3505
ZBYN,1995-12-16 15:00,ZBYN 161500Z AUTO 36004KT 6SM M04/M20 A3053 RMK SLP382 T10361200 52016 IEM_DS3505
ZBYN,1995-12-16 16:00,ZBYN 161600Z AUTO 00000KT 7SM M05/M22 A3053 RMK T10501220 IEM_DS3505
ZBYN,1995-12-16 18:00,ZBYN 161800Z AUTO 34004KT 6SM M05/M19 A3050 RMK SLP376 T10511193 57004 IEM_DS3505
ZBYN,1995-12-16 19:00,ZBYN 161900Z AUTO 00000KT 7SM M07/M16 A3050 RMK T10701160 IEM_DS3505
ZBYN,1995-12-16 20:00,ZBYN 162000Z AUTO 00000KT 7SM M07/M14 A3050 RMK T10701140 IEM_DS3505
ZBYN,1995-12-16 21:00,ZBYN 162100Z AUTO 34004KT 6SM M06/M18 A3050 RMK SLP335 T10631185 57042 IEM_DS3505
ZBYN,1995-12-16 22:00,ZBYN 162200Z AUTO 21004KT 7SM M08/M20 A3047 RMK T10801200 IEM_DS3505
ZBYN,1995-12-16 23:00,ZBYN 162300Z AUTO 00000KT 7SM M11/M20 A3050 RMK T11101200 IEM_DS3505
ZBYN,1995-12-17 00:00,ZBYN 170000Z AUTO 20002KT 6SM M10/M20 A3050 RMK SLP394 T10971204 52001 IEM_DS3505
ZBYN,1995-12-17 01:00,ZBYN 170100Z AUTO 00000KT 4SM M10/M17 A3053 RMK T11001170 IEM_DS3505
ZBYN,1995-12-17 02:00,ZBYN 170200Z AUTO 00000KT 4SM M07/M17 A3053 RMK T10701170 IEM_DS3505
ZBYN,1995-12-17 03:00,ZBYN 170300Z AUTO 16006KT 6SM M02/M16 A3050 RMK SLP389 T10221164 52005 IEM_DS3505
ZBYN,1995-12-17 04:00,ZBYN 170400Z AUTO 20006KT 4SM M01/M19 A3047 RMK T10101190 IEM_DS3505
ZBYN,1995-12-17 05:00,ZBYN 170500Z AUTO 23006KT 6SM M01/M21 A3045 RMK T10101210 IEM_DS3505
ZBYN,1995-12-17 06:00,ZBYN 170600Z AUTO 16010KT 6SM 00/M18 A3042 RMK SLP351 T00021182 57033 IEM_DS3505
ZBYN,1995-12-17 07:00,ZBYN 170700Z AUTO 22006KT 6SM 01/M19 A3039 RMK T00101190 IEM_DS3505
ZBYN,1995-12-17 08:00,ZBYN 170800Z AUTO 21006KT 6SM 00/M19 A3039 RMK T00001190 IEM_DS3505
ZBYN,1995-12-17 09:00,ZBYN 170900Z AUTO 22004KT 9SM M01/M22 A3039 RMK SLP345 T10081215 57009 IEM_DS3505
ZBYN,1995-12-17 10:00,ZBYN 171000Z AUTO 29006KT 6SM M02/M19 A3039 RMK T10201190 IEM_DS3505
ZBYN,1995-12-17 11:00,ZBYN 171100Z AUTO 33008KT 7SM M03/M22 A3042 RMK T10301220 IEM_DS3505
ZBYN,1995-12-17 12:00,ZBYN 171200Z AUTO 32010KT 9SM M03/M25 A3042 RMK SLP367 T10311253 52010 IEM_DS3505
ZBYN,1995-12-17 13:00,ZBYN 171300Z AUTO 31010KT 7SM M04/M24 A3045 RMK T10401240 IEM_DS3505
ZBYN,1995-12-17 14:00,ZBYN 171400Z AUTO 18006KT 7SM M06/M21 A3045 RMK T10601210 IEM_DS3505
ZBYN,1995-12-17 15:00,ZBYN 171500Z AUTO 11004KT 9SM M08/M19 A3045 RMK SLP373 T10831193 52010 IEM_DS3505
ZBYN,1995-12-17 16:00,ZBYN 171600Z AUTO 00000KT 7SM M09/M19 A3045 RMK T10901190 IEM_DS3505
ZBYN,1995-12-17 17:00,ZBYN 171700Z AUTO 06004KT 7SM M11/M21 A3045 RMK T11101210 IEM_DS3505
ZBYN,1995-12-17 18:00,ZBYN 171800Z AUTO 00000KT 9SM M10/M21 A3042 RMK SLP364 T11031213 57008 IEM_DS3505
ZBYN,1995-12-17 19:00,ZBYN 171900Z AUTO 10006KT 7SM M13/M21 A3042 RMK T11301210 IEM_DS3505
ZBYN,1995-12-17 20:00,ZBYN 172000Z AUTO 09004KT 7SM M13/M20 A3042 RMK T11301200 IEM_DS3505
ZBYN,1995-12-17 21:00,ZBYN 172100Z AUTO 00000KT 9SM M13/M21 A3039 RMK SLP358 T11271214 57011 IEM_DS3505
ZBYN,1995-12-17 22:00,ZBYN 172200Z AUTO 12004KT 7SM M14/M21 A3039 RMK T11401210 IEM_DS3505
ZBYN,1995-12-17 23:00,ZBYN 172300Z AUTO 11004KT 7SM M14/M21 A3042 RMK T11401210 IEM_DS3505
ZBYN,1995-12-18 00:00,ZBYN 180000Z AUTO 00000KT 6SM M14/M20 A3045 RMK SLP376 T11391202 52010 IEM_DS3505
ZBYN,1995-12-18 01:00,ZBYN 180100Z AUTO 09004KT 4SM M13/M19 A3045 RMK T11301190 IEM_DS3505
ZBYN,1995-12-18 02:00,ZBYN 180200Z AUTO 00000KT 4SM M07/M21 A3045 RMK T10701210 IEM_DS3505
ZBYN,1995-12-18 03:00,ZBYN 180300Z AUTO 25002KT 6SM M05/M20 A3042 RMK SLP370 T10471200 52002 IEM_DS3505
ZBYN,1995-12-18 04:00,ZBYN 180400Z AUTO 21004KT 5SM M02/M21 A3039 RMK T10201210 IEM_DS3505
ZBYN,1995-12-18 05:00,ZBYN 180500Z AUTO 02004KT 5SM M02/M23 A3036 RMK T10201230 IEM_DS3505
ZBYN,1995-12-18 06:00,ZBYN 180600Z AUTO 20008KT 6SM M01/M18 A3033 RMK SLP340 T10081184 57024 IEM_DS3505
ZBYN,1995-12-18 07:00,ZBYN 180700Z AUTO 23008KT 6SM 01/M22 A3033 RMK T00101220 IEM_DS3505
ZBYN,1995-12-18 08:00,ZBYN 180800Z AUTO 18004KT 6SM 01/M18 A3033 RMK T00101180 IEM_DS3505
ZBYN,1995-12-18 09:00,ZBYN 180900Z AUTO 09006KT 6SM M01/M19 A3033 RMK SLP332 T10121187 57012 IEM_DS3505
ZBYN,1995-12-18 10:00,ZBYN 181000Z AUTO 00000KT 6SM M04/M16 A3033 RMK T10401160 IEM_DS3505
ZBYN,1995-12-18 11:00,ZBYN 181100Z AUTO 00000KT 6SM M06/M14 A3036 RMK T10601140 IEM_DS3505
ZBYN,1995-12-18 12:00,ZBYN 181200Z AUTO 32004KT 6SM M05/M17 A3036 RMK SLP358 T10481169 52015 IEM_DS3505
ZBYN,1995-12-18 13:00,ZBYN 181300Z AUTO 17004KT 7SM M10/M19 A3039 RMK T11001190 IEM_DS3505
ZBYN,1995-12-18 14:00,ZBYN 181400Z AUTO 11006KT 7SM M10/M20 A3039 RMK T11001200 IEM_DS3505
ZBYN,1995-12-18 15:00,ZBYN 181500Z AUTO 10004KT 7SM M11/M20 A3039 RMK T11101200 IEM_DS3505
ZBYN,1995-12-18 16:00,ZBYN 181600Z AUTO 00000KT 7SM M11/M20 A3039 RMK T11101200 IEM_DS3505
ZBYN,1995-12-18 17:00,ZBYN 181700Z AUTO 10006KT 7SM M11/M19 A3039 RMK T11101190 IEM_DS3505
ZBYN,1995-12-18 18:00,ZBYN 181800Z AUTO 02002KT 6SM M11/M20 A3036 RMK SLP345 T11091195 57004 IEM_DS3505
ZBYN,1995-12-18 19:00,ZBYN 181900Z AUTO 11004KT 7SM M11/M20 A3036 RMK T11101200 IEM_DS3505
ZBYN,1995-12-18 20:00,ZBYN 182000Z AUTO 09004KT 7SM M12/M20 A3036 RMK T11201200 IEM_DS3505
ZBYN,1995-12-18 21:00,ZBYN 182100Z AUTO 00000KT 6SM M12/M18 A3036 RMK SLP347 T11151185 54000 IEM_DS3505
ZBYN,1995-12-18 22:00,ZBYN 182200Z AUTO 00000KT 7SM M12/M20 A3039 RMK T11201200 IEM_DS3505
ZBYN,1995-12-18 23:00,ZBYN 182300Z AUTO 10004KT 7SM M13/M20 A3039 RMK T11301200 IEM_DS3505
ZBYN,1995-12-19 00:00,ZBYN 190000Z AUTO 18002KT 6SM M13/M18 A3042 RMK SLP367 T11281176 52010 IEM_DS3505
ZBYN,1995-12-19 01:00,ZBYN 190100Z AUTO 00000KT 2 1/2SM M11/M18 A3042 RMK T11101180 IEM_DS3505
ZBYN,1995-12-19 02:00,ZBYN 190200Z AUTO 18006KT 1 1/2SM M07/M16 A3042 RMK T10701160 IEM_DS3505
ZBYN,1995-12-19 03:00,ZBYN 190300Z AUTO 14006KT 6SM M03/M18 A3042 RMK SLP360 T10291181 52003 IEM_DS3505
ZBYN,1995-12-19 04:00,ZBYN 190400Z AUTO 19006KT 2SM 00/M18 A3042 RMK T00001180 IEM_DS3505
ZBYN,1995-12-19 05:00,ZBYN 190500Z AUTO 19006KT 2SM 02/M15 A3042 RMK T00201150 IEM_DS3505
ZBYN,1995-12-19 06:00,ZBYN 190600Z AUTO 18010KT 6SM 02/M17 A3033 RMK SLP326 T00231170 57025 IEM_DS3505
ZBYN,1995-12-19 07:00,ZBYN 190700Z AUTO 25008KT 7SM 03/M19 A3030 RMK T00301190 IEM_DS3505
ZBYN,1995-12-19 08:00,ZBYN 190800Z AUTO 21008KT 7SM 03/M19 A3030 RMK T00301190 IEM_DS3505
ZBYN,1995-12-19 09:00,ZBYN 190900Z AUTO 20006KT 6SM 02/M18 A3033 RMK SLP323 T00181175 57004 IEM_DS3505
ZBYN,1995-12-19 10:00,ZBYN 191000Z AUTO 27004KT 7SM 00/M16 A3033 RMK T00001160 IEM_DS3505
ZBYN,1995-12-19 11:00,ZBYN 191100Z AUTO 31008KT 7SM M01/M16 A3036 RMK T10101160 IEM_DS3505
ZBYN,1995-12-19 12:00,ZBYN 191200Z AUTO 32006KT 6SM M01/M20 A3036 RMK SLP351 T10121196 52018 IEM_DS3505
ZBYN,1995-12-19 13:00,ZBYN 191300Z AUTO 33010KT 7SM M01/M19 A3036 RMK T10101190 IEM_DS3505
ZBYN,1995-12-19 14:00,ZBYN 191400Z AUTO 34002KT 7SM M05/M21 A3039 RMK T10501210 IEM_DS3505
ZBYN,1995-12-19 15:00,ZBYN 191500Z AUTO 29002KT 6SM M02/M21 A3039 RMK SLP344 T10191209 52009 IEM_DS3505
ZBYN,1995-12-19 16:00,ZBYN 191600Z AUTO 11006KT 7SM M09/M18 A3039 RMK T10901180 IEM_DS3505
ZBYN,1995-12-19 17:00,ZBYN 191700Z AUTO 10006KT 7SM M10/M18 A3039 RMK T11001180 IEM_DS3505
ZBYN,1995-12-19 18:00,ZBYN 191800Z AUTO 00000KT 6SM M09/M17 A3039 RMK SLP348 T10881171 52001 IEM_DS3505
ZBYN,1995-12-19 19:00,ZBYN 191900Z AUTO 12004KT 7SM M11/M19 A3039 RMK T11101190 IEM_DS3505
ZBYN,1995-12-19 20:00,ZBYN 192000Z AUTO 00000KT 7SM M11/M19 A3039 RMK T11101190 IEM_DS3505
ZBYN,1995-12-19 21:00,ZBYN 192100Z AUTO 00000KT 6SM M11/M17 A3039 RMK SLP354 T11081172 52001 IEM_DS3505
ZBYN,1995-12-19 22:00,ZBYN 192200Z AUTO 12004KT 7SM M12/M19 A3039 RMK T11201190 IEM_DS3505
ZBYN,1995-12-19 23:00,ZBYN 192300Z AUTO 00000KT 7SM M12/M19 A3042 RMK T11201190 IEM_DS3505
ZBYN,1995-12-20 00:00,ZBYN 200000Z AUTO 00000KT 6SM M12/M16 A3042 RMK SLP370 T11221160 52007 IEM_DS3505
ZBYN,1995-12-20 01:00,ZBYN 200100Z AUTO 00000KT 2 1/2SM M11/M17 A3042 RMK T11101170 IEM_DS3505
ZBYN,1995-12-20 02:00,ZBYN 200200Z AUTO 00000KT 5SM M05/M16 A3045 RMK T10501160 IEM_DS3505
ZBYN,1995-12-20 03:00,ZBYN 200300Z AUTO 14002KT 6SM M02/M17 A3042 RMK SLP353 T10231166 54000 IEM_DS3505
ZBYN,1995-12-20 04:00,ZBYN 200400Z AUTO 00000KT 7SM 00/M15 A3042 RMK T00001150 IEM_DS3505
ZBYN,1995-12-20 05:00,ZBYN 200500Z AUTO 00000KT 7SM 03/M19 A3039 RMK T00301190 IEM_DS3505
ZBYN,1995-12-20 06:00,ZBYN 200600Z AUTO 22004KT 6SM 03/M13 A3036 RMK SLP331 T00321130 57022 IEM_DS3505
ZBYN,1995-12-20 07:00,ZBYN 200700Z AUTO 21006KT 7SM 05/M16 A3033 RMK T00501160 IEM_DS3505
ZBYN,1995-12-20 08:00,ZBYN 200800Z AUTO 18006KT 6SM 03/M12 A3033 RMK T00301120 IEM_DS3505
ZBYN,1995-12-20 09:00,ZBYN 200900Z AUTO 09006KT 5SM 01/M16 A3033 RMK SLP327 T00121161 57010 IEM_DS3505
ZBYN,1995-12-20 10:00,ZBYN 201000Z AUTO 10006KT 6SM M02/M16 A3033 RMK T10201160 IEM_DS3505
ZBYN,1995-12-20 11:00,ZBYN 201100Z AUTO 00000KT 7SM M03/M16 A3036 RMK T10301160 IEM_DS3505
ZBYN,1995-12-20 12:00,ZBYN 201200Z AUTO 34004KT 4SM M04/M14 A3039 RMK SLP359 T10361144 52018 IEM_DS3505
ZBYN,1995-12-20 13:00,ZBYN 201300Z AUTO 00000KT 7SM M06/M16 A3042 RMK T10601160 IEM_DS3505
ZBYN,1995-12-20 14:00,ZBYN 201400Z AUTO 00000KT 7SM M07/M17 A3042 RMK T10701170 IEM_DS3505
ZBYN,1995-12-20 15:00,ZBYN 201500Z AUTO 00000KT 6SM M06/M16 A3042 RMK SLP352 T10641157 52006 IEM_DS3505
ZBYN,1995-12-20 16:00,ZBYN 201600Z AUTO 00000KT 7SM M09/M16 A3042 RMK T10901160 IEM_DS3505
ZBYN,1995-12-20 17:00,ZBYN 201700Z AUTO 00000KT 7SM M09/M16 A3042 RMK T10901160 IEM_DS3505
ZBYN,1995-12-20 18:00,ZBYN 201800Z AUTO 00000KT 6SM M09/M14 A3042 RMK SLP347 T10871143 52001 IEM_DS3505
ZBYN,1995-12-20 19:00,ZBYN 201900Z AUTO 00000KT 7SM M10/M17 A3042 RMK T11001170 IEM_DS3505
ZBYN,1995-12-20 20:00,ZBYN 202000Z AUTO 00000KT 7SM M10/M17 A3042 RMK T11001170 IEM_DS3505
ZBYN,1995-12-20 21:00,ZBYN 202100Z AUTO 36006KT 6SM M08/M14 A3039 RMK SLP347 T10781136 57002 IEM_DS3505
ZBYN,1995-12-20 22:00,ZBYN 202200Z AUTO 00000KT 7SM M12/M18 A3039 RMK T11201180 IEM_DS3505
ZBYN,1995-12-20 23:00,ZBYN 202300Z AUTO 00000KT 7SM M11/M17 A3042 RMK T11101170 IEM_DS3505
ZBYN,1995-12-21 00:00,ZBYN 210000Z AUTO 34004KT 4SM M10/M16 A3042 RMK SLP364 T11021159 52003 IEM_DS3505
ZBYN,1995-12-21 01:00,ZBYN 210100Z AUTO 00000KT 1 1/4SM M10/M16 A3042 RMK T11001160 IEM_DS3505
ZBYN,1995-12-21 02:00,ZBYN 210200Z AUTO 00000KT 1 1/4SM M06/M13 A3042 RMK T10601130 IEM_DS3505
ZBYN,1995-12-21 03:00,ZBYN 210300Z AUTO 14002KT 4SM M01/M11 A3045 RMK SLP356 T10081109 52004 IEM_DS3505
ZBYN,1995-12-21 04:00,ZBYN 210400Z AUTO 20004KT 2SM 01/M14 A3039 RMK T00101140 IEM_DS3505
ZBYN,1995-12-21 05:00,ZBYN 210500Z AUTO 20006KT 4SM 02/M13 A3036 RMK T00201130 IEM_DS3505
ZBYN,1995-12-21 06:00,ZBYN 210600Z AUTO 14004KT 4SM 03/M14 A3033 RMK T00321144 57017 IEM_DS3505
ZBYN,1995-12-21 07:00,ZBYN 210700Z AUTO 16006KT 4SM 05/M11 A3030 RMK T00501110 IEM_DS3505
ZBYN,1995-12-21 08:00,ZBYN 210800Z AUTO 00000KT 4SM 05/M10 A3027 RMK T00501100 IEM_DS3505
ZBYN,1995-12-21 09:00,ZBYN 210900Z AUTO 29004KT 5SM 02/M14 A3027 RMK SLP308 T00171140 57025 IEM_DS3505
ZBYN,1995-12-21 10:00,ZBYN 211000Z AUTO 00000KT 3SM M01/M12 A3027 RMK T10101120 IEM_DS3505
ZBYN,1995-12-21 11:00,ZBYN 211100Z AUTO 00000KT 2SM M03/M13 A3027 RMK T10301130 IEM_DS3505
ZBYN,1995-12-21 12:00,ZBYN 211200Z AUTO 34004KT 4SM M01/M13 A3030 RMK SLP320 T10081126 52003 IEM_DS3505
ZBYN,1995-12-21 13:00,ZBYN 211300Z AUTO 11006KT 2SM M04/M14 A3030 RMK T10401140 IEM_DS3505
ZBYN,1995-12-21 14:00,ZBYN 211400Z AUTO 00000KT 2 1/2SM M06/M14 A3030 RMK T10601140 IEM_DS3505
ZBYN,1995-12-21 15:00,ZBYN 211500Z AUTO 34004KT 4SM M04/M12 A3033 RMK SLP318 T10451119 52008 IEM_DS3505
ZBYN,1995-12-21 16:00,ZBYN 211600Z AUTO 29006KT 4SM M06/M14 A3033 RMK T10601140 IEM_DS3505
ZBYN,1995-12-21 17:00,ZBYN 211700Z AUTO 13006KT 4SM M07/M14 A3033 RMK T10701140 IEM_DS3505
ZBYN,1995-12-21 18:00,ZBYN 211800Z AUTO 07006KT 4SM M08/M14 A3033 RMK SLP323 T10761139 52006 IEM_DS3505
ZBYN,1995-12-21 19:00,ZBYN 211900Z AUTO 00000KT 4SM M08/M14 A3036 RMK T10801140 IEM_DS3505
ZBYN,1995-12-21 20:00,ZBYN 212000Z AUTO 09006KT 4SM M08/M13 A3036 RMK T10801130 IEM_DS3505
ZBYN,1995-12-21 21:00,ZBYN 212100Z AUTO 36006KT 6SM M03/M14 A3036 RMK SLP323 T10341140 52004 IEM_DS3505
ZBYN,1995-12-21 22:00,ZBYN 212200Z AUTO 00000KT 4SM M09/M16 A3036 RMK T10901160 IEM_DS3505
ZBYN,1995-12-21 23:00,ZBYN 212300Z AUTO 00000KT 3SM M11/M17 A3039 RMK T11101170 IEM_DS3505
ZBYN,1995-12-22 00:00,ZBYN 220000Z AUTO 34004KT 4SM M06/M15 A3039 RMK SLP354 T10591148 52020 IEM_DS3505
ZBYN,1995-12-22 01:00,ZBYN 220100Z AUTO 00000KT 5SM M05/M16 A3042 RMK T10501160 IEM_DS3505
ZBYN,1995-12-22 02:00,ZBYN 220200Z AUTO 33010KT 7SM M02/M16 A3045 RMK T10201160 IEM_DS3505
ZBYN,1995-12-22 03:00,ZBYN 220300Z AUTO 34008KT 6SM M00/M16 A3045 RMK SLP361 T10041158 52009 IEM_DS3505
ZBYN,1995-12-22 04:00,ZBYN 220400Z AUTO 02012KT 7SM 01/M14 A3042 RMK T00101140 IEM_DS3505
ZBYN,1995-12-22 05:00,ZBYN 220500Z AUTO 32008KT 7SM 02/M13 A3039 RMK T00201130 IEM_DS3505
ZBYN,1995-12-22 06:00,ZBYN 220600Z AUTO 32004KT 6SM 04/M14 A3036 RMK SLP334 T00391143 57022 IEM_DS3505
ZBYN,1995-12-22 07:00,ZBYN 220700Z AUTO 27004KT 7SM 03/M16 A3036 RMK T00301160 IEM_DS3505
ZBYN,1995-12-22 08:00,ZBYN 220800Z AUTO 23006KT 7SM 03/M15 A3033 RMK T00301150 IEM_DS3505
ZBYN,1995-12-22 09:00,ZBYN 220900Z AUTO 18004KT 6SM 01/M15 A3033 RMK SLP319 T00081149 57012 IEM_DS3505
ZBYN,1995-12-22 10:00,ZBYN 221000Z AUTO 00000KT 6SM M02/M12 A3036 RMK T10201120 IEM_DS3505
ZBYN,1995-12-22 11:00,ZBYN 221100Z AUTO 00000KT 7SM M05/M16 A3036 RMK T10501160 IEM_DS3505
ZBYN,1995-12-22 12:00,ZBYN 221200Z AUTO 32004KT 6SM M04/M12 A3039 RMK SLP345 T10381118 52012 IEM_DS3505
ZBYN,1995-12-22 13:00,ZBYN 221300Z AUTO 00000KT 7SM M07/M16 A3039 RMK T10701160 IEM_DS3505
ZBYN,1995-12-22 14:00,ZBYN 221400Z AUTO 00000KT 7SM M08/M16 A3039 RMK T10801160 IEM_DS3505
ZBYN,1995-12-22 15:00,ZBYN 221500Z AUTO 00000KT 6SM M08/M15 A3039 RMK SLP341 T10781148 57001 IEM_DS3505
ZBYN,1995-12-22 16:00,ZBYN 221600Z AUTO 00000KT 7SM M09/M16 A3039 RMK T10901160 IEM_DS3505
ZBYN,1995-12-22 17:00,ZBYN 221700Z AUTO 11002KT 5SM M10/M18 A3036 RMK T11001180 IEM_DS3505
ZBYN,1995-12-22 18:00,ZBYN 221800Z AUTO 00000KT 6SM M10/M17 A3039 RMK SLP341 T11021173 52003 IEM_DS3505
ZBYN,1995-12-22 19:00,ZBYN 221900Z AUTO 00000KT 5SM M10/M17 A3039 RMK T11001170 IEM_DS3505
ZBYN,1995-12-22 20:00,ZBYN 222000Z AUTO 11006KT 5SM M11/M16 A3039 RMK T11101160 IEM_DS3505
ZBYN,1995-12-22 21:00,ZBYN 222100Z AUTO 00000KT 6SM M10/M16 A3036 RMK SLP344 T10981159 57002 IEM_DS3505
ZBYN,1995-12-22 22:00,ZBYN 222200Z AUTO 09006KT 5SM M11/M16 A3036 RMK T11101160 IEM_DS3505
ZBYN,1995-12-22 23:00,ZBYN 222300Z AUTO 05002KT 4SM M10/M16 A3039 RMK T11001160 IEM_DS3505
ZBYN,1995-12-23 00:00,ZBYN 230000Z AUTO 00000KT 6SM M11/M17 A3039 RMK SLP362 T11121172 52006 IEM_DS3505
ZBYN,1995-12-23 01:00,ZBYN 230100Z AUTO 00000KT 1 1/4SM M10/M15 A3042 RMK T11001150 IEM_DS3505
ZBYN,1995-12-23 02:00,ZBYN 230200Z AUTO 11004KT 2SM M05/M15 A3042 RMK T10501150 IEM_DS3505
ZBYN,1995-12-23 03:00,ZBYN 230300Z AUTO 29012KT 11SM 02/M16 A3042 RMK SLP352 T00211160 52007 IEM_DS3505
ZBYN,1995-12-23 04:00,ZBYN 230400Z AUTO 19004KT 4SM 04/M14 A3039 RMK T00401140 IEM_DS3505
ZBYN,1995-12-23 05:00,ZBYN 230500Z AUTO 30010KT 7SM 04/M16 A3036 RMK T00401160 IEM_DS3505
ZBYN,1995-12-23 06:00,ZBYN 230600Z AUTO 29016KT 6SM 04/M12 A3036 RMK SLP331 T00421118 57020 IEM_DS3505
ZBYN,1995-12-23 07:00,ZBYN 230700Z AUTO 33017KT 7SM 04/M19 A3036 RMK T00401190 IEM_DS3505
ZBYN,1995-12-23 08:00,ZBYN 230800Z AUTO 32017KT 7SM 04/M14 A3039 RMK T00401140 IEM_DS3505
ZBYN,1995-12-23 09:00,ZBYN 230900Z AUTO 32012KT 9SM 02/ A3042 RMK SLP359 52022 IEM_DS3505
ZBYN,1995-12-23 10:00,ZBYN 231000Z AUTO 31010KT 7SM 00/M19 A3045 RMK T00001190 IEM_DS3505
ZBYN,1995-12-23 11:00,ZBYN 231100Z AUTO 33012KT 7SM M01/M22 A3047 RMK T10101220 IEM_DS3505
ZBYN,1995-12-23 12:00,ZBYN 231200Z AUTO 32006KT 9SM M02/M27 A3050 RMK SLP398 T10171269 52027 IEM_DS3505
ZBYN,1995-12-23 13:00,ZBYN 231300Z AUTO 12004KT 7SM M05/M22 A3053 RMK T10501220 IEM_DS3505
ZBYN,1995-12-23 14:00,ZBYN 231400Z AUTO 14006KT 7SM M07/M25 A3056 RMK T10701250 IEM_DS3505
ZBYN,1995-12-23 15:00,ZBYN 231500Z AUTO 34004KT 7SM M05/M26 A3056 RMK SLP400 T10511263 52019 IEM_DS3505
ZBYN,1995-12-23 16:00,ZBYN 231600Z AUTO 32004KT 7SM M07/M25 A3059 RMK T10701250 IEM_DS3505
ZBYN,1995-12-23 17:00,ZBYN 231700Z AUTO 00000KT 7SM M05/M23 A3059 RMK T10501230 IEM_DS3505
ZBYN,1995-12-23 18:00,ZBYN 231800Z AUTO 02006KT 7SM M06/M27 A3059 RMK SLP405 T10561268 52007 IEM_DS3505
ZBYN,1995-12-23 19:00,ZBYN 231900Z AUTO 00000KT 7SM M09/M21 A3059 RMK T10901210 IEM_DS3505
ZBYN,1995-12-23 20:00,ZBYN 232000Z AUTO 00000KT 7SM M10/M20 A3059 RMK T11001200 IEM_DS3505
ZBYN,1995-12-23 21:00,ZBYN 232100Z AUTO 07004KT 7SM M08/M24 A3059 RMK SLP423 T10771242 52009 IEM_DS3505
ZBYN,1995-12-23 22:00,ZBYN 232200Z AUTO 00000KT 7SM M10/M23 A3062 RMK T11001230 IEM_DS3505
ZBYN,1995-12-23 23:00,ZBYN 232300Z AUTO 00000KT 7SM M13/M24 A3065 RMK T11301240 IEM_DS3505
ZBYN,1995-12-24 00:00,ZBYN 240000Z AUTO 32004KT 7SM M10/M24 A3068 RMK SLP451 T11031242 52015 IEM_DS3505
ZBYN,1995-12-24 01:00,ZBYN 240100Z AUTO 00000KT 7SM M12/M23 A3068 RMK T11201230 IEM_DS3505
ZBYN,1995-12-24 03:00,ZBYN 240300Z AUTO 36006KT 6SM M04/M24 A3068 RMK SLP454 T10421244 52007 IEM_DS3505
ZBYN,1995-12-24 04:00,ZBYN 240400Z AUTO 32006KT 7SM M01/M25 A3062 RMK T10101250 IEM_DS3505
ZBYN,1995-12-24 05:00,ZBYN 240500Z AUTO 33008KT 7SM 00/M27 A3059 RMK T00001270 IEM_DS3505
ZBYN,1995-12-24 06:00,ZBYN 240600Z AUTO 32006KT 9SM M00/M28 A3059 RMK SLP417 T10031283 57028 IEM_DS3505
ZBYN,1995-12-24 07:00,ZBYN 240700Z AUTO 32006KT 7SM 01/M23 A3056 RMK T00101230 IEM_DS3505
ZBYN,1995-12-24 08:00,ZBYN 240800Z AUTO 24008KT 7SM 01/M22 A3056 RMK T00101220 IEM_DS3505
ZBYN,1995-12-24 09:00,ZBYN 240900Z AUTO 27006KT 6SM M01/M22 A3056 RMK SLP415 T10091221 57006 IEM_DS3505
ZBYN,1995-12-24 10:00,ZBYN 241000Z AUTO 27006KT 7SM M04/M22 A3059 RMK T10401220 IEM_DS3505
ZBYN,1995-12-24 11:00,ZBYN 241100Z AUTO 33004KT 7SM M04/M21 A3059 RMK T10401210 IEM_DS3505
ZBYN,1995-12-24 12:00,ZBYN 241200Z AUTO 34006KT 6SM M05/M22 A3059 RMK SLP434 T10471223 52006 IEM_DS3505
ZBYN,1995-12-24 13:00,ZBYN 241300Z AUTO 10006KT 7SM M10/M22 A3062 RMK T11001220 IEM_DS3505
ZBYN,1995-12-24 14:00,ZBYN 241400Z AUTO 00000KT 7SM M09/M21 A3062 RMK T10901210 IEM_DS3505
ZBYN,1995-12-24 15:00,ZBYN 241500Z AUTO 34004KT 6SM M07/M25 A3065 RMK SLP438 T10661246 52011 IEM_DS3505
ZBYN,1995-12-24 16:00,ZBYN 241600Z AUTO 10006KT 7SM M09/M22 A3065 RMK T10901220 IEM_DS3505
ZBYN,1995-12-24 17:00,ZBYN 241700Z AUTO 00000KT 7SM M10/M23 A3065 RMK T11001230 IEM_DS3505
ZBYN,1995-12-24 18:00,ZBYN 241800Z AUTO 34004KT 6SM M08/M24 A3065 RMK SLP432 T10821244 57001 IEM_DS3505
ZBYN,1995-12-24 19:00,ZBYN 241900Z AUTO 00000KT 4SM M10/M21 A3065 RMK T11001210 IEM_DS3505
ZBYN,1995-12-24 20:00,ZBYN 242000Z AUTO 00000KT 7SM M09/M23 A3065 RMK T10901230 IEM_DS3505
ZBYN,1995-12-24 21:00,ZBYN 242100Z AUTO 34002KT 6SM M09/M22 A3065 RMK SLP439 T10891216 52004 IEM_DS3505
ZBYN,1995-12-24 22:00,ZBYN 242200Z AUTO 00000KT 4SM M11/M23 A3065 RMK T11101230 IEM_DS3505
ZBYN,1995-12-24 23:00,ZBYN 242300Z AUTO 00000KT 4SM M11/M22 A3065 RMK T11101220 IEM_DS3505
ZBYN,1995-12-25 00:00,ZBYN 250000Z AUTO 34004KT 6SM M08/M21 A3068 RMK SLP455 T10791214 52009 IEM_DS3505
ZBYN,1995-12-25 01:00,ZBYN 250100Z AUTO 00000KT 2 1/2SM M10/M20 A3068 RMK T11001200 IEM_DS3505
ZBYN,1995-12-25 02:00,ZBYN 250200Z AUTO 00000KT 2 1/2SM M07/M20 A3068 RMK T10701200 IEM_DS3505
ZBYN,1995-12-25 03:00,ZBYN 250300Z AUTO 32006KT 4SM M04/M25 A3068 RMK SLP451 T10391246 54000 IEM_DS3505
ZBYN,1995-12-25 04:00,ZBYN 250400Z AUTO 00000KT 2SM M02/M23 A3062 RMK T10201230 IEM_DS3505
ZBYN,1995-12-25 05:00,ZBYN 250500Z AUTO 00000KT 4SM 00/M20 A3059 RMK T00001200 IEM_DS3505
ZBYN,1995-12-25 06:00,ZBYN 250600Z AUTO 16004KT 4SM M01/M23 A3059 RMK SLP421 T10081229 57024 IEM_DS3505
ZBYN,1995-12-25 07:00,ZBYN 250700Z AUTO 00000KT 5SM 00/M16 A3056 RMK T00001160 IEM_DS3505
ZBYN,1995-12-25 08:00,ZBYN 250800Z AUTO 25004KT 5SM 00/M16 A3056 RMK T00001160 IEM_DS3505
ZBYN,1995-12-25 09:00,ZBYN 250900Z AUTO 20006KT 4SM M01/M21 A3056 RMK SLP414 T10101213 57008 IEM_DS3505
ZBYN,1995-12-25 10:00,ZBYN 251000Z AUTO 00000KT 5SM M02/M16 A3056 RMK T10201160 IEM_DS3505
ZBYN,1995-12-25 11:00,ZBYN 251100Z AUTO 00000KT 5SM M03/M15 A3056 RMK T10301150 IEM_DS3505
ZBYN,1995-12-25 12:00,ZBYN 251200Z AUTO 16004KT 6SM M03/M17 A3059 RMK SLP420 T10261166 52004 IEM_DS3505
ZBYN,1995-12-25 13:00,ZBYN 251300Z AUTO 00000KT 6SM M03/M14 A3059 RMK T10301140 IEM_DS3505
ZBYN,1995-12-25 14:00,ZBYN 251400Z AUTO 00000KT 6SM M04/M16 A3059 RMK T10401160 IEM_DS3505
ZBYN,1995-12-25 15:00,ZBYN 251500Z AUTO 14006KT 6SM M05/M17 A3056 RMK SLP412 T10501174 57004 IEM_DS3505
ZBYN,1995-12-25 16:00,ZBYN 251600Z AUTO 00000KT 4SM M06/M16 A3056 RMK T10601160 IEM_DS3505
ZBYN,1995-12-25 17:00,ZBYN 251700Z AUTO 00000KT 4SM M07/M17 A3056 RMK T10701170 IEM_DS3505
ZBYN,1995-12-25 18:00,ZBYN 251800Z AUTO 00000KT 5SM M07/M16 A3056 RMK T10701160 IEM_DS3505
ZBYN,1995-12-25 19:00,ZBYN 251900Z AUTO 10004KT 5SM M07/M17 A3056 RMK T10701170 IEM_DS3505
ZBYN,1995-12-25 20:00,ZBYN 252000Z AUTO 00000KT 5SM M07/M18 A3056 RMK T10701180 IEM_DS3505
ZBYN,1995-12-25 21:00,ZBYN 252100Z AUTO 09006KT 6SM M06/M15 A3053 RMK SLP400 T10611152 57006 IEM_DS3505
ZBYN,1995-12-25 22:00,ZBYN 252200Z AUTO 10004KT 5SM M09/M16 A3053 RMK T10901160 IEM_DS3505
ZBYN,1995-12-25 23:00,ZBYN 252300Z AUTO 11006KT 5SM M10/M16 A3056 RMK T11001160 IEM_DS3505
ZBYN,1995-12-26 00:00,ZBYN 260000Z AUTO 11002KT 5SM M09/M15 A3056 RMK SLP412 T10911149 52003 IEM_DS3505
ZBYN,1995-12-26 01:00,ZBYN 260100Z AUTO 12004KT 2SM M09/M15 A3056 RMK T10901150 IEM_DS3505
ZBYN,1995-12-26 02:00,ZBYN 260200Z AUTO 13004KT 2SM M06/M14 A3056 RMK T10601140 IEM_DS3505
ZBYN,1995-12-26 03:00,ZBYN 260300Z AUTO 18004KT 5SM M04/M14 A3056 RMK SLP413 T10411136 52005 IEM_DS3505
ZBYN,1995-12-26 04:00,ZBYN 260400Z AUTO 23004KT 2 1/2SM M02/M11 A3056 RMK T10201110 IEM_DS3505
ZBYN,1995-12-26 05:00,ZBYN 260500Z AUTO 23010KT 3SM 00/M11 A3053 RMK T00001110 IEM_DS3505
ZBYN,1995-12-26 06:00,ZBYN 260600Z AUTO 18008KT 4SM 01/M12 A3050 RMK SLP383 T00081117 57020 IEM_DS3505
ZBYN,1995-12-26 07:00,ZBYN 260700Z AUTO 21006KT 3SM 02/M09 A3047 RMK T00201090 IEM_DS3505
ZBYN,1995-12-26 08:00,ZBYN 260800Z AUTO 21004KT 3SM 02/M09 A3047 RMK T00201090 IEM_DS3505
ZBYN,1995-12-26 09:00,ZBYN 260900Z AUTO 11004KT 5SM M00/M10 A3047 RMK SLP378 T10051104 57007 IEM_DS3505
ZBYN,1995-12-26 10:00,ZBYN 261000Z AUTO 09006KT 2 1/2SM M03/M06 A3047 RMK T10301060 IEM_DS3505
ZBYN,1995-12-26 11:00,ZBYN 261100Z AUTO 12004KT 2 1/2SM M06/M12 A3050 RMK T10601120 IEM_DS3505
ZBYN,1995-12-26 12:00,ZBYN 261200Z AUTO 00000KT 6SM M04/M10 A3050 RMK SLP394 T10401101 52003 IEM_DS3505
ZBYN,1995-12-26 13:00,ZBYN 261300Z AUTO 10004KT 4SM M06/M12 A3050 RMK T10601120 IEM_DS3505
ZBYN,1995-12-26 14:00,ZBYN 261400Z AUTO 00000KT 4SM M06/M12 A3050 RMK T10601120 IEM_DS3505
ZBYN,1995-12-26 15:00,ZBYN 261500Z AUTO 07002KT 6SM M06/M11 A3050 RMK SLP389 T10651113 54000 IEM_DS3505
ZBYN,1995-12-26 16:00,ZBYN 261600Z AUTO 00000KT 6SM M07/M11 A3050 RMK T10701110 IEM_DS3505
ZBYN,1995-12-26 17:00,ZBYN 261700Z AUTO 00000KT 6SM M06/M10 A3050 RMK T10601100 IEM_DS3505
ZBYN,1995-12-26 18:00,ZBYN 261800Z AUTO 18004KT 6SM M07/M11 A3050 RMK SLP382 T10701114 52001 IEM_DS3505
ZBYN,1995-12-26 20:00,ZBYN 262000Z AUTO 00000KT 6SM M08/M12 A3050 RMK T10801120 IEM_DS3505
ZBYN,1995-12-26 21:00,ZBYN 262100Z AUTO 29014KT 6SM M01/M16 A3050 RMK SLP373 T10091155 54000 IEM_DS3505
ZBYN,1995-12-26 22:00,ZBYN 262200Z AUTO 33016KT 7SM M02/M15 A3050 RMK T10201150 IEM_DS3505
ZBYN,1995-12-26 23:00,ZBYN 262300Z AUTO 30014KT 6SM M03/M15 A3050 RMK T10301150 IEM_DS3505
ZBYN,1995-12-27 00:00,ZBYN 270000Z AUTO 29010KT 6SM M03/M18 A3053 RMK SLP393 T10281179 52009 IEM_DS3505
ZBYN,1995-12-27 01:00,ZBYN 270100Z AUTO 29012KT 6SM M04/M18 A3053 RMK T10401180 IEM_DS3505
ZBYN,1995-12-27 02:00,ZBYN 270200Z AUTO 30019KT 7SM M03/M20 A3056 RMK T10301200 IEM_DS3505
ZBYN,1995-12-27 03:00,ZBYN 270300Z AUTO 29012KT 6SM M02/M18 A3053 RMK SLP401 T10191181 52005 IEM_DS3505
ZBYN,1995-12-27 04:00,ZBYN 270400Z AUTO 31019KT 7SM 00/M20 A3050 RMK T00001200 IEM_DS3505
ZBYN,1995-12-27 05:00,ZBYN 270500Z AUTO 30019KT 7SM 01/M18 A3047 RMK T00101180 IEM_DS3505
ZBYN,1995-12-27 06:00,ZBYN 270600Z AUTO 29017KT 9SM 00/M17 A3045 RMK SLP370 T00051174 57025 IEM_DS3505
ZBYN,1995-12-27 07:00,ZBYN 270700Z AUTO 34016KT 7SM 01/M17 A3045 RMK T00101170 IEM_DS3505
ZBYN,1995-12-27 08:00,ZBYN 270800Z AUTO 31019KT 7SM 00/M16 A3045 RMK T00001160 IEM_DS3505
ZBYN,1995-12-27 09:00,ZBYN 270900Z AUTO 29012KT 9SM M01/M22 A3045 RMK SLP360 T10111215 57002 IEM_DS3505
ZBYN,1995-12-27 11:00,ZBYN 271100Z AUTO 30016KT 7SM M03/M22 A3047 RMK T10301220 IEM_DS3505
ZBYN,1995-12-27 12:00,ZBYN 271200Z AUTO 29012KT 6SM M04/M24 A3047 RMK SLP377 T10421241 52007 IEM_DS3505
ZBYN,1995-12-27 13:00,ZBYN 271300Z AUTO 32012KT 7SM M05/M24 A3047 RMK T10501240 IEM_DS3505
ZBYN,1995-12-27 14:00,ZBYN 271400Z AUTO 27004KT 7SM M06/M23 A3047 RMK T10601230 IEM_DS3505
ZBYN,1995-12-27 15:00,ZBYN 271500Z AUTO 00000KT 6SM M08/M28 A3047 RMK SLP382 T10761281 52001 IEM_DS3505
ZBYN,1995-12-27 16:00,ZBYN 271600Z AUTO 00000KT 7SM M08/M22 A3047 RMK T10801220 IEM_DS3505
ZBYN,1995-12-27 17:00,ZBYN 271700Z AUTO 22004KT 7SM M10/M19 A3047 RMK T11001190 IEM_DS3505
ZBYN,1995-12-27 18:00,ZBYN 271800Z AUTO 20002KT 6SM M10/M23 A3047 RMK SLP371 T10991228 57010 IEM_DS3505
ZBYN,1995-12-27 19:00,ZBYN 271900Z AUTO 00000KT 7SM M12/M23 A3042 RMK T11201230 IEM_DS3505
ZBYN,1995-12-27 20:00,ZBYN 272000Z AUTO 00000KT 7SM M12/M23 A3042 RMK T11201230 IEM_DS3505
ZBYN,1995-12-27 21:00,ZBYN 272100Z AUTO 14004KT 6SM M13/M22 A3042 RMK SLP370 T11321221 57010 IEM_DS3505
ZBYN,1995-12-27 22:00,ZBYN 272200Z AUTO 09004KT 7SM M14/M22 A3042 RMK T11401220 IEM_DS3505
ZBYN,1995-12-27 23:00,ZBYN 272300Z AUTO 10004KT 7SM M15/M23 A3042 RMK T11501230 IEM_DS3505
ZBYN,1995-12-28 00:00,ZBYN 280000Z AUTO 14006KT 6SM M13/M21 A3042 RMK SLP377 T11331211 52001 IEM_DS3505
ZBYN,1995-12-28 01:00,ZBYN 280100Z AUTO 12004KT 4SM M12/M20 A3042 RMK T11201200 IEM_DS3505
ZBYN,1995-12-28 02:00,ZBYN 280200Z AUTO 15008KT 4SM M08/M17 A3045 RMK T10801170 IEM_DS3505
ZBYN,1995-12-28 03:00,ZBYN 280300Z AUTO 32016KT 6SM M02/M23 A3042 RMK SLP363 T10251230 54000 IEM_DS3505
ZBYN,1995-12-28 04:00,ZBYN 280400Z AUTO 31017KT 7SM M01/M18 A3039 RMK T10101180 IEM_DS3505
ZBYN,1995-12-28 05:00,ZBYN 280500Z AUTO 29023KT 7SM 00/M17 A3036 RMK T00001170 IEM_DS3505
ZBYN,1995-12-28 06:00,ZBYN 280600Z AUTO 29014KT 9SM 01/M25 A3033 RMK SLP337 T00121246 57021 IEM_DS3505
ZBYN,1995-12-28 07:00,ZBYN 280700Z AUTO 32016KT 7SM 02/M16 A3033 RMK T00201160 IEM_DS3505
ZBYN,1995-12-28 08:00,ZBYN 280800Z AUTO 32016KT 7SM 02/M20 A3033 RMK T00201200 IEM_DS3505
ZBYN,1995-12-28 09:00,ZBYN 280900Z AUTO 29012KT 9SM 00/M22 A3036 RMK SLP346 T00041216 52001 IEM_DS3505
ZBYN,1995-12-28 10:00,ZBYN 281000Z AUTO 31004KT 7SM M03/M22 A3036 RMK T10301220 IEM_DS3505
ZBYN,1995-12-28 11:00,ZBYN 281100Z AUTO 03004KT 7SM M05/M25 A3039 RMK T10501250 IEM_DS3505
ZBYN,1995-12-28 12:00,ZBYN 281200Z AUTO 34004KT 6SM M04/M28 A3042 RMK SLP370 T10451284 52013 IEM_DS3505
ZBYN,1995-12-28 13:00,ZBYN 281300Z AUTO 25002KT 7SM M10/M27 A3042 RMK T11001270 IEM_DS3505
ZBYN,1995-12-28 14:00,ZBYN 281400Z AUTO 00000KT 7SM M09/M24 A3042 RMK T10901240 IEM_DS3505
ZBYN,1995-12-28 15:00,ZBYN 281500Z AUTO 22004KT 6SM M05/M25 A3042 RMK SLP352 T10531254 52001 IEM_DS3505
ZBYN,1995-12-28 16:00,ZBYN 281600Z AUTO 10006KT 7SM M12/M27 A3039 RMK T11201270 IEM_DS3505
ZBYN,1995-12-28 17:00,ZBYN 281700Z AUTO 09006KT 7SM M13/M27 A3039 RMK T11301270 IEM_DS3505
ZBYN,1995-12-28 18:00,ZBYN 281800Z AUTO 22004KT 6SM M12/M28 A3036 RMK SLP341 T11171278 57014 IEM_DS3505
ZBYN,1995-12-28 19:00,ZBYN 281900Z AUTO 02004KT 7SM M13/M25 A3036 RMK T11301250 IEM_DS3505
ZBYN,1995-12-28 20:00,ZBYN 282000Z AUTO 09004KT 7SM M13/M24 A3036 RMK T11301240 IEM_DS3505
ZBYN,1995-12-28 21:00,ZBYN 282100Z AUTO 14002KT 6SM M14/M26 A3033 RMK SLP344 T11401265 57003 IEM_DS3505
ZBYN,1995-12-28 22:00,ZBYN 282200Z AUTO 11006KT 7SM M14/M24 A3033 RMK T11401240 IEM_DS3505
ZBYN,1995-12-28 23:00,ZBYN 282300Z AUTO 32004KT 7SM M13/M23 A3036 RMK T11301230 IEM_DS3505
ZBYN,1995-12-29 00:00,ZBYN 290000Z AUTO 00000KT 10SM M14/M24 A3036 RMK SLP354 T11381237 52001 IEM_DS3505
ZBYN,1995-12-29 01:00,ZBYN 290100Z AUTO 00000KT 5SM M12/M22 A3036 RMK T11201220 IEM_DS3505
ZBYN,1995-12-29 02:00,ZBYN 290200Z AUTO 00000KT 5SM M07/M19 A3036 RMK T10701190 IEM_DS3505
ZBYN,1995-12-29 03:00,ZBYN 290300Z AUTO 16004KT 6SM M03/M21 A3036 RMK SLP337 T10291209 52002 IEM_DS3505
ZBYN,1995-12-29 04:00,ZBYN 290400Z AUTO 18004KT 7SM 01/M18 A3033 RMK T00101180 IEM_DS3505
ZBYN,1995-12-29 05:00,ZBYN 290500Z AUTO 21004KT 7SM 02/M16 A3030 RMK T00201160 IEM_DS3505
ZBYN,1995-12-29 06:00,ZBYN 290600Z AUTO 18008KT 6SM 04/M23 A3027 RMK SLP308 T00371234 57026 IEM_DS3505
ZBYN,1995-12-29 07:00,ZBYN 290700Z AUTO 23010KT 7SM 05/M23 A3024 RMK T00501230 IEM_DS3505
ZBYN,1995-12-29 08:00,ZBYN 290800Z AUTO 23010KT 7SM 06/M17 A3024 RMK T00601170 IEM_DS3505
ZBYN,1995-12-29 09:00,ZBYN 290900Z AUTO 02006KT 6SM 04/ A3024 RMK SLP302 57009 IEM_DS3505
ZBYN,1995-12-29 10:00,ZBYN 291000Z AUTO 32006KT 2SM 00/M16 A3027 RMK T00001160 IEM_DS3505
ZBYN,1995-12-29 11:00,ZBYN 291100Z AUTO 00000KT 1 1/2SM M01/M17 A3027 RMK T10101170 IEM_DS3505
ZBYN,1995-12-29 12:00,ZBYN 291200Z AUTO 11002KT 6SM M04/M17 A3027 RMK SLP330 T10361173 52013 IEM_DS3505
ZBYN,1995-12-29 13:00,ZBYN 291300Z AUTO 00000KT 2SM M06/M17 A3030 RMK T10601170 IEM_DS3505
ZBYN,1995-12-29 14:00,ZBYN 291400Z AUTO 00000KT 2SM M06/M18 A3030 RMK T10601180 IEM_DS3505
ZBYN,1995-12-29 15:00,ZBYN 291500Z AUTO 09006KT 6SM M05/M17 A3030 RMK SLP313 T10521169 54000 IEM_DS3505
ZBYN,1995-12-29 16:00,ZBYN 291600Z AUTO 00000KT 4SM M08/M17 A3030 RMK T10801170 IEM_DS3505
ZBYN,1995-12-29 17:00,ZBYN 291700Z AUTO 11004KT 4SM M09/M16 A3027 RMK T10901160 IEM_DS3505
ZBYN,1995-12-29 18:00,ZBYN 291800Z AUTO 00000KT 6SM M08/M18 A3027 RMK SLP303 T10771181 57002 IEM_DS3505
ZBYN,1995-12-29 19:00,ZBYN 291900Z AUTO 09002KT 4SM M10/M18 A3027 RMK T11001180 IEM_DS3505
ZBYN,1995-12-29 20:00,ZBYN 292000Z AUTO 11006KT 4SM M10/M17 A3024 RMK T11001170 IEM_DS3505
ZBYN,1995-12-29 21:00,ZBYN 292100Z AUTO 00000KT 6SM M12/M18 A3024 RMK SLP300 T11181178 57009 IEM_DS3505
ZBYN,1995-12-29 22:00,ZBYN 292200Z AUTO 00000KT 4SM M11/M17 A3024 RMK T11101170 IEM_DS3505
ZBYN,1995-12-29 23:00,ZBYN 292300Z AUTO 09002KT 4SM M12/M18 A3024 RMK T11201180 IEM_DS3505
ZBYN,1995-12-30 00:00,ZBYN 300000Z AUTO 32002KT 6SM M12/M16 A3024 RMK SLP309 T11221164 57005 IEM_DS3505
ZBYN,1995-12-30 01:00,ZBYN 300100Z AUTO 00000KT 5SM M10/M17 A3024 RMK T11001170 IEM_DS3505
ZBYN,1995-12-30 02:00,ZBYN 300200Z AUTO 00000KT 5SM M07/M15 A3024 RMK T10701150 IEM_DS3505
ZBYN,1995-12-30 03:00,ZBYN 300300Z AUTO 14004KT 6SM M01/M14 A3021 RMK SLP291 T10121140 57001 IEM_DS3505
ZBYN,1995-12-30 04:00,ZBYN 300400Z AUTO 19006KT 5SM 04/M14 A3018 RMK T00401140 IEM_DS3505
ZBYN,1995-12-30 05:00,ZBYN 300500Z AUTO 23006KT 5SM 03/M16 A3015 RMK T00301160 IEM_DS3505
ZBYN,1995-12-30 06:00,ZBYN 300600Z AUTO 18008KT 6SM 06/M12 A3009 RMK SLP241 T00601123 57037 IEM_DS3505
ZBYN,1995-12-30 07:00,ZBYN 300700Z AUTO 23012KT 7SM 07/M21 A3006 RMK T00701210 IEM_DS3505
ZBYN,1995-12-30 08:00,ZBYN 300800Z AUTO 29006KT 7SM 07/M15 A3006 RMK T00701150 IEM_DS3505
ZBYN,1995-12-30 09:00,ZBYN 300900Z AUTO 32014KT 11SM 05/M22 A3006 RMK SLP241 T00531223 57008 IEM_DS3505
ZBYN,1995-12-30 10:00,ZBYN 301000Z AUTO 31012KT 7SM 03/M25 A3009 RMK T00301250 IEM_DS3505
ZBYN,1995-12-30 11:00,ZBYN 301100Z AUTO 29014KT 7SM 01/M16 A3012 RMK T00101160 IEM_DS3505
ZBYN,1995-12-30 12:00,ZBYN 301200Z AUTO 32012KT 7SM 02/M22 A3015 RMK SLP264 T00211215 52015 IEM_DS3505
ZBYN,1995-12-30 13:00,ZBYN 301300Z AUTO 32008KT 7SM 01/M19 A3018 RMK T00101190 IEM_DS3505
ZBYN,1995-12-30 14:00,ZBYN 301400Z AUTO 22004KT 7SM M02/M16 A3018 RMK T10201160 IEM_DS3505
ZBYN,1995-12-30 15:00,ZBYN 301500Z AUTO 32004KT 6SM 01/M19 A3018 RMK SLP260 T00091186 52012 IEM_DS3505
ZBYN,1995-12-30 16:00,ZBYN 301600Z AUTO 01006KT 7SM M04/M16 A3018 RMK T10401160 IEM_DS3505
ZBYN,1995-12-30 18:00,ZBYN 301800Z AUTO 00000KT 6SM M06/M18 A3018 RMK SLP266 T10621182 52006 IEM_DS3505
ZBYN,1995-12-30 19:00,ZBYN 301900Z AUTO 10006KT 7SM M08/M17 A3021 RMK T10801170 IEM_DS3505
ZBYN,1995-12-30 20:00,ZBYN 302000Z AUTO 11006KT 7SM M08/M18 A3021 RMK T10801180 IEM_DS3505
ZBYN,1995-12-30 21:00,ZBYN 302100Z AUTO 22002KT 6SM M09/M17 A3021 RMK SLP279 T10881171 52006 IEM_DS3505
ZBYN,1995-12-30 22:00,ZBYN 302200Z AUTO 09006KT 7SM M09/M19 A3024 RMK T10901190 IEM_DS3505
ZBYN,1995-12-30 23:00,ZBYN 302300Z AUTO 09004KT 7SM M11/M19 A3024 RMK T11101190 IEM_DS3505
