station,valid,metar
ZBYN,1999-01-01 00:00,ZBYN 010000Z AUTO 32002KT 6SM M02/M12 A3036 RMK SLP338 T10231120 52012 IEM_DS3505
ZBYN,1999-01-01 01:00,ZBYN 010100Z AUTO 13002KT 1 1/4SM M06/M11 A3036 RMK T10601110 IEM_DS3505
ZBYN,1999-01-01 02:00,ZBYN 010200Z AUTO 00000KT 2SM M02/M10 A3036 RMK T10201100 IEM_DS3505
ZBYN,1999-01-01 03:00,ZBYN 010300Z AUTO 22006KT 6SM M00/M11 RMK SLP346 T10011112 52005 IEM_DS3505
ZBYN,1999-01-01 06:00,ZBYN 010600Z AUTO 14004KT 6SM 05/M10 RMK SLP307 T00461100 57030 IEM_DS3505
ZBYN,1999-01-01 09:00,ZBYN 010900Z AUTO 22012KT 9SM 04/M16 RMK SLP297 T00361157 57010 IEM_DS3505
ZBYN,1999-01-01 12:00,ZBYN 011200Z AUTO 25002KT 9SM 01/M14 A3029 RMK SLP304 T00131136 52010 IEM_DS3505
ZBYN,1999-01-01 14:00,ZBYN 011400Z AUTO 22002KT 6SM M02/M11 A3027 RMK T10201110 IEM_DS3505
ZBYN,1999-01-01 15:00,ZBYN 011500Z AUTO 22004KT 6SM M03/M12 RMK SLP303 T10291125 57004 IEM_DS3505
ZBYN,1999-01-01 16:00,ZBYN 011600Z AUTO 00000KT 6SM M05/M12 A3027 RMK T10501120 IEM_DS3505
ZBYN,1999-01-01 17:00,ZBYN 011700Z AUTO 06004KT 6SM M06/M13 A3024 RMK T10601130 IEM_DS3505
ZBYN,1999-01-01 18:00,ZBYN 011800Z AUTO 00000KT 6SM M06/M13 A3024 RMK SLP288 T10561131 57010 IEM_DS3505
ZBYN,1999-01-01 19:00,ZBYN 011900Z AUTO 08002KT 6SM M09/M14 A3021 RMK T10901140 IEM_DS3505
ZBYN,1999-01-01 20:00,ZBYN 012000Z AUTO 13002KT 6SM M08/M13 A3021 RMK T10801130 IEM_DS3505
ZBYN,1999-01-01 21:00,ZBYN 012100Z AUTO 00000KT 6SM M08/M14 A3018 RMK SLP283 T10841139 57011 IEM_DS3505
ZBYN,1999-01-01 22:00,ZBYN 012200Z AUTO 12002KT 6SM M10/M14 A3015 RMK T11001140 IEM_DS3505
ZBYN,1999-01-01 23:00,ZBYN 012300Z AUTO 09002KT 6SM M09/M13 A3015 RMK T10901130 IEM_DS3505
ZBYN,1999-01-02 00:00,ZBYN 020000Z AUTO 00000KT 5SM M10/M14 A3015 RMK SLP281 T10991142 57008 IEM_DS3505
ZBYN,1999-01-02 02:00,ZBYN 020200Z AUTO 12002KT 5SM M02/M12 A3015 RMK T10201120 IEM_DS3505
ZBYN,1999-01-02 03:00,ZBYN 020300Z AUTO 00000KT 6SM 00/M12 A3012 RMK SLP260 T00041124 57009 IEM_DS3505
ZBYN,1999-01-02 04:00,ZBYN 020400Z AUTO 21002KT 5SM 02/M11 A3009 RMK T00201110 IEM_DS3505
ZBYN,1999-01-02 05:00,ZBYN 020500Z AUTO 19004KT 6SM 04/M11 A3003 RMK T00401110 IEM_DS3505
ZBYN,1999-01-02 06:00,ZBYN 020600Z AUTO 22008KT 6SM 06/M13 A3000 RMK SLP212 T00561132 57040 IEM_DS3505
ZBYN,1999-01-02 07:00,ZBYN 020700Z AUTO 24006KT 6SM 06/M13 A2997 RMK T00601130 IEM_DS3505
ZBYN,1999-01-02 08:00,ZBYN 020800Z AUTO 23006KT 7SM 07/M13 A2997 RMK T00701130 IEM_DS3505
ZBYN,1999-01-02 09:00,ZBYN 020900Z AUTO 22006KT 7SM 05/M12 A2997 RMK SLP201 T00481125 57016 IEM_DS3505
ZBYN,1999-01-02 10:00,ZBYN 021000Z AUTO 16002KT 6SM 01/M13 A2997 RMK T00101130 IEM_DS3505
ZBYN,1999-01-02 11:00,ZBYN 021100Z AUTO 00000KT 6SM M01/M13 A2997 RMK T10101130 IEM_DS3505
ZBYN,1999-01-02 12:00,ZBYN 021200Z AUTO 07004KT 6SM M00/M11 A2997 RMK SLP219 T10051111 52005 IEM_DS3505
ZBYN,1999-01-02 13:00,ZBYN 021300Z AUTO 08002KT 6SM M04/M14 A2997 RMK T10401140 IEM_DS3505
ZBYN,1999-01-02 14:00,ZBYN 021400Z AUTO 09002KT 6SM M05/M14 A2997 RMK T10501140 IEM_DS3505
ZBYN,1999-01-02 15:00,ZBYN 021500Z AUTO 14004KT 6SM M05/M14 A2997 RMK SLP209 T10541145 54000 IEM_DS3505
ZBYN,1999-01-02 16:00,ZBYN 021600Z AUTO 10002KT 6SM M08/M14 A2994 RMK T10801140 IEM_DS3505
ZBYN,1999-01-02 17:00,ZBYN 021700Z AUTO 10002KT 6SM M08/M14 A2994 RMK T10801140 IEM_DS3505
ZBYN,1999-01-02 18:00,ZBYN 021800Z AUTO 00000KT 6SM M06/M12 A2997 RMK SLP202 T10641116 52001 IEM_DS3505
ZBYN,1999-01-02 19:00,ZBYN 021900Z AUTO 12004KT 6SM M09/M14 A2997 RMK T10901140 IEM_DS3505
ZBYN,1999-01-02 20:00,ZBYN 022000Z AUTO 09002KT 6SM M08/M14 A2997 RMK T10801140 IEM_DS3505
ZBYN,1999-01-02 21:00,ZBYN 022100Z AUTO 00000KT 6SM M08/M12 A2994 RMK SLP196 T10781125 57009 IEM_DS3505
ZBYN,1999-01-02 22:00,ZBYN 022200Z AUTO 00000KT 6SM M09/M15 A2994 RMK T10901150 IEM_DS3505
ZBYN,1999-01-02 23:00,ZBYN 022300Z AUTO 00000KT 6SM M09/M15 A2997 RMK T10901150 IEM_DS3505
ZBYN,1999-01-03 00:00,ZBYN 030000Z AUTO 32002KT 4SM M07/M13 A3000 RMK SLP220 T10721132 52014 IEM_DS3505
ZBYN,1999-01-03 02:00,ZBYN 030200Z AUTO 00000KT 1 1/4SM M03/M13 A3000 RMK T10301130 IEM_DS3505
ZBYN,1999-01-03 03:00,ZBYN 030300Z AUTO 00000KT 5SM M00/M13 A3003 RMK SLP239 T10031127 52020 IEM_DS3505
ZBYN,1999-01-03 04:00,ZBYN 030400Z AUTO 15002KT 2 1/2SM 02/M12 A3000 RMK T00201120 IEM_DS3505
ZBYN,1999-01-03 05:00,ZBYN 030500Z AUTO 27004KT 04/M13 A3000 RMK T00401130 IEM_DS3505
ZBYN,1999-01-03 06:00,ZBYN 030600Z AUTO 00000KT 5SM 06/M15 A3000 RMK SLP207 T00611154 57020 IEM_DS3505
ZBYN,1999-01-03 07:00,ZBYN 030700Z AUTO 23002KT 07/M14 A2997 RMK T00701140 IEM_DS3505
ZBYN,1999-01-03 08:00,ZBYN 030800Z AUTO 23002KT 6SM 07/M13 A3000 RMK T00701130 IEM_DS3505
ZBYN,1999-01-03 09:00,ZBYN 030900Z AUTO 00000KT 5SM 05/M15 A3000 RMK SLP215 T00461151 52003 IEM_DS3505
ZBYN,1999-01-03 10:00,ZBYN 031000Z AUTO 00000KT 6SM 02/M13 A3000 RMK T00201130 IEM_DS3505
ZBYN,1999-01-03 11:00,ZBYN 031100Z AUTO 10002KT 5SM M04/M16 A3003 RMK T10401160 IEM_DS3505
ZBYN,1999-01-03 12:00,ZBYN 031200Z AUTO 00000KT 5SM M02/M11 A3003 RMK SLP240 T10161109 52013 IEM_DS3505
ZBYN,1999-01-03 13:00,ZBYN 031300Z AUTO 00000KT 6SM M04/M15 A3006 RMK T10401150 IEM_DS3505
ZBYN,1999-01-03 14:00,ZBYN 031400Z AUTO 13004KT 6SM M04/M15 A3006 RMK T10401150 IEM_DS3505
ZBYN,1999-01-03 15:00,ZBYN 031500Z AUTO 00000KT 5SM M05/M13 A3009 RMK SLP247 T10481129 52013 IEM_DS3505
ZBYN,1999-01-03 16:00,ZBYN 031600Z AUTO 00000KT 6SM M06/M16 A3009 RMK T10601160 IEM_DS3505
ZBYN,1999-01-03 17:00,ZBYN 031700Z AUTO 00000KT 6SM M05/M12 A3009 RMK T10501120 IEM_DS3505
ZBYN,1999-01-03 18:00,ZBYN 031800Z AUTO 00000KT 5SM M06/M14 A3012 RMK SLP250 T10651139 52010 IEM_DS3505
ZBYN,1999-01-03 19:00,ZBYN 031900Z AUTO 13002KT 6SM M08/M15 A3012 RMK T10801150 IEM_DS3505
ZBYN,1999-01-03 20:00,ZBYN 032000Z AUTO 05002KT 6SM M08/M15 A3012 RMK T10801150 IEM_DS3505
ZBYN,1999-01-03 21:00,ZBYN 032100Z AUTO 00000KT 6SM M09/M16 A3012 RMK T10901160 IEM_DS3505
ZBYN,1999-01-03 22:00,ZBYN 032200Z AUTO 00000KT M09/M15 A3009 RMK T10901150 IEM_DS3505
ZBYN,1999-01-03 23:00,ZBYN 032300Z AUTO 10002KT 5SM M10/M16 A3009 RMK T11001160 IEM_DS3505
ZBYN,1999-01-04 00:00,ZBYN 040000Z AUTO 00000KT 5SM M07/M13 A3009 RMK SLP258 T10691128 57004 IEM_DS3505
ZBYN,1999-01-04 01:00,ZBYN 040100Z AUTO 00000KT 2 1/2SM M08/M14 A3012 RMK T10801140 IEM_DS3505
ZBYN,1999-01-04 02:00,ZBYN 040200Z AUTO 32004KT 2 1/2SM M06/M13 A3012 RMK T10601130 IEM_DS3505
ZBYN,1999-01-04 03:00,ZBYN 040300Z AUTO 00000KT 5SM M02/M12 A3012 RMK SLP263 T10201125 52007 IEM_DS3505
ZBYN,1999-01-04 04:00,ZBYN 040400Z AUTO 00000KT 2 1/2SM 00/M13 A3009 RMK T00001130 IEM_DS3505
ZBYN,1999-01-04 05:00,ZBYN 040500Z AUTO 00000KT 02/M12 A3006 RMK T00201120 IEM_DS3505
ZBYN,1999-01-04 06:00,ZBYN 040600Z AUTO 14004KT 5SM 04/M14 A3000 RMK SLP212 T00441137 57038 IEM_DS3505
ZBYN,1999-01-04 07:00,ZBYN 040700Z AUTO 21002KT 6SM 06/M14 A3000 RMK T00601140 IEM_DS3505
ZBYN,1999-01-04 09:00,ZBYN 040900Z AUTO 00000KT 6SM 04/M10 A2997 RMK SLP204 T00421098 57011 IEM_DS3505
ZBYN,1999-01-04 10:00,ZBYN 041000Z AUTO 00000KT 00/M13 A3000 RMK T00001130 IEM_DS3505
ZBYN,1999-01-04 11:00,ZBYN 041100Z AUTO 00000KT M02/M14 A3003 RMK T10201140 IEM_DS3505
ZBYN,1999-01-04 12:00,ZBYN 041200Z AUTO 32002KT 6SM M02/M10 A3006 RMK SLP242 T10161102 52016 IEM_DS3505
ZBYN,1999-01-04 13:00,ZBYN 041300Z AUTO 12002KT M04/M16 A3006 RMK T10401160 IEM_DS3505
ZBYN,1999-01-04 14:00,ZBYN 041400Z AUTO 00000KT M05/M16 A3006 RMK T10501160 IEM_DS3505
ZBYN,1999-01-04 15:00,ZBYN 041500Z AUTO 00000KT 6SM M05/M13 A3006 RMK SLP245 T10481129 52006 IEM_DS3505
ZBYN,1999-01-04 16:00,ZBYN 041600Z AUTO 00000KT M07/M15 A3006 RMK T10701150 IEM_DS3505
ZBYN,1999-01-04 17:00,ZBYN 041700Z AUTO 00000KT M06/M15 A3006 RMK T10601150 IEM_DS3505
ZBYN,1999-01-04 18:00,ZBYN 041800Z AUTO 00000KT 6SM M05/M13 A3009 RMK SLP236 T10491130 52002 IEM_DS3505
ZBYN,1999-01-04 20:00,ZBYN 042000Z AUTO 00000KT M05/M14 A3006 RMK T10501140 IEM_DS3505
ZBYN,1999-01-04 21:00,ZBYN 042100Z AUTO 00000KT 6SM M05/M13 A3006 RMK SLP233 T10461131 57002 IEM_DS3505
ZBYN,1999-01-04 22:00,ZBYN 042200Z AUTO 00000KT M06/M14 A3006 RMK T10601140 IEM_DS3505
ZBYN,1999-01-04 23:00,ZBYN 042300Z AUTO 12002KT 2 1/2SM M05/M11 A3009 RMK T10501110 IEM_DS3505
ZBYN,1999-01-05 00:00,ZBYN 050000Z AUTO 00000KT 2 1/2SM M05/M12 A3009 RMK SLP255 T10501121 52009 IEM_DS3505
ZBYN,1999-01-05 01:00,ZBYN 050100Z AUTO 00000KT 1 1/2SM M03/M12 A3012 RMK T10301120 IEM_DS3505
ZBYN,1999-01-05 02:00,ZBYN 050200Z AUTO 00000KT 2SM M01/M12 A3012 RMK T10101120 IEM_DS3505
ZBYN,1999-01-05 03:00,ZBYN 050300Z AUTO 00000KT 2SM 01/M11 A3012 RMK SLP262 T00071112 52011 IEM_DS3505
ZBYN,1999-01-05 04:00,ZBYN 050400Z AUTO 00000KT 2SM 02/M12 A3012 RMK T00201120 IEM_DS3505
ZBYN,1999-01-05 06:00,ZBYN 050600Z AUTO 32004KT 2 1/2SM 04/M14 A3009 RMK SLP241 T00391137 57014 IEM_DS3505
ZBYN,1999-01-05 07:00,ZBYN 050700Z AUTO 11010KT 2SM 03/M09 A3009 RMK T00301090 IEM_DS3505
ZBYN,1999-01-05 08:00,ZBYN 050800Z AUTO 10010KT 02/M11 A3012 RMK T00201110 IEM_DS3505
ZBYN,1999-01-05 09:00,ZBYN 050900Z AUTO 11006KT 2 1/2SM 01/M10 A3012 RMK SLP262 T00121103 52015 IEM_DS3505
ZBYN,1999-01-05 10:00,ZBYN 051000Z AUTO 09012KT 5SM 01/M11 A3012 RMK T00101110 IEM_DS3505
ZBYN,1999-01-05 12:00,ZBYN 051200Z AUTO 20006KT 4SM M01/M12 A3021 RMK SLP287 T10061116 52019 IEM_DS3505
ZBYN,1999-01-05 13:00,ZBYN 051300Z AUTO 22002KT 6SM M01/M10 A3021 RMK T10101100 IEM_DS3505
ZBYN,1999-01-05 14:00,ZBYN 051400Z AUTO 26006KT 6SM 00/M10 A3021 RMK T00001100 IEM_DS3505
ZBYN,1999-01-05 15:00,ZBYN 051500Z AUTO 32004KT 5SM 01/M12 A3021 RMK SLP279 T00081116 52005 IEM_DS3505
ZBYN,1999-01-05 16:00,ZBYN 051600Z AUTO 24002KT 6SM M01/M11 A3024 RMK T10101110 IEM_DS3505
ZBYN,1999-01-05 17:00,ZBYN 051700Z AUTO 30008KT 6SM 00/M11 A3024 RMK T00001110 IEM_DS3505
ZBYN,1999-01-05 18:00,ZBYN 051800Z AUTO 29021KT 6SM M01/M12 A3024 RMK SLP282 T10081120 52005 IEM_DS3505
ZBYN,1999-01-05 19:00,ZBYN 051900Z AUTO 29017KT 6SM M01/M12 A3024 RMK T10101120 IEM_DS3505
ZBYN,1999-01-05 21:00,ZBYN 052100Z AUTO 29016KT 6SM M03/M13 A3027 RMK SLP299 T10261131 52008 IEM_DS3505
ZBYN,1999-01-05 22:00,ZBYN 052200Z AUTO 27008KT 6SM M03/M13 A3027 RMK T10301130 IEM_DS3505
ZBYN,1999-01-05 23:00,ZBYN 052300Z AUTO 28012KT 6SM M04/M14 A3027 RMK T10401140 IEM_DS3505
ZBYN,1999-01-06 00:00,ZBYN 060000Z AUTO 29017KT 4SM M04/M15 A3030 RMK SLP316 T10451148 52009 IEM_DS3505
ZBYN,1999-01-06 01:00,ZBYN 060100Z AUTO 19004KT 7SM M04/M14 A3030 RMK T10401140 IEM_DS3505
ZBYN,1999-01-06 02:00,ZBYN 060200Z AUTO 31012KT 7SM M03/M15 A3030 RMK T10301150 IEM_DS3505
ZBYN,1999-01-06 03:00,ZBYN 060300Z AUTO 32012KT 6SM M02/M17 A3030 RMK SLP320 T10241168 52010 IEM_DS3505
ZBYN,1999-01-06 04:00,ZBYN 060400Z AUTO 28014KT 6SM 00/M18 A3030 RMK T00001180 IEM_DS3505
ZBYN,1999-01-06 05:00,ZBYN 060500Z AUTO 28016KT 6SM 01/M21 A3027 RMK T00101210 IEM_DS3505
ZBYN,1999-01-06 06:00,ZBYN 060600Z AUTO 29014KT 6SM 01/M17 A3024 RMK SLP288 T00131174 57026 IEM_DS3505
ZBYN,1999-01-06 07:00,ZBYN 060700Z AUTO 27008KT 6SM 02/M22 A3021 RMK T00201220 IEM_DS3505
ZBYN,1999-01-06 08:00,ZBYN 060800Z AUTO 24004KT 6SM 01/M18 A3021 RMK T00101180 IEM_DS3505
ZBYN,1999-01-06 09:00,ZBYN 060900Z AUTO 27017KT 9SM 01/M16 A3021 RMK SLP289 T00071158 57003 IEM_DS3505
ZBYN,1999-01-06 10:00,ZBYN 061000Z AUTO 28004KT 6SM M01/M17 A3027 RMK T10101170 IEM_DS3505
ZBYN,1999-01-06 11:00,ZBYN 061100Z AUTO 30012KT 7SM M02/M23 A3030 RMK T10201230 IEM_DS3505
ZBYN,1999-01-06 12:00,ZBYN 061200Z AUTO 29010KT 6SM M03/M22 A3033 RMK SLP334 T10281216 52032 IEM_DS3505
ZBYN,1999-01-06 13:00,ZBYN 061300Z AUTO 32012KT 7SM M03/M23 A3033 RMK T10301230 IEM_DS3505
ZBYN,1999-01-06 14:00,ZBYN 061400Z AUTO 31004KT 7SM M04/M23 A3036 RMK T10401230 IEM_DS3505
ZBYN,1999-01-06 15:00,ZBYN 061500Z AUTO 27006KT 6SM M06/M21 A3036 RMK SLP345 T10551212 52009 IEM_DS3505
ZBYN,1999-01-06 16:00,ZBYN 061600Z AUTO 28008KT 7SM M05/M22 A3036 RMK T10501220 IEM_DS3505
ZBYN,1999-01-06 17:00,ZBYN 061700Z AUTO 31004KT 7SM M07/M21 A3036 RMK T10701210 IEM_DS3505
ZBYN,1999-01-06 18:00,ZBYN 061800Z AUTO 00000KT 6SM M08/M21 A3036 RMK SLP384 T10771207 52005 IEM_DS3505
ZBYN,1999-01-06 19:00,ZBYN 061900Z AUTO 11004KT 7SM M11/M22 A3039 RMK T11101220 IEM_DS3505
ZBYN,1999-01-06 20:00,ZBYN 062000Z AUTO 00000KT 7SM M11/M21 A3039 RMK T11101210 IEM_DS3505
ZBYN,1999-01-06 21:00,ZBYN 062100Z AUTO 00000KT 6SM M11/M20 A3036 RMK SLP347 T11061197 57007 IEM_DS3505
ZBYN,1999-01-06 22:00,ZBYN 062200Z AUTO 12004KT 7SM M14/M22 A3036 RMK T11401220 IEM_DS3505
ZBYN,1999-01-06 23:00,ZBYN 062300Z AUTO 13002KT 7SM M14/M22 A3036 RMK T11401220 IEM_DS3505
ZBYN,1999-01-07 00:00,ZBYN 070000Z AUTO 34002KT 6SM M09/M19 A3039 RMK SLP360 T10941189 52008 IEM_DS3505
ZBYN,1999-01-07 01:00,ZBYN 070100Z AUTO 00000KT 6SM M11/M21 A3039 RMK T11101210 IEM_DS3505
ZBYN,1999-01-07 02:00,ZBYN 070200Z AUTO 35008KT 6SM M06/M19 A3039 RMK T10601190 IEM_DS3505
ZBYN,1999-01-07 03:00,ZBYN 070300Z AUTO 02008KT 7SM M06/M21 A3039 RMK SLP365 T10551212 52007 IEM_DS3505
ZBYN,1999-01-07 04:00,ZBYN 070400Z AUTO 32004KT 6SM M04/M21 A3036 RMK T10401210 IEM_DS3505
ZBYN,1999-01-07 05:00,ZBYN 070500Z AUTO 34004KT 6SM M03/M22 A3030 RMK T10301220 IEM_DS3505
ZBYN,1999-01-07 06:00,ZBYN 070600Z AUTO 27002KT 7SM M02/M21 A3027 RMK SLP324 T10221207 57036 IEM_DS3505
ZBYN,1999-01-07 07:00,ZBYN 070700Z AUTO 24002KT 6SM M02/M21 A3024 RMK T10201210 IEM_DS3505
ZBYN,1999-01-07 08:00,ZBYN 070800Z AUTO 24004KT 6SM M02/M23 A3024 RMK T10201230 IEM_DS3505
ZBYN,1999-01-07 09:00,ZBYN 070900Z AUTO 29004KT 7SM M02/M20 A3021 RMK SLP310 T10201200 57017 IEM_DS3505
ZBYN,1999-01-07 10:00,ZBYN 071000Z AUTO 26004KT 6SM M04/M21 A3024 RMK T10401210 IEM_DS3505
ZBYN,1999-01-07 11:00,ZBYN 071100Z AUTO 30004KT 6SM M07/M20 A3024 RMK T10701200 IEM_DS3505
ZBYN,1999-01-07 12:00,ZBYN 071200Z AUTO 29006KT 7SM M07/M22 A3027 RMK SLP334 T10661220 52016 IEM_DS3505
ZBYN,1999-01-07 13:00,ZBYN 071300Z AUTO 30002KT 6SM M07/M25 A3027 RMK T10701250 IEM_DS3505
ZBYN,1999-01-07 14:00,ZBYN 071400Z AUTO 28004KT 6SM M07/M25 A3030 RMK T10701250 IEM_DS3505
ZBYN,1999-01-07 15:00,ZBYN 071500Z AUTO 32004KT 7SM M08/M28 RMK SLP330 T10751275 52001 IEM_DS3505
ZBYN,1999-01-07 16:00,ZBYN 071600Z AUTO 28006KT 6SM M07/M25 A3027 RMK T10701250 IEM_DS3505
ZBYN,1999-01-07 17:00,ZBYN 071700Z AUTO 27004KT 6SM M08/M25 A3024 RMK T10801250 IEM_DS3505
ZBYN,1999-01-07 18:00,ZBYN 071800Z AUTO 27004KT 7SM M08/M25 A3024 RMK SLP316 T10811251 57008 IEM_DS3505
ZBYN,1999-01-07 19:00,ZBYN 071900Z AUTO 12002KT 6SM M12/M23 A3027 RMK T11201230 IEM_DS3505
ZBYN,1999-01-07 20:00,ZBYN 072000Z AUTO 10002KT 6SM M15/M27 A3027 RMK T11501270 IEM_DS3505
ZBYN,1999-01-07 21:00,ZBYN 072100Z AUTO 11004KT 7SM M13/M26 A3027 RMK SLP327 T11261256 52003 IEM_DS3505
ZBYN,1999-01-07 22:00,ZBYN 072200Z AUTO 10004KT 6SM M14/M24 A3027 RMK T11401240 IEM_DS3505
ZBYN,1999-01-07 23:00,ZBYN 072300Z AUTO 08002KT 6SM M15/M25 A3027 RMK T11501250 IEM_DS3505
ZBYN,1999-01-08 00:00,ZBYN 080000Z AUTO 34002KT 7SM M13/M22 A3030 RMK SLP344 T11261221 52007 IEM_DS3505
ZBYN,1999-01-08 01:00,ZBYN 080100Z AUTO 14002KT 6SM M12/M23 A3030 RMK T11201230 IEM_DS3505
ZBYN,1999-01-08 02:00,ZBYN 080200Z AUTO 31008KT 6SM M06/M24 A3030 RMK T10601240 IEM_DS3505
ZBYN,1999-01-08 03:00,ZBYN 080300Z AUTO 29008KT 10SM M04/M28 A3030 RMK SLP334 T10451283 52004 IEM_DS3505
ZBYN,1999-01-08 04:00,ZBYN 080400Z AUTO 25004KT 6SM M05/M23 A3027 RMK T10501230 IEM_DS3505
ZBYN,1999-01-08 05:00,ZBYN 080500Z AUTO 33004KT 6SM M04/M24 A3024 RMK T10401240 IEM_DS3505
ZBYN,1999-01-08 06:00,ZBYN 080600Z AUTO 34004KT 11SM M02/M24 A3021 RMK SLP300 T10151240 57027 IEM_DS3505
ZBYN,1999-01-08 07:00,ZBYN 080700Z AUTO 31004KT 6SM M01/M24 A3021 RMK T10101240 IEM_DS3505
ZBYN,1999-01-08 08:00,ZBYN 080800Z AUTO 34006KT 6SM M02/M24 A3021 RMK T10201240 IEM_DS3505
ZBYN,1999-01-08 09:00,ZBYN 080900Z AUTO 36004KT 7SM M04/M27 A3024 RMK SLP320 T10391271 52006 IEM_DS3505
ZBYN,1999-01-08 10:00,ZBYN 081000Z AUTO 32006KT 6SM M06/M24 A3024 RMK T10601240 IEM_DS3505
ZBYN,1999-01-08 11:00,ZBYN 081100Z AUTO 33004KT 6SM M08/M25 A3030 RMK T10801250 IEM_DS3505
ZBYN,1999-01-08 12:00,ZBYN 081200Z AUTO 36002KT 7SM M06/M25 A3033 RMK SLP347 T10641250 52020 IEM_DS3505
ZBYN,1999-01-08 13:00,ZBYN 081300Z AUTO 33004KT 6SM M08/M25 A3033 RMK T10801250 IEM_DS3505
ZBYN,1999-01-08 14:00,ZBYN 081400Z AUTO 36008KT 6SM M08/M27 A3036 RMK T10801270 IEM_DS3505
ZBYN,1999-01-08 15:00,ZBYN 081500Z AUTO 02002KT 6SM M09/M28 A3036 RMK T10901280 IEM_DS3505
ZBYN,1999-01-08 16:00,ZBYN 081600Z AUTO 34006KT 6SM M09/M28 A3036 RMK T10901280 IEM_DS3505
ZBYN,1999-01-08 17:00,ZBYN 081700Z AUTO 34006KT 6SM M10/M28 A3036 RMK T11001280 IEM_DS3505
ZBYN,1999-01-08 18:00,ZBYN 081800Z AUTO 02008KT 6SM M08/M28 A3039 RMK SLP355 T10851281 52010 IEM_DS3505
ZBYN,1999-01-08 20:00,ZBYN 082000Z AUTO 07002KT 6SM M13/M27 A3039 RMK T11301270 IEM_DS3505
ZBYN,1999-01-08 21:00,ZBYN 082100Z AUTO 36002KT 6SM M10/M26 RMK SLP374 T11041258 52010 IEM_DS3505
ZBYN,1999-01-08 22:00,ZBYN 082200Z AUTO 13004KT 6SM M15/M25 A3042 RMK T11501250 IEM_DS3505
ZBYN,1999-01-08 23:00,ZBYN 082300Z AUTO 00000KT 6SM M15/M27 A3042 RMK T11501270 IEM_DS3505
ZBYN,1999-01-09 00:00,ZBYN 090000Z AUTO 32004KT 6SM M13/M25 A3042 RMK SLP391 T11281251 52007 IEM_DS3505
ZBYN,1999-01-09 01:00,ZBYN 090100Z AUTO 13002KT M12/M24 A3042 RMK T11201240 IEM_DS3505
ZBYN,1999-01-09 02:00,ZBYN 090200Z AUTO 21002KT 5SM M11/M24 A3045 RMK T11101240 IEM_DS3505
ZBYN,1999-01-09 03:00,ZBYN 090300Z AUTO 34002KT 4SM M07/M22 A3045 RMK SLP384 T10671224 52002 IEM_DS3505
ZBYN,1999-01-09 04:00,ZBYN 090400Z AUTO 29004KT 6SM M05/M25 A3039 RMK T10501250 IEM_DS3505
ZBYN,1999-01-09 05:00,ZBYN 090500Z AUTO 25004KT 6SM M04/M27 A3036 RMK T10401270 IEM_DS3505
ZBYN,1999-01-09 06:00,ZBYN 090600Z AUTO 22004KT 4SM M04/M26 A3033 RMK SLP347 T10371263 57030 IEM_DS3505
ZBYN,1999-01-09 07:00,ZBYN 090700Z AUTO 21006KT 6SM M03/M25 A3033 RMK T10301250 IEM_DS3505
ZBYN,1999-01-09 08:00,ZBYN 090800Z AUTO 19002KT 6SM M04/M24 A3033 RMK T10401240 IEM_DS3505
ZBYN,1999-01-09 09:00,ZBYN 090900Z AUTO 14004KT 4SM M04/M25 A3033 RMK SLP342 T10381252 57008 IEM_DS3505
ZBYN,1999-01-09 10:00,ZBYN 091000Z AUTO 00000KT 6SM M04/M24 A3033 RMK T10401240 IEM_DS3505
ZBYN,1999-01-09 11:00,ZBYN 091100Z AUTO 10002KT 6SM M05/M24 A3033 RMK T10501240 IEM_DS3505
ZBYN,1999-01-09 12:00,ZBYN 091200Z AUTO 11002KT 4SM M06/M22 A3033 RMK SLP359 T10611218 52007 IEM_DS3505
ZBYN,1999-01-09 13:00,ZBYN 091300Z AUTO 09002KT 6SM M07/M22 A3033 RMK T10701220 IEM_DS3505
ZBYN,1999-01-09 14:00,ZBYN 091400Z AUTO 11002KT 6SM M07/M24 A3033 RMK T10701240 IEM_DS3505
ZBYN,1999-01-09 15:00,ZBYN 091500Z AUTO 11002KT 5SM M08/M23 A3033 RMK SLP358 T10831233 52006 IEM_DS3505
ZBYN,1999-01-09 16:00,ZBYN 091600Z AUTO 13002KT 6SM M10/M22 A3033 RMK T11001220 IEM_DS3505
ZBYN,1999-01-09 17:00,ZBYN 091700Z AUTO 00000KT 6SM M12/M23 A3033 RMK T11201230 IEM_DS3505
ZBYN,1999-01-09 18:00,ZBYN 091800Z AUTO 00000KT 5SM M12/M21 A3033 RMK SLP352 T11181208 57006 IEM_DS3505
ZBYN,1999-01-09 19:00,ZBYN 091900Z AUTO 00000KT 6SM M12/M25 A3033 RMK T11201250 IEM_DS3505
ZBYN,1999-01-09 20:00,ZBYN 092000Z AUTO 13002KT 6SM M12/M22 A3030 RMK T11201220 IEM_DS3505
ZBYN,1999-01-09 21:00,ZBYN 092100Z AUTO 32002KT 5SM M10/M20 A3033 RMK SLP342 T11011198 57006 IEM_DS3505
ZBYN,1999-01-09 22:00,ZBYN 092200Z AUTO 00000KT 6SM M13/M24 A3030 RMK T11301240 IEM_DS3505
ZBYN,1999-01-09 23:00,ZBYN 092300Z AUTO 13002KT 5SM M12/M23 A3033 RMK T11201230 IEM_DS3505
ZBYN,1999-01-11 00:00,ZBYN 110000Z AUTO 34002KT 6SM M11/M18 A3047 RMK SLP392 T11081185 52007 IEM_DS3505
ZBYN,1999-01-11 01:00,ZBYN 110100Z AUTO 11002KT 6SM M11/M19 A3047 RMK T11101190 IEM_DS3505
ZBYN,1999-01-11 02:00,ZBYN 110200Z AUTO 00000KT 6SM M08/M19 A3047 RMK T10801190 IEM_DS3505
ZBYN,1999-01-11 03:00,ZBYN 110300Z AUTO 36004KT 6SM M05/M19 RMK SLP395 T10511193 52010 IEM_DS3505
ZBYN,1999-01-11 04:00,ZBYN 110400Z AUTO 21002KT 6SM M04/M18 A3045 RMK T10401180 IEM_DS3505
ZBYN,1999-01-11 05:00,ZBYN 110500Z AUTO 34002KT 7SM M02/M19 A3042 RMK T10201190 IEM_DS3505
ZBYN,1999-01-11 06:00,ZBYN 110600Z AUTO 00000KT 6SM M01/M20 A3039 RMK SLP369 T10131200 57028 IEM_DS3505
ZBYN,1999-01-11 08:00,ZBYN 110800Z AUTO 24002KT 7SM M01/M19 A3036 RMK T10101190 IEM_DS3505
ZBYN,1999-01-11 09:00,ZBYN 110900Z AUTO 00000KT 9SM M01/M20 A3036 RMK SLP361 T10131200 57005 IEM_DS3505
ZBYN,1999-01-11 10:00,ZBYN 111000Z AUTO 36002KT 6SM M04/M20 A3039 RMK T10401200 IEM_DS3505
ZBYN,1999-01-11 12:00,ZBYN 111200Z AUTO 32004KT 6SM M06/M19 A3042 RMK SLP382 T10631194 52008 IEM_DS3505
ZBYN,1999-01-11 14:00,ZBYN 111400Z AUTO 15002KT 6SM M08/M19 A3042 RMK T10801190 IEM_DS3505
ZBYN,1999-01-11 15:00,ZBYN 111500Z AUTO 32002KT 6SM M08/M20 A3042 RMK SLP381 T10851198 52006 IEM_DS3505
ZBYN,1999-01-11 17:00,ZBYN 111700Z AUTO 00000KT 6SM M12/M21 A3042 RMK T11201210 IEM_DS3505
ZBYN,1999-01-11 18:00,ZBYN 111800Z AUTO 32002KT 6SM M10/M19 A3042 RMK SLP373 T11021189 57004 IEM_DS3505
ZBYN,1999-01-11 19:00,ZBYN 111900Z AUTO 00000KT 6SM M12/M20 A3042 RMK T11201200 IEM_DS3505
ZBYN,1999-01-11 20:00,ZBYN 112000Z AUTO 00000KT 6SM M13/M19 A3042 RMK T11301190 IEM_DS3505
ZBYN,1999-01-11 21:00,ZBYN 112100Z AUTO 34002KT 6SM M10/M19 A3042 RMK SLP377 T11031190 52003 IEM_DS3505
ZBYN,1999-01-11 22:00,ZBYN 112200Z AUTO 08002KT 6SM M15/M22 A3042 RMK T11501220 IEM_DS3505
ZBYN,1999-01-11 23:00,ZBYN 112300Z AUTO 00000KT 6SM M14/M21 A3042 RMK T11401210 IEM_DS3505
ZBYN,1999-01-12 00:00,ZBYN 120000Z AUTO 32002KT 6SM M10/M18 A3042 RMK SLP388 T10991182 52002 IEM_DS3505
ZBYN,1999-01-12 01:00,ZBYN 120100Z AUTO 00000KT 3SM M12/M20 A3045 RMK T11201200 IEM_DS3505
ZBYN,1999-01-12 02:00,ZBYN 120200Z AUTO 11002KT 2 1/2SM M09/M18 A3045 RMK T10901180 IEM_DS3505
ZBYN,1999-01-12 03:00,ZBYN 120300Z AUTO 36004KT 6SM M06/M20 A3042 RMK SLP381 T10601205 57003 IEM_DS3505
ZBYN,1999-01-12 04:00,ZBYN 120400Z AUTO 00000KT M04/M19 A3042 RMK T10401190 IEM_DS3505
ZBYN,1999-01-12 05:00,ZBYN 120500Z AUTO 24004KT 5SM M03/M17 A3036 RMK T10301170 IEM_DS3505
ZBYN,1999-01-12 06:00,ZBYN 120600Z AUTO 14002KT 6SM M02/M18 A3033 RMK SLP344 T10231182 57030 IEM_DS3505
ZBYN,1999-01-12 07:00,ZBYN 120700Z AUTO 00000KT 5SM M01/M17 A3033 RMK T10101170 IEM_DS3505
ZBYN,1999-01-12 08:00,ZBYN 120800Z AUTO 00000KT 5SM M01/M17 A3033 RMK T10101170 IEM_DS3505
ZBYN,1999-01-12 09:00,ZBYN 120900Z AUTO 14004KT 6SM M02/M17 A3030 RMK SLP331 T10171166 57011 IEM_DS3505
ZBYN,1999-01-12 10:00,ZBYN 121000Z AUTO 00000KT 5SM M02/M16 A3030 RMK T10201160 IEM_DS3505
ZBYN,1999-01-12 11:00,ZBYN 121100Z AUTO 27002KT 6SM M05/M16 A3033 RMK T10501160 IEM_DS3505
ZBYN,1999-01-12 12:00,ZBYN 121200Z AUTO 34002KT 6SM M05/M15 A3036 RMK SLP359 T10501151 52020 IEM_DS3505
ZBYN,1999-01-12 13:00,ZBYN 121300Z AUTO 09002KT M07/M16 A3036 RMK T10701160 IEM_DS3505
ZBYN,1999-01-12 14:00,ZBYN 121400Z AUTO 12002KT M09/M18 A3036 RMK T10901180 IEM_DS3505
ZBYN,1999-01-12 15:00,ZBYN 121500Z AUTO 00000KT 6SM M08/M16 A3036 RMK SLP361 T10821161 52003 IEM_DS3505
ZBYN,1999-01-12 16:00,ZBYN 121600Z AUTO 10002KT 5SM M10/M17 A3036 RMK T11001170 IEM_DS3505
ZBYN,1999-01-12 17:00,ZBYN 121700Z AUTO 10002KT 5SM M09/M18 A3036 RMK T10901180 IEM_DS3505
ZBYN,1999-01-12 18:00,ZBYN 121800Z AUTO 36002KT 5SM M08/M17 A3036 RMK SLP353 T10811173 54000 IEM_DS3505
ZBYN,1999-01-12 19:00,ZBYN 121900Z AUTO 08002KT 6SM M09/M16 A3036 RMK T10901160 IEM_DS3505
ZBYN,1999-01-12 20:00,ZBYN 122000Z AUTO 00000KT 6SM M10/M17 A3039 RMK T11001170 IEM_DS3505
ZBYN,1999-01-12 21:00,ZBYN 122100Z AUTO 34002KT 4SM M11/M18 A3036 RMK SLP359 T11061181 52002 IEM_DS3505
ZBYN,1999-01-12 22:00,ZBYN 122200Z AUTO 13002KT 5SM M11/M18 A3036 RMK T11101180 IEM_DS3505
ZBYN,1999-01-12 23:00,ZBYN 122300Z AUTO 08002KT M12/M20 A3039 RMK T11201200 IEM_DS3505
ZBYN,1999-01-13 00:00,ZBYN 130000Z AUTO 00000KT 4SM M13/M19 A3039 RMK SLP378 T11311192 52007 IEM_DS3505
ZBYN,1999-01-13 01:00,ZBYN 130100Z AUTO 00000KT 1 1/4SM M11/M18 A3039 RMK T11101180 IEM_DS3505
ZBYN,1999-01-13 02:00,ZBYN 130200Z AUTO 00000KT 2SM M07/M18 A3039 RMK T10701180 IEM_DS3505
ZBYN,1999-01-13 03:00,ZBYN 130300Z AUTO 34006KT 2 1/2SM M04/M15 A3039 RMK SLP368 T10441154 52001 IEM_DS3505
ZBYN,1999-01-13 04:00,ZBYN 130400Z AUTO 33008KT 5SM M01/M18 A3036 RMK T10101180 IEM_DS3505
ZBYN,1999-01-13 05:00,ZBYN 130500Z AUTO 33008KT 6SM 00/M16 A3036 RMK T00001160 IEM_DS3505
ZBYN,1999-01-13 06:00,ZBYN 130600Z AUTO 02006KT 6SM 00/M16 A3033 RMK SLP336 T00001155 57022 IEM_DS3505
ZBYN,1999-01-13 07:00,ZBYN 130700Z AUTO 31002KT 6SM 01/M17 A3030 RMK T00101170 IEM_DS3505
ZBYN,1999-01-13 08:00,ZBYN 130800Z AUTO 32004KT 6SM 01/M17 A3030 RMK T00101170 IEM_DS3505
ZBYN,1999-01-13 09:00,ZBYN 130900Z AUTO 32004KT 6SM M00/M17 A3033 RMK SLP341 T10021167 54000 IEM_DS3505
ZBYN,1999-01-13 10:00,ZBYN 131000Z AUTO 26004KT M02/M14 A3033 RMK T10201140 IEM_DS3505
ZBYN,1999-01-13 11:00,ZBYN 131100Z AUTO 32006KT 6SM M04/M18 A3036 RMK T10401180 IEM_DS3505
ZBYN,1999-01-13 12:00,ZBYN 131200Z AUTO 34002KT 6SM M05/M18 A3039 RMK SLP377 T10471183 52021 IEM_DS3505
ZBYN,1999-01-13 14:00,ZBYN 131400Z AUTO 32008KT 6SM M05/M21 A3045 RMK T10501210 IEM_DS3505
ZBYN,1999-01-13 15:00,ZBYN 131500Z AUTO 34004KT 6SM M05/M21 A3045 RMK SLP375 T10501209 52012 IEM_DS3505
ZBYN,1999-01-13 16:00,ZBYN 131600Z AUTO 04002KT 6SM M07/M21 A3045 RMK T10701210 IEM_DS3505
ZBYN,1999-01-13 17:00,ZBYN 131700Z AUTO 33004KT 6SM M08/M21 A3045 RMK T10801210 IEM_DS3505
ZBYN,1999-01-13 18:00,ZBYN 131800Z AUTO 36004KT 6SM M07/M20 A3045 RMK SLP376 T10741201 52005 IEM_DS3505
ZBYN,1999-01-13 19:00,ZBYN 131900Z AUTO 01004KT 6SM M09/M22 A3045 RMK T10901220 IEM_DS3505
ZBYN,1999-01-13 20:00,ZBYN 132000Z AUTO 33008KT 6SM M08/M23 A3045 RMK T10801230 IEM_DS3505
ZBYN,1999-01-13 21:00,ZBYN 132100Z AUTO 34006KT 6SM M09/M22 A3045 RMK SLP383 T10921223 52003 IEM_DS3505
ZBYN,1999-01-13 22:00,ZBYN 132200Z AUTO 28012KT 6SM M09/M24 A3045 RMK T10901240 IEM_DS3505
ZBYN,1999-01-13 23:00,ZBYN 132300Z AUTO 30014KT 6SM M10/M24 A3047 RMK T11001240 IEM_DS3505
ZBYN,1999-01-14 00:00,ZBYN 140000Z AUTO 29014KT 7SM M11/M22 A3047 RMK SLP405 T11061222 52009 IEM_DS3505
ZBYN,1999-01-14 01:00,ZBYN 140100Z AUTO 30012KT 6SM M10/M24 A3047 RMK T11001240 IEM_DS3505
ZBYN,1999-01-14 02:00,ZBYN 140200Z AUTO 32012KT 6SM M08/M24 A3050 RMK T10801240 IEM_DS3505
ZBYN,1999-01-14 03:00,ZBYN 140300Z AUTO 29016KT 6SM M07/M26 A3050 RMK SLP408 T10731255 52008 IEM_DS3505
ZBYN,1999-01-14 04:00,ZBYN 140400Z AUTO 28017KT 6SM M07/M23 A3047 RMK T10701230 IEM_DS3505
ZBYN,1999-01-14 05:00,ZBYN 140500Z AUTO 29016KT 6SM M05/M23 A3045 RMK T10501230 IEM_DS3505
ZBYN,1999-01-14 06:00,ZBYN 140600Z AUTO 29021KT 5SM M05/M22 A3042 RMK SLP368 T10511222 4////1119 57036 IEM_DS3505
ZBYN,1999-01-14 07:00,ZBYN 140700Z AUTO 30016KT 6SM M04/M22 A3039 RMK T10401220 IEM_DS3505
ZBYN,1999-01-14 08:00,ZBYN 140800Z AUTO 29017KT 6SM M04/M22 A3042 RMK T10401220 IEM_DS3505
ZBYN,1999-01-14 09:00,ZBYN 140900Z AUTO 29019KT 6SM M06/M27 A3042 RMK SLP380 T10561266 52007 IEM_DS3505
ZBYN,1999-01-14 10:00,ZBYN 141000Z AUTO 30012KT 6SM M06/M21 A3045 RMK T10601210 IEM_DS3505
ZBYN,1999-01-14 11:00,ZBYN 141100Z AUTO 30010KT 6SM M07/M21 A3047 RMK T10701210 IEM_DS3505
ZBYN,1999-01-14 12:00,ZBYN 141200Z AUTO 34004KT 7SM M07/M22 A3047 RMK SLP409 T10721216 52021 IEM_DS3505
ZBYN,1999-01-14 13:00,ZBYN 141300Z AUTO 00000KT 6SM M08/M21 A3050 RMK T10801210 IEM_DS3505
ZBYN,1999-01-14 14:00,ZBYN 141400Z AUTO 19002KT 7SM M09/M21 A3050 RMK T10901210 IEM_DS3505
ZBYN,1999-01-14 15:00,ZBYN 141500Z AUTO 00000KT 6SM M10/M21 A3050 RMK SLP418 T11051207 52008 IEM_DS3505
ZBYN,1999-01-14 17:00,ZBYN 141700Z AUTO 09002KT 7SM M13/M21 A3050 RMK T11301210 IEM_DS3505
ZBYN,1999-01-14 18:00,ZBYN 141800Z AUTO 09004KT 6SM M13/M21 A3053 RMK SLP421 T11291212 52002 IEM_DS3505
ZBYN,1999-01-14 20:00,ZBYN 142000Z AUTO 12002KT 6SM M14/M22 A3050 RMK T11401220 IEM_DS3505
ZBYN,1999-01-14 21:00,ZBYN 142100Z AUTO 32002KT 6SM M13/M19 A3047 RMK SLP409 T11311188 57012 IEM_DS3505
ZBYN,1999-01-14 22:00,ZBYN 142200Z AUTO 11002KT 6SM M14/M20 A3047 RMK T11401200 IEM_DS3505
ZBYN,1999-01-14 23:00,ZBYN 142300Z AUTO 00000KT 6SM M15/M21 A3047 RMK T11501210 IEM_DS3505
ZBYN,1999-01-15 00:00,ZBYN 150000Z AUTO 14002KT 6SM M14/M20 A3047 RMK SLP413 T11441205 57002 IEM_DS3505
ZBYN,1999-01-15 01:00,ZBYN 150100Z AUTO 11002KT 5SM M13/M19 A3050 RMK T11301190 IEM_DS3505
ZBYN,1999-01-15 02:00,ZBYN 150200Z AUTO 11002KT 3SM M09/M20 A3050 RMK T10901200 IEM_DS3505
ZBYN,1999-01-15 03:00,ZBYN 150300Z AUTO 00000KT 5SM M07/M20 A3050 RMK SLP418 T10671195 52013 IEM_DS3505
ZBYN,1999-01-15 04:00,ZBYN 150400Z AUTO 21002KT 5SM M05/M19 A3047 RMK T10501190 IEM_DS3505
ZBYN,1999-01-15 05:00,ZBYN 150500Z AUTO 23006KT 5SM M03/M19 A3042 RMK T10301190 IEM_DS3505
ZBYN,1999-01-15 06:00,ZBYN 150600Z AUTO 14004KT 6SM M02/M20 A3039 RMK SLP370 T10201202 57040 IEM_DS3505
ZBYN,1999-01-15 07:00,ZBYN 150700Z AUTO 00000KT 5SM M01/M19 A3036 RMK T10101190 IEM_DS3505
ZBYN,1999-01-15 09:00,ZBYN 150900Z AUTO 14004KT 6SM M01/M16 A3033 RMK SLP353 T10071165 57013 IEM_DS3505
ZBYN,1999-01-15 10:00,ZBYN 151000Z AUTO 00000KT 6SM M03/M17 A3033 RMK T10301170 IEM_DS3505
ZBYN,1999-01-15 12:00,ZBYN 151200Z AUTO 34002KT 6SM M06/M16 A3036 RMK SLP372 T10561163 52006 IEM_DS3505
ZBYN,1999-01-15 13:00,ZBYN 151300Z AUTO 13004KT 6SM M08/M19 A3036 RMK T10801190 IEM_DS3505
ZBYN,1999-01-15 14:00,ZBYN 151400Z AUTO 00000KT 6SM M09/M20 A3039 RMK T10901200 IEM_DS3505
ZBYN,1999-01-15 15:00,ZBYN 151500Z AUTO 00000KT 6SM M09/M21 A3039 RMK SLP369 T10891206 52005 IEM_DS3505
ZBYN,1999-01-15 16:00,ZBYN 151600Z AUTO 12004KT 6SM M12/M20 A3039 RMK T11201200 IEM_DS3505
ZBYN,1999-01-15 17:00,ZBYN 151700Z AUTO 00000KT 6SM M12/M20 A3039 RMK T11201200 IEM_DS3505
ZBYN,1999-01-15 18:00,ZBYN 151800Z AUTO 00000KT 6SM M11/M18 A3039 RMK SLP372 T11131185 52007 IEM_DS3505
ZBYN,1999-01-15 19:00,ZBYN 151900Z AUTO 09002KT 6SM M12/M19 A3039 RMK T11201190 IEM_DS3505
ZBYN,1999-01-15 21:00,ZBYN 152100Z AUTO 34002KT 6SM M14/M19 RMK SLP365 T11361191 57008 IEM_DS3505
ZBYN,1999-01-15 22:00,ZBYN 152200Z AUTO 12002KT 6SM M13/M20 A3036 RMK T11301200 IEM_DS3505
ZBYN,1999-01-15 23:00,ZBYN 152300Z AUTO 06002KT 5SM M14/M20 A3039 RMK T11401200 IEM_DS3505
ZBYN,1999-01-16 00:00,ZBYN 160000Z AUTO 14002KT 4SM M15/M20 A3039 RMK SLP388 T11521205 52009 IEM_DS3505
ZBYN,1999-01-16 01:00,ZBYN 160100Z AUTO 06004KT 3SM M12/M20 A3042 RMK T11201200 IEM_DS3505
ZBYN,1999-01-16 02:00,ZBYN 160200Z AUTO 15002KT 3SM M09/M20 A3045 RMK T10901200 IEM_DS3505
ZBYN,1999-01-16 03:00,ZBYN 160300Z AUTO 18002KT 3SM M06/M20 A3045 RMK SLP390 T10611198 52012 IEM_DS3505
ZBYN,1999-01-16 04:00,ZBYN 160400Z AUTO 00000KT 3SM M03/M19 A3042 RMK T10301190 IEM_DS3505
ZBYN,1999-01-16 05:00,ZBYN 160500Z AUTO 00000KT M01/M20 A3039 RMK T10101200 IEM_DS3505
ZBYN,1999-01-16 06:00,ZBYN 160600Z AUTO 18004KT 3SM 01/M22 A3033 RMK SLP344 T00111218 57033 IEM_DS3505
ZBYN,1999-01-16 07:00,ZBYN 160700Z AUTO 23002KT 6SM 02/M19 A3033 RMK T00201190 IEM_DS3505
ZBYN,1999-01-16 08:00,ZBYN 160800Z AUTO 21002KT 6SM 02/M18 A3033 RMK T00201180 IEM_DS3505
ZBYN,1999-01-16 09:00,ZBYN 160900Z AUTO 18004KT 4SM 01/M16 A3033 RMK SLP340 T00091161 57008 IEM_DS3505
ZBYN,1999-01-16 10:00,ZBYN 161000Z AUTO 00000KT M02/M15 A3033 RMK T10201150 IEM_DS3505
ZBYN,1999-01-16 11:00,ZBYN 161100Z AUTO 08002KT M05/M19 A3033 RMK T10501190 IEM_DS3505
ZBYN,1999-01-16 12:00,ZBYN 161200Z AUTO 00000KT 6SM M04/M16 A3033 RMK SLP363 T10351156 52010 IEM_DS3505
ZBYN,1999-01-16 13:00,ZBYN 161300Z AUTO 00000KT 6SM M06/M18 A3036 RMK T10601180 IEM_DS3505
ZBYN,1999-01-16 14:00,ZBYN 161400Z AUTO 00000KT 6SM M06/M19 A3036 RMK T10601190 IEM_DS3505
ZBYN,1999-01-16 15:00,ZBYN 161500Z AUTO 14002KT 6SM M07/M15 A3036 RMK SLP357 T10691153 52005 IEM_DS3505
ZBYN,1999-01-16 16:00,ZBYN 161600Z AUTO 12004KT 6SM M06/M20 RMK T10601200 IEM_DS3505
ZBYN,1999-01-16 17:00,ZBYN 161700Z AUTO 11004KT 6SM M06/M19 A3036 RMK T10601190 IEM_DS3505
ZBYN,1999-01-16 18:00,ZBYN 161800Z AUTO 00000KT 6SM M08/M16 A3036 RMK SLP342 T10831163 57004 IEM_DS3505
ZBYN,1999-01-16 19:00,ZBYN 161900Z AUTO 06002KT 6SM M07/M16 A3033 RMK T10701160 IEM_DS3505
ZBYN,1999-01-16 20:00,ZBYN 162000Z AUTO 00000KT 6SM M08/M15 A3033 RMK T10801150 IEM_DS3505
ZBYN,1999-01-16 21:00,ZBYN 162100Z AUTO 00000KT 6SM M09/M11 A3030 RMK SLP327 T10861107 57014 IEM_DS3505
ZBYN,1999-01-16 22:00,ZBYN 162200Z AUTO 00000KT 6SM M08/M17 A3030 RMK T10801170 IEM_DS3505
ZBYN,1999-01-16 23:00,ZBYN 162300Z AUTO 00000KT 6SM M09/M19 A3030 RMK T10901190 IEM_DS3505
ZBYN,1999-01-17 00:00,ZBYN 170000Z AUTO 00000KT 2 1/2SM M09/M17 A3027 RMK SLP332 T10941174 57005 IEM_DS3505
ZBYN,1999-01-17 01:00,ZBYN 170100Z AUTO 00000KT M08/M18 A3030 RMK T10801180 IEM_DS3505
ZBYN,1999-01-17 02:00,ZBYN 170200Z AUTO 00000KT 2SM M06/M18 A3030 RMK T10601180 IEM_DS3505
ZBYN,1999-01-17 03:00,ZBYN 170300Z AUTO 00000KT 2 1/2SM M02/M16 A3027 RMK SLP320 T10221156 57004 IEM_DS3505
ZBYN,1999-01-17 04:00,ZBYN 170400Z AUTO 25002KT 2 1/2SM 00/M16 A3024 RMK T00001160 IEM_DS3505
ZBYN,1999-01-17 05:00,ZBYN 170500Z AUTO 23002KT 2 1/2SM 01/M17 A3018 RMK T00101170 IEM_DS3505
ZBYN,1999-01-17 06:00,ZBYN 170600Z AUTO 14006KT 4SM 03/M16 A3015 RMK SLP269 T00301160 57040 IEM_DS3505
ZBYN,1999-01-17 07:00,ZBYN 170700Z AUTO 15002KT 2 1/2SM 04/M17 A3012 RMK T00401170 IEM_DS3505
ZBYN,1999-01-17 08:00,ZBYN 170800Z AUTO 00000KT 2 1/2SM 04/M14 A3009 RMK T00401140 IEM_DS3505
ZBYN,1999-01-17 09:00,ZBYN 170900Z AUTO 00000KT 6SM 03/M15 A3009 RMK SLP249 T00261151 57019 IEM_DS3505
ZBYN,1999-01-17 10:00,ZBYN 171000Z AUTO 00000KT 3SM 02/M15 A3009 RMK T00201150 IEM_DS3505
ZBYN,1999-01-17 11:00,ZBYN 171100Z AUTO 00000KT 6SM M02/M15 A3009 RMK SLP264 T10151146 52005 IEM_DS3505
ZBYN,1999-01-17 12:00,ZBYN 171200Z AUTO 00000KT 6SM M02/M15 A3009 RMK SLP264 T10151146 52005 IEM_DS3505
ZBYN,1999-01-17 13:00,ZBYN 171300Z AUTO 16004KT 3SM M02/M14 A3012 RMK T10201140 IEM_DS3505
ZBYN,1999-01-17 14:00,ZBYN 171400Z AUTO 08002KT M05/M14 A3012 RMK T10501140 IEM_DS3505
ZBYN,1999-01-17 15:00,ZBYN 171500Z AUTO 11002KT 6SM M05/M15 A3012 RMK SLP264 T10521154 52006 IEM_DS3505
ZBYN,1999-01-17 16:00,ZBYN 171600Z AUTO 10004KT M07/M14 A3012 RMK T10701140 IEM_DS3505
ZBYN,1999-01-17 17:00,ZBYN 171700Z AUTO 12002KT M08/M15 A3009 RMK T10801150 IEM_DS3505
ZBYN,1999-01-17 18:00,ZBYN 171800Z AUTO 00000KT 6SM M07/M12 A3006 RMK SLP242 T10671125 57014 IEM_DS3505
ZBYN,1999-01-17 19:00,ZBYN 171900Z AUTO 10002KT M09/M16 A3006 RMK T10901160 IEM_DS3505
ZBYN,1999-01-17 20:00,ZBYN 172000Z AUTO 00000KT M08/M16 A3003 RMK T10801160 IEM_DS3505
ZBYN,1999-01-17 21:00,ZBYN 172100Z AUTO 32004KT 6SM M06/M15 A3003 RMK SLP225 T10591154 57014 IEM_DS3505
ZBYN,1999-01-17 22:00,ZBYN 172200Z AUTO 00000KT M07/M15 A3003 RMK T10701150 IEM_DS3505
ZBYN,1999-01-17 23:00,ZBYN 172300Z AUTO 00000KT 4SM M07/M14 A3003 RMK T10701140 IEM_DS3505
ZBYN,1999-01-18 00:00,ZBYN 180000Z AUTO 32004KT 1 1/4SM M05/M16 A3003 RMK SLP237 T10531163 52005 IEM_DS3505
ZBYN,1999-01-18 01:00,ZBYN 180100Z AUTO 00000KT 1SM M05/M13 A3003 RMK T10501130 IEM_DS3505
ZBYN,1999-01-18 02:00,ZBYN 180200Z AUTO 36002KT 1 1/4SM M02/M14 A3003 RMK T10201140 IEM_DS3505
ZBYN,1999-01-18 03:00,ZBYN 180300Z AUTO 34002KT 3SM M02/M13 A3003 RMK SLP237 T10151127 54000 IEM_DS3505
ZBYN,1999-01-18 04:00,ZBYN 180400Z AUTO 32002KT 2SM 02/M14 A3000 RMK T00201140 IEM_DS3505
ZBYN,1999-01-18 05:00,ZBYN 180500Z AUTO 32004KT 1 1/4SM 02/M14 A2997 RMK T00201140 IEM_DS3505
ZBYN,1999-01-18 06:00,ZBYN 180600Z AUTO 32004KT 4SM 02/M10 A2994 RMK SLP201 T00251102 57029 IEM_DS3505
ZBYN,1999-01-18 07:00,ZBYN 180700Z AUTO 29004KT 2SM 04/M13 A2994 RMK T00401130 IEM_DS3505
ZBYN,1999-01-18 08:00,ZBYN 180800Z AUTO 27004KT 2SM 04/M13 A2997 RMK T00401130 IEM_DS3505
ZBYN,1999-01-18 09:00,ZBYN 180900Z AUTO 29004KT 6SM 04/M13 A2997 RMK SLP209 T00391134 52011 IEM_DS3505
ZBYN,1999-01-18 10:00,ZBYN 181000Z AUTO 32008KT 3SM 03/M14 A3003 RMK T00301140 IEM_DS3505
ZBYN,1999-01-18 11:00,ZBYN 181100Z AUTO 31006KT 02/M15 A3006 RMK T00201150 IEM_DS3505
ZBYN,1999-01-18 12:00,ZBYN 181200Z AUTO 34002KT 6SM 02/M13 A3009 RMK SLP242 T00181130 52028 IEM_DS3505
ZBYN,1999-01-18 13:00,ZBYN 181300Z AUTO 32010KT 00/M15 A3012 RMK T00001150 IEM_DS3505
ZBYN,1999-01-18 14:00,ZBYN 181400Z AUTO 32010KT 00/M14 A3015 RMK T00001140 IEM_DS3505
ZBYN,1999-01-18 15:00,ZBYN 181500Z AUTO 36008KT 6SM M00/M14 A3018 RMK SLP270 T10011139 52028 IEM_DS3505
ZBYN,1999-01-18 16:00,ZBYN 181600Z AUTO 33010KT 5SM M02/M13 A3018 RMK T10201130 IEM_DS3505
ZBYN,1999-01-18 17:00,ZBYN 181700Z AUTO 33008KT 6SM M02/M12 A3021 RMK T10201120 IEM_DS3505
ZBYN,1999-01-18 18:00,ZBYN 181800Z AUTO 32012KT 6SM M03/M12 A3021 RMK SLP282 T10261125 52014 IEM_DS3505
ZBYN,1999-01-18 19:00,ZBYN 181900Z AUTO 12002KT 6SM M06/M14 A3024 RMK T10601140 IEM_DS3505
ZBYN,1999-01-18 20:00,ZBYN 182000Z AUTO 08004KT 6SM M07/M13 A3027 RMK T10701130 IEM_DS3505
ZBYN,1999-01-18 21:00,ZBYN 182100Z AUTO 34006KT 6SM M03/M12 A3024 RMK SLP293 T10321125 52011 IEM_DS3505
ZBYN,1999-01-18 22:00,ZBYN 182200Z AUTO 31004KT 6SM M04/M13 A3024 RMK T10401130 IEM_DS3505
ZBYN,1999-01-18 23:00,ZBYN 182300Z AUTO 31002KT 6SM M06/M13 A3030 RMK T10601130 IEM_DS3505
ZBYN,1999-01-19 00:00,ZBYN 190000Z AUTO 34006KT 6SM M04/M14 A3030 RMK SLP317 T10421137 52017 IEM_DS3505
ZBYN,1999-01-19 01:00,ZBYN 190100Z AUTO 35008KT 6SM M05/M12 A3033 RMK T10501120 IEM_DS3505
ZBYN,1999-01-19 02:00,ZBYN 190200Z AUTO 35008KT 6SM M03/M16 A3036 RMK T10301160 IEM_DS3505
ZBYN,1999-01-19 03:00,ZBYN 190300Z AUTO 34002KT 5SM M02/M14 A3036 RMK SLP343 T10231144 52023 IEM_DS3505
ZBYN,1999-01-19 04:00,ZBYN 190400Z AUTO 00000KT 6SM M01/M16 A3036 RMK T10101160 IEM_DS3505
ZBYN,1999-01-19 05:00,ZBYN 190500Z AUTO 24006KT 6SM 00/M15 A3033 RMK T00001150 IEM_DS3505
ZBYN,1999-01-19 06:00,ZBYN 190600Z AUTO 22006KT 4SM 00/M12 A3033 RMK SLP325 T00021118 57016 IEM_DS3505
ZBYN,1999-01-19 07:00,ZBYN 190700Z AUTO 25008KT 5SM 01/M13 A3033 RMK T00101130 IEM_DS3505
ZBYN,1999-01-19 08:00,ZBYN 190800Z AUTO 30017KT 6SM 01/M19 A3033 RMK T00101190 IEM_DS3505
ZBYN,1999-01-19 09:00,ZBYN 190900Z AUTO 29019KT 12SM 00/M12 A3033 RMK SLP336 T00051123 52009 IEM_DS3505
ZBYN,1999-01-19 10:00,ZBYN 191000Z AUTO 32014KT 6SM M01/M20 A3036 RMK T10101200 IEM_DS3505
ZBYN,1999-01-19 11:00,ZBYN 191100Z AUTO 31010KT 6SM M02/M19 A3042 RMK T10201190 IEM_DS3505
ZBYN,1999-01-19 12:00,ZBYN 191200Z AUTO 32008KT 7SM M03/M15 A3042 RMK SLP367 T10271153 52021 IEM_DS3505
ZBYN,1999-01-19 13:00,ZBYN 191300Z AUTO 32006KT 6SM M04/M18 A3045 RMK T10401180 IEM_DS3505
ZBYN,1999-01-19 14:00,ZBYN 191400Z AUTO 29004KT 6SM M05/M18 A3045 RMK T10501180 IEM_DS3505
ZBYN,1999-01-19 15:00,ZBYN 191500Z AUTO 29002KT 7SM M06/M18 A3045 RMK SLP390 T10571181 52019 IEM_DS3505
ZBYN,1999-01-19 16:00,ZBYN 191600Z AUTO 29004KT 6SM M06/M16 A3045 RMK T10601160 IEM_DS3505
ZBYN,1999-01-19 17:00,ZBYN 191700Z AUTO 29008KT 6SM M06/M16 A3045 RMK T10601160 IEM_DS3505
ZBYN,1999-01-19 18:00,ZBYN 191800Z AUTO 29004KT 6SM M06/M17 A3045 RMK SLP377 T10631170 57008 IEM_DS3505
ZBYN,1999-01-19 19:00,ZBYN 191900Z AUTO 27006KT 6SM M07/M18 A3045 RMK T10701180 IEM_DS3505
ZBYN,1999-01-19 20:00,ZBYN 192000Z AUTO 24002KT 6SM M06/M17 A3045 RMK T10601170 IEM_DS3505
ZBYN,1999-01-19 21:00,ZBYN 192100Z AUTO 29004KT 6SM M07/M18 A3042 RMK SLP366 T10731182 57011 IEM_DS3505
ZBYN,1999-01-19 22:00,ZBYN 192200Z AUTO 24002KT 6SM M08/M19 A3042 RMK T10801190 IEM_DS3505
ZBYN,1999-01-19 23:00,ZBYN 192300Z AUTO 19002KT 6SM M09/M20 A3042 RMK T10901200 IEM_DS3505
ZBYN,1999-01-20 00:00,ZBYN 200000Z AUTO 09002KT 9SM M12/M21 A3045 RMK SLP387 T11231208 52003 IEM_DS3505
ZBYN,1999-01-20 01:00,ZBYN 200100Z AUTO 09002KT 6SM M09/M17 A3045 RMK T10901170 IEM_DS3505
ZBYN,1999-01-20 02:00,ZBYN 200200Z AUTO 00000KT 6SM M08/M17 A3045 RMK T10801170 IEM_DS3505
ZBYN,1999-01-20 03:00,ZBYN 200300Z AUTO 16008KT 9SM M04/M19 A3042 RMK SLP371 T10431190 57006 IEM_DS3505
ZBYN,1999-01-20 04:00,ZBYN 200400Z AUTO 23004KT 6SM M03/M20 A3039 RMK T10301200 IEM_DS3505
ZBYN,1999-01-20 05:00,ZBYN 200500Z AUTO 19008KT 6SM M02/M20 A3033 RMK T10201200 IEM_DS3505
ZBYN,1999-01-20 06:00,ZBYN 200600Z AUTO 14006KT 9SM M01/M15 A3030 RMK SLP319 T10061154 57042 IEM_DS3505
ZBYN,1999-01-20 07:00,ZBYN 200700Z AUTO 20006KT 6SM M01/M21 A3027 RMK T10101210 IEM_DS3505
ZBYN,1999-01-20 08:00,ZBYN 200800Z AUTO 22002KT 6SM 00/M20 A3024 RMK T00001200 IEM_DS3505
ZBYN,1999-01-20 09:00,ZBYN 200900Z AUTO 22006KT 9SM M00/M18 A3024 RMK SLP298 T10051184 57021 IEM_DS3505
ZBYN,1999-01-20 10:00,ZBYN 201000Z AUTO 00000KT 6SM M02/M19 A3021 RMK T10201190 IEM_DS3505
ZBYN,1999-01-20 11:00,ZBYN 201100Z AUTO 00000KT 6SM M04/M16 A3021 RMK T10401160 IEM_DS3505
ZBYN,1999-01-20 12:00,ZBYN 201200Z AUTO 11004KT 9SM M05/M18 A3021 RMK SLP312 T10491178 57003 IEM_DS3505
ZBYN,1999-01-20 13:00,ZBYN 201300Z AUTO 12004KT 6SM M10/M21 A3021 RMK T11001210 IEM_DS3505
ZBYN,1999-01-20 14:00,ZBYN 201400Z AUTO 12004KT 6SM M10/M21 A3018 RMK T11001210 IEM_DS3505
ZBYN,1999-01-20 15:00,ZBYN 201500Z AUTO 00000KT 6SM M10/M20 A3021 RMK SLP305 T10981196 57001 IEM_DS3505
ZBYN,1999-01-20 16:00,ZBYN 201600Z AUTO 09002KT 6SM M11/M21 A3018 RMK T11101210 IEM_DS3505
ZBYN,1999-01-20 17:00,ZBYN 201700Z AUTO 08002KT 6SM M11/M22 A3018 RMK T11101220 IEM_DS3505
ZBYN,1999-01-20 18:00,ZBYN 201800Z AUTO 00000KT 6SM M09/M18 A3019 RMK SLP287 T10941181 57009 IEM_DS3505
ZBYN,1999-01-20 19:00,ZBYN 201900Z AUTO 11002KT 6SM M12/M21 A3015 RMK T11201210 IEM_DS3505
ZBYN,1999-01-20 21:00,ZBYN 202100Z AUTO 34002KT 6SM M11/M17 A3015 RMK SLP278 T11061173 57010 IEM_DS3505
ZBYN,1999-01-20 22:00,ZBYN 202200Z AUTO 12002KT 6SM M13/M18 A3012 RMK T11301180 IEM_DS3505
ZBYN,1999-01-20 23:00,ZBYN 202300Z AUTO 12002KT 6SM M12/M20 A3012 RMK T11201200 IEM_DS3505
ZBYN,1999-01-21 00:00,ZBYN 210000Z AUTO 00000KT 5SM M13/M20 A3012 RMK SLP286 T11301195 57005 IEM_DS3505
ZBYN,1999-01-21 01:00,ZBYN 210100Z AUTO 13002KT M12/M18 A3012 RMK T11201180 IEM_DS3505
ZBYN,1999-01-21 02:00,ZBYN 210200Z AUTO 00000KT 2SM M08/M17 A3012 RMK T10801170 IEM_DS3505
ZBYN,1999-01-21 03:00,ZBYN 210300Z AUTO 16004KT 3SM M04/M18 A3012 RMK SLP276 T10361180 57001 IEM_DS3505
ZBYN,1999-01-21 04:00,ZBYN 210400Z AUTO 17002KT M01/M16 A3009 RMK T10101160 IEM_DS3505
ZBYN,1999-01-21 05:00,ZBYN 210500Z AUTO 21006KT 01/M16 A3003 RMK T00101160 IEM_DS3505
ZBYN,1999-01-21 06:00,ZBYN 210600Z AUTO 14006KT 4SM 02/M12 A3000 RMK SLP222 T00211117 57039 IEM_DS3505
ZBYN,1999-01-21 07:00,ZBYN 210700Z AUTO 18006KT 04/M14 A2997 RMK T00401140 IEM_DS3505
ZBYN,1999-01-21 08:00,ZBYN 210800Z AUTO 19004KT 05/M14 A2994 RMK T00501140 IEM_DS3505
ZBYN,1999-01-21 09:00,ZBYN 210900Z AUTO 14010KT 6SM 04/M11 A2994 RMK SLP200 T00421110 57018 IEM_DS3505
ZBYN,1999-01-21 10:00,ZBYN 211000Z AUTO 11004KT 5SM M02/M12 A2994 RMK T10201120 IEM_DS3505
ZBYN,1999-01-21 11:00,ZBYN 211100Z AUTO 08004KT M01/M14 A2994 RMK T10101140 IEM_DS3505
ZBYN,1999-01-21 12:00,ZBYN 211200Z AUTO 00000KT 6SM M02/M12 A2994 RMK SLP220 T10191123 52004 IEM_DS3505
ZBYN,1999-01-21 13:00,ZBYN 211300Z AUTO 13002KT 6SM M05/M14 A2997 RMK T10501140 IEM_DS3505
ZBYN,1999-01-21 14:00,ZBYN 211400Z AUTO 11004KT 7SM M06/M15 A2997 RMK T10601150 IEM_DS3505
ZBYN,1999-01-21 15:00,ZBYN 211500Z AUTO 00000KT 5SM M06/M16 A2997 RMK SLP217 T10621159 52006 IEM_DS3505
ZBYN,1999-01-21 16:00,ZBYN 211600Z AUTO 09004KT 7SM M08/M14 A2997 RMK T10801140 IEM_DS3505
ZBYN,1999-01-21 17:00,ZBYN 211700Z AUTO 09002KT 6SM M08/M14 A3000 RMK T10801140 IEM_DS3505
ZBYN,1999-01-21 18:00,ZBYN 211800Z AUTO 00000KT 5SM M07/M13 A2997 RMK SLP212 T10701129 52003 IEM_DS3505
ZBYN,1999-01-21 19:00,ZBYN 211900Z AUTO 12002KT 6SM M08/M14 A2997 RMK T10801140 IEM_DS3505
ZBYN,1999-01-21 20:00,ZBYN 212000Z AUTO 11002KT 6SM M08/M14 A2994 RMK T10801140 IEM_DS3505
ZBYN,1999-01-21 21:00,ZBYN 212100Z AUTO 34004KT 5SM M07/M14 A2997 RMK SLP205 T10741141 57003 IEM_DS3505
ZBYN,1999-01-21 22:00,ZBYN 212200Z AUTO 13004KT 4SM M11/M14 A2997 RMK T11101140 IEM_DS3505
ZBYN,1999-01-21 23:00,ZBYN 212300Z AUTO 00000KT 4SM M10/M15 A2997 RMK T11001150 IEM_DS3505
ZBYN,1999-01-22 00:00,ZBYN 220000Z AUTO 00000KT 4SM M09/M15 A2997 RMK SLP225 T10921150 52005 IEM_DS3505
ZBYN,1999-01-22 06:00,ZBYN 220600Z AUTO 20002KT 2 1/2SM 06/M12 A2988 RMK T00601120 IEM_DS3505
ZBYN,1999-01-22 07:00,ZBYN 220700Z AUTO 27002KT 2 1/2SM 06/M12 A2985 RMK T00601120 IEM_DS3505
ZBYN,1999-01-22 08:00,ZBYN 220800Z AUTO 00000KT 2 1/2SM 07/M13 A2985 RMK T00701130 IEM_DS3505
ZBYN,1999-01-22 09:00,ZBYN 220900Z AUTO 00000KT 1 1/4SM 06/M10 A2985 RMK SLP168 T00651099 57005 IEM_DS3505
ZBYN,1999-01-22 10:00,ZBYN 221000Z AUTO 00000KT 2 1/2SM 03/M12 A2988 RMK T00301120 IEM_DS3505
ZBYN,1999-01-22 11:00,ZBYN 221100Z AUTO 09002KT 2 1/2SM 01/M10 A2988 RMK T00101100 IEM_DS3505
ZBYN,1999-01-22 12:00,ZBYN 221200Z AUTO 00000KT 1 1/4SM 01/M11 A2991 RMK SLP190 T00121107 52008 IEM_DS3505
ZBYN,1999-01-22 13:00,ZBYN 221300Z AUTO 00000KT 3SM 00/M12 A2991 RMK T00001120 IEM_DS3505
ZBYN,1999-01-22 15:00,ZBYN 221500Z AUTO 00000KT 1 1/4SM 01/M11 RMK SLP191 T00071106 52014 IEM_DS3505
ZBYN,1999-01-22 17:00,ZBYN 221700Z AUTO 32002KT 3SM M04/M12 A2997 RMK T10401120 IEM_DS3505
ZBYN,1999-01-22 18:00,ZBYN 221800Z AUTO 00000KT 3SM M06/M11 A3000 RMK SLP197 T10601110 52009 IEM_DS3505
ZBYN,1999-01-22 19:00,ZBYN 221900Z AUTO 11002KT 3SM M05/M16 A3000 RMK T10501160 IEM_DS3505
ZBYN,1999-01-22 20:00,ZBYN 222000Z AUTO 11002KT 3SM M06/M16 A3000 RMK T10601160 IEM_DS3505
ZBYN,1999-01-22 21:00,ZBYN 222100Z AUTO 00000KT 4SM M05/M12 A3000 RMK SLP204 T10461125 52006 IEM_DS3505
ZBYN,1999-01-22 22:00,ZBYN 222200Z AUTO 14002KT 5SM M06/M16 A3000 RMK T10601160 IEM_DS3505
ZBYN,1999-01-22 23:00,ZBYN 222300Z AUTO 00000KT 3SM M08/M16 A3000 RMK T10801160 IEM_DS3505
ZBYN,1999-01-23 00:00,ZBYN 230000Z AUTO 00000KT 4SM M07/M16 A3003 RMK SLP230 T10711155 52011 IEM_DS3505
ZBYN,1999-01-23 01:00,ZBYN 230100Z AUTO 00000KT 2SM M07/M15 A3006 RMK T10701150 IEM_DS3505
ZBYN,1999-01-23 02:00,ZBYN 230200Z AUTO 00000KT 1 1/2SM M02/M14 A3006 RMK T10201140 IEM_DS3505
ZBYN,1999-01-23 03:00,ZBYN 230300Z AUTO 32002KT 2 1/2SM 00/M12 A3003 RMK SLP226 T00031115 52008 IEM_DS3505
ZBYN,1999-01-23 04:00,ZBYN 230400Z AUTO 08004KT 2 1/2SM 05/M16 A3003 RMK T00501160 IEM_DS3505
ZBYN,1999-01-23 05:00,ZBYN 230500Z AUTO 09006KT 07/M16 A2997 RMK T00701160 IEM_DS3505
ZBYN,1999-01-23 06:00,ZBYN 230600Z AUTO 02004KT 5SM 07/M15 A2994 RMK SLP188 T00711147 57031 IEM_DS3505
ZBYN,1999-01-23 07:00,ZBYN 230700Z AUTO 31002KT 2 1/2SM 09/M15 A2991 RMK T00901150 IEM_DS3505
ZBYN,1999-01-23 08:00,ZBYN 230800Z AUTO 25002KT 3SM 09/M14 A2991 RMK T00901140 IEM_DS3505
ZBYN,1999-01-23 09:00,ZBYN 230900Z AUTO 00000KT 6SM 07/M14 A2991 RMK SLP182 T00731141 57007 IEM_DS3505
ZBYN,1999-01-23 10:00,ZBYN 231000Z AUTO 18002KT 05/M13 A2994 RMK T00501130 IEM_DS3505
ZBYN,1999-01-23 11:00,ZBYN 231100Z AUTO 12008KT 5SM 03/M14 A2997 RMK T00301140 IEM_DS3505
ZBYN,1999-01-23 12:00,ZBYN 231200Z AUTO 00000KT 6SM 02/M11 A2997 RMK SLP216 T00161111 52018 IEM_DS3505
ZBYN,1999-01-23 13:00,ZBYN 231300Z AUTO 00000KT 5SM 02/M14 A3000 RMK T00201140 IEM_DS3505
ZBYN,1999-01-23 14:00,ZBYN 231400Z AUTO 00000KT 02/M14 A3003 RMK T00201140 IEM_DS3505
ZBYN,1999-01-23 15:00,ZBYN 231500Z AUTO 00000KT 6SM M00/M12 A3003 RMK SLP220 T10021117 52013 IEM_DS3505
ZBYN,1999-01-23 16:00,ZBYN 231600Z AUTO 15002KT 5SM M01/M14 A3003 RMK T10101140 IEM_DS3505
ZBYN,1999-01-23 17:00,ZBYN 231700Z AUTO 35002KT 5SM M04/M13 A3000 RMK T10401130 IEM_DS3505
ZBYN,1999-01-23 18:00,ZBYN 231800Z AUTO 09004KT 6SM M02/M15 A2997 RMK SLP189 T10221147 57021 IEM_DS3505
ZBYN,1999-01-23 19:00,ZBYN 231900Z AUTO 00000KT 5SM M05/M13 A3000 RMK T10501130 IEM_DS3505
ZBYN,1999-01-23 20:00,ZBYN 232000Z AUTO 13004KT 4SM M06/M10 A3000 RMK T10601100 IEM_DS3505
ZBYN,1999-01-23 21:00,ZBYN 232100Z AUTO 00000KT 6SM M05/M14 A2997 RMK SLP201 T10521141 52007 IEM_DS3505
ZBYN,1999-01-23 22:00,ZBYN 232200Z AUTO 00000KT 5SM M05/M15 A2997 RMK T10501150 IEM_DS3505
ZBYN,1999-01-23 23:00,ZBYN 232300Z AUTO 23002KT M06/M14 A2997 RMK T10601140 IEM_DS3505
ZBYN,1999-01-24 00:00,ZBYN 240000Z AUTO 00000KT 2 1/2SM M04/M12 A3000 RMK SLP218 T10441123 52007 IEM_DS3505
ZBYN,1999-01-24 01:00,ZBYN 240100Z AUTO 00000KT 2 1/2SM M04/M13 A3003 RMK T10401130 IEM_DS3505
ZBYN,1999-01-24 02:00,ZBYN 240200Z AUTO 17002KT 1 1/2SM M02/M13 A3003 RMK T10201130 IEM_DS3505
ZBYN,1999-01-24 03:00,ZBYN 240300Z AUTO 11002KT 2 1/2SM M00/M14 A3003 RMK SLP221 T10021144 52007 IEM_DS3505
ZBYN,1999-01-24 04:00,ZBYN 240400Z AUTO 18002KT 1 1/2SM 02/M12 A3003 RMK T00201120 IEM_DS3505
ZBYN,1999-01-24 05:00,ZBYN 240500Z AUTO 23002KT 1 1/2SM 03/M10 A3000 RMK T00301100 IEM_DS3505
ZBYN,1999-01-24 06:00,ZBYN 240600Z AUTO 29019KT 3/8SM 06/M14 A3000 RMK SLP195 T00581140 4////1064 57017 IEM_DS3505
ZBYN,1999-01-24 07:00,ZBYN 240700Z AUTO 29029KT 1SM 09/M08 A3000 RMK T00901080 IEM_DS3505
ZBYN,1999-01-24 08:00,ZBYN 240800Z AUTO 32023KT 4SM 07/M09 A3006 RMK T00701090 IEM_DS3505
ZBYN,1999-01-24 09:00,ZBYN 240900Z AUTO 34014KT 1SM 07/M16 A3006 RMK SLP230 T00741163 52029 IEM_DS3505
ZBYN,1999-01-24 11:00,ZBYN 241100Z AUTO 32016KT 2SM 06/M20 A3009 RMK T00601200 IEM_DS3505
ZBYN,1999-01-24 12:00,ZBYN 241200Z AUTO 34008KT 1 1/4SM 05/M15 A3012 RMK SLP253 T00541152 52019 IEM_DS3505
ZBYN,1999-01-24 13:00,ZBYN 241300Z AUTO 31014KT 2SM 04/M18 A3015 RMK T00401180 IEM_DS3505
ZBYN,1999-01-24 14:00,ZBYN 241400Z AUTO 30012KT 2 1/2SM 04/M18 A3012 RMK T00401180 IEM_DS3505
ZBYN,1999-01-24 15:00,ZBYN 241500Z AUTO 29010KT 3SM 04/M17 A3012 RMK SLP248 T00351173 57001 IEM_DS3505
ZBYN,1999-01-24 16:00,ZBYN 241600Z AUTO 27008KT 2 1/2SM 03/M17 A3012 RMK T00301170 IEM_DS3505
ZBYN,1999-01-24 17:00,ZBYN 241700Z AUTO 29002KT 02/M16 A3012 RMK T00201160 IEM_DS3505
ZBYN,1999-01-24 18:00,ZBYN 241800Z AUTO 27004KT 5SM 02/M13 A3012 RMK SLP234 T00171133 57006 IEM_DS3505
ZBYN,1999-01-24 19:00,ZBYN 241900Z AUTO 27004KT 6SM 01/M14 A3009 RMK T00101140 IEM_DS3505
ZBYN,1999-01-24 20:00,ZBYN 242000Z AUTO 26008KT 6SM 01/M13 A3009 RMK T00101130 IEM_DS3505
ZBYN,1999-01-24 21:00,ZBYN 242100Z AUTO 22006KT 6SM M01/M14 A3006 RMK SLP224 T10111137 57011 IEM_DS3505
ZBYN,1999-01-24 22:00,ZBYN 242200Z AUTO 21002KT 5SM M02/M13 A3006 RMK T10201130 IEM_DS3505
ZBYN,1999-01-24 23:00,ZBYN 242300Z AUTO 21002KT 5SM M03/M13 A3003 RMK T10301130 IEM_DS3505
ZBYN,1999-01-25 00:00,ZBYN 250000Z AUTO 22004KT 4SM M02/M13 A3006 RMK SLP221 T10251129 57008 IEM_DS3505
ZBYN,1999-01-25 01:00,ZBYN 250100Z AUTO 20002KT M02/M13 A3006 RMK T10201130 IEM_DS3505
ZBYN,1999-01-25 03:00,ZBYN 250300Z AUTO 20019KT 5SM 04/M11 A3003 RMK SLP204 T00391111 57008 IEM_DS3505
ZBYN,1999-01-25 04:00,ZBYN 250400Z AUTO 23019KT 6SM 06/M12 A3000 RMK T00601120 IEM_DS3505
ZBYN,1999-01-25 05:00,ZBYN 250500Z AUTO 23012KT 6SM 07/M11 A2994 RMK T00701110 IEM_DS3505
ZBYN,1999-01-25 06:00,ZBYN 250600Z AUTO 20021KT 6SM 08/M16 A2991 RMK SLP159 T00831156 4////1036 57037 IEM_DS3505
ZBYN,1999-01-25 07:00,ZBYN 250700Z AUTO 23010KT 5SM 09/M12 A2988 RMK T00901120 IEM_DS3505
ZBYN,1999-01-25 09:00,ZBYN 250900Z AUTO 20004KT 6SM 10/M13 A2985 RMK SLP146 T00981132 57014 IEM_DS3505
ZBYN,1999-01-25 10:00,ZBYN 251000Z AUTO 22002KT 5SM 07/M12 A2985 RMK T00701120 IEM_DS3505
ZBYN,1999-01-25 11:00,ZBYN 251100Z AUTO 25002KT 6SM 05/M12 A2988 RMK T00501120 IEM_DS3505
ZBYN,1999-01-25 12:00,ZBYN 251200Z AUTO 00000KT 6SM 02/M10 A2988 RMK SLP171 T00161105 52008 IEM_DS3505
ZBYN,1999-01-25 13:00,ZBYN 251300Z AUTO 12002KT 6SM M02/M13 A2988 RMK T10201130 IEM_DS3505
ZBYN,1999-01-25 14:00,ZBYN 251400Z AUTO 12002KT 6SM M02/M14 A2991 RMK T10201140 IEM_DS3505
ZBYN,1999-01-25 15:00,ZBYN 251500Z AUTO 00000KT 6SM M03/M15 A2991 RMK SLP180 T10291148 52011 IEM_DS3505
ZBYN,1999-01-25 16:00,ZBYN 251600Z AUTO 10002KT 6SM M05/M14 A2994 RMK T10501140 IEM_DS3505
ZBYN,1999-01-25 18:00,ZBYN 251800Z AUTO 00000KT 6SM M05/M16 A2991 RMK SLP169 T10491155 57006 IEM_DS3505
ZBYN,1999-01-25 19:00,ZBYN 251900Z AUTO 10002KT 6SM M05/M15 A2991 RMK T10501150 IEM_DS3505
ZBYN,1999-01-25 20:00,ZBYN 252000Z AUTO 12002KT 6SM M07/M14 A2988 RMK T10701140 IEM_DS3505
ZBYN,1999-01-25 21:00,ZBYN 252100Z AUTO 18002KT 6SM M07/M15 A2988 RMK SLP171 T10701147 52001 IEM_DS3505
ZBYN,1999-01-25 22:00,ZBYN 252200Z AUTO 00000KT 6SM M06/M15 A2988 RMK T10601150 IEM_DS3505
ZBYN,1999-01-25 23:00,ZBYN 252300Z AUTO 00000KT 6SM M07/M14 A2991 RMK T10701140 IEM_DS3505
ZBYN,1999-01-26 00:00,ZBYN 260000Z AUTO 00000KT 4SM M07/M14 A2994 RMK SLP200 T10711142 52012 IEM_DS3505
ZBYN,1999-01-26 01:00,ZBYN 260100Z AUTO 00000KT M06/M13 A2994 RMK T10601130 IEM_DS3505
ZBYN,1999-01-26 02:00,ZBYN 260200Z AUTO 00000KT M01/M13 A2994 RMK T10101130 IEM_DS3505
ZBYN,1999-01-26 03:00,ZBYN 260300Z AUTO 00000KT 4SM 03/M13 A2997 RMK SLP200 T00281131 52009 IEM_DS3505
ZBYN,1999-01-26 04:00,ZBYN 260400Z AUTO 00000KT 3SM 05/M12 A2994 RMK T00501120 IEM_DS3505
ZBYN,1999-01-26 05:00,ZBYN 260500Z AUTO 20002KT 07/M11 A2988 RMK T00701110 IEM_DS3505
ZBYN,1999-01-26 06:00,ZBYN 260600Z AUTO 14008KT 5SM 10/M15 A2985 RMK SLP156 T00961146 57032 IEM_DS3505
ZBYN,1999-01-26 07:00,ZBYN 260700Z AUTO 25004KT 6SM 10/M12 A2985 RMK T01001120 IEM_DS3505
ZBYN,1999-01-26 08:00,ZBYN 260800Z AUTO 20002KT 6SM 10/M11 A2983 RMK T01001110 IEM_DS3505
ZBYN,1999-01-26 09:00,ZBYN 260900Z AUTO 25004KT 7SM 11/M15 A2983 RMK SLP130 T01091149 57025 IEM_DS3505
ZBYN,1999-01-26 10:00,ZBYN 261000Z AUTO 26004KT 6SM 08/M12 A2985 RMK T00801120 IEM_DS3505
ZBYN,1999-01-26 11:00,ZBYN 261100Z AUTO 29004KT 6SM 06/M12 A2985 RMK T00601120 IEM_DS3505
ZBYN,1999-01-26 12:00,ZBYN 261200Z AUTO 27004KT 12SM 05/M12 A2988 RMK SLP176 T00481119 52017 IEM_DS3505
ZBYN,1999-01-26 13:00,ZBYN 261300Z AUTO 33002KT 6SM 03/M13 A2988 RMK T00301130 IEM_DS3505
ZBYN,1999-01-26 14:00,ZBYN 261400Z AUTO 16002KT 6SM 00/M12 A2991 RMK T00001120 IEM_DS3505
ZBYN,1999-01-26 15:00,ZBYN 261500Z AUTO 14006KT 12SM 00/M14 A2991 RMK SLP180 T00001142 52012 IEM_DS3505
ZBYN,1999-01-26 16:00,ZBYN 261600Z AUTO 10002KT 6SM M02/M13 A2994 RMK T10201130 IEM_DS3505
ZBYN,1999-01-26 17:00,ZBYN 261700Z AUTO 03004KT 6SM M02/M14 A2994 RMK T10201140 IEM_DS3505
ZBYN,1999-01-26 18:00,ZBYN 261800Z AUTO 00000KT 9SM M03/M14 A2994 RMK SLP179 T10321142 52005 IEM_DS3505
ZBYN,1999-01-26 19:00,ZBYN 261900Z AUTO 28002KT 6SM M03/M13 A2994 RMK T10301130 IEM_DS3505
ZBYN,1999-01-26 20:00,ZBYN 262000Z AUTO 08002KT 6SM M04/M13 A2994 RMK T10401130 IEM_DS3505
ZBYN,1999-01-26 21:00,ZBYN 262100Z AUTO 00000KT 6SM M03/M13 A2997 RMK SLP186 T10341133 52008 IEM_DS3505
ZBYN,1999-01-26 22:00,ZBYN 262200Z AUTO 11004KT 6SM M06/M13 A3000 RMK T10601130 IEM_DS3505
ZBYN,1999-01-26 23:00,ZBYN 262300Z AUTO 17002KT 6SM M05/M13 A3000 RMK T10501130 IEM_DS3505
ZBYN,1999-01-27 00:00,ZBYN 270000Z AUTO 34004KT 7SM 00/M13 A3003 RMK SLP214 T00051128 52022 IEM_DS3505
ZBYN,1999-01-27 01:00,ZBYN 270100Z AUTO 00000KT 6SM M03/M12 A3006 RMK T10301120 IEM_DS3505
ZBYN,1999-01-27 02:00,ZBYN 270200Z AUTO 00000KT 02/M11 A3006 RMK T00201110 IEM_DS3505
ZBYN,1999-01-27 03:00,ZBYN 270300Z AUTO 36002KT 6SM 05/M13 A3006 RMK SLP226 T00521129 52010 IEM_DS3505
ZBYN,1999-01-27 04:00,ZBYN 270400Z AUTO 16004KT 6SM 06/M11 A3003 RMK T00601110 IEM_DS3505
ZBYN,1999-01-27 05:00,ZBYN 270500Z AUTO 22002KT 6SM 07/M12 A3000 RMK T00701120 IEM_DS3505
ZBYN,1999-01-27 06:00,ZBYN 270600Z AUTO 16008KT 6SM 08/M15 A3000 RMK SLP194 T00791154 57029 IEM_DS3505
ZBYN,1999-01-27 07:00,ZBYN 270700Z AUTO 22006KT 6SM 09/M11 A2994 RMK T00901110 IEM_DS3505
ZBYN,1999-01-27 08:00,ZBYN 270800Z AUTO 23006KT 7SM 09/M11 A2994 RMK T00901110 IEM_DS3505
ZBYN,1999-01-27 09:00,ZBYN 270900Z AUTO 22006KT 9SM 09/M15 A2994 RMK SLP179 T00881149 57013 IEM_DS3505
ZBYN,1999-01-27 10:00,ZBYN 271000Z AUTO 00000KT 6SM 04/M11 A2994 RMK T00401110 IEM_DS3505
ZBYN,1999-01-27 11:00,ZBYN 271100Z AUTO 34006KT 6SM 03/M13 A2997 RMK T00301130 IEM_DS3505
ZBYN,1999-01-27 12:00,ZBYN 271200Z AUTO 29006KT 9SM 03/M15 A3000 RMK SLP201 T00301149 52017 IEM_DS3505
ZBYN,1999-01-27 13:00,ZBYN 271300Z AUTO 17004KT 6SM 03/M12 A3000 RMK T00301120 IEM_DS3505
ZBYN,1999-01-27 14:00,ZBYN 271400Z AUTO 20002KT 6SM 01/M13 A3003 RMK T00101130 IEM_DS3505
ZBYN,1999-01-27 15:00,ZBYN 271500Z AUTO 09004KT 9SM M02/M14 A3006 RMK SLP220 T10191141 52017 IEM_DS3505
ZBYN,1999-01-27 16:00,ZBYN 271600Z AUTO 07004KT 6SM M03/M12 A3006 RMK T10301120 IEM_DS3505
ZBYN,1999-01-27 17:00,ZBYN 271700Z AUTO 11004KT 6SM M04/M14 A3006 RMK T10401140 IEM_DS3505
ZBYN,1999-01-27 18:00,ZBYN 271800Z AUTO 11002KT 9SM M03/M14 A3006 RMK SLP213 T10301144 57004 IEM_DS3505
ZBYN,1999-01-27 19:00,ZBYN 271900Z AUTO 07002KT 6SM M04/M13 A3006 RMK T10401130 IEM_DS3505
ZBYN,1999-01-27 20:00,ZBYN 272000Z AUTO 00000KT 7SM M06/M14 A3003 RMK SLP217 T10591141 IEM_DS3505
ZBYN,1999-01-27 21:00,ZBYN 272100Z AUTO 00000KT 7SM M06/M14 A3006 RMK SLP217 T10591141 52001 IEM_DS3505
ZBYN,1999-01-27 22:00,ZBYN 272200Z AUTO 13002KT 6SM M05/M13 A3006 RMK T10501130 IEM_DS3505
ZBYN,1999-01-27 23:00,ZBYN 272300Z AUTO 09002KT 6SM M06/M14 A3006 RMK T10601140 IEM_DS3505
ZBYN,1999-01-28 00:00,ZBYN 280000Z AUTO 20002KT 6SM M07/M16 A3006 RMK SLP239 T10671155 52009 IEM_DS3505
ZBYN,1999-01-28 01:00,ZBYN 280100Z AUTO 10004KT 6SM M02/M13 A3012 RMK T10201130 IEM_DS3505
ZBYN,1999-01-28 02:00,ZBYN 280200Z AUTO 11006KT 6SM 02/M12 A3012 RMK T00201120 IEM_DS3505
ZBYN,1999-01-28 03:00,ZBYN 280300Z AUTO 14006KT 5SM 04/M13 A3012 RMK SLP247 T00351134 52016 IEM_DS3505
ZBYN,1999-01-28 04:00,ZBYN 280400Z AUTO 25004KT 5SM 06/M10 A3009 RMK T00601100 IEM_DS3505
ZBYN,1999-01-28 05:00,ZBYN 280500Z AUTO 20006KT 5SM 09/M10 A3006 RMK T00901100 IEM_DS3505
ZBYN,1999-01-28 06:00,ZBYN 280600Z AUTO 18002KT 6SM 10/M12 A3003 RMK SLP214 T01021123 57021 IEM_DS3505
ZBYN,1999-01-28 07:00,ZBYN 280700Z AUTO 32017KT 6SM 11/M13 A3003 RMK T01101130 IEM_DS3505
ZBYN,1999-01-28 08:00,ZBYN 280800Z AUTO 30017KT 6SM 10/M14 A3003 RMK T01001140 IEM_DS3505
ZBYN,1999-01-28 09:00,ZBYN 280900Z AUTO 29006KT 12SM 09/M16 A3006 RMK SLP227 T00911165 52005 IEM_DS3505
ZBYN,1999-01-28 10:00,ZBYN 281000Z AUTO 31012KT 6SM 07/M13 A3009 RMK T00701130 IEM_DS3505
ZBYN,1999-01-28 11:00,ZBYN 281100Z AUTO 29006KT 6SM 05/M12 A3012 RMK T00501120 IEM_DS3505
ZBYN,1999-01-28 12:00,ZBYN 281200Z AUTO 29002KT 9SM 03/M12 A3015 RMK SLP270 T00321125 52028 IEM_DS3505
ZBYN,1999-01-28 13:00,ZBYN 281300Z AUTO 00000KT 6SM 03/M12 A3018 RMK T00301120 IEM_DS3505
ZBYN,1999-01-28 14:00,ZBYN 281400Z AUTO 12004KT 6SM M02/M13 A3021 RMK T10201130 IEM_DS3505
ZBYN,1999-01-28 15:00,ZBYN 281500Z AUTO 34002KT 6SM 00/M13 A3021 RMK SLP278 T00041131 52020 IEM_DS3505
ZBYN,1999-01-28 18:00,ZBYN 281800Z AUTO 34006KT 6SM 00/M15 A3021 RMK SLP272 T00031147 52005 IEM_DS3505
ZBYN,1999-01-28 19:00,ZBYN 281900Z AUTO 31006KT 6SM M03/M17 A3024 RMK T10301170 IEM_DS3505
ZBYN,1999-01-28 20:00,ZBYN 282000Z AUTO 33006KT 6SM M02/M19 A3024 RMK T10201190 IEM_DS3505
ZBYN,1999-01-28 21:00,ZBYN 282100Z AUTO 32004KT 7SM M04/M20 A3024 RMK SLP290 T10401200 52007 IEM_DS3505
ZBYN,1999-01-28 22:00,ZBYN 282200Z AUTO 00000KT 6SM M05/M20 A3027 RMK T10501200 IEM_DS3505
ZBYN,1999-01-28 23:00,ZBYN 282300Z AUTO 04002KT 6SM M06/M17 A3027 RMK T10601170 IEM_DS3505
ZBYN,1999-01-29 00:00,ZBYN 290000Z AUTO 32002KT 7SM M06/M17 A3030 RMK SLP319 T10581174 52014 IEM_DS3505
ZBYN,1999-01-29 01:00,ZBYN 290100Z AUTO 00000KT 6SM M05/M17 A3030 RMK T10501170 IEM_DS3505
ZBYN,1999-01-29 02:00,ZBYN 290200Z AUTO 32006KT M01/M19 A3027 RMK T10101190 IEM_DS3505
ZBYN,1999-01-29 03:00,ZBYN 290300Z AUTO 32010KT 6SM M01/M18 A3027 RMK SLP306 T10061178 57008 IEM_DS3505
ZBYN,1999-01-29 04:00,ZBYN 290400Z AUTO 34006KT 6SM 02/M21 A3024 RMK T00201210 IEM_DS3505
ZBYN,1999-01-29 05:00,ZBYN 290500Z AUTO 29004KT 6SM 03/M22 A3021 RMK T00301220 IEM_DS3505
ZBYN,1999-01-29 06:00,ZBYN 290600Z AUTO 27002KT 6SM 04/M18 A3015 RMK SLP254 T00361181 57040 IEM_DS3505
ZBYN,1999-01-29 07:00,ZBYN 290700Z AUTO 24002KT 6SM 03/M21 A3012 RMK T00301210 IEM_DS3505
ZBYN,1999-01-29 08:00,ZBYN 290800Z AUTO 23002KT 6SM 04/M20 A3009 RMK T00401200 IEM_DS3505
ZBYN,1999-01-29 09:00,ZBYN 290900Z AUTO 11004KT 6SM 04/M20 A3006 RMK SLP232 T00351204 57027 IEM_DS3505
ZBYN,1999-01-29 10:00,ZBYN 291000Z AUTO 00000KT 6SM 02/M20 A3006 RMK T00201200 IEM_DS3505
ZBYN,1999-01-29 11:00,ZBYN 291100Z AUTO 05002KT 6SM M01/M14 A3006 RMK T10101140 IEM_DS3505
ZBYN,1999-01-29 12:00,ZBYN 291200Z AUTO 32002KT 6SM M01/M16 A3006 RMK SLP249 T10141158 52004 IEM_DS3505
ZBYN,1999-01-29 13:00,ZBYN 291300Z AUTO 00000KT 6SM M04/M16 A3006 RMK T10401160 IEM_DS3505
ZBYN,1999-01-29 14:00,ZBYN 291400Z AUTO 12002KT 6SM M03/M18 A3006 RMK T10301180 IEM_DS3505
ZBYN,1999-01-29 15:00,ZBYN 291500Z AUTO 34002KT 6SM M02/M15 A3006 RMK SLP242 T10231150 52001 IEM_DS3505
ZBYN,1999-01-29 16:00,ZBYN 291600Z AUTO 11002KT 6SM M06/M18 A3006 RMK T10601180 IEM_DS3505
ZBYN,1999-01-29 17:00,ZBYN 291700Z AUTO 11002KT 6SM M06/M16 A3006 RMK T10601160 IEM_DS3505
ZBYN,1999-01-29 18:00,ZBYN 291800Z AUTO 00000KT 6SM M04/M16 A3003 RMK SLP226 T10401165 57011 IEM_DS3505
ZBYN,1999-01-29 19:00,ZBYN 291900Z AUTO 00000KT 6SM M04/M17 A3003 RMK T10401170 IEM_DS3505
ZBYN,1999-01-29 20:00,ZBYN 292000Z AUTO 00000KT 6SM M04/M14 A3003 RMK T10401140 IEM_DS3505
ZBYN,1999-01-29 21:00,ZBYN 292100Z AUTO 00000KT 6SM M05/M18 A3000 RMK SLP217 T10521184 57010 IEM_DS3505
ZBYN,1999-01-29 22:00,ZBYN 292200Z AUTO 11002KT 6SM M05/M17 A3000 RMK T10501170 IEM_DS3505
ZBYN,1999-01-29 23:00,ZBYN 292300Z AUTO 29002KT 6SM M06/M17 A3000 RMK T10601170 IEM_DS3505
ZBYN,1999-01-30 00:00,ZBYN 300000Z AUTO 00000KT 4SM M06/M17 A3003 RMK SLP235 T10611172 52007 IEM_DS3505
ZBYN,1999-01-30 01:00,ZBYN 300100Z AUTO 13002KT M06/M16 A3003 RMK T10601160 IEM_DS3505
ZBYN,1999-01-30 02:00,ZBYN 300200Z AUTO 16002KT 2SM M03/M14 A3003 RMK T10301140 IEM_DS3505
ZBYN,1999-01-30 03:00,ZBYN 300300Z AUTO 11002KT 2 1/2SM 01/M11 A3003 RMK SLP223 T00071112 57001 IEM_DS3505
ZBYN,1999-01-30 04:00,ZBYN 300400Z AUTO 16002KT 5SM 03/M13 A3000 RMK T00301130 IEM_DS3505
ZBYN,1999-01-30 05:00,ZBYN 300500Z AUTO 20002KT 05/M11 A2994 RMK T00501110 IEM_DS3505
ZBYN,1999-01-30 06:00,ZBYN 300600Z AUTO 18010KT 5SM 08/M15 A2988 RMK SLP169 T00761154 57041 IEM_DS3505
ZBYN,1999-01-30 07:00,ZBYN 300700Z AUTO 22004KT 5SM 08/M11 A2985 RMK T00801110 IEM_DS3505
ZBYN,1999-01-30 08:00,ZBYN 300800Z AUTO 22002KT 5SM 08/M11 A2985 RMK T00801110 IEM_DS3505
ZBYN,1999-01-30 09:00,ZBYN 300900Z AUTO 14004KT 6SM 07/M13 A2983 RMK SLP152 T00741131 57018 IEM_DS3505
ZBYN,1999-01-30 10:00,ZBYN 301000Z AUTO 00000KT 5SM 04/M10 A2985 RMK T00401100 IEM_DS3505
ZBYN,1999-01-30 11:00,ZBYN 301100Z AUTO 09002KT 5SM 00/M12 A2985 RMK T00001120 IEM_DS3505
ZBYN,1999-01-30 12:00,ZBYN 301200Z AUTO 00000KT 6SM 01/M10 A2988 RMK SLP173 T00111099 52008 IEM_DS3505
ZBYN,1999-01-30 13:00,ZBYN 301300Z AUTO 11002KT 5SM M02/M12 A2988 RMK T10201120 IEM_DS3505
ZBYN,1999-01-30 14:00,ZBYN 301400Z AUTO 11002KT 6SM 00/M12 A2991 RMK T00001120 IEM_DS3505
ZBYN,1999-01-30 15:00,ZBYN 301500Z AUTO 00000KT 6SM M02/M12 A2991 RMK SLP181 T10231119 52013 IEM_DS3505
ZBYN,1999-01-30 16:00,ZBYN 301600Z AUTO 09002KT 7SM M03/M13 A2991 RMK T10301130 IEM_DS3505
ZBYN,1999-01-30 17:00,ZBYN 301700Z AUTO 00000KT 6SM M03/M12 A2991 RMK T10301120 IEM_DS3505
ZBYN,1999-01-30 18:00,ZBYN 301800Z AUTO 00000KT 6SM M04/M12 A2991 RMK SLP174 T10351123 52002 IEM_DS3505
ZBYN,1999-01-30 19:00,ZBYN 301900Z AUTO 11002KT 6SM M04/M13 A2991 RMK T10401130 IEM_DS3505
ZBYN,1999-01-30 20:00,ZBYN 302000Z AUTO 10002KT 6SM M05/M13 A2991 RMK T10501130 IEM_DS3505
ZBYN,1999-01-30 21:00,ZBYN 302100Z AUTO 00000KT 4SM M05/M12 A2988 RMK SLP172 T10521124 57004 IEM_DS3505
ZBYN,1999-01-30 22:00,ZBYN 302200Z AUTO 00000KT 5SM M05/M11 A2991 RMK T10501110 IEM_DS3505
ZBYN,1999-01-30 23:00,ZBYN 302300Z AUTO 00000KT 5SM M04/M12 A2991 RMK T10401120 IEM_DS3505
ZBYN,1999-01-31 00:00,ZBYN 310000Z AUTO 00000KT 5SM M05/M11 A2994 RMK SLP200 T10541111 52014 IEM_DS3505
ZBYN,1999-01-31 01:00,ZBYN 310100Z AUTO 00000KT 1 1/4SM M04/M13 A2997 RMK T10401130 IEM_DS3505
ZBYN,1999-01-31 02:00,ZBYN 310200Z AUTO 00000KT 1SM 01/M12 A2997 RMK T00101120 IEM_DS3505
ZBYN,1999-01-31 03:00,ZBYN 310300Z AUTO 18004KT 5SM 04/M12 A2994 RMK SLP196 T00391121 52006 IEM_DS3505
ZBYN,1999-01-31 04:00,ZBYN 310400Z AUTO 19002KT 2 1/2SM 06/M12 A2994 RMK T00601120 IEM_DS3505
ZBYN,1999-01-31 05:00,ZBYN 310500Z AUTO 32004KT 6SM 08/M15 A2988 RMK T00801150 IEM_DS3505
ZBYN,1999-01-31 06:00,ZBYN 310600Z AUTO 36004KT 9SM 09/M13 A2985 RMK SLP153 T00921129 57032 IEM_DS3505
ZBYN,1999-01-31 07:00,ZBYN 310700Z AUTO 21002KT 6SM 09/M14 A2985 RMK T00901140 IEM_DS3505
ZBYN,1999-01-31 08:00,ZBYN 310800Z AUTO 24008KT 6SM 09/M11 A2985 RMK T00901110 IEM_DS3505
ZBYN,1999-01-31 09:00,ZBYN 310900Z AUTO 22004KT 6SM 08/M13 A2985 RMK SLP158 T00831133 54000 IEM_DS3505
ZBYN,1999-01-31 10:00,ZBYN 311000Z AUTO 25002KT 6SM 07/M12 A2988 RMK T00701120 IEM_DS3505
ZBYN,1999-01-31 11:00,ZBYN 311100Z AUTO 29002KT 6SM 06/M13 A2991 RMK T00601130 IEM_DS3505
ZBYN,1999-01-31 12:00,ZBYN 311200Z AUTO 29006KT 6SM 07/M16 A2994 RMK SLP184 T00661162 52021 IEM_DS3505
ZBYN,1999-01-31 13:00,ZBYN 311300Z AUTO 34010KT 6SM 06/M14 A2997 RMK T00601140 IEM_DS3505
ZBYN,1999-01-31 14:00,ZBYN 311400Z AUTO 12002KT 6SM 03/M13 A3000 RMK T00301130 IEM_DS3505
ZBYN,1999-01-31 15:00,ZBYN 311500Z AUTO 14006KT 6SM 02/M14 A3000 RMK SLP202 T00241142 52024 IEM_DS3505
ZBYN,1999-01-31 16:00,ZBYN 311600Z AUTO 12006KT 6SM 02/M13 A3000 RMK T00201130 IEM_DS3505
ZBYN,1999-01-31 17:00,ZBYN 311700Z AUTO 00000KT 6SM M01/M13 A3000 RMK T10101130 IEM_DS3505
ZBYN,1999-01-31 18:00,ZBYN 311800Z AUTO 00000KT 6SM 00/M11 A3000 RMK SLP194 T00041111 57002 IEM_DS3505
ZBYN,1999-01-31 19:00,ZBYN 311900Z AUTO 00000KT 6SM M02/M13 A3000 RMK T10201130 IEM_DS3505
ZBYN,1999-01-31 20:00,ZBYN 312000Z AUTO 00000KT 6SM M03/M13 A3000 RMK T10301130 IEM_DS3505
ZBYN,1999-01-31 21:00,ZBYN 312100Z AUTO 32006KT 12SM 01/M10 A3000 RMK SLP205 T00121103 52010 IEM_DS3505
ZBYN,1999-01-31 22:00,ZBYN 312200Z AUTO 32019KT 6SM 02/M14 A3003 RMK T00201140 IEM_DS3505
ZBYN,1999-01-31 23:00,ZBYN 312300Z AUTO 29016KT 6SM 01/M18 A3006 RMK T00101180 IEM_DS3505
ZBYN,1999-02-01 00:00,ZBYN 010000Z AUTO 29006KT 16SM M01/M14 A3009 RMK SLP234 T10111144 52020 IEM_DS3505
ZBYN,1999-02-01 01:00,ZBYN 010100Z AUTO 29016KT 6SM 01/M20 A3012 RMK T00101200 IEM_DS3505
ZBYN,1999-02-01 02:00,ZBYN 010200Z AUTO 30016KT 6SM 02/M21 A3012 RMK T00201210 IEM_DS3505
ZBYN,1999-02-01 03:00,ZBYN 010300Z AUTO 29019KT 12SM 03/M16 A3012 RMK SLP247 T00291162 52012 IEM_DS3505
ZBYN,1999-02-01 04:00,ZBYN 010400Z AUTO 30016KT 6SM 05/M23 A3012 RMK T00501230 IEM_DS3505
ZBYN,1999-02-01 05:00,ZBYN 010500Z AUTO 30017KT 6SM 06/M24 A3009 RMK T00601240 IEM_DS3505
ZBYN,1999-02-01 06:00,ZBYN 010600Z AUTO 32016KT 7SM 05/M20 A3009 RMK SLP234 T00541196 4////1042 57011 IEM_DS3505
ZBYN,1999-02-01 07:00,ZBYN 010700Z AUTO 30021KT 6SM 05/M24 A3009 RMK T00501240 IEM_DS3505
ZBYN,1999-02-01 08:00,ZBYN 010800Z AUTO 30021KT 6SM 04/M22 A3015 RMK T00401220 IEM_DS3505
ZBYN,1999-02-01 09:00,ZBYN 010900Z AUTO 32019KT 7SM 03/M19 A3018 RMK SLP267 T00271192 52027 IEM_DS3505
ZBYN,1999-02-01 10:00,ZBYN 011000Z AUTO 30012KT 6SM 01/M19 A3021 RMK T00101190 IEM_DS3505
ZBYN,1999-02-01 11:00,ZBYN 011100Z AUTO 30010KT 6SM 00/M18 A3024 RMK T00001180 IEM_DS3505
ZBYN,1999-02-01 12:00,ZBYN 011200Z AUTO 32008KT 9SM M00/M17 A3027 RMK SLP305 T10011173 52026 IEM_DS3505
ZBYN,1999-02-01 13:00,ZBYN 011300Z AUTO 30008KT 6SM M01/M14 A3030 RMK T10101140 IEM_DS3505
ZBYN,1999-02-01 14:00,ZBYN 011400Z AUTO 31014KT 6SM M02/M12 A3033 RMK T10201120 IEM_DS3505
ZBYN,1999-02-01 15:00,ZBYN 011500Z AUTO 32006KT 9SM M02/M11 A3033 RMK SLP323 T10251113 52019 IEM_DS3505
ZBYN,1999-02-01 16:00,ZBYN 011600Z AUTO 31012KT 6SM M03/M14 A3033 RMK T10301140 IEM_DS3505
ZBYN,1999-02-01 17:00,ZBYN 011700Z AUTO 30006KT 6SM M04/M14 A3033 RMK T10401140 IEM_DS3505
ZBYN,1999-02-01 18:00,ZBYN 011800Z AUTO 27006KT 9SM M04/M15 A3033 RMK SLP324 T10431151 52002 IEM_DS3505
ZBYN,1999-02-01 19:00,ZBYN 011900Z AUTO 29004KT 6SM M04/M17 A3033 RMK T10401170 IEM_DS3505
ZBYN,1999-02-01 20:00,ZBYN 012000Z AUTO 28008KT 6SM M04/M17 A3033 RMK T10401170 IEM_DS3505
ZBYN,1999-02-01 21:00,ZBYN 012100Z AUTO 29008KT 9SM M05/M16 A3033 RMK SLP317 T10501165 57012 IEM_DS3505
ZBYN,1999-02-01 22:00,ZBYN 012200Z AUTO 28008KT 6SM M04/M16 A3033 RMK T10401160 IEM_DS3505
ZBYN,1999-02-01 23:00,ZBYN 012300Z AUTO 30014KT 6SM M05/M17 A3033 RMK T10501170 IEM_DS3505
ZBYN,1999-02-02 00:00,ZBYN 020000Z AUTO 29016KT 9SM M05/M17 A3033 RMK SLP330 T10511167 52007 IEM_DS3505
ZBYN,1999-02-02 01:00,ZBYN 020100Z AUTO 30014KT 6SM M04/M19 A3036 RMK T10401190 IEM_DS3505
ZBYN,1999-02-02 02:00,ZBYN 020200Z AUTO 30019KT 6SM M02/M19 A3036 RMK T10201190 IEM_DS3505
ZBYN,1999-02-02 03:00,ZBYN 020300Z AUTO 29014KT 12SM M02/M16 RMK SLP329 T10161157 52001 IEM_DS3505
ZBYN,1999-02-02 04:00,ZBYN 020400Z AUTO 30021KT 6SM 00/M22 A3030 RMK T00001220 IEM_DS3505
ZBYN,1999-02-02 05:00,ZBYN 020500Z AUTO 30019KT 6SM 01/M22 A3030 RMK T00101220 IEM_DS3505
ZBYN,1999-02-02 06:00,ZBYN 020600Z AUTO 29019KT 9SM 01/M14 A3027 RMK SLP308 T00081142 4////1063 57018 IEM_DS3505
ZBYN,1999-02-02 07:00,ZBYN 020700Z AUTO 30025KT 6SM 01/M23 A3027 RMK T00101230 IEM_DS3505
ZBYN,1999-02-02 08:00,ZBYN 020800Z AUTO 32021KT 6SM 01/M23 A3030 RMK T00101230 IEM_DS3505
ZBYN,1999-02-02 09:00,ZBYN 020900Z AUTO 34008KT 6SM 01/ A3030 RMK SLP317 52007 IEM_DS3505
ZBYN,1999-02-02 10:00,ZBYN 021000Z AUTO 30014KT 6SM 00/M22 A3030 RMK T00001220 IEM_DS3505
ZBYN,1999-02-02 11:00,ZBYN 021100Z AUTO 30017KT 6SM 00/M22 A3033 RMK T00001220 IEM_DS3505
ZBYN,1999-02-02 12:00,ZBYN 021200Z AUTO 34008KT 6SM M01/M20 A3033 RMK SLP344 T10081204 52021 IEM_DS3505
ZBYN,1999-02-02 13:00,ZBYN 021300Z AUTO 30016KT 6SM M01/M21 A3036 RMK T10101210 IEM_DS3505
ZBYN,1999-02-02 14:00,ZBYN 021400Z AUTO 30017KT 6SM M02/M22 A3036 RMK T10201220 IEM_DS3505
ZBYN,1999-02-02 15:00,ZBYN 021500Z AUTO 32019KT 6SM M02/M19 A3039 RMK SLP350 T10221188 52009 IEM_DS3505
ZBYN,1999-02-02 16:00,ZBYN 021600Z AUTO 30010KT 6SM M02/M21 A3042 RMK T10201210 IEM_DS3505
ZBYN,1999-02-02 17:00,ZBYN 021700Z AUTO 30010KT 6SM M03/M20 A3042 RMK T10301200 IEM_DS3505
ZBYN,1999-02-02 18:00,ZBYN 021800Z AUTO 29004KT 6SM M04/M22 A3039 RMK SLP352 T10351217 40017//// 52004 IEM_DS3505
ZBYN,1999-02-02 19:00,ZBYN 021900Z AUTO 28004KT 6SM M04/M20 A3039 RMK T10401200 IEM_DS3505
ZBYN,1999-02-02 20:00,ZBYN 022000Z AUTO 28006KT 6SM M04/M20 A3039 RMK T10401200 IEM_DS3505
ZBYN,1999-02-02 21:00,ZBYN 022100Z AUTO 00000KT 6SM M06/M18 A3039 RMK SLP352 T10581183 57004 IEM_DS3505
ZBYN,1999-02-02 22:00,ZBYN 022200Z AUTO 12002KT 6SM M09/M21 A3039 RMK T10901210 IEM_DS3505
ZBYN,1999-02-02 23:00,ZBYN 022300Z AUTO 09002KT 6SM M11/M21 A3042 RMK T11101210 IEM_DS3505
ZBYN,1999-02-03 00:00,ZBYN 030000Z AUTO 14004KT 9SM M10/M22 RMK SLP376 T11041217 52011 IEM_DS3505
ZBYN,1999-02-03 01:00,ZBYN 030100Z AUTO 12006KT 6SM M08/M21 A3045 RMK T10801210 IEM_DS3505
ZBYN,1999-02-03 02:00,ZBYN 030200Z AUTO 14004KT 2SM M04/M19 A3045 RMK T10401190 IEM_DS3505
ZBYN,1999-02-03 03:00,ZBYN 030300Z AUTO 14006KT 6SM M02/M21 A3045 RMK SLP367 T10151207 52005 IEM_DS3505
ZBYN,1999-02-03 04:00,ZBYN 030400Z AUTO 00000KT 6SM 00/M17 A3042 RMK T00001170 IEM_DS3505
ZBYN,1999-02-03 06:00,ZBYN 030600Z AUTO 16004KT 9SM 03/M17 A3033 RMK SLP321 T00311172 57036 IEM_DS3505
ZBYN,1999-02-03 07:00,ZBYN 030700Z AUTO 25002KT 6SM 03/M17 A3030 RMK T00301170 IEM_DS3505
ZBYN,1999-02-03 08:00,ZBYN 030800Z AUTO 21004KT 6SM 05/M16 A3027 RMK T00501160 IEM_DS3505
ZBYN,1999-02-03 09:00,ZBYN 030900Z AUTO 00000KT 11SM 05/M16 A3027 RMK SLP302 T00501157 57018 IEM_DS3505
ZBYN,1999-02-03 10:00,ZBYN 031000Z AUTO 28006KT 6SM 03/M16 A3027 RMK T00301160 IEM_DS3505
ZBYN,1999-02-03 11:00,ZBYN 031100Z AUTO 34006KT 6SM 01/M18 A3033 RMK T00101180 IEM_DS3505
ZBYN,1999-02-03 12:00,ZBYN 031200Z AUTO 00000KT 9SM M01/M13 A3036 RMK SLP352 T10071133 52028 IEM_DS3505
ZBYN,1999-02-03 13:00,ZBYN 031300Z AUTO 00000KT 6SM M02/M18 A3036 RMK T10201180 IEM_DS3505
ZBYN,1999-02-03 14:00,ZBYN 031400Z AUTO 00000KT 6SM M04/M17 A3039 RMK T10401170 IEM_DS3505
ZBYN,1999-02-03 15:00,ZBYN 031500Z AUTO 00000KT 6SM M02/M14 A3039 RMK SLP346 T10171145 52008 IEM_DS3505
ZBYN,1999-02-03 16:00,ZBYN 031600Z AUTO 07002KT 6SM M07/M18 A3039 RMK T10701180 IEM_DS3505
ZBYN,1999-02-03 17:00,ZBYN 031700Z AUTO 07002KT 6SM M08/M16 A3036 RMK T10801160 IEM_DS3505
ZBYN,1999-02-03 18:00,ZBYN 031800Z AUTO 18004KT 6SM M07/M17 A3036 RMK SLP341 T10691166 57006 IEM_DS3505
ZBYN,1999-02-03 19:00,ZBYN 031900Z AUTO 11002KT 6SM M09/M19 A3036 RMK T10901190 IEM_DS3505
ZBYN,1999-02-03 20:00,ZBYN 032000Z AUTO 10002KT 6SM M09/M19 A3036 RMK T10901190 IEM_DS3505
ZBYN,1999-02-03 21:00,ZBYN 032100Z AUTO 11002KT 6SM M08/M18 A3036 RMK SLP338 T10851181 57002 IEM_DS3505
ZBYN,1999-02-03 22:00,ZBYN 032200Z AUTO 09002KT 6SM M11/M18 A3036 RMK T11101180 IEM_DS3505
ZBYN,1999-02-03 23:00,ZBYN 032300Z AUTO 10006KT 6SM M09/M18 A3039 RMK T10901180 IEM_DS3505
ZBYN,1999-02-04 00:00,ZBYN 040000Z AUTO 00000KT 7SM M09/M18 A3039 RMK SLP364 T10891180 52013 IEM_DS3505
ZBYN,1999-02-04 01:00,ZBYN 040100Z AUTO 09002KT 6SM M07/M17 A3042 RMK T10701170 IEM_DS3505
ZBYN,1999-02-04 02:00,ZBYN 040200Z AUTO 15002KT 6SM M03/M16 A3039 RMK T10301160 IEM_DS3505
ZBYN,1999-02-04 03:00,ZBYN 040300Z AUTO 14002KT 6SM M00/M14 A3039 RMK SLP346 T10021145 57003 IEM_DS3505
ZBYN,1999-02-04 04:00,ZBYN 040400Z AUTO 00000KT 6SM 02/M15 A3036 RMK T00201150 IEM_DS3505
ZBYN,1999-02-04 05:00,ZBYN 040500Z AUTO 24004KT 6SM 03/M14 A3033 RMK T00301140 IEM_DS3505
ZBYN,1999-02-04 06:00,ZBYN 040600Z AUTO 14004KT 6SM 05/M14 A3030 RMK SLP313 T00511140 57030 IEM_DS3505
ZBYN,1999-02-04 07:00,ZBYN 040700Z AUTO 22002KT 6SM 06/M16 A3027 RMK T00601160 IEM_DS3505
ZBYN,1999-02-04 08:00,ZBYN 040800Z AUTO 25002KT 6SM 06/M16 A3027 RMK T00601160 IEM_DS3505
ZBYN,1999-02-04 09:00,ZBYN 040900Z AUTO 14004KT 6SM 06/M16 A3024 RMK SLP300 T00551158 57014 IEM_DS3505
ZBYN,1999-02-04 10:00,ZBYN 041000Z AUTO 12002KT 6SM 02/M16 A3027 RMK T00201160 IEM_DS3505
ZBYN,1999-02-04 11:00,ZBYN 041100Z AUTO 07002KT 6SM 00/M16 A3027 RMK T00001160 IEM_DS3505
ZBYN,1999-02-04 12:00,ZBYN 041200Z AUTO 32002KT 6SM M01/M12 A3027 RMK SLP323 T10091125 52010 IEM_DS3505
ZBYN,1999-02-04 13:00,ZBYN 041300Z AUTO 15002KT 6SM M03/M16 A3030 RMK T10301160 IEM_DS3505
ZBYN,1999-02-04 14:00,ZBYN 041400Z AUTO 12004KT 6SM M04/M16 A3033 RMK T10401160 IEM_DS3505
ZBYN,1999-02-04 15:00,ZBYN 041500Z AUTO 36004KT 6SM M00/M14 A3033 RMK SLP320 T10051142 52012 IEM_DS3505
ZBYN,1999-02-04 16:00,ZBYN 041600Z AUTO 12002KT 6SM M06/M17 A3033 RMK T10601170 IEM_DS3505
ZBYN,1999-02-04 17:00,ZBYN 041700Z AUTO 21002KT 6SM M07/M17 A3033 RMK T10701170 IEM_DS3505
ZBYN,1999-02-04 18:00,ZBYN 041800Z AUTO 00000KT 6SM M05/M16 A3033 RMK SLP322 T10531157 52003 IEM_DS3505
ZBYN,1999-02-04 19:00,ZBYN 041900Z AUTO 12004KT 6SM M08/M20 A3033 RMK T10801200 IEM_DS3505
ZBYN,1999-02-04 20:00,ZBYN 042000Z AUTO 05002KT 6SM M09/M17 A3033 RMK T10901170 IEM_DS3505
ZBYN,1999-02-04 21:00,ZBYN 042100Z AUTO 00000KT 6SM M08/M16 A3033 RMK SLP327 T10811159 57001 IEM_DS3505
ZBYN,1999-02-04 22:00,ZBYN 042200Z AUTO 00000KT 6SM M09/M17 A3033 RMK T10901170 IEM_DS3505
ZBYN,1999-02-05 00:00,ZBYN 050000Z AUTO 00000KT 5SM M09/M16 A3036 RMK SLP350 T10911155 52010 IEM_DS3505
ZBYN,1999-02-05 02:00,ZBYN 050200Z AUTO 00000KT M03/M16 A3036 RMK T10301160 IEM_DS3505
ZBYN,1999-02-05 03:00,ZBYN 050300Z AUTO 00000KT 5SM 00/M14 A3036 RMK SLP332 T00011138 54000 IEM_DS3505
ZBYN,1999-02-05 04:00,ZBYN 050400Z AUTO 00000KT 00/M15 A3033 RMK T00001150 IEM_DS3505
ZBYN,1999-02-05 05:00,ZBYN 050500Z AUTO 09002KT 02/M15 A3027 RMK T00201150 IEM_DS3505
ZBYN,1999-02-05 06:00,ZBYN 050600Z AUTO 32002KT 5SM 04/M14 A3024 RMK SLP298 T00401143 57033 IEM_DS3505
ZBYN,1999-02-05 07:00,ZBYN 050700Z AUTO 28002KT 6SM 04/M14 A3024 RMK T00401140 IEM_DS3505
ZBYN,1999-02-05 08:00,ZBYN 050800Z AUTO 00000KT 6SM 05/M14 A3024 RMK T00501140 IEM_DS3505
ZBYN,1999-02-05 09:00,ZBYN 050900Z AUTO 16004KT 5SM 05/M14 A3021 RMK SLP289 T00501139 57011 IEM_DS3505
ZBYN,1999-02-05 10:00,ZBYN 051000Z AUTO 00000KT 6SM 04/M13 A3024 RMK T00401130 IEM_DS3505
ZBYN,1999-02-05 11:00,ZBYN 051100Z AUTO 00000KT 6SM 02/M13 A3024 RMK T00201130 IEM_DS3505
ZBYN,1999-02-05 12:00,ZBYN 051200Z AUTO 14004KT 5SM 01/M14 A3027 RMK SLP313 T00061140 52013 IEM_DS3505
ZBYN,1999-02-05 13:00,ZBYN 051300Z AUTO 10002KT 5SM M03/M14 A3027 RMK T10301140 IEM_DS3505
ZBYN,1999-02-05 14:00,ZBYN 051400Z AUTO 09002KT 6SM M02/M15 A3027 RMK T10201150 IEM_DS3505
ZBYN,1999-02-05 15:00,ZBYN 051500Z AUTO 00000KT 5SM M02/M14 A3027 RMK SLP304 T10161136 52003 IEM_DS3505
ZBYN,1999-02-05 16:00,ZBYN 051600Z AUTO 13004KT 6SM M02/M14 A3027 RMK T10201140 IEM_DS3505
ZBYN,1999-02-05 17:00,ZBYN 051700Z AUTO 11002KT 6SM M04/M16 A3024 RMK T10401160 IEM_DS3505
ZBYN,1999-02-05 18:00,ZBYN 051800Z AUTO 00000KT 6SM M04/M14 A3024 RMK SLP290 T10401139 57010 IEM_DS3505
ZBYN,1999-02-05 19:00,ZBYN 051900Z AUTO 00000KT 6SM M06/M16 A3024 RMK T10601160 IEM_DS3505
ZBYN,1999-02-05 20:00,ZBYN 052000Z AUTO 14002KT 6SM M05/M15 A3024 RMK T10501150 IEM_DS3505
ZBYN,1999-02-05 21:00,ZBYN 052100Z AUTO 34004KT 6SM M03/M14 A3024 RMK SLP285 T10271139 57001 IEM_DS3505
ZBYN,1999-02-05 22:00,ZBYN 052200Z AUTO 00000KT 6SM M04/M13 A3024 RMK T10401130 IEM_DS3505
ZBYN,1999-02-05 23:00,ZBYN 052300Z AUTO 12002KT 6SM M06/M14 A3024 RMK T10601140 IEM_DS3505
ZBYN,1999-02-06 00:00,ZBYN 060000Z AUTO 00000KT 5SM M06/M15 A3024 RMK SLP301 T10581154 52002 IEM_DS3505
ZBYN,1999-02-06 01:00,ZBYN 060100Z AUTO 14002KT 3SM M04/M13 A3027 RMK T10401130 IEM_DS3505
ZBYN,1999-02-06 02:00,ZBYN 060200Z AUTO 00000KT 2SM 00/M12 A3027 RMK T00001120 IEM_DS3505
ZBYN,1999-02-06 03:00,ZBYN 060300Z AUTO 00000KT 3SM 03/M12 A3024 RMK SLP298 T00271116 52008 IEM_DS3505
ZBYN,1999-02-06 04:00,ZBYN 060400Z AUTO 18004KT 04/M11 A3021 RMK T00401110 IEM_DS3505
ZBYN,1999-02-06 05:00,ZBYN 060500Z AUTO 23002KT 06/M09 A3018 RMK T00601090 IEM_DS3505
ZBYN,1999-02-06 06:00,ZBYN 060600Z AUTO 18012KT 3SM 08/M10 A3015 RMK SLP255 T00791102 57034 IEM_DS3505
ZBYN,1999-02-06 07:00,ZBYN 060700Z AUTO 20006KT 5SM 08/M07 A3012 RMK T00801070 IEM_DS3505
ZBYN,1999-02-06 08:00,ZBYN 060800Z AUTO 21004KT 5SM 08/M07 A3012 RMK T00801070 IEM_DS3505
ZBYN,1999-02-06 09:00,ZBYN 060900Z AUTO 22006KT 7SM 09/M08 A3015 RMK SLP247 T00931077 57003 IEM_DS3505
ZBYN,1999-02-06 10:00,ZBYN 061000Z AUTO 29002KT 6SM 07/M09 A3015 RMK T00701090 IEM_DS3505
ZBYN,1999-02-06 11:00,ZBYN 061100Z AUTO 30006KT 6SM 05/M15 A3018 RMK T00501150 IEM_DS3505
ZBYN,1999-02-06 12:00,ZBYN 061200Z AUTO 34002KT 9SM 04/M16 A3024 RMK SLP291 T00421156 52026 IEM_DS3505
ZBYN,1999-02-06 13:00,ZBYN 061300Z AUTO 31010KT 6SM 03/M14 A3024 RMK T00301140 IEM_DS3505
ZBYN,1999-02-06 14:00,ZBYN 061400Z AUTO 33010KT 6SM 03/M14 A3024 RMK T00301140 IEM_DS3505
ZBYN,1999-02-06 15:00,ZBYN 061500Z AUTO 34002KT 6SM 01/M14 A3027 RMK SLP293 T00061138 52010 IEM_DS3505
ZBYN,1999-02-06 16:00,ZBYN 061600Z AUTO 28002KT 6SM 00/M13 A3027 RMK T00001130 IEM_DS3505
ZBYN,1999-02-06 17:00,ZBYN 061700Z AUTO 23002KT 6SM M01/M13 A3027 RMK T10101130 IEM_DS3505
ZBYN,1999-02-06 18:00,ZBYN 061800Z AUTO 34004KT 6SM M01/M13 A3030 RMK SLP292 T10071130 52006 IEM_DS3505
ZBYN,1999-02-06 19:00,ZBYN 061900Z AUTO 11002KT 6SM M07/M14 A3030 RMK T10701140 IEM_DS3505
ZBYN,1999-02-06 20:00,ZBYN 062000Z AUTO 09002KT 6SM M07/M15 A3030 RMK T10701150 IEM_DS3505
ZBYN,1999-02-06 21:00,ZBYN 062100Z AUTO 09002KT 6SM M05/M15 A3030 RMK SLP302 T10541152 52003 IEM_DS3505
ZBYN,1999-02-06 22:00,ZBYN 062200Z AUTO 00000KT 6SM M09/M16 A3030 RMK T10901160 IEM_DS3505
ZBYN,1999-02-06 23:00,ZBYN 062300Z AUTO 09002KT 6SM M09/M16 A3033 RMK T10901160 IEM_DS3505
ZBYN,1999-02-07 00:00,ZBYN 070000Z AUTO 00000KT 6SM M08/M16 A3033 RMK SLP328 T10761158 52012 IEM_DS3505
ZBYN,1999-02-07 01:00,ZBYN 070100Z AUTO 00000KT 6SM M05/M14 A3036 RMK T10501140 IEM_DS3505
ZBYN,1999-02-07 02:00,ZBYN 070200Z AUTO 00000KT 5SM M02/M14 A3033 RMK T10201140 IEM_DS3505
ZBYN,1999-02-07 03:00,ZBYN 070300Z AUTO 14002KT 6SM 03/M14 A3033 RMK SLP313 T00291145 57002 IEM_DS3505
ZBYN,1999-02-07 04:00,ZBYN 070400Z AUTO 22002KT 04/M15 A3030 RMK T00401150 IEM_DS3505
ZBYN,1999-02-07 05:00,ZBYN 070500Z AUTO 24002KT 5SM 05/M15 A3027 RMK T00501150 IEM_DS3505
ZBYN,1999-02-07 06:00,ZBYN 070600Z AUTO 18004KT 6SM 07/M17 A3024 RMK SLP279 T00681167 57027 IEM_DS3505
ZBYN,1999-02-07 07:00,ZBYN 070700Z AUTO 23002KT 6SM 07/M16 A3021 RMK T00701160 IEM_DS3505
ZBYN,1999-02-07 08:00,ZBYN 070800Z AUTO 24004KT 6SM 08/M16 A3021 RMK T00801160 IEM_DS3505
ZBYN,1999-02-07 09:00,ZBYN 070900Z AUTO 18004KT 6SM 07/M17 A3021 RMK SLP276 T00711174 57010 IEM_DS3505
ZBYN,1999-02-07 11:00,ZBYN 071100Z AUTO 06002KT 6SM 02/M16 A3021 RMK T00201160 IEM_DS3505
ZBYN,1999-02-07 12:00,ZBYN 071200Z AUTO 00000KT 6SM 01/M12 A3024 RMK SLP303 T00101123 52011 IEM_DS3505
ZBYN,1999-02-07 13:00,ZBYN 071300Z AUTO 10002KT 6SM M04/M18 A3024 RMK T10401180 IEM_DS3505
ZBYN,1999-02-07 14:00,ZBYN 071400Z AUTO 14004KT 6SM M03/M18 A3024 RMK T10301180 IEM_DS3505
ZBYN,1999-02-07 15:00,ZBYN 071500Z AUTO 00000KT 6SM M04/M16 A3024 RMK SLP296 T10391157 52003 IEM_DS3505
ZBYN,1999-02-07 16:00,ZBYN 071600Z AUTO 00000KT 6SM M05/M17 A3024 RMK T10501170 IEM_DS3505
ZBYN,1999-02-07 17:00,ZBYN 071700Z AUTO 13002KT 6SM M07/M18 A3024 RMK T10701180 IEM_DS3505
ZBYN,1999-02-07 18:00,ZBYN 071800Z AUTO 29002KT 6SM M05/M16 A3021 RMK SLP281 T10491163 57009 IEM_DS3505
ZBYN,1999-02-07 19:00,ZBYN 071900Z AUTO 00000KT 6SM M07/M19 A3024 RMK T10701190 IEM_DS3505
ZBYN,1999-02-07 20:00,ZBYN 072000Z AUTO 00000KT 6SM M09/M17 A3024 RMK T10901170 IEM_DS3505
ZBYN,1999-02-07 21:00,ZBYN 072100Z AUTO 00000KT 4SM M08/M17 A3021 RMK SLP288 T10811166 57018 IEM_DS3505
ZBYN,1999-02-07 22:00,ZBYN 072200Z AUTO 12002KT 6SM M08/M18 A3021 RMK T10801180 IEM_DS3505
ZBYN,1999-02-07 23:00,ZBYN 072300Z AUTO 00000KT 6SM M08/M16 A3021 RMK T10801160 IEM_DS3505
ZBYN,1999-02-08 01:00,ZBYN 080100Z AUTO 00000KT 6SM M05/M18 A3021 RMK T10501180 IEM_DS3505
ZBYN,1999-02-08 02:00,ZBYN 080200Z AUTO 12002KT M01/M17 A3021 RMK T10101170 IEM_DS3505
ZBYN,1999-02-08 03:00,ZBYN 080300Z AUTO 00000KT 5SM 02/M20 A3021 RMK SLP284 T00241204 57005 IEM_DS3505
ZBYN,1999-02-08 04:00,ZBYN 080400Z AUTO 00000KT 5SM 03/M18 A3018 RMK T00301180 IEM_DS3505
ZBYN,1999-02-08 05:00,ZBYN 080500Z AUTO 00000KT 5SM 05/M18 A3015 RMK T00501180 IEM_DS3505
ZBYN,1999-02-08 06:00,ZBYN 080600Z AUTO 14002KT 5SM 07/M17 A3012 RMK SLP239 T00731166 57034 IEM_DS3505
ZBYN,1999-02-08 09:00,ZBYN 080900Z AUTO 22004KT 5SM 08/M14 A3006 RMK SLP230 T00821145 57012 IEM_DS3505
ZBYN,1999-02-08 10:00,ZBYN 081000Z AUTO 00000KT 6SM 07/M16 A3009 RMK T00701160 IEM_DS3505
ZBYN,1999-02-08 11:00,ZBYN 081100Z AUTO 05002KT 03/M14 A3009 RMK T00301140 IEM_DS3505
ZBYN,1999-02-08 12:00,ZBYN 081200Z AUTO 00000KT 5SM 02/M10 A3009 RMK SLP251 T00181102 52011 IEM_DS3505
ZBYN,1999-02-08 14:00,ZBYN 081400Z AUTO 12004KT 6SM M03/M17 A3012 RMK T10301170 IEM_DS3505
ZBYN,1999-02-08 15:00,ZBYN 081500Z AUTO 09002KT 6SM M02/M15 A3012 RMK SLP254 T10231150 52011 IEM_DS3505
ZBYN,1999-02-08 16:00,ZBYN 081600Z AUTO 11002KT 6SM M04/M17 A3012 RMK T10401170 IEM_DS3505
ZBYN,1999-02-08 17:00,ZBYN 081700Z AUTO 00000KT 6SM M05/M16 A3012 RMK T10501160 IEM_DS3505
ZBYN,1999-02-08 18:00,ZBYN 081800Z AUTO 36002KT 6SM M02/M15 RMK SLP237 T10211146 57008 IEM_DS3505
ZBYN,1999-02-08 19:00,ZBYN 081900Z AUTO 12002KT 6SM M05/M18 A3009 RMK T10501180 IEM_DS3505
ZBYN,1999-02-08 20:00,ZBYN 082000Z AUTO 00000KT 6SM M05/M16 A3006 RMK T10501160 IEM_DS3505
ZBYN,1999-02-08 21:00,ZBYN 082100Z AUTO 34004KT 6SM M02/M16 A3009 RMK SLP224 T10161155 57009 IEM_DS3505
ZBYN,1999-02-08 22:00,ZBYN 082200Z AUTO 13002KT 6SM M05/M15 A3006 RMK T10501150 IEM_DS3505
ZBYN,1999-02-08 23:00,ZBYN 082300Z AUTO 14002KT 6SM M04/M17 A3006 RMK T10401170 IEM_DS3505
ZBYN,1999-02-09 00:00,ZBYN 090000Z AUTO 34004KT 5SM M01/M15 A3006 RMK SLP236 T10101149 52001 IEM_DS3505
ZBYN,1999-02-09 02:00,ZBYN 090200Z AUTO 00000KT 3SM 01/M16 A3009 RMK T00101160 IEM_DS3505
ZBYN,1999-02-09 03:00,ZBYN 090300Z AUTO 34004KT 5SM 04/M13 A3009 RMK SLP236 T00401128 52002 IEM_DS3505
ZBYN,1999-02-09 04:00,ZBYN 090400Z AUTO 33004KT 3SM 06/M17 A3006 RMK T00601170 IEM_DS3505
ZBYN,1999-02-09 05:00,ZBYN 090500Z AUTO 34004KT 3SM 08/M16 A3000 RMK T00801160 IEM_DS3505
ZBYN,1999-02-09 06:00,ZBYN 090600Z AUTO 34006KT 5SM 08/M19 A2997 RMK SLP192 T00841190 57033 IEM_DS3505
ZBYN,1999-02-09 07:00,ZBYN 090700Z AUTO 10012KT 6SM 10/M14 A2997 RMK T01001140 IEM_DS3505
ZBYN,1999-02-09 08:00,ZBYN 090800Z AUTO 09016KT 08/M11 A3000 RMK T00801110 IEM_DS3505
ZBYN,1999-02-09 09:00,ZBYN 090900Z AUTO 09017KT 5SM 07/M15 A3003 RMK SLP205 T00721152 52011 IEM_DS3505
ZBYN,1999-02-09 10:00,ZBYN 091000Z AUTO 08017KT 05/M11 A3006 RMK T00501110 IEM_DS3505
ZBYN,1999-02-09 11:00,ZBYN 091100Z AUTO 09019KT 5SM 03/M12 A3009 RMK T00301120 IEM_DS3505
ZBYN,1999-02-09 12:00,ZBYN 091200Z AUTO 02008KT 5SM 03/M12 A3012 RMK SLP250 T00281122 52035 IEM_DS3505
ZBYN,1999-02-09 13:00,ZBYN 091300Z AUTO 08017KT 6SM 01/M14 A3015 RMK T00101140 IEM_DS3505
ZBYN,1999-02-09 14:00,ZBYN 091400Z AUTO 08017KT 5SM 00/M14 A3018 RMK T00001140 IEM_DS3505
ZBYN,1999-02-09 15:00,ZBYN 091500Z AUTO 07006KT 6SM 01/M12 A3018 RMK SLP269 T00141115 52023 IEM_DS3505
ZBYN,1999-02-09 16:00,ZBYN 091600Z AUTO 06010KT 6SM 00/M11 A3021 RMK T00001110 IEM_DS3505
ZBYN,1999-02-09 17:00,ZBYN 091700Z AUTO 06010KT 6SM 00/M12 A3021 RMK T00001120 IEM_DS3505
ZBYN,1999-02-09 18:00,ZBYN 091800Z AUTO 32002KT 6SM 00/M11 A3021 RMK SLP271 T00001114 52006 IEM_DS3505
ZBYN,1999-02-09 19:00,ZBYN 091900Z AUTO 10010KT 6SM 00/M12 A3021 RMK T00001120 IEM_DS3505
ZBYN,1999-02-09 21:00,ZBYN 092100Z AUTO 32002KT 6SM M01/M12 A3021 RMK SLP269 T10071115 57004 IEM_DS3505
ZBYN,1999-02-09 22:00,ZBYN 092200Z AUTO 12004KT 6SM M01/M13 A3024 RMK T10101130 IEM_DS3505
ZBYN,1999-02-09 23:00,ZBYN 092300Z AUTO 00000KT 6SM M01/M14 A3021 RMK T10101140 IEM_DS3505
ZBYN,1999-02-10 00:00,ZBYN 100000Z AUTO 18002KT 6SM M02/M12 A3024 RMK SLP284 T10221123 52004 IEM_DS3505
ZBYN,1999-02-10 01:00,ZBYN 100100Z AUTO 00000KT 6SM M01/M13 A3024 RMK T10101130 IEM_DS3505
ZBYN,1999-02-10 02:00,ZBYN 100200Z AUTO 00000KT 6SM M01/M11 A3024 RMK T10101110 IEM_DS3505
ZBYN,1999-02-10 03:00,ZBYN 100300Z AUTO 14002KT 6SM M00/M13 A3024 RMK SLP290 T10031128 52006 IEM_DS3505
ZBYN,1999-02-10 04:00,ZBYN 100400Z AUTO 00000KT 6SM 01/M11 A3024 RMK T00101110 IEM_DS3505
ZBYN,1999-02-10 05:00,ZBYN 100500Z AUTO 22004KT 6SM 03/M11 A3021 RMK T00301110 IEM_DS3505
ZBYN,1999-02-10 06:00,ZBYN 100600Z AUTO 22006KT 5SM 04/M11 A3018 RMK SLP262 T00391106 57021 IEM_DS3505
ZBYN,1999-02-10 07:00,ZBYN 100700Z AUTO 20002KT 5SM 05/M11 A3015 RMK T00501110 IEM_DS3505
ZBYN,1999-02-10 08:00,ZBYN 100800Z AUTO 25004KT 7SM 06/M11 A3015 RMK T00601110 IEM_DS3505
ZBYN,1999-02-10 09:00,ZBYN 100900Z AUTO 29019KT 11SM 07/M21 A3015 RMK SLP245 T00691213 57012 IEM_DS3505
ZBYN,1999-02-10 10:00,ZBYN 101000Z AUTO 28012KT 7SM 05/M17 A3015 RMK T00501170 IEM_DS3505
ZBYN,1999-02-10 11:00,ZBYN 101100Z AUTO 29006KT 6SM 03/M16 A3018 RMK T00301160 IEM_DS3505
ZBYN,1999-02-10 12:00,ZBYN 101200Z AUTO 29004KT 11SM 03/M17 A3021 RMK SLP280 T00271174 52023 IEM_DS3505
ZBYN,1999-02-10 13:00,ZBYN 101300Z AUTO 29010KT 6SM 02/M16 A3024 RMK T00201160 IEM_DS3505
ZBYN,1999-02-10 14:00,ZBYN 101400Z AUTO 28006KT 6SM 01/M16 A3024 RMK T00101160 IEM_DS3505
ZBYN,1999-02-10 15:00,ZBYN 101500Z AUTO 00000KT 9SM 01/M17 RMK SLP287 T00131172 52007 IEM_DS3505
ZBYN,1999-02-10 16:00,ZBYN 101600Z AUTO 20002KT 6SM 01/M16 A3024 RMK T00101160 IEM_DS3505
ZBYN,1999-02-10 17:00,ZBYN 101700Z AUTO 00000KT 6SM M04/M16 A3024 RMK T10401160 IEM_DS3505
ZBYN,1999-02-10 18:00,ZBYN 101800Z AUTO 27004KT 9SM M02/M16 A3024 RMK SLP281 T10211160 57004 IEM_DS3505
ZBYN,1999-02-10 19:00,ZBYN 101900Z AUTO 24002KT 6SM M04/M14 A3021 RMK T10401140 IEM_DS3505
ZBYN,1999-02-10 20:00,ZBYN 102000Z AUTO 24006KT 6SM M03/M15 A3018 RMK T10301150 IEM_DS3505
ZBYN,1999-02-10 21:00,ZBYN 102100Z AUTO 22006KT 9SM M03/M15 A3021 RMK SLP271 T10341153 57006 IEM_DS3505
ZBYN,1999-02-10 22:00,ZBYN 102200Z AUTO 10002KT 6SM M07/M16 A3021 RMK T10701160 IEM_DS3505
ZBYN,1999-02-10 23:00,ZBYN 102300Z AUTO 10004KT 6SM M08/M16 A3024 RMK T10801160 IEM_DS3505
ZBYN,1999-02-11 00:00,ZBYN 110000Z AUTO 09004KT 9SM M07/M16 A3027 RMK SLP310 T10661160 52023 IEM_DS3505
ZBYN,1999-02-11 01:00,ZBYN 110100Z AUTO 10004KT 6SM M04/M16 A3030 RMK T10401160 IEM_DS3505
ZBYN,1999-02-11 02:00,ZBYN 110200Z AUTO 00000KT 6SM 00/M14 A3030 RMK T00001140 IEM_DS3505
ZBYN,1999-02-11 03:00,ZBYN 110300Z AUTO 32012KT 9SM 05/M16 A3030 RMK SLP304 T00481163 52011 IEM_DS3505
ZBYN,1999-02-11 04:00,ZBYN 110400Z AUTO 32017KT 6SM 06/M16 A3030 RMK T00601160 IEM_DS3505
ZBYN,1999-02-11 05:00,ZBYN 110500Z AUTO 30016KT 6SM 06/M17 A3027 RMK T00601170 IEM_DS3505
ZBYN,1999-02-11 06:00,ZBYN 110600Z AUTO 32019KT 12SM 06/M24 A3027 RMK SLP295 T00641241 57011 IEM_DS3505
ZBYN,1999-02-11 07:00,ZBYN 110700Z AUTO 30016KT 6SM 07/M20 A3027 RMK T00701200 IEM_DS3505
ZBYN,1999-02-11 08:00,ZBYN 110800Z AUTO 30016KT 6SM 06/M21 A3027 RMK T00601210 IEM_DS3505
ZBYN,1999-02-11 09:00,ZBYN 110900Z AUTO 32016KT 12SM 05/M29 A3030 RMK SLP302 T00541287 52002 IEM_DS3505
ZBYN,1999-02-11 10:00,ZBYN 111000Z AUTO 30008KT 6SM 04/M22 A3033 RMK T00401220 IEM_DS3505
ZBYN,1999-02-11 11:00,ZBYN 111100Z AUTO 30006KT 6SM 02/M22 A3036 RMK T00201220 IEM_DS3505
ZBYN,1999-02-11 12:00,ZBYN 111200Z AUTO 29006KT 12SM 01/M25 A3042 RMK SLP357 T00091247 52037 IEM_DS3505
ZBYN,1999-02-11 13:00,ZBYN 111300Z AUTO 02002KT 6SM M01/M21 A3045 RMK T10101210 IEM_DS3505
ZBYN,1999-02-11 14:00,ZBYN 111400Z AUTO 00000KT 6SM M04/M21 A3045 RMK T10401210 IEM_DS3505
ZBYN,1999-02-11 15:00,ZBYN 111500Z AUTO 11004KT 9SM M04/M23 A3045 RMK SLP361 T10351229 52016 IEM_DS3505
ZBYN,1999-02-11 16:00,ZBYN 111600Z AUTO 12002KT 6SM M08/M23 A3045 RMK T10801230 IEM_DS3505
ZBYN,1999-02-11 17:00,ZBYN 111700Z AUTO 12004KT 6SM M09/M23 A3045 RMK T10901230 IEM_DS3505
ZBYN,1999-02-11 18:00,ZBYN 111800Z AUTO 00000KT 9SM M08/M21 A3045 RMK SLP366 T10841214 57011 IEM_DS3505
ZBYN,1999-02-11 19:00,ZBYN 111900Z AUTO 12004KT 6SM M10/M23 A3045 RMK T11001230 IEM_DS3505
ZBYN,1999-02-11 20:00,ZBYN 112000Z AUTO 10002KT 6SM M10/M23 A3045 RMK T11001230 IEM_DS3505
ZBYN,1999-02-11 21:00,ZBYN 112100Z AUTO 18004KT 6SM M10/M20 A3045 RMK SLP369 T10971204 57001 IEM_DS3505
ZBYN,1999-02-11 22:00,ZBYN 112200Z AUTO 08002KT 6SM M11/M23 A3045 RMK T11101230 IEM_DS3505
ZBYN,1999-02-11 23:00,ZBYN 112300Z AUTO 11002KT 6SM M12/M23 A3045 RMK T11201230 IEM_DS3505
ZBYN,1999-02-12 00:00,ZBYN 120000Z AUTO 14002KT 9SM M11/M22 A3045 RMK SLP389 T11131217 52007 IEM_DS3505
ZBYN,1999-02-12 01:00,ZBYN 120100Z AUTO 10002KT 6SM M07/M22 A3045 RMK T10701220 IEM_DS3505
ZBYN,1999-02-12 02:00,ZBYN 120200Z AUTO 00000KT 6SM M03/M22 A3045 RMK T10301220 IEM_DS3505
ZBYN,1999-02-12 03:00,ZBYN 120300Z AUTO 14004KT 9SM 00/M19 A3045 RMK SLP365 T00021192 57009 IEM_DS3505
ZBYN,1999-02-12 04:00,ZBYN 120400Z AUTO 19004KT 6SM 02/M20 A3042 RMK T00201200 IEM_DS3505
ZBYN,1999-02-12 05:00,ZBYN 120500Z AUTO 26006KT 6SM 03/M21 A3036 RMK T00301210 IEM_DS3505
ZBYN,1999-02-12 06:00,ZBYN 120600Z AUTO 22006KT 9SM 04/M18 A3033 RMK SLP328 T00381183 57036 IEM_DS3505
ZBYN,1999-02-12 07:00,ZBYN 120700Z AUTO 00000KT 6SM 05/M22 A3030 RMK T00501220 IEM_DS3505
ZBYN,1999-02-12 08:00,ZBYN 120800Z AUTO 12002KT 6SM 05/M23 A3027 RMK T00501230 IEM_DS3505
ZBYN,1999-02-12 09:00,ZBYN 120900Z AUTO 11004KT 11SM 05/M18 A3024 RMK SLP301 T00541177 57024 IEM_DS3505
ZBYN,1999-02-12 10:00,ZBYN 121000Z AUTO 00000KT 6SM 03/M23 A3024 RMK T00301230 IEM_DS3505
ZBYN,1999-02-12 11:00,ZBYN 121100Z AUTO 04002KT 6SM 00/M23 A3024 RMK T00001230 IEM_DS3505
ZBYN,1999-02-12 12:00,ZBYN 121200Z AUTO 00000KT 6SM M00/M16 A3024 RMK SLP313 T10021159 57001 IEM_DS3505
ZBYN,1999-02-12 13:00,ZBYN 121300Z AUTO 00000KT 6SM M04/M23 A3024 RMK T10401230 IEM_DS3505
ZBYN,1999-02-12 14:00,ZBYN 121400Z AUTO 12002KT 6SM 00/M16 A3024 RMK T00001160 IEM_DS3505
ZBYN,1999-02-12 15:00,ZBYN 121500Z AUTO 00000KT 6SM M03/M16 A3024 RMK SLP292 T10281162 57004 IEM_DS3505
ZBYN,1999-02-12 16:00,ZBYN 121600Z AUTO 12004KT 6SM M08/M24 A3021 RMK T10801240 IEM_DS3505
ZBYN,1999-02-12 17:00,ZBYN 121700Z AUTO 12002KT 6SM M08/M23 A3021 RMK T10801230 IEM_DS3505
ZBYN,1999-02-12 18:00,ZBYN 121800Z AUTO 00000KT 6SM M07/M21 A3018 RMK SLP282 T10681214 57010 IEM_DS3505
ZBYN,1999-02-12 19:00,ZBYN 121900Z AUTO 00000KT 6SM M08/M23 A3018 RMK T10801230 IEM_DS3505
ZBYN,1999-02-12 20:00,ZBYN 122000Z AUTO 04002KT 6SM M08/M23 A3018 RMK T10801230 IEM_DS3505
ZBYN,1999-02-12 21:00,ZBYN 122100Z AUTO 00000KT 6SM M07/M18 A3015 RMK SLP263 T10711177 57015 IEM_DS3505
ZBYN,1999-02-12 22:00,ZBYN 122200Z AUTO 00000KT 6SM M07/M21 A3015 RMK T10701210 IEM_DS3505
ZBYN,1999-02-12 23:00,ZBYN 122300Z AUTO 13004KT 6SM M09/M20 A3015 RMK T10901200 IEM_DS3505
ZBYN,1999-02-13 00:00,ZBYN 130000Z AUTO 00000KT 6SM M08/M18 A3015 RMK SLP280 T10781183 52005 IEM_DS3505
ZBYN,1999-02-13 01:00,ZBYN 130100Z AUTO 00000KT 6SM M05/M22 A3018 RMK T10501220 IEM_DS3505
ZBYN,1999-02-13 02:00,ZBYN 130200Z AUTO 00000KT 6SM M02/M22 A3018 RMK T10201220 IEM_DS3505
ZBYN,1999-02-13 03:00,ZBYN 130300Z AUTO 14004KT 6SM 03/M14 A3015 RMK SLP264 T00271135 57002 IEM_DS3505
ZBYN,1999-02-13 04:00,ZBYN 130400Z AUTO 17004KT 6SM 04/M20 A3012 RMK T00401200 IEM_DS3505
ZBYN,1999-02-13 05:00,ZBYN 130500Z AUTO 17002KT 6SM 06/M19 A3009 RMK T00601190 IEM_DS3505
ZBYN,1999-02-13 06:00,ZBYN 130600Z AUTO 14006KT 6SM 08/M17 A3006 RMK SLP232 T00851169 57026 IEM_DS3505
ZBYN,1999-02-13 07:00,ZBYN 130700Z AUTO 21006KT 6SM 10/M16 A3006 RMK T01001160 IEM_DS3505
ZBYN,1999-02-13 08:00,ZBYN 130800Z AUTO 24006KT 6SM 11/M16 A3003 RMK T01101160 IEM_DS3505
ZBYN,1999-02-13 09:00,ZBYN 130900Z AUTO 22008KT 6SM 11/M15 A3003 RMK SLP217 T01101149 57010 IEM_DS3505
ZBYN,1999-02-13 10:00,ZBYN 131000Z AUTO 00000KT 6SM 09/M15 A3003 RMK T00901150 IEM_DS3505
ZBYN,1999-02-13 11:00,ZBYN 131100Z AUTO 10002KT 6SM 05/M16 A3006 RMK T00501160 IEM_DS3505
ZBYN,1999-02-13 12:00,ZBYN 131200Z AUTO 00000KT 9SM 04/M12 A3009 RMK SLP244 T00351118 52011 IEM_DS3505
ZBYN,1999-02-13 13:00,ZBYN 131300Z AUTO 12002KT 6SM 00/M16 A3009 RMK T00001160 IEM_DS3505
ZBYN,1999-02-13 14:00,ZBYN 131400Z AUTO 12002KT 6SM 00/M17 A3012 RMK T00001170 IEM_DS3505
ZBYN,1999-02-13 15:00,ZBYN 131500Z AUTO 09002KT 6SM M00/M16 A3012 RMK SLP247 T10031161 52014 IEM_DS3505
ZBYN,1999-02-13 16:00,ZBYN 131600Z AUTO 07002KT 6SM M02/M16 A3012 RMK T10201160 IEM_DS3505
ZBYN,1999-02-13 17:00,ZBYN 131700Z AUTO 09004KT 6SM M02/M18 A3012 RMK T10201180 IEM_DS3505
ZBYN,1999-02-13 18:00,ZBYN 131800Z AUTO 00000KT 6SM M02/M16 A3012 RMK SLP241 T10251162 54000 IEM_DS3505
ZBYN,1999-02-13 19:00,ZBYN 131900Z AUTO 13004KT 6SM M03/M16 A3012 RMK T10301160 IEM_DS3505
ZBYN,1999-02-13 20:00,ZBYN 132000Z AUTO 09002KT 6SM M01/M17 A3012 RMK T10101170 IEM_DS3505
ZBYN,1999-02-13 21:00,ZBYN 132100Z AUTO 00000KT 6SM M02/M14 A3012 RMK SLP234 T10161135 57001 IEM_DS3505
ZBYN,1999-02-13 22:00,ZBYN 132200Z AUTO 00000KT 6SM M03/M16 A3012 RMK T10301160 IEM_DS3505
ZBYN,1999-02-13 23:00,ZBYN 132300Z AUTO 14002KT 6SM M03/M16 A3015 RMK T10301160 IEM_DS3505
ZBYN,1999-02-14 00:00,ZBYN 140000Z AUTO 14002KT 6SM M02/M16 A3018 RMK SLP270 T10251155 52020 IEM_DS3505
ZBYN,1999-02-14 01:00,ZBYN 140100Z AUTO 11002KT 6SM 00/M14 A3018 RMK T00001140 IEM_DS3505
ZBYN,1999-02-14 02:00,ZBYN 140200Z AUTO 00000KT 6SM 01/M14 A3021 RMK T00101140 IEM_DS3505
ZBYN,1999-02-14 03:00,ZBYN 140300Z AUTO 09006KT 6SM 05/M16 A3021 RMK SLP266 T00481162 52002 IEM_DS3505
ZBYN,1999-02-14 04:00,ZBYN 140400Z AUTO 27008KT 6SM 08/M11 A3018 RMK T00801110 IEM_DS3505
ZBYN,1999-02-14 05:00,ZBYN 140500Z AUTO 28017KT 6SM 11/M14 A3015 RMK T01101140 IEM_DS3505
ZBYN,1999-02-14 06:00,ZBYN 140600Z AUTO 29019KT 11SM 11/M18 A3015 RMK SLP243 T01081185 57015 IEM_DS3505
ZBYN,1999-02-14 07:00,ZBYN 140700Z AUTO 28017KT 6SM 11/M15 A3015 RMK T01101150 IEM_DS3505
ZBYN,1999-02-14 08:00,ZBYN 140800Z AUTO 29014KT 6SM 10/M15 A3015 RMK T01001150 IEM_DS3505
ZBYN,1999-02-14 09:00,ZBYN 140900Z AUTO 29017KT 11SM 09/M18 A3018 RMK SLP256 T00941183 52011 IEM_DS3505
ZBYN,1999-02-14 10:00,ZBYN 141000Z AUTO 31010KT 6SM 07/M15 A3021 RMK T00701150 IEM_DS3505
ZBYN,1999-02-14 11:00,ZBYN 141100Z AUTO 34006KT 6SM 05/M14 A3024 RMK T00501140 IEM_DS3505
ZBYN,1999-02-14 12:00,ZBYN 141200Z AUTO 32002KT 9SM 04/M14 A3027 RMK SLP304 T00441144 52034 IEM_DS3505
ZBYN,1999-02-14 13:00,ZBYN 141300Z AUTO 01006KT 6SM 03/M14 A3030 RMK T00301140 IEM_DS3505
ZBYN,1999-02-14 14:00,ZBYN 141400Z AUTO 02004KT 6SM 02/M15 A3033 RMK T00201150 IEM_DS3505
ZBYN,1999-02-14 15:00,ZBYN 141500Z AUTO 34002KT 6SM 02/M14 A3036 RMK SLP317 T00181138 52019 IEM_DS3505
ZBYN,1999-02-14 16:00,ZBYN 141600Z AUTO 34006KT 6SM 02/M13 A3036 RMK T00201130 IEM_DS3505
ZBYN,1999-02-14 17:00,ZBYN 141700Z AUTO 00000KT 6SM M01/M13 A3036 RMK T10101130 IEM_DS3505
ZBYN,1999-02-14 18:00,ZBYN 141800Z AUTO 00000KT 6SM 00/M12 A3036 RMK SLP318 T00041125 52009 IEM_DS3505
ZBYN,1999-02-14 19:00,ZBYN 141900Z AUTO 05004KT 6SM M05/M16 A3036 RMK T10501160 IEM_DS3505
ZBYN,1999-02-14 21:00,ZBYN 142100Z AUTO 36002KT 7SM M01/M13 A3033 RMK SLP313 T10131130 57010 IEM_DS3505
ZBYN,1999-02-14 22:00,ZBYN 142200Z AUTO 12004KT 6SM M07/M16 A3033 RMK T10701160 IEM_DS3505
ZBYN,1999-02-14 23:00,ZBYN 142300Z AUTO 00000KT 6SM M07/M16 A3033 RMK T10701160 IEM_DS3505
ZBYN,1999-02-15 00:00,ZBYN 150000Z AUTO 07002KT 9SM M06/M14 A3036 RMK SLP332 T10561143 52002 IEM_DS3505
ZBYN,1999-02-15 01:00,ZBYN 150100Z AUTO 00000KT 6SM M04/M14 A3036 RMK T10401140 IEM_DS3505
ZBYN,1999-02-15 02:00,ZBYN 150200Z AUTO 21002KT 5SM M01/M13 A3036 RMK T10101130 IEM_DS3505
ZBYN,1999-02-15 03:00,ZBYN 150300Z AUTO 00000KT 6SM 02/M12 A3033 RMK SLP319 T00231121 57003 IEM_DS3505
ZBYN,1999-02-15 04:00,ZBYN 150400Z AUTO 00000KT 6SM 03/M12 A3030 RMK T00301120 IEM_DS3505
ZBYN,1999-02-15 05:00,ZBYN 150500Z AUTO 19002KT 6SM 05/M13 A3027 RMK T00501130 IEM_DS3505
ZBYN,1999-02-15 06:00,ZBYN 150600Z AUTO 14008KT 9SM 07/M15 A3021 RMK SLP268 T00731151 57040 IEM_DS3505
ZBYN,1999-02-15 07:00,ZBYN 150700Z AUTO 22002KT 6SM 07/M14 A3018 RMK T00701140 IEM_DS3505
ZBYN,1999-02-15 08:00,ZBYN 150800Z AUTO 21002KT 6SM 08/M15 A3015 RMK T00801150 IEM_DS3505
ZBYN,1999-02-15 09:00,ZBYN 150900Z AUTO 16008KT 12SM 08/M16 A3012 RMK SLP235 T00821162 57032 IEM_DS3505
ZBYN,1999-02-15 10:00,ZBYN 151000Z AUTO 17002KT 6SM 07/M16 A3009 RMK T00701160 IEM_DS3505
ZBYN,1999-02-15 11:00,ZBYN 151100Z AUTO 17002KT 6SM 04/M15 A3012 RMK T00401150 IEM_DS3505
ZBYN,1999-02-15 12:00,ZBYN 151200Z AUTO 00000KT 9SM 01/M13 A3012 RMK SLP256 T00101129 52001 IEM_DS3505
ZBYN,1999-02-15 13:00,ZBYN 151300Z AUTO 14002KT 6SM M01/M16 A3009 RMK T10101160 IEM_DS3505
ZBYN,1999-02-15 14:00,ZBYN 151400Z AUTO 12002KT 6SM M02/M17 A3009 RMK T10201170 IEM_DS3505
ZBYN,1999-02-15 15:00,ZBYN 151500Z AUTO 11002KT 7SM M00/M13 A3009 RMK SLP239 T10031133 57005 IEM_DS3505
ZBYN,1999-02-15 16:00,ZBYN 151600Z AUTO 12004KT 6SM M03/M16 A3006 RMK T10301160 IEM_DS3505
ZBYN,1999-02-15 17:00,ZBYN 151700Z AUTO 10004KT 6SM M04/M17 A3006 RMK T10401170 IEM_DS3505
ZBYN,1999-02-15 18:00,ZBYN 151800Z AUTO 11006KT 7SM M03/M17 A3006 RMK SLP218 T10281168 57015 IEM_DS3505
ZBYN,1999-02-15 19:00,ZBYN 151900Z AUTO 12004KT 6SM M03/M16 A3003 RMK T10301160 IEM_DS3505
ZBYN,1999-02-15 20:00,ZBYN 152000Z AUTO 11002KT 6SM M04/M16 A3003 RMK T10401160 IEM_DS3505
ZBYN,1999-02-15 21:00,ZBYN 152100Z AUTO 00000KT 6SM M04/M16 A3000 RMK SLP208 T10441159 57010 IEM_DS3505
ZBYN,1999-02-15 22:00,ZBYN 152200Z AUTO 10002KT 6SM M05/M15 A3003 RMK T10501150 IEM_DS3505
ZBYN,1999-02-15 23:00,ZBYN 152300Z AUTO 04002KT 2 1/2SM M05/M16 A3003 RMK T10501160 IEM_DS3505
ZBYN,1999-02-16 00:00,ZBYN 160000Z AUTO 09002KT 4SM M05/M17 A3003 RMK SLP232 T10511166 52009 IEM_DS3505
ZBYN,1999-02-16 01:00,ZBYN 160100Z AUTO 10002KT M01/M14 A3003 RMK T10101140 IEM_DS3505
ZBYN,1999-02-16 02:00,ZBYN 160200Z AUTO 13002KT 03/M13 A3003 RMK T00301130 IEM_DS3505
ZBYN,1999-02-16 03:00,ZBYN 160300Z AUTO 14004KT 6SM 06/M15 A3000 RMK SLP207 T00561146 57008 IEM_DS3505
ZBYN,1999-02-16 04:00,ZBYN 160400Z AUTO 19004KT 5SM 08/M10 A3000 RMK T00801100 IEM_DS3505
ZBYN,1999-02-16 05:00,ZBYN 160500Z AUTO 22008KT 6SM 12/M09 A2994 RMK T01201090 IEM_DS3505
ZBYN,1999-02-16 06:00,ZBYN 160600Z AUTO 22006KT 7SM 16/M15 A2991 RMK SLP157 T01571148 57033 IEM_DS3505
ZBYN,1999-02-16 07:00,ZBYN 160700Z AUTO 26006KT 6SM 16/M12 A2988 RMK T01601120 IEM_DS3505
ZBYN,1999-02-16 08:00,ZBYN 160800Z AUTO 34010KT 6SM 16/M16 A2988 RMK T01601160 IEM_DS3505
ZBYN,1999-02-16 09:00,ZBYN 160900Z AUTO 32004KT 12SM 16/M22 A2988 RMK SLP153 T01551224 57007 IEM_DS3505
ZBYN,1999-02-16 10:00,ZBYN 161000Z AUTO 34010KT 6SM 13/M20 A2988 RMK T01301200 IEM_DS3505
ZBYN,1999-02-16 11:00,ZBYN 161100Z AUTO 31006KT 6SM 09/M22 A2991 RMK T00901220 IEM_DS3505
ZBYN,1999-02-16 12:00,ZBYN 161200Z AUTO 29008KT 11SM 10/M19 A2994 RMK SLP192 T00961192 52025 IEM_DS3505
ZBYN,1999-02-16 13:00,ZBYN 161300Z AUTO 33010KT 6SM 08/M21 A2997 RMK T00801210 IEM_DS3505
ZBYN,1999-02-16 14:00,ZBYN 161400Z AUTO 32008KT 6SM 08/M21 A2997 RMK T00801210 IEM_DS3505
ZBYN,1999-02-16 15:00,ZBYN 161500Z AUTO 32010KT 9SM 05/M15 A2997 RMK SLP186 T00461151 52004 IEM_DS3505
ZBYN,1999-02-16 16:00,ZBYN 161600Z AUTO 26002KT 6SM 07/M20 A2997 RMK T00701200 IEM_DS3505
ZBYN,1999-02-16 17:00,ZBYN 161700Z AUTO 31008KT 5SM 07/M18 A2997 RMK T00701180 IEM_DS3505
ZBYN,1999-02-16 18:00,ZBYN 161800Z AUTO 32006KT 6SM 07/M17 A3000 RMK SLP172 T00721169 52007 IEM_DS3505
ZBYN,1999-02-16 19:00,ZBYN 161900Z AUTO 28004KT 5SM 07/M20 A3000 RMK T00701200 IEM_DS3505
ZBYN,1999-02-16 20:00,ZBYN 162000Z AUTO 27004KT 5SM 06/M19 A2997 RMK T00601190 IEM_DS3505
ZBYN,1999-02-16 21:00,ZBYN 162100Z AUTO 32006KT 5SM 07/M20 A2997 RMK SLP171 T00661201 57002 IEM_DS3505
ZBYN,1999-02-16 23:00,ZBYN 162300Z AUTO 33006KT 6SM 05/M21 A3003 RMK T00501210 IEM_DS3505
ZBYN,1999-02-17 00:00,ZBYN 170000Z AUTO 34002KT 7SM 04/M17 RMK SLP200 T00441173 52014 IEM_DS3505
ZBYN,1999-02-17 01:00,ZBYN 170100Z AUTO 32004KT 6SM 05/M20 A3003 RMK T00501200 IEM_DS3505
ZBYN,1999-02-17 02:00,ZBYN 170200Z AUTO 32002KT 6SM 05/M19 A3006 RMK T00501190 IEM_DS3505
ZBYN,1999-02-17 03:00,ZBYN 170300Z AUTO 34004KT 7SM 06/M16 A3009 RMK SLP221 T00631165 52014 IEM_DS3505
ZBYN,1999-02-17 04:00,ZBYN 170400Z AUTO 28002KT 6SM 06/M18 A3009 RMK T00601180 IEM_DS3505
ZBYN,1999-02-17 05:00,ZBYN 170500Z AUTO 21002KT 6SM 06/M13 A3009 RMK T00601130 IEM_DS3505
ZBYN,1999-02-17 06:00,ZBYN 170600Z AUTO 29012KT 12SM 08/M21 A3006 RMK SLP211 T00771211 57003 IEM_DS3505
ZBYN,1999-02-17 07:00,ZBYN 170700Z AUTO 28014KT 6SM 08/M16 A3006 RMK T00801160 IEM_DS3505
ZBYN,1999-02-17 08:00,ZBYN 170800Z AUTO 30019KT 6SM 08/M17 A3009 RMK T00801170 IEM_DS3505
ZBYN,1999-02-17 09:00,ZBYN 170900Z AUTO 32010KT 12SM 08/M18 A3012 RMK SLP230 T00761184 52016 IEM_DS3505
ZBYN,1999-02-17 10:00,ZBYN 171000Z AUTO 29010KT 6SM 07/M16 A3015 RMK T00701160 IEM_DS3505
ZBYN,1999-02-17 11:00,ZBYN 171100Z AUTO 28019KT 6SM 05/M20 A3021 RMK T00501200 IEM_DS3505
ZBYN,1999-02-17 12:00,ZBYN 171200Z AUTO 29012KT 11SM 04/M25 A3027 RMK SLP285 T00391254 52041 IEM_DS3505
ZBYN,1999-02-17 13:00,ZBYN 171300Z AUTO 30017KT 6SM 03/M21 A3030 RMK T00301210 IEM_DS3505
ZBYN,1999-02-17 14:00,ZBYN 171400Z AUTO 30014KT 6SM 01/M20 A3033 RMK T00101200 IEM_DS3505
ZBYN,1999-02-17 15:00,ZBYN 171500Z AUTO 30017KT 6SM 00/M21 A3036 RMK T00001210 IEM_DS3505
ZBYN,1999-02-17 16:00,ZBYN 171600Z AUTO 32014KT 6SM M01/M21 A3039 RMK T10101210 IEM_DS3505
ZBYN,1999-02-17 17:00,ZBYN 171700Z AUTO 32014KT 6SM M02/M21 A3045 RMK T10201210 IEM_DS3505
ZBYN,1999-02-17 18:00,ZBYN 171800Z AUTO 32012KT 6SM M04/M21 A3045 RMK SLP360 T10371213 52027 IEM_DS3505
ZBYN,1999-02-17 20:00,ZBYN 172000Z AUTO 29014KT 6SM M05/M27 A3045 RMK T10501270 IEM_DS3505
ZBYN,1999-02-17 21:00,ZBYN 172100Z AUTO 29016KT 6SM M07/M31 RMK SLP374 T10661314 52008 IEM_DS3505
ZBYN,1999-02-17 22:00,ZBYN 172200Z AUTO 28006KT 6SM M07/M27 A3047 RMK T10701270 IEM_DS3505
ZBYN,1999-02-17 23:00,ZBYN 172300Z AUTO 30010KT 6SM M07/M27 A3050 RMK T10701270 IEM_DS3505
ZBYN,1999-02-18 00:00,ZBYN 180000Z AUTO 29010KT 12SM M08/M31 A3050 RMK SLP395 T10781310 52011 IEM_DS3505
ZBYN,1999-02-18 01:00,ZBYN 180100Z AUTO 30017KT 6SM M07/M27 A3053 RMK T10701270 IEM_DS3505
ZBYN,1999-02-18 02:00,ZBYN 180200Z AUTO 30016KT 6SM M06/M25 A3053 RMK T10601250 IEM_DS3505
ZBYN,1999-02-18 03:00,ZBYN 180300Z AUTO 29016KT 16SM M05/M25 A3050 RMK SLP389 T10471247 57007 IEM_DS3505
ZBYN,1999-02-18 04:00,ZBYN 180400Z AUTO 29019KT 6SM M03/M25 A3050 RMK T10301250 IEM_DS3505
ZBYN,1999-02-18 05:00,ZBYN 180500Z AUTO 31021KT 6SM M02/M24 A3047 RMK T10201240 IEM_DS3505
ZBYN,1999-02-18 06:00,ZBYN 180600Z AUTO 29019KT 16SM M02/M26 A3047 RMK SLP386 T10231265 4////1084 57005 IEM_DS3505
ZBYN,1999-02-18 07:00,ZBYN 180700Z AUTO 32023KT 6SM M02/M24 A3047 RMK T10201240 IEM_DS3505
ZBYN,1999-02-18 08:00,ZBYN 180800Z AUTO 31021KT 6SM M02/M25 A3050 RMK T10201250 IEM_DS3505
ZBYN,1999-02-18 09:00,ZBYN 180900Z AUTO 32014KT 12SM M03/M25 A3050 RMK SLP401 T10291247 52008 IEM_DS3505
ZBYN,1999-02-18 10:00,ZBYN 181000Z AUTO 32014KT 6SM M03/M27 A3053 RMK T10301270 IEM_DS3505
ZBYN,1999-02-18 11:00,ZBYN 181100Z AUTO 32014KT 6SM M04/M27 A3056 RMK T10401270 IEM_DS3505
ZBYN,1999-02-18 12:00,ZBYN 181200Z AUTO 32012KT 11SM M05/M26 A3056 RMK SLP436 T10531256 52025 IEM_DS3505
ZBYN,1999-02-18 13:00,ZBYN 181300Z AUTO 30010KT 6SM M06/M27 A3059 RMK T10601270 IEM_DS3505
ZBYN,1999-02-18 14:00,ZBYN 181400Z AUTO 30008KT 6SM M07/M27 A3062 RMK T10701270 IEM_DS3505
ZBYN,1999-02-18 15:00,ZBYN 181500Z AUTO 32006KT 6SM M07/M25 A3062 RMK SLP446 T10721253 52011 IEM_DS3505
ZBYN,1999-02-18 16:00,ZBYN 181600Z AUTO 29004KT 6SM M08/M27 A3059 RMK T10801270 IEM_DS3505
ZBYN,1999-02-18 17:00,ZBYN 181700Z AUTO 27002KT 6SM M09/M27 A3059 RMK T10901270 IEM_DS3505
ZBYN,1999-02-18 18:00,ZBYN 181800Z AUTO 32002KT 6SM M09/M26 A3059 RMK SLP427 T10871259 57015 IEM_DS3505
ZBYN,1999-02-18 19:00,ZBYN 181900Z AUTO 34002KT 6SM M12/M25 A3056 RMK T11201250 IEM_DS3505
ZBYN,1999-02-18 20:00,ZBYN 182000Z AUTO 14004KT 6SM M13/M25 A3053 RMK T11301250 IEM_DS3505
ZBYN,1999-02-18 21:00,ZBYN 182100Z AUTO 14004KT 6SM M12/M28 A3050 RMK SLP415 T11181275 57018 IEM_DS3505
ZBYN,1999-02-18 22:00,ZBYN 182200Z AUTO 12002KT 6SM M15/M25 A3050 RMK T11501250 IEM_DS3505
ZBYN,1999-02-18 23:00,ZBYN 182300Z AUTO 00000KT 6SM M14/M24 A3053 RMK T11401240 IEM_DS3505
ZBYN,1999-02-19 00:00,ZBYN 190000Z AUTO 14002KT 11SM M12/M26 A3053 RMK SLP428 T11241261 52007 IEM_DS3505
ZBYN,1999-02-19 01:00,ZBYN 190100Z AUTO 12004KT 6SM M10/M23 A3053 RMK T11001230 IEM_DS3505
ZBYN,1999-02-19 02:00,ZBYN 190200Z AUTO 20004KT 6SM M08/M24 A3053 RMK T10801240 IEM_DS3505
ZBYN,1999-02-19 03:00,ZBYN 190300Z AUTO 18002KT 7SM M05/M23 A3050 RMK SLP405 T10501231 57011 IEM_DS3505
ZBYN,1999-02-19 04:00,ZBYN 190400Z AUTO 18006KT 6SM M03/M24 A3047 RMK T10301240 IEM_DS3505
ZBYN,1999-02-19 05:00,ZBYN 190500Z AUTO 22006KT 6SM M01/M24 A3042 RMK T10101240 IEM_DS3505
ZBYN,1999-02-19 06:00,ZBYN 190600Z AUTO 27008KT 12SM 02/M20 A3036 RMK SLP345 T00161204 57046 IEM_DS3505
ZBYN,1999-02-19 07:00,ZBYN 190700Z AUTO 23008KT 6SM 02/M25 A3033 RMK T00201250 IEM_DS3505
ZBYN,1999-02-19 08:00,ZBYN 190800Z AUTO 29012KT 6SM 03/M27 A3030 RMK T00301270 IEM_DS3505
ZBYN,1999-02-19 09:00,ZBYN 190900Z AUTO 27014KT 12SM 03/M34 A3030 RMK SLP334 T00261336 57013 IEM_DS3505
ZBYN,1999-02-19 10:00,ZBYN 191000Z AUTO 29012KT 6SM 01/M30 A3030 RMK T00101300 IEM_DS3505
ZBYN,1999-02-19 11:00,ZBYN 191100Z AUTO 30014KT 6SM M01/M28 A3033 RMK T10101280 IEM_DS3505
ZBYN,1999-02-19 12:00,ZBYN 191200Z AUTO 29014KT 12SM M02/M32 A3036 RMK SLP354 T10161324 52009 IEM_DS3505
ZBYN,1999-02-19 13:00,ZBYN 191300Z AUTO 29006KT 6SM M02/M27 A3036 RMK T10201270 IEM_DS3505
ZBYN,1999-02-19 14:00,ZBYN 191400Z AUTO 29008KT 6SM M03/M27 A3036 RMK T10301270 IEM_DS3505
ZBYN,1999-02-19 15:00,ZBYN 191500Z AUTO 27004KT 11SM M04/M28 A3036 RMK SLP351 T10371281 52007 IEM_DS3505
ZBYN,1999-02-19 16:00,ZBYN 191600Z AUTO 22006KT 7SM M05/M24 A3036 RMK T10501240 IEM_DS3505
ZBYN,1999-02-19 17:00,ZBYN 191700Z AUTO 22004KT 6SM M06/M22 A3036 RMK T10601220 IEM_DS3505
ZBYN,1999-02-19 18:00,ZBYN 191800Z AUTO 14002KT 11SM M08/M25 RMK SLP345 T10761250 57001 IEM_DS3505
ZBYN,1999-02-19 21:00,ZBYN 192100Z AUTO 00000KT 6SM M11/M26 A3036 RMK SLP345 T11061260 57003 IEM_DS3505
ZBYN,1999-02-19 22:00,ZBYN 192200Z AUTO 11002KT 6SM M12/M25 A3036 RMK T11201250 IEM_DS3505
ZBYN,1999-02-19 23:00,ZBYN 192300Z AUTO 07004KT 6SM M13/M25 A3036 RMK T11301250 IEM_DS3505
ZBYN,1999-02-20 00:00,ZBYN 200000Z AUTO 00000KT 12SM M11/M25 A3039 RMK SLP366 T11091247 52011 IEM_DS3505
ZBYN,1999-02-20 01:00,ZBYN 200100Z AUTO 00000KT 6SM M11/M25 A3039 RMK SLP366 T11091247 52010 IEM_DS3505
ZBYN,1999-02-20 02:00,ZBYN 200200Z AUTO 19004KT 6SM M04/M22 A3039 RMK T10401220 IEM_DS3505
ZBYN,1999-02-20 03:00,ZBYN 200300Z AUTO 14008KT 9SM M01/M20 A3036 RMK SLP346 T10121197 57005 IEM_DS3505
ZBYN,1999-02-20 04:00,ZBYN 200400Z AUTO 00000KT 6SM 01/M21 A3036 RMK T00101210 IEM_DS3505
ZBYN,1999-02-20 05:00,ZBYN 200500Z AUTO 20004KT 6SM 02/M21 A3033 RMK T00201210 IEM_DS3505
ZBYN,1999-02-20 06:00,ZBYN 200600Z AUTO 18006KT 11SM 04/M24 A3027 RMK SLP311 T00441243 57029 IEM_DS3505
ZBYN,1999-02-20 07:00,ZBYN 200700Z AUTO 24004KT 6SM 04/M21 A3027 RMK T00401210 IEM_DS3505
ZBYN,1999-02-20 08:00,ZBYN 200800Z AUTO 20008KT 6SM 05/M20 A3024 RMK T00501200 IEM_DS3505
ZBYN,1999-02-20 09:00,ZBYN 200900Z AUTO 16010KT 12SM 05/M23 A3024 RMK SLP303 T00521231 57011 IEM_DS3505
ZBYN,1999-02-20 10:00,ZBYN 201000Z AUTO 20002KT 6SM 04/M19 A3024 RMK T00401190 IEM_DS3505
ZBYN,1999-02-20 11:00,ZBYN 201100Z AUTO 20002KT 6SM 02/M18 A3027 RMK T00201180 IEM_DS3505
ZBYN,1999-02-20 12:00,ZBYN 201200Z AUTO 29006KT 12SM 00/M17 A3030 RMK SLP325 T00011171 52011 IEM_DS3505
ZBYN,1999-02-20 13:00,ZBYN 201300Z AUTO 34002KT 6SM 00/M19 A3030 RMK T00001190 IEM_DS3505
ZBYN,1999-02-20 14:00,ZBYN 201400Z AUTO 05002KT 6SM M04/M19 A3033 RMK T10401190 IEM_DS3505
ZBYN,1999-02-20 15:00,ZBYN 201500Z AUTO 00000KT 11SM M01/M17 A3033 RMK SLP324 T10101173 52013 IEM_DS3505
ZBYN,1999-02-20 16:00,ZBYN 201600Z AUTO 10002KT 6SM M06/M20 A3033 RMK T10601200 IEM_DS3505
ZBYN,1999-02-20 17:00,ZBYN 201700Z AUTO 10002KT 6SM M08/M21 A3033 RMK T10801210 IEM_DS3505
ZBYN,1999-02-20 18:00,ZBYN 201800Z AUTO 00000KT 11SM M06/M20 A3033 RMK SLP328 T10651198 52004 IEM_DS3505
ZBYN,1999-02-20 19:00,ZBYN 201900Z AUTO 10004KT 6SM M10/M22 A3033 RMK T11001220 IEM_DS3505
ZBYN,1999-02-20 20:00,ZBYN 202000Z AUTO 09004KT 6SM M08/M22 A3033 RMK T10801220 IEM_DS3505
ZBYN,1999-02-20 21:00,ZBYN 202100Z AUTO 00000KT 9SM M09/M19 A3033 RMK SLP322 T10891188 57008 IEM_DS3505
ZBYN,1999-02-20 22:00,ZBYN 202200Z AUTO 10002KT 6SM M10/M22 A3033 RMK T11001220 IEM_DS3505
ZBYN,1999-02-20 23:00,ZBYN 202300Z AUTO 06002KT 6SM M10/M21 A3033 RMK T11001210 IEM_DS3505
ZBYN,1999-02-21 00:00,ZBYN 210000Z AUTO 00000KT 9SM M10/M19 A3033 RMK SLP342 T10981188 52008 IEM_DS3505
ZBYN,1999-02-21 01:00,ZBYN 210100Z AUTO 00000KT 6SM M06/M20 A3033 RMK T10601200 IEM_DS3505
ZBYN,1999-02-21 02:00,ZBYN 210200Z AUTO 00000KT 6SM M02/M20 A3033 RMK T10201200 IEM_DS3505
ZBYN,1999-02-21 03:00,ZBYN 210300Z AUTO 14002KT 6SM 02/M17 A3030 RMK SLP310 T00181168 57011 IEM_DS3505
ZBYN,1999-02-21 04:00,ZBYN 210400Z AUTO 16002KT 6SM 03/M19 A3027 RMK T00301190 IEM_DS3505
ZBYN,1999-02-21 05:00,ZBYN 210500Z AUTO 24002KT 6SM 05/M18 A3021 RMK T00501180 IEM_DS3505
ZBYN,1999-02-21 06:00,ZBYN 210600Z AUTO 14006KT 12SM 07/M18 A3015 RMK SLP265 T00661182 57042 IEM_DS3505
ZBYN,1999-02-21 07:00,ZBYN 210700Z AUTO 18004KT 6SM 07/M17 A3012 RMK T00701170 IEM_DS3505
ZBYN,1999-02-21 08:00,ZBYN 210800Z AUTO 18002KT 6SM 08/M18 A3009 RMK T00801180 IEM_DS3505
ZBYN,1999-02-21 09:00,ZBYN 210900Z AUTO 22006KT 16SM 07/M20 A3009 RMK SLP246 T00711203 57021 IEM_DS3505
ZBYN,1999-02-21 10:00,ZBYN 211000Z AUTO 26002KT 6SM 06/M19 A3009 RMK T00601190 IEM_DS3505
ZBYN,1999-02-21 11:00,ZBYN 211100Z AUTO 00000KT 6SM 03/M20 A3009 RMK T00301200 IEM_DS3505
ZBYN,1999-02-21 12:00,ZBYN 211200Z AUTO 00000KT 12SM M03/M15 A3009 RMK SLP260 T10291152 52004 IEM_DS3505
ZBYN,1999-02-21 13:00,ZBYN 211300Z AUTO 00000KT 6SM 02/M20 A3012 RMK T00201200 IEM_DS3505
ZBYN,1999-02-21 14:00,ZBYN 211400Z AUTO 10004KT 6SM M01/M21 A3012 RMK T10101210 IEM_DS3505
ZBYN,1999-02-21 15:00,ZBYN 211500Z AUTO 00000KT 9SM M00/M16 A3012 RMK SLP250 T10031161 52005 IEM_DS3505
ZBYN,1999-02-21 16:00,ZBYN 211600Z AUTO 09002KT 6SM M04/M20 A3012 RMK T10401200 IEM_DS3505
ZBYN,1999-02-21 17:00,ZBYN 211700Z AUTO 12006KT 6SM M05/M21 A3012 RMK T10501210 IEM_DS3505
ZBYN,1999-02-21 18:00,ZBYN 211800Z AUTO 00000KT 6SM M05/M18 A3012 RMK SLP246 T10481184 57003 IEM_DS3505
ZBYN,1999-02-21 19:00,ZBYN 211900Z AUTO 10002KT 6SM M05/M21 A3012 RMK T10501210 IEM_DS3505
ZBYN,1999-02-21 20:00,ZBYN 212000Z AUTO 11004KT 6SM M07/M21 A3009 RMK T10701210 IEM_DS3505
ZBYN,1999-02-21 21:00,ZBYN 212100Z AUTO 00000KT 6SM M06/M18 A3009 RMK SLP243 T10651180 57005 IEM_DS3505
ZBYN,1999-02-21 22:00,ZBYN 212200Z AUTO 13002KT 6SM M08/M22 A3009 RMK T10801220 IEM_DS3505
ZBYN,1999-02-21 23:00,ZBYN 212300Z AUTO 11002KT 6SM M09/M21 A3012 RMK T10901210 IEM_DS3505
ZBYN,1999-02-22 00:00,ZBYN 220000Z AUTO 00000KT 6SM M06/M18 A3012 RMK SLP262 T10631176 52011 IEM_DS3505
ZBYN,1999-02-22 01:00,ZBYN 220100Z AUTO 00000KT 6SM M03/M19 A3015 RMK T10301190 IEM_DS3505
ZBYN,1999-02-22 02:00,ZBYN 220200Z AUTO 00000KT 6SM 00/M18 A3012 RMK T00001180 IEM_DS3505
ZBYN,1999-02-22 03:00,ZBYN 220300Z AUTO 00000KT 5SM 04/M14 A3009 RMK SLP241 T00401135 57007 IEM_DS3505
ZBYN,1999-02-22 04:00,ZBYN 220400Z AUTO 00000KT 6SM 06/M18 A3006 RMK T00601180 IEM_DS3505
ZBYN,1999-02-22 05:00,ZBYN 220500Z AUTO 17002KT 6SM 07/M18 A3003 RMK T00701180 IEM_DS3505
ZBYN,1999-02-22 06:00,ZBYN 220600Z AUTO 00000KT 6SM 10/M13 A3000 RMK SLP206 T01001128 57030 IEM_DS3505
ZBYN,1999-02-22 07:00,ZBYN 220700Z AUTO 24002KT 6SM 10/M21 A2997 RMK T01001210 IEM_DS3505
ZBYN,1999-02-22 08:00,ZBYN 220800Z AUTO 22002KT 6SM 11/M20 A2997 RMK T01101200 IEM_DS3505
ZBYN,1999-02-22 09:00,ZBYN 220900Z AUTO 14006KT 6SM 10/M16 A3000 RMK SLP201 T01041161 57006 IEM_DS3505
ZBYN,1999-02-22 10:00,ZBYN 221000Z AUTO 07002KT 6SM 09/M19 A2997 RMK T00901190 IEM_DS3505
ZBYN,1999-02-22 12:00,ZBYN 221200Z AUTO 00000KT 6SM 05/M18 A3000 RMK SLP214 T00481182 52003 IEM_DS3505
ZBYN,1999-02-22 13:00,ZBYN 221300Z AUTO 09004KT 6SM 04/M19 A3003 RMK T00401190 IEM_DS3505
ZBYN,1999-02-22 14:00,ZBYN 221400Z AUTO 09006KT 6SM 06/M17 A3003 RMK T00601170 IEM_DS3505
ZBYN,1999-02-22 15:00,ZBYN 221500Z AUTO 09004KT 6SM 06/M17 A3000 RMK T00601170 IEM_DS3505
ZBYN,1999-02-22 16:00,ZBYN 221600Z AUTO 00000KT 6SM 04/M17 A3000 RMK T00401170 IEM_DS3505
ZBYN,1999-02-22 17:00,ZBYN 221700Z AUTO 12004KT 6SM 03/M16 A2997 RMK T00301160 IEM_DS3505
ZBYN,1999-02-22 18:00,ZBYN 221800Z AUTO 29002KT 6SM 01/M16 A2997 RMK T00101160 IEM_DS3505
ZBYN,1999-02-22 19:00,ZBYN 221900Z AUTO 00000KT 6SM 02/M14 A2994 RMK T00201140 IEM_DS3505
ZBYN,1999-02-22 20:00,ZBYN 222000Z AUTO 00000KT 6SM 01/M14 A2994 RMK T00101140 IEM_DS3505
ZBYN,1999-02-22 21:00,ZBYN 222100Z AUTO 00000KT 6SM 02/M11 A2994 RMK SLP166 T00181107 57013 IEM_DS3505
ZBYN,1999-02-22 22:00,ZBYN 222200Z AUTO 00000KT 6SM 02/M15 A2994 RMK T00201150 IEM_DS3505
ZBYN,1999-02-22 23:00,ZBYN 222300Z AUTO 00000KT 6SM M01/M15 A2994 RMK T10101150 IEM_DS3505
ZBYN,1999-02-23 00:00,ZBYN 230000Z AUTO 00000KT 4SM M02/M13 A2994 RMK SLP196 T10211133 52012 IEM_DS3505
ZBYN,1999-02-23 01:00,ZBYN 230100Z AUTO 10002KT 5SM 02/M14 A2994 RMK T00201140 IEM_DS3505
ZBYN,1999-02-23 02:00,ZBYN 230200Z AUTO 13002KT 05/M13 A2994 RMK T00501130 IEM_DS3505
ZBYN,1999-02-23 03:00,ZBYN 230300Z AUTO 14006KT 5SM 07/M18 A2991 RMK SLP165 T00701175 57016 IEM_DS3505
ZBYN,1999-02-23 04:00,ZBYN 230400Z AUTO 20004KT 5SM 08/M14 A2988 RMK T00801140 IEM_DS3505
ZBYN,1999-02-23 05:00,ZBYN 230500Z AUTO 15002KT 6SM 10/M13 A2985 RMK T01001130 IEM_DS3505
ZBYN,1999-02-23 06:00,ZBYN 230600Z AUTO 14012KT 5SM 12/M10 A2980 RMK SLP118 T01181096 57037 IEM_DS3505
ZBYN,1999-02-23 07:00,ZBYN 230700Z AUTO 20006KT 6SM 13/M12 A2977 RMK T01301120 IEM_DS3505
ZBYN,1999-02-23 08:00,ZBYN 230800Z AUTO 19006KT 6SM 13/M12 A2974 RMK T01301120 IEM_DS3505
ZBYN,1999-02-23 09:00,ZBYN 230900Z AUTO 14010KT 6SM 13/M06 A2974 RMK SLP095 T01301063 57020 IEM_DS3505
ZBYN,1999-02-23 10:00,ZBYN 231000Z AUTO 10002KT 6SM 09/M11 A2977 RMK T00901110 IEM_DS3505
ZBYN,1999-02-23 11:00,ZBYN 231100Z AUTO 13002KT 5SM 06/M11 A2977 RMK T00601110 IEM_DS3505
ZBYN,1999-02-23 12:00,ZBYN 231200Z AUTO 11008KT 6SM 07/M14 A2980 RMK SLP127 T00711138 52014 IEM_DS3505
ZBYN,1999-02-23 13:00,ZBYN 231300Z AUTO 11010KT 6SM 05/M11 A2980 RMK T00501110 IEM_DS3505
ZBYN,1999-02-23 14:00,ZBYN 231400Z AUTO 10006KT 6SM 05/M10 A2983 RMK T00501100 IEM_DS3505
ZBYN,1999-02-23 15:00,ZBYN 231500Z AUTO 22004KT 6SM 03/M10 A2983 RMK SLP138 T00281099 52018 IEM_DS3505
ZBYN,1999-02-23 16:00,ZBYN 231600Z AUTO 09002KT 6SM 02/M11 A2985 RMK T00201110 IEM_DS3505
ZBYN,1999-02-23 17:00,ZBYN 231700Z AUTO 04002KT 6SM 02/M10 A2985 RMK T00201100 IEM_DS3505
ZBYN,1999-02-23 18:00,ZBYN 231800Z AUTO 00000KT 6SM 00/M10 A2985 RMK SLP138 T00011096 52003 IEM_DS3505
ZBYN,1999-02-23 19:00,ZBYN 231900Z AUTO 10002KT 6SM M02/M11 A2983 RMK T10201110 IEM_DS3505
ZBYN,1999-02-23 20:00,ZBYN 232000Z AUTO 31004KT 6SM M02/M11 A2985 RMK T10201110 IEM_DS3505
ZBYN,1999-02-23 21:00,ZBYN 232100Z AUTO 34004KT 6SM M00/M12 A2988 RMK SLP151 T10051124 52013 IEM_DS3505
ZBYN,1999-02-23 22:00,ZBYN 232200Z AUTO 00000KT 5SM M04/M10 A2991 RMK T10401100 IEM_DS3505
ZBYN,1999-02-23 23:00,ZBYN 232300Z AUTO 10002KT 4SM M05/M11 A2994 RMK T10501110 IEM_DS3505
ZBYN,1999-02-24 00:00,ZBYN 240000Z AUTO 34004KT 4SM 01/M14 A2997 RMK SLP182 T00071136 52021 IEM_DS3505
ZBYN,1999-02-24 01:00,ZBYN 240100Z AUTO 34002KT 2SM 00/M07 A2997 RMK T00001070 IEM_DS3505
ZBYN,1999-02-24 02:00,ZBYN 240200Z AUTO 32006KT 2 1/2SM 05/M10 A3003 RMK T00501100 IEM_DS3505
ZBYN,1999-02-24 03:00,ZBYN 240300Z AUTO 36006KT 5SM 08/M15 A3006 RMK SLP211 T00821153 52031 IEM_DS3505
ZBYN,1999-02-24 04:00,ZBYN 240400Z AUTO 36014KT 6SM 10/M17 A3003 RMK T01001170 IEM_DS3505
ZBYN,1999-02-24 05:00,ZBYN 240500Z AUTO 35010KT 6SM 11/M18 A3000 RMK T01101180 IEM_DS3505
ZBYN,1999-02-24 06:00,ZBYN 240600Z AUTO 04004KT 7SM 11/M22 A3000 RMK SLP190 T01081218 57019 IEM_DS3505
ZBYN,1999-02-24 07:00,ZBYN 240700Z AUTO 36004KT 6SM 11/M19 A2997 RMK T01101190 IEM_DS3505
ZBYN,1999-02-24 08:00,ZBYN 240800Z AUTO 35002KT 6SM 11/M19 A3000 RMK T01101190 IEM_DS3505
ZBYN,1999-02-24 09:00,ZBYN 240900Z AUTO 34004KT 9SM 10/M18 A3000 RMK SLP194 T01031184 52002 IEM_DS3505
ZBYN,1999-02-24 10:00,ZBYN 241000Z AUTO 34006KT 6SM 09/M20 A3000 RMK T00901200 IEM_DS3505
ZBYN,1999-02-24 11:00,ZBYN 241100Z AUTO 34008KT 6SM 07/M21 A3003 RMK T00701210 IEM_DS3505
ZBYN,1999-02-24 12:00,ZBYN 241200Z AUTO 34004KT 9SM 05/M15 A3006 RMK SLP223 T00481153 52019 IEM_DS3505
ZBYN,1999-02-24 13:00,ZBYN 241300Z AUTO 34006KT 6SM 03/M21 A3009 RMK T00301210 IEM_DS3505
ZBYN,1999-02-24 14:00,ZBYN 241400Z AUTO 09002KT 6SM 04/M22 A3009 RMK T00401220 IEM_DS3505
ZBYN,1999-02-24 15:00,ZBYN 241500Z AUTO 32006KT 6SM 02/M19 A3009 RMK SLP228 T00191188 52012 IEM_DS3505
ZBYN,1999-02-24 16:00,ZBYN 241600Z AUTO 35006KT 6SM 03/M21 A3012 RMK T00301210 IEM_DS3505
ZBYN,1999-02-24 17:00,ZBYN 241700Z AUTO 35006KT 6SM 03/M21 A3012 RMK T00301210 IEM_DS3505
ZBYN,1999-02-24 18:00,ZBYN 241800Z AUTO 32002KT 6SM 02/M16 A3012 RMK SLP228 T00181165 52004 IEM_DS3505
ZBYN,1999-02-24 19:00,ZBYN 241900Z AUTO 30004KT 6SM 02/M19 A3012 RMK T00201190 IEM_DS3505
ZBYN,1999-02-24 20:00,ZBYN 242000Z AUTO 00000KT 6SM 02/M18 A3012 RMK T00201180 IEM_DS3505
ZBYN,1999-02-24 21:00,ZBYN 242100Z AUTO 00000KT 6SM 01/M14 A3009 RMK SLP223 T00091145 57007 IEM_DS3505
ZBYN,1999-02-24 22:00,ZBYN 242200Z AUTO 00000KT 6SM 00/M17 A3009 RMK T00001170 IEM_DS3505
ZBYN,1999-02-24 23:00,ZBYN 242300Z AUTO 34002KT 6SM 01/M16 A3009 RMK T00101160 IEM_DS3505
ZBYN,1999-02-25 00:00,ZBYN 250000Z AUTO 00000KT 6SM 02/M16 A3012 RMK SLP237 T00161156 52005 IEM_DS3505
ZBYN,1999-02-25 01:00,ZBYN 250100Z AUTO 00000KT 2 1/2SM 03/M15 A3012 RMK T00301150 IEM_DS3505
ZBYN,1999-02-25 02:00,ZBYN 250200Z AUTO 00000KT 3SM 05/M14 A3012 RMK T00501140 IEM_DS3505
ZBYN,1999-02-25 03:00,ZBYN 250300Z AUTO 00000KT 6SM 06/M16 A3009 RMK SLP226 T00641162 57007 IEM_DS3505
ZBYN,1999-02-25 04:00,ZBYN 250400Z AUTO 23002KT 6SM 08/M11 A3006 RMK T00801110 IEM_DS3505
ZBYN,1999-02-25 05:00,ZBYN 250500Z AUTO 22006KT 6SM 09/M12 A3003 RMK T00901120 IEM_DS3505
ZBYN,1999-02-25 06:00,ZBYN 250600Z AUTO 18012KT 6SM 10/M16 A3000 RMK SLP187 T00961155 57030 IEM_DS3505
ZBYN,1999-02-25 07:00,ZBYN 250700Z AUTO 22006KT 6SM 10/M12 A2997 RMK T01001120 IEM_DS3505
ZBYN,1999-02-25 08:00,ZBYN 250800Z AUTO 19004KT 6SM 10/M12 A2994 RMK T01001120 IEM_DS3505
ZBYN,1999-02-25 09:00,ZBYN 250900Z AUTO 18006KT 6SM 10/M13 A2994 RMK SLP173 T00961132 57014 IEM_DS3505
ZBYN,1999-02-25 10:00,ZBYN 251000Z AUTO 00000KT 09/M10 A2997 RMK T00901100 IEM_DS3505
ZBYN,1999-02-25 11:00,ZBYN 251100Z AUTO 24002KT 08/M10 A3000 RMK T00801100 IEM_DS3505
ZBYN,1999-02-25 12:00,ZBYN 251200Z AUTO 29006KT 6SM 09/ A3003 RMK SLP202 52026 IEM_DS3505
ZBYN,1999-02-25 13:00,ZBYN 251300Z AUTO 31016KT 6SM 08/M10 A3003 RMK T00801100 IEM_DS3505
ZBYN,1999-02-25 14:00,ZBYN 251400Z AUTO 32014KT 6SM 07/M09 A3006 RMK T00701090 IEM_DS3505
ZBYN,1999-02-25 15:00,ZBYN 251500Z AUTO 29014KT 6SM 07/M11 A3006 RMK SLP211 T00691113 52013 IEM_DS3505
ZBYN,1999-02-25 16:00,ZBYN 251600Z AUTO 32010KT 6SM 06/M09 A3009 RMK T00601090 IEM_DS3505
ZBYN,1999-02-25 17:00,ZBYN 251700Z AUTO 35008KT 6SM 07/M08 A3006 RMK T00701080 IEM_DS3505
ZBYN,1999-02-25 18:00,ZBYN 251800Z AUTO 32002KT 6SM 04/M08 A3006 RMK SLP209 T00401083 57002 IEM_DS3505
ZBYN,1999-02-25 19:00,ZBYN 251900Z AUTO 25002KT 6SM 02/M09 A3006 RMK T00201090 IEM_DS3505
ZBYN,1999-02-25 20:00,ZBYN 252000Z AUTO 09002KT 6SM 00/M10 A3006 RMK T00001100 IEM_DS3505
ZBYN,1999-02-25 21:00,ZBYN 252100Z AUTO 00000KT 6SM 02/M10 A3009 RMK SLP216 T00231104 52004 IEM_DS3505
ZBYN,1999-02-25 22:00,ZBYN 252200Z AUTO 12004KT 6SM M01/M10 A3009 RMK T10101100 IEM_DS3505
ZBYN,1999-02-25 23:00,ZBYN 252300Z AUTO 08002KT 6SM M02/M10 A3012 RMK T10201100 IEM_DS3505
ZBYN,1999-02-26 00:00,ZBYN 260000Z AUTO 00000KT 9SM M02/M09 A3015 RMK SLP247 T10171092 52020 IEM_DS3505
ZBYN,1999-02-26 01:00,ZBYN 260100Z AUTO 11004KT 6SM 03/M10 A3015 RMK T00301100 IEM_DS3505
ZBYN,1999-02-26 02:00,ZBYN 260200Z AUTO 17002KT 6SM 06/M09 A3015 RMK T00601090 IEM_DS3505
ZBYN,1999-02-26 03:00,ZBYN 260300Z AUTO 07004KT 9SM 09/M12 A3012 RMK SLP228 T00881116 57003 IEM_DS3505
ZBYN,1999-02-26 04:00,ZBYN 260400Z AUTO 00000KT 6SM 10/M11 A3012 RMK T01001110 IEM_DS3505
ZBYN,1999-02-26 05:00,ZBYN 260500Z AUTO 32004KT 6SM 11/M12 A3009 RMK T01101120 IEM_DS3505
ZBYN,1999-02-26 06:00,ZBYN 260600Z AUTO 29019KT 12SM 13/M18 A3009 RMK SLP211 T01281179 57014 IEM_DS3505
ZBYN,1999-02-26 07:00,ZBYN 260700Z AUTO 34010KT 6SM 13/M13 A3009 RMK T01301130 IEM_DS3505
ZBYN,1999-02-26 08:00,ZBYN 260800Z AUTO 35010KT 6SM 12/M14 A3009 RMK T01201140 IEM_DS3505
ZBYN,1999-02-26 09:00,ZBYN 260900Z AUTO 32014KT 12SM 12/M16 A3012 RMK SLP232 T01171159 52015 IEM_DS3505
ZBYN,1999-02-26 10:00,ZBYN 261000Z AUTO 32012KT 6SM 10/M16 A3015 RMK T01001160 IEM_DS3505
ZBYN,1999-02-26 11:00,ZBYN 261100Z AUTO 01010KT 6SM 08/M15 A3024 RMK T00801150 IEM_DS3505
ZBYN,1999-02-26 12:00,ZBYN 261200Z AUTO 02008KT 11SM 07/M19 A3027 RMK SLP300 T00701189 52048 IEM_DS3505
ZBYN,1999-02-26 13:00,ZBYN 261300Z AUTO 02012KT 6SM 05/M16 A3033 RMK T00501160 IEM_DS3505
ZBYN,1999-02-26 14:00,ZBYN 261400Z AUTO 01010KT 6SM 04/M16 A3036 RMK T00401160 IEM_DS3505
ZBYN,1999-02-26 15:00,ZBYN 261500Z AUTO 02006KT 11SM 03/M19 A3039 RMK SLP328 T00311191 52036 IEM_DS3505
ZBYN,1999-02-26 16:00,ZBYN 261600Z AUTO 34012KT 6SM 02/M16 A3042 RMK T00201160 IEM_DS3505
ZBYN,1999-02-26 18:00,ZBYN 261800Z AUTO 34014KT 9SM M00/M22 A3047 RMK SLP351 T10051217 52021 IEM_DS3505
ZBYN,1999-02-26 19:00,ZBYN 261900Z AUTO 35010KT 6SM M02/M21 A3047 RMK T10201210 IEM_DS3505
ZBYN,1999-02-26 21:00,ZBYN 262100Z AUTO 36008KT 9SM M03/M22 A3047 RMK SLP367 T10331223 52009 IEM_DS3505
ZBYN,1999-02-26 22:00,ZBYN 262200Z AUTO 36002KT 6SM M05/M22 A3050 RMK T10501220 IEM_DS3505
ZBYN,1999-02-26 23:00,ZBYN 262300Z AUTO 00000KT 6SM M07/M22 A3053 RMK T10701220 IEM_DS3505
ZBYN,1999-02-27 00:00,ZBYN 270000Z AUTO 34006KT 12SM M05/M24 A3053 RMK SLP397 T10511235 52016 IEM_DS3505
ZBYN,1999-02-27 01:00,ZBYN 270100Z AUTO 33008KT 6SM M03/M23 A3056 RMK T10301230 IEM_DS3505
ZBYN,1999-02-27 02:00,ZBYN 270200Z AUTO 34008KT 6SM M02/M24 A3053 RMK T10201240 IEM_DS3505
ZBYN,1999-02-27 03:00,ZBYN 270300Z AUTO 34006KT 9SM M00/M23 RMK SLP387 T10051229 57008 IEM_DS3505
ZBYN,1999-02-27 05:00,ZBYN 270500Z AUTO 27002KT 6SM 02/M21 A3047 RMK T00201210 IEM_DS3505
ZBYN,1999-02-27 06:00,ZBYN 270600Z AUTO 16006KT 7SM 04/M16 A3042 RMK SLP348 T00361156 57034 IEM_DS3505
ZBYN,1999-02-27 07:00,ZBYN 270700Z AUTO 16004KT 6SM 04/M19 A3039 RMK T00401190 IEM_DS3505
ZBYN,1999-02-27 08:00,ZBYN 270800Z AUTO 19004KT 6SM 05/M20 A3036 RMK T00501200 IEM_DS3505
ZBYN,1999-02-27 09:00,ZBYN 270900Z AUTO 18012KT 9SM 05/M14 A3036 RMK SLP322 T00521145 57026 IEM_DS3505
ZBYN,1999-02-27 10:00,ZBYN 271000Z AUTO 21002KT 6SM 04/M20 A3036 RMK T00401200 IEM_DS3505
ZBYN,1999-02-27 11:00,ZBYN 271100Z AUTO 10002KT 6SM 00/M16 A3033 RMK T00001160 IEM_DS3505
ZBYN,1999-02-27 12:00,ZBYN 271200Z AUTO 14002KT 9SM 00/M18 A3036 RMK SLP337 T00041176 52003 IEM_DS3505
ZBYN,1999-02-27 13:00,ZBYN 271300Z AUTO 11002KT 6SM M03/M20 A3036 RMK T10301200 IEM_DS3505
ZBYN,1999-02-27 14:00,ZBYN 271400Z AUTO 11002KT 6SM M03/M20 A3036 RMK T10301200 IEM_DS3505
ZBYN,1999-02-27 15:00,ZBYN 271500Z AUTO 11002KT 6SM M03/M19 A3036 RMK SLP339 T10321188 52003 IEM_DS3505
ZBYN,1999-02-27 16:00,ZBYN 271600Z AUTO 00000KT 6SM M03/M19 A3033 RMK T10301190 IEM_DS3505
ZBYN,1999-02-27 17:00,ZBYN 271700Z AUTO 09002KT 6SM M05/M16 A3033 RMK T10501160 IEM_DS3505
ZBYN,1999-02-27 18:00,ZBYN 271800Z AUTO 09004KT 6SM M04/M18 A3030 RMK SLP313 T10371183 57017 IEM_DS3505
ZBYN,1999-02-27 19:00,ZBYN 271900Z AUTO 11002KT 6SM M05/M22 A3027 RMK T10501220 IEM_DS3505
ZBYN,1999-02-27 21:00,ZBYN 272100Z AUTO 14002KT 6SM M06/M18 A3024 RMK SLP297 T10571180 57015 IEM_DS3505
ZBYN,1999-02-27 22:00,ZBYN 272200Z AUTO 12002KT 6SM M05/M21 A3024 RMK T10501210 IEM_DS3505
ZBYN,1999-02-27 23:00,ZBYN 272300Z AUTO 00000KT 6SM M06/M21 A3024 RMK T10601210 IEM_DS3505
ZBYN,1999-02-28 00:00,ZBYN 280000Z AUTO 00000KT 6SM M04/M17 A3024 RMK SLP299 T10401172 57004 IEM_DS3505
ZBYN,1999-02-28 01:00,ZBYN 280100Z AUTO 10002KT 6SM 00/M22 A3021 RMK T00001220 IEM_DS3505
ZBYN,1999-02-28 02:00,ZBYN 280200Z AUTO 20002KT 6SM 01/M20 A3018 RMK T00101200 IEM_DS3505
ZBYN,1999-02-28 03:00,ZBYN 280300Z AUTO 14004KT 5SM 04/M20 A3015 RMK SLP262 T00361199 57027 IEM_DS3505
ZBYN,1999-02-28 04:00,ZBYN 280400Z AUTO 21004KT 6SM 05/M20 A3012 RMK T00501200 IEM_DS3505
ZBYN,1999-02-28 05:00,ZBYN 280500Z AUTO 23006KT 6SM 07/M17 A3006 RMK T00701170 IEM_DS3505
ZBYN,1999-02-28 06:00,ZBYN 280600Z AUTO 18012KT 6SM 10/M23 A3000 RMK SLP200 T01011230 57046 IEM_DS3505
ZBYN,1999-02-28 07:00,ZBYN 280700Z AUTO 20002KT 6SM 10/M15 A2997 RMK T01001150 IEM_DS3505
ZBYN,1999-02-28 08:00,ZBYN 280800Z AUTO 19002KT 6SM 12/M12 A2991 RMK T01201120 IEM_DS3505
ZBYN,1999-02-28 09:00,ZBYN 280900Z AUTO 29010KT 9SM 13/M18 A2991 RMK SLP170 T01291182 57026 IEM_DS3505
ZBYN,1999-02-28 10:00,ZBYN 281000Z AUTO 29008KT 6SM 11/M14 A2991 RMK T01101140 IEM_DS3505
ZBYN,1999-02-28 11:00,ZBYN 281100Z AUTO 29014KT 7SM 10/M14 A2991 RMK T01001140 IEM_DS3505
ZBYN,1999-02-28 12:00,ZBYN 281200Z AUTO 00000KT 9SM 07/M14 A2994 RMK SLP181 T00721137 52003 IEM_DS3505
ZBYN,1999-02-28 13:00,ZBYN 281300Z AUTO 22002KT 6SM 06/M11 A2994 RMK T00601110 IEM_DS3505
ZBYN,1999-02-28 14:00,ZBYN 281400Z AUTO 23006KT 6SM 06/M10 A2994 RMK T00601100 IEM_DS3505
ZBYN,1999-02-28 15:00,ZBYN 281500Z AUTO 20006KT 7SM 06/M14 A2991 RMK SLP164 T00571135 57005 IEM_DS3505
ZBYN,1999-02-28 16:00,ZBYN 281600Z AUTO 23004KT 6SM 06/M11 A2991 RMK T00601110 IEM_DS3505
ZBYN,1999-02-28 17:00,ZBYN 281700Z AUTO 25006KT 6SM 05/M11 A2991 RMK T00501110 IEM_DS3505
ZBYN,1999-02-28 18:00,ZBYN 281800Z AUTO 22002KT 6SM 03/M10 A2994 RMK SLP163 T00331105 52005 IEM_DS3505
ZBYN,1999-02-28 19:00,ZBYN 281900Z AUTO 26004KT 6SM 05/M12 A2997 RMK T00501120 IEM_DS3505
ZBYN,1999-02-28 20:00,ZBYN 282000Z AUTO 29010KT 6SM 06/M13 A2997 RMK T00601130 IEM_DS3505
ZBYN,1999-02-28 21:00,ZBYN 282100Z AUTO 27006KT 6SM 06/M15 A2997 RMK SLP167 T00581147 52012 IEM_DS3505
ZBYN,1999-02-28 22:00,ZBYN 282200Z AUTO 09002KT 6SM 02/M12 A3000 RMK T00201120 IEM_DS3505
ZBYN,1999-02-28 23:00,ZBYN 282300Z AUTO 15002KT 6SM M01/M14 A3000 RMK T10101140 IEM_DS3505
ZBYN,1999-03-01 00:00,ZBYN 010000Z AUTO 00000KT 6SM 03/M15 A3003 RMK SLP208 T00271149 52024 IEM_DS3505
ZBYN,1999-03-01 01:00,ZBYN 010100Z AUTO 27006KT 6SM 06/M11 A3006 RMK T00601110 IEM_DS3505
ZBYN,1999-03-01 02:00,ZBYN 010200Z AUTO 29010KT 6SM 08/M15 A3006 RMK T00801150 IEM_DS3505
ZBYN,1999-03-01 03:00,ZBYN 010300Z AUTO 32006KT 12SM 10/M14 A3006 RMK SLP208 T00961140 52008 IEM_DS3505
ZBYN,1999-03-01 04:00,ZBYN 010400Z AUTO 23008KT 6SM 10/M15 A3003 RMK T01001150 IEM_DS3505
ZBYN,1999-03-01 05:00,ZBYN 010500Z AUTO 31012KT 6SM 12/M16 A3000 RMK T01201160 IEM_DS3505
ZBYN,1999-03-01 06:00,ZBYN 010600Z AUTO 22008KT 12SM 13/M18 A2997 RMK SLP178 T01281178 57026 IEM_DS3505
ZBYN,1999-03-01 07:00,ZBYN 010700Z AUTO 19004KT 6SM 13/M14 A2994 RMK T01301140 IEM_DS3505
ZBYN,1999-03-01 08:00,ZBYN 010800Z AUTO 22004KT 6SM 13/M14 A2994 RMK T01301140 IEM_DS3505
ZBYN,1999-03-01 09:00,ZBYN 010900Z AUTO 14006KT 12SM 13/M18 A2991 RMK SLP157 T01281177 57015 IEM_DS3505
ZBYN,1999-03-01 10:00,ZBYN 011000Z AUTO 20002KT 6SM 12/M15 A2991 RMK T01201150 IEM_DS3505
ZBYN,1999-03-01 11:00,ZBYN 011100Z AUTO 00000KT 6SM 08/M13 A2994 RMK T00801130 IEM_DS3505
ZBYN,1999-03-01 12:00,ZBYN 011200Z AUTO 00000KT 9SM 07/M09 A2997 RMK SLP182 T00661087 52008 IEM_DS3505
ZBYN,1999-03-01 13:00,ZBYN 011300Z AUTO 00000KT 6SM 03/M16 A2997 RMK T00301160 IEM_DS3505
ZBYN,1999-03-01 14:00,ZBYN 011400Z AUTO 14002KT 6SM 04/M16 A3000 RMK T00401160 IEM_DS3505
ZBYN,1999-03-01 15:00,ZBYN 011500Z AUTO 32002KT 6SM 04/M12 RMK SLP185 T00371120 52009 IEM_DS3505
ZBYN,1999-03-01 16:00,ZBYN 011600Z AUTO 11002KT 6SM M01/M15 A2997 RMK T10101150 IEM_DS3505
ZBYN,1999-03-01 17:00,ZBYN 011700Z AUTO 10002KT 6SM M02/M16 A2997 RMK T10201160 IEM_DS3505
ZBYN,1999-03-01 18:00,ZBYN 011800Z AUTO 00000KT 6SM M01/M15 A2997 RMK SLP184 T10101148 57003 IEM_DS3505
ZBYN,1999-03-01 19:00,ZBYN 011900Z AUTO 05002KT 6SM M01/M15 A2997 RMK T10101150 IEM_DS3505
ZBYN,1999-03-01 21:00,ZBYN 012100Z AUTO 00000KT 6SM M02/M14 A2997 RMK SLP178 T10171137 57007 IEM_DS3505
ZBYN,1999-03-01 22:00,ZBYN 012200Z AUTO 12004KT 6SM M05/M14 A2997 RMK T10501140 IEM_DS3505
ZBYN,1999-03-01 23:00,ZBYN 012300Z AUTO 09002KT 6SM M04/M16 A2997 RMK T10401160 IEM_DS3505
ZBYN,1999-03-02 00:00,ZBYN 020000Z AUTO 09002KT 6SM M03/M13 A3000 RMK SLP200 T10341133 52008 IEM_DS3505
ZBYN,1999-03-02 01:00,ZBYN 020100Z AUTO 12002KT 6SM 01/M16 A3000 RMK T00101160 IEM_DS3505
ZBYN,1999-03-02 02:00,ZBYN 020200Z AUTO 17002KT 6SM 05/M13 A3000 RMK T00501130 IEM_DS3505
ZBYN,1999-03-02 03:00,ZBYN 020300Z AUTO 14004KT 6SM 09/M13 A3000 RMK SLP193 T00901129 52008 IEM_DS3505
ZBYN,1999-03-02 04:00,ZBYN 020400Z AUTO 23004KT 6SM 10/M13 A2997 RMK T01001130 IEM_DS3505
ZBYN,1999-03-02 05:00,ZBYN 020500Z AUTO 22008KT 6SM 13/M13 A2997 RMK T01301130 IEM_DS3505
ZBYN,1999-03-02 06:00,ZBYN 020600Z AUTO 21002KT 6SM 14/M13 A2994 RMK T01401130 IEM_DS3505
ZBYN,1999-03-02 07:00,ZBYN 020700Z AUTO 33017KT 6SM 16/M24 A2991 RMK T01601240 IEM_DS3505
ZBYN,1999-03-02 08:00,ZBYN 020800Z AUTO 31017KT 6SM 16/M21 A2994 RMK T01601210 IEM_DS3505
ZBYN,1999-03-02 09:00,ZBYN 020900Z AUTO 32010KT 12SM 15/M22 A2994 RMK SLP173 T01471220 52003 IEM_DS3505
ZBYN,1999-03-02 10:00,ZBYN 021000Z AUTO 31014KT 6SM 13/M20 A2994 RMK T01301200 IEM_DS3505
ZBYN,1999-03-02 11:00,ZBYN 021100Z AUTO 33008KT 6SM 10/M22 A2997 RMK T01001220 IEM_DS3505
ZBYN,1999-03-02 12:00,ZBYN 021200Z AUTO 32006KT 6SM 08/M22 A3000 RMK T00801220 IEM_DS3505
ZBYN,1999-03-02 13:00,ZBYN 021300Z AUTO 02002KT 6SM 06/M20 A3003 RMK T00601200 IEM_DS3505
ZBYN,1999-03-02 14:00,ZBYN 021400Z AUTO 00000KT 6SM 05/M21 A3003 RMK T00501210 IEM_DS3505
ZBYN,1999-03-02 15:00,ZBYN 021500Z AUTO 00000KT 11SM 02/M14 A3003 RMK SLP197 T00201138 52004 IEM_DS3505
ZBYN,1999-03-02 16:00,ZBYN 021600Z AUTO 08004KT 6SM 01/M19 A3003 RMK T00101190 IEM_DS3505
ZBYN,1999-03-02 17:00,ZBYN 021700Z AUTO 12004KT 6SM 00/M21 A3000 RMK T00001210 IEM_DS3505
ZBYN,1999-03-02 18:00,ZBYN 021800Z AUTO 00000KT 11SM 00/M16 A3000 RMK SLP179 T00051155 57010 IEM_DS3505
ZBYN,1999-03-02 19:00,ZBYN 021900Z AUTO 12002KT 6SM M04/M16 A2997 RMK T10401160 IEM_DS3505
ZBYN,1999-03-02 20:00,ZBYN 022000Z AUTO 09002KT 6SM M02/M16 A2997 RMK T10201160 IEM_DS3505
ZBYN,1999-03-02 21:00,ZBYN 022100Z AUTO 34002KT 11SM M02/M15 A2997 RMK SLP176 T10151146 57005 IEM_DS3505
ZBYN,1999-03-02 22:00,ZBYN 022200Z AUTO 00000KT 6SM M03/M16 A2994 RMK T10301160 IEM_DS3505
ZBYN,1999-03-02 23:00,ZBYN 022300Z AUTO 11002KT 6SM M04/M16 A2994 RMK T10401160 IEM_DS3505
ZBYN,1999-03-03 00:00,ZBYN 030000Z AUTO 00000KT 5SM M02/M14 A2994 RMK SLP185 T10211145 57004 IEM_DS3505
ZBYN,1999-03-03 01:00,ZBYN 030100Z AUTO 00000KT 6SM 02/M16 A2994 RMK T00201160 IEM_DS3505
ZBYN,1999-03-03 02:00,ZBYN 030200Z AUTO 00000KT 6SM 05/M16 A2991 RMK T00501160 IEM_DS3505
ZBYN,1999-03-03 03:00,ZBYN 030300Z AUTO 14002KT 5SM 10/M18 A2991 RMK SLP164 T00961181 57010 IEM_DS3505
ZBYN,1999-03-03 04:00,ZBYN 030400Z AUTO 17002KT 6SM 11/M13 A2985 RMK T01101130 IEM_DS3505
ZBYN,1999-03-03 05:00,ZBYN 030500Z AUTO 23006KT 6SM 14/M13 A2980 RMK T01401130 IEM_DS3505
ZBYN,1999-03-03 06:00,ZBYN 030600Z AUTO 14012KT 6SM 16/M16 A2977 RMK SLP099 T01581159 57052 IEM_DS3505
ZBYN,1999-03-03 07:00,ZBYN 030700Z AUTO 26004KT 6SM 16/M11 A2971 RMK T01601110 IEM_DS3505
ZBYN,1999-03-03 08:00,ZBYN 030800Z AUTO 18004KT 6SM 17/M09 A2968 RMK T01701090 IEM_DS3505
ZBYN,1999-03-03 09:00,ZBYN 030900Z AUTO 22002KT 6SM 18/M08 A2965 RMK T01801080 IEM_DS3505
ZBYN,1999-03-03 10:00,ZBYN 031000Z AUTO 12002KT 6SM 16/M09 A2962 RMK T01601090 IEM_DS3505
ZBYN,1999-03-03 11:00,ZBYN 031100Z AUTO 00000KT 6SM 14/M09 A2962 RMK T01401090 IEM_DS3505
ZBYN,1999-03-03 12:00,ZBYN 031200Z AUTO 22012KT 6SM 16/M12 A2965 RMK SLP068 T01571121 52001 IEM_DS3505
ZBYN,1999-03-03 13:00,ZBYN 031300Z AUTO 24002KT 6SM 12/M09 A2965 RMK T01201090 IEM_DS3505
ZBYN,1999-03-03 14:00,ZBYN 031400Z AUTO 15006KT 6SM 09/M07 A2965 RMK T00901070 IEM_DS3505
ZBYN,1999-03-03 15:00,ZBYN 031500Z AUTO 11010KT 6SM 11/M10 A2965 RMK SLP054 T01121105 57002 IEM_DS3505
ZBYN,1999-03-03 16:00,ZBYN 031600Z AUTO 11008KT 6SM 09/M11 A2962 RMK T00901110 IEM_DS3505
ZBYN,1999-03-03 17:00,ZBYN 031700Z AUTO 15008KT 6SM 10/M09 A2959 RMK T01001090 IEM_DS3505
ZBYN,1999-03-03 18:00,ZBYN 031800Z AUTO 14006KT 6SM 08/M10 A2959 RMK SLP033 T00751097 57015 IEM_DS3505
ZBYN,1999-03-03 19:00,ZBYN 031900Z AUTO 12008KT 6SM 08/M05 A2956 RMK T00801050 IEM_DS3505
ZBYN,1999-03-03 20:00,ZBYN 032000Z AUTO 11006KT 6SM 07/M05 A2956 RMK T00701050 IEM_DS3505
ZBYN,1999-03-03 21:00,ZBYN 032100Z AUTO 14006KT 6SM 07/M05 A2956 RMK SLP022 T00711054 57008 IEM_DS3505
ZBYN,1999-03-03 22:00,ZBYN 032200Z AUTO 12006KT 6SM 05/M07 A2956 RMK T00501070 IEM_DS3505
ZBYN,1999-03-03 23:00,ZBYN 032300Z AUTO 10002KT 6SM 06/M07 A2956 RMK T00601070 IEM_DS3505
ZBYN,1999-03-04 00:00,ZBYN 040000Z AUTO 34002KT 4SM 06/M06 A2956 RMK SLP032 T00561055 52004 IEM_DS3505
ZBYN,1999-03-04 01:00,ZBYN 040100Z AUTO 00000KT 09/M05 A2956 RMK T00901050 IEM_DS3505
ZBYN,1999-03-04 02:00,ZBYN 040200Z AUTO 00000KT 11/M04 A2956 RMK T01101040 IEM_DS3505
ZBYN,1999-03-04 03:00,ZBYN 040300Z AUTO 14004KT 2SM 13/M04 A2953 RMK SLP023 T01311042 57004 IEM_DS3505
ZBYN,1999-03-04 04:00,ZBYN 040400Z AUTO 00000KT 6SM 14/M03 A2950 RMK T01401030 IEM_DS3505
ZBYN,1999-03-04 05:00,ZBYN 040500Z AUTO 04002KT 6SM 15/M04 A2947 RMK T01501040 IEM_DS3505
ZBYN,1999-03-04 06:00,ZBYN 040600Z AUTO 14004KT 5SM 16/M04 A2950 RMK SLP005 T01631035 57017 IEM_DS3505
ZBYN,1999-03-04 07:00,ZBYN 040700Z AUTO 32004KT 6SM 17/M06 A2950 RMK T01701060 IEM_DS3505
ZBYN,1999-03-04 08:00,ZBYN 040800Z AUTO 34016KT 6SM 18/M10 A2953 RMK T01801100 IEM_DS3505
ZBYN,1999-03-04 09:00,ZBYN 040900Z AUTO 34025KT 7SM 17/M09 A2959 RMK SLP039 T01701087 52031 IEM_DS3505
ZBYN,1999-03-04 10:00,ZBYN 041000Z AUTO 30017KT 6SM 15/M09 A2965 RMK T01501090 IEM_DS3505
ZBYN,1999-03-04 11:00,ZBYN 041100Z AUTO 32016KT 6SM 13/M10 A2968 RMK T01301100 IEM_DS3505
ZBYN,1999-03-04 12:00,ZBYN 041200Z AUTO 32019KT 6SM 11/M12 A2974 RMK SLP095 T01121118 52040 IEM_DS3505
ZBYN,1999-03-04 13:00,ZBYN 041300Z AUTO 30010KT 6SM 10/M09 A2980 RMK T01001090 IEM_DS3505
ZBYN,1999-03-04 14:00,ZBYN 041400Z AUTO 28019KT 10/M15 A2983 RMK T01001150 IEM_DS3505
ZBYN,1999-03-04 15:00,ZBYN 041500Z AUTO 34012KT 5SM 08/M21 A2985 RMK SLP128 T00851206 52038 IEM_DS3505
ZBYN,1999-03-04 16:00,ZBYN 041600Z AUTO 31012KT 07/M20 A2988 RMK T00701200 IEM_DS3505
ZBYN,1999-03-04 17:00,ZBYN 041700Z AUTO 30010KT 06/M17 A2991 RMK T00601170 IEM_DS3505
ZBYN,1999-03-04 18:00,ZBYN 041800Z AUTO 29006KT 5SM 06/M16 A2991 RMK SLP144 T00561160 52015 IEM_DS3505
ZBYN,1999-03-04 19:00,ZBYN 041900Z AUTO 33006KT 06/M18 A2988 RMK T00601180 IEM_DS3505
ZBYN,1999-03-04 20:00,ZBYN 042000Z AUTO 31010KT 04/M16 A2988 RMK T00401160 IEM_DS3505
ZBYN,1999-03-04 21:00,ZBYN 042100Z AUTO 32008KT 5SM 04/M14 A2988 RMK SLP136 T00351143 57010 IEM_DS3505
ZBYN,1999-03-04 22:00,ZBYN 042200Z AUTO 34008KT 04/M15 A2988 RMK T00401150 IEM_DS3505
ZBYN,1999-03-04 23:00,ZBYN 042300Z AUTO 00000KT 4SM 02/M14 A2991 RMK T00201140 IEM_DS3505
ZBYN,1999-03-05 00:00,ZBYN 050000Z AUTO 32002KT 4SM 03/M11 A2994 RMK SLP163 T00321107 52016 IEM_DS3505
ZBYN,1999-03-05 01:00,ZBYN 050100Z AUTO 09002KT 3SM 04/M14 A2994 RMK T00401140 IEM_DS3505
ZBYN,1999-03-05 02:00,ZBYN 050200Z AUTO 04002KT 3SM 05/M14 A2997 RMK T00501140 IEM_DS3505
ZBYN,1999-03-05 03:00,ZBYN 050300Z AUTO 00000KT 4SM 06/M12 A2991 RMK SLP163 T00611119 54000 IEM_DS3505
ZBYN,1999-03-05 04:00,ZBYN 050400Z AUTO 00000KT 5SM 07/M16 A2988 RMK T00701160 IEM_DS3505
ZBYN,1999-03-05 06:00,ZBYN 050600Z AUTO 14006KT 5SM 08/M16 A2983 RMK SLP125 T00851165 57035 IEM_DS3505
ZBYN,1999-03-05 07:00,ZBYN 050700Z AUTO 00000KT 5SM 08/M18 A2980 RMK T00801180 IEM_DS3505
ZBYN,1999-03-05 08:00,ZBYN 050800Z AUTO 22004KT 5SM 09/M18 A2980 RMK T00901180 IEM_DS3505
ZBYN,1999-03-05 09:00,ZBYN 050900Z AUTO 14008KT 5SM 09/M15 A2977 RMK SLP112 T00881147 57015 IEM_DS3505
ZBYN,1999-03-05 10:00,ZBYN 051000Z AUTO 16002KT 5SM 09/M15 A2980 RMK T00901150 IEM_DS3505
ZBYN,1999-03-05 11:00,ZBYN 051100Z AUTO 13002KT 6SM 07/M13 A2980 RMK T00701130 IEM_DS3505
ZBYN,1999-03-05 12:00,ZBYN 051200Z AUTO 14002KT 6SM 06/M08 A2983 RMK SLP133 T00571075 52014 IEM_DS3505
ZBYN,1999-03-05 13:00,ZBYN 051300Z AUTO 09014KT 6SM 05/M11 A2983 RMK T00501110 IEM_DS3505
ZBYN,1999-03-05 14:00,ZBYN 051400Z AUTO 08014KT 6SM 05/M11 A2985 RMK T00501110 IEM_DS3505
ZBYN,1999-03-05 15:00,ZBYN 051500Z AUTO 22002KT 6SM 05/M13 A2985 RMK SLP145 T00491128 52014 IEM_DS3505
ZBYN,1999-03-05 16:00,ZBYN 051600Z AUTO 09012KT 6SM 03/M11 A2985 RMK T00301110 IEM_DS3505
ZBYN,1999-03-05 17:00,ZBYN 051700Z AUTO 10008KT 6SM 03/M11 A2985 RMK T00301110 IEM_DS3505
ZBYN,1999-03-05 18:00,ZBYN 051800Z AUTO 22004KT 6SM 02/M10 A2985 RMK SLP140 T00241096 57005 IEM_DS3505
ZBYN,1999-03-05 19:00,ZBYN 051900Z AUTO 13002KT 6SM 01/M10 A2983 RMK T00101100 IEM_DS3505
ZBYN,1999-03-05 20:00,ZBYN 052000Z AUTO 10004KT 6SM 01/M10 A2983 RMK T00101100 IEM_DS3505
ZBYN,1999-03-05 21:00,ZBYN 052100Z AUTO 27002KT 6SM 01/M08 A2983 RMK SLP140 T00081080 57002 IEM_DS3505
ZBYN,1999-03-05 22:00,ZBYN 052200Z AUTO 09002KT 6SM 01/M10 A2983 RMK T00101100 IEM_DS3505
ZBYN,1999-03-05 23:00,ZBYN 052300Z AUTO 00000KT 6SM 00/M10 A2985 RMK T00001100 IEM_DS3505
ZBYN,1999-03-06 00:00,ZBYN 060000Z AUTO 00000KT 4SM M00/M08 A2988 RMK SLP158 T10041082 52010 IEM_DS3505
ZBYN,1999-03-06 01:00,ZBYN 060100Z AUTO 16002KT 3SM 02/M09 A2988 RMK T00201090 IEM_DS3505
ZBYN,1999-03-06 02:00,ZBYN 060200Z AUTO 00000KT 04/M09 A2985 RMK T00401090 IEM_DS3505
ZBYN,1999-03-06 03:00,ZBYN 060300Z AUTO 18006KT 5SM 08/M11 A2985 RMK SLP141 T00801110 57003 IEM_DS3505
ZBYN,1999-03-06 04:00,ZBYN 060400Z AUTO 32006KT 5SM 10/M14 A2985 RMK T01001140 IEM_DS3505
ZBYN,1999-03-06 06:00,ZBYN 060600Z AUTO 02006KT 5SM 09/M16 A2983 RMK SLP138 T00901160 57007 IEM_DS3505
ZBYN,1999-03-06 07:00,ZBYN 060700Z AUTO 03008KT 6SM 08/M18 A2985 RMK T00801180 IEM_DS3505
ZBYN,1999-03-06 08:00,ZBYN 060800Z AUTO 01008KT 6SM 08/M20 A2988 RMK T00801200 IEM_DS3505
ZBYN,1999-03-06 09:00,ZBYN 060900Z AUTO 02014KT 5SM 08/M26 A2988 RMK SLP161 T00751263 52017 IEM_DS3505
ZBYN,1999-03-06 10:00,ZBYN 061000Z AUTO 02012KT 6SM 07/M23 A2991 RMK T00701230 IEM_DS3505
ZBYN,1999-03-06 11:00,ZBYN 061100Z AUTO 35008KT 6SM 06/M25 A2994 RMK T00601250 IEM_DS3505
ZBYN,1999-03-06 12:00,ZBYN 061200Z AUTO 36010KT 4SM 05/M31 A3000 RMK SLP203 T00501311 52033 IEM_DS3505
ZBYN,1999-03-06 13:00,ZBYN 061300Z AUTO 34010KT 6SM 04/M25 A3000 RMK T00401250 IEM_DS3505
ZBYN,1999-03-06 14:00,ZBYN 061400Z AUTO 34010KT 6SM 03/M25 A3003 RMK T00301250 IEM_DS3505
ZBYN,1999-03-06 15:00,ZBYN 061500Z AUTO 34008KT 7SM 03/M29 A3006 RMK SLP211 T00261293 52017 IEM_DS3505
ZBYN,1999-03-06 16:00,ZBYN 061600Z AUTO 02004KT 6SM 00/M20 A3006 RMK T00001200 IEM_DS3505
ZBYN,1999-03-06 17:00,ZBYN 061700Z AUTO 35004KT 6SM 00/M18 A3006 RMK T00001180 IEM_DS3505
ZBYN,1999-03-06 18:00,ZBYN 061800Z AUTO 32004KT 7SM M01/M22 A3006 RMK SLP224 T10091217 52006 IEM_DS3505
ZBYN,1999-03-06 19:00,ZBYN 061900Z AUTO 06004KT 6SM 00/M13 A3003 RMK T00001130 IEM_DS3505
ZBYN,1999-03-06 21:00,ZBYN 062100Z AUTO 32002KT 7SM M03/M19 A3003 RMK SLP219 T10291187 57009 IEM_DS3505
ZBYN,1999-03-06 22:00,ZBYN 062200Z AUTO 05004KT 6SM M01/M13 A3003 RMK T10101130 IEM_DS3505
ZBYN,1999-03-06 23:00,ZBYN 062300Z AUTO 07008KT 6SM M02/M13 A3003 RMK T10201130 IEM_DS3505
ZBYN,1999-03-07 00:00,ZBYN 070000Z AUTO 32002KT 6SM M03/M16 A3006 RMK SLP231 T10311160 52007 IEM_DS3505
ZBYN,1999-03-07 01:00,ZBYN 070100Z AUTO 06012KT 6SM M01/M11 A3006 RMK T10101110 IEM_DS3505
ZBYN,1999-03-07 02:00,ZBYN 070200Z AUTO 06010KT 6SM 01/M12 A3006 RMK T00101120 IEM_DS3505
ZBYN,1999-03-07 03:00,ZBYN 070300Z AUTO 11002KT 6SM 02/M12 A3003 RMK SLP213 T00241122 57012 IEM_DS3505
ZBYN,1999-03-07 04:00,ZBYN 070400Z AUTO 18002KT 6SM 03/M13 A3000 RMK T00301130 IEM_DS3505
ZBYN,1999-03-07 06:00,ZBYN 070600Z AUTO 16014KT 6SM 06/M14 A2988 RMK SLP158 T00561137 57050 IEM_DS3505
ZBYN,1999-03-07 07:00,ZBYN 070700Z AUTO 00000KT 6SM 06/M12 A2983 RMK T00601120 IEM_DS3505
ZBYN,1999-03-07 08:00,ZBYN 070800Z AUTO 14008KT 6SM 07/M11 A2977 RMK T00701110 IEM_DS3505
ZBYN,1999-03-07 09:00,ZBYN 070900Z AUTO 11010KT 6SM 07/M13 A2977 RMK SLP127 T00691130 57029 IEM_DS3505
ZBYN,1999-03-07 10:00,ZBYN 071000Z AUTO 08016KT 6SM 05/M20 A2980 RMK T00501200 IEM_DS3505
ZBYN,1999-03-07 11:00,ZBYN 071100Z AUTO 08016KT 6SM 03/M18 A2983 RMK T00301180 IEM_DS3505
ZBYN,1999-03-07 12:00,ZBYN 071200Z AUTO 09014KT 6SM 03/M14 A2985 RMK SLP162 T00261142 52024 IEM_DS3505
ZBYN,1999-03-07 13:00,ZBYN 071300Z AUTO 08016KT 6SM 01/M15 A2985 RMK T00101150 IEM_DS3505
ZBYN,1999-03-07 14:00,ZBYN 071400Z AUTO 08012KT 6SM 01/M14 A2985 RMK T00101140 IEM_DS3505
ZBYN,1999-03-07 15:00,ZBYN 071500Z AUTO 11006KT 6SM 02/M10 A2985 RMK SLP158 T00171102 52004 IEM_DS3505
ZBYN,1999-03-07 16:00,ZBYN 071600Z AUTO 10010KT 6SM 01/M14 A2985 RMK T00101140 IEM_DS3505
ZBYN,1999-03-07 17:00,ZBYN 071700Z AUTO 12004KT 6SM 00/M14 A2985 RMK T00001140 IEM_DS3505
ZBYN,1999-03-07 18:00,ZBYN 071800Z AUTO 14008KT 6SM M00/M14 A2983 RMK SLP142 T10031138 57013 IEM_DS3505
ZBYN,1999-03-07 19:00,ZBYN 071900Z AUTO 12004KT 6SM M01/M12 A2980 RMK T10101120 IEM_DS3505
ZBYN,1999-03-07 20:00,ZBYN 072000Z AUTO 12008KT 6SM M02/M13 A2980 RMK T10201130 IEM_DS3505
ZBYN,1999-03-07 21:00,ZBYN 072100Z AUTO 00000KT 6SM M02/M12 A2980 RMK SLP139 T10251122 57004 IEM_DS3505
ZBYN,1999-03-07 22:00,ZBYN 072200Z AUTO 00000KT 6SM M03/M12 A2983 RMK T10301120 IEM_DS3505
ZBYN,1999-03-07 23:00,ZBYN 072300Z AUTO 32002KT 6SM M04/M13 A2985 RMK T10401130 IEM_DS3505
ZBYN,1999-03-08 00:00,ZBYN 080000Z AUTO 29002KT 6SM M03/M12 A2988 RMK SLP168 T10261119 52019 IEM_DS3505
ZBYN,1999-03-08 01:00,ZBYN 080100Z AUTO 00000KT 6SM 01/M11 A2991 RMK T00101110 IEM_DS3505
ZBYN,1999-03-08 02:00,ZBYN 080200Z AUTO 29010KT 6SM 05/M11 A2991 RMK T00501110 IEM_DS3505
ZBYN,1999-03-08 03:00,ZBYN 080300Z AUTO 29019KT 12SM 05/M17 A2991 RMK SLP165 T00541166 52009 IEM_DS3505
ZBYN,1999-03-08 04:00,ZBYN 080400Z AUTO 31010KT 6SM 07/M13 A2988 RMK T00701130 IEM_DS3505
ZBYN,1999-03-08 05:00,ZBYN 080500Z AUTO 20010KT 6SM 07/M11 A2988 RMK T00701110 IEM_DS3505
ZBYN,1999-03-08 06:00,ZBYN 080600Z AUTO 18006KT 9SM 08/M13 A2983 RMK SLP144 T00771129 57019 IEM_DS3505
ZBYN,1999-03-08 07:00,ZBYN 080700Z AUTO 16008KT 6SM 08/M10 A2980 RMK T00801100 IEM_DS3505
ZBYN,1999-03-08 08:00,ZBYN 080800Z AUTO 21006KT 6SM 08/M10 A2980 RMK T00801100 IEM_DS3505
ZBYN,1999-03-08 09:00,ZBYN 080900Z AUTO 22004KT 9SM 08/M11 A2980 RMK SLP138 T00801109 57008 IEM_DS3505
ZBYN,1999-03-08 10:00,ZBYN 081000Z AUTO 00000KT 6SM 08/M11 A2985 RMK T00801110 IEM_DS3505
ZBYN,1999-03-08 11:00,ZBYN 081100Z AUTO 21002KT 6SM 07/M10 A2985 RMK T00701100 IEM_DS3505
ZBYN,1999-03-08 12:00,ZBYN 081200Z AUTO 00000KT 7SM 06/M08 A2988 RMK SLP174 T00631083 52030 IEM_DS3505
ZBYN,1999-03-08 13:00,ZBYN 081300Z AUTO 29004KT 6SM 06/M14 A2991 RMK T00601140 IEM_DS3505
ZBYN,1999-03-08 14:00,ZBYN 081400Z AUTO 34010KT 6SM 06/M15 A2994 RMK T00601150 IEM_DS3505
ZBYN,1999-03-08 15:00,ZBYN 081500Z AUTO 00000KT 6SM 05/M11 A2994 RMK SLP179 T00541106 52016 IEM_DS3505
ZBYN,1999-03-08 16:00,ZBYN 081600Z AUTO 14002KT 6SM 04/M12 A2994 RMK T00401120 IEM_DS3505
ZBYN,1999-03-08 17:00,ZBYN 081700Z AUTO 00000KT 6SM 03/M12 A2994 RMK T00301120 IEM_DS3505
ZBYN,1999-03-08 18:00,ZBYN 081800Z AUTO 11002KT 6SM 00/M10 A2994 RMK SLP175 T00031103 57008 IEM_DS3505
ZBYN,1999-03-08 19:00,ZBYN 081900Z AUTO 13002KT 6SM 02/M13 A2991 RMK T00201130 IEM_DS3505
ZBYN,1999-03-08 20:00,ZBYN 082000Z AUTO 10004KT 6SM M02/M13 A2991 RMK T10201130 IEM_DS3505
ZBYN,1999-03-08 21:00,ZBYN 082100Z AUTO 00000KT 6SM M02/M10 A2991 RMK SLP172 T10151100 57006 IEM_DS3505
ZBYN,1999-03-08 22:00,ZBYN 082200Z AUTO 11002KT 6SM M02/M13 A2994 RMK T10201130 IEM_DS3505
ZBYN,1999-03-08 23:00,ZBYN 082300Z AUTO 12002KT 6SM M02/M14 A2997 RMK T10201140 IEM_DS3505
ZBYN,1999-03-09 00:00,ZBYN 090000Z AUTO 18002KT 6SM 00/M11 A2997 RMK SLP190 T00031109 52017 IEM_DS3505
ZBYN,1999-03-09 01:00,ZBYN 090100Z AUTO 11002KT 6SM 03/M13 A2997 RMK T00301130 IEM_DS3505
ZBYN,1999-03-09 02:00,ZBYN 090200Z AUTO 18002KT 6SM 05/M11 A2997 RMK T00501110 IEM_DS3505
ZBYN,1999-03-09 03:00,ZBYN 090300Z AUTO 18004KT 5SM 06/M12 A2997 RMK SLP178 T00631121 57003 IEM_DS3505
ZBYN,1999-03-09 04:00,ZBYN 090400Z AUTO 19004KT 6SM 07/M12 A2994 RMK T00701120 IEM_DS3505
ZBYN,1999-03-09 05:00,ZBYN 090500Z AUTO 17004KT 6SM 09/M13 A2991 RMK T00901130 IEM_DS3505
ZBYN,1999-03-09 06:00,ZBYN 090600Z AUTO 22004KT 6SM 10/M10 A2988 RMK SLP160 T00961100 57019 IEM_DS3505
ZBYN,1999-03-09 07:00,ZBYN 090700Z AUTO 24004KT 6SM 10/M13 A2988 RMK T01001130 IEM_DS3505
ZBYN,1999-03-09 08:00,ZBYN 090800Z AUTO 23008KT 6SM 10/M12 A2985 RMK T01001120 IEM_DS3505
ZBYN,1999-03-09 09:00,ZBYN 090900Z AUTO 18008KT 7SM 11/M12 A2988 RMK SLP153 T01131123 57007 IEM_DS3505
ZBYN,1999-03-09 10:00,ZBYN 091000Z AUTO 24004KT 6SM 10/M10 A2991 RMK T01001100 IEM_DS3505
ZBYN,1999-03-09 11:00,ZBYN 091100Z AUTO 29004KT 6SM 09/M11 A2994 RMK T00901110 IEM_DS3505
ZBYN,1999-03-09 12:00,ZBYN 091200Z AUTO 34004KT 6SM 08/M11 A2997 RMK SLP185 T00811114 52027 IEM_DS3505
ZBYN,1999-03-09 13:00,ZBYN 091300Z AUTO 32010KT 6SM 08/M14 A3000 RMK T00801140 IEM_DS3505
ZBYN,1999-03-09 14:00,ZBYN 091400Z AUTO 31004KT 6SM 07/M14 A3000 RMK T00701140 IEM_DS3505
ZBYN,1999-03-09 15:00,ZBYN 091500Z AUTO 32002KT 6SM 08/M11 A3003 RMK SLP195 T00751111 52018 IEM_DS3505
ZBYN,1999-03-09 16:00,ZBYN 091600Z AUTO 20004KT 6SM 03/M10 A3006 RMK T00301100 IEM_DS3505
ZBYN,1999-03-09 17:00,ZBYN 091700Z AUTO 07002KT 6SM 02/M09 A3006 RMK T00201090 IEM_DS3505
ZBYN,1999-03-09 18:00,ZBYN 091800Z AUTO 09002KT 6SM 02/M09 A3006 RMK SLP218 T00161086 52017 IEM_DS3505
ZBYN,1999-03-09 19:00,ZBYN 091900Z AUTO 09002KT 6SM 00/M12 A3006 RMK T00001120 IEM_DS3505
ZBYN,1999-03-09 20:00,ZBYN 092000Z AUTO 08002KT 6SM 01/M10 A3006 RMK T00101100 IEM_DS3505
ZBYN,1999-03-09 21:00,ZBYN 092100Z AUTO 09004KT 6SM 01/M09 A3009 RMK SLP217 T00131087 52001 IEM_DS3505
ZBYN,1999-03-09 22:00,ZBYN 092200Z AUTO 07006KT 3SM 01/M05 A3009 RMK T00101050 IEM_DS3505
ZBYN,1999-03-09 23:00,ZBYN 092300Z AUTO 11004KT 3SM 01/M05 A3012 RMK T00101050 IEM_DS3505
ZBYN,1999-03-10 00:00,ZBYN 100000Z AUTO 00000KT 6SM M00/M07 A3012 RMK SLP240 T10011073 52014 IEM_DS3505
ZBYN,1999-03-10 01:00,ZBYN 100100Z AUTO 11008KT 1 1/4SM 02/M04 A3015 RMK T00201040 IEM_DS3505
ZBYN,1999-03-10 02:00,ZBYN 100200Z AUTO 09006KT 1 1/2SM 04/M05 A3018 RMK T00401050 IEM_DS3505
ZBYN,1999-03-10 03:00,ZBYN 100300Z AUTO 00000KT 5SM 04/M05 A3015 RMK SLP248 T00421054 52013 IEM_DS3505
ZBYN,1999-03-10 04:00,ZBYN 100400Z AUTO 14804KT 2 1/2SM 05/M06 A3012 RMK T00501060 IEM_DS3505
ZBYN,1999-03-10 05:00,ZBYN 100500Z AUTO 22002KT 07/M09 A3009 RMK T00701090 IEM_DS3505
ZBYN,1999-03-10 06:00,ZBYN 100600Z AUTO 22010KT 6SM 09/M11 A3006 RMK SLP218 T00861108 57030 IEM_DS3505
ZBYN,1999-03-10 07:00,ZBYN 100700Z AUTO 20008KT 6SM 10/M11 A3003 RMK T01001110 IEM_DS3505
ZBYN,1999-03-10 08:00,ZBYN 100800Z AUTO 21008KT 6SM 11/M12 A3003 RMK T01101120 IEM_DS3505
ZBYN,1999-03-10 09:00,ZBYN 100900Z AUTO 22012KT 6SM 10/M13 A3000 RMK SLP193 T01031126 57020 IEM_DS3505
ZBYN,1999-03-10 10:00,ZBYN 101000Z AUTO 24002KT 6SM 10/M10 A3000 RMK T01001100 IEM_DS3505
ZBYN,1999-03-10 11:00,ZBYN 101100Z AUTO 32004KT 6SM 08/M10 A3003 RMK T00801100 IEM_DS3505
ZBYN,1999-03-10 12:00,ZBYN 101200Z AUTO 32004KT 9SM 06/M11 A3006 RMK SLP218 T00631109 52014 IEM_DS3505
ZBYN,1999-03-10 13:00,ZBYN 101300Z AUTO 08002KT 6SM 06/M16 A3006 RMK T00601160 IEM_DS3505
ZBYN,1999-03-10 14:00,ZBYN 101400Z AUTO 14008KT 6SM 00/M09 A3009 RMK T00001090 IEM_DS3505
ZBYN,1999-03-10 15:00,ZBYN 101500Z AUTO 16004KT 6SM M01/M08 A3009 RMK SLP242 T10141083 52016 IEM_DS3505
ZBYN,1999-03-10 16:00,ZBYN 101600Z AUTO 10010KT 6SM M02/M07 A3009 RMK T10201070 IEM_DS3505
ZBYN,1999-03-10 17:00,ZBYN 101700Z AUTO 11010KT 6SM M02/M07 A3006 RMK T10201070 IEM_DS3505
ZBYN,1999-03-10 18:00,ZBYN 101800Z AUTO 22004KT 6SM M04/M09 A3006 RMK SLP228 T10361090 57009 IEM_DS3505
ZBYN,1999-03-10 19:00,ZBYN 101900Z AUTO 11006KT 6SM M04/M08 A3006 RMK T10401080 IEM_DS3505
ZBYN,1999-03-10 21:00,ZBYN 102100Z AUTO 20004KT 6SM M05/M08 A3003 RMK SLP213 T10471084 57013 IEM_DS3505
ZBYN,1999-03-10 22:00,ZBYN 102200Z AUTO 12006KT 3SM M05/M09 A3003 RMK T10501090 IEM_DS3505
ZBYN,1999-03-10 23:00,ZBYN 102300Z AUTO 10006KT 3SM M05/M08 A3006 RMK T10501080 IEM_DS3505
ZBYN,1999-03-11 00:00,ZBYN 110000Z AUTO 00000KT 5SM M05/M08 A3006 RMK SLP232 T10541084 52010 IEM_DS3505
ZBYN,1999-03-11 01:00,ZBYN 110100Z AUTO 00000KT 2SM M01/M07 A3006 RMK T10101070 IEM_DS3505
ZBYN,1999-03-11 02:00,ZBYN 110200Z AUTO 12004KT 2SM 02/M06 A3006 RMK T00201060 IEM_DS3505
ZBYN,1999-03-11 03:00,ZBYN 110300Z AUTO 14004KT 6SM 05/M07 A3003 RMK SLP213 T00481069 57013 IEM_DS3505
ZBYN,1999-03-11 04:00,ZBYN 110400Z AUTO 21008KT 08/M03 A2997 RMK T00801030 IEM_DS3505
ZBYN,1999-03-11 05:00,ZBYN 110500Z AUTO 21002KT 3SM 09/M04 A2994 RMK T00901040 IEM_DS3505
ZBYN,1999-03-11 06:00,ZBYN 110600Z AUTO 18012KT 6SM 10/M06 A2991 RMK SLP172 T01011056 57033 IEM_DS3505
ZBYN,1999-03-11 07:00,ZBYN 110700Z AUTO 21019KT 2 1/2SM 12/M03 A2988 RMK T01201030 IEM_DS3505
ZBYN,1999-03-11 08:00,ZBYN 110800Z AUTO 21008KT 12/M04 A2985 RMK T01201040 IEM_DS3505
ZBYN,1999-03-11 09:00,ZBYN 110900Z AUTO 18016KT 6SM 12/M09 A2985 RMK SLP148 T01161091 57021 IEM_DS3505
ZBYN,1999-03-11 10:00,ZBYN 111000Z AUTO 22008KT 6SM 10/M04 A2985 RMK T01001040 IEM_DS3505
ZBYN,1999-03-11 11:00,ZBYN 111100Z AUTO 08004KT 6SM 09/M04 A2988 RMK T00901040 IEM_DS3505
ZBYN,1999-03-11 12:00,ZBYN 111200Z AUTO 20010KT 9SM 08/M06 A2988 RMK SLP169 T00761059 52012 IEM_DS3505
ZBYN,1999-03-11 13:00,ZBYN 111300Z AUTO 14004KT 6SM 05/M04 A2991 RMK T00501040 IEM_DS3505
ZBYN,1999-03-11 14:00,ZBYN 111400Z AUTO 13006KT 6SM 04/M04 A2991 RMK T00401040 IEM_DS3505
ZBYN,1999-03-11 15:00,ZBYN 111500Z AUTO 11008KT 7SM 04/M05 A2994 RMK SLP173 T00381052 52014 IEM_DS3505
ZBYN,1999-03-11 16:00,ZBYN 111600Z AUTO 15004KT 6SM 04/M03 A2994 RMK T00401030 IEM_DS3505
ZBYN,1999-03-11 17:00,ZBYN 111700Z AUTO 15006KT 6SM 03/M03 A2991 RMK T00301030 IEM_DS3505
ZBYN,1999-03-11 18:00,ZBYN 111800Z AUTO 14008KT 6SM 03/M05 A2991 RMK SLP165 T00261047 57001 IEM_DS3505
ZBYN,1999-03-11 19:00,ZBYN 111900Z AUTO 13004KT 6SM 01/M03 A2991 RMK T00101030 IEM_DS3505
ZBYN,1999-03-11 20:00,ZBYN 112000Z AUTO 11006KT 6SM 00/M03 A2991 RMK T00001030 IEM_DS3505
ZBYN,1999-03-11 21:00,ZBYN 112100Z AUTO 11004KT 6SM 00/M04 A2991 RMK SLP156 T00031045 57010 IEM_DS3505
ZBYN,1999-03-11 22:00,ZBYN 112200Z AUTO 15008KT 6SM 01/M02 A2991 RMK T00101020 IEM_DS3505
ZBYN,1999-03-11 23:00,ZBYN 112300Z AUTO 13006KT 5SM 00/M02 A2991 RMK T00001020 IEM_DS3505
ZBYN,1999-03-12 00:00,ZBYN 120000Z AUTO 11008KT 4SM 00/M03 A2994 RMK SLP172 T00051026 52009 IEM_DS3505
ZBYN,1999-03-12 01:00,ZBYN 120100Z AUTO 17004KT 4SM 03/M01 A2994 RMK T00301010 IEM_DS3505
ZBYN,1999-03-12 02:00,ZBYN 120200Z AUTO 20004KT 05/M01 A2994 RMK T00501010 IEM_DS3505
ZBYN,1999-03-12 03:00,ZBYN 120300Z AUTO 18016KT 6SM 07/M02 A2991 RMK SLP164 T00711022 57003 IEM_DS3505
ZBYN,1999-03-12 04:00,ZBYN 120400Z AUTO 18004KT 6SM 08/M01 A2988 RMK T00801010 IEM_DS3505
ZBYN,1999-03-12 05:00,ZBYN 120500Z AUTO 22008KT 5SM 10/M01 A2985 RMK T01001010 IEM_DS3505
ZBYN,1999-03-12 06:00,ZBYN 120600Z AUTO 14010KT 6SM 11/M02 A2983 RMK SLP123 T01121024 57033 IEM_DS3505
ZBYN,1999-03-12 07:00,ZBYN 120700Z AUTO 25006KT 5SM 12/00 A2980 RMK T01200000 IEM_DS3505
ZBYN,1999-03-12 08:00,ZBYN 120800Z AUTO 23006KT 5SM 13/00 A2977 RMK T01300000 IEM_DS3505
ZBYN,1999-03-12 09:00,ZBYN 120900Z AUTO 18010KT 6SM 13/M03 A2980 RMK SLP111 T01301033 57011 IEM_DS3505
ZBYN,1999-03-12 10:00,ZBYN 121000Z AUTO 15006KT 6SM 12/M01 A2980 RMK T01201010 IEM_DS3505
ZBYN,1999-03-12 11:00,ZBYN 121100Z AUTO 14006KT 6SM 09/M02 A2983 RMK T00901020 IEM_DS3505
ZBYN,1999-03-12 12:00,ZBYN 121200Z AUTO 11006KT 6SM 08/M02 A2985 RMK SLP141 T00801025 52019 IEM_DS3505
ZBYN,1999-03-12 13:00,ZBYN 121300Z AUTO 14004KT 6SM 07/M01 A2988 RMK T00701010 IEM_DS3505
ZBYN,1999-03-12 14:00,ZBYN 121400Z AUTO 13004KT 6SM 06/M01 A2991 RMK T00601010 IEM_DS3505
ZBYN,1999-03-12 15:00,ZBYN 121500Z AUTO 11008KT 6SM 05/M03 A2988 RMK SLP150 T00541026 52015 IEM_DS3505
ZBYN,1999-03-12 16:00,ZBYN 121600Z AUTO 06004KT 6SM 05/M01 A2988 RMK T00501010 IEM_DS3505
ZBYN,1999-03-12 17:00,ZBYN 121700Z AUTO 00000KT 6SM 04/M02 A2991 RMK T00401020 IEM_DS3505
ZBYN,1999-03-12 18:00,ZBYN 121800Z AUTO 00000KT 6SM 03/M02 A2991 RMK SLP158 T00331018 52010 IEM_DS3505
ZBYN,1999-03-12 19:00,ZBYN 121900Z AUTO 12004KT 6SM 00/M04 A2991 RMK T00001040 IEM_DS3505
ZBYN,1999-03-12 20:00,ZBYN 122000Z AUTO 12002KT 6SM 00/M03 A2988 RMK T00001030 IEM_DS3505
ZBYN,1999-03-12 21:00,ZBYN 122100Z AUTO 00000KT 6SM 00/M04 A2991 RMK SLP154 T00041037 57005 IEM_DS3505
ZBYN,1999-03-12 22:00,ZBYN 122200Z AUTO 08002KT 4SM 00/M03 A2991 RMK T00001030 IEM_DS3505
ZBYN,1999-03-12 23:00,ZBYN 122300Z AUTO 11002KT 4SM 00/M03 A2994 RMK T00001030 IEM_DS3505
ZBYN,1999-03-13 00:00,ZBYN 130000Z AUTO 00000KT 4SM 01/M02 A2994 RMK SLP181 T00141019 52018 IEM_DS3505
ZBYN,1999-03-13 01:00,ZBYN 130100Z AUTO 13002KT 2 1/2SM 03/M01 A2997 RMK T00301010 IEM_DS3505
ZBYN,1999-03-13 02:00,ZBYN 130200Z AUTO 00000KT 2 1/2SM 05/M01 A2997 RMK T00501010 IEM_DS3505
ZBYN,1999-03-13 03:00,ZBYN 130300Z AUTO 16002KT 3SM 07/M02 A2994 RMK SLP169 T00711015 57006 IEM_DS3505
ZBYN,1999-03-13 04:00,ZBYN 130400Z AUTO 32002KT 3SM 09/00 A2991 RMK T00900000 IEM_DS3505
ZBYN,1999-03-13 05:00,ZBYN 130500Z AUTO 22002KT 3SM 10/01 A2988 RMK T01000010 IEM_DS3505
ZBYN,1999-03-13 06:00,ZBYN 130600Z AUTO 18008KT 3SM 11/M02 A2985 RMK SLP138 T01121017 57025 IEM_DS3505
ZBYN,1999-03-13 07:00,ZBYN 130700Z AUTO 20002KT 3SM 12/01 A2985 RMK T01200010 IEM_DS3505
ZBYN,1999-03-13 08:00,ZBYN 130800Z AUTO 24002KT 3SM 12/01 A2985 RMK T01200010 IEM_DS3505
ZBYN,1999-03-13 09:00,ZBYN 130900Z AUTO 20004KT 3SM 12/M01 A2985 RMK SLP135 T01191009 57006 IEM_DS3505
ZBYN,1999-03-13 10:00,ZBYN 131000Z AUTO 00000KT 3SM 11/00 A2985 RMK T01100000 IEM_DS3505
ZBYN,1999-03-13 11:00,ZBYN 131100Z AUTO 16002KT 10/01 A2988 RMK T01000010 IEM_DS3505
ZBYN,1999-03-13 12:00,ZBYN 131200Z AUTO 00000KT 3SM 09/00 A2991 RMK SLP168 T00890003 52027 IEM_DS3505
ZBYN,1999-03-13 13:00,ZBYN 131300Z AUTO 10002KT 07/M01 A2994 RMK T00701010 IEM_DS3505
ZBYN,1999-03-13 14:00,ZBYN 131400Z AUTO 10006KT 08/00 A2997 RMK T00800000 IEM_DS3505
ZBYN,1999-03-13 15:00,ZBYN 131500Z AUTO 18004KT 6SM 07/00 A2997 RMK SLP184 T00710000 52020 IEM_DS3505
ZBYN,1999-03-13 16:00,ZBYN 131600Z AUTO 10010KT 2 1/2SM 08/01 A3000 RMK T00800010 IEM_DS3505
ZBYN,1999-03-13 17:00,ZBYN 131700Z AUTO 09008KT 2SM 07/01 A3000 RMK T00700010 IEM_DS3505
ZBYN,1999-03-13 18:00,ZBYN 131800Z AUTO 29002KT 6SM 06/01 A3003 RMK SLP190 T00580007 52010 IEM_DS3505
ZBYN,1999-03-13 19:00,ZBYN 131900Z AUTO 11002KT 2SM 06/00 A3000 RMK T00600000 IEM_DS3505
ZBYN,1999-03-13 20:00,ZBYN 132000Z AUTO 11006KT 2SM 06/01 A2997 RMK T00600010 IEM_DS3505
ZBYN,1999-03-13 21:00,ZBYN 132100Z AUTO 00000KT 6SM 03/M00 A2997 RMK SLP180 T00321001 57012 IEM_DS3505
ZBYN,1999-03-13 22:00,ZBYN 132200Z AUTO 10008KT 1 1/4SM 05/01 A3000 RMK T00500010 IEM_DS3505
ZBYN,1999-03-13 23:00,ZBYN 132300Z AUTO 08006KT 1 1/4SM 05/01 A3000 RMK T00500010 IEM_DS3505
ZBYN,1999-03-14 00:00,ZBYN 140000Z AUTO 00000KT 4SM 04/00 A3003 RMK SLP201 T00350002 52015 IEM_DS3505
ZBYN,1999-03-14 02:00,ZBYN 140200Z AUTO 08004KT 1SM 08/01 A3006 RMK T00800010 IEM_DS3505
ZBYN,1999-03-14 03:00,ZBYN 140300Z AUTO 00000KT 4SM 10/M02 A3006 RMK SLP200 T00951017 52006 IEM_DS3505
ZBYN,1999-03-14 04:00,ZBYN 140400Z AUTO 09008KT 2 1/2SM 12/01 A3003 RMK T01200010 IEM_DS3505
ZBYN,1999-03-14 05:00,ZBYN 140500Z AUTO 09010KT 2 1/2SM 12/01 A3000 RMK T01200010 IEM_DS3505
ZBYN,1999-03-14 06:00,ZBYN 140600Z AUTO 11017KT 5SM 13/M01 A2997 RMK SLP172 T01271007 57023 IEM_DS3505
ZBYN,1999-03-14 07:00,ZBYN 140700Z AUTO 10017KT 2 1/2SM 11/01 A2994 RMK T01100010 IEM_DS3505
ZBYN,1999-03-14 08:00,ZBYN 140800Z AUTO 09016KT 2 1/2SM 11/01 A2994 RMK T01100010 IEM_DS3505
ZBYN,1999-03-14 09:00,ZBYN 140900Z AUTO 08017KT 2 1/2SM 09/01 A2991 RMK T00900010 IEM_DS3505
ZBYN,1999-03-14 10:00,ZBYN 141000Z AUTO 08016KT 2SM 08/02 A2991 RMK T00800020 IEM_DS3505
ZBYN,1999-03-14 11:00,ZBYN 141100Z AUTO 08017KT 2SM 07/02 A2991 RMK T00700020 IEM_DS3505
ZBYN,1999-03-14 12:00,ZBYN 141200Z AUTO 25004KT 6SM 06/M00 A2994 RMK SLP175 T00601005 52007 IEM_DS3505
ZBYN,1999-03-14 13:00,ZBYN 141300Z AUTO 09010KT 2 1/2SM 06/02 A2994 RMK T00600020 IEM_DS3505
ZBYN,1999-03-14 14:00,ZBYN 141400Z AUTO 10006KT 2 1/2SM 05/02 A2997 RMK T00500020 IEM_DS3505
ZBYN,1999-03-14 15:00,ZBYN 141500Z AUTO 00000KT 4SM 03/M00 A2997 RMK SLP175 T00311005 52005 IEM_DS3505
ZBYN,1999-03-14 16:00,ZBYN 141600Z AUTO 10002KT 2SM 04/01 A2994 RMK T00400010 IEM_DS3505
ZBYN,1999-03-14 17:00,ZBYN 141700Z AUTO 12006KT 2SM 03/01 A2991 RMK T00300010 IEM_DS3505
ZBYN,1999-03-14 18:00,ZBYN 141800Z AUTO 00000KT 4SM 01/M02 A2991 RMK SLP161 T00071018 57012 IEM_DS3505
ZBYN,1999-03-14 19:00,ZBYN 141900Z AUTO 10004KT 2SM 03/01 A2988 RMK T00300010 IEM_DS3505
ZBYN,1999-03-14 20:00,ZBYN 142000Z AUTO 11006KT 2SM 03/01 A2985 RMK T00300010 IEM_DS3505
ZBYN,1999-03-14 21:00,ZBYN 142100Z AUTO 18004KT 3SM 00/M01 A2983 RMK SLP140 T00031011 57023 IEM_DS3505
ZBYN,1999-03-14 22:00,ZBYN 142200Z AUTO 13002KT 2SM 03/01 A2983 RMK T00300010 IEM_DS3505
ZBYN,1999-03-14 23:00,ZBYN 142300Z AUTO 13004KT 1 1/2SM 02/01 A2983 RMK T00200010 IEM_DS3505
ZBYN,1999-03-15 00:00,ZBYN 150000Z AUTO 00000KT 2SM 01/M00 A2980 RMK SLP135 T00131003 57010 IEM_DS3505
ZBYN,1999-03-15 01:00,ZBYN 150100Z AUTO 15004KT 1 1/4SM 06/03 A2980 RMK T00600030 IEM_DS3505
ZBYN,1999-03-15 02:00,ZBYN 150200Z AUTO 17004KT 1 1/4SM 07/04 A2980 RMK T00700040 IEM_DS3505
ZBYN,1999-03-15 03:00,ZBYN 150300Z AUTO 18010KT 2 1/2SM 09/02 A2977 RMK SLP106 T00940019 57018 IEM_DS3505
ZBYN,1999-03-15 04:00,ZBYN 150400Z AUTO 22004KT 2SM 10/04 A2974 RMK T01000040 IEM_DS3505
ZBYN,1999-03-15 05:00,ZBYN 150500Z AUTO 19006KT 2SM 12/04 A2968 RMK T01200040 IEM_DS3505
ZBYN,1999-03-15 06:00,ZBYN 150600Z AUTO 16012KT 3SM 14/01 A2962 RMK SLP058 T01390007 57041 IEM_DS3505
ZBYN,1999-03-15 07:00,ZBYN 150700Z AUTO 20006KT 2 1/2SM 15/03 A2959 RMK T01500030 IEM_DS3505
ZBYN,1999-03-15 08:00,ZBYN 150800Z AUTO 17006KT 15/01 A2956 RMK T01500010 IEM_DS3505
ZBYN,1999-03-15 09:00,ZBYN 150900Z AUTO 16010KT 4SM 17/M02 A2956 RMK SLP030 T01671023 57021 IEM_DS3505
ZBYN,1999-03-15 10:00,ZBYN 151000Z AUTO 14002KT 6SM 16/00 A2953 RMK T01600000 IEM_DS3505
ZBYN,1999-03-15 11:00,ZBYN 151100Z AUTO 00000KT 3SM 13/M01 A2956 RMK T01301010 IEM_DS3505
ZBYN,1999-03-15 12:00,ZBYN 151200Z AUTO 16010KT 6SM 12/M05 A2959 RMK SLP054 T01231054 52014 IEM_DS3505
ZBYN,1999-03-15 13:00,ZBYN 151300Z AUTO 18002KT 10/M02 A2962 RMK T01001020 IEM_DS3505
ZBYN,1999-03-15 14:00,ZBYN 151400Z AUTO 13004KT 08/M02 A2962 RMK T00801020 IEM_DS3505
ZBYN,1999-03-15 15:00,ZBYN 151500Z AUTO 14010KT 6SM 11/M03 A2962 RMK SLP046 T01121027 52006 IEM_DS3505
ZBYN,1999-03-15 16:00,ZBYN 151600Z AUTO 13008KT 5SM 09/M01 A2962 RMK T00901010 IEM_DS3505
ZBYN,1999-03-15 17:00,ZBYN 151700Z AUTO 11004KT 5SM 07/00 A2962 RMK T00700000 IEM_DS3505
ZBYN,1999-03-15 18:00,ZBYN 151800Z AUTO 11008KT 6SM 08/M02 A2962 RMK SLP046 T00811020 52002 IEM_DS3505
ZBYN,1999-03-15 19:00,ZBYN 151900Z AUTO 10004KT 5SM 07/00 A2962 RMK T00700000 IEM_DS3505
ZBYN,1999-03-15 20:00,ZBYN 152000Z AUTO 10004KT 5SM 07/00 A2962 RMK T00700000 IEM_DS3505
ZBYN,1999-03-15 21:00,ZBYN 152100Z AUTO 11002KT 6SM 07/M00 A2962 RMK SLP040 T00691002 57003 IEM_DS3505
ZBYN,1999-03-15 22:00,ZBYN 152200Z AUTO 22002KT 5SM 07/01 A2965 RMK T00700010 IEM_DS3505
ZBYN,1999-03-15 23:00,ZBYN 152300Z AUTO 00000KT 3SM 06/00 A2968 RMK T00600000 IEM_DS3505
ZBYN,1999-03-16 00:00,ZBYN 160000Z AUTO 32002KT 4SM 07/00 A2965 RMK SLP063 T00740002 52015 IEM_DS3505
ZBYN,1999-03-16 01:00,ZBYN 160100Z AUTO 00000KT 1 1/2SM 09/01 A2968 RMK T00900010 IEM_DS3505
ZBYN,1999-03-16 02:00,ZBYN 160200Z AUTO 34004KT 1 1/2SM 11/01 A2968 RMK T01100010 IEM_DS3505
ZBYN,1999-03-16 03:00,ZBYN 160300Z AUTO 36004KT 5SM 12/M00 A2968 RMK SLP066 T01161003 52007 IEM_DS3505
ZBYN,1999-03-16 04:00,ZBYN 160400Z AUTO 34006KT 14/M03 A2965 RMK T01401030 IEM_DS3505
ZBYN,1999-03-16 05:00,ZBYN 160500Z AUTO 30006KT 15/M06 A2962 RMK T01501060 IEM_DS3505
ZBYN,1999-03-16 06:00,ZBYN 160600Z AUTO 34004KT 5SM 16/M11 A2959 RMK SLP039 T01551107 57023 IEM_DS3505
ZBYN,1999-03-16 07:00,ZBYN 160700Z AUTO 34016KT 5SM 16/M10 A2959 RMK T01601100 IEM_DS3505
ZBYN,1999-03-16 08:00,ZBYN 160800Z AUTO 36014KT 6SM 16/M10 A2959 RMK T01601100 IEM_DS3505
ZBYN,1999-03-16 09:00,ZBYN 160900Z AUTO 36002KT 6SM 15/M13 A2962 RMK SLP042 T01491126 54000 IEM_DS3505
ZBYN,1999-03-16 10:00,ZBYN 161000Z AUTO 10012KT 6SM 14/M09 A2962 RMK T01401090 IEM_DS3505
ZBYN,1999-03-16 11:00,ZBYN 161100Z AUTO 07008KT 6SM 12/M05 A2962 RMK T01201050 IEM_DS3505
ZBYN,1999-03-16 12:00,ZBYN 161200Z AUTO 11006KT 6SM 11/M07 A2965 RMK SLP058 T01081067 52009 IEM_DS3505
ZBYN,1999-03-16 13:00,ZBYN 161300Z AUTO 09012KT 6SM 10/00 A2965 RMK T01000000 IEM_DS3505
ZBYN,1999-03-16 14:00,ZBYN 161400Z AUTO 09012KT 09/01 A2968 RMK T00900010 IEM_DS3505
ZBYN,1999-03-16 15:00,ZBYN 161500Z AUTO 22004KT 6SM 07/M02 A2968 RMK SLP069 T00691021 52010 IEM_DS3505
ZBYN,1999-03-16 16:00,ZBYN 161600Z AUTO 09012KT 2 1/2SM 06/01 A2968 RMK T00600010 IEM_DS3505
ZBYN,1999-03-16 17:00,ZBYN 161700Z AUTO 07008KT 4SM 06/01 A2968 RMK T00600010 IEM_DS3505
ZBYN,1999-03-16 18:00,ZBYN 161800Z AUTO 00000KT 6SM 06/M01 A2971 RMK SLP069 T00591006 52005 IEM_DS3505
ZBYN,1999-03-16 19:00,ZBYN 161900Z AUTO 07010KT 4SM 05/01 A2968 RMK T00500010 IEM_DS3505
ZBYN,1999-03-16 20:00,ZBYN 162000Z AUTO 09004KT 4SM 05/01 A2968 RMK T00500010 IEM_DS3505
ZBYN,1999-03-16 21:00,ZBYN 162100Z AUTO 00000KT 6SM 03/M01 A2968 RMK SLP076 T00331011 52001 IEM_DS3505
ZBYN,1999-03-16 22:00,ZBYN 162200Z AUTO 04002KT 4SM 04/00 A2971 RMK T00400000 IEM_DS3505
ZBYN,1999-03-16 23:00,ZBYN 162300Z AUTO 11004KT 2SM 03/00 A2971 RMK T00300000 IEM_DS3505
ZBYN,1999-03-17 00:00,ZBYN 170000Z AUTO 00000KT 4SM 03/M00 A2971 RMK SLP090 T00321004 52007 IEM_DS3505
ZBYN,1999-03-17 01:00,ZBYN 170100Z AUTO 00000KT 1 1/4SM 06/01 A2971 RMK T00600010 IEM_DS3505
ZBYN,1999-03-17 02:00,ZBYN 170200Z AUTO 05004KT 1 1/2SM 09/02 A2968 RMK T00900020 IEM_DS3505
ZBYN,1999-03-17 03:00,ZBYN 170300Z AUTO 32002KT 4SM 10/M00 A2965 RMK SLP068 T00981002 57016 IEM_DS3505
ZBYN,1999-03-17 04:00,ZBYN 170400Z AUTO 16004KT 2SM 12/04 A2968 RMK T01200040 IEM_DS3505
ZBYN,1999-03-17 05:00,ZBYN 170500Z AUTO 16006KT 5SM 14/05 A2965 RMK T01400050 IEM_DS3505
ZBYN,1999-03-17 06:00,ZBYN 170600Z AUTO 09004KT 5SM 15/02 A2959 RMK SLP046 T01490023 57014 IEM_DS3505
ZBYN,1999-03-17 07:00,ZBYN 170700Z AUTO 16004KT 5SM 15/04 A2959 RMK T01500040 IEM_DS3505
ZBYN,1999-03-17 08:00,ZBYN 170800Z AUTO 12004KT 5SM 15/04 A2959 RMK T01500040 IEM_DS3505
ZBYN,1999-03-17 09:00,ZBYN 170900Z AUTO 14006KT 5SM 15/02 A2962 RMK SLP048 T01480021 57002 IEM_DS3505
ZBYN,1999-03-17 10:00,ZBYN 171000Z AUTO 13002KT 5SM 14/05 A2965 RMK T01400050 IEM_DS3505
ZBYN,1999-03-17 11:00,ZBYN 171100Z AUTO 21002KT 13/05 A2968 RMK T01300050 IEM_DS3505
ZBYN,1999-03-17 12:00,ZBYN 171200Z AUTO 02008KT 5SM 13/M00 A2974 RMK SLP094 T01301004 52039 IEM_DS3505
ZBYN,1999-03-17 13:00,ZBYN 171300Z AUTO 05014KT 10/02 A2980 RMK T01000020 IEM_DS3505
ZBYN,1999-03-17 15:00,ZBYN 171500Z AUTO 07002KT 6SM 10/01 A2985 RMK SLP126 T00970011 52034 IEM_DS3505
ZBYN,1999-03-17 16:00,ZBYN 171600Z AUTO 10014KT 4SM 07/03 A2985 RMK T00700030 IEM_DS3505
ZBYN,1999-03-17 17:00,ZBYN 171700Z AUTO 07010KT 4SM 07/03 A2988 RMK T00700030 IEM_DS3505
ZBYN,1999-03-17 18:00,ZBYN 171800Z AUTO 07002KT 5SM 07/03 RMK SLP140 T00720031 52016 IEM_DS3505
ZBYN,1999-03-17 19:00,ZBYN 171900Z AUTO 10006KT 4SM 07/04 A2988 RMK T00700040 IEM_DS3505
ZBYN,1999-03-17 20:00,ZBYN 172000Z AUTO 07010KT 4SM 06/03 A2985 RMK T00600030 IEM_DS3505
ZBYN,1999-03-17 21:00,ZBYN 172100Z AUTO 04006KT 5SM 07/01 A2985 RMK SLP127 T00660011 57012 IEM_DS3505
ZBYN,1999-03-17 22:00,ZBYN 172200Z AUTO 08006KT 5SM 06/02 A2985 RMK T00600020 IEM_DS3505
ZBYN,1999-03-17 23:00,ZBYN 172300Z AUTO 01008KT 5SM 07/01 A2988 RMK T00700010 IEM_DS3505
ZBYN,1999-03-18 00:00,ZBYN 180000Z AUTO 34004KT 2 1/2SM 06/02 A2991 RMK SLP151 T00610021 52018 IEM_DS3505
ZBYN,1999-03-18 01:00,ZBYN 180100Z AUTO 06008KT 6SM 07/02 A2994 RMK T00700020 IEM_DS3505
ZBYN,1999-03-18 02:00,ZBYN 180200Z AUTO 10014KT 7SM 07/02 A2997 RMK T00700020 IEM_DS3505
ZBYN,1999-03-18 03:00,ZBYN 180300Z AUTO 09017KT 4SM 06/01 A3000 RMK SLP180 T00640014 52022 IEM_DS3505
ZBYN,1999-03-18 04:00,ZBYN 180400Z AUTO 06012KT 06/M01 A3000 RMK T00601010 IEM_DS3505
ZBYN,1999-03-18 05:00,ZBYN 180500Z AUTO 08010KT 06/M03 A3000 RMK T00601030 IEM_DS3505
ZBYN,1999-03-18 06:00,ZBYN 180600Z AUTO 09012KT 6SM 07/M10 A3000 RMK SLP191 T00671095 52006 IEM_DS3505
ZBYN,1999-03-18 07:00,ZBYN 180700Z AUTO 12016KT 6SM 07/M10 A3000 RMK T00701100 IEM_DS3505
ZBYN,1999-03-18 08:00,ZBYN 180800Z AUTO 11016KT 6SM 05/M07 A3000 RMK T00501070 IEM_DS3505
ZBYN,1999-03-18 09:00,ZBYN 180900Z AUTO 11019KT 12SM 04/M08 A3000 RMK SLP195 T00391084 57001 IEM_DS3505
ZBYN,1999-03-18 10:00,ZBYN 181000Z AUTO 10012KT 6SM 03/M03 A3003 RMK T00301030 IEM_DS3505
ZBYN,1999-03-18 11:00,ZBYN 181100Z AUTO 07012KT 6SM 03/M03 A3003 RMK T00301030 IEM_DS3505
ZBYN,1999-03-18 12:00,ZBYN 181200Z AUTO 07012KT 6SM 03/M06 A3006 RMK SLP221 T00301064 52021 IEM_DS3505
ZBYN,1999-03-18 13:00,ZBYN 181300Z AUTO 06010KT 6SM 03/M05 A3006 RMK T00301050 IEM_DS3505
ZBYN,1999-03-18 14:00,ZBYN 181400Z AUTO 06004KT 6SM 03/M06 A3009 RMK T00301060 IEM_DS3505
ZBYN,1999-03-18 15:00,ZBYN 181500Z AUTO 04010KT 6SM 04/M12 A3012 RMK SLP243 T00371117 52022 IEM_DS3505
ZBYN,1999-03-18 16:00,ZBYN 181600Z AUTO 00000KT 7SM 03/M07 A3018 RMK T00301070 IEM_DS3505
ZBYN,1999-03-18 17:00,ZBYN 181700Z AUTO 09010KT 7SM 02/M06 A3021 RMK T00201060 IEM_DS3505
ZBYN,1999-03-18 18:00,ZBYN 181800Z AUTO 07006KT 6SM 01/M04 A3021 RMK SLP270 T00141043 52021 IEM_DS3505
ZBYN,1999-03-18 19:00,ZBYN 181900Z AUTO 10002KT 7SM 01/M04 A3021 RMK T00101040 IEM_DS3505
ZBYN,1999-03-18 20:00,ZBYN 182000Z AUTO 07004KT 7SM 00/M02 RMK T00001020 IEM_DS3505
ZBYN,1999-03-18 21:00,ZBYN 182100Z AUTO 00000KT 2 1/2SM M01/M02 A3018 RMK SLP272 T10131018 57007 IEM_DS3505
ZBYN,1999-03-18 22:00,ZBYN 182200Z AUTO 00000KT 4SM M01/M01 A3018 RMK T10101010 IEM_DS3505
ZBYN,1999-03-18 23:00,ZBYN 182300Z AUTO 34002KT 3SM M01/M01 RMK T10101010 IEM_DS3505
ZBYN,1999-03-19 00:00,ZBYN 190000Z AUTO 00000KT 2 1/2SM M01/M02 RMK SLP277 T10071020 52004 IEM_DS3505
ZBYN,1999-03-19 01:00,ZBYN 190100Z AUTO 35002KT 1 1/2SM 00/00 A3021 RMK T00000000 IEM_DS3505
ZBYN,1999-03-19 02:00,ZBYN 190200Z AUTO 34002KT 2 1/2SM 01/M01 A3021 RMK T00101010 IEM_DS3505
ZBYN,1999-03-19 03:00,ZBYN 190300Z AUTO 34004KT 4SM 01/M01 A3018 RMK SLP274 T00061010 52001 IEM_DS3505
ZBYN,1999-03-19 04:00,ZBYN 190400Z AUTO 13004KT 4SM 02/M01 A3018 RMK T00201010 IEM_DS3505
ZBYN,1999-03-19 05:00,ZBYN 190500Z AUTO 10002KT 4SM 02/M01 A3015 RMK T00201010 IEM_DS3505
ZBYN,1999-03-19 06:00,ZBYN 190600Z AUTO 00000KT 5SM 02/M02 A3015 RMK SLP256 T00201024 57018 IEM_DS3505
ZBYN,1999-03-19 07:00,ZBYN 190700Z AUTO 00000KT 4SM 02/M01 A3012 RMK T00201010 IEM_DS3505
ZBYN,1999-03-19 08:00,ZBYN 190800Z AUTO 18002KT 4SM 02/00 A3012 RMK T00200000 IEM_DS3505
ZBYN,1999-03-19 09:00,ZBYN 190900Z AUTO 18006KT 4SM 01/M01 A3009 RMK SLP248 T00121007 57013 IEM_DS3505
ZBYN,1999-03-19 10:00,ZBYN 191000Z AUTO 23002KT 4SM 02/01 A3012 RMK T00200010 IEM_DS3505
ZBYN,1999-03-19 11:00,ZBYN 191100Z AUTO 20004KT 4SM 01/01 A3012 RMK T00100010 IEM_DS3505
ZBYN,1999-03-19 12:00,ZBYN 191200Z AUTO 18004KT 2SM 00/M00 A3015 RMK SLP261 T00041004 52011 IEM_DS3505
ZBYN,1999-03-19 13:00,ZBYN 191300Z AUTO 22002KT 2SM 00/00 A3015 RMK T00000000 IEM_DS3505
ZBYN,1999-03-19 14:00,ZBYN 191400Z AUTO 21002KT 2 1/2SM 00/00 A3015 RMK T00000000 IEM_DS3505
ZBYN,1999-03-19 15:00,ZBYN 191500Z AUTO 18006KT 5SM M00/M01 A3015 RMK SLP267 T10041012 52007 IEM_DS3505
ZBYN,1999-03-19 16:00,ZBYN 191600Z AUTO 20002KT 2 1/2SM 00/00 A3015 RMK T00000000 IEM_DS3505
ZBYN,1999-03-19 17:00,ZBYN 191700Z AUTO 19002KT 2SM 00/00 A3012 RMK T00000000 IEM_DS3505
ZBYN,1999-03-19 18:00,ZBYN 191800Z AUTO 18008KT 5SM M00/M01 RMK SLP218 T10051014 57021 IEM_DS3505
ZBYN,1999-03-19 19:00,ZBYN 191900Z AUTO 18004KT 2SM 00/M01 A3009 RMK T00001010 IEM_DS3505
ZBYN,1999-03-19 20:00,ZBYN 192000Z AUTO 21002KT 2SM 00/00 A3006 RMK T00000000 IEM_DS3505
ZBYN,1999-03-19 21:00,ZBYN 192100Z AUTO 18008KT 5SM M00/M01 A3003 RMK SLP218 T10051014 57021 IEM_DS3505
ZBYN,1999-03-19 22:00,ZBYN 192200Z AUTO 23004KT 2SM 00/00 A3006 RMK T00000000 IEM_DS3505
ZBYN,1999-03-19 23:00,ZBYN 192300Z AUTO 22002KT 2SM 00/M01 A3006 RMK T00001010 IEM_DS3505
ZBYN,1999-03-20 00:00,ZBYN 200000Z AUTO 22012KT 5SM M00/M02 RMK SLP231 T10031018 52011 IEM_DS3505
ZBYN,1999-03-20 01:00,ZBYN 200100Z AUTO 22008KT 3SM 01/00 A3006 RMK T00100000 IEM_DS3505
ZBYN,1999-03-20 02:00,ZBYN 200200Z AUTO 20006KT 3SM 01/00 A3006 RMK T00100000 IEM_DS3505
ZBYN,1999-03-20 03:00,ZBYN 200300Z AUTO 18006KT 5SM 02/M02 A3003 RMK SLP216 T00171016 57012 IEM_DS3505
ZBYN,1999-03-20 04:00,ZBYN 200400Z AUTO 22004KT 2 1/2SM 02/00 A3000 RMK T00200000 IEM_DS3505
ZBYN,1999-03-20 05:00,ZBYN 200500Z AUTO 21004KT 2 1/2SM 04/01 A2997 RMK T00400010 IEM_DS3505
ZBYN,1999-03-20 06:00,ZBYN 200600Z AUTO 18004KT 6SM 05/M02 A2994 RMK SLP187 T00521016 57021 IEM_DS3505
ZBYN,1999-03-20 07:00,ZBYN 200700Z AUTO 24008KT 3SM 06/00 A2994 RMK T00600000 IEM_DS3505
ZBYN,1999-03-20 08:00,ZBYN 200800Z AUTO 23004KT 3SM 06/02 A2994 RMK T00600020 IEM_DS3505
ZBYN,1999-03-20 09:00,ZBYN 200900Z AUTO 36004KT 6SM 08/M02 A2991 RMK SLP175 T00781018 57007 IEM_DS3505
ZBYN,1999-03-20 10:00,ZBYN 201000Z AUTO 31016KT 7SM 09/M05 A2991 RMK T00901050 IEM_DS3505
ZBYN,1999-03-20 11:00,ZBYN 201100Z AUTO 31014KT 7SM 08/M05 A2994 RMK T00801050 IEM_DS3505
ZBYN,1999-03-20 12:00,ZBYN 201200Z AUTO 34012KT 6SM 07/M10 A3000 RMK SLP196 T00741101 52019 IEM_DS3505
ZBYN,1999-03-20 13:00,ZBYN 201300Z AUTO 30010KT 2SM 07/M14 A3003 RMK T00701140 IEM_DS3505
ZBYN,1999-03-20 14:00,ZBYN 201400Z AUTO 03016KT 5SM 04/M03 A3009 RMK T00401030 IEM_DS3505
ZBYN,1999-03-20 15:00,ZBYN 201500Z AUTO 02006KT 6SM 03/M06 A3015 RMK SLP248 T00261055 52043 IEM_DS3505
ZBYN,1999-03-20 16:00,ZBYN 201600Z AUTO 02008KT 6SM 01/M05 A3018 RMK T00101050 IEM_DS3505
ZBYN,1999-03-20 17:00,ZBYN 201700Z AUTO 36004KT 6SM 00/M09 A3021 RMK T00001090 IEM_DS3505
ZBYN,1999-03-20 18:00,ZBYN 201800Z AUTO 36012KT 6SM M01/M12 A3024 RMK SLP283 T10131118 52031 IEM_DS3505
ZBYN,1999-03-20 19:00,ZBYN 201900Z AUTO 35008KT 6SM M02/M12 A3027 RMK T10201120 IEM_DS3505
ZBYN,1999-03-20 20:00,ZBYN 202000Z AUTO 35010KT 6SM M03/M13 A3027 RMK T10301130 IEM_DS3505
ZBYN,1999-03-20 21:00,ZBYN 202100Z AUTO 34006KT 6SM M03/M13 A3030 RMK SLP307 T10331132 52032 IEM_DS3505
ZBYN,1999-03-20 22:00,ZBYN 202200Z AUTO 01008KT 7SM M04/M13 A3033 RMK T10401130 IEM_DS3505
ZBYN,1999-03-20 23:00,ZBYN 202300Z AUTO 01006KT 6SM M04/M14 A3033 RMK T10401140 IEM_DS3505
ZBYN,1999-03-21 00:00,ZBYN 210000Z AUTO 02008KT 16SM M04/M14 A3036 RMK SLP328 T10421137 52017 IEM_DS3505
ZBYN,1999-03-21 03:00,ZBYN 210300Z AUTO 02010KT 12SM M01/M20 RMK SLP338 T10111204 52006 IEM_DS3505
ZBYN,1999-03-21 04:00,ZBYN 210400Z AUTO 04014KT 6SM 00/M20 A3036 RMK T00001200 IEM_DS3505
ZBYN,1999-03-21 05:00,ZBYN 210500Z AUTO 02004KT 6SM 01/M20 A3033 RMK T00101200 IEM_DS3505
ZBYN,1999-03-21 06:00,ZBYN 210600Z AUTO 36006KT 12SM 02/M20 A3030 RMK SLP311 T00171199 57026 IEM_DS3505
ZBYN,1999-03-21 07:00,ZBYN 210700Z AUTO 35004KT 6SM 02/M17 A3027 RMK T00201170 IEM_DS3505
ZBYN,1999-03-21 08:00,ZBYN 210800Z AUTO 32002KT 6SM 03/M16 A3024 RMK T00301160 IEM_DS3505
ZBYN,1999-03-21 09:00,ZBYN 210900Z AUTO 18006KT 12SM 03/M15 A3024 RMK SLP289 T00341152 57021 IEM_DS3505
ZBYN,1999-03-21 10:00,ZBYN 211000Z AUTO 25004KT 6SM 03/M16 A3024 RMK T00301160 IEM_DS3505
ZBYN,1999-03-21 11:00,ZBYN 211100Z AUTO 25002KT 6SM 02/M14 A3024 RMK T00201140 IEM_DS3505
ZBYN,1999-03-21 12:00,ZBYN 211200Z AUTO 20002KT 11SM 00/M15 A3027 RMK SLP308 T00051149 52011 IEM_DS3505
ZBYN,1999-03-21 13:00,ZBYN 211300Z AUTO 00000KT 6SM 00/M13 A3027 RMK T00001130 IEM_DS3505
ZBYN,1999-03-21 14:00,ZBYN 211400Z AUTO 07002KT 6SM M02/M14 A3027 RMK T10201140 IEM_DS3505
ZBYN,1999-03-21 15:00,ZBYN 211500Z AUTO 09002KT 6SM M03/M14 A3027 RMK T10301140 IEM_DS3505
ZBYN,1999-03-21 16:00,ZBYN 211600Z AUTO 13004KT 6SM M05/M14 A3027 RMK T10501140 IEM_DS3505
ZBYN,1999-03-21 17:00,ZBYN 211700Z AUTO 10004KT 6SM M05/M14 A3024 RMK T10501140 IEM_DS3505
ZBYN,1999-03-21 18:00,ZBYN 211800Z AUTO 00000KT 6SM M05/M14 A3024 RMK SLP296 T10531138 57012 IEM_DS3505
ZBYN,1999-03-21 19:00,ZBYN 211900Z AUTO 05002KT 6SM M05/M14 A3024 RMK T10501140 IEM_DS3505
ZBYN,1999-03-21 20:00,ZBYN 212000Z AUTO 10002KT 6SM M05/M14 A3024 RMK T10501140 IEM_DS3505
ZBYN,1999-03-21 21:00,ZBYN 212100Z AUTO 34002KT 6SM M04/M13 A3021 RMK SLP285 T10441128 57006 IEM_DS3505
ZBYN,1999-03-21 22:00,ZBYN 212200Z AUTO 10002KT 6SM M05/M14 A3021 RMK T10501140 IEM_DS3505
ZBYN,1999-03-21 23:00,ZBYN 212300Z AUTO 00000KT 6SM M06/M13 A3021 RMK T10601130 IEM_DS3505
ZBYN,1999-03-22 00:00,ZBYN 220000Z AUTO 00000KT 5SM M04/M11 A3021 RMK SLP293 T10351113 52004 IEM_DS3505
ZBYN,1999-03-22 01:00,ZBYN 220100Z AUTO 08002KT M01/M08 A3021 RMK T10101080 IEM_DS3505
ZBYN,1999-03-22 02:00,ZBYN 220200Z AUTO 18002KT 01/M06 A3021 RMK T00101060 IEM_DS3505
ZBYN,1999-03-22 03:00,ZBYN 220300Z AUTO 18010KT 5SM 02/M09 A3018 RMK SLP273 T00191091 57013 IEM_DS3505
ZBYN,1999-03-22 04:00,ZBYN 220400Z AUTO 20010KT 04/M05 A3015 RMK T00401050 IEM_DS3505
ZBYN,1999-03-22 05:00,ZBYN 220500Z AUTO 21012KT 06/M05 A3012 RMK T00601050 IEM_DS3505
ZBYN,1999-03-22 06:00,ZBYN 220600Z AUTO 19012KT 6SM 07/M06 A3006 RMK T00701060 IEM_DS3505
ZBYN,1999-03-22 07:00,ZBYN 220700Z AUTO 19012KT 6SM 08/M06 A3003 RMK T00801060 IEM_DS3505
ZBYN,1999-03-22 08:00,ZBYN 220800Z AUTO 19010KT 6SM 09/M05 A3000 RMK T00901050 IEM_DS3505
ZBYN,1999-03-22 09:00,ZBYN 220900Z AUTO 20012KT 6SM 08/M06 A2997 RMK SLP193 T00851064 57028 IEM_DS3505
ZBYN,1999-03-22 10:00,ZBYN 221000Z AUTO 26008KT 08/M03 A2997 RMK T00801030 IEM_DS3505
ZBYN,1999-03-22 11:00,ZBYN 221100Z AUTO 22004KT 07/M03 A3000 RMK T00701030 IEM_DS3505
ZBYN,1999-03-22 12:00,ZBYN 221200Z AUTO 18004KT 6SM 06/M04 A3000 RMK SLP210 T00571035 52012 IEM_DS3505
ZBYN,1999-03-22 13:00,ZBYN 221300Z AUTO 15004KT 6SM 05/M04 A3003 RMK T00501040 IEM_DS3505
ZBYN,1999-03-22 14:00,ZBYN 221400Z AUTO 15002KT 6SM 05/M02 A3006 RMK T00501020 IEM_DS3505
ZBYN,1999-03-22 15:00,ZBYN 221500Z AUTO 16008KT 6SM 04/M03 A3003 RMK SLP211 T00381028 52007 IEM_DS3505
ZBYN,1999-03-22 16:00,ZBYN 221600Z AUTO 15004KT 6SM 02/M02 A3003 RMK T00201020 IEM_DS3505
ZBYN,1999-03-22 17:00,ZBYN 221700Z AUTO 13004KT 6SM 01/M03 A3000 RMK T00101030 IEM_DS3505
ZBYN,1999-03-22 18:00,ZBYN 221800Z AUTO 14006KT 6SM 01/M04 A3003 RMK SLP201 T00081036 57006 IEM_DS3505
ZBYN,1999-03-22 19:00,ZBYN 221900Z AUTO 16004KT 6SM 01/M02 A3000 RMK T00101020 IEM_DS3505
ZBYN,1999-03-22 20:00,ZBYN 222000Z AUTO 14004KT 6SM 01/M02 A2997 RMK T00101020 IEM_DS3505
ZBYN,1999-03-22 21:00,ZBYN 222100Z AUTO 11006KT 6SM M01/M04 A2997 RMK SLP185 T10091042 57015 IEM_DS3505
ZBYN,1999-03-22 22:00,ZBYN 222200Z AUTO 08002KT 4SM M02/M03 A2994 RMK T10201030 IEM_DS3505
ZBYN,1999-03-22 23:00,ZBYN 222300Z AUTO 09002KT 3SM M03/M04 A2994 RMK T10301040 IEM_DS3505
ZBYN,1999-03-23 00:00,ZBYN 230000Z AUTO 00000KT 5SM 00/M03 A2994 RMK SLP188 T00001034 54000 IEM_DS3505
ZBYN,1999-03-23 01:00,ZBYN 230100Z AUTO 00000KT 2SM 02/M02 A2997 RMK T00201020 IEM_DS3505
ZBYN,1999-03-23 02:00,ZBYN 230200Z AUTO 17006KT 3SM 04/M01 A2994 RMK T00401010 IEM_DS3505
ZBYN,1999-03-23 03:00,ZBYN 230300Z AUTO 16006KT 4SM 06/M03 A2991 RMK SLP162 T00621028 57017 IEM_DS3505
ZBYN,1999-03-23 04:00,ZBYN 230400Z AUTO 00000KT 3SM 08/M01 A2988 RMK T00801010 IEM_DS3505
ZBYN,1999-03-23 05:00,ZBYN 230500Z AUTO 21004KT 09/00 A2983 RMK T00900000 IEM_DS3505
ZBYN,1999-03-23 06:00,ZBYN 230600Z AUTO 18006KT 4SM 10/M02 A2980 RMK SLP123 T01031024 57034 IEM_DS3505
ZBYN,1999-03-23 07:00,ZBYN 230700Z AUTO 21004KT 6SM 13/01 A2977 RMK T01300010 IEM_DS3505
ZBYN,1999-03-23 08:00,ZBYN 230800Z AUTO 25004KT 6SM 13/01 A2977 RMK T01300010 IEM_DS3505
ZBYN,1999-03-23 09:00,ZBYN 230900Z AUTO 18008KT 6SM 13/M02 A2974 RMK SLP100 T01301022 57019 IEM_DS3505
ZBYN,1999-03-23 10:00,ZBYN 231000Z AUTO 27002KT 6SM 12/01 A2977 RMK T01200010 IEM_DS3505
ZBYN,1999-03-23 11:00,ZBYN 231100Z AUTO 00000KT 5SM 11/01 A2977 RMK T01100010 IEM_DS3505
ZBYN,1999-03-23 12:00,ZBYN 231200Z AUTO 11008KT 6SM 07/ A2977 RMK SLP127 52014 IEM_DS3505
ZBYN,1999-03-23 13:00,ZBYN 231300Z AUTO 08014KT 07/M01 A2980 RMK T00701010 IEM_DS3505
ZBYN,1999-03-23 14:00,ZBYN 231400Z AUTO 13010KT 06/M02 A2983 RMK T00601020 IEM_DS3505
ZBYN,1999-03-23 15:00,ZBYN 231500Z AUTO 16002KT 6SM 05/M03 A2983 RMK SLP132 T00511026 52019 IEM_DS3505
ZBYN,1999-03-23 16:00,ZBYN 231600Z AUTO 09010KT 05/M01 A2985 RMK T00501010 IEM_DS3505
ZBYN,1999-03-23 17:00,ZBYN 231700Z AUTO 10010KT 4SM 04/M01 A2985 RMK T00401010 IEM_DS3505
ZBYN,1999-03-23 18:00,ZBYN 231800Z AUTO 22002KT 6SM 02/M02 A2985 RMK SLP138 T00241022 52007 IEM_DS3505
ZBYN,1999-03-23 19:00,ZBYN 231900Z AUTO 11004KT 4SM 02/M01 A2985 RMK T00201010 IEM_DS3505
ZBYN,1999-03-23 20:00,ZBYN 232000Z AUTO 00000KT 4SM 00/M02 A2983 RMK T00001020 IEM_DS3505
ZBYN,1999-03-23 21:00,ZBYN 232100Z AUTO 00000KT 4SM 01/M02 A2983 RMK SLP134 T00141022 57001 IEM_DS3505
ZBYN,1999-03-23 22:00,ZBYN 232200Z AUTO 13004KT 3SM M01/M03 A2985 RMK T10101030 IEM_DS3505
ZBYN,1999-03-23 23:00,ZBYN 232300Z AUTO 11002KT 1 1/4SM M01/M03 A2988 RMK T10101030 IEM_DS3505
ZBYN,1999-03-24 00:00,ZBYN 240000Z AUTO 00000KT 2SM 01/M03 A2985 RMK SLP152 T00071033 52009 IEM_DS3505
ZBYN,1999-03-24 02:00,ZBYN 240200Z AUTO 19002KT 1 1/2SM 07/01 A2991 RMK T00700010 IEM_DS3505
ZBYN,1999-03-24 03:00,ZBYN 240300Z AUTO 07002KT 2SM 09/M00 A2985 RMK SLP145 T00891003 52001 IEM_DS3505
ZBYN,1999-03-24 04:00,ZBYN 240400Z AUTO 00000KT 11/02 A2983 RMK T01100020 IEM_DS3505
ZBYN,1999-03-24 05:00,ZBYN 240500Z AUTO 09002KT 5SM 12/02 A2980 RMK T01200020 IEM_DS3505
ZBYN,1999-03-24 06:00,ZBYN 240600Z AUTO 16002KT 3SM 13/01 A2977 RMK SLP109 T01320008 57031 IEM_DS3505
ZBYN,1999-03-24 07:00,ZBYN 240700Z AUTO 27002KT 6SM 13/02 A2974 RMK T01300020 IEM_DS3505
ZBYN,1999-03-24 08:00,ZBYN 240800Z AUTO 24002KT 6SM 13/02 A2971 RMK T01300020 IEM_DS3505
ZBYN,1999-03-24 09:00,ZBYN 240900Z AUTO 20004KT 3SM 14/01 A2971 RMK SLP090 T01350010 57018 IEM_DS3505
ZBYN,1999-03-24 10:00,ZBYN 241000Z AUTO 23002KT 3SM 13/03 A2974 RMK T01300030 IEM_DS3505
ZBYN,1999-03-24 11:00,ZBYN 241100Z AUTO 00000KT 3SM 11/04 A2974 RMK T01100040 IEM_DS3505
ZBYN,1999-03-24 12:00,ZBYN 241200Z AUTO 14004KT 2SM 09/02 A2977 RMK SLP116 T00940024 52016 IEM_DS3505
ZBYN,1999-03-24 13:00,ZBYN 241300Z AUTO 12002KT 2 1/2SM 09/03 A2980 RMK T00900030 IEM_DS3505
ZBYN,1999-03-24 14:00,ZBYN 241400Z AUTO 23002KT 2 1/2SM 09/03 A2980 RMK T00900030 IEM_DS3505
ZBYN,1999-03-24 15:00,ZBYN 241500Z AUTO 24002KT 2 1/2SM 09/03 A2983 RMK T00900030 IEM_DS3505
ZBYN,1999-03-24 16:00,ZBYN 241600Z AUTO 14004KT 2 1/2SM 09/03 A2980 RMK T00900030 IEM_DS3505
ZBYN,1999-03-24 17:00,ZBYN 241700Z AUTO 00000KT 2 1/2SM 08/02 A2977 RMK T00800020 IEM_DS3505
ZBYN,1999-03-24 18:00,ZBYN 241800Z AUTO 00000KT 2 1/2SM 07/02 A2974 RMK T00700020 IEM_DS3505
ZBYN,1999-03-24 19:00,ZBYN 241900Z AUTO 00000KT 2 1/2SM 06/02 A2974 RMK T00600020 IEM_DS3505
ZBYN,1999-03-24 20:00,ZBYN 242000Z AUTO 00000KT 2 1/2SM 04/01 A2974 RMK T00400010 IEM_DS3505
ZBYN,1999-03-24 21:00,ZBYN 242100Z AUTO 20006KT 3SM 05/01 A2977 RMK SLP104 T00480012 52006 IEM_DS3505
ZBYN,1999-03-24 22:00,ZBYN 242200Z AUTO 07002KT 2SM 03/01 A2977 RMK T00300010 IEM_DS3505
ZBYN,1999-03-24 23:00,ZBYN 242300Z AUTO 10002KT 1SM 03/00 A2977 RMK T00300000 IEM_DS3505
ZBYN,1999-03-25 00:00,ZBYN 250000Z AUTO 16004KT 1SM 03/01 RMK SLP120 T00340009 52006 IEM_DS3505
ZBYN,1999-03-25 02:00,ZBYN 250200Z AUTO 00000KT 1SM 09/03 A2980 RMK T00900030 IEM_DS3505
ZBYN,1999-03-25 03:00,ZBYN 250300Z AUTO 11002KT 1 1/4SM 11/02 A2977 RMK SLP101 T01120015 57008 IEM_DS3505
ZBYN,1999-03-25 04:00,ZBYN 250400Z AUTO 00000KT 1SM 13/04 A2977 RMK T01300040 IEM_DS3505
ZBYN,1999-03-25 05:00,ZBYN 250500Z AUTO 00000KT 1SM 15/03 A2974 RMK T01500030 IEM_DS3505
ZBYN,1999-03-25 06:00,ZBYN 250600Z AUTO 14002KT 1 1/4SM 17/M01 A2971 RMK SLP071 T01711009 57019 IEM_DS3505
ZBYN,1999-03-25 07:00,ZBYN 250700Z AUTO 09014KT 2SM 16/02 A2971 RMK T01600020 IEM_DS3505
ZBYN,1999-03-25 08:00,ZBYN 250800Z AUTO 09017KT 3SM 15/02 A2971 RMK T01500020 IEM_DS3505
ZBYN,1999-03-25 09:00,ZBYN 250900Z AUTO 09019KT 3SM 14/M02 A2971 RMK SLP077 T01421015 57003 IEM_DS3505
ZBYN,1999-03-25 10:00,ZBYN 251000Z AUTO 09017KT 2 1/2SM 11/04 A2974 RMK T01100040 IEM_DS3505
ZBYN,1999-03-25 11:00,ZBYN 251100Z AUTO 09017KT 2 1/2SM 10/04 A2980 RMK T01000040 IEM_DS3505
ZBYN,1999-03-25 12:00,ZBYN 251200Z AUTO 09014KT 3SM 10/00 A2983 RMK SLP130 T01000004 52040 IEM_DS3505
ZBYN,1999-03-25 13:00,ZBYN 251300Z AUTO 08014KT 3SM 09/04 A2988 RMK T00900040 IEM_DS3505
ZBYN,1999-03-25 14:00,ZBYN 251400Z AUTO 09014KT 3SM 09/04 A2991 RMK T00900040 IEM_DS3505
ZBYN,1999-03-25 15:00,ZBYN 251500Z AUTO 04008KT 6SM 09/M02 A2991 RMK SLP152 T00921018 52031 IEM_DS3505
ZBYN,1999-03-25 16:00,ZBYN 251600Z AUTO 07008KT 09/03 A2994 RMK T00900030 IEM_DS3505
ZBYN,1999-03-25 17:00,ZBYN 251700Z AUTO 00000KT 6SM 09/02 A2997 RMK T00900020 IEM_DS3505
ZBYN,1999-03-25 18:00,ZBYN 251800Z AUTO 00000KT 6SM 09/00 A2994 RMK SLP152 T00870001 52008 IEM_DS3505
ZBYN,1999-03-25 20:00,ZBYN 252000Z AUTO 00000KT 6SM 05/01 A2997 RMK T00500010 IEM_DS3505
ZBYN,1999-03-25 21:00,ZBYN 252100Z AUTO 09002KT 6SM 06/M01 A2997 RMK SLP160 T00561013 57002 IEM_DS3505
ZBYN,1999-03-25 22:00,ZBYN 252200Z AUTO 13002KT 6SM 04/M02 A3000 RMK T00401020 IEM_DS3505
ZBYN,1999-03-25 23:00,ZBYN 252300Z AUTO 00000KT 2 1/2SM 04/M02 A3000 RMK T00401020 IEM_DS3505
ZBYN,1999-03-26 00:00,ZBYN 260000Z AUTO 00000KT 4SM 06/01 A3006 RMK SLP201 T00560013 52031 IEM_DS3505
ZBYN,1999-03-26 01:00,ZBYN 260100Z AUTO 00000KT 2SM 06/00 A3009 RMK T00600000 IEM_DS3505
ZBYN,1999-03-26 02:00,ZBYN 260200Z AUTO 30012KT 6SM 09/M12 A3009 RMK T00901120 IEM_DS3505
ZBYN,1999-03-26 03:00,ZBYN 260300Z AUTO 29014KT 11SM 09/M16 A3009 RMK SLP216 T00861165 52017 IEM_DS3505
ZBYN,1999-03-26 05:00,ZBYN 260500Z AUTO 28010KT 6SM 11/M18 A3006 RMK T01101180 IEM_DS3505
ZBYN,1999-03-26 06:00,ZBYN 260600Z AUTO 29012KT 11SM 12/M25 A3003 RMK SLP193 T01201250 57016 IEM_DS3505
ZBYN,1999-03-26 07:00,ZBYN 260700Z AUTO 28012KT 6SM 12/M22 A3003 RMK T01201220 IEM_DS3505
ZBYN,1999-03-26 08:00,ZBYN 260800Z AUTO 28016KT 6SM 12/M22 A3000 RMK T01201220 IEM_DS3505
ZBYN,1999-03-26 09:00,ZBYN 260900Z AUTO 29010KT 12SM 12/M19 A3003 RMK SLP191 T01191187 57007 IEM_DS3505
ZBYN,1999-03-26 10:00,ZBYN 261000Z AUTO 29010KT 6SM 11/M22 A3003 RMK T01101220 IEM_DS3505
ZBYN,1999-03-26 11:00,ZBYN 261100Z AUTO 30008KT 6SM 09/M22 A3006 RMK T00901220 IEM_DS3505
ZBYN,1999-03-26 12:00,ZBYN 261200Z AUTO 29004KT 11SM 07/M16 A3009 RMK SLP217 T00731158 52016 IEM_DS3505
ZBYN,1999-03-26 13:00,ZBYN 261300Z AUTO 24002KT 6SM 07/M20 A3012 RMK T00701200 IEM_DS3505
ZBYN,1999-03-26 14:00,ZBYN 261400Z AUTO 00000KT 6SM 07/M22 A3015 RMK T00701220 IEM_DS3505
ZBYN,1999-03-26 15:00,ZBYN 261500Z AUTO 29006KT 9SM 04/M15 A3015 RMK SLP241 T00401153 52022 IEM_DS3505
ZBYN,1999-03-26 16:00,ZBYN 261600Z AUTO 33004KT 6SM 02/M19 A3015 RMK T00201190 IEM_DS3505
ZBYN,1999-03-26 17:00,ZBYN 261700Z AUTO 31004KT 6SM 01/M17 A3015 RMK T00101170 IEM_DS3505
ZBYN,1999-03-26 18:00,ZBYN 261800Z AUTO 00000KT 7SM 02/M12 A3018 RMK SLP243 T00211125 52004 IEM_DS3505
ZBYN,1999-03-26 19:00,ZBYN 261900Z AUTO 00000KT 6SM M02/M16 A3018 RMK T10201160 IEM_DS3505
ZBYN,1999-03-26 21:00,ZBYN 262100Z AUTO 36002KT 6SM 02/M14 A3018 RMK SLP243 T00241144 54000 IEM_DS3505
ZBYN,1999-03-26 22:00,ZBYN 262200Z AUTO 14002KT 6SM M02/M14 A3018 RMK T10201140 IEM_DS3505
ZBYN,1999-03-26 23:00,ZBYN 262300Z AUTO 08002KT 6SM M01/M14 A3021 RMK T10101140 IEM_DS3505
ZBYN,1999-03-27 00:00,ZBYN 270000Z AUTO 14004KT 4SM M00/M13 A3024 RMK SLP285 T10031134 52027 IEM_DS3505
ZBYN,1999-03-27 01:00,ZBYN 270100Z AUTO 00000KT 03/M13 A3027 RMK T00301130 IEM_DS3505
ZBYN,1999-03-27 02:00,ZBYN 270200Z AUTO 00000KT 04/M13 A3030 RMK T00401130 IEM_DS3505
ZBYN,1999-03-27 03:00,ZBYN 270300Z AUTO 16004KT 5SM 07/M14 A3027 RMK SLP287 T00731144 52009 IEM_DS3505
ZBYN,1999-03-27 04:00,ZBYN 270400Z AUTO 35008KT 6SM 09/M22 A3024 RMK T00901220 IEM_DS3505
ZBYN,1999-03-27 05:00,ZBYN 270500Z AUTO 35010KT 6SM 10/M17 A3021 RMK T01001170 IEM_DS3505
ZBYN,1999-03-27 06:00,ZBYN 270600Z AUTO 18010KT 12SM 12/M15 A3018 RMK SLP250 T01181147 57030 IEM_DS3505
ZBYN,1999-03-27 07:00,ZBYN 270700Z AUTO 23006KT 6SM 12/M18 A3015 RMK T01201180 IEM_DS3505
ZBYN,1999-03-27 08:00,ZBYN 270800Z AUTO 23010KT 6SM 13/M17 A3012 RMK T01301170 IEM_DS3505
ZBYN,1999-03-27 09:00,ZBYN 270900Z AUTO 32016KT 12SM 13/M21 A3012 RMK SLP226 T01261213 57020 IEM_DS3505
ZBYN,1999-03-27 10:00,ZBYN 271000Z AUTO 30012KT 6SM 12/M20 A3012 RMK T01201200 IEM_DS3505
ZBYN,1999-03-27 11:00,ZBYN 271100Z AUTO 30006KT 6SM 10/M20 A3012 RMK T01001200 IEM_DS3505
ZBYN,1999-03-27 12:00,ZBYN 271200Z AUTO 00000KT 9SM 09/M15 A3015 RMK SLP251 T00871154 52012 IEM_DS3505
ZBYN,1999-03-27 13:00,ZBYN 271300Z AUTO 34010KT 6SM 08/M20 A3018 RMK T00801200 IEM_DS3505
ZBYN,1999-03-27 14:00,ZBYN 271400Z AUTO 35008KT 6SM 08/M21 A3021 RMK T00801210 IEM_DS3505
ZBYN,1999-03-27 15:00,ZBYN 271500Z AUTO 00000KT 7SM 07/M14 A3024 RMK SLP268 T00661135 52024 IEM_DS3505
ZBYN,1999-03-27 16:00,ZBYN 271600Z AUTO 07004KT 6SM 04/M18 A3024 RMK T00401180 IEM_DS3505
ZBYN,1999-03-27 17:00,ZBYN 271700Z AUTO 12002KT 6SM 01/M21 A3021 RMK T00101210 IEM_DS3505
ZBYN,1999-03-27 18:00,ZBYN 271800Z AUTO 00000KT 7SM 02/M12 A3024 RMK SLP262 T00231121 57005 IEM_DS3505
ZBYN,1999-03-27 19:00,ZBYN 271900Z AUTO 12004KT 6SM M01/M20 A3021 RMK T10101200 IEM_DS3505
ZBYN,1999-03-27 20:00,ZBYN 272000Z AUTO 10002KT 6SM M02/M18 A3021 RMK T10201180 IEM_DS3505
ZBYN,1999-03-27 21:00,ZBYN 272100Z AUTO 00000KT 7SM M01/M13 A3021 RMK SLP267 T10111126 52001 IEM_DS3505
ZBYN,1999-03-27 22:00,ZBYN 272200Z AUTO 11002KT 6SM M02/M16 A3024 RMK T10201160 IEM_DS3505
ZBYN,1999-03-27 23:00,ZBYN 272300Z AUTO 00000KT 6SM M01/M17 A3024 RMK T10101170 IEM_DS3505
ZBYN,1999-03-28 00:00,ZBYN 280000Z AUTO 34002KT 6SM 03/M10 A3024 RMK SLP276 T00301104 52008 IEM_DS3505
ZBYN,1999-03-28 01:00,ZBYN 280100Z AUTO 33002KT 05/M16 A3024 RMK T00501160 IEM_DS3505
ZBYN,1999-03-28 02:00,ZBYN 280200Z AUTO 00000KT 08/M14 A3027 RMK T00801140 IEM_DS3505
ZBYN,1999-03-28 03:00,ZBYN 280300Z AUTO 25002KT 6SM 10/M14 A3024 RMK SLP267 T01031136 54000 IEM_DS3505
ZBYN,1999-03-28 04:00,ZBYN 280400Z AUTO 15002KT 6SM 11/M18 A3021 RMK T01101180 IEM_DS3505
ZBYN,1999-03-28 05:00,ZBYN 280500Z AUTO 16002KT 6SM 13/M17 A3018 RMK T01301170 IEM_DS3505
ZBYN,1999-03-28 06:00,ZBYN 280600Z AUTO 18006KT 12SM 14/M20 A3015 RMK SLP229 T01421201 57035 IEM_DS3505
ZBYN,1999-03-28 07:00,ZBYN 280700Z AUTO 00000KT 6SM 14/M19 A3009 RMK T01401190 IEM_DS3505
ZBYN,1999-03-28 08:00,ZBYN 280800Z AUTO 16004KT 6SM 14/M17 A3009 RMK T01401170 IEM_DS3505
ZBYN,1999-03-28 09:00,ZBYN 280900Z AUTO 14006KT 9SM 14/M17 A3009 RMK SLP214 T01421167 57019 IEM_DS3505
ZBYN,1999-03-28 10:00,ZBYN 281000Z AUTO 09012KT 12/M06 A3009 RMK T01201060 IEM_DS3505
ZBYN,1999-03-28 11:00,ZBYN 281100Z AUTO 08019KT 09/M06 A3012 RMK T00901060 IEM_DS3505
ZBYN,1999-03-28 12:00,ZBYN 281200Z AUTO 09021KT 7SM 08/M08 A3015 RMK SLP232 T00841076 52014 IEM_DS3505
ZBYN,1999-03-28 13:00,ZBYN 281300Z AUTO 08017KT 6SM 07/M04 A3018 RMK T00701040 IEM_DS3505
ZBYN,1999-03-28 14:00,ZBYN 281400Z AUTO 07014KT 6SM 06/M03 A3021 RMK T00601030 IEM_DS3505
ZBYN,1999-03-28 15:00,ZBYN 281500Z AUTO 04002KT 6SM 07/M05 A3021 RMK SLP247 T00741047 IEM_DS3505
ZBYN,1999-03-28 16:00,ZBYN 281600Z AUTO 08014KT 6SM 05/M02 A3021 RMK T00501020 IEM_DS3505
ZBYN,1999-03-28 17:00,ZBYN 281700Z AUTO 08014KT 6SM 05/M02 A3018 RMK T00501020 IEM_DS3505
ZBYN,1999-03-28 18:00,ZBYN 281800Z AUTO 34002KT 6SM 05/M04 A3018 RMK SLP236 T00481035 57008 IEM_DS3505
ZBYN,1999-03-28 19:00,ZBYN 281900Z AUTO 08002KT 6SM 04/M03 A3015 RMK T00401030 IEM_DS3505
ZBYN,1999-03-28 20:00,ZBYN 282000Z AUTO 11002KT 6SM 03/M03 A3015 RMK T00301030 IEM_DS3505
ZBYN,1999-03-28 21:00,ZBYN 282100Z AUTO 36002KT 6SM 05/M03 A3015 RMK SLP232 T00461027 57004 IEM_DS3505
ZBYN,1999-03-28 22:00,ZBYN 282200Z AUTO 00000KT 6SM 04/M02 A3015 RMK T00401020 IEM_DS3505
ZBYN,1999-03-28 23:00,ZBYN 282300Z AUTO 11002KT 4SM 04/M02 A3015 RMK T00401020 IEM_DS3505
ZBYN,1999-03-29 00:00,ZBYN 290000Z AUTO 00000KT 4SM 05/M02 A3015 RMK SLP243 T00461024 52001 IEM_DS3505
ZBYN,1999-03-29 01:00,ZBYN 290100Z AUTO 17002KT 2SM 06/M02 A3015 RMK T00601020 IEM_DS3505
ZBYN,1999-03-29 02:00,ZBYN 290200Z AUTO 22004KT 2 1/2SM 08/02 A3015 RMK T00800020 IEM_DS3505
ZBYN,1999-03-29 03:00,ZBYN 290300Z AUTO 22017KT 5SM 10/M01 A3012 RMK SLP219 T01021010 57014 IEM_DS3505
ZBYN,1999-03-29 04:00,ZBYN 290400Z AUTO 19004KT 5SM 09/01 A3009 RMK T00900010 IEM_DS3505
ZBYN,1999-03-29 05:00,ZBYN 290500Z AUTO 17004KT 5SM 11/01 A3003 RMK T01100010 IEM_DS3505
ZBYN,1999-03-29 06:00,ZBYN 290600Z AUTO 14008KT 5SM 11/M01 A3000 RMK SLP190 T01091012 57030 IEM_DS3505
ZBYN,1999-03-29 07:00,ZBYN 290700Z AUTO 16010KT 6SM 12/01 A2997 RMK T01200010 IEM_DS3505
ZBYN,1999-03-29 08:00,ZBYN 290800Z AUTO 18008KT 6SM 12/01 A2997 RMK T01200010 IEM_DS3505
ZBYN,1999-03-29 09:00,ZBYN 290900Z AUTO 18010KT 6SM 13/M02 A2994 RMK SLP160 T01261019 57025 IEM_DS3505
ZBYN,1999-03-29 10:00,ZBYN 291000Z AUTO 16012KT 6SM 11/M01 A2991 RMK T01101010 IEM_DS3505
ZBYN,1999-03-29 11:00,ZBYN 291100Z AUTO 17014KT 6SM 10/M01 A2994 RMK T01001010 IEM_DS3505
ZBYN,1999-03-29 12:00,ZBYN 291200Z AUTO 20016KT 6SM 11/M03 A2997 RMK SLP175 T01091033 52011 IEM_DS3505
ZBYN,1999-03-29 13:00,ZBYN 291300Z AUTO 18006KT 6SM 09/M01 A2997 RMK T00901010 IEM_DS3505
ZBYN,1999-03-29 14:00,ZBYN 291400Z AUTO 15006KT 6SM 07/00 A2997 RMK T00700000 IEM_DS3505
ZBYN,1999-03-29 15:00,ZBYN 291500Z AUTO 16010KT 6SM 08/M03 A2997 RMK SLP167 T00801026 57003 IEM_DS3505
ZBYN,1999-03-29 16:00,ZBYN 291600Z AUTO 15008KT 6SM 06/M01 A2997 RMK T00601010 IEM_DS3505
ZBYN,1999-03-29 17:00,ZBYN 291700Z AUTO 14010KT 6SM 05/M01 A2994 RMK T00501010 IEM_DS3505
ZBYN,1999-03-29 18:00,ZBYN 291800Z AUTO 14012KT 6SM 04/M03 A2994 RMK SLP162 T00441026 57009 IEM_DS3505
ZBYN,1999-03-29 19:00,ZBYN 291900Z AUTO 14006KT 6SM 04/M01 A2994 RMK T00401010 IEM_DS3505
ZBYN,1999-03-29 20:00,ZBYN 292000Z AUTO 12006KT 6SM 02/M01 A2991 RMK T00201010 IEM_DS3505
ZBYN,1999-03-29 21:00,ZBYN 292100Z AUTO 11010KT 6SM 03/M02 A2988 RMK SLP147 T00281021 57013 IEM_DS3505
ZBYN,1999-03-29 22:00,ZBYN 292200Z AUTO 13008KT 6SM 02/M01 A2988 RMK T00201010 IEM_DS3505
ZBYN,1999-03-29 23:00,ZBYN 292300Z AUTO 12008KT 6SM 02/M01 A2988 RMK T00201010 IEM_DS3505
ZBYN,1999-03-30 00:00,ZBYN 300000Z AUTO 00000KT 4SM A2988 RMK 52007 IEM_DS3505
ZBYN,1999-03-30 01:00,ZBYN 300100Z AUTO 14004KT 6SM 07/00 A2991 RMK T00700000 IEM_DS3505
ZBYN,1999-03-30 02:00,ZBYN 300200Z AUTO 16002KT 6SM 08/01 A2988 RMK T00800010 IEM_DS3505
ZBYN,1999-03-30 03:00,ZBYN 300300Z AUTO 14004KT 5SM 09/M00 A2988 RMK SLP135 T00881001 57009 IEM_DS3505
ZBYN,1999-03-30 04:00,ZBYN 300400Z AUTO 00000KT 6SM 11/01 A2983 RMK T01100010 IEM_DS3505
ZBYN,1999-03-30 05:00,ZBYN 300500Z AUTO 16004KT 6SM 14/01 A2983 RMK T01400010 IEM_DS3505
ZBYN,1999-03-30 06:00,ZBYN 300600Z AUTO 18010KT 5SM 08/ A2980 RMK SLP169 57041 IEM_DS3505
ZBYN,1999-03-30 07:00,ZBYN 300700Z AUTO 23006KT 6SM 15/01 A2977 RMK T01500010 IEM_DS3505
ZBYN,1999-03-30 08:00,ZBYN 300800Z AUTO 20004KT 6SM 15/01 A2974 RMK T01500010 IEM_DS3505
ZBYN,1999-03-30 09:00,ZBYN 300900Z AUTO 18010KT 6SM 16/M00 A2974 RMK SLP086 T01591003 57019 IEM_DS3505
ZBYN,1999-03-30 12:00,ZBYN 301200Z AUTO 00000KT 6SM 12/03 A2977 RMK SLP102 T01210027 52011 IEM_DS3505
ZBYN,1999-03-30 13:00,ZBYN 301300Z AUTO 10002KT 6SM 10/M02 A2980 RMK T01001020 IEM_DS3505
ZBYN,1999-03-30 14:00,ZBYN 301400Z AUTO 11006KT 6SM 10/M04 A2980 RMK T01001040 IEM_DS3505
ZBYN,1999-03-30 15:00,ZBYN 301500Z AUTO 18002KT 6SM 08/M02 A2980 RMK SLP114 T00801015 52012 IEM_DS3505
ZBYN,1999-03-30 16:00,ZBYN 301600Z AUTO 11004KT 6SM 08/M07 A2980 RMK T00801070 IEM_DS3505
ZBYN,1999-03-30 17:00,ZBYN 301700Z AUTO 09004KT 6SM 08/M05 A2983 RMK T00801050 IEM_DS3505
ZBYN,1999-03-30 18:00,ZBYN 301800Z AUTO 14004KT 6SM 08/M04 A2980 RMK SLP106 T00771045 52001 IEM_DS3505
ZBYN,1999-03-30 19:00,ZBYN 301900Z AUTO 11004KT 6SM 06/M01 A2980 RMK T00601010 IEM_DS3505
ZBYN,1999-03-30 20:00,ZBYN 302000Z AUTO 11006KT 6SM 06/M02 A2977 RMK T00601020 IEM_DS3505
ZBYN,1999-03-30 21:00,ZBYN 302100Z AUTO 00000KT 4SM A2977 RMK 57004 IEM_DS3505
ZBYN,1999-03-30 22:00,ZBYN 302200Z AUTO 16002KT 6SM 06/00 A2980 RMK T00600000 IEM_DS3505
ZBYN,1999-03-30 23:00,ZBYN 302300Z AUTO 08006KT 5SM 07/01 A2980 RMK T00700010 IEM_DS3505
ZBYN,1999-03-31 00:00,ZBYN 310000Z AUTO 14002KT 5SM 07/00 RMK SLP110 T00700002 52010 IEM_DS3505
ZBYN,1999-03-31 01:00,ZBYN 310100Z AUTO 10004KT 09/00 A2980 RMK T00900000 IEM_DS3505
ZBYN,1999-03-31 02:00,ZBYN 310200Z AUTO 16002KT 5SM 11/01 A2980 RMK T01100010 IEM_DS3505
ZBYN,1999-03-31 03:00,ZBYN 310300Z AUTO 00000KT 4SM 12/01 A2977 RMK SLP101 T01160006 57008 IEM_DS3505
ZBYN,1999-03-31 04:00,ZBYN 310400Z AUTO 25002KT 5SM 13/02 A2977 RMK T01300020 IEM_DS3505
ZBYN,1999-03-31 05:00,ZBYN 310500Z AUTO 14004KT 5SM 14/02 A2971 RMK T01400020 IEM_DS3505
ZBYN,1999-03-31 06:00,ZBYN 310600Z AUTO 11008KT 5SM 16/02 A2968 RMK SLP067 T01590017 57025 IEM_DS3505
ZBYN,1999-03-31 07:00,ZBYN 310700Z AUTO 20002KT 6SM 18/03 A2965 RMK T01800030 IEM_DS3505
ZBYN,1999-03-31 08:00,ZBYN 310800Z AUTO 25010KT 6SM 18/04 A2968 RMK T01800040 IEM_DS3505
ZBYN,1999-03-31 09:00,ZBYN 310900Z AUTO 34008KT 6SM 18/03 A2971 RMK SLP064 T01840033 54000 IEM_DS3505
ZBYN,1999-03-31 11:00,ZBYN 311100Z AUTO 01012KT 6SM 15/04 A2980 RMK T01500040 IEM_DS3505
ZBYN,1999-03-31 12:00,ZBYN 311200Z AUTO 36008KT 6SM 14/M01 A2983 RMK SLP118 T01441012 52043 IEM_DS3505
ZBYN,1999-03-31 13:00,ZBYN 311300Z AUTO 11002KT 6SM 14/M01 A2985 RMK T01401010 IEM_DS3505
ZBYN,1999-03-31 14:00,ZBYN 311400Z AUTO 00000KT 6SM 12/03 A2991 RMK T01200030 IEM_DS3505
ZBYN,1999-03-31 15:00,ZBYN 311500Z AUTO 34002KT 6SM 13/M00 A2991 RMK SLP147 T01271003 52031 IEM_DS3505
ZBYN,1999-03-31 16:00,ZBYN 311600Z AUTO 08006KT 6SM 10/03 A2994 RMK T01000030 IEM_DS3505
ZBYN,1999-03-31 18:00,ZBYN 311800Z AUTO 32008KT 6SM 11/M00 RMK SLP159 T01101004 52015 IEM_DS3505
ZBYN,1999-03-31 20:00,ZBYN 312000Z AUTO 32014KT 6SM 11/M01 A3003 RMK T01101010 IEM_DS3505
ZBYN,1999-03-31 21:00,ZBYN 312100Z AUTO 34006KT 6SM 09/M04 A3003 RMK SLP179 T00921036 52019 IEM_DS3505
ZBYN,1999-03-31 22:00,ZBYN 312200Z AUTO 31012KT 6SM 09/M04 A3006 RMK T00901040 IEM_DS3505
ZBYN,1999-03-31 23:00,ZBYN 312300Z AUTO 30014KT 6SM 09/M07 A3009 RMK T00901070 IEM_DS3505
ZBYN,1999-04-01 00:00,ZBYN 010000Z AUTO 34008KT 6SM 09/M15 A3009 RMK SLP212 T00861149 52023 IEM_DS3505
ZBYN,1999-04-01 01:00,ZBYN 010100Z AUTO 31012KT 6SM 10/M13 A3012 RMK T01001130 IEM_DS3505
ZBYN,1999-04-01 02:00,ZBYN 010200Z AUTO 31012KT 6SM 11/M14 A3012 RMK T01101140 IEM_DS3505
ZBYN,1999-04-01 03:00,ZBYN 010300Z AUTO 32010KT 12SM 10/M15 A3012 RMK SLP217 T01041154 52005 IEM_DS3505
ZBYN,1999-04-01 04:00,ZBYN 010400Z AUTO 30014KT 6SM 13/M16 A3009 RMK T01301160 IEM_DS3505
ZBYN,1999-04-01 05:00,ZBYN 010500Z AUTO 30017KT 6SM 15/M15 A3006 RMK T01501150 IEM_DS3505
ZBYN,1999-04-01 06:00,ZBYN 010600Z AUTO 28017KT 6SM 15/M16 A3003 RMK T01501160 IEM_DS3505
ZBYN,1999-04-01 07:00,ZBYN 010700Z AUTO 30017KT 6SM 15/M16 A3003 RMK T01501160 IEM_DS3505
ZBYN,1999-04-01 08:00,ZBYN 010800Z AUTO 30012KT 6SM 14/M15 A3003 RMK T01401150 IEM_DS3505
ZBYN,1999-04-01 09:00,ZBYN 010900Z AUTO 32012KT 12SM 14/M18 A3006 RMK SLP190 T01371179 54000 IEM_DS3505
ZBYN,1999-04-01 10:00,ZBYN 011000Z AUTO 30016KT 6SM 13/M15 A3006 RMK T01301150 IEM_DS3505
ZBYN,1999-04-01 11:00,ZBYN 011100Z AUTO 29010KT 6SM 11/M14 A3009 RMK T01101140 IEM_DS3505
ZBYN,1999-04-01 12:00,ZBYN 011200Z AUTO 29006KT 9SM 10/M09 A3012 RMK SLP222 T00951093 52022 IEM_DS3505
ZBYN,1999-04-01 13:00,ZBYN 011300Z AUTO 25004KT 6SM 09/M12 A3015 RMK T00901120 IEM_DS3505
ZBYN,1999-04-01 14:00,ZBYN 011400Z AUTO 04002KT 6SM 06/M12 A3018 RMK T00601120 IEM_DS3505
ZBYN,1999-04-01 15:00,ZBYN 011500Z AUTO 36002KT 9SM 06/M11 A3018 RMK SLP247 T00651106 52021 IEM_DS3505
ZBYN,1999-04-01 16:00,ZBYN 011600Z AUTO 01002KT 6SM 05/M14 A3021 RMK T00501140 IEM_DS3505
ZBYN,1999-04-01 17:00,ZBYN 011700Z AUTO 12002KT 6SM 06/M03 A3024 RMK T00601030 IEM_DS3505
ZBYN,1999-04-01 18:00,ZBYN 011800Z AUTO 36004KT 6SM 06/M10 A3024 RMK SLP261 T00631100 52019 IEM_DS3505
ZBYN,1999-04-01 19:00,ZBYN 011900Z AUTO 28004KT 6SM 06/M10 A3024 RMK T00601100 IEM_DS3505
ZBYN,1999-04-01 20:00,ZBYN 012000Z AUTO 32012KT 6SM 06/M12 A3024 RMK T00601120 IEM_DS3505
ZBYN,1999-04-01 21:00,ZBYN 012100Z AUTO 32004KT 6SM 05/M11 A3027 RMK SLP271 T00461108 52005 IEM_DS3505
ZBYN,1999-04-01 22:00,ZBYN 012200Z AUTO 32006KT 6SM 03/M11 A3027 RMK T00301110 IEM_DS3505
ZBYN,1999-04-01 23:00,ZBYN 012300Z AUTO 33006KT 6SM 04/M11 A3027 RMK T00401110 IEM_DS3505
ZBYN,1999-04-02 00:00,ZBYN 020000Z AUTO 32008KT 16SM 05/M10 A3030 RMK SLP292 T00541097 52014 IEM_DS3505
ZBYN,1999-04-02 02:00,ZBYN 020200Z AUTO 30006KT 6SM 08/M09 A3030 RMK T00801090 IEM_DS3505
ZBYN,1999-04-02 03:00,ZBYN 020300Z AUTO 34004KT 16SM 10/M11 A3030 RMK SLP281 T01021106 57007 IEM_DS3505
ZBYN,1999-04-02 04:00,ZBYN 020400Z AUTO 22006KT 6SM 11/M12 A3027 RMK T01101120 IEM_DS3505
ZBYN,1999-04-02 05:00,ZBYN 020500Z AUTO 24008KT 6SM 12/M10 A3024 RMK T01201100 IEM_DS3505
ZBYN,1999-04-02 06:00,ZBYN 020600Z AUTO 14008KT 12SM 14/M11 A3021 RMK SLP244 T01351114 57029 IEM_DS3505
ZBYN,1999-04-02 07:00,ZBYN 020700Z AUTO 18006KT 6SM 13/M11 A3015 RMK T01301110 IEM_DS3505
ZBYN,1999-04-02 08:00,ZBYN 020800Z AUTO 18004KT 7SM 14/M12 A3012 RMK T01401120 IEM_DS3505
ZBYN,1999-04-02 09:00,ZBYN 020900Z AUTO 18008KT 12SM 14/M14 A3009 RMK SLP210 T01351142 57034 IEM_DS3505
ZBYN,1999-04-02 10:00,ZBYN 021000Z AUTO 15004KT 6SM A3009 RMK IEM_DS3505
ZBYN,1999-04-02 11:00,ZBYN 021100Z AUTO 00000KT 6SM 12/M12 A3009 RMK T01201120 IEM_DS3505
ZBYN,1999-04-02 12:00,ZBYN 021200Z AUTO 09004KT 12SM 10/M09 A3009 RMK SLP216 T00951088 52001 IEM_DS3505
ZBYN,1999-04-02 13:00,ZBYN 021300Z AUTO 09002KT 6SM 07/M12 A3015 RMK T00701120 IEM_DS3505
ZBYN,1999-04-02 14:00,ZBYN 021400Z AUTO 13002KT 6SM 05/M13 A3015 RMK T00501130 IEM_DS3505
ZBYN,1999-04-02 15:00,ZBYN 021500Z AUTO 00000KT 9SM 07/M07 A3015 RMK SLP226 T00721067 52013 IEM_DS3505
ZBYN,1999-04-02 16:00,ZBYN 021600Z AUTO 12004KT 6SM 05/M12 A3015 RMK T00501120 IEM_DS3505
ZBYN,1999-04-02 17:00,ZBYN 021700Z AUTO 00000KT 6SM 05/M11 A3015 RMK T00501110 IEM_DS3505
ZBYN,1999-04-02 18:00,ZBYN 021800Z AUTO 00000KT 6SM 04/M09 A3012 RMK SLP217 T00421089 57008 IEM_DS3505
ZBYN,1999-04-02 21:00,ZBYN 022100Z AUTO 16002KT 6SM 04/M08 RMK SLP215 T00361076 57003 IEM_DS3505
ZBYN,1999-04-03 00:00,ZBYN 030000Z AUTO 00000KT 6SM 05/M06 RMK SLP228 T00481057 52008 IEM_DS3505
ZBYN,1999-04-03 01:00,ZBYN 030100Z AUTO 20002KT 5SM 09/M09 A3009 RMK T00901090 IEM_DS3505
ZBYN,1999-04-03 02:00,ZBYN 030200Z AUTO 25008KT 6SM 12/M07 A3006 RMK T01201070 IEM_DS3505
ZBYN,1999-04-03 03:00,ZBYN 030300Z AUTO 18006KT 6SM 15/M14 A3006 RMK SLP187 T01521136 57025 IEM_DS3505
ZBYN,1999-04-03 04:00,ZBYN 030400Z AUTO 32023KT 6SM 17/M12 A3000 RMK T01701120 IEM_DS3505
ZBYN,1999-04-03 05:00,ZBYN 030500Z AUTO 32025KT 6SM 18/M14 A2997 RMK T01801140 IEM_DS3505
ZBYN,1999-04-03 06:00,ZBYN 030600Z AUTO 32021KT 6SM 18/M17 A2994 RMK SLP152 T01811174 4////0031 57032 IEM_DS3505
ZBYN,1999-04-03 07:00,ZBYN 030700Z AUTO 32021G31KT 6SM 19/M14 A2991 RMK T01901140 IEM_DS3505
ZBYN,1999-04-03 08:00,ZBYN 030800Z AUTO 30021G33KT 6SM 18/M14 A2991 RMK T01801140 IEM_DS3505
ZBYN,1999-04-03 09:00,ZBYN 030900Z AUTO 34010KT 6SM 17/M17 A2991 RMK SLP141 T01741166 57012 IEM_DS3505
ZBYN,1999-04-03 10:00,ZBYN 031000Z AUTO 31012KT 16/M14 A2991 RMK T01601140 IEM_DS3505
ZBYN,1999-04-03 11:00,ZBYN 031100Z AUTO 32010KT 15/M13 A2994 RMK T01501130 IEM_DS3505
ZBYN,1999-04-03 12:00,ZBYN 031200Z AUTO 29006KT 4SM 15/M09 A2997 RMK SLP170 T01461093 52024 IEM_DS3505
ZBYN,1999-04-03 13:00,ZBYN 031300Z AUTO 29006KT 6SM 14/M13 A3003 RMK T01401130 IEM_DS3505
ZBYN,1999-04-03 14:00,ZBYN 031400Z AUTO 31004KT 6SM 12/M13 A3003 RMK T01201130 IEM_DS3505
ZBYN,1999-04-03 15:00,ZBYN 031500Z AUTO 32004KT 6SM 11/M09 A3003 RMK SLP181 T01061089 52019 IEM_DS3505
ZBYN,1999-04-03 16:00,ZBYN 031600Z AUTO 26004KT 6SM 10/M11 A3006 RMK T01001110 IEM_DS3505
ZBYN,1999-04-03 17:00,ZBYN 031700Z AUTO 12002KT 6SM 07/M11 A3006 RMK T00701110 IEM_DS3505
ZBYN,1999-04-03 18:00,ZBYN 031800Z AUTO 00000KT 6SM 07/M08 A3006 RMK SLP189 T00671076 52006 IEM_DS3505
ZBYN,1999-04-03 19:00,ZBYN 031900Z AUTO 00000KT 6SM 02/M12 A3003 RMK T00201120 IEM_DS3505
ZBYN,1999-04-03 20:00,ZBYN 032000Z AUTO 00000KT 6SM 03/M12 A3003 RMK T00301120 IEM_DS3505
ZBYN,1999-04-03 21:00,ZBYN 032100Z AUTO 00000KT 6SM 05/M10 A3003 RMK SLP181 T00491101 57011 IEM_DS3505
ZBYN,1999-04-03 22:00,ZBYN 032200Z AUTO 12006KT 6SM 00/M13 A3003 RMK T00001130 IEM_DS3505
ZBYN,1999-04-03 23:00,ZBYN 032300Z AUTO 12004KT 6SM 01/M13 A3006 RMK T00101130 IEM_DS3505
ZBYN,1999-04-04 00:00,ZBYN 040000Z AUTO 00000KT 5SM 05/M08 RMK SLP196 T00501084 52010 IEM_DS3505
ZBYN,1999-04-04 02:00,ZBYN 040200Z AUTO 18002KT 12/M08 A3006 RMK T01201080 IEM_DS3505
ZBYN,1999-04-04 03:00,ZBYN 040300Z AUTO 18010KT 6SM 15/M11 A3003 RMK SLP176 T01541108 57009 IEM_DS3505
ZBYN,1999-04-04 04:00,ZBYN 040400Z AUTO 22004KT 7SM 17/M09 A2997 RMK T01701090 IEM_DS3505
ZBYN,1999-04-04 05:00,ZBYN 040500Z AUTO 26008KT 7SM 18/M09 A2994 RMK T01801090 IEM_DS3505
ZBYN,1999-04-04 06:00,ZBYN 040600Z AUTO 27027KT 6SM 21/M16 A2988 RMK SLP130 T02061160 4////0004 57040 IEM_DS3505
ZBYN,1999-04-04 07:00,ZBYN 040700Z AUTO 30012KT 7SM 20/ RMK IEM_DS3505
ZBYN,1999-04-04 08:00,ZBYN 040800Z AUTO 31016KT 7SM 21/M10 A2983 RMK T02101100 IEM_DS3505
ZBYN,1999-04-04 09:00,ZBYN 040900Z AUTO 27019KT 5SM 19/M17 A2983 RMK SLP112 T01931173 57021 IEM_DS3505
ZBYN,1999-04-04 10:00,ZBYN 041000Z AUTO 28016KT 18/M09 A2983 RMK T01801090 IEM_DS3505
ZBYN,1999-04-04 11:00,ZBYN 041100Z AUTO 26012KT 17/M09 A2983 RMK T01701090 IEM_DS3505
ZBYN,1999-04-04 12:00,ZBYN 041200Z AUTO 27016KT 4SM 18/M15 A2983 RMK SLP119 T01751151 52004 IEM_DS3505
ZBYN,1999-04-04 13:00,ZBYN 041300Z AUTO 30014KT 17/M12 A2985 RMK T01701120 IEM_DS3505
ZBYN,1999-04-04 14:00,ZBYN 041400Z AUTO 29012KT 16/M12 A2988 RMK T01601120 IEM_DS3505
ZBYN,1999-04-04 15:00,ZBYN 041500Z AUTO 29014KT 2 1/2SM 16/ A2988 RMK SLP120 52014 IEM_DS3505
ZBYN,1999-04-04 16:00,ZBYN 041600Z AUTO 29012KT 15/M12 A2988 RMK T01501120 IEM_DS3505
ZBYN,1999-04-04 17:00,ZBYN 041700Z AUTO 29008KT 15/M13 A2988 RMK T01501130 IEM_DS3505
ZBYN,1999-04-04 18:00,ZBYN 041800Z AUTO 32008KT 2 1/2SM 14/M18 A2988 RMK SLP112 T01391177 40213//// 57003 IEM_DS3505
ZBYN,1999-04-04 19:00,ZBYN 041900Z AUTO 30010KT 13/M15 A2985 RMK T01301150 IEM_DS3505
ZBYN,1999-04-04 20:00,ZBYN 042000Z AUTO 29010KT 12/M15 A2985 RMK T01201150 IEM_DS3505
ZBYN,1999-04-04 21:00,ZBYN 042100Z AUTO 32004KT 6SM 11/M19 A2988 RMK SLP116 T01081192 57003 IEM_DS3505
ZBYN,1999-04-04 22:00,ZBYN 042200Z AUTO 35008KT 6SM 09/M14 A2988 RMK T00901140 IEM_DS3505
ZBYN,1999-04-04 23:00,ZBYN 042300Z AUTO 00000KT 6SM 07/M10 A2991 RMK T00701100 IEM_DS3505
ZBYN,1999-04-05 00:00,ZBYN 050000Z AUTO 32006KT 5SM 10/M14 A2991 RMK SLP138 T01041144 52017 IEM_DS3505
ZBYN,1999-04-05 01:00,ZBYN 050100Z AUTO 31019G29KT 6SM 12/M14 A2991 RMK T01201140 IEM_DS3505
ZBYN,1999-04-05 02:00,ZBYN 050200Z AUTO 32025G35KT 13/M18 A2994 RMK T01301180 IEM_DS3505
ZBYN,1999-04-05 03:00,ZBYN 050300Z AUTO 32025KT 6SM 13/M24 A2994 RMK SLP150 T01331238 52013 IEM_DS3505
ZBYN,1999-04-05 04:00,ZBYN 050400Z AUTO 34023KT 6SM 14/M19 A2994 RMK T01401190 IEM_DS3505
ZBYN,1999-04-05 06:00,ZBYN 050600Z AUTO 36010KT 9SM 15/M20 A2991 RMK SLP139 T01541204 4////0082 57010 IEM_DS3505
ZBYN,1999-04-05 07:00,ZBYN 050700Z AUTO 36017KT 6SM 16/M17 A2991 RMK T01601170 IEM_DS3505
ZBYN,1999-04-05 08:00,ZBYN 050800Z AUTO 32017KT 6SM 16/M18 A2991 RMK T01601180 IEM_DS3505
ZBYN,1999-04-05 09:00,ZBYN 050900Z AUTO 32010KT 7SM 15/M20 A2991 RMK SLP143 T01541204 57001 IEM_DS3505
ZBYN,1999-04-05 10:00,ZBYN 051000Z AUTO 32016KT 6SM 15/M18 A2994 RMK T01501180 IEM_DS3505
ZBYN,1999-04-05 11:00,ZBYN 051100Z AUTO 30012KT 6SM 13/M17 A2994 RMK T01301170 IEM_DS3505
ZBYN,1999-04-05 12:00,ZBYN 051200Z AUTO 32006KT 11SM 12/M16 A3000 RMK SLP169 T01171157 52018 IEM_DS3505
ZBYN,1999-04-05 13:00,ZBYN 051300Z AUTO 28002KT 6SM 10/M16 A3003 RMK T01001160 IEM_DS3505
ZBYN,1999-04-05 14:00,ZBYN 051400Z AUTO 32002KT 6SM 08/M16 A3003 RMK T00801160 IEM_DS3505
ZBYN,1999-04-05 15:00,ZBYN 051500Z AUTO 00000KT 9SM 08/M10 A3003 RMK SLP186 T00771101 52014 IEM_DS3505
ZBYN,1999-04-05 16:00,ZBYN 051600Z AUTO 05002KT 6SM 04/M15 A3003 RMK T00401150 IEM_DS3505
ZBYN,1999-04-05 17:00,ZBYN 051700Z AUTO 12004KT 6SM 01/M16 A3003 RMK T00101160 IEM_DS3505
ZBYN,1999-04-05 18:00,ZBYN 051800Z AUTO 11002KT 9SM 03/M13 A3000 RMK SLP183 T00311127 57007 IEM_DS3505
ZBYN,1999-04-05 20:00,ZBYN 052000Z AUTO 00000KT 6SM 01/M15 A3003 RMK T00101150 IEM_DS3505
ZBYN,1999-04-05 21:00,ZBYN 052100Z AUTO 00000KT 9SM 02/M09 A3000 RMK SLP182 T00151093 57003 IEM_DS3505
ZBYN,1999-04-05 22:00,ZBYN 052200Z AUTO 12002KT 6SM 00/M14 A3000 RMK T00001140 IEM_DS3505
ZBYN,1999-04-05 23:00,ZBYN 052300Z AUTO 11002KT 6SM 01/M13 A3003 RMK T00101130 IEM_DS3505
ZBYN,1999-04-06 00:00,ZBYN 060000Z AUTO 00000KT 5SM 03/M08 A3003 RMK SLP198 T00341084 52012 IEM_DS3505
ZBYN,1999-04-06 01:00,ZBYN 060100Z AUTO 14002KT 6SM 07/M13 A3003 RMK T00701130 IEM_DS3505
ZBYN,1999-04-06 02:00,ZBYN 060200Z AUTO 17004KT 6SM 10/M13 A3000 RMK T01001130 IEM_DS3505
ZBYN,1999-04-06 03:00,ZBYN 060300Z AUTO 14004KT 5SM 12/M12 A3000 RMK SLP169 T01241125 57019 IEM_DS3505
ZBYN,1999-04-06 04:00,ZBYN 060400Z AUTO 17004KT 6SM 15/M13 A2994 RMK T01501130 IEM_DS3505
ZBYN,1999-04-06 05:00,ZBYN 060500Z AUTO 18006KT 6SM 17/M14 A2991 RMK T01701140 IEM_DS3505
ZBYN,1999-04-06 06:00,ZBYN 060600Z AUTO 16012KT 7SM 18/M15 A2988 RMK SLP129 T01791152 57035 IEM_DS3505
ZBYN,1999-04-06 07:00,ZBYN 060700Z AUTO 20004KT 6SM 20/M13 A2983 RMK T02001130 IEM_DS3505
ZBYN,1999-04-06 08:00,ZBYN 060800Z AUTO 23004KT 6SM 20/M14 A2980 RMK T02001140 IEM_DS3505
ZBYN,1999-04-06 09:00,ZBYN 060900Z AUTO 20006KT 9SM 19/M15 RMK SLP099 T01941148 57028 IEM_DS3505
ZBYN,1999-04-06 10:00,ZBYN 061000Z AUTO 24002KT 6SM 19/M11 A2980 RMK T01901110 IEM_DS3505
ZBYN,1999-04-06 11:00,ZBYN 061100Z AUTO 00000KT 6SM 17/M09 A2980 RMK T01701090 IEM_DS3505
ZBYN,1999-04-06 12:00,ZBYN 061200Z AUTO 11004KT 6SM 14/M06 A2983 RMK SLP118 T01441061 52013 IEM_DS3505
ZBYN,1999-04-06 13:00,ZBYN 061300Z AUTO 11002KT 6SM 11/M12 A2983 RMK T01101120 IEM_DS3505
ZBYN,1999-04-06 14:00,ZBYN 061400Z AUTO 09008KT 6SM 13/M11 A2985 RMK T01301110 IEM_DS3505
ZBYN,1999-04-06 15:00,ZBYN 061500Z AUTO 32004KT 6SM 11/M06 A2985 RMK SLP120 T01071057 52010 IEM_DS3505
ZBYN,1999-04-06 16:00,ZBYN 061600Z AUTO 36002KT 6SM 11/M09 A2985 RMK T01101090 IEM_DS3505
ZBYN,1999-04-06 17:00,ZBYN 061700Z AUTO 00000KT 6SM 07/M09 A2988 RMK T00701090 IEM_DS3505
ZBYN,1999-04-06 18:00,ZBYN 061800Z AUTO 20002KT 6SM 06/M06 A2988 RMK SLP128 T00631056 52009 IEM_DS3505
ZBYN,1999-04-06 19:00,ZBYN 061900Z AUTO 00000KT 6SM 07/M08 A2988 RMK T00701080 IEM_DS3505
ZBYN,1999-04-06 20:00,ZBYN 062000Z AUTO 00000KT 6SM 05/M09 A2988 RMK T00501090 IEM_DS3505
ZBYN,1999-04-06 21:00,ZBYN 062100Z AUTO 00000KT 6SM 06/M07 A2988 RMK SLP129 T00601074 52002 IEM_DS3505
ZBYN,1999-04-06 22:00,ZBYN 062200Z AUTO 11002KT 6SM 02/M09 A2991 RMK T00201090 IEM_DS3505
ZBYN,1999-04-07 00:00,ZBYN 070000Z AUTO 34002KT 5SM 09/M06 A2994 RMK SLP151 T00861062 52017 IEM_DS3505
ZBYN,1999-04-07 01:00,ZBYN 070100Z AUTO 00000KT 11/M07 A2994 RMK T01101070 IEM_DS3505
ZBYN,1999-04-07 02:00,ZBYN 070200Z AUTO 00000KT 5SM 14/M06 A2991 RMK T01401060 IEM_DS3505
ZBYN,1999-04-07 03:00,ZBYN 070300Z AUTO 36002KT 5SM 16/M06 A2991 RMK SLP136 T01641058 57008 IEM_DS3505
ZBYN,1999-04-07 04:00,ZBYN 070400Z AUTO 00000KT 18/M05 A2988 RMK T01801050 IEM_DS3505
ZBYN,1999-04-07 05:00,ZBYN 070500Z AUTO 32002KT 5SM 21/M07 A2985 RMK T02101070 IEM_DS3505
ZBYN,1999-04-07 06:00,ZBYN 070600Z AUTO 22006KT 6SM 23/M06 RMK SLP106 T02291059 57024 IEM_DS3505
ZBYN,1999-04-07 07:00,ZBYN 070700Z AUTO 27002KT 6SM 23/M11 A2983 RMK T02301110 IEM_DS3505
ZBYN,1999-04-07 08:00,ZBYN 070800Z AUTO 25004KT 6SM 22/M09 A2980 RMK T02201090 IEM_DS3505
ZBYN,1999-04-07 09:00,ZBYN 070900Z AUTO 14006KT 6SM 20/M02 A2983 RMK SLP106 T02021020 57004 IEM_DS3505
ZBYN,1999-04-07 10:00,ZBYN 071000Z AUTO 07012KT 19/M06 A2985 RMK T01901060 IEM_DS3505
ZBYN,1999-04-07 11:00,ZBYN 071100Z AUTO 08017KT 5SM 17/M04 A2985 RMK T01701040 IEM_DS3505
ZBYN,1999-04-07 12:00,ZBYN 071200Z AUTO 02004KT 6SM 18/M04 A2988 RMK SLP132 T01761040 52023 IEM_DS3505
ZBYN,1999-04-07 13:00,ZBYN 071300Z AUTO 07014KT 6SM 15/M02 A2991 RMK T01501020 IEM_DS3505
ZBYN,1999-04-07 14:00,ZBYN 071400Z AUTO 10012KT 6SM 15/M01 A2994 RMK T01501010 IEM_DS3505
ZBYN,1999-04-07 15:00,ZBYN 071500Z AUTO 11006KT 6SM 14/M03 A2997 RMK SLP148 T01441027 52022 IEM_DS3505
ZBYN,1999-04-07 16:00,ZBYN 071600Z AUTO 09012KT 6SM 14/M01 A2997 RMK T01401010 IEM_DS3505
ZBYN,1999-04-07 17:00,ZBYN 071700Z AUTO 09012KT 6SM 13/00 A2997 RMK T01300000 IEM_DS3505
ZBYN,1999-04-07 18:00,ZBYN 071800Z AUTO 00000KT 6SM 13/01 RMK SLP148 T01280008 52007 IEM_DS3505
ZBYN,1999-04-07 20:00,ZBYN 072000Z AUTO 08012KT 6SM 12/04 A2997 RMK T01200040 IEM_DS3505
ZBYN,1999-04-07 21:00,ZBYN 072100Z AUTO 00000KT 6SM 11/02 A3000 RMK SLP155 T01110019 54000 IEM_DS3505
ZBYN,1999-04-07 22:00,ZBYN 072200Z AUTO 06008KT 6SM 12/03 A2997 RMK T01200030 IEM_DS3505
ZBYN,1999-04-07 23:00,ZBYN 072300Z AUTO 06006KT 12/02 A3000 RMK T01200020 IEM_DS3505
ZBYN,1999-04-08 00:00,ZBYN 080000Z AUTO 36004KT 5SM 12/03 A3000 RMK SLP167 T01180026 52008 IEM_DS3505
ZBYN,1999-04-08 01:00,ZBYN 080100Z AUTO 07008KT 13/02 A3003 RMK T01300020 IEM_DS3505
ZBYN,1999-04-08 02:00,ZBYN 080200Z AUTO 08008KT 4SM 13/03 A3003 RMK T01300030 IEM_DS3505
ZBYN,1999-04-08 03:00,ZBYN 080300Z AUTO 00000KT 4SM 12/05 A3006 RMK SLP180 T01230048 52008 IEM_DS3505
ZBYN,1999-04-08 04:00,ZBYN 080400Z AUTO 09002KT 2 1/2SM 11/08 A3003 RMK T01100080 IEM_DS3505
ZBYN,1999-04-08 05:00,ZBYN 080500Z AUTO 12002KT 2SM 11/09 A3003 RMK T01100090 IEM_DS3505
ZBYN,1999-04-08 06:00,ZBYN 080600Z AUTO 00000KT 4SM 10/08 A3003 RMK SLP182 T01010079 57004 IEM_DS3505
ZBYN,1999-04-08 07:00,ZBYN 080700Z AUTO 33002KT 2SM 11/10 A3000 RMK T01100100 IEM_DS3505
ZBYN,1999-04-08 08:00,ZBYN 080800Z AUTO 33004KT 1SM 11/11 A2997 RMK T01100110 IEM_DS3505
ZBYN,1999-04-08 09:00,ZBYN 080900Z AUTO 00000KT 4SM 12/09 A2997 RMK SLP157 T01180089 57023 IEM_DS3505
ZBYN,1999-04-08 10:00,ZBYN 081000Z AUTO 33004KT 1SM 12/11 A2994 RMK T01200110 IEM_DS3505
ZBYN,1999-04-08 11:00,ZBYN 081100Z AUTO 26002KT 1SM 11/11 RMK T01100110 IEM_DS3505
ZBYN,1999-04-08 13:00,ZBYN 081300Z AUTO 00000KT 1SM 10/10 A2994 RMK T01000100 IEM_DS3505
ZBYN,1999-04-08 14:00,ZBYN 081400Z AUTO 00000KT 1SM 09/09 A2997 RMK T00900090 IEM_DS3505
ZBYN,1999-04-08 15:00,ZBYN 081500Z AUTO 00000KT 5SM 10/08 A2997 RMK SLP161 T00970079 52011 IEM_DS3505
ZBYN,1999-04-08 16:00,ZBYN 081600Z AUTO 11002KT 2 1/2SM 08/08 A2994 RMK T00800080 IEM_DS3505
ZBYN,1999-04-08 17:00,ZBYN 081700Z AUTO 16002KT 3SM 09/09 A2994 RMK T00900090 IEM_DS3505
ZBYN,1999-04-08 18:00,ZBYN 081800Z AUTO 00000KT 2 1/2SM 09/07 A2991 RMK SLP152 T00870071 57013 IEM_DS3505
ZBYN,1999-04-08 19:00,ZBYN 081900Z AUTO 00000KT 1/4SM 09/09 A2991 RMK T00900090 IEM_DS3505
ZBYN,1999-04-08 20:00,ZBYN 082000Z AUTO 00000KT 1/4SM 09/09 A2991 RMK T00900090 IEM_DS3505
ZBYN,1999-04-08 21:00,ZBYN 082100Z AUTO 00000KT 1 1/4SM 09/08 A2991 RMK SLP150 T00870079 52001 IEM_DS3505
ZBYN,1999-04-08 22:00,ZBYN 082200Z AUTO 00000KT 1/8SM 07/07 A2991 RMK T00700070 IEM_DS3505
ZBYN,1999-04-08 23:00,ZBYN 082300Z AUTO 00000KT 1/8SM 08/08 A2994 RMK T00800080 IEM_DS3505
ZBYN,1999-04-09 00:00,ZBYN 090000Z AUTO 00000KT 1/8SM 08/07 RMK SLP170 T00750073 52016 IEM_DS3505
ZBYN,1999-04-09 01:00,ZBYN 090100Z AUTO 17002KT 1/8SM 08/08 A2997 RMK T00800080 IEM_DS3505
ZBYN,1999-04-09 02:00,ZBYN 090200Z AUTO 21004KT 1/8SM 08/08 A3000 RMK T00800080 IEM_DS3505
ZBYN,1999-04-09 03:00,ZBYN 090300Z AUTO 14004KT 1/4SM 10/09 RMK SLP171 T00980088 52002 IEM_DS3505
ZBYN,1999-04-09 04:00,ZBYN 090400Z AUTO 24004KT 1 1/4SM 14/12 A2997 RMK T01400120 IEM_DS3505
ZBYN,1999-04-09 05:00,ZBYN 090500Z AUTO 21002KT 2SM 16/11 A2994 RMK T01600110 IEM_DS3505
ZBYN,1999-04-09 06:00,ZBYN 090600Z AUTO 18010KT 4SM 18/09 A2991 RMK SLP132 T01790093 57025 IEM_DS3505
ZBYN,1999-04-09 07:00,ZBYN 090700Z AUTO 23008KT 6SM 19/10 A2988 RMK T01900100 IEM_DS3505
ZBYN,1999-04-09 08:00,ZBYN 090800Z AUTO 23006KT 6SM 20/11 A2985 RMK T02000110 IEM_DS3505
ZBYN,1999-04-09 09:00,ZBYN 090900Z AUTO 22010KT 7SM 20/07 A2985 RMK SLP107 T02030072 57019 IEM_DS3505
ZBYN,1999-04-09 10:00,ZBYN 091000Z AUTO 24004KT 7SM 20/09 A2983 RMK T02000090 IEM_DS3505
ZBYN,1999-04-09 11:00,ZBYN 091100Z AUTO 00000KT 6SM 19/10 A2985 RMK T01900100 IEM_DS3505
ZBYN,1999-04-09 12:00,ZBYN 091200Z AUTO 16004KT 6SM 17/08 A2985 RMK SLP122 T01680084 52006 IEM_DS3505
ZBYN,1999-04-09 13:00,ZBYN 091300Z AUTO 11002KT 6SM 13/10 A2988 RMK T01300100 IEM_DS3505
ZBYN,1999-04-09 14:00,ZBYN 091400Z AUTO 13002KT 6SM 12/09 A2991 RMK T01200090 IEM_DS3505
ZBYN,1999-04-09 15:00,ZBYN 091500Z AUTO 09002KT 6SM 12/08 A2994 RMK SLP152 T01250085 52025 IEM_DS3505
ZBYN,1999-04-09 16:00,ZBYN 091600Z AUTO 10004KT 4SM 10/09 A2994 RMK T01000090 IEM_DS3505
ZBYN,1999-04-09 17:00,ZBYN 091700Z AUTO 10008KT 4SM 11/08 A2994 RMK T01100080 IEM_DS3505
ZBYN,1999-04-09 18:00,ZBYN 091800Z AUTO 00000KT 6SM 11/08 A2994 RMK SLP146 T01080078 52004 IEM_DS3505
ZBYN,1999-04-09 19:00,ZBYN 091900Z AUTO 10002KT 4SM 10/08 A2994 RMK T01000080 IEM_DS3505
ZBYN,1999-04-09 20:00,ZBYN 092000Z AUTO 08006KT 4SM 12/10 A2994 RMK T01200100 IEM_DS3505
ZBYN,1999-04-09 21:00,ZBYN 092100Z AUTO 32002KT 5SM 08/05 A2994 RMK SLP144 T00760050 57003 IEM_DS3505
ZBYN,1999-04-09 22:00,ZBYN 092200Z AUTO 00000KT 2 1/2SM 10/08 A2994 RMK T01000080 IEM_DS3505
ZBYN,1999-04-09 23:00,ZBYN 092300Z AUTO 34002KT 1 1/4SM 10/08 A2997 RMK T01000080 IEM_DS3505
ZBYN,1999-04-10 00:00,ZBYN 100000Z AUTO 00000KT 4SM 11/06 A2997 RMK SLP151 T01120059 52006 IEM_DS3505
ZBYN,1999-04-10 01:00,ZBYN 100100Z AUTO 07014KT 2 1/2SM 14/09 A2994 RMK T01400090 IEM_DS3505
ZBYN,1999-04-10 02:00,ZBYN 100200Z AUTO 07014KT 16/09 A2994 RMK T01600090 IEM_DS3505
ZBYN,1999-04-10 03:00,ZBYN 100300Z AUTO 18002KT 6SM 19/08 A2991 RMK SLP132 T01870083 57012 IEM_DS3505
ZBYN,1999-04-10 04:00,ZBYN 100400Z AUTO 13002KT 5SM 21/09 A2988 RMK T02100090 IEM_DS3505
ZBYN,1999-04-10 05:00,ZBYN 100500Z AUTO 16012KT 7SM 23/07 A2985 RMK T02300070 IEM_DS3505
ZBYN,1999-04-10 06:00,ZBYN 100600Z AUTO 11012KT 6SM 23/07 A2983 RMK SLP087 T02300070 57045 IEM_DS3505
ZBYN,1999-04-10 07:00,ZBYN 100700Z AUTO 15014KT 6SM 24/06 A2974 RMK T02400060 IEM_DS3505
ZBYN,1999-04-10 08:00,ZBYN 100800Z AUTO 16014KT 6SM 24/06 A2971 RMK T02400060 IEM_DS3505
ZBYN,1999-04-10 09:00,ZBYN 100900Z AUTO 11014KT 6SM 23/05 A2971 RMK SLP052 T02310054 57037 IEM_DS3505
ZBYN,1999-04-10 10:00,ZBYN 101000Z AUTO 16012KT 7SM 23/03 A2968 RMK T02300030 IEM_DS3505
ZBYN,1999-04-10 11:00,ZBYN 101100Z AUTO 16010KT 6SM 21/02 A2971 RMK T02100020 IEM_DS3505
ZBYN,1999-04-10 12:00,ZBYN 101200Z AUTO 18016KT 6SM 20/01 A2974 RMK SLP074 T01990011 52021 IEM_DS3505
ZBYN,1999-04-10 13:00,ZBYN 101300Z AUTO 22006KT 7SM 18/08 A2980 RMK T01800080 IEM_DS3505
ZBYN,1999-04-10 14:00,ZBYN 101400Z AUTO 26010KT 7SM 13/12 A2983 RMK T01300120 IEM_DS3505
ZBYN,1999-04-10 15:00,ZBYN 101500Z AUTO 20010KT 4SM 13/10 A2983 RMK SLP101 T01290097 52025 IEM_DS3505
ZBYN,1999-04-10 16:00,ZBYN 101600Z AUTO 16006KT 7SM 12/12 A2983 RMK T01200120 IEM_DS3505
ZBYN,1999-04-10 17:00,ZBYN 101700Z AUTO 14004KT 7SM 12/12 A2980 RMK T01200120 IEM_DS3505
ZBYN,1999-04-10 18:00,ZBYN 101800Z AUTO 14006KT 4SM 12/11 A2980 RMK SLP079 T01170108 57015 IEM_DS3505
ZBYN,1999-04-10 19:00,ZBYN 101900Z AUTO 00000KT 7SM 12/12 A2977 RMK T01200120 IEM_DS3505
ZBYN,1999-04-10 20:00,ZBYN 102000Z AUTO 00000KT 3SM 12/12 A2974 RMK T01200120 IEM_DS3505
ZBYN,1999-04-10 21:00,ZBYN 102100Z AUTO 14008KT 4SM 12/10 A2971 RMK SLP059 T01160105 57019 IEM_DS3505
ZBYN,1999-04-10 22:00,ZBYN 102200Z AUTO 13004KT 3SM 11/11 A2971 RMK T01100110 IEM_DS3505
ZBYN,1999-04-10 23:00,ZBYN 102300Z AUTO 12002KT 1SM 11/11 A2974 RMK T01100110 IEM_DS3505
ZBYN,1999-04-11 00:00,ZBYN 110000Z AUTO 14002KT 4SM 12/11 A2974 RMK SLP070 T01220112 52006 IEM_DS3505
ZBYN,1999-04-11 02:00,ZBYN 110200Z AUTO 27002KT 2SM 13/13 A2974 RMK T01300130 IEM_DS3505
ZBYN,1999-04-11 03:00,ZBYN 110300Z AUTO 14006KT 3SM 15/11 A2974 RMK SLP075 T01530114 57001 IEM_DS3505
ZBYN,1999-04-11 04:00,ZBYN 110400Z AUTO 00000KT 2 1/2SM 16/13 A2971 RMK T01600130 IEM_DS3505
ZBYN,1999-04-11 05:00,ZBYN 110500Z AUTO 15002KT 2SM 17/13 A2968 RMK T01700130 IEM_DS3505
ZBYN,1999-04-11 06:00,ZBYN 110600Z AUTO 14006KT 4SM 19/11 A2965 RMK SLP040 T01860110 57029 IEM_DS3505
ZBYN,1999-04-11 07:00,ZBYN 110700Z AUTO 20006KT 2 1/2SM 19/13 A2962 RMK T01900130 IEM_DS3505
ZBYN,1999-04-11 08:00,ZBYN 110800Z AUTO 23006KT 19/13 A2959 RMK T01900130 IEM_DS3505
ZBYN,1999-04-11 09:00,ZBYN 110900Z AUTO 32004KT 7SM 20/02 A2959 RMK SLP028 T01970015 57009 IEM_DS3505
ZBYN,1999-04-11 10:00,ZBYN 111000Z AUTO 29008KT 6SM 20/06 A2959 RMK T02000060 IEM_DS3505
ZBYN,1999-04-11 11:00,ZBYN 111100Z AUTO 32019KT 7SM 19/M03 A2965 RMK T01901030 IEM_DS3505
ZBYN,1999-04-11 12:00,ZBYN 111200Z AUTO 32014KT 6SM 18/M07 A2968 RMK SLP056 T01771074 52023 IEM_DS3505
ZBYN,1999-04-11 13:00,ZBYN 111300Z AUTO 31016KT 3SM 17/M07 A2971 RMK T01701070 IEM_DS3505
ZBYN,1999-04-11 14:00,ZBYN 111400Z AUTO 31016KT 2 1/2SM 16/M06 A2971 RMK T01601060 IEM_DS3505
ZBYN,1999-04-11 15:00,ZBYN 111500Z AUTO 29012KT 6SM 16/M10 A2974 RMK SLP066 T01591102 52011 IEM_DS3505
ZBYN,1999-04-11 16:00,ZBYN 111600Z AUTO 32012KT 2 1/2SM 15/M06 A2974 RMK T01501060 IEM_DS3505
ZBYN,1999-04-11 17:00,ZBYN 111700Z AUTO 33014KT 5SM 13/M02 A2977 RMK T01301020 IEM_DS3505
ZBYN,1999-04-11 18:00,ZBYN 111800Z AUTO 34008KT 6SM 12/M02 A2977 RMK SLP081 T01191019 40205//// 52013 IEM_DS3505
ZBYN,1999-04-11 19:00,ZBYN 111900Z AUTO 30012KT 6SM 11/00 A2977 RMK T01100000 IEM_DS3505
ZBYN,1999-04-11 20:00,ZBYN 112000Z AUTO 31017KT 6SM 10/00 A2977 RMK T01000000 IEM_DS3505
ZBYN,1999-04-11 21:00,ZBYN 112100Z AUTO 32016KT 6SM 09/M03 A2980 RMK SLP096 T00921028 52011 IEM_DS3505
ZBYN,1999-04-11 22:00,ZBYN 112200Z AUTO 34010KT 6SM 09/M01 A2983 RMK T00901010 IEM_DS3505
ZBYN,1999-04-11 23:00,ZBYN 112300Z AUTO 35014KT 6SM 08/00 A2985 RMK T00800000 IEM_DS3505
ZBYN,1999-04-12 00:00,ZBYN 120000Z AUTO 36016KT 12SM 09/M02 A2985 RMK SLP130 T00861020 52028 IEM_DS3505
ZBYN,1999-04-12 01:00,ZBYN 120100Z AUTO 35014KT 6SM 10/M02 A2988 RMK T01001020 IEM_DS3505
ZBYN,1999-04-12 02:00,ZBYN 120200Z AUTO 03016KT 6SM 11/M02 A2991 RMK T01101020 IEM_DS3505
ZBYN,1999-04-12 03:00,ZBYN 120300Z AUTO 36012KT 12SM 12/M05 A2991 RMK SLP135 T01221053 52007 IEM_DS3505
ZBYN,1999-04-12 05:00,ZBYN 120500Z AUTO 36014KT 6SM 15/M06 A2991 RMK T01501060 IEM_DS3505
ZBYN,1999-04-12 06:00,ZBYN 120600Z AUTO 36006KT 12SM 15/M10 A2988 RMK SLP129 T01491102 4////0074 57008 IEM_DS3505
ZBYN,1999-04-12 07:00,ZBYN 120700Z AUTO 01010KT 7SM 15/M09 A2988 RMK T01501090 IEM_DS3505
ZBYN,1999-04-12 08:00,ZBYN 120800Z AUTO 36017KT 6SM 16/M09 A2985 RMK T01601090 IEM_DS3505
ZBYN,1999-04-12 09:00,ZBYN 120900Z AUTO 36006KT 12SM 16/M11 A2985 RMK SLP123 T01551109 57008 IEM_DS3505
ZBYN,1999-04-12 10:00,ZBYN 121000Z AUTO 01014KT 6SM 15/M10 A2988 RMK T01501100 IEM_DS3505
ZBYN,1999-04-12 11:00,ZBYN 121100Z AUTO 01010KT 6SM 13/M11 A2991 RMK T01301110 IEM_DS3505
ZBYN,1999-04-12 12:00,ZBYN 121200Z AUTO 34008KT 12SM 12/M08 RMK SLP163 T01211080 52030 IEM_DS3505
ZBYN,1999-04-12 13:00,ZBYN 121300Z AUTO 00000KT 6SM 11/M09 A3000 RMK T01101090 IEM_DS3505
ZBYN,1999-04-12 14:00,ZBYN 121400Z AUTO 10002KT 6SM 08/M06 A3003 RMK T00801060 IEM_DS3505
ZBYN,1999-04-12 15:00,ZBYN 121500Z AUTO 00000KT 12SM 09/M06 A3003 RMK SLP186 T00871056 52022 IEM_DS3505
ZBYN,1999-04-12 16:00,ZBYN 121600Z AUTO 13002KT 6SM 04/M05 A3006 RMK T00401050 IEM_DS3505
ZBYN,1999-04-12 17:00,ZBYN 121700Z AUTO 12002KT 6SM 04/M04 A3006 RMK T00401040 IEM_DS3505
ZBYN,1999-04-12 18:00,ZBYN 121800Z AUTO 07002KT 7SM 05/M05 RMK SLP194 T00521054 52006 IEM_DS3505
ZBYN,1999-04-12 19:00,ZBYN 121900Z AUTO 00000KT 6SM 03/M04 A3006 RMK T00301040 IEM_DS3505
ZBYN,1999-04-12 21:00,ZBYN 122100Z AUTO 00000KT 11SM 04/M06 RMK SLP199 T00371058 52003 IEM_DS3505
ZBYN,1999-04-12 22:00,ZBYN 122200Z AUTO 14002KT 6SM 01/M04 A3009 RMK T00101040 IEM_DS3505
ZBYN,1999-04-12 23:00,ZBYN 122300Z AUTO 00000KT 6SM 01/M01 A3009 RMK T00101010 IEM_DS3505
ZBYN,1999-04-13 00:00,ZBYN 130000Z AUTO 00000KT 5SM 05/M04 A3009 RMK SLP221 T00471039 52016 IEM_DS3505
ZBYN,1999-04-13 01:00,ZBYN 130100Z AUTO 00000KT 6SM 08/M04 A3009 RMK T00801040 IEM_DS3505
ZBYN,1999-04-13 02:00,ZBYN 130200Z AUTO 15002KT 6SM 10/M05 A3009 RMK T01001050 IEM_DS3505
ZBYN,1999-04-13 03:00,ZBYN 130300Z AUTO 20008KT 6SM 14/M07 A3006 RMK SLP196 T01361066 57014 IEM_DS3505
ZBYN,1999-04-13 05:00,ZBYN 130500Z AUTO 22008KT 6SM 16/M05 A3003 RMK T01601050 IEM_DS3505
ZBYN,1999-04-13 06:00,ZBYN 130600Z AUTO 16012KT 7SM 16/M05 A2997 RMK SLP168 T01611051 57027 IEM_DS3505
ZBYN,1999-04-13 07:00,ZBYN 130700Z AUTO 20008KT 6SM 17/M04 A2994 RMK T01701040 IEM_DS3505
ZBYN,1999-04-13 08:00,ZBYN 130800Z AUTO 20004KT 6SM 18/M04 A2991 RMK T01801040 IEM_DS3505
ZBYN,1999-04-13 09:00,ZBYN 130900Z AUTO 18012KT 9SM 18/M09 A2988 RMK SLP139 T01751087 57027 IEM_DS3505
ZBYN,1999-04-13 10:00,ZBYN 131000Z AUTO 22004KT 6SM 18/M07 A2988 RMK T01801070 IEM_DS3505
ZBYN,1999-04-13 11:00,ZBYN 131100Z AUTO 16002KT 6SM 16/M03 A2991 RMK T01601030 IEM_DS3505
ZBYN,1999-04-13 12:00,ZBYN 131200Z AUTO 16002KT 12SM 13/00 A2994 RMK SLP157 T01270003 52011 IEM_DS3505
ZBYN,1999-04-13 13:00,ZBYN 131300Z AUTO 19002KT 6SM 12/M03 A2994 RMK T01201030 IEM_DS3505
ZBYN,1999-04-13 14:00,ZBYN 131400Z AUTO 17002KT 6SM 12/00 A2997 RMK T01200000 IEM_DS3505
ZBYN,1999-04-13 15:00,ZBYN 131500Z AUTO 14004KT 7SM 10/M01 A2997 RMK SLP159 T00971007 52011 IEM_DS3505
ZBYN,1999-04-13 16:00,ZBYN 131600Z AUTO 12002KT 6SM 08/01 A2997 RMK T00800010 IEM_DS3505
ZBYN,1999-04-13 17:00,ZBYN 131700Z AUTO 10006KT 6SM 06/01 A2997 RMK T00600010 IEM_DS3505
ZBYN,1999-04-13 18:00,ZBYN 131800Z AUTO 11004KT 6SM 07/M01 A2997 RMK SLP161 T00701010 52001 IEM_DS3505
ZBYN,1999-04-13 19:00,ZBYN 131900Z AUTO 10008KT 6SM 07/00 A2997 RMK T00700000 IEM_DS3505
ZBYN,1999-04-13 20:00,ZBYN 132000Z AUTO 12002KT 6SM 05/00 A2997 RMK T00500000 IEM_DS3505
ZBYN,1999-04-13 21:00,ZBYN 132100Z AUTO 11006KT 6SM 05/M02 A2997 RMK SLP164 T00481018 52002 IEM_DS3505
ZBYN,1999-04-13 22:00,ZBYN 132200Z AUTO 11002KT 6SM 04/M01 A3000 RMK T00401010 IEM_DS3505
ZBYN,1999-04-13 23:00,ZBYN 132300Z AUTO 13004KT 6SM 06/00 A3000 RMK T00600000 IEM_DS3505
ZBYN,1999-04-14 00:00,ZBYN 140000Z AUTO 14006KT 5SM 09/M00 A3000 RMK SLP177 T00941005 52011 IEM_DS3505
ZBYN,1999-04-14 01:00,ZBYN 140100Z AUTO 16004KT 6SM 12/M01 A3000 RMK T01201010 IEM_DS3505
ZBYN,1999-04-14 02:00,ZBYN 140200Z AUTO 19004KT 6SM 15/M01 A2997 RMK T01501010 IEM_DS3505
ZBYN,1999-04-14 03:00,ZBYN 140300Z AUTO 16014KT 6SM 17/M02 A2994 RMK SLP149 T01671018 57019 IEM_DS3505
ZBYN,1999-04-14 04:00,ZBYN 140400Z AUTO 21006KT 6SM 20/M01 A2991 RMK T02001010 IEM_DS3505
ZBYN,1999-04-14 05:00,ZBYN 140500Z AUTO 22012KT 7SM 21/M01 A2985 RMK T02101010 IEM_DS3505
ZBYN,1999-04-14 06:00,ZBYN 140600Z AUTO 20021KT 7SM 23/M02 A2980 RMK SLP092 T02321023 57046 IEM_DS3505
ZBYN,1999-04-14 07:00,ZBYN 140700Z AUTO 24016KT 7SM 24/M02 A2977 RMK T02401020 IEM_DS3505
ZBYN,1999-04-14 08:00,ZBYN 140800Z AUTO 23012KT 7SM 24/M02 A2974 RMK T02401020 IEM_DS3505
ZBYN,1999-04-14 09:00,ZBYN 140900Z AUTO 22017KT 11SM 22/M04 A2974 RMK SLP075 T02251035 57020 IEM_DS3505
ZBYN,1999-04-14 10:00,ZBYN 141000Z AUTO 23010KT 7SM 22/M01 A2974 RMK T02201010 IEM_DS3505
ZBYN,1999-04-14 11:00,ZBYN 141100Z AUTO 23008KT 7SM 20/02 A2974 RMK T02000020 IEM_DS3505
ZBYN,1999-04-14 12:00,ZBYN 141200Z AUTO 20012KT 11SM 20/M00 A2977 RMK SLP081 T01991003 52008 IEM_DS3505
ZBYN,1999-04-14 13:00,ZBYN 141300Z AUTO 24012KT 7SM 18/01 A2980 RMK T01800010 IEM_DS3505
ZBYN,1999-04-14 14:00,ZBYN 141400Z AUTO 25010KT 7SM 18/03 A2983 RMK T01800030 IEM_DS3505
ZBYN,1999-04-14 15:00,ZBYN 141500Z AUTO 00000KT 6SM 16/03 A2983 RMK SLP096 T01590028 52019 IEM_DS3505
ZBYN,1999-04-14 16:00,ZBYN 141600Z AUTO 22002KT 6SM 15/05 A2985 RMK T01500050 IEM_DS3505
ZBYN,1999-04-14 17:00,ZBYN 141700Z AUTO 12004KT 6SM 12/05 A2988 RMK T01200050 IEM_DS3505
ZBYN,1999-04-14 18:00,ZBYN 141800Z AUTO 07006KT 6SM 13/03 A2988 RMK SLP111 T01300026 52019 IEM_DS3505
ZBYN,1999-04-14 21:00,ZBYN 142100Z AUTO 32002KT 6SM 10/M02 RMK SLP136 T01011017 52017 IEM_DS3505
ZBYN,1999-04-14 23:00,ZBYN 142300Z AUTO 00000KT 6SM 08/04 A3000 RMK T00800040 IEM_DS3505
ZBYN,1999-04-15 00:00,ZBYN 150000Z AUTO 00000KT 6SM 13/M03 A3000 RMK SLP156 T01301027 52019 IEM_DS3505
ZBYN,1999-04-15 01:00,ZBYN 150100Z AUTO 34010KT 6SM 17/M07 A3000 RMK T01701070 IEM_DS3505
ZBYN,1999-04-15 02:00,ZBYN 150200Z AUTO 01008KT 6SM 18/M09 A3000 RMK T01801090 IEM_DS3505
ZBYN,1999-04-15 03:00,ZBYN 150300Z AUTO 04008KT 9SM 20/M09 A3000 RMK SLP152 T01951088 54000 IEM_DS3505
ZBYN,1999-04-15 04:00,ZBYN 150400Z AUTO 30004KT 6SM 21/M09 A2997 RMK T02101090 IEM_DS3505
ZBYN,1999-04-15 05:00,ZBYN 150500Z AUTO 34002KT 6SM 22/M09 A2994 RMK T02201090 IEM_DS3505
ZBYN,1999-04-15 06:00,ZBYN 150600Z AUTO 00000KT 9SM 23/M05 A2991 RMK SLP124 T02321052 57024 IEM_DS3505
ZBYN,1999-04-15 07:00,ZBYN 150700Z AUTO 32002KT 6SM 23/M08 A2991 RMK T02301080 IEM_DS3505
ZBYN,1999-04-15 08:00,ZBYN 150800Z AUTO 27006KT 6SM 23/M06 A2988 RMK T02301060 IEM_DS3505
ZBYN,1999-04-15 09:00,ZBYN 150900Z AUTO 20006KT 9SM 23/M06 A2988 RMK SLP115 T02271060 57014 IEM_DS3505
ZBYN,1999-04-15 10:00,ZBYN 151000Z AUTO 23002KT 6SM 22/M06 A2988 RMK T02201060 IEM_DS3505
ZBYN,1999-04-15 11:00,ZBYN 151100Z AUTO 00000KT 6SM 21/M05 A2988 RMK T02101050 IEM_DS3505
ZBYN,1999-04-15 12:00,ZBYN 151200Z AUTO 02002KT 7SM 18/00 A2988 RMK SLP124 T01840003 52007 IEM_DS3505
ZBYN,1999-04-15 13:00,ZBYN 151300Z AUTO 06002KT 6SM 16/M04 A2991 RMK T01601040 IEM_DS3505
ZBYN,1999-04-15 14:00,ZBYN 151400Z AUTO 10002KT 6SM 14/M04 A2994 RMK T01401040 IEM_DS3505
ZBYN,1999-04-15 15:00,ZBYN 151500Z AUTO 36002KT 6SM 13/M02 A2994 RMK SLP138 T01321023 52014 IEM_DS3505
ZBYN,1999-04-15 16:00,ZBYN 151600Z AUTO 03002KT 6SM 12/M04 A2994 RMK T01201040 IEM_DS3505
ZBYN,1999-04-15 17:00,ZBYN 151700Z AUTO 18002KT 6SM 11/M05 A2994 RMK T01101050 IEM_DS3505
ZBYN,1999-04-15 18:00,ZBYN 151800Z AUTO 02002KT 6SM 10/M02 A2997 RMK SLP146 T01051022 52009 IEM_DS3505
ZBYN,1999-04-15 19:00,ZBYN 151900Z AUTO 05002KT 6SM 10/M05 A2994 RMK T01001050 IEM_DS3505
ZBYN,1999-04-15 20:00,ZBYN 152000Z AUTO 00000KT 6SM 10/M05 A2994 RMK T01001050 IEM_DS3505
ZBYN,1999-04-15 21:00,ZBYN 152100Z AUTO 00000KT 6SM 10/M04 A2994 RMK T01001040 IEM_DS3505
ZBYN,1999-04-15 22:00,ZBYN 152200Z AUTO 00000KT 09/M03 A2994 RMK T00901030 IEM_DS3505
ZBYN,1999-04-15 23:00,ZBYN 152300Z AUTO 33002KT 6SM 09/M01 A2997 RMK T00901010 IEM_DS3505
ZBYN,1999-04-16 00:00,ZBYN 160000Z AUTO 34002KT 6SM 12/M03 A2997 RMK SLP151 T01211031 52014 IEM_DS3505
ZBYN,1999-04-16 01:00,ZBYN 160100Z AUTO 35006KT 6SM 16/M07 A3000 RMK T01601070 IEM_DS3505
ZBYN,1999-04-16 03:00,ZBYN 160300Z AUTO 18004KT 6SM 21/M02 A2997 RMK SLP140 T02071018 57005 IEM_DS3505
ZBYN,1999-04-16 04:00,ZBYN 160400Z AUTO 16002KT 6SM 21/01 A2994 RMK T02100010 IEM_DS3505
ZBYN,1999-04-16 05:00,ZBYN 160500Z AUTO 00000KT 6SM 22/03 A2988 RMK T02200030 IEM_DS3505
ZBYN,1999-04-16 06:00,ZBYN 160600Z AUTO 18006KT 6SM 23/03 A2988 RMK SLP114 T02260033 57025 IEM_DS3505
ZBYN,1999-04-16 07:00,ZBYN 160700Z AUTO 26006KT 6SM 23/04 A2985 RMK T02300040 IEM_DS3505
ZBYN,1999-04-16 08:00,ZBYN 160800Z AUTO 22004KT 6SM 23/04 A2983 RMK T02300040 IEM_DS3505
ZBYN,1999-04-16 09:00,ZBYN 160900Z AUTO 18010KT 7SM 23/03 A2980 RMK SLP089 T02320029 57025 IEM_DS3505
ZBYN,1999-04-16 10:00,ZBYN 161000Z AUTO 21002KT 6SM 23/03 A2980 RMK T02300030 IEM_DS3505
ZBYN,1999-04-16 11:00,ZBYN 161100Z AUTO 21006KT 6SM 21/00 A2983 RMK T02100000 IEM_DS3505
ZBYN,1999-04-16 12:00,ZBYN 161200Z AUTO 20010KT 6SM 19/01 A2985 RMK SLP116 T01910009 52022 IEM_DS3505
ZBYN,1999-04-16 13:00,ZBYN 161300Z AUTO 22010KT 6SM 18/00 A2988 RMK T01800000 IEM_DS3505
ZBYN,1999-04-16 14:00,ZBYN 161400Z AUTO 23008KT 6SM 18/00 A2988 RMK T01800000 IEM_DS3505
ZBYN,1999-04-16 15:00,ZBYN 161500Z AUTO 22010KT 6SM 16/01 A2988 RMK SLP110 T01650007 52003 IEM_DS3505
ZBYN,1999-04-16 16:00,ZBYN 161600Z AUTO 19006KT 6SM 16/01 A2988 RMK T01600010 IEM_DS3505
ZBYN,1999-04-16 17:00,ZBYN 161700Z AUTO 15008KT 6SM 15/03 A2988 RMK T01500030 IEM_DS3505
ZBYN,1999-04-16 18:00,ZBYN 161800Z AUTO 11006KT 6SM 13/02 A2985 RMK SLP103 T01330021 57008 IEM_DS3505
ZBYN,1999-04-16 19:00,ZBYN 161900Z AUTO 10004KT 6SM 12/05 A2985 RMK T01200050 IEM_DS3505
ZBYN,1999-04-16 20:00,ZBYN 162000Z AUTO 11006KT 6SM 11/05 A2985 RMK T01100050 IEM_DS3505
ZBYN,1999-04-16 21:00,ZBYN 162100Z AUTO 11002KT 6SM 10/04 A2985 RMK SLP106 T01030038 57001 IEM_DS3505
ZBYN,1999-04-16 22:00,ZBYN 162200Z AUTO 11006KT 6SM 10/05 A2985 RMK T01000050 IEM_DS3505
ZBYN,1999-04-16 23:00,ZBYN 162300Z AUTO 10002KT 3SM 10/06 A2988 RMK T01000060 IEM_DS3505
ZBYN,1999-04-17 00:00,ZBYN 170000Z AUTO 14006KT 5SM 12/05 A2988 RMK SLP119 T01250051 52009 IEM_DS3505
ZBYN,1999-04-17 01:00,ZBYN 170100Z AUTO 13004KT 15/06 A2988 RMK T01500060 IEM_DS3505
ZBYN,1999-04-17 02:00,ZBYN 170200Z AUTO 15004KT 18/05 A2985 RMK T01800050 IEM_DS3505
ZBYN,1999-04-17 03:00,ZBYN 170300Z AUTO 14006KT 5SM 20/04 A2985 RMK SLP100 T02000037 57010 IEM_DS3505
ZBYN,1999-04-17 04:00,ZBYN 170400Z AUTO 22004KT 6SM 22/04 A2983 RMK T02200040 IEM_DS3505
ZBYN,1999-04-17 05:00,ZBYN 170500Z AUTO 17008KT 6SM 24/05 A2980 RMK T02400050 IEM_DS3505
ZBYN,1999-04-17 06:00,ZBYN 170600Z AUTO 20010KT 6SM 24/02 A2977 RMK SLP068 T02420025 57028 IEM_DS3505
ZBYN,1999-04-17 07:00,ZBYN 170700Z AUTO 22008KT 7SM 25/04 A2974 RMK T02500040 IEM_DS3505
ZBYN,1999-04-17 08:00,ZBYN 170800Z AUTO 24008KT 7SM 25/03 A2971 RMK T02500030 IEM_DS3505
ZBYN,1999-04-17 09:00,ZBYN 170900Z AUTO 18008KT 7SM 25/02 A2968 RMK SLP043 T02490022 57026 IEM_DS3505
ZBYN,1999-04-17 10:00,ZBYN 171000Z AUTO 21002KT 7SM 25/02 A2968 RMK T02500020 IEM_DS3505
ZBYN,1999-04-17 11:00,ZBYN 171100Z AUTO 20002KT 6SM 23/02 A2968 RMK T02300020 IEM_DS3505
ZBYN,1999-04-17 12:00,ZBYN 171200Z AUTO 20008KT 6SM 21/03 A2971 RMK SLP054 T02120028 52008 IEM_DS3505
ZBYN,1999-04-17 13:00,ZBYN 171300Z AUTO 22006KT 6SM 20/04 A2974 RMK T02000040 IEM_DS3505
ZBYN,1999-04-17 14:00,ZBYN 171400Z AUTO 19004KT 6SM 18/03 A2974 RMK T01800030 IEM_DS3505
ZBYN,1999-04-17 15:00,ZBYN 171500Z AUTO 11004KT 6SM 16/03 A2977 RMK SLP071 T01590029 52019 IEM_DS3505
ZBYN,1999-04-17 16:00,ZBYN 171600Z AUTO 11006KT 6SM 15/04 A2980 RMK T01500040 IEM_DS3505
ZBYN,1999-04-17 17:00,ZBYN 171700Z AUTO 10008KT 6SM 14/04 A2980 RMK T01400040 IEM_DS3505
ZBYN,1999-04-17 18:00,ZBYN 171800Z AUTO 00000KT 6SM 16/08 A2980 RMK SLP076 T01650085 52011 IEM_DS3505
ZBYN,1999-04-17 19:00,ZBYN 171900Z AUTO 10006KT 6SM 16/11 A2980 RMK T01600110 IEM_DS3505
ZBYN,1999-04-17 20:00,ZBYN 172000Z AUTO 07004KT 6SM 15/11 A2980 RMK T01500110 IEM_DS3505
ZBYN,1999-04-17 21:00,ZBYN 172100Z AUTO 00000KT 6SM 12/07 A2980 RMK SLP073 T01170071 57008 IEM_DS3505
ZBYN,1999-04-17 22:00,ZBYN 172200Z AUTO 04002KT 4SM 13/11 A2980 RMK T01300110 IEM_DS3505
ZBYN,1999-04-17 23:00,ZBYN 172300Z AUTO 18002KT 2 1/2SM 14/11 A2980 RMK T01400110 IEM_DS3505
ZBYN,1999-04-18 00:00,ZBYN 180000Z AUTO 00000KT 4SM 14/09 A2980 RMK SLP083 T01440092 52007 IEM_DS3505
ZBYN,1999-04-18 01:00,ZBYN 180100Z AUTO 11002KT 2 1/2SM 17/12 A2980 RMK T01700120 IEM_DS3505
ZBYN,1999-04-18 02:00,ZBYN 180200Z AUTO 16002KT 19/10 A2980 RMK T01900100 IEM_DS3505
ZBYN,1999-04-18 03:00,ZBYN 180300Z AUTO 18006KT 6SM 20/08 A2980 RMK SLP083 T02020080 52001 IEM_DS3505
ZBYN,1999-04-18 04:00,ZBYN 180400Z AUTO 24008KT 5SM 23/07 A2977 RMK T02300070 IEM_DS3505
ZBYN,1999-04-18 05:00,ZBYN 180500Z AUTO 24008KT 5SM 25/06 A2974 RMK T02500060 IEM_DS3505
ZBYN,1999-04-18 06:00,ZBYN 180600Z AUTO 22012KT 6SM 26/05 A2971 RMK SLP041 T02600046 57029 IEM_DS3505
ZBYN,1999-04-18 07:00,ZBYN 180700Z AUTO 21004KT 7SM 26/02 A2968 RMK T02600020 IEM_DS3505
ZBYN,1999-04-18 08:00,ZBYN 180800Z AUTO 25004KT 7SM 26/01 A2965 RMK T02600010 IEM_DS3505
ZBYN,1999-04-18 09:00,ZBYN 180900Z AUTO 18012KT 6SM 25/02 A2965 RMK SLP035 T02460020 57015 IEM_DS3505
ZBYN,1999-04-18 10:00,ZBYN 181000Z AUTO 21004KT 7SM 24/01 A2965 RMK T02400010 IEM_DS3505
ZBYN,1999-04-18 11:00,ZBYN 181100Z AUTO 22004KT 7SM 23/00 A2965 RMK T02300000 IEM_DS3505
ZBYN,1999-04-18 12:00,ZBYN 181200Z AUTO 27004KT 9SM 21/01 A2968 RMK SLP046 T02140009 52010 IEM_DS3505
ZBYN,1999-04-18 13:00,ZBYN 181300Z AUTO 00000KT 6SM 21/01 A2974 RMK T02100010 IEM_DS3505
ZBYN,1999-04-18 14:00,ZBYN 181400Z AUTO 21002KT 6SM 19/02 A2977 RMK T01900020 IEM_DS3505
ZBYN,1999-04-18 15:00,ZBYN 181500Z AUTO 11010KT 9SM 18/02 A2977 RMK SLP067 T01760016 52022 IEM_DS3505
ZBYN,1999-04-18 16:00,ZBYN 181600Z AUTO 12006KT 6SM 13/03 A2977 RMK T01300030 IEM_DS3505
ZBYN,1999-04-18 17:00,ZBYN 181700Z AUTO 08004KT 6SM 16/03 A2977 RMK T01600030 IEM_DS3505
ZBYN,1999-04-18 18:00,ZBYN 181800Z AUTO 00000KT 7SM 12/04 A2977 RMK SLP073 T01190038 52005 IEM_DS3505
ZBYN,1999-04-18 19:00,ZBYN 181900Z AUTO 00000KT 6SM 12/04 A2977 RMK T01200040 IEM_DS3505
ZBYN,1999-04-18 20:00,ZBYN 182000Z AUTO 00000KT 6SM 11/04 A2980 RMK T01100040 IEM_DS3505
ZBYN,1999-04-18 21:00,ZBYN 182100Z AUTO 00000KT 6SM 13/01 A2980 RMK SLP089 T01290007 52014 IEM_DS3505
ZBYN,1999-04-18 22:00,ZBYN 182200Z AUTO 09004KT 6SM 10/04 A2980 RMK T01000040 IEM_DS3505
ZBYN,1999-04-18 23:00,ZBYN 182300Z AUTO 00000KT 5SM 12/05 A2983 RMK T01200050 IEM_DS3505
ZBYN,1999-04-19 00:00,ZBYN 190000Z AUTO 34004KT 5SM 15/01 A2985 RMK SLP100 T01530007 52019 IEM_DS3505
ZBYN,1999-04-19 01:00,ZBYN 190100Z AUTO 33004KT 2 1/2SM 18/04 A2985 RMK T01800040 IEM_DS3505
ZBYN,1999-04-19 02:00,ZBYN 190200Z AUTO 15004KT 5SM 20/06 A2985 RMK T02000060 IEM_DS3505
ZBYN,1999-04-19 03:00,ZBYN 190300Z AUTO 14004KT 5SM 22/01 A2983 RMK SLP093 T02200009 57001 IEM_DS3505
ZBYN,1999-04-19 04:00,ZBYN 190400Z AUTO 16002KT 7SM 24/04 A2980 RMK T02400040 IEM_DS3505
ZBYN,1999-04-19 05:00,ZBYN 190500Z AUTO 18008KT 7SM 26/02 A2977 RMK T02600020 IEM_DS3505
ZBYN,1999-04-19 06:00,ZBYN 190600Z AUTO 18006KT 9SM 26/01 A2977 RMK SLP061 T02650008 57032 IEM_DS3505
ZBYN,1999-04-19 07:00,ZBYN 190700Z AUTO 13002KT 7SM 28/M02 A2974 RMK T02801020 IEM_DS3505
ZBYN,1999-04-19 08:00,ZBYN 190800Z AUTO 11017KT 2 1/2SM 27/10 A2974 RMK T02700100 IEM_DS3505
ZBYN,1999-04-19 09:00,ZBYN 190900Z AUTO 09019KT 4SM 20/09 A2974 RMK SLP064 T02040088 57004 IEM_DS3505
ZBYN,1999-04-19 10:00,ZBYN 191000Z AUTO 07023KT 1 1/2SM 15/11 A2977 RMK T01500110 IEM_DS3505
ZBYN,1999-04-19 11:00,ZBYN 191100Z AUTO 07021KT 2SM 14/10 A2980 RMK T01400100 IEM_DS3505
ZBYN,1999-04-19 12:00,ZBYN 191200Z AUTO 07004KT 4SM 16/08 A2985 RMK SLP108 T01560075 52036 IEM_DS3505
ZBYN,1999-04-19 13:00,ZBYN 191300Z AUTO 08019KT 4SM 10/07 A2991 RMK T01000070 IEM_DS3505
ZBYN,1999-04-19 14:00,ZBYN 191400Z AUTO 07016KT 6SM 10/07 A2994 RMK T01000070 IEM_DS3505
ZBYN,1999-04-19 15:00,ZBYN 191500Z AUTO 34006KT 6SM 11/06 A2997 RMK SLP135 T01140061 52030 IEM_DS3505
ZBYN,1999-04-19 16:00,ZBYN 191600Z AUTO 09012KT 6SM 10/07 A2994 RMK T01000070 IEM_DS3505
ZBYN,1999-04-19 17:00,ZBYN 191700Z AUTO 04002KT 6SM 10/07 A2997 RMK T01000070 IEM_DS3505
ZBYN,1999-04-19 18:00,ZBYN 191800Z AUTO 34006KT 6SM 10/05 A2997 RMK SLP134 T00980052 52002 IEM_DS3505
ZBYN,1999-04-19 19:00,ZBYN 191900Z AUTO 11002KT 6SM 09/06 A2994 RMK T00900060 IEM_DS3505
ZBYN,1999-04-19 21:00,ZBYN 192100Z AUTO 14006KT 6SM 08/05 A2997 RMK SLP148 T00820047 52001 IEM_DS3505
ZBYN,1999-04-19 22:00,ZBYN 192200Z AUTO 12002KT 4SM 08/06 A2997 RMK T00800060 IEM_DS3505
ZBYN,1999-04-19 23:00,ZBYN 192300Z AUTO 15004KT 2 1/2SM 10/06 A3000 RMK T01000060 IEM_DS3505
ZBYN,1999-04-20 00:00,ZBYN 200000Z AUTO 18006KT 4SM 10/05 A3000 RMK SLP167 T00950050 52013 IEM_DS3505
ZBYN,1999-04-20 01:00,ZBYN 200100Z AUTO 12002KT 3SM 11/06 A3000 RMK T01100060 IEM_DS3505
ZBYN,1999-04-20 02:00,ZBYN 200200Z AUTO 00000KT 3SM 11/05 A3000 RMK T01100050 IEM_DS3505
ZBYN,1999-04-20 03:00,ZBYN 200300Z AUTO 00000KT 5SM 14/06 A2997 RMK SLP160 T01380062 57007 IEM_DS3505
ZBYN,1999-04-20 04:00,ZBYN 200400Z AUTO 22002KT 2 1/2SM 15/09 A2997 RMK T01500090 IEM_DS3505
ZBYN,1999-04-20 05:00,ZBYN 200500Z AUTO 20004KT 17/10 A2994 RMK T01700100 IEM_DS3505
ZBYN,1999-04-20 06:00,ZBYN 200600Z AUTO 16016KT 5SM 17/08 A2994 RMK SLP141 T01730081 57014 IEM_DS3505
ZBYN,1999-04-20 07:00,ZBYN 200700Z AUTO 21006KT 2SM 18/11 A2991 RMK T01800110 IEM_DS3505
ZBYN,1999-04-20 08:00,ZBYN 200800Z AUTO 23014KT 5SM 20/10 A2991 RMK T02000100 IEM_DS3505
ZBYN,1999-04-20 09:00,ZBYN 200900Z AUTO 20014KT 6SM 22/04 A2991 RMK SLP128 T02160037 57008 IEM_DS3505
ZBYN,1999-04-20 10:00,ZBYN 201000Z AUTO 21004KT 7SM 21/07 A2991 RMK T02100070 IEM_DS3505
ZBYN,1999-04-20 11:00,ZBYN 201100Z AUTO 25006KT 6SM 20/07 A2991 RMK T02000070 IEM_DS3505
ZBYN,1999-04-20 12:00,ZBYN 201200Z AUTO 25004KT 9SM 18/07 A2994 RMK SLP144 T01840067 52012 IEM_DS3505
ZBYN,1999-04-20 13:00,ZBYN 201300Z AUTO 30004KT 6SM 16/08 A2997 RMK T01600080 IEM_DS3505
ZBYN,1999-04-20 14:00,ZBYN 201400Z AUTO 15002KT 6SM 15/08 A2997 RMK T01500080 IEM_DS3505
ZBYN,1999-04-20 15:00,ZBYN 201500Z AUTO 00000KT 6SM 15/07 A2997 RMK SLP152 T01460067 52008 IEM_DS3505
ZBYN,1999-04-20 16:00,ZBYN 201600Z AUTO 00000KT 6SM 14/08 A2997 RMK T01400080 IEM_DS3505
ZBYN,1999-04-20 17:00,ZBYN 201700Z AUTO 25008KT 6SM 14/11 A3000 RMK T01400110 IEM_DS3505
ZBYN,1999-04-20 18:00,ZBYN 201800Z AUTO 25010KT 6SM 16/07 A3000 RMK SLP150 T01610070 52005 IEM_DS3505
ZBYN,1999-04-20 19:00,ZBYN 201900Z AUTO 12006KT 6SM 14/10 A2997 RMK T01400100 IEM_DS3505
ZBYN,1999-04-20 20:00,ZBYN 202000Z AUTO 11004KT 6SM 12/10 A2997 RMK T01200100 IEM_DS3505
ZBYN,1999-04-20 21:00,ZBYN 202100Z AUTO 32002KT 6SM 12/08 A2997 RMK SLP143 T01150082 57007 IEM_DS3505
ZBYN,1999-04-20 22:00,ZBYN 202200Z AUTO 13002KT 6SM 10/08 A2994 RMK T01000080 IEM_DS3505
ZBYN,1999-04-20 23:00,ZBYN 202300Z AUTO 09002KT 6SM 11/09 A2997 RMK T01100090 IEM_DS3505
ZBYN,1999-04-21 00:00,ZBYN 210000Z AUTO 00000KT 4SM 14/08 A2997 RMK SLP147 T01380082 52003 IEM_DS3505
ZBYN,1999-04-21 01:00,ZBYN 210100Z AUTO 30002KT 6SM 17/10 A2997 RMK T01700100 IEM_DS3505
ZBYN,1999-04-21 02:00,ZBYN 210200Z AUTO 00000KT 6SM 18/10 A2994 RMK T01800100 IEM_DS3505
ZBYN,1999-04-21 03:00,ZBYN 210300Z AUTO 18006KT 6SM 22/07 A2991 RMK SLP127 T02150066 57013 IEM_DS3505
ZBYN,1999-04-21 04:00,ZBYN 210400Z AUTO 30002KT 6SM 22/08 A2988 RMK T02200080 IEM_DS3505
ZBYN,1999-04-21 05:00,ZBYN 210500Z AUTO 23010KT 6SM 23/08 A2985 RMK T02300080 IEM_DS3505
ZBYN,1999-04-21 06:00,ZBYN 210600Z AUTO 25010KT 9SM 25/08 A2983 RMK SLP093 T02480076 57024 IEM_DS3505
ZBYN,1999-04-21 07:00,ZBYN 210700Z AUTO 26010KT 7SM 25/08 A2983 RMK T02500080 IEM_DS3505
ZBYN,1999-04-21 08:00,ZBYN 210800Z AUTO 20006KT 7SM 25/08 A2980 RMK T02500080 IEM_DS3505
ZBYN,1999-04-21 09:00,ZBYN 210900Z AUTO 22010KT 9SM 24/07 A2980 RMK SLP081 T02400074 57019 IEM_DS3505
ZBYN,1999-04-21 10:00,ZBYN 211000Z AUTO 26012KT 6SM 24/10 A2980 RMK T02400100 IEM_DS3505
ZBYN,1999-04-21 11:00,ZBYN 211100Z AUTO 22002KT 6SM 22/10 A2980 RMK T02200100 IEM_DS3505
ZBYN,1999-04-21 12:00,ZBYN 211200Z AUTO 18004KT 6SM 19/10 A2980 RMK SLP087 T01930098 52002 IEM_DS3505
ZBYN,1999-04-21 13:00,ZBYN 211300Z AUTO 21002KT 6SM 19/11 A2983 RMK T01900110 IEM_DS3505
ZBYN,1999-04-21 14:00,ZBYN 211400Z AUTO 20002KT 6SM 18/11 A2983 RMK T01800110 IEM_DS3505
ZBYN,1999-04-21 15:00,ZBYN 211500Z AUTO 18004KT 7SM 16/10 A2983 RMK SLP091 T01650095 52011 IEM_DS3505
ZBYN,1999-04-21 16:00,ZBYN 211600Z AUTO 14004KT 6SM 15/11 A2983 RMK T01500110 IEM_DS3505
ZBYN,1999-04-21 18:00,ZBYN 211800Z AUTO 14006KT 6SM 14/09 RMK SLP074 T01430091 57014 IEM_DS3505
ZBYN,1999-04-21 21:00,ZBYN 212100Z AUTO 16006KT 6SM 13/09 A2977 RMK SLP076 T01280086 57001 IEM_DS3505
ZBYN,1999-04-21 22:00,ZBYN 212200Z AUTO 00000KT 6SM 12/11 A2977 RMK T01200110 IEM_DS3505
ZBYN,1999-04-21 23:00,ZBYN 212300Z AUTO 00000KT 4SM 12/11 A2980 RMK T01200110 IEM_DS3505
ZBYN,1999-04-22 00:00,ZBYN 220000Z AUTO 14010KT 5SM 15/09 A2980 RMK SLP081 T01540093 52001 IEM_DS3505
ZBYN,1999-04-22 01:00,ZBYN 220100Z AUTO 17006KT 2 1/2SM 17/13 A2977 RMK T01700130 IEM_DS3505
ZBYN,1999-04-22 02:00,ZBYN 220200Z AUTO 12004KT 4SM 19/14 A2977 RMK T01900140 IEM_DS3505
ZBYN,1999-04-22 03:00,ZBYN 220300Z AUTO 14010KT 5SM 19/11 A2974 RMK SLP057 T01940110 57020 IEM_DS3505
ZBYN,1999-04-22 04:00,ZBYN 220400Z AUTO 20004KT 21/13 A2971 RMK T02100130 IEM_DS3505
ZBYN,1999-04-22 05:00,ZBYN 220500Z AUTO 00000KT 22/14 A2968 RMK T02200140 IEM_DS3505
ZBYN,1999-04-22 06:00,ZBYN 220600Z AUTO 18008KT 5SM 24/11 A2965 RMK SLP028 T02400110 57023 IEM_DS3505
ZBYN,1999-04-22 08:00,ZBYN 220800Z AUTO 12004KT 6SM 26/13 A2959 RMK T02600130 IEM_DS3505
ZBYN,1999-04-22 09:00,ZBYN 220900Z AUTO 00000KT 5SM 26/11 A2959 RMK SLP011 T02620109 57015 IEM_DS3505
ZBYN,1999-04-22 10:00,ZBYN 221000Z AUTO 00000KT 6SM 26/13 A2962 RMK T02600130 IEM_DS3505
ZBYN,1999-04-22 11:00,ZBYN 221100Z AUTO 32002KT 6SM 24/13 A2962 RMK T02400130 IEM_DS3505
ZBYN,1999-04-22 12:00,ZBYN 221200Z AUTO 09010KT 6SM 23/10 A2968 RMK SLP034 T02340104 52021 IEM_DS3505
ZBYN,1999-04-22 13:00,ZBYN 221300Z AUTO 08017KT 2 1/2SM 19/15 A2974 RMK T01900150 IEM_DS3505
ZBYN,1999-04-22 14:00,ZBYN 221400Z AUTO 08016KT 2 1/2SM 18/15 A2977 RMK T01800150 IEM_DS3505
ZBYN,1999-04-22 15:00,ZBYN 221500Z AUTO 06008KT 3SM 17/15 A2980 RMK T01700150 IEM_DS3505
ZBYN,1999-04-22 16:00,ZBYN 221600Z AUTO 08004KT 3SM 16/14 A2980 RMK T01600140 IEM_DS3505
ZBYN,1999-04-22 17:00,ZBYN 221700Z AUTO 10002KT 3SM 14/13 A2980 RMK T01400130 IEM_DS3505
ZBYN,1999-04-22 18:00,ZBYN 221800Z AUTO 10008KT 3SM 14/14 A2983 RMK T01400140 IEM_DS3505
ZBYN,1999-04-22 19:00,ZBYN 221900Z AUTO 04008KT 3SM 15/14 A2983 RMK T01500140 IEM_DS3505
ZBYN,1999-04-22 20:00,ZBYN 222000Z AUTO 03002KT 3SM 15/13 A2985 RMK T01500130 IEM_DS3505
ZBYN,1999-04-22 21:00,ZBYN 222100Z AUTO 34002KT 6SM 14/03 A2985 RMK SLP097 T01350030 52016 IEM_DS3505
ZBYN,1999-04-22 22:00,ZBYN 222200Z AUTO 03004KT 4SM 14/10 A2985 RMK T01400100 IEM_DS3505
ZBYN,1999-04-22 23:00,ZBYN 222300Z AUTO 00000KT 2 1/2SM 14/11 A2988 RMK T01400110 IEM_DS3505
ZBYN,1999-04-23 00:00,ZBYN 230000Z AUTO 36002KT 6SM 15/04 A2988 RMK SLP109 T01540035 52010 IEM_DS3505
ZBYN,1999-04-23 01:00,ZBYN 230100Z AUTO 07010KT 2 1/2SM 17/12 A2988 RMK T01700120 IEM_DS3505
ZBYN,1999-04-23 02:00,ZBYN 230200Z AUTO 08017KT 2 1/2SM 19/11 A2985 RMK T01900110 IEM_DS3505
ZBYN,1999-04-23 03:00,ZBYN 230300Z AUTO 11016KT 6SM 20/05 A2985 RMK SLP099 T02010048 57011 IEM_DS3505
ZBYN,1999-04-23 04:00,ZBYN 230400Z AUTO 08008KT 6SM 21/09 A2983 RMK T02100090 IEM_DS3505
ZBYN,1999-04-23 05:00,ZBYN 230500Z AUTO 09014KT 6SM 22/09 A2983 RMK T02200090 IEM_DS3505
ZBYN,1999-04-23 06:00,ZBYN 230600Z AUTO 09014KT 6SM 23/02 A2980 RMK SLP079 T02270016 57014 IEM_DS3505
ZBYN,1999-04-23 07:00,ZBYN 230700Z AUTO 07019KT 6SM 23/08 A2977 RMK T02300080 IEM_DS3505
ZBYN,1999-04-23 08:00,ZBYN 230800Z AUTO 09017KT 6SM 22/07 A2977 RMK T02200070 IEM_DS3505
ZBYN,1999-04-23 09:00,ZBYN 230900Z AUTO 09019KT 6SM 21/M00 RMK SLP070 T02131001 57017 IEM_DS3505
ZBYN,1999-04-23 10:00,ZBYN 231000Z AUTO 10016KT 6SM 19/07 A2977 RMK T01900070 IEM_DS3505
ZBYN,1999-04-23 11:00,ZBYN 231100Z AUTO 10017KT 6SM 18/07 A2980 RMK T01800070 IEM_DS3505
ZBYN,1999-04-23 12:00,ZBYN 231200Z AUTO 10016KT 6SM 17/09 A2983 RMK T01700090 IEM_DS3505
ZBYN,1999-04-23 13:00,ZBYN 231300Z AUTO 09014KT 6SM 16/10 A2985 RMK T01600100 IEM_DS3505
ZBYN,1999-04-23 14:00,ZBYN 231400Z AUTO 10017KT 6SM 15/09 A2991 RMK T01500090 IEM_DS3505
ZBYN,1999-04-23 15:00,ZBYN 231500Z AUTO 09010KT 6SM 15/04 A2991 RMK SLP129 T01480043 52034 IEM_DS3505
ZBYN,1999-04-23 16:00,ZBYN 231600Z AUTO 07008KT 6SM 13/09 A2994 RMK T01300090 IEM_DS3505
ZBYN,1999-04-23 17:00,ZBYN 231700Z AUTO 07008KT 6SM 13/09 A2994 RMK T01300090 IEM_DS3505
ZBYN,1999-04-23 18:00,ZBYN 231800Z AUTO 04006KT 6SM 12/06 A2994 RMK SLP135 T01250060 52006 IEM_DS3505
ZBYN,1999-04-23 19:00,ZBYN 231900Z AUTO 07004KT 6SM 12/09 A2994 RMK T01200090 IEM_DS3505
ZBYN,1999-04-23 20:00,ZBYN 232000Z AUTO 06006KT 6SM 11/09 A2994 RMK T01100090 IEM_DS3505
ZBYN,1999-04-23 21:00,ZBYN 232100Z AUTO 00000KT 6SM 10/06 A2994 RMK SLP145 T01000059 52004 IEM_DS3505
ZBYN,1999-04-23 22:00,ZBYN 232200Z AUTO 06004KT 6SM 10/09 A2994 RMK T01000090 IEM_DS3505
ZBYN,1999-04-23 23:00,ZBYN 232300Z AUTO 06004KT 5SM 12/10 A2997 RMK T01200100 IEM_DS3505
ZBYN,1999-04-24 00:00,ZBYN 240000Z AUTO 36002KT 5SM 12/06 A2997 RMK SLP158 T01230058 52009 IEM_DS3505
ZBYN,1999-04-24 01:00,ZBYN 240100Z AUTO 07010KT 6SM 15/10 A2997 RMK T01500100 IEM_DS3505
ZBYN,1999-04-24 02:00,ZBYN 240200Z AUTO 04008KT 6SM 17/10 A2997 RMK T01700100 IEM_DS3505
ZBYN,1999-04-24 03:00,ZBYN 240300Z AUTO 00000KT 5SM 18/05 A2997 RMK SLP144 T01850050 57007 IEM_DS3505
ZBYN,1999-04-24 04:00,ZBYN 240400Z AUTO 05006KT 6SM 20/09 A2994 RMK T02000090 IEM_DS3505
ZBYN,1999-04-24 05:00,ZBYN 240500Z AUTO 14002KT 6SM 21/09 A2991 RMK T02100090 IEM_DS3505
ZBYN,1999-04-24 06:00,ZBYN 240600Z AUTO 14006KT 9SM 23/04 A2985 RMK SLP108 T02260045 57031 IEM_DS3505
ZBYN,1999-04-24 07:00,ZBYN 240700Z AUTO 07002KT 6SM 23/10 A2983 RMK T02300100 IEM_DS3505
ZBYN,1999-04-24 08:00,ZBYN 240800Z AUTO 07008KT 7SM 24/11 A2983 RMK T02400110 IEM_DS3505
ZBYN,1999-04-24 09:00,ZBYN 240900Z AUTO 09010KT 9SM 24/06 A2983 RMK SLP091 T02360059 57017 IEM_DS3505
ZBYN,1999-04-24 10:00,ZBYN 241000Z AUTO 07012KT 6SM 22/10 A2983 RMK T02200100 IEM_DS3505
ZBYN,1999-04-24 11:00,ZBYN 241100Z AUTO 07016KT 6SM 20/11 A2985 RMK T02000110 IEM_DS3505
ZBYN,1999-04-24 12:00,ZBYN 241200Z AUTO 07016KT 6SM 19/06 A2988 RMK SLP121 T01910065 52024 IEM_DS3505
ZBYN,1999-04-24 13:00,ZBYN 241300Z AUTO 09017KT 6SM 17/11 A2994 RMK T01700110 IEM_DS3505
ZBYN,1999-04-24 14:00,ZBYN 241400Z AUTO 07014KT 6SM 16/11 A2997 RMK T01600110 IEM_DS3505
ZBYN,1999-04-24 15:00,ZBYN 241500Z AUTO 07010KT 6SM 16/07 A2997 RMK SLP148 T01620067 52029 IEM_DS3505
ZBYN,1999-04-24 16:00,ZBYN 241600Z AUTO 08010KT 6SM 15/11 A2997 RMK T01500110 IEM_DS3505
ZBYN,1999-04-24 18:00,ZBYN 241800Z AUTO 00000KT 6SM 15/08 A2997 RMK SLP144 T01530085 52001 IEM_DS3505
ZBYN,1999-04-24 19:00,ZBYN 241900Z AUTO 07008KT 6SM 15/11 A2997 RMK T01500110 IEM_DS3505
ZBYN,1999-04-24 20:00,ZBYN 242000Z AUTO 09004KT 6SM 15/11 A2997 RMK T01500110 IEM_DS3505
ZBYN,1999-04-24 21:00,ZBYN 242100Z AUTO 00000KT 6SM 13/09 A2997 RMK SLP139 T01320088 57006 IEM_DS3505
ZBYN,1999-04-24 22:00,ZBYN 242200Z AUTO 08006KT 6SM 14/12 A3000 RMK T01400120 IEM_DS3505
ZBYN,1999-04-24 23:00,ZBYN 242300Z AUTO 10004KT 5SM 15/12 A3000 RMK T01500120 IEM_DS3505
ZBYN,1999-04-25 00:00,ZBYN 250000Z AUTO 11006KT 6SM 16/08 A3000 RMK SLP154 T01590083 52011 IEM_DS3505
ZBYN,1999-04-25 01:00,ZBYN 250100Z AUTO 15004KT 7SM 17/12 A3003 RMK T01700120 IEM_DS3505
ZBYN,1999-04-25 02:00,ZBYN 250200Z AUTO 20004KT 6SM 18/12 A3003 RMK T01800120 IEM_DS3505
ZBYN,1999-04-25 03:00,ZBYN 250300Z AUTO 20004KT 6SM 17/08 A3003 RMK SLP167 T01740084 52010 IEM_DS3505
ZBYN,1999-04-25 04:00,ZBYN 250400Z AUTO 26004KT 4SM 18/13 A3003 RMK T01800130 IEM_DS3505
ZBYN,1999-04-25 06:00,ZBYN 250600Z AUTO 22008KT 6SM 20/09 A2997 RMK SLP150 T02000086 57013 IEM_DS3505
ZBYN,1999-04-25 07:00,ZBYN 250700Z AUTO 24004KT 20/13 A2997 RMK T02000130 IEM_DS3505
ZBYN,1999-04-25 08:00,ZBYN 250800Z AUTO 25008KT 4SM 19/12 A2997 RMK T01900120 IEM_DS3505
ZBYN,1999-04-25 09:00,ZBYN 250900Z AUTO 18006KT 6SM 18/09 A2997 RMK SLP151 T01830089 57005 IEM_DS3505
ZBYN,1999-04-25 10:00,ZBYN 251000Z AUTO 23004KT 5SM 17/13 A3000 RMK T01700130 IEM_DS3505
ZBYN,1999-04-25 11:00,ZBYN 251100Z AUTO 23004KT 5SM 17/13 A3000 RMK T01700130 IEM_DS3505
ZBYN,1999-04-25 12:00,ZBYN 251200Z AUTO 29006KT 7SM 16/10 A3003 RMK SLP169 T01620100 52018 IEM_DS3505
ZBYN,1999-04-25 13:00,ZBYN 251300Z AUTO 25002KT 7SM 15/12 A3006 RMK T01500120 IEM_DS3505
ZBYN,1999-04-25 14:00,ZBYN 251400Z AUTO 21002KT 6SM 14/11 A3009 RMK T01400110 IEM_DS3505
ZBYN,1999-04-25 15:00,ZBYN 251500Z AUTO 22002KT 7SM 13/08 A3012 RMK SLP199 T01330081 52025 IEM_DS3505
ZBYN,1999-04-25 16:00,ZBYN 251600Z AUTO 25004KT 6SM 13/10 A3012 RMK T01300100 IEM_DS3505
ZBYN,1999-04-25 17:00,ZBYN 251700Z AUTO 23002KT 7SM 13/10 A3015 RMK T01300100 IEM_DS3505
ZBYN,1999-04-25 18:00,ZBYN 251800Z AUTO 29006KT 7SM 12/05 A3015 RMK SLP208 T01220054 52010 IEM_DS3505
ZBYN,1999-04-25 19:00,ZBYN 251900Z AUTO 30010KT 7SM 11/09 A3015 RMK T01100090 IEM_DS3505
ZBYN,1999-04-25 20:00,ZBYN 252000Z AUTO 30006KT 7SM 10/09 A3015 RMK T01000090 IEM_DS3505
ZBYN,1999-04-25 21:00,ZBYN 252100Z AUTO 29004KT 7SM 09/05 A3018 RMK SLP222 T00910053 52006 IEM_DS3505
ZBYN,1999-04-25 22:00,ZBYN 252200Z AUTO 26002KT 7SM 08/08 A3018 RMK T00800080 IEM_DS3505
ZBYN,1999-04-25 23:00,ZBYN 252300Z AUTO 30004KT 7SM 08/08 A3021 RMK T00800080 IEM_DS3505
ZBYN,1999-04-26 00:00,ZBYN 260000Z AUTO 32006KT 11SM 08/04 A3018 RMK SLP239 T00770044 52010 IEM_DS3505
ZBYN,1999-04-26 01:00,ZBYN 260100Z AUTO 26002KT 7SM 08/08 A3024 RMK T00800080 IEM_DS3505
ZBYN,1999-04-26 02:00,ZBYN 260200Z AUTO 26002KT 7SM 09/09 A3024 RMK T00900090 IEM_DS3505
ZBYN,1999-04-26 03:00,ZBYN 260300Z AUTO 29006KT 12SM 11/03 A3024 RMK SLP258 T01060031 52018 IEM_DS3505
ZBYN,1999-04-26 04:00,ZBYN 260400Z AUTO 36004KT 7SM 09/09 A3024 RMK T00900090 IEM_DS3505
ZBYN,1999-04-26 05:00,ZBYN 260500Z AUTO 00000KT 7SM 10/05 A3021 RMK T01000050 IEM_DS3505
ZBYN,1999-04-26 06:00,ZBYN 260600Z AUTO 04002KT 12SM 11/04 A3021 RMK SLP240 T01130037 57017 IEM_DS3505
ZBYN,1999-04-26 07:00,ZBYN 260700Z AUTO 21002KT 7SM 10/07 A3021 RMK T01000070 IEM_DS3505
ZBYN,1999-04-26 09:00,ZBYN 260900Z AUTO 29006KT 12SM 11/03 A3018 RMK SLP240 T01130027 57005 IEM_DS3505
ZBYN,1999-04-26 10:00,ZBYN 261000Z AUTO 34006KT 7SM 11/07 A3018 RMK T01100070 IEM_DS3505
ZBYN,1999-04-26 11:00,ZBYN 261100Z AUTO 35008KT 7SM 11/06 A3021 RMK T01100060 IEM_DS3505
ZBYN,1999-04-26 12:00,ZBYN 261200Z AUTO 36008KT 12SM 11/01 A3024 RMK SLP260 T01100014 52016 IEM_DS3505
ZBYN,1999-04-26 13:00,ZBYN 261300Z AUTO 35006KT 7SM 10/06 A3024 RMK T01000060 IEM_DS3505
ZBYN,1999-04-26 14:00,ZBYN 261400Z AUTO 01004KT 7SM 10/06 A3024 RMK T01000060 IEM_DS3505
ZBYN,1999-04-26 15:00,ZBYN 261500Z AUTO 32004KT 12SM 10/01 A3027 RMK SLP269 T01000009 52011 IEM_DS3505
ZBYN,1999-04-26 16:00,ZBYN 261600Z AUTO 34012KT 7SM 10/05 A3027 RMK T01000050 IEM_DS3505
ZBYN,1999-04-26 17:00,ZBYN 261700Z AUTO 34008KT 7SM 09/05 A3027 RMK T00900050 IEM_DS3505
ZBYN,1999-04-26 18:00,ZBYN 261800Z AUTO 32006KT 9SM 09/M00 A3027 RMK SLP267 T00921002 57002 IEM_DS3505
ZBYN,1999-04-26 19:00,ZBYN 261900Z AUTO 02004KT 6SM 09/04 A3024 RMK T00900040 IEM_DS3505
ZBYN,1999-04-26 20:00,ZBYN 262000Z AUTO 01004KT 6SM 08/05 A3021 RMK T00800050 IEM_DS3505
ZBYN,1999-04-26 21:00,ZBYN 262100Z AUTO 36004KT 7SM 08/M00 A3024 RMK SLP258 T00831002 57010 IEM_DS3505
ZBYN,1999-04-26 22:00,ZBYN 262200Z AUTO 33006KT 6SM 08/02 A3024 RMK T00800020 IEM_DS3505
ZBYN,1999-04-26 23:00,ZBYN 262300Z AUTO 35008KT 6SM 08/00 A3027 RMK T00800000 IEM_DS3505
ZBYN,1999-04-27 00:00,ZBYN 270000Z AUTO 36006KT 7SM 09/M02 A3027 RMK SLP273 T00881015 52014 IEM_DS3505
ZBYN,1999-04-27 01:00,ZBYN 270100Z AUTO 36012KT 6SM 11/00 A3027 RMK T01100000 IEM_DS3505
ZBYN,1999-04-27 02:00,ZBYN 270200Z AUTO 35010KT 6SM 12/M01 A3027 RMK T01201010 IEM_DS3505
ZBYN,1999-04-27 03:00,ZBYN 270300Z AUTO 32010KT 12SM 13/M05 A3024 RMK SLP257 T01321048 57009 IEM_DS3505
ZBYN,1999-04-27 04:00,ZBYN 270400Z AUTO 36014KT 7SM 15/M03 A3021 RMK T01501030 IEM_DS3505
ZBYN,1999-04-27 05:00,ZBYN 270500Z AUTO 28008KT 7SM 16/M04 A3018 RMK T01601040 IEM_DS3505
ZBYN,1999-04-27 06:00,ZBYN 270600Z AUTO 22006KT 16SM 16/M03 RMK SLP214 T01631031 57036 IEM_DS3505
ZBYN,1999-04-27 08:00,ZBYN 270800Z AUTO 25010KT 7SM 17/00 A3006 RMK T01700000 IEM_DS3505
ZBYN,1999-04-27 09:00,ZBYN 270900Z AUTO 29010KT 16SM 19/M05 A3006 RMK SLP189 T01861054 57021 IEM_DS3505
ZBYN,1999-04-27 10:00,ZBYN 271000Z AUTO 23010KT 7SM 16/01 A3006 RMK T01600010 IEM_DS3505
ZBYN,1999-04-27 11:00,ZBYN 271100Z AUTO 29008KT 7SM 16/M05 A3006 RMK T01601050 IEM_DS3505
ZBYN,1999-04-27 12:00,ZBYN 271200Z AUTO 32006KT 16SM 15/M06 A3009 RMK SLP201 T01461058 52006 IEM_DS3505
ZBYN,1999-04-27 13:00,ZBYN 271300Z AUTO 29002KT 6SM 13/M03 A3012 RMK T01301030 IEM_DS3505
ZBYN,1999-04-27 14:00,ZBYN 271400Z AUTO 26002KT 6SM 12/M03 A3015 RMK T01201030 IEM_DS3505
ZBYN,1999-04-27 15:00,ZBYN 271500Z AUTO 00000KT 9SM 10/M00 A3015 RMK SLP222 T01031002 52019 IEM_DS3505
ZBYN,1999-04-27 16:00,ZBYN 271600Z AUTO 09002KT 6SM 07/M02 A3015 RMK T00701020 IEM_DS3505
ZBYN,1999-04-27 17:00,ZBYN 271700Z AUTO 12002KT 6SM 07/M01 A3012 RMK T00701010 IEM_DS3505
ZBYN,1999-04-27 18:00,ZBYN 271800Z AUTO 00000KT 9SM 06/M01 A3009 RMK SLP205 T00611010 57017 IEM_DS3505
ZBYN,1999-04-27 20:00,ZBYN 272000Z AUTO 00000KT 6SM 05/M01 A3012 RMK T00501010 IEM_DS3505
ZBYN,1999-04-27 21:00,ZBYN 272100Z AUTO 00000KT 6SM 05/M00 A3012 RMK SLP212 T00491001 52008 IEM_DS3505
ZBYN,1999-04-27 22:00,ZBYN 272200Z AUTO 00000KT 6SM 03/M01 A3012 RMK T00301010 IEM_DS3505
ZBYN,1999-04-27 23:00,ZBYN 272300Z AUTO 10002KT 6SM 06/M01 A3012 RMK T00601010 IEM_DS3505
ZBYN,1999-04-28 00:00,ZBYN 280000Z AUTO 14004KT 6SM 09/M01 A3012 RMK SLP216 T00891013 52004 IEM_DS3505
ZBYN,1999-04-28 01:00,ZBYN 280100Z AUTO 13002KT 6SM 11/00 A3012 RMK T01100000 IEM_DS3505
ZBYN,1999-04-28 02:00,ZBYN 280200Z AUTO 21004KT 6SM 15/M01 A3012 RMK T01501010 IEM_DS3505
ZBYN,1999-04-28 03:00,ZBYN 280300Z AUTO 18008KT 6SM 17/M01 A3009 RMK SLP196 T01681009 57013 IEM_DS3505
ZBYN,1999-04-28 04:00,ZBYN 280400Z AUTO 15008KT 6SM 19/M05 A3006 RMK T01901050 IEM_DS3505
ZBYN,1999-04-28 05:00,ZBYN 280500Z AUTO 23006KT 6SM 20/M04 A3003 RMK T02001040 IEM_DS3505
ZBYN,1999-04-28 06:00,ZBYN 280600Z AUTO 18008KT 7SM 21/M02 A3000 RMK SLP161 T02121016 57032 IEM_DS3505
ZBYN,1999-04-28 07:00,ZBYN 280700Z AUTO 18008KT 7SM 21/M05 A2994 RMK T02101050 IEM_DS3505
ZBYN,1999-04-28 08:00,ZBYN 280800Z AUTO 18008KT 7SM 20/M05 A2994 RMK T02001050 IEM_DS3505
ZBYN,1999-04-28 09:00,ZBYN 280900Z AUTO 22010KT 9SM 21/M04 A2991 RMK SLP138 T02081041 57023 IEM_DS3505
ZBYN,1999-04-28 10:00,ZBYN 281000Z AUTO 17004KT 7SM 21/M05 A2991 RMK T02101050 IEM_DS3505
ZBYN,1999-04-28 11:00,ZBYN 281100Z AUTO 31012KT 7SM 19/M10 A2991 RMK T01901100 IEM_DS3505
ZBYN,1999-04-28 12:00,ZBYN 281200Z AUTO 29004KT 12SM 18/M07 A2994 RMK SLP147 T01771071 52010 IEM_DS3505
ZBYN,1999-04-28 13:00,ZBYN 281300Z AUTO 32002KT 6SM 14/M08 A2997 RMK T01401080 IEM_DS3505
ZBYN,1999-04-28 14:00,ZBYN 281400Z AUTO 00000KT 6SM 14/M07 A3000 RMK T01401070 IEM_DS3505
ZBYN,1999-04-28 15:00,ZBYN 281500Z AUTO 00000KT 11SM 12/M02 A3000 RMK SLP159 T01201025 52014 IEM_DS3505
ZBYN,1999-04-28 16:00,ZBYN 281600Z AUTO 10002KT 6SM 11/M05 A3000 RMK T01101050 IEM_DS3505
ZBYN,1999-04-28 17:00,ZBYN 281700Z AUTO 10002KT 6SM 08/M06 A3003 RMK T00801060 IEM_DS3505
ZBYN,1999-04-28 18:00,ZBYN 281800Z AUTO 11002KT 6SM 07/M04 A3000 RMK T00701040 IEM_DS3505
ZBYN,1999-04-28 19:00,ZBYN 281900Z AUTO 10002KT 6SM 07/M02 A3000 RMK T00701020 IEM_DS3505
ZBYN,1999-04-28 20:00,ZBYN 282000Z AUTO 13004KT 6SM 07/M01 A3000 RMK T00701010 IEM_DS3505
ZBYN,1999-04-28 21:00,ZBYN 282100Z AUTO 00000KT 9SM 06/00 A3000 RMK SLP167 T00640003 54000 IEM_DS3505
ZBYN,1999-04-28 22:00,ZBYN 282200Z AUTO 13004KT 6SM 05/M01 A3000 RMK T00501010 IEM_DS3505
ZBYN,1999-04-28 23:00,ZBYN 282300Z AUTO 13004KT 6SM 08/00 A3003 RMK T00800000 IEM_DS3505
ZBYN,1999-04-29 00:00,ZBYN 290000Z AUTO 00000KT 5SM 11/01 A3003 RMK SLP169 T01140008 52004 IEM_DS3505
ZBYN,1999-04-29 01:00,ZBYN 290100Z AUTO 13002KT 5SM 14/01 A3000 RMK T01400010 IEM_DS3505
ZBYN,1999-04-29 02:00,ZBYN 290200Z AUTO 16004KT 5SM 17/01 A3000 RMK T01700010 IEM_DS3505
ZBYN,1999-04-29 03:00,ZBYN 290300Z AUTO 18008KT 5SM 20/00 A2997 RMK SLP151 T01990000 57012 IEM_DS3505
ZBYN,1999-04-29 04:00,ZBYN 290400Z AUTO 23010KT 6SM 22/00 A2994 RMK T02200000 IEM_DS3505
ZBYN,1999-04-29 05:00,ZBYN 290500Z AUTO 25012KT 7SM 23/M01 A2991 RMK T02301010 IEM_DS3505
ZBYN,1999-04-29 06:00,ZBYN 290600Z AUTO 23008KT 7SM 23/00 A2985 RMK T02300000 IEM_DS3505
ZBYN,1999-04-29 07:00,ZBYN 290700Z AUTO 26006KT 7SM 24/M01 A2983 RMK T02401010 IEM_DS3505
ZBYN,1999-04-29 08:00,ZBYN 290800Z AUTO 22006KT 7SM 25/M02 A2983 RMK T02501020 IEM_DS3505
ZBYN,1999-04-29 09:00,ZBYN 290900Z AUTO 20012KT 9SM 23/M01 A2980 RMK SLP092 T02341010 57021 IEM_DS3505
ZBYN,1999-04-29 10:00,ZBYN 291000Z AUTO 24006KT 7SM 23/M01 A2980 RMK T02301010 IEM_DS3505
ZBYN,1999-04-29 11:00,ZBYN 291100Z AUTO 23006KT 7SM 21/01 A2980 RMK T02100010 IEM_DS3505
ZBYN,1999-04-29 12:00,ZBYN 291200Z AUTO 25006KT 6SM 21/00 A2983 RMK SLP098 T02090005 52009 IEM_DS3505
ZBYN,1999-04-29 13:00,ZBYN 291300Z AUTO 26010KT 6SM 20/04 A2985 RMK T02000040 IEM_DS3505
ZBYN,1999-04-29 14:00,ZBYN 291400Z AUTO 25008KT 6SM 19/04 A2988 RMK T01900040 IEM_DS3505
ZBYN,1999-04-29 15:00,ZBYN 291500Z AUTO 18006KT 6SM 17/02 A2988 RMK SLP110 T01710017 52018 IEM_DS3505
ZBYN,1999-04-29 16:00,ZBYN 291600Z AUTO 22004KT 6SM 18/06 A2988 RMK T01800060 IEM_DS3505
ZBYN,1999-04-29 17:00,ZBYN 291700Z AUTO 14002KT 6SM 16/05 A2988 RMK T01600050 IEM_DS3505
ZBYN,1999-04-29 18:00,ZBYN 291800Z AUTO 14004KT 6SM 14/02 A2988 RMK SLP106 T01370024 57003 IEM_DS3505
ZBYN,1999-04-29 19:00,ZBYN 291900Z AUTO 14004KT 6SM 15/06 A2988 RMK T01500060 IEM_DS3505
ZBYN,1999-04-29 20:00,ZBYN 292000Z AUTO 17002KT 6SM 14/06 A2988 RMK T01400060 IEM_DS3505
ZBYN,1999-04-29 21:00,ZBYN 292100Z AUTO 14004KT 5SM 13/04 A2988 RMK SLP127 T01320039 52018 IEM_DS3505
ZBYN,1999-04-29 22:00,ZBYN 292200Z AUTO 09004KT 5SM 12/06 A2994 RMK T01200060 IEM_DS3505
ZBYN,1999-04-29 23:00,ZBYN 292300Z AUTO 08002KT 5SM 14/06 A2997 RMK T01400060 IEM_DS3505
ZBYN,1999-04-30 00:00,ZBYN 300000Z AUTO 00000KT 5SM 15/07 A3000 RMK SLP153 T01480070 52022 IEM_DS3505
ZBYN,1999-04-30 01:00,ZBYN 300100Z AUTO 00000KT 17/06 A3000 RMK T01700060 IEM_DS3505
ZBYN,1999-04-30 02:00,ZBYN 300200Z AUTO 31002KT 5SM 20/02 A3000 RMK T02000020 IEM_DS3505
ZBYN,1999-04-30 03:00,ZBYN 300300Z AUTO 04006KT 6SM 22/M04 A3000 RMK SLP148 T02241040 52001 IEM_DS3505
ZBYN,1999-04-30 04:00,ZBYN 300400Z AUTO 02002KT 6SM 23/M04 A3000 RMK T02301040 IEM_DS3505
ZBYN,1999-04-30 05:00,ZBYN 300500Z AUTO 04002KT 6SM 23/M05 A2997 RMK T02301050 IEM_DS3505
ZBYN,1999-04-30 06:00,ZBYN 300600Z AUTO 22010KT 6SM 25/M03 A2994 RMK SLP133 T02471032 57015 IEM_DS3505
ZBYN,1999-04-30 07:00,ZBYN 300700Z AUTO 22008KT 6SM 25/M02 A2994 RMK T02501020 IEM_DS3505
ZBYN,1999-04-30 08:00,ZBYN 300800Z AUTO 23008KT 6SM 25/M03 A2991 RMK T02501030 IEM_DS3505
ZBYN,1999-04-30 09:00,ZBYN 300900Z AUTO 18008KT 6SM 24/M03 A2994 RMK SLP123 T02391033 57011 IEM_DS3505
ZBYN,1999-04-30 10:00,ZBYN 301000Z AUTO 20004KT 6SM 24/M02 A2994 RMK T02401020 IEM_DS3505
ZBYN,1999-04-30 11:00,ZBYN 301100Z AUTO 00000KT 6SM 23/M01 A2994 RMK T02301010 IEM_DS3505
ZBYN,1999-04-30 12:00,ZBYN 301200Z AUTO 07004KT 6SM 20/00 A2997 RMK SLP145 T02050000 52017 IEM_DS3505
ZBYN,1999-04-30 13:00,ZBYN 301300Z AUTO 08016KT 6SM 19/06 A3003 RMK T01900060 IEM_DS3505
ZBYN,1999-04-30 14:00,ZBYN 301400Z AUTO 08016KT 6SM 17/07 A3006 RMK T01700070 IEM_DS3505
ZBYN,1999-04-30 15:00,ZBYN 301500Z AUTO 07012KT 6SM 17/03 A3009 RMK SLP178 T01690031 52036 IEM_DS3505
ZBYN,1999-04-30 17:00,ZBYN 301700Z AUTO 09016KT 6SM 16/06 A3009 RMK T01600060 IEM_DS3505
ZBYN,1999-04-30 18:00,ZBYN 301800Z AUTO 09010KT 6SM 15/03 RMK SLP184 T01530033 52007 IEM_DS3505
ZBYN,1999-04-30 19:00,ZBYN 301900Z AUTO 08014KT 6SM 14/05 A3012 RMK T01400050 IEM_DS3505
ZBYN,1999-04-30 21:00,ZBYN 302100Z AUTO 07016KT 6SM 14/05 A3015 RMK SLP198 T01360054 52009 IEM_DS3505
ZBYN,1999-04-30 22:00,ZBYN 302200Z AUTO 07014KT 6SM 13/M02 A3018 RMK T01301020 IEM_DS3505
ZBYN,1999-04-30 23:00,ZBYN 302300Z AUTO 07012KT 7SM 14/M06 A3021 RMK T01401060 IEM_DS3505
ZBYN,1999-05-01 00:00,ZBYN 010000Z AUTO 07004KT 6SM 14/M07 A3024 RMK SLP226 T01401067 52021 IEM_DS3505
ZBYN,1999-05-01 01:00,ZBYN 010100Z AUTO 07010KT 7SM 12/M01 A3024 RMK T01201010 IEM_DS3505
ZBYN,1999-05-01 02:00,ZBYN 010200Z AUTO 07012KT 7SM 12/00 A3024 RMK T01200000 IEM_DS3505
ZBYN,1999-05-01 03:00,ZBYN 010300Z AUTO 00000KT 9SM 14/M02 A3024 RMK SLP248 T01361024 52014 IEM_DS3505
ZBYN,1999-05-01 04:00,ZBYN 010400Z AUTO 06014KT 6SM 13/03 A3021 RMK T01300030 IEM_DS3505
ZBYN,1999-05-01 05:00,ZBYN 010500Z AUTO 05016KT 6SM 15/05 A3018 RMK T01500050 IEM_DS3505
ZBYN,1999-05-01 06:00,ZBYN 010600Z AUTO 34008KT 9SM 16/01 A3015 RMK SLP204 T01640008 57038 IEM_DS3505
ZBYN,1999-05-01 07:00,ZBYN 010700Z AUTO 05010KT 6SM 17/07 A3009 RMK T01700070 IEM_DS3505
ZBYN,1999-05-01 08:00,ZBYN 010800Z AUTO 05012KT 6SM 17/07 A3006 RMK T01700070 IEM_DS3505
ZBYN,1999-05-01 09:00,ZBYN 010900Z AUTO 32008KT 6SM 16/03 A3003 RMK SLP171 T01620032 57033 IEM_DS3505
ZBYN,1999-05-01 10:00,ZBYN 011000Z AUTO 07014KT 6SM 17/07 A3000 RMK T01700070 IEM_DS3505
ZBYN,1999-05-01 11:00,ZBYN 011100Z AUTO 05014KT 6SM 15/07 A3000 RMK T01500070 IEM_DS3505
ZBYN,1999-05-01 12:00,ZBYN 011200Z AUTO 36004KT 6SM 15/04 A3003 RMK SLP174 T01480045 52001 IEM_DS3505
ZBYN,1999-05-01 13:00,ZBYN 011300Z AUTO 06008KT 6SM 13/06 A3006 RMK T01300060 IEM_DS3505
ZBYN,1999-05-01 14:00,ZBYN 011400Z AUTO 03008KT 6SM 13/06 A3012 RMK T01300060 IEM_DS3505
ZBYN,1999-05-01 15:00,ZBYN 011500Z AUTO 36004KT 6SM 11/07 A3012 RMK SLP205 T01140072 52023 IEM_DS3505
ZBYN,1999-05-01 16:00,ZBYN 011600Z AUTO 08010KT 6SM 11/06 A3009 RMK T01100060 IEM_DS3505
ZBYN,1999-05-01 17:00,ZBYN 011700Z AUTO 35006KT 6SM 11/09 A3009 RMK T01100090 IEM_DS3505
ZBYN,1999-05-01 18:00,ZBYN 011800Z AUTO 34006KT 6SM 11/05 A3006 RMK SLP186 T01080054 57014 IEM_DS3505
ZBYN,1999-05-01 19:00,ZBYN 011900Z AUTO 29002KT 6SM 10/08 A3006 RMK T01000080 IEM_DS3505
ZBYN,1999-05-01 20:00,ZBYN 012000Z AUTO 12002KT 6SM 10/09 A3006 RMK T01000090 IEM_DS3505
ZBYN,1999-05-01 21:00,ZBYN 012100Z AUTO 32004KT 6SM 11/04 A3003 RMK SLP174 T01080044 57011 IEM_DS3505
ZBYN,1999-05-01 22:00,ZBYN 012200Z AUTO 00000KT 6SM 11/08 A3006 RMK T01100080 IEM_DS3505
ZBYN,1999-05-01 23:00,ZBYN 012300Z AUTO 00000KT 6SM 11/08 A3006 RMK T01100080 IEM_DS3505
ZBYN,1999-05-02 00:00,ZBYN 020000Z AUTO 00000KT 6SM 12/05 A3006 RMK SLP185 T01180054 52009 IEM_DS3505
ZBYN,1999-05-02 01:00,ZBYN 020100Z AUTO 35002KT 4SM 13/08 A3006 RMK T01300080 IEM_DS3505
ZBYN,1999-05-02 02:00,ZBYN 020200Z AUTO 33008KT 5SM 15/09 A3006 RMK T01500090 IEM_DS3505
ZBYN,1999-05-02 03:00,ZBYN 020300Z AUTO 32004KT 5SM 14/07 A3006 RMK SLP185 T01420067 57001 IEM_DS3505
ZBYN,1999-05-02 04:00,ZBYN 020400Z AUTO 25002KT 5SM 16/09 A3003 RMK T01600090 IEM_DS3505
ZBYN,1999-05-02 05:00,ZBYN 020500Z AUTO 32004KT 5SM 17/09 A3000 RMK T01700090 IEM_DS3505
ZBYN,1999-05-02 06:00,ZBYN 020600Z AUTO 32004KT 4SM 18/08 A3000 RMK SLP160 T01760085 57019 IEM_DS3505
ZBYN,1999-05-02 07:00,ZBYN 020700Z AUTO 31008KT 5SM 18/11 A2997 RMK T01800110 IEM_DS3505
ZBYN,1999-05-02 08:00,ZBYN 020800Z AUTO 34008KT 5SM 17/10 A3000 RMK T01700100 IEM_DS3505
ZBYN,1999-05-02 09:00,ZBYN 020900Z AUTO 32006KT 4SM 15/10 A3000 RMK SLP163 T01480096 57001 IEM_DS3505
ZBYN,1999-05-02 10:00,ZBYN 021000Z AUTO 30008KT 5SM 15/11 A2997 RMK T01500110 IEM_DS3505
ZBYN,1999-05-02 11:00,ZBYN 021100Z AUTO 34010KT 2 1/2SM 15/11 A3000 RMK T01500110 IEM_DS3505
ZBYN,1999-05-02 12:00,ZBYN 021200Z AUTO 29002KT 4SM 15/09 A3000 RMK SLP173 T01460094 52010 IEM_DS3505
ZBYN,1999-05-02 13:00,ZBYN 021300Z AUTO 30002KT 4SM 15/11 A3003 RMK T01500110 IEM_DS3505
ZBYN,1999-05-02 14:00,ZBYN 021400Z AUTO 00000KT 3SM 15/11 A3003 RMK T01500110 IEM_DS3505
ZBYN,1999-05-02 15:00,ZBYN 021500Z AUTO 36004KT 5SM 15/09 A3003 RMK SLP174 T01510091 52005 IEM_DS3505
ZBYN,1999-05-02 16:00,ZBYN 021600Z AUTO 13002KT 3SM 14/11 A3006 RMK T01400110 IEM_DS3505
ZBYN,1999-05-02 17:00,ZBYN 021700Z AUTO 08002KT 4SM 14/12 A3009 RMK T01400120 IEM_DS3505
ZBYN,1999-05-02 18:00,ZBYN 021800Z AUTO 02006KT 5SM 15/07 A3009 RMK SLP195 T01470071 52024 IEM_DS3505
ZBYN,1999-05-02 19:00,ZBYN 021900Z AUTO 35014KT 7SM 14/09 A3009 RMK T01400090 IEM_DS3505
ZBYN,1999-05-02 21:00,ZBYN 022100Z AUTO 02002KT 6SM 13/08 A3009 RMK SLP200 T01270085 57003 IEM_DS3505
ZBYN,1999-05-02 23:00,ZBYN 022300Z AUTO 33006KT 6SM 14/09 A3009 RMK T01400090 IEM_DS3505
ZBYN,1999-05-03 00:00,ZBYN 030000Z AUTO 34004KT 7SM 14/08 A3012 RMK SLP203 T01370077 52004 IEM_DS3505
ZBYN,1999-05-03 03:00,ZBYN 030300Z AUTO 36006KT 7SM 20/04 A3006 RMK SLP184 T01960045 57008 IEM_DS3505
ZBYN,1999-05-03 05:00,ZBYN 030500Z AUTO 31014KT 7SM 23/M02 A3003 RMK T02301020 IEM_DS3505
ZBYN,1999-05-03 06:00,ZBYN 030600Z AUTO 32004KT 12SM 24/M04 RMK SLP160 T02351040 57017 IEM_DS3505
ZBYN,1999-05-03 07:00,ZBYN 030700Z AUTO 03012KT 7SM 24/M03 A3000 RMK T02401030 IEM_DS3505
ZBYN,1999-05-03 08:00,ZBYN 030800Z AUTO 33008KT 7SM 24/M05 A2997 RMK T02401050 IEM_DS3505
ZBYN,1999-05-03 09:00,ZBYN 030900Z AUTO 32002KT 16SM 24/M06 A2997 RMK SLP141 T02361057 57020 IEM_DS3505
ZBYN,1999-05-03 10:00,ZBYN 031000Z AUTO 01010KT 6SM 23/M07 A2997 RMK T02301070 IEM_DS3505
ZBYN,1999-05-03 11:00,ZBYN 031100Z AUTO 02008KT 6SM 22/M09 A2997 RMK T02201090 IEM_DS3505
ZBYN,1999-05-03 12:00,ZBYN 031200Z AUTO 02004KT 12SM 20/M05 A3000 RMK SLP153 T02041052 52008 IEM_DS3505
ZBYN,1999-05-03 13:00,ZBYN 031300Z AUTO 00000KT 6SM 17/M06 A3003 RMK T01701060 IEM_DS3505
ZBYN,1999-05-03 14:00,ZBYN 031400Z AUTO 36002KT 6SM 16/M05 A3003 RMK T01601050 IEM_DS3505
ZBYN,1999-05-03 15:00,ZBYN 031500Z AUTO 00000KT 9SM 13/01 A3003 RMK SLP170 T01280011 52013 IEM_DS3505
ZBYN,1999-05-03 16:00,ZBYN 031600Z AUTO 00000KT 6SM 12/01 A3006 RMK T01200010 IEM_DS3505
ZBYN,1999-05-03 17:00,ZBYN 031700Z AUTO 12002KT 6SM 10/02 A3006 RMK T01000020 IEM_DS3505
ZBYN,1999-05-03 18:00,ZBYN 031800Z AUTO 00000KT 9SM 10/00 A3006 RMK SLP169 T00990002 52001 IEM_DS3505
ZBYN,1999-05-03 19:00,ZBYN 031900Z AUTO 11002KT 6SM 08/04 A3006 RMK T00800040 IEM_DS3505
ZBYN,1999-05-03 21:00,ZBYN 032100Z AUTO 00000KT 7SM 07/04 A3006 RMK SLP173 T00740036 54000 IEM_DS3505
ZBYN,1999-05-03 23:00,ZBYN 032300Z AUTO 07004KT 3SM 10/08 A3009 RMK T01000080 IEM_DS3505
ZBYN,1999-05-04 00:00,ZBYN 040000Z AUTO 11004KT 5SM 12/07 A3009 RMK SLP186 T01180070 52013 IEM_DS3505
ZBYN,1999-05-04 03:00,ZBYN 040300Z AUTO 22008KT 5SM 20/03 A3006 RMK SLP172 T02050033 57011 IEM_DS3505
ZBYN,1999-05-04 04:00,ZBYN 040400Z AUTO 27006KT 7SM 22/02 A3000 RMK T02200020 IEM_DS3505
ZBYN,1999-05-04 05:00,ZBYN 040500Z AUTO 00000KT 7SM 24/M02 A2997 RMK T02401020 IEM_DS3505
ZBYN,1999-05-04 06:00,ZBYN 040600Z AUTO 25006KT 12SM 25/M08 A2994 RMK SLP134 T02501082 57032 IEM_DS3505
ZBYN,1999-05-04 07:00,ZBYN 040700Z AUTO 32012KT 7SM 26/M06 A2994 RMK T02601060 IEM_DS3505
ZBYN,1999-05-04 08:00,ZBYN 040800Z AUTO 31008KT 7SM 26/M07 A2991 RMK T02601070 IEM_DS3505
ZBYN,1999-05-04 09:00,ZBYN 040900Z AUTO 29008KT 12SM 25/M06 A2988 RMK SLP119 T02531059 57017 IEM_DS3505
ZBYN,1999-05-04 10:00,ZBYN 041000Z AUTO 32012KT 7SM 25/M05 A2988 RMK T02501050 IEM_DS3505
ZBYN,1999-05-04 11:00,ZBYN 041100Z AUTO 30008KT 7SM 23/M04 A2988 RMK T02301040 IEM_DS3505
ZBYN,1999-05-04 12:00,ZBYN 041200Z AUTO 29002KT 12SM 20/M02 RMK SLP131 T02031023 52010 IEM_DS3505
ZBYN,1999-05-04 15:00,ZBYN 041500Z AUTO 29004KT 7SM 16/00 RMK SLP152 T01590003 52025 IEM_DS3505
ZBYN,1999-05-04 18:00,ZBYN 041800Z AUTO 36004KT 6SM 14/00 RMK SLP161 T01420004 52013 IEM_DS3505
ZBYN,1999-05-04 21:00,ZBYN 042100Z AUTO 00000KT 9SM 12/02 RMK SLP168 T01180020 52003 IEM_DS3505
ZBYN,1999-05-05 00:00,ZBYN 050000Z AUTO 32004KT 9SM 16/01 RMK SLP186 T01570006 52015 IEM_DS3505
ZBYN,1999-05-05 03:00,ZBYN 050300Z AUTO 36004KT 12SM 20/00 A3006 RMK SLP179 T02030000 57006 IEM_DS3505
ZBYN,1999-05-05 04:00,ZBYN 050400Z AUTO 34012KT 6SM 22/M03 A3006 RMK T02201030 IEM_DS3505
ZBYN,1999-05-05 05:00,ZBYN 050500Z AUTO 36008KT 6SM 22/M05 A3003 RMK T02201050 IEM_DS3505
ZBYN,1999-05-05 06:00,ZBYN 050600Z AUTO 29006KT 12SM 24/M04 RMK SLP146 T02451037 57027 IEM_DS3505
ZBYN,1999-05-05 09:00,ZBYN 050900Z AUTO 02004KT 16SM 25/M08 A2994 RMK SLP122 T02511084 57024 IEM_DS3505
ZBYN,1999-05-05 10:00,ZBYN 051000Z AUTO 06008KT 6SM 25/M09 A2991 RMK T02501090 IEM_DS3505
ZBYN,1999-05-05 11:00,ZBYN 051100Z AUTO 00000KT 6SM 24/M07 A2991 RMK T02401070 IEM_DS3505
ZBYN,1999-05-05 12:00,ZBYN 051200Z AUTO 00000KT 12SM 21/M02 A2994 RMK SLP130 T02111018 52007 IEM_DS3505
ZBYN,1999-05-05 13:00,ZBYN 051300Z AUTO 24002KT 6SM 20/M04 A2997 RMK T02001040 IEM_DS3505
ZBYN,1999-05-05 14:00,ZBYN 051400Z AUTO 36004KT 6SM 17/M04 A2997 RMK T01701040 IEM_DS3505
ZBYN,1999-05-05 15:00,ZBYN 051500Z AUTO 32004KT 11SM 15/00 A2997 RMK SLP144 T01470003 52010 IEM_DS3505
ZBYN,1999-05-05 16:00,ZBYN 051600Z AUTO 00000KT 6SM 14/M05 A3000 RMK T01401050 IEM_DS3505
ZBYN,1999-05-05 17:00,ZBYN 051700Z AUTO 07004KT 6SM 13/M05 A3000 RMK T01301050 IEM_DS3505
ZBYN,1999-05-05 18:00,ZBYN 051800Z AUTO 11002KT 6SM 10/M05 A2997 RMK T01001050 IEM_DS3505
ZBYN,1999-05-05 19:00,ZBYN 051900Z AUTO 00000KT 6SM 10/M05 A3000 RMK T01001050 IEM_DS3505
ZBYN,1999-05-05 20:00,ZBYN 052000Z AUTO 11002KT 6SM 09/M05 A2997 RMK T00901050 IEM_DS3505
ZBYN,1999-05-05 21:00,ZBYN 052100Z AUTO 02002KT 6SM 10/00 A2997 RMK SLP148 T01010002 54000 IEM_DS3505
ZBYN,1999-05-05 22:00,ZBYN 052200Z AUTO 00000KT 6SM 08/M04 A3000 RMK T00801040 IEM_DS3505
ZBYN,1999-05-05 23:00,ZBYN 052300Z AUTO 15002KT 6SM 11/M03 A3000 RMK T01101030 IEM_DS3505
ZBYN,1999-05-06 00:00,ZBYN 060000Z AUTO 32004KT 6SM 16/M03 A3000 RMK SLP154 T01561028 52008 IEM_DS3505
ZBYN,1999-05-06 01:00,ZBYN 060100Z AUTO 14002KT 6SM 17/05 A3000 RMK T01700050 IEM_DS3505
ZBYN,1999-05-06 02:00,ZBYN 060200Z AUTO 12002KT 6SM 19/04 A2997 RMK T01900040 IEM_DS3505
ZBYN,1999-05-06 03:00,ZBYN 060300Z AUTO 00000KT 5SM 22/M03 A2994 RMK SLP131 T02241034 57021 IEM_DS3505
ZBYN,1999-05-06 04:00,ZBYN 060400Z AUTO 14006KT 6SM 24/M02 A2991 RMK T02401020 IEM_DS3505
ZBYN,1999-05-06 05:00,ZBYN 060500Z AUTO 24004KT 6SM 25/M02 A2988 RMK T02501020 IEM_DS3505
ZBYN,1999-05-06 06:00,ZBYN 060600Z AUTO 20006KT 9SM 26/M04 A2983 RMK SLP092 T02551038 57034 IEM_DS3505
ZBYN,1999-05-06 07:00,ZBYN 060700Z AUTO 24004KT 6SM 26/M02 A2980 RMK T02601020 IEM_DS3505
ZBYN,1999-05-06 08:00,ZBYN 060800Z AUTO 22004KT 7SM 26/M03 A2980 RMK T02601030 IEM_DS3505
ZBYN,1999-05-06 09:00,ZBYN 060900Z AUTO 18006KT 12SM 26/M03 A2977 RMK SLP071 T02571027 57022 IEM_DS3505
ZBYN,1999-05-06 10:00,ZBYN 061000Z AUTO 26006KT 7SM 25/M06 A2977 RMK T02501060 IEM_DS3505
ZBYN,1999-05-06 11:00,ZBYN 061100Z AUTO 26002KT 7SM 24/M03 A2980 RMK T02401030 IEM_DS3505
ZBYN,1999-05-06 12:00,ZBYN 061200Z AUTO 00000KT 7SM 22/01 A2980 RMK SLP080 T02200013 52010 IEM_DS3505
ZBYN,1999-05-06 13:00,ZBYN 061300Z AUTO 27002KT 6SM 22/01 A2980 RMK T02200010 IEM_DS3505
ZBYN,1999-05-06 14:00,ZBYN 061400Z AUTO 28006KT 6SM 21/02 A2980 RMK T02100020 IEM_DS3505
ZBYN,1999-05-06 15:00,ZBYN 061500Z AUTO 00000KT 6SM 19/04 A2980 RMK SLP079 T01910035 52005 IEM_DS3505
ZBYN,1999-05-06 16:00,ZBYN 061600Z AUTO 23006KT 6SM 19/07 A2983 RMK T01900070 IEM_DS3505
ZBYN,1999-05-06 18:00,ZBYN 061800Z AUTO 11006KT 6SM 15/08 RMK SLP089 T01530079 52008 IEM_DS3505
ZBYN,1999-05-06 20:00,ZBYN 062000Z AUTO 00000KT 6SM 14/09 A2985 RMK T01400090 IEM_DS3505
ZBYN,1999-05-06 21:00,ZBYN 062100Z AUTO 02002KT 6SM 14/09 A2985 RMK SLP098 T01360087 52006 IEM_DS3505
ZBYN,1999-05-06 22:00,ZBYN 062200Z AUTO 04004KT 4SM 14/10 A2988 RMK T01400100 IEM_DS3505
ZBYN,1999-05-06 23:00,ZBYN 062300Z AUTO 00000KT 14/09 A2988 RMK T01400090 IEM_DS3505
ZBYN,1999-05-07 00:00,ZBYN 070000Z AUTO 14002KT 5SM 16/08 A2988 RMK SLP107 T01640081 52007 IEM_DS3505
ZBYN,1999-05-07 01:00,ZBYN 070100Z AUTO 19002KT 19/10 A2985 RMK T01900100 IEM_DS3505
ZBYN,1999-05-07 02:00,ZBYN 070200Z AUTO 23002KT 21/08 A2985 RMK T02100080 IEM_DS3505
ZBYN,1999-05-07 03:00,ZBYN 070300Z AUTO 00000KT 5SM 24/06 A2985 RMK SLP092 T02360065 57007 IEM_DS3505
ZBYN,1999-05-07 04:00,ZBYN 070400Z AUTO 32008KT 7SM 24/04 A2983 RMK T02400040 IEM_DS3505
ZBYN,1999-05-07 05:00,ZBYN 070500Z AUTO 01006KT 7SM 24/M01 A2983 RMK T02401010 IEM_DS3505
ZBYN,1999-05-07 06:00,ZBYN 070600Z AUTO 34006KT 12SM 26/M02 A2983 RMK SLP084 T02581021 57010 IEM_DS3505
ZBYN,1999-05-07 07:00,ZBYN 070700Z AUTO 14006KT 7SM 26/M01 A2980 RMK T02601010 IEM_DS3505
ZBYN,1999-05-07 08:00,ZBYN 070800Z AUTO 13008KT 7SM 25/00 A2983 RMK T02500000 IEM_DS3505
ZBYN,1999-05-07 09:00,ZBYN 070900Z AUTO 07006KT 11SM 25/M01 A2983 RMK SLP085 T02521014 57002 IEM_DS3505
ZBYN,1999-05-07 10:00,ZBYN 071000Z AUTO 21002KT 7SM 25/M01 A2983 RMK T02501010 IEM_DS3505
ZBYN,1999-05-07 11:00,ZBYN 071100Z AUTO 26004KT 7SM 23/02 A2985 RMK T02300020 IEM_DS3505
ZBYN,1999-05-07 12:00,ZBYN 071200Z AUTO 00000KT 7SM 22/02 A2988 RMK SLP105 T02200019 52017 IEM_DS3505
ZBYN,1999-05-07 13:00,ZBYN 071300Z AUTO 11002KT 6SM 22/02 A2988 RMK T02200020 IEM_DS3505
ZBYN,1999-05-07 14:00,ZBYN 071400Z AUTO 16002KT 6SM 19/03 A2991 RMK T01900030 IEM_DS3505
ZBYN,1999-05-07 15:00,ZBYN 071500Z AUTO 00000KT 6SM 16/01 A2991 RMK SLP119 T01630007 52015 IEM_DS3505
ZBYN,1999-05-07 16:00,ZBYN 071600Z AUTO 00000KT 6SM 15/02 A2991 RMK T01500020 IEM_DS3505
ZBYN,1999-05-07 17:00,ZBYN 071700Z AUTO 12004KT 6SM 12/02 A2991 RMK T01200020 IEM_DS3505
ZBYN,1999-05-07 18:00,ZBYN 071800Z AUTO 00000KT 6SM 12/02 A2991 RMK SLP121 T01190024 57001 IEM_DS3505
ZBYN,1999-05-07 20:00,ZBYN 072000Z AUTO 10002KT 6SM 12/00 A2991 RMK T01200000 IEM_DS3505
ZBYN,1999-05-07 21:00,ZBYN 072100Z AUTO 00000KT 6SM 11/01 RMK SLP122 T01100009 57001 IEM_DS3505
ZBYN,1999-05-07 22:00,ZBYN 072200Z AUTO 12004KT 6SM 10/02 A2991 RMK T01000020 IEM_DS3505
ZBYN,1999-05-07 23:00,ZBYN 072300Z AUTO 13002KT 6SM 12/03 A2991 RMK T01200030 IEM_DS3505
ZBYN,1999-05-08 00:00,ZBYN 080000Z AUTO 00000KT 6SM 15/03 A2991 RMK SLP128 T01490033 52006 IEM_DS3505
ZBYN,1999-05-08 01:00,ZBYN 080100Z AUTO 17002KT 7SM 18/06 A2991 RMK T01800060 IEM_DS3505
ZBYN,1999-05-08 02:00,ZBYN 080200Z AUTO 23004KT 6SM 20/08 A2991 RMK T02000080 IEM_DS3505
ZBYN,1999-05-08 03:00,ZBYN 080300Z AUTO 18008KT 5SM 22/06 A2988 RMK SLP104 T02230060 57019 IEM_DS3505
ZBYN,1999-05-08 04:00,ZBYN 080400Z AUTO 22008KT 7SM 26/08 A2983 RMK T02600080 IEM_DS3505
ZBYN,1999-05-08 05:00,ZBYN 080500Z AUTO 22008KT 7SM 28/04 A2980 RMK T02800040 IEM_DS3505
ZBYN,1999-05-08 06:00,ZBYN 080600Z AUTO 18014KT 9SM 28/M00 A2977 RMK SLP066 T02771003 57034 IEM_DS3505
ZBYN,1999-05-08 07:00,ZBYN 080700Z AUTO 25010KT 7SM 29/00 A2974 RMK T02900000 IEM_DS3505
ZBYN,1999-05-08 08:00,ZBYN 080800Z AUTO 23010KT 7SM 29/M01 A2971 RMK T02901010 IEM_DS3505
ZBYN,1999-05-08 09:00,ZBYN 080900Z AUTO 20008KT 9SM 28/M04 A2971 RMK SLP042 T02841038 57022 IEM_DS3505
ZBYN,1999-05-08 10:00,ZBYN 081000Z AUTO 25006KT 7SM 28/00 A2971 RMK T02800000 IEM_DS3505
ZBYN,1999-05-08 11:00,ZBYN 081100Z AUTO 25008KT 7SM 27/00 A2968 RMK T02700000 IEM_DS3505
ZBYN,1999-05-08 12:00,ZBYN 081200Z AUTO 22012KT 9SM 26/01 A2971 RMK SLP048 T02560008 52007 IEM_DS3505
ZBYN,1999-05-08 13:00,ZBYN 081300Z AUTO 36010KT 7SM 25/01 A2974 RMK T02500010 IEM_DS3505
ZBYN,1999-05-08 14:00,ZBYN 081400Z AUTO 09008KT 7SM 24/06 A2977 RMK T02400060 IEM_DS3505
ZBYN,1999-05-08 15:00,ZBYN 081500Z AUTO 16008KT 6SM 23/02 A2980 RMK SLP063 T02280025 52020 IEM_DS3505
ZBYN,1999-05-08 16:00,ZBYN 081600Z AUTO 14006KT 7SM 22/04 A2977 RMK T02200040 IEM_DS3505
ZBYN,1999-05-08 17:00,ZBYN 081700Z AUTO 07004KT 7SM 21/03 A2977 RMK T02100030 IEM_DS3505
ZBYN,1999-05-08 18:00,ZBYN 081800Z AUTO 04004KT 6SM 20/05 A2977 RMK SLP049 T01960046 57009 IEM_DS3505
ZBYN,1999-05-08 19:00,ZBYN 081900Z AUTO 35017KT 7SM 15/12 A2983 RMK T01500120 IEM_DS3505
ZBYN,1999-05-08 20:00,ZBYN 082000Z AUTO 26002KT 7SM 15/12 A2980 RMK T01500120 IEM_DS3505
ZBYN,1999-05-08 21:00,ZBYN 082100Z AUTO 32004KT 6SM 16/09 A2977 RMK SLP066 T01610088 52011 IEM_DS3505
ZBYN,1999-05-08 22:00,ZBYN 082200Z AUTO 30002KT 7SM 15/11 A2980 RMK T01500110 IEM_DS3505
ZBYN,1999-05-08 23:00,ZBYN 082300Z AUTO 33004KT 7SM 15/12 A2980 RMK T01500120 IEM_DS3505
ZBYN,1999-05-09 00:00,ZBYN 090000Z AUTO 36002KT 7SM 18/07 A2983 RMK SLP085 T01800069 52016 IEM_DS3505
ZBYN,1999-05-09 01:00,ZBYN 090100Z AUTO 33006KT 7SM 21/10 A2983 RMK T02100100 IEM_DS3505
ZBYN,1999-05-09 02:00,ZBYN 090200Z AUTO 36012KT 7SM 22/08 A2983 RMK T02200080 IEM_DS3505
ZBYN,1999-05-09 03:00,ZBYN 090300Z AUTO 36008KT 12SM 22/05 A2983 RMK SLP082 T02250050 54000 IEM_DS3505
ZBYN,1999-05-09 04:00,ZBYN 090400Z AUTO 35014KT 7SM 25/08 A2983 RMK T02500080 IEM_DS3505
ZBYN,1999-05-09 05:00,ZBYN 090500Z AUTO 06019KT 7SM 22/10 A2985 RMK T02200100 IEM_DS3505
ZBYN,1999-05-09 06:00,ZBYN 090600Z AUTO 02014KT 6SM 18/05 A2991 RMK SLP126 T01820051 52030 IEM_DS3505
ZBYN,1999-05-09 07:00,ZBYN 090700Z AUTO 07017KT 7SM 17/08 A2994 RMK T01700080 IEM_DS3505
ZBYN,1999-05-09 08:00,ZBYN 090800Z AUTO 10012KT 7SM 19/06 A2991 RMK T01900060 IEM_DS3505
ZBYN,1999-05-09 09:00,ZBYN 090900Z AUTO 09010KT 12SM 21/03 A2991 RMK SLP123 T02060026 57005 IEM_DS3505
ZBYN,1999-05-09 10:00,ZBYN 091000Z AUTO 10014KT 6SM 19/07 A2994 RMK T01900070 IEM_DS3505
ZBYN,1999-05-09 11:00,ZBYN 091100Z AUTO 10010KT 6SM 19/06 A2994 RMK T01900060 IEM_DS3505
ZBYN,1999-05-09 12:00,ZBYN 091200Z AUTO 00000KT 16SM 17/05 A2994 RMK SLP137 T01690051 52011 IEM_DS3505
ZBYN,1999-05-09 13:00,ZBYN 091300Z AUTO 26002KT 6SM 15/06 A2997 RMK T01500060 IEM_DS3505
ZBYN,1999-05-09 14:00,ZBYN 091400Z AUTO 00000KT 6SM 12/07 A2997 RMK T01200070 IEM_DS3505
ZBYN,1999-05-09 15:00,ZBYN 091500Z AUTO 00000KT 12SM 12/07 A2997 RMK SLP139 T01200068 52001 IEM_DS3505
ZBYN,1999-05-09 16:00,ZBYN 091600Z AUTO 06002KT 6SM 11/09 A2997 RMK T01100090 IEM_DS3505
ZBYN,1999-05-09 17:00,ZBYN 091700Z AUTO 07004KT 6SM 11/07 A3000 RMK T01100070 IEM_DS3505
ZBYN,1999-05-09 18:00,ZBYN 091800Z AUTO 12002KT 6SM 10/07 A3000 RMK T01000070 IEM_DS3505
ZBYN,1999-05-09 19:00,ZBYN 091900Z AUTO 12004KT 6SM 09/07 A3000 RMK T00900070 IEM_DS3505
ZBYN,1999-05-09 20:00,ZBYN 092000Z AUTO 00000KT 6SM 09/07 A3003 RMK T00900070 IEM_DS3505
ZBYN,1999-05-09 21:00,ZBYN 092100Z AUTO 00000KT 6SM 08/06 A3003 RMK SLP165 T00760061 52003 IEM_DS3505
ZBYN,1999-05-09 22:00,ZBYN 092200Z AUTO 14002KT 6SM 07/06 A3003 RMK T00700060 IEM_DS3505
ZBYN,1999-05-09 23:00,ZBYN 092300Z AUTO 00000KT 6SM 10/08 A3003 RMK T01000080 IEM_DS3505
ZBYN,1999-05-10 00:00,ZBYN 100000Z AUTO 00000KT 6SM 12/06 A3003 RMK SLP179 T01150062 52013 IEM_DS3505
ZBYN,1999-05-10 01:00,ZBYN 100100Z AUTO 16002KT 5SM 15/09 A3006 RMK T01500090 IEM_DS3505
ZBYN,1999-05-10 02:00,ZBYN 100200Z AUTO 17004KT 6SM 17/10 A3006 RMK T01700100 IEM_DS3505
ZBYN,1999-05-10 03:00,ZBYN 100300Z AUTO 14006KT 6SM 20/07 A3003 RMK SLP169 T01990066 57004 IEM_DS3505
ZBYN,1999-05-10 04:00,ZBYN 100400Z AUTO 23006KT 6SM 22/10 A3000 RMK T02200100 IEM_DS3505
ZBYN,1999-05-10 05:00,ZBYN 100500Z AUTO 22008KT 6SM 24/10 A2997 RMK T02400100 IEM_DS3505
ZBYN,1999-05-10 06:00,ZBYN 100600Z AUTO 20006KT 7SM 26/06 A2994 RMK SLP130 T02640055 57029 IEM_DS3505
ZBYN,1999-05-10 07:00,ZBYN 100700Z AUTO 21004KT 7SM 27/04 A2991 RMK T02700040 IEM_DS3505
ZBYN,1999-05-10 08:00,ZBYN 100800Z AUTO 21008KT 6SM 28/05 A2988 RMK T02800050 IEM_DS3505
ZBYN,1999-05-10 09:00,ZBYN 100900Z AUTO 22010KT 6SM 27/02 A2988 RMK SLP112 T02720019 57018 IEM_DS3505
ZBYN,1999-05-10 10:00,ZBYN 101000Z AUTO 25008KT 6SM 27/03 A2988 RMK T02700030 IEM_DS3505
ZBYN,1999-05-10 11:00,ZBYN 101100Z AUTO 25006KT 6SM 25/03 A2988 RMK T02500030 IEM_DS3505
ZBYN,1999-05-10 12:00,ZBYN 101200Z AUTO 25004KT 6SM 24/01 A2988 RMK SLP115 T02370011 52003 IEM_DS3505
ZBYN,1999-05-10 13:00,ZBYN 101300Z AUTO 13004KT 6SM 19/03 A2991 RMK T01900030 IEM_DS3505
ZBYN,1999-05-10 15:00,ZBYN 101500Z AUTO 14004KT 6SM 17/09 A2994 RMK SLP134 T01680090 52019 IEM_DS3505
ZBYN,1999-05-10 16:00,ZBYN 101600Z AUTO 09014KT 6SM 18/13 A2994 RMK T01800130 IEM_DS3505
ZBYN,1999-05-10 17:00,ZBYN 101700Z AUTO 10010KT 6SM 17/13 A2997 RMK T01700130 IEM_DS3505
ZBYN,1999-05-10 18:00,ZBYN 101800Z AUTO 10010KT 6SM 16/12 A2994 RMK T01600120 IEM_DS3505
ZBYN,1999-05-10 19:00,ZBYN 101900Z AUTO 12004KT 6SM 13/11 A2997 RMK T01300110 IEM_DS3505
ZBYN,1999-05-10 20:00,ZBYN 102000Z AUTO 13002KT 6SM 12/11 A2997 RMK T01200110 IEM_DS3505
ZBYN,1999-05-10 21:00,ZBYN 102100Z AUTO 00000KT 5SM 11/09 A2997 RMK SLP141 T01060087 52005 IEM_DS3505
ZBYN,1999-05-10 22:00,ZBYN 102200Z AUTO 00000KT 4SM 11/10 A3000 RMK T01100100 IEM_DS3505
ZBYN,1999-05-10 23:00,ZBYN 102300Z AUTO 12002KT 4SM 14/11 A3000 RMK T01400110 IEM_DS3505
ZBYN,1999-05-11 00:00,ZBYN 110000Z AUTO 00000KT 4SM 16/07 A3000 RMK SLP146 T01640071 52008 IEM_DS3505
ZBYN,1999-05-11 01:00,ZBYN 110100Z AUTO 17002KT 5SM 19/11 A3000 RMK T01900110 IEM_DS3505
ZBYN,1999-05-11 02:00,ZBYN 110200Z AUTO 20004KT 5SM 22/10 A3000 RMK T02200100 IEM_DS3505
ZBYN,1999-05-11 03:00,ZBYN 110300Z AUTO 20006KT 4SM 24/06 A2997 RMK SLP135 T02410064 57009 IEM_DS3505
ZBYN,1999-05-11 04:00,ZBYN 110400Z AUTO 20002KT 26/09 A2994 RMK T02600090 IEM_DS3505
ZBYN,1999-05-11 05:00,ZBYN 110500Z AUTO 21006KT 28/08 A2988 RMK T02800080 IEM_DS3505
ZBYN,1999-05-11 06:00,ZBYN 110600Z AUTO 27016KT 6SM 30/00 A2988 RMK SLP097 T02990000 57030 IEM_DS3505
ZBYN,1999-05-11 07:00,ZBYN 110700Z AUTO 18006KT 6SM 31/02 A2985 RMK T03100020 IEM_DS3505
ZBYN,1999-05-11 08:00,ZBYN 110800Z AUTO 19004KT 6SM 31/02 A2983 RMK T03100020 IEM_DS3505
ZBYN,1999-05-11 09:00,ZBYN 110900Z AUTO 18006KT 7SM 31/03 A2980 RMK SLP073 T03070034 57026 IEM_DS3505
ZBYN,1999-05-11 10:00,ZBYN 111000Z AUTO 17004KT 6SM 31/02 A2980 RMK T03100020 IEM_DS3505
ZBYN,1999-05-11 11:00,ZBYN 111100Z AUTO 16002KT 6SM 29/04 A2980 RMK T02900040 IEM_DS3505
ZBYN,1999-05-11 12:00,ZBYN 111200Z AUTO 20002KT 7SM 27/02 A2980 RMK SLP072 T02660018 52002 IEM_DS3505
ZBYN,1999-05-11 13:00,ZBYN 111300Z AUTO 22006KT 6SM 24/05 A2983 RMK T02400050 IEM_DS3505
ZBYN,1999-05-11 14:00,ZBYN 111400Z AUTO 20002KT 6SM 24/04 A2985 RMK T02400040 IEM_DS3505
ZBYN,1999-05-11 15:00,ZBYN 111500Z AUTO 20004KT 6SM 22/04 A2985 RMK SLP080 T02210037 52011 IEM_DS3505
ZBYN,1999-05-11 16:00,ZBYN 111600Z AUTO 16008KT 6SM 22/04 A2985 RMK T02200040 IEM_DS3505
ZBYN,1999-05-11 17:00,ZBYN 111700Z AUTO 15006KT 6SM 21/05 A2985 RMK T02100050 IEM_DS3505
ZBYN,1999-05-11 18:00,ZBYN 111800Z AUTO 11006KT 6SM 19/03 A2985 RMK SLP081 T01880030 52005 IEM_DS3505
ZBYN,1999-05-11 19:00,ZBYN 111900Z AUTO 13006KT 6SM 15/08 A2985 RMK T01500080 IEM_DS3505
ZBYN,1999-05-11 20:00,ZBYN 112000Z AUTO 14004KT 6SM 14/08 A2985 RMK T01400080 IEM_DS3505
ZBYN,1999-05-11 21:00,ZBYN 112100Z AUTO 00000KT 6SM 12/06 A2985 RMK SLP093 T01240061 52003 IEM_DS3505
ZBYN,1999-05-11 22:00,ZBYN 112200Z AUTO 12002KT 6SM 11/07 A2985 RMK T01100070 IEM_DS3505
ZBYN,1999-05-11 23:00,ZBYN 112300Z AUTO 00000KT 6SM 16/07 A2988 RMK T01600070 IEM_DS3505
ZBYN,1999-05-12 00:00,ZBYN 120000Z AUTO 00000KT 5SM 18/08 A2988 RMK SLP097 T01820077 52006 IEM_DS3505
ZBYN,1999-05-12 01:00,ZBYN 120100Z AUTO 16004KT 6SM 21/09 A2985 RMK T02100090 IEM_DS3505
ZBYN,1999-05-12 02:00,ZBYN 120200Z AUTO 21002KT 6SM 25/09 A2985 RMK T02500090 IEM_DS3505
ZBYN,1999-05-12 03:00,ZBYN 120300Z AUTO 14006KT 5SM 26/08 A2983 RMK SLP074 T02630079 57016 IEM_DS3505
ZBYN,1999-05-12 04:00,ZBYN 120400Z AUTO 19006KT 6SM 29/05 A2980 RMK T02900050 IEM_DS3505
ZBYN,1999-05-12 05:00,ZBYN 120500Z AUTO 29008KT 6SM 29/05 A2977 RMK T02900050 IEM_DS3505
ZBYN,1999-05-12 06:00,ZBYN 120600Z AUTO 20016KT 6SM 31/04 A2974 RMK SLP044 T03060039 57026 IEM_DS3505
ZBYN,1999-05-12 08:00,ZBYN 120800Z AUTO 27008KT 6SM 31/05 A2968 RMK T03100050 IEM_DS3505
ZBYN,1999-05-12 09:00,ZBYN 120900Z AUTO 20012KT 9SM 32/M01 A2965 RMK SLP025 T03151008 57025 IEM_DS3505
ZBYN,1999-05-12 10:00,ZBYN 121000Z AUTO 24008KT 6SM 31/00 A2965 RMK T03100000 IEM_DS3505
ZBYN,1999-05-12 11:00,ZBYN 121100Z AUTO 23004KT 6SM 29/01 A2968 RMK T02900010 IEM_DS3505
ZBYN,1999-05-12 12:00,ZBYN 121200Z AUTO 20008KT 9SM 26/02 A2968 RMK SLP031 T02560022 52005 IEM_DS3505
ZBYN,1999-05-12 13:00,ZBYN 121300Z AUTO 22004KT 6SM 24/05 A2971 RMK T02400050 IEM_DS3505
ZBYN,1999-05-12 14:00,ZBYN 121400Z AUTO 24006KT 6SM 24/05 A2974 RMK T02400050 IEM_DS3505
ZBYN,1999-05-12 15:00,ZBYN 121500Z AUTO 18006KT 9SM 20/05 A2974 RMK SLP045 T02050046 52017 IEM_DS3505
ZBYN,1999-05-12 16:00,ZBYN 121600Z AUTO 11002KT 6SM 19/05 A2977 RMK T01900050 IEM_DS3505
ZBYN,1999-05-12 18:00,ZBYN 121800Z AUTO 11004KT 6SM 18/04 RMK SLP049 T01820041 52007 IEM_DS3505
ZBYN,1999-05-12 20:00,ZBYN 122000Z AUTO 00000KT 6SM 15/04 A2977 RMK T01500040 IEM_DS3505
ZBYN,1999-05-12 21:00,ZBYN 122100Z AUTO 29002KT 6SM 14/06 A2977 RMK SLP061 T01400058 52006 IEM_DS3505
ZBYN,1999-05-12 22:00,ZBYN 122200Z AUTO 10002KT 6SM 14/04 A2980 RMK T01400040 IEM_DS3505
ZBYN,1999-05-12 23:00,ZBYN 122300Z AUTO 00000KT 16/06 A2980 RMK T01600060 IEM_DS3505
ZBYN,1999-05-13 00:00,ZBYN 130000Z AUTO 00000KT 6SM 20/05 A2983 RMK SLP077 T01950052 52014 IEM_DS3505
ZBYN,1999-05-13 01:00,ZBYN 130100Z AUTO 00000KT 6SM 22/08 A2983 RMK T02200080 IEM_DS3505
ZBYN,1999-05-13 02:00,ZBYN 130200Z AUTO 14002KT 6SM 24/08 A2983 RMK T02400080 IEM_DS3505
ZBYN,1999-05-13 03:00,ZBYN 130300Z AUTO 18006KT 6SM 26/08 A2980 RMK SLP075 T02590080 54000 IEM_DS3505
ZBYN,1999-05-13 04:00,ZBYN 130400Z AUTO 26006KT 6SM 28/09 A2980 RMK T02800090 IEM_DS3505
ZBYN,1999-05-13 05:00,ZBYN 130500Z AUTO 26002KT 6SM 28/09 A2977 RMK T02800090 IEM_DS3505
ZBYN,1999-05-13 06:00,ZBYN 130600Z AUTO 18008KT 6SM 30/07 A2977 RMK SLP051 T02990066 57019 IEM_DS3505
ZBYN,1999-05-13 07:00,ZBYN 130700Z AUTO 19004KT 7SM 30/08 A2974 RMK T03000080 IEM_DS3505
ZBYN,1999-05-13 08:00,ZBYN 130800Z AUTO 28004KT 6SM 30/07 A2971 RMK T03000070 IEM_DS3505
ZBYN,1999-05-13 09:00,ZBYN 130900Z AUTO 18008KT 6SM 27/13 A2974 RMK SLP054 T02710132 57007 IEM_DS3505
ZBYN,1999-05-13 10:00,ZBYN 131000Z AUTO 08019KT 2 1/2SM 23/16 A2977 RMK T02300160 IEM_DS3505
ZBYN,1999-05-13 11:00,ZBYN 131100Z AUTO 08017KT 2 1/2SM 22/16 A2977 RMK T02200160 IEM_DS3505
ZBYN,1999-05-13 12:00,ZBYN 131200Z AUTO 04006KT 5SM 22/14 A2980 RMK SLP068 T02200141 52013 IEM_DS3505
ZBYN,1999-05-13 13:00,ZBYN 131300Z AUTO 09016KT 2 1/2SM 20/17 A2980 RMK T02000170 IEM_DS3505
ZBYN,1999-05-13 14:00,ZBYN 131400Z AUTO 08023KT 2 1/2SM 20/17 A2983 RMK T02000170 IEM_DS3505
ZBYN,1999-05-13 15:00,ZBYN 131500Z AUTO 11006KT 5SM 20/14 A2985 RMK SLP085 T01980140 52021 IEM_DS3505
ZBYN,1999-05-13 16:00,ZBYN 131600Z AUTO 08014KT 2 1/2SM 17/15 A2988 RMK T01700150 IEM_DS3505
ZBYN,1999-05-13 17:00,ZBYN 131700Z AUTO 09014KT 4SM 16/13 A2988 RMK T01600130 IEM_DS3505
ZBYN,1999-05-13 18:00,ZBYN 131800Z AUTO 00000KT 6SM 16/12 A2988 RMK SLP098 T01580123 52012 IEM_DS3505
ZBYN,1999-05-13 20:00,ZBYN 132000Z AUTO 09006KT 4SM 15/13 A2988 RMK T01500130 IEM_DS3505
ZBYN,1999-05-13 21:00,ZBYN 132100Z AUTO 00000KT 6SM 13/11 A2988 RMK SLP100 T01340114 57005 IEM_DS3505
ZBYN,1999-05-13 22:00,ZBYN 132200Z AUTO 09002KT 2 1/2SM 14/13 A2988 RMK T01400130 IEM_DS3505
ZBYN,1999-05-13 23:00,ZBYN 132300Z AUTO 00000KT 2SM 16/14 A2991 RMK T01600140 IEM_DS3505
ZBYN,1999-05-14 01:00,ZBYN 140100Z AUTO 00000KT 2SM 20/15 A2991 RMK T02000150 IEM_DS3505
ZBYN,1999-05-14 02:00,ZBYN 140200Z AUTO 16002KT 22/15 A2991 RMK T02200150 IEM_DS3505
ZBYN,1999-05-14 03:00,ZBYN 140300Z AUTO 16006KT 4SM 24/12 A2991 RMK SLP104 T02370120 57002 IEM_DS3505
ZBYN,1999-05-14 04:00,ZBYN 140400Z AUTO 17004KT 6SM 24/13 A2988 RMK T02400130 IEM_DS3505
ZBYN,1999-05-14 05:00,ZBYN 140500Z AUTO 19004KT 6SM 26/14 A2985 RMK T02600140 IEM_DS3505
ZBYN,1999-05-14 06:00,ZBYN 140600Z AUTO 18008KT 5SM 26/12 A2983 RMK SLP090 T02630119 57015 IEM_DS3505
ZBYN,1999-05-14 07:00,ZBYN 140700Z AUTO 25004KT 6SM 28/13 A2980 RMK T02800130 IEM_DS3505
ZBYN,1999-05-14 08:00,ZBYN 140800Z AUTO 24008KT 6SM 28/14 A2980 RMK T02800140 IEM_DS3505
ZBYN,1999-05-14 09:00,ZBYN 140900Z AUTO 18006KT 6SM 27/12 A2977 RMK SLP070 T02680118 57021 IEM_DS3505
ZBYN,1999-05-14 10:00,ZBYN 141000Z AUTO 24006KT 6SM 26/15 A2977 RMK T02600150 IEM_DS3505
ZBYN,1999-05-14 11:00,ZBYN 141100Z AUTO 20004KT 6SM 25/15 A2980 RMK T02500150 IEM_DS3505
ZBYN,1999-05-14 12:00,ZBYN 141200Z AUTO 11006KT 6SM 23/12 A2983 RMK SLP084 T02320120 52014 IEM_DS3505
ZBYN,1999-05-14 13:00,ZBYN 141300Z AUTO 10008KT 6SM 21/13 A2985 RMK T02100130 IEM_DS3505
ZBYN,1999-05-14 14:00,ZBYN 141400Z AUTO 09010KT 5SM 21/12 A2985 RMK T02100120 IEM_DS3505
ZBYN,1999-05-14 15:00,ZBYN 141500Z AUTO 14004KT 6SM 19/10 A2985 RMK SLP092 T01930104 52010 IEM_DS3505
ZBYN,1999-05-14 16:00,ZBYN 141600Z AUTO 08012KT 19/12 A2985 RMK T01900120 IEM_DS3505
ZBYN,1999-05-14 17:00,ZBYN 141700Z AUTO 10008KT 5SM 18/12 A2988 RMK T01800120 IEM_DS3505
ZBYN,1999-05-14 18:00,ZBYN 141800Z AUTO 11004KT 6SM 17/11 RMK SLP100 T01670106 52007 IEM_DS3505
ZBYN,1999-05-14 20:00,ZBYN 142000Z AUTO 08008KT 6SM 17/11 A2988 RMK T01700110 IEM_DS3505
ZBYN,1999-05-14 21:00,ZBYN 142100Z AUTO 00000KT 6SM 15/11 A2988 RMK SLP102 T01540111 52001 IEM_DS3505
ZBYN,1999-05-14 22:00,ZBYN 142200Z AUTO 18002KT 17/11 A2988 RMK T01700110 IEM_DS3505
ZBYN,1999-05-14 23:00,ZBYN 142300Z AUTO 23002KT 4SM 18/11 A2991 RMK T01800110 IEM_DS3505
ZBYN,1999-05-15 00:00,ZBYN 150000Z AUTO 34004KT 4SM 19/10 A2991 RMK SLP110 T01860100 52007 IEM_DS3505
ZBYN,1999-05-15 01:00,ZBYN 150100Z AUTO 06012KT 6SM 20/12 A2991 RMK T02000120 IEM_DS3505
ZBYN,1999-05-15 02:00,ZBYN 150200Z AUTO 07016KT 6SM 21/13 A2991 RMK T02100130 IEM_DS3505
ZBYN,1999-05-15 03:00,ZBYN 150300Z AUTO 11016KT 4SM 23/10 A2991 RMK SLP108 T02290105 57002 IEM_DS3505
ZBYN,1999-05-15 04:00,ZBYN 150400Z AUTO 08017KT 6SM 22/14 A2991 RMK T02200140 IEM_DS3505
ZBYN,1999-05-15 05:00,ZBYN 150500Z AUTO 10025KT 5SM 21/13 A2991 RMK T02100130 IEM_DS3505
ZBYN,1999-05-15 06:00,ZBYN 150600Z AUTO 11029KT 4SM 21/10 A2988 RMK SLP103 T02110104 4////0139 57010 IEM_DS3505
ZBYN,1999-05-15 07:00,ZBYN 150700Z AUTO 08017KT 5SM 21/12 A2985 RMK T02100120 IEM_DS3505
ZBYN,1999-05-15 08:00,ZBYN 150800Z AUTO 10017KT 5SM 20/12 A2985 RMK T02000120 IEM_DS3505
ZBYN,1999-05-15 09:00,ZBYN 150900Z AUTO 11021KT 4SM 20/10 A2985 RMK SLP098 T02020096 57008 IEM_DS3505
ZBYN,1999-05-15 10:00,ZBYN 151000Z AUTO 10017KT 6SM 19/12 A2985 RMK T01900120 IEM_DS3505
ZBYN,1999-05-15 11:00,ZBYN 151100Z AUTO 10014KT 6SM 19/11 A2985 RMK T01900110 IEM_DS3505
ZBYN,1999-05-15 12:00,ZBYN 151200Z AUTO 11006KT 6SM 19/07 A2988 RMK SLP106 T01920068 52010 IEM_DS3505
ZBYN,1999-05-15 13:00,ZBYN 151300Z AUTO 09010KT 6SM 18/07 A2988 RMK T01800070 IEM_DS3505
ZBYN,1999-05-15 14:00,ZBYN 151400Z AUTO 08014KT 6SM 18/07 A2991 RMK T01800070 IEM_DS3505
ZBYN,1999-05-15 15:00,ZBYN 151500Z AUTO 02002KT 6SM 18/05 A2991 RMK SLP112 T01810050 52010 IEM_DS3505
ZBYN,1999-05-15 16:00,ZBYN 151600Z AUTO 06008KT 6SM 17/08 A2991 RMK T01700080 IEM_DS3505
ZBYN,1999-05-15 17:00,ZBYN 151700Z AUTO 08012KT 6SM 17/09 A2991 RMK T01700090 IEM_DS3505
ZBYN,1999-05-15 18:00,ZBYN 151800Z AUTO 00000KT 6SM 18/07 A2991 RMK SLP117 T01750067 52002 IEM_DS3505
ZBYN,1999-05-15 19:00,ZBYN 151900Z AUTO 05006KT 6SM 17/10 A2991 RMK T01700100 IEM_DS3505
ZBYN,1999-05-15 20:00,ZBYN 152000Z AUTO 06004KT 6SM 17/11 A2991 RMK T01700110 IEM_DS3505
ZBYN,1999-05-15 21:00,ZBYN 152100Z AUTO 34006KT 6SM 17/07 A2988 RMK SLP115 T01700072 57004 IEM_DS3505
ZBYN,1999-05-15 22:00,ZBYN 152200Z AUTO 00000KT 6SM 17/11 A2988 RMK T01700110 IEM_DS3505
ZBYN,1999-05-15 23:00,ZBYN 152300Z AUTO 06004KT 18/11 A2988 RMK T01800110 IEM_DS3505
ZBYN,1999-05-16 00:00,ZBYN 160000Z AUTO 00000KT 5SM 18/08 A2988 RMK SLP115 T01820079 54000 IEM_DS3505
ZBYN,1999-05-16 01:00,ZBYN 160100Z AUTO 05008KT 6SM 20/10 A2988 RMK T02000100 IEM_DS3505
ZBYN,1999-05-16 02:00,ZBYN 160200Z AUTO 08008KT 6SM 20/10 A2988 RMK T02000100 IEM_DS3505
ZBYN,1999-05-16 03:00,ZBYN 160300Z AUTO 00000KT 5SM 20/08 A2988 RMK SLP104 T02040083 57008 IEM_DS3505
ZBYN,1999-05-16 04:00,ZBYN 160400Z AUTO 18002KT 7SM 20/13 A2985 RMK T02000130 IEM_DS3505
ZBYN,1999-05-16 05:00,ZBYN 160500Z AUTO 24002KT 7SM 21/14 A2985 RMK T02100140 IEM_DS3505
ZBYN,1999-05-16 06:00,ZBYN 160600Z AUTO 18004KT 5SM 21/11 A2983 RMK SLP090 T02120111 57013 IEM_DS3505
ZBYN,1999-05-16 07:00,ZBYN 160700Z AUTO 15004KT 6SM 22/13 A2980 RMK T02200130 IEM_DS3505
ZBYN,1999-05-16 08:00,ZBYN 160800Z AUTO 12008KT 6SM 23/12 A2977 RMK T02300120 IEM_DS3505
ZBYN,1999-05-16 09:00,ZBYN 160900Z AUTO 11006KT 6SM 24/10 A2977 RMK SLP066 T02370099 57019 IEM_DS3505
ZBYN,1999-05-16 10:00,ZBYN 161000Z AUTO 11010KT 6SM 23/09 A2977 RMK T02300090 IEM_DS3505
ZBYN,1999-05-16 11:00,ZBYN 161100Z AUTO 09012KT 6SM 22/07 A2980 RMK T02200070 IEM_DS3505
ZBYN,1999-05-16 12:00,ZBYN 161200Z AUTO 09008KT 7SM 21/05 A2983 RMK SLP081 T02120048 52012 IEM_DS3505
ZBYN,1999-05-16 13:00,ZBYN 161300Z AUTO 08012KT 6SM 20/07 A2983 RMK T02000070 IEM_DS3505
ZBYN,1999-05-16 14:00,ZBYN 161400Z AUTO 08016KT 6SM 19/07 A2983 RMK T01900070 IEM_DS3505
ZBYN,1999-05-16 15:00,ZBYN 161500Z AUTO 11004KT 6SM 19/07 A2985 RMK SLP095 T01900066 52013 IEM_DS3505
ZBYN,1999-05-16 16:00,ZBYN 161600Z AUTO 09012KT 6SM 18/08 A2983 RMK T01800080 IEM_DS3505
ZBYN,1999-05-16 17:00,ZBYN 161700Z AUTO 07004KT 6SM 18/08 A2983 RMK T01800080 IEM_DS3505
ZBYN,1999-05-16 18:00,ZBYN 161800Z AUTO 00000KT 6SM 18/09 A2980 RMK SLP080 T01770086 57015 IEM_DS3505
ZBYN,1999-05-16 20:00,ZBYN 162000Z AUTO 09002KT 6SM 17/08 A2980 RMK T01700080 IEM_DS3505
ZBYN,1999-05-16 21:00,ZBYN 162100Z AUTO 00000KT 6SM 16/09 A2980 RMK SLP070 T01600094 57008 IEM_DS3505
ZBYN,1999-05-16 22:00,ZBYN 162200Z AUTO 14002KT 6SM 16/08 A2980 RMK T01600080 IEM_DS3505
ZBYN,1999-05-16 23:00,ZBYN 162300Z AUTO 11002KT 7SM 17/08 A2980 RMK T01700080 IEM_DS3505
ZBYN,1999-05-17 00:00,ZBYN 170000Z AUTO 00000KT 5SM 17/09 A2977 RMK SLP075 T01680090 52002 IEM_DS3505
ZBYN,1999-05-17 01:00,ZBYN 170100Z AUTO 07004KT 7SM 19/09 A2977 RMK T01900090 IEM_DS3505
ZBYN,1999-05-17 02:00,ZBYN 170200Z AUTO 11002KT 6SM 19/11 A2977 RMK T01900110 IEM_DS3505
ZBYN,1999-05-17 03:00,ZBYN 170300Z AUTO 20002KT 5SM 19/10 A2977 RMK SLP069 T01860098 57006 IEM_DS3505
ZBYN,1999-05-17 04:00,ZBYN 170400Z AUTO 03002KT 3SM 18/14 A2977 RMK T01800140 IEM_DS3505
ZBYN,1999-05-17 05:00,ZBYN 170500Z AUTO 35006KT 2 1/2SM 16/15 A2977 RMK T01600150 IEM_DS3505
ZBYN,1999-05-17 06:00,ZBYN 170600Z AUTO 00000KT 5SM 17/13 A2977 RMK SLP073 T01680130 54000 IEM_DS3505
ZBYN,1999-05-17 07:00,ZBYN 170700Z AUTO 08006KT 2SM 16/15 A2974 RMK T01600150 IEM_DS3505
ZBYN,1999-05-17 08:00,ZBYN 170800Z AUTO 09004KT 2SM 16/16 A2974 RMK T01600160 IEM_DS3505
ZBYN,1999-05-17 09:00,ZBYN 170900Z AUTO 00000KT 2 1/2SM 16/13 A2974 RMK SLP069 T01590130 57008 IEM_DS3505
ZBYN,1999-05-17 10:00,ZBYN 171000Z AUTO 10004KT 2 1/2SM 15/15 A2974 RMK T01500150 IEM_DS3505
ZBYN,1999-05-17 11:00,ZBYN 171100Z AUTO 09004KT 2 1/2SM 15/15 A2974 RMK T01500150 IEM_DS3505
ZBYN,1999-05-17 12:00,ZBYN 171200Z AUTO 09004KT 3SM 14/12 A2977 RMK SLP078 T01440123 52007 IEM_DS3505
ZBYN,1999-05-17 13:00,ZBYN 171300Z AUTO 09006KT 4SM 14/14 A2977 RMK T01400140 IEM_DS3505
ZBYN,1999-05-17 14:00,ZBYN 171400Z AUTO 00000KT 4SM 15/15 A2980 RMK T01500150 IEM_DS3505
ZBYN,1999-05-17 15:00,ZBYN 171500Z AUTO 34004KT 1 1/4SM 14/13 A2980 RMK SLP093 T01380128 52016 IEM_DS3505
ZBYN,1999-05-17 16:00,ZBYN 171600Z AUTO 06004KT 2SM 13/13 A2983 RMK T01300130 IEM_DS3505
ZBYN,1999-05-17 17:00,ZBYN 171700Z AUTO 35008KT 7SM 12/12 A2983 RMK T01200120 IEM_DS3505
ZBYN,1999-05-17 18:00,ZBYN 171800Z AUTO 36010KT 6SM 13/08 A2980 RMK SLP101 T01260082 52003 IEM_DS3505
ZBYN,1999-05-17 19:00,ZBYN 171900Z AUTO 34016KT 7SM 11/11 A2983 RMK T01100110 IEM_DS3505
ZBYN,1999-05-17 21:00,ZBYN 172100Z AUTO 34012KT 6SM 11/08 A2985 RMK SLP126 T01070084 52018 IEM_DS3505
ZBYN,1999-05-17 22:00,ZBYN 172200Z AUTO 35014KT 7SM 10/10 A2988 RMK T01000100 IEM_DS3505
ZBYN,1999-05-17 23:00,ZBYN 172300Z AUTO 31006KT 7SM 10/09 A2994 RMK T01000090 IEM_DS3505
ZBYN,1999-05-18 00:00,ZBYN 180000Z AUTO 36004KT 12SM 11/08 A2997 RMK SLP156 T01090082 52026 IEM_DS3505
ZBYN,1999-05-18 01:00,ZBYN 180100Z AUTO 35008KT 6SM 13/10 A2997 RMK T01300100 IEM_DS3505
ZBYN,1999-05-18 02:00,ZBYN 180200Z AUTO 35012KT 6SM 15/10 A2997 RMK T01500100 IEM_DS3505
ZBYN,1999-05-18 03:00,ZBYN 180300Z AUTO 36010KT 12SM 17/04 A2997 RMK SLP153 T01680036 52005 IEM_DS3505
ZBYN,1999-05-18 04:00,ZBYN 180400Z AUTO 01016KT 7SM 18/05 A2997 RMK T01800050 IEM_DS3505
ZBYN,1999-05-18 05:00,ZBYN 180500Z AUTO 03019KT 7SM 19/05 A2994 RMK T01900050 IEM_DS3505
ZBYN,1999-05-18 06:00,ZBYN 180600Z AUTO 02008KT 12SM 19/M00 A2994 RMK SLP137 T01931005 57013 IEM_DS3505
ZBYN,1999-05-18 07:00,ZBYN 180700Z AUTO 02017KT 6SM 19/06 A2991 RMK T01900060 IEM_DS3505
ZBYN,1999-05-18 08:00,ZBYN 180800Z AUTO 01019KT 6SM 19/06 A2991 RMK T01900060 IEM_DS3505
ZBYN,1999-05-18 09:00,ZBYN 180900Z AUTO 02008KT 12SM 19/02 A2991 RMK SLP138 T01910019 57002 IEM_DS3505
ZBYN,1999-05-18 10:00,ZBYN 181000Z AUTO 01014KT 6SM 19/04 A2991 RMK T01900040 IEM_DS3505
ZBYN,1999-05-18 11:00,ZBYN 181100Z AUTO 02012KT 7SM 18/03 A2994 RMK T01800030 IEM_DS3505
ZBYN,1999-05-18 12:00,ZBYN 181200Z AUTO 36010KT 12SM 17/01 A2997 RMK SLP154 T01690013 52012 IEM_DS3505
ZBYN,1999-05-18 13:00,ZBYN 181300Z AUTO 30002KT 7SM 14/05 A3000 RMK T01400050 IEM_DS3505
ZBYN,1999-05-18 14:00,ZBYN 181400Z AUTO 33004KT 6SM 12/08 A3000 RMK T01200080 IEM_DS3505
ZBYN,1999-05-18 15:00,ZBYN 181500Z AUTO 00000KT 9SM 12/06 A3000 RMK SLP168 T01150062 52013 IEM_DS3505
ZBYN,1999-05-18 16:00,ZBYN 181600Z AUTO 09002KT 6SM 11/08 A3003 RMK T01100080 IEM_DS3505
ZBYN,1999-05-18 17:00,ZBYN 181700Z AUTO 11002KT 6SM 10/07 A3003 RMK T01000070 IEM_DS3505
ZBYN,1999-05-18 18:00,ZBYN 181800Z AUTO 00000KT 6SM 12/05 RMK SLP170 T01210048 52007 IEM_DS3505
ZBYN,1999-05-18 21:00,ZBYN 182100Z AUTO 36002KT 9SM 09/04 A3006 RMK SLP177 T00940039 52002 IEM_DS3505
ZBYN,1999-05-18 22:00,ZBYN 182200Z AUTO 11002KT 6SM 07/07 A3006 RMK T00700070 IEM_DS3505
ZBYN,1999-05-18 23:00,ZBYN 182300Z AUTO 14002KT 4SM 09/08 A3006 RMK T00900080 IEM_DS3505
ZBYN,1999-05-19 00:00,ZBYN 190000Z AUTO 16002KT 6SM 12/06 A3006 RMK SLP185 T01150064 52007 IEM_DS3505
ZBYN,1999-05-19 01:00,ZBYN 190100Z AUTO 00000KT 6SM 14/08 A3006 RMK T01400080 IEM_DS3505
ZBYN,1999-05-19 02:00,ZBYN 190200Z AUTO 30004KT 6SM 17/05 A3006 RMK T01700050 IEM_DS3505
ZBYN,1999-05-19 03:00,ZBYN 190300Z AUTO 09006KT 7SM 19/M01 A3006 RMK SLP176 T01891013 57005 IEM_DS3505
ZBYN,1999-05-19 04:00,ZBYN 190400Z AUTO 35008KT 6SM 19/01 A3003 RMK T01900010 IEM_DS3505
ZBYN,1999-05-19 05:00,ZBYN 190500Z AUTO 02004KT 6SM 20/02 A3000 RMK T02000020 IEM_DS3505
ZBYN,1999-05-19 06:00,ZBYN 190600Z AUTO 36004KT 12SM 21/M00 A2997 RMK SLP151 T02131002 57019 IEM_DS3505
ZBYN,1999-05-19 07:00,ZBYN 190700Z AUTO 33006KT 6SM 22/02 A2997 RMK T02200020 IEM_DS3505
ZBYN,1999-05-19 08:00,ZBYN 190800Z AUTO 24002KT 6SM 22/01 A2994 RMK T02200010 IEM_DS3505
ZBYN,1999-05-19 09:00,ZBYN 190900Z AUTO 04002KT 11SM 23/02 A2994 RMK SLP132 T02270015 57019 IEM_DS3505
ZBYN,1999-05-19 10:00,ZBYN 191000Z AUTO 25006KT 6SM 22/04 A2991 RMK T02200040 IEM_DS3505
ZBYN,1999-05-19 11:00,ZBYN 191100Z AUTO 24002KT 6SM 20/06 A2994 RMK T02000060 IEM_DS3505
ZBYN,1999-05-19 12:00,ZBYN 191200Z AUTO 22004KT 9SM 19/05 A2997 RMK SLP143 T01870051 52007 IEM_DS3505
ZBYN,1999-05-19 14:00,ZBYN 191400Z AUTO 13002KT 6SM 15/09 A3000 RMK T01500090 IEM_DS3505
ZBYN,1999-05-19 15:00,ZBYN 191500Z AUTO 32002KT 6SM 16/05 A3000 RMK SLP151 T01560053 52014 IEM_DS3505
ZBYN,1999-05-19 16:00,ZBYN 191600Z AUTO 12002KT 6SM 12/09 A3000 RMK T01200090 IEM_DS3505
ZBYN,1999-05-19 17:00,ZBYN 191700Z AUTO 07002KT 6SM 12/08 A3000 RMK T01200080 IEM_DS3505
ZBYN,1999-05-19 18:00,ZBYN 191800Z AUTO 36004KT 6SM 11/06 A3000 RMK SLP159 T01070062 52003 IEM_DS3505
ZBYN,1999-05-19 19:00,ZBYN 191900Z AUTO 00000KT 6SM 10/08 A3000 RMK T01000080 IEM_DS3505
ZBYN,1999-05-19 20:00,ZBYN 192000Z AUTO 00000KT 6SM 10/08 A3000 RMK T01000080 IEM_DS3505
ZBYN,1999-05-19 21:00,ZBYN 192100Z AUTO 00000KT 4SM 09/06 A3003 RMK SLP165 T00940061 52006 IEM_DS3505
ZBYN,1999-05-19 22:00,ZBYN 192200Z AUTO 16002KT 6SM 08/07 A3003 RMK T00800070 IEM_DS3505
ZBYN,1999-05-19 23:00,ZBYN 192300Z AUTO 00000KT 6SM 11/08 A3006 RMK T01100080 IEM_DS3505
ZBYN,1999-05-20 00:00,ZBYN 200000Z AUTO 11002KT 6SM 14/06 A3006 RMK SLP176 T01380057 52011 IEM_DS3505
ZBYN,1999-05-20 01:00,ZBYN 200100Z AUTO 00000KT 6SM 16/08 A3006 RMK T01600080 IEM_DS3505
ZBYN,1999-05-20 02:00,ZBYN 200200Z AUTO 17002KT 6SM 18/06 A3003 RMK T01800060 IEM_DS3505
ZBYN,1999-05-20 03:00,ZBYN 200300Z AUTO 20004KT 5SM 21/02 A3003 RMK SLP159 T02080023 57010 IEM_DS3505
ZBYN,1999-05-20 04:00,ZBYN 200400Z AUTO 24002KT 6SM 22/02 A3000 RMK T02200020 IEM_DS3505
ZBYN,1999-05-20 05:00,ZBYN 200500Z AUTO 21004KT 6SM 24/00 A2997 RMK T02400000 IEM_DS3505
ZBYN,1999-05-20 06:00,ZBYN 200600Z AUTO 16006KT 12SM 25/M04 A2994 RMK SLP129 T02501038 57029 IEM_DS3505
ZBYN,1999-05-20 07:00,ZBYN 200700Z AUTO 08002KT 6SM 26/M01 A2991 RMK T02601010 IEM_DS3505
ZBYN,1999-05-20 08:00,ZBYN 200800Z AUTO 12004KT 6SM 26/M01 A2988 RMK T02601010 IEM_DS3505
ZBYN,1999-05-20 09:00,ZBYN 200900Z AUTO 18006KT 12SM 26/M07 A2985 RMK SLP101 T02591074 57026 IEM_DS3505
ZBYN,1999-05-20 10:00,ZBYN 201000Z AUTO 17002KT 6SM 26/M07 A2985 RMK T02601070 IEM_DS3505
ZBYN,1999-05-20 11:00,ZBYN 201100Z AUTO 00000KT 6SM 25/M04 A2985 RMK T02501040 IEM_DS3505
ZBYN,1999-05-20 12:00,ZBYN 201200Z AUTO 00000KT 12SM 20/05 A2985 RMK SLP101 T02050046 57001 IEM_DS3505
ZBYN,1999-05-20 13:00,ZBYN 201300Z AUTO 09004KT 6SM 19/02 A2985 RMK T01900020 IEM_DS3505
ZBYN,1999-05-20 14:00,ZBYN 201400Z AUTO 13004KT 6SM 17/04 A2988 RMK T01700040 IEM_DS3505
ZBYN,1999-05-20 15:00,ZBYN 201500Z AUTO 11004KT 9SM 16/02 A2988 RMK SLP106 T01550025 52007 IEM_DS3505
ZBYN,1999-05-20 16:00,ZBYN 201600Z AUTO 11006KT 6SM 16/02 A2988 RMK T01600020 IEM_DS3505
ZBYN,1999-05-20 17:00,ZBYN 201700Z AUTO 11006KT 6SM 14/04 A2988 RMK T01400040 IEM_DS3505
ZBYN,1999-05-20 18:00,ZBYN 201800Z AUTO 00000KT 7SM 13/02 A2985 RMK SLP100 T01280023 57003 IEM_DS3505
ZBYN,1999-05-20 19:00,ZBYN 201900Z AUTO 10002KT 6SM 13/07 A2985 RMK T01300070 IEM_DS3505
ZBYN,1999-05-20 20:00,ZBYN 202000Z AUTO 12006KT 6SM 13/07 A2985 RMK T01300070 IEM_DS3505
ZBYN,1999-05-20 21:00,ZBYN 202100Z AUTO 00000KT 6SM 11/06 A2985 RMK SLP104 T01120056 52003 IEM_DS3505
ZBYN,1999-05-20 22:00,ZBYN 202200Z AUTO 00000KT 6SM 12/06 A2988 RMK T01200060 IEM_DS3505
ZBYN,1999-05-20 23:00,ZBYN 202300Z AUTO 11002KT 6SM 14/08 A2988 RMK T01400080 IEM_DS3505
ZBYN,1999-05-21 00:00,ZBYN 210000Z AUTO 00000KT 6SM 18/06 A2985 RMK SLP105 T01750062 52002 IEM_DS3505
ZBYN,1999-05-21 01:00,ZBYN 210100Z AUTO 15002KT 6SM 20/09 A2988 RMK T02000090 IEM_DS3505
ZBYN,1999-05-21 02:00,ZBYN 210200Z AUTO 21004KT 6SM 22/09 A2985 RMK T02200090 IEM_DS3505
ZBYN,1999-05-21 03:00,ZBYN 210300Z AUTO 16010KT 6SM 24/07 A2983 RMK SLP087 T02390067 57015 IEM_DS3505
ZBYN,1999-05-21 04:00,ZBYN 210400Z AUTO 20002KT 6SM 25/08 A2980 RMK T02500080 IEM_DS3505
ZBYN,1999-05-21 05:00,ZBYN 210500Z AUTO 21002KT 6SM 27/07 A2977 RMK T02700070 IEM_DS3505
ZBYN,1999-05-21 06:00,ZBYN 210600Z AUTO 18004KT 9SM 27/04 A2974 RMK SLP060 T02730045 57023 IEM_DS3505
ZBYN,1999-05-21 07:00,ZBYN 210700Z AUTO 19004KT 6SM 28/04 A2971 RMK T02800040 IEM_DS3505
ZBYN,1999-05-21 08:00,ZBYN 210800Z AUTO 12004KT 6SM 29/05 A2971 RMK T02900050 IEM_DS3505
ZBYN,1999-05-21 09:00,ZBYN 210900Z AUTO 00000KT 9SM 28/04 A2968 RMK SLP037 T02850037 57022 IEM_DS3505
ZBYN,1999-05-21 10:00,ZBYN 211000Z AUTO 15002KT 6SM 28/02 A2965 RMK T02800020 IEM_DS3505
ZBYN,1999-05-21 11:00,ZBYN 211100Z AUTO 00000KT 6SM 28/03 A2968 RMK T02800030 IEM_DS3505
ZBYN,1999-05-21 12:00,ZBYN 211200Z AUTO 00000KT 9SM 23/09 A2968 RMK SLP030 T02340088 57005 IEM_DS3505
ZBYN,1999-05-21 13:00,ZBYN 211300Z AUTO 10006KT 6SM 24/09 A2968 RMK T02400090 IEM_DS3505
ZBYN,1999-05-21 14:00,ZBYN 211400Z AUTO 16002KT 6SM 23/09 A2974 RMK T02300090 IEM_DS3505
ZBYN,1999-05-21 15:00,ZBYN 211500Z AUTO 20008KT 9SM 21/10 A2974 RMK SLP042 T02140099 52017 IEM_DS3505
ZBYN,1999-05-21 16:00,ZBYN 211600Z AUTO 16002KT 6SM 21/13 A2974 RMK T02100130 IEM_DS3505
ZBYN,1999-05-21 17:00,ZBYN 211700Z AUTO 13004KT 6SM 19/12 A2974 RMK T01900120 IEM_DS3505
ZBYN,1999-05-21 18:00,ZBYN 211800Z AUTO 14008KT 9SM 19/10 A2974 RMK SLP041 T01910104 52001 IEM_DS3505
ZBYN,1999-05-21 19:00,ZBYN 211900Z AUTO 17002KT 6SM 19/12 A2974 RMK T01900120 IEM_DS3505
ZBYN,1999-05-21 20:00,ZBYN 212000Z AUTO 19002KT 6SM 17/12 A2974 RMK T01700120 IEM_DS3505
ZBYN,1999-05-21 21:00,ZBYN 212100Z AUTO 34004KT 6SM 18/08 A2974 RMK SLP043 T01770082 52002 IEM_DS3505
ZBYN,1999-05-21 22:00,ZBYN 212200Z AUTO 13002KT 4SM 16/13 A2977 RMK T01600130 IEM_DS3505
ZBYN,1999-05-21 23:00,ZBYN 212300Z AUTO 12004KT 4SM 17/13 A2977 RMK T01700130 IEM_DS3505
ZBYN,1999-05-22 00:00,ZBYN 220000Z AUTO 11002KT 12SM 20/12 A2977 RMK SLP066 T01950119 52016 IEM_DS3505
ZBYN,1999-05-22 01:00,ZBYN 220100Z AUTO 00000KT 6SM 20/12 A2977 RMK T02000120 IEM_DS3505
ZBYN,1999-05-22 02:00,ZBYN 220200Z AUTO 26004KT 6SM 21/10 A2977 RMK T02100100 IEM_DS3505
ZBYN,1999-05-22 03:00,ZBYN 220300Z AUTO 11004KT 6SM 23/10 A2977 RMK SLP059 T02280095 57005 IEM_DS3505
ZBYN,1999-05-22 04:00,ZBYN 220400Z AUTO 21004KT 6SM 24/09 A2974 RMK T02400090 IEM_DS3505
ZBYN,1999-05-22 05:00,ZBYN 220500Z AUTO 24002KT 6SM 25/08 A2971 RMK T02500080 IEM_DS3505
ZBYN,1999-05-22 06:00,ZBYN 220600Z AUTO 18006KT 6SM 26/07 A2971 RMK SLP041 T02600069 57015 IEM_DS3505
ZBYN,1999-05-22 07:00,ZBYN 220700Z AUTO 17008KT 7SM 27/08 A2971 RMK T02700080 IEM_DS3505
ZBYN,1999-05-22 08:00,ZBYN 220800Z AUTO 20006KT 7SM 26/09 A2968 RMK T02600090 IEM_DS3505
ZBYN,1999-05-22 09:00,ZBYN 220900Z AUTO 16004KT 6SM 26/07 A2968 RMK SLP031 T02560068 57011 IEM_DS3505
ZBYN,1999-05-22 10:00,ZBYN 221000Z AUTO 25004KT 6SM 26/08 A2968 RMK T02600080 IEM_DS3505
ZBYN,1999-05-22 11:00,ZBYN 221100Z AUTO 20002KT 6SM 25/09 A2968 RMK T02500090 IEM_DS3505
ZBYN,1999-05-22 12:00,ZBYN 221200Z AUTO 18004KT 6SM 22/08 A2971 RMK SLP044 T02200084 52009 IEM_DS3505
ZBYN,1999-05-22 13:00,ZBYN 221300Z AUTO 07012KT 6SM 22/12 A2974 RMK T02200120 IEM_DS3505
ZBYN,1999-05-22 14:00,ZBYN 221400Z AUTO 08014KT 6SM 21/13 A2977 RMK T02100130 IEM_DS3505
ZBYN,1999-05-22 15:00,ZBYN 221500Z AUTO 02002KT 6SM 22/11 A2977 RMK SLP061 T02160112 52020 IEM_DS3505
ZBYN,1999-05-22 16:00,ZBYN 221600Z AUTO 05014KT 6SM 20/16 A2980 RMK T02000160 IEM_DS3505
ZBYN,1999-05-22 17:00,ZBYN 221700Z AUTO 07012KT 6SM 20/15 A2980 RMK T02000150 IEM_DS3505
ZBYN,1999-05-22 18:00,ZBYN 221800Z AUTO 00000KT 4SM 18/14 A2980 RMK SLP066 T01770135 52003 IEM_DS3505
ZBYN,1999-05-22 20:00,ZBYN 222000Z AUTO 07010KT 6SM 18/15 A2977 RMK T01800150 IEM_DS3505
ZBYN,1999-05-22 21:00,ZBYN 222100Z AUTO 00000KT 3SM 17/13 A2977 RMK SLP062 T01660128 57006 IEM_DS3505
ZBYN,1999-05-22 22:00,ZBYN 222200Z AUTO 09008KT 4SM 18/15 A2977 RMK T01800150 IEM_DS3505
ZBYN,1999-05-22 23:00,ZBYN 222300Z AUTO 09008KT 3SM 18/15 A2980 RMK T01800150 IEM_DS3505
ZBYN,1999-05-23 00:00,ZBYN 230000Z AUTO 00000KT 4SM 19/13 RMK SLP072 T01910126 52008 IEM_DS3505
ZBYN,1999-05-23 01:00,ZBYN 230100Z AUTO 08004KT 3SM 20/15 A2980 RMK T02000150 IEM_DS3505
ZBYN,1999-05-23 02:00,ZBYN 230200Z AUTO 08004KT 3SM 21/15 A2977 RMK T02100150 IEM_DS3505
ZBYN,1999-05-23 03:00,ZBYN 230300Z AUTO 14004KT 5SM 23/13 A2977 RMK SLP058 T02270130 57008 IEM_DS3505
ZBYN,1999-05-23 04:00,ZBYN 230400Z AUTO 11002KT 3SM 24/14 A2974 RMK T02400140 IEM_DS3505
ZBYN,1999-05-23 06:00,ZBYN 230600Z AUTO 20008KT 6SM 22/12 A2968 RMK SLP046 T02240116 57017 IEM_DS3505
ZBYN,1999-05-23 07:00,ZBYN 230700Z AUTO 08012KT 7SM 23/09 A2971 RMK T02300090 IEM_DS3505
ZBYN,1999-05-23 08:00,ZBYN 230800Z AUTO 07010KT 7SM 22/10 A2974 RMK T02200100 IEM_DS3505
ZBYN,1999-05-23 09:00,ZBYN 230900Z AUTO 11014KT 12SM 22/08 A2974 RMK SLP055 T02190083 52006 IEM_DS3505
ZBYN,1999-05-23 10:00,ZBYN 231000Z AUTO 11010KT 7SM 21/10 A2974 RMK T02100100 IEM_DS3505
ZBYN,1999-05-23 11:00,ZBYN 231100Z AUTO 10012KT 7SM 20/12 A2977 RMK T02000120 IEM_DS3505
ZBYN,1999-05-23 12:00,ZBYN 231200Z AUTO 11008KT 7SM 18/12 A2980 RMK SLP082 T01830119 52023 IEM_DS3505
ZBYN,1999-05-23 13:00,ZBYN 231300Z AUTO 07010KT 5SM 18/14 A2983 RMK T01800140 IEM_DS3505
ZBYN,1999-05-23 14:00,ZBYN 231400Z AUTO 07010KT 5SM 18/15 A2983 RMK T01800150 IEM_DS3505
ZBYN,1999-05-23 15:00,ZBYN 231500Z AUTO 00000KT 6SM 17/12 A2983 RMK SLP091 T01700119 52011 IEM_DS3505
ZBYN,1999-05-23 16:00,ZBYN 231600Z AUTO 09008KT 5SM 16/14 A2983 RMK T01600140 IEM_DS3505
ZBYN,1999-05-23 17:00,ZBYN 231700Z AUTO 09006KT 5SM 16/14 A2983 RMK T01600140 IEM_DS3505
ZBYN,1999-05-23 20:00,ZBYN 232000Z AUTO 00000KT 7SM 11/07 A2983 RMK SLP101 T01140066 52002 IEM_DS3505
ZBYN,1999-05-23 21:00,ZBYN 232100Z AUTO 00000KT 7SM 11/07 A2983 RMK SLP101 T01140066 52002 IEM_DS3505
ZBYN,1999-05-23 22:00,ZBYN 232200Z AUTO 13002KT 3SM 11/11 A2985 RMK T01100110 IEM_DS3505
ZBYN,1999-05-23 23:00,ZBYN 232300Z AUTO 14002KT 3SM 13/12 A2985 RMK T01300120 IEM_DS3505
ZBYN,1999-05-24 00:00,ZBYN 240000Z AUTO 00000KT 4SM 16/11 A2983 RMK SLP101 T01600110 52002 IEM_DS3505
ZBYN,1999-05-24 01:00,ZBYN 240100Z AUTO 32004KT 3SM 18/08 A2983 RMK T01800080 IEM_DS3505
ZBYN,1999-05-24 02:00,ZBYN 240200Z AUTO 29002KT 6SM 21/02 A2983 RMK T02100020 IEM_DS3505
ZBYN,1999-05-24 03:00,ZBYN 240300Z AUTO 16006KT 5SM 21/04 A2980 RMK SLP077 T02130036 57016 IEM_DS3505
ZBYN,1999-05-24 04:00,ZBYN 240400Z AUTO 24004KT 7SM 23/04 A2977 RMK T02300040 IEM_DS3505
ZBYN,1999-05-24 05:00,ZBYN 240500Z AUTO 24008KT 7SM 23/04 A2974 RMK T02300040 IEM_DS3505
ZBYN,1999-05-24 06:00,ZBYN 240600Z AUTO 21008KT 7SM 24/02 A2971 RMK T02400020 IEM_DS3505
ZBYN,1999-05-24 07:00,ZBYN 240700Z AUTO 00000KT 7SM 25/01 A2968 RMK T02500010 IEM_DS3505
ZBYN,1999-05-24 08:00,ZBYN 240800Z AUTO 29004KT 7SM 25/02 A2968 RMK T02500020 IEM_DS3505
ZBYN,1999-05-24 09:00,ZBYN 240900Z AUTO 32010KT 11SM 26/M01 A2965 RMK SLP032 T02561011 57018 IEM_DS3505
ZBYN,1999-05-24 10:00,ZBYN 241000Z AUTO 33010KT 7SM 25/01 A2965 RMK T02500010 IEM_DS3505
ZBYN,1999-05-24 11:00,ZBYN 241100Z AUTO 33010KT 7SM 24/00 A2968 RMK T02400000 IEM_DS3505
ZBYN,1999-05-24 12:00,ZBYN 241200Z AUTO 36008KT 12SM 23/M02 A2971 RMK SLP046 T02281015 52015 IEM_DS3505
ZBYN,1999-05-24 13:00,ZBYN 241300Z AUTO 08010KT 6SM 19/14 A2974 RMK T01900140 IEM_DS3505
ZBYN,1999-05-24 14:00,ZBYN 241400Z AUTO 09010KT 6SM 18/14 A2977 RMK T01800140 IEM_DS3505
ZBYN,1999-05-24 15:00,ZBYN 241500Z AUTO 00000KT 6SM 17/10 A2977 RMK SLP065 T01660105 52016 IEM_DS3505
ZBYN,1999-05-24 16:00,ZBYN 241600Z AUTO 05004KT 4SM 17/13 A2977 RMK T01700130 IEM_DS3505
ZBYN,1999-05-24 17:00,ZBYN 241700Z AUTO 00000KT 4SM 16/13 A2977 RMK T01600130 IEM_DS3505
ZBYN,1999-05-24 18:00,ZBYN 241800Z AUTO 32002KT 10SM 16/11 RMK SLP060 T01600106 57002 IEM_DS3505
ZBYN,1999-05-24 21:00,ZBYN 242100Z AUTO 34004KT 5SM 15/09 A2977 RMK SLP062 T01480092 52003 IEM_DS3505
ZBYN,1999-05-24 22:00,ZBYN 242200Z AUTO 00000KT 2SM 14/12 A2977 RMK T01400120 IEM_DS3505
ZBYN,1999-05-24 23:00,ZBYN 242300Z AUTO 34010KT 7SM 16/07 A2980 RMK T01600070 IEM_DS3505
ZBYN,1999-05-25 00:00,ZBYN 250000Z AUTO 32002KT 12SM 14/05 A2980 RMK SLP088 T01390049 52018 IEM_DS3505
ZBYN,1999-05-25 02:00,ZBYN 250200Z AUTO 17004KT 7SM 14/08 A2983 RMK T01400080 IEM_DS3505
ZBYN,1999-05-25 03:00,ZBYN 250300Z AUTO 16010KT 12SM 15/05 A2983 RMK SLP099 T01500051 52003 IEM_DS3505
ZBYN,1999-05-25 04:00,ZBYN 250400Z AUTO 22006KT 7SM 16/09 A2983 RMK T01600090 IEM_DS3505
ZBYN,1999-05-25 05:00,ZBYN 250500Z AUTO 18008KT 7SM 17/07 A2980 RMK T01700070 IEM_DS3505
ZBYN,1999-05-25 06:00,ZBYN 250600Z AUTO 18008KT 9SM 18/05 A2977 RMK SLP072 T01830048 57021 IEM_DS3505
ZBYN,1999-05-25 07:00,ZBYN 250700Z AUTO 23006KT 7SM 19/06 A2974 RMK T01900060 IEM_DS3505
ZBYN,1999-05-25 09:00,ZBYN 250900Z AUTO 02006KT 12SM 20/02 A2971 RMK SLP057 T02020023 57012 IEM_DS3505
ZBYN,1999-05-25 10:00,ZBYN 251000Z AUTO 07008KT 7SM 19/05 A2974 RMK T01900050 IEM_DS3505
ZBYN,1999-05-25 11:00,ZBYN 251100Z AUTO 31010KT 7SM 19/01 A2977 RMK T01900010 IEM_DS3505
ZBYN,1999-05-25 12:00,ZBYN 251200Z AUTO 32006KT 11SM 17/00 A2980 RMK SLP085 T01670004 52019 IEM_DS3505
ZBYN,1999-05-25 13:00,ZBYN 251300Z AUTO 03004KT 6SM 16/02 A2980 RMK T01600020 IEM_DS3505
ZBYN,1999-05-25 14:00,ZBYN 251400Z AUTO 32006KT 6SM 15/03 A2983 RMK T01500030 IEM_DS3505
ZBYN,1999-05-25 15:00,ZBYN 251500Z AUTO 32006KT 11SM 14/02 A2983 RMK SLP103 T01380023 52014 IEM_DS3505
ZBYN,1999-05-25 16:00,ZBYN 251600Z AUTO 33008KT 6SM 15/04 A2983 RMK T01500040 IEM_DS3505
ZBYN,1999-05-25 17:00,ZBYN 251700Z AUTO 31002KT 6SM 14/04 A2983 RMK T01400040 IEM_DS3505
ZBYN,1999-05-25 18:00,ZBYN 251800Z AUTO 36004KT 9SM 14/03 A2983 RMK SLP094 T01430033 57003 IEM_DS3505
ZBYN,1999-05-25 20:00,ZBYN 252000Z AUTO 20004KT 7SM 14/05 RMK T01400050 IEM_DS3505
ZBYN,1999-05-25 21:00,ZBYN 252100Z AUTO 32008KT 12SM 15/05 A2985 RMK SLP094 T01470049 52003 IEM_DS3505
ZBYN,1999-05-25 22:00,ZBYN 252200Z AUTO 20004KT 6SM 11/07 A2985 RMK T01100070 IEM_DS3505
ZBYN,1999-05-25 23:00,ZBYN 252300Z AUTO 21004KT 6SM 13/07 A2985 RMK T01300070 IEM_DS3505
ZBYN,1999-05-26 00:00,ZBYN 260000Z AUTO 34006KT 12SM 18/05 A2988 RMK SLP111 T01780048 52015 IEM_DS3505
ZBYN,1999-05-26 01:00,ZBYN 260100Z AUTO 34014KT 6SM 21/05 A2988 RMK T02100050 IEM_DS3505
ZBYN,1999-05-26 02:00,ZBYN 260200Z AUTO 34014KT 7SM 23/05 A2988 RMK T02300050 IEM_DS3505
ZBYN,1999-05-26 03:00,ZBYN 260300Z AUTO 02008KT 9SM 25/02 A2985 RMK SLP105 T02460025 54000 IEM_DS3505
ZBYN,1999-05-26 04:00,ZBYN 260400Z AUTO 10017KT 7SM 27/03 A2985 RMK T02700030 IEM_DS3505
ZBYN,1999-05-26 05:00,ZBYN 260500Z AUTO 01016KT 7SM 28/02 A2983 RMK T02800020 IEM_DS3505
ZBYN,1999-05-26 06:00,ZBYN 260600Z AUTO 09014KT 12SM 28/M02 A2983 RMK SLP075 T02821021 57021 IEM_DS3505
ZBYN,1999-05-26 07:00,ZBYN 260700Z AUTO 05008KT 7SM 29/00 A2980 RMK T02900000 IEM_DS3505
ZBYN,1999-05-26 08:00,ZBYN 260800Z AUTO 01014KT 7SM 30/01 A2977 RMK T03000010 IEM_DS3505
ZBYN,1999-05-26 09:00,ZBYN 260900Z AUTO 34002KT 12SM 29/M01 A2977 RMK SLP057 T02921012 57015 IEM_DS3505
ZBYN,1999-05-26 10:00,ZBYN 261000Z AUTO 32014KT 7SM 29/01 A2977 RMK T02900010 IEM_DS3505
ZBYN,1999-05-26 11:00,ZBYN 261100Z AUTO 32012KT 7SM 28/00 A2977 RMK T02800000 IEM_DS3505
ZBYN,1999-05-26 12:00,ZBYN 261200Z AUTO 29006KT 12SM 25/02 A2980 RMK SLP065 T02540025 52007 IEM_DS3505
ZBYN,1999-05-26 13:00,ZBYN 261300Z AUTO 28004KT 6SM 23/02 A2980 RMK T02300020 IEM_DS3505
ZBYN,1999-05-26 14:00,ZBYN 261400Z AUTO 00000KT 6SM 23/01 A2980 RMK T02300010 IEM_DS3505
ZBYN,1999-05-26 15:00,ZBYN 261500Z AUTO 00000KT 12SM 20/03 A2980 RMK SLP074 T02020032 52010 IEM_DS3505
ZBYN,1999-05-26 16:00,ZBYN 261600Z AUTO 11002KT 7SM 16/05 A2983 RMK T01600050 IEM_DS3505
ZBYN,1999-05-26 17:00,ZBYN 261700Z AUTO 10002KT 6SM 15/06 A2983 RMK T01500060 IEM_DS3505
ZBYN,1999-05-26 18:00,ZBYN 261800Z AUTO 09004KT 12SM 16/04 RMK SLP080 T01560041 52004 IEM_DS3505
ZBYN,1999-05-26 21:00,ZBYN 262100Z AUTO 11002KT 6SM 12/05 RMK SLP085 T01180049 52001 IEM_DS3505
ZBYN,1999-05-26 22:00,ZBYN 262200Z AUTO 10002KT 6SM 13/06 A2985 RMK T01300060 IEM_DS3505
ZBYN,1999-05-26 23:00,ZBYN 262300Z AUTO 10004KT 6SM 16/07 A2985 RMK T01600070 IEM_DS3505
ZBYN,1999-05-27 00:00,ZBYN 270000Z AUTO 14002KT 6SM 19/07 A2985 RMK SLP095 T01910072 52014 IEM_DS3505
ZBYN,1999-05-27 01:00,ZBYN 270100Z AUTO 16002KT 22/08 A2988 RMK T02200080 IEM_DS3505
ZBYN,1999-05-27 02:00,ZBYN 270200Z AUTO 00000KT 5SM 24/08 A2985 RMK T02400080 IEM_DS3505
ZBYN,1999-05-27 03:00,ZBYN 270300Z AUTO 00000KT 5SM 27/07 A2983 RMK SLP077 T02710068 57013 IEM_DS3505
ZBYN,1999-05-27 04:00,ZBYN 270400Z AUTO 00000KT 7SM 30/03 A2980 RMK T03000030 IEM_DS3505
ZBYN,1999-05-27 05:00,ZBYN 270500Z AUTO 26006KT 6SM 31/03 A2977 RMK T03100030 IEM_DS3505
ZBYN,1999-05-27 06:00,ZBYN 270600Z AUTO 14006KT 6SM 31/03 A2974 RMK SLP048 T03120031 57027 IEM_DS3505
ZBYN,1999-05-27 07:00,ZBYN 270700Z AUTO 27004KT 7SM 32/01 A2974 RMK T03200010 IEM_DS3505
ZBYN,1999-05-27 08:00,ZBYN 270800Z AUTO 27004KT 7SM 32/01 A2971 RMK T03200010 IEM_DS3505
ZBYN,1999-05-27 09:00,ZBYN 270900Z AUTO 22010KT 7SM 31/04 A2968 RMK SLP035 T03140036 57017 IEM_DS3505
ZBYN,1999-05-27 10:00,ZBYN 271000Z AUTO 20006KT 7SM 31/02 A2968 RMK T03100020 IEM_DS3505
ZBYN,1999-05-27 11:00,ZBYN 271100Z AUTO 20002KT 7SM 30/03 A2968 RMK T03000030 IEM_DS3505
ZBYN,1999-05-27 12:00,ZBYN 271200Z AUTO 29004KT 9SM 26/08 A2971 RMK SLP038 T02590075 52005 IEM_DS3505
ZBYN,1999-05-27 13:00,ZBYN 271300Z AUTO 05002KT 6SM 25/06 A2974 RMK T02500060 IEM_DS3505
ZBYN,1999-05-27 15:00,ZBYN 271500Z AUTO 09002KT 9SM 22/01 A2977 RMK SLP052 T02200013 52019 IEM_DS3505
ZBYN,1999-05-27 16:00,ZBYN 271600Z AUTO 09019KT 6SM 21/17 A2980 RMK T02100170 IEM_DS3505
ZBYN,1999-05-27 17:00,ZBYN 271700Z AUTO 09017KT 6SM 19/15 A2983 RMK T01900150 IEM_DS3505
ZBYN,1999-05-27 18:00,ZBYN 271800Z AUTO 09012KT 6SM 18/12 A2985 RMK SLP078 T01830123 52024 IEM_DS3505
ZBYN,1999-05-27 19:00,ZBYN 271900Z AUTO 08019KT 6SM 16/12 A2988 RMK T01600120 IEM_DS3505
ZBYN,1999-05-27 20:00,ZBYN 272000Z AUTO 08014KT 6SM 16/12 A2988 RMK T01600120 IEM_DS3505
ZBYN,1999-05-27 21:00,ZBYN 272100Z AUTO 00000KT 5SM 15/11 A2991 RMK SLP103 T01520109 52019 IEM_DS3505
ZBYN,1999-05-27 22:00,ZBYN 272200Z AUTO 06008KT 6SM 15/10 A2991 RMK T01500100 IEM_DS3505
ZBYN,1999-05-27 23:00,ZBYN 272300Z AUTO 08012KT 6SM 16/10 A2994 RMK T01600100 IEM_DS3505
ZBYN,1999-05-28 00:00,ZBYN 280000Z AUTO 34002KT 4SM 18/11 A2994 RMK SLP118 T01800111 52010 IEM_DS3505
ZBYN,1999-05-28 01:00,ZBYN 280100Z AUTO 07014KT 6SM 19/10 A2994 RMK T01900100 IEM_DS3505
ZBYN,1999-05-28 02:00,ZBYN 280200Z AUTO 09012KT 6SM 21/10 A2991 RMK T02100100 IEM_DS3505
ZBYN,1999-05-28 03:00,ZBYN 280300Z AUTO 02002KT 4SM 22/10 A2988 RMK SLP101 T02210099 57015 IEM_DS3505
ZBYN,1999-05-28 04:00,ZBYN 280400Z AUTO 22004KT 6SM 25/10 A2988 RMK T02500100 IEM_DS3505
ZBYN,1999-05-28 05:00,ZBYN 280500Z AUTO 18002KT 6SM 26/11 A2983 RMK T02600110 IEM_DS3505
ZBYN,1999-05-28 06:00,ZBYN 280600Z AUTO 18006KT 6SM 27/07 A2980 RMK SLP070 T02720072 57027 IEM_DS3505
ZBYN,1999-05-28 07:00,ZBYN 280700Z AUTO 17004KT 6SM 29/10 A2977 RMK T02900100 IEM_DS3505
ZBYN,1999-05-28 08:00,ZBYN 280800Z AUTO 17004KT 6SM 29/11 A2974 RMK T02900110 IEM_DS3505
ZBYN,1999-05-28 09:00,ZBYN 280900Z AUTO 16008KT 6SM 29/09 A2974 RMK SLP046 T02890092 57024 IEM_DS3505
ZBYN,1999-05-28 10:00,ZBYN 281000Z AUTO 24002KT 6SM 29/10 A2971 RMK T02900100 IEM_DS3505
ZBYN,1999-05-28 11:00,ZBYN 281100Z AUTO 00000KT 6SM 28/11 A2974 RMK T02800110 IEM_DS3505
ZBYN,1999-05-28 12:00,ZBYN 281200Z AUTO 09004KT 6SM 25/10 A2974 RMK SLP052 T02480096 52004 IEM_DS3505
ZBYN,1999-05-28 13:00,ZBYN 281300Z AUTO 09014KT 6SM 24/06 A2977 RMK T02400060 IEM_DS3505
ZBYN,1999-05-28 14:00,ZBYN 281400Z AUTO 08016KT 6SM 22/07 A2980 RMK T02200070 IEM_DS3505
ZBYN,1999-05-28 15:00,ZBYN 281500Z AUTO 00000KT 6SM 21/07 A2980 RMK SLP074 T02120072 52021 IEM_DS3505
ZBYN,1999-05-28 16:00,ZBYN 281600Z AUTO 08010KT 6SM 22/06 A2983 RMK T02200060 IEM_DS3505
ZBYN,1999-05-28 17:00,ZBYN 281700Z AUTO 06006KT 6SM 21/06 A2983 RMK T02100060 IEM_DS3505
ZBYN,1999-05-28 18:00,ZBYN 281800Z AUTO 00000KT 6SM 18/10 A2983 RMK SLP074 T01790098 52002 IEM_DS3505
ZBYN,1999-05-28 19:00,ZBYN 281900Z AUTO 11002KT 6SM 18/07 A2980 RMK T01800070 IEM_DS3505
ZBYN,1999-05-28 21:00,ZBYN 282100Z AUTO 13002KT 6SM 17/07 A2983 RMK T01700070 IEM_DS3505
ZBYN,1999-05-28 22:00,ZBYN 282200Z AUTO 14002KT 6SM 17/08 A2983 RMK T01700080 IEM_DS3505
ZBYN,1999-05-28 23:00,ZBYN 282300Z AUTO 00000KT 6SM 18/09 A2983 RMK T01800090 IEM_DS3505
ZBYN,1999-05-29 00:00,ZBYN 290000Z AUTO 00000KT 5SM 21/10 RMK SLP080 T02080095 52006 IEM_DS3505
ZBYN,1999-05-29 01:00,ZBYN 290100Z AUTO 14006KT 6SM 23/11 A2983 RMK T02300110 IEM_DS3505
ZBYN,1999-05-29 02:00,ZBYN 290200Z AUTO 16002KT 6SM 25/11 A2980 RMK T02500110 IEM_DS3505
ZBYN,1999-05-29 03:00,ZBYN 290300Z AUTO 18008KT 6SM 26/10 A2980 RMK SLP067 T02590102 57010 IEM_DS3505
ZBYN,1999-05-29 04:00,ZBYN 290400Z AUTO 24004KT 6SM 28/10 A2977 RMK T02800100 IEM_DS3505
ZBYN,1999-05-29 05:00,ZBYN 290500Z AUTO 21002KT 6SM 29/08 A2974 RMK T02900080 IEM_DS3505
ZBYN,1999-05-29 06:00,ZBYN 290600Z AUTO 22006KT 7SM 30/10 A2971 RMK SLP038 T02950095 57029 IEM_DS3505
ZBYN,1999-05-29 07:00,ZBYN 290700Z AUTO 27002KT 6SM 30/10 A2968 RMK T03000100 IEM_DS3505
ZBYN,1999-05-29 08:00,ZBYN 290800Z AUTO 27006KT 6SM 31/11 A2965 RMK T03100110 IEM_DS3505
ZBYN,1999-05-29 09:00,ZBYN 290900Z AUTO 22002KT 7SM 31/09 A2962 RMK SLP012 T03070094 57025 IEM_DS3505
ZBYN,1999-05-29 10:00,ZBYN 291000Z AUTO 17012KT 7SM 29/08 A2962 RMK T02900080 IEM_DS3505
ZBYN,1999-05-29 11:00,ZBYN 291100Z AUTO 14002KT 7SM 28/08 A2965 RMK T02800080 IEM_DS3505
ZBYN,1999-05-29 12:00,ZBYN 291200Z AUTO 00000KT 7SM 25/10 A2965 RMK SLP018 T02510096 52004 IEM_DS3505
ZBYN,1999-05-29 13:00,ZBYN 291300Z AUTO 08004KT 6SM 26/09 A2968 RMK T02600090 IEM_DS3505
ZBYN,1999-05-29 14:00,ZBYN 291400Z AUTO 10004KT 6SM 25/12 A2974 RMK T02500120 IEM_DS3505
ZBYN,1999-05-29 15:00,ZBYN 291500Z AUTO 14004KT 7SM 23/10 A2974 RMK SLP037 T02340095 52022 IEM_DS3505
ZBYN,1999-05-29 16:00,ZBYN 291600Z AUTO 09008KT 6SM 23/14 A2974 RMK T02300140 IEM_DS3505
ZBYN,1999-05-29 17:00,ZBYN 291700Z AUTO 07010KT 6SM 22/15 A2974 RMK T02200150 IEM_DS3505
ZBYN,1999-05-29 18:00,ZBYN 291800Z AUTO 09006KT 6SM 22/11 A2974 RMK SLP036 T02170112 52002 IEM_DS3505
ZBYN,1999-05-29 19:00,ZBYN 291900Z AUTO 09008KT 6SM 21/15 A2974 RMK T02100150 IEM_DS3505
ZBYN,1999-05-29 20:00,ZBYN 292000Z AUTO 11004KT 6SM 20/15 A2974 RMK T02000150 IEM_DS3505
ZBYN,1999-05-29 21:00,ZBYN 292100Z AUTO 00000KT 6SM 18/13 A2974 RMK SLP043 T01850131 52004 IEM_DS3505
ZBYN,1999-05-29 22:00,ZBYN 292200Z AUTO 07002KT 6SM 19/15 A2977 RMK T01900150 IEM_DS3505
ZBYN,1999-05-29 23:00,ZBYN 292300Z AUTO 00000KT 6SM 20/14 A2977 RMK T02000140 IEM_DS3505
ZBYN,1999-05-30 00:00,ZBYN 300000Z AUTO 00000KT 5SM 21/13 A2977 RMK SLP053 T02140130 52005 IEM_DS3505
ZBYN,1999-05-30 01:00,ZBYN 300100Z AUTO 16002KT 6SM 24/14 A2977 RMK T02400140 IEM_DS3505
ZBYN,1999-05-30 02:00,ZBYN 300200Z AUTO 22004KT 6SM 26/13 A2977 RMK T02600130 IEM_DS3505
ZBYN,1999-05-30 03:00,ZBYN 300300Z AUTO 18006KT 5SM 26/11 A2977 RMK SLP048 T02590109 57001 IEM_DS3505
ZBYN,1999-05-30 04:00,ZBYN 300400Z AUTO 20004KT 6SM 29/12 A2974 RMK T02900120 IEM_DS3505
ZBYN,1999-05-30 05:00,ZBYN 300500Z AUTO 25004KT 6SM 30/12 A2971 RMK T03000120 IEM_DS3505
ZBYN,1999-05-30 06:00,ZBYN 300600Z AUTO 20008KT 6SM 30/08 A2968 RMK SLP018 T03040081 57023 IEM_DS3505
ZBYN,1999-05-30 07:00,ZBYN 300700Z AUTO 19008KT 6SM 32/09 A2965 RMK T03200090 IEM_DS3505
ZBYN,1999-05-30 08:00,ZBYN 300800Z AUTO 19010KT 7SM 31/12 A2965 RMK T03100120 IEM_DS3505
ZBYN,1999-05-30 09:00,ZBYN 300900Z AUTO 16006KT 6SM 30/10 A2965 RMK SLP012 T02980096 57011 IEM_DS3505
ZBYN,1999-05-30 10:00,ZBYN 301000Z AUTO 22008KT 7SM 30/11 A2965 RMK T03000110 IEM_DS3505
ZBYN,1999-05-30 11:00,ZBYN 301100Z AUTO 25008KT 7SM 28/12 A2968 RMK T02800120 IEM_DS3505
ZBYN,1999-05-30 12:00,ZBYN 301200Z AUTO 18006KT 7SM 26/10 A2968 RMK SLP030 T02650104 52016 IEM_DS3505
ZBYN,1999-05-30 13:00,ZBYN 301300Z AUTO 15002KT 6SM 25/12 A2971 RMK T02500120 IEM_DS3505
ZBYN,1999-05-30 14:00,ZBYN 301400Z AUTO 17002KT 6SM 24/12 A2974 RMK T02400120 IEM_DS3505
ZBYN,1999-05-30 15:00,ZBYN 301500Z AUTO 20008KT 6SM 25/09 A2974 RMK SLP040 T02510093 52013 IEM_DS3505
ZBYN,1999-05-30 16:00,ZBYN 301600Z AUTO 24004KT 6SM 25/11 A2974 RMK T02500110 IEM_DS3505
ZBYN,1999-05-30 17:00,ZBYN 301700Z AUTO 35004KT 6SM 23/13 A2977 RMK T02300130 IEM_DS3505
ZBYN,1999-05-30 18:00,ZBYN 301800Z AUTO 00000KT 6SM 22/13 A2977 RMK SLP044 T02200132 52006 IEM_DS3505
ZBYN,1999-05-30 19:00,ZBYN 301900Z AUTO 14002KT 6SM 21/17 A2977 RMK T02100170 IEM_DS3505
ZBYN,1999-05-30 20:00,ZBYN 302000Z AUTO 30004KT 6SM 21/15 A2977 RMK T02100150 IEM_DS3505
ZBYN,1999-05-30 21:00,ZBYN 302100Z AUTO 00000KT 6SM 22/12 A2977 RMK SLP049 T02160121 52003 IEM_DS3505
ZBYN,1999-05-30 22:00,ZBYN 302200Z AUTO 08004KT 7SM 19/17 A2977 RMK T01900170 IEM_DS3505
ZBYN,1999-05-30 23:00,ZBYN 302300Z AUTO 08002KT 6SM 20/17 A2977 RMK T02000170 IEM_DS3505
ZBYN,1999-05-31 00:00,ZBYN 310000Z AUTO 32006KT 6SM 21/13 A2980 RMK SLP059 T02140128 52005 IEM_DS3505
ZBYN,1999-05-31 01:00,ZBYN 310100Z AUTO 35004KT 6SM 22/14 A2980 RMK T02200140 IEM_DS3505
ZBYN,1999-05-31 02:00,ZBYN 310200Z AUTO 32004KT 6SM 22/14 A2980 RMK T02200140 IEM_DS3505
ZBYN,1999-05-31 03:00,ZBYN 310300Z AUTO 36004KT 6SM 24/12 A2980 RMK SLP060 T02380116 52002 IEM_DS3505
ZBYN,1999-05-31 04:00,ZBYN 310400Z AUTO 32002KT 6SM 24/13 A2977 RMK T02400130 IEM_DS3505
ZBYN,1999-05-31 05:00,ZBYN 310500Z AUTO 33008KT 6SM 25/12 A2977 RMK T02500120 IEM_DS3505
ZBYN,1999-05-31 06:00,ZBYN 310600Z AUTO 32004KT 6SM 24/11 A2977 RMK SLP056 T02360111 57008 IEM_DS3505
ZBYN,1999-05-31 07:00,ZBYN 310700Z AUTO 36004KT 7SM 24/12 A2977 RMK T02400120 IEM_DS3505
ZBYN,1999-05-31 08:00,ZBYN 310800Z AUTO 16004KT 7SM 23/15 A2974 RMK T02300150 IEM_DS3505
ZBYN,1999-05-31 09:00,ZBYN 310900Z AUTO 14004KT 6SM 18/15 A2977 RMK SLP064 T01850152 57001 IEM_DS3505
ZBYN,1999-05-31 10:00,ZBYN 311000Z AUTO 05002KT 6SM 20/17 A2977 RMK T02000170 IEM_DS3505
ZBYN,1999-05-31 11:00,ZBYN 311100Z AUTO 00000KT 6SM 20/18 A2977 RMK T02000180 IEM_DS3505
ZBYN,1999-05-31 12:00,ZBYN 311200Z AUTO 14004KT 6SM 19/16 A2977 RMK SLP065 T01940155 52002 IEM_DS3505
ZBYN,1999-05-31 13:00,ZBYN 311300Z AUTO 14002KT 6SM 19/18 A2980 RMK T01900180 IEM_DS3505
ZBYN,1999-05-31 14:00,ZBYN 311400Z AUTO 11002KT 6SM 18/18 A2980 RMK T01800180 IEM_DS3505
ZBYN,1999-05-31 15:00,ZBYN 311500Z AUTO 00000KT 6SM 17/15 A2980 RMK SLP081 T01690151 52015 IEM_DS3505
ZBYN,1999-05-31 16:00,ZBYN 311600Z AUTO 13002KT 6SM 16/15 A2980 RMK T01600150 IEM_DS3505
ZBYN,1999-05-31 17:00,ZBYN 311700Z AUTO 10002KT 6SM 15/15 A2980 RMK T01500150 IEM_DS3505
ZBYN,1999-05-31 18:00,ZBYN 311800Z AUTO 00000KT 6SM 15/14 A2980 RMK SLP082 T01540144 57002 IEM_DS3505
ZBYN,1999-05-31 19:00,ZBYN 311900Z AUTO 00000KT 6SM A2980 RMK IEM_DS3505
ZBYN,1999-05-31 20:00,ZBYN 312000Z AUTO 00000KT 6SM 13/13 A2980 RMK T01300130 IEM_DS3505
ZBYN,1999-05-31 21:00,ZBYN 312100Z AUTO 00000KT 4SM 13/12 A2980 RMK SLP086 T01340123 57006 IEM_DS3505
ZBYN,1999-05-31 22:00,ZBYN 312200Z AUTO 08002KT 2 1/2SM 13/13 A2980 RMK T01300130 IEM_DS3505
ZBYN,1999-05-31 23:00,ZBYN 312300Z AUTO 00000KT 2 1/2SM 15/15 A2980 RMK T01500150 IEM_DS3505
ZBYN,1999-06-01 00:00,ZBYN 010000Z AUTO 09002KT 3SM 17/14 A2980 RMK SLP084 T01700136 52004 IEM_DS3505
ZBYN,1999-06-01 01:00,ZBYN 010100Z AUTO 17004KT 3SM 19/15 A2980 RMK T01900150 IEM_DS3505
ZBYN,1999-06-01 02:00,ZBYN 010200Z AUTO 23002KT 2 1/2SM 22/15 A2980 RMK T02200150 IEM_DS3505
ZBYN,1999-06-01 03:00,ZBYN 010300Z AUTO 18008KT 4SM 23/14 A2977 RMK SLP066 T02320144 57011 IEM_DS3505
ZBYN,1999-06-01 04:00,ZBYN 010400Z AUTO 24002KT 27/10 A2974 RMK T02700100 IEM_DS3505
ZBYN,1999-06-01 05:00,ZBYN 010500Z AUTO 27002KT 7SM 28/08 A2974 RMK T02800080 IEM_DS3505
ZBYN,1999-06-01 06:00,ZBYN 010600Z AUTO 32014KT 12SM 29/01 A2971 RMK SLP046 T02860014 57013 IEM_DS3505
ZBYN,1999-06-01 07:00,ZBYN 010700Z AUTO 31016KT 7SM 30/02 A2971 RMK T03000020 IEM_DS3505
ZBYN,1999-06-01 08:00,ZBYN 010800Z AUTO 28006KT 7SM 29/03 A2971 RMK T02900030 IEM_DS3505
ZBYN,1999-06-01 09:00,ZBYN 010900Z AUTO 29010KT 12SM 28/03 A2968 RMK SLP041 T02850030 57007 IEM_DS3505
ZBYN,1999-06-01 10:00,ZBYN 011000Z AUTO 34012KT 7SM 29/02 A2968 RMK T02900020 IEM_DS3505
ZBYN,1999-06-01 11:00,ZBYN 011100Z AUTO 34006KT 6SM 28/02 A2971 RMK T02800020 IEM_DS3505
ZBYN,1999-06-01 12:00,ZBYN 011200Z AUTO 02002KT 12SM 26/04 A2971 RMK SLP041 T02640035 52002 IEM_DS3505
ZBYN,1999-06-01 13:00,ZBYN 011300Z AUTO 05002KT 6SM 23/05 A2974 RMK T02300050 IEM_DS3505
ZBYN,1999-06-01 14:00,ZBYN 011400Z AUTO 03002KT 6SM 22/05 A2974 RMK T02200050 IEM_DS3505
ZBYN,1999-06-01 15:00,ZBYN 011500Z AUTO 34002KT 9SM 22/04 A2977 RMK SLP052 T02200042 52012 IEM_DS3505
ZBYN,1999-06-01 16:00,ZBYN 011600Z AUTO 00000KT 6SM 18/06 A2977 RMK T01800060 IEM_DS3505
ZBYN,1999-06-01 17:00,ZBYN 011700Z AUTO 13004KT 6SM 17/06 A2977 RMK T01700060 IEM_DS3505
ZBYN,1999-06-01 18:00,ZBYN 011800Z AUTO 00000KT 7SM 15/08 RMK SLP055 T01530085 52001 IEM_DS3505
ZBYN,1999-06-01 19:00,ZBYN 011900Z AUTO 00000KT 6SM 16/06 A2977 RMK T01600060 IEM_DS3505
ZBYN,1999-06-01 20:00,ZBYN 012000Z AUTO 13002KT 6SM 14/06 A2977 RMK T01400060 IEM_DS3505
ZBYN,1999-06-01 21:00,ZBYN 012100Z AUTO 32002KT 9SM 16/05 A2977 RMK SLP057 T01610051 52003 IEM_DS3505
ZBYN,1999-06-01 22:00,ZBYN 012200Z AUTO 00000KT 6SM 14/07 A2980 RMK T01400070 IEM_DS3505
ZBYN,1999-06-01 23:00,ZBYN 012300Z AUTO 00000KT 6SM 17/08 A2980 RMK T01700080 IEM_DS3505
ZBYN,1999-06-02 00:00,ZBYN 020000Z AUTO 32004KT 6SM 20/06 A2980 RMK SLP068 T02040061 52013 IEM_DS3505
ZBYN,1999-06-02 01:00,ZBYN 020100Z AUTO 00000KT 6SM 23/06 A2980 RMK T02300060 IEM_DS3505
ZBYN,1999-06-02 02:00,ZBYN 020200Z AUTO 24002KT 6SM 25/07 A2980 RMK T02500070 IEM_DS3505
ZBYN,1999-06-02 03:00,ZBYN 020300Z AUTO 00000KT 6SM 27/06 A2980 RMK SLP058 T02740065 57005 IEM_DS3505
ZBYN,1999-06-02 04:00,ZBYN 020400Z AUTO 00000KT 6SM 28/06 A2977 RMK T02800060 IEM_DS3505
ZBYN,1999-06-02 05:00,ZBYN 020500Z AUTO 00000KT 6SM 29/03 A2974 RMK T02900030 IEM_DS3505
ZBYN,1999-06-02 06:00,ZBYN 020600Z AUTO 25006KT 8SM 28/04 A2974 RMK SLP062 T02750043 57006 IEM_DS3505
ZBYN,1999-06-02 07:00,ZBYN 020700Z AUTO 25004KT 6SM 28/06 A2974 RMK T02800060 IEM_DS3505
ZBYN,1999-06-02 08:00,ZBYN 020800Z AUTO 25002KT 6SM 28/06 A2971 RMK T02800060 IEM_DS3505
ZBYN,1999-06-02 09:00,ZBYN 020900Z AUTO 22002KT 9SM 28/08 A2971 RMK SLP048 T02760082 57011 IEM_DS3505
ZBYN,1999-06-02 10:00,ZBYN 021000Z AUTO 00000KT 6SM 28/02 A2971 RMK T02800020 IEM_DS3505
ZBYN,1999-06-02 11:00,ZBYN 021100Z AUTO 02002KT 6SM 28/05 A2971 RMK T02800050 IEM_DS3505
ZBYN,1999-06-02 12:00,ZBYN 021200Z AUTO 00000KT 7SM 24/11 A2974 RMK SLP051 T02430107 52004 IEM_DS3505
ZBYN,1999-06-02 13:00,ZBYN 021300Z AUTO 00000KT 6SM 24/09 A2974 RMK T02400090 IEM_DS3505
ZBYN,1999-06-02 14:00,ZBYN 021400Z AUTO 00000KT 6SM 22/07 A2977 RMK T02200070 IEM_DS3505
ZBYN,1999-06-02 15:00,ZBYN 021500Z AUTO 11002KT 6SM 22/08 RMK SLP055 T02180081 52010 IEM_DS3505
ZBYN,1999-06-02 16:00,ZBYN 021600Z AUTO 22006KT 6SM 22/08 A2977 RMK T02200080 IEM_DS3505
ZBYN,1999-06-02 17:00,ZBYN 021700Z AUTO 00000KT 6SM 21/08 A2980 RMK T02100080 IEM_DS3505
ZBYN,1999-06-02 18:00,ZBYN 021800Z AUTO 09004KT 6SM 19/09 A2980 RMK SLP063 T01940093 52004 IEM_DS3505
ZBYN,1999-06-02 19:00,ZBYN 021900Z AUTO 11002KT 6SM 18/09 A2980 RMK T01800090 IEM_DS3505
ZBYN,1999-06-02 20:00,ZBYN 022000Z AUTO 12004KT 6SM 18/09 A2980 RMK T01800090 IEM_DS3505
ZBYN,1999-06-02 21:00,ZBYN 022100Z AUTO 00000KT 6SM 16/09 A2980 RMK SLP069 T01620092 52001 IEM_DS3505
ZBYN,1999-06-02 22:00,ZBYN 022200Z AUTO 13004KT 6SM 18/10 A2980 RMK T01800100 IEM_DS3505
ZBYN,1999-06-02 23:00,ZBYN 022300Z AUTO 12002KT 6SM 19/11 A2980 RMK T01900110 IEM_DS3505
ZBYN,1999-06-03 00:00,ZBYN 030000Z AUTO 14002KT 6SM 20/10 A2983 RMK SLP072 T02020105 52004 IEM_DS3505
ZBYN,1999-06-03 01:00,ZBYN 030100Z AUTO 15002KT 5SM 23/11 A2980 RMK T02300110 IEM_DS3505
ZBYN,1999-06-03 02:00,ZBYN 030200Z AUTO 23006KT 6SM 26/10 A2980 RMK T02600100 IEM_DS3505
ZBYN,1999-06-03 03:00,ZBYN 030300Z AUTO 20008KT 7SM 27/10 A2980 RMK SLP062 T02740096 57003 IEM_DS3505
ZBYN,1999-06-03 04:00,ZBYN 030400Z AUTO 21008KT 7SM 29/10 A2977 RMK T02900100 IEM_DS3505
ZBYN,1999-06-03 06:00,ZBYN 030600Z AUTO 18010KT 9SM 29/07 RMK SLP041 T02910072 57020 IEM_DS3505
ZBYN,1999-06-03 08:00,ZBYN 030800Z AUTO 25008KT 7SM 30/08 A2971 RMK T03000080 IEM_DS3505
ZBYN,1999-06-03 09:00,ZBYN 030900Z AUTO 18004KT 12SM 31/06 A2971 RMK SLP028 T03060062 57014 IEM_DS3505
ZBYN,1999-06-03 10:00,ZBYN 031000Z AUTO 24006KT 7SM 30/08 A2968 RMK T03000080 IEM_DS3505
ZBYN,1999-06-03 11:00,ZBYN 031100Z AUTO 24004KT 7SM 29/08 A2971 RMK T02900080 IEM_DS3505
ZBYN,1999-06-03 12:00,ZBYN 031200Z AUTO 20004KT 12SM 27/08 A2971 RMK SLP029 T02670075 52001 IEM_DS3505
ZBYN,1999-06-03 13:00,ZBYN 031300Z AUTO 17008KT 6SM 25/10 A2977 RMK T02500100 IEM_DS3505
ZBYN,1999-06-03 14:00,ZBYN 031400Z AUTO 17004KT 6SM 25/11 A2977 RMK T02500110 IEM_DS3505
ZBYN,1999-06-03 15:00,ZBYN 031500Z AUTO 20006KT 7SM 22/10 A2980 RMK SLP051 T02220103 52024 IEM_DS3505
ZBYN,1999-06-03 16:00,ZBYN 031600Z AUTO 17002KT 6SM 22/12 A2980 RMK T02200120 IEM_DS3505
ZBYN,1999-06-03 17:00,ZBYN 031700Z AUTO 13004KT 6SM 19/12 A2983 RMK T01900120 IEM_DS3505
ZBYN,1999-06-03 18:00,ZBYN 031800Z AUTO 11010KT 7SM 19/11 RMK SLP068 T01890106 52013 IEM_DS3505
ZBYN,1999-06-03 21:00,ZBYN 032100Z AUTO 00000KT 6SM 17/12 A2985 RMK SLP081 T01720116 52012 IEM_DS3505
ZBYN,1999-06-03 22:00,ZBYN 032200Z AUTO 10004KT 6SM 17/13 A2985 RMK T01700130 IEM_DS3505
ZBYN,1999-06-03 23:00,ZBYN 032300Z AUTO 12004KT 6SM 19/13 A2988 RMK T01900130 IEM_DS3505
ZBYN,1999-06-04 00:00,ZBYN 040000Z AUTO 00000KT 5SM 20/13 A2988 RMK SLP093 T02040126 52010 IEM_DS3505
ZBYN,1999-06-04 01:00,ZBYN 040100Z AUTO 13006KT 6SM 24/14 A2985 RMK T02400140 IEM_DS3505
ZBYN,1999-06-04 02:00,ZBYN 040200Z AUTO 08008KT 6SM 26/15 A2985 RMK T02600150 IEM_DS3505
ZBYN,1999-06-04 03:00,ZBYN 040300Z AUTO 14008KT 5SM 27/13 A2985 RMK SLP081 T02720132 57008 IEM_DS3505
ZBYN,1999-06-04 04:00,ZBYN 040400Z AUTO 07006KT 6SM 28/14 A2983 RMK T02800140 IEM_DS3505
ZBYN,1999-06-04 05:00,ZBYN 040500Z AUTO 12004KT 7SM 30/14 A2980 RMK T03000140 IEM_DS3505
ZBYN,1999-06-04 06:00,ZBYN 040600Z AUTO 22006KT 6SM 30/12 A2980 RMK SLP060 T02980118 57020 IEM_DS3505
ZBYN,1999-06-04 07:00,ZBYN 040700Z AUTO 12016KT 7SM 30/13 A2980 RMK T03000130 IEM_DS3505
ZBYN,1999-06-04 08:00,ZBYN 040800Z AUTO 19010KT 7SM 29/11 A2980 RMK T02900110 IEM_DS3505
ZBYN,1999-06-04 10:00,ZBYN 041000Z AUTO 18010KT 6SM 27/11 A2980 RMK T02700110 IEM_DS3505
ZBYN,1999-06-04 11:00,ZBYN 041100Z AUTO 17008KT 6SM 25/11 A2983 RMK T02500110 IEM_DS3505
ZBYN,1999-06-04 12:00,ZBYN 041200Z AUTO 16006KT 6SM 23/11 A2983 RMK SLP087 T02280106 52014 IEM_DS3505
ZBYN,1999-06-04 13:00,ZBYN 041300Z AUTO 16004KT 6SM 23/11 A2985 RMK T02300110 IEM_DS3505
ZBYN,1999-06-04 14:00,ZBYN 041400Z AUTO 14002KT 6SM 21/11 A2988 RMK T02100110 IEM_DS3505
ZBYN,1999-06-04 15:00,ZBYN 041500Z AUTO 14004KT 6SM 19/10 A2988 RMK SLP095 T01910097 52011 IEM_DS3505
ZBYN,1999-06-04 16:00,ZBYN 041600Z AUTO 15002KT 6SM 19/11 A2988 RMK T01900110 IEM_DS3505
ZBYN,1999-06-04 17:00,ZBYN 041700Z AUTO 15002KT 6SM 18/11 A2988 RMK T01800110 IEM_DS3505
ZBYN,1999-06-04 18:00,ZBYN 041800Z AUTO 11002KT 6SM 16/10 A2988 RMK SLP098 T01640104 52003 IEM_DS3505
ZBYN,1999-06-04 19:00,ZBYN 041900Z AUTO 12002KT 6SM 15/11 A2988 RMK T01500110 IEM_DS3505
ZBYN,1999-06-04 20:00,ZBYN 042000Z AUTO 11006KT 6SM 15/13 A2988 RMK T01500130 IEM_DS3505
ZBYN,1999-06-04 21:00,ZBYN 042100Z AUTO 18002KT 5SM 15/11 A2988 RMK SLP107 T01510106 52003 IEM_DS3505
ZBYN,1999-06-04 22:00,ZBYN 042200Z AUTO 06004KT 5SM 16/13 A2988 RMK T01600130 IEM_DS3505
ZBYN,1999-06-04 23:00,ZBYN 042300Z AUTO 07002KT 5SM 18/13 A2988 RMK T01800130 IEM_DS3505
ZBYN,1999-06-05 00:00,ZBYN 050000Z AUTO 00000KT 5SM 20/11 A2988 RMK SLP105 T01950113 57002 IEM_DS3505
ZBYN,1999-06-05 01:00,ZBYN 050100Z AUTO 12002KT 6SM 22/12 A2988 RMK T02200120 IEM_DS3505
ZBYN,1999-06-05 02:00,ZBYN 050200Z AUTO 20004KT 6SM 24/12 A2985 RMK T02400120 IEM_DS3505
ZBYN,1999-06-05 03:00,ZBYN 050300Z AUTO 20004KT 4SM 25/11 A2985 RMK SLP091 T02480112 57011 IEM_DS3505
ZBYN,1999-06-05 04:00,ZBYN 050400Z AUTO 17010KT 6SM 25/13 A2985 RMK T02500130 IEM_DS3505
ZBYN,1999-06-05 05:00,ZBYN 050500Z AUTO 17008KT 6SM 25/13 A2985 RMK T02500130 IEM_DS3505
ZBYN,1999-06-05 06:00,ZBYN 050600Z AUTO 14008KT 4SM 25/13 A2983 RMK SLP085 T02480133 57009 IEM_DS3505
ZBYN,1999-06-05 07:00,ZBYN 050700Z AUTO 18006KT 6SM 25/14 A2983 RMK T02500140 IEM_DS3505
ZBYN,1999-06-05 08:00,ZBYN 050800Z AUTO 16010KT 6SM 24/14 A2983 RMK T02400140 IEM_DS3505
ZBYN,1999-06-05 09:00,ZBYN 050900Z AUTO 18004KT 5SM 23/13 A2983 RMK SLP083 T02330128 57006 IEM_DS3505
ZBYN,1999-06-05 10:00,ZBYN 051000Z AUTO 16004KT 22/15 A2983 RMK T02200150 IEM_DS3505
ZBYN,1999-06-05 11:00,ZBYN 051100Z AUTO 17002KT 22/15 A2983 RMK T02200150 IEM_DS3505
ZBYN,1999-06-05 12:00,ZBYN 051200Z AUTO 20006KT 5SM 20/14 A2985 RMK SLP096 T02010143 52014 IEM_DS3505
ZBYN,1999-06-05 13:00,ZBYN 051300Z AUTO 15002KT 3SM 20/17 A2985 RMK T02000170 IEM_DS3505
ZBYN,1999-06-05 14:00,ZBYN 051400Z AUTO 00000KT 4SM 20/17 A2985 RMK T02000170 IEM_DS3505
ZBYN,1999-06-05 15:00,ZBYN 051500Z AUTO 00000KT 5SM 19/16 A2988 RMK SLP098 T01910160 52008 IEM_DS3505
ZBYN,1999-06-05 16:00,ZBYN 051600Z AUTO 00000KT 4SM 19/18 A2988 RMK T01900180 IEM_DS3505
ZBYN,1999-06-05 17:00,ZBYN 051700Z AUTO 00000KT 2 1/2SM 18/18 A2988 RMK T01800180 IEM_DS3505
ZBYN,1999-06-05 18:00,ZBYN 051800Z AUTO 14002KT 4SM 18/16 RMK SLP103 T01770162 52002 IEM_DS3505
ZBYN,1999-06-05 19:00,ZBYN 051900Z AUTO 17002KT 1 1/4SM 17/17 A2985 RMK T01700170 IEM_DS3505
ZBYN,1999-06-05 21:00,ZBYN 052100Z AUTO 14004KT 1 1/4SM 17/16 A2988 RMK SLP106 T01710161 54000 IEM_DS3505
ZBYN,1999-06-05 22:00,ZBYN 052200Z AUTO 13002KT 1SM 17/17 A2988 RMK T01700170 IEM_DS3505
ZBYN,1999-06-06 00:00,ZBYN 060000Z AUTO 14002KT 1 1/4SM 18/16 A2991 RMK SLP117 T01780165 52007 IEM_DS3505
ZBYN,1999-06-06 02:00,ZBYN 060200Z AUTO 27002KT 1 1/2SM 20/18 A2991 RMK T02000180 IEM_DS3505
ZBYN,1999-06-06 03:00,ZBYN 060300Z AUTO 00000KT 2 1/2SM 22/17 A2991 RMK SLP118 T02170166 52005 IEM_DS3505
ZBYN,1999-06-06 04:00,ZBYN 060400Z AUTO 16002KT 1 1/4SM 23/19 A2988 RMK T02300190 IEM_DS3505
ZBYN,1999-06-06 05:00,ZBYN 060500Z AUTO 06002KT 1 1/4SM 25/19 A2988 RMK T02500190 IEM_DS3505
ZBYN,1999-06-06 06:00,ZBYN 060600Z AUTO 18002KT 5SM 28/16 A2985 RMK SLP089 T02820162 57020 IEM_DS3505
ZBYN,1999-06-06 07:00,ZBYN 060700Z AUTO 15002KT 2SM 27/19 A2985 RMK T02700190 IEM_DS3505
ZBYN,1999-06-06 08:00,ZBYN 060800Z AUTO 06004KT 2 1/2SM 27/17 A2985 RMK T02700170 IEM_DS3505
ZBYN,1999-06-06 09:00,ZBYN 060900Z AUTO 18002KT 5SM 27/18 A2985 RMK SLP091 T02680178 57001 IEM_DS3505
ZBYN,1999-06-06 10:00,ZBYN 061000Z AUTO 07012KT 6SM 28/13 A2985 RMK T02800130 IEM_DS3505
ZBYN,1999-06-06 11:00,ZBYN 061100Z AUTO 09008KT 6SM 27/13 A2985 RMK T02700130 IEM_DS3505
ZBYN,1999-06-06 12:00,ZBYN 061200Z AUTO 09010KT 6SM 25/13 A2988 RMK SLP098 T02490130 52005 IEM_DS3505
ZBYN,1999-06-06 13:00,ZBYN 061300Z AUTO 09010KT 6SM 24/16 A2991 RMK T02400160 IEM_DS3505
ZBYN,1999-06-06 14:00,ZBYN 061400Z AUTO 08012KT 22/16 A2994 RMK T02200160 IEM_DS3505
ZBYN,1999-06-06 15:00,ZBYN 061500Z AUTO 09006KT 6SM 22/14 A2997 RMK SLP131 T02190136 52031 IEM_DS3505
ZBYN,1999-06-06 16:00,ZBYN 061600Z AUTO 09008KT 6SM 20/15 A3000 RMK T02000150 IEM_DS3505
ZBYN,1999-06-06 17:00,ZBYN 061700Z AUTO 07006KT 6SM 20/16 A3000 RMK T02000160 IEM_DS3505
ZBYN,1999-06-06 18:00,ZBYN 061800Z AUTO 14006KT 6SM 20/14 RMK SLP138 T02000136 52013 IEM_DS3505
ZBYN,1999-06-06 19:00,ZBYN 061900Z AUTO 09010KT 6SM 19/16 A3000 RMK T01900160 IEM_DS3505
ZBYN,1999-06-06 20:00,ZBYN 062000Z AUTO 10006KT 6SM 19/16 A3003 RMK T01900160 IEM_DS3505
ZBYN,1999-06-06 21:00,ZBYN 062100Z AUTO 00000KT 6SM 18/14 A3003 RMK SLP146 T01800140 52003 IEM_DS3505
ZBYN,1999-06-06 22:00,ZBYN 062200Z AUTO 10002KT 1 1/2SM 17/16 A3003 RMK T01700160 IEM_DS3505
ZBYN,1999-06-06 23:00,ZBYN 062300Z AUTO 10004KT 4SM 19/16 A3006 RMK T01900160 IEM_DS3505
ZBYN,1999-06-07 00:00,ZBYN 070000Z AUTO 00000KT 4SM 21/15 A3006 RMK SLP156 T02110151 52011 IEM_DS3505
ZBYN,1999-06-07 01:00,ZBYN 070100Z AUTO 07008KT 6SM 23/15 A3003 RMK T02300150 IEM_DS3505
ZBYN,1999-06-07 02:00,ZBYN 070200Z AUTO 09008KT 6SM 25/14 A3003 RMK T02500140 IEM_DS3505
ZBYN,1999-06-07 03:00,ZBYN 070300Z AUTO 00000KT 6SM 26/13 A3000 RMK SLP144 T02610133 57009 IEM_DS3505
ZBYN,1999-06-07 04:00,ZBYN 070400Z AUTO 16004KT 6SM 27/13 A3000 RMK T02700130 IEM_DS3505
ZBYN,1999-06-07 05:00,ZBYN 070500Z AUTO 27006KT 7SM 29/10 A2997 RMK SLP091 T02900101 57019 IEM_DS3505
ZBYN,1999-06-07 06:00,ZBYN 070600Z AUTO 20004KT 9SM 29/11 A2991 RMK SLP109 T02900113 57030 IEM_DS3505
ZBYN,1999-06-07 07:00,ZBYN 070700Z AUTO 29004KT 7SM 31/12 A2988 RMK T03100120 IEM_DS3505
ZBYN,1999-06-07 08:00,ZBYN 070800Z AUTO 30002KT 7SM 30/11 A2985 RMK T03000110 IEM_DS3505
ZBYN,1999-06-07 09:00,ZBYN 070900Z AUTO 27006KT 7SM 29/10 A2985 RMK SLP091 T02900101 57019 IEM_DS3505
ZBYN,1999-06-07 10:00,ZBYN 071000Z AUTO 00000KT 7SM 28/11 A2985 RMK T02800110 IEM_DS3505
ZBYN,1999-06-07 11:00,ZBYN 071100Z AUTO 06004KT 7SM 28/11 A2988 RMK T02800110 IEM_DS3505
ZBYN,1999-06-07 12:00,ZBYN 071200Z AUTO 07010KT 6SM 27/10 A2988 RMK SLP095 T02740101 52005 IEM_DS3505
ZBYN,1999-06-07 13:00,ZBYN 071300Z AUTO 12008KT 7SM 26/12 A2991 RMK T02600120 IEM_DS3505
ZBYN,1999-06-07 14:00,ZBYN 071400Z AUTO 13008KT 6SM 26/12 A2991 RMK T02600120 IEM_DS3505
ZBYN,1999-06-07 15:00,ZBYN 071500Z AUTO 00000KT 6SM 25/12 A2991 RMK SLP102 T02510118 52010 IEM_DS3505
ZBYN,1999-06-07 16:00,ZBYN 071600Z AUTO 16002KT 6SM 24/13 A2994 RMK T02400130 IEM_DS3505
ZBYN,1999-06-07 17:00,ZBYN 071700Z AUTO 15002KT 6SM 23/14 A2994 RMK T02300140 IEM_DS3505
ZBYN,1999-06-07 18:00,ZBYN 071800Z AUTO 20008KT 6SM 22/15 A2994 RMK SLP102 T02240153 52001 IEM_DS3505
ZBYN,1999-06-07 19:00,ZBYN 071900Z AUTO 20004KT 6SM 22/17 A2994 RMK T02200170 IEM_DS3505
ZBYN,1999-06-07 20:00,ZBYN 072000Z AUTO 21004KT 6SM 22/16 A2994 RMK T02200160 IEM_DS3505
ZBYN,1999-06-07 21:00,ZBYN 072100Z AUTO 20010KT 5SM 21/15 A2994 RMK SLP106 T02100152 52001 IEM_DS3505
ZBYN,1999-06-07 22:00,ZBYN 072200Z AUTO 20004KT 4SM 21/17 A2994 RMK T02100170 IEM_DS3505
ZBYN,1999-06-07 23:00,ZBYN 072300Z AUTO 20002KT 2 1/2SM 21/18 A2994 RMK T02100180 IEM_DS3505
ZBYN,1999-06-08 00:00,ZBYN 080000Z AUTO 16004KT 4SM 21/16 A2997 RMK SLP121 T02060163 52011 IEM_DS3505
ZBYN,1999-06-08 01:00,ZBYN 080100Z AUTO 20002KT 2SM 21/18 A2997 RMK T02100180 IEM_DS3505
ZBYN,1999-06-08 02:00,ZBYN 080200Z AUTO 17004KT 2 1/2SM 23/18 A2994 RMK T02300180 IEM_DS3505
ZBYN,1999-06-08 03:00,ZBYN 080300Z AUTO 18006KT 5SM 25/17 A2994 RMK SLP110 T02510167 57007 IEM_DS3505
ZBYN,1999-06-08 04:00,ZBYN 080400Z AUTO 21004KT 5SM 27/17 A2991 RMK T02700170 IEM_DS3505
ZBYN,1999-06-08 05:00,ZBYN 080500Z AUTO 00000KT 6SM 29/16 A2985 RMK T02900160 IEM_DS3505
ZBYN,1999-06-08 06:00,ZBYN 080600Z AUTO 22008KT 4SM 29/15 A2985 RMK SLP079 T02920146 57026 IEM_DS3505
ZBYN,1999-06-08 07:00,ZBYN 080700Z AUTO 25012KT 7SM 30/16 A2983 RMK T03000160 IEM_DS3505
ZBYN,1999-06-08 09:00,ZBYN 080900Z AUTO 18002KT 6SM 29/10 RMK SLP066 T02910095 57014 IEM_DS3505
ZBYN,1999-06-08 10:00,ZBYN 081000Z AUTO 00000KT 7SM 28/16 A2980 RMK T02800160 IEM_DS3505
ZBYN,1999-06-08 12:00,ZBYN 081200Z AUTO 32004KT 6SM 26/11 RMK SLP078 T02650106 52007 IEM_DS3505
ZBYN,1999-06-08 13:00,ZBYN 081300Z AUTO 21002KT 6SM 24/14 A2985 RMK T02400140 IEM_DS3505
ZBYN,1999-06-08 22:00,ZBYN 082200Z AUTO 03002KT 2SM 19/16 A2988 RMK T01900160 IEM_DS3505
ZBYN,1999-06-08 23:00,ZBYN 082300Z AUTO 11002KT 2SM 20/17 A2988 RMK T02000170 IEM_DS3505
ZBYN,1999-06-09 00:00,ZBYN 090000Z AUTO 14004KT 4SM 21/16 A2991 RMK SLP102 T02130155 52011 IEM_DS3505
ZBYN,1999-06-09 01:00,ZBYN 090100Z AUTO 19002KT 2 1/2SM 23/16 A2991 RMK T02300160 IEM_DS3505
ZBYN,1999-06-09 02:00,ZBYN 090200Z AUTO 22002KT 3SM 24/17 A2988 RMK T02400170 IEM_DS3505
ZBYN,1999-06-09 03:00,ZBYN 090300Z AUTO 20004KT 27/17 A2988 RMK T02700170 IEM_DS3505
ZBYN,1999-06-09 04:00,ZBYN 090400Z AUTO 17002KT 5SM 28/15 A2985 RMK T02800150 IEM_DS3505
ZBYN,1999-06-09 05:00,ZBYN 090500Z AUTO 19002KT 5SM 30/15 A2983 RMK T03000150 IEM_DS3505
ZBYN,1999-06-09 06:00,ZBYN 090600Z AUTO 20006KT 5SM 30/13 A2980 RMK SLP064 T03040131 57029 IEM_DS3505
ZBYN,1999-06-09 07:00,ZBYN 090700Z AUTO 25008KT 7SM 31/16 A2977 RMK T03100160 IEM_DS3505
ZBYN,1999-06-09 08:00,ZBYN 090800Z AUTO 34016KT 31/14 A2977 RMK T03100140 IEM_DS3505
ZBYN,1999-06-09 09:00,ZBYN 090900Z AUTO 29012KT 6SM 25/11 A2980 RMK SLP069 T02540109 57004 IEM_DS3505
ZBYN,1999-06-09 10:00,ZBYN 091000Z AUTO 13006KT 6SM 28/12 A2977 RMK T02800120 IEM_DS3505
ZBYN,1999-06-09 11:00,ZBYN 091100Z AUTO 11002KT 6SM 27/13 A2977 RMK T02700130 IEM_DS3505
ZBYN,1999-06-09 12:00,ZBYN 091200Z AUTO 00000KT 6SM 24/14 A2980 RMK SLP072 T02370139 52005 IEM_DS3505
ZBYN,1999-06-09 13:00,ZBYN 091300Z AUTO 03006KT 6SM 25/13 A2985 RMK T02500130 IEM_DS3505
ZBYN,1999-06-09 14:00,ZBYN 091400Z AUTO 08016KT 6SM 23/13 A2991 RMK T02300130 IEM_DS3505
ZBYN,1999-06-09 15:00,ZBYN 091500Z AUTO 14010KT 6SM 23/11 A2985 RMK SLP084 T02260106 52018 IEM_DS3505
ZBYN,1999-06-09 16:00,ZBYN 091600Z AUTO 07006KT 6SM 22/13 A2985 RMK T02200130 IEM_DS3505
ZBYN,1999-06-09 18:00,ZBYN 091800Z AUTO 34002KT 6SM 20/12 A2983 RMK SLP073 T02000123 57009 IEM_DS3505
ZBYN,1999-06-09 19:00,ZBYN 091900Z AUTO 00000KT 6SM 18/13 A2983 RMK T01800130 IEM_DS3505
ZBYN,1999-06-09 21:00,ZBYN 092100Z AUTO 00000KT 5SM 17/13 A2983 RMK SLP082 T01720127 57003 IEM_DS3505
ZBYN,1999-06-09 22:00,ZBYN 092200Z AUTO 00000KT 6SM 17/13 A2983 RMK T01700130 IEM_DS3505
ZBYN,1999-06-10 00:00,ZBYN 100000Z AUTO 00000KT 5SM 21/14 A2985 RMK SLP088 T02060143 52008 IEM_DS3505
ZBYN,1999-06-10 01:00,ZBYN 100100Z AUTO 00000KT 4SM 23/14 A2985 RMK T02300140 IEM_DS3505
ZBYN,1999-06-10 02:00,ZBYN 100200Z AUTO 00000KT 25/15 A2983 RMK T02500150 IEM_DS3505
ZBYN,1999-06-10 03:00,ZBYN 100300Z AUTO 20002KT 4SM 27/13 A2983 RMK SLP072 T02690132 57007 IEM_DS3505
ZBYN,1999-06-10 04:00,ZBYN 100400Z AUTO 08004KT 29/14 A2980 RMK T02900140 IEM_DS3505
ZBYN,1999-06-10 05:00,ZBYN 100500Z AUTO 12002KT 7SM 31/13 A2977 RMK T03100130 IEM_DS3505
ZBYN,1999-06-10 06:00,ZBYN 100600Z AUTO 25004KT 5SM 32/11 A2971 RMK SLP044 T03190106 57023 IEM_DS3505
ZBYN,1999-06-10 07:00,ZBYN 100700Z AUTO 11002KT 7SM 35/09 A2968 RMK T03500090 IEM_DS3505
ZBYN,1999-06-10 08:00,ZBYN 100800Z AUTO 35014KT 7SM 33/08 A2968 RMK T03300080 IEM_DS3505
ZBYN,1999-06-10 09:00,ZBYN 100900Z AUTO 11010KT 9SM 32/06 A2971 RMK SLP031 T03230061 57015 IEM_DS3505
ZBYN,1999-06-10 10:00,ZBYN 101000Z AUTO 16010KT 6SM 30/12 A2971 RMK T03000120 IEM_DS3505
ZBYN,1999-06-10 11:00,ZBYN 101100Z AUTO 15004KT 6SM 28/12 A2974 RMK T02800120 IEM_DS3505
ZBYN,1999-06-10 12:00,ZBYN 101200Z AUTO 16006KT 9SM 25/11 A2977 RMK SLP055 T02490113 52017 IEM_DS3505
ZBYN,1999-06-10 13:00,ZBYN 101300Z AUTO 15002KT 6SM 25/11 A2980 RMK T02500110 IEM_DS3505
ZBYN,1999-06-10 14:00,ZBYN 101400Z AUTO 13004KT 6SM 23/12 A2980 RMK T02300120 IEM_DS3505
ZBYN,1999-06-10 15:00,ZBYN 101500Z AUTO 11006KT 7SM 21/12 A2983 RMK SLP067 T02120116 52014 IEM_DS3505
ZBYN,1999-06-10 16:00,ZBYN 101600Z AUTO 09002KT 6SM 22/12 A2983 RMK T02200120 IEM_DS3505
ZBYN,1999-06-10 17:00,ZBYN 101700Z AUTO 11002KT 6SM 19/12 A2983 RMK T01900120 IEM_DS3505
ZBYN,1999-06-10 18:00,ZBYN 101800Z AUTO 00000KT 6SM 19/12 A2980 RMK SLP059 T01900121 57003 IEM_DS3505
ZBYN,1999-06-10 19:00,ZBYN 101900Z AUTO 13002KT 6SM 18/12 A2980 RMK T01800120 IEM_DS3505
ZBYN,1999-06-10 20:00,ZBYN 102000Z AUTO 00000KT 6SM 18/12 A2980 RMK T01800120 IEM_DS3505
ZBYN,1999-06-10 21:00,ZBYN 102100Z AUTO 00000KT 5SM 17/12 A2980 RMK SLP060 T01680115 57002 IEM_DS3505
ZBYN,1999-06-10 22:00,ZBYN 102200Z AUTO 12002KT 6SM 17/13 A2980 RMK T01700130 IEM_DS3505
ZBYN,1999-06-10 23:00,ZBYN 102300Z AUTO 00000KT 6SM 19/13 A2983 RMK T01900130 IEM_DS3505
ZBYN,1999-06-11 00:00,ZBYN 110000Z AUTO 00000KT 5SM 22/13 A2983 RMK SLP077 T02200130 52013 IEM_DS3505
ZBYN,1999-06-11 01:00,ZBYN 110100Z AUTO 13002KT 6SM 24/13 A2983 RMK T02400130 IEM_DS3505
ZBYN,1999-06-11 02:00,ZBYN 110200Z AUTO 14002KT 6SM 26/14 A2983 RMK T02600140 IEM_DS3505
ZBYN,1999-06-11 03:00,ZBYN 110300Z AUTO 20006KT 6SM 28/13 A2980 RMK SLP068 T02820128 57005 IEM_DS3505
ZBYN,1999-06-11 04:00,ZBYN 110400Z AUTO 00000KT 6SM 31/14 A2977 RMK T03100140 IEM_DS3505
ZBYN,1999-06-11 05:00,ZBYN 110500Z AUTO 29004KT 6SM 32/13 A2974 RMK T03200130 IEM_DS3505
ZBYN,1999-06-11 06:00,ZBYN 110600Z AUTO 16006KT 6SM 33/11 A2971 RMK SLP041 T03300114 57021 IEM_DS3505
ZBYN,1999-06-11 07:00,ZBYN 110700Z AUTO 20006KT 7SM 34/09 A2971 RMK T03400090 IEM_DS3505
ZBYN,1999-06-11 08:00,ZBYN 110800Z AUTO 23004KT 6SM 34/07 A2968 RMK T03400070 IEM_DS3505
ZBYN,1999-06-11 09:00,ZBYN 110900Z AUTO 20006KT 9SM 33/06 A2965 RMK SLP024 T03310064 57019 IEM_DS3505
ZBYN,1999-06-11 10:00,ZBYN 111000Z AUTO 26004KT 7SM 34/09 A2965 RMK T03400090 IEM_DS3505
ZBYN,1999-06-11 11:00,ZBYN 111100Z AUTO 05002KT 7SM 32/11 A2968 RMK T03200110 IEM_DS3505
ZBYN,1999-06-11 12:00,ZBYN 111200Z AUTO 14012KT 6SM 30/10 A2968 RMK SLP022 T02950100 52001 IEM_DS3505
ZBYN,1999-06-11 13:00,ZBYN 111300Z AUTO 11004KT 6SM 26/13 A2974 RMK T02600130 IEM_DS3505
ZBYN,1999-06-11 14:00,ZBYN 111400Z AUTO 12004KT 6SM 25/12 A2977 RMK T02500120 IEM_DS3505
ZBYN,1999-06-11 15:00,ZBYN 111500Z AUTO 11006KT 6SM 24/11 A2977 RMK SLP041 T02400110 52018 IEM_DS3505
ZBYN,1999-06-11 16:00,ZBYN 111600Z AUTO 10004KT 6SM 24/13 A2977 RMK T02400130 IEM_DS3505
ZBYN,1999-06-11 17:00,ZBYN 111700Z AUTO 12002KT 6SM 21/12 A2974 RMK T02100120 IEM_DS3505
ZBYN,1999-06-11 18:00,ZBYN 111800Z AUTO 11006KT 6SM 22/11 RMK SLP036 T02160112 57001 IEM_DS3505
ZBYN,1999-06-11 19:00,ZBYN 111900Z AUTO 13002KT 6SM 19/12 A2974 RMK T01900120 IEM_DS3505
ZBYN,1999-06-11 20:00,ZBYN 112000Z AUTO 12004KT 6SM 18/13 A2974 RMK T01800130 IEM_DS3505
ZBYN,1999-06-11 21:00,ZBYN 112100Z AUTO 16002KT 6SM 19/11 A2974 RMK SLP047 T01860114 52006 IEM_DS3505
ZBYN,1999-06-11 22:00,ZBYN 112200Z AUTO 12002KT 3SM 17/12 A2977 RMK T01700120 IEM_DS3505
ZBYN,1999-06-11 23:00,ZBYN 112300Z AUTO 00000KT 6SM 20/12 A2980 RMK T02000120 IEM_DS3505
ZBYN,1999-06-12 00:00,ZBYN 120000Z AUTO 00000KT 5SM 22/15 A2980 RMK SLP062 T02210146 52013 IEM_DS3505
ZBYN,1999-06-12 01:00,ZBYN 120100Z AUTO 00000KT 2 1/2SM 24/11 A2980 RMK T02400110 IEM_DS3505
ZBYN,1999-06-12 02:00,ZBYN 120200Z AUTO 12002KT 3SM 27/12 A2977 RMK T02700120 IEM_DS3505
ZBYN,1999-06-12 03:00,ZBYN 120300Z AUTO 14002KT 4SM 29/10 A2977 RMK SLP051 T02900104 57008 IEM_DS3505
ZBYN,1999-06-12 04:00,ZBYN 120400Z AUTO 00000KT 5SM 31/11 A2974 RMK T03100110 IEM_DS3505
ZBYN,1999-06-12 05:00,ZBYN 120500Z AUTO 27004KT 5SM 32/12 A2971 RMK T03200120 IEM_DS3505
ZBYN,1999-06-12 06:00,ZBYN 120600Z AUTO 25008KT 5SM 33/08 A2968 RMK SLP022 T03330085 57024 IEM_DS3505
ZBYN,1999-06-12 07:00,ZBYN 120700Z AUTO 16004KT 5SM 35/11 A2965 RMK T03500110 IEM_DS3505
ZBYN,1999-06-12 08:00,ZBYN 120800Z AUTO 19004KT 5SM 35/09 A2965 RMK T03500090 IEM_DS3505
ZBYN,1999-06-12 09:00,ZBYN 120900Z AUTO 18010KT 6SM 34/07 A2962 RMK SLP001 T03390068 57022 IEM_DS3505
ZBYN,1999-06-12 10:00,ZBYN 121000Z AUTO 10008KT 34/14 A2962 RMK T03400140 IEM_DS3505
ZBYN,1999-06-12 11:00,ZBYN 121100Z AUTO 09014KT 31/13 A2965 RMK T03100130 IEM_DS3505
ZBYN,1999-06-12 12:00,ZBYN 121200Z AUTO 07014KT 6SM 29/09 A2968 RMK SLP026 T02930091 52021 IEM_DS3505
ZBYN,1999-06-12 13:00,ZBYN 121300Z AUTO 08014KT 6SM 28/12 A2971 RMK T02800120 IEM_DS3505
ZBYN,1999-06-12 14:00,ZBYN 121400Z AUTO 08014KT 6SM 26/11 A2974 RMK T02600110 IEM_DS3505
ZBYN,1999-06-12 15:00,ZBYN 121500Z AUTO 07006KT 6SM 25/10 A2974 RMK SLP038 T02530103 52015 IEM_DS3505
ZBYN,1999-06-12 16:00,ZBYN 121600Z AUTO 10008KT 6SM 24/12 A2977 RMK T02400120 IEM_DS3505
ZBYN,1999-06-12 17:00,ZBYN 121700Z AUTO 10008KT 6SM 23/13 A2977 RMK T02300130 IEM_DS3505
ZBYN,1999-06-12 18:00,ZBYN 121800Z AUTO 11008KT 6SM 22/11 RMK SLP049 T02240110 52012 IEM_DS3505
ZBYN,1999-06-12 19:00,ZBYN 121900Z AUTO 14004KT 6SM 19/13 A2977 RMK T01900130 IEM_DS3505
ZBYN,1999-06-12 20:00,ZBYN 122000Z AUTO 00000KT 4SM 20/15 A2980 RMK T02000150 IEM_DS3505
ZBYN,1999-06-12 21:00,ZBYN 122100Z AUTO 14004KT 6SM 18/13 RMK SLP053 T01760130 57002 IEM_DS3505
ZBYN,1999-06-12 22:00,ZBYN 122200Z AUTO 09006KT 2 1/2SM 20/16 A2977 RMK T02000160 IEM_DS3505
ZBYN,1999-06-12 23:00,ZBYN 122300Z AUTO 10004KT 2 1/2SM 21/16 A2977 RMK T02100160 IEM_DS3505
ZBYN,1999-06-13 00:00,ZBYN 130000Z AUTO 14004KT 4SM 22/15 A2977 RMK SLP052 T02230150 57001 IEM_DS3505
ZBYN,1999-06-13 01:00,ZBYN 130100Z AUTO 15004KT 24/17 A2977 RMK T02400170 IEM_DS3505
ZBYN,1999-06-13 02:00,ZBYN 130200Z AUTO 14004KT 5SM 26/16 A2974 RMK T02600160 IEM_DS3505
ZBYN,1999-06-13 03:00,ZBYN 130300Z AUTO 16006KT 4SM 27/15 A2971 RMK SLP033 T02730151 57016 IEM_DS3505
ZBYN,1999-06-13 04:00,ZBYN 130400Z AUTO 14006KT 6SM 29/15 A2971 RMK T02900150 IEM_DS3505
ZBYN,1999-06-13 05:00,ZBYN 130500Z AUTO 17002KT 6SM 30/16 A2968 RMK T03000160 IEM_DS3505
ZBYN,1999-06-13 06:00,ZBYN 130600Z AUTO 16006KT 5SM 31/16 A2962 RMK SLP006 T03090165 57024 IEM_DS3505
ZBYN,1999-06-13 07:00,ZBYN 130700Z AUTO 25004KT 6SM 33/17 A2962 RMK T03300170 IEM_DS3505
ZBYN,1999-06-13 08:00,ZBYN 130800Z AUTO 21004KT 6SM 33/17 A2959 RMK T03300170 IEM_DS3505
ZBYN,1999-06-13 09:00,ZBYN 130900Z AUTO 22006KT 6SM 32/15 A2956 RMK SLP985 T03170154 57024 IEM_DS3505
ZBYN,1999-06-13 10:00,ZBYN 131000Z AUTO 26002KT 6SM 32/17 A2956 RMK T03200170 IEM_DS3505
ZBYN,1999-06-13 11:00,ZBYN 131100Z AUTO 14004KT 6SM 31/17 A2956 RMK T03100170 IEM_DS3505
ZBYN,1999-06-13 12:00,ZBYN 131200Z AUTO 14006KT 6SM 30/14 A2956 RMK SLP984 T02950145 52002 IEM_DS3505
ZBYN,1999-06-13 13:00,ZBYN 131300Z AUTO 14006KT 6SM 29/14 A2959 RMK T02900140 IEM_DS3505
ZBYN,1999-06-13 14:00,ZBYN 131400Z AUTO 10008KT 6SM 28/16 A2962 RMK T02800160 IEM_DS3505
ZBYN,1999-06-13 15:00,ZBYN 131500Z AUTO 09008KT 6SM 27/15 A2965 RMK SLP003 T02720146 52021 IEM_DS3505
ZBYN,1999-06-13 16:00,ZBYN 131600Z AUTO 15006KT 6SM 26/17 A2965 RMK T02600170 IEM_DS3505
ZBYN,1999-06-13 17:00,ZBYN 131700Z AUTO 14006KT 6SM 25/17 A2965 RMK T02500170 IEM_DS3505
ZBYN,1999-06-13 18:00,ZBYN 131800Z AUTO 14008KT 6SM 24/16 A2962 RMK SLP997 T02430156 57004 IEM_DS3505
ZBYN,1999-06-13 19:00,ZBYN 131900Z AUTO 16002KT 7SM 24/18 A2962 RMK T02400180 IEM_DS3505
ZBYN,1999-06-13 20:00,ZBYN 132000Z AUTO 16002KT 6SM 24/18 A2962 RMK T02400180 IEM_DS3505
ZBYN,1999-06-13 21:00,ZBYN 132100Z AUTO 16006KT 6SM 23/16 A2962 RMK SLP992 T02290165 57006 IEM_DS3505
ZBYN,1999-06-13 22:00,ZBYN 132200Z AUTO 14002KT 6SM 23/19 A2959 RMK T02300190 IEM_DS3505
ZBYN,1999-06-13 23:00,ZBYN 132300Z AUTO 12004KT 5SM 24/19 A2962 RMK T02400190 IEM_DS3505
ZBYN,1999-06-14 00:00,ZBYN 140000Z AUTO 16012KT 6SM 25/17 A2962 RMK SLP990 T02490174 57002 IEM_DS3505
ZBYN,1999-06-14 01:00,ZBYN 140100Z AUTO 21006KT 5SM 26/19 A2959 RMK T02600190 IEM_DS3505
ZBYN,1999-06-14 02:00,ZBYN 140200Z AUTO 21008KT 5SM 27/20 A2962 RMK T02700200 IEM_DS3505
ZBYN,1999-06-14 03:00,ZBYN 140300Z AUTO 18006KT 2 1/2SM 27/18 A2962 RMK SLP990 T02660181 57001 IEM_DS3505
ZBYN,1999-06-14 04:00,ZBYN 140400Z AUTO 22004KT 6SM 28/20 A2962 RMK T02800200 IEM_DS3505
ZBYN,1999-06-14 05:00,ZBYN 140500Z AUTO 28002KT 5SM 28/20 A2962 RMK T02800200 IEM_DS3505
ZBYN,1999-06-14 06:00,ZBYN 140600Z AUTO 34004KT 2 1/2SM 29/19 A2962 RMK SLP998 T02940189 52005 IEM_DS3505
ZBYN,1999-06-14 07:00,ZBYN 140700Z AUTO 33010KT 3SM 26/22 A2962 RMK T02600220 IEM_DS3505
ZBYN,1999-06-14 08:00,ZBYN 140800Z AUTO 36008KT 3SM 22/21 A2968 RMK T02200210 IEM_DS3505
ZBYN,1999-06-14 09:00,ZBYN 140900Z AUTO 36006KT 2 1/2SM 21/18 A2968 RMK SLP035 T02100179 52023 IEM_DS3505
ZBYN,1999-06-14 10:00,ZBYN 141000Z AUTO 34012KT 7SM 21/20 A2971 RMK T02100200 IEM_DS3505
ZBYN,1999-06-14 11:00,ZBYN 141100Z AUTO 35008KT 7SM 20/20 A2971 RMK T02000200 IEM_DS3505
ZBYN,1999-06-14 12:00,ZBYN 141200Z AUTO 32006KT 5SM 19/18 RMK SLP050 T01910182 52014 IEM_DS3505
ZBYN,1999-06-14 15:00,ZBYN 141500Z AUTO 00000KT 4SM 19/18 RMK SLP067 T01920184 52018 IEM_DS3505
ZBYN,1999-06-14 18:00,ZBYN 141800Z AUTO 27002KT 4SM 19/18 RMK SLP063 T01880180 57003 IEM_DS3505
ZBYN,1999-06-14 21:00,ZBYN 142100Z AUTO 32002KT 5SM 19/18 RMK SLP070 T01940183 57002 IEM_DS3505
ZBYN,1999-06-15 00:00,ZBYN 150000Z AUTO 34002KT 4SM 21/18 RMK SLP087 T02070182 52015 IEM_DS3505
ZBYN,1999-06-15 01:00,ZBYN 150100Z AUTO 08010KT 7SM 21/19 A2983 RMK T02100190 IEM_DS3505
ZBYN,1999-06-15 02:00,ZBYN 150200Z AUTO 08014KT 7SM 21/18 A2983 RMK T02100180 IEM_DS3505
ZBYN,1999-06-15 03:00,ZBYN 150300Z AUTO 08012KT 7SM 21/18 A2980 RMK T02100180 IEM_DS3505
ZBYN,1999-06-15 04:00,ZBYN 150400Z AUTO 09010KT 7SM 22/18 A2980 RMK T02200180 IEM_DS3505
ZBYN,1999-06-15 05:00,ZBYN 150500Z AUTO 08010KT 7SM 22/18 A2983 RMK T02200180 IEM_DS3505
ZBYN,1999-06-15 06:00,ZBYN 150600Z AUTO 11010KT 5SM 22/15 A2983 RMK SLP082 T02160153 57004 IEM_DS3505
ZBYN,1999-06-15 07:00,ZBYN 150700Z AUTO 10008KT 7SM 21/18 A2983 RMK T02100180 IEM_DS3505
ZBYN,1999-06-15 08:00,ZBYN 150800Z AUTO 09006KT 7SM 21/17 A2983 RMK T02100170 IEM_DS3505
ZBYN,1999-06-15 09:00,ZBYN 150900Z AUTO 09004KT 5SM 20/16 A2983 RMK SLP082 T02020157 57001 IEM_DS3505
ZBYN,1999-06-15 10:00,ZBYN 151000Z AUTO 09002KT 5SM 20/18 A2983 RMK T02000180 IEM_DS3505
ZBYN,1999-06-15 11:00,ZBYN 151100Z AUTO 09006KT 2 1/2SM 19/18 A2985 RMK T01900180 IEM_DS3505
ZBYN,1999-06-15 12:00,ZBYN 151200Z AUTO 00000KT 4SM 19/16 A2985 RMK SLP095 T01870165 52012 IEM_DS3505
ZBYN,1999-06-15 13:00,ZBYN 151300Z AUTO 02002KT 5SM 18/18 A2985 RMK T01800180 IEM_DS3505
ZBYN,1999-06-15 14:00,ZBYN 151400Z AUTO 00000KT 3SM 18/18 A2985 RMK T01800180 IEM_DS3505
ZBYN,1999-06-15 15:00,ZBYN 151500Z AUTO 00000KT 3SM 18/16 A2985 RMK SLP097 T01790165 52002 IEM_DS3505
ZBYN,1999-06-15 16:00,ZBYN 151600Z AUTO 00000KT 2 1/2SM 18/18 A2985 RMK T01800180 IEM_DS3505
ZBYN,1999-06-15 17:00,ZBYN 151700Z AUTO 00000KT 2 1/2SM 18/18 A2985 RMK T01800180 IEM_DS3505
ZBYN,1999-06-15 18:00,ZBYN 151800Z AUTO 00000KT 3SM 18/16 A2985 RMK SLP102 T01760165 52004 IEM_DS3505
ZBYN,1999-06-15 20:00,ZBYN 152000Z AUTO 00000KT 4SM 17/17 A2985 RMK T01700170 IEM_DS3505
ZBYN,1999-06-15 21:00,ZBYN 152100Z AUTO 00000KT 1 1/4SM 16/16 A2988 RMK SLP102 T01650157 57004 IEM_DS3505
ZBYN,1999-06-15 22:00,ZBYN 152200Z AUTO 12002KT 1SM 16/16 A2988 RMK T01600160 IEM_DS3505
ZBYN,1999-06-15 23:00,ZBYN 152300Z AUTO 07002KT 1 1/2SM 17/17 A2988 RMK T01700170 IEM_DS3505
ZBYN,1999-06-16 00:00,ZBYN 160000Z AUTO 00000KT 2SM 19/16 A2991 RMK SLP117 T01930159 52016 IEM_DS3505
ZBYN,1999-06-16 01:00,ZBYN 160100Z AUTO 12008KT 3SM 21/18 A2991 RMK T02100180 IEM_DS3505
ZBYN,1999-06-16 02:00,ZBYN 160200Z AUTO 10008KT 7SM 22/16 A2988 RMK T02200160 IEM_DS3505
ZBYN,1999-06-16 03:00,ZBYN 160300Z AUTO 07002KT 6SM 23/14 A2988 RMK SLP105 T02310143 57007 IEM_DS3505
ZBYN,1999-06-16 04:00,ZBYN 160400Z AUTO 10002KT 7SM 24/16 A2985 RMK T02400160 IEM_DS3505
ZBYN,1999-06-16 06:00,ZBYN 160600Z AUTO 14008KT 6SM 26/14 A2983 RMK SLP084 T02550136 57016 IEM_DS3505
ZBYN,1999-06-16 07:00,ZBYN 160700Z AUTO 00000KT 6SM 26/15 A2980 RMK T02600150 IEM_DS3505
ZBYN,1999-06-16 08:00,ZBYN 160800Z AUTO 23004KT 6SM 26/17 A2980 RMK T02600170 IEM_DS3505
ZBYN,1999-06-16 09:00,ZBYN 160900Z AUTO 36006KT 5SM 24/14 A2980 RMK SLP075 T02410144 57012 IEM_DS3505
ZBYN,1999-06-16 10:00,ZBYN 161000Z AUTO 35008KT 2 1/2SM 20/20 A2980 RMK T02000200 IEM_DS3505
ZBYN,1999-06-16 11:00,ZBYN 161100Z AUTO 03002KT 4SM 20/20 A2980 RMK T02000200 IEM_DS3505
ZBYN,1999-06-16 12:00,ZBYN 161200Z AUTO 00000KT 4SM 20/17 A2983 RMK SLP088 T02010173 52010 IEM_DS3505
ZBYN,1999-06-16 13:00,ZBYN 161300Z AUTO 28002KT 2 1/2SM 20/20 A2983 RMK T02000200 IEM_DS3505
ZBYN,1999-06-16 14:00,ZBYN 161400Z AUTO 00000KT 2 1/2SM 20/19 A2983 RMK T02000190 IEM_DS3505
ZBYN,1999-06-16 15:00,ZBYN 161500Z AUTO 00000KT 6SM 19/17 A2985 RMK SLP091 T01930174 52007 IEM_DS3505
ZBYN,1999-06-16 16:00,ZBYN 161600Z AUTO 00000KT 2 1/2SM 19/19 A2983 RMK T01900190 IEM_DS3505
ZBYN,1999-06-16 17:00,ZBYN 161700Z AUTO 13002KT 2 1/2SM 19/19 A2983 RMK T01900190 IEM_DS3505
ZBYN,1999-06-16 18:00,ZBYN 161800Z AUTO 00000KT 6SM 18/17 A2980 RMK SLP076 T01800167 57012 IEM_DS3505
ZBYN,1999-06-16 19:00,ZBYN 161900Z AUTO 00000KT 2 1/2SM 18/18 A2980 RMK T01800180 IEM_DS3505
ZBYN,1999-06-16 20:00,ZBYN 162000Z AUTO 15002KT 2 1/2SM 17/17 A2980 RMK T01700170 IEM_DS3505
ZBYN,1999-06-16 21:00,ZBYN 162100Z AUTO 00000KT 1 1/4SM 17/16 A2980 RMK SLP067 T01720164 57011 IEM_DS3505
ZBYN,1999-06-16 22:00,ZBYN 162200Z AUTO 13002KT 1SM 17/17 A2980 RMK T01700170 IEM_DS3505
ZBYN,1999-06-16 23:00,ZBYN 162300Z AUTO 00000KT 1SM 18/18 A2980 RMK T01800180 IEM_DS3505
ZBYN,1999-06-17 00:00,ZBYN 170000Z AUTO 00000KT 1 1/4SM 19/17 A2980 RMK SLP078 T01920170 52007 IEM_DS3505
ZBYN,1999-06-17 03:00,ZBYN 170300Z AUTO 20008KT 3SM 24/18 RMK SLP056 T02440176 57014 IEM_DS3505
ZBYN,1999-06-17 06:00,ZBYN 170600Z AUTO 16008KT 4SM 28/15 A2965 RMK SLP021 T02840152 57028 IEM_DS3505
ZBYN,1999-06-17 07:00,ZBYN 170700Z AUTO 21004KT 7SM 29/16 A2962 RMK T02900160 IEM_DS3505
ZBYN,1999-06-17 08:00,ZBYN 170800Z AUTO 07014KT 7SM A2968 RMK IEM_DS3505
ZBYN,1999-06-17 09:00,ZBYN 170900Z AUTO 11006KT 7SM 23/14 A2965 RMK SLP025 T02320135 57005 IEM_DS3505
ZBYN,1999-06-17 10:00,ZBYN 171000Z AUTO 25002KT 7SM 24/17 A2962 RMK T02400170 IEM_DS3505
ZBYN,1999-06-17 11:00,ZBYN 171100Z AUTO 30002KT 7SM 23/19 A2965 RMK T02300190 IEM_DS3505
ZBYN,1999-06-17 12:00,ZBYN 171200Z AUTO 36004KT 9SM 23/13 A2971 RMK SLP037 T02340127 52014 IEM_DS3505
ZBYN,1999-06-17 13:00,ZBYN 171300Z AUTO 08004KT 6SM 21/15 A2971 RMK T02100150 IEM_DS3505
ZBYN,1999-06-17 14:00,ZBYN 171400Z AUTO 10006KT 6SM 20/15 A2971 RMK T02000150 IEM_DS3505
ZBYN,1999-06-17 15:00,ZBYN 171500Z AUTO 00000KT 6SM 18/14 A2971 RMK SLP045 T01820135 52007 IEM_DS3505
ZBYN,1999-06-17 16:00,ZBYN 171600Z AUTO 04002KT 6SM 18/16 A2971 RMK T01800160 IEM_DS3505
ZBYN,1999-06-17 17:00,ZBYN 171700Z AUTO 11002KT 6SM 16/16 A2968 RMK T01600160 IEM_DS3505
ZBYN,1999-06-17 18:00,ZBYN 171800Z AUTO 00000KT 6SM 16/14 A2968 RMK SLP032 T01590139 57009 IEM_DS3505
ZBYN,1999-06-17 19:00,ZBYN 171900Z AUTO 00000KT 6SM 16/15 A2968 RMK T01600150 IEM_DS3505
ZBYN,1999-06-17 20:00,ZBYN 172000Z AUTO 04002KT 6SM 15/15 A2968 RMK T01500150 IEM_DS3505
ZBYN,1999-06-17 21:00,ZBYN 172100Z AUTO 00000KT 4SM 15/13 A2968 RMK SLP043 T01480131 52001 IEM_DS3505
ZBYN,1999-06-17 22:00,ZBYN 172200Z AUTO 00000KT 6SM 15/15 A2971 RMK T01500150 IEM_DS3505
ZBYN,1999-06-17 23:00,ZBYN 172300Z AUTO 00000KT 2 1/2SM 17/16 A2971 RMK T01700160 IEM_DS3505
ZBYN,1999-06-18 00:00,ZBYN 180000Z AUTO 02002KT 5SM 20/13 A2974 RMK SLP050 T02040126 52015 IEM_DS3505
ZBYN,1999-06-18 01:00,ZBYN 180100Z AUTO 32004KT 6SM 22/15 A2974 RMK T02200150 IEM_DS3505
ZBYN,1999-06-18 02:00,ZBYN 180200Z AUTO 34010KT 6SM 25/12 A2974 RMK T02500120 IEM_DS3505
ZBYN,1999-06-18 03:00,ZBYN 180300Z AUTO 36010KT 11SM 26/08 A2974 RMK SLP050 T02570075 54000 IEM_DS3505
ZBYN,1999-06-18 04:00,ZBYN 180400Z AUTO 35010KT 7SM 27/09 A2974 RMK T02700090 IEM_DS3505
ZBYN,1999-06-18 05:00,ZBYN 180500Z AUTO 01010KT 7SM 28/09 A2971 RMK T02800090 IEM_DS3505
ZBYN,1999-06-18 06:00,ZBYN 180600Z AUTO 02012KT 16SM 29/07 A2971 RMK SLP044 T02890068 57004 IEM_DS3505
ZBYN,1999-06-18 07:00,ZBYN 180700Z AUTO 05010KT 7SM 30/05 A2968 RMK T03000050 IEM_DS3505
ZBYN,1999-06-18 08:00,ZBYN 180800Z AUTO 35008KT 7SM 30/09 A2968 RMK T03000090 IEM_DS3505
ZBYN,1999-06-18 09:00,ZBYN 180900Z AUTO 07004KT 16SM 30/04 A2968 RMK SLP041 T02970041 57004 IEM_DS3505
ZBYN,1999-06-18 10:00,ZBYN 181000Z AUTO 08012KT 6SM 29/12 A2968 RMK T02900120 IEM_DS3505
ZBYN,1999-06-18 11:00,ZBYN 181100Z AUTO 08012KT 6SM 27/12 A2971 RMK T02700120 IEM_DS3505
ZBYN,1999-06-18 12:00,ZBYN 181200Z AUTO 09010KT 11SM 26/10 A2974 RMK SLP049 T02550099 52010 IEM_DS3505
ZBYN,1999-06-18 13:00,ZBYN 181300Z AUTO 08012KT 6SM 24/12 A2977 RMK T02400120 IEM_DS3505
ZBYN,1999-06-18 14:00,ZBYN 181400Z AUTO 08010KT 6SM 23/13 A2980 RMK T02300130 IEM_DS3505
ZBYN,1999-06-18 15:00,ZBYN 181500Z AUTO 09006KT 6SM 23/10 A2983 RMK SLP074 T02290099 52026 IEM_DS3505
ZBYN,1999-06-18 16:00,ZBYN 181600Z AUTO 08010KT 6SM 22/13 A2983 RMK T02200130 IEM_DS3505
ZBYN,1999-06-18 17:00,ZBYN 181700Z AUTO 08008KT 6SM 21/13 A2983 RMK T02100130 IEM_DS3505
ZBYN,1999-06-18 18:00,ZBYN 181800Z AUTO 02002KT 6SM 19/12 A2983 RMK SLP075 T01880119 IEM_DS3505
ZBYN,1999-06-18 19:00,ZBYN 181900Z AUTO 13002KT 6SM 18/14 A2980 RMK T01800140 IEM_DS3505
ZBYN,1999-06-18 20:00,ZBYN 182000Z AUTO 12002KT 6SM 16/14 A2980 RMK T01600140 IEM_DS3505
ZBYN,1999-06-18 21:00,ZBYN 182100Z AUTO 00000KT 5SM 16/12 A2983 RMK SLP077 T01600122 57001 IEM_DS3505
ZBYN,1999-06-18 22:00,ZBYN 182200Z AUTO 00000KT 4SM 16/14 A2983 RMK T01600140 IEM_DS3505
ZBYN,1999-06-18 23:00,ZBYN 182300Z AUTO 00000KT 4SM 18/15 A2983 RMK T01800150 IEM_DS3505
ZBYN,1999-06-19 00:00,ZBYN 190000Z AUTO 00000KT 5SM 20/13 A2983 RMK SLP082 T02040126 52005 IEM_DS3505
ZBYN,1999-06-19 01:00,ZBYN 190100Z AUTO 00000KT 6SM 23/14 A2983 RMK T02300140 IEM_DS3505
ZBYN,1999-06-19 02:00,ZBYN 190200Z AUTO 31002KT 6SM 24/14 A2983 RMK T02400140 IEM_DS3505
ZBYN,1999-06-19 03:00,ZBYN 190300Z AUTO 16004KT 6SM 26/11 A2980 RMK SLP065 T02650106 57011 IEM_DS3505
ZBYN,1999-06-19 04:00,ZBYN 190400Z AUTO 12002KT 6SM 27/14 A2980 RMK T02700140 IEM_DS3505
ZBYN,1999-06-19 05:00,ZBYN 190500Z AUTO 23002KT 6SM 28/14 A2977 RMK T02800140 IEM_DS3505
ZBYN,1999-06-19 06:00,ZBYN 190600Z AUTO 18006KT 6SM 30/10 A2974 RMK SLP048 T02950102 57017 IEM_DS3505
ZBYN,1999-06-19 07:00,ZBYN 190700Z AUTO 27002KT 6SM 30/11 A2974 RMK T03000110 IEM_DS3505
ZBYN,1999-06-19 08:00,ZBYN 190800Z AUTO 00000KT 6SM 30/11 A2971 RMK T03000110 IEM_DS3505
ZBYN,1999-06-19 09:00,ZBYN 190900Z AUTO 20006KT 6SM 30/11 A2968 RMK SLP034 T02950109 57017 IEM_DS3505
ZBYN,1999-06-19 10:00,ZBYN 191000Z AUTO 00000KT 7SM 29/13 A2971 RMK T02900130 IEM_DS3505
ZBYN,1999-06-19 11:00,ZBYN 191100Z AUTO 00000KT 6SM 28/15 A2971 RMK T02800150 IEM_DS3505
ZBYN,1999-06-19 12:00,ZBYN 191200Z AUTO 00000KT 6SM 26/15 A2971 RMK SLP032 T02610150 54000 IEM_DS3505
ZBYN,1999-06-19 13:00,ZBYN 191300Z AUTO 15002KT 7SM 26/17 A2971 RMK T02600170 IEM_DS3505
ZBYN,1999-06-19 14:00,ZBYN 191400Z AUTO 20004KT 7SM 25/15 A2974 RMK T02500150 IEM_DS3505
ZBYN,1999-06-19 15:00,ZBYN 191500Z AUTO 11004KT 6SM 22/14 A2974 RMK SLP042 T02210142 52012 IEM_DS3505
ZBYN,1999-06-19 16:00,ZBYN 191600Z AUTO 12002KT 7SM 21/17 A2974 RMK T02100170 IEM_DS3505
ZBYN,1999-06-19 17:00,ZBYN 191700Z AUTO 26002KT 6SM 21/15 A2974 RMK T02100150 IEM_DS3505
ZBYN,1999-06-19 18:00,ZBYN 191800Z AUTO 00000KT 6SM 20/14 A2974 RMK SLP039 T01950137 57002 IEM_DS3505
ZBYN,1999-06-19 19:00,ZBYN 191900Z AUTO 00000KT 6SM 19/16 A2971 RMK T01900160 IEM_DS3505
ZBYN,1999-06-19 21:00,ZBYN 192100Z AUTO 00000KT 6SM 18/13 A2971 RMK SLP043 T01750133 52001 IEM_DS3505
ZBYN,1999-06-19 22:00,ZBYN 192200Z AUTO 00000KT 6SM 18/17 A2974 RMK T01800170 IEM_DS3505
ZBYN,1999-06-19 23:00,ZBYN 192300Z AUTO 00000KT 4SM 20/18 A2974 RMK T02000180 IEM_DS3505
ZBYN,1999-06-20 00:00,ZBYN 200000Z AUTO 00000KT 5SM 22/15 A2974 RMK SLP039 T02150154 57003 IEM_DS3505
ZBYN,1999-06-20 01:00,ZBYN 200100Z AUTO 00000KT 4SM 23/18 A2971 RMK T02300180 IEM_DS3505
ZBYN,1999-06-20 02:00,ZBYN 200200Z AUTO 18002KT 5SM 24/18 A2971 RMK T02400180 IEM_DS3505
ZBYN,1999-06-20 03:00,ZBYN 200300Z AUTO 18008KT 5SM 26/14 A2968 RMK SLP027 T02610144 57010 IEM_DS3505
ZBYN,1999-06-20 04:00,ZBYN 200400Z AUTO 24004KT 6SM 26/18 A2971 RMK T02600180 IEM_DS3505
ZBYN,1999-06-20 05:00,ZBYN 200500Z AUTO 19004KT 7SM 26/16 A2968 RMK T02600160 IEM_DS3505
ZBYN,1999-06-20 06:00,ZBYN 200600Z AUTO 32006KT 5SM 22/16 A2971 RMK SLP039 T02220165 52002 IEM_DS3505
ZBYN,1999-06-20 08:00,ZBYN 200800Z AUTO 09014KT 7SM 22/19 A2971 RMK T02200190 IEM_DS3505
ZBYN,1999-06-20 09:00,ZBYN 200900Z AUTO 11016KT 5SM 22/14 A2971 RMK SLP042 T02170143 57001 IEM_DS3505
ZBYN,1999-06-20 10:00,ZBYN 201000Z AUTO 08010KT 6SM 22/18 A2968 RMK T02200180 IEM_DS3505
ZBYN,1999-06-20 11:00,ZBYN 201100Z AUTO 10008KT 6SM 22/17 A2968 RMK T02200170 IEM_DS3505
ZBYN,1999-06-20 12:00,ZBYN 201200Z AUTO 09010KT 6SM 21/14 RMK SLP040 T02080144 52002 IEM_DS3505
ZBYN,1999-06-20 13:00,ZBYN 201300Z AUTO 07012KT 5SM 19/17 A2971 RMK T01900170 IEM_DS3505
ZBYN,1999-06-20 14:00,ZBYN 201400Z AUTO 06008KT 5SM 19/16 A2971 RMK T01900160 IEM_DS3505
ZBYN,1999-06-20 15:00,ZBYN 201500Z AUTO 32002KT 6SM 19/15 A2974 RMK SLP046 T01900149 52010 IEM_DS3505
ZBYN,1999-06-20 16:00,ZBYN 201600Z AUTO 09006KT 5SM 18/16 A2974 RMK T01800160 IEM_DS3505
ZBYN,1999-06-20 17:00,ZBYN 201700Z AUTO 07006KT 5SM 18/16 A2974 RMK T01800160 IEM_DS3505
ZBYN,1999-06-20 18:00,ZBYN 201800Z AUTO 00000KT 6SM 16/14 A2974 RMK SLP059 T01590140 52002 IEM_DS3505
ZBYN,1999-06-20 19:00,ZBYN 201900Z AUTO 07002KT 4SM 17/16 A2974 RMK T01700160 IEM_DS3505
ZBYN,1999-06-20 20:00,ZBYN 202000Z AUTO 08002KT 4SM 17/16 A2974 RMK T01700160 IEM_DS3505
ZBYN,1999-06-20 21:00,ZBYN 202100Z AUTO 00000KT 4SM 16/14 A2971 RMK SLP054 T01610139 57005 IEM_DS3505
ZBYN,1999-06-20 22:00,ZBYN 202200Z AUTO 24002KT 1SM 16/16 A2971 RMK T01600160 IEM_DS3505
ZBYN,1999-06-21 00:00,ZBYN 210000Z AUTO 00000KT 4SM 20/14 A2974 RMK SLP050 T01960145 54000 IEM_DS3505
ZBYN,1999-06-21 01:00,ZBYN 210100Z AUTO 01002KT 2SM 20/18 A2971 RMK T02000180 IEM_DS3505
ZBYN,1999-06-21 02:00,ZBYN 210200Z AUTO 00000KT 3SM 22/18 A2971 RMK T02200180 IEM_DS3505
ZBYN,1999-06-21 03:00,ZBYN 210300Z AUTO 18004KT 3SM 24/16 A2971 RMK SLP041 T02450162 57004 IEM_DS3505
ZBYN,1999-06-21 04:00,ZBYN 210400Z AUTO 16004KT 26/19 A2968 RMK T02600190 IEM_DS3505
ZBYN,1999-06-21 05:00,ZBYN 210500Z AUTO 25004KT 28/19 A2965 RMK T02800190 IEM_DS3505
ZBYN,1999-06-21 06:00,ZBYN 210600Z AUTO 18010KT 4SM 28/17 A2962 RMK SLP014 T02850167 57023 IEM_DS3505
ZBYN,1999-06-21 07:00,ZBYN 210700Z AUTO 34010KT 7SM 30/14 A2959 RMK T03000140 IEM_DS3505
ZBYN,1999-06-21 08:00,ZBYN 210800Z AUTO 07010KT 7SM 27/11 A2959 RMK T02700110 IEM_DS3505
ZBYN,1999-06-21 09:00,ZBYN 210900Z AUTO 14010KT 7SM 29/10 A2956 RMK SLP999 T02890105 57013 IEM_DS3505
ZBYN,1999-06-21 10:00,ZBYN 211000Z AUTO 11010KT 7SM 29/11 A2956 RMK T02900110 IEM_DS3505
ZBYN,1999-06-21 11:00,ZBYN 211100Z AUTO 07017KT 24/17 A2959 RMK T02400170 IEM_DS3505
ZBYN,1999-06-21 12:00,ZBYN 211200Z AUTO 07010KT 6SM 23/15 A2962 RMK SLP009 T02290150 52005 IEM_DS3505
ZBYN,1999-06-21 13:00,ZBYN 211300Z AUTO 09016KT 4SM 21/18 A2965 RMK T02100180 IEM_DS3505
ZBYN,1999-06-21 14:00,ZBYN 211400Z AUTO 07014KT 4SM 21/18 A2968 RMK T02100180 IEM_DS3505
ZBYN,1999-06-21 15:00,ZBYN 211500Z AUTO 00000KT 6SM 20/15 RMK SLP033 T01960154 52025 IEM_DS3505
ZBYN,1999-06-21 18:00,ZBYN 211800Z AUTO 00000KT 6SM 19/16 A2971 RMK SLP028 T01880156 57001 IEM_DS3505
ZBYN,1999-06-21 19:00,ZBYN 211900Z AUTO 00000KT 4SM 18/17 A2971 RMK T01800170 IEM_DS3505
ZBYN,1999-06-21 20:00,ZBYN 212000Z AUTO 00000KT 4SM 19/17 A2971 RMK T01900170 IEM_DS3505
ZBYN,1999-06-21 21:00,ZBYN 212100Z AUTO 00000KT 5SM 19/15 A2971 RMK SLP039 T01870153 52011 IEM_DS3505
ZBYN,1999-06-21 22:00,ZBYN 212200Z AUTO 00000KT 3SM 19/18 A2971 RMK T01900180 IEM_DS3505
ZBYN,1999-06-21 23:00,ZBYN 212300Z AUTO 00000KT 1 1/4SM 19/18 A2971 RMK T01900180 IEM_DS3505
ZBYN,1999-06-22 00:00,ZBYN 220000Z AUTO 00000KT 5SM 21/15 A2974 RMK SLP051 T02060154 52005 IEM_DS3505
ZBYN,1999-06-22 01:00,ZBYN 220100Z AUTO 05002KT 2SM 22/18 A2971 RMK T02200180 IEM_DS3505
ZBYN,1999-06-22 02:00,ZBYN 220200Z AUTO 00000KT 3SM 23/18 A2971 RMK T02300180 IEM_DS3505
ZBYN,1999-06-22 03:00,ZBYN 220300Z AUTO 04002KT 4SM 25/12 A2971 RMK SLP036 T02500117 57012 IEM_DS3505
ZBYN,1999-06-22 04:00,ZBYN 220400Z AUTO 05002KT 6SM 25/14 A2968 RMK T02500140 IEM_DS3505
ZBYN,1999-06-22 05:00,ZBYN 220500Z AUTO 24002KT 6SM 26/12 A2968 RMK T02600120 IEM_DS3505
ZBYN,1999-06-22 06:00,ZBYN 220600Z AUTO 18004KT 4SM 26/12 A2968 RMK SLP026 T02650122 57008 IEM_DS3505
ZBYN,1999-06-22 08:00,ZBYN 220800Z AUTO 21004KT 6SM 27/15 A2965 RMK T02700150 IEM_DS3505
ZBYN,1999-06-22 09:00,ZBYN 220900Z AUTO 25002KT 5SM 25/15 A2965 RMK SLP020 T02520152 57008 IEM_DS3505
ZBYN,1999-06-22 10:00,ZBYN 221000Z AUTO 34004KT 2 1/2SM 25/17 A2965 RMK T02500170 IEM_DS3505
ZBYN,1999-06-22 11:00,ZBYN 221100Z AUTO 33008KT 6SM 25/07 A2968 RMK T02500070 IEM_DS3505
ZBYN,1999-06-22 12:00,ZBYN 221200Z AUTO 00000KT 9SM 23/06 A2971 RMK SLP035 T02340065 52014 IEM_DS3505
ZBYN,1999-06-22 13:00,ZBYN 221300Z AUTO 05002KT 6SM 24/07 A2974 RMK T02400070 IEM_DS3505
ZBYN,1999-06-22 14:00,ZBYN 221400Z AUTO 08002KT 6SM 22/ A2974 RMK IEM_DS3505
ZBYN,1999-06-22 15:00,ZBYN 221500Z AUTO 00000KT 6SM 22/07 A2977 RMK SLP047 T02170067 52015 IEM_DS3505
ZBYN,1999-06-22 16:00,ZBYN 221600Z AUTO 10002KT 4SM 21/17 A2974 RMK T02100170 IEM_DS3505
ZBYN,1999-06-22 17:00,ZBYN 221700Z AUTO 20002KT 6SM 20/12 A2974 RMK T02000120 IEM_DS3505
ZBYN,1999-06-22 18:00,ZBYN 221800Z AUTO 14002KT 6SM 17/10 A2974 RMK SLP051 T01720100 57001 IEM_DS3505
ZBYN,1999-06-22 21:00,ZBYN 222100Z AUTO 00000KT 6SM 15/11 A2974 RMK SLP059 T01500109 52003 IEM_DS3505
ZBYN,1999-06-22 22:00,ZBYN 222200Z AUTO 00000KT 4SM 14/13 A2974 RMK T01400130 IEM_DS3505
ZBYN,1999-06-23 00:00,ZBYN 230000Z AUTO 00000KT 6SM 21/09 A2977 RMK SLP060 T02110088 52007 IEM_DS3505
ZBYN,1999-06-23 01:00,ZBYN 230100Z AUTO 04002KT 5SM 21/11 A2974 RMK T02100110 IEM_DS3505
ZBYN,1999-06-23 02:00,ZBYN 230200Z AUTO 00000KT 7SM 23/11 A2974 RMK T02300110 IEM_DS3505
ZBYN,1999-06-23 03:00,ZBYN 230300Z AUTO 36006KT 9SM 26/07 A2974 RMK SLP041 T02620069 57013 IEM_DS3505
ZBYN,1999-06-23 04:00,ZBYN 230400Z AUTO 02002KT 7SM 27/09 A2968 RMK T02700090 IEM_DS3505
ZBYN,1999-06-23 05:00,ZBYN 230500Z AUTO 29010KT 7SM 29/08 A2968 RMK T02900080 IEM_DS3505
ZBYN,1999-06-23 06:00,ZBYN 230600Z AUTO 14004KT 12SM 29/06 A2965 RMK SLP016 T02880061 57025 IEM_DS3505
ZBYN,1999-06-23 07:00,ZBYN 230700Z AUTO 20004KT 7SM 29/09 A2962 RMK T02900090 IEM_DS3505
ZBYN,1999-06-23 08:00,ZBYN 230800Z AUTO 22006KT 7SM 29/10 A2965 RMK T02900100 IEM_DS3505
ZBYN,1999-06-23 09:00,ZBYN 230900Z AUTO 20012KT 9SM 28/10 A2962 RMK SLP013 T02830098 57007 IEM_DS3505
ZBYN,1999-06-23 10:00,ZBYN 231000Z AUTO 24002KT 7SM 28/11 A2962 RMK T02800110 IEM_DS3505
ZBYN,1999-06-23 11:00,ZBYN 231100Z AUTO 24002KT 7SM 27/12 A2962 RMK T02700120 IEM_DS3505
ZBYN,1999-06-23 12:00,ZBYN 231200Z AUTO 00000KT 6SM 24/12 A2965 RMK SLP014 T02420123 52004 IEM_DS3505
ZBYN,1999-06-23 13:00,ZBYN 231300Z AUTO 00000KT 3SM 23/12 A2965 RMK T02300120 IEM_DS3505
ZBYN,1999-06-23 15:00,ZBYN 231500Z AUTO 02002KT 6SM 23/12 A2968 RMK SLP026 T02320118 52016 IEM_DS3505
ZBYN,1999-06-23 16:00,ZBYN 231600Z AUTO 06004KT 7SM 23/14 A2971 RMK T02300140 IEM_DS3505
ZBYN,1999-06-23 17:00,ZBYN 231700Z AUTO 33002KT 7SM 22/14 A2971 RMK T02200140 IEM_DS3505
ZBYN,1999-06-23 18:00,ZBYN 231800Z AUTO 34002KT 6SM 21/09 A2971 RMK SLP031 T02080089 52005 IEM_DS3505
ZBYN,1999-06-23 19:00,ZBYN 231900Z AUTO 02002KT 6SM 20/15 A2971 RMK T02000150 IEM_DS3505
ZBYN,1999-06-23 20:00,ZBYN 232000Z AUTO 00000KT 6SM 19/15 A2971 RMK T01900150 IEM_DS3505
ZBYN,1999-06-23 21:00,ZBYN 232100Z AUTO 34004KT 7SM 18/ A2974 RMK SLP044 52008 IEM_DS3505
ZBYN,1999-06-23 22:00,ZBYN 232200Z AUTO 00000KT 6SM 17/16 A2974 RMK T01700160 IEM_DS3505
ZBYN,1999-06-23 23:00,ZBYN 232300Z AUTO 00000KT 5SM 19/16 A2977 RMK T01900160 IEM_DS3505
ZBYN,1999-06-24 00:00,ZBYN 240000Z AUTO 32002KT 6SM 21/09 RMK SLP062 T02100091 52015 IEM_DS3505
ZBYN,1999-06-24 01:00,ZBYN 240100Z AUTO 00000KT 22/16 A2977 RMK T02200160 IEM_DS3505
ZBYN,1999-06-24 02:00,ZBYN 240200Z AUTO 29002KT 5SM 24/16 A2977 RMK T02400160 IEM_DS3505
ZBYN,1999-06-24 03:00,ZBYN 240300Z AUTO 00000KT 6SM 28/ A2974 RMK SLP048 57004 IEM_DS3505
ZBYN,1999-06-24 04:00,ZBYN 240400Z AUTO 21006KT 6SM 28/11 A2971 RMK T02800110 IEM_DS3505
ZBYN,1999-06-24 05:00,ZBYN 240500Z AUTO 32004KT 6SM 29/07 A2971 RMK T02900070 IEM_DS3505
ZBYN,1999-06-24 06:00,ZBYN 240600Z AUTO 00000KT 12SM 30/00 RMK SLP026 T03000000 57021 IEM_DS3505
ZBYN,1999-06-24 07:00,ZBYN 240700Z AUTO 29002KT 6SM 31/03 A2965 RMK T03100030 IEM_DS3505
ZBYN,1999-06-24 08:00,ZBYN 240800Z AUTO 23002KT 6SM 31/03 A2965 RMK T03100030 IEM_DS3505
ZBYN,1999-06-24 09:00,ZBYN 240900Z AUTO 20008KT 16SM 30/05 A2962 RMK SLP015 T02960049 57014 IEM_DS3505
ZBYN,1999-06-24 10:00,ZBYN 241000Z AUTO 21002KT 6SM 30/06 A2962 RMK T03000060 IEM_DS3505
ZBYN,1999-06-24 12:00,ZBYN 241200Z AUTO 20002KT 7SM 25/09 A2965 RMK SLP018 T02510086 54000 IEM_DS3505
ZBYN,1999-06-24 13:00,ZBYN 241300Z AUTO 00000KT 7SM 25/08 A2965 RMK T02500080 IEM_DS3505
ZBYN,1999-06-24 14:00,ZBYN 241400Z AUTO 12004KT 6SM 20/10 A2968 RMK T02000100 IEM_DS3505
ZBYN,1999-06-24 15:00,ZBYN 241500Z AUTO 00000KT 6SM 19/08 A2968 RMK SLP027 T01890082 52008 IEM_DS3505
ZBYN,1999-06-24 16:00,ZBYN 241600Z AUTO 11002KT 7SM 19/08 A2968 RMK T01900080 IEM_DS3505
ZBYN,1999-06-24 17:00,ZBYN 241700Z AUTO 11004KT 6SM 18/09 A2968 RMK T01800090 IEM_DS3505
ZBYN,1999-06-24 18:00,ZBYN 241800Z AUTO 00000KT 6SM 17/09 RMK SLP028 T01720091 54000 IEM_DS3505
ZBYN,1999-06-24 19:00,ZBYN 241900Z AUTO 14002KT 6SM 18/11 A2968 RMK T01800110 IEM_DS3505
ZBYN,1999-06-24 20:00,ZBYN 242000Z AUTO 13004KT 6SM 17/11 A2968 RMK T01700110 IEM_DS3505
ZBYN,1999-06-24 21:00,ZBYN 242100Z AUTO 16002KT 6SM 16/11 A2971 RMK SLP031 T01640109 52001 IEM_DS3505
ZBYN,1999-06-24 22:00,ZBYN 242200Z AUTO 00000KT 6SM 17/12 A2971 RMK T01700120 IEM_DS3505
ZBYN,1999-06-24 23:00,ZBYN 242300Z AUTO 00000KT 6SM 19/13 A2971 RMK T01900130 IEM_DS3505
ZBYN,1999-06-25 00:00,ZBYN 250000Z AUTO 00000KT 4SM 22/12 A2971 RMK SLP039 T02200118 52009 IEM_DS3505
ZBYN,1999-06-25 01:00,ZBYN 250100Z AUTO 16002KT 6SM 24/15 A2971 RMK T02400150 IEM_DS3505
ZBYN,1999-06-25 02:00,ZBYN 250200Z AUTO 23004KT 6SM 25/15 A2971 RMK T02500150 IEM_DS3505
ZBYN,1999-06-25 03:00,ZBYN 250300Z AUTO 16006KT 4SM 28/12 A2968 RMK SLP033 T02790120 57006 IEM_DS3505
ZBYN,1999-06-25 05:00,ZBYN 250500Z AUTO 21004KT 6SM 32/09 A2965 RMK T03200090 IEM_DS3505
ZBYN,1999-06-25 06:00,ZBYN 250600Z AUTO 16006KT 9SM 33/07 A2962 RMK SLP009 T03260073 57018 IEM_DS3505
ZBYN,1999-06-25 07:00,ZBYN 250700Z AUTO 19004KT 6SM 33/09 A2962 RMK T03300090 IEM_DS3505
ZBYN,1999-06-25 08:00,ZBYN 250800Z AUTO 19004KT 6SM 33/10 A2962 RMK T03300100 IEM_DS3505
ZBYN,1999-06-25 09:00,ZBYN 250900Z AUTO 18006KT 9SM 32/07 A2959 RMK SLP997 T03220068 57012 IEM_DS3505
ZBYN,1999-06-25 10:00,ZBYN 251000Z AUTO 20002KT 6SM 32/08 A2959 RMK T03200080 IEM_DS3505
ZBYN,1999-06-25 11:00,ZBYN 251100Z AUTO 16002KT 6SM 30/10 A2959 RMK T03000100 IEM_DS3505
ZBYN,1999-06-25 12:00,ZBYN 251200Z AUTO 14002KT 6SM 27/10 A2962 RMK SLP005 T02720101 52008 IEM_DS3505
ZBYN,1999-06-25 13:00,ZBYN 251300Z AUTO 13002KT 6SM 23/11 A2965 RMK T02300110 IEM_DS3505
ZBYN,1999-06-25 15:00,ZBYN 251500Z AUTO 09006KT 6SM 23/07 RMK SLP022 T02270070 52017 IEM_DS3505
ZBYN,1999-06-25 16:00,ZBYN 251600Z AUTO 15002KT 6SM 22/10 A2968 RMK T02200100 IEM_DS3505
ZBYN,1999-06-25 17:00,ZBYN 251700Z AUTO 11002KT 6SM 20/10 A2968 RMK T02000100 IEM_DS3505
ZBYN,1999-06-25 18:00,ZBYN 251800Z AUTO 14004KT 6SM 19/10 A2968 RMK SLP026 T01880096 52005 IEM_DS3505
ZBYN,1999-06-25 19:00,ZBYN 251900Z AUTO 00000KT 6SM 19/11 A2968 RMK T01900110 IEM_DS3505
ZBYN,1999-06-25 20:00,ZBYN 252000Z AUTO 12002KT 6SM 18/11 A2968 RMK T01800110 IEM_DS3505
ZBYN,1999-06-25 21:00,ZBYN 252100Z AUTO 00000KT 6SM 18/11 A2971 RMK SLP030 T01770108 52002 IEM_DS3505
ZBYN,1999-06-25 22:00,ZBYN 252200Z AUTO 00000KT 6SM 17/12 A2974 RMK T01700120 IEM_DS3505
ZBYN,1999-06-25 23:00,ZBYN 252300Z AUTO 00000KT 6SM 20/13 A2974 RMK T02000130 IEM_DS3505
ZBYN,1999-06-26 00:00,ZBYN 260000Z AUTO 00000KT 5SM 22/12 A2974 RMK SLP043 T02200118 52011 IEM_DS3505
ZBYN,1999-06-26 01:00,ZBYN 260100Z AUTO 00000KT 5SM 25/13 A2974 RMK T02500130 IEM_DS3505
ZBYN,1999-06-26 02:00,ZBYN 260200Z AUTO 20002KT 5SM 26/13 A2974 RMK T02600130 IEM_DS3505
ZBYN,1999-06-26 03:00,ZBYN 260300Z AUTO 20004KT 5SM 29/13 A2974 RMK SLP037 T02880128 57003 IEM_DS3505
ZBYN,1999-06-26 04:00,ZBYN 260400Z AUTO 15004KT 6SM 30/13 A2971 RMK T03000130 IEM_DS3505
ZBYN,1999-06-26 05:00,ZBYN 260500Z AUTO 16002KT 7SM 32/13 A2968 RMK T03200130 IEM_DS3505
ZBYN,1999-06-26 06:00,ZBYN 260600Z AUTO 11010KT 6SM 34/06 A2968 RMK SLP017 T03380060 57016 IEM_DS3505
ZBYN,1999-06-26 07:00,ZBYN 260700Z AUTO 31002KT 7SM 35/08 A2965 RMK T03500080 IEM_DS3505
ZBYN,1999-06-26 08:00,ZBYN 260800Z AUTO 21002KT 7SM 35/09 A2965 RMK T03500090 IEM_DS3505
ZBYN,1999-06-26 09:00,ZBYN 260900Z AUTO 20006KT 9SM 34/11 A2962 RMK SLP999 T03400106 57018 IEM_DS3505
ZBYN,1999-06-26 10:00,ZBYN 261000Z AUTO 23002KT 7SM 34/11 A2962 RMK T03400110 IEM_DS3505
ZBYN,1999-06-26 11:00,ZBYN 261100Z AUTO 00000KT 6SM 32/13 A2965 RMK T03200130 IEM_DS3505
ZBYN,1999-06-26 13:00,ZBYN 261300Z AUTO 11002KT 6SM 27/08 A2968 RMK T02700080 IEM_DS3505
ZBYN,1999-06-26 14:00,ZBYN 261400Z AUTO 09002KT 6SM 24/08 A2974 RMK T02400080 IEM_DS3505
ZBYN,1999-06-26 15:00,ZBYN 261500Z AUTO 14004KT 6SM 24/08 A2974 RMK SLP039 T02440080 52024 IEM_DS3505
ZBYN,1999-06-26 16:00,ZBYN 261600Z AUTO 09004KT 6SM 23/09 A2977 RMK T02300090 IEM_DS3505
ZBYN,1999-06-26 17:00,ZBYN 261700Z AUTO 10008KT 6SM 25/08 A2977 RMK T02500080 IEM_DS3505
ZBYN,1999-06-26 18:00,ZBYN 261800Z AUTO 14002KT 6SM 22/11 A2980 RMK SLP052 T02200107 52016 IEM_DS3505
ZBYN,1999-06-26 19:00,ZBYN 261900Z AUTO 11004KT 6SM 22/12 A2977 RMK T02200120 IEM_DS3505
ZBYN,1999-06-26 20:00,ZBYN 262000Z AUTO 00000KT 6SM 20/13 A2974 RMK T02000130 IEM_DS3505
ZBYN,1999-06-26 21:00,ZBYN 262100Z AUTO 00000KT 6SM 20/13 A2974 RMK SLP039 T02020131 57014 IEM_DS3505
ZBYN,1999-06-26 22:00,ZBYN 262200Z AUTO 15004KT 5SM 19/14 A2974 RMK T01900140 IEM_DS3505
ZBYN,1999-06-27 00:00,ZBYN 270000Z AUTO 00000KT 5SM 24/15 A2977 RMK SLP047 T02350148 52005 IEM_DS3505
ZBYN,1999-06-27 01:00,ZBYN 270100Z AUTO 26002KT 6SM 26/16 A2977 RMK T02600160 IEM_DS3505
ZBYN,1999-06-27 02:00,ZBYN 270200Z AUTO 28002KT 6SM 27/16 A2977 RMK T02700160 IEM_DS3505
ZBYN,1999-06-27 03:00,ZBYN 270300Z AUTO 00000KT 5SM 30/13 A2977 RMK SLP040 T03050129 57003 IEM_DS3505
ZBYN,1999-06-27 04:00,ZBYN 270400Z AUTO 20002KT 6SM 32/12 A2974 RMK T03200120 IEM_DS3505
ZBYN,1999-06-27 05:00,ZBYN 270500Z AUTO 23002KT 6SM 33/11 A2971 RMK T03300110 IEM_DS3505
ZBYN,1999-06-27 06:00,ZBYN 270600Z AUTO 36006KT 11SM 33/10 A2968 RMK SLP026 T03320097 57013 IEM_DS3505
ZBYN,1999-06-27 07:00,ZBYN 270700Z AUTO 11008KT 7SM 35/08 A2968 RMK T03500080 IEM_DS3505
ZBYN,1999-06-27 08:00,ZBYN 270800Z AUTO 20004KT 7SM 34/12 A2968 RMK T03400120 IEM_DS3505
ZBYN,1999-06-27 09:00,ZBYN 270900Z AUTO 14006KT 11SM 32/12 A2968 RMK SLP023 T03230119 57006 IEM_DS3505
ZBYN,1999-06-27 10:00,ZBYN 271000Z AUTO 11010KT 7SM 32/11 A2968 RMK T03200110 IEM_DS3505
ZBYN,1999-06-27 11:00,ZBYN 271100Z AUTO 09014KT 6SM 31/11 A2971 RMK T03100110 IEM_DS3505
ZBYN,1999-06-27 12:00,ZBYN 271200Z AUTO 09016KT 6SM 30/11 A2974 RMK SLP034 T02960106 52011 IEM_DS3505
ZBYN,1999-06-27 13:00,ZBYN 271300Z AUTO 09008KT 6SM 28/11 A2977 RMK T02800110 IEM_DS3505
ZBYN,1999-06-27 14:00,ZBYN 271400Z AUTO 10010KT 6SM 26/12 A2977 RMK T02600120 IEM_DS3505
ZBYN,1999-06-27 15:00,ZBYN 271500Z AUTO 07004KT 6SM 26/12 A2980 RMK SLP054 T02570124 52022 IEM_DS3505
ZBYN,1999-06-27 16:00,ZBYN 271600Z AUTO 04002KT 6SM 24/14 A2980 RMK T02400140 IEM_DS3505
ZBYN,1999-06-27 18:00,ZBYN 271800Z AUTO 04004KT 6SM 23/14 RMK SLP054 T02270136 54000 IEM_DS3505
ZBYN,1999-06-27 19:00,ZBYN 271900Z AUTO 12004KT 6SM 20/14 A2980 RMK T02000140 IEM_DS3505
ZBYN,1999-06-27 20:00,ZBYN 272000Z AUTO 10004KT 6SM 20/15 A2980 RMK T02000150 IEM_DS3505
ZBYN,1999-06-27 21:00,ZBYN 272100Z AUTO 00000KT 6SM 18/14 A2980 RMK SLP063 T01820138 52001 IEM_DS3505
ZBYN,1999-06-27 22:00,ZBYN 272200Z AUTO 11002KT 6SM 18/15 A2980 RMK T01800150 IEM_DS3505
ZBYN,1999-06-27 23:00,ZBYN 272300Z AUTO 12002KT 6SM 21/16 A2980 RMK T02100160 IEM_DS3505
ZBYN,1999-06-28 00:00,ZBYN 280000Z AUTO 00000KT 5SM 23/15 A2983 RMK SLP067 T02290146 52006 IEM_DS3505
ZBYN,1999-06-28 01:00,ZBYN 280100Z AUTO 11010KT 6SM 26/15 A2983 RMK T02600150 IEM_DS3505
ZBYN,1999-06-28 02:00,ZBYN 280200Z AUTO 10010KT 6SM 28/16 A2980 RMK T02800160 IEM_DS3505
ZBYN,1999-06-28 03:00,ZBYN 280300Z AUTO 09006KT 5SM 29/13 A2980 RMK SLP059 T02870129 57005 IEM_DS3505
ZBYN,1999-06-28 04:00,ZBYN 280400Z AUTO 10010KT 6SM 30/11 A2977 RMK T03000110 IEM_DS3505
ZBYN,1999-06-28 05:00,ZBYN 280500Z AUTO 09008KT 6SM 31/12 A2977 RMK T03100120 IEM_DS3505
ZBYN,1999-06-28 06:00,ZBYN 280600Z AUTO 11008KT 9SM 31/12 A2974 RMK SLP036 T03130116 57021 IEM_DS3505
ZBYN,1999-06-28 07:00,ZBYN 280700Z AUTO 10006KT 6SM 32/13 A2971 RMK T03200130 IEM_DS3505
ZBYN,1999-06-28 08:00,ZBYN 280800Z AUTO 13012KT 6SM 32/12 A2971 RMK T03200120 IEM_DS3505
ZBYN,1999-06-28 09:00,ZBYN 280900Z AUTO 11006KT 6SM 31/12 A2971 RMK SLP033 T03110124 57009 IEM_DS3505
ZBYN,1999-06-28 10:00,ZBYN 281000Z AUTO 16006KT 7SM 30/13 A2971 RMK T03000130 IEM_DS3505
ZBYN,1999-06-28 11:00,ZBYN 281100Z AUTO 18004KT 7SM 29/13 A2974 RMK T02900130 IEM_DS3505
ZBYN,1999-06-28 12:00,ZBYN 281200Z AUTO 16006KT 9SM 27/13 A2977 RMK SLP044 T02690128 52010 IEM_DS3505
ZBYN,1999-06-28 13:00,ZBYN 281300Z AUTO 13002KT 7SM 26/13 A2977 RMK T02600130 IEM_DS3505
ZBYN,1999-06-28 14:00,ZBYN 281400Z AUTO 15006KT 6SM 25/14 A2980 RMK T02500140 IEM_DS3505
ZBYN,1999-06-28 15:00,ZBYN 281500Z AUTO 11004KT 9SM 23/14 A2980 RMK SLP060 T02300136 52018 IEM_DS3505
ZBYN,1999-06-28 16:00,ZBYN 281600Z AUTO 09004KT 6SM 23/15 A2980 RMK T02300150 IEM_DS3505
ZBYN,1999-06-28 17:00,ZBYN 281700Z AUTO 10006KT 6SM 23/15 A2980 RMK T02300150 IEM_DS3505
ZBYN,1999-06-28 18:00,ZBYN 281800Z AUTO 00000KT 6SM 21/15 A2980 RMK SLP055 T02120149 57004 IEM_DS3505
ZBYN,1999-06-28 19:00,ZBYN 281900Z AUTO 10002KT 6SM 22/15 A2980 RMK T02200150 IEM_DS3505
ZBYN,1999-06-28 20:00,ZBYN 282000Z AUTO 12004KT 6SM 20/15 A2980 RMK T02000150 IEM_DS3505
ZBYN,1999-06-28 21:00,ZBYN 282100Z AUTO 00000KT 6SM 19/14 A2980 RMK SLP062 T01940144 52004 IEM_DS3505
ZBYN,1999-06-28 22:00,ZBYN 282200Z AUTO 09002KT 6SM 21/16 A2980 RMK T02100160 IEM_DS3505
ZBYN,1999-06-28 23:00,ZBYN 282300Z AUTO 12004KT 5SM 22/16 A2980 RMK T02200160 IEM_DS3505
ZBYN,1999-06-29 00:00,ZBYN 290000Z AUTO 00000KT 5SM 23/15 A2983 RMK SLP067 T02300151 52004 IEM_DS3505
ZBYN,1999-06-29 01:00,ZBYN 290100Z AUTO 15004KT 6SM 25/17 A2980 RMK T02500170 IEM_DS3505
ZBYN,1999-06-29 02:00,ZBYN 290200Z AUTO 20004KT 6SM 27/17 A2983 RMK T02700170 IEM_DS3505
ZBYN,1999-06-29 03:00,ZBYN 290300Z AUTO 18008KT 6SM 27/15 A2983 RMK SLP073 T02680152 52005 IEM_DS3505
ZBYN,1999-06-29 04:00,ZBYN 290400Z AUTO 18004KT 6SM 28/15 A2983 RMK T02800150 IEM_DS3505
ZBYN,1999-06-29 05:00,ZBYN 290500Z AUTO 19004KT 6SM 28/15 A2980 RMK T02800150 IEM_DS3505
ZBYN,1999-06-29 06:00,ZBYN 290600Z AUTO 16006KT 6SM 29/14 A2977 RMK SLP057 T02860144 57015 IEM_DS3505
ZBYN,1999-06-29 07:00,ZBYN 290700Z AUTO 18004KT 7SM 30/13 A2977 RMK T03000130 IEM_DS3505
ZBYN,1999-06-29 08:00,ZBYN 290800Z AUTO 16008KT 7SM 30/12 A2974 RMK T03000120 IEM_DS3505
ZBYN,1999-06-29 09:00,ZBYN 290900Z AUTO 16006KT 9SM 29/13 A2974 RMK SLP045 T02860128 57013 IEM_DS3505
ZBYN,1999-06-29 10:00,ZBYN 291000Z AUTO 15004KT 6SM 29/12 A2974 RMK T02900120 IEM_DS3505
ZBYN,1999-06-29 11:00,ZBYN 291100Z AUTO 16004KT 6SM 28/11 A2974 RMK T02800110 IEM_DS3505
ZBYN,1999-06-29 12:00,ZBYN 291200Z AUTO 14004KT 9SM 26/12 A2974 RMK SLP045 T02590120 52001 IEM_DS3505
ZBYN,1999-06-29 13:00,ZBYN 291300Z AUTO 16002KT 6SM 26/11 A2977 RMK T02600110 IEM_DS3505
ZBYN,1999-06-29 14:00,ZBYN 291400Z AUTO 16002KT 6SM 26/11 A2977 RMK T02600110 IEM_DS3505
ZBYN,1999-06-29 15:00,ZBYN 291500Z AUTO 11006KT 7SM 23/13 A2980 RMK SLP056 T02260129 52011 IEM_DS3505
ZBYN,1999-06-29 16:00,ZBYN 291600Z AUTO 16002KT 6SM 24/11 A2980 RMK T02400110 IEM_DS3505
ZBYN,1999-06-29 17:00,ZBYN 291700Z AUTO 15002KT 6SM 23/11 A2980 RMK T02300110 IEM_DS3505
ZBYN,1999-06-29 18:00,ZBYN 291800Z AUTO 14002KT 7SM 22/12 A2980 RMK SLP057 T02170118 52002 IEM_DS3505
ZBYN,1999-06-29 19:00,ZBYN 291900Z AUTO 12002KT 6SM 21/12 A2980 RMK T02100120 IEM_DS3505
ZBYN,1999-06-29 20:00,ZBYN 292000Z AUTO 15002KT 6SM 21/12 A2980 RMK T02100120 IEM_DS3505
ZBYN,1999-06-29 21:00,ZBYN 292100Z AUTO 11002KT 6SM 20/12 A2980 RMK SLP060 T02030117 52001 IEM_DS3505
ZBYN,1999-06-29 22:00,ZBYN 292200Z AUTO 10002KT 6SM 21/13 A2980 RMK T02100130 IEM_DS3505
ZBYN,1999-06-29 23:00,ZBYN 292300Z AUTO 09002KT 6SM 22/13 A2980 RMK T02200130 IEM_DS3505
ZBYN,1999-06-30 00:00,ZBYN 300000Z AUTO 14006KT 6SM 23/13 A2980 RMK SLP066 T02330128 52006 IEM_DS3505
ZBYN,1999-06-30 01:00,ZBYN 300100Z AUTO 16002KT 6SM 25/13 A2980 RMK T02500130 IEM_DS3505
ZBYN,1999-06-30 02:00,ZBYN 300200Z AUTO 17002KT 6SM 26/13 A2983 RMK T02600130 IEM_DS3505
ZBYN,1999-06-30 03:00,ZBYN 300300Z AUTO 20002KT 6SM 28/13 A2980 RMK SLP062 T02770130 57002 IEM_DS3505
ZBYN,1999-06-30 05:00,ZBYN 300500Z AUTO 31008KT 6SM 30/13 A2974 RMK T03000130 IEM_DS3505
ZBYN,1999-06-30 06:00,ZBYN 300600Z AUTO 14008KT 11SM 31/12 A2971 RMK SLP030 T03110115 57026 IEM_DS3505
ZBYN,1999-06-30 08:00,ZBYN 300800Z AUTO 18002KT 6SM 33/08 A2968 RMK T03300080 IEM_DS3505
ZBYN,1999-06-30 09:00,ZBYN 300900Z AUTO 20004KT 11SM 30/10 A2968 RMK SLP017 T03040102 57015 IEM_DS3505
ZBYN,1999-06-30 10:00,ZBYN 301000Z AUTO 24002KT 6SM 31/10 A2968 RMK T03100100 IEM_DS3505
ZBYN,1999-06-30 11:00,ZBYN 301100Z AUTO 20002KT 6SM 30/09 A2968 RMK T03000090 IEM_DS3505
ZBYN,1999-06-30 12:00,ZBYN 301200Z AUTO 09006KT 9SM 27/07 A2971 RMK SLP030 T02690068 52011 IEM_DS3505
ZBYN,1999-06-30 13:00,ZBYN 301300Z AUTO 14004KT 6SM 26/08 A2974 RMK T02600080 IEM_DS3505
ZBYN,1999-06-30 14:00,ZBYN 301400Z AUTO 13004KT 6SM 26/08 A2974 RMK T02600080 IEM_DS3505
ZBYN,1999-06-30 15:00,ZBYN 301500Z AUTO 14002KT 6SM 22/08 A2977 RMK SLP052 T02200082 52020 IEM_DS3505
ZBYN,1999-06-30 16:00,ZBYN 301600Z AUTO 12002KT 6SM 23/08 A2980 RMK T02300080 IEM_DS3505
ZBYN,1999-06-30 17:00,ZBYN 301700Z AUTO 11006KT 6SM 20/09 A2980 RMK T02000090 IEM_DS3505
ZBYN,1999-06-30 18:00,ZBYN 301800Z AUTO 29002KT 6SM 21/09 A2980 RMK SLP056 T02060090 52006 IEM_DS3505
ZBYN,1999-06-30 19:00,ZBYN 301900Z AUTO 10004KT 6SM 21/10 A2980 RMK T02100100 IEM_DS3505
ZBYN,1999-06-30 20:00,ZBYN 302000Z AUTO 10002KT 6SM 18/11 A2980 RMK T01800110 IEM_DS3505
ZBYN,1999-06-30 21:00,ZBYN 302100Z AUTO 00000KT 6SM 16/11 A2980 RMK SLP070 T01630113 52006 IEM_DS3505
ZBYN,1999-06-30 22:00,ZBYN 302200Z AUTO 00000KT 6SM 18/11 A2980 RMK T01800110 IEM_DS3505
ZBYN,1999-06-30 23:00,ZBYN 302300Z AUTO 00000KT 6SM 21/13 A2983 RMK T02100130 IEM_DS3505
ZBYN,1999-07-01 00:00,ZBYN 010000Z AUTO 00000KT 6SM 23/12 A2983 RMK SLP076 T02280115 52010 IEM_DS3505
ZBYN,1999-07-01 01:00,ZBYN 010100Z AUTO 31002KT 6SM 25/13 A2983 RMK T02500130 IEM_DS3505
ZBYN,1999-07-01 02:00,ZBYN 010200Z AUTO 00000KT 6SM 27/13 A2983 RMK T02700130 IEM_DS3505
ZBYN,1999-07-01 03:00,ZBYN 010300Z AUTO 18002KT 6SM 29/11 A2983 RMK SLP066 T02880108 57008 IEM_DS3505
ZBYN,1999-07-01 05:00,ZBYN 010500Z AUTO 23002KT 7SM 31/13 A2977 RMK T03100130 IEM_DS3505
ZBYN,1999-07-01 06:00,ZBYN 010600Z AUTO 22006KT 7SM 31/10 A2977 RMK SLP047 T03110105 57016 IEM_DS3505
ZBYN,1999-07-01 07:00,ZBYN 010700Z AUTO 17002KT 7SM 32/13 A2974 RMK T03200130 IEM_DS3505
ZBYN,1999-07-01 08:00,ZBYN 010800Z AUTO 23008KT 7SM 32/13 A2974 RMK T03200130 IEM_DS3505
ZBYN,1999-07-01 09:00,ZBYN 010900Z AUTO 22002KT 7SM 32/12 A2971 RMK SLP034 T03160120 57017 IEM_DS3505
ZBYN,1999-07-01 10:00,ZBYN 011000Z AUTO 20002KT 7SM 32/14 A2971 RMK T03200140 IEM_DS3505
ZBYN,1999-07-01 11:00,ZBYN 011100Z AUTO 08004KT 7SM 31/12 A2971 RMK T03100120 IEM_DS3505
ZBYN,1999-07-01 12:00,ZBYN 011200Z AUTO 00000KT 6SM 27/15 RMK SLP042 T02720152 52010 IEM_DS3505
ZBYN,1999-07-01 13:00,ZBYN 011300Z AUTO 09002KT 6SM 29/13 A2974 RMK T02900130 IEM_DS3505
ZBYN,1999-07-01 14:00,ZBYN 011400Z AUTO 14004KT 6SM 27/13 A2977 RMK T02700130 IEM_DS3505
ZBYN,1999-07-01 15:00,ZBYN 011500Z AUTO 11004KT 6SM 25/11 A2977 RMK SLP043 T02520108 52006 IEM_DS3505
ZBYN,1999-07-01 16:00,ZBYN 011600Z AUTO 11004KT 6SM 24/12 A2977 RMK T02400120 IEM_DS3505
ZBYN,1999-07-01 17:00,ZBYN 011700Z AUTO 13002KT 6SM 23/13 A2980 RMK T02300130 IEM_DS3505
ZBYN,1999-07-01 18:00,ZBYN 011800Z AUTO 11004KT 6SM 23/11 A2977 RMK SLP046 T02320114 52003 IEM_DS3505
ZBYN,1999-07-01 19:00,ZBYN 011900Z AUTO 08002KT 6SM 21/13 A2977 RMK T02100130 IEM_DS3505
ZBYN,1999-07-01 20:00,ZBYN 012000Z AUTO 12002KT 6SM 21/13 A2977 RMK T02100130 IEM_DS3505
ZBYN,1999-07-01 21:00,ZBYN 012100Z AUTO 14002KT 6SM 21/11 A2980 RMK SLP051 T02080111 52002 IEM_DS3505
ZBYN,1999-07-01 22:00,ZBYN 012200Z AUTO 13004KT 6SM 20/13 A2980 RMK T02000130 IEM_DS3505
ZBYN,1999-07-02 00:00,ZBYN 020000Z AUTO 00000KT 5SM 23/13 A2980 RMK SLP063 T02260129 52008 IEM_DS3505
ZBYN,1999-07-02 01:00,ZBYN 020100Z AUTO 18002KT 6SM 27/14 A2980 RMK T02700140 IEM_DS3505
ZBYN,1999-07-02 02:00,ZBYN 020200Z AUTO 19002KT 6SM 28/14 A2980 RMK T02800140 IEM_DS3505
ZBYN,1999-07-02 03:00,ZBYN 020300Z AUTO 00000KT 6SM 29/14 A2980 RMK SLP049 T02920136 57007 IEM_DS3505
ZBYN,1999-07-02 04:00,ZBYN 020400Z AUTO 22004KT 6SM 31/14 A2977 RMK T03100140 IEM_DS3505
ZBYN,1999-07-02 05:00,ZBYN 020500Z AUTO 18004KT 6SM 32/15 A2974 RMK T03200150 IEM_DS3505
ZBYN,1999-07-02 06:00,ZBYN 020600Z AUTO 22008KT 6SM 33/12 A2971 RMK SLP029 T03320119 57015 IEM_DS3505
ZBYN,1999-07-02 07:00,ZBYN 020700Z AUTO 23002KT 7SM 34/13 A2971 RMK T03400130 IEM_DS3505
ZBYN,1999-07-02 08:00,ZBYN 020800Z AUTO 25004KT 6SM 34/13 A2968 RMK T03400130 IEM_DS3505
ZBYN,1999-07-02 09:00,ZBYN 020900Z AUTO 22004KT 7SM 32/12 A2968 RMK SLP036 T03250120 52002 IEM_DS3505
ZBYN,1999-07-02 10:00,ZBYN 021000Z AUTO 00000KT 6SM 32/14 A2968 RMK T03200140 IEM_DS3505
ZBYN,1999-07-02 11:00,ZBYN 021100Z AUTO 19002KT 6SM 31/11 A2968 RMK T03100110 IEM_DS3505
ZBYN,1999-07-02 12:00,ZBYN 021200Z AUTO 16002KT 7SM 28/16 A2971 RMK SLP025 T02840161 52002 IEM_DS3505
ZBYN,1999-07-02 13:00,ZBYN 021300Z AUTO 18002KT 6SM 28/13 A2974 RMK T02800130 IEM_DS3505
ZBYN,1999-07-02 14:00,ZBYN 021400Z AUTO 20002KT 6SM 27/11 A2974 RMK T02700110 IEM_DS3505
ZBYN,1999-07-02 15:00,ZBYN 021500Z AUTO 18004KT 6SM 26/12 A2977 RMK SLP036 T02620116 52016 IEM_DS3505
ZBYN,1999-07-02 16:00,ZBYN 021600Z AUTO 13002KT 6SM 25/13 A2977 RMK T02500130 IEM_DS3505
ZBYN,1999-07-02 17:00,ZBYN 021700Z AUTO 00000KT 6SM 25/12 A2977 RMK T02500120 IEM_DS3505
ZBYN,1999-07-02 18:00,ZBYN 021800Z AUTO 14002KT 6SM 23/12 A2977 RMK SLP038 T02340121 52003 IEM_DS3505
ZBYN,1999-07-02 19:00,ZBYN 021900Z AUTO 13002KT 6SM 23/14 A2977 RMK T02300140 IEM_DS3505
ZBYN,1999-07-02 20:00,ZBYN 022000Z AUTO 12002KT 6SM 23/13 A2977 RMK T02300130 IEM_DS3505
ZBYN,1999-07-02 21:00,ZBYN 022100Z AUTO 09002KT 6SM 22/13 A2977 RMK SLP041 T02230127 54000 IEM_DS3505
ZBYN,1999-07-02 22:00,ZBYN 022200Z AUTO 09002KT 6SM 24/12 A2977 RMK T02400120 IEM_DS3505
ZBYN,1999-07-02 23:00,ZBYN 022300Z AUTO 23004KT 6SM 23/14 A2980 RMK T02300140 IEM_DS3505
ZBYN,1999-07-03 00:00,ZBYN 030000Z AUTO 09004KT 4SM 24/15 A2983 RMK SLP064 T02390151 52018 IEM_DS3505
ZBYN,1999-07-03 01:00,ZBYN 030100Z AUTO 25010KT 7SM 25/12 A2985 RMK T02500120 IEM_DS3505
ZBYN,1999-07-03 02:00,ZBYN 030200Z AUTO 22006KT 7SM 26/12 A2985 RMK T02600120 IEM_DS3505
ZBYN,1999-07-03 03:00,ZBYN 030300Z AUTO 22012KT 12SM 26/07 A2985 RMK SLP078 T02610070 52013 IEM_DS3505
ZBYN,1999-07-03 04:00,ZBYN 030400Z AUTO 26004KT 7SM 26/10 A2985 RMK T02600100 IEM_DS3505
ZBYN,1999-07-03 05:00,ZBYN 030500Z AUTO 24008KT 7SM 25/12 A2988 RMK T02500120 IEM_DS3505
ZBYN,1999-07-03 06:00,ZBYN 030600Z AUTO 22008KT 12SM 24/11 A2985 RMK SLP091 T02420112 52005 IEM_DS3505
ZBYN,1999-07-03 07:00,ZBYN 030700Z AUTO 31002KT 7SM 25/12 A2983 RMK T02500120 IEM_DS3505
ZBYN,1999-07-03 08:00,ZBYN 030800Z AUTO 02002KT 7SM 26/12 A2980 RMK T02600120 IEM_DS3505
ZBYN,1999-07-03 09:00,ZBYN 030900Z AUTO 32004KT 12SM 25/13 A2980 RMK SLP066 T02480127 57023 IEM_DS3505
ZBYN,1999-07-03 10:00,ZBYN 031000Z AUTO 36002KT 7SM 27/11 A2980 RMK T02700110 IEM_DS3505
ZBYN,1999-07-03 11:00,ZBYN 031100Z AUTO 29004KT 7SM 25/12 A2980 RMK T02500120 IEM_DS3505
ZBYN,1999-07-03 12:00,ZBYN 031200Z AUTO 29004KT 6SM 23/12 A2980 RMK SLP060 T02340123 57005 IEM_DS3505
ZBYN,1999-07-03 13:00,ZBYN 031300Z AUTO 17004KT 7SM 24/12 A2980 RMK T02400120 IEM_DS3505
ZBYN,1999-07-03 14:00,ZBYN 031400Z AUTO 14008KT 7SM 24/15 A2983 RMK T02400150 IEM_DS3505
ZBYN,1999-07-03 15:00,ZBYN 031500Z AUTO 00000KT 6SM 22/15 A2983 RMK SLP074 T02180152 52013 IEM_DS3505
ZBYN,1999-07-03 16:00,ZBYN 031600Z AUTO 11004KT 6SM 22/16 A2983 RMK T02200160 IEM_DS3505
ZBYN,1999-07-03 17:00,ZBYN 031700Z AUTO 14004KT 6SM 23/16 A2983 RMK T02300160 IEM_DS3505
ZBYN,1999-07-03 18:00,ZBYN 031800Z AUTO 00000KT 6SM 21/15 A2983 RMK SLP078 T02060154 54000 IEM_DS3505
ZBYN,1999-07-03 19:00,ZBYN 031900Z AUTO 12004KT 6SM 21/16 A2983 RMK T02100160 IEM_DS3505
ZBYN,1999-07-03 20:00,ZBYN 032000Z AUTO 10002KT 6SM 20/16 A2983 RMK T02000160 IEM_DS3505
ZBYN,1999-07-03 21:00,ZBYN 032100Z AUTO 11004KT 6SM 21/14 A2983 RMK SLP075 T02060136 57002 IEM_DS3505
ZBYN,1999-07-03 22:00,ZBYN 032200Z AUTO 10002KT 6SM 22/15 A2983 RMK T02200150 IEM_DS3505
ZBYN,1999-07-04 00:00,ZBYN 040000Z AUTO 14004KT 6SM 21/16 A2983 RMK SLP081 T02130160 52004 IEM_DS3505
ZBYN,1999-07-04 01:00,ZBYN 040100Z AUTO 00000KT 6SM 23/16 A2983 RMK T02300160 IEM_DS3505
ZBYN,1999-07-04 02:00,ZBYN 040200Z AUTO 17004KT 7SM 23/16 A2983 RMK T02300160 IEM_DS3505
ZBYN,1999-07-04 03:00,ZBYN 040300Z AUTO 22004KT 6SM 18/17 A2985 RMK SLP101 T01840171 52012 IEM_DS3505
ZBYN,1999-07-04 04:00,ZBYN 040400Z AUTO 30002KT 2SM 18/18 A2988 RMK T01800180 IEM_DS3505
ZBYN,1999-07-04 05:00,ZBYN 040500Z AUTO 34002KT 2SM 17/17 A2988 RMK T01700170 IEM_DS3505
ZBYN,1999-07-04 06:00,ZBYN 040600Z AUTO 00000KT 5SM 18/17 RMK SLP101 T01840168 57001 IEM_DS3505
ZBYN,1999-07-04 07:00,ZBYN 040700Z AUTO 34002KT 1 1/2SM 18/18 A2985 RMK T01800180 IEM_DS3505
ZBYN,1999-07-04 08:00,ZBYN 040800Z AUTO 35004KT 1SM 18/18 A2985 RMK T01800180 IEM_DS3505
ZBYN,1999-07-04 09:00,ZBYN 040900Z AUTO 32004KT 4SM 18/18 A2983 RMK SLP089 T01850176 57011 IEM_DS3505
ZBYN,1999-07-04 10:00,ZBYN 041000Z AUTO 30002KT 1SM 19/19 A2983 RMK T01900190 IEM_DS3505
ZBYN,1999-07-04 11:00,ZBYN 041100Z AUTO 00000KT 1SM 19/19 A2983 RMK T01900190 IEM_DS3505
ZBYN,1999-07-04 12:00,ZBYN 041200Z AUTO 00000KT 2SM 19/18 A2983 RMK SLP086 T01920183 57001 IEM_DS3505
ZBYN,1999-07-04 13:00,ZBYN 041300Z AUTO 09002KT 2 1/2SM 19/19 A2983 RMK T01900190 IEM_DS3505
ZBYN,1999-07-04 14:00,ZBYN 041400Z AUTO 10002KT 3SM 19/19 A2983 RMK T01900190 IEM_DS3505
ZBYN,1999-07-04 15:00,ZBYN 041500Z AUTO 00000KT 1 1/4SM 19/18 A2983 RMK SLP093 T01920183 52002 IEM_DS3505
ZBYN,1999-07-04 16:00,ZBYN 041600Z AUTO 08004KT 7SM 19/19 A2980 RMK T01900190 IEM_DS3505
ZBYN,1999-07-04 17:00,ZBYN 041700Z AUTO 07008KT 7SM 19/19 A2980 RMK T01900190 IEM_DS3505
ZBYN,1999-07-04 18:00,ZBYN 041800Z AUTO 00000KT 2 1/2SM 19/17 A2980 RMK SLP085 T01940167 57004 IEM_DS3505
ZBYN,1999-07-04 19:00,ZBYN 041900Z AUTO 07002KT 7SM 19/19 A2980 RMK T01900190 IEM_DS3505
ZBYN,1999-07-04 20:00,ZBYN 042000Z AUTO 09002KT 5SM 19/19 A2980 RMK T01900190 IEM_DS3505
ZBYN,1999-07-04 21:00,ZBYN 042100Z AUTO 34002KT 1 1/4SM 18/18 A2980 RMK SLP084 T01830177 57002 IEM_DS3505
ZBYN,1999-07-04 22:00,ZBYN 042200Z AUTO 06002KT 7SM 19/19 A2980 RMK T01900190 IEM_DS3505
ZBYN,1999-07-04 23:00,ZBYN 042300Z AUTO 35002KT 4SM 19/19 A2980 RMK T01900190 IEM_DS3505
ZBYN,1999-07-05 00:00,ZBYN 050000Z AUTO 32002KT 4SM 18/18 A2983 RMK SLP087 T01850176 52004 IEM_DS3505
ZBYN,1999-07-05 01:00,ZBYN 050100Z AUTO 05002KT 3SM 20/19 A2980 RMK T02000190 IEM_DS3505
ZBYN,1999-07-05 02:00,ZBYN 050200Z AUTO 07006KT 7SM 21/20 A2980 RMK T02100200 IEM_DS3505
ZBYN,1999-07-05 03:00,ZBYN 050300Z AUTO 32002KT 3SM 20/18 A2980 RMK SLP083 T01970180 57002 IEM_DS3505
ZBYN,1999-07-05 04:00,ZBYN 050400Z AUTO 09006KT 7SM 21/19 A2980 RMK T02100190 IEM_DS3505
ZBYN,1999-07-05 05:00,ZBYN 050500Z AUTO 06004KT 7SM 21/19 A2980 RMK T02100190 IEM_DS3505
ZBYN,1999-07-05 06:00,ZBYN 050600Z AUTO 29002KT 3SM 19/18 A2980 RMK SLP082 T01940183 57001 IEM_DS3505
ZBYN,1999-07-05 07:00,ZBYN 050700Z AUTO 06002KT 7SM 20/20 A2980 RMK T02000200 IEM_DS3505
ZBYN,1999-07-05 08:00,ZBYN 050800Z AUTO 04002KT 7SM 20/20 A2980 RMK T02000200 IEM_DS3505
ZBYN,1999-07-05 09:00,ZBYN 050900Z AUTO 36004KT 2 1/2SM 20/19 A2980 RMK SLP082 T01980189 57001 IEM_DS3505
ZBYN,1999-07-05 10:00,ZBYN 051000Z AUTO 07004KT 7SM 20/20 A2980 RMK T02000200 IEM_DS3505
ZBYN,1999-07-05 11:00,ZBYN 051100Z AUTO 06004KT 7SM 20/20 A2980 RMK T02000200 IEM_DS3505
ZBYN,1999-07-05 12:00,ZBYN 051200Z AUTO 00000KT 2 1/2SM 20/18 A2980 RMK SLP084 T01950184 52002 IEM_DS3505
ZBYN,1999-07-05 13:00,ZBYN 051300Z AUTO 05004KT 7SM 19/19 A2983 RMK T01900190 IEM_DS3505
ZBYN,1999-07-05 14:00,ZBYN 051400Z AUTO 05004KT 7SM 19/19 A2983 RMK T01900190 IEM_DS3505
ZBYN,1999-07-05 15:00,ZBYN 051500Z AUTO 00000KT 3SM 19/18 A2983 RMK SLP088 T01880180 52004 IEM_DS3505
ZBYN,1999-07-05 16:00,ZBYN 051600Z AUTO 06002KT 7SM 18/18 A2983 RMK T01800180 IEM_DS3505
ZBYN,1999-07-05 17:00,ZBYN 051700Z AUTO 00000KT 7SM 18/18 A2983 RMK T01800180 IEM_DS3505
ZBYN,1999-07-05 18:00,ZBYN 051800Z AUTO 00000KT 2SM 18/18 A2980 RMK SLP085 T01840178 57004 IEM_DS3505
ZBYN,1999-07-05 19:00,ZBYN 051900Z AUTO 10004KT 7SM 18/18 A2980 RMK T01800180 IEM_DS3505
ZBYN,1999-07-05 20:00,ZBYN 052000Z AUTO 00000KT 7SM 18/18 A2980 RMK T01800180 IEM_DS3505
ZBYN,1999-07-05 21:00,ZBYN 052100Z AUTO 00000KT 2 1/2SM 18/17 A2983 RMK SLP086 T01820174 52001 IEM_DS3505
ZBYN,1999-07-05 22:00,ZBYN 052200Z AUTO 08002KT 7SM 18/18 A2983 RMK T01800180 IEM_DS3505
ZBYN,1999-07-05 23:00,ZBYN 052300Z AUTO 07002KT 7SM 19/19 A2983 RMK T01900190 IEM_DS3505
ZBYN,1999-07-06 00:00,ZBYN 060000Z AUTO 00000KT 2 1/2SM 19/18 A2983 RMK SLP089 T01910182 52004 IEM_DS3505
ZBYN,1999-07-06 01:00,ZBYN 060100Z AUTO 09002KT 7SM 20/19 A2983 RMK T02000190 IEM_DS3505
ZBYN,1999-07-06 02:00,ZBYN 060200Z AUTO 08002KT 7SM 20/19 A2983 RMK T02000190 IEM_DS3505
ZBYN,1999-07-06 03:00,ZBYN 060300Z AUTO 00000KT 2 1/2SM 21/17 A2983 RMK SLP084 T02080174 57003 IEM_DS3505
ZBYN,1999-07-06 04:00,ZBYN 060400Z AUTO 08006KT 7SM 21/19 A2983 RMK T02100190 IEM_DS3505
ZBYN,1999-07-06 05:00,ZBYN 060500Z AUTO 06004KT 7SM 22/19 A2980 RMK T02200190 IEM_DS3505
ZBYN,1999-07-06 06:00,ZBYN 060600Z AUTO 34006KT 4SM 21/18 A2977 RMK SLP077 T02140180 57006 IEM_DS3505
ZBYN,1999-07-06 07:00,ZBYN 060700Z AUTO 07004KT 7SM 22/19 A2980 RMK T02200190 IEM_DS3505
ZBYN,1999-07-06 08:00,ZBYN 060800Z AUTO 10004KT 7SM 22/19 A2980 RMK T02200190 IEM_DS3505
ZBYN,1999-07-06 09:00,ZBYN 060900Z AUTO 09002KT 6SM 22/17 A2977 RMK SLP070 T02210173 57006 IEM_DS3505
ZBYN,1999-07-06 10:00,ZBYN 061000Z AUTO 09004KT 7SM 22/19 A2980 RMK T02200190 IEM_DS3505
ZBYN,1999-07-06 11:00,ZBYN 061100Z AUTO 05004KT 7SM 21/19 A2980 RMK T02100190 IEM_DS3505
ZBYN,1999-07-06 12:00,ZBYN 061200Z AUTO 00000KT 6SM 20/18 A2980 RMK SLP081 T01980184 52008 IEM_DS3505
ZBYN,1999-07-06 13:00,ZBYN 061300Z AUTO 04002KT 7SM 20/20 A2983 RMK T02000200 IEM_DS3505
ZBYN,1999-07-06 14:00,ZBYN 061400Z AUTO 07002KT 6SM 20/19 A2983 RMK T02000190 IEM_DS3505
ZBYN,1999-07-06 15:00,ZBYN 061500Z AUTO 25002KT 6SM 20/18 A2980 RMK SLP080 T01950179 52001 IEM_DS3505
ZBYN,1999-07-06 17:00,ZBYN 061700Z AUTO 09004KT 7SM 20/19 A2980 RMK T02000190 IEM_DS3505
ZBYN,1999-07-06 18:00,ZBYN 061800Z AUTO 00000KT 6SM 19/18 A2980 RMK SLP072 T01900181 57007 IEM_DS3505
ZBYN,1999-07-06 19:00,ZBYN 061900Z AUTO 06002KT 7SM 19/19 A2980 RMK T01900190 IEM_DS3505
ZBYN,1999-07-06 20:00,ZBYN 062000Z AUTO 03002KT 7SM 19/19 A2980 RMK T01900190 IEM_DS3505
ZBYN,1999-07-06 21:00,ZBYN 062100Z AUTO 00000KT 5SM 19/18 A2977 RMK SLP070 T01900181 57001 IEM_DS3505
ZBYN,1999-07-06 22:00,ZBYN 062200Z AUTO 08002KT 7SM 19/19 A2977 RMK T01900190 IEM_DS3505
ZBYN,1999-07-06 23:00,ZBYN 062300Z AUTO 11004KT 7SM 20/19 A2980 RMK T02000190 IEM_DS3505
ZBYN,1999-07-07 00:00,ZBYN 070000Z AUTO 22002KT 5SM 21/18 A2977 RMK SLP072 T02080177 52001 IEM_DS3505
ZBYN,1999-07-07 01:00,ZBYN 070100Z AUTO 13002KT 7SM 22/20 A2977 RMK T02200200 IEM_DS3505
ZBYN,1999-07-07 02:00,ZBYN 070200Z AUTO 00000KT 7SM 22/20 A2977 RMK T02200200 IEM_DS3505
ZBYN,1999-07-07 03:00,ZBYN 070300Z AUTO 18004KT 6SM 24/18 A2977 RMK SLP057 T02410180 57009 IEM_DS3505
ZBYN,1999-07-07 04:00,ZBYN 070400Z AUTO 17002KT 7SM 25/20 A2974 RMK T02500200 IEM_DS3505
ZBYN,1999-07-07 05:00,ZBYN 070500Z AUTO 00000KT 7SM 25/20 A2974 RMK T02500200 IEM_DS3505
ZBYN,1999-07-07 06:00,ZBYN 070600Z AUTO 22002KT 5SM 24/18 A2971 RMK SLP046 T02350183 57012 IEM_DS3505
ZBYN,1999-07-07 07:00,ZBYN 070700Z AUTO 12002KT 7SM 25/20 A2968 RMK T02500200 IEM_DS3505
ZBYN,1999-07-07 08:00,ZBYN 070800Z AUTO 05002KT 7SM 25/21 A2971 RMK T02500210 IEM_DS3505
ZBYN,1999-07-07 09:00,ZBYN 070900Z AUTO 25002KT 5SM 24/19 A2968 RMK SLP039 T02380193 57006 IEM_DS3505
ZBYN,1999-07-07 10:00,ZBYN 071000Z AUTO 03010KT 7SM 21/20 A2971 RMK T02100200 IEM_DS3505
ZBYN,1999-07-07 12:00,ZBYN 071200Z AUTO 00000KT 9SM 21/18 RMK SLP046 T02080175 52005 IEM_DS3505
ZBYN,1999-07-07 15:00,ZBYN 071500Z AUTO 00000KT 6SM 18/17 A2974 RMK SLP057 T01840171 52011 IEM_DS3505
ZBYN,1999-07-07 16:00,ZBYN 071600Z AUTO 11008KT 6SM 19/19 A2974 RMK T01900190 IEM_DS3505
ZBYN,1999-07-07 17:00,ZBYN 071700Z AUTO 11004KT 6SM 19/19 A2974 RMK T01900190 IEM_DS3505
ZBYN,1999-07-07 18:00,ZBYN 071800Z AUTO 00000KT 6SM 17/16 A2974 RMK SLP056 T01710163 57003 IEM_DS3505
ZBYN,1999-07-07 19:00,ZBYN 071900Z AUTO 00000KT 6SM 18/18 A2974 RMK T01800180 IEM_DS3505
ZBYN,1999-07-07 20:00,ZBYN 072000Z AUTO 00000KT 6SM 17/17 A2974 RMK T01700170 IEM_DS3505
ZBYN,1999-07-07 21:00,ZBYN 072100Z AUTO 00000KT 2 1/2SM 16/15 A2974 RMK SLP054 T01580153 57004 IEM_DS3505
ZBYN,1999-07-07 22:00,ZBYN 072200Z AUTO 13002KT 2 1/2SM 16/16 A2974 RMK T01600160 IEM_DS3505
ZBYN,1999-07-07 23:00,ZBYN 072300Z AUTO 00000KT 2 1/2SM 17/17 A2974 RMK T01700170 IEM_DS3505
ZBYN,1999-07-08 00:00,ZBYN 080000Z AUTO 00000KT 3SM 20/17 A2974 RMK SLP058 T01950166 52005 IEM_DS3505
ZBYN,1999-07-08 01:00,ZBYN 080100Z AUTO 15002KT 1 1/4SM 20/20 A2974 RMK T02000200 IEM_DS3505
ZBYN,1999-07-08 04:00,ZBYN 080400Z AUTO 29002KT 4SM 25/21 A2971 RMK T02500210 IEM_DS3505
ZBYN,1999-07-08 05:00,ZBYN 080500Z AUTO 19002KT 4SM 26/21 A2968 RMK T02600210 IEM_DS3505
ZBYN,1999-07-08 06:00,ZBYN 080600Z AUTO 09004KT 6SM 28/16 A2968 RMK SLP031 T02770164 57020 IEM_DS3505
ZBYN,1999-07-08 07:00,ZBYN 080700Z AUTO 28002KT 6SM 26/21 A2965 RMK T02600210 IEM_DS3505
ZBYN,1999-07-08 08:00,ZBYN 080800Z AUTO 25008KT 4SM 26/22 A2965 RMK T02600220 IEM_DS3505
ZBYN,1999-07-08 09:00,ZBYN 080900Z AUTO 22004KT 6SM 27/18 A2965 RMK SLP022 T02740184 57011 IEM_DS3505
ZBYN,1999-07-08 10:00,ZBYN 081000Z AUTO 25002KT 7SM 27/21 A2962 RMK T02700210 IEM_DS3505
ZBYN,1999-07-08 11:00,ZBYN 081100Z AUTO 25002KT 6SM 26/22 A2962 RMK T02600220 IEM_DS3505
ZBYN,1999-07-08 12:00,ZBYN 081200Z AUTO 20004KT 6SM 24/19 RMK SLP027 T02440191 52006 IEM_DS3505
ZBYN,1999-07-08 13:00,ZBYN 081300Z AUTO 08008KT 6SM 23/20 A2968 RMK T02300200 IEM_DS3505
ZBYN,1999-07-08 15:00,ZBYN 081500Z AUTO 00000KT 6SM 22/18 A2974 RMK SLP048 T02170177 52021 IEM_DS3505
ZBYN,1999-07-08 16:00,ZBYN 081600Z AUTO 07002KT 6SM 22/19 A2974 RMK T02200190 IEM_DS3505
ZBYN,1999-07-08 18:00,ZBYN 081800Z AUTO 00000KT 6SM 20/18 RMK SLP042 T01950178 57003 IEM_DS3505
ZBYN,1999-07-08 21:00,ZBYN 082100Z AUTO 00000KT 4SM 19/17 RMK SLP046 T01860167 52002 IEM_DS3505
ZBYN,1999-07-08 23:00,ZBYN 082300Z AUTO 00000KT 1 1/4SM 19/19 A2974 RMK T01900190 IEM_DS3505
ZBYN,1999-07-09 00:00,ZBYN 090000Z AUTO 34004KT 2SM 22/18 A2974 RMK SLP052 T02160182 52006 IEM_DS3505
ZBYN,1999-07-09 01:00,ZBYN 090100Z AUTO 00000KT 1 1/4SM 23/20 A2974 RMK T02300200 IEM_DS3505
ZBYN,1999-07-09 03:00,ZBYN 090300Z AUTO 00000KT 4SM 27/16 A2974 RMK SLP038 T02740162 57009 IEM_DS3505
ZBYN,1999-07-09 04:00,ZBYN 090400Z AUTO 28002KT 2 1/2SM 27/22 A2971 RMK T02700220 IEM_DS3505
ZBYN,1999-07-09 05:00,ZBYN 090500Z AUTO 22002KT 27/21 A2968 RMK T02700210 IEM_DS3505
ZBYN,1999-07-09 06:00,ZBYN 090600Z AUTO 00000KT 4SM 30/17 A2965 RMK SLP022 T03000172 57014 IEM_DS3505
ZBYN,1999-07-09 07:00,ZBYN 090700Z AUTO 22002KT 6SM 29/21 A2965 RMK T02900210 IEM_DS3505
ZBYN,1999-07-09 08:00,ZBYN 090800Z AUTO 23002KT 6SM 29/21 A2962 RMK T02900210 IEM_DS3505
ZBYN,1999-07-09 09:00,ZBYN 090900Z AUTO 16008KT 6SM 30/17 A2962 RMK SLP010 T03040168 57012 IEM_DS3505
ZBYN,1999-07-09 10:00,ZBYN 091000Z AUTO 11002KT 6SM 30/17 A2962 RMK T03000170 IEM_DS3505
ZBYN,1999-07-09 11:00,ZBYN 091100Z AUTO 09004KT 6SM 29/15 A2965 RMK T02900150 IEM_DS3505
ZBYN,1999-07-09 12:00,ZBYN 091200Z AUTO 09006KT 6SM 28/11 A2965 RMK SLP016 T02750112 52006 IEM_DS3505
ZBYN,1999-07-09 14:00,ZBYN 091400Z AUTO 08010KT 6SM 25/17 A2971 RMK T02500170 IEM_DS3505
ZBYN,1999-07-09 15:00,ZBYN 091500Z AUTO 09006KT 6SM 25/15 A2974 RMK SLP037 T02510150 52024 IEM_DS3505
ZBYN,1999-07-09 16:00,ZBYN 091600Z AUTO 08010KT 6SM 23/18 A2974 RMK T02300180 IEM_DS3505
ZBYN,1999-07-09 17:00,ZBYN 091700Z AUTO 07008KT 6SM 23/19 A2974 RMK T02300190 IEM_DS3505
ZBYN,1999-07-09 18:00,ZBYN 091800Z AUTO 29002KT 6SM 22/17 A2974 RMK SLP041 T02180168 52002 IEM_DS3505
ZBYN,1999-07-09 21:00,ZBYN 092100Z AUTO 29002KT 4SM 20/16 A2974 RMK SLP044 T02000165 52001 IEM_DS3505
ZBYN,1999-07-09 22:00,ZBYN 092200Z AUTO 08002KT 3SM 20/19 A2974 RMK T02000190 IEM_DS3505
ZBYN,1999-07-09 23:00,ZBYN 092300Z AUTO 00000KT 2 1/2SM 21/19 A2977 RMK T02100190 IEM_DS3505
ZBYN,1999-07-10 00:00,ZBYN 100000Z AUTO 32004KT 4SM 22/16 A2977 RMK SLP052 T02230161 52007 IEM_DS3505
ZBYN,1999-07-10 01:00,ZBYN 100100Z AUTO 09004KT 5SM 25/19 A2977 RMK T02500190 IEM_DS3505
ZBYN,1999-07-10 02:00,ZBYN 100200Z AUTO 10004KT 6SM 27/17 A2977 RMK T02700170 IEM_DS3505
ZBYN,1999-07-10 03:00,ZBYN 100300Z AUTO 00000KT 5SM 28/16 A2974 RMK SLP037 T02830158 57009 IEM_DS3505
ZBYN,1999-07-10 04:00,ZBYN 100400Z AUTO 27002KT 6SM 29/13 A2974 RMK T02900130 IEM_DS3505
ZBYN,1999-07-10 05:00,ZBYN 100500Z AUTO 24002KT 7SM 29/14 A2971 RMK T02900140 IEM_DS3505
ZBYN,1999-07-10 06:00,ZBYN 100600Z AUTO 22004KT 12SM 31/12 A2968 RMK SLP023 T03060117 57014 IEM_DS3505
ZBYN,1999-07-10 07:00,ZBYN 100700Z AUTO 23002KT 7SM 31/15 A2965 RMK T03100150 IEM_DS3505
ZBYN,1999-07-10 08:00,ZBYN 100800Z AUTO 09004KT 7SM 31/16 A2962 RMK T03100160 IEM_DS3505
ZBYN,1999-07-10 09:00,ZBYN 100900Z AUTO 09010KT 12SM 30/16 A2962 RMK SLP008 T03010161 57017 IEM_DS3505
ZBYN,1999-07-10 10:00,ZBYN 101000Z AUTO 12004KT 7SM 27/20 A2965 RMK T02700200 IEM_DS3505
ZBYN,1999-07-10 11:00,ZBYN 101100Z AUTO 09012KT 25/18 A2968 RMK T02500180 IEM_DS3505
ZBYN,1999-07-10 12:00,ZBYN 101200Z AUTO 09010KT 6SM 22/18 A2971 RMK SLP032 T02250185 52015 IEM_DS3505
ZBYN,1999-07-10 13:00,ZBYN 101300Z AUTO 08012KT 4SM 23/21 A2971 RMK T02300210 IEM_DS3505
ZBYN,1999-07-10 14:00,ZBYN 101400Z AUTO 09006KT 7SM 22/20 A2974 RMK T02200200 IEM_DS3505
ZBYN,1999-07-10 15:00,ZBYN 101500Z AUTO 09010KT 6SM 23/17 A2974 RMK SLP036 T02320171 52012 IEM_DS3505
ZBYN,1999-07-10 16:00,ZBYN 101600Z AUTO 08010KT 6SM 22/20 A2974 RMK T02200200 IEM_DS3505
ZBYN,1999-07-10 17:00,ZBYN 101700Z AUTO 09010KT 6SM 22/20 A2974 RMK T02200200 IEM_DS3505
ZBYN,1999-07-10 18:00,ZBYN 101800Z AUTO 11006KT 6SM 22/18 A2971 RMK SLP031 T02230177 57002 IEM_DS3505
ZBYN,1999-07-10 21:00,ZBYN 102100Z AUTO 09012KT 6SM 22/17 RMK SLP028 T02180169 57004 IEM_DS3505
ZBYN,1999-07-10 22:00,ZBYN 102200Z AUTO 09006KT 6SM 21/19 A2971 RMK T02100190 IEM_DS3505
ZBYN,1999-07-10 23:00,ZBYN 102300Z AUTO 08008KT 6SM 21/19 A2971 RMK T02100190 IEM_DS3505
ZBYN,1999-07-11 00:00,ZBYN 110000Z AUTO 09012KT 4SM 21/16 A2974 RMK SLP051 T02120164 52009 IEM_DS3505
ZBYN,1999-07-11 01:00,ZBYN 110100Z AUTO 09010KT 7SM 22/19 A2974 RMK T02200190 IEM_DS3505
ZBYN,1999-07-11 02:00,ZBYN 110200Z AUTO 07012KT 7SM 22/19 A2974 RMK T02200190 IEM_DS3505
ZBYN,1999-07-11 03:00,ZBYN 110300Z AUTO 18006KT 4SM 19/18 A2977 RMK SLP062 T01920176 52009 IEM_DS3505
ZBYN,1999-07-11 04:00,ZBYN 110400Z AUTO 14002KT 3SM 18/18 A2977 RMK T01800180 IEM_DS3505
ZBYN,1999-07-11 05:00,ZBYN 110500Z AUTO 12006KT 2 1/2SM 18/18 A2977 RMK T01800180 IEM_DS3505
ZBYN,1999-07-11 06:00,ZBYN 110600Z AUTO 00000KT 4SM 19/17 A2974 RMK SLP055 T01900174 57008 IEM_DS3505
ZBYN,1999-07-11 07:00,ZBYN 110700Z AUTO 10002KT 7SM 20/20 A2971 RMK T02000200 IEM_DS3505
ZBYN,1999-07-11 08:00,ZBYN 110800Z AUTO 09002KT 6SM 21/20 A2971 RMK T02100200 IEM_DS3505
ZBYN,1999-07-11 09:00,ZBYN 110900Z AUTO 32002KT 5SM 20/18 A2971 RMK SLP042 T02050177 57011 IEM_DS3505
ZBYN,1999-07-11 11:00,ZBYN 111100Z AUTO 00000KT 4SM 21/19 A2971 RMK T02100190 IEM_DS3505
ZBYN,1999-07-11 12:00,ZBYN 111200Z AUTO 00000KT 2SM 20/18 A2971 RMK SLP048 T01990177 52004 IEM_DS3505
ZBYN,1999-07-11 13:00,ZBYN 111300Z AUTO 00000KT 2 1/2SM 20/20 A2974 RMK T02000200 IEM_DS3505
ZBYN,1999-07-11 14:00,ZBYN 111400Z AUTO 10002KT 5SM 20/19 A2977 RMK T02000190 IEM_DS3505
ZBYN,1999-07-11 15:00,ZBYN 111500Z AUTO 00000KT 2SM 19/18 A2977 RMK SLP066 T01910180 52013 IEM_DS3505
ZBYN,1999-07-11 16:00,ZBYN 111600Z AUTO 12002KT 7SM 19/19 A2974 RMK T01900190 IEM_DS3505
ZBYN,1999-07-11 17:00,ZBYN 111700Z AUTO 13002KT 6SM 18/18 A2974 RMK T01800180 IEM_DS3505
ZBYN,1999-07-11 18:00,ZBYN 111800Z AUTO 00000KT 2SM 18/17 A2971 RMK SLP053 T01810173 57014 IEM_DS3505
ZBYN,1999-07-11 19:00,ZBYN 111900Z AUTO 00000KT 6SM 19/19 A2974 RMK T01900190 IEM_DS3505
ZBYN,1999-07-11 20:00,ZBYN 112000Z AUTO 00000KT 6SM 19/19 A2974 RMK T01900190 IEM_DS3505
ZBYN,1999-07-11 21:00,ZBYN 112100Z AUTO 00000KT 2SM 19/18 A2974 RMK SLP053 T01860178 52003 IEM_DS3505
ZBYN,1999-07-11 22:00,ZBYN 112200Z AUTO 00000KT 4SM 19/19 A2974 RMK T01900190 IEM_DS3505
ZBYN,1999-07-11 23:00,ZBYN 112300Z AUTO 00000KT 3SM 19/19 A2974 RMK T01900190 IEM_DS3505
ZBYN,1999-07-12 00:00,ZBYN 120000Z AUTO 00000KT 2SM 20/18 A2977 RMK SLP061 T02000178 52008 IEM_DS3505
ZBYN,1999-07-12 01:00,ZBYN 120100Z AUTO 13002KT 5SM 21/20 A2977 RMK T02100200 IEM_DS3505
ZBYN,1999-07-12 02:00,ZBYN 120200Z AUTO 12002KT 7SM 23/20 A2974 RMK T02300200 IEM_DS3505
ZBYN,1999-07-12 03:00,ZBYN 120300Z AUTO 14002KT 5SM 24/18 A2974 RMK SLP057 T02410176 52001 IEM_DS3505
ZBYN,1999-07-12 04:00,ZBYN 120400Z AUTO 00000KT 7SM 25/21 A2974 RMK T02500210 IEM_DS3505
ZBYN,1999-07-12 05:00,ZBYN 120500Z AUTO 25002KT 7SM 25/20 A2971 RMK T02500200 IEM_DS3505
ZBYN,1999-07-12 06:00,ZBYN 120600Z AUTO 14004KT 5SM 26/18 A2968 RMK SLP036 T02630185 57017 IEM_DS3505
ZBYN,1999-07-12 07:00,ZBYN 120700Z AUTO 15004KT 7SM 27/20 A2968 RMK T02700200 IEM_DS3505
ZBYN,1999-07-12 08:00,ZBYN 120800Z AUTO 20002KT 7SM 27/20 A2968 RMK T02700200 IEM_DS3505
ZBYN,1999-07-12 09:00,ZBYN 120900Z AUTO 14004KT 5SM 27/19 A2965 RMK SLP029 T02680194 57005 IEM_DS3505
ZBYN,1999-07-12 10:00,ZBYN 121000Z AUTO 11008KT 7SM 26/20 A2968 RMK T02600200 IEM_DS3505
ZBYN,1999-07-12 11:00,ZBYN 121100Z AUTO 08016KT 7SM 24/20 A2968 RMK T02400200 IEM_DS3505
ZBYN,1999-07-12 12:00,ZBYN 121200Z AUTO 07010KT 6SM 23/17 A2971 RMK SLP045 T02330169 52011 IEM_DS3505
ZBYN,1999-07-12 13:00,ZBYN 121300Z AUTO 08014KT 6SM 22/19 A2974 RMK T02200190 IEM_DS3505
ZBYN,1999-07-12 14:00,ZBYN 121400Z AUTO 09012KT 6SM 22/19 A2974 RMK T02200190 IEM_DS3505
ZBYN,1999-07-12 15:00,ZBYN 121500Z AUTO 36002KT 6SM 22/16 A2977 RMK SLP058 T02220163 52016 IEM_DS3505
ZBYN,1999-07-12 16:00,ZBYN 121600Z AUTO 09010KT 7SM 21/19 A2977 RMK T02100190 IEM_DS3505
ZBYN,1999-07-12 17:00,ZBYN 121700Z AUTO 07008KT 7SM 21/19 A2977 RMK T02100190 IEM_DS3505
ZBYN,1999-07-12 18:00,ZBYN 121800Z AUTO 04004KT 5SM 21/17 A2977 RMK SLP060 T02080170 52003 IEM_DS3505
ZBYN,1999-07-12 19:00,ZBYN 121900Z AUTO 08008KT 7SM 20/19 A2977 RMK T02000190 IEM_DS3505
ZBYN,1999-07-12 20:00,ZBYN 122000Z AUTO 05002KT 7SM 20/19 A2977 RMK T02000190 IEM_DS3505
ZBYN,1999-07-12 21:00,ZBYN 122100Z AUTO 00000KT 4SM 20/17 A2977 RMK SLP059 T02020174 57001 IEM_DS3505
ZBYN,1999-07-12 22:00,ZBYN 122200Z AUTO 07002KT 5SM 20/19 A2980 RMK T02000190 IEM_DS3505
ZBYN,1999-07-12 23:00,ZBYN 122300Z AUTO 07010KT 6SM 21/19 A2980 RMK T02100190 IEM_DS3505
ZBYN,1999-07-13 00:00,ZBYN 130000Z AUTO 00000KT 5SM 21/18 A2980 RMK SLP071 T02140183 52008 IEM_DS3505
ZBYN,1999-07-13 01:00,ZBYN 130100Z AUTO 09010KT 7SM 22/19 A2980 RMK T02200190 IEM_DS3505
ZBYN,1999-07-13 02:00,ZBYN 130200Z AUTO 07008KT 5SM 23/20 A2980 RMK T02300200 IEM_DS3505
ZBYN,1999-07-13 03:00,ZBYN 130300Z AUTO 36004KT 4SM 24/18 A2980 RMK SLP068 T02360181 57001 IEM_DS3505
ZBYN,1999-07-13 04:00,ZBYN 130400Z AUTO 07008KT 6SM 24/20 A2980 RMK T02400200 IEM_DS3505
ZBYN,1999-07-13 05:00,ZBYN 130500Z AUTO 09010KT 5SM 25/17 A2977 RMK SLP059 T02480167 57002 IEM_DS3505
ZBYN,1999-07-13 06:00,ZBYN 130600Z AUTO 11006KT 4SM 26/18 A2977 RMK SLP058 T02640177 57007 IEM_DS3505
ZBYN,1999-07-13 07:00,ZBYN 130700Z AUTO 08010KT 7SM 27/19 A2974 RMK T02700190 IEM_DS3505
ZBYN,1999-07-13 08:00,ZBYN 130800Z AUTO 10012KT 6SM 25/20 A2977 RMK T02500200 IEM_DS3505
ZBYN,1999-07-13 09:00,ZBYN 130900Z AUTO 09010KT 5SM 25/17 A2977 RMK SLP059 T02480167 57002 IEM_DS3505
ZBYN,1999-07-13 10:00,ZBYN 131000Z AUTO 11010KT 6SM 25/20 A2977 RMK T02500200 IEM_DS3505
ZBYN,1999-07-13 12:00,ZBYN 131200Z AUTO 09004KT 4SM 22/17 RMK SLP066 T02240171 52004 IEM_DS3505
ZBYN,1999-07-13 14:00,ZBYN 131400Z AUTO 09010KT 7SM 21/19 A2980 RMK T02100190 IEM_DS3505
ZBYN,1999-07-13 15:00,ZBYN 131500Z AUTO 07002KT 6SM 22/17 A2983 RMK SLP072 T02180166 52008 IEM_DS3505
ZBYN,1999-07-13 16:00,ZBYN 131600Z AUTO 09010KT 7SM 20/19 A2983 RMK T02000190 IEM_DS3505
ZBYN,1999-07-13 17:00,ZBYN 131700Z AUTO 08008KT 7SM 20/19 A2983 RMK T02000190 IEM_DS3505
ZBYN,1999-07-13 18:00,ZBYN 131800Z AUTO 20002KT 4SM 19/18 A2983 RMK SLP077 T01920183 52005 IEM_DS3505
ZBYN,1999-07-13 19:00,ZBYN 131900Z AUTO 06004KT 7SM 19/19 A2983 RMK T01900190 IEM_DS3505
ZBYN,1999-07-13 20:00,ZBYN 132000Z AUTO 00000KT 3SM 19/19 A2983 RMK T01900190 IEM_DS3505
ZBYN,1999-07-13 21:00,ZBYN 132100Z AUTO 00000KT 2 1/2SM 19/18 A2983 RMK SLP081 T01890181 52001 IEM_DS3505
ZBYN,1999-07-13 22:00,ZBYN 132200Z AUTO 00000KT 2SM 19/19 A2985 RMK T01900190 IEM_DS3505
ZBYN,1999-07-13 23:00,ZBYN 132300Z AUTO 10002KT 1 1/2SM 19/19 A2985 RMK T01900190 IEM_DS3505
ZBYN,1999-07-14 00:00,ZBYN 140000Z AUTO 00000KT 1 1/4SM 20/19 A2985 RMK SLP097 T01980190 52012 IEM_DS3505
ZBYN,1999-07-14 01:00,ZBYN 140100Z AUTO 31002KT 1 1/2SM 21/20 A2985 RMK T02100200 IEM_DS3505
ZBYN,1999-07-14 02:00,ZBYN 140200Z AUTO 31002KT 2SM 22/21 A2985 RMK T02200210 IEM_DS3505
ZBYN,1999-07-14 03:00,ZBYN 140300Z AUTO 00000KT 4SM 23/18 A2985 RMK SLP090 T02280180 57003 IEM_DS3505
ZBYN,1999-07-14 04:00,ZBYN 140400Z AUTO 27002KT 3SM 23/20 A2985 RMK T02300200 IEM_DS3505
ZBYN,1999-07-14 05:00,ZBYN 140500Z AUTO 26002KT 6SM 25/20 A2983 RMK T02500200 IEM_DS3505
ZBYN,1999-07-14 06:00,ZBYN 140600Z AUTO 18002KT 5SM 26/18 A2980 RMK SLP070 T02630176 57017 IEM_DS3505
ZBYN,1999-07-14 07:00,ZBYN 140700Z AUTO 21004KT 7SM 27/21 A2980 RMK T02700210 IEM_DS3505
ZBYN,1999-07-14 08:00,ZBYN 140800Z AUTO 24002KT 7SM 27/19 A2980 RMK T02700190 IEM_DS3505
ZBYN,1999-07-14 09:00,ZBYN 140900Z AUTO 18006KT 5SM 27/19 A2980 RMK SLP065 T02670186 57004 IEM_DS3505
ZBYN,1999-07-14 10:00,ZBYN 141000Z AUTO 09008KT 7SM 21/19 A2980 RMK T02100190 IEM_DS3505
ZBYN,1999-07-14 11:00,ZBYN 141100Z AUTO 01002KT 7SM 21/20 A2983 RMK T02100200 IEM_DS3505
ZBYN,1999-07-14 12:00,ZBYN 141200Z AUTO 04006KT 6SM 19/18 A2980 RMK SLP083 T01930181 52007 IEM_DS3505
ZBYN,1999-07-14 13:00,ZBYN 141300Z AUTO 00000KT 7SM 20/19 A2983 RMK T02000190 IEM_DS3505
ZBYN,1999-07-14 14:00,ZBYN 141400Z AUTO 36002KT 6SM 20/20 A2983 RMK T02000200 IEM_DS3505
ZBYN,1999-07-14 15:00,ZBYN 141500Z AUTO 00000KT 4SM 19/18 A2983 RMK SLP084 T01880182 52005 IEM_DS3505
ZBYN,1999-07-14 16:00,ZBYN 141600Z AUTO 00000KT 6SM 19/19 A2983 RMK T01900190 IEM_DS3505
ZBYN,1999-07-14 17:00,ZBYN 141700Z AUTO 00000KT 6SM 18/18 A2983 RMK T01800180 IEM_DS3505
ZBYN,1999-07-14 18:00,ZBYN 141800Z AUTO 00000KT 5SM 18/17 A2983 RMK SLP076 T01840170 57003 IEM_DS3505
ZBYN,1999-07-14 19:00,ZBYN 141900Z AUTO 14002KT 3SM 17/17 A2980 RMK T01700170 IEM_DS3505
ZBYN,1999-07-14 21:00,ZBYN 142100Z AUTO 00000KT 2SM 17/16 A2983 RMK SLP076 T01700164 57002 IEM_DS3505
ZBYN,1999-07-14 22:00,ZBYN 142200Z AUTO 12002KT 1 1/4SM 17/17 A2983 RMK T01700170 IEM_DS3505
ZBYN,1999-07-14 23:00,ZBYN 142300Z AUTO 00000KT 1SM 17/17 A2983 RMK T01700170 IEM_DS3505
ZBYN,1999-07-15 00:00,ZBYN 150000Z AUTO 00000KT 4SM 20/17 A2983 RMK SLP094 T01990167 52010 IEM_DS3505
ZBYN,1999-07-15 01:00,ZBYN 150100Z AUTO 08002KT 1 1/4SM 21/20 A2983 RMK T02100200 IEM_DS3505
ZBYN,1999-07-15 02:00,ZBYN 150200Z AUTO 00000KT 2SM 23/20 A2983 RMK T02300200 IEM_DS3505
ZBYN,1999-07-15 03:00,ZBYN 150300Z AUTO 00000KT 5SM 26/18 A2980 RMK SLP070 T02550177 57014 IEM_DS3505
ZBYN,1999-07-15 04:00,ZBYN 150400Z AUTO 00000KT 2 1/2SM 26/21 A2980 RMK T02600210 IEM_DS3505
ZBYN,1999-07-15 05:00,ZBYN 150500Z AUTO 22002KT 27/21 A2977 RMK T02700210 IEM_DS3505
ZBYN,1999-07-15 06:00,ZBYN 150600Z AUTO 14004KT 6SM 29/18 A2974 RMK SLP050 T02870176 57015 IEM_DS3505
ZBYN,1999-07-15 07:00,ZBYN 150700Z AUTO 21002KT 7SM 29/20 A2971 RMK T02900200 IEM_DS3505
ZBYN,1999-07-15 08:00,ZBYN 150800Z AUTO 21002KT 7SM 29/19 A2971 RMK T02900190 IEM_DS3505
ZBYN,1999-07-15 09:00,ZBYN 150900Z AUTO 22002KT 7SM 30/16 A2971 RMK SLP031 T03000157 57017 IEM_DS3505
ZBYN,1999-07-15 10:00,ZBYN 151000Z AUTO 00000KT 7SM 29/19 A2971 RMK T02900190 IEM_DS3505
ZBYN,1999-07-15 11:00,ZBYN 151100Z AUTO 10002KT 7SM 28/19 A2971 RMK T02800190 IEM_DS3505
ZBYN,1999-07-15 12:00,ZBYN 151200Z AUTO 07008KT 7SM 25/16 A2974 RMK SLP045 T02540156 52010 IEM_DS3505
ZBYN,1999-07-15 13:00,ZBYN 151300Z AUTO 08010KT 7SM 24/18 A2977 RMK T02400180 IEM_DS3505
ZBYN,1999-07-15 14:00,ZBYN 151400Z AUTO 07006KT 7SM 23/18 A2974 RMK T02300180 IEM_DS3505
ZBYN,1999-07-15 15:00,ZBYN 151500Z AUTO 00000KT 6SM 21/17 A2974 RMK SLP050 T02100167 52006 IEM_DS3505
ZBYN,1999-07-15 16:00,ZBYN 151600Z AUTO 00000KT 6SM 20/19 A2974 RMK T02000190 IEM_DS3505
ZBYN,1999-07-15 17:00,ZBYN 151700Z AUTO 15002KT 6SM 19/19 A2974 RMK T01900190 IEM_DS3505
ZBYN,1999-07-15 18:00,ZBYN 151800Z AUTO 00000KT 6SM 20/16 A2974 RMK SLP039 T02050162 57006 IEM_DS3505
ZBYN,1999-07-15 19:00,ZBYN 151900Z AUTO 00000KT 5SM 18/18 A2974 RMK T01800180 IEM_DS3505
ZBYN,1999-07-15 21:00,ZBYN 152100Z AUTO 00000KT 6SM 17/16 RMK SLP050 T01670157 52007 IEM_DS3505
ZBYN,1999-07-16 00:00,ZBYN 160000Z AUTO 00000KT 5SM 22/18 RMK SLP056 T02200180 52006 IEM_DS3505
ZBYN,1999-07-16 03:00,ZBYN 160300Z AUTO 00000KT 7SM 27/19 A2974 RMK T02700190 IEM_DS3505
ZBYN,1999-07-16 04:00,ZBYN 160400Z AUTO 20002KT 7SM 28/19 A2974 RMK T02800190 IEM_DS3505
ZBYN,1999-07-16 05:00,ZBYN 160500Z AUTO 17002KT 7SM 29/19 A2971 RMK T02900190 IEM_DS3505
ZBYN,1999-07-16 06:00,ZBYN 160600Z AUTO 14004KT 6SM 30/16 A2968 RMK SLP029 T03020160 57015 IEM_DS3505
ZBYN,1999-07-16 07:00,ZBYN 160700Z AUTO 19002KT 7SM 31/18 A2968 RMK T03100180 IEM_DS3505
ZBYN,1999-07-16 08:00,ZBYN 160800Z AUTO 24004KT 7SM 31/18 A2965 RMK T03100180 IEM_DS3505
ZBYN,1999-07-16 09:00,ZBYN 160900Z AUTO 18004KT 7SM 29/18 A2965 RMK SLP023 T02940181 57012 IEM_DS3505
ZBYN,1999-07-16 10:00,ZBYN 161000Z AUTO 00000KT 7SM 29/21 A2965 RMK T02900210 IEM_DS3505
ZBYN,1999-07-16 11:00,ZBYN 161100Z AUTO 10002KT 7SM 29/17 A2968 RMK T02900170 IEM_DS3505
ZBYN,1999-07-16 12:00,ZBYN 161200Z AUTO 14004KT 9SM 26/17 A2971 RMK SLP025 T02610166 52005 IEM_DS3505
ZBYN,1999-07-16 13:00,ZBYN 161300Z AUTO 08006KT 6SM 26/17 A2974 RMK T02600170 IEM_DS3505
ZBYN,1999-07-16 14:00,ZBYN 161400Z AUTO 09008KT 6SM 25/17 A2974 RMK T02500170 IEM_DS3505
ZBYN,1999-07-16 15:00,ZBYN 161500Z AUTO 04002KT 7SM 23/15 A2974 RMK SLP043 T02310154 52019 IEM_DS3505
ZBYN,1999-07-16 16:00,ZBYN 161600Z AUTO 07004KT 6SM 24/17 A2974 RMK T02400170 IEM_DS3505
ZBYN,1999-07-16 17:00,ZBYN 161700Z AUTO 13004KT 6SM 20/18 A2977 RMK T02000180 IEM_DS3505
ZBYN,1999-07-16 18:00,ZBYN 161800Z AUTO 00000KT 7SM 21/16 A2977 RMK SLP043 T02070161 52001 IEM_DS3505
ZBYN,1999-07-16 19:00,ZBYN 161900Z AUTO 14002KT 6SM 19/17 A2974 RMK T01900170 IEM_DS3505
ZBYN,1999-07-16 20:00,ZBYN 162000Z AUTO 00000KT 7SM 18/17 A2974 RMK T01800170 IEM_DS3505
ZBYN,1999-07-16 21:00,ZBYN 162100Z AUTO 00000KT 5SM 18/16 A2977 RMK SLP050 T01820161 52002 IEM_DS3505
ZBYN,1999-07-16 22:00,ZBYN 162200Z AUTO 00000KT 6SM 18/18 A2977 RMK T01800180 IEM_DS3505
ZBYN,1999-07-16 23:00,ZBYN 162300Z AUTO 13002KT 4SM 20/18 A2977 RMK T02000180 IEM_DS3505
ZBYN,1999-07-17 00:00,ZBYN 170000Z AUTO 00000KT 5SM 22/16 A2977 RMK SLP059 T02200163 52009 IEM_DS3505
ZBYN,1999-07-17 01:00,ZBYN 170100Z AUTO 00000KT 24/18 A2977 RMK T02400180 IEM_DS3505
ZBYN,1999-07-17 02:00,ZBYN 170200Z AUTO 11002KT 5SM 26/20 A2977 RMK T02600200 IEM_DS3505
ZBYN,1999-07-17 03:00,ZBYN 170300Z AUTO 00000KT 5SM 28/18 A2977 RMK SLP047 T02750176 57008 IEM_DS3505
ZBYN,1999-07-17 04:00,ZBYN 170400Z AUTO 18002KT 7SM 29/20 A2974 RMK T02900200 IEM_DS3505
ZBYN,1999-07-17 06:00,ZBYN 170600Z AUTO 18002KT 6SM 30/17 A2971 RMK SLP035 T03030172 57010 IEM_DS3505
ZBYN,1999-07-17 07:00,ZBYN 170700Z AUTO 26002KT 7SM 32/17 A2968 RMK T03200170 IEM_DS3505
ZBYN,1999-07-17 08:00,ZBYN 170800Z AUTO 25002KT 7SM 32/19 A2968 RMK T03200190 IEM_DS3505
ZBYN,1999-07-17 09:00,ZBYN 170900Z AUTO 20008KT 7SM 30/16 A2968 RMK SLP024 T03050164 57013 IEM_DS3505
ZBYN,1999-07-17 10:00,ZBYN 171000Z AUTO 08006KT 7SM 23/20 A2968 RMK T02300200 IEM_DS3505
ZBYN,1999-07-17 11:00,ZBYN 171100Z AUTO 10002KT 6SM 25/21 A2965 RMK T02500210 IEM_DS3505
ZBYN,1999-07-17 12:00,ZBYN 171200Z AUTO 00000KT 6SM 24/18 A2968 RMK SLP031 T02400182 52002 IEM_DS3505
ZBYN,1999-07-17 13:00,ZBYN 171300Z AUTO 00000KT 6SM 23/22 A2971 RMK T02300220 IEM_DS3505
ZBYN,1999-07-17 14:00,ZBYN 171400Z AUTO 08004KT 6SM 22/21 A2971 RMK T02200210 IEM_DS3505
ZBYN,1999-07-17 15:00,ZBYN 171500Z AUTO 00000KT 6SM 22/18 A2974 RMK SLP039 T02180179 52012 IEM_DS3505
ZBYN,1999-07-17 16:00,ZBYN 171600Z AUTO 00000KT 6SM 21/20 A2974 RMK T02100200 IEM_DS3505
ZBYN,1999-07-17 17:00,ZBYN 171700Z AUTO 00000KT 6SM 20/19 A2974 RMK T02000190 IEM_DS3505
ZBYN,1999-07-17 18:00,ZBYN 171800Z AUTO 00000KT 6SM 20/18 A2971 RMK SLP036 T02040176 57001 IEM_DS3505
ZBYN,1999-07-17 19:00,ZBYN 171900Z AUTO 13002KT 6SM 19/19 A2971 RMK T01900190 IEM_DS3505
ZBYN,1999-07-17 20:00,ZBYN 172000Z AUTO 00000KT 6SM 19/19 A2971 RMK T01900190 IEM_DS3505
ZBYN,1999-07-17 21:00,ZBYN 172100Z AUTO 00000KT 6SM 18/17 A2971 RMK SLP039 T01820169 54000 IEM_DS3505
ZBYN,1999-07-17 22:00,ZBYN 172200Z AUTO 00000KT 5SM 18/18 A2971 RMK T01800180 IEM_DS3505
ZBYN,1999-07-17 23:00,ZBYN 172300Z AUTO 00000KT 3SM 19/19 A2974 RMK T01900190 IEM_DS3505
ZBYN,1999-07-18 00:00,ZBYN 180000Z AUTO 00000KT 5SM 22/18 A2974 RMK SLP045 T02210183 52002 IEM_DS3505
ZBYN,1999-07-18 01:00,ZBYN 180100Z AUTO 00000KT 6SM 24/20 A2974 RMK T02400200 IEM_DS3505
ZBYN,1999-07-18 02:00,ZBYN 180200Z AUTO 00000KT 6SM 26/21 A2971 RMK T02600210 IEM_DS3505
ZBYN,1999-07-18 03:00,ZBYN 180300Z AUTO 00000KT 6SM 29/18 A2971 RMK SLP028 T02860175 57009 IEM_DS3505
ZBYN,1999-07-18 04:00,ZBYN 180400Z AUTO 00000KT 7SM 29/21 A2968 RMK T02900210 IEM_DS3505
ZBYN,1999-07-18 05:00,ZBYN 180500Z AUTO 21002KT 7SM 31/20 A2968 RMK T03100200 IEM_DS3505
ZBYN,1999-07-18 06:00,ZBYN 180600Z AUTO 16004KT 7SM 32/17 A2962 RMK SLP000 T03230168 57023 IEM_DS3505
ZBYN,1999-07-18 07:00,ZBYN 180700Z AUTO 00000KT 7SM 33/17 A2962 RMK T03300170 IEM_DS3505
ZBYN,1999-07-18 08:00,ZBYN 180800Z AUTO 06004KT 7SM 33/18 A2962 RMK T03300180 IEM_DS3505
ZBYN,1999-07-18 09:00,ZBYN 180900Z AUTO 16010KT 9SM 31/19 A2962 RMK SLP001 T03090186 57004 IEM_DS3505
ZBYN,1999-07-18 10:00,ZBYN 181000Z AUTO 20004KT 7SM 29/19 A2962 RMK T02900190 IEM_DS3505
ZBYN,1999-07-18 11:00,ZBYN 181100Z AUTO 13002KT 7SM 27/19 A2962 RMK T02700190 IEM_DS3505
ZBYN,1999-07-18 12:00,ZBYN 181200Z AUTO 09002KT 6SM 26/18 A2965 RMK SLP011 T02630183 52008 IEM_DS3505
ZBYN,1999-07-18 13:00,ZBYN 181300Z AUTO 11004KT 6SM 25/20 A2965 RMK T02500200 IEM_DS3505
ZBYN,1999-07-18 15:00,ZBYN 181500Z AUTO 14002KT 6SM 22/18 A2968 RMK SLP017 T02220182 52009 IEM_DS3505
ZBYN,1999-07-18 16:00,ZBYN 181600Z AUTO 12004KT 6SM 23/19 A2968 RMK T02300190 IEM_DS3505
ZBYN,1999-07-18 18:00,ZBYN 181800Z AUTO 00000KT 6SM 21/18 A2968 RMK SLP016 T02060180 52002 IEM_DS3505
ZBYN,1999-07-18 19:00,ZBYN 181900Z AUTO 05002KT 4SM 21/20 A2968 RMK T02100200 IEM_DS3505
ZBYN,1999-07-18 20:00,ZBYN 182000Z AUTO 00000KT 4SM 20/20 A2968 RMK T02000200 IEM_DS3505
ZBYN,1999-07-18 21:00,ZBYN 182100Z AUTO 00000KT 4SM 19/18 A2971 RMK SLP026 T01900176 52005 IEM_DS3505
ZBYN,1999-07-18 22:00,ZBYN 182200Z AUTO 10002KT 2 1/2SM 20/20 A2971 RMK T02000200 IEM_DS3505
ZBYN,1999-07-18 23:00,ZBYN 182300Z AUTO 13002KT 1SM 21/21 A2971 RMK T02100210 IEM_DS3505
ZBYN,1999-07-19 00:00,ZBYN 190000Z AUTO 00000KT 2SM 23/19 A2971 RMK SLP028 T02270186 52001 IEM_DS3505
ZBYN,1999-07-19 01:00,ZBYN 190100Z AUTO 27002KT 1 1/2SM 24/22 A2971 RMK T02400220 IEM_DS3505
ZBYN,1999-07-19 02:00,ZBYN 190200Z AUTO 00000KT 2SM 26/21 A2971 RMK T02600210 IEM_DS3505
ZBYN,1999-07-19 03:00,ZBYN 190300Z AUTO 18002KT 2 1/2SM 28/20 A2971 RMK SLP029 T02810200 52002 IEM_DS3505
ZBYN,1999-07-19 04:00,ZBYN 190400Z AUTO 00000KT 5SM 30/20 A2968 RMK T03000200 IEM_DS3505
ZBYN,1999-07-19 05:00,ZBYN 190500Z AUTO 22002KT 6SM 31/21 A2965 RMK T03100210 IEM_DS3505
ZBYN,1999-07-19 06:00,ZBYN 190600Z AUTO 22004KT 4SM 32/18 A2962 RMK SLP001 T03160184 57023 IEM_DS3505
ZBYN,1999-07-19 07:00,ZBYN 190700Z AUTO 22004KT 7SM 32/21 A2962 RMK T03200210 IEM_DS3505
ZBYN,1999-07-19 08:00,ZBYN 190800Z AUTO 26004KT 7SM 33/20 A2959 RMK T03300200 IEM_DS3505
ZBYN,1999-07-19 09:00,ZBYN 190900Z AUTO 14006KT 6SM 31/18 A2962 RMK SLP999 T03120184 57004 IEM_DS3505
ZBYN,1999-07-19 10:00,ZBYN 191000Z AUTO 14008KT 7SM 29/20 A2959 RMK T02900200 IEM_DS3505
ZBYN,1999-07-19 11:00,ZBYN 191100Z AUTO 07002KT 7SM 28/18 A2962 RMK T02800180 IEM_DS3505
ZBYN,1999-07-19 12:00,ZBYN 191200Z AUTO 00000KT 6SM 26/18 A2965 RMK SLP014 T02550177 52011 IEM_DS3505
ZBYN,1999-07-19 13:00,ZBYN 191300Z AUTO 09008KT 6SM 26/19 A2968 RMK T02600190 IEM_DS3505
ZBYN,1999-07-19 14:00,ZBYN 191400Z AUTO 09008KT 6SM 25/19 A2968 RMK T02500190 IEM_DS3505
ZBYN,1999-07-19 15:00,ZBYN 191500Z AUTO 00000KT 6SM 24/18 A2971 RMK SLP024 T02430182 52015 IEM_DS3505
ZBYN,1999-07-19 16:00,ZBYN 191600Z AUTO 09004KT 4SM 24/20 A2968 RMK T02400200 IEM_DS3505
ZBYN,1999-07-19 17:00,ZBYN 191700Z AUTO 11002KT 4SM 22/20 A2968 RMK T02200200 IEM_DS3505
ZBYN,1999-07-19 18:00,ZBYN 191800Z AUTO 00000KT 6SM 21/18 A2971 RMK SLP027 T02110182 52003 IEM_DS3505
ZBYN,1999-07-19 19:00,ZBYN 191900Z AUTO 00000KT 4SM 22/21 A2971 RMK T02200210 IEM_DS3505
ZBYN,1999-07-19 20:00,ZBYN 192000Z AUTO 12002KT 4SM 21/21 A2971 RMK T02100210 IEM_DS3505
ZBYN,1999-07-19 21:00,ZBYN 192100Z AUTO 32002KT 6SM 20/17 A2971 RMK SLP028 T02050174 57001 IEM_DS3505
ZBYN,1999-07-19 22:00,ZBYN 192200Z AUTO 00000KT 1SM 20/20 A2971 RMK T02000200 IEM_DS3505
ZBYN,1999-07-19 23:00,ZBYN 192300Z AUTO 00000KT 1SM 21/21 A2974 RMK T02100210 IEM_DS3505
ZBYN,1999-07-20 00:00,ZBYN 200000Z AUTO 00000KT 6SM 23/18 A2974 RMK SLP040 T02320176 52007 IEM_DS3505
ZBYN,1999-07-20 02:00,ZBYN 200200Z AUTO 23002KT 2 1/2SM 26/21 A2974 RMK T02600210 IEM_DS3505
ZBYN,1999-07-20 03:00,ZBYN 200300Z AUTO 00000KT 6SM 29/18 A2974 RMK SLP033 T02870185 54000 IEM_DS3505
ZBYN,1999-07-20 04:00,ZBYN 200400Z AUTO 00000KT 29/20 A2971 RMK T02900200 IEM_DS3505
ZBYN,1999-07-20 05:00,ZBYN 200500Z AUTO 17002KT 7SM 31/20 A2968 RMK T03100200 IEM_DS3505
ZBYN,1999-07-20 06:00,ZBYN 200600Z AUTO 14002KT 6SM 32/17 A2965 RMK SLP014 T03150173 57018 IEM_DS3505
ZBYN,1999-07-20 07:00,ZBYN 200700Z AUTO 23004KT 7SM 32/19 A2965 RMK T03200190 IEM_DS3505
ZBYN,1999-07-20 08:00,ZBYN 200800Z AUTO 00000KT 7SM 32/18 A2962 RMK T03200180 IEM_DS3505
ZBYN,1999-07-20 09:00,ZBYN 200900Z AUTO 32008KT 6SM 30/18 A2965 RMK SLP014 T02990177 57003 IEM_DS3505
ZBYN,1999-07-20 10:00,ZBYN 201000Z AUTO 05008KT 7SM 29/20 A2965 RMK T02900200 IEM_DS3505
ZBYN,1999-07-20 11:00,ZBYN 201100Z AUTO 34010KT 7SM 21/20 A2974 RMK T02100200 IEM_DS3505
ZBYN,1999-07-20 12:00,ZBYN 201200Z AUTO 34002KT 5SM 21/19 A2974 RMK SLP050 T02080190 52024 IEM_DS3505
ZBYN,1999-07-20 13:00,ZBYN 201300Z AUTO 12004KT 7SM 21/21 A2974 RMK T02100210 IEM_DS3505
ZBYN,1999-07-20 14:00,ZBYN 201400Z AUTO 31002KT 5SM 21/21 A2977 RMK T02100210 IEM_DS3505
ZBYN,1999-07-20 15:00,ZBYN 201500Z AUTO 32004KT 5SM 21/19 A2977 RMK SLP060 T02080190 52017 IEM_DS3505
ZBYN,1999-07-20 16:00,ZBYN 201600Z AUTO 35006KT 5SM 21/21 A2977 RMK T02100210 IEM_DS3505
ZBYN,1999-07-20 17:00,ZBYN 201700Z AUTO 32004KT 6SM 21/21 A2977 RMK T02100210 IEM_DS3505
ZBYN,1999-07-20 18:00,ZBYN 201800Z AUTO 34004KT 5SM 21/19 A2974 RMK SLP045 T02100190 57010 IEM_DS3505
ZBYN,1999-07-20 19:00,ZBYN 201900Z AUTO 00000KT 6SM 21/21 A2977 RMK T02100210 IEM_DS3505
ZBYN,1999-07-20 20:00,ZBYN 202000Z AUTO 32002KT 4SM 20/20 A2977 RMK T02000200 IEM_DS3505
ZBYN,1999-07-20 21:00,ZBYN 202100Z AUTO 00000KT 5SM 20/19 A2980 RMK SLP058 T02030186 52009 IEM_DS3505
ZBYN,1999-07-20 22:00,ZBYN 202200Z AUTO 00000KT 4SM 21/21 A2980 RMK T02100210 IEM_DS3505
ZBYN,1999-07-20 23:00,ZBYN 202300Z AUTO 00000KT 2SM 21/21 A2980 RMK T02100210 IEM_DS3505
ZBYN,1999-07-21 00:00,ZBYN 210000Z AUTO 32002KT 5SM 22/19 A2983 RMK SLP084 T02200193 52013 IEM_DS3505
ZBYN,1999-07-21 02:00,ZBYN 210200Z AUTO 00000KT 4SM 25/21 A2983 RMK T02500210 IEM_DS3505
ZBYN,1999-07-21 03:00,ZBYN 210300Z AUTO 14004KT 3SM 27/19 A2983 RMK SLP074 T02670194 57002 IEM_DS3505
ZBYN,1999-07-21 04:00,ZBYN 210400Z AUTO 18002KT 28/22 A2980 RMK T02800220 IEM_DS3505
ZBYN,1999-07-21 05:00,ZBYN 210500Z AUTO 20002KT 29/21 A2977 RMK T02900210 IEM_DS3505
ZBYN,1999-07-21 06:00,ZBYN 210600Z AUTO 18004KT 4SM 30/19 A2977 RMK SLP052 T02970188 57016 IEM_DS3505
ZBYN,1999-07-21 07:00,ZBYN 210700Z AUTO 00000KT 5SM 31/21 A2974 RMK T03100210 IEM_DS3505
ZBYN,1999-07-21 08:00,ZBYN 210800Z AUTO 27002KT 6SM 30/21 A2974 RMK T03000210 IEM_DS3505
ZBYN,1999-07-21 09:00,ZBYN 210900Z AUTO 18004KT 4SM 30/20 A2974 RMK SLP037 T03050195 57014 IEM_DS3505
ZBYN,1999-07-21 10:00,ZBYN 211000Z AUTO 12004KT 6SM 31/20 A2971 RMK T03100200 IEM_DS3505
ZBYN,1999-07-21 11:00,ZBYN 211100Z AUTO 09010KT 7SM 28/20 A2974 RMK T02800200 IEM_DS3505
ZBYN,1999-07-21 12:00,ZBYN 211200Z AUTO 18002KT 6SM 27/17 A2977 RMK SLP051 T02660169 52010 IEM_DS3505
ZBYN,1999-07-21 13:00,ZBYN 211300Z AUTO 08008KT 6SM 26/18 A2980 RMK T02600180 IEM_DS3505
ZBYN,1999-07-21 15:00,ZBYN 211500Z AUTO 07004KT 6SM 25/19 RMK SLP067 T02500193 52019 IEM_DS3505
ZBYN,1999-07-21 16:00,ZBYN 211600Z AUTO 09010KT 6SM 25/22 A2983 RMK T02500220 IEM_DS3505
ZBYN,1999-07-21 17:00,ZBYN 211700Z AUTO 08004KT 6SM 24/22 A2983 RMK T02400220 IEM_DS3505
ZBYN,1999-07-21 18:00,ZBYN 211800Z AUTO 34002KT 6SM 24/19 A2983 RMK SLP065 T02350188 54000 IEM_DS3505
ZBYN,1999-07-21 19:00,ZBYN 211900Z AUTO 00000KT 6SM 24/22 A2983 RMK T02400220 IEM_DS3505
ZBYN,1999-07-21 20:00,ZBYN 212000Z AUTO 00000KT 4SM 23/22 A2983 RMK T02300220 IEM_DS3505
ZBYN,1999-07-21 21:00,ZBYN 212100Z AUTO 34002KT 5SM 22/19 A2980 RMK SLP063 T02240192 57002 IEM_DS3505
ZBYN,1999-07-21 22:00,ZBYN 212200Z AUTO 34002KT 2SM 23/22 A2983 RMK T02300220 IEM_DS3505
ZBYN,1999-07-21 23:00,ZBYN 212300Z AUTO 00000KT 1 1/4SM 23/22 A2983 RMK T02300220 IEM_DS3505
ZBYN,1999-07-22 00:00,ZBYN 220000Z AUTO 00000KT 4SM 24/20 RMK SLP074 T02400200 52007 IEM_DS3505
ZBYN,1999-07-22 02:00,ZBYN 220200Z AUTO 01002KT 2SM 27/22 A2983 RMK T02700220 IEM_DS3505
ZBYN,1999-07-22 03:00,ZBYN 220300Z AUTO 02002KT 4SM 29/19 A2983 RMK SLP068 T02890189 57001 IEM_DS3505
ZBYN,1999-07-22 04:00,ZBYN 220400Z AUTO 27002KT 30/22 A2983 RMK T03000220 IEM_DS3505
ZBYN,1999-07-22 05:00,ZBYN 220500Z AUTO 29002KT 6SM 30/22 A2980 RMK T03000220 IEM_DS3505
ZBYN,1999-07-22 06:00,ZBYN 220600Z AUTO 18006KT 4SM 31/21 A2977 RMK SLP053 T03100206 57013 IEM_DS3505
ZBYN,1999-07-22 07:00,ZBYN 220700Z AUTO 02010KT 7SM 31/20 A2977 RMK T03100200 IEM_DS3505
ZBYN,1999-07-22 08:00,ZBYN 220800Z AUTO 09010KT 7SM 26/21 A2977 RMK T02600210 IEM_DS3505
ZBYN,1999-07-22 09:00,ZBYN 220900Z AUTO 00000KT 5SM 25/21 A2977 RMK SLP058 T02490213 57005 IEM_DS3505
ZBYN,1999-07-22 10:00,ZBYN 221000Z AUTO 04004KT 7SM 26/22 A2977 RMK T02600220 IEM_DS3505
ZBYN,1999-07-22 11:00,ZBYN 221100Z AUTO 08002KT 6SM 27/21 A2977 RMK T02700210 IEM_DS3505
ZBYN,1999-07-22 12:00,ZBYN 221200Z AUTO 29002KT 6SM 25/22 A2977 RMK SLP055 T02460215 57001 IEM_DS3505
ZBYN,1999-07-22 13:00,ZBYN 221300Z AUTO 00000KT 6SM 24/22 A2980 RMK T02400220 IEM_DS3505
ZBYN,1999-07-22 14:00,ZBYN 221400Z AUTO 00000KT 4SM 24/22 A2980 RMK T02400220 IEM_DS3505
ZBYN,1999-07-22 15:00,ZBYN 221500Z AUTO 00000KT 6SM 24/19 A2983 RMK SLP059 T02350194 52009 IEM_DS3505
ZBYN,1999-07-22 16:00,ZBYN 221600Z AUTO 12002KT 4SM 21/21 A2983 RMK T02100210 IEM_DS3505
ZBYN,1999-07-22 17:00,ZBYN 221700Z AUTO 00000KT 3SM 22/21 A2980 RMK T02200210 IEM_DS3505
ZBYN,1999-07-22 18:00,ZBYN 221800Z AUTO 34006KT 6SM 23/19 RMK SLP056 T02260188 57001 IEM_DS3505
ZBYN,1999-07-22 19:00,ZBYN 221900Z AUTO 14002KT 3SM 19/19 A2980 RMK T01900190 IEM_DS3505
ZBYN,1999-07-22 20:00,ZBYN 222000Z AUTO 00000KT 2SM 20/20 A2980 RMK T02000200 IEM_DS3505
ZBYN,1999-07-22 21:00,ZBYN 222100Z AUTO 00000KT 4SM 20/19 A2980 RMK SLP066 T01990187 57003 IEM_DS3505
ZBYN,1999-07-22 22:00,ZBYN 222200Z AUTO 07002KT 2SM 19/19 A2980 RMK T01900190 IEM_DS3505
ZBYN,1999-07-23 00:00,ZBYN 230000Z AUTO 00000KT 4SM 23/20 A2980 RMK SLP071 T02270197 52008 IEM_DS3505
ZBYN,1999-07-23 01:00,ZBYN 230100Z AUTO 18002KT 2 1/2SM 24/22 A2983 RMK T02400220 IEM_DS3505
ZBYN,1999-07-23 02:00,ZBYN 230200Z AUTO 00000KT 2 1/2SM 26/22 A2980 RMK T02600220 IEM_DS3505
ZBYN,1999-07-23 03:00,ZBYN 230300Z AUTO 18002KT 4SM 29/22 A2980 RMK SLP061 T02890216 57002 IEM_DS3505
ZBYN,1999-07-23 04:00,ZBYN 230400Z AUTO 00000KT 30/23 A2980 RMK T03000230 IEM_DS3505
ZBYN,1999-07-23 05:00,ZBYN 230500Z AUTO 27002KT 32/23 A2977 RMK T03200230 IEM_DS3505
ZBYN,1999-07-23 06:00,ZBYN 230600Z AUTO 22006KT 6SM 32/21 A2974 RMK SLP039 T03210210 57017 IEM_DS3505
ZBYN,1999-07-23 07:00,ZBYN 230700Z AUTO 27002KT 7SM 33/21 A2974 RMK T03300210 IEM_DS3505
ZBYN,1999-07-23 08:00,ZBYN 230800Z AUTO 24002KT 7SM 34/21 A2971 RMK T03400210 IEM_DS3505
ZBYN,1999-07-23 09:00,ZBYN 230900Z AUTO 18004KT 6SM 34/20 A2971 RMK SLP029 T03400196 57011 IEM_DS3505
ZBYN,1999-07-23 10:00,ZBYN 231000Z AUTO 11008KT 6SM 35/15 A2968 RMK T03500150 IEM_DS3505
ZBYN,1999-07-23 11:00,ZBYN 231100Z AUTO 12004KT 6SM 33/16 A2971 RMK T03300160 IEM_DS3505
ZBYN,1999-07-23 12:00,ZBYN 231200Z AUTO 00000KT 6SM 28/21 A2971 RMK SLP032 T02840212 57001 IEM_DS3505
ZBYN,1999-07-23 13:00,ZBYN 231300Z AUTO 08002KT 6SM 28/17 A2971 RMK T02800170 IEM_DS3505
ZBYN,1999-07-23 15:00,ZBYN 231500Z AUTO 00000KT 6SM 23/18 A2974 RMK SLP042 T02340185 52011 IEM_DS3505
ZBYN,1999-07-23 16:00,ZBYN 231600Z AUTO 12002KT 6SM 23/18 A2974 RMK T02300180 IEM_DS3505
ZBYN,1999-07-23 17:00,ZBYN 231700Z AUTO 12002KT 6SM 21/18 A2974 RMK T02100180 IEM_DS3505
ZBYN,1999-07-23 18:00,ZBYN 231800Z AUTO 00000KT 6SM 21/19 A2974 RMK SLP041 T02100189 54000 IEM_DS3505
ZBYN,1999-07-23 20:00,ZBYN 232000Z AUTO 13002KT 6SM 20/18 A2974 RMK T02000180 IEM_DS3505
ZBYN,1999-07-23 21:00,ZBYN 232100Z AUTO 00000KT 4SM 19/19 A2974 RMK SLP041 T01920186 54000 IEM_DS3505
ZBYN,1999-07-23 22:00,ZBYN 232200Z AUTO 13002KT 6SM 19/18 A2974 RMK T01900180 IEM_DS3505
ZBYN,1999-07-23 23:00,ZBYN 232300Z AUTO 14002KT 6SM 22/20 A2974 RMK T02200200 IEM_DS3505
ZBYN,1999-07-24 00:00,ZBYN 240000Z AUTO 00000KT 4SM 24/20 A2974 RMK SLP043 T02410195 52001 IEM_DS3505
ZBYN,1999-07-24 01:00,ZBYN 240100Z AUTO 15002KT 6SM 26/20 A2974 RMK T02600200 IEM_DS3505
ZBYN,1999-07-24 02:00,ZBYN 240200Z AUTO 00000KT 6SM 28/20 A2974 RMK T02800200 IEM_DS3505
ZBYN,1999-07-24 03:00,ZBYN 240300Z AUTO 00000KT 4SM 30/19 A2971 RMK SLP030 T03050193 57010 IEM_DS3505
ZBYN,1999-07-24 04:00,ZBYN 240400Z AUTO 21002KT 5SM 32/21 A2971 RMK T03200210 IEM_DS3505
ZBYN,1999-07-24 05:00,ZBYN 240500Z AUTO 29002KT 6SM 34/21 A2968 RMK T03400210 IEM_DS3505
ZBYN,1999-07-24 06:00,ZBYN 240600Z AUTO 18002KT 4SM 35/18 A2965 RMK SLP001 T03480184 57024 IEM_DS3505
ZBYN,1999-07-24 07:00,ZBYN 240700Z AUTO 00000KT 6SM 37/20 A2962 RMK T03700200 IEM_DS3505
ZBYN,1999-07-24 08:00,ZBYN 240800Z AUTO 21004KT 6SM 36/21 A2959 RMK T03600210 IEM_DS3505
ZBYN,1999-07-24 09:00,ZBYN 240900Z AUTO 20008KT 6SM 35/20 A2959 RMK SLP982 T03530204 57019 IEM_DS3505
ZBYN,1999-07-24 10:00,ZBYN 241000Z AUTO 25002KT 7SM 35/23 A2959 RMK T03500230 IEM_DS3505
ZBYN,1999-07-24 11:00,ZBYN 241100Z AUTO 00000KT 7SM 34/22 A2959 RMK T03400220 IEM_DS3505
ZBYN,1999-07-24 12:00,ZBYN 241200Z AUTO 00000KT 6SM 30/22 A2959 RMK SLP993 T02980223 52009 IEM_DS3505
ZBYN,1999-07-24 13:00,ZBYN 241300Z AUTO 00000KT 6SM 30/21 A2962 RMK T03000210 IEM_DS3505
ZBYN,1999-07-24 14:00,ZBYN 241400Z AUTO 00000KT 6SM 28/22 A2962 RMK T02800220 IEM_DS3505
ZBYN,1999-07-24 15:00,ZBYN 241500Z AUTO 00000KT 6SM 26/20 A2965 RMK SLP000 T02620205 52010 IEM_DS3505
ZBYN,1999-07-24 16:00,ZBYN 241600Z AUTO 00000KT 6SM 26/22 A2965 RMK T02600220 IEM_DS3505
ZBYN,1999-07-24 17:00,ZBYN 241700Z AUTO 00000KT 6SM 26/20 A2965 RMK T02600200 IEM_DS3505
ZBYN,1999-07-24 18:00,ZBYN 241800Z AUTO 32002KT 6SM 26/17 A2965 RMK SLP995 T02600172 52001 IEM_DS3505
ZBYN,1999-07-24 19:00,ZBYN 241900Z AUTO 00000KT 6SM 23/20 A2965 RMK T02300200 IEM_DS3505
ZBYN,1999-07-24 20:00,ZBYN 242000Z AUTO 00000KT 6SM 24/20 A2965 RMK T02400200 IEM_DS3505
ZBYN,1999-07-24 21:00,ZBYN 242100Z AUTO 34002KT 6SM 26/15 A2968 RMK SLP003 T02580153 52008 IEM_DS3505
ZBYN,1999-07-24 22:00,ZBYN 242200Z AUTO 00000KT 6SM 24/20 A2968 RMK T02400200 IEM_DS3505
ZBYN,1999-07-24 23:00,ZBYN 242300Z AUTO 30002KT 6SM 26/20 A2971 RMK T02600200 IEM_DS3505
ZBYN,1999-07-25 00:00,ZBYN 250000Z AUTO 32002KT 6SM 27/18 A2971 RMK SLP019 T02690178 52009 IEM_DS3505
ZBYN,1999-07-25 01:00,ZBYN 250100Z AUTO 07010KT 6SM 30/22 A2971 RMK T03000220 IEM_DS3505
ZBYN,1999-07-25 02:00,ZBYN 250200Z AUTO 08012KT 6SM 31/21 A2971 RMK T03100210 IEM_DS3505
ZBYN,1999-07-25 03:00,ZBYN 250300Z AUTO 09008KT 6SM 33/18 A2971 RMK SLP019 T03280180 52003 IEM_DS3505
ZBYN,1999-07-25 04:00,ZBYN 250400Z AUTO 08014KT 6SM 33/19 A2971 RMK T03300190 IEM_DS3505
ZBYN,1999-07-25 05:00,ZBYN 250500Z AUTO 08012KT 6SM 34/19 A2968 RMK T03400190 IEM_DS3505
ZBYN,1999-07-25 06:00,ZBYN 250600Z AUTO 09006KT 6SM 35/19 A2968 RMK SLP001 T03490186 57014 IEM_DS3505
ZBYN,1999-07-25 07:00,ZBYN 250700Z AUTO 06008KT 6SM 36/19 A2965 RMK T03600190 IEM_DS3505
ZBYN,1999-07-25 09:00,ZBYN 250900Z AUTO 09010KT 9SM 34/17 RMK SLP993 T03390169 57009 IEM_DS3505
ZBYN,1999-07-25 10:00,ZBYN 251000Z AUTO 08014KT 6SM 33/21 A2965 RMK T03300210 IEM_DS3505
ZBYN,1999-07-25 11:00,ZBYN 251100Z AUTO 09012KT 7SM 32/20 A2965 RMK T03200200 IEM_DS3505
ZBYN,1999-07-25 12:00,ZBYN 251200Z AUTO 09012KT 7SM 31/17 A2968 RMK SLP009 T03060167 52012 IEM_DS3505
ZBYN,1999-07-25 13:00,ZBYN 251300Z AUTO 09012KT 6SM 29/19 A2974 RMK T02900190 IEM_DS3505
ZBYN,1999-07-25 14:00,ZBYN 251400Z AUTO 09012KT 6SM 28/20 A2977 RMK T02800200 IEM_DS3505
ZBYN,1999-07-25 15:00,ZBYN 251500Z AUTO 07008KT 6SM 28/18 A2977 RMK SLP036 T02790184 52029 IEM_DS3505
ZBYN,1999-07-25 16:00,ZBYN 251600Z AUTO 08010KT 6SM 27/21 A2980 RMK T02700210 IEM_DS3505
ZBYN,1999-07-25 17:00,ZBYN 251700Z AUTO 07012KT 6SM 26/22 A2977 RMK T02600220 IEM_DS3505
ZBYN,1999-07-25 18:00,ZBYN 251800Z AUTO 04002KT 6SM 26/20 A2977 RMK SLP036 T02580199 54000 IEM_DS3505
ZBYN,1999-07-25 19:00,ZBYN 251900Z AUTO 09008KT 6SM 26/21 A2977 RMK T02600210 IEM_DS3505
ZBYN,1999-07-25 20:00,ZBYN 252000Z AUTO 09008KT 6SM 25/21 A2977 RMK T02500210 IEM_DS3505
ZBYN,1999-07-25 21:00,ZBYN 252100Z AUTO 00000KT 6SM 24/20 A2977 RMK SLP041 T02410195 52001 IEM_DS3505
ZBYN,1999-07-25 22:00,ZBYN 252200Z AUTO 06002KT 5SM 25/21 A2980 RMK T02500210 IEM_DS3505
ZBYN,1999-07-25 23:00,ZBYN 252300Z AUTO 06004KT 6SM 25/21 A2980 RMK T02500210 IEM_DS3505
ZBYN,1999-07-26 00:00,ZBYN 260000Z AUTO 00000KT 5SM 25/20 A2980 RMK SLP059 T02500203 52013 IEM_DS3505
ZBYN,1999-07-26 01:00,ZBYN 260100Z AUTO 08004KT 6SM 27/21 A2980 RMK T02700210 IEM_DS3505
ZBYN,1999-07-26 02:00,ZBYN 260200Z AUTO 07004KT 6SM 28/22 A2980 RMK T02800220 IEM_DS3505
ZBYN,1999-07-26 03:00,ZBYN 260300Z AUTO 32004KT 6SM 28/21 A2980 RMK SLP051 T02850206 57006 IEM_DS3505
ZBYN,1999-07-26 04:00,ZBYN 260400Z AUTO 35002KT 6SM 31/22 A2977 RMK T03100220 IEM_DS3505
ZBYN,1999-07-26 05:00,ZBYN 260500Z AUTO 35002KT 7SM 32/21 A2974 RMK T03200210 IEM_DS3505
ZBYN,1999-07-26 06:00,ZBYN 260600Z AUTO 00000KT 6SM 32/20 A2974 RMK SLP027 T03230199 57020 IEM_DS3505
ZBYN,1999-07-26 07:00,ZBYN 260700Z AUTO 29004KT 7SM 33/21 A2971 RMK T03300210 IEM_DS3505
ZBYN,1999-07-26 08:00,ZBYN 260800Z AUTO 27002KT 6SM 32/21 A2968 RMK T03200210 IEM_DS3505
ZBYN,1999-07-26 09:00,ZBYN 260900Z AUTO 00000KT 6SM 33/20 A2968 RMK SLP008 T03260201 57019 IEM_DS3505
ZBYN,1999-07-26 10:00,ZBYN 261000Z AUTO 25002KT 6SM 33/22 A2965 RMK T03300220 IEM_DS3505
ZBYN,1999-07-26 11:00,ZBYN 261100Z AUTO 13008KT 5SM 29/22 A2968 RMK T02900220 IEM_DS3505
ZBYN,1999-07-26 12:00,ZBYN 261200Z AUTO 18004KT 4SM 28/20 A2971 RMK SLP023 T02770202 52008 IEM_DS3505
ZBYN,1999-07-26 13:00,ZBYN 261300Z AUTO 12002KT 5SM 27/22 A2971 RMK T02700220 IEM_DS3505
ZBYN,1999-07-26 14:00,ZBYN 261400Z AUTO 12008KT 6SM 27/21 A2971 RMK T02700210 IEM_DS3505
ZBYN,1999-07-26 15:00,ZBYN 261500Z AUTO 18002KT 4SM 26/19 A2974 RMK SLP034 T02550194 52012 IEM_DS3505
ZBYN,1999-07-26 16:00,ZBYN 261600Z AUTO 09008KT 6SM 26/21 A2974 RMK T02600210 IEM_DS3505
ZBYN,1999-07-26 17:00,ZBYN 261700Z AUTO 07010KT 6SM 26/21 A2974 RMK T02600210 IEM_DS3505
ZBYN,1999-07-26 18:00,ZBYN 261800Z AUTO 00000KT 4SM 25/20 A2971 RMK SLP029 T02530204 54000 IEM_DS3505
ZBYN,1999-07-26 19:00,ZBYN 261900Z AUTO 01002KT 6SM 25/22 A2971 RMK T02500220 IEM_DS3505
ZBYN,1999-07-26 20:00,ZBYN 262000Z AUTO 09002KT 4SM 24/22 A2971 RMK T02400220 IEM_DS3505
ZBYN,1999-07-26 21:00,ZBYN 262100Z AUTO 00000KT 5SM 23/19 A2971 RMK SLP019 T02290194 57012 IEM_DS3505
ZBYN,1999-07-26 22:00,ZBYN 262200Z AUTO 00000KT 1 1/4SM 24/22 A2971 RMK T02400220 IEM_DS3505
ZBYN,1999-07-26 23:00,ZBYN 262300Z AUTO 00000KT 1 1/2SM 24/22 A2971 RMK T02400220 IEM_DS3505
ZBYN,1999-07-27 00:00,ZBYN 270000Z AUTO 00000KT 3SM 25/20 A2971 RMK SLP027 T02490195 52004 IEM_DS3505
ZBYN,1999-07-27 01:00,ZBYN 270100Z AUTO 16002KT 2SM 27/22 A2971 RMK T02700220 IEM_DS3505
ZBYN,1999-07-27 02:00,ZBYN 270200Z AUTO 00000KT 2 1/2SM 27/23 A2971 RMK T02700230 IEM_DS3505
ZBYN,1999-07-27 03:00,ZBYN 270300Z AUTO 00000KT 6SM 30/21 A2968 RMK SLP022 T02950211 57002 IEM_DS3505
ZBYN,1999-07-27 04:00,ZBYN 270400Z AUTO 22002KT 3SM 30/24 A2965 RMK T03000240 IEM_DS3505
ZBYN,1999-07-27 05:00,ZBYN 270500Z AUTO 21006KT 31/24 A2962 RMK T03100240 IEM_DS3505
ZBYN,1999-07-27 06:00,ZBYN 270600Z AUTO 18002KT 6SM 30/22 A2959 RMK SLP988 T03040222 57030 IEM_DS3505
ZBYN,1999-07-27 07:00,ZBYN 270700Z AUTO 10002KT 7SM 27/24 A2959 RMK T02700240 IEM_DS3505
ZBYN,1999-07-27 08:00,ZBYN 270800Z AUTO 15002KT 7SM 29/25 A2956 RMK T02900250 IEM_DS3505
ZBYN,1999-07-27 09:00,ZBYN 270900Z AUTO 00000KT 4SM 28/24 A2956 RMK SLP983 T02770236 57011 IEM_DS3505
ZBYN,1999-07-27 10:00,ZBYN 271000Z AUTO 09010KT 6SM 32/23 A2956 RMK T03200230 IEM_DS3505
ZBYN,1999-07-27 11:00,ZBYN 271100Z AUTO 11008KT 6SM 30/20 A2962 RMK T03000200 IEM_DS3505
ZBYN,1999-07-27 12:00,ZBYN 271200Z AUTO 09008KT 6SM 29/17 A2962 RMK SLP998 T02860166 52017 IEM_DS3505
ZBYN,1999-07-27 13:00,ZBYN 271300Z AUTO 07004KT 6SM 27/18 A2965 RMK T02700180 IEM_DS3505
ZBYN,1999-07-27 14:00,ZBYN 271400Z AUTO 05002KT 6SM 26/19 A2965 RMK T02600190 IEM_DS3505
ZBYN,1999-07-27 15:00,ZBYN 271500Z AUTO 02002KT 6SM 24/18 A2968 RMK SLP012 T02450176 52014 IEM_DS3505
ZBYN,1999-07-27 16:00,ZBYN 271600Z AUTO 19002KT 6SM 24/20 A2968 RMK T02400200 IEM_DS3505
ZBYN,1999-07-27 17:00,ZBYN 271700Z AUTO 00000KT 6SM 22/20 A2968 RMK T02200200 IEM_DS3505
ZBYN,1999-07-27 18:00,ZBYN 271800Z AUTO 09004KT 6SM 21/18 A2968 RMK SLP019 T02100182 52003 IEM_DS3505
ZBYN,1999-07-27 19:00,ZBYN 271900Z AUTO 10004KT 6SM 20/20 A2968 RMK T02000200 IEM_DS3505
ZBYN,1999-07-27 21:00,ZBYN 272100Z AUTO 00000KT 6SM 21/19 A2968 RMK SLP023 T02080187 57001 IEM_DS3505
ZBYN,1999-07-27 22:00,ZBYN 272200Z AUTO 10002KT 2 1/2SM 21/14 A2968 RMK T02100140 IEM_DS3505
ZBYN,1999-07-27 23:00,ZBYN 272300Z AUTO 11002KT 2 1/2SM 22/21 A2968 RMK T02200210 IEM_DS3505
ZBYN,1999-07-28 00:00,ZBYN 280000Z AUTO 00000KT 5SM 23/19 A2971 RMK SLP029 T02300194 52010 IEM_DS3505
ZBYN,1999-07-28 01:00,ZBYN 280100Z AUTO 00000KT 3SM 26/22 A2971 RMK T02600220 IEM_DS3505
ZBYN,1999-07-28 02:00,ZBYN 280200Z AUTO 13004KT 6SM 29/20 A2974 RMK T02900200 IEM_DS3505
ZBYN,1999-07-28 03:00,ZBYN 280300Z AUTO 36002KT 5SM 30/19 A2974 RMK SLP027 T02960189 52002 IEM_DS3505
ZBYN,1999-07-28 04:00,ZBYN 280400Z AUTO 32002KT 6SM 31/18 A2971 RMK T03100180 IEM_DS3505
ZBYN,1999-07-28 05:00,ZBYN 280500Z AUTO 19002KT 6SM 32/17 A2968 RMK T03200170 IEM_DS3505
ZBYN,1999-07-28 06:00,ZBYN 280600Z AUTO 00000KT 9SM 33/16 A2968 RMK SLP015 T03270158 57012 IEM_DS3505
ZBYN,1999-07-28 07:00,ZBYN 280700Z AUTO 27002KT 6SM 34/18 A2965 RMK T03400180 IEM_DS3505
ZBYN,1999-07-28 08:00,ZBYN 280800Z AUTO 26004KT 6SM 34/19 A2965 RMK T03400190 IEM_DS3505
ZBYN,1999-07-28 09:00,ZBYN 280900Z AUTO 25004KT 9SM 34/18 A2965 RMK SLP001 T03350177 57012 IEM_DS3505
ZBYN,1999-07-28 10:00,ZBYN 281000Z AUTO 20004KT 6SM 32/21 A2965 RMK T03200210 IEM_DS3505
ZBYN,1999-07-28 12:00,ZBYN 281200Z AUTO 18002KT 6SM 28/20 RMK SLP020 T02800201 52013 IEM_DS3505
ZBYN,1999-07-28 13:00,ZBYN 281300Z AUTO 11002KT 6SM 28/22 A2971 RMK T02800220 IEM_DS3505
ZBYN,1999-07-28 14:00,ZBYN 281400Z AUTO 12002KT 6SM 28/22 A2974 RMK T02800220 IEM_DS3505
ZBYN,1999-07-28 15:00,ZBYN 281500Z AUTO 00000KT 6SM 26/20 A2974 RMK SLP039 T02600196 52024 IEM_DS3505
ZBYN,1999-07-28 16:00,ZBYN 281600Z AUTO 12002KT 6SM 26/22 A2974 RMK T02600220 IEM_DS3505
ZBYN,1999-07-28 17:00,ZBYN 281700Z AUTO 11004KT 6SM 25/22 A2974 RMK T02500220 IEM_DS3505
ZBYN,1999-07-28 18:00,ZBYN 281800Z AUTO 00000KT 6SM 23/20 A2974 RMK SLP036 T02340201 57002 IEM_DS3505
ZBYN,1999-07-28 19:00,ZBYN 281900Z AUTO 11004KT 6SM 23/22 A2974 RMK T02300220 IEM_DS3505
ZBYN,1999-07-28 20:00,ZBYN 282000Z AUTO 12002KT 6SM 22/22 A2974 RMK T02200220 IEM_DS3505
ZBYN,1999-07-28 21:00,ZBYN 282100Z AUTO 00000KT 4SM 21/19 A2974 RMK SLP035 T02110194 57003 IEM_DS3505
ZBYN,1999-07-28 22:00,ZBYN 282200Z AUTO 13002KT 1 1/4SM 22/21 A2974 RMK T02200210 IEM_DS3505
ZBYN,1999-07-28 23:00,ZBYN 282300Z AUTO 12002KT 1SM 23/22 A2974 RMK T02300220 IEM_DS3505
ZBYN,1999-07-29 00:00,ZBYN 290000Z AUTO 14004KT 5SM 24/20 A2977 RMK SLP048 T02410201 52008 IEM_DS3505
ZBYN,1999-07-29 01:00,ZBYN 290100Z AUTO 17002KT 3SM 26/21 A2977 RMK T02600210 IEM_DS3505
ZBYN,1999-07-29 02:00,ZBYN 290200Z AUTO 17002KT 3SM 27/22 A2974 RMK T02700220 IEM_DS3505
ZBYN,1999-07-29 03:00,ZBYN 290300Z AUTO 18002KT 6SM 30/20 A2974 RMK SLP032 T02950201 57010 IEM_DS3505
ZBYN,1999-07-29 04:00,ZBYN 290400Z AUTO 17004KT 3SM 31/23 A2971 RMK T03100230 IEM_DS3505
ZBYN,1999-07-29 05:00,ZBYN 290500Z AUTO 20004KT 5SM 33/22 A2968 RMK T03300220 IEM_DS3505
ZBYN,1999-07-29 06:00,ZBYN 290600Z AUTO 18006KT 6SM 34/21 A2968 RMK SLP011 T03380209 57017 IEM_DS3505
ZBYN,1999-07-29 07:00,ZBYN 290700Z AUTO 19006KT 6SM 35/20 A2965 RMK T03500200 IEM_DS3505
ZBYN,1999-07-29 08:00,ZBYN 290800Z AUTO 22002KT 6SM 35/19 A2965 RMK T03500190 IEM_DS3505
ZBYN,1999-07-29 09:00,ZBYN 290900Z AUTO 18004KT 6SM 34/19 A2962 RMK SLP000 T03440189 57012 IEM_DS3505
ZBYN,1999-07-29 10:00,ZBYN 291000Z AUTO 00000KT 6SM 34/19 A2962 RMK T03400190 IEM_DS3505
ZBYN,1999-07-29 11:00,ZBYN 291100Z AUTO 00000KT 6SM 32/20 A2962 RMK T03200200 IEM_DS3505
ZBYN,1999-07-29 12:00,ZBYN 291200Z AUTO 14004KT 7SM 29/20 A2962 RMK SLP993 T02900196 57010 IEM_DS3505
ZBYN,1999-07-29 13:00,ZBYN 291300Z AUTO 12002KT 6SM 27/21 A2965 RMK T02700210 IEM_DS3505
ZBYN,1999-07-29 14:00,ZBYN 291400Z AUTO 00000KT 6SM 26/21 A2965 RMK T02600210 IEM_DS3505
ZBYN,1999-07-29 15:00,ZBYN 291500Z AUTO 14004KT 6SM 26/19 A2965 RMK SLP003 T02590188 52012 IEM_DS3505
ZBYN,1999-07-29 16:00,ZBYN 291600Z AUTO 13002KT 6SM 24/21 A2965 RMK T02400210 IEM_DS3505
ZBYN,1999-07-29 17:00,ZBYN 291700Z AUTO 14002KT 6SM 24/21 A2965 RMK T02400210 IEM_DS3505
ZBYN,1999-07-29 19:00,ZBYN 291900Z AUTO 00000KT 6SM 24/21 A2965 RMK T02400210 IEM_DS3505
ZBYN,1999-07-29 20:00,ZBYN 292000Z AUTO 13002KT 6SM 22/21 A2965 RMK T02200210 IEM_DS3505
ZBYN,1999-07-29 21:00,ZBYN 292100Z AUTO 00000KT 6SM 21/19 A2965 RMK SLP010 T02090191 52010 IEM_DS3505
ZBYN,1999-07-29 23:00,ZBYN 292300Z AUTO 13002KT 3SM 23/21 A2965 RMK T02300210 IEM_DS3505
ZBYN,1999-07-30 00:00,ZBYN 300000Z AUTO 00000KT 4SM 24/20 A2965 RMK SLP013 T02450205 54000 IEM_DS3505
ZBYN,1999-07-30 01:00,ZBYN 300100Z AUTO 15002KT 4SM 27/22 A2965 RMK T02700220 IEM_DS3505
ZBYN,1999-07-30 02:00,ZBYN 300200Z AUTO 17002KT 4SM 29/23 A2965 RMK T02900230 IEM_DS3505
ZBYN,1999-07-30 03:00,ZBYN 300300Z AUTO 18006KT 4SM 31/21 A2965 RMK SLP004 T03070207 57004 IEM_DS3505
ZBYN,1999-07-30 04:00,ZBYN 300400Z AUTO 20004KT 5SM 32/23 A2962 RMK T03200230 IEM_DS3505
ZBYN,1999-07-30 05:00,ZBYN 300500Z AUTO 26002KT 6SM 34/23 A2959 RMK T03400230 IEM_DS3505
ZBYN,1999-07-30 06:00,ZBYN 300600Z AUTO 22006KT 4SM 34/21 A2959 RMK SLP988 T03450209 57014 IEM_DS3505
ZBYN,1999-07-30 07:00,ZBYN 300700Z AUTO 19004KT 6SM 37/21 A2956 RMK T03700210 IEM_DS3505
ZBYN,1999-07-30 08:00,ZBYN 300800Z AUTO 21004KT 6SM 37/20 A2956 RMK T03700200 IEM_DS3505
ZBYN,1999-07-30 09:00,ZBYN 300900Z AUTO 20006KT 4SM 34/20 A2956 RMK SLP973 T03450199 57016 IEM_DS3505
ZBYN,1999-07-30 10:00,ZBYN 301000Z AUTO 00000KT 6SM 34/23 A2953 RMK T03400230 IEM_DS3505
ZBYN,1999-07-30 11:00,ZBYN 301100Z AUTO 00000KT 6SM 33/23 A2953 RMK T03300230 IEM_DS3505
ZBYN,1999-07-30 12:00,ZBYN 301200Z AUTO 09004KT 4SM 30/22 A2956 RMK SLP968 T03000220 57006 IEM_DS3505
ZBYN,1999-07-30 13:00,ZBYN 301300Z AUTO 07008KT 6SM 32/20 A2956 RMK T03200200 IEM_DS3505
ZBYN,1999-07-30 14:00,ZBYN 301400Z AUTO 08012KT 6SM 30/25 A2959 RMK T03000250 IEM_DS3505
ZBYN,1999-07-30 15:00,ZBYN 301500Z AUTO 14004KT 4SM 29/23 A2959 RMK SLP983 T02920232 52021 IEM_DS3505
ZBYN,1999-07-30 16:00,ZBYN 301600Z AUTO 10008KT 6SM 29/25 A2959 RMK T02900250 IEM_DS3505
ZBYN,1999-07-30 17:00,ZBYN 301700Z AUTO 12004KT 6SM 28/24 A2959 RMK T02800240 IEM_DS3505
ZBYN,1999-07-30 18:00,ZBYN 301800Z AUTO 00000KT 4SM 27/23 RMK SLP985 T02680234 52004 IEM_DS3505
ZBYN,1999-07-30 19:00,ZBYN 301900Z AUTO 27002KT 6SM 27/24 A2959 RMK T02700240 IEM_DS3505
ZBYN,1999-07-30 20:00,ZBYN 302000Z AUTO 00000KT 6SM 25/23 A2959 RMK T02500230 IEM_DS3505
ZBYN,1999-07-30 21:00,ZBYN 302100Z AUTO 34004KT 5SM 26/21 A2959 RMK SLP977 T02650210 57008 IEM_DS3505
ZBYN,1999-07-30 22:00,ZBYN 302200Z AUTO 34006KT 6SM 26/23 A2962 RMK T02600230 IEM_DS3505
ZBYN,1999-07-30 23:00,ZBYN 302300Z AUTO 34010KT 4SM 27/23 A2962 RMK T02700230 IEM_DS3505
ZBYN,1999-07-31 00:00,ZBYN 310000Z AUTO 02006KT 5SM 26/20 A2965 RMK SLP006 T02590203 52020 IEM_DS3505
ZBYN,1999-07-31 01:00,ZBYN 310100Z AUTO 34006KT 6SM 26/22 A2968 RMK T02600220 IEM_DS3505
ZBYN,1999-07-31 02:00,ZBYN 310200Z AUTO 34010KT 6SM 26/22 A2968 RMK T02600220 IEM_DS3505
ZBYN,1999-07-31 03:00,ZBYN 310300Z AUTO 34004KT 7SM 26/20 A2968 RMK SLP015 T02590203 52007 IEM_DS3505
ZBYN,1999-07-31 04:00,ZBYN 310400Z AUTO 08008KT 7SM 27/23 A2968 RMK T02700230 IEM_DS3505
ZBYN,1999-07-31 05:00,ZBYN 310500Z AUTO 08010KT 7SM 26/23 A2968 RMK T02600230 IEM_DS3505
ZBYN,1999-07-31 06:00,ZBYN 310600Z AUTO 09004KT 6SM 27/21 A2968 RMK SLP018 T02710207 52001 IEM_DS3505
ZBYN,1999-07-31 07:00,ZBYN 310700Z AUTO 10008KT 6SM 29/22 A2968 RMK T02900220 IEM_DS3505
ZBYN,1999-07-31 08:00,ZBYN 310800Z AUTO 11008KT 6SM 30/22 A2968 RMK T03000220 IEM_DS3505
ZBYN,1999-07-31 09:00,ZBYN 310900Z AUTO 14004KT 6SM 29/21 A2965 RMK SLP007 T02900211 57008 IEM_DS3505
ZBYN,1999-07-31 10:00,ZBYN 311000Z AUTO 10008KT 6SM 30/21 A2965 RMK T03000210 IEM_DS3505
ZBYN,1999-07-31 11:00,ZBYN 311100Z AUTO 11008KT 7SM 29/18 A2968 RMK T02900180 IEM_DS3505
ZBYN,1999-07-31 12:00,ZBYN 311200Z AUTO 00000KT 9SM 26/17 A2971 RMK SLP024 T02650171 52012 IEM_DS3505
ZBYN,1999-07-31 13:00,ZBYN 311300Z AUTO 07004KT 6SM 26/18 A2971 RMK T02600180 IEM_DS3505
ZBYN,1999-07-31 14:00,ZBYN 311400Z AUTO 08004KT 6SM 25/19 A2974 RMK T02500190 IEM_DS3505
ZBYN,1999-07-31 15:00,ZBYN 311500Z AUTO 00000KT 9SM 24/18 A2974 RMK SLP037 T02430177 52009 IEM_DS3505
ZBYN,1999-07-31 16:00,ZBYN 311600Z AUTO 07002KT 6SM 24/19 A2974 RMK T02400190 IEM_DS3505
ZBYN,1999-07-31 17:00,ZBYN 311700Z AUTO 12002KT 6SM 23/19 A2974 RMK T02300190 IEM_DS3505
ZBYN,1999-07-31 18:00,ZBYN 311800Z AUTO 00000KT 6SM 23/18 A2974 RMK SLP040 T02260183 52002 IEM_DS3505
ZBYN,1999-07-31 19:00,ZBYN 311900Z AUTO 00000KT 6SM 22/19 A2974 RMK T02200190 IEM_DS3505
ZBYN,1999-07-31 20:00,ZBYN 312000Z AUTO 00000KT 6SM 22/19 A2974 RMK T02200190 IEM_DS3505
ZBYN,1999-07-31 21:00,ZBYN 312100Z AUTO 34002KT 6SM 22/17 A2977 RMK SLP042 T02200166 52003 IEM_DS3505
ZBYN,1999-07-31 22:00,ZBYN 312200Z AUTO 00000KT 6SM 21/19 A2977 RMK T02100190 IEM_DS3505
ZBYN,1999-07-31 23:00,ZBYN 312300Z AUTO 06004KT 6SM 24/19 A2980 RMK T02400190 IEM_DS3505
ZBYN,1999-08-01 00:00,ZBYN 010000Z AUTO 29004KT 6SM 24/18 A2980 RMK SLP059 T02400177 52015 IEM_DS3505
ZBYN,1999-08-01 01:00,ZBYN 010100Z AUTO 06008KT 6SM 26/20 A2980 RMK T02600200 IEM_DS3505
ZBYN,1999-08-01 02:00,ZBYN 010200Z AUTO 09006KT 6SM 28/20 A2980 RMK T02800200 IEM_DS3505
ZBYN,1999-08-01 03:00,ZBYN 010300Z AUTO 11006KT 6SM 30/18 A2980 RMK SLP051 T02950179 57003 IEM_DS3505
ZBYN,1999-08-01 04:00,ZBYN 010400Z AUTO 07004KT 7SM 31/19 A2977 RMK T03100190 IEM_DS3505
ZBYN,1999-08-01 05:00,ZBYN 010500Z AUTO 12002KT 7SM 32/17 A2974 RMK T03200170 IEM_DS3505
ZBYN,1999-08-01 06:00,ZBYN 010600Z AUTO 14002KT 7SM 32/15 A2971 RMK SLP028 T03250151 57019 IEM_DS3505
ZBYN,1999-08-01 07:00,ZBYN 010700Z AUTO 09004KT 7SM 33/14 A2971 RMK T03300140 IEM_DS3505
ZBYN,1999-08-01 08:00,ZBYN 010800Z AUTO 12006KT 7SM 34/14 A2968 RMK T03400140 IEM_DS3505
ZBYN,1999-08-01 09:00,ZBYN 010900Z AUTO 14002KT 9SM 32/14 A2968 RMK SLP014 T03220143 57014 IEM_DS3505
ZBYN,1999-08-01 10:00,ZBYN 011000Z AUTO 07002KT 6SM 32/14 A2968 RMK T03200140 IEM_DS3505
ZBYN,1999-08-01 11:00,ZBYN 011100Z AUTO 08004KT 6SM 31/14 A2968 RMK T03100140 IEM_DS3505
ZBYN,1999-08-01 12:00,ZBYN 011200Z AUTO 07010KT 9SM 29/16 A2971 RMK SLP025 T02880157 52008 IEM_DS3505
ZBYN,1999-08-01 13:00,ZBYN 011300Z AUTO 09008KT 6SM 28/18 A2974 RMK T02800180 IEM_DS3505
ZBYN,1999-08-01 14:00,ZBYN 011400Z AUTO 11008KT 6SM 26/19 A2974 RMK T02600190 IEM_DS3505
ZBYN,1999-08-01 15:00,ZBYN 011500Z AUTO 11004KT 6SM 24/18 A2974 RMK SLP038 T02400182 52013 IEM_DS3505
ZBYN,1999-08-01 16:00,ZBYN 011600Z AUTO 09008KT 6SM 25/20 A2974 RMK T02500200 IEM_DS3505
ZBYN,1999-08-01 17:00,ZBYN 011700Z AUTO 09008KT 6SM 24/20 A2974 RMK T02400200 IEM_DS3505
ZBYN,1999-08-01 18:00,ZBYN 011800Z AUTO 07002KT 6SM 24/18 A2977 RMK SLP042 T02360179 52007 IEM_DS3505
ZBYN,1999-08-01 19:00,ZBYN 011900Z AUTO 08010KT 6SM 23/20 A2977 RMK T02300200 IEM_DS3505
ZBYN,1999-08-01 20:00,ZBYN 012000Z AUTO 08014KT 6SM 23/20 A2977 RMK T02300200 IEM_DS3505
ZBYN,1999-08-01 21:00,ZBYN 012100Z AUTO 04002KT 6SM 22/18 A2980 RMK SLP052 T02220180 52007 IEM_DS3505
ZBYN,1999-08-01 22:00,ZBYN 012200Z AUTO 09008KT 6SM 21/19 A2980 RMK T02100190 IEM_DS3505
ZBYN,1999-08-01 23:00,ZBYN 012300Z AUTO 09002KT 6SM 22/19 A2980 RMK T02200190 IEM_DS3505
ZBYN,1999-08-02 00:00,ZBYN 020000Z AUTO 00000KT 6SM 23/18 A2980 RMK SLP061 T02280185 52004 IEM_DS3505
ZBYN,1999-08-02 01:00,ZBYN 020100Z AUTO 12002KT 6SM 24/19 A2980 RMK T02400190 IEM_DS3505
ZBYN,1999-08-02 02:00,ZBYN 020200Z AUTO 19002KT 6SM 26/20 A2980 RMK T02600200 IEM_DS3505
ZBYN,1999-08-02 03:00,ZBYN 020300Z AUTO 18002KT 6SM 27/18 A2977 RMK SLP055 T02720185 57006 IEM_DS3505
ZBYN,1999-08-02 04:00,ZBYN 020400Z AUTO 23002KT 6SM 29/21 A2974 RMK T02900210 IEM_DS3505
ZBYN,1999-08-02 05:00,ZBYN 020500Z AUTO 23002KT 6SM 29/21 A2971 RMK T02900210 IEM_DS3505
ZBYN,1999-08-02 06:00,ZBYN 020600Z AUTO 20004KT 6SM 30/20 A2971 RMK SLP026 T03040200 57022 IEM_DS3505
ZBYN,1999-08-02 07:00,ZBYN 020700Z AUTO 16006KT 7SM 31/21 A2965 RMK T03100210 IEM_DS3505
ZBYN,1999-08-02 08:00,ZBYN 020800Z AUTO 27002KT 6SM 32/19 A2965 RMK T03200190 IEM_DS3505
ZBYN,1999-08-02 09:00,ZBYN 020900Z AUTO 22004KT 6SM 31/19 A2965 RMK SLP011 T03090186 57015 IEM_DS3505
ZBYN,1999-08-02 10:00,ZBYN 021000Z AUTO 08014KT 6SM 28/20 A2968 RMK T02800200 IEM_DS3505
ZBYN,1999-08-02 11:00,ZBYN 021100Z AUTO 07016KT 7SM 27/18 A2971 RMK T02700180 IEM_DS3505
ZBYN,1999-08-02 12:00,ZBYN 021200Z AUTO 09017KT 5SM 25/16 A2971 RMK SLP037 T02510160 52016 IEM_DS3505
ZBYN,1999-08-02 13:00,ZBYN 021300Z AUTO 07012KT 6SM 24/19 A2974 RMK T02400190 IEM_DS3505
ZBYN,1999-08-02 14:00,ZBYN 021400Z AUTO 08012KT 6SM 24/19 A2977 RMK T02400190 IEM_DS3505
ZBYN,1999-08-02 15:00,ZBYN 021500Z AUTO 00000KT 6SM 24/17 A2977 RMK SLP050 T02390172 52017 IEM_DS3505
ZBYN,1999-08-02 16:00,ZBYN 021600Z AUTO 09008KT 6SM 23/19 A2980 RMK T02300190 IEM_DS3505
ZBYN,1999-08-02 17:00,ZBYN 021700Z AUTO 09008KT 6SM 23/19 A2977 RMK T02300190 IEM_DS3505
ZBYN,1999-08-02 18:00,ZBYN 021800Z AUTO 00000KT 6SM 22/17 RMK SLP051 T02200172 52002 IEM_DS3505
ZBYN,1999-08-02 19:00,ZBYN 021900Z AUTO 06002KT 6SM 22/18 A2977 RMK T02200180 IEM_DS3505
ZBYN,1999-08-02 20:00,ZBYN 022000Z AUTO 09002KT 6SM 22/19 A2977 RMK T02200190 IEM_DS3505
ZBYN,1999-08-02 21:00,ZBYN 022100Z AUTO 29004KT 6SM 20/17 A2977 RMK SLP052 T02040166 54000 IEM_DS3505
ZBYN,1999-08-02 22:00,ZBYN 022200Z AUTO 13002KT 6SM 21/18 A2980 RMK T02100180 IEM_DS3505
ZBYN,1999-08-02 23:00,ZBYN 022300Z AUTO 00000KT 4SM 21/19 A2980 RMK T02100190 IEM_DS3505
ZBYN,1999-08-03 00:00,ZBYN 030000Z AUTO 34002KT 4SM 22/17 A2980 RMK SLP091 T02180171 52029 IEM_DS3505
ZBYN,1999-08-03 01:00,ZBYN 030100Z AUTO 09002KT 3SM 24/19 A2980 RMK T02400190 IEM_DS3505
ZBYN,1999-08-03 02:00,ZBYN 030200Z AUTO 12002KT 5SM 25/20 A2980 RMK T02500200 IEM_DS3505
ZBYN,1999-08-03 03:00,ZBYN 030300Z AUTO 22002KT 4SM 28/18 A2980 RMK SLP056 T02750178 57007 IEM_DS3505
ZBYN,1999-08-03 04:00,ZBYN 030400Z AUTO 17004KT 6SM 28/20 A2977 RMK T02800200 IEM_DS3505
ZBYN,1999-08-03 05:00,ZBYN 030500Z AUTO 24002KT 7SM 29/20 A2974 RMK T02900200 IEM_DS3505
ZBYN,1999-08-03 06:00,ZBYN 030600Z AUTO 20006KT 6SM 30/16 A2971 RMK SLP030 T03040162 57023 IEM_DS3505
ZBYN,1999-08-03 07:00,ZBYN 030700Z AUTO 23002KT 7SM 31/18 A2968 RMK T03100180 IEM_DS3505
ZBYN,1999-08-03 09:00,ZBYN 030900Z AUTO 18010KT 6SM 31/18 A2965 RMK SLP012 T03070181 57018 IEM_DS3505
ZBYN,1999-08-03 10:00,ZBYN 031000Z AUTO 24002KT 6SM 30/21 A2965 RMK T03000210 IEM_DS3505
ZBYN,1999-08-03 11:00,ZBYN 031100Z AUTO 00000KT 6SM 29/21 A2965 RMK T02900210 IEM_DS3505
ZBYN,1999-08-03 12:00,ZBYN 031200Z AUTO 11004KT 6SM 26/19 RMK SLP025 T02620193 52008 IEM_DS3505
ZBYN,1999-08-03 13:00,ZBYN 031300Z AUTO 14004KT 6SM 27/21 A2968 RMK T02700210 IEM_DS3505
ZBYN,1999-08-03 14:00,ZBYN 031400Z AUTO 14004KT 6SM 26/20 A2971 RMK T02600200 IEM_DS3505
ZBYN,1999-08-03 15:00,ZBYN 031500Z AUTO 18002KT 6SM 25/19 A2971 RMK SLP033 T02470186 52013 IEM_DS3505
ZBYN,1999-08-03 16:00,ZBYN 031600Z AUTO 11004KT 6SM 26/19 A2974 RMK T02600190 IEM_DS3505
ZBYN,1999-08-03 17:00,ZBYN 031700Z AUTO 15004KT 6SM 25/19 A2974 RMK T02500190 IEM_DS3505
ZBYN,1999-08-03 18:00,ZBYN 031800Z AUTO 09004KT 6SM 23/18 A2974 RMK SLP037 T02260178 52004 IEM_DS3505
ZBYN,1999-08-03 19:00,ZBYN 031900Z AUTO 13002KT 6SM 22/20 A2974 RMK T02200200 IEM_DS3505
ZBYN,1999-08-03 20:00,ZBYN 032000Z AUTO 12002KT 6SM 21/20 A2974 RMK T02100200 IEM_DS3505
ZBYN,1999-08-03 21:00,ZBYN 032100Z AUTO 09002KT 6SM 21/18 RMK SLP031 T02100179 57007 IEM_DS3505
ZBYN,1999-08-03 22:00,ZBYN 032200Z AUTO 11002KT 4SM 22/20 A2974 RMK T02200200 IEM_DS3505
ZBYN,1999-08-03 23:00,ZBYN 032300Z AUTO 14004KT 2 1/2SM 22/20 A2977 RMK T02200200 IEM_DS3505
ZBYN,1999-08-04 00:00,ZBYN 040000Z AUTO 14004KT 4SM 23/18 A2977 RMK SLP048 T02290185 52012 IEM_DS3505
ZBYN,1999-08-04 01:00,ZBYN 040100Z AUTO 16004KT 2 1/2SM 25/21 A2977 RMK T02500210 IEM_DS3505
ZBYN,1999-08-04 02:00,ZBYN 040200Z AUTO 19004KT 2 1/2SM 26/21 A2977 RMK T02600210 IEM_DS3505
ZBYN,1999-08-04 04:00,ZBYN 040400Z AUTO 07002KT 3SM 28/20 A2974 RMK T02800200 IEM_DS3505
ZBYN,1999-08-04 05:00,ZBYN 040500Z AUTO 21002KT 3SM 30/20 A2971 RMK T03000200 IEM_DS3505
ZBYN,1999-08-04 06:00,ZBYN 040600Z AUTO 20008KT 5SM 30/18 A2968 RMK SLP016 T03050179 57026 IEM_DS3505
ZBYN,1999-08-04 07:00,ZBYN 040700Z AUTO 21002KT 6SM 33/20 A2965 RMK T03300200 IEM_DS3505
ZBYN,1999-08-04 08:00,ZBYN 040800Z AUTO 28004KT 6SM 33/21 A2965 RMK T03300210 IEM_DS3505
ZBYN,1999-08-04 09:00,ZBYN 040900Z AUTO 18002KT 6SM 32/16 A2962 RMK SLP003 T03150164 57012 IEM_DS3505
ZBYN,1999-08-04 10:00,ZBYN 041000Z AUTO 00000KT 6SM 32/18 A2962 RMK T03200180 IEM_DS3505
ZBYN,1999-08-04 11:00,ZBYN 041100Z AUTO 17004KT 6SM 30/18 A2962 RMK T03000180 IEM_DS3505
ZBYN,1999-08-04 13:00,ZBYN 041300Z AUTO 16002KT 6SM 27/17 A2968 RMK T02700170 IEM_DS3505
ZBYN,1999-08-04 14:00,ZBYN 041400Z AUTO 08002KT 6SM 26/17 A2971 RMK T02600170 IEM_DS3505
ZBYN,1999-08-04 15:00,ZBYN 041500Z AUTO 09006KT 6SM 24/15 A2974 RMK SLP035 T02400146 52020 IEM_DS3505
ZBYN,1999-08-04 16:00,ZBYN 041600Z AUTO 13004KT 6SM 24/13 A2974 RMK T02400130 IEM_DS3505
ZBYN,1999-08-04 17:00,ZBYN 041700Z AUTO 14006KT 6SM 23/15 A2974 RMK T02300150 IEM_DS3505
ZBYN,1999-08-04 18:00,ZBYN 041800Z AUTO 11006KT 6SM 22/14 A2974 RMK SLP041 T02200136 52007 IEM_DS3505
ZBYN,1999-08-04 19:00,ZBYN 041900Z AUTO 14004KT 6SM 22/17 A2974 RMK T02200170 IEM_DS3505
ZBYN,1999-08-04 20:00,ZBYN 042000Z AUTO 14002KT 6SM 21/17 A2974 RMK T02100170 IEM_DS3505
ZBYN,1999-08-04 21:00,ZBYN 042100Z AUTO 00000KT 6SM 19/15 A2974 RMK SLP044 T01870153 54000 IEM_DS3505
ZBYN,1999-08-04 23:00,ZBYN 042300Z AUTO 11002KT 6SM 21/18 A2977 RMK T02100180 IEM_DS3505
ZBYN,1999-08-05 00:00,ZBYN 050000Z AUTO 16006KT 5SM 22/16 A2977 RMK SLP051 T02180161 52006 IEM_DS3505
ZBYN,1999-08-05 01:00,ZBYN 050100Z AUTO 17006KT 6SM 24/18 A2974 RMK T02400180 IEM_DS3505
ZBYN,1999-08-05 02:00,ZBYN 050200Z AUTO 15002KT 6SM 26/17 A2974 RMK T02600170 IEM_DS3505
ZBYN,1999-08-05 03:00,ZBYN 050300Z AUTO 14006KT 6SM 26/15 A2974 RMK SLP038 T02630146 57011 IEM_DS3505
ZBYN,1999-08-05 04:00,ZBYN 050400Z AUTO 00000KT 6SM 27/16 A2971 RMK T02700160 IEM_DS3505
ZBYN,1999-08-05 05:00,ZBYN 050500Z AUTO 20002KT 6SM 29/15 A2968 RMK T02900150 IEM_DS3505
ZBYN,1999-08-05 06:00,ZBYN 050600Z AUTO 14004KT 9SM 30/13 A2965 RMK SLP016 T03000133 57018 IEM_DS3505
ZBYN,1999-08-05 07:00,ZBYN 050700Z AUTO 21004KT 6SM 31/15 A2962 RMK T03100150 IEM_DS3505
ZBYN,1999-08-05 09:00,ZBYN 050900Z AUTO 18002KT 6SM 31/15 RMK SLP006 T03090151 57013 IEM_DS3505
ZBYN,1999-08-05 10:00,ZBYN 051000Z AUTO 16004KT 6SM 30/13 A2962 RMK T03000130 IEM_DS3505
ZBYN,1999-08-05 11:00,ZBYN 051100Z AUTO 15002KT 6SM 28/13 A2962 RMK T02800130 IEM_DS3505
ZBYN,1999-08-05 12:00,ZBYN 051200Z AUTO 09004KT 9SM 25/13 A2965 RMK SLP007 T02540127 57002 IEM_DS3505
ZBYN,1999-08-05 14:00,ZBYN 051400Z AUTO 09010KT 6SM 26/19 A2968 RMK T02600190 IEM_DS3505
ZBYN,1999-08-05 15:00,ZBYN 051500Z AUTO 09010KT 9SM 25/16 A2968 RMK SLP016 T02460163 52013 IEM_DS3505
ZBYN,1999-08-05 16:00,ZBYN 051600Z AUTO 09012KT 6SM 24/20 A2968 RMK T02400200 IEM_DS3505
ZBYN,1999-08-05 17:00,ZBYN 051700Z AUTO 09008KT 6SM 23/19 A2968 RMK T02300190 IEM_DS3505
ZBYN,1999-08-05 18:00,ZBYN 051800Z AUTO 09002KT 7SM 22/17 A2968 RMK SLP009 T02210171 57004 IEM_DS3505
ZBYN,1999-08-05 19:00,ZBYN 051900Z AUTO 10008KT 6SM 22/19 A2968 RMK T02200190 IEM_DS3505
ZBYN,1999-08-05 20:00,ZBYN 052000Z AUTO 11004KT 6SM 20/19 A2968 RMK T02000190 IEM_DS3505
ZBYN,1999-08-05 21:00,ZBYN 052100Z AUTO 18002KT 4SM 19/17 A2968 RMK SLP023 T01900168 52009 IEM_DS3505
ZBYN,1999-08-05 22:00,ZBYN 052200Z AUTO 14004KT 4SM 19/18 A2968 RMK T01900180 IEM_DS3505
ZBYN,1999-08-05 23:00,ZBYN 052300Z AUTO 12004KT 4SM 19/18 A2968 RMK T01900180 IEM_DS3505
ZBYN,1999-08-06 00:00,ZBYN 060000Z AUTO 11004KT 4SM 21/16 A2971 RMK SLP035 T02110165 52007 IEM_DS3505
ZBYN,1999-08-06 01:00,ZBYN 060100Z AUTO 13002KT 5SM 22/18 A2968 RMK T02200180 IEM_DS3505
ZBYN,1999-08-06 02:00,ZBYN 060200Z AUTO 14002KT 6SM 24/18 A2968 RMK T02400180 IEM_DS3505
ZBYN,1999-08-06 03:00,ZBYN 060300Z AUTO 14008KT 6SM 26/17 A2965 RMK SLP017 T02580166 57011 IEM_DS3505
ZBYN,1999-08-06 04:00,ZBYN 060400Z AUTO 14004KT 6SM 27/17 A2965 RMK T02700170 IEM_DS3505
ZBYN,1999-08-06 05:00,ZBYN 060500Z AUTO 17004KT 6SM 29/18 A2962 RMK T02900180 IEM_DS3505
ZBYN,1999-08-06 06:00,ZBYN 060600Z AUTO 14002KT 6SM 29/17 A2959 RMK SLP989 T02920168 57025 IEM_DS3505
ZBYN,1999-08-06 07:00,ZBYN 060700Z AUTO 17002KT 6SM 30/18 A2956 RMK T03000180 IEM_DS3505
ZBYN,1999-08-06 08:00,ZBYN 060800Z AUTO 00000KT 6SM 30/19 A2956 RMK T03000190 IEM_DS3505
ZBYN,1999-08-06 09:00,ZBYN 060900Z AUTO 00000KT 6SM 29/18 A2953 RMK SLP979 T02940185 57013 IEM_DS3505
ZBYN,1999-08-06 10:00,ZBYN 061000Z AUTO 00000KT 6SM 29/19 A2953 RMK T02900190 IEM_DS3505
ZBYN,1999-08-06 11:00,ZBYN 061100Z AUTO 08002KT 6SM 29/20 A2953 RMK T02900200 IEM_DS3505
ZBYN,1999-08-06 12:00,ZBYN 061200Z AUTO 11002KT 7SM 28/19 A2956 RMK SLP979 T02750193 54000 IEM_DS3505
ZBYN,1999-08-06 13:00,ZBYN 061300Z AUTO 09006KT 7SM 28/21 A2959 RMK T02800210 IEM_DS3505
ZBYN,1999-08-06 14:00,ZBYN 061400Z AUTO 03004KT 7SM 27/21 A2962 RMK T02700210 IEM_DS3505
ZBYN,1999-08-06 15:00,ZBYN 061500Z AUTO 00000KT 5SM 24/22 A2962 RMK SLP000 T02390222 52021 IEM_DS3505
ZBYN,1999-08-06 16:00,ZBYN 061600Z AUTO 07002KT 4SM 24/22 A2962 RMK T02400220 IEM_DS3505
ZBYN,1999-08-06 17:00,ZBYN 061700Z AUTO 06002KT 4SM 24/22 A2962 RMK T02400220 IEM_DS3505
ZBYN,1999-08-06 19:00,ZBYN 061900Z AUTO 08002KT 3SM 24/22 A2959 RMK T02400220 IEM_DS3505
ZBYN,1999-08-06 20:00,ZBYN 062000Z AUTO 07002KT 3SM 24/22 A2959 RMK T02400220 IEM_DS3505
ZBYN,1999-08-06 21:00,ZBYN 062100Z AUTO 32002KT 5SM 23/21 A2962 RMK SLP989 T02310207 57003 IEM_DS3505
ZBYN,1999-08-06 23:00,ZBYN 062300Z AUTO 33006KT 1SM 22/22 A2965 RMK T02200220 IEM_DS3505
ZBYN,1999-08-07 00:00,ZBYN 070000Z AUTO 02008KT 2 1/2SM 22/21 A2965 RMK SLP013 T02160210 52017 IEM_DS3505
ZBYN,1999-08-07 01:00,ZBYN 070100Z AUTO 02004KT 7SM 20/20 A2965 RMK T02000200 IEM_DS3505
ZBYN,1999-08-07 02:00,ZBYN 070200Z AUTO 00000KT 4SM 21/21 A2965 RMK T02100210 IEM_DS3505
ZBYN,1999-08-07 03:00,ZBYN 070300Z AUTO 00000KT 3SM 23/20 A2965 RMK SLP018 T02330205 52002 IEM_DS3505
ZBYN,1999-08-07 04:00,ZBYN 070400Z AUTO 17002KT 7SM 24/22 A2965 RMK T02400220 IEM_DS3505
ZBYN,1999-08-07 05:00,ZBYN 070500Z AUTO 08002KT 6SM 26/21 A2965 RMK T02600210 IEM_DS3505
ZBYN,1999-08-07 06:00,ZBYN 070600Z AUTO 14006KT 6SM 27/20 A2962 RMK SLP009 T02700199 57003 IEM_DS3505
ZBYN,1999-08-07 07:00,ZBYN 070700Z AUTO 22002KT 6SM 26/21 A2962 RMK T02600210 IEM_DS3505
ZBYN,1999-08-07 08:00,ZBYN 070800Z AUTO 00000KT 6SM 26/22 A2959 RMK T02600220 IEM_DS3505
ZBYN,1999-08-07 09:00,ZBYN 070900Z AUTO 20002KT 8SM 27/20 A2959 RMK SLP003 T02670197 57007 IEM_DS3505
ZBYN,1999-08-07 10:00,ZBYN 071000Z AUTO 00000KT 6SM 26/21 A2959 RMK T02600210 IEM_DS3505
ZBYN,1999-08-07 11:00,ZBYN 071100Z AUTO 00000KT 6SM 26/22 A2962 RMK T02600220 IEM_DS3505
ZBYN,1999-08-07 12:00,ZBYN 071200Z AUTO 00000KT 9SM 25/22 A2962 RMK SLP008 T02460217 54000 IEM_DS3505
ZBYN,1999-08-07 13:00,ZBYN 071300Z AUTO 00000KT 6SM 24/23 A2962 RMK T02400230 IEM_DS3505
ZBYN,1999-08-07 14:00,ZBYN 071400Z AUTO 00000KT 6SM 23/23 A2965 RMK T02300230 IEM_DS3505
ZBYN,1999-08-07 15:00,ZBYN 071500Z AUTO 00000KT 6SM 22/21 A2962 RMK SLP010 T02250209 52001 IEM_DS3505
ZBYN,1999-08-07 16:00,ZBYN 071600Z AUTO 10002KT 6SM 22/22 A2962 RMK T02200220 IEM_DS3505
ZBYN,1999-08-07 17:00,ZBYN 071700Z AUTO 00000KT 6SM 23/23 A2962 RMK T02300230 IEM_DS3505
ZBYN,1999-08-07 18:00,ZBYN 071800Z AUTO 00000KT 6SM 22/21 A2962 RMK SLP001 T02220212 57004 IEM_DS3505
ZBYN,1999-08-07 19:00,ZBYN 071900Z AUTO 13002KT 6SM 22/22 A2962 RMK T02200220 IEM_DS3505
ZBYN,1999-08-07 20:00,ZBYN 072000Z AUTO 11002KT 6SM 22/21 A2962 RMK T02200210 IEM_DS3505
ZBYN,1999-08-07 21:00,ZBYN 072100Z AUTO 00000KT 5SM 21/20 A2962 RMK SLP000 T02140202 57002 IEM_DS3505
ZBYN,1999-08-07 22:00,ZBYN 072200Z AUTO 00000KT 6SM 22/21 A2965 RMK T02200210 IEM_DS3505
ZBYN,1999-08-07 23:00,ZBYN 072300Z AUTO 00000KT 6SM 22/22 A2965 RMK T02200220 IEM_DS3505
ZBYN,1999-08-08 00:00,ZBYN 080000Z AUTO 29004KT 5SM 24/22 A2965 RMK SLP013 T02390217 52012 IEM_DS3505
ZBYN,1999-08-08 01:00,ZBYN 080100Z AUTO 16002KT 6SM 26/22 A2965 RMK T02600220 IEM_DS3505
ZBYN,1999-08-08 02:00,ZBYN 080200Z AUTO 00000KT 6SM 27/22 A2962 RMK T02700220 IEM_DS3505
ZBYN,1999-08-08 03:00,ZBYN 080300Z AUTO 16002KT 4SM 29/20 A2962 RMK SLP009 T02880195 54000 IEM_DS3505
ZBYN,1999-08-08 04:00,ZBYN 080400Z AUTO 08002KT 6SM 30/20 A2962 RMK T03000200 IEM_DS3505
ZBYN,1999-08-08 05:00,ZBYN 080500Z AUTO 15004KT 6SM 32/21 A2959 RMK T03200210 IEM_DS3505
ZBYN,1999-08-08 06:00,ZBYN 080600Z AUTO 00000KT 7SM 32/19 A2959 RMK SLP987 T03210192 57016 IEM_DS3505
ZBYN,1999-08-08 07:00,ZBYN 080700Z AUTO 11008KT 7SM 33/19 A2956 RMK T03300190 IEM_DS3505
ZBYN,1999-08-08 08:00,ZBYN 080800Z AUTO 13004KT 7SM 32/18 A2956 RMK T03200180 IEM_DS3505
ZBYN,1999-08-08 09:00,ZBYN 080900Z AUTO 18006KT 9SM 30/19 A2956 RMK SLP985 T03040190 57005 IEM_DS3505
ZBYN,1999-08-08 10:00,ZBYN 081000Z AUTO 11010KT 7SM 30/22 A2959 RMK T03000220 IEM_DS3505
ZBYN,1999-08-08 11:00,ZBYN 081100Z AUTO 34016KT 7SM 23/23 A2962 RMK T02300230 IEM_DS3505
ZBYN,1999-08-08 12:00,ZBYN 081200Z AUTO 32004KT 4SM 21/20 A2965 RMK SLP024 T02080204 52026 IEM_DS3505
ZBYN,1999-08-08 13:00,ZBYN 081300Z AUTO 06004KT 1 1/2SM 22/22 A2965 RMK T02200220 IEM_DS3505
ZBYN,1999-08-08 14:00,ZBYN 081400Z AUTO 01004KT 2SM 22/22 A2965 RMK T02200220 IEM_DS3505
ZBYN,1999-08-08 16:00,ZBYN 081600Z AUTO 03004KT 3SM 24/23 A2965 RMK T02400230 IEM_DS3505
ZBYN,1999-08-08 17:00,ZBYN 081700Z AUTO 29004KT 3SM 23/23 A2965 RMK T02300230 IEM_DS3505
ZBYN,1999-08-08 18:00,ZBYN 081800Z AUTO 02006KT 1 1/4SM 21/21 RMK SLP008 T02130212 57002 IEM_DS3505
ZBYN,1999-08-08 19:00,ZBYN 081900Z AUTO 35014KT 2SM 20/20 A2965 RMK T02000200 IEM_DS3505
ZBYN,1999-08-08 20:00,ZBYN 082000Z AUTO 34002KT 2 1/2SM 20/20 A2965 RMK T02000200 IEM_DS3505
ZBYN,1999-08-08 21:00,ZBYN 082100Z AUTO 29006KT 1 1/4SM 20/20 A2968 RMK SLP022 T01970197 52009 IEM_DS3505
ZBYN,1999-08-08 22:00,ZBYN 082200Z AUTO 00000KT 2 1/2SM 20/20 A2971 RMK T02000200 IEM_DS3505
ZBYN,1999-08-08 23:00,ZBYN 082300Z AUTO 00000KT 1 1/2SM 20/20 A2971 RMK T02000200 IEM_DS3505
ZBYN,1999-08-09 00:00,ZBYN 090000Z AUTO 00000KT 1SM 21/21 A2971 RMK SLP047 T02070206 52011 IEM_DS3505
ZBYN,1999-08-09 01:00,ZBYN 090100Z AUTO 00000KT 2SM 21/21 A2971 RMK T02100210 IEM_DS3505
ZBYN,1999-08-09 02:00,ZBYN 090200Z AUTO 00000KT 2 1/2SM 23/22 A2974 RMK T02300220 IEM_DS3505
ZBYN,1999-08-09 03:00,ZBYN 090300Z AUTO 20004KT 1 1/4SM 26/21 RMK SLP045 T02550213 52007 IEM_DS3505
ZBYN,1999-08-09 04:00,ZBYN 090400Z AUTO 00000KT 3SM 26/23 A2974 RMK T02600230 IEM_DS3505
ZBYN,1999-08-09 05:00,ZBYN 090500Z AUTO 00000KT 5SM 27/22 A2971 RMK T02700220 IEM_DS3505
ZBYN,1999-08-09 06:00,ZBYN 090600Z AUTO 18002KT 6SM 29/22 A2971 RMK SLP035 T02880215 57006 IEM_DS3505
ZBYN,1999-08-09 07:00,ZBYN 090700Z AUTO 00000KT 7SM 29/23 A2971 RMK T02900230 IEM_DS3505
ZBYN,1999-08-09 08:00,ZBYN 090800Z AUTO 00000KT 7SM 29/23 A2971 RMK T02900230 IEM_DS3505
ZBYN,1999-08-09 09:00,ZBYN 090900Z AUTO 18002KT 6SM 28/21 RMK SLP033 T02820208 57005 IEM_DS3505
ZBYN,1999-08-09 10:00,ZBYN 091000Z AUTO 00000KT 6SM 28/23 A2971 RMK T02800230 IEM_DS3505
ZBYN,1999-08-09 11:00,ZBYN 091100Z AUTO 00000KT 7SM 26/24 A2971 RMK T02600240 IEM_DS3505
ZBYN,1999-08-09 12:00,ZBYN 091200Z AUTO 00000KT 6SM 25/22 A2974 RMK SLP044 T02500215 52007 IEM_DS3505
ZBYN,1999-08-09 15:00,ZBYN 091500Z AUTO 07006KT 6SM 24/18 RMK SLP065 T02360182 52024 IEM_DS3505
ZBYN,1999-08-09 16:00,ZBYN 091600Z AUTO 07004KT 6SM 23/21 A2980 RMK T02300210 IEM_DS3505
ZBYN,1999-08-09 17:00,ZBYN 091700Z AUTO 01004KT 6SM 23/20 A2983 RMK T02300200 IEM_DS3505
ZBYN,1999-08-09 18:00,ZBYN 091800Z AUTO 36004KT 6SM 23/09 RMK SLP073 T02260092 52010 IEM_DS3505
ZBYN,1999-08-09 20:00,ZBYN 092000Z AUTO 01004KT 6SM 19/19 A2985 RMK T01900190 IEM_DS3505
ZBYN,1999-08-09 21:00,ZBYN 092100Z AUTO 34006KT 6SM 19/10 A2985 RMK SLP082 T01940101 52003 IEM_DS3505
ZBYN,1999-08-09 22:00,ZBYN 092200Z AUTO 34008KT 6SM 19/17 A2985 RMK T01900170 IEM_DS3505
ZBYN,1999-08-09 23:00,ZBYN 092300Z AUTO 33002KT 6SM 20/17 A2985 RMK T02000170 IEM_DS3505
ZBYN,1999-08-10 00:00,ZBYN 100000Z AUTO 34002KT 11SM 20/10 A2988 RMK SLP098 T02010099 52011 IEM_DS3505
ZBYN,1999-08-10 01:00,ZBYN 100100Z AUTO 34010KT 6SM 24/14 A2988 RMK T02400140 IEM_DS3505
ZBYN,1999-08-10 02:00,ZBYN 100200Z AUTO 34008KT 7SM 25/13 A2988 RMK T02500130 IEM_DS3505
ZBYN,1999-08-10 03:00,ZBYN 100300Z AUTO 02006KT 12SM 26/10 A2988 RMK SLP094 T02580103 52003 IEM_DS3505
ZBYN,1999-08-10 04:00,ZBYN 100400Z AUTO 33004KT 7SM 27/17 A2988 RMK T02700170 IEM_DS3505
ZBYN,1999-08-10 05:00,ZBYN 100500Z AUTO 32006KT 7SM 28/18 A2988 RMK T02800180 IEM_DS3505
ZBYN,1999-08-10 06:00,ZBYN 100600Z AUTO 32002KT 12SM 29/12 A2985 RMK SLP084 T02880119 57007 IEM_DS3505
ZBYN,1999-08-10 07:00,ZBYN 100700Z AUTO 33008KT 7SM 29/16 A2985 RMK T02900160 IEM_DS3505
ZBYN,1999-08-10 09:00,ZBYN 100900Z AUTO 32006KT 12SM 30/13 A2980 RMK SLP066 T03030128 57019 IEM_DS3505
ZBYN,1999-08-10 10:00,ZBYN 101000Z AUTO 00000KT 6SM 28/17 A2980 RMK T02800170 IEM_DS3505
ZBYN,1999-08-10 11:00,ZBYN 101100Z AUTO 23002KT 6SM 27/16 A2980 RMK T02700160 IEM_DS3505
ZBYN,1999-08-10 12:00,ZBYN 101200Z AUTO 00000KT 12SM 23/13 A2983 RMK SLP081 T02280132 52005 IEM_DS3505
ZBYN,1999-08-10 13:00,ZBYN 101300Z AUTO 07008KT 6SM 24/15 A2985 RMK T02400150 IEM_DS3505
ZBYN,1999-08-10 14:00,ZBYN 101400Z AUTO 07010KT 6SM 23/12 A2988 RMK T02300120 IEM_DS3505
ZBYN,1999-08-10 15:00,ZBYN 101500Z AUTO 04002KT 12SM 22/11 A2988 RMK SLP097 T02250107 52022 IEM_DS3505
ZBYN,1999-08-10 16:00,ZBYN 101600Z AUTO 04004KT 6SM 22/13 A2991 RMK T02200130 IEM_DS3505
ZBYN,1999-08-10 17:00,ZBYN 101700Z AUTO 04004KT 6SM 22/11 A2991 RMK T02200110 IEM_DS3505
ZBYN,1999-08-10 18:00,ZBYN 101800Z AUTO 00000KT 9SM 18/14 A2991 RMK SLP106 T01800140 52006 IEM_DS3505
ZBYN,1999-08-10 19:00,ZBYN 101900Z AUTO 10002KT 6SM 16/15 A2991 RMK T01600150 IEM_DS3505
ZBYN,1999-08-10 20:00,ZBYN 102000Z AUTO 06004KT 6SM 17/14 A2991 RMK T01700140 IEM_DS3505
ZBYN,1999-08-10 21:00,ZBYN 102100Z AUTO 32002KT 9SM 17/13 A2991 RMK SLP106 T01730126 52001 IEM_DS3505
ZBYN,1999-08-10 22:00,ZBYN 102200Z AUTO 12002KT 6SM 15/13 A2994 RMK T01500130 IEM_DS3505
ZBYN,1999-08-10 23:00,ZBYN 102300Z AUTO 08002KT 6SM 17/12 A2994 RMK T01700120 IEM_DS3505
ZBYN,1999-08-11 00:00,ZBYN 110000Z AUTO 34004KT 12SM 20/13 A2994 RMK SLP122 T01980126 52008 IEM_DS3505
ZBYN,1999-08-11 01:00,ZBYN 110100Z AUTO 36002KT 6SM 22/14 A2994 RMK T02200140 IEM_DS3505
ZBYN,1999-08-11 03:00,ZBYN 110300Z AUTO 09006KT 12SM 26/08 A2991 RMK SLP107 T02620085 57005 IEM_DS3505
ZBYN,1999-08-11 04:00,ZBYN 110400Z AUTO 06008KT 6SM 27/12 A2991 RMK T02700120 IEM_DS3505
ZBYN,1999-08-11 05:00,ZBYN 110500Z AUTO 07008KT 6SM 28/12 A2988 RMK T02800120 IEM_DS3505
ZBYN,1999-08-11 06:00,ZBYN 110600Z AUTO 09006KT 12SM 28/08 A2985 RMK SLP093 T02790084 57017 IEM_DS3505
ZBYN,1999-08-11 07:00,ZBYN 110700Z AUTO 07008KT 6SM 28/11 A2985 RMK T02800110 IEM_DS3505
ZBYN,1999-08-11 08:00,ZBYN 110800Z AUTO 08008KT 6SM 28/12 A2983 RMK T02800120 IEM_DS3505
ZBYN,1999-08-11 09:00,ZBYN 110900Z AUTO 09008KT 12SM 28/12 A2980 RMK SLP069 T02780116 57023 IEM_DS3505
ZBYN,1999-08-11 10:00,ZBYN 111000Z AUTO 07008KT 6SM 27/13 A2980 RMK T02700130 IEM_DS3505
ZBYN,1999-08-11 11:00,ZBYN 111100Z AUTO 07004KT 6SM 26/13 A2980 RMK T02600130 IEM_DS3505
ZBYN,1999-08-11 12:00,ZBYN 111200Z AUTO 09008KT 12SM 24/10 A2983 RMK SLP075 T02360104 52003 IEM_DS3505
ZBYN,1999-08-11 13:00,ZBYN 111300Z AUTO 07010KT 6SM 23/13 A2983 RMK T02300130 IEM_DS3505
ZBYN,1999-08-11 14:00,ZBYN 111400Z AUTO 08012KT 6SM 22/13 A2985 RMK T02200130 IEM_DS3505
ZBYN,1999-08-11 15:00,ZBYN 111500Z AUTO 04004KT 12SM 22/11 A2985 RMK SLP089 T02200113 52019 IEM_DS3505
ZBYN,1999-08-11 16:00,ZBYN 111600Z AUTO 08008KT 6SM 20/14 A2985 RMK T02000140 IEM_DS3505
ZBYN,1999-08-11 17:00,ZBYN 111700Z AUTO 08006KT 6SM 19/14 A2985 RMK T01900140 IEM_DS3505
ZBYN,1999-08-11 18:00,ZBYN 111800Z AUTO 07004KT 9SM 17/13 A2985 RMK SLP089 T01700127 57004 IEM_DS3505
ZBYN,1999-08-11 21:00,ZBYN 112100Z AUTO 32002KT 7SM 16/12 A2983 RMK SLP083 T01580119 57007 IEM_DS3505
ZBYN,1999-08-11 22:00,ZBYN 112200Z AUTO 12002KT 6SM 13/13 A2985 RMK T01300130 IEM_DS3505
ZBYN,1999-08-11 23:00,ZBYN 112300Z AUTO 13002KT 6SM 16/14 A2985 RMK T01600140 IEM_DS3505
ZBYN,1999-08-12 00:00,ZBYN 120000Z AUTO 34004KT 9SM 19/11 A2985 RMK SLP088 T01900113 52003 IEM_DS3505
ZBYN,1999-08-12 01:00,ZBYN 120100Z AUTO 00000KT 5SM 21/15 A2985 RMK T02100150 IEM_DS3505
ZBYN,1999-08-12 02:00,ZBYN 120200Z AUTO 35002KT 6SM 23/15 A2983 RMK T02300150 IEM_DS3505
ZBYN,1999-08-12 03:00,ZBYN 120300Z AUTO 25002KT 9SM 25/12 A2983 RMK SLP075 T02460120 57007 IEM_DS3505
ZBYN,1999-08-12 04:00,ZBYN 120400Z AUTO 08004KT 6SM 26/15 A2980 RMK T02600150 IEM_DS3505
ZBYN,1999-08-12 05:00,ZBYN 120500Z AUTO 00000KT 6SM 27/15 A2977 RMK T02700150 IEM_DS3505
ZBYN,1999-08-12 06:00,ZBYN 120600Z AUTO 16002KT 9SM 28/15 A2974 RMK SLP051 T02760147 57024 IEM_DS3505
ZBYN,1999-08-12 07:00,ZBYN 120700Z AUTO 10008KT 6SM 30/16 A2971 RMK T03000160 IEM_DS3505
ZBYN,1999-08-12 08:00,ZBYN 120800Z AUTO 07008KT 6SM 29/14 A2968 RMK T02900140 IEM_DS3505
ZBYN,1999-08-12 09:00,ZBYN 120900Z AUTO 09006KT 11SM 28/14 A2968 RMK SLP034 T02850137 57016 IEM_DS3505
ZBYN,1999-08-12 10:00,ZBYN 121000Z AUTO 07008KT 6SM 28/14 A2968 RMK T02800140 IEM_DS3505
ZBYN,1999-08-12 11:00,ZBYN 121100Z AUTO 08006KT 6SM 26/14 A2968 RMK T02600140 IEM_DS3505
ZBYN,1999-08-12 12:00,ZBYN 121200Z AUTO 07008KT 11SM 24/12 A2971 RMK SLP035 T02380124 57001 IEM_DS3505
ZBYN,1999-08-12 13:00,ZBYN 121300Z AUTO 09010KT 6SM 22/16 A2971 RMK T02200160 IEM_DS3505
ZBYN,1999-08-12 14:00,ZBYN 121400Z AUTO 08006KT 6SM 21/16 A2977 RMK T02100160 IEM_DS3505
ZBYN,1999-08-12 15:00,ZBYN 121500Z AUTO 16004KT 9SM 18/15 A2977 RMK SLP063 T01780147 52025 IEM_DS3505
ZBYN,1999-08-12 16:00,ZBYN 121600Z AUTO 07010KT 6SM 20/17 A2977 RMK T02000170 IEM_DS3505
ZBYN,1999-08-12 17:00,ZBYN 121700Z AUTO 06006KT 6SM 19/17 A2977 RMK T01900170 IEM_DS3505
ZBYN,1999-08-12 18:00,ZBYN 121800Z AUTO 00000KT 9SM 18/15 A2977 RMK SLP058 T01770149 57001 IEM_DS3505
ZBYN,1999-08-12 19:00,ZBYN 121900Z AUTO 01002KT 6SM 19/16 A2977 RMK T01900160 IEM_DS3505
ZBYN,1999-08-12 20:00,ZBYN 122000Z AUTO 00000KT 6SM 16/16 A2977 RMK T01600160 IEM_DS3505
ZBYN,1999-08-12 21:00,ZBYN 122100Z AUTO 02002KT 7SM 18/14 A2977 RMK SLP055 T01810141 57001 IEM_DS3505
ZBYN,1999-08-12 22:00,ZBYN 122200Z AUTO 00000KT 6SM 15/15 A2977 RMK T01500150 IEM_DS3505
ZBYN,1999-08-12 23:00,ZBYN 122300Z AUTO 00000KT 6SM 17/16 A2977 RMK T01700160 IEM_DS3505
ZBYN,1999-08-13 00:00,ZBYN 130000Z AUTO 32002KT 7SM 20/14 A2980 RMK SLP064 T02010143 52005 IEM_DS3505
ZBYN,1999-08-13 01:00,ZBYN 130100Z AUTO 00000KT 6SM 22/17 A2977 RMK T02200170 IEM_DS3505
ZBYN,1999-08-13 02:00,ZBYN 130200Z AUTO 18002KT 6SM 24/18 A2977 RMK T02400180 IEM_DS3505
ZBYN,1999-08-13 03:00,ZBYN 130300Z AUTO 00000KT 9SM 26/17 A2977 RMK SLP060 T02590167 57004 IEM_DS3505
ZBYN,1999-08-13 04:00,ZBYN 130400Z AUTO 10006KT 7SM 28/20 A2974 RMK T02800200 IEM_DS3505
ZBYN,1999-08-13 05:00,ZBYN 130500Z AUTO 09012KT 7SM 29/20 A2974 RMK T02900200 IEM_DS3505
ZBYN,1999-08-13 06:00,ZBYN 130600Z AUTO 11008KT 12SM 29/18 A2971 RMK SLP041 T02860184 57014 IEM_DS3505
ZBYN,1999-08-13 07:00,ZBYN 130700Z AUTO 12008KT 7SM 30/20 A2968 RMK T03000200 IEM_DS3505
ZBYN,1999-08-13 08:00,ZBYN 130800Z AUTO 09008KT 7SM 30/20 A2968 RMK T03000200 IEM_DS3505
ZBYN,1999-08-13 09:00,ZBYN 130900Z AUTO 11016KT 16SM 29/18 A2968 RMK SLP027 T02890179 57012 IEM_DS3505
ZBYN,1999-08-13 10:00,ZBYN 131000Z AUTO 09012KT 7SM 28/20 A2968 RMK T02800200 IEM_DS3505
ZBYN,1999-08-13 11:00,ZBYN 131100Z AUTO 10014KT 7SM 25/20 A2971 RMK T02500200 IEM_DS3505
ZBYN,1999-08-13 12:00,ZBYN 131200Z AUTO 09008KT 12SM 24/18 A2974 RMK SLP043 T02410185 52011 IEM_DS3505
ZBYN,1999-08-13 13:00,ZBYN 131300Z AUTO 09012KT 7SM 24/21 A2977 RMK T02400210 IEM_DS3505
ZBYN,1999-08-13 14:00,ZBYN 131400Z AUTO 07014KT 6SM 23/21 A2977 RMK T02300210 IEM_DS3505
ZBYN,1999-08-13 15:00,ZBYN 131500Z AUTO 09004KT 12SM 23/20 A2980 RMK SLP060 T02320198 52022 IEM_DS3505
ZBYN,1999-08-13 16:00,ZBYN 131600Z AUTO 00000KT 6SM 22/21 A2980 RMK T02200210 IEM_DS3505
ZBYN,1999-08-13 17:00,ZBYN 131700Z AUTO 00000KT 6SM 21/21 A2980 RMK T02100210 IEM_DS3505
ZBYN,1999-08-13 18:00,ZBYN 131800Z AUTO 00000KT 9SM 22/20 A2980 RMK SLP053 T02200201 57004 IEM_DS3505
ZBYN,1999-08-13 19:00,ZBYN 131900Z AUTO 05002KT 6SM 22/21 A2980 RMK T02200210 IEM_DS3505
ZBYN,1999-08-13 20:00,ZBYN 132000Z AUTO 01002KT 6SM 22/21 A2980 RMK T02200210 IEM_DS3505
ZBYN,1999-08-13 21:00,ZBYN 132100Z AUTO 34004KT 9SM 22/20 A2980 RMK SLP058 T02170204 52004 IEM_DS3505
ZBYN,1999-08-13 22:00,ZBYN 132200Z AUTO 06004KT 6SM 22/21 A2980 RMK T02200210 IEM_DS3505
ZBYN,1999-08-13 23:00,ZBYN 132300Z AUTO 06002KT 6SM 23/21 A2983 RMK T02300210 IEM_DS3505
ZBYN,1999-08-14 00:00,ZBYN 140000Z AUTO 32004KT 7SM 23/21 A2983 RMK SLP073 T02310206 52009 IEM_DS3505
ZBYN,1999-08-14 01:00,ZBYN 140100Z AUTO 08004KT 7SM 25/22 A2983 RMK T02500220 IEM_DS3505
ZBYN,1999-08-14 02:00,ZBYN 140200Z AUTO 06004KT 7SM 26/22 A2983 RMK T02600220 IEM_DS3505
ZBYN,1999-08-14 03:00,ZBYN 140300Z AUTO 14002KT 6SM 27/21 A2983 RMK SLP080 T02690208 52011 IEM_DS3505
ZBYN,1999-08-14 04:00,ZBYN 140400Z AUTO 07004KT 7SM 28/22 A2983 RMK T02800220 IEM_DS3505
ZBYN,1999-08-14 05:00,ZBYN 140500Z AUTO 09002KT 7SM 28/21 A2980 RMK T02800210 IEM_DS3505
ZBYN,1999-08-14 06:00,ZBYN 140600Z AUTO 18002KT 6SM 24/22 RMK SLP073 T02450222 57012 IEM_DS3505
ZBYN,1999-08-14 09:00,ZBYN 140900Z AUTO 09010KT 6SM 28/21 RMK SLP058 T02840212 57008 IEM_DS3505
ZBYN,1999-08-14 10:00,ZBYN 141000Z AUTO 07012KT 7SM 27/22 A2980 RMK T02700220 IEM_DS3505
ZBYN,1999-08-14 11:00,ZBYN 141100Z AUTO 08012KT 7SM 26/22 A2983 RMK T02600220 IEM_DS3505
ZBYN,1999-08-14 12:00,ZBYN 141200Z AUTO 00000KT 7SM 26/21 A2985 RMK SLP081 T02560212 52019 IEM_DS3505
ZBYN,1999-08-14 13:00,ZBYN 141300Z AUTO 08012KT 7SM 25/22 A2988 RMK T02500220 IEM_DS3505
ZBYN,1999-08-14 14:00,ZBYN 141400Z AUTO 08008KT 7SM 24/22 A2991 RMK T02400220 IEM_DS3505
ZBYN,1999-08-14 15:00,ZBYN 141500Z AUTO 00000KT 7SM 24/21 A2991 RMK SLP100 T02370209 52020 IEM_DS3505
ZBYN,1999-08-14 16:00,ZBYN 141600Z AUTO 07006KT 6SM 24/22 A2994 RMK T02400220 IEM_DS3505
ZBYN,1999-08-14 17:00,ZBYN 141700Z AUTO 07006KT 6SM 23/21 A2994 RMK T02300210 IEM_DS3505
ZBYN,1999-08-14 18:00,ZBYN 141800Z AUTO 32002KT 7SM 22/21 A2994 RMK SLP112 T02250210 52006 IEM_DS3505
ZBYN,1999-08-14 19:00,ZBYN 141900Z AUTO 07008KT 6SM 23/22 A2994 RMK T02300220 IEM_DS3505
ZBYN,1999-08-14 20:00,ZBYN 142000Z AUTO 10004KT 6SM 23/22 A2997 RMK T02300220 IEM_DS3505
ZBYN,1999-08-14 21:00,ZBYN 142100Z AUTO 27002KT 5SM 22/21 A2997 RMK SLP118 T02180208 52010 IEM_DS3505
ZBYN,1999-08-14 22:00,ZBYN 142200Z AUTO 00000KT 6SM 21/21 A2997 RMK T02100210 IEM_DS3505
ZBYN,1999-08-14 23:00,ZBYN 142300Z AUTO 00000KT 6SM 22/22 A2997 RMK T02200220 IEM_DS3505
ZBYN,1999-08-15 00:00,ZBYN 150000Z AUTO 32004KT 5SM 23/21 A3000 RMK SLP132 T02340209 52011 IEM_DS3505
ZBYN,1999-08-15 01:00,ZBYN 150100Z AUTO 10006KT 6SM 26/23 A3000 RMK T02600230 IEM_DS3505
ZBYN,1999-08-15 02:00,ZBYN 150200Z AUTO 09006KT 7SM 25/22 A3003 RMK T02500220 IEM_DS3505
ZBYN,1999-08-15 03:00,ZBYN 150300Z AUTO 11004KT 6SM 28/21 A3000 RMK SLP131 T02770212 52002 IEM_DS3505
ZBYN,1999-08-15 05:00,ZBYN 150500Z AUTO 08006KT 7SM 28/21 A3000 RMK T02800210 IEM_DS3505
ZBYN,1999-08-15 06:00,ZBYN 150600Z AUTO 09017KT 9SM 27/21 A3000 RMK SLP130 T02670207 57004 IEM_DS3505
ZBYN,1999-08-15 07:00,ZBYN 150700Z AUTO 08014KT 7SM 24/22 A2997 RMK T02400220 IEM_DS3505
ZBYN,1999-08-15 08:00,ZBYN 150800Z AUTO 07012KT 6SM 24/22 A2997 RMK T02400220 IEM_DS3505
ZBYN,1999-08-15 09:00,ZBYN 150900Z AUTO 07010KT 11SM 25/21 A2997 RMK SLP128 T02480207 57005 IEM_DS3505
ZBYN,1999-08-15 10:00,ZBYN 151000Z AUTO 06012KT 6SM 25/22 A2997 RMK T02500220 IEM_DS3505
ZBYN,1999-08-15 11:00,ZBYN 151100Z AUTO 07010KT 6SM 24/22 A2997 RMK T02400220 IEM_DS3505
ZBYN,1999-08-15 12:00,ZBYN 151200Z AUTO 36002KT 9SM 25/20 A2997 RMK SLP129 T02480204 52003 IEM_DS3505
ZBYN,1999-08-15 13:00,ZBYN 151300Z AUTO 08010KT 6SM 23/22 A3000 RMK T02300220 IEM_DS3505
ZBYN,1999-08-15 14:00,ZBYN 151400Z AUTO 07008KT 6SM 23/21 A3000 RMK T02300210 IEM_DS3505
ZBYN,1999-08-15 15:00,ZBYN 151500Z AUTO 00000KT 6SM 22/21 A3000 RMK SLP136 T02210208 52009 IEM_DS3505
ZBYN,1999-08-15 16:00,ZBYN 151600Z AUTO 04002KT 5SM 23/21 A3000 RMK T02300210 IEM_DS3505
ZBYN,1999-08-15 17:00,ZBYN 151700Z AUTO 05002KT 4SM 22/21 A3000 RMK T02200210 IEM_DS3505
ZBYN,1999-08-15 18:00,ZBYN 151800Z AUTO 32002KT 5SM 22/20 A2997 RMK SLP130 T02200201 57007 IEM_DS3505
ZBYN,1999-08-15 19:00,ZBYN 151900Z AUTO 00000KT 6SM 21/21 A2997 RMK T02100210 IEM_DS3505
ZBYN,1999-08-15 20:00,ZBYN 152000Z AUTO 00000KT 6SM 21/21 A2997 RMK T02100210 IEM_DS3505
ZBYN,1999-08-15 21:00,ZBYN 152100Z AUTO 00000KT 4SM 21/20 A2997 RMK SLP134 T02110199 57001 IEM_DS3505
ZBYN,1999-08-15 22:00,ZBYN 152200Z AUTO 00000KT 4SM 20/20 A2997 RMK T02000200 IEM_DS3505
ZBYN,1999-08-15 23:00,ZBYN 152300Z AUTO 13002KT 2SM 21/21 A3000 RMK T02100210 IEM_DS3505
ZBYN,1999-08-16 00:00,ZBYN 160000Z AUTO 00000KT 5SM 23/21 A3000 RMK SLP134 T02270208 52003 IEM_DS3505
ZBYN,1999-08-16 01:00,ZBYN 160100Z AUTO 00000KT 2 1/2SM 24/22 A2997 RMK T02400220 IEM_DS3505
ZBYN,1999-08-16 02:00,ZBYN 160200Z AUTO 24002KT 4SM 25/22 A2997 RMK T02500220 IEM_DS3505
ZBYN,1999-08-16 03:00,ZBYN 160300Z AUTO 14004KT 5SM 27/20 A2994 RMK SLP112 T02690201 57018 IEM_DS3505
ZBYN,1999-08-16 04:00,ZBYN 160400Z AUTO 21002KT 6SM 28/22 A2991 RMK T02800220 IEM_DS3505
ZBYN,1999-08-16 05:00,ZBYN 160500Z AUTO 20002KT 6SM 29/22 A2991 RMK T02900220 IEM_DS3505
ZBYN,1999-08-16 06:00,ZBYN 160600Z AUTO 20004KT 4SM 30/20 A2988 RMK SLP086 T02950203 57021 IEM_DS3505
ZBYN,1999-08-16 08:00,ZBYN 160800Z AUTO 00000KT 6SM 31/22 A2983 RMK T03100220 IEM_DS3505
ZBYN,1999-08-16 09:00,ZBYN 160900Z AUTO 20006KT 4SM 30/20 A2983 RMK SLP065 T03050201 57019 IEM_DS3505
ZBYN,1999-08-16 10:00,ZBYN 161000Z AUTO 00000KT 6SM 30/21 A2983 RMK T03000210 IEM_DS3505
ZBYN,1999-08-16 11:00,ZBYN 161100Z AUTO 00000KT 6SM 29/23 A2983 RMK T02900230 IEM_DS3505
ZBYN,1999-08-16 12:00,ZBYN 161200Z AUTO 00000KT 6SM 26/22 A2983 RMK SLP071 T02630221 52002 IEM_DS3505
ZBYN,1999-08-16 13:00,ZBYN 161300Z AUTO 00000KT 6SM 26/24 A2983 RMK T02600240 IEM_DS3505
ZBYN,1999-08-16 14:00,ZBYN 161400Z AUTO 12002KT 6SM 23/22 A2983 RMK T02300220 IEM_DS3505
ZBYN,1999-08-16 15:00,ZBYN 161500Z AUTO 00000KT 6SM 23/21 A2983 RMK SLP075 T02330209 52005 IEM_DS3505
ZBYN,1999-08-16 16:00,ZBYN 161600Z AUTO 00000KT 6SM 23/22 A2983 RMK T02300220 IEM_DS3505
ZBYN,1999-08-16 18:00,ZBYN 161800Z AUTO 00000KT 6SM 21/20 A2983 RMK SLP070 T02120198 57004 IEM_DS3505
ZBYN,1999-08-16 19:00,ZBYN 161900Z AUTO 13002KT 6SM 21/21 A2983 RMK T02100210 IEM_DS3505
ZBYN,1999-08-16 20:00,ZBYN 162000Z AUTO 00000KT 6SM 20/19 A2983 RMK T02030194 IEM_DS3505
ZBYN,1999-08-16 21:00,ZBYN 162100Z AUTO 00000KT 6SM 20/19 A2983 RMK SLP075 T02030194 52005 IEM_DS3505
ZBYN,1999-08-16 22:00,ZBYN 162200Z AUTO 00000KT 4SM 20/20 A2983 RMK T02000200 IEM_DS3505
ZBYN,1999-08-16 23:00,ZBYN 162300Z AUTO 09002KT 4SM 21/21 A2985 RMK T02100210 IEM_DS3505
ZBYN,1999-08-17 00:00,ZBYN 170000Z AUTO 00000KT 4SM 23/21 A2985 RMK SLP083 T02280209 52005 IEM_DS3505
ZBYN,1999-08-17 01:00,ZBYN 170100Z AUTO 13002KT 2 1/2SM 25/22 A2985 RMK T02500220 IEM_DS3505
ZBYN,1999-08-17 02:00,ZBYN 170200Z AUTO 23002KT 2 1/2SM 27/22 A2985 RMK T02700220 IEM_DS3505
ZBYN,1999-08-17 03:00,ZBYN 170300Z AUTO 00000KT 4SM 29/20 A2983 RMK SLP069 T02860204 57009 IEM_DS3505
ZBYN,1999-08-17 05:00,ZBYN 170500Z AUTO 16004KT 5SM 32/22 A2980 RMK T03200220 IEM_DS3505
ZBYN,1999-08-17 06:00,ZBYN 170600Z AUTO 16004KT 4SM 32/20 RMK SLP045 T03250203 57019 IEM_DS3505
ZBYN,1999-08-17 07:00,ZBYN 170700Z AUTO 07002KT 7SM 34/21 A2974 RMK T03400210 IEM_DS3505
ZBYN,1999-08-17 08:00,ZBYN 170800Z AUTO 10008KT 7SM 35/21 A2974 RMK T03500210 IEM_DS3505
ZBYN,1999-08-17 09:00,ZBYN 170900Z AUTO 11010KT 5SM 31/17 A2974 RMK SLP038 T03090167 57010 IEM_DS3505
ZBYN,1999-08-17 10:00,ZBYN 171000Z AUTO 12012KT 7SM 29/21 A2977 RMK T02900210 IEM_DS3505
ZBYN,1999-08-17 11:00,ZBYN 171100Z AUTO 08012KT 2 1/2SM 28/23 A2980 RMK T02800230 IEM_DS3505
ZBYN,1999-08-17 12:00,ZBYN 171200Z AUTO 04004KT 6SM 28/21 RMK SLP070 T02790208 52028 IEM_DS3505
ZBYN,1999-08-17 14:00,ZBYN 171400Z AUTO 07006KT 3SM 26/24 A2985 RMK T02600240 IEM_DS3505
ZBYN,1999-08-17 15:00,ZBYN 171500Z AUTO 29002KT 6SM 25/21 A2985 RMK SLP081 T02480207 52014 IEM_DS3505
ZBYN,1999-08-17 16:00,ZBYN 171600Z AUTO 09004KT 5SM 25/23 A2985 RMK T02500230 IEM_DS3505
ZBYN,1999-08-17 17:00,ZBYN 171700Z AUTO 07004KT 5SM 25/23 A2985 RMK T02500230 IEM_DS3505
ZBYN,1999-08-17 18:00,ZBYN 171800Z AUTO 00000KT 6SM 25/21 RMK SLP073 T02490208 57002 IEM_DS3505
ZBYN,1999-08-17 19:00,ZBYN 171900Z AUTO 09002KT 5SM 25/23 A2985 RMK T02500230 IEM_DS3505
ZBYN,1999-08-17 20:00,ZBYN 172000Z AUTO 30014KT 2SM 21/21 A2988 RMK T02100210 IEM_DS3505
ZBYN,1999-08-17 21:00,ZBYN 172100Z AUTO 09004KT 6SM 20/19 RMK SLP090 T01950189 52006 IEM_DS3505
ZBYN,1999-08-17 22:00,ZBYN 172200Z AUTO 14004KT 7SM 20/20 A2991 RMK T02000200 IEM_DS3505
ZBYN,1999-08-17 23:00,ZBYN 172300Z AUTO 08002KT 7SM 20/20 A2991 RMK T02000200 IEM_DS3505
ZBYN,1999-08-18 00:00,ZBYN 180000Z AUTO 00000KT 6SM 21/20 A2991 RMK SLP102 T02120203 52010 IEM_DS3505
ZBYN,1999-08-18 01:00,ZBYN 180100Z AUTO 19002KT 7SM 22/21 A2994 RMK T02200210 IEM_DS3505
ZBYN,1999-08-18 02:00,ZBYN 180200Z AUTO 35002KT 4SM 22/22 A2991 RMK T02200220 IEM_DS3505
ZBYN,1999-08-18 03:00,ZBYN 180300Z AUTO 00000KT 4SM 23/21 A2991 RMK SLP110 T02310209 52005 IEM_DS3505
ZBYN,1999-08-18 04:00,ZBYN 180400Z AUTO 28002KT 4SM 24/23 A2991 RMK T02400230 IEM_DS3505
ZBYN,1999-08-18 05:00,ZBYN 180500Z AUTO 27002KT 4SM 23/23 A2991 RMK T02300230 IEM_DS3505
ZBYN,1999-08-18 06:00,ZBYN 180600Z AUTO 18004KT 5SM 24/22 A2988 RMK SLP098 T02430215 57009 IEM_DS3505
ZBYN,1999-08-18 07:00,ZBYN 180700Z AUTO 16004KT 7SM 25/23 A2985 RMK T02500230 IEM_DS3505
ZBYN,1999-08-18 08:00,ZBYN 180800Z AUTO 21002KT 7SM 25/23 A2985 RMK T02500230 IEM_DS3505
ZBYN,1999-08-18 09:00,ZBYN 180900Z AUTO 16006KT 5SM 25/21 A2985 RMK SLP085 T02500212 57018 IEM_DS3505
ZBYN,1999-08-18 10:00,ZBYN 181000Z AUTO 34012KT 5SM 21/21 A2988 RMK T02100210 IEM_DS3505
ZBYN,1999-08-18 11:00,ZBYN 181100Z AUTO 00000KT 7SM 21/21 A2988 RMK T02100210 IEM_DS3505
ZBYN,1999-08-18 12:00,ZBYN 181200Z AUTO 36006KT 6SM 21/18 A2991 RMK SLP108 T02120179 52018 IEM_DS3505
ZBYN,1999-08-18 13:00,ZBYN 181300Z AUTO 35004KT 7SM 21/21 A2994 RMK T02100210 IEM_DS3505
ZBYN,1999-08-18 14:00,ZBYN 181400Z AUTO 35004KT 7SM 21/20 A2994 RMK T02100200 IEM_DS3505
ZBYN,1999-08-18 15:00,ZBYN 181500Z AUTO 36006KT 6SM 20/15 A2994 RMK SLP123 T02010154 52015 IEM_DS3505
ZBYN,1999-08-18 16:00,ZBYN 181600Z AUTO 33006KT 7SM 20/19 A2994 RMK T02000190 IEM_DS3505
ZBYN,1999-08-18 17:00,ZBYN 181700Z AUTO 33004KT 7SM 20/19 A2994 RMK T02000190 IEM_DS3505
ZBYN,1999-08-18 18:00,ZBYN 181800Z AUTO 34004KT 6SM 19/15 A2994 RMK SLP118 T01930149 57004 IEM_DS3505
ZBYN,1999-08-18 19:00,ZBYN 181900Z AUTO 33002KT 7SM 19/19 A2994 RMK T01900190 IEM_DS3505
ZBYN,1999-08-18 20:00,ZBYN 182000Z AUTO 00000KT 7SM 18/18 A2994 RMK T01800180 IEM_DS3505
ZBYN,1999-08-18 21:00,ZBYN 182100Z AUTO 34006KT 6SM 19/15 A2994 RMK SLP121 T01920149 52003 IEM_DS3505
ZBYN,1999-08-18 22:00,ZBYN 182200Z AUTO 06002KT 7SM 19/18 A2994 RMK T01900180 IEM_DS3505
ZBYN,1999-08-18 23:00,ZBYN 182300Z AUTO 07002KT 7SM 19/18 A2997 RMK T01900180 IEM_DS3505
ZBYN,1999-08-19 00:00,ZBYN 190000Z AUTO 36006KT 12SM 19/15 A3000 RMK SLP148 T01910153 52019 IEM_DS3505
ZBYN,1999-08-19 01:00,ZBYN 190100Z AUTO 06004KT 7SM 19/18 A3000 RMK T01900180 IEM_DS3505
ZBYN,1999-08-19 02:00,ZBYN 190200Z AUTO 05004KT 7SM 20/18 A3000 RMK T02000180 IEM_DS3505
ZBYN,1999-08-19 03:00,ZBYN 190300Z AUTO 01004KT 9SM 20/16 A3000 RMK SLP148 T02000156 54000 IEM_DS3505
ZBYN,1999-08-19 06:00,ZBYN 190600Z AUTO 36004KT 5SM 22/16 RMK SLP140 T02170158 57006 IEM_DS3505
ZBYN,1999-08-19 09:00,ZBYN 190900Z AUTO 00000KT 6SM 24/17 A2994 RMK SLP117 T02370170 57018 IEM_DS3505
ZBYN,1999-08-19 10:00,ZBYN 191000Z AUTO 15002KT 6SM 23/19 A2994 RMK T02300190 IEM_DS3505
ZBYN,1999-08-19 11:00,ZBYN 191100Z AUTO 00000KT 6SM 22/20 A2994 RMK T02200200 IEM_DS3505
ZBYN,1999-08-19 12:00,ZBYN 191200Z AUTO 00000KT 9SM 20/18 A2997 RMK SLP135 T02010178 52011 IEM_DS3505
ZBYN,1999-08-19 13:00,ZBYN 191300Z AUTO 07002KT 6SM 19/19 A2997 RMK T01900190 IEM_DS3505
ZBYN,1999-08-19 15:00,ZBYN 191500Z AUTO 00000KT 6SM 18/17 A3000 RMK SLP147 T01790169 52009 IEM_DS3505
ZBYN,1999-08-19 16:00,ZBYN 191600Z AUTO 11002KT 4SM 17/17 A3000 RMK T01700170 IEM_DS3505
ZBYN,1999-08-19 17:00,ZBYN 191700Z AUTO 10002KT 4SM 17/17 A2997 RMK T01700170 IEM_DS3505
ZBYN,1999-08-19 18:00,ZBYN 191800Z AUTO 00000KT 6SM 16/16 RMK SLP140 T01630160 57006 IEM_DS3505
ZBYN,1999-08-19 19:00,ZBYN 191900Z AUTO 00000KT 4SM 16/16 A2997 RMK T01600160 IEM_DS3505
ZBYN,1999-08-19 21:00,ZBYN 192100Z AUTO 00000KT 1/2SM 15/14 A2997 RMK SLP134 T01460144 57005 IEM_DS3505
ZBYN,1999-08-19 22:00,ZBYN 192200Z AUTO 00000KT 4SM 15/15 A2997 RMK T01500150 IEM_DS3505
ZBYN,1999-08-19 23:00,ZBYN 192300Z AUTO 00000KT 2SM 16/16 A2997 RMK T01600160 IEM_DS3505
ZBYN,1999-08-20 00:00,ZBYN 200000Z AUTO 00000KT 2SM 18/16 A2997 RMK SLP141 T01770161 52005 IEM_DS3505
ZBYN,1999-08-20 01:00,ZBYN 200100Z AUTO 00000KT 4SM 19/19 A2997 RMK T01900190 IEM_DS3505
ZBYN,1999-08-20 02:00,ZBYN 200200Z AUTO 26002KT 4SM 21/19 A2997 RMK T02100190 IEM_DS3505
ZBYN,1999-08-20 03:00,ZBYN 200300Z AUTO 32004KT 4SM 24/16 A2994 RMK SLP134 T02370159 57001 IEM_DS3505
ZBYN,1999-08-20 04:00,ZBYN 200400Z AUTO 21002KT 5SM 25/19 A2994 RMK T02500190 IEM_DS3505
ZBYN,1999-08-20 05:00,ZBYN 200500Z AUTO 16002KT 7SM 26/17 A2991 RMK T02600170 IEM_DS3505
ZBYN,1999-08-20 06:00,ZBYN 200600Z AUTO 18008KT 5SM 27/17 A2988 RMK SLP105 T02660170 57024 IEM_DS3505
ZBYN,1999-08-20 07:00,ZBYN 200700Z AUTO 23004KT 7SM 27/18 A2985 RMK T02700180 IEM_DS3505
ZBYN,1999-08-20 08:00,ZBYN 200800Z AUTO 23004KT 7SM 27/18 A2985 RMK T02700180 IEM_DS3505
ZBYN,1999-08-20 09:00,ZBYN 200900Z AUTO 18002KT 6SM 27/17 A2985 RMK SLP095 T02720170 57011 IEM_DS3505
ZBYN,1999-08-20 10:00,ZBYN 201000Z AUTO 29002KT 7SM 26/20 A2985 RMK T02600200 IEM_DS3505
ZBYN,1999-08-20 11:00,ZBYN 201100Z AUTO 01004KT 6SM 24/18 A2985 RMK T02400180 IEM_DS3505
ZBYN,1999-08-20 12:00,ZBYN 201200Z AUTO 36004KT 9SM 24/12 A2988 RMK SLP099 T02370120 52003 IEM_DS3505
ZBYN,1999-08-20 13:00,ZBYN 201300Z AUTO 00000KT 6SM 20/17 A2991 RMK T02000170 IEM_DS3505
ZBYN,1999-08-20 14:00,ZBYN 201400Z AUTO 06004KT 6SM 21/15 A2991 RMK T02100150 IEM_DS3505
ZBYN,1999-08-20 15:00,ZBYN 201500Z AUTO 32004KT 9SM 18/14 A2991 RMK SLP113 T01770138 52013 IEM_DS3505
ZBYN,1999-08-20 16:00,ZBYN 201600Z AUTO 06002KT 6SM 19/15 A2991 RMK T01900150 IEM_DS3505
ZBYN,1999-08-20 17:00,ZBYN 201700Z AUTO 02002KT 6SM 17/16 A2991 RMK T01700160 IEM_DS3505
ZBYN,1999-08-20 18:00,ZBYN 201800Z AUTO 34004KT 9SM 17/13 A2991 RMK SLP111 T01730126 52002 IEM_DS3505
ZBYN,1999-08-20 19:00,ZBYN 201900Z AUTO 00000KT 6SM 16/16 A2991 RMK T01600160 IEM_DS3505
ZBYN,1999-08-20 21:00,ZBYN 202100Z AUTO 34006KT 9SM 16/11 RMK SLP110 T01610113 57002 IEM_DS3505
ZBYN,1999-08-20 22:00,ZBYN 202200Z AUTO 32002KT 6SM 16/15 A2991 RMK T01600150 IEM_DS3505
ZBYN,1999-08-21 00:00,ZBYN 210000Z AUTO 34006KT 9SM 19/12 RMK SLP122 T01890120 52010 IEM_DS3505
ZBYN,1999-08-21 01:00,ZBYN 210100Z AUTO 00000KT 6SM 21/17 A2994 RMK T02100170 IEM_DS3505
ZBYN,1999-08-21 02:00,ZBYN 210200Z AUTO 03002KT 6SM 22/18 A2994 RMK T02200180 IEM_DS3505
ZBYN,1999-08-21 03:00,ZBYN 210300Z AUTO 00000KT 7SM 24/12 A2991 RMK SLP120 T02430116 57003 IEM_DS3505
ZBYN,1999-08-21 04:00,ZBYN 210400Z AUTO 15002KT 7SM 25/18 A2991 RMK T02500180 IEM_DS3505
ZBYN,1999-08-21 05:00,ZBYN 210500Z AUTO 19002KT 7SM 27/16 A2988 RMK T02700160 IEM_DS3505
ZBYN,1999-08-21 06:00,ZBYN 210600Z AUTO 18006KT 12SM 28/14 A2985 RMK SLP097 T02750142 57017 IEM_DS3505
ZBYN,1999-08-21 07:00,ZBYN 210700Z AUTO 04002KT 7SM 28/13 A2985 RMK T02800130 IEM_DS3505
ZBYN,1999-08-21 08:00,ZBYN 210800Z AUTO 11004KT 7SM 28/13 A2983 RMK T02800130 IEM_DS3505
ZBYN,1999-08-21 09:00,ZBYN 210900Z AUTO 14006KT 12SM 27/14 A2983 RMK SLP087 T02730139 57011 IEM_DS3505
ZBYN,1999-08-21 10:00,ZBYN 211000Z AUTO 12002KT 7SM 27/13 A2983 RMK T02700130 IEM_DS3505
ZBYN,1999-08-21 11:00,ZBYN 211100Z AUTO 08006KT 6SM 25/17 A2985 RMK T02500170 IEM_DS3505
ZBYN,1999-08-21 12:00,ZBYN 211200Z AUTO 11008KT 12SM 23/15 A2988 RMK SLP100 T02290146 52010 IEM_DS3505
ZBYN,1999-08-21 13:00,ZBYN 211300Z AUTO 07010KT 6SM 22/16 A2991 RMK T02200160 IEM_DS3505
ZBYN,1999-08-21 14:00,ZBYN 211400Z AUTO 08008KT 6SM 21/16 A2991 RMK T02100160 IEM_DS3505
ZBYN,1999-08-21 15:00,ZBYN 211500Z AUTO 00000KT 6SM 21/16 A2991 RMK SLP112 T02090161 52015 IEM_DS3505
ZBYN,1999-08-21 16:00,ZBYN 211600Z AUTO 08008KT 6SM 21/17 A2994 RMK T02100170 IEM_DS3505
ZBYN,1999-08-21 17:00,ZBYN 211700Z AUTO 07004KT 6SM 20/17 A2994 RMK T02000170 IEM_DS3505
ZBYN,1999-08-21 18:00,ZBYN 211800Z AUTO 32004KT 6SM 19/15 A2994 RMK SLP114 T01920151 52004 IEM_DS3505
ZBYN,1999-08-21 19:00,ZBYN 211900Z AUTO 06002KT 6SM 19/17 A2994 RMK T01900170 IEM_DS3505
ZBYN,1999-08-21 20:00,ZBYN 212000Z AUTO 00000KT 6SM 18/18 A2994 RMK T01800180 IEM_DS3505
ZBYN,1999-08-21 21:00,ZBYN 212100Z AUTO 34002KT 6SM 18/15 A2994 RMK SLP119 T01830150 52003 IEM_DS3505
ZBYN,1999-08-21 22:00,ZBYN 212200Z AUTO 00000KT 5SM 17/17 A2994 RMK T01700170 IEM_DS3505
ZBYN,1999-08-21 23:00,ZBYN 212300Z AUTO 00000KT 3SM 17/17 A2997 RMK T01700170 IEM_DS3505
ZBYN,1999-08-22 00:00,ZBYN 220000Z AUTO 32002KT 5SM 19/16 A2997 RMK SLP133 T01890158 52008 IEM_DS3505
ZBYN,1999-08-22 01:00,ZBYN 220100Z AUTO 00000KT 3SM 20/19 A2997 RMK T02000190 IEM_DS3505
ZBYN,1999-08-22 02:00,ZBYN 220200Z AUTO 11002KT 6SM 22/19 A2997 RMK T02200190 IEM_DS3505
ZBYN,1999-08-22 03:00,ZBYN 220300Z AUTO 14002KT 6SM 24/17 A2997 RMK SLP131 T02370173 52002 IEM_DS3505
ZBYN,1999-08-22 04:00,ZBYN 220400Z AUTO 22002KT 6SM 24/19 A2994 RMK T02400190 IEM_DS3505
ZBYN,1999-08-22 05:00,ZBYN 220500Z AUTO 12002KT 7SM 25/19 A2991 RMK T02500190 IEM_DS3505
ZBYN,1999-08-22 06:00,ZBYN 220600Z AUTO 16006KT 6SM 23/19 A2991 RMK SLP112 T02300187 57021 IEM_DS3505
ZBYN,1999-08-22 07:00,ZBYN 220700Z AUTO 33004KT 7SM 25/19 A2988 RMK T02500190 IEM_DS3505
ZBYN,1999-08-22 08:00,ZBYN 220800Z AUTO 14002KT 7SM 25/19 A2988 RMK T02500190 IEM_DS3505
ZBYN,1999-08-22 09:00,ZBYN 220900Z AUTO 14002KT 6SM 24/19 A2988 RMK SLP111 T02390189 57001 IEM_DS3505
ZBYN,1999-08-22 10:00,ZBYN 221000Z AUTO 09002KT 7SM 24/18 A2988 RMK T02400180 IEM_DS3505
ZBYN,1999-08-22 11:00,ZBYN 221100Z AUTO 08002KT 7SM 22/16 A2991 RMK T02200160 IEM_DS3505
ZBYN,1999-08-22 12:00,ZBYN 221200Z AUTO 11004KT 6SM 20/17 A2994 RMK SLP123 T02040168 52007 IEM_DS3505
ZBYN,1999-08-22 13:00,ZBYN 221300Z AUTO 09008KT 7SM 21/17 A2997 RMK T02100170 IEM_DS3505
ZBYN,1999-08-22 14:00,ZBYN 221400Z AUTO 10012KT 4SM 19/19 A3000 RMK T01900190 IEM_DS3505
ZBYN,1999-08-22 15:00,ZBYN 221500Z AUTO 00000KT 6SM 19/15 A3000 RMK SLP142 T01940146 52023 IEM_DS3505
ZBYN,1999-08-22 16:00,ZBYN 221600Z AUTO 12008KT 6SM 17/16 A3003 RMK T01700160 IEM_DS3505
ZBYN,1999-08-22 17:00,ZBYN 221700Z AUTO 10002KT 6SM 16/16 A3000 RMK T01600160 IEM_DS3505
ZBYN,1999-08-22 18:00,ZBYN 221800Z AUTO 20002KT 6SM 16/15 A3000 RMK SLP147 T01590146 57002 IEM_DS3505
ZBYN,1999-08-22 19:00,ZBYN 221900Z AUTO 12002KT 6SM 15/15 A3000 RMK T01500150 IEM_DS3505
ZBYN,1999-08-22 20:00,ZBYN 222000Z AUTO 00000KT 6SM 14/14 A3000 RMK T01400140 IEM_DS3505
ZBYN,1999-08-22 21:00,ZBYN 222100Z AUTO 00000KT 2 1/2SM 14/14 A3000 RMK SLP144 T01420140 57003 IEM_DS3505
ZBYN,1999-08-22 22:00,ZBYN 222200Z AUTO 00000KT 6SM 14/14 A3000 RMK T01400140 IEM_DS3505
ZBYN,1999-08-22 23:00,ZBYN 222300Z AUTO 00000KT 5SM 15/15 A3003 RMK T01500150 IEM_DS3505
ZBYN,1999-08-23 00:00,ZBYN 230000Z AUTO 20002KT 2SM 17/15 A3003 RMK SLP158 T01740151 52012 IEM_DS3505
ZBYN,1999-08-23 01:00,ZBYN 230100Z AUTO 00000KT 3SM 19/17 A3003 RMK T01900170 IEM_DS3505
ZBYN,1999-08-23 02:00,ZBYN 230200Z AUTO 20002KT 5SM 21/17 A3003 RMK T02100170 IEM_DS3505
ZBYN,1999-08-23 03:00,ZBYN 230300Z AUTO 14004KT 6SM 23/16 A3003 RMK SLP154 T02260157 52002 IEM_DS3505
ZBYN,1999-08-23 04:00,ZBYN 230400Z AUTO 00000KT 6SM 23/18 A3000 RMK T02300180 IEM_DS3505
ZBYN,1999-08-23 05:00,ZBYN 230500Z AUTO 16004KT 6SM 25/18 A3000 RMK T02500180 IEM_DS3505
ZBYN,1999-08-23 06:00,ZBYN 230600Z AUTO 22004KT 6SM 26/16 A2997 RMK SLP135 T02640160 57017 IEM_DS3505
ZBYN,1999-08-23 07:00,ZBYN 230700Z AUTO 17002KT 6SM 27/18 A2994 RMK T02700180 IEM_DS3505
ZBYN,1999-08-23 08:00,ZBYN 230800Z AUTO 18002KT 6SM 28/18 A2994 RMK T02800180 IEM_DS3505
ZBYN,1999-08-23 09:00,ZBYN 230900Z AUTO 18006KT 7SM 28/18 A2991 RMK SLP120 T02750178 57014 IEM_DS3505
ZBYN,1999-08-23 10:00,ZBYN 231000Z AUTO 28002KT 6SM 27/20 A2991 RMK T02700200 IEM_DS3505
ZBYN,1999-08-23 11:00,ZBYN 231100Z AUTO 24002KT 6SM 24/19 A2994 RMK T02400190 IEM_DS3505
ZBYN,1999-08-23 12:00,ZBYN 231200Z AUTO 09002KT 6SM 22/18 A2997 RMK SLP137 T02230181 52012 IEM_DS3505
ZBYN,1999-08-23 13:00,ZBYN 231300Z AUTO 14002KT 6SM 22/21 A2997 RMK T02200210 IEM_DS3505
ZBYN,1999-08-23 14:00,ZBYN 231400Z AUTO 09004KT 6SM 22/20 A3000 RMK T02200200 IEM_DS3505
ZBYN,1999-08-23 15:00,ZBYN 231500Z AUTO 00000KT 6SM 20/19 A3000 RMK SLP146 T02040186 52013 IEM_DS3505
ZBYN,1999-08-23 16:00,ZBYN 231600Z AUTO 09008KT 4SM 21/20 A3000 RMK T02100200 IEM_DS3505
ZBYN,1999-08-23 17:00,ZBYN 231700Z AUTO 12006KT 4SM 20/20 A3000 RMK T02000200 IEM_DS3505
ZBYN,1999-08-23 18:00,ZBYN 231800Z AUTO 00000KT 5SM 18/17 A3000 RMK SLP140 T01830172 57003 IEM_DS3505
ZBYN,1999-08-23 19:00,ZBYN 231900Z AUTO 00000KT 2SM 19/19 A3000 RMK T01900190 IEM_DS3505
ZBYN,1999-08-23 20:00,ZBYN 232000Z AUTO 13002KT 3SM 18/18 A2997 RMK T01800180 IEM_DS3505
ZBYN,1999-08-23 21:00,ZBYN 232100Z AUTO 00000KT 5SM 18/17 A2997 RMK SLP134 T01760166 57005 IEM_DS3505
ZBYN,1999-08-23 22:00,ZBYN 232200Z AUTO 00000KT 5SM 17/17 A2997 RMK T01700170 IEM_DS3505
ZBYN,1999-08-23 23:00,ZBYN 232300Z AUTO 14002KT 1 1/4SM 18/18 A3000 RMK T01800180 IEM_DS3505
ZBYN,1999-08-24 00:00,ZBYN 240000Z AUTO 00000KT 4SM 19/16 A3000 RMK SLP147 T01900161 52007 IEM_DS3505
ZBYN,1999-08-24 01:00,ZBYN 240100Z AUTO 16002KT 5SM 21/18 A3000 RMK T02100180 IEM_DS3505
ZBYN,1999-08-24 02:00,ZBYN 240200Z AUTO 14002KT 5SM 22/18 A3000 RMK T02200180 IEM_DS3505
ZBYN,1999-08-24 03:00,ZBYN 240300Z AUTO 18004KT 4SM 24/18 A3000 RMK SLP134 T02380178 57008 IEM_DS3505
ZBYN,1999-08-24 06:00,ZBYN 240600Z AUTO 18008KT 5SM 27/16 A2991 RMK SLP109 T02740165 57021 IEM_DS3505
ZBYN,1999-08-24 07:00,ZBYN 240700Z AUTO 24002KT 6SM 28/18 A2988 RMK T02800180 IEM_DS3505
ZBYN,1999-08-24 08:00,ZBYN 240800Z AUTO 00000KT 7SM 28/18 A2985 RMK T02800180 IEM_DS3505
ZBYN,1999-08-24 09:00,ZBYN 240900Z AUTO 00000KT 7SM 26/18 A2985 RMK SLP089 T02650183 57020 IEM_DS3505
ZBYN,1999-08-24 10:00,ZBYN 241000Z AUTO 24002KT 7SM 26/19 A2985 RMK T02600190 IEM_DS3505
ZBYN,1999-08-24 11:00,ZBYN 241100Z AUTO 00000KT 7SM 25/20 A2985 RMK T02500200 IEM_DS3505
ZBYN,1999-08-24 12:00,ZBYN 241200Z AUTO 00000KT 2 1/2SM 23/18 A2988 RMK SLP103 T02270176 52009 IEM_DS3505
ZBYN,1999-08-24 13:00,ZBYN 241300Z AUTO 11002KT 6SM 21/20 A2991 RMK T02100200 IEM_DS3505
ZBYN,1999-08-24 14:00,ZBYN 241400Z AUTO 00000KT 6SM 21/20 A2991 RMK T02100200 IEM_DS3505
ZBYN,1999-08-24 15:00,ZBYN 241500Z AUTO 00000KT 2 1/2SM 22/15 A2991 RMK SLP143 T02180146 52006 IEM_DS3505
ZBYN,1999-08-24 16:00,ZBYN 241600Z AUTO 33006KT 6SM 21/18 A2988 RMK T02100180 IEM_DS3505
ZBYN,1999-08-24 17:00,ZBYN 241700Z AUTO 35002KT 6SM 21/16 A2988 RMK T02100160 IEM_DS3505
ZBYN,1999-08-24 18:00,ZBYN 241800Z AUTO 00000KT 6SM 20/15 A2988 RMK SLP091 T02020148 57009 IEM_DS3505
ZBYN,1999-08-24 19:00,ZBYN 241900Z AUTO 09002KT 6SM 19/18 A2988 RMK T01900180 IEM_DS3505
ZBYN,1999-08-24 20:00,ZBYN 242000Z AUTO 00000KT 6SM 19/18 A2985 RMK T01900180 IEM_DS3505
ZBYN,1999-08-24 21:00,ZBYN 242100Z AUTO 32002KT 3SM 19/15 A2985 RMK SLP090 T01910146 57003 IEM_DS3505
ZBYN,1999-08-24 22:00,ZBYN 242200Z AUTO 00000KT 4SM 18/18 A2985 RMK T01800180 IEM_DS3505
ZBYN,1999-08-24 23:00,ZBYN 242300Z AUTO 34002KT 4SM 19/18 A2988 RMK T01900180 IEM_DS3505
ZBYN,1999-08-25 00:00,ZBYN 250000Z AUTO 36004KT 6SM 21/14 A2988 RMK SLP096 T02140145 52003 IEM_DS3505
ZBYN,1999-08-25 01:00,ZBYN 250100Z AUTO 00000KT 6SM 22/18 A2988 RMK T02200180 IEM_DS3505
ZBYN,1999-08-25 02:00,ZBYN 250200Z AUTO 00000KT 6SM 23/17 A2988 RMK T02300170 IEM_DS3505
ZBYN,1999-08-25 03:00,ZBYN 250300Z AUTO 34004KT 6SM 25/16 A2985 RMK SLP091 T02460157 57001 IEM_DS3505
ZBYN,1999-08-25 04:00,ZBYN 250400Z AUTO 34002KT 7SM 26/20 A2985 RMK T02600200 IEM_DS3505
ZBYN,1999-08-25 05:00,ZBYN 250500Z AUTO 00000KT 7SM 28/20 A2983 RMK T02800200 IEM_DS3505
ZBYN,1999-08-25 06:00,ZBYN 250600Z AUTO 29006KT 6SM 26/18 A2980 RMK SLP077 T02640182 57013 IEM_DS3505
ZBYN,1999-08-25 07:00,ZBYN 250700Z AUTO 34010KT 7SM 27/17 A2980 RMK T02700170 IEM_DS3505
ZBYN,1999-08-25 08:00,ZBYN 250800Z AUTO 02004KT 7SM 26/12 A2980 RMK T02600120 IEM_DS3505
ZBYN,1999-08-25 09:00,ZBYN 250900Z AUTO 32010KT 9SM 22/12 A2980 RMK SLP082 T02200119 57003 IEM_DS3505
ZBYN,1999-08-25 10:00,ZBYN 251000Z AUTO 07004KT 7SM 23/14 A2983 RMK T02300140 IEM_DS3505
ZBYN,1999-08-25 11:00,ZBYN 251100Z AUTO 36008KT 7SM 21/15 A2983 RMK T02100150 IEM_DS3505
ZBYN,1999-08-25 12:00,ZBYN 251200Z AUTO 36008KT 9SM 21/13 A2985 RMK SLP100 T02130131 52019 IEM_DS3505
ZBYN,1999-08-25 13:00,ZBYN 251300Z AUTO 16002KT 7SM 19/16 A2988 RMK T01900160 IEM_DS3505
ZBYN,1999-08-25 15:00,ZBYN 251500Z AUTO 34002KT 6SM 20/14 A2988 RMK SLP106 T01950136 52007 IEM_DS3505
ZBYN,1999-08-25 16:00,ZBYN 251600Z AUTO 00000KT 6SM 18/17 A2988 RMK T01800170 IEM_DS3505
ZBYN,1999-08-25 17:00,ZBYN 251700Z AUTO 13002KT 6SM 18/18 A2988 RMK T01800180 IEM_DS3505
ZBYN,1999-08-25 18:00,ZBYN 251800Z AUTO 32004KT 6SM 19/14 A2988 RMK SLP095 T01870144 57008 IEM_DS3505
ZBYN,1999-08-25 19:00,ZBYN 251900Z AUTO 00000KT 6SM 18/16 A2985 RMK T01800160 IEM_DS3505
ZBYN,1999-08-25 20:00,ZBYN 252000Z AUTO 03002KT 6SM 17/17 A2985 RMK T01700170 IEM_DS3505
ZBYN,1999-08-25 21:00,ZBYN 252100Z AUTO 32002KT 6SM 17/14 A2985 RMK SLP104 T01700140 57001 IEM_DS3505
ZBYN,1999-08-25 22:00,ZBYN 252200Z AUTO 01002KT 6SM 17/16 A2988 RMK T01700160 IEM_DS3505
ZBYN,1999-08-25 23:00,ZBYN 252300Z AUTO 00000KT 3SM 17/17 A2988 RMK T01700170 IEM_DS3505
ZBYN,1999-08-26 00:00,ZBYN 260000Z AUTO 00000KT 5SM 19/15 A2988 RMK SLP108 T01920146 52006 IEM_DS3505
ZBYN,1999-08-26 01:00,ZBYN 260100Z AUTO 02002KT 4SM 20/17 A2991 RMK T02000170 IEM_DS3505
ZBYN,1999-08-26 02:00,ZBYN 260200Z AUTO 00000KT 5SM 21/17 A2988 RMK T02100170 IEM_DS3505
ZBYN,1999-08-26 03:00,ZBYN 260300Z AUTO 20002KT 5SM 24/16 A2988 RMK SLP100 T02350159 57004 IEM_DS3505
ZBYN,1999-08-26 04:00,ZBYN 260400Z AUTO 20002KT 6SM 24/19 A2985 RMK T02400190 IEM_DS3505
ZBYN,1999-08-26 05:00,ZBYN 260500Z AUTO 00000KT 7SM 25/18 A2983 RMK T02500180 IEM_DS3505
ZBYN,1999-08-26 06:00,ZBYN 260600Z AUTO 16004KT 5SM 27/18 A2983 RMK SLP079 T02670179 57016 IEM_DS3505
ZBYN,1999-08-26 07:00,ZBYN 260700Z AUTO 00000KT 7SM 26/18 A2980 RMK T02600180 IEM_DS3505
ZBYN,1999-08-26 09:00,ZBYN 260900Z AUTO 11006KT 6SM 24/15 RMK SLP077 T02350153 57008 IEM_DS3505
ZBYN,1999-08-26 10:00,ZBYN 261000Z AUTO 15004KT 7SM 23/18 A2983 RMK T02300180 IEM_DS3505
ZBYN,1999-08-26 11:00,ZBYN 261100Z AUTO 12002KT 7SM 22/18 A2983 RMK T02200180 IEM_DS3505
ZBYN,1999-08-26 12:00,ZBYN 261200Z AUTO 16002KT 6SM 20/16 A2985 RMK SLP099 T02020160 52018 IEM_DS3505
ZBYN,1999-08-26 13:00,ZBYN 261300Z AUTO 14004KT 6SM 19/17 A2988 RMK T01900170 IEM_DS3505
ZBYN,1999-08-26 14:00,ZBYN 261400Z AUTO 13004KT 6SM 18/16 A2991 RMK T01800160 IEM_DS3505
ZBYN,1999-08-26 15:00,ZBYN 261500Z AUTO 11004KT 6SM 17/15 A2988 RMK SLP110 T01740151 52012 IEM_DS3505
ZBYN,1999-08-26 16:00,ZBYN 261600Z AUTO 00000KT 6SM 17/16 A2988 RMK T01700160 IEM_DS3505
ZBYN,1999-08-26 17:00,ZBYN 261700Z AUTO 12002KT 6SM 16/16 A2988 RMK T01600160 IEM_DS3505
ZBYN,1999-08-26 18:00,ZBYN 261800Z AUTO 00000KT 6SM 16/15 A2988 RMK SLP103 T01620150 57003 IEM_DS3505
ZBYN,1999-08-26 19:00,ZBYN 261900Z AUTO 13004KT 6SM 15/15 A2988 RMK T01500150 IEM_DS3505
ZBYN,1999-08-26 20:00,ZBYN 262000Z AUTO 13002KT 6SM 15/15 A2988 RMK T01500150 IEM_DS3505
ZBYN,1999-08-26 21:00,ZBYN 262100Z AUTO 00000KT 6SM 15/14 A2988 RMK SLP107 T01500142 57003 IEM_DS3505
ZBYN,1999-08-26 22:00,ZBYN 262200Z AUTO 13002KT 6SM 14/14 A2988 RMK T01400140 IEM_DS3505
ZBYN,1999-08-27 00:00,ZBYN 270000Z AUTO 14002KT 6SM 19/07 A2988 RMK SLP095 T01910072 52014 IEM_DS3505
ZBYN,1999-08-27 01:00,ZBYN 270100Z AUTO 00000KT 5SM 19/17 A2988 RMK T01900170 IEM_DS3505
ZBYN,1999-08-27 02:00,ZBYN 270200Z AUTO 18002KT 4SM 20/18 A2988 RMK T02000180 IEM_DS3505
ZBYN,1999-08-27 03:00,ZBYN 270300Z AUTO 18002KT 5SM 21/16 A2988 RMK SLP115 T02080165 52003 IEM_DS3505
ZBYN,1999-08-27 04:00,ZBYN 270400Z AUTO 00000KT 4SM 23/19 A2985 RMK T02300190 IEM_DS3505
ZBYN,1999-08-27 05:00,ZBYN 270500Z AUTO 23002KT 4SM 24/19 A2983 RMK T02400190 IEM_DS3505
ZBYN,1999-08-27 06:00,ZBYN 270600Z AUTO 16006KT 6SM 25/18 A2983 RMK SLP085 T02520179 57023 IEM_DS3505
ZBYN,1999-08-27 07:00,ZBYN 270700Z AUTO 27004KT 26/19 A2980 RMK T02600190 IEM_DS3505
ZBYN,1999-08-27 08:00,ZBYN 270800Z AUTO 28002KT 4SM 25/20 A2983 RMK T02500200 IEM_DS3505
ZBYN,1999-08-27 09:00,ZBYN 270900Z AUTO 00000KT 5SM 24/20 A2980 RMK SLP086 T02380199 57002 IEM_DS3505
ZBYN,1999-08-27 10:00,ZBYN 271000Z AUTO 12002KT 3SM 24/20 A2983 RMK T02400200 IEM_DS3505
ZBYN,1999-08-27 11:00,ZBYN 271100Z AUTO 11004KT 6SM 23/18 A2983 RMK T02300180 IEM_DS3505
ZBYN,1999-08-27 12:00,ZBYN 271200Z AUTO 11002KT 5SM 21/17 A2983 RMK SLP096 T02110172 52007 IEM_DS3505
ZBYN,1999-08-27 14:00,ZBYN 271400Z AUTO 13002KT 6SM 18/18 A2988 RMK T01800180 IEM_DS3505
ZBYN,1999-08-27 15:00,ZBYN 271500Z AUTO 00000KT 5SM 18/16 A2985 RMK SLP108 T01780162 52012 IEM_DS3505
ZBYN,1999-08-27 16:00,ZBYN 271600Z AUTO 00000KT 6SM 17/17 A2988 RMK T01700170 IEM_DS3505
ZBYN,1999-08-27 17:00,ZBYN 271700Z AUTO 13002KT 6SM 16/16 A2988 RMK T01600160 IEM_DS3505
ZBYN,1999-08-27 18:00,ZBYN 271800Z AUTO 00000KT 5SM 16/15 RMK SLP100 T01580151 57004 IEM_DS3505
ZBYN,1999-08-27 21:00,ZBYN 272100Z AUTO 32002KT 5SM 15/14 RMK SLP100 T01480145 57003 IEM_DS3505
ZBYN,1999-08-27 22:00,ZBYN 272200Z AUTO 00000KT 2SM 15/15 A2985 RMK T01500150 IEM_DS3505
ZBYN,1999-08-27 23:00,ZBYN 272300Z AUTO 14002KT 1 1/4SM 15/15 A2988 RMK T01500150 IEM_DS3505
ZBYN,1999-08-28 00:00,ZBYN 280000Z AUTO 00000KT 4SM 18/16 A2988 RMK SLP105 T01750157 52005 IEM_DS3505
ZBYN,1999-08-28 01:00,ZBYN 280100Z AUTO 00000KT 1 1/2SM 19/18 A2988 RMK T01900180 IEM_DS3505
ZBYN,1999-08-28 02:00,ZBYN 280200Z AUTO 00000KT 3SM 21/19 A2988 RMK T02100190 IEM_DS3505
ZBYN,1999-08-28 03:00,ZBYN 280300Z AUTO 16004KT 4SM 24/17 A2988 RMK SLP103 T02370170 52002 IEM_DS3505
ZBYN,1999-08-28 04:00,ZBYN 280400Z AUTO 21002KT 5SM 25/19 A2985 RMK T02500190 IEM_DS3505
ZBYN,1999-08-28 05:00,ZBYN 280500Z AUTO 00000KT 5SM 27/19 A2983 RMK T02700190 IEM_DS3505
ZBYN,1999-08-28 06:00,ZBYN 280600Z AUTO 14004KT 5SM 28/18 A2980 RMK SLP071 T02790175 57026 IEM_DS3505
ZBYN,1999-08-28 07:00,ZBYN 280700Z AUTO 19002KT 7SM 29/19 A2977 RMK T02900190 IEM_DS3505
ZBYN,1999-08-28 08:00,ZBYN 280800Z AUTO 15002KT 7SM 29/17 A2977 RMK T02900170 IEM_DS3505
ZBYN,1999-08-28 09:00,ZBYN 280900Z AUTO 18002KT 6SM 28/18 A2977 RMK SLP055 T02850183 57015 IEM_DS3505
ZBYN,1999-08-28 10:00,ZBYN 281000Z AUTO 00000KT 7SM 29/18 A2977 RMK T02900180 IEM_DS3505
ZBYN,1999-08-28 11:00,ZBYN 281100Z AUTO 00000KT 7SM 24/21 A2977 RMK T02400210 IEM_DS3505
ZBYN,1999-08-28 12:00,ZBYN 281200Z AUTO 00000KT 6SM 22/18 A2980 RMK SLP072 T02200183 52010 IEM_DS3505
ZBYN,1999-08-28 13:00,ZBYN 281300Z AUTO 07008KT 7SM 23/20 A2980 RMK T02300200 IEM_DS3505
ZBYN,1999-08-28 14:00,ZBYN 281400Z AUTO 10006KT 7SM 23/19 A2980 RMK T02300190 IEM_DS3505
ZBYN,1999-08-28 15:00,ZBYN 281500Z AUTO 04004KT 6SM 23/17 A2983 RMK SLP078 T02270171 52015 IEM_DS3505
ZBYN,1999-08-28 16:00,ZBYN 281600Z AUTO 00000KT 6SM 21/19 A2985 RMK T02100190 IEM_DS3505
ZBYN,1999-08-28 17:00,ZBYN 281700Z AUTO 29002KT 6SM 20/18 A2985 RMK T02000180 IEM_DS3505
ZBYN,1999-08-28 18:00,ZBYN 281800Z AUTO 32004KT 6SM 20/15 A2985 RMK SLP099 T01980147 52021 IEM_DS3505
ZBYN,1999-08-28 19:00,ZBYN 281900Z AUTO 00000KT 7SM 18/17 A2983 RMK T01800170 IEM_DS3505
ZBYN,1999-08-28 20:00,ZBYN 282000Z AUTO 00000KT 6SM 17/17 A2983 RMK T01700170 IEM_DS3505
ZBYN,1999-08-28 21:00,ZBYN 282100Z AUTO 32002KT 6SM 17/15 A2983 RMK SLP084 T01710150 57007 IEM_DS3505
ZBYN,1999-08-28 22:00,ZBYN 282200Z AUTO 00000KT 6SM 16/16 A2983 RMK T01600160 IEM_DS3505
ZBYN,1999-08-28 23:00,ZBYN 282300Z AUTO 00000KT 4SM 17/16 A2983 RMK T01700160 IEM_DS3505
ZBYN,1999-08-29 00:00,ZBYN 290000Z AUTO 00000KT 5SM 19/16 A2983 RMK SLP090 T01940164 54000 IEM_DS3505
ZBYN,1999-08-29 01:00,ZBYN 290100Z AUTO 10002KT 5SM 20/18 A2983 RMK T02000180 IEM_DS3505
ZBYN,1999-08-29 02:00,ZBYN 290200Z AUTO 13002KT 5SM 22/18 A2985 RMK T02200180 IEM_DS3505
ZBYN,1999-08-29 03:00,ZBYN 290300Z AUTO 00000KT 6SM 25/17 A2983 RMK SLP081 T02500173 54000 IEM_DS3505
ZBYN,1999-08-29 04:00,ZBYN 290400Z AUTO 19002KT 5SM 26/19 A2980 RMK T02600190 IEM_DS3505
ZBYN,1999-08-29 05:00,ZBYN 290500Z AUTO 00000KT 5SM 28/19 A2980 RMK T02800190 IEM_DS3505
ZBYN,1999-08-29 06:00,ZBYN 290600Z AUTO 00000KT 6SM 30/20 A2977 RMK SLP054 T02960199 57022 IEM_DS3505
ZBYN,1999-08-29 07:00,ZBYN 290700Z AUTO 23002KT 7SM 29/19 A2974 RMK T02900190 IEM_DS3505
ZBYN,1999-08-29 08:00,ZBYN 290800Z AUTO 05012KT 7SM 27/15 A2980 RMK T02700150 IEM_DS3505
ZBYN,1999-08-29 10:00,ZBYN 291000Z AUTO 17006KT 7SM 22/16 A2980 RMK T02200160 IEM_DS3505
ZBYN,1999-08-29 11:00,ZBYN 291100Z AUTO 08002KT 7SM 22/17 A2980 RMK T02200170 IEM_DS3505
ZBYN,1999-08-29 12:00,ZBYN 291200Z AUTO 22002KT 9SM 20/16 A2980 RMK SLP081 T02020157 52009 IEM_DS3505
ZBYN,1999-08-29 13:00,ZBYN 291300Z AUTO 13002KT 7SM 21/16 A2985 RMK T02100160 IEM_DS3505
ZBYN,1999-08-29 14:00,ZBYN 291400Z AUTO 08008KT 7SM 22/14 A2985 RMK T02200140 IEM_DS3505
ZBYN,1999-08-29 15:00,ZBYN 291500Z AUTO 07006KT 9SM 21/13 A2985 RMK SLP087 T02080131 52014 IEM_DS3505
ZBYN,1999-08-29 17:00,ZBYN 291700Z AUTO 10002KT 6SM 17/15 A2985 RMK T01700150 IEM_DS3505
ZBYN,1999-08-29 18:00,ZBYN 291800Z AUTO 32004KT 9SM 17/14 A2985 RMK SLP084 T01700145 57001 IEM_DS3505
ZBYN,1999-08-29 19:00,ZBYN 291900Z AUTO 14002KT 6SM 15/15 A2985 RMK T01500150 IEM_DS3505
ZBYN,1999-08-29 20:00,ZBYN 292000Z AUTO 00000KT 6SM 15/15 A2985 RMK T01500150 IEM_DS3505
ZBYN,1999-08-29 21:00,ZBYN 292100Z AUTO 00000KT 7SM 14/14 A2983 RMK SLP094 T01450136 54000 IEM_DS3505
ZBYN,1999-08-29 22:00,ZBYN 292200Z AUTO 00000KT 5SM 14/14 A2985 RMK T01400140 IEM_DS3505
ZBYN,1999-08-30 00:00,ZBYN 300000Z AUTO 00000KT 6SM 18/14 A2988 RMK SLP107 T01850140 52010 IEM_DS3505
ZBYN,1999-08-30 01:00,ZBYN 300100Z AUTO 33002KT 4SM 21/16 A2988 RMK T02100160 IEM_DS3505
ZBYN,1999-08-30 02:00,ZBYN 300200Z AUTO 08004KT 7SM 24/16 A2988 RMK T02400160 IEM_DS3505
ZBYN,1999-08-30 03:00,ZBYN 300300Z AUTO 00000KT 6SM 25/15 A2988 RMK SLP096 T02540146 54000 IEM_DS3505
ZBYN,1999-08-30 04:00,ZBYN 300400Z AUTO 00000KT 7SM 27/17 A2985 RMK T02700170 IEM_DS3505
ZBYN,1999-08-30 05:00,ZBYN 300500Z AUTO 07002KT 6SM 27/17 A2985 RMK T02700170 IEM_DS3505
ZBYN,1999-08-30 06:00,ZBYN 300600Z AUTO 11004KT 9SM 28/15 A2983 RMK SLP077 T02820149 57019 IEM_DS3505
ZBYN,1999-08-30 07:00,ZBYN 300700Z AUTO 19002KT 6SM 29/15 A2980 RMK T02900150 IEM_DS3505
ZBYN,1999-08-30 08:00,ZBYN 300800Z AUTO 09004KT 6SM 30/16 A2977 RMK T03000160 IEM_DS3505
ZBYN,1999-08-30 09:00,ZBYN 300900Z AUTO 11004KT 11SM 29/14 A2977 RMK SLP059 T02910143 57018 IEM_DS3505
ZBYN,1999-08-30 10:00,ZBYN 301000Z AUTO 06006KT 7SM 28/19 A2980 RMK T02800190 IEM_DS3505
ZBYN,1999-08-30 11:00,ZBYN 301100Z AUTO 10008KT 7SM 25/21 A2980 RMK T02500210 IEM_DS3505
ZBYN,1999-08-30 12:00,ZBYN 301200Z AUTO 14008KT 7SM 23/18 A2983 RMK SLP087 T02310182 52022 IEM_DS3505
ZBYN,1999-08-30 13:00,ZBYN 301300Z AUTO 07016KT 7SM 23/20 A2985 RMK T02300200 IEM_DS3505
ZBYN,1999-08-30 14:00,ZBYN 301400Z AUTO 08010KT 7SM 22/20 A2988 RMK T02200200 IEM_DS3505
ZBYN,1999-08-30 15:00,ZBYN 301500Z AUTO 36008KT 6SM 23/18 A2988 RMK SLP101 T02300176 52023 IEM_DS3505
ZBYN,1999-08-30 16:00,ZBYN 301600Z AUTO 02004KT 7SM 22/20 A2991 RMK T02200200 IEM_DS3505
ZBYN,1999-08-30 17:00,ZBYN 301700Z AUTO 08004KT 3SM 21/20 A2991 RMK T02100200 IEM_DS3505
ZBYN,1999-08-30 18:00,ZBYN 301800Z AUTO 00000KT 6SM 20/18 A2988 RMK SLP101 T01990177 57001 IEM_DS3505
ZBYN,1999-08-30 19:00,ZBYN 301900Z AUTO 07002KT 2 1/2SM 21/20 A2988 RMK T02100200 IEM_DS3505
ZBYN,1999-08-30 20:00,ZBYN 302000Z AUTO 02002KT 2 1/2SM 20/20 A2991 RMK T02000200 IEM_DS3505
ZBYN,1999-08-30 21:00,ZBYN 302100Z AUTO 00000KT 6SM 19/17 A2991 RMK SLP098 T01930168 57002 IEM_DS3505
ZBYN,1999-08-30 22:00,ZBYN 302200Z AUTO 00000KT 1 1/2SM 19/19 A2991 RMK T01900190 IEM_DS3505
ZBYN,1999-08-30 23:00,ZBYN 302300Z AUTO 11002KT 1SM 18/18 A2991 RMK T01800180 IEM_DS3505
ZBYN,1999-08-31 00:00,ZBYN 310000Z AUTO 00000KT 4SM 20/18 A2994 RMK SLP117 T02020177 52010 IEM_DS3505
ZBYN,1999-08-31 01:00,ZBYN 310100Z AUTO 14002KT 1SM 22/20 A2994 RMK T02200200 IEM_DS3505
ZBYN,1999-08-31 02:00,ZBYN 310200Z AUTO 19002KT 2SM 23/20 A2994 RMK T02300200 IEM_DS3505
ZBYN,1999-08-31 03:00,ZBYN 310300Z AUTO 11004KT 4SM 25/18 A2994 RMK SLP119 T02510182 52009 IEM_DS3505
ZBYN,1999-08-31 04:00,ZBYN 310400Z AUTO 17004KT 26/20 A2994 RMK T02600200 IEM_DS3505
ZBYN,1999-08-31 05:00,ZBYN 310500Z AUTO 05004KT 5SM 28/20 A2991 RMK T02800200 IEM_DS3505
ZBYN,1999-08-31 06:00,ZBYN 310600Z AUTO 18006KT 5SM 28/18 A2988 RMK SLP098 T02850177 57019 IEM_DS3505
ZBYN,1999-08-31 07:00,ZBYN 310700Z AUTO 00000KT 6SM 29/19 A2985 RMK T02900190 IEM_DS3505
ZBYN,1999-08-31 08:00,ZBYN 310800Z AUTO 23002KT 6SM 30/19 A2985 RMK T03000190 IEM_DS3505
ZBYN,1999-08-31 09:00,ZBYN 310900Z AUTO 09002KT 6SM 28/20 A2985 RMK SLP090 T02750196 57010 IEM_DS3505
ZBYN,1999-08-31 10:00,ZBYN 311000Z AUTO 00000KT 6SM 28/19 A2985 RMK T02800190 IEM_DS3505
ZBYN,1999-08-31 11:00,ZBYN 311100Z AUTO 07006KT 4SM 26/22 A2985 RMK T02600220 IEM_DS3505
ZBYN,1999-08-31 12:00,ZBYN 311200Z AUTO 09006KT 6SM 26/19 A2988 RMK SLP092 T02550189 52001 IEM_DS3505
ZBYN,1999-08-31 14:00,ZBYN 311400Z AUTO 09008KT 4SM 24/21 A2991 RMK T02400210 IEM_DS3505
ZBYN,1999-08-31 15:00,ZBYN 311500Z AUTO 00000KT 6SM 22/19 A2994 RMK SLP109 T02210191 52017 IEM_DS3505
ZBYN,1999-08-31 16:00,ZBYN 311600Z AUTO 08004KT 4SM 23/21 A2994 RMK T02300210 IEM_DS3505
ZBYN,1999-08-31 17:00,ZBYN 311700Z AUTO 07004KT 4SM 22/21 A2994 RMK T02200210 IEM_DS3505
ZBYN,1999-08-31 18:00,ZBYN 311800Z AUTO 00000KT 6SM 21/19 A2994 RMK SLP110 T02080187 52004 IEM_DS3505
ZBYN,1999-08-31 19:00,ZBYN 311900Z AUTO 07002KT 4SM 21/21 A2994 RMK T02100210 IEM_DS3505
ZBYN,1999-08-31 20:00,ZBYN 312000Z AUTO 10002KT 3SM 20/19 A2994 RMK T02000190 IEM_DS3505
ZBYN,1999-08-31 21:00,ZBYN 312100Z AUTO 00000KT 3SM 19/18 A2997 RMK SLP123 T01870176 52008 IEM_DS3505
ZBYN,1999-08-31 22:00,ZBYN 312200Z AUTO 00000KT 1 1/2SM 19/19 A2997 RMK T01900190 IEM_DS3505
ZBYN,1999-08-31 23:00,ZBYN 312300Z AUTO 00000KT 1SM 20/20 A3000 RMK T02000200 IEM_DS3505
ZBYN,1999-09-01 00:00,ZBYN 010000Z AUTO 29002KT 3SM 21/19 A3000 RMK SLP135 T02090188 52011 IEM_DS3505
ZBYN,1999-09-01 01:00,ZBYN 010100Z AUTO 09004KT 1 1/2SM 24/22 A3000 RMK T02400220 IEM_DS3505
ZBYN,1999-09-01 02:00,ZBYN 010200Z AUTO 08002KT 2SM 25/21 A3000 RMK T02500210 IEM_DS3505
ZBYN,1999-09-01 03:00,ZBYN 010300Z AUTO 22002KT 6SM 20/19 A3000 RMK SLP135 T02000191 52002 IEM_DS3505
ZBYN,1999-09-01 04:00,ZBYN 010400Z AUTO 11002KT 27/21 A2997 RMK T02700210 IEM_DS3505
ZBYN,1999-09-01 05:00,ZBYN 010500Z AUTO 15002KT 5SM 28/21 A2997 RMK T02800210 IEM_DS3505
ZBYN,1999-09-01 06:00,ZBYN 010600Z AUTO 18004KT 6SM 28/18 A2994 RMK SLP117 T02820182 57015 IEM_DS3505
ZBYN,1999-09-01 07:00,ZBYN 010700Z AUTO 00000KT 7SM 29/20 A2991 RMK T02900200 IEM_DS3505
ZBYN,1999-09-01 08:00,ZBYN 010800Z AUTO 10004KT 7SM 30/21 A2991 RMK T03000210 IEM_DS3505
ZBYN,1999-09-01 09:00,ZBYN 010900Z AUTO 18004KT 6SM 29/19 A2991 RMK SLP101 T02890189 57016 IEM_DS3505
ZBYN,1999-09-01 10:00,ZBYN 011000Z AUTO 13006KT 7SM 28/21 A2991 RMK T02800210 IEM_DS3505
ZBYN,1999-09-01 11:00,ZBYN 011100Z AUTO 09006KT 5SM 26/21 A2994 RMK T02600210 IEM_DS3505
ZBYN,1999-09-01 12:00,ZBYN 011200Z AUTO 07008KT 6SM 25/19 A2997 RMK SLP117 T02530188 52012 IEM_DS3505
ZBYN,1999-09-01 13:00,ZBYN 011300Z AUTO 10004KT 4SM 24/22 A2997 RMK T02400220 IEM_DS3505
ZBYN,1999-09-01 14:00,ZBYN 011400Z AUTO 07004KT 2 1/2SM 23/22 A3000 RMK T02300220 IEM_DS3505
ZBYN,1999-09-01 15:00,ZBYN 011500Z AUTO 00000KT 5SM 21/20 A3000 RMK SLP133 T02130196 52016 IEM_DS3505
ZBYN,1999-09-01 16:00,ZBYN 011600Z AUTO 09008KT 1 1/2SM 22/21 A3000 RMK T02200210 IEM_DS3505
ZBYN,1999-09-01 17:00,ZBYN 011700Z AUTO 10006KT 1 1/2SM 21/21 A3000 RMK T02100210 IEM_DS3505
ZBYN,1999-09-01 18:00,ZBYN 011800Z AUTO 25002KT 5SM 20/18 A3000 RMK SLP132 T01950183 54000 IEM_DS3505
ZBYN,1999-09-01 19:00,ZBYN 011900Z AUTO 10004KT 1 1/2SM 21/21 A3000 RMK T02100210 IEM_DS3505
ZBYN,1999-09-01 20:00,ZBYN 012000Z AUTO 06004KT 1 1/2SM 20/20 A3000 RMK T02000200 IEM_DS3505
ZBYN,1999-09-01 21:00,ZBYN 012100Z AUTO 00000KT 5SM 20/18 A3000 RMK SLP129 T02000178 57001 IEM_DS3505
ZBYN,1999-09-01 22:00,ZBYN 012200Z AUTO 00000KT 1 1/4SM 18/18 A3000 RMK T01800180 IEM_DS3505
ZBYN,1999-09-01 23:00,ZBYN 012300Z AUTO 00000KT 1SM 18/18 A3003 RMK T01800180 IEM_DS3505
ZBYN,1999-09-02 00:00,ZBYN 020000Z AUTO 00000KT 5SM 21/18 A3003 RMK SLP144 T02120184 52010 IEM_DS3505
ZBYN,1999-09-02 01:00,ZBYN 020100Z AUTO 10004KT 1 1/4SM 22/21 A3003 RMK T02200210 IEM_DS3505
ZBYN,1999-09-02 02:00,ZBYN 020200Z AUTO 00000KT 4SM 24/20 A3003 RMK T02400200 IEM_DS3505
ZBYN,1999-09-02 03:00,ZBYN 020300Z AUTO 11002KT 5SM 26/18 A3003 RMK SLP143 T02560178 54000 IEM_DS3505
ZBYN,1999-09-02 04:00,ZBYN 020400Z AUTO 16002KT 7SM 26/20 A3000 RMK T02600200 IEM_DS3505
ZBYN,1999-09-02 05:00,ZBYN 020500Z AUTO 14006KT 7SM 28/19 A3000 RMK T02800190 IEM_DS3505
ZBYN,1999-09-02 06:00,ZBYN 020600Z AUTO 11006KT 5SM 28/17 A2994 RMK SLP120 T02800167 57020 IEM_DS3505
ZBYN,1999-09-02 07:00,ZBYN 020700Z AUTO 15004KT 7SM 29/19 A2991 RMK T02900190 IEM_DS3505
ZBYN,1999-09-02 08:00,ZBYN 020800Z AUTO 16006KT 7SM 29/18 A2991 RMK T02900180 IEM_DS3505
ZBYN,1999-09-02 09:00,ZBYN 020900Z AUTO 00000KT 6SM 25/18 A2994 RMK SLP116 T02540179 57007 IEM_DS3505
ZBYN,1999-09-02 10:00,ZBYN 021000Z AUTO 10008KT 7SM 26/19 A2994 RMK T02600190 IEM_DS3505
ZBYN,1999-09-02 11:00,ZBYN 021100Z AUTO 00000KT 6SM 24/18 A2994 RMK SLP129 T02360181 54000 IEM_DS3505
ZBYN,1999-09-02 12:00,ZBYN 021200Z AUTO 00000KT 6SM 24/18 A2997 RMK SLP129 T02360181 52011 IEM_DS3505
ZBYN,1999-09-02 13:00,ZBYN 021300Z AUTO 08008KT 6SM 23/20 A3000 RMK T02300200 IEM_DS3505
ZBYN,1999-09-02 14:00,ZBYN 021400Z AUTO 07008KT 6SM 23/20 A3000 RMK T02300200 IEM_DS3505
ZBYN,1999-09-02 15:00,ZBYN 021500Z AUTO 00000KT 6SM 22/18 A3003 RMK SLP138 T02160177 52012 IEM_DS3505
ZBYN,1999-09-02 16:00,ZBYN 021600Z AUTO 09008KT 6SM 22/20 A3003 RMK T02200200 IEM_DS3505
ZBYN,1999-09-02 17:00,ZBYN 021700Z AUTO 10008KT 6SM 21/20 A3003 RMK T02100200 IEM_DS3505
ZBYN,1999-09-02 18:00,ZBYN 021800Z AUTO 11002KT 6SM 21/17 A3003 RMK SLP137 T02100174 52001 IEM_DS3505
ZBYN,1999-09-02 19:00,ZBYN 021900Z AUTO 09004KT 7SM 21/19 A3003 RMK T02100190 IEM_DS3505
ZBYN,1999-09-02 20:00,ZBYN 022000Z AUTO 09006KT 7SM 21/19 A3003 RMK T02100190 IEM_DS3505
ZBYN,1999-09-02 21:00,ZBYN 022100Z AUTO 11002KT 6SM 20/16 A3003 RMK SLP148 T02050160 52006 IEM_DS3505
ZBYN,1999-09-02 22:00,ZBYN 022200Z AUTO 09004KT 7SM 20/19 A3003 RMK T02000190 IEM_DS3505
ZBYN,1999-09-02 23:00,ZBYN 022300Z AUTO 10006KT 4SM 20/18 A3006 RMK T02000180 IEM_DS3505
ZBYN,1999-09-03 00:00,ZBYN 030000Z AUTO 00000KT 6SM 20/17 A3006 RMK SLP163 T02010169 52011 IEM_DS3505
ZBYN,1999-09-03 01:00,ZBYN 030100Z AUTO 08008KT 4SM 21/18 A3006 RMK T02100180 IEM_DS3505
ZBYN,1999-09-03 02:00,ZBYN 030200Z AUTO 13008KT 6SM 23/17 A3009 RMK T02300170 IEM_DS3505
ZBYN,1999-09-03 03:00,ZBYN 030300Z AUTO 11004KT 6SM 24/15 A3006 RMK SLP162 T02390152 52001 IEM_DS3505
ZBYN,1999-09-03 04:00,ZBYN 030400Z AUTO 11006KT 7SM 25/16 A3006 RMK T02500160 IEM_DS3505
ZBYN,1999-09-03 05:00,ZBYN 030500Z AUTO 09006KT 7SM 26/15 A3006 RMK T02600150 IEM_DS3505
ZBYN,1999-09-03 06:00,ZBYN 030600Z AUTO 00000KT 7SM 26/14 A3003 RMK SLP144 T02590137 57014 IEM_DS3505
ZBYN,1999-09-03 07:00,ZBYN 030700Z AUTO 17004KT 6SM 27/12 A3000 RMK T02700120 IEM_DS3505
ZBYN,1999-09-03 08:00,ZBYN 030800Z AUTO 16004KT 7SM 27/12 A2997 RMK T02700120 IEM_DS3505
ZBYN,1999-09-03 09:00,ZBYN 030900Z AUTO 16002KT 11SM 25/13 A2997 RMK SLP128 T02530133 57016 IEM_DS3505
ZBYN,1999-09-03 10:00,ZBYN 031000Z AUTO 12002KT 7SM 26/13 A2997 RMK T02600130 IEM_DS3505
ZBYN,1999-09-03 11:00,ZBYN 031100Z AUTO 08002KT 6SM 24/17 A2997 RMK T02400170 IEM_DS3505
ZBYN,1999-09-03 12:00,ZBYN 031200Z AUTO 09010KT 6SM 22/14 A3000 RMK SLP141 T02250145 52007 IEM_DS3505
ZBYN,1999-09-03 13:00,ZBYN 031300Z AUTO 08012KT 6SM 22/17 A3003 RMK T02200170 IEM_DS3505
ZBYN,1999-09-03 14:00,ZBYN 031400Z AUTO 09010KT 6SM 21/18 A3003 RMK T02100180 IEM_DS3505
ZBYN,1999-09-03 15:00,ZBYN 031500Z AUTO 09004KT 6SM 21/15 A3003 RMK SLP149 T02060149 52010 IEM_DS3505
ZBYN,1999-09-03 16:00,ZBYN 031600Z AUTO 09008KT 6SM 20/17 A3003 RMK T02000170 IEM_DS3505
ZBYN,1999-09-03 17:00,ZBYN 031700Z AUTO 10006KT 6SM 19/17 A3003 RMK T01900170 IEM_DS3505
ZBYN,1999-09-03 18:00,ZBYN 031800Z AUTO 00000KT 4SM 17/14 A3003 RMK SLP155 T01670136 52003 IEM_DS3505
ZBYN,1999-09-03 19:00,ZBYN 031900Z AUTO 08004KT 6SM 17/17 A3003 RMK T01700170 IEM_DS3505
ZBYN,1999-09-03 20:00,ZBYN 032000Z AUTO 09004KT 6SM 17/16 A3003 RMK T01700160 IEM_DS3505
ZBYN,1999-09-03 21:00,ZBYN 032100Z AUTO 00000KT 4SM 15/14 A3003 RMK SLP157 T01500136 57001 IEM_DS3505
ZBYN,1999-09-03 22:00,ZBYN 032200Z AUTO 00000KT 4SM 16/15 A3003 RMK T01600150 IEM_DS3505
ZBYN,1999-09-03 23:00,ZBYN 032300Z AUTO 12002KT 2 1/2SM 15/15 A3006 RMK T01500150 IEM_DS3505
ZBYN,1999-09-04 00:00,ZBYN 040000Z AUTO 32004KT 4SM 18/14 A3006 RMK SLP166 T01750140 52007 IEM_DS3505
ZBYN,1999-09-04 01:00,ZBYN 040100Z AUTO 10006KT 5SM 20/16 A3006 RMK T02000160 IEM_DS3505
ZBYN,1999-09-04 02:00,ZBYN 040200Z AUTO 11004KT 6SM 21/17 A3006 RMK T02100170 IEM_DS3505
ZBYN,1999-09-04 03:00,ZBYN 040300Z AUTO 29002KT 5SM 23/15 A3003 RMK SLP151 T02310148 57008 IEM_DS3505
ZBYN,1999-09-04 04:00,ZBYN 040400Z AUTO 07002KT 6SM 24/15 A3000 RMK T02400150 IEM_DS3505
ZBYN,1999-09-04 05:00,ZBYN 040500Z AUTO 08002KT 6SM 26/15 A2997 RMK T02600150 IEM_DS3505
ZBYN,1999-09-04 06:00,ZBYN 040600Z AUTO 34004KT 7SM 26/14 A2994 RMK SLP123 T02590137 57027 IEM_DS3505
ZBYN,1999-09-04 07:00,ZBYN 040700Z AUTO 00000KT 7SM 27/15 A2991 RMK T02700150 IEM_DS3505
ZBYN,1999-09-04 08:00,ZBYN 040800Z AUTO 08006KT 7SM 28/17 A2988 RMK T02800170 IEM_DS3505
ZBYN,1999-09-04 09:00,ZBYN 040900Z AUTO 00000KT 9SM 28/16 A2991 RMK SLP104 T02800158 57017 IEM_DS3505
ZBYN,1999-09-04 10:00,ZBYN 041000Z AUTO 09008KT 6SM 26/18 A2991 RMK T02600180 IEM_DS3505
ZBYN,1999-09-04 11:00,ZBYN 041100Z AUTO 09008KT 6SM 24/19 A2991 RMK T02400190 IEM_DS3505
ZBYN,1999-09-04 12:00,ZBYN 041200Z AUTO 09006KT 6SM 23/16 A2991 RMK SLP113 T02260163 52004 IEM_DS3505
ZBYN,1999-09-04 13:00,ZBYN 041300Z AUTO 08008KT 6SM 22/19 A2994 RMK T02200190 IEM_DS3505
ZBYN,1999-09-04 14:00,ZBYN 041400Z AUTO 07010KT 6SM 21/19 A2994 RMK T02100190 IEM_DS3505
ZBYN,1999-09-04 15:00,ZBYN 041500Z AUTO 02002KT 6SM 21/17 A2994 RMK SLP123 T02140167 52015 IEM_DS3505
ZBYN,1999-09-04 16:00,ZBYN 041600Z AUTO 09010KT 6SM 21/19 A2994 RMK T02100190 IEM_DS3505
ZBYN,1999-09-04 17:00,ZBYN 041700Z AUTO 07006KT 6SM 20/19 A2994 RMK T02000190 IEM_DS3505
ZBYN,1999-09-04 18:00,ZBYN 041800Z AUTO 00000KT 6SM 20/16 A2994 RMK SLP121 T01960162 54000 IEM_DS3505
ZBYN,1999-09-04 19:00,ZBYN 041900Z AUTO 09002KT 6SM 20/18 A2994 RMK T02000180 IEM_DS3505
ZBYN,1999-09-04 20:00,ZBYN 042000Z AUTO 07002KT 6SM 19/18 A2991 RMK T01900180 IEM_DS3505
ZBYN,1999-09-04 21:00,ZBYN 042100Z AUTO 00000KT 6SM 17/16 A2991 RMK SLP110 T01740158 57010 IEM_DS3505
ZBYN,1999-09-04 22:00,ZBYN 042200Z AUTO 22002KT 3SM 18/18 A2994 RMK T01800180 IEM_DS3505
ZBYN,1999-09-04 23:00,ZBYN 042300Z AUTO 00000KT 2SM 17/17 A2994 RMK T01700170 IEM_DS3505
ZBYN,1999-09-05 00:00,ZBYN 050000Z AUTO 34002KT 4SM 19/16 A2994 RMK SLP122 T01940158 52006 IEM_DS3505
ZBYN,1999-09-05 02:00,ZBYN 050200Z AUTO 13002KT 3SM 23/19 A2991 RMK T02300190 IEM_DS3505
ZBYN,1999-09-05 03:00,ZBYN 050300Z AUTO 00000KT 5SM 25/17 A2991 RMK SLP106 T02490166 57009 IEM_DS3505
ZBYN,1999-09-05 04:00,ZBYN 050400Z AUTO 18002KT 5SM 25/19 A2988 RMK T02500190 IEM_DS3505
ZBYN,1999-09-05 05:00,ZBYN 050500Z AUTO 12004KT 6SM 26/19 A2985 RMK T02600190 IEM_DS3505
ZBYN,1999-09-05 06:00,ZBYN 050600Z AUTO 11004KT 5SM 28/15 A2983 RMK SLP078 T02780152 57024 IEM_DS3505
ZBYN,1999-09-05 07:00,ZBYN 050700Z AUTO 16004KT 7SM 28/17 A2980 RMK T02800170 IEM_DS3505
ZBYN,1999-09-05 08:00,ZBYN 050800Z AUTO 23002KT 6SM 29/16 A2980 RMK T02900160 IEM_DS3505
ZBYN,1999-09-05 09:00,ZBYN 050900Z AUTO 22004KT 6SM 27/16 A2977 RMK SLP065 T02740160 57015 IEM_DS3505
ZBYN,1999-09-05 10:00,ZBYN 051000Z AUTO 22002KT 6SM 27/18 A2977 RMK T02700180 IEM_DS3505
ZBYN,1999-09-05 11:00,ZBYN 051100Z AUTO 00000KT 6SM 26/18 A2977 RMK T02600180 IEM_DS3505
ZBYN,1999-09-05 12:00,ZBYN 051200Z AUTO 20002KT 6SM 22/18 A2980 RMK SLP071 T02220177 52001 IEM_DS3505
ZBYN,1999-09-05 13:00,ZBYN 051300Z AUTO 08004KT 6SM 23/20 A2980 RMK T02300200 IEM_DS3505
ZBYN,1999-09-05 14:00,ZBYN 051400Z AUTO 10004KT 4SM 23/20 A2983 RMK T02300200 IEM_DS3505
ZBYN,1999-09-05 15:00,ZBYN 051500Z AUTO 14002KT 6SM 21/18 A2983 RMK SLP075 T02090184 52009 IEM_DS3505
ZBYN,1999-09-05 16:00,ZBYN 051600Z AUTO 10006KT 4SM 22/20 A2983 RMK T02200200 IEM_DS3505
ZBYN,1999-09-05 18:00,ZBYN 051800Z AUTO 00000KT 4SM 19/18 A2980 RMK SLP067 T01870178 57006 IEM_DS3505
ZBYN,1999-09-05 19:00,ZBYN 051900Z AUTO 12004KT 4SM 18/18 A2980 RMK T01800180 IEM_DS3505
ZBYN,1999-09-05 20:00,ZBYN 052000Z AUTO 12002KT 4SM 18/18 A2977 RMK T01800180 IEM_DS3505
ZBYN,1999-09-05 21:00,ZBYN 052100Z AUTO 00000KT 4SM 17/17 A2977 RMK SLP063 T01740168 57006 IEM_DS3505
ZBYN,1999-09-05 22:00,ZBYN 052200Z AUTO 00000KT 4SM 18/18 A2980 RMK T01800180 IEM_DS3505
ZBYN,1999-09-05 23:00,ZBYN 052300Z AUTO 23002KT 5SM 17/17 A2980 RMK T01700170 IEM_DS3505
ZBYN,1999-09-06 00:00,ZBYN 060000Z AUTO 00000KT 4SM 19/18 A2980 RMK SLP075 T01940178 52006 IEM_DS3505
ZBYN,1999-09-06 01:00,ZBYN 060100Z AUTO 13002KT 3SM 21/20 A2980 RMK T02100200 IEM_DS3505
ZBYN,1999-09-06 02:00,ZBYN 060200Z AUTO 23002KT 4SM 23/20 A2980 RMK T02300200 IEM_DS3505
ZBYN,1999-09-06 03:00,ZBYN 060300Z AUTO 16010KT 4SM 25/18 A2980 RMK SLP067 T02470181 57001 IEM_DS3505
ZBYN,1999-09-06 04:00,ZBYN 060400Z AUTO 00000KT 5SM 25/20 A2977 RMK T02500200 IEM_DS3505
ZBYN,1999-09-06 05:00,ZBYN 060500Z AUTO 19002KT 6SM 27/20 A2974 RMK T02700200 IEM_DS3505
ZBYN,1999-09-06 06:00,ZBYN 060600Z AUTO 20004KT 4SM 26/18 A2971 RMK SLP045 T02630183 57021 IEM_DS3505
ZBYN,1999-09-06 09:00,ZBYN 060900Z AUTO 00000KT 6SM 26/18 RMK SLP033 T02640179 57013 IEM_DS3505
ZBYN,1999-09-06 10:00,ZBYN 061000Z AUTO 00000KT 7SM 27/20 A2968 RMK T02700200 IEM_DS3505
ZBYN,1999-09-06 11:00,ZBYN 061100Z AUTO 34004KT 5SM 26/19 A2968 RMK T02600190 IEM_DS3505
ZBYN,1999-09-06 12:00,ZBYN 061200Z AUTO 32002KT 6SM 23/18 A2971 RMK SLP041 T02290181 52005 IEM_DS3505
ZBYN,1999-09-06 13:00,ZBYN 061300Z AUTO 09002KT 6SM 23/20 A2974 RMK T02300200 IEM_DS3505
ZBYN,1999-09-06 14:00,ZBYN 061400Z AUTO 00000KT 5SM 22/20 A2974 RMK T02200200 IEM_DS3505
ZBYN,1999-09-06 15:00,ZBYN 061500Z AUTO 00000KT 6SM 22/18 A2977 RMK SLP048 T02190176 52013 IEM_DS3505
ZBYN,1999-09-06 16:00,ZBYN 061600Z AUTO 00000KT 3SM 22/20 A2977 RMK T02200200 IEM_DS3505
ZBYN,1999-09-06 17:00,ZBYN 061700Z AUTO 00000KT 2 1/2SM 20/20 A2977 RMK T02000200 IEM_DS3505
ZBYN,1999-09-06 18:00,ZBYN 061800Z AUTO 00000KT 6SM 20/17 A2974 RMK SLP049 T01960167 54000 IEM_DS3505
ZBYN,1999-09-06 19:00,ZBYN 061900Z AUTO 00000KT 2 1/2SM 20/20 A2974 RMK T02000200 IEM_DS3505
ZBYN,1999-09-06 20:00,ZBYN 062000Z AUTO 00000KT 4SM 18/18 A2977 RMK T01800180 IEM_DS3505
ZBYN,1999-09-06 21:00,ZBYN 062100Z AUTO 36002KT 6SM 20/16 A2977 RMK SLP054 T01950160 52004 IEM_DS3505
ZBYN,1999-09-06 22:00,ZBYN 062200Z AUTO 00000KT 3SM 17/17 A2980 RMK T01700170 IEM_DS3505
ZBYN,1999-09-06 23:00,ZBYN 062300Z AUTO 00000KT 3SM 18/18 A2980 RMK T01800180 IEM_DS3505
ZBYN,1999-09-07 00:00,ZBYN 070000Z AUTO 00000KT 4SM 20/17 A2980 RMK SLP072 T01980171 52012 IEM_DS3505
ZBYN,1999-09-07 01:00,ZBYN 070100Z AUTO 00000KT 2 1/2SM 22/20 A2980 RMK T02200200 IEM_DS3505
ZBYN,1999-09-07 02:00,ZBYN 070200Z AUTO 00000KT 2 1/2SM 24/21 A2980 RMK T02400210 IEM_DS3505
ZBYN,1999-09-07 03:00,ZBYN 070300Z AUTO 00000KT 4SM 27/18 A2980 RMK SLP064 T02730182 52002 IEM_DS3505
ZBYN,1999-09-07 04:00,ZBYN 070400Z AUTO 00000KT 3SM 28/21 A2980 RMK T02800210 IEM_DS3505
ZBYN,1999-09-07 05:00,ZBYN 070500Z AUTO 00000KT 5SM 30/20 A2977 RMK T03000200 IEM_DS3505
ZBYN,1999-09-07 06:00,ZBYN 070600Z AUTO 11004KT 6SM 31/17 A2974 RMK SLP043 T03110166 57017 IEM_DS3505
ZBYN,1999-09-07 07:00,ZBYN 070700Z AUTO 19002KT 6SM 32/18 A2971 RMK T03200180 IEM_DS3505
ZBYN,1999-09-07 08:00,ZBYN 070800Z AUTO 15002KT 6SM 32/16 A2971 RMK T03200160 IEM_DS3505
ZBYN,1999-09-07 09:00,ZBYN 070900Z AUTO 00000KT 6SM 31/18 A2971 RMK SLP033 T03070176 57010 IEM_DS3505
ZBYN,1999-09-07 10:00,ZBYN 071000Z AUTO 00000KT 6SM 31/15 A2971 RMK T03100150 IEM_DS3505
ZBYN,1999-09-07 11:00,ZBYN 071100Z AUTO 13002KT 6SM 27/19 A2971 RMK T02700190 IEM_DS3505
ZBYN,1999-09-07 12:00,ZBYN 071200Z AUTO 00000KT 6SM 23/19 A2974 RMK SLP049 T02290186 52004 IEM_DS3505
ZBYN,1999-09-07 13:00,ZBYN 071300Z AUTO 08006KT 6SM 25/20 A2977 RMK T02500200 IEM_DS3505
ZBYN,1999-09-07 14:00,ZBYN 071400Z AUTO 08008KT 6SM 25/20 A2977 RMK T02500200 IEM_DS3505
ZBYN,1999-09-07 15:00,ZBYN 071500Z AUTO 00000KT 6SM 22/16 A2980 RMK SLP058 T02200156 52018 IEM_DS3505
ZBYN,1999-09-07 16:00,ZBYN 071600Z AUTO 09004KT 6SM 23/20 A2980 RMK T02300200 IEM_DS3505
ZBYN,1999-09-07 17:00,ZBYN 071700Z AUTO 09002KT 6SM 21/20 A2980 RMK T02100200 IEM_DS3505
ZBYN,1999-09-07 18:00,ZBYN 071800Z AUTO 00000KT 6SM 20/16 A2980 RMK SLP055 T02010159 57001 IEM_DS3505
ZBYN,1999-09-07 19:00,ZBYN 071900Z AUTO 00000KT 4SM 21/20 A2980 RMK T02100200 IEM_DS3505
ZBYN,1999-09-07 21:00,ZBYN 072100Z AUTO 00000KT 6SM 20/16 RMK SLP058 T02010164 52003 IEM_DS3505
ZBYN,1999-09-07 22:00,ZBYN 072200Z AUTO 00000KT 4SM 19/19 A2980 RMK T01900190 IEM_DS3505
ZBYN,1999-09-07 23:00,ZBYN 072300Z AUTO 00000KT 2 1/2SM 19/19 A2983 RMK T01900190 IEM_DS3505
ZBYN,1999-09-08 00:00,ZBYN 080000Z AUTO 00000KT 5SM 21/17 A2983 RMK SLP080 T02130171 52011 IEM_DS3505
ZBYN,1999-09-08 01:00,ZBYN 080100Z AUTO 04002KT 2 1/2SM 24/21 A2983 RMK T02400210 IEM_DS3505
ZBYN,1999-09-08 02:00,ZBYN 080200Z AUTO 00000KT 4SM 26/21 A2983 RMK T02600210 IEM_DS3505
ZBYN,1999-09-08 03:00,ZBYN 080300Z AUTO 14002KT 5SM 28/19 A2980 RMK SLP071 T02790189 57001 IEM_DS3505
ZBYN,1999-09-08 04:00,ZBYN 080400Z AUTO 20002KT 6SM 29/21 A2980 RMK T02900210 IEM_DS3505
ZBYN,1999-09-08 05:00,ZBYN 080500Z AUTO 16002KT 6SM 31/20 A2977 RMK T03100200 IEM_DS3505
ZBYN,1999-09-08 06:00,ZBYN 080600Z AUTO 00000KT 6SM 30/19 A2974 RMK SLP044 T03010188 57024 IEM_DS3505
ZBYN,1999-09-08 07:00,ZBYN 080700Z AUTO 00000KT 6SM 32/19 A2971 RMK T03200190 IEM_DS3505
ZBYN,1999-09-08 08:00,ZBYN 080800Z AUTO 15002KT 6SM 32/20 A2971 RMK T03200200 IEM_DS3505
ZBYN,1999-09-08 09:00,ZBYN 080900Z AUTO 14002KT 6SM 31/18 A2968 RMK SLP024 T03080183 57017 IEM_DS3505
ZBYN,1999-09-08 10:00,ZBYN 081000Z AUTO 13002KT 6SM 30/21 A2968 RMK T03000210 IEM_DS3505
ZBYN,1999-09-08 11:00,ZBYN 081100Z AUTO 00000KT 6SM 28/22 A2968 RMK T02800220 IEM_DS3505
ZBYN,1999-09-08 12:00,ZBYN 081200Z AUTO 00000KT 6SM 25/20 A2971 RMK SLP038 T02540204 52007 IEM_DS3505
ZBYN,1999-09-08 13:00,ZBYN 081300Z AUTO 09004KT 6SM 26/19 A2974 RMK T02600190 IEM_DS3505
ZBYN,1999-09-08 14:00,ZBYN 081400Z AUTO 11004KT 6SM 26/20 A2974 RMK T02600200 IEM_DS3505
ZBYN,1999-09-08 15:00,ZBYN 081500Z AUTO 00000KT 5SM 24/19 A2971 RMK SLP036 T02370193 52005 IEM_DS3505
ZBYN,1999-09-08 16:00,ZBYN 081600Z AUTO 11002KT 6SM 24/21 A2971 RMK T02400210 IEM_DS3505
ZBYN,1999-09-08 18:00,ZBYN 081800Z AUTO 00000KT 5SM 22/20 A2971 RMK SLP024 T02250196 57010 IEM_DS3505
ZBYN,1999-09-08 19:00,ZBYN 081900Z AUTO 09002KT 6SM 23/22 A2968 RMK T02300220 IEM_DS3505
ZBYN,1999-09-08 20:00,ZBYN 082000Z AUTO 31004KT 5SM 23/22 A2971 RMK T02300220 IEM_DS3505
ZBYN,1999-09-08 21:00,ZBYN 082100Z AUTO 00000KT 5SM 22/20 A2968 RMK SLP023 T02210202 57001 IEM_DS3505
ZBYN,1999-09-08 22:00,ZBYN 082200Z AUTO 01002KT 4SM 22/22 A2968 RMK T02200220 IEM_DS3505
ZBYN,1999-09-08 23:00,ZBYN 082300Z AUTO 33004KT 1 1/4SM 23/23 A2971 RMK T02300230 IEM_DS3505
ZBYN,1999-09-09 00:00,ZBYN 090000Z AUTO 34006KT 4SM 23/20 A2971 RMK SLP033 T02330202 52004 IEM_DS3505
ZBYN,1999-09-09 01:00,ZBYN 090100Z AUTO 33006KT 4SM 25/23 A2971 RMK T02500230 IEM_DS3505
ZBYN,1999-09-09 02:00,ZBYN 090200Z AUTO 36006KT 6SM 27/22 A2971 RMK T02700220 IEM_DS3505
ZBYN,1999-09-09 03:00,ZBYN 090300Z AUTO 34004KT 5SM 28/20 A2971 RMK SLP033 T02850203 52005 IEM_DS3505
ZBYN,1999-09-09 04:00,ZBYN 090400Z AUTO 01006KT 6SM 30/22 A2971 RMK T03000220 IEM_DS3505
ZBYN,1999-09-09 05:00,ZBYN 090500Z AUTO 35008KT 7SM 32/21 A2968 RMK T03200210 IEM_DS3505
ZBYN,1999-09-09 07:00,ZBYN 090700Z AUTO 02008KT 7SM 32/19 A2965 RMK T03200190 IEM_DS3505
ZBYN,1999-09-09 08:00,ZBYN 090800Z AUTO 02010KT 6SM 32/17 A2965 RMK T03200170 IEM_DS3505
ZBYN,1999-09-09 09:00,ZBYN 090900Z AUTO 04006KT 6SM 31/13 A2965 RMK SLP011 T03130127 57001 IEM_DS3505
ZBYN,1999-09-09 10:00,ZBYN 091000Z AUTO 36008KT 7SM 30/13 A2968 RMK T03000130 IEM_DS3505
ZBYN,1999-09-09 11:00,ZBYN 091100Z AUTO 36004KT 6SM 28/14 A2968 RMK T02800140 IEM_DS3505
ZBYN,1999-09-09 12:00,ZBYN 091200Z AUTO 34002KT 6SM 26/13 A2971 RMK SLP034 T02600126 52016 IEM_DS3505
ZBYN,1999-09-09 13:00,ZBYN 091300Z AUTO 33002KT 6SM 24/16 A2977 RMK T02400160 IEM_DS3505
ZBYN,1999-09-09 14:00,ZBYN 091400Z AUTO 03002KT 6SM 25/16 A2977 RMK T02500160 IEM_DS3505
ZBYN,1999-09-09 15:00,ZBYN 091500Z AUTO 00000KT 6SM 24/12 A2977 RMK SLP044 T02420123 52013 IEM_DS3505
ZBYN,1999-09-09 16:00,ZBYN 091600Z AUTO 00000KT 6SM 23/18 A2977 RMK T02300180 IEM_DS3505
ZBYN,1999-09-09 17:00,ZBYN 091700Z AUTO 00000KT 6SM 22/18 A2974 RMK T02200180 IEM_DS3505
ZBYN,1999-09-09 18:00,ZBYN 091800Z AUTO 34002KT 6SM 23/13 A2974 RMK SLP039 T02290127 57002 IEM_DS3505
ZBYN,1999-09-09 19:00,ZBYN 091900Z AUTO 33002KT 6SM 23/16 A2974 RMK T02300160 IEM_DS3505
ZBYN,1999-09-09 20:00,ZBYN 092000Z AUTO 00000KT 6SM 21/15 A2974 RMK T02100150 IEM_DS3505
ZBYN,1999-09-09 21:00,ZBYN 092100Z AUTO 00000KT 6SM 22/12 A2974 RMK SLP039 T02220124 57001 IEM_DS3505
ZBYN,1999-09-09 22:00,ZBYN 092200Z AUTO 14002KT 6SM 19/18 A2974 RMK T01900180 IEM_DS3505
ZBYN,1999-09-09 23:00,ZBYN 092300Z AUTO 00000KT 6SM 20/19 A2977 RMK T02000190 IEM_DS3505
ZBYN,1999-09-10 00:00,ZBYN 100000Z AUTO 00000KT 5SM 24/15 A2977 RMK SLP051 T02350146 52005 IEM_DS3505
ZBYN,1999-09-10 01:00,ZBYN 100100Z AUTO 33004KT 3SM 26/16 A2977 RMK T02600160 IEM_DS3505
ZBYN,1999-09-10 02:00,ZBYN 100200Z AUTO 30004KT 3SM 26/16 A2977 RMK T02600160 IEM_DS3505
ZBYN,1999-09-10 03:00,ZBYN 100300Z AUTO 34002KT 5SM 26/14 A2977 RMK SLP052 T02580144 52002 IEM_DS3505
ZBYN,1999-09-10 04:00,ZBYN 100400Z AUTO 28004KT 3SM 24/20 A2977 RMK T02400200 IEM_DS3505
ZBYN,1999-09-10 05:00,ZBYN 100500Z AUTO 23002KT 1SM 21/21 A2980 RMK T02100210 IEM_DS3505
ZBYN,1999-09-10 06:00,ZBYN 100600Z AUTO 00000KT 5SM 22/20 A2977 RMK SLP060 T02200205 54000 IEM_DS3505
ZBYN,1999-09-10 07:00,ZBYN 100700Z AUTO 00000KT 1SM 22/22 A2977 RMK T02200220 IEM_DS3505
ZBYN,1999-09-10 08:00,ZBYN 100800Z AUTO 00000KT 1SM 22/21 A2977 RMK T02200210 IEM_DS3505
ZBYN,1999-09-10 09:00,ZBYN 100900Z AUTO 00000KT 5SM 22/21 A2977 RMK SLP061 T02250209 52001 IEM_DS3505
ZBYN,1999-09-10 10:00,ZBYN 101000Z AUTO 00000KT 1 1/4SM 22/22 A2980 RMK T02200220 IEM_DS3505
ZBYN,1999-09-10 11:00,ZBYN 101100Z AUTO 35008KT 6SM 19/18 A2983 RMK T01900180 IEM_DS3505
ZBYN,1999-09-10 12:00,ZBYN 101200Z AUTO 36008KT 5SM 20/15 A2985 RMK SLP093 T02010152 52028 IEM_DS3505
ZBYN,1999-09-10 13:00,ZBYN 101300Z AUTO 33010KT 6SM 20/17 A2985 RMK T02000170 IEM_DS3505
ZBYN,1999-09-10 14:00,ZBYN 101400Z AUTO 36004KT 6SM 20/16 A2985 RMK T02000160 IEM_DS3505
ZBYN,1999-09-10 15:00,ZBYN 101500Z AUTO 34004KT 5SM 20/15 A2985 RMK SLP089 T01970151 57001 IEM_DS3505
ZBYN,1999-09-10 16:00,ZBYN 101600Z AUTO 29002KT 6SM 19/16 A2985 RMK T01900160 IEM_DS3505
ZBYN,1999-09-10 17:00,ZBYN 101700Z AUTO 09002KT 6SM 19/16 A2985 RMK T01900160 IEM_DS3505
ZBYN,1999-09-10 18:00,ZBYN 101800Z AUTO 00000KT 5SM 18/16 A2985 RMK SLP051 T01770161 57043 IEM_DS3505
ZBYN,1999-09-10 19:00,ZBYN 101900Z AUTO 17002KT 6SM 17/17 A2985 RMK T01700170 IEM_DS3505
ZBYN,1999-09-10 20:00,ZBYN 102000Z AUTO 00000KT 3SM 17/17 A2985 RMK T01700170 IEM_DS3505
ZBYN,1999-09-10 21:00,ZBYN 102100Z AUTO 00000KT 5SM 17/16 A2985 RMK SLP097 T01710160 57001 IEM_DS3505
ZBYN,1999-09-10 22:00,ZBYN 102200Z AUTO 11002KT 2 1/2SM 16/16 A2985 RMK T01600160 IEM_DS3505
ZBYN,1999-09-10 23:00,ZBYN 102300Z AUTO 00000KT 2SM 17/16 A2988 RMK T01700160 IEM_DS3505
ZBYN,1999-09-11 00:00,ZBYN 110000Z AUTO 00000KT 2 1/2SM 17/16 A2991 RMK SLP120 T01690163 52017 IEM_DS3505
ZBYN,1999-09-11 01:00,ZBYN 110100Z AUTO 02002KT 2SM 18/18 A2991 RMK T01800180 IEM_DS3505
ZBYN,1999-09-11 02:00,ZBYN 110200Z AUTO 00000KT 2 1/2SM 19/18 A2991 RMK T01900180 IEM_DS3505
ZBYN,1999-09-11 03:00,ZBYN 110300Z AUTO 00000KT 5SM 21/17 A2991 RMK SLP116 T02100169 52002 IEM_DS3505
ZBYN,1999-09-11 04:00,ZBYN 110400Z AUTO 00000KT 3SM 22/18 A2991 RMK T02200180 IEM_DS3505
ZBYN,1999-09-11 05:00,ZBYN 110500Z AUTO 19002KT 2 1/2SM 23/19 A2988 RMK T02300190 IEM_DS3505
ZBYN,1999-09-11 06:00,ZBYN 110600Z AUTO 18008KT 4SM 24/18 A2988 RMK SLP100 T02350175 57014 IEM_DS3505
ZBYN,1999-09-11 07:00,ZBYN 110700Z AUTO 19004KT 5SM 24/18 A2985 RMK T02400180 IEM_DS3505
ZBYN,1999-09-11 08:00,ZBYN 110800Z AUTO 18002KT 6SM 24/17 A2985 RMK T02400170 IEM_DS3505
ZBYN,1999-09-11 09:00,ZBYN 110900Z AUTO 14006KT 5SM 23/17 A2985 RMK SLP097 T02290168 57005 IEM_DS3505
ZBYN,1999-09-11 10:00,ZBYN 111000Z AUTO 00000KT 6SM 22/19 A2985 RMK T02200190 IEM_DS3505
ZBYN,1999-09-11 11:00,ZBYN 111100Z AUTO 12002KT 7SM 21/19 A2985 RMK T02100190 IEM_DS3505
ZBYN,1999-09-11 12:00,ZBYN 111200Z AUTO 00000KT 5SM 21/17 A2988 RMK SLP111 T02070167 52010 IEM_DS3505
ZBYN,1999-09-11 13:00,ZBYN 111300Z AUTO 00000KT 7SM 20/19 A2991 RMK T02000190 IEM_DS3505
ZBYN,1999-09-11 14:00,ZBYN 111400Z AUTO 34002KT 6SM 20/18 A2991 RMK T02000180 IEM_DS3505
ZBYN,1999-09-11 15:00,ZBYN 111500Z AUTO 00000KT 6SM 20/09 A2991 RMK SLP112 T02030093 52006 IEM_DS3505
ZBYN,1999-09-11 16:00,ZBYN 111600Z AUTO 00000KT 6SM 19/16 A2991 RMK T01900160 IEM_DS3505
ZBYN,1999-09-11 17:00,ZBYN 111700Z AUTO 03002KT 6SM 19/16 A2991 RMK T01900160 IEM_DS3505
ZBYN,1999-09-11 18:00,ZBYN 111800Z AUTO 00000KT 6SM 18/13 A2991 RMK SLP112 T01820127 54000 IEM_DS3505
ZBYN,1999-09-11 19:00,ZBYN 111900Z AUTO 12002KT 6SM 17/16 A2991 RMK T01700160 IEM_DS3505
ZBYN,1999-09-11 20:00,ZBYN 112000Z AUTO 00000KT 6SM 17/17 A2991 RMK T01700170 IEM_DS3505
ZBYN,1999-09-11 21:00,ZBYN 112100Z AUTO 00000KT 6SM 16/14 A2994 RMK SLP121 T01610142 52005 IEM_DS3505
ZBYN,1999-09-11 22:00,ZBYN 112200Z AUTO 00000KT 6SM 16/16 A2994 RMK T01600160 IEM_DS3505
ZBYN,1999-09-11 23:00,ZBYN 112300Z AUTO 08002KT 6SM 16/16 A2994 RMK T01600160 IEM_DS3505
ZBYN,1999-09-12 00:00,ZBYN 120000Z AUTO 00000KT 5SM 18/15 A2994 RMK SLP130 T01780146 52007 IEM_DS3505
ZBYN,1999-09-12 01:00,ZBYN 120100Z AUTO 16002KT 6SM 20/16 A2994 RMK T02000160 IEM_DS3505
ZBYN,1999-09-12 02:00,ZBYN 120200Z AUTO 00000KT 6SM 23/13 A2997 RMK T02300130 IEM_DS3505
ZBYN,1999-09-12 03:00,ZBYN 120300Z AUTO 18002KT 5SM 24/10 A2994 RMK SLP121 T02420098 52001 IEM_DS3505
ZBYN,1999-09-12 04:00,ZBYN 120400Z AUTO 13002KT 6SM 26/11 A2994 RMK T02600110 IEM_DS3505
ZBYN,1999-09-12 05:00,ZBYN 120500Z AUTO 24006KT 6SM 27/09 A2991 RMK T02700090 IEM_DS3505
ZBYN,1999-09-12 06:00,ZBYN 120600Z AUTO 20012KT 6SM 27/08 A2988 RMK SLP107 T02690085 57012 IEM_DS3505
ZBYN,1999-09-12 07:00,ZBYN 120700Z AUTO 21008KT 6SM 27/10 A2985 RMK T02700100 IEM_DS3505
ZBYN,1999-09-12 08:00,ZBYN 120800Z AUTO 24008KT 6SM 27/11 A2985 RMK T02700110 IEM_DS3505
ZBYN,1999-09-12 09:00,ZBYN 120900Z AUTO 20010KT 9SM 25/08 A2985 RMK SLP102 T02510075 57010 IEM_DS3505
ZBYN,1999-09-12 10:00,ZBYN 121000Z AUTO 23004KT 6SM 24/11 A2985 RMK T02400110 IEM_DS3505
ZBYN,1999-09-12 11:00,ZBYN 121100Z AUTO 22006KT 6SM 22/12 A2985 RMK T02200120 IEM_DS3505
ZBYN,1999-09-12 12:00,ZBYN 121200Z AUTO 18008KT 9SM 19/12 A2991 RMK SLP113 T01920115 52004 IEM_DS3505
ZBYN,1999-09-12 13:00,ZBYN 121300Z AUTO 14004KT 6SM 17/13 A2991 RMK T01700130 IEM_DS3505
ZBYN,1999-09-12 14:00,ZBYN 121400Z AUTO 10002KT 6SM 16/13 A2994 RMK T01600130 IEM_DS3505
ZBYN,1999-09-12 15:00,ZBYN 121500Z AUTO 11006KT 6SM 16/12 A2994 RMK SLP122 T01580119 52012 IEM_DS3505
ZBYN,1999-09-12 16:00,ZBYN 121600Z AUTO 13002KT 6SM 15/14 A2994 RMK T01500140 IEM_DS3505
ZBYN,1999-09-12 17:00,ZBYN 121700Z AUTO 13002KT 6SM 14/13 A2994 RMK T01400130 IEM_DS3505
ZBYN,1999-09-12 18:00,ZBYN 121800Z AUTO 00000KT 5SM 13/12 A2994 RMK SLP118 T01330119 57003 IEM_DS3505
ZBYN,1999-09-12 19:00,ZBYN 121900Z AUTO 12002KT 6SM 13/13 A2991 RMK T01300130 IEM_DS3505
ZBYN,1999-09-12 20:00,ZBYN 122000Z AUTO 12004KT 6SM 12/12 A2991 RMK T01200120 IEM_DS3505
ZBYN,1999-09-12 21:00,ZBYN 122100Z AUTO 00000KT 5SM 13/12 A2991 RMK SLP118 T01260115 57004 IEM_DS3505
ZBYN,1999-09-12 22:00,ZBYN 122200Z AUTO 00000KT 6SM 12/12 A2991 RMK T01200120 IEM_DS3505
ZBYN,1999-09-12 23:00,ZBYN 122300Z AUTO 10002KT 4SM 13/13 A2991 RMK T01300130 IEM_DS3505
ZBYN,1999-09-13 00:00,ZBYN 130000Z AUTO 32002KT 5SM 15/12 A2991 RMK SLP128 T01480116 52004 IEM_DS3505
ZBYN,1999-09-13 01:00,ZBYN 130100Z AUTO 27002KT 3SM 18/15 A2991 RMK T01800150 IEM_DS3505
ZBYN,1999-09-13 02:00,ZBYN 130200Z AUTO 00000KT 3SM 19/14 A2991 RMK T01900140 IEM_DS3505
ZBYN,1999-09-13 03:00,ZBYN 130300Z AUTO 32004KT 5SM 20/13 A2991 RMK SLP121 T02050129 57003 IEM_DS3505
ZBYN,1999-09-13 04:00,ZBYN 130400Z AUTO 00000KT 3SM 21/15 A2988 RMK T02100150 IEM_DS3505
ZBYN,1999-09-13 05:00,ZBYN 130500Z AUTO 00000KT 3SM 22/15 A2988 RMK T02200150 IEM_DS3505
ZBYN,1999-09-13 06:00,ZBYN 130600Z AUTO 00000KT 23/15 A2988 RMK T02300150 IEM_DS3505
ZBYN,1999-09-13 07:00,ZBYN 130700Z AUTO 00000KT 3SM 22/16 A2985 RMK T02200160 IEM_DS3505
ZBYN,1999-09-13 08:00,ZBYN 130800Z AUTO 26004KT 3SM 22/17 A2988 RMK T02200170 IEM_DS3505
ZBYN,1999-09-13 10:00,ZBYN 131000Z AUTO 32006KT 7SM 20/17 A2991 RMK T02000170 IEM_DS3505
ZBYN,1999-09-13 11:00,ZBYN 131100Z AUTO 11004KT 6SM 18/15 A2991 RMK T01800150 IEM_DS3505
ZBYN,1999-09-13 15:00,ZBYN 131500Z AUTO 14002KT 6SM 16/14 A2994 RMK SLP135 T01620138 52008 IEM_DS3505
ZBYN,1999-09-13 16:00,ZBYN 131600Z AUTO 11002KT 6SM 16/15 A2994 RMK T01600150 IEM_DS3505
ZBYN,1999-09-13 17:00,ZBYN 131700Z AUTO 06002KT 6SM 15/15 A2994 RMK T01500150 IEM_DS3505
ZBYN,1999-09-13 18:00,ZBYN 131800Z AUTO 00000KT 6SM 15/13 A2994 RMK SLP134 T01470133 54000 IEM_DS3505
ZBYN,1999-09-13 19:00,ZBYN 131900Z AUTO 12002KT 5SM 14/14 A2994 RMK T01400140 IEM_DS3505
ZBYN,1999-09-13 20:00,ZBYN 132000Z AUTO 00000KT 5SM 14/14 A2994 RMK T01400140 IEM_DS3505
ZBYN,1999-09-13 21:00,ZBYN 132100Z AUTO 00000KT 4SM 14/13 A2994 RMK SLP127 T01380133 57008 IEM_DS3505
ZBYN,1999-09-13 22:00,ZBYN 132200Z AUTO 00000KT 4SM 14/14 A2994 RMK T01400140 IEM_DS3505
ZBYN,1999-09-13 23:00,ZBYN 132300Z AUTO 00000KT 1SM 13/13 A2994 RMK T01300130 IEM_DS3505
ZBYN,1999-09-14 00:00,ZBYN 140000Z AUTO 00000KT 3/8SM 15/15 A2994 RMK SLP140 T01500147 52007 IEM_DS3505
ZBYN,1999-09-14 01:00,ZBYN 140100Z AUTO 00000KT 1SM 17/16 A2994 RMK T01700160 IEM_DS3505
ZBYN,1999-09-14 02:00,ZBYN 140200Z AUTO 15002KT 2SM 20/16 A2997 RMK T02000160 IEM_DS3505
ZBYN,1999-09-14 03:00,ZBYN 140300Z AUTO 18004KT 2 1/2SM 22/14 A2994 RMK SLP124 T02250136 57006 IEM_DS3505
ZBYN,1999-09-14 04:00,ZBYN 140400Z AUTO 23002KT 24/15 A2991 RMK T02400150 IEM_DS3505
ZBYN,1999-09-14 06:00,ZBYN 140600Z AUTO 20008KT 6SM 26/13 A2985 RMK SLP098 T02630130 57020 IEM_DS3505
ZBYN,1999-09-14 07:00,ZBYN 140700Z AUTO 18004KT 7SM 28/12 A2985 RMK T02800120 IEM_DS3505
ZBYN,1999-09-14 08:00,ZBYN 140800Z AUTO 17004KT 7SM 28/12 A2983 RMK T02800120 IEM_DS3505
ZBYN,1999-09-14 09:00,ZBYN 140900Z AUTO 16004KT 6SM 26/14 A2983 RMK SLP088 T02630136 57011 IEM_DS3505
ZBYN,1999-09-14 10:00,ZBYN 141000Z AUTO 14002KT 7SM 25/14 A2985 RMK T02500140 IEM_DS3505
ZBYN,1999-09-14 11:00,ZBYN 141100Z AUTO 08008KT 7SM 23/17 A2985 RMK T02300170 IEM_DS3505
ZBYN,1999-09-14 13:00,ZBYN 141300Z AUTO 09016KT 6SM 20/17 A2991 RMK T02000170 IEM_DS3505
ZBYN,1999-09-14 14:00,ZBYN 141400Z AUTO 08016KT 6SM 20/17 A2994 RMK T02000170 IEM_DS3505
ZBYN,1999-09-14 15:00,ZBYN 141500Z AUTO 00000KT 7SM 24/21 A2994 RMK SLP100 T02370209 52020 IEM_DS3505
ZBYN,1999-09-14 16:00,ZBYN 141600Z AUTO 08008KT 6SM 19/17 A2997 RMK T01900170 IEM_DS3505
ZBYN,1999-09-14 17:00,ZBYN 141700Z AUTO 07008KT 6SM 19/17 A2997 RMK T01900170 IEM_DS3505
ZBYN,1999-09-14 18:00,ZBYN 141800Z AUTO 00000KT 6SM 17/14 A2997 RMK SLP128 T01730145 54000 IEM_DS3505
ZBYN,1999-09-14 21:00,ZBYN 142100Z AUTO 14002KT 5SM 17/15 A2997 RMK SLP132 T01660146 52002 IEM_DS3505
ZBYN,1999-09-14 22:00,ZBYN 142200Z AUTO 15002KT 2 1/2SM 18/17 A2997 RMK T01800170 IEM_DS3505
ZBYN,1999-09-14 23:00,ZBYN 142300Z AUTO 00000KT 1 1/4SM 18/18 A3000 RMK T01800180 IEM_DS3505
ZBYN,1999-09-15 00:00,ZBYN 150000Z AUTO 00000KT 4SM 18/16 A3000 RMK SLP147 T01750162 52009 IEM_DS3505
ZBYN,1999-09-15 01:00,ZBYN 150100Z AUTO 15002KT 3SM 20/17 A3000 RMK T02000170 IEM_DS3505
ZBYN,1999-09-15 02:00,ZBYN 150200Z AUTO 18002KT 3SM 21/18 A3000 RMK T02100180 IEM_DS3505
ZBYN,1999-09-15 03:00,ZBYN 150300Z AUTO 14008KT 4SM 23/16 A2997 RMK SLP131 T02270162 57010 IEM_DS3505
ZBYN,1999-09-15 04:00,ZBYN 150400Z AUTO 21002KT 7SM 24/17 A2994 RMK T02400170 IEM_DS3505
ZBYN,1999-09-15 05:00,ZBYN 150500Z AUTO 20004KT 7SM 26/16 A2991 RMK T02600160 IEM_DS3505
ZBYN,1999-09-15 06:00,ZBYN 150600Z AUTO 16006KT 6SM 26/14 A2988 RMK SLP103 T02590145 57025 IEM_DS3505
ZBYN,1999-09-15 07:00,ZBYN 150700Z AUTO 19004KT 7SM 27/16 A2985 RMK T02700160 IEM_DS3505
ZBYN,1999-09-15 08:00,ZBYN 150800Z AUTO 20008KT 7SM 27/17 A2985 RMK T02700170 IEM_DS3505
ZBYN,1999-09-15 09:00,ZBYN 150900Z AUTO 18006KT 6SM 26/14 A2985 RMK SLP091 T02590145 57012 IEM_DS3505
ZBYN,1999-09-15 10:00,ZBYN 151000Z AUTO 18006KT 7SM 26/15 A2988 RMK T02600150 IEM_DS3505
ZBYN,1999-09-15 11:00,ZBYN 151100Z AUTO 08008KT 7SM 21/14 A2991 RMK T02100140 IEM_DS3505
ZBYN,1999-09-15 12:00,ZBYN 151200Z AUTO 11012KT 6SM 19/13 A2991 RMK SLP119 T01920133 52018 IEM_DS3505
ZBYN,1999-09-15 13:00,ZBYN 151300Z AUTO 09010KT 6SM 19/17 A2994 RMK T01900170 IEM_DS3505
ZBYN,1999-09-15 14:00,ZBYN 151400Z AUTO 09010KT 6SM 19/16 A2994 RMK T01900160 IEM_DS3505
ZBYN,1999-09-15 15:00,ZBYN 151500Z AUTO 00000KT 6SM 17/14 A2994 RMK SLP128 T01710141 52012 IEM_DS3505
ZBYN,1999-09-15 16:00,ZBYN 151600Z AUTO 12006KT 6SM 17/16 A2997 RMK T01700160 IEM_DS3505
ZBYN,1999-09-15 17:00,ZBYN 151700Z AUTO 11006KT 6SM 17/16 A2997 RMK T01700160 IEM_DS3505
ZBYN,1999-09-15 18:00,ZBYN 151800Z AUTO 32002KT 6SM 17/14 A2997 RMK SLP132 T01690135 52008 IEM_DS3505
ZBYN,1999-09-15 19:00,ZBYN 151900Z AUTO 10006KT 6SM 16/16 A2997 RMK T01600160 IEM_DS3505
ZBYN,1999-09-15 20:00,ZBYN 152000Z AUTO 10002KT 6SM 16/15 A3000 RMK T01600150 IEM_DS3505
ZBYN,1999-09-15 21:00,ZBYN 152100Z AUTO 00000KT 6SM 15/14 A3000 RMK SLP146 T01500135 52010 IEM_DS3505
ZBYN,1999-09-15 22:00,ZBYN 152200Z AUTO 11004KT 5SM 14/14 A3000 RMK T01400140 IEM_DS3505
ZBYN,1999-09-15 23:00,ZBYN 152300Z AUTO 12004KT 4SM 15/15 A3003 RMK T01500150 IEM_DS3505
ZBYN,1999-09-16 00:00,ZBYN 160000Z AUTO 18004KT 5SM 17/14 A3003 RMK SLP169 T01670138 52014 IEM_DS3505
ZBYN,1999-09-16 01:00,ZBYN 160100Z AUTO 14004KT 5SM 19/15 A3003 RMK T01900150 IEM_DS3505
ZBYN,1999-09-16 02:00,ZBYN 160200Z AUTO 19004KT 5SM 20/16 A3003 RMK T02000160 IEM_DS3505
ZBYN,1999-09-16 03:00,ZBYN 160300Z AUTO 20008KT 6SM 22/14 A3000 RMK SLP155 T02200139 57008 IEM_DS3505
ZBYN,1999-09-16 04:00,ZBYN 160400Z AUTO 23002KT 7SM 23/15 A3000 RMK T02300150 IEM_DS3505
ZBYN,1999-09-16 05:00,ZBYN 160500Z AUTO 00000KT 6SM 24/15 A2997 RMK T02400150 IEM_DS3505
ZBYN,1999-09-16 06:00,ZBYN 160600Z AUTO 20008KT 6SM 25/14 A2994 RMK SLP125 T02500135 57023 IEM_DS3505
ZBYN,1999-09-16 07:00,ZBYN 160700Z AUTO 10002KT 6SM 26/15 A2991 RMK T02600150 IEM_DS3505
ZBYN,1999-09-16 08:00,ZBYN 160800Z AUTO 09008KT 7SM 27/17 A2991 RMK T02700170 IEM_DS3505
ZBYN,1999-09-16 09:00,ZBYN 160900Z AUTO 11008KT 6SM 23/15 A2994 RMK SLP121 T02340148 57009 IEM_DS3505
ZBYN,1999-09-16 10:00,ZBYN 161000Z AUTO 08017KT 7SM 19/15 A2994 RMK T01900150 IEM_DS3505
ZBYN,1999-09-16 11:00,ZBYN 161100Z AUTO 08017KT 5SM 18/15 A2997 RMK T01800150 IEM_DS3505
ZBYN,1999-09-16 12:00,ZBYN 161200Z AUTO 20004KT 6SM 18/14 A3000 RMK SLP156 T01760139 52026 IEM_DS3505
ZBYN,1999-09-16 13:00,ZBYN 161300Z AUTO 09012KT 6SM 17/15 A3003 RMK T01700150 IEM_DS3505
ZBYN,1999-09-16 14:00,ZBYN 161400Z AUTO 07012KT 6SM 16/15 A3006 RMK T01600150 IEM_DS3505
ZBYN,1999-09-16 15:00,ZBYN 161500Z AUTO 00000KT 6SM 14/13 A3006 RMK SLP165 T01400131 52011 IEM_DS3505
ZBYN,1999-09-16 16:00,ZBYN 161600Z AUTO 08012KT 6SM 16/15 A3006 RMK T01600150 IEM_DS3505
ZBYN,1999-09-16 17:00,ZBYN 161700Z AUTO 09010KT 6SM 15/14 A3006 RMK T01500140 IEM_DS3505
ZBYN,1999-09-16 18:00,ZBYN 161800Z AUTO 00000KT 5SM 13/12 A3006 RMK 60000 SLP163 T01290122 52001 IEM_DS3505
ZBYN,1999-09-16 19:00,ZBYN 161900Z AUTO 00000KT 6SM 14/14 A3006 RMK T01400140 IEM_DS3505
ZBYN,1999-09-16 20:00,ZBYN 162000Z AUTO 10008KT 6SM 14/14 A3003 RMK T01400140 IEM_DS3505
ZBYN,1999-09-16 21:00,ZBYN 162100Z AUTO 00000KT 2 1/2SM 12/11 A3003 RMK 70003 SLP162 T01180113 57005 IEM_DS3505
ZBYN,1999-09-16 22:00,ZBYN 162200Z AUTO 11002KT 4SM 13/13 A3003 RMK T01300130 IEM_DS3505
ZBYN,1999-09-16 23:00,ZBYN 162300Z AUTO 11006KT 6SM 14/14 A3006 RMK T01400140 IEM_DS3505
ZBYN,1999-09-17 00:00,ZBYN 170000Z AUTO 00000KT 2 1/2SM 15/13 A3006 RMK SLP176 T01460134 52008 IEM_DS3505
ZBYN,1999-09-17 01:00,ZBYN 170100Z AUTO 10006KT 4SM 18/15 A3006 RMK T01800150 IEM_DS3505
ZBYN,1999-09-17 02:00,ZBYN 170200Z AUTO 13004KT 6SM 20/14 A3006 RMK T02000140 IEM_DS3505
ZBYN,1999-09-17 03:00,ZBYN 170300Z AUTO 18008KT 5SM 21/12 A3006 RMK SLP170 T02120115 57001 IEM_DS3505
ZBYN,1999-09-17 04:00,ZBYN 170400Z AUTO 15004KT 7SM 23/14 A3003 RMK T02300140 IEM_DS3505
ZBYN,1999-09-17 05:00,ZBYN 170500Z AUTO 10002KT 7SM 24/13 A3000 RMK T02400130 IEM_DS3505
ZBYN,1999-09-17 06:00,ZBYN 170600Z AUTO 25006KT 6SM 23/12 A2997 RMK SLP150 T02270116 57018 IEM_DS3505
ZBYN,1999-09-17 07:00,ZBYN 170700Z AUTO 35004KT 6SM 24/13 A2997 RMK T02400130 IEM_DS3505
ZBYN,1999-09-17 08:00,ZBYN 170800Z AUTO 15008KT 6SM 25/11 A2994 RMK T02500110 IEM_DS3505
ZBYN,1999-09-17 09:00,ZBYN 170900Z AUTO 07008KT 5SM 23/12 A2997 RMK SLP137 T02290120 57013 IEM_DS3505
ZBYN,1999-09-17 10:00,ZBYN 171000Z AUTO 09010KT 6SM 20/16 A2997 RMK T02000160 IEM_DS3505
ZBYN,1999-09-17 11:00,ZBYN 171100Z AUTO 08014KT 4SM 19/16 A2997 RMK T01900160 IEM_DS3505
ZBYN,1999-09-17 12:00,ZBYN 171200Z AUTO 09010KT 6SM 19/13 A3000 RMK SLP154 T01930126 52015 IEM_DS3505
ZBYN,1999-09-17 13:00,ZBYN 171300Z AUTO 08014KT 5SM 18/15 A3003 RMK T01800150 IEM_DS3505
ZBYN,1999-09-17 14:00,ZBYN 171400Z AUTO 10008KT 5SM 18/15 A3003 RMK T01800150 IEM_DS3505
ZBYN,1999-09-17 15:00,ZBYN 171500Z AUTO 07006KT 6SM 19/12 RMK SLP157 T01870121 52011 IEM_DS3505
ZBYN,1999-09-17 17:00,ZBYN 171700Z AUTO 09012KT 5SM 17/15 A3003 RMK T01700150 IEM_DS3505
ZBYN,1999-09-17 18:00,ZBYN 171800Z AUTO 00000KT 6SM 17/12 RMK SLP158 T01730124 52001 IEM_DS3505
ZBYN,1999-09-17 20:00,ZBYN 172000Z AUTO 09010KT 5SM 16/14 A3003 RMK T01600140 IEM_DS3505
ZBYN,1999-09-17 21:00,ZBYN 172100Z AUTO 00000KT 6SM 16/12 A3003 RMK SLP162 T01620124 52002 IEM_DS3505
ZBYN,1999-09-17 22:00,ZBYN 172200Z AUTO 10008KT 5SM 16/15 A3003 RMK T01600150 IEM_DS3505
ZBYN,1999-09-17 23:00,ZBYN 172300Z AUTO 09006KT 4SM 16/15 A3006 RMK T01600150 IEM_DS3505
ZBYN,1999-09-18 00:00,ZBYN 180000Z AUTO 00000KT 5SM 16/14 A3006 RMK SLP184 T01640137 52016 IEM_DS3505
ZBYN,1999-09-18 01:00,ZBYN 180100Z AUTO 11006KT 4SM 18/16 A3006 RMK T01800160 IEM_DS3505
ZBYN,1999-09-18 02:00,ZBYN 180200Z AUTO 13004KT 3SM 17/16 A3006 RMK T01700160 IEM_DS3505
ZBYN,1999-09-18 03:00,ZBYN 180300Z AUTO 11004KT 3SM 16/15 A3006 RMK SLP170 T01650147 57004 IEM_DS3505
ZBYN,1999-09-18 04:00,ZBYN 180400Z AUTO 08004KT 2 1/2SM 16/16 A3006 RMK T01600160 IEM_DS3505
ZBYN,1999-09-18 06:00,ZBYN 180600Z AUTO 00000KT 3SM 16/14 RMK SLP161 T01580145 57011 IEM_DS3505
ZBYN,1999-09-18 07:00,ZBYN 180700Z AUTO 00000KT 2SM 16/16 A3000 RMK T01600160 IEM_DS3505
ZBYN,1999-09-18 08:00,ZBYN 180800Z AUTO 15002KT 2SM 15/15 A3000 RMK T01500150 IEM_DS3505
ZBYN,1999-09-18 09:00,ZBYN 180900Z AUTO 14002KT 4SM 15/14 A3000 RMK SLP159 T01520145 57004 IEM_DS3505
ZBYN,1999-09-18 10:00,ZBYN 181000Z AUTO 14002KT 1SM 15/15 A3003 RMK T01500150 IEM_DS3505
ZBYN,1999-09-18 11:00,ZBYN 181100Z AUTO 00000KT 1 1/2SM 15/15 A3003 RMK T01500150 IEM_DS3505
ZBYN,1999-09-18 12:00,ZBYN 181200Z AUTO 11004KT 4SM 15/14 A3003 RMK SLP167 T01480139 52007 IEM_DS3505
ZBYN,1999-09-18 13:00,ZBYN 181300Z AUTO 14002KT 2SM 15/15 A3006 RMK T01500150 IEM_DS3505
ZBYN,1999-09-18 14:00,ZBYN 181400Z AUTO 10002KT 2 1/2SM 15/15 A3006 RMK T01500150 IEM_DS3505
ZBYN,1999-09-18 15:00,ZBYN 181500Z AUTO 00000KT 4SM 15/14 A3006 RMK SLP179 T01490140 52011 IEM_DS3505
ZBYN,1999-09-18 16:00,ZBYN 181600Z AUTO 06002KT 2 1/2SM 15/15 A3006 RMK T01500150 IEM_DS3505
ZBYN,1999-09-18 17:00,ZBYN 181700Z AUTO 12002KT 2 1/2SM 15/15 A3006 RMK T01500150 IEM_DS3505
ZBYN,1999-09-18 18:00,ZBYN 181800Z AUTO 11002KT 4SM 15/14 A3003 RMK SLP176 T01470137 57004 IEM_DS3505
ZBYN,1999-09-18 19:00,ZBYN 181900Z AUTO 00000KT 5SM 15/15 A3003 RMK T01500150 IEM_DS3505
ZBYN,1999-09-18 21:00,ZBYN 182100Z AUTO 00000KT 2 1/2SM 13/12 A3003 RMK SLP177 T01320125 57002 IEM_DS3505
ZBYN,1999-09-18 22:00,ZBYN 182200Z AUTO 00000KT 4SM 14/14 A3006 RMK T01400140 IEM_DS3505
ZBYN,1999-09-18 23:00,ZBYN 182300Z AUTO 00000KT 1 1/4SM 14/14 A3006 RMK T01400140 IEM_DS3505
ZBYN,1999-09-19 00:00,ZBYN 190000Z AUTO 00000KT 1/4SM 14/14 A3009 RMK SLP191 T01410138 52013 IEM_DS3505
ZBYN,1999-09-19 01:00,ZBYN 190100Z AUTO 17002KT 1SM 16/16 A3009 RMK T01600160 IEM_DS3505
ZBYN,1999-09-19 02:00,ZBYN 190200Z AUTO 32002KT 1 1/4SM 17/16 A3009 RMK T01700160 IEM_DS3505
ZBYN,1999-09-19 03:00,ZBYN 190300Z AUTO 32004KT 4SM 19/12 A3009 RMK SLP188 T01930124 52005 IEM_DS3505
ZBYN,1999-09-19 04:00,ZBYN 190400Z AUTO 33008KT 7SM 21/14 A3006 RMK T02100140 IEM_DS3505
ZBYN,1999-09-19 05:00,ZBYN 190500Z AUTO 34010KT 7SM 22/12 A3006 RMK T02200120 IEM_DS3505
ZBYN,1999-09-19 06:00,ZBYN 190600Z AUTO 04008KT 12SM 22/09 A3003 RMK SLP165 T02220086 57017 IEM_DS3505
ZBYN,1999-09-19 07:00,ZBYN 190700Z AUTO 36006KT 7SM 24/12 A3003 RMK T02400120 IEM_DS3505
ZBYN,1999-09-19 08:00,ZBYN 190800Z AUTO 10010KT 7SM 22/16 A3003 RMK T02200160 IEM_DS3505
ZBYN,1999-09-19 09:00,ZBYN 190900Z AUTO 11006KT 12SM 21/12 A3003 RMK SLP164 T02140124 57004 IEM_DS3505
ZBYN,1999-09-19 10:00,ZBYN 191000Z AUTO 09010KT 7SM 20/14 A3006 RMK T02000140 IEM_DS3505
ZBYN,1999-09-19 11:00,ZBYN 191100Z AUTO 07010KT 7SM 18/14 A3009 RMK T01800140 IEM_DS3505
ZBYN,1999-09-19 12:00,ZBYN 191200Z AUTO 07008KT 11SM 16/10 A3012 RMK SLP199 T01610105 52025 IEM_DS3505
ZBYN,1999-09-19 13:00,ZBYN 191300Z AUTO 10008KT 6SM 15/13 A3015 RMK T01500130 IEM_DS3505
ZBYN,1999-09-19 14:00,ZBYN 191400Z AUTO 09010KT 6SM 15/13 A3015 RMK T01500130 IEM_DS3505
ZBYN,1999-09-19 15:00,ZBYN 191500Z AUTO 11010KT 7SM 14/11 A3018 RMK SLP212 T01450107 52017 IEM_DS3505
ZBYN,1999-09-19 16:00,ZBYN 191600Z AUTO 08008KT 7SM 15/13 A3018 RMK T01500130 IEM_DS3505
ZBYN,1999-09-19 18:00,ZBYN 191800Z AUTO 07006KT 6SM 15/10 A3018 RMK SLP214 T01510097 52007 IEM_DS3505
ZBYN,1999-09-19 19:00,ZBYN 191900Z AUTO 09008KT 6SM 14/13 A3018 RMK T01400130 IEM_DS3505
ZBYN,1999-09-19 20:00,ZBYN 192000Z AUTO 09012KT 6SM 13/12 A3018 RMK T01300120 IEM_DS3505
ZBYN,1999-09-19 21:00,ZBYN 192100Z AUTO 09008KT 6SM 12/09 A3018 RMK SLP212 T01230091 57007 IEM_DS3505
ZBYN,1999-09-19 22:00,ZBYN 192200Z AUTO 08014KT 6SM 12/10 A3018 RMK T01200100 IEM_DS3505
ZBYN,1999-09-19 23:00,ZBYN 192300Z AUTO 09016KT 7SM 11/09 A3021 RMK T01100090 IEM_DS3505
ZBYN,1999-09-20 00:00,ZBYN 200000Z AUTO 09010KT 6SM 12/07 A3021 RMK SLP236 T01180072 52014 IEM_DS3505
ZBYN,1999-09-20 01:00,ZBYN 200100Z AUTO 08010KT 6SM 12/10 A3024 RMK T01200100 IEM_DS3505
ZBYN,1999-09-20 02:00,ZBYN 200200Z AUTO 08014KT 6SM 13/09 A3024 RMK T01300090 IEM_DS3505
ZBYN,1999-09-20 03:00,ZBYN 200300Z AUTO 09014KT 7SM 14/06 A3024 RMK SLP249 T01390065 52012 IEM_DS3505
ZBYN,1999-09-20 04:00,ZBYN 200400Z AUTO 08014KT 6SM 14/11 A3021 RMK T01400110 IEM_DS3505
ZBYN,1999-09-20 05:00,ZBYN 200500Z AUTO 08012KT 6SM 16/10 A3018 RMK T01600100 IEM_DS3505
ZBYN,1999-09-20 06:00,ZBYN 200600Z AUTO 09010KT 9SM 15/07 A3015 RMK SLP214 T01530071 57029 IEM_DS3505
ZBYN,1999-09-20 07:00,ZBYN 200700Z AUTO 06010KT 7SM 15/09 A3012 RMK T01500090 IEM_DS3505
ZBYN,1999-09-20 08:00,ZBYN 200800Z AUTO 08012KT 7SM 15/10 A3012 RMK T01500100 IEM_DS3505
ZBYN,1999-09-20 09:00,ZBYN 200900Z AUTO 09008KT 6SM 14/08 A3015 RMK SLP220 T01450075 54000 IEM_DS3505
ZBYN,1999-09-20 10:00,ZBYN 201000Z AUTO 05006KT 4SM 13/11 A3018 RMK T01300110 IEM_DS3505
ZBYN,1999-09-20 11:00,ZBYN 201100Z AUTO 09008KT 6SM 12/11 A3015 RMK T01200110 IEM_DS3505
ZBYN,1999-09-20 12:00,ZBYN 201200Z AUTO 04006KT 6SM 13/11 A3015 RMK T01300110 IEM_DS3505
ZBYN,1999-09-20 13:00,ZBYN 201300Z AUTO 34004KT 6SM 12/12 A3018 RMK T01200120 IEM_DS3505
ZBYN,1999-09-20 14:00,ZBYN 201400Z AUTO 07002KT 6SM 12/12 A3018 RMK T01200120 IEM_DS3505
ZBYN,1999-09-20 15:00,ZBYN 201500Z AUTO 00000KT 4SM 12/10 A3015 RMK SLP222 T01250097 52001 IEM_DS3505
ZBYN,1999-09-20 16:00,ZBYN 201600Z AUTO 00000KT 7SM 13/11 A3015 RMK T01300110 IEM_DS3505
ZBYN,1999-09-20 17:00,ZBYN 201700Z AUTO 07004KT 7SM 13/10 A3015 RMK T01300100 IEM_DS3505
ZBYN,1999-09-20 18:00,ZBYN 201800Z AUTO 00000KT 4SM 12/10 A3015 RMK SLP214 T01150100 57007 IEM_DS3505
ZBYN,1999-09-20 19:00,ZBYN 201900Z AUTO 10002KT 6SM 12/10 A3012 RMK T01200100 IEM_DS3505
ZBYN,1999-09-20 20:00,ZBYN 202000Z AUTO 14004KT 6SM 12/10 A3012 RMK T01200100 IEM_DS3505
ZBYN,1999-09-20 21:00,ZBYN 202100Z AUTO 00000KT 5SM 11/09 A3012 RMK SLP203 T01140091 57011 IEM_DS3505
ZBYN,1999-09-20 22:00,ZBYN 202200Z AUTO 12002KT 7SM 12/11 A3012 RMK T01200110 IEM_DS3505
ZBYN,1999-09-20 23:00,ZBYN 202300Z AUTO 13002KT 7SM 12/10 A3012 RMK T01200100 IEM_DS3505
ZBYN,1999-09-21 00:00,ZBYN 210000Z AUTO 00000KT 4SM 12/10 A3015 RMK SLP221 T01220101 52013 IEM_DS3505
ZBYN,1999-09-21 01:00,ZBYN 210100Z AUTO 10006KT 7SM 14/10 A3015 RMK T01400100 IEM_DS3505
ZBYN,1999-09-21 02:00,ZBYN 210200Z AUTO 14004KT 7SM 13/11 A3018 RMK T01300110 IEM_DS3505
ZBYN,1999-09-21 03:00,ZBYN 210300Z AUTO 16004KT 3SM 15/09 A3015 RMK SLP217 T01520088 52002 IEM_DS3505
ZBYN,1999-09-21 05:00,ZBYN 210500Z AUTO 18002KT 7SM 18/12 A3009 RMK T01800120 IEM_DS3505
ZBYN,1999-09-21 06:00,ZBYN 210600Z AUTO 18004KT 6SM 17/10 A3006 RMK SLP186 T01720103 57027 IEM_DS3505
ZBYN,1999-09-21 07:00,ZBYN 210700Z AUTO 22004KT 2 1/2SM 19/13 A3006 RMK T01900130 IEM_DS3505
ZBYN,1999-09-21 08:00,ZBYN 210800Z AUTO 24004KT 19/13 A3003 RMK T01900130 IEM_DS3505
ZBYN,1999-09-21 09:00,ZBYN 210900Z AUTO 20006KT 6SM 19/12 A3003 RMK SLP174 T01860116 57009 IEM_DS3505
ZBYN,1999-09-21 10:00,ZBYN 211000Z AUTO 23002KT 5SM 18/14 A3003 RMK T01800140 IEM_DS3505
ZBYN,1999-09-21 11:00,ZBYN 211100Z AUTO 28004KT 4SM 16/12 A3006 RMK T01600120 IEM_DS3505
ZBYN,1999-09-21 12:00,ZBYN 211200Z AUTO 00000KT 12SM 14/06 A3006 RMK SLP190 T01450059 52010 IEM_DS3505
ZBYN,1999-09-21 13:00,ZBYN 211300Z AUTO 36002KT 6SM 15/08 A3009 RMK T01500080 IEM_DS3505
ZBYN,1999-09-21 14:00,ZBYN 211400Z AUTO 00000KT 6SM 12/09 A3009 RMK T01200090 IEM_DS3505
ZBYN,1999-09-21 15:00,ZBYN 211500Z AUTO 32004KT 12SM 14/06 RMK SLP195 T01370056 52008 IEM_DS3505
ZBYN,1999-09-21 16:00,ZBYN 211600Z AUTO 00000KT 6SM 11/10 A3012 RMK T01100100 IEM_DS3505
ZBYN,1999-09-21 17:00,ZBYN 211700Z AUTO 08002KT 6SM 10/09 A3012 RMK T01000090 IEM_DS3505
ZBYN,1999-09-21 18:00,ZBYN 211800Z AUTO 00000KT 9SM 10/06 RMK SLP200 T01030060 52002 IEM_DS3505
ZBYN,1999-09-21 19:00,ZBYN 211900Z AUTO 14002KT 6SM 07/07 A3009 RMK T00700070 IEM_DS3505
ZBYN,1999-09-21 21:00,ZBYN 212100Z AUTO 00000KT 9SM 09/06 A3009 RMK SLP197 T00910055 57002 IEM_DS3505
ZBYN,1999-09-21 22:00,ZBYN 212200Z AUTO 00000KT 3SM A3012 RMK IEM_DS3505
ZBYN,1999-09-22 00:00,ZBYN 220000Z AUTO 00000KT 6SM 12/06 A3015 RMK SLP213 T01160065 52012 IEM_DS3505
ZBYN,1999-09-22 01:00,ZBYN 220100Z AUTO 33008KT 6SM 13/08 A3015 RMK T01300080 IEM_DS3505
ZBYN,1999-09-22 02:00,ZBYN 220200Z AUTO 35006KT 6SM 15/06 A3015 RMK T01500060 IEM_DS3505
ZBYN,1999-09-22 03:00,ZBYN 220300Z AUTO 09002KT 12SM 16/02 A3012 RMK SLP208 T01640023 52001 IEM_DS3505
ZBYN,1999-09-22 04:00,ZBYN 220400Z AUTO 26004KT 6SM 17/03 A3009 RMK T01700030 IEM_DS3505
ZBYN,1999-09-22 05:00,ZBYN 220500Z AUTO 6SM 19/03 A3009 RMK T01900030 IEM_DS3505
ZBYN,1999-09-22 06:00,ZBYN 220600Z AUTO 22002KT 12SM 21/01 A3003 RMK SLP173 T02060012 57030 IEM_DS3505
ZBYN,1999-09-22 07:00,ZBYN 220700Z AUTO 17006KT 6SM 21/04 A3003 RMK T02100040 IEM_DS3505
ZBYN,1999-09-22 08:00,ZBYN 220800Z AUTO 19002KT 6SM 21/04 A3000 RMK T02100040 IEM_DS3505
ZBYN,1999-09-22 09:00,ZBYN 220900Z AUTO 20008KT 12SM 21/05 A3000 RMK SLP163 T02080047 57011 IEM_DS3505
ZBYN,1999-09-22 10:00,ZBYN 221000Z AUTO 15002KT 6SM 19/05 A3003 RMK T01900050 IEM_DS3505
ZBYN,1999-09-22 11:00,ZBYN 221100Z AUTO 00000KT 6SM 15/08 A3006 RMK T01500080 IEM_DS3505
ZBYN,1999-09-22 12:00,ZBYN 221200Z AUTO 34004KT 12SM 16/02 A3006 RMK SLP180 T01650019 52013 IEM_DS3505
ZBYN,1999-09-22 13:00,ZBYN 221300Z AUTO 00000KT 6SM 13/08 A3009 RMK T01300080 IEM_DS3505
ZBYN,1999-09-22 14:00,ZBYN 221400Z AUTO 04002KT 6SM 14/09 A3012 RMK T01400090 IEM_DS3505
ZBYN,1999-09-22 15:00,ZBYN 221500Z AUTO 29004KT 12SM 11/05 A3012 RMK SLP202 T01070048 52018 IEM_DS3505
ZBYN,1999-09-22 16:00,ZBYN 221600Z AUTO 6SM 11/07 A3012 RMK T01100070 IEM_DS3505
ZBYN,1999-09-22 17:00,ZBYN 221700Z AUTO 00000KT 6SM 10/07 A3012 RMK T01000070 IEM_DS3505
ZBYN,1999-09-22 18:00,ZBYN 221800Z AUTO 00000KT 12SM 10/04 A3012 RMK SLP199 T01020042 52003 IEM_DS3505
ZBYN,1999-09-22 19:00,ZBYN 221900Z AUTO 33002KT 6SM 09/08 A3012 RMK T00900080 IEM_DS3505
ZBYN,1999-09-22 20:00,ZBYN 222000Z AUTO 00000KT 6SM 08/07 A3012 RMK T00800070 IEM_DS3505
ZBYN,1999-09-22 21:00,ZBYN 222100Z AUTO 34006KT 6SM 09/03 A3012 RMK SLP199 T00870026 57002 IEM_DS3505
ZBYN,1999-09-22 22:00,ZBYN 222200Z AUTO 00000KT 4SM 08/07 A3009 RMK T00800070 IEM_DS3505
ZBYN,1999-09-22 23:00,ZBYN 222300Z AUTO 33002KT 2 1/2SM 07/07 A3012 RMK T00700070 IEM_DS3505
ZBYN,1999-09-23 00:00,ZBYN 230000Z AUTO 32002KT 6SM 10/02 A3012 RMK SLP208 T01010025 52004 IEM_DS3505
ZBYN,1999-09-23 01:00,ZBYN 230100Z AUTO 00000KT 2SM 11/09 A3012 RMK T01100090 IEM_DS3505
ZBYN,1999-09-23 02:00,ZBYN 230200Z AUTO 00000KT 3SM 14/10 A3012 RMK T01400100 IEM_DS3505
ZBYN,1999-09-23 03:00,ZBYN 230300Z AUTO 09002KT 6SM 17/06 A3009 RMK SLP196 T01700060 57009 IEM_DS3505
ZBYN,1999-09-23 04:00,ZBYN 230400Z AUTO 17004KT 5SM 18/09 A3006 RMK T01800090 IEM_DS3505
ZBYN,1999-09-23 05:00,ZBYN 230500Z AUTO 22002KT 6SM 20/09 A3003 RMK T02000090 IEM_DS3505
ZBYN,1999-09-23 06:00,ZBYN 230600Z AUTO 18006KT 6SM 21/08 A3000 RMK SLP162 T02140077 57025 IEM_DS3505
ZBYN,1999-09-23 07:00,ZBYN 230700Z AUTO 23002KT 6SM 22/10 A2997 RMK T02200100 IEM_DS3505
ZBYN,1999-09-23 08:00,ZBYN 230800Z AUTO 21004KT 6SM 22/11 A2994 RMK T02200110 IEM_DS3505
ZBYN,1999-09-23 09:00,ZBYN 230900Z AUTO 16006KT 6SM 21/10 A2997 RMK SLP143 T02120098 57020 IEM_DS3505
ZBYN,1999-09-23 10:00,ZBYN 231000Z AUTO 00000KT 6SM 21/13 A2994 RMK T02100130 IEM_DS3505
ZBYN,1999-09-23 11:00,ZBYN 231100Z AUTO 00000KT 5SM 18/13 A2997 RMK T01800130 IEM_DS3505
ZBYN,1999-09-23 12:00,ZBYN 231200Z AUTO 00000KT 6SM 16/11 A2997 RMK SLP154 T01560113 52004 IEM_DS3505
ZBYN,1999-09-23 13:00,ZBYN 231300Z AUTO 11002KT 6SM 15/12 A3000 RMK T01500120 IEM_DS3505
ZBYN,1999-09-23 15:00,ZBYN 231500Z AUTO 00000KT 6SM 13/11 A3000 RMK SLP155 T01340108 52007 IEM_DS3505
ZBYN,1999-09-23 16:00,ZBYN 231600Z AUTO 12006KT 2 1/2SM 13/12 A3000 RMK T01300120 IEM_DS3505
ZBYN,1999-09-23 17:00,ZBYN 231700Z AUTO 01002KT 6SM 13/12 A3000 RMK T01300120 IEM_DS3505
ZBYN,1999-09-23 18:00,ZBYN 231800Z AUTO 00000KT 6SM 11/10 A2997 RMK SLP146 T01090100 57005 IEM_DS3505
ZBYN,1999-09-23 19:00,ZBYN 231900Z AUTO 00000KT 4SM 12/11 A2994 RMK T01200110 IEM_DS3505
ZBYN,1999-09-23 20:00,ZBYN 232000Z AUTO 00000KT 4SM 11/11 A2994 RMK T01100110 IEM_DS3505
ZBYN,1999-09-23 21:00,ZBYN 232100Z AUTO 00000KT 3SM 10/09 A2994 RMK SLP140 T01050088 57006 IEM_DS3505
ZBYN,1999-09-23 22:00,ZBYN 232200Z AUTO 10002KT 2 1/2SM 09/09 A2994 RMK T00900090 IEM_DS3505
ZBYN,1999-09-23 23:00,ZBYN 232300Z AUTO 00000KT 1SM 10/10 A2994 RMK T01000100 IEM_DS3505
ZBYN,1999-09-24 00:00,ZBYN 240000Z AUTO 00000KT 1SM 12/09 RMK SLP150 T01210093 52003 IEM_DS3505
ZBYN,1999-09-24 01:00,ZBYN 240100Z AUTO 12002KT 1 1/4SM 14/13 A2994 RMK T01400130 IEM_DS3505
ZBYN,1999-09-24 02:00,ZBYN 240200Z AUTO 15002KT 1 1/2SM 17/14 A2994 RMK T01700140 IEM_DS3505
ZBYN,1999-09-24 03:00,ZBYN 240300Z AUTO 00000KT 4SM 19/12 A2994 RMK SLP136 T01870115 57006 IEM_DS3505
ZBYN,1999-09-24 04:00,ZBYN 240400Z AUTO 24004KT 1 1/2SM 21/15 A2991 RMK T02100150 IEM_DS3505
ZBYN,1999-09-24 05:00,ZBYN 240500Z AUTO 21004KT 2SM 24/15 A2988 RMK T02400150 IEM_DS3505
ZBYN,1999-09-24 06:00,ZBYN 240600Z AUTO 18006KT 4SM 25/13 A2985 RMK SLP100 T02460132 57028 IEM_DS3505
ZBYN,1999-09-24 07:00,ZBYN 240700Z AUTO 22002KT 26/15 A2983 RMK T02600150 IEM_DS3505
ZBYN,1999-09-24 08:00,ZBYN 240800Z AUTO 28004KT 27/12 A2983 RMK T02700120 IEM_DS3505
ZBYN,1999-09-24 09:00,ZBYN 240900Z AUTO 29010KT 9SM 27/01 A2983 RMK SLP090 T02660014 57007 IEM_DS3505
ZBYN,1999-09-24 10:00,ZBYN 241000Z AUTO 30006KT 6SM 24/06 A2985 RMK T02400060 IEM_DS3505
ZBYN,1999-09-24 11:00,ZBYN 241100Z AUTO 29002KT 6SM 21/07 A2988 RMK T02100070 IEM_DS3505
ZBYN,1999-09-24 12:00,ZBYN 241200Z AUTO 32004KT 9SM 18/11 A2991 RMK SLP126 T01850109 52023 IEM_DS3505
ZBYN,1999-09-24 13:00,ZBYN 241300Z AUTO 29002KT 4SM 17/12 A2994 RMK T01700120 IEM_DS3505
ZBYN,1999-09-24 14:00,ZBYN 241400Z AUTO 11004KT 4SM A2997 RMK IEM_DS3505
ZBYN,1999-09-24 15:00,ZBYN 241500Z AUTO 09004KT 9SM 14/11 A2997 RMK SLP140 T01440112 52017 IEM_DS3505
ZBYN,1999-09-24 16:00,ZBYN 241600Z AUTO 08004KT 4SM 15/14 A2997 RMK T01500140 IEM_DS3505
ZBYN,1999-09-24 17:00,ZBYN 241700Z AUTO 00000KT 1 1/4SM 13/13 A2997 RMK T01300130 IEM_DS3505
ZBYN,1999-09-24 18:00,ZBYN 241800Z AUTO 34004KT 4SM 12/11 A2997 RMK SLP138 T01230114 52003 IEM_DS3505
ZBYN,1999-09-24 19:00,ZBYN 241900Z AUTO 11002KT 4SM 10/10 A2994 RMK T01000100 IEM_DS3505
ZBYN,1999-09-24 20:00,ZBYN 242000Z AUTO 00000KT 3SM 10/10 A2994 RMK T01000100 IEM_DS3505
ZBYN,1999-09-24 21:00,ZBYN 242100Z AUTO 34002KT 4SM 12/06 A2997 RMK SLP136 T01200061 52001 IEM_DS3505
ZBYN,1999-09-24 22:00,ZBYN 242200Z AUTO 00000KT 2SM 08/08 A2997 RMK T00800080 IEM_DS3505
ZBYN,1999-09-24 23:00,ZBYN 242300Z AUTO 00000KT 1SM 09/09 A3000 RMK T00900090 IEM_DS3505
ZBYN,1999-09-25 00:00,ZBYN 250000Z AUTO 00000KT 5SM 14/08 A3003 RMK SLP167 T01360076 52019 IEM_DS3505
ZBYN,1999-09-25 01:00,ZBYN 250100Z AUTO 35002KT 2 1/2SM 15/13 A3003 RMK T01500130 IEM_DS3505
ZBYN,1999-09-25 02:00,ZBYN 250200Z AUTO 08008KT 3SM 19/14 A3003 RMK T01900140 IEM_DS3505
ZBYN,1999-09-25 03:00,ZBYN 250300Z AUTO 29002KT 5SM 21/08 A3000 RMK SLP158 T02070084 57004 IEM_DS3505
ZBYN,1999-09-25 04:00,ZBYN 250400Z AUTO 02002KT 5SM 24/12 A2997 RMK T02400120 IEM_DS3505
ZBYN,1999-09-25 06:00,ZBYN 250600Z AUTO 22002KT 6SM 28/11 RMK SLP108 T02750109 57039 IEM_DS3505
ZBYN,1999-09-25 07:00,ZBYN 250700Z AUTO 10004KT 6SM 27/11 A2988 RMK T02700110 IEM_DS3505
ZBYN,1999-09-25 08:00,ZBYN 250800Z AUTO 11008KT 6SM 29/13 A2985 RMK T02900130 IEM_DS3505
ZBYN,1999-09-25 09:00,ZBYN 250900Z AUTO 09006KT 6SM 26/12 A2985 RMK SLP091 T02610125 57018 IEM_DS3505
ZBYN,1999-09-25 10:00,ZBYN 251000Z AUTO 08012KT 23/12 A2985 RMK T02300120 IEM_DS3505
ZBYN,1999-09-25 11:00,ZBYN 251100Z AUTO 08014KT 6SM 21/15 A2985 RMK T02100150 IEM_DS3505
ZBYN,1999-09-25 12:00,ZBYN 251200Z AUTO 29002KT 6SM 20/12 A2988 RMK SLP114 T02010122 52015 IEM_DS3505
ZBYN,1999-09-25 13:00,ZBYN 251300Z AUTO 09012KT 6SM 19/13 A2991 RMK T01900130 IEM_DS3505
ZBYN,1999-09-25 14:00,ZBYN 251400Z AUTO 09012KT 6SM 18/12 A2991 RMK T01800120 IEM_DS3505
ZBYN,1999-09-25 15:00,ZBYN 251500Z AUTO 09010KT 6SM 18/10 A2994 RMK SLP130 T01800105 52022 IEM_DS3505
ZBYN,1999-09-25 16:00,ZBYN 251600Z AUTO 07006KT 6SM 18/12 A2997 RMK T01800120 IEM_DS3505
ZBYN,1999-09-25 17:00,ZBYN 251700Z AUTO 09004KT 6SM 17/13 A2997 RMK T01700130 IEM_DS3505
ZBYN,1999-09-25 18:00,ZBYN 251800Z AUTO 00000KT 6SM 16/13 A2997 RMK SLP123 T01560126 57001 IEM_DS3505
ZBYN,1999-09-25 19:00,ZBYN 251900Z AUTO 12002KT 6SM 16/14 A2994 RMK T01600140 IEM_DS3505
ZBYN,1999-09-25 20:00,ZBYN 252000Z AUTO 09002KT 6SM 17/14 A2994 RMK T01700140 IEM_DS3505
ZBYN,1999-09-25 21:00,ZBYN 252100Z AUTO 34004KT 6SM 16/12 A2997 RMK SLP123 T01600118 57001 IEM_DS3505
ZBYN,1999-09-25 22:00,ZBYN 252200Z AUTO 00000KT 5SM 16/14 A2997 RMK T01600140 IEM_DS3505
ZBYN,1999-09-25 23:00,ZBYN 252300Z AUTO 00000KT 3SM 14/13 A2997 RMK T01400130 IEM_DS3505
ZBYN,1999-09-26 00:00,ZBYN 260000Z AUTO 00000KT 2SM 16/13 A2997 RMK SLP140 T01580127 52007 IEM_DS3505
ZBYN,1999-09-26 01:00,ZBYN 260100Z AUTO 00000KT 4SM 18/14 A2997 RMK T01800140 IEM_DS3505
ZBYN,1999-09-26 02:00,ZBYN 260200Z AUTO 14002KT 20/14 A2997 RMK T02000140 IEM_DS3505
ZBYN,1999-09-26 03:00,ZBYN 260300Z AUTO 00000KT 3SM 19/14 A2997 RMK SLP138 T01920138 54000 IEM_DS3505
ZBYN,1999-09-26 04:00,ZBYN 260400Z AUTO 34002KT 21/15 A2994 RMK T02100150 IEM_DS3505
ZBYN,1999-09-26 05:00,ZBYN 260500Z AUTO 31004KT 2 1/2SM 21/15 A2997 RMK T02100150 IEM_DS3505
ZBYN,1999-09-26 06:00,ZBYN 260600Z AUTO 00000KT 4SM 21/14 A2991 RMK SLP126 T02120139 57012 IEM_DS3505
ZBYN,1999-09-26 07:00,ZBYN 260700Z AUTO 00000KT 22/15 A2991 RMK T02200150 IEM_DS3505
ZBYN,1999-09-26 08:00,ZBYN 260800Z AUTO 34002KT 1 1/4SM 22/16 A2994 RMK T02200160 IEM_DS3505
ZBYN,1999-09-26 09:00,ZBYN 260900Z AUTO 34004KT 4SM 21/13 A2994 RMK SLP125 T02060132 57001 IEM_DS3505
ZBYN,1999-09-26 10:00,ZBYN 261000Z AUTO 03004KT 2 1/2SM 20/15 A2991 RMK T02000150 IEM_DS3505
ZBYN,1999-09-26 11:00,ZBYN 261100Z AUTO 32008KT 3SM 19/14 A2994 RMK T01900140 IEM_DS3505
ZBYN,1999-09-26 12:00,ZBYN 261200Z AUTO 32004KT 4SM 18/13 A2997 RMK SLP153 T01760133 52021 IEM_DS3505
ZBYN,1999-09-26 13:00,ZBYN 261300Z AUTO 33004KT 4SM 18/15 A3000 RMK T01800150 IEM_DS3505
ZBYN,1999-09-26 14:00,ZBYN 261400Z AUTO 34004KT 4SM 17/15 A3000 RMK T01700150 IEM_DS3505
ZBYN,1999-09-26 15:00,ZBYN 261500Z AUTO 32006KT 3SM 16/14 A3003 RMK SLP161 T01650140 52011 IEM_DS3505
ZBYN,1999-09-26 16:00,ZBYN 261600Z AUTO 34008KT 3SM 17/16 A3003 RMK T01700160 IEM_DS3505
ZBYN,1999-09-26 17:00,ZBYN 261700Z AUTO 34006KT 3SM 17/15 A3000 RMK T01700150 IEM_DS3505
ZBYN,1999-09-26 18:00,ZBYN 261800Z AUTO 29004KT 3SM 16/14 A3000 RMK SLP157 T01640140 57001 IEM_DS3505
ZBYN,1999-09-26 19:00,ZBYN 261900Z AUTO 31002KT 3SM 17/16 A3003 RMK T01700160 IEM_DS3505
ZBYN,1999-09-26 20:00,ZBYN 262000Z AUTO 33004KT 3SM 16/15 A3000 RMK T01600150 IEM_DS3505
ZBYN,1999-09-26 21:00,ZBYN 262100Z AUTO 32002KT 4SM 16/14 A3000 RMK SLP150 T01610141 57008 IEM_DS3505
ZBYN,1999-09-26 22:00,ZBYN 262200Z AUTO 34002KT 2 1/2SM 17/15 A3000 RMK T01700150 IEM_DS3505
ZBYN,1999-09-26 23:00,ZBYN 262300Z AUTO 00000KT 2SM 17/15 A3003 RMK T01700150 IEM_DS3505
ZBYN,1999-09-27 00:00,ZBYN 270000Z AUTO 34006KT 2 1/2SM 17/14 A3003 RMK SLP166 T01680137 52011 IEM_DS3505
ZBYN,1999-09-27 01:00,ZBYN 270100Z AUTO 33004KT 1SM 17/16 A3006 RMK T01700160 IEM_DS3505
ZBYN,1999-09-27 02:00,ZBYN 270200Z AUTO 01002KT 1SM 18/16 A3006 RMK T01800160 IEM_DS3505
ZBYN,1999-09-27 03:00,ZBYN 270300Z AUTO 36002KT 2 1/2SM 19/15 A3006 RMK SLP174 T01890148 52009 IEM_DS3505
ZBYN,1999-09-27 04:00,ZBYN 270400Z AUTO 07008KT 2SM 20/14 A3006 RMK T02000140 IEM_DS3505
ZBYN,1999-09-27 05:00,ZBYN 270500Z AUTO 07008KT 2SM 19/14 A3000 RMK T01900140 IEM_DS3505
ZBYN,1999-09-27 06:00,ZBYN 270600Z AUTO 27006KT 2 1/2SM 19/14 A3000 RMK SLP160 T01940139 57012 IEM_DS3505
ZBYN,1999-09-27 08:00,ZBYN 270800Z AUTO 35004KT 1 1/4SM 18/16 A2997 RMK T01800160 IEM_DS3505
ZBYN,1999-09-27 09:00,ZBYN 270900Z AUTO 32002KT 2SM 17/14 A3000 RMK SLP159 T01740144 57004 IEM_DS3505
ZBYN,1999-09-27 10:00,ZBYN 271000Z AUTO 10002KT 2SM 17/16 A3003 RMK T01700160 IEM_DS3505
ZBYN,1999-09-27 12:00,ZBYN 271200Z AUTO 34004KT 2SM 15/14 A3009 RMK SLP186 T01520138 52022 IEM_DS3505
ZBYN,1999-09-27 13:00,ZBYN 271300Z AUTO 36002KT 1 1/4SM 16/16 A3009 RMK T01600160 IEM_DS3505
ZBYN,1999-09-27 15:00,ZBYN 271500Z AUTO 00000KT 1 1/4SM 15/14 A3012 RMK SLP192 T01460136 52008 IEM_DS3505
ZBYN,1999-09-27 16:00,ZBYN 271600Z AUTO 34002KT 2SM 15/15 A3012 RMK T01500150 IEM_DS3505
ZBYN,1999-09-27 17:00,ZBYN 271700Z AUTO 35002KT 1 1/2SM 15/15 A3012 RMK T01500150 IEM_DS3505
ZBYN,1999-09-27 18:00,ZBYN 271800Z AUTO 00000KT 1 1/4SM 15/14 A3012 RMK SLP193 T01490139 52002 IEM_DS3505
ZBYN,1999-09-27 19:00,ZBYN 271900Z AUTO 00000KT 1 1/2SM 15/15 A3012 RMK T01500150 IEM_DS3505
ZBYN,1999-09-27 20:00,ZBYN 272000Z AUTO 00000KT 2SM 15/15 A3012 RMK T01500150 IEM_DS3505
ZBYN,1999-09-27 21:00,ZBYN 272100Z AUTO 00000KT 2 1/2SM 15/14 A3012 RMK 70019 SLP195 T01500140 57001 IEM_DS3505
ZBYN,1999-09-27 23:00,ZBYN 272300Z AUTO 00000KT 1/2SM 15/15 A3012 RMK T01500150 IEM_DS3505
ZBYN,1999-09-28 00:00,ZBYN 280000Z AUTO 18002KT 2SM 15/14 A3015 RMK SLP209 T01480138 52009 IEM_DS3505
ZBYN,1999-09-28 01:00,ZBYN 280100Z AUTO 00000KT 1SM 16/16 A3015 RMK T01600160 IEM_DS3505
ZBYN,1999-09-28 02:00,ZBYN 280200Z AUTO 00000KT 1SM 17/17 A3015 RMK T01700170 IEM_DS3505
ZBYN,1999-09-28 03:00,ZBYN 280300Z AUTO 18004KT 2 1/2SM 19/14 A3015 RMK SLP201 T01920144 57002 IEM_DS3505
ZBYN,1999-09-28 04:00,ZBYN 280400Z AUTO 2SM 20/17 A3012 RMK T02000170 IEM_DS3505
ZBYN,1999-09-28 05:00,ZBYN 280500Z AUTO 19002KT 1 1/4SM 21/17 A3009 RMK T02100170 IEM_DS3505
ZBYN,1999-09-28 06:00,ZBYN 280600Z AUTO 18004KT 4SM 22/15 A3006 RMK SLP171 T02210150 57022 IEM_DS3505
ZBYN,1999-09-28 07:00,ZBYN 280700Z AUTO 20004KT 2SM 22/18 A3006 RMK T02200180 IEM_DS3505
ZBYN,1999-09-28 08:00,ZBYN 280800Z AUTO 23002KT 2SM 23/18 A3006 RMK T02300180 IEM_DS3505
ZBYN,1999-09-28 09:00,ZBYN 280900Z AUTO 00000KT 5SM 22/16 A3006 RMK SLP175 T02200165 52003 IEM_DS3505
ZBYN,1999-09-28 10:00,ZBYN 281000Z AUTO 00000KT 2SM 21/19 A3009 RMK T02100190 IEM_DS3505
ZBYN,1999-09-28 11:00,ZBYN 281100Z AUTO 33012KT 6SM 21/16 A3012 RMK T02100160 IEM_DS3505
ZBYN,1999-09-28 12:00,ZBYN 281200Z AUTO 32008KT 6SM 19/08 A3015 RMK SLP202 T01940080 52021 IEM_DS3505
ZBYN,1999-09-28 13:00,ZBYN 281300Z AUTO 35004KT 6SM 19/12 A3018 RMK T01900120 IEM_DS3505
ZBYN,1999-09-28 14:00,ZBYN 281400Z AUTO 00000KT 6SM 18/13 A3015 RMK T01800130 IEM_DS3505
ZBYN,1999-09-28 15:00,ZBYN 281500Z AUTO 14002KT 6SM 16/10 A3018 RMK SLP203 T01640104 52003 IEM_DS3505
ZBYN,1999-09-28 18:00,ZBYN 281800Z AUTO 34004KT 6SM 15/10 A3015 RMK SLP196 T01520101 57004 IEM_DS3505
ZBYN,1999-09-28 20:00,ZBYN 282000Z AUTO 33002KT 6SM 13/12 A3015 RMK T01300120 IEM_DS3505
ZBYN,1999-09-28 21:00,ZBYN 282100Z AUTO 02004KT 6SM 15/08 A3015 RMK T01460085 52004 IEM_DS3505
ZBYN,1999-09-28 22:00,ZBYN 282200Z AUTO 11002KT 6SM 09/09 A3018 RMK T00900090 IEM_DS3505
ZBYN,1999-09-28 23:00,ZBYN 282300Z AUTO 12002KT 6SM 09/09 A3021 RMK T00900090 IEM_DS3505
ZBYN,1999-09-29 00:00,ZBYN 290000Z AUTO 34004KT 7SM 14/09 A3021 RMK SLP222 T01440087 52015 IEM_DS3505
ZBYN,1999-09-29 01:00,ZBYN 290100Z AUTO 05002KT 6SM 16/11 A3021 RMK T01600110 IEM_DS3505
ZBYN,1999-09-29 02:00,ZBYN 290200Z AUTO 00000KT 6SM 17/12 A3021 RMK T01700120 IEM_DS3505
ZBYN,1999-09-29 03:00,ZBYN 290300Z AUTO 00000KT 7SM 19/09 A3021 RMK SLP223 T01910086 52003 IEM_DS3505
ZBYN,1999-09-29 04:00,ZBYN 290400Z AUTO 00000KT 6SM 21/10 A3018 RMK T02100100 IEM_DS3505
ZBYN,1999-09-29 05:00,ZBYN 290500Z AUTO 30002KT 6SM 22/09 A3015 RMK T02200090 IEM_DS3505
ZBYN,1999-09-29 07:00,ZBYN 290700Z AUTO 35004KT 6SM 21/09 A3012 RMK T02100090 IEM_DS3505
ZBYN,1999-09-29 09:00,ZBYN 290900Z AUTO 00000KT 6SM 19/11 RMK SLP200 T01940113 57011 IEM_DS3505
ZBYN,1999-09-29 10:00,ZBYN 291000Z AUTO 19002KT 6SM 19/13 A3012 RMK T01900130 IEM_DS3505
ZBYN,1999-09-29 11:00,ZBYN 291100Z AUTO 20004KT 6SM 18/13 A3015 RMK T01800130 IEM_DS3505
ZBYN,1999-09-29 12:00,ZBYN 291200Z AUTO 20010KT 6SM 17/08 A3018 RMK 60003 SLP213 T01690082 52008 IEM_DS3505
ZBYN,1999-09-29 13:00,ZBYN 291300Z AUTO 00000KT 6SM 15/13 A3018 RMK T01500130 IEM_DS3505
ZBYN,1999-09-29 14:00,ZBYN 291400Z AUTO 14002KT 7SM 15/12 A3018 RMK T01500120 IEM_DS3505
ZBYN,1999-09-29 15:00,ZBYN 291500Z AUTO 14002KT 6SM 15/10 A3018 RMK SLP209 T01470101 54000 IEM_DS3505
ZBYN,1999-09-29 17:00,ZBYN 291700Z AUTO 00000KT 6SM 15/13 A3015 RMK T01500130 IEM_DS3505
ZBYN,1999-09-29 18:00,ZBYN 291800Z AUTO 00000KT 6SM 13/11 RMK 60003 SLP205 T01280106 57003 IEM_DS3505
ZBYN,1999-09-29 21:00,ZBYN 292100Z AUTO 34002KT 6SM 14/10 A3012 RMK 70003 SLP197 T01360095 57009 IEM_DS3505
ZBYN,1999-09-30 00:00,ZBYN 300000Z AUTO 34004KT 4SM 14/10 RMK SLP204 T01400097 52003 IEM_DS3505
ZBYN,1999-09-30 01:00,ZBYN 300100Z AUTO 06002KT 2 1/2SM 16/12 A3015 RMK T01600120 IEM_DS3505
ZBYN,1999-09-30 02:00,ZBYN 300200Z AUTO 07004KT 4SM 17/12 A3015 RMK T01700120 IEM_DS3505
ZBYN,1999-09-30 03:00,ZBYN 300300Z AUTO 32002KT 4SM 16/11 RMK SLP201 T01600108 57003 IEM_DS3505
ZBYN,1999-09-30 04:00,ZBYN 300400Z AUTO 07008KT 7SM 18/13 A3006 RMK T01800130 IEM_DS3505
ZBYN,1999-09-30 05:00,ZBYN 300500Z AUTO 07004KT 7SM 17/13 A3003 RMK T01700130 IEM_DS3505
ZBYN,1999-09-30 06:00,ZBYN 300600Z AUTO 00000KT 2 1/2SM 16/13 A2997 RMK 60003 SLP165 T01580127 57036 IEM_DS3505
ZBYN,1999-09-30 07:00,ZBYN 300700Z AUTO 10004KT 7SM 15/15 A2994 RMK T01500150 IEM_DS3505
ZBYN,1999-09-30 08:00,ZBYN 300800Z AUTO 07002KT 7SM 14/14 A2991 RMK T01400140 IEM_DS3505
ZBYN,1999-09-30 09:00,ZBYN 300900Z AUTO 32008KT 2 1/2SM 14/13 A2994 RMK SLP151 T01410132 57014 IEM_DS3505
ZBYN,1999-09-30 10:00,ZBYN 301000Z AUTO 13004KT 1 1/4SM 13/13 A2997 RMK T01300130 IEM_DS3505
ZBYN,1999-09-30 11:00,ZBYN 301100Z AUTO 13008KT 5SM 12/12 A2997 RMK T01200120 IEM_DS3505
ZBYN,1999-09-30 12:00,ZBYN 301200Z AUTO 36006KT 3SM 12/09 A3000 RMK 60091 SLP165 T01240092 52011 IEM_DS3505
ZBYN,1999-09-30 13:00,ZBYN 301300Z AUTO 00000KT 7SM 12/12 A3000 RMK T01200120 IEM_DS3505
ZBYN,1999-09-30 14:00,ZBYN 301400Z AUTO 36002KT 7SM 11/11 A3003 RMK T01100110 IEM_DS3505
ZBYN,1999-09-30 15:00,ZBYN 301500Z AUTO 36004KT 7SM 11/11 A3003 RMK T01100110 IEM_DS3505
ZBYN,1999-09-30 16:00,ZBYN 301600Z AUTO 32002KT 7SM 11/11 A3003 RMK T01100110 IEM_DS3505
ZBYN,1999-09-30 17:00,ZBYN 301700Z AUTO 31002KT 7SM 11/11 A3000 RMK T01100110 IEM_DS3505
ZBYN,1999-09-30 18:00,ZBYN 301800Z AUTO 29002KT 6SM 12/11 A3003 RMK 60020 SLP168 T01190106 57004 IEM_DS3505
ZBYN,1999-09-30 19:00,ZBYN 301900Z AUTO 00000KT 7SM 12/12 A3003 RMK T01200120 IEM_DS3505
ZBYN,1999-09-30 20:00,ZBYN 302000Z AUTO 17002KT 7SM 11/11 A3000 RMK T01100110 IEM_DS3505
ZBYN,1999-09-30 21:00,ZBYN 302100Z AUTO 02008KT 6SM 12/09 A3003 RMK 70114 SLP181 T01170088 52009 IEM_DS3505
ZBYN,1999-09-30 22:00,ZBYN 302200Z AUTO 06002KT 7SM 10/10 A3006 RMK T01000100 IEM_DS3505
ZBYN,1999-09-30 23:00,ZBYN 302300Z AUTO 26002KT 7SM 10/10 A3006 RMK T01000100 IEM_DS3505
ZBYN,1999-10-01 00:00,ZBYN 010000Z AUTO 00000KT 6SM 12/10 A3009 RMK SLP206 T01220096 52021 IEM_DS3505
ZBYN,1999-10-01 01:00,ZBYN 010100Z AUTO 00000KT 6SM 12/12 A3012 RMK T01200120 IEM_DS3505
ZBYN,1999-10-01 02:00,ZBYN 010200Z AUTO 00000KT 6SM 13/13 A3015 RMK T01300130 IEM_DS3505
ZBYN,1999-10-01 03:00,ZBYN 010300Z AUTO 32002KT 6SM 14/11 A3012 RMK SLP212 T01440111 52008 IEM_DS3505
ZBYN,1999-10-01 04:00,ZBYN 010400Z AUTO 00000KT 6SM 15/13 A3012 RMK T01500130 IEM_DS3505
ZBYN,1999-10-01 05:00,ZBYN 010500Z AUTO 12002KT 6SM 16/14 A3012 RMK T01600140 IEM_DS3505
ZBYN,1999-10-01 06:00,ZBYN 010600Z AUTO 02004KT 12SM 17/06 A3012 RMK SLP202 T01690063 57005 IEM_DS3505
ZBYN,1999-10-01 07:00,ZBYN 010700Z AUTO 03006KT 6SM 17/11 A3012 RMK T01700110 IEM_DS3505
ZBYN,1999-10-01 08:00,ZBYN 010800Z AUTO 34004KT 6SM 17/10 A3012 RMK T01700100 IEM_DS3505
ZBYN,1999-10-01 09:00,ZBYN 010900Z AUTO 00000KT 9SM 17/08 A3015 RMK SLP211 T01660076 52007 IEM_DS3505
ZBYN,1999-10-01 10:00,ZBYN 011000Z AUTO 33002KT 6SM 16/11 A3015 RMK T01600110 IEM_DS3505
ZBYN,1999-10-01 11:00,ZBYN 011100Z AUTO 34004KT 6SM 16/10 A3018 RMK T01600100 IEM_DS3505
ZBYN,1999-10-01 12:00,ZBYN 011200Z AUTO 34004KT 6SM 14/06 A3021 RMK SLP236 T01450061 52021 IEM_DS3505
ZBYN,1999-10-01 13:00,ZBYN 011300Z AUTO 34006KT 6SM 14/08 A3021 RMK T01400080 IEM_DS3505
ZBYN,1999-10-01 15:00,ZBYN 011500Z AUTO 36012KT 6SM 13/01 A3024 RMK SLP251 T01290012 52014 IEM_DS3505
ZBYN,1999-10-01 16:00,ZBYN 011600Z AUTO 31010KT 6SM 12/05 A3027 RMK T01200050 IEM_DS3505
ZBYN,1999-10-01 17:00,ZBYN 011700Z AUTO 33016KT 6SM 11/02 A3027 RMK T01100020 IEM_DS3505
ZBYN,1999-10-01 18:00,ZBYN 011800Z AUTO 36016KT 6SM 10/M08 RMK SLP266 T01041079 52014 IEM_DS3505
ZBYN,1999-10-01 19:00,ZBYN 011900Z AUTO 34012KT 6SM 10/M05 A3030 RMK T01001050 IEM_DS3505
ZBYN,1999-10-01 20:00,ZBYN 012000Z AUTO 34008KT 6SM 09/M06 A3033 RMK T00901060 IEM_DS3505
ZBYN,1999-10-01 21:00,ZBYN 012100Z AUTO 34012KT 6SM 08/M11 A3033 RMK SLP284 T00781112 52012 IEM_DS3505
ZBYN,1999-10-01 22:00,ZBYN 012200Z AUTO 35012KT 6SM 07/M07 A3036 RMK T00701070 IEM_DS3505
ZBYN,1999-10-01 23:00,ZBYN 012300Z AUTO 34014KT 6SM 07/M07 A3039 RMK T00701070 IEM_DS3505
ZBYN,1999-10-02 00:00,ZBYN 020000Z AUTO 02010KT 17SM 07/M09 A3039 RMK SLP310 T00721092 52020 IEM_DS3505
ZBYN,1999-10-02 01:00,ZBYN 020100Z AUTO 34014KT 6SM 08/M05 A3039 RMK T00801050 IEM_DS3505
ZBYN,1999-10-02 02:00,ZBYN 020200Z AUTO 35014KT 6SM 10/M04 A3042 RMK T01001040 IEM_DS3505
ZBYN,1999-10-02 03:00,ZBYN 020300Z AUTO 04004KT 17SM 11/M07 A3039 RMK SLP307 T01061071 54000 IEM_DS3505
ZBYN,1999-10-02 04:00,ZBYN 020400Z AUTO 34014KT 6SM 12/M02 A3039 RMK T01201020 IEM_DS3505
ZBYN,1999-10-02 05:00,ZBYN 020500Z AUTO 36014KT 6SM 13/M04 A3033 RMK T01301040 IEM_DS3505
ZBYN,1999-10-02 06:00,ZBYN 020600Z AUTO 36008KT 16SM 14/M08 A3033 RMK SLP282 T01391076 57022 IEM_DS3505
ZBYN,1999-10-02 07:00,ZBYN 020700Z AUTO 34010KT 6SM 14/M06 A3030 RMK T01401060 IEM_DS3505
ZBYN,1999-10-02 08:00,ZBYN 020800Z AUTO 33010KT 6SM 15/M04 A3033 RMK T01501040 IEM_DS3505
ZBYN,1999-10-02 09:00,ZBYN 020900Z AUTO 36004KT 16SM 14/M06 A3030 RMK SLP277 T01391056 57008 IEM_DS3505
ZBYN,1999-10-02 10:00,ZBYN 021000Z AUTO 34008KT 6SM 13/M02 A3030 RMK T01301020 IEM_DS3505
ZBYN,1999-10-02 11:00,ZBYN 021100Z AUTO 34006KT 6SM 11/M01 A3033 RMK T01101010 IEM_DS3505
ZBYN,1999-10-02 12:00,ZBYN 021200Z AUTO 34008KT 12SM 11/M04 A3033 RMK SLP292 T01121041 52008 IEM_DS3505
ZBYN,1999-10-02 13:00,ZBYN 021300Z AUTO 29002KT 6SM 08/01 A3036 RMK T00800010 IEM_DS3505
ZBYN,1999-10-02 14:00,ZBYN 021400Z AUTO 30002KT 6SM 07/00 A3039 RMK T00700000 IEM_DS3505
ZBYN,1999-10-02 15:00,ZBYN 021500Z AUTO 32006KT 9SM 08/M02 A3039 RMK SLP312 T00821024 52019 IEM_DS3505
ZBYN,1999-10-02 16:00,ZBYN 021600Z AUTO 00000KT 6SM 05/02 A3039 RMK T00500020 IEM_DS3505
ZBYN,1999-10-02 17:00,ZBYN 021700Z AUTO 35004KT 6SM 05/01 A3039 RMK T00500010 IEM_DS3505
ZBYN,1999-10-02 18:00,ZBYN 021800Z AUTO 36006KT 6SM 05/M00 A3039 RMK SLP310 T00491002 57002 IEM_DS3505
ZBYN,1999-10-02 19:00,ZBYN 021900Z AUTO 34002KT 6SM 05/01 A3039 RMK T00500010 IEM_DS3505
ZBYN,1999-10-02 20:00,ZBYN 022000Z AUTO 00000KT 6SM 02/02 A3039 RMK T00200020 IEM_DS3505
ZBYN,1999-10-02 21:00,ZBYN 022100Z AUTO 00000KT 9SM 04/M01 A3039 RMK SLP313 T00391014 52001 IEM_DS3505
ZBYN,1999-10-02 22:00,ZBYN 022200Z AUTO 00000KT 6SM 02/02 A3039 RMK T00200020 IEM_DS3505
ZBYN,1999-10-02 23:00,ZBYN 022300Z AUTO 10002KT 6SM 01/01 A3042 RMK T00100010 IEM_DS3505
ZBYN,1999-10-03 00:00,ZBYN 030000Z AUTO 34004KT 12SM 06/M02 A3042 RMK SLP322 T00551019 52007 IEM_DS3505
ZBYN,1999-10-03 01:00,ZBYN 030100Z AUTO 34004KT 6SM 08/01 A3042 RMK T00800010 IEM_DS3505
ZBYN,1999-10-03 02:00,ZBYN 030200Z AUTO 00000KT 6SM 10/01 A3042 RMK T01000010 IEM_DS3505
ZBYN,1999-10-03 03:00,ZBYN 030300Z AUTO 36004KT 9SM 13/M02 A3039 RMK SLP313 T01281024 57002 IEM_DS3505
ZBYN,1999-10-03 04:00,ZBYN 030400Z AUTO 00000KT 6SM 13/03 A3039 RMK T01300030 IEM_DS3505
ZBYN,1999-10-03 05:00,ZBYN 030500Z AUTO 00000KT 6SM 14/02 A3036 RMK T01400020 IEM_DS3505
ZBYN,1999-10-03 06:00,ZBYN 030600Z AUTO 18004KT 9SM 14/M02 A3033 RMK SLP286 T01441018 57027 IEM_DS3505
ZBYN,1999-10-03 07:00,ZBYN 030700Z AUTO 16002KT 6SM 14/02 A3030 RMK T01400020 IEM_DS3505
ZBYN,1999-10-03 08:00,ZBYN 030800Z AUTO 22002KT 6SM 14/03 A3030 RMK T01400030 IEM_DS3505
ZBYN,1999-10-03 09:00,ZBYN 030900Z AUTO 20006KT 9SM 14/01 A3027 RMK SLP275 T01360007 57013 IEM_DS3505
ZBYN,1999-10-03 10:00,ZBYN 031000Z AUTO 22002KT 6SM 13/05 A3030 RMK T01300050 IEM_DS3505
ZBYN,1999-10-03 11:00,ZBYN 031100Z AUTO 00000KT 6SM 10/06 A3030 RMK T01000060 IEM_DS3505
ZBYN,1999-10-03 12:00,ZBYN 031200Z AUTO 11004KT 7SM 08/03 A3030 RMK SLP284 T00850034 52003 IEM_DS3505
ZBYN,1999-10-03 13:00,ZBYN 031300Z AUTO 00000KT 6SM 06/06 A3030 RMK T00600060 IEM_DS3505
ZBYN,1999-10-03 14:00,ZBYN 031400Z AUTO 12004KT 6SM 05/05 A3030 RMK T00500050 IEM_DS3505
ZBYN,1999-10-03 15:00,ZBYN 031500Z AUTO 00000KT 6SM 06/04 A3030 RMK SLP278 T00570041 52002 IEM_DS3505
ZBYN,1999-10-03 16:00,ZBYN 031600Z AUTO 13002KT 6SM 05/05 A3027 RMK T00500050 IEM_DS3505
ZBYN,1999-10-03 17:00,ZBYN 031700Z AUTO 12002KT 6SM 05/05 A3027 RMK T00500050 IEM_DS3505
ZBYN,1999-10-03 18:00,ZBYN 031800Z AUTO 00000KT 6SM 05/04 A3027 RMK SLP269 T00480039 57007 IEM_DS3505
ZBYN,1999-10-03 19:00,ZBYN 031900Z AUTO 13004KT 4SM 05/05 A3027 RMK T00500050 IEM_DS3505
ZBYN,1999-10-03 21:00,ZBYN 032100Z AUTO 00000KT 4SM 05/04 A3027 RMK SLP262 T00510042 57008 IEM_DS3505
ZBYN,1999-10-03 22:00,ZBYN 032200Z AUTO 00000KT 3SM 06/06 A3027 RMK T00600060 IEM_DS3505
ZBYN,1999-10-03 23:00,ZBYN 032300Z AUTO 00000KT 2SM 06/06 A3024 RMK T00600060 IEM_DS3505
ZBYN,1999-10-04 00:00,ZBYN 040000Z AUTO 00000KT 1 1/4SM 06/05 A3024 RMK SLP266 T00640053 57002 IEM_DS3505
ZBYN,1999-10-04 03:00,ZBYN 040300Z AUTO 00000KT 3SM 10/08 A3024 RMK SLP269 T01000080 52003 IEM_DS3505
ZBYN,1999-10-04 04:00,ZBYN 040400Z AUTO 32002KT 1 1/4SM 10/08 A3024 RMK T01000080 IEM_DS3505
ZBYN,1999-10-04 05:00,ZBYN 040500Z AUTO 18002KT 1 1/4SM 10/08 A3021 RMK T01000080 IEM_DS3505
ZBYN,1999-10-04 06:00,ZBYN 040600Z AUTO 18002KT 3SM 11/05 A3021 RMK SLP255 T01060049 57012 IEM_DS3505
ZBYN,1999-10-04 07:00,ZBYN 040700Z AUTO 15002KT 1SM 11/09 A3018 RMK T01100090 IEM_DS3505
ZBYN,1999-10-04 08:00,ZBYN 040800Z AUTO 22002KT 1 1/4SM 11/08 A3018 RMK T01100080 IEM_DS3505
ZBYN,1999-10-04 09:00,ZBYN 040900Z AUTO 18002KT 3SM 11/06 A3015 RMK SLP238 T01070059 57015 IEM_DS3505
ZBYN,1999-10-04 10:00,ZBYN 041000Z AUTO 00000KT 1SM 10/08 A3015 RMK T01000080 IEM_DS3505
ZBYN,1999-10-04 11:00,ZBYN 041100Z AUTO 00000KT 2SM 09/08 A3018 RMK T00900080 IEM_DS3505
ZBYN,1999-10-04 12:00,ZBYN 041200Z AUTO 16004KT 2 1/2SM 08/06 A3018 RMK SLP248 T00820059 52007 IEM_DS3505
ZBYN,1999-10-04 13:00,ZBYN 041300Z AUTO 14002KT 1 1/4SM 06/06 A3021 RMK T00600060 IEM_DS3505
ZBYN,1999-10-04 14:00,ZBYN 041400Z AUTO 14002KT 1SM 05/05 A3021 RMK T00500050 IEM_DS3505
ZBYN,1999-10-04 15:00,ZBYN 041500Z AUTO 14006KT 1 1/4SM 06/05 A3021 RMK SLP254 T00570053 52006 IEM_DS3505
ZBYN,1999-10-04 16:00,ZBYN 041600Z AUTO 13002KT 1 1/4SM 06/05 A3021 RMK T00600050 IEM_DS3505
ZBYN,1999-10-04 17:00,ZBYN 041700Z AUTO 00000KT 1 1/4SM 07/07 A3018 RMK T00700070 IEM_DS3505
ZBYN,1999-10-04 18:00,ZBYN 041800Z AUTO 00000KT 1/2SM 07/06 A3021 RMK SLP245 T00660060 57004 IEM_DS3505
ZBYN,1999-10-04 19:00,ZBYN 041900Z AUTO 20002KT 1SM 07/07 A3018 RMK T00700070 IEM_DS3505
ZBYN,1999-10-04 20:00,ZBYN 042000Z AUTO 00000KT 1/2SM 06/06 A3018 RMK T00600060 IEM_DS3505
ZBYN,1999-10-04 21:00,ZBYN 042100Z AUTO 16004KT 1 1/4SM 06/06 A3021 RMK SLP249 T00640060 52003 IEM_DS3505
ZBYN,1999-10-04 22:00,ZBYN 042200Z AUTO 18002KT 1SM 06/06 A3021 RMK T00600060 IEM_DS3505
ZBYN,1999-10-04 23:00,ZBYN 042300Z AUTO 18002KT 1SM 07/07 A3021 RMK T00700070 IEM_DS3505
ZBYN,1999-10-05 00:00,ZBYN 050000Z AUTO 00000KT 2SM 07/06 A3021 RMK SLP260 T00680059 52007 IEM_DS3505
ZBYN,1999-10-05 01:00,ZBYN 050100Z AUTO 03002KT 1SM 08/08 A3021 RMK T00800080 IEM_DS3505
ZBYN,1999-10-05 02:00,ZBYN 050200Z AUTO 13002KT 1SM 08/08 A3021 RMK T00800080 IEM_DS3505
ZBYN,1999-10-05 03:00,ZBYN 050300Z AUTO 00000KT 2 1/2SM 10/06 A3018 RMK SLP253 T00980058 57006 IEM_DS3505
ZBYN,1999-10-05 04:00,ZBYN 050400Z AUTO 00000KT 1SM 10/08 A3018 RMK T01000080 IEM_DS3505
ZBYN,1999-10-05 05:00,ZBYN 050500Z AUTO 20004KT 1 1/2SM 12/09 A3015 RMK T01200090 IEM_DS3505
ZBYN,1999-10-05 06:00,ZBYN 050600Z AUTO 18006KT 3SM 12/07 A3012 RMK SLP223 T01210069 57022 IEM_DS3505
ZBYN,1999-10-05 07:00,ZBYN 050700Z AUTO 16004KT 1 1/4SM 13/10 A3012 RMK T01300100 IEM_DS3505
ZBYN,1999-10-05 08:00,ZBYN 050800Z AUTO 16002KT 1 1/2SM 13/09 A3009 RMK T01300090 IEM_DS3505
ZBYN,1999-10-05 09:00,ZBYN 050900Z AUTO 16004KT 4SM 13/08 A3009 RMK SLP209 T01310076 57012 IEM_DS3505
ZBYN,1999-10-05 10:00,ZBYN 051000Z AUTO 17002KT 2SM 12/10 A3009 RMK T01200100 IEM_DS3505
ZBYN,1999-10-05 11:00,ZBYN 051100Z AUTO 00000KT 2SM 11/10 A3009 RMK T01100100 IEM_DS3505
ZBYN,1999-10-05 12:00,ZBYN 051200Z AUTO 14004KT 5SM 10/07 A3012 RMK SLP217 T00980074 52003 IEM_DS3505
ZBYN,1999-10-05 13:00,ZBYN 051300Z AUTO 11002KT 1 1/2SM 08/08 A3012 RMK T00800080 IEM_DS3505
ZBYN,1999-10-05 14:00,ZBYN 051400Z AUTO 12004KT 2SM 08/08 A3012 RMK T00800080 IEM_DS3505
ZBYN,1999-10-05 15:00,ZBYN 051500Z AUTO 32004KT 2 1/2SM 09/08 A3015 RMK SLP223 T00900078 52009 IEM_DS3505
ZBYN,1999-10-05 18:00,ZBYN 051800Z AUTO 00000KT 3SM 08/07 RMK 60003 SLP211 T00840072 57008 IEM_DS3505
ZBYN,1999-10-05 20:00,ZBYN 052000Z AUTO 00000KT 2SM 08/08 A3009 RMK T00800080 IEM_DS3505
ZBYN,1999-10-05 21:00,ZBYN 052100Z AUTO 14002KT 2SM 08/07 A3009 RMK 70003 SLP207 T00800072 57003 IEM_DS3505
ZBYN,1999-10-05 22:00,ZBYN 052200Z AUTO 19004KT 2SM 08/08 A3012 RMK T00800080 IEM_DS3505
ZBYN,1999-10-05 23:00,ZBYN 052300Z AUTO 18002KT 1/2SM 08/08 A3012 RMK T00800080 IEM_DS3505
ZBYN,1999-10-06 00:00,ZBYN 060000Z AUTO 09004KT 1/4SM 08/07 A3015 RMK SLP232 T00760072 52017 IEM_DS3505
ZBYN,1999-10-06 01:00,ZBYN 060100Z AUTO 00000KT 1/2SM 08/08 A3018 RMK T00800080 IEM_DS3505
ZBYN,1999-10-06 02:00,ZBYN 060200Z AUTO 00000KT 1SM 08/08 A3018 RMK T00800080 IEM_DS3505
ZBYN,1999-10-06 03:00,ZBYN 060300Z AUTO 14002KT 2 1/2SM 10/07 A3015 RMK SLP233 T00990073 52003 IEM_DS3505
ZBYN,1999-10-06 04:00,ZBYN 060400Z AUTO 08002KT 1SM 12/10 A3012 RMK T01200100 IEM_DS3505
ZBYN,1999-10-06 05:00,ZBYN 060500Z AUTO 11002KT 1 1/4SM 14/11 A3009 RMK T01400110 IEM_DS3505
ZBYN,1999-10-06 06:00,ZBYN 060600Z AUTO 00000KT 5SM 17/09 A3006 RMK SLP194 T01660088 57026 IEM_DS3505
ZBYN,1999-10-06 07:00,ZBYN 060700Z AUTO 23002KT 3SM 18/12 A3003 RMK T01800120 IEM_DS3505
ZBYN,1999-10-06 08:00,ZBYN 060800Z AUTO 19/10 A3003 RMK T01900100 IEM_DS3505
ZBYN,1999-10-06 09:00,ZBYN 060900Z AUTO 00000KT 6SM 18/12 A3003 RMK SLP177 T01770119 57014 IEM_DS3505
ZBYN,1999-10-06 10:00,ZBYN 061000Z AUTO 00000KT 4SM 16/12 A3003 RMK T01600120 IEM_DS3505
ZBYN,1999-10-06 11:00,ZBYN 061100Z AUTO 10002KT 4SM 14/12 A3006 RMK T01400120 IEM_DS3505
ZBYN,1999-10-06 12:00,ZBYN 061200Z AUTO 32002KT 5SM 14/10 A3006 RMK SLP203 T01350100 52016 IEM_DS3505
ZBYN,1999-10-06 13:00,ZBYN 061300Z AUTO 00000KT 4SM 11/11 A3009 RMK T01100110 IEM_DS3505
ZBYN,1999-10-06 14:00,ZBYN 061400Z AUTO 11002KT 4SM 10/10 A3009 RMK T01000100 IEM_DS3505
ZBYN,1999-10-06 15:00,ZBYN 061500Z AUTO 00000KT 5SM 11/09 A3009 RMK SLP213 T01090088 52009 IEM_DS3505
ZBYN,1999-10-06 16:00,ZBYN 061600Z AUTO 12004KT 4SM 08/08 A3009 RMK T00800080 IEM_DS3505
ZBYN,1999-10-06 17:00,ZBYN 061700Z AUTO 00000KT 4SM 08/08 A3009 RMK T00800080 IEM_DS3505
ZBYN,1999-10-06 18:00,ZBYN 061800Z AUTO 00000KT 2SM 08/08 RMK SLP203 T00810075 57003 IEM_DS3505
ZBYN,1999-10-06 21:00,ZBYN 062100Z AUTO 00000KT 1/8SM 05/05 A3012 RMK SLP208 T00520050 52002 IEM_DS3505
ZBYN,1999-10-06 22:00,ZBYN 062200Z AUTO 14004KT 3SM 05/04 A3012 RMK T00500040 IEM_DS3505
ZBYN,1999-10-07 00:00,ZBYN 070000Z AUTO 00000KT 1 1/4SM 07/06 RMK SLP217 T00660062 52004 IEM_DS3505
ZBYN,1999-10-07 02:00,ZBYN 070200Z AUTO 00000KT 4SM 13/10 A3012 RMK T01300100 IEM_DS3505
ZBYN,1999-10-07 03:00,ZBYN 070300Z AUTO 00000KT 3SM 17/05 A3012 RMK SLP203 T01690053 57002 IEM_DS3505
ZBYN,1999-10-07 04:00,ZBYN 070400Z AUTO 22004KT 5SM 18/09 A3009 RMK T01800090 IEM_DS3505
ZBYN,1999-10-07 06:00,ZBYN 070600Z AUTO 14004KT 4SM 21/03 RMK SLP165 T02140030 57032 IEM_DS3505
ZBYN,1999-10-07 09:00,ZBYN 070900Z AUTO 22002KT 4SM 21/06 A2997 RMK SLP152 T02080061 57017 IEM_DS3505
ZBYN,1999-10-07 10:00,ZBYN 071000Z AUTO 00000KT 18/07 A2997 RMK T01800070 IEM_DS3505
ZBYN,1999-10-07 11:00,ZBYN 071100Z AUTO 00000KT 6SM 14/09 A2997 RMK T01400090 IEM_DS3505
ZBYN,1999-10-07 12:00,ZBYN 071200Z AUTO 00000KT 6SM 14/08 A3000 RMK SLP173 T01370075 52011 IEM_DS3505
ZBYN,1999-10-07 13:00,ZBYN 071300Z AUTO 13004KT 6SM 11/08 A3000 RMK T01100080 IEM_DS3505
ZBYN,1999-10-07 15:00,ZBYN 071500Z AUTO 00000KT 6SM 09/07 A3003 RMK SLP176 T00890069 52011 IEM_DS3505
ZBYN,1999-10-07 16:00,ZBYN 071600Z AUTO 00000KT 6SM 08/08 A3003 RMK T00800080 IEM_DS3505
ZBYN,1999-10-07 17:00,ZBYN 071700Z AUTO 12002KT 6SM 07/07 A3006 RMK T00700070 IEM_DS3505
ZBYN,1999-10-07 18:00,ZBYN 071800Z AUTO 00000KT 6SM 07/06 RMK SLP175 T00680057 52002 IEM_DS3505
ZBYN,1999-10-07 19:00,ZBYN 071900Z AUTO 00000KT 6SM 07/06 A3006 RMK T00700060 IEM_DS3505
ZBYN,1999-10-07 20:00,ZBYN 072000Z AUTO 12002KT 6SM 05/05 A3006 RMK T00500050 IEM_DS3505
ZBYN,1999-10-07 21:00,ZBYN 072100Z AUTO 00000KT 6SM 05/05 A3006 RMK SLP186 T00530046 52007 IEM_DS3505
ZBYN,1999-10-07 22:00,ZBYN 072200Z AUTO 00000KT 2SM 05/05 A3006 RMK T00500050 IEM_DS3505
ZBYN,1999-10-07 23:00,ZBYN 072300Z AUTO 12002KT 3SM 04/04 A3009 RMK T00400040 IEM_DS3505
ZBYN,1999-10-08 00:00,ZBYN 080000Z AUTO 00000KT 4SM 08/05 RMK SLP210 T00820054 52016 IEM_DS3505
ZBYN,1999-10-08 02:00,ZBYN 080200Z AUTO 00000KT 4SM 14/07 A3012 RMK T01400070 IEM_DS3505
ZBYN,1999-10-08 03:00,ZBYN 080300Z AUTO 00000KT 4SM 18/04 RMK SLP202 T01780042 54000 IEM_DS3505
ZBYN,1999-10-08 04:00,ZBYN 080400Z AUTO 35002KT 5SM 20/07 A3006 RMK T02000070 IEM_DS3505
ZBYN,1999-10-08 05:00,ZBYN 080500Z AUTO 00000KT 6SM 22/05 A3003 RMK T02200050 IEM_DS3505
ZBYN,1999-10-08 06:00,ZBYN 080600Z AUTO 00000KT 7SM 24/03 A3000 RMK SLP162 T02370030 57031 IEM_DS3505
ZBYN,1999-10-08 07:00,ZBYN 080700Z AUTO 13002KT 6SM 23/04 A2997 RMK T02300040 IEM_DS3505
ZBYN,1999-10-08 08:00,ZBYN 080800Z AUTO 19002KT 6SM 24/04 A2994 RMK T02400040 IEM_DS3505
ZBYN,1999-10-08 09:00,ZBYN 080900Z AUTO 00000KT 9SM 23/06 A2994 RMK SLP150 T02300057 57014 IEM_DS3505
ZBYN,1999-10-08 10:00,ZBYN 081000Z AUTO 07002KT 6SM 20/05 A2997 RMK T02000050 IEM_DS3505
ZBYN,1999-10-08 11:00,ZBYN 081100Z AUTO 06008KT 6SM 19/07 A2997 RMK T01900070 IEM_DS3505
ZBYN,1999-10-08 12:00,ZBYN 081200Z AUTO 09012KT 9SM 18/05 A3000 RMK SLP161 T01840051 52007 IEM_DS3505
ZBYN,1999-10-08 13:00,ZBYN 081300Z AUTO 08006KT 6SM 17/09 A3003 RMK T01700090 IEM_DS3505
ZBYN,1999-10-08 14:00,ZBYN 081400Z AUTO 11004KT 6SM 16/09 A3003 RMK T01600090 IEM_DS3505
ZBYN,1999-10-08 15:00,ZBYN 081500Z AUTO 09006KT 9SM 16/07 A3006 RMK SLP170 T01620069 52019 IEM_DS3505
ZBYN,1999-10-08 16:00,ZBYN 081600Z AUTO 09006KT 6SM 16/09 A3006 RMK T01600090 IEM_DS3505
ZBYN,1999-10-08 17:00,ZBYN 081700Z AUTO 09008KT 6SM 16/09 A3006 RMK T01600090 IEM_DS3505
ZBYN,1999-10-08 18:00,ZBYN 081800Z AUTO 00000KT 7SM 14/08 A3006 RMK SLP164 T01380084 54000 IEM_DS3505
ZBYN,1999-10-08 19:00,ZBYN 081900Z AUTO 09006KT 3SM 15/10 A3006 RMK T01500100 IEM_DS3505
ZBYN,1999-10-08 21:00,ZBYN 082100Z AUTO 00000KT 5SM 12/10 A3006 RMK 70004 T01200101 52003 IEM_DS3505
ZBYN,1999-10-08 22:00,ZBYN 082200Z AUTO 08002KT 4SM 12/12 A3009 RMK T01200120 IEM_DS3505
ZBYN,1999-10-08 23:00,ZBYN 082300Z AUTO 06004KT 5SM 12/12 A3006 RMK T01200120 IEM_DS3505
ZBYN,1999-10-09 00:00,ZBYN 090000Z AUTO 16004KT 4SM 12/10 A3009 RMK 60004 SLP194 T01160099 52013 IEM_DS3505
ZBYN,1999-10-09 01:00,ZBYN 090100Z AUTO 14002KT 5SM 12/12 A3012 RMK T01200120 IEM_DS3505
ZBYN,1999-10-09 02:00,ZBYN 090200Z AUTO 10004KT 7SM 12/11 A3009 RMK T01200110 IEM_DS3505
ZBYN,1999-10-09 03:00,ZBYN 090300Z AUTO 14002KT 4SM 13/09 A3009 RMK SLP188 T01270087 57007 IEM_DS3505
ZBYN,1999-10-09 04:00,ZBYN 090400Z AUTO 11004KT 6SM 13/10 A3006 RMK T01300100 IEM_DS3505
ZBYN,1999-10-09 05:00,ZBYN 090500Z AUTO 11004KT 6SM 15/10 A3006 RMK T01500100 IEM_DS3505
ZBYN,1999-10-09 06:00,ZBYN 090600Z AUTO 00000KT 6SM 16/08 A3003 RMK 60000 SLP171 T01560075 57014 IEM_DS3505
ZBYN,1999-10-09 07:00,ZBYN 090700Z AUTO 09002KT 6SM 15/09 A3003 RMK T01500090 IEM_DS3505
ZBYN,1999-10-09 08:00,ZBYN 090800Z AUTO 00000KT 6SM 16/09 A3003 RMK T01600090 IEM_DS3505
ZBYN,1999-10-09 09:00,ZBYN 090900Z AUTO 00000KT 5SM 15/09 A3000 RMK SLP165 T01480086 57010 IEM_DS3505
ZBYN,1999-10-09 11:00,ZBYN 091100Z AUTO 14002KT 6SM 14/11 A3000 RMK T01400110 IEM_DS3505
ZBYN,1999-10-09 13:00,ZBYN 091300Z AUTO 00000KT 6SM 13/12 A3003 RMK T01300120 IEM_DS3505
ZBYN,1999-10-09 14:00,ZBYN 091400Z AUTO 00000KT 6SM 13/12 A3006 RMK T01300120 IEM_DS3505
ZBYN,1999-10-09 15:00,ZBYN 091500Z AUTO 00000KT 6SM 13/10 A3006 RMK SLP188 T01290101 52007 IEM_DS3505
ZBYN,1999-10-09 16:00,ZBYN 091600Z AUTO 00000KT 6SM 13/13 A3006 RMK T01300130 IEM_DS3505
ZBYN,1999-10-09 17:00,ZBYN 091700Z AUTO 00000KT 6SM 12/12 A3006 RMK T01200120 IEM_DS3505
ZBYN,1999-10-09 18:00,ZBYN 091800Z AUTO 00000KT 6SM 12/10 A3006 RMK SLP185 T01230101 52001 IEM_DS3505
ZBYN,1999-10-09 20:00,ZBYN 092000Z AUTO 00000KT 4SM 11/11 A3003 RMK T01100110 IEM_DS3505
ZBYN,1999-10-09 21:00,ZBYN 092100Z AUTO 00000KT 6SM 10/09 A3006 RMK 70002 SLP182 T01020090 57007 IEM_DS3505
ZBYN,1999-10-09 22:00,ZBYN 092200Z AUTO 00000KT 3SM 10/10 A3006 RMK T01000100 IEM_DS3505
ZBYN,1999-10-09 23:00,ZBYN 092300Z AUTO 00000KT 2SM 09/09 A3006 RMK T00900090 IEM_DS3505
ZBYN,1999-10-10 00:00,ZBYN 100000Z AUTO 00000KT 4SM 10/09 A3009 RMK SLP202 T00990093 52015 IEM_DS3505
ZBYN,1999-10-10 01:00,ZBYN 100100Z AUTO 00000KT 1SM 12/12 A3009 RMK T01200120 IEM_DS3505
ZBYN,1999-10-10 02:00,ZBYN 100200Z AUTO 00000KT 1 1/4SM 13/12 A3009 RMK T01300120 IEM_DS3505
ZBYN,1999-10-10 03:00,ZBYN 100300Z AUTO 16004KT 4SM 17/10 A3006 RMK SLP187 T01700101 57003 IEM_DS3505
ZBYN,1999-10-10 05:00,ZBYN 100500Z AUTO 21002KT 2 1/2SM 20/11 A3000 RMK T02000110 IEM_DS3505
ZBYN,1999-10-10 06:00,ZBYN 100600Z AUTO 18010KT 6SM 21/08 A3000 RMK SLP158 T02100081 57022 IEM_DS3505
ZBYN,1999-10-10 07:00,ZBYN 100700Z AUTO 25006KT 6SM 21/10 A2997 RMK T02100100 IEM_DS3505
ZBYN,1999-10-10 09:00,ZBYN 100900Z AUTO 29006KT 12SM 21/03 A2997 RMK SLP156 T02060026 57005 IEM_DS3505
ZBYN,1999-10-10 10:00,ZBYN 101000Z AUTO 30008KT 6SM 19/04 A2997 RMK T01900040 IEM_DS3505
ZBYN,1999-10-10 12:00,ZBYN 101200Z AUTO 32002KT 11SM 16/02 A3003 RMK SLP181 T01650025 52016 IEM_DS3505
ZBYN,1999-10-10 13:00,ZBYN 101300Z AUTO 29002KT 6SM 15/03 A3006 RMK T01500030 IEM_DS3505
ZBYN,1999-10-10 14:00,ZBYN 101400Z AUTO 31008KT 6SM 15/02 A3009 RMK T01500020 IEM_DS3505
ZBYN,1999-10-10 15:00,ZBYN 101500Z AUTO 29002KT 7SM 15/00 A3009 RMK SLP188 T01510002 52015 IEM_DS3505
ZBYN,1999-10-10 16:00,ZBYN 101600Z AUTO 28002KT 6SM 14/02 A3009 RMK T01400020 IEM_DS3505
ZBYN,1999-10-10 17:00,ZBYN 101700Z AUTO 27002KT 6SM 13/02 A3009 RMK T01300020 IEM_DS3505
ZBYN,1999-10-10 18:00,ZBYN 101800Z AUTO 00000KT 6SM 12/ A3009 RMK SLP185 52001 IEM_DS3505
ZBYN,1999-10-10 19:00,ZBYN 101900Z AUTO 26004KT 6SM 12/00 A3009 RMK T01200000 IEM_DS3505
ZBYN,1999-10-10 20:00,ZBYN 102000Z AUTO 12004KT 6SM 10/02 A3009 RMK T01000020 IEM_DS3505
ZBYN,1999-10-10 21:00,ZBYN 102100Z AUTO 00000KT 6SM 08/02 A3009 RMK SLP198 T00780020 57001 IEM_DS3505
ZBYN,1999-10-10 23:00,ZBYN 102300Z AUTO 11002KT 6SM 06/02 A3012 RMK T00600020 IEM_DS3505
ZBYN,1999-10-11 00:00,ZBYN 110000Z AUTO 08002KT 5SM 09/04 A3015 RMK T00900040 IEM_DS3505
ZBYN,1999-10-11 01:00,ZBYN 110100Z AUTO 08002KT 12/05 A3015 RMK T01200050 IEM_DS3505
ZBYN,1999-10-11 02:00,ZBYN 110200Z AUTO 00000KT 6SM 14/05 A3015 RMK T01400050 IEM_DS3505
ZBYN,1999-10-11 03:00,ZBYN 110300Z AUTO 29008KT 6SM 18/M04 A3012 RMK SLP200 T01791039 57004 IEM_DS3505
ZBYN,1999-10-11 05:00,ZBYN 110500Z AUTO 25002KT 6SM 19/00 A3009 RMK T01900000 IEM_DS3505
ZBYN,1999-10-11 06:00,ZBYN 110600Z AUTO 16006KT 6SM 20/M03 A3006 RMK SLP186 T02011032 57014 IEM_DS3505
ZBYN,1999-10-11 07:00,ZBYN 110700Z AUTO 23006KT 6SM 20/00 A3006 RMK T02000000 IEM_DS3505
ZBYN,1999-10-11 08:00,ZBYN 110800Z AUTO 17006KT 6SM 20/00 A3003 RMK T02000000 IEM_DS3505
ZBYN,1999-10-11 09:00,ZBYN 110900Z AUTO 16002KT 6SM 20/02 A3003 RMK SLP181 T01950019 57011 IEM_DS3505
ZBYN,1999-10-11 10:00,ZBYN 111000Z AUTO 12002KT 6SM 16/04 A3003 RMK T01600040 IEM_DS3505
ZBYN,1999-10-11 11:00,ZBYN 111100Z AUTO 10002KT 6SM 13/07 A3003 RMK T01300070 IEM_DS3505
ZBYN,1999-10-11 12:00,ZBYN 111200Z AUTO 00000KT 6SM 13/05 A3006 RMK SLP194 T01330046 52004 IEM_DS3505
ZBYN,1999-10-11 13:00,ZBYN 111300Z AUTO 19002KT 6SM 13/05 A3006 RMK T01300050 IEM_DS3505
ZBYN,1999-10-11 15:00,ZBYN 111500Z AUTO 00000KT 6SM 10/05 RMK SLP196 T01050053 52011 IEM_DS3505
ZBYN,1999-10-11 16:00,ZBYN 111600Z AUTO 12002KT 6SM 12/06 A3009 RMK T01200060 IEM_DS3505
ZBYN,1999-10-11 17:00,ZBYN 111700Z AUTO 10002KT 6SM 10/07 A3009 RMK T01000070 IEM_DS3505
ZBYN,1999-10-11 18:00,ZBYN 111800Z AUTO 00000KT 6SM 10/05 A3009 RMK SLP190 T00980054 57003 IEM_DS3505
ZBYN,1999-10-11 19:00,ZBYN 111900Z AUTO 12002KT 6SM 10/07 A3006 RMK T01000070 IEM_DS3505
ZBYN,1999-10-11 20:00,ZBYN 112000Z AUTO 12004KT 6SM 09/07 A3006 RMK T00900070 IEM_DS3505
ZBYN,1999-10-11 21:00,ZBYN 112100Z AUTO 00000KT 5SM 10/06 RMK SLP185 T01020058 57005 IEM_DS3505
ZBYN,1999-10-11 22:00,ZBYN 112200Z AUTO 00000KT 6SM 09/08 A3009 RMK T00900080 IEM_DS3505
ZBYN,1999-10-11 23:00,ZBYN 112300Z AUTO 00000KT 5SM 09/08 A3009 RMK T00900080 IEM_DS3505
ZBYN,1999-10-12 00:00,ZBYN 120000Z AUTO 34004KT 4SM 10/05 RMK SLP200 T01050048 52005 IEM_DS3505
ZBYN,1999-10-12 01:00,ZBYN 120100Z AUTO 00000KT 1 1/2SM 11/08 A3012 RMK T01100080 IEM_DS3505
ZBYN,1999-10-12 02:00,ZBYN 120200Z AUTO 00000KT 1 1/4SM 13/08 A3012 RMK T01300080 IEM_DS3505
ZBYN,1999-10-12 03:00,ZBYN 120300Z AUTO 09004KT 4SM 17/04 A3009 RMK SLP200 T01710045 52005 IEM_DS3505
ZBYN,1999-10-12 04:00,ZBYN 120400Z AUTO 00000KT 5SM 19/06 A3009 RMK T01900060 IEM_DS3505
ZBYN,1999-10-12 05:00,ZBYN 120500Z AUTO 20002KT 20/06 A3003 RMK T02000060 IEM_DS3505
ZBYN,1999-10-12 06:00,ZBYN 120600Z AUTO 18008KT 6SM 22/02 A3000 RMK SLP165 T02150019 57026 IEM_DS3505
ZBYN,1999-10-12 07:00,ZBYN 120700Z AUTO 33002KT 6SM 22/06 A3000 RMK T02200060 IEM_DS3505
ZBYN,1999-10-12 08:00,ZBYN 120800Z AUTO 20002KT 6SM 21/06 A3000 RMK T02100060 IEM_DS3505
ZBYN,1999-10-12 09:00,ZBYN 120900Z AUTO 18002KT 7SM 20/06 A2997 RMK SLP156 T01970065 57010 IEM_DS3505
ZBYN,1999-10-12 11:00,ZBYN 121100Z AUTO 18002KT 2 1/2SM 17/09 A3003 RMK T01700090 IEM_DS3505
ZBYN,1999-10-12 12:00,ZBYN 121200Z AUTO 11004KT 6SM 14/08 A3003 RMK SLP178 T01380076 52011 IEM_DS3505
ZBYN,1999-10-12 14:00,ZBYN 121400Z AUTO 12002KT 4SM 11/09 A3009 RMK T01100090 IEM_DS3505
ZBYN,1999-10-12 15:00,ZBYN 121500Z AUTO 14002KT 6SM 10/08 A3009 RMK SLP190 T01050075 52016 IEM_DS3505
ZBYN,1999-10-12 16:00,ZBYN 121600Z AUTO 5SM 11/08 A3009 RMK T01100080 IEM_DS3505
ZBYN,1999-10-12 17:00,ZBYN 121700Z AUTO 13002KT 5SM 10/08 A3009 RMK T01000080 IEM_DS3505
ZBYN,1999-10-12 18:00,ZBYN 121800Z AUTO 00000KT 6SM 09/07 A3009 RMK SLP191 T00890066 52005 IEM_DS3505
ZBYN,1999-10-12 19:00,ZBYN 121900Z AUTO 00000KT 5SM 08/07 A3009 RMK T00800070 IEM_DS3505
ZBYN,1999-10-12 20:00,ZBYN 122000Z AUTO 13002KT 5SM 07/07 A3009 RMK T00700070 IEM_DS3505
ZBYN,1999-10-12 21:00,ZBYN 122100Z AUTO 00000KT 6SM 08/06 A3009 RMK SLP198 T00760061 52002 IEM_DS3505
ZBYN,1999-10-12 22:00,ZBYN 122200Z AUTO 12002KT 5SM 06/06 A3009 RMK T00600060 IEM_DS3505
ZBYN,1999-10-12 23:00,ZBYN 122300Z AUTO 12002KT 2 1/2SM 06/06 A3012 RMK T00600060 IEM_DS3505
ZBYN,1999-10-13 00:00,ZBYN 130000Z AUTO 00000KT 4SM 09/07 A3015 RMK SLP219 T00860067 52012 IEM_DS3505
ZBYN,1999-10-13 01:00,ZBYN 130100Z AUTO 00000KT 2SM 11/09 A3015 RMK T01100090 IEM_DS3505
ZBYN,1999-10-13 02:00,ZBYN 130200Z AUTO 00000KT 2SM 14/09 A3015 RMK T01400090 IEM_DS3505
ZBYN,1999-10-13 03:00,ZBYN 130300Z AUTO 00000KT 4SM 18/07 A3015 RMK SLP210 T01770067 54000 IEM_DS3505
ZBYN,1999-10-13 04:00,ZBYN 130400Z AUTO 22002KT 2 1/2SM 19/09 A3015 RMK T01900090 IEM_DS3505
ZBYN,1999-10-13 05:00,ZBYN 130500Z AUTO 00000KT 5SM 21/09 A3009 RMK T02100090 IEM_DS3505
ZBYN,1999-10-13 06:00,ZBYN 130600Z AUTO 20004KT 4SM 22/07 A3009 RMK SLP187 T02250071 57016 IEM_DS3505
ZBYN,1999-10-13 07:00,ZBYN 130700Z AUTO 00000KT 6SM 22/07 A3006 RMK T02200070 IEM_DS3505
ZBYN,1999-10-13 08:00,ZBYN 130800Z AUTO 00000KT 6SM 22/08 A3009 RMK T02200080 IEM_DS3505
ZBYN,1999-10-13 09:00,ZBYN 130900Z AUTO 32002KT 4SM 20/07 A3009 RMK SLP192 T02010073 57001 IEM_DS3505
ZBYN,1999-10-13 10:00,ZBYN 131000Z AUTO 30002KT 5SM 19/10 A3009 RMK T01900100 IEM_DS3505
ZBYN,1999-10-13 11:00,ZBYN 131100Z AUTO 09012KT 18/10 A3015 RMK T01800100 IEM_DS3505
ZBYN,1999-10-13 12:00,ZBYN 131200Z AUTO 07006KT 4SM 17/09 A3015 RMK SLP221 T01720086 52024 IEM_DS3505
ZBYN,1999-10-13 13:00,ZBYN 131300Z AUTO 09014KT 2 1/2SM 15/12 A3018 RMK T01500120 IEM_DS3505
ZBYN,1999-10-13 14:00,ZBYN 131400Z AUTO 07012KT 2 1/2SM 15/11 A3021 RMK T01500110 IEM_DS3505
ZBYN,1999-10-13 15:00,ZBYN 131500Z AUTO 02004KT 4SM 14/09 A3021 RMK SLP229 T01430090 52016 IEM_DS3505
ZBYN,1999-10-13 16:00,ZBYN 131600Z AUTO 07012KT 4SM 14/10 A3024 RMK T01400100 IEM_DS3505
ZBYN,1999-10-13 17:00,ZBYN 131700Z AUTO 08010KT 4SM 13/11 A3024 RMK T01300110 IEM_DS3505
ZBYN,1999-10-13 18:00,ZBYN 131800Z AUTO 00000KT 5SM 13/08 A3024 RMK SLP229 T01310085 52006 IEM_DS3505
ZBYN,1999-10-13 19:00,ZBYN 131900Z AUTO 04006KT 4SM 12/10 A3024 RMK T01200100 IEM_DS3505
ZBYN,1999-10-13 20:00,ZBYN 132000Z AUTO 06004KT 4SM 13/11 A3021 RMK T01300110 IEM_DS3505
ZBYN,1999-10-13 21:00,ZBYN 132100Z AUTO 00000KT 5SM 12/09 A3021 RMK SLP229 T01240092 57005 IEM_DS3505
ZBYN,1999-10-13 22:00,ZBYN 132200Z AUTO 06004KT 4SM 12/10 A3021 RMK T01200100 IEM_DS3505
ZBYN,1999-10-13 23:00,ZBYN 132300Z AUTO 06004KT 3SM 12/10 A3021 RMK T01200100 IEM_DS3505
ZBYN,1999-10-14 00:00,ZBYN 140000Z AUTO 00000KT 4SM 12/10 A3021 RMK SLP239 T01200097 52004 IEM_DS3505
ZBYN,1999-10-14 01:00,ZBYN 140100Z AUTO 00000KT 1 1/2SM 13/11 A3024 RMK T01300110 IEM_DS3505
ZBYN,1999-10-14 02:00,ZBYN 140200Z AUTO 09002KT 1SM 14/11 A3024 RMK T01400110 IEM_DS3505
ZBYN,1999-10-14 03:00,ZBYN 140300Z AUTO 00000KT 4SM 14/09 A3024 RMK SLP244 T01420093 52004 IEM_DS3505
ZBYN,1999-10-14 04:00,ZBYN 140400Z AUTO 14002KT 1 1/4SM 14/11 A3024 RMK T01400110 IEM_DS3505
ZBYN,1999-10-14 05:00,ZBYN 140500Z AUTO 21002KT 1 1/4SM 15/11 A3021 RMK T01500110 IEM_DS3505
ZBYN,1999-10-14 06:00,ZBYN 140600Z AUTO 18006KT 5SM 15/10 A3018 RMK SLP232 T01540099 57011 IEM_DS3505
ZBYN,1999-10-14 07:00,ZBYN 140700Z AUTO 18004KT 1SM 15/12 A3018 RMK T01500120 IEM_DS3505
ZBYN,1999-10-14 08:00,ZBYN 140800Z AUTO 18002KT 1SM 15/12 A3015 RMK T01500120 IEM_DS3505
ZBYN,1999-10-14 09:00,ZBYN 140900Z AUTO 14006KT 4SM 15/09 A3015 RMK SLP222 T01490087 57011 IEM_DS3505
ZBYN,1999-10-14 10:00,ZBYN 141000Z AUTO 11002KT 1SM 13/11 A3018 RMK T01300110 IEM_DS3505
ZBYN,1999-10-14 11:00,ZBYN 141100Z AUTO 14004KT 1SM 13/11 A3018 RMK T01300110 IEM_DS3505
ZBYN,1999-10-14 12:00,ZBYN 141200Z AUTO 00000KT 4SM 12/09 A3018 RMK SLP235 T01190094 52007 IEM_DS3505
ZBYN,1999-10-14 13:00,ZBYN 141300Z AUTO 15002KT 1SM 11/10 A3021 RMK T01100100 IEM_DS3505
ZBYN,1999-10-14 14:00,ZBYN 141400Z AUTO 00000KT 1SM 10/10 A3021 RMK T01000100 IEM_DS3505
ZBYN,1999-10-14 15:00,ZBYN 141500Z AUTO 00000KT 3SM 09/09 A3021 RMK SLP249 T00920086 52012 IEM_DS3505
ZBYN,1999-10-14 16:00,ZBYN 141600Z AUTO 00000KT 1SM 09/09 A3024 RMK T00900090 IEM_DS3505
ZBYN,1999-10-14 17:00,ZBYN 141700Z AUTO 11002KT 1SM 08/08 A3024 RMK T00800080 IEM_DS3505
ZBYN,1999-10-14 18:00,ZBYN 141800Z AUTO 00000KT 1SM 07/07 RMK SLP255 T00730069 52004 IEM_DS3505
ZBYN,1999-10-14 19:00,ZBYN 141900Z AUTO 05002KT 1 1/4SM 07/07 A3024 RMK T00700070 IEM_DS3505
ZBYN,1999-10-14 20:00,ZBYN 142000Z AUTO 09002KT 1 1/4SM 07/07 A3027 RMK T00700070 IEM_DS3505
ZBYN,1999-10-14 21:00,ZBYN 142100Z AUTO 00000KT 2SM 08/06 A3027 RMK SLP273 T00790064 52017 IEM_DS3505
ZBYN,1999-10-14 22:00,ZBYN 142200Z AUTO 00000KT 1 1/4SM 06/06 A3030 RMK T00600060 IEM_DS3505
ZBYN,1999-10-14 23:00,ZBYN 142300Z AUTO 00000KT 2SM 05/05 A3033 RMK T00500050 IEM_DS3505
ZBYN,1999-10-15 00:00,ZBYN 150000Z AUTO 00000KT 7SM 10/M02 A3036 RMK SLP293 T00951025 52016 IEM_DS3505
ZBYN,1999-10-15 01:00,ZBYN 150100Z AUTO 00000KT 6SM 10/02 A3036 RMK T01000020 IEM_DS3505
ZBYN,1999-10-15 02:00,ZBYN 150200Z AUTO 35004KT 6SM 13/M01 A3036 RMK T01301010 IEM_DS3505
ZBYN,1999-10-15 03:00,ZBYN 150300Z AUTO 02006KT 9SM 14/M05 A3036 RMK SLP301 T01431052 52010 IEM_DS3505
ZBYN,1999-10-15 04:00,ZBYN 150400Z AUTO 36004KT 6SM 16/M09 A3036 RMK T01601090 IEM_DS3505
ZBYN,1999-10-15 05:00,ZBYN 150500Z AUTO 36004KT 6SM 16/M06 A3033 RMK T01601060 IEM_DS3505
ZBYN,1999-10-15 06:00,ZBYN 150600Z AUTO 02002KT 9SM 15/M06 A3030 RMK SLP282 T01471057 57019 IEM_DS3505
ZBYN,1999-10-15 07:00,ZBYN 150700Z AUTO 35008KT 6SM 16/M05 A3030 RMK T01601050 IEM_DS3505
ZBYN,1999-10-15 08:00,ZBYN 150800Z AUTO 34006KT 6SM 15/M05 A3033 RMK T01501050 IEM_DS3505
ZBYN,1999-10-15 09:00,ZBYN 150900Z AUTO 02002KT 9SM 14/M05 A3033 RMK SLP287 T01451048 52005 IEM_DS3505
ZBYN,1999-10-15 10:00,ZBYN 151000Z AUTO 35006KT 6SM 13/M03 A3036 RMK T01301030 IEM_DS3505
ZBYN,1999-10-15 11:00,ZBYN 151100Z AUTO 34004KT 6SM 12/M03 A3039 RMK T01201030 IEM_DS3505
ZBYN,1999-10-15 12:00,ZBYN 151200Z AUTO 00000KT 6SM 11/M03 A3039 RMK SLP308 T01111028 52016 IEM_DS3505
ZBYN,1999-10-15 13:00,ZBYN 151300Z AUTO 36004KT 6SM 11/M04 A3042 RMK T01101040 IEM_DS3505
ZBYN,1999-10-15 14:00,ZBYN 151400Z AUTO 35008KT 6SM 11/M06 A3042 RMK T01101060 IEM_DS3505
ZBYN,1999-10-15 15:00,ZBYN 151500Z AUTO 00000KT 6SM 11/M06 A3045 RMK SLP319 T01071064 52017 IEM_DS3505
ZBYN,1999-10-15 16:00,ZBYN 151600Z AUTO 00000KT 6SM 08/M05 A3045 RMK T00801050 IEM_DS3505
ZBYN,1999-10-15 17:00,ZBYN 151700Z AUTO 02004KT 6SM 06/M06 A3045 RMK T00601060 IEM_DS3505
ZBYN,1999-10-15 18:00,ZBYN 151800Z AUTO 00000KT 6SM 06/M06 A3047 RMK SLP334 T00591056 52007 IEM_DS3505
ZBYN,1999-10-15 19:00,ZBYN 151900Z AUTO 32002KT 6SM 04/M06 A3047 RMK T00401060 IEM_DS3505
ZBYN,1999-10-15 20:00,ZBYN 152000Z AUTO 34004KT 6SM 04/M08 A3047 RMK T00401080 IEM_DS3505
ZBYN,1999-10-15 21:00,ZBYN 152100Z AUTO 34002KT 6SM 03/M07 A3047 RMK SLP344 T00331074 52005 IEM_DS3505
ZBYN,1999-10-15 22:00,ZBYN 152200Z AUTO 34008KT 6SM 02/M09 A3050 RMK T00201090 IEM_DS3505
ZBYN,1999-10-15 23:00,ZBYN 152300Z AUTO 36006KT 6SM 04/M11 A3053 RMK T00401110 IEM_DS3505
ZBYN,1999-10-16 00:00,ZBYN 160000Z AUTO 34002KT 11SM 04/M07 A3053 RMK SLP368 T00441069 52018 IEM_DS3505
ZBYN,1999-10-16 01:00,ZBYN 160100Z AUTO 35008KT 6SM 07/M12 A3056 RMK T00701120 IEM_DS3505
ZBYN,1999-10-16 02:00,ZBYN 160200Z AUTO 01008KT 6SM 09/M14 A3056 RMK T00901140 IEM_DS3505
ZBYN,1999-10-16 03:00,ZBYN 160300Z AUTO 02008KT 11SM 10/M12 A3053 RMK SLP360 T00981125 54000 IEM_DS3505
ZBYN,1999-10-16 04:00,ZBYN 160400Z AUTO 01002KT 6SM 11/M14 A3050 RMK T01101140 IEM_DS3505
ZBYN,1999-10-16 05:00,ZBYN 160500Z AUTO 32004KT 6SM 12/M13 A3045 RMK T01201130 IEM_DS3505
ZBYN,1999-10-16 06:00,ZBYN 160600Z AUTO 20006KT 9SM 13/M11 A3042 RMK SLP328 T01301112 57031 IEM_DS3505
ZBYN,1999-10-16 07:00,ZBYN 160700Z AUTO 6SM 13/M10 A3042 RMK T01301100 IEM_DS3505
ZBYN,1999-10-16 08:00,ZBYN 160800Z AUTO 20004KT 6SM 13/M10 A3039 RMK T01301100 IEM_DS3505
ZBYN,1999-10-16 09:00,ZBYN 160900Z AUTO 20008KT 9SM 13/M08 A3039 RMK SLP318 T01331080 57013 IEM_DS3505
ZBYN,1999-10-16 10:00,ZBYN 161000Z AUTO 23002KT 6SM 11/M05 A3036 RMK T01101050 IEM_DS3505
ZBYN,1999-10-16 11:00,ZBYN 161100Z AUTO 26004KT 6SM 10/M06 A3036 RMK T01001060 IEM_DS3505
ZBYN,1999-10-16 12:00,ZBYN 161200Z AUTO 32004KT 9SM 09/M05 A3039 RMK SLP327 T00891050 52003 IEM_DS3505
ZBYN,1999-10-16 13:00,ZBYN 161300Z AUTO 00000KT 6SM 09/M06 A3042 RMK T00901060 IEM_DS3505
ZBYN,1999-10-16 14:00,ZBYN 161400Z AUTO 33004KT 6SM 09/M08 A3042 RMK T00901080 IEM_DS3505
ZBYN,1999-10-16 15:00,ZBYN 161500Z AUTO 29002KT 9SM 07/M06 A3042 RMK SLP325 T00711057 52004 IEM_DS3505
ZBYN,1999-10-16 17:00,ZBYN 161700Z AUTO 11004KT 6SM 04/M05 A3042 RMK T00401050 IEM_DS3505
ZBYN,1999-10-16 18:00,ZBYN 161800Z AUTO 00000KT 9SM 02/M02 RMK SLP321 T00161017 57007 IEM_DS3505
ZBYN,1999-10-16 21:00,ZBYN 162100Z AUTO 00000KT 6SM M00/M05 A3042 RMK SLP323 T10051048 57001 IEM_DS3505
ZBYN,1999-10-16 22:00,ZBYN 162200Z AUTO 6SM 00/M05 A3042 RMK T00001050 IEM_DS3505
ZBYN,1999-10-16 23:00,ZBYN 162300Z AUTO 00000KT 6SM 00/M05 A3042 RMK T00001050 IEM_DS3505
ZBYN,1999-10-17 00:00,ZBYN 170000Z AUTO 00000KT 6SM 01/M03 A3045 RMK SLP347 T00061029 52016 IEM_DS3505
ZBYN,1999-10-17 01:00,ZBYN 170100Z AUTO 00000KT 06/M04 A3045 RMK T00601040 IEM_DS3505
ZBYN,1999-10-17 02:00,ZBYN 170200Z AUTO 30006KT 6SM 10/M06 A3045 RMK T01001060 IEM_DS3505
ZBYN,1999-10-17 03:00,ZBYN 170300Z AUTO 34004KT 5SM 13/M09 RMK SLP322 T01271090 57006 IEM_DS3505
ZBYN,1999-10-17 04:00,ZBYN 170400Z AUTO 00000KT 6SM 13/M10 A3039 RMK T01301100 IEM_DS3505
ZBYN,1999-10-17 05:00,ZBYN 170500Z AUTO 00000KT 6SM 14/M08 A3036 RMK T01401080 IEM_DS3505
ZBYN,1999-10-17 06:00,ZBYN 170600Z AUTO 18002KT 6SM 15/M09 A3033 RMK SLP296 T01541086 57028 IEM_DS3505
ZBYN,1999-10-17 07:00,ZBYN 170700Z AUTO 16004KT 6SM 16/M07 A3030 RMK T01601070 IEM_DS3505
ZBYN,1999-10-17 08:00,ZBYN 170800Z AUTO 22002KT 6SM 16/M07 A3027 RMK T01601070 IEM_DS3505
ZBYN,1999-10-17 09:00,ZBYN 170900Z AUTO 25002KT 6SM 15/M04 RMK SLP279 T01491039 57020 IEM_DS3505
ZBYN,1999-10-17 10:00,ZBYN 171000Z AUTO 00000KT 5SM 13/M03 A3030 RMK T01301030 IEM_DS3505
ZBYN,1999-10-17 11:00,ZBYN 171100Z AUTO 00000KT 5SM 10/M02 A3030 RMK T01001020 IEM_DS3505
ZBYN,1999-10-17 12:00,ZBYN 171200Z AUTO 00000KT 6SM 09/01 A3030 RMK SLP302 T00870006 52013 IEM_DS3505
ZBYN,1999-10-17 13:00,ZBYN 171300Z AUTO 13002KT 08/M01 A3033 RMK T00801010 IEM_DS3505
ZBYN,1999-10-17 14:00,ZBYN 171400Z AUTO 14004KT 6SM 05/M01 A3033 RMK T00501010 IEM_DS3505
ZBYN,1999-10-17 15:00,ZBYN 171500Z AUTO 00000KT 10SM 07/M02 A3033 RMK SLP287 T00711016 52003 IEM_DS3505
ZBYN,1999-10-17 16:00,ZBYN 171600Z AUTO 05002KT 6SM 03/M01 A3033 RMK T00301010 IEM_DS3505
ZBYN,1999-10-17 17:00,ZBYN 171700Z AUTO 14002KT 6SM 04/M02 A3033 RMK T00401020 IEM_DS3505
ZBYN,1999-10-17 18:00,ZBYN 171800Z AUTO 00000KT 9SM 02/M00 A3033 RMK SLP292 T00241005 52001 IEM_DS3505
ZBYN,1999-10-17 19:00,ZBYN 171900Z AUTO 13002KT 6SM 00/M02 A3033 RMK T00001020 IEM_DS3505
ZBYN,1999-10-17 20:00,ZBYN 172000Z AUTO 00000KT 6SM 01/M01 A3033 RMK T00101010 IEM_DS3505
ZBYN,1999-10-17 21:00,ZBYN 172100Z AUTO 00000KT 9SM 01/M01 A3033 RMK SLP290 T00101012 57004 IEM_DS3505
ZBYN,1999-10-17 22:00,ZBYN 172200Z AUTO 00000KT 6SM 00/M02 A3033 RMK T00001020 IEM_DS3505
ZBYN,1999-10-17 23:00,ZBYN 172300Z AUTO 00000KT 6SM 00/M02 A3033 RMK T00001020 IEM_DS3505
ZBYN,1999-10-18 00:00,ZBYN 180000Z AUTO 00000KT 6SM 02/M02 A3036 RMK SLP307 T00211017 52007 IEM_DS3505
ZBYN,1999-10-18 01:00,ZBYN 180100Z AUTO 00000KT 6SM 05/M01 A3036 RMK T00501010 IEM_DS3505
ZBYN,1999-10-18 02:00,ZBYN 180200Z AUTO 00000KT 6SM 08/M01 A3033 RMK T00801010 IEM_DS3505
ZBYN,1999-10-18 03:00,ZBYN 180300Z AUTO 00000KT 6SM 12/M04 A3030 RMK SLP290 T01161042 57003 IEM_DS3505
ZBYN,1999-10-18 04:00,ZBYN 180400Z AUTO 15002KT 6SM 13/M02 A3027 RMK T01301020 IEM_DS3505
ZBYN,1999-10-18 05:00,ZBYN 180500Z AUTO 25004KT 6SM 15/M04 A3024 RMK T01501040 IEM_DS3505
ZBYN,1999-10-18 06:00,ZBYN 180600Z AUTO 18010KT 6SM 17/M06 A3018 RMK SLP244 T01701060 57041 IEM_DS3505
ZBYN,1999-10-18 07:00,ZBYN 180700Z AUTO 21004KT 6SM 18/M04 A3015 RMK T01801040 IEM_DS3505
ZBYN,1999-10-18 08:00,ZBYN 180800Z AUTO 21002KT 6SM 18/M03 A3012 RMK T01801030 IEM_DS3505
ZBYN,1999-10-18 09:00,ZBYN 180900Z AUTO 00000KT 6SM 17/M01 A3012 RMK SLP220 T01721009 57024 IEM_DS3505
ZBYN,1999-10-18 10:00,ZBYN 181000Z AUTO 00000KT 6SM 14/00 A3012 RMK T01400000 IEM_DS3505
ZBYN,1999-10-18 11:00,ZBYN 181100Z AUTO 12004KT 10/01 A3012 RMK T01000010 IEM_DS3505
ZBYN,1999-10-18 12:00,ZBYN 181200Z AUTO 34004KT 6SM 12/M01 A3012 RMK SLP232 T01231007 52005 IEM_DS3505
ZBYN,1999-10-18 14:00,ZBYN 181400Z AUTO 11002KT 5SM 08/01 A3015 RMK T00800010 IEM_DS3505
ZBYN,1999-10-18 15:00,ZBYN 181500Z AUTO 00000KT 6SM 07/02 A3018 RMK SLP236 T00680024 52010 IEM_DS3505
ZBYN,1999-10-18 16:00,ZBYN 181600Z AUTO 14002KT 5SM 07/01 A3018 RMK T00700010 IEM_DS3505
ZBYN,1999-10-18 17:00,ZBYN 181700Z AUTO 00000KT 5SM 06/01 A3018 RMK T00600010 IEM_DS3505
ZBYN,1999-10-18 18:00,ZBYN 181800Z AUTO 00000KT 6SM 07/01 A3018 RMK SLP228 T00690012 52001 IEM_DS3505
ZBYN,1999-10-18 19:00,ZBYN 181900Z AUTO 12002KT 5SM 05/02 A3015 RMK T00500020 IEM_DS3505
ZBYN,1999-10-18 20:00,ZBYN 182000Z AUTO 00000KT 5SM 05/02 A3015 RMK T00500020 IEM_DS3505
ZBYN,1999-10-18 21:00,ZBYN 182100Z AUTO 00000KT 6SM 04/02 A3018 RMK SLP232 T00350018 57001 IEM_DS3505
ZBYN,1999-10-18 22:00,ZBYN 182200Z AUTO 00000KT 5SM 03/01 A3018 RMK T00300010 IEM_DS3505
ZBYN,1999-10-18 23:00,ZBYN 182300Z AUTO 00000KT 4SM 03/02 A3021 RMK T00300020 IEM_DS3505
ZBYN,1999-10-19 00:00,ZBYN 190000Z AUTO 00000KT 4SM 04/02 A3021 RMK SLP247 T00370015 52007 IEM_DS3505
ZBYN,1999-10-19 02:00,ZBYN 190200Z AUTO 19004KT 12/04 A3021 RMK T01200040 IEM_DS3505
ZBYN,1999-10-19 05:00,ZBYN 190500Z AUTO 22008KT 2 1/2SM 18/05 A3012 RMK T01800050 IEM_DS3505
ZBYN,1999-10-19 06:00,ZBYN 190600Z AUTO 22006KT 2 1/2SM 20/02 A3009 RMK SLP205 T01990023 57025 IEM_DS3505
ZBYN,1999-10-19 09:00,ZBYN 190900Z AUTO 29008KT 12SM 20/M05 A3009 RMK SLP197 T02011046 57010 IEM_DS3505
ZBYN,1999-10-19 10:00,ZBYN 191000Z AUTO 29006KT 6SM 17/M03 A3009 RMK T01701030 IEM_DS3505
ZBYN,1999-10-19 11:00,ZBYN 191100Z AUTO 29004KT 6SM 14/M03 A3012 RMK T01401030 IEM_DS3505
ZBYN,1999-10-19 12:00,ZBYN 191200Z AUTO 00000KT 11SM 12/M01 A3015 RMK SLP231 T01211010 52019 IEM_DS3505
ZBYN,1999-10-19 15:00,ZBYN 191500Z AUTO 00000KT 7SM 08/01 A3018 RMK SLP232 T00780014 52010 IEM_DS3505
ZBYN,1999-10-19 16:00,ZBYN 191600Z AUTO 11002KT 6SM 05/00 A3018 RMK T00500000 IEM_DS3505
ZBYN,1999-10-19 17:00,ZBYN 191700Z AUTO 09002KT 6SM 04/00 A3021 RMK T00400000 IEM_DS3505
ZBYN,1999-10-19 18:00,ZBYN 191800Z AUTO 02002KT 7SM 05/00 A3021 RMK SLP231 T00520005 52004 IEM_DS3505
ZBYN,1999-10-19 21:00,ZBYN 192100Z AUTO 00000KT 7SM 04/M01 A3021 RMK SLP238 T00421007 52005 IEM_DS3505
ZBYN,1999-10-19 22:00,ZBYN 192200Z AUTO 00000KT 6SM 01/M01 A3021 RMK T00101010 IEM_DS3505
ZBYN,1999-10-20 00:00,ZBYN 200000Z AUTO 00000KT 6SM 06/M02 A3024 RMK SLP262 T00581018 52012 IEM_DS3505
ZBYN,1999-10-20 01:00,ZBYN 200100Z AUTO 00000KT 6SM 09/00 A3024 RMK T00900000 IEM_DS3505
ZBYN,1999-10-20 02:00,ZBYN 200200Z AUTO 16002KT 6SM 11/00 A3024 RMK T01100000 IEM_DS3505
ZBYN,1999-10-20 03:00,ZBYN 200300Z AUTO 00000KT 4SM 15/M03 RMK SLP246 T01521033 57007 IEM_DS3505
ZBYN,1999-10-20 04:00,ZBYN 200400Z AUTO 00000KT 6SM 16/M01 A3021 RMK T01601010 IEM_DS3505
ZBYN,1999-10-20 05:00,ZBYN 200500Z AUTO 29002KT 6SM 18/M03 A3018 RMK T01801030 IEM_DS3505
ZBYN,1999-10-20 06:00,ZBYN 200600Z AUTO 18002KT 6SM 19/M05 A3012 RMK SLP221 T01941050 57020 IEM_DS3505
ZBYN,1999-10-20 07:00,ZBYN 200700Z AUTO 25002KT 6SM 19/M06 A3012 RMK T01901060 IEM_DS3505
ZBYN,1999-10-20 08:00,ZBYN 200800Z AUTO 00000KT 6SM 19/M06 A3012 RMK T01901060 IEM_DS3505
ZBYN,1999-10-20 09:00,ZBYN 200900Z AUTO 00000KT 6SM 17/02 A3012 RMK SLP211 T01740021 57014 IEM_DS3505
ZBYN,1999-10-20 10:00,ZBYN 201000Z AUTO 00000KT 6SM 14/02 A3012 RMK SLP221 T01400020 57002 IEM_DS3505
ZBYN,1999-10-20 11:00,ZBYN 201100Z AUTO 10002KT 3SM 14/01 A3012 RMK T01400010 IEM_DS3505
ZBYN,1999-10-20 12:00,ZBYN 201200Z AUTO 16002KT 6SM 12/02 A3015 RMK SLP228 T01170018 52010 IEM_DS3505
ZBYN,1999-10-20 13:00,ZBYN 201300Z AUTO 10002KT 5SM 10/00 A3015 RMK T01000000 IEM_DS3505
ZBYN,1999-10-20 14:00,ZBYN 201400Z AUTO 16002KT 6SM 08/01 A3015 RMK T00800010 IEM_DS3505
ZBYN,1999-10-20 15:00,ZBYN 201500Z AUTO 00000KT 6SM 09/01 A3018 RMK SLP224 T00930011 52007 IEM_DS3505
ZBYN,1999-10-20 16:00,ZBYN 201600Z AUTO 12002KT 6SM 06/01 A3015 RMK T00600010 IEM_DS3505
ZBYN,1999-10-20 17:00,ZBYN 201700Z AUTO 00000KT 6SM 07/00 A3015 RMK T00700000 IEM_DS3505
ZBYN,1999-10-20 18:00,ZBYN 201800Z AUTO 00000KT 6SM 06/03 A3015 RMK SLP221 T00570027 57002 IEM_DS3505
ZBYN,1999-10-20 19:00,ZBYN 201900Z AUTO 12002KT 6SM 05/01 A3015 RMK T00500010 IEM_DS3505
ZBYN,1999-10-20 20:00,ZBYN 202000Z AUTO 13002KT 6SM 04/00 A3015 RMK T00400000 IEM_DS3505
ZBYN,1999-10-20 21:00,ZBYN 202100Z AUTO 00000KT 7SM 04/01 A3015 RMK SLP223 T00410011 57004 IEM_DS3505
ZBYN,1999-10-20 23:00,ZBYN 202300Z AUTO 4SM 04/01 A3015 RMK T00400010 IEM_DS3505
ZBYN,1999-10-21 00:00,ZBYN 210000Z AUTO 00000KT 4SM 06/01 A3018 RMK SLP243 T00550014 52012 IEM_DS3505
ZBYN,1999-10-21 01:00,ZBYN 210100Z AUTO 00000KT 3SM 09/01 A3018 RMK T00900010 IEM_DS3505
ZBYN,1999-10-21 02:00,ZBYN 210200Z AUTO 00000KT 4SM 11/01 A3018 RMK T01100010 IEM_DS3505
ZBYN,1999-10-21 03:00,ZBYN 210300Z AUTO 00000KT 3SM 15/M01 A3018 RMK SLP232 T01501010 52001 IEM_DS3505
ZBYN,1999-10-21 04:00,ZBYN 210400Z AUTO 23002KT 17/00 A3015 RMK T01700000 IEM_DS3505
ZBYN,1999-10-21 05:00,ZBYN 210500Z AUTO 14002KT 6SM 18/M02 A3009 RMK T01801020 IEM_DS3505
ZBYN,1999-10-21 06:00,ZBYN 210600Z AUTO 18006KT 4SM 20/M03 A3009 RMK SLP201 T01961031 57027 IEM_DS3505
ZBYN,1999-10-21 07:00,ZBYN 210700Z AUTO 00000KT 6SM 20/M06 A3006 RMK T02001060 IEM_DS3505
ZBYN,1999-10-21 08:00,ZBYN 210800Z AUTO 21004KT 6SM 20/M05 A3006 RMK T02001050 IEM_DS3505
ZBYN,1999-10-21 09:00,ZBYN 210900Z AUTO 22004KT 6SM 19/M02 A3006 RMK SLP196 T01861015 57009 IEM_DS3505
ZBYN,1999-10-21 10:00,ZBYN 211000Z AUTO 00000KT 6SM RMK IEM_DS3505
ZBYN,1999-10-21 11:00,ZBYN 211100Z AUTO 11002KT 1 1/4SM 11/01 A3009 RMK T01100010 IEM_DS3505
ZBYN,1999-10-21 12:00,ZBYN 211200Z AUTO 32002KT 5SM 12/01 A3012 RMK SLP224 T01200011 52018 IEM_DS3505
ZBYN,1999-10-21 13:00,ZBYN 211300Z AUTO 14002KT 5SM 10/M01 A3012 RMK T01001010 IEM_DS3505
ZBYN,1999-10-21 14:00,ZBYN 211400Z AUTO 13002KT 5SM 08/00 A3015 RMK T00800000 IEM_DS3505
ZBYN,1999-10-21 15:00,ZBYN 211500Z AUTO 00000KT 6SM 07/02 A3015 RMK SLP230 T00670017 52012 IEM_DS3505
ZBYN,1999-10-21 16:00,ZBYN 211600Z AUTO 6SM 07/00 A3018 RMK T00700000 IEM_DS3505
ZBYN,1999-10-21 18:00,ZBYN 211800Z AUTO 00000KT 6SM 04/01 A3018 RMK SLP234 T00400013 52006 IEM_DS3505
ZBYN,1999-10-21 19:00,ZBYN 211900Z AUTO 00000KT 6SM 04/M01 A3018 RMK T00401010 IEM_DS3505
ZBYN,1999-10-21 20:00,ZBYN 212000Z AUTO 11002KT 6SM 03/M01 A3018 RMK T00301010 IEM_DS3505
ZBYN,1999-10-21 21:00,ZBYN 212100Z AUTO 00000KT 6SM 04/01 RMK SLP238 T00370007 52002 IEM_DS3505
ZBYN,1999-10-21 23:00,ZBYN 212300Z AUTO 00000KT 6SM 02/M01 A3021 RMK T00201010 IEM_DS3505
ZBYN,1999-10-22 00:00,ZBYN 220000Z AUTO 00000KT 6SM 03/M01 A3024 RMK SLP269 T00321010 52017 IEM_DS3505
ZBYN,1999-10-22 03:00,ZBYN 220300Z AUTO 04002KT 4SM A3027 RMK SLP258 52001 IEM_DS3505
ZBYN,1999-10-22 04:00,ZBYN 220400Z AUTO 28002KT 16/M02 A3024 RMK T01601020 IEM_DS3505
ZBYN,1999-10-22 05:00,ZBYN 220500Z AUTO 00000KT 18/M03 A3018 RMK T01801030 IEM_DS3505
ZBYN,1999-10-22 06:00,ZBYN 220600Z AUTO 14006KT 5SM 21/M02 A3015 RMK SLP226 T02101025 57025 IEM_DS3505
ZBYN,1999-10-22 07:00,ZBYN 220700Z AUTO 00000KT 6SM 21/M06 A3015 RMK T02101060 IEM_DS3505
ZBYN,1999-10-22 08:00,ZBYN 220800Z AUTO 19002KT 6SM 21/M05 A3015 RMK T02101050 IEM_DS3505
ZBYN,1999-10-22 09:00,ZBYN 220900Z AUTO 00000KT 6SM 19/00 A3015 RMK SLP219 T01930005 57009 IEM_DS3505
ZBYN,1999-10-22 10:00,ZBYN 221000Z AUTO 24002KT 6SM 17/M01 A3015 RMK T01701010 IEM_DS3505
ZBYN,1999-10-22 11:00,ZBYN 221100Z AUTO 11002KT 6SM 12/01 A3018 RMK T01200010 IEM_DS3505
ZBYN,1999-10-22 12:00,ZBYN 221200Z AUTO 07004KT 6SM 14/M01 A3021 RMK SLP248 T01361013 52017 IEM_DS3505
ZBYN,1999-10-22 13:00,ZBYN 221300Z AUTO 07010KT 6SM 15/M03 A3024 RMK T01501030 IEM_DS3505
ZBYN,1999-10-22 14:00,ZBYN 221400Z AUTO 08010KT 6SM 14/M02 A3027 RMK T01401020 IEM_DS3505
ZBYN,1999-10-22 15:00,ZBYN 221500Z AUTO 32002KT 6SM 11/M02 A3027 RMK SLP253 T01131017 52019 IEM_DS3505
ZBYN,1999-10-22 16:00,ZBYN 221600Z AUTO 08010KT 6SM 13/00 A3027 RMK T01300000 IEM_DS3505
ZBYN,1999-10-22 17:00,ZBYN 221700Z AUTO 07006KT 6SM 12/00 A3027 RMK T01200000 IEM_DS3505
ZBYN,1999-10-22 18:00,ZBYN 221800Z AUTO 00000KT 6SM 07/00 A3027 RMK SLP251 T00740004 52001 IEM_DS3505
ZBYN,1999-10-22 19:00,ZBYN 221900Z AUTO 06004KT 6SM 10/02 A3027 RMK T01000020 IEM_DS3505
ZBYN,1999-10-22 20:00,ZBYN 222000Z AUTO 06004KT 6SM 09/02 A3024 RMK T00900020 IEM_DS3505
ZBYN,1999-10-22 21:00,ZBYN 222100Z AUTO 00000KT 6SM 07/M00 A3027 RMK SLP256 T00681001 52001 IEM_DS3505
ZBYN,1999-10-22 22:00,ZBYN 222200Z AUTO 00000KT 08/02 A3027 RMK T00800020 IEM_DS3505
ZBYN,1999-10-22 23:00,ZBYN 222300Z AUTO 00000KT 4SM 06/01 A3027 RMK T00600010 IEM_DS3505
ZBYN,1999-10-23 00:00,ZBYN 230000Z AUTO 00000KT 6SM 08/02 A3030 RMK SLP271 T00760023 52006 IEM_DS3505
ZBYN,1999-10-23 01:00,ZBYN 230100Z AUTO 00000KT 1 1/4SM 09/03 A3030 RMK T00900030 IEM_DS3505
ZBYN,1999-10-23 03:00,ZBYN 230300Z AUTO 29004KT 5SM 14/04 A3027 RMK SLP261 T01380039 57003 IEM_DS3505
ZBYN,1999-10-23 04:00,ZBYN 230400Z AUTO 00000KT 1 1/2SM 16/04 A3024 RMK T01600040 IEM_DS3505
ZBYN,1999-10-23 05:00,ZBYN 230500Z AUTO 16002KT 2 1/2SM 19/03 A3021 RMK T01900030 IEM_DS3505
ZBYN,1999-10-23 06:00,ZBYN 230600Z AUTO 18010KT 5SM 20/04 A3015 RMK SLP224 T01960039 57031 IEM_DS3505
ZBYN,1999-10-23 07:00,ZBYN 230700Z AUTO 20004KT 2 1/2SM 19/04 A3012 RMK T01900040 IEM_DS3505
ZBYN,1999-10-23 08:00,ZBYN 230800Z AUTO 22004KT 2 1/2SM 19/04 A3009 RMK T01900040 IEM_DS3505
ZBYN,1999-10-23 09:00,ZBYN 230900Z AUTO 14006KT 5SM 17/04 A3009 RMK SLP206 T01740044 57020 IEM_DS3505
ZBYN,1999-10-23 10:00,ZBYN 231000Z AUTO 12002KT 1 1/4SM 14/05 A3009 RMK T01400050 IEM_DS3505
ZBYN,1999-10-23 11:00,ZBYN 231100Z AUTO 10004KT 1 1/2SM 11/05 A3009 RMK T01100050 IEM_DS3505
ZBYN,1999-10-23 12:00,ZBYN 231200Z AUTO 14004KT 3SM 11/04 A3012 RMK SLP213 T01140041 57002 IEM_DS3505
ZBYN,1999-10-23 13:00,ZBYN 231300Z AUTO 12004KT 2 1/2SM 10/05 A3012 RMK T01000050 IEM_DS3505
ZBYN,1999-10-23 14:00,ZBYN 231400Z AUTO 11004KT 2 1/2SM 08/05 A3015 RMK T00800050 IEM_DS3505
ZBYN,1999-10-23 15:00,ZBYN 231500Z AUTO 00000KT 6SM 08/04 A3015 RMK SLP216 T00840040 52008 IEM_DS3505
ZBYN,1999-10-23 16:00,ZBYN 231600Z AUTO 11002KT 5SM 08/05 A3015 RMK T00800050 IEM_DS3505
ZBYN,1999-10-23 17:00,ZBYN 231700Z AUTO 10004KT 6SM 06/04 A3012 RMK T00600040 IEM_DS3505
ZBYN,1999-10-23 18:00,ZBYN 231800Z AUTO 00000KT 5SM 07/04 A3012 RMK SLP208 T00730044 54000 IEM_DS3505
ZBYN,1999-10-23 19:00,ZBYN 231900Z AUTO 11004KT 6SM 06/04 A3012 RMK T00600040 IEM_DS3505
ZBYN,1999-10-23 20:00,ZBYN 232000Z AUTO 00000KT 6SM 07/05 A3012 RMK T00700050 IEM_DS3505
ZBYN,1999-10-23 21:00,ZBYN 232100Z AUTO 00000KT 5SM 06/04 A3012 RMK SLP211 T00650043 57002 IEM_DS3505
ZBYN,1999-10-23 22:00,ZBYN 232200Z AUTO 13002KT 5SM 06/04 A3012 RMK T00600040 IEM_DS3505
ZBYN,1999-10-23 23:00,ZBYN 232300Z AUTO 00000KT 4SM 04/03 A3015 RMK T00400030 IEM_DS3505
ZBYN,1999-10-24 00:00,ZBYN 240000Z AUTO 34002KT 2SM 07/03 A3015 RMK SLP230 T00670033 52008 IEM_DS3505
ZBYN,1999-10-24 01:00,ZBYN 240100Z AUTO 00000KT 2SM 10/07 A3015 RMK T01000070 IEM_DS3505
ZBYN,1999-10-24 02:00,ZBYN 240200Z AUTO 17002KT 2 1/2SM 13/06 A3015 RMK T01300060 IEM_DS3505
ZBYN,1999-10-24 03:00,ZBYN 240300Z AUTO 00000KT 5SM 16/06 A3015 RMK SLP218 T01600056 57001 IEM_DS3505
ZBYN,1999-10-24 04:00,ZBYN 240400Z AUTO 19002KT 3SM 17/07 A3012 RMK T01700070 IEM_DS3505
ZBYN,1999-10-24 05:00,ZBYN 240500Z AUTO 00000KT 19/06 A3009 RMK T01900060 IEM_DS3505
ZBYN,1999-10-24 06:00,ZBYN 240600Z AUTO 16006KT 6SM 21/04 A3003 RMK SLP181 T02080041 57028 IEM_DS3505
ZBYN,1999-10-24 07:00,ZBYN 240700Z AUTO 23002KT 5SM 21/04 A3003 RMK T02100040 IEM_DS3505
ZBYN,1999-10-24 08:00,ZBYN 240800Z AUTO 24002KT 6SM 21/03 A3000 RMK T02100030 IEM_DS3505
ZBYN,1999-10-24 09:00,ZBYN 240900Z AUTO 00000KT 6SM 20/06 A3000 RMK SLP170 T02040060 57012 IEM_DS3505
ZBYN,1999-10-24 10:00,ZBYN 241000Z AUTO 12002KT 5SM 15/04 A3003 RMK T01500040 IEM_DS3505
ZBYN,1999-10-24 11:00,ZBYN 241100Z AUTO 09002KT 12/05 A3003 RMK T01200050 IEM_DS3505
ZBYN,1999-10-24 12:00,ZBYN 241200Z AUTO 18002KT 5SM 14/04 A3006 RMK SLP191 T01390041 52010 IEM_DS3505
ZBYN,1999-10-24 13:00,ZBYN 241300Z AUTO 11004KT 6SM 09/04 A3006 RMK T00900040 IEM_DS3505
ZBYN,1999-10-24 14:00,ZBYN 241400Z AUTO 11002KT 6SM 10/04 A3009 RMK T01000040 IEM_DS3505
ZBYN,1999-10-24 15:00,ZBYN 241500Z AUTO 00000KT 5SM 09/05 A3009 RMK SLP205 T00880054 52019 IEM_DS3505
ZBYN,1999-10-24 17:00,ZBYN 241700Z AUTO 12004KT 6SM 07/02 A3009 RMK T00700020 IEM_DS3505
ZBYN,1999-10-24 18:00,ZBYN 241800Z AUTO 29002KT 6SM 08/04 A3009 RMK SLP200 T00750035 54000 IEM_DS3505
ZBYN,1999-10-24 19:00,ZBYN 241900Z AUTO 12006KT 6SM 05/02 A3009 RMK T00500020 IEM_DS3505
ZBYN,1999-10-24 20:00,ZBYN 242000Z AUTO 00000KT 6SM 05/02 A3009 RMK T00500020 IEM_DS3505
ZBYN,1999-10-24 21:00,ZBYN 242100Z AUTO 00000KT 5SM 05/04 A3009 RMK SLP201 T00510042 57003 IEM_DS3505
ZBYN,1999-10-24 22:00,ZBYN 242200Z AUTO 12004KT 6SM 03/01 A3009 RMK T00300010 IEM_DS3505
ZBYN,1999-10-24 23:00,ZBYN 242300Z AUTO 00000KT 7SM 04/01 A3009 RMK T00400010 IEM_DS3505
ZBYN,1999-10-25 00:00,ZBYN 250000Z AUTO 00000KT 3SM 05/03 A3009 RMK SLP213 T00480032 52001 IEM_DS3505
ZBYN,1999-10-25 01:00,ZBYN 250100Z AUTO 00000KT 4SM 09/04 A3012 RMK T00900040 IEM_DS3505
ZBYN,1999-10-25 02:00,ZBYN 250200Z AUTO 00000KT 1 1/2SM 13/05 A3012 RMK T01300050 IEM_DS3505
ZBYN,1999-10-25 03:00,ZBYN 250300Z AUTO 16002KT 4SM 16/02 RMK SLP204 T01550021 54000 IEM_DS3505
ZBYN,1999-10-25 04:00,ZBYN 250400Z AUTO 19002KT 16/04 A3009 RMK T01600040 IEM_DS3505
ZBYN,1999-10-25 05:00,ZBYN 250500Z AUTO 21004KT 5SM 18/04 A3006 RMK T01800040 IEM_DS3505
ZBYN,1999-10-25 06:00,ZBYN 250600Z AUTO 22004KT 4SM 20/05 A3000 RMK SLP171 T02000048 57025 IEM_DS3505
ZBYN,1999-10-25 07:00,ZBYN 250700Z AUTO 00000KT 6SM 19/04 A3000 RMK T01900040 IEM_DS3505
ZBYN,1999-10-25 08:00,ZBYN 250800Z AUTO 26002KT 6SM 20/05 A3000 RMK T02000050 IEM_DS3505
ZBYN,1999-10-25 09:00,ZBYN 250900Z AUTO 00000KT 4SM 17/08 A3003 RMK SLP176 T01730083 57003 IEM_DS3505
ZBYN,1999-10-25 10:00,ZBYN 251000Z AUTO 30002KT 1SM 15/07 A3003 RMK T01500070 IEM_DS3505
ZBYN,1999-10-25 11:00,ZBYN 251100Z AUTO 00000KT 2SM 16/07 A3003 RMK T01600070 IEM_DS3505
ZBYN,1999-10-25 12:00,ZBYN 251200Z AUTO 32006KT 4SM 17/07 A3006 RMK 60003 SLP198 T01700070 52019 IEM_DS3505
ZBYN,1999-10-25 13:00,ZBYN 251300Z AUTO 36004KT 7SM 15/07 A3006 RMK T01500070 IEM_DS3505
ZBYN,1999-10-25 14:00,ZBYN 251400Z AUTO 10004KT 6SM 15/07 A3009 RMK T01500070 IEM_DS3505
ZBYN,1999-10-25 15:00,ZBYN 251500Z AUTO 09002KT 6SM 15/06 A3009 RMK SLP190 T01530062 52006 IEM_DS3505
ZBYN,1999-10-25 16:00,ZBYN 251600Z AUTO 07004KT 2SM 13/08 A3009 RMK T01300080 IEM_DS3505
ZBYN,1999-10-25 17:00,ZBYN 251700Z AUTO 11004KT 2SM 10/07 A3009 RMK T01000070 IEM_DS3505
ZBYN,1999-10-25 18:00,ZBYN 251800Z AUTO 11004KT 6SM 12/07 A3009 RMK 60000 SLP192 T01160072 52003 IEM_DS3505
ZBYN,1999-10-25 19:00,ZBYN 251900Z AUTO 00000KT 2 1/2SM 11/08 A3009 RMK T01100080 IEM_DS3505
ZBYN,1999-10-25 20:00,ZBYN 252000Z AUTO 00000KT 3SM 10/07 A3009 RMK T01000070 IEM_DS3505
ZBYN,1999-10-25 21:00,ZBYN 252100Z AUTO 00000KT 4SM 08/07 A3012 RMK 70003 SLP202 T00830069 54000 IEM_DS3505
ZBYN,1999-10-26 00:00,ZBYN 260000Z AUTO 00000KT 3SM 08/06 RMK SLP211 T00820063 52008 IEM_DS3505
ZBYN,1999-10-26 01:00,ZBYN 260100Z AUTO 00000KT 2 1/2SM 11/07 A3015 RMK T01100070 IEM_DS3505
ZBYN,1999-10-26 02:00,ZBYN 260200Z AUTO 14004KT 2 1/2SM 14/07 A3015 RMK T01400070 IEM_DS3505
ZBYN,1999-10-26 03:00,ZBYN 260300Z AUTO 18004KT 4SM 17/07 A3012 RMK SLP193 T01690066 57006 IEM_DS3505
ZBYN,1999-10-26 04:00,ZBYN 260400Z AUTO 15006KT 17/09 A3009 RMK T01700090 IEM_DS3505
ZBYN,1999-10-26 05:00,ZBYN 260500Z AUTO 14002KT 2 1/2SM 19/08 A3003 RMK T01900080 IEM_DS3505
ZBYN,1999-10-26 06:00,ZBYN 260600Z AUTO 16006KT 4SM 20/06 A3000 RMK SLP161 T01980062 57031 IEM_DS3505
ZBYN,1999-10-26 07:00,ZBYN 260700Z AUTO 00000KT 20/06 A2997 RMK T02000060 IEM_DS3505
ZBYN,1999-10-26 08:00,ZBYN 260800Z AUTO 21002KT 6SM 21/05 A2994 RMK T02100050 IEM_DS3505
ZBYN,1999-10-26 09:00,ZBYN 260900Z AUTO 16004KT 4SM 18/07 A2994 RMK SLP144 T01820072 57022 IEM_DS3505
ZBYN,1999-10-26 11:00,ZBYN 261100Z AUTO 12004KT 2 1/2SM 15/08 A2997 RMK T01500080 IEM_DS3505
ZBYN,1999-10-26 12:00,ZBYN 261200Z AUTO 11010KT 5SM 16/06 A2997 RMK SLP155 T01590065 52006 IEM_DS3505
ZBYN,1999-10-26 13:00,ZBYN 261300Z AUTO 12006KT 2 1/2SM 12/07 A2997 RMK T01200070 IEM_DS3505
ZBYN,1999-10-26 14:00,ZBYN 261400Z AUTO 13008KT 2 1/2SM 11/07 A2997 RMK T01100070 IEM_DS3505
ZBYN,1999-10-26 15:00,ZBYN 261500Z AUTO 11008KT 6SM 12/06 A2997 RMK SLP147 T01190062 54000 IEM_DS3505
ZBYN,1999-10-26 16:00,ZBYN 261600Z AUTO 12008KT 4SM 11/07 A2997 RMK T01100070 IEM_DS3505
ZBYN,1999-10-26 17:00,ZBYN 261700Z AUTO 09004KT 4SM 11/07 A2997 RMK T01100070 IEM_DS3505
ZBYN,1999-10-26 18:00,ZBYN 261800Z AUTO 14008KT 6SM 11/07 A2994 RMK SLP139 T01110071 57004 IEM_DS3505
ZBYN,1999-10-26 19:00,ZBYN 261900Z AUTO 11006KT 2 1/2SM 09/07 A2994 RMK T00900070 IEM_DS3505
ZBYN,1999-10-26 20:00,ZBYN 262000Z AUTO 12004KT 2 1/2SM 08/07 A2991 RMK T00800070 IEM_DS3505
ZBYN,1999-10-26 21:00,ZBYN 262100Z AUTO 20002KT 6SM 07/06 A2991 RMK SLP141 T00740057 57006 IEM_DS3505
ZBYN,1999-10-26 22:00,ZBYN 262200Z AUTO 14002KT 2 1/2SM 06/06 A2991 RMK T00600060 IEM_DS3505
ZBYN,1999-10-26 23:00,ZBYN 262300Z AUTO 10002KT 2SM 07/07 A2991 RMK T00700070 IEM_DS3505
ZBYN,1999-10-27 00:00,ZBYN 270000Z AUTO 00000KT 4SM 07/06 A2991 RMK SLP145 T00710060 57001 IEM_DS3505
ZBYN,1999-10-27 01:00,ZBYN 270100Z AUTO 00000KT 1 1/4SM 11/09 A2994 RMK T01100090 IEM_DS3505
ZBYN,1999-10-27 02:00,ZBYN 270200Z AUTO 00000KT 2 1/2SM 13/09 A2991 RMK T01300090 IEM_DS3505
ZBYN,1999-10-27 03:00,ZBYN 270300Z AUTO 00000KT 5SM 15/08 A2991 RMK SLP139 T01480079 54000 IEM_DS3505
ZBYN,1999-10-27 04:00,ZBYN 270400Z AUTO 00000KT 3SM 18/09 A2988 RMK T01800090 IEM_DS3505
ZBYN,1999-10-27 05:00,ZBYN 270500Z AUTO 21002KT 3SM 20/09 A2983 RMK T02000090 IEM_DS3505
ZBYN,1999-10-27 06:00,ZBYN 270600Z AUTO 20010KT 5SM 23/08 A2977 RMK SLP083 T02270079 57040 IEM_DS3505
ZBYN,1999-10-27 07:00,ZBYN 270700Z AUTO 25006KT 7SM 24/05 A2977 RMK T02400050 IEM_DS3505
ZBYN,1999-10-27 08:00,ZBYN 270800Z AUTO 24010KT 5SM 25/03 A2974 RMK T02500030 IEM_DS3505
ZBYN,1999-10-27 09:00,ZBYN 270900Z AUTO 29006KT 9SM 22/00 A2977 RMK SLP085 T02250005 57004 IEM_DS3505
ZBYN,1999-10-27 10:00,ZBYN 271000Z AUTO 31010KT 6SM 20/00 A2980 RMK T02000000 IEM_DS3505
ZBYN,1999-10-27 11:00,ZBYN 271100Z AUTO 33014KT 6SM 19/00 A2985 RMK T01900000 IEM_DS3505
ZBYN,1999-10-27 12:00,ZBYN 271200Z AUTO 00000KT 6SM 15/04 A2988 RMK SLP126 T01530036 52026 IEM_DS3505
ZBYN,1999-10-27 13:00,ZBYN 271300Z AUTO 31010KT 6SM 17/01 A2991 RMK T01700010 IEM_DS3505
ZBYN,1999-10-27 14:00,ZBYN 271400Z AUTO 32010KT 6SM 17/01 A2994 RMK T01700010 IEM_DS3505
ZBYN,1999-10-27 15:00,ZBYN 271500Z AUTO 29008KT 6SM 16/01 A2997 RMK SLP145 T01560011 52029 IEM_DS3505
ZBYN,1999-10-27 17:00,ZBYN 271700Z AUTO 29004KT 6SM 12/M01 A3000 RMK T01201010 IEM_DS3505
ZBYN,1999-10-27 18:00,ZBYN 271800Z AUTO 29004KT 6SM 11/M00 A3003 RMK SLP155 T01141001 52015 IEM_DS3505
ZBYN,1999-10-27 19:00,ZBYN 271900Z AUTO 30010KT 6SM 11/M01 A3003 RMK T01101010 IEM_DS3505
ZBYN,1999-10-27 20:00,ZBYN 272000Z AUTO 28006KT 6SM 11/M01 A3003 RMK T01101010 IEM_DS3505
ZBYN,1999-10-27 21:00,ZBYN 272100Z AUTO 36006KT 6SM 08/M04 A3006 RMK SLP180 T00851044 52018 IEM_DS3505
ZBYN,1999-10-27 22:00,ZBYN 272200Z AUTO 00000KT 6SM 06/M07 A3009 RMK T00601070 IEM_DS3505
ZBYN,1999-10-27 23:00,ZBYN 272300Z AUTO 28004KT 6SM 04/M08 A3009 RMK T00401080 IEM_DS3505
ZBYN,1999-10-28 00:00,ZBYN 280000Z AUTO 36004KT 9SM 06/M11 A3012 RMK SLP219 T00581110 52021 IEM_DS3505
ZBYN,1999-10-28 01:00,ZBYN 280100Z AUTO 32010KT 6SM 08/M11 A3012 RMK T00801110 IEM_DS3505
ZBYN,1999-10-28 02:00,ZBYN 280200Z AUTO 33010KT 6SM 09/M11 A3012 RMK T00901110 IEM_DS3505
ZBYN,1999-10-28 03:00,ZBYN 280300Z AUTO 34004KT 7SM 09/M12 A3012 RMK SLP215 T00901117 52002 IEM_DS3505
ZBYN,1999-10-28 04:00,ZBYN 280400Z AUTO 35008KT 6SM 12/M12 A3006 RMK T01201120 IEM_DS3505
ZBYN,1999-10-28 05:00,ZBYN 280500Z AUTO 34006KT 6SM 13/M11 A3006 RMK T01301110 IEM_DS3505
ZBYN,1999-10-28 06:00,ZBYN 280600Z AUTO 20002KT 9SM 14/M09 A3003 RMK SLP188 T01401087 57024 IEM_DS3505
ZBYN,1999-10-28 07:00,ZBYN 280700Z AUTO 32006KT 6SM 14/M09 A3003 RMK T01401090 IEM_DS3505
ZBYN,1999-10-28 08:00,ZBYN 280800Z AUTO 32016KT 6SM 14/M13 A3003 RMK T01401130 IEM_DS3505
ZBYN,1999-10-28 09:00,ZBYN 280900Z AUTO 32008KT 9SM 12/M11 A3003 RMK SLP190 T01201111 57005 IEM_DS3505
ZBYN,1999-10-28 10:00,ZBYN 281000Z AUTO 30008KT 6SM 10/M14 A3003 RMK T01001140 IEM_DS3505
ZBYN,1999-10-28 11:00,ZBYN 281100Z AUTO 29006KT 6SM 08/M14 A3006 RMK T00801140 IEM_DS3505
ZBYN,1999-10-28 12:00,ZBYN 281200Z AUTO 29004KT 11SM 08/M09 A3009 RMK SLP223 T00761092 52019 IEM_DS3505
ZBYN,1999-10-28 13:00,ZBYN 281300Z AUTO 29006KT 6SM 07/M13 A3012 RMK T00701130 IEM_DS3505
ZBYN,1999-10-28 14:00,ZBYN 281400Z AUTO 30006KT 6SM 06/M14 A3015 RMK T00601140 IEM_DS3505
ZBYN,1999-10-28 15:00,ZBYN 281500Z AUTO 00000KT 9SM 03/M08 A3018 RMK SLP244 T00341075 52017 IEM_DS3505
ZBYN,1999-10-28 16:00,ZBYN 281600Z AUTO 00000KT 6SM 02/M13 A3018 RMK T00201130 IEM_DS3505
ZBYN,1999-10-28 17:00,ZBYN 281700Z AUTO 32008KT 6SM 01/M14 A3018 RMK T00101140 IEM_DS3505
ZBYN,1999-10-28 18:00,ZBYN 281800Z AUTO 36004KT 9SM 03/M15 A3018 RMK SLP241 T00331150 52005 IEM_DS3505
ZBYN,1999-10-28 19:00,ZBYN 281900Z AUTO 35004KT 6SM 02/M17 A3018 RMK T00201170 IEM_DS3505
ZBYN,1999-10-28 20:00,ZBYN 282000Z AUTO 36006KT 6SM 01/M16 A3015 RMK T00101160 IEM_DS3505
ZBYN,1999-10-28 21:00,ZBYN 282100Z AUTO 02010KT 7SM 02/M16 A3015 RMK SLP241 T00201161 57005 IEM_DS3505
ZBYN,1999-10-28 22:00,ZBYN 282200Z AUTO 25002KT 6SM 01/M18 A3015 RMK T00101180 IEM_DS3505
ZBYN,1999-10-28 23:00,ZBYN 282300Z AUTO 32008KT 6SM 00/M17 A3018 RMK T00001170 IEM_DS3505
ZBYN,1999-10-29 00:00,ZBYN 290000Z AUTO 34006KT 11SM 02/M14 A3021 RMK SLP262 T00181137 52012 IEM_DS3505
ZBYN,1999-10-29 01:00,ZBYN 290100Z AUTO 34010KT 6SM 04/M19 A3021 RMK T00401190 IEM_DS3505
ZBYN,1999-10-29 02:00,ZBYN 290200Z AUTO 34010KT 6SM 06/M20 A3021 RMK T00601200 IEM_DS3505
ZBYN,1999-10-29 03:00,ZBYN 290300Z AUTO 34002KT 6SM 06/M13 A3018 RMK SLP263 T00641133 52001 IEM_DS3505
ZBYN,1999-10-29 04:00,ZBYN 290400Z AUTO 30002KT 6SM 08/M17 A3018 RMK T00801170 IEM_DS3505
ZBYN,1999-10-29 05:00,ZBYN 290500Z AUTO 22002KT 6SM 09/M16 A3012 RMK T00901160 IEM_DS3505
ZBYN,1999-10-29 06:00,ZBYN 290600Z AUTO 00000KT 6SM 11/M09 A3009 RMK SLP224 T01121086 57028 IEM_DS3505
ZBYN,1999-10-29 07:00,ZBYN 290700Z AUTO 00000KT 6SM 12/M14 A3009 RMK T01201140 IEM_DS3505
ZBYN,1999-10-29 08:00,ZBYN 290800Z AUTO 00000KT 6SM 12/M15 A3006 RMK T01201150 IEM_DS3505
ZBYN,1999-10-29 09:00,ZBYN 290900Z AUTO 00000KT 6SM 10/M04 A3006 RMK SLP229 T01041043 52002 IEM_DS3505
ZBYN,1999-10-29 10:00,ZBYN 291000Z AUTO 00000KT 09/M10 A3009 RMK T00901100 IEM_DS3505
ZBYN,1999-10-29 11:00,ZBYN 291100Z AUTO 00000KT 06/M08 A3009 RMK T00601080 IEM_DS3505
ZBYN,1999-10-29 12:00,ZBYN 291200Z AUTO 32004KT 6SM 06/M03 A3012 RMK SLP239 T00581034 52001 IEM_DS3505
ZBYN,1999-10-29 13:00,ZBYN 291300Z AUTO 06002KT 05/M07 A3012 RMK T00501070 IEM_DS3505
ZBYN,1999-10-29 14:00,ZBYN 291400Z AUTO 12002KT 03/M07 A3015 RMK T00301070 IEM_DS3505
ZBYN,1999-10-29 15:00,ZBYN 291500Z AUTO 00000KT 6SM 05/M08 A3015 RMK SLP245 T00481083 52011 IEM_DS3505
ZBYN,1999-10-29 16:00,ZBYN 291600Z AUTO 00000KT 6SM 03/M08 A3015 RMK T00301080 IEM_DS3505
ZBYN,1999-10-29 17:00,ZBYN 291700Z AUTO 00000KT 6SM 02/M07 A3015 RMK T00201070 IEM_DS3505
ZBYN,1999-10-29 18:00,ZBYN 291800Z AUTO 32004KT 6SM 04/M08 A3015 RMK SLP243 T00371084 52004 IEM_DS3505
ZBYN,1999-10-29 19:00,ZBYN 291900Z AUTO 00000KT 6SM 03/M06 A3015 RMK T00301060 IEM_DS3505
ZBYN,1999-10-29 21:00,ZBYN 292100Z AUTO 00000KT 6SM 05/M07 A3015 RMK SLP239 T00491072 57003 IEM_DS3505
ZBYN,1999-10-29 22:00,ZBYN 292200Z AUTO 00000KT 6SM 04/M04 A3015 RMK T00401040 IEM_DS3505
ZBYN,1999-10-29 23:00,ZBYN 292300Z AUTO 00000KT 5SM 04/M04 A3015 RMK T00401040 IEM_DS3505
ZBYN,1999-10-30 00:00,ZBYN 300000Z AUTO 32002KT 6SM 06/M08 A3018 RMK SLP257 T00581084 52011 IEM_DS3505
ZBYN,1999-10-30 01:00,ZBYN 300100Z AUTO 00000KT 2 1/2SM 06/M06 A3021 RMK T00601060 IEM_DS3505
ZBYN,1999-10-30 02:00,ZBYN 300200Z AUTO 00000KT 3SM 07/M08 A3021 RMK T00701080 IEM_DS3505
ZBYN,1999-10-30 03:00,ZBYN 300300Z AUTO 34004KT 6SM 09/M11 A3018 RMK SLP250 T00901111 57003 IEM_DS3505
ZBYN,1999-10-30 04:00,ZBYN 300400Z AUTO 00000KT 5SM 10/M15 A3015 RMK T01001150 IEM_DS3505
ZBYN,1999-10-30 05:00,ZBYN 300500Z AUTO 6SM 10/M11 A3015 RMK T01001110 IEM_DS3505
ZBYN,1999-10-30 06:00,ZBYN 300600Z AUTO 36002KT 5SM 10/M07 A3009 RMK SLP226 T01031071 57022 IEM_DS3505
ZBYN,1999-10-30 07:00,ZBYN 300700Z AUTO 08008KT 6SM 11/M09 A3009 RMK T01101090 IEM_DS3505
ZBYN,1999-10-30 08:00,ZBYN 300800Z AUTO 07008KT 6SM 10/M08 A3006 RMK T01001080 IEM_DS3505
ZBYN,1999-10-30 09:00,ZBYN 300900Z AUTO 00000KT 4SM 10/M03 A3009 RMK SLP216 T00951031 57008 IEM_DS3505
ZBYN,1999-10-30 10:00,ZBYN 301000Z AUTO 06008KT 7SM 08/M03 A3009 RMK T00801030 IEM_DS3505
ZBYN,1999-10-30 11:00,ZBYN 301100Z AUTO 06004KT 7SM 07/00 A3009 RMK T00700000 IEM_DS3505
ZBYN,1999-10-30 12:00,ZBYN 301200Z AUTO 00000KT 4SM 05/03 A3012 RMK 60004 SLP232 T00520031 52009 IEM_DS3505
ZBYN,1999-10-30 13:00,ZBYN 301300Z AUTO 32002KT 4SM 04/02 A3015 RMK T00400020 IEM_DS3505
ZBYN,1999-10-30 14:00,ZBYN 301400Z AUTO 04004KT 2 1/2SM 02/02 A3018 RMK T00200020 IEM_DS3505
ZBYN,1999-10-30 15:00,ZBYN 301500Z AUTO 32004KT 6SM 01/01 A3018 RMK SLP253 T00060006 52017 IEM_DS3505
ZBYN,1999-10-30 18:00,ZBYN 301800Z AUTO 00000KT 4SM 01/01 RMK 60020 SLP245 T00130010 57004 IEM_DS3505
ZBYN,1999-10-30 19:00,ZBYN 301900Z AUTO 00000KT 1SM 01/01 A3015 RMK T00100010 IEM_DS3505
ZBYN,1999-10-30 20:00,ZBYN 302000Z AUTO 00000KT 1SM 01/01 A3015 RMK T00100010 IEM_DS3505
ZBYN,1999-10-30 21:00,ZBYN 302100Z AUTO 02002KT 2 1/2SM 03/01 A3018 RMK 70021 SLP243 T00290009 57001 IEM_DS3505
ZBYN,1999-10-30 22:00,ZBYN 302200Z AUTO 00000KT 1 1/4SM 01/01 A3018 RMK T00100010 IEM_DS3505
ZBYN,1999-10-30 23:00,ZBYN 302300Z AUTO 15002KT 1 1/2SM 01/01 A3018 RMK T00100010 IEM_DS3505
ZBYN,1999-10-31 00:00,ZBYN 310000Z AUTO 00000KT 5SM 03/01 A3018 RMK 60000 SLP262 T00330011 52011 IEM_DS3505
ZBYN,1999-10-31 01:00,ZBYN 310100Z AUTO 00000KT 1SM 02/02 A3021 RMK T00200020 IEM_DS3505
ZBYN,1999-10-31 02:00,ZBYN 310200Z AUTO 00000KT 1SM 03/03 A3024 RMK T00300030 IEM_DS3505
ZBYN,1999-10-31 03:00,ZBYN 310300Z AUTO 04004KT 5SM 07/01 A3024 RMK SLP275 T00700010 52011 IEM_DS3505
ZBYN,1999-10-31 04:00,ZBYN 310400Z AUTO 32006KT 6SM 08/02 A3024 RMK T00800020 IEM_DS3505
ZBYN,1999-10-31 05:00,ZBYN 310500Z AUTO 27004KT 7SM 08/04 A3021 RMK T00800040 IEM_DS3505
ZBYN,1999-10-31 06:00,ZBYN 310600Z AUTO 32004KT 5SM 09/M01 RMK 60000 SLP256 T00931010 57013 IEM_DS3505
ZBYN,1999-10-31 07:00,ZBYN 310700Z AUTO 31006KT 7SM 09/01 A3018 RMK T00900010 IEM_DS3505
ZBYN,1999-10-31 08:00,ZBYN 310800Z AUTO 00000KT 4SM 08/04 A3021 RMK T00800040 IEM_DS3505
ZBYN,1999-10-31 09:00,ZBYN 310900Z AUTO 36002KT 11SM 08/01 A3024 RMK SLP269 T00800006 52013 IEM_DS3505
ZBYN,1999-10-31 10:00,ZBYN 311000Z AUTO 35002KT 7SM 07/02 A3027 RMK T00700020 IEM_DS3505
ZBYN,1999-10-31 11:00,ZBYN 311100Z AUTO 00000KT 6SM 05/03 A3030 RMK T00500030 IEM_DS3505
ZBYN,1999-10-31 12:00,ZBYN 311200Z AUTO 29006KT 9SM 06/M01 A3033 RMK 60000 SLP301 T00581008 52026 IEM_DS3505
ZBYN,1999-10-31 13:00,ZBYN 311300Z AUTO 29004KT 6SM 05/01 A3036 RMK T00500010 IEM_DS3505
ZBYN,1999-10-31 14:00,ZBYN 311400Z AUTO 28004KT 6SM 04/00 A3036 RMK T00400000 IEM_DS3505
ZBYN,1999-10-31 15:00,ZBYN 311500Z AUTO 27004KT 9SM 03/M01 A3036 RMK SLP318 T00291014 52017 IEM_DS3505
ZBYN,1999-10-31 16:00,ZBYN 311600Z AUTO 28002KT 6SM 03/00 A3036 RMK T00300000 IEM_DS3505
ZBYN,1999-10-31 17:00,ZBYN 311700Z AUTO 00000KT 6SM 01/M01 A3036 RMK T00101010 IEM_DS3505
ZBYN,1999-10-31 18:00,ZBYN 311800Z AUTO 00000KT 9SM 03/M03 A3036 RMK SLP307 T00321033 57006 IEM_DS3505
ZBYN,1999-10-31 19:00,ZBYN 311900Z AUTO 00000KT 6SM 02/M02 A3033 RMK T00201020 IEM_DS3505
ZBYN,1999-10-31 20:00,ZBYN 312000Z AUTO 32004KT 6SM 01/M02 A3036 RMK T00101020 IEM_DS3505
ZBYN,1999-10-31 21:00,ZBYN 312100Z AUTO 29002KT 6SM 03/M03 A3036 RMK T00301030 IEM_DS3505
ZBYN,1999-10-31 22:00,ZBYN 312200Z AUTO 00000KT 6SM M02/M02 A3036 RMK T10201020 IEM_DS3505
ZBYN,1999-10-31 23:00,ZBYN 312300Z AUTO 13006KT 2 1/2SM M02/M02 A3036 RMK T10201020 IEM_DS3505
ZBYN,1999-11-01 00:00,ZBYN 010000Z AUTO 14002KT 9SM 00/M03 A3039 RMK SLP328 T00041034 52012 IEM_DS3505
ZBYN,1999-11-01 01:00,ZBYN 010100Z AUTO 15002KT 4SM 02/00 A3039 RMK T00200000 IEM_DS3505
ZBYN,1999-11-01 02:00,ZBYN 010200Z AUTO 22002KT 4SM 04/00 A3039 RMK T00400000 IEM_DS3505
ZBYN,1999-11-01 03:00,ZBYN 010300Z AUTO 00000KT 12SM 08/M08 A3039 RMK SLP323 T00781085 52002 IEM_DS3505
ZBYN,1999-11-01 04:00,ZBYN 010400Z AUTO 30002KT 6SM 08/M04 A3036 RMK T00801040 IEM_DS3505
ZBYN,1999-11-01 05:00,ZBYN 010500Z AUTO 26006KT 6SM 09/M06 A3033 RMK T00901060 IEM_DS3505
ZBYN,1999-11-01 06:00,ZBYN 010600Z AUTO 34008KT 16SM 11/M08 A3030 RMK SLP300 T01081076 57015 IEM_DS3505
ZBYN,1999-11-01 07:00,ZBYN 010700Z AUTO 31008KT 6SM RMK IEM_DS3505
ZBYN,1999-11-01 08:00,ZBYN 010800Z AUTO 29010KT 6SM 10/M05 A3030 RMK T01001050 IEM_DS3505
ZBYN,1999-11-01 09:00,ZBYN 010900Z AUTO 29012KT 16SM 09/M07 A3030 RMK SLP292 T00921070 57010 IEM_DS3505
ZBYN,1999-11-01 10:00,ZBYN 011000Z AUTO 25004KT 6SM 07/M04 A3030 RMK T00701040 IEM_DS3505
ZBYN,1999-11-01 11:00,ZBYN 011100Z AUTO 28004KT 6SM 05/M05 A3033 RMK T00501050 IEM_DS3505
ZBYN,1999-11-01 12:00,ZBYN 011200Z AUTO 29004KT 16SM 05/M05 A3033 RMK SLP315 T00461053 52009 IEM_DS3505
ZBYN,1999-11-01 13:00,ZBYN 011300Z AUTO 31002KT 6SM 04/M04 A3036 RMK T00401040 IEM_DS3505
ZBYN,1999-11-01 14:00,ZBYN 011400Z AUTO 29002KT 6SM 03/M04 A3036 RMK T00301040 IEM_DS3505
ZBYN,1999-11-01 15:00,ZBYN 011500Z AUTO 32002KT 12SM 04/M04 A3036 RMK SLP313 T00361038 52008 IEM_DS3505
ZBYN,1999-11-01 16:00,ZBYN 011600Z AUTO 15002KT 6SM 00/M02 A3036 RMK T00001020 IEM_DS3505
ZBYN,1999-11-01 17:00,ZBYN 011700Z AUTO 00000KT 6SM 00/M02 A3036 RMK T00001020 IEM_DS3505
ZBYN,1999-11-01 18:00,ZBYN 011800Z AUTO 11002KT 12SM M01/M03 A3036 RMK SLP316 T10071031 52001 IEM_DS3505
ZBYN,1999-11-01 19:00,ZBYN 011900Z AUTO 10002KT 6SM M02/M03 A3036 RMK T10201030 IEM_DS3505
ZBYN,1999-11-01 20:00,ZBYN 012000Z AUTO 09002KT 6SM M02/M03 A3039 RMK T10201030 IEM_DS3505
ZBYN,1999-11-01 21:00,ZBYN 012100Z AUTO 00000KT 12SM M02/M03 A3036 RMK SLP322 T10191034 52001 IEM_DS3505
ZBYN,1999-11-01 22:00,ZBYN 012200Z AUTO 11002KT 6SM M03/M04 A3039 RMK T10301040 IEM_DS3505
ZBYN,1999-11-01 23:00,ZBYN 012300Z AUTO 11002KT 6SM M03/M04 A3039 RMK T10301040 IEM_DS3505
ZBYN,1999-11-02 00:00,ZBYN 020000Z AUTO 00000KT 5SM M01/M03 A3039 RMK SLP337 T10141031 52007 IEM_DS3505
ZBYN,1999-11-02 01:00,ZBYN 020100Z AUTO 12002KT 4SM 03/M01 A3042 RMK T00301010 IEM_DS3505
ZBYN,1999-11-02 02:00,ZBYN 020200Z AUTO 00000KT 6SM 05/M01 A3039 RMK T00501010 IEM_DS3505
ZBYN,1999-11-02 03:00,ZBYN 020300Z AUTO 16004KT 5SM 08/M02 RMK SLP324 T00821024 52002 IEM_DS3505
ZBYN,1999-11-02 05:00,ZBYN 020500Z AUTO 17002KT 6SM 10/M01 A3030 RMK T01001010 IEM_DS3505
ZBYN,1999-11-02 06:00,ZBYN 020600Z AUTO 18004KT 6SM 11/M03 A3027 RMK SLP290 T01141030 57033 IEM_DS3505
ZBYN,1999-11-02 07:00,ZBYN 020700Z AUTO 15004KT 6SM 11/M02 A3027 RMK T01101020 IEM_DS3505
ZBYN,1999-11-02 08:00,ZBYN 020800Z AUTO 20002KT 6SM 12/M02 A3024 RMK T01201020 IEM_DS3505
ZBYN,1999-11-02 09:00,ZBYN 020900Z AUTO 18002KT 7SM 10/M02 A3024 RMK SLP278 T01041024 57014 IEM_DS3505
ZBYN,1999-11-02 10:00,ZBYN 021000Z AUTO 12002KT 6SM 08/00 A3024 RMK T00800000 IEM_DS3505
ZBYN,1999-11-02 11:00,ZBYN 021100Z AUTO 09002KT 6SM 05/00 A3027 RMK T00500000 IEM_DS3505
ZBYN,1999-11-02 12:00,ZBYN 021200Z AUTO 29002KT 6SM 05/M01 A3027 RMK SLP295 T00521007 52008 IEM_DS3505
ZBYN,1999-11-02 13:00,ZBYN 021300Z AUTO 20002KT 6SM 02/00 A3027 RMK T00200000 IEM_DS3505
ZBYN,1999-11-02 14:00,ZBYN 021400Z AUTO 00000KT 6SM 01/M01 A3030 RMK T00101010 IEM_DS3505
ZBYN,1999-11-02 15:00,ZBYN 021500Z AUTO 00000KT 6SM 03/M01 A3030 RMK SLP295 T00321010 52012 IEM_DS3505
ZBYN,1999-11-02 16:00,ZBYN 021600Z AUTO 13002KT 6SM 00/M01 A3030 RMK T00001010 IEM_DS3505
ZBYN,1999-11-02 17:00,ZBYN 021700Z AUTO 09002KT 6SM 00/M01 A3030 RMK T00001010 IEM_DS3505
ZBYN,1999-11-02 18:00,ZBYN 021800Z AUTO 00000KT 5SM M01/M02 A3030 RMK SLP291 T10081019 57005 IEM_DS3505
ZBYN,1999-11-02 19:00,ZBYN 021900Z AUTO 06002KT 6SM M01/M02 A3030 RMK T10101020 IEM_DS3505
ZBYN,1999-11-02 20:00,ZBYN 022000Z AUTO 01002KT 6SM M01/M02 A3027 RMK T10101020 IEM_DS3505
ZBYN,1999-11-02 21:00,ZBYN 022100Z AUTO 00000KT 5SM M01/M02 A3030 RMK SLP291 T10131025 57002 IEM_DS3505
ZBYN,1999-11-02 22:00,ZBYN 022200Z AUTO 10002KT 6SM M02/M03 A3030 RMK T10201030 IEM_DS3505
ZBYN,1999-11-02 23:00,ZBYN 022300Z AUTO 00000KT 4SM M02/M02 A3030 RMK T10201020 IEM_DS3505
ZBYN,1999-11-03 00:00,ZBYN 030000Z AUTO 34002KT 1 1/4SM M01/M02 A3033 RMK SLP314 T10091018 52013 IEM_DS3505
ZBYN,1999-11-03 01:00,ZBYN 030100Z AUTO 00000KT 2 1/2SM 03/01 A3033 RMK T00300010 IEM_DS3505
ZBYN,1999-11-03 02:00,ZBYN 030200Z AUTO 17002KT 2 1/2SM 06/00 A3033 RMK T00600000 IEM_DS3505
ZBYN,1999-11-03 03:00,ZBYN 030300Z AUTO 00000KT 3SM 08/02 A3033 RMK SLP303 T00850018 52002 IEM_DS3505
ZBYN,1999-11-03 04:00,ZBYN 030400Z AUTO 21002KT 10/00 A3033 RMK T01000000 IEM_DS3505
ZBYN,1999-11-03 05:00,ZBYN 030500Z AUTO 6SM 11/M01 A3027 RMK T01101010 IEM_DS3505
ZBYN,1999-11-03 06:00,ZBYN 030600Z AUTO 16004KT 6SM 13/02 A3024 RMK SLP272 T01340025 57027 IEM_DS3505
ZBYN,1999-11-03 07:00,ZBYN 030700Z AUTO 13004KT 6SM 13/M03 A3021 RMK T01301030 IEM_DS3505
ZBYN,1999-11-03 08:00,ZBYN 030800Z AUTO 6SM 13/M03 A3021 RMK T01301030 IEM_DS3505
ZBYN,1999-11-03 09:00,ZBYN 030900Z AUTO 16002KT 6SM 12/02 RMK SLP261 T01180017 57013 IEM_DS3505
ZBYN,1999-11-03 10:00,ZBYN 031000Z AUTO 06002KT 6SM 09/M02 A3021 RMK T00901020 IEM_DS3505
ZBYN,1999-11-03 11:00,ZBYN 031100Z AUTO 10002KT 5SM 05/00 A3024 RMK T00500000 IEM_DS3505
ZBYN,1999-11-03 12:00,ZBYN 031200Z AUTO 00000KT 6SM 06/02 RMK SLP280 T00620017 52009 IEM_DS3505
ZBYN,1999-11-03 13:00,ZBYN 031300Z AUTO 13002KT 6SM 04/M01 A3024 RMK T00401010 IEM_DS3505
ZBYN,1999-11-03 14:00,ZBYN 031400Z AUTO 11002KT 6SM 03/M02 A3027 RMK T00301020 IEM_DS3505
ZBYN,1999-11-03 15:00,ZBYN 031500Z AUTO 32002KT 5SM 02/M00 A3027 RMK SLP278 T00251001 52007 IEM_DS3505
ZBYN,1999-11-03 16:00,ZBYN 031600Z AUTO 12002KT 6SM 00/M03 A3027 RMK T00001030 IEM_DS3505
ZBYN,1999-11-03 17:00,ZBYN 031700Z AUTO 08002KT 6SM 00/M03 A3027 RMK T00001030 IEM_DS3505
ZBYN,1999-11-03 18:00,ZBYN 031800Z AUTO 00000KT 6SM 01/M02 A3027 RMK SLP274 T00061016 52001 IEM_DS3505
ZBYN,1999-11-03 19:00,ZBYN 031900Z AUTO 03002KT 6SM M01/M02 A3027 RMK T10101020 IEM_DS3505
ZBYN,1999-11-03 21:00,ZBYN 032100Z AUTO 32002KT 6SM 01/M01 A3024 RMK SLP273 T00091007 57003 IEM_DS3505
ZBYN,1999-11-03 22:00,ZBYN 032200Z AUTO 00000KT 6SM M01/M02 A3024 RMK T10101020 IEM_DS3505
ZBYN,1999-11-03 23:00,ZBYN 032300Z AUTO 00000KT 3SM M03/M04 A3024 RMK T10301040 IEM_DS3505
ZBYN,1999-11-04 00:00,ZBYN 040000Z AUTO 00000KT 4SM 01/M01 A3027 RMK SLP282 T00131009 54000 IEM_DS3505
ZBYN,1999-11-04 03:00,ZBYN 040300Z AUTO 00000KT 4SM 10/00 RMK SLP272 T01020000 57001 IEM_DS3505
ZBYN,1999-11-04 04:00,ZBYN 040400Z AUTO 00000KT 2 1/2SM 12/01 A3021 RMK T01200010 IEM_DS3505
ZBYN,1999-11-04 05:00,ZBYN 040500Z AUTO 00000KT 14/00 A3015 RMK T01400000 IEM_DS3505
ZBYN,1999-11-04 06:00,ZBYN 040600Z AUTO 22004KT 4SM 17/02 A3012 RMK SLP228 T01690025 57032 IEM_DS3505
ZBYN,1999-11-04 07:00,ZBYN 040700Z AUTO 27004KT 6SM 16/M01 A3012 RMK T01601010 IEM_DS3505
ZBYN,1999-11-04 08:00,ZBYN 040800Z AUTO 00000KT 6SM 16/M01 A3009 RMK T01601010 IEM_DS3505
ZBYN,1999-11-04 09:00,ZBYN 040900Z AUTO 20002KT 5SM 15/04 A3009 RMK SLP221 T01490041 57009 IEM_DS3505
ZBYN,1999-11-04 10:00,ZBYN 041000Z AUTO 19002KT 5SM 14/02 A3009 RMK T01400020 IEM_DS3505
ZBYN,1999-11-04 11:00,ZBYN 041100Z AUTO 00000KT 12/03 A3012 RMK T01200030 IEM_DS3505
ZBYN,1999-11-04 12:00,ZBYN 041200Z AUTO 00000KT 6SM 10/04 A3012 RMK SLP232 T01040039 52003 IEM_DS3505
ZBYN,1999-11-04 13:00,ZBYN 041300Z AUTO 11002KT 5SM 08/03 A3012 RMK T00800030 IEM_DS3505
ZBYN,1999-11-04 15:00,ZBYN 041500Z AUTO 00000KT 6SM 10/04 RMK SLP218 T01010045 52001 IEM_DS3505
ZBYN,1999-11-04 18:00,ZBYN 041800Z AUTO 36002KT 6SM 08/04 RMK SLP208 T00800035 57002 IEM_DS3505
ZBYN,1999-11-04 21:00,ZBYN 042100Z AUTO 32002KT 6SM 06/03 RMK SLP213 T00590031 57002 IEM_DS3505
ZBYN,1999-11-04 22:00,ZBYN 042200Z AUTO 00000KT 6SM 04/03 A3009 RMK T00400030 IEM_DS3505
ZBYN,1999-11-04 23:00,ZBYN 042300Z AUTO 00000KT 2 1/2SM 04/03 A3009 RMK T00400030 IEM_DS3505
ZBYN,1999-11-05 00:00,ZBYN 050000Z AUTO 34002KT 4SM 06/03 A3012 RMK SLP226 T00590034 52005 IEM_DS3505
ZBYN,1999-11-05 01:00,ZBYN 050100Z AUTO 00000KT 2 1/2SM 08/04 A3012 RMK T00800040 IEM_DS3505
ZBYN,1999-11-05 02:00,ZBYN 050200Z AUTO 00000KT 12/05 A3012 RMK T01200050 IEM_DS3505
ZBYN,1999-11-05 03:00,ZBYN 050300Z AUTO 36002KT 5SM 14/05 A3009 RMK SLP208 T01400047 57005 IEM_DS3505
ZBYN,1999-11-05 04:00,ZBYN 050400Z AUTO 00000KT 15/05 A3009 RMK T01500050 IEM_DS3505
ZBYN,1999-11-05 05:00,ZBYN 050500Z AUTO 00000KT 7SM 17/04 A3006 RMK T01700040 IEM_DS3505
ZBYN,1999-11-05 06:00,ZBYN 050600Z AUTO 20002KT 5SM 19/07 A3003 RMK SLP179 T01920066 57021 IEM_DS3505
ZBYN,1999-11-05 07:00,ZBYN 050700Z AUTO 27002KT 6SM 19/05 A3000 RMK T01900050 IEM_DS3505
ZBYN,1999-11-05 08:00,ZBYN 050800Z AUTO 25006KT 6SM 18/05 A3000 RMK T01800050 IEM_DS3505
ZBYN,1999-11-05 09:00,ZBYN 050900Z AUTO 20008KT 6SM 18/06 A3003 RMK T01760063 IEM_DS3505
ZBYN,1999-11-05 10:00,ZBYN 051000Z AUTO 19002KT 4SM 14/06 A3003 RMK T01400063 IEM_DS3505
ZBYN,1999-11-05 11:00,ZBYN 051100Z AUTO 13002KT 15/06 A3006 RMK T01500060 IEM_DS3505
ZBYN,1999-11-05 12:00,ZBYN 051200Z AUTO 14004KT 6SM 14/06 A3009 RMK SLP203 T01430063 52014 IEM_DS3505
ZBYN,1999-11-05 13:00,ZBYN 051300Z AUTO 12004KT 6SM 13/04 A3009 RMK T01300040 IEM_DS3505
ZBYN,1999-11-05 14:00,ZBYN 051400Z AUTO 12006KT 5SM 12/04 A3012 RMK T01200040 IEM_DS3505
ZBYN,1999-11-05 15:00,ZBYN 051500Z AUTO 00000KT 6SM 11/05 A3009 RMK SLP203 T01100046 52007 IEM_DS3505
ZBYN,1999-11-05 17:00,ZBYN 051700Z AUTO 12004KT 4SM 09/04 A3009 RMK T00900040 IEM_DS3505
ZBYN,1999-11-05 18:00,ZBYN 051800Z AUTO 00000KT 6SM 09/03 A3009 RMK SLP196 T00870034 57002 IEM_DS3505
ZBYN,1999-11-05 19:00,ZBYN 051900Z AUTO 00000KT 4SM 08/04 A3009 RMK T00800040 IEM_DS3505
ZBYN,1999-11-05 20:00,ZBYN 052000Z AUTO 00000KT 4SM 06/04 A3009 RMK T00600040 IEM_DS3505
ZBYN,1999-11-05 21:00,ZBYN 052100Z AUTO 00000KT 6SM 06/03 A3009 RMK SLP198 T00640034 57004 IEM_DS3505
ZBYN,1999-11-05 22:00,ZBYN 052200Z AUTO 13004KT 3SM 04/03 A3009 RMK T00400030 IEM_DS3505
ZBYN,1999-11-05 23:00,ZBYN 052300Z AUTO 00000KT 2SM 05/03 A3009 RMK T00500030 IEM_DS3505
ZBYN,1999-11-06 00:00,ZBYN 060000Z AUTO 00000KT 2 1/2SM 05/04 A3012 RMK SLP214 T00520036 52008 IEM_DS3505
ZBYN,1999-11-06 01:00,ZBYN 060100Z AUTO 00000KT 1SM 07/05 A3012 RMK T00700050 IEM_DS3505
ZBYN,1999-11-06 02:00,ZBYN 060200Z AUTO 13002KT 1 1/4SM 10/06 A3012 RMK T01000060 IEM_DS3505
ZBYN,1999-11-06 03:00,ZBYN 060300Z AUTO 16002KT 2 1/2SM 11/04 A3012 RMK SLP212 T01130043 52002 IEM_DS3505
ZBYN,1999-11-06 04:00,ZBYN 060400Z AUTO 17002KT 1SM 14/07 A3009 RMK T01400070 IEM_DS3505
ZBYN,1999-11-06 05:00,ZBYN 060500Z AUTO 2SM 15/07 A3006 RMK T01500070 IEM_DS3505
ZBYN,1999-11-06 06:00,ZBYN 060600Z AUTO 16008KT 2 1/2SM 17/05 A3003 RMK SLP177 T01660049 57027 IEM_DS3505
ZBYN,1999-11-06 07:00,ZBYN 060700Z AUTO 24002KT 3SM 17/07 A3000 RMK T01700070 IEM_DS3505
ZBYN,1999-11-06 08:00,ZBYN 060800Z AUTO 22002KT 4SM 17/07 A3000 RMK T01700070 IEM_DS3505
ZBYN,1999-11-06 09:00,ZBYN 060900Z AUTO 18002KT 2 1/2SM 16/08 A3000 RMK SLP174 T01590077 57007 IEM_DS3505
ZBYN,1999-11-06 10:00,ZBYN 061000Z AUTO 00000KT 3SM 15/08 A3003 RMK T01500080 IEM_DS3505
ZBYN,1999-11-06 11:00,ZBYN 061100Z AUTO 30004KT 1 1/2SM 13/09 A3003 RMK T01300090 IEM_DS3505
ZBYN,1999-11-06 12:00,ZBYN 061200Z AUTO 34006KT 4SM 14/03 A3006 RMK SLP207 T01440031 52026 IEM_DS3505
ZBYN,1999-11-06 13:00,ZBYN 061300Z AUTO 33016KT 6SM 13/04 A3012 RMK T01300040 IEM_DS3505
ZBYN,1999-11-06 14:00,ZBYN 061400Z AUTO 34014KT 6SM 13/01 A3012 RMK T01300010 IEM_DS3505
ZBYN,1999-11-06 15:00,ZBYN 061500Z AUTO 02004KT 6SM 12/M00 A3015 RMK SLP225 T01161002 52021 IEM_DS3505
ZBYN,1999-11-06 16:00,ZBYN 061600Z AUTO 32006KT 6SM 10/00 A3018 RMK T01000000 IEM_DS3505
ZBYN,1999-11-06 17:00,ZBYN 061700Z AUTO 32006KT 6SM 10/M01 A3018 RMK T01001010 IEM_DS3505
ZBYN,1999-11-06 18:00,ZBYN 061800Z AUTO 29008KT 6SM 09/M04 A3018 RMK SLP228 T00911038 52007 IEM_DS3505
ZBYN,1999-11-06 19:00,ZBYN 061900Z AUTO 30006KT 6SM 08/M04 A3018 RMK T00801040 IEM_DS3505
ZBYN,1999-11-06 20:00,ZBYN 062000Z AUTO 31006KT 6SM 05/M03 A3018 RMK T00501030 IEM_DS3505
ZBYN,1999-11-06 21:00,ZBYN 062100Z AUTO 02004KT 6SM 06/M04 A3018 RMK SLP239 T00641036 52005 IEM_DS3505
ZBYN,1999-11-06 22:00,ZBYN 062200Z AUTO 35004KT 6SM 05/M03 A3018 RMK T00501030 IEM_DS3505
ZBYN,1999-11-06 23:00,ZBYN 062300Z AUTO 6SM 03/M03 A3021 RMK T00301030 IEM_DS3505
ZBYN,1999-11-07 00:00,ZBYN 070000Z AUTO 36004KT 11SM 07/M03 A3024 RMK SLP255 T00661030 52013 IEM_DS3505
ZBYN,1999-11-07 01:00,ZBYN 070100Z AUTO 32008KT 6SM 09/M02 A3024 RMK T00901020 IEM_DS3505
ZBYN,1999-11-07 02:00,ZBYN 070200Z AUTO 34008KT 6SM 10/M03 A3024 RMK T01001030 IEM_DS3505
ZBYN,1999-11-07 03:00,ZBYN 070300Z AUTO 36004KT 6SM 12/M04 A3024 RMK SLP248 T01231036 57002 IEM_DS3505
ZBYN,1999-11-07 04:00,ZBYN 070400Z AUTO 34006KT 6SM 14/M04 A3021 RMK T01401040 IEM_DS3505
ZBYN,1999-11-07 05:00,ZBYN 070500Z AUTO 36010KT 6SM 15/M04 A3018 RMK T01501040 IEM_DS3505
ZBYN,1999-11-07 06:00,ZBYN 070600Z AUTO 32004KT 6SM 15/M04 A3015 RMK SLP224 T01521041 57022 IEM_DS3505
ZBYN,1999-11-07 07:00,ZBYN 070700Z AUTO 34010KT 6SM 16/M04 A3015 RMK T01601040 IEM_DS3505
ZBYN,1999-11-07 08:00,ZBYN 070800Z AUTO 36010KT 6SM 16/M04 A3015 RMK T01601040 IEM_DS3505
ZBYN,1999-11-07 09:00,ZBYN 070900Z AUTO 36006KT 6SM 14/M06 A3015 RMK SLP231 T01401058 52001 IEM_DS3505
ZBYN,1999-11-07 10:00,ZBYN 071000Z AUTO 36004KT 6SM 12/M05 A3018 RMK T01201050 IEM_DS3505
ZBYN,1999-11-07 11:00,ZBYN 071100Z AUTO 32002KT 6SM 11/M05 A3021 RMK T01101050 IEM_DS3505
ZBYN,1999-11-07 12:00,ZBYN 071200Z AUTO 36006KT 6SM 11/M05 A3021 RMK SLP259 T01101053 52021 IEM_DS3505
ZBYN,1999-11-07 13:00,ZBYN 071300Z AUTO 36002KT 6SM 09/M05 A3024 RMK T00901050 IEM_DS3505
ZBYN,1999-11-07 14:00,ZBYN 071400Z AUTO 00000KT 6SM 05/M03 A3027 RMK T00501030 IEM_DS3505
ZBYN,1999-11-07 15:00,ZBYN 071500Z AUTO 36006KT 6SM 06/M02 A3027 RMK SLP272 T00581024 52013 IEM_DS3505
ZBYN,1999-11-07 16:00,ZBYN 071600Z AUTO 03004KT 6SM 04/M04 A3027 RMK T00401040 IEM_DS3505
ZBYN,1999-11-07 17:00,ZBYN 071700Z AUTO 10002KT 6SM 02/M03 A3027 RMK T00201030 IEM_DS3505
ZBYN,1999-11-07 18:00,ZBYN 071800Z AUTO 34004KT 6SM 05/M03 A3027 RMK SLP272 T00461027 52002 IEM_DS3505
ZBYN,1999-11-07 19:00,ZBYN 071900Z AUTO 00000KT 6SM 04/M02 A3030 RMK T00401020 IEM_DS3505
ZBYN,1999-11-07 20:00,ZBYN 072000Z AUTO 34004KT 6SM 04/M02 A3027 RMK T00401020 IEM_DS3505
ZBYN,1999-11-07 21:00,ZBYN 072100Z AUTO 34004KT 6SM 04/M04 A3027 RMK SLP273 T00391040 57002 IEM_DS3505
ZBYN,1999-11-07 22:00,ZBYN 072200Z AUTO 35006KT 6SM 04/M03 A3027 RMK T00401030 IEM_DS3505
ZBYN,1999-11-07 23:00,ZBYN 072300Z AUTO 36002KT 6SM 03/M02 A3027 RMK T00301020 IEM_DS3505
ZBYN,1999-11-08 00:00,ZBYN 080000Z AUTO 34006KT 6SM 03/M04 A3030 RMK SLP283 T00331038 52004 IEM_DS3505
ZBYN,1999-11-08 01:00,ZBYN 080100Z AUTO 33002KT 3SM 06/M01 A3030 RMK T00601010 IEM_DS3505
ZBYN,1999-11-08 02:00,ZBYN 080200Z AUTO 32004KT 6SM 08/M02 A3030 RMK T00801020 IEM_DS3505
ZBYN,1999-11-08 03:00,ZBYN 080300Z AUTO 32002KT 6SM 11/M04 A3027 RMK SLP250 T01081040 57027 IEM_DS3505
ZBYN,1999-11-08 04:00,ZBYN 080400Z AUTO 16002KT 6SM 13/00 A3024 RMK T01300000 IEM_DS3505
ZBYN,1999-11-08 05:00,ZBYN 080500Z AUTO 08002KT 6SM 13/00 A3021 RMK T01300000 IEM_DS3505
ZBYN,1999-11-08 06:00,ZBYN 080600Z AUTO 11004KT 6SM 15/M03 A3018 RMK SLP239 T01501029 57032 IEM_DS3505
ZBYN,1999-11-08 07:00,ZBYN 080700Z AUTO 00000KT 6SM 14/M01 A3015 RMK T01401010 IEM_DS3505
ZBYN,1999-11-08 08:00,ZBYN 080800Z AUTO 19002KT 6SM 15/M02 A3015 RMK T01501020 IEM_DS3505
ZBYN,1999-11-08 09:00,ZBYN 080900Z AUTO 00000KT 5SM 14/00 A3015 RMK SLP228 T01360004 57013 IEM_DS3505
ZBYN,1999-11-08 10:00,ZBYN 081000Z AUTO 00000KT 6SM 10/00 A3015 RMK T01000000 IEM_DS3505
ZBYN,1999-11-08 11:00,ZBYN 081100Z AUTO 08002KT 6SM 08/00 A3015 RMK T00800000 IEM_DS3505
ZBYN,1999-11-08 12:00,ZBYN 081200Z AUTO 00000KT 6SM 07/01 A3018 RMK SLP251 T00710014 52009 IEM_DS3505
ZBYN,1999-11-08 13:00,ZBYN 081300Z AUTO 13004KT 6SM 03/M01 A3018 RMK T00301010 IEM_DS3505
ZBYN,1999-11-08 14:00,ZBYN 081400Z AUTO 09002KT 6SM 04/01 A3021 RMK T00400010 IEM_DS3505
ZBYN,1999-11-08 15:00,ZBYN 081500Z AUTO 00000KT 6SM 03/M01 A3018 RMK SLP254 T00291011 52008 IEM_DS3505
ZBYN,1999-11-08 16:00,ZBYN 081600Z AUTO 13002KT 6SM 03/00 A3018 RMK T00300000 IEM_DS3505
ZBYN,1999-11-08 17:00,ZBYN 081700Z AUTO 12002KT 6SM 02/M01 A3018 RMK T00201010 IEM_DS3505
ZBYN,1999-11-08 18:00,ZBYN 081800Z AUTO 00000KT 7SM 01/M01 A3018 RMK SLP246 T00131014 57003 IEM_DS3505
ZBYN,1999-11-08 19:00,ZBYN 081900Z AUTO 00000KT 3SM 02/00 A3018 RMK T00200000 IEM_DS3505
ZBYN,1999-11-08 20:00,ZBYN 082000Z AUTO 08002KT 3SM 01/00 A3018 RMK T00100000 IEM_DS3505
ZBYN,1999-11-08 21:00,ZBYN 082100Z AUTO 00000KT 6SM 01/M01 A3018 RMK SLP242 T00091010 57006 IEM_DS3505
ZBYN,1999-11-08 22:00,ZBYN 082200Z AUTO 13002KT 3SM 01/M01 A3018 RMK T00101010 IEM_DS3505
ZBYN,1999-11-08 23:00,ZBYN 082300Z AUTO 13002KT 2SM 00/00 A3018 RMK T00000000 IEM_DS3505
ZBYN,1999-11-09 00:00,ZBYN 090000Z AUTO 00000KT 2 1/2SM 02/M01 A3018 RMK SLP256 T00191008 52004 IEM_DS3505
ZBYN,1999-11-09 01:00,ZBYN 090100Z AUTO 00000KT 1SM 04/02 A3021 RMK T00400020 IEM_DS3505
ZBYN,1999-11-09 02:00,ZBYN 090200Z AUTO 00000KT 1SM 07/02 A3018 RMK T00700020 IEM_DS3505
ZBYN,1999-11-09 03:00,ZBYN 090300Z AUTO 00000KT 2 1/2SM 09/00 A3018 RMK SLP250 T00920001 57001 IEM_DS3505
ZBYN,1999-11-09 04:00,ZBYN 090400Z AUTO 00000KT 2 1/2SM 10/02 A3015 RMK T01000020 IEM_DS3505
ZBYN,1999-11-09 05:00,ZBYN 090500Z AUTO 00000KT 3SM 11/02 A3012 RMK T01100020 IEM_DS3505
ZBYN,1999-11-09 06:00,ZBYN 090600Z AUTO 00000KT 2 1/2SM 12/02 A3009 RMK SLP218 T01200017 57027 IEM_DS3505
ZBYN,1999-11-09 07:00,ZBYN 090700Z AUTO 28002KT 2 1/2SM 11/03 A3009 RMK T01100030 IEM_DS3505
ZBYN,1999-11-09 08:00,ZBYN 090800Z AUTO 33008KT 4SM 10/05 A3009 RMK T01000050 IEM_DS3505
ZBYN,1999-11-09 09:00,ZBYN 090900Z AUTO 36002KT 2 1/2SM 10/03 A3009 RMK SLP226 T00970030 52003 IEM_DS3505
ZBYN,1999-11-09 10:00,ZBYN 091000Z AUTO 00000KT 4SM 09/05 A3009 RMK T00900050 IEM_DS3505
ZBYN,1999-11-09 11:00,ZBYN 091100Z AUTO 00000KT 3SM 09/05 A3009 RMK T00900050 IEM_DS3505
ZBYN,1999-11-09 12:00,ZBYN 091200Z AUTO 00000KT 4SM 08/04 RMK 60003 SLP229 T00800040 52002 IEM_DS3505
ZBYN,1999-11-09 13:00,ZBYN 091300Z AUTO 00000KT 2SM 08/05 A3012 RMK T00800050 IEM_DS3505
ZBYN,1999-11-09 14:00,ZBYN 091400Z AUTO 00000KT 2SM 08/06 A3009 RMK T00800060 IEM_DS3505
ZBYN,1999-11-09 15:00,ZBYN 091500Z AUTO 00000KT 4SM 08/04 A3012 RMK SLP218 T00790044 52001 IEM_DS3505
ZBYN,1999-11-09 16:00,ZBYN 091600Z AUTO 00000KT 2SM 08/06 A3009 RMK T00800060 IEM_DS3505
ZBYN,1999-11-09 17:00,ZBYN 091700Z AUTO 00000KT 2SM 08/05 A3009 RMK T00800050 IEM_DS3505
ZBYN,1999-11-09 18:00,ZBYN 091800Z AUTO 00000KT 4SM 08/04 A3009 RMK SLP204 T00750044 57009 IEM_DS3505
ZBYN,1999-11-09 19:00,ZBYN 091900Z AUTO 00000KT 2SM 08/06 A3006 RMK T00800060 IEM_DS3505
ZBYN,1999-11-09 20:00,ZBYN 092000Z AUTO 00000KT 3SM 07/06 A3003 RMK T00700060 IEM_DS3505
ZBYN,1999-11-09 21:00,ZBYN 092100Z AUTO 00000KT 4SM 07/04 RMK 70003 SLP195 T00730040 57012 IEM_DS3505
ZBYN,1999-11-10 00:00,ZBYN 100000Z AUTO 00000KT 2 1/2SM 07/04 A3003 RMK SLP197 T00670045 57002 IEM_DS3505
ZBYN,1999-11-10 01:00,ZBYN 100100Z AUTO 10002KT 1SM 08/06 A3003 RMK T00800060 IEM_DS3505
ZBYN,1999-11-10 03:00,ZBYN 100300Z AUTO 00000KT 3SM 08/04 A3003 RMK SLP198 T00830039 52003 IEM_DS3505
ZBYN,1999-11-10 05:00,ZBYN 100500Z AUTO 00000KT 1SM 10/06 A3000 RMK T01000060 IEM_DS3505
ZBYN,1999-11-10 06:00,ZBYN 100600Z AUTO 00000KT 3SM 09/06 RMK 60003 SLP179 T00890058 57017 IEM_DS3505
ZBYN,1999-11-10 07:00,ZBYN 100700Z AUTO 24002KT 3/8SM 08/08 A2997 RMK T00800080 IEM_DS3505
ZBYN,1999-11-10 08:00,ZBYN 100800Z AUTO 28002KT 3/8SM 08/08 A2997 RMK T00800080 IEM_DS3505
ZBYN,1999-11-10 09:00,ZBYN 100900Z AUTO 00000KT 1SM 08/07 A2994 RMK SLP174 T00760066 57007 IEM_DS3505
ZBYN,1999-11-10 10:00,ZBYN 101000Z AUTO 00000KT 3/8SM 07/07 A2997 RMK T00700070 IEM_DS3505
ZBYN,1999-11-10 11:00,ZBYN 101100Z AUTO 00000KT 3/8SM 07/07 A2997 RMK T00700070 IEM_DS3505
ZBYN,1999-11-10 12:00,ZBYN 101200Z AUTO 22002KT 1SM 07/07 A3000 RMK 60024 SLP182 T00700066 52006 IEM_DS3505
ZBYN,1999-11-10 13:00,ZBYN 101300Z AUTO 20002KT 1/2SM 06/06 A2997 RMK T00600060 IEM_DS3505
ZBYN,1999-11-10 14:00,ZBYN 101400Z AUTO 21002KT 1SM 06/06 A2997 RMK T00600060 IEM_DS3505
ZBYN,1999-11-10 15:00,ZBYN 101500Z AUTO 14002KT 2SM 06/06 A3000 RMK SLP181 T00610055 54000 IEM_DS3505
ZBYN,1999-11-10 16:00,ZBYN 101600Z AUTO 17002KT 1SM 05/05 A3000 RMK T00500050 IEM_DS3505
ZBYN,1999-11-10 17:00,ZBYN 101700Z AUTO 00000KT 1SM 05/05 A2997 RMK T00500050 IEM_DS3505
ZBYN,1999-11-10 18:00,ZBYN 101800Z AUTO 16002KT 1 1/4SM 06/05 A2997 RMK 60003 SLP181 T00560054 54000 IEM_DS3505
ZBYN,1999-11-10 19:00,ZBYN 101900Z AUTO 00000KT 1SM 05/05 A3000 RMK T00500050 IEM_DS3505
ZBYN,1999-11-10 20:00,ZBYN 102000Z AUTO 00000KT 1SM 05/05 A2997 RMK T00500050 IEM_DS3505
ZBYN,1999-11-10 21:00,ZBYN 102100Z AUTO 00000KT 2SM 04/04 A2997 RMK 70023 SLP185 T00420037 54000 IEM_DS3505
ZBYN,1999-11-10 22:00,ZBYN 102200Z AUTO 00000KT 3/8SM 04/04 A3000 RMK T00400040 IEM_DS3505
ZBYN,1999-11-10 23:00,ZBYN 102300Z AUTO 20002KT 1/4SM 04/04 A3000 RMK T00400040 IEM_DS3505
ZBYN,1999-11-11 00:00,ZBYN 110000Z AUTO 11004KT 2SM 04/03 A3003 RMK SLP197 T00390034 52009 IEM_DS3505
ZBYN,1999-11-11 01:00,ZBYN 110100Z AUTO 00000KT 1SM 04/04 A3003 RMK T00400040 IEM_DS3505
ZBYN,1999-11-11 02:00,ZBYN 110200Z AUTO 16002KT 1SM 05/05 A3003 RMK T00500050 IEM_DS3505
ZBYN,1999-11-11 03:00,ZBYN 110300Z AUTO 16004KT 2SM 06/04 A3000 RMK SLP197 T00550042 52001 IEM_DS3505
ZBYN,1999-11-11 05:00,ZBYN 110500Z AUTO 20002KT 2SM 10/06 A2997 RMK T01000060 IEM_DS3505
ZBYN,1999-11-11 06:00,ZBYN 110600Z AUTO 20006KT 5SM 12/04 A2994 RMK SLP162 T01170045 57023 IEM_DS3505
ZBYN,1999-11-11 07:00,ZBYN 110700Z AUTO 24006KT 13/06 A2991 RMK T01300060 IEM_DS3505
ZBYN,1999-11-11 08:00,ZBYN 110800Z AUTO 23004KT 5SM 13/07 A2991 RMK T01300070 IEM_DS3505
ZBYN,1999-11-11 09:00,ZBYN 110900Z AUTO 18006KT 6SM 12/04 A2991 RMK SLP157 T01220042 57006 IEM_DS3505
ZBYN,1999-11-11 10:00,ZBYN 111000Z AUTO 21002KT 1 1/2SM 11/07 A2994 RMK T01100070 IEM_DS3505
ZBYN,1999-11-11 11:00,ZBYN 111100Z AUTO 00000KT 2 1/2SM 09/06 A2997 RMK T00900060 IEM_DS3505
ZBYN,1999-11-11 12:00,ZBYN 111200Z AUTO 32002KT 4SM 08/05 A2997 RMK SLP183 T00760048 52016 IEM_DS3505
ZBYN,1999-11-11 13:00,ZBYN 111300Z AUTO 15002KT 2SM 05/05 A3000 RMK T00500050 IEM_DS3505
ZBYN,1999-11-11 14:00,ZBYN 111400Z AUTO 13004KT 2SM 06/05 A3003 RMK T00600050 IEM_DS3505
ZBYN,1999-11-11 15:00,ZBYN 111500Z AUTO 11004KT 4SM 05/04 A3003 RMK SLP200 T00480037 52014 IEM_DS3505
ZBYN,1999-11-11 16:00,ZBYN 111600Z AUTO 12002KT 2SM 04/03 A3003 RMK T00400030 IEM_DS3505
ZBYN,1999-11-11 17:00,ZBYN 111700Z AUTO 09002KT 2SM 03/03 A3003 RMK T00300030 IEM_DS3505
ZBYN,1999-11-11 18:00,ZBYN 111800Z AUTO 00000KT 6SM 03/02 A3003 RMK SLP193 T00290022 54000 IEM_DS3505
ZBYN,1999-11-11 19:00,ZBYN 111900Z AUTO 11004KT 2SM 01/01 A3003 RMK T00100010 IEM_DS3505
ZBYN,1999-11-11 20:00,ZBYN 112000Z AUTO 11002KT 2SM 01/01 A3003 RMK T00100010 IEM_DS3505
ZBYN,1999-11-11 21:00,ZBYN 112100Z AUTO 00000KT 2 1/2SM 01/01 A3006 RMK SLP209 T00140011 52013 IEM_DS3505
ZBYN,1999-11-11 22:00,ZBYN 112200Z AUTO 00000KT 3SM 01/01 A3009 RMK T00100010 IEM_DS3505
ZBYN,1999-11-11 23:00,ZBYN 112300Z AUTO 12002KT 3SM 00/00 A3009 RMK T00000000 IEM_DS3505
ZBYN,1999-11-12 00:00,ZBYN 120000Z AUTO 00000KT 3/8SM M00/M00 A3012 RMK SLP234 T10031003 52013 IEM_DS3505
ZBYN,1999-11-12 01:00,ZBYN 120100Z AUTO 00000KT 1 1/4SM 04/03 A3012 RMK T00400030 IEM_DS3505
ZBYN,1999-11-12 02:00,ZBYN 120200Z AUTO 19002KT 1 1/4SM 07/04 A3012 RMK T00700040 IEM_DS3505
ZBYN,1999-11-12 03:00,ZBYN 120300Z AUTO 09004KT 2 1/2SM 09/02 A3012 RMK SLP225 T00910023 52002 IEM_DS3505
ZBYN,1999-11-12 04:00,ZBYN 120400Z AUTO 14002KT 3SM 12/04 A3009 RMK T01200040 IEM_DS3505
ZBYN,1999-11-12 05:00,ZBYN 120500Z AUTO 17002KT 13/04 A3006 RMK T01300040 IEM_DS3505
ZBYN,1999-11-12 06:00,ZBYN 120600Z AUTO 18002KT 4SM 15/03 A3003 RMK SLP199 T01500031 57017 IEM_DS3505
ZBYN,1999-11-12 07:00,ZBYN 120700Z AUTO 10002KT 6SM 15/02 A3000 RMK T01500020 IEM_DS3505
ZBYN,1999-11-12 08:00,ZBYN 120800Z AUTO 00000KT 6SM 16/M01 A3000 RMK T01601010 IEM_DS3505
ZBYN,1999-11-12 09:00,ZBYN 120900Z AUTO 20002KT 6SM 15/03 A3000 RMK SLP193 T01460026 57009 IEM_DS3505
ZBYN,1999-11-12 10:00,ZBYN 121000Z AUTO 00000KT 6SM 11/02 A3000 RMK T01100020 IEM_DS3505
ZBYN,1999-11-12 11:00,ZBYN 121100Z AUTO 10002KT 6SM 07/03 A3003 RMK T00700030 IEM_DS3505
ZBYN,1999-11-12 12:00,ZBYN 121200Z AUTO 00000KT 6SM 08/03 A3003 RMK SLP208 T00840027 52002 IEM_DS3505
ZBYN,1999-11-12 13:00,ZBYN 121300Z AUTO 13004KT 6SM 05/01 A3003 RMK T00500010 IEM_DS3505
ZBYN,1999-11-12 14:00,ZBYN 121400Z AUTO 00000KT 6SM 04/01 A3006 RMK T00400010 IEM_DS3505
ZBYN,1999-11-12 15:00,ZBYN 121500Z AUTO 00000KT 6SM 06/02 RMK SLP199 T00610016 52003 IEM_DS3505
ZBYN,1999-11-12 16:00,ZBYN 121600Z AUTO 00000KT 6SM 03/01 A3003 RMK T00300010 IEM_DS3505
ZBYN,1999-11-12 17:00,ZBYN 121700Z AUTO 35002KT 6SM 03/01 A3003 RMK T00300010 IEM_DS3505
ZBYN,1999-11-12 18:00,ZBYN 121800Z AUTO 00000KT 6SM 05/M00 A3003 RMK SLP191 T00511002 54000 IEM_DS3505
ZBYN,1999-11-12 19:00,ZBYN 121900Z AUTO 11004KT 4SM 02/01 A3003 RMK T00200010 IEM_DS3505
ZBYN,1999-11-12 20:00,ZBYN 122000Z AUTO 31002KT 4SM 03/01 A3003 RMK T00300010 IEM_DS3505
ZBYN,1999-11-12 21:00,ZBYN 122100Z AUTO 00000KT 6SM 04/M00 A3003 RMK SLP189 T00351004 57005 IEM_DS3505
ZBYN,1999-11-12 22:00,ZBYN 122200Z AUTO 10002KT 5SM 03/00 A3003 RMK T00300000 IEM_DS3505
ZBYN,1999-11-12 23:00,ZBYN 122300Z AUTO 00000KT 5SM 01/00 A3003 RMK T00100000 IEM_DS3505
ZBYN,1999-11-13 00:00,ZBYN 130000Z AUTO 32002KT 4SM 03/M00 A3003 RMK SLP204 T00291005 52003 IEM_DS3505
ZBYN,1999-11-13 01:00,ZBYN 130100Z AUTO 00000KT 1SM 05/02 A3006 RMK T00500020 IEM_DS3505
ZBYN,1999-11-13 02:00,ZBYN 130200Z AUTO 14004KT 3SM 10/03 A3003 RMK T01000030 IEM_DS3505
ZBYN,1999-11-13 03:00,ZBYN 130300Z AUTO 11002KT 5SM 13/M01 A3003 RMK SLP192 T01261009 52001 IEM_DS3505
ZBYN,1999-11-13 04:00,ZBYN 130400Z AUTO 00000KT 6SM 13/02 A3000 RMK T01300020 IEM_DS3505
ZBYN,1999-11-13 05:00,ZBYN 130500Z AUTO 15002KT 6SM 14/03 A2997 RMK T01400030 IEM_DS3505
ZBYN,1999-11-13 06:00,ZBYN 130600Z AUTO 18006KT 5SM 15/M00 A2997 RMK SLP158 T01541002 57029 IEM_DS3505
ZBYN,1999-11-13 07:00,ZBYN 130700Z AUTO 21004KT 6SM 15/01 A2994 RMK T01500010 IEM_DS3505
ZBYN,1999-11-13 08:00,ZBYN 130800Z AUTO 27002KT 14/03 A2997 RMK T01400030 IEM_DS3505
ZBYN,1999-11-13 09:00,ZBYN 130900Z AUTO 14004KT 5SM 13/03 A2997 RMK SLP169 T01260026 52004 IEM_DS3505
ZBYN,1999-11-13 10:00,ZBYN 131000Z AUTO 10004KT 12/05 A2997 RMK T01200050 IEM_DS3505
ZBYN,1999-11-13 11:00,ZBYN 131100Z AUTO 15023KT 2 1/2SM 12/05 A3000 RMK T01200050 IEM_DS3505
ZBYN,1999-11-13 12:00,ZBYN 131200Z AUTO 00000KT 5SM 11/04 A3003 RMK 60003 SLP195 T01100042 52020 IEM_DS3505
ZBYN,1999-11-13 13:00,ZBYN 131300Z AUTO 00000KT 2 1/2SM 10/07 A3006 RMK T01000070 IEM_DS3505
ZBYN,1999-11-13 14:00,ZBYN 131400Z AUTO 02002KT 2SM 10/07 A3006 RMK T01000070 IEM_DS3505
ZBYN,1999-11-13 15:00,ZBYN 131500Z AUTO 34002KT 5SM 09/07 A3009 RMK SLP198 T00890068 52014 IEM_DS3505
ZBYN,1999-11-13 16:00,ZBYN 131600Z AUTO 11002KT 1 1/2SM 08/07 A3006 RMK T00800070 IEM_DS3505
ZBYN,1999-11-13 17:00,ZBYN 131700Z AUTO 13002KT 1 1/2SM 08/07 A3009 RMK T00800070 IEM_DS3505
ZBYN,1999-11-13 18:00,ZBYN 131800Z AUTO 00000KT 5SM 08/06 A3009 RMK 60004 SLP204 T00790064 52009 IEM_DS3505
ZBYN,1999-11-13 19:00,ZBYN 131900Z AUTO 00000KT 1 1/4SM 07/07 A3009 RMK T00700070 IEM_DS3505
ZBYN,1999-11-13 20:00,ZBYN 132000Z AUTO 01014KT 6SM 08/04 A3015 RMK T00800040 IEM_DS3505
ZBYN,1999-11-13 21:00,ZBYN 132100Z AUTO 02012KT 5SM 07/05 A3015 RMK 70004 SLP227 T00680051 52015 IEM_DS3505
ZBYN,1999-11-13 22:00,ZBYN 132200Z AUTO 34012KT 6SM 07/01 A3015 RMK T00700010 IEM_DS3505
ZBYN,1999-11-13 23:00,ZBYN 132300Z AUTO 36006KT 6SM 05/00 A3021 RMK T00500000 IEM_DS3505
ZBYN,1999-11-14 00:00,ZBYN 140000Z AUTO 36014KT 6SM 05/M02 A3024 RMK SLP265 T00481025 52029 IEM_DS3505
ZBYN,1999-11-14 01:00,ZBYN 140100Z AUTO 35010KT 6SM 05/M01 A3027 RMK T00501010 IEM_DS3505
ZBYN,1999-11-14 02:00,ZBYN 140200Z AUTO 35012KT 6SM 06/M03 A3027 RMK T00601030 IEM_DS3505
ZBYN,1999-11-14 03:00,ZBYN 140300Z AUTO 34010KT 11SM 07/M08 A3027 RMK SLP279 T00731075 52013 IEM_DS3505
ZBYN,1999-11-14 04:00,ZBYN 140400Z AUTO 34014KT 6SM 09/M04 A3027 RMK T00901040 IEM_DS3505
ZBYN,1999-11-14 05:00,ZBYN 140500Z AUTO 33012KT 6SM 10/M04 A3024 RMK T01001040 IEM_DS3505
ZBYN,1999-11-14 06:00,ZBYN 140600Z AUTO 36010KT 11SM 10/M07 A3021 RMK SLP268 T00951069 57008 IEM_DS3505
ZBYN,1999-11-14 07:00,ZBYN 140700Z AUTO 35012KT 6SM 11/M06 A3021 RMK T01101060 IEM_DS3505
ZBYN,1999-11-14 08:00,ZBYN 140800Z AUTO 35010KT 6SM 11/M06 A3021 RMK T01101060 IEM_DS3505
ZBYN,1999-11-14 09:00,ZBYN 140900Z AUTO 36006KT 9SM 08/M09 A3024 RMK SLP268 T00841087 57004 IEM_DS3505
ZBYN,1999-11-14 10:00,ZBYN 141000Z AUTO 36008KT 6SM 06/M07 A3027 RMK T00601070 IEM_DS3505
ZBYN,1999-11-14 11:00,ZBYN 141100Z AUTO 02002KT 6SM 04/M07 A3030 RMK T00401070 IEM_DS3505
ZBYN,1999-11-14 12:00,ZBYN 141200Z AUTO 34006KT 6SM 05/M10 A3030 RMK SLP297 T00481099 52018 IEM_DS3505
ZBYN,1999-11-14 13:00,ZBYN 141300Z AUTO 07004KT 6SM 04/01 A3033 RMK T00400010 IEM_DS3505
ZBYN,1999-11-14 14:00,ZBYN 141400Z AUTO 00000KT 6SM 03/01 A3036 RMK T00300010 IEM_DS3505
ZBYN,1999-11-14 15:00,ZBYN 141500Z AUTO 34004KT 6SM 02/ A3036 RMK SLP316 52017 IEM_DS3505
ZBYN,1999-11-14 16:00,ZBYN 141600Z AUTO 03008KT 6SM 03/01 A3036 RMK T00300010 IEM_DS3505
ZBYN,1999-11-14 17:00,ZBYN 141700Z AUTO 36002KT 6SM 02/01 A3036 RMK T00200010 IEM_DS3505
ZBYN,1999-11-14 18:00,ZBYN 141800Z AUTO 34004KT 6SM 02/M08 A3036 RMK SLP313 T00201076 52001 IEM_DS3505
ZBYN,1999-11-14 19:00,ZBYN 141900Z AUTO 04008KT 6SM 03/00 A3036 RMK T00300000 IEM_DS3505
ZBYN,1999-11-14 20:00,ZBYN 142000Z AUTO 04006KT 6SM 03/00 A3036 RMK T00300000 IEM_DS3505
ZBYN,1999-11-14 21:00,ZBYN 142100Z AUTO 34006KT 6SM 02/M07 A3039 RMK SLP319 T00231072 52004 IEM_DS3505
ZBYN,1999-11-14 22:00,ZBYN 142200Z AUTO 06006KT 6SM 03/M01 A3039 RMK T00301010 IEM_DS3505
ZBYN,1999-11-14 23:00,ZBYN 142300Z AUTO 07008KT 6SM 03/00 A3042 RMK T00300000 IEM_DS3505
ZBYN,1999-11-15 00:00,ZBYN 150000Z AUTO 32002KT 5SM 02/M07 A3042 RMK SLP336 T00251069 52010 IEM_DS3505
ZBYN,1999-11-15 01:00,ZBYN 150100Z AUTO 07010KT 6SM 02/M01 A3042 RMK T00201010 IEM_DS3505
ZBYN,1999-11-15 02:00,ZBYN 150200Z AUTO 07008KT 7SM 02/M01 A3042 RMK T00201010 IEM_DS3505
ZBYN,1999-11-15 03:00,ZBYN 150300Z AUTO 29002KT 4SM 03/M04 A3045 RMK SLP348 T00341044 52007 IEM_DS3505
ZBYN,1999-11-15 04:00,ZBYN 150400Z AUTO 09008KT 7SM 03/M01 A3042 RMK T00301010 IEM_DS3505
ZBYN,1999-11-15 05:00,ZBYN 150500Z AUTO 10008KT 7SM 04/00 A3039 RMK T00400000 IEM_DS3505
ZBYN,1999-11-15 06:00,ZBYN 150600Z AUTO 14004KT 4SM 04/M02 A3036 RMK SLP325 T00411018 57019 IEM_DS3505
ZBYN,1999-11-15 07:00,ZBYN 150700Z AUTO 10008KT 6SM 05/01 A3036 RMK T00500010 IEM_DS3505
ZBYN,1999-11-15 08:00,ZBYN 150800Z AUTO 12010KT 6SM 05/01 A3036 RMK T00500010 IEM_DS3505
ZBYN,1999-11-15 09:00,ZBYN 150900Z AUTO 16004KT 4SM 04/M01 A3036 RMK SLP323 T00371010 57002 IEM_DS3505
ZBYN,1999-11-15 10:00,ZBYN 151000Z AUTO 10008KT 6SM 02/00 A3039 RMK T00200000 IEM_DS3505
ZBYN,1999-11-15 11:00,ZBYN 151100Z AUTO 10008KT 6SM 01/M01 A3042 RMK T00101010 IEM_DS3505
ZBYN,1999-11-15 12:00,ZBYN 151200Z AUTO 00000KT 6SM 00/M02 A3042 RMK SLP348 T00031017 52017 IEM_DS3505
ZBYN,1999-11-15 13:00,ZBYN 151300Z AUTO 08002KT 6SM 02/00 A3042 RMK T00200000 IEM_DS3505
ZBYN,1999-11-15 14:00,ZBYN 151400Z AUTO 04002KT 3SM 02/00 A3045 RMK T00200000 IEM_DS3505
ZBYN,1999-11-15 15:00,ZBYN 151500Z AUTO 00000KT 6SM M01/M02 A3045 RMK SLP355 T10071015 52007 IEM_DS3505
ZBYN,1999-11-15 16:00,ZBYN 151600Z AUTO 00000KT 2 1/2SM 01/01 A3045 RMK T00100010 IEM_DS3505
ZBYN,1999-11-15 17:00,ZBYN 151700Z AUTO 00000KT 2 1/2SM 01/00 A3045 RMK T00100000 IEM_DS3505
ZBYN,1999-11-15 18:00,ZBYN 151800Z AUTO 00000KT 6SM M01/M02 A3045 RMK SLP358 T10121018 52003 IEM_DS3505
ZBYN,1999-11-15 19:00,ZBYN 151900Z AUTO 00000KT 2SM M01/M01 A3045 RMK T10101010 IEM_DS3505
ZBYN,1999-11-15 20:00,ZBYN 152000Z AUTO 00000KT 2SM M01/M01 A3042 RMK T10101010 IEM_DS3505
ZBYN,1999-11-15 21:00,ZBYN 152100Z AUTO 34002KT 6SM M01/M02 A3042 RMK SLP346 T10101020 57012 IEM_DS3505
ZBYN,1999-11-15 22:00,ZBYN 152200Z AUTO 24002KT 1SM M01/M01 A3045 RMK T10101010 IEM_DS3505
ZBYN,1999-11-15 23:00,ZBYN 152300Z AUTO 04002KT 1SM M01/M01 A3045 RMK T10101010 IEM_DS3505
ZBYN,1999-11-16 00:00,ZBYN 160000Z AUTO 02002KT 1SM 01/M03 A3045 RMK SLP359 T00091026 52010 IEM_DS3505
ZBYN,1999-11-16 01:00,ZBYN 160100Z AUTO 22002KT 1SM 01/00 A3045 RMK T00100000 IEM_DS3505
ZBYN,1999-11-16 02:00,ZBYN 160200Z AUTO 00000KT 1SM 02/01 A3045 RMK T00200010 IEM_DS3505
ZBYN,1999-11-16 03:00,ZBYN 160300Z AUTO 18004KT 2SM 02/M01 A3045 RMK SLP358 T00251007 54000 IEM_DS3505
ZBYN,1999-11-16 04:00,ZBYN 160400Z AUTO 27002KT 1SM 04/01 A3042 RMK T00400010 IEM_DS3505
ZBYN,1999-11-16 05:00,ZBYN 160500Z AUTO 00000KT 1SM 05/01 A3039 RMK T00500010 IEM_DS3505
ZBYN,1999-11-16 06:00,ZBYN 160600Z AUTO 22004KT 2SM 05/M00 A3036 RMK SLP327 T00521001 57025 IEM_DS3505
ZBYN,1999-11-16 07:00,ZBYN 160700Z AUTO 21004KT 1 1/4SM 06/02 A3033 RMK T00600020 IEM_DS3505
ZBYN,1999-11-16 08:00,ZBYN 160800Z AUTO 21004KT 1 1/4SM 06/02 A3033 RMK T00600020 IEM_DS3505
ZBYN,1999-11-16 09:00,ZBYN 160900Z AUTO 16006KT 3SM 05/M00 A3033 RMK SLP311 T00521001 57014 IEM_DS3505
ZBYN,1999-11-16 10:00,ZBYN 161000Z AUTO 13002KT 2SM 03/01 A3033 RMK T00300010 IEM_DS3505
ZBYN,1999-11-16 11:00,ZBYN 161100Z AUTO 13004KT 2SM 02/01 A3036 RMK T00200010 IEM_DS3505
ZBYN,1999-11-16 12:00,ZBYN 161200Z AUTO 14004KT 4SM 01/M01 A3036 RMK SLP327 T00131009 52011 IEM_DS3505
ZBYN,1999-11-16 13:00,ZBYN 161300Z AUTO 14004KT 1 1/2SM 00/M01 A3036 RMK T00001010 IEM_DS3505
ZBYN,1999-11-16 14:00,ZBYN 161400Z AUTO 16002KT 2SM 01/00 A3036 RMK T00100000 IEM_DS3505
ZBYN,1999-11-16 15:00,ZBYN 161500Z AUTO 11004KT 4SM M00/M02 A3039 RMK SLP339 T10041018 52011 IEM_DS3505
ZBYN,1999-11-16 16:00,ZBYN 161600Z AUTO 00000KT 1 1/4SM M01/M01 A3039 RMK T10101010 IEM_DS3505
ZBYN,1999-11-16 17:00,ZBYN 161700Z AUTO 00000KT 1SM M01/M01 A3039 RMK T10101010 IEM_DS3505
ZBYN,1999-11-16 18:00,ZBYN 161800Z AUTO 07004KT 4SM M02/M02 A3036 RMK SLP335 T10151018 57001 IEM_DS3505
ZBYN,1999-11-16 19:00,ZBYN 161900Z AUTO 00000KT 1SM M01/M01 A3039 RMK T10101010 IEM_DS3505
ZBYN,1999-11-16 20:00,ZBYN 162000Z AUTO 00000KT 4SM M01/M02 A3036 RMK T10101020 IEM_DS3505
ZBYN,1999-11-16 21:00,ZBYN 162100Z AUTO 32002KT 6SM 01/M08 A3036 RMK SLP328 T00091076 57002 IEM_DS3505
ZBYN,1999-11-16 22:00,ZBYN 162200Z AUTO 24002KT 6SM 00/M05 A3039 RMK T00001050 IEM_DS3505
ZBYN,1999-11-16 23:00,ZBYN 162300Z AUTO 21002KT 6SM 00/M06 A3039 RMK T00001060 IEM_DS3505
ZBYN,1999-11-17 00:00,ZBYN 170000Z AUTO 32010KT 12SM 01/M10 A3042 RMK SLP346 T00101102 52010 IEM_DS3505
ZBYN,1999-11-17 01:00,ZBYN 170100Z AUTO 30008KT 6SM 02/M06 A3045 RMK T00201060 IEM_DS3505
ZBYN,1999-11-17 02:00,ZBYN 170200Z AUTO 32008KT 6SM 04/M09 A3045 RMK T00401090 IEM_DS3505
ZBYN,1999-11-17 03:00,ZBYN 170300Z AUTO 36004KT 9SM 05/M13 A3045 RMK SLP349 T00541133 52007 IEM_DS3505
ZBYN,1999-11-17 04:00,ZBYN 170400Z AUTO 24002KT 6SM 06/M09 A3042 RMK T00601090 IEM_DS3505
ZBYN,1999-11-17 05:00,ZBYN 170500Z AUTO 23002KT 6SM 07/M08 A3039 RMK T00701080 IEM_DS3505
ZBYN,1999-11-17 06:00,ZBYN 170600Z AUTO 18006KT 7SM 08/M10 A3036 RMK SLP328 T00781100 57017 IEM_DS3505
ZBYN,1999-11-17 08:00,ZBYN 170800Z AUTO 24008KT 6SM 08/M07 A3033 RMK T00801070 IEM_DS3505
ZBYN,1999-11-17 09:00,ZBYN 170900Z AUTO 18008KT 7SM 07/M10 A3033 RMK SLP307 T00681095 57017 IEM_DS3505
ZBYN,1999-11-17 10:00,ZBYN 171000Z AUTO 00000KT 6SM 06/M08 A3033 RMK T00601080 IEM_DS3505
ZBYN,1999-11-17 11:00,ZBYN 171100Z AUTO 00000KT 6SM 02/M07 A3033 RMK T00201070 IEM_DS3505
ZBYN,1999-11-17 12:00,ZBYN 171200Z AUTO 09002KT 9SM 02/M07 A3036 RMK SLP322 T00211071 52006 IEM_DS3505
ZBYN,1999-11-17 13:00,ZBYN 171300Z AUTO 09002KT 6SM M01/M06 A3036 RMK T10101060 IEM_DS3505
ZBYN,1999-11-17 14:00,ZBYN 171400Z AUTO 09002KT 6SM M02/M06 A3033 RMK T10201060 IEM_DS3505
ZBYN,1999-11-17 15:00,ZBYN 171500Z AUTO 14002KT 9SM M02/M07 RMK SLP322 T10241072 54000 IEM_DS3505
ZBYN,1999-11-17 16:00,ZBYN 171600Z AUTO 08002KT 6SM M04/M07 A3033 RMK T10401070 IEM_DS3505
ZBYN,1999-11-17 17:00,ZBYN 171700Z AUTO 09002KT 6SM M03/M07 A3030 RMK T10301070 IEM_DS3505
ZBYN,1999-11-17 18:00,ZBYN 171800Z AUTO 00000KT 9SM M03/M07 A3030 RMK SLP308 T10301074 57010 IEM_DS3505
ZBYN,1999-11-17 19:00,ZBYN 171900Z AUTO 10002KT 6SM M05/M08 A3027 RMK T10501080 IEM_DS3505
ZBYN,1999-11-17 20:00,ZBYN 172000Z AUTO 00000KT 6SM M05/M07 A3024 RMK T10501070 IEM_DS3505
ZBYN,1999-11-17 21:00,ZBYN 172100Z AUTO 34002KT 6SM M04/M07 A3024 RMK SLP284 T10391069 57025 IEM_DS3505
ZBYN,1999-11-17 22:00,ZBYN 172200Z AUTO 11004KT 6SM M07/M09 A3024 RMK T10701090 IEM_DS3505
ZBYN,1999-11-17 23:00,ZBYN 172300Z AUTO 00000KT 5SM M07/M08 A3024 RMK T10701080 IEM_DS3505
ZBYN,1999-11-18 00:00,ZBYN 180000Z AUTO 18002KT 4SM M06/M08 A3021 RMK SLP292 T10551077 57003 IEM_DS3505
ZBYN,1999-11-18 02:00,ZBYN 180200Z AUTO 00000KT 02/M07 A3018 RMK T00201070 IEM_DS3505
ZBYN,1999-11-18 03:00,ZBYN 180300Z AUTO 00000KT 4SM 03/M08 A3015 RMK SLP265 T00331077 57017 IEM_DS3505
ZBYN,1999-11-18 04:00,ZBYN 180400Z AUTO 00000KT 6SM 05/M07 A3012 RMK T00501070 IEM_DS3505
ZBYN,1999-11-18 05:00,ZBYN 180500Z AUTO 00000KT 06/M07 A3006 RMK T00601070 IEM_DS3505
ZBYN,1999-11-18 06:00,ZBYN 180600Z AUTO 18002KT 4SM 08/M11 A3003 RMK SLP219 T00821106 57035 IEM_DS3505
ZBYN,1999-11-18 07:00,ZBYN 180700Z AUTO 18004KT 6SM 09/M08 A3003 RMK T00901080 IEM_DS3505
ZBYN,1999-11-18 08:00,ZBYN 180800Z AUTO 21002KT 6SM 09/M08 A3000 RMK T00901080 IEM_DS3505
ZBYN,1999-11-18 09:00,ZBYN 180900Z AUTO 11006KT 4SM 07/M06 A3000 RMK SLP204 T00681056 57017 IEM_DS3505
ZBYN,1999-11-18 10:00,ZBYN 181000Z AUTO 18002KT 6SM 07/M07 A3000 RMK T00701070 IEM_DS3505
ZBYN,1999-11-18 11:00,ZBYN 181100Z AUTO 12004KT 6SM 01/M05 A3003 RMK T00101050 IEM_DS3505
ZBYN,1999-11-18 12:00,ZBYN 181200Z AUTO 34002KT 6SM 04/M05 A3006 RMK SLP229 T00381052 52015 IEM_DS3505
ZBYN,1999-11-18 13:00,ZBYN 181300Z AUTO 00000KT 6SM 00/M05 A3006 RMK T00001050 IEM_DS3505
ZBYN,1999-11-18 14:00,ZBYN 181400Z AUTO 13002KT 6SM 00/M05 A3006 RMK T00001050 IEM_DS3505
ZBYN,1999-11-18 15:00,ZBYN 181500Z AUTO 20004KT 6SM M00/M06 A3009 RMK SLP230 T10011057 52009 IEM_DS3505
ZBYN,1999-11-18 16:00,ZBYN 181600Z AUTO 08006KT 6SM M01/M05 A3009 RMK T10101050 IEM_DS3505
ZBYN,1999-11-18 19:00,ZBYN 181900Z AUTO 10004KT 6SM M04/M06 A3009 RMK T10401060 IEM_DS3505
ZBYN,1999-11-18 20:00,ZBYN 182000Z AUTO 09002KT 6SM M04/M06 A3009 RMK T10401060 IEM_DS3505
ZBYN,1999-11-18 21:00,ZBYN 182100Z AUTO 00000KT 4SM M04/M05 A3009 RMK SLP238 T10361051 52005 IEM_DS3505
ZBYN,1999-11-18 22:00,ZBYN 182200Z AUTO 10002KT 6SM M05/M07 A3012 RMK T10501070 IEM_DS3505
ZBYN,1999-11-18 23:00,ZBYN 182300Z AUTO 10002KT 6SM M04/M06 A3012 RMK T10401060 IEM_DS3505
ZBYN,1999-11-19 00:00,ZBYN 190000Z AUTO 00000KT 3SM M05/M06 A3015 RMK SLP260 T10461063 52014 IEM_DS3505
ZBYN,1999-11-19 01:00,ZBYN 190100Z AUTO 00000KT 3SM M01/M04 A3015 RMK T10101040 IEM_DS3505
ZBYN,1999-11-19 03:00,ZBYN 190300Z AUTO 00000KT 3SM 05/M04 A3012 RMK SLP251 T00511045 52001 IEM_DS3505
ZBYN,1999-11-19 04:00,ZBYN 190400Z AUTO 07/M05 A3012 RMK T00701050 IEM_DS3505
ZBYN,1999-11-19 06:00,ZBYN 190600Z AUTO 18004KT 4SM 10/M07 A3006 RMK SLP226 T00981067 57019 IEM_DS3505
ZBYN,1999-11-19 08:00,ZBYN 190800Z AUTO 23004KT 6SM 11/M07 A3006 RMK T01101070 IEM_DS3505
ZBYN,1999-11-19 09:00,ZBYN 190900Z AUTO 18002KT 6SM 09/M06 A3006 RMK SLP230 T00911062 52001 IEM_DS3505
ZBYN,1999-11-19 10:00,ZBYN 191000Z AUTO 00000KT 05/M07 A3009 RMK T00501070 IEM_DS3505
ZBYN,1999-11-19 12:00,ZBYN 191200Z AUTO 00000KT 6SM 07/M07 RMK SLP250 T00671071 52012 IEM_DS3505
ZBYN,1999-11-19 15:00,ZBYN 191500Z AUTO 09004KT 6SM 00/M07 RMK SLP257 T00051069 52012 IEM_DS3505
ZBYN,1999-11-19 18:00,ZBYN 191800Z AUTO 00000KT 6SM M02/M08 RMK SLP252 T10191075 57001 IEM_DS3505
ZBYN,1999-11-19 21:00,ZBYN 192100Z AUTO 00000KT 6SM M03/M07 RMK SLP257 T10311067 52002 IEM_DS3505
ZBYN,1999-11-19 23:00,ZBYN 192300Z AUTO 09002KT 6SM M05/M07 A3015 RMK T10501070 IEM_DS3505
ZBYN,1999-11-20 00:00,ZBYN 200000Z AUTO 29002KT 5SM M04/M07 A3018 RMK SLP265 T10351068 52003 IEM_DS3505
ZBYN,1999-11-20 01:00,ZBYN 200100Z AUTO 00000KT 4SM 00/M05 A3018 RMK T00001050 IEM_DS3505
ZBYN,1999-11-20 02:00,ZBYN 200200Z AUTO 00000KT 3SM 03/M06 A3018 RMK T00301060 IEM_DS3505
ZBYN,1999-11-20 03:00,ZBYN 200300Z AUTO 00000KT 4SM 06/M07 A3015 RMK SLP258 T00561073 57002 IEM_DS3505
ZBYN,1999-11-20 04:00,ZBYN 200400Z AUTO 17004KT 6SM 08/M07 A3012 RMK T00801070 IEM_DS3505
ZBYN,1999-11-20 05:00,ZBYN 200500Z AUTO 19002KT 6SM 09/M07 A3009 RMK T00901070 IEM_DS3505
ZBYN,1999-11-20 06:00,ZBYN 200600Z AUTO 18004KT 6SM 11/M10 A3006 RMK SLP218 T01101101 57032 IEM_DS3505
ZBYN,1999-11-20 07:00,ZBYN 200700Z AUTO 23004KT 6SM 12/M07 A3003 RMK T01201070 IEM_DS3505
ZBYN,1999-11-20 08:00,ZBYN 200800Z AUTO 20002KT 6SM 11/M08 A3003 RMK T01101080 IEM_DS3505
ZBYN,1999-11-20 09:00,ZBYN 200900Z AUTO 14004KT 6SM 09/M07 A3003 RMK SLP210 T00901073 57012 IEM_DS3505
ZBYN,1999-11-20 10:00,ZBYN 201000Z AUTO 13002KT 6SM 08/M07 A3006 RMK T00801070 IEM_DS3505
ZBYN,1999-11-20 11:00,ZBYN 201100Z AUTO 12002KT 6SM 02/M06 A3006 RMK T00201060 IEM_DS3505
ZBYN,1999-11-20 12:00,ZBYN 201200Z AUTO 34002KT 6SM 05/M04 A3006 RMK SLP231 T00461041 52011 IEM_DS3505
ZBYN,1999-11-20 13:00,ZBYN 201300Z AUTO 13002KT 6SM 01/M06 A3006 RMK T00101060 IEM_DS3505
ZBYN,1999-11-20 14:00,ZBYN 201400Z AUTO 00000KT 6SM 00/M06 A3009 RMK T00001060 IEM_DS3505
ZBYN,1999-11-20 15:00,ZBYN 201500Z AUTO 00000KT 6SM 03/M05 A3009 RMK SLP223 T00311051 52005 IEM_DS3505
ZBYN,1999-11-20 16:00,ZBYN 201600Z AUTO 00000KT 6SM M01/M05 A3009 RMK T10101050 IEM_DS3505
ZBYN,1999-11-20 17:00,ZBYN 201700Z AUTO 12002KT 6SM 00/M05 A3009 RMK T00001050 IEM_DS3505
ZBYN,1999-11-20 18:00,ZBYN 201800Z AUTO 00000KT 6SM M01/M05 A3009 RMK SLP220 T10081052 54000 IEM_DS3505
ZBYN,1999-11-20 19:00,ZBYN 201900Z AUTO 00000KT 6SM M03/M06 A3009 RMK T10301060 IEM_DS3505
ZBYN,1999-11-20 20:00,ZBYN 202000Z AUTO 00000KT 6SM M02/M06 A3006 RMK T10201060 IEM_DS3505
ZBYN,1999-11-20 21:00,ZBYN 202100Z AUTO 00000KT 6SM M02/M05 A3006 RMK SLP224 T10221051 57002 IEM_DS3505
ZBYN,1999-11-20 22:00,ZBYN 202200Z AUTO 00000KT 6SM M03/M06 A3006 RMK T10301060 IEM_DS3505
ZBYN,1999-11-20 23:00,ZBYN 202300Z AUTO 00000KT 3SM M04/M05 A3009 RMK T10401050 IEM_DS3505
ZBYN,1999-11-21 00:00,ZBYN 210000Z AUTO 00000KT 4SM M02/M05 A3012 RMK SLP242 T10221051 52009 IEM_DS3505
ZBYN,1999-11-21 01:00,ZBYN 210100Z AUTO 00000KT 2 1/2SM 00/M03 A3012 RMK T00001030 IEM_DS3505
ZBYN,1999-11-21 02:00,ZBYN 210200Z AUTO 00000KT 2 1/2SM 04/M02 A3012 RMK T00401020 IEM_DS3505
ZBYN,1999-11-21 03:00,ZBYN 210300Z AUTO 07002KT 4SM 06/M04 A3009 RMK SLP232 T00641036 52003 IEM_DS3505
ZBYN,1999-11-21 04:00,ZBYN 210400Z AUTO 15002KT 09/M04 A3009 RMK T00901040 IEM_DS3505
ZBYN,1999-11-21 05:00,ZBYN 210500Z AUTO 17004KT 11/M01 A3006 RMK T01101010 IEM_DS3505
ZBYN,1999-11-21 06:00,ZBYN 210600Z AUTO 00000KT 4SM 12/M03 A3003 RMK SLP199 T01221033 57027 IEM_DS3505
ZBYN,1999-11-21 07:00,ZBYN 210700Z AUTO 3SM 13/00 A3000 RMK T01300000 IEM_DS3505
ZBYN,1999-11-21 08:00,ZBYN 210800Z AUTO 12002KT 13/00 A3000 RMK T01300000 IEM_DS3505
ZBYN,1999-11-21 09:00,ZBYN 210900Z AUTO 16002KT 5SM 10/01 A3000 RMK SLP197 T01040012 57007 IEM_DS3505
ZBYN,1999-11-21 10:00,ZBYN 211000Z AUTO 08002KT 2 1/2SM 10/00 A3003 RMK T01000000 IEM_DS3505
ZBYN,1999-11-21 11:00,ZBYN 211100Z AUTO 12004KT 2 1/2SM 04/00 A3003 RMK T00400000 IEM_DS3505
ZBYN,1999-11-21 12:00,ZBYN 211200Z AUTO 00000KT 3SM 05/M02 A3003 RMK SLP221 T00541016 52014 IEM_DS3505
ZBYN,1999-11-21 13:00,ZBYN 211300Z AUTO 00000KT 2 1/2SM 04/00 A3003 RMK T00400000 IEM_DS3505
ZBYN,1999-11-21 14:00,ZBYN 211400Z AUTO 00000KT 2SM 04/00 A3006 RMK T00400000 IEM_DS3505
ZBYN,1999-11-21 15:00,ZBYN 211500Z AUTO 34002KT 3SM 04/M02 A3006 RMK SLP218 T00361020 52008 IEM_DS3505
ZBYN,1999-11-21 16:00,ZBYN 211600Z AUTO 11002KT 2 1/2SM 01/M01 A3006 RMK T00101010 IEM_DS3505
ZBYN,1999-11-21 17:00,ZBYN 211700Z AUTO 00000KT 2 1/2SM 00/M01 A3006 RMK T00001010 IEM_DS3505
ZBYN,1999-11-21 18:00,ZBYN 211800Z AUTO 00000KT 2SM M00/M02 A3006 RMK SLP208 T10031023 57006 IEM_DS3505
ZBYN,1999-11-21 19:00,ZBYN 211900Z AUTO 09002KT 2SM M02/M03 A3006 RMK T10201030 IEM_DS3505
ZBYN,1999-11-21 20:00,ZBYN 212000Z AUTO 14002KT 2SM M01/M02 A3006 RMK T10101020 IEM_DS3505
ZBYN,1999-11-21 21:00,ZBYN 212100Z AUTO 00000KT 3SM M01/M03 A3006 RMK SLP208 T10141026 57005 IEM_DS3505
ZBYN,1999-11-21 22:00,ZBYN 212200Z AUTO 13002KT 2SM M02/M02 A3006 RMK T10201020 IEM_DS3505
ZBYN,1999-11-21 23:00,ZBYN 212300Z AUTO 00000KT 1 1/2SM M01/M01 A3006 RMK T10101010 IEM_DS3505
ZBYN,1999-11-22 00:00,ZBYN 220000Z AUTO 32002KT 2SM 00/M03 A3006 RMK SLP218 T00011031 52004 IEM_DS3505
ZBYN,1999-11-22 01:00,ZBYN 220100Z AUTO 00000KT 1SM 03/00 A3006 RMK T00300000 IEM_DS3505
ZBYN,1999-11-22 02:00,ZBYN 220200Z AUTO 34002KT 1 1/4SM 06/00 A3006 RMK T00600000 IEM_DS3505
ZBYN,1999-11-22 03:00,ZBYN 220300Z AUTO 32002KT 2 1/2SM 08/M02 A3006 RMK SLP213 T00761015 52004 IEM_DS3505
ZBYN,1999-11-22 04:00,ZBYN 220400Z AUTO 00000KT 1 1/2SM 11/00 A3003 RMK T01100000 IEM_DS3505
ZBYN,1999-11-22 05:00,ZBYN 220500Z AUTO 16002KT 2 1/2SM 13/02 A3000 RMK T01300020 IEM_DS3505
ZBYN,1999-11-22 06:00,ZBYN 220600Z AUTO 16006KT 4SM 14/01 A2997 RMK SLP185 T01360011 57022 IEM_DS3505
ZBYN,1999-11-22 07:00,ZBYN 220700Z AUTO 27002KT 4SM 14/02 A2994 RMK T01400020 IEM_DS3505
ZBYN,1999-11-22 08:00,ZBYN 220800Z AUTO 00000KT 14/03 A2994 RMK T01400030 IEM_DS3505
ZBYN,1999-11-22 09:00,ZBYN 220900Z AUTO 14004KT 4SM 13/02 A2994 RMK SLP175 T01260023 57012 IEM_DS3505
ZBYN,1999-11-22 10:00,ZBYN 221000Z AUTO 12002KT 09/02 A2994 RMK T00900020 IEM_DS3505
ZBYN,1999-11-22 11:00,ZBYN 221100Z AUTO 11002KT 4SM 05/02 A2997 RMK T00500020 IEM_DS3505
ZBYN,1999-11-22 12:00,ZBYN 221200Z AUTO 00000KT 2SM 06/01 A2997 RMK SLP187 T00610013 52003 IEM_DS3505
ZBYN,1999-11-22 13:00,ZBYN 221300Z AUTO 12002KT 5SM 03/01 A3000 RMK T00300010 IEM_DS3505
ZBYN,1999-11-22 14:00,ZBYN 221400Z AUTO 10002KT 5SM 03/01 A3000 RMK T00300010 IEM_DS3505
ZBYN,1999-11-22 15:00,ZBYN 221500Z AUTO 32002KT 1 1/4SM 03/00 A3000 RMK SLP187 T00330005 52007 IEM_DS3505
ZBYN,1999-11-22 16:00,ZBYN 221600Z AUTO 00000KT 4SM 01/M01 A3000 RMK T00101010 IEM_DS3505
ZBYN,1999-11-22 17:00,ZBYN 221700Z AUTO 00000KT 4SM 01/00 A3000 RMK T00100000 IEM_DS3505
ZBYN,1999-11-22 18:00,ZBYN 221800Z AUTO 34004KT 4SM 04/M00 A3000 RMK SLP176 T00381003 54000 IEM_DS3505
ZBYN,1999-11-22 19:00,ZBYN 221900Z AUTO 00000KT 4SM M01/M02 A3000 RMK T10101020 IEM_DS3505
ZBYN,1999-11-22 20:00,ZBYN 222000Z AUTO 00000KT 4SM M01/M01 A2997 RMK T10101010 IEM_DS3505
ZBYN,1999-11-22 21:00,ZBYN 222100Z AUTO 34004KT 4SM 03/M01 A2997 RMK SLP173 T00311011 57005 IEM_DS3505
ZBYN,1999-11-22 22:00,ZBYN 222200Z AUTO 00000KT 3SM 01/M06 A2997 RMK T00101060 IEM_DS3505
ZBYN,1999-11-23 00:00,ZBYN 230000Z AUTO 02002KT 4SM 03/M01 A2997 RMK SLP188 T00311011 52003 IEM_DS3505
ZBYN,1999-11-23 01:00,ZBYN 230100Z AUTO 33004KT 1SM 05/02 A2997 RMK T00500020 IEM_DS3505
ZBYN,1999-11-23 02:00,ZBYN 230200Z AUTO 33008KT 1SM 08/01 A2997 RMK T00800010 IEM_DS3505
ZBYN,1999-11-23 03:00,ZBYN 230300Z AUTO 34006KT 4SM 10/01 A2997 RMK SLP184 T01000006 52003 IEM_DS3505
ZBYN,1999-11-23 04:00,ZBYN 230400Z AUTO 30002KT 2 1/2SM 14/04 A2994 RMK T01400040 IEM_DS3505
ZBYN,1999-11-23 05:00,ZBYN 230500Z AUTO 00000KT 5SM 14/05 A2991 RMK T01400050 IEM_DS3505
ZBYN,1999-11-23 06:00,ZBYN 230600Z AUTO 00000KT 4SM 15/04 A2988 RMK SLP145 T01510042 57027 IEM_DS3505
ZBYN,1999-11-23 07:00,ZBYN 230700Z AUTO 00000KT 6SM 15/06 A2988 RMK T01500060 IEM_DS3505
ZBYN,1999-11-23 08:00,ZBYN 230800Z AUTO 00000KT 1SM 13/07 A2991 RMK T01300070 IEM_DS3505
ZBYN,1999-11-23 09:00,ZBYN 230900Z AUTO 20006KT 2SM 12/04 A2991 RMK SLP155 T01150038 52003 IEM_DS3505
ZBYN,1999-11-23 10:00,ZBYN 231000Z AUTO 23002KT 1SM 11/05 A2994 RMK T01100050 IEM_DS3505
ZBYN,1999-11-23 11:00,ZBYN 231100Z AUTO 00000KT 1SM 10/05 A2994 RMK T01000050 IEM_DS3505
ZBYN,1999-11-23 12:00,ZBYN 231200Z AUTO 00000KT 2 1/2SM 10/04 A2997 RMK SLP172 T01000037 52013 IEM_DS3505
ZBYN,1999-11-23 13:00,ZBYN 231300Z AUTO 11002KT 1SM 09/05 A2997 RMK T00900050 IEM_DS3505
ZBYN,1999-11-23 14:00,ZBYN 231400Z AUTO 1SM 10/05 A3000 RMK T01000050 IEM_DS3505
ZBYN,1999-11-23 15:00,ZBYN 231500Z AUTO 14004KT 3SM 09/04 A3000 RMK SLP175 T00900035 52012 IEM_DS3505
ZBYN,1999-11-23 16:00,ZBYN 231600Z AUTO 25006KT 2SM 09/04 A3003 RMK T00900040 IEM_DS3505
ZBYN,1999-11-23 17:00,ZBYN 231700Z AUTO 31014KT 3SM 10/00 A3003 RMK T01000000 IEM_DS3505
ZBYN,1999-11-23 18:00,ZBYN 231800Z AUTO 32010KT 6SM 08/M04 A3003 RMK SLP183 T00841038 52014 IEM_DS3505
ZBYN,1999-11-23 19:00,ZBYN 231900Z AUTO 32010KT 6SM 08/M04 A3006 RMK T00801040 IEM_DS3505
ZBYN,1999-11-23 20:00,ZBYN 232000Z AUTO 30008KT 6SM 07/M04 A3006 RMK T00701040 IEM_DS3505
ZBYN,1999-11-23 21:00,ZBYN 232100Z AUTO 29014KT 6SM 07/M07 A3006 RMK SLP203 T00671067 52010 IEM_DS3505
ZBYN,1999-11-23 22:00,ZBYN 232200Z AUTO 21004KT 6SM 05/M04 A3006 RMK T00501040 IEM_DS3505
ZBYN,1999-11-23 23:00,ZBYN 232300Z AUTO 23004KT 6SM 03/M05 A3009 RMK T00301050 IEM_DS3505
ZBYN,1999-11-24 00:00,ZBYN 240000Z AUTO 32008KT 7SM 06/M09 A3009 RMK SLP219 T00581093 52011 IEM_DS3505
ZBYN,1999-11-24 01:00,ZBYN 240100Z AUTO 21002KT 6SM 04/M05 A3012 RMK T00401050 IEM_DS3505
ZBYN,1999-11-24 02:00,ZBYN 240200Z AUTO 22004KT 6SM 06/M06 A3015 RMK T00601060 IEM_DS3505
ZBYN,1999-11-24 03:00,ZBYN 240300Z AUTO 34014KT 6SM 08/M08 A3015 RMK SLP230 T00811082 52012 IEM_DS3505
ZBYN,1999-11-24 04:00,ZBYN 240400Z AUTO 22006KT 6SM 09/M06 A3012 RMK T00901060 IEM_DS3505
ZBYN,1999-11-24 05:00,ZBYN 240500Z AUTO 29010KT 6SM 11/M09 A3012 RMK T01101090 IEM_DS3505
ZBYN,1999-11-24 06:00,ZBYN 240600Z AUTO 29016KT 7SM 11/M12 A3012 RMK SLP213 T01101120 57012 IEM_DS3505
ZBYN,1999-11-24 07:00,ZBYN 240700Z AUTO 32021KT 6SM 11/M12 A3012 RMK T01101120 IEM_DS3505
ZBYN,1999-11-24 08:00,ZBYN 240800Z AUTO 29010KT 6SM 11/M10 A3015 RMK T01101100 IEM_DS3505
ZBYN,1999-11-24 09:00,ZBYN 240900Z AUTO 32010KT 7SM 09/M10 A3015 RMK SLP237 T00911097 52016 IEM_DS3505
ZBYN,1999-11-24 10:00,ZBYN 241000Z AUTO 29008KT 6SM 08/M08 A3018 RMK T00801080 IEM_DS3505
ZBYN,1999-11-24 11:00,ZBYN 241100Z AUTO 29004KT 6SM 07/M08 A3021 RMK T00701080 IEM_DS3505
ZBYN,1999-11-24 12:00,ZBYN 241200Z AUTO 00000KT 9SM 05/M06 A3021 RMK SLP261 T00501058 52014 IEM_DS3505
ZBYN,1999-11-24 13:00,ZBYN 241300Z AUTO 31002KT 6SM 04/M09 A3021 RMK T00401090 IEM_DS3505
ZBYN,1999-11-24 14:00,ZBYN 241400Z AUTO 29004KT 6SM 03/M09 A3021 RMK T00301090 IEM_DS3505
ZBYN,1999-11-24 15:00,ZBYN 241500Z AUTO 00000KT 9SM 01/M07 A3021 RMK SLP266 T00141072 52003 IEM_DS3505
ZBYN,1999-11-24 16:00,ZBYN 241600Z AUTO 00000KT 6SM M01/M07 A3021 RMK T10101070 IEM_DS3505
ZBYN,1999-11-24 17:00,ZBYN 241700Z AUTO 00000KT 6SM M02/M07 A3021 RMK T10201070 IEM_DS3505
ZBYN,1999-11-24 18:00,ZBYN 241800Z AUTO 02002KT 9SM 00/M08 A3021 RMK SLP261 T00021077 57002 IEM_DS3505
ZBYN,1999-11-24 19:00,ZBYN 241900Z AUTO 10002KT 6SM M03/M07 A3021 RMK T10301070 IEM_DS3505
ZBYN,1999-11-24 20:00,ZBYN 242000Z AUTO 09002KT 6SM M03/M08 A3018 RMK T10301080 IEM_DS3505
ZBYN,1999-11-24 21:00,ZBYN 242100Z AUTO 00000KT 9SM M04/M08 A3018 RMK SLP263 T10381080 57008 IEM_DS3505
ZBYN,1999-11-24 22:00,ZBYN 242200Z AUTO 17002KT 6SM M03/M08 A3018 RMK T10301080 IEM_DS3505
ZBYN,1999-11-24 23:00,ZBYN 242300Z AUTO 13006KT 6SM M05/M07 A3018 RMK T10501070 IEM_DS3505
ZBYN,1999-11-25 00:00,ZBYN 250000Z AUTO 18004KT 6SM M03/M09 A3021 RMK SLP271 T10291089 52002 IEM_DS3505
ZBYN,1999-11-25 01:00,ZBYN 250100Z AUTO 6SM M03/M09 A3021 RMK SLP271 T10291089 52002 IEM_DS3505
ZBYN,1999-11-25 03:00,ZBYN 250300Z AUTO 32008KT 12SM 06/M14 A3018 RMK SLP259 T00641140 57001 IEM_DS3505
ZBYN,1999-11-25 04:00,ZBYN 250400Z AUTO 27008KT 6SM 07/M09 A3015 RMK T00701090 IEM_DS3505
ZBYN,1999-11-25 05:00,ZBYN 250500Z AUTO 25004KT 6SM 08/M09 A3012 RMK T00801090 IEM_DS3505
ZBYN,1999-11-25 06:00,ZBYN 250600Z AUTO 20006KT 6SM 08/M11 A3009 RMK SLP236 T00821112 57020 IEM_DS3505
ZBYN,1999-11-25 07:00,ZBYN 250700Z AUTO 31010KT 6SM 08/M10 A3009 RMK T00801100 IEM_DS3505
ZBYN,1999-11-25 08:00,ZBYN 250800Z AUTO 33016KT 6SM 07/M12 A3009 RMK T00701120 IEM_DS3505
ZBYN,1999-11-25 09:00,ZBYN 250900Z AUTO 34010KT 11SM 05/M17 A3012 RMK SLP254 T00501172 52004 IEM_DS3505
ZBYN,1999-11-25 10:00,ZBYN 251000Z AUTO 36012KT 6SM 03/M14 A3015 RMK T00301140 IEM_DS3505
ZBYN,1999-11-25 11:00,ZBYN 251100Z AUTO 36008KT 6SM 01/M15 A3021 RMK T00101150 IEM_DS3505
ZBYN,1999-11-25 12:00,ZBYN 251200Z AUTO 02006KT 12SM 00/M18 A3024 RMK SLP296 T00051177 52033 IEM_DS3505
ZBYN,1999-11-25 14:00,ZBYN 251400Z AUTO 36004KT 6SM M02/M16 A3030 RMK T10201160 IEM_DS3505
ZBYN,1999-11-25 15:00,ZBYN 251500Z AUTO 32006KT 11SM M02/M16 A3033 RMK SLP319 T10251163 52031 IEM_DS3505
ZBYN,1999-11-25 16:00,ZBYN 251600Z AUTO 01010KT 6SM M03/M16 A3036 RMK T10301160 IEM_DS3505
ZBYN,1999-11-25 17:00,ZBYN 251700Z AUTO 01006KT 6SM M04/M17 A3036 RMK T10401170 IEM_DS3505
ZBYN,1999-11-25 18:00,ZBYN 251800Z AUTO 34010KT 11SM M04/M20 A3039 RMK SLP334 T10451195 52013 IEM_DS3505
ZBYN,1999-11-25 19:00,ZBYN 251900Z AUTO 00000KT 6SM M05/M17 A3039 RMK T10501170 IEM_DS3505
ZBYN,1999-11-25 20:00,ZBYN 252000Z AUTO 00000KT 6SM M06/M17 A3039 RMK T10601170 IEM_DS3505
ZBYN,1999-11-25 21:00,ZBYN 252100Z AUTO 36008KT 12SM M06/M18 A3039 RMK SLP343 T10551184 52001 IEM_DS3505
ZBYN,1999-11-25 22:00,ZBYN 252200Z AUTO 33004KT 6SM M07/M17 A3039 RMK T10701170 IEM_DS3505
ZBYN,1999-11-25 23:00,ZBYN 252300Z AUTO 32008KT 6SM M07/M18 A3039 RMK T10701180 IEM_DS3505
ZBYN,1999-11-26 00:00,ZBYN 260000Z AUTO 34006KT 12SM M07/M18 A3039 RMK SLP354 T10671177 52001 IEM_DS3505
ZBYN,1999-11-26 01:00,ZBYN 260100Z AUTO 33010KT 6SM M05/M21 A3039 RMK T10501210 IEM_DS3505
ZBYN,1999-11-26 02:00,ZBYN 260200Z AUTO 32008KT 6SM M04/M23 A3039 RMK T10401230 IEM_DS3505
ZBYN,1999-11-26 03:00,ZBYN 260300Z AUTO 32006KT 16SM M02/M23 A3036 RMK SLP345 T10211227 57006 IEM_DS3505
ZBYN,1999-11-26 04:00,ZBYN 260400Z AUTO 23002KT 6SM M01/M22 A3036 RMK T10101220 IEM_DS3505
ZBYN,1999-11-26 05:00,ZBYN 260500Z AUTO 6SM M01/M23 A3030 RMK T10101230 IEM_DS3505
ZBYN,1999-11-26 06:00,ZBYN 260600Z AUTO 22006KT 9SM 01/M27 RMK SLP315 T00101273 57025 IEM_DS3505
ZBYN,1999-11-26 07:00,ZBYN 260700Z AUTO 21004KT 6SM 00/M20 A3027 RMK T00001200 IEM_DS3505
ZBYN,1999-11-26 08:00,ZBYN 260800Z AUTO 25006KT 6SM 00/M18 A3024 RMK T00001180 IEM_DS3505
ZBYN,1999-11-26 09:00,ZBYN 260900Z AUTO 29004KT 11SM M01/M20 A3024 RMK SLP304 T10061196 57014 IEM_DS3505
ZBYN,1999-11-26 10:00,ZBYN 261000Z AUTO 27004KT 6SM M02/M17 A3027 RMK T10201170 IEM_DS3505
ZBYN,1999-11-26 11:00,ZBYN 261100Z AUTO 31008KT 6SM M02/M23 A3027 RMK T10201230 IEM_DS3505
ZBYN,1999-11-26 12:00,ZBYN 261200Z AUTO 32010KT 9SM M03/M22 A3030 RMK SLP339 T10291219 52025 IEM_DS3505
ZBYN,1999-11-26 13:00,ZBYN 261300Z AUTO 31010KT 6SM M03/M22 A3033 RMK T10301220 IEM_DS3505
ZBYN,1999-11-26 14:00,ZBYN 261400Z AUTO 31006KT 6SM M04/M21 A3033 RMK T10401210 IEM_DS3505
ZBYN,1999-11-26 15:00,ZBYN 261500Z AUTO 34002KT 6SM M04/M19 A3033 RMK SLP339 T10431190 52006 IEM_DS3505
ZBYN,1999-11-26 16:00,ZBYN 261600Z AUTO 30008KT 6SM M04/M20 A3033 RMK T10401200 IEM_DS3505
ZBYN,1999-11-26 17:00,ZBYN 261700Z AUTO 28006KT 6SM M04/M19 A3036 RMK T10401190 IEM_DS3505
ZBYN,1999-11-26 18:00,ZBYN 261800Z AUTO 22008KT 6SM M04/M20 A3036 RMK SLP334 T10441202 54000 IEM_DS3505
ZBYN,1999-11-26 19:00,ZBYN 261900Z AUTO 26004KT 6SM M05/M18 A3036 RMK T10501180 IEM_DS3505
ZBYN,1999-11-26 20:00,ZBYN 262000Z AUTO 29008KT 6SM M04/M21 A3033 RMK T10401210 IEM_DS3505
ZBYN,1999-11-26 21:00,ZBYN 262100Z AUTO 34002KT 7SM M04/M22 A3036 RMK SLP340 T10451215 52003 IEM_DS3505
ZBYN,1999-11-26 22:00,ZBYN 262200Z AUTO 27004KT 6SM M05/M20 A3036 RMK T10501200 IEM_DS3505
ZBYN,1999-11-26 23:00,ZBYN 262300Z AUTO 30006KT 7SM M04/M19 A3039 RMK T10401190 IEM_DS3505
ZBYN,1999-11-27 00:00,ZBYN 270000Z AUTO 32012KT 11SM M04/M20 A3039 RMK SLP353 T10431199 52008 IEM_DS3505
ZBYN,1999-11-27 01:00,ZBYN 270100Z AUTO 31012KT 6SM M03/M20 A3039 RMK T10301200 IEM_DS3505
ZBYN,1999-11-27 02:00,ZBYN 270200Z AUTO 29014KT 6SM M03/M20 A3042 RMK T10301200 IEM_DS3505
ZBYN,1999-11-27 03:00,ZBYN 270300Z AUTO 29008KT 9SM M03/M19 A3042 RMK SLP365 T10271193 52011 IEM_DS3505
ZBYN,1999-11-27 04:00,ZBYN 270400Z AUTO 31008KT 6SM M02/M19 A3039 RMK T10201190 IEM_DS3505
ZBYN,1999-11-27 05:00,ZBYN 270500Z AUTO 31008KT 6SM M01/M20 A3039 RMK T10101200 IEM_DS3505
ZBYN,1999-11-27 06:00,ZBYN 270600Z AUTO 29010KT 9SM M00/M16 A3036 RMK SLP345 T10031162 57014 IEM_DS3505
ZBYN,1999-11-27 07:00,ZBYN 270700Z AUTO 30014KT 6SM 01/M20 A3033 RMK T00101200 IEM_DS3505
ZBYN,1999-11-27 08:00,ZBYN 270800Z AUTO 27010KT 6SM 01/M19 A3033 RMK T00101190 IEM_DS3505
ZBYN,1999-11-27 09:00,ZBYN 270900Z AUTO 27016KT 12SM M01/M17 A3036 RMK SLP345 T10071173 57001 IEM_DS3505
ZBYN,1999-11-27 10:00,ZBYN 271000Z AUTO 30012KT 6SM M02/M18 A3036 RMK T10201180 IEM_DS3505
ZBYN,1999-11-27 11:00,ZBYN 271100Z AUTO 30006KT 6SM M02/M17 A3039 RMK T10201170 IEM_DS3505
ZBYN,1999-11-27 12:00,ZBYN 271200Z AUTO 27006KT 12SM M03/M19 A3042 RMK SLP360 T10291190 52011 IEM_DS3505
ZBYN,1999-11-27 13:00,ZBYN 271300Z AUTO 24002KT 6SM M03/M17 A3042 RMK T10301170 IEM_DS3505
ZBYN,1999-11-27 14:00,ZBYN 271400Z AUTO 25004KT 6SM M04/M17 A3042 RMK T10401170 IEM_DS3505
ZBYN,1999-11-27 15:00,ZBYN 271500Z AUTO 20004KT 11SM M05/M16 A3042 RMK SLP369 T10531164 52006 IEM_DS3505
ZBYN,1999-11-27 16:00,ZBYN 271600Z AUTO 22004KT 6SM M06/M16 A3042 RMK T10601160 IEM_DS3505
ZBYN,1999-11-27 17:00,ZBYN 271700Z AUTO 00000KT 6SM M06/M16 A3042 RMK T10601160 IEM_DS3505
ZBYN,1999-11-27 18:00,ZBYN 271800Z AUTO 14002KT 9SM M07/M16 A3042 RMK SLP366 T10731159 57002 IEM_DS3505
ZBYN,1999-11-27 19:00,ZBYN 271900Z AUTO 09002KT 6SM M09/M14 A3042 RMK T10901140 IEM_DS3505
ZBYN,1999-11-27 20:00,ZBYN 272000Z AUTO 00000KT 6SM M10/M15 A3042 RMK T11001150 IEM_DS3505
ZBYN,1999-11-27 21:00,ZBYN 272100Z AUTO 11004KT 9SM M09/M16 A3039 RMK SLP363 T10921157 57006 IEM_DS3505
ZBYN,1999-11-27 22:00,ZBYN 272200Z AUTO 09002KT 6SM M10/M15 A3039 RMK T11001150 IEM_DS3505
ZBYN,1999-11-27 23:00,ZBYN 272300Z AUTO 00000KT 6SM M10/M14 A3042 RMK T11001140 IEM_DS3505
ZBYN,1999-11-28 00:00,ZBYN 280000Z AUTO 11002KT 9SM M09/M15 A3045 RMK SLP382 T10901154 52013 IEM_DS3505
ZBYN,1999-11-28 01:00,ZBYN 280100Z AUTO 11002KT 5SM M06/M14 A3045 RMK T10601140 IEM_DS3505
ZBYN,1999-11-28 02:00,ZBYN 280200Z AUTO 6SM M03/M15 A3045 RMK T10301150 IEM_DS3505
ZBYN,1999-11-28 03:00,ZBYN 280300Z AUTO 00000KT 6SM 00/M13 A3045 RMK SLP369 T00011132 54000 IEM_DS3505
ZBYN,1999-11-28 04:00,ZBYN 280400Z AUTO 25006KT 6SM 02/M14 A3039 RMK T00201140 IEM_DS3505
ZBYN,1999-11-28 05:00,ZBYN 280500Z AUTO 30010KT 6SM 04/M14 A3036 RMK T00401140 IEM_DS3505
ZBYN,1999-11-28 06:00,ZBYN 280600Z AUTO 27016KT 9SM 05/M09 A3033 RMK SLP329 T00481089 57032 IEM_DS3505
ZBYN,1999-11-28 07:00,ZBYN 280700Z AUTO 29012KT 6SM 05/M14 A3033 RMK T00501140 IEM_DS3505
ZBYN,1999-11-28 08:00,ZBYN 280800Z AUTO 29012KT 6SM 04/M14 A3033 RMK T00401140 IEM_DS3505
ZBYN,1999-11-28 09:00,ZBYN 280900Z AUTO 27016KT 12SM 03/M17 A3033 RMK SLP335 T00301174 54000 IEM_DS3505
ZBYN,1999-11-28 10:00,ZBYN 281000Z AUTO 28008KT 6SM 01/M13 A3036 RMK T00101130 IEM_DS3505
ZBYN,1999-11-28 11:00,ZBYN 281100Z AUTO 29008KT 6SM 01/M14 A3039 RMK T00101140 IEM_DS3505
ZBYN,1999-11-28 12:00,ZBYN 281200Z AUTO 29012KT 12SM 00/M16 A3039 RMK SLP363 T00051157 52021 IEM_DS3505
ZBYN,1999-11-28 13:00,ZBYN 281300Z AUTO 30006KT 6SM M01/M14 A3039 RMK T10101140 IEM_DS3505
ZBYN,1999-11-28 14:00,ZBYN 281400Z AUTO 26002KT 6SM M02/M14 A3042 RMK T10201140 IEM_DS3505
ZBYN,1999-11-28 15:00,ZBYN 281500Z AUTO 00000KT 12SM M03/M14 A3042 RMK SLP354 T10261144 52002 IEM_DS3505
ZBYN,1999-11-28 16:00,ZBYN 281600Z AUTO 10004KT 6SM M04/M14 A3042 RMK T10401140 IEM_DS3505
ZBYN,1999-11-28 17:00,ZBYN 281700Z AUTO 07002KT 6SM M07/M13 A3042 RMK T10701130 IEM_DS3505
ZBYN,1999-11-28 18:00,ZBYN 281800Z AUTO 09002KT 12SM M06/M13 A3039 RMK SLP347 T10651134 57005 IEM_DS3505
ZBYN,1999-11-28 19:00,ZBYN 281900Z AUTO 09002KT 6SM M08/M14 A3039 RMK T10801140 IEM_DS3505
ZBYN,1999-11-28 20:00,ZBYN 282000Z AUTO 09002KT 6SM M09/M14 A3039 RMK T10901140 IEM_DS3505
ZBYN,1999-11-28 21:00,ZBYN 282100Z AUTO 11002KT 12SM M08/M15 A3039 RMK SLP346 T10751150 57006 IEM_DS3505
ZBYN,1999-11-28 22:00,ZBYN 282200Z AUTO 10002KT 6SM M09/M13 A3039 RMK T10901130 IEM_DS3505
ZBYN,1999-11-28 23:00,ZBYN 282300Z AUTO 11002KT 6SM M10/M13 A3039 RMK T11001130 IEM_DS3505
ZBYN,1999-11-29 00:00,ZBYN 290000Z AUTO 00000KT 7SM M09/M14 RMK SLP360 T10901142 52006 IEM_DS3505
ZBYN,1999-11-29 01:00,ZBYN 290100Z AUTO 07004KT M05/M13 A3042 RMK T10501130 IEM_DS3505
ZBYN,1999-11-29 02:00,ZBYN 290200Z AUTO 20002KT 7SM M02/M13 A3042 RMK T10201130 IEM_DS3505
ZBYN,1999-11-29 03:00,ZBYN 290300Z AUTO 00000KT 5SM 00/M15 A3039 RMK SLP348 T00051150 54000 IEM_DS3505
ZBYN,1999-11-29 04:00,ZBYN 290400Z AUTO 20002KT 6SM 02/M13 A3036 RMK T00201130 IEM_DS3505
ZBYN,1999-11-29 05:00,ZBYN 290500Z AUTO 24004KT 6SM 04/M15 A3030 RMK T00401150 IEM_DS3505
ZBYN,1999-11-29 06:00,ZBYN 290600Z AUTO 25010KT 12SM 06/M15 A3027 RMK SLP304 T00591147 57037 IEM_DS3505
ZBYN,1999-11-29 07:00,ZBYN 290700Z AUTO 23004KT 6SM 05/M15 A3024 RMK T00501150 IEM_DS3505
ZBYN,1999-11-29 08:00,ZBYN 290800Z AUTO 23006KT 6SM 05/M13 A3024 RMK T00501130 IEM_DS3505
ZBYN,1999-11-29 09:00,ZBYN 290900Z AUTO 18004KT 9SM 04/M14 A3024 RMK SLP302 T00351142 57008 IEM_DS3505
ZBYN,1999-11-29 10:00,ZBYN 291000Z AUTO 00000KT 6SM 00/M14 A3024 RMK T00001140 IEM_DS3505
ZBYN,1999-11-29 11:00,ZBYN 291100Z AUTO 11002KT 6SM M04/M14 A3027 RMK T10401140 IEM_DS3505
ZBYN,1999-11-29 12:00,ZBYN 291200Z AUTO 00000KT 9SM M02/M15 A3030 RMK SLP323 T10151147 52008 IEM_DS3505
ZBYN,1999-11-29 13:00,ZBYN 291300Z AUTO 00000KT 6SM M06/M12 A3030 RMK T10601120 IEM_DS3505
ZBYN,1999-11-29 14:00,ZBYN 291400Z AUTO 05004KT 6SM M04/M14 A3030 RMK T10401140 IEM_DS3505
ZBYN,1999-11-29 15:00,ZBYN 291500Z AUTO 36006KT 9SM M00/M16 A3033 RMK SLP314 T10031162 52010 IEM_DS3505
ZBYN,1999-11-29 16:00,ZBYN 291600Z AUTO 09002KT 6SM M07/M15 A3033 RMK T10701150 IEM_DS3505
ZBYN,1999-11-29 17:00,ZBYN 291700Z AUTO 13002KT 6SM M08/M14 A3033 RMK T10801140 IEM_DS3505
ZBYN,1999-11-29 18:00,ZBYN 291800Z AUTO 00000KT 9SM M05/M16 A3033 RMK SLP319 T10461157 52007 IEM_DS3505
ZBYN,1999-11-29 19:00,ZBYN 291900Z AUTO 13002KT 6SM M08/M14 A3033 RMK T10801140 IEM_DS3505
ZBYN,1999-11-29 20:00,ZBYN 292000Z AUTO 12004KT 6SM M10/M15 A3033 RMK T11001150 IEM_DS3505
ZBYN,1999-11-29 21:00,ZBYN 292100Z AUTO 00000KT 9SM M07/M14 A3033 RMK SLP326 T10681138 57002 IEM_DS3505
ZBYN,1999-11-29 22:00,ZBYN 292200Z AUTO 12002KT 6SM M09/M15 A3033 RMK T10901150 IEM_DS3505
ZBYN,1999-11-29 23:00,ZBYN 292300Z AUTO 00000KT 6SM M10/M15 A3036 RMK T11001150 IEM_DS3505
ZBYN,1999-11-30 00:00,ZBYN 300000Z AUTO 00000KT 7SM M10/M14 RMK SLP353 T10961144 52012 IEM_DS3505
ZBYN,1999-11-30 01:00,ZBYN 300100Z AUTO 13004KT 6SM M06/M13 A3039 RMK T10601130 IEM_DS3505
ZBYN,1999-11-30 02:00,ZBYN 300200Z AUTO 00000KT 6SM M03/M13 A3039 RMK T10301130 IEM_DS3505
ZBYN,1999-11-30 03:00,ZBYN 300300Z AUTO 00000KT 4SM 00/M13 A3036 RMK SLP333 T00011126 54000 IEM_DS3505
ZBYN,1999-11-30 04:00,ZBYN 300400Z AUTO 00000KT 6SM 02/M14 A3033 RMK T00201140 IEM_DS3505
ZBYN,1999-11-30 05:00,ZBYN 300500Z AUTO 26002KT 6SM 03/M14 A3030 RMK T00301140 IEM_DS3505
ZBYN,1999-11-30 06:00,ZBYN 300600Z AUTO 18004KT 4SM 04/M12 A3027 RMK SLP299 T00441125 57031 IEM_DS3505
ZBYN,1999-11-30 07:00,ZBYN 300700Z AUTO 00000KT 6SM 04/M14 A3024 RMK T00401140 IEM_DS3505
ZBYN,1999-11-30 08:00,ZBYN 300800Z AUTO 23002KT 6SM 04/M14 A3024 RMK T00401140 IEM_DS3505
ZBYN,1999-11-30 09:00,ZBYN 300900Z AUTO 18004KT 4SM 03/M12 A3024 RMK SLP298 T00281120 57007 IEM_DS3505
ZBYN,1999-11-30 10:00,ZBYN 301000Z AUTO 00000KT 6SM 01/M13 A3024 RMK T00101130 IEM_DS3505
ZBYN,1999-11-30 11:00,ZBYN 301100Z AUTO 08002KT 6SM 00/M11 A3024 RMK T00001110 IEM_DS3505
ZBYN,1999-11-30 12:00,ZBYN 301200Z AUTO 00000KT 4SM 01/M10 A3027 RMK SLP315 T00071097 52007 IEM_DS3505
ZBYN,1999-11-30 13:00,ZBYN 301300Z AUTO 00000KT 6SM 00/M10 A3027 RMK T00001100 IEM_DS3505
ZBYN,1999-11-30 14:00,ZBYN 301400Z AUTO 19004KT 6SM 01/M11 A3030 RMK T00101110 IEM_DS3505
ZBYN,1999-11-30 15:00,ZBYN 301500Z AUTO 11004KT 4SM 01/M11 A3030 RMK SLP305 T00081111 52007 IEM_DS3505
ZBYN,1999-11-30 16:00,ZBYN 301600Z AUTO 13004KT 6SM 00/M09 A3030 RMK T00001090 IEM_DS3505
ZBYN,1999-11-30 17:00,ZBYN 301700Z AUTO 09002KT 6SM M01/M09 A3030 RMK T10101090 IEM_DS3505
ZBYN,1999-11-30 18:00,ZBYN 301800Z AUTO 14004KT 6SM M00/M10 A3030 RMK SLP301 T10041102 52002 IEM_DS3505
ZBYN,1999-11-30 19:00,ZBYN 301900Z AUTO 09002KT 6SM M01/M11 A3030 RMK T10101110 IEM_DS3505
ZBYN,1999-11-30 20:00,ZBYN 302000Z AUTO 10002KT 6SM M02/M10 A3027 RMK T10201100 IEM_DS3505
ZBYN,1999-11-30 21:00,ZBYN 302100Z AUTO 00000KT 6SM M02/M09 A3027 RMK SLP302 T10211091 57005 IEM_DS3505
ZBYN,1999-11-30 22:00,ZBYN 302200Z AUTO 00000KT 6SM M04/M09 A3030 RMK T10401090 IEM_DS3505
ZBYN,1999-11-30 23:00,ZBYN 302300Z AUTO 13002KT 6SM M05/M08 A3030 RMK T10501080 IEM_DS3505
ZBYN,1999-12-01 00:00,ZBYN 010000Z AUTO 34004KT 4SM M02/M09 A3030 RMK SLP319 T10251088 52011 IEM_DS3505
ZBYN,1999-12-01 01:00,ZBYN 010100Z AUTO 00000KT 4SM M03/M06 A3033 RMK T10301060 IEM_DS3505
ZBYN,1999-12-01 02:00,ZBYN 010200Z AUTO 14002KT 4SM 00/M05 A3033 RMK T00001050 IEM_DS3505
ZBYN,1999-12-01 03:00,ZBYN 010300Z AUTO 00000KT 4SM 02/M07 A3033 RMK SLP323 T00171070 52011 IEM_DS3505
ZBYN,1999-12-01 04:00,ZBYN 010400Z AUTO 16004KT 3SM 05/M02 A3030 RMK T00501020 IEM_DS3505
ZBYN,1999-12-01 05:00,ZBYN 010500Z AUTO 19004KT 3SM 05/M02 A3027 RMK T00501020 IEM_DS3505
ZBYN,1999-12-01 06:00,ZBYN 010600Z AUTO 20008KT 4SM 06/M05 A3027 RMK SLP295 T00651046 57019 IEM_DS3505
ZBYN,1999-12-01 07:00,ZBYN 010700Z AUTO 18002KT 3SM 07/M02 A3027 RMK T00701020 IEM_DS3505
ZBYN,1999-12-01 09:00,ZBYN 010900Z AUTO 09002KT 4SM 04/M03 RMK SLP309 T00411034 52006 IEM_DS3505
ZBYN,1999-12-01 10:00,ZBYN 011000Z AUTO 08004KT 4SM 01/M04 A3030 RMK T00101040 IEM_DS3505
ZBYN,1999-12-01 11:00,ZBYN 011100Z AUTO 11002KT 4SM M01/M04 A3033 RMK T10101040 IEM_DS3505
ZBYN,1999-12-01 12:00,ZBYN 011200Z AUTO 00000KT 2 1/2SM 00/M04 A3033 RMK SLP327 T00011041 52009 IEM_DS3505
ZBYN,1999-12-01 13:00,ZBYN 011300Z AUTO 00000KT 5SM M03/M05 A3036 RMK T10301050 IEM_DS3505
ZBYN,1999-12-01 14:00,ZBYN 011400Z AUTO 13002KT 4SM M03/M05 A3039 RMK T10301050 IEM_DS3505
ZBYN,1999-12-01 15:00,ZBYN 011500Z AUTO 34002KT 3SM M01/M05 A3039 RMK SLP341 T10111052 52017 IEM_DS3505
ZBYN,1999-12-01 16:00,ZBYN 011600Z AUTO 11002KT 6SM M04/M05 A3042 RMK T10401050 IEM_DS3505
ZBYN,1999-12-01 17:00,ZBYN 011700Z AUTO 07002KT 6SM M05/M06 A3042 RMK T10501060 IEM_DS3505
ZBYN,1999-12-01 18:00,ZBYN 011800Z AUTO 00000KT 4SM M03/M07 A3042 RMK SLP348 T10341067 52011 IEM_DS3505
ZBYN,1999-12-01 19:00,ZBYN 011900Z AUTO 08002KT 6SM M05/M06 A3042 RMK T10501060 IEM_DS3505
ZBYN,1999-12-01 20:00,ZBYN 012000Z AUTO 05002KT 6SM M05/M06 A3042 RMK T10501060 IEM_DS3505
ZBYN,1999-12-01 21:00,ZBYN 012100Z AUTO 34004KT 4SM M02/M08 A3042 RMK SLP349 T10251084 57002 IEM_DS3505
ZBYN,1999-12-01 22:00,ZBYN 012200Z AUTO 00000KT 2 1/2SM M04/M05 A3042 RMK T10401050 IEM_DS3505
ZBYN,1999-12-01 23:00,ZBYN 012300Z AUTO 00000KT 2SM M06/M07 A3045 RMK T10601070 IEM_DS3505
ZBYN,1999-12-02 00:00,ZBYN 020000Z AUTO 36004KT 5SM M02/M10 A3047 RMK SLP375 T10231104 52018 IEM_DS3505
ZBYN,1999-12-02 01:00,ZBYN 020100Z AUTO 00000KT 1SM M03/M04 A3047 RMK T10301040 IEM_DS3505
ZBYN,1999-12-02 02:00,ZBYN 020200Z AUTO 35006KT 1 1/2SM 01/M06 A3050 RMK T00101060 IEM_DS3505
ZBYN,1999-12-02 03:00,ZBYN 020300Z AUTO 36004KT 4SM 02/M10 A3047 RMK SLP376 T00241096 52006 IEM_DS3505
ZBYN,1999-12-02 04:00,ZBYN 020400Z AUTO 34002KT 2SM 06/M05 A3047 RMK T00601050 IEM_DS3505
ZBYN,1999-12-02 05:00,ZBYN 020500Z AUTO 01002KT 3SM 08/M04 A3042 RMK T00801040 IEM_DS3505
ZBYN,1999-12-02 06:00,ZBYN 020600Z AUTO 00000KT 6SM 09/M06 A3039 RMK SLP337 T00941058 57027 IEM_DS3505
ZBYN,1999-12-02 07:00,ZBYN 020700Z AUTO 14002KT 6SM 10/M06 A3039 RMK T01001060 IEM_DS3505
ZBYN,1999-12-02 08:00,ZBYN 020800Z AUTO 11002KT 6SM 10/M06 A3039 RMK T01001060 IEM_DS3505
ZBYN,1999-12-02 09:00,ZBYN 020900Z AUTO 00000KT 6SM 07/M06 A3042 RMK SLP341 T00691060 52001 IEM_DS3505
ZBYN,1999-12-02 10:00,ZBYN 021000Z AUTO 08010KT 6SM 06/M04 A3045 RMK T00601040 IEM_DS3505
ZBYN,1999-12-02 11:00,ZBYN 021100Z AUTO 00000KT 6SM 04/M07 A3045 RMK SLP370 T00351066 52021 IEM_DS3505
ZBYN,1999-12-02 12:00,ZBYN 021200Z AUTO 00000KT 6SM 04/M07 A3047 RMK SLP370 T00351066 52021 IEM_DS3505
ZBYN,1999-12-02 14:00,ZBYN 021400Z AUTO 07008KT 5SM 03/M04 A3050 RMK T00301040 IEM_DS3505
ZBYN,1999-12-02 15:00,ZBYN 021500Z AUTO 29002KT 6SM 03/M05 A3050 RMK SLP373 T00321047 52010 IEM_DS3505
ZBYN,1999-12-02 16:00,ZBYN 021600Z AUTO 08008KT 6SM 03/M04 A3050 RMK T00301040 IEM_DS3505
ZBYN,1999-12-02 17:00,ZBYN 021700Z AUTO 04002KT 6SM 03/M04 A3050 RMK T00301040 IEM_DS3505
ZBYN,1999-12-02 18:00,ZBYN 021800Z AUTO 00000KT 6SM 03/M05 A3050 RMK SLP357 T00291047 57004 IEM_DS3505
ZBYN,1999-12-02 19:00,ZBYN 021900Z AUTO 07002KT 03/M04 A3047 RMK T00301040 IEM_DS3505
ZBYN,1999-12-02 20:00,ZBYN 022000Z AUTO 00000KT 02/M04 A3047 RMK T00201040 IEM_DS3505
ZBYN,1999-12-02 21:00,ZBYN 022100Z AUTO 00000KT 6SM 02/M05 A3045 RMK SLP357 T00211051 57005 IEM_DS3505
ZBYN,1999-12-02 22:00,ZBYN 022200Z AUTO 00000KT 02/M04 A3045 RMK T00201040 IEM_DS3505
ZBYN,1999-12-02 23:00,ZBYN 022300Z AUTO 00000KT 02/M04 A3045 RMK T00201040 IEM_DS3505
ZBYN,1999-12-03 00:00,ZBYN 030000Z AUTO 00000KT 4SM 02/M05 A3045 RMK SLP360 T00221046 57003 IEM_DS3505
ZBYN,1999-12-03 01:00,ZBYN 030100Z AUTO 11004KT 2 1/2SM 02/M03 A3047 RMK T00201030 IEM_DS3505
ZBYN,1999-12-03 03:00,ZBYN 030300Z AUTO 18002KT 2 1/2SM 03/M05 A3047 RMK SLP359 T00311052 54000 IEM_DS3505
ZBYN,1999-12-03 04:00,ZBYN 030400Z AUTO 21006KT 1 1/4SM 02/M01 A3047 RMK T00201010 IEM_DS3505
ZBYN,1999-12-03 05:00,ZBYN 030500Z AUTO 20002KT 1SM 02/01 A3042 RMK T00200010 IEM_DS3505
ZBYN,1999-12-03 06:00,ZBYN 030600Z AUTO 20010KT 1 1/4SM 02/M00 RMK 60003 SLP348 T00151001 57013 IEM_DS3505
ZBYN,1999-12-03 08:00,ZBYN 030800Z AUTO 19002KT 3/8SM 02/02 A3039 RMK T00200020 IEM_DS3505
ZBYN,1999-12-03 09:00,ZBYN 030900Z AUTO 20008KT 1 1/4SM 02/01 A3039 RMK SLP339 T00170007 57009 IEM_DS3505
ZBYN,1999-12-03 10:00,ZBYN 031000Z AUTO 20002KT 3/8SM 02/02 A3039 RMK T00200020 IEM_DS3505
ZBYN,1999-12-03 11:00,ZBYN 031100Z AUTO 22002KT 1SM 02/02 A3042 RMK T00200020 IEM_DS3505
ZBYN,1999-12-03 12:00,ZBYN 031200Z AUTO 29002KT 6SM 02/M04 A3042 RMK 60003 SLP349 T00161036 52009 IEM_DS3505
ZBYN,1999-12-03 13:00,ZBYN 031300Z AUTO 29012KT 6SM 02/M03 A3045 RMK T00201030 IEM_DS3505
ZBYN,1999-12-03 14:00,ZBYN 031400Z AUTO 30006KT 6SM 02/M04 A3045 RMK T00201040 IEM_DS3505
ZBYN,1999-12-03 15:00,ZBYN 031500Z AUTO 29002KT 9SM 02/M06 A3047 RMK SLP362 T00151059 52013 IEM_DS3505
ZBYN,1999-12-03 16:00,ZBYN 031600Z AUTO 29008KT 6SM 01/M04 A3047 RMK T00101040 IEM_DS3505
ZBYN,1999-12-03 17:00,ZBYN 031700Z AUTO 28006KT 6SM 00/M04 A3045 RMK T00001040 IEM_DS3505
ZBYN,1999-12-03 18:00,ZBYN 031800Z AUTO 32012KT 9SM 01/M08 A3045 RMK SLP360 T00061085 57006 IEM_DS3505
ZBYN,1999-12-03 19:00,ZBYN 031900Z AUTO 27004KT 6SM M01/M06 A3045 RMK T10101060 IEM_DS3505
ZBYN,1999-12-03 20:00,ZBYN 032000Z AUTO 19002KT 6SM M01/M05 A3045 RMK T10101050 IEM_DS3505
ZBYN,1999-12-03 21:00,ZBYN 032100Z AUTO 29004KT 9SM M01/M08 A3045 RMK 70003 SLP360 T10111085 57002 IEM_DS3505
ZBYN,1999-12-03 23:00,ZBYN 032300Z AUTO 00000KT 6SM M05/M06 A3047 RMK T10501060 IEM_DS3505
ZBYN,1999-12-04 00:00,ZBYN 040000Z AUTO 29004KT 12SM M02/M08 A3050 RMK SLP377 T10171081 52014 IEM_DS3505
ZBYN,1999-12-04 01:00,ZBYN 040100Z AUTO 08002KT 6SM M04/M05 A3050 RMK T10401050 IEM_DS3505
ZBYN,1999-12-04 02:00,ZBYN 040200Z AUTO 02004KT 6SM 01/M05 A3050 RMK T00101050 IEM_DS3505
ZBYN,1999-12-04 03:00,ZBYN 040300Z AUTO 36002KT 7SM 02/M10 A3050 RMK SLP378 T00171099 52006 IEM_DS3505
ZBYN,1999-12-04 04:00,ZBYN 040400Z AUTO 35004KT 6SM 02/M06 A3047 RMK T00201060 IEM_DS3505
ZBYN,1999-12-04 05:00,ZBYN 040500Z AUTO 33002KT 6SM 03/M06 A3047 RMK T00301060 IEM_DS3505
ZBYN,1999-12-04 06:00,ZBYN 040600Z AUTO 00000KT 7SM 03/M11 A3045 RMK SLP358 T00321110 57017 IEM_DS3505
ZBYN,1999-12-04 07:00,ZBYN 040700Z AUTO 24006KT 6SM 03/M04 A3042 RMK T00301040 IEM_DS3505
ZBYN,1999-12-04 08:00,ZBYN 040800Z AUTO 24006KT 6SM 03/M05 A3042 RMK T00301050 IEM_DS3505
ZBYN,1999-12-04 09:00,ZBYN 040900Z AUTO 22004KT 9SM 03/M08 A3042 RMK SLP352 T00271079 57009 IEM_DS3505
ZBYN,1999-12-04 10:00,ZBYN 041000Z AUTO 25006KT 6SM 02/M06 A3042 RMK T00201060 IEM_DS3505
ZBYN,1999-12-04 11:00,ZBYN 041100Z AUTO 30008KT 6SM 02/M09 A3045 RMK T00201090 IEM_DS3505
ZBYN,1999-12-04 12:00,ZBYN 041200Z AUTO 32006KT 9SM 01/M12 A3047 RMK SLP374 T00071120 52016 IEM_DS3505
ZBYN,1999-12-04 13:00,ZBYN 041300Z AUTO 31012KT 6SM 00/M10 A3047 RMK T00001100 IEM_DS3505
ZBYN,1999-12-04 14:00,ZBYN 041400Z AUTO 31010KT 6SM M01/M09 A3047 RMK T10101090 IEM_DS3505
ZBYN,1999-12-04 15:00,ZBYN 041500Z AUTO 32002KT 6SM M01/M12 A3050 RMK SLP382 T10121117 52009 IEM_DS3505
ZBYN,1999-12-04 16:00,ZBYN 041600Z AUTO 20004KT 6SM M02/M09 A3050 RMK T10201090 IEM_DS3505
ZBYN,1999-12-04 17:00,ZBYN 041700Z AUTO 28004KT 6SM M02/M08 A3047 RMK T10201080 IEM_DS3505
ZBYN,1999-12-04 18:00,ZBYN 041800Z AUTO 00000KT 6SM M04/M10 A3047 RMK SLP376 T10391100 57007 IEM_DS3505
ZBYN,1999-12-04 19:00,ZBYN 041900Z AUTO 13002KT 6SM M06/M09 A3047 RMK T10601090 IEM_DS3505
ZBYN,1999-12-04 20:00,ZBYN 042000Z AUTO 13002KT 6SM M07/M08 A3045 RMK T10701080 IEM_DS3505
ZBYN,1999-12-04 21:00,ZBYN 042100Z AUTO 11004KT 7SM M06/M10 A3045 RMK SLP371 T10641102 57010 IEM_DS3505
ZBYN,1999-12-04 22:00,ZBYN 042200Z AUTO 00000KT 6SM M08/M09 A3045 RMK T10801090 IEM_DS3505
ZBYN,1999-12-04 23:00,ZBYN 042300Z AUTO 11002KT 6SM M08/M09 A3045 RMK T10801090 IEM_DS3505
ZBYN,1999-12-05 00:00,ZBYN 050000Z AUTO 11004KT 7SM M07/M10 A3045 RMK T10691099 IEM_DS3505
ZBYN,1999-12-05 01:00,ZBYN 050100Z AUTO 00000KT 3SM M05/M07 A3045 RMK T10501070 IEM_DS3505
ZBYN,1999-12-05 02:00,ZBYN 050200Z AUTO 00000KT 3SM M02/M07 A3045 RMK T10201070 IEM_DS3505
ZBYN,1999-12-05 03:00,ZBYN 050300Z AUTO 36004KT 12SM 02/M14 A3045 RMK SLP354 T00161137 57010 IEM_DS3505
ZBYN,1999-12-05 04:00,ZBYN 050400Z AUTO 26006KT 6SM 02/M10 A3042 RMK T00201100 IEM_DS3505
ZBYN,1999-12-05 05:00,ZBYN 050500Z AUTO 23006KT 6SM 03/M10 A3036 RMK T00301100 IEM_DS3505
ZBYN,1999-12-05 06:00,ZBYN 050600Z AUTO 32010KT 12SM 05/M11 A3033 RMK SLP327 T00461114 57024 IEM_DS3505
ZBYN,1999-12-05 07:00,ZBYN 050700Z AUTO 25006KT 6SM 04/M10 A3033 RMK T00401100 IEM_DS3505
ZBYN,1999-12-05 08:00,ZBYN 050800Z AUTO 30012KT 6SM 04/M14 A3033 RMK T00401140 IEM_DS3505
ZBYN,1999-12-05 09:00,ZBYN 050900Z AUTO 32010KT 12SM 02/M13 A3033 RMK SLP331 T00241130 57004 IEM_DS3505
ZBYN,1999-12-05 10:00,ZBYN 051000Z AUTO 29008KT 6SM 01/M14 A3036 RMK T00101140 IEM_DS3505
ZBYN,1999-12-05 11:00,ZBYN 051100Z AUTO 30008KT 6SM 00/M13 A3039 RMK T00001130 IEM_DS3505
ZBYN,1999-12-05 12:00,ZBYN 051200Z AUTO 32006KT 12SM M00/M14 A3042 RMK SLP366 T10031135 52026 IEM_DS3505
ZBYN,1999-12-05 13:00,ZBYN 051300Z AUTO 30008KT 6SM M01/M12 A3042 RMK T10101120 IEM_DS3505
ZBYN,1999-12-05 14:00,ZBYN 051400Z AUTO 31006KT 6SM M02/M12 A3045 RMK T10201120 IEM_DS3505
ZBYN,1999-12-05 15:00,ZBYN 051500Z AUTO 32004KT 11SM M02/M13 A3045 RMK SLP364 T10211134 52009 IEM_DS3505
ZBYN,1999-12-05 16:00,ZBYN 051600Z AUTO 11004KT 6SM M08/M12 A3045 RMK T10801120 IEM_DS3505
ZBYN,1999-12-05 17:00,ZBYN 051700Z AUTO 12004KT 6SM M08/M11 A3047 RMK T10801110 IEM_DS3505
ZBYN,1999-12-05 18:00,ZBYN 051800Z AUTO 00000KT 9SM M07/M12 A3047 RMK SLP377 T10691123 52009 IEM_DS3505
ZBYN,1999-12-05 19:00,ZBYN 051900Z AUTO 01002KT 6SM M08/M12 A3047 RMK T10801120 IEM_DS3505
ZBYN,1999-12-05 20:00,ZBYN 052000Z AUTO 11002KT 6SM M09/M12 A3047 RMK T10901120 IEM_DS3505
ZBYN,1999-12-05 21:00,ZBYN 052100Z AUTO 32002KT 9SM M05/M13 A3047 RMK SLP378 T10491131 52001 IEM_DS3505
ZBYN,1999-12-05 22:00,ZBYN 052200Z AUTO 11002KT 6SM M09/M12 A3050 RMK T10901120 IEM_DS3505
ZBYN,1999-12-05 23:00,ZBYN 052300Z AUTO 09002KT 6SM M09/M12 A3050 RMK T10901120 IEM_DS3505
ZBYN,1999-12-06 00:00,ZBYN 060000Z AUTO 00000KT 6SM M07/M13 A3053 RMK SLP402 T10721128 52013 IEM_DS3505
ZBYN,1999-12-06 01:00,ZBYN 060100Z AUTO 00000KT 6SM M06/M11 A3053 RMK T10601110 IEM_DS3505
ZBYN,1999-12-06 02:00,ZBYN 060200Z AUTO 00000KT 5SM M03/M10 A3053 RMK T10301100 IEM_DS3505
ZBYN,1999-12-06 03:00,ZBYN 060300Z AUTO 00000KT 6SM M00/M14 A3053 RMK SLP397 T10021139 52004 IEM_DS3505
ZBYN,1999-12-06 04:00,ZBYN 060400Z AUTO 22002KT 6SM 00/M13 A3050 RMK T00001130 IEM_DS3505
ZBYN,1999-12-06 05:00,ZBYN 060500Z AUTO 21004KT 6SM 01/M12 A3047 RMK T00101120 IEM_DS3505
ZBYN,1999-12-06 06:00,ZBYN 060600Z AUTO 20004KT 6SM 03/M15 A3045 RMK SLP378 T00261146 57020 IEM_DS3505
ZBYN,1999-12-06 07:00,ZBYN 060700Z AUTO 25002KT 6SM 03/M11 A3045 RMK T00301110 IEM_DS3505
ZBYN,1999-12-06 08:00,ZBYN 060800Z AUTO 21002KT 6SM 03/M12 A3042 RMK T00301120 IEM_DS3505
ZBYN,1999-12-06 09:00,ZBYN 060900Z AUTO 00000KT 6SM 01/M12 A3045 RMK SLP364 T00131118 57012 IEM_DS3505
ZBYN,1999-12-06 11:00,ZBYN 061100Z AUTO 10002KT 6SM M05/M11 A3045 RMK T10501110 IEM_DS3505
ZBYN,1999-12-06 12:00,ZBYN 061200Z AUTO 00000KT 6SM M02/M10 A3045 RMK SLP376 T10241101 52001 IEM_DS3505
ZBYN,1999-12-06 13:00,ZBYN 061300Z AUTO 13002KT 6SM M06/M12 A3045 RMK T10601120 IEM_DS3505
ZBYN,1999-12-06 14:00,ZBYN 061400Z AUTO 13004KT 6SM M07/M12 A3045 RMK T10701120 IEM_DS3505
ZBYN,1999-12-06 15:00,ZBYN 061500Z AUTO 34002KT 6SM M03/M12 A3045 RMK SLP364 T10291125 54000 IEM_DS3505
ZBYN,1999-12-06 16:00,ZBYN 061600Z AUTO 12002KT 6SM M07/M12 A3045 RMK T10701120 IEM_DS3505
ZBYN,1999-12-06 17:00,ZBYN 061700Z AUTO 12002KT 6SM M08/M11 A3045 RMK T10801110 IEM_DS3505
ZBYN,1999-12-06 18:00,ZBYN 061800Z AUTO 11002KT 6SM M07/M12 A3045 RMK SLP367 T10721117 54000 IEM_DS3505
ZBYN,1999-12-06 19:00,ZBYN 061900Z AUTO 00000KT 6SM M09/M11 A3045 RMK T10901110 IEM_DS3505
ZBYN,1999-12-06 20:00,ZBYN 062000Z AUTO 10002KT 6SM M09/M12 A3042 RMK T10901120 IEM_DS3505
ZBYN,1999-12-06 21:00,ZBYN 062100Z AUTO 00000KT 6SM M08/M12 A3042 RMK SLP366 T10771119 57004 IEM_DS3505
ZBYN,1999-12-06 22:00,ZBYN 062200Z AUTO 00000KT 6SM M10/M12 A3042 RMK T11001120 IEM_DS3505
ZBYN,1999-12-06 23:00,ZBYN 062300Z AUTO 12002KT 4SM M10/M13 A3039 RMK T11001130 IEM_DS3505
ZBYN,1999-12-07 00:00,ZBYN 070000Z AUTO 00000KT 4SM M09/M12 RMK SLP373 T10911121 57002 IEM_DS3505
ZBYN,1999-12-07 01:00,ZBYN 070100Z AUTO 00000KT 1 1/2SM M08/M11 A3042 RMK T10801110 IEM_DS3505
ZBYN,1999-12-07 02:00,ZBYN 070200Z AUTO 00000KT 1 1/2SM M05/M09 A3042 RMK T10501090 IEM_DS3505
ZBYN,1999-12-07 03:00,ZBYN 070300Z AUTO 14002KT 3SM M02/M10 A3039 RMK SLP352 T10211101 57008 IEM_DS3505
ZBYN,1999-12-07 04:00,ZBYN 070400Z AUTO 14002KT 2SM 00/M11 A3036 RMK T00001110 IEM_DS3505
ZBYN,1999-12-07 05:00,ZBYN 070500Z AUTO 2SM 02/M11 A3030 RMK T00201110 IEM_DS3505
ZBYN,1999-12-07 06:00,ZBYN 070600Z AUTO 18004KT 3SM 04/M11 A3027 RMK SLP312 T00371106 57034 IEM_DS3505
ZBYN,1999-12-07 07:00,ZBYN 070700Z AUTO 20004KT 05/M12 A3024 RMK T00501120 IEM_DS3505
ZBYN,1999-12-07 08:00,ZBYN 070800Z AUTO 17002KT 3SM 04/M10 A3024 RMK T00401100 IEM_DS3505
ZBYN,1999-12-07 09:00,ZBYN 070900Z AUTO 00000KT 4SM 02/M09 A3024 RMK SLP302 T00171088 57013 IEM_DS3505
ZBYN,1999-12-07 10:00,ZBYN 071000Z AUTO 10002KT 00/M11 A3024 RMK T00001110 IEM_DS3505
ZBYN,1999-12-07 11:00,ZBYN 071100Z AUTO 12002KT 2 1/2SM M02/M11 A3027 RMK T10201110 IEM_DS3505
ZBYN,1999-12-07 12:00,ZBYN 071200Z AUTO 18002KT 5SM M01/M10 A3027 RMK SLP318 T10131102 52007 IEM_DS3505
ZBYN,1999-12-07 13:00,ZBYN 071300Z AUTO 20004KT M01/M09 A3027 RMK T10101090 IEM_DS3505
ZBYN,1999-12-07 14:00,ZBYN 071400Z AUTO 12002KT M03/M09 A3030 RMK T10301090 IEM_DS3505
ZBYN,1999-12-07 15:00,ZBYN 071500Z AUTO 11004KT 6SM M04/M10 A3030 RMK SLP317 T10401101 52006 IEM_DS3505
ZBYN,1999-12-07 16:00,ZBYN 071600Z AUTO 08004KT 3SM M06/M09 A3030 RMK T10601090 IEM_DS3505
ZBYN,1999-12-07 17:00,ZBYN 071700Z AUTO 12002KT 3SM M06/M09 A3027 RMK T10601090 IEM_DS3505
ZBYN,1999-12-07 18:00,ZBYN 071800Z AUTO 00000KT 6SM M06/M10 A3027 RMK SLP310 T10601101 54000 IEM_DS3505
ZBYN,1999-12-07 19:00,ZBYN 071900Z AUTO 12002KT 6SM M07/M09 A3027 RMK T10701090 IEM_DS3505
ZBYN,1999-12-07 20:00,ZBYN 072000Z AUTO 16004KT 6SM M05/M09 A3027 RMK T10501090 IEM_DS3505
ZBYN,1999-12-07 21:00,ZBYN 072100Z AUTO 14002KT 6SM M04/M12 A3024 RMK SLP299 T10441117 57010 IEM_DS3505
ZBYN,1999-12-07 22:00,ZBYN 072200Z AUTO 00000KT 6SM M05/M10 A3024 RMK T10501100 IEM_DS3505
ZBYN,1999-12-07 23:00,ZBYN 072300Z AUTO 23002KT 6SM M03/M10 A3027 RMK T10301100 IEM_DS3505
ZBYN,1999-12-08 00:00,ZBYN 080000Z AUTO 27008KT 9SM 00/M14 A3027 RMK SLP304 T00021136 52007 IEM_DS3505
ZBYN,1999-12-08 01:00,ZBYN 080100Z AUTO 25002KT 6SM M01/M10 A3030 RMK T10101100 IEM_DS3505
ZBYN,1999-12-08 02:00,ZBYN 080200Z AUTO 25004KT 6SM 03/M11 A3030 RMK T00301110 IEM_DS3505
ZBYN,1999-12-08 03:00,ZBYN 080300Z AUTO 29008KT 9SM 04/M15 A3030 RMK SLP303 T00441146 52002 IEM_DS3505
ZBYN,1999-12-08 04:00,ZBYN 080400Z AUTO 22006KT 6SM 05/M11 A3027 RMK T00501110 IEM_DS3505
ZBYN,1999-12-08 05:00,ZBYN 080500Z AUTO 23008KT 6SM 06/M10 A3024 RMK T00601100 IEM_DS3505
ZBYN,1999-12-08 06:00,ZBYN 080600Z AUTO 25010KT 11SM 08/M13 A3024 RMK SLP283 T00841134 57015 IEM_DS3505
ZBYN,1999-12-08 07:00,ZBYN 080700Z AUTO 30010KT 6SM 08/M13 A3021 RMK T00801130 IEM_DS3505
ZBYN,1999-12-08 08:00,ZBYN 080800Z AUTO 29006KT 6SM 08/M12 A3021 RMK T00801120 IEM_DS3505
ZBYN,1999-12-08 09:00,ZBYN 080900Z AUTO 29004KT 11SM 06/M14 A3024 RMK SLP284 T00601137 57001 IEM_DS3505
ZBYN,1999-12-08 10:00,ZBYN 081000Z AUTO 24002KT 6SM 03/M10 A3027 RMK T00301100 IEM_DS3505
ZBYN,1999-12-08 11:00,ZBYN 081100Z AUTO 23004KT 6SM 01/M10 A3030 RMK T00101100 IEM_DS3505
ZBYN,1999-12-08 12:00,ZBYN 081200Z AUTO 32006KT 9SM 03/M13 A3030 RMK SLP302 T00341134 52020 IEM_DS3505
ZBYN,1999-12-08 13:00,ZBYN 081300Z AUTO 19002KT 1 1/4SM A3033 RMK IEM_DS3505
ZBYN,1999-12-08 14:00,ZBYN 081400Z AUTO 00000KT 6SM M02/M10 A3033 RMK T10201100 IEM_DS3505
ZBYN,1999-12-08 15:00,ZBYN 081500Z AUTO 16004KT 9SM M03/M11 A3033 RMK SLP314 T10331110 52007 IEM_DS3505
ZBYN,1999-12-08 16:00,ZBYN 081600Z AUTO 11002KT 6SM M05/M10 A3033 RMK T10501100 IEM_DS3505
ZBYN,1999-12-08 17:00,ZBYN 081700Z AUTO 09002KT 6SM M06/M10 A3030 RMK T10601100 IEM_DS3505
ZBYN,1999-12-08 18:00,ZBYN 081800Z AUTO 18004KT 6SM M06/M11 A3030 RMK SLP304 T10571111 57007 IEM_DS3505
ZBYN,1999-12-08 19:00,ZBYN 081900Z AUTO 10004KT 6SM M08/M11 A3030 RMK T10801110 IEM_DS3505
ZBYN,1999-12-08 20:00,ZBYN 082000Z AUTO 09002KT 6SM M07/M11 A3027 RMK T10701110 IEM_DS3505
ZBYN,1999-12-08 21:00,ZBYN 082100Z AUTO 00000KT 6SM M07/M10 A3024 RMK SLP296 T10661099 57012 IEM_DS3505
ZBYN,1999-12-08 22:00,ZBYN 082200Z AUTO 11004KT 6SM M07/M10 A3024 RMK T10701100 IEM_DS3505
ZBYN,1999-12-08 23:00,ZBYN 082300Z AUTO 00000KT 6SM M07/M11 A3024 RMK T10701110 IEM_DS3505
ZBYN,1999-12-09 00:00,ZBYN 090000Z AUTO 00000KT 5SM M06/M09 A3024 RMK SLP298 T10621094 57002 IEM_DS3505
ZBYN,1999-12-09 01:00,ZBYN 090100Z AUTO 12002KT 4SM M05/M08 A3024 RMK T10501080 IEM_DS3505
ZBYN,1999-12-09 02:00,ZBYN 090200Z AUTO 15002KT 4SM M01/M08 A3024 RMK T10101080 IEM_DS3505
ZBYN,1999-12-09 03:00,ZBYN 090300Z AUTO 14002KT 4SM 02/M09 A3021 RMK SLP290 T00151087 57006 IEM_DS3505
ZBYN,1999-12-09 04:00,ZBYN 090400Z AUTO 17002KT 6SM 04/M09 A3015 RMK T00401090 IEM_DS3505
ZBYN,1999-12-09 05:00,ZBYN 090500Z AUTO 00000KT 6SM 05/M09 A3009 RMK T00501090 IEM_DS3505
ZBYN,1999-12-09 06:00,ZBYN 090600Z AUTO 16006KT 4SM 06/M12 A3006 RMK SLP243 T00621118 57039 IEM_DS3505
ZBYN,1999-12-09 07:00,ZBYN 090700Z AUTO 00000KT 6SM 07/M09 A3003 RMK T00701090 IEM_DS3505
ZBYN,1999-12-09 08:00,ZBYN 090800Z AUTO 00000KT 6SM 07/M09 A3000 RMK T00701090 IEM_DS3505
ZBYN,1999-12-09 09:00,ZBYN 090900Z AUTO 00000KT 4SM 05/M06 A3000 RMK SLP223 T00461064 57022 IEM_DS3505
ZBYN,1999-12-09 10:00,ZBYN 091000Z AUTO 11002KT 6SM 02/M09 A3000 RMK T00201090 IEM_DS3505
ZBYN,1999-12-09 11:00,ZBYN 091100Z AUTO 11002KT 6SM M01/M09 A3000 RMK T10101090 IEM_DS3505
ZBYN,1999-12-09 12:00,ZBYN 091200Z AUTO 00000KT 5SM M00/M07 A3000 RMK SLP225 T10051070 57006 IEM_DS3505
ZBYN,1999-12-09 13:00,ZBYN 091300Z AUTO 09002KT 6SM M03/M09 A3000 RMK T10301090 IEM_DS3505
ZBYN,1999-12-09 14:00,ZBYN 091400Z AUTO 11002KT 6SM M03/M08 A3000 RMK T10301080 IEM_DS3505
ZBYN,1999-12-09 15:00,ZBYN 091500Z AUTO 34004KT 5SM M01/M07 A3003 RMK SLP218 T10061072 52006 IEM_DS3505
ZBYN,1999-12-09 16:00,ZBYN 091600Z AUTO 09002KT 6SM M03/M09 A3003 RMK T10301090 IEM_DS3505
ZBYN,1999-12-09 17:00,ZBYN 091700Z AUTO 00000KT 6SM M04/M09 A3003 RMK T10401090 IEM_DS3505
ZBYN,1999-12-09 18:00,ZBYN 091800Z AUTO 00000KT 5SM M03/M08 A3003 RMK SLP224 T10261080 52010 IEM_DS3505
ZBYN,1999-12-09 19:00,ZBYN 091900Z AUTO 11004KT 6SM M06/M09 A3006 RMK T10601090 IEM_DS3505
ZBYN,1999-12-09 20:00,ZBYN 092000Z AUTO 08002KT 6SM M06/M10 A3006 RMK T10601100 IEM_DS3505
ZBYN,1999-12-09 21:00,ZBYN 092100Z AUTO 00000KT 5SM M04/M08 A3009 RMK SLP242 T10441080 52011 IEM_DS3505
ZBYN,1999-12-09 22:00,ZBYN 092200Z AUTO 07002KT 6SM M04/M10 A3012 RMK T10401100 IEM_DS3505
ZBYN,1999-12-09 23:00,ZBYN 092300Z AUTO 11002KT 6SM M04/M09 A3015 RMK T10401090 IEM_DS3505
ZBYN,1999-12-10 00:00,ZBYN 100000Z AUTO 00000KT 4SM M05/M08 A3018 RMK SLP284 T10471084 52029 IEM_DS3505
ZBYN,1999-12-10 01:00,ZBYN 100100Z AUTO 00000KT 1SM M02/M07 A3021 RMK T10201070 IEM_DS3505
ZBYN,1999-12-10 02:00,ZBYN 100200Z AUTO 00000KT 1SM 01/M07 A3024 RMK T00101070 IEM_DS3505
ZBYN,1999-12-10 05:00,ZBYN 100500Z AUTO 36008KT 6SM 08/M14 A3024 RMK T00801140 IEM_DS3505
ZBYN,1999-12-10 06:00,ZBYN 100600Z AUTO 32004KT 6SM 08/M17 A3021 RMK SLP278 T00801170 57006 IEM_DS3505
ZBYN,1999-12-10 07:00,ZBYN 100700Z AUTO 28004KT 6SM 08/M12 A3021 RMK T00801120 IEM_DS3505
ZBYN,1999-12-10 08:00,ZBYN 100800Z AUTO 28004KT 6SM 07/M11 A3021 RMK T00701110 IEM_DS3505
ZBYN,1999-12-10 09:00,ZBYN 100900Z AUTO 25004KT 6SM 05/M12 A3024 RMK SLP286 T00531115 54000 IEM_DS3505
ZBYN,1999-12-10 10:00,ZBYN 101000Z AUTO 32006KT 6SM M00/M12 A3024 RMK T10031116 IEM_DS3505
ZBYN,1999-12-10 11:00,ZBYN 101100Z AUTO 31004KT 6SM 00/M12 A3027 RMK T00001120 IEM_DS3505
ZBYN,1999-12-10 12:00,ZBYN 101200Z AUTO 32006KT 6SM M00/M12 A3030 RMK SLP318 T10031116 52019 IEM_DS3505
ZBYN,1999-12-10 13:00,ZBYN 101300Z AUTO 00000KT 6SM M01/M12 A3030 RMK T10101120 IEM_DS3505
ZBYN,1999-12-10 14:00,ZBYN 101400Z AUTO 11002KT 6SM M04/M12 A3033 RMK T10401120 IEM_DS3505
ZBYN,1999-12-10 15:00,ZBYN 101500Z AUTO 34002KT 6SM 00/M10 A3033 RMK SLP318 T00001100 52016 IEM_DS3505
ZBYN,1999-12-10 16:00,ZBYN 101600Z AUTO 08002KT 6SM M05/M12 A3033 RMK T10501120 IEM_DS3505
ZBYN,1999-12-10 17:00,ZBYN 101700Z AUTO 00000KT 6SM M06/M11 A3036 RMK T10601110 IEM_DS3505
ZBYN,1999-12-10 18:00,ZBYN 101800Z AUTO 00000KT 6SM M04/M11 A3036 RMK SLP323 T10351114 52004 IEM_DS3505
ZBYN,1999-12-10 19:00,ZBYN 101900Z AUTO 00000KT 6SM M07/M12 A3036 RMK T10701120 IEM_DS3505
ZBYN,1999-12-10 20:00,ZBYN 102000Z AUTO 04002KT 6SM M08/M12 A3036 RMK T10801120 IEM_DS3505
ZBYN,1999-12-10 21:00,ZBYN 102100Z AUTO 00000KT 6SM M06/M11 A3036 RMK SLP332 T10651112 57001 IEM_DS3505
ZBYN,1999-12-10 22:00,ZBYN 102200Z AUTO 00000KT 6SM M07/M12 A3036 RMK T10701120 IEM_DS3505
ZBYN,1999-12-10 23:00,ZBYN 102300Z AUTO 00000KT 6SM M08/M12 A3036 RMK T10801120 IEM_DS3505
ZBYN,1999-12-11 00:00,ZBYN 110000Z AUTO 00000KT 6SM M08/M10 A3036 RMK SLP351 T10771104 52006 IEM_DS3505
ZBYN,1999-12-11 01:00,ZBYN 110100Z AUTO 12002KT 4SM M05/M09 A3039 RMK T10501090 IEM_DS3505
ZBYN,1999-12-11 03:00,ZBYN 110300Z AUTO 00000KT 4SM 00/M12 A3036 RMK SLP332 T00051117 57003 IEM_DS3505
ZBYN,1999-12-11 04:00,ZBYN 110400Z AUTO 00000KT 02/M10 A3033 RMK T00201100 IEM_DS3505
ZBYN,1999-12-11 05:00,ZBYN 110500Z AUTO 19002KT 6SM 04/M10 A3027 RMK T00401100 IEM_DS3505
ZBYN,1999-12-11 06:00,ZBYN 110600Z AUTO 18006KT 4SM 05/M11 A3024 RMK SLP290 T00461108 57037 IEM_DS3505
ZBYN,1999-12-11 07:00,ZBYN 110700Z AUTO 20004KT 2 1/2SM 06/M09 A3021 RMK T00601090 IEM_DS3505
ZBYN,1999-12-11 08:00,ZBYN 110800Z AUTO 00000KT 3SM 06/M09 A3021 RMK T00601090 IEM_DS3505
ZBYN,1999-12-11 09:00,ZBYN 110900Z AUTO 11008KT 2 1/2SM 04/M11 A3021 RMK SLP279 T00401109 57016 IEM_DS3505
ZBYN,1999-12-11 10:00,ZBYN 111000Z AUTO 15004KT 2 1/2SM 02/M08 A3021 RMK T00201080 IEM_DS3505
ZBYN,1999-12-11 12:00,ZBYN 111200Z AUTO 00000KT 4SM M00/M08 A3024 RMK SLP308 T10051079 52017 IEM_DS3505
ZBYN,1999-12-11 13:00,ZBYN 111300Z AUTO 00000KT M02/M10 A3024 RMK T10201100 IEM_DS3505
ZBYN,1999-12-11 14:00,ZBYN 111400Z AUTO 11002KT M03/M09 A3024 RMK T10301090 IEM_DS3505
ZBYN,1999-12-11 15:00,ZBYN 111500Z AUTO 32002KT 4SM M03/M08 A3024 RMK SLP292 T10301078 57005 IEM_DS3505
ZBYN,1999-12-11 16:00,ZBYN 111600Z AUTO 08002KT 2 1/2SM M05/M09 A3024 RMK T10501090 IEM_DS3505
ZBYN,1999-12-11 17:00,ZBYN 111700Z AUTO 12004KT 2 1/2SM M06/M09 A3024 RMK T10601090 IEM_DS3505
ZBYN,1999-12-11 18:00,ZBYN 111800Z AUTO 00000KT 4SM M05/M08 A3024 RMK SLP291 T10531083 52002 IEM_DS3505
ZBYN,1999-12-11 19:00,ZBYN 111900Z AUTO 08002KT 4SM M05/M09 A3024 RMK T10501090 IEM_DS3505
ZBYN,1999-12-11 20:00,ZBYN 112000Z AUTO 11002KT 6SM M06/M09 A3024 RMK T10601090 IEM_DS3505
ZBYN,1999-12-11 21:00,ZBYN 112100Z AUTO 34004KT 4SM M04/M08 A3021 RMK SLP281 T10361082 57007 IEM_DS3505
ZBYN,1999-12-11 22:00,ZBYN 112200Z AUTO 06002KT 2 1/2SM M05/M08 A3021 RMK T10501080 IEM_DS3505
ZBYN,1999-12-12 00:00,ZBYN 120000Z AUTO 00000KT 2SM M06/M09 A3024 RMK SLP302 T10651089 52006 IEM_DS3505
ZBYN,1999-12-12 01:00,ZBYN 120100Z AUTO 00000KT 2 1/2SM M05/M07 A3024 RMK T10501070 IEM_DS3505
ZBYN,1999-12-12 02:00,ZBYN 120200Z AUTO 16002KT 2 1/2SM 00/M07 A3024 RMK T00001070 IEM_DS3505
ZBYN,1999-12-12 03:00,ZBYN 120300Z AUTO 14004KT 4SM 01/M08 A3024 RMK SLP299 T00111085 52006 IEM_DS3505
ZBYN,1999-12-12 04:00,ZBYN 120400Z AUTO 00000KT 2SM 04/M07 A3021 RMK T00401070 IEM_DS3505
ZBYN,1999-12-12 05:00,ZBYN 120500Z AUTO 22004KT 1 1/2SM 06/M06 A3021 RMK T00601060 IEM_DS3505
ZBYN,1999-12-12 06:00,ZBYN 120600Z AUTO 18004KT 5SM 09/M10 RMK SLP266 T00861098 57021 IEM_DS3505
ZBYN,1999-12-12 08:00,ZBYN 120800Z AUTO 16002KT 3SM 09/M06 A3015 RMK T00901060 IEM_DS3505
ZBYN,1999-12-12 09:00,ZBYN 120900Z AUTO 27008KT 12SM 09/M12 RMK SLP259 T00941119 57003 IEM_DS3505
ZBYN,1999-12-12 10:00,ZBYN 121000Z AUTO 30004KT 6SM 03/M08 A3018 RMK T00301080 IEM_DS3505
ZBYN,1999-12-12 12:00,ZBYN 121200Z AUTO 32006KT 12SM 04/M09 A3027 RMK SLP298 T00401093 52022 IEM_DS3505
ZBYN,1999-12-12 14:00,ZBYN 121400Z AUTO 11004KT 6SM M03/M09 A3027 RMK T10301090 IEM_DS3505
ZBYN,1999-12-12 15:00,ZBYN 121500Z AUTO 14002KT 9SM M01/M09 A3027 RMK SLP305 T10141092 52010 IEM_DS3505
ZBYN,1999-12-12 16:00,ZBYN 121600Z AUTO 12004KT 6SM M03/M08 A3030 RMK T10301080 IEM_DS3505
ZBYN,1999-12-12 17:00,ZBYN 121700Z AUTO 09004KT 6SM M02/M08 A3027 RMK T10201080 IEM_DS3505
ZBYN,1999-12-12 18:00,ZBYN 121800Z AUTO 00000KT 6SM M02/M08 A3027 RMK SLP291 T10171085 57001 IEM_DS3505
ZBYN,1999-12-12 19:00,ZBYN 121900Z AUTO 12002KT 6SM M03/M07 A3027 RMK T10301070 IEM_DS3505
ZBYN,1999-12-12 20:00,ZBYN 122000Z AUTO 00000KT 6SM M03/M08 A3030 RMK T10301080 IEM_DS3505
ZBYN,1999-12-12 21:00,ZBYN 122100Z AUTO 14002KT 7SM M03/M10 A3030 RMK SLP292 T10261099 52001 IEM_DS3505
ZBYN,1999-12-12 22:00,ZBYN 122200Z AUTO 19002KT 6SM M04/M08 A3030 RMK T10401080 IEM_DS3505
ZBYN,1999-12-12 23:00,ZBYN 122300Z AUTO 09002KT 6SM M06/M09 A3030 RMK T10601090 IEM_DS3505
ZBYN,1999-12-13 00:00,ZBYN 130000Z AUTO 14004KT 7SM M05/M09 A3027 RMK SLP305 T10481094 57001 IEM_DS3505
ZBYN,1999-12-13 01:00,ZBYN 130100Z AUTO 14004KT 2 1/2SM M03/M07 A3030 RMK T10301070 IEM_DS3505
ZBYN,1999-12-13 02:00,ZBYN 130200Z AUTO 30017KT 6SM 05/M08 A3027 RMK T00501080 IEM_DS3505
ZBYN,1999-12-13 03:00,ZBYN 130300Z AUTO 36008KT 7SM 05/M11 A3027 RMK SLP300 T00541108 52004 IEM_DS3505
ZBYN,1999-12-13 04:00,ZBYN 130400Z AUTO 31016KT 6SM 06/M13 A3024 RMK T00601130 IEM_DS3505
ZBYN,1999-12-13 05:00,ZBYN 130500Z AUTO 32016KT 6SM 06/M14 A3021 RMK T00601140 IEM_DS3505
ZBYN,1999-12-13 06:00,ZBYN 130600Z AUTO 32016KT 6SM 06/M17 A3021 RMK SLP283 T00641172 57015 IEM_DS3505
ZBYN,1999-12-13 08:00,ZBYN 130800Z AUTO 32010KT 6SM 05/M13 A3024 RMK T00501130 IEM_DS3505
ZBYN,1999-12-13 09:00,ZBYN 130900Z AUTO 29010KT 6SM 04/M12 A3024 RMK SLP288 T00371123 57001 IEM_DS3505
ZBYN,1999-12-13 10:00,ZBYN 131000Z AUTO 31008KT 6SM 02/M13 A3024 RMK T00201130 IEM_DS3505
ZBYN,1999-12-13 11:00,ZBYN 131100Z AUTO 29004KT 6SM 02/M13 A3027 RMK T00201130 IEM_DS3505
ZBYN,1999-12-13 12:00,ZBYN 131200Z AUTO 29004KT 6SM 01/M13 A3027 RMK SLP309 T00111134 52011 IEM_DS3505
ZBYN,1999-12-13 13:00,ZBYN 131300Z AUTO 17002KT 6SM 00/M13 A3027 RMK T00001130 IEM_DS3505
ZBYN,1999-12-13 14:00,ZBYN 131400Z AUTO 31002KT 6SM M01/M13 A3027 RMK T10101130 IEM_DS3505
ZBYN,1999-12-13 15:00,ZBYN 131500Z AUTO 00000KT 6SM M02/M12 A3027 RMK SLP294 T10181122 57001 IEM_DS3505
ZBYN,1999-12-13 16:00,ZBYN 131600Z AUTO 24002KT 6SM M02/M13 A3027 RMK T10201130 IEM_DS3505
ZBYN,1999-12-13 17:00,ZBYN 131700Z AUTO 00000KT 6SM M04/M12 A3024 RMK T10401120 IEM_DS3505
ZBYN,1999-12-13 18:00,ZBYN 131800Z AUTO 00000KT 6SM M04/M12 A3021 RMK SLP288 T10351124 57007 IEM_DS3505
ZBYN,1999-12-13 20:00,ZBYN 132000Z AUTO 09004KT 6SM M06/M12 A3018 RMK T10601120 IEM_DS3505
ZBYN,1999-12-13 21:00,ZBYN 132100Z AUTO 00000KT 6SM M06/M12 A3015 RMK SLP272 T10581117 57023 IEM_DS3505
ZBYN,1999-12-13 22:00,ZBYN 132200Z AUTO 08004KT 6SM M06/M12 A3015 RMK T10601120 IEM_DS3505
ZBYN,1999-12-13 23:00,ZBYN 132300Z AUTO 10002KT 6SM M07/M13 A3015 RMK T10701130 IEM_DS3505
ZBYN,1999-12-14 00:00,ZBYN 140000Z AUTO 00000KT 4SM M06/M10 A3015 RMK SLP272 T10561100 57004 IEM_DS3505
ZBYN,1999-12-14 01:00,ZBYN 140100Z AUTO 12002KT 3SM M04/M11 A3015 RMK T10401110 IEM_DS3505
ZBYN,1999-12-14 02:00,ZBYN 140200Z AUTO 12002KT 3SM M02/M11 A3015 RMK T10201110 IEM_DS3505
ZBYN,1999-12-14 03:00,ZBYN 140300Z AUTO 00000KT 4SM 01/M13 A3015 RMK SLP263 T00111128 57002 IEM_DS3505
ZBYN,1999-12-14 04:00,ZBYN 140400Z AUTO 22004KT 6SM 04/M11 A3012 RMK T00401110 IEM_DS3505
ZBYN,1999-12-14 05:00,ZBYN 140500Z AUTO 23008KT 6SM 05/M11 A3009 RMK T00501110 IEM_DS3505
ZBYN,1999-12-14 06:00,ZBYN 140600Z AUTO 32010KT 11SM 05/M14 A3009 RMK SLP236 T00541145 57020 IEM_DS3505
ZBYN,1999-12-14 07:00,ZBYN 140700Z AUTO 33014KT 6SM 06/M13 A3006 RMK T00601130 IEM_DS3505
ZBYN,1999-12-14 08:00,ZBYN 140800Z AUTO 33008KT 6SM 05/M13 A3009 RMK T00501130 IEM_DS3505
ZBYN,1999-12-14 09:00,ZBYN 140900Z AUTO 32004KT 12SM 04/M13 A3009 RMK SLP245 T00381133 52002 IEM_DS3505
ZBYN,1999-12-14 10:00,ZBYN 141000Z AUTO 31006KT 6SM 00/M13 A3012 RMK T00001130 IEM_DS3505
ZBYN,1999-12-14 11:00,ZBYN 141100Z AUTO 34008KT 6SM 00/M13 A3012 RMK T00001130 IEM_DS3505
ZBYN,1999-12-14 12:00,ZBYN 141200Z AUTO 29008KT 9SM M00/M13 A3015 RMK SLP268 T10031127 52014 IEM_DS3505
ZBYN,1999-12-14 13:00,ZBYN 141300Z AUTO 15002KT 6SM M03/M13 A3015 RMK T10301130 IEM_DS3505
ZBYN,1999-12-14 14:00,ZBYN 141400Z AUTO 10002KT 6SM M05/M12 A3015 RMK T10501120 IEM_DS3505
ZBYN,1999-12-14 15:00,ZBYN 141500Z AUTO 00000KT 6SM M04/M12 A3012 RMK SLP260 T10401121 57002 IEM_DS3505
ZBYN,1999-12-14 16:00,ZBYN 141600Z AUTO 09002KT 6SM M06/M12 A3012 RMK T10601120 IEM_DS3505
ZBYN,1999-12-14 17:00,ZBYN 141700Z AUTO 12004KT 6SM M08/M12 A3012 RMK T10801120 IEM_DS3505
ZBYN,1999-12-14 18:00,ZBYN 141800Z AUTO 00000KT 6SM M06/M11 A3009 RMK SLP245 T10571106 57009 IEM_DS3505
ZBYN,1999-12-14 19:00,ZBYN 141900Z AUTO 00000KT 6SM M08/M12 A3009 RMK T10801120 IEM_DS3505
ZBYN,1999-12-14 20:00,ZBYN 142000Z AUTO 11002KT 6SM M08/M12 A3009 RMK T10801120 IEM_DS3505
ZBYN,1999-12-14 21:00,ZBYN 142100Z AUTO 00000KT 6SM M08/M10 A3006 RMK SLP243 T10771099 57008 IEM_DS3505
ZBYN,1999-12-14 22:00,ZBYN 142200Z AUTO 12002KT 6SM M08/M12 A3006 RMK T10801120 IEM_DS3505
ZBYN,1999-12-14 23:00,ZBYN 142300Z AUTO 00000KT 6SM M08/M12 A3006 RMK T10801120 IEM_DS3505
ZBYN,1999-12-15 00:00,ZBYN 150000Z AUTO 00000KT 6SM M09/M11 A3006 RMK SLP252 T10871111 54000 IEM_DS3505
ZBYN,1999-12-15 01:00,ZBYN 150100Z AUTO 00000KT 5SM M06/M10 A3009 RMK T10601100 IEM_DS3505
ZBYN,1999-12-15 02:00,ZBYN 150200Z AUTO 00000KT 5SM M03/M10 A3009 RMK T10301100 IEM_DS3505
ZBYN,1999-12-15 03:00,ZBYN 150300Z AUTO 14004KT 4SM M00/M11 A3006 RMK SLP240 T10051113 57004 IEM_DS3505
ZBYN,1999-12-15 04:00,ZBYN 150400Z AUTO 15002KT 5SM 02/M10 A3003 RMK T00201100 IEM_DS3505
ZBYN,1999-12-15 05:00,ZBYN 150500Z AUTO 24002KT 5SM 04/M09 A3000 RMK T00401090 IEM_DS3505
ZBYN,1999-12-15 06:00,ZBYN 150600Z AUTO 20006KT 4SM 06/M12 A2997 RMK SLP200 T00611119 57028 IEM_DS3505
ZBYN,1999-12-15 07:00,ZBYN 150700Z AUTO 21002KT 5SM 07/M09 A2997 RMK T00701090 IEM_DS3505
ZBYN,1999-12-15 09:00,ZBYN 150900Z AUTO 29010KT 7SM 07/M17 A3000 RMK SLP221 T00671168 52017 IEM_DS3505
ZBYN,1999-12-15 10:00,ZBYN 151000Z AUTO 32006KT 6SM 04/M12 A3006 RMK T00401120 IEM_DS3505
ZBYN,1999-12-15 11:00,ZBYN 151100Z AUTO 31006KT 6SM 03/M13 A3012 RMK T00301130 IEM_DS3505
ZBYN,1999-12-15 12:00,ZBYN 151200Z AUTO 29008KT 7SM 04/M19 A3015 RMK SLP267 T00371187 52035 IEM_DS3505
ZBYN,1999-12-15 13:00,ZBYN 151300Z AUTO 29004KT 6SM 01/M14 A3018 RMK T00101140 IEM_DS3505
ZBYN,1999-12-15 14:00,ZBYN 151400Z AUTO 30008KT 6SM 01/M16 A3018 RMK T00101160 IEM_DS3505
ZBYN,1999-12-15 15:00,ZBYN 151500Z AUTO 29008KT 7SM 01/M16 RMK SLP280 T00131165 52021 IEM_DS3505
ZBYN,1999-12-15 17:00,ZBYN 151700Z AUTO 30014KT 6SM 00/M14 A3021 RMK T00001140 IEM_DS3505
ZBYN,1999-12-15 18:00,ZBYN 151800Z AUTO 32004KT 7SM M02/M15 A3024 RMK SLP285 T10161149 52011 IEM_DS3505
ZBYN,1999-12-15 19:00,ZBYN 151900Z AUTO 27004KT 6SM M02/M14 A3024 RMK T10201140 IEM_DS3505
ZBYN,1999-12-15 20:00,ZBYN 152000Z AUTO 30004KT 6SM M02/M14 A3027 RMK T10201140 IEM_DS3505
ZBYN,1999-12-15 21:00,ZBYN 152100Z AUTO 34010KT 7SM M02/M14 A3027 RMK SLP292 T10201144 52007 IEM_DS3505
ZBYN,1999-12-15 22:00,ZBYN 152200Z AUTO 32006KT 6SM M04/M14 A3030 RMK T10401140 IEM_DS3505
ZBYN,1999-12-15 23:00,ZBYN 152300Z AUTO 31002KT 6SM M04/M13 A3030 RMK T10401130 IEM_DS3505
ZBYN,1999-12-16 00:00,ZBYN 160000Z AUTO 34004KT 6SM M05/M14 A3033 RMK SLP326 T10481141 52021 IEM_DS3505
ZBYN,1999-12-16 01:00,ZBYN 160100Z AUTO 35004KT 6SM M03/M12 A3033 RMK T10301120 IEM_DS3505
ZBYN,1999-12-16 02:00,ZBYN 160200Z AUTO 33008KT 6SM M01/M14 A3036 RMK T10101140 IEM_DS3505
ZBYN,1999-12-16 03:00,ZBYN 160300Z AUTO 00000KT 6SM M01/M15 A3036 RMK SLP330 T10111152 52006 IEM_DS3505
ZBYN,1999-12-16 04:00,ZBYN 160400Z AUTO 22002KT 6SM 00/M14 A3033 RMK T00001140 IEM_DS3505
ZBYN,1999-12-16 05:00,ZBYN 160500Z AUTO 19004KT 6SM 01/M13 A3033 RMK T00101130 IEM_DS3505
ZBYN,1999-12-16 06:00,ZBYN 160600Z AUTO 18006KT 6SM 02/M14 A3027 RMK SLP314 T00231139 57014 IEM_DS3505
ZBYN,1999-12-16 07:00,ZBYN 160700Z AUTO 20004KT 6SM 03/M14 A3027 RMK T00301140 IEM_DS3505
ZBYN,1999-12-16 08:00,ZBYN 160800Z AUTO 19002KT 6SM 03/M13 A3027 RMK T00301130 IEM_DS3505
ZBYN,1999-12-16 09:00,ZBYN 160900Z AUTO 16004KT 7SM 00/M14 A3027 RMK SLP313 T00041138 57005 IEM_DS3505
ZBYN,1999-12-16 10:00,ZBYN 161000Z AUTO 00000KT 6SM M01/M13 A3030 RMK T10101130 IEM_DS3505
ZBYN,1999-12-16 11:00,ZBYN 161100Z AUTO 00000KT 6SM M03/M13 A3030 RMK T10301130 IEM_DS3505
ZBYN,1999-12-16 12:00,ZBYN 161200Z AUTO 32008KT 9SM 00/M14 A3033 RMK SLP332 T00011138 52012 IEM_DS3505
ZBYN,1999-12-16 13:00,ZBYN 161300Z AUTO 00000KT 6SM 01/M14 A3033 RMK T00101140 IEM_DS3505
ZBYN,1999-12-16 14:00,ZBYN 161400Z AUTO 35008KT 6SM 00/M15 A3033 RMK T00001150 IEM_DS3505
ZBYN,1999-12-16 15:00,ZBYN 161500Z AUTO 29002KT 6SM M02/M15 A3033 RMK SLP336 T10191149 52007 IEM_DS3505
ZBYN,1999-12-16 16:00,ZBYN 161600Z AUTO 29006KT 6SM M03/M13 A3033 RMK T10301130 IEM_DS3505
ZBYN,1999-12-16 17:00,ZBYN 161700Z AUTO 00000KT 6SM M04/M13 A3033 RMK T10401130 IEM_DS3505
ZBYN,1999-12-16 18:00,ZBYN 161800Z AUTO 00000KT 6SM M03/M15 A3033 RMK SLP327 T10321150 57005 IEM_DS3505
ZBYN,1999-12-16 19:00,ZBYN 161900Z AUTO 00000KT 6SM M03/M14 A3033 RMK T10301140 IEM_DS3505
ZBYN,1999-12-16 20:00,ZBYN 162000Z AUTO 07002KT 6SM M05/M13 A3033 RMK T10501130 IEM_DS3505
ZBYN,1999-12-16 21:00,ZBYN 162100Z AUTO 00000KT 6SM M05/M15 A3033 RMK SLP329 T10511147 57004 IEM_DS3505
ZBYN,1999-12-16 22:00,ZBYN 162200Z AUTO 00000KT 6SM M07/M13 A3033 RMK T10701130 IEM_DS3505
ZBYN,1999-12-17 00:00,ZBYN 170000Z AUTO 00000KT 7SM M05/M15 A3033 RMK SLP335 T10541146 52004 IEM_DS3505
ZBYN,1999-12-17 01:00,ZBYN 170100Z AUTO 32012KT 12SM M06/M12 A3036 RMK T10601120 52013 IEM_DS3505
ZBYN,1999-12-17 02:00,ZBYN 170200Z AUTO 06002KT 6SM M03/M12 A3036 RMK T10301120 IEM_DS3505
ZBYN,1999-12-17 03:00,ZBYN 170300Z AUTO 16004KT 6SM 00/M13 A3036 RMK SLP335 T00051129 52007 IEM_DS3505
ZBYN,1999-12-17 04:00,ZBYN 170400Z AUTO 24002KT 6SM 01/M13 A3033 RMK T00101130 IEM_DS3505
ZBYN,1999-12-17 05:00,ZBYN 170500Z AUTO 31012KT 7SM 02/M14 A3030 RMK T00201140 IEM_DS3505
ZBYN,1999-12-17 06:00,ZBYN 170600Z AUTO 34012KT 12SM 02/M15 A3030 RMK SLP313 T00181152 57020 IEM_DS3505
ZBYN,1999-12-17 07:00,ZBYN 170700Z AUTO 31014KT 6SM 02/M17 A3030 RMK T00201170 IEM_DS3505
ZBYN,1999-12-17 08:00,ZBYN 170800Z AUTO 31014KT 6SM 01/M19 A3033 RMK T00101190 IEM_DS3505
ZBYN,1999-12-17 09:00,ZBYN 170900Z AUTO 32012KT 12SM M00/M16 RMK SLP335 T10031162 52013 IEM_DS3505
ZBYN,1999-12-17 10:00,ZBYN 171000Z AUTO 33010KT 6SM M01/M18 A3036 RMK T10101180 IEM_DS3505
ZBYN,1999-12-17 11:00,ZBYN 171100Z AUTO 30004KT 6SM M04/M17 A3039 RMK T10401170 IEM_DS3505
ZBYN,1999-12-17 12:00,ZBYN 171200Z AUTO 36006KT 9SM M03/M15 A3039 RMK SLP367 T10341147 52023 IEM_DS3505
ZBYN,1999-12-17 13:00,ZBYN 171300Z AUTO 00000KT 6SM M05/M18 A3042 RMK T10501180 IEM_DS3505
ZBYN,1999-12-17 14:00,ZBYN 171400Z AUTO 11002KT 6SM M05/M16 A3042 RMK T10501160 IEM_DS3505
ZBYN,1999-12-17 15:00,ZBYN 171500Z AUTO 00000KT 9SM M07/M14 A3042 RMK SLP370 T10681145 52007 IEM_DS3505
ZBYN,1999-12-17 16:00,ZBYN 171600Z AUTO 09002KT 6SM M09/M18 A3042 RMK T10901180 IEM_DS3505
ZBYN,1999-12-17 17:00,ZBYN 171700Z AUTO 00000KT 6SM M10/M18 A3042 RMK T11001180 IEM_DS3505
ZBYN,1999-12-17 18:00,ZBYN 171800Z AUTO 32004KT 9SM M08/M14 A3042 RMK SLP367 T10801145 57002 IEM_DS3505
ZBYN,1999-12-17 19:00,ZBYN 171900Z AUTO 00000KT 6SM M10/M17 A3045 RMK T11001170 IEM_DS3505
ZBYN,1999-12-17 20:00,ZBYN 172000Z AUTO 29002KT 6SM M09/M16 A3045 RMK T10901160 IEM_DS3505
ZBYN,1999-12-17 21:00,ZBYN 172100Z AUTO 00000KT 9SM M08/M17 A3045 RMK SLP383 T10851166 52010 IEM_DS3505
ZBYN,1999-12-17 22:00,ZBYN 172200Z AUTO 11002KT 6SM M13/M18 A3047 RMK T11301180 IEM_DS3505
ZBYN,1999-12-17 23:00,ZBYN 172300Z AUTO 30004KT 6SM M11/M16 A3047 RMK T11101160 IEM_DS3505
ZBYN,1999-12-18 00:00,ZBYN 180000Z AUTO 34004KT 6SM M10/M17 A3050 RMK SLP407 T10961170 52014 IEM_DS3505
ZBYN,1999-12-18 01:00,ZBYN 180100Z AUTO 34002KT 6SM M09/M16 A3053 RMK T10901160 IEM_DS3505
ZBYN,1999-12-18 02:00,ZBYN 180200Z AUTO 36006KT 6SM M06/M17 A3053 RMK T10601170 IEM_DS3505
ZBYN,1999-12-18 03:00,ZBYN 180300Z AUTO 34006KT 6SM M07/M19 A3053 RMK SLP419 T10661192 52010 IEM_DS3505
ZBYN,1999-12-18 04:00,ZBYN 180400Z AUTO 30004KT 6SM M05/M19 A3050 RMK T10501190 IEM_DS3505
ZBYN,1999-12-18 05:00,ZBYN 180500Z AUTO 29004KT 6SM M04/M22 A3047 RMK T10401220 IEM_DS3505
ZBYN,1999-12-18 06:00,ZBYN 180600Z AUTO 29008KT 11SM M03/M25 A3045 RMK SLP393 T10341252 57020 IEM_DS3505
ZBYN,1999-12-18 07:00,ZBYN 180700Z AUTO 29014KT 6SM M03/M23 A3045 RMK T10301230 IEM_DS3505
ZBYN,1999-12-18 08:00,ZBYN 180800Z AUTO 31014KT 6SM M03/M23 A3045 RMK T10301230 IEM_DS3505
ZBYN,1999-12-18 09:00,ZBYN 180900Z AUTO 29016KT 11SM M05/M26 A3047 RMK SLP398 T10501258 52001 IEM_DS3505
ZBYN,1999-12-18 10:00,ZBYN 181000Z AUTO 30008KT 6SM M06/M22 A3047 RMK T10601220 IEM_DS3505
ZBYN,1999-12-18 11:00,ZBYN 181100Z AUTO 31010KT 6SM M07/M23 A3050 RMK T10701230 IEM_DS3505
ZBYN,1999-12-18 12:00,ZBYN 181200Z AUTO 32002KT 9SM M08/M23 RMK SLP422 T10761227 52015 IEM_DS3505
ZBYN,1999-12-18 13:00,ZBYN 181300Z AUTO 30004KT 6SM M09/M21 A3053 RMK T10901210 IEM_DS3505
ZBYN,1999-12-18 14:00,ZBYN 181400Z AUTO 28002KT 6SM M09/M19 A3053 RMK T10901190 IEM_DS3505
ZBYN,1999-12-18 15:00,ZBYN 181500Z AUTO 29002KT 9SM M09/M19 A3053 RMK SLP419 T10941190 54000 IEM_DS3505
ZBYN,1999-12-18 16:00,ZBYN 181600Z AUTO 29004KT 6SM M09/M19 A3053 RMK T10901190 IEM_DS3505
ZBYN,1999-12-18 17:00,ZBYN 181700Z AUTO 29002KT 6SM M10/M19 A3053 RMK T11001190 IEM_DS3505
ZBYN,1999-12-18 18:00,ZBYN 181800Z AUTO 32006KT 9SM M10/M18 A3053 RMK SLP413 T11001180 57001 IEM_DS3505
ZBYN,1999-12-18 19:00,ZBYN 181900Z AUTO 31008KT 6SM M10/M22 A3053 RMK T11001220 IEM_DS3505
ZBYN,1999-12-18 20:00,ZBYN 182000Z AUTO 30012KT 6SM M11/M22 A3053 RMK T11101220 IEM_DS3505
ZBYN,1999-12-18 21:00,ZBYN 182100Z AUTO 32006KT 9SM M11/M20 A3056 RMK SLP424 T11141199 52005 IEM_DS3505
ZBYN,1999-12-18 22:00,ZBYN 182200Z AUTO 30010KT 6SM M11/M23 A3056 RMK T11101230 IEM_DS3505
ZBYN,1999-12-18 23:00,ZBYN 182300Z AUTO 30012KT 6SM M12/M24 A3059 RMK T11201240 IEM_DS3505
ZBYN,1999-12-19 00:00,ZBYN 190000Z AUTO 32014KT 12SM M13/M22 A3059 RMK SLP449 T11281219 52015 IEM_DS3505
ZBYN,1999-12-19 01:00,ZBYN 190100Z AUTO 30012KT 6SM M11/M24 A3062 RMK T11101240 IEM_DS3505
ZBYN,1999-12-19 02:00,ZBYN 190200Z AUTO 31012KT 6SM M11/M25 A3062 RMK T11101250 IEM_DS3505
ZBYN,1999-12-19 03:00,ZBYN 190300Z AUTO 32010KT 12SM M10/M21 A3062 RMK SLP465 T11011208 52016 IEM_DS3505
ZBYN,1999-12-19 04:00,ZBYN 190400Z AUTO 31008KT 6SM M08/M27 A3062 RMK T10801270 IEM_DS3505
ZBYN,1999-12-19 05:00,ZBYN 190500Z AUTO 33010KT 6SM M08/M27 A3059 RMK T10801270 IEM_DS3505
ZBYN,1999-12-19 06:00,ZBYN 190600Z AUTO 32012KT 12SM M08/M25 A3059 RMK SLP442 T10761252 57017 IEM_DS3505
ZBYN,1999-12-19 07:00,ZBYN 190700Z AUTO 33006KT 6SM M07/M25 A3056 RMK T10701250 IEM_DS3505
ZBYN,1999-12-19 08:00,ZBYN 190800Z AUTO 29014KT 6SM M07/M24 A3056 RMK T10701240 IEM_DS3505
ZBYN,1999-12-19 09:00,ZBYN 190900Z AUTO 27017KT 12SM M08/M24 A3056 RMK SLP443 T10841237 57003 IEM_DS3505
ZBYN,1999-12-19 10:00,ZBYN 191000Z AUTO 30012KT 6SM M09/M23 A3056 RMK T10901230 IEM_DS3505
ZBYN,1999-12-19 11:00,ZBYN 191100Z AUTO 30008KT 6SM M09/M24 A3059 RMK T10901240 IEM_DS3505
ZBYN,1999-12-19 12:00,ZBYN 191200Z AUTO 29010KT 12SM M10/M22 A3059 RMK SLP456 T11011217 52006 IEM_DS3505
ZBYN,1999-12-19 13:00,ZBYN 191300Z AUTO 28004KT 6SM M10/M24 A3059 RMK T11001240 IEM_DS3505
ZBYN,1999-12-19 15:00,ZBYN 191500Z AUTO 18006KT 12SM M12/M22 A3059 RMK SLP449 T11161217 57004 IEM_DS3505
ZBYN,1999-12-19 16:00,ZBYN 191600Z AUTO 22002KT 6SM M13/M23 A3056 RMK T11301230 IEM_DS3505
ZBYN,1999-12-19 17:00,ZBYN 191700Z AUTO 20002KT 6SM M13/M23 A3053 RMK T11301230 IEM_DS3505
ZBYN,1999-12-19 18:00,ZBYN 191800Z AUTO 16004KT 11SM M14/M22 A3053 RMK SLP440 T11391218 57008 IEM_DS3505
ZBYN,1999-12-19 19:00,ZBYN 191900Z AUTO 00000KT 6SM M14/M23 A3050 RMK T11401230 IEM_DS3505
ZBYN,1999-12-19 20:00,ZBYN 192000Z AUTO 13002KT 6SM M16/M23 A3050 RMK T11601230 IEM_DS3505
ZBYN,1999-12-19 21:00,ZBYN 192100Z AUTO 11006KT 11SM M14/M21 A3047 RMK SLP414 T11431212 57026 IEM_DS3505
ZBYN,1999-12-19 22:00,ZBYN 192200Z AUTO 11002KT 6SM M17/M24 A3047 RMK T11701240 IEM_DS3505
ZBYN,1999-12-19 23:00,ZBYN 192300Z AUTO 09002KT 6SM M16/M23 A3047 RMK T11601230 IEM_DS3505
ZBYN,1999-12-20 00:00,ZBYN 200000Z AUTO 09004KT 6SM M16/M22 A3047 RMK SLP418 T11611218 57002 IEM_DS3505
ZBYN,1999-12-20 01:00,ZBYN 200100Z AUTO 12002KT 6SM M13/M22 A3047 RMK T11301220 IEM_DS3505
ZBYN,1999-12-20 02:00,ZBYN 200200Z AUTO 18002KT 6SM M12/M23 A3047 RMK T11201230 IEM_DS3505
ZBYN,1999-12-20 03:00,ZBYN 200300Z AUTO 09002KT 6SM M10/M18 A3047 RMK SLP414 T11011183 52004 IEM_DS3505
ZBYN,1999-12-20 04:00,ZBYN 200400Z AUTO 18002KT 6SM M08/M22 A3045 RMK T10801220 IEM_DS3505
ZBYN,1999-12-20 05:00,ZBYN 200500Z AUTO 15004KT 6SM M06/M24 A3042 RMK T10601240 IEM_DS3505
ZBYN,1999-12-20 06:00,ZBYN 200600Z AUTO 00000KT 6SM M06/M20 A3042 RMK SLP387 T10561195 57020 IEM_DS3505
ZBYN,1999-12-20 07:00,ZBYN 200700Z AUTO 00000KT 6SM M05/M24 A3042 RMK T10501240 IEM_DS3505
ZBYN,1999-12-20 08:00,ZBYN 200800Z AUTO 00000KT 6SM M05/M24 A3045 RMK T10501240 IEM_DS3505
ZBYN,1999-12-20 09:00,ZBYN 200900Z AUTO 02004KT 9SM M06/M20 A3045 RMK SLP406 T10621201 52015 IEM_DS3505
ZBYN,1999-12-20 10:00,ZBYN 201000Z AUTO 36006KT 6SM M07/M22 A3047 RMK T10701220 IEM_DS3505
ZBYN,1999-12-20 11:00,ZBYN 201100Z AUTO 35008KT 6SM M08/M22 A3050 RMK T10801220 IEM_DS3505
ZBYN,1999-12-20 12:00,ZBYN 201200Z AUTO 02010KT 9SM M08/M22 A3056 RMK SLP445 T10821220 52028 IEM_DS3505
ZBYN,1999-12-20 13:00,ZBYN 201300Z AUTO 35008KT 6SM M09/M21 A3056 RMK T10901210 IEM_DS3505
ZBYN,1999-12-20 14:00,ZBYN 201400Z AUTO 34004KT 6SM M10/M21 A3059 RMK T11001210 IEM_DS3505
ZBYN,1999-12-20 15:00,ZBYN 201500Z AUTO 36008KT 7SM M10/M20 A3059 RMK SLP454 T10971196 52017 IEM_DS3505
ZBYN,1999-12-20 16:00,ZBYN 201600Z AUTO 06002KT 6SM M11/M22 A3062 RMK T11101220 IEM_DS3505
ZBYN,1999-12-20 17:00,ZBYN 201700Z AUTO 36006KT 6SM M11/M21 A3062 RMK T11101210 IEM_DS3505
ZBYN,1999-12-20 18:00,ZBYN 201800Z AUTO 32008KT 6SM M11/M20 A3062 RMK SLP461 T11141195 52013 IEM_DS3505
ZBYN,1999-12-20 19:00,ZBYN 201900Z AUTO 35008KT 6SM M11/M21 A3065 RMK T11101210 IEM_DS3505
ZBYN,1999-12-20 20:00,ZBYN 202000Z AUTO 33006KT 6SM M12/M22 A3065 RMK T11201220 IEM_DS3505
ZBYN,1999-12-20 21:00,ZBYN 202100Z AUTO 34004KT 6SM M12/M19 A3065 RMK SLP466 T11171193 52003 IEM_DS3505
ZBYN,1999-12-20 22:00,ZBYN 202200Z AUTO 35008KT 6SM M12/M22 A3065 RMK T11201220 IEM_DS3505
ZBYN,1999-12-20 23:00,ZBYN 202300Z AUTO 36004KT 6SM M13/M22 A3065 RMK T11301220 IEM_DS3505
ZBYN,1999-12-21 00:00,ZBYN 210000Z AUTO 36002KT 6SM M13/M20 A3068 RMK SLP478 T11291203 52005 IEM_DS3505
ZBYN,1999-12-21 01:00,ZBYN 210100Z AUTO 00000KT 6SM M12/M22 A3071 RMK T11201220 IEM_DS3505
ZBYN,1999-12-21 02:00,ZBYN 210200Z AUTO 36008KT 6SM M10/M22 A3071 RMK T11001220 IEM_DS3505
ZBYN,1999-12-21 03:00,ZBYN 210300Z AUTO 34004KT 6SM M09/M22 A3071 RMK SLP486 T10871223 52012 IEM_DS3505
ZBYN,1999-12-21 04:00,ZBYN 210400Z AUTO 36010KT 6SM M07/M22 A3068 RMK T10701220 IEM_DS3505
ZBYN,1999-12-21 05:00,ZBYN 210500Z AUTO 36010KT 6SM M05/M22 A3065 RMK T10501220 IEM_DS3505
ZBYN,1999-12-21 06:00,ZBYN 210600Z AUTO 36006KT 6SM M05/M23 A3062 RMK SLP465 T10461232 57015 IEM_DS3505
ZBYN,1999-12-21 07:00,ZBYN 210700Z AUTO 22004KT 6SM M05/M21 A3062 RMK T10501210 IEM_DS3505
ZBYN,1999-12-21 08:00,ZBYN 210800Z AUTO 25004KT 6SM M04/M20 A3062 RMK T10401200 IEM_DS3505
ZBYN,1999-12-21 11:00,ZBYN 211100Z AUTO 28002KT 6SM M08/M20 A3065 RMK T10801200 IEM_DS3505
ZBYN,1999-12-21 12:00,ZBYN 211200Z AUTO 00000KT 9SM M09/M21 A3065 RMK SLP481 T10901209 52004 IEM_DS3505
ZBYN,1999-12-21 13:00,ZBYN 211300Z AUTO 00000KT 6SM M11/M21 A3065 RMK T11101210 IEM_DS3505
ZBYN,1999-12-21 14:00,ZBYN 211400Z AUTO 00000KT 6SM M12/M21 A3065 RMK T11201210 IEM_DS3505
ZBYN,1999-12-21 15:00,ZBYN 211500Z AUTO 00000KT 9SM M09/M21 A3065 RMK SLP463 T10881214 57008 IEM_DS3505
ZBYN,1999-12-21 17:00,ZBYN 211700Z AUTO 00000KT 6SM M14/M21 A3062 RMK T11401210 IEM_DS3505
ZBYN,1999-12-21 20:00,ZBYN 212000Z AUTO 12002KT 6SM M15/M22 A3062 RMK T11501220 IEM_DS3505
ZBYN,1999-12-21 21:00,ZBYN 212100Z AUTO 09002KT 6SM M17/M22 A3059 RMK T11701220 IEM_DS3505
ZBYN,1999-12-22 01:00,ZBYN 220100Z AUTO 00000KT M14/M21 A3059 RMK T11401210 IEM_DS3505
ZBYN,1999-12-22 02:00,ZBYN 220200Z AUTO 13002KT 5SM M10/M21 A3056 RMK T11001210 IEM_DS3505
ZBYN,1999-12-22 03:00,ZBYN 220300Z AUTO 17002KT M07/M20 A3056 RMK T10701200 IEM_DS3505
ZBYN,1999-12-22 04:00,ZBYN 220400Z AUTO 22002KT 5SM M06/M22 A3053 RMK T10601220 IEM_DS3505
ZBYN,1999-12-22 05:00,ZBYN 220500Z AUTO 21002KT 6SM M04/M21 A3047 RMK T10401210 IEM_DS3505
ZBYN,1999-12-22 06:00,ZBYN 220600Z AUTO 18004KT 5SM M02/M20 A3045 RMK SLP389 T10191199 57036 IEM_DS3505
ZBYN,1999-12-22 07:00,ZBYN 220700Z AUTO 23002KT 6SM M02/M22 A3042 RMK T10201220 IEM_DS3505
ZBYN,1999-12-22 08:00,ZBYN 220800Z AUTO 6SM M02/M23 A3039 RMK T10201230 IEM_DS3505
ZBYN,1999-12-22 09:00,ZBYN 220900Z AUTO 14002KT 6SM M03/M22 A3039 RMK SLP373 T10291220 57020 IEM_DS3505
ZBYN,1999-12-22 10:00,ZBYN 221000Z AUTO 10002KT 6SM M05/M22 A3039 RMK T10501220 IEM_DS3505
ZBYN,1999-12-22 12:00,ZBYN 221200Z AUTO 00000KT 6SM M08/M20 A3039 RMK SLP388 T10751203 52005 IEM_DS3505
ZBYN,1999-12-22 13:00,ZBYN 221300Z AUTO 13002KT 6SM M11/M22 A3039 RMK T11101220 IEM_DS3505
ZBYN,1999-12-22 14:00,ZBYN 221400Z AUTO 00000KT 6SM M08/M21 A3039 RMK T10801210 IEM_DS3505
ZBYN,1999-12-22 15:00,ZBYN 221500Z AUTO 09004KT 6SM M10/M18 A3039 RMK SLP377 T11011178 52001 IEM_DS3505
ZBYN,1999-12-22 16:00,ZBYN 221600Z AUTO 13002KT 6SM M13/M22 A3039 RMK T11301220 IEM_DS3505
ZBYN,1999-12-22 17:00,ZBYN 221700Z AUTO 09002KT 6SM M11/M21 A3039 RMK T11101210 IEM_DS3505
ZBYN,1999-12-22 18:00,ZBYN 221800Z AUTO 14004KT 6SM M09/M17 A3036 RMK SLP360 T10941167 57005 IEM_DS3505
ZBYN,1999-12-22 19:00,ZBYN 221900Z AUTO 08002KT 6SM M11/M21 A3036 RMK T11101210 IEM_DS3505
ZBYN,1999-12-22 20:00,ZBYN 222000Z AUTO 09002KT 6SM M09/M20 A3033 RMK T10901200 IEM_DS3505
ZBYN,1999-12-22 21:00,ZBYN 222100Z AUTO 00000KT 6SM M08/M18 A3033 RMK SLP340 T10831177 57018 IEM_DS3505
ZBYN,1999-12-22 22:00,ZBYN 222200Z AUTO 17004KT 6SM M09/M19 A3033 RMK T10901190 IEM_DS3505
ZBYN,1999-12-22 23:00,ZBYN 222300Z AUTO 13004KT 6SM M13/M20 A3033 RMK T11301200 IEM_DS3505
ZBYN,1999-12-23 00:00,ZBYN 230000Z AUTO 14004KT 5SM M13/M20 A3033 RMK T11301200 IEM_DS3505
ZBYN,1999-12-23 02:00,ZBYN 230200Z AUTO 00000KT 5SM M05/M18 A3033 RMK T10501180 IEM_DS3505
ZBYN,1999-12-23 03:00,ZBYN 230300Z AUTO 18002KT 5SM M02/M19 A3033 RMK SLP343 T10171192 52006 IEM_DS3505
ZBYN,1999-12-23 05:00,ZBYN 230500Z AUTO 30010KT 6SM 03/M18 A3027 RMK T00301180 IEM_DS3505
ZBYN,1999-12-23 06:00,ZBYN 230600Z AUTO 32017KT 9SM 04/M16 RMK SLP303 T00391161 57025 IEM_DS3505
ZBYN,1999-12-23 07:00,ZBYN 230700Z AUTO 29012KT 6SM 04/M16 A3021 RMK T00401160 IEM_DS3505
ZBYN,1999-12-23 09:00,ZBYN 230900Z AUTO 32012KT 12SM 02/M14 A3024 RMK SLP298 T00241143 57005 IEM_DS3505
ZBYN,1999-12-23 10:00,ZBYN 231000Z AUTO 30008KT 6SM 01/M15 A3024 RMK T00101150 IEM_DS3505
ZBYN,1999-12-23 11:00,ZBYN 231100Z AUTO 28008KT 6SM 01/M16 A3024 RMK T00101160 IEM_DS3505
ZBYN,1999-12-23 12:00,ZBYN 231200Z AUTO 29010KT 9SM 01/M17 A3027 RMK SLP321 T00091169 52014 IEM_DS3505
ZBYN,1999-12-23 13:00,ZBYN 231300Z AUTO 28004KT 6SM M01/M16 A3027 RMK T10101160 IEM_DS3505
ZBYN,1999-12-23 14:00,ZBYN 231400Z AUTO 19004KT 6SM M04/M17 A3027 RMK T10401170 IEM_DS3505
ZBYN,1999-12-23 15:00,ZBYN 231500Z AUTO 18004KT 9SM M04/M18 A3027 RMK SLP317 T10451177 52002 IEM_DS3505
ZBYN,1999-12-23 16:00,ZBYN 231600Z AUTO 10002KT 6SM M07/M17 A3027 RMK T10701170 IEM_DS3505
ZBYN,1999-12-23 17:00,ZBYN 231700Z AUTO 08002KT 6SM M08/M17 A3027 RMK T10801170 IEM_DS3505
ZBYN,1999-12-23 20:00,ZBYN 232000Z AUTO 11002KT 6SM M10/M17 A3024 RMK T11001170 IEM_DS3505
ZBYN,1999-12-23 21:00,ZBYN 232100Z AUTO 09006KT 9SM M08/M17 A3021 RMK SLP297 T10831169 57009 IEM_DS3505
ZBYN,1999-12-23 22:00,ZBYN 232200Z AUTO 10002KT 6SM M10/M16 A3021 RMK T11001160 IEM_DS3505
ZBYN,1999-12-23 23:00,ZBYN 232300Z AUTO 09002KT 6SM M10/M16 A3021 RMK T11001160 IEM_DS3505
ZBYN,1999-12-24 00:00,ZBYN 240000Z AUTO 00000KT 6SM M09/M16 A3021 RMK SLP300 T10881164 57001 IEM_DS3505
ZBYN,1999-12-24 01:00,ZBYN 240100Z AUTO 11002KT 6SM M07/M15 A3024 RMK T10701150 IEM_DS3505
ZBYN,1999-12-24 02:00,ZBYN 240200Z AUTO 00000KT 6SM M02/M14 A3024 RMK T10201140 IEM_DS3505
ZBYN,1999-12-24 03:00,ZBYN 240300Z AUTO 14002KT 7SM 00/M14 A3024 RMK SLP299 T00001140 52005 IEM_DS3505
ZBYN,1999-12-24 04:00,ZBYN 240400Z AUTO 16002KT 6SM 02/M13 A3021 RMK T00201130 IEM_DS3505
ZBYN,1999-12-24 05:00,ZBYN 240500Z AUTO 19002KT 6SM 04/M11 A3018 RMK T00401110 IEM_DS3505
ZBYN,1999-12-24 06:00,ZBYN 240600Z AUTO 16010KT 6SM 06/M10 A3012 RMK SLP261 T00611103 57029 IEM_DS3505
ZBYN,1999-12-24 07:00,ZBYN 240700Z AUTO 22008KT 6SM 07/M11 A3009 RMK T00701110 IEM_DS3505
ZBYN,1999-12-24 08:00,ZBYN 240800Z AUTO 22004KT 6SM 07/M11 RMK T00701110 IEM_DS3505
ZBYN,1999-12-24 09:00,ZBYN 240900Z AUTO 18002KT 12SM 05/M12 A3009 RMK SLP253 T00501121 57011 IEM_DS3505
ZBYN,1999-12-24 10:00,ZBYN 241000Z AUTO 00000KT 6SM 02/M12 A3012 RMK T00201120 IEM_DS3505
ZBYN,1999-12-24 11:00,ZBYN 241100Z AUTO 15002KT 6SM M01/M12 A3012 RMK T10101120 IEM_DS3505
ZBYN,1999-12-24 12:00,ZBYN 241200Z AUTO 00000KT 9SM M01/M12 A3012 RMK SLP268 T10071118 52003 IEM_DS3505
ZBYN,1999-12-24 13:00,ZBYN 241300Z AUTO 12002KT 6SM M02/M12 A3015 RMK T10201120 IEM_DS3505
ZBYN,1999-12-24 14:00,ZBYN 241400Z AUTO 00000KT 6SM M04/M14 A3015 RMK T10401140 IEM_DS3505
ZBYN,1999-12-24 15:00,ZBYN 241500Z AUTO 00000KT 6SM M04/M11 A3015 RMK SLP264 T10351113 52007 IEM_DS3505
ZBYN,1999-12-24 17:00,ZBYN 241700Z AUTO 10002KT 6SM M05/M13 A3015 RMK T10501130 IEM_DS3505
ZBYN,1999-12-24 18:00,ZBYN 241800Z AUTO 00000KT 6SM M04/M11 A3012 RMK SLP255 T10441112 54000 IEM_DS3505
ZBYN,1999-12-24 19:00,ZBYN 241900Z AUTO 13004KT 6SM M05/M12 A3012 RMK T10501120 IEM_DS3505
ZBYN,1999-12-24 20:00,ZBYN 242000Z AUTO 09002KT 6SM M06/M13 A3015 RMK T10601130 IEM_DS3505
ZBYN,1999-12-24 21:00,ZBYN 242100Z AUTO 00000KT 6SM M06/M12 A3015 RMK SLP256 T10591124 57003 IEM_DS3505
ZBYN,1999-12-24 22:00,ZBYN 242200Z AUTO 00000KT 6SM M08/M14 A3015 RMK T10801140 IEM_DS3505
ZBYN,1999-12-24 23:00,ZBYN 242300Z AUTO 13004KT 6SM M08/M13 A3015 RMK T10801130 IEM_DS3505
ZBYN,1999-12-25 00:00,ZBYN 250000Z AUTO 00000KT 4SM M07/M12 A3018 RMK SLP283 T10671115 52013 IEM_DS3505
ZBYN,1999-12-25 01:00,ZBYN 250100Z AUTO 00000KT 6SM M06/M12 A3021 RMK T10601120 IEM_DS3505
ZBYN,1999-12-25 02:00,ZBYN 250200Z AUTO 16002KT 5SM M03/M11 A3021 RMK T10301110 IEM_DS3505
ZBYN,1999-12-25 03:00,ZBYN 250300Z AUTO 00000KT 5SM 02/M10 A3021 RMK SLP282 T00191105 52009 IEM_DS3505
ZBYN,1999-12-25 04:00,ZBYN 250400Z AUTO 00000KT 6SM 03/M11 A3018 RMK T00301110 IEM_DS3505
ZBYN,1999-12-25 05:00,ZBYN 250500Z AUTO 24002KT 6SM 05/M11 A3018 RMK T00501110 IEM_DS3505
ZBYN,1999-12-25 06:00,ZBYN 250600Z AUTO 16004KT 6SM 06/M14 A3015 RMK SLP253 T00641139 57020 IEM_DS3505
ZBYN,1999-12-25 07:00,ZBYN 250700Z AUTO 23002KT 6SM 07/M10 A3015 RMK T00701100 IEM_DS3505
ZBYN,1999-12-25 08:00,ZBYN 250800Z AUTO 17002KT 6SM 07/M11 A3015 RMK T00701110 IEM_DS3505
ZBYN,1999-12-25 09:00,ZBYN 250900Z AUTO 14004KT 6SM 04/M12 A3015 RMK SLP255 T00411124 57005 IEM_DS3505
ZBYN,1999-12-25 10:00,ZBYN 251000Z AUTO 10002KT 6SM 01/M12 A3015 RMK T00101120 IEM_DS3505
ZBYN,1999-12-25 11:00,ZBYN 251100Z AUTO 09002KT 6SM M02/M13 A3015 RMK T10201130 IEM_DS3505
ZBYN,1999-12-25 12:00,ZBYN 251200Z AUTO 00000KT 6SM M03/M12 A3015 RMK SLP283 T10291119 52013 IEM_DS3505
ZBYN,1999-12-25 13:00,ZBYN 251300Z AUTO 11004KT 6SM M05/M13 A3015 RMK T10501130 IEM_DS3505
ZBYN,1999-12-25 14:00,ZBYN 251400Z AUTO 10004KT 6SM M04/M13 A3015 RMK T10401130 IEM_DS3505
ZBYN,1999-12-25 15:00,ZBYN 251500Z AUTO 00000KT 6SM M05/M11 A3015 RMK SLP271 T10491114 54000 IEM_DS3505
ZBYN,1999-12-25 16:00,ZBYN 251600Z AUTO 09002KT 6SM M06/M13 A3015 RMK T10601130 IEM_DS3505
ZBYN,1999-12-25 17:00,ZBYN 251700Z AUTO 11004KT 6SM M07/M13 A3015 RMK T10701130 IEM_DS3505
ZBYN,1999-12-25 18:00,ZBYN 251800Z AUTO 00000KT 6SM M06/M12 A3015 RMK SLP260 T10561115 57004 IEM_DS3505
ZBYN,1999-12-25 20:00,ZBYN 252000Z AUTO 03002KT 6SM M08/M13 A3015 RMK T10801130 IEM_DS3505
ZBYN,1999-12-25 21:00,ZBYN 252100Z AUTO 32002KT 6SM M07/M12 A3012 RMK SLP255 T10701124 57010 IEM_DS3505
ZBYN,1999-12-25 22:00,ZBYN 252200Z AUTO 16002KT 6SM M08/M13 A3012 RMK T10801130 IEM_DS3505
ZBYN,1999-12-25 23:00,ZBYN 252300Z AUTO 12004KT 6SM M08/M13 A3012 RMK T10801130 IEM_DS3505
ZBYN,1999-12-26 00:00,ZBYN 260000Z AUTO 00000KT 4SM M09/M12 RMK SLP277 T10921122 52004 IEM_DS3505
ZBYN,1999-12-26 01:00,ZBYN 260100Z AUTO 13002KT 4SM M08/M12 A3012 RMK T10801120 IEM_DS3505
ZBYN,1999-12-26 02:00,ZBYN 260200Z AUTO 00000KT 4SM M04/M11 A3012 RMK T10401110 IEM_DS3505
ZBYN,1999-12-26 03:00,ZBYN 260300Z AUTO 00000KT 4SM 00/M11 A3012 RMK SLP263 T00021106 54000 IEM_DS3505
ZBYN,1999-12-26 04:00,ZBYN 260400Z AUTO 17002KT 02/M11 A3009 RMK T00201110 IEM_DS3505
ZBYN,1999-12-26 05:00,ZBYN 260500Z AUTO 00000KT 5SM 04/M10 A3006 RMK T00401100 IEM_DS3505
ZBYN,1999-12-26 06:00,ZBYN 260600Z AUTO 16004KT 4SM 05/M12 A3003 RMK SLP225 T00541124 57027 IEM_DS3505
ZBYN,1999-12-26 07:00,ZBYN 260700Z AUTO 19004KT 5SM 07/M10 A3003 RMK T00701100 IEM_DS3505
ZBYN,1999-12-26 08:00,ZBYN 260800Z AUTO 19002KT 5SM 07/M10 A3003 RMK T00701100 IEM_DS3505
ZBYN,1999-12-26 09:00,ZBYN 260900Z AUTO 34002KT 4SM 03/M10 A3003 RMK SLP221 T00341104 57009 IEM_DS3505
ZBYN,1999-12-26 10:00,ZBYN 261000Z AUTO 00000KT 01/M12 A3003 RMK T00101120 IEM_DS3505
ZBYN,1999-12-26 11:00,ZBYN 261100Z AUTO 00000KT M01/M13 A3006 RMK T10101130 IEM_DS3505
ZBYN,1999-12-26 12:00,ZBYN 261200Z AUTO 00000KT 2 1/2SM M00/M10 A3009 RMK SLP256 T10051098 52021 IEM_DS3505
ZBYN,1999-12-26 13:00,ZBYN 261300Z AUTO 00000KT 6SM M03/M13 A3009 RMK T10301130 IEM_DS3505
ZBYN,1999-12-26 14:00,ZBYN 261400Z AUTO 12004KT 6SM M05/M13 A3012 RMK T10501130 IEM_DS3505
ZBYN,1999-12-26 15:00,ZBYN 261500Z AUTO 00000KT 2 1/2SM M04/M11 A3012 RMK SLP260 T10451113 52013 IEM_DS3505
ZBYN,1999-12-26 16:00,ZBYN 261600Z AUTO 00000KT 6SM M06/M13 A3015 RMK T10601130 IEM_DS3505
ZBYN,1999-12-26 17:00,ZBYN 261700Z AUTO 00000KT 6SM M07/M13 A3015 RMK T10701130 IEM_DS3505
ZBYN,1999-12-26 18:00,ZBYN 261800Z AUTO 00000KT 2 1/2SM M06/M11 RMK SLP262 T10591114 52008 IEM_DS3505
ZBYN,1999-12-26 19:00,ZBYN 261900Z AUTO 00000KT 6SM M07/M12 A3018 RMK T10701120 IEM_DS3505
ZBYN,1999-12-26 20:00,ZBYN 262000Z AUTO 15002KT 4SM M07/M12 A3018 RMK T10701120 IEM_DS3505
ZBYN,1999-12-26 22:00,ZBYN 262200Z AUTO 00000KT 3SM M06/M12 A3021 RMK T10601120 IEM_DS3505
ZBYN,1999-12-26 23:00,ZBYN 262300Z AUTO 00000KT 2 1/2SM M05/M12 A3024 RMK T10501120 IEM_DS3505
ZBYN,1999-12-27 00:00,ZBYN 270000Z AUTO 22002KT 2 1/2SM M05/M11 A3027 RMK SLP309 T10521109 52023 IEM_DS3505
ZBYN,1999-12-27 01:00,ZBYN 270100Z AUTO 17004KT 2SM M03/M10 A3027 RMK T10301100 IEM_DS3505
ZBYN,1999-12-27 03:00,ZBYN 270300Z AUTO 14002KT 3SM 02/M11 A3030 RMK SLP320 T00151108 52014 IEM_DS3505
ZBYN,1999-12-27 04:00,ZBYN 270400Z AUTO 22004KT 3SM 03/M12 A3030 RMK T00301120 IEM_DS3505
ZBYN,1999-12-27 06:00,ZBYN 270600Z AUTO 34008KT 6SM 04/M18 A3027 RMK SLP309 T00351184 57009 IEM_DS3505
ZBYN,1999-12-27 07:00,ZBYN 270700Z AUTO 33019KT 6SM 05/M24 A3030 RMK T00501240 IEM_DS3505
ZBYN,1999-12-27 08:00,ZBYN 270800Z AUTO 31016KT 6SM 04/M23 A3030 RMK T00401230 IEM_DS3505
ZBYN,1999-12-27 09:00,ZBYN 270900Z AUTO 32012KT 12SM 03/M19 A3030 RMK SLP323 T00271194 52012 IEM_DS3505
ZBYN,1999-12-27 10:00,ZBYN 271000Z AUTO 28006KT 6SM 02/M20 A3030 RMK T00201200 IEM_DS3505
ZBYN,1999-12-27 11:00,ZBYN 271100Z AUTO 31008KT 6SM 01/M19 A3033 RMK T00101190 IEM_DS3505
ZBYN,1999-12-27 12:00,ZBYN 271200Z AUTO 29006KT 9SM 01/M21 A3036 RMK SLP339 T00091214 52012 IEM_DS3505
ZBYN,1999-12-27 13:00,ZBYN 271300Z AUTO 29004KT 6SM 01/M17 A3036 RMK T00101170 IEM_DS3505
ZBYN,1999-12-27 14:00,ZBYN 271400Z AUTO 27002KT 6SM 00/M16 A3036 RMK T00001160 IEM_DS3505
ZBYN,1999-12-27 15:00,ZBYN 271500Z AUTO 32002KT 9SM M01/M18 A3036 RMK SLP336 T10061179 52006 IEM_DS3505
ZBYN,1999-12-27 16:00,ZBYN 271600Z AUTO 25002KT 6SM M01/M16 A3036 RMK T10101160 IEM_DS3505
ZBYN,1999-12-27 17:00,ZBYN 271700Z AUTO 19002KT 6SM M01/M16 A3036 RMK T10101160 IEM_DS3505
ZBYN,1999-12-27 18:00,ZBYN 271800Z AUTO 20002KT 9SM M03/M17 A3036 RMK SLP328 T10271168 57007 IEM_DS3505
ZBYN,1999-12-27 20:00,ZBYN 272000Z AUTO 11002KT 6SM M06/M16 A3033 RMK T10601160 IEM_DS3505
ZBYN,1999-12-27 21:00,ZBYN 272100Z AUTO 00000KT 6SM M06/M14 A3033 RMK SLP328 T10551141 57006 IEM_DS3505
ZBYN,1999-12-27 22:00,ZBYN 272200Z AUTO 10002KT 6SM M09/M17 A3033 RMK T10901170 IEM_DS3505
ZBYN,1999-12-27 23:00,ZBYN 272300Z AUTO 06002KT 6SM M09/M17 A3033 RMK T10901170 IEM_DS3505
ZBYN,1999-12-28 00:00,ZBYN 280000Z AUTO 00000KT 6SM M08/M15 A3033 RMK SLP337 T10841151 54000 IEM_DS3505
ZBYN,1999-12-28 01:00,ZBYN 280100Z AUTO 13004KT 5SM M08/M16 A3033 RMK T10801160 IEM_DS3505
ZBYN,1999-12-28 02:00,ZBYN 280200Z AUTO 00000KT 6SM M03/M16 A3033 RMK T10301160 IEM_DS3505
ZBYN,1999-12-28 03:00,ZBYN 280300Z AUTO 16004KT 6SM M00/M16 A3030 RMK SLP312 T10031162 57011 IEM_DS3505
ZBYN,1999-12-28 04:00,ZBYN 280400Z AUTO 19004KT 6SM 02/M16 A3024 RMK T00201160 IEM_DS3505
ZBYN,1999-12-28 05:00,ZBYN 280500Z AUTO 22004KT 6SM 03/M18 A3021 RMK T00301180 IEM_DS3505
ZBYN,1999-12-28 06:00,ZBYN 280600Z AUTO 18006KT 9SM 04/M16 A3015 RMK SLP261 T00381164 57043 IEM_DS3505
ZBYN,1999-12-28 07:00,ZBYN 280700Z AUTO 19002KT 6SM 04/M16 A3012 RMK T00401160 IEM_DS3505
ZBYN,1999-12-28 08:00,ZBYN 280800Z AUTO 24004KT 6SM 04/M18 A3012 RMK T00401180 IEM_DS3505
ZBYN,1999-12-28 09:00,ZBYN 280900Z AUTO 18006KT 9SM 02/M19 A3009 RMK SLP248 T00231186 57019 IEM_DS3505
ZBYN,1999-12-28 10:00,ZBYN 281000Z AUTO 11002KT 6SM 00/M18 A3009 RMK T00001180 IEM_DS3505
ZBYN,1999-12-28 11:00,ZBYN 281100Z AUTO 11002KT 6SM M05/M19 A3009 RMK T10501190 IEM_DS3505
ZBYN,1999-12-28 12:00,ZBYN 281200Z AUTO 09008KT 7SM M04/M19 A3009 RMK SLP261 T10421186 57004 IEM_DS3505
ZBYN,1999-12-28 13:00,ZBYN 281300Z AUTO 10004KT 6SM M06/M17 A3009 RMK T10601170 IEM_DS3505
ZBYN,1999-12-28 14:00,ZBYN 281400Z AUTO 09006KT 6SM M03/M17 A3006 RMK T10301170 IEM_DS3505
ZBYN,1999-12-28 15:00,ZBYN 281500Z AUTO 09006KT 6SM M05/M17 A3006 RMK SLP235 T10481167 57011 IEM_DS3505
ZBYN,1999-12-28 16:00,ZBYN 281600Z AUTO 09004KT 6SM M06/M17 A3003 RMK T10601170 IEM_DS3505
ZBYN,1999-12-28 17:00,ZBYN 281700Z AUTO 10004KT 6SM M08/M17 A3003 RMK T10801170 IEM_DS3505
ZBYN,1999-12-28 18:00,ZBYN 281800Z AUTO 00000KT 6SM M06/M15 A3000 RMK SLP217 T10641150 57012 IEM_DS3505
ZBYN,1999-12-28 19:00,ZBYN 281900Z AUTO 10002KT 6SM M07/M17 A3000 RMK T10701170 IEM_DS3505
ZBYN,1999-12-28 20:00,ZBYN 282000Z AUTO 11002KT 6SM M08/M17 A3000 RMK T10801170 IEM_DS3505
ZBYN,1999-12-28 21:00,ZBYN 282100Z AUTO 00000KT 6SM M08/M13 A2997 RMK SLP218 T10801127 57005 IEM_DS3505
ZBYN,1999-12-28 22:00,ZBYN 282200Z AUTO 12002KT 6SM M09/M17 A2997 RMK T10901170 IEM_DS3505
ZBYN,1999-12-28 23:00,ZBYN 282300Z AUTO 00000KT M10/M17 A2997 RMK T11001170 IEM_DS3505
ZBYN,1999-12-29 00:00,ZBYN 290000Z AUTO 34002KT 4SM M08/M16 A2997 RMK SLP227 T10761157 57002 IEM_DS3505
ZBYN,1999-12-29 01:00,ZBYN 290100Z AUTO 13002KT 3SM M08/M16 A3000 RMK T10801160 IEM_DS3505
ZBYN,1999-12-29 03:00,ZBYN 290300Z AUTO 00000KT 4SM M00/M16 A2997 RMK SLP209 T10051158 57005 IEM_DS3505
ZBYN,1999-12-29 04:00,ZBYN 290400Z AUTO 17004KT 2 1/2SM 02/M15 A2994 RMK T00201150 IEM_DS3505
ZBYN,1999-12-29 05:00,ZBYN 290500Z AUTO 17004KT 5SM 04/M16 A2991 RMK T00401160 IEM_DS3505
ZBYN,1999-12-29 06:00,ZBYN 290600Z AUTO 14002KT 4SM 05/M14 A2985 RMK SLP173 T00511145 57026 IEM_DS3505
ZBYN,1999-12-29 08:00,ZBYN 290800Z AUTO 15004KT 5SM 07/M15 A2985 RMK T00701150 IEM_DS3505
ZBYN,1999-12-29 09:00,ZBYN 290900Z AUTO 32002KT 4SM 04/M09 A2985 RMK SLP170 T00411090 57007 IEM_DS3505
ZBYN,1999-12-29 10:00,ZBYN 291000Z AUTO 34002KT 01/M16 A2988 RMK T00101160 IEM_DS3505
ZBYN,1999-12-29 12:00,ZBYN 291200Z AUTO 32002KT 4SM 00/M14 A2988 RMK SLP189 T00031138 52011 IEM_DS3505
ZBYN,1999-12-29 13:00,ZBYN 291300Z AUTO 12002KT M04/M15 A2991 RMK T10401150 IEM_DS3505
ZBYN,1999-12-29 14:00,ZBYN 291400Z AUTO 13004KT 6SM M03/M16 A2991 RMK T10301160 IEM_DS3505
ZBYN,1999-12-29 15:00,ZBYN 291500Z AUTO 00000KT 6SM M04/M12 A2994 RMK SLP193 T10391125 52009 IEM_DS3505
ZBYN,1999-12-29 16:00,ZBYN 291600Z AUTO 10002KT 6SM M06/M15 A2994 RMK T10601150 IEM_DS3505
ZBYN,1999-12-29 17:00,ZBYN 291700Z AUTO 00000KT 6SM M07/M16 A2994 RMK T10701160 IEM_DS3505
ZBYN,1999-12-29 18:00,ZBYN 291800Z AUTO 00000KT 2 1/2SM M04/M11 A2997 RMK SLP196 T10441111 52011 IEM_DS3505
ZBYN,1999-12-29 19:00,ZBYN 291900Z AUTO 00000KT 6SM M03/M15 A2997 RMK T10301150 IEM_DS3505
ZBYN,1999-12-29 20:00,ZBYN 292000Z AUTO 00000KT 6SM M05/M12 A2997 RMK T10501120 IEM_DS3505
ZBYN,1999-12-29 21:00,ZBYN 292100Z AUTO 00000KT 2 1/2SM M05/M11 A3000 RMK SLP209 T10491114 52009 IEM_DS3505
ZBYN,1999-12-29 22:00,ZBYN 292200Z AUTO 14002KT 6SM M06/M14 A3000 RMK T10601140 IEM_DS3505
ZBYN,1999-12-29 23:00,ZBYN 292300Z AUTO 00000KT 5SM M06/M14 A3003 RMK T10601140 IEM_DS3505
ZBYN,1999-12-30 00:00,ZBYN 300000Z AUTO 00000KT 2 1/2SM M06/M11 A3003 RMK SLP232 T10641111 52012 IEM_DS3505
ZBYN,1999-12-30 01:00,ZBYN 300100Z AUTO 00000KT M05/M14 A3003 RMK T10501140 IEM_DS3505
ZBYN,1999-12-30 02:00,ZBYN 300200Z AUTO 00000KT 4SM M01/M13 A3006 RMK T10101130 IEM_DS3505
ZBYN,1999-12-30 03:00,ZBYN 300300Z AUTO 22004KT 4SM 02/M13 A3009 RMK SLP242 T00251133 52017 IEM_DS3505
ZBYN,1999-12-30 05:00,ZBYN 300500Z AUTO 23002KT 6SM 06/M12 A3003 RMK T00601120 IEM_DS3505
ZBYN,1999-12-30 06:00,ZBYN 300600Z AUTO 20006KT 4SM 07/M16 A3000 RMK SLP204 T00711155 57028 IEM_DS3505
ZBYN,1999-12-30 08:00,ZBYN 300800Z AUTO 26002KT 5SM 07/M12 A3000 RMK T00701120 IEM_DS3505
ZBYN,1999-12-30 09:00,ZBYN 300900Z AUTO 18004KT 5SM 05/M14 RMK SLP223 T00541137 52014 IEM_DS3505
ZBYN,1999-12-30 10:00,ZBYN 301000Z AUTO 00000KT 6SM 03/M13 A3006 RMK T00301130 IEM_DS3505
ZBYN,1999-12-30 11:00,ZBYN 301100Z AUTO 00000KT 6SM 01/M13 A3009 RMK T00101130 IEM_DS3505
ZBYN,1999-12-30 12:00,ZBYN 301200Z AUTO 00000KT 5SM 02/M12 A3012 RMK SLP252 T00181124 52018 IEM_DS3505
ZBYN,1999-12-30 13:00,ZBYN 301300Z AUTO 10004KT 6SM 00/M12 A3012 RMK T00001120 IEM_DS3505
ZBYN,1999-12-30 14:00,ZBYN 301400Z AUTO 11006KT 6SM M02/M13 A3012 RMK T10201130 IEM_DS3505
ZBYN,1999-12-30 15:00,ZBYN 301500Z AUTO 32002KT 6SM M02/M11 A3012 RMK SLP251 T10171114 52008 IEM_DS3505
ZBYN,1999-12-30 16:00,ZBYN 301600Z AUTO 11004KT 6SM M03/M14 A3015 RMK T10301140 IEM_DS3505
ZBYN,1999-12-30 17:00,ZBYN 301700Z AUTO 10006KT 6SM M03/M14 A3012 RMK T10301140 IEM_DS3505
ZBYN,1999-12-30 18:00,ZBYN 301800Z AUTO 00000KT 6SM M05/M12 A3012 RMK SLP244 T10511117 57004 IEM_DS3505
ZBYN,1999-12-30 19:00,ZBYN 301900Z AUTO 08004KT 6SM M04/M14 A3012 RMK T10401140 IEM_DS3505
ZBYN,1999-12-30 20:00,ZBYN 302000Z AUTO 05002KT 6SM M05/M14 A3009 RMK T10501140 IEM_DS3505
ZBYN,1999-12-30 21:00,ZBYN 302100Z AUTO 00000KT 6SM M08/M12 A3009 RMK SLP248 T10761122 57004 IEM_DS3505
ZBYN,1999-12-30 22:00,ZBYN 302200Z AUTO 13002KT 6SM M06/M13 A3009 RMK T10601130 IEM_DS3505
ZBYN,1999-12-30 23:00,ZBYN 302300Z AUTO 00000KT 6SM M07/M13 A3012 RMK T10701130 IEM_DS3505
