station,valid,metar
ZBYN,1983-01-01 00:00,ZBYN 010000Z AUTO 00000KT 5SM M09/M13 RMK SLP305 T10921130 52009 IEM_DS3505
ZBYN,1983-01-01 04:00,ZBYN 010400Z AUTO 00000KT 4SM M01/M11 A3030 RMK T10101110 IEM_DS3505
ZBYN,1983-01-01 05:00,ZBYN 010500Z AUTO 00000KT 3SM 01/M11 A3015 RMK T00101110 IEM_DS3505
ZBYN,1983-01-01 06:00,ZBYN 010600Z AUTO 00000KT 4SM 02/M11 A3021 RMK SLP276 T00201110 4////1098 57026 IEM_DS3505
ZBYN,1983-01-01 07:00,ZBYN 010700Z AUTO 18004KT 4SM 02/M11 A3021 RMK T00201110 IEM_DS3505
ZBYN,1983-01-01 08:00,ZBYN 010800Z AUTO 00000KT 4SM 02/M10 A3024 RMK T00201100 IEM_DS3505
ZBYN,1983-01-01 09:00,ZBYN 010900Z AUTO 00000KT 2 1/2SM 00/M10 A3024 RMK T00001100 IEM_DS3505
ZBYN,1983-01-01 10:00,ZBYN 011000Z AUTO 00000KT 2 1/2SM M03/M11 A3053 RMK T10301110 IEM_DS3505
ZBYN,1983-01-01 12:00,ZBYN 011200Z AUTO 00000KT 7SM M06/M11 RMK SLP322 T10571109 52015 IEM_DS3505
ZBYN,1983-01-01 15:00,ZBYN 011500Z AUTO 00000KT 6SM M09/M15 RMK SLP328 T10891147 52010 IEM_DS3505
ZBYN,1983-01-01 18:00,ZBYN 011800Z AUTO 00000KT 5SM M09/M14 RMK SLP320 T10931141 40088//// 52006 IEM_DS3505
ZBYN,1983-01-01 21:00,ZBYN 012100Z AUTO 00000KT 4SM M10/M14 RMK SLP339 T11011140 52008 IEM_DS3505
ZBYN,1983-01-02 00:00,ZBYN 020000Z AUTO 32004KT 3SM M11/M14 RMK SLP362 T11061140 52010 IEM_DS3505
ZBYN,1983-01-02 03:00,ZBYN 020300Z AUTO 00000KT 4SM M04/M12 RMK SLP361 T10361119 52005 IEM_DS3505
ZBYN,1983-01-02 06:00,ZBYN 020600Z AUTO 18004KT 3SM 02/M12 RMK SLP328 T00201124 4////1126 57021 IEM_DS3505
ZBYN,1983-01-02 09:00,ZBYN 020900Z AUTO 00000KT 4SM 01/M12 RMK SLP331 T00101119 54000 IEM_DS3505
ZBYN,1983-01-02 12:00,ZBYN 021200Z AUTO 00000KT 4SM M05/M14 RMK SLP356 T10501141 52011 IEM_DS3505
ZBYN,1983-01-02 15:00,ZBYN 021500Z AUTO 00000KT 6SM M08/M18 RMK SLP351 T10781175 52004 IEM_DS3505
ZBYN,1983-01-02 18:00,ZBYN 021800Z AUTO 34004KT 5SM M08/M15 RMK SLP339 T10781154 40031//// 57002 IEM_DS3505
ZBYN,1983-01-02 21:00,ZBYN 022100Z AUTO 34002KT 5SM M08/M15 RMK SLP332 T10791147 57008 IEM_DS3505
ZBYN,1983-01-03 00:00,ZBYN 030000Z AUTO 00000KT 4SM M12/M15 RMK SLP360 T11181150 52008 IEM_DS3505
ZBYN,1983-01-03 03:00,ZBYN 030300Z AUTO 00000KT 4SM M05/M12 RMK SLP352 T10521119 54000 IEM_DS3505
ZBYN,1983-01-03 06:00,ZBYN 030600Z AUTO 18004KT 5SM M01/M12 RMK SLP318 T10141124 4////1129 57025 IEM_DS3505
ZBYN,1983-01-03 09:00,ZBYN 030900Z AUTO 00000KT 5SM M01/M12 RMK SLP312 T10081124 57004 IEM_DS3505
ZBYN,1983-01-03 12:00,ZBYN 031200Z AUTO 29002KT 5SM M04/M11 RMK SLP337 T10381109 52010 IEM_DS3505
ZBYN,1983-01-03 15:00,ZBYN 031500Z AUTO 00000KT 5SM M04/M09 RMK SLP326 T10381092 52003 IEM_DS3505
ZBYN,1983-01-03 18:00,ZBYN 031800Z AUTO 00000KT 6SM M06/M14 RMK SLP324 T10641141 54000 IEM_DS3505
ZBYN,1983-01-03 21:00,ZBYN 032100Z AUTO 00000KT 6SM M09/M15 RMK SLP331 T10911154 52002 IEM_DS3505
ZBYN,1983-01-04 00:00,ZBYN 040000Z AUTO 00000KT 4SM M10/M12 RMK SLP343 T11021120 52004 IEM_DS3505
ZBYN,1983-01-04 03:00,ZBYN 040300Z AUTO 00000KT 5SM M02/M10 A3039 RMK SLP346 T10171096 52016 IEM_DS3505
ZBYN,1983-01-04 04:00,ZBYN 040400Z AUTO 00000KT 4SM 00/M10 A3033 RMK T00001100 IEM_DS3505
ZBYN,1983-01-04 06:00,ZBYN 040600Z AUTO 18004KT 6SM 02/M11 A3024 RMK SLP287 T00201114 4////1112 57051 IEM_DS3505
ZBYN,1983-01-04 07:00,ZBYN 040700Z AUTO 21006KT 7SM 03/M11 A3024 RMK T00301110 IEM_DS3505
ZBYN,1983-01-04 08:00,ZBYN 040800Z AUTO 19006KT 7SM 03/M11 A3024 RMK T00301110 IEM_DS3505
ZBYN,1983-01-04 09:00,ZBYN 040900Z AUTO 18004KT 7SM 01/M10 RMK SLP286 T00121096 57006 IEM_DS3505
ZBYN,1983-01-04 12:00,ZBYN 041200Z AUTO 00000KT 6SM M07/M13 RMK SLP306 T10681130 52003 IEM_DS3505
ZBYN,1983-01-04 15:00,ZBYN 041500Z AUTO 00000KT 6SM M09/M14 RMK SLP293 T10901135 57002 IEM_DS3505
ZBYN,1983-01-04 18:00,ZBYN 041800Z AUTO 14004KT 12SM M10/M13 RMK SLP268 T11011130 40027//// 57018 IEM_DS3505
ZBYN,1983-01-04 21:00,ZBYN 042100Z AUTO 00000KT 12SM M12/M15 RMK SLP256 T11191150 57016 IEM_DS3505
ZBYN,1983-01-05 00:00,ZBYN 050000Z AUTO 00000KT 6SM M13/M16 RMK SLP267 T11271160 57005 IEM_DS3505
ZBYN,1983-01-05 03:00,ZBYN 050300Z AUTO 00000KT 5SM M03/M11 RMK SLP253 T10311114 54000 IEM_DS3505
ZBYN,1983-01-05 06:00,ZBYN 050600Z AUTO 20008KT 6SM 03/M12 RMK SLP204 T00331119 4////1135 57035 IEM_DS3505
ZBYN,1983-01-05 09:00,ZBYN 050900Z AUTO 16004KT 6SM 03/M10 RMK SLP202 T00311100 57005 IEM_DS3505
ZBYN,1983-01-05 12:00,ZBYN 051200Z AUTO 36002KT 5SM M04/M11 RMK SLP234 T10351109 52016 IEM_DS3505
ZBYN,1983-01-05 15:00,ZBYN 051500Z AUTO 34002KT 6SM M05/M13 RMK SLP230 T10541130 52009 IEM_DS3505
ZBYN,1983-01-05 18:00,ZBYN 051800Z AUTO 02004KT 6SM M07/M13 RMK SLP215 T10671130 40045//// 57004 IEM_DS3505
ZBYN,1983-01-05 21:00,ZBYN 052100Z AUTO 34004KT 6SM M07/M14 RMK SLP220 T10691135 52003 IEM_DS3505
ZBYN,1983-01-06 00:00,ZBYN 060000Z AUTO 36002KT 4SM M09/M12 RMK SLP242 T10861124 52006 IEM_DS3505
ZBYN,1983-01-06 03:00,ZBYN 060300Z AUTO 04004KT 6SM M02/M14 RMK SLP247 T10161141 52014 IEM_DS3505
ZBYN,1983-01-06 06:00,ZBYN 060600Z AUTO 16006KT 5SM 02/M11 RMK SLP215 T00201109 4////1096 57026 IEM_DS3505
ZBYN,1983-01-06 09:00,ZBYN 060900Z AUTO 00000KT 6SM 02/M06 RMK SLP226 T00201055 52010 IEM_DS3505
ZBYN,1983-01-06 12:00,ZBYN 061200Z AUTO 32012KT 9SM 01/M12 RMK SLP276 T00091119 52041 IEM_DS3505
ZBYN,1983-01-06 15:00,ZBYN 061500Z AUTO 34019KT 9SM M04/M19 RMK SLP320 T10361191 52044 IEM_DS3505
ZBYN,1983-01-06 18:00,ZBYN 061800Z AUTO 34017KT 11SM M10/M24 RMK SLP372 T11011240 40029//// 52042 IEM_DS3505
ZBYN,1983-01-06 21:00,ZBYN 062100Z AUTO 32017KT 12SM M14/M30 RMK SLP398 T11441300 52017 IEM_DS3505
ZBYN,1983-01-07 00:00,ZBYN 070000Z AUTO 29010KT 12SM M15/M29 RMK SLP412 T11541290 52009 IEM_DS3505
ZBYN,1983-01-07 06:00,ZBYN 070600Z AUTO 29008KT 16SM M09/M31 RMK SLP404 T10881313 4////1162 57030 IEM_DS3505
ZBYN,1983-01-07 09:00,ZBYN 070900Z AUTO 29008KT 16SM M08/M29 RMK SLP413 T10851292 52001 IEM_DS3505
ZBYN,1983-01-07 12:00,ZBYN 071200Z AUTO 32006KT 16SM M11/M27 RMK SLP444 T11091270 52022 IEM_DS3505
ZBYN,1983-01-07 15:00,ZBYN 071500Z AUTO 32004KT 16SM M03/M27 RMK SLP450 T10311270 52008 IEM_DS3505
ZBYN,1983-01-07 18:00,ZBYN 071800Z AUTO 00000KT 16SM M16/M27 RMK SLP438 T11621270 40009//// 57010 IEM_DS3505
ZBYN,1983-01-07 21:00,ZBYN 072100Z AUTO 00000KT 16SM M18/M27 RMK SLP426 T11781270 57014 IEM_DS3505
ZBYN,1983-01-08 00:00,ZBYN 080000Z AUTO 00000KT 5SM M20/M26 RMK SLP442 T11951260 52007 IEM_DS3505
ZBYN,1983-01-08 03:00,ZBYN 080300Z AUTO 00000KT 4SM M10/M27 RMK SLP426 T10981274 57001 IEM_DS3505
ZBYN,1983-01-08 06:00,ZBYN 080600Z AUTO 22006KT 5SM M06/M29 RMK SLP383 T10621292 4////1200 57038 IEM_DS3505
ZBYN,1983-01-08 09:00,ZBYN 080900Z AUTO 20004KT 9SM M06/M26 RMK SLP385 T10651258 57001 IEM_DS3505
ZBYN,1983-01-08 12:00,ZBYN 081200Z AUTO 34002KT 9SM M11/M21 RMK SLP405 T11081210 52006 IEM_DS3505
ZBYN,1983-01-08 15:00,ZBYN 081500Z AUTO 14002KT 9SM M15/M22 RMK SLP399 T11491220 52006 IEM_DS3505
ZBYN,1983-01-08 18:00,ZBYN 081800Z AUTO 00000KT 9SM M16/M22 RMK SLP400 T11611220 41052//// 52004 IEM_DS3505
ZBYN,1983-01-08 21:00,ZBYN 082100Z AUTO 00000KT 7SM M15/M22 RMK SLP396 T11481220 57001 IEM_DS3505
ZBYN,1983-01-09 00:00,ZBYN 090000Z AUTO 34004KT 6SM M16/M22 RMK SLP424 T11621220 52015 IEM_DS3505
ZBYN,1983-01-09 03:00,ZBYN 090300Z AUTO 09004KT 5SM M09/M21 RMK SLP430 T10891210 52012 IEM_DS3505
ZBYN,1983-01-09 06:00,ZBYN 090600Z AUTO 32004KT 7SM M02/M21 RMK SLP395 T10231210 4////1192 57023 IEM_DS3505
ZBYN,1983-01-09 09:00,ZBYN 090900Z AUTO 22004KT 4SM M04/M22 RMK SLP404 T10361220 52008 IEM_DS3505
ZBYN,1983-01-09 12:00,ZBYN 091200Z AUTO 32004KT 6SM M08/M23 RMK SLP432 T10781231 52007 IEM_DS3505
ZBYN,1983-01-09 15:00,ZBYN 091500Z AUTO 00000KT 6SM M09/M22 RMK SLP441 T10921220 52018 IEM_DS3505
ZBYN,1983-01-09 18:00,ZBYN 091800Z AUTO 34008KT 6SM M10/M23 RMK SLP435 T10951231 41008//// 52005 IEM_DS3505
ZBYN,1983-01-09 21:00,ZBYN 092100Z AUTO 00000KT 6SM M15/M23 RMK SLP445 T11541230 57003 IEM_DS3505
ZBYN,1983-01-10 00:00,ZBYN 100000Z AUTO 00000KT 6SM M17/M22 RMK SLP465 T11661220 52009 IEM_DS3505
ZBYN,1983-01-10 03:00,ZBYN 100300Z AUTO 00000KT 5SM M07/M21 RMK SLP458 T10681210 52008 IEM_DS3505
ZBYN,1983-01-10 06:00,ZBYN 100600Z AUTO 18006KT 5SM M02/M21 RMK SLP408 T10251210 4////1183 57038 IEM_DS3505
ZBYN,1983-01-10 09:00,ZBYN 100900Z AUTO 18002KT 6SM M03/M21 RMK SLP411 T10271210 57009 IEM_DS3505
ZBYN,1983-01-10 12:00,ZBYN 101200Z AUTO 34002KT 6SM M07/M18 RMK SLP428 T10701183 52005 IEM_DS3505
ZBYN,1983-01-10 15:00,ZBYN 101500Z AUTO 00000KT 6SM M11/M19 RMK SLP423 T11111190 52006 IEM_DS3505
ZBYN,1983-01-10 18:00,ZBYN 101800Z AUTO 00000KT 6SM RMK SLP410 41016//// 57006 IEM_DS3505
ZBYN,1983-01-10 21:00,ZBYN 102100Z AUTO 00000KT 6SM M12/M18 RMK SLP397 T11231180 57012 IEM_DS3505
ZBYN,1983-01-11 00:00,ZBYN 110000Z AUTO 00000KT 4SM M13/M20 RMK SLP406 T11261200 57001 IEM_DS3505
ZBYN,1983-01-11 03:00,ZBYN 110300Z AUTO 00000KT 4SM M06/M20 RMK SLP407 T10641200 52005 IEM_DS3505
ZBYN,1983-01-11 06:00,ZBYN 110600Z AUTO 22004KT 5SM M01/M22 RMK SLP362 T10071220 4////1138 57033 IEM_DS3505
ZBYN,1983-01-11 09:00,ZBYN 110900Z AUTO 22004KT 6SM M02/M21 RMK SLP358 T10191210 57005 IEM_DS3505
ZBYN,1983-01-11 12:00,ZBYN 111200Z AUTO 34006KT 5SM M06/M21 RMK SLP371 T10621210 52003 IEM_DS3505
ZBYN,1983-01-11 15:00,ZBYN 111500Z AUTO 00000KT 6SM M09/M23 RMK SLP372 T10901231 52008 IEM_DS3505
ZBYN,1983-01-11 18:00,ZBYN 111800Z AUTO 00000KT 6SM M10/M18 RMK SLP353 T11041180 41002//// 57010 IEM_DS3505
ZBYN,1983-01-11 21:00,ZBYN 112100Z AUTO 00000KT 6SM M12/M18 RMK SLP348 T11151180 57009 IEM_DS3505
ZBYN,1983-01-12 00:00,ZBYN 120000Z AUTO 00000KT 5SM M14/M19 RMK SLP365 T11361190 52004 IEM_DS3505
ZBYN,1983-01-12 03:00,ZBYN 120300Z AUTO 18004KT 4SM M05/M18 RMK SLP361 T10501183 52007 IEM_DS3505
ZBYN,1983-01-12 06:00,ZBYN 120600Z AUTO 18004KT 6SM M00/M17 RMK SLP329 T10021167 4////1145 57023 IEM_DS3505
ZBYN,1983-01-12 09:00,ZBYN 120900Z AUTO 29010KT 11SM 02/M15 RMK SLP316 T00201147 57010 IEM_DS3505
ZBYN,1983-01-12 12:00,ZBYN 121200Z AUTO 34006KT 9SM M03/M23 RMK SLP351 T10291231 52019 IEM_DS3505
ZBYN,1983-01-12 15:00,ZBYN 121500Z AUTO 34008KT 9SM M04/M22 RMK SLP355 T10401220 52018 IEM_DS3505
ZBYN,1983-01-12 18:00,ZBYN 121800Z AUTO 09004KT 12SM M10/M23 RMK SLP362 T11021230 40022//// 52004 IEM_DS3505
ZBYN,1983-01-12 21:00,ZBYN 122100Z AUTO 00000KT 12SM M13/M21 RMK SLP357 T11331210 57007 IEM_DS3505
ZBYN,1983-01-13 00:00,ZBYN 130000Z AUTO 34002KT 5SM M14/M20 RMK SLP371 T11351200 52004 IEM_DS3505
ZBYN,1983-01-13 03:00,ZBYN 130300Z AUTO 00000KT 4SM M05/M19 RMK SLP361 T10481191 52004 IEM_DS3505
ZBYN,1983-01-13 06:00,ZBYN 130600Z AUTO 18006KT 9SM 00/M18 RMK SLP324 T00001183 4////1148 57036 IEM_DS3505
ZBYN,1983-01-13 09:00,ZBYN 130900Z AUTO 16004KT 12SM 01/M15 RMK SLP314 T00081147 57014 IEM_DS3505
ZBYN,1983-01-13 12:00,ZBYN 131200Z AUTO 07004KT 9SM M05/M18 RMK SLP329 T10461183 52005 IEM_DS3505
ZBYN,1983-01-13 15:00,ZBYN 131500Z AUTO 00000KT 9SM M10/M21 RMK SLP329 T11011210 52005 IEM_DS3505
ZBYN,1983-01-13 18:00,ZBYN 131800Z AUTO 25002KT 9SM M12/M20 RMK SLP320 T11181200 40018//// 57002 IEM_DS3505
ZBYN,1983-01-13 21:00,ZBYN 132100Z AUTO 00000KT 9SM M14/M19 RMK SLP318 T11411190 57005 IEM_DS3505
ZBYN,1983-01-14 00:00,ZBYN 140000Z AUTO 00000KT 4SM M16/M20 RMK SLP340 T11561200 52008 IEM_DS3505
ZBYN,1983-01-14 03:00,ZBYN 140300Z AUTO 00000KT 4SM M04/M17 RMK SLP332 T10351167 52004 IEM_DS3505
ZBYN,1983-01-14 06:00,ZBYN 140600Z AUTO 00000KT 6SM 01/M18 RMK SLP285 T00141175 4////1164 57036 IEM_DS3505
ZBYN,1983-01-14 09:00,ZBYN 140900Z AUTO 00000KT 7SM 01/M15 RMK SLP288 T00141154 57002 IEM_DS3505
ZBYN,1983-01-14 12:00,ZBYN 141200Z AUTO 00000KT 9SM M02/M18 RMK SLP316 T10161175 52018 IEM_DS3505
ZBYN,1983-01-14 15:00,ZBYN 141500Z AUTO 00000KT 7SM M03/M18 RMK SLP313 T10271183 52015 IEM_DS3505
ZBYN,1983-01-14 18:00,ZBYN 141800Z AUTO 20006KT 9SM M05/M20 RMK SLP303 T10461200 40023//// 57003 IEM_DS3505
ZBYN,1983-01-14 21:00,ZBYN 142100Z AUTO 25004KT 9SM M08/M20 RMK SLP294 T10781200 57013 IEM_DS3505
ZBYN,1983-01-15 00:00,ZBYN 150000Z AUTO 00000KT 6SM M09/M19 RMK SLP324 T10941191 52019 IEM_DS3505
ZBYN,1983-01-15 03:00,ZBYN 150300Z AUTO 11002KT 3SM M04/M18 RMK SLP322 T10391175 52005 IEM_DS3505
ZBYN,1983-01-15 06:00,ZBYN 150600Z AUTO 18012KT 9SM 03/M14 RMK SLP273 T00321141 4////1111 57035 IEM_DS3505
ZBYN,1983-01-15 09:00,ZBYN 150900Z AUTO 18008KT 9SM 03/M14 RMK SLP269 T00341135 57009 IEM_DS3505
ZBYN,1983-01-15 12:00,ZBYN 151200Z AUTO 00000KT 6SM M04/M15 RMK SLP302 T10421147 52014 IEM_DS3505
ZBYN,1983-01-15 15:00,ZBYN 151500Z AUTO 14002KT 12SM M06/M15 RMK SLP319 T10591154 52022 IEM_DS3505
ZBYN,1983-01-15 18:00,ZBYN 151800Z AUTO 00000KT 11SM M10/M16 RMK SLP320 T11011160 40042//// 52006 IEM_DS3505
ZBYN,1983-01-15 21:00,ZBYN 152100Z AUTO 00000KT 9SM M13/M16 RMK SLP323 T11261160 57001 IEM_DS3505
ZBYN,1983-01-16 00:00,ZBYN 160000Z AUTO 00000KT 5SM M14/M16 RMK SLP370 T11361160 52027 IEM_DS3505
ZBYN,1983-01-16 01:00,ZBYN 160100Z AUTO 00000KT 5SM M14/M16 RMK SLP370 T11361160 52027 IEM_DS3505
ZBYN,1983-01-16 03:00,ZBYN 160300Z AUTO 00000KT 4SM M03/M14 RMK SLP355 T10261135 52003 IEM_DS3505
ZBYN,1983-01-16 06:00,ZBYN 160600Z AUTO 22004KT 4SM 01/M14 RMK SLP328 T00131135 4////1148 57025 IEM_DS3505
ZBYN,1983-01-16 09:00,ZBYN 160900Z AUTO 00000KT 4SM 01/M14 RMK SLP340 T00061135 52006 IEM_DS3505
ZBYN,1983-01-16 12:00,ZBYN 161200Z AUTO 00000KT 5SM M00/M11 RMK SLP372 T10011109 52025 IEM_DS3505
ZBYN,1983-01-16 15:00,ZBYN 161500Z AUTO 27004KT 4SM M01/M14 RMK SLP353 T10141135 54000 IEM_DS3505
ZBYN,1983-01-16 18:00,ZBYN 161800Z AUTO 27006KT 9SM M02/ RMK SLP337 40015//// 57009 IEM_DS3505
ZBYN,1983-01-16 21:00,ZBYN 162100Z AUTO 34008KT 9SM M03/M19 RMK SLP326 T10321191 57013 IEM_DS3505
ZBYN,1983-01-17 00:00,ZBYN 170000Z AUTO 34006KT 6SM M06/M18 RMK SLP337 T10641183 52002 IEM_DS3505
ZBYN,1983-01-17 03:00,ZBYN 170300Z AUTO 36004KT 6SM M01/M18 RMK SLP334 T10131175 52005 IEM_DS3505
ZBYN,1983-01-17 06:00,ZBYN 170600Z AUTO 00000KT 7SM 02/M20 RMK SLP291 T00181200 4////1074 57034 IEM_DS3505
ZBYN,1983-01-17 09:00,ZBYN 170900Z AUTO 18002KT 9SM 01/M17 RMK SLP292 T00131167 57003 IEM_DS3505
ZBYN,1983-01-17 12:00,ZBYN 171200Z AUTO 07002KT 6SM M02/M18 RMK SLP318 T10201175 52013 IEM_DS3505
ZBYN,1983-01-17 15:00,ZBYN 171500Z AUTO 07002KT 6SM M03/M17 RMK SLP325 T10321167 52012 IEM_DS3505
ZBYN,1983-01-17 18:00,ZBYN 171800Z AUTO 32004KT 6SM M07/M18 RMK SLP323 T10661183 40035//// 57002 IEM_DS3505
ZBYN,1983-01-17 21:00,ZBYN 172100Z AUTO 00000KT 9SM M06/M20 RMK SLP323 T10601200 54000 IEM_DS3505
ZBYN,1983-01-18 00:00,ZBYN 180000Z AUTO 34004KT 9SM M04/M15 RMK SLP352 T10401147 52025 IEM_DS3505
ZBYN,1983-01-18 03:00,ZBYN 180300Z AUTO 36008KT 4SM M02/M14 RMK SLP372 T10241141 52018 IEM_DS3505
ZBYN,1983-01-18 06:00,ZBYN 180600Z AUTO 02010KT 9SM M00/M17 RMK SLP362 T10031167 4////1077 57011 IEM_DS3505
ZBYN,1983-01-18 09:00,ZBYN 180900Z AUTO 29017KT 11SM M04/M23 RMK SLP390 T10361231 52021 IEM_DS3505
ZBYN,1983-01-18 12:00,ZBYN 181200Z AUTO 34008KT 12SM M07/M20 RMK T10661200 52029 IEM_DS3505
ZBYN,1983-01-18 15:00,ZBYN 181500Z AUTO 34006KT 12SM M08/M22 RMK SLP434 T10811220 52009 IEM_DS3505
ZBYN,1983-01-18 18:00,ZBYN 181800Z AUTO 29006KT 12SM M10/M22 RMK SLP434 T10951220 40004//// 52003 IEM_DS3505
ZBYN,1983-01-18 21:00,ZBYN 182100Z AUTO 32006KT 19SM M10/M20 RMK SLP430 T11031200 57010 IEM_DS3505
ZBYN,1983-01-19 00:00,ZBYN 190000Z AUTO 00000KT 16SM M14/M22 RMK SLP452 T11401220 52007 IEM_DS3505
ZBYN,1983-01-19 03:00,ZBYN 190300Z AUTO 18006KT 19SM M07/M21 RMK SLP448 T10681210 52007 IEM_DS3505
ZBYN,1983-01-19 06:00,ZBYN 190600Z AUTO 22006KT 19SM M03/M20 RMK SLP409 T10281200 4////1148 57031 IEM_DS3505
ZBYN,1983-01-19 09:00,ZBYN 190900Z AUTO 27008KT 19SM M04/M22 RMK SLP400 T10351220 57011 IEM_DS3505
ZBYN,1983-01-19 12:00,ZBYN 191200Z AUTO 29004KT 9SM M08/M23 RMK SLP422 T10781231 52005 IEM_DS3505
ZBYN,1983-01-19 15:00,ZBYN 191500Z AUTO 00000KT 9SM M10/M22 RMK SLP413 T10951220 52002 IEM_DS3505
ZBYN,1983-01-19 18:00,ZBYN 191800Z AUTO 00000KT 9SM M14/M23 RMK SLP414 T11421230 41022//// 54000 IEM_DS3505
ZBYN,1983-01-19 21:00,ZBYN 192100Z AUTO 00000KT 11SM M16/M22 RMK SLP409 T11621220 57009 IEM_DS3505
ZBYN,1983-01-20 00:00,ZBYN 200000Z AUTO 00000KT 5SM M17/M21 RMK SLP428 T11721210 52008 IEM_DS3505
ZBYN,1983-01-20 03:00,ZBYN 200300Z AUTO 16006KT 4SM M08/M21 RMK SLP418 T10811210 52003 IEM_DS3505
ZBYN,1983-01-20 06:00,ZBYN 200600Z AUTO 20004KT 7SM M03/M18 RMK SLP384 T10271183 4////1192 57029 IEM_DS3505
ZBYN,1983-01-20 09:00,ZBYN 200900Z AUTO 22004KT 16SM M02/M21 RMK SLP386 T10191210 57001 IEM_DS3505
ZBYN,1983-01-20 12:00,ZBYN 201200Z AUTO 34004KT 9SM M05/M21 RMK SLP428 T10541210 52030 IEM_DS3505
ZBYN,1983-01-20 15:00,ZBYN 201500Z AUTO 34006KT 12SM M06/M19 RMK SLP440 T10601191 52025 IEM_DS3505
ZBYN,1983-01-20 18:00,ZBYN 201800Z AUTO 34008KT 12SM M08/M22 RMK SLP433 T10761220 41013//// 52002 IEM_DS3505
ZBYN,1983-01-20 21:00,ZBYN 202100Z AUTO 36006KT 12SM M10/M20 RMK SLP443 T11021200 52006 IEM_DS3505
ZBYN,1983-01-21 00:00,ZBYN 210000Z AUTO 27002KT 5SM M15/M23 RMK SLP471 T11481230 52011 IEM_DS3505
ZBYN,1983-01-21 03:00,ZBYN 210300Z AUTO 00000KT 4SM M06/M20 RMK SLP471 T10551200 52014 IEM_DS3505
ZBYN,1983-01-21 06:00,ZBYN 210600Z AUTO 22004KT 9SM M02/M19 RMK SLP438 T10241191 4////1154 57025 IEM_DS3505
ZBYN,1983-01-21 09:00,ZBYN 210900Z AUTO 20008KT 12SM M02/M19 RMK SLP436 T10191191 57007 IEM_DS3505
ZBYN,1983-01-21 12:00,ZBYN 211200Z AUTO 32006KT 7SM M07/M21 RMK SLP467 T10681210 52012 IEM_DS3505
ZBYN,1983-01-21 15:00,ZBYN 211500Z AUTO 00000KT 7SM M12/M23 RMK SLP464 T11201230 52004 IEM_DS3505
ZBYN,1983-01-21 18:00,ZBYN 211800Z AUTO 00000KT 9SM M14/M22 RMK SLP445 T11351220 41008//// 57014 IEM_DS3505
ZBYN,1983-01-21 21:00,ZBYN 212100Z AUTO 00000KT 9SM M16/M21 RMK SLP445 T11571210 57004 IEM_DS3505
ZBYN,1983-01-22 00:00,ZBYN 220000Z AUTO 00000KT 9SM M16/M22 RMK SLP458 T11651220 52002 IEM_DS3505
ZBYN,1983-01-22 03:00,ZBYN 220300Z AUTO 18002KT 5SM M07/M21 RMK SLP454 T10681210 52005 IEM_DS3505
ZBYN,1983-01-22 06:00,ZBYN 220600Z AUTO 22004KT 6SM M00/M20 RMK SLP408 T10031200 4////1176 57033 IEM_DS3505
ZBYN,1983-01-22 09:00,ZBYN 220900Z AUTO 18004KT 9SM M01/M18 RMK SLP407 T10111183 57006 IEM_DS3505
ZBYN,1983-01-22 12:00,ZBYN 221200Z AUTO 04002KT 9SM M07/M18 RMK SLP431 T10711183 52009 IEM_DS3505
ZBYN,1983-01-22 15:00,ZBYN 221500Z AUTO 18002KT 11SM M12/M19 RMK SLP422 T11181190 52001 IEM_DS3505
ZBYN,1983-01-22 18:00,ZBYN 221800Z AUTO 00000KT 6SM M13/M18 RMK SLP399 T11261180 40002//// 57010 IEM_DS3505
ZBYN,1983-01-22 21:00,ZBYN 222100Z AUTO 00000KT 6SM M15/M20 RMK SLP392 T11521200 57013 IEM_DS3505
ZBYN,1983-01-23 00:00,ZBYN 230000Z AUTO 36002KT 6SM M15/M20 RMK SLP391 T11501200 57012 IEM_DS3505
ZBYN,1983-01-23 03:00,ZBYN 230300Z AUTO 18004KT 4SM M05/M18 RMK SLP392 T10511175 52011 IEM_DS3505
ZBYN,1983-01-23 06:00,ZBYN 230600Z AUTO 20006KT 6SM 01/M19 RMK SLP350 T00111191 4////1160 57029 IEM_DS3505
ZBYN,1983-01-23 09:00,ZBYN 230900Z AUTO 00000KT 6SM 01/M18 RMK SLP351 T00061183 57005 IEM_DS3505
ZBYN,1983-01-23 12:00,ZBYN 231200Z AUTO 04004KT 6SM M06/M19 RMK SLP373 T10601191 52010 IEM_DS3505
ZBYN,1983-01-23 15:00,ZBYN 231500Z AUTO 32006KT 6SM M06/M21 RMK SLP357 T10561210 52003 IEM_DS3505
ZBYN,1983-01-23 18:00,ZBYN 231800Z AUTO 00000KT 6SM M12/M20 RMK SLP360 T11251200 40015//// 52002 IEM_DS3505
ZBYN,1983-01-23 21:00,ZBYN 232100Z AUTO 00000KT 9SM M14/M21 RMK SLP357 T11451210 57007 IEM_DS3505
ZBYN,1983-01-24 00:00,ZBYN 240000Z AUTO 00000KT 5SM M16/M19 RMK SLP381 T11591190 52007 IEM_DS3505
ZBYN,1983-01-24 03:00,ZBYN 240300Z AUTO 00000KT 4SM M04/M18 RMK SLP364 T10361175 52007 IEM_DS3505
ZBYN,1983-01-24 06:00,ZBYN 240600Z AUTO 20004KT 5SM 02/M21 RMK SLP334 T00201210 4////1187 57030 IEM_DS3505
ZBYN,1983-01-24 09:00,ZBYN 240900Z AUTO 16002KT 6SM 03/M18 RMK SLP329 T00261175 57006 IEM_DS3505
ZBYN,1983-01-24 12:00,ZBYN 241200Z AUTO 36002KT 6SM M06/M16 RMK SLP357 T10561160 52007 IEM_DS3505
ZBYN,1983-01-24 18:00,ZBYN 241800Z AUTO 00000KT 6SM M12/M19 RMK SLP332 T11201190 40034//// 57006 IEM_DS3505
ZBYN,1983-01-24 21:00,ZBYN 242100Z AUTO 34004KT 6SM M10/M18 RMK SLP320 T11031180 57007 IEM_DS3505
ZBYN,1983-01-25 00:00,ZBYN 250000Z AUTO 34004KT 4SM M13/M19 RMK SLP344 T11301190 52001 IEM_DS3505
ZBYN,1983-01-25 03:00,ZBYN 250300Z AUTO 00000KT 4SM M02/M18 RMK SLP360 T10231175 52026 IEM_DS3505
ZBYN,1983-01-25 06:00,ZBYN 250600Z AUTO 16004KT 6SM 03/M12 RMK SLP308 T00331124 4////1151 57040 IEM_DS3505
ZBYN,1983-01-25 09:00,ZBYN 250900Z AUTO 16004KT 6SM 04/M16 RMK SLP284 T00411160 57017 IEM_DS3505
ZBYN,1983-01-25 12:00,ZBYN 251200Z AUTO 34002KT 4SM M02/M18 RMK SLP312 T10221175 52010 IEM_DS3505
ZBYN,1983-01-25 15:00,ZBYN 251500Z AUTO 32004KT 5SM M02/M17 RMK SLP300 T10251167 52006 IEM_DS3505
ZBYN,1983-01-25 18:00,ZBYN 251800Z AUTO 36004KT 6SM M04/M19 RMK SLP288 T10391191 40053//// 57003 IEM_DS3505
ZBYN,1983-01-25 21:00,ZBYN 252100Z AUTO 00000KT 7SM M06/M19 RMK SLP286 T10581191 57004 IEM_DS3505
ZBYN,1983-01-26 00:00,ZBYN 260000Z AUTO 00000KT 4SM M06/M18 RMK SLP314 T10621183 52015 IEM_DS3505
ZBYN,1983-01-26 03:00,ZBYN 260300Z AUTO 34006KT 4SM 02/M16 RMK SLP303 T00241160 52003 IEM_DS3505
ZBYN,1983-01-26 06:00,ZBYN 260600Z AUTO 29002KT 5SM 06/M13 RMK SLP267 T00641130 4////1076 57028 IEM_DS3505
ZBYN,1983-01-26 09:00,ZBYN 260900Z AUTO 22002KT 5SM 07/M14 RMK SLP268 T00661135 57022 IEM_DS3505
ZBYN,1983-01-26 12:00,ZBYN 261200Z AUTO 34004KT 6SM M01/M14 RMK SLP296 T10111135 52012 IEM_DS3505
ZBYN,1983-01-26 15:00,ZBYN 261500Z AUTO 00000KT 9SM M02/M18 RMK SLP297 T10151175 52015 IEM_DS3505
ZBYN,1983-01-26 18:00,ZBYN 261800Z AUTO 00000KT 9SM M08/M15 RMK SLP301 T10841147 40077//// 57002 IEM_DS3505
ZBYN,1983-01-26 21:00,ZBYN 262100Z AUTO 00000KT 6SM M10/M15 RMK SLP297 T11041150 57007 IEM_DS3505
ZBYN,1983-01-27 00:00,ZBYN 270000Z AUTO 32002KT 5SM M10/M16 RMK SLP321 T11051160 52009 IEM_DS3505
ZBYN,1983-01-27 03:00,ZBYN 270300Z AUTO 00000KT 4SM M01/M15 RMK SLP302 T10111147 57002 IEM_DS3505
ZBYN,1983-01-27 06:00,ZBYN 270600Z AUTO 07002KT 5SM 07/M16 RMK SLP261 T00731160 4////1120 57035 IEM_DS3505
ZBYN,1983-01-27 09:00,ZBYN 270900Z AUTO 20004KT 6SM 08/M11 RMK SLP250 T00831109 57012 IEM_DS3505
ZBYN,1983-01-27 12:00,ZBYN 271200Z AUTO 34002KT 4SM M02/M14 RMK SLP269 T10161135 54000 IEM_DS3505
ZBYN,1983-01-27 15:00,ZBYN 271500Z AUTO 36004KT 5SM M01/M16 RMK SLP241 T10081160 57008 IEM_DS3505
ZBYN,1983-01-27 18:00,ZBYN 271800Z AUTO 02004KT 6SM M04/M15 RMK SLP223 T10431154 40090//// 57008 IEM_DS3505
ZBYN,1983-01-27 21:00,ZBYN 272100Z AUTO 36006KT 6SM M04/M15 RMK SLP223 T10371154 57013 IEM_DS3505
ZBYN,1983-01-28 00:00,ZBYN 280000Z AUTO 00000KT 4SM M09/M18 RMK SLP239 T10881183 52006 IEM_DS3505
ZBYN,1983-01-28 03:00,ZBYN 280300Z AUTO 00000KT 4SM 01/M14 RMK SLP215 T00111141 57004 IEM_DS3505
ZBYN,1983-01-28 06:00,ZBYN 280600Z AUTO 18002KT 5SM 08/M12 RMK SLP169 T00771119 4////1106 57037 IEM_DS3505
ZBYN,1983-01-28 09:00,ZBYN 280900Z AUTO 00000KT 5SM RMK SLP156 57011 IEM_DS3505
ZBYN,1983-01-28 12:00,ZBYN 281200Z AUTO 00000KT 4SM 00/M11 RMK SLP190 T00021109 52010 IEM_DS3505
ZBYN,1983-01-28 15:00,ZBYN 281500Z AUTO 34002KT 6SM M03/M14 RMK SLP184 T10321135 52006 IEM_DS3505
ZBYN,1983-01-28 18:00,ZBYN 281800Z AUTO 00000KT 9SM M05/M12 RMK SLP181 T10481124 40092//// 52005 IEM_DS3505
ZBYN,1983-01-28 21:00,ZBYN 282100Z AUTO 00000KT 6SM M07/M15 RMK SLP180 T10661154 57003 IEM_DS3505
ZBYN,1983-01-29 00:00,ZBYN 290000Z AUTO 34006KT 6SM M01/M12 RMK SLP208 T10081124 52022 IEM_DS3505
ZBYN,1983-01-29 03:00,ZBYN 290300Z AUTO 32006KT 5SM 05/M11 A3012 RMK SLP230 T00471114 52024 IEM_DS3505
ZBYN,1983-01-29 04:00,ZBYN 290400Z AUTO 05012KT 6SM 06/M13 A3012 RMK T00601130 IEM_DS3505
ZBYN,1983-01-29 06:00,ZBYN 290600Z AUTO 09010KT 4SM 06/M12 RMK SLP235 T00611124 4////1081 52004 IEM_DS3505
ZBYN,1983-01-29 09:00,ZBYN 290900Z AUTO 09008KT 6SM 04/M14 RMK SLP260 T00421135 52016 IEM_DS3505
ZBYN,1983-01-29 12:00,ZBYN 291200Z AUTO 09008KT 7SM 00/M12 RMK SLP285 T00041124 52026 IEM_DS3505
ZBYN,1983-01-29 15:00,ZBYN 291500Z AUTO 00000KT 6SM M05/M14 RMK SLP295 T10481135 52010 IEM_DS3505
ZBYN,1983-01-29 18:00,ZBYN 291800Z AUTO 32004KT 6SM M04/M12 RMK SLP303 T10361124 40061//// 52012 IEM_DS3505
ZBYN,1983-01-29 21:00,ZBYN 292100Z AUTO 00000KT 9SM M05/M15 RMK SLP306 T10531147 57004 IEM_DS3505
ZBYN,1983-01-30 00:00,ZBYN 300000Z AUTO 34006KT 5SM M06/M14 RMK SLP321 T10601141 52006 IEM_DS3505
ZBYN,1983-01-30 06:00,ZBYN 300600Z AUTO 11004KT 6SM 05/M10 RMK SLP268 T00461096 4////1076 57037 IEM_DS3505
ZBYN,1983-01-30 09:00,ZBYN 300900Z AUTO 00000KT 7SM 06/M12 RMK SLP252 T00641119 57013 IEM_DS3505
ZBYN,1983-01-30 12:00,ZBYN 301200Z AUTO 00000KT 9SM M03/M14 RMK SLP278 T10321135 52005 IEM_DS3505
ZBYN,1983-01-30 15:00,ZBYN 301500Z AUTO 32002KT 6SM M05/M15 RMK SLP271 T10521154 54000 IEM_DS3505
ZBYN,1983-01-30 18:00,ZBYN 301800Z AUTO 00000KT 4SM M05/M15 RMK SLP252 T10481154 40073//// 57008 IEM_DS3505
ZBYN,1983-01-30 21:00,ZBYN 302100Z AUTO 00000KT 6SM M07/M17 RMK SLP242 T10741167 57011 IEM_DS3505
ZBYN,1983-01-31 00:00,ZBYN 310000Z AUTO 00000KT 4SM M05/M15 RMK SLP249 T10481147 57005 IEM_DS3505
ZBYN,1983-01-31 03:00,ZBYN 310300Z AUTO 00000KT 6SM M03/M07 RMK SLP252 T10261072 52003 IEM_DS3505
ZBYN,1983-01-31 06:00,ZBYN 310600Z AUTO 16004KT 6SM M00/M06 RMK SLP215 T10051061 4////1083 57030 IEM_DS3505
ZBYN,1983-01-31 09:00,ZBYN 310900Z AUTO 18002KT 5SM M00/M06 RMK SLP210 T10021055 57008 IEM_DS3505
ZBYN,1983-01-31 12:00,ZBYN 311200Z AUTO 00000KT 4SM M01/M05 RMK SLP218 T10121052 52011 IEM_DS3505
ZBYN,1983-01-31 15:00,ZBYN 311500Z AUTO 00000KT 4SM M03/M05 RMK SLP218 T10281052 54000 IEM_DS3505
ZBYN,1983-01-31 18:00,ZBYN 311800Z AUTO 00000KT 4SM M03/M04 RMK 60000 SLP215 T10281039 40002//// 52011 IEM_DS3505
ZBYN,1983-01-31 21:00,ZBYN 312100Z AUTO 00000KT 4SM M03/M06 RMK SLP209 T10261055 57005 IEM_DS3505
ZBYN,1983-02-01 00:00,ZBYN 010000Z AUTO 00000KT 4SM M03/M06 RMK SLP221 T10261057 52009 IEM_DS3505
ZBYN,1983-02-01 03:00,ZBYN 010300Z AUTO 11002KT 4SM M01/M03 RMK SLP239 T10141034 52016 IEM_DS3505
ZBYN,1983-02-01 04:00,ZBYN 010400Z AUTO 07014KT 2SM M02/M04 A3012 RMK T10201040 IEM_DS3505
ZBYN,1983-02-01 05:00,ZBYN 010500Z AUTO 08014KT 2 1/2SM M02/M06 A3012 RMK T10201060 IEM_DS3505
ZBYN,1983-02-01 06:00,ZBYN 010600Z AUTO 11006KT 4SM M01/M06 A3012 RMK 60002 SLP232 T10121058 4////1035 57006 IEM_DS3505
ZBYN,1983-02-01 08:00,ZBYN 010800Z AUTO 08012KT 3SM M02/M06 A3006 RMK T10201060 IEM_DS3505
ZBYN,1983-02-01 09:00,ZBYN 010900Z AUTO 00000KT 4SM M01/M04 RMK SLP233 T10131045 52001 IEM_DS3505
ZBYN,1983-02-01 18:00,ZBYN 011800Z AUTO 32004KT 6SM M04/M07 RMK 60000 SLP277 T10361072 41007//// 52010 IEM_DS3505
ZBYN,1983-02-01 21:00,ZBYN 012100Z AUTO 00000KT 6SM M05/M09 RMK SLP273 T10501087 57005 IEM_DS3505
ZBYN,1983-02-02 00:00,ZBYN 020000Z AUTO 36008KT 6SM M05/M10 RMK SLP297 T10491096 52019 IEM_DS3505
ZBYN,1983-02-02 06:00,ZBYN 020600Z AUTO 36008KT 7SM 01/M10 RMK SLP271 T00081105 4////1059 57016 IEM_DS3505
ZBYN,1983-02-02 09:00,ZBYN 020900Z AUTO 29004KT 7SM 02/M11 RMK SLP276 T00161114 52003 IEM_DS3505
ZBYN,1983-02-02 12:00,ZBYN 021200Z AUTO 29004KT 6SM M04/M08 RMK SLP298 T10361083 52011 IEM_DS3505
ZBYN,1983-02-02 15:00,ZBYN 021500Z AUTO 09002KT 6SM M07/M11 RMK SLP301 T10661109 52002 IEM_DS3505
ZBYN,1983-02-02 18:00,ZBYN 021800Z AUTO 14002KT 6SM M09/M12 RMK SLP296 T10941119 40021//// 57004 IEM_DS3505
ZBYN,1983-02-02 21:00,ZBYN 022100Z AUTO 32004KT 4SM M11/M12 RMK SLP273 T11081120 57008 IEM_DS3505
ZBYN,1983-02-03 00:00,ZBYN 030000Z AUTO 00000KT 4SM M12/M14 RMK SLP301 T11201140 52001 IEM_DS3505
ZBYN,1983-02-03 03:00,ZBYN 030300Z AUTO 18002KT 4SM M04/M09 RMK SLP292 T10411092 54000 IEM_DS3505
ZBYN,1983-02-03 06:00,ZBYN 030600Z AUTO 14004KT 5SM 00/M10 RMK SLP260 T00031105 4////1126 57026 IEM_DS3505
ZBYN,1983-02-03 09:00,ZBYN 030900Z AUTO 20008KT 9SM 01/M12 RMK SLP254 T00131119 57007 IEM_DS3505
ZBYN,1983-02-03 12:00,ZBYN 031200Z AUTO 29012KT 11SM M01/M16 RMK SLP278 T10141160 52016 IEM_DS3505
ZBYN,1983-02-03 15:00,ZBYN 031500Z AUTO 32004KT 9SM M04/M13 RMK SLP272 T10361130 52004 IEM_DS3505
ZBYN,1983-02-03 18:00,ZBYN 031800Z AUTO 11006KT 9SM M09/M17 RMK SLP273 T10901167 40071//// 57001 IEM_DS3505
ZBYN,1983-02-03 21:00,ZBYN 032100Z AUTO 00000KT 9SM M11/M15 RMK SLP257 T11101150 57016 IEM_DS3505
ZBYN,1983-02-04 00:00,ZBYN 040000Z AUTO 14004KT 6SM M12/M16 RMK SLP270 T11161160 52006 IEM_DS3505
ZBYN,1983-02-04 03:00,ZBYN 040300Z AUTO 14004KT 6SM M01/M12 RMK SLP239 T10131124 57014 IEM_DS3505
ZBYN,1983-02-04 06:00,ZBYN 040600Z AUTO 20010KT 10SM 06/M11 RMK SLP190 T00651114 4////1125 57040 IEM_DS3505
ZBYN,1983-02-04 09:00,ZBYN 040900Z AUTO 29008KT 12SM 08/M14 RMK SLP171 T00791141 57018 IEM_DS3505
ZBYN,1983-02-04 12:00,ZBYN 041200Z AUTO 00000KT 12SM 01/M14 RMK SLP215 T00141135 52027 IEM_DS3505
ZBYN,1983-02-04 15:00,ZBYN 041500Z AUTO 20004KT 12SM M00/M11 RMK SLP205 T10011109 52006 IEM_DS3505
ZBYN,1983-02-04 18:00,ZBYN 041800Z AUTO 11004KT 9SM M03/M12 RMK SLP191 T10341124 40091//// 57005 IEM_DS3505
ZBYN,1983-02-04 21:00,ZBYN 042100Z AUTO 14004KT 9SM RMK 57007 IEM_DS3505
ZBYN,1983-02-05 00:00,ZBYN 050000Z AUTO 16004KT 7SM M06/M12 RMK SLP215 T10631124 52015 IEM_DS3505
ZBYN,1983-02-05 03:00,ZBYN 050300Z AUTO 29010KT 9SM 04/M10 A3012 RMK SLP216 T00421105 52016 IEM_DS3505
ZBYN,1983-02-05 04:00,ZBYN 050400Z AUTO 32012KT 7SM 06/M15 A3006 RMK T00601150 IEM_DS3505
ZBYN,1983-02-05 05:00,ZBYN 050500Z AUTO 32016KT 7SM 07/M18 A3003 RMK T00701180 IEM_DS3505
ZBYN,1983-02-05 06:00,ZBYN 050600Z AUTO 29010KT 16SM 06/M15 A3003 RMK SLP190 T00651154 4////1077 57025 IEM_DS3505
ZBYN,1983-02-05 07:00,ZBYN 050700Z AUTO 34017KT 6SM 07/M19 A3003 RMK T00701190 IEM_DS3505
ZBYN,1983-02-05 08:00,ZBYN 050800Z AUTO 30021KT 6SM 06/M21 A3003 RMK T00601210 IEM_DS3505
ZBYN,1983-02-05 09:00,ZBYN 050900Z AUTO 36010KT 17SM 05/M16 A3003 RMK SLP215 T00511160 52015 IEM_DS3505
ZBYN,1983-02-05 10:00,ZBYN 051000Z AUTO 30017KT 6SM 02/M17 A3006 RMK T00201170 IEM_DS3505
ZBYN,1983-02-05 12:00,ZBYN 051200Z AUTO 36002KT 16SM M01/M17 RMK SLP261 T10081167 52032 IEM_DS3505
ZBYN,1983-02-05 15:00,ZBYN 051500Z AUTO 00000KT 16SM M03/M19 RMK SLP270 T10281191 52023 IEM_DS3505
ZBYN,1983-02-05 18:00,ZBYN 051800Z AUTO 00000KT 19SM M04/M19 RMK SLP277 T10431191 40074//// 52007 IEM_DS3505
ZBYN,1983-02-05 21:00,ZBYN 052100Z AUTO 27002KT 19SM M09/M19 RMK SLP295 T10861191 52007 IEM_DS3505
ZBYN,1983-02-06 00:00,ZBYN 060000Z AUTO 34004KT 9SM M07/M18 RMK SLP325 T10741175 41051//// 52020 IEM_DS3505
ZBYN,1983-02-06 03:00,ZBYN 060300Z AUTO 34004KT 9SM M04/M18 RMK SLP334 T10371183 52010 IEM_DS3505
ZBYN,1983-02-06 06:00,ZBYN 060600Z AUTO 20006KT 11SM 00/M18 RMK SLP300 T00041183 4////1099 57026 IEM_DS3505
ZBYN,1983-02-06 09:00,ZBYN 060900Z AUTO 00000KT 11SM 01/M16 RMK SLP299 T00081160 57007 IEM_DS3505
ZBYN,1983-02-06 12:00,ZBYN 061200Z AUTO 36006KT 9SM M03/M20 RMK SLP328 T10281200 52022 IEM_DS3505
ZBYN,1983-02-06 18:00,ZBYN 061800Z AUTO 25002KT 9SM M08/M18 RMK SLP341 T10811175 40013//// 57002 IEM_DS3505
ZBYN,1983-02-06 21:00,ZBYN 062100Z AUTO 00000KT 12SM M11/M18 RMK SLP332 T11091180 57013 IEM_DS3505
ZBYN,1983-02-07 00:00,ZBYN 070000Z AUTO 14004KT 12SM M12/M19 RMK SLP338 T11191190 57002 IEM_DS3505
ZBYN,1983-02-07 03:00,ZBYN 070300Z AUTO 18004KT 16SM M02/M15 RMK SLP312 T10201154 57011 IEM_DS3505
ZBYN,1983-02-07 06:00,ZBYN 070600Z AUTO 29014KT 14SM 00/M16 RMK SLP277 T00021160 4////1128 57032 IEM_DS3505
ZBYN,1983-02-07 09:00,ZBYN 070900Z AUTO 29023KT 5SM M00/M16 RMK SLP279 T10041160 57005 IEM_DS3505
ZBYN,1983-02-07 12:00,ZBYN 071200Z AUTO 32004KT 5SM M02/M15 RMK SLP296 T10161147 52011 IEM_DS3505
ZBYN,1983-02-07 15:00,ZBYN 071500Z AUTO 34006KT 6SM M03/M19 RMK SLP283 T10341191 52003 IEM_DS3505
ZBYN,1983-02-07 18:00,ZBYN 071800Z AUTO 20002KT 12SM M05/M18 RMK SLP266 T10501183 40015//// 57015 IEM_DS3505
ZBYN,1983-02-07 21:00,ZBYN 072100Z AUTO 18006KT 9SM M08/M18 RMK SLP241 T10781183 57028 IEM_DS3505
ZBYN,1983-02-08 00:00,ZBYN 080000Z AUTO 18004KT 6SM M09/M18 RMK SLP227 T10861183 57016 IEM_DS3505
ZBYN,1983-02-08 03:00,ZBYN 080300Z AUTO 18008KT 6SM M00/M18 RMK SLP192 T10011175 57020 IEM_DS3505
ZBYN,1983-02-08 06:00,ZBYN 080600Z AUTO 32014KT 4SM 03/M16 RMK SLP167 T00301160 4////1105 57020 IEM_DS3505
ZBYN,1983-02-08 09:00,ZBYN 080900Z AUTO 32008KT 7SM 00/M18 RMK SLP211 T00011183 52030 IEM_DS3505
ZBYN,1983-02-08 12:00,ZBYN 081200Z AUTO 32006KT 17SM M02/M16 RMK SLP244 T10221160 52024 IEM_DS3505
ZBYN,1983-02-08 15:00,ZBYN 081500Z AUTO 34004KT 19SM M05/M23 RMK SLP263 T10511231 52027 IEM_DS3505
ZBYN,1983-02-08 18:00,ZBYN 081800Z AUTO 32004KT 16SM M08/M22 RMK SLP262 T10761220 40037//// 54000 IEM_DS3505
ZBYN,1983-02-08 21:00,ZBYN 082100Z AUTO 16SM M12/M22 RMK SLP264 T11201220 57010 IEM_DS3505
ZBYN,1983-02-09 00:00,ZBYN 090000Z AUTO 16002KT 7SM M14/M21 RMK SLP284 T11431210 52010 IEM_DS3505
ZBYN,1983-02-09 03:00,ZBYN 090300Z AUTO 00000KT 6SM M02/M19 RMK SLP264 T10241191 57003 IEM_DS3505
ZBYN,1983-02-09 06:00,ZBYN 090600Z AUTO 18006KT 16SM 02/M19 RMK SLP224 T00231191 4////1151 57033 IEM_DS3505
ZBYN,1983-02-09 09:00,ZBYN 090900Z AUTO 00000KT 16SM M04/M17 RMK SLP210 T10401167 57016 IEM_DS3505
ZBYN,1983-02-09 12:00,ZBYN 091200Z AUTO 29008KT 12SM M00/M16 RMK SLP237 T10041160 52013 IEM_DS3505
ZBYN,1983-02-09 18:00,ZBYN 091800Z AUTO 00000KT 9SM M08/M18 RMK SLP230 T10751175 40048//// 52003 IEM_DS3505
ZBYN,1983-02-09 21:00,ZBYN 092100Z AUTO 36002KT 9SM M10/M18 RMK SLP229 T10951183 57002 IEM_DS3505
ZBYN,1983-02-10 00:00,ZBYN 100000Z AUTO 34006KT 6SM M08/M17 RMK SLP246 T10771168 52012 IEM_DS3505
ZBYN,1983-02-10 06:00,ZBYN 100600Z AUTO 20004KT 12SM 05/M17 RMK SLP230 T00461167 4////1115 57017 IEM_DS3505
ZBYN,1983-02-10 09:00,ZBYN 100900Z AUTO 32008KT 16SM 04/M17 RMK SLP236 T00401167 52001 IEM_DS3505
ZBYN,1983-02-10 12:00,ZBYN 101200Z AUTO 34004KT 12SM M00/M18 RMK SLP274 T10011175 52032 IEM_DS3505
ZBYN,1983-02-10 15:00,ZBYN 101500Z AUTO 32004KT 12SM M03/M18 RMK SLP277 T10341183 52012 IEM_DS3505
ZBYN,1983-02-10 18:00,ZBYN 101800Z AUTO 00000KT 12SM M06/M17 RMK SLP276 T10641167 40052//// 54000 IEM_DS3505
ZBYN,1983-02-10 21:00,ZBYN 102100Z AUTO 00000KT 12SM M07/M18 RMK SLP263 T10741183 57015 IEM_DS3505
ZBYN,1983-02-11 00:00,ZBYN 110000Z AUTO 14002KT 9SM M11/M19 RMK SLP301 T11101190 52021 IEM_DS3505
ZBYN,1983-02-11 03:00,ZBYN 110300Z AUTO 16006KT 6SM 01/M17 RMK SLP278 T00061167 57006 IEM_DS3505
ZBYN,1983-02-11 06:00,ZBYN 110600Z AUTO 14004KT 12SM 04/M16 RMK SLP247 T00411160 4////1120 57028 IEM_DS3505
ZBYN,1983-02-11 09:00,ZBYN 110900Z AUTO 09002KT 16SM 04/M10 RMK SLP231 T00451105 57016 IEM_DS3505
ZBYN,1983-02-11 12:00,ZBYN 111200Z AUTO 32004KT 9SM M00/M18 RMK SLP260 T10041175 52013 IEM_DS3505
ZBYN,1983-02-11 15:00,ZBYN 111500Z AUTO 02002KT 9SM M04/M17 RMK SLP259 T10441167 52012 IEM_DS3505
ZBYN,1983-02-11 18:00,ZBYN 111800Z AUTO 36002KT 7SM M06/M17 RMK SLP258 T10561167 40055//// 52003 IEM_DS3505
ZBYN,1983-02-11 21:00,ZBYN 112100Z AUTO 32004KT 17SM M07/M19 RMK SLP277 T10671191 52016 IEM_DS3505
ZBYN,1983-02-12 00:00,ZBYN 120000Z AUTO 32002KT 8SM M08/M16 RMK SLP305 T10761160 52016 IEM_DS3505
ZBYN,1983-02-12 03:00,ZBYN 120300Z AUTO 02008KT 12SM M02/M17 RMK SLP319 T10181167 52015 IEM_DS3505
ZBYN,1983-02-12 06:00,ZBYN 120600Z AUTO 22004KT 14SM 03/M19 RMK SLP292 T00271191 4////1087 57019 IEM_DS3505
ZBYN,1983-02-12 09:00,ZBYN 120900Z AUTO 18004KT 16SM 03/M17 RMK SLP287 T00291167 57006 IEM_DS3505
ZBYN,1983-02-12 12:00,ZBYN 121200Z AUTO 32006KT 9SM M02/M20 RMK SLP315 T10161200 52017 IEM_DS3505
ZBYN,1983-02-12 15:00,ZBYN 121500Z AUTO 34004KT 9SM M02/M23 RMK SLP318 T10231231 52011 IEM_DS3505
ZBYN,1983-02-12 18:00,ZBYN 121800Z AUTO 00000KT 9SM M09/M21 RMK SLP314 T10931210 40042//// 57009 IEM_DS3505
ZBYN,1983-02-12 21:00,ZBYN 122100Z AUTO 00000KT 9SM M11/M22 RMK SLP302 T11081220 57011 IEM_DS3505
ZBYN,1983-02-13 00:00,ZBYN 130000Z AUTO 00000KT 6SM M13/M22 RMK SLP312 T11261220 57002 IEM_DS3505
ZBYN,1983-02-13 03:00,ZBYN 130300Z AUTO 00000KT 4SM M04/M18 RMK SLP283 T10371183 57012 IEM_DS3505
ZBYN,1983-02-13 06:00,ZBYN 130600Z AUTO 18010KT 7SM 02/M18 RMK SLP249 T00231175 4////1138 57033 IEM_DS3505
ZBYN,1983-02-13 09:00,ZBYN 130900Z AUTO 14004KT 7SM 03/M15 RMK SLP239 T00301147 57011 IEM_DS3505
ZBYN,1983-02-13 12:00,ZBYN 131200Z AUTO 00000KT 9SM M00/M15 RMK SLP261 T10011147 52011 IEM_DS3505
ZBYN,1983-02-13 15:00,ZBYN 131500Z AUTO 32006KT 12SM M11/M14 RMK SLP254 T11071141 52008 IEM_DS3505
ZBYN,1983-02-13 18:00,ZBYN 131800Z AUTO 32006KT 9SM M00/M15 RMK SLP247 T10041147 40038//// 52005 IEM_DS3505
ZBYN,1983-02-13 21:00,ZBYN 132100Z AUTO 34012KT 12SM M04/M22 RMK SLP261 T10451220 52006 IEM_DS3505
ZBYN,1983-02-14 00:00,ZBYN 140000Z AUTO 00000KT 7SM M04/M20 RMK SLP280 T10421200 52013 IEM_DS3505
ZBYN,1983-02-14 03:00,ZBYN 140300Z AUTO 32008KT 11SM 01/M16 RMK SLP280 T00071160 52002 IEM_DS3505
ZBYN,1983-02-14 06:00,ZBYN 140600Z AUTO 00000KT 12SM 04/M24 RMK SLP238 T00381244 4////1052 57027 IEM_DS3505
ZBYN,1983-02-14 09:00,ZBYN 140900Z AUTO 18006KT 16SM 05/M19 RMK SLP225 T00481191 57017 IEM_DS3505
ZBYN,1983-02-14 12:00,ZBYN 141200Z AUTO 14002KT 9SM M04/M22 RMK SLP250 T10361220 52009 IEM_DS3505
ZBYN,1983-02-14 15:00,ZBYN 141500Z AUTO 20002KT 9SM M07/M22 RMK SLP248 T10671220 52002 IEM_DS3505
ZBYN,1983-02-14 18:00,ZBYN 141800Z AUTO 00000KT 9SM M09/M20 RMK SLP242 T10941200 40056//// 57006 IEM_DS3505
ZBYN,1983-02-14 21:00,ZBYN 142100Z AUTO 36006KT 9SM M07/M21 RMK SLP222 T10661210 57011 IEM_DS3505
ZBYN,1983-02-15 00:00,ZBYN 150000Z AUTO 36004KT 6SM M09/M20 RMK SLP247 T10861200 52004 IEM_DS3505
ZBYN,1983-02-15 03:00,ZBYN 150300Z AUTO 00000KT 5SM M00/M19 A3006 RMK SLP226 T10021191 57009 IEM_DS3505
ZBYN,1983-02-15 04:00,ZBYN 150400Z AUTO 20006KT 6SM 03/M22 A3006 RMK T00301220 IEM_DS3505
ZBYN,1983-02-15 06:00,ZBYN 150600Z AUTO 18006KT 5SM 06/M18 A2997 RMK SLP189 T00581183 4////1106 57028 IEM_DS3505
ZBYN,1983-02-15 08:00,ZBYN 150800Z AUTO 18006KT 6SM 06/M16 A2997 RMK T00601160 IEM_DS3505
ZBYN,1983-02-15 09:00,ZBYN 150900Z AUTO 00000KT 5SM 06/M12 A2997 RMK SLP186 T00551124 52001 IEM_DS3505
ZBYN,1983-02-15 10:00,ZBYN 151000Z AUTO 00000KT 6SM 03/M11 A2997 RMK T00301110 IEM_DS3505
ZBYN,1983-02-15 11:00,ZBYN 151100Z AUTO 28012KT 6SM 06/M23 A3003 RMK T00601230 IEM_DS3505
ZBYN,1983-02-15 12:00,ZBYN 151200Z AUTO 32006KT 6SM 05/M22 RMK SLP215 T00541220 52023 IEM_DS3505
ZBYN,1983-02-15 15:00,ZBYN 151500Z AUTO 29012KT 5SM 04/M19 RMK SLP213 T00451191 52011 IEM_DS3505
ZBYN,1983-02-15 18:00,ZBYN 151800Z AUTO 25004KT 6SM 00/M15 RMK SLP200 T00001154 40072//// 57009 IEM_DS3505
ZBYN,1983-02-15 21:00,ZBYN 152100Z AUTO 09004KT 6SM M03/M17 RMK SLP190 T10301167 57015 IEM_DS3505
ZBYN,1983-02-16 00:00,ZBYN 160000Z AUTO 00000KT 5SM M04/M15 RMK SLP187 T10441154 55005 IEM_DS3505
ZBYN,1983-02-16 03:00,ZBYN 160300Z AUTO 32012KT 4SM 05/M11 RMK SLP165 T00461114 57007 IEM_DS3505
ZBYN,1983-02-16 06:00,ZBYN 160600Z AUTO 32014KT 7SM 06/M19 RMK SLP152 T00571191 4////1063 57017 IEM_DS3505
ZBYN,1983-02-16 09:00,ZBYN 160900Z AUTO 32010KT 4SM 04/M18 RMK SLP173 T00381175 52011 IEM_DS3505
ZBYN,1983-02-16 12:00,ZBYN 161200Z AUTO 32008KT 6SM 00/M26 RMK SLP223 T00031258 57036 IEM_DS3505
ZBYN,1983-02-16 15:00,ZBYN 161500Z AUTO 32010KT 7SM M02/M24 RMK SLP215 T10221244 52004 IEM_DS3505
ZBYN,1983-02-16 18:00,ZBYN 161800Z AUTO 32012KT 9SM M06/M26 RMK SLP223 T10621258 40065//// 52003 IEM_DS3505
ZBYN,1983-02-16 21:00,ZBYN 162100Z AUTO 29010KT 19SM M07/M29 RMK T10741292 52006 IEM_DS3505
ZBYN,1983-02-17 00:00,ZBYN 170000Z AUTO 29012KT 16SM M08/M29 RMK SLP262 T10811292 52017 IEM_DS3505
ZBYN,1983-02-17 06:00,ZBYN 170600Z AUTO 29019KT 9SM M02/M26 RMK SLP252 T10201258 4////1091 57001 IEM_DS3505
ZBYN,1983-02-17 09:00,ZBYN 170900Z AUTO 32014KT 6SM M03/M26 RMK SLP272 T10341258 52010 IEM_DS3505
ZBYN,1983-02-17 12:00,ZBYN 171200Z AUTO 32012KT 7SM M06/M24 RMK SLP306 T10601244 52025 IEM_DS3505
ZBYN,1983-02-17 15:00,ZBYN 171500Z AUTO 32016KT 7SM M09/M29 RMK SLP327 T10921292 52021 IEM_DS3505
ZBYN,1983-02-17 18:00,ZBYN 171800Z AUTO 02012KT 9SM M13/M29 RMK SLP343 T11291290 52011 IEM_DS3505
ZBYN,1983-02-17 21:00,ZBYN 172100Z AUTO 02004KT 16SM M14/M30 RMK SLP352 T11421300 52003 IEM_DS3505
ZBYN,1983-02-18 00:00,ZBYN 180000Z AUTO 32008KT 16SM M16/M30 RMK SLP375 T11561300 52014 IEM_DS3505
ZBYN,1983-02-18 03:00,ZBYN 180300Z AUTO 00000KT 6SM M10/M26 RMK SLP354 T11031264 57016 IEM_DS3505
ZBYN,1983-02-18 06:00,ZBYN 180600Z AUTO 16006KT 12SM M05/M23 RMK SLP308 T10541231 57038 IEM_DS3505
ZBYN,1983-02-18 09:00,ZBYN 180900Z AUTO 18006KT 16SM M03/M22 RMK SLP276 T10311220 57027 IEM_DS3505
ZBYN,1983-02-18 12:00,ZBYN 181200Z AUTO 11004KT 9SM M06/M24 RMK SLP284 T10641244 57001 IEM_DS3505
ZBYN,1983-02-18 18:00,ZBYN 181800Z AUTO 18004KT 7SM M10/M27 RMK SLP251 T11051270 41025//// 57011 IEM_DS3505
ZBYN,1983-02-18 21:00,ZBYN 182100Z AUTO 29006KT 12SM M12/M24 RMK SLP246 T11161240 57003 IEM_DS3505
ZBYN,1983-02-19 00:00,ZBYN 190000Z AUTO 36008KT 6SM M08/M23 RMK SLP288 T10841231 52038 IEM_DS3505
ZBYN,1983-02-19 03:00,ZBYN 190300Z AUTO 36014KT 5SM M08/M24 A3024 RMK SLP332 T10831244 52031 IEM_DS3505
ZBYN,1983-02-19 04:00,ZBYN 190400Z AUTO 36023KT 7SM M07/M25 A3030 RMK T10701250 IEM_DS3505
ZBYN,1983-02-19 05:00,ZBYN 190500Z AUTO 01027KT 7SM M06/M23 A3030 RMK T10601230 IEM_DS3505
ZBYN,1983-02-19 06:00,ZBYN 190600Z AUTO 04014KT 6SM M07/M29 A3030 RMK SLP323 T10661292 4////1142 57004 IEM_DS3505
ZBYN,1983-02-19 07:00,ZBYN 190700Z AUTO 36017KT 7SM M05/M27 A3030 RMK T10501270 IEM_DS3505
ZBYN,1983-02-19 09:00,ZBYN 190900Z AUTO 02016KT 12SM M07/M34 RMK SLP345 T10711339 52017 IEM_DS3505
ZBYN,1983-02-19 12:00,ZBYN 191200Z AUTO 36006KT 9SM M09/M31 RMK SLP385 T10941313 52038 IEM_DS3505
ZBYN,1983-02-19 15:00,ZBYN 191500Z AUTO 36012KT 9SM M11/M27 RMK T11131270 52019 IEM_DS3505
ZBYN,1983-02-19 18:00,ZBYN 191800Z AUTO 36017KT 9SM M14/M28 RMK SLP323 T11371280 41063//// 52012 IEM_DS3505
ZBYN,1983-02-19 21:00,ZBYN 192100Z AUTO 36008KT 12SM M15/M29 RMK SLP433 T11501290 52004 IEM_DS3505
ZBYN,1983-02-20 00:00,ZBYN 200000Z AUTO 32006KT 6SM M16/M30 RMK SLP454 T11551300 52016 IEM_DS3505
ZBYN,1983-02-20 03:00,ZBYN 200300Z AUTO 34006KT 7SM M10/M24 RMK SLP441 T11001240 57006 IEM_DS3505
ZBYN,1983-02-20 06:00,ZBYN 200600Z AUTO 11004KT 7SM M05/M24 RMK SLP403 T10491244 4////1173 57031 IEM_DS3505
ZBYN,1983-02-20 09:00,ZBYN 200900Z AUTO 00000KT 7SM M04/M22 RMK SLP378 T10351220 57022 IEM_DS3505
ZBYN,1983-02-20 12:00,ZBYN 201200Z AUTO 00000KT 12SM M08/M27 RMK SLP390 T10851274 52002 IEM_DS3505
ZBYN,1983-02-20 15:00,ZBYN 201500Z AUTO 34004KT 12SM M10/M24 RMK SLP384 T11011240 52001 IEM_DS3505
ZBYN,1983-02-20 18:00,ZBYN 201800Z AUTO 32002KT 9SM M13/M25 RMK SLP373 T11311250 41026//// 57006 IEM_DS3505
ZBYN,1983-02-20 21:00,ZBYN 202100Z AUTO 34004KT 9SM M04/M24 RMK SLP343 T10401240 57020 IEM_DS3505
ZBYN,1983-02-21 00:00,ZBYN 210000Z AUTO 34004KT 6SM M09/M26 RMK SLP350 T10871258 54000 IEM_DS3505
ZBYN,1983-02-21 03:00,ZBYN 210300Z AUTO 11004KT 4SM M06/M26 RMK SLP345 T10551258 57002 IEM_DS3505
ZBYN,1983-02-21 06:00,ZBYN 210600Z AUTO 18008KT 7SM M00/M23 RMK SLP305 T10031231 4////1152 57032 IEM_DS3505
ZBYN,1983-02-21 09:00,ZBYN 210900Z AUTO 18006KT 7SM 00/M23 RMK SLP278 T00051231 57018 IEM_DS3505
ZBYN,1983-02-21 12:00,ZBYN 211200Z AUTO 00000KT 12SM M04/M26 RMK SLP297 T10421258 52012 IEM_DS3505
ZBYN,1983-02-21 15:00,ZBYN 211500Z AUTO 00000KT 9SM M08/M21 RMK SLP315 T10761210 52015 IEM_DS3505
ZBYN,1983-02-21 18:00,ZBYN 211800Z AUTO 32006KT 9SM M07/M21 RMK SLP306 T10721210 40010//// 52002 IEM_DS3505
ZBYN,1983-02-21 21:00,ZBYN 212100Z AUTO 34006KT M08/M23 RMK SLP301 T10831231 57004 IEM_DS3505
ZBYN,1983-02-22 00:00,ZBYN 220000Z AUTO 00000KT 5SM M10/M22 RMK SLP327 T10951220 52012 IEM_DS3505
ZBYN,1983-02-22 03:00,ZBYN 220300Z AUTO 36006KT 5SM 00/M19 RMK SLP315 T00031191 54000 IEM_DS3505
ZBYN,1983-02-22 06:00,ZBYN 220600Z AUTO 34006KT 6SM 06/M16 RMK SLP273 T00601160 4////1116 57027 IEM_DS3505
ZBYN,1983-02-22 09:00,ZBYN 220900Z AUTO 34006KT 6SM 08/M18 RMK SLP249 T00821183 57020 IEM_DS3505
ZBYN,1983-02-22 12:00,ZBYN 221200Z AUTO 04002KT 12SM 03/M14 RMK SLP286 T00301141 52023 IEM_DS3505
ZBYN,1983-02-22 18:00,ZBYN 221800Z AUTO 00000KT 16SM M01/M18 RMK SLP297 T10141183 40084//// 52009 IEM_DS3505
ZBYN,1983-02-22 21:00,ZBYN 222100Z AUTO 32004KT 9SM M01/M20 RMK SLP288 T10071200 57005 IEM_DS3505
ZBYN,1983-02-23 00:00,ZBYN 230000Z AUTO 36004KT 5SM M02/M18 RMK SLP311 T10241183 52010 IEM_DS3505
ZBYN,1983-02-23 03:00,ZBYN 230300Z AUTO 11004KT 6SM 04/M18 RMK SLP322 T00441183 52016 IEM_DS3505
ZBYN,1983-02-23 06:00,ZBYN 230600Z AUTO 16006KT 9SM 08/M16 RMK SLP290 T00791160 4////1040 57025 IEM_DS3505
ZBYN,1983-02-23 09:00,ZBYN 230900Z AUTO 11008KT 11SM 07/M15 RMK SLP281 T00711147 57009 IEM_DS3505
ZBYN,1983-02-23 12:00,ZBYN 231200Z AUTO 14008KT 7SM 02/M16 RMK SLP308 T00161160 52014 IEM_DS3505
ZBYN,1983-02-23 15:00,ZBYN 231500Z AUTO 00000KT 9SM M02/M18 RMK SLP326 T10231175 52021 IEM_DS3505
ZBYN,1983-02-23 18:00,ZBYN 231800Z AUTO 27002KT 6SM M05/M19 RMK SLP328 T10481191 40085//// 52003 IEM_DS3505
ZBYN,1983-02-23 21:00,ZBYN 232100Z AUTO 34004KT 6SM M04/M19 RMK SLP319 T10371191 57008 IEM_DS3505
ZBYN,1983-02-24 00:00,ZBYN 240000Z AUTO 11002KT 4SM M07/M16 RMK SLP352 T10681160 52016 IEM_DS3505
ZBYN,1983-02-24 03:00,ZBYN 240300Z AUTO 36002KT 4SM 01/M15 RMK SLP330 T00121154 57013 IEM_DS3505
ZBYN,1983-02-24 06:00,ZBYN 240600Z AUTO 20006KT 6SM 06/M13 RMK SLP290 T00611130 4////1085 57032 IEM_DS3505
ZBYN,1983-02-24 09:00,ZBYN 240900Z AUTO 00000KT 9SM 06/M10 RMK SLP273 T00561100 57014 IEM_DS3505
ZBYN,1983-02-24 12:00,ZBYN 241200Z AUTO 32006KT 9SM 01/M10 RMK SLP308 T00101100 52019 IEM_DS3505
ZBYN,1983-02-24 15:00,ZBYN 241500Z AUTO 32008KT 7SM M00/M12 RMK SLP307 T10011124 52010 IEM_DS3505
ZBYN,1983-02-24 18:00,ZBYN 241800Z AUTO 32006KT 7SM M02/M15 RMK SLP301 T10221147 40065//// 57001 IEM_DS3505
ZBYN,1983-02-24 21:00,ZBYN 242100Z AUTO 32006KT 11SM M03/M18 RMK SLP297 T10341183 57007 IEM_DS3505
ZBYN,1983-02-25 03:00,ZBYN 250300Z AUTO 6SM 01/M15 RMK SLP316 T00061154 52002 IEM_DS3505
ZBYN,1983-02-25 06:00,ZBYN 250600Z AUTO 16002KT 5SM 05/M06 RMK SLP281 T00491065 4////1041 57028 IEM_DS3505
ZBYN,1983-02-25 09:00,ZBYN 250900Z AUTO 25002KT 6SM 07/M06 RMK SLP264 T00731065 57014 IEM_DS3505
ZBYN,1983-02-25 12:00,ZBYN 251200Z AUTO 07004KT 6SM 02/M09 RMK SLP292 T00241087 52019 IEM_DS3505
ZBYN,1983-02-25 15:00,ZBYN 251500Z AUTO 00000KT 7SM 00/M11 RMK SLP305 T00001114 52013 IEM_DS3505
ZBYN,1983-02-25 18:00,ZBYN 251800Z AUTO 32004KT 6SM M01/M11 RMK SLP304 T10131114 40081//// 52004 IEM_DS3505
ZBYN,1983-02-25 21:00,ZBYN 252100Z AUTO 34002KT 6SM M04/M13 RMK SLP306 T10351130 52002 IEM_DS3505
ZBYN,1983-02-26 00:00,ZBYN 260000Z AUTO 00000KT 5SM M04/M12 RMK SLP336 T10381119 52019 IEM_DS3505
ZBYN,1983-02-26 03:00,ZBYN 260300Z AUTO 27004KT 5SM 04/M08 A3042 RMK SLP328 T00361079 54000 IEM_DS3505
ZBYN,1983-02-26 04:00,ZBYN 260400Z AUTO 16006KT 6SM 06/M08 A3042 RMK T00601080 IEM_DS3505
ZBYN,1983-02-26 05:00,ZBYN 260500Z AUTO 17006KT 7SM 08/M06 A3039 RMK T00801060 IEM_DS3505
ZBYN,1983-02-26 06:00,ZBYN 260600Z AUTO 22006KT 9SM 08/M07 A3039 RMK SLP297 T00761068 4////1050 57023 IEM_DS3505
ZBYN,1983-02-26 07:00,ZBYN 260700Z AUTO 16010KT 7SM 09/M06 A3033 RMK T00901060 IEM_DS3505
ZBYN,1983-02-26 09:00,ZBYN 260900Z AUTO 20006KT 9SM 08/M07 A3033 RMK SLP290 T00831072 57008 IEM_DS3505
ZBYN,1983-02-26 12:00,ZBYN 261200Z AUTO 11002KT 9SM 01/M09 RMK SLP314 T00111087 52009 IEM_DS3505
ZBYN,1983-02-26 15:00,ZBYN 261500Z AUTO 34002KT 9SM 00/M11 RMK SLP317 T00051109 52014 IEM_DS3505
ZBYN,1983-02-26 18:00,ZBYN 261800Z AUTO 27002KT 9SM M04/M12 RMK SLP324 T10391124 40093//// 52006 IEM_DS3505
ZBYN,1983-02-26 21:00,ZBYN 262100Z AUTO 02004KT 6SM M03/M12 RMK SLP315 T10291124 57006 IEM_DS3505
ZBYN,1983-02-27 00:00,ZBYN 270000Z AUTO 34004KT 6SM M04/M12 RMK SLP344 T10351119 52013 IEM_DS3505
ZBYN,1983-02-27 03:00,ZBYN 270300Z AUTO 07002KT 9SM 04/M09 RMK SLP330 T00451087 54000 IEM_DS3505
ZBYN,1983-02-27 06:00,ZBYN 270600Z AUTO 22006KT 7SM 08/M10 RMK SLP300 T00831105 4////1062 57028 IEM_DS3505
ZBYN,1983-02-27 09:00,ZBYN 270900Z AUTO 00000KT 11SM 08/M07 RMK SLP282 T00821068 57014 IEM_DS3505
ZBYN,1983-02-27 12:00,ZBYN 271200Z AUTO 00000KT 9SM 02/M07 RMK SLP306 T00201068 52009 IEM_DS3505
ZBYN,1983-02-27 15:00,ZBYN 271500Z AUTO 18002KT 11SM M00/M10 RMK SLP311 T10051105 52014 IEM_DS3505
ZBYN,1983-02-27 21:00,ZBYN 272100Z AUTO 00000KT 9SM M02/M14 RMK SLP293 T10151135 57012 IEM_DS3505
ZBYN,1983-02-28 00:00,ZBYN 280000Z AUTO 00000KT 5SM 00/M11 RMK SLP303 T00041109 52001 IEM_DS3505
ZBYN,1983-02-28 03:00,ZBYN 280300Z AUTO 00000KT 4SM 04/M08 RMK SLP308 T00401083 52006 IEM_DS3505
ZBYN,1983-02-28 06:00,ZBYN 280600Z AUTO 16004KT 9SM 06/M09 RMK SLP278 T00581092 4////1031 57025 IEM_DS3505
ZBYN,1983-02-28 09:00,ZBYN 280900Z AUTO 20008KT 9SM 04/M09 RMK SLP285 T00401087 52003 IEM_DS3505
ZBYN,1983-02-28 12:00,ZBYN 281200Z AUTO 18004KT 6SM 02/M07 RMK SLP292 T00151068 52006 IEM_DS3505
ZBYN,1983-02-28 15:00,ZBYN 281500Z AUTO 00000KT 7SM M01/M04 RMK SLP282 T10081039 57007 IEM_DS3505
ZBYN,1983-02-28 18:00,ZBYN 281800Z AUTO 00000KT 5SM M02/M03 RMK 60001 SLP279 T10181034 40067//// 57002 IEM_DS3505
ZBYN,1983-02-28 21:00,ZBYN 282100Z AUTO 00000KT 1/8SM M02/M02 RMK SLP256 T10181018 57024 IEM_DS3505
ZBYN,1983-03-01 00:00,ZBYN 010000Z AUTO 00000KT 2SM M02/M03 RMK SLP269 T10181028 52007 IEM_DS3505
ZBYN,1983-03-01 03:00,ZBYN 010300Z AUTO 32002KT 4SM 02/M02 A3021 RMK SLP246 T00161020 57018 IEM_DS3505
ZBYN,1983-03-01 04:00,ZBYN 010400Z AUTO 23004KT 1 1/2SM 04/M03 A3015 RMK T00401030 IEM_DS3505
ZBYN,1983-03-01 05:00,ZBYN 010500Z AUTO 16012KT 1 1/2SM 04/M02 A3012 RMK T00401020 IEM_DS3505
ZBYN,1983-03-01 06:00,ZBYN 010600Z AUTO 20006KT 5SM 05/M02 A3012 RMK SLP216 T00471020 4////1027 57024 IEM_DS3505
ZBYN,1983-03-01 07:00,ZBYN 010700Z AUTO 16002KT 2 1/2SM 04/M02 A3012 RMK T00401020 IEM_DS3505
ZBYN,1983-03-01 08:00,ZBYN 010800Z AUTO 00000KT 5SM 06/M03 A3006 RMK T00601030 IEM_DS3505
ZBYN,1983-03-01 09:00,ZBYN 010900Z AUTO 20004KT 6SM 05/M02 RMK SLP203 T00491018 57011 IEM_DS3505
ZBYN,1983-03-01 12:00,ZBYN 011200Z AUTO 00000KT 6SM 01/M04 RMK SLP221 T00061045 52009 IEM_DS3505
ZBYN,1983-03-01 15:00,ZBYN 011500Z AUTO 14002KT 7SM 00/M04 RMK SLP225 T00021039 52009 IEM_DS3505
ZBYN,1983-03-01 18:00,ZBYN 011800Z AUTO 00000KT 9SM M02/M06 RMK SLP226 T10201058 40057//// 52002 IEM_DS3505
ZBYN,1983-03-01 21:00,ZBYN 012100Z AUTO 00000KT 6SM M04/M05 RMK SLP223 T10371048 57005 IEM_DS3505
ZBYN,1983-03-02 00:00,ZBYN 020000Z AUTO 18002KT 4SM M03/M06 RMK 60001 SLP244 T10321058 52012 IEM_DS3505
ZBYN,1983-03-02 03:00,ZBYN 020300Z AUTO 14004KT 4SM 05/M02 RMK SLP233 T00461023 52003 IEM_DS3505
ZBYN,1983-03-02 06:00,ZBYN 020600Z AUTO 18006KT 6SM 08/M04 RMK SLP218 T00781037 4////1050 57012 IEM_DS3505
ZBYN,1983-03-02 09:00,ZBYN 020900Z AUTO 22008KT 6SM 08/M04 RMK SLP227 T00801037 52005 IEM_DS3505
ZBYN,1983-03-02 12:00,ZBYN 021200Z AUTO 18004KT 7SM 04/M03 RMK SLP256 T00391028 52021 IEM_DS3505
ZBYN,1983-03-02 15:00,ZBYN 021500Z AUTO 30004KT 6SM 00/M03 RMK SLP276 T00031031 52025 IEM_DS3505
ZBYN,1983-03-02 18:00,ZBYN 021800Z AUTO 36004KT 6SM 01/M04 RMK SLP272 T00081039 40094//// 52003 IEM_DS3505
ZBYN,1983-03-02 21:00,ZBYN 022100Z AUTO 34004KT 6SM M00/M06 RMK SLP281 T10021058 52006 IEM_DS3505
ZBYN,1983-03-03 00:00,ZBYN 030000Z AUTO 32008KT 9SM M02/M06 RMK SLP310 T10201061 52016 IEM_DS3505
ZBYN,1983-03-03 03:00,ZBYN 030300Z AUTO 34008KT 9SM 03/M10 RMK SLP317 T00341105 52010 IEM_DS3505
ZBYN,1983-03-03 06:00,ZBYN 030600Z AUTO 36012KT 12SM 06/M14 RMK SLP304 T00551135 4////1036 57008 IEM_DS3505
ZBYN,1983-03-03 09:00,ZBYN 030900Z AUTO 02019KT 5SM 00/M12 RMK SLP338 T00021119 52021 IEM_DS3505
ZBYN,1983-03-03 12:00,ZBYN 031200Z AUTO 36012KT 14SM M01/M18 RMK SLP376 T10101175 52029 IEM_DS3505
ZBYN,1983-03-03 15:00,ZBYN 031500Z AUTO 36006KT 16SM M03/M18 RMK SLP390 T10271175 52019 IEM_DS3505
ZBYN,1983-03-03 18:00,ZBYN 031800Z AUTO 36010KT 17SM M05/M18 RMK SLP395 T10461175 40058//// 52005 IEM_DS3505
ZBYN,1983-03-03 21:00,ZBYN 032100Z AUTO 34010KT 9SM M06/M18 RMK SLP398 T10561175 57002 IEM_DS3505
ZBYN,1983-03-04 00:00,ZBYN 040000Z AUTO 34012KT 17SM M06/M18 RMK SLP421 T10571175 52013 IEM_DS3505
ZBYN,1983-03-04 03:00,ZBYN 040300Z AUTO 36012KT 12SM M00/M15 RMK SLP415 T10021147 52001 IEM_DS3505
ZBYN,1983-03-04 06:00,ZBYN 040600Z AUTO 36010KT 19SM M04/M15 RMK SLP389 T10451147 4////1272 57019 IEM_DS3505
ZBYN,1983-03-04 09:00,ZBYN 040900Z AUTO 36010KT 19SM 06/M17 RMK SLP374 T00591167 57013 IEM_DS3505
ZBYN,1983-03-04 12:00,ZBYN 041200Z AUTO 02004KT 9SM 03/M18 RMK SLP382 T00261175 52002 IEM_DS3505
ZBYN,1983-03-04 15:00,ZBYN 041500Z AUTO 32004KT 9SM M02/M14 RMK SLP382 T10171135 52001 IEM_DS3505
ZBYN,1983-03-04 18:00,ZBYN 041800Z AUTO 34004KT 9SM M02/M15 RMK SLP367 T10231147 40067//// 57006 IEM_DS3505
ZBYN,1983-03-04 21:00,ZBYN 042100Z AUTO 00000KT 7SM M08/M17 RMK SLP361 T10771167 57012 IEM_DS3505
ZBYN,1983-03-05 00:00,ZBYN 050000Z AUTO 00000KT 6SM M08/M16 RMK SLP367 T10801160 57001 IEM_DS3505
ZBYN,1983-03-05 03:00,ZBYN 050300Z AUTO 00000KT 6SM M07/M16 RMK SLP367 T10701160 57002 IEM_DS3505
ZBYN,1983-03-05 04:00,ZBYN 050400Z AUTO 16006KT 7SM A3042 RMK IEM_DS3505
ZBYN,1983-03-05 05:00,ZBYN 050500Z AUTO 16004KT 7SM 07/M13 A3039 RMK T00701130 IEM_DS3505
ZBYN,1983-03-05 06:00,ZBYN 050600Z AUTO 16010KT 12SM 09/M15 A3033 RMK SLP280 T00871147 4////1106 57037 IEM_DS3505
ZBYN,1983-03-05 08:00,ZBYN 050800Z AUTO 21012KT 7SM 10/M16 A3024 RMK T01001160 IEM_DS3505
ZBYN,1983-03-05 09:00,ZBYN 050900Z AUTO 20006KT 16SM 10/M16 A3024 RMK SLP269 T00961160 57016 IEM_DS3505
ZBYN,1983-03-05 10:00,ZBYN 051000Z AUTO 20010KT 7SM 08/M16 A3024 RMK T00801160 IEM_DS3505
ZBYN,1983-03-05 12:00,ZBYN 051200Z AUTO 32006KT 16SM 06/M19 RMK SLP288 T00601186 52011 IEM_DS3505
ZBYN,1983-03-05 15:00,ZBYN 051500Z AUTO 34004KT 17SM 04/M19 RMK SLP284 T00361191 52009 IEM_DS3505
ZBYN,1983-03-05 18:00,ZBYN 051800Z AUTO 09004KT 17SM M06/M18 RMK SLP286 T10551175 40103//// 57003 IEM_DS3505
ZBYN,1983-03-05 21:00,ZBYN 052100Z AUTO 00000KT 12SM M07/M20 RMK SLP279 T10701200 57007 IEM_DS3505
ZBYN,1983-03-06 00:00,ZBYN 060000Z AUTO 00000KT 7SM M08/M16 RMK SLP293 T10771160 52006 IEM_DS3505
ZBYN,1983-03-06 03:00,ZBYN 060300Z AUTO 00000KT 6SM 05/M15 RMK SLP277 T00541147 52002 IEM_DS3505
ZBYN,1983-03-06 06:00,ZBYN 060600Z AUTO 16006KT 11SM 09/M18 RMK SLP263 T00911183 4////1099 57022 IEM_DS3505
ZBYN,1983-03-06 09:00,ZBYN 060900Z AUTO 20006KT 16SM 11/M15 RMK SLP252 T01061154 57010 IEM_DS3505
ZBYN,1983-03-06 12:00,ZBYN 061200Z AUTO 32006KT 16SM 05/M16 RMK SLP279 T00501160 52015 IEM_DS3505
ZBYN,1983-03-06 15:00,ZBYN 061500Z AUTO 32004KT 12SM M01/M18 RMK SLP295 T10061183 52027 IEM_DS3505
ZBYN,1983-03-06 18:00,ZBYN 061800Z AUTO 34006KT 12SM M01/M17 RMK SLP270 T10081167 40118//// 57012 IEM_DS3505
ZBYN,1983-03-06 21:00,ZBYN 062100Z AUTO 34010KT 9SM M02/M21 RMK SLP278 T10201210 52003 IEM_DS3505
ZBYN,1983-03-07 00:00,ZBYN 070000Z AUTO 32008KT 16SM M02/M21 RMK SLP300 T10201210 52010 IEM_DS3505
ZBYN,1983-03-07 03:00,ZBYN 070300Z AUTO 09012KT 9SM 06/M17 RMK SLP295 T00621167 54000 IEM_DS3505
ZBYN,1983-03-07 06:00,ZBYN 070600Z AUTO 07016KT 16SM 08/M14 RMK SLP270 T00831135 4////1033 57020 IEM_DS3505
ZBYN,1983-03-07 09:00,ZBYN 070900Z AUTO 07012KT 16SM 05/M15 RMK SLP270 T00531154 57006 IEM_DS3505
ZBYN,1983-03-07 12:00,ZBYN 071200Z AUTO 04008KT 12SM 03/M14 RMK SLP291 T00311135 52016 IEM_DS3505
ZBYN,1983-03-07 15:00,ZBYN 071500Z AUTO 00000KT 12SM 01/M11 RMK SLP291 T00121109 52009 IEM_DS3505
ZBYN,1983-03-07 18:00,ZBYN 071800Z AUTO 34006KT 12SM M01/M09 RMK SLP283 T10061092 40084//// IEM_DS3505
ZBYN,1983-03-07 21:00,ZBYN 072100Z AUTO 34002KT 9SM M01/M08 RMK SLP275 T10101083 57013 IEM_DS3505
ZBYN,1983-03-08 00:00,ZBYN 080000Z AUTO 32004KT 5SM M01/M08 RMK SLP280 T10111079 52001 IEM_DS3505
ZBYN,1983-03-08 03:00,ZBYN 080300Z AUTO 00000KT 4SM 03/M09 RMK SLP270 T00331087 57005 IEM_DS3505
ZBYN,1983-03-08 06:00,ZBYN 080600Z AUTO 25004KT 16SM 07/M10 RMK SLP232 T00701096 4////1023 57032 IEM_DS3505
ZBYN,1983-03-08 07:00,ZBYN 080700Z AUTO 00000KT 6SM 07/M08 A3012 RMK T00701080 IEM_DS3505
ZBYN,1983-03-08 08:00,ZBYN 080800Z AUTO 28008KT 6SM 07/M08 A3012 RMK T00701080 IEM_DS3505
ZBYN,1983-03-08 09:00,ZBYN 080900Z AUTO 20006KT 9SM 06/M10 A3012 RMK SLP227 T00641100 57006 IEM_DS3505
ZBYN,1983-03-08 10:00,ZBYN 081000Z AUTO 24010KT 6SM 06/M07 A3015 RMK T00601070 IEM_DS3505
ZBYN,1983-03-08 12:00,ZBYN 081200Z AUTO 18004KT 9SM 03/M06 RMK SLP250 T00261058 52015 IEM_DS3505
ZBYN,1983-03-08 15:00,ZBYN 081500Z AUTO 18006KT 9SM 02/M06 RMK SLP250 T00191058 52006 IEM_DS3505
ZBYN,1983-03-08 18:00,ZBYN 081800Z AUTO 20008KT 9SM 01/M03 RMK SLP238 T00121028 40076//// 57006 IEM_DS3505
ZBYN,1983-03-08 21:00,ZBYN 082100Z AUTO 11006KT 6SM M01/M04 RMK SLP231 T10131039 57001 IEM_DS3505
ZBYN,1983-03-09 00:00,ZBYN 090000Z AUTO 00000KT 6SM M01/M03 RMK SLP257 T10141031 52017 IEM_DS3505
ZBYN,1983-03-09 03:00,ZBYN 090300Z AUTO 14006KT 4SM 04/M03 RMK SLP252 T00401028 52003 IEM_DS3505
ZBYN,1983-03-09 06:00,ZBYN 090600Z AUTO 18004KT 6SM 08/M04 RMK SLP224 T00841039 4////1033 57020 IEM_DS3505
ZBYN,1983-03-09 09:00,ZBYN 090900Z AUTO 36006KT 6SM 10/M06 RMK SLP214 T01011055 57010 IEM_DS3505
ZBYN,1983-03-09 12:00,ZBYN 091200Z AUTO 34004KT 16SM 06/M08 RMK SLP248 T00651076 52025 IEM_DS3505
ZBYN,1983-03-09 15:00,ZBYN 091500Z AUTO 32006KT 16SM 03/M06 RMK SLP258 T00311065 52012 IEM_DS3505
ZBYN,1983-03-09 18:00,ZBYN 091800Z AUTO 07002KT 12SM M02/M09 RMK SLP262 T10221087 40107//// 52002 IEM_DS3505
ZBYN,1983-03-09 21:00,ZBYN 092100Z AUTO 00000KT 12SM M06/M10 RMK SLP261 T10551100 57003 IEM_DS3505
ZBYN,1983-03-10 00:00,ZBYN 100000Z AUTO 18002KT 7SM M04/M09 RMK SLP270 T10411087 52004 IEM_DS3505
ZBYN,1983-03-10 06:00,ZBYN 100600Z AUTO 16006KT 9SM 12/M11 RMK SLP213 T01151109 4////1067 57022 IEM_DS3505
ZBYN,1983-03-10 09:00,ZBYN 100900Z AUTO 20008KT 12SM 12/M14 RMK SLP188 T01241135 57027 IEM_DS3505
ZBYN,1983-03-10 12:00,ZBYN 101200Z AUTO 00000KT 11SM 04/M19 RMK SLP194 T00401189 57006 IEM_DS3505
ZBYN,1983-03-10 15:00,ZBYN 101500Z AUTO 00000KT 9SM M02/M12 RMK SLP191 T10181124 52006 IEM_DS3505
ZBYN,1983-03-10 18:00,ZBYN 101800Z AUTO 32004KT 9SM M03/M11 RMK SLP177 T10321109 40127//// 57008 IEM_DS3505
ZBYN,1983-03-10 21:00,ZBYN 102100Z AUTO 00000KT 6SM M01/M10 RMK SLP146 T10111105 57023 IEM_DS3505
ZBYN,1983-03-11 00:00,ZBYN 110000Z AUTO 32004KT 6SM M02/M14 RMK SLP163 T10251135 54000 IEM_DS3505
ZBYN,1983-03-11 03:00,ZBYN 110300Z AUTO 14006KT 6SM 08/M10 RMK SLP141 T00781105 57013 IEM_DS3505
ZBYN,1983-03-11 06:00,ZBYN 110600Z AUTO 16010KT 9SM 11/M10 RMK SLP102 T01121096 4////1054 57033 IEM_DS3505
ZBYN,1983-03-11 09:00,ZBYN 110900Z AUTO 29006KT 6SM 14/M09 RMK SLP092 T01361087 57001 IEM_DS3505
ZBYN,1983-03-11 12:00,ZBYN 111200Z AUTO 29006KT 7SM 10/M11 RMK SLP131 T00981109 52027 IEM_DS3505
ZBYN,1983-03-11 15:00,ZBYN 111500Z AUTO 00000KT 12SM 04/M08 RMK SLP142 T00401083 52017 IEM_DS3505
ZBYN,1983-03-11 18:00,ZBYN 111800Z AUTO 02004KT 16SM 03/M09 RMK SLP149 T00311092 40138//// 52010 IEM_DS3505
ZBYN,1983-03-11 21:00,ZBYN 112100Z AUTO 00000KT 9SM M02/M11 RMK SLP160 T10231114 52005 IEM_DS3505
ZBYN,1983-03-12 00:00,ZBYN 120000Z AUTO 00000KT 6SM M03/M08 RMK SLP183 T10291083 52014 IEM_DS3505
ZBYN,1983-03-12 03:00,ZBYN 120300Z AUTO 29012KT 16SM 11/M17 A3003 RMK SLP178 T01111167 52009 IEM_DS3505
ZBYN,1983-03-12 04:00,ZBYN 120400Z AUTO 29019KT 7SM 12/M18 A3003 RMK T01201180 IEM_DS3505
ZBYN,1983-03-12 05:00,ZBYN 120500Z AUTO 29027KT 7SM 12/M20 A3003 RMK T01201200 IEM_DS3505
ZBYN,1983-03-12 06:00,ZBYN 120600Z AUTO 34016KT 12SM 12/M21 A2997 RMK SLP168 T01191210 4////1039 57010 IEM_DS3505
ZBYN,1983-03-12 08:00,ZBYN 120800Z AUTO 29027KT 7SM 11/M20 A3003 RMK T01101200 IEM_DS3505
ZBYN,1983-03-12 09:00,ZBYN 120900Z AUTO 32012KT 16SM 11/M22 A3003 RMK SLP194 T01061220 52014 IEM_DS3505
ZBYN,1983-03-12 10:00,ZBYN 121000Z AUTO 33014KT 7SM 10/M22 A3006 RMK T01001220 IEM_DS3505
ZBYN,1983-03-12 12:00,ZBYN 121200Z AUTO 36008KT 9SM 05/M16 RMK SLP247 T00521160 52038 IEM_DS3505
ZBYN,1983-03-12 15:00,ZBYN 121500Z AUTO 34006KT 11SM 02/M15 RMK SLP258 T00221154 52028 IEM_DS3505
ZBYN,1983-03-12 18:00,ZBYN 121800Z AUTO 36008KT 9SM 00/M14 RMK SLP270 T00001135 40137//// 52008 IEM_DS3505
ZBYN,1983-03-12 21:00,ZBYN 122100Z AUTO 02008KT 12SM M02/M21 RMK SLP283 T10201210 52008 IEM_DS3505
ZBYN,1983-03-13 00:00,ZBYN 130000Z AUTO 32002KT 6SM M03/M20 RMK SLP327 T10311200 52029 IEM_DS3505
ZBYN,1983-03-13 03:00,ZBYN 130300Z AUTO 34006KT 9SM 03/M16 RMK SLP323 T00261160 52001 IEM_DS3505
ZBYN,1983-03-13 06:00,ZBYN 130600Z AUTO 20008KT 9SM 07/M18 RMK SLP288 T00731175 4////1041 57029 IEM_DS3505
ZBYN,1983-03-13 09:00,ZBYN 130900Z AUTO 16006KT 16SM 08/M17 RMK SLP262 T00821167 57025 IEM_DS3505
ZBYN,1983-03-13 12:00,ZBYN 131200Z AUTO 00000KT 16SM 02/M17 RMK SLP273 T00221167 57002 IEM_DS3505
ZBYN,1983-03-13 15:00,ZBYN 131500Z AUTO 00000KT 9SM 01/M14 RMK SLP266 T00101141 52001 IEM_DS3505
ZBYN,1983-03-13 18:00,ZBYN 131800Z AUTO 00000KT 9SM M03/ RMK SLP258 40086//// 57006 IEM_DS3505
ZBYN,1983-03-13 21:00,ZBYN 132100Z AUTO 00000KT 6SM M03/M12 RMK SLP238 T10291124 57016 IEM_DS3505
ZBYN,1983-03-14 00:00,ZBYN 140000Z AUTO 00000KT 6SM M02/M10 RMK SLP248 T10201096 52001 IEM_DS3505
ZBYN,1983-03-14 03:00,ZBYN 140300Z AUTO 18008KT 6SM 07/M14 RMK SLP233 T00731135 57001 IEM_DS3505
ZBYN,1983-03-14 06:00,ZBYN 140600Z AUTO 18006KT 16SM 12/M11 RMK SLP192 T01211109 4////1043 57036 IEM_DS3505
ZBYN,1983-03-14 09:00,ZBYN 140900Z AUTO 18010KT 17SM 13/M08 RMK SLP198 T01281079 57020 IEM_DS3505
ZBYN,1983-03-14 12:00,ZBYN 141200Z AUTO 18002KT 17SM 07/M08 RMK SLP188 T00691079 52010 IEM_DS3505
ZBYN,1983-03-14 15:00,ZBYN 141500Z AUTO 16002KT 9SM 00/M10 RMK SLP197 T00041100 52013 IEM_DS3505
ZBYN,1983-03-14 18:00,ZBYN 141800Z AUTO 00000KT 12SM M02/M12 RMK SLP191 T10151124 40133//// 57001 IEM_DS3505
ZBYN,1983-03-14 21:00,ZBYN 142100Z AUTO 00000KT 9SM M04/M11 RMK SLP186 T10421114 57008 IEM_DS3505
ZBYN,1983-03-15 00:00,ZBYN 150000Z AUTO 16004KT 6SM M02/M08 RMK SLP189 T10201076 57003 IEM_DS3505
ZBYN,1983-03-15 03:00,ZBYN 150300Z AUTO 17012KT 6SM 08/M04 A2997 RMK SLP161 T00801040 57018 IEM_DS3505
ZBYN,1983-03-15 05:00,ZBYN 150500Z AUTO 19014KT 6SM 13/M04 A2988 RMK T01301040 IEM_DS3505
ZBYN,1983-03-15 06:00,ZBYN 150600Z AUTO 18019KT 7SM 14/M02 A2985 RMK SLP111 T01371018 4////1055 57041 IEM_DS3505
ZBYN,1983-03-15 07:00,ZBYN 150700Z AUTO 20012G23KT 7SM 14/M05 A2980 RMK T01401050 IEM_DS3505
ZBYN,1983-03-15 09:00,ZBYN 150900Z AUTO 27019KT 2 1/2SM 12/M17 A2985 RMK SLP124 T01231167 52005 IEM_DS3505
ZBYN,1983-03-15 10:00,ZBYN 151000Z AUTO 28019KT 1SM 11/M16 A2985 RMK T01101160 IEM_DS3505
ZBYN,1983-03-15 12:00,ZBYN 151200Z AUTO 29023KT 3SM 07/M11 RMK SLP189 T00671109 52054 IEM_DS3505
ZBYN,1983-03-15 15:00,ZBYN 151500Z AUTO 34012KT 6SM 03/M08 RMK SLP198 T00331076 52020 IEM_DS3505
ZBYN,1983-03-15 18:00,ZBYN 151800Z AUTO 29008KT 9SM 02/M08 RMK SLP216 T00181076 40147//// 52021 IEM_DS3505
ZBYN,1983-03-15 21:00,ZBYN 152100Z AUTO 36010KT 12SM 00/M10 RMK SLP237 T00001096 52014 IEM_DS3505
ZBYN,1983-03-16 00:00,ZBYN 160000Z AUTO 36008KT 16SM M02/M10 RMK SLP272 T10211100 52020 IEM_DS3505
ZBYN,1983-03-16 03:00,ZBYN 160300Z AUTO 34014KT 16SM 01/M22 RMK SLP291 T00091220 52017 IEM_DS3505
ZBYN,1983-03-16 06:00,ZBYN 160600Z AUTO 32016KT 16SM 02/M24 RMK SLP284 T00231244 4////1034 57007 IEM_DS3505
ZBYN,1983-03-16 09:00,ZBYN 160900Z AUTO 32014KT 19SM 02/M23 RMK SLP292 T00241231 52004 IEM_DS3505
ZBYN,1983-03-16 12:00,ZBYN 161200Z AUTO 32008KT 19SM M00/M21 RMK SLP314 T10031210 52012 IEM_DS3505
ZBYN,1983-03-16 15:00,ZBYN 161500Z AUTO 32006KT 19SM M02/M19 RMK SLP316 T10221191 52004 IEM_DS3505
ZBYN,1983-03-16 18:00,ZBYN 161800Z AUTO 11004KT 16SM M07/M17 RMK SLP324 T10711167 40033//// 52001 IEM_DS3505
ZBYN,1983-03-16 21:00,ZBYN 162100Z AUTO 00000KT 12SM M09/M18 RMK SLP311 T10941183 57014 IEM_DS3505
ZBYN,1983-03-17 00:00,ZBYN 170000Z AUTO 00000KT 6SM M08/M15 RMK SLP324 T10801147 52009 IEM_DS3505
ZBYN,1983-03-17 03:00,ZBYN 170300Z AUTO 18006KT 6SM 02/M15 RMK SLP302 T00151154 57008 IEM_DS3505
ZBYN,1983-03-17 06:00,ZBYN 170600Z AUTO 18006KT 16SM 07/M18 RMK SLP270 T00711183 4////1116 57028 IEM_DS3505
ZBYN,1983-03-17 09:00,ZBYN 170900Z AUTO 18004KT 16SM 09/M19 RMK SLP242 T00881191 57026 IEM_DS3505
ZBYN,1983-03-17 12:00,ZBYN 171200Z AUTO 11002KT 16SM 02/M20 RMK SLP254 T00181200 52002 IEM_DS3505
ZBYN,1983-03-17 15:00,ZBYN 171500Z AUTO 00000KT 12SM M02/M14 RMK SLP245 T10181141 52001 IEM_DS3505
ZBYN,1983-03-17 18:00,ZBYN 171800Z AUTO 00000KT 12SM M06/M14 RMK SLP238 T10581141 40092//// 57003 IEM_DS3505
ZBYN,1983-03-17 21:00,ZBYN 172100Z AUTO 36008KT 9SM M03/M13 RMK SLP209 T10331130 57020 IEM_DS3505
ZBYN,1983-03-18 00:00,ZBYN 180000Z AUTO 34006KT 6SM M03/M16 RMK SLP223 T10341160 52001 IEM_DS3505
ZBYN,1983-03-18 03:00,ZBYN 180300Z AUTO 16004KT 4SM 07/M17 RMK SLP199 T00701167 57010 IEM_DS3505
ZBYN,1983-03-18 06:00,ZBYN 180600Z AUTO 20010KT 9SM 12/M18 RMK SLP162 T01191175 4////1076 57033 IEM_DS3505
ZBYN,1983-03-18 09:00,ZBYN 180900Z AUTO 18006KT 9SM 13/M15 RMK SLP124 T01291147 57029 IEM_DS3505
ZBYN,1983-03-18 12:00,ZBYN 181200Z AUTO 16008KT 16SM 10/M11 RMK T00981114 57009 IEM_DS3505
ZBYN,1983-03-18 15:00,ZBYN 181500Z AUTO 14004KT 9SM 03/M12 RMK SLP137 T00311124 52004 IEM_DS3505
ZBYN,1983-03-18 18:00,ZBYN 181800Z AUTO 09002KT 9SM 02/M11 RMK SLP130 T00221114 40136//// 54000 IEM_DS3505
ZBYN,1983-03-18 21:00,ZBYN 182100Z AUTO 16004KT 7SM 02/M09 RMK SLP126 T00211092 57003 IEM_DS3505
ZBYN,1983-03-19 00:00,ZBYN 190000Z AUTO 00000KT 4SM 02/M08 RMK SLP145 T00201083 52011 IEM_DS3505
ZBYN,1983-03-19 03:00,ZBYN 190300Z AUTO 00000KT 4SM 09/M06 A2994 RMK SLP140 T00931065 57002 IEM_DS3505
ZBYN,1983-03-19 04:00,ZBYN 190400Z AUTO 24006KT 6SM 12/M07 A2988 RMK T01201070 IEM_DS3505
ZBYN,1983-03-19 05:00,ZBYN 190500Z AUTO 20012KT 6SM 13/M08 A2988 RMK T01301080 IEM_DS3505
ZBYN,1983-03-19 06:00,ZBYN 190600Z AUTO 16008KT 6SM 14/M04 A2985 RMK SLP117 T01381039 4////1003 57015 IEM_DS3505
ZBYN,1983-03-19 07:00,ZBYN 190700Z AUTO 18008KT 6SM 15/M03 A2985 RMK T01501030 IEM_DS3505
ZBYN,1983-03-19 08:00,ZBYN 190800Z AUTO 18012KT 6SM 15/M03 A2985 RMK T01501030 IEM_DS3505
ZBYN,1983-03-19 09:00,ZBYN 190900Z AUTO 16006KT 9SM 14/M03 A2985 RMK SLP110 T01451028 57005 IEM_DS3505
ZBYN,1983-03-19 12:00,ZBYN 191200Z AUTO 32004KT 11SM 08/M01 RMK SLP137 T00801013 52014 IEM_DS3505
ZBYN,1983-03-19 15:00,ZBYN 191500Z AUTO 34006KT 9SM 08/M05 RMK SLP136 T00751048 52010 IEM_DS3505
ZBYN,1983-03-19 18:00,ZBYN 191800Z AUTO 02002KT 6SM 00/M06 RMK SLP151 T00031061 40153//// 52009 IEM_DS3505
ZBYN,1983-03-19 21:00,ZBYN 192100Z AUTO 00000KT 9SM M01/M06 RMK SLP162 T10121065 52009 IEM_DS3505
ZBYN,1983-03-20 00:00,ZBYN 200000Z AUTO 00000KT 4SM 00/M04 RMK SLP180 T00011037 52008 IEM_DS3505
ZBYN,1983-03-20 03:00,ZBYN 200300Z AUTO 32008KT 5SM 12/M10 RMK SLP157 T01171105 57004 IEM_DS3505
ZBYN,1983-03-20 06:00,ZBYN 200600Z AUTO 29006KT 9SM 18/M14 RMK SLP138 T01811135 4////1027 57019 IEM_DS3505
ZBYN,1983-03-20 09:00,ZBYN 200900Z AUTO 00000KT 7SM 18/M09 RMK SLP121 T01851087 57016 IEM_DS3505
ZBYN,1983-03-20 12:00,ZBYN 201200Z AUTO 9SM 14/M07 RMK SLP146 T01351068 52016 IEM_DS3505
ZBYN,1983-03-20 15:00,ZBYN 201500Z AUTO 32004KT 9SM 10/M05 RMK SLP156 T01001048 52022 IEM_DS3505
ZBYN,1983-03-20 18:00,ZBYN 201800Z AUTO 32002KT 9SM 07/M04 RMK SLP163 T00691039 40188//// 52011 IEM_DS3505
ZBYN,1983-03-20 21:00,ZBYN 202100Z AUTO 29006KT 9SM 05/M06 RMK SLP159 T00471061 57006 IEM_DS3505
ZBYN,1983-03-21 00:00,ZBYN 210000Z AUTO 32004KT 6SM 06/M04 RMK SLP168 T00641039 52020 IEM_DS3505
ZBYN,1983-03-21 03:00,ZBYN 210300Z AUTO 29004KT 6SM 11/M06 RMK SLP177 T01121061 57007 IEM_DS3505
ZBYN,1983-03-21 06:00,ZBYN 210600Z AUTO 00000KT 6SM 11/M02 RMK SLP157 T01101023 4////0031 57022 IEM_DS3505
ZBYN,1983-03-21 09:00,ZBYN 210900Z AUTO 34004KT 6SM 10/M04 RMK SLP158 T01031042 57005 IEM_DS3505
ZBYN,1983-03-21 12:00,ZBYN 211200Z AUTO 00000KT 7SM 08/ RMK SLP159 52001 IEM_DS3505
ZBYN,1983-03-21 15:00,ZBYN 211500Z AUTO 34004KT 11SM 08/M04 RMK SLP159 T00851045 52008 IEM_DS3505
ZBYN,1983-03-21 18:00,ZBYN 211800Z AUTO 34008KT 11SM 05/M01 RMK SLP165 T00511013 40119//// 54000 IEM_DS3505
ZBYN,1983-03-21 21:00,ZBYN 212100Z AUTO 34010KT 9SM 04/00 RMK SLP160 T00430001 57007 IEM_DS3505
ZBYN,1983-03-22 00:00,ZBYN 220000Z AUTO 36008KT 4SM 04/01 RMK SLP193 T00370008 52025 IEM_DS3505
ZBYN,1983-03-22 03:00,ZBYN 220300Z AUTO 36006KT 5SM 03/01 A3006 RMK SLP199 T00280006 52005 IEM_DS3505
ZBYN,1983-03-22 04:00,ZBYN 220400Z AUTO 36010KT 6SM 03/02 A3006 RMK T00300020 IEM_DS3505
ZBYN,1983-03-22 05:00,ZBYN 220500Z AUTO 36010KT 6SM 03/01 A3006 RMK T00300010 IEM_DS3505
ZBYN,1983-03-22 06:00,ZBYN 220600Z AUTO 02006KT 6SM 03/01 A3006 RMK 60016 SLP202 T00280012 4////0018 57003 IEM_DS3505
ZBYN,1983-03-22 07:00,ZBYN 220700Z AUTO 36008KT 6SM 03/02 A3006 RMK T00300020 IEM_DS3505
ZBYN,1983-03-22 08:00,ZBYN 220800Z AUTO 36008KT 7SM 02/01 A3006 RMK T00200010 IEM_DS3505
ZBYN,1983-03-22 09:00,ZBYN 220900Z AUTO 36004KT 5SM 03/01 A3006 RMK SLP202 T00320014 57001 IEM_DS3505
ZBYN,1983-03-22 12:00,ZBYN 221200Z AUTO 02006KT 5SM 03/00 RMK 60004 SLP226 T00270001 52010 IEM_DS3505
ZBYN,1983-03-22 15:00,ZBYN 221500Z AUTO 02002KT 6SM 02/M00 RMK SLP242 T00221001 52013 IEM_DS3505
ZBYN,1983-03-22 18:00,ZBYN 221800Z AUTO 00000KT 4SM 01/M00 RMK 60008 SLP252 T00061001 40052//// 52006 IEM_DS3505
ZBYN,1983-03-22 21:00,ZBYN 222100Z AUTO 34006KT 6SM 01/M01 RMK SLP246 T00091013 57003 IEM_DS3505
ZBYN,1983-03-23 00:00,ZBYN 230000Z AUTO 36004KT 5SM M01/M02 RMK 60004 70031 SLP257 T10111023 52009 IEM_DS3505
ZBYN,1983-03-23 03:00,ZBYN 230300Z AUTO 34008KT 9SM 03/M00 RMK SLP260 T00341001 52005 IEM_DS3505
ZBYN,1983-03-23 06:00,ZBYN 230600Z AUTO 00000KT 9SM 06/M01 RMK SLP244 T00551013 4////1001 57013 IEM_DS3505
ZBYN,1983-03-23 09:00,ZBYN 230900Z AUTO 00000KT 12SM 06/M01 RMK SLP230 T00591010 57012 IEM_DS3505
ZBYN,1983-03-23 12:00,ZBYN 231200Z AUTO 00000KT 9SM 03/01 RMK SLP251 T00280006 52014 IEM_DS3505
ZBYN,1983-03-23 15:00,ZBYN 231500Z AUTO 00000KT 9SM 02/00 RMK SLP258 T00180001 52009 IEM_DS3505
ZBYN,1983-03-23 18:00,ZBYN 231800Z AUTO 00000KT 7SM 01/M00 RMK SLP255 T00071003 40060//// 57001 IEM_DS3505
ZBYN,1983-03-23 21:00,ZBYN 232100Z AUTO 00000KT 6SM 00/M00 RMK SLP253 T00041003 57002 IEM_DS3505
ZBYN,1983-03-24 00:00,ZBYN 240000Z AUTO 00000KT 4SM 01/M01 RMK SLP266 T00091006 52008 IEM_DS3505
ZBYN,1983-03-24 03:00,ZBYN 240300Z AUTO 29002KT 4SM 06/M01 RMK SLP261 T00581006 52001 IEM_DS3505
ZBYN,1983-03-24 06:00,ZBYN 240600Z AUTO 14006KT 6SM 09/M02 RMK SLP234 T00931020 4////1004 57020 IEM_DS3505
ZBYN,1983-03-24 09:00,ZBYN 240900Z AUTO 22006KT 9SM 09/M03 RMK SLP222 T00861034 57013 IEM_DS3505
ZBYN,1983-03-24 12:00,ZBYN 241200Z AUTO 18006KT 12SM 05/01 RMK SLP237 T00490010 52010 IEM_DS3505
ZBYN,1983-03-24 15:00,ZBYN 241500Z AUTO 14004KT 9SM 02/00 RMK SLP247 T00250001 52013 IEM_DS3505
ZBYN,1983-03-24 18:00,ZBYN 241800Z AUTO 11004KT 7SM 02/M01 RMK SLP233 T00161010 40100//// 57009 IEM_DS3505
ZBYN,1983-03-24 21:00,ZBYN 242100Z AUTO 00000KT 6SM 01/M01 RMK SLP236 T00061006 52001 IEM_DS3505
ZBYN,1983-03-25 00:00,ZBYN 250000Z AUTO 32002KT 5SM 01/M00 RMK SLP246 T00081003 52003 IEM_DS3505
ZBYN,1983-03-25 03:00,ZBYN 250300Z AUTO 00000KT 6SM 06/02 RMK SLP239 T00570018 57002 IEM_DS3505
ZBYN,1983-03-25 06:00,ZBYN 250600Z AUTO 16006KT 12SM 08/M01 RMK SLP212 T00811010 4////1011 57022 IEM_DS3505
ZBYN,1983-03-25 09:00,ZBYN 250900Z AUTO 14010KT 9SM 07/02 RMK SLP207 T00730016 57008 IEM_DS3505
ZBYN,1983-03-25 12:00,ZBYN 251200Z AUTO 11004KT 9SM 04/01 RMK SLP220 T00430012 52008 IEM_DS3505
ZBYN,1983-03-25 15:00,ZBYN 251500Z AUTO 11004KT 6SM 04/01 RMK SLP222 T00430014 52009 IEM_DS3505
ZBYN,1983-03-25 18:00,ZBYN 251800Z AUTO 00000KT 6SM RMK 60004 SLP218 40090//// 57002 IEM_DS3505
ZBYN,1983-03-25 21:00,ZBYN 252100Z AUTO 00000KT 6SM 02/01 RMK SLP219 T00190008 57002 IEM_DS3505
ZBYN,1983-03-26 00:00,ZBYN 260000Z AUTO 00000KT 6SM 03/02 RMK 60001 70004 SLP227 T00310021 52004 IEM_DS3505
ZBYN,1983-03-26 03:00,ZBYN 260300Z AUTO 00000KT 7SM 08/01 RMK SLP223 T00770012 52024 IEM_DS3505
ZBYN,1983-03-26 04:00,ZBYN 260400Z AUTO 14008KT 7SM 09/01 A3015 RMK T00900010 IEM_DS3505
ZBYN,1983-03-26 05:00,ZBYN 260500Z AUTO 20012KT 7SM 08/00 A3012 RMK T00800000 IEM_DS3505
ZBYN,1983-03-26 06:00,ZBYN 260600Z AUTO 17004KT 6SM 08/00 A3012 RMK SLP207 T00800000 4////0021 57017 IEM_DS3505
ZBYN,1983-03-26 07:00,ZBYN 260700Z AUTO 18008KT 7SM 09/00 A3006 RMK T00900000 IEM_DS3505
ZBYN,1983-03-26 08:00,ZBYN 260800Z AUTO 18008KT 7SM 09/00 A3003 RMK T00900000 IEM_DS3505
ZBYN,1983-03-26 09:00,ZBYN 260900Z AUTO 16006KT 7SM 09/M01 A3003 RMK SLP191 T00901010 57014 IEM_DS3505
ZBYN,1983-03-26 12:00,ZBYN 261200Z AUTO 09004KT 9SM 06/01 RMK SLP212 T00620014 52017 IEM_DS3505
ZBYN,1983-03-26 15:00,ZBYN 261500Z AUTO 32002KT 9SM 04/01 RMK SLP219 T00370008 52008 IEM_DS3505
ZBYN,1983-03-26 18:00,ZBYN 261800Z AUTO 00000KT 7SM 02/01 RMK SLP215 T00240008 40088//// 57005 IEM_DS3505
ZBYN,1983-03-26 21:00,ZBYN 262100Z AUTO 16004KT 6SM 02/01 RMK SLP209 T00240012 57004 IEM_DS3505
ZBYN,1983-03-27 00:00,ZBYN 270000Z AUTO 16004KT 4SM 04/02 RMK SLP222 T00350016 52010 IEM_DS3505
ZBYN,1983-03-27 06:00,ZBYN 270600Z AUTO 02010KT 5SM 07/03 RMK SLP223 T00720034 4////0013 57008 IEM_DS3505
ZBYN,1983-03-27 09:00,ZBYN 270900Z AUTO 22002KT 6SM 11/02 RMK SLP212 T01060024 57004 IEM_DS3505
ZBYN,1983-03-27 12:00,ZBYN 271200Z AUTO 29004KT 7SM 06/02 RMK SLP239 T00640016 52019 IEM_DS3505
ZBYN,1983-03-27 15:00,ZBYN 271500Z AUTO 32006KT 6SM 05/02 RMK SLP251 T00500016 52017 IEM_DS3505
ZBYN,1983-03-27 18:00,ZBYN 271800Z AUTO 34006KT 9SM 04/01 RMK SLP262 T00440012 52006 IEM_DS3505
ZBYN,1983-03-27 21:00,ZBYN 272100Z AUTO 32004KT 6SM 04/01 RMK SLP252 T00350008 57004 IEM_DS3505
ZBYN,1983-03-28 00:00,ZBYN 280000Z AUTO 32006KT 4SM 03/01 RMK SLP269 T00310010 52008 IEM_DS3505
ZBYN,1983-03-28 03:00,ZBYN 280300Z AUTO 34006KT 6SM 08/01 RMK SLP284 T00780014 52015 IEM_DS3505
ZBYN,1983-03-28 06:00,ZBYN 280600Z AUTO 00000KT 4SM 11/02 RMK SLP253 T01110022 4////0020 57021 IEM_DS3505
ZBYN,1983-03-28 09:00,ZBYN 280900Z AUTO 18004KT 6SM 11/02 RMK SLP247 T01100018 57006 IEM_DS3505
ZBYN,1983-03-28 12:00,ZBYN 281200Z AUTO 09004KT 4SM 07/04 RMK 60001 SLP278 T00690039 52021 IEM_DS3505
ZBYN,1983-03-28 15:00,ZBYN 281500Z AUTO 34004KT 7SM 07/03 RMK SLP280 T00710034 52009 IEM_DS3505
ZBYN,1983-03-28 18:00,ZBYN 281800Z AUTO 34006KT 7SM 06/02 RMK 60000 SLP271 T00570024 40116//// 57005 IEM_DS3505
ZBYN,1983-03-28 21:00,ZBYN 282100Z AUTO 34004KT 6SM 05/03 RMK SLP264 T00520030 57006 IEM_DS3505
ZBYN,1983-03-29 00:00,ZBYN 290000Z AUTO 00000KT 4SM 04/04 RMK SLP283 T00440037 52009 IEM_DS3505
ZBYN,1983-03-29 01:00,ZBYN 290100Z AUTO 00000KT 5SM 06/04 A3033 RMK T00600040 IEM_DS3505
ZBYN,1983-03-29 02:00,ZBYN 290200Z AUTO 00000KT 6SM 07/03 A3039 RMK T00700030 IEM_DS3505
ZBYN,1983-03-29 03:00,ZBYN 290300Z AUTO 14004KT 5SM 07/03 A3039 RMK SLP284 T00740034 52007 IEM_DS3505
ZBYN,1983-03-29 04:00,ZBYN 290400Z AUTO 00000KT 5SM 09/04 A3033 RMK T00900040 IEM_DS3505
ZBYN,1983-03-29 05:00,ZBYN 290500Z AUTO 18004KT 4SM 11/04 A3030 RMK T01100040 IEM_DS3505
ZBYN,1983-03-29 06:00,ZBYN 290600Z AUTO 14004KT 6SM 11/02 A3024 RMK SLP246 T01100024 4////0030 57031 IEM_DS3505
ZBYN,1983-03-29 07:00,ZBYN 290700Z AUTO 00000KT 7SM 13/02 A3024 RMK T01300020 IEM_DS3505
ZBYN,1983-03-29 09:00,ZBYN 290900Z AUTO 18002KT 9SM 12/01 RMK SLP231 T01240014 57013 IEM_DS3505
ZBYN,1983-03-29 12:00,ZBYN 291200Z AUTO 00000KT 6SM 08/02 RMK SLP241 T00800024 52001 IEM_DS3505
ZBYN,1983-03-29 15:00,ZBYN 291500Z AUTO 00000KT 6SM RMK SLP250 52008 IEM_DS3505
ZBYN,1983-03-29 18:00,ZBYN 291800Z AUTO 00000KT 5SM 05/01 RMK SLP243 T00480014 40129//// 57001 IEM_DS3505
ZBYN,1983-03-29 21:00,ZBYN 292100Z AUTO 00000KT 4SM 01/00 RMK SLP231 T00120001 57014 IEM_DS3505
ZBYN,1983-03-30 00:00,ZBYN 300000Z AUTO 00000KT 4SM 04/01 RMK SLP235 T00410012 52001 IEM_DS3505
ZBYN,1983-03-30 03:00,ZBYN 300300Z AUTO 18008KT 5SM 10/03 RMK SLP220 T01030026 57009 IEM_DS3505
ZBYN,1983-03-30 06:00,ZBYN 300600Z AUTO 22010KT 7SM 14/M03 RMK SLP183 T01361031 4////0001 57029 IEM_DS3505
ZBYN,1983-03-30 09:00,ZBYN 300900Z AUTO 18008KT 9SM 13/M04 RMK SLP168 T01341039 57019 IEM_DS3505
ZBYN,1983-03-30 12:00,ZBYN 301200Z AUTO 20004KT 9SM 09/01 RMK SLP164 T00920008 57005 IEM_DS3505
ZBYN,1983-03-30 15:00,ZBYN 301500Z AUTO 20004KT 9SM 10/01 RMK SLP157 T00970014 52003 IEM_DS3505
ZBYN,1983-03-30 18:00,ZBYN 301800Z AUTO 09002KT 9SM 05/02 RMK SLP152 T00500021 40148//// 57006 IEM_DS3505
ZBYN,1983-03-30 21:00,ZBYN 302100Z AUTO 09006KT 9SM 03/01 RMK SLP144 T00330010 57010 IEM_DS3505
ZBYN,1983-03-31 00:00,ZBYN 310000Z AUTO 11002KT 5SM 04/02 RMK SLP157 T00440024 52006 IEM_DS3505
ZBYN,1983-03-31 03:00,ZBYN 310300Z AUTO 14004KT 6SM 11/03 RMK SLP139 T01130034 57005 IEM_DS3505
ZBYN,1983-03-31 06:00,ZBYN 310600Z AUTO 18008KT 9SM 16/01 RMK SLP118 T01590014 4////0009 57019 IEM_DS3505
ZBYN,1983-03-31 09:00,ZBYN 310900Z AUTO 29016KT 9SM 15/ RMK SLP109 57010 IEM_DS3505
ZBYN,1983-03-31 12:00,ZBYN 311200Z AUTO 27002KT 11SM 10/00 RMK SLP132 T01020004 52013 IEM_DS3505
ZBYN,1983-03-31 15:00,ZBYN 311500Z AUTO 00000KT 9SM 07/02 RMK SLP132 T00740018 52007 IEM_DS3505
ZBYN,1983-03-31 18:00,ZBYN 311800Z AUTO 00000KT 07/00 RMK SLP115 T00670001 40170//// 57010 IEM_DS3505
ZBYN,1983-03-31 21:00,ZBYN 312100Z AUTO 11002KT 9SM 05/01 RMK SLP114 T00520010 57003 IEM_DS3505
ZBYN,1983-04-01 00:00,ZBYN 010000Z AUTO 32008KT 6SM 11/M04 RMK SLP140 T01101039 52024 IEM_DS3505
ZBYN,1983-04-01 03:00,ZBYN 010300Z AUTO 32014KT 12SM 12/M08 RMK SLP170 T01241083 52025 IEM_DS3505
ZBYN,1983-04-01 06:00,ZBYN 010600Z AUTO 34016KT 16SM 13/M14 RMK SLP170 T01291135 4////0040 57001 IEM_DS3505
ZBYN,1983-04-01 09:00,ZBYN 010900Z AUTO 29021KT 16SM 12/M15 RMK SLP173 T01241154 54000 IEM_DS3505
ZBYN,1983-04-01 12:00,ZBYN 011200Z AUTO 29012KT 12SM 09/M10 RMK SLP192 T00891105 52017 IEM_DS3505
ZBYN,1983-04-01 15:00,ZBYN 011500Z AUTO 32004KT 12SM 05/M08 RMK SLP204 T00501083 52007 IEM_DS3505
ZBYN,1983-04-01 18:00,ZBYN 011800Z AUTO 32002KT 11SM 03/M07 RMK SLP203 T00301072 40140//// 57003 IEM_DS3505
ZBYN,1983-04-01 21:00,ZBYN 012100Z AUTO 00000KT 9SM 00/M08 RMK SLP204 T00021076 57004 IEM_DS3505
ZBYN,1983-04-02 00:00,ZBYN 020000Z AUTO 18004KT 6SM 02/M06 RMK SLP209 T00181065 52001 IEM_DS3505
ZBYN,1983-04-02 03:00,ZBYN 020300Z AUTO 15008KT 7SM 10/M07 A3006 RMK SLP182 T01001070 57018 IEM_DS3505
ZBYN,1983-04-02 04:00,ZBYN 020400Z AUTO 19008KT 7SM 12/M09 A3003 RMK T01201090 IEM_DS3505
ZBYN,1983-04-02 05:00,ZBYN 020500Z AUTO 20014KT 7SM 14/M09 A2994 RMK T01401090 IEM_DS3505
ZBYN,1983-04-02 06:00,ZBYN 020600Z AUTO 20010KT 12SM 15/M09 A2988 RMK SLP118 T01471087 4////1014 57053 IEM_DS3505
ZBYN,1983-04-02 07:00,ZBYN 020700Z AUTO 24010KT 6SM 15/M06 A2985 RMK T01501060 IEM_DS3505
ZBYN,1983-04-02 08:00,ZBYN 020800Z AUTO 19010KT 7SM 15/M05 A2980 RMK T01501050 IEM_DS3505
ZBYN,1983-04-02 09:00,ZBYN 020900Z AUTO 00000KT 16SM 16/M07 RMK SLP086 T01611068 57032 IEM_DS3505
ZBYN,1983-04-02 12:00,ZBYN 021200Z AUTO 32006KT 12SM 13/M06 RMK SLP096 T01281058 52007 IEM_DS3505
ZBYN,1983-04-02 15:00,ZBYN 021500Z AUTO 34006KT 12SM 08/02 RMK SLP119 T00820024 52026 IEM_DS3505
ZBYN,1983-04-02 18:00,ZBYN 021800Z AUTO 29004KT 12SM 06/01 RMK SLP109 T00550008 40167//// 57006 IEM_DS3505
ZBYN,1983-04-02 21:00,ZBYN 022100Z AUTO 32004KT 9SM 02/01 RMK SLP133 T00180012 52019 IEM_DS3505
ZBYN,1983-04-03 00:00,ZBYN 030000Z AUTO 20002KT 9SM 03/01 RMK 60004 70004 SLP170 T00260010 52029 IEM_DS3505
ZBYN,1983-04-03 03:00,ZBYN 030300Z AUTO 34008KT 19SM 09/M10 RMK SLP169 T00891105 52003 IEM_DS3505
ZBYN,1983-04-03 06:00,ZBYN 030600Z AUTO 29016KT 19SM 12/M08 RMK SLP146 T01251083 4////0009 57020 IEM_DS3505
ZBYN,1983-04-03 09:00,ZBYN 030900Z AUTO 27012KT 19SM 13/M09 RMK SLP142 T01261087 57010 IEM_DS3505
ZBYN,1983-04-03 12:00,ZBYN 031200Z AUTO 25004KT 16SM 10/M07 RMK SLP155 T00971068 52009 IEM_DS3505
ZBYN,1983-04-03 15:00,ZBYN 031500Z AUTO 14002KT 16SM 04/M03 RMK SLP154 T00381028 54000 IEM_DS3505
ZBYN,1983-04-03 18:00,ZBYN 031800Z AUTO 09004KT 11SM 02/M04 RMK SLP141 T00181039 40134//// 57010 IEM_DS3505
ZBYN,1983-04-03 21:00,ZBYN 032100Z AUTO 00000KT 12SM 00/M05 RMK SLP135 T00011052 57008 IEM_DS3505
ZBYN,1983-04-04 00:00,ZBYN 040000Z AUTO 27004KT 6SM 03/M04 RMK SLP148 T00321039 52012 IEM_DS3505
ZBYN,1983-04-04 03:00,ZBYN 040300Z AUTO 18006KT 6SM 12/M05 RMK SLP143 T01151048 57001 IEM_DS3505
ZBYN,1983-04-04 06:00,ZBYN 040600Z AUTO 16006KT 16SM 16/M02 RMK SLP109 T01651015 4////1017 57026 IEM_DS3505
ZBYN,1983-04-04 09:00,ZBYN 040900Z AUTO 27006KT 19SM 18/M12 RMK SLP086 T01821119 57021 IEM_DS3505
ZBYN,1983-04-04 12:00,ZBYN 041200Z AUTO 00000KT 16SM 11/00 RMK SLP090 T01140001 57002 IEM_DS3505
ZBYN,1983-04-04 15:00,ZBYN 041500Z AUTO 11006KT 19SM 11/M06 RMK SLP078 T01101058 52001 IEM_DS3505
ZBYN,1983-04-04 18:00,ZBYN 041800Z AUTO 14004KT 19SM 09/M03 RMK SLP061 T00911031 40192//// 57011 IEM_DS3505
ZBYN,1983-04-04 21:00,ZBYN 042100Z AUTO 34004KT 12SM 05/M02 RMK SLP061 T00501020 57003 IEM_DS3505
ZBYN,1983-04-05 00:00,ZBYN 050000Z AUTO 00000KT 5SM 08/M01 RMK SLP075 T00801008 52007 IEM_DS3505
ZBYN,1983-04-05 03:00,ZBYN 050300Z AUTO 20010KT 6SM 18/02 RMK SLP058 T01760016 57002 IEM_DS3505
ZBYN,1983-04-05 04:00,ZBYN 050400Z AUTO 20014KT 5SM 21/04 A2974 RMK T02100040 IEM_DS3505
ZBYN,1983-04-05 05:00,ZBYN 050500Z AUTO 21014KT 6SM 23/02 A2974 RMK T02300020 IEM_DS3505
ZBYN,1983-04-05 06:00,ZBYN 050600Z AUTO 20012KT 4SM 25/00 A2968 RMK SLP022 T02500004 4////0039 57025 IEM_DS3505
ZBYN,1983-04-05 07:00,ZBYN 050700Z AUTO 20017KT 6SM 26/M02 A2968 RMK T02601020 IEM_DS3505
ZBYN,1983-04-05 08:00,ZBYN 050800Z AUTO 20017KT 6SM 25/M04 A2965 RMK T02501040 IEM_DS3505
ZBYN,1983-04-05 09:00,ZBYN 050900Z AUTO 27012KT 7SM 26/M10 A2965 RMK SLP022 T02581100 57005 IEM_DS3505
ZBYN,1983-04-05 12:00,ZBYN 051200Z AUTO 32004KT 9SM 20/M04 RMK SLP049 T01951045 52020 IEM_DS3505
ZBYN,1983-04-05 15:00,ZBYN 051500Z AUTO 36002KT 9SM 17/M05 RMK SLP045 T01721052 52007 IEM_DS3505
ZBYN,1983-04-05 18:00,ZBYN 051800Z AUTO 09004KT 9SM 10/01 RMK SLP043 T01020012 40259//// 57001 IEM_DS3505
ZBYN,1983-04-05 21:00,ZBYN 052100Z AUTO 34006KT 7SM 10/01 RMK SLP045 T01030006 52003 IEM_DS3505
ZBYN,1983-04-06 00:00,ZBYN 060000Z AUTO 02006KT 5SM 15/M04 RMK SLP091 T01501039 52040 IEM_DS3505
ZBYN,1983-04-06 03:00,ZBYN 060300Z AUTO 29008KT 5SM 18/M09 RMK SLP099 T01851087 52009 IEM_DS3505
ZBYN,1983-04-06 06:00,ZBYN 060600Z AUTO 32014KT 7SM 22/M18 RMK SLP093 T02161175 4////0075 57012 IEM_DS3505
ZBYN,1983-04-06 09:00,ZBYN 060900Z AUTO 32008KT 12SM 21/M15 RMK SLP086 T02111147 57007 IEM_DS3505
ZBYN,1983-04-06 12:00,ZBYN 061200Z AUTO 14008KT 12SM 21/M13 RMK T02111127 57007 IEM_DS3505
ZBYN,1983-04-06 15:00,ZBYN 061500Z AUTO 32004KT 12SM 14/M08 RMK SLP111 T01411076 52010 IEM_DS3505
ZBYN,1983-04-06 18:00,ZBYN 061800Z AUTO 36006KT 16SM 11/M06 RMK SLP108 T01081055 40222//// 57004 IEM_DS3505
ZBYN,1983-04-06 21:00,ZBYN 062100Z AUTO 00000KT 12SM 08/M06 RMK SLP116 T00831058 52003 IEM_DS3505
ZBYN,1983-04-07 00:00,ZBYN 070000Z AUTO 06004KT 6SM 09/M05 RMK SLP144 T00901052 52014 IEM_DS3505
ZBYN,1983-04-07 03:00,ZBYN 070300Z AUTO 34004KT 6SM 16/M03 RMK SLP115 T01601034 57014 IEM_DS3505
ZBYN,1983-04-07 06:00,ZBYN 070600Z AUTO 18006KT 6SM 21/01 RMK SLP070 T02070006 4////0065 57039 IEM_DS3505
ZBYN,1983-04-07 09:00,ZBYN 070900Z AUTO 20008KT 6SM 22/02 RMK SLP042 T02180021 57028 IEM_DS3505
ZBYN,1983-04-07 12:00,ZBYN 071200Z AUTO 14006KT 7SM 17/M00 RMK SLP064 T01701001 52022 IEM_DS3505
ZBYN,1983-04-07 15:00,ZBYN 071500Z AUTO 11008KT 6SM 14/04 RMK SLP069 T01440037 52010 IEM_DS3505
ZBYN,1983-04-07 18:00,ZBYN 071800Z AUTO 32004KT 6SM 12/03 RMK SLP067 T01170034 40225//// 52002 IEM_DS3505
ZBYN,1983-04-07 21:00,ZBYN 072100Z AUTO 00000KT 6SM 11/02 RMK SLP064 T01100024 57002 IEM_DS3505
ZBYN,1983-04-08 00:00,ZBYN 080000Z AUTO 32004KT 6SM 12/03 RMK SLP075 T01220028 52004 IEM_DS3505
ZBYN,1983-04-08 03:00,ZBYN 080300Z AUTO 18004KT 6SM 18/08 RMK SLP065 T01760081 57005 IEM_DS3505
ZBYN,1983-04-08 06:00,ZBYN 080600Z AUTO 18006KT 9SM 18/10 RMK SLP055 T01770096 4////0094 57013 IEM_DS3505
ZBYN,1983-04-08 09:00,ZBYN 080900Z AUTO 34010KT 6SM 15/06 RMK SLP058 T01510065 57002 IEM_DS3505
ZBYN,1983-04-08 12:00,ZBYN 081200Z AUTO 32006KT 5SM 10/09 RMK 60024 SLP109 T01030086 52041 IEM_DS3505
ZBYN,1983-04-08 15:00,ZBYN 081500Z AUTO 32008KT 6SM 10/08 RMK SLP113 T01050085 52012 IEM_DS3505
ZBYN,1983-04-08 18:00,ZBYN 081800Z AUTO 36010KT 5SM 08/06 RMK 60028 SLP120 T00830056 40200//// 52004 IEM_DS3505
ZBYN,1983-04-08 21:00,ZBYN 082100Z AUTO 32006KT 9SM 07/05 RMK 70067 SLP119 T00740054 57007 IEM_DS3505
ZBYN,1983-04-09 00:00,ZBYN 090000Z AUTO 36006KT 6SM 08/04 RMK 60020 SLP137 T00810044 52010 IEM_DS3505
ZBYN,1983-04-09 03:00,ZBYN 090300Z AUTO 34008KT 6SM 10/04 RMK SLP148 T00980044 52013 IEM_DS3505
ZBYN,1983-04-09 06:00,ZBYN 090600Z AUTO 04006KT 9SM 12/06 RMK SLP128 T01200065 4////0064 57018 IEM_DS3505
ZBYN,1983-04-09 09:00,ZBYN 090900Z AUTO 02002KT 7SM 12/07 RMK SLP123 T01240072 57005 IEM_DS3505
ZBYN,1983-04-09 12:00,ZBYN 091200Z AUTO 11004KT 7SM 10/06 RMK SLP139 T00960064 52012 IEM_DS3505
ZBYN,1983-04-09 15:00,ZBYN 091500Z AUTO 00000KT 6SM 08/07 RMK SLP153 T00820069 52013 IEM_DS3505
ZBYN,1983-04-09 18:00,ZBYN 091800Z AUTO 32004KT 5SM 07/06 RMK SLP142 T00730057 40126//// 57008 IEM_DS3505
ZBYN,1983-04-09 21:00,ZBYN 092100Z AUTO 00000KT 4SM 06/03 RMK SLP137 T00630034 57006 IEM_DS3505
ZBYN,1983-04-10 00:00,ZBYN 100000Z AUTO 32008KT 6SM 07/05 RMK SLP148 T00690048 52008 IEM_DS3505
ZBYN,1983-04-10 06:00,ZBYN 100600Z AUTO 36008KT 9SM 15/06 RMK SLP140 T01510060 4////0047 57009 IEM_DS3505
ZBYN,1983-04-10 09:00,ZBYN 100900Z AUTO 02004KT 6SM 15/07 RMK SLP129 T01520069 57011 IEM_DS3505
ZBYN,1983-04-10 12:00,ZBYN 101200Z AUTO 00000KT 12SM 12/05 RMK SLP147 T01230053 40157//// 52013 IEM_DS3505
ZBYN,1983-04-10 15:00,ZBYN 101500Z AUTO 20002KT 12SM 11/05 RMK SLP151 T01080054 52012 IEM_DS3505
ZBYN,1983-04-10 18:00,ZBYN 101800Z AUTO 16002KT 12SM 10/06 RMK SLP156 T00960059 40157//// 52005 IEM_DS3505
ZBYN,1983-04-10 21:00,ZBYN 102100Z AUTO 09004KT 10SM 08/08 RMK SLP156 T00850077 57002 IEM_DS3505
ZBYN,1983-04-11 00:00,ZBYN 110000Z AUTO 11002KT 4SM 09/08 RMK SLP166 T00940080 52006 IEM_DS3505
ZBYN,1983-04-11 03:00,ZBYN 110300Z AUTO 18006KT 6SM 15/09 RMK SLP158 T01460088 57002 IEM_DS3505
ZBYN,1983-04-11 06:00,ZBYN 110600Z AUTO 20010KT 16SM 19/ RMK SLP125 57025 IEM_DS3505
ZBYN,1983-04-11 09:00,ZBYN 110900Z AUTO 20010KT 19SM 19/01 RMK SLP103 T01920010 57021 IEM_DS3505
ZBYN,1983-04-11 12:00,ZBYN 111200Z AUTO 22002KT 12SM 15/04 RMK SLP105 T01530041 57003 IEM_DS3505
ZBYN,1983-04-11 18:00,ZBYN 111800Z AUTO 14004KT 9SM 09/07 RMK SLP108 T00870068 40199//// 52001 IEM_DS3505
ZBYN,1983-04-11 21:00,ZBYN 112100Z AUTO 00000KT 9SM 07/06 RMK SLP114 T00700059 52002 IEM_DS3505
ZBYN,1983-04-12 00:00,ZBYN 120000Z AUTO 18004KT 09/07 RMK SLP128 T00930072 52011 IEM_DS3505
ZBYN,1983-04-12 02:00,ZBYN 120200Z AUTO 00000KT 7SM 15/08 A2994 RMK T01500080 IEM_DS3505
ZBYN,1983-04-12 03:00,ZBYN 120300Z AUTO 14004KT 6SM 10/08 A2994 RMK SLP127 T01010082 52002 IEM_DS3505
ZBYN,1983-04-12 04:00,ZBYN 120400Z AUTO 18004KT 6SM 19/06 A2994 RMK T01900060 IEM_DS3505
ZBYN,1983-04-12 05:00,ZBYN 120500Z AUTO 00000KT 6SM 20/M01 A2988 RMK T02001010 IEM_DS3505
ZBYN,1983-04-12 06:00,ZBYN 120600Z AUTO 22006KT 17SM 21/01 A2988 RMK SLP097 T02090010 4////0049 57024 IEM_DS3505
ZBYN,1983-04-12 07:00,ZBYN 120700Z AUTO 00000KT 6SM 21/02 A2985 RMK T02100020 IEM_DS3505
ZBYN,1983-04-12 08:00,ZBYN 120800Z AUTO 30004KT 6SM 22/02 A2980 RMK T02200020 IEM_DS3505
ZBYN,1983-04-12 09:00,ZBYN 120900Z AUTO 00000KT 17SM 21/03 A2980 RMK SLP074 T02110032 57022 IEM_DS3505
ZBYN,1983-04-12 12:00,ZBYN 121200Z AUTO 00000KT 12SM 16/06 RMK SLP081 T01610060 52002 IEM_DS3505
ZBYN,1983-04-12 15:00,ZBYN 121500Z AUTO 11006KT 14SM 14/05 RMK SLP088 T01410049 52013 IEM_DS3505
ZBYN,1983-04-12 18:00,ZBYN 121800Z AUTO 14006KT 12SM 11/06 RMK SLP078 T01140065 40218//// 57005 IEM_DS3505
ZBYN,1983-04-12 21:00,ZBYN 122100Z AUTO 00000KT 7SM 08/06 RMK SLP067 T00780057 57016 IEM_DS3505
ZBYN,1983-04-13 00:00,ZBYN 130000Z AUTO 00000KT 5SM 10/07 RMK SLP087 T01010069 52015 IEM_DS3505
ZBYN,1983-04-13 03:00,ZBYN 130300Z AUTO 09008KT 6SM 13/07 RMK SLP082 T01290074 57004 IEM_DS3505
ZBYN,1983-04-13 06:00,ZBYN 130600Z AUTO 04004KT 9SM 13/05 RMK 60000 SLP068 T01300051 4////0066 57016 IEM_DS3505
ZBYN,1983-04-13 09:00,ZBYN 130900Z AUTO 34008KT 4SM 10/09 RMK SLP073 T01050089 57005 IEM_DS3505
ZBYN,1983-04-13 12:00,ZBYN 131200Z AUTO 04004KT 16SM 10/05 RMK 60016 SLP083 T00980051 52012 IEM_DS3505
ZBYN,1983-04-13 15:00,ZBYN 131500Z AUTO 04002KT 12SM 09/06 RMK SLP092 T00930056 52011 IEM_DS3505
ZBYN,1983-04-13 18:00,ZBYN 131800Z AUTO 00000KT 12SM 09/06 RMK SLP088 T00870059 40148//// 57004 IEM_DS3505
ZBYN,1983-04-13 21:00,ZBYN 132100Z AUTO 00000KT 9SM 08/05 RMK SLP094 T00820051 52001 IEM_DS3505
ZBYN,1983-04-14 00:00,ZBYN 140000Z AUTO 29012KT 16SM 09/02 RMK 70020 SLP127 T00910016 52030 IEM_DS3505
ZBYN,1983-04-14 03:00,ZBYN 140300Z AUTO 36008KT 9SM 06/00 RMK SLP172 T00620001 52036 IEM_DS3505
ZBYN,1983-04-14 06:00,ZBYN 140600Z AUTO 04014KT 16SM 05/M03 RMK SLP194 T00541028 4////0045 52018 IEM_DS3505
ZBYN,1983-04-14 09:00,ZBYN 140900Z AUTO 34014KT 12SM 07/M07 RMK SLP198 T00711068 52005 IEM_DS3505
ZBYN,1983-04-14 12:00,ZBYN 141200Z AUTO 32016KT 12SM 05/M14 RMK SLP238 T00521141 52035 IEM_DS3505
ZBYN,1983-04-14 15:00,ZBYN 141500Z AUTO 32008KT 9SM 04/M13 RMK SLP267 T00351130 52020 IEM_DS3505
ZBYN,1983-04-14 18:00,ZBYN 141800Z AUTO 32004KT 9SM 03/M10 RMK SLP268 T00281100 40097//// 57002 IEM_DS3505
ZBYN,1983-04-14 21:00,ZBYN 142100Z AUTO 00000KT 9SM 02/M06 RMK SLP256 T00151065 57010 IEM_DS3505
ZBYN,1983-04-15 00:00,ZBYN 150000Z AUTO 29002KT 16SM 04/M12 RMK SLP269 T00421124 52013 IEM_DS3505
ZBYN,1983-04-15 03:00,ZBYN 150300Z AUTO 32004KT 16SM 09/M10 RMK SLP254 T00931096 57008 IEM_DS3505
ZBYN,1983-04-15 06:00,ZBYN 150600Z AUTO 32008KT 19SM 13/M11 RMK T01331114 4////1006 57028 IEM_DS3505
ZBYN,1983-04-15 09:00,ZBYN 150900Z AUTO 29012KT 19SM 14/M15 RMK SLP202 T01401147 57016 IEM_DS3505
ZBYN,1983-04-15 12:00,ZBYN 151200Z AUTO 27006KT 19SM 09/M09 RMK SLP212 T00911092 52006 IEM_DS3505
ZBYN,1983-04-15 15:00,ZBYN 151500Z AUTO 32006KT 16SM 07/M10 RMK SLP214 T00741100 52008 IEM_DS3505
ZBYN,1983-04-15 18:00,ZBYN 151800Z AUTO 00000KT 16SM 02/M06 RMK SLP215 T00191061 40145//// 57002 IEM_DS3505
ZBYN,1983-04-15 21:00,ZBYN 152100Z AUTO 14004KT 16SM M01/M05 RMK SLP205 T10061048 57012 IEM_DS3505
ZBYN,1983-04-16 00:00,ZBYN 160000Z AUTO 00000KT 12SM 03/M06 RMK SLP209 T00341058 52003 IEM_DS3505
ZBYN,1983-04-16 02:00,ZBYN 160200Z AUTO 16008KT 7SM 09/M08 A3012 RMK T00901080 IEM_DS3505
ZBYN,1983-04-16 03:00,ZBYN 160300Z AUTO 18006KT 6SM 10/M07 A3012 RMK SLP189 T01031068 57010 IEM_DS3505
ZBYN,1983-04-16 04:00,ZBYN 160400Z AUTO 20008KT 7SM 13/M07 A3006 RMK T01301070 IEM_DS3505
ZBYN,1983-04-16 05:00,ZBYN 160500Z AUTO 21010KT 7SM 15/M11 A3003 RMK T01501110 IEM_DS3505
ZBYN,1983-04-16 06:00,ZBYN 160600Z AUTO 20012KT 17SM 15/M09 A2997 RMK SLP152 T01521087 4////1021 57035 IEM_DS3505
ZBYN,1983-04-16 07:00,ZBYN 160700Z AUTO 16012KT 7SM 17/ A2994 RMK IEM_DS3505
ZBYN,1983-04-16 08:00,ZBYN 160800Z AUTO 20012G21KT 7SM 17/M09 A2988 RMK T01701090 IEM_DS3505
ZBYN,1983-04-16 09:00,ZBYN 160900Z AUTO 22012KT 17SM 18/M08 A2985 RMK SLP115 T01751083 57034 IEM_DS3505
ZBYN,1983-04-16 10:00,ZBYN 161000Z AUTO 21008KT 6SM 17/M08 A2985 RMK T01701080 IEM_DS3505
ZBYN,1983-04-16 11:00,ZBYN 161100Z AUTO 19006KT 6SM 14/M03 A2985 RMK T01401030 IEM_DS3505
ZBYN,1983-04-16 12:00,ZBYN 161200Z AUTO 18006KT 16SM 12/M02 RMK SLP123 T01181020 52004 IEM_DS3505
ZBYN,1983-04-16 15:00,ZBYN 161500Z AUTO 18006KT 17SM 08/M04 RMK SLP130 T00841042 52012 IEM_DS3505
ZBYN,1983-04-16 18:00,ZBYN 161800Z AUTO 14004KT 1 1/4SM 06/M05 RMK SLP126 T00601048 40178//// 54000 IEM_DS3505
ZBYN,1983-04-16 21:00,ZBYN 162100Z AUTO 22006KT 16SM 03/M03 RMK SLP127 T00261034 57001 IEM_DS3505
ZBYN,1983-04-17 00:00,ZBYN 170000Z AUTO 36004KT 4SM 07/M01 RMK SLP141 T00741008 52012 IEM_DS3505
ZBYN,1983-04-17 03:00,ZBYN 170300Z AUTO 18006KT 7SM 15/M04 A2994 RMK SLP140 T01501040 52004 IEM_DS3505
ZBYN,1983-04-17 04:00,ZBYN 170400Z AUTO 20006KT 6SM 18/04 A2994 RMK T01800040 IEM_DS3505
ZBYN,1983-04-17 06:00,ZBYN 170600Z AUTO 18008KT 12SM 18/M03 RMK SLP119 T01821026 4////0015 57017 IEM_DS3505
ZBYN,1983-04-17 09:00,ZBYN 170900Z AUTO 18006KT 11SM 20/00 RMK SLP106 T02000004 57019 IEM_DS3505
ZBYN,1983-04-17 12:00,ZBYN 171200Z AUTO 14002KT 12SM 16/02 RMK SLP116 T01600022 52010 IEM_DS3505
ZBYN,1983-04-17 15:00,ZBYN 171500Z AUTO 34002KT 9SM 10/03 RMK SLP132 T01030034 52018 IEM_DS3505
ZBYN,1983-04-17 18:00,ZBYN 171800Z AUTO 34002KT 9SM 08/03 RMK SLP140 T00840030 40203//// 52009 IEM_DS3505
ZBYN,1983-04-17 21:00,ZBYN 172100Z AUTO 00000KT 6SM 06/04 RMK SLP150 T00650037 52009 IEM_DS3505
ZBYN,1983-04-18 00:00,ZBYN 180000Z AUTO 32002KT 4SM 09/03 RMK SLP166 T00920034 52013 IEM_DS3505
ZBYN,1983-04-18 03:00,ZBYN 180300Z AUTO 00000KT 5SM 17/03 RMK SLP162 T01680034 57001 IEM_DS3505
ZBYN,1983-04-18 06:00,ZBYN 180600Z AUTO 32004KT 5SM 22/05 RMK SLP137 T02180046 4////0057 57019 IEM_DS3505
ZBYN,1983-04-18 09:00,ZBYN 180900Z AUTO 09014KT 7SM 21/02 RMK SLP136 T02070016 57005 IEM_DS3505
ZBYN,1983-04-18 12:00,ZBYN 181200Z AUTO 07008KT 9SM 15/02 RMK SLP172 T01540024 52029 IEM_DS3505
ZBYN,1983-04-18 15:00,ZBYN 181500Z AUTO 11008KT 9SM 13/05 RMK SLP194 T01320051 52028 IEM_DS3505
ZBYN,1983-04-18 18:00,ZBYN 181800Z AUTO 14002KT 9SM 10/06 RMK SLP196 T01010057 40225//// 52005 IEM_DS3505
ZBYN,1983-04-18 21:00,ZBYN 182100Z AUTO 32004KT 9SM 10/05 RMK SLP207 T00960054 52007 IEM_DS3505
ZBYN,1983-04-19 00:00,ZBYN 190000Z AUTO 34012KT 7SM 12/M04 RMK SLP240 T01221045 52026 IEM_DS3505
ZBYN,1983-04-19 03:00,ZBYN 190300Z AUTO 07012KT 7SM 17/03 A3030 RMK SLP243 T01700030 52007 IEM_DS3505
ZBYN,1983-04-19 04:00,ZBYN 190400Z AUTO 08014KT 7SM 17/03 A3024 RMK T01700030 IEM_DS3505
ZBYN,1983-04-19 05:00,ZBYN 190500Z AUTO 05014KT 6SM 17/02 A3024 RMK T01700020 IEM_DS3505
ZBYN,1983-04-19 06:00,ZBYN 190600Z AUTO 07006KT 9SM 18/01 RMK SLP224 T01750014 4////0076 57022 IEM_DS3505
ZBYN,1983-04-19 07:00,ZBYN 190700Z AUTO 08008KT 6SM 17/M01 A3021 RMK T01701010 IEM_DS3505
ZBYN,1983-04-19 08:00,ZBYN 190800Z AUTO 08016KT 6SM 17/M02 A3021 RMK T01701020 IEM_DS3505
ZBYN,1983-04-19 09:00,ZBYN 190900Z AUTO 02010KT 9SM 17/03 A3021 RMK SLP217 T01660026 57008 IEM_DS3505
ZBYN,1983-04-19 12:00,ZBYN 191200Z AUTO 36004KT 11SM 13/01 RMK SLP242 T01330011 52022 IEM_DS3505
ZBYN,1983-04-19 15:00,ZBYN 191500Z AUTO 34006KT 12SM 12/01 RMK SLP248 T01180014 52010 IEM_DS3505
ZBYN,1983-04-19 18:00,ZBYN 191800Z AUTO 34002KT 12SM 10/02 RMK SLP244 T00970018 40187//// 57006 IEM_DS3505
ZBYN,1983-04-19 21:00,ZBYN 192100Z AUTO 32004KT 9SM 10/M01 RMK SLP240 T00961006 57005 IEM_DS3505
ZBYN,1983-04-20 00:00,ZBYN 200000Z AUTO 34006KT 9SM 10/M02 RMK SLP253 T01021018 52008 IEM_DS3505
ZBYN,1983-04-20 03:00,ZBYN 200300Z AUTO 11006KT 7SM 13/M03 RMK SLP239 T01311028 57011 IEM_DS3505
ZBYN,1983-04-20 06:00,ZBYN 200600Z AUTO 20004KT 9SM 13/02 RMK SLP214 T01280022 4////0080 57025 IEM_DS3505
ZBYN,1983-04-20 09:00,ZBYN 200900Z AUTO 07002KT 9SM 13/03 RMK SLP191 T01280028 57022 IEM_DS3505
ZBYN,1983-04-20 12:00,ZBYN 201200Z AUTO 20004KT 9SM 09/07 RMK SLP202 T00940067 52005 IEM_DS3505
ZBYN,1983-04-20 15:00,ZBYN 201500Z AUTO 20006KT 6SM 07/06 RMK SLP199 T00680056 57007 IEM_DS3505
ZBYN,1983-04-20 18:00,ZBYN 201800Z AUTO 20008KT 9SM 06/03 RMK 60001 SLP163 T00580034 40131//// 57029 IEM_DS3505
ZBYN,1983-04-20 21:00,ZBYN 202100Z AUTO 18006KT 9SM 05/04 RMK SLP133 T00500036 57028 IEM_DS3505
ZBYN,1983-04-21 00:00,ZBYN 210000Z AUTO 20006KT 9SM 06/04 RMK SLP127 T00590037 57010 IEM_DS3505
ZBYN,1983-04-21 03:00,ZBYN 210300Z AUTO 29012KT 19SM 11/M01 RMK SLP117 T01121008 57005 IEM_DS3505
ZBYN,1983-04-21 06:00,ZBYN 210600Z AUTO 32014KT 19SM 15/M01 RMK SLP094 T01531010 4////0044 57016 IEM_DS3505
ZBYN,1983-04-21 09:00,ZBYN 210900Z AUTO 32016KT 19SM 15/M01 RMK SLP092 T01471006 57004 IEM_DS3505
ZBYN,1983-04-21 12:00,ZBYN 211200Z AUTO 00000KT 19SM 12/00 RMK SLP104 T01180004 52008 IEM_DS3505
ZBYN,1983-04-21 15:00,ZBYN 211500Z AUTO 18006KT 19SM 09/01 RMK SLP106 T00940014 52006 IEM_DS3505
ZBYN,1983-04-21 18:00,ZBYN 211800Z AUTO 00000KT 16SM 07/03 RMK SLP101 T00730030 40160//// 57002 IEM_DS3505
ZBYN,1983-04-21 21:00,ZBYN 212100Z AUTO 07004KT 6SM 05/02 RMK SLP115 T00500021 52009 IEM_DS3505
ZBYN,1983-04-22 00:00,ZBYN 220000Z AUTO 00000KT 6SM 09/04 RMK SLP125 T00870036 52010 IEM_DS3505
ZBYN,1983-04-22 03:00,ZBYN 220300Z AUTO 16006KT 6SM 16/03 RMK SLP112 T01580032 57004 IEM_DS3505
ZBYN,1983-04-22 06:00,ZBYN 220600Z AUTO 16008KT 11SM 20/M03 RMK SLP077 T02041028 4////0036 57029 IEM_DS3505
ZBYN,1983-04-22 09:00,ZBYN 220900Z AUTO 29012KT 16SM 22/M08 RMK SLP052 T02231083 57023 IEM_DS3505
ZBYN,1983-04-22 12:00,ZBYN 221200Z AUTO 25002KT 12SM 16/02 RMK SLP075 T01590016 52017 IEM_DS3505
ZBYN,1983-04-22 15:00,ZBYN 221500Z AUTO 00000KT 12SM 12/02 RMK SLP083 T01150018 52011 IEM_DS3505
ZBYN,1983-04-22 18:00,ZBYN 221800Z AUTO 32004KT 7SM 08/02 RMK SLP089 T00840024 40228//// 52007 IEM_DS3505
ZBYN,1983-04-22 21:00,ZBYN 222100Z AUTO 00000KT 6SM 06/02 RMK SLP091 T00580018 52001 IEM_DS3505
ZBYN,1983-04-23 00:00,ZBYN 230000Z AUTO 32004KT 4SM 11/03 RMK SLP102 T01090034 52008 IEM_DS3505
ZBYN,1983-04-23 03:00,ZBYN 230300Z AUTO 18006KT 6SM 20/02 A2985 RMK SLP095 T02000020 54000 IEM_DS3505
ZBYN,1983-04-23 04:00,ZBYN 230400Z AUTO 21010KT 6SM 23/01 A2985 RMK T02300010 IEM_DS3505
ZBYN,1983-04-23 05:00,ZBYN 230500Z AUTO 20016KT 6SM 27/ A2985 RMK IEM_DS3505
ZBYN,1983-04-23 06:00,ZBYN 230600Z AUTO 20006KT 9SM 24/M05 A2985 RMK SLP071 T02421052 4////0044 57019 IEM_DS3505
ZBYN,1983-04-23 07:00,ZBYN 230700Z AUTO 22008KT 7SM 25/M05 A2977 RMK T02501050 IEM_DS3505
ZBYN,1983-04-23 08:00,ZBYN 230800Z AUTO 36004KT 7SM 26/M08 A2977 RMK T02601080 IEM_DS3505
ZBYN,1983-04-23 09:00,ZBYN 230900Z AUTO 18006KT 12SM 24/M04 RMK SLP061 T02441037 57013 IEM_DS3505
ZBYN,1983-04-23 12:00,ZBYN 231200Z AUTO 00000KT 9SM 18/ RMK SLP074 52010 IEM_DS3505
ZBYN,1983-04-23 15:00,ZBYN 231500Z AUTO 00000KT 9SM 13/03 RMK SLP086 T01310026 52017 IEM_DS3505
ZBYN,1983-04-23 18:00,ZBYN 231800Z AUTO 00000KT 9SM 09/03 RMK SLP089 T00880032 40258//// 52003 IEM_DS3505
ZBYN,1983-04-23 21:00,ZBYN 232100Z AUTO 36002KT 9SM 07/03 RMK SLP104 T00660030 52010 IEM_DS3505
ZBYN,1983-04-24 00:00,ZBYN 240000Z AUTO 34006KT 4SM 12/00 RMK SLP122 T01210004 52015 IEM_DS3505
ZBYN,1983-04-24 06:00,ZBYN 240600Z AUTO 00000KT 12SM 26/M02 RMK SLP081 T02571023 4////0053 57030 IEM_DS3505
ZBYN,1983-04-24 09:00,ZBYN 240900Z AUTO 00000KT 9SM 27/04 RMK SLP052 T02700039 57028 IEM_DS3505
ZBYN,1983-04-24 12:00,ZBYN 241200Z AUTO 00000KT 7SM 22/08 RMK SLP052 T02150081 54000 IEM_DS3505
ZBYN,1983-04-24 15:00,ZBYN 241500Z AUTO 18002KT 12SM 17/05 RMK SLP062 T01730048 52017 IEM_DS3505
ZBYN,1983-04-24 18:00,ZBYN 241800Z AUTO 14004KT 12SM 16/02 RMK SLP047 T01600022 40273//// 57010 IEM_DS3505
ZBYN,1983-04-24 21:00,ZBYN 242100Z AUTO 14004KT 12SM 14/05 RMK SLP043 T01430053 57004 IEM_DS3505
ZBYN,1983-04-25 00:00,ZBYN 250000Z AUTO 00000KT 6SM 15/09 RMK SLP058 T01460088 52006 IEM_DS3505
ZBYN,1983-04-25 06:00,ZBYN 250600Z AUTO 34006KT 6SM 15/10 RMK 60004 SLP040 T01540105 4////0113 57022 IEM_DS3505
ZBYN,1983-04-25 09:00,ZBYN 250900Z AUTO 34008KT 4SM 12/11 RMK SLP037 T01210107 57010 IEM_DS3505
ZBYN,1983-04-25 12:00,ZBYN 251200Z AUTO 32006KT 5SM 12/10 RMK 60039 SLP037 T01250100 52002 IEM_DS3505
ZBYN,1983-04-25 15:00,ZBYN 251500Z AUTO 34006KT 5SM 13/08 RMK SLP032 T01270081 57002 IEM_DS3505
ZBYN,1983-04-25 18:00,ZBYN 251800Z AUTO 34010KT 5SM 10/07 RMK 60008 SLP043 T01050069 40176//// 52005 IEM_DS3505
ZBYN,1983-04-25 21:00,ZBYN 252100Z AUTO 16004KT 6SM 10/06 RMK SLP048 T00980064 57001 IEM_DS3505
ZBYN,1983-04-26 00:00,ZBYN 260000Z AUTO 20006KT 9SM 12/07 RMK 60002 SLP055 T01150069 52009 IEM_DS3505
ZBYN,1983-04-26 02:00,ZBYN 260200Z AUTO 25014KT 7SM 17/05 A2977 RMK T01700050 IEM_DS3505
ZBYN,1983-04-26 03:00,ZBYN 260300Z AUTO 29010KT 12SM 20/05 A2977 RMK SLP052 T01950048 52010 IEM_DS3505
ZBYN,1983-04-26 04:00,ZBYN 260400Z AUTO 29027KT 7SM 21/M01 A2977 RMK T02101010 IEM_DS3505
ZBYN,1983-04-26 05:00,ZBYN 260500Z AUTO 29019KT 7SM 23/M01 A2977 RMK T02301010 IEM_DS3505
ZBYN,1983-04-26 06:00,ZBYN 260600Z AUTO 29010KT 6SM 22/01 A2977 RMK SLP044 T02250010 4////0087 57006 IEM_DS3505
ZBYN,1983-04-26 08:00,ZBYN 260800Z AUTO 30021KT 6SM 23/M04 A2977 RMK T02301040 IEM_DS3505
ZBYN,1983-04-26 09:00,ZBYN 260900Z AUTO 29010KT 6SM 23/M01 A2977 RMK SLP050 T02261008 52004 IEM_DS3505
ZBYN,1983-04-26 12:00,ZBYN 261200Z AUTO 22004KT 5SM 19/03 RMK SLP078 T01940030 52023 IEM_DS3505
ZBYN,1983-04-26 15:00,ZBYN 261500Z AUTO 22006KT 6SM 16/05 RMK SLP085 T01570049 52014 IEM_DS3505
ZBYN,1983-04-26 18:00,ZBYN 261800Z AUTO 14004KT 7SM 12/05 RMK SLP069 T01200051 40230//// 57016 IEM_DS3505
ZBYN,1983-04-26 21:00,ZBYN 262100Z AUTO 27002KT 9SM 09/06 RMK SLP066 T00910064 57007 IEM_DS3505
ZBYN,1983-04-27 00:00,ZBYN 270000Z AUTO 00000KT 5SM 13/07 RMK SLP068 T01290071 52003 IEM_DS3505
ZBYN,1983-04-27 03:00,ZBYN 270300Z AUTO 22004KT 6SM 21/07 RMK SLP044 T02070067 57017 IEM_DS3505
ZBYN,1983-04-27 06:00,ZBYN 270600Z AUTO 14008KT 9SM 25/03 RMK SLP998 T02510032 4////0074 57041 IEM_DS3505
ZBYN,1983-04-27 09:00,ZBYN 270900Z AUTO 16010KT 9SM 23/07 RMK SLP989 T02340067 57014 IEM_DS3505
ZBYN,1983-04-27 12:00,ZBYN 271200Z AUTO 16004KT 12SM 20/08 RMK SLP986 T01950080 57004 IEM_DS3505
ZBYN,1983-04-27 18:00,ZBYN 271800Z AUTO 34014KT 6SM 14/03 RMK SLP042 T01380028 52043 IEM_DS3505
ZBYN,1983-04-27 21:00,ZBYN 272100Z AUTO 34016KT 5SM 10/M03 RMK SLP082 T01041031 52030 IEM_DS3505
ZBYN,1983-04-28 00:00,ZBYN 280000Z AUTO 29016KT 4SM 08/M06 RMK SLP155 T00851058 52057 IEM_DS3505
ZBYN,1983-04-28 03:00,ZBYN 280300Z AUTO 27016KT 4SM 08/M15 RMK SLP188 T00831154 52026 IEM_DS3505
ZBYN,1983-04-28 06:00,ZBYN 280600Z AUTO 29025KT 3SM 09/M18 RMK SLP187 T00861175 4////0066 57005 IEM_DS3505
ZBYN,1983-04-28 09:00,ZBYN 280900Z AUTO 29023KT 1 1/4SM 07/M11 RMK SLP209 T00741114 52014 IEM_DS3505
ZBYN,1983-04-28 12:00,ZBYN 281200Z AUTO 32014KT 4SM 05/M09 RMK SLP255 T00541092 52035 IEM_DS3505
ZBYN,1983-04-28 15:00,ZBYN 281500Z AUTO 29017KT 7SM 04/M10 RMK SLP277 T00401105 52018 IEM_DS3505
ZBYN,1983-04-28 18:00,ZBYN 281800Z AUTO 36002KT 12SM 04/M14 RMK SLP268 T00351135 40138//// 57009 IEM_DS3505
ZBYN,1983-04-28 21:00,ZBYN 282100Z AUTO 00000KT 9SM 04/M15 RMK SLP256 T00361147 57013 IEM_DS3505
ZBYN,1983-04-29 00:00,ZBYN 290000Z AUTO 18006KT 5SM 04/M09 RMK SLP254 T00361087 57005 IEM_DS3505
ZBYN,1983-04-29 03:00,ZBYN 290300Z AUTO 22012KT 6SM 11/M09 RMK SLP235 T01111087 57007 IEM_DS3505
ZBYN,1983-04-29 06:00,ZBYN 290600Z AUTO 32012KT 7SM 15/M10 RMK SLP204 T01521100 4////0027 57023 IEM_DS3505
ZBYN,1983-04-29 09:00,ZBYN 290900Z AUTO 29012KT 6SM 15/M10 RMK SLP185 T01501105 57017 IEM_DS3505
ZBYN,1983-04-29 12:00,ZBYN 291200Z AUTO 25004KT 9SM 12/M07 RMK SLP189 T01251072 54000 IEM_DS3505
ZBYN,1983-04-29 15:00,ZBYN 291500Z AUTO 20006KT 9SM 08/M04 RMK SLP185 T00841039 52001 IEM_DS3505
ZBYN,1983-04-29 18:00,ZBYN 291800Z AUTO 11004KT 6SM 05/M03 RMK SLP179 T00521028 40166//// 57006 IEM_DS3505
ZBYN,1983-04-29 21:00,ZBYN 292100Z AUTO 00000KT 7SM 02/M04 RMK SLP172 T00201045 57009 IEM_DS3505
ZBYN,1983-04-30 00:00,ZBYN 300000Z AUTO 00000KT 5SM 06/M01 RMK SLP177 T00581008 52005 IEM_DS3505
ZBYN,1983-04-30 03:00,ZBYN 300300Z AUTO 00000KT 5SM 09/M02 A3003 RMK SLP167 T00921015 57010 IEM_DS3505
ZBYN,1983-04-30 04:00,ZBYN 300400Z AUTO 19010KT 6SM 12/M05 A2997 RMK T01201050 IEM_DS3505
ZBYN,1983-04-30 05:00,ZBYN 300500Z AUTO 18008KT 6SM 13/M03 A2997 RMK T01301030 IEM_DS3505
ZBYN,1983-04-30 06:00,ZBYN 300600Z AUTO 00000KT 6SM 14/M04 A2994 RMK SLP136 T01401040 4////0011 57026 IEM_DS3505
ZBYN,1983-04-30 08:00,ZBYN 300800Z AUTO 23006KT 6SM 15/M04 A2988 RMK T01501040 IEM_DS3505
ZBYN,1983-04-30 09:00,ZBYN 300900Z AUTO 21008KT 6SM 15/M04 A2988 RMK SLP123 T01501040 57014 IEM_DS3505
ZBYN,1983-04-30 12:00,ZBYN 301200Z AUTO 09004KT 7SM 11/M01 RMK SLP129 T01091008 52004 IEM_DS3505
ZBYN,1983-04-30 15:00,ZBYN 301500Z AUTO 09004KT 9SM 09/01 RMK SLP142 T00870006 52014 IEM_DS3505
ZBYN,1983-04-30 21:00,ZBYN 302100Z AUTO 00000KT 9SM 05/02 RMK SLP154 T00480021 52007 IEM_DS3505
ZBYN,1983-05-01 00:00,ZBYN 010000Z AUTO 00000KT 5SM 08/03 RMK SLP178 T00780034 52020 IEM_DS3505
ZBYN,1983-05-01 03:00,ZBYN 010300Z AUTO 18006KT 6SM 15/02 RMK SLP168 T01480018 57001 IEM_DS3505
ZBYN,1983-05-01 06:00,ZBYN 010600Z AUTO 20012KT 9SM 20/00 RMK SLP140 T02020001 4////0024 57021 IEM_DS3505
ZBYN,1983-05-01 09:00,ZBYN 010900Z AUTO 20010KT 9SM 21/M00 RMK SLP131 T02061003 57010 IEM_DS3505
ZBYN,1983-05-01 12:00,ZBYN 011200Z AUTO 25004KT 12SM 17/02 RMK SLP149 T01700016 52014 IEM_DS3505
ZBYN,1983-05-01 15:00,ZBYN 011500Z AUTO 09004KT 9SM 12/02 RMK SLP166 T01160021 52019 IEM_DS3505
ZBYN,1983-05-01 18:00,ZBYN 011800Z AUTO 00000KT 9SM 08/04 RMK SLP172 T00760039 40215//// 52008 IEM_DS3505
ZBYN,1983-05-01 21:00,ZBYN 012100Z AUTO 00000KT 6SM 06/02 RMK SLP182 T00640016 52007 IEM_DS3505
ZBYN,1983-05-02 00:00,ZBYN 020000Z AUTO 36004KT 6SM 11/01 RMK SLP194 T01070014 52013 IEM_DS3505
ZBYN,1983-05-02 03:00,ZBYN 020300Z AUTO 22004KT 5SM 18/04 RMK SLP190 T01810037 54000 IEM_DS3505
ZBYN,1983-05-02 06:00,ZBYN 020600Z AUTO 18006KT 9SM 21/05 RMK SLP170 T02130049 4////0051 57020 IEM_DS3505
ZBYN,1983-05-02 09:00,ZBYN 020900Z AUTO 18002KT 9SM 22/05 RMK SLP156 T02150053 57015 IEM_DS3505
ZBYN,1983-05-02 12:00,ZBYN 021200Z AUTO 11004KT 9SM 17/07 RMK SLP160 T01720072 52004 IEM_DS3505
ZBYN,1983-05-02 15:00,ZBYN 021500Z AUTO 00000KT 9SM 15/07 RMK SLP169 T01540067 52016 IEM_DS3505
ZBYN,1983-05-02 18:00,ZBYN 021800Z AUTO 11004KT 11SM 12/05 RMK SLP172 T01240053 40222//// 52004 IEM_DS3505
ZBYN,1983-05-02 21:00,ZBYN 022100Z AUTO 00000KT 9SM 09/06 RMK SLP185 T00930057 52017 IEM_DS3505
ZBYN,1983-05-03 00:00,ZBYN 030000Z AUTO 34004KT 5SM 14/05 A3015 RMK SLP188 T01380053 52003 IEM_DS3505
ZBYN,1983-05-03 03:00,ZBYN 030300Z AUTO 00000KT 6SM 20/05 A3015 RMK SLP179 T02000050 57001 IEM_DS3505
ZBYN,1983-05-03 04:00,ZBYN 030400Z AUTO 19004KT 6SM 21/06 A3012 RMK T02100060 IEM_DS3505
ZBYN,1983-05-03 05:00,ZBYN 030500Z AUTO 18006KT 7SM 22/05 A3012 RMK T02200050 IEM_DS3505
ZBYN,1983-05-03 06:00,ZBYN 030600Z AUTO 22006KT 9SM 22/04 A3012 RMK SLP161 T02170036 4////0074 57019 IEM_DS3505
ZBYN,1983-05-03 07:00,ZBYN 030700Z AUTO 21014G23KT 6SM 22/02 A3006 RMK T02200020 IEM_DS3505
ZBYN,1983-05-03 08:00,ZBYN 030800Z AUTO 21004KT 6SM 22/05 A3003 RMK T02200050 IEM_DS3505
ZBYN,1983-05-03 09:00,ZBYN 030900Z AUTO 22004KT 9SM 22/04 A3003 RMK SLP154 T02210039 57010 IEM_DS3505
ZBYN,1983-05-03 10:00,ZBYN 031000Z AUTO 18006KT 6SM 22/02 A3003 RMK T02200020 IEM_DS3505
ZBYN,1983-05-03 11:00,ZBYN 031100Z AUTO 00000KT 6SM 20/07 A3003 RMK T02000070 IEM_DS3505
ZBYN,1983-05-03 12:00,ZBYN 031200Z AUTO 00000KT 12SM 18/07 RMK SLP158 T01840069 52004 IEM_DS3505
ZBYN,1983-05-03 15:00,ZBYN 031500Z AUTO 00000KT 9SM 15/07 RMK SLP164 T01470072 52010 IEM_DS3505
ZBYN,1983-05-03 18:00,ZBYN 031800Z AUTO 34004KT 9SM 15/02 RMK SLP157 T01500024 40221//// 57004 IEM_DS3505
ZBYN,1983-05-03 21:00,ZBYN 032100Z AUTO 32004KT 7SM 12/04 RMK SLP158 T01220043 57003 IEM_DS3505
ZBYN,1983-05-04 00:00,ZBYN 040000Z AUTO 34004KT 6SM 16/03 RMK SLP166 T01570030 52007 IEM_DS3505
ZBYN,1983-05-04 03:00,ZBYN 040300Z AUTO 20006KT 7SM 19/05 RMK SLP166 T01900054 54000 IEM_DS3505
ZBYN,1983-05-04 06:00,ZBYN 040600Z AUTO 22004KT 12SM 20/05 RMK SLP150 T01980049 57013 IEM_DS3505
ZBYN,1983-05-04 09:00,ZBYN 040900Z AUTO 22006KT 9SM 16/09 RMK SLP155 T01630090 57004 IEM_DS3505
ZBYN,1983-05-04 12:00,ZBYN 041200Z AUTO 04004KT 9SM 14/11 RMK 60000 SLP162 T01430113 57008 IEM_DS3505
ZBYN,1983-05-04 15:00,ZBYN 041500Z AUTO 29002KT 7SM 13/12 RMK SLP165 T01340117 52006 IEM_DS3505
ZBYN,1983-05-04 18:00,ZBYN 041800Z AUTO 32004KT 7SM 12/ RMK 60002 SLP149 40203//// 57015 IEM_DS3505
ZBYN,1983-05-04 21:00,ZBYN 042100Z AUTO 34006KT 7SM 12/10 RMK 70004 SLP149 T01230095 57005 IEM_DS3505
ZBYN,1983-05-05 00:00,ZBYN 050000Z AUTO 32004KT 6SM 13/10 RMK SLP160 T01300101 52008 IEM_DS3505
ZBYN,1983-05-05 03:00,ZBYN 050300Z AUTO 34006KT 7SM 15/10 RMK SLP162 T01500096 52004 IEM_DS3505
ZBYN,1983-05-05 06:00,ZBYN 050600Z AUTO 34006KT 11SM 18/09 RMK SLP137 T01800091 4////0111 57021 IEM_DS3505
ZBYN,1983-05-05 09:00,ZBYN 050900Z AUTO 27004KT 14SM 20/08 RMK SLP127 T01980077 57006 IEM_DS3505
ZBYN,1983-05-05 12:00,ZBYN 051200Z AUTO 18002KT 6SM 16/10 RMK SLP129 T01570103 57003 IEM_DS3505
ZBYN,1983-05-05 18:00,ZBYN 051800Z AUTO 32002KT 7SM 09/07 RMK SLP132 T00870074 40198//// 57007 IEM_DS3505
ZBYN,1983-05-05 21:00,ZBYN 052100Z AUTO 00000KT 4SM 07/07 RMK SLP134 T00720069 52001 IEM_DS3505
ZBYN,1983-05-06 00:00,ZBYN 060000Z AUTO 00000KT 5SM 12/09 RMK SLP144 T01210091 52011 IEM_DS3505
ZBYN,1983-05-06 03:00,ZBYN 060300Z AUTO 20006KT 6SM 19/11 RMK SLP131 T01910111 57009 IEM_DS3505
ZBYN,1983-05-06 06:00,ZBYN 060600Z AUTO 27017KT 12SM 28/M02 RMK SLP082 T02791015 4////0067 57034 IEM_DS3505
ZBYN,1983-05-06 09:00,ZBYN 060900Z AUTO 34016KT 7SM 22/01 RMK SLP099 T02200014 52004 IEM_DS3505
ZBYN,1983-05-06 12:00,ZBYN 061200Z AUTO 22006KT 7SM 20/04 RMK SLP093 T01990043 57002 IEM_DS3505
ZBYN,1983-05-06 15:00,ZBYN 061500Z AUTO 32004KT 9SM 19/M02 RMK SLP110 T01931015 52025 IEM_DS3505
ZBYN,1983-05-06 18:00,ZBYN 061800Z AUTO 29004KT 11SM 10/03 RMK SLP120 T01050026 40284//// 52009 IEM_DS3505
ZBYN,1983-05-06 21:00,ZBYN 062100Z AUTO 34006KT 12SM 10/M01 RMK SLP133 T01021010 52004 IEM_DS3505
ZBYN,1983-05-07 00:00,ZBYN 070000Z AUTO 22004KT 6SM 12/03 RMK SLP146 T01210028 52011 IEM_DS3505
ZBYN,1983-05-07 03:00,ZBYN 070300Z AUTO 22012KT 7SM 22/02 A2997 RMK SLP121 T02200020 57011 IEM_DS3505
ZBYN,1983-05-07 04:00,ZBYN 070400Z AUTO 21008KT 7SM 23/00 A2997 RMK T02300000 IEM_DS3505
ZBYN,1983-05-07 05:00,ZBYN 070500Z AUTO 00000KT 7SM 26/01 A2994 RMK T02600010 IEM_DS3505
ZBYN,1983-05-07 06:00,ZBYN 070600Z AUTO 29006KT 19SM 27/M01 A2988 RMK SLP094 T02731008 4////0090 57028 IEM_DS3505
ZBYN,1983-05-07 08:00,ZBYN 070800Z AUTO 31019KT 7SM 29/M05 A2985 RMK T02901050 IEM_DS3505
ZBYN,1983-05-07 09:00,ZBYN 070900Z AUTO 32010KT 19SM 28/M05 A2985 RMK SLP074 T02841052 57017 IEM_DS3505
ZBYN,1983-05-07 10:00,ZBYN 071000Z AUTO 32017KT 6SM 28/M09 A2985 RMK T02801090 IEM_DS3505
ZBYN,1983-05-07 12:00,ZBYN 071200Z AUTO 27006KT 19SM 22/M02 RMK SLP101 T02201018 52018 IEM_DS3505
ZBYN,1983-05-07 15:00,ZBYN 071500Z AUTO 09004KT 12SM 15/01 RMK SLP108 T01510014 52009 IEM_DS3505
ZBYN,1983-05-07 18:00,ZBYN 071800Z AUTO 00000KT 12SM 11/02 RMK SLP100 T01120018 40290//// 52006 IEM_DS3505
ZBYN,1983-05-07 21:00,ZBYN 072100Z AUTO 00000KT 9SM 08/01 RMK SLP118 T00850010 52004 IEM_DS3505
ZBYN,1983-05-08 00:00,ZBYN 080000Z AUTO 34004KT 4SM 14/04 RMK SLP132 T01440039 52012 IEM_DS3505
ZBYN,1983-05-08 03:00,ZBYN 080300Z AUTO 18004KT 6SM 24/04 RMK SLP118 T02390043 57009 IEM_DS3505
ZBYN,1983-05-08 06:00,ZBYN 080600Z AUTO 22006KT 16SM 29/M04 RMK SLP076 T02931039 4////0072 57035 IEM_DS3505
ZBYN,1983-05-08 09:00,ZBYN 080900Z AUTO 18006KT 16SM 30/M00 RMK SLP054 T02961003 57024 IEM_DS3505
ZBYN,1983-05-08 12:00,ZBYN 081200Z AUTO 20004KT 12SM 24/M01 RMK SLP057 T02421006 52004 IEM_DS3505
ZBYN,1983-05-08 15:00,ZBYN 081500Z AUTO 18006KT 14SM 22/06 RMK SLP050 T02240059 52003 IEM_DS3505
ZBYN,1983-05-08 18:00,ZBYN 081800Z AUTO 29002KT 9SM 18/05 RMK SLP055 T01760049 40301//// 52006 IEM_DS3505
ZBYN,1983-05-08 21:00,ZBYN 082100Z AUTO 14004KT 9SM 15/05 RMK SLP051 T01500048 57007 IEM_DS3505
ZBYN,1983-05-09 00:00,ZBYN 090000Z AUTO 18004KT 9SM 18/08 RMK SLP060 T01820083 52005 IEM_DS3505
ZBYN,1983-05-09 03:00,ZBYN 090300Z AUTO 18008KT 12SM 26/08 RMK SLP039 T02570080 57011 IEM_DS3505
ZBYN,1983-05-09 06:00,ZBYN 090600Z AUTO 20006KT 12SM 31/07 RMK SLP006 T03100071 4////0132 57029 IEM_DS3505
ZBYN,1983-05-09 09:00,ZBYN 090900Z AUTO 22010KT 12SM 31/04 RMK SLP991 T03060044 57018 IEM_DS3505
ZBYN,1983-05-09 12:00,ZBYN 091200Z AUTO 20006KT 12SM 21/01 RMK SLP002 T02080009 52009 IEM_DS3505
ZBYN,1983-05-09 15:00,ZBYN 091500Z AUTO 20010KT 12SM 25/06 RMK SLP001 T02460057 52006 IEM_DS3505
ZBYN,1983-05-09 18:00,ZBYN 091800Z AUTO 11006KT 12SM 20/05 RMK SLP006 T01980053 40321//// 52006 IEM_DS3505
ZBYN,1983-05-09 21:00,ZBYN 092100Z AUTO 16004KT 9SM 16/08 RMK SLP021 T01550075 52007 IEM_DS3505
ZBYN,1983-05-10 00:00,ZBYN 100000Z AUTO 16004KT 12SM 19/11 RMK SLP035 T01940111 52013 IEM_DS3505
ZBYN,1983-05-10 02:00,ZBYN 100200Z AUTO 19012KT 6SM 26/08 A2977 RMK T02600080 IEM_DS3505
ZBYN,1983-05-10 03:00,ZBYN 100300Z AUTO 18012KT 11SM 27/08 A2977 RMK SLP021 T02660081 57006 IEM_DS3505
ZBYN,1983-05-10 04:00,ZBYN 100400Z AUTO 20012KT 6SM 29/09 A2974 RMK T02900090 IEM_DS3505
ZBYN,1983-05-10 06:00,ZBYN 100600Z AUTO 18010KT 16SM 31/07 A2968 RMK SLP994 T03140072 4////0150 57024 IEM_DS3505
ZBYN,1983-05-10 07:00,ZBYN 100700Z AUTO 22016KT 6SM 33/06 A2965 RMK T03300060 IEM_DS3505
ZBYN,1983-05-10 08:00,ZBYN 100800Z AUTO 21014KT 6SM 33/06 A2965 RMK T03300060 IEM_DS3505
ZBYN,1983-05-10 09:00,ZBYN 100900Z AUTO 20008KT 16SM 32/01 A2965 RMK SLP980 T03240012 57018 IEM_DS3505
ZBYN,1983-05-10 10:00,ZBYN 101000Z AUTO 20008KT 6SM 31/08 A2965 RMK T03100080 IEM_DS3505
ZBYN,1983-05-10 12:00,ZBYN 101200Z AUTO 18004KT 11SM 25/07 RMK SLP990 T02530069 52005 IEM_DS3505
ZBYN,1983-05-10 15:00,ZBYN 101500Z AUTO 11004KT 11SM 20/05 RMK SLP006 T02030051 52017 IEM_DS3505
ZBYN,1983-05-10 18:00,ZBYN 101800Z AUTO 14004KT 12SM 19/08 RMK SLP003 T01940078 40333//// 52003 IEM_DS3505
ZBYN,1983-05-10 21:00,ZBYN 102100Z AUTO 9SM 18/11 RMK SLP006 T01800108 52002 IEM_DS3505
ZBYN,1983-05-11 00:00,ZBYN 110000Z AUTO 00000KT 6SM RMK SLP025 52011 IEM_DS3505
ZBYN,1983-05-11 03:00,ZBYN 110300Z AUTO 16006KT 12SM 26/12 RMK SLP020 T02630120 57003 IEM_DS3505
ZBYN,1983-05-11 06:00,ZBYN 110600Z AUTO 18008KT 12SM 30/11 RMK SLP995 T02960110 4////0146 57020 IEM_DS3505
ZBYN,1983-05-11 09:00,ZBYN 110900Z AUTO 09006KT 9SM 29/11 RMK SLP983 T02920106 57013 IEM_DS3505
ZBYN,1983-05-11 12:00,ZBYN 111200Z AUTO 29004KT 9SM 19/14 RMK 60016 SLP033 T01900144 52034 IEM_DS3505
ZBYN,1983-05-11 15:00,ZBYN 111500Z AUTO 00000KT 9SM 17/15 RMK SLP044 T01730148 52016 IEM_DS3505
ZBYN,1983-05-11 18:00,ZBYN 111800Z AUTO 00000KT 9SM 16/14 RMK SLP041 T01590144 40306//// 54000 IEM_DS3505
ZBYN,1983-05-11 21:00,ZBYN 112100Z AUTO 34004KT 7SM 15/14 RMK 70016 SLP046 T01540136 52004 IEM_DS3505
ZBYN,1983-05-12 00:00,ZBYN 120000Z AUTO 32004KT 5SM 17/14 RMK 70016 SLP076 T01740139 52015 IEM_DS3505
ZBYN,1983-05-12 01:00,ZBYN 120100Z AUTO 29008KT 12SM 24/ RMK SLP072 57004 IEM_DS3505
ZBYN,1983-05-12 03:00,ZBYN 120300Z AUTO 27004KT 5SM 23/15 RMK SLP075 T02340148 52006 IEM_DS3505
ZBYN,1983-05-12 06:00,ZBYN 120600Z AUTO 29008KT 12SM 24/01 RMK SLP072 T02440010 4////0142 57004 IEM_DS3505
ZBYN,1983-05-12 09:00,ZBYN 120900Z AUTO 18010KT 12SM 22/05 RMK SLP078 T02150051 52001 IEM_DS3505
ZBYN,1983-05-12 12:00,ZBYN 121200Z AUTO 18006KT 16SM 17/08 RMK SLP093 T01700082 52010 IEM_DS3505
ZBYN,1983-05-12 18:00,ZBYN 121800Z AUTO 32002KT 12SM 12/08 RMK SLP121 T01220081 40254//// 52004 IEM_DS3505
ZBYN,1983-05-12 21:00,ZBYN 122100Z AUTO 32006KT 9SM 12/03 RMK SLP146 T01240034 52019 IEM_DS3505
ZBYN,1983-05-13 00:00,ZBYN 130000Z AUTO 36006KT 12SM 15/04 RMK SLP161 T01530041 52011 IEM_DS3505
ZBYN,1983-05-13 01:00,ZBYN 130100Z AUTO 07008KT 16SM 22/ RMK SLP124 57022 IEM_DS3505
ZBYN,1983-05-13 03:00,ZBYN 130300Z AUTO 09012KT 9SM 20/09 RMK SLP147 T02000091 57009 IEM_DS3505
ZBYN,1983-05-13 06:00,ZBYN 130600Z AUTO 07008KT 16SM 22/06 RMK SLP124 T02170064 4////0107 57022 IEM_DS3505
ZBYN,1983-05-13 09:00,ZBYN 130900Z AUTO 09008KT 16SM 20/04 RMK SLP116 T01960043 57011 IEM_DS3505
ZBYN,1983-05-13 12:00,ZBYN 131200Z AUTO 16006KT 6SM 15/10 RMK 60008 SLP150 T01460103 52029 IEM_DS3505
ZBYN,1983-05-13 15:00,ZBYN 131500Z AUTO 34004KT 6SM 12/11 RMK SLP162 T01250112 52015 IEM_DS3505
ZBYN,1983-05-13 18:00,ZBYN 131800Z AUTO 32006KT 6SM 12/11 RMK 60063 SLP158 T01160106 40223//// 57003 IEM_DS3505
ZBYN,1983-05-13 21:00,ZBYN 132100Z AUTO 00000KT 4SM 10/10 RMK SLP167 T01050096 52004 IEM_DS3505
ZBYN,1983-05-14 00:00,ZBYN 140000Z AUTO 34008KT 4SM 10/09 RMK 60091 70161 SLP187 T01030091 52010 IEM_DS3505
ZBYN,1983-05-14 03:00,ZBYN 140300Z AUTO 29004KT 4SM 11/09 RMK SLP207 T01070086 52016 IEM_DS3505
ZBYN,1983-05-14 04:00,ZBYN 140400Z AUTO 08008KT 7SM 10/08 A3015 RMK T01000080 IEM_DS3505
ZBYN,1983-05-14 06:00,ZBYN 140600Z AUTO 22006KT 16SM 12/09 A3012 RMK 60031 SLP191 T01160086 4////0099 57014 IEM_DS3505
ZBYN,1983-05-14 07:00,ZBYN 140700Z AUTO 00000KT 7SM 12/09 A3012 RMK T01200090 IEM_DS3505
ZBYN,1983-05-14 08:00,ZBYN 140800Z AUTO 28006KT 6SM 12/08 A3006 RMK T01200080 IEM_DS3505
ZBYN,1983-05-14 09:00,ZBYN 140900Z AUTO 00000KT 12SM 13/08 A3006 RMK SLP175 T01320082 57014 IEM_DS3505
ZBYN,1983-05-14 10:00,ZBYN 141000Z AUTO 00000KT 6SM 13/08 A3006 RMK T01300080 IEM_DS3505
ZBYN,1983-05-14 12:00,ZBYN 141200Z AUTO 00000KT 12SM 12/09 RMK SLP191 T01160090 52011 IEM_DS3505
ZBYN,1983-05-14 15:00,ZBYN 141500Z AUTO 11002KT 9SM 10/08 RMK SLP208 T00970078 52013 IEM_DS3505
ZBYN,1983-05-14 18:00,ZBYN 141800Z AUTO 00000KT 9SM 07/07 RMK SLP207 T00740067 40135//// 57003 IEM_DS3505
ZBYN,1983-05-14 21:00,ZBYN 142100Z AUTO 00000KT 3/8SM 06/05 RMK SLP207 T00550053 54000 IEM_DS3505
ZBYN,1983-05-15 00:00,ZBYN 150000Z AUTO 00000KT 2SM 09/09 RMK 70031 SLP215 T00930086 52010 IEM_DS3505
ZBYN,1983-05-15 03:00,ZBYN 150300Z AUTO 16004KT 5SM 15/10 RMK SLP208 T01530095 54000 IEM_DS3505
ZBYN,1983-05-15 06:00,ZBYN 150600Z AUTO 18008KT 9SM 19/13 RMK SLP181 T01900126 4////0046 57023 IEM_DS3505
ZBYN,1983-05-15 09:00,ZBYN 150900Z AUTO 20008KT 11SM 21/07 RMK SLP162 T02070074 57017 IEM_DS3505
ZBYN,1983-05-15 12:00,ZBYN 151200Z AUTO 18004KT 9SM 17/08 RMK SLP165 T01700082 52003 IEM_DS3505
ZBYN,1983-05-15 15:00,ZBYN 151500Z AUTO 11004KT 9SM 13/09 RMK SLP175 T01310088 52012 IEM_DS3505
ZBYN,1983-05-15 18:00,ZBYN 151800Z AUTO 00000KT 9SM 11/08 RMK SLP172 T01080075 40211//// 54000 IEM_DS3505
ZBYN,1983-05-15 21:00,ZBYN 152100Z AUTO 00000KT 7SM 09/07 RMK T00860071 52001 IEM_DS3505
ZBYN,1983-05-16 00:00,ZBYN 160000Z AUTO 00000KT 6SM 13/09 RMK SLP184 T01320090 52010 IEM_DS3505
ZBYN,1983-05-16 03:00,ZBYN 160300Z AUTO 18004KT 9SM 18/10 RMK SLP181 T01810101 57001 IEM_DS3505
ZBYN,1983-05-16 06:00,ZBYN 160600Z AUTO 20004KT 16SM 23/12 RMK SLP150 T02290123 4////0075 57024 IEM_DS3505
ZBYN,1983-05-16 09:00,ZBYN 160900Z AUTO 34008KT 16SM 21/06 RMK SLP147 T02100059 57010 IEM_DS3505
ZBYN,1983-05-16 12:00,ZBYN 161200Z AUTO 09002KT 7SM 17/11 RMK SLP147 T01720113 52001 IEM_DS3505
ZBYN,1983-05-16 15:00,ZBYN 161500Z AUTO 00000KT 6SM 15/11 RMK SLP162 T01500108 52019 IEM_DS3505
ZBYN,1983-05-16 18:00,ZBYN 161800Z AUTO 14006KT 9SM 14/09 RMK SLP153 T01360086 40245//// 57004 IEM_DS3505
ZBYN,1983-05-16 21:00,ZBYN 162100Z AUTO 00000KT 9SM 10/08 RMK SLP157 T01000081 57004 IEM_DS3505
ZBYN,1983-05-17 00:00,ZBYN 170000Z AUTO 00000KT 6SM 14/10 RMK SLP161 T01410101 52004 IEM_DS3505
ZBYN,1983-05-17 03:00,ZBYN 170300Z AUTO 16006KT 7SM 19/11 RMK SLP147 T01880107 57009 IEM_DS3505
ZBYN,1983-05-17 04:00,ZBYN 170400Z AUTO 19008KT 6SM 21/09 A3003 RMK T02100090 IEM_DS3505
ZBYN,1983-05-17 05:00,ZBYN 170500Z AUTO 19004KT 6SM 22/10 A2997 RMK T02200100 IEM_DS3505
ZBYN,1983-05-17 06:00,ZBYN 170600Z AUTO 18010KT 9SM 22/11 A2994 RMK SLP110 T02220107 4////0090 57031 IEM_DS3505
ZBYN,1983-05-17 07:00,ZBYN 170700Z AUTO 20012KT 6SM 24/04 A2988 RMK T02400040 IEM_DS3505
ZBYN,1983-05-17 09:00,ZBYN 170900Z AUTO 20008KT 16SM 22/09 A2985 RMK SLP086 T02230088 57027 IEM_DS3505
ZBYN,1983-05-17 10:00,ZBYN 171000Z AUTO 23008KT 7SM 22/08 A2985 RMK T02200080 IEM_DS3505
ZBYN,1983-05-17 12:00,ZBYN 171200Z AUTO 14004KT 9SM 20/08 RMK SLP075 T02040075 57006 IEM_DS3505
ZBYN,1983-05-17 15:00,ZBYN 171500Z AUTO 18004KT 9SM 17/10 RMK SLP080 T01730095 52006 IEM_DS3505
ZBYN,1983-05-17 18:00,ZBYN 171800Z AUTO 11002KT 9SM 16/11 RMK SLP073 T01590107 40232//// 57004 IEM_DS3505
ZBYN,1983-05-17 21:00,ZBYN 172100Z AUTO 11006KT 9SM 14/10 RMK SLP066 T01450105 57008 IEM_DS3505
ZBYN,1983-05-18 00:00,ZBYN 180000Z AUTO 29006KT 6SM 15/10 RMK SLP053 T01520099 52023 IEM_DS3505
ZBYN,1983-05-18 03:00,ZBYN 180300Z AUTO 02008KT 6SM 22/11 RMK SLP083 T02240112 57003 IEM_DS3505
ZBYN,1983-05-18 06:00,ZBYN 180600Z AUTO 29004KT 12SM 22/06 RMK SLP079 T02250057 4////0128 57006 IEM_DS3505
ZBYN,1983-05-18 09:00,ZBYN 180900Z AUTO 22006KT 12SM 24/08 RMK SLP068 T02440080 57009 IEM_DS3505
ZBYN,1983-05-18 12:00,ZBYN 181200Z AUTO 18004KT 16SM 20/09 RMK SLP078 T02000091 52004 IEM_DS3505
ZBYN,1983-05-18 15:00,ZBYN 181500Z AUTO 22002KT 9SM 14/10 RMK SLP096 T01430105 52018 IEM_DS3505
ZBYN,1983-05-18 18:00,ZBYN 181800Z AUTO 00000KT 4SM 12/09 RMK SLP090 T01220093 40253//// 57008 IEM_DS3505
ZBYN,1983-05-18 21:00,ZBYN 182100Z AUTO 00000KT 5SM 10/09 RMK SLP092 T01000088 52001 IEM_DS3505
ZBYN,1983-05-19 00:00,ZBYN 190000Z AUTO 00000KT 6SM 14/09 RMK SLP092 T01370090 54000 IEM_DS3505
ZBYN,1983-05-19 03:00,ZBYN 190300Z AUTO 20004KT 9SM 20/10 RMK SLP089 T02000098 57011 IEM_DS3505
ZBYN,1983-05-19 06:00,ZBYN 190600Z AUTO 18004KT 16SM 22/09 RMK SLP051 T02150090 4////0095 57026 IEM_DS3505
ZBYN,1983-05-19 09:00,ZBYN 190900Z AUTO 11004KT 16SM 20/11 RMK SLP034 T02050107 57021 IEM_DS3505
ZBYN,1983-05-19 12:00,ZBYN 191200Z AUTO 16004KT 16SM 18/11 RMK SLP025 T01840108 57006 IEM_DS3505
ZBYN,1983-05-19 15:00,ZBYN 191500Z AUTO 22008KT 12SM 16/09 RMK SLP026 T01630088 52006 IEM_DS3505
ZBYN,1983-05-19 18:00,ZBYN 191800Z AUTO 16006KT 9SM 14/09 RMK SLP019 T01420094 40222//// 57007 IEM_DS3505
ZBYN,1983-05-19 21:00,ZBYN 192100Z AUTO 00000KT 6SM 12/10 RMK SLP020 T01200096 57003 IEM_DS3505
ZBYN,1983-05-20 00:00,ZBYN 200000Z AUTO 04004KT 12SM 15/11 RMK SLP034 T01530106 52015 IEM_DS3505
ZBYN,1983-05-20 03:00,ZBYN 200300Z AUTO 20006KT 5SM 21/13 RMK SLP025 T02060129 57005 IEM_DS3505
ZBYN,1983-05-20 06:00,ZBYN 200600Z AUTO 20008KT 16SM 25/16 RMK SLP000 T02540160 4////0112 57018 IEM_DS3505
ZBYN,1983-05-20 09:00,ZBYN 200900Z AUTO 29008KT 16SM 29/02 RMK SLP995 T02910018 57002 IEM_DS3505
ZBYN,1983-05-20 12:00,ZBYN 201200Z AUTO 00000KT 12SM 24/07 RMK SLP020 T02440069 52021 IEM_DS3505
ZBYN,1983-05-20 15:00,ZBYN 201500Z AUTO 09004KT 11SM 21/12 RMK SLP050 T02100115 52029 IEM_DS3505
ZBYN,1983-05-20 18:00,ZBYN 201800Z AUTO 00000KT 9SM 18/12 RMK SLP069 T01750125 40296//// 52019 IEM_DS3505
ZBYN,1983-05-20 21:00,ZBYN 202100Z AUTO 36004KT 6SM 17/12 RMK SLP076 T01710124 52011 IEM_DS3505
ZBYN,1983-05-21 00:00,ZBYN 210000Z AUTO 29004KT 5SM 18/14 RMK SLP104 T01850140 52021 IEM_DS3505
ZBYN,1983-05-21 03:00,ZBYN 210300Z AUTO 07012KT 6SM 22/13 A2997 RMK SLP104 T02200130 52001 IEM_DS3505
ZBYN,1983-05-21 04:00,ZBYN 210400Z AUTO 07006KT 6SM 23/13 A2994 RMK T02300130 IEM_DS3505
ZBYN,1983-05-21 05:00,ZBYN 210500Z AUTO 04008KT 6SM 24/14 A2994 RMK T02400140 IEM_DS3505
ZBYN,1983-05-21 06:00,ZBYN 210600Z AUTO 6SM 24/13 A2994 RMK SLP095 T02390133 4////0161 57011 IEM_DS3505
ZBYN,1983-05-21 08:00,ZBYN 210800Z AUTO 06010KT 7SM 20/13 A2994 RMK T02000130 IEM_DS3505
ZBYN,1983-05-21 09:00,ZBYN 210900Z AUTO 08010KT 7SM 19/13 A2988 RMK SLP106 T01900130 52002 IEM_DS3505
ZBYN,1983-05-21 12:00,ZBYN 211200Z AUTO 34008KT 5SM 14/12 RMK 60028 SLP146 T01350119 52031 IEM_DS3505
ZBYN,1983-05-21 15:00,ZBYN 211500Z AUTO 04004KT 4SM 13/12 RMK SLP146 T01280121 52004 IEM_DS3505
ZBYN,1983-05-21 18:00,ZBYN 211800Z AUTO 18004KT 4SM 12/12 RMK 60059 SLP143 T01240119 40245//// 57001 IEM_DS3505
ZBYN,1983-05-21 21:00,ZBYN 212100Z AUTO 34004KT 4SM 13/12 RMK 70098 SLP143 T01270122 57008 IEM_DS3505
ZBYN,1983-05-22 00:00,ZBYN 220000Z AUTO 32002KT 4SM 13/12 RMK 60012 70098 SLP154 T01340121 52005 IEM_DS3505
ZBYN,1983-05-22 06:00,ZBYN 220600Z AUTO 32006KT 9SM 16/13 RMK 60004 SLP146 T01620132 4////0120 57013 IEM_DS3505
ZBYN,1983-05-22 09:00,ZBYN 220900Z AUTO 11010KT 12SM 16/12 RMK SLP153 T01650120 52008 IEM_DS3505
ZBYN,1983-05-22 12:00,ZBYN 221200Z AUTO 09006KT 7SM 15/11 RMK SLP144 T01530114 57010 IEM_DS3505
ZBYN,1983-05-22 15:00,ZBYN 221500Z AUTO 09006KT 7SM 14/11 RMK SLP159 T01420114 52012 IEM_DS3505
ZBYN,1983-05-22 18:00,ZBYN 221800Z AUTO 32004KT 7SM 15/11 RMK SLP150 T01470106 40181//// 57003 IEM_DS3505
ZBYN,1983-05-22 21:00,ZBYN 222100Z AUTO 00000KT 7SM 14/11 RMK SLP150 T01360110 57001 IEM_DS3505
ZBYN,1983-05-23 00:00,ZBYN 230000Z AUTO 11004KT 6SM 15/12 RMK 70004 SLP160 T01540122 52010 IEM_DS3505
ZBYN,1983-05-23 03:00,ZBYN 230300Z AUTO 07004KT 11SM 19/11 RMK SLP151 T01860113 57005 IEM_DS3505
ZBYN,1983-05-23 06:00,ZBYN 230600Z AUTO 07008KT 12SM 20/12 RMK SLP129 T02010120 4////0127 57017 IEM_DS3505
ZBYN,1983-05-23 09:00,ZBYN 230900Z AUTO 00000KT 16SM 20/13 RMK SLP126 T02000130 57005 IEM_DS3505
ZBYN,1983-05-23 12:00,ZBYN 231200Z AUTO 00000KT 9SM 18/13 RMK SLP138 T01780130 52011 IEM_DS3505
ZBYN,1983-05-23 18:00,ZBYN 231800Z AUTO 02004KT 6SM 15/14 RMK SLP137 T01490136 40204//// 57005 IEM_DS3505
ZBYN,1983-05-23 21:00,ZBYN 232100Z AUTO 32006KT 5SM 16/12 RMK SLP138 T01600120 52003 IEM_DS3505
ZBYN,1983-05-24 00:00,ZBYN 240000Z AUTO 04004KT 7SM 16/14 RMK 60004 SLP161 T01600137 52018 IEM_DS3505
ZBYN,1983-05-24 03:00,ZBYN 240300Z AUTO 34004KT 8SM 21/13 RMK SLP160 T02080126 52003 IEM_DS3505
ZBYN,1983-05-24 04:00,ZBYN 240400Z AUTO 16004KT 6SM 22/14 A3006 RMK T02200140 IEM_DS3505
ZBYN,1983-05-24 05:00,ZBYN 240500Z AUTO 10014KT 6SM 24/11 A3006 RMK T02400110 IEM_DS3505
ZBYN,1983-05-24 06:00,ZBYN 240600Z AUTO 07010KT 6SM 24/09 A3006 RMK SLP143 T02400090 4////0142 57013 IEM_DS3505
ZBYN,1983-05-24 07:00,ZBYN 240700Z AUTO 08014KT 6SM 24/09 A3003 RMK T02400090 IEM_DS3505
ZBYN,1983-05-24 08:00,ZBYN 240800Z AUTO 09010KT 6SM 24/10 A3003 RMK T02400100 IEM_DS3505
ZBYN,1983-05-24 09:00,ZBYN 240900Z AUTO 09008KT 16SM 24/11 A3003 RMK SLP139 T02350106 57002 IEM_DS3505
ZBYN,1983-05-24 10:00,ZBYN 241000Z AUTO 6SM 23/13 A3003 RMK T02300130 IEM_DS3505
ZBYN,1983-05-24 11:00,ZBYN 241100Z AUTO 08014KT 6SM 21/12 A3006 RMK T02100120 IEM_DS3505
ZBYN,1983-05-24 12:00,ZBYN 241200Z AUTO 11008KT 12SM 20/11 RMK SLP167 T02020114 52020 IEM_DS3505
ZBYN,1983-05-24 15:00,ZBYN 241500Z AUTO 09004KT 12SM 18/11 RMK SLP187 T01780108 52023 IEM_DS3505
ZBYN,1983-05-24 21:00,ZBYN 242100Z AUTO 04004KT 9SM 17/12 RMK SLP189 T01680125 52001 IEM_DS3505
ZBYN,1983-05-25 00:00,ZBYN 250000Z AUTO 25004KT 6SM 16/13 RMK 60001 SLP208 T01590130 52011 IEM_DS3505
ZBYN,1983-05-25 03:00,ZBYN 250300Z AUTO 32004KT 9SM 19/10 RMK SLP201 T01880105 57005 IEM_DS3505
ZBYN,1983-05-25 06:00,ZBYN 250600Z AUTO 27002KT 9SM 21/09 RMK 60001 SLP177 T02070091 4////0157 57020 IEM_DS3505
ZBYN,1983-05-25 09:00,ZBYN 250900Z AUTO 36004KT 6SM 18/11 RMK SLP168 T01850114 57012 IEM_DS3505
ZBYN,1983-05-25 12:00,ZBYN 251200Z AUTO 00000KT 7SM 17/12 RMK SLP169 T01720124 57002 IEM_DS3505
ZBYN,1983-05-25 15:00,ZBYN 251500Z AUTO 20004KT 7SM 16/13 RMK SLP170 T01580133 52003 IEM_DS3505
ZBYN,1983-05-25 18:00,ZBYN 251800Z AUTO 11006KT 6SM 14/13 RMK 60001 SLP158 T01410130 40210//// 57011 IEM_DS3505
ZBYN,1983-05-25 21:00,ZBYN 252100Z AUTO 16004KT 4SM 13/12 RMK 70024 SLP155 T01290124 57007 IEM_DS3505
ZBYN,1983-05-26 00:00,ZBYN 260000Z AUTO 20006KT 4SM 14/13 RMK 60039 70039 SLP155 T01420126 57002 IEM_DS3505
ZBYN,1983-05-26 03:00,ZBYN 260300Z AUTO 18004KT 6SM 15/13 RMK SLP153 T01500132 57001 IEM_DS3505
ZBYN,1983-05-26 06:00,ZBYN 260600Z AUTO 18004KT 7SM 16/14 RMK 60004 SLP137 T01630142 4////0127 57016 IEM_DS3505
ZBYN,1983-05-26 09:00,ZBYN 260900Z AUTO 14006KT 12SM 19/14 RMK SLP122 T01860145 57012 IEM_DS3505
ZBYN,1983-05-26 12:00,ZBYN 261200Z AUTO 18006KT 9SM 17/14 RMK SLP126 T01670137 52002 IEM_DS3505
ZBYN,1983-05-26 15:00,ZBYN 261500Z AUTO 11004KT 12SM 14/12 RMK SLP141 T01440119 52012 IEM_DS3505
ZBYN,1983-05-26 18:00,ZBYN 261800Z AUTO 14004KT 12SM 13/11 RMK SLP131 T01270114 40187//// 57010 IEM_DS3505
ZBYN,1983-05-26 21:00,ZBYN 262100Z AUTO 00000KT 4SM 11/11 RMK SLP124 T01130107 57004 IEM_DS3505
ZBYN,1983-05-27 00:00,ZBYN 270000Z AUTO 00000KT 4SM 12/12 RMK 70004 SLP131 T01240116 52005 IEM_DS3505
ZBYN,1983-05-27 01:00,ZBYN 270100Z AUTO 00000KT 4SM 12/12 RMK SLP131 T01240116 52005 IEM_DS3505
ZBYN,1983-05-27 06:00,ZBYN 270600Z AUTO 18006KT 9SM 23/17 RMK SLP082 T02340166 4////0107 57025 IEM_DS3505
ZBYN,1983-05-27 09:00,ZBYN 270900Z AUTO 20008KT 9SM 26/17 RMK SLP057 T02560170 57022 IEM_DS3505
ZBYN,1983-05-27 12:00,ZBYN 271200Z AUTO 20006KT 7SM 23/15 RMK T02280154 57006 IEM_DS3505
ZBYN,1983-05-27 15:00,ZBYN 271500Z AUTO 09008KT 6SM 18/15 RMK T01750148 52016 IEM_DS3505
ZBYN,1983-05-27 18:00,ZBYN 271800Z AUTO 14006KT 5SM 16/14 RMK SLP066 T01560138 40257//// IEM_DS3505
ZBYN,1983-05-27 21:00,ZBYN 272100Z AUTO 00000KT 4SM 14/13 RMK SLP066 T01360132 52001 IEM_DS3505
ZBYN,1983-05-28 00:00,ZBYN 280000Z AUTO 09004KT 6SM 17/14 RMK SLP074 T01670145 52007 IEM_DS3505
ZBYN,1983-05-28 03:00,ZBYN 280300Z AUTO 16006KT 6SM 22/14 A2988 RMK SLP060 T02170141 57013 IEM_DS3505
ZBYN,1983-05-28 04:00,ZBYN 280400Z AUTO 15008KT 7SM 24/13 A2980 RMK T02400130 IEM_DS3505
ZBYN,1983-05-28 05:00,ZBYN 280500Z AUTO 16008KT 7SM 26/14 A2977 RMK T02600140 IEM_DS3505
ZBYN,1983-05-28 06:00,ZBYN 280600Z AUTO 20004KT 7SM 27/15 A2974 RMK SLP025 T02690148 4////0133 57027 IEM_DS3505
ZBYN,1983-05-28 07:00,ZBYN 280700Z AUTO 19010KT 7SM 29/15 A2968 RMK T02900150 IEM_DS3505
ZBYN,1983-05-28 08:00,ZBYN 280800Z AUTO 21006KT 7SM 29/15 A2968 RMK T02900150 IEM_DS3505
ZBYN,1983-05-28 09:00,ZBYN 280900Z AUTO 22004KT 19SM 29/15 RMK SLP998 T02870147 57025 IEM_DS3505
ZBYN,1983-05-28 12:00,ZBYN 281200Z AUTO 16004KT 16SM 24/15 RMK SLP002 T02440154 52002 IEM_DS3505
ZBYN,1983-05-28 15:00,ZBYN 281500Z AUTO 11006KT 12SM 20/12 RMK SLP020 T01960115 52017 IEM_DS3505
ZBYN,1983-05-28 18:00,ZBYN 281800Z AUTO 00000KT 12SM 16/13 RMK SLP015 T01620130 40288//// 57002 IEM_DS3505
ZBYN,1983-05-28 21:00,ZBYN 282100Z AUTO 00000KT 6SM 14/12 RMK SLP016 T01420124 54000 IEM_DS3505
ZBYN,1983-05-29 00:00,ZBYN 290000Z AUTO 32002KT 5SM 18/13 RMK SLP021 T01830130 52004 IEM_DS3505
ZBYN,1983-05-29 03:00,ZBYN 290300Z AUTO 00000KT 6SM 24/16 RMK SLP020 T02440157 52001 IEM_DS3505
ZBYN,1983-05-29 06:00,ZBYN 290600Z AUTO 18004KT 6SM 27/16 RMK SLP001 T02700163 4////0137 57018 IEM_DS3505
ZBYN,1983-05-29 09:00,ZBYN 290900Z AUTO 18002KT 6SM 26/18 RMK SLP989 T02600184 57015 IEM_DS3505
ZBYN,1983-05-29 12:00,ZBYN 291200Z AUTO 14004KT 9SM 23/17 RMK SLP998 T02310168 52010 IEM_DS3505
ZBYN,1983-05-29 15:00,ZBYN 291500Z AUTO 00000KT 6SM 19/17 RMK SLP012 T01880167 52015 IEM_DS3505
ZBYN,1983-05-29 18:00,ZBYN 291800Z AUTO 00000KT 4SM 16/15 RMK SLP014 T01620152 40273//// 52002 IEM_DS3505
ZBYN,1983-05-29 21:00,ZBYN 292100Z AUTO 00000KT 2 1/2SM 15/14 RMK SLP017 T01470144 57001 IEM_DS3505
ZBYN,1983-05-30 00:00,ZBYN 300000Z AUTO 00000KT 5SM RMK SLP036 52019 IEM_DS3505
ZBYN,1983-05-30 03:00,ZBYN 300300Z AUTO 18004KT 5SM 25/15 RMK SLP034 T02480151 54000 IEM_DS3505
ZBYN,1983-05-30 06:00,ZBYN 300600Z AUTO 18006KT 7SM 29/14 RMK SLP013 T02870143 4////0135 57017 IEM_DS3505
ZBYN,1983-05-30 09:00,ZBYN 300900Z AUTO 18004KT 9SM 31/16 RMK SLP002 T03070163 57009 IEM_DS3505
ZBYN,1983-05-30 12:00,ZBYN 301200Z AUTO 11004KT 9SM 26/18 RMK SLP012 T02580185 52006 IEM_DS3505
ZBYN,1983-05-30 15:00,ZBYN 301500Z AUTO 14002KT 9SM 22/16 RMK SLP030 T02160162 52020 IEM_DS3505
ZBYN,1983-05-30 18:00,ZBYN 301800Z AUTO 11004KT 10SM 20/14 RMK SLP035 T02000144 40308//// 52008 IEM_DS3505
ZBYN,1983-05-30 21:00,ZBYN 302100Z AUTO 00000KT 6SM 18/16 RMK SLP050 T01750157 52013 IEM_DS3505
ZBYN,1983-05-31 00:00,ZBYN 310000Z AUTO 32004KT 4SM 20/16 RMK SLP057 T02050157 52004 IEM_DS3505
ZBYN,1983-05-31 03:00,ZBYN 310300Z AUTO 07010G19KT 6SM 27/17 A2985 RMK SLP059 T02700170 52004 IEM_DS3505
ZBYN,1983-05-31 04:00,ZBYN 310400Z AUTO 07017KT 6SM 28/06 A2985 RMK T02800060 IEM_DS3505
ZBYN,1983-05-31 05:00,ZBYN 310500Z AUTO 09012KT 6SM 27/05 A2980 RMK T02700050 IEM_DS3505
ZBYN,1983-05-31 06:00,ZBYN 310600Z AUTO 07010KT 9SM 28/07 RMK SLP052 T02780072 4////0173 57006 IEM_DS3505
ZBYN,1983-05-31 08:00,ZBYN 310800Z AUTO 09016KT 6SM 27/08 A2980 RMK T02700080 IEM_DS3505
ZBYN,1983-05-31 09:00,ZBYN 310900Z AUTO 04012KT 9SM 27/07 RMK SLP055 T02660072 57003 IEM_DS3505
ZBYN,1983-05-31 12:00,ZBYN 311200Z AUTO 00000KT 7SM 22/12 RMK SLP075 T02160121 52016 IEM_DS3505
ZBYN,1983-05-31 15:00,ZBYN 311500Z AUTO 00000KT 9SM 21/12 RMK SLP076 T02080122 52008 IEM_DS3505
ZBYN,1983-05-31 18:00,ZBYN 311800Z AUTO 00000KT 9SM 19/14 RMK SLP076 T01870135 40282//// 57001 IEM_DS3505
ZBYN,1983-05-31 21:00,ZBYN 312100Z AUTO 00000KT 9SM 18/11 RMK SLP075 T01800113 57004 IEM_DS3505
ZBYN,1983-06-01 00:00,ZBYN 010000Z AUTO 36004KT 6SM 19/11 RMK SLP080 T01940113 57001 IEM_DS3505
ZBYN,1983-06-01 03:00,ZBYN 010300Z AUTO 20004KT 6SM 24/14 RMK SLP066 T02440138 57006 IEM_DS3505
ZBYN,1983-06-01 06:00,ZBYN 010600Z AUTO 00000KT 12SM 28/14 RMK SLP047 T02760138 4////0176 57016 IEM_DS3505
ZBYN,1983-06-01 09:00,ZBYN 010900Z AUTO 25002KT 16SM 28/13 RMK SLP027 T02800126 57019 IEM_DS3505
ZBYN,1983-06-01 12:00,ZBYN 011200Z AUTO 14004KT 11SM 25/16 RMK SLP041 T02500161 52010 IEM_DS3505
ZBYN,1983-06-01 15:00,ZBYN 011500Z AUTO 00000KT 9SM 22/16 RMK SLP050 T02240165 52012 IEM_DS3505
ZBYN,1983-06-01 18:00,ZBYN 011800Z AUTO 14004KT 7SM 19/16 RMK SLP042 T01920158 40285//// 57007 IEM_DS3505
ZBYN,1983-06-01 21:00,ZBYN 012100Z AUTO 00000KT 4SM 17/16 RMK SLP043 T01680157 57002 IEM_DS3505
ZBYN,1983-06-02 00:00,ZBYN 020000Z AUTO 00000KT 4SM 20/16 RMK SLP052 T02020164 52009 IEM_DS3505
ZBYN,1983-06-02 03:00,ZBYN 020300Z AUTO 18004KT 6SM 26/17 RMK SLP040 T02610170 57006 IEM_DS3505
ZBYN,1983-06-02 06:00,ZBYN 020600Z AUTO 29006KT 12SM 30/13 RMK SLP017 T03010127 4////0159 57020 IEM_DS3505
ZBYN,1983-06-02 09:00,ZBYN 020900Z AUTO 20004KT 16SM 31/11 RMK SLP008 T03080112 57011 IEM_DS3505
ZBYN,1983-06-02 12:00,ZBYN 021200Z AUTO 09006KT 16SM 27/09 RMK SLP029 T02720090 52019 IEM_DS3505
ZBYN,1983-06-02 15:00,ZBYN 021500Z AUTO 00000KT 12SM 21/13 RMK SLP049 T02090131 52017 IEM_DS3505
ZBYN,1983-06-02 18:00,ZBYN 021800Z AUTO 00000KT 9SM 18/15 RMK SLP051 T01820153 40316//// 52004 IEM_DS3505
ZBYN,1983-06-02 21:00,ZBYN 022100Z AUTO 00000KT 9SM 16/13 RMK SLP063 T01560133 52008 IEM_DS3505
ZBYN,1983-06-03 00:00,ZBYN 030000Z AUTO 11004KT 6SM 21/15 RMK SLP074 T02100153 52013 IEM_DS3505
ZBYN,1983-06-03 03:00,ZBYN 030300Z AUTO 14006KT 7SM 26/17 RMK SLP072 T02550174 57005 IEM_DS3505
ZBYN,1983-06-03 06:00,ZBYN 030600Z AUTO 20008KT 16SM 30/15 RMK SLP051 T02950148 4////0152 57016 IEM_DS3505
ZBYN,1983-06-03 09:00,ZBYN 030900Z AUTO 20006KT 16SM 30/16 RMK SLP035 T02950163 57018 IEM_DS3505
ZBYN,1983-06-03 12:00,ZBYN 031200Z AUTO 18004KT 12SM 25/14 RMK SLP040 T02540136 52005 IEM_DS3505
ZBYN,1983-06-03 15:00,ZBYN 031500Z AUTO 18006KT 12SM 24/12 RMK SLP041 T02380124 52006 IEM_DS3505
ZBYN,1983-06-03 18:00,ZBYN 031800Z AUTO 18006KT 12SM 22/13 RMK SLP032 T02230126 40301//// 57005 IEM_DS3505
ZBYN,1983-06-03 21:00,ZBYN 032100Z AUTO 34008KT 9SM 21/13 RMK SLP045 T02090131 52009 IEM_DS3505
ZBYN,1983-06-04 00:00,ZBYN 040000Z AUTO 32006KT 5SM 22/14 RMK SLP064 T02170140 52014 IEM_DS3505
ZBYN,1983-06-04 03:00,ZBYN 040300Z AUTO 23012KT 5SM 21/13 A2988 RMK SLP084 T02100130 52014 IEM_DS3505
ZBYN,1983-06-04 04:00,ZBYN 040400Z AUTO 26012KT 4SM 21/12 A2988 RMK T02100120 IEM_DS3505
ZBYN,1983-06-04 05:00,ZBYN 040500Z AUTO 27008KT 6SM 20/19 A2988 RMK T02000190 IEM_DS3505
ZBYN,1983-06-04 06:00,ZBYN 040600Z AUTO 32016KT 6SM 20/08 A2988 RMK SLP094 T02040085 4////0196 52007 IEM_DS3505
ZBYN,1983-06-04 07:00,ZBYN 040700Z AUTO 32012KT 7SM 17/10 A2994 RMK T01700100 IEM_DS3505
ZBYN,1983-06-04 08:00,ZBYN 040800Z AUTO 30027KT 7SM 15/10 A2997 RMK T01500100 IEM_DS3505
ZBYN,1983-06-04 09:00,ZBYN 040900Z AUTO 00000KT 6SM 13/10 RMK SLP140 T01300105 52030 IEM_DS3505
ZBYN,1983-06-04 12:00,ZBYN 041200Z AUTO 20004KT 8SM 13/11 RMK 60012 SLP124 T01320111 57014 IEM_DS3505
ZBYN,1983-06-04 15:00,ZBYN 041500Z AUTO 14004KT 6SM 12/11 RMK SLP141 T01180106 52013 IEM_DS3505
ZBYN,1983-06-04 18:00,ZBYN 041800Z AUTO 14004KT 4SM 11/10 RMK SLP143 T01120103 40253//// 57001 IEM_DS3505
ZBYN,1983-06-04 21:00,ZBYN 042100Z AUTO 00000KT 7SM 11/10 RMK SLP156 T01100104 52001 IEM_DS3505
ZBYN,1983-06-05 00:00,ZBYN 050000Z AUTO 16002KT 5SM 12/11 RMK 70012 SLP164 T01250106 52011 IEM_DS3505
ZBYN,1983-06-05 03:00,ZBYN 050300Z AUTO 18006KT 6SM 18/12 RMK SLP163 T01780119 52004 IEM_DS3505
ZBYN,1983-06-05 06:00,ZBYN 050600Z AUTO 36004KT 7SM 22/11 RMK SLP131 T02160113 4////0101 57024 IEM_DS3505
ZBYN,1983-06-05 09:00,ZBYN 050900Z AUTO 32008KT 17SM 24/M01 RMK SLP113 T02361008 57014 IEM_DS3505
ZBYN,1983-06-05 12:00,ZBYN 051200Z AUTO 34004KT 16SM 20/03 RMK SLP120 T02040028 52004 IEM_DS3505
ZBYN,1983-06-05 15:00,ZBYN 051500Z AUTO 00000KT 12SM 16/03 RMK SLP141 T01610034 52021 IEM_DS3505
ZBYN,1983-06-05 18:00,ZBYN 051800Z AUTO 00000KT 9SM 12/06 RMK SLP143 T01180059 40238//// 52001 IEM_DS3505
ZBYN,1983-06-05 21:00,ZBYN 052100Z AUTO 00000KT 11SM 09/06 RMK SLP151 T00870060 52005 IEM_DS3505
ZBYN,1983-06-06 00:00,ZBYN 060000Z AUTO 16004KT 6SM 15/06 RMK SLP156 T01460064 52008 IEM_DS3505
ZBYN,1983-06-06 03:00,ZBYN 060300Z AUTO 00000KT 9SM 20/06 RMK SLP139 T02030065 57013 IEM_DS3505
ZBYN,1983-06-06 06:00,ZBYN 060600Z AUTO 18006KT 9SM 24/06 RMK SLP111 T02350057 4////0076 57027 IEM_DS3505
ZBYN,1983-06-06 09:00,ZBYN 060900Z AUTO 20006KT 19SM 25/05 RMK SLP086 T02460054 57025 IEM_DS3505
ZBYN,1983-06-06 12:00,ZBYN 061200Z AUTO 18004KT 17SM 22/07 RMK SLP081 T02160067 57011 IEM_DS3505
ZBYN,1983-06-06 18:00,ZBYN 061800Z AUTO 14008KT 12SM 14/07 RMK SLP073 T01420068 40247//// 57009 IEM_DS3505
ZBYN,1983-06-06 21:00,ZBYN 062100Z AUTO 14008KT 12SM 13/06 RMK SLP076 T01260065 52002 IEM_DS3505
ZBYN,1983-06-07 00:00,ZBYN 070000Z AUTO 00000KT 9SM 17/09 RMK SLP076 T01670086 52001 IEM_DS3505
ZBYN,1983-06-07 03:00,ZBYN 070300Z AUTO 18010KT 7SM 24/10 A2980 RMK SLP056 T02400100 57014 IEM_DS3505
ZBYN,1983-06-07 04:00,ZBYN 070400Z AUTO 23010KT 7SM 26/09 A2980 RMK T02600090 IEM_DS3505
ZBYN,1983-06-07 05:00,ZBYN 070500Z AUTO 29021KT 7SM 28/02 A2977 RMK T02800020 IEM_DS3505
ZBYN,1983-06-07 06:00,ZBYN 070600Z AUTO 27014KT 12SM 28/M02 A2977 RMK SLP041 T02781018 4////0114 57012 IEM_DS3505
ZBYN,1983-06-07 07:00,ZBYN 070700Z AUTO 27019KT 7SM 28/M06 A2977 RMK T02801060 IEM_DS3505
ZBYN,1983-06-07 08:00,ZBYN 070800Z AUTO 6SM 27/M07 A2977 RMK T02701070 IEM_DS3505
ZBYN,1983-06-07 09:00,ZBYN 070900Z AUTO 29012KT 9SM 26/M06 A2977 RMK SLP051 T02601065 52004 IEM_DS3505
ZBYN,1983-06-07 10:00,ZBYN 071000Z AUTO 30019KT 6SM 25/M05 A2980 RMK T02501050 IEM_DS3505
ZBYN,1983-06-07 12:00,ZBYN 071200Z AUTO 34006KT 9SM 22/M03 RMK SLP083 T02171034 52028 IEM_DS3505
ZBYN,1983-06-07 15:00,ZBYN 071500Z AUTO 34004KT 9SM 18/M02 RMK SLP106 T01781018 52025 IEM_DS3505
ZBYN,1983-06-07 18:00,ZBYN 071800Z AUTO 32004KT 12SM 16/M02 RMK SLP102 T01571018 40280//// 54000 IEM_DS3505
ZBYN,1983-06-07 21:00,ZBYN 072100Z AUTO 11004KT 9SM 09/03 RMK SLP118 T00940026 52004 IEM_DS3505
ZBYN,1983-06-08 00:00,ZBYN 080000Z AUTO 00000KT 4SM 15/05 RMK SLP131 T01510048 52013 IEM_DS3505
ZBYN,1983-06-08 03:00,ZBYN 080300Z AUTO 18006KT 11SM 20/M03 RMK SLP127 T02031031 57002 IEM_DS3505
ZBYN,1983-06-08 06:00,ZBYN 080600Z AUTO 22004KT 16SM 22/03 RMK SLP111 T02190026 57015 IEM_DS3505
ZBYN,1983-06-08 09:00,ZBYN 080900Z AUTO 14004KT 12SM 23/06 RMK SLP108 T02290065 57010 IEM_DS3505
ZBYN,1983-06-08 12:00,ZBYN 081200Z AUTO 00000KT 17SM 20/10 RMK SLP102 T02010096 57001 IEM_DS3505
ZBYN,1983-06-08 15:00,ZBYN 081500Z AUTO 00000KT 12SM 14/10 RMK SLP116 T01450105 52012 IEM_DS3505
ZBYN,1983-06-08 18:00,ZBYN 081800Z AUTO 34004KT 12SM 14/ RMK 40235//// 54000 IEM_DS3505
ZBYN,1983-06-08 21:00,ZBYN 082100Z AUTO 00000KT 12SM 10/08 RMK SLP117 T01020083 IEM_DS3505
ZBYN,1983-06-09 00:00,ZBYN 090000Z AUTO 00000KT 6SM 17/05 RMK SLP124 T01720049 52012 IEM_DS3505
ZBYN,1983-06-09 03:00,ZBYN 090300Z AUTO 16004KT 6SM 24/06 RMK SLP118 T02350064 57005 IEM_DS3505
ZBYN,1983-06-09 06:00,ZBYN 090600Z AUTO 00000KT 19SM 27/08 RMK SLP081 T02700075 4////0096 57030 IEM_DS3505
ZBYN,1983-06-09 09:00,ZBYN 090900Z AUTO 20004KT 19SM 27/07 RMK SLP070 T02660069 57014 IEM_DS3505
ZBYN,1983-06-09 12:00,ZBYN 091200Z AUTO 00000KT 16SM 22/13 RMK SLP072 T02230132 52005 IEM_DS3505
ZBYN,1983-06-09 15:00,ZBYN 091500Z AUTO 07002KT 12SM 20/13 RMK SLP082 T01950128 52014 IEM_DS3505
ZBYN,1983-06-09 18:00,ZBYN 091800Z AUTO 14004KT 12SM 18/08 RMK SLP075 T01770082 40287//// 57004 IEM_DS3505
ZBYN,1983-06-09 21:00,ZBYN 092100Z AUTO 00000KT 9SM 15/11 RMK SLP080 T01460111 54000 IEM_DS3505
ZBYN,1983-06-10 00:00,ZBYN 100000Z AUTO 00000KT 5SM 19/11 RMK SLP090 T01890111 52009 IEM_DS3505
ZBYN,1983-06-10 03:00,ZBYN 100300Z AUTO 14006KT 9SM 26/10 RMK SLP082 T02550101 57002 IEM_DS3505
ZBYN,1983-06-10 06:00,ZBYN 100600Z AUTO 18004KT 16SM 29/09 RMK SLP051 T02860091 4////0130 57029 IEM_DS3505
ZBYN,1983-06-10 09:00,ZBYN 100900Z AUTO 22006KT 16SM 30/10 RMK SLP031 T03010098 57020 IEM_DS3505
ZBYN,1983-06-10 12:00,ZBYN 101200Z AUTO 16006KT 9SM 26/08 RMK SLP033 T02580075 52002 IEM_DS3505
ZBYN,1983-06-10 15:00,ZBYN 101500Z AUTO 16004KT 12SM 22/08 RMK SLP053 T02210083 52022 IEM_DS3505
ZBYN,1983-06-10 18:00,ZBYN 101800Z AUTO 00000KT 11SM 20/12 RMK SLP048 T01980120 40305//// 57004 IEM_DS3505
ZBYN,1983-06-10 21:00,ZBYN 102100Z AUTO 00000KT 9SM 20/13 RMK SLP041 T01950130 57004 IEM_DS3505
ZBYN,1983-06-11 00:00,ZBYN 110000Z AUTO 14004KT 12SM 20/14 RMK 60004 SLP065 T01970142 52016 IEM_DS3505
ZBYN,1983-06-11 03:00,ZBYN 110300Z AUTO 21004KT 7SM 19/14 A2988 RMK SLP086 T01900140 52014 IEM_DS3505
ZBYN,1983-06-11 04:00,ZBYN 110400Z AUTO 00000KT 7SM 19/13 A2988 RMK T01900130 IEM_DS3505
ZBYN,1983-06-11 05:00,ZBYN 110500Z AUTO 30004KT 7SM 20/14 RMK T02000140 IEM_DS3505
ZBYN,1983-06-11 06:00,ZBYN 110600Z AUTO 34004KT 9SM 20/14 A2988 RMK SLP084 T02020144 4////0183 57004 IEM_DS3505
ZBYN,1983-06-11 07:00,ZBYN 110700Z AUTO 35008KT 7SM 22/13 A2985 RMK T02200130 IEM_DS3505
ZBYN,1983-06-11 09:00,ZBYN 110900Z AUTO 34012KT 9SM 22/10 A2985 RMK SLP074 T02200101 57007 IEM_DS3505
ZBYN,1983-06-11 10:00,ZBYN 111000Z AUTO 34021KT 7SM 22/07 A2985 RMK T02200070 IEM_DS3505
ZBYN,1983-06-11 11:00,ZBYN 111100Z AUTO 34016KT 7SM 21/05 A2985 RMK T02100050 IEM_DS3505
ZBYN,1983-06-11 12:00,ZBYN 111200Z AUTO 34008KT 16SM 20/06 A2988 RMK SLP092 T02040059 52014 IEM_DS3505
ZBYN,1983-06-11 15:00,ZBYN 111500Z AUTO 34006KT 11SM 20/06 RMK SLP108 T01960064 52013 IEM_DS3505
ZBYN,1983-06-11 18:00,ZBYN 111800Z AUTO 32004KT 7SM 19/06 RMK SLP104 T01890056 40232//// 57003 IEM_DS3505
ZBYN,1983-06-11 21:00,ZBYN 112100Z AUTO 32006KT 19SM 16/04 RMK SLP111 T01590044 52005 IEM_DS3505
ZBYN,1983-06-12 00:00,ZBYN 120000Z AUTO 02004KT 19SM 20/04 RMK SLP130 T01980043 52020 IEM_DS3505
ZBYN,1983-06-12 03:00,ZBYN 120300Z AUTO 02006KT 19SM 24/01 RMK SLP125 T02360006 54000 IEM_DS3505
ZBYN,1983-06-12 06:00,ZBYN 120600Z AUTO 32002KT 19SM 26/01 RMK SLP103 T02620008 4////0152 57017 IEM_DS3505
ZBYN,1983-06-12 09:00,ZBYN 120900Z AUTO 20004KT 19SM 26/04 RMK SLP094 T02620044 57013 IEM_DS3505
ZBYN,1983-06-12 12:00,ZBYN 121200Z AUTO 00000KT 17SM 22/11 RMK SLP100 T02190110 52005 IEM_DS3505
ZBYN,1983-06-12 15:00,ZBYN 121500Z AUTO 34002KT 12SM 17/11 RMK SLP117 T01690112 52014 IEM_DS3505
ZBYN,1983-06-12 18:00,ZBYN 121800Z AUTO 00000KT 9SM 13/07 RMK SLP121 T01320068 40277//// 52002 IEM_DS3505
ZBYN,1983-06-12 21:00,ZBYN 122100Z AUTO 00000KT 7SM 12/06 RMK SLP129 T01200057 52005 IEM_DS3505
ZBYN,1983-06-13 00:00,ZBYN 130000Z AUTO 00000KT 5SM 19/08 RMK SLP144 T01870081 52018 IEM_DS3505
ZBYN,1983-06-13 03:00,ZBYN 130300Z AUTO 16004KT 9SM 24/07 RMK SLP131 T02430069 57011 IEM_DS3505
ZBYN,1983-06-13 05:00,ZBYN 130500Z AUTO 16008KT 16SM 29/05 RMK SLP091 T02880048 57018 IEM_DS3505
ZBYN,1983-06-13 06:00,ZBYN 130600Z AUTO 20006KT 12SM 29/02 RMK SLP108 T02860022 4////0105 57020 IEM_DS3505
ZBYN,1983-06-13 09:00,ZBYN 130900Z AUTO 16008KT 16SM 29/05 RMK SLP091 T02880048 57018 IEM_DS3505
ZBYN,1983-06-13 12:00,ZBYN 131200Z AUTO 00000KT 16SM 24/10 RMK SLP090 T02360100 52001 IEM_DS3505
ZBYN,1983-06-13 15:00,ZBYN 131500Z AUTO 18006KT 12SM 22/09 RMK SLP088 T02170089 52004 IEM_DS3505
ZBYN,1983-06-13 18:00,ZBYN 131800Z AUTO 11006KT 9SM 17/07 RMK SLP087 T01710074 40290//// 57001 IEM_DS3505
ZBYN,1983-06-13 21:00,ZBYN 132100Z AUTO 00000KT 12SM 13/10 RMK SLP090 T01340095 57003 IEM_DS3505
ZBYN,1983-06-14 00:00,ZBYN 140000Z AUTO 00000KT 9SM 19/09 RMK SLP090 T01920093 52001 IEM_DS3505
ZBYN,1983-06-14 02:00,ZBYN 140200Z AUTO 18004KT 6SM 23/09 A2985 RMK T02300090 IEM_DS3505
ZBYN,1983-06-14 03:00,ZBYN 140300Z AUTO 15006KT 6SM 26/10 A2985 RMK SLP065 T02600100 57016 IEM_DS3505
ZBYN,1983-06-14 04:00,ZBYN 140400Z AUTO 19006KT 6SM 27/09 A2985 RMK T02700090 IEM_DS3505
ZBYN,1983-06-14 06:00,ZBYN 140600Z AUTO 18006KT 19SM 29/06 A2980 RMK SLP045 T02870059 4////0124 57020 IEM_DS3505
ZBYN,1983-06-14 07:00,ZBYN 140700Z AUTO 24008KT 6SM 30/05 A2977 RMK T03000050 IEM_DS3505
ZBYN,1983-06-14 08:00,ZBYN 140800Z AUTO 24006KT 6SM 30/07 A2977 RMK T03000070 IEM_DS3505
ZBYN,1983-06-14 09:00,ZBYN 140900Z AUTO 18004KT 19SM 29/05 A2977 RMK SLP029 T02940053 57019 IEM_DS3505
ZBYN,1983-06-14 12:00,ZBYN 141200Z AUTO 00000KT 19SM 24/12 RMK SLP027 T02380117 57002 IEM_DS3505
ZBYN,1983-06-14 15:00,ZBYN 141500Z AUTO 00000KT 12SM 18/08 RMK SLP037 T01790082 52010 IEM_DS3505
ZBYN,1983-06-14 18:00,ZBYN 141800Z AUTO 00000KT 9SM 15/12 RMK SLP036 T01530120 40302//// 54000 IEM_DS3505
ZBYN,1983-06-14 21:00,ZBYN 142100Z AUTO 00000KT 7SM 13/10 RMK SLP041 T01340101 52003 IEM_DS3505
ZBYN,1983-06-15 00:00,ZBYN 150000Z AUTO 00000KT 5SM 19/10 RMK SLP057 T01890095 52014 IEM_DS3505
ZBYN,1983-06-15 03:00,ZBYN 150300Z AUTO 16006KT 9SM 26/10 RMK SLP049 T02570100 57006 IEM_DS3505
ZBYN,1983-06-15 06:00,ZBYN 150600Z AUTO 18006KT 16SM 31/10 RMK SLP022 T03060104 4////0126 57021 IEM_DS3505
ZBYN,1983-06-15 09:00,ZBYN 150900Z AUTO 32004KT 16SM 30/11 RMK SLP021 T03040111 57004 IEM_DS3505
ZBYN,1983-06-15 12:00,ZBYN 151200Z AUTO 02002KT 7SM 26/09 RMK SLP040 T02570088 52018 IEM_DS3505
ZBYN,1983-06-15 15:00,ZBYN 151500Z AUTO 20002KT 9SM 20/12 RMK SLP053 T02040125 52014 IEM_DS3505
ZBYN,1983-06-15 18:00,ZBYN 151800Z AUTO 00000KT 7SM 18/15 RMK SLP045 T01800151 40321//// 57004 IEM_DS3505
ZBYN,1983-06-15 21:00,ZBYN 152100Z AUTO 00000KT 6SM 18/15 RMK SLP047 T01790152 52001 IEM_DS3505
ZBYN,1983-06-16 00:00,ZBYN 160000Z AUTO 00000KT 6SM 19/15 RMK SLP063 T01870148 52009 IEM_DS3505
ZBYN,1983-06-16 03:00,ZBYN 160300Z AUTO 18004KT 9SM 25/14 RMK SLP051 T02510143 57009 IEM_DS3505
ZBYN,1983-06-16 06:00,ZBYN 160600Z AUTO 16004KT 9SM 28/13 RMK SLP035 T02780132 4////0173 57013 IEM_DS3505
ZBYN,1983-06-16 09:00,ZBYN 160900Z AUTO 00000KT 9SM 28/14 RMK SLP011 T02780141 57022 IEM_DS3505
ZBYN,1983-06-16 12:00,ZBYN 161200Z AUTO 14004KT 9SM 20/15 RMK SLP016 T02030150 52003 IEM_DS3505
ZBYN,1983-06-16 15:00,ZBYN 161500Z AUTO 11006KT 9SM 23/14 RMK SLP026 T02260140 52013 IEM_DS3505
ZBYN,1983-06-16 18:00,ZBYN 161800Z AUTO 16008KT 11SM 21/14 RMK SLP017 T02100136 40289//// 57007 IEM_DS3505
ZBYN,1983-06-16 21:00,ZBYN 162100Z AUTO 11008KT 9SM 20/13 RMK SLP021 T01980132 52002 IEM_DS3505
ZBYN,1983-06-17 00:00,ZBYN 170000Z AUTO 00000KT 9SM 22/16 RMK SLP033 T02160158 52012 IEM_DS3505
ZBYN,1983-06-17 03:00,ZBYN 170300Z AUTO 00000KT 6SM 27/16 RMK SLP025 T02720159 57005 IEM_DS3505
ZBYN,1983-06-17 06:00,ZBYN 170600Z AUTO 18004KT 11SM 30/16 RMK SLP996 T03000162 4////0179 57025 IEM_DS3505
ZBYN,1983-06-17 09:00,ZBYN 170900Z AUTO 00000KT 12SM 23/17 RMK SLP019 T02300172 52010 IEM_DS3505
ZBYN,1983-06-17 12:00,ZBYN 171200Z AUTO 04004KT 12SM 24/16 RMK 60008 SLP021 T02400162 52005 IEM_DS3505
ZBYN,1983-06-17 15:00,ZBYN 171500Z AUTO 32004KT 6SM 21/17 RMK SLP030 T02060168 52012 IEM_DS3505
ZBYN,1983-06-17 18:00,ZBYN 171800Z AUTO 34004KT 5SM 20/16 RMK SLP027 T02010163 40311//// 54000 IEM_DS3505
ZBYN,1983-06-17 21:00,ZBYN 172100Z AUTO 34002KT 5SM 19/16 RMK SLP050 T01940157 52010 IEM_DS3505
ZBYN,1983-06-18 00:00,ZBYN 180000Z AUTO 34006KT 6SM 21/16 RMK 70008 SLP053 T02140165 52007 IEM_DS3505
ZBYN,1983-06-18 03:00,ZBYN 180300Z AUTO 05014KT 6SM 26/17 A2980 RMK SLP044 T02600170 57006 IEM_DS3505
ZBYN,1983-06-18 04:00,ZBYN 180400Z AUTO 04014KT 6SM 27/18 A2977 RMK T02700180 IEM_DS3505
ZBYN,1983-06-18 05:00,ZBYN 180500Z AUTO 06017KT 6SM 26/16 A2977 RMK T02600160 IEM_DS3505
ZBYN,1983-06-18 06:00,ZBYN 180600Z AUTO 07012KT 6SM 25/17 A2977 RMK SLP030 T02520169 4////0183 57015 IEM_DS3505
ZBYN,1983-06-18 07:00,ZBYN 180700Z AUTO 06019KT 7SM 25/17 A2977 RMK T02500170 IEM_DS3505
ZBYN,1983-06-18 08:00,ZBYN 180800Z AUTO 06016G27KT 7SM 23/16 A2977 RMK T02300160 IEM_DS3505
ZBYN,1983-06-18 09:00,ZBYN 180900Z AUTO 04006KT 4SM 24/16 A2974 RMK SLP033 T02410156 54000 IEM_DS3505
ZBYN,1983-06-18 12:00,ZBYN 181200Z AUTO 34012KT 5SM 18/16 RMK 60039 SLP073 T01790159 52031 IEM_DS3505
ZBYN,1983-06-18 15:00,ZBYN 181500Z AUTO 27004KT 4SM 18/15 RMK SLP069 T01760148 52002 IEM_DS3505
ZBYN,1983-06-18 18:00,ZBYN 181800Z AUTO 00000KT 4SM 17/15 RMK 60008 SLP076 T01720149 40273//// 54000 IEM_DS3505
ZBYN,1983-06-18 21:00,ZBYN 182100Z AUTO 32008KT 5SM 17/15 RMK SLP062 T01680149 57010 IEM_DS3505
ZBYN,1983-06-19 00:00,ZBYN 190000Z AUTO 32012KT 4SM 17/15 RMK 60004 70047 SLP083 T01710147 52011 IEM_DS3505
ZBYN,1983-06-19 03:00,ZBYN 190300Z AUTO 34010KT 5SM 18/14 RMK SLP081 T01770144 57001 IEM_DS3505
ZBYN,1983-06-19 06:00,ZBYN 190600Z AUTO 32004KT 9SM 18/14 RMK SLP087 T01790145 4////0164 52005 IEM_DS3505
ZBYN,1983-06-19 09:00,ZBYN 190900Z AUTO 34008KT 11SM 18/15 RMK SLP084 T01810150 57003 IEM_DS3505
ZBYN,1983-06-19 12:00,ZBYN 191200Z AUTO 34004KT 5SM 18/15 RMK 60008 SLP095 T01820153 52011 IEM_DS3505
ZBYN,1983-06-19 15:00,ZBYN 191500Z AUTO 36002KT 6SM 17/15 RMK SLP110 T01710148 52012 IEM_DS3505
ZBYN,1983-06-19 18:00,ZBYN 191800Z AUTO 32002KT 6SM 16/15 RMK SLP107 T01570147 40184//// 57004 IEM_DS3505
ZBYN,1983-06-19 21:00,ZBYN 192100Z AUTO 36004KT 5SM 16/14 RMK SLP108 T01550143 52001 IEM_DS3505
ZBYN,1983-06-20 00:00,ZBYN 200000Z AUTO 36008KT 5SM 18/15 RMK 70008 SLP112 T01850146 52008 IEM_DS3505
ZBYN,1983-06-20 03:00,ZBYN 200300Z AUTO 34010KT 6SM 21/16 RMK SLP116 T02100155 52005 IEM_DS3505
ZBYN,1983-06-20 06:00,ZBYN 200600Z AUTO 32006KT 9SM 26/16 RMK SLP089 T02550162 4////0142 57020 IEM_DS3505
ZBYN,1983-06-20 09:00,ZBYN 200900Z AUTO 34008KT 9SM 27/14 RMK SLP078 T02660137 57009 IEM_DS3505
ZBYN,1983-06-20 12:00,ZBYN 201200Z AUTO 07006KT 12SM 23/13 RMK SLP092 T02300132 52012 IEM_DS3505
ZBYN,1983-06-20 15:00,ZBYN 201500Z AUTO 00000KT 9SM 20/15 RMK SLP112 T01950146 52017 IEM_DS3505
ZBYN,1983-06-20 18:00,ZBYN 201800Z AUTO 34006KT 9SM 19/12 RMK SLP103 T01880120 40268//// 57003 IEM_DS3505
ZBYN,1983-06-20 21:00,ZBYN 202100Z AUTO 32004KT 9SM 17/11 RMK SLP108 T01670110 52003 IEM_DS3505
ZBYN,1983-06-21 00:00,ZBYN 210000Z AUTO 36004KT 9SM 20/12 RMK SLP115 T01990119 52006 IEM_DS3505
ZBYN,1983-06-21 03:00,ZBYN 210300Z AUTO 00000KT 9SM 25/15 A2997 RMK SLP106 T02540147 57006 IEM_DS3505
ZBYN,1983-06-21 04:00,ZBYN 210400Z AUTO 20002KT 7SM 27/14 A2994 RMK T02700140 IEM_DS3505
ZBYN,1983-06-21 05:00,ZBYN 210500Z AUTO 29004KT 7SM 27/16 A2994 RMK T02700160 IEM_DS3505
ZBYN,1983-06-21 06:00,ZBYN 210600Z AUTO 25008KT 6SM 28/17 A2994 RMK SLP093 T02800170 4////0158 57010 IEM_DS3505
ZBYN,1983-06-21 07:00,ZBYN 210700Z AUTO 24002KT 6SM 28/17 A2994 RMK T02800170 IEM_DS3505
ZBYN,1983-06-21 08:00,ZBYN 210800Z AUTO 25008KT 7SM 28/17 A2988 RMK T02800170 IEM_DS3505
ZBYN,1983-06-21 09:00,ZBYN 210900Z AUTO 00000KT 16SM 27/15 RMK SLP080 T02710154 57014 IEM_DS3505
ZBYN,1983-06-21 12:00,ZBYN 211200Z AUTO 29004KT 6SM 24/16 RMK SLP088 T02390159 52007 IEM_DS3505
ZBYN,1983-06-21 15:00,ZBYN 211500Z AUTO 14002KT 7SM 20/17 RMK SLP116 T01970174 52027 IEM_DS3505
ZBYN,1983-06-21 18:00,ZBYN 211800Z AUTO 14004KT 6SM 18/18 RMK 60016 SLP112 T01850175 40282//// 57004 IEM_DS3505
ZBYN,1983-06-21 21:00,ZBYN 212100Z AUTO 20004KT 5SM 17/16 RMK SLP118 T01700162 52002 IEM_DS3505
ZBYN,1983-06-22 00:00,ZBYN 220000Z AUTO 00000KT 4SM 18/15 RMK 60024 70035 SLP126 T01770153 52004 IEM_DS3505
ZBYN,1983-06-22 03:00,ZBYN 220300Z AUTO 18006KT 7SM 20/16 RMK SLP122 T01980155 57006 IEM_DS3505
ZBYN,1983-06-22 06:00,ZBYN 220600Z AUTO 00000KT 11SM 21/16 RMK SLP109 T02060158 4////0157 57012 IEM_DS3505
ZBYN,1983-06-22 09:00,ZBYN 220900Z AUTO 00000KT 6SM 21/16 RMK SLP105 T02110163 57006 IEM_DS3505
ZBYN,1983-06-22 12:00,ZBYN 221200Z AUTO 18006KT 6SM 19/16 RMK SLP108 T01930165 52011 IEM_DS3505
ZBYN,1983-06-22 15:00,ZBYN 221500Z AUTO 11004KT 6SM 19/17 RMK SLP109 T01880170 52004 IEM_DS3505
ZBYN,1983-06-22 18:00,ZBYN 221800Z AUTO 00000KT 5SM 19/17 RMK SLP105 T01870174 40216//// 57003 IEM_DS3505
ZBYN,1983-06-22 21:00,ZBYN 222100Z AUTO 00000KT 4SM 18/17 RMK SLP097 T01810171 57007 IEM_DS3505
ZBYN,1983-06-23 00:00,ZBYN 230000Z AUTO 04002KT 6SM 20/17 RMK SLP104 T01950172 52005 IEM_DS3505
ZBYN,1983-06-23 06:00,ZBYN 230600Z AUTO 22004KT 7SM 26/18 RMK SLP067 T02580180 4////0177 57022 IEM_DS3505
ZBYN,1983-06-23 09:00,ZBYN 230900Z AUTO 29004KT 9SM 27/18 RMK SLP063 T02670185 57004 IEM_DS3505
ZBYN,1983-06-23 12:00,ZBYN 231200Z AUTO 00000KT 6SM 25/20 RMK SLP067 T02480199 52003 IEM_DS3505
ZBYN,1983-06-23 15:00,ZBYN 231500Z AUTO 07006KT 6SM 24/14 RMK SLP085 T02380140 52021 IEM_DS3505
ZBYN,1983-06-23 18:00,ZBYN 231800Z AUTO 00000KT 6SM 22/16 RMK T02190155 40276//// 54000 IEM_DS3505
ZBYN,1983-06-23 21:00,ZBYN 232100Z AUTO 00000KT 9SM 20/17 RMK SLP088 T01950168 52001 IEM_DS3505
ZBYN,1983-06-24 00:00,ZBYN 240000Z AUTO 32004KT 4SM 22/18 RMK SLP097 T02160178 52008 IEM_DS3505
ZBYN,1983-06-24 03:00,ZBYN 240300Z AUTO 29004KT 6SM 24/17 RMK SLP096 T02430168 52002 IEM_DS3505
ZBYN,1983-06-24 06:00,ZBYN 240600Z AUTO 34008KT 7SM 25/17 RMK SLP090 T02500170 4////0118 57007 IEM_DS3505
ZBYN,1983-06-24 09:00,ZBYN 240900Z AUTO 36004KT 7SM 22/17 RMK SLP094 T02240169 57003 IEM_DS3505
ZBYN,1983-06-24 12:00,ZBYN 241200Z AUTO 00000KT 6SM 22/18 RMK SLP105 T02180175 52012 IEM_DS3505
ZBYN,1983-06-24 15:00,ZBYN 241500Z AUTO 00000KT 7SM 21/17 RMK SLP110 T02090170 52007 IEM_DS3505
ZBYN,1983-06-24 18:00,ZBYN 241800Z AUTO 09002KT 6SM 19/18 RMK SLP108 T01930179 40263//// 57004 IEM_DS3505
ZBYN,1983-06-24 21:00,ZBYN 242100Z AUTO 16004KT 4SM 18/18 RMK SLP110 T01850179 57002 IEM_DS3505
ZBYN,1983-06-25 00:00,ZBYN 250000Z AUTO 00000KT 3SM 18/18 RMK 60004 70004 SLP115 T01850177 52003 IEM_DS3505
ZBYN,1983-06-25 02:00,ZBYN 250200Z AUTO 00000KT 2 1/2SM 19/18 A2997 RMK T01900180 IEM_DS3505
ZBYN,1983-06-25 03:00,ZBYN 250300Z AUTO 18004KT 5SM 20/18 A2997 RMK T02000180 IEM_DS3505
ZBYN,1983-06-25 04:00,ZBYN 250400Z AUTO 00000KT 5SM 21/18 A2997 RMK T02100180 IEM_DS3505
ZBYN,1983-06-25 05:00,ZBYN 250500Z AUTO 10004KT 7SM 23/18 A2994 RMK T02300180 IEM_DS3505
ZBYN,1983-06-25 06:00,ZBYN 250600Z AUTO 22004KT 5SM 24/18 A2994 RMK 60002 SLP089 T02400183 4////0125 57020 IEM_DS3505
ZBYN,1983-06-25 07:00,ZBYN 250700Z AUTO 00000KT 7SM 25/19 A2988 RMK T02500190 IEM_DS3505
ZBYN,1983-06-25 08:00,ZBYN 250800Z AUTO 16006KT 6SM 25/18 A2985 RMK T02500180 IEM_DS3505
ZBYN,1983-06-25 09:00,ZBYN 250900Z AUTO 18006KT 5SM 25/18 RMK SLP068 T02460180 57019 IEM_DS3505
ZBYN,1983-06-25 12:00,ZBYN 251200Z AUTO 16002KT 4SM 23/19 RMK SLP067 T02260189 57004 IEM_DS3505
ZBYN,1983-06-25 15:00,ZBYN 251500Z AUTO 00000KT 6SM 21/19 RMK SLP077 T02080189 52009 IEM_DS3505
ZBYN,1983-06-25 18:00,ZBYN 251800Z AUTO 11004KT 5SM 20/19 RMK SLP064 T01980186 40252//// 57008 IEM_DS3505
ZBYN,1983-06-25 21:00,ZBYN 252100Z AUTO 00000KT 4SM 19/18 RMK SLP064 T01870179 57001 IEM_DS3505
ZBYN,1983-06-26 00:00,ZBYN 260000Z AUTO 00000KT 5SM 21/20 RMK SLP068 T02080198 52004 IEM_DS3505
ZBYN,1983-06-26 03:00,ZBYN 260300Z AUTO 00000KT 5SM 25/19 RMK SLP058 T02540192 57005 IEM_DS3505
ZBYN,1983-06-26 06:00,ZBYN 260600Z AUTO 36004KT 9SM 30/17 RMK SLP035 T02960172 4////0181 57017 IEM_DS3505
ZBYN,1983-06-26 09:00,ZBYN 260900Z AUTO 22004KT 12SM 29/17 RMK SLP026 T02900172 57010 IEM_DS3505
ZBYN,1983-06-26 12:00,ZBYN 261200Z AUTO 22002KT 11SM 25/16 RMK SLP035 T02530157 52006 IEM_DS3505
ZBYN,1983-06-26 15:00,ZBYN 261500Z AUTO 14002KT 12SM 21/17 RMK SLP045 T02140168 52010 IEM_DS3505
ZBYN,1983-06-26 18:00,ZBYN 261800Z AUTO 00000KT 9SM 18/16 RMK SLP042 T01830155 40303//// 57001 IEM_DS3505
ZBYN,1983-06-26 21:00,ZBYN 262100Z AUTO 00000KT 9SM 16/15 RMK SLP045 T01600148 52003 IEM_DS3505
ZBYN,1983-06-27 00:00,ZBYN 270000Z AUTO 00000KT 4SM 21/16 RMK SLP040 T02080162 57003 IEM_DS3505
ZBYN,1983-06-27 06:00,ZBYN 270600Z AUTO 18004KT 7SM 29/14 RMK SLP002 T02940144 4////0152 57024 IEM_DS3505
ZBYN,1983-06-27 09:00,ZBYN 270900Z AUTO 18004KT 11SM 29/19 RMK SLP981 T02940189 57022 IEM_DS3505
ZBYN,1983-06-27 12:00,ZBYN 271200Z AUTO 11008KT 16SM 24/12 RMK 60008 T02400122 52017 IEM_DS3505
ZBYN,1983-06-27 15:00,ZBYN 271500Z AUTO 07006KT 12SM 20/15 RMK SLP013 T01960148 52013 IEM_DS3505
ZBYN,1983-06-27 18:00,ZBYN 271800Z AUTO 16002KT 9SM 17/15 RMK SLP008 T01740152 40302//// 57004 IEM_DS3505
ZBYN,1983-06-27 21:00,ZBYN 272100Z AUTO 00000KT 5SM 16/15 RMK SLP011 T01640150 52002 IEM_DS3505
ZBYN,1983-06-28 00:00,ZBYN 280000Z AUTO 09004KT 6SM 21/14 RMK SLP012 T02120136 54000 IEM_DS3505
ZBYN,1983-06-28 01:00,ZBYN 280100Z AUTO 16008KT 7SM 24/14 A2974 RMK T02400140 IEM_DS3505
ZBYN,1983-06-28 02:00,ZBYN 280200Z AUTO 00000KT 7SM 25/16 A2968 RMK T02500160 IEM_DS3505
ZBYN,1983-06-28 03:00,ZBYN 280300Z AUTO 21004KT 6SM 27/16 A2968 RMK T02700160 IEM_DS3505
ZBYN,1983-06-28 04:00,ZBYN 280400Z AUTO 17008KT 7SM 30/16 A2965 RMK T03000160 IEM_DS3505
ZBYN,1983-06-28 05:00,ZBYN 280500Z AUTO 17008KT 7SM 30/16 A2965 RMK T03000160 IEM_DS3505
ZBYN,1983-06-28 06:00,ZBYN 280600Z AUTO 16008KT 19SM 27/19 RMK SLP987 T02690186 4////0155 57014 IEM_DS3505
ZBYN,1983-06-28 08:00,ZBYN 280800Z AUTO 21012KT 7SM 32/14 A2959 RMK T03200140 IEM_DS3505
ZBYN,1983-06-28 09:00,ZBYN 280900Z AUTO 20008KT 17SM 31/16 A2956 RMK SLP963 T03080155 57018 IEM_DS3505
ZBYN,1983-06-28 10:00,ZBYN 281000Z AUTO 19006KT 7SM 30/16 A2959 RMK T03000160 IEM_DS3505
ZBYN,1983-06-28 12:00,ZBYN 281200Z AUTO 00000KT 16SM 27/11 RMK SLP993 T02660113 52028 IEM_DS3505
ZBYN,1983-06-28 15:00,ZBYN 281500Z AUTO 00000KT 12SM 21/13 RMK SLP008 T02070132 52013 IEM_DS3505
ZBYN,1983-06-28 18:00,ZBYN 281800Z AUTO 36004KT 16SM 20/13 RMK SLP009 T01960129 40322//// 54000 IEM_DS3505
ZBYN,1983-06-28 21:00,ZBYN 282100Z AUTO 34002KT 7SM 17/14 RMK SLP012 T01660144 52004 IEM_DS3505
ZBYN,1983-06-29 00:00,ZBYN 290000Z AUTO 34004KT 6SM 21/15 RMK 70004 SLP021 T02120148 52009 IEM_DS3505
ZBYN,1983-06-29 03:00,ZBYN 290300Z AUTO 18008KT 9SM 28/17 RMK SLP017 T02770166 57004 IEM_DS3505
ZBYN,1983-06-29 06:00,ZBYN 290600Z AUTO 18008KT 17SM 31/18 RMK SLP992 T03110182 4////0157 57020 IEM_DS3505
ZBYN,1983-06-29 09:00,ZBYN 290900Z AUTO 18004KT 16SM 31/16 RMK SLP977 T03120158 57016 IEM_DS3505
ZBYN,1983-06-29 12:00,ZBYN 291200Z AUTO 02004KT 9SM 27/17 RMK SLP007 T02740168 52028 IEM_DS3505
ZBYN,1983-06-29 18:00,ZBYN 291800Z AUTO 36002KT 12SM 21/16 RMK SLP027 T02110160 40325//// 57001 IEM_DS3505
ZBYN,1983-06-29 21:00,ZBYN 292100Z AUTO 34002KT 7SM 19/16 RMK SLP028 T01940161 57001 IEM_DS3505
ZBYN,1983-06-30 00:00,ZBYN 300000Z AUTO 00000KT 5SM 23/17 RMK SLP035 T02280168 52005 IEM_DS3505
ZBYN,1983-06-30 03:00,ZBYN 300300Z AUTO 00000KT 9SM 27/18 RMK SLP033 T02710179 57002 IEM_DS3505
ZBYN,1983-06-30 06:00,ZBYN 300600Z AUTO 16002KT 9SM 30/17 RMK SLP016 T02970173 4////0185 57014 IEM_DS3505
ZBYN,1983-06-30 09:00,ZBYN 300900Z AUTO 00000KT 12SM 29/19 RMK SLP007 T02880186 57012 IEM_DS3505
ZBYN,1983-06-30 12:00,ZBYN 301200Z AUTO 00000KT 7SM 26/21 RMK SLP009 T02580212 52003 IEM_DS3505
ZBYN,1983-06-30 15:00,ZBYN 301500Z AUTO 29002KT 9SM 24/19 RMK SLP020 T02400190 52013 IEM_DS3505
ZBYN,1983-06-30 18:00,ZBYN 301800Z AUTO 00000KT 7SM 24/19 RMK SLP012 T02380190 40298//// 57004 IEM_DS3505
ZBYN,1983-06-30 21:00,ZBYN 302100Z AUTO 00000KT 6SM 22/18 RMK SLP010 T02210185 57005 IEM_DS3505
ZBYN,1983-07-01 00:00,ZBYN 010000Z AUTO 00000KT 6SM 23/19 RMK SLP016 T02260191 52001 IEM_DS3505
ZBYN,1983-07-01 03:00,ZBYN 010300Z AUTO 07006KT 9SM 28/13 RMK SLP989 T02780126 57019 IEM_DS3505
ZBYN,1983-07-01 06:00,ZBYN 010600Z AUTO 07008KT 12SM 29/12 RMK SLP967 T02940116 4////0212 57018 IEM_DS3505
ZBYN,1983-07-01 09:00,ZBYN 010900Z AUTO 09008KT 12SM 27/11 RMK SLP970 T02660113 57004 IEM_DS3505
ZBYN,1983-07-01 12:00,ZBYN 011200Z AUTO 09006KT 11SM 25/16 RMK SLP979 T02490156 52007 IEM_DS3505
ZBYN,1983-07-01 15:00,ZBYN 011500Z AUTO 36004KT 12SM 21/13 RMK SLP005 T02120128 52025 IEM_DS3505
ZBYN,1983-07-01 18:00,ZBYN 011800Z AUTO 36002KT 9SM 18/16 RMK 60008 SLP995 T01830157 40301//// 57010 IEM_DS3505
ZBYN,1983-07-01 21:00,ZBYN 012100Z AUTO 32006KT 6SM 18/16 RMK SLP981 T01810157 57017 IEM_DS3505
ZBYN,1983-07-02 00:00,ZBYN 020000Z AUTO 00000KT 4SM 18/17 RMK 60004 SLP990 T01830167 52006 IEM_DS3505
ZBYN,1983-07-02 02:00,ZBYN 020200Z AUTO 21004KT 5SM 16/16 A2965 RMK T01600160 IEM_DS3505
ZBYN,1983-07-02 03:00,ZBYN 020300Z AUTO 00000KT 4SM 17/16 A2965 RMK SLP003 T01700162 52005 IEM_DS3505
ZBYN,1983-07-02 04:00,ZBYN 020400Z AUTO 21010KT 7SM 19/17 A2965 RMK T01900170 IEM_DS3505
ZBYN,1983-07-02 06:00,ZBYN 020600Z AUTO 20006KT 12SM 21/16 A2956 RMK 60043 SLP973 T02130158 4////0160 57026 IEM_DS3505
ZBYN,1983-07-02 07:00,ZBYN 020700Z AUTO 20006KT 7SM 23/17 A2956 RMK T02300170 IEM_DS3505
ZBYN,1983-07-02 09:00,ZBYN 020900Z AUTO 02004KT 19SM 23/15 RMK SLP954 T02310151 57014 IEM_DS3505
ZBYN,1983-07-02 10:00,ZBYN 021000Z AUTO 32010KT 7SM 24/14 A2950 RMK T02400140 IEM_DS3505
ZBYN,1983-07-02 12:00,ZBYN 021200Z AUTO 32004KT 16SM 21/14 RMK SLP967 T02130138 52009 IEM_DS3505
ZBYN,1983-07-02 15:00,ZBYN 021500Z AUTO 27004KT 7SM 17/14 RMK SLP986 T01730144 52009 IEM_DS3505
ZBYN,1983-07-02 18:00,ZBYN 021800Z AUTO 00000KT 6SM 18/11 RMK SLP975 T01780108 40250//// 57002 IEM_DS3505
ZBYN,1983-07-02 21:00,ZBYN 022100Z AUTO 36002KT 19SM 18/11 RMK SLP971 T01800108 57001 IEM_DS3505
ZBYN,1983-07-03 00:00,ZBYN 030000Z AUTO 14004KT 12SM 18/14 RMK 70043 SLP989 T01850142 52015 IEM_DS3505
ZBYN,1983-07-03 03:00,ZBYN 030300Z AUTO 32006KT 19SM 24/12 RMK SLP987 T02430117 54000 IEM_DS3505
ZBYN,1983-07-03 06:00,ZBYN 030600Z AUTO 29014KT 19SM 27/08 RMK SLP967 T02720082 4////0155 57014 IEM_DS3505
ZBYN,1983-07-03 09:00,ZBYN 030900Z AUTO 27006KT 19SM 27/08 RMK SLP966 T02710078 54000 IEM_DS3505
ZBYN,1983-07-03 12:00,ZBYN 031200Z AUTO 00000KT 19SM 23/17 RMK SLP978 T02340166 52006 IEM_DS3505
ZBYN,1983-07-03 15:00,ZBYN 031500Z AUTO 00000KT 16SM 20/12 RMK SLP993 T01970125 52017 IEM_DS3505
ZBYN,1983-07-03 18:00,ZBYN 031800Z AUTO 36006KT 16SM 19/12 RMK SLP996 T01920116 40281//// 52005 IEM_DS3505
ZBYN,1983-07-03 21:00,ZBYN 032100Z AUTO 00000KT 9SM 17/12 RMK SLP003 T01740122 52005 IEM_DS3505
ZBYN,1983-07-04 00:00,ZBYN 040000Z AUTO 34004KT 12SM 19/13 RMK SLP025 T01920129 52017 IEM_DS3505
ZBYN,1983-07-04 03:00,ZBYN 040300Z AUTO 36004KT 9SM 24/10 RMK SLP026 T02370105 52002 IEM_DS3505
ZBYN,1983-07-04 06:00,ZBYN 040600Z AUTO 36006KT 16SM 27/09 RMK SLP003 T02680091 4////0162 57017 IEM_DS3505
ZBYN,1983-07-04 09:00,ZBYN 040900Z AUTO 02008KT 19SM 27/10 RMK SLP004 T02740095 57001 IEM_DS3505
ZBYN,1983-07-04 12:00,ZBYN 041200Z AUTO 34002KT 19SM 25/09 RMK SLP020 T02530091 52014 IEM_DS3505
ZBYN,1983-07-04 15:00,ZBYN 041500Z AUTO 36004KT 12SM 20/12 RMK SLP039 T02050124 52017 IEM_DS3505
ZBYN,1983-07-04 18:00,ZBYN 041800Z AUTO 32004KT 12SM 18/12 RMK SLP038 T01780119 40278//// 54000 IEM_DS3505
ZBYN,1983-07-04 21:00,ZBYN 042100Z AUTO 34004KT 12SM 17/11 RMK SLP049 T01680108 52009 IEM_DS3505
ZBYN,1983-07-05 00:00,ZBYN 050000Z AUTO 34006KT 16SM 21/11 RMK SLP052 T02070112 52005 IEM_DS3505
ZBYN,1983-07-05 03:00,ZBYN 050300Z AUTO 34006KT 5SM 27/09 RMK SLP047 T02660094 57003 IEM_DS3505
ZBYN,1983-07-05 06:00,ZBYN 050600Z AUTO 04004KT 19SM 29/10 RMK SLP032 T02940099 4////0159 57013 IEM_DS3505
ZBYN,1983-07-05 09:00,ZBYN 050900Z AUTO 34006KT 19SM 31/10 RMK SLP025 T03060100 57011 IEM_DS3505
ZBYN,1983-07-05 12:00,ZBYN 051200Z AUTO 00000KT 19SM 26/11 RMK SLP027 T02620107 52005 IEM_DS3505
ZBYN,1983-07-05 15:00,ZBYN 051500Z AUTO 00000KT 19SM 22/11 RMK SLP040 T02160113 52014 IEM_DS3505
ZBYN,1983-07-05 18:00,ZBYN 051800Z AUTO 34004KT 16SM 19/12 RMK SLP042 T01920121 40310//// 52003 IEM_DS3505
ZBYN,1983-07-05 21:00,ZBYN 052100Z AUTO 36004KT 12SM 18/12 RMK SLP043 T01790120 52001 IEM_DS3505
ZBYN,1983-07-06 00:00,ZBYN 060000Z AUTO 36004KT 11SM 21/12 RMK SLP053 T02140119 52007 IEM_DS3505
ZBYN,1983-07-06 03:00,ZBYN 060300Z AUTO 16004KT 6SM 27/14 RMK SLP043 T02740135 57007 IEM_DS3505
ZBYN,1983-07-06 06:00,ZBYN 060600Z AUTO 16006KT 12SM 29/15 RMK SLP024 T02920148 4////0169 57019 IEM_DS3505
ZBYN,1983-07-06 09:00,ZBYN 060900Z AUTO 22004KT 16SM 30/14 RMK SLP011 T03010136 57011 IEM_DS3505
ZBYN,1983-07-06 12:00,ZBYN 061200Z AUTO 20002KT 16SM 27/16 RMK SLP013 T02680160 52001 IEM_DS3505
ZBYN,1983-07-06 15:00,ZBYN 061500Z AUTO 14004KT 9SM 25/15 RMK SLP018 T02490148 52010 IEM_DS3505
ZBYN,1983-07-06 18:00,ZBYN 061800Z AUTO 00000KT 9SM 21/18 RMK SLP016 T02070178 40306//// 57004 IEM_DS3505
ZBYN,1983-07-06 21:00,ZBYN 062100Z AUTO 00000KT 6SM 20/18 RMK SLP021 T01970176 52004 IEM_DS3505
ZBYN,1983-07-07 00:00,ZBYN 070000Z AUTO 00000KT 5SM 22/18 RMK SLP037 T02220179 52013 IEM_DS3505
ZBYN,1983-07-07 03:00,ZBYN 070300Z AUTO 00000KT 6SM 25/17 RMK SLP032 T02540166 57003 IEM_DS3505
ZBYN,1983-07-07 06:00,ZBYN 070600Z AUTO 00000KT 9SM 29/15 RMK SLP017 T02910146 4////0191 57013 IEM_DS3505
ZBYN,1983-07-07 09:00,ZBYN 070900Z AUTO 00000KT 9SM 29/18 RMK SLP010 T02900176 57008 IEM_DS3505
ZBYN,1983-07-07 12:00,ZBYN 071200Z AUTO 36006KT 9SM 27/15 RMK SLP015 T02720151 52005 IEM_DS3505
ZBYN,1983-07-07 15:00,ZBYN 071500Z AUTO 34008KT 6SM 24/17 RMK SLP030 T02380174 52014 IEM_DS3505
ZBYN,1983-07-07 18:00,ZBYN 071800Z AUTO 34006KT 7SM 23/18 RMK 60004 SLP016 T02280179 40294//// 57009 IEM_DS3505
ZBYN,1983-07-07 21:00,ZBYN 072100Z AUTO 32004KT 6SM 22/17 RMK SLP021 T02240169 52003 IEM_DS3505
ZBYN,1983-07-08 00:00,ZBYN 080000Z AUTO 34006KT 9SM 22/17 RMK 70004 SLP034 T02240172 52009 IEM_DS3505
ZBYN,1983-07-08 03:00,ZBYN 080300Z AUTO 32004KT 6SM 25/18 RMK SLP045 T02510180 52009 IEM_DS3505
ZBYN,1983-07-08 06:00,ZBYN 080600Z AUTO 34004KT 6SM 26/19 RMK SLP036 T02620191 4////0211 57008 IEM_DS3505
ZBYN,1983-07-08 09:00,ZBYN 080900Z AUTO 00000KT 7SM 25/19 RMK SLP037 T02520186 57001 IEM_DS3505
ZBYN,1983-07-08 12:00,ZBYN 081200Z AUTO 00000KT 6SM 24/16 RMK SLP060 T02410165 52020 IEM_DS3505
ZBYN,1983-07-08 15:00,ZBYN 081500Z AUTO 00000KT 6SM 21/16 RMK SLP079 T02110162 52017 IEM_DS3505
ZBYN,1983-07-08 18:00,ZBYN 081800Z AUTO 00000KT 6SM 18/15 RMK 60002 SLP085 T01820151 40262//// 52002 IEM_DS3505
ZBYN,1983-07-08 21:00,ZBYN 082100Z AUTO 00000KT 6SM 18/16 RMK SLP092 T01800155 52006 IEM_DS3505
ZBYN,1983-07-09 00:00,ZBYN 090000Z AUTO 34004KT 6SM 17/16 RMK 60012 70016 SLP104 T01730162 52008 IEM_DS3505
ZBYN,1983-07-09 03:00,ZBYN 090300Z AUTO 34004KT 9SM 19/16 RMK SLP106 T01890157 54000 IEM_DS3505
ZBYN,1983-07-09 05:00,ZBYN 090500Z AUTO 34010KT 4SM 18/16 A2994 RMK T01800160 IEM_DS3505
ZBYN,1983-07-09 06:00,ZBYN 090600Z AUTO 32004KT 6SM 18/16 A2994 RMK 60008 SLP112 T01790164 4////0163 54000 IEM_DS3505
ZBYN,1983-07-09 07:00,ZBYN 090700Z AUTO 36006KT 4SM 18/17 A2994 RMK T01800170 IEM_DS3505
ZBYN,1983-07-09 08:00,ZBYN 090800Z AUTO 33010KT 5SM 18/17 A2994 RMK T01800170 IEM_DS3505
ZBYN,1983-07-09 09:00,ZBYN 090900Z AUTO 34004KT 5SM 18/17 A2994 RMK SLP113 T01760166 54000 IEM_DS3505
ZBYN,1983-07-09 10:00,ZBYN 091000Z AUTO 32004KT 4SM 18/17 A2994 RMK T01800170 IEM_DS3505
ZBYN,1983-07-09 12:00,ZBYN 091200Z AUTO 32004KT 5SM 17/17 RMK 60012 SLP118 T01740166 52004 IEM_DS3505
ZBYN,1983-07-09 15:00,ZBYN 091500Z AUTO 32008KT 5SM 18/16 RMK SLP121 T01750160 52004 IEM_DS3505
ZBYN,1983-07-09 18:00,ZBYN 091800Z AUTO 36002KT 5SM 18/16 RMK 60000 SLP117 T01760156 40193//// 57004 IEM_DS3505
ZBYN,1983-07-09 21:00,ZBYN 092100Z AUTO 34002KT 5SM 17/16 RMK SLP113 T01720158 57005 IEM_DS3505
ZBYN,1983-07-10 00:00,ZBYN 100000Z AUTO 00000KT 5SM 19/16 RMK 70020 SLP114 T01920164 52004 IEM_DS3505
ZBYN,1983-07-10 03:00,ZBYN 100300Z AUTO 32004KT 9SM 21/16 RMK SLP115 T02120164 52003 IEM_DS3505
ZBYN,1983-07-10 06:00,ZBYN 100600Z AUTO 00000KT 9SM 24/17 RMK SLP096 T02440168 4////0166 57012 IEM_DS3505
ZBYN,1983-07-10 09:00,ZBYN 100900Z AUTO 00000KT 9SM 25/19 RMK SLP079 T02530186 57015 IEM_DS3505
ZBYN,1983-07-10 12:00,ZBYN 101200Z AUTO 00000KT 8SM 23/21 RMK SLP085 T02340210 52006 IEM_DS3505
ZBYN,1983-07-10 15:00,ZBYN 101500Z AUTO 00000KT 9SM 22/19 RMK SLP093 T02180186 52007 IEM_DS3505
ZBYN,1983-07-10 18:00,ZBYN 101800Z AUTO 00000KT 6SM 20/19 RMK 70185 SLP092 T02030187 40263//// 52002 IEM_DS3505
ZBYN,1983-07-10 21:00,ZBYN 102100Z AUTO 00000KT 6SM 20/18 RMK SLP080 T02040180 57009 IEM_DS3505
ZBYN,1983-07-11 00:00,ZBYN 110000Z AUTO 34004KT 4SM 22/18 RMK SLP084 T02200183 52002 IEM_DS3505
ZBYN,1983-07-11 03:00,ZBYN 110300Z AUTO 00000KT 7SM 26/19 RMK SLP077 T02620189 57002 IEM_DS3505
ZBYN,1983-07-11 06:00,ZBYN 110600Z AUTO 20004KT 6SM 28/20 RMK SLP059 T02810198 4////0193 57017 IEM_DS3505
ZBYN,1983-07-11 09:00,ZBYN 110900Z AUTO 00000KT 7SM 27/20 RMK SLP052 T02690196 57007 IEM_DS3505
ZBYN,1983-07-11 12:00,ZBYN 111200Z AUTO 32006KT 4SM 21/20 RMK 60004 SLP076 T02140200 52016 IEM_DS3505
ZBYN,1983-07-11 15:00,ZBYN 111500Z AUTO 09004KT 4SM 20/20 RMK SLP082 T02050197 52010 IEM_DS3505
ZBYN,1983-07-11 18:00,ZBYN 111800Z AUTO 00000KT 5SM 20/19 RMK 60004 SLP074 T02030194 40283//// 57005 IEM_DS3505
ZBYN,1983-07-11 21:00,ZBYN 112100Z AUTO 00000KT 6SM 20/19 RMK SLP069 T02020194 57006 IEM_DS3505
ZBYN,1983-07-12 00:00,ZBYN 120000Z AUTO 00000KT 5SM 21/19 RMK 70008 SLP080 T02100191 52003 IEM_DS3505
ZBYN,1983-07-12 03:00,ZBYN 120300Z AUTO 00000KT 6SM 23/20 A3003 RMK SLP076 T02300200 57002 IEM_DS3505
ZBYN,1983-07-12 04:00,ZBYN 120400Z AUTO 00000KT 6SM 23/19 A2988 RMK T02300190 IEM_DS3505
ZBYN,1983-07-12 05:00,ZBYN 120500Z AUTO 00000KT 6SM 23/18 A2985 RMK T02300180 IEM_DS3505
ZBYN,1983-07-12 06:00,ZBYN 120600Z AUTO 36006KT 6SM 22/19 A2985 RMK SLP072 T02210193 4////0195 57005 IEM_DS3505
ZBYN,1983-07-12 08:00,ZBYN 120800Z AUTO 33004KT 6SM 22/19 A2985 RMK T02200190 IEM_DS3505
ZBYN,1983-07-12 09:00,ZBYN 120900Z AUTO 32004KT 5SM 21/19 RMK SLP069 T02080192 57005 IEM_DS3505
ZBYN,1983-07-12 12:00,ZBYN 121200Z AUTO 00000KT 5SM 20/19 RMK 60008 SLP069 T01970187 54000 IEM_DS3505
ZBYN,1983-07-12 15:00,ZBYN 121500Z AUTO 34002KT 6SM 20/18 RMK SLP070 T01950179 52003 IEM_DS3505
ZBYN,1983-07-12 18:00,ZBYN 121800Z AUTO 00000KT 5SM 19/18 RMK 60001 SLP070 T01860176 40248//// 57002 IEM_DS3505
ZBYN,1983-07-12 21:00,ZBYN 122100Z AUTO 00000KT 5SM 19/18 RMK SLP064 T01860178 57007 IEM_DS3505
ZBYN,1983-07-13 00:00,ZBYN 130000Z AUTO 16004KT 2SM 19/18 RMK 60004 70012 SLP067 T01870182 52001 IEM_DS3505
ZBYN,1983-07-13 03:00,ZBYN 130300Z AUTO 00000KT 4SM 19/19 RMK SLP065 T01940186 57001 IEM_DS3505
ZBYN,1983-07-13 06:00,ZBYN 130600Z AUTO 20006KT 9SM 21/16 RMK 60020 SLP061 T02060160 4////0181 57003 IEM_DS3505
ZBYN,1983-07-13 09:00,ZBYN 130900Z AUTO 22004KT 4SM 22/18 RMK SLP042 T02220177 57015 IEM_DS3505
ZBYN,1983-07-13 12:00,ZBYN 131200Z AUTO 18004KT 11SM 21/16 RMK SLP041 T02100163 57002 IEM_DS3505
ZBYN,1983-07-13 15:00,ZBYN 131500Z AUTO 09004KT 9SM 18/16 RMK SLP042 T01790164 57003 IEM_DS3505
ZBYN,1983-07-13 18:00,ZBYN 131800Z AUTO 22008KT 7SM 19/15 RMK SLP037 T01870149 40229//// 57002 IEM_DS3505
ZBYN,1983-07-13 21:00,ZBYN 132100Z AUTO 29008KT 9SM 20/05 RMK SLP036 T01980053 52003 IEM_DS3505
ZBYN,1983-07-14 00:00,ZBYN 140000Z AUTO 27006KT 9SM 20/08 RMK 70020 SLP050 T02040080 52012 IEM_DS3505
ZBYN,1983-07-14 03:00,ZBYN 140300Z AUTO 29008KT 16SM 23/09 RMK SLP045 T02340090 57005 IEM_DS3505
ZBYN,1983-07-14 06:00,ZBYN 140600Z AUTO 27008KT 19SM 25/12 RMK SLP038 T02540116 4////0161 57002 IEM_DS3505
ZBYN,1983-07-14 09:00,ZBYN 140900Z AUTO 32010KT 19SM 27/09 RMK SLP029 T02660091 57006 IEM_DS3505
ZBYN,1983-07-14 12:00,ZBYN 141200Z AUTO 27006KT 16SM 21/10 RMK SLP046 T02140101 52010 IEM_DS3505
ZBYN,1983-07-14 15:00,ZBYN 141500Z AUTO 34002KT 9SM 16/13 RMK SLP056 T01650129 52007 IEM_DS3505
ZBYN,1983-07-14 18:00,ZBYN 141800Z AUTO 11004KT 9SM 16/12 RMK SLP053 T01560124 40270//// IEM_DS3505
ZBYN,1983-07-14 21:00,ZBYN 142100Z AUTO 11004KT 9SM 15/12 RMK SLP056 T01480119 52003 IEM_DS3505
ZBYN,1983-07-15 00:00,ZBYN 150000Z AUTO 00000KT 16SM 19/12 RMK SLP062 T01900121 52004 IEM_DS3505
ZBYN,1983-07-15 03:00,ZBYN 150300Z AUTO 14004KT 12SM 25/15 RMK SLP051 T02500149 57008 IEM_DS3505
ZBYN,1983-07-15 06:00,ZBYN 150600Z AUTO 29008KT 16SM 30/04 RMK SLP021 T02950044 4////0140 57022 IEM_DS3505
ZBYN,1983-07-15 09:00,ZBYN 150900Z AUTO 20/06 RMK SLP016 T02000059 57005 IEM_DS3505
ZBYN,1983-07-15 12:00,ZBYN 151200Z AUTO 00000KT 17SM 24/14 RMK SLP023 T02450141 52004 IEM_DS3505
ZBYN,1983-07-15 18:00,ZBYN 151800Z AUTO 00000KT 9SM 16/14 RMK SLP033 T01590136 40304//// 57003 IEM_DS3505
ZBYN,1983-07-15 21:00,ZBYN 152100Z AUTO 27002KT 6SM 13/12 RMK SLP045 T01330122 52008 IEM_DS3505
ZBYN,1983-07-16 00:00,ZBYN 160000Z AUTO 00000KT 4SM 20/15 RMK SLP053 T01960148 52008 IEM_DS3505
ZBYN,1983-07-16 03:00,ZBYN 160300Z AUTO 14004KT 5SM 27/14 RMK SLP050 T02660142 57002 IEM_DS3505
ZBYN,1983-07-16 06:00,ZBYN 160600Z AUTO 29004KT 12SM 30/15 RMK SLP033 T02990147 4////0125 57013 IEM_DS3505
ZBYN,1983-07-16 09:00,ZBYN 160900Z AUTO 18004KT 16SM 31/12 RMK SLP028 T03060125 57007 IEM_DS3505
ZBYN,1983-07-16 12:00,ZBYN 161200Z AUTO 00000KT 12SM 25/17 RMK SLP040 T02500170 52011 IEM_DS3505
ZBYN,1983-07-16 15:00,ZBYN 161500Z AUTO 34004KT 7SM 22/14 RMK SLP047 T02190137 52012 IEM_DS3505
ZBYN,1983-07-16 18:00,ZBYN 161800Z AUTO 34002KT 6SM 17/15 RMK SLP054 T01690152 40316//// 52004 IEM_DS3505
ZBYN,1983-07-16 21:00,ZBYN 162100Z AUTO 34006KT 6SM 16/14 RMK SLP054 T01580142 57001 IEM_DS3505
ZBYN,1983-07-17 00:00,ZBYN 170000Z AUTO 00000KT 4SM 21/14 RMK SLP072 T02110141 52016 IEM_DS3505
ZBYN,1983-07-17 09:00,ZBYN 170900Z AUTO 00000KT 19SM 33/14 RMK SLP038 T03280135 57011 IEM_DS3505
ZBYN,1983-07-17 12:00,ZBYN 171200Z AUTO 00000KT 19SM 26/20 RMK SLP042 T02640199 52002 IEM_DS3505
ZBYN,1983-07-17 15:00,ZBYN 171500Z AUTO 11006KT 16SM 25/15 RMK SLP049 T02480151 52013 IEM_DS3505
ZBYN,1983-07-17 18:00,ZBYN 171800Z AUTO 11006KT 12SM 22/12 RMK SLP051 T02230122 40338//// 52004 IEM_DS3505
ZBYN,1983-07-17 21:00,ZBYN 172100Z AUTO 00000KT 9SM 18/15 RMK SLP055 T01850149 54000 IEM_DS3505
ZBYN,1983-07-18 00:00,ZBYN 180000Z AUTO 34004KT 6SM 22/15 RMK SLP064 T02170147 52004 IEM_DS3505
ZBYN,1983-07-18 03:00,ZBYN 180300Z AUTO 18006KT 9SM 27/16 RMK SLP054 T02710162 57004 IEM_DS3505
ZBYN,1983-07-18 06:00,ZBYN 180600Z AUTO 22006KT 12SM 29/16 RMK SLP034 T02900159 4////0177 57019 IEM_DS3505
ZBYN,1983-07-18 09:00,ZBYN 180900Z AUTO 11010KT 12SM 22/17 RMK SLP040 T02200172 57008 IEM_DS3505
ZBYN,1983-07-18 12:00,ZBYN 181200Z AUTO 18002KT 12SM 23/16 RMK SLP043 T02300160 52007 IEM_DS3505
ZBYN,1983-07-18 15:00,ZBYN 181500Z AUTO 11004KT 9SM 20/16 RMK SLP047 T02040156 52007 IEM_DS3505
ZBYN,1983-07-18 18:00,ZBYN 181800Z AUTO 11002KT 9SM 18/17 RMK SLP049 T01840166 40296//// 52002 IEM_DS3505
ZBYN,1983-07-18 21:00,ZBYN 182100Z AUTO 11004KT 6SM 18/17 RMK SLP050 T01780167 57009 IEM_DS3505
ZBYN,1983-07-19 00:00,ZBYN 190000Z AUTO 00000KT 6SM 19/16 RMK SLP052 T01880165 52005 IEM_DS3505
ZBYN,1983-07-19 01:00,ZBYN 190100Z AUTO 33002KT 1 1/4SM 20/17 A2980 RMK T02000170 IEM_DS3505
ZBYN,1983-07-19 02:00,ZBYN 190200Z AUTO 00000KT 4SM 22/18 A2977 RMK T02200180 IEM_DS3505
ZBYN,1983-07-19 03:00,ZBYN 190300Z AUTO 22006KT 4SM 23/18 A2977 RMK SLP042 T02300180 57007 IEM_DS3505
ZBYN,1983-07-19 04:00,ZBYN 190400Z AUTO 25004KT 7SM 25/18 A2977 RMK T02500180 IEM_DS3505
ZBYN,1983-07-19 05:00,ZBYN 190500Z AUTO 15006KT 6SM 26/17 A2974 RMK T02600170 IEM_DS3505
ZBYN,1983-07-19 06:00,ZBYN 190600Z AUTO 22006KT 9SM 27/18 RMK SLP020 T02700178 4////0168 57020 IEM_DS3505
ZBYN,1983-07-19 07:00,ZBYN 190700Z AUTO 21012KT 6SM 28/16 A2974 RMK T02800160 IEM_DS3505
ZBYN,1983-07-19 08:00,ZBYN 190800Z AUTO 18010KT 6SM 28/16 A2974 RMK T02800160 IEM_DS3505
ZBYN,1983-07-19 09:00,ZBYN 190900Z AUTO 18008KT 9SM 27/15 RMK SLP009 T02740152 57010 IEM_DS3505
ZBYN,1983-07-19 10:00,ZBYN 191000Z AUTO 30004KT 7SM 27/17 A2968 RMK T02700170 IEM_DS3505
ZBYN,1983-07-19 12:00,ZBYN 191200Z AUTO 00000KT 7SM 22/17 RMK SLP028 T02170172 52011 IEM_DS3505
ZBYN,1983-07-19 15:00,ZBYN 191500Z AUTO 11002KT 7SM 20/17 RMK SLP035 T02030174 52011 IEM_DS3505
ZBYN,1983-07-19 18:00,ZBYN 191800Z AUTO 14002KT 6SM 19/17 RMK SLP028 T01930170 40278//// 57004 IEM_DS3505
ZBYN,1983-07-19 21:00,ZBYN 192100Z AUTO 11004KT 5SM 18/17 RMK SLP028 T01820171 57001 IEM_DS3505
ZBYN,1983-07-20 00:00,ZBYN 200000Z AUTO 00000KT 4SM 20/17 RMK SLP036 T01950172 52002 IEM_DS3505
ZBYN,1983-07-20 03:00,ZBYN 200300Z AUTO 00000KT 5SM 24/19 RMK SLP023 T02440191 57007 IEM_DS3505
ZBYN,1983-07-20 06:00,ZBYN 200600Z AUTO 29006KT 6SM 30/19 RMK SLP993 T02980194 4////0076 57021 IEM_DS3505
ZBYN,1983-07-20 09:00,ZBYN 200900Z AUTO 20004KT 12SM 32/15 RMK SLP967 T03200148 57017 IEM_DS3505
ZBYN,1983-07-20 12:00,ZBYN 201200Z AUTO 00000KT 7SM 27/21 RMK SLP982 T02740211 52003 IEM_DS3505
ZBYN,1983-07-20 15:00,ZBYN 201500Z AUTO 00000KT 6SM 24/17 RMK SLP000 T02380169 52019 IEM_DS3505
ZBYN,1983-07-20 18:00,ZBYN 201800Z AUTO 09004KT 6SM 20/18 RMK SLP001 T02020176 40322//// 52003 IEM_DS3505
ZBYN,1983-07-20 21:00,ZBYN 202100Z AUTO 00000KT 5SM 19/17 RMK SLP010 T01920171 52010 IEM_DS3505
ZBYN,1983-07-21 00:00,ZBYN 210000Z AUTO 00000KT 5SM 21/18 RMK SLP020 T02130184 52006 IEM_DS3505
ZBYN,1983-07-21 03:00,ZBYN 210300Z AUTO 32006KT 6SM 28/17 RMK SLP012 T02840172 57003 IEM_DS3505
ZBYN,1983-07-21 06:00,ZBYN 210600Z AUTO 34004KT 16SM 32/09 RMK SLP003 T03220088 4////0183 57008 IEM_DS3505
ZBYN,1983-07-21 09:00,ZBYN 210900Z AUTO 36004KT 16SM 33/09 RMK SLP999 T03310089 57004 IEM_DS3505
ZBYN,1983-07-21 12:00,ZBYN 211200Z AUTO 27002KT 16SM 26/17 RMK SLP015 T02610167 52008 IEM_DS3505
ZBYN,1983-07-21 15:00,ZBYN 211500Z AUTO 32004KT 12SM 22/14 RMK SLP021 T02180136 52009 IEM_DS3505
ZBYN,1983-07-21 18:00,ZBYN 211800Z AUTO 00000KT 9SM 18/15 RMK SLP028 T01790150 40337//// 52007 IEM_DS3505
ZBYN,1983-07-21 21:00,ZBYN 212100Z AUTO 14002KT 9SM 17/16 RMK SLP038 T01720160 52009 IEM_DS3505
ZBYN,1983-07-22 00:00,ZBYN 220000Z AUTO 16002KT 5SM 21/18 RMK SLP047 T02120183 52004 IEM_DS3505
ZBYN,1983-07-22 03:00,ZBYN 220300Z AUTO 18004KT 6SM 26/18 RMK SLP043 T02560184 57003 IEM_DS3505
ZBYN,1983-07-22 06:00,ZBYN 220600Z AUTO 14006KT 11SM 31/17 RMK SLP023 T03120172 57016 IEM_DS3505
ZBYN,1983-07-22 09:00,ZBYN 220900Z AUTO 16004KT 9SM 32/19 RMK SLP011 T03220189 57011 IEM_DS3505
ZBYN,1983-07-22 12:00,ZBYN 221200Z AUTO 00000KT 9SM 29/12 RMK SLP020 T02940119 52010 IEM_DS3505
ZBYN,1983-07-22 15:00,ZBYN 221500Z AUTO 14004KT 9SM 22/17 RMK SLP042 T02160169 52016 IEM_DS3505
ZBYN,1983-07-22 18:00,ZBYN 221800Z AUTO 11002KT 9SM 19/17 RMK SLP040 T01910168 40327//// 52002 IEM_DS3505
ZBYN,1983-07-22 21:00,ZBYN 222100Z AUTO 32004KT 9SM 18/15 RMK SLP034 T01800151 57006 IEM_DS3505
ZBYN,1983-07-23 00:00,ZBYN 230000Z AUTO 34004KT 4SM 22/16 RMK SLP041 T02210158 52008 IEM_DS3505
ZBYN,1983-07-23 03:00,ZBYN 230300Z AUTO 20002KT 6SM 27/19 A2977 RMK SLP034 T02700190 57010 IEM_DS3505
ZBYN,1983-07-23 04:00,ZBYN 230400Z AUTO 23006KT 6SM 30/11 A2977 RMK T03000110 IEM_DS3505
ZBYN,1983-07-23 05:00,ZBYN 230500Z AUTO 00000KT 6SM 31/18 A2974 RMK T03100180 IEM_DS3505
ZBYN,1983-07-23 06:00,ZBYN 230600Z AUTO 00000KT 6SM 33/18 A2974 RMK SLP004 T03300176 4////0175 57020 IEM_DS3505
ZBYN,1983-07-23 07:00,ZBYN 230700Z AUTO 15010KT 7SM 33/16 A2968 RMK T03300160 IEM_DS3505
ZBYN,1983-07-23 08:00,ZBYN 230800Z AUTO 29002KT 7SM 33/18 A2968 RMK T03300180 IEM_DS3505
ZBYN,1983-07-23 09:00,ZBYN 230900Z AUTO 00000KT 12SM 30/17 RMK SLP997 T02980173 57012 IEM_DS3505
ZBYN,1983-07-23 10:00,ZBYN 231000Z AUTO 33004KT 7SM 31/16 A2965 RMK T03100160 IEM_DS3505
ZBYN,1983-07-23 12:00,ZBYN 231200Z AUTO 32006KT 9SM 28/13 RMK SLP003 T02750128 52007 IEM_DS3505
ZBYN,1983-07-23 15:00,ZBYN 231500Z AUTO 09006KT 6SM 23/15 RMK SLP026 T02280152 52022 IEM_DS3505
ZBYN,1983-07-23 18:00,ZBYN 231800Z AUTO 32004KT 7SM 24/14 RMK SLP011 T02350136 40346//// 57011 IEM_DS3505
ZBYN,1983-07-23 21:00,ZBYN 232100Z AUTO 00000KT 7SM 21/16 RMK SLP006 T02080158 57012 IEM_DS3505
ZBYN,1983-07-24 00:00,ZBYN 240000Z AUTO 02004KT 6SM 22/16 RMK SLP018 T02240160 52010 IEM_DS3505
ZBYN,1983-07-24 03:00,ZBYN 240300Z AUTO 34006KT 6SM 28/18 RMK SLP015 T02830177 57001 IEM_DS3505
ZBYN,1983-07-24 06:00,ZBYN 240600Z AUTO 00000KT 12SM 32/15 RMK SLP987 T03200146 4////0191 57021 IEM_DS3505
ZBYN,1983-07-24 09:00,ZBYN 240900Z AUTO 07006KT 12SM RMK SLP984 57008 IEM_DS3505
ZBYN,1983-07-24 12:00,ZBYN 241200Z AUTO 09010KT 6SM 27/17 RMK SLP994 T02700170 52007 IEM_DS3505
ZBYN,1983-07-24 15:00,ZBYN 241500Z AUTO 36004KT 6SM 23/17 RMK SLP026 T02260172 52031 IEM_DS3505
ZBYN,1983-07-24 18:00,ZBYN 241800Z AUTO 00000KT 5SM 20/19 RMK 60020 SLP012 T01990186 40329//// 57011 IEM_DS3505
ZBYN,1983-07-24 21:00,ZBYN 242100Z AUTO 32004KT 4SM 19/18 RMK 70020 SLP022 T01900177 52005 IEM_DS3505
ZBYN,1983-07-25 00:00,ZBYN 250000Z AUTO 00000KT 4SM 22/19 RMK 60001 70020 SLP031 T02180188 52008 IEM_DS3505
ZBYN,1983-07-25 06:00,ZBYN 250600Z AUTO 22004KT 9SM 29/19 RMK SLP014 T02910192 4////0187 57008 IEM_DS3505
ZBYN,1983-07-25 09:00,ZBYN 250900Z AUTO 20004KT 9SM 31/20 RMK SLP999 T03080195 57012 IEM_DS3505
ZBYN,1983-07-25 12:00,ZBYN 251200Z AUTO 07002KT 12SM 26/22 RMK SLP009 T02560221 52006 IEM_DS3505
ZBYN,1983-07-25 15:00,ZBYN 251500Z AUTO 11004KT 9SM 23/19 RMK SLP023 T02260189 52014 IEM_DS3505
ZBYN,1983-07-25 18:00,ZBYN 251800Z AUTO 00000KT 11SM 20/19 RMK SLP030 T02050188 40312//// 52008 IEM_DS3505
ZBYN,1983-07-25 21:00,ZBYN 252100Z AUTO 14006KT 6SM 21/17 RMK SLP026 T02090173 54000 IEM_DS3505
ZBYN,1983-07-26 00:00,ZBYN 260000Z AUTO 00000KT 5SM 24/19 A2980 RMK SLP038 T02390188 52007 IEM_DS3505
ZBYN,1983-07-26 03:00,ZBYN 260300Z AUTO 00000KT 6SM 30/21 RMK SLP039 T03000206 52005 IEM_DS3505
ZBYN,1983-07-26 04:00,ZBYN 260400Z AUTO 20008KT 7SM 31/20 A2977 RMK T03100200 IEM_DS3505
ZBYN,1983-07-26 05:00,ZBYN 260500Z AUTO 20004KT 7SM 32/20 A2977 RMK T03200200 IEM_DS3505
ZBYN,1983-07-26 06:00,ZBYN 260600Z AUTO 00000KT 9SM 33/19 A2977 RMK SLP017 T03280189 4////0191 57019 IEM_DS3505
ZBYN,1983-07-26 07:00,ZBYN 260700Z AUTO 18008G19KT 7SM 35/16 A2974 RMK T03500160 IEM_DS3505
ZBYN,1983-07-26 09:00,ZBYN 260900Z AUTO 16004KT 12SM 35/19 A2974 RMK SLP997 T03480194 57015 IEM_DS3505
ZBYN,1983-07-26 12:00,ZBYN 261200Z AUTO 22004KT 6SM 27/17 RMK SLP026 T02690171 52020 IEM_DS3505
ZBYN,1983-07-26 15:00,ZBYN 261500Z AUTO 34004KT 6SM 23/20 RMK SLP039 T02270198 52014 IEM_DS3505
ZBYN,1983-07-26 18:00,ZBYN 261800Z AUTO 36008KT 6SM 22/18 RMK 60012 SLP038 T02220183 40348//// 52002 IEM_DS3505
ZBYN,1983-07-26 21:00,ZBYN 262100Z AUTO 32006KT 7SM 21/18 RMK SLP039 T02100180 52003 IEM_DS3505
ZBYN,1983-07-27 00:00,ZBYN 270000Z AUTO 32006KT 9SM 22/19 RMK 70012 SLP063 T02190188 52012 IEM_DS3505
ZBYN,1983-07-27 03:00,ZBYN 270300Z AUTO 34006KT 6SM 27/21 RMK SLP051 T02660211 57010 IEM_DS3505
ZBYN,1983-07-27 06:00,ZBYN 270600Z AUTO 32004KT 6SM 31/22 RMK SLP015 T03070216 4////0204 57028 IEM_DS3505
ZBYN,1983-07-27 09:00,ZBYN 270900Z AUTO 00000KT 9SM 33/20 RMK SLP989 T03300199 57022 IEM_DS3505
ZBYN,1983-07-27 12:00,ZBYN 271200Z AUTO 00000KT 9SM 28/19 RMK SLP008 T02780191 52012 IEM_DS3505
ZBYN,1983-07-27 15:00,ZBYN 271500Z AUTO 34004KT 9SM 26/20 RMK SLP021 T02580205 52015 IEM_DS3505
ZBYN,1983-07-27 18:00,ZBYN 271800Z AUTO 34002KT 6SM 24/20 RMK SLP016 T02380201 40335//// 57002 IEM_DS3505
ZBYN,1983-07-27 21:00,ZBYN 272100Z AUTO 00000KT 6SM 23/20 RMK SLP010 T02270201 57003 IEM_DS3505
ZBYN,1983-07-28 00:00,ZBYN 280000Z AUTO 00000KT 4SM 25/21 RMK T02510212 52002 IEM_DS3505
ZBYN,1983-07-28 03:00,ZBYN 280300Z AUTO 18008KT 6SM 29/22 RMK SLP006 T02940223 57007 IEM_DS3505
ZBYN,1983-07-28 06:00,ZBYN 280600Z AUTO 29008KT 5SM 26/22 RMK 60002 SLP010 T02600215 4////0208 57004 IEM_DS3505
ZBYN,1983-07-28 09:00,ZBYN 280900Z AUTO 32004KT 9SM 24/20 RMK SLP045 T02420199 52028 IEM_DS3505
ZBYN,1983-07-28 12:00,ZBYN 281200Z AUTO 00000KT 6SM 22/21 RMK 60020 SLP032 T02230211 57011 IEM_DS3505
ZBYN,1983-07-28 15:00,ZBYN 281500Z AUTO 14002KT 6SM 22/21 RMK SLP023 T02150206 57004 IEM_DS3505
ZBYN,1983-07-28 18:00,ZBYN 281800Z AUTO 00000KT 2 1/2SM 22/21 RMK 60001 SLP029 T02160208 40307//// 52001 IEM_DS3505
ZBYN,1983-07-28 21:00,ZBYN 282100Z AUTO 00000KT 6SM 21/21 RMK SLP034 T02120206 52002 IEM_DS3505
ZBYN,1983-07-29 00:00,ZBYN 290000Z AUTO 00000KT 4SM 23/21 RMK 70020 SLP043 T02320209 52008 IEM_DS3505
ZBYN,1983-07-29 03:00,ZBYN 290300Z AUTO 00000KT 7SM 28/21 RMK SLP028 T02830209 57007 IEM_DS3505
ZBYN,1983-07-29 06:00,ZBYN 290600Z AUTO 18006KT 7SM 28/22 RMK SLP018 T02750225 4////0208 57010 IEM_DS3505
ZBYN,1983-07-29 09:00,ZBYN 290900Z AUTO 18004KT 6SM 27/22 RMK SLP015 T02670221 57005 IEM_DS3505
ZBYN,1983-07-29 12:00,ZBYN 291200Z AUTO 16004KT 6SM 25/21 RMK SLP032 T02520211 52016 IEM_DS3505
ZBYN,1983-07-29 15:00,ZBYN 291500Z AUTO 00000KT 7SM 24/22 RMK SLP030 T02370219 52003 IEM_DS3505
ZBYN,1983-07-29 18:00,ZBYN 291800Z AUTO 32002KT 6SM 24/21 RMK SLP023 T02380211 40286//// 57007 IEM_DS3505
ZBYN,1983-07-29 20:00,ZBYN 292000Z AUTO 36006KT 6SM 23/18 RMK SLP022 T02280180 57004 IEM_DS3505
ZBYN,1983-07-29 21:00,ZBYN 292100Z AUTO 36006KT 6SM 23/18 RMK SLP022 T02280180 57004 IEM_DS3505
ZBYN,1983-07-30 00:00,ZBYN 300000Z AUTO 34006KT 12SM 20/16 RMK 60004 70004 SLP048 T01980162 52018 IEM_DS3505
ZBYN,1983-07-30 03:00,ZBYN 300300Z AUTO 33016KT 7SM 18/16 A2980 RMK SLP073 T01800160 52019 IEM_DS3505
ZBYN,1983-07-30 05:00,ZBYN 300500Z AUTO 35010KT 7SM 18/17 A2985 RMK T01800170 IEM_DS3505
ZBYN,1983-07-30 06:00,ZBYN 300600Z AUTO 00000KT 9SM 19/17 A2985 RMK 60039 SLP073 T01880167 4////0175 52001 IEM_DS3505
ZBYN,1983-07-30 07:00,ZBYN 300700Z AUTO 34010KT 6SM 20/17 A2985 RMK T02000170 IEM_DS3505
ZBYN,1983-07-30 08:00,ZBYN 300800Z AUTO 00000KT 6SM 21/18 A2985 RMK T02100180 IEM_DS3505
ZBYN,1983-07-30 09:00,ZBYN 300900Z AUTO 00000KT 11SM 22/18 RMK SLP076 T02150178 52004 IEM_DS3505
ZBYN,1983-07-30 12:00,ZBYN 301200Z AUTO 00000KT 12SM 20/17 RMK SLP081 T01950174 57002 IEM_DS3505
ZBYN,1983-07-30 15:00,ZBYN 301500Z AUTO 00000KT 9SM 19/18 RMK SLP103 T01880176 52017 IEM_DS3505
ZBYN,1983-07-30 18:00,ZBYN 301800Z AUTO 00000KT 9SM 18/17 RMK SLP095 T01830172 40240//// 57007 IEM_DS3505
ZBYN,1983-07-30 21:00,ZBYN 302100Z AUTO 00000KT 5SM 18/17 RMK SLP092 T01790172 54000 IEM_DS3505
ZBYN,1983-07-31 00:00,ZBYN 310000Z AUTO 00000KT 4SM 20/17 RMK 70039 SLP100 T02010173 52008 IEM_DS3505
ZBYN,1983-07-31 03:00,ZBYN 310300Z AUTO 00000KT 4SM 22/17 RMK SLP102 T02240169 52004 IEM_DS3505
ZBYN,1983-07-31 06:00,ZBYN 310600Z AUTO 00000KT 6SM 25/17 RMK SLP093 T02470172 4////0173 57006 IEM_DS3505
ZBYN,1983-07-31 09:00,ZBYN 310900Z AUTO 00000KT 4SM 21/19 RMK SLP098 T02140187 54000 IEM_DS3505
ZBYN,1983-07-31 12:00,ZBYN 311200Z AUTO 00000KT 5SM 19/18 RMK 60012 SLP112 T01910180 52013 IEM_DS3505
ZBYN,1983-07-31 15:00,ZBYN 311500Z AUTO 00000KT 6SM 18/17 RMK SLP113 T01820174 52002 IEM_DS3505
ZBYN,1983-07-31 18:00,ZBYN 311800Z AUTO 00000KT 4SM 18/17 RMK 60012 SLP098 T01790174 40248//// 57011 IEM_DS3505
ZBYN,1983-07-31 21:00,ZBYN 312100Z AUTO 00000KT 4SM 18/17 RMK SLP104 T01750170 54000 IEM_DS3505
ZBYN,1983-08-01 00:00,ZBYN 010000Z AUTO 09004KT 4SM 19/18 RMK 70024 SLP106 T01900180 52001 IEM_DS3505
ZBYN,1983-08-01 03:00,ZBYN 010300Z AUTO 14004KT 6SM 22/18 RMK SLP102 T02220184 57001 IEM_DS3505
ZBYN,1983-08-01 06:00,ZBYN 010600Z AUTO 14004KT 7SM 26/20 RMK SLP078 T02550195 4////0171 57017 IEM_DS3505
ZBYN,1983-08-01 09:00,ZBYN 010900Z AUTO 18006KT 9SM 26/20 RMK SLP070 T02580202 57007 IEM_DS3505
ZBYN,1983-08-01 12:00,ZBYN 011200Z AUTO 16006KT 11SM 24/20 RMK SLP068 T02390205 57003 IEM_DS3505
ZBYN,1983-08-01 15:00,ZBYN 011500Z AUTO 11004KT 6SM 22/20 RMK SLP076 T02160199 52009 IEM_DS3505
ZBYN,1983-08-01 18:00,ZBYN 011800Z AUTO 16004KT 6SM 20/19 RMK SLP077 T02030194 40267//// 52004 IEM_DS3505
ZBYN,1983-08-01 21:00,ZBYN 012100Z AUTO 14004KT 5SM 20/19 RMK SLP078 T02010190 52001 IEM_DS3505
ZBYN,1983-08-02 00:00,ZBYN 020000Z AUTO 18004KT 4SM 21/20 RMK SLP074 T02120195 57005 IEM_DS3505
ZBYN,1983-08-02 03:00,ZBYN 020300Z AUTO 20004KT 6SM 25/20 A2985 RMK SLP068 T02470196 57004 IEM_DS3505
ZBYN,1983-08-02 04:00,ZBYN 020400Z AUTO 18008KT 6SM 26/20 A2985 RMK T02600200 IEM_DS3505
ZBYN,1983-08-02 06:00,ZBYN 020600Z AUTO 18004KT 9SM 26/22 A2985 RMK SLP051 T02650219 4////0191 57015 IEM_DS3505
ZBYN,1983-08-02 07:00,ZBYN 020700Z AUTO 18008KT 7SM 27/20 A2980 RMK T02700200 IEM_DS3505
ZBYN,1983-08-02 08:00,ZBYN 020800Z AUTO 18004KT 7SM 27/20 A2980 RMK T02700200 IEM_DS3505
ZBYN,1983-08-02 09:00,ZBYN 020900Z AUTO 00000KT 12SM 26/21 RMK SLP043 T02650206 57007 IEM_DS3505
ZBYN,1983-08-02 12:00,ZBYN 021200Z AUTO 00000KT 9SM 24/22 RMK SLP048 T02410216 52003 IEM_DS3505
ZBYN,1983-08-02 15:00,ZBYN 021500Z AUTO 00000KT 7SM 24/21 RMK SLP050 T02350212 52005 IEM_DS3505
ZBYN,1983-08-02 18:00,ZBYN 021800Z AUTO 00000KT 6SM 23/21 RMK SLP044 T02280211 40273//// 57004 IEM_DS3505
ZBYN,1983-08-02 21:00,ZBYN 022100Z AUTO 11004KT 6SM 22/20 RMK SLP039 T02230201 57015 IEM_DS3505
ZBYN,1983-08-03 00:00,ZBYN 030000Z AUTO 14004KT 5SM 25/21 RMK SLP045 T02520213 52006 IEM_DS3505
ZBYN,1983-08-03 03:00,ZBYN 030300Z AUTO 16006KT 7SM 27/22 RMK SLP050 T02730218 52007 IEM_DS3505
ZBYN,1983-08-03 06:00,ZBYN 030600Z AUTO 16006KT 9SM 30/21 RMK SLP034 T03000214 4////0216 57012 IEM_DS3505
ZBYN,1983-08-03 09:00,ZBYN 030900Z AUTO 14004KT 12SM 30/22 RMK SLP021 T03040218 57012 IEM_DS3505
ZBYN,1983-08-03 12:00,ZBYN 031200Z AUTO 18004KT 9SM 26/23 RMK SLP033 T02590227 52009 IEM_DS3505
ZBYN,1983-08-03 15:00,ZBYN 031500Z AUTO 16004KT 7SM 23/22 RMK SLP041 T02310218 52006 IEM_DS3505
ZBYN,1983-08-03 18:00,ZBYN 031800Z AUTO 11002KT 9SM 23/22 RMK 60002 SLP042 T02300219 40308//// 52004 IEM_DS3505
ZBYN,1983-08-03 21:00,ZBYN 032100Z AUTO 14004KT 6SM 23/21 RMK SLP038 T02300207 57003 IEM_DS3505
ZBYN,1983-08-04 00:00,ZBYN 040000Z AUTO 00000KT 9SM 24/22 RMK 60012 70012 SLP045 T02380216 52002 IEM_DS3505
ZBYN,1983-08-04 03:00,ZBYN 040300Z AUTO 14006KT 9SM 27/22 RMK SLP049 T02710223 52004 IEM_DS3505
ZBYN,1983-08-04 06:00,ZBYN 040600Z AUTO 00000KT 6SM 25/23 RMK 60004 SLP051 T02520227 4////0207 57001 IEM_DS3505
ZBYN,1983-08-04 09:00,ZBYN 040900Z AUTO 00000KT 5SM 21/20 RMK SLP049 T02090196 57007 IEM_DS3505
ZBYN,1983-08-04 12:00,ZBYN 041200Z AUTO 00000KT 9SM 20/19 RMK 60043 SLP056 T02000192 52006 IEM_DS3505
ZBYN,1983-08-04 15:00,ZBYN 041500Z AUTO 00000KT 9SM 20/19 RMK SLP074 T01980193 52020 IEM_DS3505
ZBYN,1983-08-04 18:00,ZBYN 041800Z AUTO 09002KT 6SM 19/18 RMK 60001 SLP074 T01900185 40275//// 57004 IEM_DS3505
ZBYN,1983-08-04 21:00,ZBYN 042100Z AUTO 09004KT 1 1/4SM 20/19 RMK SLP077 T01980193 57001 IEM_DS3505
ZBYN,1983-08-05 00:00,ZBYN 050000Z AUTO 16004KT 5SM 21/20 RMK 70047 SLP083 T02100199 52005 IEM_DS3505
ZBYN,1983-08-05 03:00,ZBYN 050300Z AUTO 18006KT 7SM 26/22 RMK SLP078 T02590221 52003 IEM_DS3505
ZBYN,1983-08-05 06:00,ZBYN 050600Z AUTO 20004KT 12SM 27/22 RMK SLP063 T02720219 4////0185 57014 IEM_DS3505
ZBYN,1983-08-05 09:00,ZBYN 050900Z AUTO 00000KT 9SM 25/ RMK SLP074 52008 IEM_DS3505
ZBYN,1983-08-05 12:00,ZBYN 051200Z AUTO 14004KT 16SM 22/20 RMK 60024 SLP087 T02170205 52009 IEM_DS3505
ZBYN,1983-08-05 15:00,ZBYN 051500Z AUTO 34002KT 9SM 19/16 RMK SLP098 T01930163 52014 IEM_DS3505
ZBYN,1983-08-05 18:00,ZBYN 051800Z AUTO 34004KT 16SM 18/12 RMK 70024 SLP111 T01750121 52006 IEM_DS3505
ZBYN,1983-08-06 00:00,ZBYN 060000Z AUTO 29006KT 16SM 20/11 RMK 70024 SLP123 T01970108 52009 IEM_DS3505
ZBYN,1983-08-06 03:00,ZBYN 060300Z AUTO 34004KT 16SM 23/14 A3003 RMK SLP128 T02270137 57006 IEM_DS3505
ZBYN,1983-08-06 04:00,ZBYN 060400Z AUTO 34008KT 6SM 24/14 A3003 RMK T02400140 IEM_DS3505
ZBYN,1983-08-06 05:00,ZBYN 060500Z AUTO 24012KT 7SM 25/15 A2997 RMK T02500150 IEM_DS3505
ZBYN,1983-08-06 06:00,ZBYN 060600Z AUTO 22008KT 16SM 24/16 RMK SLP125 T02420157 4////0162 57004 IEM_DS3505
ZBYN,1983-08-06 07:00,ZBYN 060700Z AUTO 21012KT 6SM 23/13 A3003 RMK T02300130 IEM_DS3505
ZBYN,1983-08-06 09:00,ZBYN 060900Z AUTO 14004KT 16SM 23/15 RMK SLP121 T02300154 57004 IEM_DS3505
ZBYN,1983-08-06 12:00,ZBYN 061200Z AUTO 00000KT 12SM 20/18 RMK SLP131 T02040176 52008 IEM_DS3505
ZBYN,1983-08-06 15:00,ZBYN 061500Z AUTO 00000KT 12SM 20/18 RMK SLP149 T01950179 52020 IEM_DS3505
ZBYN,1983-08-06 18:00,ZBYN 061800Z AUTO 32004KT 12SM 19/16 RMK SLP141 T01860157 40250//// 57007 IEM_DS3505
ZBYN,1983-08-06 21:00,ZBYN 062100Z AUTO 02004KT 9SM 16/14 RMK SLP143 T01620145 57002 IEM_DS3505
ZBYN,1983-08-07 00:00,ZBYN 070000Z AUTO 34004KT 9SM 19/15 RMK SLP159 T01880153 52014 IEM_DS3505
ZBYN,1983-08-07 03:00,ZBYN 070300Z AUTO 32002KT 7SM 24/15 RMK SLP148 T02410154 57004 IEM_DS3505
ZBYN,1983-08-07 06:00,ZBYN 070600Z AUTO 14004KT 14SM 28/16 RMK SLP125 T02770156 4////0146 57018 IEM_DS3505
ZBYN,1983-08-07 09:00,ZBYN 070900Z AUTO 00000KT 16SM 28/18 RMK SLP115 T02780182 57012 IEM_DS3505
ZBYN,1983-08-07 12:00,ZBYN 071200Z AUTO 07008KT 6SM 23/18 RMK SLP122 T02340182 52003 IEM_DS3505
ZBYN,1983-08-07 15:00,ZBYN 071500Z AUTO 07008KT 7SM 21/17 RMK SLP128 T02100168 52001 IEM_DS3505
ZBYN,1983-08-07 18:00,ZBYN 071800Z AUTO 34006KT 6SM 21/17 RMK SLP123 T02090172 40285//// 54000 IEM_DS3505
ZBYN,1983-08-07 21:00,ZBYN 072100Z AUTO 00000KT 6SM 20/17 RMK SLP121 T02020172 57003 IEM_DS3505
ZBYN,1983-08-08 00:00,ZBYN 080000Z AUTO 34004KT 5SM 21/18 RMK SLP135 T02130183 52009 IEM_DS3505
ZBYN,1983-08-08 03:00,ZBYN 080300Z AUTO 20002KT 5SM 26/19 RMK SLP123 T02590194 57009 IEM_DS3505
ZBYN,1983-08-08 06:00,ZBYN 080600Z AUTO 20002KT 12SM 28/20 RMK SLP097 T02820195 4////0192 57020 IEM_DS3505
ZBYN,1983-08-08 09:00,ZBYN 080900Z AUTO 20002KT 12SM 29/20 RMK SLP081 T02900199 58016 IEM_DS3505
ZBYN,1983-08-08 12:00,ZBYN 081200Z AUTO 09010KT 6SM RMK SLP094 52007 IEM_DS3505
ZBYN,1983-08-08 15:00,ZBYN 081500Z AUTO 00000KT 9SM 23/19 RMK SLP108 T02270186 52017 IEM_DS3505
ZBYN,1983-08-08 18:00,ZBYN 081800Z AUTO 07004KT 9SM 22/18 RMK SLP103 T02230185 40290//// 57002 IEM_DS3505
ZBYN,1983-08-08 21:00,ZBYN 082100Z AUTO 00000KT 9SM 20/19 RMK SLP106 T02050186 52001 IEM_DS3505
ZBYN,1983-08-09 00:00,ZBYN 090000Z AUTO 00000KT 4SM 23/19 RMK SLP114 T02280194 52004 IEM_DS3505
ZBYN,1983-08-09 03:00,ZBYN 090300Z AUTO 00000KT 9SM 27/19 RMK SLP106 T02700194 57003 IEM_DS3505
ZBYN,1983-08-09 04:00,ZBYN 090400Z AUTO 12008KT 7SM A2997 RMK IEM_DS3505
ZBYN,1983-08-09 05:00,ZBYN 090500Z AUTO 14008KT 7SM 28/20 A2997 RMK T02800200 IEM_DS3505
ZBYN,1983-08-09 06:00,ZBYN 090600Z AUTO 14006KT 9SM 28/19 A2994 RMK T02800188 4////0153 57016 IEM_DS3505
ZBYN,1983-08-09 07:00,ZBYN 090700Z AUTO 14012KT 7SM A2994 RMK IEM_DS3505
ZBYN,1983-08-09 08:00,ZBYN 090800Z AUTO 15008KT 7SM 29/19 A2988 RMK T02900190 IEM_DS3505
ZBYN,1983-08-09 09:00,ZBYN 090900Z AUTO 11004KT 9SM 28/20 A2988 RMK SLP084 T02800195 57006 IEM_DS3505
ZBYN,1983-08-09 12:00,ZBYN 091200Z AUTO 09008KT 6SM 24/19 RMK SLP094 T02360189 52005 IEM_DS3505
ZBYN,1983-08-09 15:00,ZBYN 091500Z AUTO 07004KT 7SM 23/19 RMK SLP104 T02340187 52015 IEM_DS3505
ZBYN,1983-08-09 18:00,ZBYN 091800Z AUTO 00000KT 6SM 23/19 RMK SLP103 T02260191 40283//// 54000 IEM_DS3505
ZBYN,1983-08-09 21:00,ZBYN 092100Z AUTO 00000KT 6SM 21/19 RMK SLP104 T02060189 57002 IEM_DS3505
ZBYN,1983-08-10 00:00,ZBYN 100000Z AUTO 00000KT 4SM 23/20 RMK SLP120 T02290198 52012 IEM_DS3505
ZBYN,1983-08-10 03:00,ZBYN 100300Z AUTO 00000KT 6SM 27/20 RMK SLP105 T02720196 57008 IEM_DS3505
ZBYN,1983-08-10 06:00,ZBYN 100600Z AUTO 18002KT 9SM 30/19 RMK SLP086 T02960189 4////0195 57016 IEM_DS3505
ZBYN,1983-08-10 09:00,ZBYN 100900Z AUTO 11014KT 7SM 28/15 RMK SLP081 T02790149 57009 IEM_DS3505
ZBYN,1983-08-10 12:00,ZBYN 101200Z AUTO 09017KT 7SM 26/18 RMK SLP096 T02640184 52015 IEM_DS3505
ZBYN,1983-08-10 15:00,ZBYN 101500Z AUTO 09006KT 6SM 22/19 RMK SLP118 T02240191 52020 IEM_DS3505
ZBYN,1983-08-10 18:00,ZBYN 101800Z AUTO 00000KT 9SM 20/19 RMK SLP119 T02040193 40299//// 52002 IEM_DS3505
ZBYN,1983-08-10 21:00,ZBYN 102100Z AUTO 00000KT 7SM 20/19 RMK SLP121 T01960188 57002 IEM_DS3505
ZBYN,1983-08-11 00:00,ZBYN 110000Z AUTO 00000KT 4SM 22/20 RMK SLP122 T02160197 52002 IEM_DS3505
ZBYN,1983-08-11 03:00,ZBYN 110300Z AUTO 11004KT 6SM 26/19 RMK SLP123 T02550189 52001 IEM_DS3505
ZBYN,1983-08-11 06:00,ZBYN 110600Z AUTO 00000KT 6SM 27/19 RMK SLP113 T02680193 4////0184 57011 IEM_DS3505
ZBYN,1983-08-11 09:00,ZBYN 110900Z AUTO 25004KT 7SM 28/19 RMK SLP102 T02800186 57010 IEM_DS3505
ZBYN,1983-08-11 12:00,ZBYN 111200Z AUTO 11004KT 6SM 22/20 RMK 60004 SLP116 T02160202 52008 IEM_DS3505
ZBYN,1983-08-11 15:00,ZBYN 111500Z AUTO 00000KT 6SM 21/20 RMK SLP121 T02100201 52009 IEM_DS3505
ZBYN,1983-08-11 18:00,ZBYN 111800Z AUTO 32002KT 6SM 20/19 RMK 60001 SLP122 T01980191 40284//// 52001 IEM_DS3505
ZBYN,1983-08-11 21:00,ZBYN 112100Z AUTO 00000KT 4SM 18/18 RMK SLP124 T01820177 52007 IEM_DS3505
ZBYN,1983-08-12 00:00,ZBYN 120000Z AUTO 00000KT 4SM 21/20 RMK 70004 SLP133 T02110200 52004 IEM_DS3505
ZBYN,1983-08-12 03:00,ZBYN 120300Z AUTO 00000KT 9SM 26/19 RMK SLP119 T02570186 57008 IEM_DS3505
ZBYN,1983-08-12 06:00,ZBYN 120600Z AUTO 00000KT 9SM 28/19 RMK SLP098 T02800186 4////0174 57018 IEM_DS3505
ZBYN,1983-08-12 09:00,ZBYN 120900Z AUTO 20004KT 9SM 29/19 RMK SLP079 T02870186 57018 IEM_DS3505
ZBYN,1983-08-12 12:00,ZBYN 121200Z AUTO 20004KT 6SM 24/20 RMK SLP086 T02440203 52004 IEM_DS3505
ZBYN,1983-08-12 15:00,ZBYN 121500Z AUTO 11004KT 6SM 22/20 RMK SLP094 T02220197 52011 IEM_DS3505
ZBYN,1983-08-12 18:00,ZBYN 121800Z AUTO 00000KT 6SM 21/19 RMK SLP096 T02080192 40293//// 52003 IEM_DS3505
ZBYN,1983-08-12 21:00,ZBYN 122100Z AUTO 25004KT 5SM 21/20 RMK SLP096 T02070196 52001 IEM_DS3505
ZBYN,1983-08-13 00:00,ZBYN 130000Z AUTO 00000KT 6SM 22/19 RMK SLP104 T02240194 52003 IEM_DS3505
ZBYN,1983-08-13 03:00,ZBYN 130300Z AUTO 00000KT 6SM 27/21 A2994 RMK SLP095 T02660206 57005 IEM_DS3505
ZBYN,1983-08-13 05:00,ZBYN 130500Z AUTO 00000KT 7SM 29/19 A2994 RMK T02900190 IEM_DS3505
ZBYN,1983-08-13 06:00,ZBYN 130600Z AUTO 22008KT 9SM 30/18 A2988 RMK SLP078 T02950176 4////0192 57014 IEM_DS3505
ZBYN,1983-08-13 08:00,ZBYN 130800Z AUTO 23006KT 6SM 30/19 A2988 RMK T03000190 IEM_DS3505
ZBYN,1983-08-13 09:00,ZBYN 130900Z AUTO 20004KT 9SM 30/19 A2988 RMK SLP065 T02960186 57012 IEM_DS3505
ZBYN,1983-08-13 12:00,ZBYN 131200Z AUTO 00000KT 9SM 26/21 RMK SLP071 T02560211 52003 IEM_DS3505
ZBYN,1983-08-13 15:00,ZBYN 131500Z AUTO 00000KT 9SM 23/20 RMK SLP082 T02300199 52012 IEM_DS3505
ZBYN,1983-08-13 18:00,ZBYN 131800Z AUTO 00000KT 7SM 21/20 RMK SLP084 T02100197 40305//// 52004 IEM_DS3505
ZBYN,1983-08-13 21:00,ZBYN 132100Z AUTO 00000KT 5SM 20/19 RMK SLP090 T02000189 52003 IEM_DS3505
ZBYN,1983-08-14 00:00,ZBYN 140000Z AUTO 00000KT 4SM 23/20 RMK SLP096 T02260203 52004 IEM_DS3505
ZBYN,1983-08-14 06:00,ZBYN 140600Z AUTO 16004KT 12SM 30/20 RMK SLP064 T02980205 4////0189 57022 IEM_DS3505
ZBYN,1983-08-14 09:00,ZBYN 140900Z AUTO 20004KT 12SM 30/20 RMK SLP048 T03010204 57015 IEM_DS3505
ZBYN,1983-08-14 12:00,ZBYN 141200Z AUTO 00000KT 7SM 26/22 RMK SLP061 T02620224 52010 IEM_DS3505
ZBYN,1983-08-14 15:00,ZBYN 141500Z AUTO 32004KT 7SM 26/20 RMK SLP064 T02600201 52009 IEM_DS3505
ZBYN,1983-08-14 18:00,ZBYN 141800Z AUTO 32004KT 9SM 24/20 RMK SLP060 T02400195 40312//// 57003 IEM_DS3505
ZBYN,1983-08-14 21:00,ZBYN 142100Z AUTO 29002KT 9SM 23/20 RMK SLP056 T02270196 57005 IEM_DS3505
ZBYN,1983-08-15 00:00,ZBYN 150000Z AUTO 00000KT 5SM 24/20 RMK SLP065 T02390197 52004 IEM_DS3505
ZBYN,1983-08-15 03:00,ZBYN 150300Z AUTO 14002KT 6SM 28/21 RMK SLP056 T02830210 57002 IEM_DS3505
ZBYN,1983-08-15 06:00,ZBYN 150600Z AUTO 34004KT 6SM 29/20 RMK SLP041 T02920196 4////0209 57015 IEM_DS3505
ZBYN,1983-08-15 09:00,ZBYN 150900Z AUTO 29004KT 4SM 24/22 RMK SLP054 T02360219 52002 IEM_DS3505
ZBYN,1983-08-15 12:00,ZBYN 151200Z AUTO 32004KT 6SM 21/18 RMK 60012 SLP076 T02130180 52019 IEM_DS3505
ZBYN,1983-08-15 15:00,ZBYN 151500Z AUTO 07002KT 9SM 22/19 RMK SLP081 T02150186 52011 IEM_DS3505
ZBYN,1983-08-15 18:00,ZBYN 151800Z AUTO 00000KT 9SM 21/19 RMK 60002 SLP073 T02130191 40301//// 57006 IEM_DS3505
ZBYN,1983-08-15 21:00,ZBYN 152100Z AUTO 36010KT 6SM 22/15 RMK SLP090 T02200154 52008 IEM_DS3505
ZBYN,1983-08-16 00:00,ZBYN 160000Z AUTO 02006KT 9SM 20/16 RMK SLP115 T02030158 52017 IEM_DS3505
ZBYN,1983-08-16 03:00,ZBYN 160300Z AUTO 07002KT 12SM 22/16 A2997 RMK SLP112 T02220157 52001 IEM_DS3505
ZBYN,1983-08-16 04:00,ZBYN 160400Z AUTO 00000KT 7SM 23/16 A2994 RMK T02300160 IEM_DS3505
ZBYN,1983-08-16 06:00,ZBYN 160600Z AUTO 11006KT 19SM 22/17 A3000 RMK SLP104 T02150166 4////0199 57009 IEM_DS3505
ZBYN,1983-08-16 07:00,ZBYN 160700Z AUTO 05008KT 7SM 22/17 A2994 RMK T02200170 IEM_DS3505
ZBYN,1983-08-16 08:00,ZBYN 160800Z AUTO 09002KT 7SM 22/18 A2994 RMK T02200180 IEM_DS3505
ZBYN,1983-08-16 09:00,ZBYN 160900Z AUTO 00000KT 16SM 22/18 A2994 RMK SLP096 T02220176 57006 IEM_DS3505
ZBYN,1983-08-16 10:00,ZBYN 161000Z AUTO 00000KT 7SM 22/19 A2994 RMK T02200190 IEM_DS3505
ZBYN,1983-08-16 12:00,ZBYN 161200Z AUTO 00000KT 12SM 20/18 RMK 60001 SLP114 T02050180 52012 IEM_DS3505
ZBYN,1983-08-16 15:00,ZBYN 161500Z AUTO 34004KT 9SM 20/13 RMK SLP126 T02000134 52013 IEM_DS3505
ZBYN,1983-08-16 18:00,ZBYN 161800Z AUTO 34004KT 7SM 16/14 RMK 60004 SLP135 T01640136 40233//// 52003 IEM_DS3505
ZBYN,1983-08-16 21:00,ZBYN 162100Z AUTO 00000KT 5SM 16/14 RMK SLP139 T01620139 52004 IEM_DS3505
ZBYN,1983-08-17 00:00,ZBYN 170000Z AUTO 00000KT 4SM 17/15 RMK 60004 SLP156 T01680153 52010 IEM_DS3505
ZBYN,1983-08-17 03:00,ZBYN 170300Z AUTO 16004KT 6SM 20/14 RMK SLP153 T02010145 52002 IEM_DS3505
ZBYN,1983-08-17 06:00,ZBYN 170600Z AUTO 16006KT 16SM 18/14 RMK SLP140 T01840144 4////0147 57012 IEM_DS3505
ZBYN,1983-08-17 09:00,ZBYN 170900Z AUTO 20006KT 16SM 24/13 RMK SLP127 T02350126 57013 IEM_DS3505
ZBYN,1983-08-17 12:00,ZBYN 171200Z AUTO 00000KT 16SM 19/13 RMK SLP133 T01890131 54000 IEM_DS3505
ZBYN,1983-08-17 15:00,ZBYN 171500Z AUTO 00000KT 9SM 16/14 RMK SLP142 T01560138 52008 IEM_DS3505
ZBYN,1983-08-17 18:00,ZBYN 171800Z AUTO 00000KT 9SM 15/14 RMK SLP136 T01500138 40242//// 57002 IEM_DS3505
ZBYN,1983-08-17 21:00,ZBYN 172100Z AUTO 00000KT 6SM 16/14 RMK SLP138 T01550139 52003 IEM_DS3505
ZBYN,1983-08-18 00:00,ZBYN 180000Z AUTO 00000KT 4SM 17/15 RMK 60000 SLP154 T01690148 52010 IEM_DS3505
ZBYN,1983-08-18 03:00,ZBYN 180300Z AUTO 00000KT 5SM 20/16 RMK SLP156 T01980158 52001 IEM_DS3505
ZBYN,1983-08-18 06:00,ZBYN 180600Z AUTO 00000KT 5SM 22/16 RMK 60001 SLP142 T02160163 4////0141 57011 IEM_DS3505
ZBYN,1983-08-18 09:00,ZBYN 180900Z AUTO 22006KT 9SM 21/16 RMK SLP137 T02080165 57005 IEM_DS3505
ZBYN,1983-08-18 12:00,ZBYN 181200Z AUTO 20004KT 9SM 18/16 RMK SLP151 T01780157 52011 IEM_DS3505
ZBYN,1983-08-18 15:00,ZBYN 181500Z AUTO 00000KT 5SM 16/15 RMK SLP164 T01610152 52013 IEM_DS3505
ZBYN,1983-08-18 18:00,ZBYN 181800Z AUTO 14002KT 6SM 15/15 RMK 60002 SLP149 T01540148 40229//// 57012 IEM_DS3505
ZBYN,1983-08-18 21:00,ZBYN 182100Z AUTO 00000KT 4SM 15/15 RMK 70004 SLP147 T01540148 57003 IEM_DS3505
ZBYN,1983-08-19 00:00,ZBYN 190000Z AUTO 00000KT 4SM 16/15 RMK 60000 70004 SLP162 T01630149 52011 IEM_DS3505
ZBYN,1983-08-19 03:00,ZBYN 190300Z AUTO 00000KT 6SM 20/15 RMK SLP150 T01980151 57008 IEM_DS3505
ZBYN,1983-08-19 06:00,ZBYN 190600Z AUTO 27008KT 12SM 24/15 RMK SLP123 T02410150 4////0147 57020 IEM_DS3505
ZBYN,1983-08-19 09:00,ZBYN 190900Z AUTO 20004KT 16SM 24/13 RMK SLP118 T02350130 57006 IEM_DS3505
ZBYN,1983-08-19 12:00,ZBYN 191200Z AUTO 00000KT 16SM 20/16 RMK SLP115 T01980160 57006 IEM_DS3505
ZBYN,1983-08-19 15:00,ZBYN 191500Z AUTO 00000KT 16SM 20/16 RMK T01980160 57006 IEM_DS3505
ZBYN,1983-08-19 18:00,ZBYN 191800Z AUTO 00000KT 7SM 16/15 RMK SLP116 T01570148 40247//// 57002 IEM_DS3505
ZBYN,1983-08-19 21:00,ZBYN 192100Z AUTO 00000KT 6SM 16/12 RMK SLP123 T01600123 52006 IEM_DS3505
ZBYN,1983-08-20 00:00,ZBYN 200000Z AUTO 00000KT 4SM 18/16 RMK SLP132 T01750158 52005 IEM_DS3505
ZBYN,1983-08-20 03:00,ZBYN 200300Z AUTO 16004KT 7SM 22/16 A2997 RMK T02200160 IEM_DS3505
ZBYN,1983-08-20 04:00,ZBYN 200400Z AUTO 21008KT 7SM 24/17 A2997 RMK T02400170 IEM_DS3505
ZBYN,1983-08-20 05:00,ZBYN 200500Z AUTO 12004KT 7SM 25/16 A2997 RMK T02500160 IEM_DS3505
ZBYN,1983-08-20 06:00,ZBYN 200600Z AUTO 20004KT 12SM 27/16 RMK SLP100 T02670157 4////0142 57018 IEM_DS3505
ZBYN,1983-08-20 07:00,ZBYN 200700Z AUTO 15008KT 7SM 27/14 A2994 RMK T02700140 IEM_DS3505
ZBYN,1983-08-20 08:00,ZBYN 200800Z AUTO 17006KT 7SM 27/14 A2988 RMK T02700140 IEM_DS3505
ZBYN,1983-08-20 09:00,ZBYN 200900Z AUTO 22002KT 16SM 27/16 RMK SLP082 T02700159 57015 IEM_DS3505
ZBYN,1983-08-20 12:00,ZBYN 201200Z AUTO 00000KT 16SM 22/19 RMK SLP096 T02170187 52008 IEM_DS3505
ZBYN,1983-08-20 18:00,ZBYN 201800Z AUTO 00000KT 7SM 17/15 RMK SLP105 T01680149 40275//// 52006 IEM_DS3505
ZBYN,1983-08-20 21:00,ZBYN 202100Z AUTO 00000KT 9SM 16/15 RMK SLP101 T01650149 57004 IEM_DS3505
ZBYN,1983-08-21 00:00,ZBYN 210000Z AUTO 00000KT 5SM 19/16 RMK SLP114 T01930160 52008 IEM_DS3505
ZBYN,1983-08-21 03:00,ZBYN 210300Z AUTO 16006KT 6SM 25/17 RMK SLP105 T02470168 57003 IEM_DS3505
ZBYN,1983-08-21 06:00,ZBYN 210600Z AUTO 16010KT 9SM 27/19 RMK SLP088 T02680186 4////0158 57017 IEM_DS3505
ZBYN,1983-08-21 09:00,ZBYN 210900Z AUTO 22006KT 9SM 25/19 RMK SLP083 T02480189 57007 IEM_DS3505
ZBYN,1983-08-21 12:00,ZBYN 211200Z AUTO 29004KT 9SM 20/15 RMK SLP100 T02010150 52013 IEM_DS3505
ZBYN,1983-08-21 15:00,ZBYN 211500Z AUTO 07004KT 9SM 17/16 RMK SLP106 T01740161 52009 IEM_DS3505
ZBYN,1983-08-21 18:00,ZBYN 211800Z AUTO 32006KT 6SM 17/16 RMK 60130 SLP108 T01660161 52003 IEM_DS3505
ZBYN,1983-08-21 21:00,ZBYN 212100Z AUTO 00000KT 5SM 17/16 RMK SLP106 T01660159 57004 IEM_DS3505
ZBYN,1983-08-22 00:00,ZBYN 220000Z AUTO 00000KT 4SM 17/16 RMK 60008 70134 SLP114 T01700160 52002 IEM_DS3505
ZBYN,1983-08-22 03:00,ZBYN 220300Z AUTO 00000KT 5SM 18/16 RMK SLP115 T01820165 57002 IEM_DS3505
ZBYN,1983-08-22 06:00,ZBYN 220600Z AUTO 16002KT 12SM 21/16 RMK 60001 SLP093 T02080158 4////0159 57017 IEM_DS3505
ZBYN,1983-08-22 09:00,ZBYN 220900Z AUTO 18004KT 12SM 20/16 RMK SLP084 T01980165 57010 IEM_DS3505
ZBYN,1983-08-22 12:00,ZBYN 221200Z AUTO 14002KT 9SM 18/17 RMK SLP093 T01840169 52007 IEM_DS3505
ZBYN,1983-08-22 15:00,ZBYN 221500Z AUTO 11004KT 9SM 18/17 RMK SLP095 T01780167 52003 IEM_DS3505
ZBYN,1983-08-22 18:00,ZBYN 221800Z AUTO 00000KT 12SM 18/17 RMK SLP079 T01760168 40211//// 57012 IEM_DS3505
ZBYN,1983-08-22 21:00,ZBYN 222100Z AUTO 14004KT 4SM 17/16 RMK SLP072 T01700165 57008 IEM_DS3505
ZBYN,1983-08-23 00:00,ZBYN 230000Z AUTO 14004KT 5SM 17/16 RMK SLP073 T01740161 54000 IEM_DS3505
ZBYN,1983-08-23 01:00,ZBYN 230100Z AUTO 16004KT 7SM 18/15 A2985 RMK T01800150 IEM_DS3505
ZBYN,1983-08-23 02:00,ZBYN 230200Z AUTO 16006KT 7SM 19/16 A2985 RMK T01900160 IEM_DS3505
ZBYN,1983-08-23 03:00,ZBYN 230300Z AUTO 18006KT 7SM 22/16 A2985 RMK T02200160 IEM_DS3505
ZBYN,1983-08-23 04:00,ZBYN 230400Z AUTO 00000KT 7SM 22/16 A2985 RMK T02200160 IEM_DS3505
ZBYN,1983-08-23 05:00,ZBYN 230500Z AUTO 18004KT 7SM 23/15 A2980 RMK T02300150 IEM_DS3505
ZBYN,1983-08-23 06:00,ZBYN 230600Z AUTO 18004KT 12SM 24/16 A2980 RMK SLP048 T02360159 4////0162 57019 IEM_DS3505
ZBYN,1983-08-23 07:00,ZBYN 230700Z AUTO 26006KT 7SM 25/14 A2977 RMK T02500140 IEM_DS3505
ZBYN,1983-08-23 09:00,ZBYN 230900Z AUTO 00000KT 16SM 24/16 RMK SLP035 T02350157 57013 IEM_DS3505
ZBYN,1983-08-23 12:00,ZBYN 231200Z AUTO 29004KT 9SM 20/15 RMK SLP053 T02010154 52012 IEM_DS3505
ZBYN,1983-08-23 15:00,ZBYN 231500Z AUTO 34004KT 9SM 18/16 RMK SLP062 T01810156 52009 IEM_DS3505
ZBYN,1983-08-23 18:00,ZBYN 231800Z AUTO 00000KT 9SM 17/15 RMK SLP057 T01690152 40247//// 57001 IEM_DS3505
ZBYN,1983-08-23 21:00,ZBYN 232100Z AUTO 00000KT 5SM 17/15 RMK SLP053 T01670149 57004 IEM_DS3505
ZBYN,1983-08-24 00:00,ZBYN 240000Z AUTO 32004KT 5SM 18/16 RMK SLP062 T01750157 52004 IEM_DS3505
ZBYN,1983-08-24 03:00,ZBYN 240300Z AUTO 20006KT 5SM 22/16 RMK SLP055 T02180163 57002 IEM_DS3505
ZBYN,1983-08-24 06:00,ZBYN 240600Z AUTO 14004KT 12SM 25/16 RMK SLP031 T02490165 4////0158 57019 IEM_DS3505
ZBYN,1983-08-24 09:00,ZBYN 240900Z AUTO 34010KT 6SM 24/18 RMK SLP019 T02380176 57013 IEM_DS3505
ZBYN,1983-08-24 12:00,ZBYN 241200Z AUTO 07006KT 12SM 16/15 RMK 60020 SLP051 T01630149 52020 IEM_DS3505
ZBYN,1983-08-24 15:00,ZBYN 241500Z AUTO 22002KT 12SM 16/15 RMK SLP064 T01600148 52017 IEM_DS3505
ZBYN,1983-08-24 18:00,ZBYN 241800Z AUTO 00000KT 4SM 16/15 RMK 60001 SLP051 T01590150 40250//// 57008 IEM_DS3505
ZBYN,1983-08-24 21:00,ZBYN 242100Z AUTO 00000KT 5SM 16/15 RMK SLP053 T01580149 54000 IEM_DS3505
ZBYN,1983-08-25 00:00,ZBYN 250000Z AUTO 36004KT 5SM 18/15 RMK 70020 SLP069 T01760148 52007 IEM_DS3505
ZBYN,1983-08-25 03:00,ZBYN 250300Z AUTO 00000KT 9SM 20/15 RMK SLP071 T02020151 52005 IEM_DS3505
ZBYN,1983-08-25 06:00,ZBYN 250600Z AUTO 20004KT 6SM 23/16 RMK 60002 SLP044 T02340159 4////0147 57020 IEM_DS3505
ZBYN,1983-08-25 09:00,ZBYN 250900Z AUTO 14002KT 7SM 20/16 RMK SLP056 T01980165 52005 IEM_DS3505
ZBYN,1983-08-25 12:00,ZBYN 251200Z AUTO 00000KT 7SM 18/16 RMK 60002 SLP065 T01800163 52008 IEM_DS3505
ZBYN,1983-08-25 15:00,ZBYN 251500Z AUTO 00000KT 6SM 16/15 RMK SLP073 T01560148 52009 IEM_DS3505
ZBYN,1983-08-25 18:00,ZBYN 251800Z AUTO 00000KT 5SM 16/15 RMK SLP066 T01560148 40243//// 57003 IEM_DS3505
ZBYN,1983-08-25 21:00,ZBYN 252100Z AUTO 00000KT 5SM 13/13 RMK SLP070 T01330129 57004 IEM_DS3505
ZBYN,1983-08-26 00:00,ZBYN 260000Z AUTO 00000KT 2SM 16/15 RMK 70004 SLP078 T01570148 52008 IEM_DS3505
ZBYN,1983-08-26 03:00,ZBYN 260300Z AUTO 34002KT 5SM 21/15 RMK SLP069 T02090152 57004 IEM_DS3505
ZBYN,1983-08-26 06:00,ZBYN 260600Z AUTO 00000KT 6SM 24/16 RMK SLP043 T02380156 4////0120 57020 IEM_DS3505
ZBYN,1983-08-26 09:00,ZBYN 260900Z AUTO 20004KT 6SM 25/16 RMK SLP032 T02470161 57012 IEM_DS3505
ZBYN,1983-08-26 12:00,ZBYN 261200Z AUTO 00000KT 12SM 20/17 RMK SLP049 T01950174 52002 IEM_DS3505
ZBYN,1983-08-26 15:00,ZBYN 261500Z AUTO 00000KT 7SM 17/16 RMK SLP058 T01660156 52011 IEM_DS3505
ZBYN,1983-08-26 18:00,ZBYN 261800Z AUTO 00000KT 4SM 16/15 RMK SLP052 T01550148 40251//// 57003 IEM_DS3505
ZBYN,1983-08-26 21:00,ZBYN 262100Z AUTO 34002KT 5SM 16/15 RMK SLP043 T01600146 57006 IEM_DS3505
ZBYN,1983-08-27 00:00,ZBYN 270000Z AUTO 00000KT 4SM 17/16 RMK SLP058 T01730155 52008 IEM_DS3505
ZBYN,1983-08-27 03:00,ZBYN 270300Z AUTO 16006KT 6SM 23/16 A2980 RMK SLP052 T02310161 57001 IEM_DS3505
ZBYN,1983-08-27 04:00,ZBYN 270400Z AUTO 14004KT 6SM 25/16 A2977 RMK T02500160 IEM_DS3505
ZBYN,1983-08-27 05:00,ZBYN 270500Z AUTO 00000KT 7SM 26/17 A2977 RMK T02600170 IEM_DS3505
ZBYN,1983-08-27 06:00,ZBYN 270600Z AUTO 16004KT 11SM 25/17 A2974 RMK SLP031 T02500174 4////0145 57018 IEM_DS3505
ZBYN,1983-08-27 07:00,ZBYN 270700Z AUTO 00000KT 7SM 26/16 A2974 RMK T02600160 IEM_DS3505
ZBYN,1983-08-27 08:00,ZBYN 270800Z AUTO 24002KT 7SM 24/18 A2968 RMK T02400180 IEM_DS3505
ZBYN,1983-08-27 09:00,ZBYN 270900Z AUTO 32006KT 6SM 22/17 A2968 RMK SLP029 T02230173 57006 IEM_DS3505
ZBYN,1983-08-27 12:00,ZBYN 271200Z AUTO 25002KT 11SM 20/17 RMK SLP036 T01950170 52005 IEM_DS3505
ZBYN,1983-08-27 15:00,ZBYN 271500Z AUTO 00000KT 7SM 19/16 RMK SLP047 T01860157 52017 IEM_DS3505
ZBYN,1983-08-27 18:00,ZBYN 271800Z AUTO 16004KT 6SM 17/14 RMK SLP048 T01680142 40264//// 52001 IEM_DS3505
ZBYN,1983-08-27 21:00,ZBYN 272100Z AUTO 00000KT 6SM 15/14 RMK SLP056 T01460139 54000 IEM_DS3505
ZBYN,1983-08-28 00:00,ZBYN 280000Z AUTO 34006KT 4SM 17/16 RMK SLP069 T01700157 52012 IEM_DS3505
ZBYN,1983-08-28 03:00,ZBYN 280300Z AUTO 16006KT 4SM 22/15 RMK SLP058 T02210149 57005 IEM_DS3505
ZBYN,1983-08-28 06:00,ZBYN 280600Z AUTO 22004KT 16SM 26/17 RMK SLP036 T02590172 4////0132 57017 IEM_DS3505
ZBYN,1983-08-28 09:00,ZBYN 280900Z AUTO 29010KT 27/06 RMK SLP029 T02740064 57006 IEM_DS3505
ZBYN,1983-08-28 12:00,ZBYN 281200Z AUTO 29004KT 12SM 19/13 RMK SLP053 T01920133 52013 IEM_DS3505
ZBYN,1983-08-28 18:00,ZBYN 281800Z AUTO 00000KT 9SM 14/11 RMK SLP070 T01360112 52003 IEM_DS3505
ZBYN,1983-08-28 21:00,ZBYN 282100Z AUTO 14004KT 9SM 12/11 RMK SLP072 T01190106 52002 IEM_DS3505
ZBYN,1983-08-29 00:00,ZBYN 290000Z AUTO 00000KT 11SM 16/13 RMK SLP093 T01570126 52013 IEM_DS3505
ZBYN,1983-08-29 03:00,ZBYN 290300Z AUTO 18006KT 7SM 24/13 RMK SLP085 T02350128 52003 IEM_DS3505
ZBYN,1983-08-29 06:00,ZBYN 290600Z AUTO 29008KT 17SM 28/08 RMK SLP071 T02800075 4////0103 57014 IEM_DS3505
ZBYN,1983-08-29 09:00,ZBYN 290900Z AUTO 32004KT 19SM 29/10 RMK SLP065 T02870105 57007 IEM_DS3505
ZBYN,1983-08-29 12:00,ZBYN 291200Z AUTO 00000KT 16SM 19/14 RMK SLP083 T01860139 52008 IEM_DS3505
ZBYN,1983-08-29 15:00,ZBYN 291500Z AUTO 02002KT 9SM 16/11 RMK SLP089 T01600114 52013 IEM_DS3505
ZBYN,1983-08-29 18:00,ZBYN 291800Z AUTO 00000KT 9SM 14/11 RMK SLP093 T01360113 40287//// 52006 IEM_DS3505
ZBYN,1983-08-29 21:00,ZBYN 292100Z AUTO 00000KT 4SM 11/10 RMK SLP105 T01100103 52007 IEM_DS3505
ZBYN,1983-08-30 00:00,ZBYN 300000Z AUTO 00000KT 5SM 17/15 RMK 70020 SLP125 T01720149 52004 IEM_DS3505
ZBYN,1983-08-30 03:00,ZBYN 300300Z AUTO 02002KT 12SM 25/10 A2997 RMK SLP117 T02460103 57002 IEM_DS3505
ZBYN,1983-08-30 04:00,ZBYN 300400Z AUTO 00000KT 7SM A2997 RMK IEM_DS3505
ZBYN,1983-08-30 05:00,ZBYN 300500Z AUTO 00000KT 7SM 28/14 A2994 RMK T02800140 IEM_DS3505
ZBYN,1983-08-30 06:00,ZBYN 300600Z AUTO 20002KT 11SM 29/15 A2994 RMK SLP094 T02890149 4////0106 57018 IEM_DS3505
ZBYN,1983-08-30 07:00,ZBYN 300700Z AUTO 14004KT 6SM 29/15 RMK T02900150 IEM_DS3505
ZBYN,1983-08-30 08:00,ZBYN 300800Z AUTO 00000KT 7SM 28/17 A2988 RMK T02800170 IEM_DS3505
ZBYN,1983-08-30 09:00,ZBYN 300900Z AUTO 34014KT 9SM 22/14 RMK SLP125 T02250140 52015 IEM_DS3505
ZBYN,1983-08-30 12:00,ZBYN 301200Z AUTO 36004KT 6SM 19/16 RMK 60012 SLP147 T01940159 52021 IEM_DS3505
ZBYN,1983-08-30 15:00,ZBYN 301500Z AUTO 18004KT 9SM 18/16 RMK SLP136 T01810164 52003 IEM_DS3505
ZBYN,1983-08-30 18:00,ZBYN 301800Z AUTO 02002KT 9SM 17/16 RMK 60008 SLP117 T01680161 40292//// 57014 IEM_DS3505
ZBYN,1983-08-31 00:00,ZBYN 310000Z AUTO 00000KT 5SM 17/15 RMK 70020 SLP125 T01720149 52004 IEM_DS3505
ZBYN,1983-08-31 03:00,ZBYN 310300Z AUTO 32004KT 5SM 22/16 RMK SLP117 T02220157 57003 IEM_DS3505
ZBYN,1983-08-31 06:00,ZBYN 310600Z AUTO 16002KT 6SM 27/17 RMK SLP093 T02680173 4////0145 57017 IEM_DS3505
ZBYN,1983-08-31 09:00,ZBYN 310900Z AUTO 29004KT 6SM 27/19 RMK SLP077 T02700189 57015 IEM_DS3505
ZBYN,1983-08-31 12:00,ZBYN 311200Z AUTO 22004KT 4SM 22/19 RMK 60004 SLP099 T02150190 52014 IEM_DS3505
ZBYN,1983-08-31 15:00,ZBYN 311500Z AUTO 36006KT 6SM 19/17 RMK SLP107 T01890171 52011 IEM_DS3505
ZBYN,1983-08-31 18:00,ZBYN 311800Z AUTO 32004KT 7SM 17/16 RMK 60024 SLP098 T01740163 40277//// 57005 IEM_DS3505
ZBYN,1983-08-31 21:00,ZBYN 312100Z AUTO 07004KT 4SM 17/16 RMK 70028 SLP105 T01740159 52007 IEM_DS3505
ZBYN,1983-09-01 00:00,ZBYN 010000Z AUTO 34004KT 9SM 18/14 RMK 70028 SLP120 T01820144 52008 IEM_DS3505
ZBYN,1983-09-01 03:00,ZBYN 010300Z AUTO 34006KT 12SM 23/13 RMK SLP113 T02310134 57004 IEM_DS3505
ZBYN,1983-09-01 06:00,ZBYN 010600Z AUTO 07002KT 16SM 25/12 RMK SLP101 T02490123 4////0162 57011 IEM_DS3505
ZBYN,1983-09-01 09:00,ZBYN 010900Z AUTO 04004KT 16SM 25/12 RMK SLP096 T02520125 57003 IEM_DS3505
ZBYN,1983-09-01 12:00,ZBYN 011200Z AUTO 32004KT 12SM 19/16 RMK SLP123 T01870160 52016 IEM_DS3505
ZBYN,1983-09-01 18:00,ZBYN 011800Z AUTO 36006KT 6SM 15/13 RMK SLP124 T01540127 40263//// 57002 IEM_DS3505
ZBYN,1983-09-01 21:00,ZBYN 012100Z AUTO 32002KT 9SM 13/11 RMK SLP135 T01340107 52009 IEM_DS3505
ZBYN,1983-09-02 00:00,ZBYN 020000Z AUTO 27002KT 5SM 15/12 RMK SLP152 T01530124 52009 IEM_DS3505
ZBYN,1983-09-02 03:00,ZBYN 020300Z AUTO 14004KT 9SM 23/13 RMK SLP142 T02280126 57002 IEM_DS3505
ZBYN,1983-09-02 06:00,ZBYN 020600Z AUTO 16002KT 12SM 26/13 RMK SLP120 T02550129 4////0115 57018 IEM_DS3505
ZBYN,1983-09-02 09:00,ZBYN 020900Z AUTO 20004KT 16SM 26/13 RMK SLP112 T02570127 57009 IEM_DS3505
ZBYN,1983-09-02 12:00,ZBYN 021200Z AUTO 00000KT 11SM 18/15 RMK SLP133 T01770149 52010 IEM_DS3505
ZBYN,1983-09-02 15:00,ZBYN 021500Z AUTO 34004KT 12SM 18/12 RMK SLP132 T01820120 52010 IEM_DS3505
ZBYN,1983-09-02 18:00,ZBYN 021800Z AUTO 00000KT 6SM 13/12 RMK SLP141 T01280121 40264//// 52005 IEM_DS3505
ZBYN,1983-09-02 21:00,ZBYN 022100Z AUTO 34004KT 5SM 13/11 RMK SLP141 T01320111 52001 IEM_DS3505
ZBYN,1983-09-03 00:00,ZBYN 030000Z AUTO 00000KT 5SM 15/11 RMK SLP158 T01510112 52006 IEM_DS3505
ZBYN,1983-09-03 03:00,ZBYN 030300Z AUTO 00000KT 7SM 23/14 A3006 RMK T02300140 IEM_DS3505
ZBYN,1983-09-03 04:00,ZBYN 030400Z AUTO 17004KT 7SM 25/14 A3003 RMK T02500140 IEM_DS3505
ZBYN,1983-09-03 05:00,ZBYN 030500Z AUTO 00000KT 7SM 26/14 A3003 RMK T02600140 IEM_DS3505
ZBYN,1983-09-03 06:00,ZBYN 030600Z AUTO 18004KT 16SM 27/10 RMK SLP121 T02700096 4////0111 57019 IEM_DS3505
ZBYN,1983-09-03 07:00,ZBYN 030700Z AUTO 00000KT 7SM 27/08 A2997 RMK T02700080 IEM_DS3505
ZBYN,1983-09-03 09:00,ZBYN 030900Z AUTO 00000KT 16SM 27/11 RMK SLP109 T02710111 57011 IEM_DS3505
ZBYN,1983-09-03 12:00,ZBYN 031200Z AUTO 11002KT 12SM 18/15 RMK SLP129 T01850153 52009 IEM_DS3505
ZBYN,1983-09-03 15:00,ZBYN 031500Z AUTO 36004KT 16SM 19/12 RMK SLP133 T01920121 52015 IEM_DS3505
ZBYN,1983-09-03 18:00,ZBYN 031800Z AUTO 27004KT 16SM 15/13 RMK SLP132 T01470129 40281//// 57001 IEM_DS3505
ZBYN,1983-09-03 21:00,ZBYN 032100Z AUTO 34004KT 9SM 15/13 RMK SLP133 T01510133 52001 IEM_DS3505
ZBYN,1983-09-04 00:00,ZBYN 040000Z AUTO 34004KT 5SM 18/15 RMK SLP145 T01780151 52002 IEM_DS3505
ZBYN,1983-09-04 03:00,ZBYN 040300Z AUTO 20004KT 12SM 25/16 RMK SLP127 T02480157 57005 IEM_DS3505
ZBYN,1983-09-04 06:00,ZBYN 040600Z AUTO 14004KT 16SM 27/16 RMK SLP105 T02730161 4////0138 57023 IEM_DS3505
ZBYN,1983-09-04 09:00,ZBYN 040900Z AUTO 16006KT 17SM 26/16 RMK SLP085 T02630156 57019 IEM_DS3505
ZBYN,1983-09-04 12:00,ZBYN 041200Z AUTO 07004KT 9SM 20/16 RMK 60000 SLP108 T01980158 52015 IEM_DS3505
ZBYN,1983-09-04 15:00,ZBYN 041500Z AUTO 00000KT 9SM 16/16 RMK SLP126 T01620155 52021 IEM_DS3505
ZBYN,1983-09-04 18:00,ZBYN 041800Z AUTO 11002KT 9SM 16/16 RMK 60039 SLP111 T01640157 40278//// 57009 IEM_DS3505
ZBYN,1983-09-04 21:00,ZBYN 042100Z AUTO 00000KT 9SM 17/16 RMK SLP109 T01690161 57003 IEM_DS3505
ZBYN,1983-09-05 00:00,ZBYN 050000Z AUTO 00000KT 5SM 18/16 RMK 70039 SLP126 T01750162 52008 IEM_DS3505
ZBYN,1983-09-05 03:00,ZBYN 050300Z AUTO 18006KT 6SM 22/16 RMK SLP125 T02180157 54000 IEM_DS3505
ZBYN,1983-09-05 06:00,ZBYN 050600Z AUTO 16004KT 9SM 24/17 RMK SLP101 T02440168 4////0159 57029 IEM_DS3505
ZBYN,1983-09-05 09:00,ZBYN 050900Z AUTO 20004KT 12SM 25/14 RMK SLP090 T02520140 57008 IEM_DS3505
ZBYN,1983-09-05 12:00,ZBYN 051200Z AUTO 00000KT 7SM 19/16 RMK SLP106 T01890161 52007 IEM_DS3505
ZBYN,1983-09-05 18:00,ZBYN 051800Z AUTO 00000KT 6SM 15/13 RMK SLP135 T01530133 40252//// 52008 IEM_DS3505
ZBYN,1983-09-05 21:00,ZBYN 052100Z AUTO 00000KT 7SM 15/13 RMK SLP141 T01460130 IEM_DS3505
ZBYN,1983-09-06 00:00,ZBYN 060000Z AUTO 00000KT 6SM 16/13 RMK SLP165 T01580131 52013 IEM_DS3505
ZBYN,1983-09-06 03:00,ZBYN 060300Z AUTO 00000KT 6SM 22/15 A3006 RMK SLP155 T02240153 57002 IEM_DS3505
ZBYN,1983-09-06 04:00,ZBYN 060400Z AUTO 00000KT 7SM 24/15 A3006 RMK T02400150 IEM_DS3505
ZBYN,1983-09-06 05:00,ZBYN 060500Z AUTO 00000KT 7SM 26/15 A3006 RMK T02600150 IEM_DS3505
ZBYN,1983-09-06 06:00,ZBYN 060600Z AUTO 18004KT 12SM 26/12 A3003 RMK SLP134 T02630120 4////0127 57016 IEM_DS3505
ZBYN,1983-09-06 08:00,ZBYN 060800Z AUTO 00000KT 6SM 27/15 A3003 RMK T02700150 IEM_DS3505
ZBYN,1983-09-06 09:00,ZBYN 060900Z AUTO 00000KT 16SM 27/14 RMK SLP120 T02680144 57013 IEM_DS3505
ZBYN,1983-09-06 12:00,ZBYN 061200Z AUTO 07004KT 12SM 21/16 RMK SLP144 T02120159 52015 IEM_DS3505
ZBYN,1983-09-06 15:00,ZBYN 061500Z AUTO 02004KT 9SM 18/14 RMK SLP146 T01770141 52007 IEM_DS3505
ZBYN,1983-09-06 18:00,ZBYN 061800Z AUTO 00000KT 9SM 18/15 RMK SLP142 T01780149 40275//// 52002 IEM_DS3505
ZBYN,1983-09-06 21:00,ZBYN 062100Z AUTO 34004KT 6SM 18/16 RMK SLP126 T01840157 57013 IEM_DS3505
ZBYN,1983-09-07 00:00,ZBYN 070000Z AUTO 00000KT 5SM 18/17 RMK 60016 SLP143 T01800170 52008 IEM_DS3505
ZBYN,1983-09-07 03:00,ZBYN 070300Z AUTO 32002KT 4SM 17/16 RMK SLP152 T01690163 52001 IEM_DS3505
ZBYN,1983-09-07 06:00,ZBYN 070600Z AUTO 00000KT 4SM 17/16 RMK 60150 SLP127 T01680163 4////0165 57023 IEM_DS3505
ZBYN,1983-09-07 09:00,ZBYN 070900Z AUTO 00000KT 4SM 16/16 RMK SLP125 T01630157 57002 IEM_DS3505
ZBYN,1983-09-07 12:00,ZBYN 071200Z AUTO 36004KT 4SM 16/15 RMK 60114 SLP134 T01570150 52007 IEM_DS3505
ZBYN,1983-09-07 15:00,ZBYN 071500Z AUTO 02002KT 11SM 16/15 RMK SLP136 T01560146 54000 IEM_DS3505
ZBYN,1983-09-07 18:00,ZBYN 071800Z AUTO 32004KT 6SM 15/14 RMK 60004 SLP135 T01520143 40212//// 57002 IEM_DS3505
ZBYN,1983-09-07 21:00,ZBYN 072100Z AUTO 36004KT 6SM 15/14 RMK SLP133 T01510144 57003 IEM_DS3505
ZBYN,1983-09-08 00:00,ZBYN 080000Z AUTO 36004KT 6SM 16/15 RMK 70268 SLP135 T01630146 52003 IEM_DS3505
ZBYN,1983-09-08 03:00,ZBYN 080300Z AUTO 36004KT 9SM 20/16 RMK SLP127 T02000157 57002 IEM_DS3505
ZBYN,1983-09-08 06:00,ZBYN 080600Z AUTO 07004KT 9SM 24/16 RMK SLP106 T02380156 4////0148 57015 IEM_DS3505
ZBYN,1983-09-08 09:00,ZBYN 080900Z AUTO 20004KT 9SM 23/16 RMK SLP100 T02340163 57005 IEM_DS3505
ZBYN,1983-09-08 12:00,ZBYN 081200Z AUTO 00000KT 11SM 19/16 RMK SLP115 T01870162 52008 IEM_DS3505
ZBYN,1983-09-08 15:00,ZBYN 081500Z AUTO 00000KT 7SM 16/15 RMK SLP121 T01590154 52007 IEM_DS3505
ZBYN,1983-09-08 18:00,ZBYN 081800Z AUTO 00000KT 6SM 15/15 RMK SLP122 T01520148 40245//// 52005 IEM_DS3505
ZBYN,1983-09-08 21:00,ZBYN 082100Z AUTO 00000KT 4SM 14/13 RMK SLP123 T01370131 57001 IEM_DS3505
ZBYN,1983-09-09 00:00,ZBYN 090000Z AUTO 00000KT 4SM 15/15 RMK SLP134 T01510148 52005 IEM_DS3505
ZBYN,1983-09-09 03:00,ZBYN 090300Z AUTO 00000KT 6SM 22/14 RMK SLP122 T02190139 57005 IEM_DS3505
ZBYN,1983-09-09 06:00,ZBYN 090600Z AUTO 11004KT 11SM 25/14 RMK SLP100 T02460142 4////0115 57017 IEM_DS3505
ZBYN,1983-09-09 09:00,ZBYN 090900Z AUTO 00000KT 12SM 25/13 RMK SLP088 T02530133 57013 IEM_DS3505
ZBYN,1983-09-09 12:00,ZBYN 091200Z AUTO 34002KT 9SM 21/16 RMK SLP104 T02090156 52011 IEM_DS3505
ZBYN,1983-09-09 15:00,ZBYN 091500Z AUTO 07002KT 9SM 18/15 RMK SLP103 T01770153 52003 IEM_DS3505
ZBYN,1983-09-09 18:00,ZBYN 091800Z AUTO 07002KT 9SM 17/15 RMK SLP100 T01700153 40264//// 54000 IEM_DS3505
ZBYN,1983-09-09 21:00,ZBYN 092100Z AUTO 00000KT 9SM 17/15 RMK SLP100 T01660148 52001 IEM_DS3505
ZBYN,1983-09-10 00:00,ZBYN 100000Z AUTO 00000KT 5SM 17/16 RMK SLP110 T01700158 52004 IEM_DS3505
ZBYN,1983-09-10 02:00,ZBYN 100200Z AUTO 00000KT 4SM 19/16 A2997 RMK T01900160 IEM_DS3505
ZBYN,1983-09-10 03:00,ZBYN 100300Z AUTO 18004KT 5SM 20/17 A2994 RMK SLP114 T02000168 52004 IEM_DS3505
ZBYN,1983-09-10 04:00,ZBYN 100400Z AUTO 00000KT 6SM 21/16 A2994 RMK T02100160 IEM_DS3505
ZBYN,1983-09-10 05:00,ZBYN 100500Z AUTO 00000KT 6SM 22/16 RMK T02200160 IEM_DS3505
ZBYN,1983-09-10 06:00,ZBYN 100600Z AUTO 21004KT 6SM 23/15 A2988 RMK SLP094 T02300150 4////0156 57016 IEM_DS3505
ZBYN,1983-09-10 07:00,ZBYN 100700Z AUTO 18004KT 6SM 23/15 A2988 RMK T02300150 IEM_DS3505
ZBYN,1983-09-10 08:00,ZBYN 100800Z AUTO 17004KT 6SM 23/14 A2988 RMK T02300140 IEM_DS3505
ZBYN,1983-09-10 09:00,ZBYN 100900Z AUTO 16002KT 6SM 22/16 A2988 RMK SLP086 T02200161 57009 IEM_DS3505
ZBYN,1983-09-10 11:00,ZBYN 101100Z AUTO 00000KT 6SM 19/17 A2985 RMK T01900170 IEM_DS3505
ZBYN,1983-09-10 12:00,ZBYN 101200Z AUTO 00000KT 6SM 19/17 RMK SLP095 T01900168 52005 IEM_DS3505
ZBYN,1983-09-10 15:00,ZBYN 101500Z AUTO 32004KT 6SM 18/14 RMK SLP097 T01820140 52004 IEM_DS3505
ZBYN,1983-09-10 18:00,ZBYN 101800Z AUTO 00000KT 7SM 17/13 RMK SLP096 T01670131 40235//// 52001 IEM_DS3505
ZBYN,1983-09-10 21:00,ZBYN 102100Z AUTO 00000KT 9SM 15/13 RMK SLP101 T01540134 52002 IEM_DS3505
ZBYN,1983-09-11 00:00,ZBYN 110000Z AUTO 00000KT 7SM 16/14 RMK SLP112 T01640145 52007 IEM_DS3505
ZBYN,1983-09-11 03:00,ZBYN 110300Z AUTO 02002KT 12SM 22/13 RMK SLP106 T02230126 52002 IEM_DS3505
ZBYN,1983-09-11 06:00,ZBYN 110600Z AUTO 29002KT 12SM 24/13 RMK SLP103 T02430128 4////0143 57003 IEM_DS3505
ZBYN,1983-09-11 09:00,ZBYN 110900Z AUTO 00000KT 16SM 24/14 RMK SLP091 T02450135 57012 IEM_DS3505
ZBYN,1983-09-11 12:00,ZBYN 111200Z AUTO 00000KT 9SM 18/16 RMK SLP116 T01800157 52015 IEM_DS3505
ZBYN,1983-09-11 15:00,ZBYN 111500Z AUTO 36002KT 7SM 16/14 RMK SLP119 T01590144 52008 IEM_DS3505
ZBYN,1983-09-11 18:00,ZBYN 111800Z AUTO 00000KT 5SM 14/13 RMK SLP127 T01370130 40255//// 52007 IEM_DS3505
ZBYN,1983-09-11 21:00,ZBYN 112100Z AUTO 00000KT 4SM 13/13 RMK SLP133 T01300130 52005 IEM_DS3505
ZBYN,1983-09-12 00:00,ZBYN 120000Z AUTO 00000KT 3SM 15/14 RMK SLP151 T01510142 52011 IEM_DS3505
ZBYN,1983-09-12 03:00,ZBYN 120300Z AUTO 00000KT 5SM 20/14 RMK SLP154 T01980144 52006 IEM_DS3505
ZBYN,1983-09-12 06:00,ZBYN 120600Z AUTO 16004KT 7SM 21/14 RMK SLP149 T02100142 4////0127 57006 IEM_DS3505
ZBYN,1983-09-12 09:00,ZBYN 120900Z AUTO 18004KT 12SM 23/15 RMK SLP136 T02330154 57010 IEM_DS3505
ZBYN,1983-09-12 12:00,ZBYN 121200Z AUTO 00000KT 6SM 17/15 RMK SLP148 T01710151 52006 IEM_DS3505
ZBYN,1983-09-12 15:00,ZBYN 121500Z AUTO 00000KT 2 1/2SM 14/14 RMK SLP156 T01420136 52009 IEM_DS3505
ZBYN,1983-09-12 18:00,ZBYN 121800Z AUTO 00000KT 1/2SM 12/12 RMK SLP154 T01250123 40232//// 57002 IEM_DS3505
ZBYN,1983-09-12 21:00,ZBYN 122100Z AUTO 00000KT 2 1/2SM 11/11 RMK SLP152 T01140112 54000 IEM_DS3505
ZBYN,1983-09-13 00:00,ZBYN 130000Z AUTO 00000KT 2 1/2SM 13/12 RMK SLP165 T01330124 52007 IEM_DS3505
ZBYN,1983-09-13 03:00,ZBYN 130300Z AUTO 00000KT 5SM 19/15 RMK SLP157 T01910148 57005 IEM_DS3505
ZBYN,1983-09-13 05:00,ZBYN 130500Z AUTO 00000KT 7SM 23/14 A3003 RMK T02300140 IEM_DS3505
ZBYN,1983-09-13 06:00,ZBYN 130600Z AUTO 00000KT 6SM 26/15 A2997 RMK SLP121 T02560153 4////0108 57026 IEM_DS3505
ZBYN,1983-09-13 07:00,ZBYN 130700Z AUTO 21004KT 6SM 26/14 A2997 RMK T02600140 IEM_DS3505
ZBYN,1983-09-13 09:00,ZBYN 130900Z AUTO 00000KT 9SM 26/12 RMK SLP108 T02580120 57013 IEM_DS3505
ZBYN,1983-09-13 12:00,ZBYN 131200Z AUTO 00000KT 11SM 17/15 RMK SLP130 T01680146 52009 IEM_DS3505
ZBYN,1983-09-13 15:00,ZBYN 131500Z AUTO 00000KT 9SM 14/11 RMK SLP126 T01420112 52002 IEM_DS3505
ZBYN,1983-09-13 18:00,ZBYN 131800Z AUTO 00000KT 6SM 12/11 RMK SLP112 T01240113 40262//// 57006 IEM_DS3505
ZBYN,1983-09-13 21:00,ZBYN 132100Z AUTO 00000KT 5SM 11/10 RMK SLP110 T01130105 57003 IEM_DS3505
ZBYN,1983-09-14 00:00,ZBYN 140000Z AUTO 29002KT 5SM 14/12 RMK SLP129 T01400122 52007 IEM_DS3505
ZBYN,1983-09-14 03:00,ZBYN 140300Z AUTO 16004KT 4SM 22/14 RMK SLP114 T02160139 57005 IEM_DS3505
ZBYN,1983-09-14 06:00,ZBYN 140600Z AUTO 14006KT 11SM 26/15 RMK SLP083 T02610148 4////0107 57025 IEM_DS3505
ZBYN,1983-09-14 09:00,ZBYN 140900Z AUTO 20004KT 16SM 26/13 RMK SLP074 T02620128 57010 IEM_DS3505
ZBYN,1983-09-14 12:00,ZBYN 141200Z AUTO 11002KT 9SM 18/15 RMK SLP090 T01820148 52008 IEM_DS3505
ZBYN,1983-09-14 15:00,ZBYN 141500Z AUTO 00000KT 9SM 15/14 RMK SLP090 T01510135 52006 IEM_DS3505
ZBYN,1983-09-14 18:00,ZBYN 141800Z AUTO 00000KT 9SM 14/13 RMK SLP094 T01410130 40272//// 52008 IEM_DS3505
ZBYN,1983-09-14 21:00,ZBYN 142100Z AUTO 34002KT 5SM 14/13 RMK SLP096 T01430128 52003 IEM_DS3505
ZBYN,1983-09-15 00:00,ZBYN 150000Z AUTO 34004KT 4SM 16/13 RMK SLP114 T01650133 52008 IEM_DS3505
ZBYN,1983-09-15 03:00,ZBYN 150300Z AUTO 34004KT 6SM 23/14 RMK SLP099 T02340144 57008 IEM_DS3505
ZBYN,1983-09-15 06:00,ZBYN 150600Z AUTO 20004KT 9SM 28/15 RMK SLP077 T02780149 4////0130 57016 IEM_DS3505
ZBYN,1983-09-15 09:00,ZBYN 150900Z AUTO 14002KT 12SM 26/14 RMK SLP068 T02640135 57010 IEM_DS3505
ZBYN,1983-09-15 12:00,ZBYN 151200Z AUTO 00000KT 7SM 18/15 RMK SLP090 T01820153 52012 IEM_DS3505
ZBYN,1983-09-15 15:00,ZBYN 151500Z AUTO 34004KT 6SM 14/12 RMK SLP101 T01450120 52015 IEM_DS3505
ZBYN,1983-09-15 18:00,ZBYN 151800Z AUTO 32002KT 6SM 13/12 RMK SLP101 T01290116 40290//// 52003 IEM_DS3505
ZBYN,1983-09-15 21:00,ZBYN 152100Z AUTO 00000KT 5SM 14/12 RMK SLP103 T01360120 52001 IEM_DS3505
ZBYN,1983-09-16 00:00,ZBYN 160000Z AUTO 02002KT 2SM 16/14 RMK SLP123 T01630138 52011 IEM_DS3505
ZBYN,1983-09-16 03:00,ZBYN 160300Z AUTO 36002KT 6SM 23/14 RMK SLP123 T02260142 52004 IEM_DS3505
ZBYN,1983-09-16 06:00,ZBYN 160600Z AUTO 20004KT 12SM 26/11 RMK SLP106 T02580108 4////0110 57014 IEM_DS3505
ZBYN,1983-09-16 09:00,ZBYN 160900Z AUTO 00000KT 16SM 24/14 RMK SLP095 T02440144 57011 IEM_DS3505
ZBYN,1983-09-16 12:00,ZBYN 161200Z AUTO 16006KT 9SM 19/14 RMK SLP122 T01890145 52021 IEM_DS3505
ZBYN,1983-09-16 15:00,ZBYN 161500Z AUTO 34002KT 9SM 18/15 RMK SLP121 T01760147 52006 IEM_DS3505
ZBYN,1983-09-16 18:00,ZBYN 161800Z AUTO 02002KT 12SM 16/13 RMK SLP117 T01640134 40264//// 57001 IEM_DS3505
ZBYN,1983-09-16 21:00,ZBYN 162100Z AUTO 34002KT 9SM 14/13 RMK SLP124 T01400127 52001 IEM_DS3505
ZBYN,1983-09-17 00:00,ZBYN 170000Z AUTO 00000KT 4SM 16/14 RMK SLP144 T01550141 52012 IEM_DS3505
ZBYN,1983-09-17 03:00,ZBYN 170300Z AUTO 18002KT 7SM 23/14 A3003 RMK SLP137 T02320143 52004 IEM_DS3505
ZBYN,1983-09-17 04:00,ZBYN 170400Z AUTO 00000KT 7SM 28/15 A3003 RMK T02800150 IEM_DS3505
ZBYN,1983-09-17 05:00,ZBYN 170500Z AUTO 22004KT 7SM 26/13 A2997 RMK T02600130 IEM_DS3505
ZBYN,1983-09-17 06:00,ZBYN 170600Z AUTO 00000KT 11SM 27/13 A2997 RMK SLP114 T02680129 4////0129 57018 IEM_DS3505
ZBYN,1983-09-17 07:00,ZBYN 170700Z AUTO 20004KT 7SM 27/14 A2997 RMK T02700140 IEM_DS3505
ZBYN,1983-09-17 08:00,ZBYN 170800Z AUTO 18006KT 6SM 26/15 A2997 RMK T02600150 IEM_DS3505
ZBYN,1983-09-17 09:00,ZBYN 170900Z AUTO 00000KT 11SM 25/16 A2997 RMK SLP112 T02520157 57007 IEM_DS3505
ZBYN,1983-09-17 12:00,ZBYN 171200Z AUTO 00000KT 7SM 19/17 RMK SLP130 T01910168 52010 IEM_DS3505
ZBYN,1983-09-17 15:00,ZBYN 171500Z AUTO 14002KT 6SM 17/16 RMK SLP135 T01710157 52012 IEM_DS3505
ZBYN,1983-09-17 18:00,ZBYN 171800Z AUTO 00000KT 5SM 16/14 RMK SLP126 T01580142 40269//// 57005 IEM_DS3505
ZBYN,1983-09-17 21:00,ZBYN 172100Z AUTO 11004KT 6SM 16/14 RMK SLP126 T01620137 57002 IEM_DS3505
ZBYN,1983-09-18 00:00,ZBYN 180000Z AUTO 00000KT 5SM 17/15 RMK SLP152 T01660148 52016 IEM_DS3505
ZBYN,1983-09-18 03:00,ZBYN 180300Z AUTO 29006KT 12SM 19/14 RMK SLP160 T01900142 52008 IEM_DS3505
ZBYN,1983-09-18 06:00,ZBYN 180600Z AUTO 29006KT 12SM 21/13 RMK SLP153 T02100134 4////0152 57006 IEM_DS3505
ZBYN,1983-09-18 09:00,ZBYN 180900Z AUTO 11004KT 7SM 20/15 RMK SLP153 T01960148 57001 IEM_DS3505
ZBYN,1983-09-18 12:00,ZBYN 181200Z AUTO 00000KT 5SM 16/15 RMK SLP170 T01630153 IEM_DS3505
ZBYN,1983-09-18 15:00,ZBYN 181500Z AUTO 34004KT 5SM 17/15 RMK SLP182 T01660150 52015 IEM_DS3505
ZBYN,1983-09-18 18:00,ZBYN 181800Z AUTO 34004KT 5SM 15/13 RMK SLP182 T01500132 40211//// 52001 IEM_DS3505
ZBYN,1983-09-18 21:00,ZBYN 182100Z AUTO 34006KT 6SM 12/10 RMK SLP187 T01240105 57001 IEM_DS3505
ZBYN,1983-09-19 00:00,ZBYN 190000Z AUTO 34008KT 16SM 14/09 RMK SLP204 T01420091 52013 IEM_DS3505
ZBYN,1983-09-19 01:00,ZBYN 190100Z AUTO 34008KT 16SM 14/09 RMK T01420091 IEM_DS3505
ZBYN,1983-09-19 03:00,ZBYN 190300Z AUTO 34006KT 12SM 21/11 RMK SLP193 T02130106 54000 IEM_DS3505
ZBYN,1983-09-19 06:00,ZBYN 190600Z AUTO 34004KT 19SM 25/09 RMK SLP167 T02470093 4////0097 57020 IEM_DS3505
ZBYN,1983-09-19 09:00,ZBYN 190900Z AUTO 00000KT 19SM 24/08 RMK SLP159 T02450077 57012 IEM_DS3505
ZBYN,1983-09-19 12:00,ZBYN 191200Z AUTO 09004KT 9SM 19/10 RMK SLP179 T01870100 52012 IEM_DS3505
ZBYN,1983-09-19 15:00,ZBYN 191500Z AUTO 00000KT 9SM 17/11 RMK SLP182 T01670110 52010 IEM_DS3505
ZBYN,1983-09-19 18:00,ZBYN 191800Z AUTO 00000KT 9SM 13/11 RMK SLP182 T01310114 40259//// 54000 IEM_DS3505
ZBYN,1983-09-19 21:00,ZBYN 192100Z AUTO 00000KT 10SM 14/11 RMK SLP178 T01410113 57001 IEM_DS3505
ZBYN,1983-09-20 00:00,ZBYN 200000Z AUTO 32006KT 7SM 15/12 RMK SLP194 T01520117 52007 IEM_DS3505
ZBYN,1983-09-20 01:00,ZBYN 200100Z AUTO 07010KT 6SM 17/10 A3015 RMK T01700100 IEM_DS3505
ZBYN,1983-09-20 03:00,ZBYN 200300Z AUTO 00000KT 6SM 16/13 A3015 RMK SLP195 T01640128 54000 IEM_DS3505
ZBYN,1983-09-20 04:00,ZBYN 200400Z AUTO 07004KT 7SM 18/12 A3015 RMK T01800120 IEM_DS3505
ZBYN,1983-09-20 05:00,ZBYN 200500Z AUTO 00000KT 7SM 17/13 A3015 RMK T01700130 IEM_DS3505
ZBYN,1983-09-20 06:00,ZBYN 200600Z AUTO 29002KT 6SM 16/14 A3015 RMK 60008 SLP190 T01600135 57010 IEM_DS3505
ZBYN,1983-09-20 07:00,ZBYN 200700Z AUTO 00000KT 7SM 15/13 A3012 RMK T01500130 IEM_DS3505
ZBYN,1983-09-20 08:00,ZBYN 200800Z AUTO 00000KT 7SM 15/14 A3012 RMK T01500140 IEM_DS3505
ZBYN,1983-09-20 09:00,ZBYN 200900Z AUTO 32004KT 6SM 14/13 A3006 RMK SLP176 T01420126 57015 IEM_DS3505
ZBYN,1983-09-20 10:00,ZBYN 201000Z AUTO 32004KT 6SM 14/13 RMK SLP176 T01420126 57015 IEM_DS3505
ZBYN,1983-09-20 12:00,ZBYN 201200Z AUTO 00000KT 6SM 14/13 RMK 60012 SLP178 T01370128 52003 IEM_DS3505
ZBYN,1983-09-20 15:00,ZBYN 201500Z AUTO 00000KT 6SM 13/12 RMK SLP185 T01330122 52008 IEM_DS3505
ZBYN,1983-09-20 18:00,ZBYN 201800Z AUTO 00000KT 5SM 13/12 RMK 60004 SLP166 T01290117 40164//// 57019 IEM_DS3505
ZBYN,1983-09-20 21:00,ZBYN 202100Z AUTO 00000KT 6SM 13/12 RMK 70020 SLP168 T01270117 57002 IEM_DS3505
ZBYN,1983-09-21 00:00,ZBYN 210000Z AUTO 00000KT 5SM 13/12 RMK 60001 70020 SLP175 T01310124 52007 IEM_DS3505
ZBYN,1983-09-21 03:00,ZBYN 210300Z AUTO 29004KT 5SM 16/13 RMK SLP169 T01590127 57001 IEM_DS3505
ZBYN,1983-09-21 06:00,ZBYN 210600Z AUTO 00000KT 6SM 18/12 RMK SLP155 T01820117 4////0123 57010 IEM_DS3505
ZBYN,1983-09-21 09:00,ZBYN 210900Z AUTO 20004KT 6SM 18/14 RMK SLP148 T01780138 57008 IEM_DS3505
ZBYN,1983-09-21 12:00,ZBYN 211200Z AUTO 16004KT 5SM 16/14 RMK SLP161 T01580139 52010 IEM_DS3505
ZBYN,1983-09-21 15:00,ZBYN 211500Z AUTO 00000KT 2SM 13/12 RMK SLP161 T01300124 54000 IEM_DS3505
ZBYN,1983-09-21 18:00,ZBYN 211800Z AUTO 00000KT 3SM 14/13 RMK SLP161 T01370130 40195//// 52004 IEM_DS3505
ZBYN,1983-09-21 21:00,ZBYN 212100Z AUTO 00000KT 3SM 14/13 RMK SLP161 T01380134 57001 IEM_DS3505
ZBYN,1983-09-22 00:00,ZBYN 220000Z AUTO 00000KT 3SM 15/14 RMK SLP166 T01460139 52003 IEM_DS3505
ZBYN,1983-09-22 03:00,ZBYN 220300Z AUTO 00000KT 4SM 16/14 RMK SLP169 T01650141 52002 IEM_DS3505
ZBYN,1983-09-22 06:00,ZBYN 220600Z AUTO 00000KT 4SM 18/15 RMK SLP159 T01780149 4////0117 57007 IEM_DS3505
ZBYN,1983-09-22 09:00,ZBYN 220900Z AUTO 00000KT 4SM 16/14 RMK SLP155 T01610144 57005 IEM_DS3505
ZBYN,1983-09-22 12:00,ZBYN 221200Z AUTO 11004KT 2 1/2SM 15/14 RMK SLP157 T01480143 52001 IEM_DS3505
ZBYN,1983-09-22 15:00,ZBYN 221500Z AUTO 09002KT 1 1/4SM 15/14 RMK SLP164 T01470142 52009 IEM_DS3505
ZBYN,1983-09-22 18:00,ZBYN 221800Z AUTO 14002KT 1/8SM 14/14 RMK SLP165 T01350135 40180//// 52001 IEM_DS3505
ZBYN,1983-09-22 21:00,ZBYN 222100Z AUTO 00000KT 2SM 14/14 RMK SLP170 T01390137 52003 IEM_DS3505
ZBYN,1983-09-23 00:00,ZBYN 230000Z AUTO 00000KT 1SM 14/14 RMK SLP178 T01400136 52005 IEM_DS3505
ZBYN,1983-09-23 03:00,ZBYN 230300Z AUTO 18004KT 4SM 18/14 RMK SLP169 T01810138 57003 IEM_DS3505
ZBYN,1983-09-23 06:00,ZBYN 230600Z AUTO 18006KT 6SM 21/14 RMK SLP143 T02130144 4////0127 57023 IEM_DS3505
ZBYN,1983-09-23 09:00,ZBYN 230900Z AUTO 14004KT 7SM 22/14 RMK SLP126 T02220141 57013 IEM_DS3505
ZBYN,1983-09-23 12:00,ZBYN 231200Z AUTO 00000KT 6SM 15/13 RMK SLP148 T01490133 52009 IEM_DS3505
ZBYN,1983-09-23 15:00,ZBYN 231500Z AUTO 09004KT 7SM 14/13 RMK SLP150 T01360127 52007 IEM_DS3505
ZBYN,1983-09-23 18:00,ZBYN 231800Z AUTO 00000KT 1/8SM 12/12 RMK SLP149 T01190119 40234//// 52001 IEM_DS3505
ZBYN,1983-09-23 21:00,ZBYN 232100Z AUTO 00000KT 3/8SM 13/13 RMK SLP149 T01310129 52003 IEM_DS3505
ZBYN,1983-09-24 00:00,ZBYN 240000Z AUTO 14002KT 1 1/4SM 14/13 RMK SLP168 T01370128 52008 IEM_DS3505
ZBYN,1983-09-24 03:00,ZBYN 240300Z AUTO 14004KT 6SM 17/13 RMK SLP168 T01690128 52003 IEM_DS3505
ZBYN,1983-09-24 06:00,ZBYN 240600Z AUTO 16004KT 11SM 24/09 RMK SLP131 T02390088 4////0107 57027 IEM_DS3505
ZBYN,1983-09-24 09:00,ZBYN 240900Z AUTO 22008KT 12SM 24/11 A2997 RMK SLP115 T02360114 57013 IEM_DS3505
ZBYN,1983-09-24 10:00,ZBYN 241000Z AUTO 24006KT 6SM 21/ A2997 RMK IEM_DS3505
ZBYN,1983-09-24 11:00,ZBYN 241100Z AUTO 00000KT 6SM 17/11 A2994 RMK T01700110 IEM_DS3505
ZBYN,1983-09-24 12:00,ZBYN 241200Z AUTO 11002KT 9SM 15/11 A2997 RMK SLP129 T01480113 51001 IEM_DS3505
ZBYN,1983-09-24 15:00,ZBYN 241500Z AUTO 00000KT 9SM 12/11 RMK SLP142 T01210106 52011 IEM_DS3505
ZBYN,1983-09-24 18:00,ZBYN 241800Z AUTO 00000KT 6SM 10/09 RMK SLP135 T01020091 40247//// 52002 IEM_DS3505
ZBYN,1983-09-24 21:00,ZBYN 242100Z AUTO 34002KT 5SM 10/09 RMK SLP146 T00970089 52009 IEM_DS3505
ZBYN,1983-09-25 00:00,ZBYN 250000Z AUTO 00000KT 4SM 13/10 RMK SLP164 T01260099 52008 IEM_DS3505
ZBYN,1983-09-25 03:00,ZBYN 250300Z AUTO 00000KT 6SM 21/12 RMK SLP154 T02090116 57001 IEM_DS3505
ZBYN,1983-09-25 06:00,ZBYN 250600Z AUTO 18002KT 9SM 24/09 RMK SLP125 T02360091 4////0085 57025 IEM_DS3505
ZBYN,1983-09-25 09:00,ZBYN 250900Z AUTO 00000KT 12SM 22/14 RMK SLP126 T02230138 57003 IEM_DS3505
ZBYN,1983-09-25 12:00,ZBYN 251200Z AUTO 11006KT 12SM 18/13 RMK SLP140 T01850128 52012 IEM_DS3505
ZBYN,1983-09-25 18:00,ZBYN 251800Z AUTO 14002KT 9SM 16/13 RMK SLP158 T01600130 40250//// 52014 IEM_DS3505
ZBYN,1983-09-25 21:00,ZBYN 252100Z AUTO 11004KT 9SM 15/13 RMK SLP174 T01470134 52010 IEM_DS3505
ZBYN,1983-09-26 00:00,ZBYN 260000Z AUTO 11006KT 9SM 14/12 RMK 60004 70004 SLP198 T01360123 52016 IEM_DS3505
ZBYN,1983-09-26 03:00,ZBYN 260300Z AUTO 16004KT 6SM 15/13 RMK SLP209 T01480132 52011 IEM_DS3505
ZBYN,1983-09-26 06:00,ZBYN 260600Z AUTO 00000KT 4SM 15/13 RMK 60008 SLP210 T01530126 4////0133 57001 IEM_DS3505
ZBYN,1983-09-26 09:00,ZBYN 260900Z AUTO 34004KT 6SM 14/12 RMK SLP220 T01420117 52005 IEM_DS3505
ZBYN,1983-09-26 12:00,ZBYN 261200Z AUTO 34004KT 5SM 13/12 RMK 60012 SLP229 T01300119 52005 IEM_DS3505
ZBYN,1983-09-26 15:00,ZBYN 261500Z AUTO 34004KT 4SM 13/12 RMK SLP235 T01280115 52006 IEM_DS3505
ZBYN,1983-09-26 18:00,ZBYN 261800Z AUTO 34006KT 6SM 12/12 RMK 60008 SLP230 T01220116 40160//// 57004 IEM_DS3505
ZBYN,1983-09-26 21:00,ZBYN 262100Z AUTO 36006KT 7SM 12/11 RMK 70035 SLP229 T01240114 57002 IEM_DS3505
ZBYN,1983-09-27 00:00,ZBYN 270000Z AUTO 32004KT 7SM 12/12 RMK 60008 70039 SLP229 T01210117 57002 IEM_DS3505
ZBYN,1983-09-27 03:00,ZBYN 270300Z AUTO 34004KT 5SM 12/12 RMK SLP235 T01250122 52005 IEM_DS3505
ZBYN,1983-09-27 04:00,ZBYN 270400Z AUTO 34004KT 7SM 13/12 A3024 RMK T01300120 IEM_DS3505
ZBYN,1983-09-27 05:00,ZBYN 270500Z AUTO 34002KT 7SM 13/12 A3024 RMK T01300120 IEM_DS3505
ZBYN,1983-09-27 06:00,ZBYN 270600Z AUTO 34004KT 6SM 13/12 A3021 RMK 60035 SLP218 T01290122 4////0118 57015 IEM_DS3505
ZBYN,1983-09-27 07:00,ZBYN 270700Z AUTO 02004KT 13/12 A3024 RMK T01300120 IEM_DS3505
ZBYN,1983-09-27 08:00,ZBYN 270800Z AUTO 34002KT 1SM 13/13 A3024 RMK T01300130 IEM_DS3505
ZBYN,1983-09-27 09:00,ZBYN 270900Z AUTO 00000KT 6SM 13/12 A3021 RMK SLP216 T01310125 57002 IEM_DS3505
ZBYN,1983-09-27 10:00,ZBYN 271000Z AUTO 00000KT 5SM 13/12 A3021 RMK T01300120 IEM_DS3505
ZBYN,1983-09-27 11:00,ZBYN 271100Z AUTO 00000KT 7SM RMK IEM_DS3505
ZBYN,1983-09-27 12:00,ZBYN 271200Z AUTO 00000KT 7SM 13/12 A3021 RMK 60024 SLP218 T01300120 52001 IEM_DS3505
ZBYN,1983-09-27 15:00,ZBYN 271500Z AUTO 14006KT 4SM 12/12 RMK SLP211 T01250122 57005 IEM_DS3505
ZBYN,1983-09-27 18:00,ZBYN 271800Z AUTO 16002KT 4SM 12/12 RMK 60002 SLP208 T01250122 40134//// 57003 IEM_DS3505
ZBYN,1983-09-27 21:00,ZBYN 272100Z AUTO 00000KT 4SM 12/12 RMK 70063 SLP194 T01240120 57013 IEM_DS3505
ZBYN,1983-09-28 00:00,ZBYN 280000Z AUTO 00000KT 5SM 12/11 RMK 70059 SLP203 T01210113 52007 IEM_DS3505
ZBYN,1983-09-28 03:00,ZBYN 280300Z AUTO 00000KT 5SM 16/12 RMK SLP201 T01650122 52005 IEM_DS3505
ZBYN,1983-09-28 06:00,ZBYN 280600Z AUTO 18006KT 11SM 19/10 RMK SLP186 T01930105 4////0116 57009 IEM_DS3505
ZBYN,1983-09-28 09:00,ZBYN 280900Z AUTO 18004KT 16SM 20/12 RMK SLP163 T01980124 57021 IEM_DS3505
ZBYN,1983-09-28 12:00,ZBYN 281200Z AUTO 14004KT 16SM 14/12 RMK SLP185 T01440120 40206//// 52012 IEM_DS3505
ZBYN,1983-09-28 15:00,ZBYN 281500Z AUTO 14004KT 12SM 12/11 RMK SLP184 T01190110 52002 IEM_DS3505
ZBYN,1983-09-28 18:00,ZBYN 281800Z AUTO 00000KT 9SM 11/10 RMK SLP179 T01120104 40206//// 57001 IEM_DS3505
ZBYN,1983-09-28 21:00,ZBYN 282100Z AUTO 00000KT 4SM 13/12 RMK SLP180 T01260121 52002 IEM_DS3505
ZBYN,1983-09-29 00:00,ZBYN 290000Z AUTO 00000KT 1SM 12/12 RMK SLP198 T01240119 52009 IEM_DS3505
ZBYN,1983-09-29 03:00,ZBYN 290300Z AUTO 00000KT 5SM 16/12 RMK SLP195 T01640124 54000 IEM_DS3505
ZBYN,1983-09-29 06:00,ZBYN 290600Z AUTO 00000KT 7SM 21/13 RMK SLP165 T02110127 4////0104 57022 IEM_DS3505
ZBYN,1983-09-29 09:00,ZBYN 290900Z AUTO 18006KT 9SM 21/13 RMK SLP148 T02120126 57013 IEM_DS3505
ZBYN,1983-09-29 12:00,ZBYN 291200Z AUTO 14002KT 9SM 16/13 RMK SLP167 T01640126 52010 IEM_DS3505
ZBYN,1983-09-29 15:00,ZBYN 291500Z AUTO 11004KT 9SM 14/12 RMK SLP176 T01380117 52010 IEM_DS3505
ZBYN,1983-09-29 18:00,ZBYN 291800Z AUTO 14004KT 7SM 12/11 RMK SLP170 T01200114 40216//// 57001 IEM_DS3505
ZBYN,1983-09-29 21:00,ZBYN 292100Z AUTO 00000KT 3/8SM 09/09 RMK SLP175 T00920086 54000 IEM_DS3505
ZBYN,1983-09-30 00:00,ZBYN 300000Z AUTO 00000KT 1/8SM 11/11 RMK SLP193 T01120110 52012 IEM_DS3505
ZBYN,1983-09-30 03:00,ZBYN 300300Z AUTO 00000KT 4SM 18/13 RMK SLP180 T01800127 57005 IEM_DS3505
ZBYN,1983-09-30 06:00,ZBYN 300600Z AUTO 11004KT 7SM 23/09 RMK SLP148 T02340088 4////0077 57024 IEM_DS3505
ZBYN,1983-09-30 09:00,ZBYN 300900Z AUTO 20006KT 11SM 23/13 RMK SLP140 T02300128 57012 IEM_DS3505
ZBYN,1983-09-30 12:00,ZBYN 301200Z AUTO 00000KT 9SM 16/12 RMK SLP163 T01560125 52013 IEM_DS3505
ZBYN,1983-09-30 15:00,ZBYN 301500Z AUTO 00000KT 9SM 12/11 RMK SLP170 T01200111 52012 IEM_DS3505
ZBYN,1983-09-30 18:00,ZBYN 301800Z AUTO 00000KT 6SM 10/09 RMK SLP167 T01000094 40239//// 52001 IEM_DS3505
ZBYN,1983-09-30 21:00,ZBYN 302100Z AUTO 00000KT 4SM 11/10 RMK SLP164 T01100103 57001 IEM_DS3505
ZBYN,1983-10-01 00:00,ZBYN 010000Z AUTO 00000KT 3SM 12/11 RMK SLP178 T01210112 52003 IEM_DS3505
ZBYN,1983-10-01 02:00,ZBYN 010200Z AUTO 00000KT 6SM 17/13 A3012 RMK T01700130 IEM_DS3505
ZBYN,1983-10-01 03:00,ZBYN 010300Z AUTO 00000KT 5SM 19/12 A3012 RMK SLP174 T01930122 52002 IEM_DS3505
ZBYN,1983-10-01 04:00,ZBYN 010400Z AUTO 18006KT 6SM 21/13 A3012 RMK T02100130 IEM_DS3505
ZBYN,1983-10-01 05:00,ZBYN 010500Z AUTO 17008KT 6SM 22/14 A3006 RMK T02200140 IEM_DS3505
ZBYN,1983-10-01 06:00,ZBYN 010600Z AUTO 16002KT 6SM 23/14 A3003 RMK SLP143 T02320145 4////0097 57025 IEM_DS3505
ZBYN,1983-10-01 07:00,ZBYN 010700Z AUTO 20004KT 6SM 24/14 A3003 RMK T02400140 IEM_DS3505
ZBYN,1983-10-01 08:00,ZBYN 010800Z AUTO 19008KT 6SM 24/14 A3003 RMK T02400140 IEM_DS3505
ZBYN,1983-10-01 09:00,ZBYN 010900Z AUTO 18004KT 9SM 22/14 A2997 RMK SLP132 T02230142 57010 IEM_DS3505
ZBYN,1983-10-01 12:00,ZBYN 011200Z AUTO 00000KT 9SM 17/13 RMK SLP156 T01710134 52016 IEM_DS3505
ZBYN,1983-10-01 15:00,ZBYN 011500Z AUTO 00000KT 4SM 13/12 RMK SLP167 T01300123 52014 IEM_DS3505
ZBYN,1983-10-01 18:00,ZBYN 011800Z AUTO 00000KT 2SM 12/12 RMK SLP167 T01190115 40239//// 52004 IEM_DS3505
ZBYN,1983-10-01 21:00,ZBYN 012100Z AUTO 00000KT 1SM 11/10 RMK SLP174 T01070105 52003 IEM_DS3505
ZBYN,1983-10-02 00:00,ZBYN 020000Z AUTO 00000KT 4SM 12/11 RMK SLP192 T01200114 52012 IEM_DS3505
ZBYN,1983-10-02 03:00,ZBYN 020300Z AUTO 14002KT 7SM 21/14 RMK SLP182 T02110145 57003 IEM_DS3505
ZBYN,1983-10-02 06:00,ZBYN 020600Z AUTO 20006KT 11SM 25/14 RMK SLP155 T02490138 4////0096 57027 IEM_DS3505
ZBYN,1983-10-02 09:00,ZBYN 020900Z AUTO 27002KT 14SM 25/12 RMK SLP151 T02470119 57005 IEM_DS3505
ZBYN,1983-10-02 12:00,ZBYN 021200Z AUTO 00000KT 7SM 17/13 RMK SLP175 T01700131 52012 IEM_DS3505
ZBYN,1983-10-02 15:00,ZBYN 021500Z AUTO 00000KT 6SM 16/13 RMK SLP173 T01570134 52009 IEM_DS3505
ZBYN,1983-10-02 18:00,ZBYN 021800Z AUTO 00000KT 6SM 13/12 RMK SLP168 T01320125 40257//// 57001 IEM_DS3505
ZBYN,1983-10-02 21:00,ZBYN 022100Z AUTO 00000KT 9SM 13/11 RMK SLP169 T01330108 54000 IEM_DS3505
ZBYN,1983-10-03 00:00,ZBYN 030000Z AUTO 00000KT 5SM 13/12 RMK SLP190 T01270117 52008 IEM_DS3505
ZBYN,1983-10-03 03:00,ZBYN 030300Z AUTO 00000KT 6SM 21/13 RMK SLP181 T02080128 52001 IEM_DS3505
ZBYN,1983-10-03 06:00,ZBYN 030600Z AUTO 00000KT 9SM 21/12 RMK SLP167 T02110119 4////0120 57017 IEM_DS3505
ZBYN,1983-10-03 09:00,ZBYN 030900Z AUTO 16004KT 12SM 20/12 RMK SLP152 T02020125 57014 IEM_DS3505
ZBYN,1983-10-03 12:00,ZBYN 031200Z AUTO 09004KT 12SM 16/12 RMK SLP169 T01590115 52009 IEM_DS3505
ZBYN,1983-10-03 15:00,ZBYN 031500Z AUTO 00000KT 7SM 13/11 RMK SLP174 T01270106 52011 IEM_DS3505
ZBYN,1983-10-03 18:00,ZBYN 031800Z AUTO 00000KT 5SM 11/10 RMK SLP181 T01090101 40221//// 52004 IEM_DS3505
ZBYN,1983-10-03 21:00,ZBYN 032100Z AUTO 00000KT 5SM 11/10 RMK SLP186 T01060100 52003 IEM_DS3505
ZBYN,1983-10-04 00:00,ZBYN 040000Z AUTO 00000KT 4SM 12/11 RMK SLP211 T01180111 52018 IEM_DS3505
ZBYN,1983-10-04 03:00,ZBYN 040300Z AUTO 00000KT 4SM 18/10 A3021 RMK SLP211 T01800100 52004 IEM_DS3505
ZBYN,1983-10-04 05:00,ZBYN 040500Z AUTO 00000KT 6SM 22/11 A3021 RMK T02200110 IEM_DS3505
ZBYN,1983-10-04 06:00,ZBYN 040600Z AUTO 32006KT 12SM 22/10 A3015 RMK SLP186 T02240103 4////0098 57018 IEM_DS3505
ZBYN,1983-10-04 07:00,ZBYN 040700Z AUTO 00000KT 6SM 24/05 A3021 RMK T02400050 IEM_DS3505
ZBYN,1983-10-04 09:00,ZBYN 040900Z AUTO 00000KT 16SM 22/12 RMK SLP183 T02150124 57005 IEM_DS3505
ZBYN,1983-10-04 12:00,ZBYN 041200Z AUTO 00000KT 9SM 16/09 RMK SLP205 T01640091 52015 IEM_DS3505
ZBYN,1983-10-04 15:00,ZBYN 041500Z AUTO 00000KT 9SM 14/08 RMK SLP219 T01450077 52018 IEM_DS3505
ZBYN,1983-10-04 18:00,ZBYN 041800Z AUTO 34004KT 9SM 14/06 RMK SLP218 T01380059 40244//// 52004 IEM_DS3505
ZBYN,1983-10-04 21:00,ZBYN 042100Z AUTO 34004KT 9SM 13/06 RMK SLP228 T01320056 52007 IEM_DS3505
ZBYN,1983-10-05 00:00,ZBYN 050000Z AUTO 00000KT 6SM 13/09 RMK SLP257 T01310091 52020 IEM_DS3505
ZBYN,1983-10-05 03:00,ZBYN 050300Z AUTO 07014KT 19SM 16/04 RMK SLP260 T01650036 52004 IEM_DS3505
ZBYN,1983-10-05 06:00,ZBYN 050600Z AUTO 11004KT 19SM 20/06 RMK SLP227 T02010059 57025 IEM_DS3505
ZBYN,1983-10-05 09:00,ZBYN 050900Z AUTO 16002KT 19SM 20/08 RMK SLP218 T02040075 57009 IEM_DS3505
ZBYN,1983-10-05 12:00,ZBYN 051200Z AUTO 11002KT 12SM 14/09 RMK SLP236 T01420091 52007 IEM_DS3505
ZBYN,1983-10-05 15:00,ZBYN 051500Z AUTO 00000KT 11SM 11/10 RMK SLP239 T01140096 52004 IEM_DS3505
ZBYN,1983-10-05 18:00,ZBYN 051800Z AUTO 00000KT 9SM 12/09 RMK SLP228 T01160088 57004 IEM_DS3505
ZBYN,1983-10-05 21:00,ZBYN 052100Z AUTO 36002KT 9SM 11/09 RMK SLP222 T01100091 57006 IEM_DS3505
ZBYN,1983-10-06 00:00,ZBYN 060000Z AUTO 00000KT 5SM 12/10 RMK SLP236 T01160105 52004 IEM_DS3505
ZBYN,1983-10-06 03:00,ZBYN 060300Z AUTO 00000KT 6SM 16/09 RMK SLP233 T01550089 57002 IEM_DS3505
ZBYN,1983-10-06 06:00,ZBYN 060600Z AUTO 00000KT 6SM 16/08 RMK SLP211 T01600083 4////0107 57019 IEM_DS3505
ZBYN,1983-10-06 09:00,ZBYN 060900Z AUTO 18008KT 12SM 14/08 RMK SLP211 T01440075 57002 IEM_DS3505
ZBYN,1983-10-06 12:00,ZBYN 061200Z AUTO 11002KT 6SM 12/09 RMK SLP232 T01200086 52016 IEM_DS3505
ZBYN,1983-10-06 15:00,ZBYN 061500Z AUTO 11004KT 6SM 10/10 RMK SLP225 T01000096 57004 IEM_DS3505
ZBYN,1983-10-06 18:00,ZBYN 061800Z AUTO 11004KT 5SM 09/09 RMK 60012 SLP213 T00930089 40165//// 57011 IEM_DS3505
ZBYN,1983-10-06 21:00,ZBYN 062100Z AUTO 16004KT 5SM 09/08 RMK 70031 SLP202 T00860080 57013 IEM_DS3505
ZBYN,1983-10-07 00:00,ZBYN 070000Z AUTO 16004KT 11SM 09/08 RMK 60028 70039 SLP196 T00930082 57008 IEM_DS3505
ZBYN,1983-10-07 03:00,ZBYN 070300Z AUTO 16004KT 6SM 10/08 RMK SLP201 T01010078 52001 IEM_DS3505
ZBYN,1983-10-07 06:00,ZBYN 070600Z AUTO 00000KT 9SM 10/09 RMK 60008 SLP181 T00970086 4////0085 57020 IEM_DS3505
ZBYN,1983-10-07 09:00,ZBYN 070900Z AUTO 00000KT 6SM 10/09 RMK SLP177 T00980088 57004 IEM_DS3505
ZBYN,1983-10-07 12:00,ZBYN 071200Z AUTO 00000KT 3SM 10/09 RMK 60001 SLP186 T01000090 52010 IEM_DS3505
ZBYN,1983-10-07 15:00,ZBYN 071500Z AUTO 00000KT 7SM 10/09 RMK SLP186 T01020091 52001 IEM_DS3505
ZBYN,1983-10-07 18:00,ZBYN 071800Z AUTO 00000KT 6SM 10/09 RMK SLP186 T00960090 40102//// 57001 IEM_DS3505
ZBYN,1983-10-07 21:00,ZBYN 072100Z AUTO 00000KT 4SM 09/09 RMK 70055 SLP193 T00920088 52005 IEM_DS3505
ZBYN,1983-10-08 00:00,ZBYN 080000Z AUTO 00000KT 5SM 10/09 RMK 70008 SLP191 T01010093 54000 IEM_DS3505
ZBYN,1983-10-08 03:00,ZBYN 080300Z AUTO 22002KT 6SM 13/09 A3012 RMK SLP190 T01300089 52005 IEM_DS3505
ZBYN,1983-10-08 04:00,ZBYN 080400Z AUTO 19006KT 7SM 14/09 A3012 RMK T01400090 IEM_DS3505
ZBYN,1983-10-08 05:00,ZBYN 080500Z AUTO 00000KT 7SM 15/10 A3006 RMK T01500100 IEM_DS3505
ZBYN,1983-10-08 06:00,ZBYN 080600Z AUTO 16002KT 7SM 15/10 RMK SLP175 T01460096 4////0090 57013 IEM_DS3505
ZBYN,1983-10-08 07:00,ZBYN 080700Z AUTO 00000KT 7SM 15/10 A3006 RMK T01500100 IEM_DS3505
ZBYN,1983-10-08 08:00,ZBYN 080800Z AUTO 20002KT 7SM 14/10 A3006 RMK T01400100 IEM_DS3505
ZBYN,1983-10-08 09:00,ZBYN 080900Z AUTO 00000KT 6SM 14/10 A3006 RMK SLP168 T01410101 57007 IEM_DS3505
ZBYN,1983-10-08 12:00,ZBYN 081200Z AUTO 00000KT 5SM 10/10 RMK SLP184 T01010095 52009 IEM_DS3505
ZBYN,1983-10-08 15:00,ZBYN 081500Z AUTO 00000KT 4SM 09/08 RMK SLP191 T00900083 52009 IEM_DS3505
ZBYN,1983-10-08 18:00,ZBYN 081800Z AUTO 00000KT 4SM 10/09 RMK SLP186 T00960094 40150//// 57001 IEM_DS3505
ZBYN,1983-10-08 21:00,ZBYN 082100Z AUTO 00000KT 4SM 09/09 RMK SLP181 T00890086 57006 IEM_DS3505
ZBYN,1983-10-09 00:00,ZBYN 090000Z AUTO 11002KT 3SM 09/08 RMK SLP191 T00880082 52002 IEM_DS3505
ZBYN,1983-10-09 06:00,ZBYN 090600Z AUTO 14002KT 6SM 15/11 RMK SLP163 T01470107 4////0076 57022 IEM_DS3505
ZBYN,1983-10-09 09:00,ZBYN 090900Z AUTO 34004KT 5SM 15/12 RMK SLP163 T01490117 54000 IEM_DS3505
ZBYN,1983-10-09 12:00,ZBYN 091200Z AUTO 00000KT 5SM 13/11 RMK SLP184 T01280111 52015 IEM_DS3505
ZBYN,1983-10-09 15:00,ZBYN 091500Z AUTO 00000KT 4SM 12/11 RMK SLP194 T01190111 52013 IEM_DS3505
ZBYN,1983-10-09 18:00,ZBYN 091800Z AUTO 00000KT 3/8SM 09/09 RMK T00900088 40164//// 52008 IEM_DS3505
ZBYN,1983-10-09 21:00,ZBYN 092100Z AUTO 34002KT 2 1/2SM 10/10 RMK SLP211 T01020098 52010 IEM_DS3505
ZBYN,1983-10-10 00:00,ZBYN 100000Z AUTO 00000KT 2SM 11/10 RMK SLP241 T01070103 52024 IEM_DS3505
ZBYN,1983-10-10 03:00,ZBYN 100300Z AUTO 32010KT 6SM 15/08 RMK SLP257 T01500083 52019 IEM_DS3505
ZBYN,1983-10-10 06:00,ZBYN 100600Z AUTO 36006KT 12SM 14/07 RMK SLP265 T01430067 4////0080 52003 IEM_DS3505
ZBYN,1983-10-10 09:00,ZBYN 100900Z AUTO 36008KT 12SM 13/06 RMK SLP277 T01280065 52010 IEM_DS3505
ZBYN,1983-10-10 12:00,ZBYN 101200Z AUTO 34006KT 6SM RMK SLP298 52018 IEM_DS3505
ZBYN,1983-10-10 15:00,ZBYN 101500Z AUTO 34002KT 6SM 10/07 RMK SLP301 T01050071 52007 IEM_DS3505
ZBYN,1983-10-10 18:00,ZBYN 101800Z AUTO 34004KT 6SM 10/05 RMK SLP304 T01040054 40150//// 52002 IEM_DS3505
ZBYN,1983-10-10 21:00,ZBYN 102100Z AUTO 34004KT 7SM 09/04 RMK SLP314 T00890037 52004 IEM_DS3505
ZBYN,1983-10-11 00:00,ZBYN 110000Z AUTO 02002KT 7SM 08/03 RMK SLP327 T00850028 52011 IEM_DS3505
ZBYN,1983-10-11 03:00,ZBYN 110300Z AUTO 36006KT 12SM 13/02 RMK SLP317 T01270024 57005 IEM_DS3505
ZBYN,1983-10-11 05:00,ZBYN 110500Z AUTO 08004KT 7SM 15/04 A3042 RMK T01500040 IEM_DS3505
ZBYN,1983-10-11 06:00,ZBYN 110600Z AUTO 00000KT 12SM 15/05 A3039 RMK SLP279 T01530048 4////0068 57031 IEM_DS3505
ZBYN,1983-10-11 07:00,ZBYN 110700Z AUTO 00000KT 6SM 16/03 A3039 RMK T01600030 IEM_DS3505
ZBYN,1983-10-11 08:00,ZBYN 110800Z AUTO 00000KT 6SM 15/05 A3033 RMK T01500050 IEM_DS3505
ZBYN,1983-10-11 09:00,ZBYN 110900Z AUTO 00000KT 12SM 14/06 A3033 RMK SLP267 T01410062 57017 IEM_DS3505
ZBYN,1983-10-11 12:00,ZBYN 111200Z AUTO 00000KT 9SM 19/07 RMK SLP274 T01870068 54000 IEM_DS3505
ZBYN,1983-10-11 15:00,ZBYN 111500Z AUTO 00000KT 8SM 08/06 RMK SLP259 T00760060 57010 IEM_DS3505
ZBYN,1983-10-11 18:00,ZBYN 111800Z AUTO 00000KT 9SM 07/06 RMK SLP237 T00710062 40159//// 57016 IEM_DS3505
ZBYN,1983-10-11 21:00,ZBYN 112100Z AUTO 00000KT 6SM 08/08 RMK SLP224 T00840075 57010 IEM_DS3505
ZBYN,1983-10-12 00:00,ZBYN 120000Z AUTO 00000KT 4SM 09/08 RMK 60008 70008 SLP231 T00880082 57002 IEM_DS3505
ZBYN,1983-10-12 03:00,ZBYN 120300Z AUTO 00000KT 6SM 10/08 RMK SLP230 T01000083 57001 IEM_DS3505
ZBYN,1983-10-12 05:00,ZBYN 120500Z AUTO 08004KT 7SM 15/04 A3042 RMK T01500040 IEM_DS3505
ZBYN,1983-10-12 06:00,ZBYN 120600Z AUTO 00000KT 5SM 10/08 RMK 60008 SLP210 T01000083 4////0070 57018 IEM_DS3505
ZBYN,1983-10-12 09:00,ZBYN 120900Z AUTO 00000KT 4SM 10/08 RMK SLP202 T01010085 57006 IEM_DS3505
ZBYN,1983-10-12 12:00,ZBYN 121200Z AUTO 00000KT 4SM 10/09 RMK 60002 SLP214 T00950086 52010 IEM_DS3505
ZBYN,1983-10-12 15:00,ZBYN 121500Z AUTO 11002KT 3SM 09/08 RMK SLP222 T00880083 52009 IEM_DS3505
ZBYN,1983-10-12 18:00,ZBYN 121800Z AUTO 00000KT 6SM 08/08 RMK SLP233 T00850078 40105//// 52010 IEM_DS3505
ZBYN,1983-10-12 21:00,ZBYN 122100Z AUTO 00000KT 3/8SM 06/05 RMK 70020 SLP244 T00560054 52005 IEM_DS3505
ZBYN,1983-10-13 00:00,ZBYN 130000Z AUTO 00000KT 1/8SM 04/04 RMK 70008 SLP265 T00450044 52016 IEM_DS3505
ZBYN,1983-10-13 03:00,ZBYN 130300Z AUTO 34004KT 6SM 12/06 RMK SLP259 T01170059 52005 IEM_DS3505
ZBYN,1983-10-13 06:00,ZBYN 130600Z AUTO 34006KT 16SM 16/01 RMK SLP230 T01550010 4////0045 57021 IEM_DS3505
ZBYN,1983-10-13 09:00,ZBYN 130900Z AUTO 00000KT 16SM 15/04 RMK SLP229 T01530044 57006 IEM_DS3505
ZBYN,1983-10-13 12:00,ZBYN 131200Z AUTO 00000KT 12SM 09/07 RMK SLP250 T00910067 52008 IEM_DS3505
ZBYN,1983-10-13 15:00,ZBYN 131500Z AUTO 00000KT 7SM 08/05 RMK SLP249 T00800051 52009 IEM_DS3505
ZBYN,1983-10-13 21:00,ZBYN 132100Z AUTO 18002KT 9SM 08/04 RMK SLP235 T00770043 57005 IEM_DS3505
ZBYN,1983-10-14 00:00,ZBYN 140000Z AUTO 00000KT 5SM 08/05 RMK SLP255 T00760054 52009 IEM_DS3505
ZBYN,1983-10-14 03:00,ZBYN 140300Z AUTO 34002KT 6SM 12/04 RMK SLP237 T01150039 57013 IEM_DS3505
ZBYN,1983-10-14 06:00,ZBYN 140600Z AUTO 02004KT 5SM 13/05 RMK SLP219 T01280053 4////0069 57024 IEM_DS3505
ZBYN,1983-10-14 09:00,ZBYN 140900Z AUTO 20002KT 6SM 12/07 RMK SLP213 T01190074 57007 IEM_DS3505
ZBYN,1983-10-14 12:00,ZBYN 141200Z AUTO 00000KT 4SM 10/09 RMK 60004 SLP228 T00970089 52011 IEM_DS3505
ZBYN,1983-10-14 15:00,ZBYN 141500Z AUTO 00000KT 4SM 09/08 RMK SLP224 T00930082 52001 IEM_DS3505
ZBYN,1983-10-14 18:00,ZBYN 141800Z AUTO 00000KT 4SM 09/08 RMK SLP212 T00900081 40132//// 57009 IEM_DS3505
ZBYN,1983-10-14 21:00,ZBYN 142100Z AUTO 00000KT 6SM 09/08 RMK 70004 SLP211 T00860080 57003 IEM_DS3505
ZBYN,1983-10-15 00:00,ZBYN 150000Z AUTO 00000KT 4SM 08/08 RMK 60000 70004 SLP223 T00820075 52008 IEM_DS3505
ZBYN,1983-10-15 02:00,ZBYN 150200Z AUTO 00000KT 4SM 12/08 A3021 RMK T01200080 IEM_DS3505
ZBYN,1983-10-15 03:00,ZBYN 150300Z AUTO 00000KT 6SM 13/08 A3015 RMK SLP213 T01260082 57004 IEM_DS3505
ZBYN,1983-10-15 05:00,ZBYN 150500Z AUTO 00000KT 7SM 15/08 A3012 RMK T01500080 IEM_DS3505
ZBYN,1983-10-15 06:00,ZBYN 150600Z AUTO 16004KT 6SM 16/08 A3012 RMK SLP181 T01630078 4////0065 57024 IEM_DS3505
ZBYN,1983-10-15 07:00,ZBYN 150700Z AUTO 00000KT 6SM 16/08 A3006 RMK T01600080 IEM_DS3505
ZBYN,1983-10-15 08:00,ZBYN 150800Z AUTO 00000KT 6SM 17/08 A3006 RMK T01700080 IEM_DS3505
ZBYN,1983-10-15 09:00,ZBYN 150900Z AUTO 00000KT 12SM 16/08 A3006 RMK SLP183 T01550082 54000 IEM_DS3505
ZBYN,1983-10-15 12:00,ZBYN 151200Z AUTO 00000KT 9SM 12/10 RMK SLP205 T01200096 52014 IEM_DS3505
ZBYN,1983-10-15 15:00,ZBYN 151500Z AUTO 00000KT 6SM 11/10 RMK SLP201 T01080098 52002 IEM_DS3505
ZBYN,1983-10-15 18:00,ZBYN 151800Z AUTO 00000KT 4SM 11/10 RMK 60000 SLP196 T01120100 40174//// 52001 IEM_DS3505
ZBYN,1983-10-15 21:00,ZBYN 152100Z AUTO 00000KT 4SM 10/10 RMK SLP193 T01050096 57005 IEM_DS3505
ZBYN,1983-10-16 00:00,ZBYN 160000Z AUTO 00000KT 1/2SM 10/10 RMK 60001 SLP201 T01050096 52003 IEM_DS3505
ZBYN,1983-10-16 03:00,ZBYN 160300Z AUTO 00000KT 2 1/2SM 14/10 RMK SLP201 T01360104 52002 IEM_DS3505
ZBYN,1983-10-16 06:00,ZBYN 160600Z AUTO 00000KT 2SM 14/11 A3006 RMK SLP179 T01450113 4////0100 57018 IEM_DS3505
ZBYN,1983-10-16 07:00,ZBYN 160700Z AUTO 00000KT 3SM 14/11 A3006 RMK T01400110 IEM_DS3505
ZBYN,1983-10-16 08:00,ZBYN 160800Z AUTO 00000KT 2SM 14/12 A3006 RMK T01400120 IEM_DS3505
ZBYN,1983-10-16 09:00,ZBYN 160900Z AUTO 00000KT 3SM 13/11 A3006 RMK SLP184 T01300107 52001 IEM_DS3505
ZBYN,1983-10-16 10:00,ZBYN 161000Z AUTO 00000KT 2SM 13/12 A3006 RMK T01300120 IEM_DS3505
ZBYN,1983-10-16 12:00,ZBYN 161200Z AUTO 00000KT 2SM 11/09 RMK 60004 SLP195 T01080091 52007 IEM_DS3505
ZBYN,1983-10-16 15:00,ZBYN 161500Z AUTO 00000KT 2SM 10/09 RMK SLP201 T01000088 52009 IEM_DS3505
ZBYN,1983-10-16 18:00,ZBYN 161800Z AUTO 36004KT 2SM 09/08 RMK 60016 SLP197 T00930082 40145//// 57003 IEM_DS3505
ZBYN,1983-10-17 00:00,ZBYN 170000Z AUTO 32004KT 5SM 09/08 RMK 70075 SLP215 T00860078 52010 IEM_DS3505
ZBYN,1983-10-17 03:00,ZBYN 170300Z AUTO 32004KT 5SM 09/08 RMK SLP217 T00920083 52002 IEM_DS3505
ZBYN,1983-10-17 06:00,ZBYN 170600Z AUTO 07006KT 4SM 10/09 RMK 60024 SLP215 T00950086 4////0086 57003 IEM_DS3505
ZBYN,1983-10-17 09:00,ZBYN 170900Z AUTO 07006KT 12SM 08/04 RMK SLP234 T00760036 52015 IEM_DS3505
ZBYN,1983-10-17 12:00,ZBYN 171200Z AUTO 04006KT 9SM 06/03 RMK 60002 SLP256 T00650026 52017 IEM_DS3505
ZBYN,1983-10-17 15:00,ZBYN 171500Z AUTO 00000KT 7SM 06/05 RMK SLP272 T00550048 52014 IEM_DS3505
ZBYN,1983-10-17 18:00,ZBYN 171800Z AUTO 32002KT 6SM 05/05 RMK 60000 SLP274 T00480048 40100//// 52001 IEM_DS3505
ZBYN,1983-10-17 21:00,ZBYN 172100Z AUTO 36002KT 9SM 05/02 RMK 70055 SLP262 T00500021 57013 IEM_DS3505
ZBYN,1983-10-18 00:00,ZBYN 180000Z AUTO 36002KT 6SM 06/02 RMK 60000 70028 SLP272 T00570022 52008 IEM_DS3505
ZBYN,1983-10-18 03:00,ZBYN 180300Z AUTO 06008KT 12SM 08/02 A3030 RMK SLP272 T00800020 52002 IEM_DS3505
ZBYN,1983-10-18 06:00,ZBYN 180600Z AUTO 00000KT 12SM 10/04 RMK SLP247 T00980041 4////0045 57021 IEM_DS3505
ZBYN,1983-10-18 07:00,ZBYN 180700Z AUTO 00000KT 10/04 A3024 RMK T01000040 IEM_DS3505
ZBYN,1983-10-18 09:00,ZBYN 180900Z AUTO 00000KT 9SM 10/05 RMK SLP243 T00980051 57003 IEM_DS3505
ZBYN,1983-10-18 10:00,ZBYN 181000Z AUTO 24004KT 6SM RMK IEM_DS3505
ZBYN,1983-10-18 12:00,ZBYN 181200Z AUTO 11002KT 6SM 06/05 RMK SLP252 T00650054 52005 IEM_DS3505
ZBYN,1983-10-18 15:00,ZBYN 181500Z AUTO 00000KT 9SM 04/04 RMK SLP255 T00450044 52003 IEM_DS3505
ZBYN,1983-10-18 18:00,ZBYN 181800Z AUTO 00000KT 1 1/4SM 04/04 RMK SLP252 T00360036 40105//// 57001 IEM_DS3505
ZBYN,1983-10-18 21:00,ZBYN 182100Z AUTO 00000KT 1/8SM 03/03 RMK SLP241 T00310030 57011 IEM_DS3505
ZBYN,1983-10-19 00:00,ZBYN 190000Z AUTO 00000KT 1/2SM 05/05 RMK SLP262 T00470046 52016 IEM_DS3505
ZBYN,1983-10-19 03:00,ZBYN 190300Z AUTO 20002KT 3SM 10/07 RMK SLP256 T01030069 54000 IEM_DS3505
ZBYN,1983-10-19 06:00,ZBYN 190600Z AUTO 00000KT 5SM 14/08 RMK SLP233 T01380078 4////0029 57016 IEM_DS3505
ZBYN,1983-10-19 09:00,ZBYN 190900Z AUTO 00000KT 4SM 13/09 RMK SLP222 T01320090 57012 IEM_DS3505
ZBYN,1983-10-19 12:00,ZBYN 191200Z AUTO 00000KT 4SM 10/09 RMK SLP245 T00970086 52017 IEM_DS3505
ZBYN,1983-10-19 15:00,ZBYN 191500Z AUTO 00000KT 2 1/2SM 09/08 RMK SLP243 T00910085 52007 IEM_DS3505
ZBYN,1983-10-19 18:00,ZBYN 191800Z AUTO 00000KT 5SM 08/07 RMK SLP239 T00810072 40146//// 54000 IEM_DS3505
ZBYN,1983-10-19 20:00,ZBYN 192000Z AUTO 00000KT 4SM 08/07 RMK SLP240 T00780071 50070 IEM_DS3505
ZBYN,1983-10-19 21:00,ZBYN 192100Z AUTO 00000KT 4SM 08/07 RMK SLP240 T00780071 57001 IEM_DS3505
ZBYN,1983-10-20 00:00,ZBYN 200000Z AUTO 00000KT 4SM 06/06 RMK SLP256 T00650062 52008 IEM_DS3505
ZBYN,1983-10-20 03:00,ZBYN 200300Z AUTO 00000KT 4SM 14/08 RMK SLP238 T01420085 57006 IEM_DS3505
ZBYN,1983-10-20 06:00,ZBYN 200600Z AUTO 18006KT 6SM 17/06 RMK SLP208 T01730062 4////0058 57024 IEM_DS3505
ZBYN,1983-10-20 09:00,ZBYN 200900Z AUTO 20006KT 9SM 16/07 RMK SLP207 T01630067 57003 IEM_DS3505
ZBYN,1983-10-20 12:00,ZBYN 201200Z AUTO 11002KT 6SM 10/07 RMK SLP223 T01020069 52004 IEM_DS3505
ZBYN,1983-10-20 15:00,ZBYN 201500Z AUTO 00000KT 6SM 07/06 RMK SLP221 T00660059 52003 IEM_DS3505
ZBYN,1983-10-20 18:00,ZBYN 201800Z AUTO 00000KT 5SM 05/05 RMK SLP226 T00540046 40179//// 52009 IEM_DS3505
ZBYN,1983-10-20 21:00,ZBYN 202100Z AUTO 00000KT 1 1/4SM 06/05 RMK SLP226 T00570053 57002 IEM_DS3505
ZBYN,1983-10-21 00:00,ZBYN 210000Z AUTO 00000KT 3/8SM 06/06 RMK SLP243 T00650059 52008 IEM_DS3505
ZBYN,1983-10-21 03:00,ZBYN 210300Z AUTO 34004KT 6SM 13/07 RMK SLP237 T01330074 57001 IEM_DS3505
ZBYN,1983-10-21 06:00,ZBYN 210600Z AUTO 20004KT 5SM 16/08 RMK SLP221 T01600080 57013 IEM_DS3505
ZBYN,1983-10-21 09:00,ZBYN 210900Z AUTO 20002KT 7SM 16/08 RMK SLP217 T01610078 57002 IEM_DS3505
ZBYN,1983-10-21 12:00,ZBYN 211200Z AUTO 00000KT 6SM 09/07 RMK SLP244 T00920072 52010 IEM_DS3505
ZBYN,1983-10-21 15:00,ZBYN 211500Z AUTO 34002KT 6SM 10/06 RMK SLP250 T00990065 52017 IEM_DS3505
ZBYN,1983-10-21 18:00,ZBYN 211800Z AUTO 32004KT 9SM 08/04 RMK SLP255 T00800036 40173//// 52006 IEM_DS3505
ZBYN,1983-10-21 21:00,ZBYN 212100Z AUTO 34006KT 9SM 07/02 RMK SLP343 T00710024 52005 IEM_DS3505
ZBYN,1983-10-22 00:00,ZBYN 220000Z AUTO 00000KT 6SM 07/02 RMK SLP302 T00730024 52027 IEM_DS3505
ZBYN,1983-10-22 02:00,ZBYN 220200Z AUTO 06010G19KT 7SM 12/M01 A3042 RMK T01201010 IEM_DS3505
ZBYN,1983-10-22 03:00,ZBYN 220300Z AUTO 34004KT 11SM 13/01 A3042 RMK SLP297 T01310008 52004 IEM_DS3505
ZBYN,1983-10-22 04:00,ZBYN 220400Z AUTO 08014KT 7SM 14/03 A3042 RMK T01400030 IEM_DS3505
ZBYN,1983-10-22 06:00,ZBYN 220600Z AUTO 34002KT 9SM 16/04 A3039 RMK SLP268 T01570039 4////0049 57024 IEM_DS3505
ZBYN,1983-10-22 07:00,ZBYN 220700Z AUTO 08004KT 6SM 16/05 A3033 RMK T01600050 IEM_DS3505
ZBYN,1983-10-22 09:00,ZBYN 220900Z AUTO 09006KT 6SM 14/06 A3033 RMK SLP264 T01400060 57008 IEM_DS3505
ZBYN,1983-10-22 10:00,ZBYN 221000Z AUTO 6SM 12/06 A3033 RMK T01200060 IEM_DS3505
ZBYN,1983-10-22 11:00,ZBYN 221100Z AUTO 08008KT 6SM RMK IEM_DS3505
ZBYN,1983-10-22 12:00,ZBYN 221200Z AUTO 00000KT 6SM 08/06 RMK SLP291 T00800057 52015 IEM_DS3505
ZBYN,1983-10-22 15:00,ZBYN 221500Z AUTO 00000KT 6SM 06/05 RMK SLP304 T00580048 52017 IEM_DS3505
ZBYN,1983-10-22 18:00,ZBYN 221800Z AUTO 00000KT 6SM 06/04 RMK SLP299 T00650041 40166//// 52001 IEM_DS3505
ZBYN,1983-10-22 21:00,ZBYN 222100Z AUTO 34004KT 6SM 05/02 RMK SLP299 T00540024 57003 IEM_DS3505
ZBYN,1983-10-23 00:00,ZBYN 230000Z AUTO 29004KT 5SM 04/03 RMK SLP317 T00410028 52004 IEM_DS3505
ZBYN,1983-10-23 03:00,ZBYN 230300Z AUTO 11002KT 6SM 12/03 RMK SLP305 T01170028 57003 IEM_DS3505
ZBYN,1983-10-23 06:00,ZBYN 230600Z AUTO 11004KT 7SM 16/05 RMK SLP265 T01570048 4////0039 57029 IEM_DS3505
ZBYN,1983-10-23 09:00,ZBYN 230900Z AUTO 00000KT 9SM 15/07 RMK SLP258 T01530068 57009 IEM_DS3505
ZBYN,1983-10-23 12:00,ZBYN 231200Z AUTO 09004KT 7SM 08/06 RMK SLP279 T00850065 52007 IEM_DS3505
ZBYN,1983-10-23 15:00,ZBYN 231500Z AUTO 00000KT 7SM 09/07 RMK SLP274 T00920072 52008 IEM_DS3505
ZBYN,1983-10-23 18:00,ZBYN 231800Z AUTO 00000KT 5SM 10/07 RMK SLP268 T00970067 40162//// 52001 IEM_DS3505
ZBYN,1983-10-23 21:00,ZBYN 232100Z AUTO 34002KT 6SM 09/07 RMK SLP266 T00900072 57003 IEM_DS3505
ZBYN,1983-10-24 00:00,ZBYN 240000Z AUTO 34004KT 5SM 09/07 RMK 60000 SLP282 T00900067 52004 IEM_DS3505
ZBYN,1983-10-24 03:00,ZBYN 240300Z AUTO 16004KT 4SM 09/08 RMK SLP284 T00930077 52004 IEM_DS3505
ZBYN,1983-10-24 06:00,ZBYN 240600Z AUTO 14004KT 4SM 09/08 RMK 60016 SLP269 T00890078 4////0074 57014 IEM_DS3505
ZBYN,1983-10-24 09:00,ZBYN 240900Z AUTO 11004KT 5SM 06/06 RMK SLP279 T00630060 52004 IEM_DS3505
ZBYN,1983-10-24 12:00,ZBYN 241200Z AUTO 16004KT 5SM 06/05 RMK 60020 SLP291 T00580048 52010 IEM_DS3505
ZBYN,1983-10-24 15:00,ZBYN 241500Z AUTO 16004KT 5SM 06/04 RMK SLP292 T00560044 52001 IEM_DS3505
ZBYN,1983-10-24 18:00,ZBYN 241800Z AUTO 18004KT 5SM 06/04 RMK 60002 SLP287 T00580041 40097//// 57005 IEM_DS3505
ZBYN,1983-10-24 21:00,ZBYN 242100Z AUTO 18006KT 9SM 06/04 RMK 60002 SLP287 T00570043 57005 IEM_DS3505
ZBYN,1983-10-25 00:00,ZBYN 250000Z AUTO 16006KT 9SM 06/04 RMK 70035 SLP290 T00560044 52003 IEM_DS3505
ZBYN,1983-10-25 03:00,ZBYN 250300Z AUTO 00000KT 5SM 08/04 RMK SLP285 T00760044 57001 IEM_DS3505
ZBYN,1983-10-25 04:00,ZBYN 250400Z AUTO 19006KT 7SM 09/05 A3033 RMK T00900050 IEM_DS3505
ZBYN,1983-10-25 05:00,ZBYN 250500Z AUTO 21004KT 7SM 10/05 A3030 RMK T01000050 IEM_DS3505
ZBYN,1983-10-25 06:00,ZBYN 250600Z AUTO 20004KT 9SM 10/05 A3024 RMK SLP248 T01000049 4////0054 57030 IEM_DS3505
ZBYN,1983-10-25 07:00,ZBYN 250700Z AUTO 00000KT 7SM 10/07 A3024 RMK T01000070 IEM_DS3505
ZBYN,1983-10-25 08:00,ZBYN 250800Z AUTO 09004KT 7SM 08/05 A3024 RMK T00800050 IEM_DS3505
ZBYN,1983-10-25 09:00,ZBYN 250900Z AUTO 34010KT 16SM 08/04 A3024 RMK SLP250 T00750044 57002 IEM_DS3505
ZBYN,1983-10-25 10:00,ZBYN 251000Z AUTO 29012KT 7SM 07/02 A3024 RMK T00700020 IEM_DS3505
ZBYN,1983-10-25 12:00,ZBYN 251200Z AUTO 32008KT 7SM 06/M01 RMK 60028 SLP276 T00601013 52020 IEM_DS3505
ZBYN,1983-10-25 15:00,ZBYN 251500Z AUTO 32010KT 7SM 04/M02 RMK SLP287 T00441020 52011 IEM_DS3505
ZBYN,1983-10-25 18:00,ZBYN 251800Z AUTO 32010KT 11SM 04/M03 RMK SLP285 T00391031 40106//// 52002 IEM_DS3505
ZBYN,1983-10-25 21:00,ZBYN 252100Z AUTO 00000KT 9SM 00/M00 RMK SLP299 T00051001 54000 IEM_DS3505
ZBYN,1983-10-26 00:00,ZBYN 260000Z AUTO 00000KT 16SM 02/M02 RMK 70028 SLP331 T00171015 52031 IEM_DS3505
ZBYN,1983-10-26 03:00,ZBYN 260300Z AUTO 18002KT 19SM 09/M00 RMK SLP322 T00941001 52002 IEM_DS3505
ZBYN,1983-10-26 06:00,ZBYN 260600Z AUTO 16006KT 19SM 12/00 RMK SLP292 T01200001 4////1005 57024 IEM_DS3505
ZBYN,1983-10-26 09:00,ZBYN 260900Z AUTO 20004KT 19SM 12/02 RMK SLP296 T01160021 57002 IEM_DS3505
ZBYN,1983-10-26 12:00,ZBYN 261200Z AUTO 00000KT 9SM 05/03 RMK SLP329 T00490026 52021 IEM_DS3505
ZBYN,1983-10-26 15:00,ZBYN 261500Z AUTO 20002KT 6SM 02/01 RMK SLP327 T00180014 52005 IEM_DS3505
ZBYN,1983-10-26 18:00,ZBYN 261800Z AUTO 34002KT 6SM 00/00 RMK SLP321 T00010001 40128//// 57003 IEM_DS3505
ZBYN,1983-10-26 21:00,ZBYN 262100Z AUTO 00000KT 6SM M01/M01 RMK SLP318 T10101013 57006 IEM_DS3505
ZBYN,1983-10-27 00:00,ZBYN 270000Z AUTO 00000KT 6SM M00/M02 RMK SLP333 T10021015 52005 IEM_DS3505
ZBYN,1983-10-27 03:00,ZBYN 270300Z AUTO 00000KT 6SM 08/01 RMK SLP321 T00760008 57004 IEM_DS3505
ZBYN,1983-10-27 06:00,ZBYN 270600Z AUTO 16004KT 6SM 12/00 RMK SLP287 T01200004 4////1022 57026 IEM_DS3505
ZBYN,1983-10-27 09:00,ZBYN 270900Z AUTO 18002KT 6SM 11/04 RMK SLP289 T01070036 57002 IEM_DS3505
ZBYN,1983-10-27 12:00,ZBYN 271200Z AUTO 00000KT 6SM 05/02 RMK SLP298 T00530022 52001 IEM_DS3505
ZBYN,1983-10-27 15:00,ZBYN 271500Z AUTO 00000KT 6SM 03/02 RMK SLP291 T00330022 52002 IEM_DS3505
ZBYN,1983-10-27 18:00,ZBYN 271800Z AUTO 00000KT 5SM 02/02 RMK SLP283 T00250018 40128//// 57001 IEM_DS3505
ZBYN,1983-10-27 21:00,ZBYN 272100Z AUTO 00000KT 1/8SM M00/M01 RMK SLP283 T10041006 57008 IEM_DS3505
ZBYN,1983-10-28 00:00,ZBYN 280000Z AUTO 00000KT 0SM M01/M01 RMK SLP301 T10081008 52009 IEM_DS3505
ZBYN,1983-10-28 03:00,ZBYN 280300Z AUTO 20002KT 6SM 10/00 RMK SLP292 T00990001 52005 IEM_DS3505
ZBYN,1983-10-28 06:00,ZBYN 280600Z AUTO 16002KT 6SM 14/03 RMK SLP262 T01430026 4////1017 57022 IEM_DS3505
ZBYN,1983-10-28 09:00,ZBYN 280900Z AUTO 16002KT 6SM 14/04 RMK SLP263 T01360043 57004 IEM_DS3505
ZBYN,1983-10-28 12:00,ZBYN 281200Z AUTO 34004KT 9SM 07/04 RMK SLP293 T00680037 52015 IEM_DS3505
ZBYN,1983-10-28 15:00,ZBYN 281500Z AUTO 00000KT 6SM 07/03 RMK SLP283 T00670034 52008 IEM_DS3505
ZBYN,1983-10-28 18:00,ZBYN 281800Z AUTO 00000KT 5SM 02/01 RMK SLP292 T00180014 40147//// 52008 IEM_DS3505
ZBYN,1983-10-28 21:00,ZBYN 282100Z AUTO 34004KT 1/4SM M00/M01 RMK SLP302 T10051006 52004 IEM_DS3505
ZBYN,1983-10-29 00:00,ZBYN 290000Z AUTO 00000KT 1SM 02/01 RMK SLP327 T00170010 52016 IEM_DS3505
ZBYN,1983-10-29 03:00,ZBYN 290300Z AUTO 16004KT 6SM 11/03 A3042 RMK SLP308 T01080030 57004 IEM_DS3505
ZBYN,1983-10-29 04:00,ZBYN 290400Z AUTO 18004KT 7SM 13/04 A3042 RMK T01300040 IEM_DS3505
ZBYN,1983-10-29 05:00,ZBYN 290500Z AUTO 16004KT 7SM 15/04 A3039 RMK T01500040 IEM_DS3505
ZBYN,1983-10-29 06:00,ZBYN 290600Z AUTO 18006KT 9SM 16/03 A3033 RMK SLP276 T01550026 4////1012 57029 IEM_DS3505
ZBYN,1983-10-29 08:00,ZBYN 290800Z AUTO 18006KT 7SM 17/02 A3030 RMK T01700020 IEM_DS3505
ZBYN,1983-10-29 09:00,ZBYN 290900Z AUTO 16004KT 9SM 14/04 RMK SLP269 T01450041 57012 IEM_DS3505
ZBYN,1983-10-29 12:00,ZBYN 291200Z AUTO 00000KT 9SM 07/03 RMK SLP287 T00700032 52008 IEM_DS3505
ZBYN,1983-10-29 15:00,ZBYN 291500Z AUTO 00000KT 9SM 03/02 RMK SLP282 T00330022 52004 IEM_DS3505
ZBYN,1983-10-29 21:00,ZBYN 292100Z AUTO 00000KT 5SM 02/02 RMK SLP273 T00210018 57002 IEM_DS3505
ZBYN,1983-10-30 00:00,ZBYN 300000Z AUTO 34002KT 5SM 03/01 RMK SLP299 T00330012 52013 IEM_DS3505
ZBYN,1983-10-30 03:00,ZBYN 300300Z AUTO 14002KT 5SM 12/04 RMK SLP282 T01190044 57007 IEM_DS3505
ZBYN,1983-10-30 06:00,ZBYN 300600Z AUTO 20002KT 9SM 17/04 RMK SLP247 T01720044 4////0009 57027 IEM_DS3505
ZBYN,1983-10-30 09:00,ZBYN 300900Z AUTO 18002KT 12SM 16/07 RMK SLP241 T01640072 57005 IEM_DS3505
ZBYN,1983-10-30 12:00,ZBYN 301200Z AUTO 00000KT 9SM 07/05 RMK SLP270 T00700048 52013 IEM_DS3505
ZBYN,1983-10-30 15:00,ZBYN 301500Z AUTO 00000KT 9SM 05/03 RMK SLP277 T00470034 52017 IEM_DS3505
ZBYN,1983-10-30 18:00,ZBYN 301800Z AUTO 00000KT 5SM 03/M03 RMK SLP268 T00321030 40179//// 57004 IEM_DS3505
ZBYN,1983-10-30 21:00,ZBYN 302100Z AUTO 00000KT 2SM 03/02 RMK SLP263 T00290018 57005 IEM_DS3505
ZBYN,1983-10-31 00:00,ZBYN 310000Z AUTO 11006KT 12SM 06/00 RMK SLP291 T00560004 52015 IEM_DS3505
ZBYN,1983-10-31 03:00,ZBYN 310300Z AUTO 32012KT 17SM 14/M03 RMK SLP289 T01361034 52007 IEM_DS3505
ZBYN,1983-10-31 06:00,ZBYN 310600Z AUTO 29010KT 17SM 15/M06 RMK SLP270 T01541065 4////0015 57017 IEM_DS3505
ZBYN,1983-10-31 09:00,ZBYN 310900Z AUTO 29008KT 17SM 14/M07 RMK SLP274 T01371068 52001 IEM_DS3505
ZBYN,1983-10-31 12:00,ZBYN 311200Z AUTO 32004KT 16SM 09/M03 RMK SLP293 T00871034 52013 IEM_DS3505
ZBYN,1983-10-31 15:00,ZBYN 311500Z AUTO 00000KT 12SM 04/M02 RMK SLP288 T00391023 52001 IEM_DS3505
ZBYN,1983-10-31 18:00,ZBYN 311800Z AUTO 11004KT 12SM 01/M03 RMK SLP285 T00131026 40163//// 57004 IEM_DS3505
ZBYN,1983-10-31 21:00,ZBYN 312100Z AUTO 00000KT 9SM M02/M03 RMK SLP285 T10171031 57008 IEM_DS3505
ZBYN,1983-11-01 00:00,ZBYN 010000Z AUTO 00000KT 17SM M01/M03 RMK SLP294 T10101026 52002 IEM_DS3505
ZBYN,1983-11-01 03:00,ZBYN 010300Z AUTO 11004KT 9SM 10/M01 RMK SLP270 T01001013 57012 IEM_DS3505
ZBYN,1983-11-01 06:00,ZBYN 010600Z AUTO 20004KT 17SM 15/M03 RMK SLP224 T01531026 4////1024 57037 IEM_DS3505
ZBYN,1983-11-01 09:00,ZBYN 010900Z AUTO 18006KT 17SM 14/M00 RMK SLP214 T01411003 57017 IEM_DS3505
ZBYN,1983-11-01 12:00,ZBYN 011200Z AUTO 22002KT 9SM 06/01 RMK SLP232 T00590014 52005 IEM_DS3505
ZBYN,1983-11-01 15:00,ZBYN 011500Z AUTO 09002KT 6SM 03/01 RMK SLP222 T00310010 52004 IEM_DS3505
ZBYN,1983-11-01 18:00,ZBYN 011800Z AUTO 17002KT 12SM 02/01 RMK SLP211 T00210010 40158//// 57003 IEM_DS3505
ZBYN,1983-11-01 21:00,ZBYN 012100Z AUTO 00000KT 3SM 02/01 RMK SLP208 T00220006 57005 IEM_DS3505
ZBYN,1983-11-02 00:00,ZBYN 020000Z AUTO 27002KT 2SM 03/01 RMK SLP227 T00280010 52006 IEM_DS3505
ZBYN,1983-11-02 03:00,ZBYN 020300Z AUTO 00000KT 2SM 10/04 RMK SLP226 T00980036 52005 IEM_DS3505
ZBYN,1983-11-02 06:00,ZBYN 020600Z AUTO 18004KT 6SM 16/02 RMK SLP194 T01620016 4////0007 57021 IEM_DS3505
ZBYN,1983-11-02 09:00,ZBYN 020900Z AUTO 16004KT 19SM 15/03 RMK SLP191 T01480032 57004 IEM_DS3505
ZBYN,1983-11-02 12:00,ZBYN 021200Z AUTO 32006KT 9SM 08/02 RMK SLP225 T00780016 52021 IEM_DS3505
ZBYN,1983-11-02 18:00,ZBYN 021800Z AUTO 00000KT 5SM 01/01 RMK SLP228 T00100006 40167//// 57005 IEM_DS3505
ZBYN,1983-11-02 21:00,ZBYN 022100Z AUTO 32002KT 5SM 02/M01 RMK SLP229 T00181008 54000 IEM_DS3505
ZBYN,1983-11-03 03:00,ZBYN 030300Z AUTO 16004KT 5SM 10/M01 RMK SLP247 T01051006 52003 IEM_DS3505
ZBYN,1983-11-03 06:00,ZBYN 030600Z AUTO 16006KT 6SM 15/00 RMK SLP217 T01530001 4////1012 57024 IEM_DS3505
ZBYN,1983-11-03 09:00,ZBYN 030900Z AUTO 16004KT 6SM 14/01 RMK SLP210 T01410014 57007 IEM_DS3505
ZBYN,1983-11-03 12:00,ZBYN 031200Z AUTO 00000KT 6SM 05/02 RMK SLP245 T00530022 52015 IEM_DS3505
ZBYN,1983-11-03 15:00,ZBYN 031500Z AUTO 00000KT 5SM 03/02 RMK SLP244 T00290016 52012 IEM_DS3505
ZBYN,1983-11-03 18:00,ZBYN 031800Z AUTO 00000KT 5SM 01/01 RMK SLP234 T00120006 40161//// 57003 IEM_DS3505
ZBYN,1983-11-03 21:00,ZBYN 032100Z AUTO 00000KT 6SM 03/M00 RMK SLP231 T00271003 57003 IEM_DS3505
ZBYN,1983-11-04 00:00,ZBYN 040000Z AUTO 29002KT 5SM 00/M01 RMK SLP264 T00021008 52012 IEM_DS3505
ZBYN,1983-11-04 03:00,ZBYN 040300Z AUTO 00000KT 4SM 11/00 RMK SLP243 T01100001 57006 IEM_DS3505
ZBYN,1983-11-04 06:00,ZBYN 040600Z AUTO 22006KT 6SM 15/00 RMK SLP218 T01510001 4////1007 57019 IEM_DS3505
ZBYN,1983-11-04 09:00,ZBYN 040900Z AUTO 20004KT 9SM 14/03 RMK T01450032 57005 IEM_DS3505
ZBYN,1983-11-04 12:00,ZBYN 041200Z AUTO 36004KT 6SM 10/01 RMK SLP248 T00960014 52023 IEM_DS3505
ZBYN,1983-11-04 15:00,ZBYN 041500Z AUTO 00000KT 6SM 07/01 RMK SLP248 T00710006 52012 IEM_DS3505
ZBYN,1983-11-04 18:00,ZBYN 041800Z AUTO 00000KT 5SM 01/M00 RMK SLP259 T00131003 40168//// 52008 IEM_DS3505
ZBYN,1983-11-04 21:00,ZBYN 042100Z AUTO 00000KT 4SM M00/M01 RMK SLP270 T10011010 52006 IEM_DS3505
ZBYN,1983-11-05 00:00,ZBYN 050000Z AUTO 32004KT 5SM 01/M01 RMK SLP286 T00081008 52008 IEM_DS3505
ZBYN,1983-11-05 03:00,ZBYN 050300Z AUTO 00000KT 7SM 11/01 A3033 RMK T01100010 IEM_DS3505
ZBYN,1983-11-05 04:00,ZBYN 050400Z AUTO 00000KT 7SM 13/02 A3033 RMK T01300020 IEM_DS3505
ZBYN,1983-11-05 05:00,ZBYN 050500Z AUTO 21004KT 7SM 15/01 A3030 RMK T01500010 IEM_DS3505
ZBYN,1983-11-05 06:00,ZBYN 050600Z AUTO 18004KT 9SM 15/01 A3024 RMK SLP251 T01530010 4////1012 57024 IEM_DS3505
ZBYN,1983-11-05 07:00,ZBYN 050700Z AUTO 20006KT 7SM 16/M01 A3024 RMK T01601010 IEM_DS3505
ZBYN,1983-11-05 08:00,ZBYN 050800Z AUTO 18006KT 7SM 16/M01 A3024 RMK T01601010 IEM_DS3505
ZBYN,1983-11-05 09:00,ZBYN 050900Z AUTO 00000KT 12SM 14/04 A3024 RMK SLP247 T01410036 57008 IEM_DS3505
ZBYN,1983-11-05 10:00,ZBYN 051000Z AUTO 00000KT 7SM 10/02 A3024 RMK T01000020 IEM_DS3505
ZBYN,1983-11-05 11:00,ZBYN 051100Z AUTO 07006KT 7SM 07/02 A3024 RMK T00700020 IEM_DS3505
ZBYN,1983-11-05 12:00,ZBYN 051200Z AUTO 36004KT 6SM 06/03 A3024 RMK SLP269 T00600030 52008 IEM_DS3505
ZBYN,1983-11-05 15:00,ZBYN 051500Z AUTO 36004KT 7SM 03/01 RMK SLP261 T00320008 52004 IEM_DS3505
ZBYN,1983-11-05 18:00,ZBYN 051800Z AUTO 00000KT 6SM 03/M00 RMK SLP253 T00301001 40161//// 54000 IEM_DS3505
ZBYN,1983-11-05 21:00,ZBYN 052100Z AUTO 34002KT 6SM 02/M01 RMK SLP249 T00241008 57006 IEM_DS3505
ZBYN,1983-11-06 00:00,ZBYN 060000Z AUTO 00000KT 6SM 02/M01 RMK SLP278 T00161008 52011 IEM_DS3505
ZBYN,1983-11-06 03:00,ZBYN 060300Z AUTO 32004KT 5SM 11/01 RMK SLP266 T01110010 54000 IEM_DS3505
ZBYN,1983-11-06 06:00,ZBYN 060600Z AUTO 00000KT 6SM 16/01 RMK SLP223 T01650008 4////0003 57031 IEM_DS3505
ZBYN,1983-11-06 09:00,ZBYN 060900Z AUTO 00000KT 11SM RMK SLP215 57009 IEM_DS3505
ZBYN,1983-11-06 12:00,ZBYN 061200Z AUTO 02002KT 6SM 08/03 RMK SLP242 T00800030 52011 IEM_DS3505
ZBYN,1983-11-06 15:00,ZBYN 061500Z AUTO 36002KT 6SM 07/01 RMK SLP242 T00710014 52014 IEM_DS3505
ZBYN,1983-11-06 18:00,ZBYN 061800Z AUTO 00000KT 6SM 03/00 RMK T00290004 40172//// 54000 IEM_DS3505
ZBYN,1983-11-06 21:00,ZBYN 062100Z AUTO 34004KT 6SM 06/03 RMK SLP237 T00550026 57001 IEM_DS3505
ZBYN,1983-11-07 00:00,ZBYN 070000Z AUTO 36004KT 6SM 06/02 RMK SLP256 T00560024 51019 IEM_DS3505
ZBYN,1983-11-07 03:00,ZBYN 070300Z AUTO 34004KT 6SM 10/03 RMK SLP238 T01000028 57010 IEM_DS3505
ZBYN,1983-11-07 06:00,ZBYN 070600Z AUTO 00000KT 5SM 11/ RMK SLP230 4////0026 57012 IEM_DS3505
ZBYN,1983-11-07 09:00,ZBYN 070900Z AUTO 00000KT 4SM 09/07 RMK SLP230 T00890069 54000 IEM_DS3505
ZBYN,1983-11-07 12:00,ZBYN 071200Z AUTO 00000KT 4SM 08/07 RMK 60001 SLP241 T00810069 52010 IEM_DS3505
ZBYN,1983-11-07 15:00,ZBYN 071500Z AUTO 00000KT 4SM 08/07 RMK SLP240 T00830068 52005 IEM_DS3505
ZBYN,1983-11-07 18:00,ZBYN 071800Z AUTO 00000KT 4SM 08/07 RMK SLP247 T00850069 40110//// 52008 IEM_DS3505
ZBYN,1983-11-07 21:00,ZBYN 072100Z AUTO 00000KT 1SM 08/07 RMK SLP243 T00780069 57007 IEM_DS3505
ZBYN,1983-11-08 00:00,ZBYN 080000Z AUTO 00000KT 1/2SM 07/06 RMK 60004 70008 SLP259 T00700065 52012 IEM_DS3505
ZBYN,1983-11-08 03:00,ZBYN 080300Z AUTO 14004KT 3/8SM 07/07 A3030 RMK SLP259 T00730068 54000 IEM_DS3505
ZBYN,1983-11-08 05:00,ZBYN 080500Z AUTO 12004KT 1SM 09/08 A3024 RMK T00900080 IEM_DS3505
ZBYN,1983-11-08 06:00,ZBYN 080600Z AUTO 16004KT 1/2SM 09/08 A3024 RMK 60020 SLP238 T00870078 4////0069 57016 IEM_DS3505
ZBYN,1983-11-08 07:00,ZBYN 080700Z AUTO 00000KT 1SM 09/08 A3024 RMK T00900080 IEM_DS3505
ZBYN,1983-11-08 08:00,ZBYN 080800Z AUTO 00000KT 1SM 09/08 A3024 RMK T00900080 IEM_DS3505
ZBYN,1983-11-08 09:00,ZBYN 080900Z AUTO 00000KT 1 1/4SM 09/08 A3024 RMK SLP233 T00910085 57005 IEM_DS3505
ZBYN,1983-11-08 10:00,ZBYN 081000Z AUTO 00000KT 1SM 09/09 A3024 RMK T00900090 IEM_DS3505
ZBYN,1983-11-08 11:00,ZBYN 081100Z AUTO 12004KT 3SM 08/07 RMK T00800070 IEM_DS3505
ZBYN,1983-11-08 12:00,ZBYN 081200Z AUTO 11004KT 6SM 08/ RMK 60002 52002 IEM_DS3505
ZBYN,1983-11-08 15:00,ZBYN 081500Z AUTO 11004KT 7SM 08/06 RMK SLP246 T00800065 52007 IEM_DS3505
ZBYN,1983-11-08 18:00,ZBYN 081800Z AUTO 11004KT 7SM 08/06 RMK SLP239 T00790064 40091//// 57004 IEM_DS3505
ZBYN,1983-11-08 21:00,ZBYN 082100Z AUTO 14002KT 11SM 07/07 RMK SLP228 T00730067 57011 IEM_DS3505
ZBYN,1983-11-09 00:00,ZBYN 090000Z AUTO 16004KT 4SM 08/07 RMK 70024 SLP236 T00760067 52007 IEM_DS3505
ZBYN,1983-11-09 03:00,ZBYN 090300Z AUTO 16004KT 4SM 09/07 RMK SLP230 T00870069 57004 IEM_DS3505
ZBYN,1983-11-09 06:00,ZBYN 090600Z AUTO 20006KT 6SM 11/07 RMK SLP196 T01110074 4////0072 57028 IEM_DS3505
ZBYN,1983-11-09 09:00,ZBYN 090900Z AUTO 22006KT 09/08 RMK T00930078 57001 IEM_DS3505
ZBYN,1983-11-09 12:00,ZBYN 091200Z AUTO 32012KT 12SM 08/M02 RMK 60008 SLP234 T00771015 52030 IEM_DS3505
ZBYN,1983-11-09 15:00,ZBYN 091500Z AUTO 29006KT 12SM 05/M09 RMK SLP258 T00461087 52019 IEM_DS3505
ZBYN,1983-11-09 18:00,ZBYN 091800Z AUTO 32010KT 12SM 01/M10 RMK SLP269 T00141096 40115//// 52009 IEM_DS3505
ZBYN,1983-11-09 21:00,ZBYN 092100Z AUTO 29004KT 12SM M00/M06 RMK SLP259 T10011061 57014 IEM_DS3505
ZBYN,1983-11-10 00:00,ZBYN 100000Z AUTO 20002KT 7SM M00/M09 RMK 70008 SLP264 T10051092 52001 IEM_DS3505
ZBYN,1983-11-10 03:00,ZBYN 100300Z AUTO 20006KT 6SM 04/M07 RMK SLP257 T00351068 57005 IEM_DS3505
ZBYN,1983-11-10 06:00,ZBYN 100600Z AUTO 20006KT 6SM 07/M07 RMK SLP227 T00701072 4////1017 57027 IEM_DS3505
ZBYN,1983-11-10 09:00,ZBYN 100900Z AUTO 18004KT 12SM 06/M04 RMK SLP215 T00601037 57015 IEM_DS3505
ZBYN,1983-11-10 12:00,ZBYN 101200Z AUTO 14006KT 6SM 02/M03 RMK SLP223 T00231034 52001 IEM_DS3505
ZBYN,1983-11-10 15:00,ZBYN 101500Z AUTO 00000KT 6SM M00/M04 RMK SLP227 T10051039 52005 IEM_DS3505
ZBYN,1983-11-10 18:00,ZBYN 101800Z AUTO 11006KT 6SM M00/M04 RMK SLP220 T10041045 40074//// 54000 IEM_DS3505
ZBYN,1983-11-10 21:00,ZBYN 102100Z AUTO 29017KT 9SM 05/M10 RMK SLP210 T00501096 57003 IEM_DS3505
ZBYN,1983-11-11 03:00,ZBYN 110300Z AUTO 29014KT 7SM 05/M14 RMK SLP271 T00541141 52013 IEM_DS3505
ZBYN,1983-11-11 06:00,ZBYN 110600Z AUTO 29016KT 17SM 07/M14 RMK SLP252 T00681141 4////1017 57015 IEM_DS3505
ZBYN,1983-11-11 09:00,ZBYN 110900Z AUTO 29010KT 17SM 05/M12 RMK SLP262 T00501119 52015 IEM_DS3505
ZBYN,1983-11-11 12:00,ZBYN 111200Z AUTO 34002KT 16SM 03/M11 RMK SLP291 T00271109 52021 IEM_DS3505
ZBYN,1983-11-11 15:00,ZBYN 111500Z AUTO 29006KT 19SM 01/M10 RMK SLP300 T00131105 52008 IEM_DS3505
ZBYN,1983-11-11 18:00,ZBYN 111800Z AUTO 00000KT 19SM M02/M09 RMK SLP315 T10251092 52010 IEM_DS3505
ZBYN,1983-11-11 21:00,ZBYN 112100Z AUTO 07002KT 12SM M04/M06 RMK SLP315 T10401061 57006 IEM_DS3505
ZBYN,1983-11-12 00:00,ZBYN 120000Z AUTO 00000KT 6SM M04/M06 RMK SLP332 T10411065 52013 IEM_DS3505
ZBYN,1983-11-12 03:00,ZBYN 120300Z AUTO 00000KT 5SM 03/M07 RMK SLP327 T00321072 52004 IEM_DS3505
ZBYN,1983-11-12 06:00,ZBYN 120600Z AUTO 18006KT 12SM 07/M08 RMK SLP300 T00671079 4////1057 57024 IEM_DS3505
ZBYN,1983-11-12 09:00,ZBYN 120900Z AUTO 00000KT 12SM 07/M00 RMK SLP298 T00681003 57005 IEM_DS3505
ZBYN,1983-11-12 12:00,ZBYN 121200Z AUTO 32004KT 6SM 02/M06 RMK SLP321 T00171065 52012 IEM_DS3505
ZBYN,1983-11-12 15:00,ZBYN 121500Z AUTO 00000KT 6SM M01/M05 RMK SLP322 T10141048 52008 IEM_DS3505
ZBYN,1983-11-12 18:00,ZBYN 121800Z AUTO 29002KT 7SM M02/M04 RMK SLP320 T10251045 40079//// 52005 IEM_DS3505
ZBYN,1983-11-12 21:00,ZBYN 122100Z AUTO 00000KT 6SM M04/M06 RMK SLP319 T10411065 57004 IEM_DS3505
ZBYN,1983-11-13 00:00,ZBYN 130000Z AUTO 00000KT 1SM M04/M06 RMK SLP332 T10451061 52003 IEM_DS3505
ZBYN,1983-11-13 03:00,ZBYN 130300Z AUTO 00000KT 1/2SM 04/M04 RMK SLP320 T00451045 57001 IEM_DS3505
ZBYN,1983-11-13 06:00,ZBYN 130600Z AUTO 20004KT 4SM 08/M04 RMK SLP283 T00841039 4////1053 57029 IEM_DS3505
ZBYN,1983-11-13 09:00,ZBYN 130900Z AUTO 00000KT 6SM 06/M02 RMK SLP279 T00591015 57010 IEM_DS3505
ZBYN,1983-11-13 12:00,ZBYN 131200Z AUTO 00000KT 6SM 01/M01 RMK SLP301 T00111011 52011 IEM_DS3505
ZBYN,1983-11-13 15:00,ZBYN 131500Z AUTO 00000KT 4SM 01/M03 RMK SLP285 T00071031 54000 IEM_DS3505
ZBYN,1983-11-13 18:00,ZBYN 131800Z AUTO 00000KT 5SM M02/M03 RMK SLP281 T10241034 40085//// 57003 IEM_DS3505
ZBYN,1983-11-13 21:00,ZBYN 132100Z AUTO 00000KT 5SM M03/M04 RMK SLP277 T10301039 57009 IEM_DS3505
ZBYN,1983-11-14 00:00,ZBYN 140000Z AUTO 00000KT 4SM M04/M05 RMK SLP300 T10411052 52011 IEM_DS3505
ZBYN,1983-11-14 03:00,ZBYN 140300Z AUTO 16002KT 6SM 03/M01 RMK SLP277 T00291013 57010 IEM_DS3505
ZBYN,1983-11-14 06:00,ZBYN 140600Z AUTO 16004KT 5SM 09/M01 RMK SLP235 T00891013 4////1047 57033 IEM_DS3505
ZBYN,1983-11-14 09:00,ZBYN 140900Z AUTO 32004KT 16SM 11/M05 RMK SLP218 T01091048 57013 IEM_DS3505
ZBYN,1983-11-14 12:00,ZBYN 141200Z AUTO 29004KT 11SM 06/M03 RMK SLP243 T00571031 52012 IEM_DS3505
ZBYN,1983-11-14 15:00,ZBYN 141500Z AUTO 29008KT 16SM 08/M09 RMK SLP239 T00751087 52010 IEM_DS3505
ZBYN,1983-11-14 18:00,ZBYN 141800Z AUTO 32004KT 17SM 06/M08 RMK SLP228 T00651079 40112//// 57001 IEM_DS3505
ZBYN,1983-11-14 21:00,ZBYN 142100Z AUTO 29006KT 19SM 05/M01 RMK SLP229 T00531007 52002 IEM_DS3505
ZBYN,1983-11-15 00:00,ZBYN 150000Z AUTO 00000KT 19SM 04/M06 RMK SLP251 T00421061 52010 IEM_DS3505
ZBYN,1983-11-15 02:00,ZBYN 150200Z AUTO 27016KT 7SM 09/M09 A3024 RMK T00901090 IEM_DS3505
ZBYN,1983-11-15 03:00,ZBYN 150300Z AUTO 25006KT 19SM 09/M09 A3024 RMK SLP238 T00931087 57001 IEM_DS3505
ZBYN,1983-11-15 05:00,ZBYN 150500Z AUTO 23012KT 7SM 11/M07 A3015 RMK T01101070 IEM_DS3505
ZBYN,1983-11-15 06:00,ZBYN 150600Z AUTO 29010KT 7SM 12/M09 A3015 RMK SLP204 T01201090 4////0025 57029 IEM_DS3505
ZBYN,1983-11-15 08:00,ZBYN 150800Z AUTO 30021KT 7SM 11/M12 A3015 RMK T01101120 IEM_DS3505
ZBYN,1983-11-15 09:00,ZBYN 150900Z AUTO 29008KT 19SM 09/M08 RMK SLP222 T00911083 52010 IEM_DS3505
ZBYN,1983-11-15 10:00,ZBYN 151000Z AUTO 29014KT 7SM 07/M09 A3021 RMK T00701090 IEM_DS3505
ZBYN,1983-11-15 11:00,ZBYN 151100Z AUTO 30012KT 7SM 06/M09 A3015 RMK T00601090 IEM_DS3505
ZBYN,1983-11-15 12:00,ZBYN 151200Z AUTO 32017KT 16SM 07/M11 RMK SLP249 T00691114 52020 IEM_DS3505
ZBYN,1983-11-15 15:00,ZBYN 151500Z AUTO 32014KT 19SM 03/M13 RMK SLP277 T00261130 52027 IEM_DS3505
ZBYN,1983-11-15 18:00,ZBYN 151800Z AUTO 29012KT 19SM M01/M17 RMK SLP281 T10061167 40119//// 52004 IEM_DS3505
ZBYN,1983-11-15 21:00,ZBYN 152100Z AUTO 32012KT 19SM M02/M18 RMK SLP282 T10191183 57005 IEM_DS3505
ZBYN,1983-11-16 00:00,ZBYN 160000Z AUTO 29010KT 19SM M02/M18 RMK SLP305 T10191175 52017 IEM_DS3505
ZBYN,1983-11-16 03:00,ZBYN 160300Z AUTO 29014KT 19SM 02/M18 RMK SLP308 T00181175 52002 IEM_DS3505
ZBYN,1983-11-16 06:00,ZBYN 160600Z AUTO 29010KT 19SM 04/M12 RMK SLP291 T00421119 4////1026 57017 IEM_DS3505
ZBYN,1983-11-16 09:00,ZBYN 160900Z AUTO 29010KT 19SM 02/M21 RMK SLP301 T00241210 52004 IEM_DS3505
ZBYN,1983-11-16 12:00,ZBYN 161200Z AUTO 32008KT 9SM 00/M16 RMK SLP317 T00041160 52011 IEM_DS3505
ZBYN,1983-11-16 15:00,ZBYN 161500Z AUTO 32004KT 9SM M00/M08 RMK SLP315 T10011079 52004 IEM_DS3505
ZBYN,1983-11-16 18:00,ZBYN 161800Z AUTO 00000KT 9SM M06/M08 RMK SLP332 T10561083 40072//// 52011 IEM_DS3505
ZBYN,1983-11-16 21:00,ZBYN 162100Z AUTO 00000KT 12SM M05/M14 RMK SLP332 T10541141 57004 IEM_DS3505
ZBYN,1983-11-17 00:00,ZBYN 170000Z AUTO 00000KT 9SM M06/M11 RMK SLP349 T10581114 52012 IEM_DS3505
ZBYN,1983-11-17 03:00,ZBYN 170300Z AUTO 00000KT 6SM 01/M21 RMK SLP342 T00141210 52001 IEM_DS3505
ZBYN,1983-11-17 06:00,ZBYN 170600Z AUTO 16004KT 7SM 05/M11 RMK SLP314 T00461114 4////1071 57026 IEM_DS3505
ZBYN,1983-11-17 09:00,ZBYN 170900Z AUTO 00000KT 12SM 04/M09 RMK SLP305 T00411092 57008 IEM_DS3505
ZBYN,1983-11-17 12:00,ZBYN 171200Z AUTO 34004KT 11SM M00/M09 RMK SLP315 T10031087 54000 IEM_DS3505
ZBYN,1983-11-17 15:00,ZBYN 171500Z AUTO 00000KT 9SM M03/M08 RMK SLP299 T10291079 57006 IEM_DS3505
ZBYN,1983-11-17 18:00,ZBYN 171800Z AUTO 00000KT 6SM M05/M08 RMK SLP286 T10471076 40058//// 57009 IEM_DS3505
ZBYN,1983-11-17 21:00,ZBYN 172100Z AUTO 00000KT 6SM M06/M08 RMK SLP283 T10591076 IEM_DS3505
ZBYN,1983-11-18 00:00,ZBYN 180000Z AUTO 00000KT 4SM M05/M09 RMK SLP290 T10541087 54000 IEM_DS3505
ZBYN,1983-11-18 03:00,ZBYN 180300Z AUTO 34002KT 5SM 03/M06 RMK SLP276 T00271065 57003 IEM_DS3505
ZBYN,1983-11-18 06:00,ZBYN 180600Z AUTO 00000KT 5SM 09/M10 RMK SLP240 T00871105 4////1066 57027 IEM_DS3505
ZBYN,1983-11-18 09:00,ZBYN 180900Z AUTO 00000KT 6SM 07/M06 RMK SLP244 T00681065 57001 IEM_DS3505
ZBYN,1983-11-18 12:00,ZBYN 181200Z AUTO 34002KT 5SM M00/M05 RMK SLP310 T10031049 52018 IEM_DS3505
ZBYN,1983-11-18 15:00,ZBYN 181500Z AUTO 00000KT 5SM M03/M06 RMK SLP281 T10281061 52014 IEM_DS3505
ZBYN,1983-11-18 18:00,ZBYN 181800Z AUTO 00000KT 5SM M03/M05 RMK SLP277 T10321048 40090//// 52006 IEM_DS3505
ZBYN,1983-11-18 21:00,ZBYN 182100Z AUTO 34004KT 6SM M03/M07 RMK SLP286 T10311072 52005 IEM_DS3505
ZBYN,1983-11-19 00:00,ZBYN 190000Z AUTO 36004KT 4SM M06/M08 RMK SLP325 T10551083 52019 IEM_DS3505
ZBYN,1983-11-19 03:00,ZBYN 190300Z AUTO 16002KT 4SM 04/M05 RMK SLP320 T00381052 52007 IEM_DS3505
ZBYN,1983-11-19 04:00,ZBYN 190400Z AUTO 00000KT 7SM 08/M06 A3039 RMK T00801060 IEM_DS3505
ZBYN,1983-11-19 05:00,ZBYN 190500Z AUTO 20004KT 7SM 10/M06 A3033 RMK T01001060 IEM_DS3505
ZBYN,1983-11-19 06:00,ZBYN 190600Z AUTO 16004KT 6SM 10/M06 A3033 RMK SLP292 T00991055 4////1056 57016 IEM_DS3505
ZBYN,1983-11-19 07:00,ZBYN 190700Z AUTO 18006KT 7SM 11/M06 A3030 RMK T01101060 IEM_DS3505
ZBYN,1983-11-19 08:00,ZBYN 190800Z AUTO 18004KT 7SM 11/M05 A3030 RMK T01101050 IEM_DS3505
ZBYN,1983-11-19 09:00,ZBYN 190900Z AUTO 11002KT 6SM 08/M04 A3033 RMK SLP294 T00751045 57002 IEM_DS3505
ZBYN,1983-11-19 10:00,ZBYN 191000Z AUTO 06004KT 4SM 04/M05 A3033 RMK T00401050 IEM_DS3505
ZBYN,1983-11-19 11:00,ZBYN 191100Z AUTO 00000KT 7SM M01/M05 A3033 RMK T10101050 IEM_DS3505
ZBYN,1983-11-19 12:00,ZBYN 191200Z AUTO 34002KT 5SM 02/M04 RMK SLP322 T00171039 52012 IEM_DS3505
ZBYN,1983-11-19 15:00,ZBYN 191500Z AUTO 00000KT 5SM M02/M06 RMK SLP323 T10201058 52010 IEM_DS3505
ZBYN,1983-11-19 18:00,ZBYN 191800Z AUTO 00000KT 4SM M02/M06 RMK SLP314 T10231055 40107//// 52001 IEM_DS3505
ZBYN,1983-11-19 21:00,ZBYN 192100Z AUTO 34004KT 5SM M02/M06 RMK SLP319 T10191061 52002 IEM_DS3505
ZBYN,1983-11-20 00:00,ZBYN 200000Z AUTO 32002KT 5SM M03/M06 RMK SLP340 T10311055 52008 IEM_DS3505
ZBYN,1983-11-20 03:00,ZBYN 200300Z AUTO 00000KT 4SM 04/M04 RMK SLP338 T00381037 52003 IEM_DS3505
ZBYN,1983-11-20 06:00,ZBYN 200600Z AUTO 00000KT 4SM 08/M05 RMK SLP307 T00751048 4////1042 57022 IEM_DS3505
ZBYN,1983-11-20 09:00,ZBYN 200900Z AUTO 00000KT 4SM 05/M02 RMK SLP309 T00531015 57002 IEM_DS3505
ZBYN,1983-11-20 12:00,ZBYN 201200Z AUTO 00000KT 4SM 03/M01 RMK SLP321 T00281013 52005 IEM_DS3505
ZBYN,1983-11-20 15:00,ZBYN 201500Z AUTO 00000KT 1 1/4SM 00/M02 RMK SLP319 T00041020 52006 IEM_DS3505
ZBYN,1983-11-20 18:00,ZBYN 201800Z AUTO 00000KT 2SM M01/M03 RMK SLP315 T10121028 40077//// 57001 IEM_DS3505
ZBYN,1983-11-20 21:00,ZBYN 202100Z AUTO 00000KT 2SM M02/M03 RMK SLP317 T10181031 57003 IEM_DS3505
ZBYN,1983-11-21 00:00,ZBYN 210000Z AUTO 34004KT 1SM M03/M04 RMK SLP330 T10321042 52006 IEM_DS3505
ZBYN,1983-11-21 03:00,ZBYN 210300Z AUTO 00000KT 4SM 04/M02 RMK SLP321 T00391020 54000 IEM_DS3505
ZBYN,1983-11-21 06:00,ZBYN 210600Z AUTO 36004KT 6SM 09/M08 RMK SLP289 T00911076 4////1041 57024 IEM_DS3505
ZBYN,1983-11-21 09:00,ZBYN 210900Z AUTO 29004KT 9SM 06/M06 RMK SLP292 T00641055 57002 IEM_DS3505
ZBYN,1983-11-21 12:00,ZBYN 211200Z AUTO 34004KT 7SM 04/M06 RMK SLP325 T00391055 52023 IEM_DS3505
ZBYN,1983-11-21 15:00,ZBYN 211500Z AUTO 00000KT 6SM 03/M06 RMK SLP317 T00261058 52003 IEM_DS3505
ZBYN,1983-11-21 18:00,ZBYN 211800Z AUTO 34004KT 9SM 01/M06 RMK SLP310 T00141065 40093//// 54000 IEM_DS3505
ZBYN,1983-11-21 21:00,ZBYN 212100Z AUTO 34004KT 6SM M00/M06 RMK SLP312 T10011058 57006 IEM_DS3505
ZBYN,1983-11-22 00:00,ZBYN 220000Z AUTO 00000KT 4SM M04/M06 RMK SLP336 T10391055 52012 IEM_DS3505
ZBYN,1983-11-22 03:00,ZBYN 220300Z AUTO 00000KT 2 1/2SM 03/M04 RMK SLP325 T00331037 54000 IEM_DS3505
ZBYN,1983-11-22 04:00,ZBYN 220400Z AUTO 20004KT 5SM 04/M02 A3042 RMK T00401020 IEM_DS3505
ZBYN,1983-11-22 05:00,ZBYN 220500Z AUTO 20006KT 5SM 08/M06 A3039 RMK T00801060 IEM_DS3505
ZBYN,1983-11-22 06:00,ZBYN 220600Z AUTO 16002KT 6SM 07/M05 A3033 RMK SLP291 T00721052 4////1042 57026 IEM_DS3505
ZBYN,1983-11-22 07:00,ZBYN 220700Z AUTO 18004KT 7SM 08/M04 A3033 RMK T00801040 IEM_DS3505
ZBYN,1983-11-22 08:00,ZBYN 220800Z AUTO 20004KT 7SM 08/M04 A3030 RMK T00801040 IEM_DS3505
ZBYN,1983-11-22 09:00,ZBYN 220900Z AUTO 16004KT 7SM 05/M09 A3030 RMK SLP287 T00531088 57009 IEM_DS3505
ZBYN,1983-11-22 12:00,ZBYN 221200Z AUTO 32002KT 6SM 01/M03 RMK SLP307 T00121031 52004 IEM_DS3505
ZBYN,1983-11-22 15:00,ZBYN 221500Z AUTO 00000KT 6SM M03/M04 RMK SLP304 T10281045 52003 IEM_DS3505
ZBYN,1983-11-22 18:00,ZBYN 221800Z AUTO 00000KT 4SM M04/M05 RMK SLP292 T10361048 40078//// 57006 IEM_DS3505
ZBYN,1983-11-22 21:00,ZBYN 222100Z AUTO 00000KT 3SM M04/M05 RMK SLP292 T10451052 57004 IEM_DS3505
ZBYN,1983-11-23 00:00,ZBYN 230000Z AUTO 00000KT 1SM M05/M06 RMK SLP312 T10461055 52011 IEM_DS3505
ZBYN,1983-11-23 06:00,ZBYN 230600Z AUTO 25004KT 6SM 07/M04 RMK SLP287 T00741042 4////1053 57018 IEM_DS3505
ZBYN,1983-11-23 09:00,ZBYN 230900Z AUTO 00000KT 6SM 07/M03 RMK SLP299 T00721031 52009 IEM_DS3505
ZBYN,1983-11-23 12:00,ZBYN 231200Z AUTO 02004KT 6SM 04/M10 RMK SLP340 T00441096 52033 IEM_DS3505
ZBYN,1983-11-23 15:00,ZBYN 231500Z AUTO 02006KT 6SM 01/M09 RMK SLP349 T00121092 52014 IEM_DS3505
ZBYN,1983-11-23 18:00,ZBYN 231800Z AUTO 00000KT 6SM M02/M08 RMK SLP350 T10211079 40090//// 52004 IEM_DS3505
ZBYN,1983-11-23 21:00,ZBYN 232100Z AUTO 34004KT 7SM M03/M10 RMK SLP355 T10291100 52003 IEM_DS3505
ZBYN,1983-11-24 00:00,ZBYN 240000Z AUTO 32004KT 12SM M04/M12 RMK SLP370 T10401124 52006 IEM_DS3505
ZBYN,1983-11-24 03:00,ZBYN 240300Z AUTO 29002KT 6SM 01/M03 RMK SLP364 T00121028 57002 IEM_DS3505
ZBYN,1983-11-24 06:00,ZBYN 240600Z AUTO 16004KT 7SM 04/M08 RMK SLP340 T00401083 4////1051 57022 IEM_DS3505
ZBYN,1983-11-24 09:00,ZBYN 240900Z AUTO 18002KT 12SM 04/M06 RMK SLP318 T00391058 57022 IEM_DS3505
ZBYN,1983-11-24 12:00,ZBYN 241200Z AUTO 32004KT 6SM M01/M06 RMK SLP339 T10091058 52021 IEM_DS3505
ZBYN,1983-11-24 15:00,ZBYN 241500Z AUTO 00000KT 16SM 00/M12 RMK SLP317 T00031119 52008 IEM_DS3505
ZBYN,1983-11-24 18:00,ZBYN 241800Z AUTO 02004KT 16SM M02/M10 RMK SLP326 T10181105 40050//// 57008 IEM_DS3505
ZBYN,1983-11-24 21:00,ZBYN 242100Z AUTO 14002KT 12SM M04/M10 RMK SLP336 T10431105 52004 IEM_DS3505
ZBYN,1983-11-25 00:00,ZBYN 250000Z AUTO 11006KT 16SM M05/M10 RMK SLP361 T10481105 52014 IEM_DS3505
ZBYN,1983-11-25 03:00,ZBYN 250300Z AUTO 14004KT 12SM 03/M08 RMK SLP355 T00261083 52009 IEM_DS3505
ZBYN,1983-11-25 06:00,ZBYN 250600Z AUTO 00000KT 9SM 07/M09 RMK SLP332 T00721087 4////1067 57016 IEM_DS3505
ZBYN,1983-11-25 09:00,ZBYN 250900Z AUTO 00000KT 9SM 06/M15 RMK SLP360 T00571147 52018 IEM_DS3505
ZBYN,1983-11-25 12:00,ZBYN 251200Z AUTO 34004KT 16SM 03/M13 RMK SLP390 T00301130 52023 IEM_DS3505
ZBYN,1983-11-25 15:00,ZBYN 251500Z AUTO 14002KT 12SM M03/M10 RMK SLP399 T10331100 52010 IEM_DS3505
ZBYN,1983-11-25 18:00,ZBYN 251800Z AUTO 11004KT 11SM M04/M11 RMK SLP399 T10421109 40078//// 52005 IEM_DS3505
ZBYN,1983-11-25 21:00,ZBYN 252100Z AUTO 00000KT 9SM M06/M08 RMK SLP403 T10641079 57002 IEM_DS3505
ZBYN,1983-11-26 00:00,ZBYN 260000Z AUTO 00000KT 5SM M05/M11 RMK SLP420 T10501114 52013 IEM_DS3505
ZBYN,1983-11-26 03:00,ZBYN 260300Z AUTO 00000KT 5SM 03/M07 A3068 RMK SLP416 T00291068 57001 IEM_DS3505
ZBYN,1983-11-26 04:00,ZBYN 260400Z AUTO 00000KT 7SM 05/M08 RMK T00501080 IEM_DS3505
ZBYN,1983-11-26 05:00,ZBYN 260500Z AUTO 21004KT 7SM 07/M10 A3059 RMK T00701100 IEM_DS3505
ZBYN,1983-11-26 06:00,ZBYN 260600Z AUTO 18004KT 11SM 06/M10 A3059 RMK SLP381 T00651105 4////1066 57027 IEM_DS3505
ZBYN,1983-11-26 08:00,ZBYN 260800Z AUTO 15004KT 7SM 08/M09 A3053 RMK T00801090 IEM_DS3505
ZBYN,1983-11-26 09:00,ZBYN 260900Z AUTO 18004KT 12SM 05/M05 A3059 RMK SLP376 T00531048 57010 IEM_DS3505
ZBYN,1983-11-26 12:00,ZBYN 261200Z AUTO 00000KT 16SM 00/M06 RMK SLP392 T00031058 52008 IEM_DS3505
ZBYN,1983-11-26 15:00,ZBYN 261500Z AUTO 00000KT 12SM M03/M09 RMK SLP383 T10341092 57001 IEM_DS3505
ZBYN,1983-11-26 18:00,ZBYN 261800Z AUTO 00000KT 12SM M05/M07 RMK SLP378 T10471068 40078//// 57001 IEM_DS3505
ZBYN,1983-11-26 21:00,ZBYN 262100Z AUTO 00000KT 9SM M05/M08 RMK SLP374 T10481076 57005 IEM_DS3505
ZBYN,1983-11-27 00:00,ZBYN 270000Z AUTO 00000KT 5SM M06/M09 RMK SLP397 T10621087 52010 IEM_DS3505
ZBYN,1983-11-27 03:00,ZBYN 270300Z AUTO 00000KT 4SM 02/M05 RMK SLP389 T00211052 52001 IEM_DS3505
ZBYN,1983-11-27 06:00,ZBYN 270600Z AUTO 00000KT 4SM 08/M08 RMK SLP352 T00821083 4////1065 57027 IEM_DS3505
ZBYN,1983-11-27 09:00,ZBYN 270900Z AUTO 00000KT 7SM 06/M08 RMK SLP350 T00581076 57006 IEM_DS3505
ZBYN,1983-11-27 12:00,ZBYN 271200Z AUTO 00000KT 7SM M02/M06 RMK SLP377 T10161055 52011 IEM_DS3505
ZBYN,1983-11-27 15:00,ZBYN 271500Z AUTO 00000KT 6SM M04/M05 RMK SLP370 T10361052 54000 IEM_DS3505
ZBYN,1983-11-27 18:00,ZBYN 271800Z AUTO 00000KT 7SM M05/M06 RMK SLP348 T10471061 40086//// 57008 IEM_DS3505
ZBYN,1983-11-27 21:00,ZBYN 272100Z AUTO 00000KT 9SM M06/M07 RMK SLP345 T10561068 57009 IEM_DS3505
ZBYN,1983-11-28 00:00,ZBYN 280000Z AUTO 00000KT 4SM M06/M07 RMK SLP362 T10561068 52003 IEM_DS3505
ZBYN,1983-11-28 03:00,ZBYN 280300Z AUTO 16004KT 6SM 02/M06 RMK SLP340 T00221065 57009 IEM_DS3505
ZBYN,1983-11-28 06:00,ZBYN 280600Z AUTO 00000KT 6SM 08/M06 RMK SLP293 T00781065 4////1063 57050 IEM_DS3505
ZBYN,1983-11-28 09:00,ZBYN 280900Z AUTO 00000KT 4SM 06/M02 RMK SLP301 T00601020 52001 IEM_DS3505
ZBYN,1983-11-28 12:00,ZBYN 281200Z AUTO 00000KT 5SM M00/M04 RMK SLP326 T10011045 52010 IEM_DS3505
ZBYN,1983-11-28 15:00,ZBYN 281500Z AUTO 00000KT 4SM 00/M04 RMK SLP321 T00041039 52010 IEM_DS3505
ZBYN,1983-11-28 18:00,ZBYN 281800Z AUTO 29012KT 12SM 04/M11 RMK SLP313 T00411114 40086//// 52007 IEM_DS3505
ZBYN,1983-11-28 21:00,ZBYN 282100Z AUTO 27006KT 12SM 02/M08 RMK SLP320 T00231083 52001 IEM_DS3505
ZBYN,1983-11-29 00:00,ZBYN 290000Z AUTO 00000KT 9SM 01/M10 RMK SLP342 T00091096 52008 IEM_DS3505
ZBYN,1983-11-29 03:00,ZBYN 290300Z AUTO 29012KT 16SM 06/M14 RMK SLP341 T00561135 52008 IEM_DS3505
ZBYN,1983-11-29 04:00,ZBYN 290400Z AUTO 29002KT 7SM 07/M12 A3047 RMK T00701120 IEM_DS3505
ZBYN,1983-11-29 06:00,ZBYN 290600Z AUTO 28019KT 7SM 07/M12 A3047 RMK T00701120 IEM_DS3505
ZBYN,1983-11-29 07:00,ZBYN 290700Z AUTO 30021KT 7SM 05/M11 A3047 RMK T00501110 IEM_DS3505
ZBYN,1983-11-29 08:00,ZBYN 290800Z AUTO 29019KT 7SM 04/M11 A3050 RMK T00401110 IEM_DS3505
ZBYN,1983-11-29 09:00,ZBYN 290900Z AUTO 32016KT 16SM 03/M07 A3053 RMK SLP366 T00321072 52020 IEM_DS3505
ZBYN,1983-11-29 12:00,ZBYN 291200Z AUTO 32012KT 16SM 01/M12 RMK SLP385 T00101122 52012 IEM_DS3505
ZBYN,1983-11-29 15:00,ZBYN 291500Z AUTO 29006KT 16SM M00/M14 RMK SLP387 T10051135 52007 IEM_DS3505
ZBYN,1983-11-29 18:00,ZBYN 291800Z AUTO 29016KT 16SM M02/M15 RMK SLP396 T10171154 40065//// 52006 IEM_DS3505
ZBYN,1983-11-29 21:00,ZBYN 292100Z AUTO 29004KT 12SM M04/M14 RMK SLP401 T10401141 57004 IEM_DS3505
ZBYN,1983-11-30 00:00,ZBYN 300000Z AUTO 04002KT 16SM M04/M14 RMK SLP412 T10411135 52007 IEM_DS3505
ZBYN,1983-11-30 03:00,ZBYN 300300Z AUTO 20004KT 6SM 00/M09 RMK SLP413 T00051087 52005 IEM_DS3505
ZBYN,1983-11-30 06:00,ZBYN 300600Z AUTO 16004KT 16SM 04/M10 RMK SLP385 T00381096 4////1051 57022 IEM_DS3505
ZBYN,1983-11-30 09:00,ZBYN 300900Z AUTO 00000KT 16SM 03/M10 RMK SLP376 T00281105 57013 IEM_DS3505
ZBYN,1983-11-30 12:00,ZBYN 301200Z AUTO 00000KT 19SM M02/M09 RMK SLP387 T10201092 52001 IEM_DS3505
ZBYN,1983-11-30 15:00,ZBYN 301500Z AUTO 00000KT 11SM M05/M09 RMK SLP382 T10471087 57001 IEM_DS3505
ZBYN,1983-11-30 18:00,ZBYN 301800Z AUTO 00000KT 9SM M06/M08 RMK SLP374 T10651076 40053//// 57008 IEM_DS3505
ZBYN,1983-11-30 21:00,ZBYN 302100Z AUTO 00000KT 9SM M07/M09 RMK SLP368 T10741087 57009 IEM_DS3505
ZBYN,1983-12-01 00:00,ZBYN 010000Z AUTO 00000KT 4SM M08/M08 RMK SLP377 T10791083 54000 IEM_DS3505
ZBYN,1983-12-01 03:00,ZBYN 010300Z AUTO 18002KT 4SM 00/M06 RMK SLP359 T00051058 57007 IEM_DS3505
ZBYN,1983-12-01 06:00,ZBYN 010600Z AUTO 00000KT 6SM 05/M11 RMK SLP310 T00471109 4////1021 57040 IEM_DS3505
ZBYN,1983-12-01 09:00,ZBYN 010900Z AUTO 00000KT 6SM 03/M07 RMK SLP301 T00301072 57013 IEM_DS3505
ZBYN,1983-12-01 12:00,ZBYN 011200Z AUTO 00000KT 6SM 00/M07 RMK SLP308 T00001072 52001 IEM_DS3505
ZBYN,1983-12-01 15:00,ZBYN 011500Z AUTO 11004KT 9SM M04/M08 RMK SLP308 T10371079 52007 IEM_DS3505
ZBYN,1983-12-01 18:00,ZBYN 011800Z AUTO 36004KT 9SM M04/M08 RMK SLP291 T10411083 40050//// 57008 IEM_DS3505
ZBYN,1983-12-01 21:00,ZBYN 012100Z AUTO 00000KT 5SM M06/M08 RMK SLP291 T10611083 57007 IEM_DS3505
ZBYN,1983-12-02 00:00,ZBYN 020000Z AUTO 00000KT 4SM M07/M08 RMK SLP308 T10701076 52010 IEM_DS3505
ZBYN,1983-12-02 03:00,ZBYN 020300Z AUTO 18004KT 4SM 02/M08 RMK SLP301 T00151083 52001 IEM_DS3505
ZBYN,1983-12-02 06:00,ZBYN 020600Z AUTO 16006KT 6SM 08/M08 RMK SLP265 T00761083 4////1076 57024 IEM_DS3505
ZBYN,1983-12-02 09:00,ZBYN 020900Z AUTO 34004KT 7SM 07/M07 RMK SLP271 T00681072 52002 IEM_DS3505
ZBYN,1983-12-02 12:00,ZBYN 021200Z AUTO 00000KT 3SM 03/M08 RMK SLP310 T00261079 52026 IEM_DS3505
ZBYN,1983-12-02 15:00,ZBYN 021500Z AUTO 00000KT 4SM M04/M09 RMK SLP330 T10371092 52022 IEM_DS3505
ZBYN,1983-12-02 18:00,ZBYN 021800Z AUTO 00000KT 4SM M06/M08 RMK SLP328 T10621083 40089//// 52004 IEM_DS3505
ZBYN,1983-12-02 21:00,ZBYN 022100Z AUTO 34004KT 5SM M05/M10 RMK SLP334 T10541100 52005 IEM_DS3505
ZBYN,1983-12-03 00:00,ZBYN 030000Z AUTO 00000KT 6SM M07/M10 RMK SLP359 T10741105 52013 IEM_DS3505
ZBYN,1983-12-03 03:00,ZBYN 030300Z AUTO 00000KT 5SM 02/M13 RMK SLP356 T00201130 52003 IEM_DS3505
ZBYN,1983-12-03 04:00,ZBYN 030400Z AUTO 15004KT 7SM 06/M12 A3047 RMK T00601120 IEM_DS3505
ZBYN,1983-12-03 05:00,ZBYN 030500Z AUTO 00000KT 7SM 07/M11 A3047 RMK T00701110 IEM_DS3505
ZBYN,1983-12-03 06:00,ZBYN 030600Z AUTO 00000KT 6SM 08/M10 A3039 RMK SLP325 T00771105 4////1076 57024 IEM_DS3505
ZBYN,1983-12-03 07:00,ZBYN 030700Z AUTO 16008KT 7SM 08/M09 A3039 RMK T00801090 IEM_DS3505
ZBYN,1983-12-03 08:00,ZBYN 030800Z AUTO 00000KT 7SM 08/M07 A3039 RMK T00801070 IEM_DS3505
ZBYN,1983-12-03 09:00,ZBYN 030900Z AUTO 00000KT 6SM 06/M08 A3039 RMK SLP325 T00561083 57002 IEM_DS3505
ZBYN,1983-12-03 12:00,ZBYN 031200Z AUTO 34004KT 6SM 02/M10 RMK SLP339 T00231100 52004 IEM_DS3505
ZBYN,1983-12-03 15:00,ZBYN 031500Z AUTO 00000KT 6SM M02/M09 RMK SLP331 T10161087 52002 IEM_DS3505
ZBYN,1983-12-03 18:00,ZBYN 031800Z AUTO 00000KT 6SM M05/M09 RMK SLP322 T10521092 40080//// 57004 IEM_DS3505
ZBYN,1983-12-03 21:00,ZBYN 032100Z AUTO 00000KT 6SM M06/M10 RMK SLP327 T10611100 57001 IEM_DS3505
ZBYN,1983-12-04 00:00,ZBYN 040000Z AUTO 34002KT 6SM M05/M10 RMK SLP331 T10471096 54000 IEM_DS3505
ZBYN,1983-12-04 03:00,ZBYN 040300Z AUTO 34002KT 6SM 04/M09 RMK SLP316 T00361087 IEM_DS3505
ZBYN,1983-12-04 06:00,ZBYN 040600Z AUTO 25002KT 6SM 08/M09 RMK SLP279 T00831092 4////1067 57031 IEM_DS3505
ZBYN,1983-12-04 09:00,ZBYN 040900Z AUTO 00000KT 6SM 06/M06 RMK SLP276 T00601058 57008 IEM_DS3505
ZBYN,1983-12-04 12:00,ZBYN 041200Z AUTO 00000KT 6SM M01/M05 RMK SLP297 T10091052 52009 IEM_DS3505
ZBYN,1983-12-04 15:00,ZBYN 041500Z AUTO 16004KT 4SM M02/M06 RMK SLP293 T10151061 52010 IEM_DS3505
ZBYN,1983-12-04 18:00,ZBYN 041800Z AUTO 32002KT 5SM M04/M07 RMK SLP280 T10391072 40092//// 57008 IEM_DS3505
ZBYN,1983-12-04 21:00,ZBYN 042100Z AUTO 11002KT 5SM M02/M06 RMK SLP286 T10191058 52005 IEM_DS3505
ZBYN,1983-12-05 00:00,ZBYN 050000Z AUTO 34002KT 6SM M02/M09 RMK SLP307 T10221087 52006 IEM_DS3505
ZBYN,1983-12-05 03:00,ZBYN 050300Z AUTO 00000KT 4SM 03/M07 RMK SLP308 T00311072 52009 IEM_DS3505
ZBYN,1983-12-05 06:00,ZBYN 050600Z AUTO 20006KT 4SM 08/M06 RMK SLP275 T00851061 4////1043 57024 IEM_DS3505
ZBYN,1983-12-05 09:00,ZBYN 050900Z AUTO 00000KT 12SM 06/M04 RMK SLP277 T00641037 52002 IEM_DS3505
ZBYN,1983-12-05 12:00,ZBYN 051200Z AUTO 32008KT 11SM RMK SLP306 52020 IEM_DS3505
ZBYN,1983-12-05 15:00,ZBYN 051500Z AUTO 34006KT 9SM 03/M10 RMK SLP305 T00291105 52007 IEM_DS3505
ZBYN,1983-12-05 18:00,ZBYN 051800Z AUTO 04004KT 7SM M03/M07 RMK SLP316 T10341072 40092//// 52009 IEM_DS3505
ZBYN,1983-12-05 21:00,ZBYN 052100Z AUTO 00000KT 5SM M06/M07 RMK SLP320 T10561068 57004 IEM_DS3505
ZBYN,1983-12-06 00:00,ZBYN 060000Z AUTO 00000KT 4SM M03/M07 RMK SLP326 T10301068 52005 IEM_DS3505
ZBYN,1983-12-06 03:00,ZBYN 060300Z AUTO 00000KT 4SM 02/M04 RMK SLP326 T00221045 52008 IEM_DS3505
ZBYN,1983-12-06 04:00,ZBYN 060400Z AUTO 00000KT 1 1/4SM 06/M06 A3039 RMK T00601060 IEM_DS3505
ZBYN,1983-12-06 05:00,ZBYN 060500Z AUTO 25004KT 5SM 07/M08 A3039 RMK T00701080 IEM_DS3505
ZBYN,1983-12-06 06:00,ZBYN 060600Z AUTO 34004KT 9SM 07/M12 A3039 RMK SLP307 T00731124 4////1064 57020 IEM_DS3505
ZBYN,1983-12-06 07:00,ZBYN 060700Z AUTO 34012KT 7SM 08/M09 A3039 RMK T00801090 IEM_DS3505
ZBYN,1983-12-06 08:00,ZBYN 060800Z AUTO 36014KT 7SM 07/M09 A3039 RMK T00701090 IEM_DS3505
ZBYN,1983-12-06 09:00,ZBYN 060900Z AUTO 36004KT 12SM 06/M09 RMK SLP321 T00591087 52007 IEM_DS3505
ZBYN,1983-12-06 12:00,ZBYN 061200Z AUTO 00000KT 12SM M01/M07 RMK SLP348 T10071072 52018 IEM_DS3505
ZBYN,1983-12-06 15:00,ZBYN 061500Z AUTO 34006KT 16SM 01/M10 RMK SLP348 T00121096 52012 IEM_DS3505
ZBYN,1983-12-06 18:00,ZBYN 061800Z AUTO 00000KT 12SM M04/M09 RMK SLP350 T10401092 40075//// 52001 IEM_DS3505
ZBYN,1983-12-06 21:00,ZBYN 062100Z AUTO 00000KT 12SM M06/M11 RMK SLP354 T10621114 57002 IEM_DS3505
ZBYN,1983-12-07 00:00,ZBYN 070000Z AUTO 00000KT 5SM M07/M08 RMK SLP381 T10701083 52012 IEM_DS3505
ZBYN,1983-12-07 03:00,ZBYN 070300Z AUTO 16004KT 5SM 02/M08 RMK SLP367 T00171079 52005 IEM_DS3505
ZBYN,1983-12-07 06:00,ZBYN 070600Z AUTO 20006KT 6SM 06/M09 RMK SLP329 T00591092 4////1076 57036 IEM_DS3505
ZBYN,1983-12-07 09:00,ZBYN 070900Z AUTO 00000KT 11SM 04/M01 RMK SLP328 T00371011 57009 IEM_DS3505
ZBYN,1983-12-07 12:00,ZBYN 071200Z AUTO 00000KT 6SM M02/M07 RMK SLP335 T10211068 52001 IEM_DS3505
ZBYN,1983-12-07 15:00,ZBYN 071500Z AUTO 00000KT 6SM M04/M07 RMK SLP326 T10401072 57002 IEM_DS3505
ZBYN,1983-12-07 18:00,ZBYN 071800Z AUTO 00000KT 7SM M05/M07 RMK SLP312 T10541072 40061//// 57008 IEM_DS3505
ZBYN,1983-12-07 21:00,ZBYN 072100Z AUTO 00000KT 9SM M06/M08 RMK SLP310 T10561083 57006 IEM_DS3505
ZBYN,1983-12-08 00:00,ZBYN 080000Z AUTO 00000KT 4SM M07/M09 RMK SLP330 T10741087 52005 IEM_DS3505
ZBYN,1983-12-08 06:00,ZBYN 080600Z AUTO 18006KT 6SM 06/M09 RMK SLP270 T00631092 4////1078 57032 IEM_DS3505
ZBYN,1983-12-08 09:00,ZBYN 080900Z AUTO 00000KT 9SM 04/M07 RMK SLP272 T00391072 57003 IEM_DS3505
ZBYN,1983-12-08 12:00,ZBYN 081200Z AUTO 00000KT 6SM M01/M06 RMK SLP292 T10091061 52008 IEM_DS3505
ZBYN,1983-12-08 15:00,ZBYN 081500Z AUTO 00000KT 6SM M04/M07 RMK SLP286 T10391068 52003 IEM_DS3505
ZBYN,1983-12-08 18:00,ZBYN 081800Z AUTO 00000KT 6SM M04/M07 RMK SLP266 T10441068 40067//// 57010 IEM_DS3505
ZBYN,1983-12-08 21:00,ZBYN 082100Z AUTO 00000KT 4SM M05/M08 RMK SLP267 T10541083 57005 IEM_DS3505
ZBYN,1983-12-09 00:00,ZBYN 090000Z AUTO 00000KT 4SM M07/M08 RMK SLP280 T10691083 52002 IEM_DS3505
ZBYN,1983-12-09 03:00,ZBYN 090300Z AUTO 16004KT 6SM 02/M05 RMK SLP269 T00221052 54000 IEM_DS3505
ZBYN,1983-12-09 06:00,ZBYN 090600Z AUTO 20008KT 6SM 08/M08 RMK SLP227 T00771083 4////1072 57030 IEM_DS3505
ZBYN,1983-12-09 09:00,ZBYN 090900Z AUTO 20002KT 12SM 07/M06 RMK SLP224 T00711065 57005 IEM_DS3505
ZBYN,1983-12-09 12:00,ZBYN 091200Z AUTO 25006KT 9SM 06/M09 RMK SLP259 T00551092 52026 IEM_DS3505
ZBYN,1983-12-09 15:00,ZBYN 091500Z AUTO 25006KT 9SM 04/M08 RMK SLP261 T00391079 52014 IEM_DS3505
ZBYN,1983-12-09 18:00,ZBYN 091800Z AUTO 34004KT 9SM 02/M09 RMK SLP256 T00211087 40085//// 52002 IEM_DS3505
ZBYN,1983-12-09 21:00,ZBYN 092100Z AUTO 29004KT 12SM 00/M10 RMK SLP274 T00011100 52012 IEM_DS3505
ZBYN,1983-12-10 00:00,ZBYN 100000Z AUTO 29006KT 19SM M03/M12 RMK SLP305 T10261119 52021 IEM_DS3505
ZBYN,1983-12-10 03:00,ZBYN 100300Z AUTO 32016KT 0SM 02/M15 RMK SLP309 T00211154 52009 IEM_DS3505
ZBYN,1983-12-10 06:00,ZBYN 100600Z AUTO 29012KT 19SM 03/M20 RMK SLP293 T00321200 4////1029 57016 IEM_DS3505
ZBYN,1983-12-10 09:00,ZBYN 100900Z AUTO 32010KT 19SM 01/M18 RMK SLP324 T00111183 52021 IEM_DS3505
ZBYN,1983-12-10 12:00,ZBYN 101200Z AUTO 32014KT 16SM M01/M16 RMK T10071160 52020 IEM_DS3505
ZBYN,1983-12-10 15:00,ZBYN 101500Z AUTO 32004KT 11SM M02/M08 RMK SLP356 T10151083 52008 IEM_DS3505
ZBYN,1983-12-10 18:00,ZBYN 101800Z AUTO 32004KT 12SM M05/M14 RMK SLP353 T10471141 40043//// 57006 IEM_DS3505
ZBYN,1983-12-10 21:00,ZBYN 102100Z AUTO 00000KT 12SM M07/M14 RMK SLP339 T10711141 57020 IEM_DS3505
ZBYN,1983-12-11 00:00,ZBYN 110000Z AUTO 00000KT 12SM M08/M12 RMK SLP359 T10841119 52013 IEM_DS3505
ZBYN,1983-12-11 06:00,ZBYN 110600Z AUTO 16006KT 19SM 04/M14 RMK SLP288 T00441135 4////1087 57046 IEM_DS3505
ZBYN,1983-12-11 09:00,ZBYN 110900Z AUTO 11004KT 19SM 02/M10 RMK SLP265 T00191096 57029 IEM_DS3505
ZBYN,1983-12-11 12:00,ZBYN 111200Z AUTO 29002KT 16SM M04/M14 RMK SLP284 T10371141 52005 IEM_DS3505
ZBYN,1983-12-11 15:00,ZBYN 111500Z AUTO 00000KT 12SM M07/M14 RMK SLP267 T10691135 57005 IEM_DS3505
ZBYN,1983-12-11 18:00,ZBYN 111800Z AUTO 00000KT 6SM M08/M12 RMK SLP247 T10771119 40049//// 57013 IEM_DS3505
ZBYN,1983-12-11 21:00,ZBYN 112100Z AUTO 00000KT 9SM M07/M11 RMK SLP244 T10681114 57006 IEM_DS3505
ZBYN,1983-12-12 00:00,ZBYN 120000Z AUTO 00000KT 4SM M08/M11 RMK SLP266 T10841109 52008 IEM_DS3505
ZBYN,1983-12-12 03:00,ZBYN 120300Z AUTO 16006KT 5SM 02/M14 RMK SLP253 T00171135 54000 IEM_DS3505
ZBYN,1983-12-12 06:00,ZBYN 120600Z AUTO 18008KT 6SM 05/M12 RMK SLP216 T00521124 4////1088 57029 IEM_DS3505
ZBYN,1983-12-12 09:00,ZBYN 120900Z AUTO 16004KT 11SM 04/M08 RMK SLP212 T00371083 57005 IEM_DS3505
ZBYN,1983-12-12 12:00,ZBYN 121200Z AUTO 00000KT 7SM M03/M10 RMK SLP241 T10261105 52014 IEM_DS3505
ZBYN,1983-12-12 15:00,ZBYN 121500Z AUTO 14004KT 7SM M04/M10 RMK SLP238 T10441105 52011 IEM_DS3505
ZBYN,1983-12-12 18:00,ZBYN 121800Z AUTO 32002KT 7SM M07/M18 RMK SLP241 T10671177 40073//// 52004 IEM_DS3505
ZBYN,1983-12-12 21:00,ZBYN 122100Z AUTO 34004KT 6SM M08/M11 RMK SLP252 T10831109 52005 IEM_DS3505
ZBYN,1983-12-13 00:00,ZBYN 130000Z AUTO 00000KT 4SM M07/M09 RMK SLP272 T10661092 52011 IEM_DS3505
ZBYN,1983-12-13 01:00,ZBYN 130100Z AUTO 14006KT 6SM RMK SLP267 4////1090 57009 IEM_DS3505
ZBYN,1983-12-13 02:00,ZBYN 130200Z AUTO 00000KT 1SM M05/M08 A3024 RMK T10501080 IEM_DS3505
ZBYN,1983-12-13 03:00,ZBYN 130300Z AUTO 00000KT 4SM 01/M09 A3024 RMK SLP282 T00081087 52018 IEM_DS3505
ZBYN,1983-12-13 05:00,ZBYN 130500Z AUTO 00000KT 1 1/2SM 03/M08 A3021 RMK T00301080 IEM_DS3505
ZBYN,1983-12-13 06:00,ZBYN 130600Z AUTO 14006KT 6SM 06/M08 A3021 RMK SLP267 T00561079 4////1090 57009 IEM_DS3505
ZBYN,1983-12-13 07:00,ZBYN 130700Z AUTO 00000KT 2 1/2SM 07/M09 A3021 RMK T00701090 IEM_DS3505
ZBYN,1983-12-13 08:00,ZBYN 130800Z AUTO 00000KT 4SM 07/M07 A3024 RMK T00701070 IEM_DS3505
ZBYN,1983-12-13 10:00,ZBYN 131000Z AUTO 33008KT 3SM 00/M09 A3024 RMK T00001090 IEM_DS3505
ZBYN,1983-12-13 12:00,ZBYN 131200Z AUTO 34010KT 6SM 02/M14 RMK T00211141 52021 IEM_DS3505
ZBYN,1983-12-13 15:00,ZBYN 131500Z AUTO 34004KT 6SM M02/M11 RMK SLP328 T10191114 52027 IEM_DS3505
ZBYN,1983-12-13 18:00,ZBYN 131800Z AUTO 34004KT 6SM M04/M12 RMK SLP327 T10371124 40077//// 52004 IEM_DS3505
ZBYN,1983-12-13 21:00,ZBYN 132100Z AUTO 34004KT 9SM M04/M11 RMK SLP329 T10451114 57001 IEM_DS3505
ZBYN,1983-12-14 00:00,ZBYN 140000Z AUTO 34004KT 6SM M06/M12 RMK SLP349 T10571119 52012 IEM_DS3505
ZBYN,1983-12-14 03:00,ZBYN 140300Z AUTO 00000KT 6SM M01/M10 RMK SLP350 T10081100 52002 IEM_DS3505
ZBYN,1983-12-14 06:00,ZBYN 140600Z AUTO 14002KT 6SM 03/M10 RMK SLP309 T00311105 4////1061 57033 IEM_DS3505
ZBYN,1983-12-14 09:00,ZBYN 140900Z AUTO 18002KT 6SM 00/M09 RMK SLP314 T00011092 57002 IEM_DS3505
ZBYN,1983-12-14 12:00,ZBYN 141200Z AUTO 14002KT 9SM M01/M09 RMK SLP334 T10141087 52013 IEM_DS3505
ZBYN,1983-12-14 15:00,ZBYN 141500Z AUTO 00000KT 6SM M04/M10 RMK SLP335 T10351105 52006 IEM_DS3505
ZBYN,1983-12-14 18:00,ZBYN 141800Z AUTO 00000KT 6SM M04/M08 RMK SLP327 T10431083 40038//// 57002 IEM_DS3505
ZBYN,1983-12-14 21:00,ZBYN 142100Z AUTO 34006KT 7SM M06/M12 RMK SLP332 T10581124 57003 IEM_DS3505
ZBYN,1983-12-15 00:00,ZBYN 150000Z AUTO 36004KT 6SM M07/M13 RMK SLP346 T10661130 52010 IEM_DS3505
ZBYN,1983-12-15 03:00,ZBYN 150300Z AUTO 18004KT 4SM M00/M08 RMK SLP347 T10011079 52007 IEM_DS3505
ZBYN,1983-12-15 06:00,ZBYN 150600Z AUTO 00000KT 6SM 03/M09 RMK SLP305 T00341087 4////1077 57034 IEM_DS3505
ZBYN,1983-12-15 09:00,ZBYN 150900Z AUTO 00000KT 6SM 02/M10 RMK SLP301 T00171105 57009 IEM_DS3505
ZBYN,1983-12-15 12:00,ZBYN 151200Z AUTO 34004KT 7SM M03/M11 RMK SLP320 T10271109 52009 IEM_DS3505
ZBYN,1983-12-15 15:00,ZBYN 151500Z AUTO 02006KT 9SM M03/M14 RMK SLP310 T10311141 52001 IEM_DS3505
ZBYN,1983-12-15 18:00,ZBYN 151800Z AUTO 02002KT 9SM M06/M13 RMK SLP304 T10611130 40037//// 57004 IEM_DS3505
ZBYN,1983-12-15 21:00,ZBYN 152100Z AUTO 00000KT 6SM M09/M11 RMK SLP302 T10861109 57005 IEM_DS3505
ZBYN,1983-12-16 00:00,ZBYN 160000Z AUTO 00000KT 5SM M07/M12 RMK SLP321 T10691124 52008 IEM_DS3505
ZBYN,1983-12-16 03:00,ZBYN 160300Z AUTO 36006KT 6SM 00/M10 RMK SLP312 T00021105 52003 IEM_DS3505
ZBYN,1983-12-16 06:00,ZBYN 160600Z AUTO 32004KT 9SM 04/M18 RMK SLP287 T00421175 4////1091 57021 IEM_DS3505
ZBYN,1983-12-16 09:00,ZBYN 160900Z AUTO 02004KT 9SM 02/M15 RMK SLP305 T00231147 52010 IEM_DS3505
ZBYN,1983-12-16 12:00,ZBYN 161200Z AUTO 34004KT 9SM M01/M14 RMK SLP338 T10091135 52027 IEM_DS3505
ZBYN,1983-12-16 15:00,ZBYN 161500Z AUTO 34004KT 12SM M03/M15 RMK SLP356 T10321154 52029 IEM_DS3505
ZBYN,1983-12-16 18:00,ZBYN 161800Z AUTO 34006KT 12SM M05/M15 RMK SLP360 T10461154 40046//// 52008 IEM_DS3505
ZBYN,1983-12-16 21:00,ZBYN 162100Z AUTO 02004KT 12SM M06/M18 RMK SLP372 T10601183 52006 IEM_DS3505
ZBYN,1983-12-17 00:00,ZBYN 170000Z AUTO 34004KT 12SM M06/M18 RMK SLP388 T10621175 52008 IEM_DS3505
ZBYN,1983-12-17 03:00,ZBYN 170300Z AUTO 02006KT 6SM M01/M15 A3053 RMK SLP389 T10131154 52005 IEM_DS3505
ZBYN,1983-12-17 04:00,ZBYN 170400Z AUTO 32014KT 7SM 01/M14 A3053 RMK T00101140 IEM_DS3505
ZBYN,1983-12-17 05:00,ZBYN 170500Z AUTO 29008KT 7SM 03/M11 A3050 RMK T00301110 IEM_DS3505
ZBYN,1983-12-17 06:00,ZBYN 170600Z AUTO 29006KT 6SM 02/M16 A3047 RMK SLP354 T00211160 4////1071 57028 IEM_DS3505
ZBYN,1983-12-17 07:00,ZBYN 170700Z AUTO 22008KT 7SM 03/M14 A3042 RMK T00301140 IEM_DS3505
ZBYN,1983-12-17 08:00,ZBYN 170800Z AUTO 24008KT 7SM 02/M14 A3042 RMK T00201140 IEM_DS3505
ZBYN,1983-12-17 09:00,ZBYN 170900Z AUTO 18002KT 7SM M00/M15 A3042 RMK SLP355 T10041147 57005 IEM_DS3505
ZBYN,1983-12-17 10:00,ZBYN 171000Z AUTO 00000KT 7SM M04/M13 A3042 RMK T10401130 IEM_DS3505
ZBYN,1983-12-17 11:00,ZBYN 171100Z AUTO 00000KT 7SM M06/M15 A3042 RMK T10601150 IEM_DS3505
ZBYN,1983-12-17 12:00,ZBYN 171200Z AUTO 34002KT 6SM M05/M11 A3042 RMK SLP368 T10511114 40030//// 52003 IEM_DS3505
ZBYN,1983-12-17 15:00,ZBYN 171500Z AUTO 07002KT 6SM M08/M14 RMK SLP366 T10811135 52002 IEM_DS3505
ZBYN,1983-12-17 18:00,ZBYN 171800Z AUTO 00000KT 6SM M10/M13 RMK SLP354 T11011130 40030//// 57008 IEM_DS3505
ZBYN,1983-12-17 21:00,ZBYN 172100Z AUTO 00000KT 7SM M12/M13 RMK SLP349 T11151130 57012 IEM_DS3505
ZBYN,1983-12-18 00:00,ZBYN 180000Z AUTO 00000KT 5SM M13/M14 RMK SLP358 T11271140 57003 IEM_DS3505
ZBYN,1983-12-18 03:00,ZBYN 180300Z AUTO 00000KT 6SM M02/M12 RMK SLP332 T10181124 57009 IEM_DS3505
ZBYN,1983-12-18 06:00,ZBYN 180600Z AUTO 02004KT 6SM 03/M14 RMK SLP285 T00321141 4////1131 57037 IEM_DS3505
ZBYN,1983-12-18 09:00,ZBYN 180900Z AUTO 00000KT 6SM 02/M12 RMK SLP287 T00221119 57003 IEM_DS3505
ZBYN,1983-12-18 12:00,ZBYN 181200Z AUTO 00000KT 6SM M02/M12 RMK SLP302 T10191119 52005 IEM_DS3505
ZBYN,1983-12-18 15:00,ZBYN 181500Z AUTO 00000KT 6SM M02/M09 RMK SLP287 T10251092 52003 IEM_DS3505
ZBYN,1983-12-18 18:00,ZBYN 181800Z AUTO 00000KT 6SM M04/M08 RMK SLP273 T10351083 40048//// 57006 IEM_DS3505
ZBYN,1983-12-18 21:00,ZBYN 182100Z AUTO 00000KT 6SM M05/M10 RMK SLP280 T10521096 52002 IEM_DS3505
ZBYN,1983-12-19 00:00,ZBYN 190000Z AUTO 00000KT 5SM M04/M08 RMK SLP327 T10411083 52001 IEM_DS3505
ZBYN,1983-12-19 03:00,ZBYN 190300Z AUTO 00000KT 4SM 01/M10 RMK SLP288 T00081105 52009 IEM_DS3505
ZBYN,1983-12-19 06:00,ZBYN 190600Z AUTO 20002KT 4SM 04/M12 RMK SLP256 T00361119 4////1053 57026 IEM_DS3505
ZBYN,1983-12-19 09:00,ZBYN 190900Z AUTO 16002KT 6SM 02/M09 RMK SLP263 T00211087 54000 IEM_DS3505
ZBYN,1983-12-19 12:00,ZBYN 191200Z AUTO 00000KT 6SM M03/M11 RMK SLP287 T10291109 52017 IEM_DS3505
ZBYN,1983-12-19 15:00,ZBYN 191500Z AUTO 36004KT 4SM M02/M09 RMK SLP291 T10231087 52012 IEM_DS3505
ZBYN,1983-12-19 18:00,ZBYN 191800Z AUTO 00000KT 4SM M07/M10 RMK SLP294 T10691096 40040//// 54000 IEM_DS3505
ZBYN,1983-12-19 21:00,ZBYN 192100Z AUTO 00000KT 3SM M08/M10 RMK SLP297 T10801105 57001 IEM_DS3505
ZBYN,1983-12-20 00:00,ZBYN 200000Z AUTO 00000KT 2 1/2SM M07/M10 RMK SLP316 T10741105 52009 IEM_DS3505
ZBYN,1983-12-20 01:00,ZBYN 200100Z AUTO 25002KT 6SM RMK SLP294 57024 IEM_DS3505
ZBYN,1983-12-20 03:00,ZBYN 200300Z AUTO 00000KT 5SM M03/M10 RMK SLP319 T10331100 52010 IEM_DS3505
ZBYN,1983-12-20 04:00,ZBYN 200400Z AUTO 00000KT 2 1/2SM M02/M11 A3033 RMK T10201110 IEM_DS3505
ZBYN,1983-12-20 05:00,ZBYN 200500Z AUTO 14002KT 2 1/2SM 01/M11 A3030 RMK T00101110 IEM_DS3505
ZBYN,1983-12-20 06:00,ZBYN 200600Z AUTO 25002KT 6SM M00/M10 A3024 RMK SLP294 T10011096 4////1085 57024 IEM_DS3505
ZBYN,1983-12-20 07:00,ZBYN 200700Z AUTO 00000KT 2 1/2SM 00/M09 A3024 RMK T00001090 IEM_DS3505
ZBYN,1983-12-20 08:00,ZBYN 200800Z AUTO 19002KT 2 1/2SM 00/M09 A3024 RMK T00001090 IEM_DS3505
ZBYN,1983-12-20 09:00,ZBYN 200900Z AUTO 00000KT 5SM M00/M08 A3024 RMK SLP298 T10041079 52001 IEM_DS3505
ZBYN,1983-12-20 10:00,ZBYN 201000Z AUTO 00000KT 2SM M01/M08 A3024 RMK T10101080 IEM_DS3505
ZBYN,1983-12-20 12:00,ZBYN 201200Z AUTO 00000KT 6SM M02/M08 RMK SLP313 T10211076 52011 IEM_DS3505
ZBYN,1983-12-20 15:00,ZBYN 201500Z AUTO 00000KT 7SM M02/M07 RMK SLP314 T10171072 52009 IEM_DS3505
ZBYN,1983-12-20 18:00,ZBYN 201800Z AUTO 29006KT 11SM M02/M09 RMK SLP311 T10151087 40003//// 52003 IEM_DS3505
ZBYN,1983-12-20 21:00,ZBYN 202100Z AUTO 32012KT 11SM M03/M12 RMK SLP307 T10281119 57007 IEM_DS3505
ZBYN,1983-12-21 00:00,ZBYN 210000Z AUTO 32004KT 9SM M03/M12 RMK SLP321 T10291124 52010 IEM_DS3505
ZBYN,1983-12-21 03:00,ZBYN 210300Z AUTO 04004KT 6SM M01/M05 RMK SLP326 T10071052 52009 IEM_DS3505
ZBYN,1983-12-21 06:00,ZBYN 210600Z AUTO 32004KT 16SM 02/M14 RMK SLP287 T00171135 4////1085 57030 IEM_DS3505
ZBYN,1983-12-21 09:00,ZBYN 210900Z AUTO 00000KT 9SM 00/M15 RMK SLP297 T00011147 52003 IEM_DS3505
ZBYN,1983-12-21 12:00,ZBYN 211200Z AUTO 32017KT 9SM M02/M15 RMK SLP335 T10251147 52036 IEM_DS3505
ZBYN,1983-12-21 15:00,ZBYN 211500Z AUTO 00000KT 17SM M05/M13 RMK SLP348 T10541130 52004 IEM_DS3505
ZBYN,1983-12-21 18:00,ZBYN 211800Z AUTO 29004KT 16SM M06/M15 RMK SLP338 T10561147 40022//// 57004 IEM_DS3505
ZBYN,1983-12-21 21:00,ZBYN 212100Z AUTO 29008KT 16SM M06/M19 RMK SLP340 T10601191 57002 IEM_DS3505
ZBYN,1983-12-22 00:00,ZBYN 220000Z AUTO 29012KT 19SM M06/M21 RMK SLP356 T10641210 52010 IEM_DS3505
ZBYN,1983-12-22 03:00,ZBYN 220300Z AUTO 29012KT 16SM M04/M22 RMK SLP374 T10441220 52014 IEM_DS3505
ZBYN,1983-12-22 06:00,ZBYN 220600Z AUTO 02004KT 19SM M03/M20 RMK SLP334 T10321200 4////1079 57025 IEM_DS3505
ZBYN,1983-12-22 09:00,ZBYN 220900Z AUTO 32004KT 19SM M05/M21 RMK SLP354 T10501210 52005 IEM_DS3505
ZBYN,1983-12-22 12:00,ZBYN 221200Z AUTO 32004KT 19SM M08/M24 RMK SLP383 T10771244 52020 IEM_DS3505
ZBYN,1983-12-22 15:00,ZBYN 221500Z AUTO 32006KT 19SM M09/M24 RMK SLP380 T10861244 54000 IEM_DS3505
ZBYN,1983-12-22 18:00,ZBYN 221800Z AUTO 00000KT 19SM M14/M19 RMK SLP364 T11351190 41028//// 57021 IEM_DS3505
ZBYN,1983-12-22 21:00,ZBYN 222100Z AUTO 00000KT 19SM M15/M19 RMK SLP356 T11461190 57013 IEM_DS3505
ZBYN,1983-12-23 00:00,ZBYN 230000Z AUTO 00000KT 9SM M15/M19 RMK SLP360 T11491190 57002 IEM_DS3505
ZBYN,1983-12-23 03:00,ZBYN 230300Z AUTO 16004KT 4SM M07/M18 RMK SLP346 T10661175 52001 IEM_DS3505
ZBYN,1983-12-23 06:00,ZBYN 230600Z AUTO 32010KT 16SM 00/M14 RMK SLP302 T00011135 4////1151 57036 IEM_DS3505
ZBYN,1983-12-23 09:00,ZBYN 230900Z AUTO 29010KT 16SM M02/M18 RMK SLP318 T10171175 52010 IEM_DS3505
ZBYN,1983-12-23 12:00,ZBYN 231200Z AUTO 04006KT 11SM M06/M18 RMK SLP363 T10561175 52030 IEM_DS3505
ZBYN,1983-12-23 15:00,ZBYN 231500Z AUTO 34006KT 12SM M08/M18 RMK SLP374 T10751183 52021 IEM_DS3505
ZBYN,1983-12-23 18:00,ZBYN 231800Z AUTO 34006KT 12SM M10/M18 RMK SLP371 T11031180 40005//// 52005 IEM_DS3505
ZBYN,1983-12-23 21:00,ZBYN 232100Z AUTO 34006KT 16SM M11/M19 RMK SLP374 T11131190 57002 IEM_DS3505
ZBYN,1983-12-24 00:00,ZBYN 240000Z AUTO 34004KT 6SM M13/M18 RMK SLP401 T11301180 52014 IEM_DS3505
ZBYN,1983-12-24 03:00,ZBYN 240300Z AUTO 22004KT 6SM M07/M21 RMK SLP395 T10731210 52007 IEM_DS3505
ZBYN,1983-12-24 04:00,ZBYN 240400Z AUTO 24004KT 7SM M05/M21 A3050 RMK T10501210 IEM_DS3505
ZBYN,1983-12-24 05:00,ZBYN 240500Z AUTO 20010KT 7SM M05/M22 A3047 RMK T10501220 IEM_DS3505
ZBYN,1983-12-24 06:00,ZBYN 240600Z AUTO 18006KT 16SM M04/M21 A3042 RMK SLP356 T10391210 4////1149 57034 IEM_DS3505
ZBYN,1983-12-24 07:00,ZBYN 240700Z AUTO 19006KT 7SM M02/M18 A3039 RMK T10201180 IEM_DS3505
ZBYN,1983-12-24 08:00,ZBYN 240800Z AUTO 23010KT 7SM M03/M18 A3039 RMK T10301180 IEM_DS3505
ZBYN,1983-12-24 09:00,ZBYN 240900Z AUTO 20006KT 18SM M04/M17 A3039 RMK SLP349 T10441167 57009 IEM_DS3505
ZBYN,1983-12-24 11:00,ZBYN 241100Z AUTO 27008KT 7SM M11/M22 A3039 RMK T11101220 IEM_DS3505
ZBYN,1983-12-24 12:00,ZBYN 241200Z AUTO 29006KT 12SM M07/M19 RMK SLP371 T10701191 52013 IEM_DS3505
ZBYN,1983-12-24 15:00,ZBYN 241500Z AUTO 11002KT 12SM M09/M18 RMK SLP370 T10941183 52004 IEM_DS3505
ZBYN,1983-12-24 18:00,ZBYN 241800Z AUTO 14002KT 9SM M11/M17 RMK SLP353 T11131170 41024//// 57014 IEM_DS3505
ZBYN,1983-12-24 21:00,ZBYN 242100Z AUTO 00000KT 9SM M12/M16 RMK SLP343 T11201160 57010 IEM_DS3505
ZBYN,1983-12-25 00:00,ZBYN 250000Z AUTO 14004KT 9SM M12/M16 RMK SLP353 T11221160 52004 IEM_DS3505
ZBYN,1983-12-25 03:00,ZBYN 250300Z AUTO 14006KT 9SM M03/M16 RMK SLP340 T10321160 54000 IEM_DS3505
ZBYN,1983-12-25 06:00,ZBYN 250600Z AUTO 16006KT 11SM 01/M15 RMK SLP294 T00121154 4////1146 57037 IEM_DS3505
ZBYN,1983-12-25 09:00,ZBYN 250900Z AUTO 00000KT 16SM 00/M14 RMK SLP292 T00041141 57005 IEM_DS3505
ZBYN,1983-12-25 12:00,ZBYN 251200Z AUTO 00000KT 12SM M03/M12 RMK SLP317 T10331119 52017 IEM_DS3505
ZBYN,1983-12-25 15:00,ZBYN 251500Z AUTO 00000KT 12SM M07/M11 RMK SLP310 T10661114 52009 IEM_DS3505
ZBYN,1983-12-25 18:00,ZBYN 251800Z AUTO 00000KT 12SM M06/M11 RMK SLP301 T10641109 40019//// 57001 IEM_DS3505
ZBYN,1983-12-25 21:00,ZBYN 252100Z AUTO 32004KT 12SM M07/M14 RMK SLP305 T10691141 52002 IEM_DS3505
ZBYN,1983-12-26 00:00,ZBYN 260000Z AUTO 00000KT 7SM M09/M15 RMK SLP339 T10921147 52020 IEM_DS3505
ZBYN,1983-12-26 03:00,ZBYN 260300Z AUTO 32006KT 6SM M03/M15 RMK SLP341 T10311147 52007 IEM_DS3505
ZBYN,1983-12-26 06:00,ZBYN 260600Z AUTO 18004KT 9SM 00/M15 RMK SLP305 T00021147 4////1093 57026 IEM_DS3505
ZBYN,1983-12-26 09:00,ZBYN 260900Z AUTO 18004KT 11SM M01/M15 RMK SLP313 T10071147 52005 IEM_DS3505
ZBYN,1983-12-26 12:00,ZBYN 261200Z AUTO 32004KT 12SM M05/M15 RMK SLP344 T10471147 52017 IEM_DS3505
ZBYN,1983-12-26 15:00,ZBYN 261500Z AUTO 34006KT 9SM M04/M18 RMK SLP349 T10451183 52014 IEM_DS3505
ZBYN,1983-12-26 18:00,ZBYN 261800Z AUTO 20004KT 9SM M10/M16 RMK SLP355 T11051160 40008//// 52002 IEM_DS3505
ZBYN,1983-12-26 21:00,ZBYN 262100Z AUTO 00000KT 9SM M13/M16 RMK SLP365 T11291160 52003 IEM_DS3505
ZBYN,1983-12-27 00:00,ZBYN 270000Z AUTO 00000KT 5SM M14/M16 RMK SLP392 T11431160 52015 IEM_DS3505
ZBYN,1983-12-27 03:00,ZBYN 270300Z AUTO 00000KT 5SM M05/M15 A3047 RMK SLP388 T10461154 52014 IEM_DS3505
ZBYN,1983-12-27 04:00,ZBYN 270400Z AUTO 36008KT 7SM M02/M14 A3047 RMK T10201140 IEM_DS3505
ZBYN,1983-12-27 05:00,ZBYN 270500Z AUTO 36008KT 7SM M01/ A3047 RMK IEM_DS3505
ZBYN,1983-12-27 06:00,ZBYN 270600Z AUTO 02008KT 5SM M01/M18 A3047 RMK SLP368 T10141175 4////1144 57023 IEM_DS3505
ZBYN,1983-12-27 07:00,ZBYN 270700Z AUTO 36010KT 7SM 00/M16 A3047 RMK T00001160 IEM_DS3505
ZBYN,1983-12-27 08:00,ZBYN 270800Z AUTO 36010KT 6SM M01/M17 A3047 RMK T10101170 IEM_DS3505
ZBYN,1983-12-27 09:00,ZBYN 270900Z AUTO 02006KT 6SM M03/M21 A3050 RMK SLP400 T10291210 52022 IEM_DS3505
ZBYN,1983-12-27 12:00,ZBYN 271200Z AUTO 34006KT 9SM M06/M19 RMK SLP427 T10561191 52019 IEM_DS3505
ZBYN,1983-12-27 15:00,ZBYN 271500Z AUTO 34008KT 12SM M07/M19 RMK SLP422 T10741191 52009 IEM_DS3505
ZBYN,1983-12-27 18:00,ZBYN 271800Z AUTO 29004KT 12SM M11/M19 RMK SLP425 T11101190 41009//// 52002 IEM_DS3505
ZBYN,1983-12-27 21:00,ZBYN 272100Z AUTO 02004KT 7SM M13/M18 RMK SLP428 T11281180 57003 IEM_DS3505
ZBYN,1983-12-28 00:00,ZBYN 280000Z AUTO 32004KT 7SM M14/M18 RMK SLP434 T11381180 57001 IEM_DS3505
ZBYN,1983-12-28 03:00,ZBYN 280300Z AUTO 00000KT 4SM M06/M16 RMK SLP422 T10611160 57001 IEM_DS3505
ZBYN,1983-12-28 06:00,ZBYN 280600Z AUTO 29004KT 6SM M02/M19 RMK SLP383 T10151191 4////1149 57034 IEM_DS3505
ZBYN,1983-12-28 09:00,ZBYN 280900Z AUTO 00000KT 9SM M03/M21 RMK SLP375 T10311210 57013 IEM_DS3505
ZBYN,1983-12-28 12:00,ZBYN 281200Z AUTO 34002KT 9SM M07/M17 RMK SLP386 T10741167 52001 IEM_DS3505
ZBYN,1983-12-28 15:00,ZBYN 281500Z AUTO 00000KT 6SM M11/M16 RMK SLP389 T11081160 52010 IEM_DS3505
ZBYN,1983-12-28 18:00,ZBYN 281800Z AUTO 00000KT 6SM M11/M15 RMK SLP375 T11091150 41013//// 57004 IEM_DS3505
ZBYN,1983-12-28 21:00,ZBYN 282100Z AUTO 00000KT 6SM M12/M16 RMK SLP371 T11171160 57008 IEM_DS3505
ZBYN,1983-12-29 00:00,ZBYN 290000Z AUTO 32004KT 5SM M10/M15 RMK SLP375 T11021150 57002 IEM_DS3505
ZBYN,1983-12-29 03:00,ZBYN 290300Z AUTO 34004KT 6SM M06/M19 RMK SLP374 T10571191 52001 IEM_DS3505
ZBYN,1983-12-29 06:00,ZBYN 290600Z AUTO 02004KT 9SM M01/M18 RMK SLP331 T10061175 4////1124 57030 IEM_DS3505
ZBYN,1983-12-29 09:00,ZBYN 290900Z AUTO 16004KT 9SM M02/M18 RMK SLP324 T10241183 57010 IEM_DS3505
ZBYN,1983-12-29 12:00,ZBYN 291200Z AUTO 00000KT 7SM M08/M18 RMK SLP344 T10761175 52011 IEM_DS3505
ZBYN,1983-12-29 15:00,ZBYN 291500Z AUTO 00000KT 7SM M11/M15 RMK SLP352 T11121150 52009 IEM_DS3505
ZBYN,1983-12-29 18:00,ZBYN 291800Z AUTO 32004KT 9SM M12/M16 RMK SLP342 T11151160 41002//// 57001 IEM_DS3505
ZBYN,1983-12-29 21:00,ZBYN 292100Z AUTO 34004KT 9SM M12/M16 RMK SLP351 T11171160 52004 IEM_DS3505
ZBYN,1983-12-30 00:00,ZBYN 300000Z AUTO 36004KT 6SM M12/M16 RMK SLP368 T11221160 52007 IEM_DS3505
ZBYN,1983-12-30 03:00,ZBYN 300300Z AUTO 11004KT 4SM M07/M16 RMK SLP379 T10731160 52011 IEM_DS3505
ZBYN,1983-12-30 06:00,ZBYN 300600Z AUTO 00000KT 6SM M02/M17 RMK SLP338 T10221167 4////1131 57029 IEM_DS3505
ZBYN,1983-12-30 09:00,ZBYN 300900Z AUTO 22004KT 6SM M04/M17 RMK SLP342 T10361167 52001 IEM_DS3505
ZBYN,1983-12-30 12:00,ZBYN 301200Z AUTO 34004KT 6SM M06/M18 RMK SLP361 T10631175 52011 IEM_DS3505
ZBYN,1983-12-30 15:00,ZBYN 301500Z AUTO 00000KT 6SM M13/M17 RMK SLP373 T11291170 52009 IEM_DS3505
ZBYN,1983-12-30 18:00,ZBYN 301800Z AUTO 00000KT 6SM M14/M17 RMK SLP363 T11431170 41012//// 57003 IEM_DS3505
ZBYN,1983-12-30 21:00,ZBYN 302100Z AUTO 00000KT 6SM M15/M17 RMK SLP363 T11521170 57004 IEM_DS3505
