station,valid,metar
ZBYN,1996-01-01 00:00,ZBYN 010000Z AUTO 32004KT 6SM M08/M13 A3009 RMK SLP247 T10771129 57005 IEM_DS3505
ZBYN,1996-01-01 01:00,ZBYN 010100Z AUTO 00000KT 2 1/2SM M09/M14 A3009 RMK T10901140 IEM_DS3505
ZBYN,1996-01-01 02:00,ZBYN 010200Z AUTO 00000KT 2 1/2SM M05/M13 A3012 RMK T10501130 IEM_DS3505
ZBYN,1996-01-01 03:00,ZBYN 010300Z AUTO 11002KT 4SM M00/M11 A3009 RMK SLP245 T10011111 52006 IEM_DS3505
ZBYN,1996-01-01 04:00,ZBYN 010400Z AUTO 16004KT 2SM 05/M10 A3006 RMK T00501100 IEM_DS3505
ZBYN,1996-01-01 05:00,ZBYN 010500Z AUTO 18004KT 4SM 06/M11 A3000 RMK T00601110 IEM_DS3505
ZBYN,1996-01-01 06:00,ZBYN 010600Z AUTO 16006KT 5SM 07/M09 A2997 RMK SLP193 T00701094 57037 IEM_DS3505
ZBYN,1996-01-01 07:00,ZBYN 010700Z AUTO 21004KT 4SM 09/M11 A2994 RMK T00901110 IEM_DS3505
ZBYN,1996-01-01 08:00,ZBYN 010800Z AUTO 18008KT 5SM 08/M10 A2994 RMK T00801100 IEM_DS3505
ZBYN,1996-01-01 09:00,ZBYN 010900Z AUTO 07004KT 5SM 05/M13 A2994 RMK SLP190 T00491129 57009 IEM_DS3505
ZBYN,1996-01-01 10:00,ZBYN 011000Z AUTO 04002KT 2 1/2SM 02/M12 A2997 RMK T00201120 IEM_DS3505
ZBYN,1996-01-01 11:00,ZBYN 011100Z AUTO 00000KT 2 1/2SM 00/M12 A3000 RMK T00001120 IEM_DS3505
ZBYN,1996-01-01 12:00,ZBYN 011200Z AUTO 27002KT 6SM 01/M13 A3003 RMK SLP218 T00081134 52018 IEM_DS3505
ZBYN,1996-01-01 13:00,ZBYN 011300Z AUTO 00000KT 3SM 00/M16 A3006 RMK T00001160 IEM_DS3505
ZBYN,1996-01-01 14:00,ZBYN 011400Z AUTO 29008KT 4SM 03/M17 A3006 RMK T00301170 IEM_DS3505
ZBYN,1996-01-01 15:00,ZBYN 011500Z AUTO 32004KT 6SM 04/M11 A3006 RMK SLP211 T00401108 52012 IEM_DS3505
ZBYN,1996-01-01 16:00,ZBYN 011600Z AUTO 30006KT 6SM 04/M16 A3006 RMK T00401160 IEM_DS3505
ZBYN,1996-01-01 17:00,ZBYN 011700Z AUTO 27006KT 6SM 03/M15 A3006 RMK T00301150 IEM_DS3505
ZBYN,1996-01-01 18:00,ZBYN 011800Z AUTO 27002KT 6SM 03/M11 A3006 RMK SLP200 T00261112 57001 IEM_DS3505
ZBYN,1996-01-01 19:00,ZBYN 011900Z AUTO 31010KT 7SM 02/M16 A3006 RMK T00201160 IEM_DS3505
ZBYN,1996-01-01 20:00,ZBYN 012000Z AUTO 29006KT 7SM 01/M14 A3003 RMK T00101140 IEM_DS3505
ZBYN,1996-01-01 21:00,ZBYN 012100Z AUTO 27006KT 6SM 02/M11 A3006 RMK SLP205 T00181106 54000 IEM_DS3505
ZBYN,1996-01-01 22:00,ZBYN 012200Z AUTO 32017KT 7SM 02/M16 A3006 RMK T00201160 IEM_DS3505
ZBYN,1996-01-01 23:00,ZBYN 012300Z AUTO 32021KT 6SM 02/M13 A3006 RMK T00201130 IEM_DS3505
ZBYN,1996-01-02 00:00,ZBYN 020000Z AUTO 29014KT 6SM 02/M12 A3009 RMK SLP225 T00181118 52011 IEM_DS3505
ZBYN,1996-01-02 01:00,ZBYN 020100Z AUTO 28012KT 4SM 02/M10 A3012 RMK T00201100 IEM_DS3505
ZBYN,1996-01-02 02:00,ZBYN 020200Z AUTO 32016KT 6SM 03/M15 A3015 RMK T00301150 IEM_DS3505
ZBYN,1996-01-02 03:00,ZBYN 020300Z AUTO 29010KT 6SM 04/M13 A3015 RMK SLP239 T00401128 52022 IEM_DS3505
ZBYN,1996-01-02 04:00,ZBYN 020400Z AUTO 33008KT 6SM 04/M15 A3015 RMK T00401150 IEM_DS3505
ZBYN,1996-01-02 05:00,ZBYN 020500Z AUTO 31016KT 6SM 06/M18 A3012 RMK T00601180 IEM_DS3505
ZBYN,1996-01-02 06:00,ZBYN 020600Z AUTO 29017KT 6SM 06/M19 A3012 RMK SLP229 T00551192 57009 IEM_DS3505
ZBYN,1996-01-02 07:00,ZBYN 020700Z AUTO 31025KT 7SM 05/M20 A3012 RMK T00501200 IEM_DS3505
ZBYN,1996-01-02 08:00,ZBYN 020800Z AUTO 32019KT 7SM 04/M20 A3018 RMK T00401200 IEM_DS3505
ZBYN,1996-01-02 09:00,ZBYN 020900Z AUTO 32016KT 12SM 02/M19 A3021 RMK SLP261 T00221190 52022 IEM_DS3505
ZBYN,1996-01-02 10:00,ZBYN 021000Z AUTO 32014KT 7SM 01/M11 A3024 RMK T00101110 IEM_DS3505
ZBYN,1996-01-02 11:00,ZBYN 021100Z AUTO 30008KT 7SM M01/M12 A3027 RMK T10101120 IEM_DS3505
ZBYN,1996-01-02 12:00,ZBYN 021200Z AUTO 32004KT 12SM M03/M19 A3030 RMK SLP302 T10261190 52030 IEM_DS3505
ZBYN,1996-01-02 13:00,ZBYN 021300Z AUTO 32008KT 7SM M02/M16 A3030 RMK T10201160 IEM_DS3505
ZBYN,1996-01-02 14:00,ZBYN 021400Z AUTO 31008KT 7SM M03/M18 A3030 RMK T10301180 IEM_DS3505
ZBYN,1996-01-02 15:00,ZBYN 021500Z AUTO 00000KT 11SM M04/M20 A3030 RMK SLP305 T10411203 52004 IEM_DS3505
ZBYN,1996-01-02 16:00,ZBYN 021600Z AUTO 32008KT 7SM M05/M18 A3030 RMK T10501180 IEM_DS3505
ZBYN,1996-01-02 17:00,ZBYN 021700Z AUTO 31006KT 7SM M04/M18 A3030 RMK T10401180 IEM_DS3505
ZBYN,1996-01-02 18:00,ZBYN 021800Z AUTO 27008KT 7SM M06/M20 A3027 RMK SLP300 T10641195 57006 IEM_DS3505
ZBYN,1996-01-02 19:00,ZBYN 021900Z AUTO 32006KT 7SM M06/M18 A3027 RMK T10601180 IEM_DS3505
ZBYN,1996-01-02 20:00,ZBYN 022000Z AUTO 31004KT 7SM M07/M18 A3027 RMK T10701180 IEM_DS3505
ZBYN,1996-01-02 21:00,ZBYN 022100Z AUTO 00000KT 7SM M08/M12 A3027 RMK SLP306 T10781119 57003 IEM_DS3505
ZBYN,1996-01-02 22:00,ZBYN 022200Z AUTO 00000KT 7SM M11/M22 A3027 RMK T11101220 IEM_DS3505
ZBYN,1996-01-02 23:00,ZBYN 022300Z AUTO 00000KT 7SM M12/M22 A3027 RMK T11201220 IEM_DS3505
ZBYN,1996-01-03 00:00,ZBYN 030000Z AUTO 34004KT 6SM M09/M23 A3028 RMK SLP319 T10901228 52002 IEM_DS3505
ZBYN,1996-01-03 01:00,ZBYN 030100Z AUTO 00000KT 7SM M11/M21 A3027 RMK T11101210 IEM_DS3505
ZBYN,1996-01-03 02:00,ZBYN 030200Z AUTO 00000KT 7SM M07/M21 A3027 RMK T10701210 IEM_DS3505
ZBYN,1996-01-03 03:00,ZBYN 030300Z AUTO 32002KT 9SM M04/M25 A3027 RMK SLP307 T10441247 57006 IEM_DS3505
ZBYN,1996-01-03 04:00,ZBYN 030400Z AUTO 00000KT 7SM 00/M22 A3021 RMK T00001220 IEM_DS3505
ZBYN,1996-01-03 05:00,ZBYN 030500Z AUTO 22006KT 7SM 01/M20 A3015 RMK T00101200 IEM_DS3505
ZBYN,1996-01-03 06:00,ZBYN 030600Z AUTO 16004KT 9SM 01/M19 A3014 RMK SLP257 T00111188 57040 IEM_DS3505
ZBYN,1996-01-03 07:00,ZBYN 030700Z AUTO 00000KT 7SM 02/M16 A3009 RMK T00201160 IEM_DS3505
ZBYN,1996-01-03 08:00,ZBYN 030800Z AUTO 00000KT 7SM 04/M14 A3006 RMK T00401140 IEM_DS3505
ZBYN,1996-01-03 09:00,ZBYN 030900Z AUTO 32004KT 6SM 01/M16 A3006 RMK SLP242 T00131156 57015 IEM_DS3505
ZBYN,1996-01-03 10:00,ZBYN 031000Z AUTO 00000KT 7SM M01/M15 A3006 RMK T10101150 IEM_DS3505
ZBYN,1996-01-03 11:00,ZBYN 031100Z AUTO 00000KT 7SM M03/M15 A3006 RMK T10301150 IEM_DS3505
ZBYN,1996-01-03 12:00,ZBYN 031200Z AUTO 00000KT 6SM M04/M16 A3009 RMK SLP248 T10361157 57005 IEM_DS3505
ZBYN,1996-01-03 13:00,ZBYN 031300Z AUTO 00000KT 7SM M05/M17 A3006 RMK T10501170 IEM_DS3505
ZBYN,1996-01-03 14:00,ZBYN 031400Z AUTO 00000KT 7SM M07/M18 A3006 RMK T10701180 IEM_DS3505
ZBYN,1996-01-03 15:00,ZBYN 031500Z AUTO 00000KT 6SM M05/M18 A3006 RMK SLP232 T10491185 57009 IEM_DS3505
ZBYN,1996-01-03 16:00,ZBYN 031600Z AUTO 00000KT 7SM M08/M16 A3003 RMK T10801160 IEM_DS3505
ZBYN,1996-01-03 17:00,ZBYN 031700Z AUTO 00000KT 7SM M08/M16 A3003 RMK T10801160 IEM_DS3505
ZBYN,1996-01-03 18:00,ZBYN 031800Z AUTO 34004KT 6SM M06/M20 A3000 RMK SLP213 T10601203 57010 IEM_DS3505
ZBYN,1996-01-03 19:00,ZBYN 031900Z AUTO 00000KT 7SM M09/M16 A3000 RMK T10901160 IEM_DS3505
ZBYN,1996-01-03 20:00,ZBYN 032000Z AUTO 00000KT 7SM M10/M16 A2997 RMK T11001160 IEM_DS3505
ZBYN,1996-01-03 21:00,ZBYN 032100Z AUTO 34004KT 6SM M07/M20 A2997 RMK SLP202 T10691196 57011 IEM_DS3505
ZBYN,1996-01-03 22:00,ZBYN 032200Z AUTO 00000KT 7SM M10/M17 A2997 RMK T11001170 IEM_DS3505
ZBYN,1996-01-03 23:00,ZBYN 032300Z AUTO 00000KT 7SM M11/M17 A2997 RMK T11101170 IEM_DS3505
ZBYN,1996-01-04 00:00,ZBYN 040000Z AUTO 34004KT 6SM M07/M18 A2997 RMK SLP213 T10711176 52001 IEM_DS3505
ZBYN,1996-01-04 01:00,ZBYN 040100Z AUTO 00000KT 4SM M09/M16 A2997 RMK T10901160 IEM_DS3505
ZBYN,1996-01-04 02:00,ZBYN 040200Z AUTO 00000KT 4SM M05/M15 A3000 RMK T10501150 IEM_DS3505
ZBYN,1996-01-04 03:00,ZBYN 040300Z AUTO 14004KT 6SM M03/M16 A3000 RMK SLP213 T10261156 52006 IEM_DS3505
ZBYN,1996-01-04 04:00,ZBYN 040400Z AUTO 23006KT 3SM 00/M14 A2997 RMK T00001140 IEM_DS3505
ZBYN,1996-01-04 05:00,ZBYN 040500Z AUTO 00000KT 3SM 02/M14 A2991 RMK T00201140 IEM_DS3505
ZBYN,1996-01-04 06:00,ZBYN 040600Z AUTO 16004KT 6SM 03/M15 A2988 RMK SLP175 T00271147 57028 IEM_DS3505
ZBYN,1996-01-04 07:00,ZBYN 040700Z AUTO 00000KT 4SM 04/M13 A2988 RMK T00401130 IEM_DS3505
ZBYN,1996-01-04 08:00,ZBYN 040800Z AUTO 00000KT 3SM 04/M12 A2988 RMK T00401120 IEM_DS3505
ZBYN,1996-01-04 09:00,ZBYN 040900Z AUTO 32004KT 6SM 01/M12 A2988 RMK SLP178 T00131122 57001 IEM_DS3505
ZBYN,1996-01-04 10:00,ZBYN 041000Z AUTO 22006KT 1 1/4SM 00/M13 A2994 RMK T00001130 IEM_DS3505
ZBYN,1996-01-04 11:00,ZBYN 041100Z AUTO 25004KT 1SM M01/M13 A2997 RMK T10101130 IEM_DS3505
ZBYN,1996-01-04 12:00,ZBYN 041200Z AUTO 18002KT 4SM M04/M14 A3000 RMK SLP214 T10361137 52024 IEM_DS3505
ZBYN,1996-01-04 13:00,ZBYN 041300Z AUTO 12002KT 2SM M06/M14 A3000 RMK T10601140 IEM_DS3505
ZBYN,1996-01-04 14:00,ZBYN 041400Z AUTO 09006KT 2 1/2SM M06/M15 A3003 RMK T10601150 IEM_DS3505
ZBYN,1996-01-04 15:00,ZBYN 041500Z AUTO 00000KT 4SM M06/M14 A3003 RMK SLP229 T10611144 52017 IEM_DS3505
ZBYN,1996-01-04 16:00,ZBYN 041600Z AUTO 11006KT 4SM M07/M14 A3006 RMK T10701140 IEM_DS3505
ZBYN,1996-01-04 17:00,ZBYN 041700Z AUTO 11006KT 4SM M07/M15 A3006 RMK T10701150 IEM_DS3505
ZBYN,1996-01-04 18:00,ZBYN 041800Z AUTO 00000KT 5SM M08/M14 A3006 RMK SLP228 T10771140 52006 IEM_DS3505
ZBYN,1996-01-04 19:00,ZBYN 041900Z AUTO 00000KT 4SM M08/M14 A3006 RMK T10801140 IEM_DS3505
ZBYN,1996-01-04 20:00,ZBYN 042000Z AUTO 00000KT 4SM M09/M16 A3009 RMK T10901160 IEM_DS3505
ZBYN,1996-01-04 21:00,ZBYN 042100Z AUTO 07004KT 5SM M08/M12 A3009 RMK SLP239 T10821120 52006 IEM_DS3505
ZBYN,1996-01-04 22:00,ZBYN 042200Z AUTO 00000KT 4SM M10/M15 A3009 RMK T11001150 IEM_DS3505
ZBYN,1996-01-04 23:00,ZBYN 042300Z AUTO 09004KT 4SM M11/M17 A3012 RMK T11101170 IEM_DS3505
ZBYN,1996-01-05 00:00,ZBYN 050000Z AUTO 00000KT 5SM M11/M12 A3012 RMK SLP269 T11061125 52015 IEM_DS3505
ZBYN,1996-01-05 01:00,ZBYN 050100Z AUTO 00000KT 4SM M08/M14 A3015 RMK T10801140 IEM_DS3505
ZBYN,1996-01-05 03:00,ZBYN 050300Z AUTO 00000KT 5SM M00/M13 RMK SLP264 T10021131 52009 IEM_DS3505
ZBYN,1996-01-05 06:00,ZBYN 050600Z AUTO 18008KT 6SM 05/M16 A3010 RMK SLP237 T00501163 57018 IEM_DS3505
ZBYN,1996-01-05 07:00,ZBYN 050700Z AUTO 24006KT 5SM 05/M14 A3006 RMK T00501140 IEM_DS3505
ZBYN,1996-01-05 09:00,ZBYN 050900Z AUTO 11002KT 6SM 04/M13 RMK SLP230 T00391128 57009 IEM_DS3505
ZBYN,1996-01-05 10:00,ZBYN 051000Z AUTO 00000KT 5SM 01/M10 A3009 RMK T00101100 IEM_DS3505
ZBYN,1996-01-05 11:00,ZBYN 051100Z AUTO 00000KT 5SM RMK IEM_DS3505
ZBYN,1996-01-05 12:00,ZBYN 051200Z AUTO 07002KT 6SM M04/M12 A3011 RMK SLP265 T10371116 52014 IEM_DS3505
ZBYN,1996-01-05 14:00,ZBYN 051400Z AUTO 00000KT 6SM M05/M14 A3015 RMK T10501140 IEM_DS3505
ZBYN,1996-01-05 15:00,ZBYN 051500Z AUTO 00000KT 6SM M05/M12 RMK SLP258 T10471116 52010 IEM_DS3505
ZBYN,1996-01-05 16:00,ZBYN 051600Z AUTO 12004KT 6SM M05/M14 A3015 RMK T10501140 IEM_DS3505
ZBYN,1996-01-05 17:00,ZBYN 051700Z AUTO 11004KT 6SM M06/M14 A3015 RMK T10601140 IEM_DS3505
ZBYN,1996-01-05 18:00,ZBYN 051800Z AUTO 00000KT 6SM M06/M14 A3015 RMK SLP252 T10591135 52001 IEM_DS3505
ZBYN,1996-01-05 19:00,ZBYN 051900Z AUTO 00000KT 5SM M07/M15 A3015 RMK T10701150 IEM_DS3505
ZBYN,1996-01-05 20:00,ZBYN 052000Z AUTO 02002KT 5SM M07/M14 A3012 RMK T10701140 IEM_DS3505
ZBYN,1996-01-05 21:00,ZBYN 052100Z AUTO 34004KT 6SM M05/M14 A3012 RMK SLP249 T10521142 57003 IEM_DS3505
ZBYN,1996-01-06 00:00,ZBYN 060000Z AUTO 14002KT 5SM M09/M14 A3016 RMK SLP278 T10881139 52007 IEM_DS3505
ZBYN,1996-01-06 01:00,ZBYN 060100Z AUTO 00000KT 2 1/2SM M08/M16 A3015 RMK T10801160 IEM_DS3505
ZBYN,1996-01-06 03:00,ZBYN 060300Z AUTO 36002KT 4SM M01/M10 A3012 RMK SLP255 T10091100 57009 IEM_DS3505
ZBYN,1996-01-06 04:00,ZBYN 060400Z AUTO 00000KT 4SM 03/M12 A3009 RMK T00301120 IEM_DS3505
ZBYN,1996-01-06 06:00,ZBYN 060600Z AUTO 14008KT 5SM 06/M16 A3000 RMK SLP206 T00621159 57035 IEM_DS3505
ZBYN,1996-01-06 07:00,ZBYN 060700Z AUTO 25004KT 5SM 07/M14 A2997 RMK T00701140 IEM_DS3505
ZBYN,1996-01-06 08:00,ZBYN 060800Z AUTO 00000KT 5SM 08/M12 A2997 RMK T00801120 IEM_DS3505
ZBYN,1996-01-06 09:00,ZBYN 060900Z AUTO 14008KT 6SM 04/M15 A2997 RMK SLP196 T00451146 57010 IEM_DS3505
ZBYN,1996-01-06 10:00,ZBYN 061000Z AUTO 12006KT 4SM 00/M12 A2997 RMK T00001120 IEM_DS3505
ZBYN,1996-01-06 12:00,ZBYN 061200Z AUTO 34002KT 6SM 01/M12 A3004 RMK SLP230 T00061119 52018 IEM_DS3505
ZBYN,1996-01-06 13:00,ZBYN 061300Z AUTO 13006KT 4SM M04/M13 A3006 RMK T10401130 IEM_DS3505
ZBYN,1996-01-06 14:00,ZBYN 061400Z AUTO 00000KT 4SM M02/M13 A3006 RMK T10201130 IEM_DS3505
ZBYN,1996-01-06 15:00,ZBYN 061500Z AUTO 00000KT 6SM M03/M12 A3009 RMK SLP235 T10311122 52012 IEM_DS3505
ZBYN,1996-01-06 16:00,ZBYN 061600Z AUTO 00000KT 4SM M04/M12 A3009 RMK T10401120 IEM_DS3505
ZBYN,1996-01-06 17:00,ZBYN 061700Z AUTO 00000KT 4SM M05/M13 A3012 RMK T10501130 IEM_DS3505
ZBYN,1996-01-06 18:00,ZBYN 061800Z AUTO 14002KT 6SM M05/M12 A3015 RMK SLP243 T10511123 52015 IEM_DS3505
ZBYN,1996-01-06 19:00,ZBYN 061900Z AUTO 00000KT 4SM M05/M11 A3018 RMK T10501110 IEM_DS3505
ZBYN,1996-01-06 21:00,ZBYN 062100Z AUTO 34008KT 6SM 02/M14 RMK SLP264 T00161142 52027 IEM_DS3505
ZBYN,1996-01-06 23:00,ZBYN 062300Z AUTO 31016KT 6SM 00/M14 A3033 RMK T00001140 IEM_DS3505
ZBYN,1996-01-07 00:00,ZBYN 070000Z AUTO 32010KT 6SM M01/M15 A3033 RMK SLP320 T10101150 52041 IEM_DS3505
ZBYN,1996-01-07 01:00,ZBYN 070100Z AUTO 32016KT 6SM M02/M18 A3039 RMK T10201180 IEM_DS3505
ZBYN,1996-01-07 02:00,ZBYN 070200Z AUTO 31016KT 6SM M02/M20 A3042 RMK T10201200 IEM_DS3505
ZBYN,1996-01-07 03:00,ZBYN 070300Z AUTO 29016KT 6SM M02/M19 A3045 RMK SLP370 T10151187 52038 IEM_DS3505
ZBYN,1996-01-07 06:00,ZBYN 070600Z AUTO 29023KT 6SM M02/M20 A3047 RMK SLP375 T10161200 4////1059 52001 IEM_DS3505
ZBYN,1996-01-07 07:00,ZBYN 070700Z AUTO 31019G29KT 7SM M02/M18 A3047 RMK T10201180 IEM_DS3505
ZBYN,1996-01-07 08:00,ZBYN 070800Z AUTO 31027KT 7SM M03/M19 A3050 RMK T10301190 IEM_DS3505
ZBYN,1996-01-07 09:00,ZBYN 070900Z AUTO 32016KT 6SM M04/M25 A3056 RMK SLP398 T10411252 52028 IEM_DS3505
ZBYN,1996-01-07 10:00,ZBYN 071000Z AUTO 34016KT 7SM M05/M24 A3059 RMK T10501240 IEM_DS3505
ZBYN,1996-01-07 12:00,ZBYN 071200Z AUTO 32010KT 6SM M06/M22 A3065 RMK SLP439 T10641217 52029 IEM_DS3505
ZBYN,1996-01-07 14:00,ZBYN 071400Z AUTO 32012KT 7SM M07/M22 A3068 RMK T10701220 IEM_DS3505
ZBYN,1996-01-07 15:00,ZBYN 071500Z AUTO 36006KT 6SM M07/M22 A3071 RMK SLP455 T10721217 52012 IEM_DS3505
ZBYN,1996-01-07 16:00,ZBYN 071600Z AUTO 03008KT 7SM M09/M16 A3071 RMK T10901160 IEM_DS3505
ZBYN,1996-01-07 17:00,ZBYN 071700Z AUTO 33006KT 7SM M10/M22 A3074 RMK T11001220 IEM_DS3505
ZBYN,1996-01-07 18:00,ZBYN 071800Z AUTO 02006KT 6SM M10/M23 A3074 RMK SLP475 T11031232 52013 IEM_DS3505
ZBYN,1996-01-07 19:00,ZBYN 071900Z AUTO 00000KT 7SM M12/M23 A3074 RMK T11201230 IEM_DS3505
ZBYN,1996-01-07 20:00,ZBYN 072000Z AUTO 00000KT 7SM M13/M23 A3074 RMK T11301230 IEM_DS3505
ZBYN,1996-01-07 21:00,ZBYN 072100Z AUTO 02006KT 19SM M12/M24 A3074 RMK SLP484 T11191240 52001 IEM_DS3505
ZBYN,1996-01-07 22:00,ZBYN 072200Z AUTO 01006KT 7SM M13/M23 A3071 RMK T11301230 IEM_DS3505
ZBYN,1996-01-08 00:00,ZBYN 080000Z AUTO 22004KT 6SM M16/M25 A3071 RMK SLP491 T11561251 57005 IEM_DS3505
ZBYN,1996-01-08 01:00,ZBYN 080100Z AUTO 00000KT 7SM M16/M25 A3074 RMK T11601250 IEM_DS3505
ZBYN,1996-01-08 03:00,ZBYN 080300Z AUTO 14004KT 6SM M09/M23 A3071 RMK SLP476 T10901230 57003 IEM_DS3505
ZBYN,1996-01-08 04:00,ZBYN 080400Z AUTO 21008KT 7SM M08/M27 A3068 RMK T10801270 IEM_DS3505
ZBYN,1996-01-08 06:00,ZBYN 080600Z AUTO 20010KT 6SM M06/M28 A3056 RMK SLP427 T10591280 57044 IEM_DS3505
ZBYN,1996-01-08 08:00,ZBYN 080800Z AUTO 24002KT 7SM M04/M25 A3050 RMK T10401250 IEM_DS3505
ZBYN,1996-01-08 09:00,ZBYN 080900Z AUTO 16006KT 6SM M06/M19 A3047 RMK SLP400 T10571188 57027 IEM_DS3505
ZBYN,1996-01-08 11:00,ZBYN 081100Z AUTO 09006KT 7SM M12/M27 A3047 RMK T11201270 IEM_DS3505
ZBYN,1996-01-08 12:00,ZBYN 081200Z AUTO 29002KT 6SM M11/M25 A3045 RMK SLP410 T11081250 57007 IEM_DS3505
ZBYN,1996-01-08 14:00,ZBYN 081400Z AUTO 00000KT 7SM M14/M25 A3045 RMK T11401250 IEM_DS3505
ZBYN,1996-01-08 15:00,ZBYN 081500Z AUTO 34004KT 6SM M11/M24 A3042 RMK SLP388 T11121236 57009 IEM_DS3505
ZBYN,1996-01-08 16:00,ZBYN 081600Z AUTO 10004KT 7SM M15/M25 A3042 RMK T11501250 IEM_DS3505
ZBYN,1996-01-08 17:00,ZBYN 081700Z AUTO 00000KT 7SM M15/M25 A3039 RMK T11501250 IEM_DS3505
ZBYN,1996-01-08 18:00,ZBYN 081800Z AUTO 34002KT 6SM M14/M25 A3039 RMK SLP371 T11441253 57015 IEM_DS3505
ZBYN,1996-01-08 19:00,ZBYN 081900Z AUTO 00000KT 7SM M17/M27 A3036 RMK T11701270 IEM_DS3505
ZBYN,1996-01-08 20:00,ZBYN 082000Z AUTO 00000KT 7SM M17/M27 A3033 RMK T11701270 IEM_DS3505
ZBYN,1996-01-08 21:00,ZBYN 082100Z AUTO 00000KT 6SM M16/M23 A3033 RMK SLP350 T11561230 57021 IEM_DS3505
ZBYN,1996-01-08 22:00,ZBYN 082200Z AUTO 14004KT 7SM M18/M27 A3033 RMK T11801270 IEM_DS3505
ZBYN,1996-01-08 23:00,ZBYN 082300Z AUTO 00000KT 7SM M18/M27 A3030 RMK T11801270 IEM_DS3505
ZBYN,1996-01-09 00:00,ZBYN 090000Z AUTO 34002KT 6SM M14/M24 A3030 RMK SLP350 T11451241 57007 IEM_DS3505
ZBYN,1996-01-09 01:00,ZBYN 090100Z AUTO 00000KT 5SM M17/M25 A3033 RMK T11701250 IEM_DS3505
ZBYN,1996-01-09 02:00,ZBYN 090200Z AUTO 00000KT 5SM M12/M21 A3033 RMK T11201210 IEM_DS3505
ZBYN,1996-01-09 03:00,ZBYN 090300Z AUTO 14004KT 6SM M07/M26 A3030 RMK SLP338 T10701257 52002 IEM_DS3505
ZBYN,1996-01-09 04:00,ZBYN 090400Z AUTO 00000KT 5SM M06/M28 A3027 RMK T10601280 IEM_DS3505
ZBYN,1996-01-09 06:00,ZBYN 090600Z AUTO 16004KT 6SM M02/M22 A3018 RMK SLP302 T10221217 57030 IEM_DS3505
ZBYN,1996-01-09 07:00,ZBYN 090700Z AUTO 00000KT 7SM M01/M27 A3018 RMK T10101270 IEM_DS3505
ZBYN,1996-01-09 09:00,ZBYN 090900Z AUTO 27002KT 6SM M03/M22 RMK SLP297 T10281215 57008 IEM_DS3505
ZBYN,1996-01-09 10:00,ZBYN 091000Z AUTO 00000KT 7SM M05/M24 A3018 RMK T10501240 IEM_DS3505
ZBYN,1996-01-09 12:00,ZBYN 091200Z AUTO 00000KT 6SM M08/M19 A3018 RMK SLP308 T10801186 52003 IEM_DS3505
ZBYN,1996-01-09 13:00,ZBYN 091300Z AUTO 00000KT 6SM M10/M24 A3021 RMK T11001240 IEM_DS3505
ZBYN,1996-01-09 14:00,ZBYN 091400Z AUTO 00000KT 6SM M11/M24 A3021 RMK T11101240 IEM_DS3505
ZBYN,1996-01-09 15:00,ZBYN 091500Z AUTO 00000KT 6SM M11/M21 A3021 RMK SLP304 T11121210 52004 IEM_DS3505
ZBYN,1996-01-09 16:00,ZBYN 091600Z AUTO 00000KT 6SM M12/M24 A3021 RMK T11201240 IEM_DS3505
ZBYN,1996-01-09 18:00,ZBYN 091800Z AUTO 00000KT 6SM M13/M22 A3022 RMK SLP302 T11271224 52004 IEM_DS3505
ZBYN,1996-01-09 21:00,ZBYN 092100Z AUTO 34004KT 6SM M13/M20 RMK SLP307 T11341205 52002 IEM_DS3505
ZBYN,1996-01-10 00:00,ZBYN 100000Z AUTO 00000KT 5SM M15/M21 A3024 RMK SLP328 T11541212 52006 IEM_DS3505
ZBYN,1996-01-10 02:00,ZBYN 100200Z AUTO 00000KT 2 1/2SM M10/M20 A3027 RMK T11001200 IEM_DS3505
ZBYN,1996-01-10 03:00,ZBYN 100300Z AUTO 00000KT 5SM M05/M17 A3027 RMK SLP324 T10521173 52009 IEM_DS3505
ZBYN,1996-01-10 04:00,ZBYN 100400Z AUTO 00000KT 2 1/2SM M03/M23 A3027 RMK T10301230 IEM_DS3505
ZBYN,1996-01-10 06:00,ZBYN 100600Z AUTO 16006KT 5SM 01/M21 A3021 RMK SLP294 T00121206 57019 IEM_DS3505
ZBYN,1996-01-10 07:00,ZBYN 100700Z AUTO 21004KT 2SM 03/M19 A3018 RMK T00301190 IEM_DS3505
ZBYN,1996-01-10 08:00,ZBYN 100800Z AUTO 00000KT 2SM 03/M18 A3018 RMK T00301180 IEM_DS3505
ZBYN,1996-01-10 09:00,ZBYN 100900Z AUTO 00000KT 5SM 00/M22 A3018 RMK SLP289 T00021222 57002 IEM_DS3505
ZBYN,1996-01-10 12:00,ZBYN 101200Z AUTO 34002KT 6SM M05/M14 A3021 RMK SLP311 T10471145 52008 IEM_DS3505
ZBYN,1996-01-10 13:00,ZBYN 101300Z AUTO 00000KT 4SM M10/M23 A3021 RMK T11001230 IEM_DS3505
ZBYN,1996-01-10 14:00,ZBYN 101400Z AUTO 00000KT 7SM M10/M20 A3024 RMK T11001200 IEM_DS3505
ZBYN,1996-01-10 15:00,ZBYN 101500Z AUTO 36002KT 6SM M08/M18 A3024 RMK SLP301 T10771181 52003 IEM_DS3505
ZBYN,1996-01-10 16:00,ZBYN 101600Z AUTO 00000KT 7SM M12/M23 A3021 RMK T11201230 IEM_DS3505
ZBYN,1996-01-10 17:00,ZBYN 101700Z AUTO 00000KT 7SM M12/M23 A3021 RMK T11201230 IEM_DS3505
ZBYN,1996-01-10 18:00,ZBYN 101800Z AUTO 20002KT 6SM M12/M23 A3024 RMK SLP298 T11191231 52001 IEM_DS3505
ZBYN,1996-01-10 19:00,ZBYN 101900Z AUTO 00000KT 7SM M12/M23 A3024 RMK T11201230 IEM_DS3505
ZBYN,1996-01-10 20:00,ZBYN 102000Z AUTO 00000KT 7SM M12/M23 A3024 RMK T11201230 IEM_DS3505
ZBYN,1996-01-10 21:00,ZBYN 102100Z AUTO 00000KT 6SM M13/M22 A3021 RMK SLP301 T11331222 IEM_DS3505
ZBYN,1996-01-10 22:00,ZBYN 102200Z AUTO 00000KT 7SM M14/M23 A3021 RMK T11401230 IEM_DS3505
ZBYN,1996-01-10 23:00,ZBYN 102300Z AUTO 08004KT 7SM M13/M23 A3024 RMK T11301230 IEM_DS3505
ZBYN,1996-01-11 00:00,ZBYN 110000Z AUTO 00000KT 6SM M13/M21 A3024 RMK SLP311 T11281211 52001 IEM_DS3505
ZBYN,1996-01-11 01:00,ZBYN 110100Z AUTO 00000KT 3SM M13/M22 A3024 RMK T11301220 IEM_DS3505
ZBYN,1996-01-11 03:00,ZBYN 110300Z AUTO 34006KT 5SM M00/M19 RMK SLP302 T10021193 52009 IEM_DS3505
ZBYN,1996-01-11 04:00,ZBYN 110400Z AUTO 03006KT 2 1/2SM 02/M25 A3021 RMK T00201250 IEM_DS3505
ZBYN,1996-01-11 05:00,ZBYN 110500Z AUTO 33004KT 2SM 04/M19 A3018 RMK T00401190 IEM_DS3505
ZBYN,1996-01-11 06:00,ZBYN 110600Z AUTO 32006KT 6SM 05/M19 A3015 RMK SLP274 T00511191 57024 IEM_DS3505
ZBYN,1996-01-11 07:00,ZBYN 110700Z AUTO 12010KT 6SM 09/M20 A3015 RMK T00901200 IEM_DS3505
ZBYN,1996-01-11 08:00,ZBYN 110800Z AUTO 10010KT 6SM 07/M18 A3015 RMK T00701180 IEM_DS3505
ZBYN,1996-01-11 09:00,ZBYN 110900Z AUTO 00000KT 6SM 06/M16 A3018 RMK SLP279 T00551165 52003 IEM_DS3505
ZBYN,1996-01-11 10:00,ZBYN 111000Z AUTO 09012KT 6SM 03/M22 A3021 RMK T00301220 IEM_DS3505
ZBYN,1996-01-11 11:00,ZBYN 111100Z AUTO 09012KT 7SM 01/M23 A3024 RMK T00101230 IEM_DS3505
ZBYN,1996-01-11 12:00,ZBYN 111200Z AUTO 07002KT 6SM 02/M20 A3027 RMK SLP313 T00211205 52026 IEM_DS3505
ZBYN,1996-01-11 13:00,ZBYN 111300Z AUTO 09016KT 7SM M01/M23 A3030 RMK T10101230 IEM_DS3505
ZBYN,1996-01-11 14:00,ZBYN 111400Z AUTO 09017KT 7SM M02/M21 A3033 RMK T10201210 IEM_DS3505
ZBYN,1996-01-11 15:00,ZBYN 111500Z AUTO 36006KT 6SM M00/M22 A3033 RMK SLP319 T10051215 52022 IEM_DS3505
ZBYN,1996-01-11 16:00,ZBYN 111600Z AUTO 10016KT 7SM M04/M24 A3036 RMK T10401240 IEM_DS3505
ZBYN,1996-01-11 18:00,ZBYN 111800Z AUTO 36004KT 6SM M05/M22 A3039 RMK SLP337 T10531217 52017 IEM_DS3505
ZBYN,1996-01-11 19:00,ZBYN 111900Z AUTO 12010KT 7SM M06/M27 A3042 RMK T10601270 IEM_DS3505
ZBYN,1996-01-11 20:00,ZBYN 112000Z AUTO 08012KT 7SM M06/M27 A3042 RMK T10601270 IEM_DS3505
ZBYN,1996-01-11 21:00,ZBYN 112100Z AUTO 00000KT 6SM M07/M21 A3042 RMK SLP343 T10731208 52003 IEM_DS3505
ZBYN,1996-01-11 22:00,ZBYN 112200Z AUTO 09006KT 6SM M06/M18 A3042 RMK T10601180 IEM_DS3505
ZBYN,1996-01-12 00:00,ZBYN 120000Z AUTO 34004KT 6SM M08/M19 A3042 RMK SLP356 T10791194 52005 IEM_DS3505
ZBYN,1996-01-12 01:00,ZBYN 120100Z AUTO 00000KT 4SM M08/M16 A3045 RMK T10801160 IEM_DS3505
ZBYN,1996-01-12 03:00,ZBYN 120300Z AUTO 36006KT 5SM M03/M16 A3045 RMK SLP357 T10271160 52006 IEM_DS3505
ZBYN,1996-01-12 04:00,ZBYN 120400Z AUTO 00000KT 4SM M01/M17 A3042 RMK T10101170 IEM_DS3505
ZBYN,1996-01-12 05:00,ZBYN 120500Z AUTO 00000KT 4SM 00/M18 A3039 RMK T00001180 IEM_DS3505
ZBYN,1996-01-12 06:00,ZBYN 120600Z AUTO 25002KT 5SM 02/M20 A3036 RMK SLP329 T00191203 57026 IEM_DS3505
ZBYN,1996-01-12 07:00,ZBYN 120700Z AUTO 00000KT 5SM 02/M19 A3033 RMK T00201190 IEM_DS3505
ZBYN,1996-01-12 08:00,ZBYN 120800Z AUTO 00000KT 6SM 01/M20 A3033 RMK T00101200 IEM_DS3505
ZBYN,1996-01-12 09:00,ZBYN 120900Z AUTO 20006KT 5SM 01/M19 A3033 RMK SLP325 T00091187 57009 IEM_DS3505
ZBYN,1996-01-12 10:00,ZBYN 121000Z AUTO 23004KT 4SM M01/M17 A3036 RMK T10101170 IEM_DS3505
ZBYN,1996-01-12 11:00,ZBYN 121100Z AUTO 21004KT 4SM M02/M16 A3039 RMK T10201160 IEM_DS3505
ZBYN,1996-01-12 12:00,ZBYN 121200Z AUTO 18006KT 6SM M02/M16 A3039 RMK SLP349 T10201159 52016 IEM_DS3505
ZBYN,1996-01-12 13:00,ZBYN 121300Z AUTO 14004KT 4SM M04/M15 A3039 RMK T10401150 IEM_DS3505
ZBYN,1996-01-12 14:00,ZBYN 121400Z AUTO 00000KT 4SM M03/M16 A3039 RMK T10301160 IEM_DS3505
ZBYN,1996-01-12 15:00,ZBYN 121500Z AUTO 14008KT 6SM M03/M16 A3039 RMK SLP341 T10281155 54000 IEM_DS3505
ZBYN,1996-01-12 16:00,ZBYN 121600Z AUTO 12006KT 4SM M04/M13 A3036 RMK T10401130 IEM_DS3505
ZBYN,1996-01-12 17:00,ZBYN 121700Z AUTO 00000KT 4SM M04/M14 A3036 RMK T10401140 IEM_DS3505
ZBYN,1996-01-12 18:00,ZBYN 121800Z AUTO 16006KT 6SM M04/M15 A3033 RMK SLP322 T10421149 57012 IEM_DS3505
ZBYN,1996-01-12 19:00,ZBYN 121900Z AUTO 16006KT 4SM M05/M12 A3033 RMK T10501120 IEM_DS3505
ZBYN,1996-01-12 20:00,ZBYN 122000Z AUTO 14004KT 4SM M05/M12 A3030 RMK T10501120 IEM_DS3505
ZBYN,1996-01-12 21:00,ZBYN 122100Z AUTO 11008KT 6SM M06/M14 RMK SLP285 T10601137 57038 IEM_DS3505
ZBYN,1996-01-12 22:00,ZBYN 122200Z AUTO 10004KT 2 1/2SM M07/M11 A3027 RMK T10701110 IEM_DS3505
ZBYN,1996-01-12 23:00,ZBYN 122300Z AUTO 09004KT 2 1/2SM M07/M12 A3027 RMK T10701120 IEM_DS3505
ZBYN,1996-01-13 00:00,ZBYN 130000Z AUTO 11002KT 5SM M07/M11 A3030 RMK SLP320 T10691108 57005 IEM_DS3505
ZBYN,1996-01-13 01:00,ZBYN 130100Z AUTO 00000KT 1 1/4SM M06/M11 A3030 RMK T10601110 IEM_DS3505
ZBYN,1996-01-13 02:00,ZBYN 130200Z AUTO 00000KT 1 1/4SM M04/M10 A3030 RMK T10401100 IEM_DS3505
ZBYN,1996-01-13 03:00,ZBYN 130300Z AUTO 14004KT 5SM M03/M09 A3030 RMK SLP307 T10331091 57007 IEM_DS3505
ZBYN,1996-01-13 04:00,ZBYN 130400Z AUTO 00000KT 1 1/4SM M03/M09 A3027 RMK T10301090 IEM_DS3505
ZBYN,1996-01-13 05:00,ZBYN 130500Z AUTO 00000KT 1SM M03/M06 A3021 RMK T10301060 IEM_DS3505
ZBYN,1996-01-13 06:00,ZBYN 130600Z AUTO 14004KT 1 1/4SM M04/M05 A3018 RMK 60000 SLP281 T10351050 57026 IEM_DS3505
ZBYN,1996-01-13 07:00,ZBYN 130700Z AUTO 00000KT 1/2SM M03/M04 A3018 RMK T10301040 IEM_DS3505
ZBYN,1996-01-13 08:00,ZBYN 130800Z AUTO 00000KT 1/2SM M02/M03 A3015 RMK T10201030 IEM_DS3505
ZBYN,1996-01-13 09:00,ZBYN 130900Z AUTO 16002KT 1 1/4SM M03/M04 A3015 RMK SLP270 T10311038 57012 IEM_DS3505
ZBYN,1996-01-13 10:00,ZBYN 131000Z AUTO 00000KT 1/2SM M03/M04 A3015 RMK T10301040 IEM_DS3505
ZBYN,1996-01-13 11:00,ZBYN 131100Z AUTO 00000KT 1/2SM M03/M04 A3015 RMK T10301040 IEM_DS3505
ZBYN,1996-01-13 12:00,ZBYN 131200Z AUTO 18002KT 1 1/4SM M04/M04 A3015 RMK 60004 SLP280 T10431045 52005 IEM_DS3505
ZBYN,1996-01-13 13:00,ZBYN 131300Z AUTO 00000KT 1/2SM M04/M05 A3018 RMK T10401050 IEM_DS3505
ZBYN,1996-01-13 14:00,ZBYN 131400Z AUTO 00000KT 1/2SM M04/M05 A3018 RMK T10401050 IEM_DS3505
ZBYN,1996-01-13 15:00,ZBYN 131500Z AUTO 00000KT 1 1/4SM M04/M05 A3015 RMK SLP275 T10421051 52002 IEM_DS3505
ZBYN,1996-01-13 16:00,ZBYN 131600Z AUTO 00000KT 1/2SM M04/M05 A3015 RMK T10401050 IEM_DS3505
ZBYN,1996-01-13 17:00,ZBYN 131700Z AUTO 00000KT 1/2SM M04/M05 A3015 RMK T10401050 IEM_DS3505
ZBYN,1996-01-13 18:00,ZBYN 131800Z AUTO 32006KT 3SM M04/M09 A3015 RMK 60000 SLP271 T10411093 57004 IEM_DS3505
ZBYN,1996-01-13 20:00,ZBYN 132000Z AUTO 00000KT 1/2SM M08/M10 A3015 RMK T10801100 IEM_DS3505
ZBYN,1996-01-13 21:00,ZBYN 132100Z AUTO 34006KT 5SM M08/M12 A3015 RMK SLP270 T10831121 57007 IEM_DS3505
ZBYN,1996-01-13 22:00,ZBYN 132200Z AUTO 00000KT 1SM M12/M12 A3015 RMK T11201120 IEM_DS3505
ZBYN,1996-01-13 23:00,ZBYN 132300Z AUTO 00000KT 1SM M11/M13 A3018 RMK T11101130 IEM_DS3505
ZBYN,1996-01-14 00:00,ZBYN 140000Z AUTO 36006KT 5SM M07/M12 A3018 RMK SLP278 T10731123 52007 IEM_DS3505
ZBYN,1996-01-14 01:00,ZBYN 140100Z AUTO 00000KT 2SM M09/M11 A3018 RMK T10901110 IEM_DS3505
ZBYN,1996-01-14 02:00,ZBYN 140200Z AUTO 03006KT 2SM M07/M11 A3021 RMK T10701110 IEM_DS3505
ZBYN,1996-01-14 03:00,ZBYN 140300Z AUTO 32006KT 4SM M06/M11 A3018 RMK SLP284 T10551108 52008 IEM_DS3505
ZBYN,1996-01-14 04:00,ZBYN 140400Z AUTO 03010KT 4SM M04/M10 A3018 RMK T10401100 IEM_DS3505
ZBYN,1996-01-14 05:00,ZBYN 140500Z AUTO 34006KT 4SM M04/M10 A3018 RMK T10401100 IEM_DS3505
ZBYN,1996-01-14 06:00,ZBYN 140600Z AUTO 32006KT 4SM M04/M10 A3018 RMK SLP273 T10391099 57007 IEM_DS3505
ZBYN,1996-01-14 07:00,ZBYN 140700Z AUTO 00000KT 2 1/2SM M03/M10 A3018 RMK T10301100 IEM_DS3505
ZBYN,1996-01-14 08:00,ZBYN 140800Z AUTO 24006KT 1SM M04/M09 A3018 RMK T10401090 IEM_DS3505
ZBYN,1996-01-14 09:00,ZBYN 140900Z AUTO 20004KT 4SM M05/M08 A3018 RMK SLP283 T10521082 54000 IEM_DS3505
ZBYN,1996-01-14 10:00,ZBYN 141000Z AUTO 00000KT 1SM M05/M08 A3018 RMK T10501080 IEM_DS3505
ZBYN,1996-01-14 11:00,ZBYN 141100Z AUTO 21004KT 1SM M05/M08 A3021 RMK T10501080 IEM_DS3505
ZBYN,1996-01-14 12:00,ZBYN 141200Z AUTO 18006KT 4SM M06/M07 A3021 RMK SLP298 T10551069 52015 IEM_DS3505
ZBYN,1996-01-14 14:00,ZBYN 141400Z AUTO 00000KT 1SM M06/M07 A3024 RMK T10601070 IEM_DS3505
ZBYN,1996-01-14 15:00,ZBYN 141500Z AUTO 11004KT 4SM M06/M07 A3024 RMK SLP302 T10631071 52005 IEM_DS3505
ZBYN,1996-01-14 16:00,ZBYN 141600Z AUTO 00000KT 1SM M06/M07 A3024 RMK T10601070 IEM_DS3505
ZBYN,1996-01-14 17:00,ZBYN 141700Z AUTO 00000KT 1SM M07/M08 A3021 RMK T10701080 IEM_DS3505
ZBYN,1996-01-14 18:00,ZBYN 141800Z AUTO 14004KT 3SM M06/M07 A3024 RMK 60000 SLP295 T10641072 57004 IEM_DS3505
ZBYN,1996-01-14 19:00,ZBYN 141900Z AUTO 00000KT 1SM M06/M07 A3024 RMK T10601070 IEM_DS3505
ZBYN,1996-01-14 20:00,ZBYN 142000Z AUTO 00000KT 1SM M06/M07 A3024 RMK T10601070 IEM_DS3505
ZBYN,1996-01-14 21:00,ZBYN 142100Z AUTO 14006KT 1 1/4SM M07/M08 A3024 RMK SLP300 T10741083 52001 IEM_DS3505
ZBYN,1996-01-14 22:00,ZBYN 142200Z AUTO 00000KT 1SM M08/M10 A3021 RMK T10801100 IEM_DS3505
ZBYN,1996-01-14 23:00,ZBYN 142300Z AUTO 00000KT 1SM M08/M09 A3024 RMK T10801090 IEM_DS3505
ZBYN,1996-01-15 00:00,ZBYN 150000Z AUTO 18002KT 1SM M08/M09 A3027 RMK 60000 70001 SLP314 T10851091 52010 IEM_DS3505
ZBYN,1996-01-15 01:00,ZBYN 150100Z AUTO 15004KT 1SM M08/M10 A3030 RMK T10801100 IEM_DS3505
ZBYN,1996-01-15 03:00,ZBYN 150300Z AUTO 14002KT 2SM M07/M07 RMK SLP329 T10671068 52016 IEM_DS3505
ZBYN,1996-01-15 04:00,ZBYN 150400Z AUTO 22006KT 1SM M04/M09 A3027 RMK T10401090 IEM_DS3505
ZBYN,1996-01-15 05:00,ZBYN 150500Z AUTO 26010KT 1 1/2SM M02/M09 A3024 RMK T10201090 IEM_DS3505
ZBYN,1996-01-15 06:00,ZBYN 150600Z AUTO 27012KT 12SM M00/M13 A3024 RMK SLP293 T10021131 57006 IEM_DS3505
ZBYN,1996-01-15 07:00,ZBYN 150700Z AUTO 30017KT 6SM 00/M15 A3024 RMK T00001150 IEM_DS3505
ZBYN,1996-01-15 08:00,ZBYN 150800Z AUTO 33016KT 6SM M01/M14 A3024 RMK T10101140 IEM_DS3505
ZBYN,1996-01-15 09:00,ZBYN 150900Z AUTO 32012KT 12SM M02/M24 A3024 RMK SLP304 T10211238 52005 IEM_DS3505
ZBYN,1996-01-15 10:00,ZBYN 151000Z AUTO 32008KT 7SM M04/M16 A3027 RMK T10401160 IEM_DS3505
ZBYN,1996-01-15 11:00,ZBYN 151100Z AUTO 33008KT 7SM M05/M18 A3030 RMK T10501180 IEM_DS3505
ZBYN,1996-01-15 12:00,ZBYN 151200Z AUTO 34008KT 9SM M06/M17 A3030 RMK SLP328 T10581174 52013 IEM_DS3505
ZBYN,1996-01-15 13:00,ZBYN 151300Z AUTO 33010KT 7SM M06/M18 A3030 RMK T10601180 IEM_DS3505
ZBYN,1996-01-15 14:00,ZBYN 151400Z AUTO 32006KT 7SM M07/M18 A3030 RMK T10701180 IEM_DS3505
ZBYN,1996-01-15 15:00,ZBYN 151500Z AUTO 36006KT 9SM M08/M18 RMK SLP336 T10781183 52007 IEM_DS3505
ZBYN,1996-01-15 16:00,ZBYN 151600Z AUTO 01006KT 7SM M10/M18 A3033 RMK T11001180 IEM_DS3505
ZBYN,1996-01-15 17:00,ZBYN 151700Z AUTO 32006KT 7SM M10/M17 A3033 RMK T11001170 IEM_DS3505
ZBYN,1996-01-15 18:00,ZBYN 151800Z AUTO 04002KT 9SM M10/M19 A3033 RMK SLP329 T10981188 52002 IEM_DS3505
ZBYN,1996-01-15 19:00,ZBYN 151900Z AUTO 12006KT 7SM M16/M24 A3036 RMK T11601240 IEM_DS3505
ZBYN,1996-01-15 20:00,ZBYN 152000Z AUTO 11006KT 7SM M16/M24 A3033 RMK T11601240 IEM_DS3505
ZBYN,1996-01-15 21:00,ZBYN 152100Z AUTO 00000KT 9SM M15/M20 A3030 RMK SLP338 T11471195 57004 IEM_DS3505
ZBYN,1996-01-15 22:00,ZBYN 152200Z AUTO 00000KT 7SM M17/M21 A3030 RMK T11701210 IEM_DS3505
ZBYN,1996-01-15 23:00,ZBYN 152300Z AUTO 07004KT 7SM M17/M21 A3030 RMK T11701210 IEM_DS3505
ZBYN,1996-01-16 00:00,ZBYN 160000Z AUTO 00000KT 9SM M16/M17 A3030 RMK SLP339 T11651172 57009 IEM_DS3505
ZBYN,1996-01-16 01:00,ZBYN 160100Z AUTO 00000KT 7SM M15/M19 A3027 RMK T11501190 IEM_DS3505
ZBYN,1996-01-16 02:00,ZBYN 160200Z AUTO 00000KT 6SM M12/M16 A3027 RMK T11201160 IEM_DS3505
ZBYN,1996-01-16 03:00,ZBYN 160300Z AUTO 32004KT 6SM M08/M18 A3027 RMK SLP322 T10761179 57003 IEM_DS3505
ZBYN,1996-01-16 04:00,ZBYN 160400Z AUTO 35004KT 6SM M06/M18 A3027 RMK T10601180 IEM_DS3505
ZBYN,1996-01-16 05:00,ZBYN 160500Z AUTO 00000KT 6SM M04/M18 A3027 RMK T10401180 IEM_DS3505
ZBYN,1996-01-16 06:00,ZBYN 160600Z AUTO 00000KT 6SM M04/M18 A3015 RMK SLP285 T10371183 57030 IEM_DS3505
ZBYN,1996-01-16 07:00,ZBYN 160700Z AUTO 18006KT 6SM M04/M14 A3012 RMK T10401140 IEM_DS3505
ZBYN,1996-01-16 08:00,ZBYN 160800Z AUTO 21004KT 6SM M04/M14 A3012 RMK T10401140 IEM_DS3505
ZBYN,1996-01-16 09:00,ZBYN 160900Z AUTO 04004KT 5SM M05/M15 A3012 RMK SLP282 T10461150 57013 IEM_DS3505
ZBYN,1996-01-16 11:00,ZBYN 161100Z AUTO 00000KT 6SM M08/M14 A3015 RMK T10801140 IEM_DS3505
ZBYN,1996-01-16 12:00,ZBYN 161200Z AUTO 00000KT 5SM M08/M14 A3018 RMK SLP305 T10801139 52012 IEM_DS3505
ZBYN,1996-01-16 13:00,ZBYN 161300Z AUTO 33004KT 6SM M07/M13 A3021 RMK T10701130 IEM_DS3505
ZBYN,1996-01-16 14:00,ZBYN 161400Z AUTO 14004KT 6SM M08/M12 A3018 RMK T10801120 IEM_DS3505
ZBYN,1996-01-16 15:00,ZBYN 161500Z AUTO 14002KT 4SM M08/M12 A3021 RMK SLP295 T10751121 52007 IEM_DS3505
ZBYN,1996-01-16 16:00,ZBYN 161600Z AUTO 00000KT 6SM M08/M12 A3018 RMK T10801120 IEM_DS3505
ZBYN,1996-01-16 17:00,ZBYN 161700Z AUTO 15002KT 6SM M08/M12 A3018 RMK T10801120 IEM_DS3505
ZBYN,1996-01-16 18:00,ZBYN 161800Z AUTO 07004KT 5SM M08/M13 A3018 RMK SLP288 T10821130 57001 IEM_DS3505
ZBYN,1996-01-16 19:00,ZBYN 161900Z AUTO 14004KT 7SM M10/M14 A3018 RMK T11001140 IEM_DS3505
ZBYN,1996-01-16 21:00,ZBYN 162100Z AUTO 34002KT 5SM M10/M11 A3018 RMK SLP297 T11021114 52003 IEM_DS3505
ZBYN,1996-01-16 22:00,ZBYN 162200Z AUTO 00000KT 4SM M12/M14 A3018 RMK T11201140 IEM_DS3505
ZBYN,1996-01-16 23:00,ZBYN 162300Z AUTO 10004KT 4SM M13/M16 A3021 RMK T11301160 IEM_DS3505
ZBYN,1996-01-17 00:00,ZBYN 170000Z AUTO 32004KT 5SM M09/M15 A3024 RMK SLP315 T10911149 52013 IEM_DS3505
ZBYN,1996-01-17 01:00,ZBYN 170100Z AUTO 00000KT 2SM M11/M14 A3027 RMK T11101140 IEM_DS3505
ZBYN,1996-01-17 02:00,ZBYN 170200Z AUTO 00000KT 2 1/2SM M09/M13 A3030 RMK T10901130 IEM_DS3505
ZBYN,1996-01-17 03:00,ZBYN 170300Z AUTO 36004KT 5SM M05/M17 A3030 RMK SLP322 T10521169 52014 IEM_DS3505
ZBYN,1996-01-17 04:00,ZBYN 170400Z AUTO 00000KT 2 1/2SM M04/M13 A3030 RMK T10401130 IEM_DS3505
ZBYN,1996-01-17 05:00,ZBYN 170500Z AUTO 00000KT 2 1/2SM M02/M16 A3024 RMK T10201160 IEM_DS3505
ZBYN,1996-01-17 06:00,ZBYN 170600Z AUTO 07004KT 6SM M01/M20 A3021 RMK SLP293 T10061196 57020 IEM_DS3505
ZBYN,1996-01-17 07:00,ZBYN 170700Z AUTO 20008KT 2 1/2SM 00/M13 A3021 RMK T00001130 IEM_DS3505
ZBYN,1996-01-17 08:00,ZBYN 170800Z AUTO 20006KT 2 1/2SM M01/M13 A3021 RMK T10101130 IEM_DS3505
ZBYN,1996-01-17 09:00,ZBYN 170900Z AUTO 14004KT 4SM M03/M14 A3024 RMK SLP306 T10271145 52005 IEM_DS3505
ZBYN,1996-01-17 10:00,ZBYN 171000Z AUTO 00000KT 2 1/2SM M05/M13 A3027 RMK T10501130 IEM_DS3505
ZBYN,1996-01-17 11:00,ZBYN 171100Z AUTO 00000KT 2 1/2SM M06/M14 A3030 RMK T10601140 IEM_DS3505
ZBYN,1996-01-17 12:00,ZBYN 171200Z AUTO 00000KT 6SM M06/M14 A3030 RMK SLP333 T10651139 52020 IEM_DS3505
ZBYN,1996-01-17 13:00,ZBYN 171300Z AUTO 00000KT 3SM M11/M15 A3033 RMK T11101150 IEM_DS3505
ZBYN,1996-01-17 15:00,ZBYN 171500Z AUTO 16004KT 6SM M10/M14 A3036 RMK SLP356 T11051136 52020 IEM_DS3505
ZBYN,1996-01-17 16:00,ZBYN 171600Z AUTO 00000KT 7SM M12/M16 A3039 RMK T11201160 IEM_DS3505
ZBYN,1996-01-17 18:00,ZBYN 171800Z AUTO 29002KT 6SM M12/M17 A3036 RMK SLP352 T11171173 52003 IEM_DS3505
ZBYN,1996-01-17 19:00,ZBYN 171900Z AUTO 00000KT 7SM M13/M16 A3039 RMK T11301160 IEM_DS3505
ZBYN,1996-01-17 20:00,ZBYN 172000Z AUTO 00000KT 7SM M14/M16 A3036 RMK T11401160 IEM_DS3505
ZBYN,1996-01-17 21:00,ZBYN 172100Z AUTO 36004KT 6SM M11/M20 A3036 RMK SLP349 T11061195 57005 IEM_DS3505
ZBYN,1996-01-17 22:00,ZBYN 172200Z AUTO 00000KT 7SM M14/M17 A3039 RMK T11401170 IEM_DS3505
ZBYN,1996-01-17 23:00,ZBYN 172300Z AUTO 00000KT 7SM M14/M16 A3039 RMK T11401160 IEM_DS3505
ZBYN,1996-01-18 00:00,ZBYN 180000Z AUTO 36006KT 6SM M10/M20 A3042 RMK SLP363 T11021196 52007 IEM_DS3505
ZBYN,1996-01-18 01:00,ZBYN 180100Z AUTO 00000KT 2 1/2SM M13/M16 A3042 RMK T11301160 IEM_DS3505
ZBYN,1996-01-18 02:00,ZBYN 180200Z AUTO 19002KT 2 1/2SM M09/M15 A3042 RMK T10901150 IEM_DS3505
ZBYN,1996-01-18 03:00,ZBYN 180300Z AUTO 32006KT 6SM M06/M21 A3042 RMK SLP375 T10611208 52011 IEM_DS3505
ZBYN,1996-01-18 04:00,ZBYN 180400Z AUTO 15006KT 2SM M07/M15 A3036 RMK T10701150 IEM_DS3505
ZBYN,1996-01-18 05:00,ZBYN 180500Z AUTO 00000KT 4SM M06/M16 A3033 RMK T10601160 IEM_DS3505
ZBYN,1996-01-18 06:00,ZBYN 180600Z AUTO 20008KT 6SM M04/M18 A3030 RMK SLP333 T10411185 57037 IEM_DS3505
ZBYN,1996-01-18 07:00,ZBYN 180700Z AUTO 00000KT 1 1/2SM M04/M15 A3027 RMK T10401150 IEM_DS3505
ZBYN,1996-01-18 08:00,ZBYN 180800Z AUTO 18004KT 2SM M04/M14 A3027 RMK T10401140 IEM_DS3505
ZBYN,1996-01-18 09:00,ZBYN 180900Z AUTO 20006KT 6SM M04/M18 A3027 RMK SLP321 T10431181 57009 IEM_DS3505
ZBYN,1996-01-18 11:00,ZBYN 181100Z AUTO 00000KT 3SM M06/M12 A3030 RMK T10601120 IEM_DS3505
ZBYN,1996-01-18 12:00,ZBYN 181200Z AUTO 00000KT 6SM M06/M15 A3030 RMK SLP326 T10581146 52003 IEM_DS3505
ZBYN,1996-01-18 13:00,ZBYN 181300Z AUTO 00000KT 2 1/2SM M07/M13 A3030 RMK T10701130 IEM_DS3505
ZBYN,1996-01-18 14:00,ZBYN 181400Z AUTO 00000KT 3SM M08/M12 A3030 RMK T10801120 IEM_DS3505
ZBYN,1996-01-18 15:00,ZBYN 181500Z AUTO 14004KT 6SM M07/M14 A3030 RMK SLP326 T10721139 52004 IEM_DS3505
ZBYN,1996-01-18 17:00,ZBYN 181700Z AUTO 09004KT 6SM M09/M13 A3027 RMK T10901130 IEM_DS3505
ZBYN,1996-01-18 18:00,ZBYN 181800Z AUTO 14002KT 6SM M09/M14 A3024 RMK SLP308 T10921144 57016 IEM_DS3505
ZBYN,1996-01-18 19:00,ZBYN 181900Z AUTO 10004KT 6SM M12/M14 A3024 RMK T11201140 IEM_DS3505
ZBYN,1996-01-18 20:00,ZBYN 182000Z AUTO 10004KT 7SM M13/M15 A3021 RMK T11301150 IEM_DS3505
ZBYN,1996-01-18 21:00,ZBYN 182100Z AUTO 00000KT 6SM M12/M12 A3018 RMK SLP300 T11151123 57012 IEM_DS3505
ZBYN,1996-01-18 22:00,ZBYN 182200Z AUTO 00000KT 4SM M14/M16 A3018 RMK T11401160 IEM_DS3505
ZBYN,1996-01-19 00:00,ZBYN 190000Z AUTO 14002KT 4SM M15/M15 A3015 RMK SLP301 T11471147 57007 IEM_DS3505
ZBYN,1996-01-19 01:00,ZBYN 190100Z AUTO 00000KT 1 1/2SM M14/M16 A3018 RMK T11401160 IEM_DS3505
ZBYN,1996-01-19 02:00,ZBYN 190200Z AUTO 00000KT 2SM M10/M13 A3018 RMK T11001130 IEM_DS3505
ZBYN,1996-01-19 03:00,ZBYN 190300Z AUTO 14006KT 5SM M07/M16 A3015 RMK SLP285 T10661160 57003 IEM_DS3505
ZBYN,1996-01-19 04:00,ZBYN 190400Z AUTO 18002KT 2SM M04/M18 A3012 RMK T10401180 IEM_DS3505
ZBYN,1996-01-19 05:00,ZBYN 190500Z AUTO 17006KT 2 1/2SM M01/M13 A3006 RMK T10101130 IEM_DS3505
ZBYN,1996-01-19 06:00,ZBYN 190600Z AUTO 14006KT 5SM M02/M17 A3003 RMK SLP235 T10181167 57040 IEM_DS3505
ZBYN,1996-01-19 07:00,ZBYN 190700Z AUTO 19008KT 3SM 00/M14 A3000 RMK T00001140 IEM_DS3505
ZBYN,1996-01-19 08:00,ZBYN 190800Z AUTO 19008KT 2 1/2SM 00/M14 A3000 RMK T00001140 IEM_DS3505
ZBYN,1996-01-19 09:00,ZBYN 190900Z AUTO 14006KT 5SM M02/M16 A3000 RMK SLP226 T10161162 57012 IEM_DS3505
ZBYN,1996-01-19 10:00,ZBYN 191000Z AUTO 10006KT 3SM M05/M13 A3000 RMK T10501130 IEM_DS3505
ZBYN,1996-01-19 11:00,ZBYN 191100Z AUTO 13002KT 4SM M07/M14 A3000 RMK T10701140 IEM_DS3505
ZBYN,1996-01-19 12:00,ZBYN 191200Z AUTO 29004KT 5SM M07/M14 A3003 RMK SLP251 T10681144 52001 IEM_DS3505
ZBYN,1996-01-19 13:00,ZBYN 191300Z AUTO 00000KT 4SM M10/M16 A3003 RMK T11001160 IEM_DS3505
ZBYN,1996-01-19 16:00,ZBYN 191600Z AUTO 10004KT 4SM M12/M16 A3006 RMK T11201160 IEM_DS3505
ZBYN,1996-01-19 18:00,ZBYN 191800Z AUTO 00000KT 6SM M09/M14 A3013 RMK SLP243 T10941135 54000 IEM_DS3505
ZBYN,1996-01-19 21:00,ZBYN 192100Z AUTO 02004KT 6SM M10/M14 RMK SLP254 T11021144 52009 IEM_DS3505
ZBYN,1996-01-19 22:00,ZBYN 192200Z AUTO 00000KT 4SM M14/M16 A3012 RMK T11401160 IEM_DS3505
ZBYN,1996-01-19 23:00,ZBYN 192300Z AUTO 00000KT 4SM M15/M17 A3012 RMK T11501170 IEM_DS3505
ZBYN,1996-01-20 00:00,ZBYN 200000Z AUTO 36004KT 5SM M11/M16 A3015 RMK SLP280 T11091162 52013 IEM_DS3505
ZBYN,1996-01-20 01:00,ZBYN 200100Z AUTO 14006KT 1 1/4SM M11/M14 A3018 RMK T11101140 IEM_DS3505
ZBYN,1996-01-20 02:00,ZBYN 200200Z AUTO 00000KT 1SM M07/M14 A3021 RMK T10701140 IEM_DS3505
ZBYN,1996-01-20 03:00,ZBYN 200300Z AUTO 34006KT 5SM M04/M18 A3021 RMK SLP294 T10381185 52019 IEM_DS3505
ZBYN,1996-01-20 04:00,ZBYN 200400Z AUTO 00000KT 4SM M02/M15 A3018 RMK T10201150 IEM_DS3505
ZBYN,1996-01-20 05:00,ZBYN 200500Z AUTO 00000KT 6SM M02/M17 A3012 RMK T10201170 IEM_DS3505
ZBYN,1996-01-20 06:00,ZBYN 200600Z AUTO 07006KT 6SM M00/M19 A3009 RMK SLP255 T10031186 57028 IEM_DS3505
ZBYN,1996-01-20 07:00,ZBYN 200700Z AUTO 00000KT 6SM 01/M19 A3009 RMK T00101190 IEM_DS3505
ZBYN,1996-01-20 08:00,ZBYN 200800Z AUTO 32004KT 6SM 01/M16 A3006 RMK T00101160 IEM_DS3505
ZBYN,1996-01-20 09:00,ZBYN 200900Z AUTO 36004KT 6SM 00/M18 A3006 RMK SLP243 T00021179 57011 IEM_DS3505
ZBYN,1996-01-20 10:00,ZBYN 201000Z AUTO 00000KT 6SM M01/M17 A3009 RMK T10101170 IEM_DS3505
ZBYN,1996-01-20 11:00,ZBYN 201100Z AUTO 00000KT 6SM M04/M13 A3012 RMK T10401130 IEM_DS3505
ZBYN,1996-01-20 12:00,ZBYN 201200Z AUTO 32006KT 6SM M02/ A3012 RMK SLP276 52024 IEM_DS3505
ZBYN,1996-01-20 13:00,ZBYN 201300Z AUTO 16004KT 6SM M06/M13 A3015 RMK T10601130 IEM_DS3505
ZBYN,1996-01-20 14:00,ZBYN 201400Z AUTO 00000KT 6SM M06/M14 A3018 RMK T10601140 IEM_DS3505
ZBYN,1996-01-20 15:00,ZBYN 201500Z AUTO 32004KT 6SM M07/M21 RMK SLP280 T10701209 52008 IEM_DS3505
ZBYN,1996-01-20 16:00,ZBYN 201600Z AUTO 00000KT 7SM M08/M14 A3018 RMK T10801140 IEM_DS3505
ZBYN,1996-01-20 17:00,ZBYN 201700Z AUTO 00000KT 7SM M08/M14 A3018 RMK T10801140 IEM_DS3505
ZBYN,1996-01-20 18:00,ZBYN 201800Z AUTO 00000KT 6SM M07/M20 A3018 RMK SLP278 T10721195 52004 IEM_DS3505
ZBYN,1996-01-20 19:00,ZBYN 201900Z AUTO 00000KT 7SM M11/M16 A3018 RMK T11101160 IEM_DS3505
ZBYN,1996-01-20 20:00,ZBYN 202000Z AUTO 00000KT 7SM M11/M15 A3018 RMK T11101150 IEM_DS3505
ZBYN,1996-01-20 21:00,ZBYN 202100Z AUTO 00000KT 6SM M10/M17 A3015 RMK SLP276 T11051166 57007 IEM_DS3505
ZBYN,1996-01-20 22:00,ZBYN 202200Z AUTO 00000KT 6SM M12/M15 A3015 RMK T11201150 IEM_DS3505
ZBYN,1996-01-20 23:00,ZBYN 202300Z AUTO 00000KT 6SM M12/M15 A3018 RMK T11201150 IEM_DS3505
ZBYN,1996-01-21 00:00,ZBYN 210000Z AUTO 00000KT 6SM M12/M16 A3018 RMK SLP289 T11171162 52005 IEM_DS3505
ZBYN,1996-01-21 01:00,ZBYN 210100Z AUTO 00000KT 4SM M12/M14 A3018 RMK T11201140 IEM_DS3505
ZBYN,1996-01-21 02:00,ZBYN 210200Z AUTO 00000KT 3SM M09/M15 A3021 RMK T10901150 IEM_DS3505
ZBYN,1996-01-21 03:00,ZBYN 210300Z AUTO 32002KT 5SM M06/M15 A3021 RMK SLP290 T10561149 52004 IEM_DS3505
ZBYN,1996-01-21 04:00,ZBYN 210400Z AUTO 00000KT 2SM M04/M14 A3015 RMK T10401140 IEM_DS3505
ZBYN,1996-01-21 06:00,ZBYN 210600Z AUTO 14006KT 5SM M02/M14 A3011 RMK SLP255 T10191141 57026 IEM_DS3505
ZBYN,1996-01-21 07:00,ZBYN 210700Z AUTO 16006KT 3SM M06/M12 A3009 RMK T10601120 IEM_DS3505
ZBYN,1996-01-21 08:00,ZBYN 210800Z AUTO 17008KT 4SM M01/M10 A3009 RMK T10101100 IEM_DS3505
ZBYN,1996-01-21 09:00,ZBYN 210900Z AUTO 14006KT 5SM M02/M12 A3009 RMK SLP256 T10211121 57005 IEM_DS3505
ZBYN,1996-01-21 10:00,ZBYN 211000Z AUTO 12002KT 2SM M05/M11 A3009 RMK T10501110 IEM_DS3505
ZBYN,1996-01-21 12:00,ZBYN 211200Z AUTO 32004KT 5SM M06/M10 A3012 RMK SLP275 T10631105 52008 IEM_DS3505
ZBYN,1996-01-21 13:00,ZBYN 211300Z AUTO 00000KT 3SM M09/M13 A3012 RMK T10901130 IEM_DS3505
ZBYN,1996-01-21 14:00,ZBYN 211400Z AUTO 00000KT 2 1/2SM M09/M13 A3018 RMK T10901130 IEM_DS3505
ZBYN,1996-01-21 15:00,ZBYN 211500Z AUTO 14004KT 4SM M09/M15 A3018 RMK SLP286 T10901147 52016 IEM_DS3505
ZBYN,1996-01-21 16:00,ZBYN 211600Z AUTO 00000KT 7SM M10/M13 A3018 RMK T11001130 IEM_DS3505
ZBYN,1996-01-21 17:00,ZBYN 211700Z AUTO 09004KT 7SM M11/M14 A3018 RMK T11101140 IEM_DS3505
ZBYN,1996-01-21 18:00,ZBYN 211800Z AUTO 16002KT 5SM M10/M12 A3018 RMK SLP285 T10981125 52004 IEM_DS3505
ZBYN,1996-01-21 19:00,ZBYN 211900Z AUTO 06004KT 7SM M12/M14 A3018 RMK T11201140 IEM_DS3505
ZBYN,1996-01-21 20:00,ZBYN 212000Z AUTO 10002KT 7SM M12/M14 A3018 RMK T11201140 IEM_DS3505
ZBYN,1996-01-21 21:00,ZBYN 212100Z AUTO 00000KT 5SM M12/M12 A3018 RMK SLP286 T11181118 57003 IEM_DS3505
ZBYN,1996-01-21 22:00,ZBYN 212200Z AUTO 07004KT 4SM M11/M13 A3018 RMK T11101130 IEM_DS3505
ZBYN,1996-01-21 23:00,ZBYN 212300Z AUTO 00000KT 4SM M11/M13 A3018 RMK T11101130 IEM_DS3505
ZBYN,1996-01-22 00:00,ZBYN 220000Z AUTO 00000KT 3SM M12/M12 A3018 RMK SLP298 T11191119 52003 IEM_DS3505
ZBYN,1996-01-22 01:00,ZBYN 220100Z AUTO 00000KT 1 1/4SM M11/M13 A3018 RMK T11101130 IEM_DS3505
ZBYN,1996-01-22 02:00,ZBYN 220200Z AUTO 00000KT 1SM M07/M12 A3021 RMK T10701120 IEM_DS3505
ZBYN,1996-01-22 03:00,ZBYN 220300Z AUTO 32004KT 4SM M05/M16 A3018 RMK SLP290 T10491163 52001 IEM_DS3505
ZBYN,1996-01-22 04:00,ZBYN 220400Z AUTO 00000KT 1 1/2SM M03/M13 A3015 RMK T10301130 IEM_DS3505
ZBYN,1996-01-22 05:00,ZBYN 220500Z AUTO 00000KT 2SM M01/M22 A3012 RMK T10101220 IEM_DS3505
ZBYN,1996-01-22 06:00,ZBYN 220600Z AUTO 14006KT 4SM 00/M15 A3009 RMK SLP248 T00041148 57031 IEM_DS3505
ZBYN,1996-01-22 07:00,ZBYN 220700Z AUTO 20006KT 4SM 03/M13 A3006 RMK T00301130 IEM_DS3505
ZBYN,1996-01-22 08:00,ZBYN 220800Z AUTO 18004KT 4SM 03/M14 A3006 RMK T00301140 IEM_DS3505
ZBYN,1996-01-22 09:00,ZBYN 220900Z AUTO 14010KT 6SM 00/M13 A3006 RMK SLP239 T00041130 57011 IEM_DS3505
ZBYN,1996-01-22 10:00,ZBYN 221000Z AUTO 14006KT 5SM M03/M10 A3006 RMK T10301100 IEM_DS3505
ZBYN,1996-01-22 11:00,ZBYN 221100Z AUTO 12006KT 5SM M04/M11 A3006 RMK T10401110 IEM_DS3505
ZBYN,1996-01-22 12:00,ZBYN 221200Z AUTO 16002KT 6SM M05/M13 A3009 RMK SLP265 T10471127 52014 IEM_DS3505
ZBYN,1996-01-22 13:00,ZBYN 221300Z AUTO 09006KT 6SM M07/M13 A3012 RMK T10701130 IEM_DS3505
ZBYN,1996-01-22 14:00,ZBYN 221400Z AUTO 00000KT 6SM M08/M13 A3012 RMK T10801130 IEM_DS3505
ZBYN,1996-01-22 15:00,ZBYN 221500Z AUTO 00000KT 6SM M06/M12 A3012 RMK SLP266 T10651122 52010 IEM_DS3505
ZBYN,1996-01-22 16:00,ZBYN 221600Z AUTO 09006KT 7SM M09/M13 A3012 RMK T10901130 IEM_DS3505
ZBYN,1996-01-22 18:00,ZBYN 221800Z AUTO 36006KT 6SM M04/M16 A3015 RMK SLP264 T10451155 52011 IEM_DS3505
ZBYN,1996-01-22 19:00,ZBYN 221900Z AUTO 33010KT 7SM M05/M12 A3018 RMK T10501120 IEM_DS3505
ZBYN,1996-01-22 20:00,ZBYN 222000Z AUTO 02006KT 7SM M07/M12 A3021 RMK T10701120 IEM_DS3505
ZBYN,1996-01-22 21:00,ZBYN 222100Z AUTO 36006KT 6SM M08/M18 A3021 RMK SLP286 T10801179 52014 IEM_DS3505
ZBYN,1996-01-22 22:00,ZBYN 222200Z AUTO 03008KT 7SM M08/M16 A3021 RMK T10801160 IEM_DS3505
ZBYN,1996-01-22 23:00,ZBYN 222300Z AUTO 03004KT 7SM M09/M16 A3024 RMK T10901160 IEM_DS3505
ZBYN,1996-01-23 00:00,ZBYN 230000Z AUTO 36006KT 9SM M08/M18 A3027 RMK SLP313 T10811181 52015 IEM_DS3505
ZBYN,1996-01-23 01:00,ZBYN 230100Z AUTO 32004KT 7SM M10/M16 A3030 RMK T11001160 IEM_DS3505
ZBYN,1996-01-23 02:00,ZBYN 230200Z AUTO 33006KT 7SM M06/M18 A3030 RMK T10601180 IEM_DS3505
ZBYN,1996-01-23 03:00,ZBYN 230300Z AUTO 36006KT 6SM M04/M21 A3030 RMK SLP325 T10421206 52015 IEM_DS3505
ZBYN,1996-01-23 04:00,ZBYN 230400Z AUTO 33006KT 7SM M03/M21 A3027 RMK T10301210 IEM_DS3505
ZBYN,1996-01-23 05:00,ZBYN 230500Z AUTO 00000KT 7SM M01/M22 A3021 RMK T10101220 IEM_DS3505
ZBYN,1996-01-23 06:00,ZBYN 230600Z AUTO 22004KT 6SM M00/M20 A3018 RMK SLP273 T10031196 57037 IEM_DS3505
ZBYN,1996-01-23 07:00,ZBYN 230700Z AUTO 22006KT 7SM 00/M20 A3018 RMK T00001200 IEM_DS3505
ZBYN,1996-01-23 08:00,ZBYN 230800Z AUTO 22014KT 7SM 00/M18 A3018 RMK T00001180 IEM_DS3505
ZBYN,1996-01-23 09:00,ZBYN 230900Z AUTO 18008KT 6SM M01/M20 A3018 RMK SLP286 T10131198 52004 IEM_DS3505
ZBYN,1996-01-23 10:00,ZBYN 231000Z AUTO 12004KT 7SM M05/M17 A3021 RMK T10501170 IEM_DS3505
ZBYN,1996-01-23 11:00,ZBYN 231100Z AUTO 10006KT 7SM M08/M17 A3024 RMK T10801170 IEM_DS3505
ZBYN,1996-01-23 12:00,ZBYN 231200Z AUTO 32006KT 6SM M06/M17 A3024 RMK SLP309 T10621174 52012 IEM_DS3505
ZBYN,1996-01-23 13:00,ZBYN 231300Z AUTO 00000KT 7SM M10/M20 A3027 RMK T11001200 IEM_DS3505
ZBYN,1996-01-23 14:00,ZBYN 231400Z AUTO 00000KT 7SM M10/M19 A3027 RMK T11001190 IEM_DS3505
ZBYN,1996-01-23 15:00,ZBYN 231500Z AUTO 32006KT 6SM M06/M21 A3027 RMK SLP313 T10581209 52011 IEM_DS3505
ZBYN,1996-01-23 16:00,ZBYN 231600Z AUTO 00000KT 7SM M10/M18 A3027 RMK T11001180 IEM_DS3505
ZBYN,1996-01-23 17:00,ZBYN 231700Z AUTO 00000KT 7SM M10/M18 A3030 RMK T11001180 IEM_DS3505
ZBYN,1996-01-23 18:00,ZBYN 231800Z AUTO 34002KT 6SM M08/M21 A3030 RMK SLP316 T10751212 52007 IEM_DS3505
ZBYN,1996-01-23 19:00,ZBYN 231900Z AUTO 00000KT 7SM M13/M20 A3030 RMK T11301200 IEM_DS3505
ZBYN,1996-01-23 20:00,ZBYN 232000Z AUTO 00000KT 7SM M13/M20 A3030 RMK T11301200 IEM_DS3505
ZBYN,1996-01-23 21:00,ZBYN 232100Z AUTO 27006KT 6SM M10/M23 A3030 RMK SLP325 T11051227 52001 IEM_DS3505
ZBYN,1996-01-23 22:00,ZBYN 232200Z AUTO 19006KT 7SM M13/M19 A3030 RMK T11301190 IEM_DS3505
ZBYN,1996-01-23 23:00,ZBYN 232300Z AUTO 12004KT 7SM M13/M18 A3033 RMK T11301180 IEM_DS3505
ZBYN,1996-01-24 00:00,ZBYN 240000Z AUTO 00000KT 6SM M12/M21 A3033 RMK SLP346 T11161214 52009 IEM_DS3505
ZBYN,1996-01-24 01:00,ZBYN 240100Z AUTO 00000KT 6SM M10/M16 A3036 RMK T11001160 IEM_DS3505
ZBYN,1996-01-24 02:00,ZBYN 240200Z AUTO 00000KT 6SM M07/M18 A3036 RMK T10701180 IEM_DS3505
ZBYN,1996-01-24 03:00,ZBYN 240300Z AUTO 36004KT 6SM M04/M20 A3036 RMK SLP343 T10361199 52011 IEM_DS3505
ZBYN,1996-01-24 04:00,ZBYN 240400Z AUTO 21004KT 4SM M03/M18 A3033 RMK T10301180 IEM_DS3505
ZBYN,1996-01-24 05:00,ZBYN 240500Z AUTO 29004KT 6SM M02/M22 A3030 RMK T10201220 IEM_DS3505
ZBYN,1996-01-24 06:00,ZBYN 240600Z AUTO 20002KT 6SM M01/M22 A3027 RMK SLP307 T10081225 57030 IEM_DS3505
ZBYN,1996-01-24 07:00,ZBYN 240700Z AUTO 20006KT 6SM 01/M18 A3024 RMK T00101180 IEM_DS3505
ZBYN,1996-01-24 09:00,ZBYN 240900Z AUTO 18002KT 6SM M01/M20 A3024 RMK SLP302 T10101199 57010 IEM_DS3505
ZBYN,1996-01-24 10:00,ZBYN 241000Z AUTO 00000KT 6SM M03/M16 A3024 RMK T10301160 IEM_DS3505
ZBYN,1996-01-24 11:00,ZBYN 241100Z AUTO 00000KT 6SM M05/M17 A3027 RMK T10501170 IEM_DS3505
ZBYN,1996-01-24 12:00,ZBYN 241200Z AUTO 36006KT 6SM M05/M20 A3027 RMK SLP327 T10531196 52013 IEM_DS3505
ZBYN,1996-01-24 13:00,ZBYN 241300Z AUTO 00000KT 6SM M06/M19 A3030 RMK T10601190 IEM_DS3505
ZBYN,1996-01-24 14:00,ZBYN 241400Z AUTO 00000KT 7SM M05/M21 A3030 RMK T10501210 IEM_DS3505
ZBYN,1996-01-24 15:00,ZBYN 241500Z AUTO 36004KT 6SM M08/M22 A3030 RMK SLP328 T10771217 52011 IEM_DS3505
ZBYN,1996-01-24 16:00,ZBYN 241600Z AUTO 00000KT 7SM M08/M22 A3030 RMK T10801220 IEM_DS3505
ZBYN,1996-01-24 17:00,ZBYN 241700Z AUTO 00000KT 7SM M10/M20 A3030 RMK T11001200 IEM_DS3505
ZBYN,1996-01-24 18:00,ZBYN 241800Z AUTO 32004KT 6SM M07/M22 A3030 RMK SLP321 T10721215 57001 IEM_DS3505
ZBYN,1996-01-24 19:00,ZBYN 241900Z AUTO 00000KT 7SM M12/M21 A3030 RMK T11201210 IEM_DS3505
ZBYN,1996-01-24 20:00,ZBYN 242000Z AUTO 00000KT 7SM M14/M21 A3030 RMK T11401210 IEM_DS3505
ZBYN,1996-01-24 21:00,ZBYN 242100Z AUTO 32004KT 6SM M11/M23 A3030 RMK SLP330 T11091231 52001 IEM_DS3505
ZBYN,1996-01-24 22:00,ZBYN 242200Z AUTO 00000KT 7SM M14/M22 A3030 RMK T11401220 IEM_DS3505
ZBYN,1996-01-24 23:00,ZBYN 242300Z AUTO 00000KT 7SM M15/M22 A3033 RMK T11501220 IEM_DS3505
ZBYN,1996-01-25 00:00,ZBYN 250000Z AUTO 02002KT 7SM M13/M24 A3033 RMK SLP347 T11341241 52004 IEM_DS3505
ZBYN,1996-01-25 01:00,ZBYN 250100Z AUTO 12002KT 6SM M12/M19 A3033 RMK T11201190 IEM_DS3505
ZBYN,1996-01-25 02:00,ZBYN 250200Z AUTO 17004KT 6SM M07/M18 A3033 RMK T10701180 IEM_DS3505
ZBYN,1996-01-25 03:00,ZBYN 250300Z AUTO 36004KT 5SM M04/M17 A3033 RMK SLP333 T10421171 57001 IEM_DS3505
ZBYN,1996-01-25 04:00,ZBYN 250400Z AUTO 20002KT 6SM M02/M21 A3030 RMK T10201210 IEM_DS3505
ZBYN,1996-01-25 05:00,ZBYN 250500Z AUTO 25008KT 6SM M02/M21 A3027 RMK T10201210 IEM_DS3505
ZBYN,1996-01-25 06:00,ZBYN 250600Z AUTO 16006KT 5SM M01/M21 A3024 RMK SLP292 T10071210 57030 IEM_DS3505
ZBYN,1996-01-25 07:00,ZBYN 250700Z AUTO 19006KT 6SM 00/M18 A3021 RMK T00001180 IEM_DS3505
ZBYN,1996-01-25 08:00,ZBYN 250800Z AUTO 24006KT 6SM 01/M21 A3021 RMK T00101210 IEM_DS3505
ZBYN,1996-01-25 09:00,ZBYN 250900Z AUTO 16008KT 5SM M01/M19 A3021 RMK SLP294 T10071189 57005 IEM_DS3505
ZBYN,1996-01-25 10:00,ZBYN 251000Z AUTO 18004KT 7SM M03/M16 A3021 RMK T10301160 IEM_DS3505
ZBYN,1996-01-25 11:00,ZBYN 251100Z AUTO 11004KT 7SM M05/M16 A3021 RMK T10501160 IEM_DS3505
ZBYN,1996-01-25 12:00,ZBYN 251200Z AUTO 00000KT 6SM M06/M17 A3024 RMK SLP314 T10581174 52005 IEM_DS3505
ZBYN,1996-01-25 13:00,ZBYN 251300Z AUTO 00000KT 7SM M09/M17 A3027 RMK T10901170 IEM_DS3505
ZBYN,1996-01-25 14:00,ZBYN 251400Z AUTO 00000KT 7SM M10/M20 A3030 RMK T11001200 IEM_DS3505
ZBYN,1996-01-25 15:00,ZBYN 251500Z AUTO 11004KT 6SM M09/M17 A3027 RMK SLP316 T10931172 52012 IEM_DS3505
ZBYN,1996-01-25 16:00,ZBYN 251600Z AUTO 10004KT 7SM M10/M19 A3027 RMK T11001190 IEM_DS3505
ZBYN,1996-01-25 17:00,ZBYN 251700Z AUTO 10004KT 7SM M11/M18 A3027 RMK T11101180 IEM_DS3505
ZBYN,1996-01-25 18:00,ZBYN 251800Z AUTO 00000KT 6SM M09/M16 A3027 RMK SLP306 T10931158 57003 IEM_DS3505
ZBYN,1996-01-25 19:00,ZBYN 251900Z AUTO 09004KT 7SM M11/M18 A3027 RMK T11101180 IEM_DS3505
ZBYN,1996-01-25 20:00,ZBYN 252000Z AUTO 00000KT 7SM M11/M18 A3027 RMK T11101180 IEM_DS3505
ZBYN,1996-01-25 21:00,ZBYN 252100Z AUTO 00000KT 6SM M12/M18 A3024 RMK SLP312 T11171183 52001 IEM_DS3505
ZBYN,1996-01-25 22:00,ZBYN 252200Z AUTO 12004KT 7SM M12/M18 A3024 RMK T11201180 IEM_DS3505
ZBYN,1996-01-25 23:00,ZBYN 252300Z AUTO 00000KT 7SM M13/M19 A3027 RMK T11301190 IEM_DS3505
ZBYN,1996-01-26 00:00,ZBYN 260000Z AUTO 07004KT 6SM M13/M18 A3027 RMK SLP330 T11321184 52005 IEM_DS3505
ZBYN,1996-01-26 01:00,ZBYN 260100Z AUTO 00000KT 5SM M11/M17 A3030 RMK T11101170 IEM_DS3505
ZBYN,1996-01-26 02:00,ZBYN 260200Z AUTO 00000KT 5SM M07/M15 A3030 RMK T10701150 IEM_DS3505
ZBYN,1996-01-26 03:00,ZBYN 260300Z AUTO 14008KT 6SM M03/M16 RMK SLP329 T10321164 52010 IEM_DS3505
ZBYN,1996-01-26 04:00,ZBYN 260400Z AUTO 18008KT 4SM 00/M15 A3027 RMK T00001150 IEM_DS3505
ZBYN,1996-01-26 05:00,ZBYN 260500Z AUTO 22014KT 7SM 02/M15 A3021 RMK T00201150 IEM_DS3505
ZBYN,1996-01-26 06:00,ZBYN 260600Z AUTO 20010KT 6SM 03/M15 A3018 RMK SLP281 T00281154 57033 IEM_DS3505
ZBYN,1996-01-26 07:00,ZBYN 260700Z AUTO 24010KT 7SM 03/M13 A3018 RMK T00301130 IEM_DS3505
ZBYN,1996-01-26 08:00,ZBYN 260800Z AUTO 26008KT 7SM 03/M12 A3018 RMK T00301120 IEM_DS3505
ZBYN,1996-01-26 09:00,ZBYN 260900Z AUTO 32010KT 11SM 03/M16 A3015 RMK SLP278 T00301164 57006 IEM_DS3505
ZBYN,1996-01-26 10:00,ZBYN 261000Z AUTO 32012KT 7SM 01/M14 A3018 RMK T00101140 IEM_DS3505
ZBYN,1996-01-26 11:00,ZBYN 261100Z AUTO 33008KT 7SM M01/M16 A3021 RMK T10101160 IEM_DS3505
ZBYN,1996-01-26 12:00,ZBYN 261200Z AUTO 32006KT 6SM M02/M21 A3024 RMK SLP308 T10161208 52016 IEM_DS3505
ZBYN,1996-01-26 13:00,ZBYN 261300Z AUTO 32010KT 7SM M02/M15 A3024 RMK T10201150 IEM_DS3505
ZBYN,1996-01-26 14:00,ZBYN 261400Z AUTO 18004KT 7SM M04/M16 A3027 RMK T10401160 IEM_DS3505
ZBYN,1996-01-26 15:00,ZBYN 261500Z AUTO 00000KT 6SM M05/M18 A3030 RMK SLP310 T10481184 52014 IEM_DS3505
ZBYN,1996-01-26 16:00,ZBYN 261600Z AUTO 21002KT 7SM M08/M18 A3030 RMK T10801180 IEM_DS3505
ZBYN,1996-01-26 18:00,ZBYN 261800Z AUTO 09004KT 6SM M10/M17 A3029 RMK SLP311 T10951168 52003 IEM_DS3505
ZBYN,1996-01-26 19:00,ZBYN 261900Z AUTO 11006KT 7SM M12/M19 A3030 RMK T11201190 IEM_DS3505
ZBYN,1996-01-26 20:00,ZBYN 262000Z AUTO 00000KT 7SM M12/M20 A3027 RMK T11201200 IEM_DS3505
ZBYN,1996-01-26 21:00,ZBYN 262100Z AUTO 11004KT 6SM M12/M18 A3027 RMK SLP306 T11161180 57008 IEM_DS3505
ZBYN,1996-01-26 22:00,ZBYN 262200Z AUTO 00000KT 7SM M13/M20 A3024 RMK T11301200 IEM_DS3505
ZBYN,1996-01-27 00:00,ZBYN 270000Z AUTO 00000KT 6SM M12/M17 A3027 RMK SLP315 T11231168 57001 IEM_DS3505
ZBYN,1996-01-27 02:00,ZBYN 270200Z AUTO 00000KT 5SM M06/M16 A3030 RMK T10601160 IEM_DS3505
ZBYN,1996-01-27 03:00,ZBYN 270300Z AUTO 16006KT 6SM M03/M15 A3027 RMK SLP311 T10341153 52006 IEM_DS3505
ZBYN,1996-01-27 04:00,ZBYN 270400Z AUTO 00000KT 7SM 00/M16 A3024 RMK T00001160 IEM_DS3505
ZBYN,1996-01-27 05:00,ZBYN 270500Z AUTO 22010KT 7SM 01/M18 A3018 RMK T00101180 IEM_DS3505
ZBYN,1996-01-27 06:00,ZBYN 270600Z AUTO 18010KT 6SM 02/M15 A3015 RMK SLP269 T00201146 57036 IEM_DS3505
ZBYN,1996-01-27 07:00,ZBYN 270700Z AUTO 23014KT 7SM 04/M15 A3012 RMK T00401150 IEM_DS3505
ZBYN,1996-01-27 08:00,ZBYN 270800Z AUTO 27014KT 7SM 04/M13 A3009 RMK T00401130 IEM_DS3505
ZBYN,1996-01-27 09:00,ZBYN 270900Z AUTO 22006KT 9SM 04/M16 A3009 RMK SLP250 T00381155 57018 IEM_DS3505
ZBYN,1996-01-27 10:00,ZBYN 271000Z AUTO 24004KT 6SM 00/M18 A3009 RMK T00001180 IEM_DS3505
ZBYN,1996-01-27 11:00,ZBYN 271100Z AUTO 29006KT 6SM 00/M20 A3012 RMK T00001200 IEM_DS3505
ZBYN,1996-01-27 12:00,ZBYN 271200Z AUTO 27006KT 9SM M01/M21 A3015 RMK SLP273 T10081212 52012 IEM_DS3505
ZBYN,1996-01-27 13:00,ZBYN 271300Z AUTO 22006KT 7SM M03/M21 A3018 RMK T10301210 IEM_DS3505
ZBYN,1996-01-27 14:00,ZBYN 271400Z AUTO 22008KT 7SM M03/M21 A3018 RMK T10301210 IEM_DS3505
ZBYN,1996-01-27 15:00,ZBYN 271500Z AUTO 22008KT 9SM M03/M20 A3018 RMK SLP276 T10341202 52013 IEM_DS3505
ZBYN,1996-01-27 16:00,ZBYN 271600Z AUTO 21006KT 7SM M05/M21 A3021 RMK T10501210 IEM_DS3505
ZBYN,1996-01-27 17:00,ZBYN 271700Z AUTO 00000KT 7SM M03/M22 A3021 RMK T10301220 IEM_DS3505
ZBYN,1996-01-27 18:00,ZBYN 271800Z AUTO 25008KT 7SM M03/M19 A3021 RMK SLP265 T10281194 54000 IEM_DS3505
ZBYN,1996-01-27 19:00,ZBYN 271900Z AUTO 00000KT 7SM M03/M16 A3021 RMK T10301160 IEM_DS3505
ZBYN,1996-01-27 20:00,ZBYN 272000Z AUTO 00000KT 7SM M05/M16 A3021 RMK T10501160 IEM_DS3505
ZBYN,1996-01-27 21:00,ZBYN 272100Z AUTO 16002KT 7SM M04/M20 A3018 RMK SLP265 T10421205 52001 IEM_DS3505
ZBYN,1996-01-27 22:00,ZBYN 272200Z AUTO 00000KT 7SM M08/M20 A3018 RMK T10801200 IEM_DS3505
ZBYN,1996-01-27 23:00,ZBYN 272300Z AUTO 00000KT 7SM M09/M19 A3024 RMK T10901190 IEM_DS3505
ZBYN,1996-01-28 00:00,ZBYN 280000Z AUTO 04006KT 6SM M08/M19 A3024 RMK SLP297 T10811189 52015 IEM_DS3505
ZBYN,1996-01-28 01:00,ZBYN 280100Z AUTO 09004KT 6SM M02/M24 A3024 RMK T10201240 IEM_DS3505
ZBYN,1996-01-28 02:00,ZBYN 280200Z AUTO 25006KT 4SM M05/M20 A3027 RMK T10501200 IEM_DS3505
ZBYN,1996-01-28 03:00,ZBYN 280300Z AUTO 11006KT 6SM M02/M17 A3027 RMK SLP303 T10181169 52011 IEM_DS3505
ZBYN,1996-01-28 04:00,ZBYN 280400Z AUTO 29006KT 6SM M01/M14 A3027 RMK T10101140 IEM_DS3505
ZBYN,1996-01-28 05:00,ZBYN 280500Z AUTO 21008KT 6SM 02/M22 A3024 RMK T00201220 IEM_DS3505
ZBYN,1996-01-28 06:00,ZBYN 280600Z AUTO 20010KT 6SM 01/M16 A3021 RMK SLP275 T00081163 57020 IEM_DS3505
ZBYN,1996-01-28 07:00,ZBYN 280700Z AUTO 23012KT 6SM 02/M18 A3018 RMK T00201180 IEM_DS3505
ZBYN,1996-01-28 08:00,ZBYN 280800Z AUTO 23014KT 6SM 03/M15 A3018 RMK T00301150 IEM_DS3505
ZBYN,1996-01-28 09:00,ZBYN 280900Z AUTO 16010KT 6SM 02/M16 A3018 RMK SLP274 T00171162 57002 IEM_DS3505
ZBYN,1996-01-28 10:00,ZBYN 281000Z AUTO 25010KT 6SM 00/M16 A3018 RMK T00001160 IEM_DS3505
ZBYN,1996-01-28 11:00,ZBYN 281100Z AUTO 26008KT 7SM M02/M19 A3021 RMK T10201190 IEM_DS3505
ZBYN,1996-01-28 12:00,ZBYN 281200Z AUTO 04002KT 7SM M01/M20 A3024 RMK SLP295 T10121205 52008 IEM_DS3505
ZBYN,1996-01-28 13:00,ZBYN 281300Z AUTO 12004KT 7SM M02/M23 A3024 RMK T10201230 IEM_DS3505
ZBYN,1996-01-28 14:00,ZBYN 281400Z AUTO 00000KT 7SM M05/M21 A3027 RMK T10501210 IEM_DS3505
ZBYN,1996-01-28 15:00,ZBYN 281500Z AUTO 14002KT 6SM M05/M22 A3027 RMK SLP297 T10531216 52006 IEM_DS3505
ZBYN,1996-01-28 16:00,ZBYN 281600Z AUTO 02004KT 7SM M07/M21 A3027 RMK T10701210 IEM_DS3505
ZBYN,1996-01-28 17:00,ZBYN 281700Z AUTO 04004KT 7SM M08/M21 A3027 RMK T10801210 IEM_DS3505
ZBYN,1996-01-28 18:00,ZBYN 281800Z AUTO 16006KT 6SM M06/M20 A3027 RMK SLP303 T10641205 52008 IEM_DS3505
ZBYN,1996-01-28 19:00,ZBYN 281900Z AUTO 09006KT 7SM M11/M22 A3027 RMK T11101220 IEM_DS3505
ZBYN,1996-01-28 20:00,ZBYN 282000Z AUTO 09006KT 7SM M10/M19 A3027 RMK T11001190 IEM_DS3505
ZBYN,1996-01-28 21:00,ZBYN 282100Z AUTO 16004KT 6SM M08/M23 RMK SLP303 T10821229 57002 IEM_DS3505
ZBYN,1996-01-28 22:00,ZBYN 282200Z AUTO 09008KT 7SM M09/M23 A3027 RMK T10901230 IEM_DS3505
ZBYN,1996-01-28 23:00,ZBYN 282300Z AUTO 13004KT 6SM M08/M20 A3030 RMK T10801200 IEM_DS3505
ZBYN,1996-01-29 00:00,ZBYN 290000Z AUTO 22006KT 6SM M08/M23 A3030 RMK SLP317 T10771228 52009 IEM_DS3505
ZBYN,1996-01-29 02:00,ZBYN 290200Z AUTO 00000KT 6SM M04/M17 A3033 RMK T10401170 IEM_DS3505
ZBYN,1996-01-29 03:00,ZBYN 290300Z AUTO 36004KT 6SM 00/M23 A3033 RMK SLP322 T00041227 52011 IEM_DS3505
ZBYN,1996-01-29 04:00,ZBYN 290400Z AUTO 34012KT 6SM 02/M19 A3030 RMK T00201190 IEM_DS3505
ZBYN,1996-01-29 05:00,ZBYN 290500Z AUTO 32017KT 6SM 03/M19 A3027 RMK T00301190 IEM_DS3505
ZBYN,1996-01-29 06:00,ZBYN 290600Z AUTO 27014KT 9SM 05/M30 A3024 RMK SLP285 T00461299 57028 IEM_DS3505
ZBYN,1996-01-29 07:00,ZBYN 290700Z AUTO 32017KT 6SM 05/M27 A3021 RMK T00501270 IEM_DS3505
ZBYN,1996-01-29 08:00,ZBYN 290800Z AUTO 32023KT 6SM 05/M28 A3021 RMK T00501280 IEM_DS3505
ZBYN,1996-01-29 09:00,ZBYN 290900Z AUTO 29014KT 9SM 04/M31 A3021 RMK SLP276 T00421310 57012 IEM_DS3505
ZBYN,1996-01-29 10:00,ZBYN 291000Z AUTO 32012KT 6SM 03/M28 A3024 RMK T00301280 IEM_DS3505
ZBYN,1996-01-29 11:00,ZBYN 291100Z AUTO 33006KT 7SM 01/M23 A3027 RMK T00101230 IEM_DS3505
ZBYN,1996-01-29 12:00,ZBYN 291200Z AUTO 00000KT 9SM M01/M22 A3027 RMK SLP307 T10121217 52020 IEM_DS3505
ZBYN,1996-01-29 13:00,ZBYN 291300Z AUTO 09006KT 7SM M05/M23 A3030 RMK T10501230 IEM_DS3505
ZBYN,1996-01-29 14:00,ZBYN 291400Z AUTO 12004KT 7SM M06/M23 A3030 RMK T10601230 IEM_DS3505
ZBYN,1996-01-29 15:00,ZBYN 291500Z AUTO 16004KT 9SM M06/M24 A3030 RMK SLP311 T10641237 52008 IEM_DS3505
ZBYN,1996-01-29 16:00,ZBYN 291600Z AUTO 09006KT 6SM M08/M25 A3030 RMK T10801250 IEM_DS3505
ZBYN,1996-01-29 17:00,ZBYN 291700Z AUTO 12004KT 6SM M10/M24 A3033 RMK T11001240 IEM_DS3505
ZBYN,1996-01-29 18:00,ZBYN 291800Z AUTO 00000KT 9SM M10/M20 A3030 RMK SLP315 T10991198 52005 IEM_DS3505
ZBYN,1996-01-29 19:00,ZBYN 291900Z AUTO 04004KT 7SM M08/M21 A3030 RMK T10801210 IEM_DS3505
ZBYN,1996-01-29 20:00,ZBYN 292000Z AUTO 17008KT 6SM M09/M18 A3030 RMK T10901180 IEM_DS3505
ZBYN,1996-01-29 21:00,ZBYN 292100Z AUTO 34002KT 7SM M06/M18 A3033 RMK SLP308 T10621183 57001 IEM_DS3505
ZBYN,1996-01-29 22:00,ZBYN 292200Z AUTO 12004KT 6SM M09/M19 A3033 RMK T10901190 IEM_DS3505
ZBYN,1996-01-29 23:00,ZBYN 292300Z AUTO 11006KT 6SM M09/M19 A3033 RMK T10901190 IEM_DS3505
ZBYN,1996-01-30 00:00,ZBYN 300000Z AUTO 00000KT 6SM M08/M18 A3033 RMK SLP330 T10841179 52007 IEM_DS3505
ZBYN,1996-01-30 01:00,ZBYN 300100Z AUTO 00000KT 6SM M07/M20 A3036 RMK T10701200 IEM_DS3505
ZBYN,1996-01-30 03:00,ZBYN 300300Z AUTO 32004KT 6SM M01/M18 A3036 RMK SLP338 T10111184 52011 IEM_DS3505
ZBYN,1996-01-30 05:00,ZBYN 300500Z AUTO 19004KT 5SM 04/M15 A3030 RMK T00401150 IEM_DS3505
ZBYN,1996-01-30 06:00,ZBYN 300600Z AUTO 20008KT 6SM 05/M15 A3024 RMK SLP301 T00461148 57030 IEM_DS3505
ZBYN,1996-01-30 07:00,ZBYN 300700Z AUTO 23008KT 6SM 06/M21 A3024 RMK T00601210 IEM_DS3505
ZBYN,1996-01-30 08:00,ZBYN 300800Z AUTO 23010KT 6SM 04/M21 A3021 RMK T00401210 IEM_DS3505
ZBYN,1996-01-30 09:00,ZBYN 300900Z AUTO 25004KT 6SM 04/M18 A3021 RMK SLP285 T00421181 57009 IEM_DS3505
ZBYN,1996-01-30 10:00,ZBYN 301000Z AUTO 32004KT 6SM 02/M20 A3024 RMK T00201200 IEM_DS3505
ZBYN,1996-01-30 11:00,ZBYN 301100Z AUTO 33006KT 7SM 00/M24 A3030 RMK T00001240 IEM_DS3505
ZBYN,1996-01-30 12:00,ZBYN 301200Z AUTO 36006KT 12SM M01/M21 A3033 RMK SLP330 T10071211 52029 IEM_DS3505
ZBYN,1996-01-30 13:00,ZBYN 301300Z AUTO 36010KT 6SM M02/M24 A3036 RMK T10201240 IEM_DS3505
ZBYN,1996-01-30 14:00,ZBYN 301400Z AUTO 33008KT 6SM M03/M23 A3039 RMK T10301230 IEM_DS3505
ZBYN,1996-01-30 15:00,ZBYN 301500Z AUTO 29006KT 6SM M04/M24 A3039 RMK SLP345 T10371236 52021 IEM_DS3505
ZBYN,1996-01-30 16:00,ZBYN 301600Z AUTO 36006KT 6SM M04/M23 A3042 RMK T10401230 IEM_DS3505
ZBYN,1996-01-30 17:00,ZBYN 301700Z AUTO 03006KT 6SM M05/M24 A3045 RMK T10501240 IEM_DS3505
ZBYN,1996-01-30 18:00,ZBYN 301800Z AUTO 34002KT 6SM M06/M23 A3045 RMK SLP350 T10561226 52011 IEM_DS3505
ZBYN,1996-01-30 19:00,ZBYN 301900Z AUTO 33004KT 7SM M06/M24 A3045 RMK T10601240 IEM_DS3505
ZBYN,1996-01-30 20:00,ZBYN 302000Z AUTO 00000KT 7SM M08/M24 A3045 RMK T10801240 IEM_DS3505
ZBYN,1996-01-30 21:00,ZBYN 302100Z AUTO 29010KT 6SM M07/M27 A3047 RMK SLP365 T10741273 52010 IEM_DS3505
ZBYN,1996-01-30 22:00,ZBYN 302200Z AUTO 00000KT 7SM M11/M27 A3047 RMK T11101270 IEM_DS3505
ZBYN,1996-01-30 23:00,ZBYN 302300Z AUTO 05006KT 7SM M13/M27 A3047 RMK T11301270 IEM_DS3505
ZBYN,1996-01-31 00:00,ZBYN 310000Z AUTO 36004KT 11SM M10/M29 A3050 RMK SLP394 T11011294 52013 IEM_DS3505
ZBYN,1996-01-31 01:00,ZBYN 310100Z AUTO 00000KT 7SM M10/M33 A3053 RMK T11001330 IEM_DS3505
ZBYN,1996-01-31 02:00,ZBYN 310200Z AUTO 00000KT 7SM M08/M35 A3053 RMK T10801350 IEM_DS3505
ZBYN,1996-01-31 03:00,ZBYN 310300Z AUTO 32004KT 7SM M06/M33 A3053 RMK SLP396 T10561327 52005 IEM_DS3505
ZBYN,1996-01-31 04:00,ZBYN 310400Z AUTO 19006KT 7SM M04/M30 A3050 RMK T10401300 IEM_DS3505
ZBYN,1996-01-31 05:00,ZBYN 310500Z AUTO 32008KT 7SM M03/M28 A3045 RMK T10301280 IEM_DS3505
ZBYN,1996-01-31 06:00,ZBYN 310600Z AUTO 29014KT 11SM M01/M32 A3042 RMK SLP358 T10091322 57030 IEM_DS3505
ZBYN,1996-01-31 07:00,ZBYN 310700Z AUTO 32016KT 7SM 00/M19 A3039 RMK T00001190 IEM_DS3505
ZBYN,1996-01-31 08:00,ZBYN 310800Z AUTO 30017KT 7SM 00/M21 A3039 RMK T00001210 IEM_DS3505
ZBYN,1996-01-31 09:00,ZBYN 310900Z AUTO 29010KT 10SM M02/M32 A3039 RMK SLP356 T10161325 57006 IEM_DS3505
ZBYN,1996-01-31 10:00,ZBYN 311000Z AUTO 30017KT 7SM M03/M28 A3042 RMK T10301280 IEM_DS3505
ZBYN,1996-01-31 11:00,ZBYN 311100Z AUTO 30010KT 7SM M05/M28 A3045 RMK T10501280 IEM_DS3505
ZBYN,1996-01-31 12:00,ZBYN 311200Z AUTO 32012KT 7SM M05/M28 A3045 RMK SLP385 T10521282 52015 IEM_DS3505
ZBYN,1996-01-31 13:00,ZBYN 311300Z AUTO 32010KT 7SM M06/M33 A3047 RMK T10601330 IEM_DS3505
ZBYN,1996-01-31 14:00,ZBYN 311400Z AUTO 00000KT 7SM M07/M28 A3047 RMK T10701280 IEM_DS3505
ZBYN,1996-01-31 15:00,ZBYN 311500Z AUTO 29004KT 6SM M08/M28 A3050 RMK SLP398 T10841278 52014 IEM_DS3505
ZBYN,1996-01-31 16:00,ZBYN 311600Z AUTO 00000KT 7SM M08/M21 A3050 RMK T10801210 IEM_DS3505
ZBYN,1996-01-31 17:00,ZBYN 311700Z AUTO 00000KT 7SM M13/M33 A3050 RMK T11301330 IEM_DS3505
ZBYN,1996-01-31 18:00,ZBYN 311800Z AUTO 29002KT 6SM M08/M32 A3050 RMK SLP395 T10801318 52002 IEM_DS3505
ZBYN,1996-01-31 20:00,ZBYN 312000Z AUTO 00000KT 7SM M15/M30 A3047 RMK T11501300 IEM_DS3505
ZBYN,1996-01-31 21:00,ZBYN 312100Z AUTO 09006KT 6SM M13/M31 A3047 RMK SLP398 T11311309 57003 IEM_DS3505
ZBYN,1996-01-31 22:00,ZBYN 312200Z AUTO 11006KT 7SM M17/M30 A3050 RMK T11701300 IEM_DS3505
ZBYN,1996-01-31 23:00,ZBYN 312300Z AUTO 10006KT 7SM M17/M30 A3050 RMK T11701300 IEM_DS3505
ZBYN,1996-02-01 00:00,ZBYN 010000Z AUTO 00000KT 7SM M15/M30 A3053 RMK SLP416 T11541302 52006 IEM_DS3505
ZBYN,1996-02-01 01:00,ZBYN 010100Z AUTO 00000KT 7SM M14/M25 A3053 RMK T11401250 IEM_DS3505
ZBYN,1996-02-01 02:00,ZBYN 010200Z AUTO 19004KT 7SM M07/M28 A3053 RMK T10701280 IEM_DS3505
ZBYN,1996-02-01 03:00,ZBYN 010300Z AUTO 22004KT 5SM M06/M22 A3056 RMK SLP412 T10551224 52008 IEM_DS3505
ZBYN,1996-02-01 04:00,ZBYN 010400Z AUTO 20004KT 7SM M03/M25 A3053 RMK T10301250 IEM_DS3505
ZBYN,1996-02-01 05:00,ZBYN 010500Z AUTO 00000KT 7SM M03/M25 A3047 RMK T10301250 IEM_DS3505
ZBYN,1996-02-01 06:00,ZBYN 010600Z AUTO 14006KT 5SM M02/M24 A3045 RMK SLP382 T10201237 57025 IEM_DS3505
ZBYN,1996-02-01 07:00,ZBYN 010700Z AUTO 00000KT 7SM M01/M27 A3045 RMK T10101270 IEM_DS3505
ZBYN,1996-02-01 08:00,ZBYN 010800Z AUTO 00000KT 7SM M01/M27 A3045 RMK T10101270 IEM_DS3505
ZBYN,1996-02-01 09:00,ZBYN 010900Z AUTO 27004KT 5SM M01/M24 A3045 RMK SLP381 T10121244 57004 IEM_DS3505
ZBYN,1996-02-01 10:00,ZBYN 011000Z AUTO 00000KT 7SM M02/M24 A3045 RMK T10201240 IEM_DS3505
ZBYN,1996-02-01 11:00,ZBYN 011100Z AUTO 00000KT 7SM M05/M22 A3047 RMK T10501220 IEM_DS3505
ZBYN,1996-02-01 12:00,ZBYN 011200Z AUTO 29002KT 5SM M06/M22 A3050 RMK SLP410 T10651219 52013 IEM_DS3505
ZBYN,1996-02-01 13:00,ZBYN 011300Z AUTO 34002KT 7SM M07/M23 A3050 RMK T10701230 IEM_DS3505
ZBYN,1996-02-01 14:00,ZBYN 011400Z AUTO 00000KT 7SM M11/M27 A3050 RMK T11101270 IEM_DS3505
ZBYN,1996-02-01 15:00,ZBYN 011500Z AUTO 32004KT 5SM M08/M23 A3053 RMK SLP402 T10821231 52007 IEM_DS3505
ZBYN,1996-02-01 16:00,ZBYN 011600Z AUTO 00000KT 7SM M12/M27 A3053 RMK T11201270 IEM_DS3505
ZBYN,1996-02-01 17:00,ZBYN 011700Z AUTO 00000KT 7SM M14/M27 A3053 RMK T11401270 IEM_DS3505
ZBYN,1996-02-01 18:00,ZBYN 011800Z AUTO 36004KT 5SM M09/M22 A3053 RMK SLP403 T10941217 52005 IEM_DS3505
ZBYN,1996-02-01 19:00,ZBYN 011900Z AUTO 00000KT 7SM M15/M27 A3053 RMK T11501270 IEM_DS3505
ZBYN,1996-02-01 20:00,ZBYN 012000Z AUTO 00000KT 7SM M15/M27 A3053 RMK T11501270 IEM_DS3505
ZBYN,1996-02-01 21:00,ZBYN 012100Z AUTO 02002KT 6SM M12/M27 A3053 RMK SLP404 T11161269 57001 IEM_DS3505
ZBYN,1996-02-01 22:00,ZBYN 012200Z AUTO 15004KT 7SM M15/M27 A3053 RMK T11501270 IEM_DS3505
ZBYN,1996-02-01 23:00,ZBYN 012300Z AUTO 12004KT 7SM M16/M27 A3053 RMK T11601270 IEM_DS3505
ZBYN,1996-02-02 00:00,ZBYN 020000Z AUTO 00000KT 6SM M14/M27 A3053 RMK SLP417 T11421270 57002 IEM_DS3505
ZBYN,1996-02-02 01:00,ZBYN 020100Z AUTO 00000KT 7SM M14/M24 A3053 RMK T11401240 IEM_DS3505
ZBYN,1996-02-02 02:00,ZBYN 020200Z AUTO 00000KT 5SM M09/M20 A3053 RMK T10901200 IEM_DS3505
ZBYN,1996-02-02 03:00,ZBYN 020300Z AUTO 14004KT 6SM M04/M21 A3050 RMK SLP398 T10431210 57003 IEM_DS3505
ZBYN,1996-02-02 04:00,ZBYN 020400Z AUTO 00000KT 4SM M03/M23 A3047 RMK T10301230 IEM_DS3505
ZBYN,1996-02-02 05:00,ZBYN 020500Z AUTO 24006KT 6SM M02/M22 A3042 RMK T10201220 IEM_DS3505
ZBYN,1996-02-02 06:00,ZBYN 020600Z AUTO 20006KT 6SM 00/M22 A3039 RMK SLP350 T00011216 57038 IEM_DS3505
ZBYN,1996-02-02 07:00,ZBYN 020700Z AUTO 23006KT 7SM 02/M23 A3036 RMK T00201230 IEM_DS3505
ZBYN,1996-02-02 08:00,ZBYN 020800Z AUTO 23004KT 7SM 02/M27 A3033 RMK T00201270 IEM_DS3505
ZBYN,1996-02-02 09:00,ZBYN 020900Z AUTO 16004KT 6SM 01/M21 A3033 RMK SLP327 T00121207 57023 IEM_DS3505
ZBYN,1996-02-02 10:00,ZBYN 021000Z AUTO 00000KT 7SM M01/M17 A3033 RMK T10101170 IEM_DS3505
ZBYN,1996-02-02 11:00,ZBYN 021100Z AUTO 00000KT 7SM M04/M24 A3030 RMK T10401240 IEM_DS3505
ZBYN,1996-02-02 12:00,ZBYN 021200Z AUTO 32002KT 6SM M05/M14 A3030 RMK SLP344 T10461144 52001 IEM_DS3505
ZBYN,1996-02-02 14:00,ZBYN 021400Z AUTO 00000KT 7SM M09/M22 A3033 RMK T10901220 IEM_DS3505
ZBYN,1996-02-02 15:00,ZBYN 021500Z AUTO 14004KT 5SM M09/M18 A3030 RMK SLP331 T10871184 57002 IEM_DS3505
ZBYN,1996-02-02 16:00,ZBYN 021600Z AUTO 00000KT 7SM M10/M24 A3030 RMK T11001240 IEM_DS3505
ZBYN,1996-02-02 17:00,ZBYN 021700Z AUTO 00000KT 7SM M11/M24 A3030 RMK T11101240 IEM_DS3505
ZBYN,1996-02-02 18:00,ZBYN 021800Z AUTO 32002KT 5SM M09/M17 A3030 RMK SLP319 T10921170 57004 IEM_DS3505
ZBYN,1996-02-02 19:00,ZBYN 021900Z AUTO 00000KT 7SM M11/M24 A3027 RMK T11101240 IEM_DS3505
ZBYN,1996-02-02 20:00,ZBYN 022000Z AUTO 00000KT 7SM M12/M23 A3027 RMK T11201230 IEM_DS3505
ZBYN,1996-02-02 21:00,ZBYN 022100Z AUTO 14002KT 5SM M12/M23 A3024 RMK SLP303 T11221233 57018 IEM_DS3505
ZBYN,1996-02-02 22:00,ZBYN 022200Z AUTO 00000KT 4SM M13/M22 A3024 RMK T11301220 IEM_DS3505
ZBYN,1996-02-02 23:00,ZBYN 022300Z AUTO 00000KT 4SM M13/M23 A3024 RMK T11301230 IEM_DS3505
ZBYN,1996-02-03 00:00,ZBYN 030000Z AUTO 11002KT 5SM M13/M24 A3024 RMK SLP313 T11261237 57001 IEM_DS3505
ZBYN,1996-02-03 01:00,ZBYN 030100Z AUTO 00000KT 4SM M12/M22 A3024 RMK T11201220 IEM_DS3505
ZBYN,1996-02-03 02:00,ZBYN 030200Z AUTO 00000KT 4SM M07/M21 A3024 RMK T10701210 IEM_DS3505
ZBYN,1996-02-03 03:00,ZBYN 030300Z AUTO 14004KT 6SM M03/M17 A3021 RMK SLP297 T10291171 57005 IEM_DS3505
ZBYN,1996-02-03 04:00,ZBYN 030400Z AUTO 00000KT 4SM M01/M20 A3018 RMK T10101200 IEM_DS3505
ZBYN,1996-02-03 05:00,ZBYN 030500Z AUTO 21004KT 5SM 01/M17 A3012 RMK T00101170 IEM_DS3505
ZBYN,1996-02-03 06:00,ZBYN 030600Z AUTO 18010KT 6SM 04/M20 A3009 RMK SLP242 T00381203 57039 IEM_DS3505
ZBYN,1996-02-03 07:00,ZBYN 030700Z AUTO 21010KT 6SM 05/M25 A3006 RMK T00501250 IEM_DS3505
ZBYN,1996-02-03 08:00,ZBYN 030800Z AUTO 21010KT 6SM 05/M19 A3003 RMK T00501190 IEM_DS3505
ZBYN,1996-02-03 09:00,ZBYN 030900Z AUTO 22006KT 6SM 05/M17 A3000 RMK SLP219 T00531170 57024 IEM_DS3505
ZBYN,1996-02-03 10:00,ZBYN 031000Z AUTO 00000KT 6SM 01/M15 A3000 RMK T00101150 IEM_DS3505
ZBYN,1996-02-03 11:00,ZBYN 031100Z AUTO 32004KT 6SM 01/M15 A3003 RMK T00101150 IEM_DS3505
ZBYN,1996-02-03 12:00,ZBYN 031200Z AUTO 25002KT 9SM 01/M17 A3003 RMK SLP229 T00121167 52002 IEM_DS3505
ZBYN,1996-02-03 14:00,ZBYN 031400Z AUTO 22006KT 7SM M04/M18 A3006 RMK T10401180 IEM_DS3505
ZBYN,1996-02-03 15:00,ZBYN 031500Z AUTO 14004KT 9SM M05/M17 A3003 RMK SLP224 T10501171 52001 IEM_DS3505
ZBYN,1996-02-03 16:00,ZBYN 031600Z AUTO 00000KT 6SM M08/M20 A3003 RMK T10801200 IEM_DS3505
ZBYN,1996-02-03 17:00,ZBYN 031700Z AUTO 00000KT 6SM M09/M22 A3003 RMK T10901220 IEM_DS3505
ZBYN,1996-02-03 18:00,ZBYN 031800Z AUTO 00000KT 9SM M07/M17 A3002 RMK SLP212 T10731172 57003 IEM_DS3505
ZBYN,1996-02-03 19:00,ZBYN 031900Z AUTO 00000KT 6SM M10/M22 A3000 RMK T11001220 IEM_DS3505
ZBYN,1996-02-03 20:00,ZBYN 032000Z AUTO 00000KT 6SM M11/M22 A3000 RMK T11101220 IEM_DS3505
ZBYN,1996-02-03 21:00,ZBYN 032100Z AUTO 00000KT 6SM M10/M16 A3000 RMK SLP214 T10981165 54000 IEM_DS3505
ZBYN,1996-02-03 22:00,ZBYN 032200Z AUTO 00000KT 6SM M10/M20 A3003 RMK T11001200 IEM_DS3505
ZBYN,1996-02-03 23:00,ZBYN 032300Z AUTO 00000KT 6SM M11/M21 A3006 RMK T11101210 IEM_DS3505
ZBYN,1996-02-04 00:00,ZBYN 040000Z AUTO 34006KT 6SM M06/M15 A3009 RMK SLP239 T10641150 52021 IEM_DS3505
ZBYN,1996-02-04 01:00,ZBYN 040100Z AUTO 32004KT 7SM M05/M20 A3012 RMK T10501200 IEM_DS3505
ZBYN,1996-02-04 02:00,ZBYN 040200Z AUTO 01006KT 7SM M02/M24 A3015 RMK T10201240 IEM_DS3505
ZBYN,1996-02-04 03:00,ZBYN 040300Z AUTO 02008KT 6SM M01/M20 A3015 RMK SLP262 T10101198 52020 IEM_DS3505
ZBYN,1996-02-04 04:00,ZBYN 040400Z AUTO 00000KT 7SM 01/M23 A3015 RMK T00101230 IEM_DS3505
ZBYN,1996-02-04 05:00,ZBYN 040500Z AUTO 04006KT 7SM 03/M23 A3012 RMK T00301230 IEM_DS3505
ZBYN,1996-02-04 06:00,ZBYN 040600Z AUTO 36006KT 6SM 03/M21 A3009 RMK SLP243 T00281209 57015 IEM_DS3505
ZBYN,1996-02-04 07:00,ZBYN 040700Z AUTO 25004KT 7SM 04/M27 A3009 RMK T00401270 IEM_DS3505
ZBYN,1996-02-04 08:00,ZBYN 040800Z AUTO 20008KT 7SM 05/M23 A3009 RMK T00501230 IEM_DS3505
ZBYN,1996-02-04 09:00,ZBYN 040900Z AUTO 29006KT 9SM 04/M25 A3009 RMK SLP237 T00441254 57007 IEM_DS3505
ZBYN,1996-02-04 10:00,ZBYN 041000Z AUTO 32012KT 7SM 02/M23 A3012 RMK T00201230 IEM_DS3505
ZBYN,1996-02-04 11:00,ZBYN 041100Z AUTO 33006KT 7SM 00/M21 A3015 RMK T00001210 IEM_DS3505
ZBYN,1996-02-04 12:00,ZBYN 041200Z AUTO 36004KT 7SM M02/M24 A3015 RMK SLP273 T10251240 52027 IEM_DS3505
ZBYN,1996-02-04 13:00,ZBYN 041300Z AUTO 32010KT 7SM M01/M25 A3015 RMK T10101250 IEM_DS3505
ZBYN,1996-02-04 14:00,ZBYN 041400Z AUTO 33010KT 7SM M02/M24 A3021 RMK T10201240 IEM_DS3505
ZBYN,1996-02-04 15:00,ZBYN 041500Z AUTO 32010KT 6SM M04/M26 A3021 RMK SLP285 T10411263 52017 IEM_DS3505
ZBYN,1996-02-04 16:00,ZBYN 041600Z AUTO 27004KT 7SM M05/M27 A3024 RMK T10501270 IEM_DS3505
ZBYN,1996-02-04 17:00,ZBYN 041700Z AUTO 33006KT 7SM M04/M25 A3024 RMK T10401250 IEM_DS3505
ZBYN,1996-02-04 18:00,ZBYN 041800Z AUTO 11006KT 6SM M09/M25 A3024 RMK SLP287 T10881246 54000 IEM_DS3505
ZBYN,1996-02-04 19:00,ZBYN 041900Z AUTO 10004KT 7SM M12/M30 A3024 RMK T11201300 IEM_DS3505
ZBYN,1996-02-04 21:00,ZBYN 042100Z AUTO 29002KT 6SM M12/M26 RMK SLP301 T11241261 52010 IEM_DS3505
ZBYN,1996-02-04 22:00,ZBYN 042200Z AUTO 00000KT 7SM M13/M27 A3024 RMK T11301270 IEM_DS3505
ZBYN,1996-02-04 23:00,ZBYN 042300Z AUTO 00000KT 7SM M14/M28 A3027 RMK T11401280 IEM_DS3505
ZBYN,1996-02-05 00:00,ZBYN 050000Z AUTO 34004KT 6SM M10/M25 A3030 RMK SLP327 T10981248 52016 IEM_DS3505
ZBYN,1996-02-05 01:00,ZBYN 050100Z AUTO 00000KT 7SM M12/M24 A3033 RMK T11201240 IEM_DS3505
ZBYN,1996-02-05 02:00,ZBYN 050200Z AUTO 00000KT 2SM M06/M23 A3033 RMK T10601230 IEM_DS3505
ZBYN,1996-02-05 03:00,ZBYN 050300Z AUTO 02004KT 6SM M02/M23 A3033 RMK SLP326 T10161232 52010 IEM_DS3505
ZBYN,1996-02-05 04:00,ZBYN 050400Z AUTO 00000KT 3SM 01/M22 A3033 RMK T00101220 IEM_DS3505
ZBYN,1996-02-05 05:00,ZBYN 050500Z AUTO 20004KT 7SM 04/M23 A3027 RMK T00401230 IEM_DS3505
ZBYN,1996-02-05 06:00,ZBYN 050600Z AUTO 25002KT 6SM 04/M24 A3024 RMK SLP297 T00381243 57025 IEM_DS3505
ZBYN,1996-02-05 07:00,ZBYN 050700Z AUTO 00000KT 6SM 05/M27 A3021 RMK T00501270 IEM_DS3505
ZBYN,1996-02-05 08:00,ZBYN 050800Z AUTO 22010KT 6SM 05/M23 A3021 RMK T00501230 IEM_DS3505
ZBYN,1996-02-05 09:00,ZBYN 050900Z AUTO 20004KT 6SM 03/M25 A3021 RMK SLP283 T00281248 57020 IEM_DS3505
ZBYN,1996-02-05 10:00,ZBYN 051000Z AUTO 36002KT 6SM 01/M17 A3021 RMK T00101170 IEM_DS3505
ZBYN,1996-02-05 11:00,ZBYN 051100Z AUTO 00000KT 6SM M03/M20 A3024 RMK T10301200 IEM_DS3505
ZBYN,1996-02-05 12:00,ZBYN 051200Z AUTO 00000KT 7SM M03/M20 A3027 RMK SLP309 T10321197 52017 IEM_DS3505
ZBYN,1996-02-05 13:00,ZBYN 051300Z AUTO 10006KT 6SM M04/M21 A3027 RMK T10401210 IEM_DS3505
ZBYN,1996-02-05 14:00,ZBYN 051400Z AUTO 00000KT 6SM M04/M19 A3027 RMK T10401190 IEM_DS3505
ZBYN,1996-02-05 15:00,ZBYN 051500Z AUTO 34004KT 7SM M05/M22 A3030 RMK SLP308 T10481223 52011 IEM_DS3505
ZBYN,1996-02-05 17:00,ZBYN 051700Z AUTO 00000KT 7SM M07/M22 A3030 RMK T10701220 IEM_DS3505
ZBYN,1996-02-05 18:00,ZBYN 051800Z AUTO 34004KT 7SM M07/M21 A3033 RMK SLP311 T10671212 52008 IEM_DS3505
ZBYN,1996-02-05 19:00,ZBYN 051900Z AUTO 00000KT 7SM M08/M24 A3033 RMK T10801240 IEM_DS3505
ZBYN,1996-02-05 20:00,ZBYN 052000Z AUTO 00000KT 7SM M08/M23 A3030 RMK T10801230 IEM_DS3505
ZBYN,1996-02-05 21:00,ZBYN 052100Z AUTO 34004KT 7SM M07/M20 A3030 RMK SLP314 T10741200 54000 IEM_DS3505
ZBYN,1996-02-05 22:00,ZBYN 052200Z AUTO 00000KT 7SM M10/M23 A3033 RMK T11001230 IEM_DS3505
ZBYN,1996-02-05 23:00,ZBYN 052300Z AUTO 00000KT 7SM M10/M23 A3033 RMK T11001230 IEM_DS3505
ZBYN,1996-02-06 00:00,ZBYN 060000Z AUTO 00000KT 6SM M09/M20 A3033 RMK SLP333 T10921202 52004 IEM_DS3505
ZBYN,1996-02-06 01:00,ZBYN 060100Z AUTO 00000KT 4SM M07/M21 A3033 RMK T10701210 IEM_DS3505
ZBYN,1996-02-06 02:00,ZBYN 060200Z AUTO 00000KT 3SM M05/M20 A3033 RMK T10501200 IEM_DS3505
ZBYN,1996-02-06 03:00,ZBYN 060300Z AUTO 00000KT 6SM M03/M18 A3033 RMK SLP333 T10261181 52009 IEM_DS3505
ZBYN,1996-02-06 04:00,ZBYN 060400Z AUTO 17006KT 6SM 00/M17 A3033 RMK T00001170 IEM_DS3505
ZBYN,1996-02-06 05:00,ZBYN 060500Z AUTO 19006KT 6SM 00/M16 A3027 RMK T00001160 IEM_DS3505
ZBYN,1996-02-06 06:00,ZBYN 060600Z AUTO 18008KT 6SM 00/M16 A3027 RMK SLP303 T00051156 57025 IEM_DS3505
ZBYN,1996-02-06 07:00,ZBYN 060700Z AUTO 22010KT 6SM 01/M15 A3024 RMK T00101150 IEM_DS3505
ZBYN,1996-02-06 08:00,ZBYN 060800Z AUTO 22012KT 6SM 01/M11 A3021 RMK T00101110 IEM_DS3505
ZBYN,1996-02-06 09:00,ZBYN 060900Z AUTO 14010KT 6SM 01/M15 A3021 RMK SLP293 T00081148 57010 IEM_DS3505
ZBYN,1996-02-06 10:00,ZBYN 061000Z AUTO 19008KT 6SM 00/M10 A3024 RMK T00001100 IEM_DS3505
ZBYN,1996-02-06 11:00,ZBYN 061100Z AUTO 17006KT 6SM M01/M10 A3027 RMK T10101100 IEM_DS3505
ZBYN,1996-02-06 12:00,ZBYN 061200Z AUTO 16008KT 6SM M00/M15 A3027 RMK SLP307 T10031154 52008 IEM_DS3505
ZBYN,1996-02-06 13:00,ZBYN 061300Z AUTO 15006KT 6SM M01/M09 A3027 RMK T10101090 IEM_DS3505
ZBYN,1996-02-06 14:00,ZBYN 061400Z AUTO 12004KT 6SM M01/M09 A3030 RMK T10101090 IEM_DS3505
ZBYN,1996-02-06 15:00,ZBYN 061500Z AUTO 36004KT 6SM M00/M13 A3027 RMK SLP298 T10031134 52003 IEM_DS3505
ZBYN,1996-02-06 16:00,ZBYN 061600Z AUTO 00000KT 6SM M02/M08 A3030 RMK T10201080 IEM_DS3505
ZBYN,1996-02-06 18:00,ZBYN 061800Z AUTO 32006KT 6SM 00/M18 A3027 RMK SLP294 T00041184 52002 IEM_DS3505
ZBYN,1996-02-06 19:00,ZBYN 061900Z AUTO 26006KT 6SM M02/M10 A3027 RMK T10201100 IEM_DS3505
ZBYN,1996-02-06 20:00,ZBYN 062000Z AUTO 29010KT 6SM M02/M12 A3027 RMK T10201120 IEM_DS3505
ZBYN,1996-02-06 21:00,ZBYN 062100Z AUTO 29004KT 6SM M03/M20 A3027 RMK SLP297 T10301201 57002 IEM_DS3505
ZBYN,1996-02-06 22:00,ZBYN 062200Z AUTO 00000KT 6SM M05/M14 A3027 RMK T10501140 IEM_DS3505
ZBYN,1996-02-06 23:00,ZBYN 062300Z AUTO 12004KT 6SM M08/M14 A3027 RMK T10801140 IEM_DS3505
ZBYN,1996-02-07 00:00,ZBYN 070000Z AUTO 00000KT 6SM M09/M16 A3030 RMK SLP317 T10911162 52006 IEM_DS3505
ZBYN,1996-02-07 01:00,ZBYN 070100Z AUTO 00000KT 6SM M07/M16 A3030 RMK T10701160 IEM_DS3505
ZBYN,1996-02-07 03:00,ZBYN 070300Z AUTO 27008KT 10SM 02/M15 A3030 RMK SLP303 T00161150 52005 IEM_DS3505
ZBYN,1996-02-07 04:00,ZBYN 070400Z AUTO 00000KT 7SM 02/M16 A3027 RMK T00201160 IEM_DS3505
ZBYN,1996-02-07 06:00,ZBYN 070600Z AUTO 29014KT 12SM 05/M17 A3021 RMK SLP261 T00501173 57031 IEM_DS3505
ZBYN,1996-02-07 07:00,ZBYN 070700Z AUTO 31014KT 7SM 06/ A3018 RMK IEM_DS3505
ZBYN,1996-02-07 08:00,ZBYN 070800Z AUTO 29010KT 7SM 05/M20 A3018 RMK T00501200 IEM_DS3505
ZBYN,1996-02-07 09:00,ZBYN 070900Z AUTO 34008KT 12SM 05/M19 A3018 RMK SLP261 T00471192 57006 IEM_DS3505
ZBYN,1996-02-07 10:00,ZBYN 071000Z AUTO 02006KT 7SM 02/M20 A3021 RMK T00201200 IEM_DS3505
ZBYN,1996-02-07 11:00,ZBYN 071100Z AUTO 00000KT 7SM M01/M21 A3024 RMK T10101210 IEM_DS3505
ZBYN,1996-02-07 12:00,ZBYN 071200Z AUTO 34006KT 6SM M00/M21 A3024 RMK SLP311 T10011211 52027 IEM_DS3505
ZBYN,1996-02-07 15:00,ZBYN 071500Z AUTO 09004KT 6SM M04/M22 RMK SLP315 T10371223 52015 IEM_DS3505
ZBYN,1996-02-07 18:00,ZBYN 071800Z AUTO 34004KT 6SM M06/M20 A3034 RMK SLP321 T10651198 52007 IEM_DS3505
ZBYN,1996-02-07 21:00,ZBYN 072100Z AUTO 34006KT 9SM M07/M20 RMK SLP322 T10681205 54000 IEM_DS3505
ZBYN,1996-02-08 00:00,ZBYN 080000Z AUTO 34008KT 9SM M09/M22 A3039 RMK SLP354 T10861219 52018 IEM_DS3505
ZBYN,1996-02-08 01:00,ZBYN 080100Z AUTO 33004KT 7SM M08/M25 A3042 RMK T10801250 IEM_DS3505
ZBYN,1996-02-08 02:00,ZBYN 080200Z AUTO 32010KT 7SM M06/M27 A3042 RMK T10601270 IEM_DS3505
ZBYN,1996-02-08 03:00,ZBYN 080300Z AUTO 34008KT 6SM M05/M21 RMK SLP362 T10481213 52007 IEM_DS3505
ZBYN,1996-02-08 04:00,ZBYN 080400Z AUTO 36004KT 7SM M03/M24 A3042 RMK T10301240 IEM_DS3505
ZBYN,1996-02-08 05:00,ZBYN 080500Z AUTO 00000KT 7SM M01/M23 A3042 RMK T10101230 IEM_DS3505
ZBYN,1996-02-08 06:00,ZBYN 080600Z AUTO 29017KT 9SM M02/M22 A3036 RMK SLP346 T10161221 57014 IEM_DS3505
ZBYN,1996-02-08 07:00,ZBYN 080700Z AUTO 30021KT 7SM M01/M24 A3036 RMK T10101240 IEM_DS3505
ZBYN,1996-02-08 08:00,ZBYN 080800Z AUTO 32019KT 7SM M01/M20 A3036 RMK T10101200 IEM_DS3505
ZBYN,1996-02-08 09:00,ZBYN 080900Z AUTO 29010KT 9SM M03/M28 A3039 RMK SLP350 T10271284 52002 IEM_DS3505
ZBYN,1996-02-08 10:00,ZBYN 081000Z AUTO 32019KT 7SM M04/M23 A3042 RMK T10401230 IEM_DS3505
ZBYN,1996-02-08 11:00,ZBYN 081100Z AUTO 30010KT 7SM M05/M25 A3045 RMK T10501250 IEM_DS3505
ZBYN,1996-02-08 12:00,ZBYN 081200Z AUTO 27004KT 7SM M06/M26 A3045 RMK SLP379 T10551262 52018 IEM_DS3505
ZBYN,1996-02-08 13:00,ZBYN 081300Z AUTO 28006KT 7SM M06/M24 A3045 RMK T10601240 IEM_DS3505
ZBYN,1996-02-08 14:00,ZBYN 081400Z AUTO 32004KT 7SM M07/M25 A3045 RMK T10701250 IEM_DS3505
ZBYN,1996-02-08 15:00,ZBYN 081500Z AUTO 32010KT 6SM M07/M24 A3047 RMK SLP383 T10711235 52007 IEM_DS3505
ZBYN,1996-02-08 16:00,ZBYN 081600Z AUTO 31006KT 7SM M08/M25 A3045 RMK T10801250 IEM_DS3505
ZBYN,1996-02-08 17:00,ZBYN 081700Z AUTO 31006KT 7SM M08/M25 A3045 RMK T10801250 IEM_DS3505
ZBYN,1996-02-08 18:00,ZBYN 081800Z AUTO 27008KT 6SM M08/M25 A3045 RMK SLP374 T10851251 57005 IEM_DS3505
ZBYN,1996-02-08 19:00,ZBYN 081900Z AUTO 30008KT 7SM M10/M25 A3045 RMK T11001250 IEM_DS3505
ZBYN,1996-02-08 20:00,ZBYN 082000Z AUTO 03006KT 7SM M10/M25 A3045 RMK T11001250 IEM_DS3505
ZBYN,1996-02-08 21:00,ZBYN 082100Z AUTO 36004KT 6SM M10/M26 A3047 RMK SLP386 T10971260 52007 IEM_DS3505
ZBYN,1996-02-08 22:00,ZBYN 082200Z AUTO 00000KT 7SM M11/M27 A3050 RMK T11101270 IEM_DS3505
ZBYN,1996-02-08 23:00,ZBYN 082300Z AUTO 00000KT 7SM M12/M27 A3050 RMK T11201270 IEM_DS3505
ZBYN,1996-02-09 00:00,ZBYN 090000Z AUTO 02004KT 6SM M11/M29 A3053 RMK SLP414 T11131288 52018 IEM_DS3505
ZBYN,1996-02-09 01:00,ZBYN 090100Z AUTO 32006KT 7SM M10/M25 A3056 RMK T11001250 IEM_DS3505
ZBYN,1996-02-09 02:00,ZBYN 090200Z AUTO 02002KT 7SM M08/M27 A3056 RMK T10801270 IEM_DS3505
ZBYN,1996-02-09 03:00,ZBYN 090300Z AUTO 34006KT 6SM M07/M28 A3056 RMK SLP423 T10681284 52013 IEM_DS3505
ZBYN,1996-02-09 06:00,ZBYN 090600Z AUTO 18010KT 6SM 02/M24 A3050 RMK SLP398 T00241240 57017 IEM_DS3505
ZBYN,1996-02-09 07:00,ZBYN 090700Z AUTO 24008KT 7SM 00/M21 A3045 RMK T00001210 IEM_DS3505
ZBYN,1996-02-09 08:00,ZBYN 090800Z AUTO 18004KT 7SM 02/M25 A3045 RMK T00201250 IEM_DS3505
ZBYN,1996-02-09 09:00,ZBYN 090900Z AUTO 16006KT 6SM 01/M24 A3042 RMK SLP368 T00081238 57024 IEM_DS3505
ZBYN,1996-02-09 10:00,ZBYN 091000Z AUTO 00000KT 7SM M01/M19 A3042 RMK T10101190 IEM_DS3505
ZBYN,1996-02-09 11:00,ZBYN 091100Z AUTO 09004KT 7SM M05/M24 A3042 RMK T10501240 IEM_DS3505
ZBYN,1996-02-09 12:00,ZBYN 091200Z AUTO 34004KT 6SM M04/M24 A3042 RMK SLP374 T10411237 57006 IEM_DS3505
ZBYN,1996-02-09 13:00,ZBYN 091300Z AUTO 00000KT 7SM M09/M24 A3042 RMK T10901240 IEM_DS3505
ZBYN,1996-02-09 14:00,ZBYN 091400Z AUTO 00000KT 7SM M09/M23 A3042 RMK T10901230 IEM_DS3505
ZBYN,1996-02-09 15:00,ZBYN 091500Z AUTO 34002KT 6SM M09/M25 A3042 RMK SLP374 T10861254 54000 IEM_DS3505
ZBYN,1996-02-09 16:00,ZBYN 091600Z AUTO 00000KT 7SM M11/M27 A3039 RMK T11101270 IEM_DS3505
ZBYN,1996-02-09 17:00,ZBYN 091700Z AUTO 09004KT 7SM M12/M27 A3039 RMK T11201270 IEM_DS3505
ZBYN,1996-02-09 18:00,ZBYN 091800Z AUTO 32004KT 6SM M12/M27 A3036 RMK SLP359 T11171266 57011 IEM_DS3505
ZBYN,1996-02-09 19:00,ZBYN 091900Z AUTO 00000KT 7SM M12/M27 A3036 RMK T11201270 IEM_DS3505
ZBYN,1996-02-09 20:00,ZBYN 092000Z AUTO 00000KT 7SM M12/M27 A3033 RMK T11201270 IEM_DS3505
ZBYN,1996-02-09 21:00,ZBYN 092100Z AUTO 34004KT 6SM M10/M25 A3033 RMK SLP330 T11011248 57018 IEM_DS3505
ZBYN,1996-02-09 22:00,ZBYN 092200Z AUTO 00000KT 7SM M13/M27 A3030 RMK T11301270 IEM_DS3505
ZBYN,1996-02-09 23:00,ZBYN 092300Z AUTO 00000KT 7SM M15/M27 A3030 RMK T11501270 IEM_DS3505
ZBYN,1996-02-10 00:00,ZBYN 100000Z AUTO 32002KT 6SM M11/M25 A3030 RMK SLP336 T11101252 57005 IEM_DS3505
ZBYN,1996-02-10 01:00,ZBYN 100100Z AUTO 00000KT 7SM M12/M23 A3030 RMK T11201230 IEM_DS3505
ZBYN,1996-02-10 02:00,ZBYN 100200Z AUTO 00000KT 7SM M05/M27 A3027 RMK T10501270 IEM_DS3505
ZBYN,1996-02-10 03:00,ZBYN 100300Z AUTO 36004KT 6SM M02/M20 A3024 RMK SLP310 T10191198 57015 IEM_DS3505
ZBYN,1996-02-10 04:00,ZBYN 100400Z AUTO 00000KT 7SM 02/M13 A3021 RMK T00201130 IEM_DS3505
ZBYN,1996-02-10 05:00,ZBYN 100500Z AUTO 17006KT 7SM 04/M21 A3015 RMK T00401210 IEM_DS3505
ZBYN,1996-02-10 06:00,ZBYN 100600Z AUTO 20008KT 6SM 04/M23 A3009 RMK SLP249 T00451234 57050 IEM_DS3505
ZBYN,1996-02-10 07:00,ZBYN 100700Z AUTO 18010KT 7SM 07/M20 A3003 RMK T00701200 IEM_DS3505
ZBYN,1996-02-10 08:00,ZBYN 100800Z AUTO 18006KT 7SM 08/M20 A3000 RMK T00801200 IEM_DS3505
ZBYN,1996-02-10 09:00,ZBYN 100900Z AUTO 16006KT 6SM 07/M22 A3000 RMK SLP211 T00661224 57028 IEM_DS3505
ZBYN,1996-02-10 10:00,ZBYN 101000Z AUTO 15006KT 7SM 03/M16 A2997 RMK T00301160 IEM_DS3505
ZBYN,1996-02-10 11:00,ZBYN 101100Z AUTO 00000KT 7SM 01/M17 A2997 RMK T00101170 IEM_DS3505
ZBYN,1996-02-10 12:00,ZBYN 101200Z AUTO 32004KT 6SM M01/M16 A3000 RMK SLP221 T10081165 57005 IEM_DS3505
ZBYN,1996-02-10 13:00,ZBYN 101300Z AUTO 00000KT 7SM M04/M19 A3000 RMK T10401190 IEM_DS3505
ZBYN,1996-02-10 14:00,ZBYN 101400Z AUTO 12004KT 7SM M05/M21 A3000 RMK T10501210 IEM_DS3505
ZBYN,1996-02-10 15:00,ZBYN 101500Z AUTO 16002KT 6SM M04/M15 A2997 RMK SLP206 T10391149 57004 IEM_DS3505
ZBYN,1996-02-10 16:00,ZBYN 101600Z AUTO 00000KT 7SM M07/M22 A2997 RMK T10701220 IEM_DS3505
ZBYN,1996-02-10 17:00,ZBYN 101700Z AUTO 00000KT 7SM M06/M24 A2994 RMK T10601240 IEM_DS3505
ZBYN,1996-02-10 18:00,ZBYN 101800Z AUTO 34004KT 7SM M05/M16 A2991 RMK SLP180 T10521161 57015 IEM_DS3505
ZBYN,1996-02-10 20:00,ZBYN 102000Z AUTO 00000KT 7SM M07/M19 A2988 RMK T10701190 IEM_DS3505
ZBYN,1996-02-10 21:00,ZBYN 102100Z AUTO 34002KT 7SM M05/M16 A2988 RMK SLP164 T10481160 57010 IEM_DS3505
ZBYN,1996-02-10 22:00,ZBYN 102200Z AUTO 00000KT 7SM M08/M20 A2991 RMK T10801200 IEM_DS3505
ZBYN,1996-02-10 23:00,ZBYN 102300Z AUTO 00000KT 7SM M08/M19 A2988 RMK T10801190 IEM_DS3505
ZBYN,1996-02-11 00:00,ZBYN 110000Z AUTO 16004KT 6SM M09/M15 A2988 RMK SLP183 T10861153 57002 IEM_DS3505
ZBYN,1996-02-11 01:00,ZBYN 110100Z AUTO 11006KT 4SM M06/M17 A2991 RMK T10601170 IEM_DS3505
ZBYN,1996-02-11 02:00,ZBYN 110200Z AUTO 00000KT 4SM 00/M16 A2991 RMK T00001160 IEM_DS3505
ZBYN,1996-02-11 03:00,ZBYN 110300Z AUTO 11006KT 6SM 02/M14 A2988 RMK SLP173 T00221139 52004 IEM_DS3505
ZBYN,1996-02-11 04:00,ZBYN 110400Z AUTO 21004KT 4SM 06/M12 A2985 RMK T00601120 IEM_DS3505
ZBYN,1996-02-11 05:00,ZBYN 110500Z AUTO 21008KT 6SM 09/M15 A2983 RMK T00901150 IEM_DS3505
ZBYN,1996-02-11 06:00,ZBYN 110600Z AUTO 18012KT 6SM 09/M16 A2977 RMK SLP127 T00931163 57032 IEM_DS3505
ZBYN,1996-02-11 07:00,ZBYN 110700Z AUTO 21010KT 7SM 11/M16 A2974 RMK T01101160 IEM_DS3505
ZBYN,1996-02-11 08:00,ZBYN 110800Z AUTO 23010KT 7SM 12/M17 A2974 RMK T01201170 IEM_DS3505
ZBYN,1996-02-11 09:00,ZBYN 110900Z AUTO 16008KT 6SM 11/M20 A2974 RMK SLP102 T01081200 57020 IEM_DS3505
ZBYN,1996-02-11 10:00,ZBYN 111000Z AUTO 12004KT 7SM 07/M12 A2974 RMK T00701120 IEM_DS3505
ZBYN,1996-02-11 11:00,ZBYN 111100Z AUTO 11008KT 7SM 02/M14 A2974 RMK T00201140 IEM_DS3505
ZBYN,1996-02-11 12:00,ZBYN 111200Z AUTO 32004KT 6SM 04/M15 A2977 RMK SLP128 T00381148 52006 IEM_DS3505
ZBYN,1996-02-11 13:00,ZBYN 111300Z AUTO 00000KT 7SM M01/M14 A2977 RMK T10101140 IEM_DS3505
ZBYN,1996-02-11 14:00,ZBYN 111400Z AUTO 17004KT 7SM M03/M14 A2977 RMK T10301140 IEM_DS3505
ZBYN,1996-02-11 15:00,ZBYN 111500Z AUTO 14006KT 6SM M03/M20 A2977 RMK SLP123 T10271198 52003 IEM_DS3505
ZBYN,1996-02-11 16:00,ZBYN 111600Z AUTO 11008KT 7SM M05/M17 A2977 RMK T10501170 IEM_DS3505
ZBYN,1996-02-11 17:00,ZBYN 111700Z AUTO 09006KT 7SM M04/M17 A2977 RMK T10401170 IEM_DS3505
ZBYN,1996-02-11 18:00,ZBYN 111800Z AUTO 25002KT 5SM M04/M16 A2974 RMK T10431163 57006 IEM_DS3505
ZBYN,1996-02-11 19:00,ZBYN 111900Z AUTO 00000KT 7SM M06/M19 A2974 RMK T10601190 IEM_DS3505
ZBYN,1996-02-11 20:00,ZBYN 112000Z AUTO 00000KT 7SM M07/M21 A2974 RMK T10701210 IEM_DS3505
ZBYN,1996-02-11 21:00,ZBYN 112100Z AUTO 34004KT 5SM M06/M12 A2974 RMK SLP106 T10561124 57001 IEM_DS3505
ZBYN,1996-02-11 22:00,ZBYN 112200Z AUTO 00000KT 7SM M08/M18 A2974 RMK T10801180 IEM_DS3505
ZBYN,1996-02-11 23:00,ZBYN 112300Z AUTO 00000KT 6SM M08/M16 A2977 RMK T10801160 IEM_DS3505
ZBYN,1996-02-12 00:00,ZBYN 120000Z AUTO 09002KT 5SM M06/M16 A2977 RMK SLP125 T10651164 52005 IEM_DS3505
ZBYN,1996-02-12 01:00,ZBYN 120100Z AUTO 00000KT 6SM M05/M17 A2977 RMK T10501170 IEM_DS3505
ZBYN,1996-02-12 02:00,ZBYN 120200Z AUTO 00000KT 4SM 00/M15 A2977 RMK T00001150 IEM_DS3505
ZBYN,1996-02-12 03:00,ZBYN 120300Z AUTO 16004KT 5SM 06/M17 A2977 RMK SLP112 T00551169 57003 IEM_DS3505
ZBYN,1996-02-12 04:00,ZBYN 120400Z AUTO 15006KT 4SM 08/M10 A2974 RMK T00801100 IEM_DS3505
ZBYN,1996-02-12 05:00,ZBYN 120500Z AUTO 18006KT 5SM 10/M12 A2968 RMK T01001120 IEM_DS3505
ZBYN,1996-02-12 06:00,ZBYN 120600Z AUTO 11008KT 6SM 11/M16 A2962 RMK SLP066 T01111165 57035 IEM_DS3505
ZBYN,1996-02-12 07:00,ZBYN 120700Z AUTO 16004KT 6SM 14/M14 A2959 RMK T01401140 IEM_DS3505
ZBYN,1996-02-12 08:00,ZBYN 120800Z AUTO 16004KT 6SM 15/M15 A2956 RMK T01501150 IEM_DS3505
ZBYN,1996-02-12 09:00,ZBYN 120900Z AUTO 14010KT 6SM 13/M15 A2953 RMK SLP037 T01291148 57026 IEM_DS3505
ZBYN,1996-02-12 10:00,ZBYN 121000Z AUTO 00000KT 5SM 09/M10 A2953 RMK T00901100 IEM_DS3505
ZBYN,1996-02-12 11:00,ZBYN 121100Z AUTO 18004KT 7SM 06/M08 A2956 RMK T00601080 IEM_DS3505
ZBYN,1996-02-12 12:00,ZBYN 121200Z AUTO 09006KT 6SM 04/M12 A2959 RMK SLP063 T00401122 52008 IEM_DS3505
ZBYN,1996-02-12 13:00,ZBYN 121300Z AUTO 12006KT 7SM 04/M07 A2959 RMK T00401070 IEM_DS3505
ZBYN,1996-02-12 14:00,ZBYN 121400Z AUTO 12008KT 7SM 04/M09 A2959 RMK T00401090 IEM_DS3505
ZBYN,1996-02-12 15:00,ZBYN 121500Z AUTO 09002KT 6SM 04/M12 RMK SLP048 T00361119 52005 IEM_DS3505
ZBYN,1996-02-12 16:00,ZBYN 121600Z AUTO 12006KT 7SM 01/M12 A2962 RMK T00101120 IEM_DS3505
ZBYN,1996-02-12 17:00,ZBYN 121700Z AUTO 12008KT 7SM 01/M13 A2962 RMK T00101130 IEM_DS3505
ZBYN,1996-02-12 18:00,ZBYN 121800Z AUTO 14006KT 6SM 00/M11 A2962 RMK SLP047 T00001112 52002 IEM_DS3505
ZBYN,1996-02-12 19:00,ZBYN 121900Z AUTO 09004KT 7SM 00/M15 A2962 RMK T00001150 IEM_DS3505
ZBYN,1996-02-12 20:00,ZBYN 122000Z AUTO 13006KT 7SM M01/M15 A2962 RMK T10101150 IEM_DS3505
ZBYN,1996-02-12 21:00,ZBYN 122100Z AUTO 14006KT 6SM M02/M10 A2962 RMK SLP052 T10241104 52004 IEM_DS3505
ZBYN,1996-02-12 22:00,ZBYN 122200Z AUTO 11008KT 7SM M01/M12 A2962 RMK T10101120 IEM_DS3505
ZBYN,1996-02-12 23:00,ZBYN 122300Z AUTO 00000KT 7SM M03/M10 A2965 RMK T10301100 IEM_DS3505
ZBYN,1996-02-13 00:00,ZBYN 130000Z AUTO 36004KT 5SM M01/M08 A2968 RMK SLP086 T10111083 52019 IEM_DS3505
ZBYN,1996-02-13 01:00,ZBYN 130100Z AUTO 00000KT 2SM M02/M09 A2968 RMK T10201090 IEM_DS3505
ZBYN,1996-02-13 03:00,ZBYN 130300Z AUTO 32002KT 5SM 07/M07 RMK SLP073 T00731067 54000 IEM_DS3505
ZBYN,1996-02-13 04:00,ZBYN 130400Z AUTO 00000KT 3SM 11/M05 A2962 RMK T01101050 IEM_DS3505
ZBYN,1996-02-13 06:00,ZBYN 130600Z AUTO 14008KT 6SM 15/M07 A2953 RMK SLP025 T01521074 57037 IEM_DS3505
ZBYN,1996-02-13 07:00,ZBYN 130700Z AUTO 13006KT 5SM 18/M02 A2950 RMK T01801020 IEM_DS3505
ZBYN,1996-02-13 08:00,ZBYN 130800Z AUTO 17008KT 7SM 19/M02 A2950 RMK T01901020 IEM_DS3505
ZBYN,1996-02-13 09:00,ZBYN 130900Z AUTO 14006KT 6SM 17/M04 A2947 RMK SLP001 T01741041 57022 IEM_DS3505
ZBYN,1996-02-13 10:00,ZBYN 131000Z AUTO 15006KT 7SM 13/M03 A2950 RMK T01301030 IEM_DS3505
ZBYN,1996-02-13 11:00,ZBYN 131100Z AUTO 21010KT 7SM 11/M04 A2950 RMK T01101040 IEM_DS3505
ZBYN,1996-02-13 12:00,ZBYN 131200Z AUTO 34006KT 6SM 10/M07 A2956 RMK SLP036 T01031067 52023 IEM_DS3505
ZBYN,1996-02-13 13:00,ZBYN 131300Z AUTO 33004KT 7SM 11/M03 A2959 RMK T01101030 IEM_DS3505
ZBYN,1996-02-13 14:00,ZBYN 131400Z AUTO 00000KT 7SM 07/M05 A2962 RMK T00701050 IEM_DS3505
ZBYN,1996-02-13 15:00,ZBYN 131500Z AUTO 36010KT 6SM 13/M11 RMK SLP049 T01261109 52028 IEM_DS3505
ZBYN,1996-02-13 16:00,ZBYN 131600Z AUTO 03008KT 7SM 11/M12 A2968 RMK T01101120 IEM_DS3505
ZBYN,1996-02-13 17:00,ZBYN 131700Z AUTO 00000KT 7SM 09/M10 A2968 RMK T00901100 IEM_DS3505
ZBYN,1996-02-13 18:00,ZBYN 131800Z AUTO 34006KT 6SM 07/M12 A2971 RMK SLP065 T00731119 52019 IEM_DS3505
ZBYN,1996-02-13 19:00,ZBYN 131900Z AUTO 35008KT 7SM 10/M12 A2971 RMK T01001120 IEM_DS3505
ZBYN,1996-02-13 20:00,ZBYN 132000Z AUTO 04008KT 7SM 08/M10 A2974 RMK T00801100 IEM_DS3505
ZBYN,1996-02-13 21:00,ZBYN 132100Z AUTO 36010KT 6SM 08/M12 A2977 RMK SLP083 T00751115 52020 IEM_DS3505
ZBYN,1996-02-13 23:00,ZBYN 132300Z AUTO 32012KT 7SM 05/M11 A2980 RMK T00501110 IEM_DS3505
ZBYN,1996-02-14 00:00,ZBYN 140000Z AUTO 34010KT 7SM 05/M14 A2983 RMK SLP122 T00471140 52020 IEM_DS3505
ZBYN,1996-02-14 01:00,ZBYN 140100Z AUTO 35012KT 7SM 05/M14 A2985 RMK T00501140 IEM_DS3505
ZBYN,1996-02-14 02:00,ZBYN 140200Z AUTO 01004KT 7SM 07/M14 A2988 RMK T00701140 IEM_DS3505
ZBYN,1996-02-14 03:00,ZBYN 140300Z AUTO 34008KT 6SM 08/M19 A2988 RMK SLP134 T00771186 52019 IEM_DS3505
ZBYN,1996-02-14 04:00,ZBYN 140400Z AUTO 09010KT 6SM 11/M08 A2988 RMK T01101080 IEM_DS3505
ZBYN,1996-02-14 05:00,ZBYN 140500Z AUTO 06012KT 6SM 10/M11 A2988 RMK T01001110 IEM_DS3505
ZBYN,1996-02-14 06:00,ZBYN 140600Z AUTO 07010KT 6SM 09/M18 A2988 RMK SLP137 T00901175 57003 IEM_DS3505
ZBYN,1996-02-14 07:00,ZBYN 140700Z AUTO 09010KT 6SM 08/M10 A2988 RMK T00801100 IEM_DS3505
ZBYN,1996-02-14 08:00,ZBYN 140800Z AUTO 09019KT 6SM 08/M09 A2985 RMK T00801090 IEM_DS3505
ZBYN,1996-02-14 09:00,ZBYN 140900Z AUTO 07010KT 9SM 07/ A2988 RMK SLP141 52001 IEM_DS3505
ZBYN,1996-02-14 10:00,ZBYN 141000Z AUTO 09010KT 6SM 05/M11 A2991 RMK T00501110 IEM_DS3505
ZBYN,1996-02-14 11:00,ZBYN 141100Z AUTO 08010KT 6SM 04/M12 A2994 RMK T00401120 IEM_DS3505
ZBYN,1996-02-14 12:00,ZBYN 141200Z AUTO 02004KT 6SM 05/M16 A2997 RMK SLP171 T00501162 52020 IEM_DS3505
ZBYN,1996-02-14 13:00,ZBYN 141300Z AUTO 08012KT 7SM 03/M15 A3000 RMK T00301150 IEM_DS3505
ZBYN,1996-02-14 14:00,ZBYN 141400Z AUTO 09012KT 7SM 02/M09 A3003 RMK T00201090 IEM_DS3505
ZBYN,1996-02-14 15:00,ZBYN 141500Z AUTO 34004KT 6SM 02/M16 A3006 RMK SLP197 T00201160 52023 IEM_DS3505
ZBYN,1996-02-14 16:00,ZBYN 141600Z AUTO 08012KT 7SM 01/M13 A3006 RMK T00101130 IEM_DS3505
ZBYN,1996-02-14 17:00,ZBYN 141700Z AUTO 10006KT 7SM 01/M12 A3006 RMK T00101120 IEM_DS3505
ZBYN,1996-02-14 18:00,ZBYN 141800Z AUTO 32006KT 6SM M02/M18 A3009 RMK SLP212 T10161179 52010 IEM_DS3505
ZBYN,1996-02-14 19:00,ZBYN 141900Z AUTO 09008KT 7SM M01/M10 A3009 RMK T10101100 IEM_DS3505
ZBYN,1996-02-14 20:00,ZBYN 142000Z AUTO 00000KT 7SM M02/M13 A3009 RMK T10201130 IEM_DS3505
ZBYN,1996-02-14 21:00,ZBYN 142100Z AUTO 34002KT 6SM M03/M14 A3009 RMK SLP224 T10291142 52006 IEM_DS3505
ZBYN,1996-02-14 22:00,ZBYN 142200Z AUTO 00000KT 6SM M03/M14 A3009 RMK T10301140 IEM_DS3505
ZBYN,1996-02-14 23:00,ZBYN 142300Z AUTO 00000KT 6SM M03/M13 A3012 RMK T10301130 IEM_DS3505
ZBYN,1996-02-15 00:00,ZBYN 150000Z AUTO 00000KT 6SM M02/M12 A3015 RMK SLP245 T10191118 52017 IEM_DS3505
ZBYN,1996-02-15 01:00,ZBYN 150100Z AUTO 00000KT 6SM M02/M13 A3015 RMK T10201130 IEM_DS3505
ZBYN,1996-02-15 02:00,ZBYN 150200Z AUTO 31004KT 5SM 01/M12 A3015 RMK T00101120 IEM_DS3505
ZBYN,1996-02-15 03:00,ZBYN 150300Z AUTO 32004KT 4SM 03/M14 A3015 RMK SLP251 T00261137 52008 IEM_DS3505
ZBYN,1996-02-15 05:00,ZBYN 150500Z AUTO 13006KT 6SM 08/M07 A3009 RMK T00801070 IEM_DS3505
ZBYN,1996-02-15 06:00,ZBYN 150600Z AUTO 16008KT 6SM 06/M16 A3006 RMK SLP221 T00651158 57027 IEM_DS3505
ZBYN,1996-02-15 08:00,ZBYN 150800Z AUTO 09012KT 6SM 06/M06 A3006 RMK T00601060 IEM_DS3505
ZBYN,1996-02-15 09:00,ZBYN 150900Z AUTO 09012KT 6SM 04/M12 A3006 RMK SLP224 T00381124 57003 IEM_DS3505
ZBYN,1996-02-15 10:00,ZBYN 151000Z AUTO 09021KT 6SM 01/M09 A3009 RMK T00101090 IEM_DS3505
ZBYN,1996-02-15 11:00,ZBYN 151100Z AUTO 10019KT 6SM M01/M08 A3012 RMK T10101080 IEM_DS3505
ZBYN,1996-02-15 12:00,ZBYN 151200Z AUTO 09010KT 6SM M02/M11 A3015 RMK SLP258 T10151110 52023 IEM_DS3505
ZBYN,1996-02-15 13:00,ZBYN 151300Z AUTO 09017KT 7SM M03/M11 A3018 RMK T10301110 IEM_DS3505
ZBYN,1996-02-15 14:00,ZBYN 151400Z AUTO 08017KT 7SM M04/M11 A3021 RMK T10401110 IEM_DS3505
ZBYN,1996-02-15 15:00,ZBYN 151500Z AUTO 11002KT 6SM M04/M12 A3024 RMK SLP281 T10431116 52024 IEM_DS3505
ZBYN,1996-02-15 16:00,ZBYN 151600Z AUTO 09017KT 7SM M05/M12 A3024 RMK T10501120 IEM_DS3505
ZBYN,1996-02-15 17:00,ZBYN 151700Z AUTO 08014KT 7SM M05/M12 A3024 RMK T10501120 IEM_DS3505
ZBYN,1996-02-15 18:00,ZBYN 151800Z AUTO 29004KT 6SM M06/M12 A3024 RMK SLP288 T10571121 52011 IEM_DS3505
ZBYN,1996-02-15 19:00,ZBYN 151900Z AUTO 09010KT 6SM M05/M12 A3027 RMK T10501120 IEM_DS3505
ZBYN,1996-02-15 20:00,ZBYN 152000Z AUTO 08006KT 7SM M05/M12 A3027 RMK T10501120 IEM_DS3505
ZBYN,1996-02-15 21:00,ZBYN 152100Z AUTO 32006KT 6SM M05/M13 A3027 RMK SLP300 T10501127 52007 IEM_DS3505
ZBYN,1996-02-15 22:00,ZBYN 152200Z AUTO 09010KT 7SM M05/M12 A3027 RMK T10501120 IEM_DS3505
ZBYN,1996-02-15 23:00,ZBYN 152300Z AUTO 07008KT 7SM M05/M13 A3027 RMK T10501130 IEM_DS3505
ZBYN,1996-02-16 00:00,ZBYN 160000Z AUTO 07006KT 6SM M04/M14 A3030 RMK SLP319 T10421137 52010 IEM_DS3505
ZBYN,1996-02-16 01:00,ZBYN 160100Z AUTO 09012KT 7SM M04/M07 A3033 RMK T10401070 IEM_DS3505
ZBYN,1996-02-16 02:00,ZBYN 160200Z AUTO 11014KT 7SM M05/M09 RMK T10501090 IEM_DS3505
ZBYN,1996-02-16 03:00,ZBYN 160300Z AUTO 07010KT 4SM M05/M10 RMK SLP336 T10471102 52010 IEM_DS3505
ZBYN,1996-02-16 04:00,ZBYN 160400Z AUTO 12010KT 7SM M03/M09 RMK T10301090 IEM_DS3505
ZBYN,1996-02-16 05:00,ZBYN 160500Z AUTO 10010KT 5SM M03/M09 RMK T10301090 IEM_DS3505
ZBYN,1996-02-16 06:00,ZBYN 160600Z AUTO 04002KT 5SM M04/M10 A3031 RMK SLP322 T10361100 57013 IEM_DS3505
ZBYN,1996-02-16 07:00,ZBYN 160700Z AUTO 08006KT 7SM M03/M10 RMK T10301100 IEM_DS3505
ZBYN,1996-02-16 08:00,ZBYN 160800Z AUTO 12010KT 7SM M03/M10 RMK T10301100 IEM_DS3505
ZBYN,1996-02-16 09:00,ZBYN 160900Z AUTO 11010KT 5SM M04/M12 A3030 RMK SLP318 T10401116 57004 IEM_DS3505
ZBYN,1996-02-16 10:00,ZBYN 161000Z AUTO 10016KT 7SM M05/M13 A3033 RMK T10501130 IEM_DS3505
ZBYN,1996-02-16 11:00,ZBYN 161100Z AUTO 11010KT 7SM M05/M13 A3036 RMK T10501130 IEM_DS3505
ZBYN,1996-02-16 12:00,ZBYN 161200Z AUTO 09010KT 6SM M05/M13 A3036 RMK SLP341 T10521130 52021 IEM_DS3505
ZBYN,1996-02-16 13:00,ZBYN 161300Z AUTO 09006KT 7SM M06/M13 RMK T10601130 IEM_DS3505
ZBYN,1996-02-16 14:00,ZBYN 161400Z AUTO 09012KT 4SM M06/M12 A3045 RMK T10601120 IEM_DS3505
ZBYN,1996-02-16 15:00,ZBYN 161500Z AUTO 11006KT 5SM M07/M08 A3045 RMK SLP374 T10681081 52026 IEM_DS3505
ZBYN,1996-02-16 16:00,ZBYN 161600Z AUTO 12002KT 4SM M07/M12 A3045 RMK T10701120 IEM_DS3505
ZBYN,1996-02-16 18:00,ZBYN 161800Z AUTO 00000KT 5SM M08/M10 A3045 RMK 60004 SLP377 T10761098 52003 IEM_DS3505
ZBYN,1996-02-16 21:00,ZBYN 162100Z AUTO 02008KT 6SM M06/ A3045 RMK SLP379 52003 IEM_DS3505
ZBYN,1996-02-16 22:00,ZBYN 162200Z AUTO 04002KT 6SM M07/M14 A3047 RMK T10701140 IEM_DS3505
ZBYN,1996-02-16 23:00,ZBYN 162300Z AUTO 07004KT 6SM M08/M14 A3047 RMK T10801140 IEM_DS3505
ZBYN,1996-02-17 00:00,ZBYN 170000Z AUTO 02008KT 7SM M08/M24 A3050 RMK 70004 SLP398 T10771241 52013 IEM_DS3505
ZBYN,1996-02-17 01:00,ZBYN 170100Z AUTO 24006KT 7SM M07/M20 A3053 RMK T10701200 IEM_DS3505
ZBYN,1996-02-17 02:00,ZBYN 170200Z AUTO 34006KT 7SM M06/M20 A3053 RMK T10601200 IEM_DS3505
ZBYN,1996-02-17 03:00,ZBYN 170300Z AUTO 32006KT 6SM M06/M23 A3053 RMK SLP410 T10561227 52012 IEM_DS3505
ZBYN,1996-02-17 04:00,ZBYN 170400Z AUTO 00000KT 6SM M04/M19 A3053 RMK T10401190 IEM_DS3505
ZBYN,1996-02-17 05:00,ZBYN 170500Z AUTO 31006KT 6SM M03/M16 A3050 RMK T10301160 IEM_DS3505
ZBYN,1996-02-17 06:00,ZBYN 170600Z AUTO 32006KT 7SM M02/M21 A3047 RMK SLP383 T10201213 57020 IEM_DS3505
ZBYN,1996-02-17 07:00,ZBYN 170700Z AUTO 00000KT 6SM M02/M20 A3045 RMK T10201200 IEM_DS3505
ZBYN,1996-02-17 08:00,ZBYN 170800Z AUTO 20006KT 6SM M01/M14 A3045 RMK T10101140 IEM_DS3505
ZBYN,1996-02-17 09:00,ZBYN 170900Z AUTO 20006KT 9SM M02/M19 A3045 RMK SLP372 T10201192 57008 IEM_DS3505
ZBYN,1996-02-17 10:00,ZBYN 171000Z AUTO 23010KT 7SM M03/M16 A3047 RMK T10301160 IEM_DS3505
ZBYN,1996-02-17 11:00,ZBYN 171100Z AUTO 22004KT 7SM M05/M14 A3050 RMK T10501140 IEM_DS3505
ZBYN,1996-02-17 12:00,ZBYN 171200Z AUTO 34004KT 6SM M05/M14 A3053 RMK SLP401 T10531144 52019 IEM_DS3505
ZBYN,1996-02-17 13:00,ZBYN 171300Z AUTO 00000KT 7SM M07/M13 A3053 RMK T10701130 IEM_DS3505
ZBYN,1996-02-17 14:00,ZBYN 171400Z AUTO 06004KT 7SM M07/M13 A3056 RMK T10701130 IEM_DS3505
ZBYN,1996-02-17 15:00,ZBYN 171500Z AUTO 36006KT 6SM M06/ RMK SLP414 52015 IEM_DS3505
ZBYN,1996-02-17 16:00,ZBYN 171600Z AUTO 00000KT 7SM M08/M16 A3059 RMK T10801160 IEM_DS3505
ZBYN,1996-02-17 18:00,ZBYN 171800Z AUTO 34006KT 6SM M07/M26 A3057 RMK T10711263 52003 IEM_DS3505
ZBYN,1996-02-17 21:00,ZBYN 172100Z AUTO 32004KT 6SM M10/M27 A3059 RMK SLP426 T11041267 52005 IEM_DS3505
ZBYN,1996-02-17 22:00,ZBYN 172200Z AUTO 00000KT 7SM M13/M18 A3059 RMK T11301180 IEM_DS3505
ZBYN,1996-02-17 23:00,ZBYN 172300Z AUTO 00000KT 6SM M12/M18 A3059 RMK T11201180 IEM_DS3505
ZBYN,1996-02-18 00:00,ZBYN 180000Z AUTO 32004KT 6SM M10/M24 A3062 RMK SLP440 T11001239 52008 IEM_DS3505
ZBYN,1996-02-18 01:00,ZBYN 180100Z AUTO 00000KT 6SM M08/M20 A3065 RMK T10801200 IEM_DS3505
ZBYN,1996-02-18 03:00,ZBYN 180300Z AUTO 32006KT 4SM M05/M27 A3065 RMK SLP444 T10531272 52011 IEM_DS3505
ZBYN,1996-02-18 04:00,ZBYN 180400Z AUTO 10004KT 6SM M04/M25 A3062 RMK T10401250 IEM_DS3505
ZBYN,1996-02-18 05:00,ZBYN 180500Z AUTO 00000KT 6SM M02/M24 A3059 RMK T10201240 IEM_DS3505
ZBYN,1996-02-18 06:00,ZBYN 180600Z AUTO 20002KT 5SM M02/M24 A3056 RMK SLP411 T10151245 57026 IEM_DS3505
ZBYN,1996-02-18 07:00,ZBYN 180700Z AUTO 19006KT 6SM 00/M21 A3053 RMK T00001210 IEM_DS3505
ZBYN,1996-02-18 08:00,ZBYN 180800Z AUTO 23004KT 6SM 00/M21 A3053 RMK T00001210 IEM_DS3505
ZBYN,1996-02-18 09:00,ZBYN 180900Z AUTO 18006KT 5SM M02/M23 A3053 RMK SLP409 T10151231 57007 IEM_DS3505
ZBYN,1996-02-18 11:00,ZBYN 181100Z AUTO 02002KT 6SM M05/M16 A3056 RMK SLP442 T10521163 52024 IEM_DS3505
ZBYN,1996-02-18 12:00,ZBYN 181200Z AUTO 02002KT 6SM M05/M16 A3062 RMK SLP442 T10521163 52024 IEM_DS3505
ZBYN,1996-02-18 13:00,ZBYN 181300Z AUTO 00000KT 6SM M06/M16 A3062 RMK T10601160 IEM_DS3505
ZBYN,1996-02-18 14:00,ZBYN 181400Z AUTO 07004KT 6SM M07/M21 A3065 RMK T10701210 IEM_DS3505
ZBYN,1996-02-18 15:00,ZBYN 181500Z AUTO 18002KT 6SM M07/M19 A3065 RMK SLP450 T10731191 52012 IEM_DS3505
ZBYN,1996-02-18 17:00,ZBYN 181700Z AUTO 00000KT 6SM M07/M19 A3065 RMK T10701190 IEM_DS3505
ZBYN,1996-02-18 18:00,ZBYN 181800Z AUTO 36006KT 6SM M05/M23 A3065 RMK SLP440 T10541233 52001 IEM_DS3505
ZBYN,1996-02-18 19:00,ZBYN 181900Z AUTO 00000KT 6SM M08/M18 A3068 RMK T10801180 IEM_DS3505
ZBYN,1996-02-18 20:00,ZBYN 182000Z AUTO 00000KT 6SM M09/M19 A3068 RMK T10901190 IEM_DS3505
ZBYN,1996-02-18 21:00,ZBYN 182100Z AUTO 36008KT 6SM M06/M27 A3068 RMK SLP449 T10641269 52006 IEM_DS3505
ZBYN,1996-02-18 22:00,ZBYN 182200Z AUTO 00000KT 6SM M09/M21 A3068 RMK T10901210 IEM_DS3505
ZBYN,1996-02-18 23:00,ZBYN 182300Z AUTO 02006KT 6SM M08/M28 A3068 RMK T10801280 IEM_DS3505
ZBYN,1996-02-19 00:00,ZBYN 190000Z AUTO 32006KT 5SM M08/M27 A3071 RMK SLP471 T10801266 52011 IEM_DS3505
ZBYN,1996-02-19 01:00,ZBYN 190100Z AUTO 02008KT 6SM M06/M28 A3074 RMK T10601280 IEM_DS3505
ZBYN,1996-02-19 02:00,ZBYN 190200Z AUTO 34008KT 6SM M06/M27 A3074 RMK T10601270 IEM_DS3505
ZBYN,1996-02-19 03:00,ZBYN 190300Z AUTO 34008KT 6SM M06/M26 A3071 RMK SLP475 T10551265 52004 IEM_DS3505
ZBYN,1996-02-19 04:00,ZBYN 190400Z AUTO 31008KT 6SM M03/M23 A3071 RMK T10301230 IEM_DS3505
ZBYN,1996-02-19 05:00,ZBYN 190500Z AUTO 34008KT 6SM M01/M23 A3065 RMK T10101230 IEM_DS3505
ZBYN,1996-02-19 06:00,ZBYN 190600Z AUTO 34006KT 6SM M01/M24 A3062 RMK SLP428 T10111242 57032 IEM_DS3505
ZBYN,1996-02-19 07:00,ZBYN 190700Z AUTO 34006KT 6SM M01/M18 A3059 RMK T10101180 IEM_DS3505
ZBYN,1996-02-19 08:00,ZBYN 190800Z AUTO 32006KT 6SM 00/M22 A3059 RMK T00001220 IEM_DS3505
ZBYN,1996-02-19 09:00,ZBYN 190900Z AUTO 36004KT 7SM M01/M25 A3059 RMK SLP418 T10091247 57010 IEM_DS3505
ZBYN,1996-02-19 10:00,ZBYN 191000Z AUTO 33008KT 6SM M02/M22 A3059 RMK T10201220 IEM_DS3505
ZBYN,1996-02-19 11:00,ZBYN 191100Z AUTO 32006KT 6SM M03/M23 A3062 RMK T10301230 IEM_DS3505
ZBYN,1996-02-19 12:00,ZBYN 191200Z AUTO 36008KT 6SM M04/M28 A3065 RMK SLP450 T10351275 52022 IEM_DS3505
ZBYN,1996-02-19 13:00,ZBYN 191300Z AUTO 34008KT 7SM M05/M27 A3068 RMK T10501270 IEM_DS3505
ZBYN,1996-02-19 14:00,ZBYN 191400Z AUTO 32006KT 7SM M06/M28 A3068 RMK T10601280 IEM_DS3505
ZBYN,1996-02-19 15:00,ZBYN 191500Z AUTO 36006KT 6SM M07/M26 A3071 RMK SLP466 T10671265 52013 IEM_DS3505
ZBYN,1996-02-19 18:00,ZBYN 191800Z AUTO 34006KT 6SM M08/M26 A3074 RMK SLP472 T10781259 52011 IEM_DS3505
ZBYN,1996-02-19 21:00,ZBYN 192100Z AUTO 32004KT 6SM M12/M28 RMK SLP472 T11181279 57006 IEM_DS3505
ZBYN,1996-02-19 22:00,ZBYN 192200Z AUTO 00000KT 7SM M10/M27 A3071 RMK T11001270 IEM_DS3505
ZBYN,1996-02-19 23:00,ZBYN 192300Z AUTO 00000KT 7SM M10/M27 A3071 RMK T11001270 IEM_DS3505
ZBYN,1996-02-20 00:00,ZBYN 200000Z AUTO 34004KT 9SM M10/M26 A3074 RMK SLP478 T11011260 52003 IEM_DS3505
ZBYN,1996-02-20 01:00,ZBYN 200100Z AUTO 33008KT 7SM M09/M25 A3074 RMK T10901250 IEM_DS3505
ZBYN,1996-02-20 02:00,ZBYN 200200Z AUTO 02004KT 7SM M07/M27 A3077 RMK T10701270 IEM_DS3505
ZBYN,1996-02-20 03:00,ZBYN 200300Z AUTO 36008KT 6SM M05/M26 A3074 RMK SLP476 T10501261 52002 IEM_DS3505
ZBYN,1996-02-20 04:00,ZBYN 200400Z AUTO 05004KT 7SM M03/M25 A3071 RMK T10301250 IEM_DS3505
ZBYN,1996-02-20 05:00,ZBYN 200500Z AUTO 03006KT 7SM M01/M27 A3065 RMK T10101270 IEM_DS3505
ZBYN,1996-02-20 06:00,ZBYN 200600Z AUTO 07004KT 7SM M01/M24 A3061 RMK SLP428 T10141241 57039 IEM_DS3505
ZBYN,1996-02-20 07:00,ZBYN 200700Z AUTO 25002KT 7SM M01/M27 A3059 RMK T10101270 IEM_DS3505
ZBYN,1996-02-20 08:00,ZBYN 200800Z AUTO 22008KT 7SM M01/M19 A3059 RMK T10101190 IEM_DS3505
ZBYN,1996-02-20 09:00,ZBYN 200900Z AUTO 20010KT 9SM M02/M27 A3059 RMK SLP424 T10231266 57012 IEM_DS3505
ZBYN,1996-02-20 10:00,ZBYN 201000Z AUTO 23010KT 6SM M04/M18 A3059 RMK T10401180 IEM_DS3505
ZBYN,1996-02-20 11:00,ZBYN 201100Z AUTO 22006KT 7SM M06/M22 A3059 RMK T10601220 IEM_DS3505
ZBYN,1996-02-20 12:00,ZBYN 201200Z AUTO 22004KT 6SM M06/M22 A3062 RMK SLP443 T10561216 52014 IEM_DS3505
ZBYN,1996-02-20 13:00,ZBYN 201300Z AUTO 00000KT 7SM M09/M25 A3062 RMK T10901250 IEM_DS3505
ZBYN,1996-02-20 14:00,ZBYN 201400Z AUTO 00000KT 7SM M11/M24 A3062 RMK T11101240 IEM_DS3505
ZBYN,1996-02-20 15:00,ZBYN 201500Z AUTO 32004KT 6SM M09/M24 A3065 RMK SLP446 T10881236 52006 IEM_DS3505
ZBYN,1996-02-20 16:00,ZBYN 201600Z AUTO 18004KT 7SM M12/M25 A3065 RMK T11201250 IEM_DS3505
ZBYN,1996-02-20 17:00,ZBYN 201700Z AUTO 08004KT 7SM M12/M24 A3065 RMK T11201240 IEM_DS3505
ZBYN,1996-02-20 18:00,ZBYN 201800Z AUTO 34006KT 6SM M09/M25 A3062 RMK SLP440 T10891251 52001 IEM_DS3505
ZBYN,1996-02-20 19:00,ZBYN 201900Z AUTO 00000KT 7SM M14/M25 A3062 RMK T11401250 IEM_DS3505
ZBYN,1996-02-20 20:00,ZBYN 202000Z AUTO 11006KT 7SM M14/M25 A3062 RMK T11401250 IEM_DS3505
ZBYN,1996-02-20 21:00,ZBYN 202100Z AUTO 18004KT 6SM M14/M18 A3062 RMK SLP444 T11451183 57008 IEM_DS3505
ZBYN,1996-02-20 22:00,ZBYN 202200Z AUTO 00000KT 7SM M16/M25 A3062 RMK T11601250 IEM_DS3505
ZBYN,1996-02-21 00:00,ZBYN 210000Z AUTO 00000KT 6SM M15/M26 A3062 RMK SLP451 T11471259 54000 IEM_DS3505
ZBYN,1996-02-21 01:00,ZBYN 210100Z AUTO 00000KT 7SM M12/M22 A3062 RMK T11201220 IEM_DS3505
ZBYN,1996-02-21 02:00,ZBYN 210200Z AUTO 00000KT 7SM M07/M25 A3062 RMK T10701250 IEM_DS3505
ZBYN,1996-02-21 03:00,ZBYN 210300Z AUTO 34006KT 6SM M05/M24 A3059 RMK SLP432 T10481238 57005 IEM_DS3505
ZBYN,1996-02-21 04:00,ZBYN 210400Z AUTO 33004KT 6SM M03/M27 A3056 RMK T10301270 IEM_DS3505
ZBYN,1996-02-21 05:00,ZBYN 210500Z AUTO 30004KT 6SM M02/M24 A3053 RMK T10201240 IEM_DS3505
ZBYN,1996-02-21 06:00,ZBYN 210600Z AUTO 07004KT 6SM M01/M26 A3047 RMK T10121260 57033 IEM_DS3505
ZBYN,1996-02-21 07:00,ZBYN 210700Z AUTO 21010KT 6SM 00/M19 A3045 RMK T00001190 IEM_DS3505
ZBYN,1996-02-21 08:00,ZBYN 210800Z AUTO 24012KT 6SM 00/M18 A3045 RMK T00001180 IEM_DS3505
ZBYN,1996-02-21 09:00,ZBYN 210900Z AUTO 20010KT 6SM M02/M21 A3042 RMK SLP376 T10161210 57022 IEM_DS3505
ZBYN,1996-02-21 10:00,ZBYN 211000Z AUTO 24006KT 6SM M02/M18 A3045 RMK T10201180 IEM_DS3505
ZBYN,1996-02-21 11:00,ZBYN 211100Z AUTO 00000KT 6SM M03/M22 A3045 RMK T10301220 IEM_DS3505
ZBYN,1996-02-21 12:00,ZBYN 211200Z AUTO 11004KT 6SM M06/M22 A3045 RMK SLP391 T10591223 52005 IEM_DS3505
ZBYN,1996-02-21 13:00,ZBYN 211300Z AUTO 00000KT 7SM M08/M23 A3045 RMK T10801230 IEM_DS3505
ZBYN,1996-02-21 14:00,ZBYN 211400Z AUTO 00000KT 7SM M09/M21 A3045 RMK T10901210 IEM_DS3505
ZBYN,1996-02-21 15:00,ZBYN 211500Z AUTO 00000KT 6SM M07/M19 A3045 RMK SLP377 T10671186 52004 IEM_DS3505
ZBYN,1996-02-21 16:00,ZBYN 211600Z AUTO 00000KT 7SM M10/M21 A3045 RMK T11001210 IEM_DS3505
ZBYN,1996-02-21 17:00,ZBYN 211700Z AUTO 00000KT 7SM M11/M24 A3045 RMK T11101240 IEM_DS3505
ZBYN,1996-02-21 18:00,ZBYN 211800Z AUTO 02002KT 6SM M11/M23 A3042 RMK SLP372 T11071226 57006 IEM_DS3505
ZBYN,1996-02-21 19:00,ZBYN 211900Z AUTO 10004KT 7SM M13/M24 A3045 RMK T11301240 IEM_DS3505
ZBYN,1996-02-21 20:00,ZBYN 212000Z AUTO 10004KT 7SM M13/M24 A3042 RMK T11301240 IEM_DS3505
ZBYN,1996-02-21 21:00,ZBYN 212100Z AUTO 00000KT 6SM M13/M22 A3042 RMK SLP374 T11261223 57002 IEM_DS3505
ZBYN,1996-02-21 22:00,ZBYN 212200Z AUTO 00000KT 7SM M15/M24 A3042 RMK T11501240 IEM_DS3505
ZBYN,1996-02-21 23:00,ZBYN 212300Z AUTO 00000KT 6SM M14/M23 A3045 RMK T11401230 IEM_DS3505
ZBYN,1996-02-22 00:00,ZBYN 220000Z AUTO 34006KT 7SM M09/M20 A3045 RMK SLP382 T10891197 52006 IEM_DS3505
ZBYN,1996-02-22 01:00,ZBYN 220100Z AUTO 09004KT 6SM M10/M20 A3047 RMK T11001200 IEM_DS3505
ZBYN,1996-02-22 02:00,ZBYN 220200Z AUTO 00000KT 6SM M05/M23 A3047 RMK T10501230 IEM_DS3505
ZBYN,1996-02-22 03:00,ZBYN 220300Z AUTO 34008KT 7SM M03/M21 A3045 RMK SLP371 T10321208 57001 IEM_DS3505
ZBYN,1996-02-22 04:00,ZBYN 220400Z AUTO 31006KT 6SM M01/M23 A3042 RMK T10101230 IEM_DS3505
ZBYN,1996-02-22 05:00,ZBYN 220500Z AUTO 30004KT 6SM 00/M19 A3039 RMK T00001190 IEM_DS3505
ZBYN,1996-02-22 06:00,ZBYN 220600Z AUTO 36004KT 6SM 00/M24 A3036 RMK SLP348 T00041242 57022 IEM_DS3505
ZBYN,1996-02-22 07:00,ZBYN 220700Z AUTO 24004KT 6SM 03/M16 A3036 RMK T00301160 IEM_DS3505
ZBYN,1996-02-22 08:00,ZBYN 220800Z AUTO 22012KT 6SM 03/M13 A3033 RMK T00301130 IEM_DS3505
ZBYN,1996-02-22 09:00,ZBYN 220900Z AUTO 20010KT 7SM 01/M19 A3033 RMK SLP339 T00061187 57011 IEM_DS3505
ZBYN,1996-02-22 10:00,ZBYN 221000Z AUTO 22008KT 6SM M01/M22 A3036 RMK T10101220 IEM_DS3505
ZBYN,1996-02-22 11:00,ZBYN 221100Z AUTO 00000KT 6SM A3036 RMK SLP352 57003 IEM_DS3505
ZBYN,1996-02-22 12:00,ZBYN 221200Z AUTO 04002KT 6SM M04/M20 A3036 RMK SLP346 T10361199 52006 IEM_DS3505
ZBYN,1996-02-22 13:00,ZBYN 221300Z AUTO 11006KT 7SM M08/M19 A3039 RMK T10801190 IEM_DS3505
ZBYN,1996-02-22 14:00,ZBYN 221400Z AUTO 14006KT 7SM M09/M22 A3039 RMK T10901220 IEM_DS3505
ZBYN,1996-02-22 15:00,ZBYN 221500Z AUTO 14002KT 6SM M09/M20 A3039 RMK SLP361 T10881195 52014 IEM_DS3505
ZBYN,1996-02-22 16:00,ZBYN 221600Z AUTO 12004KT 7SM M11/M23 A3039 RMK T11101230 IEM_DS3505
ZBYN,1996-02-22 17:00,ZBYN 221700Z AUTO 12004KT 7SM M11/M23 A3039 RMK T11101230 IEM_DS3505
ZBYN,1996-02-22 18:00,ZBYN 221800Z AUTO 00000KT 6SM M09/M20 A3039 RMK SLP352 T10941198 57003 IEM_DS3505
ZBYN,1996-02-22 19:00,ZBYN 221900Z AUTO 13004KT 7SM M12/M23 A3039 RMK T11201230 IEM_DS3505
ZBYN,1996-02-22 20:00,ZBYN 222000Z AUTO 12004KT 7SM M13/M24 A3039 RMK T11301240 IEM_DS3505
ZBYN,1996-02-22 21:00,ZBYN 222100Z AUTO 36002KT 6SM M09/M19 A3039 RMK SLP353 T10921194 52002 IEM_DS3505
ZBYN,1996-02-22 22:00,ZBYN 222200Z AUTO 10002KT 7SM M13/M23 A3039 RMK T11301230 IEM_DS3505
ZBYN,1996-02-22 23:00,ZBYN 222300Z AUTO 00000KT 6SM M12/M22 A3042 RMK T11201220 IEM_DS3505
ZBYN,1996-02-23 00:00,ZBYN 230000Z AUTO 00000KT 6SM M12/M20 A3042 RMK SLP376 T11171205 52009 IEM_DS3505
ZBYN,1996-02-23 01:00,ZBYN 230100Z AUTO 00000KT 7SM M10/M20 A3045 RMK T11001200 IEM_DS3505
ZBYN,1996-02-23 02:00,ZBYN 230200Z AUTO 00000KT 7SM M04/M22 A3042 RMK T10401220 IEM_DS3505
ZBYN,1996-02-23 03:00,ZBYN 230300Z AUTO 14004KT 6SM M02/M17 A3042 RMK SLP362 T10151170 57004 IEM_DS3505
ZBYN,1996-02-23 04:00,ZBYN 230400Z AUTO 00000KT 7SM 00/M18 A3039 RMK T00001180 IEM_DS3505
ZBYN,1996-02-23 05:00,ZBYN 230500Z AUTO 00000KT 6SM 03/M18 A3033 RMK T00301180 IEM_DS3505
ZBYN,1996-02-23 06:00,ZBYN 230600Z AUTO 22004KT 6SM 03/M24 A3030 RMK SLP318 T00311236 57033 IEM_DS3505
ZBYN,1996-02-23 07:00,ZBYN 230700Z AUTO 00000KT 7SM 04/M16 A3027 RMK T00401160 IEM_DS3505
ZBYN,1996-02-23 08:00,ZBYN 230800Z AUTO 00000KT 6SM 05/M16 A3024 RMK T00501160 IEM_DS3505
ZBYN,1996-02-23 09:00,ZBYN 230900Z AUTO 18008KT 6SM 04/M28 A3024 RMK SLP300 T00371284 57015 IEM_DS3505
ZBYN,1996-02-23 10:00,ZBYN 231000Z AUTO 22006KT 6SM 02/M22 A3024 RMK T00201220 IEM_DS3505
ZBYN,1996-02-23 11:00,ZBYN 231100Z AUTO 22006KT 6SM M01/M20 A3027 RMK T10101200 IEM_DS3505
ZBYN,1996-02-23 12:00,ZBYN 231200Z AUTO 18006KT 6SM M02/M24 A3027 RMK SLP320 T10221243 52004 IEM_DS3505
ZBYN,1996-02-23 13:00,ZBYN 231300Z AUTO 12006KT 6SM M06/M22 A3030 RMK T10601220 IEM_DS3505
ZBYN,1996-02-23 14:00,ZBYN 231400Z AUTO 12006KT 6SM M07/M23 A3030 RMK T10701230 IEM_DS3505
ZBYN,1996-02-23 15:00,ZBYN 231500Z AUTO 27006KT 6SM M07/M20 A3030 RMK SLP317 T10691198 52007 IEM_DS3505
ZBYN,1996-02-23 16:00,ZBYN 231600Z AUTO 00000KT 6SM M07/M21 A3027 RMK T10701210 IEM_DS3505
ZBYN,1996-02-23 17:00,ZBYN 231700Z AUTO 00000KT 6SM M08/M21 A3027 RMK T10801210 IEM_DS3505
ZBYN,1996-02-23 18:00,ZBYN 231800Z AUTO 36002KT 6SM M08/M21 A3027 RMK SLP307 T10791212 57003 IEM_DS3505
ZBYN,1996-02-23 19:00,ZBYN 231900Z AUTO 00000KT 6SM M10/M25 A3027 RMK T11001250 IEM_DS3505
ZBYN,1996-02-23 20:00,ZBYN 232000Z AUTO 00000KT 6SM M11/M24 A3027 RMK T11101240 IEM_DS3505
ZBYN,1996-02-23 21:00,ZBYN 232100Z AUTO 00000KT 6SM M09/M19 A3027 RMK SLP303 T10861190 57004 IEM_DS3505
ZBYN,1996-02-23 22:00,ZBYN 232200Z AUTO 00000KT 6SM M10/M22 A3024 RMK T11001220 IEM_DS3505
ZBYN,1996-02-23 23:00,ZBYN 232300Z AUTO 00000KT 6SM M11/M21 A3027 RMK T11101210 IEM_DS3505
ZBYN,1996-02-24 00:00,ZBYN 240000Z AUTO 34004KT 6SM M07/M20 A3027 RMK SLP317 T10711203 52005 IEM_DS3505
ZBYN,1996-02-24 01:00,ZBYN 240100Z AUTO 00000KT 6SM M06/M21 A3030 RMK T10601210 IEM_DS3505
ZBYN,1996-02-24 02:00,ZBYN 240200Z AUTO 00000KT 6SM M02/M19 A3027 RMK T10201190 IEM_DS3505
ZBYN,1996-02-24 03:00,ZBYN 240300Z AUTO 25002KT 5SM 00/M17 A3027 RMK SLP304 T00031169 57007 IEM_DS3505
ZBYN,1996-02-24 04:00,ZBYN 240400Z AUTO 00000KT 6SM 02/M18 A3024 RMK T00201180 IEM_DS3505
ZBYN,1996-02-24 05:00,ZBYN 240500Z AUTO 22008KT 6SM 05/M10 A3021 RMK T00501100 IEM_DS3505
ZBYN,1996-02-24 06:00,ZBYN 240600Z AUTO 16010KT 6SM 05/M17 A3018 RMK SLP266 T00471173 57029 IEM_DS3505
ZBYN,1996-02-24 07:00,ZBYN 240700Z AUTO 24010KT 6SM 06/M15 A3015 RMK T00601150 IEM_DS3505
ZBYN,1996-02-24 08:00,ZBYN 240800Z AUTO 23010KT 6SM 05/M17 A3012 RMK T00501170 IEM_DS3505
ZBYN,1996-02-24 09:00,ZBYN 240900Z AUTO 22012KT 6SM 04/M20 A3012 RMK SLP254 T00421196 57013 IEM_DS3505
ZBYN,1996-02-24 10:00,ZBYN 241000Z AUTO 20006KT 6SM 03/M14 A3015 RMK T00301140 IEM_DS3505
ZBYN,1996-02-24 11:00,ZBYN 241100Z AUTO 18006KT 6SM 01/M16 A3015 RMK T00101160 IEM_DS3505
ZBYN,1996-02-24 12:00,ZBYN 241200Z AUTO 14006KT 6SM M01/M16 A3018 RMK SLP275 T10091161 52013 IEM_DS3505
ZBYN,1996-02-24 13:00,ZBYN 241300Z AUTO 00000KT 7SM M04/M15 A3021 RMK T10401150 IEM_DS3505
ZBYN,1996-02-24 14:00,ZBYN 241400Z AUTO 05004KT 7SM M05/M17 A3021 RMK T10501170 IEM_DS3505
ZBYN,1996-02-24 15:00,ZBYN 241500Z AUTO 34004KT 6SM M02/M16 RMK SLP277 T10251162 52012 IEM_DS3505
ZBYN,1996-02-24 16:00,ZBYN 241600Z AUTO 00000KT 7SM M07/M16 A3024 RMK T10701160 IEM_DS3505
ZBYN,1996-02-24 17:00,ZBYN 241700Z AUTO 03004KT 7SM M03/M16 A3024 RMK T10301160 IEM_DS3505
ZBYN,1996-02-24 18:00,ZBYN 241800Z AUTO 34004KT 6SM M04/M18 A3024 RMK SLP280 T10371183 52008 IEM_DS3505
ZBYN,1996-02-24 19:00,ZBYN 241900Z AUTO 00000KT 7SM M08/M19 A3024 RMK T10801190 IEM_DS3505
ZBYN,1996-02-24 20:00,ZBYN 242000Z AUTO 00000KT 7SM M09/M19 A3021 RMK T10901190 IEM_DS3505
ZBYN,1996-02-24 21:00,ZBYN 242100Z AUTO 02002KT 6SM M08/M20 A3021 RMK SLP285 T10761204 57003 IEM_DS3505
ZBYN,1996-02-24 22:00,ZBYN 242200Z AUTO 12004KT 6SM M11/M22 A3024 RMK T11101220 IEM_DS3505
ZBYN,1996-02-24 23:00,ZBYN 242300Z AUTO 00000KT 6SM M12/M22 A3024 RMK T11201220 IEM_DS3505
ZBYN,1996-02-25 00:00,ZBYN 250000Z AUTO 00000KT 7SM M11/M21 A3027 RMK SLP316 T11081209 52014 IEM_DS3505
ZBYN,1996-02-25 01:00,ZBYN 250100Z AUTO 00000KT 7SM M06/M22 A3027 RMK T10601220 IEM_DS3505
ZBYN,1996-02-25 02:00,ZBYN 250200Z AUTO 19004KT 7SM M03/M20 A3027 RMK T10301200 IEM_DS3505
ZBYN,1996-02-25 03:00,ZBYN 250300Z AUTO 16004KT 6SM 00/M22 A3027 RMK SLP294 T00041215 57004 IEM_DS3505
ZBYN,1996-02-25 04:00,ZBYN 250400Z AUTO 25002KT 6SM 01/M19 A3024 RMK T00101190 IEM_DS3505
ZBYN,1996-02-25 05:00,ZBYN 250500Z AUTO 18006KT 6SM 04/M14 A3021 RMK T00401140 IEM_DS3505
ZBYN,1996-02-25 06:00,ZBYN 250600Z AUTO 16006KT 6SM 04/M19 A3015 RMK SLP260 T00431192 57026 IEM_DS3505
ZBYN,1996-02-25 07:00,ZBYN 250700Z AUTO 25006KT 6SM 05/M14 A3015 RMK T00501140 IEM_DS3505
ZBYN,1996-02-25 08:00,ZBYN 250800Z AUTO 22010KT 6SM 05/M17 A3012 RMK T00501170 IEM_DS3505
ZBYN,1996-02-25 09:00,ZBYN 250900Z AUTO 18012KT 6SM 04/M24 A3012 RMK SLP251 T00421235 57015 IEM_DS3505
ZBYN,1996-02-25 10:00,ZBYN 251000Z AUTO 20004KT 6SM 03/M13 A3009 RMK T00301130 IEM_DS3505
ZBYN,1996-02-25 11:00,ZBYN 251100Z AUTO 00000KT 6SM 01/M09 A3012 RMK T00101090 IEM_DS3505
ZBYN,1996-02-25 12:00,ZBYN 251200Z AUTO 29006KT 9SM 03/M24 A3012 RMK SLP263 T00261245 52003 IEM_DS3505
ZBYN,1996-02-25 13:00,ZBYN 251300Z AUTO 33010KT 6SM 02/M21 A3015 RMK T00201210 IEM_DS3505
ZBYN,1996-02-25 14:00,ZBYN 251400Z AUTO 34012KT 6SM 02/M20 A3015 RMK T00201200 IEM_DS3505
ZBYN,1996-02-25 15:00,ZBYN 251500Z AUTO 34002KT 9SM 01/M25 RMK SLP245 T00141247 54000 IEM_DS3505
ZBYN,1996-02-25 16:00,ZBYN 251600Z AUTO 00000KT 6SM M01/M16 A3012 RMK T10101160 IEM_DS3505
ZBYN,1996-02-25 17:00,ZBYN 251700Z AUTO 00000KT 6SM M03/M15 A3012 RMK T10301150 IEM_DS3505
ZBYN,1996-02-25 18:00,ZBYN 251800Z AUTO 32004KT 7SM M01/M21 A3012 RMK SLP241 T10141211 57002 IEM_DS3505
ZBYN,1996-02-25 19:00,ZBYN 251900Z AUTO 30014KT 6SM M01/M22 A3012 RMK T10101220 IEM_DS3505
ZBYN,1996-02-25 20:00,ZBYN 252000Z AUTO 31017KT 6SM M01/M22 A3012 RMK T10101220 IEM_DS3505
ZBYN,1996-02-25 21:00,ZBYN 252100Z AUTO 36006KT 7SM M02/M26 A3012 RMK SLP244 T10201261 52002 IEM_DS3505
ZBYN,1996-02-25 22:00,ZBYN 252200Z AUTO 33010KT 6SM M04/M24 A3015 RMK T10401240 IEM_DS3505
ZBYN,1996-02-25 23:00,ZBYN 252300Z AUTO 33008KT 6SM M05/M27 A3018 RMK T10501270 IEM_DS3505
ZBYN,1996-02-26 00:00,ZBYN 260000Z AUTO 02014KT 3SM M07/M27 A3024 RMK SLP284 T10661272 52026 IEM_DS3505
ZBYN,1996-02-26 01:00,ZBYN 260100Z AUTO 03016KT 6SM M06/M30 A3027 RMK T10601300 IEM_DS3505
ZBYN,1996-02-26 03:00,ZBYN 260300Z AUTO 02012KT 6SM M04/M31 A3027 RMK SLP305 T10421307 52021 IEM_DS3505
ZBYN,1996-02-26 04:00,ZBYN 260400Z AUTO 03010KT 7SM M01/M27 A3027 RMK T10101270 IEM_DS3505
ZBYN,1996-02-26 05:00,ZBYN 260500Z AUTO 34012KT 7SM 01/ A3024 RMK IEM_DS3505
ZBYN,1996-02-26 06:00,ZBYN 260600Z AUTO 34006KT 6SM M00/M26 A3021 RMK SLP282 T10031259 57019 IEM_DS3505
ZBYN,1996-02-26 07:00,ZBYN 260700Z AUTO 30012KT 7SM 02/M20 A3021 RMK T00201200 IEM_DS3505
ZBYN,1996-02-26 08:00,ZBYN 260800Z AUTO 30012KT 7SM 02/M23 A3021 RMK T00201230 IEM_DS3505
ZBYN,1996-02-26 09:00,ZBYN 260900Z AUTO 36004KT 6SM 01/M25 A3021 RMK SLP277 T00111249 57003 IEM_DS3505
ZBYN,1996-02-26 10:00,ZBYN 261000Z AUTO 34008KT 7SM 00/M18 A3024 RMK T00001180 IEM_DS3505
ZBYN,1996-02-26 11:00,ZBYN 261100Z AUTO 32008KT 7SM M02/M22 A3024 RMK T10201220 IEM_DS3505
ZBYN,1996-02-26 12:00,ZBYN 261200Z AUTO 02004KT 6SM M03/M34 A3027 RMK SLP315 T10281335 52020 IEM_DS3505
ZBYN,1996-02-26 13:00,ZBYN 261300Z AUTO 00000KT 7SM M04/M27 A3030 RMK T10401270 IEM_DS3505
ZBYN,1996-02-26 14:00,ZBYN 261400Z AUTO 31004KT 7SM M04/M27 A3033 RMK T10401270 IEM_DS3505
ZBYN,1996-02-26 15:00,ZBYN 261500Z AUTO 32006KT 6SM M06/M34 A3033 RMK SLP332 T10581337 52014 IEM_DS3505
ZBYN,1996-02-26 16:00,ZBYN 261600Z AUTO 00000KT 7SM M05/M28 A3033 RMK T10501280 IEM_DS3505
ZBYN,1996-02-26 17:00,ZBYN 261700Z AUTO 00000KT 7SM M07/M33 A3033 RMK T10701330 IEM_DS3505
ZBYN,1996-02-26 18:00,ZBYN 261800Z AUTO 34006KT 6SM M06/M28 A3033 RMK SLP322 T10601281 57002 IEM_DS3505
ZBYN,1996-02-26 19:00,ZBYN 261900Z AUTO 03004KT 7SM M08/M28 A3030 RMK T10801280 IEM_DS3505
ZBYN,1996-02-26 20:00,ZBYN 262000Z AUTO 00000KT 7SM M09/M28 A3030 RMK T10901280 IEM_DS3505
ZBYN,1996-02-26 21:00,ZBYN 262100Z AUTO 29006KT 6SM M09/M21 A3030 RMK SLP317 T10881213 57007 IEM_DS3505
ZBYN,1996-02-26 23:00,ZBYN 262300Z AUTO 00000KT 7SM M10/M28 A3033 RMK T11001280 IEM_DS3505
ZBYN,1996-02-27 00:00,ZBYN 270000Z AUTO 34004KT 6SM M09/M25 A3033 RMK SLP336 T10941250 52009 IEM_DS3505
ZBYN,1996-02-27 01:00,ZBYN 270100Z AUTO 00000KT 7SM M07/M30 A3033 RMK T10701300 IEM_DS3505
ZBYN,1996-02-27 02:00,ZBYN 270200Z AUTO 00000KT 7SM M03/M25 A3030 RMK T10301250 IEM_DS3505
ZBYN,1996-02-27 03:00,ZBYN 270300Z AUTO 07002KT 5SM M01/M26 A3030 RMK SLP315 T10121257 57010 IEM_DS3505
ZBYN,1996-02-27 04:00,ZBYN 270400Z AUTO 00000KT 7SM 01/M24 A3024 RMK T00101240 IEM_DS3505
ZBYN,1996-02-27 05:00,ZBYN 270500Z AUTO 26004KT 7SM 02/M22 A3021 RMK T00201220 IEM_DS3505
ZBYN,1996-02-27 06:00,ZBYN 270600Z AUTO 20008KT 5SM 04/M24 A3015 RMK SLP259 T00401244 IEM_DS3505
ZBYN,1996-02-27 07:00,ZBYN 270700Z AUTO 22008KT 7SM 06/ A3012 RMK IEM_DS3505
ZBYN,1996-02-27 08:00,ZBYN 270800Z AUTO 18010KT 7SM 06/M14 A3012 RMK T00601140 IEM_DS3505
ZBYN,1996-02-27 09:00,ZBYN 270900Z AUTO 18010KT 6SM 05/ A3009 RMK SLP241 57019 IEM_DS3505
ZBYN,1996-02-27 10:00,ZBYN 271000Z AUTO 20006KT 7SM 04/M16 A3009 RMK T00401160 IEM_DS3505
ZBYN,1996-02-27 11:00,ZBYN 271100Z AUTO 14004KT 7SM 00/M17 A3009 RMK T00001170 IEM_DS3505
ZBYN,1996-02-27 12:00,ZBYN 271200Z AUTO 14008KT 6SM M01/M30 A3009 RMK SLP252 T10131295 57002 IEM_DS3505
ZBYN,1996-02-27 13:00,ZBYN 271300Z AUTO 11006KT 7SM M06/M22 A3012 RMK T10601220 IEM_DS3505
ZBYN,1996-02-27 14:00,ZBYN 271400Z AUTO 14006KT 7SM M07/M22 A3012 RMK T10701220 IEM_DS3505
ZBYN,1996-02-27 15:00,ZBYN 271500Z AUTO 00000KT 7SM M05/M22 A3012 RMK SLP256 T10491225 52011 IEM_DS3505
ZBYN,1996-02-27 16:00,ZBYN 271600Z AUTO 09006KT 7SM M07/M20 A3012 RMK T10701200 IEM_DS3505
ZBYN,1996-02-27 17:00,ZBYN 271700Z AUTO 09006KT 7SM M07/M19 A3012 RMK T10701190 IEM_DS3505
ZBYN,1996-02-27 18:00,ZBYN 271800Z AUTO 00000KT 5SM M08/M21 A3012 RMK SLP249 T10751211 57007 IEM_DS3505
ZBYN,1996-02-27 21:00,ZBYN 272100Z AUTO 34004KT 6SM M06/M20 RMK SLP239 T10621199 57005 IEM_DS3505
ZBYN,1996-02-27 22:00,ZBYN 272200Z AUTO 00000KT 7SM M08/M20 A3009 RMK T10801200 IEM_DS3505
ZBYN,1996-02-27 23:00,ZBYN 272300Z AUTO 00000KT 7SM M10/M21 A3009 RMK T11001210 IEM_DS3505
ZBYN,1996-02-28 00:00,ZBYN 280000Z AUTO 32004KT 5SM M07/M20 A3012 RMK SLP257 T10681204 52005 IEM_DS3505
ZBYN,1996-02-28 01:00,ZBYN 280100Z AUTO 00000KT 6SM M04/M17 A3012 RMK T10401170 IEM_DS3505
ZBYN,1996-02-28 02:00,ZBYN 280200Z AUTO 00000KT 6SM 00/M18 A3009 RMK T00001180 IEM_DS3505
ZBYN,1996-02-28 03:00,ZBYN 280300Z AUTO 14004KT 5SM 04/M18 A3009 RMK SLP236 T00371175 57008 IEM_DS3505
ZBYN,1996-02-28 04:00,ZBYN 280400Z AUTO 19006KT 6SM 05/M14 A3006 RMK T00501140 IEM_DS3505
ZBYN,1996-02-28 05:00,ZBYN 280500Z AUTO 22010KT 6SM 06/M13 A3003 RMK T00601130 IEM_DS3505
ZBYN,1996-02-28 06:00,ZBYN 280600Z AUTO 16010KT 5SM 07/M17 A3000 RMK SLP202 T00721168 57029 IEM_DS3505
ZBYN,1996-02-28 07:00,ZBYN 280700Z AUTO 20010KT 6SM 09/M11 A2997 RMK T00901110 IEM_DS3505
ZBYN,1996-02-28 08:00,ZBYN 280800Z AUTO 22008KT 6SM 08/M09 A2994 RMK T00801090 IEM_DS3505
ZBYN,1996-02-28 09:00,ZBYN 280900Z AUTO 18010KT 5SM 07/M14 A2994 RMK SLP181 T00741138 57017 IEM_DS3505
ZBYN,1996-02-28 10:00,ZBYN 281000Z AUTO 17006KT 6SM 06/M07 A2994 RMK T00601070 IEM_DS3505
ZBYN,1996-02-28 11:00,ZBYN 281100Z AUTO 12004KT 6SM 04/M08 A2994 RMK T00401080 IEM_DS3505
ZBYN,1996-02-28 12:00,ZBYN 281200Z AUTO 09004KT 5SM 03/M14 A2997 RMK SLP196 T00341139 52006 IEM_DS3505
ZBYN,1996-02-28 13:00,ZBYN 281300Z AUTO 00000KT 6SM 03/M09 A3000 RMK T00301090 IEM_DS3505
ZBYN,1996-02-28 14:00,ZBYN 281400Z AUTO 00000KT 6SM 01/M10 A3000 RMK T00101100 IEM_DS3505
ZBYN,1996-02-28 15:00,ZBYN 281500Z AUTO 11008KT 5SM 00/M13 A3003 RMK SLP198 T00051134 52014 IEM_DS3505
ZBYN,1996-02-28 16:00,ZBYN 281600Z AUTO 00000KT 6SM M01/M11 A3003 RMK T10101110 IEM_DS3505
ZBYN,1996-02-28 17:00,ZBYN 281700Z AUTO 00000KT 6SM M02/M12 A3003 RMK T10201120 IEM_DS3505
ZBYN,1996-02-28 18:00,ZBYN 281800Z AUTO 14006KT 5SM M01/M12 A3003 RMK SLP202 T10071117 52008 IEM_DS3505
ZBYN,1996-02-28 19:00,ZBYN 281900Z AUTO 00000KT 6SM M05/M12 A3003 RMK T10501120 IEM_DS3505
ZBYN,1996-02-28 20:00,ZBYN 282000Z AUTO 10006KT 6SM M06/M11 A3006 RMK T10601110 IEM_DS3505
ZBYN,1996-02-28 21:00,ZBYN 282100Z AUTO 09004KT 5SM M05/M11 A3006 RMK SLP217 T10521114 52006 IEM_DS3505
ZBYN,1996-02-28 22:00,ZBYN 282200Z AUTO 12002KT 7SM M07/M12 A3009 RMK T10701120 IEM_DS3505
ZBYN,1996-02-28 23:00,ZBYN 282300Z AUTO 13002KT 7SM M08/M13 A3012 RMK T10801130 IEM_DS3505
ZBYN,1996-02-29 00:00,ZBYN 290000Z AUTO 04004KT 6SM M06/M13 A3016 RMK SLP258 T10581128 52030 IEM_DS3505
ZBYN,1996-02-29 02:00,ZBYN 290200Z AUTO 00000KT 5SM 03/M12 A3018 RMK T00301120 IEM_DS3505
ZBYN,1996-02-29 03:00,ZBYN 290300Z AUTO 32012KT 9SM 06/M23 A3018 RMK SLP257 T00601231 52014 IEM_DS3505
ZBYN,1996-02-29 04:00,ZBYN 290400Z AUTO 32023KT 7SM 07/M25 A3018 RMK T00701250 IEM_DS3505
ZBYN,1996-02-29 05:00,ZBYN 290500Z AUTO 32029KT 7SM 07/ A3021 RMK IEM_DS3505
ZBYN,1996-02-29 06:00,ZBYN 290600Z AUTO 34019KT 5SM 06/M25 A3021 RMK SLP266 T00571247 4////1175 52005 IEM_DS3505
ZBYN,1996-02-29 07:00,ZBYN 290700Z AUTO 32025KT 7SM 06/M19 A3021 RMK T00601190 IEM_DS3505
ZBYN,1996-02-29 08:00,ZBYN 290800Z AUTO 32019KT 7SM 05/M18 A3024 RMK T00501180 IEM_DS3505
ZBYN,1996-02-29 09:00,ZBYN 290900Z AUTO 29016KT 6SM 03/ RMK SLP294 52015 IEM_DS3505
ZBYN,1996-02-29 10:00,ZBYN 291000Z AUTO 32016KT 7SM 02/ A3030 RMK IEM_DS3505
ZBYN,1996-02-29 11:00,ZBYN 291100Z AUTO 32019KT 7SM 00/M21 A3033 RMK T00001210 IEM_DS3505
ZBYN,1996-02-29 12:00,ZBYN 291200Z AUTO 32014KT 6SM M01/ A3036 RMK SLP339 52032 IEM_DS3505
ZBYN,1996-02-29 13:00,ZBYN 291300Z AUTO 33010KT 7SM M02/M20 A3039 RMK T10201200 IEM_DS3505
ZBYN,1996-02-29 14:00,ZBYN 291400Z AUTO 33016KT 7SM M03/M21 A3039 RMK T10301210 IEM_DS3505
ZBYN,1996-02-29 15:00,ZBYN 291500Z AUTO 34008KT 6SM M03/M29 A3042 RMK SLP333 T10311287 52011 IEM_DS3505
ZBYN,1996-02-29 16:00,ZBYN 291600Z AUTO 33006KT 7SM M03/M20 A3042 RMK T10301200 IEM_DS3505
ZBYN,1996-02-29 17:00,ZBYN 291700Z AUTO 00000KT 7SM M05/M18 A3042 RMK T10501180 IEM_DS3505
ZBYN,1996-02-29 18:00,ZBYN 291800Z AUTO 32006KT 6SM M04/M28 A3039 RMK SLP331 T10431275 57004 IEM_DS3505
ZBYN,1996-02-29 19:00,ZBYN 291900Z AUTO 00000KT 7SM M08/M21 A3039 RMK T10801210 IEM_DS3505
ZBYN,1996-02-29 20:00,ZBYN 292000Z AUTO 11004KT 7SM M10/M23 A3036 RMK T11001230 IEM_DS3505
ZBYN,1996-02-29 21:00,ZBYN 292100Z AUTO 14006KT 6SM M10/M31 A3036 RMK SLP333 T11011312 57012 IEM_DS3505
ZBYN,1996-02-29 22:00,ZBYN 292200Z AUTO 11004KT 7SM M12/M25 A3036 RMK T11201250 IEM_DS3505
ZBYN,1996-02-29 23:00,ZBYN 292300Z AUTO 11002KT 7SM M12/M23 A3036 RMK T11201230 IEM_DS3505
ZBYN,1996-03-01 00:00,ZBYN 010000Z AUTO 14004KT 6SM M11/M27 A3036 RMK SLP341 T11081266 57002 IEM_DS3505
ZBYN,1996-03-01 01:00,ZBYN 010100Z AUTO 12004KT 7SM M05/M24 A3036 RMK T10501240 IEM_DS3505
ZBYN,1996-03-01 02:00,ZBYN 010200Z AUTO 00000KT 7SM M01/M23 A3033 RMK T10101230 IEM_DS3505
ZBYN,1996-03-01 03:00,ZBYN 010300Z AUTO 18006KT 7SM 00/M22 A3030 RMK SLP311 T00011215 57012 IEM_DS3505
ZBYN,1996-03-01 04:00,ZBYN 010400Z AUTO 22010KT 7SM 03/M19 A3027 RMK T00301190 IEM_DS3505
ZBYN,1996-03-01 05:00,ZBYN 010500Z AUTO 20006KT 6SM 05/M14 A3021 RMK T00501140 IEM_DS3505
ZBYN,1996-03-01 06:00,ZBYN 010600Z AUTO 18010KT 6SM 05/M26 A3015 RMK SLP254 T00531262 57045 IEM_DS3505
ZBYN,1996-03-01 07:00,ZBYN 010700Z AUTO 24012KT 6SM 07/M24 A3012 RMK T00701240 IEM_DS3505
ZBYN,1996-03-01 08:00,ZBYN 010800Z AUTO 22010KT 6SM 07/M22 A3009 RMK T00701220 IEM_DS3505
ZBYN,1996-03-01 09:00,ZBYN 010900Z AUTO 18010KT 9SM 08/ A3009 RMK SLP237 57021 IEM_DS3505
ZBYN,1996-03-01 10:00,ZBYN 011000Z AUTO 23006KT 6SM 05/M17 A3006 RMK T00501170 IEM_DS3505
ZBYN,1996-03-01 11:00,ZBYN 011100Z AUTO 11006KT 6SM 02/M16 A3006 RMK T00201160 IEM_DS3505
ZBYN,1996-03-01 12:00,ZBYN 011200Z AUTO 00000KT 6SM 02/M26 A3006 RMK SLP242 T00221261 57006 IEM_DS3505
ZBYN,1996-03-01 13:00,ZBYN 011300Z AUTO 00000KT 6SM M01/M19 A3006 RMK T10101190 IEM_DS3505
ZBYN,1996-03-01 14:00,ZBYN 011400Z AUTO 12002KT 6SM M03/M20 A3009 RMK T10301200 IEM_DS3505
ZBYN,1996-03-01 15:00,ZBYN 011500Z AUTO 32004KT 6SM M02/M21 A3006 RMK SLP233 T10211213 52003 IEM_DS3505
ZBYN,1996-03-01 16:00,ZBYN 011600Z AUTO 12004KT 6SM M05/M21 A3006 RMK T10501210 IEM_DS3505
ZBYN,1996-03-01 18:00,ZBYN 011800Z AUTO 00000KT 6SM M03/M22 A3010 RMK SLP228 T10261218 52003 IEM_DS3505
ZBYN,1996-03-01 21:00,ZBYN 012100Z AUTO 36006KT 6SM M03/M22 A3009 RMK SLP228 T10311224 52003 IEM_DS3505
ZBYN,1996-03-01 22:00,ZBYN 012200Z AUTO 00000KT 6SM M07/M22 A3012 RMK T10701220 IEM_DS3505
ZBYN,1996-03-01 23:00,ZBYN 012300Z AUTO 06004KT 6SM M08/M22 A3015 RMK T10801220 IEM_DS3505
ZBYN,1996-03-02 00:00,ZBYN 020000Z AUTO 34004KT 9SM M04/M22 A3018 RMK SLP266 T10401220 52024 IEM_DS3505
ZBYN,1996-03-02 01:00,ZBYN 020100Z AUTO 00000KT 7SM M03/M19 A3018 RMK T10301190 IEM_DS3505
ZBYN,1996-03-02 02:00,ZBYN 020200Z AUTO 35006KT 7SM 03/M20 A3018 RMK T00301200 IEM_DS3505
ZBYN,1996-03-02 03:00,ZBYN 020300Z AUTO 34006KT 6SM 04/M25 A3018 RMK SLP259 T00431246 52001 IEM_DS3505
ZBYN,1996-03-02 04:00,ZBYN 020400Z AUTO 18004KT 7SM 07/M24 A3015 RMK T00701240 IEM_DS3505
ZBYN,1996-03-02 05:00,ZBYN 020500Z AUTO 00000KT 7SM 09/M19 A3015 RMK T00901190 IEM_DS3505
ZBYN,1996-03-02 06:00,ZBYN 020600Z AUTO 18004KT 8SM 08/M25 A3012 RMK SLP235 T00831250 57017 IEM_DS3505
ZBYN,1996-03-02 07:00,ZBYN 020700Z AUTO 18012KT 7SM 10/M15 A3009 RMK T01001150 IEM_DS3505
ZBYN,1996-03-02 08:00,ZBYN 020800Z AUTO 21010KT 6SM 10/M16 A3009 RMK T01001160 IEM_DS3505
ZBYN,1996-03-02 09:00,ZBYN 020900Z AUTO 20010KT 9SM 09/ A3009 RMK SLP219 57014 IEM_DS3505
ZBYN,1996-03-02 10:00,ZBYN 021000Z AUTO 23006KT 6SM 06/M13 A3009 RMK T00601130 IEM_DS3505
ZBYN,1996-03-02 11:00,ZBYN 021100Z AUTO 00000KT 6SM 04/M11 A3012 RMK T00401110 IEM_DS3505
ZBYN,1996-03-02 12:00,ZBYN 021200Z AUTO 32002KT 9SM 03/M27 A3012 RMK SLP245 T00271268 52012 IEM_DS3505
ZBYN,1996-03-02 13:00,ZBYN 021300Z AUTO 00000KT 7SM M02/M20 A3012 RMK T10201200 IEM_DS3505
ZBYN,1996-03-02 14:00,ZBYN 021400Z AUTO 00000KT 7SM M04/M20 A3015 RMK T10401200 IEM_DS3505
ZBYN,1996-03-02 15:00,ZBYN 021500Z AUTO 36004KT 9SM 02/M27 A3015 RMK SLP238 T00221268 52006 IEM_DS3505
ZBYN,1996-03-02 16:00,ZBYN 021600Z AUTO 09006KT 6SM M04/M20 A3015 RMK T10401200 IEM_DS3505
ZBYN,1996-03-02 18:00,ZBYN 021800Z AUTO 34004KT 9SM 00/M20 A3017 RMK SLP242 T00041203 52008 IEM_DS3505
ZBYN,1996-03-02 21:00,ZBYN 022100Z AUTO 34006KT 6SM M01/M21 A3018 RMK SLP247 T10141212 52002 IEM_DS3505
ZBYN,1996-03-02 22:00,ZBYN 022200Z AUTO 11004KT 6SM M09/M18 A3021 RMK T10901180 IEM_DS3505
ZBYN,1996-03-02 23:00,ZBYN 022300Z AUTO 09004KT 6SM M08/M20 A3024 RMK T10801200 IEM_DS3505
ZBYN,1996-03-03 00:00,ZBYN 030000Z AUTO 36004KT 9SM M01/M21 A3025 RMK SLP283 T10111213 52023 IEM_DS3505
ZBYN,1996-03-03 01:00,ZBYN 030100Z AUTO 18012KT 11SM M01/M21 A3027 RMK T10101210 57016 IEM_DS3505
ZBYN,1996-03-03 02:00,ZBYN 030200Z AUTO 34004KT 7SM 04/M23 A3027 RMK T00401230 IEM_DS3505
ZBYN,1996-03-03 03:00,ZBYN 030300Z AUTO 25002KT 9SM 08/M22 A3027 RMK SLP276 T00761219 52004 IEM_DS3505
ZBYN,1996-03-03 04:00,ZBYN 030400Z AUTO 00000KT 7SM 08/M14 A3024 RMK T00801140 IEM_DS3505
ZBYN,1996-03-03 05:00,ZBYN 030500Z AUTO 00000KT 7SM 08/M14 A3021 RMK T00801140 IEM_DS3505
ZBYN,1996-03-03 06:00,ZBYN 030600Z AUTO 16008KT 9SM 10/ A3018 RMK SLP244 57025 IEM_DS3505
ZBYN,1996-03-03 07:00,ZBYN 030700Z AUTO 22008KT 7SM 12/M14 A3015 RMK T01201140 IEM_DS3505
ZBYN,1996-03-03 08:00,ZBYN 030800Z AUTO 18008KT 7SM 12/M13 A3012 RMK T01201130 IEM_DS3505
ZBYN,1996-03-03 09:00,ZBYN 030900Z AUTO 18012KT 11SM 11/ A3012 RMK SLP227 57016 IEM_DS3505
ZBYN,1996-03-03 10:00,ZBYN 031000Z AUTO 21006KT 7SM 09/M11 A3012 RMK T00901110 IEM_DS3505
ZBYN,1996-03-03 11:00,ZBYN 031100Z AUTO 00000KT 7SM 04/M07 A3012 RMK T00401070 IEM_DS3505
ZBYN,1996-03-03 12:00,ZBYN 031200Z AUTO 27004KT 9SM 06/ A3015 RMK SLP241 52004 IEM_DS3505
ZBYN,1996-03-03 13:00,ZBYN 031300Z AUTO 12004KT 7SM M01/M17 A3018 RMK T10101170 IEM_DS3505
ZBYN,1996-03-03 14:00,ZBYN 031400Z AUTO 07004KT 7SM M03/M22 A3018 RMK T10301220 IEM_DS3505
ZBYN,1996-03-03 15:00,ZBYN 031500Z AUTO 34008KT 9SM 04/M30 A3021 RMK SLP248 T00351296 52017 IEM_DS3505
ZBYN,1996-03-03 16:00,ZBYN 031600Z AUTO 10006KT 6SM M04/M19 A3021 RMK T10401190 IEM_DS3505
ZBYN,1996-03-03 18:00,ZBYN 031800Z AUTO 00000KT 9SM M04/M28 A3021 RMK SLP262 T10371278 52005 IEM_DS3505
ZBYN,1996-03-03 21:00,ZBYN 032100Z AUTO 07004KT 9SM M07/M22 A3018 RMK SLP254 T10681225 57010 IEM_DS3505
ZBYN,1996-03-03 22:00,ZBYN 032200Z AUTO 00000KT 6SM M07/M22 A3018 RMK T10701220 IEM_DS3505
ZBYN,1996-03-03 23:00,ZBYN 032300Z AUTO 01006KT 6SM M07/M22 A3018 RMK T10701220 IEM_DS3505
ZBYN,1996-03-04 00:00,ZBYN 040000Z AUTO 34004KT 9SM M03/M22 A3021 RMK SLP261 T10261219 52004 IEM_DS3505
ZBYN,1996-03-04 01:00,ZBYN 040100Z AUTO 00000KT 6SM M02/M20 A3021 RMK T10201200 IEM_DS3505
ZBYN,1996-03-04 02:00,ZBYN 040200Z AUTO 03004KT 6SM 02/M22 A3021 RMK T00201220 IEM_DS3505
ZBYN,1996-03-04 03:00,ZBYN 040300Z AUTO 36006KT 9SM 05/M18 A3018 RMK SLP254 T00501176 52002 IEM_DS3505
ZBYN,1996-03-04 04:00,ZBYN 040400Z AUTO 00000KT 6SM 10/M16 A3015 RMK T01001160 IEM_DS3505
ZBYN,1996-03-04 06:00,ZBYN 040600Z AUTO 16004KT 6SM 11/M20 A3006 RMK SLP218 T01091202 57035 IEM_DS3505
ZBYN,1996-03-04 07:00,ZBYN 040700Z AUTO 19014KT 6SM 12/M14 A3003 RMK T01201140 IEM_DS3505
ZBYN,1996-03-04 08:00,ZBYN 040800Z AUTO 23008KT 6SM 10/M14 A3003 RMK T01001140 IEM_DS3505
ZBYN,1996-03-04 09:00,ZBYN 040900Z AUTO 16006KT 6SM 08/M18 A3006 RMK SLP218 T00751176 57010 IEM_DS3505
ZBYN,1996-03-04 10:00,ZBYN 041000Z AUTO 12006KT 5SM 06/M09 A3006 RMK T00601090 IEM_DS3505
ZBYN,1996-03-04 11:00,ZBYN 041100Z AUTO 18004KT 5SM 05/M09 A3006 RMK T00501090 IEM_DS3505
ZBYN,1996-03-04 12:00,ZBYN 041200Z AUTO 14008KT 6SM 04/M17 A3009 RMK SLP232 T00451170 52015 IEM_DS3505
ZBYN,1996-03-04 13:00,ZBYN 041300Z AUTO 11012KT 7SM 04/M12 A3012 RMK T00401120 IEM_DS3505
ZBYN,1996-03-04 14:00,ZBYN 041400Z AUTO 11014KT 7SM 03/M12 A3015 RMK T00301120 IEM_DS3505
ZBYN,1996-03-04 15:00,ZBYN 041500Z AUTO 09008KT 6SM 03/M15 A3012 RMK SLP233 T00321150 52011 IEM_DS3505
ZBYN,1996-03-04 16:00,ZBYN 041600Z AUTO 12004KT 7SM 01/M09 A3012 RMK T00101090 IEM_DS3505
ZBYN,1996-03-04 18:00,ZBYN 041800Z AUTO 00000KT 7SM M00/M14 A3013 RMK SLP227 T10021144 57002 IEM_DS3505
ZBYN,1996-03-04 21:00,ZBYN 042100Z AUTO 34004KT 7SM M02/M11 RMK SLP229 T10201109 57006 IEM_DS3505
ZBYN,1996-03-04 22:00,ZBYN 042200Z AUTO 00000KT 6SM M03/M11 A3009 RMK T10301110 IEM_DS3505
ZBYN,1996-03-05 00:00,ZBYN 050000Z AUTO 32004KT 6SM M04/M09 A3009 RMK SLP235 T10361090 57002 IEM_DS3505
ZBYN,1996-03-05 01:00,ZBYN 050100Z AUTO 24004KT 7SM M01/M10 A3009 RMK T10101100 IEM_DS3505
ZBYN,1996-03-05 02:00,ZBYN 050200Z AUTO 00000KT 5SM 02/M09 A3006 RMK T00201090 IEM_DS3505
ZBYN,1996-03-05 03:00,ZBYN 050300Z AUTO 02004KT 6SM 04/M11 A3006 RMK SLP208 T00431113 57014 IEM_DS3505
ZBYN,1996-03-05 04:00,ZBYN 050400Z AUTO 34004KT 7SM 07/M09 A3003 RMK T00701090 IEM_DS3505
ZBYN,1996-03-05 05:00,ZBYN 050500Z AUTO 00000KT 6SM 08/M09 A3000 RMK T00801090 IEM_DS3505
ZBYN,1996-03-05 06:00,ZBYN 050600Z AUTO 14006KT 6SM 09/M14 A2994 RMK SLP169 T00931141 57033 IEM_DS3505
ZBYN,1996-03-05 07:00,ZBYN 050700Z AUTO 00000KT 6SM 12/M08 A2988 RMK T01201080 IEM_DS3505
ZBYN,1996-03-05 08:00,ZBYN 050800Z AUTO 22010KT 6SM 12/M09 A2985 RMK T01201090 IEM_DS3505
ZBYN,1996-03-05 09:00,ZBYN 050900Z AUTO 16008KT 6SM 11/M12 A2985 RMK SLP134 T01111121 57032 IEM_DS3505
ZBYN,1996-03-05 10:00,ZBYN 051000Z AUTO 15004KT 6SM 10/M04 A2983 RMK T01001040 IEM_DS3505
ZBYN,1996-03-05 11:00,ZBYN 051100Z AUTO 15008KT 7SM 05/M07 A2983 RMK T00501070 IEM_DS3505
ZBYN,1996-03-05 12:00,ZBYN 051200Z AUTO 16010KT 6SM 06/M12 A2983 RMK SLP144 T00621122 57001 IEM_DS3505
ZBYN,1996-03-05 13:00,ZBYN 051300Z AUTO 10006KT 7SM 04/M08 A2985 RMK T00401080 IEM_DS3505
ZBYN,1996-03-05 14:00,ZBYN 051400Z AUTO 14006KT 7SM 03/M09 A2985 RMK T00301090 IEM_DS3505
ZBYN,1996-03-05 15:00,ZBYN 051500Z AUTO 22004KT 6SM 02/M12 A2985 RMK SLP136 T00231119 57001 IEM_DS3505
ZBYN,1996-03-05 16:00,ZBYN 051600Z AUTO 11008KT 7SM 02/M09 A2983 RMK T00201090 IEM_DS3505
ZBYN,1996-03-05 18:00,ZBYN 051800Z AUTO 27004KT 6SM M00/M10 A2983 RMK SLP130 T10041099 57002 IEM_DS3505
ZBYN,1996-03-05 19:00,ZBYN 051900Z AUTO 00000KT 6SM M01/M09 A2983 RMK T10101090 IEM_DS3505
ZBYN,1996-03-05 20:00,ZBYN 052000Z AUTO 00000KT 6SM M02/M08 A2980 RMK T10201080 IEM_DS3505
ZBYN,1996-03-05 21:00,ZBYN 052100Z AUTO 34004KT 6SM 00/M09 A2983 RMK SLP117 T00041091 57008 IEM_DS3505
ZBYN,1996-03-05 22:00,ZBYN 052200Z AUTO 00000KT 4SM M03/M09 A2983 RMK T10301090 IEM_DS3505
ZBYN,1996-03-06 00:00,ZBYN 060000Z AUTO 14004KT 5SM M02/M11 A2983 RMK SLP140 T10221106 52009 IEM_DS3505
ZBYN,1996-03-06 01:00,ZBYN 060100Z AUTO 00000KT 6SM 01/M09 A2985 RMK T00101090 IEM_DS3505
ZBYN,1996-03-06 02:00,ZBYN 060200Z AUTO 00000KT 6SM 06/M07 A2985 RMK T00601070 IEM_DS3505
ZBYN,1996-03-06 03:00,ZBYN 060300Z AUTO 32004KT 2 1/2SM 08/M07 A2985 RMK SLP136 T00751073 52006 IEM_DS3505
ZBYN,1996-03-06 04:00,ZBYN 060400Z AUTO 23004KT 6SM 10/M06 A2985 RMK T01001060 IEM_DS3505
ZBYN,1996-03-06 05:00,ZBYN 060500Z AUTO 22006KT 6SM 12/M05 A2983 RMK T01201050 IEM_DS3505
ZBYN,1996-03-06 06:00,ZBYN 060600Z AUTO 16008KT 2 1/2SM 13/M08 A2980 RMK SLP118 T01331076 57012 IEM_DS3505
ZBYN,1996-03-06 07:00,ZBYN 060700Z AUTO 21008KT 4SM 15/M02 A2977 RMK T01501020 IEM_DS3505
ZBYN,1996-03-06 08:00,ZBYN 060800Z AUTO 24006KT 4SM 16/M02 A2977 RMK T01601020 IEM_DS3505
ZBYN,1996-03-06 09:00,ZBYN 060900Z AUTO 32014KT 6SM 17/M09 A2977 RMK SLP101 T01671091 57009 IEM_DS3505
ZBYN,1996-03-06 10:00,ZBYN 061000Z AUTO 33014KT 6SM 15/M11 A2980 RMK T01501110 IEM_DS3505
ZBYN,1996-03-06 11:00,ZBYN 061100Z AUTO 33010KT 7SM 13/M11 A2983 RMK T01301110 IEM_DS3505
ZBYN,1996-03-06 12:00,ZBYN 061200Z AUTO 29010KT 6SM 10/M14 A2985 RMK SLP139 T01041135 52021 IEM_DS3505
ZBYN,1996-03-06 13:00,ZBYN 061300Z AUTO 36006KT 7SM 10/M10 A2988 RMK T01001100 IEM_DS3505
ZBYN,1996-03-06 14:00,ZBYN 061400Z AUTO 34016KT 7SM 09/M19 A2994 RMK T00901190 IEM_DS3505
ZBYN,1996-03-06 15:00,ZBYN 061500Z AUTO 34004KT 6SM 06/M19 A2994 RMK SLP164 T00611188 52031 IEM_DS3505
ZBYN,1996-03-06 16:00,ZBYN 061600Z AUTO 33012KT 7SM 05/M16 A2997 RMK T00501160 IEM_DS3505
ZBYN,1996-03-06 17:00,ZBYN 061700Z AUTO 33010KT 7SM 05/M15 A2997 RMK T00501150 IEM_DS3505
ZBYN,1996-03-06 18:00,ZBYN 061800Z AUTO 29014KT 6SM 04/M21 A3000 RMK SLP175 T00351214 52015 IEM_DS3505
ZBYN,1996-03-06 19:00,ZBYN 061900Z AUTO 33004KT 7SM 01/M16 A3003 RMK T00101160 IEM_DS3505
ZBYN,1996-03-06 20:00,ZBYN 062000Z AUTO 33004KT 7SM 01/M19 A3000 RMK T00101190 IEM_DS3505
ZBYN,1996-03-06 21:00,ZBYN 062100Z AUTO 32010KT 6SM M01/M22 A3006 RMK SLP196 T10081223 52018 IEM_DS3505
ZBYN,1996-03-06 22:00,ZBYN 062200Z AUTO 36010KT 7SM M01/M10 A3009 RMK T10101100 IEM_DS3505
ZBYN,1996-03-06 23:00,ZBYN 062300Z AUTO 34010KT 6SM M02/M17 A3012 RMK T10201170 IEM_DS3505
ZBYN,1996-03-07 00:00,ZBYN 070000Z AUTO 32014KT 9SM M02/M26 A3015 RMK SLP237 T10161258 52026 IEM_DS3505
ZBYN,1996-03-07 01:00,ZBYN 070100Z AUTO 34017KT 6SM 00/M22 A3015 RMK T00001220 IEM_DS3505
ZBYN,1996-03-07 02:00,ZBYN 070200Z AUTO 32019KT 6SM 01/M18 A3018 RMK T00101180 IEM_DS3505
ZBYN,1996-03-07 03:00,ZBYN 070300Z AUTO 29019KT 9SM 02/ A3015 RMK SLP237 57001 IEM_DS3505
ZBYN,1996-03-07 04:00,ZBYN 070400Z AUTO 30029KT 6SM 04/M14 A3012 RMK T00401140 IEM_DS3505
ZBYN,1996-03-07 05:00,ZBYN 070500Z AUTO 32029KT 6SM 06/M10 A3009 RMK T00601100 IEM_DS3505
ZBYN,1996-03-07 06:00,ZBYN 070600Z AUTO 29021KT 9SM 05/ A3006 RMK SLP217 57017 IEM_DS3505
ZBYN,1996-03-07 07:00,ZBYN 070700Z AUTO 32019KT 6SM 07/M14 A3009 RMK T00701140 IEM_DS3505
ZBYN,1996-03-07 09:00,ZBYN 070900Z AUTO 29016KT 9SM 05/ A3012 RMK SLP235 52008 IEM_DS3505
ZBYN,1996-03-07 10:00,ZBYN 071000Z AUTO 30016KT 6SM 04/M22 A3015 RMK T00401220 IEM_DS3505
ZBYN,1996-03-07 11:00,ZBYN 071100Z AUTO 31016KT 6SM 02/ A3018 RMK IEM_DS3505
ZBYN,1996-03-07 12:00,ZBYN 071200Z AUTO 29010KT 6SM 01/M28 A3021 RMK SLP277 T00081284 52031 IEM_DS3505
ZBYN,1996-03-07 13:00,ZBYN 071300Z AUTO 33012KT 6SM 00/M21 A3027 RMK T00001210 IEM_DS3505
ZBYN,1996-03-07 14:00,ZBYN 071400Z AUTO 32014KT 6SM 00/M22 A3030 RMK T00001220 IEM_DS3505
ZBYN,1996-03-07 15:00,ZBYN 071500Z AUTO 32012KT 6SM M02/M29 A3033 RMK SLP312 T10181290 52034 IEM_DS3505
ZBYN,1996-03-07 16:00,ZBYN 071600Z AUTO 32010KT 7SM M02/M22 A3033 RMK T10201220 IEM_DS3505
ZBYN,1996-03-07 17:00,ZBYN 071700Z AUTO 31012KT 7SM M03/M22 A3033 RMK T10301220 IEM_DS3505
ZBYN,1996-03-07 18:00,ZBYN 071800Z AUTO 29012KT 6SM M03/M26 A3036 RMK SLP319 T10331261 52009 IEM_DS3505
ZBYN,1996-03-07 19:00,ZBYN 071900Z AUTO 31016KT 7SM M04/M22 A3036 RMK T10401220 IEM_DS3505
ZBYN,1996-03-07 20:00,ZBYN 072000Z AUTO 33016KT 7SM M04/M22 A3036 RMK T10401220 IEM_DS3505
ZBYN,1996-03-07 21:00,ZBYN 072100Z AUTO 32014KT 6SM M05/M26 A3036 RMK SLP325 T10471259 52002 IEM_DS3505
ZBYN,1996-03-07 22:00,ZBYN 072200Z AUTO 33012KT 7SM M05/M22 A3039 RMK T10501220 IEM_DS3505
ZBYN,1996-03-07 23:00,ZBYN 072300Z AUTO 36004KT 7SM M05/M24 A3039 RMK T10501240 IEM_DS3505
ZBYN,1996-03-08 00:00,ZBYN 080000Z AUTO 29010KT 9SM M05/M24 A3042 RMK SLP350 T10531240 52015 IEM_DS3505
ZBYN,1996-03-08 01:00,ZBYN 080100Z AUTO 33010KT 7SM M05/M25 A3039 RMK T10501250 IEM_DS3505
ZBYN,1996-03-08 02:00,ZBYN 080200Z AUTO 33010KT 7SM M01/M23 A3039 RMK T10101230 IEM_DS3505
ZBYN,1996-03-08 03:00,ZBYN 080300Z AUTO 34017KT 6SM 00/M17 A3036 RMK SLP326 T00001170 57017 IEM_DS3505
ZBYN,1996-03-08 04:00,ZBYN 080400Z AUTO 34012KT 5SM 01/M17 A3036 RMK T00101170 IEM_DS3505
ZBYN,1996-03-08 05:00,ZBYN 080500Z AUTO 03019KT 7SM 03/M16 A3036 RMK T00301160 IEM_DS3505
ZBYN,1996-03-08 06:00,ZBYN 080600Z AUTO 04014KT 7SM 04/M17 A3036 RMK SLP315 T00351166 57007 IEM_DS3505
ZBYN,1996-03-08 07:00,ZBYN 080700Z AUTO 05019KT 7SM 05/M15 A3033 RMK T00501150 IEM_DS3505
ZBYN,1996-03-08 08:00,ZBYN 080800Z AUTO 06021KT 7SM 04/M16 A3033 RMK T00401160 IEM_DS3505
ZBYN,1996-03-08 09:00,ZBYN 080900Z AUTO 02014KT 7SM 04/M17 A3036 RMK SLP313 T00371168 57004 IEM_DS3505
ZBYN,1996-03-08 10:00,ZBYN 081000Z AUTO 04016KT 7SM 02/M20 A3036 RMK T00201200 IEM_DS3505
ZBYN,1996-03-08 11:00,ZBYN 081100Z AUTO 04014KT 7SM 01/M16 A3039 RMK T00101160 IEM_DS3505
ZBYN,1996-03-08 12:00,ZBYN 081200Z AUTO 36006KT 6SM 01/M16 A3039 RMK SLP348 T00111164 52027 IEM_DS3505
ZBYN,1996-03-08 13:00,ZBYN 081300Z AUTO 36010KT 7SM 00/M16 A3042 RMK T00001160 IEM_DS3505
ZBYN,1996-03-08 14:00,ZBYN 081400Z AUTO 33008KT 7SM M01/M14 A3045 RMK T10101140 IEM_DS3505
ZBYN,1996-03-08 15:00,ZBYN 081500Z AUTO 02008KT 6SM M01/M15 A3045 RMK SLP362 T10111146 52018 IEM_DS3505
ZBYN,1996-03-08 16:00,ZBYN 081600Z AUTO 36010KT 7SM M02/M13 A3047 RMK T10201130 IEM_DS3505
ZBYN,1996-03-08 17:00,ZBYN 081700Z AUTO 03016KT 7SM M03/M13 A3047 RMK T10301130 IEM_DS3505
ZBYN,1996-03-08 18:00,ZBYN 081800Z AUTO 36010KT 6SM M04/M16 A3047 RMK SLP372 T10391165 52010 IEM_DS3505
ZBYN,1996-03-08 20:00,ZBYN 082000Z AUTO 36014KT 7SM M05/M13 A3045 RMK T10501130 IEM_DS3505
ZBYN,1996-03-08 21:00,ZBYN 082100Z AUTO 36014KT 6SM M05/M17 A3045 RMK SLP361 T10521170 57012 IEM_DS3505
ZBYN,1996-03-09 00:00,ZBYN 090000Z AUTO 36010KT 9SM M06/M19 A3047 RMK SLP371 T10561187 52004 IEM_DS3505
ZBYN,1996-03-09 01:00,ZBYN 090100Z AUTO 03014KT 7SM M05/M16 A3047 RMK T10501160 IEM_DS3505
ZBYN,1996-03-09 02:00,ZBYN 090200Z AUTO 36010KT 7SM M03/M16 A3047 RMK T10301160 IEM_DS3505
ZBYN,1996-03-09 03:00,ZBYN 090300Z AUTO 02006KT 9SM M01/M19 A3045 RMK SLP361 T10071191 57004 IEM_DS3505
ZBYN,1996-03-09 04:00,ZBYN 090400Z AUTO 03014KT 7SM 01/M18 A3042 RMK T00101180 IEM_DS3505
ZBYN,1996-03-09 05:00,ZBYN 090500Z AUTO 01012KT 7SM 03/ A3036 RMK IEM_DS3505
ZBYN,1996-03-09 06:00,ZBYN 090600Z AUTO 32004KT 9SM 04/M21 A3033 RMK SLP316 T00421213 57038 IEM_DS3505
ZBYN,1996-03-09 07:00,ZBYN 090700Z AUTO 36004KT 6SM 06/M15 A3030 RMK T00601150 IEM_DS3505
ZBYN,1996-03-09 08:00,ZBYN 090800Z AUTO 27012KT 6SM 05/M14 A3030 RMK T00501140 IEM_DS3505
ZBYN,1996-03-09 09:00,ZBYN 090900Z AUTO 22004KT 9SM 05/M22 A3027 RMK SLP297 T00501215 57018 IEM_DS3505
ZBYN,1996-03-09 10:00,ZBYN 091000Z AUTO 25012KT 6SM 04/M16 A3027 RMK T00401160 IEM_DS3505
ZBYN,1996-03-09 12:00,ZBYN 091200Z AUTO 16002KT 6SM 00/M19 A3030 RMK SLP314 T00001187 52007 IEM_DS3505
ZBYN,1996-03-09 14:00,ZBYN 091400Z AUTO 00000KT 7SM M05/M18 A3033 RMK T10501180 IEM_DS3505
ZBYN,1996-03-09 15:00,ZBYN 091500Z AUTO 34002KT 6SM M03/M16 A3030 RMK SLP313 T10341161 52001 IEM_DS3505
ZBYN,1996-03-09 16:00,ZBYN 091600Z AUTO 00000KT 7SM M06/M18 A3030 RMK T10601180 IEM_DS3505
ZBYN,1996-03-09 18:00,ZBYN 091800Z AUTO 11002KT 6SM M06/M17 A3027 RMK SLP298 T10651173 57010 IEM_DS3505
ZBYN,1996-03-09 19:00,ZBYN 091900Z AUTO 09004KT 6SM M08/M19 A3024 RMK T10801190 IEM_DS3505
ZBYN,1996-03-09 21:00,ZBYN 092100Z AUTO 18004KT 7SM M07/M18 A3021 RMK SLP284 T10701175 57013 IEM_DS3505
ZBYN,1996-03-09 22:00,ZBYN 092200Z AUTO 00000KT 7SM M09/M19 A3021 RMK T10901190 IEM_DS3505
ZBYN,1996-03-10 00:00,ZBYN 100000Z AUTO 00000KT 7SM M06/M15 A3018 RMK SLP279 T10601149 57011 IEM_DS3505
ZBYN,1996-03-10 01:00,ZBYN 100100Z AUTO 00000KT 4SM M03/M17 A3018 RMK T10301170 IEM_DS3505
ZBYN,1996-03-10 02:00,ZBYN 100200Z AUTO 28006KT 4SM 00/M19 A3018 RMK T00001190 IEM_DS3505
ZBYN,1996-03-10 03:00,ZBYN 100300Z AUTO 20006KT 6SM 03/M11 A3015 RMK SLP257 T00331114 57010 IEM_DS3505
ZBYN,1996-03-10 04:00,ZBYN 100400Z AUTO 29008KT 4SM 04/M18 A3012 RMK T00401180 IEM_DS3505
ZBYN,1996-03-10 05:00,ZBYN 100500Z AUTO 27004KT 6SM 06/M19 A3006 RMK T00601190 IEM_DS3505
ZBYN,1996-03-10 06:00,ZBYN 100600Z AUTO 22006KT 6SM 07/M21 A3006 RMK SLP223 T00691211 57030 IEM_DS3505
ZBYN,1996-03-10 07:00,ZBYN 100700Z AUTO 22004KT 6SM 08/M17 A3003 RMK T00801170 IEM_DS3505
ZBYN,1996-03-10 08:00,ZBYN 100800Z AUTO 21008KT 6SM 09/M17 A3000 RMK T00901170 IEM_DS3505
ZBYN,1996-03-10 09:00,ZBYN 100900Z AUTO 14006KT 7SM 09/M22 A3000 RMK SLP204 T00881219 57015 IEM_DS3505
ZBYN,1996-03-10 10:00,ZBYN 101000Z AUTO 24004KT 6SM 08/M14 A3000 RMK T00801140 IEM_DS3505
ZBYN,1996-03-10 11:00,ZBYN 101100Z AUTO 00000KT 6SM 05/M10 A3003 RMK T00501100 IEM_DS3505
ZBYN,1996-03-10 12:00,ZBYN 101200Z AUTO 00000KT 7SM 03/M14 A3006 RMK SLP227 T00321144 52013 IEM_DS3505
ZBYN,1996-03-10 13:00,ZBYN 101300Z AUTO 05008KT 7SM 04/M15 A3009 RMK T00401150 IEM_DS3505
ZBYN,1996-03-10 14:00,ZBYN 101400Z AUTO 34006KT 7SM 04/M24 A3012 RMK T00401240 IEM_DS3505
ZBYN,1996-03-10 15:00,ZBYN 101500Z AUTO 29004KT 7SM 01/M17 A3015 RMK SLP243 T00141168 52027 IEM_DS3505
ZBYN,1996-03-10 16:00,ZBYN 101600Z AUTO 34008KT 7SM 02/M20 A3015 RMK T00201200 IEM_DS3505
ZBYN,1996-03-10 18:00,ZBYN 101800Z AUTO 36006KT 7SM 01/M19 A3018 RMK SLP252 T00101192 52013 IEM_DS3505
ZBYN,1996-03-10 20:00,ZBYN 102000Z AUTO 10006KT 7SM M02/M17 A3021 RMK T10201170 IEM_DS3505
ZBYN,1996-03-10 21:00,ZBYN 102100Z AUTO 00000KT 6SM M02/M18 A3021 RMK SLP265 T10221178 52010 IEM_DS3505
ZBYN,1996-03-10 22:00,ZBYN 102200Z AUTO 06010KT 7SM M03/M17 A3024 RMK T10301170 IEM_DS3505
ZBYN,1996-03-11 00:00,ZBYN 110000Z AUTO 34006KT 5SM M03/M18 A3028 RMK SLP298 T10341176 52019 IEM_DS3505
ZBYN,1996-03-11 01:00,ZBYN 110100Z AUTO 07006KT 7SM 00/M19 A3027 RMK T00001190 IEM_DS3505
ZBYN,1996-03-11 02:00,ZBYN 110200Z AUTO 00000KT 7SM 01/M16 A3027 RMK T00101160 IEM_DS3505
ZBYN,1996-03-11 03:00,ZBYN 110300Z AUTO 34004KT 4SM 02/M17 A3024 RMK SLP284 T00171170 57007 IEM_DS3505
ZBYN,1996-03-11 04:00,ZBYN 110400Z AUTO 19002KT 6SM 03/M11 A3024 RMK T00301110 IEM_DS3505
ZBYN,1996-03-11 05:00,ZBYN 110500Z AUTO 20004KT 6SM 04/M11 A3021 RMK T00401110 IEM_DS3505
ZBYN,1996-03-11 06:00,ZBYN 110600Z AUTO 18010KT 5SM 05/M18 A3018 RMK SLP254 T00471182 57023 IEM_DS3505
ZBYN,1996-03-11 07:00,ZBYN 110700Z AUTO 22012KT 6SM 06/M11 A3015 RMK T00601110 IEM_DS3505
ZBYN,1996-03-11 08:00,ZBYN 110800Z AUTO 22012KT 6SM 06/M10 A3012 RMK T00601100 IEM_DS3505
ZBYN,1996-03-11 09:00,ZBYN 110900Z AUTO 16012KT 5SM 05/ A3012 RMK SLP239 57019 IEM_DS3505
ZBYN,1996-03-11 10:00,ZBYN 111000Z AUTO 22012KT 6SM 05/M10 A3012 RMK T00501100 IEM_DS3505
ZBYN,1996-03-11 12:00,ZBYN 111200Z AUTO 11004KT 6SM 02/M14 A3014 RMK SLP251 T00211137 52005 IEM_DS3505
ZBYN,1996-03-11 15:00,ZBYN 111500Z AUTO 14004KT 6SM 00/M14 RMK SLP250 T00041141 52004 IEM_DS3505
ZBYN,1996-03-11 21:00,ZBYN 112100Z AUTO 14002KT 6SM M04/M15 RMK SLP212 T10431150 57023 IEM_DS3505
ZBYN,1996-03-12 00:00,ZBYN 120000Z AUTO 00000KT 6SM M04/M12 A3003 RMK SLP214 T10391125 57002 IEM_DS3505
ZBYN,1996-03-12 01:00,ZBYN 120100Z AUTO 19004KT 7SM 01/M13 A3003 RMK T00101130 IEM_DS3505
ZBYN,1996-03-12 02:00,ZBYN 120200Z AUTO 21004KT 7SM 03/M13 A3003 RMK T00301130 IEM_DS3505
ZBYN,1996-03-12 03:00,ZBYN 120300Z AUTO 14006KT 5SM 06/M10 A2997 RMK SLP191 T00581103 57008 IEM_DS3505
ZBYN,1996-03-12 04:00,ZBYN 120400Z AUTO 24016KT 7SM 08/M16 A2994 RMK T00801160 IEM_DS3505
ZBYN,1996-03-12 05:00,ZBYN 120500Z AUTO 24021KT 7SM 10/M13 A2988 RMK T01001130 IEM_DS3505
ZBYN,1996-03-12 06:00,ZBYN 120600Z AUTO 20014KT 6SM 09/M13 A2987 RMK SLP139 T00911131 57043 IEM_DS3505
ZBYN,1996-03-12 07:00,ZBYN 120700Z AUTO 21019KT 6SM 11/M11 A2980 RMK T01101110 IEM_DS3505
ZBYN,1996-03-12 08:00,ZBYN 120800Z AUTO 21019KT 4SM 11/M12 A2977 RMK T01101120 IEM_DS3505
ZBYN,1996-03-12 09:00,ZBYN 120900Z AUTO 22014KT 6SM 11/M18 A2977 RMK SLP110 T01141184 57029 IEM_DS3505
ZBYN,1996-03-12 10:00,ZBYN 121000Z AUTO 26012KT 7SM 10/M20 A2977 RMK T01001200 IEM_DS3505
ZBYN,1996-03-12 11:00,ZBYN 121100Z AUTO 23010KT 7SM 08/M13 A2977 RMK T00801130 IEM_DS3505
ZBYN,1996-03-12 12:00,ZBYN 121200Z AUTO 16004KT 6SM 08/M14 A2977 RMK SLP119 T00771135 52003 IEM_DS3505
ZBYN,1996-03-12 13:00,ZBYN 121300Z AUTO 21010KT 6SM 07/M10 A2977 RMK T00701100 IEM_DS3505
ZBYN,1996-03-12 14:00,ZBYN 121400Z AUTO 22014KT 6SM 07/M09 A2977 RMK T00701090 IEM_DS3505
ZBYN,1996-03-12 15:00,ZBYN 121500Z AUTO 16008KT 6SM 06/M09 A2977 RMK SLP107 T00651093 52002 IEM_DS3505
ZBYN,1996-03-12 16:00,ZBYN 121600Z AUTO 24008KT 6SM 06/M06 A2977 RMK T00601060 IEM_DS3505
ZBYN,1996-03-12 17:00,ZBYN 121700Z AUTO 00000KT 6SM 05/M05 A2980 RMK T00501050 IEM_DS3505
ZBYN,1996-03-12 18:00,ZBYN 121800Z AUTO 27002KT 6SM 05/M08 A2980 RMK SLP110 T00461080 52005 IEM_DS3505
ZBYN,1996-03-12 19:00,ZBYN 121900Z AUTO 00000KT 7SM 03/M06 A2980 RMK T00301060 IEM_DS3505
ZBYN,1996-03-12 20:00,ZBYN 122000Z AUTO 00000KT 7SM 06/M19 A2983 RMK T00601190 IEM_DS3505
ZBYN,1996-03-12 21:00,ZBYN 122100Z AUTO 34004KT 6SM 03/M15 A2983 RMK SLP113 T00341151 52005 IEM_DS3505
ZBYN,1996-03-12 22:00,ZBYN 122200Z AUTO 00000KT 7SM 02/M10 A2985 RMK T00201100 IEM_DS3505
ZBYN,1996-03-12 23:00,ZBYN 122300Z AUTO 00000KT 3SM 00/M08 A2985 RMK T00001080 IEM_DS3505
ZBYN,1996-03-13 00:00,ZBYN 130000Z AUTO 34004KT 5SM 01/M14 A2988 RMK SLP146 T00101141 52020 IEM_DS3505
ZBYN,1996-03-13 01:00,ZBYN 130100Z AUTO 04004KT 5SM 05/M16 A2991 RMK T00501160 IEM_DS3505
ZBYN,1996-03-13 02:00,ZBYN 130200Z AUTO 03008KT 7SM 08/M16 A2991 RMK T00801160 IEM_DS3505
ZBYN,1996-03-13 03:00,ZBYN 130300Z AUTO 16008KT 4SM 09/M22 A2991 RMK SLP144 T00941225 52010 IEM_DS3505
ZBYN,1996-03-13 04:00,ZBYN 130400Z AUTO 22012KT 6SM 11/ RMK IEM_DS3505
ZBYN,1996-03-13 05:00,ZBYN 130500Z AUTO 00000KT 6SM 12/M16 A2988 RMK T01201160 IEM_DS3505
ZBYN,1996-03-13 06:00,ZBYN 130600Z AUTO 27008KT 4SM 12/ A2985 RMK SLP125 57016 IEM_DS3505
ZBYN,1996-03-13 07:00,ZBYN 130700Z AUTO 24006KT 6SM 14/M13 A2985 RMK T01401130 IEM_DS3505
ZBYN,1996-03-13 08:00,ZBYN 130800Z AUTO 27004KT 6SM 13/M13 A2985 RMK T01301130 IEM_DS3505
ZBYN,1996-03-13 09:00,ZBYN 130900Z AUTO 20008KT 4SM 13/M21 A2985 RMK SLP123 T01261207 57003 IEM_DS3505
ZBYN,1996-03-13 10:00,ZBYN 131000Z AUTO 26006KT 6SM 11/M11 A2985 RMK T01101110 IEM_DS3505
ZBYN,1996-03-13 11:00,ZBYN 131100Z AUTO 32006KT 6SM 10/M14 A2988 RMK T01001140 IEM_DS3505
ZBYN,1996-03-13 12:00,ZBYN 131200Z AUTO 29004KT 6SM 09/M18 A2991 RMK SLP162 T00931183 52026 IEM_DS3505
ZBYN,1996-03-13 13:00,ZBYN 131300Z AUTO 34004KT 6SM 08/M10 A2994 RMK T00801100 IEM_DS3505
ZBYN,1996-03-13 14:00,ZBYN 131400Z AUTO 00000KT 6SM 07/M09 A2997 RMK T00701090 IEM_DS3505
ZBYN,1996-03-13 15:00,ZBYN 131500Z AUTO 29004KT 6SM 05/M15 A2997 RMK SLP158 T00531146 52004 IEM_DS3505
ZBYN,1996-03-13 16:00,ZBYN 131600Z AUTO 09004KT 6SM 03/M07 A2997 RMK T00301070 IEM_DS3505
ZBYN,1996-03-13 17:00,ZBYN 131700Z AUTO 09004KT 6SM 03/M06 A2997 RMK T00301060 IEM_DS3505
ZBYN,1996-03-13 18:00,ZBYN 131800Z AUTO 34002KT 6SM 03/M13 A2994 RMK SLP163 T00301128 52005 IEM_DS3505
ZBYN,1996-03-13 20:00,ZBYN 132000Z AUTO 00000KT 7SM 02/M07 A2997 RMK T00201070 IEM_DS3505
ZBYN,1996-03-13 21:00,ZBYN 132100Z AUTO 14004KT 6SM 01/M14 A2997 RMK SLP166 T00141138 52001 IEM_DS3505
ZBYN,1996-03-13 22:00,ZBYN 132200Z AUTO 09004KT 6SM 00/M09 A2997 RMK T00001090 IEM_DS3505
ZBYN,1996-03-13 23:00,ZBYN 132300Z AUTO 11004KT 6SM 00/M09 A2997 RMK T00001090 IEM_DS3505
ZBYN,1996-03-14 00:00,ZBYN 140000Z AUTO 09004KT 5SM 01/M12 A3000 RMK SLP183 T00081121 52009 IEM_DS3505
ZBYN,1996-03-14 01:00,ZBYN 140100Z AUTO 18004KT 5SM 04/M04 A3000 RMK T00401040 IEM_DS3505
ZBYN,1996-03-14 02:00,ZBYN 140200Z AUTO 00000KT 5SM 06/M09 A3000 RMK T00601090 IEM_DS3505
ZBYN,1996-03-14 03:00,ZBYN 140300Z AUTO 11002KT 5SM 09/M14 A2997 RMK SLP174 T00921144 57001 IEM_DS3505
ZBYN,1996-03-14 04:00,ZBYN 140400Z AUTO 00000KT 5SM 11/M12 A2994 RMK T01101120 IEM_DS3505
ZBYN,1996-03-14 05:00,ZBYN 140500Z AUTO 28004KT 4SM 12/M13 A2991 RMK T01201130 IEM_DS3505
ZBYN,1996-03-14 06:00,ZBYN 140600Z AUTO 22006KT 6SM 12/ A2988 RMK SLP138 57032 IEM_DS3505
ZBYN,1996-03-14 07:00,ZBYN 140700Z AUTO 21006KT 6SM 12/M15 A2985 RMK T01201150 IEM_DS3505
ZBYN,1996-03-14 08:00,ZBYN 140800Z AUTO 20008KT 6SM 13/M14 A2983 RMK T01301140 IEM_DS3505
ZBYN,1996-03-14 09:00,ZBYN 140900Z AUTO 20008KT 6SM 12/ A2983 RMK SLP119 57020 IEM_DS3505
ZBYN,1996-03-14 10:00,ZBYN 141000Z AUTO 00000KT 6SM 12/M10 A2980 RMK T01201100 IEM_DS3505
ZBYN,1996-03-14 11:00,ZBYN 141100Z AUTO 00000KT 6SM 08/M12 A2980 RMK T00801120 IEM_DS3505
ZBYN,1996-03-14 12:00,ZBYN 141200Z AUTO 07008KT 6SM 06/ A2983 RMK SLP129 57001 IEM_DS3505
ZBYN,1996-03-14 13:00,ZBYN 141300Z AUTO 09014KT 6SM 06/M07 A2983 RMK T00601070 IEM_DS3505
ZBYN,1996-03-14 14:00,ZBYN 141400Z AUTO 09012KT 6SM 06/M07 A2983 RMK T00601070 IEM_DS3505
ZBYN,1996-03-14 15:00,ZBYN 141500Z AUTO 11002KT 6SM 04/ A2983 RMK SLP124 52006 IEM_DS3505
ZBYN,1996-03-14 16:00,ZBYN 141600Z AUTO 09014KT 7SM 04/M08 A2983 RMK T00401080 IEM_DS3505
ZBYN,1996-03-14 17:00,ZBYN 141700Z AUTO 09004KT 7SM 03/M09 A2983 RMK T00301090 IEM_DS3505
ZBYN,1996-03-14 18:00,ZBYN 141800Z AUTO 32004KT 6SM 00/M14 A2983 RMK SLP120 T00051137 57006 IEM_DS3505
ZBYN,1996-03-14 21:00,ZBYN 142100Z AUTO 32004KT 6SM M01/M16 A2977 RMK SLP107 T10101161 57014 IEM_DS3505
ZBYN,1996-03-14 22:00,ZBYN 142200Z AUTO 00000KT 7SM 00/M10 A2977 RMK T00001100 IEM_DS3505
ZBYN,1996-03-14 23:00,ZBYN 142300Z AUTO 00000KT 4SM M01/M14 A2977 RMK T10101140 IEM_DS3505
ZBYN,1996-03-15 00:00,ZBYN 150000Z AUTO 34004KT 6SM 01/M14 A2977 RMK SLP112 T00091142 57001 IEM_DS3505
ZBYN,1996-03-15 02:00,ZBYN 150200Z AUTO 13006KT 6SM 09/M04 A2974 RMK T00901040 IEM_DS3505
ZBYN,1996-03-15 03:00,ZBYN 150300Z AUTO 18006KT 4SM 08/ A2971 RMK SLP083 57019 IEM_DS3505
ZBYN,1996-03-15 04:00,ZBYN 150400Z AUTO 20006KT 6SM 12/M02 A2965 RMK T01201020 IEM_DS3505
ZBYN,1996-03-15 05:00,ZBYN 150500Z AUTO 16016KT 6SM 13/M04 A2959 RMK SLP003 T01311042 57026 IEM_DS3505
ZBYN,1996-03-15 06:00,ZBYN 150600Z AUTO 18010KT 6SM 12/M10 A2953 RMK SLP032 T01151102 57046 IEM_DS3505
ZBYN,1996-03-15 08:00,ZBYN 150800Z AUTO 18006KT 6SM 15/M02 A2947 RMK T01501020 IEM_DS3505
ZBYN,1996-03-15 09:00,ZBYN 150900Z AUTO 16016KT 6SM 13/M04 A2947 RMK SLP003 T01311042 57026 IEM_DS3505
ZBYN,1996-03-15 10:00,ZBYN 151000Z AUTO 16012KT 6SM 11/00 A2947 RMK T01100000 IEM_DS3505
ZBYN,1996-03-15 11:00,ZBYN 151100Z AUTO 14017KT 7SM 09/01 A2947 RMK T00900010 IEM_DS3505
ZBYN,1996-03-15 12:00,ZBYN 151200Z AUTO 11014KT 6SM 09/M01 A2950 RMK SLP014 T00891011 52006 IEM_DS3505
ZBYN,1996-03-15 13:00,ZBYN 151300Z AUTO 07016KT 7SM 07/M05 A2953 RMK T00701050 IEM_DS3505
ZBYN,1996-03-15 14:00,ZBYN 151400Z AUTO 09014KT 7SM 06/M04 A2953 RMK T00601040 IEM_DS3505
ZBYN,1996-03-15 15:00,ZBYN 151500Z AUTO 09012KT 6SM 07/M04 A2950 RMK SLP007 T00711038 52001 IEM_DS3505
ZBYN,1996-03-15 17:00,ZBYN 151700Z AUTO 06010KT 7SM 05/M01 A2953 RMK T00501010 IEM_DS3505
ZBYN,1996-03-15 18:00,ZBYN 151800Z AUTO 29004KT 6SM 06/M02 A2953 RMK SLP013 T00551024 52009 IEM_DS3505
ZBYN,1996-03-15 19:00,ZBYN 151900Z AUTO 00000KT 7SM 05/M01 A2950 RMK T00501010 IEM_DS3505
ZBYN,1996-03-15 20:00,ZBYN 152000Z AUTO 00000KT 7SM 04/M01 A2950 RMK T00401010 IEM_DS3505
ZBYN,1996-03-15 21:00,ZBYN 152100Z AUTO 32002KT 6SM 04/M03 A2950 RMK SLP005 T00381027 57007 IEM_DS3505
ZBYN,1996-03-15 22:00,ZBYN 152200Z AUTO 00000KT 7SM 03/M01 A2953 RMK T00301010 IEM_DS3505
ZBYN,1996-03-15 23:00,ZBYN 152300Z AUTO 00000KT 4SM 03/M01 A2956 RMK T00301010 IEM_DS3505
ZBYN,1996-03-16 00:00,ZBYN 160000Z AUTO 29014KT 6SM 07/M03 A2962 RMK SLP041 T00681032 52031 IEM_DS3505
ZBYN,1996-03-16 01:00,ZBYN 160100Z AUTO 31017KT 4SM 07/M06 A2962 RMK T00701060 IEM_DS3505
ZBYN,1996-03-16 02:00,ZBYN 160200Z AUTO 32019KT 4SM 07/M09 A2965 RMK T00701090 IEM_DS3505
ZBYN,1996-03-16 03:00,ZBYN 160300Z AUTO 29016KT 5SM 06/M13 A2971 RMK SLP070 T00601126 52022 IEM_DS3505
ZBYN,1996-03-16 04:00,ZBYN 160400Z AUTO 32025KT 2SM 06/M15 A2974 RMK T00601150 IEM_DS3505
ZBYN,1996-03-16 05:00,ZBYN 160500Z AUTO 32021KT 5SM 06/M16 A2977 RMK T00601160 IEM_DS3505
ZBYN,1996-03-16 06:00,ZBYN 160600Z AUTO 34010KT 5SM 06/M16 A2974 RMK SLP097 T00621156 52022 IEM_DS3505
ZBYN,1996-03-16 08:00,ZBYN 160800Z AUTO 33016KT 6SM 05/M20 A2980 RMK T00501200 IEM_DS3505
ZBYN,1996-03-16 09:00,ZBYN 160900Z AUTO 32008KT 5SM 05/M20 A2980 RMK SLP118 T00481204 52015 IEM_DS3505
ZBYN,1996-03-16 11:00,ZBYN 161100Z AUTO 31017KT 6SM 04/M19 A2985 RMK T00401190 IEM_DS3505
ZBYN,1996-03-16 12:00,ZBYN 161200Z AUTO 34010KT 6SM 02/M20 A2988 RMK SLP146 T00231202 52026 IEM_DS3505
ZBYN,1996-03-16 13:00,ZBYN 161300Z AUTO 24004KT 6SM 02/M11 A2994 RMK T00201110 IEM_DS3505
ZBYN,1996-03-16 14:00,ZBYN 161400Z AUTO 29006KT 7SM 02/M15 A2997 RMK T00201150 IEM_DS3505
ZBYN,1996-03-16 15:00,ZBYN 161500Z AUTO 29010KT 6SM 01/M18 A2997 RMK SLP182 T00061176 52029 IEM_DS3505
ZBYN,1996-03-16 16:00,ZBYN 161600Z AUTO 25014KT 7SM 02/M17 A3000 RMK T00201170 IEM_DS3505
ZBYN,1996-03-16 17:00,ZBYN 161700Z AUTO 28006KT 7SM 00/M14 A3000 RMK T00001140 IEM_DS3505
ZBYN,1996-03-16 18:00,ZBYN 161800Z AUTO 00000KT 6SM M01/M17 A3000 RMK SLP189 T10071170 52004 IEM_DS3505
ZBYN,1996-03-16 20:00,ZBYN 162000Z AUTO 19004KT 7SM M03/M13 A2997 RMK T10301130 IEM_DS3505
ZBYN,1996-03-16 21:00,ZBYN 162100Z AUTO 09004KT 6SM M04/M14 A2997 RMK SLP195 T10361137 57001 IEM_DS3505
ZBYN,1996-03-16 22:00,ZBYN 162200Z AUTO 11006KT 6SM M05/M15 A3000 RMK T10501150 IEM_DS3505
ZBYN,1996-03-16 23:00,ZBYN 162300Z AUTO 10006KT 6SM M05/M15 A3003 RMK T10501150 IEM_DS3505
ZBYN,1996-03-17 00:00,ZBYN 170000Z AUTO 11002KT 6SM M04/M13 A3006 RMK SLP224 T10421130 52021 IEM_DS3505
ZBYN,1996-03-17 01:00,ZBYN 170100Z AUTO 00000KT 2 1/2SM M01/M13 A3006 RMK T10101130 IEM_DS3505
ZBYN,1996-03-17 02:00,ZBYN 170200Z AUTO 00000KT 3SM 02/M14 A3009 RMK T00201140 IEM_DS3505
ZBYN,1996-03-17 03:00,ZBYN 170300Z AUTO 20004KT 5SM 04/M08 A3006 RMK SLP210 T00381082 57002 IEM_DS3505
ZBYN,1996-03-17 04:00,ZBYN 170400Z AUTO 23004KT 6SM 05/M16 A3000 RMK T00501160 IEM_DS3505
ZBYN,1996-03-17 06:00,ZBYN 170600Z AUTO 20012KT 6SM 05/M12 A2994 RMK SLP183 T00501120 57025 IEM_DS3505
ZBYN,1996-03-17 07:00,ZBYN 170700Z AUTO 23017KT 6SM 06/M16 A2994 RMK T00601160 IEM_DS3505
ZBYN,1996-03-17 08:00,ZBYN 170800Z AUTO 30014KT 6SM 07/M18 A2994 RMK T00701180 IEM_DS3505
ZBYN,1996-03-17 09:00,ZBYN 170900Z AUTO 32010KT 7SM 07/M15 A2994 RMK SLP177 T00671151 57007 IEM_DS3505
ZBYN,1996-03-17 10:00,ZBYN 171000Z AUTO 28010KT 6SM 06/M18 A2994 RMK T00601180 IEM_DS3505
ZBYN,1996-03-17 11:00,ZBYN 171100Z AUTO 30006KT 6SM 05/M16 A2997 RMK T00501160 IEM_DS3505
ZBYN,1996-03-17 12:00,ZBYN 171200Z AUTO 32006KT 7SM 04/M16 A2997 RMK SLP198 T00381165 52013 IEM_DS3505
ZBYN,1996-03-17 13:00,ZBYN 171300Z AUTO 31008KT 6SM 04/M13 A3000 RMK T00401130 IEM_DS3505
ZBYN,1996-03-17 14:00,ZBYN 171400Z AUTO 32010KT 6SM 04/M16 A3006 RMK T00401160 IEM_DS3505
ZBYN,1996-03-17 15:00,ZBYN 171500Z AUTO 29008KT 7SM 02/M18 A3006 RMK SLP215 T00221180 52026 IEM_DS3505
ZBYN,1996-03-17 18:00,ZBYN 171800Z AUTO 36004KT 7SM M00/M18 A3013 RMK SLP236 T10011180 52017 IEM_DS3505
ZBYN,1996-03-17 21:00,ZBYN 172100Z AUTO 36008KT 7SM M02/M21 RMK SLP240 T10201210 52003 IEM_DS3505
ZBYN,1996-03-17 23:00,ZBYN 172300Z AUTO 00000KT 7SM M06/ A3015 RMK IEM_DS3505
ZBYN,1996-03-18 00:00,ZBYN 180000Z AUTO 32006KT 6SM M03/M19 A3018 RMK SLP259 T10301191 52011 IEM_DS3505
ZBYN,1996-03-18 01:00,ZBYN 180100Z AUTO 00000KT 7SM 00/M25 A3018 RMK T00001250 IEM_DS3505
ZBYN,1996-03-18 04:00,ZBYN 180400Z AUTO 30004KT 7SM 05/M27 A3012 RMK T00501270 IEM_DS3505
ZBYN,1996-03-18 05:00,ZBYN 180500Z AUTO 21010KT 6SM 06/M27 A3009 RMK T00601270 IEM_DS3505
ZBYN,1996-03-18 06:00,ZBYN 180600Z AUTO 20008KT 6SM 07/M16 A3006 RMK SLP209 T00661155 57032 IEM_DS3505
ZBYN,1996-03-18 07:00,ZBYN 180700Z AUTO 18010KT 6SM 08/M19 A3003 RMK T00801190 IEM_DS3505
ZBYN,1996-03-18 08:00,ZBYN 180800Z AUTO 18010KT 6SM 08/M19 A3000 RMK T00801190 IEM_DS3505
ZBYN,1996-03-18 09:00,ZBYN 180900Z AUTO 14004KT 6SM 08/M19 RMK SLP188 T00771188 57020 IEM_DS3505
ZBYN,1996-03-18 10:00,ZBYN 181000Z AUTO 00000KT 7SM 08/M10 A2997 RMK T00801100 IEM_DS3505
ZBYN,1996-03-18 11:00,ZBYN 181100Z AUTO 00000KT 7SM 05/M10 A2997 RMK T00501100 IEM_DS3505
ZBYN,1996-03-18 12:00,ZBYN 181200Z AUTO 32004KT 6SM 02/M18 A3000 RMK SLP200 T00231175 54000 IEM_DS3505
ZBYN,1996-03-18 13:00,ZBYN 181300Z AUTO 00000KT 6SM 03/M09 A3000 RMK T00301090 IEM_DS3505
ZBYN,1996-03-18 14:00,ZBYN 181400Z AUTO 00000KT 7SM M01/M11 A3003 RMK T10101110 IEM_DS3505
ZBYN,1996-03-18 15:00,ZBYN 181500Z AUTO 32006KT 6SM M01/M18 A3003 RMK SLP206 T10061176 52012 IEM_DS3505
ZBYN,1996-03-18 16:00,ZBYN 181600Z AUTO 00000KT 7SM M01/M12 A3003 RMK T10101120 IEM_DS3505
ZBYN,1996-03-18 17:00,ZBYN 181700Z AUTO 00000KT 7SM M02/M12 A3003 RMK T10201120 IEM_DS3505
ZBYN,1996-03-18 18:00,ZBYN 181800Z AUTO 34004KT 6SM M02/M18 A3000 RMK SLP197 T10211183 57006 IEM_DS3505
ZBYN,1996-03-18 19:00,ZBYN 181900Z AUTO 00000KT 7SM M03/M11 A3000 RMK T10301110 IEM_DS3505
ZBYN,1996-03-18 20:00,ZBYN 182000Z AUTO 00000KT 7SM M03/M12 A3000 RMK T10301120 IEM_DS3505
ZBYN,1996-03-18 21:00,ZBYN 182100Z AUTO 34004KT 6SM M02/M17 A3000 RMK SLP189 T10241166 57006 IEM_DS3505
ZBYN,1996-03-18 22:00,ZBYN 182200Z AUTO 00000KT 7SM M05/M15 A3000 RMK T10501150 IEM_DS3505
ZBYN,1996-03-18 23:00,ZBYN 182300Z AUTO 00000KT 4SM M04/M14 A3003 RMK T10401140 IEM_DS3505
ZBYN,1996-03-19 00:00,ZBYN 190000Z AUTO 5SM M01/M18 A3003 RMK SLP211 T10131179 52013 IEM_DS3505
ZBYN,1996-03-19 01:00,ZBYN 190100Z AUTO 32004KT 1 1/2SM 01/M16 A3003 RMK T00101160 IEM_DS3505
ZBYN,1996-03-19 02:00,ZBYN 190200Z AUTO 32004KT 5SM 03/M16 A3003 RMK T00301160 IEM_DS3505
ZBYN,1996-03-19 03:00,ZBYN 190300Z AUTO 32004KT 5SM 04/M16 A3003 RMK SLP204 T00401160 57002 IEM_DS3505
ZBYN,1996-03-19 04:00,ZBYN 190400Z AUTO 00000KT 5SM 05/M12 A3000 RMK T00501120 IEM_DS3505
ZBYN,1996-03-19 05:00,ZBYN 190500Z AUTO 24004KT 6SM 07/M12 A2994 RMK T00701120 IEM_DS3505
ZBYN,1996-03-19 06:00,ZBYN 190600Z AUTO 20008KT 5SM 07/M12 A2994 RMK SLP170 T00721117 57029 IEM_DS3505
ZBYN,1996-03-19 07:00,ZBYN 190700Z AUTO 22004KT 5SM 08/M10 A2991 RMK T00801100 IEM_DS3505
ZBYN,1996-03-19 08:00,ZBYN 190800Z AUTO 21010KT 5SM 09/M08 A2988 RMK T00901080 IEM_DS3505
ZBYN,1996-03-19 09:00,ZBYN 190900Z AUTO 18010KT 5SM 08/M12 A2988 RMK SLP151 T00781120 57016 IEM_DS3505
ZBYN,1996-03-19 10:00,ZBYN 191000Z AUTO 19004KT 4SM 07/M08 A2988 RMK T00701080 IEM_DS3505
ZBYN,1996-03-19 11:00,ZBYN 191100Z AUTO 17008KT 4SM 05/M07 A2991 RMK T00501070 IEM_DS3505
ZBYN,1996-03-19 12:00,ZBYN 191200Z AUTO 16010KT 6SM 04/M09 A2991 RMK SLP168 T00431091 52011 IEM_DS3505
ZBYN,1996-03-19 13:00,ZBYN 191300Z AUTO 14006KT 4SM 03/M06 A2994 RMK T00301060 IEM_DS3505
ZBYN,1996-03-19 15:00,ZBYN 191500Z AUTO 11010KT 6SM 02/M06 A2997 RMK SLP175 T00221064 52012 IEM_DS3505
ZBYN,1996-03-19 16:00,ZBYN 191600Z AUTO 14008KT 4SM 01/M05 A2997 RMK T00101050 IEM_DS3505
ZBYN,1996-03-19 17:00,ZBYN 191700Z AUTO 16006KT 6SM 00/M05 A2997 RMK T00001050 IEM_DS3505
ZBYN,1996-03-19 18:00,ZBYN 191800Z AUTO 11008KT 6SM 00/M06 A2997 RMK SLP179 T00051064 52006 IEM_DS3505
ZBYN,1996-03-19 19:00,ZBYN 191900Z AUTO 17006KT 7SM 00/M05 A2997 RMK T00001050 IEM_DS3505
ZBYN,1996-03-19 20:00,ZBYN 192000Z AUTO 11006KT 7SM M01/M05 A2994 RMK T10101050 IEM_DS3505
ZBYN,1996-03-19 21:00,ZBYN 192100Z AUTO 14008KT 6SM 00/M06 A2994 RMK SLP170 T00021061 57008 IEM_DS3505
ZBYN,1996-03-19 22:00,ZBYN 192200Z AUTO 11004KT 4SM M02/M04 A2994 RMK T10201040 IEM_DS3505
ZBYN,1996-03-19 23:00,ZBYN 192300Z AUTO 10004KT 4SM M01/M04 A2994 RMK T10101040 IEM_DS3505
ZBYN,1996-03-20 00:00,ZBYN 200000Z AUTO 11004KT 4SM 00/M05 A2994 RMK SLP181 T00041053 52005 IEM_DS3505
ZBYN,1996-03-20 01:00,ZBYN 200100Z AUTO 16002KT 5SM 03/M05 A2997 RMK T00301050 IEM_DS3505
ZBYN,1996-03-20 02:00,ZBYN 200200Z AUTO 00000KT 6SM 04/M04 A2997 RMK T00401040 IEM_DS3505
ZBYN,1996-03-20 03:00,ZBYN 200300Z AUTO 11006KT 5SM 05/M05 A2997 RMK SLP182 T00501046 52005 IEM_DS3505
ZBYN,1996-03-20 04:00,ZBYN 200400Z AUTO 12002KT 6SM 07/M03 A2994 RMK T00701030 IEM_DS3505
ZBYN,1996-03-20 05:00,ZBYN 200500Z AUTO 00000KT 6SM 09/M02 A2991 RMK T00901020 IEM_DS3505
ZBYN,1996-03-20 06:00,ZBYN 200600Z AUTO 11004KT 6SM 09/M02 A2989 RMK SLP145 T00921024 57030 IEM_DS3505
ZBYN,1996-03-20 07:00,ZBYN 200700Z AUTO 34006KT 6SM 11/M03 A2985 RMK T01101030 IEM_DS3505
ZBYN,1996-03-20 08:00,ZBYN 200800Z AUTO 00000KT 6SM 11/M02 A2983 RMK T01101020 IEM_DS3505
ZBYN,1996-03-20 09:00,ZBYN 200900Z AUTO 11004KT 9SM 11/M02 A2983 RMK SLP129 T01071025 57013 IEM_DS3505
ZBYN,1996-03-20 10:00,ZBYN 201000Z AUTO 07010KT 6SM 11/M01 A2985 RMK T01101010 IEM_DS3505
ZBYN,1996-03-20 11:00,ZBYN 201100Z AUTO 09012KT 6SM 09/M02 A2985 RMK T00901020 IEM_DS3505
ZBYN,1996-03-20 12:00,ZBYN 201200Z AUTO 07012KT 9SM 08/M05 A2988 RMK SLP143 T00831050 52010 IEM_DS3505
ZBYN,1996-03-20 13:00,ZBYN 201300Z AUTO 09016KT 6SM 07/00 A2991 RMK T00700000 IEM_DS3505
ZBYN,1996-03-20 14:00,ZBYN 201400Z AUTO 09016KT 6SM 06/M01 A2994 RMK T00601010 IEM_DS3505
ZBYN,1996-03-20 15:00,ZBYN 201500Z AUTO 04006KT 7SM 07/M04 A2994 RMK SLP164 T00731036 52024 IEM_DS3505
ZBYN,1996-03-20 16:00,ZBYN 201600Z AUTO 07004KT 6SM 06/M01 A2997 RMK T00601010 IEM_DS3505
ZBYN,1996-03-20 17:00,ZBYN 201700Z AUTO 11002KT 6SM 06/M01 A2997 RMK T00601010 IEM_DS3505
ZBYN,1996-03-20 18:00,ZBYN 201800Z AUTO 34004KT 5SM 05/M00 A2997 RMK SLP167 T00501003 52006 IEM_DS3505
ZBYN,1996-03-20 19:00,ZBYN 201900Z AUTO 09010KT 6SM 05/00 A2997 RMK T00500000 IEM_DS3505
ZBYN,1996-03-20 20:00,ZBYN 202000Z AUTO 07008KT 6SM 04/00 A2997 RMK T00400000 IEM_DS3505
ZBYN,1996-03-20 21:00,ZBYN 202100Z AUTO 34004KT 5SM 03/01 A2997 RMK SLP168 T00340012 52001 IEM_DS3505
ZBYN,1996-03-20 22:00,ZBYN 202200Z AUTO 09004KT 6SM 04/00 A2997 RMK T00400000 IEM_DS3505
ZBYN,1996-03-20 23:00,ZBYN 202300Z AUTO 09010KT 6SM 04/00 A3000 RMK T00400000 IEM_DS3505
ZBYN,1996-03-21 00:00,ZBYN 210000Z AUTO 32004KT 5SM 04/M01 A3003 RMK 60000 70001 SLP187 T00381009 52014 IEM_DS3505
ZBYN,1996-03-21 01:00,ZBYN 210100Z AUTO 08006KT 7SM 03/M01 A3006 RMK T00301010 IEM_DS3505
ZBYN,1996-03-21 02:00,ZBYN 210200Z AUTO 09012KT 7SM 05/M01 A3006 RMK T00501010 IEM_DS3505
ZBYN,1996-03-21 03:00,ZBYN 210300Z AUTO 02004KT 5SM 05/M00 A3006 RMK SLP204 T00501003 52016 IEM_DS3505
ZBYN,1996-03-21 04:00,ZBYN 210400Z AUTO 09012KT 7SM 06/00 A3006 RMK T00600000 IEM_DS3505
ZBYN,1996-03-21 05:00,ZBYN 210500Z AUTO 08008KT 6SM 07/00 A3003 RMK T00700000 IEM_DS3505
ZBYN,1996-03-21 06:00,ZBYN 210600Z AUTO 07008KT 6SM 07/M04 A3003 RMK SLP196 T00661044 57009 IEM_DS3505
ZBYN,1996-03-21 07:00,ZBYN 210700Z AUTO 12010KT 6SM 07/00 A3003 RMK T00700000 IEM_DS3505
ZBYN,1996-03-21 08:00,ZBYN 210800Z AUTO 06012KT 6SM 07/00 A3003 RMK T00700000 IEM_DS3505
ZBYN,1996-03-21 09:00,ZBYN 210900Z AUTO 09010KT 5SM 06/M03 A3003 RMK SLP203 T00651027 52004 IEM_DS3505
ZBYN,1996-03-21 10:00,ZBYN 211000Z AUTO 10017KT 6SM 06/M01 A3003 RMK T00601010 IEM_DS3505
ZBYN,1996-03-21 11:00,ZBYN 211100Z AUTO 08012KT 7SM 05/00 A3006 RMK T00500000 IEM_DS3505
ZBYN,1996-03-21 12:00,ZBYN 211200Z AUTO 09010KT 6SM 04/M02 A3009 RMK SLP218 T00451022 52011 IEM_DS3505
ZBYN,1996-03-21 13:00,ZBYN 211300Z AUTO 06014KT 4SM 04/M01 A3012 RMK T00401010 IEM_DS3505
ZBYN,1996-03-21 14:00,ZBYN 211400Z AUTO 09010KT 4SM 04/M02 A3015 RMK T00401020 IEM_DS3505
ZBYN,1996-03-21 15:00,ZBYN 211500Z AUTO 07008KT 6SM 04/M03 A3015 RMK SLP234 T00401028 52016 IEM_DS3505
ZBYN,1996-03-21 16:00,ZBYN 211600Z AUTO 08010KT 4SM 03/M01 A3015 RMK T00301010 IEM_DS3505
ZBYN,1996-03-21 17:00,ZBYN 211700Z AUTO 06006KT 4SM 03/00 A3018 RMK T00300000 IEM_DS3505
ZBYN,1996-03-21 18:00,ZBYN 211800Z AUTO 04004KT 6SM 04/M02 A3018 RMK SLP251 T00351016 52017 IEM_DS3505
ZBYN,1996-03-21 19:00,ZBYN 211900Z AUTO 06016KT 4SM 03/M01 A3018 RMK T00301010 IEM_DS3505
ZBYN,1996-03-21 20:00,ZBYN 212000Z AUTO 06010KT 4SM 02/M01 A3015 RMK T00201010 IEM_DS3505
ZBYN,1996-03-21 21:00,ZBYN 212100Z AUTO 32002KT 6SM 03/M01 A3015 RMK SLP239 T00271013 57012 IEM_DS3505
ZBYN,1996-03-21 22:00,ZBYN 212200Z AUTO 09014KT 5SM 01/M02 A3015 RMK T00101020 IEM_DS3505
ZBYN,1996-03-21 23:00,ZBYN 212300Z AUTO 09014KT 4SM 01/M02 A3018 RMK T00101020 IEM_DS3505
ZBYN,1996-03-22 00:00,ZBYN 220000Z AUTO 02004KT 6SM 03/M02 A3022 RMK SLP262 T00261024 52017 IEM_DS3505
ZBYN,1996-03-22 01:00,ZBYN 220100Z AUTO 09025KT 3SM 01/M02 A3024 RMK T00101020 IEM_DS3505
ZBYN,1996-03-22 02:00,ZBYN 220200Z AUTO 09019KT 3SM 01/M02 A3027 RMK T00101020 IEM_DS3505
ZBYN,1996-03-22 03:00,ZBYN 220300Z AUTO 09006KT 5SM 01/M02 A3027 RMK SLP285 T00121025 52018 IEM_DS3505
ZBYN,1996-03-22 04:00,ZBYN 220400Z AUTO 09023KT 4SM 01/M03 A3024 RMK T00101030 IEM_DS3505
ZBYN,1996-03-22 05:00,ZBYN 220500Z AUTO 07021KT 5SM 01/M03 A3024 RMK T00101030 IEM_DS3505
ZBYN,1996-03-22 06:00,ZBYN 220600Z AUTO 04006KT 5SM 01/M04 A3021 RMK 60001 SLP275 T00101045 57010 IEM_DS3505
ZBYN,1996-03-22 07:00,ZBYN 220700Z AUTO 10012KT 3SM 01/M04 A3021 RMK T00101040 IEM_DS3505
ZBYN,1996-03-22 08:00,ZBYN 220800Z AUTO 08016KT 2 1/2SM 00/M03 A3021 RMK T00001030 IEM_DS3505
ZBYN,1996-03-22 09:00,ZBYN 220900Z AUTO 00000KT 4SM M01/M02 A3021 RMK SLP281 T10071023 52001 IEM_DS3505
ZBYN,1996-03-22 10:00,ZBYN 221000Z AUTO 09010KT 4SM M01/M05 A3024 RMK T10101050 IEM_DS3505
ZBYN,1996-03-22 12:00,ZBYN 221200Z AUTO 32004KT 4SM M02/M03 A3029 RMK 60012 SLP298 T10171029 52014 IEM_DS3505
ZBYN,1996-03-22 13:00,ZBYN 221300Z AUTO 11012KT 2 1/2SM M03/M05 A3033 RMK T10301050 IEM_DS3505
ZBYN,1996-03-22 14:00,ZBYN 221400Z AUTO 09014KT 2 1/2SM M03/M04 A3036 RMK T10301040 IEM_DS3505
ZBYN,1996-03-22 15:00,ZBYN 221500Z AUTO 16002KT 2 1/2SM M03/M03 A3036 RMK SLP330 T10261033 52025 IEM_DS3505
ZBYN,1996-03-22 16:00,ZBYN 221600Z AUTO 09012KT 4SM M03/M05 A3036 RMK T10301050 IEM_DS3505
ZBYN,1996-03-22 17:00,ZBYN 221700Z AUTO 07017KT 4SM M03/M06 A3036 RMK T10301060 IEM_DS3505
ZBYN,1996-03-22 18:00,ZBYN 221800Z AUTO 34004KT 2 1/2SM M03/M04 A3036 RMK 60016 SLP332 T10281038 52001 IEM_DS3505
ZBYN,1996-03-22 19:00,ZBYN 221900Z AUTO 06010KT 4SM M03/M07 A3036 RMK T10301070 IEM_DS3505
ZBYN,1996-03-22 20:00,ZBYN 222000Z AUTO 09010KT 4SM M03/M07 A3036 RMK T10301070 IEM_DS3505
ZBYN,1996-03-22 21:00,ZBYN 222100Z AUTO 34002KT 4SM M03/M05 A3033 RMK 70028 SLP326 T10341049 57009 IEM_DS3505
ZBYN,1996-03-22 22:00,ZBYN 222200Z AUTO 08012KT 7SM M03/M07 A3036 RMK T10301070 IEM_DS3505
ZBYN,1996-03-22 23:00,ZBYN 222300Z AUTO 06008KT 7SM M03/M07 A3039 RMK T10301070 IEM_DS3505
ZBYN,1996-03-23 00:00,ZBYN 230000Z AUTO 20004KT 4SM M03/M05 A3039 RMK 60002 70028 SLP347 T10301051 52018 IEM_DS3505
ZBYN,1996-03-23 01:00,ZBYN 230100Z AUTO 06008KT 7SM M02/M06 A3039 RMK T10201060 IEM_DS3505
ZBYN,1996-03-23 02:00,ZBYN 230200Z AUTO 07010KT 7SM M01/M06 A3039 RMK T10101060 IEM_DS3505
ZBYN,1996-03-23 03:00,ZBYN 230300Z AUTO 34004KT 4SM M02/M03 A3042 RMK SLP354 T10221034 52006 IEM_DS3505
ZBYN,1996-03-23 04:00,ZBYN 230400Z AUTO 35004KT 2SM M01/M04 A3039 RMK T10101040 IEM_DS3505
ZBYN,1996-03-23 05:00,ZBYN 230500Z AUTO 00000KT 5SM 00/M06 A3036 RMK T00001060 IEM_DS3505
ZBYN,1996-03-23 06:00,ZBYN 230600Z AUTO 29004KT 5SM M00/M05 A3036 RMK 60002 SLP331 T10051048 57018 IEM_DS3505
ZBYN,1996-03-23 08:00,ZBYN 230800Z AUTO 33004KT 2 1/2SM 00/M03 RMK T00001030 IEM_DS3505
ZBYN,1996-03-23 09:00,ZBYN 230900Z AUTO 32004KT 4SM M02/M02 RMK SLP315 T10171025 57018 IEM_DS3505
ZBYN,1996-03-23 10:00,ZBYN 231000Z AUTO 00000KT 1 1/4SM M01/M02 RMK T10101020 IEM_DS3505
ZBYN,1996-03-23 11:00,ZBYN 231100Z AUTO 00000KT 1 1/4SM M01/M02 RMK T10101020 IEM_DS3505
ZBYN,1996-03-23 12:00,ZBYN 231200Z AUTO 18004KT 3SM M02/M03 A3033 RMK 60004 SLP322 T10181027 52007 IEM_DS3505
ZBYN,1996-03-23 13:00,ZBYN 231300Z AUTO 00000KT 1 1/4SM M01/M02 RMK T10101020 IEM_DS3505
ZBYN,1996-03-23 14:00,ZBYN 231400Z AUTO 00000KT 1 1/4SM M01/M02 RMK T10101020 IEM_DS3505
ZBYN,1996-03-23 15:00,ZBYN 231500Z AUTO 16004KT 2 1/2SM M02/M03 RMK SLP324 T10181027 52003 IEM_DS3505
ZBYN,1996-03-23 16:00,ZBYN 231600Z AUTO 11002KT 1 1/4SM M02/M02 RMK T10201020 IEM_DS3505
ZBYN,1996-03-23 17:00,ZBYN 231700Z AUTO 00000KT 1 1/4SM M02/M02 RMK T10201020 IEM_DS3505
ZBYN,1996-03-23 18:00,ZBYN 231800Z AUTO 11004KT 3SM M02/M02 A3027 RMK 60002 SLP300 T10221025 57019 IEM_DS3505
ZBYN,1996-03-23 21:00,ZBYN 232100Z AUTO 00000KT 3SM M02/M03 A3021 RMK 70008 SLP289 T10221028 57012 IEM_DS3505
ZBYN,1996-03-23 23:00,ZBYN 232300Z AUTO 00000KT 1/2SM M02/M03 A3024 RMK T10201030 IEM_DS3505
ZBYN,1996-03-24 00:00,ZBYN 240000Z AUTO 20004KT 3SM M02/M03 A3027 RMK 70008 SLP295 T10201026 52005 IEM_DS3505
ZBYN,1996-03-24 01:00,ZBYN 240100Z AUTO 00000KT 1/2SM M01/M02 A3027 RMK T10101020 IEM_DS3505
ZBYN,1996-03-24 02:00,ZBYN 240200Z AUTO 00000KT 1SM 00/M02 A3024 RMK T00001020 IEM_DS3505
ZBYN,1996-03-24 03:00,ZBYN 240300Z AUTO 16004KT 2 1/2SM 00/M02 A3024 RMK SLP286 T00051024 57004 IEM_DS3505
ZBYN,1996-03-24 04:00,ZBYN 240400Z AUTO 00000KT 4SM 02/M02 A3021 RMK T00201020 IEM_DS3505
ZBYN,1996-03-24 05:00,ZBYN 240500Z AUTO 23006KT 1SM 03/M01 A3018 RMK T00301010 IEM_DS3505
ZBYN,1996-03-24 06:00,ZBYN 240600Z AUTO 22006KT 2SM 03/M02 A3018 RMK SLP262 T00341020 57017 IEM_DS3505
ZBYN,1996-03-24 07:00,ZBYN 240700Z AUTO 00000KT 1 1/4SM 06/M02 A3015 RMK T00601020 IEM_DS3505
ZBYN,1996-03-24 08:00,ZBYN 240800Z AUTO 24006KT 1 1/4SM 06/M02 A3012 RMK T00601020 IEM_DS3505
ZBYN,1996-03-24 09:00,ZBYN 240900Z AUTO 27006KT 3SM 06/M02 A3012 RMK SLP242 T00581017 57015 IEM_DS3505
ZBYN,1996-03-24 10:00,ZBYN 241000Z AUTO 27006KT 1 1/2SM 06/M03 A3012 RMK T00601030 IEM_DS3505
ZBYN,1996-03-24 11:00,ZBYN 241100Z AUTO 00000KT 1 1/2SM 09/ RMK IEM_DS3505
ZBYN,1996-03-24 12:00,ZBYN 241200Z AUTO 34002KT 4SM 03/M01 A3015 RMK SLP251 T00281009 52004 IEM_DS3505
ZBYN,1996-03-24 14:00,ZBYN 241400Z AUTO 00000KT 1 1/2SM 00/M01 A3018 RMK T00001010 IEM_DS3505
ZBYN,1996-03-24 15:00,ZBYN 241500Z AUTO 34004KT 5SM 01/M05 A3018 RMK SLP259 T00081046 52008 IEM_DS3505
ZBYN,1996-03-24 16:00,ZBYN 241600Z AUTO 00000KT 2SM M02/M02 A3018 RMK T10201020 IEM_DS3505
ZBYN,1996-03-24 17:00,ZBYN 241700Z AUTO 00000KT 5SM M02/M03 A3018 RMK T10201030 IEM_DS3505
ZBYN,1996-03-24 19:00,ZBYN 241900Z AUTO 00000KT 5SM M03/M04 A3018 RMK T10301040 IEM_DS3505
ZBYN,1996-03-24 20:00,ZBYN 242000Z AUTO 00000KT 5SM M04/M05 A3018 RMK T10401050 IEM_DS3505
ZBYN,1996-03-24 21:00,ZBYN 242100Z AUTO 00000KT 4SM M03/M04 RMK SLP263 T10301039 52002 IEM_DS3505
ZBYN,1996-03-24 23:00,ZBYN 242300Z AUTO 00000KT 3SM M05/M06 A3018 RMK T10501060 IEM_DS3505
ZBYN,1996-03-25 00:00,ZBYN 250000Z AUTO 09002KT 4SM M02/M04 A3021 RMK SLP271 T10171045 52005 IEM_DS3505
ZBYN,1996-03-25 01:00,ZBYN 250100Z AUTO 14004KT 2 1/2SM 00/M02 A3021 RMK T00001020 IEM_DS3505
ZBYN,1996-03-25 02:00,ZBYN 250200Z AUTO 00000KT 2SM 02/M03 A3021 RMK T00201030 IEM_DS3505
ZBYN,1996-03-25 03:00,ZBYN 250300Z AUTO 14004KT 4SM 03/M04 A3018 RMK SLP260 T00311044 57006 IEM_DS3505
ZBYN,1996-03-25 04:00,ZBYN 250400Z AUTO 06002KT 1 1/2SM 06/M01 A3015 RMK T00601010 IEM_DS3505
ZBYN,1996-03-25 05:00,ZBYN 250500Z AUTO 17002KT 2 1/2SM 07/M02 A3012 RMK T00701020 IEM_DS3505
ZBYN,1996-03-25 06:00,ZBYN 250600Z AUTO 14006KT 5SM 10/M02 A3009 RMK SLP222 T00971021 57027 IEM_DS3505
ZBYN,1996-03-25 07:00,ZBYN 250700Z AUTO 21004KT 6SM 11/M09 A3006 RMK T01101090 IEM_DS3505
ZBYN,1996-03-25 08:00,ZBYN 250800Z AUTO 22006KT 6SM 11/M05 A3003 RMK T01101050 IEM_DS3505
ZBYN,1996-03-25 09:00,ZBYN 250900Z AUTO 32008KT 6SM 10/M04 RMK SLP203 T01001045 57020 IEM_DS3505
ZBYN,1996-03-25 10:00,ZBYN 251000Z AUTO 25004KT 4SM 11/M04 A3003 RMK T01101040 IEM_DS3505
ZBYN,1996-03-25 11:00,ZBYN 251100Z AUTO 00000KT 4SM 09/01 A3006 RMK T00900010 IEM_DS3505
ZBYN,1996-03-25 12:00,ZBYN 251200Z AUTO 00000KT 6SM 07/00 A3007 RMK SLP213 T00720001 52007 IEM_DS3505
ZBYN,1996-03-25 13:00,ZBYN 251300Z AUTO 00000KT 3SM 06/01 A3006 RMK T00600010 IEM_DS3505
ZBYN,1996-03-25 14:00,ZBYN 251400Z AUTO 15004KT 4SM 05/01 A3009 RMK T00500010 IEM_DS3505
ZBYN,1996-03-25 15:00,ZBYN 251500Z AUTO 00000KT 5SM 03/M01 A3009 RMK SLP219 T00311014 52007 IEM_DS3505
ZBYN,1996-03-25 16:00,ZBYN 251600Z AUTO 11004KT 7SM 01/M01 A3009 RMK T00101010 IEM_DS3505
ZBYN,1996-03-25 17:00,ZBYN 251700Z AUTO 11004KT 7SM 00/M02 A3009 RMK T00001020 IEM_DS3505
ZBYN,1996-03-25 18:00,ZBYN 251800Z AUTO 00000KT 5SM 02/M02 A3009 RMK SLP214 T00151021 52003 IEM_DS3505
ZBYN,1996-03-25 21:00,ZBYN 252100Z AUTO 32004KT 5SM 00/M02 A3012 RMK SLP217 T00001017 52001 IEM_DS3505
ZBYN,1996-03-25 22:00,ZBYN 252200Z AUTO 35006KT 3SM M01/M04 A3012 RMK T10101040 IEM_DS3505
ZBYN,1996-03-25 23:00,ZBYN 252300Z AUTO 00000KT 1SM M01/M02 A3015 RMK T10101020 IEM_DS3505
ZBYN,1996-03-26 00:00,ZBYN 260000Z AUTO 34004KT 5SM 01/M02 A3015 RMK SLP237 T00111023 52015 IEM_DS3505
ZBYN,1996-03-26 02:00,ZBYN 260200Z AUTO 00000KT 5SM 06/M01 A3021 RMK T00601010 IEM_DS3505
ZBYN,1996-03-26 03:00,ZBYN 260300Z AUTO 18004KT 5SM 09/M02 A3018 RMK SLP242 T00891016 52011 IEM_DS3505
ZBYN,1996-03-26 04:00,ZBYN 260400Z AUTO 22004KT 5SM 11/M01 A3015 RMK T01101010 IEM_DS3505
ZBYN,1996-03-26 06:00,ZBYN 260600Z AUTO 14004KT 5SM 13/M03 A3012 RMK SLP223 T01321027 57013 IEM_DS3505
ZBYN,1996-03-26 07:00,ZBYN 260700Z AUTO 22006KT 6SM 14/M01 A3012 RMK T01401010 IEM_DS3505
ZBYN,1996-03-26 08:00,ZBYN 260800Z AUTO 28004KT 6SM 15/M04 A3012 RMK T01501040 IEM_DS3505
ZBYN,1996-03-26 09:00,ZBYN 260900Z AUTO 11004KT 6SM 14/M03 A3012 RMK SLP221 T01361031 57004 IEM_DS3505
ZBYN,1996-03-26 10:00,ZBYN 261000Z AUTO 00000KT 6SM 14/M01 A3012 RMK T01401010 IEM_DS3505
ZBYN,1996-03-26 11:00,ZBYN 261100Z AUTO 00000KT 6SM 11/03 A3012 RMK T01100030 IEM_DS3505
ZBYN,1996-03-26 12:00,ZBYN 261200Z AUTO 32004KT 6SM 08/00 A3015 RMK SLP235 T00830004 52006 IEM_DS3505
ZBYN,1996-03-26 13:00,ZBYN 261300Z AUTO 09008KT 6SM 09/03 A3021 RMK T00900030 IEM_DS3505
ZBYN,1996-03-26 14:00,ZBYN 261400Z AUTO 04004KT 6SM 09/03 A3024 RMK T00900030 IEM_DS3505
ZBYN,1996-03-26 15:00,ZBYN 261500Z AUTO 32004KT 6SM 06/01 A3024 RMK SLP256 T00610010 52028 IEM_DS3505
ZBYN,1996-03-26 16:00,ZBYN 261600Z AUTO 08014KT 6SM 07/04 A3024 RMK T00700040 IEM_DS3505
ZBYN,1996-03-26 17:00,ZBYN 261700Z AUTO 06008KT 6SM 07/04 A3024 RMK T00700040 IEM_DS3505
ZBYN,1996-03-26 18:00,ZBYN 261800Z AUTO 32002KT 6SM 04/M00 A3027 RMK SLP259 T00361003 52006 IEM_DS3505
ZBYN,1996-03-26 19:00,ZBYN 261900Z AUTO 09016KT 6SM 06/03 A3027 RMK T00600030 IEM_DS3505
ZBYN,1996-03-26 20:00,ZBYN 262000Z AUTO 07014KT 6SM 06/04 A3027 RMK T00600040 IEM_DS3505
ZBYN,1996-03-26 21:00,ZBYN 262100Z AUTO 36002KT 6SM 05/M01 A3027 RMK SLP264 T00501006 52007 IEM_DS3505
ZBYN,1996-03-26 22:00,ZBYN 262200Z AUTO 08014KT 5SM 05/03 A3027 RMK T00500030 IEM_DS3505
ZBYN,1996-03-26 23:00,ZBYN 262300Z AUTO 09012KT 5SM 05/00 A3030 RMK T00500000 IEM_DS3505
ZBYN,1996-03-27 00:00,ZBYN 270000Z AUTO 00000KT 4SM 04/00 A3033 RMK SLP294 T00430000 52018 IEM_DS3505
ZBYN,1996-03-27 01:00,ZBYN 270100Z AUTO 09012KT 6SM 05/M03 A3033 RMK T00501030 IEM_DS3505
ZBYN,1996-03-27 02:00,ZBYN 270200Z AUTO 09012KT 6SM 06/M03 A3033 RMK T00601030 IEM_DS3505
ZBYN,1996-03-27 03:00,ZBYN 270300Z AUTO 09006KT 6SM 08/M03 A3036 RMK SLP298 T00751027 52005 IEM_DS3505
ZBYN,1996-03-27 04:00,ZBYN 270400Z AUTO 07014KT 6SM 09/M02 A3033 RMK T00901020 IEM_DS3505
ZBYN,1996-03-27 05:00,ZBYN 270500Z AUTO 06012KT 6SM 11/M02 A3030 RMK T01101020 IEM_DS3505
ZBYN,1996-03-27 06:00,ZBYN 270600Z AUTO 32004KT 6SM 10/M02 A3024 RMK SLP265 T01011018 57030 IEM_DS3505
ZBYN,1996-03-27 07:00,ZBYN 270700Z AUTO 10006KT 6SM 12/01 A3024 RMK T01200010 IEM_DS3505
ZBYN,1996-03-27 08:00,ZBYN 270800Z AUTO 10006KT 6SM 12/01 A3021 RMK T01200010 IEM_DS3505
ZBYN,1996-03-27 09:00,ZBYN 270900Z AUTO 20010KT 6SM 11/M01 A3024 RMK SLP243 T01121008 57016 IEM_DS3505
ZBYN,1996-03-27 10:00,ZBYN 271000Z AUTO 11006KT 6SM 10/01 A3024 RMK T01000010 IEM_DS3505
ZBYN,1996-03-27 12:00,ZBYN 271200Z AUTO 14008KT 6SM 07/01 A3024 RMK SLP259 T00710006 52007 IEM_DS3505
ZBYN,1996-03-27 13:00,ZBYN 271300Z AUTO 10010KT 6SM 07/00 A3024 RMK T00700000 IEM_DS3505
ZBYN,1996-03-27 14:00,ZBYN 271400Z AUTO 10012KT 6SM 06/00 A3024 RMK T00600000 IEM_DS3505
ZBYN,1996-03-27 15:00,ZBYN 271500Z AUTO 09002KT 6SM 06/00 A3024 RMK SLP256 T00560004 54000 IEM_DS3505
ZBYN,1996-03-27 16:00,ZBYN 271600Z AUTO 14004KT 6SM 06/00 A3024 RMK T00600000 IEM_DS3505
ZBYN,1996-03-27 17:00,ZBYN 271700Z AUTO 11006KT 6SM 05/00 A3021 RMK T00500000 IEM_DS3505
ZBYN,1996-03-27 18:00,ZBYN 271800Z AUTO 14004KT 6SM 04/M01 A3021 RMK SLP248 T00391011 57006 IEM_DS3505
ZBYN,1996-03-27 19:00,ZBYN 271900Z AUTO 07006KT 6SM 03/M01 A3018 RMK T00301010 IEM_DS3505
ZBYN,1996-03-27 20:00,ZBYN 272000Z AUTO 12004KT 6SM 02/M01 A3015 RMK T00201010 IEM_DS3505
ZBYN,1996-03-27 21:00,ZBYN 272100Z AUTO 00000KT 6SM 01/M02 A3015 RMK SLP234 T00101015 57015 IEM_DS3505
ZBYN,1996-03-27 22:00,ZBYN 272200Z AUTO 10006KT 6SM 02/M01 A3015 RMK T00201010 IEM_DS3505
ZBYN,1996-03-27 23:00,ZBYN 272300Z AUTO 09006KT 6SM 02/M01 A3018 RMK T00201010 IEM_DS3505
ZBYN,1996-03-28 00:00,ZBYN 280000Z AUTO 00000KT 4SM 03/M01 A3018 RMK SLP242 T00321010 52004 IEM_DS3505
ZBYN,1996-03-28 01:00,ZBYN 280100Z AUTO 14008KT 4SM 08/00 A3018 RMK T00800000 IEM_DS3505
ZBYN,1996-03-28 02:00,ZBYN 280200Z AUTO 14006KT 6SM 11/M02 A3015 RMK T01101020 IEM_DS3505
ZBYN,1996-03-28 03:00,ZBYN 280300Z AUTO 16010KT 5SM 10/M05 A3012 RMK SLP223 T00981049 57009 IEM_DS3505
ZBYN,1996-03-28 04:00,ZBYN 280400Z AUTO 12006KT 6SM 12/M03 A3009 RMK T01201030 IEM_DS3505
ZBYN,1996-03-28 05:00,ZBYN 280500Z AUTO 26008KT 6SM 12/M03 A3006 RMK T01201030 IEM_DS3505
ZBYN,1996-03-28 06:00,ZBYN 280600Z AUTO 20008KT 6SM 11/M03 A3003 RMK SLP194 T01141032 57027 IEM_DS3505
ZBYN,1996-03-28 07:00,ZBYN 280700Z AUTO 17017KT 6SM 12/M03 A3003 RMK T01201030 IEM_DS3505
ZBYN,1996-03-28 08:00,ZBYN 280800Z AUTO 16014KT 6SM 11/M02 A3003 RMK T01101020 IEM_DS3505
ZBYN,1996-03-28 09:00,ZBYN 280900Z AUTO 16014KT 6SM 10/M01 A3000 RMK SLP189 T01041013 57010 IEM_DS3505
ZBYN,1996-03-28 10:00,ZBYN 281000Z AUTO 17012KT 6SM 10/M01 A3000 RMK T01001010 IEM_DS3505
ZBYN,1996-03-28 11:00,ZBYN 281100Z AUTO 17012KT 6SM 09/00 A3000 RMK T00900000 IEM_DS3505
ZBYN,1996-03-28 12:00,ZBYN 281200Z AUTO 16008KT 6SM 07/M01 A3000 RMK SLP188 T00691006 57003 IEM_DS3505
ZBYN,1996-03-28 13:00,ZBYN 281300Z AUTO 18006KT 6SM 07/00 A3003 RMK T00700000 IEM_DS3505
ZBYN,1996-03-28 14:00,ZBYN 281400Z AUTO 19006KT 6SM 06/00 A3003 RMK T00600000 IEM_DS3505
ZBYN,1996-03-28 15:00,ZBYN 281500Z AUTO 11006KT 6SM 03/M01 A3000 RMK SLP181 T00331009 57002 IEM_DS3505
ZBYN,1996-03-28 16:00,ZBYN 281600Z AUTO 10006KT 6SM 03/00 A3000 RMK T00300000 IEM_DS3505
ZBYN,1996-03-28 17:00,ZBYN 281700Z AUTO 10006KT 6SM 03/M01 A2997 RMK T00301010 IEM_DS3505
ZBYN,1996-03-28 18:00,ZBYN 281800Z AUTO 11004KT 6SM 02/M01 A2999 RMK SLP171 T00241008 57008 IEM_DS3505
ZBYN,1996-03-28 19:00,ZBYN 281900Z AUTO 13006KT 6SM 03/00 A2994 RMK T00300000 IEM_DS3505
ZBYN,1996-03-28 20:00,ZBYN 282000Z AUTO 00000KT 6SM 02/M01 A2991 RMK T00201010 IEM_DS3505
ZBYN,1996-03-29 01:00,ZBYN 290100Z AUTO 00000KT 6SM 02/M01 A2991 RMK SLP157 T00171010 57001 IEM_DS3505
ZBYN,1996-03-29 02:00,ZBYN 290200Z AUTO 09004KT 2 1/2SM 04/M01 A2991 RMK T00401010 IEM_DS3505
ZBYN,1996-03-29 03:00,ZBYN 290300Z AUTO 27004KT 4SM 05/M00 A2988 RMK SLP146 T00531002 57010 IEM_DS3505
ZBYN,1996-03-29 04:00,ZBYN 290400Z AUTO 00000KT 4SM 08/00 A2985 RMK T00800000 IEM_DS3505
ZBYN,1996-03-29 05:00,ZBYN 290500Z AUTO 29004KT 5SM 10/00 A2980 RMK T01000000 IEM_DS3505
ZBYN,1996-03-29 06:00,ZBYN 290600Z AUTO 29002KT 4SM 11/M00 A2977 RMK SLP106 T01111002 57029 IEM_DS3505
ZBYN,1996-03-29 07:00,ZBYN 290700Z AUTO 20004KT 4SM 10/03 A2974 RMK T01000030 IEM_DS3505
ZBYN,1996-03-29 08:00,ZBYN 290800Z AUTO 18004KT 4SM 12/02 A2971 RMK T01200020 IEM_DS3505
ZBYN,1996-03-29 09:00,ZBYN 290900Z AUTO 07006KT 4SM 13/M00 A2971 RMK SLP077 T01311003 57025 IEM_DS3505
ZBYN,1996-03-29 10:00,ZBYN 291000Z AUTO 09006KT 5SM 11/02 A2971 RMK T01100020 IEM_DS3505
ZBYN,1996-03-29 11:00,ZBYN 291100Z AUTO 10006KT 5SM 09/02 A2974 RMK T00900020 IEM_DS3505
ZBYN,1996-03-29 12:00,ZBYN 291200Z AUTO 11010KT 4SM 08/00 A2974 RMK SLP095 T00780001 52009 IEM_DS3505
ZBYN,1996-03-29 13:00,ZBYN 291300Z AUTO 06008KT 7SM 06/02 A2977 RMK T00600020 IEM_DS3505
ZBYN,1996-03-29 14:00,ZBYN 291400Z AUTO 06006KT 7SM 05/01 A2977 RMK T00500010 IEM_DS3505
ZBYN,1996-03-29 15:00,ZBYN 291500Z AUTO 20004KT 6SM 05/00 A2977 RMK SLP107 T00480001 52012 IEM_DS3505
ZBYN,1996-03-29 16:00,ZBYN 291600Z AUTO 15006KT 7SM 03/00 A2977 RMK T00300000 IEM_DS3505
ZBYN,1996-03-29 17:00,ZBYN 291700Z AUTO 09006KT 7SM 02/M01 A2974 RMK T00201010 IEM_DS3505
ZBYN,1996-03-29 18:00,ZBYN 291800Z AUTO 11004KT 6SM 02/M01 A2977 RMK SLP099 T00171012 57003 IEM_DS3505
ZBYN,1996-03-29 19:00,ZBYN 291900Z AUTO 12006KT 7SM 01/M01 A2977 RMK T00101010 IEM_DS3505
ZBYN,1996-03-29 21:00,ZBYN 292100Z AUTO 00000KT 6SM 01/M02 A2977 RMK SLP096 T00061016 57001 IEM_DS3505
ZBYN,1996-03-29 22:00,ZBYN 292200Z AUTO 03002KT 5SM 00/M02 A2977 RMK T00001020 IEM_DS3505
ZBYN,1996-03-29 23:00,ZBYN 292300Z AUTO 00000KT 2 1/2SM 00/M02 A2980 RMK T00001020 IEM_DS3505
ZBYN,1996-03-30 00:00,ZBYN 300000Z AUTO 34002KT 6SM 03/M00 A2983 RMK SLP115 T00321001 52013 IEM_DS3505
ZBYN,1996-03-30 01:00,ZBYN 300100Z AUTO 00000KT 2SM 05/00 A2985 RMK T00500000 IEM_DS3505
ZBYN,1996-03-30 02:00,ZBYN 300200Z AUTO 00000KT 5SM 09/00 A2985 RMK T00900000 IEM_DS3505
ZBYN,1996-03-30 03:00,ZBYN 300300Z AUTO 02012KT 6SM 10/M14 A2985 RMK SLP126 T00991136 52015 IEM_DS3505
ZBYN,1996-03-30 04:00,ZBYN 300400Z AUTO 01012KT 6SM 12/M08 A2985 RMK T01201080 IEM_DS3505
ZBYN,1996-03-30 06:00,ZBYN 300600Z AUTO 36010KT 6SM 12/M09 A2980 RMK SLP114 T01201091 57012 IEM_DS3505
ZBYN,1996-03-30 07:00,ZBYN 300700Z AUTO 36014KT 6SM 12/M07 A2980 RMK T01201070 IEM_DS3505
ZBYN,1996-03-30 09:00,ZBYN 300900Z AUTO 36014KT 6SM 10/M10 A2980 RMK SLP118 T01011099 57001 IEM_DS3505
ZBYN,1996-03-30 10:00,ZBYN 301000Z AUTO 36014KT 6SM 10/M08 A2985 RMK T01001080 IEM_DS3505
ZBYN,1996-03-30 11:00,ZBYN 301100Z AUTO 01017KT 6SM 09/M07 A2988 RMK T00901070 IEM_DS3505
ZBYN,1996-03-30 12:00,ZBYN 301200Z AUTO 34010KT 6SM 08/M08 A2992 RMK SLP153 T00841085 52033 IEM_DS3505
ZBYN,1996-03-30 13:00,ZBYN 301300Z AUTO 06004KT 6SM 08/M07 A2997 RMK T00801070 IEM_DS3505
ZBYN,1996-03-30 15:00,ZBYN 301500Z AUTO 02008KT 6SM 07/M11 A3000 RMK SLP176 T00721106 52030 IEM_DS3505
ZBYN,1996-03-30 16:00,ZBYN 301600Z AUTO 03006KT 6SM 07/M09 A3003 RMK T00701090 IEM_DS3505
ZBYN,1996-03-30 17:00,ZBYN 301700Z AUTO 00000KT 6SM 06/M03 A3006 RMK T00601030 IEM_DS3505
ZBYN,1996-03-30 18:00,ZBYN 301800Z AUTO 02008KT 6SM 06/ A3006 RMK SLP188 52012 IEM_DS3505
ZBYN,1996-03-30 19:00,ZBYN 301900Z AUTO 00000KT 6SM 05/M02 A3006 RMK T00501020 IEM_DS3505
ZBYN,1996-03-30 20:00,ZBYN 302000Z AUTO 03010KT 6SM 05/M07 A3009 RMK T00501070 IEM_DS3505
ZBYN,1996-03-30 21:00,ZBYN 302100Z AUTO 02008KT 6SM 05/M11 A3012 RMK SLP213 T00481114 52018 IEM_DS3505
ZBYN,1996-03-30 22:00,ZBYN 302200Z AUTO 03010KT 6SM 04/M08 A3015 RMK T00401080 IEM_DS3505
ZBYN,1996-03-30 23:00,ZBYN 302300Z AUTO 00000KT 6SM 03/M03 A3018 RMK T00301030 IEM_DS3505
ZBYN,1996-03-31 00:00,ZBYN 310000Z AUTO 36010KT 12SM 04/M12 A3018 RMK SLP248 T00381119 52028 IEM_DS3505
ZBYN,1996-03-31 01:00,ZBYN 310100Z AUTO 03012KT 6SM 04/M12 A3021 RMK T00401120 IEM_DS3505
ZBYN,1996-03-31 02:00,ZBYN 310200Z AUTO 01014KT 6SM 05/M12 A3021 RMK T00501120 IEM_DS3505
ZBYN,1996-03-31 03:00,ZBYN 310300Z AUTO 36010KT 12SM 05/M12 A3018 RMK SLP251 T00521117 52003 IEM_DS3505
ZBYN,1996-03-31 04:00,ZBYN 310400Z AUTO 01012KT 6SM 06/M16 A3015 RMK T00601160 IEM_DS3505
ZBYN,1996-03-31 05:00,ZBYN 310500Z AUTO 03010KT 7SM 07/M19 A3015 RMK T00701190 IEM_DS3505
ZBYN,1996-03-31 06:00,ZBYN 310600Z AUTO 36006KT 12SM 08/M17 A3012 RMK SLP225 T00811174 57021 IEM_DS3505
ZBYN,1996-03-31 07:00,ZBYN 310700Z AUTO 04012KT 6SM 09/M19 A3009 RMK T00901190 IEM_DS3505
ZBYN,1996-03-31 08:00,ZBYN 310800Z AUTO 04012KT 7SM 08/M17 A3009 RMK T00801170 IEM_DS3505
ZBYN,1996-03-31 09:00,ZBYN 310900Z AUTO 04012KT 12SM 07/M20 A3009 RMK SLP212 T00711203 57016 IEM_DS3505
ZBYN,1996-03-31 10:00,ZBYN 311000Z AUTO 03012KT 7SM 07/M22 A3009 RMK T00701220 IEM_DS3505
ZBYN,1996-03-31 11:00,ZBYN 311100Z AUTO 32010KT 7SM 06/M21 A3015 RMK T00601210 IEM_DS3505
ZBYN,1996-03-31 12:00,ZBYN 311200Z AUTO 36008KT 9SM 05/M18 A3015 RMK SLP244 T00541177 52025 IEM_DS3505
ZBYN,1996-03-31 14:00,ZBYN 311400Z AUTO 02006KT 7SM 05/M14 A3021 RMK T00501140 IEM_DS3505
ZBYN,1996-03-31 15:00,ZBYN 311500Z AUTO 34004KT 6SM 04/M14 A3021 RMK SLP262 T00391135 52016 IEM_DS3505
ZBYN,1996-03-31 16:00,ZBYN 311600Z AUTO 01006KT 7SM 04/M15 A3024 RMK T00401150 IEM_DS3505
ZBYN,1996-03-31 17:00,ZBYN 311700Z AUTO 01006KT 7SM 03/M15 A3024 RMK T00301150 IEM_DS3505
ZBYN,1996-03-31 18:00,ZBYN 311800Z AUTO 36006KT 9SM 03/M17 A3024 RMK SLP270 T00311171 52011 IEM_DS3505
ZBYN,1996-03-31 19:00,ZBYN 311900Z AUTO 33017KT 7SM 02/M18 A3024 RMK T00201180 IEM_DS3505
ZBYN,1996-03-31 21:00,ZBYN 312100Z AUTO 34008KT 9SM 00/M16 A3024 RMK SLP279 T00031162 52002 IEM_DS3505
ZBYN,1996-03-31 22:00,ZBYN 312200Z AUTO 01012KT 6SM 01/M16 A3027 RMK T00101160 IEM_DS3505
ZBYN,1996-03-31 23:00,ZBYN 312300Z AUTO 01010KT 6SM 00/M20 A3030 RMK T00001200 IEM_DS3505
ZBYN,1996-04-01 00:00,ZBYN 010000Z AUTO 34008KT 12SM 01/M15 A3030 RMK SLP298 T00121153 52016 IEM_DS3505
ZBYN,1996-04-01 01:00,ZBYN 010100Z AUTO 33010KT 6SM 02/M14 A3033 RMK T00201140 IEM_DS3505
ZBYN,1996-04-01 02:00,ZBYN 010200Z AUTO 32012KT 6SM 04/M17 A3033 RMK T00401170 IEM_DS3505
ZBYN,1996-04-01 03:00,ZBYN 010300Z AUTO 02008KT 12SM 05/M15 A3030 RMK SLP292 T00501151 57002 IEM_DS3505
ZBYN,1996-04-01 04:00,ZBYN 010400Z AUTO 32016KT 6SM 06/M19 A3027 RMK T00601190 IEM_DS3505
ZBYN,1996-04-01 05:00,ZBYN 010500Z AUTO 04012KT 6SM 07/M17 A3024 RMK T00701170 IEM_DS3505
ZBYN,1996-04-01 06:00,ZBYN 010600Z AUTO 34010KT 12SM 08/M22 A3021 RMK SLP258 T00781221 57027 IEM_DS3505
ZBYN,1996-04-01 07:00,ZBYN 010700Z AUTO 04008KT 6SM 09/M15 A3018 RMK T00901150 IEM_DS3505
ZBYN,1996-04-01 08:00,ZBYN 010800Z AUTO 32004KT 6SM 09/M16 A3015 RMK T00901160 IEM_DS3505
ZBYN,1996-04-01 09:00,ZBYN 010900Z AUTO 04010KT 12SM 08/M18 A3015 RMK SLP245 T00811175 57016 IEM_DS3505
ZBYN,1996-04-01 10:00,ZBYN 011000Z AUTO 01010KT 6SM 08/M21 A3015 RMK T00801210 IEM_DS3505
ZBYN,1996-04-01 11:00,ZBYN 011100Z AUTO 33006KT 6SM 07/M18 A3018 RMK T00701180 IEM_DS3505
ZBYN,1996-04-01 12:00,ZBYN 011200Z AUTO 34006KT 12SM 06/M20 A3021 RMK SLP256 T00581203 52008 IEM_DS3505
ZBYN,1996-04-01 13:00,ZBYN 011300Z AUTO 35006KT 6SM 04/M14 A3024 RMK T00401140 IEM_DS3505
ZBYN,1996-04-01 15:00,ZBYN 011500Z AUTO 34004KT 6SM 02/M15 A3027 RMK SLP273 T00241151 52016 IEM_DS3505
ZBYN,1996-04-01 16:00,ZBYN 011600Z AUTO 36004KT 7SM 03/M14 A3027 RMK T00301140 IEM_DS3505
ZBYN,1996-04-01 17:00,ZBYN 011700Z AUTO 04002KT 7SM 00/M14 A3027 RMK T00001140 IEM_DS3505
ZBYN,1996-04-01 18:00,ZBYN 011800Z AUTO 34004KT 6SM M01/M11 RMK SLP280 T10081114 52005 IEM_DS3505
ZBYN,1996-04-01 19:00,ZBYN 011900Z AUTO 00000KT 7SM M01/M14 A3024 RMK T10101140 IEM_DS3505
ZBYN,1996-04-01 20:00,ZBYN 012000Z AUTO 00000KT 7SM M02/M13 A3024 RMK T10201130 IEM_DS3505
ZBYN,1996-04-01 21:00,ZBYN 012100Z AUTO 34006KT 6SM M02/M11 A3027 RMK SLP277 T10171109 57003 IEM_DS3505
ZBYN,1996-04-01 22:00,ZBYN 012200Z AUTO 00000KT 7SM M03/M16 A3027 RMK T10301160 IEM_DS3505
ZBYN,1996-04-02 00:00,ZBYN 020000Z AUTO 34004KT 6SM 00/M13 A3030 RMK SLP287 T00001127 52008 IEM_DS3505
ZBYN,1996-04-02 01:00,ZBYN 020100Z AUTO 35006KT 7SM 03/M16 A3030 RMK T00301160 IEM_DS3505
ZBYN,1996-04-02 02:00,ZBYN 020200Z AUTO 33006KT 7SM 05/M17 A3027 RMK T00501170 IEM_DS3505
ZBYN,1996-04-02 03:00,ZBYN 020300Z AUTO 02004KT 7SM 06/M16 A3024 RMK SLP277 T00591162 57005 IEM_DS3505
ZBYN,1996-04-02 04:00,ZBYN 020400Z AUTO 00000KT 6SM 08/M10 A3021 RMK T00801100 IEM_DS3505
ZBYN,1996-04-02 05:00,ZBYN 020500Z AUTO 00000KT 6SM 08/M13 A3021 RMK T00801130 IEM_DS3505
ZBYN,1996-04-02 06:00,ZBYN 020600Z AUTO 11006KT 9SM 09/M16 A3012 RMK SLP238 T00911157 57036 IEM_DS3505
ZBYN,1996-04-02 07:00,ZBYN 020700Z AUTO 22008KT 6SM 11/M11 A3009 RMK T01101110 IEM_DS3505
ZBYN,1996-04-02 08:00,ZBYN 020800Z AUTO 22004KT 6SM 10/M09 A3006 RMK T01001090 IEM_DS3505
ZBYN,1996-04-02 09:00,ZBYN 020900Z AUTO 18006KT 6SM 09/M14 A3006 RMK SLP215 T00911141 57022 IEM_DS3505
ZBYN,1996-04-02 10:00,ZBYN 021000Z AUTO 24004KT 6SM 09/M10 A3006 RMK T00901100 IEM_DS3505
ZBYN,1996-04-02 11:00,ZBYN 021100Z AUTO 00000KT 6SM 08/M06 A3006 RMK T00801060 IEM_DS3505
ZBYN,1996-04-02 12:00,ZBYN 021200Z AUTO 02006KT 6SM 08/M13 A3009 RMK SLP214 T00791126 54000 IEM_DS3505
ZBYN,1996-04-02 13:00,ZBYN 021300Z AUTO 31004KT 6SM 07/M04 A3012 RMK T00701040 IEM_DS3505
ZBYN,1996-04-02 14:00,ZBYN 021400Z AUTO 34006KT 6SM 05/M09 A3012 RMK T00501090 IEM_DS3505
ZBYN,1996-04-02 15:00,ZBYN 021500Z AUTO 32004KT 7SM 03/M14 A3015 RMK SLP229 T00271143 52015 IEM_DS3505
ZBYN,1996-04-02 16:00,ZBYN 021600Z AUTO 19004KT 6SM 02/M10 A3015 RMK T00201100 IEM_DS3505
ZBYN,1996-04-02 17:00,ZBYN 021700Z AUTO 00000KT 6SM 01/M07 A3015 RMK T00101070 IEM_DS3505
ZBYN,1996-04-02 18:00,ZBYN 021800Z AUTO 34002KT 7SM 00/M11 A3012 RMK SLP229 T00041112 52001 IEM_DS3505
ZBYN,1996-04-02 19:00,ZBYN 021900Z AUTO 00000KT 6SM M01/M09 A3012 RMK T10101090 IEM_DS3505
ZBYN,1996-04-02 20:00,ZBYN 022000Z AUTO 00000KT 6SM M02/M08 A3012 RMK T10201080 IEM_DS3505
ZBYN,1996-04-02 21:00,ZBYN 022100Z AUTO 34004KT 7SM 00/M13 A3012 RMK SLP225 T00041130 57004 IEM_DS3505
ZBYN,1996-04-02 22:00,ZBYN 022200Z AUTO 00000KT 6SM M03/M09 A3012 RMK T10301090 IEM_DS3505
ZBYN,1996-04-02 23:00,ZBYN 022300Z AUTO 00000KT 6SM M02/M05 A3012 RMK T10201050 IEM_DS3505
ZBYN,1996-04-03 00:00,ZBYN 030000Z AUTO 36006KT 6SM 01/M13 A3012 RMK SLP228 T00101130 52002 IEM_DS3505
ZBYN,1996-04-03 01:00,ZBYN 030100Z AUTO 21004KT 3SM 04/M13 A3012 RMK T00401130 IEM_DS3505
ZBYN,1996-04-03 02:00,ZBYN 030200Z AUTO 21006KT 4SM 06/M15 A3012 RMK T00601150 IEM_DS3505
ZBYN,1996-04-03 03:00,ZBYN 030300Z AUTO 32006KT 6SM 08/M17 A3012 RMK SLP222 T00821171 57002 IEM_DS3505
ZBYN,1996-04-03 04:00,ZBYN 030400Z AUTO 17010KT 6SM 11/ A3009 RMK IEM_DS3505
ZBYN,1996-04-03 05:00,ZBYN 030500Z AUTO 14008KT 7SM 11/M18 A3003 RMK SLP187 T01111180 57031 IEM_DS3505
ZBYN,1996-04-03 06:00,ZBYN 030600Z AUTO 11006KT 7SM 11/M18 A3000 RMK SLP187 T01111180 57031 IEM_DS3505
ZBYN,1996-04-03 07:00,ZBYN 030700Z AUTO 21006KT 6SM 12/M09 A2997 RMK T01201090 IEM_DS3505
ZBYN,1996-04-03 08:00,ZBYN 030800Z AUTO 21008KT 6SM 13/M08 A2994 RMK T01301080 IEM_DS3505
ZBYN,1996-04-03 09:00,ZBYN 030900Z AUTO 18006KT 7SM 11/ RMK SLP168 57018 IEM_DS3505
ZBYN,1996-04-03 10:00,ZBYN 031000Z AUTO 23006KT 6SM 11/M09 A2994 RMK T01101090 IEM_DS3505
ZBYN,1996-04-03 11:00,ZBYN 031100Z AUTO 00000KT 6SM 09/ A2997 RMK IEM_DS3505
ZBYN,1996-04-03 12:00,ZBYN 031200Z AUTO 36002KT 7SM 09/M13 A2997 RMK SLP177 T00871130 52006 IEM_DS3505
ZBYN,1996-04-03 14:00,ZBYN 031400Z AUTO 11008KT 6SM RMK IEM_DS3505
ZBYN,1996-04-03 15:00,ZBYN 031500Z AUTO 34004KT 7SM 05/M10 RMK SLP194 T00461101 52020 IEM_DS3505
ZBYN,1996-04-03 16:00,ZBYN 031600Z AUTO 00000KT 7SM 04/M07 A3006 RMK T00401070 IEM_DS3505
ZBYN,1996-04-03 17:00,ZBYN 031700Z AUTO 16008KT 7SM 02/M07 A3006 RMK T00201070 IEM_DS3505
ZBYN,1996-04-03 18:00,ZBYN 031800Z AUTO 22004KT 7SM 00/M10 A3006 RMK SLP206 T00021105 52009 IEM_DS3505
ZBYN,1996-04-03 19:00,ZBYN 031900Z AUTO 28004KT 7SM 00/M04 A3009 RMK T00001040 IEM_DS3505
ZBYN,1996-04-03 20:00,ZBYN 032000Z AUTO 08004KT 7SM M01/M05 A3009 RMK T10101050 IEM_DS3505
ZBYN,1996-04-03 21:00,ZBYN 032100Z AUTO 00000KT 6SM 00/M09 A3009 RMK SLP210 T00021091 52003 IEM_DS3505
ZBYN,1996-04-03 22:00,ZBYN 032200Z AUTO 00000KT 7SM M02/M08 A3009 RMK T10201080 IEM_DS3505
ZBYN,1996-04-03 23:00,ZBYN 032300Z AUTO 11002KT 4SM M02/M09 A3009 RMK T10201090 IEM_DS3505
ZBYN,1996-04-04 00:00,ZBYN 040000Z AUTO 02004KT 5SM 02/M11 A3012 RMK SLP223 T00251108 52012 IEM_DS3505
ZBYN,1996-04-04 01:00,ZBYN 040100Z AUTO 00000KT 4SM 04/M11 A3012 RMK T00401110 IEM_DS3505
ZBYN,1996-04-04 02:00,ZBYN 040200Z AUTO 00000KT 6SM 08/M07 A3015 RMK T00801070 IEM_DS3505
ZBYN,1996-04-04 03:00,ZBYN 040300Z AUTO 11002KT 5SM 10/M10 A3015 RMK SLP223 T01001098 52006 IEM_DS3505
ZBYN,1996-04-04 04:00,ZBYN 040400Z AUTO 27004KT 7SM 11/M07 A3012 RMK T01101070 IEM_DS3505
ZBYN,1996-04-04 05:00,ZBYN 040500Z AUTO 18010KT 7SM 12/M09 A3009 RMK T01201090 IEM_DS3505
ZBYN,1996-04-04 06:00,ZBYN 040600Z AUTO 22010KT 7SM 13/M12 A3006 RMK SLP199 T01311118 57024 IEM_DS3505
ZBYN,1996-04-04 07:00,ZBYN 040700Z AUTO 00000KT 7SM 15/M06 A3000 RMK T01501060 IEM_DS3505
ZBYN,1996-04-04 08:00,ZBYN 040800Z AUTO 18010KT 7SM 15/M08 A2997 RMK T01501080 IEM_DS3505
ZBYN,1996-04-04 09:00,ZBYN 040900Z AUTO 18008KT 9SM 14/M14 A2997 RMK SLP168 T01401138 57027 IEM_DS3505
ZBYN,1996-04-04 10:00,ZBYN 041000Z AUTO 00000KT 6SM 14/M02 A2997 RMK T01401020 IEM_DS3505
ZBYN,1996-04-04 11:00,ZBYN 041100Z AUTO 00000KT 7SM 12/M04 A2997 RMK T01201040 IEM_DS3505
ZBYN,1996-04-04 12:00,ZBYN 041200Z AUTO 14002KT 6SM 09/M04 A2997 RMK SLP175 T00871044 52002 IEM_DS3505
ZBYN,1996-04-04 13:00,ZBYN 041300Z AUTO 11006KT 7SM 06/M03 A3000 RMK T00601030 IEM_DS3505
ZBYN,1996-04-04 14:00,ZBYN 041400Z AUTO 12008KT 7SM 08/M05 A3000 RMK T00801050 IEM_DS3505
ZBYN,1996-04-04 15:00,ZBYN 041500Z AUTO 11008KT 6SM 07/M04 A3000 RMK SLP170 T00691039 52004 IEM_DS3505
ZBYN,1996-04-04 16:00,ZBYN 041600Z AUTO 09008KT 7SM 07/M02 A2997 RMK T00701020 IEM_DS3505
ZBYN,1996-04-04 17:00,ZBYN 041700Z AUTO 09006KT 7SM 06/M03 A2997 RMK T00601030 IEM_DS3505
ZBYN,1996-04-04 18:00,ZBYN 041800Z AUTO 09002KT 6SM 05/M03 A2997 RMK SLP168 T00491029 54000 IEM_DS3505
ZBYN,1996-04-04 19:00,ZBYN 041900Z AUTO 09006KT 7SM 05/M04 A3000 RMK T00501040 IEM_DS3505
ZBYN,1996-04-04 20:00,ZBYN 042000Z AUTO 06008KT 7SM 03/M04 A2997 RMK T00301040 IEM_DS3505
ZBYN,1996-04-04 21:00,ZBYN 042100Z AUTO 34002KT 6SM 02/M03 A2997 RMK SLP164 T00241029 57006 IEM_DS3505
ZBYN,1996-04-04 22:00,ZBYN 042200Z AUTO 09006KT 7SM 02/M02 A2997 RMK T00201020 IEM_DS3505
ZBYN,1996-04-05 00:00,ZBYN 050000Z AUTO 34002KT 5SM 05/M02 A2997 RMK SLP169 T00521022 54000 IEM_DS3505
ZBYN,1996-04-05 02:00,ZBYN 050200Z AUTO 14006KT 6SM 11/01 A2991 RMK T01100010 IEM_DS3505
ZBYN,1996-04-05 03:00,ZBYN 050300Z AUTO 14004KT 5SM 12/01 A2991 RMK SLP142 T01200011 57017 IEM_DS3505
ZBYN,1996-04-05 04:00,ZBYN 050400Z AUTO 18006KT 6SM 15/00 A2988 RMK T01500000 IEM_DS3505
ZBYN,1996-04-05 05:00,ZBYN 050500Z AUTO 20008KT 5SM 10/00 A2985 RMK SLP122 T01040000 57006 IEM_DS3505
ZBYN,1996-04-05 06:00,ZBYN 050600Z AUTO 20012KT 5SM 12/M01 A2983 RMK SLP122 T01171009 57021 IEM_DS3505
ZBYN,1996-04-05 07:00,ZBYN 050700Z AUTO 24012KT 7SM 12/00 A2983 RMK T01200000 IEM_DS3505
ZBYN,1996-04-05 08:00,ZBYN 050800Z AUTO 24010KT 7SM 11/00 A2980 RMK T01100000 IEM_DS3505
ZBYN,1996-04-05 09:00,ZBYN 050900Z AUTO 20008KT 5SM 10/00 A2983 RMK SLP122 T01040000 57006 IEM_DS3505
ZBYN,1996-04-05 10:00,ZBYN 051000Z AUTO 26008KT 2 1/2SM 09/04 A2985 RMK T00900040 IEM_DS3505
ZBYN,1996-04-05 11:00,ZBYN 051100Z AUTO 30012KT 5SM 08/03 A2988 RMK T00800030 IEM_DS3505
ZBYN,1996-04-05 12:00,ZBYN 051200Z AUTO 34008KT 6SM 08/02 A2988 RMK 60000 SLP144 T00770022 52020 IEM_DS3505
ZBYN,1996-04-05 13:00,ZBYN 051300Z AUTO 31010KT 7SM 08/02 A2991 RMK T00800020 IEM_DS3505
ZBYN,1996-04-05 14:00,ZBYN 051400Z AUTO 28006KT 7SM 08/02 A2991 RMK T00800020 IEM_DS3505
ZBYN,1996-04-05 15:00,ZBYN 051500Z AUTO 36004KT 6SM 07/00 A2997 RMK SLP153 T00660005 52017 IEM_DS3505
ZBYN,1996-04-05 16:00,ZBYN 051600Z AUTO 30008KT 7SM 07/01 A2997 RMK T00700010 IEM_DS3505
ZBYN,1996-04-05 17:00,ZBYN 051700Z AUTO 28008KT 7SM 06/01 A2997 RMK T00600010 IEM_DS3505
ZBYN,1996-04-05 18:00,ZBYN 051800Z AUTO 22002KT 6SM 07/M05 A2997 RMK SLP171 T00671054 52016 IEM_DS3505
ZBYN,1996-04-05 19:00,ZBYN 051900Z AUTO 00000KT 7SM 06/01 A3000 RMK T00600010 IEM_DS3505
ZBYN,1996-04-05 20:00,ZBYN 052000Z AUTO 00000KT 6SM 03/M02 A3000 RMK T00301020 IEM_DS3505
ZBYN,1996-04-05 21:00,ZBYN 052100Z AUTO 32006KT 6SM 05/M07 A3000 RMK 70001 SLP183 T00501066 52006 IEM_DS3505
ZBYN,1996-04-05 22:00,ZBYN 052200Z AUTO 06006KT 6SM 01/M02 A3000 RMK T00101020 IEM_DS3505
ZBYN,1996-04-05 23:00,ZBYN 052300Z AUTO 00000KT 6SM 03/M02 A3003 RMK T00301020 IEM_DS3505
ZBYN,1996-04-06 00:00,ZBYN 060000Z AUTO 32012KT 6SM 07/M07 A3006 RMK 70001 SLP190 T00731073 52006 IEM_DS3505
ZBYN,1996-04-06 01:00,ZBYN 060100Z AUTO 17006KT 6SM 07/01 A3006 RMK T00700010 IEM_DS3505
ZBYN,1996-04-06 02:00,ZBYN 060200Z AUTO 27006KT 6SM 10/M03 A3009 RMK T01001030 IEM_DS3505
ZBYN,1996-04-06 03:00,ZBYN 060300Z AUTO 32014KT 7SM 12/M13 A3009 RMK SLP200 T01191127 52015 IEM_DS3505
ZBYN,1996-04-06 04:00,ZBYN 060400Z AUTO 28017KT 6SM 12/M13 A3006 RMK T01201130 IEM_DS3505
ZBYN,1996-04-06 05:00,ZBYN 060500Z AUTO 27016KT 6SM 12/M07 A3006 RMK T01201070 IEM_DS3505
ZBYN,1996-04-06 06:00,ZBYN 060600Z AUTO 32017KT 11SM 14/M17 A3003 RMK SLP181 T01351167 57015 IEM_DS3505
ZBYN,1996-04-06 07:00,ZBYN 060700Z AUTO 30014KT 6SM 14/M20 A3003 RMK T01401200 IEM_DS3505
ZBYN,1996-04-06 08:00,ZBYN 060800Z AUTO 30017KT 6SM 13/M22 A3003 RMK T01301220 IEM_DS3505
ZBYN,1996-04-06 09:00,ZBYN 060900Z AUTO 32010KT 11SM 13/M18 A3003 RMK SLP181 T01311185 57003 IEM_DS3505
ZBYN,1996-04-06 10:00,ZBYN 061000Z AUTO 31014KT 6SM 12/M14 A3003 RMK T01201140 IEM_DS3505
ZBYN,1996-04-06 11:00,ZBYN 061100Z AUTO 29010KT 6SM 11/M12 A3006 RMK T01101120 IEM_DS3505
ZBYN,1996-04-06 12:00,ZBYN 061200Z AUTO 22004KT 7SM 10/M10 A3009 RMK SLP200 T00961096 52015 IEM_DS3505
ZBYN,1996-04-06 13:00,ZBYN 061300Z AUTO 25006KT 7SM 08/M08 A3009 RMK T00801080 IEM_DS3505
ZBYN,1996-04-06 14:00,ZBYN 061400Z AUTO 00000KT 6SM 06/M03 A3012 RMK T00601030 IEM_DS3505
ZBYN,1996-04-06 15:00,ZBYN 061500Z AUTO 09006KT 6SM 05/M08 A3012 RMK SLP215 T00501079 52014 IEM_DS3505
ZBYN,1996-04-06 16:00,ZBYN 061600Z AUTO 10006KT 6SM 03/M04 A3015 RMK T00301040 IEM_DS3505
ZBYN,1996-04-06 17:00,ZBYN 061700Z AUTO 11004KT 6SM 03/M04 A3015 RMK T00301040 IEM_DS3505
ZBYN,1996-04-06 18:00,ZBYN 061800Z AUTO 11006KT 6SM 03/M05 A3015 RMK SLP224 T00301053 52007 IEM_DS3505
ZBYN,1996-04-06 19:00,ZBYN 061900Z AUTO 10006KT 6SM 02/M04 A3015 RMK T00201040 IEM_DS3505
ZBYN,1996-04-06 20:00,ZBYN 062000Z AUTO 11006KT 6SM 01/M04 A3015 RMK T00101040 IEM_DS3505
ZBYN,1996-04-06 21:00,ZBYN 062100Z AUTO 20004KT 6SM 02/M05 A3012 RMK SLP222 T00181051 57004 IEM_DS3505
ZBYN,1996-04-06 22:00,ZBYN 062200Z AUTO 13004KT 6SM 00/M05 A3015 RMK T00001050 IEM_DS3505
ZBYN,1996-04-06 23:00,ZBYN 062300Z AUTO 08002KT 6SM 00/M06 A3018 RMK T00001060 IEM_DS3505
ZBYN,1996-04-07 00:00,ZBYN 070000Z AUTO 11006KT 5SM 05/M04 A3018 RMK SLP237 T00491044 52013 IEM_DS3505
ZBYN,1996-04-07 01:00,ZBYN 070100Z AUTO 12004KT 6SM 10/M04 A3021 RMK T01001040 IEM_DS3505
ZBYN,1996-04-07 02:00,ZBYN 070200Z AUTO 00000KT 6SM 11/M04 A3021 RMK T01101040 IEM_DS3505
ZBYN,1996-04-07 03:00,ZBYN 070300Z AUTO 00000KT 6SM 13/M05 A3018 RMK T01301050 IEM_DS3505
ZBYN,1996-04-07 04:00,ZBYN 070400Z AUTO 18006KT 6SM 14/M06 A3015 RMK T01401060 IEM_DS3505
ZBYN,1996-04-07 06:00,ZBYN 070600Z AUTO 22010KT 6SM 14/M08 A3012 RMK SLP218 T01361076 57017 IEM_DS3505
ZBYN,1996-04-07 07:00,ZBYN 070700Z AUTO 21008KT 6SM 15/M09 A3009 RMK T01501090 IEM_DS3505
ZBYN,1996-04-07 08:00,ZBYN 070800Z AUTO 21012KT 6SM 15/M10 A3006 RMK T01501100 IEM_DS3505
ZBYN,1996-04-07 09:00,ZBYN 070900Z AUTO 20012KT 9SM 14/M12 A3006 RMK SLP200 T01411122 57017 IEM_DS3505
ZBYN,1996-04-07 10:00,ZBYN 071000Z AUTO 24012KT 6SM 14/M09 A3009 RMK T01401090 IEM_DS3505
ZBYN,1996-04-07 11:00,ZBYN 071100Z AUTO 27008KT 6SM 12/M03 A3009 RMK T01201030 IEM_DS3505
ZBYN,1996-04-07 12:00,ZBYN 071200Z AUTO 32008KT 6SM 12/ A3012 RMK SLP217 52016 IEM_DS3505
ZBYN,1996-04-07 13:00,ZBYN 071300Z AUTO 28010KT 6SM 10/M06 A3012 RMK T01001060 IEM_DS3505
ZBYN,1996-04-07 14:00,ZBYN 071400Z AUTO 33004KT 6SM 09/M11 A3015 RMK T00901110 IEM_DS3505
ZBYN,1996-04-07 15:00,ZBYN 071500Z AUTO 34004KT 6SM 08/M11 A3015 RMK SLP215 T00751106 52003 IEM_DS3505
ZBYN,1996-04-07 16:00,ZBYN 071600Z AUTO 00000KT 6SM 05/M06 A3015 RMK T00501060 IEM_DS3505
ZBYN,1996-04-07 17:00,ZBYN 071700Z AUTO 00000KT 7SM 05/M06 A3015 RMK T00501060 IEM_DS3505
ZBYN,1996-04-07 18:00,ZBYN 071800Z AUTO 36004KT 6SM 04/M08 A3012 RMK SLP219 T00421080 52001 IEM_DS3505
ZBYN,1996-04-07 19:00,ZBYN 071900Z AUTO 14004KT 7SM 01/M07 A3012 RMK T00101070 IEM_DS3505
ZBYN,1996-04-07 20:00,ZBYN 072000Z AUTO 00000KT 7SM 00/M08 A3015 RMK T00001080 IEM_DS3505
ZBYN,1996-04-07 21:00,ZBYN 072100Z AUTO 00000KT 6SM M00/M07 A3012 RMK SLP225 T10021066 57001 IEM_DS3505
ZBYN,1996-04-07 22:00,ZBYN 072200Z AUTO 00000KT 6SM M01/M09 A3015 RMK T10101090 IEM_DS3505
ZBYN,1996-04-07 23:00,ZBYN 072300Z AUTO 00000KT 5SM M01/M10 A3018 RMK T10101100 IEM_DS3505
ZBYN,1996-04-08 00:00,ZBYN 080000Z AUTO 00000KT 4SM 02/M07 A3018 RMK SLP243 T00201068 52016 IEM_DS3505
ZBYN,1996-04-08 01:00,ZBYN 080100Z AUTO 30006KT 5SM 04/M07 A3018 RMK T00401070 IEM_DS3505
ZBYN,1996-04-08 03:00,ZBYN 080300Z AUTO 34006KT 4SM 10/M11 A3015 RMK SLP227 T00971111 57009 IEM_DS3505
ZBYN,1996-04-08 04:00,ZBYN 080400Z AUTO 00000KT 4SM 12/M08 A3015 RMK T01201080 IEM_DS3505
ZBYN,1996-04-08 05:00,ZBYN 080500Z AUTO 00000KT 7SM 12/M07 A3012 RMK T01201070 IEM_DS3505
ZBYN,1996-04-08 06:00,ZBYN 080600Z AUTO 18004KT 4SM 14/M12 A3012 RMK SLP211 T01381125 57013 IEM_DS3505
ZBYN,1996-04-08 07:00,ZBYN 080700Z AUTO 19004KT 7SM 14/M10 A3009 RMK T01401100 IEM_DS3505
ZBYN,1996-04-08 08:00,ZBYN 080800Z AUTO 23004KT 7SM 13/M09 A3009 RMK T01301090 IEM_DS3505
ZBYN,1996-04-08 09:00,ZBYN 080900Z AUTO 22004KT 5SM 12/M06 A3009 RMK SLP210 T01201058 57001 IEM_DS3505
ZBYN,1996-04-08 10:00,ZBYN 081000Z AUTO 00000KT 6SM 11/M04 A3006 RMK T01101040 IEM_DS3505
ZBYN,1996-04-08 11:00,ZBYN 081100Z AUTO 17006KT 2 1/2SM 10/M02 A3009 RMK T01001020 IEM_DS3505
ZBYN,1996-04-08 12:00,ZBYN 081200Z AUTO 14004KT 6SM 08/M01 A3010 RMK SLP217 T00801013 52004 IEM_DS3505
ZBYN,1996-04-08 13:00,ZBYN 081300Z AUTO 00000KT 4SM 07/M02 A3012 RMK T00701020 IEM_DS3505
ZBYN,1996-04-08 14:00,ZBYN 081400Z AUTO 08004KT 7SM 04/M04 A3012 RMK T00401040 IEM_DS3505
ZBYN,1996-04-08 15:00,ZBYN 081500Z AUTO 32002KT 6SM 05/M02 A3012 RMK SLP221 T00471019 52010 IEM_DS3505
ZBYN,1996-04-08 16:00,ZBYN 081600Z AUTO 19004KT 6SM 03/M07 A3012 RMK T00301070 IEM_DS3505
ZBYN,1996-04-08 17:00,ZBYN 081700Z AUTO 00000KT 6SM 01/M05 A3012 RMK T00101050 IEM_DS3505
ZBYN,1996-04-08 18:00,ZBYN 081800Z AUTO 00000KT 6SM 02/M05 A3012 RMK SLP214 T00241054 57003 IEM_DS3505
ZBYN,1996-04-08 19:00,ZBYN 081900Z AUTO 00000KT 6SM 01/M09 A3012 RMK T00101090 IEM_DS3505
ZBYN,1996-04-08 20:00,ZBYN 082000Z AUTO 07006KT 6SM 00/M06 A3009 RMK T00001060 IEM_DS3505
ZBYN,1996-04-08 21:00,ZBYN 082100Z AUTO 32004KT 6SM 00/M06 A3009 RMK SLP216 T00021065 57005 IEM_DS3505
ZBYN,1996-04-08 22:00,ZBYN 082200Z AUTO 00000KT 4SM 00/M07 A3009 RMK T00001070 IEM_DS3505
ZBYN,1996-04-08 23:00,ZBYN 082300Z AUTO 00000KT 4SM 00/M07 A3012 RMK T00001070 IEM_DS3505
ZBYN,1996-04-09 00:00,ZBYN 090000Z AUTO 00000KT 6SM 02/M04 A3012 RMK SLP227 T00151044 52006 IEM_DS3505
ZBYN,1996-04-09 01:00,ZBYN 090100Z AUTO 13004KT 4SM 07/M04 A3012 RMK T00701040 IEM_DS3505
ZBYN,1996-04-09 02:00,ZBYN 090200Z AUTO 00000KT 2 1/2SM 08/M04 A3012 RMK T00801040 IEM_DS3505
ZBYN,1996-04-09 03:00,ZBYN 090300Z AUTO 16002KT 4SM 11/M04 A3009 RMK SLP215 T01061039 57002 IEM_DS3505
ZBYN,1996-04-09 04:00,ZBYN 090400Z AUTO 19006KT 4SM 13/M02 A3006 RMK T01301020 IEM_DS3505
ZBYN,1996-04-09 05:00,ZBYN 090500Z AUTO 22006KT 4SM 15/M01 A3003 RMK T01501010 IEM_DS3505
ZBYN,1996-04-09 06:00,ZBYN 090600Z AUTO 18006KT 5SM 16/M07 A3000 RMK SLP175 T01581073 57032 IEM_DS3505
ZBYN,1996-04-09 07:00,ZBYN 090700Z AUTO 24004KT 6SM 17/M06 A2997 RMK T01701060 IEM_DS3505
ZBYN,1996-04-09 08:00,ZBYN 090800Z AUTO 00000KT 7SM 16/M06 A2997 RMK T01601060 IEM_DS3505
ZBYN,1996-04-09 09:00,ZBYN 090900Z AUTO 09016KT 4SM 13/M07 A3000 RMK SLP179 T01261068 57004 IEM_DS3505
ZBYN,1996-04-09 10:00,ZBYN 091000Z AUTO 06014KT 5SM 11/M03 A3003 RMK T01101030 IEM_DS3505
ZBYN,1996-04-09 11:00,ZBYN 091100Z AUTO 06012KT 5SM 10/M04 A3006 RMK T01001040 IEM_DS3505
ZBYN,1996-04-09 12:00,ZBYN 091200Z AUTO 07010KT 6SM 09/M07 A3009 RMK SLP210 T00921069 52025 IEM_DS3505
ZBYN,1996-04-09 13:00,ZBYN 091300Z AUTO 09012KT 7SM 08/M02 A3012 RMK T00801020 IEM_DS3505
ZBYN,1996-04-09 14:00,ZBYN 091400Z AUTO 05010KT 7SM 07/M02 A3015 RMK T00701020 IEM_DS3505
ZBYN,1996-04-09 15:00,ZBYN 091500Z AUTO 34004KT 7SM 07/M02 A3015 RMK SLP217 T00701024 52017 IEM_DS3505
ZBYN,1996-04-09 16:00,ZBYN 091600Z AUTO 06006KT 6SM 05/M02 A3015 RMK T00501020 IEM_DS3505
ZBYN,1996-04-09 17:00,ZBYN 091700Z AUTO 04006KT 6SM 05/M02 A3015 RMK T00501020 IEM_DS3505
ZBYN,1996-04-09 18:00,ZBYN 091800Z AUTO 14002KT 7SM 04/M02 A3012 RMK SLP210 T00441023 57003 IEM_DS3505
ZBYN,1996-04-09 19:00,ZBYN 091900Z AUTO 04006KT 6SM 04/M02 A3012 RMK T00401020 IEM_DS3505
ZBYN,1996-04-09 21:00,ZBYN 092100Z AUTO 34002KT 7SM 04/M03 A3012 RMK SLP215 T00421029 54000 IEM_DS3505
ZBYN,1996-04-09 22:00,ZBYN 092200Z AUTO 00000KT 7SM 03/M02 A3015 RMK T00301020 IEM_DS3505
ZBYN,1996-04-09 23:00,ZBYN 092300Z AUTO 23004KT 5SM 05/M04 A3018 RMK T00501040 IEM_DS3505
ZBYN,1996-04-10 00:00,ZBYN 100000Z AUTO 36004KT 7SM 05/M03 A3018 RMK SLP232 T00501032 52011 IEM_DS3505
ZBYN,1996-04-10 01:00,ZBYN 100100Z AUTO 10010KT 4SM 06/M03 A3018 RMK T00601030 IEM_DS3505
ZBYN,1996-04-10 02:00,ZBYN 100200Z AUTO 10014KT 4SM 08/M02 A3018 RMK T00801020 IEM_DS3505
ZBYN,1996-04-10 03:00,ZBYN 100300Z AUTO 32004KT 6SM 09/M03 A3015 RMK SLP235 T00911027 52006 IEM_DS3505
ZBYN,1996-04-10 04:00,ZBYN 100400Z AUTO 19008KT 7SM 13/00 A3015 RMK T01300000 IEM_DS3505
ZBYN,1996-04-10 05:00,ZBYN 100500Z AUTO 00000KT 7SM 14/00 A3012 RMK T01400000 IEM_DS3505
ZBYN,1996-04-10 06:00,ZBYN 100600Z AUTO 18010KT 6SM 12/M00 A3009 RMK SLP209 T01221002 57023 IEM_DS3505
ZBYN,1996-04-10 07:00,ZBYN 100700Z AUTO 18006KT 7SM 13/01 A3006 RMK T01300010 IEM_DS3505
ZBYN,1996-04-10 08:00,ZBYN 100800Z AUTO 24006KT 6SM 14/00 A3006 RMK T01400000 IEM_DS3505
ZBYN,1996-04-10 09:00,ZBYN 100900Z AUTO 14008KT 6SM 13/M01 RMK SLP188 T01341012 57018 IEM_DS3505
ZBYN,1996-04-10 10:00,ZBYN 101000Z AUTO 00000KT 6SM 13/00 A3003 RMK T01300000 IEM_DS3505
ZBYN,1996-04-10 11:00,ZBYN 101100Z AUTO 10008KT 7SM 11/01 A3006 RMK T01100010 IEM_DS3505
ZBYN,1996-04-10 12:00,ZBYN 101200Z AUTO 09012KT 6SM 10/M05 A3010 RMK SLP209 T01001050 52015 IEM_DS3505
ZBYN,1996-04-10 13:00,ZBYN 101300Z AUTO 09016KT 7SM 09/M03 A3015 RMK T00901030 IEM_DS3505
ZBYN,1996-04-10 14:00,ZBYN 101400Z AUTO 09010KT 7SM 08/M02 A3015 RMK T00801020 IEM_DS3505
ZBYN,1996-04-10 15:00,ZBYN 101500Z AUTO 09006KT 6SM 08/M03 A3015 RMK SLP229 T00751027 52021 IEM_DS3505
ZBYN,1996-04-10 16:00,ZBYN 101600Z AUTO 10010KT 7SM 07/M02 A3018 RMK T00701020 IEM_DS3505
ZBYN,1996-04-10 17:00,ZBYN 101700Z AUTO 11006KT 7SM 06/M01 A3018 RMK T00601010 IEM_DS3505
ZBYN,1996-04-10 18:00,ZBYN 101800Z AUTO 20006KT 6SM 05/M02 A3018 RMK SLP233 T00501019 52005 IEM_DS3505
ZBYN,1996-04-10 19:00,ZBYN 101900Z AUTO 11006KT 6SM 05/M02 A3018 RMK T00501020 IEM_DS3505
ZBYN,1996-04-10 20:00,ZBYN 102000Z AUTO 11006KT 6SM 04/M02 A3018 RMK T00401020 IEM_DS3505
ZBYN,1996-04-10 21:00,ZBYN 102100Z AUTO 34002KT 6SM 03/M03 A3018 RMK SLP233 T00331034 57001 IEM_DS3505
ZBYN,1996-04-10 22:00,ZBYN 102200Z AUTO 00000KT 4SM 03/M02 A3021 RMK T00301020 IEM_DS3505
ZBYN,1996-04-10 23:00,ZBYN 102300Z AUTO 00000KT 4SM 03/M02 A3021 RMK T00301020 IEM_DS3505
ZBYN,1996-04-11 00:00,ZBYN 110000Z AUTO 34004KT 4SM 05/M03 A3024 RMK SLP253 T00491030 52015 IEM_DS3505
ZBYN,1996-04-11 01:00,ZBYN 110100Z AUTO 00000KT 4SM 07/M01 A3024 RMK T00701010 IEM_DS3505
ZBYN,1996-04-11 02:00,ZBYN 110200Z AUTO 00000KT 5SM 10/01 A3024 RMK T01000010 IEM_DS3505
ZBYN,1996-04-11 03:00,ZBYN 110300Z AUTO 18002KT 4SM 11/01 A3024 RMK SLP247 T01100014 54000 IEM_DS3505
ZBYN,1996-04-11 04:00,ZBYN 110400Z AUTO 00000KT 5SM 14/02 A3021 RMK T01400020 IEM_DS3505
ZBYN,1996-04-11 05:00,ZBYN 110500Z AUTO 13004KT 5SM 15/02 A3015 RMK T01500020 IEM_DS3505
ZBYN,1996-04-11 06:00,ZBYN 110600Z AUTO 16004KT 5SM 15/01 A3012 RMK SLP216 T01480007 57026 IEM_DS3505
ZBYN,1996-04-11 07:00,ZBYN 110700Z AUTO 15016KT 7SM 17/02 A3009 RMK T01700020 IEM_DS3505
ZBYN,1996-04-11 08:00,ZBYN 110800Z AUTO 15010KT 7SM 15/02 A3009 RMK T01500020 IEM_DS3505
ZBYN,1996-04-11 09:00,ZBYN 110900Z AUTO 11012KT 6SM 13/M00 A3009 RMK SLP201 T01341002 57018 IEM_DS3505
ZBYN,1996-04-11 10:00,ZBYN 111000Z AUTO 11012KT 7SM 11/05 A3012 RMK T01100050 IEM_DS3505
ZBYN,1996-04-11 11:00,ZBYN 111100Z AUTO 06008KT 7SM 10/01 A3015 RMK T01000010 IEM_DS3505
ZBYN,1996-04-11 12:00,ZBYN 111200Z AUTO 09014KT 6SM 08/M01 A3018 RMK 60000 SLP234 T00851006 52025 IEM_DS3505
ZBYN,1996-04-11 13:00,ZBYN 111300Z AUTO 07012KT 7SM 07/00 A3021 RMK T00700000 IEM_DS3505
ZBYN,1996-04-11 14:00,ZBYN 111400Z AUTO 08012KT 7SM 07/01 A3024 RMK T00700010 IEM_DS3505
ZBYN,1996-04-11 15:00,ZBYN 111500Z AUTO 09017KT 6SM 07/01 A3024 RMK SLP249 T00710006 52021 IEM_DS3505
ZBYN,1996-04-11 16:00,ZBYN 111600Z AUTO 08014KT 7SM 06/03 A3024 RMK T00600030 IEM_DS3505
ZBYN,1996-04-11 17:00,ZBYN 111700Z AUTO 08014KT 7SM 06/03 A3024 RMK T00600030 IEM_DS3505
ZBYN,1996-04-11 18:00,ZBYN 111800Z AUTO 34004KT 6SM 06/04 A3024 RMK 60002 SLP246 T00590043 52001 IEM_DS3505
ZBYN,1996-04-11 19:00,ZBYN 111900Z AUTO 06010KT 7SM 06/03 A3021 RMK T00600030 IEM_DS3505
ZBYN,1996-04-11 20:00,ZBYN 112000Z AUTO 00000KT 7SM 05/04 A3021 RMK T00500040 IEM_DS3505
ZBYN,1996-04-11 21:00,ZBYN 112100Z AUTO 36004KT 4SM 05/04 A3021 RMK 70012 SLP246 T00460037 57004 IEM_DS3505
ZBYN,1996-04-11 22:00,ZBYN 112200Z AUTO 06010KT 3SM 05/04 A3021 RMK T00500040 IEM_DS3505
ZBYN,1996-04-11 23:00,ZBYN 112300Z AUTO 06006KT 2SM 04/04 A3024 RMK T00400040 IEM_DS3505
ZBYN,1996-04-12 00:00,ZBYN 120000Z AUTO 34006KT 2 1/2SM 04/04 A3024 RMK 60024 70028 SLP265 T00450038 52009 IEM_DS3505
ZBYN,1996-04-12 01:00,ZBYN 120100Z AUTO 07006KT 4SM 05/04 A3027 RMK T00500040 IEM_DS3505
ZBYN,1996-04-12 02:00,ZBYN 120200Z AUTO 10006KT 4SM 05/04 A3027 RMK T00500040 IEM_DS3505
ZBYN,1996-04-12 03:00,ZBYN 120300Z AUTO 34004KT 3SM 04/03 A3027 RMK SLP273 T00380029 52004 IEM_DS3505
ZBYN,1996-04-12 04:00,ZBYN 120400Z AUTO 08010KT 4SM 06/05 A3024 RMK T00600050 IEM_DS3505
ZBYN,1996-04-12 05:00,ZBYN 120500Z AUTO 10008KT 7SM 06/05 A3024 RMK T00600050 IEM_DS3505
ZBYN,1996-04-12 06:00,ZBYN 120600Z AUTO 32006KT 4SM 05/05 A3021 RMK 60024 SLP255 T00530046 57016 IEM_DS3505
ZBYN,1996-04-12 07:00,ZBYN 120700Z AUTO 09006KT 4SM 07/06 A3018 RMK T00700060 IEM_DS3505
ZBYN,1996-04-12 08:00,ZBYN 120800Z AUTO 09008KT 7SM 07/05 A3018 RMK T00700050 IEM_DS3505
ZBYN,1996-04-12 09:00,ZBYN 120900Z AUTO 36004KT 5SM 06/04 A3021 RMK SLP248 T00580045 57007 IEM_DS3505
ZBYN,1996-04-12 10:00,ZBYN 121000Z AUTO 10012KT 3SM 05/04 A3021 RMK T00500040 IEM_DS3505
ZBYN,1996-04-12 11:00,ZBYN 121100Z AUTO 09006KT 3SM 05/04 A3021 RMK T00500040 IEM_DS3505
ZBYN,1996-04-12 12:00,ZBYN 121200Z AUTO 11008KT 5SM 06/02 A3024 RMK 60004 SLP264 T00590024 52014 IEM_DS3505
ZBYN,1996-04-12 13:00,ZBYN 121300Z AUTO 11008KT 4SM 05/03 A3024 RMK T00500030 IEM_DS3505
ZBYN,1996-04-12 14:00,ZBYN 121400Z AUTO 10006KT 4SM 05/03 A3027 RMK T00500030 IEM_DS3505
ZBYN,1996-04-12 15:00,ZBYN 121500Z AUTO 09004KT 5SM 06/02 A3027 RMK SLP274 T00550022 52008 IEM_DS3505
ZBYN,1996-04-12 16:00,ZBYN 121600Z AUTO 10006KT 7SM 05/03 A3027 RMK T00500030 IEM_DS3505
ZBYN,1996-04-12 17:00,ZBYN 121700Z AUTO 10006KT 7SM 05/03 A3027 RMK T00500030 IEM_DS3505
ZBYN,1996-04-12 18:00,ZBYN 121800Z AUTO 32002KT 5SM 05/03 A3027 RMK 60002 SLP274 T00460030 52001 IEM_DS3505
ZBYN,1996-04-12 19:00,ZBYN 121900Z AUTO 11006KT 7SM 03/01 A3024 RMK T00300010 IEM_DS3505
ZBYN,1996-04-12 20:00,ZBYN 122000Z AUTO 00000KT 7SM 03/02 A3027 RMK T00300020 IEM_DS3505
ZBYN,1996-04-12 21:00,ZBYN 122100Z AUTO 00000KT 6SM 04/03 A3024 RMK 70043 SLP259 T00360026 57015 IEM_DS3505
ZBYN,1996-04-12 22:00,ZBYN 122200Z AUTO 08006KT 4SM 03/02 A3024 RMK T00300020 IEM_DS3505
ZBYN,1996-04-12 23:00,ZBYN 122300Z AUTO 00000KT 4SM 04/02 A3027 RMK T00400020 IEM_DS3505
ZBYN,1996-04-13 00:00,ZBYN 130000Z AUTO 00000KT 5SM 05/03 A3028 RMK 60000 70028 SLP278 T00460032 52019 IEM_DS3505
ZBYN,1996-04-13 01:00,ZBYN 130100Z AUTO 12006KT 7SM 07/03 A3030 RMK T00700030 IEM_DS3505
ZBYN,1996-04-13 02:00,ZBYN 130200Z AUTO 15004KT 6SM 08/03 A3030 RMK T00800030 IEM_DS3505
ZBYN,1996-04-13 03:00,ZBYN 130300Z AUTO 18002KT 5SM 08/02 A3030 RMK SLP276 T00820022 52003 IEM_DS3505
ZBYN,1996-04-13 04:00,ZBYN 130400Z AUTO 23004KT 7SM 09/02 A3027 RMK T00900020 IEM_DS3505
ZBYN,1996-04-13 05:00,ZBYN 130500Z AUTO 15004KT 4SM 10/03 A3024 RMK T01000030 IEM_DS3505
ZBYN,1996-04-13 06:00,ZBYN 130600Z AUTO 20006KT 5SM 10/02 A3021 RMK SLP258 T00950025 57015 IEM_DS3505
ZBYN,1996-04-13 07:00,ZBYN 130700Z AUTO 23008KT 4SM 10/03 A3021 RMK T01000030 IEM_DS3505
ZBYN,1996-04-13 08:00,ZBYN 130800Z AUTO 23006KT 4SM 09/02 A3018 RMK T00900020 IEM_DS3505
ZBYN,1996-04-13 09:00,ZBYN 130900Z AUTO 22004KT 5SM 08/03 A3018 RMK SLP247 T00810034 57014 IEM_DS3505
ZBYN,1996-04-13 10:00,ZBYN 131000Z AUTO 00000KT 3SM 08/04 A3018 RMK T00800040 IEM_DS3505
ZBYN,1996-04-13 11:00,ZBYN 131100Z AUTO 00000KT 4SM 07/05 A3021 RMK T00700050 IEM_DS3505
ZBYN,1996-04-13 12:00,ZBYN 131200Z AUTO 20004KT 5SM 06/05 A3021 RMK 60004 SLP256 T00620051 52007 IEM_DS3505
ZBYN,1996-04-13 13:00,ZBYN 131300Z AUTO 00000KT 2 1/2SM 06/05 A3024 RMK T00600050 IEM_DS3505
ZBYN,1996-04-13 14:00,ZBYN 131400Z AUTO 00000KT 1 1/2SM 06/06 A3024 RMK T00600060 IEM_DS3505
ZBYN,1996-04-13 15:00,ZBYN 131500Z AUTO 09002KT 5SM 06/05 A3024 RMK SLP262 T00600053 52010 IEM_DS3505
ZBYN,1996-04-13 16:00,ZBYN 131600Z AUTO 09004KT 1 1/2SM 06/05 A3024 RMK T00600050 IEM_DS3505
ZBYN,1996-04-13 17:00,ZBYN 131700Z AUTO 00000KT 2SM 06/05 A3024 RMK T00600050 IEM_DS3505
ZBYN,1996-04-13 18:00,ZBYN 131800Z AUTO 02002KT 5SM 06/05 A3024 RMK 60008 SLP256 T00590052 57003 IEM_DS3505
ZBYN,1996-04-13 20:00,ZBYN 132000Z AUTO 00000KT 4SM 06/05 A3021 RMK T00600050 IEM_DS3505
ZBYN,1996-04-13 21:00,ZBYN 132100Z AUTO 00000KT 2 1/2SM 04/04 A3021 RMK 70012 SLP253 T00430038 57008 IEM_DS3505
ZBYN,1996-04-13 22:00,ZBYN 132200Z AUTO 00000KT 1SM 04/04 A3021 RMK T00400040 IEM_DS3505
ZBYN,1996-04-13 23:00,ZBYN 132300Z AUTO 00000KT 1 1/4SM 05/04 A3021 RMK T00500040 IEM_DS3505
ZBYN,1996-04-14 00:00,ZBYN 140000Z AUTO 00000KT 3/8SM 03/03 A3024 RMK 70012 SLP262 T00310029 52004 IEM_DS3505
ZBYN,1996-04-14 01:00,ZBYN 140100Z AUTO 00000KT 1 1/2SM 07/05 A3024 RMK T00700050 IEM_DS3505
ZBYN,1996-04-14 02:00,ZBYN 140200Z AUTO 24006KT 1 1/2SM 08/05 A3024 RMK T00800050 IEM_DS3505
ZBYN,1996-04-14 03:00,ZBYN 140300Z AUTO 14002KT 2SM 10/05 A3024 RMK SLP251 T01010048 54000 IEM_DS3505
ZBYN,1996-04-14 04:00,ZBYN 140400Z AUTO 00000KT 1 1/2SM 11/05 A3021 RMK T01100050 IEM_DS3505
ZBYN,1996-04-14 05:00,ZBYN 140500Z AUTO 15006KT 2SM 13/05 A3015 RMK T01300050 IEM_DS3505
ZBYN,1996-04-14 06:00,ZBYN 140600Z AUTO 16006KT 5SM 13/05 A3012 RMK SLP222 T01290048 57022 IEM_DS3505
ZBYN,1996-04-14 07:00,ZBYN 140700Z AUTO 20006KT 3SM 14/03 A3009 RMK T01400030 IEM_DS3505
ZBYN,1996-04-14 08:00,ZBYN 140800Z AUTO 19004KT 6SM 15/03 A3006 RMK T01500030 IEM_DS3505
ZBYN,1996-04-14 09:00,ZBYN 140900Z AUTO 16006KT 6SM 14/03 A3006 RMK SLP191 T01390030 57029 IEM_DS3505
ZBYN,1996-04-14 10:00,ZBYN 141000Z AUTO 18004KT 6SM 14/03 A3003 RMK T01400030 IEM_DS3505
ZBYN,1996-04-14 11:00,ZBYN 141100Z AUTO 21008KT 6SM 12/04 A3006 RMK T01200040 IEM_DS3505
ZBYN,1996-04-14 12:00,ZBYN 141200Z AUTO 14006KT 6SM 11/04 A3006 RMK SLP196 T01100044 57002 IEM_DS3505
ZBYN,1996-04-14 13:00,ZBYN 141300Z AUTO 11004KT 6SM 10/06 A3006 RMK T01000060 IEM_DS3505
ZBYN,1996-04-14 14:00,ZBYN 141400Z AUTO 11004KT 6SM 09/07 A3006 RMK T00900070 IEM_DS3505
ZBYN,1996-04-14 15:00,ZBYN 141500Z AUTO 16006KT 5SM 10/06 RMK SLP187 T00980056 52001 IEM_DS3505
ZBYN,1996-04-14 16:00,ZBYN 141600Z AUTO 09006KT 6SM 09/06 A3003 RMK T00900060 IEM_DS3505
ZBYN,1996-04-14 17:00,ZBYN 141700Z AUTO 11006KT 6SM 08/06 A3000 RMK T00800060 IEM_DS3505
ZBYN,1996-04-14 18:00,ZBYN 141800Z AUTO 16008KT 5SM 08/06 A2997 RMK SLP154 T00830055 57028 IEM_DS3505
ZBYN,1996-04-14 19:00,ZBYN 141900Z AUTO 17006KT 6SM 07/06 A2994 RMK T00700060 IEM_DS3505
ZBYN,1996-04-14 20:00,ZBYN 142000Z AUTO 12006KT 7SM 08/06 A2988 RMK T00800060 IEM_DS3505
ZBYN,1996-04-14 21:00,ZBYN 142100Z AUTO 16004KT 3SM 07/06 RMK SLP129 T00730056 57023 IEM_DS3505
ZBYN,1996-04-14 22:00,ZBYN 142200Z AUTO 10004KT 1 1/4SM 08/06 A2985 RMK T00800060 IEM_DS3505
ZBYN,1996-04-14 23:00,ZBYN 142300Z AUTO 00000KT 1 1/4SM 08/06 A2985 RMK T00800060 IEM_DS3505
ZBYN,1996-04-15 00:00,ZBYN 150000Z AUTO 14004KT 3SM 09/06 A2985 RMK SLP118 T00860059 57012 IEM_DS3505
ZBYN,1996-04-15 01:00,ZBYN 150100Z AUTO 00000KT 1 1/2SM 10/06 A2985 RMK T01000060 IEM_DS3505
ZBYN,1996-04-15 02:00,ZBYN 150200Z AUTO 19008KT 1 1/4SM 11/08 A2983 RMK T01100080 IEM_DS3505
ZBYN,1996-04-15 03:00,ZBYN 150300Z AUTO 18008KT 6SM 13/06 A2980 RMK SLP103 T01330056 57009 IEM_DS3505
ZBYN,1996-04-15 04:00,ZBYN 150400Z AUTO 24010KT 4SM 15/05 A2977 RMK T01500050 IEM_DS3505
ZBYN,1996-04-15 05:00,ZBYN 150500Z AUTO 31016KT 7SM 17/01 A2977 RMK T01700010 IEM_DS3505
ZBYN,1996-04-15 06:00,ZBYN 150600Z AUTO 29008KT 9SM 18/03 A2968 RMK SLP056 T01820033 57038 IEM_DS3505
ZBYN,1996-04-15 07:00,ZBYN 150700Z AUTO 26010KT 7SM 19/M02 A2965 RMK T01901020 IEM_DS3505
ZBYN,1996-04-15 08:00,ZBYN 150800Z AUTO 30025KT 7SM 20/M03 A2962 RMK T02001030 IEM_DS3505
ZBYN,1996-04-15 09:00,ZBYN 150900Z AUTO 22008KT 9SM 19/01 A2962 RMK SLP033 T01870013 57021 IEM_DS3505
ZBYN,1996-04-15 10:00,ZBYN 151000Z AUTO 27010KT 7SM 18/00 A2962 RMK T01800000 IEM_DS3505
ZBYN,1996-04-15 12:00,ZBYN 151200Z AUTO 22002KT 6SM 17/M00 A2959 RMK SLP026 T01691005 57007 IEM_DS3505
ZBYN,1996-04-15 13:00,ZBYN 151300Z AUTO 25010KT 6SM 17/M04 A2962 RMK T01701040 IEM_DS3505
ZBYN,1996-04-15 14:00,ZBYN 151400Z AUTO 24012KT 6SM 15/M01 A2959 RMK T01501010 IEM_DS3505
ZBYN,1996-04-15 15:00,ZBYN 151500Z AUTO 20010KT 6SM 15/M01 A2959 RMK SLP020 T01481007 57002 IEM_DS3505
ZBYN,1996-04-15 16:00,ZBYN 151600Z AUTO 25012KT 6SM 15/M01 A2956 RMK T01501010 IEM_DS3505
ZBYN,1996-04-15 17:00,ZBYN 151700Z AUTO 26019KT 7SM 15/00 A2956 RMK T01500000 IEM_DS3505
ZBYN,1996-04-15 18:00,ZBYN 151800Z AUTO 22006KT 6SM 15/M01 A2956 RMK SLP998 T01531009 57012 IEM_DS3505
ZBYN,1996-04-15 20:00,ZBYN 152000Z AUTO 31010KT 6SM 14/01 A2956 RMK T01400010 IEM_DS3505
ZBYN,1996-04-15 21:00,ZBYN 152100Z AUTO 32006KT 6SM 10/04 A2953 RMK SLP998 T00990041 57007 IEM_DS3505
ZBYN,1996-04-15 22:00,ZBYN 152200Z AUTO 32006KT 4SM 10/04 A2950 RMK T01000040 IEM_DS3505
ZBYN,1996-04-15 23:00,ZBYN 152300Z AUTO 15004KT 4SM 11/05 A2947 RMK T01100050 IEM_DS3505
ZBYN,1996-04-16 00:00,ZBYN 160000Z AUTO 00000KT 6SM 12/06 A2947 RMK SLP979 T01220055 57017 IEM_DS3505
ZBYN,1996-04-16 01:00,ZBYN 160100Z AUTO 20004KT 4SM 15/05 A2947 RMK T01500050 IEM_DS3505
ZBYN,1996-04-16 02:00,ZBYN 160200Z AUTO 27019KT 7SM 17/02 A2947 RMK T01700020 IEM_DS3505
ZBYN,1996-04-16 03:00,ZBYN 160300Z AUTO 32017KT 6SM 17/02 A2944 RMK SLP960 T01740021 57013 IEM_DS3505
ZBYN,1996-04-16 04:00,ZBYN 160400Z AUTO 27019KT 7SM 19/01 A2944 RMK T01900010 IEM_DS3505
ZBYN,1996-04-16 05:00,ZBYN 160500Z AUTO 29016KT 7SM 14/06 A2947 RMK T01400060 IEM_DS3505
ZBYN,1996-04-16 06:00,ZBYN 160600Z AUTO 32017KT 9SM 17/04 A2947 RMK 60000 SLP971 T01740043 4////0087 52011 IEM_DS3505
ZBYN,1996-04-16 07:00,ZBYN 160700Z AUTO 28017KT 7SM 17/04 A2947 RMK T01700040 IEM_DS3505
ZBYN,1996-04-16 08:00,ZBYN 160800Z AUTO 30017KT 7SM 15/04 A2947 RMK T01500040 IEM_DS3505
ZBYN,1996-04-16 09:00,ZBYN 160900Z AUTO 34010KT 9SM 16/03 A2950 RMK SLP989 T01560033 52006 IEM_DS3505
ZBYN,1996-04-16 10:00,ZBYN 161000Z AUTO 27012KT 7SM 15/04 A2953 RMK T01500040 IEM_DS3505
ZBYN,1996-04-16 12:00,ZBYN 161200Z AUTO 32012KT 12SM 12/03 A2959 RMK SLP024 T01150030 52029 IEM_DS3505
ZBYN,1996-04-16 13:00,ZBYN 161300Z AUTO 32008KT 7SM 11/04 A2965 RMK T01100040 IEM_DS3505
ZBYN,1996-04-16 14:00,ZBYN 161400Z AUTO 31012KT 7SM 11/02 A2971 RMK T01100020 IEM_DS3505
ZBYN,1996-04-16 15:00,ZBYN 161500Z AUTO 32008KT 12SM 10/01 A2974 RMK SLP065 T01050011 52044 IEM_DS3505
ZBYN,1996-04-16 16:00,ZBYN 161600Z AUTO 27008KT 7SM 11/02 A2974 RMK T01100020 IEM_DS3505
ZBYN,1996-04-16 17:00,ZBYN 161700Z AUTO 25004KT 7SM 10/01 A2977 RMK T01000010 IEM_DS3505
ZBYN,1996-04-16 18:00,ZBYN 161800Z AUTO 32010KT 12SM 09/M02 A2979 RMK SLP083 T00891018 52014 IEM_DS3505
ZBYN,1996-04-16 19:00,ZBYN 161900Z AUTO 00000KT 7SM 10/01 A2980 RMK T01000010 IEM_DS3505
ZBYN,1996-04-16 21:00,ZBYN 162100Z AUTO 00000KT 9SM 05/M00 A2980 RMK 70000 SLP118 T00461005 52023 IEM_DS3505
ZBYN,1996-04-16 22:00,ZBYN 162200Z AUTO 00000KT 6SM 06/01 A2983 RMK T00600010 IEM_DS3505
ZBYN,1996-04-16 23:00,ZBYN 162300Z AUTO 00000KT 6SM 04/M01 A2985 RMK T00401010 IEM_DS3505
ZBYN,1996-04-17 00:00,ZBYN 170000Z AUTO 32006KT 9SM 09/M05 A2988 RMK SLP131 T00921047 52022 IEM_DS3505
ZBYN,1996-04-17 01:00,ZBYN 170100Z AUTO 30006KT 6SM 11/M04 A2988 RMK T01101040 IEM_DS3505
ZBYN,1996-04-17 02:00,ZBYN 170200Z AUTO 29010KT 6SM 12/M07 A2988 RMK T01201070 IEM_DS3505
ZBYN,1996-04-17 03:00,ZBYN 170300Z AUTO 32014KT 12SM 14/M07 A2985 RMK SLP121 T01351072 57004 IEM_DS3505
ZBYN,1996-04-17 04:00,ZBYN 170400Z AUTO 29019KT 6SM 16/M06 A2985 RMK T01601060 IEM_DS3505
ZBYN,1996-04-17 05:00,ZBYN 170500Z AUTO 31016KT 6SM 15/M06 A2985 RMK T01501060 IEM_DS3505
ZBYN,1996-04-17 06:00,ZBYN 170600Z AUTO 32010KT 12SM 14/M04 A2985 RMK SLP117 T01391045 57005 IEM_DS3505
ZBYN,1996-04-17 07:00,ZBYN 170700Z AUTO 31010KT 6SM 15/M04 A2983 RMK T01501040 IEM_DS3505
ZBYN,1996-04-17 08:00,ZBYN 170800Z AUTO 24008KT 7SM 15/M02 A2980 RMK T01501020 IEM_DS3505
ZBYN,1996-04-17 09:00,ZBYN 170900Z AUTO 22008KT 12SM 16/M03 RMK SLP103 T01571029 57017 IEM_DS3505
ZBYN,1996-04-17 10:00,ZBYN 171000Z AUTO 28008KT 7SM 15/M01 A2980 RMK T01501010 IEM_DS3505
ZBYN,1996-04-17 11:00,ZBYN 171100Z AUTO 29010KT 6SM 14/M02 A2983 RMK T01401020 IEM_DS3505
ZBYN,1996-04-17 12:00,ZBYN 171200Z AUTO 32006KT 9SM 13/00 A2985 RMK SLP113 T01330003 52012 IEM_DS3505
ZBYN,1996-04-17 13:00,ZBYN 171300Z AUTO 00000KT 6SM 13/02 A2985 RMK T01300020 IEM_DS3505
ZBYN,1996-04-17 14:00,ZBYN 171400Z AUTO 00000KT 6SM 12/M01 A2988 RMK T01201010 IEM_DS3505
ZBYN,1996-04-17 15:00,ZBYN 171500Z AUTO 34004KT 6SM 11/M03 A2988 RMK SLP126 T01101031 52015 IEM_DS3505
ZBYN,1996-04-17 16:00,ZBYN 171600Z AUTO 00000KT 6SM 12/M02 A2991 RMK T01201020 IEM_DS3505
ZBYN,1996-04-17 17:00,ZBYN 171700Z AUTO 00000KT 6SM 11/M02 A2991 RMK T01101020 IEM_DS3505
ZBYN,1996-04-17 18:00,ZBYN 171800Z AUTO 36004KT 6SM 11/M09 A2988 RMK SLP131 T01101094 52005 IEM_DS3505
ZBYN,1996-04-17 19:00,ZBYN 171900Z AUTO 00000KT 6SM 10/M02 A2991 RMK T01001020 IEM_DS3505
ZBYN,1996-04-17 20:00,ZBYN 172000Z AUTO 36006KT 6SM 10/M02 A2991 RMK T01001020 IEM_DS3505
ZBYN,1996-04-17 21:00,ZBYN 172100Z AUTO 02008KT 6SM 10/M10 RMK SLP138 T00991099 52008 IEM_DS3505
ZBYN,1996-04-17 22:00,ZBYN 172200Z AUTO 36010KT 6SM 09/M07 A2994 RMK T00901070 IEM_DS3505
ZBYN,1996-04-17 23:00,ZBYN 172300Z AUTO 34006KT 6SM 09/M05 A2997 RMK T00901050 IEM_DS3505
ZBYN,1996-04-18 00:00,ZBYN 180000Z AUTO 36012KT 7SM 09/M07 A3000 RMK SLP165 T00901070 52019 IEM_DS3505
ZBYN,1996-04-18 01:00,ZBYN 180100Z AUTO 34008KT 6SM 10/M04 A3000 RMK T01001040 IEM_DS3505
ZBYN,1996-04-18 02:00,ZBYN 180200Z AUTO 32010KT 6SM 11/M04 A3000 RMK T01101040 IEM_DS3505
ZBYN,1996-04-18 03:00,ZBYN 180300Z AUTO 02008KT 9SM 11/M06 A3000 RMK SLP172 T01091058 52006 IEM_DS3505
ZBYN,1996-04-18 04:00,ZBYN 180400Z AUTO 03008KT 7SM 10/M02 A3000 RMK T01001020 IEM_DS3505
ZBYN,1996-04-18 05:00,ZBYN 180500Z AUTO 04012KT 7SM 10/M01 A3000 RMK T01001010 IEM_DS3505
ZBYN,1996-04-18 06:00,ZBYN 180600Z AUTO 36004KT 7SM 11/M01 A3000 RMK SLP172 T01111012 52001 IEM_DS3505
ZBYN,1996-04-18 07:00,ZBYN 180700Z AUTO 34010KT 7SM 12/00 A3000 RMK T01200000 IEM_DS3505
ZBYN,1996-04-18 08:00,ZBYN 180800Z AUTO 30010KT 7SM 13/01 A3000 RMK T01300010 IEM_DS3505
ZBYN,1996-04-18 09:00,ZBYN 180900Z AUTO 02008KT 6SM 13/M09 A3000 RMK SLP171 T01291087 54000 IEM_DS3505
ZBYN,1996-04-18 10:00,ZBYN 181000Z AUTO 04008KT 7SM 12/M06 A3003 RMK T01201060 IEM_DS3505
ZBYN,1996-04-18 11:00,ZBYN 181100Z AUTO 00000KT 7SM 12/M04 A3003 RMK T01201040 IEM_DS3505
ZBYN,1996-04-18 12:00,ZBYN 181200Z AUTO 00000KT 7SM 11/M06 A3006 RMK SLP190 T01131063 52013 IEM_DS3505
ZBYN,1996-04-18 14:00,ZBYN 181400Z AUTO 00000KT 7SM 06/M02 A3012 RMK T00601020 IEM_DS3505
ZBYN,1996-04-18 15:00,ZBYN 181500Z AUTO 00000KT 7SM 08/M06 A3015 RMK SLP219 T00831064 52025 IEM_DS3505
ZBYN,1996-04-18 16:00,ZBYN 181600Z AUTO 03002KT 7SM 07/M06 A3015 RMK T00701060 IEM_DS3505
ZBYN,1996-04-18 17:00,ZBYN 181700Z AUTO 03012KT 7SM 06/M07 A3018 RMK T00601070 IEM_DS3505
ZBYN,1996-04-18 18:00,ZBYN 181800Z AUTO 32004KT 7SM 05/M08 A3021 RMK SLP246 T00461082 52019 IEM_DS3505
ZBYN,1996-04-18 19:00,ZBYN 181900Z AUTO 00000KT 7SM 05/M07 A3021 RMK T00501070 IEM_DS3505
ZBYN,1996-04-18 20:00,ZBYN 182000Z AUTO 00000KT 7SM 02/M09 A3021 RMK T00201090 IEM_DS3505
ZBYN,1996-04-18 21:00,ZBYN 182100Z AUTO 09004KT 7SM 02/M07 RMK SLP243 T00161069 57004 IEM_DS3505
ZBYN,1996-04-18 22:00,ZBYN 182200Z AUTO 11004KT 7SM M02/M07 A3021 RMK T10201070 IEM_DS3505
ZBYN,1996-04-18 23:00,ZBYN 182300Z AUTO 09004KT 7SM 00/M07 A3021 RMK T00001070 IEM_DS3505
ZBYN,1996-04-19 00:00,ZBYN 190000Z AUTO 16004KT 6SM 04/M08 A3021 RMK SLP250 T00371075 52007 IEM_DS3505
ZBYN,1996-04-19 01:00,ZBYN 190100Z AUTO 18004KT 7SM 08/M07 A3021 RMK T00801070 IEM_DS3505
ZBYN,1996-04-19 02:00,ZBYN 190200Z AUTO 00000KT 7SM 10/M08 A3021 RMK T01001080 IEM_DS3505
ZBYN,1996-04-19 03:00,ZBYN 190300Z AUTO 34012KT 9SM 13/M16 A3021 RMK SLP235 T01321164 57004 IEM_DS3505
ZBYN,1996-04-19 04:00,ZBYN 190400Z AUTO 01016KT 7SM 14/M12 A3018 RMK T01401120 IEM_DS3505
ZBYN,1996-04-19 05:00,ZBYN 190500Z AUTO 32016KT 7SM 15/M11 A3015 RMK T01501110 IEM_DS3505
ZBYN,1996-04-19 06:00,ZBYN 190600Z AUTO 32016KT 12SM 16/M13 A3012 RMK SLP214 T01551126 57021 IEM_DS3505
ZBYN,1996-04-19 07:00,ZBYN 190700Z AUTO 31014KT 7SM 16/M10 RMK T01601100 IEM_DS3505
ZBYN,1996-04-19 08:00,ZBYN 190800Z AUTO 36017KT 7SM 16/M13 A3012 RMK T01601130 IEM_DS3505
ZBYN,1996-04-19 09:00,ZBYN 190900Z AUTO 32010KT 12SM 15/M12 A3012 RMK SLP215 T01521122 57004 IEM_DS3505
ZBYN,1996-04-19 10:00,ZBYN 191000Z AUTO 34012KT 7SM 14/M11 A3012 RMK T01401110 IEM_DS3505
ZBYN,1996-04-19 12:00,ZBYN 191200Z AUTO 36006KT 7SM 12/M18 A3018 RMK SLP236 T01151176 52016 IEM_DS3505
ZBYN,1996-04-19 13:00,ZBYN 191300Z AUTO 03006KT 7SM 10/M11 A3021 RMK T01001110 IEM_DS3505
ZBYN,1996-04-19 14:00,ZBYN 191400Z AUTO 03006KT 7SM 09/M10 A3021 RMK T00901100 IEM_DS3505
ZBYN,1996-04-19 15:00,ZBYN 191500Z AUTO 32002KT 6SM 07/M10 A3024 RMK SLP246 T00711098 52017 IEM_DS3505
ZBYN,1996-04-19 16:00,ZBYN 191600Z AUTO 00000KT 7SM 04/M11 A3024 RMK T00401110 IEM_DS3505
ZBYN,1996-04-19 17:00,ZBYN 191700Z AUTO 00000KT 7SM 04/M08 A3027 RMK T00401080 IEM_DS3505
ZBYN,1996-04-19 18:00,ZBYN 191800Z AUTO 32002KT 6SM 04/M09 A3027 RMK SLP258 T00451094 52011 IEM_DS3505
ZBYN,1996-04-19 19:00,ZBYN 191900Z AUTO 00000KT 7SM 04/M05 A3027 RMK T00401050 IEM_DS3505
ZBYN,1996-04-19 20:00,ZBYN 192000Z AUTO 03006KT 7SM 03/M08 A3030 RMK T00301080 IEM_DS3505
ZBYN,1996-04-19 21:00,ZBYN 192100Z AUTO 36002KT 6SM 02/M10 RMK SLP270 T00161097 52006 IEM_DS3505
ZBYN,1996-04-19 22:00,ZBYN 192200Z AUTO 05004KT 7SM 01/M09 A3030 RMK T00101090 IEM_DS3505
ZBYN,1996-04-19 23:00,ZBYN 192300Z AUTO 00000KT 7SM 01/M09 A3033 RMK T00101090 IEM_DS3505
ZBYN,1996-04-20 00:00,ZBYN 200000Z AUTO 07004KT 6SM 07/M13 A3033 RMK SLP285 T00671133 52016 IEM_DS3505
ZBYN,1996-04-20 01:00,ZBYN 200100Z AUTO 34004KT 6SM 08/M15 A3033 RMK T00801150 IEM_DS3505
ZBYN,1996-04-20 02:00,ZBYN 200200Z AUTO 36012KT 6SM 10/M17 A3036 RMK T01001170 IEM_DS3505
ZBYN,1996-04-20 03:00,ZBYN 200300Z AUTO 36006KT 12SM 12/M19 A3033 RMK SLP284 T01181186 54000 IEM_DS3505
ZBYN,1996-04-20 04:00,ZBYN 200400Z AUTO 36010KT 6SM 13/M12 A3033 RMK T01301120 IEM_DS3505
ZBYN,1996-04-20 05:00,ZBYN 200500Z AUTO 36014KT 6SM 14/M12 A3027 RMK T01401120 IEM_DS3505
ZBYN,1996-04-20 06:00,ZBYN 200600Z AUTO 36012KT 11SM 16/M16 A3027 RMK SLP245 T01561156 57034 IEM_DS3505
ZBYN,1996-04-20 07:00,ZBYN 200700Z AUTO 02010KT 6SM 16/M10 A3024 RMK T01601100 IEM_DS3505
ZBYN,1996-04-20 08:00,ZBYN 200800Z AUTO 05008KT 7SM 16/M13 A3021 RMK T01601130 IEM_DS3505
ZBYN,1996-04-20 09:00,ZBYN 200900Z AUTO 34004KT 12SM 16/M15 A3021 RMK SLP247 T01581148 57002 IEM_DS3505
ZBYN,1996-04-20 10:00,ZBYN 201000Z AUTO 01008KT 6SM 15/M10 A3021 RMK T01501100 IEM_DS3505
ZBYN,1996-04-20 11:00,ZBYN 201100Z AUTO 00000KT 6SM 14/M08 A3024 RMK T01401080 IEM_DS3505
ZBYN,1996-04-20 12:00,ZBYN 201200Z AUTO 00000KT 9SM 12/M08 A3027 RMK SLP259 T01171075 52012 IEM_DS3505
ZBYN,1996-04-20 13:00,ZBYN 201300Z AUTO 28002KT 6SM 11/M04 A3030 RMK T01101040 IEM_DS3505
ZBYN,1996-04-20 14:00,ZBYN 201400Z AUTO 00000KT 7SM 08/M05 A3030 RMK T00801050 IEM_DS3505
ZBYN,1996-04-20 15:00,ZBYN 201500Z AUTO 09002KT 9SM 06/M04 A3030 RMK SLP270 T00571040 52009 IEM_DS3505
ZBYN,1996-04-20 16:00,ZBYN 201600Z AUTO 00000KT 7SM 04/M06 A3030 RMK T00401060 IEM_DS3505
ZBYN,1996-04-20 17:00,ZBYN 201700Z AUTO 07004KT 7SM 03/M08 A3030 RMK T00301080 IEM_DS3505
ZBYN,1996-04-20 18:00,ZBYN 201800Z AUTO 00000KT 9SM 02/M07 A3030 RMK SLP277 T00201068 52006 IEM_DS3505
ZBYN,1996-04-20 19:00,ZBYN 201900Z AUTO 09006KT 7SM 01/M09 A3030 RMK T00101090 IEM_DS3505
ZBYN,1996-04-20 20:00,ZBYN 202000Z AUTO 09006KT 7SM 01/M08 A3030 RMK T00101080 IEM_DS3505
ZBYN,1996-04-20 21:00,ZBYN 202100Z AUTO 00000KT 6SM 01/M06 A3027 RMK SLP272 T00141064 57005 IEM_DS3505
ZBYN,1996-04-20 22:00,ZBYN 202200Z AUTO 09002KT 5SM 00/M07 A3027 RMK T00001070 IEM_DS3505
ZBYN,1996-04-20 23:00,ZBYN 202300Z AUTO 00000KT 5SM 01/M06 A3030 RMK T00101060 IEM_DS3505
ZBYN,1996-04-21 00:00,ZBYN 210000Z AUTO 16004KT 5SM 04/M07 A3030 RMK SLP277 T00381069 52002 IEM_DS3505
ZBYN,1996-04-21 01:00,ZBYN 210100Z AUTO 13006KT 4SM 10/M07 A3030 RMK T01001070 IEM_DS3505
ZBYN,1996-04-21 02:00,ZBYN 210200Z AUTO 20010KT 4SM 13/M08 A3027 RMK T01301080 IEM_DS3505
ZBYN,1996-04-21 03:00,ZBYN 210300Z AUTO 20008KT 5SM 14/M04 A3024 RMK SLP250 T01361044 57019 IEM_DS3505
ZBYN,1996-04-21 04:00,ZBYN 210400Z AUTO 22014KT 4SM 18/M05 A3018 RMK T01801050 IEM_DS3505
ZBYN,1996-04-21 05:00,ZBYN 210500Z AUTO 19008KT 7SM 20/M07 A3015 RMK T02001070 IEM_DS3505
ZBYN,1996-04-21 06:00,ZBYN 210600Z AUTO 16010KT 6SM 19/M09 A3012 RMK SLP206 T01911089 57037 IEM_DS3505
ZBYN,1996-04-21 07:00,ZBYN 210700Z AUTO 22012KT 7SM 21/M10 A3006 RMK T02101100 IEM_DS3505
ZBYN,1996-04-21 09:00,ZBYN 210900Z AUTO 20010KT 12SM 21/M14 A3000 RMK SLP166 T02101142 57034 IEM_DS3505
ZBYN,1996-04-21 10:00,ZBYN 211000Z AUTO 23012KT 7SM 21/M09 A2997 RMK T02101090 IEM_DS3505
ZBYN,1996-04-21 11:00,ZBYN 211100Z AUTO 32012KT 6SM 19/M09 A2997 RMK T01901090 IEM_DS3505
ZBYN,1996-04-21 12:00,ZBYN 211200Z AUTO 32006KT 12SM 16/M06 A3000 RMK SLP169 T01551060 57002 IEM_DS3505
ZBYN,1996-04-21 13:00,ZBYN 211300Z AUTO 30006KT 7SM 14/M06 A3000 RMK T01401060 IEM_DS3505
ZBYN,1996-04-21 14:00,ZBYN 211400Z AUTO 14006KT 7SM 10/M04 A3003 RMK T01001040 IEM_DS3505
ZBYN,1996-04-21 15:00,ZBYN 211500Z AUTO 11010KT 12SM 08/M04 A3000 RMK SLP169 T00811039 52003 IEM_DS3505
ZBYN,1996-04-21 16:00,ZBYN 211600Z AUTO 11006KT 4SM 07/M02 A3000 RMK T00701020 IEM_DS3505
ZBYN,1996-04-21 17:00,ZBYN 211700Z AUTO 13006KT 4SM 07/00 A3000 RMK T00700000 IEM_DS3505
ZBYN,1996-04-21 18:00,ZBYN 211800Z AUTO 11010KT 12SM 08/M04 A3000 RMK SLP153 T00801044 57006 IEM_DS3505
ZBYN,1996-04-21 19:00,ZBYN 211900Z AUTO 12008KT 4SM 06/M02 A2997 RMK T00601020 IEM_DS3505
ZBYN,1996-04-21 20:00,ZBYN 212000Z AUTO 10006KT 4SM 05/M02 A2997 RMK T00501020 IEM_DS3505
ZBYN,1996-04-21 21:00,ZBYN 212100Z AUTO 00000KT 9SM 05/M03 A2994 RMK SLP141 T00511027 57013 IEM_DS3505
ZBYN,1996-04-21 22:00,ZBYN 212200Z AUTO 14008KT 4SM 03/M03 A2994 RMK T00301030 IEM_DS3505
ZBYN,1996-04-21 23:00,ZBYN 212300Z AUTO 12006KT 4SM 05/M02 A2997 RMK T00501020 IEM_DS3505
ZBYN,1996-04-22 00:00,ZBYN 220000Z AUTO 16002KT 6SM 07/M02 A2994 RMK SLP149 T00711019 52002 IEM_DS3505
ZBYN,1996-04-22 01:00,ZBYN 220100Z AUTO 12006KT 5SM 14/M02 A2994 RMK T01401020 IEM_DS3505
ZBYN,1996-04-22 02:00,ZBYN 220200Z AUTO 18008KT 5SM 16/M03 A2994 RMK T01601030 IEM_DS3505
ZBYN,1996-04-22 03:00,ZBYN 220300Z AUTO 16008KT 7SM 19/M01 A2991 RMK T01901010 IEM_DS3505
ZBYN,1996-04-22 04:00,ZBYN 220400Z AUTO 20010KT 7SM 22/M01 A2988 RMK T02201010 IEM_DS3505
ZBYN,1996-04-22 05:00,ZBYN 220500Z AUTO 22008KT 7SM 25/00 A2983 RMK T02500000 IEM_DS3505
ZBYN,1996-04-22 06:00,ZBYN 220600Z AUTO 18010KT 6SM 26/00 A2980 RMK SLP086 T02600000 57030 IEM_DS3505
ZBYN,1996-04-22 07:00,ZBYN 220700Z AUTO 20010KT 6SM 27/M03 A2977 RMK T02701030 IEM_DS3505
ZBYN,1996-04-22 08:00,ZBYN 220800Z AUTO 18012KT 6SM 27/M01 A2977 RMK T02701010 IEM_DS3505
ZBYN,1996-04-22 09:00,ZBYN 220900Z AUTO 18010KT 6SM 25/M05 A2977 RMK SLP070 T02531052 57018 IEM_DS3505
ZBYN,1996-04-22 10:00,ZBYN 221000Z AUTO 20008KT 6SM 25/00 A2974 RMK T02500000 IEM_DS3505
ZBYN,1996-04-22 11:00,ZBYN 221100Z AUTO 22006KT 7SM 23/M01 A2974 RMK T02301010 IEM_DS3505
ZBYN,1996-04-22 12:00,ZBYN 221200Z AUTO 22010KT 6SM 20/M01 A2977 RMK SLP069 T02031010 57005 IEM_DS3505
ZBYN,1996-04-22 13:00,ZBYN 221300Z AUTO 00000KT 7SM 18/02 A2977 RMK T01800020 IEM_DS3505
ZBYN,1996-04-22 14:00,ZBYN 221400Z AUTO 12006KT 7SM 15/03 A2980 RMK T01500030 IEM_DS3505
ZBYN,1996-04-22 15:00,ZBYN 221500Z AUTO 11008KT 6SM 13/00 A2983 RMK SLP087 T01320002 52022 IEM_DS3505
ZBYN,1996-04-22 16:00,ZBYN 221600Z AUTO 08006KT 7SM 11/02 A2983 RMK T01100020 IEM_DS3505
ZBYN,1996-04-22 17:00,ZBYN 221700Z AUTO 05006KT 7SM 11/01 A2985 RMK T01100010 IEM_DS3505
ZBYN,1996-04-22 18:00,ZBYN 221800Z AUTO 09006KT 7SM 10/01 A2983 RMK T01000010 IEM_DS3505
ZBYN,1996-04-22 19:00,ZBYN 221900Z AUTO 08004KT 7SM 09/01 A2983 RMK T00900010 IEM_DS3505
ZBYN,1996-04-22 20:00,ZBYN 222000Z AUTO 00000KT 7SM 09/01 A2983 RMK T00900010 IEM_DS3505
ZBYN,1996-04-22 21:00,ZBYN 222100Z AUTO 34002KT 6SM 08/01 A2985 RMK SLP091 T00790011 52001 IEM_DS3505
ZBYN,1996-04-22 22:00,ZBYN 222200Z AUTO 00000KT 7SM 06/01 A2985 RMK T00600010 IEM_DS3505
ZBYN,1996-04-22 23:00,ZBYN 222300Z AUTO 10004KT 6SM 06/02 A2985 RMK T00600020 IEM_DS3505
ZBYN,1996-04-23 00:00,ZBYN 230000Z AUTO 34004KT 5SM 11/M01 A2985 RMK SLP103 T01131009 52009 IEM_DS3505
ZBYN,1996-04-23 01:00,ZBYN 230100Z AUTO 00000KT 6SM 15/01 A2988 RMK T01500010 IEM_DS3505
ZBYN,1996-04-23 02:00,ZBYN 230200Z AUTO 17004KT 6SM 21/00 A2985 RMK T02100000 IEM_DS3505
ZBYN,1996-04-23 03:00,ZBYN 230300Z AUTO 18008KT 4SM 20/M01 A2985 RMK SLP097 T02051014 57003 IEM_DS3505
ZBYN,1996-04-23 05:00,ZBYN 230500Z AUTO 19010KT 7SM 27/00 RMK T02700000 IEM_DS3505
ZBYN,1996-04-23 06:00,ZBYN 230600Z AUTO 20014KT 6SM 26/M06 A2977 RMK SLP064 T02651065 57027 IEM_DS3505
ZBYN,1996-04-23 07:00,ZBYN 230700Z AUTO 21012KT 6SM 20/M05 A2974 RMK T02001050 IEM_DS3505
ZBYN,1996-04-23 08:00,ZBYN 230800Z AUTO 27010KT 6SM 20/M05 A2971 RMK T02001050 IEM_DS3505
ZBYN,1996-04-23 09:00,ZBYN 230900Z AUTO 22008KT 7SM 28/00 RMK SLP044 T02750001 57019 IEM_DS3505
ZBYN,1996-04-23 10:00,ZBYN 231000Z AUTO 24008KT 6SM 27/M01 A2971 RMK T02701010 IEM_DS3505
ZBYN,1996-04-23 11:00,ZBYN 231100Z AUTO 21008KT 6SM 25/00 A2971 RMK T02500000 IEM_DS3505
ZBYN,1996-04-23 12:00,ZBYN 231200Z AUTO 20008KT 6SM 23/02 A2974 RMK SLP059 T02280018 52012 IEM_DS3505
ZBYN,1996-04-23 13:00,ZBYN 231300Z AUTO 09004KT 6SM 19/06 A2977 RMK T01900060 IEM_DS3505
ZBYN,1996-04-23 14:00,ZBYN 231400Z AUTO 07006KT 6SM 17/05 A2980 RMK T01700050 IEM_DS3505
ZBYN,1996-04-23 15:00,ZBYN 231500Z AUTO 04006KT 6SM 19/02 A2983 RMK SLP084 T01870019 52030 IEM_DS3505
ZBYN,1996-04-23 16:00,ZBYN 231600Z AUTO 36006KT 6SM 19/02 A2985 RMK T01900020 IEM_DS3505
ZBYN,1996-04-23 17:00,ZBYN 231700Z AUTO 34012KT 6SM 20/M01 A2985 RMK T02001010 IEM_DS3505
ZBYN,1996-04-23 18:00,ZBYN 231800Z AUTO 34008KT 6SM 19/M03 A2988 RMK SLP092 T01881026 52016 IEM_DS3505
ZBYN,1996-04-23 19:00,ZBYN 231900Z AUTO 35006KT 6SM 17/M04 A2991 RMK T01701040 IEM_DS3505
ZBYN,1996-04-23 20:00,ZBYN 232000Z AUTO 01006KT 6SM 16/M08 A2991 RMK T01601080 IEM_DS3505
ZBYN,1996-04-23 21:00,ZBYN 232100Z AUTO 02010KT 6SM 16/M04 A2991 RMK SLP106 T01601035 52010 IEM_DS3505
ZBYN,1996-04-23 22:00,ZBYN 232200Z AUTO 36012KT 6SM 15/M02 A2994 RMK T01501020 IEM_DS3505
ZBYN,1996-04-23 23:00,ZBYN 232300Z AUTO 34014KT 6SM 15/M16 A2997 RMK T01501160 IEM_DS3505
ZBYN,1996-04-24 00:00,ZBYN 240000Z AUTO 34012KT 6SM 15/M16 A3000 RMK SLP150 T01461159 52032 IEM_DS3505
ZBYN,1996-04-24 01:00,ZBYN 240100Z AUTO 34019KT 6SM 15/M20 A3003 RMK T01501200 IEM_DS3505
ZBYN,1996-04-24 02:00,ZBYN 240200Z AUTO 33014KT 6SM 16/M15 A3003 RMK T01601150 IEM_DS3505
ZBYN,1996-04-24 03:00,ZBYN 240300Z AUTO 36012KT 7SM 17/ A3006 RMK SLP165 52012 IEM_DS3505
ZBYN,1996-04-24 04:00,ZBYN 240400Z AUTO 36010KT 6SM 19/M14 A3006 RMK T01901140 IEM_DS3505
ZBYN,1996-04-24 05:00,ZBYN 240500Z AUTO 31014KT 6SM 21/M10 A3003 RMK T02101100 IEM_DS3505
ZBYN,1996-04-24 06:00,ZBYN 240600Z AUTO 34010KT 6SM 21/M18 A3000 RMK SLP140 T02111178 57018 IEM_DS3505
ZBYN,1996-04-24 07:00,ZBYN 240700Z AUTO 31010KT 6SM 21/M10 A2997 RMK T02101100 IEM_DS3505
ZBYN,1996-04-24 08:00,ZBYN 240800Z AUTO 32006KT 6SM 21/M11 A2994 RMK T02101110 IEM_DS3505
ZBYN,1996-04-24 09:00,ZBYN 240900Z AUTO 36006KT 6SM 20/M11 A2994 RMK SLP130 T02041110 57014 IEM_DS3505
ZBYN,1996-04-24 10:00,ZBYN 241000Z AUTO 09012KT 6SM 20/M03 A2994 RMK T02001030 IEM_DS3505
ZBYN,1996-04-24 11:00,ZBYN 241100Z AUTO 09008KT 6SM 18/M03 A2997 RMK T01801030 IEM_DS3505
ZBYN,1996-04-24 12:00,ZBYN 241200Z AUTO 04004KT 6SM 17/M11 A2997 RMK SLP144 T01731106 52007 IEM_DS3505
ZBYN,1996-04-24 13:00,ZBYN 241300Z AUTO 09012KT 6SM 15/M03 A3000 RMK T01501030 IEM_DS3505
ZBYN,1996-04-24 14:00,ZBYN 241400Z AUTO 09008KT 6SM 14/M05 A3003 RMK T01401050 IEM_DS3505
ZBYN,1996-04-24 15:00,ZBYN 241500Z AUTO 34004KT 6SM 15/M11 A3003 RMK SLP164 T01471109 52018 IEM_DS3505
ZBYN,1996-04-24 16:00,ZBYN 241600Z AUTO 08004KT 6SM 13/M05 A3006 RMK T01301050 IEM_DS3505
ZBYN,1996-04-24 17:00,ZBYN 241700Z AUTO 09004KT 7SM 11/M03 A3003 RMK T01101030 IEM_DS3505
ZBYN,1996-04-24 18:00,ZBYN 241800Z AUTO 34004KT 6SM 10/M03 A3000 RMK SLP161 T00961033 57005 IEM_DS3505
ZBYN,1996-04-24 19:00,ZBYN 241900Z AUTO 08004KT 7SM 11/M04 A3000 RMK T01101040 IEM_DS3505
ZBYN,1996-04-24 20:00,ZBYN 242000Z AUTO 00000KT 3SM 09/M04 A3000 RMK T00901040 IEM_DS3505
ZBYN,1996-04-24 21:00,ZBYN 242100Z AUTO 32004KT 6SM 08/M06 A3000 RMK SLP153 T00811063 57010 IEM_DS3505
ZBYN,1996-04-24 22:00,ZBYN 242200Z AUTO 32004KT 4SM 08/M04 A3000 RMK T00801040 IEM_DS3505
ZBYN,1996-04-24 23:00,ZBYN 242300Z AUTO 00000KT 4SM 09/M03 A3003 RMK T00901030 IEM_DS3505
ZBYN,1996-04-25 00:00,ZBYN 250000Z AUTO 34004KT 5SM 12/M09 A3003 RMK SLP164 T01201093 52011 IEM_DS3505
ZBYN,1996-04-25 01:00,ZBYN 250100Z AUTO 00000KT 5SM 14/M06 A3003 RMK T01401060 IEM_DS3505
ZBYN,1996-04-25 02:00,ZBYN 250200Z AUTO 00000KT 7SM 18/M08 A3003 RMK T01801080 IEM_DS3505
ZBYN,1996-04-25 03:00,ZBYN 250300Z AUTO 18004KT 5SM 19/M11 A3003 RMK SLP156 T01901111 57001 IEM_DS3505
ZBYN,1996-04-25 04:00,ZBYN 250400Z AUTO 00000KT 7SM 22/M03 A3000 RMK T02201030 IEM_DS3505
ZBYN,1996-04-25 05:00,ZBYN 250500Z AUTO 24006KT 7SM 22/M03 A2994 RMK T02201030 IEM_DS3505
ZBYN,1996-04-25 06:00,ZBYN 250600Z AUTO 18010KT 5SM 23/M06 A2991 RMK SLP121 T02311060 57031 IEM_DS3505
ZBYN,1996-04-25 07:00,ZBYN 250700Z AUTO 19012KT 7SM 25/M03 A2988 RMK T02501030 IEM_DS3505
ZBYN,1996-04-25 08:00,ZBYN 250800Z AUTO 20008KT 7SM 26/M02 A2985 RMK T02601020 IEM_DS3505
ZBYN,1996-04-25 09:00,ZBYN 250900Z AUTO 20008KT 5SM 24/M06 A2985 RMK SLP100 T02391063 57020 IEM_DS3505
ZBYN,1996-04-25 10:00,ZBYN 251000Z AUTO 20004KT 7SM 24/M01 A2985 RMK T02401010 IEM_DS3505
ZBYN,1996-04-25 11:00,ZBYN 251100Z AUTO 22004KT 7SM 21/04 A2985 RMK T02100040 IEM_DS3505
ZBYN,1996-04-25 12:00,ZBYN 251200Z AUTO 00000KT 6SM 19/03 A2985 RMK SLP102 T01860030 57001 IEM_DS3505
ZBYN,1996-04-25 13:00,ZBYN 251300Z AUTO 09004KT 6SM 15/03 A2988 RMK T01500030 IEM_DS3505
ZBYN,1996-04-25 14:00,ZBYN 251400Z AUTO 17008KT 7SM 15/M01 A2991 RMK T01501010 IEM_DS3505
ZBYN,1996-04-25 15:00,ZBYN 251500Z AUTO 00000KT 6SM 14/02 A2991 RMK SLP116 T01420017 52017 IEM_DS3505
ZBYN,1996-04-25 16:00,ZBYN 251600Z AUTO 17006KT 7SM 14/02 A2994 RMK T01400020 IEM_DS3505
ZBYN,1996-04-25 18:00,ZBYN 251800Z AUTO 32002KT 6SM 12/04 A2993 RMK SLP117 T01180037 52003 IEM_DS3505
ZBYN,1996-04-25 19:00,ZBYN 251900Z AUTO 00000KT 7SM 13/02 A2991 RMK T01300020 IEM_DS3505
ZBYN,1996-04-25 21:00,ZBYN 252100Z AUTO 00000KT 6SM 11/02 A2991 RMK SLP116 T01090025 57001 IEM_DS3505
ZBYN,1996-04-25 22:00,ZBYN 252200Z AUTO 00000KT 6SM 11/02 A2994 RMK T01100020 IEM_DS3505
ZBYN,1996-04-25 23:00,ZBYN 252300Z AUTO 00000KT 6SM 12/03 A2994 RMK T01200030 IEM_DS3505
ZBYN,1996-04-26 00:00,ZBYN 260000Z AUTO 34004KT 6SM 15/00 A2997 RMK SLP132 T01500001 52013 IEM_DS3505
ZBYN,1996-04-26 01:00,ZBYN 260100Z AUTO 00000KT 2SM 18/03 A2997 RMK T01800030 IEM_DS3505
ZBYN,1996-04-26 02:00,ZBYN 260200Z AUTO 00000KT 4SM 20/04 A2997 RMK T02000040 IEM_DS3505
ZBYN,1996-04-26 03:00,ZBYN 260300Z AUTO 00000KT 5SM 22/03 A2994 RMK SLP127 T02210027 57001 IEM_DS3505
ZBYN,1996-04-26 04:00,ZBYN 260400Z AUTO 00000KT 5SM 24/04 A2991 RMK T02400040 IEM_DS3505
ZBYN,1996-04-26 05:00,ZBYN 260500Z AUTO 18006KT 5SM 25/04 A2988 RMK T02500040 IEM_DS3505
ZBYN,1996-04-26 06:00,ZBYN 260600Z AUTO 22004KT 5SM 26/02 A2985 RMK SLP097 T02580015 57025 IEM_DS3505
ZBYN,1996-04-26 07:00,ZBYN 260700Z AUTO 00000KT 5SM 27/01 A2983 RMK T02700010 IEM_DS3505
ZBYN,1996-04-26 08:00,ZBYN 260800Z AUTO 00000KT 6SM 27/01 A2983 RMK T02700010 IEM_DS3505
ZBYN,1996-04-26 09:00,ZBYN 260900Z AUTO 22002KT 6SM 26/01 A2980 RMK SLP078 T02650012 57018 IEM_DS3505
ZBYN,1996-04-26 10:00,ZBYN 261000Z AUTO 00000KT 6SM 26/03 A2980 RMK T02600030 IEM_DS3505
ZBYN,1996-04-26 11:00,ZBYN 261100Z AUTO 00000KT 6SM 24/02 A2983 RMK T02400020 IEM_DS3505
ZBYN,1996-04-26 12:00,ZBYN 261200Z AUTO 09008KT 6SM 23/03 A2983 RMK SLP080 T02300028 52003 IEM_DS3505
ZBYN,1996-04-26 13:00,ZBYN 261300Z AUTO 07014KT 6SM 21/02 A2985 RMK T02100020 IEM_DS3505
ZBYN,1996-04-26 14:00,ZBYN 261400Z AUTO 09012KT 6SM 20/04 A2985 RMK T02000040 IEM_DS3505
ZBYN,1996-04-26 15:00,ZBYN 261500Z AUTO 14010KT 6SM 20/04 A2988 RMK SLP087 T02010042 52012 IEM_DS3505
ZBYN,1996-04-26 16:00,ZBYN 261600Z AUTO 07004KT 6SM 18/05 A2988 RMK T01800050 IEM_DS3505
ZBYN,1996-04-26 17:00,ZBYN 261700Z AUTO 07008KT 6SM 17/06 A2988 RMK T01700060 IEM_DS3505
ZBYN,1996-04-26 18:00,ZBYN 261800Z AUTO 11004KT 6SM 16/07 A2988 RMK SLP090 T01640069 52003 IEM_DS3505
ZBYN,1996-04-26 19:00,ZBYN 261900Z AUTO 07006KT 6SM 16/06 A2988 RMK T01600060 IEM_DS3505
ZBYN,1996-04-26 20:00,ZBYN 262000Z AUTO 09008KT 6SM 16/06 A2988 RMK T01600060 IEM_DS3505
ZBYN,1996-04-26 21:00,ZBYN 262100Z AUTO 00000KT 6SM 15/07 A2985 RMK SLP088 T01460068 57003 IEM_DS3505
ZBYN,1996-04-26 22:00,ZBYN 262200Z AUTO 00000KT 5SM 14/08 A2988 RMK T01400080 IEM_DS3505
ZBYN,1996-04-26 23:00,ZBYN 262300Z AUTO 00000KT 5SM 15/09 A2988 RMK T01500090 IEM_DS3505
ZBYN,1996-04-27 00:00,ZBYN 270000Z AUTO 34004KT 5SM 15/08 A2988 RMK SLP102 T01530081 52009 IEM_DS3505
ZBYN,1996-04-27 01:00,ZBYN 270100Z AUTO 33004KT 2SM 19/08 A2988 RMK T01900080 IEM_DS3505
ZBYN,1996-04-27 02:00,ZBYN 270200Z AUTO 35006KT 3SM 22/08 A2988 RMK T02200080 IEM_DS3505
ZBYN,1996-04-27 03:00,ZBYN 270300Z AUTO 25004KT 5SM 22/07 A2985 RMK SLP089 T02220069 57007 IEM_DS3505
ZBYN,1996-04-27 04:00,ZBYN 270400Z AUTO 21006KT 4SM 25/06 A2985 RMK T02500060 IEM_DS3505
ZBYN,1996-04-27 05:00,ZBYN 270500Z AUTO 14008KT 6SM 27/08 A2980 RMK T02700080 IEM_DS3505
ZBYN,1996-04-27 06:00,ZBYN 270600Z AUTO 18014KT 6SM 23/06 A2980 RMK SLP071 T02260065 57021 IEM_DS3505
ZBYN,1996-04-27 07:00,ZBYN 270700Z AUTO 21008KT 7SM 23/07 A2980 RMK T02300070 IEM_DS3505
ZBYN,1996-04-27 08:00,ZBYN 270800Z AUTO 16010KT 6SM 22/10 A2980 RMK T02200100 IEM_DS3505
ZBYN,1996-04-27 09:00,ZBYN 270900Z AUTO 14008KT 9SM 20/08 A2980 RMK SLP073 T02050075 57004 IEM_DS3505
ZBYN,1996-04-27 10:00,ZBYN 271000Z AUTO 16008KT 7SM 19/11 A2980 RMK T01900110 IEM_DS3505
ZBYN,1996-04-27 11:00,ZBYN 271100Z AUTO 00000KT 7SM 16/14 A2983 RMK T01600140 IEM_DS3505
ZBYN,1996-04-27 12:00,ZBYN 271200Z AUTO 00000KT 6SM 16/13 A2983 RMK 60002 SLP095 T01560130 52014 IEM_DS3505
ZBYN,1996-04-27 13:00,ZBYN 271300Z AUTO 07008KT 7SM 15/13 A2985 RMK T01500130 IEM_DS3505
ZBYN,1996-04-27 14:00,ZBYN 271400Z AUTO 08004KT 7SM 15/12 A2985 RMK T01500120 IEM_DS3505
ZBYN,1996-04-27 15:00,ZBYN 271500Z AUTO 34006KT 6SM 14/13 A2985 RMK SLP093 T01440128 52007 IEM_DS3505
ZBYN,1996-04-27 16:00,ZBYN 271600Z AUTO 32004KT 4SM 15/13 A2985 RMK T01500130 IEM_DS3505
ZBYN,1996-04-27 17:00,ZBYN 271700Z AUTO 00000KT 4SM 14/12 A2983 RMK T01400120 IEM_DS3505
ZBYN,1996-04-27 18:00,ZBYN 271800Z AUTO 34004KT 6SM 14/13 A2980 RMK 60001 SLP072 T01420126 57019 IEM_DS3505
ZBYN,1996-04-27 19:00,ZBYN 271900Z AUTO 00000KT 4SM 14/12 A2980 RMK T01400120 IEM_DS3505
ZBYN,1996-04-27 20:00,ZBYN 272000Z AUTO 00000KT 4SM 14/12 A2977 RMK T01400120 IEM_DS3505
ZBYN,1996-04-27 21:00,ZBYN 272100Z AUTO 32004KT 6SM 14/12 A2977 RMK 70008 SLP066 T01390119 57009 IEM_DS3505
ZBYN,1996-04-27 22:00,ZBYN 272200Z AUTO 00000KT 4SM 14/12 A2977 RMK T01400120 IEM_DS3505
ZBYN,1996-04-27 23:00,ZBYN 272300Z AUTO 03004KT 4SM 15/12 A2977 RMK T01500120 IEM_DS3505
ZBYN,1996-04-28 00:00,ZBYN 280000Z AUTO 36006KT 5SM 15/11 A2977 RMK 70008 SLP077 T01460114 52004 IEM_DS3505
ZBYN,1996-04-28 01:00,ZBYN 280100Z AUTO 01006KT 3SM 15/12 A2977 RMK T01500120 IEM_DS3505
ZBYN,1996-04-28 02:00,ZBYN 280200Z AUTO 34002KT 2SM 14/12 A2980 RMK T01400120 IEM_DS3505
ZBYN,1996-04-28 03:00,ZBYN 280300Z AUTO 32004KT 4SM 13/12 A2980 RMK SLP083 T01320125 52002 IEM_DS3505
ZBYN,1996-04-28 04:00,ZBYN 280400Z AUTO 02008KT 2SM 14/12 A2977 RMK T01400120 IEM_DS3505
ZBYN,1996-04-28 06:00,ZBYN 280600Z AUTO 36004KT 4SM 13/13 A2974 RMK 60051 SLP075 T01340129 57008 IEM_DS3505
ZBYN,1996-04-28 07:00,ZBYN 280700Z AUTO 02010KT 4SM 14/13 A2974 RMK T01400130 IEM_DS3505
ZBYN,1996-04-28 08:00,ZBYN 280800Z AUTO 04010KT 7SM 14/12 A2974 RMK T01400120 IEM_DS3505
ZBYN,1996-04-28 09:00,ZBYN 280900Z AUTO 02004KT 4SM 14/13 A2974 RMK SLP071 T01400130 57003 IEM_DS3505
ZBYN,1996-04-28 10:00,ZBYN 281000Z AUTO 06004KT 7SM 13/11 A2974 RMK T01300110 IEM_DS3505
ZBYN,1996-04-28 11:00,ZBYN 281100Z AUTO 02006KT 7SM 13/11 A2977 RMK T01300110 IEM_DS3505
ZBYN,1996-04-28 12:00,ZBYN 281200Z AUTO 36008KT 4SM 14/11 A2977 RMK 60031 SLP079 T01370110 52008 IEM_DS3505
ZBYN,1996-04-28 13:00,ZBYN 281300Z AUTO 01002KT 7SM 13/11 A2980 RMK T01300110 IEM_DS3505
ZBYN,1996-04-28 14:00,ZBYN 281400Z AUTO 02014KT 7SM 13/11 A2980 RMK T01300110 IEM_DS3505
ZBYN,1996-04-28 15:00,ZBYN 281500Z AUTO 36004KT 4SM 12/10 A2980 RMK SLP095 T01250105 52011 IEM_DS3505
ZBYN,1996-04-28 16:00,ZBYN 281600Z AUTO 02006KT 7SM 12/11 A2980 RMK T01200110 IEM_DS3505
ZBYN,1996-04-28 17:00,ZBYN 281700Z AUTO 02006KT 7SM 12/11 A2980 RMK T01200110 IEM_DS3505
ZBYN,1996-04-28 18:00,ZBYN 281800Z AUTO 00000KT 4SM 12/11 A2977 RMK 60000 SLP089 T01170108 57007 IEM_DS3505
ZBYN,1996-04-28 20:00,ZBYN 282000Z AUTO 33004KT 7SM 12/10 A2974 RMK T01200100 IEM_DS3505
ZBYN,1996-04-28 21:00,ZBYN 282100Z AUTO 02006KT 4SM 12/10 A2974 RMK 70083 SLP075 T01240102 57010 IEM_DS3505
ZBYN,1996-04-28 22:00,ZBYN 282200Z AUTO 20004KT 3SM 12/10 A2974 RMK T01200100 IEM_DS3505
ZBYN,1996-04-28 23:00,ZBYN 282300Z AUTO 00000KT 2SM 11/11 A2977 RMK T01100110 IEM_DS3505
ZBYN,1996-04-29 00:00,ZBYN 290000Z AUTO 02004KT 4SM 14/11 A2977 RMK 60000 70083 SLP082 T01360109 52007 IEM_DS3505
ZBYN,1996-04-29 01:00,ZBYN 290100Z AUTO 25006KT 1 1/2SM 14/11 A2980 RMK T01400110 IEM_DS3505
ZBYN,1996-04-29 02:00,ZBYN 290200Z AUTO 23006KT 2SM 16/11 A2980 RMK T01600110 IEM_DS3505
ZBYN,1996-04-29 03:00,ZBYN 290300Z AUTO 20006KT 6SM 17/12 A2977 RMK SLP073 T01720118 57004 IEM_DS3505
ZBYN,1996-04-29 04:00,ZBYN 290400Z AUTO 27004KT 4SM 19/11 A2974 RMK T01900110 IEM_DS3505
ZBYN,1996-04-29 05:00,ZBYN 290500Z AUTO 20008KT 5SM 21/12 A2971 RMK T02100120 IEM_DS3505
ZBYN,1996-04-29 06:00,ZBYN 290600Z AUTO 18008KT 6SM 22/12 A2968 RMK SLP040 T02210117 57025 IEM_DS3505
ZBYN,1996-04-29 07:00,ZBYN 290700Z AUTO 20004KT 7SM 24/11 A2968 RMK T02400110 IEM_DS3505
ZBYN,1996-04-29 08:00,ZBYN 290800Z AUTO 16008KT 7SM 24/12 A2965 RMK T02400120 IEM_DS3505
ZBYN,1996-04-29 09:00,ZBYN 290900Z AUTO 20010KT 6SM 23/12 A2965 RMK SLP024 T02270123 57012 IEM_DS3505
ZBYN,1996-04-29 10:00,ZBYN 291000Z AUTO 20008KT 7SM 24/12 A2965 RMK T02400120 IEM_DS3505
ZBYN,1996-04-29 11:00,ZBYN 291100Z AUTO 24004KT 6SM 21/13 A2965 RMK T02100130 IEM_DS3505
ZBYN,1996-04-29 12:00,ZBYN 291200Z AUTO 18006KT 6SM 19/12 A2968 RMK SLP037 T01910120 52008 IEM_DS3505
ZBYN,1996-04-29 13:00,ZBYN 291300Z AUTO 00000KT 7SM 17/14 A2971 RMK T01700140 IEM_DS3505
ZBYN,1996-04-29 14:00,ZBYN 291400Z AUTO 11006KT 7SM 16/13 A2971 RMK T01600130 IEM_DS3505
ZBYN,1996-04-29 15:00,ZBYN 291500Z AUTO 32004KT 6SM 14/12 A2971 RMK SLP051 T01450124 52011 IEM_DS3505
ZBYN,1996-04-29 16:00,ZBYN 291600Z AUTO 15008KT 7SM 14/12 A2974 RMK T01400120 IEM_DS3505
ZBYN,1996-04-29 17:00,ZBYN 291700Z AUTO 12006KT 7SM 14/11 A2974 RMK T01400110 IEM_DS3505
ZBYN,1996-04-29 18:00,ZBYN 291800Z AUTO 14004KT 6SM 13/11 A2974 RMK SLP051 T01300112 52005 IEM_DS3505
ZBYN,1996-04-29 19:00,ZBYN 291900Z AUTO 10004KT 7SM 12/10 A2971 RMK T01200100 IEM_DS3505
ZBYN,1996-04-29 20:00,ZBYN 292000Z AUTO 10004KT 7SM 12/10 A2971 RMK T01200100 IEM_DS3505
ZBYN,1996-04-29 21:00,ZBYN 292100Z AUTO 14002KT 3SM 11/10 A2974 RMK SLP053 T01110102 54000 IEM_DS3505
ZBYN,1996-04-29 22:00,ZBYN 292200Z AUTO 09004KT 1SM 11/11 A2974 RMK T01100110 IEM_DS3505
ZBYN,1996-04-29 23:00,ZBYN 292300Z AUTO 11004KT 1SM 13/11 A2974 RMK T01300110 IEM_DS3505
ZBYN,1996-04-30 00:00,ZBYN 300000Z AUTO 16004KT 2SM 13/12 A2977 RMK SLP066 T01330117 52010 IEM_DS3505
ZBYN,1996-04-30 01:00,ZBYN 300100Z AUTO 15004KT 1 1/4SM 17/13 A2974 RMK T01700130 IEM_DS3505
ZBYN,1996-04-30 03:00,ZBYN 300300Z AUTO 14006KT 2SM 20/14 A2977 RMK SLP064 T01990139 52001 IEM_DS3505
ZBYN,1996-04-30 04:00,ZBYN 300400Z AUTO 22006KT 1 1/2SM 24/14 A2974 RMK T02400140 IEM_DS3505
ZBYN,1996-04-30 05:00,ZBYN 300500Z AUTO 21008KT 1 1/2SM 24/13 A2971 RMK T02400130 IEM_DS3505
ZBYN,1996-04-30 06:00,ZBYN 300600Z AUTO 29010KT 5SM 22/11 A2972 RMK SLP044 T02220114 57017 IEM_DS3505
ZBYN,1996-04-30 07:00,ZBYN 300700Z AUTO 31023KT 7SM 22/06 A2971 RMK T02200060 IEM_DS3505
ZBYN,1996-04-30 08:00,ZBYN 300800Z AUTO 32019KT 7SM 19/06 A2977 RMK T01900060 IEM_DS3505
ZBYN,1996-04-30 09:00,ZBYN 300900Z AUTO 36008KT 7SM 18/06 A2977 RMK SLP078 T01770060 52022 IEM_DS3505
ZBYN,1996-04-30 10:00,ZBYN 301000Z AUTO 33006KT 7SM 18/08 A2980 RMK T01800080 IEM_DS3505
ZBYN,1996-04-30 11:00,ZBYN 301100Z AUTO 32006KT 6SM 18/07 A2980 RMK T01800070 IEM_DS3505
ZBYN,1996-04-30 12:00,ZBYN 301200Z AUTO 22004KT 7SM 15/08 A2983 RMK SLP094 T01500084 52014 IEM_DS3505
ZBYN,1996-04-30 13:00,ZBYN 301300Z AUTO 18006KT 7SM 14/09 A2985 RMK T01400090 IEM_DS3505
ZBYN,1996-04-30 14:00,ZBYN 301400Z AUTO 00000KT 6SM 13/09 A2985 RMK T01300090 IEM_DS3505
ZBYN,1996-04-30 15:00,ZBYN 301500Z AUTO 32002KT 6SM 13/09 A2985 RMK SLP103 T01260086 52014 IEM_DS3505
ZBYN,1996-04-30 16:00,ZBYN 301600Z AUTO 00000KT 7SM 11/09 A2988 RMK T01100090 IEM_DS3505
ZBYN,1996-04-30 17:00,ZBYN 301700Z AUTO 00000KT 7SM 11/09 A2988 RMK T01100090 IEM_DS3505
ZBYN,1996-04-30 18:00,ZBYN 301800Z AUTO 07006KT 6SM 11/08 A2988 RMK SLP107 T01060085 52004 IEM_DS3505
ZBYN,1996-04-30 19:00,ZBYN 301900Z AUTO 00000KT 6SM 10/09 A2988 RMK T01000090 IEM_DS3505
ZBYN,1996-04-30 20:00,ZBYN 302000Z AUTO 31016KT 6SM 13/02 A2988 RMK T01300020 IEM_DS3505
ZBYN,1996-04-30 21:00,ZBYN 302100Z AUTO 32006KT 6SM 12/M03 A2991 RMK SLP132 T01191027 52018 IEM_DS3505
ZBYN,1996-04-30 22:00,ZBYN 302200Z AUTO 30010KT 6SM 12/M04 A2994 RMK T01201040 IEM_DS3505
ZBYN,1996-04-30 23:00,ZBYN 302300Z AUTO 32012KT 7SM 12/M05 A3000 RMK T01201050 IEM_DS3505
ZBYN,1996-05-01 00:00,ZBYN 010000Z AUTO 32010KT 6SM 13/M03 A3003 RMK SLP160 T01281026 52023 IEM_DS3505
ZBYN,1996-05-01 01:00,ZBYN 010100Z AUTO 01016KT 7SM 13/M04 A3003 RMK T01301040 IEM_DS3505
ZBYN,1996-05-01 02:00,ZBYN 010200Z AUTO 33010KT 7SM 15/M02 A3003 RMK T01501020 IEM_DS3505
ZBYN,1996-05-01 03:00,ZBYN 010300Z AUTO 36008KT 6SM 17/M04 A3003 RMK SLP167 T01671038 52009 IEM_DS3505
ZBYN,1996-05-01 04:00,ZBYN 010400Z AUTO 32010KT 7SM 18/M02 A3003 RMK T01801020 IEM_DS3505
ZBYN,1996-05-01 05:00,ZBYN 010500Z AUTO 30004KT 7SM 19/M02 A3000 RMK T01901020 IEM_DS3505
ZBYN,1996-05-01 06:00,ZBYN 010600Z AUTO 02004KT 6SM 20/M00 A3000 RMK SLP154 T01951005 57011 IEM_DS3505
ZBYN,1996-05-01 07:00,ZBYN 010700Z AUTO 21008KT 7SM 22/01 A2997 RMK T02200010 IEM_DS3505
ZBYN,1996-05-01 08:00,ZBYN 010800Z AUTO 19006KT 7SM 22/00 A2994 RMK T02200000 IEM_DS3505
ZBYN,1996-05-01 09:00,ZBYN 010900Z AUTO 20006KT 6SM 20/M00 A2994 RMK SLP136 T01991004 57014 IEM_DS3505
ZBYN,1996-05-01 10:00,ZBYN 011000Z AUTO 24006KT 6SM 20/M01 A2997 RMK T02001010 IEM_DS3505
ZBYN,1996-05-01 11:00,ZBYN 011100Z AUTO 29006KT 6SM 19/01 A2997 RMK T01900010 IEM_DS3505
ZBYN,1996-05-01 12:00,ZBYN 011200Z AUTO 20004KT 6SM 16/04 A3000 RMK SLP152 T01650045 52011 IEM_DS3505
ZBYN,1996-05-01 13:00,ZBYN 011300Z AUTO 08004KT 6SM 14/06 A3003 RMK T01400060 IEM_DS3505
ZBYN,1996-05-01 14:00,ZBYN 011400Z AUTO 00000KT 6SM 13/07 A3003 RMK T01300070 IEM_DS3505
ZBYN,1996-05-01 15:00,ZBYN 011500Z AUTO 11004KT 6SM 12/06 A3003 RMK SLP171 T01170060 52016 IEM_DS3505
ZBYN,1996-05-01 16:00,ZBYN 011600Z AUTO 00000KT 6SM 10/06 A3006 RMK T01000060 IEM_DS3505
ZBYN,1996-05-01 17:00,ZBYN 011700Z AUTO 00000KT 6SM 10/06 A3006 RMK T01000060 IEM_DS3505
ZBYN,1996-05-01 18:00,ZBYN 011800Z AUTO 34004KT 6SM 11/03 A3003 RMK SLP168 T01130032 52001 IEM_DS3505
ZBYN,1996-05-01 19:00,ZBYN 011900Z AUTO 00000KT 6SM 10/05 A3006 RMK T01000050 IEM_DS3505
ZBYN,1996-05-01 20:00,ZBYN 012000Z AUTO 00000KT 6SM 09/05 A3003 RMK T00900050 IEM_DS3505
ZBYN,1996-05-01 21:00,ZBYN 012100Z AUTO 36004KT 6SM 11/02 A3003 RMK SLP169 T01060018 54000 IEM_DS3505
ZBYN,1996-05-01 22:00,ZBYN 012200Z AUTO 00000KT 6SM 08/05 A3006 RMK T00800050 IEM_DS3505
ZBYN,1996-05-01 23:00,ZBYN 012300Z AUTO 00000KT 6SM 10/05 A3006 RMK T01000050 IEM_DS3505
ZBYN,1996-05-02 00:00,ZBYN 020000Z AUTO 34006KT 5SM 13/04 A3009 RMK SLP182 T01270035 52010 IEM_DS3505
ZBYN,1996-05-02 01:00,ZBYN 020100Z AUTO 33004KT 4SM 16/03 A3009 RMK T01600030 IEM_DS3505
ZBYN,1996-05-02 02:00,ZBYN 020200Z AUTO 27004KT 5SM 17/03 A3009 RMK T01700030 IEM_DS3505
ZBYN,1996-05-02 03:00,ZBYN 020300Z AUTO 11008KT 5SM 18/02 A3009 RMK SLP185 T01800022 52004 IEM_DS3505
ZBYN,1996-05-02 04:00,ZBYN 020400Z AUTO 16012KT 6SM 20/04 A3006 RMK T02000040 IEM_DS3505
ZBYN,1996-05-02 05:00,ZBYN 020500Z AUTO 17008KT 6SM 20/03 A3003 RMK T02000030 IEM_DS3505
ZBYN,1996-05-02 06:00,ZBYN 020600Z AUTO 18008KT 6SM 20/04 A3000 RMK SLP153 T01990044 57027 IEM_DS3505
ZBYN,1996-05-02 07:00,ZBYN 020700Z AUTO 22016KT 7SM 20/02 A3000 RMK T02000020 IEM_DS3505
ZBYN,1996-05-02 08:00,ZBYN 020800Z AUTO 24016KT 6SM 18/04 A3000 RMK T01800040 IEM_DS3505
ZBYN,1996-05-02 09:00,ZBYN 020900Z AUTO 22012KT 6SM 16/04 A3000 RMK SLP164 T01550039 52002 IEM_DS3505
ZBYN,1996-05-02 10:00,ZBYN 021000Z AUTO 23016KT 7SM 14/06 A3006 RMK T01400060 IEM_DS3505
ZBYN,1996-05-02 11:00,ZBYN 021100Z AUTO 24010KT 7SM 12/09 A3006 RMK T01200090 IEM_DS3505
ZBYN,1996-05-02 12:00,ZBYN 021200Z AUTO 18006KT 5SM 11/07 A3006 RMK 60000 SLP187 T01060074 52017 IEM_DS3505
ZBYN,1996-05-02 13:00,ZBYN 021300Z AUTO 20006KT 7SM 11/07 A3009 RMK T01100070 IEM_DS3505
ZBYN,1996-05-02 14:00,ZBYN 021400Z AUTO 24008KT 7SM 10/07 A3006 RMK T01000070 IEM_DS3505
ZBYN,1996-05-02 15:00,ZBYN 021500Z AUTO 20006KT 5SM 10/06 A3006 RMK SLP178 T00990062 57001 IEM_DS3505
ZBYN,1996-05-02 16:00,ZBYN 021600Z AUTO 24006KT 7SM 10/06 A3006 RMK T01000060 IEM_DS3505
ZBYN,1996-05-02 17:00,ZBYN 021700Z AUTO 19008KT 7SM 10/06 A3006 RMK T01000060 IEM_DS3505
ZBYN,1996-05-02 18:00,ZBYN 021800Z AUTO 16004KT 6SM 09/06 A3003 RMK SLP170 T00910060 57006 IEM_DS3505
ZBYN,1996-05-02 19:00,ZBYN 021900Z AUTO 00000KT 7SM 09/06 A3000 RMK T00900060 IEM_DS3505
ZBYN,1996-05-02 20:00,ZBYN 022000Z AUTO 11004KT 6SM 09/06 A3000 RMK T00900060 IEM_DS3505
ZBYN,1996-05-02 21:00,ZBYN 022100Z AUTO 16004KT 6SM 09/06 A2997 RMK 70000 SLP156 T00860063 57020 IEM_DS3505
ZBYN,1996-05-02 22:00,ZBYN 022200Z AUTO 00000KT 7SM 09/06 A2997 RMK T00900060 IEM_DS3505
ZBYN,1996-05-02 23:00,ZBYN 022300Z AUTO 00000KT 6SM 10/06 A2997 RMK T01000060 IEM_DS3505
ZBYN,1996-05-03 00:00,ZBYN 030000Z AUTO 16002KT 6SM 10/06 A2997 RMK SLP160 T00950060 57002 IEM_DS3505
ZBYN,1996-05-03 01:00,ZBYN 030100Z AUTO 00000KT 6SM 10/05 A2997 RMK T01000050 IEM_DS3505
ZBYN,1996-05-03 02:00,ZBYN 030200Z AUTO 32002KT 6SM 11/05 A2997 RMK T01100050 IEM_DS3505
ZBYN,1996-05-03 03:00,ZBYN 030300Z AUTO 16004KT 6SM 12/06 A2997 RMK SLP159 T01240059 52002 IEM_DS3505
ZBYN,1996-05-03 04:00,ZBYN 030400Z AUTO 18004KT 6SM 15/07 A2994 RMK T01500070 IEM_DS3505
ZBYN,1996-05-03 05:00,ZBYN 030500Z AUTO 00000KT 7SM 16/07 A2991 RMK T01600070 IEM_DS3505
ZBYN,1996-05-03 06:00,ZBYN 030600Z AUTO 16008KT 6SM 16/07 A2991 RMK SLP129 T01560068 57024 IEM_DS3505
ZBYN,1996-05-03 07:00,ZBYN 030700Z AUTO 24006KT 7SM 16/07 A2988 RMK T01600070 IEM_DS3505
ZBYN,1996-05-03 08:00,ZBYN 030800Z AUTO 18006KT 7SM 17/08 A2985 RMK T01700080 IEM_DS3505
ZBYN,1996-05-03 09:00,ZBYN 030900Z AUTO 18004KT 6SM 16/08 A2985 RMK SLP119 T01610082 57009 IEM_DS3505
ZBYN,1996-05-03 10:00,ZBYN 031000Z AUTO 27006KT 7SM 17/08 A2985 RMK T01700080 IEM_DS3505
ZBYN,1996-05-03 11:00,ZBYN 031100Z AUTO 20004KT 7SM 17/08 A2985 RMK T01700080 IEM_DS3505
ZBYN,1996-05-03 12:00,ZBYN 031200Z AUTO 16006KT 6SM 14/09 A2988 RMK SLP121 T01380091 54000 IEM_DS3505
ZBYN,1996-05-03 13:00,ZBYN 031300Z AUTO 16002KT 7SM 13/07 A2988 RMK T01300070 IEM_DS3505
ZBYN,1996-05-03 14:00,ZBYN 031400Z AUTO 09004KT 7SM 12/05 A2994 RMK T01200050 IEM_DS3505
ZBYN,1996-05-03 15:00,ZBYN 031500Z AUTO 27004KT 6SM 12/09 A2994 RMK SLP138 T01190092 52017 IEM_DS3505
ZBYN,1996-05-03 16:00,ZBYN 031600Z AUTO 09004KT 7SM 10/04 A2991 RMK T01000040 IEM_DS3505
ZBYN,1996-05-03 17:00,ZBYN 031700Z AUTO 00000KT 7SM 10/03 A2991 RMK T01000030 IEM_DS3505
ZBYN,1996-05-03 18:00,ZBYN 031800Z AUTO 14004KT 6SM 10/08 A2993 RMK SLP133 T00950083 57003 IEM_DS3505
ZBYN,1996-05-03 19:00,ZBYN 031900Z AUTO 06006KT 7SM 09/04 A2991 RMK T00900040 IEM_DS3505
ZBYN,1996-05-03 20:00,ZBYN 032000Z AUTO 08006KT 7SM 08/05 A2994 RMK T00800050 IEM_DS3505
ZBYN,1996-05-03 21:00,ZBYN 032100Z AUTO 36004KT 4SM 08/07 A2994 RMK SLP137 T00830073 52002 IEM_DS3505
ZBYN,1996-05-03 22:00,ZBYN 032200Z AUTO 00000KT 2SM 07/07 A2994 RMK T00700070 IEM_DS3505
ZBYN,1996-05-03 23:00,ZBYN 032300Z AUTO 00000KT 2SM 09/08 A2997 RMK T00900080 IEM_DS3505
ZBYN,1996-05-04 00:00,ZBYN 040000Z AUTO 36004KT 2SM 11/09 A2997 RMK SLP154 T01140087 52017 IEM_DS3505
ZBYN,1996-05-04 01:00,ZBYN 040100Z AUTO 20004KT 2 1/2SM 14/09 A2997 RMK T01400090 IEM_DS3505
ZBYN,1996-05-04 02:00,ZBYN 040200Z AUTO 23002KT 2 1/2SM 17/09 A2997 RMK T01700090 IEM_DS3505
ZBYN,1996-05-04 04:00,ZBYN 040400Z AUTO 26002KT 4SM 21/08 A2994 RMK T02100080 IEM_DS3505
ZBYN,1996-05-04 05:00,ZBYN 040500Z AUTO 21006KT 5SM 22/09 A2988 RMK T02200090 IEM_DS3505
ZBYN,1996-05-04 06:00,ZBYN 040600Z AUTO 18008KT 5SM 22/07 A2989 RMK SLP108 T02210070 57027 IEM_DS3505
ZBYN,1996-05-04 07:00,ZBYN 040700Z AUTO 20008KT 7SM 25/08 A2983 RMK T02500080 IEM_DS3505
ZBYN,1996-05-04 08:00,ZBYN 040800Z AUTO 21008KT 7SM 26/09 A2980 RMK T02600090 IEM_DS3505
ZBYN,1996-05-04 09:00,ZBYN 040900Z AUTO 18010KT 5SM 24/08 A2977 RMK SLP074 T02440083 57029 IEM_DS3505
ZBYN,1996-05-04 10:00,ZBYN 041000Z AUTO 23002KT 7SM 25/10 A2974 RMK T02500100 IEM_DS3505
ZBYN,1996-05-04 11:00,ZBYN 041100Z AUTO 19004KT 7SM 23/11 A2974 RMK T02300110 IEM_DS3505
ZBYN,1996-05-04 12:00,ZBYN 041200Z AUTO 14012KT 5SM 21/10 A2980 RMK SLP070 T02130102 57004 IEM_DS3505
ZBYN,1996-05-04 13:00,ZBYN 041300Z AUTO 09023KT 7SM 17/08 A2985 RMK T01700080 IEM_DS3505
ZBYN,1996-05-04 14:00,ZBYN 041400Z AUTO 11021KT 6SM 16/08 A2988 RMK T01600080 IEM_DS3505
ZBYN,1996-05-04 15:00,ZBYN 041500Z AUTO 09004KT 6SM 16/08 A2985 RMK SLP099 T01610077 52029 IEM_DS3505
ZBYN,1996-05-04 16:00,ZBYN 041600Z AUTO 10012KT 7SM 14/09 A2985 RMK T01400090 IEM_DS3505
ZBYN,1996-05-04 17:00,ZBYN 041700Z AUTO 06004KT 7SM 14/09 A2985 RMK T01400090 IEM_DS3505
ZBYN,1996-05-04 18:00,ZBYN 041800Z AUTO 36004KT 6SM 13/09 A2983 RMK SLP091 T01310089 57006 IEM_DS3505
ZBYN,1996-05-04 19:00,ZBYN 041900Z AUTO 11004KT 7SM 12/09 A2983 RMK T01200090 IEM_DS3505
ZBYN,1996-05-04 20:00,ZBYN 042000Z AUTO 27004KT 7SM 12/09 A2985 RMK T01200090 IEM_DS3505
ZBYN,1996-05-04 21:00,ZBYN 042100Z AUTO 02002KT 6SM 12/09 A2985 RMK SLP090 T01190086 52001 IEM_DS3505
ZBYN,1996-05-04 22:00,ZBYN 042200Z AUTO 00000KT 4SM 11/09 A2983 RMK T01100090 IEM_DS3505
ZBYN,1996-05-04 23:00,ZBYN 042300Z AUTO 00000KT 2 1/2SM 12/09 A2985 RMK T01200090 IEM_DS3505
ZBYN,1996-05-05 00:00,ZBYN 050000Z AUTO 32002KT 5SM 14/09 A2985 RMK SLP091 T01380093 57001 IEM_DS3505
ZBYN,1996-05-05 01:00,ZBYN 050100Z AUTO 00000KT 2 1/2SM 17/10 A2983 RMK T01700100 IEM_DS3505
ZBYN,1996-05-05 02:00,ZBYN 050200Z AUTO 13008KT 4SM 20/10 A2983 RMK T02000100 IEM_DS3505
ZBYN,1996-05-05 03:00,ZBYN 050300Z AUTO 16010KT 5SM 19/09 A2983 RMK SLP083 T01890088 57008 IEM_DS3505
ZBYN,1996-05-05 04:00,ZBYN 050400Z AUTO 00000KT 6SM 23/11 A2980 RMK T02300110 IEM_DS3505
ZBYN,1996-05-05 05:00,ZBYN 050500Z AUTO 15008KT 6SM 23/10 A2974 RMK T02300100 IEM_DS3505
ZBYN,1996-05-05 06:00,ZBYN 050600Z AUTO 16002KT 6SM 22/08 A2974 RMK SLP055 T02210083 57025 IEM_DS3505
ZBYN,1996-05-05 07:00,ZBYN 050700Z AUTO 00000KT 6SM 23/08 A2971 RMK T02300080 IEM_DS3505
ZBYN,1996-05-05 08:00,ZBYN 050800Z AUTO 28004KT 6SM 23/08 A2968 RMK T02300080 IEM_DS3505
ZBYN,1996-05-05 09:00,ZBYN 050900Z AUTO 18006KT 6SM 23/08 A2968 RMK SLP037 T02260083 57017 IEM_DS3505
ZBYN,1996-05-05 10:00,ZBYN 051000Z AUTO 09014KT 6SM 19/11 A2968 RMK T01900110 IEM_DS3505
ZBYN,1996-05-05 11:00,ZBYN 051100Z AUTO 07008KT 2SM 17/12 A2974 RMK T01700120 IEM_DS3505
ZBYN,1996-05-05 12:00,ZBYN 051200Z AUTO 36012KT 3SM 14/12 A2980 RMK 60016 SLP089 T01410125 52038 IEM_DS3505
ZBYN,1996-05-05 13:00,ZBYN 051300Z AUTO 01014KT 5SM 14/10 A2983 RMK T01400100 IEM_DS3505
ZBYN,1996-05-05 14:00,ZBYN 051400Z AUTO 02012KT 7SM 14/10 A2985 RMK T01400100 IEM_DS3505
ZBYN,1996-05-05 15:00,ZBYN 051500Z AUTO 00000KT 9SM 13/11 A2985 RMK SLP097 T01320108 52013 IEM_DS3505
ZBYN,1996-05-05 16:00,ZBYN 051600Z AUTO 21004KT 7SM 13/11 A2985 RMK T01300110 IEM_DS3505
ZBYN,1996-05-05 17:00,ZBYN 051700Z AUTO 24006KT 7SM 13/12 A2988 RMK T01300120 IEM_DS3505
ZBYN,1996-05-05 18:00,ZBYN 051800Z AUTO 14004KT 6SM 12/11 A2986 RMK 60008 SLP093 T01230110 54000 IEM_DS3505
ZBYN,1996-05-05 19:00,ZBYN 051900Z AUTO 22004KT 6SM 12/11 A2983 RMK T01200110 IEM_DS3505
ZBYN,1996-05-05 20:00,ZBYN 052000Z AUTO 00000KT 6SM 12/11 A2983 RMK T01200110 IEM_DS3505
ZBYN,1996-05-05 21:00,ZBYN 052100Z AUTO 00000KT 6SM 11/10 A2983 RMK 70024 SLP090 T01090102 57004 IEM_DS3505
ZBYN,1996-05-05 22:00,ZBYN 052200Z AUTO 00000KT 1 1/4SM 10/10 A2983 RMK T01000100 IEM_DS3505
ZBYN,1996-05-05 23:00,ZBYN 052300Z AUTO 00000KT 2 1/2SM 12/11 A2985 RMK T01200110 IEM_DS3505
ZBYN,1996-05-06 00:00,ZBYN 060000Z AUTO 09004KT 5SM 12/11 A2985 RMK 70024 SLP114 T01170108 52010 IEM_DS3505
ZBYN,1996-05-06 01:00,ZBYN 060100Z AUTO 00000KT 2SM 14/12 A2985 RMK T01400120 IEM_DS3505
ZBYN,1996-05-06 02:00,ZBYN 060200Z AUTO 19004KT 2SM 16/12 A2985 RMK T01600120 IEM_DS3505
ZBYN,1996-05-06 03:00,ZBYN 060300Z AUTO 16006KT 5SM 18/08 A2985 RMK SLP098 T01840084 57006 IEM_DS3505
ZBYN,1996-05-06 04:00,ZBYN 060400Z AUTO 21008KT 5SM 21/06 A2983 RMK T02100060 IEM_DS3505
ZBYN,1996-05-06 05:00,ZBYN 060500Z AUTO 20002KT 6SM 23/04 A2980 RMK T02300040 IEM_DS3505
ZBYN,1996-05-06 06:00,ZBYN 060600Z AUTO 32010KT 6SM 23/00 A2980 RMK SLP071 T02340002 57019 IEM_DS3505
ZBYN,1996-05-06 07:00,ZBYN 060700Z AUTO 24014KT 6SM 23/03 A2977 RMK T02300030 IEM_DS3505
ZBYN,1996-05-06 08:00,ZBYN 060800Z AUTO 24014KT 6SM 23/03 A2977 RMK T02300030 IEM_DS3505
ZBYN,1996-05-06 09:00,ZBYN 060900Z AUTO 32014KT 7SM 23/M03 A2977 RMK SLP063 T02311034 57009 IEM_DS3505
ZBYN,1996-05-06 10:00,ZBYN 061000Z AUTO 25010KT 6SM 22/01 A2977 RMK T02200010 IEM_DS3505
ZBYN,1996-05-06 11:00,ZBYN 061100Z AUTO 27006KT 6SM 21/04 A2977 RMK T02100040 IEM_DS3505
ZBYN,1996-05-06 12:00,ZBYN 061200Z AUTO 32008KT 7SM 19/00 A2980 RMK SLP077 T01900001 52008 IEM_DS3505
ZBYN,1996-05-06 13:00,ZBYN 061300Z AUTO 34010KT 6SM 18/01 A2983 RMK T01800010 IEM_DS3505
ZBYN,1996-05-06 14:00,ZBYN 061400Z AUTO 30008KT 7SM 17/01 A2983 RMK T01700010 IEM_DS3505
ZBYN,1996-05-06 15:00,ZBYN 061500Z AUTO 22006KT 6SM 16/03 RMK SLP090 T01630032 52017 IEM_DS3505
ZBYN,1996-05-06 16:00,ZBYN 061600Z AUTO 27008KT 7SM 17/M01 A2983 RMK T01701010 IEM_DS3505
ZBYN,1996-05-06 17:00,ZBYN 061700Z AUTO 30010KT 7SM 16/M01 A2983 RMK T01601010 IEM_DS3505
ZBYN,1996-05-06 18:00,ZBYN 061800Z AUTO 34014KT 6SM 16/M04 A2985 RMK SLP091 T01561035 52007 IEM_DS3505
ZBYN,1996-05-06 19:00,ZBYN 061900Z AUTO 32010KT 6SM 15/M02 A2988 RMK T01501020 IEM_DS3505
ZBYN,1996-05-06 20:00,ZBYN 062000Z AUTO 31019KT 6SM 13/M03 A2988 RMK T01301030 IEM_DS3505
ZBYN,1996-05-06 21:00,ZBYN 062100Z AUTO 36006KT 6SM 12/M13 A2991 RMK SLP118 T01151131 52019 IEM_DS3505
ZBYN,1996-05-06 22:00,ZBYN 062200Z AUTO 32025KT 4SM 11/M13 A2988 RMK T01101130 IEM_DS3505
ZBYN,1996-05-06 23:00,ZBYN 062300Z AUTO 32016KT 5SM 11/M11 A2994 RMK T01101110 IEM_DS3505
ZBYN,1996-05-07 00:00,ZBYN 070000Z AUTO 32016KT 4SM 12/M10 A2997 RMK SLP136 T01161097 52010 IEM_DS3505
ZBYN,1996-05-07 01:00,ZBYN 070100Z AUTO 33014KT 5SM 13/M09 A2997 RMK T01301090 IEM_DS3505
ZBYN,1996-05-07 02:00,ZBYN 070200Z AUTO 29023KT 5SM 15/M10 A2997 RMK T01501100 IEM_DS3505
ZBYN,1996-05-07 03:00,ZBYN 070300Z AUTO 32010KT 5SM 15/M05 A2997 RMK SLP143 T01541053 52008 IEM_DS3505
ZBYN,1996-05-07 04:00,ZBYN 070400Z AUTO 29023KT 7SM 17/M10 A2994 RMK T01701100 IEM_DS3505
ZBYN,1996-05-07 05:00,ZBYN 070500Z AUTO 30025KT 7SM 17/M11 A2994 RMK T01701110 IEM_DS3505
ZBYN,1996-05-07 06:00,ZBYN 070600Z AUTO 32019KT 6SM 18/M07 A2991 RMK SLP123 T01811071 57015 IEM_DS3505
ZBYN,1996-05-07 07:00,ZBYN 070700Z AUTO 32023KT 7SM 19/M09 A2991 RMK T01901090 IEM_DS3505
ZBYN,1996-05-07 08:00,ZBYN 070800Z AUTO 30027KT 7SM 19/M10 A2991 RMK T01901100 IEM_DS3505
ZBYN,1996-05-07 09:00,ZBYN 070900Z AUTO 32012KT 11SM 17/M05 A2991 RMK SLP121 T01721053 57009 IEM_DS3505
ZBYN,1996-05-07 10:00,ZBYN 071000Z AUTO 32017KT 7SM 17/M07 A2988 RMK T01701070 IEM_DS3505
ZBYN,1996-05-07 11:00,ZBYN 071100Z AUTO 31016KT 7SM 16/M06 A2991 RMK T01601060 IEM_DS3505
ZBYN,1996-05-07 12:00,ZBYN 071200Z AUTO 32010KT 9SM 15/M08 A2994 RMK SLP133 T01491079 52008 IEM_DS3505
ZBYN,1996-05-07 13:00,ZBYN 071300Z AUTO 32019KT 7SM 15/M13 A2997 RMK T01501130 IEM_DS3505
ZBYN,1996-05-07 14:00,ZBYN 071400Z AUTO 31014KT 7SM 14/M11 A2997 RMK T01401110 IEM_DS3505
ZBYN,1996-05-07 15:00,ZBYN 071500Z AUTO 32004KT 7SM 12/M06 A2997 RMK SLP148 T01231065 52015 IEM_DS3505
ZBYN,1996-05-07 16:00,ZBYN 071600Z AUTO 29006KT 7SM 11/M05 A2997 RMK T01101050 IEM_DS3505
ZBYN,1996-05-07 17:00,ZBYN 071700Z AUTO 29006KT 7SM 10/M04 A2994 RMK T01001040 IEM_DS3505
ZBYN,1996-05-07 18:00,ZBYN 071800Z AUTO 34004KT 7SM 09/M03 A2994 RMK SLP144 T00901031 57004 IEM_DS3505
ZBYN,1996-05-07 19:00,ZBYN 071900Z AUTO 00000KT 7SM 06/00 A2997 RMK T00600000 IEM_DS3505
ZBYN,1996-05-07 20:00,ZBYN 072000Z AUTO 00000KT 7SM 05/M02 A2994 RMK T00501020 IEM_DS3505
ZBYN,1996-05-07 21:00,ZBYN 072100Z AUTO 00000KT 7SM 04/M02 A2994 RMK T00401020 IEM_DS3505
ZBYN,1996-05-07 22:00,ZBYN 072200Z AUTO 00000KT 7SM 04/M02 A2994 RMK T00401020 IEM_DS3505
ZBYN,1996-05-07 23:00,ZBYN 072300Z AUTO 00000KT 7SM 05/M01 A2997 RMK T00501010 IEM_DS3505
ZBYN,1996-05-08 00:00,ZBYN 080000Z AUTO 16002KT 6SM 08/M02 A2997 RMK SLP154 T00831021 52004 IEM_DS3505
ZBYN,1996-05-08 01:00,ZBYN 080100Z AUTO 20008KT 7SM 12/M04 A2997 RMK T01201040 IEM_DS3505
ZBYN,1996-05-08 02:00,ZBYN 080200Z AUTO 22014KT 7SM 15/M04 A2994 RMK T01501040 IEM_DS3505
ZBYN,1996-05-08 03:00,ZBYN 080300Z AUTO 32010KT 9SM 17/M06 A2991 RMK SLP121 T01741055 57020 IEM_DS3505
ZBYN,1996-05-08 04:00,ZBYN 080400Z AUTO 30016KT 7SM 19/M11 A2988 RMK T01901110 IEM_DS3505
ZBYN,1996-05-08 05:00,ZBYN 080500Z AUTO 29019KT 7SM 20/M11 A2985 RMK T02001110 IEM_DS3505
ZBYN,1996-05-08 06:00,ZBYN 080600Z AUTO 32017KT 16SM 21/M09 A2983 RMK SLP095 T02081088 57024 IEM_DS3505
ZBYN,1996-05-08 07:00,ZBYN 080700Z AUTO 29025KT 7SM 23/M09 A2980 RMK T02301090 IEM_DS3505
ZBYN,1996-05-08 08:00,ZBYN 080800Z AUTO 32017KT 7SM 22/M11 A2977 RMK T02201110 IEM_DS3505
ZBYN,1996-05-08 09:00,ZBYN 080900Z AUTO 32010KT 16SM 22/M11 A2977 RMK SLP075 T02181113 57020 IEM_DS3505
ZBYN,1996-05-08 10:00,ZBYN 081000Z AUTO 29019KT 7SM 22/M13 A2974 RMK T02201130 IEM_DS3505
ZBYN,1996-05-08 11:00,ZBYN 081100Z AUTO 32012KT 7SM 21/M10 A2974 RMK T02101100 IEM_DS3505
ZBYN,1996-05-08 12:00,ZBYN 081200Z AUTO 22006KT 12SM 19/M07 A2977 RMK SLP073 T01921071 57004 IEM_DS3505
ZBYN,1996-05-08 13:00,ZBYN 081300Z AUTO 27008KT 7SM 18/M05 A2977 RMK T01801050 IEM_DS3505
ZBYN,1996-05-08 14:00,ZBYN 081400Z AUTO 26010KT 7SM 17/M07 A2977 RMK T01701070 IEM_DS3505
ZBYN,1996-05-08 15:00,ZBYN 081500Z AUTO 20008KT 6SM 14/M01 A2980 RMK SLP075 T01441012 52009 IEM_DS3505
ZBYN,1996-05-08 16:00,ZBYN 081600Z AUTO 26004KT 7SM 14/M03 A2980 RMK T01401030 IEM_DS3505
ZBYN,1996-05-08 17:00,ZBYN 081700Z AUTO 26004KT 7SM 14/M03 A2980 RMK T01401030 IEM_DS3505
ZBYN,1996-05-08 18:00,ZBYN 081800Z AUTO 09004KT 6SM 10/M01 A2980 RMK SLP079 T01001012 52002 IEM_DS3505
ZBYN,1996-05-08 19:00,ZBYN 081900Z AUTO 00000KT 7SM 10/M04 A2980 RMK T01001040 IEM_DS3505
ZBYN,1996-05-08 20:00,ZBYN 082000Z AUTO 10006KT 7SM 09/M01 A2980 RMK T00901010 IEM_DS3505
ZBYN,1996-05-08 21:00,ZBYN 082100Z AUTO 11004KT 6SM 08/M02 A2980 RMK SLP080 T00831021 54000 IEM_DS3505
ZBYN,1996-05-08 22:00,ZBYN 082200Z AUTO 10006KT 7SM 07/00 A2980 RMK T00700000 IEM_DS3505
ZBYN,1996-05-08 23:00,ZBYN 082300Z AUTO 11006KT 7SM 08/01 A2980 RMK T00800010 IEM_DS3505
ZBYN,1996-05-09 00:00,ZBYN 090000Z AUTO 14006KT 6SM 13/M01 A2983 RMK SLP083 T01301011 52005 IEM_DS3505
ZBYN,1996-05-09 01:00,ZBYN 090100Z AUTO 00000KT 7SM 17/M01 A2980 RMK T01701010 IEM_DS3505
ZBYN,1996-05-09 03:00,ZBYN 090300Z AUTO 18014KT 6SM 22/M05 A2977 RMK SLP065 T02171046 57010 IEM_DS3505
ZBYN,1996-05-09 04:00,ZBYN 090400Z AUTO 22014KT 7SM 25/M07 A2974 RMK T02501070 IEM_DS3505
ZBYN,1996-05-09 05:00,ZBYN 090500Z AUTO 22017KT 7SM 27/M09 A2971 RMK T02701090 IEM_DS3505
ZBYN,1996-05-09 06:00,ZBYN 090600Z AUTO 20016KT 9SM 26/M08 A2968 RMK SLP034 T02611077 57029 IEM_DS3505
ZBYN,1996-05-09 07:00,ZBYN 090700Z AUTO 26010KT 6SM 26/M08 A2965 RMK T02601080 IEM_DS3505
ZBYN,1996-05-09 08:00,ZBYN 090800Z AUTO 31017KT 6SM 27/M11 A2965 RMK T02701110 IEM_DS3505
ZBYN,1996-05-09 09:00,ZBYN 090900Z AUTO 32017G37KT 9SM 25/M12 A2968 RMK SLP035 T02541118 57002 IEM_DS3505
ZBYN,1996-05-09 10:00,ZBYN 091000Z AUTO 28019KT 6SM 24/M15 A2968 RMK T02401150 IEM_DS3505
ZBYN,1996-05-09 11:00,ZBYN 091100Z AUTO 32017KT 6SM 23/M08 A2971 RMK T02301080 IEM_DS3505
ZBYN,1996-05-09 12:00,ZBYN 091200Z AUTO 32012KT 7SM 22/M06 A2974 RMK SLP057 T02161063 52021 IEM_DS3505
ZBYN,1996-05-09 13:00,ZBYN 091300Z AUTO 33010KT 6SM 21/M05 A2977 RMK T02101050 IEM_DS3505
ZBYN,1996-05-09 14:00,ZBYN 091400Z AUTO 20006KT 6SM 20/M04 A2980 RMK T02001040 IEM_DS3505
ZBYN,1996-05-09 15:00,ZBYN 091500Z AUTO 32016KT 6SM 17/M07 A2985 RMK SLP076 T01701067 52023 IEM_DS3505
ZBYN,1996-05-09 16:00,ZBYN 091600Z AUTO 02008KT 6SM 16/M07 A2985 RMK T01601070 IEM_DS3505
ZBYN,1996-05-09 18:00,ZBYN 091800Z AUTO 36002KT 6SM 12/M06 A2991 RMK SLP112 T01251065 52033 IEM_DS3505
ZBYN,1996-05-09 19:00,ZBYN 091900Z AUTO 02010KT 6SM 12/M08 A2994 RMK T01201080 IEM_DS3505
ZBYN,1996-05-09 20:00,ZBYN 092000Z AUTO 29014KT 6SM 12/M08 A2997 RMK T01201080 IEM_DS3505
ZBYN,1996-05-09 21:00,ZBYN 092100Z AUTO 32008KT 6SM 11/M05 A2997 RMK SLP138 T01081051 52020 IEM_DS3505
ZBYN,1996-05-09 23:00,ZBYN 092300Z AUTO 28008KT 6SM 12/M06 A3003 RMK T01201060 IEM_DS3505
ZBYN,1996-05-10 00:00,ZBYN 100000Z AUTO 32014KT 7SM 12/M04 A3003 RMK SLP159 T01201045 52016 IEM_DS3505
ZBYN,1996-05-10 01:00,ZBYN 100100Z AUTO 31017KT 7SM 14/M04 A3006 RMK T01401040 IEM_DS3505
ZBYN,1996-05-10 02:00,ZBYN 100200Z AUTO 31021KT 6SM 15/M13 A3006 RMK T01501130 IEM_DS3505
ZBYN,1996-05-10 03:00,ZBYN 100300Z AUTO 32017KT 12SM 15/M16 A3003 RMK SLP164 T01491156 52002 IEM_DS3505
ZBYN,1996-05-10 04:00,ZBYN 100400Z AUTO 31019KT 6SM 16/M22 A3003 RMK T01601220 IEM_DS3505
ZBYN,1996-05-10 05:00,ZBYN 100500Z AUTO 29025KT 7SM 17/M20 A3000 RMK T01701200 IEM_DS3505
ZBYN,1996-05-10 06:00,ZBYN 100600Z AUTO 32012KT 12SM 17/M12 A3000 RMK SLP158 T01721124 57009 IEM_DS3505
ZBYN,1996-05-10 07:00,ZBYN 100700Z AUTO 30019KT 6SM 18/M13 A3000 RMK T01801130 IEM_DS3505
ZBYN,1996-05-10 08:00,ZBYN 100800Z AUTO 30019KT 6SM 18/M13 A3000 RMK T01801130 IEM_DS3505
ZBYN,1996-05-10 09:00,ZBYN 100900Z AUTO 32016KT 11SM 18/M10 A2997 RMK SLP153 T01771100 57006 IEM_DS3505
ZBYN,1996-05-10 10:00,ZBYN 101000Z AUTO 29017KT 6SM 18/M12 A3000 RMK T01801120 IEM_DS3505
ZBYN,1996-05-10 11:00,ZBYN 101100Z AUTO 30014KT 7SM 16/M12 A3000 RMK T01601120 IEM_DS3505
ZBYN,1996-05-10 12:00,ZBYN 101200Z AUTO 32006KT 11SM 15/M05 A3003 RMK SLP167 T01471051 52010 IEM_DS3505
ZBYN,1996-05-10 13:00,ZBYN 101300Z AUTO 33004KT 7SM 14/M10 A3006 RMK T01401100 IEM_DS3505
ZBYN,1996-05-10 14:00,ZBYN 101400Z AUTO 33010KT 7SM 14/M08 A3009 RMK T01401080 IEM_DS3505
ZBYN,1996-05-10 15:00,ZBYN 101500Z AUTO 32004KT 9SM 11/M02 A3009 RMK SLP190 T01111019 52020 IEM_DS3505
ZBYN,1996-05-10 17:00,ZBYN 101700Z AUTO 31008KT 7SM 10/M06 A3009 RMK T01001060 IEM_DS3505
ZBYN,1996-05-10 18:00,ZBYN 101800Z AUTO 24004KT 7SM 09/M07 A3009 RMK T00901070 IEM_DS3505
ZBYN,1996-05-10 19:00,ZBYN 101900Z AUTO 34008KT 7SM 09/M05 A3009 RMK T00901050 IEM_DS3505
ZBYN,1996-05-10 20:00,ZBYN 102000Z AUTO 32014KT 7SM 11/M04 A3009 RMK T01101040 IEM_DS3505
ZBYN,1996-05-10 21:00,ZBYN 102100Z AUTO 34006KT 9SM 10/M05 A3009 RMK SLP192 T00991047 52001 IEM_DS3505
ZBYN,1996-05-10 22:00,ZBYN 102200Z AUTO 34012KT 7SM 10/M03 A3012 RMK T01001030 IEM_DS3505
ZBYN,1996-05-10 23:00,ZBYN 102300Z AUTO 31006KT 6SM 10/M02 A3015 RMK T01001020 IEM_DS3505
ZBYN,1996-05-11 00:00,ZBYN 110000Z AUTO 34010KT 12SM 13/M02 A3015 RMK SLP209 T01281016 52015 IEM_DS3505
ZBYN,1996-05-11 01:00,ZBYN 110100Z AUTO 36010KT 7SM 14/00 A3015 RMK T01400000 IEM_DS3505
ZBYN,1996-05-11 02:00,ZBYN 110200Z AUTO 36010KT 7SM 16/00 A3015 RMK T01600000 IEM_DS3505
ZBYN,1996-05-11 03:00,ZBYN 110300Z AUTO 11004KT 12SM 18/00 A3012 RMK SLP205 T01750000 57002 IEM_DS3505
ZBYN,1996-05-11 04:00,ZBYN 110400Z AUTO 29006KT 7SM 19/00 A3012 RMK T01900000 IEM_DS3505
ZBYN,1996-05-11 05:00,ZBYN 110500Z AUTO 32008KT 7SM 20/00 A3009 RMK T02000000 IEM_DS3505
ZBYN,1996-05-11 06:00,ZBYN 110600Z AUTO 34010KT 12SM 21/02 A3009 RMK SLP178 T02070018 57022 IEM_DS3505
ZBYN,1996-05-11 07:00,ZBYN 110700Z AUTO 32004KT 7SM 22/01 A3003 RMK T02200010 IEM_DS3505
ZBYN,1996-05-11 08:00,ZBYN 110800Z AUTO 01008KT 7SM 22/01 A3003 RMK T02200010 IEM_DS3505
ZBYN,1996-05-11 09:00,ZBYN 110900Z AUTO 04004KT 12SM 21/02 RMK SLP155 T02110019 57020 IEM_DS3505
ZBYN,1996-05-11 10:00,ZBYN 111000Z AUTO 04006KT 7SM 21/00 A3000 RMK T02100000 IEM_DS3505
ZBYN,1996-05-11 11:00,ZBYN 111100Z AUTO 06004KT 7SM 19/03 A3003 RMK T01900030 IEM_DS3505
ZBYN,1996-05-11 12:00,ZBYN 111200Z AUTO 02004KT 11SM 18/03 A3003 RMK SLP160 T01810030 52005 IEM_DS3505
ZBYN,1996-05-11 13:00,ZBYN 111300Z AUTO 00000KT 7SM 15/04 A3006 RMK T01500040 IEM_DS3505
ZBYN,1996-05-11 14:00,ZBYN 111400Z AUTO 31004KT 7SM 14/02 A3006 RMK T01400020 IEM_DS3505
ZBYN,1996-05-11 15:00,ZBYN 111500Z AUTO 00000KT 6SM 13/04 A3009 RMK SLP180 T01280042 52017 IEM_DS3505
ZBYN,1996-05-11 16:00,ZBYN 111600Z AUTO 00000KT 7SM 11/03 A3009 RMK T01100030 IEM_DS3505
ZBYN,1996-05-11 17:00,ZBYN 111700Z AUTO 00000KT 7SM 09/04 A3006 RMK T00900040 IEM_DS3505
ZBYN,1996-05-11 18:00,ZBYN 111800Z AUTO 34004KT 6SM 10/03 A3006 RMK SLP170 T01000034 57008 IEM_DS3505
ZBYN,1996-05-11 19:00,ZBYN 111900Z AUTO 00000KT 6SM 09/03 A3006 RMK T00900030 IEM_DS3505
ZBYN,1996-05-11 20:00,ZBYN 112000Z AUTO 00000KT 7SM 07/03 A3006 RMK T00700030 IEM_DS3505
ZBYN,1996-05-11 21:00,ZBYN 112100Z AUTO 36002KT 6SM 07/02 A3006 RMK SLP177 T00730025 52003 IEM_DS3505
ZBYN,1996-05-11 22:00,ZBYN 112200Z AUTO 00000KT 7SM 06/03 A3006 RMK T00600030 IEM_DS3505
ZBYN,1996-05-11 23:00,ZBYN 112300Z AUTO 00000KT 7SM 08/03 A3009 RMK T00800030 IEM_DS3505
ZBYN,1996-05-12 00:00,ZBYN 120000Z AUTO 00000KT 6SM 12/04 A3009 RMK SLP181 T01210040 52006 IEM_DS3505
ZBYN,1996-05-12 01:00,ZBYN 120100Z AUTO 21004KT 7SM 16/03 A3009 RMK T01600030 IEM_DS3505
ZBYN,1996-05-12 02:00,ZBYN 120200Z AUTO 21004KT 7SM 18/04 A3006 RMK T01800040 IEM_DS3505
ZBYN,1996-05-12 03:00,ZBYN 120300Z AUTO 20006KT 6SM 19/03 A3003 RMK SLP166 T01880026 57012 IEM_DS3505
ZBYN,1996-05-12 04:00,ZBYN 120400Z AUTO 20008KT 6SM 22/01 A3000 RMK T02200010 IEM_DS3505
ZBYN,1996-05-12 05:00,ZBYN 120500Z AUTO 21008KT 6SM 23/01 A2997 RMK T02300010 IEM_DS3505
ZBYN,1996-05-12 06:00,ZBYN 120600Z AUTO 20008KT 7SM 23/00 A2994 RMK SLP130 T02270001 57031 IEM_DS3505
ZBYN,1996-05-12 07:00,ZBYN 120700Z AUTO 17006KT 6SM 26/01 A2991 RMK T02600010 IEM_DS3505
ZBYN,1996-05-12 08:00,ZBYN 120800Z AUTO 21008KT 6SM 25/00 A2988 RMK T02500000 IEM_DS3505
ZBYN,1996-05-12 09:00,ZBYN 120900Z AUTO 20006KT 9SM 24/01 A2988 RMK SLP108 T02380013 57022 IEM_DS3505
ZBYN,1996-05-12 10:00,ZBYN 121000Z AUTO 00000KT 6SM 24/04 A2985 RMK T02400040 IEM_DS3505
ZBYN,1996-05-12 11:00,ZBYN 121100Z AUTO 00000KT 6SM 21/07 A2988 RMK T02100070 IEM_DS3505
ZBYN,1996-05-12 12:00,ZBYN 121200Z AUTO 11006KT 7SM 20/04 A2988 RMK SLP110 T02020038 52003 IEM_DS3505
ZBYN,1996-05-12 13:00,ZBYN 121300Z AUTO 07006KT 6SM 18/05 A2988 RMK T01800050 IEM_DS3505
ZBYN,1996-05-12 14:00,ZBYN 121400Z AUTO 27004KT 6SM 17/04 A2991 RMK T01700040 IEM_DS3505
ZBYN,1996-05-12 15:00,ZBYN 121500Z AUTO 32002KT 7SM 16/03 RMK SLP125 T01610031 52018 IEM_DS3505
ZBYN,1996-05-12 16:00,ZBYN 121600Z AUTO 01006KT 7SM 17/00 A2997 RMK T01700000 IEM_DS3505
ZBYN,1996-05-12 18:00,ZBYN 121800Z AUTO 32008KT 6SM 14/02 A2997 RMK SLP133 T01420020 52010 IEM_DS3505
ZBYN,1996-05-12 19:00,ZBYN 121900Z AUTO 22004KT 6SM 14/03 A2997 RMK T01400030 IEM_DS3505
ZBYN,1996-05-12 20:00,ZBYN 122000Z AUTO 00000KT 6SM 13/03 A2997 RMK T01300030 IEM_DS3505
ZBYN,1996-05-12 21:00,ZBYN 122100Z AUTO 32004KT 6SM 12/03 A2997 RMK SLP135 T01210027 54000 IEM_DS3505
ZBYN,1996-05-12 22:00,ZBYN 122200Z AUTO 32002KT 6SM 12/05 A2997 RMK T01200050 IEM_DS3505
ZBYN,1996-05-12 23:00,ZBYN 122300Z AUTO 33002KT 6SM 15/04 A3000 RMK T01500040 IEM_DS3505
ZBYN,1996-05-13 00:00,ZBYN 130000Z AUTO 32006KT 6SM 16/03 A3000 RMK SLP147 T01620032 52012 IEM_DS3505
ZBYN,1996-05-13 01:00,ZBYN 130100Z AUTO 02006KT 6SM 19/01 A3000 RMK T01900010 IEM_DS3505
ZBYN,1996-05-13 02:00,ZBYN 130200Z AUTO 31006KT 6SM 22/03 A3000 RMK T02200030 IEM_DS3505
ZBYN,1996-05-13 03:00,ZBYN 130300Z AUTO 34008KT 5SM 22/01 A3000 RMK SLP140 T02230014 57004 IEM_DS3505
ZBYN,1996-05-13 04:00,ZBYN 130400Z AUTO 09008KT 6SM 26/05 A2997 RMK T02600050 IEM_DS3505
ZBYN,1996-05-13 05:00,ZBYN 130500Z AUTO 06012KT 6SM 27/04 A2994 RMK T02700040 IEM_DS3505
ZBYN,1996-05-13 06:00,ZBYN 130600Z AUTO 09014KT 7SM 24/M01 A2994 RMK SLP117 T02451010 57020 IEM_DS3505
ZBYN,1996-05-13 07:00,ZBYN 130700Z AUTO 09012KT 7SM 24/06 A2991 RMK T02400060 IEM_DS3505
ZBYN,1996-05-13 08:00,ZBYN 130800Z AUTO 09012KT 7SM 23/06 A2991 RMK T02300060 IEM_DS3505
ZBYN,1996-05-13 09:00,ZBYN 130900Z AUTO 07012KT 6SM 22/02 A2994 RMK SLP127 T02210021 52002 IEM_DS3505
ZBYN,1996-05-13 10:00,ZBYN 131000Z AUTO 09012KT 7SM 21/07 A2994 RMK T02100070 IEM_DS3505
ZBYN,1996-05-13 11:00,ZBYN 131100Z AUTO 10012KT 7SM 20/06 A2997 RMK T02000060 IEM_DS3505
ZBYN,1996-05-13 12:00,ZBYN 131200Z AUTO 09006KT 9SM 20/02 A3000 RMK SLP145 T02000022 52020 IEM_DS3505
ZBYN,1996-05-13 13:00,ZBYN 131300Z AUTO 06010KT 7SM 18/07 A3003 RMK T01800070 IEM_DS3505
ZBYN,1996-05-13 14:00,ZBYN 131400Z AUTO 13010KT 7SM 17/08 A3006 RMK T01700080 IEM_DS3505
ZBYN,1996-05-13 15:00,ZBYN 131500Z AUTO 07006KT 6SM 18/04 A3009 RMK SLP164 T01800045 52023 IEM_DS3505
ZBYN,1996-05-13 16:00,ZBYN 131600Z AUTO 09010KT 7SM 17/09 A3009 RMK T01700090 IEM_DS3505
ZBYN,1996-05-13 17:00,ZBYN 131700Z AUTO 12008KT 7SM 16/10 A3009 RMK T01600100 IEM_DS3505
ZBYN,1996-05-13 18:00,ZBYN 131800Z AUTO 07008KT 6SM 17/06 A3009 RMK SLP165 T01680060 52002 IEM_DS3505
ZBYN,1996-05-13 19:00,ZBYN 131900Z AUTO 09010KT 7SM 15/09 A3009 RMK T01500090 IEM_DS3505
ZBYN,1996-05-13 20:00,ZBYN 132000Z AUTO 05006KT 7SM 14/09 A3009 RMK T01400090 IEM_DS3505
ZBYN,1996-05-13 21:00,ZBYN 132100Z AUTO 36002KT 6SM 15/06 A3012 RMK SLP180 T01460065 52007 IEM_DS3505
ZBYN,1996-05-13 22:00,ZBYN 132200Z AUTO 09008KT 7SM 14/08 A3012 RMK T01400080 IEM_DS3505
ZBYN,1996-05-13 23:00,ZBYN 132300Z AUTO 07012KT 7SM 16/08 A3015 RMK T01600080 IEM_DS3505
ZBYN,1996-05-14 00:00,ZBYN 140000Z AUTO 04002KT 6SM 16/06 A3015 RMK SLP200 T01570060 52010 IEM_DS3505
ZBYN,1996-05-14 01:00,ZBYN 140100Z AUTO 08010KT 6SM 19/06 A3018 RMK T01900060 IEM_DS3505
ZBYN,1996-05-14 02:00,ZBYN 140200Z AUTO 10010KT 6SM 22/08 A3015 RMK T02200080 IEM_DS3505
ZBYN,1996-05-14 03:00,ZBYN 140300Z AUTO 11010KT 7SM 22/02 A3015 RMK SLP189 T02200025 57004 IEM_DS3505
ZBYN,1996-05-14 04:00,ZBYN 140400Z AUTO 10008KT 7SM 24/09 A3012 RMK T02400090 IEM_DS3505
ZBYN,1996-05-14 05:00,ZBYN 140500Z AUTO 08006KT 7SM 26/09 A3009 RMK T02600090 IEM_DS3505
ZBYN,1996-05-14 06:00,ZBYN 140600Z AUTO 09010KT 9SM 25/ A3006 RMK SLP162 57022 IEM_DS3505
ZBYN,1996-05-14 07:00,ZBYN 140700Z AUTO 08010KT 7SM 27/07 A3006 RMK T02700070 IEM_DS3505
ZBYN,1996-05-14 08:00,ZBYN 140800Z AUTO 12012KT 7SM 27/08 A3006 RMK T02700080 IEM_DS3505
ZBYN,1996-05-14 09:00,ZBYN 140900Z AUTO 09012KT 12SM 24/M03 A3006 RMK SLP159 T02411029 57007 IEM_DS3505
ZBYN,1996-05-14 10:00,ZBYN 141000Z AUTO 12016KT 7SM 23/05 A3009 RMK T02300050 IEM_DS3505
ZBYN,1996-05-14 11:00,ZBYN 141100Z AUTO 12008KT 6SM 21/04 A3012 RMK T02100040 IEM_DS3505
ZBYN,1996-05-14 12:00,ZBYN 141200Z AUTO 09012KT 12SM 20/M03 A3015 RMK SLP193 T02031028 52027 IEM_DS3505
ZBYN,1996-05-14 13:00,ZBYN 141300Z AUTO 10010KT 7SM 17/06 A3018 RMK T01700060 IEM_DS3505
ZBYN,1996-05-14 14:00,ZBYN 141400Z AUTO 12004KT 7SM 15/06 A3021 RMK T01500060 IEM_DS3505
ZBYN,1996-05-14 15:00,ZBYN 141500Z AUTO 14006KT 9SM 14/02 A3021 RMK SLP211 T01430024 52017 IEM_DS3505
ZBYN,1996-05-14 18:00,ZBYN 141800Z AUTO 34004KT 9SM 12/04 A3018 RMK SLP211 T01190040 52001 IEM_DS3505
ZBYN,1996-05-14 19:00,ZBYN 141900Z AUTO 00000KT 7SM 12/05 A3018 RMK T01200050 IEM_DS3505
ZBYN,1996-05-14 20:00,ZBYN 142000Z AUTO 00000KT 7SM 12/05 A3021 RMK T01200050 IEM_DS3505
ZBYN,1996-05-14 21:00,ZBYN 142100Z AUTO 34004KT 7SM 13/03 A3021 RMK SLP212 T01270026 52001 IEM_DS3505
ZBYN,1996-05-14 22:00,ZBYN 142200Z AUTO 00000KT 6SM 10/06 A3024 RMK T01000060 IEM_DS3505
ZBYN,1996-05-14 23:00,ZBYN 142300Z AUTO 00000KT 6SM 12/07 A3024 RMK T01200070 IEM_DS3505
ZBYN,1996-05-15 00:00,ZBYN 150000Z AUTO 34004KT 6SM 15/04 A3024 RMK SLP225 T01530038 52010 IEM_DS3505
ZBYN,1996-05-15 01:00,ZBYN 150100Z AUTO 00000KT 7SM 18/07 A3024 RMK T01800070 IEM_DS3505
ZBYN,1996-05-15 02:00,ZBYN 150200Z AUTO 14006KT 6SM 22/08 A3027 RMK T02200080 IEM_DS3505
ZBYN,1996-05-15 03:00,ZBYN 150300Z AUTO 16010KT 6SM 22/01 A3021 RMK SLP219 T02150012 57005 IEM_DS3505
ZBYN,1996-05-15 04:00,ZBYN 150400Z AUTO 21004KT 7SM 24/06 A3021 RMK T02400060 IEM_DS3505
ZBYN,1996-05-15 05:00,ZBYN 150500Z AUTO 27008KT 7SM 24/04 A3018 RMK T02400040 IEM_DS3505
ZBYN,1996-05-15 06:00,ZBYN 150600Z AUTO 32006KT 11SM 24/04 A3015 RMK SLP191 T02420045 57025 IEM_DS3505
ZBYN,1996-05-15 07:00,ZBYN 150700Z AUTO 08006KT 7SM 25/09 A3012 RMK T02500090 IEM_DS3505
ZBYN,1996-05-15 08:00,ZBYN 150800Z AUTO 00000KT 7SM 26/08 A3009 RMK T02600080 IEM_DS3505
ZBYN,1996-05-15 09:00,ZBYN 150900Z AUTO 00000KT 11SM 25/05 A3006 RMK SLP167 T02470048 57020 IEM_DS3505
ZBYN,1996-05-15 10:00,ZBYN 151000Z AUTO 10017KT 7SM 23/07 A3009 RMK T02300070 IEM_DS3505
ZBYN,1996-05-15 11:00,ZBYN 151100Z AUTO 08016KT 7SM 21/07 A3009 RMK T02100070 IEM_DS3505
ZBYN,1996-05-15 12:00,ZBYN 151200Z AUTO 09014KT 6SM 20/01 A3012 RMK SLP181 T02050014 52010 IEM_DS3505
ZBYN,1996-05-15 13:00,ZBYN 151300Z AUTO 10014KT 6SM 18/07 A3015 RMK T01800070 IEM_DS3505
ZBYN,1996-05-15 14:00,ZBYN 151400Z AUTO 10006KT 6SM 17/08 A3018 RMK T01700080 IEM_DS3505
ZBYN,1996-05-15 15:00,ZBYN 151500Z AUTO 09012KT 6SM 18/03 A3021 RMK SLP207 T01750026 52028 IEM_DS3505
ZBYN,1996-05-15 16:00,ZBYN 151600Z AUTO 09006KT 6SM 15/07 A3021 RMK T01500070 IEM_DS3505
ZBYN,1996-05-15 17:00,ZBYN 151700Z AUTO 09006KT 6SM 16/07 A3018 RMK T01600070 IEM_DS3505
ZBYN,1996-05-15 18:00,ZBYN 151800Z AUTO 07006KT 6SM 16/03 A3018 RMK SLP200 T01630033 57004 IEM_DS3505
ZBYN,1996-05-15 19:00,ZBYN 151900Z AUTO 08008KT 7SM 15/07 A3015 RMK T01500070 IEM_DS3505
ZBYN,1996-05-15 20:00,ZBYN 152000Z AUTO 08006KT 7SM 14/07 A3015 RMK T01400070 IEM_DS3505
ZBYN,1996-05-15 21:00,ZBYN 152100Z AUTO 00000KT 6SM 14/07 A3015 RMK SLP188 T01380066 57014 IEM_DS3505
ZBYN,1996-05-15 22:00,ZBYN 152200Z AUTO 08004KT 6SM 14/08 A3015 RMK T01400080 IEM_DS3505
ZBYN,1996-05-15 23:00,ZBYN 152300Z AUTO 00000KT 6SM 14/09 A3018 RMK T01400090 IEM_DS3505
ZBYN,1996-05-16 00:00,ZBYN 160000Z AUTO 18002KT 6SM 16/07 A3018 RMK SLP201 T01570067 52009 IEM_DS3505
ZBYN,1996-05-16 01:00,ZBYN 160100Z AUTO 14006KT 6SM 18/08 A3018 RMK T01800080 IEM_DS3505
ZBYN,1996-05-16 02:00,ZBYN 160200Z AUTO 15006KT 6SM 19/08 A3018 RMK T01900080 IEM_DS3505
ZBYN,1996-05-16 03:00,ZBYN 160300Z AUTO 16006KT 6SM 18/04 A3018 RMK SLP205 T01850041 54000 IEM_DS3505
ZBYN,1996-05-16 04:00,ZBYN 160400Z AUTO 00000KT 6SM 20/07 A3018 RMK T02000070 IEM_DS3505
ZBYN,1996-05-16 05:00,ZBYN 160500Z AUTO 18008KT 6SM 21/07 A3015 RMK T02100070 IEM_DS3505
ZBYN,1996-05-16 06:00,ZBYN 160600Z AUTO 20006KT 6SM 21/06 A3012 RMK SLP178 T02100055 57023 IEM_DS3505
ZBYN,1996-05-16 07:00,ZBYN 160700Z AUTO 15004KT 6SM 22/08 A3006 RMK T02200080 IEM_DS3505
ZBYN,1996-05-16 08:00,ZBYN 160800Z AUTO 17006KT 6SM 23/06 A3006 RMK T02300060 IEM_DS3505
ZBYN,1996-05-16 09:00,ZBYN 160900Z AUTO 22002KT 6SM 22/03 A3003 RMK SLP157 T02190033 57021 IEM_DS3505
ZBYN,1996-05-16 10:00,ZBYN 161000Z AUTO 00000KT 6SM 22/07 A3003 RMK T02200070 IEM_DS3505
ZBYN,1996-05-16 11:00,ZBYN 161100Z AUTO 26004KT 6SM 22/05 A3003 RMK T02200050 IEM_DS3505
ZBYN,1996-05-16 12:00,ZBYN 161200Z AUTO 14004KT 6SM 20/06 A3006 RMK SLP159 T01960061 52001 IEM_DS3505
ZBYN,1996-05-16 13:00,ZBYN 161300Z AUTO 12004KT 6SM 19/08 A3006 RMK T01900080 IEM_DS3505
ZBYN,1996-05-16 15:00,ZBYN 161500Z AUTO 14004KT 6SM 16/07 A3006 RMK SLP169 T01640074 52009 IEM_DS3505
ZBYN,1996-05-16 16:00,ZBYN 161600Z AUTO 15004KT 6SM 15/08 A3009 RMK T01500080 IEM_DS3505
ZBYN,1996-05-16 17:00,ZBYN 161700Z AUTO 13004KT 6SM 14/07 A3009 RMK T01400070 IEM_DS3505
ZBYN,1996-05-16 18:00,ZBYN 161800Z AUTO 16002KT 6SM 12/08 A3006 RMK SLP174 T01240077 52002 IEM_DS3505
ZBYN,1996-05-16 19:00,ZBYN 161900Z AUTO 14006KT 6SM 12/07 A3006 RMK T01200070 IEM_DS3505
ZBYN,1996-05-16 20:00,ZBYN 162000Z AUTO 13004KT 6SM 12/07 A3006 RMK T01200070 IEM_DS3505
ZBYN,1996-05-16 21:00,ZBYN 162100Z AUTO 00000KT 6SM 10/06 A3006 RMK SLP171 T01040063 57004 IEM_DS3505
ZBYN,1996-05-16 22:00,ZBYN 162200Z AUTO 13004KT 6SM 10/07 A3006 RMK T01000070 IEM_DS3505
ZBYN,1996-05-16 23:00,ZBYN 162300Z AUTO 09004KT 6SM 11/08 A3009 RMK T01100080 IEM_DS3505
ZBYN,1996-05-17 00:00,ZBYN 170000Z AUTO 27002KT 4SM 14/07 A3009 RMK SLP181 T01430066 52011 IEM_DS3505
ZBYN,1996-05-17 01:00,ZBYN 170100Z AUTO 00000KT 5SM 17/07 A3009 RMK T01700070 IEM_DS3505
ZBYN,1996-05-17 02:00,ZBYN 170200Z AUTO 15002KT 6SM 19/09 A3009 RMK T01900090 IEM_DS3505
ZBYN,1996-05-17 03:00,ZBYN 170300Z AUTO 18006KT 4SM 21/07 A3006 RMK SLP166 T02070069 57009 IEM_DS3505
ZBYN,1996-05-17 04:00,ZBYN 170400Z AUTO 29004KT 6SM 23/09 A3003 RMK T02300090 IEM_DS3505
ZBYN,1996-05-17 05:00,ZBYN 170500Z AUTO 26004KT 6SM 24/07 A3000 RMK T02400070 IEM_DS3505
ZBYN,1996-05-17 06:00,ZBYN 170600Z AUTO 20006KT 4SM 24/06 A2997 RMK SLP135 T02450060 57028 IEM_DS3505
ZBYN,1996-05-17 07:00,ZBYN 170700Z AUTO 25006KT 6SM 26/06 A2994 RMK T02600060 IEM_DS3505
ZBYN,1996-05-17 08:00,ZBYN 170800Z AUTO 24006KT 6SM 25/05 A2991 RMK T02500050 IEM_DS3505
ZBYN,1996-05-17 09:00,ZBYN 170900Z AUTO 20008KT 6SM 24/04 A2991 RMK SLP117 T02450042 IEM_DS3505
ZBYN,1996-05-17 10:00,ZBYN 171000Z AUTO 27006KT 6SM 25/06 A2988 RMK T02500060 IEM_DS3505
ZBYN,1996-05-17 11:00,ZBYN 171100Z AUTO 27004KT 6SM 24/08 A2991 RMK T02400080 IEM_DS3505
ZBYN,1996-05-17 12:00,ZBYN 171200Z AUTO 14004KT 6SM 20/08 A2991 RMK SLP115 T02020075 57002 IEM_DS3505
ZBYN,1996-05-17 14:00,ZBYN 171400Z AUTO 12004KT 6SM 17/07 A2994 RMK T01700070 IEM_DS3505
ZBYN,1996-05-17 15:00,ZBYN 171500Z AUTO 14004KT 6SM 16/08 A2994 RMK SLP119 T01590084 52007 IEM_DS3505
ZBYN,1996-05-17 16:00,ZBYN 171600Z AUTO 13006KT 6SM 16/09 A2994 RMK T01600090 IEM_DS3505
ZBYN,1996-05-17 17:00,ZBYN 171700Z AUTO 16006KT 6SM 16/09 A2994 RMK T01600090 IEM_DS3505
ZBYN,1996-05-17 18:00,ZBYN 171800Z AUTO 14004KT 6SM 15/08 A2994 RMK SLP114 T01470080 57001 IEM_DS3505
ZBYN,1996-05-17 19:00,ZBYN 171900Z AUTO 09004KT 6SM 15/09 A2994 RMK T01500090 IEM_DS3505
ZBYN,1996-05-17 20:00,ZBYN 172000Z AUTO 12004KT 6SM 14/09 A2991 RMK T01400090 IEM_DS3505
ZBYN,1996-05-17 21:00,ZBYN 172100Z AUTO 00000KT 6SM 13/08 A2991 RMK SLP112 T01320082 57004 IEM_DS3505
ZBYN,1996-05-17 22:00,ZBYN 172200Z AUTO 00000KT 6SM 13/08 A2991 RMK T01300080 IEM_DS3505
ZBYN,1996-05-17 23:00,ZBYN 172300Z AUTO 00000KT 5SM 14/10 A2994 RMK T01400100 IEM_DS3505
ZBYN,1996-05-18 00:00,ZBYN 180000Z AUTO 11004KT 6SM 17/09 A2994 RMK SLP121 T01670089 52007 IEM_DS3505
ZBYN,1996-05-18 01:00,ZBYN 180100Z AUTO 00000KT 5SM 19/05 A2994 RMK T01900050 IEM_DS3505
ZBYN,1996-05-18 02:00,ZBYN 180200Z AUTO 19006KT 5SM 20/08 A2991 RMK T02000080 IEM_DS3505
ZBYN,1996-05-18 03:00,ZBYN 180300Z AUTO 16004KT 6SM 22/09 A2988 RMK SLP107 T02230088 57011 IEM_DS3505
ZBYN,1996-05-18 04:00,ZBYN 180400Z AUTO 27006KT 5SM 25/09 A2985 RMK T02500090 IEM_DS3505
ZBYN,1996-05-18 05:00,ZBYN 180500Z AUTO 30012KT 5SM 24/07 A2985 RMK T02400070 IEM_DS3505
ZBYN,1996-05-18 06:00,ZBYN 180600Z AUTO 29012KT 6SM 20/09 A2983 RMK SLP099 T02030086 57012 IEM_DS3505
ZBYN,1996-05-18 07:00,ZBYN 180700Z AUTO 33012KT 7SM 22/09 A2983 RMK T02200090 IEM_DS3505
ZBYN,1996-05-18 08:00,ZBYN 180800Z AUTO 29012KT 7SM 21/11 A2985 RMK T02100110 IEM_DS3505
ZBYN,1996-05-18 09:00,ZBYN 180900Z AUTO 07002KT 11SM 21/10 A2980 RMK SLP081 T02110099 57017 IEM_DS3505
ZBYN,1996-05-18 10:00,ZBYN 181000Z AUTO 21002KT 6SM 23/11 A2980 RMK T02300110 IEM_DS3505
ZBYN,1996-05-18 11:00,ZBYN 181100Z AUTO 21006KT 6SM 20/10 A2980 RMK T02000100 IEM_DS3505
ZBYN,1996-05-18 12:00,ZBYN 181200Z AUTO 16006KT 9SM 18/10 A2983 RMK SLP080 T01760096 57001 IEM_DS3505
ZBYN,1996-05-18 13:00,ZBYN 181300Z AUTO 12004KT 6SM 16/10 A2983 RMK T01600100 IEM_DS3505
ZBYN,1996-05-18 14:00,ZBYN 181400Z AUTO 00000KT 6SM 15/10 A2985 RMK T01500100 IEM_DS3505
ZBYN,1996-05-18 15:00,ZBYN 181500Z AUTO 02004KT 7SM 15/10 A2988 RMK SLP097 T01510098 52020 IEM_DS3505
ZBYN,1996-05-18 16:00,ZBYN 181600Z AUTO 00000KT 6SM 12/09 A2988 RMK T01200090 IEM_DS3505
ZBYN,1996-05-18 17:00,ZBYN 181700Z AUTO 00000KT 7SM 12/09 A2988 RMK T01200090 IEM_DS3505
ZBYN,1996-05-18 18:00,ZBYN 181800Z AUTO 34002KT 6SM 12/09 A2985 RMK SLP104 T01200089 57001 IEM_DS3505
ZBYN,1996-05-18 19:00,ZBYN 181900Z AUTO 00000KT 7SM 10/07 A2985 RMK T01000070 IEM_DS3505
ZBYN,1996-05-18 20:00,ZBYN 182000Z AUTO 00000KT 7SM 09/07 A2985 RMK T00900070 IEM_DS3505
ZBYN,1996-05-18 21:00,ZBYN 182100Z AUTO 18004KT 6SM 08/07 A2985 RMK SLP108 T00850073 57001 IEM_DS3505
ZBYN,1996-05-18 22:00,ZBYN 182200Z AUTO 00000KT 4SM 08/06 A2985 RMK T00800060 IEM_DS3505
ZBYN,1996-05-18 23:00,ZBYN 182300Z AUTO 14004KT 4SM 09/07 A2988 RMK T00900070 IEM_DS3505
ZBYN,1996-05-19 00:00,ZBYN 190000Z AUTO 16004KT 6SM 12/09 A2990 RMK SLP116 T01180087 52007 IEM_DS3505
ZBYN,1996-05-19 01:00,ZBYN 190100Z AUTO 14004KT 2SM 16/10 A2988 RMK T01600100 IEM_DS3505
ZBYN,1996-05-19 02:00,ZBYN 190200Z AUTO 23006KT 2SM 19/08 A2985 RMK T01900080 IEM_DS3505
ZBYN,1996-05-19 03:00,ZBYN 190300Z AUTO 36004KT 5SM 24/04 A2983 RMK SLP084 T02390038 57015 IEM_DS3505
ZBYN,1996-05-19 04:00,ZBYN 190400Z AUTO 31019KT 7SM 27/M04 A2983 RMK T02701040 IEM_DS3505
ZBYN,1996-05-19 05:00,ZBYN 190500Z AUTO 33016KT 7SM 27/M03 A2980 RMK T02701030 IEM_DS3505
ZBYN,1996-05-19 06:00,ZBYN 190600Z AUTO 32006KT 7SM 28/M06 A2977 RMK SLP065 T02771061 57016 IEM_DS3505
ZBYN,1996-05-19 07:00,ZBYN 190700Z AUTO 31021KT 7SM 29/M04 A2977 RMK T02901040 IEM_DS3505
ZBYN,1996-05-19 08:00,ZBYN 190800Z AUTO 31023KT 7SM 29/M05 A2974 RMK T02901050 IEM_DS3505
ZBYN,1996-05-19 09:00,ZBYN 190900Z AUTO 32012KT 9SM 28/M05 A2974 RMK SLP059 T02851051 57010 IEM_DS3505
ZBYN,1996-05-19 10:00,ZBYN 191000Z AUTO 33012KT 7SM 28/00 A2977 RMK T02800000 IEM_DS3505
ZBYN,1996-05-19 11:00,ZBYN 191100Z AUTO 36010KT 7SM 26/M02 A2977 RMK T02601020 IEM_DS3505
ZBYN,1996-05-19 12:00,ZBYN 191200Z AUTO 34004KT 9SM 24/M02 A2980 RMK SLP077 T02401017 52015 IEM_DS3505
ZBYN,1996-05-19 13:00,ZBYN 191300Z AUTO 02002KT 7SM 22/04 A2983 RMK T02200040 IEM_DS3505
ZBYN,1996-05-19 14:00,ZBYN 191400Z AUTO 00000KT 7SM 20/04 A2985 RMK T02000040 IEM_DS3505
ZBYN,1996-05-19 15:00,ZBYN 191500Z AUTO 36002KT 6SM 18/02 A2985 RMK SLP085 T01840020 52017 IEM_DS3505
ZBYN,1996-05-19 16:00,ZBYN 191600Z AUTO 11002KT 7SM 14/03 A2985 RMK T01400030 IEM_DS3505
ZBYN,1996-05-19 18:00,ZBYN 191800Z AUTO 00000KT 6SM 13/02 A2988 RMK SLP089 T01300020 52001 IEM_DS3505
ZBYN,1996-05-19 19:00,ZBYN 191900Z AUTO 11004KT 7SM 12/03 A2985 RMK T01200030 IEM_DS3505
ZBYN,1996-05-19 20:00,ZBYN 192000Z AUTO 11004KT 7SM 11/03 A2985 RMK T01100030 IEM_DS3505
ZBYN,1996-05-19 21:00,ZBYN 192100Z AUTO 00000KT 6SM 11/02 A2985 RMK SLP095 T01110016 52004 IEM_DS3505
ZBYN,1996-05-19 22:00,ZBYN 192200Z AUTO 11004KT 7SM 10/03 A2988 RMK T01000030 IEM_DS3505
ZBYN,1996-05-19 23:00,ZBYN 192300Z AUTO 13004KT 4SM 11/04 A2991 RMK T01100040 IEM_DS3505
ZBYN,1996-05-20 00:00,ZBYN 200000Z AUTO 00000KT 6SM 16/03 A2991 RMK SLP115 T01570034 52018 IEM_DS3505
ZBYN,1996-05-20 01:00,ZBYN 200100Z AUTO 00000KT 4SM 21/07 A2994 RMK T02100070 IEM_DS3505
ZBYN,1996-05-20 02:00,ZBYN 200200Z AUTO 00000KT 4SM 23/04 A2991 RMK T02300040 IEM_DS3505
ZBYN,1996-05-20 03:00,ZBYN 200300Z AUTO 20002KT 6SM 26/01 A2991 RMK SLP105 T02560010 57003 IEM_DS3505
ZBYN,1996-05-20 04:00,ZBYN 200400Z AUTO 03004KT 7SM 27/04 A2991 RMK T02700040 IEM_DS3505
ZBYN,1996-05-20 05:00,ZBYN 200500Z AUTO 02006KT 7SM 28/07 A2988 RMK T02800070 IEM_DS3505
ZBYN,1996-05-20 06:00,ZBYN 200600Z AUTO 02006KT 6SM 29/03 A2985 RMK SLP088 T02890030 57018 IEM_DS3505
ZBYN,1996-05-20 07:00,ZBYN 200700Z AUTO 36002KT 7SM 30/07 A2985 RMK T03000070 IEM_DS3505
ZBYN,1996-05-20 08:00,ZBYN 200800Z AUTO 02004KT 7SM 30/07 A2983 RMK T03000070 IEM_DS3505
ZBYN,1996-05-20 09:00,ZBYN 200900Z AUTO 07006KT 6SM 29/M02 A2983 RMK SLP078 T02881019 57012 IEM_DS3505
ZBYN,1996-05-20 10:00,ZBYN 201000Z AUTO 03006KT 7SM 28/04 A2983 RMK T02800040 IEM_DS3505
ZBYN,1996-05-20 11:00,ZBYN 201100Z AUTO 04006KT 7SM 26/02 A2985 RMK T02600020 IEM_DS3505
ZBYN,1996-05-20 12:00,ZBYN 201200Z AUTO 02006KT 6SM 25/M01 A2988 RMK SLP097 T02531012 52019 IEM_DS3505
ZBYN,1996-05-20 13:00,ZBYN 201300Z AUTO 33004KT 7SM 23/04 A2991 RMK T02300040 IEM_DS3505
ZBYN,1996-05-20 14:00,ZBYN 201400Z AUTO 33004KT 7SM 21/05 A2994 RMK T02100050 IEM_DS3505
ZBYN,1996-05-20 15:00,ZBYN 201500Z AUTO 34004KT 6SM 18/03 RMK SLP115 T01810030 52020 IEM_DS3505
ZBYN,1996-05-20 16:00,ZBYN 201600Z AUTO 36006KT 7SM 18/04 A2997 RMK T01800040 IEM_DS3505
ZBYN,1996-05-20 17:00,ZBYN 201700Z AUTO 16004KT 7SM 18/05 A2997 RMK T01800050 IEM_DS3505
ZBYN,1996-05-20 18:00,ZBYN 201800Z AUTO 32006KT 6SM 16/02 A2997 RMK SLP124 T01570016 52004 IEM_DS3505
ZBYN,1996-05-20 19:00,ZBYN 201900Z AUTO 00000KT 7SM 14/04 A2997 RMK T01400040 IEM_DS3505
ZBYN,1996-05-20 20:00,ZBYN 202000Z AUTO 00000KT 7SM 13/03 A3000 RMK T01300030 IEM_DS3505
ZBYN,1996-05-20 21:00,ZBYN 202100Z AUTO 02004KT 6SM 14/01 A3000 RMK SLP135 T01350006 52007 IEM_DS3505
ZBYN,1996-05-20 22:00,ZBYN 202200Z AUTO 35004KT 7SM 14/02 A3003 RMK T01400020 IEM_DS3505
ZBYN,1996-05-20 23:00,ZBYN 202300Z AUTO 00000KT 7SM 15/05 A3003 RMK T01500050 IEM_DS3505
ZBYN,1996-05-21 00:00,ZBYN 210000Z AUTO 34004KT 6SM 18/01 A3006 RMK SLP155 T01820006 52020 IEM_DS3505
ZBYN,1996-05-21 01:00,ZBYN 210100Z AUTO 31006KT 7SM 21/03 A3006 RMK T02100030 IEM_DS3505
ZBYN,1996-05-21 02:00,ZBYN 210200Z AUTO 30006KT 7SM 23/04 A3006 RMK T02300040 IEM_DS3505
ZBYN,1996-05-21 03:00,ZBYN 210300Z AUTO 02002KT 6SM 24/02 A3003 RMK SLP149 T02410021 57007 IEM_DS3505
ZBYN,1996-05-21 04:00,ZBYN 210400Z AUTO 20006KT 7SM 26/04 A3003 RMK T02600040 IEM_DS3505
ZBYN,1996-05-21 06:00,ZBYN 210600Z AUTO 07004KT 7SM 27/M03 A2994 RMK SLP118 T02701031 57028 IEM_DS3505
ZBYN,1996-05-21 07:00,ZBYN 210700Z AUTO 00000KT 7SM 29/04 A2991 RMK T02900040 IEM_DS3505
ZBYN,1996-05-21 08:00,ZBYN 210800Z AUTO 16006KT 7SM 30/04 A2988 RMK T03000040 IEM_DS3505
ZBYN,1996-05-21 09:00,ZBYN 210900Z AUTO 22004KT 6SM 29/M01 A2988 RMK SLP095 T02861011 57022 IEM_DS3505
ZBYN,1996-05-21 10:00,ZBYN 211000Z AUTO 17006KT 6SM 28/05 A2988 RMK T02800050 IEM_DS3505
ZBYN,1996-05-21 11:00,ZBYN 211100Z AUTO 00000KT 6SM 25/08 A2988 RMK T02500080 IEM_DS3505
ZBYN,1996-05-21 12:00,ZBYN 211200Z AUTO 34004KT 6SM 23/05 A2991 RMK SLP103 T02310048 52007 IEM_DS3505
ZBYN,1996-05-21 13:00,ZBYN 211300Z AUTO 00000KT 6SM 19/07 A2991 RMK T01900070 IEM_DS3505
ZBYN,1996-05-21 14:00,ZBYN 211400Z AUTO 15010KT 7SM 17/05 A2994 RMK T01700050 IEM_DS3505
ZBYN,1996-05-21 15:00,ZBYN 211500Z AUTO 00000KT 6SM 18/02 A2997 RMK SLP124 T01760022 52019 IEM_DS3505
ZBYN,1996-05-21 16:00,ZBYN 211600Z AUTO 09006KT 7SM 17/05 A2997 RMK T01700050 IEM_DS3505
ZBYN,1996-05-21 17:00,ZBYN 211700Z AUTO 00000KT 7SM 17/05 A3000 RMK T01700050 IEM_DS3505
ZBYN,1996-05-21 18:00,ZBYN 211800Z AUTO 34004KT 6SM 17/03 A2997 RMK SLP126 T01660033 52005 IEM_DS3505
ZBYN,1996-05-21 19:00,ZBYN 211900Z AUTO 00000KT 7SM 16/06 A3000 RMK T01600060 IEM_DS3505
ZBYN,1996-05-21 20:00,ZBYN 212000Z AUTO 00000KT 7SM 16/06 A3000 RMK T01600060 IEM_DS3505
ZBYN,1996-05-21 21:00,ZBYN 212100Z AUTO 34002KT 6SM 15/04 A3000 RMK SLP135 T01500043 52008 IEM_DS3505
ZBYN,1996-05-22 00:00,ZBYN 220000Z AUTO 5SM 19/07 A3000 RMK SLP144 T01870066 52006 IEM_DS3505
ZBYN,1996-05-22 02:00,ZBYN 220200Z AUTO 00000KT 6SM 23/12 A3000 RMK T02300120 IEM_DS3505
ZBYN,1996-05-22 03:00,ZBYN 220300Z AUTO 14002KT 5SM 24/10 A2997 RMK SLP127 T02380095 57016 IEM_DS3505
ZBYN,1996-05-22 04:00,ZBYN 220400Z AUTO 15004KT 6SM 25/12 A2994 RMK T02500120 IEM_DS3505
ZBYN,1996-05-22 05:00,ZBYN 220500Z AUTO 23006KT 6SM 27/10 A2994 RMK T02700100 IEM_DS3505
ZBYN,1996-05-22 06:00,ZBYN 220600Z AUTO 16006KT 6SM 26/09 A2991 RMK SLP104 T02650089 57019 IEM_DS3505
ZBYN,1996-05-22 07:00,ZBYN 220700Z AUTO 22008KT 6SM 27/10 A2988 RMK T02700100 IEM_DS3505
ZBYN,1996-05-22 08:00,ZBYN 220800Z AUTO 27017KT 4SM 25/08 A2988 RMK T02500080 IEM_DS3505
ZBYN,1996-05-22 09:00,ZBYN 220900Z AUTO 22017KT 6SM 24/05 A2988 RMK SLP096 T02360051 57014 IEM_DS3505
ZBYN,1996-05-22 10:00,ZBYN 221000Z AUTO 25012KT 7SM 23/05 A2988 RMK T02300050 IEM_DS3505
ZBYN,1996-05-22 11:00,ZBYN 221100Z AUTO 17014KT 7SM 22/06 A2991 RMK T02200060 IEM_DS3505
ZBYN,1996-05-22 12:00,ZBYN 221200Z AUTO 22004KT 6SM 20/07 A2994 RMK SLP116 T02040068 52019 IEM_DS3505
ZBYN,1996-05-22 13:00,ZBYN 221300Z AUTO 19002KT 7SM 20/09 A2994 RMK T02000090 IEM_DS3505
ZBYN,1996-05-22 14:00,ZBYN 221400Z AUTO 22004KT 7SM 19/09 A2994 RMK T01900090 IEM_DS3505
ZBYN,1996-05-22 15:00,ZBYN 221500Z AUTO 14004KT 6SM 18/08 A2994 RMK SLP113 T01840081 52002 IEM_DS3505
ZBYN,1996-05-22 16:00,ZBYN 221600Z AUTO 19004KT 7SM 17/10 A2991 RMK T01700100 IEM_DS3505
ZBYN,1996-05-22 17:00,ZBYN 221700Z AUTO 12004KT 7SM 17/10 A2994 RMK T01700100 IEM_DS3505
ZBYN,1996-05-22 18:00,ZBYN 221800Z AUTO 09006KT 6SM 16/10 A2991 RMK SLP107 T01560099 57006 IEM_DS3505
ZBYN,1996-05-22 19:00,ZBYN 221900Z AUTO 17004KT 7SM 15/11 A2991 RMK T01500110 IEM_DS3505
ZBYN,1996-05-22 20:00,ZBYN 222000Z AUTO 00000KT 7SM 15/11 A2991 RMK T01500110 IEM_DS3505
ZBYN,1996-05-22 21:00,ZBYN 222100Z AUTO 00000KT 6SM 15/11 A2991 RMK SLP109 T01480114 57003 IEM_DS3505
ZBYN,1996-05-22 22:00,ZBYN 222200Z AUTO 12004KT 7SM 14/13 A2991 RMK T01400130 IEM_DS3505
ZBYN,1996-05-22 23:00,ZBYN 222300Z AUTO 09004KT 7SM 14/12 A2991 RMK T01400120 IEM_DS3505
ZBYN,1996-05-23 00:00,ZBYN 230000Z AUTO 00000KT 9SM 16/11 A2991 RMK SLP115 T01630113 52003 IEM_DS3505
ZBYN,1996-05-23 01:00,ZBYN 230100Z AUTO 18006KT 6SM 20/12 A2991 RMK T02000120 IEM_DS3505
ZBYN,1996-05-23 02:00,ZBYN 230200Z AUTO 12006KT 7SM 21/12 A2991 RMK T02100120 IEM_DS3505
ZBYN,1996-05-23 03:00,ZBYN 230300Z AUTO 00000KT 6SM 20/11 A2991 RMK SLP112 T02000109 54000 IEM_DS3505
ZBYN,1996-05-23 04:00,ZBYN 230400Z AUTO 00000KT 7SM 21/12 A2991 RMK T02100120 IEM_DS3505
ZBYN,1996-05-23 06:00,ZBYN 230600Z AUTO 16004KT 7SM 22/10 A2988 RMK SLP095 T02250102 57016 IEM_DS3505
ZBYN,1996-05-23 07:00,ZBYN 230700Z AUTO 21004KT 7SM 24/12 A2985 RMK T02400120 IEM_DS3505
ZBYN,1996-05-23 08:00,ZBYN 230800Z AUTO 20006KT 7SM 24/12 A2983 RMK T02400120 IEM_DS3505
ZBYN,1996-05-23 09:00,ZBYN 230900Z AUTO 18010KT 6SM 23/10 A2983 RMK SLP083 T02310102 57011 IEM_DS3505
ZBYN,1996-05-23 10:00,ZBYN 231000Z AUTO 12010KT 7SM 20/12 RMK T02000120 IEM_DS3505
ZBYN,1996-05-23 11:00,ZBYN 231100Z AUTO 32006KT 7SM 16/12 A2988 RMK T01600120 IEM_DS3505
ZBYN,1996-05-23 12:00,ZBYN 231200Z AUTO 29006KT 4SM 15/13 A2988 RMK 60138 SLP111 T01500133 52016 IEM_DS3505
ZBYN,1996-05-23 13:00,ZBYN 231300Z AUTO 00000KT 7SM 16/13 A2988 RMK T01600130 IEM_DS3505
ZBYN,1996-05-23 14:00,ZBYN 231400Z AUTO 08004KT 4SM 15/14 A2991 RMK T01500140 IEM_DS3505
ZBYN,1996-05-23 15:00,ZBYN 231500Z AUTO 34002KT 6SM 15/14 A2991 RMK SLP116 T01490137 52009 IEM_DS3505
ZBYN,1996-05-23 17:00,ZBYN 231700Z AUTO 00000KT 4SM 14/13 A2991 RMK T01400130 IEM_DS3505
ZBYN,1996-05-23 18:00,ZBYN 231800Z AUTO 36002KT 6SM 14/12 A2988 RMK SLP108 T01450120 57004 IEM_DS3505
ZBYN,1996-05-23 19:00,ZBYN 231900Z AUTO 00000KT 4SM 13/12 A2988 RMK T01300120 IEM_DS3505
ZBYN,1996-05-23 20:00,ZBYN 232000Z AUTO 00000KT 4SM 12/12 A2988 RMK T01200120 IEM_DS3505
ZBYN,1996-05-23 21:00,ZBYN 232100Z AUTO 34002KT 5SM 13/11 A2988 RMK 70138 SLP106 T01310111 57003 IEM_DS3505
ZBYN,1996-05-23 22:00,ZBYN 232200Z AUTO 00000KT 2 1/2SM 11/10 A2991 RMK T01100100 IEM_DS3505
ZBYN,1996-05-23 23:00,ZBYN 232300Z AUTO 00000KT 3SM 12/11 A2991 RMK T01200110 IEM_DS3505
ZBYN,1996-05-24 00:00,ZBYN 240000Z AUTO 07002KT 4SM 15/12 A2991 RMK 70138 SLP126 T01460123 52009 IEM_DS3505
ZBYN,1996-05-24 01:00,ZBYN 240100Z AUTO 00000KT 5SM 18/10 A2991 RMK T01800100 IEM_DS3505
ZBYN,1996-05-24 02:00,ZBYN 240200Z AUTO 00000KT 5SM 20/13 A2991 RMK T02000130 IEM_DS3505
ZBYN,1996-05-24 03:00,ZBYN 240300Z AUTO 04004KT 5SM 22/13 RMK SLP114 T02210129 54000 IEM_DS3505
ZBYN,1996-05-24 04:00,ZBYN 240400Z AUTO 00000KT 7SM 24/13 A2988 RMK T02400130 IEM_DS3505
ZBYN,1996-05-24 05:00,ZBYN 240500Z AUTO 29004KT 7SM 25/11 A2985 RMK T02500110 IEM_DS3505
ZBYN,1996-05-24 06:00,ZBYN 240600Z AUTO 11004KT 6SM 25/12 A2985 RMK SLP089 T02530118 57019 IEM_DS3505
ZBYN,1996-05-24 07:00,ZBYN 240700Z AUTO 32004KT 7SM 27/12 A2983 RMK T02700120 IEM_DS3505
ZBYN,1996-05-24 08:00,ZBYN 240800Z AUTO 25006KT 7SM 27/11 A2980 RMK T02700110 IEM_DS3505
ZBYN,1996-05-24 09:00,ZBYN 240900Z AUTO 22006KT 6SM 27/12 A2980 RMK SLP074 T02660119 57014 IEM_DS3505
ZBYN,1996-05-24 10:00,ZBYN 241000Z AUTO 24006KT 7SM 28/11 A2980 RMK T02800110 IEM_DS3505
ZBYN,1996-05-24 11:00,ZBYN 241100Z AUTO 27006KT 6SM 27/10 A2980 RMK T02700100 IEM_DS3505
ZBYN,1996-05-24 12:00,ZBYN 241200Z AUTO 22002KT 6SM 23/15 A2980 RMK SLP076 T02290150 57001 IEM_DS3505
ZBYN,1996-05-24 13:00,ZBYN 241300Z AUTO 12004KT 6SM 21/10 A2983 RMK T02100100 IEM_DS3505
ZBYN,1996-05-24 14:00,ZBYN 241400Z AUTO 12004KT 6SM 19/10 A2985 RMK T01900100 IEM_DS3505
ZBYN,1996-05-24 15:00,ZBYN 241500Z AUTO 32004KT 6SM 18/14 A2985 RMK SLP089 T01840135 52016 IEM_DS3505
ZBYN,1996-05-24 16:00,ZBYN 241600Z AUTO 00000KT 7SM 18/09 A2985 RMK T01800090 IEM_DS3505
ZBYN,1996-05-24 17:00,ZBYN 241700Z AUTO 12004KT 7SM 17/10 A2985 RMK T01700100 IEM_DS3505
ZBYN,1996-05-24 18:00,ZBYN 241800Z AUTO 00000KT 6SM 16/13 A2985 RMK SLP091 T01550127 52002 IEM_DS3505
ZBYN,1996-05-24 19:00,ZBYN 241900Z AUTO 00000KT 7SM 15/10 A2985 RMK T01500100 IEM_DS3505
ZBYN,1996-05-24 20:00,ZBYN 242000Z AUTO 00000KT 7SM 15/09 A2985 RMK T01500090 IEM_DS3505
ZBYN,1996-05-24 21:00,ZBYN 242100Z AUTO 00000KT 5SM 14/11 A2988 RMK SLP088 T01420113 57003 IEM_DS3505
ZBYN,1996-05-24 22:00,ZBYN 242200Z AUTO 09002KT 4SM 13/11 A2988 RMK T01300110 IEM_DS3505
ZBYN,1996-05-24 23:00,ZBYN 242300Z AUTO 13002KT 4SM 15/12 A2988 RMK T01500120 IEM_DS3505
ZBYN,1996-05-25 00:00,ZBYN 250000Z AUTO 00000KT 5SM 18/12 A2991 RMK SLP103 T01800125 52014 IEM_DS3505
ZBYN,1996-05-25 01:00,ZBYN 250100Z AUTO 17006KT 5SM 21/13 A2991 RMK T02100130 IEM_DS3505
ZBYN,1996-05-25 02:00,ZBYN 250200Z AUTO 21004KT 5SM 24/13 A2988 RMK T02400130 IEM_DS3505
ZBYN,1996-05-25 03:00,ZBYN 250300Z AUTO 18006KT 5SM 24/14 A2988 RMK SLP095 T02410138 57005 IEM_DS3505
ZBYN,1996-05-25 04:00,ZBYN 250400Z AUTO 23006KT 5SM 28/13 A2985 RMK T02800130 IEM_DS3505
ZBYN,1996-05-25 06:00,ZBYN 250600Z AUTO 18010KT 6SM 29/13 A2977 RMK SLP063 T02870133 57027 IEM_DS3505
ZBYN,1996-05-25 07:00,ZBYN 250700Z AUTO 25012KT 7SM 32/10 A2974 RMK T03200100 IEM_DS3505
ZBYN,1996-05-25 08:00,ZBYN 250800Z AUTO 25008KT 7SM 30/09 A2974 RMK T03000090 IEM_DS3505
ZBYN,1996-05-25 09:00,ZBYN 250900Z AUTO 07010KT 6SM 24/10 A2980 RMK SLP063 T02390102 57008 IEM_DS3505
ZBYN,1996-05-25 10:00,ZBYN 251000Z AUTO 08008KT 7SM 17/16 A2977 RMK T01700160 IEM_DS3505
ZBYN,1996-05-25 11:00,ZBYN 251100Z AUTO 04006KT 7SM 18/15 A2980 RMK T01800150 IEM_DS3505
ZBYN,1996-05-25 12:00,ZBYN 251200Z AUTO 16008KT 12SM 21/11 A2985 RMK 60043 SLP081 T02140112 52018 IEM_DS3505
ZBYN,1996-05-25 13:00,ZBYN 251300Z AUTO 36004KT 7SM 18/14 A2985 RMK T01800140 IEM_DS3505
ZBYN,1996-05-25 14:00,ZBYN 251400Z AUTO 00000KT 6SM 17/14 A2985 RMK T01700140 IEM_DS3505
ZBYN,1996-05-25 15:00,ZBYN 251500Z AUTO 09002KT 9SM 17/13 A2985 RMK SLP082 T01690128 52003 IEM_DS3505
ZBYN,1996-05-25 16:00,ZBYN 251600Z AUTO 11006KT 6SM 15/13 A2985 RMK T01500130 IEM_DS3505
ZBYN,1996-05-25 17:00,ZBYN 251700Z AUTO 12004KT 6SM 15/13 A2985 RMK T01500130 IEM_DS3505
ZBYN,1996-05-25 18:00,ZBYN 251800Z AUTO 00000KT 9SM 15/12 A2985 RMK SLP080 T01510123 52002 IEM_DS3505
ZBYN,1996-05-25 19:00,ZBYN 251900Z AUTO 00000KT 4SM 14/12 A2985 RMK T01400120 IEM_DS3505
ZBYN,1996-05-25 20:00,ZBYN 252000Z AUTO 12004KT 4SM 13/12 A2983 RMK T01300120 IEM_DS3505
ZBYN,1996-05-25 21:00,ZBYN 252100Z AUTO 00000KT 6SM 12/12 A2983 RMK 70039 SLP089 T01240117 57002 IEM_DS3505
ZBYN,1996-05-25 22:00,ZBYN 252200Z AUTO 00000KT 4SM 12/11 A2985 RMK T01200110 IEM_DS3505
ZBYN,1996-05-25 23:00,ZBYN 252300Z AUTO 00000KT 4SM 14/12 A2985 RMK T01400120 IEM_DS3505
ZBYN,1996-05-26 00:00,ZBYN 260000Z AUTO 36002KT 6SM 16/12 A2985 RMK 70043 SLP089 T01620120 52002 IEM_DS3505
ZBYN,1996-05-26 01:00,ZBYN 260100Z AUTO 00000KT 4SM 20/14 A2985 RMK T02000140 IEM_DS3505
ZBYN,1996-05-26 02:00,ZBYN 260200Z AUTO 00000KT 4SM 21/15 A2985 RMK T02100150 IEM_DS3505
ZBYN,1996-05-26 03:00,ZBYN 260300Z AUTO 32004KT 6SM 23/12 A2985 RMK SLP088 T02330124 52002 IEM_DS3505
ZBYN,1996-05-26 04:00,ZBYN 260400Z AUTO 00000KT 5SM 25/13 A2983 RMK T02500130 IEM_DS3505
ZBYN,1996-05-26 06:00,ZBYN 260600Z AUTO 14004KT 6SM 27/14 A2977 RMK SLP061 T02670135 57022 IEM_DS3505
ZBYN,1996-05-26 07:00,ZBYN 260700Z AUTO 12006KT 7SM 29/13 A2977 RMK T02900130 IEM_DS3505
ZBYN,1996-05-26 08:00,ZBYN 260800Z AUTO 18006KT 7SM 29/12 A2974 RMK T02900120 IEM_DS3505
ZBYN,1996-05-26 09:00,ZBYN 260900Z AUTO 16008KT 6SM 28/10 A2974 RMK SLP054 T02780095 57009 IEM_DS3505
ZBYN,1996-05-26 10:00,ZBYN 261000Z AUTO 08016KT 7SM 22/14 RMK T02200140 IEM_DS3505
ZBYN,1996-05-26 12:00,ZBYN 261200Z AUTO 36004KT 4SM 18/15 A2988 RMK 60039 SLP099 T01810151 52033 IEM_DS3505
ZBYN,1996-05-26 15:00,ZBYN 261500Z AUTO 04002KT 6SM 16/14 RMK SLP110 T01650136 52018 IEM_DS3505
ZBYN,1996-05-26 16:00,ZBYN 261600Z AUTO 08006KT 7SM 16/14 A2994 RMK T01600140 IEM_DS3505
ZBYN,1996-05-26 18:00,ZBYN 261800Z AUTO 04004KT 6SM 16/13 A2991 RMK SLP104 T01640128 57001 IEM_DS3505
ZBYN,1996-05-26 19:00,ZBYN 261900Z AUTO 00000KT 7SM 16/14 A2991 RMK T01600140 IEM_DS3505
ZBYN,1996-05-26 20:00,ZBYN 262000Z AUTO 07006KT 7SM 16/14 A2991 RMK T01600140 IEM_DS3505
ZBYN,1996-05-26 21:00,ZBYN 262100Z AUTO 32002KT 6SM 16/13 A2991 RMK 70039 SLP105 T01590128 52002 IEM_DS3505
ZBYN,1996-05-26 22:00,ZBYN 262200Z AUTO 13004KT 7SM 15/13 A2991 RMK T01500130 IEM_DS3505
ZBYN,1996-05-26 23:00,ZBYN 262300Z AUTO 10006KT 7SM 15/14 A2994 RMK T01500140 IEM_DS3505
ZBYN,1996-05-27 00:00,ZBYN 270000Z AUTO 04002KT 6SM 17/13 A2997 RMK 70039 SLP131 T01670129 52011 IEM_DS3505
ZBYN,1996-05-27 01:00,ZBYN 270100Z AUTO 11006KT 7SM 17/14 A2997 RMK T01700140 IEM_DS3505
ZBYN,1996-05-27 03:00,ZBYN 270300Z AUTO 02002KT 6SM 18/13 A2997 RMK SLP141 T01770131 52008 IEM_DS3505
ZBYN,1996-05-27 04:00,ZBYN 270400Z AUTO 07008KT 7SM 19/12 A2997 RMK T01900120 IEM_DS3505
ZBYN,1996-05-27 05:00,ZBYN 270500Z AUTO 03006KT 7SM 20/13 A2994 RMK T02000130 IEM_DS3505
ZBYN,1996-05-27 06:00,ZBYN 270600Z AUTO 02006KT 6SM 20/09 A2994 RMK SLP125 T01990094 57011 IEM_DS3505
ZBYN,1996-05-27 07:00,ZBYN 270700Z AUTO 12008KT 7SM 23/12 A2991 RMK T02300120 IEM_DS3505
ZBYN,1996-05-27 08:00,ZBYN 270800Z AUTO 09012KT 7SM 24/12 A2991 RMK T02400120 IEM_DS3505
ZBYN,1996-05-27 09:00,ZBYN 270900Z AUTO 09008KT 6SM 21/06 A2988 RMK SLP111 T02090063 57012 IEM_DS3505
ZBYN,1996-05-27 10:00,ZBYN 271000Z AUTO 11010KT 6SM 22/08 A2991 RMK T02200080 IEM_DS3505
ZBYN,1996-05-27 12:00,ZBYN 271200Z AUTO 09004KT 7SM 18/07 A2991 RMK SLP118 T01810070 52003 IEM_DS3505
ZBYN,1996-05-27 13:00,ZBYN 271300Z AUTO 00000KT 6SM 16/10 A2994 RMK T01600100 IEM_DS3505
ZBYN,1996-05-27 14:00,ZBYN 271400Z AUTO 00000KT 6SM 16/10 A2994 RMK T01600100 IEM_DS3505
ZBYN,1996-05-27 15:00,ZBYN 271500Z AUTO 00000KT 6SM 15/09 A2994 RMK SLP130 T01480088 52008 IEM_DS3505
ZBYN,1996-05-27 16:00,ZBYN 271600Z AUTO 00000KT 6SM 13/10 A2994 RMK T01300100 IEM_DS3505
ZBYN,1996-05-27 17:00,ZBYN 271700Z AUTO 00000KT 7SM 13/08 A2994 RMK T01300080 IEM_DS3505
ZBYN,1996-05-27 18:00,ZBYN 271800Z AUTO 36004KT 6SM 13/07 A2994 RMK SLP125 T01260071 57005 IEM_DS3505
ZBYN,1996-05-27 19:00,ZBYN 271900Z AUTO 00000KT 7SM 12/10 A2994 RMK T01200100 IEM_DS3505
ZBYN,1996-05-27 20:00,ZBYN 272000Z AUTO 00000KT 7SM 10/09 A2994 RMK T01000090 IEM_DS3505
ZBYN,1996-05-27 21:00,ZBYN 272100Z AUTO 02002KT 6SM 12/08 A2994 RMK SLP128 T01150076 52003 IEM_DS3505
ZBYN,1996-05-27 22:00,ZBYN 272200Z AUTO 00000KT 7SM 11/09 A2994 RMK T01100090 IEM_DS3505
ZBYN,1996-05-27 23:00,ZBYN 272300Z AUTO 00000KT 4SM 12/10 A2994 RMK T01200100 IEM_DS3505
ZBYN,1996-05-28 00:00,ZBYN 280000Z AUTO 34004KT 6SM 15/07 A2997 RMK SLP136 T01510071 52008 IEM_DS3505
ZBYN,1996-05-28 01:00,ZBYN 280100Z AUTO 01002KT 7SM 17/10 A2997 RMK T01700100 IEM_DS3505
ZBYN,1996-05-28 02:00,ZBYN 280200Z AUTO 00000KT 7SM 20/11 A2994 RMK T02000110 IEM_DS3505
ZBYN,1996-05-28 03:00,ZBYN 280300Z AUTO 22004KT 6SM 20/09 A2994 RMK SLP125 T02040094 57007 IEM_DS3505
ZBYN,1996-05-28 04:00,ZBYN 280400Z AUTO 29006KT 7SM 22/12 A2991 RMK T02200120 IEM_DS3505
ZBYN,1996-05-28 05:00,ZBYN 280500Z AUTO 33008KT 6SM 24/13 A2991 RMK T02400130 IEM_DS3505
ZBYN,1996-05-28 06:00,ZBYN 280600Z AUTO 16004KT 6SM 24/11 A2985 RMK SLP097 T02440111 57023 IEM_DS3505
ZBYN,1996-05-28 07:00,ZBYN 280700Z AUTO 30004KT 6SM 26/11 A2985 RMK T02600110 IEM_DS3505
ZBYN,1996-05-28 08:00,ZBYN 280800Z AUTO 32004KT 6SM 28/11 A2983 RMK T02800110 IEM_DS3505
ZBYN,1996-05-28 09:00,ZBYN 280900Z AUTO 16002KT 6SM 26/10 A2983 RMK SLP078 T02610103 57016 IEM_DS3505
ZBYN,1996-05-28 10:00,ZBYN 281000Z AUTO 12012KT 6SM 26/14 A2983 RMK T02600140 IEM_DS3505
ZBYN,1996-05-28 11:00,ZBYN 281100Z AUTO 09006KT 6SM 23/12 A2980 RMK T02300120 IEM_DS3505
ZBYN,1996-05-28 12:00,ZBYN 281200Z AUTO 09010KT 6SM 22/08 A2983 RMK SLP081 T02240085 52002 IEM_DS3505
ZBYN,1996-05-28 13:00,ZBYN 281300Z AUTO 11006KT 6SM 19/11 A2985 RMK T01900110 IEM_DS3505
ZBYN,1996-05-28 14:00,ZBYN 281400Z AUTO 10008KT 7SM 19/11 A2988 RMK T01900110 IEM_DS3505
ZBYN,1996-05-28 15:00,ZBYN 281500Z AUTO 09008KT 6SM 18/10 A2988 RMK SLP103 T01810098 52022 IEM_DS3505
ZBYN,1996-05-28 16:00,ZBYN 281600Z AUTO 07008KT 7SM 17/12 A2988 RMK T01700120 IEM_DS3505
ZBYN,1996-05-28 17:00,ZBYN 281700Z AUTO 08006KT 7SM 17/12 A2988 RMK T01700120 IEM_DS3505
ZBYN,1996-05-28 18:00,ZBYN 281800Z AUTO 34002KT 6SM 16/12 A2988 RMK SLP101 T01640116 52001 IEM_DS3505
ZBYN,1996-05-28 19:00,ZBYN 281900Z AUTO 11004KT 7SM 14/12 A2988 RMK T01400120 IEM_DS3505
ZBYN,1996-05-28 20:00,ZBYN 282000Z AUTO 10004KT 7SM 14/12 A2988 RMK T01400120 IEM_DS3505
ZBYN,1996-05-28 21:00,ZBYN 282100Z AUTO 32004KT 6SM 14/10 A2988 RMK SLP100 T01370098 57002 IEM_DS3505
ZBYN,1996-05-28 22:00,ZBYN 282200Z AUTO 00000KT 4SM 13/11 A2991 RMK T01300110 IEM_DS3505
ZBYN,1996-05-29 00:00,ZBYN 290000Z AUTO 32002KT 5SM 17/10 A2991 RMK SLP112 T01710102 52010 IEM_DS3505
ZBYN,1996-05-29 01:00,ZBYN 290100Z AUTO 00000KT 3SM 19/13 A2991 RMK T01900130 IEM_DS3505
ZBYN,1996-05-29 02:00,ZBYN 290200Z AUTO 00000KT 5SM 22/13 A2991 RMK T02200130 IEM_DS3505
ZBYN,1996-05-29 03:00,ZBYN 290300Z AUTO 18004KT 5SM 23/14 A2991 RMK SLP104 T02340135 57004 IEM_DS3505
ZBYN,1996-05-29 04:00,ZBYN 290400Z AUTO 15002KT 7SM 25/13 A2988 RMK T02500130 IEM_DS3505
ZBYN,1996-05-29 05:00,ZBYN 290500Z AUTO 19004KT 7SM 27/14 A2985 RMK T02700140 IEM_DS3505
ZBYN,1996-05-29 06:00,ZBYN 290600Z AUTO 14008KT 7SM 27/12 A2985 RMK SLP078 T02700125 57021 IEM_DS3505
ZBYN,1996-05-29 07:00,ZBYN 290700Z AUTO 29002KT 7SM 29/12 A2983 RMK T02900120 IEM_DS3505
ZBYN,1996-05-29 08:00,ZBYN 290800Z AUTO 00000KT 7SM 30/12 A2980 RMK T03000120 IEM_DS3505
ZBYN,1996-05-29 09:00,ZBYN 290900Z AUTO 22004KT 7SM 28/11 A2980 RMK SLP064 T02850113 57015 IEM_DS3505
ZBYN,1996-05-29 10:00,ZBYN 291000Z AUTO 21008KT 7SM 29/11 A2980 RMK T02900110 IEM_DS3505
ZBYN,1996-05-29 11:00,ZBYN 291100Z AUTO 12008KT 6SM 27/15 A2980 RMK T02700150 IEM_DS3505
ZBYN,1996-05-29 12:00,ZBYN 291200Z AUTO 09012KT 7SM 25/13 A2983 RMK SLP077 T02500129 52012 IEM_DS3505
ZBYN,1996-05-29 14:00,ZBYN 291400Z AUTO 10008KT 6SM 21/15 A2988 RMK T02100150 IEM_DS3505
ZBYN,1996-05-29 15:00,ZBYN 291500Z AUTO 11012KT 7SM 22/13 A2991 RMK SLP097 T02190130 52023 IEM_DS3505
ZBYN,1996-05-29 16:00,ZBYN 291600Z AUTO 11006KT 6SM 20/15 A2991 RMK T02000150 IEM_DS3505
ZBYN,1996-05-29 18:00,ZBYN 291800Z AUTO 14004KT 6SM 18/14 A2994 RMK SLP103 T01800136 52003 IEM_DS3505
ZBYN,1996-05-29 20:00,ZBYN 292000Z AUTO 14004KT 6SM 16/13 A2994 RMK T01600130 IEM_DS3505
ZBYN,1996-05-29 21:00,ZBYN 292100Z AUTO 11004KT 6SM 16/13 A2994 RMK SLP109 T01610132 52005 IEM_DS3505
ZBYN,1996-05-29 22:00,ZBYN 292200Z AUTO 10004KT 6SM 16/13 A2997 RMK T01600130 IEM_DS3505
ZBYN,1996-05-29 23:00,ZBYN 292300Z AUTO 09006KT 6SM 17/15 A2997 RMK T01700150 IEM_DS3505
ZBYN,1996-05-30 00:00,ZBYN 300000Z AUTO 14004KT 6SM 19/13 A2997 RMK SLP122 T01910134 52011 IEM_DS3505
ZBYN,1996-05-30 01:00,ZBYN 300100Z AUTO 00000KT 7SM 22/15 A2997 RMK T02200150 IEM_DS3505
ZBYN,1996-05-30 02:00,ZBYN 300200Z AUTO 18004KT 7SM 24/15 A2997 RMK T02400150 IEM_DS3505
ZBYN,1996-05-30 03:00,ZBYN 300300Z AUTO 20002KT 6SM 24/14 A2997 RMK SLP119 T02420141 54000 IEM_DS3505
ZBYN,1996-05-30 04:00,ZBYN 300400Z AUTO 00000KT 7SM 26/14 A2994 RMK T02600140 IEM_DS3505
ZBYN,1996-05-30 05:00,ZBYN 300500Z AUTO 21010KT 7SM 28/14 A2991 RMK T02800140 IEM_DS3505
ZBYN,1996-05-30 06:00,ZBYN 300600Z AUTO 11004KT 6SM 27/12 A2988 RMK SLP096 T02730120 57022 IEM_DS3505
ZBYN,1996-05-30 07:00,ZBYN 300700Z AUTO 19004KT 7SM 30/13 A2985 RMK T03000130 IEM_DS3505
ZBYN,1996-05-30 08:00,ZBYN 300800Z AUTO 21008KT 7SM 30/12 A2985 RMK T03000120 IEM_DS3505
ZBYN,1996-05-30 09:00,ZBYN 300900Z AUTO 18010KT 7SM 28/09 A2985 RMK SLP082 T02840092 57014 IEM_DS3505
ZBYN,1996-05-30 10:00,ZBYN 301000Z AUTO 21010KT 7SM 29/11 A2985 RMK T02900110 IEM_DS3505
ZBYN,1996-05-30 11:00,ZBYN 301100Z AUTO 18006KT 7SM 28/10 A2985 RMK T02800100 IEM_DS3505
ZBYN,1996-05-30 12:00,ZBYN 301200Z AUTO 11006KT 7SM 24/12 A2988 RMK SLP092 T02420121 52007 IEM_DS3505
ZBYN,1996-05-30 13:00,ZBYN 301300Z AUTO 09010KT 6SM 23/13 A2991 RMK T02300130 IEM_DS3505
ZBYN,1996-05-30 14:00,ZBYN 301400Z AUTO 12004KT 6SM 22/12 A2994 RMK T02200120 IEM_DS3505
ZBYN,1996-05-30 15:00,ZBYN 301500Z AUTO 11008KT 6SM 22/12 A2994 RMK SLP111 T02240124 52022 IEM_DS3505
ZBYN,1996-05-30 16:00,ZBYN 301600Z AUTO 11004KT 6SM 20/11 A2997 RMK T02000110 IEM_DS3505
ZBYN,1996-05-30 17:00,ZBYN 301700Z AUTO 11006KT 6SM 19/12 A2997 RMK T01900120 IEM_DS3505
ZBYN,1996-05-30 18:00,ZBYN 301800Z AUTO 14006KT 6SM 18/12 A2997 RMK SLP115 T01850119 52003 IEM_DS3505
ZBYN,1996-05-30 19:00,ZBYN 301900Z AUTO 12002KT 6SM 17/11 A2997 RMK T01700110 IEM_DS3505
ZBYN,1996-05-30 20:00,ZBYN 302000Z AUTO 12004KT 6SM 16/12 A2997 RMK T01600120 IEM_DS3505
ZBYN,1996-05-30 21:00,ZBYN 302100Z AUTO 12002KT 6SM 16/12 A2997 RMK T01600120 IEM_DS3505
ZBYN,1996-05-30 22:00,ZBYN 302200Z AUTO 00000KT 6SM 15/12 A3000 RMK T01500120 IEM_DS3505
ZBYN,1996-05-30 23:00,ZBYN 302300Z AUTO 00000KT 7SM 16/13 A3000 RMK T01600130 IEM_DS3505
ZBYN,1996-05-31 00:00,ZBYN 310000Z AUTO 00000KT 6SM 20/13 A3000 RMK SLP131 T02010132 52009 IEM_DS3505
ZBYN,1996-05-31 01:00,ZBYN 310100Z AUTO 16004KT 6SM 22/14 A3000 RMK T02200140 IEM_DS3505
ZBYN,1996-05-31 02:00,ZBYN 310200Z AUTO 00000KT 6SM 23/14 A3000 RMK T02300140 IEM_DS3505
ZBYN,1996-05-31 03:00,ZBYN 310300Z AUTO 09004KT 5SM 24/10 A2997 RMK SLP123 T02430100 57004 IEM_DS3505
ZBYN,1996-05-31 04:00,ZBYN 310400Z AUTO 22010KT 6SM 27/10 A2997 RMK T02700100 IEM_DS3505
ZBYN,1996-05-31 05:00,ZBYN 310500Z AUTO 00000KT 6SM 28/08 A2994 RMK T02800080 IEM_DS3505
ZBYN,1996-05-31 06:00,ZBYN 310600Z AUTO 22010KT 6SM 27/10 A2991 RMK SLP104 T02700104 57019 IEM_DS3505
ZBYN,1996-05-31 07:00,ZBYN 310700Z AUTO 25008KT 6SM 29/09 A2991 RMK T02900090 IEM_DS3505
ZBYN,1996-05-31 08:00,ZBYN 310800Z AUTO 23008KT 6SM 28/10 A2988 RMK T02800100 IEM_DS3505
ZBYN,1996-05-31 09:00,ZBYN 310900Z AUTO 20010KT 6SM 26/12 A2988 RMK SLP096 T02600122 57012 IEM_DS3505
ZBYN,1996-05-31 10:00,ZBYN 311000Z AUTO 23017KT 7SM 24/12 A2988 RMK T02400120 IEM_DS3505
ZBYN,1996-05-31 11:00,ZBYN 311100Z AUTO 23008KT 7SM 23/12 A2991 RMK T02300120 IEM_DS3505
ZBYN,1996-05-31 12:00,ZBYN 311200Z AUTO 18010KT 6SM 22/11 A2991 RMK SLP104 T02250113 52008 IEM_DS3505
ZBYN,1996-05-31 14:00,ZBYN 311400Z AUTO 17008KT 7SM 22/13 A2994 RMK T02200130 IEM_DS3505
ZBYN,1996-05-31 15:00,ZBYN 311500Z AUTO 18008KT 6SM 20/12 A2994 RMK SLP113 T02030123 52011 IEM_DS3505
ZBYN,1996-05-31 16:00,ZBYN 311600Z AUTO 20006KT 7SM 20/13 A2994 RMK T02000130 IEM_DS3505
ZBYN,1996-05-31 17:00,ZBYN 311700Z AUTO 18006KT 7SM 20/13 A2994 RMK T02000130 IEM_DS3505
ZBYN,1996-05-31 18:00,ZBYN 311800Z AUTO 14008KT 6SM 19/13 A2994 RMK SLP106 T01890128 57004 IEM_DS3505
ZBYN,1996-05-31 19:00,ZBYN 311900Z AUTO 17004KT 4SM 18/14 A2991 RMK T01800140 IEM_DS3505
ZBYN,1996-05-31 20:00,ZBYN 312000Z AUTO 00000KT 4SM 18/13 A2991 RMK T01800130 IEM_DS3505
ZBYN,1996-05-31 21:00,ZBYN 312100Z AUTO 11004KT 6SM 17/13 A2991 RMK SLP103 T01730134 57007 IEM_DS3505
ZBYN,1996-05-31 22:00,ZBYN 312200Z AUTO 17006KT 4SM 18/13 A2991 RMK T01800130 IEM_DS3505
ZBYN,1996-05-31 23:00,ZBYN 312300Z AUTO 00000KT 4SM 18/14 A2991 RMK T01800140 IEM_DS3505
ZBYN,1996-06-01 00:00,ZBYN 010000Z AUTO 11004KT 5SM 19/14 A2991 RMK SLP110 T01900140 52004 IEM_DS3505
ZBYN,1996-06-01 01:00,ZBYN 010100Z AUTO 17004KT 3SM 22/14 A2991 RMK T02200140 IEM_DS3505
ZBYN,1996-06-01 02:00,ZBYN 010200Z AUTO 22010KT 6SM 23/13 A2991 RMK T02300130 IEM_DS3505
ZBYN,1996-06-01 03:00,ZBYN 010300Z AUTO 28006KT 6SM 24/11 A2991 RMK T02400110 IEM_DS3505
ZBYN,1996-06-01 04:00,ZBYN 010400Z AUTO 22004KT 6SM 26/13 A2988 RMK T02600130 IEM_DS3505
ZBYN,1996-06-01 05:00,ZBYN 010500Z AUTO 28004KT 6SM 27/13 A2985 RMK T02700130 IEM_DS3505
ZBYN,1996-06-01 06:00,ZBYN 010600Z AUTO 32004KT 5SM 27/12 A2983 RMK SLP074 T02710117 57020 IEM_DS3505
ZBYN,1996-06-01 07:00,ZBYN 010700Z AUTO 30006KT 7SM 27/12 A2983 RMK T02700120 IEM_DS3505
ZBYN,1996-06-01 08:00,ZBYN 010800Z AUTO 21006KT 6SM 28/12 A2980 RMK T02800120 IEM_DS3505
ZBYN,1996-06-01 09:00,ZBYN 010900Z AUTO 16010KT 6SM 25/12 A2980 RMK SLP068 T02480120 57011 IEM_DS3505
ZBYN,1996-06-01 10:00,ZBYN 011000Z AUTO 22008KT 7SM RMK IEM_DS3505
ZBYN,1996-06-01 11:00,ZBYN 011100Z AUTO 14006KT 7SM 23/13 A2983 RMK T02300130 IEM_DS3505
ZBYN,1996-06-01 12:00,ZBYN 011200Z AUTO 14008KT 7SM 22/12 A2985 RMK SLP081 T02190122 52010 IEM_DS3505
ZBYN,1996-06-01 13:00,ZBYN 011300Z AUTO 21004KT 7SM 22/14 A2988 RMK T02200140 IEM_DS3505
ZBYN,1996-06-01 14:00,ZBYN 011400Z AUTO 22006KT 7SM 20/14 A2988 RMK T02000140 IEM_DS3505
ZBYN,1996-06-01 15:00,ZBYN 011500Z AUTO 16006KT 6SM 20/14 A2988 RMK SLP092 T02000135 52014 IEM_DS3505
ZBYN,1996-06-01 18:00,ZBYN 011800Z AUTO 11004KT 6SM 18/14 A2990 RMK SLP091 T01830145 52001 IEM_DS3505
ZBYN,1996-06-01 20:00,ZBYN 012000Z AUTO 15006KT 6SM 18/15 A2988 RMK T01800150 IEM_DS3505
ZBYN,1996-06-01 21:00,ZBYN 012100Z AUTO 14002KT 6SM 17/14 A2988 RMK SLP089 T01710139 57006 IEM_DS3505
ZBYN,1996-06-01 22:00,ZBYN 012200Z AUTO 00000KT 6SM 16/12 A2985 RMK T01600120 IEM_DS3505
ZBYN,1996-06-01 23:00,ZBYN 012300Z AUTO 00000KT 6SM 16/13 A2988 RMK T01600130 IEM_DS3505
ZBYN,1996-06-02 00:00,ZBYN 020000Z AUTO 09002KT 6SM 20/12 A2988 RMK SLP092 T01950125 52002 IEM_DS3505
ZBYN,1996-06-02 01:00,ZBYN 020100Z AUTO 00000KT 6SM 21/13 A2985 RMK T02100130 IEM_DS3505
ZBYN,1996-06-02 02:00,ZBYN 020200Z AUTO 00000KT 6SM 23/14 A2985 RMK T02300140 IEM_DS3505
ZBYN,1996-06-02 03:00,ZBYN 020300Z AUTO 11004KT 6SM 24/14 A2985 RMK SLP078 T02440136 57009 IEM_DS3505
ZBYN,1996-06-02 04:00,ZBYN 020400Z AUTO 20004KT 6SM 27/14 A2983 RMK T02700140 IEM_DS3505
ZBYN,1996-06-02 05:00,ZBYN 020500Z AUTO 21004KT 7SM 28/13 A2980 RMK T02800130 IEM_DS3505
ZBYN,1996-06-02 06:00,ZBYN 020600Z AUTO 18006KT 7SM 27/13 A2980 RMK SLP054 T02700133 57021 IEM_DS3505
ZBYN,1996-06-02 07:00,ZBYN 020700Z AUTO 13004KT 7SM 27/16 A2977 RMK T02700160 IEM_DS3505
ZBYN,1996-06-02 08:00,ZBYN 020800Z AUTO 19012KT 7SM 29/14 A2974 RMK T02900140 IEM_DS3505
ZBYN,1996-06-02 09:00,ZBYN 020900Z AUTO 20006KT 7SM 27/12 A2974 RMK SLP043 T02670123 57012 IEM_DS3505
ZBYN,1996-06-02 10:00,ZBYN 021000Z AUTO 21010KT 7SM 27/11 A2977 RMK T02700110 IEM_DS3505
ZBYN,1996-06-02 11:00,ZBYN 021100Z AUTO 23004KT 7SM 26/12 A2980 RMK T02600120 IEM_DS3505
ZBYN,1996-06-02 12:00,ZBYN 021200Z AUTO 36004KT 6SM 23/13 A2980 RMK SLP067 T02330134 52021 IEM_DS3505
ZBYN,1996-06-02 13:00,ZBYN 021300Z AUTO 21006KT 7SM 23/13 A2983 RMK T02300130 IEM_DS3505
ZBYN,1996-06-02 14:00,ZBYN 021400Z AUTO 00000KT 7SM 22/15 A2983 RMK T02200150 IEM_DS3505
ZBYN,1996-06-02 15:00,ZBYN 021500Z AUTO 11006KT 6SM 21/14 A2985 RMK SLP081 T02060140 52016 IEM_DS3505
ZBYN,1996-06-02 16:00,ZBYN 021600Z AUTO 00000KT 7SM 20/14 A2985 RMK T02000140 IEM_DS3505
ZBYN,1996-06-02 17:00,ZBYN 021700Z AUTO 00000KT 6SM 19/14 A2985 RMK T01900140 IEM_DS3505
ZBYN,1996-06-02 18:00,ZBYN 021800Z AUTO 34002KT 6SM 20/15 A2985 RMK SLP082 T01960150 52003 IEM_DS3505
ZBYN,1996-06-02 19:00,ZBYN 021900Z AUTO 00000KT 6SM 19/15 A2985 RMK T01900150 IEM_DS3505
ZBYN,1996-06-02 20:00,ZBYN 022000Z AUTO 00000KT 7SM 19/15 A2985 RMK T01900150 IEM_DS3505
ZBYN,1996-06-02 21:00,ZBYN 022100Z AUTO 34002KT 5SM 19/15 A2985 RMK SLP077 T01940146 57005 IEM_DS3505
ZBYN,1996-06-02 22:00,ZBYN 022200Z AUTO 00000KT 7SM 19/15 A2988 RMK T01900150 IEM_DS3505
ZBYN,1996-06-02 23:00,ZBYN 022300Z AUTO 00000KT 7SM 20/15 A2988 RMK T02000150 IEM_DS3505
ZBYN,1996-06-03 00:00,ZBYN 030000Z AUTO 04004KT 5SM 21/14 A2988 RMK SLP093 T02060145 52011 IEM_DS3505
ZBYN,1996-06-03 01:00,ZBYN 030100Z AUTO 06008KT 7SM 22/14 A2988 RMK T02200140 IEM_DS3505
ZBYN,1996-06-03 02:00,ZBYN 030200Z AUTO 07010KT 7SM 23/15 A2991 RMK T02300150 IEM_DS3505
ZBYN,1996-06-03 03:00,ZBYN 030300Z AUTO 11012KT 4SM 24/09 A2991 RMK SLP102 T02350091 52009 IEM_DS3505
ZBYN,1996-06-03 04:00,ZBYN 030400Z AUTO 09016KT 6SM 25/09 A2991 RMK T02500090 IEM_DS3505
ZBYN,1996-06-03 05:00,ZBYN 030500Z AUTO 09008KT 6SM 25/09 A2988 RMK T02500090 IEM_DS3505
ZBYN,1996-06-03 06:00,ZBYN 030600Z AUTO 09010KT 6SM 24/02 A2988 RMK SLP092 T02430019 57010 IEM_DS3505
ZBYN,1996-06-03 07:00,ZBYN 030700Z AUTO 10008KT 6SM 23/08 A2985 RMK T02300080 IEM_DS3505
ZBYN,1996-06-03 08:00,ZBYN 030800Z AUTO 10010KT 6SM 24/08 A2983 RMK T02400080 IEM_DS3505
ZBYN,1996-06-03 09:00,ZBYN 030900Z AUTO 07012KT 6SM 24/02 A2983 RMK SLP074 T02390019 57017 IEM_DS3505
ZBYN,1996-06-03 10:00,ZBYN 031000Z AUTO 10012KT 6SM 22/07 A2983 RMK T02200070 IEM_DS3505
ZBYN,1996-06-03 11:00,ZBYN 031100Z AUTO 10014KT 6SM 22/06 A2985 RMK T02200060 IEM_DS3505
ZBYN,1996-06-03 12:00,ZBYN 031200Z AUTO 09010KT 6SM 22/02 A2987 RMK SLP082 T02230018 52007 IEM_DS3505
ZBYN,1996-06-03 14:00,ZBYN 031400Z AUTO 24008KT 6SM 20/09 A2991 RMK T02000090 IEM_DS3505
ZBYN,1996-06-03 15:00,ZBYN 031500Z AUTO 20008KT 6SM 20/10 A2991 RMK SLP103 T01970098 52019 IEM_DS3505
ZBYN,1996-06-03 16:00,ZBYN 031600Z AUTO 25008KT 6SM 19/10 A2991 RMK T01900100 IEM_DS3505
ZBYN,1996-06-03 17:00,ZBYN 031700Z AUTO 24010KT 6SM 18/10 A2991 RMK T01800100 IEM_DS3505
ZBYN,1996-06-03 18:00,ZBYN 031800Z AUTO 18004KT 6SM 18/11 A2995 RMK SLP112 T01790108 52007 IEM_DS3505
ZBYN,1996-06-03 19:00,ZBYN 031900Z AUTO 18006KT 7SM 18/11 A2994 RMK T01800110 IEM_DS3505
ZBYN,1996-06-03 20:00,ZBYN 032000Z AUTO 20006KT 7SM 17/12 A2994 RMK T01700120 IEM_DS3505
ZBYN,1996-06-03 21:00,ZBYN 032100Z AUTO 14002KT 7SM 15/13 A2994 RMK SLP119 T01540128 52002 IEM_DS3505
ZBYN,1996-06-03 22:00,ZBYN 032200Z AUTO 35002KT 7SM 16/13 A2994 RMK T01600130 IEM_DS3505
ZBYN,1996-06-03 23:00,ZBYN 032300Z AUTO 01002KT 7SM 16/13 A2994 RMK T01600130 IEM_DS3505
ZBYN,1996-06-04 00:00,ZBYN 040000Z AUTO 32004KT 7SM 16/13 A2997 RMK 60000 70001 SLP126 T01650134 52006 IEM_DS3505
ZBYN,1996-06-04 01:00,ZBYN 040100Z AUTO 29006KT 7SM 17/14 A2997 RMK T01700140 IEM_DS3505
ZBYN,1996-06-04 02:00,ZBYN 040200Z AUTO 31006KT 6SM 17/15 A2997 RMK T01700150 IEM_DS3505
ZBYN,1996-06-04 03:00,ZBYN 040300Z AUTO 32004KT 6SM 18/13 A2997 RMK SLP132 T01780128 52004 IEM_DS3505
ZBYN,1996-06-04 04:00,ZBYN 040400Z AUTO 32006KT 7SM 18/13 A2997 RMK T01800130 IEM_DS3505
ZBYN,1996-06-04 05:00,ZBYN 040500Z AUTO 32006KT 7SM 18/13 A2997 RMK T01800130 IEM_DS3505
ZBYN,1996-06-04 06:00,ZBYN 040600Z AUTO 32002KT 7SM 19/12 A2994 RMK 60001 SLP130 T01910118 57003 IEM_DS3505
ZBYN,1996-06-04 07:00,ZBYN 040700Z AUTO 26006KT 7SM 19/13 A2994 RMK T01900130 IEM_DS3505
ZBYN,1996-06-04 08:00,ZBYN 040800Z AUTO 26010KT 7SM 19/13 A2994 RMK T01900130 IEM_DS3505
ZBYN,1996-06-04 09:00,ZBYN 040900Z AUTO 20004KT 7SM 18/13 A2994 RMK SLP126 T01790126 57009 IEM_DS3505
ZBYN,1996-06-04 10:00,ZBYN 041000Z AUTO 22008KT 7SM 18/13 A2991 RMK T01800130 IEM_DS3505
ZBYN,1996-06-04 11:00,ZBYN 041100Z AUTO 22006KT 7SM 18/12 A2991 RMK T01800120 IEM_DS3505
ZBYN,1996-06-04 12:00,ZBYN 041200Z AUTO 16004KT 6SM 17/14 A2991 RMK SLP122 T01680136 57003 IEM_DS3505
ZBYN,1996-06-04 13:00,ZBYN 041300Z AUTO 17002KT 7SM 16/13 A2994 RMK T01600130 IEM_DS3505
ZBYN,1996-06-04 14:00,ZBYN 041400Z AUTO 14004KT 7SM 16/13 A2994 RMK T01600130 IEM_DS3505
ZBYN,1996-06-04 15:00,ZBYN 041500Z AUTO 11004KT 6SM 15/13 A2994 RMK SLP126 T01540128 52003 IEM_DS3505
ZBYN,1996-06-04 16:00,ZBYN 041600Z AUTO 12002KT 6SM 14/13 A2994 RMK T01400130 IEM_DS3505
ZBYN,1996-06-04 17:00,ZBYN 041700Z AUTO 11004KT 6SM 13/11 A2994 RMK T01300110 IEM_DS3505
ZBYN,1996-06-04 18:00,ZBYN 041800Z AUTO 11002KT 6SM 13/12 A2994 RMK SLP127 T01280117 57001 IEM_DS3505
ZBYN,1996-06-04 19:00,ZBYN 041900Z AUTO 12004KT 6SM 11/10 A2994 RMK T01100100 IEM_DS3505
ZBYN,1996-06-04 20:00,ZBYN 042000Z AUTO 09004KT 6SM 10/09 A2991 RMK T01000090 IEM_DS3505
ZBYN,1996-06-04 21:00,ZBYN 042100Z AUTO 14004KT 6SM 12/10 A2991 RMK 70002 SLP131 T01170104 54000 IEM_DS3505
ZBYN,1996-06-04 22:00,ZBYN 042200Z AUTO 00000KT 4SM 12/11 A2994 RMK T01200110 IEM_DS3505
ZBYN,1996-06-04 23:00,ZBYN 042300Z AUTO 00000KT 1 1/2SM 14/12 A2991 RMK T01400120 IEM_DS3505
ZBYN,1996-06-05 00:00,ZBYN 050000Z AUTO 32004KT 6SM 15/13 A2994 RMK 70001 SLP128 T01500127 52001 IEM_DS3505
ZBYN,1996-06-05 02:00,ZBYN 050200Z AUTO 36004KT 7SM 20/12 A2991 RMK T02000120 IEM_DS3505
ZBYN,1996-06-05 03:00,ZBYN 050300Z AUTO 16004KT 6SM 22/11 A2991 RMK SLP114 T02150107 57006 IEM_DS3505
ZBYN,1996-06-05 04:00,ZBYN 050400Z AUTO 26006KT 7SM 23/10 A2988 RMK T02300100 IEM_DS3505
ZBYN,1996-06-05 05:00,ZBYN 050500Z AUTO 00000KT 6SM 25/08 A2985 RMK T02500080 IEM_DS3505
ZBYN,1996-06-05 06:00,ZBYN 050600Z AUTO 20008KT 12SM 25/04 A2983 RMK SLP085 T02530045 57024 IEM_DS3505
ZBYN,1996-06-05 07:00,ZBYN 050700Z AUTO 25008KT 6SM 26/07 A2983 RMK T02600070 IEM_DS3505
ZBYN,1996-06-05 08:00,ZBYN 050800Z AUTO 27004KT 6SM 27/07 A2980 RMK T02700070 IEM_DS3505
ZBYN,1996-06-05 09:00,ZBYN 050900Z AUTO 22008KT 9SM 26/07 A2977 RMK SLP070 T02560070 57015 IEM_DS3505
ZBYN,1996-06-05 11:00,ZBYN 051100Z AUTO 26006KT 6SM 25/09 A2980 RMK T02500090 IEM_DS3505
ZBYN,1996-06-05 12:00,ZBYN 051200Z AUTO 20006KT 7SM 23/10 A2980 RMK SLP071 T02340101 52002 IEM_DS3505
ZBYN,1996-06-05 13:00,ZBYN 051300Z AUTO 20004KT 6SM 23/10 A2983 RMK T02300100 IEM_DS3505
ZBYN,1996-06-05 14:00,ZBYN 051400Z AUTO 18006KT 6SM 22/10 A2985 RMK T02200100 IEM_DS3505
ZBYN,1996-06-05 15:00,ZBYN 051500Z AUTO 16006KT 6SM 20/12 A2985 RMK SLP080 T02040122 52013 IEM_DS3505
ZBYN,1996-06-05 18:00,ZBYN 051800Z AUTO 20012KT 5SM 19/15 A2986 RMK 60000 SLP080 T01860150 52003 IEM_DS3505
ZBYN,1996-06-05 21:00,ZBYN 052100Z AUTO 18008KT 4SM 15/15 RMK 70016 SLP100 T01530151 52014 IEM_DS3505
ZBYN,1996-06-05 22:00,ZBYN 052200Z AUTO 20004KT 7SM 14/14 A2991 RMK T01400140 IEM_DS3505
ZBYN,1996-06-05 23:00,ZBYN 052300Z AUTO 19006KT 7SM 14/13 A2991 RMK T01400130 IEM_DS3505
ZBYN,1996-06-06 00:00,ZBYN 060000Z AUTO 14006KT 4SM 15/13 A2991 RMK 60031 70031 SLP111 T01510132 52007 IEM_DS3505
ZBYN,1996-06-06 01:00,ZBYN 060100Z AUTO 15004KT 7SM 15/14 A2991 RMK T01500140 IEM_DS3505
ZBYN,1996-06-06 02:00,ZBYN 060200Z AUTO 20006KT 7SM 16/14 A2994 RMK T01600140 IEM_DS3505
ZBYN,1996-06-06 03:00,ZBYN 060300Z AUTO 18004KT 5SM 16/14 A2994 RMK SLP124 T01570135 52008 IEM_DS3505
ZBYN,1996-06-06 04:00,ZBYN 060400Z AUTO 24006KT 7SM 17/13 A2994 RMK T01700130 IEM_DS3505
ZBYN,1996-06-06 05:00,ZBYN 060500Z AUTO 00000KT 7SM 17/14 A2994 RMK T01700140 IEM_DS3505
ZBYN,1996-06-06 06:00,ZBYN 060600Z AUTO 32004KT 5SM 18/14 A2991 RMK SLP119 T01750138 57004 IEM_DS3505
ZBYN,1996-06-06 07:00,ZBYN 060700Z AUTO 02002KT 7SM 20/15 A2991 RMK T02000150 IEM_DS3505
ZBYN,1996-06-06 09:00,ZBYN 060900Z AUTO 32004KT 6SM 21/14 A2991 RMK SLP111 T02090145 57007 IEM_DS3505
ZBYN,1996-06-06 10:00,ZBYN 061000Z AUTO 20004KT 4SM 21/16 A2991 RMK T02100160 IEM_DS3505
ZBYN,1996-06-06 11:00,ZBYN 061100Z AUTO 03008KT 6SM 21/12 A2991 RMK T02100120 IEM_DS3505
ZBYN,1996-06-06 12:00,ZBYN 061200Z AUTO 36002KT 9SM 20/10 A2994 RMK SLP124 T01970103 52010 IEM_DS3505
ZBYN,1996-06-06 13:00,ZBYN 061300Z AUTO 00000KT 7SM 17/12 A2997 RMK T01700120 IEM_DS3505
ZBYN,1996-06-06 15:00,ZBYN 061500Z AUTO 34004KT 9SM 16/11 A3000 RMK SLP150 T01610111 52019 IEM_DS3505
ZBYN,1996-06-06 16:00,ZBYN 061600Z AUTO 00000KT 3SM 15/13 A3000 RMK T01500130 IEM_DS3505
ZBYN,1996-06-06 17:00,ZBYN 061700Z AUTO 00000KT 3SM 15/13 A3000 RMK T01500130 IEM_DS3505
ZBYN,1996-06-06 18:00,ZBYN 061800Z AUTO 36004KT 9SM 15/08 A3000 RMK T01530081 57001 IEM_DS3505
ZBYN,1996-06-06 19:00,ZBYN 061900Z AUTO 00000KT 3SM 13/12 A3000 RMK T01300120 IEM_DS3505
ZBYN,1996-06-06 20:00,ZBYN 062000Z AUTO 00000KT 2SM 12/12 A3000 RMK T01200120 IEM_DS3505
ZBYN,1996-06-06 21:00,ZBYN 062100Z AUTO 34002KT 9SM 12/10 RMK 70016 SLP154 T01210095 52006 IEM_DS3505
ZBYN,1996-06-06 22:00,ZBYN 062200Z AUTO 00000KT 1 1/4SM 12/11 A3003 RMK T01200110 IEM_DS3505
ZBYN,1996-06-06 23:00,ZBYN 062300Z AUTO 00000KT 1 1/2SM 13/12 A3003 RMK T01300120 IEM_DS3505
ZBYN,1996-06-07 00:00,ZBYN 070000Z AUTO 00000KT 7SM 16/11 A3005 RMK SLP156 T01650106 52007 IEM_DS3505
ZBYN,1996-06-07 01:00,ZBYN 070100Z AUTO 00000KT 1 1/2SM 17/16 A3003 RMK T01700160 IEM_DS3505
ZBYN,1996-06-07 02:00,ZBYN 070200Z AUTO 00000KT 2SM 18/13 A3003 RMK T01800130 IEM_DS3505
ZBYN,1996-06-07 03:00,ZBYN 070300Z AUTO 16002KT 4SM 20/12 A3003 RMK SLP155 T01990120 57001 IEM_DS3505
ZBYN,1996-06-07 04:00,ZBYN 070400Z AUTO 26006KT 4SM 21/13 A3003 RMK T02100130 IEM_DS3505
ZBYN,1996-06-07 05:00,ZBYN 070500Z AUTO 24006KT 4SM 21/13 A3003 RMK T02100130 IEM_DS3505
ZBYN,1996-06-07 06:00,ZBYN 070600Z AUTO 18006KT 4SM 21/13 A3000 RMK SLP141 T02130133 57012 IEM_DS3505
ZBYN,1996-06-07 08:00,ZBYN 070800Z AUTO 25008KT 4SM 23/14 A2997 RMK T02300140 IEM_DS3505
ZBYN,1996-06-07 09:00,ZBYN 070900Z AUTO 18006KT 4SM 22/14 A2997 RMK SLP134 T02180142 57011 IEM_DS3505
ZBYN,1996-06-07 10:00,ZBYN 071000Z AUTO 00000KT 4SM 22/15 A2994 RMK T02200150 IEM_DS3505
ZBYN,1996-06-07 11:00,ZBYN 071100Z AUTO 00000KT 4SM 21/16 A2994 RMK T02100160 IEM_DS3505
ZBYN,1996-06-07 12:00,ZBYN 071200Z AUTO 11006KT 4SM 20/15 A2997 RMK SLP128 T01960148 57002 IEM_DS3505
ZBYN,1996-06-07 13:00,ZBYN 071300Z AUTO 12004KT 4SM 18/15 A2997 RMK T01800150 IEM_DS3505
ZBYN,1996-06-07 14:00,ZBYN 071400Z AUTO 12002KT 2 1/2SM 18/15 A3000 RMK T01800150 IEM_DS3505
ZBYN,1996-06-07 15:00,ZBYN 071500Z AUTO 14006KT 4SM 17/13 A2997 RMK SLP134 T01720131 52007 IEM_DS3505
ZBYN,1996-06-07 16:00,ZBYN 071600Z AUTO 13006KT 2 1/2SM 16/14 A2997 RMK T01600140 IEM_DS3505
ZBYN,1996-06-07 17:00,ZBYN 071700Z AUTO 00000KT 2 1/2SM 16/14 A2997 RMK T01600140 IEM_DS3505
ZBYN,1996-06-07 18:00,ZBYN 071800Z AUTO 11002KT 4SM 16/14 A2999 RMK SLP135 T01570138 52001 IEM_DS3505
ZBYN,1996-06-07 19:00,ZBYN 071900Z AUTO 00000KT 2 1/2SM 15/13 A3000 RMK T01500130 IEM_DS3505
ZBYN,1996-06-07 20:00,ZBYN 072000Z AUTO 00000KT 2 1/2SM 15/13 A3000 RMK T01500130 IEM_DS3505
ZBYN,1996-06-07 21:00,ZBYN 072100Z AUTO 11002KT 4SM 14/13 A3000 RMK SLP147 T01410134 52009 IEM_DS3505
ZBYN,1996-06-07 22:00,ZBYN 072200Z AUTO 00000KT 1 1/2SM 14/13 A3003 RMK T01400130 IEM_DS3505
ZBYN,1996-06-07 23:00,ZBYN 072300Z AUTO 00000KT 1SM 15/14 A3003 RMK T01500140 IEM_DS3505
ZBYN,1996-06-08 00:00,ZBYN 080000Z AUTO 00000KT 4SM 16/14 A3000 RMK SLP148 T01640142 52001 IEM_DS3505
ZBYN,1996-06-08 01:00,ZBYN 080100Z AUTO 00000KT 1SM 18/16 A3000 RMK T01800160 IEM_DS3505
ZBYN,1996-06-08 02:00,ZBYN 080200Z AUTO 00000KT 1SM 19/16 A3000 RMK T01900160 IEM_DS3505
ZBYN,1996-06-08 03:00,ZBYN 080300Z AUTO 00000KT 4SM 20/15 A3000 RMK SLP137 T02030153 57008 IEM_DS3505
ZBYN,1996-06-08 04:00,ZBYN 080400Z AUTO 00000KT 1SM 22/17 A2997 RMK T02200170 IEM_DS3505
ZBYN,1996-06-08 05:00,ZBYN 080500Z AUTO 22006KT 1 1/4SM 24/16 A2997 RMK T02400160 IEM_DS3505
ZBYN,1996-06-08 06:00,ZBYN 080600Z AUTO 18010KT 4SM 24/16 A2994 RMK SLP122 T02410162 57010 IEM_DS3505
ZBYN,1996-06-08 07:00,ZBYN 080700Z AUTO 00000KT 2SM 24/16 A2994 RMK T02400160 IEM_DS3505
ZBYN,1996-06-08 08:00,ZBYN 080800Z AUTO 22006KT 2SM 24/17 A2991 RMK T02400170 IEM_DS3505
ZBYN,1996-06-08 09:00,ZBYN 080900Z AUTO 26004KT 2SM 23/17 A2991 RMK T02300170 IEM_DS3505
ZBYN,1996-06-08 10:00,ZBYN 081000Z AUTO 00000KT 2SM 23/16 A2991 RMK T02300160 IEM_DS3505
ZBYN,1996-06-08 11:00,ZBYN 081100Z AUTO 00000KT 2SM 22/17 A2991 RMK T02200170 IEM_DS3505
ZBYN,1996-06-08 12:00,ZBYN 081200Z AUTO 00000KT 3SM 22/17 A2991 RMK SLP110 T02190174 57001 IEM_DS3505
ZBYN,1996-06-08 13:00,ZBYN 081300Z AUTO 00000KT 2SM 19/17 A2994 RMK T01900170 IEM_DS3505
ZBYN,1996-06-08 14:00,ZBYN 081400Z AUTO 11004KT 2SM 18/14 A2994 RMK T01800140 IEM_DS3505
ZBYN,1996-06-08 15:00,ZBYN 081500Z AUTO 34002KT 3SM 17/16 A2997 RMK SLP127 T01730158 52014 IEM_DS3505
ZBYN,1996-06-08 16:00,ZBYN 081600Z AUTO 00000KT 3SM 16/12 A2997 RMK T01600120 IEM_DS3505
ZBYN,1996-06-08 17:00,ZBYN 081700Z AUTO 09004KT 3SM 14/10 A2997 RMK T01400100 IEM_DS3505
ZBYN,1996-06-08 18:00,ZBYN 081800Z AUTO 09002KT 5SM 14/12 A2997 RMK SLP127 T01430116 52001 IEM_DS3505
ZBYN,1996-06-08 19:00,ZBYN 081900Z AUTO 00000KT 3SM 13/10 A2994 RMK T01300100 IEM_DS3505
ZBYN,1996-06-08 20:00,ZBYN 082000Z AUTO 07006KT 2 1/2SM 15/12 A2994 RMK T01500120 IEM_DS3505
ZBYN,1996-06-08 21:00,ZBYN 082100Z AUTO 01004KT 4SM 14/13 A2997 RMK SLP128 T01420132 57001 IEM_DS3505
ZBYN,1996-06-08 22:00,ZBYN 082200Z AUTO 00000KT 1SM 14/13 A2997 RMK T01400130 IEM_DS3505
ZBYN,1996-06-08 23:00,ZBYN 082300Z AUTO 09004KT 1SM 14/13 A2997 RMK T01400130 IEM_DS3505
ZBYN,1996-06-09 00:00,ZBYN 090000Z AUTO 14002KT 4SM 15/13 A2997 RMK SLP136 T01490130 52007 IEM_DS3505
ZBYN,1996-06-09 01:00,ZBYN 090100Z AUTO 00000KT 1SM 17/14 A2997 RMK T01700140 IEM_DS3505
ZBYN,1996-06-09 02:00,ZBYN 090200Z AUTO 00000KT 1SM 18/14 A2997 RMK T01800140 IEM_DS3505
ZBYN,1996-06-09 03:00,ZBYN 090300Z AUTO 16004KT 5SM 20/15 A2994 RMK SLP129 T01960148 57006 IEM_DS3505
ZBYN,1996-06-09 04:00,ZBYN 090400Z AUTO 00000KT 2SM 23/13 A2994 RMK T02300130 IEM_DS3505
ZBYN,1996-06-09 05:00,ZBYN 090500Z AUTO 00000KT 3SM 25/12 A2991 RMK T02500120 IEM_DS3505
ZBYN,1996-06-09 06:00,ZBYN 090600Z AUTO 22006KT 6SM 26/10 A2988 RMK SLP102 T02570102 57020 IEM_DS3505
ZBYN,1996-06-09 07:00,ZBYN 090700Z AUTO 25008KT 6SM 28/09 A2985 RMK T02800090 IEM_DS3505
ZBYN,1996-06-09 08:00,ZBYN 090800Z AUTO 24008KT 6SM 28/09 A2983 RMK T02800090 IEM_DS3505
ZBYN,1996-06-09 09:00,ZBYN 090900Z AUTO 20010KT 6SM 27/08 A2983 RMK SLP080 T02710081 57018 IEM_DS3505
ZBYN,1996-06-09 10:00,ZBYN 091000Z AUTO 24008KT 6SM 28/09 A2983 RMK T02800090 IEM_DS3505
ZBYN,1996-06-09 11:00,ZBYN 091100Z AUTO 00000KT 6SM 26/12 A2983 RMK T02600120 IEM_DS3505
ZBYN,1996-06-09 12:00,ZBYN 091200Z AUTO 11006KT 6SM 22/12 A2985 RMK SLP086 T02240125 57001 IEM_DS3505
ZBYN,1996-06-09 13:00,ZBYN 091300Z AUTO 00000KT 6SM 21/12 A2985 RMK T02100120 IEM_DS3505
ZBYN,1996-06-09 14:00,ZBYN 091400Z AUTO 00000KT 7SM 21/14 A2988 RMK T02100140 IEM_DS3505
ZBYN,1996-06-09 15:00,ZBYN 091500Z AUTO 22004KT 6SM 18/13 A2988 RMK SLP102 T01830132 52016 IEM_DS3505
ZBYN,1996-06-09 16:00,ZBYN 091600Z AUTO 12006KT 7SM 18/14 A2988 RMK T01800140 IEM_DS3505
ZBYN,1996-06-09 17:00,ZBYN 091700Z AUTO 11004KT 7SM 16/14 A2988 RMK T01600140 IEM_DS3505
ZBYN,1996-06-09 18:00,ZBYN 091800Z AUTO 14004KT 6SM 17/13 A2988 RMK SLP091 T01670133 57004 IEM_DS3505
ZBYN,1996-06-09 19:00,ZBYN 091900Z AUTO 10010KT 7SM 16/13 A2988 RMK T01600130 IEM_DS3505
ZBYN,1996-06-09 20:00,ZBYN 092000Z AUTO 11004KT 6SM 15/13 A2988 RMK T01500130 IEM_DS3505
ZBYN,1996-06-09 21:00,ZBYN 092100Z AUTO 11004KT 5SM 14/12 A2988 RMK SLP092 T01440121 54000 IEM_DS3505
ZBYN,1996-06-09 22:00,ZBYN 092200Z AUTO 11004KT 5SM 14/13 A2988 RMK T01400130 IEM_DS3505
ZBYN,1996-06-09 23:00,ZBYN 092300Z AUTO 00000KT 7SM 16/14 A2988 RMK T01600140 IEM_DS3505
ZBYN,1996-06-10 00:00,ZBYN 100000Z AUTO 14006KT 4SM 18/13 A2988 RMK SLP099 T01850132 52005 IEM_DS3505
ZBYN,1996-06-10 01:00,ZBYN 100100Z AUTO 21008KT 7SM 22/13 A2988 RMK T02200130 IEM_DS3505
ZBYN,1996-06-10 02:00,ZBYN 100200Z AUTO 21008KT 7SM 25/15 A2985 RMK T02500150 IEM_DS3505
ZBYN,1996-06-10 03:00,ZBYN 100300Z AUTO 18012KT 6SM 26/14 A2983 RMK SLP073 T02650143 57018 IEM_DS3505
ZBYN,1996-06-10 04:00,ZBYN 100400Z AUTO 24019KT 7SM 31/11 A2980 RMK T03100110 IEM_DS3505
ZBYN,1996-06-10 05:00,ZBYN 100500Z AUTO 23016KT 7SM 32/11 A2977 RMK T03200110 IEM_DS3505
ZBYN,1996-06-10 06:00,ZBYN 100600Z AUTO 20017KT 6SM 31/11 A2974 RMK SLP039 T03130113 57027 IEM_DS3505
ZBYN,1996-06-10 07:00,ZBYN 100700Z AUTO 21019KT 7SM 34/09 A2974 RMK T03400090 IEM_DS3505
ZBYN,1996-06-10 08:00,ZBYN 100800Z AUTO 30017KT 7SM 35/08 A2971 RMK T03500080 IEM_DS3505
ZBYN,1996-06-10 09:00,ZBYN 100900Z AUTO 32010KT 12SM 33/04 A2974 RMK SLP033 T03290041 57006 IEM_DS3505
ZBYN,1996-06-10 10:00,ZBYN 101000Z AUTO 30014KT 7SM 33/06 A2974 RMK T03300060 IEM_DS3505
ZBYN,1996-06-10 11:00,ZBYN 101100Z AUTO 33012KT 6SM 31/07 A2977 RMK T03100070 IEM_DS3505
ZBYN,1996-06-10 12:00,ZBYN 101200Z AUTO 02006KT 9SM 28/04 A2980 RMK SLP061 T02810035 52025 IEM_DS3505
ZBYN,1996-06-10 13:00,ZBYN 101300Z AUTO 18004KT 6SM 25/05 A2985 RMK T02500050 IEM_DS3505
ZBYN,1996-06-10 14:00,ZBYN 101400Z AUTO 00000KT 6SM 22/06 A2988 RMK T02200060 IEM_DS3505
ZBYN,1996-06-10 15:00,ZBYN 101500Z AUTO 36002KT 6SM 21/07 A2991 RMK SLP094 T02070072 52031 IEM_DS3505
ZBYN,1996-06-10 16:00,ZBYN 101600Z AUTO 03004KT 6SM 21/06 A2991 RMK T02100060 IEM_DS3505
ZBYN,1996-06-10 17:00,ZBYN 101700Z AUTO 33006KT 7SM 20/02 A2991 RMK T02000020 IEM_DS3505
ZBYN,1996-06-10 18:00,ZBYN 101800Z AUTO 34004KT 6SM 16/05 A2991 RMK SLP101 T01630050 52007 IEM_DS3505
ZBYN,1996-06-10 19:00,ZBYN 101900Z AUTO 36008KT 7SM 19/M01 A2991 RMK T01901010 IEM_DS3505
ZBYN,1996-06-10 20:00,ZBYN 102000Z AUTO 03002KT 7SM 18/00 A2991 RMK T01800000 IEM_DS3505
ZBYN,1996-06-10 21:00,ZBYN 102100Z AUTO 34004KT 6SM 16/03 A2991 RMK SLP101 T01590028 52001 IEM_DS3505
ZBYN,1996-06-10 22:00,ZBYN 102200Z AUTO 01006KT 6SM 16/01 A2994 RMK T01600010 IEM_DS3505
ZBYN,1996-06-10 23:00,ZBYN 102300Z AUTO 02008KT 6SM 17/04 A2994 RMK T01700040 IEM_DS3505
ZBYN,1996-06-11 00:00,ZBYN 110000Z AUTO 32006KT 7SM 19/02 A2994 RMK SLP112 T01890025 52008 IEM_DS3505
ZBYN,1996-06-11 01:00,ZBYN 110100Z AUTO 31008KT 7SM 23/02 A2994 RMK T02300020 IEM_DS3505
ZBYN,1996-06-11 02:00,ZBYN 110200Z AUTO 32008KT 7SM 25/00 A2994 RMK T02500000 IEM_DS3505
ZBYN,1996-06-11 03:00,ZBYN 110300Z AUTO 32006KT 9SM 26/01 A2994 RMK SLP107 T02590009 57005 IEM_DS3505
ZBYN,1996-06-11 04:00,ZBYN 110400Z AUTO 03006KT 7SM 28/02 A2991 RMK T02800020 IEM_DS3505
ZBYN,1996-06-11 05:00,ZBYN 110500Z AUTO 00000KT 7SM 29/03 A2988 RMK T02900030 IEM_DS3505
ZBYN,1996-06-11 06:00,ZBYN 110600Z AUTO 07006KT 9SM 28/01 A2985 RMK SLP083 T02830014 57025 IEM_DS3505
ZBYN,1996-06-11 07:00,ZBYN 110700Z AUTO 29006KT 7SM 31/04 A2983 RMK T03100040 IEM_DS3505
ZBYN,1996-06-11 08:00,ZBYN 110800Z AUTO 26004KT 7SM 31/03 A2980 RMK T03100030 IEM_DS3505
ZBYN,1996-06-11 09:00,ZBYN 110900Z AUTO 18012KT 9SM 31/04 A2977 RMK SLP048 T03100040 57030 IEM_DS3505
ZBYN,1996-06-11 10:00,ZBYN 111000Z AUTO 19010KT 7SM 30/04 A2977 RMK T03000040 IEM_DS3505
ZBYN,1996-06-11 11:00,ZBYN 111100Z AUTO 16008KT 7SM 28/08 A2977 RMK T02800080 IEM_DS3505
ZBYN,1996-06-11 12:00,ZBYN 111200Z AUTO 14004KT 9SM 25/10 A2977 RMK SLP052 T02480096 54000 IEM_DS3505
ZBYN,1996-06-11 13:00,ZBYN 111300Z AUTO 00000KT 7SM 23/08 A2977 RMK T02300080 IEM_DS3505
ZBYN,1996-06-11 14:00,ZBYN 111400Z AUTO 10004KT 7SM 19/09 A2977 RMK T01900090 IEM_DS3505
ZBYN,1996-06-11 15:00,ZBYN 111500Z AUTO 14002KT 6SM 19/08 A2980 RMK SLP056 T01860077 52005 IEM_DS3505
ZBYN,1996-06-11 16:00,ZBYN 111600Z AUTO 08006KT 7SM 16/07 A2980 RMK T01600070 IEM_DS3505
ZBYN,1996-06-11 17:00,ZBYN 111700Z AUTO 09006KT 7SM 16/07 A2977 RMK T01600070 IEM_DS3505
ZBYN,1996-06-11 18:00,ZBYN 111800Z AUTO 00000KT 6SM 15/08 A2977 RMK SLP051 T01520077 57006 IEM_DS3505
ZBYN,1996-06-11 19:00,ZBYN 111900Z AUTO 11006KT 7SM 15/07 A2977 RMK T01500070 IEM_DS3505
ZBYN,1996-06-11 20:00,ZBYN 112000Z AUTO 11006KT 7SM 14/07 A2977 RMK T01400070 IEM_DS3505
ZBYN,1996-06-11 21:00,ZBYN 112100Z AUTO 16004KT 6SM 13/06 A2977 RMK SLP051 T01300060 52002 IEM_DS3505
ZBYN,1996-06-11 22:00,ZBYN 112200Z AUTO 10006KT 7SM 13/07 A2977 RMK T01300070 IEM_DS3505
ZBYN,1996-06-11 23:00,ZBYN 112300Z AUTO 09002KT 6SM 15/09 A2977 RMK T01500090 IEM_DS3505
ZBYN,1996-06-12 00:00,ZBYN 120000Z AUTO 34004KT 6SM 19/08 A2977 RMK SLP056 T01890079 52003 IEM_DS3505
ZBYN,1996-06-12 02:00,ZBYN 120200Z AUTO 18008KT 7SM 26/11 A2974 RMK T02600110 IEM_DS3505
ZBYN,1996-06-12 03:00,ZBYN 120300Z AUTO 18012KT 6SM 26/10 A2971 RMK SLP039 T02640098 57014 IEM_DS3505
ZBYN,1996-06-12 04:00,ZBYN 120400Z AUTO 22012KT 7SM 30/11 A2968 RMK T03000110 IEM_DS3505
ZBYN,1996-06-12 05:00,ZBYN 120500Z AUTO 20008KT 7SM 32/11 A2965 RMK T03200110 IEM_DS3505
ZBYN,1996-06-12 06:00,ZBYN 120600Z AUTO 20008KT 6SM 29/10 A2962 RMK SLP009 T02890098 57028 IEM_DS3505
ZBYN,1996-06-12 07:00,ZBYN 120700Z AUTO 22016KT 7SM 30/07 A2959 RMK T03000070 IEM_DS3505
ZBYN,1996-06-12 08:00,ZBYN 120800Z AUTO 11004KT 7SM 31/15 A2959 RMK T03100150 IEM_DS3505
ZBYN,1996-06-12 09:00,ZBYN 120900Z AUTO 18010KT 9SM 31/10 A2956 RMK SLP987 T03090098 57019 IEM_DS3505
ZBYN,1996-06-12 10:00,ZBYN 121000Z AUTO 18004KT 7SM 30/13 A2956 RMK T03000130 IEM_DS3505
ZBYN,1996-06-12 11:00,ZBYN 121100Z AUTO 00000KT 7SM 29/12 A2956 RMK T02900120 IEM_DS3505
ZBYN,1996-06-12 12:00,ZBYN 121200Z AUTO 20010KT 7SM 28/10 A2959 RMK SLP983 T02770104 57002 IEM_DS3505
ZBYN,1996-06-12 13:00,ZBYN 121300Z AUTO 17008KT 7SM 25/11 A2959 RMK T02500110 IEM_DS3505
ZBYN,1996-06-12 14:00,ZBYN 121400Z AUTO 01008KT 7SM 23/11 A2959 RMK T02300110 IEM_DS3505
ZBYN,1996-06-12 15:00,ZBYN 121500Z AUTO 11006KT 6SM 21/10 A2962 RMK SLP991 T02130102 52009 IEM_DS3505
ZBYN,1996-06-12 16:00,ZBYN 121600Z AUTO 00000KT 6SM 22/13 A2965 RMK T02200130 IEM_DS3505
ZBYN,1996-06-12 17:00,ZBYN 121700Z AUTO 02010KT 6SM 23/12 A2965 RMK T02300120 IEM_DS3505
ZBYN,1996-06-12 18:00,ZBYN 121800Z AUTO 00000KT 6SM 24/10 A2959 RMK SLP980 T02350101 57004 IEM_DS3505
ZBYN,1996-06-12 19:00,ZBYN 121900Z AUTO 11006KT 7SM 22/15 A2962 RMK T02200150 IEM_DS3505
ZBYN,1996-06-12 21:00,ZBYN 122100Z AUTO 00000KT 6SM 21/12 A2962 RMK SLP990 T02060121 52008 IEM_DS3505
ZBYN,1996-06-12 22:00,ZBYN 122200Z AUTO 11004KT 7SM 20/13 A2962 RMK T02000130 IEM_DS3505
ZBYN,1996-06-12 23:00,ZBYN 122300Z AUTO 34004KT 7SM 20/13 A2965 RMK T02000130 IEM_DS3505
ZBYN,1996-06-13 00:00,ZBYN 130000Z AUTO 32006KT 6SM 23/13 A2965 RMK SLP007 T02270127 52014 IEM_DS3505
ZBYN,1996-06-13 02:00,ZBYN 130200Z AUTO 30004KT 7SM 26/14 A2968 RMK T02600140 IEM_DS3505
ZBYN,1996-06-13 03:00,ZBYN 130300Z AUTO 14004KT 6SM 28/12 A2968 RMK SLP013 T02820124 52005 IEM_DS3505
ZBYN,1996-06-13 04:00,ZBYN 130400Z AUTO 13010KT 6SM 31/16 A2965 RMK T03100160 IEM_DS3505
ZBYN,1996-06-13 05:00,ZBYN 130500Z AUTO 12012KT 7SM 32/17 A2965 RMK T03200170 IEM_DS3505
ZBYN,1996-06-13 06:00,ZBYN 130600Z AUTO 14010KT 9SM 30/12 A2962 RMK SLP991 T03030117 57015 IEM_DS3505
ZBYN,1996-06-13 07:00,ZBYN 130700Z AUTO 24008KT 7SM 33/12 A2959 RMK T03300120 IEM_DS3505
ZBYN,1996-06-13 08:00,ZBYN 130800Z AUTO 24008KT 7SM 33/13 A2959 RMK T03300130 IEM_DS3505
ZBYN,1996-06-13 09:00,ZBYN 130900Z AUTO 14004KT 9SM 31/12 A2959 RMK SLP981 T03130125 57011 IEM_DS3505
ZBYN,1996-06-13 10:00,ZBYN 131000Z AUTO 12006KT 6SM 30/14 A2959 RMK T03000140 IEM_DS3505
ZBYN,1996-06-13 11:00,ZBYN 131100Z AUTO 00000KT 7SM 29/16 A2959 RMK T02900160 IEM_DS3505
ZBYN,1996-06-13 12:00,ZBYN 131200Z AUTO 09010KT 6SM 27/12 A2962 RMK SLP994 T02730125 52009 IEM_DS3505
ZBYN,1996-06-13 13:00,ZBYN 131300Z AUTO 09014KT 6SM 25/14 A2965 RMK T02500140 IEM_DS3505
ZBYN,1996-06-13 14:00,ZBYN 131400Z AUTO 04010KT 6SM 24/15 A2971 RMK T02400150 IEM_DS3505
ZBYN,1996-06-13 15:00,ZBYN 131500Z AUTO 34002KT 6SM 22/13 A2971 RMK SLP025 T02220134 52029 IEM_DS3505
ZBYN,1996-06-13 16:00,ZBYN 131600Z AUTO 06012KT 6SM 22/14 A2971 RMK T02200140 IEM_DS3505
ZBYN,1996-06-13 17:00,ZBYN 131700Z AUTO 08012KT 6SM 20/14 A2971 RMK T02000140 IEM_DS3505
ZBYN,1996-06-13 18:00,ZBYN 131800Z AUTO 32004KT 6SM 19/14 A2971 RMK SLP028 T01870137 52001 IEM_DS3505
ZBYN,1996-06-13 19:00,ZBYN 131900Z AUTO 00000KT 6SM 20/14 A2971 RMK T02000140 IEM_DS3505
ZBYN,1996-06-13 20:00,ZBYN 132000Z AUTO 00000KT 6SM 18/14 A2971 RMK T01800140 IEM_DS3505
ZBYN,1996-06-13 21:00,ZBYN 132100Z AUTO 32004KT 6SM 19/11 A2974 RMK SLP032 T01940114 52006 IEM_DS3505
ZBYN,1996-06-13 22:00,ZBYN 132200Z AUTO 30004KT 6SM 19/14 A2974 RMK T01900140 IEM_DS3505
ZBYN,1996-06-13 23:00,ZBYN 132300Z AUTO 32006KT 4SM 21/14 A2974 RMK T02100140 IEM_DS3505
ZBYN,1996-06-14 00:00,ZBYN 140000Z AUTO 34004KT 7SM 21/12 A2974 RMK SLP040 T02110125 52004 IEM_DS3505
ZBYN,1996-06-14 01:00,ZBYN 140100Z AUTO 09010KT 4SM 25/16 A2977 RMK T02500160 IEM_DS3505
ZBYN,1996-06-14 02:00,ZBYN 140200Z AUTO 12006KT 6SM 27/17 A2974 RMK T02700170 IEM_DS3505
ZBYN,1996-06-14 03:00,ZBYN 140300Z AUTO 11008KT 6SM 28/15 A2974 RMK SLP037 T02750146 57001 IEM_DS3505
ZBYN,1996-06-14 04:00,ZBYN 140400Z AUTO 11008KT 6SM 31/19 A2974 RMK T03100190 IEM_DS3505
ZBYN,1996-06-14 05:00,ZBYN 140500Z AUTO 11008KT 6SM 31/18 A2971 RMK T03100180 IEM_DS3505
ZBYN,1996-06-14 06:00,ZBYN 140600Z AUTO 11004KT 6SM 30/16 A2968 RMK SLP018 T03050160 57018 IEM_DS3505
ZBYN,1996-06-14 07:00,ZBYN 140700Z AUTO 08008KT 6SM 32/20 A2965 RMK T03200200 IEM_DS3505
ZBYN,1996-06-14 09:00,ZBYN 140900Z AUTO 11016KT 6SM 30/15 A2962 RMK SLP995 T02970151 57021 IEM_DS3505
ZBYN,1996-06-14 10:00,ZBYN 141000Z AUTO 10008KT 6SM 29/18 A2962 RMK T02900180 IEM_DS3505
ZBYN,1996-06-14 11:00,ZBYN 141100Z AUTO 12010KT 7SM 27/17 A2962 RMK T02700170 IEM_DS3505
ZBYN,1996-06-14 12:00,ZBYN 141200Z AUTO 09010KT 6SM 26/14 A2965 RMK SLP004 T02640140 52006 IEM_DS3505
ZBYN,1996-06-14 13:00,ZBYN 141300Z AUTO 08014KT 7SM 24/15 A2965 RMK T02400150 IEM_DS3505
ZBYN,1996-06-14 14:00,ZBYN 141400Z AUTO 10010KT 7SM 24/15 A2971 RMK T02400150 IEM_DS3505
ZBYN,1996-06-14 15:00,ZBYN 141500Z AUTO 16002KT 6SM 25/15 A2971 RMK SLP020 T02470147 52021 IEM_DS3505
ZBYN,1996-06-14 16:00,ZBYN 141600Z AUTO 08010KT 7SM 23/16 A2974 RMK T02300160 IEM_DS3505
ZBYN,1996-06-14 17:00,ZBYN 141700Z AUTO 09010KT 7SM 23/15 RMK T02300150 IEM_DS3505
ZBYN,1996-06-14 18:00,ZBYN 141800Z AUTO 00000KT 6SM 21/16 A2971 RMK SLP022 T02100161 52001 IEM_DS3505
ZBYN,1996-06-14 19:00,ZBYN 141900Z AUTO 02006KT 7SM 21/16 A2971 RMK T02100160 IEM_DS3505
ZBYN,1996-06-14 20:00,ZBYN 142000Z AUTO 35004KT 7SM 20/15 A2971 RMK T02000150 IEM_DS3505
ZBYN,1996-06-14 21:00,ZBYN 142100Z AUTO 32002KT 6SM 20/16 A2968 RMK SLP014 T01960157 57011 IEM_DS3505
ZBYN,1996-06-14 22:00,ZBYN 142200Z AUTO 36008KT 4SM 20/16 A2971 RMK T02000160 IEM_DS3505
ZBYN,1996-06-14 23:00,ZBYN 142300Z AUTO 13006KT 4SM 21/17 A2971 RMK T02100170 IEM_DS3505
ZBYN,1996-06-15 00:00,ZBYN 150000Z AUTO 32010KT 5SM 21/15 A2974 RMK 60000 70001 SLP039 T02070150 52020 IEM_DS3505
ZBYN,1996-06-15 02:00,ZBYN 150200Z AUTO 33004KT 5SM 20/19 A2974 RMK T02000190 IEM_DS3505
ZBYN,1996-06-15 03:00,ZBYN 150300Z AUTO 34004KT 4SM 21/18 A2974 RMK SLP038 T02070177 57003 IEM_DS3505
ZBYN,1996-06-15 05:00,ZBYN 150500Z AUTO 00000KT 6SM 25/18 A2971 RMK T02500180 IEM_DS3505
ZBYN,1996-06-15 06:00,ZBYN 150600Z AUTO 34004KT 5SM 25/19 A2971 RMK 60043 SLP026 T02510186 57010 IEM_DS3505
ZBYN,1996-06-15 07:00,ZBYN 150700Z AUTO 36004KT 6SM 26/20 A2968 RMK T02600200 IEM_DS3505
ZBYN,1996-06-15 08:00,ZBYN 150800Z AUTO 00000KT 7SM 27/21 RMK T02700210 IEM_DS3505
ZBYN,1996-06-15 09:00,ZBYN 150900Z AUTO 32004KT 5SM 26/20 RMK SLP021 T02580200 57006 IEM_DS3505
ZBYN,1996-06-15 10:00,ZBYN 151000Z AUTO 32006KT 7SM 25/21 A2971 RMK T02500210 IEM_DS3505
ZBYN,1996-06-15 11:00,ZBYN 151100Z AUTO 18016KT 7SM 23/19 A2977 RMK T02300190 IEM_DS3505
ZBYN,1996-06-15 12:00,ZBYN 151200Z AUTO 20004KT 7SM 20/17 A2978 RMK 60001 SLP055 T02030167 52025 IEM_DS3505
ZBYN,1996-06-15 13:00,ZBYN 151300Z AUTO 27002KT 7SM 20/19 A2974 RMK T02000190 IEM_DS3505
ZBYN,1996-06-15 14:00,ZBYN 151400Z AUTO 27002KT 7SM 20/17 RMK T02000170 IEM_DS3505
ZBYN,1996-06-15 15:00,ZBYN 151500Z AUTO 32004KT 7SM 20/17 A2977 RMK SLP055 T01990172 54000 IEM_DS3505
ZBYN,1996-06-15 16:00,ZBYN 151600Z AUTO 00000KT 5SM 19/18 A2974 RMK T01900180 IEM_DS3505
ZBYN,1996-06-15 17:00,ZBYN 151700Z AUTO 00000KT 5SM 19/18 A2974 RMK T01900180 IEM_DS3505
ZBYN,1996-06-15 18:00,ZBYN 151800Z AUTO 36004KT 7SM 21/17 A2977 RMK SLP047 T02060166 54000 IEM_DS3505
ZBYN,1996-06-15 20:00,ZBYN 152000Z AUTO 09014KT 4SM 19/17 RMK T01900170 IEM_DS3505
ZBYN,1996-06-15 21:00,ZBYN 152100Z AUTO 32004KT 6SM 19/17 RMK 70043 SLP049 T01910170 54000 IEM_DS3505
ZBYN,1996-06-16 00:00,ZBYN 160000Z AUTO 32006KT 4SM 19/18 A2977 RMK 60031 70079 SLP063 T01930185 52006 IEM_DS3505
ZBYN,1996-06-16 01:00,ZBYN 160100Z AUTO 05012KT 3SM 19/18 A2980 RMK T01900180 IEM_DS3505
ZBYN,1996-06-16 02:00,ZBYN 160200Z AUTO 35004KT 4SM 19/18 A2977 RMK T01900180 IEM_DS3505
ZBYN,1996-06-16 03:00,ZBYN 160300Z AUTO 36006KT 5SM 18/18 A2974 RMK SLP060 T01850180 57005 IEM_DS3505
ZBYN,1996-06-16 04:00,ZBYN 160400Z AUTO 00000KT 7SM 19/18 A2977 RMK T01900180 IEM_DS3505
ZBYN,1996-06-16 05:00,ZBYN 160500Z AUTO 02006KT 4SM 20/19 A2974 RMK T02000190 IEM_DS3505
ZBYN,1996-06-16 06:00,ZBYN 160600Z AUTO 34006KT 5SM 19/18 A2974 RMK 60051 SLP055 T01890181 57003 IEM_DS3505
ZBYN,1996-06-16 07:00,ZBYN 160700Z AUTO 09004KT 2SM 19/18 A2971 RMK T01900180 IEM_DS3505
ZBYN,1996-06-16 08:00,ZBYN 160800Z AUTO 09004KT 7SM 20/19 A2971 RMK T02000190 IEM_DS3505
ZBYN,1996-06-16 09:00,ZBYN 160900Z AUTO 20002KT 5SM 19/18 A2971 RMK SLP046 T01910180 57010 IEM_DS3505
ZBYN,1996-06-16 10:00,ZBYN 161000Z AUTO 06008KT 7SM 18/17 A2971 RMK T01800170 IEM_DS3505
ZBYN,1996-06-16 11:00,ZBYN 161100Z AUTO 03004KT 7SM 18/17 A2974 RMK T01800170 IEM_DS3505
ZBYN,1996-06-16 12:00,ZBYN 161200Z AUTO 36004KT 6SM 18/17 A2974 RMK 60031 SLP057 T01820173 52009 IEM_DS3505
ZBYN,1996-06-16 13:00,ZBYN 161300Z AUTO 00000KT 7SM 17/17 A2977 RMK T01700170 IEM_DS3505
ZBYN,1996-06-16 14:00,ZBYN 161400Z AUTO 00000KT 7SM 18/17 A2977 RMK T01800170 IEM_DS3505
ZBYN,1996-06-16 15:00,ZBYN 161500Z AUTO 00000KT 6SM 17/17 A2977 RMK SLP061 T01740168 52002 IEM_DS3505
ZBYN,1996-06-16 16:00,ZBYN 161600Z AUTO 00000KT 7SM 18/17 A2974 RMK T01800170 IEM_DS3505
ZBYN,1996-06-16 17:00,ZBYN 161700Z AUTO 00000KT 7SM 18/17 A2974 RMK T01800170 IEM_DS3505
ZBYN,1996-06-16 18:00,ZBYN 161800Z AUTO 32002KT 6SM 18/16 A2974 RMK SLP053 T01760163 57007 IEM_DS3505
ZBYN,1996-06-16 19:00,ZBYN 161900Z AUTO 00000KT 7SM 17/17 A2974 RMK T01700170 IEM_DS3505
ZBYN,1996-06-16 20:00,ZBYN 162000Z AUTO 00000KT 7SM 17/17 A2974 RMK T01700170 IEM_DS3505
ZBYN,1996-06-16 21:00,ZBYN 162100Z AUTO 00000KT 5SM 17/16 A2971 RMK 70114 SLP053 T01670159 57001 IEM_DS3505
ZBYN,1996-06-16 22:00,ZBYN 162200Z AUTO 00000KT 7SM 16/16 A2974 RMK T01600160 IEM_DS3505
ZBYN,1996-06-16 23:00,ZBYN 162300Z AUTO 32004KT 1 1/2SM 17/17 A2974 RMK T01700170 IEM_DS3505
ZBYN,1996-06-17 00:00,ZBYN 170000Z AUTO 16004KT 5SM 19/16 A2977 RMK 70083 SLP062 T01890162 52010 IEM_DS3505
ZBYN,1996-06-17 01:00,ZBYN 170100Z AUTO 22008KT 1 1/2SM 20/18 A2977 RMK T02000180 IEM_DS3505
ZBYN,1996-06-17 03:00,ZBYN 170300Z AUTO 18006KT 6SM 22/17 A2971 RMK SLP054 T02190174 57004 IEM_DS3505
ZBYN,1996-06-17 06:00,ZBYN 170600Z AUTO 20002KT 6SM 26/19 A2973 RMK SLP036 T02590192 57011 IEM_DS3505
ZBYN,1996-06-17 07:00,ZBYN 170700Z AUTO 24002KT 6SM 28/18 A2971 RMK T02800180 IEM_DS3505
ZBYN,1996-06-17 08:00,ZBYN 170800Z AUTO 28006KT 6SM 29/19 A2971 RMK T02900190 IEM_DS3505
ZBYN,1996-06-17 09:00,ZBYN 170900Z AUTO 20006KT 6SM 27/18 RMK SLP029 T02700182 57006 IEM_DS3505
ZBYN,1996-06-17 10:00,ZBYN 171000Z AUTO 22008KT 7SM 28/18 A2968 RMK T02800180 IEM_DS3505
ZBYN,1996-06-17 11:00,ZBYN 171100Z AUTO 24004KT 7SM 27/19 A2968 RMK T02700190 IEM_DS3505
ZBYN,1996-06-17 12:00,ZBYN 171200Z AUTO 20004KT 6SM 24/20 A2968 RMK SLP023 T02430197 57006 IEM_DS3505
ZBYN,1996-06-17 13:00,ZBYN 171300Z AUTO 08006KT 6SM 22/20 A2968 RMK T02200200 IEM_DS3505
ZBYN,1996-06-17 14:00,ZBYN 171400Z AUTO 10006KT 7SM 21/19 A2968 RMK T02100190 IEM_DS3505
ZBYN,1996-06-17 15:00,ZBYN 171500Z AUTO 29004KT 6SM 20/19 RMK SLP027 T02050188 52003 IEM_DS3505
ZBYN,1996-06-17 18:00,ZBYN 171800Z AUTO 00000KT 6SM 19/17 A2973 RMK SLP032 T01860173 52007 IEM_DS3505
ZBYN,1996-06-17 21:00,ZBYN 172100Z AUTO 11002KT 5SM 17/16 RMK SLP039 T01740164 52006 IEM_DS3505
ZBYN,1996-06-17 23:00,ZBYN 172300Z AUTO 00000KT 4SM 19/17 A2974 RMK T01900170 IEM_DS3505
ZBYN,1996-06-18 00:00,ZBYN 180000Z AUTO 32004KT 4SM 20/18 A2971 RMK SLP036 T02030183 57002 IEM_DS3505
ZBYN,1996-06-18 03:00,ZBYN 180300Z AUTO 32004KT 4SM 25/17 RMK SLP015 T02540172 57017 IEM_DS3505
ZBYN,1996-06-18 06:00,ZBYN 180600Z AUTO 14004KT 4SM 28/17 A2959 RMK SLP986 T02790168 57026 IEM_DS3505
ZBYN,1996-06-18 08:00,ZBYN 180800Z AUTO 34004KT 5SM 21/19 A2962 RMK T02100190 IEM_DS3505
ZBYN,1996-06-18 09:00,ZBYN 180900Z AUTO 07006KT 5SM 20/19 A2962 RMK SLP009 T01990190 52008 IEM_DS3505
ZBYN,1996-06-18 10:00,ZBYN 181000Z AUTO 00000KT 5SM 20/19 A2962 RMK T02000190 IEM_DS3505
ZBYN,1996-06-18 11:00,ZBYN 181100Z AUTO 00000KT 3SM 20/19 A2962 RMK T02000190 IEM_DS3505
ZBYN,1996-06-18 12:00,ZBYN 181200Z AUTO 16004KT 5SM 20/19 A2959 RMK 60079 SLP004 T01970191 57001 IEM_DS3505
ZBYN,1996-06-18 13:00,ZBYN 181300Z AUTO 00000KT 2SM 19/18 A2962 RMK T01900180 IEM_DS3505
ZBYN,1996-06-18 14:00,ZBYN 181400Z AUTO 28004KT 1 1/4SM 19/19 A2962 RMK T01900190 IEM_DS3505
ZBYN,1996-06-18 15:00,ZBYN 181500Z AUTO 22004KT 5SM 18/18 A2962 RMK SLP003 T01850177 52005 IEM_DS3505
ZBYN,1996-06-18 16:00,ZBYN 181600Z AUTO 00000KT 2SM 18/18 A2959 RMK T01800180 IEM_DS3505
ZBYN,1996-06-18 17:00,ZBYN 181700Z AUTO 21006KT 2SM 18/18 A2959 RMK T01800180 IEM_DS3505
ZBYN,1996-06-18 18:00,ZBYN 181800Z AUTO 20006KT 6SM 17/16 A2959 RMK 60008 SLP992 T01730162 57008 IEM_DS3505
ZBYN,1996-06-18 19:00,ZBYN 181900Z AUTO 00000KT 3SM 17/16 A2956 RMK T01700160 IEM_DS3505
ZBYN,1996-06-18 20:00,ZBYN 182000Z AUTO 22010KT 3SM 17/16 A2959 RMK T01700160 IEM_DS3505
ZBYN,1996-06-18 21:00,ZBYN 182100Z AUTO 27004KT 6SM 16/15 A2959 RMK 70083 SLP004 T01640146 57002 IEM_DS3505
ZBYN,1996-06-18 22:00,ZBYN 182200Z AUTO 00000KT 3SM 16/14 A2959 RMK T01600140 IEM_DS3505
ZBYN,1996-06-18 23:00,ZBYN 182300Z AUTO 27008KT 6SM 18/12 A2959 RMK T01800120 IEM_DS3505
ZBYN,1996-06-19 00:00,ZBYN 190000Z AUTO 27004KT 6SM 20/12 A2956 RMK 70083 SLP995 T02010119 57003 IEM_DS3505
ZBYN,1996-06-19 01:00,ZBYN 190100Z AUTO 22012KT 7SM 21/13 A2956 RMK T02100130 IEM_DS3505
ZBYN,1996-06-19 03:00,ZBYN 190300Z AUTO 32016KT 12SM 23/08 A2953 RMK SLP980 T02270080 57012 IEM_DS3505
ZBYN,1996-06-19 04:00,ZBYN 190400Z AUTO 30014KT 7SM 23/11 A2953 RMK T02300110 IEM_DS3505
ZBYN,1996-06-19 05:00,ZBYN 190500Z AUTO 31012KT 7SM 23/11 A2953 RMK T02300110 IEM_DS3505
ZBYN,1996-06-19 07:00,ZBYN 190700Z AUTO 33016KT 7SM 22/11 A2956 RMK T02200110 IEM_DS3505
ZBYN,1996-06-19 08:00,ZBYN 190800Z AUTO 32012KT 7SM 23/12 A2953 RMK T02300120 IEM_DS3505
ZBYN,1996-06-19 09:00,ZBYN 190900Z AUTO 32016KT 12SM 24/08 A2950 RMK SLP973 T02400077 57011 IEM_DS3505
ZBYN,1996-06-19 10:00,ZBYN 191000Z AUTO 32016KT 7SM 23/10 A2953 RMK T02300100 IEM_DS3505
ZBYN,1996-06-19 11:00,ZBYN 191100Z AUTO 30014KT 7SM 23/08 A2953 RMK T02300080 IEM_DS3505
ZBYN,1996-06-19 12:00,ZBYN 191200Z AUTO 32010KT 12SM 20/08 A2953 RMK SLP983 T02040081 52009 IEM_DS3505
ZBYN,1996-06-19 13:00,ZBYN 191300Z AUTO 30014KT 7SM 20/09 A2956 RMK T02000090 IEM_DS3505
ZBYN,1996-06-19 14:00,ZBYN 191400Z AUTO 30014KT 7SM 19/09 A2956 RMK T01900090 IEM_DS3505
ZBYN,1996-06-19 15:00,ZBYN 191500Z AUTO 32006KT 6SM 18/09 A2956 RMK SLP989 T01810087 52006 IEM_DS3505
ZBYN,1996-06-19 16:00,ZBYN 191600Z AUTO 30014KT 7SM 18/09 A2953 RMK T01800090 IEM_DS3505
ZBYN,1996-06-19 17:00,ZBYN 191700Z AUTO 30012KT 7SM 18/10 A2953 RMK T01800100 IEM_DS3505
ZBYN,1996-06-19 18:00,ZBYN 191800Z AUTO 32008KT 6SM 17/08 A2950 RMK SLP974 T01720085 57015 IEM_DS3505
ZBYN,1996-06-19 19:00,ZBYN 191900Z AUTO 30019KT 6SM 17/09 A2947 RMK T01700090 IEM_DS3505
ZBYN,1996-06-19 21:00,ZBYN 192100Z AUTO 32010KT 6SM 08/05 A2944 RMK SLP953 T00770048 57017 IEM_DS3505
ZBYN,1996-06-19 22:00,ZBYN 192200Z AUTO 29012KT 7SM 16/08 A2947 RMK T01600080 IEM_DS3505
ZBYN,1996-06-19 23:00,ZBYN 192300Z AUTO 29012KT 7SM 18/07 A2947 RMK T01800070 IEM_DS3505
ZBYN,1996-06-20 00:00,ZBYN 200000Z AUTO 28010KT 7SM 18/08 A2947 RMK T01800080 IEM_DS3505
ZBYN,1996-06-20 01:00,ZBYN 200100Z AUTO 30016KT 7SM 19/09 A2947 RMK T01900090 IEM_DS3505
ZBYN,1996-06-20 03:00,ZBYN 200300Z AUTO 32017KT 16SM 20/09 A2947 RMK SLP960 T01970093 57002 IEM_DS3505
ZBYN,1996-06-20 04:00,ZBYN 200400Z AUTO 29019KT 7SM 21/11 A2947 RMK T02100110 IEM_DS3505
ZBYN,1996-06-20 05:00,ZBYN 200500Z AUTO 29019KT 7SM 20/11 A2947 RMK T02000110 IEM_DS3505
ZBYN,1996-06-20 06:00,ZBYN 200600Z AUTO 32016KT 16SM 20/10 A2950 RMK SLP968 T02050099 52007 IEM_DS3505
ZBYN,1996-06-20 08:00,ZBYN 200800Z AUTO 30016KT 7SM 21/11 A2950 RMK T02100110 IEM_DS3505
ZBYN,1996-06-20 09:00,ZBYN 200900Z AUTO 32006KT 16SM 21/10 A2953 RMK SLP980 T02130098 52013 IEM_DS3505
ZBYN,1996-06-20 10:00,ZBYN 201000Z AUTO 30014KT 7SM 21/10 A2953 RMK T02100100 IEM_DS3505
ZBYN,1996-06-20 11:00,ZBYN 201100Z AUTO 30014KT 7SM 21/10 A2956 RMK T02100100 IEM_DS3505
ZBYN,1996-06-20 12:00,ZBYN 201200Z AUTO 32010KT 16SM 20/10 A2959 RMK SLP998 T02010095 52015 IEM_DS3505
ZBYN,1996-06-20 13:00,ZBYN 201300Z AUTO 03002KT 7SM 19/10 A2962 RMK T01900100 IEM_DS3505
ZBYN,1996-06-20 14:00,ZBYN 201400Z AUTO 00000KT 7SM 18/11 A2962 RMK T01800110 IEM_DS3505
ZBYN,1996-06-20 15:00,ZBYN 201500Z AUTO 02002KT 12SM 18/11 A2962 RMK SLP014 T01770106 52014 IEM_DS3505
ZBYN,1996-06-20 16:00,ZBYN 201600Z AUTO 32008KT 7SM 18/10 A2962 RMK T01800100 IEM_DS3505
ZBYN,1996-06-20 17:00,ZBYN 201700Z AUTO 00000KT 7SM 18/11 A2965 RMK T01800110 IEM_DS3505
ZBYN,1996-06-20 18:00,ZBYN 201800Z AUTO 32008KT 9SM 17/09 A2964 RMK SLP015 T01670094 54000 IEM_DS3505
ZBYN,1996-06-20 19:00,ZBYN 201900Z AUTO 34004KT 7SM 16/11 A2962 RMK T01600110 IEM_DS3505
ZBYN,1996-06-20 21:00,ZBYN 202100Z AUTO 34004KT 9SM 16/08 A2965 RMK SLP022 T01600081 52007 IEM_DS3505
ZBYN,1996-06-20 22:00,ZBYN 202200Z AUTO 16008KT 7SM 15/09 A2968 RMK T01500090 IEM_DS3505
ZBYN,1996-06-20 23:00,ZBYN 202300Z AUTO 19008KT 6SM 17/10 A2968 RMK T01700100 IEM_DS3505
ZBYN,1996-06-21 00:00,ZBYN 210000Z AUTO 32006KT 12SM 20/09 A2971 RMK SLP033 T01950094 52013 IEM_DS3505
ZBYN,1996-06-21 01:00,ZBYN 210100Z AUTO 36008KT 7SM 21/11 A2971 RMK T02100110 IEM_DS3505
ZBYN,1996-06-21 03:00,ZBYN 210300Z AUTO 34010KT 12SM 24/07 A2971 RMK SLP032 T02350072 52002 IEM_DS3505
ZBYN,1996-06-21 04:00,ZBYN 210400Z AUTO 06008KT 7SM 25/14 A2968 RMK T02500140 IEM_DS3505
ZBYN,1996-06-21 05:00,ZBYN 210500Z AUTO 36006KT 6SM 26/11 A2968 RMK T02600110 IEM_DS3505
ZBYN,1996-06-21 06:00,ZBYN 210600Z AUTO 34008KT 12SM 26/10 A2968 RMK SLP020 T02650097 57009 IEM_DS3505
ZBYN,1996-06-21 07:00,ZBYN 210700Z AUTO 04010KT 6SM 27/13 A2965 RMK T02700130 IEM_DS3505
ZBYN,1996-06-21 08:00,ZBYN 210800Z AUTO 05010KT 7SM 28/14 A2965 RMK T02800140 IEM_DS3505
ZBYN,1996-06-21 09:00,ZBYN 210900Z AUTO 07008KT 12SM 26/10 RMK SLP015 T02630099 57005 IEM_DS3505
ZBYN,1996-06-21 11:00,ZBYN 211100Z AUTO 03004KT 6SM 25/14 A2965 RMK T02500140 IEM_DS3505
ZBYN,1996-06-21 12:00,ZBYN 211200Z AUTO 32002KT 9SM 23/14 A2968 RMK SLP024 T02310137 52008 IEM_DS3505
ZBYN,1996-06-21 13:00,ZBYN 211300Z AUTO 00000KT 6SM 22/13 A2968 RMK T02200130 IEM_DS3505
ZBYN,1996-06-21 14:00,ZBYN 211400Z AUTO 00000KT 6SM 20/13 A2971 RMK T02000130 IEM_DS3505
ZBYN,1996-06-21 15:00,ZBYN 211500Z AUTO 00000KT 9SM 18/15 A2971 RMK SLP036 T01770146 52009 IEM_DS3505
ZBYN,1996-06-21 16:00,ZBYN 211600Z AUTO 00000KT 6SM 17/11 A2971 RMK T01700110 IEM_DS3505
ZBYN,1996-06-21 17:00,ZBYN 211700Z AUTO 04004KT 6SM 17/10 A2971 RMK T01700100 IEM_DS3505
ZBYN,1996-06-21 18:00,ZBYN 211800Z AUTO 00000KT 6SM 16/13 A2971 RMK SLP035 T01590126 52001 IEM_DS3505
ZBYN,1996-06-21 19:00,ZBYN 211900Z AUTO 00000KT 6SM 15/10 A2971 RMK T01500100 IEM_DS3505
ZBYN,1996-06-21 20:00,ZBYN 212000Z AUTO 00000KT 6SM 15/10 A2974 RMK T01500100 IEM_DS3505
ZBYN,1996-06-21 21:00,ZBYN 212100Z AUTO 16002KT 6SM 14/12 A2974 RMK SLP042 T01430124 52004 IEM_DS3505
ZBYN,1996-06-21 22:00,ZBYN 212200Z AUTO 00000KT 6SM 13/11 A2974 RMK T01300110 IEM_DS3505
ZBYN,1996-06-21 23:00,ZBYN 212300Z AUTO 00000KT 6SM 15/13 A2974 RMK T01500130 IEM_DS3505
ZBYN,1996-06-22 00:00,ZBYN 220000Z AUTO 34004KT 6SM 19/14 A2974 RMK SLP047 T01890135 52006 IEM_DS3505
ZBYN,1996-06-22 01:00,ZBYN 220100Z AUTO 00000KT 5SM 22/16 A2974 RMK T02200160 IEM_DS3505
ZBYN,1996-06-22 02:00,ZBYN 220200Z AUTO 00000KT 6SM 25/16 A2974 RMK T02500160 IEM_DS3505
ZBYN,1996-06-22 03:00,ZBYN 220300Z AUTO 14004KT 6SM 25/15 A2971 RMK SLP043 T02470146 57003 IEM_DS3505
ZBYN,1996-06-22 04:00,ZBYN 220400Z AUTO 17004KT 6SM 27/15 A2971 RMK T02700150 IEM_DS3505
ZBYN,1996-06-22 05:00,ZBYN 220500Z AUTO 17004KT 6SM 27/15 A2968 RMK T02700150 IEM_DS3505
ZBYN,1996-06-22 06:00,ZBYN 220600Z AUTO 18006KT 6SM 28/13 A2968 RMK SLP025 T02790127 57014 IEM_DS3505
ZBYN,1996-06-22 07:00,ZBYN 220700Z AUTO 00000KT 6SM 30/11 A2968 RMK T03000110 IEM_DS3505
ZBYN,1996-06-22 08:00,ZBYN 220800Z AUTO 19004KT 6SM 28/13 A2965 RMK T02800130 IEM_DS3505
ZBYN,1996-06-22 09:00,ZBYN 220900Z AUTO 16004KT 9SM 27/15 A2965 RMK SLP017 T02710153 57011 IEM_DS3505
ZBYN,1996-06-22 10:00,ZBYN 221000Z AUTO 12004KT 6SM 26/17 A2965 RMK T02600170 IEM_DS3505
ZBYN,1996-06-22 11:00,ZBYN 221100Z AUTO 00000KT 6SM 25/15 A2965 RMK T02500150 IEM_DS3505
ZBYN,1996-06-22 12:00,ZBYN 221200Z AUTO 00000KT 9SM 24/17 A2968 RMK SLP019 T02450171 52005 IEM_DS3505
ZBYN,1996-06-22 13:00,ZBYN 221300Z AUTO 00000KT 6SM 23/17 A2968 RMK T02300170 IEM_DS3505
ZBYN,1996-06-22 14:00,ZBYN 221400Z AUTO 14004KT 6SM 21/16 A2971 RMK T02100160 IEM_DS3505
ZBYN,1996-06-22 15:00,ZBYN 221500Z AUTO 11002KT 6SM 21/15 A2971 RMK SLP026 T02090154 52009 IEM_DS3505
ZBYN,1996-06-22 16:00,ZBYN 221600Z AUTO 00000KT 6SM 20/15 A2971 RMK T02000150 IEM_DS3505
ZBYN,1996-06-22 17:00,ZBYN 221700Z AUTO 00000KT 7SM 20/16 A2974 RMK T02000160 IEM_DS3505
ZBYN,1996-06-22 18:00,ZBYN 221800Z AUTO 02002KT 6SM 21/14 A2971 RMK 60002 SLP029 T02120136 52008 IEM_DS3505
ZBYN,1996-06-22 19:00,ZBYN 221900Z AUTO 27004KT 7SM 21/15 A2974 RMK T02100150 IEM_DS3505
ZBYN,1996-06-22 20:00,ZBYN 222000Z AUTO 00000KT 7SM 20/15 A2974 RMK T02000150 IEM_DS3505
ZBYN,1996-06-22 21:00,ZBYN 222100Z AUTO 07004KT 6SM 20/14 A2977 RMK 70002 SLP042 T01950142 52008 IEM_DS3505
ZBYN,1996-06-22 22:00,ZBYN 222200Z AUTO 09004KT 7SM 19/16 A2977 RMK T01900160 IEM_DS3505
ZBYN,1996-06-22 23:00,ZBYN 222300Z AUTO 00000KT 5SM 20/17 A2980 RMK T02000170 IEM_DS3505
ZBYN,1996-06-23 00:00,ZBYN 230000Z AUTO 32002KT 19SM 18/14 A2980 RMK SLP064 T01820137 52017 IEM_DS3505
ZBYN,1996-06-23 01:00,ZBYN 230100Z AUTO 16004KT 5SM 22/16 A2983 RMK T02200160 IEM_DS3505
ZBYN,1996-06-23 02:00,ZBYN 230200Z AUTO 00000KT 6SM 23/16 A2983 RMK T02300160 IEM_DS3505
ZBYN,1996-06-23 03:00,ZBYN 230300Z AUTO 14004KT 6SM 23/15 A2983 RMK SLP067 T02290148 52002 IEM_DS3505
ZBYN,1996-06-23 04:00,ZBYN 230400Z AUTO 00000KT 6SM 25/17 A2980 RMK T02500170 IEM_DS3505
ZBYN,1996-06-23 05:00,ZBYN 230500Z AUTO 00000KT 6SM 25/18 A2980 RMK T02500180 IEM_DS3505
ZBYN,1996-06-23 06:00,ZBYN 230600Z AUTO 14006KT 6SM 25/15 A2980 RMK SLP053 T02470151 57010 IEM_DS3505
ZBYN,1996-06-23 07:00,ZBYN 230700Z AUTO 15004KT 6SM 25/19 A2977 RMK T02500190 IEM_DS3505
ZBYN,1996-06-23 08:00,ZBYN 230800Z AUTO 23004KT 6SM 25/15 A2977 RMK T02500150 IEM_DS3505
ZBYN,1996-06-23 09:00,ZBYN 230900Z AUTO 20012KT 6SM 22/15 A2980 RMK SLP059 T02240148 54000 IEM_DS3505
ZBYN,1996-06-23 10:00,ZBYN 231000Z AUTO 16010KT 7SM 22/16 A2980 RMK T02200160 IEM_DS3505
ZBYN,1996-06-23 11:00,ZBYN 231100Z AUTO 18006KT 7SM 22/15 A2980 RMK T02200150 IEM_DS3505
ZBYN,1996-06-23 12:00,ZBYN 231200Z AUTO 11008KT 6SM 20/15 A2983 RMK SLP070 T02030146 52009 IEM_DS3505
ZBYN,1996-06-23 13:00,ZBYN 231300Z AUTO 11004KT 7SM 19/16 A2983 RMK T01900160 IEM_DS3505
ZBYN,1996-06-23 14:00,ZBYN 231400Z AUTO 00000KT 7SM 18/16 A2983 RMK T01800160 IEM_DS3505
ZBYN,1996-06-23 15:00,ZBYN 231500Z AUTO 14004KT 6SM 18/15 A2983 RMK SLP079 T01780148 52008 IEM_DS3505
ZBYN,1996-06-23 16:00,ZBYN 231600Z AUTO 00000KT 6SM 18/16 A2985 RMK T01800160 IEM_DS3505
ZBYN,1996-06-23 17:00,ZBYN 231700Z AUTO 00000KT 6SM 18/16 A2985 RMK T01800160 IEM_DS3505
ZBYN,1996-06-23 18:00,ZBYN 231800Z AUTO 22002KT 6SM 17/15 A2983 RMK SLP077 T01710151 54000 IEM_DS3505
ZBYN,1996-06-23 19:00,ZBYN 231900Z AUTO 00000KT 6SM 17/15 A2983 RMK T01700150 IEM_DS3505
ZBYN,1996-06-23 20:00,ZBYN 232000Z AUTO 00000KT 6SM 17/16 A2983 RMK T01700160 IEM_DS3505
ZBYN,1996-06-23 21:00,ZBYN 232100Z AUTO 16002KT 4SM 16/15 A2983 RMK SLP082 T01640151 54000 IEM_DS3505
ZBYN,1996-06-23 22:00,ZBYN 232200Z AUTO 00000KT 1 1/2SM 16/15 A2985 RMK T01600150 IEM_DS3505
ZBYN,1996-06-23 23:00,ZBYN 232300Z AUTO 00000KT 1 1/2SM 17/16 A2985 RMK T01700160 IEM_DS3505
ZBYN,1996-06-24 00:00,ZBYN 240000Z AUTO 07002KT 3SM 19/16 A2985 RMK SLP087 T01860159 57005 IEM_DS3505
ZBYN,1996-06-24 01:00,ZBYN 240100Z AUTO 00000KT 5SM 21/16 A2983 RMK T02100160 IEM_DS3505
ZBYN,1996-06-24 02:00,ZBYN 240200Z AUTO 18006KT 6SM 23/16 A2983 RMK T02300160 IEM_DS3505
ZBYN,1996-06-24 03:00,ZBYN 240300Z AUTO 20006KT 4SM 23/15 A2983 RMK SLP071 T02300147 57012 IEM_DS3505
ZBYN,1996-06-24 04:00,ZBYN 240400Z AUTO 26004KT 7SM 25/17 A2980 RMK T02500170 IEM_DS3505
ZBYN,1996-06-24 05:00,ZBYN 240500Z AUTO 27004KT 6SM 27/14 A2977 RMK T02700140 IEM_DS3505
ZBYN,1996-06-24 06:00,ZBYN 240600Z AUTO 20006KT 4SM 27/17 A2974 RMK SLP045 T02680166 57020 IEM_DS3505
ZBYN,1996-06-24 07:00,ZBYN 240700Z AUTO 18004KT 6SM 30/15 A2974 RMK T03000150 IEM_DS3505
ZBYN,1996-06-24 08:00,ZBYN 240800Z AUTO 16006KT 6SM 30/16 A2971 RMK T03000160 IEM_DS3505
ZBYN,1996-06-24 09:00,ZBYN 240900Z AUTO 20006KT 6SM 28/15 A2971 RMK SLP033 T02750152 57011 IEM_DS3505
ZBYN,1996-06-24 10:00,ZBYN 241000Z AUTO 23004KT 6SM 28/16 A2971 RMK T02800160 IEM_DS3505
ZBYN,1996-06-24 11:00,ZBYN 241100Z AUTO 24004KT 6SM 27/17 A2971 RMK T02700170 IEM_DS3505
ZBYN,1996-06-24 12:00,ZBYN 241200Z AUTO 11002KT 6SM 24/18 A2971 RMK SLP035 T02430180 52001 IEM_DS3505
ZBYN,1996-06-24 13:00,ZBYN 241300Z AUTO 00000KT 5SM 23/17 A2974 RMK T02300170 IEM_DS3505
ZBYN,1996-06-24 14:00,ZBYN 241400Z AUTO 17008KT 5SM 21/17 A2977 RMK T02100170 IEM_DS3505
ZBYN,1996-06-24 15:00,ZBYN 241500Z AUTO 11004KT 6SM 20/16 A2977 RMK SLP049 T02010161 52013 IEM_DS3505
ZBYN,1996-06-24 16:00,ZBYN 241600Z AUTO 11006KT 5SM 19/17 A2977 RMK T01900170 IEM_DS3505
ZBYN,1996-06-24 17:00,ZBYN 241700Z AUTO 12006KT 5SM 19/16 A2977 RMK T01900160 IEM_DS3505
ZBYN,1996-06-24 18:00,ZBYN 241800Z AUTO 14004KT 6SM 18/15 A2977 RMK SLP048 T01810153 52001 IEM_DS3505
ZBYN,1996-06-24 19:00,ZBYN 241900Z AUTO 10004KT 5SM 17/16 A2977 RMK T01700160 IEM_DS3505
ZBYN,1996-06-24 20:00,ZBYN 242000Z AUTO 00000KT 5SM 17/16 A2977 RMK T01700160 IEM_DS3505
ZBYN,1996-06-24 21:00,ZBYN 242100Z AUTO 00000KT 6SM 16/15 A2977 RMK SLP052 T01610148 52002 IEM_DS3505
ZBYN,1996-06-24 22:00,ZBYN 242200Z AUTO 00000KT 4SM 16/15 A2977 RMK T01600150 IEM_DS3505
ZBYN,1996-06-24 23:00,ZBYN 242300Z AUTO 00000KT 1 1/2SM 17/16 A2980 RMK T01700160 IEM_DS3505
ZBYN,1996-06-25 00:00,ZBYN 250000Z AUTO 14004KT 6SM 20/16 A2980 RMK SLP056 T01990155 52005 IEM_DS3505
ZBYN,1996-06-25 01:00,ZBYN 250100Z AUTO 20004KT 2SM 22/17 A2980 RMK T02200170 IEM_DS3505
ZBYN,1996-06-25 02:00,ZBYN 250200Z AUTO 19004KT 2 1/2SM 25/17 A2977 RMK T02500170 IEM_DS3505
ZBYN,1996-06-25 03:00,ZBYN 250300Z AUTO 20006KT 5SM 25/16 A2977 RMK SLP051 T02490165 57004 IEM_DS3505
ZBYN,1996-06-25 04:00,ZBYN 250400Z AUTO 21008KT 5SM 28/18 A2977 RMK T02800180 IEM_DS3505
ZBYN,1996-06-25 05:00,ZBYN 250500Z AUTO 00000KT 6SM 29/18 A2974 RMK T02900180 IEM_DS3505
ZBYN,1996-06-25 06:00,ZBYN 250600Z AUTO 32002KT 6SM 29/16 A2971 RMK SLP029 T02920156 57017 IEM_DS3505
ZBYN,1996-06-25 07:00,ZBYN 250700Z AUTO 19004KT 7SM 32/16 A2968 RMK T03200160 IEM_DS3505
ZBYN,1996-06-25 08:00,ZBYN 250800Z AUTO 22004KT 7SM 32/16 A2968 RMK T03200160 IEM_DS3505
ZBYN,1996-06-25 09:00,ZBYN 250900Z AUTO 18004KT 9SM 31/15 RMK SLP009 T03080154 57019 IEM_DS3505
ZBYN,1996-06-25 10:00,ZBYN 251000Z AUTO 12008KT 7SM 28/16 A2965 RMK T02800160 IEM_DS3505
ZBYN,1996-06-25 11:00,ZBYN 251100Z AUTO 11004KT 7SM 26/17 A2968 RMK T02600170 IEM_DS3505
ZBYN,1996-06-25 12:00,ZBYN 251200Z AUTO 16006KT 6SM 25/15 A2968 RMK SLP027 T02510151 52014 IEM_DS3505
ZBYN,1996-06-25 13:00,ZBYN 251300Z AUTO 10006KT 6SM 22/16 A2971 RMK T02200160 IEM_DS3505
ZBYN,1996-06-25 14:00,ZBYN 251400Z AUTO 12004KT 6SM 22/15 A2974 RMK T02200150 IEM_DS3505
ZBYN,1996-06-25 15:00,ZBYN 251500Z AUTO 14004KT 6SM 21/15 A2974 RMK SLP039 T02130150 52013 IEM_DS3505
ZBYN,1996-06-25 16:00,ZBYN 251600Z AUTO 11006KT 6SM 20/16 A2974 RMK T02000160 IEM_DS3505
ZBYN,1996-06-25 17:00,ZBYN 251700Z AUTO 00000KT 7SM 19/15 A2974 RMK T01900150 IEM_DS3505
ZBYN,1996-06-25 18:00,ZBYN 251800Z AUTO 11006KT 6SM 19/13 A2976 RMK SLP037 T01930132 52001 IEM_DS3505
ZBYN,1996-06-25 19:00,ZBYN 251900Z AUTO 12004KT 7SM 18/14 A2974 RMK T01800140 IEM_DS3505
ZBYN,1996-06-25 20:00,ZBYN 252000Z AUTO 12004KT 7SM 18/14 A2974 RMK T01800140 IEM_DS3505
ZBYN,1996-06-25 21:00,ZBYN 252100Z AUTO 20002KT 6SM 18/15 A2974 RMK SLP036 T01800149 54000 IEM_DS3505
ZBYN,1996-06-25 22:00,ZBYN 252200Z AUTO 11004KT 7SM 18/15 A2974 RMK T01800150 IEM_DS3505
ZBYN,1996-06-25 23:00,ZBYN 252300Z AUTO 15004KT 6SM 19/16 A2977 RMK T01900160 IEM_DS3505
ZBYN,1996-06-26 00:00,ZBYN 260000Z AUTO 14006KT 6SM 20/16 A2980 RMK SLP054 T02050155 52012 IEM_DS3505
ZBYN,1996-06-26 01:00,ZBYN 260100Z AUTO 12006KT 6SM 22/18 A2977 RMK T02200180 IEM_DS3505
ZBYN,1996-06-26 02:00,ZBYN 260200Z AUTO 00000KT 6SM 22/18 A2974 RMK T02200180 IEM_DS3505
ZBYN,1996-06-26 03:00,ZBYN 260300Z AUTO 16004KT 4SM 22/16 A2974 RMK SLP047 T02230165 57009 IEM_DS3505
ZBYN,1996-06-26 04:00,ZBYN 260400Z AUTO 16004KT 6SM 25/18 A2974 RMK T02500180 IEM_DS3505
ZBYN,1996-06-26 05:00,ZBYN 260500Z AUTO 32002KT 6SM 25/17 A2971 RMK T02500170 IEM_DS3505
ZBYN,1996-06-26 06:00,ZBYN 260600Z AUTO 32002KT 6SM 25/17 A2971 RMK SLP031 T02470168 57014 IEM_DS3505
ZBYN,1996-06-26 07:00,ZBYN 260700Z AUTO 14014KT 7SM 21/15 A2971 RMK T02100150 IEM_DS3505
ZBYN,1996-06-26 08:00,ZBYN 260800Z AUTO 12008KT 7SM 23/19 A2968 RMK T02300190 IEM_DS3505
ZBYN,1996-06-26 09:00,ZBYN 260900Z AUTO 14006KT 6SM 23/16 A2968 RMK SLP023 T02320159 57012 IEM_DS3505
ZBYN,1996-06-26 10:00,ZBYN 261000Z AUTO 12006KT 6SM 25/19 A2965 RMK T02500190 IEM_DS3505
ZBYN,1996-06-26 11:00,ZBYN 261100Z AUTO 00000KT 7SM 22/19 A2965 RMK T02200190 IEM_DS3505
ZBYN,1996-06-26 12:00,ZBYN 261200Z AUTO 22004KT 6SM 18/15 A2968 RMK 60039 SLP037 T01770154 52009 IEM_DS3505
ZBYN,1996-06-26 13:00,ZBYN 261300Z AUTO 00000KT 7SM 17/16 RMK T01700160 IEM_DS3505
ZBYN,1996-06-26 14:00,ZBYN 261400Z AUTO 00000KT 4SM 17/16 A2971 RMK T01700160 IEM_DS3505
ZBYN,1996-06-26 15:00,ZBYN 261500Z AUTO 11002KT 6SM 17/15 A2971 RMK SLP039 T01670154 52003 IEM_DS3505
ZBYN,1996-06-26 16:00,ZBYN 261600Z AUTO 00000KT 6SM 17/16 A2971 RMK T01700160 IEM_DS3505
ZBYN,1996-06-26 17:00,ZBYN 261700Z AUTO 00000KT 6SM 16/16 A2971 RMK T01600160 IEM_DS3505
ZBYN,1996-06-26 18:00,ZBYN 261800Z AUTO 00000KT 6SM 16/15 A2971 RMK SLP035 T01610154 57001 IEM_DS3505
ZBYN,1996-06-26 21:00,ZBYN 262100Z AUTO 14002KT 4SM 15/14 A2971 RMK 70039 SLP040 T01470142 54000 IEM_DS3505
ZBYN,1996-06-26 23:00,ZBYN 262300Z AUTO 00000KT 1 1/4SM 15/15 A2971 RMK T01500150 IEM_DS3505
ZBYN,1996-06-27 00:00,ZBYN 270000Z AUTO 00000KT 4SM 18/16 A2971 RMK 70039 SLP050 T01790161 52006 IEM_DS3505
ZBYN,1996-06-27 01:00,ZBYN 270100Z AUTO 00000KT 2 1/2SM 20/17 A2971 RMK T02000170 IEM_DS3505
ZBYN,1996-06-27 02:00,ZBYN 270200Z AUTO 13006KT 3SM 22/17 A2971 RMK T02200170 IEM_DS3505
ZBYN,1996-06-27 03:00,ZBYN 270300Z AUTO 11004KT 4SM 23/16 A2971 RMK SLP036 T02310162 57007 IEM_DS3505
ZBYN,1996-06-27 04:00,ZBYN 270400Z AUTO 18006KT 7SM 26/18 A2968 RMK T02600180 IEM_DS3505
ZBYN,1996-06-27 05:00,ZBYN 270500Z AUTO 22004KT 7SM 27/18 A2965 RMK T02700180 IEM_DS3505
ZBYN,1996-06-27 06:00,ZBYN 270600Z AUTO 20008KT 4SM 26/18 A2965 RMK SLP015 T02650178 57015 IEM_DS3505
ZBYN,1996-06-27 07:00,ZBYN 270700Z AUTO 17008KT 7SM 30/20 A2965 RMK T03000200 IEM_DS3505
ZBYN,1996-06-27 08:00,ZBYN 270800Z AUTO 00000KT 7SM 31/19 A2962 RMK T03100190 IEM_DS3505
ZBYN,1996-06-27 09:00,ZBYN 270900Z AUTO 20006KT 6SM 28/19 A2962 RMK SLP001 T02830186 57012 IEM_DS3505
ZBYN,1996-06-27 10:00,ZBYN 271000Z AUTO 00000KT 7SM 27/21 A2962 RMK T02700210 IEM_DS3505
ZBYN,1996-06-27 11:00,ZBYN 271100Z AUTO 08006KT 7SM 22/21 A2965 RMK T02200210 IEM_DS3505
ZBYN,1996-06-27 12:00,ZBYN 271200Z AUTO 07002KT 6SM 23/19 A2965 RMK 60012 SLP020 T02310187 52014 IEM_DS3505
ZBYN,1996-06-27 13:00,ZBYN 271300Z AUTO 15010KT 6SM 22/21 A2968 RMK T02200210 IEM_DS3505
ZBYN,1996-06-27 14:00,ZBYN 271400Z AUTO 12006KT 6SM 20/19 A2971 RMK T02000190 IEM_DS3505
ZBYN,1996-06-27 15:00,ZBYN 271500Z AUTO 22004KT 6SM 21/18 A2971 RMK SLP031 T02090183 52015 IEM_DS3505
ZBYN,1996-06-27 18:00,ZBYN 271800Z AUTO 32002KT 5SM 20/18 A2973 RMK SLP030 T01990182 52002 IEM_DS3505
ZBYN,1996-06-27 20:00,ZBYN 272000Z AUTO 07004KT 7SM 20/19 RMK T02000190 IEM_DS3505
ZBYN,1996-06-27 21:00,ZBYN 272100Z AUTO 32006KT 6SM 22/16 A2971 RMK 70012 SLP026 T02150163 52001 IEM_DS3505
ZBYN,1996-06-27 22:00,ZBYN 272200Z AUTO 31008KT 6SM 21/17 A2974 RMK T02100170 IEM_DS3505
ZBYN,1996-06-27 23:00,ZBYN 272300Z AUTO 31006KT 7SM 21/15 A2977 RMK T02100150 IEM_DS3505
ZBYN,1996-06-28 00:00,ZBYN 280000Z AUTO 32012KT 9SM 22/13 A2977 RMK 70012 SLP049 T02200126 52015 IEM_DS3505
ZBYN,1996-06-28 01:00,ZBYN 280100Z AUTO 30014KT 7SM 22/14 A2980 RMK T02200140 IEM_DS3505
ZBYN,1996-06-28 02:00,ZBYN 280200Z AUTO 29004KT 7SM 22/14 A2985 RMK T02200140 IEM_DS3505
ZBYN,1996-06-28 03:00,ZBYN 280300Z AUTO 34006KT 9SM 21/15 A2983 RMK SLP069 T02120149 52014 IEM_DS3505
ZBYN,1996-06-28 04:00,ZBYN 280400Z AUTO 33004KT 7SM 22/16 A2983 RMK T02200160 IEM_DS3505
ZBYN,1996-06-28 05:00,ZBYN 280500Z AUTO 34004KT 7SM 20/17 A2983 RMK T02000170 IEM_DS3505
ZBYN,1996-06-28 06:00,ZBYN 280600Z AUTO 00000KT 7SM 19/16 A2980 RMK 60008 SLP068 T01940159 57005 IEM_DS3505
ZBYN,1996-06-28 07:00,ZBYN 280700Z AUTO 32004KT 7SM 20/17 A2980 RMK T02000170 IEM_DS3505
ZBYN,1996-06-28 08:00,ZBYN 280800Z AUTO 00000KT 7SM 19/18 A2974 RMK T01900180 IEM_DS3505
ZBYN,1996-06-28 09:00,ZBYN 280900Z AUTO 00000KT 6SM 20/16 A2974 RMK SLP041 T02050157 57021 IEM_DS3505
ZBYN,1996-06-28 10:00,ZBYN 281000Z AUTO 20004KT 7SM 20/18 A2971 RMK T02000180 IEM_DS3505
ZBYN,1996-06-28 11:00,ZBYN 281100Z AUTO 00000KT 6SM 20/17 A2971 RMK T02000170 IEM_DS3505
ZBYN,1996-06-28 12:00,ZBYN 281200Z AUTO 20004KT 6SM 18/17 A2974 RMK SLP043 T01850166 54000 IEM_DS3505
ZBYN,1996-06-28 13:00,ZBYN 281300Z AUTO 00000KT 6SM 19/17 A2974 RMK T01900170 IEM_DS3505
ZBYN,1996-06-28 14:00,ZBYN 281400Z AUTO 21002KT 6SM 18/16 A2974 RMK T01800160 IEM_DS3505
ZBYN,1996-06-28 15:00,ZBYN 281500Z AUTO 16006KT 6SM 17/16 A2971 RMK SLP038 T01720157 57008 IEM_DS3505
ZBYN,1996-06-28 16:00,ZBYN 281600Z AUTO 13008KT 6SM 16/15 A2968 RMK T01600150 IEM_DS3505
ZBYN,1996-06-28 17:00,ZBYN 281700Z AUTO 09002KT 6SM 16/15 A2968 RMK T01600150 IEM_DS3505
ZBYN,1996-06-28 18:00,ZBYN 281800Z AUTO 00000KT 6SM 15/15 A2968 RMK SLP039 T01540151 57004 IEM_DS3505
ZBYN,1996-06-28 19:00,ZBYN 281900Z AUTO 00000KT 6SM 16/15 A2968 RMK T01600150 IEM_DS3505
ZBYN,1996-06-28 20:00,ZBYN 282000Z AUTO 09004KT 6SM 15/13 A2965 RMK T01500130 IEM_DS3505
ZBYN,1996-06-28 21:00,ZBYN 282100Z AUTO 14004KT 2 1/2SM 15/15 A2965 RMK 70008 SLP030 T01520149 57007 IEM_DS3505
ZBYN,1996-06-28 22:00,ZBYN 282200Z AUTO 00000KT 1/8SM 15/15 A2968 RMK T01500150 IEM_DS3505
ZBYN,1996-06-28 23:00,ZBYN 282300Z AUTO 00000KT 3/8SM 16/16 A2968 RMK T01600160 IEM_DS3505
ZBYN,1996-06-29 00:00,ZBYN 290000Z AUTO 11004KT 1/8SM 16/15 A2968 RMK 70008 SLP039 T01550153 52006 IEM_DS3505
ZBYN,1996-06-29 01:00,ZBYN 290100Z AUTO 00000KT 3/8SM 17/16 A2968 RMK T01700160 IEM_DS3505
ZBYN,1996-06-29 02:00,ZBYN 290200Z AUTO 17006KT 2SM 20/18 A2965 RMK T02000180 IEM_DS3505
ZBYN,1996-06-29 03:00,ZBYN 290300Z AUTO 20008KT 4SM 23/17 A2962 RMK SLP010 T02300169 57018 IEM_DS3505
ZBYN,1996-06-29 04:00,ZBYN 290400Z AUTO 20006KT 2 1/2SM 26/17 A2962 RMK T02600170 IEM_DS3505
ZBYN,1996-06-29 05:00,ZBYN 290500Z AUTO 23008KT 4SM 28/19 A2959 RMK T02800190 IEM_DS3505
ZBYN,1996-06-29 06:00,ZBYN 290600Z AUTO 07004KT 5SM 28/18 A2956 RMK SLP985 T02840175 57018 IEM_DS3505
ZBYN,1996-06-29 07:00,ZBYN 290700Z AUTO 29012KT 7SM 31/15 A2953 RMK T03100150 IEM_DS3505
ZBYN,1996-06-29 08:00,ZBYN 290800Z AUTO 30016KT 7SM 32/10 A2953 RMK T03200100 IEM_DS3505
ZBYN,1996-06-29 09:00,ZBYN 290900Z AUTO 32008KT 12SM 30/10 A2953 RMK SLP974 T02960097 57008 IEM_DS3505
ZBYN,1996-06-29 10:00,ZBYN 291000Z AUTO 29010KT 7SM 30/14 A2956 RMK T03000140 IEM_DS3505
ZBYN,1996-06-29 11:00,ZBYN 291100Z AUTO 29006KT 6SM 28/14 A2956 RMK T02800140 IEM_DS3505
ZBYN,1996-06-29 12:00,ZBYN 291200Z AUTO 22004KT 12SM 25/15 A2959 RMK SLP996 T02510147 52014 IEM_DS3505
ZBYN,1996-06-29 13:00,ZBYN 291300Z AUTO 00000KT 7SM 23/15 A2959 RMK T02300150 IEM_DS3505
ZBYN,1996-06-29 14:00,ZBYN 291400Z AUTO 02004KT 7SM 21/16 A2962 RMK T02100160 IEM_DS3505
ZBYN,1996-06-29 15:00,ZBYN 291500Z AUTO 34004KT 9SM 21/13 A2962 RMK SLP001 T02140126 52010 IEM_DS3505
ZBYN,1996-06-29 16:00,ZBYN 291600Z AUTO 14004KT 7SM 18/15 A2962 RMK T01800150 IEM_DS3505
ZBYN,1996-06-29 17:00,ZBYN 291700Z AUTO 16004KT 7SM 16/13 A2962 RMK T01600130 IEM_DS3505
ZBYN,1996-06-29 18:00,ZBYN 291800Z AUTO 34002KT 6SM 17/13 A2962 RMK SLP006 T01680130 52005 IEM_DS3505
ZBYN,1996-06-29 19:00,ZBYN 291900Z AUTO 00000KT 7SM 15/13 A2965 RMK T01500130 IEM_DS3505
ZBYN,1996-06-29 20:00,ZBYN 292000Z AUTO 00000KT 7SM 14/13 A2965 RMK T01400130 IEM_DS3505
ZBYN,1996-06-29 21:00,ZBYN 292100Z AUTO 00000KT 6SM 14/12 A2965 RMK SLP013 T01390123 52004 IEM_DS3505
ZBYN,1996-06-29 22:00,ZBYN 292200Z AUTO 09004KT 7SM 13/11 A2965 RMK T01300110 IEM_DS3505
ZBYN,1996-06-29 23:00,ZBYN 292300Z AUTO 00000KT 7SM 15/13 A2965 RMK T01500130 IEM_DS3505
ZBYN,1996-06-30 00:00,ZBYN 300000Z AUTO 32002KT 6SM 19/12 A2965 RMK SLP012 T01930115 52001 IEM_DS3505
ZBYN,1996-06-30 01:00,ZBYN 300100Z AUTO 00000KT 7SM 23/14 A2965 RMK T02300140 IEM_DS3505
ZBYN,1996-06-30 02:00,ZBYN 300200Z AUTO 00000KT 7SM 26/15 A2962 RMK T02600150 IEM_DS3505
ZBYN,1996-06-30 03:00,ZBYN 300300Z AUTO 14006KT 5SM 26/15 A2962 RMK SLP998 T02620149 57009 IEM_DS3505
ZBYN,1996-06-30 04:00,ZBYN 300400Z AUTO 17006KT 7SM 30/18 A2959 RMK T03000180 IEM_DS3505
ZBYN,1996-06-30 05:00,ZBYN 300500Z AUTO 22010KT 7SM 32/16 A2956 RMK T03200160 IEM_DS3505
ZBYN,1996-06-30 06:00,ZBYN 300600Z AUTO 18006KT 6SM 29/16 A2956 RMK SLP981 T02870156 57018 IEM_DS3505
ZBYN,1996-06-30 07:00,ZBYN 300700Z AUTO 23006KT 7SM 30/14 A2953 RMK T03000140 IEM_DS3505
ZBYN,1996-06-30 08:00,ZBYN 300800Z AUTO 23012KT 7SM 33/09 A2953 RMK T03300090 IEM_DS3505
ZBYN,1996-06-30 09:00,ZBYN 300900Z AUTO 20008KT 12SM 32/19 A2950 RMK SLP962 T03170188 57017 IEM_DS3505
ZBYN,1996-06-30 10:00,ZBYN 301000Z AUTO 21006KT 7SM 32/12 A2950 RMK T03200120 IEM_DS3505
ZBYN,1996-06-30 11:00,ZBYN 301100Z AUTO 00000KT 7SM 29/17 A2950 RMK T02900170 IEM_DS3505
ZBYN,1996-06-30 12:00,ZBYN 301200Z AUTO 18002KT 12SM 26/17 A2950 RMK SLP962 T02590171 57001 IEM_DS3505
ZBYN,1996-06-30 13:00,ZBYN 301300Z AUTO 00000KT 7SM 24/15 A2953 RMK T02400150 IEM_DS3505
ZBYN,1996-06-30 14:00,ZBYN 301400Z AUTO 10004KT 7SM 22/15 A2956 RMK T02200150 IEM_DS3505
ZBYN,1996-06-30 15:00,ZBYN 301500Z AUTO 14006KT 9SM 21/14 A2956 RMK SLP975 T02110137 52015 IEM_DS3505
ZBYN,1996-06-30 16:00,ZBYN 301600Z AUTO 10004KT 7SM 20/14 A2956 RMK T02000140 IEM_DS3505
ZBYN,1996-06-30 17:00,ZBYN 301700Z AUTO 10004KT 7SM 20/14 A2956 RMK T02000140 IEM_DS3505
ZBYN,1996-06-30 18:00,ZBYN 301800Z AUTO 00000KT 7SM 17/14 A2959 RMK SLP984 T01690142 52006 IEM_DS3505
ZBYN,1996-06-30 19:00,ZBYN 301900Z AUTO 00000KT 7SM 18/13 A2959 RMK T01800130 IEM_DS3505
ZBYN,1996-06-30 20:00,ZBYN 302000Z AUTO 00000KT 6SM 18/14 A2959 RMK T01800140 IEM_DS3505
ZBYN,1996-06-30 21:00,ZBYN 302100Z AUTO 32004KT 6SM 16/13 A2962 RMK SLP993 T01600134 52011 IEM_DS3505
ZBYN,1996-06-30 22:00,ZBYN 302200Z AUTO 00000KT 6SM 18/14 A2962 RMK T01800140 IEM_DS3505
ZBYN,1996-06-30 23:00,ZBYN 302300Z AUTO 00000KT 6SM 18/15 A2965 RMK T01800150 IEM_DS3505
ZBYN,1996-07-01 00:00,ZBYN 010000Z AUTO 32004KT 6SM 22/15 A2965 RMK SLP010 T02150152 52015 IEM_DS3505
ZBYN,1996-07-01 01:00,ZBYN 010100Z AUTO 00000KT 4SM 26/17 A2965 RMK T02600170 IEM_DS3505
ZBYN,1996-07-01 02:00,ZBYN 010200Z AUTO 00000KT 4SM 28/16 A2965 RMK T02800160 IEM_DS3505
ZBYN,1996-07-01 03:00,ZBYN 010300Z AUTO 18004KT 6SM 28/16 A2965 RMK SLP004 T02850159 57002 IEM_DS3505
ZBYN,1996-07-01 04:00,ZBYN 010400Z AUTO 21004KT 7SM 32/17 A2962 RMK T03200170 IEM_DS3505
ZBYN,1996-07-01 05:00,ZBYN 010500Z AUTO 20008KT 7SM 33/16 A2962 RMK T03300160 IEM_DS3505
ZBYN,1996-07-01 06:00,ZBYN 010600Z AUTO 18010KT 6SM 33/15 A2959 RMK SLP987 T03310152 57015 IEM_DS3505
ZBYN,1996-07-01 07:00,ZBYN 010700Z AUTO 21010KT 7SM 36/12 A2959 RMK T03600120 IEM_DS3505
ZBYN,1996-07-01 08:00,ZBYN 010800Z AUTO 18008KT 7SM 36/16 A2956 RMK T03600160 IEM_DS3505
ZBYN,1996-07-01 09:00,ZBYN 010900Z AUTO 22004KT 7SM 35/14 A2956 RMK SLP976 T03490137 57009 IEM_DS3505
ZBYN,1996-07-01 10:00,ZBYN 011000Z AUTO 00000KT 7SM 35/17 A2956 RMK T03500170 IEM_DS3505
ZBYN,1996-07-01 11:00,ZBYN 011100Z AUTO 00000KT 7SM 31/16 A2959 RMK T03100160 IEM_DS3505
ZBYN,1996-07-01 12:00,ZBYN 011200Z AUTO 11012KT 6SM 30/13 A2962 RMK SLP991 T03010128 52014 IEM_DS3505
ZBYN,1996-07-01 13:00,ZBYN 011300Z AUTO 08010KT 7SM 25/19 A2965 RMK T02500190 IEM_DS3505
ZBYN,1996-07-01 14:00,ZBYN 011400Z AUTO 09014KT 6SM 26/18 A2968 RMK T02600180 IEM_DS3505
ZBYN,1996-07-01 15:00,ZBYN 011500Z AUTO 09008KT 6SM 27/17 A2971 RMK SLP012 T02710166 52025 IEM_DS3505
ZBYN,1996-07-01 16:00,ZBYN 011600Z AUTO 07008KT 6SM 24/17 A2971 RMK T02400170 IEM_DS3505
ZBYN,1996-07-01 17:00,ZBYN 011700Z AUTO 09017KT 7SM 23/16 A2974 RMK T02300160 IEM_DS3505
ZBYN,1996-07-01 18:00,ZBYN 011800Z AUTO 32004KT 6SM 24/17 A2974 RMK SLP021 T02440169 52011 IEM_DS3505
ZBYN,1996-07-01 19:00,ZBYN 011900Z AUTO 09006KT 6SM 22/16 A2977 RMK T02200160 IEM_DS3505
ZBYN,1996-07-01 20:00,ZBYN 012000Z AUTO 09008KT 6SM 22/16 A2977 RMK T02200160 IEM_DS3505
ZBYN,1996-07-01 21:00,ZBYN 012100Z AUTO 34002KT 6SM 20/17 A2977 RMK SLP037 T02040166 52011 IEM_DS3505
ZBYN,1996-07-01 22:00,ZBYN 012200Z AUTO 00000KT 6SM 21/17 A2980 RMK T02100170 IEM_DS3505
ZBYN,1996-07-01 23:00,ZBYN 012300Z AUTO 13006KT 6SM 22/17 A2980 RMK T02200170 IEM_DS3505
ZBYN,1996-07-02 00:00,ZBYN 020000Z AUTO 00000KT 6SM 24/18 A2983 RMK SLP053 T02410175 52014 IEM_DS3505
ZBYN,1996-07-02 01:00,ZBYN 020100Z AUTO 07008KT 6SM 25/19 A2983 RMK T02500190 IEM_DS3505
ZBYN,1996-07-02 02:00,ZBYN 020200Z AUTO 08010KT 6SM 27/20 A2980 RMK T02700200 IEM_DS3505
ZBYN,1996-07-02 03:00,ZBYN 020300Z AUTO 09008KT 6SM 24/18 A2980 RMK SLP048 T02380178 57003 IEM_DS3505
ZBYN,1996-07-02 04:00,ZBYN 020400Z AUTO 13008KT 6SM 31/21 A2980 RMK T03100210 IEM_DS3505
ZBYN,1996-07-02 05:00,ZBYN 020500Z AUTO 00000KT 6SM 32/21 A2980 RMK T03200210 IEM_DS3505
ZBYN,1996-07-02 06:00,ZBYN 020600Z AUTO 14004KT 6SM 31/17 A2977 RMK SLP037 T03110170 57010 IEM_DS3505
ZBYN,1996-07-02 07:00,ZBYN 020700Z AUTO 09004KT 6SM 33/21 A2977 RMK T03300210 IEM_DS3505
ZBYN,1996-07-02 08:00,ZBYN 020800Z AUTO 17010KT 6SM 33/19 A2977 RMK T03300190 IEM_DS3505
ZBYN,1996-07-02 09:00,ZBYN 020900Z AUTO 14008KT 9SM 31/14 A2977 RMK SLP042 T03070138 57002 IEM_DS3505
ZBYN,1996-07-02 10:00,ZBYN 021000Z AUTO 09008KT 6SM 29/20 A2977 RMK T02900200 IEM_DS3505
ZBYN,1996-07-02 11:00,ZBYN 021100Z AUTO 08014KT 6SM 27/20 A2980 RMK T02700200 IEM_DS3505
ZBYN,1996-07-02 12:00,ZBYN 021200Z AUTO 09016KT 6SM 27/18 A2980 RMK SLP052 T02710183 52010 IEM_DS3505
ZBYN,1996-07-02 13:00,ZBYN 021300Z AUTO 09016KT 6SM 25/20 A2983 RMK T02500200 IEM_DS3505
ZBYN,1996-07-02 14:00,ZBYN 021400Z AUTO 09010KT 6SM 25/19 A2985 RMK T02500190 IEM_DS3505
ZBYN,1996-07-02 15:00,ZBYN 021500Z AUTO 09008KT 6SM 25/18 A2985 RMK SLP074 T02530178 52023 IEM_DS3505
ZBYN,1996-07-02 16:00,ZBYN 021600Z AUTO 10008KT 6SM 23/18 A2985 RMK T02300180 IEM_DS3505
ZBYN,1996-07-02 17:00,ZBYN 021700Z AUTO 12008KT 6SM 23/19 A2985 RMK T02300190 IEM_DS3505
ZBYN,1996-07-02 18:00,ZBYN 021800Z AUTO 09004KT 6SM 23/19 A2985 RMK SLP071 T02290186 57002 IEM_DS3505
ZBYN,1996-07-02 19:00,ZBYN 021900Z AUTO 08008KT 6SM 23/19 A2985 RMK T02300190 IEM_DS3505
ZBYN,1996-07-02 20:00,ZBYN 022000Z AUTO 09006KT 6SM 23/19 A2985 RMK T02300190 IEM_DS3505
ZBYN,1996-07-02 21:00,ZBYN 022100Z AUTO 32004KT 6SM 22/18 A2985 RMK SLP072 T02210181 57001 IEM_DS3505
ZBYN,1996-07-02 22:00,ZBYN 022200Z AUTO 00000KT 6SM 22/20 A2985 RMK T02200200 IEM_DS3505
ZBYN,1996-07-02 23:00,ZBYN 022300Z AUTO 09006KT 6SM 23/21 A2985 RMK T02300210 IEM_DS3505
ZBYN,1996-07-03 00:00,ZBYN 030000Z AUTO 32002KT 6SM 24/20 A2988 RMK SLP078 T02450197 52004 IEM_DS3505
ZBYN,1996-07-03 01:00,ZBYN 030100Z AUTO 10008KT 3SM 26/22 A2988 RMK T02600220 IEM_DS3505
ZBYN,1996-07-03 02:00,ZBYN 030200Z AUTO 13008KT 4SM 28/21 A2988 RMK T02800210 IEM_DS3505
ZBYN,1996-07-03 03:00,ZBYN 030300Z AUTO 16004KT 6SM 27/18 A2985 RMK SLP076 T02710185 57001 IEM_DS3505
ZBYN,1996-07-03 04:00,ZBYN 030400Z AUTO 21004KT 7SM 28/20 A2985 RMK T02800200 IEM_DS3505
ZBYN,1996-07-03 05:00,ZBYN 030500Z AUTO 00000KT 6SM 29/22 A2985 RMK T02900220 IEM_DS3505
ZBYN,1996-07-03 06:00,ZBYN 030600Z AUTO 22006KT 6SM 30/16 A2983 RMK SLP059 T02950164 57015 IEM_DS3505
ZBYN,1996-07-03 07:00,ZBYN 030700Z AUTO 18004KT 7SM 30/19 A2980 RMK T03000190 IEM_DS3505
ZBYN,1996-07-03 08:00,ZBYN 030800Z AUTO 10006KT 7SM 30/21 A2980 RMK T03000210 IEM_DS3505
ZBYN,1996-07-03 09:00,ZBYN 030900Z AUTO 09008KT 7SM 28/18 A2980 RMK SLP050 T02840178 57011 IEM_DS3505
ZBYN,1996-07-03 10:00,ZBYN 031000Z AUTO 00000KT 7SM 27/19 A2980 RMK T02700190 IEM_DS3505
ZBYN,1996-07-03 11:00,ZBYN 031100Z AUTO 03016KT 4SM 24/18 A2983 RMK T02400180 IEM_DS3505
ZBYN,1996-07-03 12:00,ZBYN 031200Z AUTO 34006KT 5SM 22/18 A2983 RMK SLP073 T02200183 52015 IEM_DS3505
ZBYN,1996-07-03 13:00,ZBYN 031300Z AUTO 35006KT 7SM 22/18 A2983 RMK T02200180 IEM_DS3505
ZBYN,1996-07-03 14:00,ZBYN 031400Z AUTO 35010KT 7SM 22/18 A2985 RMK T02200180 IEM_DS3505
ZBYN,1996-07-03 15:00,ZBYN 031500Z AUTO 34004KT 5SM 21/18 A2983 RMK SLP073 T02110175 52003 IEM_DS3505
ZBYN,1996-07-03 16:00,ZBYN 031600Z AUTO 34006KT 6SM 21/17 A2983 RMK T02100170 IEM_DS3505
ZBYN,1996-07-03 17:00,ZBYN 031700Z AUTO 35010KT 7SM 21/17 A2983 RMK T02100170 IEM_DS3505
ZBYN,1996-07-03 18:00,ZBYN 031800Z AUTO 34004KT 6SM 20/17 A2983 RMK SLP065 T01970172 57006 IEM_DS3505
ZBYN,1996-07-03 19:00,ZBYN 031900Z AUTO 32004KT 7SM 20/17 A2983 RMK T02000170 IEM_DS3505
ZBYN,1996-07-03 21:00,ZBYN 032100Z AUTO 32004KT 6SM 19/17 A2983 RMK SLP072 T01870170 52003 IEM_DS3505
ZBYN,1996-07-03 22:00,ZBYN 032200Z AUTO 02004KT 5SM 19/17 A2983 RMK T01900170 IEM_DS3505
ZBYN,1996-07-03 23:00,ZBYN 032300Z AUTO 02004KT 4SM 20/17 A2983 RMK T02000170 IEM_DS3505
ZBYN,1996-07-04 00:00,ZBYN 040000Z AUTO 36004KT 6SM 22/18 A2985 RMK SLP079 T02150176 52002 IEM_DS3505
ZBYN,1996-07-04 01:00,ZBYN 040100Z AUTO 04008KT 7SM 24/18 A2983 RMK T02400180 IEM_DS3505
ZBYN,1996-07-04 03:00,ZBYN 040300Z AUTO 16002KT 6SM 27/18 A2980 RMK SLP061 T02670179 57011 IEM_DS3505
ZBYN,1996-07-04 04:00,ZBYN 040400Z AUTO 27006KT 6SM 29/19 A2980 RMK T02900190 IEM_DS3505
ZBYN,1996-07-04 05:00,ZBYN 040500Z AUTO 22004KT 6SM 30/18 A2977 RMK T03000180 IEM_DS3505
ZBYN,1996-07-04 06:00,ZBYN 040600Z AUTO 20004KT 6SM 31/17 A2974 RMK SLP035 T03060167 57020 IEM_DS3505
ZBYN,1996-07-04 07:00,ZBYN 040700Z AUTO 22008KT 6SM 32/17 A2971 RMK T03200170 IEM_DS3505
ZBYN,1996-07-04 08:00,ZBYN 040800Z AUTO 16004KT 6SM 32/17 A2971 RMK T03200170 IEM_DS3505
ZBYN,1996-07-04 09:00,ZBYN 040900Z AUTO 20004KT 6SM 31/17 A2968 RMK SLP011 T03140170 57022 IEM_DS3505
ZBYN,1996-07-04 10:00,ZBYN 041000Z AUTO 20004KT 7SM 32/17 A2965 RMK T03200170 IEM_DS3505
ZBYN,1996-07-04 11:00,ZBYN 041100Z AUTO 00000KT 6SM 32/17 A2965 RMK T03200170 IEM_DS3505
ZBYN,1996-07-04 12:00,ZBYN 041200Z AUTO 20004KT 6SM 25/18 A2968 RMK SLP018 T02520182 52001 IEM_DS3505
ZBYN,1996-07-04 13:00,ZBYN 041300Z AUTO 00000KT 6SM 25/17 A2968 RMK T02500170 IEM_DS3505
ZBYN,1996-07-04 14:00,ZBYN 041400Z AUTO 16004KT 6SM 23/17 A2971 RMK T02300170 IEM_DS3505
ZBYN,1996-07-04 15:00,ZBYN 041500Z AUTO 11006KT 6SM 21/16 A2971 RMK SLP022 T02100162 52005 IEM_DS3505
ZBYN,1996-07-04 16:00,ZBYN 041600Z AUTO 07004KT 7SM 22/17 A2971 RMK T02200170 IEM_DS3505
ZBYN,1996-07-04 17:00,ZBYN 041700Z AUTO 12004KT 7SM 21/16 A2971 RMK T02100160 IEM_DS3505
ZBYN,1996-07-04 18:00,ZBYN 041800Z AUTO 22002KT 6SM 20/16 RMK SLP048 T02040159 52001 IEM_DS3505
ZBYN,1996-07-04 19:00,ZBYN 041900Z AUTO 00000KT 6SM 20/15 A2971 RMK T02000150 IEM_DS3505
ZBYN,1996-07-04 20:00,ZBYN 042000Z AUTO 09004KT 6SM 20/15 A2968 RMK T02000150 IEM_DS3505
ZBYN,1996-07-04 21:00,ZBYN 042100Z AUTO 34002KT 6SM 20/15 A2971 RMK SLP020 T01970150 52002 IEM_DS3505
ZBYN,1996-07-04 22:00,ZBYN 042200Z AUTO 00000KT 5SM 19/18 A2971 RMK T01900180 IEM_DS3505
ZBYN,1996-07-04 23:00,ZBYN 042300Z AUTO 02002KT 2 1/2SM 20/17 A2971 RMK T02000170 IEM_DS3505
ZBYN,1996-07-05 00:00,ZBYN 050000Z AUTO 34004KT 6SM 23/18 A2971 RMK SLP025 T02280179 52001 IEM_DS3505
ZBYN,1996-07-05 01:00,ZBYN 050100Z AUTO 00000KT 4SM 25/18 A2971 RMK T02500180 IEM_DS3505
ZBYN,1996-07-05 02:00,ZBYN 050200Z AUTO 00000KT 4SM 27/18 A2968 RMK T02700180 IEM_DS3505
ZBYN,1996-07-05 03:00,ZBYN 050300Z AUTO 09002KT 6SM 29/16 A2968 RMK SLP013 T02870163 57009 IEM_DS3505
ZBYN,1996-07-05 04:00,ZBYN 050400Z AUTO 00000KT 7SM 30/17 A2965 RMK T03000170 IEM_DS3505
ZBYN,1996-07-05 05:00,ZBYN 050500Z AUTO 00000KT 7SM 32/18 A2965 RMK T03200180 IEM_DS3505
ZBYN,1996-07-05 06:00,ZBYN 050600Z AUTO 00000KT 6SM 32/17 A2965 RMK SLP996 T03170172 57012 IEM_DS3505
ZBYN,1996-07-05 07:00,ZBYN 050700Z AUTO 30004KT 7SM 33/16 A2962 RMK T03300160 IEM_DS3505
ZBYN,1996-07-05 08:00,ZBYN 050800Z AUTO 31006KT 7SM 32/17 A2962 RMK T03200170 IEM_DS3505
ZBYN,1996-07-05 09:00,ZBYN 050900Z AUTO 07004KT 9SM 32/14 A2959 RMK SLP986 T03160141 57011 IEM_DS3505
ZBYN,1996-07-05 10:00,ZBYN 051000Z AUTO 31006KT 7SM 32/16 A2962 RMK T03200160 IEM_DS3505
ZBYN,1996-07-05 11:00,ZBYN 051100Z AUTO 02006KT 7SM 30/17 A2962 RMK T03000170 IEM_DS3505
ZBYN,1996-07-05 12:00,ZBYN 051200Z AUTO 32004KT 9SM 27/16 A2962 RMK SLP998 T02740164 52010 IEM_DS3505
ZBYN,1996-07-05 13:00,ZBYN 051300Z AUTO 15004KT 7SM 25/17 A2965 RMK T02500170 IEM_DS3505
ZBYN,1996-07-05 14:00,ZBYN 051400Z AUTO 00000KT 7SM 23/16 A2965 RMK T02300160 IEM_DS3505
ZBYN,1996-07-05 15:00,ZBYN 051500Z AUTO 11002KT 6SM 20/17 A2965 RMK SLP007 T02040171 52007 IEM_DS3505
ZBYN,1996-07-05 16:00,ZBYN 051600Z AUTO 00000KT 7SM 20/15 A2965 RMK T02000150 IEM_DS3505
ZBYN,1996-07-05 17:00,ZBYN 051700Z AUTO 00000KT 7SM 19/14 A2965 RMK T01900140 IEM_DS3505
ZBYN,1996-07-05 18:00,ZBYN 051800Z AUTO 00000KT 6SM 18/16 A2965 RMK SLP007 T01780157 54000 IEM_DS3505
ZBYN,1996-07-05 19:00,ZBYN 051900Z AUTO 00000KT 7SM 18/14 A2968 RMK T01800140 IEM_DS3505
ZBYN,1996-07-05 20:00,ZBYN 052000Z AUTO 00000KT 6SM 18/15 A2968 RMK T01800150 IEM_DS3505
ZBYN,1996-07-05 21:00,ZBYN 052100Z AUTO 00000KT 6SM 18/14 A2968 RMK SLP016 T01770138 52008 IEM_DS3505
ZBYN,1996-07-05 22:00,ZBYN 052200Z AUTO 00000KT 6SM 17/15 A2971 RMK T01700150 IEM_DS3505
ZBYN,1996-07-05 23:00,ZBYN 052300Z AUTO 00000KT 6SM 18/16 A2971 RMK T01800160 IEM_DS3505
ZBYN,1996-07-06 00:00,ZBYN 060000Z AUTO 09002KT 6SM 22/17 A2971 RMK SLP026 T02170167 52009 IEM_DS3505
ZBYN,1996-07-06 01:00,ZBYN 060100Z AUTO 00000KT 6SM 24/17 A2971 RMK T02400170 IEM_DS3505
ZBYN,1996-07-06 02:00,ZBYN 060200Z AUTO 00000KT 6SM 26/18 A2971 RMK T02600180 IEM_DS3505
ZBYN,1996-07-06 03:00,ZBYN 060300Z AUTO 11004KT 6SM 28/18 A2968 RMK SLP017 T02810178 57009 IEM_DS3505
ZBYN,1996-07-06 04:00,ZBYN 060400Z AUTO 22004KT 6SM 31/17 A2965 RMK T03100170 IEM_DS3505
ZBYN,1996-07-06 05:00,ZBYN 060500Z AUTO 20006KT 6SM 33/18 A2965 RMK T03300180 IEM_DS3505
ZBYN,1996-07-06 06:00,ZBYN 060600Z AUTO 20012KT 6SM 32/16 A2962 RMK SLP994 T03230163 57019 IEM_DS3505
ZBYN,1996-07-06 07:00,ZBYN 060700Z AUTO 20008KT 7SM 35/16 A2962 RMK T03500160 IEM_DS3505
ZBYN,1996-07-06 08:00,ZBYN 060800Z AUTO 23008KT 7SM 35/15 A2959 RMK T03500150 IEM_DS3505
ZBYN,1996-07-06 09:00,ZBYN 060900Z AUTO 18004KT 9SM 32/19 A2959 RMK SLP986 T03170192 57008 IEM_DS3505
ZBYN,1996-07-06 10:00,ZBYN 061000Z AUTO 20006KT 7SM 33/19 A2959 RMK T03300190 IEM_DS3505
ZBYN,1996-07-06 11:00,ZBYN 061100Z AUTO 00000KT 7SM 30/17 A2959 RMK T03000170 IEM_DS3505
ZBYN,1996-07-06 12:00,ZBYN 061200Z AUTO 11004KT 9SM 27/20 A2962 RMK SLP994 T02690200 52006 IEM_DS3505
ZBYN,1996-07-06 13:00,ZBYN 061300Z AUTO 10004KT 6SM 25/19 A2962 RMK T02500190 IEM_DS3505
ZBYN,1996-07-06 14:00,ZBYN 061400Z AUTO 06010KT 7SM 25/17 A2965 RMK T02500170 IEM_DS3505
ZBYN,1996-07-06 15:00,ZBYN 061500Z AUTO 32002KT 7SM 26/16 A2968 RMK SLP012 T02590160 52024 IEM_DS3505
ZBYN,1996-07-06 16:00,ZBYN 061600Z AUTO 03010KT 7SM 26/15 A2971 RMK T02600150 IEM_DS3505
ZBYN,1996-07-06 18:00,ZBYN 061800Z AUTO 32006KT 7SM 24/16 A2971 RMK SLP022 T02350157 52011 IEM_DS3505
ZBYN,1996-07-06 19:00,ZBYN 061900Z AUTO 02006KT 7SM 25/15 A2974 RMK T02500150 IEM_DS3505
ZBYN,1996-07-06 21:00,ZBYN 062100Z AUTO 32004KT 6SM 23/15 A2977 RMK SLP040 T02280151 52015 IEM_DS3505
ZBYN,1996-07-06 22:00,ZBYN 062200Z AUTO 00000KT 6SM 23/17 A2980 RMK T02300170 IEM_DS3505
ZBYN,1996-07-06 23:00,ZBYN 062300Z AUTO 03004KT 6SM 23/18 A2983 RMK T02300180 IEM_DS3505
ZBYN,1996-07-07 00:00,ZBYN 070000Z AUTO 36004KT 5SM 25/17 A2983 RMK SLP066 T02500173 52020 IEM_DS3505
ZBYN,1996-07-07 01:00,ZBYN 070100Z AUTO 10006KT 6SM 26/21 A2983 RMK T02600210 IEM_DS3505
ZBYN,1996-07-07 02:00,ZBYN 070200Z AUTO 10010KT 6SM 28/20 A2983 RMK T02800200 IEM_DS3505
ZBYN,1996-07-07 03:00,ZBYN 070300Z AUTO 09006KT 6SM 29/19 A2983 RMK SLP058 T02920191 57003 IEM_DS3505
ZBYN,1996-07-07 04:00,ZBYN 070400Z AUTO 09010KT 6SM 31/21 A2983 RMK T03100210 IEM_DS3505
ZBYN,1996-07-07 05:00,ZBYN 070500Z AUTO 04006KT 6SM 31/22 A2983 RMK T03100220 IEM_DS3505
ZBYN,1996-07-07 06:00,ZBYN 070600Z AUTO 00000KT 6SM 31/20 A2983 RMK SLP059 T03060199 54000 IEM_DS3505
ZBYN,1996-07-07 07:00,ZBYN 070700Z AUTO 08012KT 6SM 29/21 A2983 RMK T02900210 IEM_DS3505
ZBYN,1996-07-07 08:00,ZBYN 070800Z AUTO 09016KT 6SM 28/21 A2985 RMK T02800210 IEM_DS3505
ZBYN,1996-07-07 09:00,ZBYN 070900Z AUTO 09014KT 5SM 27/19 A2985 RMK SLP066 T02730194 52001 IEM_DS3505
ZBYN,1996-07-07 10:00,ZBYN 071000Z AUTO 09017KT 7SM 25/19 A2988 RMK T02500190 IEM_DS3505
ZBYN,1996-07-07 11:00,ZBYN 071100Z AUTO 02004KT 4SM 21/20 A2991 RMK T02100200 IEM_DS3505
ZBYN,1996-07-07 12:00,ZBYN 071200Z AUTO 32006KT 6SM 22/18 A2994 RMK 60004 SLP113 T02210183 52039 IEM_DS3505
ZBYN,1996-07-07 13:00,ZBYN 071300Z AUTO 16004KT 2 1/2SM 21/20 A2997 RMK T02100200 IEM_DS3505
ZBYN,1996-07-07 14:00,ZBYN 071400Z AUTO 18004KT 2 1/2SM 21/20 A3000 RMK T02100200 IEM_DS3505
ZBYN,1996-07-07 15:00,ZBYN 071500Z AUTO 16004KT 5SM 21/20 A3003 RMK SLP126 T02100200 52015 IEM_DS3505
ZBYN,1996-07-07 16:00,ZBYN 071600Z AUTO 16004KT 2SM 21/20 A3000 RMK T02100200 IEM_DS3505
ZBYN,1996-07-07 18:00,ZBYN 071800Z AUTO 00000KT 5SM 20/20 A3000 RMK 60016 SLP119 T02010199 57005 IEM_DS3505
ZBYN,1996-07-07 19:00,ZBYN 071900Z AUTO 00000KT 1 1/4SM 20/19 A2997 RMK T02000190 IEM_DS3505
ZBYN,1996-07-07 20:00,ZBYN 072000Z AUTO 00000KT 1 1/4SM 20/19 A2997 RMK T02000190 IEM_DS3505
ZBYN,1996-07-07 21:00,ZBYN 072100Z AUTO 00000KT 2 1/2SM 20/20 A3000 RMK 70020 SLP126 T02020196 52002 IEM_DS3505
ZBYN,1996-07-07 22:00,ZBYN 072200Z AUTO 00000KT 2SM 20/19 A3000 RMK T02000190 IEM_DS3505
ZBYN,1996-07-07 23:00,ZBYN 072300Z AUTO 33004KT 2 1/2SM 20/19 A3003 RMK T02000190 IEM_DS3505
ZBYN,1996-07-08 00:00,ZBYN 080000Z AUTO 00000KT 4SM 20/19 A3003 RMK 70020 SLP142 T02020193 52008 IEM_DS3505
ZBYN,1996-07-08 01:00,ZBYN 080100Z AUTO 08006KT 4SM 22/20 A3000 RMK T02200200 IEM_DS3505
ZBYN,1996-07-08 02:00,ZBYN 080200Z AUTO 06006KT 4SM 22/20 A3000 RMK T02200200 IEM_DS3505
ZBYN,1996-07-08 03:00,ZBYN 080300Z AUTO 07008KT 6SM 23/19 A3000 RMK SLP132 T02320190 57008 IEM_DS3505
ZBYN,1996-07-08 04:00,ZBYN 080400Z AUTO 00000KT 6SM 26/21 A3000 RMK T02600210 IEM_DS3505
ZBYN,1996-07-08 05:00,ZBYN 080500Z AUTO 08008KT 6SM 26/21 A2997 RMK T02600210 IEM_DS3505
ZBYN,1996-07-08 06:00,ZBYN 080600Z AUTO 00000KT 6SM 25/20 A2994 RMK SLP114 T02500199 57014 IEM_DS3505
ZBYN,1996-07-08 07:00,ZBYN 080700Z AUTO 11012KT 6SM 26/20 A2994 RMK T02600200 IEM_DS3505
ZBYN,1996-07-08 08:00,ZBYN 080800Z AUTO 09012KT 7SM 26/20 A2991 RMK T02600200 IEM_DS3505
ZBYN,1996-07-08 09:00,ZBYN 080900Z AUTO 09012KT 6SM 24/19 A2991 RMK SLP101 T02410191 57013 IEM_DS3505
ZBYN,1996-07-08 10:00,ZBYN 081000Z AUTO 09012KT 6SM 24/19 A2991 RMK T02400190 IEM_DS3505
ZBYN,1996-07-08 11:00,ZBYN 081100Z AUTO 08012KT 7SM 23/17 A2991 RMK T02300170 IEM_DS3505
ZBYN,1996-07-08 12:00,ZBYN 081200Z AUTO 11006KT 6SM 22/18 A2994 RMK SLP110 T02250180 52006 IEM_DS3505
ZBYN,1996-07-08 13:00,ZBYN 081300Z AUTO 08010KT 7SM 21/18 A2994 RMK T02100180 IEM_DS3505
ZBYN,1996-07-08 14:00,ZBYN 081400Z AUTO 06008KT 7SM 21/18 A2994 RMK T02100180 IEM_DS3505
ZBYN,1996-07-08 15:00,ZBYN 081500Z AUTO 36004KT 5SM 21/19 A2997 RMK SLP116 T02130190 52008 IEM_DS3505
ZBYN,1996-07-08 16:00,ZBYN 081600Z AUTO 00000KT 7SM 20/18 A2994 RMK T02000180 IEM_DS3505
ZBYN,1996-07-08 17:00,ZBYN 081700Z AUTO 00000KT 7SM 19/18 A2994 RMK T01900180 IEM_DS3505
ZBYN,1996-07-08 18:00,ZBYN 081800Z AUTO 00000KT 3SM 20/19 A2991 RMK 60016 SLP103 T01970194 57012 IEM_DS3505
ZBYN,1996-07-08 19:00,ZBYN 081900Z AUTO 00000KT 7SM 19/18 A2991 RMK T01900180 IEM_DS3505
ZBYN,1996-07-08 20:00,ZBYN 082000Z AUTO 00000KT 5SM 19/18 A2988 RMK T01900180 IEM_DS3505
ZBYN,1996-07-08 21:00,ZBYN 082100Z AUTO 11004KT 3SM 19/19 A2988 RMK 70004 SLP092 T01880188 57012 IEM_DS3505
ZBYN,1996-07-08 22:00,ZBYN 082200Z AUTO 00000KT 3SM 19/19 A2988 RMK T01900190 IEM_DS3505
ZBYN,1996-07-08 23:00,ZBYN 082300Z AUTO 11004KT 2 1/2SM 19/19 A2985 RMK T01900190 IEM_DS3505
ZBYN,1996-07-09 00:00,ZBYN 090000Z AUTO 14006KT 1 1/4SM 19/19 A2985 RMK 60020 70035 SLP089 T01900190 57005 IEM_DS3505
ZBYN,1996-07-09 01:00,ZBYN 090100Z AUTO 12008KT 2 1/2SM 19/18 A2985 RMK T01900180 IEM_DS3505
ZBYN,1996-07-09 02:00,ZBYN 090200Z AUTO 09008KT 2 1/2SM 19/18 A2983 RMK T01900180 IEM_DS3505
ZBYN,1996-07-09 03:00,ZBYN 090300Z AUTO 00000KT 2SM 18/18 A2983 RMK SLP084 T01840184 57007 IEM_DS3505
ZBYN,1996-07-09 04:00,ZBYN 090400Z AUTO 10006KT 5SM 19/18 A2983 RMK T01900180 IEM_DS3505
ZBYN,1996-07-09 05:00,ZBYN 090500Z AUTO 00000KT 4SM 19/19 A2980 RMK T01900190 IEM_DS3505
ZBYN,1996-07-09 06:00,ZBYN 090600Z AUTO 32004KT 2 1/2SM 19/19 A2980 RMK 60146 SLP071 T01900190 57013 IEM_DS3505
ZBYN,1996-07-09 07:00,ZBYN 090700Z AUTO 00000KT 4SM 19/19 A2977 RMK T01900190 IEM_DS3505
ZBYN,1996-07-09 08:00,ZBYN 090800Z AUTO 00000KT 4SM 20/19 A2977 RMK T02000190 IEM_DS3505
ZBYN,1996-07-09 09:00,ZBYN 090900Z AUTO 32002KT 4SM 20/19 RMK SLP056 T02010192 57014 IEM_DS3505
ZBYN,1996-07-09 10:00,ZBYN 091000Z AUTO 00000KT 7SM 21/20 A2974 RMK T02100200 IEM_DS3505
ZBYN,1996-07-09 11:00,ZBYN 091100Z AUTO 07006KT 7SM 21/20 A2974 RMK T02100200 IEM_DS3505
ZBYN,1996-07-09 12:00,ZBYN 091200Z AUTO 00000KT 6SM 20/19 A2977 RMK 60004 SLP053 T02020194 57002 IEM_DS3505
ZBYN,1996-07-09 15:00,ZBYN 091500Z AUTO 00000KT 6SM 19/18 RMK SLP055 T01940180 54000 IEM_DS3505
ZBYN,1996-07-09 18:00,ZBYN 091800Z AUTO 34004KT 6SM 19/18 RMK SLP039 T01870179 57015 IEM_DS3505
ZBYN,1996-07-09 21:00,ZBYN 092100Z AUTO 00000KT 6SM 19/18 RMK 70157 SLP031 T01870178 57006 IEM_DS3505
ZBYN,1996-07-10 00:00,ZBYN 100000Z AUTO 34004KT 5SM 18/17 A2971 RMK 60012 70165 SLP043 T01750169 52010 IEM_DS3505
ZBYN,1996-07-10 01:00,ZBYN 100100Z AUTO 07004KT 1 1/2SM 17/17 A2974 RMK T01700170 IEM_DS3505
ZBYN,1996-07-10 03:00,ZBYN 100300Z AUTO 32002KT 5SM 17/17 A2974 RMK SLP057 T01680168 52010 IEM_DS3505
ZBYN,1996-07-10 04:00,ZBYN 100400Z AUTO 00000KT 7SM 17/17 A2977 RMK T01700170 IEM_DS3505
ZBYN,1996-07-10 05:00,ZBYN 100500Z AUTO 05008KT 7SM 17/17 A2974 RMK T01700170 IEM_DS3505
ZBYN,1996-07-10 06:00,ZBYN 100600Z AUTO 32004KT 5SM 17/17 A2974 RMK 60335 SLP058 T01710168 52001 IEM_DS3505
ZBYN,1996-07-10 07:00,ZBYN 100700Z AUTO 00000KT 7SM 18/17 A2974 RMK T01800170 IEM_DS3505
ZBYN,1996-07-10 08:00,ZBYN 100800Z AUTO 08004KT 7SM 18/17 A2974 RMK T01800170 IEM_DS3505
ZBYN,1996-07-10 09:00,ZBYN 100900Z AUTO 18002KT 6SM 18/16 A2974 RMK SLP060 T01750164 52002 IEM_DS3505
ZBYN,1996-07-10 10:00,ZBYN 101000Z AUTO 10006KT 7SM 17/16 A2977 RMK T01700160 IEM_DS3505
ZBYN,1996-07-10 11:00,ZBYN 101100Z AUTO 12006KT 7SM 16/15 A2977 RMK T01600150 IEM_DS3505
ZBYN,1996-07-10 12:00,ZBYN 101200Z AUTO 14006KT 5SM 16/15 A2980 RMK 60016 SLP078 T01550147 52012 IEM_DS3505
ZBYN,1996-07-10 13:00,ZBYN 101300Z AUTO 12006KT 7SM 15/15 A2980 RMK T01500150 IEM_DS3505
ZBYN,1996-07-10 14:00,ZBYN 101400Z AUTO 00000KT 7SM 15/14 A2980 RMK T01500140 IEM_DS3505
ZBYN,1996-07-10 15:00,ZBYN 101500Z AUTO 00000KT 5SM 15/15 A2980 RMK SLP082 T01490149 52002 IEM_DS3505
ZBYN,1996-07-10 16:00,ZBYN 101600Z AUTO 00000KT 7SM 15/15 A2980 RMK T01500150 IEM_DS3505
ZBYN,1996-07-10 17:00,ZBYN 101700Z AUTO 00000KT 7SM 15/15 A2980 RMK T01500150 IEM_DS3505
ZBYN,1996-07-10 18:00,ZBYN 101800Z AUTO 00000KT 5SM 15/15 A2977 RMK 60008 SLP076 T01490149 57005 IEM_DS3505
ZBYN,1996-07-10 19:00,ZBYN 101900Z AUTO 00000KT 7SM 15/15 A2977 RMK T01500150 IEM_DS3505
ZBYN,1996-07-10 20:00,ZBYN 102000Z AUTO 00000KT 7SM 15/15 A2977 RMK T01500150 IEM_DS3505
ZBYN,1996-07-10 21:00,ZBYN 102100Z AUTO 00000KT 5SM 15/15 A2977 RMK 70358 SLP072 T01520150 57003 IEM_DS3505
ZBYN,1996-07-10 22:00,ZBYN 102200Z AUTO 00000KT 2 1/2SM 15/15 A2977 RMK T01500150 IEM_DS3505
ZBYN,1996-07-10 23:00,ZBYN 102300Z AUTO 00000KT 2 1/2SM 16/16 RMK T01600160 IEM_DS3505
ZBYN,1996-07-11 00:00,ZBYN 110000Z AUTO 32002KT 5SM 16/15 RMK 60000 70358 SLP084 T01620154 52010 IEM_DS3505
ZBYN,1996-07-11 01:00,ZBYN 110100Z AUTO 00000KT 5SM 18/16 A2980 RMK T01800160 IEM_DS3505
ZBYN,1996-07-11 02:00,ZBYN 110200Z AUTO 09004KT 7SM 19/16 A2980 RMK T01900160 IEM_DS3505
ZBYN,1996-07-11 03:00,ZBYN 110300Z AUTO 32002KT 5SM 18/15 A2980 RMK SLP085 T01770152 52002 IEM_DS3505
ZBYN,1996-07-11 04:00,ZBYN 110400Z AUTO 35004KT 7SM 18/16 A2980 RMK T01800160 IEM_DS3505
ZBYN,1996-07-11 05:00,ZBYN 110500Z AUTO 31004KT 7SM 18/16 A2980 RMK T01800160 IEM_DS3505
ZBYN,1996-07-11 06:00,ZBYN 110600Z AUTO 11004KT 5SM 19/16 A2980 RMK 60002 SLP078 T01910165 57005 IEM_DS3505
ZBYN,1996-07-11 07:00,ZBYN 110700Z AUTO 31006KT 7SM 19/16 A2977 RMK T01900160 IEM_DS3505
ZBYN,1996-07-11 08:00,ZBYN 110800Z AUTO 00000KT 7SM 20/17 A2977 RMK T02000170 IEM_DS3505
ZBYN,1996-07-11 09:00,ZBYN 110900Z AUTO 22004KT 6SM 20/16 A2974 RMK SLP064 T01970162 57011 IEM_DS3505
ZBYN,1996-07-11 10:00,ZBYN 111000Z AUTO 12010KT 7SM 18/16 A2977 RMK T01800160 IEM_DS3505
ZBYN,1996-07-11 11:00,ZBYN 111100Z AUTO 09010KT 6SM 18/16 A2977 RMK T01800160 IEM_DS3505
ZBYN,1996-07-11 12:00,ZBYN 111200Z AUTO 09004KT 9SM 18/14 A2977 RMK 60001 SLP076 T01750140 52009 IEM_DS3505
ZBYN,1996-07-11 13:00,ZBYN 111300Z AUTO 09010KT 6SM 16/14 A2980 RMK T01600140 IEM_DS3505
ZBYN,1996-07-11 14:00,ZBYN 111400Z AUTO 09006KT 6SM 15/14 A2980 RMK T01500140 IEM_DS3505
ZBYN,1996-07-11 15:00,ZBYN 111500Z AUTO 34002KT 9SM 14/14 A2983 RMK SLP086 T01430138 52007 IEM_DS3505
ZBYN,1996-07-11 16:00,ZBYN 111600Z AUTO 09004KT 7SM 15/14 A2983 RMK T01500140 IEM_DS3505
ZBYN,1996-07-11 17:00,ZBYN 111700Z AUTO 00000KT 7SM 14/14 A2983 RMK T01400140 IEM_DS3505
ZBYN,1996-07-11 18:00,ZBYN 111800Z AUTO 36002KT 4SM 14/14 A2980 RMK SLP082 T01390139 57002 IEM_DS3505
ZBYN,1996-07-11 19:00,ZBYN 111900Z AUTO 00000KT 7SM 15/14 A2980 RMK T01500140 IEM_DS3505
ZBYN,1996-07-11 20:00,ZBYN 112000Z AUTO 00000KT 7SM 15/14 A2980 RMK T01500140 IEM_DS3505
ZBYN,1996-07-11 21:00,ZBYN 112100Z AUTO 00000KT 4SM 15/14 RMK 70004 SLP080 T01470145 54000 IEM_DS3505
ZBYN,1996-07-11 22:00,ZBYN 112200Z AUTO 00000KT 5SM 15/15 A2983 RMK T01500150 IEM_DS3505
ZBYN,1996-07-11 23:00,ZBYN 112300Z AUTO 00000KT 5SM 16/15 A2983 RMK T01600150 IEM_DS3505
ZBYN,1996-07-12 00:00,ZBYN 120000Z AUTO 32002KT 4SM 17/14 A2983 RMK 70004 SLP090 T01680145 52009 IEM_DS3505
ZBYN,1996-07-12 01:00,ZBYN 120100Z AUTO 00000KT 2 1/2SM 18/15 A2985 RMK T01800150 IEM_DS3505
ZBYN,1996-07-12 02:00,ZBYN 120200Z AUTO 00000KT 5SM 19/15 A2985 RMK T01900150 IEM_DS3505
ZBYN,1996-07-12 03:00,ZBYN 120300Z AUTO 00000KT 5SM 20/15 A2985 RMK SLP093 T02040154 52003 IEM_DS3505
ZBYN,1996-07-12 04:00,ZBYN 120400Z AUTO 22002KT 7SM 23/16 A2983 RMK T02300160 IEM_DS3505
ZBYN,1996-07-12 05:00,ZBYN 120500Z AUTO 00000KT 7SM 23/17 A2983 RMK T02300170 IEM_DS3505
ZBYN,1996-07-12 06:00,ZBYN 120600Z AUTO 14004KT 6SM 23/17 A2980 RMK SLP074 T02310172 57014 IEM_DS3505
ZBYN,1996-07-12 07:00,ZBYN 120700Z AUTO 24008KT 7SM 24/17 A2977 RMK T02400170 IEM_DS3505
ZBYN,1996-07-12 08:00,ZBYN 120800Z AUTO 26004KT 7SM 24/18 A2974 RMK T02400180 IEM_DS3505
ZBYN,1996-07-12 09:00,ZBYN 120900Z AUTO 20006KT 6SM 23/17 A2974 RMK SLP055 T02340167 57016 IEM_DS3505
ZBYN,1996-07-12 10:00,ZBYN 121000Z AUTO 25008KT 7SM 23/17 A2977 RMK T02300170 IEM_DS3505
ZBYN,1996-07-12 11:00,ZBYN 121100Z AUTO 06010KT 7SM 22/17 A2977 RMK T02200170 IEM_DS3505
ZBYN,1996-07-12 12:00,ZBYN 121200Z AUTO 09010KT 6SM 20/16 A2980 RMK SLP071 T02000162 52013 IEM_DS3505
ZBYN,1996-07-12 13:00,ZBYN 121300Z AUTO 06012KT 7SM 19/17 A2980 RMK T01900170 IEM_DS3505
ZBYN,1996-07-12 14:00,ZBYN 121400Z AUTO 00000KT 7SM 19/17 A2983 RMK T01900170 IEM_DS3505
ZBYN,1996-07-12 15:00,ZBYN 121500Z AUTO 32002KT 6SM 18/17 A2983 RMK SLP082 T01790173 52012 IEM_DS3505
ZBYN,1996-07-12 16:00,ZBYN 121600Z AUTO 08006KT 7SM 18/17 A2983 RMK T01800170 IEM_DS3505
ZBYN,1996-07-12 17:00,ZBYN 121700Z AUTO 00000KT 7SM 18/17 A2983 RMK T01800170 IEM_DS3505
ZBYN,1996-07-12 18:00,ZBYN 121800Z AUTO 02002KT 6SM 18/17 A2983 RMK 60004 SLP075 T01760170 57003 IEM_DS3505
ZBYN,1996-07-12 19:00,ZBYN 121900Z AUTO 09006KT 7SM 18/17 A2980 RMK T01800170 IEM_DS3505
ZBYN,1996-07-12 20:00,ZBYN 122000Z AUTO 00000KT 7SM 18/17 A2980 RMK T01800170 IEM_DS3505
ZBYN,1996-07-12 21:00,ZBYN 122100Z AUTO 32002KT 5SM 17/16 A2980 RMK 70004 SLP075 T01670162 57001 IEM_DS3505
ZBYN,1996-07-12 22:00,ZBYN 122200Z AUTO 00000KT 2 1/2SM 17/16 A2983 RMK T01700160 IEM_DS3505
ZBYN,1996-07-12 23:00,ZBYN 122300Z AUTO 06006KT 2SM 18/16 A2983 RMK T01800160 IEM_DS3505
ZBYN,1996-07-13 00:00,ZBYN 130000Z AUTO 00000KT 5SM 19/17 A2985 RMK 70004 SLP082 T01870173 52005 IEM_DS3505
ZBYN,1996-07-13 01:00,ZBYN 130100Z AUTO 08004KT 4SM 19/17 A2985 RMK T01900170 IEM_DS3505
ZBYN,1996-07-13 02:00,ZBYN 130200Z AUTO 10006KT 6SM 22/18 A2985 RMK T02200180 IEM_DS3505
ZBYN,1996-07-13 03:00,ZBYN 130300Z AUTO 36004KT 5SM 22/17 A2983 RMK SLP084 T02170168 52003 IEM_DS3505
ZBYN,1996-07-13 04:00,ZBYN 130400Z AUTO 06006KT 7SM 24/18 A2983 RMK T02400180 IEM_DS3505
ZBYN,1996-07-13 05:00,ZBYN 130500Z AUTO 09004KT 7SM 26/23 A2983 RMK T02600230 IEM_DS3505
ZBYN,1996-07-13 06:00,ZBYN 130600Z AUTO 32004KT 5SM 25/18 A2980 RMK SLP063 T02500181 57015 IEM_DS3505
ZBYN,1996-07-13 07:00,ZBYN 130700Z AUTO 12006KT 7SM 27/19 A2977 RMK T02700190 IEM_DS3505
ZBYN,1996-07-13 08:00,ZBYN 130800Z AUTO 11006KT 7SM 26/19 A2977 RMK T02600190 IEM_DS3505
ZBYN,1996-07-13 09:00,ZBYN 130900Z AUTO 11008KT 6SM 25/17 A2977 RMK SLP051 T02460172 57013 IEM_DS3505
ZBYN,1996-07-13 10:00,ZBYN 131000Z AUTO 09010KT 7SM 24/18 A2977 RMK T02400180 IEM_DS3505
ZBYN,1996-07-13 11:00,ZBYN 131100Z AUTO 08008KT 7SM 23/18 A2977 RMK T02300180 IEM_DS3505
ZBYN,1996-07-13 12:00,ZBYN 131200Z AUTO 09008KT 6SM 21/17 A2980 RMK SLP065 T02140167 52011 IEM_DS3505
ZBYN,1996-07-13 13:00,ZBYN 131300Z AUTO 11010KT 5SM 20/17 A2983 RMK T02000170 IEM_DS3505
ZBYN,1996-07-13 14:00,ZBYN 131400Z AUTO 06010KT 5SM 19/17 A2983 RMK T01900170 IEM_DS3505
ZBYN,1996-07-13 15:00,ZBYN 131500Z AUTO 00000KT 6SM 20/17 A2983 RMK SLP077 T01950166 52013 IEM_DS3505
ZBYN,1996-07-13 16:00,ZBYN 131600Z AUTO 06008KT 4SM 19/16 A2985 RMK T01900160 IEM_DS3505
ZBYN,1996-07-13 18:00,ZBYN 131800Z AUTO 00000KT 6SM 18/17 A2983 RMK SLP071 T01850167 57003 IEM_DS3505
ZBYN,1996-07-13 19:00,ZBYN 131900Z AUTO 00000KT 7SM 18/16 A2983 RMK T01800160 IEM_DS3505
ZBYN,1996-07-13 20:00,ZBYN 132000Z AUTO 00000KT 7SM 18/16 A2983 RMK T01800160 IEM_DS3505
ZBYN,1996-07-13 21:00,ZBYN 132100Z AUTO 00000KT 5SM 18/16 A2983 RMK SLP075 T01830162 52003 IEM_DS3505
ZBYN,1996-07-13 22:00,ZBYN 132200Z AUTO 07004KT 7SM 18/16 A2983 RMK T01800160 IEM_DS3505
ZBYN,1996-07-13 23:00,ZBYN 132300Z AUTO 02004KT 4SM 19/17 A2983 RMK T01900170 IEM_DS3505
ZBYN,1996-07-14 00:00,ZBYN 140000Z AUTO 34004KT 5SM 19/16 A2983 RMK SLP083 T01910162 52004 IEM_DS3505
ZBYN,1996-07-14 01:00,ZBYN 140100Z AUTO 09006KT 4SM 21/18 A2983 RMK T02100180 IEM_DS3505
ZBYN,1996-07-14 02:00,ZBYN 140200Z AUTO 07004KT 6SM 23/18 A2983 RMK T02300180 IEM_DS3505
ZBYN,1996-07-14 03:00,ZBYN 140300Z AUTO 32006KT 6SM 22/18 A2983 RMK SLP073 T02230175 57007 IEM_DS3505
ZBYN,1996-07-14 04:00,ZBYN 140400Z AUTO 00000KT 6SM 25/19 A2980 RMK T02500190 IEM_DS3505
ZBYN,1996-07-14 05:00,ZBYN 140500Z AUTO 03004KT 6SM 25/19 A2980 RMK T02500190 IEM_DS3505
ZBYN,1996-07-14 06:00,ZBYN 140600Z AUTO 32004KT 6SM 25/18 A2977 RMK SLP056 T02460185 57014 IEM_DS3505
ZBYN,1996-07-14 07:00,ZBYN 140700Z AUTO 09002KT 7SM 26/20 A2977 RMK T02600200 IEM_DS3505
ZBYN,1996-07-14 08:00,ZBYN 140800Z AUTO 08008KT 7SM 25/20 A2974 RMK T02500200 IEM_DS3505
ZBYN,1996-07-14 09:00,ZBYN 140900Z AUTO 14014KT 6SM 20/18 A2980 RMK SLP066 T02010178 52003 IEM_DS3505
ZBYN,1996-07-14 10:00,ZBYN 141000Z AUTO 11008KT 7SM 18/18 A2977 RMK T01800180 IEM_DS3505
ZBYN,1996-07-14 11:00,ZBYN 141100Z AUTO 02016KT 7SM 19/18 A2977 RMK T01900180 IEM_DS3505
ZBYN,1996-07-14 12:00,ZBYN 141200Z AUTO 00000KT 6SM 19/18 A2977 RMK 60020 SLP063 T01900177 57003 IEM_DS3505
ZBYN,1996-07-14 13:00,ZBYN 141300Z AUTO 31006KT 7SM 19/18 A2977 RMK T01900180 IEM_DS3505
ZBYN,1996-07-14 14:00,ZBYN 141400Z AUTO 02008KT 7SM 19/17 A2977 RMK T01900170 IEM_DS3505
ZBYN,1996-07-14 15:00,ZBYN 141500Z AUTO 32002KT 6SM 19/18 A2977 RMK SLP063 T01910175 52004 IEM_DS3505
ZBYN,1996-07-14 17:00,ZBYN 141700Z AUTO 00000KT 7SM 19/18 A2974 RMK T01900180 IEM_DS3505
ZBYN,1996-07-14 18:00,ZBYN 141800Z AUTO 32004KT 6SM 19/17 A2974 RMK SLP048 T01870170 57011 IEM_DS3505
ZBYN,1996-07-14 20:00,ZBYN 142000Z AUTO 02004KT 7SM 19/17 A2974 RMK T01900170 IEM_DS3505
ZBYN,1996-07-14 21:00,ZBYN 142100Z AUTO 32004KT 5SM 19/17 A2974 RMK 70020 SLP052 T01890172 57002 IEM_DS3505
ZBYN,1996-07-14 22:00,ZBYN 142200Z AUTO 26002KT 3SM 19/18 A2974 RMK T01900180 IEM_DS3505
ZBYN,1996-07-14 23:00,ZBYN 142300Z AUTO 27006KT 3SM 19/18 A2974 RMK T01900180 IEM_DS3505
ZBYN,1996-07-15 00:00,ZBYN 150000Z AUTO 36004KT 5SM 20/18 A2977 RMK 70020 SLP054 T02000177 52002 IEM_DS3505
ZBYN,1996-07-15 01:00,ZBYN 150100Z AUTO 00000KT 2 1/2SM 21/18 A2974 RMK T02100180 IEM_DS3505
ZBYN,1996-07-15 02:00,ZBYN 150200Z AUTO 00000KT 4SM 22/19 A2974 RMK T02200190 IEM_DS3505
ZBYN,1996-07-15 03:00,ZBYN 150300Z AUTO 04002KT 5SM 23/18 A2974 RMK SLP043 T02320181 57006 IEM_DS3505
ZBYN,1996-07-15 04:00,ZBYN 150400Z AUTO 33004KT 4SM 24/19 A2974 RMK T02400190 IEM_DS3505
ZBYN,1996-07-15 05:00,ZBYN 150500Z AUTO 00000KT 5SM 25/20 A2971 RMK T02500200 IEM_DS3505
ZBYN,1996-07-15 06:00,ZBYN 150600Z AUTO 11004KT 6SM 26/19 A2968 RMK SLP021 T02600186 57017 IEM_DS3505
ZBYN,1996-07-15 07:00,ZBYN 150700Z AUTO 00000KT 7SM 28/20 A2968 RMK T02800200 IEM_DS3505
ZBYN,1996-07-15 09:00,ZBYN 150900Z AUTO 18008KT 6SM 25/20 A2965 RMK SLP006 T02530197 57014 IEM_DS3505
ZBYN,1996-07-15 10:00,ZBYN 151000Z AUTO 21004KT 7SM 26/20 A2962 RMK T02600200 IEM_DS3505
ZBYN,1996-07-15 11:00,ZBYN 151100Z AUTO 00000KT 7SM 25/20 A2965 RMK T02500200 IEM_DS3505
ZBYN,1996-07-15 12:00,ZBYN 151200Z AUTO 00000KT 6SM 23/19 A2965 RMK SLP019 T02290188 52010 IEM_DS3505
ZBYN,1996-07-15 13:00,ZBYN 151300Z AUTO 08004KT 7SM 22/19 A2968 RMK T02200190 IEM_DS3505
ZBYN,1996-07-15 14:00,ZBYN 151400Z AUTO 00000KT 7SM 22/20 A2971 RMK T02200200 IEM_DS3505
ZBYN,1996-07-15 15:00,ZBYN 151500Z AUTO 32004KT 6SM 21/18 RMK SLP028 T02090176 52010 IEM_DS3505
ZBYN,1996-07-15 16:00,ZBYN 151600Z AUTO 00000KT 7SM 21/19 RMK T02100190 IEM_DS3505
ZBYN,1996-07-15 17:00,ZBYN 151700Z AUTO 00000KT 7SM 21/19 A2971 RMK T02100190 IEM_DS3505
ZBYN,1996-07-15 18:00,ZBYN 151800Z AUTO 16006KT 4SM 20/19 RMK 60000 SLP029 T01950187 52003 IEM_DS3505
ZBYN,1996-07-15 19:00,ZBYN 151900Z AUTO 00000KT 7SM 20/18 A2968 RMK T02000180 IEM_DS3505
ZBYN,1996-07-15 20:00,ZBYN 152000Z AUTO 00000KT 7SM 20/18 A2968 RMK T02000180 IEM_DS3505
ZBYN,1996-07-15 21:00,ZBYN 152100Z AUTO 00000KT 4SM 18/18 A2968 RMK 70000 SLP025 T01850180 57006 IEM_DS3505
ZBYN,1996-07-15 22:00,ZBYN 152200Z AUTO 00000KT 2SM 19/18 A2968 RMK T01900180 IEM_DS3505
ZBYN,1996-07-15 23:00,ZBYN 152300Z AUTO 00000KT 2SM 20/19 A2971 RMK T02000190 IEM_DS3505
ZBYN,1996-07-16 00:00,ZBYN 160000Z AUTO 00000KT 4SM 21/18 A2971 RMK SLP032 T02060181 52006 IEM_DS3505
ZBYN,1996-07-16 01:00,ZBYN 160100Z AUTO 00000KT 3SM 22/19 A2971 RMK T02200190 IEM_DS3505
ZBYN,1996-07-16 02:00,ZBYN 160200Z AUTO 00000KT 5SM 23/19 A2971 RMK T02300190 IEM_DS3505
ZBYN,1996-07-16 03:00,ZBYN 160300Z AUTO 16004KT 5SM 25/19 A2968 RMK SLP025 T02460190 57004 IEM_DS3505
ZBYN,1996-07-16 04:00,ZBYN 160400Z AUTO 22012KT 5SM 23/19 A2968 RMK T02280190 IEM_DS3505
ZBYN,1996-07-16 05:00,ZBYN 160500Z AUTO 23006KT 7SM 26/20 A2968 RMK T02600200 IEM_DS3505
ZBYN,1996-07-16 06:00,ZBYN 160600Z AUTO 22012KT 3SM 23/19 A2968 RMK SLP023 T02280190 57006 IEM_DS3505
ZBYN,1996-07-16 07:00,ZBYN 160700Z AUTO 21006KT 7SM 22/19 A2968 RMK T02200190 IEM_DS3505
ZBYN,1996-07-16 08:00,ZBYN 160800Z AUTO 12010KT 7SM 22/19 A2971 RMK T02200190 IEM_DS3505
ZBYN,1996-07-16 09:00,ZBYN 160900Z AUTO 00000KT 6SM 20/16 A2971 RMK SLP037 T02030165 52008 IEM_DS3505
ZBYN,1996-07-16 10:00,ZBYN 161000Z AUTO 00000KT 7SM 20/18 A2968 RMK T02000180 IEM_DS3505
ZBYN,1996-07-16 11:00,ZBYN 161100Z AUTO 20004KT 7SM 20/18 A2968 RMK T02000180 IEM_DS3505
ZBYN,1996-07-16 12:00,ZBYN 161200Z AUTO 32002KT 6SM 19/17 A2971 RMK SLP040 T01930169 52004 IEM_DS3505
ZBYN,1996-07-16 14:00,ZBYN 161400Z AUTO 00000KT 7SM 19/18 A2974 RMK T01900180 IEM_DS3505
ZBYN,1996-07-16 15:00,ZBYN 161500Z AUTO 32002KT 6SM 18/17 A2974 RMK SLP042 T01830172 52006 IEM_DS3505
ZBYN,1996-07-16 16:00,ZBYN 161600Z AUTO 00000KT 5SM 19/17 A2971 RMK T01900170 IEM_DS3505
ZBYN,1996-07-16 17:00,ZBYN 161700Z AUTO 00000KT 4SM 18/17 A2971 RMK T01800170 IEM_DS3505
ZBYN,1996-07-16 18:00,ZBYN 161800Z AUTO 00000KT 6SM 17/16 A2974 RMK SLP047 T01730165 52001 IEM_DS3505
ZBYN,1996-07-16 19:00,ZBYN 161900Z AUTO 00000KT 4SM 17/16 A2971 RMK T01700160 IEM_DS3505
ZBYN,1996-07-16 20:00,ZBYN 162000Z AUTO 00000KT 2 1/2SM 17/16 A2971 RMK T01700160 IEM_DS3505
ZBYN,1996-07-16 21:00,ZBYN 162100Z AUTO 34002KT 6SM 17/16 A2971 RMK SLP041 T01690158 57010 IEM_DS3505
ZBYN,1996-07-16 22:00,ZBYN 162200Z AUTO 00000KT 4SM 16/15 A2971 RMK T01600150 IEM_DS3505
ZBYN,1996-07-16 23:00,ZBYN 162300Z AUTO 00000KT 4SM 17/16 A2974 RMK T01700160 IEM_DS3505
ZBYN,1996-07-17 00:00,ZBYN 170000Z AUTO 00000KT 6SM 20/18 RMK SLP044 T01990176 52006 IEM_DS3505
ZBYN,1996-07-17 01:00,ZBYN 170100Z AUTO 00000KT 6SM 20/17 A2974 RMK T02000170 IEM_DS3505
ZBYN,1996-07-17 02:00,ZBYN 170200Z AUTO 00000KT 6SM 23/18 A2974 RMK T02300180 IEM_DS3505
ZBYN,1996-07-17 03:00,ZBYN 170300Z AUTO 11002KT 6SM 24/17 A2974 RMK SLP049 T02440173 52009 IEM_DS3505
ZBYN,1996-07-17 04:00,ZBYN 170400Z AUTO 10004KT 6SM 26/19 A2971 RMK T02600190 IEM_DS3505
ZBYN,1996-07-17 05:00,ZBYN 170500Z AUTO 00000KT 7SM 26/18 A2971 RMK T02600180 IEM_DS3505
ZBYN,1996-07-17 06:00,ZBYN 170600Z AUTO 22002KT 7SM 27/18 A2968 RMK SLP027 T02660176 57018 IEM_DS3505
ZBYN,1996-07-17 07:00,ZBYN 170700Z AUTO 00000KT 7SM 29/20 A2968 RMK T02900200 IEM_DS3505
ZBYN,1996-07-17 08:00,ZBYN 170800Z AUTO 36006KT 7SM 25/19 RMK T02500190 IEM_DS3505
ZBYN,1996-07-17 09:00,ZBYN 170900Z AUTO 14010KT 6SM 20/17 A2971 RMK SLP048 T02050169 52010 IEM_DS3505
ZBYN,1996-07-17 10:00,ZBYN 171000Z AUTO 03004KT 7SM 19/19 A2971 RMK T01900190 IEM_DS3505
ZBYN,1996-07-17 11:00,ZBYN 171100Z AUTO 00000KT 7SM 21/20 A2974 RMK T02100200 IEM_DS3505
ZBYN,1996-07-17 12:00,ZBYN 171200Z AUTO 02002KT 6SM 21/18 A2974 RMK SLP049 T02070182 52005 IEM_DS3505
ZBYN,1996-07-17 13:00,ZBYN 171300Z AUTO 00000KT 4SM 20/19 A2977 RMK T02000190 IEM_DS3505
ZBYN,1996-07-17 14:00,ZBYN 171400Z AUTO 00000KT 4SM 20/18 A2977 RMK T02000180 IEM_DS3505
ZBYN,1996-07-17 15:00,ZBYN 171500Z AUTO 34002KT 6SM 20/19 A2977 RMK SLP055 T01950186 52010 IEM_DS3505
ZBYN,1996-07-17 16:00,ZBYN 171600Z AUTO 00000KT 3SM 19/18 A2977 RMK T01900180 IEM_DS3505
ZBYN,1996-07-17 17:00,ZBYN 171700Z AUTO 00000KT 4SM 19/18 A2977 RMK T01900180 IEM_DS3505
ZBYN,1996-07-17 18:00,ZBYN 171800Z AUTO 00000KT 6SM 19/18 RMK SLP051 T01890180 57001 IEM_DS3505
ZBYN,1996-07-17 20:00,ZBYN 172000Z AUTO 00000KT 2 1/2SM 19/18 A2977 RMK T01900180 IEM_DS3505
ZBYN,1996-07-17 21:00,ZBYN 172100Z AUTO 00000KT 4SM 18/17 A2977 RMK SLP063 T01850174 52002 IEM_DS3505
ZBYN,1996-07-17 22:00,ZBYN 172200Z AUTO 00000KT 1 1/2SM 19/18 A2980 RMK T01900180 IEM_DS3505
ZBYN,1996-07-17 23:00,ZBYN 172300Z AUTO 00000KT 1 1/2SM 19/18 A2980 RMK T01900180 IEM_DS3505
ZBYN,1996-07-18 00:00,ZBYN 180000Z AUTO 02002KT 3SM 20/18 A2980 RMK SLP071 T01950181 52009 IEM_DS3505
ZBYN,1996-07-18 01:00,ZBYN 180100Z AUTO 02004KT 1 1/2SM 21/18 A2980 RMK T02100180 IEM_DS3505
ZBYN,1996-07-18 02:00,ZBYN 180200Z AUTO 28004KT 2SM 23/19 A2980 RMK T02300190 IEM_DS3505
ZBYN,1996-07-18 03:00,ZBYN 180300Z AUTO 16004KT 4SM 24/18 A2980 RMK SLP063 T02370180 57003 IEM_DS3505
ZBYN,1996-07-18 04:00,ZBYN 180400Z AUTO 00000KT 4SM 25/19 A2977 RMK T02500190 IEM_DS3505
ZBYN,1996-07-18 05:00,ZBYN 180500Z AUTO 30002KT 5SM 26/19 A2977 RMK T02600190 IEM_DS3505
ZBYN,1996-07-18 06:00,ZBYN 180600Z AUTO 20006KT 4SM 27/19 A2974 RMK SLP043 T02690186 57015 IEM_DS3505
ZBYN,1996-07-18 07:00,ZBYN 180700Z AUTO 20004KT 6SM 28/20 A2974 RMK T02800200 IEM_DS3505
ZBYN,1996-07-18 08:00,ZBYN 180800Z AUTO 17006KT 7SM 29/20 A2971 RMK T02900200 IEM_DS3505
ZBYN,1996-07-18 09:00,ZBYN 180900Z AUTO 11004KT 6SM 27/18 A2971 RMK SLP033 T02670181 57010 IEM_DS3505
ZBYN,1996-07-18 10:00,ZBYN 181000Z AUTO 20004KT 7SM 26/20 A2971 RMK T02600200 IEM_DS3505
ZBYN,1996-07-18 11:00,ZBYN 181100Z AUTO 09006KT 6SM 23/20 A2971 RMK T02300200 IEM_DS3505
ZBYN,1996-07-18 12:00,ZBYN 181200Z AUTO 14002KT 6SM 22/20 A2974 RMK SLP042 T02210197 52003 IEM_DS3505
ZBYN,1996-07-18 13:00,ZBYN 181300Z AUTO 11006KT 6SM 21/19 A2974 RMK T02100190 IEM_DS3505
ZBYN,1996-07-18 14:00,ZBYN 181400Z AUTO 10002KT 6SM 20/19 A2977 RMK T02000190 IEM_DS3505
ZBYN,1996-07-18 15:00,ZBYN 181500Z AUTO 00000KT 6SM 20/18 A2977 RMK SLP054 T01960180 52014 IEM_DS3505
ZBYN,1996-07-18 16:00,ZBYN 181600Z AUTO 09004KT 6SM 19/18 A2977 RMK T01900180 IEM_DS3505
ZBYN,1996-07-18 17:00,ZBYN 181700Z AUTO 09006KT 7SM 19/18 A2977 RMK T01900180 IEM_DS3505
ZBYN,1996-07-18 18:00,ZBYN 181800Z AUTO 00000KT 6SM 18/18 RMK SLP051 T01850176 54000 IEM_DS3505
ZBYN,1996-07-18 20:00,ZBYN 182000Z AUTO 00000KT 6SM 18/18 A2977 RMK T01800180 IEM_DS3505
ZBYN,1996-07-18 21:00,ZBYN 182100Z AUTO 34002KT 5SM 18/18 A2977 RMK SLP050 T01850176 57001 IEM_DS3505
ZBYN,1996-07-18 22:00,ZBYN 182200Z AUTO 00000KT 2SM 18/17 A2980 RMK T01800170 IEM_DS3505
ZBYN,1996-07-19 00:00,ZBYN 190000Z AUTO 11004KT 4SM 20/19 A2980 RMK SLP067 T01980186 52011 IEM_DS3505
ZBYN,1996-07-19 02:00,ZBYN 190200Z AUTO 00000KT 5SM 24/19 A2980 RMK T02400190 IEM_DS3505
ZBYN,1996-07-19 03:00,ZBYN 190300Z AUTO 09006KT 6SM 25/20 A2977 RMK SLP057 T02510202 57006 IEM_DS3505
ZBYN,1996-07-19 04:00,ZBYN 190400Z AUTO 18004KT 5SM 27/21 A2977 RMK T02700210 IEM_DS3505
ZBYN,1996-07-19 05:00,ZBYN 190500Z AUTO 16008KT 7SM 28/20 A2974 RMK T02800200 IEM_DS3505
ZBYN,1996-07-19 06:00,ZBYN 190600Z AUTO 16006KT 5SM 28/20 A2971 RMK SLP031 T02810199 57021 IEM_DS3505
ZBYN,1996-07-19 07:00,ZBYN 190700Z AUTO 18004KT 7SM 30/19 A2968 RMK T03000190 IEM_DS3505
ZBYN,1996-07-19 09:00,ZBYN 190900Z AUTO 16004KT 6SM 29/20 A2965 RMK SLP013 T02920195 57015 IEM_DS3505
ZBYN,1996-07-19 10:00,ZBYN 191000Z AUTO 00000KT 7SM 27/21 A2965 RMK T02700210 IEM_DS3505
ZBYN,1996-07-19 11:00,ZBYN 191100Z AUTO 00000KT 7SM 27/20 A2968 RMK T02700200 IEM_DS3505
ZBYN,1996-07-19 12:00,ZBYN 191200Z AUTO 22002KT 6SM 24/21 A2968 RMK SLP022 T02410209 52003 IEM_DS3505
ZBYN,1996-07-19 13:00,ZBYN 191300Z AUTO 09004KT 7SM 24/19 A2971 RMK T02400190 IEM_DS3505
ZBYN,1996-07-19 14:00,ZBYN 191400Z AUTO 12004KT 7SM 24/19 A2974 RMK T02400190 IEM_DS3505
ZBYN,1996-07-19 15:00,ZBYN 191500Z AUTO 00000KT 6SM 22/21 A2971 RMK SLP028 T02240209 52011 IEM_DS3505
ZBYN,1996-07-19 16:00,ZBYN 191600Z AUTO 14006KT 7SM 23/20 A2971 RMK T02300200 IEM_DS3505
ZBYN,1996-07-19 17:00,ZBYN 191700Z AUTO 14004KT 7SM 23/19 A2974 RMK T02300190 IEM_DS3505
ZBYN,1996-07-19 18:00,ZBYN 191800Z AUTO 32002KT 6SM 21/20 A2971 RMK SLP029 T02090203 52003 IEM_DS3505
ZBYN,1996-07-19 19:00,ZBYN 191900Z AUTO 12006KT 7SM 22/19 A2971 RMK T02200190 IEM_DS3505
ZBYN,1996-07-19 20:00,ZBYN 192000Z AUTO 10002KT 6SM 22/19 A2971 RMK T02200190 IEM_DS3505
ZBYN,1996-07-19 21:00,ZBYN 192100Z AUTO 00000KT 2 1/2SM 20/20 A2971 RMK SLP026 T02020197 57003 IEM_DS3505
ZBYN,1996-07-19 22:00,ZBYN 192200Z AUTO 00000KT 4SM 20/20 A2971 RMK T02000200 IEM_DS3505
ZBYN,1996-07-19 23:00,ZBYN 192300Z AUTO 00000KT 1 1/4SM 21/19 A2974 RMK T02100190 IEM_DS3505
ZBYN,1996-07-20 00:00,ZBYN 200000Z AUTO 34004KT 4SM 22/19 A2974 RMK SLP042 T02190190 52010 IEM_DS3505
ZBYN,1996-07-20 01:00,ZBYN 200100Z AUTO 36012KT 7SM 23/18 A2977 RMK T02300180 IEM_DS3505
ZBYN,1996-07-20 02:00,ZBYN 200200Z AUTO 08002KT 7SM 23/20 A2977 RMK T02300200 IEM_DS3505
ZBYN,1996-07-20 03:00,ZBYN 200300Z AUTO 34006KT 4SM 22/18 A2977 RMK SLP060 T02170175 52014 IEM_DS3505
ZBYN,1996-07-20 04:00,ZBYN 200400Z AUTO 02004KT 7SM 22/18 A2977 RMK T02200180 IEM_DS3505
ZBYN,1996-07-20 05:00,ZBYN 200500Z AUTO 32004KT 7SM 25/20 A2974 RMK T02500200 IEM_DS3505
ZBYN,1996-07-20 06:00,ZBYN 200600Z AUTO 32004KT 7SM 23/20 A2971 RMK 60004 SLP039 T02330196 57019 IEM_DS3505
ZBYN,1996-07-20 07:00,ZBYN 200700Z AUTO 33004KT 7SM 25/18 A2971 RMK T02500180 IEM_DS3505
ZBYN,1996-07-20 09:00,ZBYN 200900Z AUTO 32004KT 7SM 23/19 A2971 RMK SLP037 T02270189 57003 IEM_DS3505
ZBYN,1996-07-20 10:00,ZBYN 201000Z AUTO 32006KT 7SM 24/18 A2968 RMK T02400180 IEM_DS3505
ZBYN,1996-07-20 11:00,ZBYN 201100Z AUTO 00000KT 5SM 23/20 A2971 RMK T02300200 IEM_DS3505
ZBYN,1996-07-20 12:00,ZBYN 201200Z AUTO 01004KT 5SM 23/19 A2971 RMK T02300190 IEM_DS3505
ZBYN,1996-07-20 13:00,ZBYN 201300Z AUTO 35004KT 5SM 22/20 A2974 RMK T02200200 IEM_DS3505
ZBYN,1996-07-20 14:00,ZBYN 201400Z AUTO 00000KT 5SM 21/20 A2977 RMK T02100200 IEM_DS3505
ZBYN,1996-07-20 15:00,ZBYN 201500Z AUTO 34006KT 6SM 21/19 A2977 RMK SLP048 T02130187 52015 IEM_DS3505
ZBYN,1996-07-20 16:00,ZBYN 201600Z AUTO 06004KT 4SM 20/18 A2977 RMK T02000180 IEM_DS3505
ZBYN,1996-07-20 17:00,ZBYN 201700Z AUTO 00000KT 4SM 21/19 A2977 RMK T02100190 IEM_DS3505
ZBYN,1996-07-20 18:00,ZBYN 201800Z AUTO 34004KT 6SM 20/19 A2977 RMK SLP047 T02050188 54000 IEM_DS3505
ZBYN,1996-07-20 19:00,ZBYN 201900Z AUTO 00000KT 4SM 21/18 A2977 RMK T02100180 IEM_DS3505
ZBYN,1996-07-20 20:00,ZBYN 202000Z AUTO 00000KT 3SM 21/19 A2977 RMK T02100190 IEM_DS3505
ZBYN,1996-07-20 21:00,ZBYN 202100Z AUTO 34002KT 6SM 20/18 A2977 RMK 70004 SLP054 T02010184 52005 IEM_DS3505
ZBYN,1996-07-20 22:00,ZBYN 202200Z AUTO 00000KT 3SM 21/19 A2977 RMK T02100190 IEM_DS3505
ZBYN,1996-07-20 23:00,ZBYN 202300Z AUTO 00000KT 5SM 21/18 A2977 RMK T02100180 IEM_DS3505
ZBYN,1996-07-21 00:00,ZBYN 210000Z AUTO 34004KT 6SM 22/18 A2980 RMK 70004 SLP058 T02190182 52005 IEM_DS3505
ZBYN,1996-07-21 01:00,ZBYN 210100Z AUTO 31004KT 7SM 24/19 A2980 RMK T02400190 IEM_DS3505
ZBYN,1996-07-21 02:00,ZBYN 210200Z AUTO 36004KT 7SM 26/19 A2977 RMK T02600190 IEM_DS3505
ZBYN,1996-07-21 03:00,ZBYN 210300Z AUTO 34004KT 6SM 27/19 A2977 RMK SLP046 T02660188 57005 IEM_DS3505
ZBYN,1996-07-21 04:00,ZBYN 210400Z AUTO 16004KT 7SM 29/21 A2977 RMK T02900210 IEM_DS3505
ZBYN,1996-07-21 05:00,ZBYN 210500Z AUTO 00000KT 7SM 29/20 A2974 RMK T02900200 IEM_DS3505
ZBYN,1996-07-21 06:00,ZBYN 210600Z AUTO 11006KT 5SM 29/20 A2971 RMK SLP026 T02900199 57016 IEM_DS3505
ZBYN,1996-07-21 07:00,ZBYN 210700Z AUTO 17006KT 7SM 31/21 A2971 RMK T03100210 IEM_DS3505
ZBYN,1996-07-21 08:00,ZBYN 210800Z AUTO 20004KT 7SM 31/20 A2971 RMK T03100200 IEM_DS3505
ZBYN,1996-07-21 09:00,ZBYN 210900Z AUTO 20006KT 6SM 29/20 A2968 RMK SLP017 T02920195 57009 IEM_DS3505
ZBYN,1996-07-21 10:00,ZBYN 211000Z AUTO 24004KT 7SM 30/19 A2968 RMK T03000190 IEM_DS3505
ZBYN,1996-07-21 11:00,ZBYN 211100Z AUTO 26006KT 6SM 29/20 A2968 RMK T02900200 IEM_DS3505
ZBYN,1996-07-21 12:00,ZBYN 211200Z AUTO 00000KT 6SM 26/22 A2971 RMK SLP025 T02550222 52005 IEM_DS3505
ZBYN,1996-07-21 13:00,ZBYN 211300Z AUTO 09004KT 6SM 25/22 A2971 RMK T02500220 IEM_DS3505
ZBYN,1996-07-21 14:00,ZBYN 211400Z AUTO 09006KT 7SM 24/21 A2974 RMK T02400210 IEM_DS3505
ZBYN,1996-07-21 15:00,ZBYN 211500Z AUTO 32004KT 6SM 23/19 A2971 RMK SLP031 T02270194 52008 IEM_DS3505
ZBYN,1996-07-21 16:00,ZBYN 211600Z AUTO 18008KT 7SM 23/20 A2974 RMK T02300200 IEM_DS3505
ZBYN,1996-07-21 17:00,ZBYN 211700Z AUTO 10004KT 7SM 22/20 A2974 RMK T02200200 IEM_DS3505
ZBYN,1996-07-21 18:00,ZBYN 211800Z AUTO 32002KT 6SM 21/18 A2974 RMK SLP033 T02060184 52002 IEM_DS3505
ZBYN,1996-07-21 21:00,ZBYN 212100Z AUTO 04002KT 6SM 18/17 A2974 RMK SLP037 T01850174 52001 IEM_DS3505
ZBYN,1996-07-21 22:00,ZBYN 212200Z AUTO 00000KT 2 1/2SM 20/19 A2977 RMK T02000190 IEM_DS3505
ZBYN,1996-07-21 23:00,ZBYN 212300Z AUTO 00000KT 3SM 20/19 A2977 RMK T02000190 IEM_DS3505
ZBYN,1996-07-22 00:00,ZBYN 220000Z AUTO 07002KT 5SM 22/20 A2980 RMK SLP051 T02210199 52013 IEM_DS3505
ZBYN,1996-07-22 01:00,ZBYN 220100Z AUTO 14004KT 4SM 24/21 A2977 RMK T02400210 IEM_DS3505
ZBYN,1996-07-22 02:00,ZBYN 220200Z AUTO 17006KT 4SM 26/21 A2977 RMK T02600210 IEM_DS3505
ZBYN,1996-07-22 03:00,ZBYN 220300Z AUTO 11004KT 6SM 27/22 A2977 RMK SLP045 T02680216 57003 IEM_DS3505
ZBYN,1996-07-22 04:00,ZBYN 220400Z AUTO 18008KT 5SM 29/22 A2974 RMK T02900220 IEM_DS3505
ZBYN,1996-07-22 05:00,ZBYN 220500Z AUTO 21004KT 5SM 30/23 A2974 RMK T03000230 IEM_DS3505
ZBYN,1996-07-22 06:00,ZBYN 220600Z AUTO 18006KT 6SM 30/22 A2971 RMK SLP025 T02970215 57017 IEM_DS3505
ZBYN,1996-07-22 07:00,ZBYN 220700Z AUTO 19004KT 6SM 30/23 A2968 RMK T03000230 IEM_DS3505
ZBYN,1996-07-22 08:00,ZBYN 220800Z AUTO 19004KT 6SM 30/23 A2968 RMK T03000230 IEM_DS3505
ZBYN,1996-07-22 09:00,ZBYN 220900Z AUTO 16004KT 9SM 30/ A2968 RMK SLP013 57014 IEM_DS3505
ZBYN,1996-07-22 10:00,ZBYN 221000Z AUTO 00000KT 6SM 27/20 A2965 RMK T02700200 IEM_DS3505
ZBYN,1996-07-22 11:00,ZBYN 221100Z AUTO 00000KT 6SM 26/19 A2968 RMK T02600190 IEM_DS3505
ZBYN,1996-07-22 12:00,ZBYN 221200Z AUTO 00000KT 6SM 25/24 A2968 RMK SLP014 T02520237 54000 IEM_DS3505
ZBYN,1996-07-22 13:00,ZBYN 221300Z AUTO 09004KT 6SM 24/21 A2968 RMK T02400210 IEM_DS3505
ZBYN,1996-07-22 14:00,ZBYN 221400Z AUTO 00000KT 6SM 23/19 A2968 RMK T02300190 IEM_DS3505
ZBYN,1996-07-22 15:00,ZBYN 221500Z AUTO 00000KT 6SM 22/19 A2971 RMK SLP020 T02240192 52008 IEM_DS3505
ZBYN,1996-07-22 17:00,ZBYN 221700Z AUTO 00000KT 6SM 22/19 A2968 RMK T02200190 IEM_DS3505
ZBYN,1996-07-22 18:00,ZBYN 221800Z AUTO 00000KT 6SM 22/19 A2968 RMK SLP010 T02180191 57006 IEM_DS3505
ZBYN,1996-07-22 19:00,ZBYN 221900Z AUTO 00000KT 6SM 21/19 A2968 RMK T02100190 IEM_DS3505
ZBYN,1996-07-22 20:00,ZBYN 222000Z AUTO 00000KT 6SM 21/20 A2968 RMK T02100200 IEM_DS3505
ZBYN,1996-07-22 21:00,ZBYN 222100Z AUTO 32004KT 6SM 20/18 A2968 RMK SLP015 T01950181 52002 IEM_DS3505
ZBYN,1996-07-22 22:00,ZBYN 222200Z AUTO 00000KT 6SM 22/19 A2968 RMK T02200190 IEM_DS3505
ZBYN,1996-07-22 23:00,ZBYN 222300Z AUTO 00000KT 2 1/2SM 21/19 A2971 RMK T02100190 IEM_DS3505
ZBYN,1996-07-23 00:00,ZBYN 230000Z AUTO 00000KT 6SM 22/19 A2971 RMK SLP025 T02230194 52006 IEM_DS3505
ZBYN,1996-07-23 01:00,ZBYN 230100Z AUTO 17004KT 2 1/2SM 25/21 A2971 RMK T02500210 IEM_DS3505
ZBYN,1996-07-23 02:00,ZBYN 230200Z AUTO 16006KT 2 1/2SM 27/22 A2968 RMK T02700220 IEM_DS3505
ZBYN,1996-07-23 03:00,ZBYN 230300Z AUTO 14006KT 5SM 28/22 A2968 RMK SLP014 T02770218 57007 IEM_DS3505
ZBYN,1996-07-23 04:00,ZBYN 230400Z AUTO 18008KT 2 1/2SM 30/23 A2965 RMK T03000230 IEM_DS3505
ZBYN,1996-07-23 05:00,ZBYN 230500Z AUTO 18006KT 6SM 31/23 A2962 RMK T03100230 IEM_DS3505
ZBYN,1996-07-23 06:00,ZBYN 230600Z AUTO 16008KT 5SM 30/22 A2962 RMK SLP987 T03030222 57022 IEM_DS3505
ZBYN,1996-07-23 07:00,ZBYN 230700Z AUTO 18008KT 7SM 33/23 A2959 RMK T03300230 IEM_DS3505
ZBYN,1996-07-23 08:00,ZBYN 230800Z AUTO 18008KT 7SM 33/22 A2956 RMK T03300220 IEM_DS3505
ZBYN,1996-07-23 09:00,ZBYN 230900Z AUTO 16008KT 5SM 31/21 A2956 RMK SLP970 T03080214 57018 IEM_DS3505
ZBYN,1996-07-23 10:00,ZBYN 231000Z AUTO 19004KT 7SM 30/22 A2953 RMK T03000220 IEM_DS3505
ZBYN,1996-07-23 11:00,ZBYN 231100Z AUTO 19010KT 6SM 29/22 A2953 RMK T02900220 IEM_DS3505
ZBYN,1996-07-23 12:00,ZBYN 231200Z AUTO 14008KT 6SM 27/23 A2959 RMK SLP978 T02730229 52007 IEM_DS3505
ZBYN,1996-07-23 13:00,ZBYN 231300Z AUTO 15006KT 4SM 26/21 A2959 RMK T02600210 IEM_DS3505
ZBYN,1996-07-23 14:00,ZBYN 231400Z AUTO 15006KT 7SM 24/21 A2956 RMK T02400210 IEM_DS3505
ZBYN,1996-07-23 15:00,ZBYN 231500Z AUTO 14006KT 6SM 24/20 A2959 RMK SLP983 T02370200 52007 IEM_DS3505
ZBYN,1996-07-23 16:00,ZBYN 231600Z AUTO 00000KT 6SM 24/20 A2959 RMK T02400200 IEM_DS3505
ZBYN,1996-07-23 17:00,ZBYN 231700Z AUTO 00000KT 6SM 23/21 A2959 RMK T02300210 IEM_DS3505
ZBYN,1996-07-23 18:00,ZBYN 231800Z AUTO 11006KT 6SM 22/21 A2956 RMK SLP967 T02230207 57013 IEM_DS3505
ZBYN,1996-07-23 19:00,ZBYN 231900Z AUTO 00000KT 7SM 23/21 A2959 RMK T02300210 IEM_DS3505
ZBYN,1996-07-23 20:00,ZBYN 232000Z AUTO 00000KT 7SM 23/21 A2959 RMK T02300210 IEM_DS3505
ZBYN,1996-07-23 21:00,ZBYN 232100Z AUTO 34004KT 6SM 21/20 A2962 RMK SLP984 T02130204 52015 IEM_DS3505
ZBYN,1996-07-23 22:00,ZBYN 232200Z AUTO 00000KT 6SM 22/21 A2962 RMK T02200210 IEM_DS3505
ZBYN,1996-07-23 23:00,ZBYN 232300Z AUTO 00000KT 6SM 23/22 A2962 RMK T02300220 IEM_DS3505
ZBYN,1996-07-24 00:00,ZBYN 240000Z AUTO 00000KT 6SM 25/22 A2962 RMK T02500220 IEM_DS3505
ZBYN,1996-07-24 01:00,ZBYN 240100Z AUTO 11004KT 6SM 26/22 A2962 RMK T02600220 IEM_DS3505
ZBYN,1996-07-24 02:00,ZBYN 240200Z AUTO 00000KT 6SM 28/23 A2962 RMK T02800230 IEM_DS3505
ZBYN,1996-07-24 03:00,ZBYN 240300Z AUTO 32004KT 5SM 27/23 A2962 RMK SLP994 T02710231 57001 IEM_DS3505
ZBYN,1996-07-24 04:00,ZBYN 240400Z AUTO 11004KT 4SM 29/22 A2962 RMK T02900220 IEM_DS3505
ZBYN,1996-07-24 05:00,ZBYN 240500Z AUTO 32010KT 1 1/2SM 27/23 A2962 RMK T02700230 IEM_DS3505
ZBYN,1996-07-24 06:00,ZBYN 240600Z AUTO 36004KT 4SM 21/20 RMK 60012 SLP026 T02090198 52019 IEM_DS3505
ZBYN,1996-07-24 07:00,ZBYN 240700Z AUTO 29010KT 7SM 23/21 A2965 RMK T02300210 IEM_DS3505
ZBYN,1996-07-24 08:00,ZBYN 240800Z AUTO 32004KT 7SM 22/21 A2971 RMK T02200210 IEM_DS3505
ZBYN,1996-07-24 09:00,ZBYN 240900Z AUTO 22008KT 6SM 22/22 A2965 RMK SLP017 T02230217 57008 IEM_DS3505
ZBYN,1996-07-24 10:00,ZBYN 241000Z AUTO 23004KT 7SM 23/22 A2965 RMK T02300220 IEM_DS3505
ZBYN,1996-07-24 11:00,ZBYN 241100Z AUTO 25002KT 7SM 23/21 A2968 RMK T02300210 IEM_DS3505
ZBYN,1996-07-24 12:00,ZBYN 241200Z AUTO 00000KT 6SM 22/21 A2968 RMK 60051 SLP019 T02150209 52006 IEM_DS3505
ZBYN,1996-07-24 13:00,ZBYN 241300Z AUTO 00000KT 4SM 21/21 A2971 RMK T02100210 IEM_DS3505
ZBYN,1996-07-24 14:00,ZBYN 241400Z AUTO 00000KT 2SM 21/20 A2971 RMK T02100200 IEM_DS3505
ZBYN,1996-07-24 15:00,ZBYN 241500Z AUTO 00000KT 5SM 19/19 A2971 RMK SLP031 T01940191 52011 IEM_DS3505
ZBYN,1996-07-24 16:00,ZBYN 241600Z AUTO 21002KT 2SM 20/20 A2971 RMK T02000200 IEM_DS3505
ZBYN,1996-07-24 17:00,ZBYN 241700Z AUTO 12002KT 2SM 20/19 A2971 RMK T02000190 IEM_DS3505
ZBYN,1996-07-24 18:00,ZBYN 241800Z AUTO 00000KT 4SM 20/19 A2971 RMK SLP041 T01950192 52001 IEM_DS3505
ZBYN,1996-07-24 19:00,ZBYN 241900Z AUTO 00000KT 3SM 19/19 A2971 RMK T01900190 IEM_DS3505
ZBYN,1996-07-24 20:00,ZBYN 242000Z AUTO 08004KT 3SM 19/19 A2971 RMK T01900190 IEM_DS3505
ZBYN,1996-07-24 21:00,ZBYN 242100Z AUTO 00000KT 3/8SM 19/19 A2971 RMK 70063 SLP040 T01870187 54000 IEM_DS3505
ZBYN,1996-07-24 22:00,ZBYN 242200Z AUTO 33002KT 2 1/2SM 19/19 A2971 RMK T01900190 IEM_DS3505
ZBYN,1996-07-24 23:00,ZBYN 242300Z AUTO 00000KT 1SM 20/20 A2974 RMK T02000200 IEM_DS3505
ZBYN,1996-07-25 00:00,ZBYN 250000Z AUTO 32002KT 2SM 20/20 A2974 RMK 70063 SLP045 T02030202 52005 IEM_DS3505
ZBYN,1996-07-25 01:00,ZBYN 250100Z AUTO 30004KT 1 1/2SM 22/20 A2974 RMK T02200200 IEM_DS3505
ZBYN,1996-07-25 02:00,ZBYN 250200Z AUTO 20004KT 2 1/2SM 25/21 A2974 RMK T02500210 IEM_DS3505
ZBYN,1996-07-25 03:00,ZBYN 250300Z AUTO 20002KT 5SM 26/21 A2974 RMK SLP039 T02600207 54000 IEM_DS3505
ZBYN,1996-07-25 04:00,ZBYN 250400Z AUTO 00000KT 5SM 27/22 A2974 RMK T02700220 IEM_DS3505
ZBYN,1996-07-25 05:00,ZBYN 250500Z AUTO 00000KT 5SM 29/23 A2974 RMK T02900230 IEM_DS3505
ZBYN,1996-07-25 06:00,ZBYN 250600Z AUTO 14002KT 6SM 28/22 A2971 RMK SLP022 T02780224 57013 IEM_DS3505
ZBYN,1996-07-25 07:00,ZBYN 250700Z AUTO 00000KT 6SM 31/23 A2968 RMK T03100230 IEM_DS3505
ZBYN,1996-07-25 08:00,ZBYN 250800Z AUTO 00000KT 6SM 31/22 A2965 RMK T03100220 IEM_DS3505
ZBYN,1996-07-25 09:00,ZBYN 250900Z AUTO 16004KT 6SM 30/21 A2965 RMK SLP007 T03050208 57011 IEM_DS3505
ZBYN,1996-07-25 10:00,ZBYN 251000Z AUTO 00000KT 6SM 29/23 A2968 RMK T02900230 IEM_DS3505
ZBYN,1996-07-25 11:00,ZBYN 251100Z AUTO 00000KT 6SM 27/21 A2968 RMK T02700210 IEM_DS3505
ZBYN,1996-07-25 12:00,ZBYN 251200Z AUTO 34002KT 6SM 27/22 A2971 RMK SLP021 T02720225 52010 IEM_DS3505
ZBYN,1996-07-25 13:00,ZBYN 251300Z AUTO 06010KT 7SM 24/21 A2974 RMK T02400210 IEM_DS3505
ZBYN,1996-07-25 14:00,ZBYN 251400Z AUTO 06006KT 7SM 23/21 A2974 RMK T02300210 IEM_DS3505
ZBYN,1996-07-25 15:00,ZBYN 251500Z AUTO 34004KT 5SM 23/22 A2977 RMK SLP041 T02340222 52021 IEM_DS3505
ZBYN,1996-07-25 16:00,ZBYN 251600Z AUTO 00000KT 7SM 24/22 A2974 RMK T02400220 IEM_DS3505
ZBYN,1996-07-25 17:00,ZBYN 251700Z AUTO 00000KT 7SM 23/21 A2974 RMK T02300210 IEM_DS3505
ZBYN,1996-07-25 18:00,ZBYN 251800Z AUTO 32004KT 4SM 22/21 A2974 RMK 60016 SLP034 T02190207 57006 IEM_DS3505
ZBYN,1996-07-25 19:00,ZBYN 251900Z AUTO 00000KT 7SM 22/21 A2974 RMK T02200210 IEM_DS3505
ZBYN,1996-07-25 20:00,ZBYN 252000Z AUTO 22004KT 7SM 22/21 A2974 RMK T02200210 IEM_DS3505
ZBYN,1996-07-25 21:00,ZBYN 252100Z AUTO 00000KT 5SM 22/20 A2974 RMK 70016 SLP032 T02150203 52001 IEM_DS3505
ZBYN,1996-07-25 22:00,ZBYN 252200Z AUTO 00000KT 2SM 22/21 A2977 RMK T02200210 IEM_DS3505
ZBYN,1996-07-25 23:00,ZBYN 252300Z AUTO 00000KT 2SM 22/21 A2977 RMK T02200210 IEM_DS3505
ZBYN,1996-07-26 00:00,ZBYN 260000Z AUTO 34004KT 4SM 22/21 A2980 RMK 70016 SLP053 T02240206 52016 IEM_DS3505
ZBYN,1996-07-26 01:00,ZBYN 260100Z AUTO 00000KT 2 1/2SM 24/21 A2980 RMK T02400210 IEM_DS3505
ZBYN,1996-07-26 02:00,ZBYN 260200Z AUTO 33004KT 2 1/2SM 25/22 A2980 RMK T02500220 IEM_DS3505
ZBYN,1996-07-26 03:00,ZBYN 260300Z AUTO 32004KT 5SM 24/22 A2980 RMK SLP057 T02420219 52001 IEM_DS3505
ZBYN,1996-07-26 04:00,ZBYN 260400Z AUTO 11004KT 4SM 27/23 A2980 RMK T02700230 IEM_DS3505
ZBYN,1996-07-26 05:00,ZBYN 260500Z AUTO 07008KT 4SM 27/23 A2980 RMK T02700230 IEM_DS3505
ZBYN,1996-07-26 06:00,ZBYN 260600Z AUTO 00000KT 6SM 28/22 A2977 RMK SLP045 T02750219 57008 IEM_DS3505
ZBYN,1996-07-26 07:00,ZBYN 260700Z AUTO 14006KT 5SM 28/22 A2974 RMK T02800220 IEM_DS3505
ZBYN,1996-07-26 08:00,ZBYN 260800Z AUTO 18006KT 5SM 28/23 A2974 RMK T02800230 IEM_DS3505
ZBYN,1996-07-26 09:00,ZBYN 260900Z AUTO 32002KT 5SM 26/23 A2974 RMK SLP038 T02620228 57009 IEM_DS3505
ZBYN,1996-07-26 10:00,ZBYN 261000Z AUTO 00000KT 5SM 26/23 A2974 RMK T02600230 IEM_DS3505
ZBYN,1996-07-26 11:00,ZBYN 261100Z AUTO 00000KT 5SM 25/23 A2971 RMK T02500230 IEM_DS3505
ZBYN,1996-07-26 12:00,ZBYN 261200Z AUTO 00000KT 5SM 25/23 A2974 RMK 60000 SLP034 T02470234 57004 IEM_DS3505
ZBYN,1996-07-26 13:00,ZBYN 261300Z AUTO 00000KT 2 1/2SM 24/23 A2977 RMK T02400230 IEM_DS3505
ZBYN,1996-07-26 14:00,ZBYN 261400Z AUTO 11004KT 2 1/2SM 24/23 A2980 RMK T02400230 IEM_DS3505
ZBYN,1996-07-26 15:00,ZBYN 261500Z AUTO 16002KT 5SM 23/22 A2980 RMK SLP053 T02340224 52018 IEM_DS3505
ZBYN,1996-07-26 16:00,ZBYN 261600Z AUTO 11004KT 2SM 24/23 A2977 RMK T02400230 IEM_DS3505
ZBYN,1996-07-26 17:00,ZBYN 261700Z AUTO 11004KT 2SM 23/22 A2977 RMK T02300220 IEM_DS3505
ZBYN,1996-07-26 18:00,ZBYN 261800Z AUTO 32004KT 5SM 23/22 A2977 RMK SLP038 T02300223 57010 IEM_DS3505
ZBYN,1996-07-26 19:00,ZBYN 261900Z AUTO 00000KT 2SM 23/22 A2977 RMK T02300220 IEM_DS3505
ZBYN,1996-07-26 20:00,ZBYN 262000Z AUTO 09004KT 2SM 23/22 A2974 RMK T02300220 IEM_DS3505
ZBYN,1996-07-26 21:00,ZBYN 262100Z AUTO 00000KT 4SM 23/22 A2977 RMK 70000 SLP041 T02290217 52001 IEM_DS3505
ZBYN,1996-07-26 22:00,ZBYN 262200Z AUTO 16006KT 1SM 23/22 RMK T02300220 IEM_DS3505
ZBYN,1996-07-26 23:00,ZBYN 262300Z AUTO 09008KT 1SM 22/22 RMK T02200220 IEM_DS3505
ZBYN,1996-07-27 00:00,ZBYN 270000Z AUTO 11002KT 3SM 22/22 A2977 RMK 60000 70001 SLP050 T02230216 52005 IEM_DS3505
ZBYN,1996-07-27 01:00,ZBYN 270100Z AUTO 07004KT 1 1/2SM 23/23 A2977 RMK T02300230 IEM_DS3505
ZBYN,1996-07-27 02:00,ZBYN 270200Z AUTO 00000KT 2 1/2SM 24/23 A2977 RMK T02400230 IEM_DS3505
ZBYN,1996-07-27 03:00,ZBYN 270300Z AUTO 36002KT 4SM 25/23 A2977 RMK SLP047 T02510227 57001 IEM_DS3505
ZBYN,1996-07-27 04:00,ZBYN 270400Z AUTO 11004KT 7SM 26/23 A2977 RMK T02600230 IEM_DS3505
ZBYN,1996-07-27 05:00,ZBYN 270500Z AUTO 12004KT 7SM 26/23 A2974 RMK T02600230 IEM_DS3505
ZBYN,1996-07-27 06:00,ZBYN 270600Z AUTO 32004KT 4SM 28/22 A2971 RMK 60000 SLP027 T02810223 57014 IEM_DS3505
ZBYN,1996-07-27 07:00,ZBYN 270700Z AUTO 00000KT 7SM 28/23 A2971 RMK T02800230 IEM_DS3505
ZBYN,1996-07-27 08:00,ZBYN 270800Z AUTO 04004KT 6SM 29/24 A2968 RMK T02900240 IEM_DS3505
ZBYN,1996-07-27 09:00,ZBYN 270900Z AUTO 32004KT 6SM 28/23 A2968 RMK SLP010 T02790230 57016 IEM_DS3505
ZBYN,1996-07-27 10:00,ZBYN 271000Z AUTO 09006KT 7SM 27/24 A2968 RMK T02700240 IEM_DS3505
ZBYN,1996-07-27 11:00,ZBYN 271100Z AUTO 06008KT 7SM 26/23 A2968 RMK T02600230 IEM_DS3505
ZBYN,1996-07-27 12:00,ZBYN 271200Z AUTO 07006KT 6SM 26/22 A2968 RMK SLP021 T02590223 52006 IEM_DS3505
ZBYN,1996-07-27 13:00,ZBYN 271300Z AUTO 12010KT 7SM 24/22 A2971 RMK T02400220 IEM_DS3505
ZBYN,1996-07-27 14:00,ZBYN 271400Z AUTO 10012KT 7SM 24/22 A2974 RMK T02400220 IEM_DS3505
ZBYN,1996-07-27 15:00,ZBYN 271500Z AUTO 11006KT 6SM 24/22 A2974 RMK SLP031 T02410216 52011 IEM_DS3505
ZBYN,1996-07-27 16:00,ZBYN 271600Z AUTO 05010KT 7SM 24/22 A2971 RMK T02400220 IEM_DS3505
ZBYN,1996-07-27 17:00,ZBYN 271700Z AUTO 06010KT 7SM 24/22 A2971 RMK T02400220 IEM_DS3505
ZBYN,1996-07-27 18:00,ZBYN 271800Z AUTO 36002KT 6SM 24/22 A2971 RMK 60004 SLP021 T02370223 57006 IEM_DS3505
ZBYN,1996-07-27 19:00,ZBYN 271900Z AUTO 11004KT 7SM 24/22 A2971 RMK T02400220 IEM_DS3505
ZBYN,1996-07-27 20:00,ZBYN 272000Z AUTO 11004KT 7SM 23/21 A2968 RMK T02300210 IEM_DS3505
ZBYN,1996-07-27 21:00,ZBYN 272100Z AUTO 29002KT 6SM 23/22 A2968 RMK 70004 SLP016 T02260216 57006 IEM_DS3505
ZBYN,1996-07-27 22:00,ZBYN 272200Z AUTO 09004KT 7SM 23/21 A2971 RMK T02300210 IEM_DS3505
ZBYN,1996-07-27 23:00,ZBYN 272300Z AUTO 00000KT 7SM 23/22 A2971 RMK T02300220 IEM_DS3505
ZBYN,1996-07-28 00:00,ZBYN 280000Z AUTO 20002KT 5SM 24/22 A2971 RMK 70004 SLP022 T02360219 52004 IEM_DS3505
ZBYN,1996-07-28 01:00,ZBYN 280100Z AUTO 10004KT 6SM 25/22 A2971 RMK T02500220 IEM_DS3505
ZBYN,1996-07-28 02:00,ZBYN 280200Z AUTO 14006KT 6SM 26/23 A2971 RMK T02600230 IEM_DS3505
ZBYN,1996-07-28 03:00,ZBYN 280300Z AUTO 14006KT 6SM 26/21 A2968 RMK SLP016 T02640212 57004 IEM_DS3505
ZBYN,1996-07-28 04:00,ZBYN 280400Z AUTO 15006KT 6SM 27/23 A2968 RMK T02700230 IEM_DS3505
ZBYN,1996-07-28 05:00,ZBYN 280500Z AUTO 19008KT 7SM 29/23 A2965 RMK T02900230 IEM_DS3505
ZBYN,1996-07-28 06:00,ZBYN 280600Z AUTO 18006KT 6SM 28/22 A2965 RMK 60000 SLP001 T02810223 57012 IEM_DS3505
ZBYN,1996-07-28 07:00,ZBYN 280700Z AUTO 16006KT 6SM 31/24 A2965 RMK T03100240 IEM_DS3505
ZBYN,1996-07-28 08:00,ZBYN 280800Z AUTO 00000KT 6SM 28/24 A2962 RMK T02800240 IEM_DS3505
ZBYN,1996-07-28 09:00,ZBYN 280900Z AUTO 32006KT 6SM 26/21 A2962 RMK SLP000 T02550214 57006 IEM_DS3505
ZBYN,1996-07-28 10:00,ZBYN 281000Z AUTO 32006KT 6SM 26/22 A2965 RMK T02600220 IEM_DS3505
ZBYN,1996-07-28 11:00,ZBYN 281100Z AUTO 34006KT 6SM 26/22 A2965 RMK T02600220 IEM_DS3505
ZBYN,1996-07-28 12:00,ZBYN 281200Z AUTO 32004KT 12SM 25/19 A2968 RMK SLP020 T02470188 52018 IEM_DS3505
ZBYN,1996-07-28 13:00,ZBYN 281300Z AUTO 33008KT 7SM 25/19 A2971 RMK T02500190 IEM_DS3505
ZBYN,1996-07-28 14:00,ZBYN 281400Z AUTO 34002KT 7SM 24/20 A2971 RMK T02400200 IEM_DS3505
ZBYN,1996-07-28 15:00,ZBYN 281500Z AUTO 34002KT 9SM 23/20 A2971 RMK SLP025 T02330202 52007 IEM_DS3505
ZBYN,1996-07-28 16:00,ZBYN 281600Z AUTO 32004KT 7SM 24/20 A2971 RMK T02400200 IEM_DS3505
ZBYN,1996-07-28 17:00,ZBYN 281700Z AUTO 16002KT 7SM 23/20 A2971 RMK T02300200 IEM_DS3505
ZBYN,1996-07-28 18:00,ZBYN 281800Z AUTO 18004KT 6SM 22/21 A2971 RMK SLP018 T02210212 57006 IEM_DS3505
ZBYN,1996-07-28 19:00,ZBYN 281900Z AUTO 09004KT 7SM 22/21 A2971 RMK T02200210 IEM_DS3505
ZBYN,1996-07-28 20:00,ZBYN 282000Z AUTO 00000KT 7SM 22/21 A2968 RMK T02200210 IEM_DS3505
ZBYN,1996-07-28 21:00,ZBYN 282100Z AUTO 00000KT 6SM 22/21 A2971 RMK 70001 SLP021 T02160210 57001 IEM_DS3505
ZBYN,1996-07-28 22:00,ZBYN 282200Z AUTO 00000KT 5SM 22/21 A2971 RMK T02200210 IEM_DS3505
ZBYN,1996-07-28 23:00,ZBYN 282300Z AUTO 00000KT 4SM 22/21 A2971 RMK T02200210 IEM_DS3505
ZBYN,1996-07-29 00:00,ZBYN 290000Z AUTO 00000KT 6SM 22/21 A2974 RMK 60001 70002 SLP032 T02170213 52009 IEM_DS3505
ZBYN,1996-07-29 01:00,ZBYN 290100Z AUTO 00000KT 4SM 23/21 A2974 RMK T02300210 IEM_DS3505
ZBYN,1996-07-29 02:00,ZBYN 290200Z AUTO 00000KT 4SM 26/21 A2974 RMK T02600210 IEM_DS3505
ZBYN,1996-07-29 03:00,ZBYN 290300Z AUTO 04004KT 6SM 26/21 A2971 RMK SLP031 T02580208 52003 IEM_DS3505
ZBYN,1996-07-29 04:00,ZBYN 290400Z AUTO 00000KT 5SM 28/21 A2971 RMK T02800210 IEM_DS3505
ZBYN,1996-07-29 05:00,ZBYN 290500Z AUTO 26004KT 5SM 28/22 A2971 RMK T02800220 IEM_DS3505
ZBYN,1996-07-29 06:00,ZBYN 290600Z AUTO 22004KT 6SM 28/22 A2971 RMK SLP017 T02780216 57012 IEM_DS3505
ZBYN,1996-07-29 07:00,ZBYN 290700Z AUTO 21004KT 6SM 29/22 A2968 RMK T02900220 IEM_DS3505
ZBYN,1996-07-29 09:00,ZBYN 290900Z AUTO 16006KT 7SM 28/21 A2968 RMK SLP007 T02820213 57009 IEM_DS3505
ZBYN,1996-07-29 10:00,ZBYN 291000Z AUTO 19004KT 6SM 28/23 A2965 RMK T02800230 IEM_DS3505
ZBYN,1996-07-29 11:00,ZBYN 291100Z AUTO 00000KT 6SM 26/22 A2968 RMK T02600220 IEM_DS3505
ZBYN,1996-07-29 12:00,ZBYN 291200Z AUTO 11004KT 6SM 26/22 A2968 RMK SLP017 T02550225 52005 IEM_DS3505
ZBYN,1996-07-29 13:00,ZBYN 291300Z AUTO 10004KT 6SM 25/23 A2968 RMK T02500230 IEM_DS3505
ZBYN,1996-07-29 14:00,ZBYN 291400Z AUTO 09004KT 6SM 24/22 A2971 RMK T02400220 IEM_DS3505
ZBYN,1996-07-29 15:00,ZBYN 291500Z AUTO 00000KT 6SM 24/22 A2971 RMK SLP028 T02350221 52013 IEM_DS3505
ZBYN,1996-07-29 16:00,ZBYN 291600Z AUTO 13004KT 6SM 23/21 A2971 RMK T02300210 IEM_DS3505
ZBYN,1996-07-29 18:00,ZBYN 291800Z AUTO 00000KT 6SM 22/22 A2974 RMK SLP032 T02250216 52005 IEM_DS3505
ZBYN,1996-07-29 19:00,ZBYN 291900Z AUTO 00000KT 6SM 22/21 A2974 RMK T02200210 IEM_DS3505
ZBYN,1996-07-29 20:00,ZBYN 292000Z AUTO 00000KT 6SM 22/21 A2974 RMK T02200210 IEM_DS3505
ZBYN,1996-07-29 21:00,ZBYN 292100Z AUTO 34004KT 6SM 22/21 A2974 RMK 70000 SLP034 T02190213 52002 IEM_DS3505
ZBYN,1996-07-29 22:00,ZBYN 292200Z AUTO 00000KT 5SM 22/21 A2974 RMK T02200210 IEM_DS3505
ZBYN,1996-07-29 23:00,ZBYN 292300Z AUTO 00000KT 5SM 22/21 A2974 RMK T02200210 IEM_DS3505
ZBYN,1996-07-30 00:00,ZBYN 300000Z AUTO 14004KT 5SM 24/22 A2977 RMK SLP043 T02350215 52006 IEM_DS3505
ZBYN,1996-07-30 01:00,ZBYN 300100Z AUTO 00000KT 5SM 25/22 A2977 RMK T02500220 IEM_DS3505
ZBYN,1996-07-30 02:00,ZBYN 300200Z AUTO 00000KT 6SM 27/22 A2977 RMK T02700220 IEM_DS3505
ZBYN,1996-07-30 03:00,ZBYN 300300Z AUTO 00000KT 6SM 28/22 A2977 RMK SLP043 T02750219 52003 IEM_DS3505
ZBYN,1996-07-30 04:00,ZBYN 300400Z AUTO 14006KT 6SM 30/22 A2977 RMK T03000220 IEM_DS3505
ZBYN,1996-07-30 05:00,ZBYN 300500Z AUTO 17006KT 7SM 32/23 A2974 RMK T03200230 IEM_DS3505
ZBYN,1996-07-30 06:00,ZBYN 300600Z AUTO 18006KT 6SM 31/21 A2971 RMK SLP023 T03110209 57015 IEM_DS3505
ZBYN,1996-07-30 07:00,ZBYN 300700Z AUTO 27002KT 7SM 32/20 A2971 RMK T03200200 IEM_DS3505
ZBYN,1996-07-30 08:00,ZBYN 300800Z AUTO 23002KT 7SM 33/21 A2968 RMK T03300210 IEM_DS3505
ZBYN,1996-07-30 09:00,ZBYN 300900Z AUTO 32006KT 9SM 27/20 A2971 RMK SLP024 T02690203 57005 IEM_DS3505
ZBYN,1996-07-30 10:00,ZBYN 301000Z AUTO 11010KT 7SM 27/21 A2971 RMK T02700210 IEM_DS3505
ZBYN,1996-07-30 11:00,ZBYN 301100Z AUTO 10008KT 7SM 26/21 A2974 RMK T02600210 IEM_DS3505
ZBYN,1996-07-30 12:00,ZBYN 301200Z AUTO 07006KT 6SM 26/20 A2980 RMK SLP049 T02560205 52023 IEM_DS3505
ZBYN,1996-07-30 13:00,ZBYN 301300Z AUTO 10012KT 7SM 24/21 A2980 RMK T02400210 IEM_DS3505
ZBYN,1996-07-30 14:00,ZBYN 301400Z AUTO 06008KT 7SM 24/21 A2980 RMK T02400210 IEM_DS3505
ZBYN,1996-07-30 15:00,ZBYN 301500Z AUTO 00000KT 6SM 24/22 A2983 RMK SLP058 T02430217 52012 IEM_DS3505
ZBYN,1996-07-30 16:00,ZBYN 301600Z AUTO 10006KT 7SM 24/21 A2983 RMK T02400210 IEM_DS3505
ZBYN,1996-07-30 17:00,ZBYN 301700Z AUTO 00000KT 4SM 23/22 A2983 RMK T02300220 IEM_DS3505
ZBYN,1996-07-30 18:00,ZBYN 301800Z AUTO 00000KT 6SM 23/22 A2983 RMK SLP057 T02310218 52002 IEM_DS3505
ZBYN,1996-07-30 19:00,ZBYN 301900Z AUTO 00000KT 3SM 23/21 A2983 RMK T02300210 IEM_DS3505
ZBYN,1996-07-30 20:00,ZBYN 302000Z AUTO 31004KT 3SM 22/21 A2983 RMK T02200210 IEM_DS3505
ZBYN,1996-07-30 21:00,ZBYN 302100Z AUTO 32004KT 6SM 22/22 A2983 RMK 70008 SLP064 T02210217 54000 IEM_DS3505
ZBYN,1996-07-30 22:00,ZBYN 302200Z AUTO 00000KT 3SM 22/21 A2983 RMK T02200210 IEM_DS3505
ZBYN,1996-07-30 23:00,ZBYN 302300Z AUTO 06006KT 7SM 22/21 A2983 RMK T02200210 IEM_DS3505
ZBYN,1996-07-31 00:00,ZBYN 310000Z AUTO 32002KT 6SM 22/21 A2985 RMK 60012 70012 SLP073 T02200210 52006 IEM_DS3505
ZBYN,1996-07-31 01:00,ZBYN 310100Z AUTO 09004KT 7SM 22/21 A2985 RMK T02200210 IEM_DS3505
ZBYN,1996-07-31 02:00,ZBYN 310200Z AUTO 07006KT 7SM 22/21 A2985 RMK T02200210 IEM_DS3505
ZBYN,1996-07-31 03:00,ZBYN 310300Z AUTO 00000KT 5SM 24/22 A2985 RMK SLP079 T02380216 52006 IEM_DS3505
ZBYN,1996-07-31 04:00,ZBYN 310400Z AUTO 09012KT 7SM 23/21 A2988 RMK T02300210 IEM_DS3505
ZBYN,1996-07-31 05:00,ZBYN 310500Z AUTO 10006KT 7SM 22/20 A2988 RMK T02200200 IEM_DS3505
ZBYN,1996-07-31 06:00,ZBYN 310600Z AUTO 09006KT 5SM 22/20 A2988 RMK 60001 SLP087 T02150205 52003 IEM_DS3505
ZBYN,1996-07-31 07:00,ZBYN 310700Z AUTO 11004KT 7SM 22/21 A2985 RMK T02200210 IEM_DS3505
ZBYN,1996-07-31 08:00,ZBYN 310800Z AUTO 09002KT 7SM 22/21 A2985 RMK T02200210 IEM_DS3505
ZBYN,1996-07-31 09:00,ZBYN 310900Z AUTO 00000KT 6SM 22/21 A2983 RMK SLP077 T02210212 57010 IEM_DS3505
ZBYN,1996-07-31 10:00,ZBYN 311000Z AUTO 00000KT 7SM 22/21 A2985 RMK T02200210 IEM_DS3505
ZBYN,1996-07-31 11:00,ZBYN 311100Z AUTO 09006KT 7SM 21/21 A2985 RMK T02100210 IEM_DS3505
ZBYN,1996-07-31 12:00,ZBYN 311200Z AUTO 34002KT 6SM 22/21 A2989 RMK 60016 SLP088 T02150211 52009 IEM_DS3505
ZBYN,1996-07-31 13:00,ZBYN 311300Z AUTO 09010KT 7SM 21/20 A2988 RMK T02100200 IEM_DS3505
ZBYN,1996-07-31 14:00,ZBYN 311400Z AUTO 09008KT 7SM 20/19 A2991 RMK T02000190 IEM_DS3505
ZBYN,1996-07-31 15:00,ZBYN 311500Z AUTO 00000KT 5SM 20/20 A2988 RMK SLP097 T02050200 52009 IEM_DS3505
ZBYN,1996-07-31 16:00,ZBYN 311600Z AUTO 07006KT 6SM 20/19 A2988 RMK T02000190 IEM_DS3505
ZBYN,1996-07-31 18:00,ZBYN 311800Z AUTO 36002KT 6SM 20/20 A2985 RMK 60008 SLP081 T02050200 57014 IEM_DS3505
ZBYN,1996-07-31 20:00,ZBYN 312000Z AUTO 08008KT 7SM 20/20 A2983 RMK T02000200 IEM_DS3505
ZBYN,1996-07-31 21:00,ZBYN 312100Z AUTO 00000KT 6SM 20/20 A2983 RMK 70039 SLP083 T02020199 57005 IEM_DS3505
ZBYN,1996-07-31 22:00,ZBYN 312200Z AUTO 10006KT 7SM 20/20 A2985 RMK T02000200 IEM_DS3505
ZBYN,1996-07-31 23:00,ZBYN 312300Z AUTO 09012KT 7SM 20/20 A2983 RMK T02000200 IEM_DS3505
ZBYN,1996-08-01 00:00,ZBYN 010000Z AUTO 11006KT 6SM 21/20 A2985 RMK 60012 70039 SLP081 T02140202 57001 IEM_DS3505
ZBYN,1996-08-01 01:00,ZBYN 010100Z AUTO 11008KT 7SM 22/21 A2985 RMK T02200210 IEM_DS3505
ZBYN,1996-08-01 02:00,ZBYN 010200Z AUTO 14010KT 7SM 23/21 A2985 RMK T02300210 IEM_DS3505
ZBYN,1996-08-01 03:00,ZBYN 010300Z AUTO 00000KT 5SM 23/21 A2988 RMK SLP089 T02270212 52008 IEM_DS3505
ZBYN,1996-08-01 04:00,ZBYN 010400Z AUTO 24006KT 1 1/2SM 22/21 RMK T02200210 IEM_DS3505
ZBYN,1996-08-01 05:00,ZBYN 010500Z AUTO 19006KT 4SM 22/21 A2991 RMK T02200210 IEM_DS3505
ZBYN,1996-08-01 06:00,ZBYN 010600Z AUTO 18006KT 4SM 22/21 A2991 RMK 60020 SLP098 T02190213 52007 IEM_DS3505
ZBYN,1996-08-01 07:00,ZBYN 010700Z AUTO 19006KT 4SM 22/21 A2988 RMK T02200210 IEM_DS3505
ZBYN,1996-08-01 08:00,ZBYN 010800Z AUTO 16004KT 4SM 22/22 A2988 RMK T02200220 IEM_DS3505
ZBYN,1996-08-01 09:00,ZBYN 010900Z AUTO 14008KT 5SM 23/22 A2988 RMK SLP093 T02270220 57004 IEM_DS3505
ZBYN,1996-08-01 10:00,ZBYN 011000Z AUTO 15006KT 5SM 23/22 A2988 RMK T02300220 IEM_DS3505
ZBYN,1996-08-01 11:00,ZBYN 011100Z AUTO 13006KT 6SM 22/22 A2988 RMK T02200220 IEM_DS3505
ZBYN,1996-08-01 12:00,ZBYN 011200Z AUTO 14006KT 6SM 22/22 A2988 RMK 60001 SLP095 T02210217 52002 IEM_DS3505
ZBYN,1996-08-01 13:00,ZBYN 011300Z AUTO 14004KT 4SM 22/21 A2991 RMK T02200210 IEM_DS3505
ZBYN,1996-08-01 14:00,ZBYN 011400Z AUTO 00000KT 3SM 22/21 A2991 RMK T02200210 IEM_DS3505
ZBYN,1996-08-01 15:00,ZBYN 011500Z AUTO 09002KT 6SM 22/21 A2991 RMK SLP101 T02150212 52007 IEM_DS3505
ZBYN,1996-08-01 16:00,ZBYN 011600Z AUTO 13004KT 3SM 22/21 A2991 RMK T02200210 IEM_DS3505
ZBYN,1996-08-01 17:00,ZBYN 011700Z AUTO 11004KT 3SM 22/21 A2991 RMK T02200210 IEM_DS3505
ZBYN,1996-08-01 18:00,ZBYN 011800Z AUTO 00000KT 6SM 21/21 A2988 RMK SLP098 T02100207 57005 IEM_DS3505
ZBYN,1996-08-01 19:00,ZBYN 011900Z AUTO 00000KT 3SM 21/21 A2988 RMK T02100210 IEM_DS3505
ZBYN,1996-08-01 20:00,ZBYN 012000Z AUTO 33004KT 3SM 21/20 A2985 RMK T02100200 IEM_DS3505
ZBYN,1996-08-01 21:00,ZBYN 012100Z AUTO 07002KT 4SM 20/20 A2985 RMK 70020 SLP081 T02050204 57015 IEM_DS3505
ZBYN,1996-08-01 22:00,ZBYN 012200Z AUTO 00000KT 1SM 21/20 A2985 RMK T02100200 IEM_DS3505
ZBYN,1996-08-01 23:00,ZBYN 012300Z AUTO 00000KT 1SM 21/21 A2988 RMK T02100210 IEM_DS3505
ZBYN,1996-08-02 00:00,ZBYN 020000Z AUTO 00000KT 2 1/2SM 21/21 A2988 RMK 70020 SLP093 T02130212 52011 IEM_DS3505
ZBYN,1996-08-02 01:00,ZBYN 020100Z AUTO 00000KT 2 1/2SM 24/21 A2988 RMK T02400210 IEM_DS3505
ZBYN,1996-08-02 02:00,ZBYN 020200Z AUTO 00000KT 4SM 25/22 A2988 RMK T02500220 IEM_DS3505
ZBYN,1996-08-02 03:00,ZBYN 020300Z AUTO 00000KT 4SM 26/22 A2988 RMK SLP086 T02590217 54000 IEM_DS3505
ZBYN,1996-08-02 04:00,ZBYN 020400Z AUTO 14004KT 7SM 28/21 A2988 RMK T02800210 IEM_DS3505
ZBYN,1996-08-02 05:00,ZBYN 020500Z AUTO 00000KT 7SM 26/23 A2985 RMK T02600230 IEM_DS3505
ZBYN,1996-08-02 06:00,ZBYN 020600Z AUTO 07004KT 4SM 28/22 A2983 RMK SLP071 T02750222 57013 IEM_DS3505
ZBYN,1996-08-02 07:00,ZBYN 020700Z AUTO 07004KT 7SM 29/23 A2983 RMK T02900230 IEM_DS3505
ZBYN,1996-08-02 08:00,ZBYN 020800Z AUTO 00000KT 7SM 29/24 A2980 RMK T02900240 IEM_DS3505
ZBYN,1996-08-02 09:00,ZBYN 020900Z AUTO 11010KT 6SM 30/21 A2980 RMK SLP055 T02950210 57012 IEM_DS3505
ZBYN,1996-08-02 10:00,ZBYN 021000Z AUTO 13010KT 7SM 24/19 A2983 RMK T02400190 IEM_DS3505
ZBYN,1996-08-02 11:00,ZBYN 021100Z AUTO 09004KT 7SM 24/21 A2983 RMK T02400210 IEM_DS3505
ZBYN,1996-08-02 12:00,ZBYN 021200Z AUTO 00000KT 9SM 24/21 A2983 RMK SLP072 T02380209 52009 IEM_DS3505
ZBYN,1996-08-02 14:00,ZBYN 021400Z AUTO 09010KT 5SM 23/21 A2985 RMK T02300210 IEM_DS3505
ZBYN,1996-08-02 15:00,ZBYN 021500Z AUTO 00000KT 6SM 23/21 A2985 RMK SLP074 T02310212 52007 IEM_DS3505
ZBYN,1996-08-02 16:00,ZBYN 021600Z AUTO 04010KT 5SM 23/21 A2985 RMK T02300210 IEM_DS3505
ZBYN,1996-08-02 17:00,ZBYN 021700Z AUTO 06002KT 5SM 23/21 A2985 RMK T02300210 IEM_DS3505
ZBYN,1996-08-02 18:00,ZBYN 021800Z AUTO 32006KT 4SM 22/21 A2985 RMK 60002 SLP070 T02230213 57003 IEM_DS3505
ZBYN,1996-08-02 19:00,ZBYN 021900Z AUTO 00000KT 5SM 23/21 A2983 RMK T02300210 IEM_DS3505
ZBYN,1996-08-02 20:00,ZBYN 022000Z AUTO 06004KT 5SM 23/21 A2983 RMK T02300210 IEM_DS3505
ZBYN,1996-08-02 21:00,ZBYN 022100Z AUTO 34004KT 4SM 23/20 A2983 RMK 70002 SLP063 T02290204 57003 IEM_DS3505
ZBYN,1996-08-02 22:00,ZBYN 022200Z AUTO 36002KT 1 1/2SM 22/22 A2983 RMK T02200220 IEM_DS3505
ZBYN,1996-08-02 23:00,ZBYN 022300Z AUTO 33008KT 1 1/2SM 21/21 A2983 RMK T02100210 IEM_DS3505
ZBYN,1996-08-03 00:00,ZBYN 030000Z AUTO 32004KT 2SM 22/21 A2985 RMK 60039 70039 SLP079 T02150212 52005 IEM_DS3505
ZBYN,1996-08-03 02:00,ZBYN 030200Z AUTO 01006KT 2 1/2SM 23/21 A2985 RMK T02300210 IEM_DS3505
ZBYN,1996-08-03 03:00,ZBYN 030300Z AUTO 34006KT 4SM 23/21 RMK SLP085 T02290210 52007 IEM_DS3505
ZBYN,1996-08-03 04:00,ZBYN 030400Z AUTO 06006KT 7SM 25/23 A2985 RMK T02500230 IEM_DS3505
ZBYN,1996-08-03 05:00,ZBYN 030500Z AUTO 04008KT 7SM 25/23 A2985 RMK T02500230 IEM_DS3505
ZBYN,1996-08-03 06:00,ZBYN 030600Z AUTO 02004KT 6SM 25/22 A2987 RMK SLP078 T02470217 57005 IEM_DS3505
ZBYN,1996-08-03 07:00,ZBYN 030700Z AUTO 06008KT 7SM 24/22 A2983 RMK T02400220 IEM_DS3505
ZBYN,1996-08-03 08:00,ZBYN 030800Z AUTO 09006KT 7SM 24/22 A2985 RMK T02400220 IEM_DS3505
ZBYN,1996-08-03 09:00,ZBYN 030900Z AUTO 36002KT 6SM 24/22 A2985 RMK SLP075 T02350222 57004 IEM_DS3505
ZBYN,1996-08-03 10:00,ZBYN 031000Z AUTO 35004KT 7SM 23/21 A2985 RMK T02300210 IEM_DS3505
ZBYN,1996-08-03 12:00,ZBYN 031200Z AUTO 32002KT 5SM 22/22 A2985 RMK 60008 SLP091 T02230220 52011 IEM_DS3505
ZBYN,1996-08-03 13:00,ZBYN 031300Z AUTO 06004KT 7SM 21/20 A2988 RMK T02100200 IEM_DS3505
ZBYN,1996-08-03 14:00,ZBYN 031400Z AUTO 10008KT 7SM 21/20 A2988 RMK T02100200 IEM_DS3505
ZBYN,1996-08-03 15:00,ZBYN 031500Z AUTO 36004KT 6SM 22/21 A2988 RMK SLP096 T02160209 52006 IEM_DS3505
ZBYN,1996-08-03 16:00,ZBYN 031600Z AUTO 09004KT 7SM 21/20 A2988 RMK T02100200 IEM_DS3505
ZBYN,1996-08-03 17:00,ZBYN 031700Z AUTO 07006KT 7SM 21/20 A2988 RMK T02100200 IEM_DS3505
ZBYN,1996-08-03 18:00,ZBYN 031800Z AUTO 00000KT 6SM 22/21 A2985 RMK SLP083 T02150212 57010 IEM_DS3505
ZBYN,1996-08-03 19:00,ZBYN 031900Z AUTO 00000KT 7SM 21/20 A2983 RMK T02100200 IEM_DS3505
ZBYN,1996-08-03 20:00,ZBYN 032000Z AUTO 06004KT 7SM 21/19 A2983 RMK T02100190 IEM_DS3505
ZBYN,1996-08-03 21:00,ZBYN 032100Z AUTO 32004KT 6SM 21/20 A2983 RMK 70087 SLP071 T02090205 57013 IEM_DS3505
ZBYN,1996-08-03 22:00,ZBYN 032200Z AUTO 00000KT 5SM 21/20 A2983 RMK T02100200 IEM_DS3505
ZBYN,1996-08-03 23:00,ZBYN 032300Z AUTO 00000KT 4SM 21/20 A2983 RMK T02100200 IEM_DS3505
ZBYN,1996-08-04 00:00,ZBYN 040000Z AUTO 32004KT 4SM 21/21 A2983 RMK 60091 70098 SLP075 T02060206 52001 IEM_DS3505
ZBYN,1996-08-04 02:00,ZBYN 040200Z AUTO 00000KT 7SM 21/21 A2980 RMK T02100210 IEM_DS3505
ZBYN,1996-08-04 03:00,ZBYN 040300Z AUTO 32004KT 4SM 21/21 RMK SLP068 T02130212 57006 IEM_DS3505
ZBYN,1996-08-04 04:00,ZBYN 040400Z AUTO 09008KT 5SM 21/21 A2980 RMK T02100210 IEM_DS3505
ZBYN,1996-08-04 05:00,ZBYN 040500Z AUTO 10014KT 7SM 22/21 A2980 RMK T02200210 IEM_DS3505
ZBYN,1996-08-04 06:00,ZBYN 040600Z AUTO 09008KT 4SM 22/21 A2977 RMK 60122 SLP061 T02200213 57006 IEM_DS3505
ZBYN,1996-08-04 08:00,ZBYN 040800Z AUTO 10012KT 7SM 22/22 A2974 RMK T02200220 IEM_DS3505
ZBYN,1996-08-04 09:00,ZBYN 040900Z AUTO 04008KT 4SM 23/21 RMK SLP050 T02270214 57010 IEM_DS3505
ZBYN,1996-08-04 12:00,ZBYN 041200Z AUTO 32006KT 4SM 22/22 A2977 RMK 60075 SLP052 T02170216 54000 IEM_DS3505
ZBYN,1996-08-04 15:00,ZBYN 041500Z AUTO 32002KT 5SM 21/21 RMK SLP052 T02120211 52001 IEM_DS3505
ZBYN,1996-08-04 18:00,ZBYN 041800Z AUTO 36002KT 5SM 21/21 A2974 RMK 60024 SLP039 T02110210 57011 IEM_DS3505
ZBYN,1996-08-04 21:00,ZBYN 042100Z AUTO 34004KT 5SM 21/21 RMK 70272 SLP025 T02120209 57012 IEM_DS3505
ZBYN,1996-08-04 23:00,ZBYN 042300Z AUTO 00000KT 7SM 21/21 A2971 RMK T02100210 IEM_DS3505
ZBYN,1996-08-05 00:00,ZBYN 050000Z AUTO 04002KT 5SM 22/21 A2972 RMK 60008 70228 SLP033 T02150212 52006 IEM_DS3505
ZBYN,1996-08-05 02:00,ZBYN 050200Z AUTO 00000KT 5SM 22/21 A2971 RMK T02200210 IEM_DS3505
ZBYN,1996-08-05 03:00,ZBYN 050300Z AUTO 32004KT 4SM 23/22 A2968 RMK SLP026 T02270221 57005 IEM_DS3505
ZBYN,1996-08-05 06:00,ZBYN 050600Z AUTO 36002KT 5SM 25/23 A2965 RMK 60012 SLP009 T02490228 57013 IEM_DS3505
ZBYN,1996-08-05 07:00,ZBYN 050700Z AUTO 16004KT 7SM 26/23 A2962 RMK T02600230 IEM_DS3505
ZBYN,1996-08-05 08:00,ZBYN 050800Z AUTO 11004KT 7SM 26/23 A2962 RMK T02600230 IEM_DS3505
ZBYN,1996-08-05 09:00,ZBYN 050900Z AUTO 14004KT 5SM 26/22 A2962 RMK SLP995 T02590217 57011 IEM_DS3505
ZBYN,1996-08-05 12:00,ZBYN 051200Z AUTO 34002KT 5SM 24/22 A2965 RMK SLP004 T02400223 52006 IEM_DS3505
ZBYN,1996-08-05 15:00,ZBYN 051500Z AUTO 32004KT 5SM 22/22 RMK SLP009 T02250218 52004 IEM_DS3505
ZBYN,1996-08-05 18:00,ZBYN 051800Z AUTO 00000KT 5SM 22/22 A2965 RMK 60000 SLP000 T02250218 57005 IEM_DS3505
ZBYN,1996-08-05 21:00,ZBYN 052100Z AUTO 34002KT 5SM 22/21 RMK 70016 SLP997 T02180212 57002 IEM_DS3505
ZBYN,1996-08-06 00:00,ZBYN 060000Z AUTO 32002KT 4SM 23/22 A2965 RMK 70012 SLP002 T02310218 52003 IEM_DS3505
ZBYN,1996-08-06 01:00,ZBYN 060100Z AUTO 00000KT 2 1/2SM 25/22 A2965 RMK T02500220 IEM_DS3505
ZBYN,1996-08-06 02:00,ZBYN 060200Z AUTO 22002KT 4SM 26/22 A2965 RMK T02600220 IEM_DS3505
ZBYN,1996-08-06 03:00,ZBYN 060300Z AUTO 18004KT 5SM 27/23 A2965 RMK SLP002 T02740230 52004 IEM_DS3505
ZBYN,1996-08-06 04:00,ZBYN 060400Z AUTO 21004KT 4SM 29/24 A2962 RMK T02900240 IEM_DS3505
ZBYN,1996-08-06 05:00,ZBYN 060500Z AUTO 21004KT 7SM 30/24 A2962 RMK T03000240 IEM_DS3505
ZBYN,1996-08-06 06:00,ZBYN 060600Z AUTO 20006KT 5SM 31/24 A2959 RMK SLP984 T03070239 57012 IEM_DS3505
ZBYN,1996-08-06 07:00,ZBYN 060700Z AUTO 22004KT 7SM 32/24 A2959 RMK T03200240 IEM_DS3505
ZBYN,1996-08-06 08:00,ZBYN 060800Z AUTO 24006KT 7SM 32/24 A2956 RMK T03200240 IEM_DS3505
ZBYN,1996-08-06 09:00,ZBYN 060900Z AUTO 20004KT 5SM 30/25 A2956 RMK SLP974 T03010247 57011 IEM_DS3505
ZBYN,1996-08-06 10:00,ZBYN 061000Z AUTO 32006KT 6SM 30/24 A2959 RMK T03000240 IEM_DS3505
ZBYN,1996-08-06 11:00,ZBYN 061100Z AUTO 00000KT 6SM 28/25 A2959 RMK T02800250 IEM_DS3505
ZBYN,1996-08-06 12:00,ZBYN 061200Z AUTO 00000KT 6SM 26/24 A2959 RMK SLP984 T02620238 52006 IEM_DS3505
ZBYN,1996-08-06 13:00,ZBYN 061300Z AUTO 00000KT 6SM 26/24 A2962 RMK T02600240 IEM_DS3505
ZBYN,1996-08-06 14:00,ZBYN 061400Z AUTO 00000KT 6SM 25/24 A2965 RMK T02500240 IEM_DS3505
ZBYN,1996-08-06 15:00,ZBYN 061500Z AUTO 34004KT 6SM 25/22 A2965 RMK SLP001 T02510219 52020 IEM_DS3505
ZBYN,1996-08-06 16:00,ZBYN 061600Z AUTO 12002KT 7SM 24/23 A2968 RMK T02400230 IEM_DS3505
ZBYN,1996-08-06 18:00,ZBYN 061800Z AUTO 36004KT 6SM 24/22 A2968 RMK SLP005 T02400218 52006 IEM_DS3505
ZBYN,1996-08-06 19:00,ZBYN 061900Z AUTO 00000KT 6SM 24/23 A2968 RMK T02400230 IEM_DS3505
ZBYN,1996-08-06 20:00,ZBYN 062000Z AUTO 21002KT 4SM 24/23 A2968 RMK T02400230 IEM_DS3505
ZBYN,1996-08-06 21:00,ZBYN 062100Z AUTO 32002KT 6SM 23/21 A2971 RMK SLP009 T02280210 52002 IEM_DS3505
ZBYN,1996-08-06 22:00,ZBYN 062200Z AUTO 00000KT 3SM 23/22 A2971 RMK T02300220 IEM_DS3505
ZBYN,1996-08-06 23:00,ZBYN 062300Z AUTO 00000KT 3SM 23/23 A2971 RMK T02300230 IEM_DS3505
ZBYN,1996-08-07 00:00,ZBYN 070000Z AUTO 06002KT 6SM 25/22 A2971 RMK SLP022 T02470217 52009 IEM_DS3505
ZBYN,1996-08-07 01:00,ZBYN 070100Z AUTO 00000KT 5SM 27/24 A2974 RMK T02700240 IEM_DS3505
ZBYN,1996-08-07 02:00,ZBYN 070200Z AUTO 00000KT 5SM 29/24 A2974 RMK T02900240 IEM_DS3505
ZBYN,1996-08-07 03:00,ZBYN 070300Z AUTO 11004KT 6SM 30/23 A2974 RMK SLP023 T02990229 52006 IEM_DS3505
ZBYN,1996-08-07 04:00,ZBYN 070400Z AUTO 00000KT 7SM 31/25 A2971 RMK T03100250 IEM_DS3505
ZBYN,1996-08-07 05:00,ZBYN 070500Z AUTO 00000KT 7SM 31/25 A2971 RMK T03100250 IEM_DS3505
ZBYN,1996-08-07 06:00,ZBYN 070600Z AUTO 22004KT 6SM 30/24 A2968 RMK SLP005 T03050235 57017 IEM_DS3505
ZBYN,1996-08-07 07:00,ZBYN 070700Z AUTO 00000KT 7SM 32/25 A2968 RMK T03200250 IEM_DS3505
ZBYN,1996-08-07 09:00,ZBYN 070900Z AUTO 32006KT 6SM 28/21 A2968 RMK SLP008 T02820214 57002 IEM_DS3505
ZBYN,1996-08-07 10:00,ZBYN 071000Z AUTO 12004KT 7SM 28/23 A2968 RMK T02800230 IEM_DS3505
ZBYN,1996-08-07 11:00,ZBYN 071100Z AUTO 23004KT 7SM 28/23 A2971 RMK T02800230 IEM_DS3505
ZBYN,1996-08-07 12:00,ZBYN 071200Z AUTO 32002KT 6SM 26/23 A2974 RMK SLP027 T02590228 52017 IEM_DS3505
ZBYN,1996-08-07 13:00,ZBYN 071300Z AUTO 09002KT 7SM 26/23 A2974 RMK T02600230 IEM_DS3505
ZBYN,1996-08-07 14:00,ZBYN 071400Z AUTO 18006KT 6SM 25/23 A2977 RMK T02500230 IEM_DS3505
ZBYN,1996-08-07 15:00,ZBYN 071500Z AUTO 00000KT 6SM 24/22 A2977 RMK SLP035 T02370224 52011 IEM_DS3505
ZBYN,1996-08-07 16:00,ZBYN 071600Z AUTO 00000KT 6SM 24/23 A2977 RMK T02400230 IEM_DS3505
ZBYN,1996-08-07 17:00,ZBYN 071700Z AUTO 09002KT 6SM 24/23 A2977 RMK T02400230 IEM_DS3505
ZBYN,1996-08-07 18:00,ZBYN 071800Z AUTO 00000KT 5SM 23/22 A2977 RMK SLP035 T02270223 54000 IEM_DS3505
ZBYN,1996-08-07 19:00,ZBYN 071900Z AUTO 00000KT 6SM 24/23 A2977 RMK T02400230 IEM_DS3505
ZBYN,1996-08-07 20:00,ZBYN 072000Z AUTO 00000KT 6SM 24/23 A2977 RMK T02400230 IEM_DS3505
ZBYN,1996-08-07 21:00,ZBYN 072100Z AUTO 32002KT 5SM 22/21 A2980 RMK SLP047 T02240212 52007 IEM_DS3505
ZBYN,1996-08-07 22:00,ZBYN 072200Z AUTO 00000KT 5SM 23/22 A2980 RMK T02300220 IEM_DS3505
ZBYN,1996-08-07 23:00,ZBYN 072300Z AUTO 00000KT 5SM 23/22 A2980 RMK T02300220 IEM_DS3505
ZBYN,1996-08-08 00:00,ZBYN 080000Z AUTO 00000KT 5SM 24/22 A2983 RMK SLP058 T02430221 52010 IEM_DS3505
ZBYN,1996-08-08 01:00,ZBYN 080100Z AUTO 06008KT 6SM 26/23 A2983 RMK T02600230 IEM_DS3505
ZBYN,1996-08-08 03:00,ZBYN 080300Z AUTO 04002KT 5SM 28/23 A2980 RMK SLP059 T02810227 52003 IEM_DS3505
ZBYN,1996-08-08 04:00,ZBYN 080400Z AUTO 00000KT 6SM 30/24 A2980 RMK T03000240 IEM_DS3505
ZBYN,1996-08-08 05:00,ZBYN 080500Z AUTO 11004KT 7SM 30/23 A2977 RMK T03000230 IEM_DS3505
ZBYN,1996-08-08 06:00,ZBYN 080600Z AUTO 14006KT 6SM 30/22 A2977 RMK SLP039 T02950219 57018 IEM_DS3505
ZBYN,1996-08-08 07:00,ZBYN 080700Z AUTO 12008KT 7SM 31/25 A2974 RMK T03100250 IEM_DS3505
ZBYN,1996-08-08 08:00,ZBYN 080800Z AUTO 08008KT 7SM 30/24 A2974 RMK T03000240 IEM_DS3505
ZBYN,1996-08-08 09:00,ZBYN 080900Z AUTO 09014KT 6SM 28/23 A2974 RMK SLP033 T02830226 57005 IEM_DS3505
ZBYN,1996-08-08 10:00,ZBYN 081000Z AUTO 09014KT 7SM 27/22 RMK T02700220 IEM_DS3505
ZBYN,1996-08-08 11:00,ZBYN 081100Z AUTO 08014KT 5SM 25/22 A2980 RMK T02500220 IEM_DS3505
ZBYN,1996-08-08 12:00,ZBYN 081200Z AUTO 00000KT 3SM 23/22 A2980 RMK 60008 SLP054 T02330221 52015 IEM_DS3505
ZBYN,1996-08-08 13:00,ZBYN 081300Z AUTO 09010KT 7SM 23/22 A2983 RMK T02300220 IEM_DS3505
ZBYN,1996-08-08 14:00,ZBYN 081400Z AUTO 05004KT 7SM 23/22 A2983 RMK T02300220 IEM_DS3505
ZBYN,1996-08-08 15:00,ZBYN 081500Z AUTO 34002KT 6SM 23/22 A2983 RMK SLP063 T02340217 52013 IEM_DS3505
ZBYN,1996-08-08 16:00,ZBYN 081600Z AUTO 00000KT 7SM 22/21 A2983 RMK T02200210 IEM_DS3505
ZBYN,1996-08-08 17:00,ZBYN 081700Z AUTO 02006KT 7SM 22/21 A2983 RMK T02200210 IEM_DS3505
ZBYN,1996-08-08 18:00,ZBYN 081800Z AUTO 00000KT 6SM 22/21 A2982 RMK 60000 SLP054 T02200210 57008 IEM_DS3505
ZBYN,1996-08-08 19:00,ZBYN 081900Z AUTO 05004KT 7SM 22/21 A2980 RMK T02200210 IEM_DS3505
ZBYN,1996-08-08 20:00,ZBYN 082000Z AUTO 10006KT 7SM 22/21 A2980 RMK T02200210 IEM_DS3505
ZBYN,1996-08-08 21:00,ZBYN 082100Z AUTO 32002KT 5SM 22/21 A2980 RMK 70008 SLP053 T02190209 57003 IEM_DS3505
ZBYN,1996-08-08 22:00,ZBYN 082200Z AUTO 10006KT 7SM 22/21 A2980 RMK T02200210 IEM_DS3505
ZBYN,1996-08-08 23:00,ZBYN 082300Z AUTO 05006KT 7SM 22/21 A2980 RMK T02200210 IEM_DS3505
ZBYN,1996-08-09 00:00,ZBYN 090000Z AUTO 32002KT 5SM 23/22 A2980 RMK 70008 SLP062 T02270215 52003 IEM_DS3505
ZBYN,1996-08-09 01:00,ZBYN 090100Z AUTO 10008KT 4SM 22/21 A2980 RMK T02200210 IEM_DS3505
ZBYN,1996-08-09 02:00,ZBYN 090200Z AUTO 09008KT 7SM 22/22 A2980 RMK T02200220 IEM_DS3505
ZBYN,1996-08-09 03:00,ZBYN 090300Z AUTO 32004KT 4SM 22/21 A2980 RMK SLP061 T02230214 57002 IEM_DS3505
ZBYN,1996-08-09 04:00,ZBYN 090400Z AUTO 07004KT 7SM 24/22 A2980 RMK T02400220 IEM_DS3505
ZBYN,1996-08-09 05:00,ZBYN 090500Z AUTO 30004KT 7SM 24/22 A2977 RMK T02400220 IEM_DS3505
ZBYN,1996-08-09 06:00,ZBYN 090600Z AUTO 32002KT 3SM 24/22 A2977 RMK 60031 SLP048 T02350222 57012 IEM_DS3505
ZBYN,1996-08-09 07:00,ZBYN 090700Z AUTO 12002KT 6SM 28/23 A2974 RMK T02800230 IEM_DS3505
ZBYN,1996-08-09 08:00,ZBYN 090800Z AUTO 13004KT 7SM 27/24 A2971 RMK T02700240 IEM_DS3505
ZBYN,1996-08-09 09:00,ZBYN 090900Z AUTO 32004KT 5SM 26/23 A2971 RMK SLP027 T02560228 57016 IEM_DS3505
ZBYN,1996-08-09 10:00,ZBYN 091000Z AUTO 11004KT 7SM 23/22 A2971 RMK T02300220 IEM_DS3505
ZBYN,1996-08-09 11:00,ZBYN 091100Z AUTO 09004KT 7SM 22/21 A2971 RMK T02200210 IEM_DS3505
ZBYN,1996-08-09 12:00,ZBYN 091200Z AUTO 34002KT 5SM 23/22 A2971 RMK 60002 SLP029 T02300223 57001 IEM_DS3505
ZBYN,1996-08-09 14:00,ZBYN 091400Z AUTO 17004KT 1 1/4SM 21/21 A2980 RMK T02100210 IEM_DS3505
ZBYN,1996-08-09 15:00,ZBYN 091500Z AUTO 16002KT 4SM 21/20 A2980 RMK SLP058 T02070203 52023 IEM_DS3505
ZBYN,1996-08-09 17:00,ZBYN 091700Z AUTO 00000KT 7SM 20/20 A2977 RMK T02000200 IEM_DS3505
ZBYN,1996-08-09 18:00,ZBYN 091800Z AUTO 00000KT 5SM 20/20 A2974 RMK 60087 SLP043 T02050204 57012 IEM_DS3505
ZBYN,1996-08-09 19:00,ZBYN 091900Z AUTO 00000KT 7SM 21/20 A2974 RMK T02100200 IEM_DS3505
ZBYN,1996-08-09 20:00,ZBYN 092000Z AUTO 00000KT 7SM 21/20 A2974 RMK T02100200 IEM_DS3505
ZBYN,1996-08-09 21:00,ZBYN 092100Z AUTO 00000KT 4SM 21/21 A2974 RMK 70122 SLP037 T02070206 57003 IEM_DS3505
ZBYN,1996-08-09 22:00,ZBYN 092200Z AUTO 32004KT 3SM 21/21 A2977 RMK T02100210 IEM_DS3505
ZBYN,1996-08-09 23:00,ZBYN 092300Z AUTO 33006KT 2SM 20/20 A2977 RMK T02000200 IEM_DS3505
ZBYN,1996-08-10 00:00,ZBYN 100000Z AUTO 32002KT 4SM 20/20 A2980 RMK 60039 SLP058 T02010198 52015 IEM_DS3505
ZBYN,1996-08-10 01:00,ZBYN 100100Z AUTO 03006KT 5SM 20/20 A2980 RMK T02000200 IEM_DS3505
ZBYN,1996-08-10 02:00,ZBYN 100200Z AUTO 03004KT 5SM 21/20 A2980 RMK T02100200 IEM_DS3505
ZBYN,1996-08-10 03:00,ZBYN 100300Z AUTO 34002KT 7SM 22/20 A2980 RMK SLP069 T02250203 52010 IEM_DS3505
ZBYN,1996-08-10 04:00,ZBYN 100400Z AUTO 00000KT 7SM 22/21 A2983 RMK T02200210 IEM_DS3505
ZBYN,1996-08-10 05:00,ZBYN 100500Z AUTO 27004KT 7SM 23/20 A2983 RMK T02300200 IEM_DS3505
ZBYN,1996-08-10 06:00,ZBYN 100600Z AUTO 18004KT 6SM 24/21 A2980 RMK 60016 SLP068 T02350213 54000 IEM_DS3505
ZBYN,1996-08-10 07:00,ZBYN 100700Z AUTO 22004KT 4SM 24/21 A2980 RMK T02400210 IEM_DS3505
ZBYN,1996-08-10 08:00,ZBYN 100800Z AUTO 24008KT 7SM 24/21 A2983 RMK T02400210 IEM_DS3505
ZBYN,1996-08-10 09:00,ZBYN 100900Z AUTO 20004KT 6SM 24/21 A2980 RMK SLP064 T02350213 57003 IEM_DS3505
ZBYN,1996-08-10 10:00,ZBYN 101000Z AUTO 19006KT 4SM 23/21 A2980 RMK T02300210 IEM_DS3505
ZBYN,1996-08-10 11:00,ZBYN 101100Z AUTO 00000KT 4SM 23/21 A2983 RMK T02300210 IEM_DS3505
ZBYN,1996-08-10 12:00,ZBYN 101200Z AUTO 11002KT 5SM 22/21 A2983 RMK SLP074 T02190210 52006 IEM_DS3505
ZBYN,1996-08-10 13:00,ZBYN 101300Z AUTO 00000KT 3SM 22/21 A2985 RMK T02200210 IEM_DS3505
ZBYN,1996-08-10 14:00,ZBYN 101400Z AUTO 00000KT 2 1/2SM 22/21 A2985 RMK T02200210 IEM_DS3505
ZBYN,1996-08-10 15:00,ZBYN 101500Z AUTO 04002KT 5SM 22/21 A2988 RMK SLP085 T02150211 52013 IEM_DS3505
ZBYN,1996-08-10 16:00,ZBYN 101600Z AUTO 11004KT 2SM 22/21 A2985 RMK T02200210 IEM_DS3505
ZBYN,1996-08-10 18:00,ZBYN 101800Z AUTO 00000KT 4SM 21/21 A2988 RMK 60001 SLP089 T02090206 52004 IEM_DS3505
ZBYN,1996-08-10 20:00,ZBYN 102000Z AUTO 00000KT 2SM 21/20 A2988 RMK T02100200 IEM_DS3505
ZBYN,1996-08-10 21:00,ZBYN 102100Z AUTO 11004KT 2SM 20/20 A2988 RMK 70059 SLP089 T02010201 57001 IEM_DS3505
ZBYN,1996-08-10 22:00,ZBYN 102200Z AUTO 00000KT 1 1/2SM 20/19 A2988 RMK T02000190 IEM_DS3505
ZBYN,1996-08-10 23:00,ZBYN 102300Z AUTO 00000KT 1 1/2SM 20/20 A2988 RMK T02000200 IEM_DS3505
ZBYN,1996-08-11 00:00,ZBYN 110000Z AUTO 00000KT 1 1/4SM 20/20 A2991 RMK 60002 70020 SLP099 T02030200 52007 IEM_DS3505
ZBYN,1996-08-11 01:00,ZBYN 110100Z AUTO 00000KT 2SM 22/20 A2991 RMK T02200200 IEM_DS3505
ZBYN,1996-08-11 02:00,ZBYN 110200Z AUTO 00000KT 3SM 24/19 A2991 RMK T02400190 IEM_DS3505
ZBYN,1996-08-11 03:00,ZBYN 110300Z AUTO 32006KT 4SM 26/19 A2991 RMK SLP094 T02570186 52003 IEM_DS3505
ZBYN,1996-08-11 05:00,ZBYN 110500Z AUTO 32006KT 7SM 28/16 A2988 RMK T02800160 IEM_DS3505
ZBYN,1996-08-11 06:00,ZBYN 110600Z AUTO 20006KT 6SM 26/20 A2985 RMK SLP085 T02610197 57009 IEM_DS3505
ZBYN,1996-08-11 07:00,ZBYN 110700Z AUTO 34004KT 7SM 29/17 A2983 RMK T02900170 IEM_DS3505
ZBYN,1996-08-11 08:00,ZBYN 110800Z AUTO 05004KT 7SM 23/21 A2983 RMK T02300210 IEM_DS3505
ZBYN,1996-08-11 09:00,ZBYN 110900Z AUTO 32002KT 9SM 27/19 A2983 RMK SLP073 T02700189 57011 IEM_DS3505
ZBYN,1996-08-11 10:00,ZBYN 111000Z AUTO 28006KT 7SM 27/17 A2983 RMK T02700170 IEM_DS3505
ZBYN,1996-08-11 11:00,ZBYN 111100Z AUTO 21006KT 7SM 25/17 A2985 RMK T02500170 IEM_DS3505
ZBYN,1996-08-11 12:00,ZBYN 111200Z AUTO 14006KT 6SM 22/19 A2985 RMK 60008 SLP085 T02210189 52005 IEM_DS3505
ZBYN,1996-08-11 13:00,ZBYN 111300Z AUTO 13004KT 7SM 21/19 A2988 RMK T02100190 IEM_DS3505
ZBYN,1996-08-11 14:00,ZBYN 111400Z AUTO 08004KT 7SM 20/19 A2988 RMK T02000190 IEM_DS3505
ZBYN,1996-08-11 15:00,ZBYN 111500Z AUTO 04002KT 6SM 19/18 A2988 RMK SLP091 T01910182 52009 IEM_DS3505
ZBYN,1996-08-11 16:00,ZBYN 111600Z AUTO 00000KT 7SM 18/18 A2988 RMK T01800180 IEM_DS3505
ZBYN,1996-08-11 18:00,ZBYN 111800Z AUTO 00000KT 6SM 18/17 A2988 RMK SLP092 T01750172 57001 IEM_DS3505
ZBYN,1996-08-11 19:00,ZBYN 111900Z AUTO 00000KT 7SM 17/17 A2988 RMK T01700170 IEM_DS3505
ZBYN,1996-08-11 20:00,ZBYN 112000Z AUTO 00000KT 7SM 17/16 A2988 RMK T01700160 IEM_DS3505
ZBYN,1996-08-11 21:00,ZBYN 112100Z AUTO 09002KT 4SM 16/16 A2988 RMK 70008 SLP091 T01630161 57002 IEM_DS3505
ZBYN,1996-08-11 22:00,ZBYN 112200Z AUTO 00000KT 4SM 16/16 A2988 RMK T01600160 IEM_DS3505
ZBYN,1996-08-11 23:00,ZBYN 112300Z AUTO 08004KT 4SM 16/16 A2991 RMK T01600160 IEM_DS3505
ZBYN,1996-08-12 00:00,ZBYN 120000Z AUTO 00000KT 4SM 20/18 A2991 RMK 70008 SLP102 T01990177 52009 IEM_DS3505
ZBYN,1996-08-12 01:00,ZBYN 120100Z AUTO 00000KT 4SM 21/18 A2991 RMK T02100180 IEM_DS3505
ZBYN,1996-08-12 02:00,ZBYN 120200Z AUTO 14006KT 7SM 24/19 A2991 RMK T02400190 IEM_DS3505
ZBYN,1996-08-12 03:00,ZBYN 120300Z AUTO 16004KT 4SM 26/19 A2988 RMK SLP091 T02550187 57007 IEM_DS3505
ZBYN,1996-08-12 04:00,ZBYN 120400Z AUTO 20004KT 7SM 27/19 A2988 RMK T02700190 IEM_DS3505
ZBYN,1996-08-12 05:00,ZBYN 120500Z AUTO 16006KT 7SM 28/19 A2985 RMK T02800190 IEM_DS3505
ZBYN,1996-08-12 06:00,ZBYN 120600Z AUTO 20004KT 5SM 28/19 A2983 RMK SLP069 T02750192 57019 IEM_DS3505
ZBYN,1996-08-12 07:00,ZBYN 120700Z AUTO 22008KT 7SM 30/19 A2980 RMK T03000190 IEM_DS3505
ZBYN,1996-08-12 08:00,ZBYN 120800Z AUTO 18008KT 7SM 30/18 A2980 RMK T03000180 IEM_DS3505
ZBYN,1996-08-12 09:00,ZBYN 120900Z AUTO 20006KT 9SM 28/19 A2980 RMK SLP055 T02810188 57014 IEM_DS3505
ZBYN,1996-08-12 10:00,ZBYN 121000Z AUTO 23008KT 7SM 28/18 A2977 RMK T02800180 IEM_DS3505
ZBYN,1996-08-12 11:00,ZBYN 121100Z AUTO 22006KT 7SM 26/19 A2977 RMK T02600190 IEM_DS3505
ZBYN,1996-08-12 12:00,ZBYN 121200Z AUTO 25004KT 9SM 23/19 A2977 RMK SLP059 T02270186 52001 IEM_DS3505
ZBYN,1996-08-12 13:00,ZBYN 121300Z AUTO 30004KT 7SM 23/19 A2980 RMK T02300190 IEM_DS3505
ZBYN,1996-08-12 14:00,ZBYN 121400Z AUTO 09006KT 7SM 21/19 A2980 RMK T02100190 IEM_DS3505
ZBYN,1996-08-12 15:00,ZBYN 121500Z AUTO 16004KT 6SM 20/18 A2980 RMK SLP065 T01970183 52009 IEM_DS3505
ZBYN,1996-08-12 16:00,ZBYN 121600Z AUTO 13004KT 7SM 20/19 A2983 RMK T02000190 IEM_DS3505
ZBYN,1996-08-12 18:00,ZBYN 121800Z AUTO 00000KT 6SM 18/18 A2980 RMK SLP064 T01770175 57001 IEM_DS3505
ZBYN,1996-08-12 20:00,ZBYN 122000Z AUTO 12004KT 7SM 18/17 A2980 RMK T01800170 IEM_DS3505
ZBYN,1996-08-12 21:00,ZBYN 122100Z AUTO 32002KT 6SM 17/16 A2980 RMK SLP057 T01730162 57006 IEM_DS3505
ZBYN,1996-08-12 22:00,ZBYN 122200Z AUTO 08002KT 4SM 17/16 A2980 RMK T01700160 IEM_DS3505
ZBYN,1996-08-12 23:00,ZBYN 122300Z AUTO 00000KT 4SM 17/16 A2980 RMK T01700160 IEM_DS3505
ZBYN,1996-08-13 00:00,ZBYN 130000Z AUTO 00000KT 5SM 19/16 A2980 RMK T01930163 52003 IEM_DS3505
ZBYN,1996-08-13 01:00,ZBYN 130100Z AUTO 00000KT 4SM 21/18 A2980 RMK T02100180 IEM_DS3505
ZBYN,1996-08-13 02:00,ZBYN 130200Z AUTO 00000KT 5SM 23/18 A2980 RMK T02300180 IEM_DS3505
ZBYN,1996-08-13 03:00,ZBYN 130300Z AUTO 18006KT 6SM 25/18 A2980 RMK SLP059 T02540181 57001 IEM_DS3505
ZBYN,1996-08-13 04:00,ZBYN 130400Z AUTO 00000KT 7SM 28/19 A2977 RMK T02800190 IEM_DS3505
ZBYN,1996-08-13 05:00,ZBYN 130500Z AUTO 00000KT 7SM 29/19 A2974 RMK T02900190 IEM_DS3505
ZBYN,1996-08-13 06:00,ZBYN 130600Z AUTO 18008KT 6SM 28/19 A2974 RMK SLP037 T02840194 57019 IEM_DS3505
ZBYN,1996-08-13 07:00,ZBYN 130700Z AUTO 17010KT 7SM 29/18 RMK T02900180 IEM_DS3505
ZBYN,1996-08-13 08:00,ZBYN 130800Z AUTO 08016KT 7SM A2974 RMK IEM_DS3505
ZBYN,1996-08-13 09:00,ZBYN 130900Z AUTO 11006KT 6SM 25/17 A2971 RMK SLP035 T02500166 57007 IEM_DS3505
ZBYN,1996-08-13 10:00,ZBYN 131000Z AUTO 06004KT 7SM 24/21 A2971 RMK T02400210 IEM_DS3505
ZBYN,1996-08-13 11:00,ZBYN 131100Z AUTO 09008KT 7SM 23/19 A2971 RMK T02300190 IEM_DS3505
ZBYN,1996-08-13 12:00,ZBYN 131200Z AUTO 18002KT 6SM 22/16 A2974 RMK 60000 SLP044 T02190162 52007 IEM_DS3505
ZBYN,1996-08-13 13:00,ZBYN 131300Z AUTO 00000KT 7SM 20/18 A2977 RMK T02000180 IEM_DS3505
ZBYN,1996-08-13 14:00,ZBYN 131400Z AUTO 09004KT 7SM 20/19 A2977 RMK T02000190 IEM_DS3505
ZBYN,1996-08-13 15:00,ZBYN 131500Z AUTO 32004KT 6SM 19/17 A2977 RMK SLP054 T01860172 52013 IEM_DS3505
ZBYN,1996-08-13 16:00,ZBYN 131600Z AUTO 09006KT 7SM 20/18 A2980 RMK T02000180 IEM_DS3505
ZBYN,1996-08-13 17:00,ZBYN 131700Z AUTO 00000KT 7SM 20/18 A2980 RMK T02000180 IEM_DS3505
ZBYN,1996-08-13 18:00,ZBYN 131800Z AUTO 34006KT 6SM 18/17 A2980 RMK SLP051 T01850166 52001 IEM_DS3505
ZBYN,1996-08-13 19:00,ZBYN 131900Z AUTO 00000KT 7SM 18/17 A2980 RMK T01800170 IEM_DS3505
ZBYN,1996-08-13 20:00,ZBYN 132000Z AUTO 00000KT 7SM 18/17 A2980 RMK T01800170 IEM_DS3505
ZBYN,1996-08-13 21:00,ZBYN 132100Z AUTO 34004KT 6SM 18/16 A2980 RMK 70001 SLP058 T01790158 52001 IEM_DS3505
ZBYN,1996-08-13 22:00,ZBYN 132200Z AUTO 00000KT 1 1/4SM 17/16 A2980 RMK T01700160 IEM_DS3505
ZBYN,1996-08-13 23:00,ZBYN 132300Z AUTO 18002KT 1 1/4SM 18/17 A2980 RMK T01800170 IEM_DS3505
ZBYN,1996-08-14 00:00,ZBYN 140000Z AUTO 07002KT 6SM 20/17 A2980 RMK 70001 SLP068 T01990166 52007 IEM_DS3505
ZBYN,1996-08-14 01:00,ZBYN 140100Z AUTO 00000KT 3SM 21/18 A2980 RMK T02100180 IEM_DS3505
ZBYN,1996-08-14 02:00,ZBYN 140200Z AUTO 13004KT 5SM 23/18 A2980 RMK T02300180 IEM_DS3505
ZBYN,1996-08-14 03:00,ZBYN 140300Z AUTO 14002KT 5SM 25/17 A2980 RMK SLP063 T02530169 57001 IEM_DS3505
ZBYN,1996-08-14 04:00,ZBYN 140400Z AUTO 00000KT 7SM 26/19 A2980 RMK T02600190 IEM_DS3505
ZBYN,1996-08-14 05:00,ZBYN 140500Z AUTO 00000KT 7SM 28/17 A2977 RMK T02800170 IEM_DS3505
ZBYN,1996-08-14 06:00,ZBYN 140600Z AUTO 18004KT 5SM 28/19 A2977 RMK SLP047 T02830186 57011 IEM_DS3505
ZBYN,1996-08-14 07:00,ZBYN 140700Z AUTO 00000KT 7SM 30/21 A2974 RMK T03000210 IEM_DS3505
ZBYN,1996-08-14 08:00,ZBYN 140800Z AUTO 00000KT 7SM 30/18 A2974 RMK T03000180 IEM_DS3505
ZBYN,1996-08-14 09:00,ZBYN 140900Z AUTO 20004KT 5SM 28/18 A2974 RMK SLP040 T02840178 57007 IEM_DS3505
ZBYN,1996-08-14 10:00,ZBYN 141000Z AUTO 26004KT 7SM 29/19 A2974 RMK T02900190 IEM_DS3505
ZBYN,1996-08-14 11:00,ZBYN 141100Z AUTO 32004KT 7SM 27/18 A2974 RMK T02700180 IEM_DS3505
ZBYN,1996-08-14 12:00,ZBYN 141200Z AUTO 00000KT 9SM 23/19 A2977 RMK SLP050 T02310187 52005 IEM_DS3505
ZBYN,1996-08-14 13:00,ZBYN 141300Z AUTO 07006KT 7SM 23/20 A2980 RMK T02300200 IEM_DS3505
ZBYN,1996-08-14 14:00,ZBYN 141400Z AUTO 09006KT 7SM 22/19 A2980 RMK T02200190 IEM_DS3505
ZBYN,1996-08-14 15:00,ZBYN 141500Z AUTO 34004KT 7SM 21/17 A2983 RMK SLP067 T02070167 52019 IEM_DS3505
ZBYN,1996-08-14 17:00,ZBYN 141700Z AUTO 00000KT 7SM 20/18 A2983 RMK T02000180 IEM_DS3505
ZBYN,1996-08-14 18:00,ZBYN 141800Z AUTO 34004KT 7SM 19/16 A2983 RMK SLP067 T01910160 52002 IEM_DS3505
ZBYN,1996-08-14 19:00,ZBYN 141900Z AUTO 00000KT 7SM 19/18 A2983 RMK T01900180 IEM_DS3505
ZBYN,1996-08-14 20:00,ZBYN 142000Z AUTO 00000KT 7SM 19/18 A2983 RMK T01900180 IEM_DS3505
ZBYN,1996-08-14 21:00,ZBYN 142100Z AUTO 32004KT 7SM 18/16 A2985 RMK SLP070 T01790161 52001 IEM_DS3505
ZBYN,1996-08-14 22:00,ZBYN 142200Z AUTO 00000KT 4SM 18/17 A2985 RMK T01800170 IEM_DS3505
ZBYN,1996-08-14 23:00,ZBYN 142300Z AUTO 00000KT 4SM 18/17 A2985 RMK T01800170 IEM_DS3505
ZBYN,1996-08-15 00:00,ZBYN 150000Z AUTO 36006KT 6SM 20/16 A2988 RMK SLP088 T01970165 52012 IEM_DS3505
ZBYN,1996-08-15 01:00,ZBYN 150100Z AUTO 04002KT 4SM 22/19 A2988 RMK T02200190 IEM_DS3505
ZBYN,1996-08-15 02:00,ZBYN 150200Z AUTO 00000KT 7SM 24/19 A2988 RMK T02400190 IEM_DS3505
ZBYN,1996-08-15 03:00,ZBYN 150300Z AUTO 18002KT 7SM 26/20 A2985 RMK T02600200 IEM_DS3505
ZBYN,1996-08-15 05:00,ZBYN 150500Z AUTO 18004KT 7SM 29/21 A2983 RMK T02900210 IEM_DS3505
ZBYN,1996-08-15 06:00,ZBYN 150600Z AUTO 16004KT 6SM 29/20 A2983 RMK SLP062 T02890203 57016 IEM_DS3505
ZBYN,1996-08-15 07:00,ZBYN 150700Z AUTO 00000KT 7SM 31/21 A2980 RMK T03100210 IEM_DS3505
ZBYN,1996-08-15 08:00,ZBYN 150800Z AUTO 00000KT 7SM 31/22 A2980 RMK T03100220 IEM_DS3505
ZBYN,1996-08-15 09:00,ZBYN 150900Z AUTO 14004KT 6SM 30/20 A2980 RMK SLP050 T02960199 57011 IEM_DS3505
ZBYN,1996-08-15 10:00,ZBYN 151000Z AUTO 12004KT 7SM 30/23 A2980 RMK T03000230 IEM_DS3505
ZBYN,1996-08-15 11:00,ZBYN 151100Z AUTO 11008KT 7SM 27/22 A2980 RMK T02700220 IEM_DS3505
ZBYN,1996-08-15 12:00,ZBYN 151200Z AUTO 11008KT 6SM 25/20 A2980 RMK SLP064 T02510201 52009 IEM_DS3505
ZBYN,1996-08-15 13:00,ZBYN 151300Z AUTO 07010KT 5SM 24/22 A2983 RMK T02400220 IEM_DS3505
ZBYN,1996-08-15 14:00,ZBYN 151400Z AUTO 11012KT 5SM 24/21 A2985 RMK T02400210 IEM_DS3505
ZBYN,1996-08-15 15:00,ZBYN 151500Z AUTO 32004KT 6SM 24/20 A2985 RMK SLP077 T02380205 52019 IEM_DS3505
ZBYN,1996-08-15 16:00,ZBYN 151600Z AUTO 08006KT 7SM 23/21 A2988 RMK T02300210 IEM_DS3505
ZBYN,1996-08-15 17:00,ZBYN 151700Z AUTO 00000KT 7SM 22/21 A2988 RMK T02200210 IEM_DS3505
ZBYN,1996-08-15 18:00,ZBYN 151800Z AUTO 00000KT 6SM 22/20 A2989 RMK SLP077 T02250196 52002 IEM_DS3505
ZBYN,1996-08-15 19:00,ZBYN 151900Z AUTO 09002KT 7SM 21/20 A2988 RMK T02100200 IEM_DS3505
ZBYN,1996-08-15 20:00,ZBYN 152000Z AUTO 00000KT 7SM 21/20 A2988 RMK T02100200 IEM_DS3505
ZBYN,1996-08-15 21:00,ZBYN 152100Z AUTO 32004KT 5SM 21/19 A2988 RMK SLP080 T02070193 52001 IEM_DS3505
ZBYN,1996-08-15 22:00,ZBYN 152200Z AUTO 00000KT 1 1/2SM 20/19 A2988 RMK T02000190 IEM_DS3505
ZBYN,1996-08-15 23:00,ZBYN 152300Z AUTO 00000KT 1 1/4SM 21/20 A2988 RMK T02100200 IEM_DS3505
ZBYN,1996-08-16 00:00,ZBYN 160000Z AUTO 00000KT 5SM 22/21 A2991 RMK SLP094 T02220206 52009 IEM_DS3505
ZBYN,1996-08-16 01:00,ZBYN 160100Z AUTO 00000KT 2SM 24/21 A2991 RMK T02400210 IEM_DS3505
ZBYN,1996-08-16 02:00,ZBYN 160200Z AUTO 00000KT 4SM 26/21 A2991 RMK T02600210 IEM_DS3505
ZBYN,1996-08-16 03:00,ZBYN 160300Z AUTO 00000KT 5SM 27/20 A2991 RMK SLP086 T02690204 57003 IEM_DS3505
ZBYN,1996-08-16 04:00,ZBYN 160400Z AUTO 00000KT 5SM 29/21 A2988 RMK T02900210 IEM_DS3505
ZBYN,1996-08-16 05:00,ZBYN 160500Z AUTO 14004KT 6SM 30/22 A2988 RMK T03000220 IEM_DS3505
ZBYN,1996-08-16 06:00,ZBYN 160600Z AUTO 09002KT 6SM 30/19 A2985 RMK SLP069 T02960194 57014 IEM_DS3505
ZBYN,1996-08-16 07:00,ZBYN 160700Z AUTO 12004KT 7SM 32/22 A2983 RMK T03200220 IEM_DS3505
ZBYN,1996-08-16 08:00,ZBYN 160800Z AUTO 20002KT 7SM 32/20 A2983 RMK T03200200 IEM_DS3505
ZBYN,1996-08-16 09:00,ZBYN 160900Z AUTO 18004KT 6SM 30/20 A2983 RMK SLP057 T03030197 57012 IEM_DS3505
ZBYN,1996-08-16 10:00,ZBYN 161000Z AUTO 12006KT 7SM 30/23 A2983 RMK T03000230 IEM_DS3505
ZBYN,1996-08-16 11:00,ZBYN 161100Z AUTO 12006KT 7SM 27/23 A2983 RMK T02700230 IEM_DS3505
ZBYN,1996-08-16 12:00,ZBYN 161200Z AUTO 09008KT 6SM 26/22 A2984 RMK SLP066 T02590216 52004 IEM_DS3505
ZBYN,1996-08-16 14:00,ZBYN 161400Z AUTO 07008KT 6SM 24/21 A2985 RMK T02400210 IEM_DS3505
ZBYN,1996-08-16 15:00,ZBYN 161500Z AUTO 00000KT 6SM 24/20 A2988 RMK SLP071 T02430200 52009 IEM_DS3505
ZBYN,1996-08-16 16:00,ZBYN 161600Z AUTO 09010KT 6SM 23/21 A2988 RMK T02300210 IEM_DS3505
ZBYN,1996-08-16 17:00,ZBYN 161700Z AUTO 09004KT 6SM 22/20 A2988 RMK T02200200 IEM_DS3505
ZBYN,1996-08-16 18:00,ZBYN 161800Z AUTO 00000KT 6SM 21/20 A2989 RMK SLP081 T02090195 52008 IEM_DS3505
ZBYN,1996-08-16 20:00,ZBYN 162000Z AUTO 00000KT 6SM 20/19 A2988 RMK T02000190 IEM_DS3505
ZBYN,1996-08-16 21:00,ZBYN 162100Z AUTO 34002KT 6SM 19/18 RMK SLP086 T01910185 52003 IEM_DS3505
ZBYN,1996-08-16 22:00,ZBYN 162200Z AUTO 09006KT 2 1/2SM 20/19 A2991 RMK T02000190 IEM_DS3505
ZBYN,1996-08-16 23:00,ZBYN 162300Z AUTO 06004KT 2 1/2SM 20/19 A2991 RMK T02000190 IEM_DS3505
ZBYN,1996-08-17 00:00,ZBYN 170000Z AUTO 32004KT 4SM 22/20 A2994 RMK SLP100 T02180202 52011 IEM_DS3505
ZBYN,1996-08-17 01:00,ZBYN 170100Z AUTO 00000KT 4SM 24/21 A2994 RMK T02400210 IEM_DS3505
ZBYN,1996-08-17 02:00,ZBYN 170200Z AUTO 16004KT 4SM 26/20 A2994 RMK T02600200 IEM_DS3505
ZBYN,1996-08-17 04:00,ZBYN 170400Z AUTO 18006KT 7SM 28/20 A2991 RMK T02800200 IEM_DS3505
ZBYN,1996-08-17 05:00,ZBYN 170500Z AUTO 15004KT 7SM 30/19 A2991 RMK T03000190 IEM_DS3505
ZBYN,1996-08-17 06:00,ZBYN 170600Z AUTO 16008KT 6SM 29/19 A2988 RMK SLP086 T02910186 57010 IEM_DS3505
ZBYN,1996-08-17 07:00,ZBYN 170700Z AUTO 20006KT 7SM 31/18 A2988 RMK T03100180 IEM_DS3505
ZBYN,1996-08-17 08:00,ZBYN 170800Z AUTO 18006KT 7SM 31/17 A2985 RMK T03100170 IEM_DS3505
ZBYN,1996-08-17 09:00,ZBYN 170900Z AUTO 18004KT 6SM 30/19 A2985 RMK SLP076 T02960191 57011 IEM_DS3505
ZBYN,1996-08-17 10:00,ZBYN 171000Z AUTO 15004KT 7SM 29/21 A2985 RMK T02900210 IEM_DS3505
ZBYN,1996-08-17 11:00,ZBYN 171100Z AUTO 00000KT 7SM 26/21 A2988 RMK T02600210 IEM_DS3505
ZBYN,1996-08-17 12:00,ZBYN 171200Z AUTO 09004KT 7SM 24/22 A2988 RMK SLP088 T02380215 52007 IEM_DS3505
ZBYN,1996-08-17 13:00,ZBYN 171300Z AUTO 10008KT 2 1/2SM 24/21 A2991 RMK T02400210 IEM_DS3505
ZBYN,1996-08-17 14:00,ZBYN 171400Z AUTO 10006KT 2 1/2SM 24/22 A2994 RMK T02400220 IEM_DS3505
ZBYN,1996-08-17 15:00,ZBYN 171500Z AUTO 32004KT 6SM 22/21 A2994 RMK SLP107 T02210211 52022 IEM_DS3505
ZBYN,1996-08-17 16:00,ZBYN 171600Z AUTO 12004KT 2 1/2SM 22/20 A2994 RMK T02200200 IEM_DS3505
ZBYN,1996-08-17 17:00,ZBYN 171700Z AUTO 00000KT 2 1/2SM 21/20 A2994 RMK T02100200 IEM_DS3505
ZBYN,1996-08-17 18:00,ZBYN 171800Z AUTO 00000KT 6SM 20/19 A2994 RMK SLP104 T02050194 57002 IEM_DS3505
ZBYN,1996-08-17 19:00,ZBYN 171900Z AUTO 10006KT 2 1/2SM 20/19 A2994 RMK T02000190 IEM_DS3505
ZBYN,1996-08-17 20:00,ZBYN 172000Z AUTO 36006KT 2 1/2SM 20/19 A2997 RMK T02000190 IEM_DS3505
ZBYN,1996-08-17 21:00,ZBYN 172100Z AUTO 00000KT 5SM 18/18 A2997 RMK SLP111 T01850180 52004 IEM_DS3505
ZBYN,1996-08-17 22:00,ZBYN 172200Z AUTO 00000KT 3SM 19/18 A2997 RMK T01900180 IEM_DS3505
ZBYN,1996-08-18 00:00,ZBYN 180000Z AUTO 32002KT 4SM 22/20 A2997 RMK SLP119 T02150203 52004 IEM_DS3505
ZBYN,1996-08-18 01:00,ZBYN 180100Z AUTO 00000KT 7SM 23/19 A3000 RMK T02300190 IEM_DS3505
ZBYN,1996-08-18 02:00,ZBYN 180200Z AUTO 14004KT 7SM 25/19 A3000 RMK T02500190 IEM_DS3505
ZBYN,1996-08-18 03:00,ZBYN 180300Z AUTO 14002KT 4SM 27/18 A2997 RMK SLP117 T02670185 52003 IEM_DS3505
ZBYN,1996-08-18 04:00,ZBYN 180400Z AUTO 12006KT 7SM 28/20 A2997 RMK T02800200 IEM_DS3505
ZBYN,1996-08-18 05:00,ZBYN 180500Z AUTO 15004KT 7SM 29/19 A2994 RMK T02900190 IEM_DS3505
ZBYN,1996-08-18 06:00,ZBYN 180600Z AUTO 20004KT 4SM 30/19 A2991 RMK SLP094 T02950191 57020 IEM_DS3505
ZBYN,1996-08-18 07:00,ZBYN 180700Z AUTO 19006KT 7SM 31/19 A2991 RMK T03100190 IEM_DS3505
ZBYN,1996-08-18 08:00,ZBYN 180800Z AUTO 20006KT 7SM 31/19 A2988 RMK T03100190 IEM_DS3505
ZBYN,1996-08-18 09:00,ZBYN 180900Z AUTO 00000KT 4SM 30/18 A2988 RMK SLP082 T03000183 57013 IEM_DS3505
ZBYN,1996-08-18 10:00,ZBYN 181000Z AUTO 00000KT 7SM 29/21 A2988 RMK T02900210 IEM_DS3505
ZBYN,1996-08-18 11:00,ZBYN 181100Z AUTO 13004KT 7SM 26/21 A2988 RMK T02600210 IEM_DS3505
ZBYN,1996-08-18 12:00,ZBYN 181200Z AUTO 09006KT 4SM 25/21 A2991 RMK SLP092 T02500206 52007 IEM_DS3505
ZBYN,1996-08-18 13:00,ZBYN 181300Z AUTO 11004KT 7SM 24/21 A2991 RMK T02400210 IEM_DS3505
ZBYN,1996-08-18 14:00,ZBYN 181400Z AUTO 11006KT 7SM 23/21 A2994 RMK T02300210 IEM_DS3505
ZBYN,1996-08-18 15:00,ZBYN 181500Z AUTO 00000KT 4SM 22/21 A2994 RMK SLP104 T02210208 52014 IEM_DS3505
ZBYN,1996-08-18 16:00,ZBYN 181600Z AUTO 12004KT 7SM 22/20 A2994 RMK T02200200 IEM_DS3505
ZBYN,1996-08-18 18:00,ZBYN 181800Z AUTO 00000KT 4SM 20/19 A2994 RMK SLP104 T02030192 52001 IEM_DS3505
ZBYN,1996-08-18 19:00,ZBYN 181900Z AUTO 10004KT 5SM 21/20 A2994 RMK T02100200 IEM_DS3505
ZBYN,1996-08-18 20:00,ZBYN 182000Z AUTO 00000KT 5SM 20/19 A2994 RMK T02000190 IEM_DS3505
ZBYN,1996-08-18 21:00,ZBYN 182100Z AUTO 18004KT 4SM 19/18 RMK SLP109 T01870179 52003 IEM_DS3505
ZBYN,1996-08-18 22:00,ZBYN 182200Z AUTO 00000KT 3SM 19/18 A2997 RMK T01900180 IEM_DS3505
ZBYN,1996-08-18 23:00,ZBYN 182300Z AUTO 00000KT 3SM 19/18 A2997 RMK T01900180 IEM_DS3505
ZBYN,1996-08-19 00:00,ZBYN 190000Z AUTO 22002KT 5SM 22/19 A3000 RMK SLP120 T02150191 52007 IEM_DS3505
ZBYN,1996-08-19 01:00,ZBYN 190100Z AUTO 00000KT 7SM 22/19 A3000 RMK T02200190 IEM_DS3505
ZBYN,1996-08-19 02:00,ZBYN 190200Z AUTO 00000KT 7SM 24/19 A3000 RMK T02400190 IEM_DS3505
ZBYN,1996-08-19 03:00,ZBYN 190300Z AUTO 16006KT 6SM 26/19 A3000 RMK SLP120 T02620192 52003 IEM_DS3505
ZBYN,1996-08-19 04:00,ZBYN 190400Z AUTO 00000KT 7SM 28/19 A2997 RMK T02800190 IEM_DS3505
ZBYN,1996-08-19 05:00,ZBYN 190500Z AUTO 23004KT 7SM 29/18 A2994 RMK T02900180 IEM_DS3505
ZBYN,1996-08-19 06:00,ZBYN 190600Z AUTO 14004KT 6SM 29/19 A2994 RMK SLP099 T02880191 57018 IEM_DS3505
ZBYN,1996-08-19 07:00,ZBYN 190700Z AUTO 27004KT 7SM 30/17 A2991 RMK T03000170 IEM_DS3505
ZBYN,1996-08-19 08:00,ZBYN 190800Z AUTO 21006KT 7SM 30/17 A2991 RMK T03000170 IEM_DS3505
ZBYN,1996-08-19 09:00,ZBYN 190900Z AUTO 20004KT 6SM 29/18 A2988 RMK SLP088 T02900176 57012 IEM_DS3505
ZBYN,1996-08-19 10:00,ZBYN 191000Z AUTO 23002KT 7SM 29/18 A2988 RMK T02900180 IEM_DS3505
ZBYN,1996-08-19 11:00,ZBYN 191100Z AUTO 00000KT 7SM 26/17 A2988 RMK T02600170 IEM_DS3505
ZBYN,1996-08-19 12:00,ZBYN 191200Z AUTO 07004KT 9SM 22/21 A2991 RMK SLP099 T02250207 52005 IEM_DS3505
ZBYN,1996-08-19 13:00,ZBYN 191300Z AUTO 09004KT 7SM 23/18 A2991 RMK T02300180 IEM_DS3505
ZBYN,1996-08-19 14:00,ZBYN 191400Z AUTO 09006KT 7SM 23/18 A2994 RMK T02300180 IEM_DS3505
ZBYN,1996-08-19 15:00,ZBYN 191500Z AUTO 02004KT 6SM 21/20 A2994 RMK SLP106 T02120198 52011 IEM_DS3505
ZBYN,1996-08-19 16:00,ZBYN 191600Z AUTO 09008KT 7SM 22/18 A2994 RMK T02200180 IEM_DS3505
ZBYN,1996-08-19 18:00,ZBYN 191800Z AUTO 00000KT 6SM 20/19 A2996 RMK SLP106 T01970186 52001 IEM_DS3505
ZBYN,1996-08-19 21:00,ZBYN 192100Z AUTO 00000KT 5SM 18/18 RMK SLP111 T01780175 52003 IEM_DS3505
ZBYN,1996-08-19 22:00,ZBYN 192200Z AUTO 00000KT 4SM 19/18 A2997 RMK T01900180 IEM_DS3505
ZBYN,1996-08-19 23:00,ZBYN 192300Z AUTO 00000KT 3SM 19/18 A2997 RMK T01900180 IEM_DS3505
ZBYN,1996-08-20 00:00,ZBYN 200000Z AUTO 02002KT 5SM 21/20 A3000 RMK SLP128 T02130199 52011 IEM_DS3505
ZBYN,1996-08-20 01:00,ZBYN 200100Z AUTO 11004KT 4SM 24/21 A3000 RMK T02400210 IEM_DS3505
ZBYN,1996-08-20 02:00,ZBYN 200200Z AUTO 11004KT 4SM 25/20 A3000 RMK T02500200 IEM_DS3505
ZBYN,1996-08-20 03:00,ZBYN 200300Z AUTO 14006KT 4SM 26/19 A3000 RMK SLP124 T02610187 52001 IEM_DS3505
ZBYN,1996-08-20 04:00,ZBYN 200400Z AUTO 14008KT 6SM 28/19 A2997 RMK T02800190 IEM_DS3505
ZBYN,1996-08-20 05:00,ZBYN 200500Z AUTO 15004KT 6SM 29/19 A2997 RMK T02900190 IEM_DS3505
ZBYN,1996-08-20 06:00,ZBYN 200600Z AUTO 14004KT 6SM 28/16 A2997 RMK SLP115 T02850162 57007 IEM_DS3505
ZBYN,1996-08-20 07:00,ZBYN 200700Z AUTO 12006KT 7SM 30/20 A2994 RMK T03000200 IEM_DS3505
ZBYN,1996-08-20 08:00,ZBYN 200800Z AUTO 11006KT 7SM 30/20 A2991 RMK T03000200 IEM_DS3505
ZBYN,1996-08-20 09:00,ZBYN 200900Z AUTO 09008KT 7SM 28/17 A2991 RMK SLP105 T02790170 57012 IEM_DS3505
ZBYN,1996-08-20 10:00,ZBYN 201000Z AUTO 11010KT 6SM 27/20 A2991 RMK T02700200 IEM_DS3505
ZBYN,1996-08-20 11:00,ZBYN 201100Z AUTO 11010KT 6SM 25/19 A2994 RMK T02500190 IEM_DS3505
ZBYN,1996-08-20 12:00,ZBYN 201200Z AUTO 09010KT 6SM 24/18 A2997 RMK SLP116 T02400185 52009 IEM_DS3505
ZBYN,1996-08-20 13:00,ZBYN 201300Z AUTO 12008KT 6SM 23/20 A3000 RMK T02300200 IEM_DS3505
ZBYN,1996-08-20 14:00,ZBYN 201400Z AUTO 08010KT 6SM 22/19 A3000 RMK T02200190 IEM_DS3505
ZBYN,1996-08-20 15:00,ZBYN 201500Z AUTO 09006KT 6SM 23/18 A3000 RMK SLP127 T02280180 52015 IEM_DS3505
ZBYN,1996-08-20 16:00,ZBYN 201600Z AUTO 10012KT 6SM 22/19 A3000 RMK T02200190 IEM_DS3505
ZBYN,1996-08-20 17:00,ZBYN 201700Z AUTO 08010KT 6SM 21/18 A3003 RMK T02100180 IEM_DS3505
ZBYN,1996-08-20 18:00,ZBYN 201800Z AUTO 09006KT 6SM 22/18 A3003 RMK SLP131 T02160177 52005 IEM_DS3505
ZBYN,1996-08-20 19:00,ZBYN 201900Z AUTO 09006KT 6SM 20/17 A3003 RMK T02000170 IEM_DS3505
ZBYN,1996-08-20 20:00,ZBYN 202000Z AUTO 10010KT 6SM 19/17 A3003 RMK T01900170 IEM_DS3505
ZBYN,1996-08-20 21:00,ZBYN 202100Z AUTO 00000KT 6SM 19/17 A3003 RMK SLP134 T01890170 57001 IEM_DS3505
ZBYN,1996-08-20 22:00,ZBYN 202200Z AUTO 08006KT 6SM 19/18 A3006 RMK T01900180 IEM_DS3505
ZBYN,1996-08-20 23:00,ZBYN 202300Z AUTO 09008KT 6SM 19/18 A3003 RMK T01900180 IEM_DS3505
ZBYN,1996-08-21 00:00,ZBYN 210000Z AUTO 09008KT 5SM 21/18 A3006 RMK SLP144 T02090178 52006 IEM_DS3505
ZBYN,1996-08-21 01:00,ZBYN 210100Z AUTO 08008KT 5SM 21/19 A3006 RMK T02100190 IEM_DS3505
ZBYN,1996-08-21 02:00,ZBYN 210200Z AUTO 07010KT 7SM 21/19 A3006 RMK T02100190 IEM_DS3505
ZBYN,1996-08-21 03:00,ZBYN 210300Z AUTO 11010KT 5SM 24/19 A3006 RMK SLP142 T02410190 52001 IEM_DS3505
ZBYN,1996-08-21 04:00,ZBYN 210400Z AUTO 09006KT 6SM 26/20 A3003 RMK T02600200 IEM_DS3505
ZBYN,1996-08-21 05:00,ZBYN 210500Z AUTO 10008KT 6SM 26/20 A3000 RMK T02600200 IEM_DS3505
ZBYN,1996-08-21 06:00,ZBYN 210600Z AUTO 09006KT 6SM 26/21 A2997 RMK SLP117 T02590211 57022 IEM_DS3505
ZBYN,1996-08-21 08:00,ZBYN 210800Z AUTO 08014KT 6SM 26/20 A2994 RMK T02600200 IEM_DS3505
ZBYN,1996-08-21 09:00,ZBYN 210900Z AUTO 07004KT 6SM 24/20 A2994 RMK SLP112 T02420203 57011 IEM_DS3505
ZBYN,1996-08-21 10:00,ZBYN 211000Z AUTO 08010KT 7SM 22/18 A2994 RMK T02200180 IEM_DS3505
ZBYN,1996-08-21 11:00,ZBYN 211100Z AUTO 10010KT 7SM 21/18 A2994 RMK T02100180 IEM_DS3505
ZBYN,1996-08-21 12:00,ZBYN 211200Z AUTO 07004KT 6SM 23/20 A2994 RMK SLP114 T02270195 52003 IEM_DS3505
ZBYN,1996-08-21 13:00,ZBYN 211300Z AUTO 05006KT 7SM 21/18 A2997 RMK T02100180 IEM_DS3505
ZBYN,1996-08-21 14:00,ZBYN 211400Z AUTO 10006KT 7SM 20/18 A2994 RMK T02000180 IEM_DS3505
ZBYN,1996-08-21 15:00,ZBYN 211500Z AUTO 32002KT 6SM 21/19 A2994 RMK SLP114 T02120186 52002 IEM_DS3505
ZBYN,1996-08-21 16:00,ZBYN 211600Z AUTO 09006KT 7SM 20/18 A2994 RMK T02000180 IEM_DS3505
ZBYN,1996-08-21 17:00,ZBYN 211700Z AUTO 11006KT 7SM 20/18 A2994 RMK T02000180 IEM_DS3505
ZBYN,1996-08-21 18:00,ZBYN 211800Z AUTO 18004KT 6SM 20/19 A2991 RMK SLP103 T02010187 57009 IEM_DS3505
ZBYN,1996-08-21 19:00,ZBYN 211900Z AUTO 10006KT 7SM 20/18 A2991 RMK T02000180 IEM_DS3505
ZBYN,1996-08-21 20:00,ZBYN 212000Z AUTO 10006KT 7SM 20/19 A2988 RMK T02000190 IEM_DS3505
ZBYN,1996-08-21 21:00,ZBYN 212100Z AUTO 11006KT 5SM 19/19 A2988 RMK 70004 SLP095 T01900187 57011 IEM_DS3505
ZBYN,1996-08-21 22:00,ZBYN 212200Z AUTO 11004KT 1 1/2SM 19/19 A2988 RMK T01900190 IEM_DS3505
ZBYN,1996-08-21 23:00,ZBYN 212300Z AUTO 10004KT 1 1/2SM 20/19 A2988 RMK T02000190 IEM_DS3505
ZBYN,1996-08-22 00:00,ZBYN 220000Z AUTO 11004KT 5SM 20/18 A2991 RMK 60004 70004 SLP101 T01990179 52005 IEM_DS3505
ZBYN,1996-08-22 01:00,ZBYN 220100Z AUTO 14004KT 1 1/2SM 20/20 A2991 RMK T02000200 IEM_DS3505
ZBYN,1996-08-22 02:00,ZBYN 220200Z AUTO 15006KT 2SM 22/21 A2991 RMK T02200210 IEM_DS3505
ZBYN,1996-08-22 03:00,ZBYN 220300Z AUTO 18004KT 5SM 23/21 A2991 RMK SLP099 T02340209 52001 IEM_DS3505
ZBYN,1996-08-22 04:00,ZBYN 220400Z AUTO 24008KT 2SM 24/20 A2991 RMK T02400200 IEM_DS3505
ZBYN,1996-08-22 05:00,ZBYN 220500Z AUTO 31004KT 2SM 24/20 A2988 RMK T02400200 IEM_DS3505
ZBYN,1996-08-22 06:00,ZBYN 220600Z AUTO 09006KT 6SM 26/21 A2988 RMK SLP117 T02590211 57022 IEM_DS3505
ZBYN,1996-08-22 07:00,ZBYN 220700Z AUTO 31010KT 6SM 25/19 A2988 RMK T02500190 IEM_DS3505
ZBYN,1996-08-22 08:00,ZBYN 220800Z AUTO 03008KT 7SM 25/17 A2988 RMK T02500170 IEM_DS3505
ZBYN,1996-08-22 09:00,ZBYN 220900Z AUTO 07004KT 6SM 24/20 A2991 RMK SLP112 T02420203 57011 IEM_DS3505
ZBYN,1996-08-22 11:00,ZBYN 221100Z AUTO 06006KT 7SM 21/18 A2994 RMK T02100180 IEM_DS3505
ZBYN,1996-08-22 12:00,ZBYN 221200Z AUTO 09006KT 6SM 21/18 A2999 RMK SLP129 T02120179 52021 IEM_DS3505
ZBYN,1996-08-22 14:00,ZBYN 221400Z AUTO 07006KT 7SM 19/16 A3006 RMK T01900160 IEM_DS3505
ZBYN,1996-08-22 15:00,ZBYN 221500Z AUTO 09008KT 6SM 17/16 RMK SLP156 T01730163 52024 IEM_DS3505
ZBYN,1996-08-22 18:00,ZBYN 221800Z AUTO 04006KT 6SM 17/16 A3007 RMK SLP159 T01710155 52002 IEM_DS3505
ZBYN,1996-08-22 21:00,ZBYN 222100Z AUTO 32002KT 6SM 16/16 RMK SLP159 T01630156 57001 IEM_DS3505
ZBYN,1996-08-22 22:00,ZBYN 222200Z AUTO 05004KT 7SM 16/14 A2994 RMK T01600140 IEM_DS3505
ZBYN,1996-08-23 00:00,ZBYN 230000Z AUTO 09008KT 5SM 13/12 A3012 RMK 60004 70004 SLP187 T01340120 52019 IEM_DS3505
ZBYN,1996-08-23 01:00,ZBYN 230100Z AUTO 32004KT 5SM 13/13 A3014 RMK 60016 SLP197 T01340131 57009 IEM_DS3505
ZBYN,1996-08-23 02:00,ZBYN 230200Z AUTO 07006KT 7SM 13/12 A3015 RMK T01300120 IEM_DS3505
ZBYN,1996-08-23 03:00,ZBYN 230300Z AUTO 09006KT 5SM 12/12 A3015 RMK SLP208 T01250120 52012 IEM_DS3505
ZBYN,1996-08-23 04:00,ZBYN 230400Z AUTO 05004KT 7SM 13/13 A3015 RMK T01300130 IEM_DS3505
ZBYN,1996-08-23 05:00,ZBYN 230500Z AUTO 10004KT 7SM 13/13 A3015 RMK T01300130 IEM_DS3505
ZBYN,1996-08-23 06:00,ZBYN 230600Z AUTO 32004KT 5SM 13/13 A3012 RMK 60016 SLP197 T01340131 57009 IEM_DS3505
ZBYN,1996-08-23 07:00,ZBYN 230700Z AUTO 34004KT 7SM 14/13 A3009 RMK T01400130 IEM_DS3505
ZBYN,1996-08-23 08:00,ZBYN 230800Z AUTO 08004KT 7SM 14/13 A3009 RMK T01400130 IEM_DS3505
ZBYN,1996-08-23 09:00,ZBYN 230900Z AUTO 36004KT 5SM 14/12 A3009 RMK SLP183 T01390125 57013 IEM_DS3505
ZBYN,1996-08-23 10:00,ZBYN 231000Z AUTO 09004KT 7SM 13/12 A3006 RMK T01300120 IEM_DS3505
ZBYN,1996-08-23 11:00,ZBYN 231100Z AUTO 00000KT 5SM 13/12 A3006 RMK T01300120 IEM_DS3505
ZBYN,1996-08-23 12:00,ZBYN 231200Z AUTO 34004KT 4SM 12/12 A3009 RMK 60008 SLP189 T01200116 57002 IEM_DS3505
ZBYN,1996-08-23 13:00,ZBYN 231300Z AUTO 01004KT 5SM 13/12 A3009 RMK T01300120 IEM_DS3505
ZBYN,1996-08-23 14:00,ZBYN 231400Z AUTO 01004KT 5SM 13/12 A3009 RMK T01300120 IEM_DS3505
ZBYN,1996-08-23 15:00,ZBYN 231500Z AUTO 34006KT 5SM 12/12 A3006 RMK SLP185 T01250118 57004 IEM_DS3505
ZBYN,1996-08-23 16:00,ZBYN 231600Z AUTO 01006KT 5SM 13/12 A3006 RMK T01300120 IEM_DS3505
ZBYN,1996-08-23 17:00,ZBYN 231700Z AUTO 00000KT 5SM 13/12 A3003 RMK T01300120 IEM_DS3505
ZBYN,1996-08-23 18:00,ZBYN 231800Z AUTO 34002KT 6SM 13/12 A3003 RMK 60002 SLP168 T01290116 57014 IEM_DS3505
ZBYN,1996-08-23 19:00,ZBYN 231900Z AUTO 36006KT 4SM 13/12 A3000 RMK T01300120 IEM_DS3505
ZBYN,1996-08-23 20:00,ZBYN 232000Z AUTO 00000KT 4SM 13/12 A3000 RMK T01300120 IEM_DS3505
ZBYN,1996-08-23 21:00,ZBYN 232100Z AUTO 36004KT 6SM 13/ A3000 RMK 70031 SLP153 57012 IEM_DS3505
ZBYN,1996-08-23 22:00,ZBYN 232200Z AUTO 32004KT 4SM 13/12 A3000 RMK T01300120 IEM_DS3505
ZBYN,1996-08-23 23:00,ZBYN 232300Z AUTO 05006KT 4SM 14/12 A2997 RMK T01400120 IEM_DS3505
ZBYN,1996-08-24 00:00,ZBYN 240000Z AUTO 32004KT 5SM 14/12 A3000 RMK 70028 SLP162 T01360120 52006 IEM_DS3505
ZBYN,1996-08-24 01:00,ZBYN 240100Z AUTO 00000KT 5SM 14/13 A3000 RMK T01400130 IEM_DS3505
ZBYN,1996-08-24 02:00,ZBYN 240200Z AUTO 33002KT 4SM 14/13 A3003 RMK T01400130 IEM_DS3505
ZBYN,1996-08-24 03:00,ZBYN 240300Z AUTO 32004KT 4SM 12/12 A3000 RMK T01250125 52004 IEM_DS3505
ZBYN,1996-08-24 04:00,ZBYN 240400Z AUTO 32004KT 1 1/2SM 13/13 A3000 RMK T01300130 IEM_DS3505
ZBYN,1996-08-24 05:00,ZBYN 240500Z AUTO 00000KT 1 1/4SM 13/13 A2997 RMK T01300130 IEM_DS3505
ZBYN,1996-08-24 06:00,ZBYN 240600Z AUTO 32004KT 4SM 13/13 A2997 RMK 60094 SLP149 T01270127 57016 IEM_DS3505
ZBYN,1996-08-24 07:00,ZBYN 240700Z AUTO 34004KT 2SM 13/13 A2994 RMK T01300130 IEM_DS3505
ZBYN,1996-08-24 08:00,ZBYN 240800Z AUTO 33006KT 3SM 14/13 A2994 RMK T01400130 IEM_DS3505
ZBYN,1996-08-24 09:00,ZBYN 240900Z AUTO 32004KT 5SM 13/13 A2994 RMK SLP139 T01310127 57008 IEM_DS3505
ZBYN,1996-08-24 10:00,ZBYN 241000Z AUTO 00000KT 7SM 14/13 A2994 RMK T01400130 IEM_DS3505
ZBYN,1996-08-24 11:00,ZBYN 241100Z AUTO 32004KT 1 1/4SM 13/13 A2994 RMK T01300130 IEM_DS3505
ZBYN,1996-08-24 12:00,ZBYN 241200Z AUTO 36002KT 5SM 13/12 A2997 RMK 60004 SLP150 T01270125 52010 IEM_DS3505
ZBYN,1996-08-24 13:00,ZBYN 241300Z AUTO 00000KT 1SM 13/13 A2997 RMK T01300130 IEM_DS3505
ZBYN,1996-08-24 14:00,ZBYN 241400Z AUTO 32004KT 1SM 13/13 A3000 RMK T01300130 IEM_DS3505
ZBYN,1996-08-24 15:00,ZBYN 241500Z AUTO 32002KT 5SM 12/12 A3000 RMK SLP160 T01250125 52007 IEM_DS3505
ZBYN,1996-08-24 16:00,ZBYN 241600Z AUTO 32004KT 1SM 13/13 A3000 RMK T01300130 IEM_DS3505
ZBYN,1996-08-24 17:00,ZBYN 241700Z AUTO 00000KT 1SM 13/13 A2997 RMK T01300130 IEM_DS3505
ZBYN,1996-08-24 18:00,ZBYN 241800Z AUTO 32002KT 5SM 12/12 A2997 RMK 60020 SLP153 T01250125 57006 IEM_DS3505
ZBYN,1996-08-24 19:00,ZBYN 241900Z AUTO 00000KT 1SM 13/13 A2997 RMK T01300130 IEM_DS3505
ZBYN,1996-08-24 20:00,ZBYN 242000Z AUTO 00000KT 1SM 13/13 A2997 RMK T01300130 IEM_DS3505
ZBYN,1996-08-24 21:00,ZBYN 242100Z AUTO 34002KT 5SM 12/12 A2997 RMK 70130 SLP146 T01250125 57006 IEM_DS3505
ZBYN,1996-08-24 22:00,ZBYN 242200Z AUTO 00000KT 1SM 13/12 A2997 RMK T01300120 IEM_DS3505
ZBYN,1996-08-24 23:00,ZBYN 242300Z AUTO 00000KT 1 1/4SM 13/13 A2997 RMK T01300130 IEM_DS3505
ZBYN,1996-08-25 00:00,ZBYN 250000Z AUTO 00000KT 3SM 13/13 A2997 RMK 60024 70138 SLP155 T01310129 52009 IEM_DS3505
ZBYN,1996-08-25 01:00,ZBYN 250100Z AUTO 00000KT 3SM 13/13 A3000 RMK T01300130 IEM_DS3505
ZBYN,1996-08-25 02:00,ZBYN 250200Z AUTO 00000KT 3SM 14/13 A3000 RMK T01400130 IEM_DS3505
ZBYN,1996-08-25 03:00,ZBYN 250300Z AUTO 32004KT 4SM 14/14 A3000 RMK SLP158 T01410136 52004 IEM_DS3505
ZBYN,1996-08-25 04:00,ZBYN 250400Z AUTO 00000KT 2SM 15/14 A2997 RMK T01500140 IEM_DS3505
ZBYN,1996-08-25 05:00,ZBYN 250500Z AUTO 00000KT 4SM 16/15 A2997 RMK T01600150 IEM_DS3505
ZBYN,1996-08-25 06:00,ZBYN 250600Z AUTO 00000KT 4SM 16/14 A2997 RMK 60002 SLP143 T01590139 57011 IEM_DS3505
ZBYN,1996-08-25 07:00,ZBYN 250700Z AUTO 00000KT 4SM 16/15 A2997 RMK T01600150 IEM_DS3505
ZBYN,1996-08-25 08:00,ZBYN 250800Z AUTO 00000KT 4SM 17/15 A2994 RMK T01700150 IEM_DS3505
ZBYN,1996-08-25 09:00,ZBYN 250900Z AUTO 22004KT 4SM 17/15 A2994 RMK SLP140 T01690149 57002 IEM_DS3505
ZBYN,1996-08-25 10:00,ZBYN 251000Z AUTO 19002KT 4SM 16/15 A2994 RMK T01600150 IEM_DS3505
ZBYN,1996-08-25 11:00,ZBYN 251100Z AUTO 00000KT 4SM 16/15 A2997 RMK T01600150 IEM_DS3505
ZBYN,1996-08-25 12:00,ZBYN 251200Z AUTO 20002KT 4SM 16/15 A2997 RMK SLP141 T01590149 52001 IEM_DS3505
ZBYN,1996-08-25 13:00,ZBYN 251300Z AUTO 00000KT 4SM 16/15 A3000 RMK T01600150 IEM_DS3505
ZBYN,1996-08-25 14:00,ZBYN 251400Z AUTO 00000KT 4SM 15/15 A3000 RMK T01500150 IEM_DS3505
ZBYN,1996-08-25 15:00,ZBYN 251500Z AUTO 32002KT 4SM 15/15 A3003 RMK SLP152 T01530151 52010 IEM_DS3505
ZBYN,1996-08-25 16:00,ZBYN 251600Z AUTO 00000KT 1 1/4SM 16/15 A3003 RMK T01600150 IEM_DS3505
ZBYN,1996-08-25 17:00,ZBYN 251700Z AUTO 00000KT 1 1/4SM 15/15 A3000 RMK T01500150 IEM_DS3505
ZBYN,1996-08-25 18:00,ZBYN 251800Z AUTO 34002KT 4SM 15/15 A3000 RMK 60024 SLP155 T01510149 52005 IEM_DS3505
ZBYN,1996-08-25 19:00,ZBYN 251900Z AUTO 00000KT 1 1/4SM 16/15 A3000 RMK T01600150 IEM_DS3505
ZBYN,1996-08-25 20:00,ZBYN 252000Z AUTO 00000KT 1 1/4SM 16/15 A3000 RMK T01600150 IEM_DS3505
ZBYN,1996-08-25 21:00,ZBYN 252100Z AUTO 32004KT 4SM 15/14 A3000 RMK 70039 SLP155 T01470145 52001 IEM_DS3505
ZBYN,1996-08-25 22:00,ZBYN 252200Z AUTO 00000KT 2SM 15/15 A3003 RMK T01500150 IEM_DS3505
ZBYN,1996-08-25 23:00,ZBYN 252300Z AUTO 00000KT 4SM 14/14 A3003 RMK T01400140 IEM_DS3505
ZBYN,1996-08-26 00:00,ZBYN 260000Z AUTO 16002KT 6SM 15/15 A3003 RMK 60012 70035 SLP162 T01490147 52005 IEM_DS3505
ZBYN,1996-08-26 01:00,ZBYN 260100Z AUTO 00000KT 7SM 15/15 A3006 RMK T01500150 IEM_DS3505
ZBYN,1996-08-26 02:00,ZBYN 260200Z AUTO 00000KT 7SM 16/15 A3006 RMK T01600150 IEM_DS3505
ZBYN,1996-08-26 03:00,ZBYN 260300Z AUTO 18002KT 6SM 17/15 A3006 RMK SLP165 T01730153 52006 IEM_DS3505
ZBYN,1996-08-26 04:00,ZBYN 260400Z AUTO 00000KT 7SM 18/15 A3003 RMK T01800150 IEM_DS3505
ZBYN,1996-08-26 05:00,ZBYN 260500Z AUTO 00000KT 7SM 20/16 A3003 RMK T02000160 IEM_DS3505
ZBYN,1996-08-26 06:00,ZBYN 260600Z AUTO 18004KT 6SM 22/19 A3000 RMK SLP140 T02230190 57016 IEM_DS3505
ZBYN,1996-08-26 07:00,ZBYN 260700Z AUTO 00000KT 6SM 23/16 A3000 RMK T02300160 IEM_DS3505
ZBYN,1996-08-26 08:00,ZBYN 260800Z AUTO 00000KT 7SM 21/17 A2997 RMK T02100170 IEM_DS3505
ZBYN,1996-08-26 09:00,ZBYN 260900Z AUTO 18004KT 7SM 21/14 A2997 RMK SLP137 T02090136 57005 IEM_DS3505
ZBYN,1996-08-26 10:00,ZBYN 261000Z AUTO 23004KT 6SM 21/17 A2997 RMK T02100170 IEM_DS3505
ZBYN,1996-08-26 11:00,ZBYN 261100Z AUTO 27004KT 6SM 20/16 A3000 RMK T02000160 IEM_DS3505
ZBYN,1996-08-26 12:00,ZBYN 261200Z AUTO 20004KT 7SM 18/15 A3000 RMK SLP151 T01750150 52008 IEM_DS3505
ZBYN,1996-08-26 13:00,ZBYN 261300Z AUTO 09004KT 7SM 17/16 A3003 RMK T01700160 IEM_DS3505
ZBYN,1996-08-26 14:00,ZBYN 261400Z AUTO 09004KT 7SM 16/15 A3003 RMK T01600150 IEM_DS3505
ZBYN,1996-08-26 15:00,ZBYN 261500Z AUTO 32004KT 5SM 15/14 A3006 RMK SLP165 T01480141 52012 IEM_DS3505
ZBYN,1996-08-26 16:00,ZBYN 261600Z AUTO 00000KT 7SM 14/14 A3003 RMK T01400140 IEM_DS3505
ZBYN,1996-08-26 17:00,ZBYN 261700Z AUTO 00000KT 7SM 14/13 A3006 RMK T01400130 IEM_DS3505
ZBYN,1996-08-26 18:00,ZBYN 261800Z AUTO 00000KT 1 1/4SM 12/12 A3006 RMK SLP163 T01230119 52002 IEM_DS3505
ZBYN,1996-08-26 19:00,ZBYN 261900Z AUTO 00000KT 7SM 13/12 A3003 RMK T01300120 IEM_DS3505
ZBYN,1996-08-26 20:00,ZBYN 262000Z AUTO 00000KT 7SM 13/12 A3003 RMK T01300120 IEM_DS3505
ZBYN,1996-08-26 21:00,ZBYN 262100Z AUTO 00000KT 1 1/4SM 10/10 RMK 70002 SLP161 T01050103 57007 IEM_DS3505
ZBYN,1996-08-26 22:00,ZBYN 262200Z AUTO 00000KT 4SM 11/11 A3003 RMK T01100110 IEM_DS3505
ZBYN,1996-08-26 23:00,ZBYN 262300Z AUTO 00000KT 4SM 12/12 A3006 RMK T01200120 IEM_DS3505
ZBYN,1996-08-27 00:00,ZBYN 270000Z AUTO 11002KT 3SM 13/13 A3006 RMK SLP169 T01300128 52006 IEM_DS3505
ZBYN,1996-08-27 01:00,ZBYN 270100Z AUTO 00000KT 3SM 15/14 A3006 RMK T01500140 IEM_DS3505
ZBYN,1996-08-27 02:00,ZBYN 270200Z AUTO 00000KT 6SM 17/14 A3006 RMK T01700140 IEM_DS3505
ZBYN,1996-08-27 03:00,ZBYN 270300Z AUTO 20004KT 4SM 19/14 A3003 RMK SLP160 T01930145 57003 IEM_DS3505
ZBYN,1996-08-27 04:00,ZBYN 270400Z AUTO 23004KT 6SM 21/16 A3003 RMK T02100160 IEM_DS3505
ZBYN,1996-08-27 05:00,ZBYN 270500Z AUTO 00000KT 6SM 23/16 A3000 RMK T02300160 IEM_DS3505
ZBYN,1996-08-27 06:00,ZBYN 270600Z AUTO 20006KT 5SM 24/16 A2997 RMK SLP132 T02370157 57022 IEM_DS3505
ZBYN,1996-08-27 07:00,ZBYN 270700Z AUTO 17008KT 6SM 26/18 A2994 RMK T02600180 IEM_DS3505
ZBYN,1996-08-27 08:00,ZBYN 270800Z AUTO 19006KT 7SM 26/18 A2991 RMK T02600180 IEM_DS3505
ZBYN,1996-08-27 09:00,ZBYN 270900Z AUTO 18006KT 5SM 24/17 A2991 RMK SLP113 T02450169 57019 IEM_DS3505
ZBYN,1996-08-27 10:00,ZBYN 271000Z AUTO 06006KT 7SM 22/18 A2991 RMK T02200180 IEM_DS3505
ZBYN,1996-08-27 11:00,ZBYN 271100Z AUTO 10004KT 7SM 21/17 A2991 RMK T02100170 IEM_DS3505
ZBYN,1996-08-27 12:00,ZBYN 271200Z AUTO 00000KT 6SM 18/17 A2991 RMK SLP124 T01850166 52005 IEM_DS3505
ZBYN,1996-08-27 13:00,ZBYN 271300Z AUTO 00000KT 7SM 18/17 A2994 RMK T01800170 IEM_DS3505
ZBYN,1996-08-27 14:00,ZBYN 271400Z AUTO 09004KT 7SM 17/16 A2994 RMK T01700160 IEM_DS3505
ZBYN,1996-08-27 15:00,ZBYN 271500Z AUTO 18004KT 6SM 16/15 A2994 RMK SLP126 T01620154 57007 IEM_DS3505
ZBYN,1996-08-27 16:00,ZBYN 271600Z AUTO 00000KT 7SM 15/15 A2994 RMK T01500150 IEM_DS3505
ZBYN,1996-08-27 17:00,ZBYN 271700Z AUTO 00000KT 7SM 15/15 A2994 RMK T01500150 IEM_DS3505
ZBYN,1996-08-27 18:00,ZBYN 271800Z AUTO 00000KT 2 1/2SM 14/14 A2996 RMK SLP123 T01430140 52001 IEM_DS3505
ZBYN,1996-08-27 19:00,ZBYN 271900Z AUTO 00000KT 7SM 15/14 A2994 RMK T01500140 IEM_DS3505
ZBYN,1996-08-27 20:00,ZBYN 272000Z AUTO 11004KT 7SM 14/14 A2994 RMK T01400140 IEM_DS3505
ZBYN,1996-08-27 21:00,ZBYN 272100Z AUTO 00000KT 2 1/2SM 14/13 A2991 RMK SLP114 T01360134 57008 IEM_DS3505
ZBYN,1996-08-27 22:00,ZBYN 272200Z AUTO 00000KT 2 1/2SM 14/14 A2994 RMK T01400140 IEM_DS3505
ZBYN,1996-08-27 23:00,ZBYN 272300Z AUTO 00000KT 1 1/4SM 15/15 A2994 RMK T01500150 IEM_DS3505
ZBYN,1996-08-28 00:00,ZBYN 280000Z AUTO 20004KT 4SM 16/15 A2994 RMK SLP127 T01560153 52006 IEM_DS3505
ZBYN,1996-08-28 01:00,ZBYN 280100Z AUTO 00000KT 1 1/4SM 17/16 A2994 RMK T01700160 IEM_DS3505
ZBYN,1996-08-28 02:00,ZBYN 280200Z AUTO 00000KT 1 1/4SM 18/16 A2997 RMK T01800160 IEM_DS3505
ZBYN,1996-08-28 03:00,ZBYN 280300Z AUTO 18004KT 5SM 20/17 A2994 RMK SLP123 T02030173 54000 IEM_DS3505
ZBYN,1996-08-28 04:00,ZBYN 280400Z AUTO 20006KT 1 1/4SM 23/16 A2991 RMK T02300160 IEM_DS3505
ZBYN,1996-08-28 05:00,ZBYN 280500Z AUTO 17010KT 4SM 25/18 A2988 RMK T02500180 IEM_DS3505
ZBYN,1996-08-28 06:00,ZBYN 280600Z AUTO 22006KT 5SM 22/17 A2985 RMK SLP101 T02190167 57020 IEM_DS3505
ZBYN,1996-08-28 07:00,ZBYN 280700Z AUTO 09002KT 7SM 19/18 A2988 RMK T01900180 IEM_DS3505
ZBYN,1996-08-28 08:00,ZBYN 280800Z AUTO 10008KT 7SM 19/17 A2983 RMK T01900170 IEM_DS3505
ZBYN,1996-08-28 09:00,ZBYN 280900Z AUTO 18004KT 6SM 20/16 A2980 RMK SLP084 T02030160 57019 IEM_DS3505
ZBYN,1996-08-28 10:00,ZBYN 281000Z AUTO 00000KT 7SM 19/18 A2983 RMK T01900180 IEM_DS3505
ZBYN,1996-08-28 11:00,ZBYN 281100Z AUTO 01010KT 7SM 16/15 A2985 RMK T01600150 IEM_DS3505
ZBYN,1996-08-28 12:00,ZBYN 281200Z AUTO 36004KT 5SM 16/14 A2988 RMK 60063 SLP108 T01600143 52018 IEM_DS3505
ZBYN,1996-08-28 13:00,ZBYN 281300Z AUTO 12006KT 7SM 16/15 A2991 RMK T01600150 IEM_DS3505
ZBYN,1996-08-28 14:00,ZBYN 281400Z AUTO 31008KT 7SM 16/15 A2991 RMK T01600150 IEM_DS3505
ZBYN,1996-08-28 15:00,ZBYN 281500Z AUTO 22004KT 6SM 15/14 A2991 RMK SLP113 T01470135 52010 IEM_DS3505
ZBYN,1996-08-28 16:00,ZBYN 281600Z AUTO 00000KT 4SM 15/14 A2988 RMK T01500140 IEM_DS3505
ZBYN,1996-08-28 17:00,ZBYN 281700Z AUTO 00000KT 2 1/2SM 14/13 A2988 RMK T01400130 IEM_DS3505
ZBYN,1996-08-28 18:00,ZBYN 281800Z AUTO 14002KT 3SM 13/12 A2988 RMK 60004 SLP101 T01290125 57011 IEM_DS3505
ZBYN,1996-08-28 19:00,ZBYN 281900Z AUTO 00000KT 1/2SM 13/13 A2985 RMK T01300130 IEM_DS3505
ZBYN,1996-08-28 20:00,ZBYN 282000Z AUTO 00000KT 1/2SM 13/13 A2985 RMK T01300130 IEM_DS3505
ZBYN,1996-08-28 21:00,ZBYN 282100Z AUTO 18002KT 3/8SM 14/13 A2985 RMK 70067 SLP099 T01350133 57004 IEM_DS3505
ZBYN,1996-08-28 22:00,ZBYN 282200Z AUTO 00000KT 3/8SM 13/13 A2985 RMK T01300130 IEM_DS3505
ZBYN,1996-08-28 23:00,ZBYN 282300Z AUTO 00000KT 3/8SM 14/14 A2988 RMK T01400140 IEM_DS3505
ZBYN,1996-08-29 00:00,ZBYN 290000Z AUTO 00000KT 4SM 14/14 A2988 RMK 70067 SLP117 T01430141 52012 IEM_DS3505
ZBYN,1996-08-29 01:00,ZBYN 290100Z AUTO 00000KT 2SM 15/15 A2988 RMK T01500150 IEM_DS3505
ZBYN,1996-08-29 02:00,ZBYN 290200Z AUTO 00000KT 2 1/2SM 18/15 A2991 RMK T01800150 IEM_DS3505
ZBYN,1996-08-29 03:00,ZBYN 290300Z AUTO 00000KT 5SM 20/14 A2988 RMK SLP113 T01950140 52002 IEM_DS3505
ZBYN,1996-08-29 04:00,ZBYN 290400Z AUTO 00000KT 7SM 22/15 A2988 RMK T02200150 IEM_DS3505
ZBYN,1996-08-29 05:00,ZBYN 290500Z AUTO 21006KT 7SM 24/16 A2985 RMK T02400160 IEM_DS3505
ZBYN,1996-08-29 06:00,ZBYN 290600Z AUTO 18002KT 6SM 25/14 A2983 RMK SLP091 T02490140 57015 IEM_DS3505
ZBYN,1996-08-29 07:00,ZBYN 290700Z AUTO 18002KT 7SM 27/15 A2983 RMK T02700150 IEM_DS3505
ZBYN,1996-08-29 08:00,ZBYN 290800Z AUTO 00000KT 7SM 27/17 A2980 RMK T02700170 IEM_DS3505
ZBYN,1996-08-29 09:00,ZBYN 290900Z AUTO 20004KT 6SM 25/15 A2980 RMK SLP072 T02530149 57016 IEM_DS3505
ZBYN,1996-08-29 10:00,ZBYN 291000Z AUTO 24004KT 7SM 25/16 A2980 RMK T02500160 IEM_DS3505
ZBYN,1996-08-29 11:00,ZBYN 291100Z AUTO 00000KT 7SM 22/17 A2980 RMK T02200170 IEM_DS3505
ZBYN,1996-08-29 12:00,ZBYN 291200Z AUTO 00000KT 6SM 19/17 A2983 RMK SLP087 T01910172 52006 IEM_DS3505
ZBYN,1996-08-29 13:00,ZBYN 291300Z AUTO 05004KT 6SM 19/18 A2985 RMK T01900180 IEM_DS3505
ZBYN,1996-08-29 14:00,ZBYN 291400Z AUTO 00000KT 5SM 18/16 A2985 RMK T01800160 IEM_DS3505
ZBYN,1996-08-29 15:00,ZBYN 291500Z AUTO 11002KT 6SM 17/16 A2988 RMK SLP097 T01730155 52014 IEM_DS3505
ZBYN,1996-08-29 16:00,ZBYN 291600Z AUTO 09004KT 4SM 18/16 A2991 RMK T01800160 IEM_DS3505
ZBYN,1996-08-29 18:00,ZBYN 291800Z AUTO 32004KT 6SM 17/14 A2991 RMK SLP095 T01670138 52005 IEM_DS3505
ZBYN,1996-08-29 19:00,ZBYN 291900Z AUTO 00000KT 4SM 16/15 A2991 RMK T01600150 IEM_DS3505
ZBYN,1996-08-29 20:00,ZBYN 292000Z AUTO 00000KT 1 1/4SM 15/14 A2991 RMK T01500140 IEM_DS3505
ZBYN,1996-08-29 21:00,ZBYN 292100Z AUTO 34004KT 6SM 15/14 A2991 RMK SLP107 T01500136 52009 IEM_DS3505
ZBYN,1996-08-29 22:00,ZBYN 292200Z AUTO 00000KT 1 1/4SM 15/14 A2991 RMK T01500140 IEM_DS3505
ZBYN,1996-08-30 00:00,ZBYN 300000Z AUTO 34006KT 6SM 17/14 A2994 RMK SLP120 T01730145 52006 IEM_DS3505
ZBYN,1996-08-30 01:00,ZBYN 300100Z AUTO 00000KT 1 1/2SM 18/16 A2994 RMK T01800160 IEM_DS3505
ZBYN,1996-08-30 02:00,ZBYN 300200Z AUTO 00000KT 2SM 21/16 A2994 RMK T02100160 IEM_DS3505
ZBYN,1996-08-30 03:00,ZBYN 300300Z AUTO 07002KT 6SM 23/16 A2994 RMK SLP118 T02330165 52004 IEM_DS3505
ZBYN,1996-08-30 04:00,ZBYN 300400Z AUTO 00000KT 7SM 25/17 A2991 RMK T02500170 IEM_DS3505
ZBYN,1996-08-30 05:00,ZBYN 300500Z AUTO 10004KT 7SM 26/18 A2991 RMK T02600180 IEM_DS3505
ZBYN,1996-08-30 06:00,ZBYN 300600Z AUTO 00000KT 6SM 27/17 A2988 RMK SLP095 T02660167 57017 IEM_DS3505
ZBYN,1996-08-30 07:00,ZBYN 300700Z AUTO 12004KT 7SM 29/18 A2988 RMK T02900180 IEM_DS3505
ZBYN,1996-08-30 08:00,ZBYN 300800Z AUTO 10004KT 7SM 29/19 A2985 RMK T02900190 IEM_DS3505
ZBYN,1996-08-30 09:00,ZBYN 300900Z AUTO 11006KT 7SM 27/15 A2985 RMK SLP089 T02710150 57007 IEM_DS3505
ZBYN,1996-08-30 10:00,ZBYN 301000Z AUTO 10006KT 6SM 25/20 A2988 RMK T02500200 IEM_DS3505
ZBYN,1996-08-30 11:00,ZBYN 301100Z AUTO 09010KT 7SM 23/18 A2988 RMK T02300180 IEM_DS3505
ZBYN,1996-08-30 12:00,ZBYN 301200Z AUTO 10008KT 6SM 22/17 A2991 RMK SLP111 T02190168 52016 IEM_DS3505
ZBYN,1996-08-30 13:00,ZBYN 301300Z AUTO 08010KT 7SM 21/18 A2994 RMK T02100180 IEM_DS3505
ZBYN,1996-08-30 14:00,ZBYN 301400Z AUTO 06012KT 7SM 20/18 A2997 RMK T02000180 IEM_DS3505
ZBYN,1996-08-30 15:00,ZBYN 301500Z AUTO 22004KT 6SM 18/17 A2997 RMK SLP126 T01810167 52017 IEM_DS3505
ZBYN,1996-08-30 16:00,ZBYN 301600Z AUTO 06006KT 7SM 19/18 A2997 RMK T01900180 IEM_DS3505
ZBYN,1996-08-30 18:00,ZBYN 301800Z AUTO 32002KT 6SM 17/16 A3001 RMK SLP130 T01720161 52007 IEM_DS3505
ZBYN,1996-08-30 21:00,ZBYN 302100Z AUTO 34002KT 6SM 16/15 RMK SLP131 T01630151 54000 IEM_DS3505
ZBYN,1996-08-30 22:00,ZBYN 302200Z AUTO 34002KT 6SM 16/15 RMK SLP131 T01630151 54000 IEM_DS3505
ZBYN,1996-08-30 23:00,ZBYN 302300Z AUTO 00000KT 1SM 16/16 A3003 RMK T01600160 IEM_DS3505
ZBYN,1996-08-31 00:00,ZBYN 310000Z AUTO 00000KT 5SM 18/17 A3003 RMK SLP146 T01750167 52008 IEM_DS3505
ZBYN,1996-08-31 01:00,ZBYN 310100Z AUTO 00000KT 1 1/2SM 19/17 A3006 RMK T01900170 IEM_DS3505
ZBYN,1996-08-31 02:00,ZBYN 310200Z AUTO 18004KT 2 1/2SM 22/17 A3006 RMK T02200170 IEM_DS3505
ZBYN,1996-08-31 03:00,ZBYN 310300Z AUTO 07004KT 6SM 23/16 A3006 RMK SLP154 T02260159 52009 IEM_DS3505
ZBYN,1996-08-31 04:00,ZBYN 310400Z AUTO 00000KT 7SM 25/17 A3003 RMK T02500170 IEM_DS3505
ZBYN,1996-08-31 05:00,ZBYN 310500Z AUTO 00000KT 7SM 26/17 A3003 RMK T02600170 IEM_DS3505
ZBYN,1996-08-31 06:00,ZBYN 310600Z AUTO 07002KT 6SM 25/17 A3000 RMK SLP135 T02540170 57014 IEM_DS3505
ZBYN,1996-08-31 07:00,ZBYN 310700Z AUTO 00000KT 7SM 27/17 A3000 RMK T02700170 IEM_DS3505
ZBYN,1996-08-31 08:00,ZBYN 310800Z AUTO 17004KT 7SM 27/17 A2997 RMK T02700170 IEM_DS3505
ZBYN,1996-08-31 09:00,ZBYN 310900Z AUTO 18004KT 6SM 26/16 A2997 RMK SLP124 T02630165 57010 IEM_DS3505
ZBYN,1996-08-31 10:00,ZBYN 311000Z AUTO 00000KT 7SM 26/19 A2997 RMK T02600190 IEM_DS3505
ZBYN,1996-08-31 11:00,ZBYN 311100Z AUTO 00000KT 7SM 22/19 A2997 RMK T02200190 IEM_DS3505
ZBYN,1996-08-31 12:00,ZBYN 311200Z AUTO 00000KT 6SM 20/18 A3000 RMK SLP138 T02010181 52005 IEM_DS3505
ZBYN,1996-08-31 13:00,ZBYN 311300Z AUTO 09004KT 4SM 20/18 A3003 RMK T02000180 IEM_DS3505
ZBYN,1996-08-31 14:00,ZBYN 311400Z AUTO 10004KT 4SM 19/17 A3003 RMK T01900170 IEM_DS3505
ZBYN,1996-08-31 15:00,ZBYN 311500Z AUTO 32004KT 6SM 18/16 A3003 RMK SLP145 T01770161 52011 IEM_DS3505
ZBYN,1996-08-31 16:00,ZBYN 311600Z AUTO 00000KT 4SM 18/17 A3003 RMK T01800170 IEM_DS3505
ZBYN,1996-08-31 17:00,ZBYN 311700Z AUTO 00000KT 4SM 18/17 A3003 RMK T01800170 IEM_DS3505
ZBYN,1996-08-31 18:00,ZBYN 311800Z AUTO 14002KT 4SM 16/16 A3003 RMK SLP143 T01620155 54000 IEM_DS3505
ZBYN,1996-08-31 19:00,ZBYN 311900Z AUTO 00000KT 4SM 16/16 A3003 RMK T01600160 IEM_DS3505
ZBYN,1996-08-31 21:00,ZBYN 312100Z AUTO 00000KT 1 1/4SM 15/15 RMK SLP145 T01510146 52001 IEM_DS3505
ZBYN,1996-08-31 22:00,ZBYN 312200Z AUTO 00000KT 2SM 15/15 A3006 RMK T01500150 IEM_DS3505
ZBYN,1996-08-31 23:00,ZBYN 312300Z AUTO 00000KT 1 1/4SM 15/15 A3006 RMK T01500150 IEM_DS3505
ZBYN,1996-09-01 00:00,ZBYN 010000Z AUTO 00000KT 1 1/4SM 16/16 A3006 RMK SLP164 T01650163 52011 IEM_DS3505
ZBYN,1996-09-01 01:00,ZBYN 010100Z AUTO 00000KT 4SM 19/17 A3006 RMK T01900170 IEM_DS3505
ZBYN,1996-09-01 02:00,ZBYN 010200Z AUTO 00000KT 4SM 21/18 A3006 RMK T02100180 IEM_DS3505
ZBYN,1996-09-01 03:00,ZBYN 010300Z AUTO 18002KT 4SM 23/17 RMK SLP154 T02330172 57003 IEM_DS3505
ZBYN,1996-09-01 04:00,ZBYN 010400Z AUTO 00000KT 4SM 25/19 A3003 RMK T02500190 IEM_DS3505
ZBYN,1996-09-01 05:00,ZBYN 010500Z AUTO 19006KT 4SM 26/19 A3000 RMK T02600190 IEM_DS3505
ZBYN,1996-09-01 06:00,ZBYN 010600Z AUTO 16010KT 25SM 26/21 RMK T02630209 4////0233 IEM_DS3505
ZBYN,1996-09-01 07:00,ZBYN 010700Z AUTO 17008KT 4SM 28/20 A2997 RMK T02800200 IEM_DS3505
ZBYN,1996-09-01 08:00,ZBYN 010800Z AUTO 19006KT 4SM 28/18 A2988 RMK T02800180 IEM_DS3505
ZBYN,1996-09-01 09:00,ZBYN 010900Z AUTO 20004KT 6SM 26/17 A2991 RMK SLP109 T02600174 57019 IEM_DS3505
ZBYN,1996-09-01 10:00,ZBYN 011000Z AUTO 19004KT 5SM 25/19 A2991 RMK T02500190 IEM_DS3505
ZBYN,1996-09-01 11:00,ZBYN 011100Z AUTO 00000KT 6SM 22/18 A2991 RMK T02200180 IEM_DS3505
ZBYN,1996-09-01 12:00,ZBYN 011200Z AUTO 32010KT 6SM 21/18 A2994 RMK SLP123 T02120184 52008 IEM_DS3505
ZBYN,1996-09-01 13:00,ZBYN 011300Z AUTO 34008KT 7SM 22/17 A3000 RMK T02200170 IEM_DS3505
ZBYN,1996-09-01 14:00,ZBYN 011400Z AUTO 34004KT 7SM 22/16 A3000 RMK T02200160 IEM_DS3505
ZBYN,1996-09-01 15:00,ZBYN 011500Z AUTO 32004KT 6SM 21/16 A3000 RMK SLP132 T02130158 52018 IEM_DS3505
ZBYN,1996-09-01 16:00,ZBYN 011600Z AUTO 34008KT 7SM 21/16 A3000 RMK T02100160 IEM_DS3505
ZBYN,1996-09-01 17:00,ZBYN 011700Z AUTO 31006KT 7SM 21/16 A3000 RMK T02100160 IEM_DS3505
ZBYN,1996-09-01 18:00,ZBYN 011800Z AUTO 32006KT 6SM 20/14 A3002 RMK SLP132 T01990139 52002 IEM_DS3505
ZBYN,1996-09-01 19:00,ZBYN 011900Z AUTO 33006KT 6SM 20/16 A3000 RMK T02000160 IEM_DS3505
ZBYN,1996-09-01 20:00,ZBYN 012000Z AUTO 30004KT 6SM 19/16 A3003 RMK T01900160 IEM_DS3505
ZBYN,1996-09-01 21:00,ZBYN 012100Z AUTO 32010KT 6SM 18/12 A3003 RMK SLP140 T01830115 52005 IEM_DS3505
ZBYN,1996-09-01 22:00,ZBYN 012200Z AUTO 32012KT 6SM 18/13 A3003 RMK T01800130 IEM_DS3505
ZBYN,1996-09-01 23:00,ZBYN 012300Z AUTO 32008KT 7SM 17/12 A3006 RMK T01700120 IEM_DS3505
ZBYN,1996-09-02 00:00,ZBYN 020000Z AUTO 32006KT 16SM 17/12 A3006 RMK SLP166 T01720116 52015 IEM_DS3505
ZBYN,1996-09-02 01:00,ZBYN 020100Z AUTO 31008KT 6SM 18/13 A3009 RMK T01800130 IEM_DS3505
ZBYN,1996-09-02 02:00,ZBYN 020200Z AUTO 32006KT 6SM 18/13 A3009 RMK T01800130 IEM_DS3505
ZBYN,1996-09-02 03:00,ZBYN 020300Z AUTO 04006KT 12SM 18/13 A3009 RMK SLP174 T01780126 52008 IEM_DS3505
ZBYN,1996-09-02 04:00,ZBYN 020400Z AUTO 02004KT 7SM 17/14 A3009 RMK T01700140 IEM_DS3505
ZBYN,1996-09-02 05:00,ZBYN 020500Z AUTO 00000KT 7SM 19/15 A3009 RMK T01900150 IEM_DS3505
ZBYN,1996-09-02 06:00,ZBYN 020600Z AUTO 36006KT 6SM 18/14 A3009 RMK SLP170 T01810137 57005 IEM_DS3505
ZBYN,1996-09-02 08:00,ZBYN 020800Z AUTO 04004KT 7SM 18/15 A3006 RMK T01800150 IEM_DS3505
ZBYN,1996-09-02 09:00,ZBYN 020900Z AUTO 00000KT 6SM 18/15 A3006 RMK SLP169 T01760148 57004 IEM_DS3505
ZBYN,1996-09-02 10:00,ZBYN 021000Z AUTO 02004KT 7SM 17/15 A3006 RMK T01700150 IEM_DS3505
ZBYN,1996-09-02 12:00,ZBYN 021200Z AUTO 00000KT 6SM 16/15 A3012 RMK 60002 SLP181 T01620152 52008 IEM_DS3505
ZBYN,1996-09-02 13:00,ZBYN 021300Z AUTO 11004KT 7SM 16/15 A3012 RMK T01600150 IEM_DS3505
ZBYN,1996-09-02 14:00,ZBYN 021400Z AUTO 13004KT 7SM 16/15 A3012 RMK T01600150 IEM_DS3505
ZBYN,1996-09-02 15:00,ZBYN 021500Z AUTO 14002KT 5SM 16/15 A3012 RMK SLP187 T01550147 52005 IEM_DS3505
ZBYN,1996-09-02 16:00,ZBYN 021600Z AUTO 07004KT 7SM 15/14 A3012 RMK T01500140 IEM_DS3505
ZBYN,1996-09-02 17:00,ZBYN 021700Z AUTO 00000KT 7SM 15/14 A3012 RMK T01500140 IEM_DS3505
ZBYN,1996-09-02 18:00,ZBYN 021800Z AUTO 20002KT 5SM 14/14 A3009 RMK 60012 SLP184 T01450138 57004 IEM_DS3505
ZBYN,1996-09-02 19:00,ZBYN 021900Z AUTO 00000KT 7SM 14/14 A3009 RMK T01400140 IEM_DS3505
ZBYN,1996-09-02 20:00,ZBYN 022000Z AUTO 00000KT 7SM 14/14 A3009 RMK T01400140 IEM_DS3505
ZBYN,1996-09-02 21:00,ZBYN 022100Z AUTO 00000KT 5SM 14/13 A3009 RMK 70016 SLP182 T01390134 57003 IEM_DS3505
ZBYN,1996-09-02 22:00,ZBYN 022200Z AUTO 00000KT 7SM 14/14 A3009 RMK T01400140 IEM_DS3505
ZBYN,1996-09-02 23:00,ZBYN 022300Z AUTO 00000KT 6SM 14/14 A3012 RMK T01400140 IEM_DS3505
ZBYN,1996-09-03 00:00,ZBYN 030000Z AUTO 32004KT 5SM 15/14 A3012 RMK 60002 70016 SLP190 T01490140 52006 IEM_DS3505
ZBYN,1996-09-03 01:00,ZBYN 030100Z AUTO 30004KT 6SM 16/15 A3012 RMK T01600150 IEM_DS3505
ZBYN,1996-09-03 02:00,ZBYN 030200Z AUTO 00000KT 7SM 18/15 A3012 RMK T01800150 IEM_DS3505
ZBYN,1996-09-03 03:00,ZBYN 030300Z AUTO 36002KT 6SM 19/13 RMK SLP178 T01900129 57006 IEM_DS3505
ZBYN,1996-09-03 04:00,ZBYN 030400Z AUTO 00000KT 7SM 20/14 A3006 RMK T02000140 IEM_DS3505
ZBYN,1996-09-03 05:00,ZBYN 030500Z AUTO 00000KT 7SM 21/14 A3006 RMK T02100140 IEM_DS3505
ZBYN,1996-09-03 06:00,ZBYN 030600Z AUTO 20002KT 6SM 22/12 A3003 RMK SLP154 T02190124 57019 IEM_DS3505
ZBYN,1996-09-03 07:00,ZBYN 030700Z AUTO 19004KT 7SM 23/14 A3000 RMK T02300140 IEM_DS3505
ZBYN,1996-09-03 08:00,ZBYN 030800Z AUTO 21008KT 7SM 23/14 A3000 RMK T02300140 IEM_DS3505
ZBYN,1996-09-03 09:00,ZBYN 030900Z AUTO 20006KT 6SM 21/14 A3000 RMK SLP142 T02120135 57013 IEM_DS3505
ZBYN,1996-09-03 10:00,ZBYN 031000Z AUTO 23006KT 7SM 21/14 A3000 RMK T02100140 IEM_DS3505
ZBYN,1996-09-03 11:00,ZBYN 031100Z AUTO 20004KT 7SM 19/15 A3000 RMK T01900150 IEM_DS3505
ZBYN,1996-09-03 12:00,ZBYN 031200Z AUTO 14004KT 6SM 17/15 A3000 RMK SLP154 T01680146 52006 IEM_DS3505
ZBYN,1996-09-03 13:00,ZBYN 031300Z AUTO 15004KT 7SM 17/15 A3003 RMK T01700150 IEM_DS3505
ZBYN,1996-09-03 14:00,ZBYN 031400Z AUTO 20004KT 7SM 16/15 A3003 RMK T01600150 IEM_DS3505
ZBYN,1996-09-03 15:00,ZBYN 031500Z AUTO 16004KT 6SM 15/14 A3006 RMK SLP160 T01530141 52010 IEM_DS3505
ZBYN,1996-09-03 16:00,ZBYN 031600Z AUTO 12006KT 3SM 16/15 A3006 RMK T01600150 IEM_DS3505
ZBYN,1996-09-03 17:00,ZBYN 031700Z AUTO 13006KT 3SM 15/14 A3006 RMK T01500140 IEM_DS3505
ZBYN,1996-09-03 18:00,ZBYN 031800Z AUTO 11004KT 6SM 15/14 A3006 RMK SLP157 T01490140 52001 IEM_DS3505
ZBYN,1996-09-03 19:00,ZBYN 031900Z AUTO 13004KT 3SM 15/14 A3006 RMK T01500140 IEM_DS3505
ZBYN,1996-09-03 20:00,ZBYN 032000Z AUTO 00000KT 3SM 15/14 A3003 RMK T01500140 IEM_DS3505
ZBYN,1996-09-03 21:00,ZBYN 032100Z AUTO 16004KT 4SM 15/14 A3003 RMK SLP155 T01470138 57004 IEM_DS3505
ZBYN,1996-09-03 22:00,ZBYN 032200Z AUTO 00000KT 1 1/4SM 14/13 A3003 RMK T01400130 IEM_DS3505
ZBYN,1996-09-03 23:00,ZBYN 032300Z AUTO 36004KT 1 1/4SM 14/14 A3006 RMK T01400140 IEM_DS3505
ZBYN,1996-09-04 00:00,ZBYN 040000Z AUTO 00000KT 4SM 16/15 A3006 RMK SLP169 T01590146 52009 IEM_DS3505
ZBYN,1996-09-04 01:00,ZBYN 040100Z AUTO 00000KT 2 1/2SM 17/15 A3006 RMK T01700150 IEM_DS3505
ZBYN,1996-09-04 02:00,ZBYN 040200Z AUTO 18004KT 2 1/2SM 19/15 A3006 RMK T01900150 IEM_DS3505
ZBYN,1996-09-04 03:00,ZBYN 040300Z AUTO 16002KT 4SM 20/14 A3006 RMK SLP166 T02050140 52001 IEM_DS3505
ZBYN,1996-09-04 04:00,ZBYN 040400Z AUTO 00000KT 5SM 21/15 A3003 RMK T02100150 IEM_DS3505
ZBYN,1996-09-04 05:00,ZBYN 040500Z AUTO 18006KT 7SM 22/15 A3000 RMK T02200150 IEM_DS3505
ZBYN,1996-09-04 06:00,ZBYN 040600Z AUTO 18008KT 6SM 22/15 A3000 RMK SLP139 T02210146 57023 IEM_DS3505
ZBYN,1996-09-04 07:00,ZBYN 040700Z AUTO 25004KT 6SM 23/15 A2997 RMK T02300150 IEM_DS3505
ZBYN,1996-09-04 08:00,ZBYN 040800Z AUTO 24004KT 7SM 22/15 A2997 RMK T02200150 IEM_DS3505
ZBYN,1996-09-04 09:00,ZBYN 040900Z AUTO 22002KT 6SM 20/16 A2997 RMK SLP131 T02040156 57010 IEM_DS3505
ZBYN,1996-09-04 10:00,ZBYN 041000Z AUTO 21004KT 7SM 21/16 A2997 RMK T02100160 IEM_DS3505
ZBYN,1996-09-04 11:00,ZBYN 041100Z AUTO 22008KT 5SM 19/16 A2997 RMK T01900160 IEM_DS3505
ZBYN,1996-09-04 12:00,ZBYN 041200Z AUTO 18006KT 6SM 18/16 A3000 RMK SLP143 T01850161 52010 IEM_DS3505
ZBYN,1996-09-04 13:00,ZBYN 041300Z AUTO 00000KT 5SM 18/16 A3000 RMK T01800160 IEM_DS3505
ZBYN,1996-09-04 14:00,ZBYN 041400Z AUTO 18004KT 5SM 18/16 A3003 RMK T01800160 IEM_DS3505
ZBYN,1996-09-04 15:00,ZBYN 041500Z AUTO 16006KT 6SM 17/16 A3000 RMK SLP143 T01710156 52005 IEM_DS3505
ZBYN,1996-09-04 16:00,ZBYN 041600Z AUTO 00000KT 2SM 17/16 A3000 RMK T01700160 IEM_DS3505
ZBYN,1996-09-04 17:00,ZBYN 041700Z AUTO 11006KT 2SM 17/16 A3000 RMK T01700160 IEM_DS3505
ZBYN,1996-09-04 18:00,ZBYN 041800Z AUTO 16004KT 4SM 16/16 A2999 RMK SLP132 T01630158 57009 IEM_DS3505
ZBYN,1996-09-04 19:00,ZBYN 041900Z AUTO 00000KT 1 1/4SM 17/16 A2997 RMK T01700160 IEM_DS3505
ZBYN,1996-09-04 20:00,ZBYN 042000Z AUTO 00000KT 1 1/4SM 17/16 A2997 RMK T01700160 IEM_DS3505
ZBYN,1996-09-04 21:00,ZBYN 042100Z AUTO 11002KT 2 1/2SM 16/16 A2997 RMK SLP131 T01610156 57004 IEM_DS3505
ZBYN,1996-09-04 22:00,ZBYN 042200Z AUTO 00000KT 1SM 16/16 A2997 RMK T01600160 IEM_DS3505
ZBYN,1996-09-04 23:00,ZBYN 042300Z AUTO 00000KT 1/2SM 16/16 A2997 RMK T01600160 IEM_DS3505
ZBYN,1996-09-05 00:00,ZBYN 050000Z AUTO 00000KT 2SM 16/16 A3000 RMK SLP140 T01640157 52006 IEM_DS3505
ZBYN,1996-09-05 01:00,ZBYN 050100Z AUTO 00000KT 2SM 16/16 A2997 RMK SLP140 T01600157 IEM_DS3505
ZBYN,1996-09-05 02:00,ZBYN 050200Z AUTO 21002KT 1 1/2SM 19/15 A3000 RMK T01900150 IEM_DS3505
ZBYN,1996-09-05 03:00,ZBYN 050300Z AUTO 20006KT 4SM 19/16 A3000 RMK SLP147 T01940164 52009 IEM_DS3505
ZBYN,1996-09-05 04:00,ZBYN 050400Z AUTO 18004KT 4SM 22/17 A3000 RMK T02200170 IEM_DS3505
ZBYN,1996-09-05 05:00,ZBYN 050500Z AUTO 18004KT 4SM 23/17 A2997 RMK T02300170 IEM_DS3505
ZBYN,1996-09-05 06:00,ZBYN 050600Z AUTO 16008KT 5SM 24/16 A2994 RMK SLP120 T02370165 57020 IEM_DS3505
ZBYN,1996-09-05 07:00,ZBYN 050700Z AUTO 26004KT 6SM 25/17 A2994 RMK T02500170 IEM_DS3505
ZBYN,1996-09-05 08:00,ZBYN 050800Z AUTO 00000KT 7SM 24/17 A2991 RMK T02400170 IEM_DS3505
ZBYN,1996-09-05 09:00,ZBYN 050900Z AUTO 20004KT 5SM 23/17 A2991 RMK SLP112 T02270171 57009 IEM_DS3505
ZBYN,1996-09-05 10:00,ZBYN 051000Z AUTO 00000KT 6SM 21/17 A2991 RMK T02100170 IEM_DS3505
ZBYN,1996-09-05 11:00,ZBYN 051100Z AUTO 00000KT 5SM 20/17 A2994 RMK T02000170 IEM_DS3505
ZBYN,1996-09-05 12:00,ZBYN 051200Z AUTO 00000KT 5SM 18/16 A2994 RMK SLP127 T01750157 52007 IEM_DS3505
ZBYN,1996-09-05 13:00,ZBYN 051300Z AUTO 12006KT 5SM 18/17 A2997 RMK T01800170 IEM_DS3505
ZBYN,1996-09-05 14:00,ZBYN 051400Z AUTO 11004KT 7SM 17/16 A3000 RMK T01700160 IEM_DS3505
ZBYN,1996-09-05 15:00,ZBYN 051500Z AUTO 18004KT 6SM 16/14 A3000 RMK SLP140 T01550143 52013 IEM_DS3505
ZBYN,1996-09-05 16:00,ZBYN 051600Z AUTO 11004KT 7SM 15/14 A3000 RMK T01500140 IEM_DS3505
ZBYN,1996-09-05 17:00,ZBYN 051700Z AUTO 09008KT 7SM 15/14 A3000 RMK T01500140 IEM_DS3505
ZBYN,1996-09-05 18:00,ZBYN 051800Z AUTO 34002KT 5SM 14/14 A3000 RMK SLP139 T01450138 52004 IEM_DS3505
ZBYN,1996-09-05 19:00,ZBYN 051900Z AUTO 04004KT 7SM 16/14 A3000 RMK T01600140 IEM_DS3505
ZBYN,1996-09-05 20:00,ZBYN 052000Z AUTO 00000KT 7SM 16/15 A3000 RMK T01600150 IEM_DS3505
ZBYN,1996-09-05 21:00,ZBYN 052100Z AUTO 32004KT 5SM 14/13 A3000 RMK SLP138 T01410132 57003 IEM_DS3505
ZBYN,1996-09-05 22:00,ZBYN 052200Z AUTO 00000KT 1 1/4SM 16/16 A3000 RMK T01600160 IEM_DS3505
ZBYN,1996-09-05 23:00,ZBYN 052300Z AUTO 00000KT 1 1/4SM 16/15 A3003 RMK T01600150 IEM_DS3505
ZBYN,1996-09-06 00:00,ZBYN 060000Z AUTO 32002KT 5SM 15/13 A3003 RMK SLP159 T01480131 52013 IEM_DS3505
ZBYN,1996-09-06 01:00,ZBYN 060100Z AUTO 00000KT 1 1/4SM 17/15 A3003 RMK T01700150 IEM_DS3505
ZBYN,1996-09-06 03:00,ZBYN 060300Z AUTO 18006KT 5SM 21/16 A3006 RMK SLP160 T02070157 52006 IEM_DS3505
ZBYN,1996-09-06 04:00,ZBYN 060400Z AUTO 18004KT 3SM 22/16 A3003 RMK T02200160 IEM_DS3505
ZBYN,1996-09-06 05:00,ZBYN 060500Z AUTO 28004KT 3SM 24/17 A3000 RMK T02400170 IEM_DS3505
ZBYN,1996-09-06 06:00,ZBYN 060600Z AUTO 20006KT 6SM 25/16 A2997 RMK SLP130 T02470157 57023 IEM_DS3505
ZBYN,1996-09-06 07:00,ZBYN 060700Z AUTO 23004KT 4SM 26/14 A2994 RMK T02600140 IEM_DS3505
ZBYN,1996-09-06 09:00,ZBYN 060900Z AUTO 25004KT 6SM 26/11 A2994 RMK SLP118 T02570113 57010 IEM_DS3505
ZBYN,1996-09-06 10:00,ZBYN 061000Z AUTO 26004KT 6SM 25/13 A2994 RMK T02500130 IEM_DS3505
ZBYN,1996-09-06 12:00,ZBYN 061200Z AUTO 00000KT 6SM 17/15 A2997 RMK SLP135 T01730146 52005 IEM_DS3505
ZBYN,1996-09-06 13:00,ZBYN 061300Z AUTO 11006KT 6SM 17/12 A3000 RMK T01700120 IEM_DS3505
ZBYN,1996-09-06 14:00,ZBYN 061400Z AUTO 11006KT 6SM 17/12 A3000 RMK T01700120 IEM_DS3505
ZBYN,1996-09-06 15:00,ZBYN 061500Z AUTO 32004KT 6SM 15/12 A3000 RMK SLP146 T01490123 52015 IEM_DS3505
ZBYN,1996-09-06 16:00,ZBYN 061600Z AUTO 10006KT 7SM 16/14 A3000 RMK T01600140 IEM_DS3505
ZBYN,1996-09-06 17:00,ZBYN 061700Z AUTO 11004KT 7SM 16/14 A3000 RMK T01600140 IEM_DS3505
ZBYN,1996-09-06 18:00,ZBYN 061800Z AUTO 5SM 14/13 A3003 RMK SLP144 T01440128 52003 IEM_DS3505
ZBYN,1996-09-06 20:00,ZBYN 062000Z AUTO 00000KT 6SM 15/14 A3003 RMK T01500140 IEM_DS3505
ZBYN,1996-09-06 21:00,ZBYN 062100Z AUTO 25002KT 6SM 13/12 A3003 RMK SLP148 T01270118 52003 IEM_DS3505
ZBYN,1996-09-06 22:00,ZBYN 062200Z AUTO 00000KT 5SM 14/14 A3003 RMK T01400140 IEM_DS3505
ZBYN,1996-09-06 23:00,ZBYN 062300Z AUTO 00000KT 4SM 15/14 A3006 RMK T01500140 IEM_DS3505
ZBYN,1996-09-07 00:00,ZBYN 070000Z AUTO 32004KT 5SM 15/13 A3006 RMK SLP168 T01510128 52009 IEM_DS3505
ZBYN,1996-09-07 01:00,ZBYN 070100Z AUTO 00000KT 1 1/4SM 18/14 A3006 RMK T01800140 IEM_DS3505
ZBYN,1996-09-07 02:00,ZBYN 070200Z AUTO 11004KT 20/16 A3003 RMK T02000160 IEM_DS3505
ZBYN,1996-09-07 03:00,ZBYN 070300Z AUTO 09002KT 5SM 21/15 A3003 RMK SLP159 T02090152 57003 IEM_DS3505
ZBYN,1996-09-07 06:00,ZBYN 070600Z AUTO 20008KT 6SM 25/10 A2997 RMK SLP124 T02530098 57026 IEM_DS3505
ZBYN,1996-09-07 07:00,ZBYN 070700Z AUTO 25006KT 7SM 26/10 A2994 RMK T02600100 IEM_DS3505
ZBYN,1996-09-07 09:00,ZBYN 070900Z AUTO 18006KT 9SM 25/12 RMK SLP113 T02530116 57013 IEM_DS3505
ZBYN,1996-09-07 11:00,ZBYN 071100Z AUTO 17006KT 6SM 21/13 A2991 RMK T02100130 IEM_DS3505
ZBYN,1996-09-07 12:00,ZBYN 071200Z AUTO 16004KT 6SM 18/13 A2996 RMK SLP130 T01800129 52009 IEM_DS3505
ZBYN,1996-09-07 15:00,ZBYN 071500Z AUTO 14006KT 6SM 16/13 A3000 RMK SLP133 T01630130 52008 IEM_DS3505
ZBYN,1996-09-07 16:00,ZBYN 071600Z AUTO 11004KT 6SM 16/14 A3000 RMK T01600140 IEM_DS3505
ZBYN,1996-09-07 17:00,ZBYN 071700Z AUTO 11006KT 6SM 15/14 A3000 RMK T01500140 IEM_DS3505
ZBYN,1996-09-07 18:00,ZBYN 071800Z AUTO 00000KT 6SM 14/13 A3000 RMK SLP137 T01430129 52007 IEM_DS3505
ZBYN,1996-09-07 19:00,ZBYN 071900Z AUTO 00000KT 6SM 15/13 A3000 RMK T01500130 IEM_DS3505
ZBYN,1996-09-07 20:00,ZBYN 072000Z AUTO 00000KT 6SM 15/14 A3000 RMK T01500140 IEM_DS3505
ZBYN,1996-09-07 21:00,ZBYN 072100Z AUTO 00000KT 6SM 14/13 A3000 RMK SLP137 T01410132 54000 IEM_DS3505
ZBYN,1996-09-07 22:00,ZBYN 072200Z AUTO 00000KT 2 1/2SM 15/14 A3000 RMK T01500140 IEM_DS3505
ZBYN,1996-09-08 00:00,ZBYN 080000Z AUTO 22004KT 5SM 16/14 A3003 RMK SLP157 T01570140 52010 IEM_DS3505
ZBYN,1996-09-08 01:00,ZBYN 080100Z AUTO 00000KT 5SM 17/14 A3003 RMK T01700140 IEM_DS3505
ZBYN,1996-09-08 02:00,ZBYN 080200Z AUTO 00000KT 5SM 20/14 A3006 RMK T02000140 IEM_DS3505
ZBYN,1996-09-08 03:00,ZBYN 080300Z AUTO 00000KT 5SM 22/14 A3003 RMK SLP151 T02200145 52001 IEM_DS3505
ZBYN,1996-09-08 04:00,ZBYN 080400Z AUTO 00000KT 6SM 23/14 A3003 RMK T02300140 IEM_DS3505
ZBYN,1996-09-08 06:00,ZBYN 080600Z AUTO 20004KT 6SM 26/14 A2997 RMK SLP123 T02560139 57023 IEM_DS3505
ZBYN,1996-09-08 07:00,ZBYN 080700Z AUTO 22008KT 6SM 27/15 A2994 RMK T02700150 IEM_DS3505
ZBYN,1996-09-08 08:00,ZBYN 080800Z AUTO 25006KT 7SM 26/14 A2994 RMK T02600140 IEM_DS3505
ZBYN,1996-09-08 09:00,ZBYN 080900Z AUTO 36006KT 6SM 22/10 RMK SLP144 T02180102 52013 IEM_DS3505
ZBYN,1996-09-08 10:00,ZBYN 081000Z AUTO 02008KT 7SM 18/15 A3000 RMK T01800150 IEM_DS3505
ZBYN,1996-09-08 11:00,ZBYN 081100Z AUTO 00000KT 6SM 19/14 A3000 RMK T01900140 IEM_DS3505
ZBYN,1996-09-08 12:00,ZBYN 081200Z AUTO 11004KT 6SM 17/14 A3003 RMK 60002 SLP159 T01670140 52009 IEM_DS3505
ZBYN,1996-09-08 13:00,ZBYN 081300Z AUTO 06006KT 7SM 16/14 A3006 RMK T01600140 IEM_DS3505
ZBYN,1996-09-08 14:00,ZBYN 081400Z AUTO 05004KT 7SM 16/13 A3006 RMK T01600130 IEM_DS3505
ZBYN,1996-09-08 15:00,ZBYN 081500Z AUTO 34004KT 6SM 15/14 A3006 RMK SLP164 T01500135 52011 IEM_DS3505
ZBYN,1996-09-08 16:00,ZBYN 081600Z AUTO 17006KT 7SM 15/13 A3006 RMK T01500130 IEM_DS3505
ZBYN,1996-09-08 17:00,ZBYN 081700Z AUTO 00000KT 7SM 14/13 A3009 RMK T01400130 IEM_DS3505
ZBYN,1996-09-08 18:00,ZBYN 081800Z AUTO 00000KT 4SM 13/12 A3006 RMK SLP162 T01330124 52001 IEM_DS3505
ZBYN,1996-09-08 19:00,ZBYN 081900Z AUTO 00000KT 7SM 13/13 A3006 RMK T01300130 IEM_DS3505
ZBYN,1996-09-08 20:00,ZBYN 082000Z AUTO 00000KT 7SM 13/12 A3006 RMK T01300120 IEM_DS3505
ZBYN,1996-09-08 21:00,ZBYN 082100Z AUTO 00000KT 4SM 12/11 A3006 RMK 70002 SLP171 T01190114 52001 IEM_DS3505
ZBYN,1996-09-08 22:00,ZBYN 082200Z AUTO 00000KT 6SM 12/11 A3009 RMK T01200110 IEM_DS3505
ZBYN,1996-09-08 23:00,ZBYN 082300Z AUTO 00000KT 4SM 12/12 A3009 RMK T01200120 IEM_DS3505
ZBYN,1996-09-09 00:00,ZBYN 090000Z AUTO 00000KT 4SM 15/14 A3012 RMK 70002 SLP186 T01470138 52010 IEM_DS3505
ZBYN,1996-09-09 02:00,ZBYN 090200Z AUTO 19004KT 4SM 18/15 A3012 RMK T01800150 IEM_DS3505
ZBYN,1996-09-09 03:00,ZBYN 090300Z AUTO 22004KT 6SM 21/15 RMK SLP181 T02080149 52002 IEM_DS3505
ZBYN,1996-09-09 04:00,ZBYN 090400Z AUTO 23006KT 4SM 23/15 A3009 RMK T02300150 IEM_DS3505
ZBYN,1996-09-09 06:00,ZBYN 090600Z AUTO 18004KT 6SM 25/13 A3004 RMK SLP152 T02520134 57023 IEM_DS3505
ZBYN,1996-09-09 07:00,ZBYN 090700Z AUTO 26004KT 6SM 27/14 A3000 RMK T02700140 IEM_DS3505
ZBYN,1996-09-09 08:00,ZBYN 090800Z AUTO 19004KT 6SM 27/14 A3000 RMK T02700140 IEM_DS3505
ZBYN,1996-09-09 09:00,ZBYN 090900Z AUTO 18004KT 6SM 25/13 A3000 RMK SLP139 T02470133 57014 IEM_DS3505
ZBYN,1996-09-09 10:00,ZBYN 091000Z AUTO 00000KT 7SM 25/16 A3000 RMK T02500160 IEM_DS3505
ZBYN,1996-09-09 11:00,ZBYN 091100Z AUTO 00000KT 7SM 21/15 A3000 RMK T02100150 IEM_DS3505
ZBYN,1996-09-09 12:00,ZBYN 091200Z AUTO 07004KT 6SM 18/15 A3000 RMK SLP150 T01780153 52004 IEM_DS3505
ZBYN,1996-09-09 13:00,ZBYN 091300Z AUTO 14004KT 3SM 18/16 A3003 RMK T01800160 IEM_DS3505
ZBYN,1996-09-09 14:00,ZBYN 091400Z AUTO 09006KT 4SM 17/15 A3003 RMK T01700150 IEM_DS3505
ZBYN,1996-09-09 15:00,ZBYN 091500Z AUTO 00000KT 6SM 16/14 A3003 RMK SLP156 T01570140 52011 IEM_DS3505
ZBYN,1996-09-09 16:00,ZBYN 091600Z AUTO 11006KT 4SM 16/14 A3003 RMK T01600140 IEM_DS3505
ZBYN,1996-09-09 18:00,ZBYN 091800Z AUTO 32002KT 6SM 16/14 A3003 RMK SLP148 T01570138 57001 IEM_DS3505
ZBYN,1996-09-09 19:00,ZBYN 091900Z AUTO 00000KT 4SM 16/14 A3003 RMK T01600140 IEM_DS3505
ZBYN,1996-09-09 20:00,ZBYN 092000Z AUTO 00000KT 4SM 16/14 A3003 RMK T01600140 IEM_DS3505
ZBYN,1996-09-09 21:00,ZBYN 092100Z AUTO 00000KT 4SM 15/14 A3000 RMK SLP146 T01470135 57004 IEM_DS3505
ZBYN,1996-09-09 22:00,ZBYN 092200Z AUTO 10004KT 4SM 16/15 A3000 RMK T01600150 IEM_DS3505
ZBYN,1996-09-09 23:00,ZBYN 092300Z AUTO 11004KT 1 1/4SM 15/15 A3003 RMK T01500150 IEM_DS3505
ZBYN,1996-09-10 00:00,ZBYN 100000Z AUTO 34002KT 2 1/2SM 17/15 A3003 RMK SLP157 T01660146 52003 IEM_DS3505
ZBYN,1996-09-10 01:00,ZBYN 100100Z AUTO 00000KT 1 1/2SM 18/16 A3003 RMK T01800160 IEM_DS3505
ZBYN,1996-09-10 02:00,ZBYN 100200Z AUTO 23004KT 2SM 20/16 A3003 RMK T02000160 IEM_DS3505
ZBYN,1996-09-10 03:00,ZBYN 100300Z AUTO 14006KT 5SM 22/15 A3003 RMK SLP150 T02190147 57002 IEM_DS3505
ZBYN,1996-09-10 04:00,ZBYN 100400Z AUTO 22010KT 6SM 24/14 A3000 RMK T02400140 IEM_DS3505
ZBYN,1996-09-10 06:00,ZBYN 100600Z AUTO 22008KT 6SM 24/15 A2994 RMK SLP121 T02370146 57024 IEM_DS3505
ZBYN,1996-09-10 07:00,ZBYN 100700Z AUTO 23008KT 7SM 24/13 A2994 RMK T02400130 IEM_DS3505
ZBYN,1996-09-10 08:00,ZBYN 100800Z AUTO 02012KT 7SM 23/15 A2991 RMK T02300150 IEM_DS3505
ZBYN,1996-09-10 09:00,ZBYN 100900Z AUTO 18006KT 6SM 22/16 A2991 RMK SLP114 T02190155 57010 IEM_DS3505
ZBYN,1996-09-10 10:00,ZBYN 101000Z AUTO 20004KT 6SM 22/15 A2991 RMK T02200150 IEM_DS3505
ZBYN,1996-09-10 11:00,ZBYN 101100Z AUTO 19004KT 6SM 20/15 A2991 RMK T02000150 IEM_DS3505
ZBYN,1996-09-10 12:00,ZBYN 101200Z AUTO 18006KT 6SM 18/14 A2994 RMK SLP124 T01850142 52007 IEM_DS3505
ZBYN,1996-09-10 13:00,ZBYN 101300Z AUTO 17006KT 6SM 18/14 A2997 RMK T01800140 IEM_DS3505
ZBYN,1996-09-10 14:00,ZBYN 101400Z AUTO 00000KT 6SM 17/14 A2997 RMK T01700140 IEM_DS3505
ZBYN,1996-09-10 15:00,ZBYN 101500Z AUTO 11006KT 7SM 16/14 A2997 RMK SLP131 T01550136 52010 IEM_DS3505
ZBYN,1996-09-10 17:00,ZBYN 101700Z AUTO 09006KT 7SM 15/14 A2994 RMK T01500140 IEM_DS3505
ZBYN,1996-09-10 18:00,ZBYN 101800Z AUTO 00000KT 7SM 14/13 A2994 RMK SLP124 T01420132 57006 IEM_DS3505
ZBYN,1996-09-10 19:00,ZBYN 101900Z AUTO 00000KT 7SM 14/13 A2991 RMK T01400130 IEM_DS3505
ZBYN,1996-09-10 20:00,ZBYN 102000Z AUTO 00000KT 7SM 13/13 A2991 RMK T01300130 IEM_DS3505
ZBYN,1996-09-10 21:00,ZBYN 102100Z AUTO 00000KT 3SM 13/12 A2991 RMK SLP119 T01280124 57009 IEM_DS3505
ZBYN,1996-09-10 22:00,ZBYN 102200Z AUTO 00000KT 1 1/2SM 13/13 A2991 RMK T01300130 IEM_DS3505
ZBYN,1996-09-11 00:00,ZBYN 110000Z AUTO 00000KT 6SM 15/14 A2994 RMK SLP124 T01530138 52003 IEM_DS3505
ZBYN,1996-09-11 01:00,ZBYN 110100Z AUTO 00000KT 1SM 16/15 A2994 RMK T01600150 IEM_DS3505
ZBYN,1996-09-11 02:00,ZBYN 110200Z AUTO 00000KT 1SM 19/16 A2994 RMK T01900160 IEM_DS3505
ZBYN,1996-09-11 03:00,ZBYN 110300Z AUTO 18006KT 5SM 22/14 A2991 RMK SLP117 T02170145 57001 IEM_DS3505
ZBYN,1996-09-11 04:00,ZBYN 110400Z AUTO 20004KT 4SM 24/15 A2988 RMK T02400150 IEM_DS3505
ZBYN,1996-09-11 05:00,ZBYN 110500Z AUTO 20006KT 5SM 25/14 A2988 RMK T02500140 IEM_DS3505
ZBYN,1996-09-11 06:00,ZBYN 110600Z AUTO 18006KT 5SM 26/14 A2983 RMK SLP083 T02570142 57028 IEM_DS3505
ZBYN,1996-09-11 07:00,ZBYN 110700Z AUTO 20006KT 6SM 27/15 A2983 RMK T02700150 IEM_DS3505
ZBYN,1996-09-11 08:00,ZBYN 110800Z AUTO 22006KT 6SM 27/15 A2980 RMK T02700150 IEM_DS3505
ZBYN,1996-09-11 09:00,ZBYN 110900Z AUTO 18006KT 6SM 25/15 A2980 RMK SLP079 T02470149 57007 IEM_DS3505
ZBYN,1996-09-11 10:00,ZBYN 111000Z AUTO 19004KT 6SM 24/17 A2980 RMK T02400170 IEM_DS3505
ZBYN,1996-09-11 11:00,ZBYN 111100Z AUTO 18002KT 6SM 22/16 A2980 RMK T02200160 IEM_DS3505
ZBYN,1996-09-11 12:00,ZBYN 111200Z AUTO 11006KT 6SM 20/16 A2983 RMK SLP082 T01980161 54000 IEM_DS3505
ZBYN,1996-09-11 13:00,ZBYN 111300Z AUTO 12002KT 5SM 20/17 A2985 RMK T02000170 IEM_DS3505
ZBYN,1996-09-11 14:00,ZBYN 111400Z AUTO 14004KT 5SM 19/17 A2988 RMK T01900170 IEM_DS3505
ZBYN,1996-09-11 15:00,ZBYN 111500Z AUTO 11004KT 6SM 18/15 A2988 RMK SLP092 T01790154 52015 IEM_DS3505
ZBYN,1996-09-11 16:00,ZBYN 111600Z AUTO 12006KT 5SM 18/17 A2988 RMK T01800170 IEM_DS3505
ZBYN,1996-09-11 17:00,ZBYN 111700Z AUTO 12008KT 5SM 18/17 A2988 RMK T01800170 IEM_DS3505
ZBYN,1996-09-11 18:00,ZBYN 111800Z AUTO 11006KT 6SM 16/15 A2988 RMK SLP092 T01650152 52004 IEM_DS3505
ZBYN,1996-09-11 20:00,ZBYN 112000Z AUTO 00000KT 5SM 16/16 A2985 RMK T01600160 IEM_DS3505
ZBYN,1996-09-11 21:00,ZBYN 112100Z AUTO 11002KT 6SM 14/14 A2988 RMK SLP099 T01450140 52002 IEM_DS3505
ZBYN,1996-09-11 22:00,ZBYN 112200Z AUTO 09002KT 1 1/4SM 15/15 A2988 RMK T01500150 IEM_DS3505
ZBYN,1996-09-11 23:00,ZBYN 112300Z AUTO 12004KT 1SM 15/14 A2988 RMK T01500140 IEM_DS3505
ZBYN,1996-09-12 00:00,ZBYN 120000Z AUTO 14004KT 5SM 16/15 A2988 RMK SLP111 T01550150 52005 IEM_DS3505
ZBYN,1996-09-12 01:00,ZBYN 120100Z AUTO 17004KT 1 1/2SM 18/16 A2991 RMK T01800160 IEM_DS3505
ZBYN,1996-09-12 02:00,ZBYN 120200Z AUTO 24006KT 2SM 20/16 A2991 RMK T02000160 IEM_DS3505
ZBYN,1996-09-12 03:00,ZBYN 120300Z AUTO 20006KT 5SM 22/17 A2988 RMK SLP101 T02170168 57003 IEM_DS3505
ZBYN,1996-09-12 04:00,ZBYN 120400Z AUTO 21008KT 4SM 24/17 A2988 RMK T02400170 IEM_DS3505
ZBYN,1996-09-12 05:00,ZBYN 120500Z AUTO 20006KT 5SM 26/18 A2985 RMK T02600180 IEM_DS3505
ZBYN,1996-09-12 06:00,ZBYN 120600Z AUTO 18012KT 5SM 26/18 A2983 RMK SLP073 T02550180 57002 IEM_DS3505
ZBYN,1996-09-12 07:00,ZBYN 120700Z AUTO 19008KT 6SM 27/18 A2980 RMK T02700180 IEM_DS3505
ZBYN,1996-09-12 11:00,ZBYN 121100Z AUTO 18008KT 7SM 24/18 A2977 RMK T02400180 IEM_DS3505
ZBYN,1996-09-12 12:00,ZBYN 121200Z AUTO 04002KT 6SM 22/19 A2980 RMK SLP073 T02180189 52008 IEM_DS3505
ZBYN,1996-09-12 13:00,ZBYN 121300Z AUTO 19004KT 7SM 21/18 A2983 RMK T02100180 IEM_DS3505
ZBYN,1996-09-12 14:00,ZBYN 121400Z AUTO 13004KT 7SM 20/17 A2985 RMK T02000170 IEM_DS3505
ZBYN,1996-09-12 15:00,ZBYN 121500Z AUTO 11004KT 6SM 18/16 A2985 RMK SLP089 T01780159 52017 IEM_DS3505
ZBYN,1996-09-12 16:00,ZBYN 121600Z AUTO 09008KT 7SM 17/15 A2988 RMK T01700150 IEM_DS3505
ZBYN,1996-09-12 18:00,ZBYN 121800Z AUTO 00000KT 6SM 15/13 A2987 RMK SLP089 T01460132 52001 IEM_DS3505
ZBYN,1996-09-12 19:00,ZBYN 121900Z AUTO 09004KT 7SM 15/13 A2985 RMK T01500130 IEM_DS3505
ZBYN,1996-09-12 21:00,ZBYN 122100Z AUTO 34004KT 5SM 13/13 A2985 RMK SLP092 T01310126 52001 IEM_DS3505
ZBYN,1996-09-12 22:00,ZBYN 122200Z AUTO 00000KT 7SM 13/12 A2988 RMK T01300120 IEM_DS3505
ZBYN,1996-09-13 00:00,ZBYN 130000Z AUTO 32004KT 5SM 16/14 A2988 RMK SLP106 T01550143 52011 IEM_DS3505
ZBYN,1996-09-13 01:00,ZBYN 130100Z AUTO 00000KT 2 1/2SM 18/14 A2991 RMK T01800140 IEM_DS3505
ZBYN,1996-09-13 02:00,ZBYN 130200Z AUTO 00000KT 7SM 21/14 A2991 RMK T02100140 IEM_DS3505
ZBYN,1996-09-13 03:00,ZBYN 130300Z AUTO 11006KT 6SM 24/12 RMK SLP100 T02440125 52001 IEM_DS3505
ZBYN,1996-09-13 04:00,ZBYN 130400Z AUTO 00000KT 7SM 26/14 A2988 RMK T02600140 IEM_DS3505
ZBYN,1996-09-13 05:00,ZBYN 130500Z AUTO 00000KT 6SM 28/16 A2985 RMK T02800160 IEM_DS3505
ZBYN,1996-09-13 06:00,ZBYN 130600Z AUTO 18006KT 6SM 29/15 A2983 RMK SLP071 T02880151 57022 IEM_DS3505
ZBYN,1996-09-13 07:00,ZBYN 130700Z AUTO 17008KT 6SM 30/15 A2983 RMK T03000150 IEM_DS3505
ZBYN,1996-09-13 08:00,ZBYN 130800Z AUTO 00000KT 6SM 30/14 RMK T03000140 IEM_DS3505
ZBYN,1996-09-13 09:00,ZBYN 130900Z AUTO 14002KT 6SM 29/15 A2980 RMK SLP062 T02870152 57013 IEM_DS3505
ZBYN,1996-09-13 11:00,ZBYN 131100Z AUTO 10014KT 5SM 21/17 A2983 RMK T02100170 IEM_DS3505
ZBYN,1996-09-13 12:00,ZBYN 131200Z AUTO 07004KT 6SM 22/16 A2983 RMK SLP091 T02180159 52020 IEM_DS3505
ZBYN,1996-09-13 13:00,ZBYN 131300Z AUTO 08012KT 6SM 20/17 A2983 RMK T02000170 IEM_DS3505
ZBYN,1996-09-13 14:00,ZBYN 131400Z AUTO 04006KT 6SM 20/17 A2988 RMK T02000170 IEM_DS3505
ZBYN,1996-09-13 15:00,ZBYN 131500Z AUTO 29004KT 6SM 20/16 A2988 RMK SLP097 T02010163 52016 IEM_DS3505
ZBYN,1996-09-13 16:00,ZBYN 131600Z AUTO 08008KT 6SM 20/17 A2988 RMK T02000170 IEM_DS3505
ZBYN,1996-09-13 17:00,ZBYN 131700Z AUTO 10014KT 7SM 20/17 A2983 RMK T02000170 IEM_DS3505
ZBYN,1996-09-13 18:00,ZBYN 131800Z AUTO 34004KT 6SM 19/17 A2985 RMK SLP079 T01860167 57013 IEM_DS3505
ZBYN,1996-09-13 19:00,ZBYN 131900Z AUTO 00000KT 6SM 18/18 A2985 RMK T01800180 IEM_DS3505
ZBYN,1996-09-13 20:00,ZBYN 132000Z AUTO 00000KT 6SM 17/17 A2985 RMK T01700170 IEM_DS3505
ZBYN,1996-09-13 21:00,ZBYN 132100Z AUTO 32002KT 5SM 16/16 A2983 RMK SLP079 T01630158 57003 IEM_DS3505
ZBYN,1996-09-13 22:00,ZBYN 132200Z AUTO 00000KT 5SM 17/16 A2985 RMK T01700160 IEM_DS3505
ZBYN,1996-09-13 23:00,ZBYN 132300Z AUTO 00000KT 3SM 17/16 A2985 RMK T01700160 IEM_DS3505
ZBYN,1996-09-14 00:00,ZBYN 140000Z AUTO 00000KT 2 1/2SM 18/17 A2985 RMK T01800170 IEM_DS3505
ZBYN,1996-09-14 01:00,ZBYN 140100Z AUTO 21004KT 2SM 20/18 A2985 RMK T02000180 IEM_DS3505
ZBYN,1996-09-14 02:00,ZBYN 140200Z AUTO 13006KT 2SM 22/19 A2985 RMK T02200190 IEM_DS3505
ZBYN,1996-09-14 03:00,ZBYN 140300Z AUTO 18010KT 5SM 24/18 A2985 RMK SLP076 T02410176 57009 IEM_DS3505
ZBYN,1996-09-14 04:00,ZBYN 140400Z AUTO 22006KT 4SM 26/18 A2983 RMK T02600180 IEM_DS3505
ZBYN,1996-09-14 05:00,ZBYN 140500Z AUTO 10008KT 6SM 28/17 A2980 RMK T02800170 IEM_DS3505
ZBYN,1996-09-14 06:00,ZBYN 140600Z AUTO 18010KT 5SM 28/17 A2977 RMK SLP051 T02770171 57020 IEM_DS3505
ZBYN,1996-09-14 07:00,ZBYN 140700Z AUTO 22008KT 7SM 29/15 A2974 RMK T02900150 IEM_DS3505
ZBYN,1996-09-14 08:00,ZBYN 140800Z AUTO 28010KT 7SM 29/15 A2974 RMK T02900150 IEM_DS3505
ZBYN,1996-09-14 09:00,ZBYN 140900Z AUTO 04006KT 5SM 23/15 RMK SLP058 T02260150 57004 IEM_DS3505
ZBYN,1996-09-14 10:00,ZBYN 141000Z AUTO 01010KT 5SM 19/17 A2983 RMK T01900170 IEM_DS3505
ZBYN,1996-09-14 11:00,ZBYN 141100Z AUTO 20/14 A2985 RMK T02000140 IEM_DS3505
ZBYN,1996-09-14 12:00,ZBYN 141200Z AUTO 36004KT 5SM 20/13 A2991 RMK 60004 SLP107 T01960128 52042 IEM_DS3505
ZBYN,1996-09-14 13:00,ZBYN 141300Z AUTO 14004KT 6SM 17/15 A2991 RMK T01700150 IEM_DS3505
ZBYN,1996-09-14 14:00,ZBYN 141400Z AUTO 29004KT 7SM 17/15 A2991 RMK T01700150 IEM_DS3505
ZBYN,1996-09-14 15:00,ZBYN 141500Z AUTO 27002KT 5SM 16/14 RMK SLP105 T01630143 52003 IEM_DS3505
ZBYN,1996-09-14 16:00,ZBYN 141600Z AUTO 00000KT 7SM 16/15 A2991 RMK T01600150 IEM_DS3505
ZBYN,1996-09-14 17:00,ZBYN 141700Z AUTO 00000KT 7SM 16/16 A2991 RMK T01600160 IEM_DS3505
ZBYN,1996-09-14 18:00,ZBYN 141800Z AUTO 36004KT 6SM 16/14 A2991 RMK 60001 SLP101 T01650140 52002 IEM_DS3505
ZBYN,1996-09-14 19:00,ZBYN 141900Z AUTO 00000KT 7SM 15/15 A2991 RMK T01500150 IEM_DS3505
ZBYN,1996-09-14 20:00,ZBYN 142000Z AUTO 00000KT 6SM 15/15 A2991 RMK T01500150 IEM_DS3505
ZBYN,1996-09-14 21:00,ZBYN 142100Z AUTO 00000KT 6SM 14/13 A2991 RMK 70004 SLP114 T01410129 52001 IEM_DS3505
ZBYN,1996-09-14 22:00,ZBYN 142200Z AUTO 00000KT 7SM 15/14 A2994 RMK T01500140 IEM_DS3505
ZBYN,1996-09-14 23:00,ZBYN 142300Z AUTO 21004KT 7SM 15/14 A2994 RMK T01500140 IEM_DS3505
ZBYN,1996-09-15 00:00,ZBYN 150000Z AUTO 32002KT 4SM 15/14 A2997 RMK 70004 SLP133 T01530141 52015 IEM_DS3505
ZBYN,1996-09-15 01:00,ZBYN 150100Z AUTO 00000KT 4SM 16/15 A2997 RMK T01600150 IEM_DS3505
ZBYN,1996-09-15 02:00,ZBYN 150200Z AUTO 00000KT 4SM 18/15 A2997 RMK T01800150 IEM_DS3505
ZBYN,1996-09-15 03:00,ZBYN 150300Z AUTO 36004KT 4SM 20/14 A2997 RMK SLP135 T01990137 52004 IEM_DS3505
ZBYN,1996-09-15 04:00,ZBYN 150400Z AUTO 33010KT 7SM 23/12 A2997 RMK T02300120 IEM_DS3505
ZBYN,1996-09-15 06:00,ZBYN 150600Z AUTO 00000KT 5SM 21/14 A2994 RMK SLP122 T02110144 57010 IEM_DS3505
ZBYN,1996-09-15 07:00,ZBYN 150700Z AUTO 00000KT 7SM 21/14 A2994 RMK T02100140 IEM_DS3505
ZBYN,1996-09-15 08:00,ZBYN 150800Z AUTO 21006KT 7SM 21/15 A2994 RMK T02100150 IEM_DS3505
ZBYN,1996-09-15 09:00,ZBYN 150900Z AUTO 01033KT 5SM 21/15 A2991 RMK T02100150 IEM_DS3505
ZBYN,1996-09-15 10:00,ZBYN 151000Z AUTO 21002KT 6SM 21/16 A2991 RMK T02100160 IEM_DS3505
ZBYN,1996-09-15 11:00,ZBYN 151100Z AUTO 17006KT 6SM 18/16 A2994 RMK T01800160 IEM_DS3505
ZBYN,1996-09-15 12:00,ZBYN 151200Z AUTO 16006KT 5SM 17/14 A2994 RMK SLP131 T01670136 52008 IEM_DS3505
ZBYN,1996-09-15 13:00,ZBYN 151300Z AUTO 13004KT 6SM 16/14 A2997 RMK T01600140 IEM_DS3505
ZBYN,1996-09-15 14:00,ZBYN 151400Z AUTO 09006KT 6SM 16/14 A2997 RMK T01600140 IEM_DS3505
ZBYN,1996-09-15 15:00,ZBYN 151500Z AUTO 16002KT 5SM 14/12 A3000 RMK SLP142 T01430124 52013 IEM_DS3505
ZBYN,1996-09-15 16:00,ZBYN 151600Z AUTO 00000KT 6SM 14/13 A3000 RMK T01400130 IEM_DS3505
ZBYN,1996-09-15 17:00,ZBYN 151700Z AUTO 00000KT 7SM 13/13 A3000 RMK T01300130 IEM_DS3505
ZBYN,1996-09-15 18:00,ZBYN 151800Z AUTO 00000KT 5SM 13/12 A3000 RMK SLP145 T01270118 52002 IEM_DS3505
ZBYN,1996-09-15 19:00,ZBYN 151900Z AUTO 00000KT 7SM 12/12 A3000 RMK T01200120 IEM_DS3505
ZBYN,1996-09-15 20:00,ZBYN 152000Z AUTO 00000KT 7SM 12/11 A3000 RMK T01200110 IEM_DS3505
ZBYN,1996-09-15 21:00,ZBYN 152100Z AUTO 00000KT 2 1/2SM 10/10 A3000 RMK SLP149 T00990095 54000 IEM_DS3505
ZBYN,1996-09-15 22:00,ZBYN 152200Z AUTO 00000KT 7SM 10/10 A3000 RMK T01000100 IEM_DS3505
ZBYN,1996-09-15 23:00,ZBYN 152300Z AUTO 00000KT 7SM 11/10 A3000 RMK T01100100 IEM_DS3505
ZBYN,1996-09-16 00:00,ZBYN 160000Z AUTO 32004KT 4SM 13/12 A3000 RMK SLP154 T01340116 52003 IEM_DS3505
ZBYN,1996-09-16 01:00,ZBYN 160100Z AUTO 00000KT 7SM 14/12 A3003 RMK T01400120 IEM_DS3505
ZBYN,1996-09-16 02:00,ZBYN 160200Z AUTO 11002KT 7SM 17/13 A3003 RMK T01700130 IEM_DS3505
ZBYN,1996-09-16 03:00,ZBYN 160300Z AUTO 00000KT 6SM 21/11 A3003 RMK SLP152 T02130110 52006 IEM_DS3505
ZBYN,1996-09-16 04:00,ZBYN 160400Z AUTO 00000KT 6SM 22/14 A2997 RMK T02200140 IEM_DS3505
ZBYN,1996-09-16 05:00,ZBYN 160500Z AUTO 00000KT 6SM 24/14 A2997 RMK T02400140 IEM_DS3505
ZBYN,1996-09-16 06:00,ZBYN 160600Z AUTO 20004KT 6SM 25/10 A2994 RMK SLP121 T02490102 57025 IEM_DS3505
ZBYN,1996-09-16 07:00,ZBYN 160700Z AUTO 08004KT 6SM 26/13 A2991 RMK T02600130 IEM_DS3505
ZBYN,1996-09-16 08:00,ZBYN 160800Z AUTO 00000KT 6SM 25/11 A2988 RMK T02500110 IEM_DS3505
ZBYN,1996-09-16 09:00,ZBYN 160900Z AUTO 00000KT 12SM 23/14 A2988 RMK SLP109 T02310145 57018 IEM_DS3505
ZBYN,1996-09-16 10:00,ZBYN 161000Z AUTO 10006KT 6SM 21/15 A2988 RMK T02100150 IEM_DS3505
ZBYN,1996-09-16 11:00,ZBYN 161100Z AUTO 10010KT 6SM 19/14 A2988 RMK T01900140 IEM_DS3505
ZBYN,1996-09-16 12:00,ZBYN 161200Z AUTO 09016KT 6SM 20/12 A2988 RMK SLP113 T01980117 52004 IEM_DS3505
ZBYN,1996-09-16 13:00,ZBYN 161300Z AUTO 12010KT 6SM 18/14 A2991 RMK T01800140 IEM_DS3505
ZBYN,1996-09-16 14:00,ZBYN 161400Z AUTO 06012KT 6SM 18/14 A2991 RMK T01800140 IEM_DS3505
ZBYN,1996-09-16 15:00,ZBYN 161500Z AUTO 02004KT 6SM 18/12 RMK SLP118 T01790118 52013 IEM_DS3505
ZBYN,1996-09-16 18:00,ZBYN 161800Z AUTO 02004KT 6SM 16/14 A2995 RMK SLP115 T01610137 54000 IEM_DS3505
ZBYN,1996-09-16 21:00,ZBYN 162100Z AUTO 18004KT 5SM 15/14 A2994 RMK 70008 SLP115 T01490144 57004 IEM_DS3505
ZBYN,1996-09-16 22:00,ZBYN 162200Z AUTO 00000KT 1 1/2SM 15/14 A2994 RMK T01500140 IEM_DS3505
ZBYN,1996-09-16 23:00,ZBYN 162300Z AUTO 00000KT 1 1/2SM 15/15 A2994 RMK T01500150 IEM_DS3505
ZBYN,1996-09-17 00:00,ZBYN 170000Z AUTO 32004KT 3SM 15/14 A2994 RMK 60016 70016 SLP122 T01490144 52002 IEM_DS3505
ZBYN,1996-09-17 01:00,ZBYN 170100Z AUTO 31004KT 5SM 16/14 A2994 RMK T01600140 IEM_DS3505
ZBYN,1996-09-17 02:00,ZBYN 170200Z AUTO 03004KT 5SM 17/15 A2991 RMK T01700150 IEM_DS3505
ZBYN,1996-09-17 03:00,ZBYN 170300Z AUTO 07004KT 5SM 18/13 A2994 RMK SLP118 T01840133 57002 IEM_DS3505
ZBYN,1996-09-17 04:00,ZBYN 170400Z AUTO 15006KT 6SM 21/14 A2991 RMK T02100140 IEM_DS3505
ZBYN,1996-09-17 05:00,ZBYN 170500Z AUTO 15006KT 6SM 20/14 A2991 RMK T02000140 IEM_DS3505
ZBYN,1996-09-17 06:00,ZBYN 170600Z AUTO 16004KT 12SM 19/13 A2988 RMK SLP107 T01870127 57012 IEM_DS3505
ZBYN,1996-09-17 07:00,ZBYN 170700Z AUTO 20006KT 6SM 19/13 A2988 RMK T01900130 IEM_DS3505
ZBYN,1996-09-17 08:00,ZBYN 170800Z AUTO 19006KT 6SM 19/13 A2988 RMK T01900130 IEM_DS3505
ZBYN,1996-09-17 09:00,ZBYN 170900Z AUTO 18004KT 9SM 18/13 A2988 RMK SLP107 T01780134 57003 IEM_DS3505
ZBYN,1996-09-17 10:00,ZBYN 171000Z AUTO 18002KT 6SM 18/15 A2988 RMK T01800150 IEM_DS3505
ZBYN,1996-09-17 11:00,ZBYN 171100Z AUTO 00000KT 6SM 17/15 A2988 RMK T01700150 IEM_DS3505
ZBYN,1996-09-17 12:00,ZBYN 171200Z AUTO 14004KT 6SM 16/15 A2988 RMK SLP111 T01610148 52001 IEM_DS3505
ZBYN,1996-09-17 13:00,ZBYN 171300Z AUTO 00000KT 6SM 16/15 A2988 RMK T01600150 IEM_DS3505
ZBYN,1996-09-17 14:00,ZBYN 171400Z AUTO 00000KT 6SM 15/14 A2988 RMK T01500140 IEM_DS3505
ZBYN,1996-09-17 15:00,ZBYN 171500Z AUTO 07004KT 6SM 14/14 A2988 RMK SLP113 T01420139 52004 IEM_DS3505
ZBYN,1996-09-17 16:00,ZBYN 171600Z AUTO 12004KT 6SM 14/13 A2988 RMK T01400130 IEM_DS3505
ZBYN,1996-09-17 18:00,ZBYN 171800Z AUTO 00000KT 6SM 13/13 A2985 RMK SLP109 T01320127 57004 IEM_DS3505
ZBYN,1996-09-17 19:00,ZBYN 171900Z AUTO 11004KT 6SM 14/13 A2988 RMK T01400130 IEM_DS3505
ZBYN,1996-09-17 20:00,ZBYN 172000Z AUTO 00000KT 7SM 13/13 A2985 RMK T01300130 IEM_DS3505
ZBYN,1996-09-17 21:00,ZBYN 172100Z AUTO 09002KT 2SM 13/13 A2985 RMK 70008 SLP105 T01330130 57005 IEM_DS3505
ZBYN,1996-09-17 22:00,ZBYN 172200Z AUTO 00000KT 1/2SM 14/14 A2985 RMK T01400140 IEM_DS3505
ZBYN,1996-09-17 23:00,ZBYN 172300Z AUTO 00000KT 1/2SM 14/14 A2985 RMK T01400140 IEM_DS3505
ZBYN,1996-09-18 00:00,ZBYN 180000Z AUTO 11004KT 1 1/4SM 14/14 A2988 RMK SLP109 T01390137 52002 IEM_DS3505
ZBYN,1996-09-18 01:00,ZBYN 180100Z AUTO 00000KT 1SM 15/14 A2988 RMK T01500140 IEM_DS3505
ZBYN,1996-09-18 02:00,ZBYN 180200Z AUTO 00000KT 1 1/4SM 17/15 A2991 RMK T01700150 IEM_DS3505
ZBYN,1996-09-18 03:00,ZBYN 180300Z AUTO 18004KT 6SM 18/14 A2991 RMK SLP116 T01850143 52010 IEM_DS3505
ZBYN,1996-09-18 04:00,ZBYN 180400Z AUTO 21004KT 1 1/2SM 19/15 A2988 RMK T01900150 IEM_DS3505
ZBYN,1996-09-18 05:00,ZBYN 180500Z AUTO 21006KT 2SM 20/15 A2988 RMK T02000150 IEM_DS3505
ZBYN,1996-09-18 06:00,ZBYN 180600Z AUTO 18008KT 6SM 20/14 A2988 RMK SLP109 T01950140 57006 IEM_DS3505
ZBYN,1996-09-18 07:00,ZBYN 180700Z AUTO 17004KT 4SM 22/15 A2985 RMK T02200150 IEM_DS3505
ZBYN,1996-09-18 08:00,ZBYN 180800Z AUTO 00000KT 5SM 23/15 A2983 RMK T02300150 IEM_DS3505
ZBYN,1996-09-18 09:00,ZBYN 180900Z AUTO 16006KT 6SM 21/15 A2983 RMK SLP088 T02110151 57017 IEM_DS3505
ZBYN,1996-09-18 10:00,ZBYN 181000Z AUTO 19006KT 5SM 21/16 A2983 RMK T02100160 IEM_DS3505
ZBYN,1996-09-18 11:00,ZBYN 181100Z AUTO 00000KT 5SM 19/15 A2983 RMK T01900150 IEM_DS3505
ZBYN,1996-09-18 12:00,ZBYN 181200Z AUTO 32004KT 6SM 16/14 A2985 RMK SLP105 T01580138 52009 IEM_DS3505
ZBYN,1996-09-18 13:00,ZBYN 181300Z AUTO 00000KT 5SM 16/14 A2988 RMK T01600140 IEM_DS3505
ZBYN,1996-09-18 14:00,ZBYN 181400Z AUTO 09006KT 5SM 15/14 A2988 RMK T01500140 IEM_DS3505
ZBYN,1996-09-18 15:00,ZBYN 181500Z AUTO 00000KT 6SM 12/12 A2991 RMK SLP118 T01250121 52014 IEM_DS3505
ZBYN,1996-09-18 16:00,ZBYN 181600Z AUTO 00000KT 4SM 13/12 A2991 RMK T01300120 IEM_DS3505
ZBYN,1996-09-18 17:00,ZBYN 181700Z AUTO 07002KT 4SM 12/12 A2991 RMK T01200120 IEM_DS3505
ZBYN,1996-09-18 18:00,ZBYN 181800Z AUTO 00000KT 1SM 10/10 A2991 RMK SLP125 T01030101 52004 IEM_DS3505
ZBYN,1996-09-18 19:00,ZBYN 181900Z AUTO 00000KT 4SM 12/11 A2991 RMK T01200110 IEM_DS3505
ZBYN,1996-09-18 20:00,ZBYN 182000Z AUTO 11006KT 4SM 11/11 A2991 RMK T01100110 IEM_DS3505
ZBYN,1996-09-18 21:00,ZBYN 182100Z AUTO 00000KT 1SM 09/09 A2994 RMK SLP138 T00880086 52008 IEM_DS3505
ZBYN,1996-09-18 22:00,ZBYN 182200Z AUTO 03006KT 2SM 11/11 A2997 RMK T01100110 IEM_DS3505
ZBYN,1996-09-18 23:00,ZBYN 182300Z AUTO 09002KT 3/8SM 11/11 A2997 RMK T01100110 IEM_DS3505
ZBYN,1996-09-19 00:00,ZBYN 190000Z AUTO 32002KT 4SM 11/10 A3000 RMK SLP159 T01090098 52019 IEM_DS3505
ZBYN,1996-09-19 01:00,ZBYN 190100Z AUTO 32002KT 4SM 11/10 A3003 RMK SLP159 T01090098 IEM_DS3505
ZBYN,1996-09-19 02:00,ZBYN 190200Z AUTO 36010KT 6SM 18/02 A3003 RMK T01800020 IEM_DS3505
ZBYN,1996-09-19 03:00,ZBYN 190300Z AUTO 04006KT 6SM 20/00 A3003 RMK SLP167 T01990003 52015 IEM_DS3505
ZBYN,1996-09-19 04:00,ZBYN 190400Z AUTO 36008KT 6SM 21/01 A3000 RMK T02100010 IEM_DS3505
ZBYN,1996-09-19 06:00,ZBYN 190600Z AUTO 02008KT 6SM 23/05 A2997 RMK T02300050 IEM_DS3505
ZBYN,1996-09-19 07:00,ZBYN 190700Z AUTO 29004KT 6SM 23/06 A2994 RMK T02300060 IEM_DS3505
ZBYN,1996-09-19 09:00,ZBYN 190900Z AUTO 34004KT 6SM 21/06 A2994 RMK SLP137 T02080056 57005 IEM_DS3505
ZBYN,1996-09-19 10:00,ZBYN 191000Z AUTO 36004KT 6SM 20/06 A2997 RMK T02000060 IEM_DS3505
ZBYN,1996-09-19 11:00,ZBYN 191100Z AUTO 02004KT 6SM 17/11 A2997 RMK T01700110 IEM_DS3505
ZBYN,1996-09-19 12:00,ZBYN 191200Z AUTO 32004KT 6SM 15/08 A3000 RMK SLP159 T01460085 52014 IEM_DS3505
ZBYN,1996-09-19 13:00,ZBYN 191300Z AUTO 01004KT 6SM 13/09 A3003 RMK T01300090 IEM_DS3505
ZBYN,1996-09-19 14:00,ZBYN 191400Z AUTO 01002KT 7SM 15/06 A3003 RMK T01500060 IEM_DS3505
ZBYN,1996-09-19 15:00,ZBYN 191500Z AUTO 6SM 13/06 A3006 RMK SLP163 T01280064 52014 IEM_DS3505
ZBYN,1996-09-19 16:00,ZBYN 191600Z AUTO 15002KT 7SM 10/07 A3006 RMK T01000070 IEM_DS3505
ZBYN,1996-09-19 18:00,ZBYN 191800Z AUTO 34004KT 6SM 10/04 A3009 RMK SLP171 T01030043 52007 IEM_DS3505
ZBYN,1996-09-19 21:00,ZBYN 192100Z AUTO 36002KT 6SM 08/03 A3009 RMK SLP187 T00850034 52010 IEM_DS3505
ZBYN,1996-09-19 22:00,ZBYN 192200Z AUTO 11002KT 7SM 06/05 A3009 RMK T00600050 IEM_DS3505
ZBYN,1996-09-19 23:00,ZBYN 192300Z AUTO 10004KT 7SM 06/05 A3012 RMK T00600050 IEM_DS3505
ZBYN,1996-09-20 00:00,ZBYN 200000Z AUTO 02004KT 6SM 12/03 A3012 RMK SLP204 T01210032 52012 IEM_DS3505
ZBYN,1996-09-20 01:00,ZBYN 200100Z AUTO 00000KT 7SM 13/04 A3012 RMK T01300040 IEM_DS3505
ZBYN,1996-09-20 03:00,ZBYN 200300Z AUTO 36004KT 6SM 19/03 A3012 RMK SLP191 T01890027 57005 IEM_DS3505
ZBYN,1996-09-20 04:00,ZBYN 200400Z AUTO 00000KT 7SM 22/05 A3009 RMK T02200050 IEM_DS3505
ZBYN,1996-09-20 05:00,ZBYN 200500Z AUTO 00000KT 7SM 23/06 A3006 RMK T02300060 IEM_DS3505
ZBYN,1996-09-20 06:00,ZBYN 200600Z AUTO 20006KT 9SM 23/05 A3003 RMK SLP159 T02340047 57026 IEM_DS3505
ZBYN,1996-09-20 07:00,ZBYN 200700Z AUTO 21008KT 7SM 25/06 A3000 RMK T02500060 IEM_DS3505
ZBYN,1996-09-20 08:00,ZBYN 200800Z AUTO 23008KT 7SM 24/08 A3000 RMK T02400080 IEM_DS3505
ZBYN,1996-09-20 09:00,ZBYN 200900Z AUTO 18008KT 9SM 23/08 A3000 RMK SLP148 T02260078 57014 IEM_DS3505
ZBYN,1996-09-20 10:00,ZBYN 201000Z AUTO 21004KT 7SM 21/10 A3000 RMK T02100100 IEM_DS3505
ZBYN,1996-09-20 11:00,ZBYN 201100Z AUTO 00000KT 7SM 17/11 A3000 RMK T01700110 IEM_DS3505
ZBYN,1996-09-20 12:00,ZBYN 201200Z AUTO 11004KT 6SM 15/09 A3000 RMK SLP156 T01540088 52002 IEM_DS3505
ZBYN,1996-09-20 13:00,ZBYN 201300Z AUTO 00000KT 7SM 14/11 A3003 RMK T01400110 IEM_DS3505
ZBYN,1996-09-20 14:00,ZBYN 201400Z AUTO 00000KT 7SM 12/10 A3003 RMK T01200100 IEM_DS3505
ZBYN,1996-09-20 15:00,ZBYN 201500Z AUTO 00000KT 6SM 11/09 A3003 RMK SLP162 T01090092 52009 IEM_DS3505
ZBYN,1996-09-20 16:00,ZBYN 201600Z AUTO 00000KT 7SM 12/09 A3003 RMK T01200090 IEM_DS3505
ZBYN,1996-09-20 17:00,ZBYN 201700Z AUTO 00000KT 7SM 11/10 A3006 RMK T01100100 IEM_DS3505
ZBYN,1996-09-20 18:00,ZBYN 201800Z AUTO 34004KT 6SM 12/09 A3006 RMK SLP161 T01190086 52007 IEM_DS3505
ZBYN,1996-09-20 21:00,ZBYN 202100Z AUTO 36002KT 6SM 09/08 RMK SLP165 T00870077 57002 IEM_DS3505
ZBYN,1996-09-20 22:00,ZBYN 202200Z AUTO 00000KT 4SM 09/09 A3006 RMK T00900090 IEM_DS3505
ZBYN,1996-09-20 23:00,ZBYN 202300Z AUTO 00000KT 2 1/2SM 09/09 A3006 RMK T00900090 IEM_DS3505
ZBYN,1996-09-21 00:00,ZBYN 210000Z AUTO 00000KT 5SM 12/09 A3006 RMK SLP172 T01220092 52001 IEM_DS3505
ZBYN,1996-09-21 02:00,ZBYN 210200Z AUTO 00000KT 2SM 17/11 A3006 RMK T01700110 IEM_DS3505
ZBYN,1996-09-21 03:00,ZBYN 210300Z AUTO 14004KT 5SM 20/12 A3003 RMK SLP161 T02000115 57005 IEM_DS3505
ZBYN,1996-09-21 04:00,ZBYN 210400Z AUTO 22008KT 5SM 22/13 A3000 RMK T02200130 IEM_DS3505
ZBYN,1996-09-21 05:00,ZBYN 210500Z AUTO 22006KT 7SM 24/13 A2997 RMK T02400130 IEM_DS3505
ZBYN,1996-09-21 06:00,ZBYN 210600Z AUTO 18004KT 5SM 24/12 A2994 RMK SLP126 T02420121 57025 IEM_DS3505
ZBYN,1996-09-21 07:00,ZBYN 210700Z AUTO 17008KT 7SM 26/12 A2991 RMK T02600120 IEM_DS3505
ZBYN,1996-09-21 08:00,ZBYN 210800Z AUTO 22006KT 7SM 26/12 A2991 RMK T02600120 IEM_DS3505
ZBYN,1996-09-21 09:00,ZBYN 210900Z AUTO 18006KT 7SM 24/10 A2988 RMK SLP114 T02420105 57015 IEM_DS3505
ZBYN,1996-09-21 10:00,ZBYN 211000Z AUTO 00000KT 7SM 22/14 A2988 RMK T02200140 IEM_DS3505
ZBYN,1996-09-21 12:00,ZBYN 211200Z AUTO 00000KT 6SM 16/12 A2994 RMK SLP129 T01640124 52007 IEM_DS3505
ZBYN,1996-09-21 13:00,ZBYN 211300Z AUTO 03008KT 7SM 17/12 A2997 RMK T01700120 IEM_DS3505
ZBYN,1996-09-21 14:00,ZBYN 211400Z AUTO 36010KT 7SM 19/09 A3000 RMK T01900090 IEM_DS3505
ZBYN,1996-09-21 15:00,ZBYN 211500Z AUTO 34006KT 6SM 16/12 A3000 RMK SLP142 T01560117 52002 IEM_DS3505
ZBYN,1996-09-21 16:00,ZBYN 211600Z AUTO 33004KT 7SM 16/12 A3000 RMK T01600120 IEM_DS3505
ZBYN,1996-09-21 17:00,ZBYN 211700Z AUTO 33004KT 7SM 15/11 A3000 RMK T01500110 IEM_DS3505
ZBYN,1996-09-21 18:00,ZBYN 211800Z AUTO 29004KT 6SM 12/10 A3000 RMK SLP143 T01150102 52001 IEM_DS3505
ZBYN,1996-09-21 21:00,ZBYN 212100Z AUTO 09002KT 1 1/4SM 10/09 A3000 RMK SLP149 T00970093 52003 IEM_DS3505
ZBYN,1996-09-21 22:00,ZBYN 212200Z AUTO 11004KT 7SM 10/09 A3003 RMK T01000090 IEM_DS3505
ZBYN,1996-09-21 23:00,ZBYN 212300Z AUTO 00000KT 7SM 10/09 A3006 RMK T01000090 IEM_DS3505
ZBYN,1996-09-22 00:00,ZBYN 220000Z AUTO 00000KT 2 1/2SM 12/11 A3006 RMK SLP175 T01170106 52015 IEM_DS3505
ZBYN,1996-09-22 01:00,ZBYN 220100Z AUTO 00000KT 7SM 14/12 A3006 RMK T01400120 IEM_DS3505
ZBYN,1996-09-22 03:00,ZBYN 220300Z AUTO 20006KT 7SM 21/12 A3003 RMK SLP158 T02130119 57002 IEM_DS3505
ZBYN,1996-09-22 04:00,ZBYN 220400Z AUTO 00000KT 7SM 23/10 A3003 RMK T02300100 IEM_DS3505
ZBYN,1996-09-22 05:00,ZBYN 220500Z AUTO 21002KT 7SM 26/12 A3000 RMK T02600120 IEM_DS3505
ZBYN,1996-09-22 06:00,ZBYN 220600Z AUTO 16008KT 7SM 28/12 A2997 RMK T02800120 IEM_DS3505
ZBYN,1996-09-22 07:00,ZBYN 220700Z AUTO 20004KT 7SM 28/12 A2994 RMK T02800120 IEM_DS3505
ZBYN,1996-09-22 08:00,ZBYN 220800Z AUTO 21010KT 7SM 28/09 A2994 RMK T02800090 IEM_DS3505
ZBYN,1996-09-22 09:00,ZBYN 220900Z AUTO 22006KT 7SM 26/12 A2994 RMK SLP125 T02590124 57010 IEM_DS3505
ZBYN,1996-09-22 10:00,ZBYN 221000Z AUTO 00000KT 7SM 24/14 A2994 RMK T02400140 IEM_DS3505
ZBYN,1996-09-22 11:00,ZBYN 221100Z AUTO 00000KT 7SM 20/13 A2997 RMK T02000130 IEM_DS3505
ZBYN,1996-09-22 12:00,ZBYN 221200Z AUTO 00000KT 6SM 17/13 A2997 RMK SLP147 T01720129 52010 IEM_DS3505
ZBYN,1996-09-22 13:00,ZBYN 221300Z AUTO 00000KT 7SM 15/13 A3000 RMK T01500130 IEM_DS3505
ZBYN,1996-09-22 14:00,ZBYN 221400Z AUTO 00000KT 7SM 15/13 A3000 RMK T01500130 IEM_DS3505
ZBYN,1996-09-22 15:00,ZBYN 221500Z AUTO 00000KT 6SM 13/11 A3003 RMK SLP151 T01280110 52011 IEM_DS3505
ZBYN,1996-09-22 16:00,ZBYN 221600Z AUTO 11004KT 7SM 12/12 A3003 RMK T01200120 IEM_DS3505
ZBYN,1996-09-22 17:00,ZBYN 221700Z AUTO 00000KT 7SM 12/11 A3003 RMK T01200110 IEM_DS3505
ZBYN,1996-09-22 18:00,ZBYN 221800Z AUTO 00000KT 6SM 10/09 A3003 RMK SLP149 T00970087 52001 IEM_DS3505
ZBYN,1996-09-22 21:00,ZBYN 222100Z AUTO 00000KT 6SM 09/08 RMK SLP157 T00910085 52006 IEM_DS3505
ZBYN,1996-09-22 22:00,ZBYN 222200Z AUTO 00000KT 7SM 09/09 A3006 RMK T00900090 IEM_DS3505
ZBYN,1996-09-22 23:00,ZBYN 222300Z AUTO 00000KT 7SM 09/09 A3006 RMK T00900090 IEM_DS3505
ZBYN,1996-09-23 00:00,ZBYN 230000Z AUTO 00000KT 5SM 11/10 A3006 RMK SLP181 T01110105 52012 IEM_DS3505
ZBYN,1996-09-23 01:00,ZBYN 230100Z AUTO 00000KT 5SM 14/10 A3009 RMK T01400100 IEM_DS3505
ZBYN,1996-09-23 02:00,ZBYN 230200Z AUTO 00000KT 5SM RMK IEM_DS3505
ZBYN,1996-09-23 03:00,ZBYN 230300Z AUTO 16004KT 5SM 21/10 A3006 RMK SLP171 T02110101 57001 IEM_DS3505
ZBYN,1996-09-23 04:00,ZBYN 230400Z AUTO 00000KT 7SM 24/10 A3006 RMK T02400100 IEM_DS3505
ZBYN,1996-09-23 05:00,ZBYN 230500Z AUTO 21006KT 7SM 26/12 A3003 RMK T02600120 IEM_DS3505
ZBYN,1996-09-23 06:00,ZBYN 230600Z AUTO 20008KT 6SM 26/11 A2997 RMK SLP137 T02650113 57028 IEM_DS3505
ZBYN,1996-09-23 07:00,ZBYN 230700Z AUTO 20010KT 7SM 28/10 A2997 RMK T02800100 IEM_DS3505
ZBYN,1996-09-23 08:00,ZBYN 230800Z AUTO 18006KT 7SM 28/08 A2994 RMK T02800080 IEM_DS3505
ZBYN,1996-09-23 09:00,ZBYN 230900Z AUTO 18004KT 6SM 27/10 A2994 RMK SLP125 T02670102 57011 IEM_DS3505
ZBYN,1996-09-23 10:00,ZBYN 231000Z AUTO 15004KT 6SM 23/13 A2994 RMK T02300130 IEM_DS3505
ZBYN,1996-09-23 11:00,ZBYN 231100Z AUTO 10006KT 6SM 20/12 A2994 RMK T02000120 IEM_DS3505
ZBYN,1996-09-23 12:00,ZBYN 231200Z AUTO 11002KT 6SM 16/12 A2997 RMK SLP146 T01570122 52006 IEM_DS3505
ZBYN,1996-09-23 13:00,ZBYN 231300Z AUTO 00000KT 6SM 15/11 A3000 RMK T01500110 IEM_DS3505
ZBYN,1996-09-23 14:00,ZBYN 231400Z AUTO 09008KT 6SM 14/11 A3000 RMK T01400110 IEM_DS3505
ZBYN,1996-09-23 15:00,ZBYN 231500Z AUTO 00000KT 6SM 14/11 A3003 RMK SLP151 T01350111 52016 IEM_DS3505
ZBYN,1996-09-23 16:00,ZBYN 231600Z AUTO 00000KT 7SM 13/10 A3003 RMK T01300100 IEM_DS3505
ZBYN,1996-09-23 17:00,ZBYN 231700Z AUTO 10004KT 7SM 12/10 A3003 RMK T01200100 IEM_DS3505
ZBYN,1996-09-23 18:00,ZBYN 231800Z AUTO 00000KT 6SM 12/11 A3003 RMK SLP147 T01180107 52002 IEM_DS3505
ZBYN,1996-09-23 19:00,ZBYN 231900Z AUTO 00000KT 7SM 12/10 A3003 RMK T01200100 IEM_DS3505
ZBYN,1996-09-23 20:00,ZBYN 232000Z AUTO 00000KT 7SM 11/09 A3003 RMK T01100090 IEM_DS3505
ZBYN,1996-09-23 21:00,ZBYN 232100Z AUTO 32004KT 6SM 10/09 A3003 RMK SLP152 T01000088 52002 IEM_DS3505
ZBYN,1996-09-23 22:00,ZBYN 232200Z AUTO 00000KT 7SM 10/10 A3003 RMK T01000100 IEM_DS3505
ZBYN,1996-09-23 23:00,ZBYN 232300Z AUTO 00000KT 4SM 10/09 A3006 RMK T01000090 IEM_DS3505
ZBYN,1996-09-24 00:00,ZBYN 240000Z AUTO 00000KT 6SM 11/10 A3006 RMK SLP182 T01140105 52013 IEM_DS3505
ZBYN,1996-09-24 01:00,ZBYN 240100Z AUTO 00000KT 3SM 14/11 A3009 RMK T01400110 IEM_DS3505
ZBYN,1996-09-24 02:00,ZBYN 240200Z AUTO 00000KT 4SM 18/11 A3009 RMK T01800110 IEM_DS3505
ZBYN,1996-09-24 03:00,ZBYN 240300Z AUTO 14002KT 5SM 22/11 A3006 RMK SLP162 T02250109 57005 IEM_DS3505
ZBYN,1996-09-24 04:00,ZBYN 240400Z AUTO 22006KT 7SM 25/11 A3003 RMK T02500110 IEM_DS3505
ZBYN,1996-09-24 05:00,ZBYN 240500Z AUTO 27004KT 7SM 26/11 A3000 RMK T02600110 IEM_DS3505
ZBYN,1996-09-24 06:00,ZBYN 240600Z AUTO 18008KT 6SM 26/12 A2997 RMK SLP130 T02650115 57026 IEM_DS3505
ZBYN,1996-09-24 07:00,ZBYN 240700Z AUTO 22004KT 7SM 28/10 A2997 RMK T02800100 IEM_DS3505
ZBYN,1996-09-24 08:00,ZBYN 240800Z AUTO 25004KT 7SM 28/08 A2994 RMK T02800080 IEM_DS3505
ZBYN,1996-09-24 09:00,ZBYN 240900Z AUTO 20006KT 6SM 26/11 RMK SLP122 T02560114 57011 IEM_DS3505
ZBYN,1996-09-24 10:00,ZBYN 241000Z AUTO 00000KT 7SM 24/14 A2994 RMK T02400140 IEM_DS3505
ZBYN,1996-09-24 11:00,ZBYN 241100Z AUTO 00000KT 6SM 20/14 A2997 RMK T02000140 IEM_DS3505
ZBYN,1996-09-24 12:00,ZBYN 241200Z AUTO 00000KT 6SM 17/13 A2997 RMK SLP152 T01670129 52016 IEM_DS3505
ZBYN,1996-09-24 13:00,ZBYN 241300Z AUTO 12008KT 7SM 17/14 A3000 RMK T01700140 IEM_DS3505
ZBYN,1996-09-24 14:00,ZBYN 241400Z AUTO 09006KT 6SM 16/13 A3000 RMK T01600130 IEM_DS3505
ZBYN,1996-09-24 15:00,ZBYN 241500Z AUTO 00000KT 6SM 14/12 A3003 RMK SLP151 T01440125 52012 IEM_DS3505
ZBYN,1996-09-24 16:00,ZBYN 241600Z AUTO 11004KT 7SM 14/12 A3003 RMK T01400120 IEM_DS3505
ZBYN,1996-09-24 17:00,ZBYN 241700Z AUTO 36004KT 7SM 15/12 A3006 RMK T01500120 IEM_DS3505
ZBYN,1996-09-24 18:00,ZBYN 241800Z AUTO 29004KT 5SM 14/11 A3008 RMK SLP159 T01420113 52013 IEM_DS3505
ZBYN,1996-09-24 21:00,ZBYN 242100Z AUTO 34002KT 4SM 15/12 A3009 RMK SLP162 T01480118 52002 IEM_DS3505
ZBYN,1996-09-24 22:00,ZBYN 242200Z AUTO 33002KT 3SM 15/13 A3009 RMK T01500130 IEM_DS3505
ZBYN,1996-09-24 23:00,ZBYN 242300Z AUTO 00000KT 2SM 14/12 A3009 RMK T01400120 IEM_DS3505
ZBYN,1996-09-25 00:00,ZBYN 250000Z AUTO 36002KT 4SM 15/12 A3012 RMK SLP191 T01540120 52015 IEM_DS3505
ZBYN,1996-09-25 01:00,ZBYN 250100Z AUTO 00000KT 1 1/2SM 17/14 A3012 RMK T01700140 IEM_DS3505
ZBYN,1996-09-25 02:00,ZBYN 250200Z AUTO 34002KT 2SM 20/14 A3012 RMK T02000140 IEM_DS3505
ZBYN,1996-09-25 03:00,ZBYN 250300Z AUTO 32004KT 4SM 22/13 A3012 RMK SLP182 T02200127 57002 IEM_DS3505
ZBYN,1996-09-25 05:00,ZBYN 250500Z AUTO 13004KT 7SM 25/15 A3006 RMK T02500150 IEM_DS3505
ZBYN,1996-09-25 06:00,ZBYN 250600Z AUTO 14006KT 6SM 26/14 A3003 RMK SLP152 T02650144 57021 IEM_DS3505
ZBYN,1996-09-25 07:00,ZBYN 250700Z AUTO 11010KT 6SM 26/18 A3003 RMK T02600180 IEM_DS3505
ZBYN,1996-09-25 09:00,ZBYN 250900Z AUTO 09012KT 6SM 22/13 A3006 RMK SLP159 T02190134 54000 IEM_DS3505
ZBYN,1996-09-25 10:00,ZBYN 251000Z AUTO 08010KT 6SM 20/15 A3006 RMK T02000150 IEM_DS3505
ZBYN,1996-09-25 11:00,ZBYN 251100Z AUTO 08016KT 6SM 19/15 A3006 RMK T01900150 IEM_DS3505
ZBYN,1996-09-25 12:00,ZBYN 251200Z AUTO 34004KT 6SM 20/13 A3010 RMK SLP177 T01970131 52014 IEM_DS3505
ZBYN,1996-09-25 13:00,ZBYN 251300Z AUTO 06008KT 7SM 18/15 A3012 RMK T01800150 IEM_DS3505
ZBYN,1996-09-25 15:00,ZBYN 251500Z AUTO 34004KT 6SM 18/14 RMK SLP187 T01770138 52016 IEM_DS3505
ZBYN,1996-09-25 16:00,ZBYN 251600Z AUTO 09004KT 7SM 18/15 A3015 RMK T01800150 IEM_DS3505
ZBYN,1996-09-25 18:00,ZBYN 251800Z AUTO 34002KT 6SM 16/13 A3015 RMK SLP184 T01560132 52001 IEM_DS3505
ZBYN,1996-09-25 19:00,ZBYN 251900Z AUTO 09004KT 7SM 18/15 A3015 RMK T01800150 IEM_DS3505
ZBYN,1996-09-25 20:00,ZBYN 252000Z AUTO 00000KT 7SM 17/15 A3015 RMK T01700150 IEM_DS3505
ZBYN,1996-09-25 21:00,ZBYN 252100Z AUTO 34004KT 5SM 16/14 A3015 RMK SLP190 T01570142 57001 IEM_DS3505
ZBYN,1996-09-25 22:00,ZBYN 252200Z AUTO 00000KT 5SM 17/16 A3015 RMK T01700160 IEM_DS3505
ZBYN,1996-09-25 23:00,ZBYN 252300Z AUTO 08004KT 1 1/2SM 15/14 A3018 RMK T01500140 IEM_DS3505
ZBYN,1996-09-26 00:00,ZBYN 260000Z AUTO 00000KT 4SM 16/15 A3018 RMK SLP207 T01600150 52013 IEM_DS3505
ZBYN,1996-09-26 01:00,ZBYN 260100Z AUTO 10004KT 3SM 19/16 A3021 RMK T01900160 IEM_DS3505
ZBYN,1996-09-26 02:00,ZBYN 260200Z AUTO 10006KT 4SM 20/16 A3021 RMK T02000160 IEM_DS3505
ZBYN,1996-09-26 03:00,ZBYN 260300Z AUTO 07006KT 5SM 21/14 A3021 RMK SLP209 T02130138 52006 IEM_DS3505
ZBYN,1996-09-26 04:00,ZBYN 260400Z AUTO 00000KT 7SM 23/14 A3018 RMK T02300140 IEM_DS3505
ZBYN,1996-09-26 05:00,ZBYN 260500Z AUTO 11004KT 7SM 24/15 A3015 RMK T02400150 IEM_DS3505
ZBYN,1996-09-26 06:00,ZBYN 260600Z AUTO 16004KT 5SM 24/15 A3015 RMK SLP188 T02410147 57018 IEM_DS3505
ZBYN,1996-09-26 07:00,ZBYN 260700Z AUTO 22006KT 6SM 25/14 A3012 RMK T02500140 IEM_DS3505
ZBYN,1996-09-26 08:00,ZBYN 260800Z AUTO 19006KT 6SM 25/14 A3012 RMK T02500140 IEM_DS3505
ZBYN,1996-09-26 09:00,ZBYN 260900Z AUTO 18006KT 5SM 23/14 A3012 RMK SLP177 T02320138 57011 IEM_DS3505
ZBYN,1996-09-26 10:00,ZBYN 261000Z AUTO 11006KT 6SM 21/16 A3012 RMK T02100160 IEM_DS3505
ZBYN,1996-09-26 11:00,ZBYN 261100Z AUTO 10012KT 6SM 19/15 A3015 RMK T01900150 IEM_DS3505
ZBYN,1996-09-26 12:00,ZBYN 261200Z AUTO 09008KT 6SM 19/14 A3018 RMK SLP205 T01910135 52020 IEM_DS3505
ZBYN,1996-09-26 13:00,ZBYN 261300Z AUTO 10012KT 6SM 17/14 A3021 RMK T01700140 IEM_DS3505
ZBYN,1996-09-26 14:00,ZBYN 261400Z AUTO 06008KT 6SM 17/14 A3024 RMK T01700140 IEM_DS3505
ZBYN,1996-09-26 15:00,ZBYN 261500Z AUTO 00000KT 6SM 16/14 A3024 RMK SLP220 T01610139 52017 IEM_DS3505
ZBYN,1996-09-26 16:00,ZBYN 261600Z AUTO 06008KT 6SM 16/14 A3024 RMK T01600140 IEM_DS3505
ZBYN,1996-09-26 17:00,ZBYN 261700Z AUTO 08010KT 6SM 16/14 A3024 RMK T01600140 IEM_DS3505
ZBYN,1996-09-26 18:00,ZBYN 261800Z AUTO 00000KT 6SM 16/14 A3024 RMK SLP216 T01570138 54000 IEM_DS3505
ZBYN,1996-09-26 19:00,ZBYN 261900Z AUTO 00000KT 6SM 15/13 A3024 RMK T01500130 IEM_DS3505
ZBYN,1996-09-26 20:00,ZBYN 262000Z AUTO 08006KT 6SM 15/13 A3024 RMK T01500130 IEM_DS3505
ZBYN,1996-09-26 21:00,ZBYN 262100Z AUTO 00000KT 6SM 15/14 A3024 RMK SLP222 T01490137 52003 IEM_DS3505
ZBYN,1996-09-26 22:00,ZBYN 262200Z AUTO 00000KT 6SM 16/13 A3027 RMK T01600130 IEM_DS3505
ZBYN,1996-09-26 23:00,ZBYN 262300Z AUTO 04006KT 6SM 15/13 A3027 RMK T01500130 IEM_DS3505
ZBYN,1996-09-27 00:00,ZBYN 270000Z AUTO 18002KT 4SM 15/13 A3027 RMK SLP243 T01530134 52014 IEM_DS3505
ZBYN,1996-09-27 01:00,ZBYN 270100Z AUTO 09008KT 6SM 17/14 A3030 RMK T01700140 IEM_DS3505
ZBYN,1996-09-27 02:00,ZBYN 270200Z AUTO 04004KT 6SM 20/14 A3030 RMK T02000140 IEM_DS3505
ZBYN,1996-09-27 03:00,ZBYN 270300Z AUTO 07002KT 6SM 20/13 A3027 RMK SLP237 T01990129 57004 IEM_DS3505
ZBYN,1996-09-27 04:00,ZBYN 270400Z AUTO 00000KT 7SM 23/14 A3024 RMK T02300140 IEM_DS3505
ZBYN,1996-09-27 05:00,ZBYN 270500Z AUTO 17008KT 7SM 23/13 A3024 RMK T02300130 IEM_DS3505
ZBYN,1996-09-27 06:00,ZBYN 270600Z AUTO 14006KT 6SM 23/12 A3018 RMK SLP201 T02330125 57028 IEM_DS3505
ZBYN,1996-09-27 07:00,ZBYN 270700Z AUTO 00000KT 7SM 23/15 A3018 RMK T02300150 IEM_DS3505
ZBYN,1996-09-27 08:00,ZBYN 270800Z AUTO 00000KT 7SM 23/15 A3015 RMK T02300150 IEM_DS3505
ZBYN,1996-09-27 09:00,ZBYN 270900Z AUTO 22004KT 3SM 21/13 A3015 RMK SLP196 T02140130 57009 IEM_DS3505
ZBYN,1996-09-27 10:00,ZBYN 271000Z AUTO 10008KT 7SM 20/15 A3015 RMK T02000150 IEM_DS3505
ZBYN,1996-09-27 11:00,ZBYN 271100Z AUTO 09004KT 7SM 17/14 A3018 RMK T01700140 IEM_DS3505
ZBYN,1996-09-27 12:00,ZBYN 271200Z AUTO 11010KT 6SM 18/10 A3018 RMK SLP208 T01780098 52007 IEM_DS3505
ZBYN,1996-09-27 13:00,ZBYN 271300Z AUTO 09008KT 6SM 16/11 A3021 RMK T01600110 IEM_DS3505
ZBYN,1996-09-27 14:00,ZBYN 271400Z AUTO 06006KT 6SM 15/11 A3021 RMK T01500110 IEM_DS3505
ZBYN,1996-09-27 15:00,ZBYN 271500Z AUTO 25004KT 6SM 13/10 A3021 RMK SLP219 T01330105 52010 IEM_DS3505
ZBYN,1996-09-27 16:00,ZBYN 271600Z AUTO 09008KT 6SM 14/10 A3021 RMK T01400100 IEM_DS3505
ZBYN,1996-09-27 17:00,ZBYN 271700Z AUTO 00000KT 7SM 14/09 A3021 RMK T01400090 IEM_DS3505
ZBYN,1996-09-27 18:00,ZBYN 271800Z AUTO 00000KT 6SM 11/10 A3021 RMK SLP214 T01100097 57003 IEM_DS3505
ZBYN,1996-09-27 19:00,ZBYN 271900Z AUTO 00000KT 7SM 12/09 A3018 RMK T01200090 IEM_DS3505
ZBYN,1996-09-27 20:00,ZBYN 272000Z AUTO 00000KT 7SM 12/09 A3018 RMK T01200090 IEM_DS3505
ZBYN,1996-09-27 21:00,ZBYN 272100Z AUTO 32002KT 6SM 12/10 A3018 RMK SLP206 T01180095 57009 IEM_DS3505
ZBYN,1996-09-27 22:00,ZBYN 272200Z AUTO 00000KT 6SM 11/10 A3018 RMK T01100100 IEM_DS3505
ZBYN,1996-09-27 23:00,ZBYN 272300Z AUTO 00000KT 6SM 11/10 A3021 RMK T01100100 IEM_DS3505
ZBYN,1996-09-28 00:00,ZBYN 280000Z AUTO 34002KT 5SM 12/11 A3021 RMK SLP221 T01160109 52008 IEM_DS3505
ZBYN,1996-09-28 01:00,ZBYN 280100Z AUTO 00000KT 6SM 15/11 A3021 RMK T01500110 IEM_DS3505
ZBYN,1996-09-28 02:00,ZBYN 280200Z AUTO 15004KT 6SM 18/11 A3021 RMK T01800110 IEM_DS3505
ZBYN,1996-09-28 03:00,ZBYN 280300Z AUTO 16006KT 5SM 20/11 A3021 RMK SLP211 T02000106 57003 IEM_DS3505
ZBYN,1996-09-28 04:00,ZBYN 280400Z AUTO 20006KT 6SM 22/12 A3018 RMK T02200120 IEM_DS3505
ZBYN,1996-09-28 05:00,ZBYN 280500Z AUTO 18006KT 6SM 23/13 A3012 RMK T02300130 IEM_DS3505
ZBYN,1996-09-28 06:00,ZBYN 280600Z AUTO 16006KT 6SM 23/12 A3009 RMK SLP177 T02290120 57030 IEM_DS3505
ZBYN,1996-09-28 07:00,ZBYN 280700Z AUTO 26004KT 7SM 24/12 A3006 RMK T02400120 IEM_DS3505
ZBYN,1996-09-28 08:00,ZBYN 280800Z AUTO 24004KT 7SM 25/12 A3006 RMK T02500120 IEM_DS3505
ZBYN,1996-09-28 09:00,ZBYN 280900Z AUTO 18004KT 6SM 23/11 A3003 RMK SLP155 T02310112 57019 IEM_DS3505
ZBYN,1996-09-28 10:00,ZBYN 281000Z AUTO 00000KT 7SM 21/15 A3003 RMK T02100150 IEM_DS3505
ZBYN,1996-09-28 11:00,ZBYN 281100Z AUTO 00000KT 7SM 18/15 A3003 RMK T01800150 IEM_DS3505
ZBYN,1996-09-28 12:00,ZBYN 281200Z AUTO 09002KT 5SM 15/13 A3006 RMK SLP179 T01510128 52010 IEM_DS3505
ZBYN,1996-09-28 13:00,ZBYN 281300Z AUTO 09006KT 7SM 15/14 A3009 RMK T01500140 IEM_DS3505
ZBYN,1996-09-28 14:00,ZBYN 281400Z AUTO 11008KT 7SM 15/13 A3009 RMK T01500130 IEM_DS3505
ZBYN,1996-09-28 15:00,ZBYN 281500Z AUTO 11002KT 5SM 14/11 A3009 RMK SLP181 T01360114 52012 IEM_DS3505
ZBYN,1996-09-28 16:00,ZBYN 281600Z AUTO 12004KT 6SM 14/12 A3009 RMK T01400120 IEM_DS3505
ZBYN,1996-09-28 17:00,ZBYN 281700Z AUTO 00000KT 6SM 14/12 A3009 RMK T01400120 IEM_DS3505
ZBYN,1996-09-28 18:00,ZBYN 281800Z AUTO 00000KT 6SM 12/11 A3010 RMK SLP175 T01220111 57003 IEM_DS3505
ZBYN,1996-09-28 20:00,ZBYN 282000Z AUTO 00000KT 6SM 13/12 A3009 RMK T01300120 IEM_DS3505
ZBYN,1996-09-28 21:00,ZBYN 282100Z AUTO 32004KT 6SM 13/11 A3009 RMK SLP171 T01270111 57003 IEM_DS3505
ZBYN,1996-09-28 22:00,ZBYN 282200Z AUTO 00000KT 6SM 13/12 A3009 RMK T01300120 IEM_DS3505
ZBYN,1996-09-28 23:00,ZBYN 282300Z AUTO 00000KT 2SM 12/12 A3012 RMK T01200120 IEM_DS3505
ZBYN,1996-09-29 00:00,ZBYN 290000Z AUTO 16004KT 5SM 14/12 A3012 RMK SLP195 T01350119 52011 IEM_DS3505
ZBYN,1996-09-29 01:00,ZBYN 290100Z AUTO 00000KT 2 1/2SM 15/13 A3012 RMK T01500130 IEM_DS3505
ZBYN,1996-09-29 02:00,ZBYN 290200Z AUTO 13002KT 6SM 17/13 A3012 RMK T01700130 IEM_DS3505
ZBYN,1996-09-29 03:00,ZBYN 290300Z AUTO 00000KT 5SM 19/12 RMK SLP183 T01940122 57004 IEM_DS3505
ZBYN,1996-09-29 04:00,ZBYN 290400Z AUTO 00000KT 7SM 21/12 A3009 RMK T02100120 IEM_DS3505
ZBYN,1996-09-29 05:00,ZBYN 290500Z AUTO 00000KT 6SM 23/13 A3006 RMK T02300130 IEM_DS3505
ZBYN,1996-09-29 06:00,ZBYN 290600Z AUTO 07002KT 5SM 23/13 A3003 RMK SLP167 T02260127 57012 IEM_DS3505
ZBYN,1996-09-29 07:00,ZBYN 290700Z AUTO 00000KT 6SM 23/15 A3003 RMK T02300150 IEM_DS3505
ZBYN,1996-09-29 08:00,ZBYN 290800Z AUTO 00000KT 6SM 23/15 A3003 RMK T02300150 IEM_DS3505
ZBYN,1996-09-29 09:00,ZBYN 290900Z AUTO 36004KT 5SM 22/13 A3003 RMK SLP152 T02250132 57013 IEM_DS3505
ZBYN,1996-09-29 10:00,ZBYN 291000Z AUTO 04004KT 6SM 21/15 A3003 RMK T02100150 IEM_DS3505
ZBYN,1996-09-29 11:00,ZBYN 291100Z AUTO 00000KT 6SM 20/14 A3006 RMK T02000140 IEM_DS3505
ZBYN,1996-09-29 12:00,ZBYN 291200Z AUTO 02004KT 6SM 19/12 A3009 RMK SLP174 T01890124 52016 IEM_DS3505
ZBYN,1996-09-29 13:00,ZBYN 291300Z AUTO 07006KT 6SM 18/14 A3009 RMK T01800140 IEM_DS3505
ZBYN,1996-09-29 14:00,ZBYN 291400Z AUTO 09004KT 6SM 17/15 A3009 RMK T01700150 IEM_DS3505
ZBYN,1996-09-29 15:00,ZBYN 291500Z AUTO 00000KT 6SM 16/13 A3009 RMK SLP182 T01560132 52011 IEM_DS3505
ZBYN,1996-09-29 16:00,ZBYN 291600Z AUTO 07004KT 6SM 16/14 A3009 RMK T01600140 IEM_DS3505
ZBYN,1996-09-29 17:00,ZBYN 291700Z AUTO 00000KT 6SM 15/13 A3009 RMK T01500130 IEM_DS3505
ZBYN,1996-09-29 18:00,ZBYN 291800Z AUTO 34002KT 6SM 15/12 A3012 RMK SLP172 T01510125 57005 IEM_DS3505
ZBYN,1996-09-29 19:00,ZBYN 291900Z AUTO 00000KT 6SM 14/12 A3012 RMK T01400120 IEM_DS3505
ZBYN,1996-09-29 20:00,ZBYN 292000Z AUTO 07006KT 4SM 15/13 A3012 RMK T01500130 IEM_DS3505
ZBYN,1996-09-29 21:00,ZBYN 292100Z AUTO 34004KT 6SM 13/12 A3012 RMK SLP184 T01330117 52008 IEM_DS3505
ZBYN,1996-09-29 22:00,ZBYN 292200Z AUTO 00000KT 2SM 14/13 A3015 RMK T01400130 IEM_DS3505
ZBYN,1996-09-29 23:00,ZBYN 292300Z AUTO 00000KT 1 1/4SM 15/13 A3015 RMK T01500130 IEM_DS3505
ZBYN,1996-09-30 00:00,ZBYN 300000Z AUTO 00000KT 4SM 15/13 A3015 RMK SLP199 T01490126 52011 IEM_DS3505
ZBYN,1996-09-30 01:00,ZBYN 300100Z AUTO 00000KT 1 1/4SM 17/14 A3015 RMK T01700140 IEM_DS3505
ZBYN,1996-09-30 02:00,ZBYN 300200Z AUTO 12004KT 2SM 19/15 A3015 RMK T01900150 IEM_DS3505
ZBYN,1996-09-30 03:00,ZBYN 300300Z AUTO 36002KT 5SM 19/13 A3015 RMK SLP198 T01870131 57001 IEM_DS3505
ZBYN,1996-09-30 04:00,ZBYN 300400Z AUTO 11004KT 5SM 21/16 A3015 RMK T02100160 IEM_DS3505
ZBYN,1996-09-30 05:00,ZBYN 300500Z AUTO 06006KT 5SM 22/15 A3012 RMK T02200150 IEM_DS3505
ZBYN,1996-09-30 06:00,ZBYN 300600Z AUTO 09006KT 5SM 21/14 A3009 RMK SLP175 T02070144 57019 IEM_DS3505
ZBYN,1996-09-30 07:00,ZBYN 300700Z AUTO 10008KT 5SM 21/15 A3009 RMK T02100150 IEM_DS3505
ZBYN,1996-09-30 08:00,ZBYN 300800Z AUTO 07010KT 4SM 20/15 A3009 RMK T02000150 IEM_DS3505
ZBYN,1996-09-30 09:00,ZBYN 300900Z AUTO 09006KT 5SM 19/12 A3006 RMK SLP169 T01930120 57010 IEM_DS3505
ZBYN,1996-09-30 10:00,ZBYN 301000Z AUTO 06010KT 2 1/2SM 18/14 A3009 RMK T01800140 IEM_DS3505
ZBYN,1996-09-30 11:00,ZBYN 301100Z AUTO 08008KT 4SM 17/14 A3009 RMK T01700140 IEM_DS3505
ZBYN,1996-09-30 12:00,ZBYN 301200Z AUTO 09002KT 6SM 17/12 A3012 RMK SLP186 T01690125 52015 IEM_DS3505
ZBYN,1996-09-30 13:00,ZBYN 301300Z AUTO 09006KT 7SM 14/14 A3012 RMK T01400140 IEM_DS3505
ZBYN,1996-09-30 14:00,ZBYN 301400Z AUTO 09006KT 7SM 14/13 A3012 RMK T01400130 IEM_DS3505
ZBYN,1996-09-30 15:00,ZBYN 301500Z AUTO 00000KT 6SM 16/13 A3012 RMK SLP183 T01550129 52001 IEM_DS3505
ZBYN,1996-09-30 16:00,ZBYN 301600Z AUTO 09004KT 7SM 14/13 A3012 RMK T01400130 IEM_DS3505
ZBYN,1996-09-30 17:00,ZBYN 301700Z AUTO 00000KT 7SM 14/13 A3009 RMK T01400130 IEM_DS3505
ZBYN,1996-09-30 18:00,ZBYN 301800Z AUTO 29004KT 6SM 14/13 A3009 RMK 60020 SLP180 T01420133 57002 IEM_DS3505
ZBYN,1996-09-30 19:00,ZBYN 301900Z AUTO 00000KT 7SM 13/13 A3009 RMK T01300130 IEM_DS3505
ZBYN,1996-09-30 20:00,ZBYN 302000Z AUTO 10004KT 7SM 13/13 A3009 RMK T01300130 IEM_DS3505
ZBYN,1996-09-30 21:00,ZBYN 302100Z AUTO 16002KT 5SM 13/12 A3006 RMK 70024 SLP170 T01300123 57013 IEM_DS3505
ZBYN,1996-09-30 22:00,ZBYN 302200Z AUTO 10004KT 7SM 12/12 A3006 RMK T01200120 IEM_DS3505
ZBYN,1996-09-30 23:00,ZBYN 302300Z AUTO 09012KT 7SM 12/11 A3006 RMK T01200110 IEM_DS3505
ZBYN,1996-10-01 00:00,ZBYN 010000Z AUTO 22002KT 3SM 13/12 A3006 RMK 60008 70024 SLP180 T01270116 52005 IEM_DS3505
ZBYN,1996-10-01 01:00,ZBYN 010100Z AUTO 12010KT 7SM 14/12 A3006 RMK T01400120 IEM_DS3505
ZBYN,1996-10-01 02:00,ZBYN 010200Z AUTO 09008KT 5SM 14/13 A3006 RMK T01400130 IEM_DS3505
ZBYN,1996-10-01 03:00,ZBYN 010300Z AUTO 20004KT 3SM 14/12 A3003 RMK SLP164 T01350123 57015 IEM_DS3505
ZBYN,1996-10-01 04:00,ZBYN 010400Z AUTO 17004KT 2SM 14/14 A3000 RMK T01400140 IEM_DS3505
ZBYN,1996-10-01 05:00,ZBYN 010500Z AUTO 21006KT 1SM 14/14 A3000 RMK T01400140 IEM_DS3505
ZBYN,1996-10-01 06:00,ZBYN 010600Z AUTO 18008KT 2SM 14/14 A2997 RMK 60024 SLP146 T01410136 57018 IEM_DS3505
ZBYN,1996-10-01 08:00,ZBYN 010800Z AUTO 17004KT 7SM 18/16 A2994 RMK T01800160 IEM_DS3505
ZBYN,1996-10-01 09:00,ZBYN 010900Z AUTO 34004KT 5SM 16/13 A2997 RMK SLP141 T01640126 57003 IEM_DS3505
ZBYN,1996-10-01 10:00,ZBYN 011000Z AUTO 11008KT 6SM 15/14 A2997 RMK T01500140 IEM_DS3505
ZBYN,1996-10-01 11:00,ZBYN 011100Z AUTO 12006KT 6SM 13/12 A2997 RMK T01300120 IEM_DS3505
ZBYN,1996-10-01 12:00,ZBYN 011200Z AUTO 20012KT 7SM 13/11 A3003 RMK 60000 SLP149 T01270111 52002 IEM_DS3505
ZBYN,1996-10-01 13:00,ZBYN 011300Z AUTO 09006KT 7SM 11/10 A3000 RMK T01100100 IEM_DS3505
ZBYN,1996-10-01 14:00,ZBYN 011400Z AUTO 12006KT 7SM 10/09 A3000 RMK T01000090 IEM_DS3505
ZBYN,1996-10-01 15:00,ZBYN 011500Z AUTO 16002KT 7SM 09/08 A3000 RMK SLP169 T00880080 52013 IEM_DS3505
ZBYN,1996-10-01 16:00,ZBYN 011600Z AUTO 00000KT 7SM 09/09 A3000 RMK T00900090 IEM_DS3505
ZBYN,1996-10-01 17:00,ZBYN 011700Z AUTO 00000KT 7SM 09/08 A3000 RMK T00900080 IEM_DS3505
ZBYN,1996-10-01 18:00,ZBYN 011800Z AUTO 00000KT 4SM 08/08 RMK SLP161 T00810077 57007 IEM_DS3505
ZBYN,1996-10-01 19:00,ZBYN 011900Z AUTO 00000KT 7SM 08/08 A2997 RMK T00800080 IEM_DS3505
ZBYN,1996-10-01 20:00,ZBYN 012000Z AUTO 14004KT 7SM 07/07 A2997 RMK T00700070 IEM_DS3505
ZBYN,1996-10-01 21:00,ZBYN 012100Z AUTO 09004KT 5SM 07/07 A2997 RMK 70024 SLP158 T00730071 57001 IEM_DS3505
ZBYN,1996-10-01 22:00,ZBYN 012200Z AUTO 00000KT 2 1/2SM 06/06 A3000 RMK T00600060 IEM_DS3505
ZBYN,1996-10-01 23:00,ZBYN 012300Z AUTO 00000KT 1 1/4SM 06/06 A3000 RMK T00600060 IEM_DS3505
ZBYN,1996-10-02 00:00,ZBYN 020000Z AUTO 09006KT 3/8SM A3000 RMK 70024 SLP166 52003 IEM_DS3505
ZBYN,1996-10-02 01:00,ZBYN 020100Z AUTO 00000KT 1/4SM 09/09 A3000 RMK T00900090 IEM_DS3505
ZBYN,1996-10-02 02:00,ZBYN 020200Z AUTO 00000KT 1 1/2SM 12/11 A3000 RMK T01200110 IEM_DS3505
ZBYN,1996-10-02 03:00,ZBYN 020300Z AUTO 11006KT 5SM 15/11 A2997 RMK SLP154 T01510113 57006 IEM_DS3505
ZBYN,1996-10-02 04:00,ZBYN 020400Z AUTO 00000KT 7SM 19/11 A2994 RMK T01900110 IEM_DS3505
ZBYN,1996-10-02 05:00,ZBYN 020500Z AUTO 00000KT 7SM 21/10 A2994 RMK T02100100 IEM_DS3505
ZBYN,1996-10-02 06:00,ZBYN 020600Z AUTO 36004KT 9SM 21/07 A2991 RMK SLP124 T02060068 57020 IEM_DS3505
ZBYN,1996-10-02 07:00,ZBYN 020700Z AUTO 01006KT 7SM 21/09 A2991 RMK T02100090 IEM_DS3505
ZBYN,1996-10-02 08:00,ZBYN 020800Z AUTO 01006KT 7SM 20/09 A2991 RMK T02000090 IEM_DS3505
ZBYN,1996-10-02 09:00,ZBYN 020900Z AUTO 02006KT 9SM 19/06 A2994 RMK SLP140 T01880055 52010 IEM_DS3505
ZBYN,1996-10-02 10:00,ZBYN 021000Z AUTO 00000KT 7SM 17/11 A2994 RMK T01700110 IEM_DS3505
ZBYN,1996-10-02 11:00,ZBYN 021100Z AUTO 36004KT 6SM 16/09 A2997 RMK T01600090 IEM_DS3505
ZBYN,1996-10-02 12:00,ZBYN 021200Z AUTO 36004KT 7SM 15/10 A3000 RMK T01500100 IEM_DS3505
ZBYN,1996-10-02 13:00,ZBYN 021300Z AUTO 36004KT 7SM 13/09 A3003 RMK T01300090 IEM_DS3505
ZBYN,1996-10-02 14:00,ZBYN 021400Z AUTO 00000KT 7SM 12/09 A3003 RMK T01200090 IEM_DS3505
ZBYN,1996-10-02 15:00,ZBYN 021500Z AUTO 32004KT 6SM 11/07 RMK SLP170 T01090069 52008 IEM_DS3505
ZBYN,1996-10-02 16:00,ZBYN 021600Z AUTO 00000KT 7SM 10/08 A3006 RMK T01000080 IEM_DS3505
ZBYN,1996-10-02 18:00,ZBYN 021800Z AUTO 04002KT 6SM 08/06 A3006 RMK SLP170 T00840063 52004 IEM_DS3505
ZBYN,1996-10-02 19:00,ZBYN 021900Z AUTO 00000KT 7SM 07/06 A3006 RMK T00700060 IEM_DS3505
ZBYN,1996-10-02 20:00,ZBYN 022000Z AUTO 00000KT 7SM 05/04 A3006 RMK T00500040 IEM_DS3505
ZBYN,1996-10-02 21:00,ZBYN 022100Z AUTO 14002KT 6SM 05/04 A3006 RMK SLP184 T00510044 52005 IEM_DS3505
ZBYN,1996-10-02 22:00,ZBYN 022200Z AUTO 14004KT 7SM 03/02 A3006 RMK T00300020 IEM_DS3505
ZBYN,1996-10-02 23:00,ZBYN 022300Z AUTO 00000KT 7SM 06/06 A3006 RMK T00600060 IEM_DS3505
ZBYN,1996-10-03 00:00,ZBYN 030000Z AUTO 34004KT 7SM 10/06 A3009 RMK SLP189 T01030062 52004 IEM_DS3505
ZBYN,1996-10-03 01:00,ZBYN 030100Z AUTO 00000KT 7SM 11/08 A3009 RMK T01100080 IEM_DS3505
ZBYN,1996-10-03 02:00,ZBYN 030200Z AUTO 28004KT 7SM 15/07 A3009 RMK T01500070 IEM_DS3505
ZBYN,1996-10-03 03:00,ZBYN 030300Z AUTO 32002KT 6SM 17/06 A3009 RMK SLP182 T01710059 52001 IEM_DS3505
ZBYN,1996-10-03 04:00,ZBYN 030400Z AUTO 23004KT 7SM 19/08 A3006 RMK T01900080 IEM_DS3505
ZBYN,1996-10-03 05:00,ZBYN 030500Z AUTO 19004KT 7SM 19/08 A3003 RMK T01900080 IEM_DS3505
ZBYN,1996-10-03 06:00,ZBYN 030600Z AUTO 18006KT 6SM 20/09 A3000 RMK SLP152 T02010088 57027 IEM_DS3505
ZBYN,1996-10-03 07:00,ZBYN 030700Z AUTO 25004KT 7SM 21/07 A2997 RMK T02100070 IEM_DS3505
ZBYN,1996-10-03 08:00,ZBYN 030800Z AUTO 20004KT 7SM 22/10 A2997 RMK T02200100 IEM_DS3505
ZBYN,1996-10-03 09:00,ZBYN 030900Z AUTO 18004KT 5SM 20/10 A2994 RMK SLP146 T02000102 57011 IEM_DS3505
ZBYN,1996-10-03 10:00,ZBYN 031000Z AUTO 21004KT 7SM 19/11 A2997 RMK T01900110 IEM_DS3505
ZBYN,1996-10-03 11:00,ZBYN 031100Z AUTO 19004KT 7SM 15/12 A2997 RMK T01500120 IEM_DS3505
ZBYN,1996-10-03 12:00,ZBYN 031200Z AUTO 00000KT 6SM 12/10 A3000 RMK SLP165 T01160095 52013 IEM_DS3505
ZBYN,1996-10-03 13:00,ZBYN 031300Z AUTO 00000KT 7SM 11/10 A3000 RMK T01100100 IEM_DS3505
ZBYN,1996-10-03 14:00,ZBYN 031400Z AUTO 00000KT 7SM 11/09 A3000 RMK T01100090 IEM_DS3505
ZBYN,1996-10-03 15:00,ZBYN 031500Z AUTO 32004KT 5SM 11/09 A3000 RMK SLP160 T01060089 52004 IEM_DS3505
ZBYN,1996-10-03 16:00,ZBYN 031600Z AUTO 00000KT 7SM 09/09 A3000 RMK T00900090 IEM_DS3505
ZBYN,1996-10-03 18:00,ZBYN 031800Z AUTO 00000KT 4SM 08/07 RMK SLP162 T00780072 52002 IEM_DS3505
ZBYN,1996-10-03 19:00,ZBYN 031900Z AUTO 00000KT 4SM 08/07 A3000 RMK T00800070 IEM_DS3505
ZBYN,1996-10-03 20:00,ZBYN 032000Z AUTO 00000KT 4SM 05/05 A3003 RMK T00500050 IEM_DS3505
ZBYN,1996-10-03 21:00,ZBYN 032100Z AUTO 11002KT 4SM 06/06 A3003 RMK SLP167 T00610055 52002 IEM_DS3505
ZBYN,1996-10-03 22:00,ZBYN 032200Z AUTO 00000KT 7SM 07/07 A3003 RMK T00700070 IEM_DS3505
ZBYN,1996-10-03 23:00,ZBYN 032300Z AUTO 00000KT 4SM 07/07 A3003 RMK T00700070 IEM_DS3505
ZBYN,1996-10-04 00:00,ZBYN 040000Z AUTO 00000KT 3SM 08/07 A3003 RMK SLP182 T00780074 52004 IEM_DS3505
ZBYN,1996-10-04 01:00,ZBYN 040100Z AUTO 00000KT 2 1/2SM 11/09 A3006 RMK T01100090 IEM_DS3505
ZBYN,1996-10-04 02:00,ZBYN 040200Z AUTO 00000KT 7SM 14/09 A3003 RMK T01400090 IEM_DS3505
ZBYN,1996-10-04 03:00,ZBYN 040300Z AUTO 07002KT 4SM 17/09 A3003 RMK SLP165 T01710094 57003 IEM_DS3505
ZBYN,1996-10-04 04:00,ZBYN 040400Z AUTO 00000KT 7SM 19/10 A3000 RMK T01900100 IEM_DS3505
ZBYN,1996-10-04 05:00,ZBYN 040500Z AUTO 00000KT 7SM 22/09 A2994 RMK T02200090 IEM_DS3505
ZBYN,1996-10-04 06:00,ZBYN 040600Z AUTO 20004KT 6SM 23/08 A2991 RMK SLP127 T02270079 57031 IEM_DS3505
ZBYN,1996-10-04 07:00,ZBYN 040700Z AUTO 16006KT 6SM 25/10 A2988 RMK T02500100 IEM_DS3505
ZBYN,1996-10-04 08:00,ZBYN 040800Z AUTO 00000KT 6SM 24/11 A2985 RMK T02400110 IEM_DS3505
ZBYN,1996-10-04 09:00,ZBYN 040900Z AUTO 16004KT 7SM 22/09 A2985 RMK SLP103 T02210090 57025 IEM_DS3505
ZBYN,1996-10-04 10:00,ZBYN 041000Z AUTO 00000KT 6SM 20/12 A2983 RMK T02000120 IEM_DS3505
ZBYN,1996-10-04 11:00,ZBYN 041100Z AUTO 00000KT 6SM 18/11 A2985 RMK T01800110 IEM_DS3505
ZBYN,1996-10-04 12:00,ZBYN 041200Z AUTO 07004KT 6SM 16/11 A2985 RMK SLP112 T01620110 52002 IEM_DS3505
ZBYN,1996-10-04 13:00,ZBYN 041300Z AUTO 10004KT 7SM 15/12 A2988 RMK T01500120 IEM_DS3505
ZBYN,1996-10-04 14:00,ZBYN 041400Z AUTO 00000KT 7SM 15/13 A2991 RMK T01500130 IEM_DS3505
ZBYN,1996-10-04 15:00,ZBYN 041500Z AUTO 32006KT 6SM 15/11 RMK SLP116 T01520107 52016 IEM_DS3505
ZBYN,1996-10-04 16:00,ZBYN 041600Z AUTO 00000KT 7SM 14/12 A2991 RMK T01400120 IEM_DS3505
ZBYN,1996-10-04 17:00,ZBYN 041700Z AUTO 00000KT 7SM 13/12 A2991 RMK T01300120 IEM_DS3505
ZBYN,1996-10-04 18:00,ZBYN 041800Z AUTO 16002KT 5SM 12/11 A2991 RMK 60008 SLP116 T01180111 52003 IEM_DS3505
ZBYN,1996-10-04 19:00,ZBYN 041900Z AUTO 00000KT 7SM 12/12 A2991 RMK T01200120 IEM_DS3505
ZBYN,1996-10-04 20:00,ZBYN 042000Z AUTO 29017KT 7SM 12/09 A2994 RMK T01200090 IEM_DS3505
ZBYN,1996-10-04 21:00,ZBYN 042100Z AUTO 32008KT 5SM 10/06 A2997 RMK 70016 SLP133 T01020061 52012 IEM_DS3505
ZBYN,1996-10-04 22:00,ZBYN 042200Z AUTO 30010KT 7SM 10/07 A3000 RMK T01000070 IEM_DS3505
ZBYN,1996-10-04 23:00,ZBYN 042300Z AUTO 29012KT 7SM 08/06 A3006 RMK T00800060 IEM_DS3505
ZBYN,1996-10-05 00:00,ZBYN 050000Z AUTO 32010KT 9SM 08/04 A3003 RMK 60028 70035 SLP176 T00830041 52028 IEM_DS3505
ZBYN,1996-10-05 01:00,ZBYN 050100Z AUTO 31006KT 7SM 09/05 A3006 RMK T00900050 IEM_DS3505
ZBYN,1996-10-05 02:00,ZBYN 050200Z AUTO 34004KT 7SM 09/05 A3009 RMK T00900050 IEM_DS3505
ZBYN,1996-10-05 03:00,ZBYN 050300Z AUTO 29010KT 12SM 10/03 A3006 RMK SLP182 T01000029 52006 IEM_DS3505
ZBYN,1996-10-05 04:00,ZBYN 050400Z AUTO 00000KT 7SM 10/07 A3006 RMK T01000070 IEM_DS3505
ZBYN,1996-10-05 05:00,ZBYN 050500Z AUTO 27004KT 7SM 11/05 A3003 RMK T01100050 IEM_DS3505
ZBYN,1996-10-05 06:00,ZBYN 050600Z AUTO 00000KT 12SM 12/04 A3000 RMK 60000 SLP167 T01150040 57016 IEM_DS3505
ZBYN,1996-10-05 07:00,ZBYN 050700Z AUTO 32012KT 7SM 13/02 A3000 RMK T01300020 IEM_DS3505
ZBYN,1996-10-05 08:00,ZBYN 050800Z AUTO 32014KT 7SM 12/M01 A3003 RMK T01201010 IEM_DS3505
ZBYN,1996-10-05 09:00,ZBYN 050900Z AUTO 29008KT 12SM 11/00 A3003 RMK SLP181 T01100002 52009 IEM_DS3505
ZBYN,1996-10-05 10:00,ZBYN 051000Z AUTO 27006KT 6SM 11/02 A3003 RMK T01100020 IEM_DS3505
ZBYN,1996-10-05 11:00,ZBYN 051100Z AUTO 24004KT 6SM 09/04 A3006 RMK T00900040 IEM_DS3505
ZBYN,1996-10-05 12:00,ZBYN 051200Z AUTO 07004KT 6SM 08/02 A3009 RMK SLP203 T00780023 52013 IEM_DS3505
ZBYN,1996-10-05 13:00,ZBYN 051300Z AUTO 00000KT 6SM 06/05 A3009 RMK T00600050 IEM_DS3505
ZBYN,1996-10-05 14:00,ZBYN 051400Z AUTO 10004KT 6SM 05/04 A3009 RMK T00500040 IEM_DS3505
ZBYN,1996-10-05 15:00,ZBYN 051500Z AUTO 00000KT 6SM 04/02 A3012 RMK SLP214 T00420018 52007 IEM_DS3505
ZBYN,1996-10-05 16:00,ZBYN 051600Z AUTO 11004KT 6SM 04/04 A3012 RMK T00400040 IEM_DS3505
ZBYN,1996-10-05 18:00,ZBYN 051800Z AUTO 14004KT 6SM 03/02 RMK SLP218 T00300020 52004 IEM_DS3505
ZBYN,1996-10-05 19:00,ZBYN 051900Z AUTO 00000KT 6SM 03/03 A3012 RMK T00300030 IEM_DS3505
ZBYN,1996-10-05 21:00,ZBYN 052100Z AUTO 00000KT 6SM 02/01 A3012 RMK 70020 SLP214 T00180010 57006 IEM_DS3505
ZBYN,1996-10-05 22:00,ZBYN 052200Z AUTO 00000KT 7SM 02/02 A3012 RMK T00200020 IEM_DS3505
ZBYN,1996-10-05 23:00,ZBYN 052300Z AUTO 00000KT 6SM 03/02 A3012 RMK T00300020 IEM_DS3505
ZBYN,1996-10-06 00:00,ZBYN 060000Z AUTO 14002KT 5SM 03/03 A3015 RMK 70001 SLP234 T00340029 52015 IEM_DS3505
ZBYN,1996-10-06 01:00,ZBYN 060100Z AUTO 15004KT 6SM 06/04 A3018 RMK T00600040 IEM_DS3505
ZBYN,1996-10-06 02:00,ZBYN 060200Z AUTO 11004KT 6SM 08/05 A3018 RMK T00800050 IEM_DS3505
ZBYN,1996-10-06 03:00,ZBYN 060300Z AUTO 25002KT 5SM 09/03 A3018 RMK SLP241 T00870033 52009 IEM_DS3505
ZBYN,1996-10-06 04:00,ZBYN 060400Z AUTO 23004KT 6SM 10/05 A3018 RMK T01000050 IEM_DS3505
ZBYN,1996-10-06 06:00,ZBYN 060600Z AUTO 16006KT 5SM 11/05 RMK SLP230 T01090052 57008 IEM_DS3505
ZBYN,1996-10-06 07:00,ZBYN 060700Z AUTO 20004KT 5SM 12/06 A3012 RMK T01200060 IEM_DS3505
ZBYN,1996-10-06 08:00,ZBYN 060800Z AUTO 20004KT 5SM 12/06 A3015 RMK T01200060 IEM_DS3505
ZBYN,1996-10-06 09:00,ZBYN 060900Z AUTO 18008KT 5SM 11/05 A3015 RMK SLP226 T01080046 57006 IEM_DS3505
ZBYN,1996-10-06 10:00,ZBYN 061000Z AUTO 00000KT 6SM 10/08 A3015 RMK T01000080 IEM_DS3505
ZBYN,1996-10-06 11:00,ZBYN 061100Z AUTO 12004KT 6SM 09/07 A3015 RMK T00900070 IEM_DS3505
ZBYN,1996-10-06 12:00,ZBYN 061200Z AUTO 16004KT 6SM 08/05 A3018 RMK SLP245 T00780052 52015 IEM_DS3505
ZBYN,1996-10-06 13:00,ZBYN 061300Z AUTO 09004KT 4SM 07/07 A3021 RMK T00700070 IEM_DS3505
ZBYN,1996-10-06 14:00,ZBYN 061400Z AUTO 11004KT 4SM 06/06 A3021 RMK T00600060 IEM_DS3505
ZBYN,1996-10-06 15:00,ZBYN 061500Z AUTO 09004KT 7SM 06/05 A3024 RMK SLP254 T00630048 52014 IEM_DS3505
ZBYN,1996-10-06 16:00,ZBYN 061600Z AUTO 09004KT 5SM 05/05 A3024 RMK T00500050 IEM_DS3505
ZBYN,1996-10-06 17:00,ZBYN 061700Z AUTO 09002KT 7SM 04/04 A3024 RMK T00400040 IEM_DS3505
ZBYN,1996-10-06 18:00,ZBYN 061800Z AUTO 09004KT 5SM 04/03 A3024 RMK SLP256 T00370032 52002 IEM_DS3505
ZBYN,1996-10-06 19:00,ZBYN 061900Z AUTO 08004KT 7SM 04/03 A3024 RMK T00400030 IEM_DS3505
ZBYN,1996-10-06 20:00,ZBYN 062000Z AUTO 09004KT 7SM 03/03 A3027 RMK T00300030 IEM_DS3505
ZBYN,1996-10-06 21:00,ZBYN 062100Z AUTO 00000KT 4SM 02/02 A3024 RMK SLP268 T00240022 52008 IEM_DS3505
ZBYN,1996-10-06 22:00,ZBYN 062200Z AUTO 10006KT 4SM 03/03 A3027 RMK T00300030 IEM_DS3505
ZBYN,1996-10-06 23:00,ZBYN 062300Z AUTO 00000KT 5SM 02/02 A3030 RMK T00200020 IEM_DS3505
ZBYN,1996-10-07 00:00,ZBYN 070000Z AUTO 00000KT 2SM 03/02 A3030 RMK SLP290 T00280023 52016 IEM_DS3505
ZBYN,1996-10-07 01:00,ZBYN 070100Z AUTO 00000KT 4SM 06/04 A3033 RMK T00600040 IEM_DS3505
ZBYN,1996-10-07 02:00,ZBYN 070200Z AUTO 15004KT 4SM 09/04 A3033 RMK T00900040 IEM_DS3505
ZBYN,1996-10-07 03:00,ZBYN 070300Z AUTO 07004KT 4SM 11/04 A3030 RMK SLP276 T01120036 57002 IEM_DS3505
ZBYN,1996-10-07 04:00,ZBYN 070400Z AUTO 17004KT 6SM 14/06 A3027 RMK T01400060 IEM_DS3505
ZBYN,1996-10-07 05:00,ZBYN 070500Z AUTO 26004KT 6SM 15/04 A3024 RMK T01500040 IEM_DS3505
ZBYN,1996-10-07 06:00,ZBYN 070600Z AUTO 20004KT 5SM 16/01 A3021 RMK SLP241 T01590006 57028 IEM_DS3505
ZBYN,1996-10-07 07:00,ZBYN 070700Z AUTO 21002KT 6SM 17/03 A3018 RMK T01700030 IEM_DS3505
ZBYN,1996-10-07 08:00,ZBYN 070800Z AUTO 20006KT 6SM 16/03 A3018 RMK T01600030 IEM_DS3505
ZBYN,1996-10-07 09:00,ZBYN 070900Z AUTO 18004KT 6SM 14/04 A3018 RMK SLP229 T01450038 57015 IEM_DS3505
ZBYN,1996-10-07 10:00,ZBYN 071000Z AUTO 00000KT 6SM 12/07 A3018 RMK T01200070 IEM_DS3505
ZBYN,1996-10-07 11:00,ZBYN 071100Z AUTO 11004KT 6SM 10/07 A3018 RMK T01000070 IEM_DS3505
ZBYN,1996-10-07 12:00,ZBYN 071200Z AUTO 00000KT 6SM 10/03 A3018 RMK SLP244 T00970030 52006 IEM_DS3505
ZBYN,1996-10-07 13:00,ZBYN 071300Z AUTO 09004KT 5SM 07/06 A3021 RMK T00700060 IEM_DS3505
ZBYN,1996-10-07 14:00,ZBYN 071400Z AUTO 09004KT 5SM 06/05 A3021 RMK T00600050 IEM_DS3505
ZBYN,1996-10-07 15:00,ZBYN 071500Z AUTO 11004KT 6SM 05/04 A3024 RMK SLP249 T00490035 52011 IEM_DS3505
ZBYN,1996-10-07 17:00,ZBYN 071700Z AUTO 09006KT 5SM 05/04 A3024 RMK T00500040 IEM_DS3505
ZBYN,1996-10-07 18:00,ZBYN 071800Z AUTO 18004KT 6SM 03/02 RMK SLP249 T00320022 52004 IEM_DS3505
ZBYN,1996-10-07 19:00,ZBYN 071900Z AUTO 09006KT 5SM 04/04 A3021 RMK T00400040 IEM_DS3505
ZBYN,1996-10-07 20:00,ZBYN 072000Z AUTO 10006KT 5SM 04/03 A3021 RMK T00400030 IEM_DS3505
ZBYN,1996-10-07 21:00,ZBYN 072100Z AUTO 00000KT 4SM 02/02 A3024 RMK SLP253 T00220017 54000 IEM_DS3505
ZBYN,1996-10-07 22:00,ZBYN 072200Z AUTO 00000KT 2 1/2SM 03/03 A3024 RMK T00300030 IEM_DS3505
ZBYN,1996-10-07 23:00,ZBYN 072300Z AUTO 10004KT 2 1/2SM 03/03 A3024 RMK T00300030 IEM_DS3505
ZBYN,1996-10-08 00:00,ZBYN 080000Z AUTO 00000KT 2SM 04/03 A3027 RMK SLP271 T00360029 52011 IEM_DS3505
ZBYN,1996-10-08 01:00,ZBYN 080100Z AUTO 00000KT 2 1/2SM 07/05 A3027 RMK T00700050 IEM_DS3505
ZBYN,1996-10-08 02:00,ZBYN 080200Z AUTO 00000KT 5SM 10/05 A3027 RMK T01000050 IEM_DS3505
ZBYN,1996-10-08 03:00,ZBYN 080300Z AUTO 14002KT 6SM 14/05 A3027 RMK SLP259 T01360052 57003 IEM_DS3505
ZBYN,1996-10-08 04:00,ZBYN 080400Z AUTO 00000KT 7SM 15/06 A3024 RMK T01500060 IEM_DS3505
ZBYN,1996-10-08 05:00,ZBYN 080500Z AUTO 19004KT 7SM 18/06 A3021 RMK T01800060 IEM_DS3505
ZBYN,1996-10-08 06:00,ZBYN 080600Z AUTO 22006KT 6SM 19/05 A3018 RMK SLP222 T01870047 57028 IEM_DS3505
ZBYN,1996-10-08 07:00,ZBYN 080700Z AUTO 21004KT 7SM 20/05 A3015 RMK T02000050 IEM_DS3505
ZBYN,1996-10-08 08:00,ZBYN 080800Z AUTO 00000KT 7SM 21/06 A3015 RMK T02100060 IEM_DS3505
ZBYN,1996-10-08 09:00,ZBYN 080900Z AUTO 22004KT 6SM 18/05 A3012 RMK SLP214 T01830050 57010 IEM_DS3505
ZBYN,1996-10-08 10:00,ZBYN 081000Z AUTO 24004KT 7SM 16/08 A3015 RMK T01600080 IEM_DS3505
ZBYN,1996-10-08 11:00,ZBYN 081100Z AUTO 00000KT 7SM 13/08 A3015 RMK T01300080 IEM_DS3505
ZBYN,1996-10-08 12:00,ZBYN 081200Z AUTO 07002KT 6SM 10/06 A3018 RMK SLP237 T00950064 52010 IEM_DS3505
ZBYN,1996-10-08 13:00,ZBYN 081300Z AUTO 12004KT 7SM 09/07 A3018 RMK T00900070 IEM_DS3505
ZBYN,1996-10-08 14:00,ZBYN 081400Z AUTO 00000KT 7SM 08/07 A3021 RMK T00800070 IEM_DS3505
ZBYN,1996-10-08 15:00,ZBYN 081500Z AUTO 11002KT 6SM 08/06 A3024 RMK SLP239 T00750056 52010 IEM_DS3505
ZBYN,1996-10-08 16:00,ZBYN 081600Z AUTO 07004KT 7SM 07/06 A3024 RMK T00700060 IEM_DS3505
ZBYN,1996-10-08 17:00,ZBYN 081700Z AUTO 00000KT 7SM 05/05 A3024 RMK T00500050 IEM_DS3505
ZBYN,1996-10-08 18:00,ZBYN 081800Z AUTO 29004KT 6SM 06/06 A3022 RMK SLP235 T00620056 52002 IEM_DS3505
ZBYN,1996-10-08 19:00,ZBYN 081900Z AUTO 00000KT 7SM 05/05 A3024 RMK T00500050 IEM_DS3505
ZBYN,1996-10-08 20:00,ZBYN 082000Z AUTO 13004KT 7SM 05/04 A3021 RMK T00500040 IEM_DS3505
ZBYN,1996-10-08 21:00,ZBYN 082100Z AUTO 00000KT 1 1/4SM 04/03 A3021 RMK SLP238 T00400033 57001 IEM_DS3505
ZBYN,1996-10-08 22:00,ZBYN 082200Z AUTO 00000KT 4SM 04/04 A3024 RMK T00400040 IEM_DS3505
ZBYN,1996-10-08 23:00,ZBYN 082300Z AUTO 00000KT 3SM 04/04 A3024 RMK T00400040 IEM_DS3505
ZBYN,1996-10-09 00:00,ZBYN 090000Z AUTO 00000KT 2SM 05/04 A3027 RMK SLP269 T00520045 52017 IEM_DS3505
ZBYN,1996-10-09 01:00,ZBYN 090100Z AUTO 00000KT 3SM 08/06 A3027 RMK T00800060 IEM_DS3505
ZBYN,1996-10-09 02:00,ZBYN 090200Z AUTO 23002KT 3SM 11/06 A3027 RMK T01100060 IEM_DS3505
ZBYN,1996-10-09 03:00,ZBYN 090300Z AUTO 00000KT 5SM 15/06 A3024 RMK SLP248 T01510061 57007 IEM_DS3505
ZBYN,1996-10-09 04:00,ZBYN 090400Z AUTO 25002KT 4SM 17/05 A3021 RMK T01700050 IEM_DS3505
ZBYN,1996-10-09 05:00,ZBYN 090500Z AUTO 00000KT 5SM 19/07 A3018 RMK T01900070 IEM_DS3505
ZBYN,1996-10-09 06:00,ZBYN 090600Z AUTO 18006KT 5SM 21/03 A3015 RMK SLP207 T02090027 57031 IEM_DS3505
ZBYN,1996-10-09 07:00,ZBYN 090700Z AUTO 21006KT 7SM 22/04 A3012 RMK T02200040 IEM_DS3505
ZBYN,1996-10-09 08:00,ZBYN 090800Z AUTO 25006KT 7SM 21/04 A3012 RMK T02100040 IEM_DS3505
ZBYN,1996-10-09 09:00,ZBYN 090900Z AUTO 18004KT 6SM 19/05 A3012 RMK SLP203 T01890048 57010 IEM_DS3505
ZBYN,1996-10-09 11:00,ZBYN 091100Z AUTO 09006KT 7SM 13/09 A3012 RMK T01300090 IEM_DS3505
ZBYN,1996-10-09 12:00,ZBYN 091200Z AUTO 09002KT 6SM 12/07 A3015 RMK SLP225 T01250067 52012 IEM_DS3505
ZBYN,1996-10-09 13:00,ZBYN 091300Z AUTO 09002KT 7SM 11/08 A3015 RMK T01100080 IEM_DS3505
ZBYN,1996-10-09 14:00,ZBYN 091400Z AUTO 14004KT 7SM 10/08 A3015 RMK T01000080 IEM_DS3505
ZBYN,1996-10-09 15:00,ZBYN 091500Z AUTO 00000KT 6SM 09/07 A3018 RMK SLP219 T00910068 52005 IEM_DS3505
ZBYN,1996-10-09 16:00,ZBYN 091600Z AUTO 10006KT 6SM 10/08 A3015 RMK T01000080 IEM_DS3505
ZBYN,1996-10-09 18:00,ZBYN 091800Z AUTO 00000KT 6SM 09/08 A3017 RMK SLP207 T00930075 57002 IEM_DS3505
ZBYN,1996-10-09 19:00,ZBYN 091900Z AUTO 00000KT 6SM 11/09 A3015 RMK T01100090 IEM_DS3505
ZBYN,1996-10-09 21:00,ZBYN 092100Z AUTO 20002KT 6SM 08/07 A3015 RMK SLP207 T00850071 57005 IEM_DS3505
ZBYN,1996-10-09 22:00,ZBYN 092200Z AUTO 00000KT 4SM 08/08 A3015 RMK T00800080 IEM_DS3505
ZBYN,1996-10-09 23:00,ZBYN 092300Z AUTO 00000KT 4SM 08/07 A3015 RMK T00800070 IEM_DS3505
ZBYN,1996-10-10 00:00,ZBYN 100000Z AUTO 32002KT 5SM 10/08 A3018 RMK SLP225 T00970081 52009 IEM_DS3505
ZBYN,1996-10-10 01:00,ZBYN 100100Z AUTO 00000KT 4SM 12/08 A3018 RMK T01200080 IEM_DS3505
ZBYN,1996-10-10 02:00,ZBYN 100200Z AUTO 00000KT 7SM 14/07 A3018 RMK T01400070 IEM_DS3505
ZBYN,1996-10-10 03:00,ZBYN 100300Z AUTO 16004KT 6SM 17/06 A3018 RMK SLP216 T01700060 57002 IEM_DS3505
ZBYN,1996-10-10 04:00,ZBYN 100400Z AUTO 00000KT 7SM 19/07 A3015 RMK T01900070 IEM_DS3505
ZBYN,1996-10-10 05:00,ZBYN 100500Z AUTO 18008KT 7SM 21/07 A3012 RMK T02100070 IEM_DS3505
ZBYN,1996-10-10 06:00,ZBYN 100600Z AUTO 16006KT 6SM 21/06 A3009 RMK SLP180 T02130055 57026 IEM_DS3505
ZBYN,1996-10-10 07:00,ZBYN 100700Z AUTO 18006KT 7SM 23/07 A3006 RMK T02300070 IEM_DS3505
ZBYN,1996-10-10 08:00,ZBYN 100800Z AUTO 20004KT 7SM 22/07 A3006 RMK T02200070 IEM_DS3505
ZBYN,1996-10-10 09:00,ZBYN 100900Z AUTO 00000KT 6SM 20/08 A3006 RMK SLP177 T01950080 57007 IEM_DS3505
ZBYN,1996-10-10 10:00,ZBYN 101000Z AUTO 00000KT 6SM 17/10 A3006 RMK T01700100 IEM_DS3505
ZBYN,1996-10-10 11:00,ZBYN 101100Z AUTO 00000KT 6SM 14/11 A3009 RMK T01400110 IEM_DS3505
ZBYN,1996-10-10 12:00,ZBYN 101200Z AUTO 00000KT 6SM 12/08 A3012 RMK SLP201 T01230084 52013 IEM_DS3505
ZBYN,1996-10-10 13:00,ZBYN 101300Z AUTO 00000KT 7SM 11/09 A3012 RMK T01100090 IEM_DS3505
ZBYN,1996-10-10 14:00,ZBYN 101400Z AUTO 12004KT 6SM 10/09 A3015 RMK T01000090 IEM_DS3505
ZBYN,1996-10-10 15:00,ZBYN 101500Z AUTO 18002KT 6SM 09/07 A3015 RMK SLP212 T00920074 52016 IEM_DS3505
ZBYN,1996-10-10 16:00,ZBYN 101600Z AUTO 00000KT 6SM 09/08 A3015 RMK T00900080 IEM_DS3505
ZBYN,1996-10-10 17:00,ZBYN 101700Z AUTO 00000KT 7SM 09/08 A3018 RMK T00900080 IEM_DS3505
ZBYN,1996-10-10 18:00,ZBYN 101800Z AUTO 00000KT 6SM 08/07 A3018 RMK SLP214 T00770069 52006 IEM_DS3505
ZBYN,1996-10-10 19:00,ZBYN 101900Z AUTO 00000KT 7SM 09/08 A3015 RMK T00900080 IEM_DS3505
ZBYN,1996-10-10 20:00,ZBYN 102000Z AUTO 00000KT 6SM 09/08 A3015 RMK T00900080 IEM_DS3505
ZBYN,1996-10-10 21:00,ZBYN 102100Z AUTO 34002KT 6SM 09/08 A3015 RMK SLP208 T00890075 57006 IEM_DS3505
ZBYN,1996-10-10 22:00,ZBYN 102200Z AUTO 00000KT 6SM 09/08 A3018 RMK T00900080 IEM_DS3505
ZBYN,1996-10-10 23:00,ZBYN 102300Z AUTO 00000KT 1 1/2SM 09/08 A3018 RMK T00900080 IEM_DS3505
ZBYN,1996-10-11 00:00,ZBYN 110000Z AUTO 00000KT 4SM 10/08 A3021 RMK SLP233 T00950081 52013 IEM_DS3505
ZBYN,1996-10-11 01:00,ZBYN 110100Z AUTO 00000KT 2SM 11/09 A3021 RMK T01100090 IEM_DS3505
ZBYN,1996-10-11 02:00,ZBYN 110200Z AUTO 00000KT 2SM 14/09 A3021 RMK T01400090 IEM_DS3505
ZBYN,1996-10-11 03:00,ZBYN 110300Z AUTO 20004KT 4SM 16/08 A3018 RMK SLP222 T01620078 57005 IEM_DS3505
ZBYN,1996-10-11 04:00,ZBYN 110400Z AUTO 00000KT 4SM 19/09 A3018 RMK T01900090 IEM_DS3505
ZBYN,1996-10-11 05:00,ZBYN 110500Z AUTO 23004KT 6SM 20/08 A3015 RMK T02000080 IEM_DS3505
ZBYN,1996-10-11 06:00,ZBYN 110600Z AUTO 16004KT 5SM 21/07 A3012 RMK SLP191 T02130074 57023 IEM_DS3505
ZBYN,1996-10-11 07:00,ZBYN 110700Z AUTO 00000KT 6SM 23/08 A3009 RMK T02300080 IEM_DS3505
ZBYN,1996-10-11 08:00,ZBYN 110800Z AUTO 00000KT 6SM 22/08 A3009 RMK T02200080 IEM_DS3505
ZBYN,1996-10-11 09:00,ZBYN 110900Z AUTO 14004KT 5SM 20/09 A3009 RMK SLP187 T02000091 57004 IEM_DS3505
ZBYN,1996-10-11 10:00,ZBYN 111000Z AUTO 00000KT 6SM 17/10 A3012 RMK T01700100 IEM_DS3505
ZBYN,1996-10-11 11:00,ZBYN 111100Z AUTO 00000KT 4SM 15/11 A3015 RMK T01500110 IEM_DS3505
ZBYN,1996-10-11 12:00,ZBYN 111200Z AUTO 34002KT 6SM 14/08 A3015 RMK SLP216 T01370085 52018 IEM_DS3505
ZBYN,1996-10-11 13:00,ZBYN 111300Z AUTO 09006KT 4SM 12/09 A3018 RMK T01200090 IEM_DS3505
ZBYN,1996-10-11 14:00,ZBYN 111400Z AUTO 31004KT 6SM 13/08 A3021 RMK T01300080 IEM_DS3505
ZBYN,1996-10-11 15:00,ZBYN 111500Z AUTO 36002KT 6SM 10/07 A3021 RMK SLP230 T01020074 52018 IEM_DS3505
ZBYN,1996-10-11 16:00,ZBYN 111600Z AUTO 00000KT 6SM 11/09 A3021 RMK T01100090 IEM_DS3505
ZBYN,1996-10-11 17:00,ZBYN 111700Z AUTO 00000KT 6SM 10/08 A3021 RMK T01000080 IEM_DS3505
ZBYN,1996-10-11 18:00,ZBYN 111800Z AUTO 36002KT 6SM 08/07 A3024 RMK SLP229 T00810066 52003 IEM_DS3505
ZBYN,1996-10-11 19:00,ZBYN 111900Z AUTO 00000KT 6SM 09/08 A3024 RMK T00900080 IEM_DS3505
ZBYN,1996-10-11 20:00,ZBYN 112000Z AUTO 00000KT 6SM 08/08 A3024 RMK T00800080 IEM_DS3505
ZBYN,1996-10-11 21:00,ZBYN 112100Z AUTO 34004KT 6SM 07/06 A3024 RMK SLP237 T00670061 52004 IEM_DS3505
ZBYN,1996-10-11 22:00,ZBYN 112200Z AUTO 00000KT 4SM 07/07 A3024 RMK T00700070 IEM_DS3505
ZBYN,1996-10-11 23:00,ZBYN 112300Z AUTO 00000KT 2SM 07/07 A3024 RMK T00700070 IEM_DS3505
ZBYN,1996-10-12 00:00,ZBYN 120000Z AUTO 34002KT 4SM 08/06 A3027 RMK SLP257 T00800065 52010 IEM_DS3505
ZBYN,1996-10-12 01:00,ZBYN 120100Z AUTO 00000KT 1 1/4SM 10/08 A3027 RMK T01000080 IEM_DS3505
ZBYN,1996-10-12 02:00,ZBYN 120200Z AUTO 00000KT 2SM 13/09 A3027 RMK T01300090 IEM_DS3505
ZBYN,1996-10-12 03:00,ZBYN 120300Z AUTO 18004KT 4SM 16/07 A3027 RMK SLP249 T01630072 54000 IEM_DS3505
ZBYN,1996-10-12 04:00,ZBYN 120400Z AUTO 24004KT 4SM 17/09 A3024 RMK T01700090 IEM_DS3505
ZBYN,1996-10-12 05:00,ZBYN 120500Z AUTO 00000KT 4SM 19/10 A3021 RMK T01900100 IEM_DS3505
ZBYN,1996-10-12 06:00,ZBYN 120600Z AUTO 14006KT 6SM 19/08 A3018 RMK SLP222 T01930084 57023 IEM_DS3505
ZBYN,1996-10-12 07:00,ZBYN 120700Z AUTO 00000KT 4SM 21/11 A3018 RMK T02100110 IEM_DS3505
ZBYN,1996-10-12 08:00,ZBYN 120800Z AUTO 16004KT 6SM 21/12 A3015 RMK T02100120 IEM_DS3505
ZBYN,1996-10-12 09:00,ZBYN 120900Z AUTO 16004KT 6SM 20/09 A3015 RMK SLP208 T01950086 57014 IEM_DS3505
ZBYN,1996-10-12 10:00,ZBYN 121000Z AUTO 16004KT 6SM 16/11 A3015 RMK T01600110 IEM_DS3505
ZBYN,1996-10-12 11:00,ZBYN 121100Z AUTO 12004KT 4SM 14/10 A3015 RMK T01400100 IEM_DS3505
ZBYN,1996-10-12 12:00,ZBYN 121200Z AUTO 09006KT 5SM 13/08 A3018 RMK SLP220 T01330083 52010 IEM_DS3505
ZBYN,1996-10-12 13:00,ZBYN 121300Z AUTO 12004KT 3SM 11/10 A3018 RMK T01100100 IEM_DS3505
ZBYN,1996-10-12 14:00,ZBYN 121400Z AUTO 00000KT 4SM 10/09 A3021 RMK T01000090 IEM_DS3505
ZBYN,1996-10-12 15:00,ZBYN 121500Z AUTO 00000KT 5SM 10/08 A3021 RMK SLP230 T00950081 52009 IEM_DS3505
ZBYN,1996-10-12 16:00,ZBYN 121600Z AUTO 00000KT 5SM 09/09 A3018 RMK T00900090 IEM_DS3505
ZBYN,1996-10-12 17:00,ZBYN 121700Z AUTO 00000KT 6SM 09/08 A3018 RMK T00900080 IEM_DS3505
ZBYN,1996-10-12 18:00,ZBYN 121800Z AUTO 00000KT 3SM 08/07 A3018 RMK SLP216 T00760072 57011 IEM_DS3505
ZBYN,1996-10-12 19:00,ZBYN 121900Z AUTO 00000KT 6SM 08/07 A3015 RMK T00800070 IEM_DS3505
ZBYN,1996-10-12 20:00,ZBYN 122000Z AUTO 00000KT 6SM 08/07 A3015 RMK T00800070 IEM_DS3505
ZBYN,1996-10-12 21:00,ZBYN 122100Z AUTO 11004KT 3SM 07/06 A3015 RMK SLP209 T00710063 57007 IEM_DS3505
ZBYN,1996-10-12 22:00,ZBYN 122200Z AUTO 00000KT 6SM 07/07 A3015 RMK T00700070 IEM_DS3505
ZBYN,1996-10-12 23:00,ZBYN 122300Z AUTO 12004KT 2SM 07/07 A3015 RMK T00700070 IEM_DS3505
ZBYN,1996-10-13 00:00,ZBYN 130000Z AUTO 00000KT 2SM 08/07 A3015 RMK SLP222 T00780070 52004 IEM_DS3505
ZBYN,1996-10-13 01:00,ZBYN 130100Z AUTO 00000KT 1 1/4SM 10/09 A3018 RMK T01000090 IEM_DS3505
ZBYN,1996-10-13 02:00,ZBYN 130200Z AUTO 00000KT 1 1/4SM 12/09 A3018 RMK T01200090 IEM_DS3505
ZBYN,1996-10-13 03:00,ZBYN 130300Z AUTO 16004KT 5SM 15/10 A3015 RMK SLP216 T01490095 57001 IEM_DS3505
ZBYN,1996-10-13 04:00,ZBYN 130400Z AUTO 00000KT 4SM 17/08 A3012 RMK T01700080 IEM_DS3505
ZBYN,1996-10-13 05:00,ZBYN 130500Z AUTO 27004KT 4SM 19/10 A3012 RMK T01900100 IEM_DS3505
ZBYN,1996-10-13 06:00,ZBYN 130600Z AUTO 29002KT 5SM 18/09 A3012 RMK SLP201 T01770086 57012 IEM_DS3505
ZBYN,1996-10-13 07:00,ZBYN 130700Z AUTO 23004KT 7SM 14/10 A3012 RMK T01400100 IEM_DS3505
ZBYN,1996-10-13 08:00,ZBYN 130800Z AUTO 36017KT 7SM 16/11 A3015 RMK T01600110 IEM_DS3505
ZBYN,1996-10-13 09:00,ZBYN 130900Z AUTO 34006KT 7SM 15/07 A3015 RMK SLP217 T01460072 52009 IEM_DS3505
ZBYN,1996-10-13 10:00,ZBYN 131000Z AUTO 04010KT 7SM 14/07 A3015 RMK T01400070 IEM_DS3505
ZBYN,1996-10-13 11:00,ZBYN 131100Z AUTO 30006KT 7SM 13/06 A3021 RMK T01300060 IEM_DS3505
ZBYN,1996-10-13 12:00,ZBYN 131200Z AUTO 36004KT 6SM 12/05 A3021 RMK 60004 SLP243 T01250050 52022 IEM_DS3505
ZBYN,1996-10-13 13:00,ZBYN 131300Z AUTO 32006KT 7SM 12/05 A3021 RMK T01200050 IEM_DS3505
ZBYN,1996-10-13 14:00,ZBYN 131400Z AUTO 00000KT 7SM 10/07 A3024 RMK T01000070 IEM_DS3505
ZBYN,1996-10-13 15:00,ZBYN 131500Z AUTO 32004KT 6SM 08/06 A3024 RMK SLP245 T00770056 52005 IEM_DS3505
ZBYN,1996-10-13 16:00,ZBYN 131600Z AUTO 00000KT 7SM 07/06 A3021 RMK T00700060 IEM_DS3505
ZBYN,1996-10-13 17:00,ZBYN 131700Z AUTO 12006KT 7SM 06/05 A3021 RMK T00600050 IEM_DS3505
ZBYN,1996-10-13 18:00,ZBYN 131800Z AUTO 29002KT 6SM 06/05 A3021 RMK SLP236 T00590048 57007 IEM_DS3505
ZBYN,1996-10-13 19:00,ZBYN 131900Z AUTO 00000KT 7SM 05/04 A3021 RMK T00500040 IEM_DS3505
ZBYN,1996-10-13 20:00,ZBYN 132000Z AUTO 09004KT 7SM 04/04 A3021 RMK T00400040 IEM_DS3505
ZBYN,1996-10-13 21:00,ZBYN 132100Z AUTO 00000KT 6SM 03/02 A3021 RMK 70004 SLP240 T00340024 57005 IEM_DS3505
ZBYN,1996-10-13 22:00,ZBYN 132200Z AUTO 08006KT 7SM 04/03 A3021 RMK T00400030 IEM_DS3505
ZBYN,1996-10-13 23:00,ZBYN 132300Z AUTO 00000KT 7SM 03/03 A3021 RMK T00300030 IEM_DS3505
ZBYN,1996-10-14 00:00,ZBYN 140000Z AUTO 00000KT 5SM 05/04 A3021 RMK 70004 SLP248 T00470040 52006 IEM_DS3505
ZBYN,1996-10-14 01:00,ZBYN 140100Z AUTO 00000KT 3SM 07/06 A3021 RMK T00700060 IEM_DS3505
ZBYN,1996-10-14 02:00,ZBYN 140200Z AUTO 15004KT 5SM 11/06 A3021 RMK T01100060 IEM_DS3505
ZBYN,1996-10-14 03:00,ZBYN 140300Z AUTO 16006KT 6SM 13/05 A3018 RMK SLP228 T01330053 57012 IEM_DS3505
ZBYN,1996-10-14 04:00,ZBYN 140400Z AUTO 18006KT 7SM 17/07 A3015 RMK T01700070 IEM_DS3505
ZBYN,1996-10-14 05:00,ZBYN 140500Z AUTO 21008KT 7SM 19/07 A3012 RMK T01900070 IEM_DS3505
ZBYN,1996-10-14 06:00,ZBYN 140600Z AUTO 18010KT 6SM 19/07 A3006 RMK SLP183 T01930070 57035 IEM_DS3505
ZBYN,1996-10-14 07:00,ZBYN 140700Z AUTO 21008KT 7SM 21/07 A3003 RMK T02100070 IEM_DS3505
ZBYN,1996-10-14 08:00,ZBYN 140800Z AUTO 22006KT 7SM 20/10 A3003 RMK T02000100 IEM_DS3505
ZBYN,1996-10-14 09:00,ZBYN 140900Z AUTO 34002KT 9SM 21/06 A3003 RMK SLP170 T02100056 57013 IEM_DS3505
ZBYN,1996-10-14 10:00,ZBYN 141000Z AUTO 33004KT 7SM 17/10 A3003 RMK T01700100 IEM_DS3505
ZBYN,1996-10-14 11:00,ZBYN 141100Z AUTO 00000KT 7SM 16/07 A3003 RMK T01600070 IEM_DS3505
ZBYN,1996-10-14 12:00,ZBYN 141200Z AUTO 29004KT 9SM 14/04 A3006 RMK SLP188 T01350043 52007 IEM_DS3505
ZBYN,1996-10-14 13:00,ZBYN 141300Z AUTO 00000KT 7SM 10/07 A3006 RMK T01000070 IEM_DS3505
ZBYN,1996-10-14 14:00,ZBYN 141400Z AUTO 10004KT 7SM 09/06 A3006 RMK T00900060 IEM_DS3505
ZBYN,1996-10-14 15:00,ZBYN 141500Z AUTO 14006KT 6SM 08/05 A3009 RMK SLP196 T00820050 52013 IEM_DS3505
ZBYN,1996-10-14 16:00,ZBYN 141600Z AUTO 10006KT 7SM 08/06 A3009 RMK T00800060 IEM_DS3505
ZBYN,1996-10-14 17:00,ZBYN 141700Z AUTO 09006KT 7SM 07/05 A3009 RMK T00700050 IEM_DS3505
ZBYN,1996-10-14 18:00,ZBYN 141800Z AUTO 16004KT 6SM 06/04 A3009 RMK SLP194 T00630041 52004 IEM_DS3505
ZBYN,1996-10-14 19:00,ZBYN 141900Z AUTO 09006KT 7SM 06/05 A3009 RMK T00600050 IEM_DS3505
ZBYN,1996-10-14 20:00,ZBYN 142000Z AUTO 10004KT 7SM 06/05 A3009 RMK T00600050 IEM_DS3505
ZBYN,1996-10-14 21:00,ZBYN 142100Z AUTO 34002KT 6SM 05/04 A3012 RMK SLP195 T00470035 52001 IEM_DS3505
ZBYN,1996-10-14 22:00,ZBYN 142200Z AUTO 00000KT 7SM 04/04 A3012 RMK T00400040 IEM_DS3505
ZBYN,1996-10-14 23:00,ZBYN 142300Z AUTO 00000KT 4SM 04/03 A3012 RMK T00400030 IEM_DS3505
ZBYN,1996-10-15 00:00,ZBYN 150000Z AUTO 34002KT 4SM 08/04 A3015 RMK SLP214 T00750039 52010 IEM_DS3505
ZBYN,1996-10-15 01:00,ZBYN 150100Z AUTO 25004KT 6SM A3015 RMK SLP182 57026 IEM_DS3505
ZBYN,1996-10-15 02:00,ZBYN 150200Z AUTO 00000KT 2SM 12/07 A3018 RMK T01200070 IEM_DS3505
ZBYN,1996-10-15 03:00,ZBYN 150300Z AUTO 04002KT 6SM 17/01 A3015 RMK SLP215 T01660008 52007 IEM_DS3505
ZBYN,1996-10-15 04:00,ZBYN 150400Z AUTO 00000KT 7SM 19/04 A3015 RMK T01900040 IEM_DS3505
ZBYN,1996-10-15 05:00,ZBYN 150500Z AUTO 00000KT 7SM 21/04 A3009 RMK T02100040 IEM_DS3505
ZBYN,1996-10-15 06:00,ZBYN 150600Z AUTO 25004KT 6SM 21/02 A3006 RMK SLP182 T02130019 57026 IEM_DS3505
ZBYN,1996-10-15 07:00,ZBYN 150700Z AUTO 21004KT 7SM 22/04 A3006 RMK T02200040 IEM_DS3505
ZBYN,1996-10-15 08:00,ZBYN 150800Z AUTO 00000KT 7SM 22/06 A3003 RMK T02200060 IEM_DS3505
ZBYN,1996-10-15 09:00,ZBYN 150900Z AUTO 00000KT 6SM 19/08 A3003 RMK SLP175 T01940076 57012 IEM_DS3505
ZBYN,1996-10-15 10:00,ZBYN 151000Z AUTO 00000KT 6SM 16/08 A3003 RMK T01600080 IEM_DS3505
ZBYN,1996-10-15 11:00,ZBYN 151100Z AUTO 09010KT 6SM 13/07 A3006 RMK T01300070 IEM_DS3505
ZBYN,1996-10-15 12:00,ZBYN 151200Z AUTO 00000KT 6SM 14/06 A3009 RMK SLP192 T01390058 52012 IEM_DS3505
ZBYN,1996-10-15 13:00,ZBYN 151300Z AUTO 09016KT 6SM 12/06 A3009 RMK T01200060 IEM_DS3505
ZBYN,1996-10-15 14:00,ZBYN 151400Z AUTO 07006KT 6SM 12/07 A3012 RMK T01200070 IEM_DS3505
ZBYN,1996-10-15 15:00,ZBYN 151500Z AUTO 32002KT 6SM 11/06 A3015 RMK SLP206 T01060058 52021 IEM_DS3505
ZBYN,1996-10-15 16:00,ZBYN 151600Z AUTO 09006KT 6SM 11/07 A3015 RMK T01100070 IEM_DS3505
ZBYN,1996-10-15 18:00,ZBYN 151800Z AUTO 29004KT 6SM 10/06 A3015 RMK SLP200 T01050060 52002 IEM_DS3505
ZBYN,1996-10-15 20:00,ZBYN 152000Z AUTO 00000KT 7SM 10/08 A3012 RMK T01000080 IEM_DS3505
ZBYN,1996-10-15 21:00,ZBYN 152100Z AUTO 36004KT 6SM 10/06 A3012 RMK SLP198 T01010062 57006 IEM_DS3505
ZBYN,1996-10-15 22:00,ZBYN 152200Z AUTO 00000KT 3SM 09/08 A3015 RMK T00900080 IEM_DS3505
ZBYN,1996-10-15 23:00,ZBYN 152300Z AUTO 24004KT 3SM 10/07 A3015 RMK T01000070 IEM_DS3505
ZBYN,1996-10-16 00:00,ZBYN 160000Z AUTO 36002KT 6SM 10/06 A3018 RMK SLP221 T00990057 52013 IEM_DS3505
ZBYN,1996-10-16 01:00,ZBYN 160100Z AUTO 00000KT 4SM 10/08 A3018 RMK T01000080 IEM_DS3505
ZBYN,1996-10-16 02:00,ZBYN 160200Z AUTO 00000KT 4SM 12/09 A3018 RMK T01200090 IEM_DS3505
ZBYN,1996-10-16 03:00,ZBYN 160300Z AUTO 16004KT 5SM 12/07 A3021 RMK SLP233 T01220068 52009 IEM_DS3505
ZBYN,1996-10-16 04:00,ZBYN 160400Z AUTO 20008KT 4SM 12/09 A3021 RMK T01200090 IEM_DS3505
ZBYN,1996-10-16 05:00,ZBYN 160500Z AUTO 11004KT 1 1/4SM 12/09 A3018 RMK T01200090 IEM_DS3505
ZBYN,1996-10-16 06:00,ZBYN 160600Z AUTO 14004KT 5SM 11/08 A3015 RMK SLP217 T01100083 57016 IEM_DS3505
ZBYN,1996-10-16 07:00,ZBYN 160700Z AUTO 00000KT 2 1/2SM 13/10 A3012 RMK T01300100 IEM_DS3505
ZBYN,1996-10-16 08:00,ZBYN 160800Z AUTO 00000KT 3SM 11/11 A3012 RMK T01100110 IEM_DS3505
ZBYN,1996-10-16 09:00,ZBYN 160900Z AUTO 16002KT 5SM 11/10 A3012 RMK SLP204 T01110096 57013 IEM_DS3505
ZBYN,1996-10-16 10:00,ZBYN 161000Z AUTO 15004KT 4SM 09/08 A3012 RMK T00900080 IEM_DS3505
ZBYN,1996-10-16 11:00,ZBYN 161100Z AUTO 17002KT 4SM 11/10 A3012 RMK T01100100 IEM_DS3505
ZBYN,1996-10-16 12:00,ZBYN 161200Z AUTO 16004KT 5SM 10/09 A3012 RMK 60000 SLP202 T01010087 57003 IEM_DS3505
ZBYN,1996-10-16 13:00,ZBYN 161300Z AUTO 00000KT 4SM 10/09 A3012 RMK T01000090 IEM_DS3505
ZBYN,1996-10-16 14:00,ZBYN 161400Z AUTO 00000KT 4SM 10/09 A3009 RMK T01000090 IEM_DS3505
ZBYN,1996-10-16 15:00,ZBYN 161500Z AUTO 14004KT 5SM 10/09 A3009 RMK SLP196 T00970087 57003 IEM_DS3505
ZBYN,1996-10-16 16:00,ZBYN 161600Z AUTO 00000KT 4SM 10/09 A3009 RMK T01000090 IEM_DS3505
ZBYN,1996-10-16 17:00,ZBYN 161700Z AUTO 14004KT 4SM 10/09 A3006 RMK T01000090 IEM_DS3505
ZBYN,1996-10-16 18:00,ZBYN 161800Z AUTO 14006KT 4SM 10/08 A3006 RMK SLP181 T00990081 57015 IEM_DS3505
ZBYN,1996-10-16 19:00,ZBYN 161900Z AUTO 16004KT 4SM 10/09 A3003 RMK T01000090 IEM_DS3505
ZBYN,1996-10-16 20:00,ZBYN 162000Z AUTO 18006KT 4SM 10/09 A3003 RMK T01000090 IEM_DS3505
ZBYN,1996-10-16 21:00,ZBYN 162100Z AUTO 14008KT 4SM 10/08 A3003 RMK 70001 SLP173 T00950081 57008 IEM_DS3505
ZBYN,1996-10-16 22:00,ZBYN 162200Z AUTO 18008KT 2SM 09/09 A3003 RMK T00900090 IEM_DS3505
ZBYN,1996-10-16 23:00,ZBYN 162300Z AUTO 15004KT 1 1/2SM 10/09 A3003 RMK T01000090 IEM_DS3505
ZBYN,1996-10-17 00:00,ZBYN 170000Z AUTO 11004KT 1 1/4SM 09/09 A3003 RMK 60001 70002 SLP183 T00910089 52007 IEM_DS3505
ZBYN,1996-10-17 01:00,ZBYN 170100Z AUTO 00000KT 1SM 10/10 A3003 RMK T01000100 IEM_DS3505
ZBYN,1996-10-17 02:00,ZBYN 170200Z AUTO 24004KT 1SM 11/10 A3003 RMK T01100100 IEM_DS3505
ZBYN,1996-10-17 03:00,ZBYN 170300Z AUTO 16002KT 4SM 12/10 A3003 RMK SLP178 T01230095 54000 IEM_DS3505
ZBYN,1996-10-17 04:00,ZBYN 170400Z AUTO 00000KT 2SM 14/11 A3000 RMK T01400110 IEM_DS3505
ZBYN,1996-10-17 05:00,ZBYN 170500Z AUTO 19008KT 4SM 17/11 A2997 RMK T01700110 IEM_DS3505
ZBYN,1996-10-17 06:00,ZBYN 170600Z AUTO 16008KT 5SM 18/10 A2994 RMK SLP145 T01770101 57022 IEM_DS3505
ZBYN,1996-10-17 07:00,ZBYN 170700Z AUTO 19004KT 7SM 19/11 A2994 RMK T01900110 IEM_DS3505
ZBYN,1996-10-17 08:00,ZBYN 170800Z AUTO 18008KT 7SM 17/11 A2994 RMK T01700110 IEM_DS3505
ZBYN,1996-10-17 09:00,ZBYN 170900Z AUTO 32004KT 6SM 18/10 RMK SLP149 T01770103 52003 IEM_DS3505
ZBYN,1996-10-17 10:00,ZBYN 171000Z AUTO 14012KT 7SM 13/09 A3000 RMK T01300090 IEM_DS3505
ZBYN,1996-10-17 11:00,ZBYN 171100Z AUTO 07006KT 7SM 11/08 A3000 RMK T01100080 IEM_DS3505
ZBYN,1996-10-17 12:00,ZBYN 171200Z AUTO 18004KT 6SM 10/06 A3003 RMK 60000 SLP181 T01010062 52017 IEM_DS3505
ZBYN,1996-10-17 13:00,ZBYN 171300Z AUTO 00000KT 7SM 10/08 A3006 RMK T01000080 IEM_DS3505
ZBYN,1996-10-17 14:00,ZBYN 171400Z AUTO 00000KT 7SM 08/07 A3006 RMK T00800070 IEM_DS3505
ZBYN,1996-10-17 15:00,ZBYN 171500Z AUTO 02002KT 6SM 07/06 A3009 RMK SLP196 T00740061 52015 IEM_DS3505
ZBYN,1996-10-17 16:00,ZBYN 171600Z AUTO 00000KT 7SM 07/06 A3009 RMK T00700060 IEM_DS3505
ZBYN,1996-10-17 18:00,ZBYN 171800Z AUTO 02004KT 6SM 06/05 A3009 RMK SLP198 T00550048 52007 IEM_DS3505
ZBYN,1996-10-17 19:00,ZBYN 171900Z AUTO 00000KT 7SM 06/05 A3012 RMK T00600050 IEM_DS3505
ZBYN,1996-10-17 20:00,ZBYN 172000Z AUTO 06004KT 7SM 06/06 A3009 RMK T00600060 IEM_DS3505
ZBYN,1996-10-17 21:00,ZBYN 172100Z AUTO 34004KT 5SM 06/06 A3012 RMK SLP202 T00630061 52005 IEM_DS3505
ZBYN,1996-10-17 22:00,ZBYN 172200Z AUTO 00000KT 4SM 06/06 A3012 RMK T00600060 IEM_DS3505
ZBYN,1996-10-17 23:00,ZBYN 172300Z AUTO 00000KT 1SM 06/06 A3015 RMK T00600060 IEM_DS3505
ZBYN,1996-10-18 00:00,ZBYN 180000Z AUTO 00000KT 4SM 06/06 A3018 RMK 70001 SLP233 T00650059 52017 IEM_DS3505
ZBYN,1996-10-18 01:00,ZBYN 180100Z AUTO 00000KT 1 1/2SM 09/08 A3018 RMK T00900080 IEM_DS3505
ZBYN,1996-10-18 02:00,ZBYN 180200Z AUTO 00000KT 1SM 12/10 A3018 RMK T01200100 IEM_DS3505
ZBYN,1996-10-18 03:00,ZBYN 180300Z AUTO 16002KT 4SM 14/10 A3018 RMK SLP227 T01410096 52002 IEM_DS3505
ZBYN,1996-10-18 04:00,ZBYN 180400Z AUTO 20004KT 1 1/2SM 17/11 A3015 RMK T01700110 IEM_DS3505
ZBYN,1996-10-18 05:00,ZBYN 180500Z AUTO 17006KT 4SM 19/09 A3012 RMK T01900090 IEM_DS3505
ZBYN,1996-10-18 06:00,ZBYN 180600Z AUTO 22006KT 6SM 20/08 A3009 RMK SLP198 T01960083 57021 IEM_DS3505
ZBYN,1996-10-18 07:00,ZBYN 180700Z AUTO 22008KT 6SM 21/08 A3009 RMK T02100080 IEM_DS3505
ZBYN,1996-10-18 08:00,ZBYN 180800Z AUTO 19006KT 6SM 21/08 A3009 RMK T02100080 IEM_DS3505
ZBYN,1996-10-18 09:00,ZBYN 180900Z AUTO 16004KT 6SM 19/10 A3009 RMK SLP191 T01870099 57007 IEM_DS3505
ZBYN,1996-10-18 10:00,ZBYN 181000Z AUTO 00000KT 7SM 16/10 A3009 RMK T01600100 IEM_DS3505
ZBYN,1996-10-18 11:00,ZBYN 181100Z AUTO 11006KT 7SM 14/10 A3012 RMK T01400100 IEM_DS3505
ZBYN,1996-10-18 12:00,ZBYN 181200Z AUTO 00000KT 6SM 12/09 A3015 RMK SLP220 T01150090 52016 IEM_DS3505
ZBYN,1996-10-18 13:00,ZBYN 181300Z AUTO 12006KT 7SM 11/08 A3015 RMK T01100080 IEM_DS3505
ZBYN,1996-10-18 14:00,ZBYN 181400Z AUTO 10004KT 7SM 10/08 A3018 RMK T01000080 IEM_DS3505
ZBYN,1996-10-18 15:00,ZBYN 181500Z AUTO 00000KT 5SM 08/07 A3018 RMK SLP227 T00800072 52013 IEM_DS3505
ZBYN,1996-10-18 16:00,ZBYN 181600Z AUTO 08006KT 7SM 09/07 A3018 RMK T00900070 IEM_DS3505
ZBYN,1996-10-18 17:00,ZBYN 181700Z AUTO 00000KT 7SM 09/08 A3018 RMK T00900080 IEM_DS3505
ZBYN,1996-10-18 18:00,ZBYN 181800Z AUTO 00000KT 4SM 06/06 A3020 RMK SLP227 T00620056 52005 IEM_DS3505
ZBYN,1996-10-18 20:00,ZBYN 182000Z AUTO 00000KT 7SM 07/07 A3021 RMK T00700070 IEM_DS3505
ZBYN,1996-10-18 21:00,ZBYN 182100Z AUTO 34002KT 4SM 07/05 A3021 RMK T00730049 52002 IEM_DS3505
ZBYN,1996-10-18 22:00,ZBYN 182200Z AUTO 00000KT 2 1/2SM 06/05 A3021 RMK T00600050 IEM_DS3505
ZBYN,1996-10-18 23:00,ZBYN 182300Z AUTO 00000KT 1SM 05/05 A3021 RMK T00500050 IEM_DS3505
ZBYN,1996-10-19 00:00,ZBYN 190000Z AUTO 29002KT 4SM 08/05 A3024 RMK SLP250 T00780052 52009 IEM_DS3505
ZBYN,1996-10-19 01:00,ZBYN 190100Z AUTO 00000KT 1SM 08/07 A3024 RMK T00800070 IEM_DS3505
ZBYN,1996-10-19 02:00,ZBYN 190200Z AUTO 31004KT 1SM 12/08 A3024 RMK T01200080 IEM_DS3505
ZBYN,1996-10-19 03:00,ZBYN 190300Z AUTO 02002KT 4SM 14/07 A3024 RMK SLP241 T01430066 57003 IEM_DS3505
ZBYN,1996-10-19 04:00,ZBYN 190400Z AUTO 09004KT 4SM 18/10 A3021 RMK T01800100 IEM_DS3505
ZBYN,1996-10-19 05:00,ZBYN 190500Z AUTO 11008KT 6SM 20/11 A3018 RMK T02000110 IEM_DS3505
ZBYN,1996-10-19 06:00,ZBYN 190600Z AUTO 14006KT 5SM 20/08 A3012 RMK SLP199 T01950082 57033 IEM_DS3505
ZBYN,1996-10-19 07:00,ZBYN 190700Z AUTO 15008KT 7SM 21/10 A3009 RMK T02100100 IEM_DS3505
ZBYN,1996-10-19 08:00,ZBYN 190800Z AUTO 18012KT 7SM 20/08 A3009 RMK T02000080 IEM_DS3505
ZBYN,1996-10-19 09:00,ZBYN 190900Z AUTO 14006KT 5SM 18/09 A3009 RMK SLP186 T01840086 57012 IEM_DS3505
ZBYN,1996-10-19 10:00,ZBYN 191000Z AUTO 12008KT 4SM 15/10 A3009 RMK T01500100 IEM_DS3505
ZBYN,1996-10-19 11:00,ZBYN 191100Z AUTO 10014KT 3SM 13/09 A3012 RMK T01300090 IEM_DS3505
ZBYN,1996-10-19 12:00,ZBYN 191200Z AUTO 09016KT 5SM 14/08 A3015 RMK SLP214 T01430075 52020 IEM_DS3505
ZBYN,1996-10-19 13:00,ZBYN 191300Z AUTO 08021KT 2 1/2SM 12/09 A3018 RMK T01200090 IEM_DS3505
ZBYN,1996-10-19 14:00,ZBYN 191400Z AUTO 10008KT 4SM 11/08 A3021 RMK T01100080 IEM_DS3505
ZBYN,1996-10-19 15:00,ZBYN 191500Z AUTO 29004KT 6SM 12/08 A3021 RMK SLP232 T01250080 52007 IEM_DS3505
ZBYN,1996-10-19 16:00,ZBYN 191600Z AUTO 07008KT 5SM 10/07 A3021 RMK T01000070 IEM_DS3505
ZBYN,1996-10-19 17:00,ZBYN 191700Z AUTO 07008KT 5SM 11/07 A3021 RMK T01100070 IEM_DS3505
ZBYN,1996-10-19 18:00,ZBYN 191800Z AUTO 00000KT 6SM 12/08 A3022 RMK SLP224 T01210080 54000 IEM_DS3505
ZBYN,1996-10-19 20:00,ZBYN 192000Z AUTO 00000KT 7SM 12/09 A3021 RMK T01200090 IEM_DS3505
ZBYN,1996-10-19 21:00,ZBYN 192100Z AUTO 32002KT 6SM 11/08 A3021 RMK SLP225 T01110075 57002 IEM_DS3505
ZBYN,1996-10-19 22:00,ZBYN 192200Z AUTO 00000KT 4SM 11/09 A3021 RMK T01100090 IEM_DS3505
ZBYN,1996-10-19 23:00,ZBYN 192300Z AUTO 08004KT 4SM 11/09 A3021 RMK T01100090 IEM_DS3505
ZBYN,1996-10-20 00:00,ZBYN 200000Z AUTO 34004KT 5SM 11/08 A3021 RMK SLP235 T01140083 52003 IEM_DS3505
ZBYN,1996-10-20 01:00,ZBYN 200100Z AUTO 00000KT 4SM 13/10 A3021 RMK T01300100 IEM_DS3505
ZBYN,1996-10-20 02:00,ZBYN 200200Z AUTO 00000KT 4SM 16/11 A3021 RMK T01600110 IEM_DS3505
ZBYN,1996-10-20 03:00,ZBYN 200300Z AUTO 32004KT 5SM 16/09 A3021 RMK SLP228 T01560088 57002 IEM_DS3505
ZBYN,1996-10-20 04:00,ZBYN 200400Z AUTO 00000KT 4SM 18/11 A3018 RMK T01800110 IEM_DS3505
ZBYN,1996-10-20 05:00,ZBYN 200500Z AUTO 00000KT 5SM 19/11 A3018 RMK T01900110 IEM_DS3505
ZBYN,1996-10-20 06:00,ZBYN 200600Z AUTO 22006KT 4SM 19/09 A3015 RMK SLP208 T01890090 57014 IEM_DS3505
ZBYN,1996-10-20 07:00,ZBYN 200700Z AUTO 18004KT 5SM 20/10 A3012 RMK T02000100 IEM_DS3505
ZBYN,1996-10-20 08:00,ZBYN 200800Z AUTO 00000KT 5SM 20/10 A3009 RMK T02000100 IEM_DS3505
ZBYN,1996-10-20 09:00,ZBYN 200900Z AUTO 00000KT 5SM 17/10 A3009 RMK SLP188 T01740097 57012 IEM_DS3505
ZBYN,1996-10-20 10:00,ZBYN 201000Z AUTO 00000KT 4SM 16/13 A3009 RMK T01600130 IEM_DS3505
ZBYN,1996-10-20 11:00,ZBYN 201100Z AUTO 13008KT 4SM 14/09 A3012 RMK T01400090 IEM_DS3505
ZBYN,1996-10-20 12:00,ZBYN 201200Z AUTO 11004KT 6SM 12/07 A3012 RMK SLP205 T01240073 52008 IEM_DS3505
ZBYN,1996-10-20 13:00,ZBYN 201300Z AUTO 11008KT 6SM 12/08 A3015 RMK T01200080 IEM_DS3505
ZBYN,1996-10-20 14:00,ZBYN 201400Z AUTO 11008KT 4SM 11/08 A3015 RMK T01100080 IEM_DS3505
ZBYN,1996-10-20 15:00,ZBYN 201500Z AUTO 32004KT 6SM 11/08 A3015 RMK SLP213 T01130075 52012 IEM_DS3505
ZBYN,1996-10-20 16:00,ZBYN 201600Z AUTO 10008KT 4SM 10/08 A3015 RMK T01000080 IEM_DS3505
ZBYN,1996-10-20 17:00,ZBYN 201700Z AUTO 06004KT 4SM 10/08 A3015 RMK T01000080 IEM_DS3505
ZBYN,1996-10-20 18:00,ZBYN 201800Z AUTO 34004KT 6SM 10/07 A3016 RMK SLP206 T00960072 52004 IEM_DS3505
ZBYN,1996-10-20 19:00,ZBYN 201900Z AUTO 00000KT 4SM 09/08 A3015 RMK T00900080 IEM_DS3505
ZBYN,1996-10-20 20:00,ZBYN 202000Z AUTO 00000KT 4SM 09/08 A3015 RMK T00900080 IEM_DS3505
ZBYN,1996-10-20 21:00,ZBYN 202100Z AUTO 32002KT 4SM 09/07 A3015 RMK SLP206 T00860067 57003 IEM_DS3505
ZBYN,1996-10-20 22:00,ZBYN 202200Z AUTO 00000KT 2 1/2SM 07/07 A3015 RMK T00700070 IEM_DS3505
ZBYN,1996-10-20 23:00,ZBYN 202300Z AUTO 00000KT 2SM 07/07 A3015 RMK T00700070 IEM_DS3505
ZBYN,1996-10-21 00:00,ZBYN 210000Z AUTO 32002KT 3SM 08/06 A3018 RMK SLP228 T00840065 52012 IEM_DS3505
ZBYN,1996-10-21 01:00,ZBYN 210100Z AUTO 00000KT 1 1/4SM 10/08 A3018 RMK T01000080 IEM_DS3505
ZBYN,1996-10-21 02:00,ZBYN 210200Z AUTO 18004KT 5SM 14/07 A3018 RMK T01400070 IEM_DS3505
ZBYN,1996-10-21 03:00,ZBYN 210300Z AUTO 14004KT 5SM 16/05 A3018 RMK SLP217 T01560048 57001 IEM_DS3505
ZBYN,1996-10-21 05:00,ZBYN 210500Z AUTO 16006KT 6SM 20/03 A3009 RMK T02000030 IEM_DS3505
ZBYN,1996-10-21 06:00,ZBYN 210600Z AUTO 16004KT 7SM 21/02 A3006 RMK SLP171 T02060022 57037 IEM_DS3505
ZBYN,1996-10-21 07:00,ZBYN 210700Z AUTO 17016KT 6SM 21/02 A3006 RMK T02100020 IEM_DS3505
ZBYN,1996-10-21 08:00,ZBYN 210800Z AUTO 18014KT 7SM 20/03 A3006 RMK T02000030 IEM_DS3505
ZBYN,1996-10-21 09:00,ZBYN 210900Z AUTO 14006KT 6SM 17/03 A3003 RMK SLP172 T01740028 57005 IEM_DS3505
ZBYN,1996-10-21 10:00,ZBYN 211000Z AUTO 14008KT 2 1/2SM 16/06 A3003 RMK T01600060 IEM_DS3505
ZBYN,1996-10-21 11:00,ZBYN 211100Z AUTO 14008KT 2 1/2SM 14/06 A3006 RMK T01400060 IEM_DS3505
ZBYN,1996-10-21 12:00,ZBYN 211200Z AUTO 11010KT 5SM 13/07 A3006 RMK SLP186 T01330070 52006 IEM_DS3505
ZBYN,1996-10-21 13:00,ZBYN 211300Z AUTO 11008KT 6SM 12/08 A3006 RMK T01200080 IEM_DS3505
ZBYN,1996-10-21 14:00,ZBYN 211400Z AUTO 05006KT 6SM 12/08 A3012 RMK T01200080 IEM_DS3505
ZBYN,1996-10-21 15:00,ZBYN 211500Z AUTO 00000KT 6SM 13/07 A3012 RMK SLP202 T01290074 52025 IEM_DS3505
ZBYN,1996-10-21 16:00,ZBYN 211600Z AUTO 09006KT 6SM 12/08 A3012 RMK T01200080 IEM_DS3505
ZBYN,1996-10-21 17:00,ZBYN 211700Z AUTO 09006KT 6SM 12/08 A3012 RMK T01200080 IEM_DS3505
ZBYN,1996-10-21 18:00,ZBYN 211800Z AUTO 11004KT 6SM 12/05 A3015 RMK SLP200 T01250053 52005 IEM_DS3505
ZBYN,1996-10-21 19:00,ZBYN 211900Z AUTO 12006KT 6SM 11/08 A3015 RMK T01100080 IEM_DS3505
ZBYN,1996-10-21 20:00,ZBYN 212000Z AUTO 13004KT 6SM 11/07 A3015 RMK T01100070 IEM_DS3505
ZBYN,1996-10-21 21:00,ZBYN 212100Z AUTO 11006KT 6SM 11/05 A3012 RMK SLP196 T01140049 57010 IEM_DS3505
ZBYN,1996-10-21 22:00,ZBYN 212200Z AUTO 13004KT 6SM 10/07 A3012 RMK T01000070 IEM_DS3505
ZBYN,1996-10-21 23:00,ZBYN 212300Z AUTO 15006KT 6SM 10/07 A3012 RMK T01000070 IEM_DS3505
ZBYN,1996-10-22 00:00,ZBYN 220000Z AUTO 25004KT 5SM 10/06 A3015 RMK SLP218 T01030060 52012 IEM_DS3505
ZBYN,1996-10-22 01:00,ZBYN 220100Z AUTO 00000KT 4SM 11/08 A3021 RMK T01100080 IEM_DS3505
ZBYN,1996-10-22 02:00,ZBYN 220200Z AUTO 16004KT 3SM 11/07 A3021 RMK T01100070 IEM_DS3505
ZBYN,1996-10-22 03:00,ZBYN 220300Z AUTO 11004KT 4SM 10/08 A3018 RMK SLP227 T00980078 52007 IEM_DS3505
ZBYN,1996-10-22 04:00,ZBYN 220400Z AUTO 18004KT 1SM 11/09 A3018 RMK T01100090 IEM_DS3505
ZBYN,1996-10-22 05:00,ZBYN 220500Z AUTO 22004KT 1SM 12/09 A3015 RMK T01200090 IEM_DS3505
ZBYN,1996-10-22 06:00,ZBYN 220600Z AUTO 18008KT 4SM 12/08 A3015 RMK 60004 SLP208 T01250078 57014 IEM_DS3505
ZBYN,1996-10-22 08:00,ZBYN 220800Z AUTO 00000KT 4SM 13/10 A3015 RMK T01300100 IEM_DS3505
ZBYN,1996-10-22 09:00,ZBYN 220900Z AUTO 14006KT 5SM 12/07 A3015 RMK SLP214 T01200074 52003 IEM_DS3505
ZBYN,1996-10-22 10:00,ZBYN 221000Z AUTO 00000KT 4SM 11/09 A3015 RMK T01100090 IEM_DS3505
ZBYN,1996-10-22 11:00,ZBYN 221100Z AUTO 00000KT 4SM 11/09 A3018 RMK T01100090 IEM_DS3505
ZBYN,1996-10-22 12:00,ZBYN 221200Z AUTO 00000KT 6SM 10/09 A3018 RMK SLP235 T01030087 52015 IEM_DS3505
ZBYN,1996-10-22 13:00,ZBYN 221300Z AUTO 00000KT 4SM 10/09 A3021 RMK T01000090 IEM_DS3505
ZBYN,1996-10-22 14:00,ZBYN 221400Z AUTO 00000KT 3SM 11/09 A3027 RMK T01100090 IEM_DS3505
ZBYN,1996-10-22 15:00,ZBYN 221500Z AUTO 00000KT 5SM 10/10 A3027 RMK SLP261 T01050099 52023 IEM_DS3505
ZBYN,1996-10-22 16:00,ZBYN 221600Z AUTO 33004KT 3/8SM 11/10 A3027 RMK T01100100 IEM_DS3505
ZBYN,1996-10-22 18:00,ZBYN 221800Z AUTO 32006KT 5SM 09/06 A3030 RMK 60020 SLP266 T00870064 52006 IEM_DS3505
ZBYN,1996-10-22 19:00,ZBYN 221900Z AUTO 33008KT 7SM 09/08 A3030 RMK T00900080 IEM_DS3505
ZBYN,1996-10-22 20:00,ZBYN 222000Z AUTO 01004KT 7SM 09/08 A3027 RMK T00900080 IEM_DS3505
ZBYN,1996-10-22 21:00,ZBYN 222100Z AUTO 32008KT 6SM 09/04 RMK 70024 SLP271 T00930038 52005 IEM_DS3505
ZBYN,1996-10-22 22:00,ZBYN 222200Z AUTO 34006KT 7SM 09/05 A3033 RMK T00900050 IEM_DS3505
ZBYN,1996-10-22 23:00,ZBYN 222300Z AUTO 29006KT 7SM 09/06 A3033 RMK T00900060 IEM_DS3505
ZBYN,1996-10-23 00:00,ZBYN 230000Z AUTO 27004KT 6SM 09/03 A3033 RMK 70024 SLP286 T00870031 52010 IEM_DS3505
ZBYN,1996-10-23 01:00,ZBYN 230100Z AUTO 23006KT 6SM 09/08 A3036 RMK T00900080 IEM_DS3505
ZBYN,1996-10-23 02:00,ZBYN 230200Z AUTO 33008KT 6SM 11/04 A3036 RMK T01100040 IEM_DS3505
ZBYN,1996-10-23 03:00,ZBYN 230300Z AUTO 29006KT 9SM 13/M00 A3033 RMK SLP274 T01261003 57005 IEM_DS3505
ZBYN,1996-10-23 04:00,ZBYN 230400Z AUTO 30008KT 6SM 14/00 A3033 RMK T01400000 IEM_DS3505
ZBYN,1996-10-23 05:00,ZBYN 230500Z AUTO 30004KT 6SM 15/03 A3027 RMK T01500030 IEM_DS3505
ZBYN,1996-10-23 06:00,ZBYN 230600Z AUTO 00000KT 9SM 15/00 A3027 RMK SLP248 T01460000 57023 IEM_DS3505
ZBYN,1996-10-23 07:00,ZBYN 230700Z AUTO 21006KT 6SM 15/04 A3024 RMK T01500040 IEM_DS3505
ZBYN,1996-10-23 08:00,ZBYN 230800Z AUTO 21006KT 6SM 15/04 A3024 RMK T01500040 IEM_DS3505
ZBYN,1996-10-23 09:00,ZBYN 230900Z AUTO 20006KT 9SM 13/04 A3024 RMK SLP246 T01300044 57004 IEM_DS3505
ZBYN,1996-10-23 10:00,ZBYN 231000Z AUTO 22006KT 6SM 13/05 A3024 RMK T01300050 IEM_DS3505
ZBYN,1996-10-23 11:00,ZBYN 231100Z AUTO 00000KT 6SM 10/07 A3027 RMK T01000070 IEM_DS3505
ZBYN,1996-10-23 12:00,ZBYN 231200Z AUTO 11004KT 6SM 09/06 A3027 RMK SLP267 T00890055 52012 IEM_DS3505
ZBYN,1996-10-23 13:00,ZBYN 231300Z AUTO 11004KT 6SM 09/07 A3030 RMK T00900070 IEM_DS3505
ZBYN,1996-10-23 14:00,ZBYN 231400Z AUTO 00000KT 6SM 09/07 A3033 RMK T00900070 IEM_DS3505
ZBYN,1996-10-23 15:00,ZBYN 231500Z AUTO 02002KT 6SM 08/06 A3033 RMK SLP278 T00800057 52015 IEM_DS3505
ZBYN,1996-10-23 16:00,ZBYN 231600Z AUTO 00000KT 6SM 07/06 A3033 RMK T00700060 IEM_DS3505
ZBYN,1996-10-23 17:00,ZBYN 231700Z AUTO 00000KT 6SM 07/06 A3033 RMK T00700060 IEM_DS3505
ZBYN,1996-10-23 18:00,ZBYN 231800Z AUTO 00000KT 6SM 06/04 A3033 RMK SLP275 T00610045 57003 IEM_DS3505
ZBYN,1996-10-23 19:00,ZBYN 231900Z AUTO 09006KT 6SM 06/05 A3033 RMK T00600050 IEM_DS3505
ZBYN,1996-10-23 20:00,ZBYN 232000Z AUTO 00000KT 6SM 05/04 A3030 RMK T00500040 IEM_DS3505
ZBYN,1996-10-23 21:00,ZBYN 232100Z AUTO 27002KT 6SM 04/03 A3030 RMK SLP278 T00390032 57003 IEM_DS3505
ZBYN,1996-10-23 22:00,ZBYN 232200Z AUTO 00000KT 5SM 04/04 A3033 RMK T00400040 IEM_DS3505
ZBYN,1996-10-23 23:00,ZBYN 232300Z AUTO 09004KT 2 1/2SM 03/03 A3033 RMK T00300030 IEM_DS3505
ZBYN,1996-10-24 00:00,ZBYN 240000Z AUTO 34004KT 4SM 04/03 A3036 RMK SLP300 T00380026 52014 IEM_DS3505
ZBYN,1996-10-24 01:00,ZBYN 240100Z AUTO 18006KT 5SM A3036 RMK SLP254 57031 IEM_DS3505
ZBYN,1996-10-24 02:00,ZBYN 240200Z AUTO 00000KT 5SM 08/05 A3039 RMK T00800050 IEM_DS3505
ZBYN,1996-10-24 03:00,ZBYN 240300Z AUTO 14004KT 5SM 11/04 A3036 RMK SLP291 T01080036 52001 IEM_DS3505
ZBYN,1996-10-24 04:00,ZBYN 240400Z AUTO 00000KT 5SM 13/06 A3033 RMK T01300060 IEM_DS3505
ZBYN,1996-10-24 05:00,ZBYN 240500Z AUTO 27004KT 5SM 14/05 A3030 RMK T01400050 IEM_DS3505
ZBYN,1996-10-24 06:00,ZBYN 240600Z AUTO 18006KT 5SM 15/03 A3027 RMK SLP254 T01470029 57031 IEM_DS3505
ZBYN,1996-10-24 07:00,ZBYN 240700Z AUTO 22006KT 6SM 16/05 A3024 RMK T01600050 IEM_DS3505
ZBYN,1996-10-24 08:00,ZBYN 240800Z AUTO 21006KT 6SM 15/05 A3024 RMK T01500050 IEM_DS3505
ZBYN,1996-10-24 09:00,ZBYN 240900Z AUTO 18008KT 5SM 13/04 A3024 RMK SLP257 T01300036 57003 IEM_DS3505
ZBYN,1996-10-24 10:00,ZBYN 241000Z AUTO 17004KT 1SM 11/07 A3024 RMK T01100070 IEM_DS3505
ZBYN,1996-10-24 11:00,ZBYN 241100Z AUTO 00000KT 1 1/4SM 10/07 A3027 RMK T01000070 IEM_DS3505
ZBYN,1996-10-24 12:00,ZBYN 241200Z AUTO 16004KT 6SM 10/05 A3030 RMK SLP284 T00950050 52019 IEM_DS3505
ZBYN,1996-10-24 13:00,ZBYN 241300Z AUTO 00000KT 2 1/2SM 09/07 A3033 RMK T00900070 IEM_DS3505
ZBYN,1996-10-24 14:00,ZBYN 241400Z AUTO 00000KT 4SM 08/07 A3033 RMK T00800070 IEM_DS3505
ZBYN,1996-10-24 15:00,ZBYN 241500Z AUTO 14006KT 6SM 08/05 A3036 RMK SLP287 T00790049 52011 IEM_DS3505
ZBYN,1996-10-24 16:00,ZBYN 241600Z AUTO 00000KT 6SM 07/06 A3036 RMK T00700060 IEM_DS3505
ZBYN,1996-10-24 17:00,ZBYN 241700Z AUTO 00000KT 6SM 07/06 A3033 RMK T00700060 IEM_DS3505
ZBYN,1996-10-24 18:00,ZBYN 241800Z AUTO 14002KT 6SM 06/05 A3033 RMK SLP290 T00620049 52006 IEM_DS3505
ZBYN,1996-10-24 19:00,ZBYN 241900Z AUTO 00000KT 6SM 06/06 A3033 RMK T00600060 IEM_DS3505
ZBYN,1996-10-24 20:00,ZBYN 242000Z AUTO 00000KT 5SM 06/06 A3033 RMK T00600060 IEM_DS3505
ZBYN,1996-10-24 21:00,ZBYN 242100Z AUTO 02002KT 6SM 08/00 A3033 RMK SLP286 T00770004 57004 IEM_DS3505
ZBYN,1996-10-24 22:00,ZBYN 242200Z AUTO 30012KT 6SM 07/M01 A3036 RMK T00701010 IEM_DS3505
ZBYN,1996-10-24 23:00,ZBYN 242300Z AUTO 00000KT 6SM 06/02 A3039 RMK T00600020 IEM_DS3505
ZBYN,1996-10-25 00:00,ZBYN 250000Z AUTO 34010KT 6SM 08/M04 A3045 RMK SLP323 T00781041 52029 IEM_DS3505
ZBYN,1996-10-25 01:00,ZBYN 250100Z AUTO 02008KT 6SM 07/M04 A3045 RMK T00701040 IEM_DS3505
ZBYN,1996-10-25 02:00,ZBYN 250200Z AUTO 01006KT 6SM 09/M04 A3047 RMK T00901040 IEM_DS3505
ZBYN,1996-10-25 03:00,ZBYN 250300Z AUTO 00000KT 6SM 10/M03 A3045 RMK T01001030 IEM_DS3505
ZBYN,1996-10-25 04:00,ZBYN 250400Z AUTO 35006KT 6SM 12/M02 A3045 RMK T01201020 IEM_DS3505
ZBYN,1996-10-25 05:00,ZBYN 250500Z AUTO 01006KT 6SM 13/M03 A3045 RMK T01301030 IEM_DS3505
ZBYN,1996-10-25 06:00,ZBYN 250600Z AUTO 32002KT 12SM 12/M04 A3039 RMK SLP309 T01171044 57022 IEM_DS3505
ZBYN,1996-10-25 07:00,ZBYN 250700Z AUTO 31010KT 6SM 13/M05 A3039 RMK T01301050 IEM_DS3505
ZBYN,1996-10-25 08:00,ZBYN 250800Z AUTO 28006KT 6SM 13/M04 A3039 RMK T01301040 IEM_DS3505
ZBYN,1996-10-25 09:00,ZBYN 250900Z AUTO 32004KT 9SM 11/M04 A3039 RMK SLP299 T01131043 57007 IEM_DS3505
ZBYN,1996-10-25 10:00,ZBYN 251000Z AUTO 32006KT 7SM 10/M03 A3039 RMK T01001030 IEM_DS3505
ZBYN,1996-10-25 11:00,ZBYN 251100Z AUTO 33006KT 7SM 08/M02 A3042 RMK T00801020 IEM_DS3505
ZBYN,1996-10-25 12:00,ZBYN 251200Z AUTO 36002KT 6SM 06/M03 A3045 RMK SLP332 T00561034 52021 IEM_DS3505
ZBYN,1996-10-25 13:00,ZBYN 251300Z AUTO 33004KT 7SM 06/M04 A3045 RMK T00601040 IEM_DS3505
ZBYN,1996-10-25 14:00,ZBYN 251400Z AUTO 32004KT 7SM 05/M03 A3047 RMK T00501030 IEM_DS3505
ZBYN,1996-10-25 15:00,ZBYN 251500Z AUTO 34004KT 6SM 02/M03 A3047 RMK SLP340 T00241033 52006 IEM_DS3505
ZBYN,1996-10-25 16:00,ZBYN 251600Z AUTO 00000KT 7SM 01/M02 A3045 RMK T00101020 IEM_DS3505
ZBYN,1996-10-25 18:00,ZBYN 251800Z AUTO 32002KT 6SM M00/M03 A3042 RMK SLP326 T10021031 57015 IEM_DS3505
ZBYN,1996-10-25 20:00,ZBYN 252000Z AUTO 00000KT 7SM M01/M03 A3039 RMK T10101030 IEM_DS3505
ZBYN,1996-10-25 21:00,ZBYN 252100Z AUTO 09004KT 6SM M02/M03 A3039 RMK SLP313 T10171032 57014 IEM_DS3505
ZBYN,1996-10-25 22:00,ZBYN 252200Z AUTO 00000KT 7SM M02/M04 A3036 RMK T10201040 IEM_DS3505
ZBYN,1996-10-25 23:00,ZBYN 252300Z AUTO 00000KT 7SM M02/M03 A3036 RMK T10201030 IEM_DS3505
ZBYN,1996-10-26 00:00,ZBYN 260000Z AUTO 00000KT 6SM M01/M03 A3036 RMK SLP318 T10061026 57003 IEM_DS3505
ZBYN,1996-10-26 01:00,ZBYN 260100Z AUTO 00000KT 7SM 01/M02 A3036 RMK T00101020 IEM_DS3505
ZBYN,1996-10-26 02:00,ZBYN 260200Z AUTO 15006KT 7SM 07/M03 A3036 RMK T00701030 IEM_DS3505
ZBYN,1996-10-26 03:00,ZBYN 260300Z AUTO 18006KT 5SM 09/M03 A3033 RMK SLP286 T00871030 57020 IEM_DS3505
ZBYN,1996-10-26 04:00,ZBYN 260400Z AUTO 24008KT 7SM 12/M02 A3027 RMK T01201020 IEM_DS3505
ZBYN,1996-10-26 05:00,ZBYN 260500Z AUTO 23014KT 7SM 13/M01 A3024 RMK T01301010 IEM_DS3505
ZBYN,1996-10-26 06:00,ZBYN 260600Z AUTO 16012KT 5SM 14/M00 A3018 RMK SLP242 T01351004 57036 IEM_DS3505
ZBYN,1996-10-26 07:00,ZBYN 260700Z AUTO 23008KT 7SM 15/01 A3012 RMK T01500010 IEM_DS3505
ZBYN,1996-10-26 08:00,ZBYN 260800Z AUTO 20004KT 7SM 15/03 A3009 RMK T01500030 IEM_DS3505
ZBYN,1996-10-26 09:00,ZBYN 260900Z AUTO 18006KT 5SM 14/02 A3006 RMK SLP233 T01350022 57035 IEM_DS3505
ZBYN,1996-10-26 10:00,ZBYN 261000Z AUTO 22004KT 7SM 12/04 A3006 RMK T01200040 IEM_DS3505
ZBYN,1996-10-26 11:00,ZBYN 261100Z AUTO 23004KT 4SM 09/04 A3003 RMK T00900040 IEM_DS3505
ZBYN,1996-10-26 12:00,ZBYN 261200Z AUTO 18002KT 6SM 09/02 A3003 RMK SLP202 T00920016 57009 IEM_DS3505
ZBYN,1996-10-26 13:00,ZBYN 261300Z AUTO 11006KT 4SM 06/03 A3006 RMK T00600030 IEM_DS3505
ZBYN,1996-10-26 14:00,ZBYN 261400Z AUTO 13006KT 4SM 06/02 A3003 RMK T00600020 IEM_DS3505
ZBYN,1996-10-26 15:00,ZBYN 261500Z AUTO 14008KT 6SM 06/01 A3003 RMK SLP185 T00610010 57006 IEM_DS3505
ZBYN,1996-10-26 16:00,ZBYN 261600Z AUTO 14008KT 4SM 05/03 A3003 RMK T00500030 IEM_DS3505
ZBYN,1996-10-26 17:00,ZBYN 261700Z AUTO 12006KT 4SM 05/03 A3000 RMK T00500030 IEM_DS3505
ZBYN,1996-10-26 18:00,ZBYN 261800Z AUTO 11006KT 6SM 05/01 A3000 RMK SLP167 T00510012 57010 IEM_DS3505
ZBYN,1996-10-26 19:00,ZBYN 261900Z AUTO 10008KT 4SM 04/02 A2997 RMK T00400020 IEM_DS3505
ZBYN,1996-10-26 20:00,ZBYN 262000Z AUTO 11008KT 4SM 04/02 A2994 RMK T00400020 IEM_DS3505
ZBYN,1996-10-26 21:00,ZBYN 262100Z AUTO 00000KT 6SM 03/00 A2994 RMK SLP160 T00270004 57010 IEM_DS3505
ZBYN,1996-10-26 22:00,ZBYN 262200Z AUTO 09006KT 4SM 03/01 A2994 RMK T00300010 IEM_DS3505
ZBYN,1996-10-26 23:00,ZBYN 262300Z AUTO 10006KT 4SM 03/01 A2994 RMK T00300010 IEM_DS3505
ZBYN,1996-10-27 00:00,ZBYN 270000Z AUTO 00000KT 4SM 03/00 A2997 RMK SLP172 T00270004 52004 IEM_DS3505
ZBYN,1996-10-27 01:00,ZBYN 270100Z AUTO 13006KT 4SM 06/03 A2997 RMK T00600030 IEM_DS3505
ZBYN,1996-10-27 02:00,ZBYN 270200Z AUTO 17008KT 4SM 10/03 A2997 RMK T01000030 IEM_DS3505
ZBYN,1996-10-27 03:00,ZBYN 270300Z AUTO 14008KT 4SM 12/03 A2994 RMK SLP149 T01160031 57012 IEM_DS3505
ZBYN,1996-10-27 04:00,ZBYN 270400Z AUTO 20008KT 7SM 15/05 A2991 RMK T01500050 IEM_DS3505
ZBYN,1996-10-27 05:00,ZBYN 270500Z AUTO 20008KT 7SM 17/06 A2985 RMK T01700060 IEM_DS3505
ZBYN,1996-10-27 06:00,ZBYN 270600Z AUTO 18010KT 5SM 17/05 A2983 RMK SLP102 T01730047 57036 IEM_DS3505
ZBYN,1996-10-27 07:00,ZBYN 270700Z AUTO 23006KT 7SM 19/04 A2980 RMK T01900040 IEM_DS3505
ZBYN,1996-10-27 08:00,ZBYN 270800Z AUTO 21010KT 7SM 19/04 A2980 RMK T01900040 IEM_DS3505
ZBYN,1996-10-27 09:00,ZBYN 270900Z AUTO 11006KT 6SM A2980 RMK SLP128 52017 IEM_DS3505
ZBYN,1996-10-27 10:00,ZBYN 271000Z AUTO 22008KT 7SM 15/06 A2980 RMK T01500060 IEM_DS3505
ZBYN,1996-10-27 11:00,ZBYN 271100Z AUTO 12006KT 4SM 12/07 A2983 RMK T01200070 IEM_DS3505
ZBYN,1996-10-27 12:00,ZBYN 271200Z AUTO 11006KT 6SM 10/04 A2985 RMK SLP128 T00950043 52017 IEM_DS3505
ZBYN,1996-10-27 13:00,ZBYN 271300Z AUTO 11006KT 7SM 09/06 A2985 RMK T00900060 IEM_DS3505
ZBYN,1996-10-27 14:00,ZBYN 271400Z AUTO 11006KT 7SM 08/05 A2988 RMK T00800050 IEM_DS3505
ZBYN,1996-10-27 15:00,ZBYN 271500Z AUTO 14008KT 6SM 08/04 A2988 RMK SLP125 T00820045 52009 IEM_DS3505
ZBYN,1996-10-27 16:00,ZBYN 271600Z AUTO 10004KT 6SM 07/03 A2988 RMK T00700030 IEM_DS3505
ZBYN,1996-10-27 18:00,ZBYN 271800Z AUTO 32002KT 6SM 06/04 A2988 RMK SLP121 T00550042 52001 IEM_DS3505
ZBYN,1996-10-27 19:00,ZBYN 271900Z AUTO 06006KT 4SM 05/03 A2988 RMK T00500030 IEM_DS3505
ZBYN,1996-10-27 20:00,ZBYN 272000Z AUTO 09006KT 4SM 05/04 A2988 RMK T00500040 IEM_DS3505
ZBYN,1996-10-27 21:00,ZBYN 272100Z AUTO 14006KT 6SM 03/03 A2991 RMK SLP135 T00320027 52008 IEM_DS3505
ZBYN,1996-10-27 22:00,ZBYN 272200Z AUTO 07008KT 3SM 05/04 A2991 RMK T00500040 IEM_DS3505
ZBYN,1996-10-27 23:00,ZBYN 272300Z AUTO 09008KT 1 1/2SM 05/04 A2994 RMK T00500040 IEM_DS3505
ZBYN,1996-10-28 00:00,ZBYN 280000Z AUTO 00000KT 4SM 04/03 A2994 RMK SLP164 T00360029 52017 IEM_DS3505
ZBYN,1996-10-28 01:00,ZBYN 280100Z AUTO 12004KT 2SM 07/06 A2997 RMK T00700060 IEM_DS3505
ZBYN,1996-10-28 02:00,ZBYN 280200Z AUTO 00000KT 2SM 11/06 A2997 RMK T01100060 IEM_DS3505
ZBYN,1996-10-28 03:00,ZBYN 280300Z AUTO 14004KT 4SM 13/06 A2997 RMK SLP158 T01320059 52007 IEM_DS3505
ZBYN,1996-10-28 04:00,ZBYN 280400Z AUTO 00000KT 3SM 16/05 A2994 RMK T01600050 IEM_DS3505
ZBYN,1996-10-28 05:00,ZBYN 280500Z AUTO 00000KT 3SM 18/06 A2994 RMK T01800060 IEM_DS3505
ZBYN,1996-10-28 06:00,ZBYN 280600Z AUTO 16008KT 4SM 18/04 A2991 RMK SLP133 T01850045 57019 IEM_DS3505
ZBYN,1996-10-28 07:00,ZBYN 280700Z AUTO 18006KT 4SM 20/06 A2988 RMK T02000060 IEM_DS3505
ZBYN,1996-10-28 08:00,ZBYN 280800Z AUTO 24004KT 5SM 20/03 A2988 RMK T02000030 IEM_DS3505
ZBYN,1996-10-28 09:00,ZBYN 280900Z AUTO 14006KT 4SM 18/04 A2988 RMK SLP131 T01750035 57007 IEM_DS3505
ZBYN,1996-10-28 10:00,ZBYN 281000Z AUTO 14006KT 2 1/2SM 14/07 A2988 RMK T01400070 IEM_DS3505
ZBYN,1996-10-28 11:00,ZBYN 281100Z AUTO 00000KT 2 1/2SM 12/07 A2991 RMK T01200070 IEM_DS3505
ZBYN,1996-10-28 12:00,ZBYN 281200Z AUTO 14006KT 6SM 10/04 A2988 RMK SLP139 T01020042 57003 IEM_DS3505
ZBYN,1996-10-28 13:00,ZBYN 281300Z AUTO 12006KT 5SM 09/05 A2988 RMK T00900050 IEM_DS3505
ZBYN,1996-10-28 14:00,ZBYN 281400Z AUTO 12006KT 5SM 09/04 A2991 RMK T00900040 IEM_DS3505
ZBYN,1996-10-28 15:00,ZBYN 281500Z AUTO 16006KT 6SM 08/03 A2988 RMK SLP132 T00750032 52004 IEM_DS3505
ZBYN,1996-10-28 16:00,ZBYN 281600Z AUTO 11006KT 5SM 07/04 A2988 RMK T00700040 IEM_DS3505
ZBYN,1996-10-28 18:00,ZBYN 281800Z AUTO 18004KT 6SM 07/ A2985 RMK SLP115 57009 IEM_DS3505
ZBYN,1996-10-28 20:00,ZBYN 282000Z AUTO 00000KT 5SM 06/04 A2983 RMK T00600040 IEM_DS3505
ZBYN,1996-10-28 21:00,ZBYN 282100Z AUTO 32004KT 6SM 04/03 A2985 RMK SLP115 T00440028 57005 IEM_DS3505
ZBYN,1996-10-28 22:00,ZBYN 282200Z AUTO 00000KT 4SM 04/03 A2985 RMK T00400030 IEM_DS3505
ZBYN,1996-10-28 23:00,ZBYN 282300Z AUTO 00000KT 1 1/4SM 03/03 A2985 RMK T00300030 IEM_DS3505
ZBYN,1996-10-29 00:00,ZBYN 290000Z AUTO 36004KT 5SM 06/02 A2988 RMK SLP136 T00570022 52010 IEM_DS3505
ZBYN,1996-10-29 01:00,ZBYN 290100Z AUTO 00000KT 1SM 06/05 A2988 RMK T00600050 IEM_DS3505
ZBYN,1996-10-29 02:00,ZBYN 290200Z AUTO 00000KT 1SM 11/06 A2988 RMK T01100060 IEM_DS3505
ZBYN,1996-10-29 03:00,ZBYN 290300Z AUTO 20004KT 5SM 14/05 A2988 RMK T01450046 52001 IEM_DS3505
ZBYN,1996-10-29 04:00,ZBYN 290400Z AUTO 15004KT 1 1/4SM 18/07 A2985 RMK T01800070 IEM_DS3505
ZBYN,1996-10-29 05:00,ZBYN 290500Z AUTO 12004KT 5SM 20/07 A2985 RMK T02000070 IEM_DS3505
ZBYN,1996-10-29 06:00,ZBYN 290600Z AUTO 14006KT 5SM 21/06 A2984 RMK SLP100 T02070065 57016 IEM_DS3505
ZBYN,1996-10-29 07:00,ZBYN 290700Z AUTO 20006KT 7SM 24/09 A2983 RMK T02400090 IEM_DS3505
ZBYN,1996-10-29 08:00,ZBYN 290800Z AUTO 00000KT 7SM 23/10 A2983 RMK T02300100 IEM_DS3505
ZBYN,1996-10-29 09:00,ZBYN 290900Z AUTO 32008KT 11SM 22/00 A2985 RMK SLP109 T02220002 52007 IEM_DS3505
ZBYN,1996-10-29 10:00,ZBYN 291000Z AUTO 00000KT 7SM 18/05 A2985 RMK T01800050 IEM_DS3505
ZBYN,1996-10-29 11:00,ZBYN 291100Z AUTO 31008KT 7SM 17/03 A2988 RMK T01700030 IEM_DS3505
ZBYN,1996-10-29 12:00,ZBYN 291200Z AUTO 36004KT 7SM 16/02 A2994 RMK SLP140 T01630023 52021 IEM_DS3505
ZBYN,1996-10-29 13:00,ZBYN 291300Z AUTO 33004KT 7SM 15/04 A2997 RMK T01500040 IEM_DS3505
ZBYN,1996-10-29 14:00,ZBYN 291400Z AUTO 17004KT 7SM 12/06 A2997 RMK T01200060 IEM_DS3505
ZBYN,1996-10-29 15:00,ZBYN 291500Z AUTO 00000KT 7SM 10/05 A3000 RMK T01000050 IEM_DS3505
ZBYN,1996-10-29 16:00,ZBYN 291600Z AUTO 00000KT 7SM 09/04 A3000 RMK T00900040 IEM_DS3505
ZBYN,1996-10-29 17:00,ZBYN 291700Z AUTO 00000KT 7SM 08/04 A3000 RMK T00800040 IEM_DS3505
ZBYN,1996-10-29 18:00,ZBYN 291800Z AUTO 36002KT 6SM 09/03 A3001 RMK SLP155 T00870031 52001 IEM_DS3505
ZBYN,1996-10-29 19:00,ZBYN 291900Z AUTO 09010KT 7SM 09/04 A3000 RMK T00900040 IEM_DS3505
ZBYN,1996-10-29 20:00,ZBYN 292000Z AUTO 09010KT 7SM 09/03 A3003 RMK T00900030 IEM_DS3505
ZBYN,1996-10-29 21:00,ZBYN 292100Z AUTO 00000KT 6SM 08/03 A3003 RMK SLP169 T00830029 52014 IEM_DS3505
ZBYN,1996-10-29 23:00,ZBYN 292300Z AUTO 06016KT 6SM 08/02 A3006 RMK T00800020 IEM_DS3505
ZBYN,1996-10-30 00:00,ZBYN 300000Z AUTO 02006KT 6SM 10/M01 A3009 RMK SLP194 T00961009 52016 IEM_DS3505
ZBYN,1996-10-30 01:00,ZBYN 300100Z AUTO 06012KT 6SM 09/00 A3012 RMK T00900000 IEM_DS3505
ZBYN,1996-10-30 02:00,ZBYN 300200Z AUTO 06012KT 6SM 10/02 A3012 RMK T01000020 IEM_DS3505
ZBYN,1996-10-30 03:00,ZBYN 300300Z AUTO 09014KT 6SM 12/02 A3012 RMK SLP205 T01150018 52004 IEM_DS3505
ZBYN,1996-10-30 04:00,ZBYN 300400Z AUTO 07014KT 6SM 12/04 A3012 RMK T01200040 IEM_DS3505
ZBYN,1996-10-30 05:00,ZBYN 300500Z AUTO 06016KT 6SM 12/05 A3009 RMK T01200050 IEM_DS3505
ZBYN,1996-10-30 06:00,ZBYN 300600Z AUTO 09012KT 6SM 10/03 A3006 RMK SLP187 T01050027 57020 IEM_DS3505
ZBYN,1996-10-30 07:00,ZBYN 300700Z AUTO 09012KT 6SM 10/04 A3006 RMK T01000040 IEM_DS3505
ZBYN,1996-10-30 08:00,ZBYN 300800Z AUTO 09014KT 6SM 09/04 A3006 RMK T00900040 IEM_DS3505
ZBYN,1996-10-30 09:00,ZBYN 300900Z AUTO 11010KT 6SM 09/04 A3006 RMK SLP195 T00930043 52005 IEM_DS3505
ZBYN,1996-10-30 10:00,ZBYN 301000Z AUTO 06010KT 6SM 07/04 A3009 RMK T00700040 IEM_DS3505
ZBYN,1996-10-30 11:00,ZBYN 301100Z AUTO 06010KT 6SM 06/03 A3009 RMK T00600030 IEM_DS3505
ZBYN,1996-10-30 12:00,ZBYN 301200Z AUTO 32004KT 6SM 07/04 A3009 RMK SLP210 T00730040 52012 IEM_DS3505
ZBYN,1996-10-30 13:00,ZBYN 301300Z AUTO 09008KT 6SM 06/02 A3012 RMK T00600020 IEM_DS3505
ZBYN,1996-10-30 14:00,ZBYN 301400Z AUTO 09010KT 6SM 06/02 A3015 RMK T00600020 IEM_DS3505
ZBYN,1996-10-30 15:00,ZBYN 301500Z AUTO 32004KT 6SM 06/02 A3015 RMK SLP222 T00630018 52013 IEM_DS3505
ZBYN,1996-10-30 16:00,ZBYN 301600Z AUTO 09012KT 6SM 05/03 A3015 RMK T00500030 IEM_DS3505
ZBYN,1996-10-30 17:00,ZBYN 301700Z AUTO 09004KT 6SM 05/03 A3012 RMK T00500030 IEM_DS3505
ZBYN,1996-10-30 18:00,ZBYN 301800Z AUTO 32002KT 6SM 05/02 A3015 RMK SLP223 T00510020 57003 IEM_DS3505
ZBYN,1996-10-30 19:00,ZBYN 301900Z AUTO 09004KT 6SM 05/03 A3015 RMK T00500030 IEM_DS3505
ZBYN,1996-10-30 20:00,ZBYN 302000Z AUTO 12004KT 6SM 05/03 A3015 RMK T00500030 IEM_DS3505
ZBYN,1996-10-30 21:00,ZBYN 302100Z AUTO 22004KT 6SM 05/02 A3015 RMK SLP228 T00520021 52003 IEM_DS3505
ZBYN,1996-10-30 22:00,ZBYN 302200Z AUTO 09010KT 6SM 05/02 A3015 RMK T00500020 IEM_DS3505
ZBYN,1996-10-30 23:00,ZBYN 302300Z AUTO 07006KT 6SM 05/03 A3015 RMK T00500030 IEM_DS3505
ZBYN,1996-10-31 00:00,ZBYN 310000Z AUTO 32004KT 5SM 06/02 A3018 RMK SLP245 T00590021 52013 IEM_DS3505
ZBYN,1996-10-31 01:00,ZBYN 310100Z AUTO 14004KT 6SM 08/03 A3021 RMK SLP228 T00850029 57016 IEM_DS3505
ZBYN,1996-10-31 02:00,ZBYN 310200Z AUTO 10008KT 6SM 07/03 A3021 RMK T00700030 IEM_DS3505
ZBYN,1996-10-31 03:00,ZBYN 310300Z AUTO 32004KT 6SM 08/03 A3021 RMK SLP245 T00770027 52002 IEM_DS3505
ZBYN,1996-10-31 04:00,ZBYN 310400Z AUTO 11004KT 6SM 08/04 A3018 RMK T00800040 IEM_DS3505
ZBYN,1996-10-31 05:00,ZBYN 310500Z AUTO 10010KT 6SM 09/04 A3015 RMK T00900040 IEM_DS3505
ZBYN,1996-10-31 06:00,ZBYN 310600Z AUTO 14004KT 6SM 08/03 A3015 RMK SLP228 T00850029 57016 IEM_DS3505
ZBYN,1996-10-31 07:00,ZBYN 310700Z AUTO 09006KT 6SM 09/04 A3012 RMK T00900040 IEM_DS3505
ZBYN,1996-10-31 08:00,ZBYN 310800Z AUTO 11010KT 6SM 08/04 A3015 RMK T00800040 IEM_DS3505
ZBYN,1996-10-31 09:00,ZBYN 310900Z AUTO 11004KT 6SM 07/03 A3018 RMK SLP239 T00730030 52008 IEM_DS3505
ZBYN,1996-10-31 10:00,ZBYN 311000Z AUTO 10010KT 4SM 06/04 A3015 RMK T00600040 IEM_DS3505
ZBYN,1996-10-31 11:00,ZBYN 311100Z AUTO 12004KT 4SM 06/04 A3018 RMK T00600040 IEM_DS3505
ZBYN,1996-10-31 12:00,ZBYN 311200Z AUTO 18004KT 6SM 06/03 A3018 RMK SLP242 T00550032 52001 IEM_DS3505
ZBYN,1996-10-31 13:00,ZBYN 311300Z AUTO 00000KT 5SM 05/04 A3018 RMK T00500040 IEM_DS3505
ZBYN,1996-10-31 14:00,ZBYN 311400Z AUTO 00000KT 5SM 06/03 A3018 RMK T00600030 IEM_DS3505
ZBYN,1996-10-31 15:00,ZBYN 311500Z AUTO 18002KT 6SM 05/04 RMK SLP248 T00530035 52008 IEM_DS3505
ZBYN,1996-10-31 18:00,ZBYN 311800Z AUTO 14002KT 6SM 05/03 A3020 RMK SLP247 T00500031 54000 IEM_DS3505
ZBYN,1996-10-31 21:00,ZBYN 312100Z AUTO 09002KT 6SM 04/03 RMK T00440030 57010 IEM_DS3505
ZBYN,1996-11-01 00:00,ZBYN 010000Z AUTO 34002KT 6SM 03/02 A3019 RMK SLP253 T00290024 52007 IEM_DS3505
ZBYN,1996-11-01 03:00,ZBYN 010300Z AUTO 16002KT 4SM 09/06 RMK SLP238 T00920056 57004 IEM_DS3505
ZBYN,1996-11-01 06:00,ZBYN 010600Z AUTO 18008KT 5SM 12/00 A3009 RMK SLP202 T01200002 57029 IEM_DS3505
ZBYN,1996-11-01 09:00,ZBYN 010900Z AUTO 22004KT 9SM 12/01 RMK SLP201 T01190012 57002 IEM_DS3505
ZBYN,1996-11-01 11:00,ZBYN 011100Z AUTO 33004KT 6SM 10/00 A3012 RMK T01000000 IEM_DS3505
ZBYN,1996-11-01 12:00,ZBYN 011200Z AUTO 32004KT 9SM 08/00 A3012 RMK SLP228 T00790004 52016 IEM_DS3505
ZBYN,1996-11-01 13:00,ZBYN 011300Z AUTO 33006KT 6SM 09/00 A3015 RMK T00900000 IEM_DS3505
ZBYN,1996-11-01 14:00,ZBYN 011400Z AUTO 02006KT 6SM 10/M01 A3015 RMK T01001010 IEM_DS3505
ZBYN,1996-11-01 15:00,ZBYN 011500Z AUTO 18006KT 6SM 07/M00 A3018 RMK SLP231 T00691003 52011 IEM_DS3505
ZBYN,1996-11-01 16:00,ZBYN 011600Z AUTO 09004KT 6SM 05/02 A3018 RMK T00500020 IEM_DS3505
ZBYN,1996-11-01 17:00,ZBYN 011700Z AUTO 00000KT 6SM 04/02 A3018 RMK T00400020 IEM_DS3505
ZBYN,1996-11-01 18:00,ZBYN 011800Z AUTO 11002KT 6SM 06/02 A3018 RMK SLP235 T00550016 52005 IEM_DS3505
ZBYN,1996-11-01 19:00,ZBYN 011900Z AUTO 00000KT 6SM 02/01 A3018 RMK T00200010 IEM_DS3505
ZBYN,1996-11-01 20:00,ZBYN 012000Z AUTO 00000KT 6SM 03/01 A3018 RMK T00300010 IEM_DS3505
ZBYN,1996-11-01 21:00,ZBYN 012100Z AUTO 00000KT 6SM 04/03 A3021 RMK SLP236 T00410027 54000 IEM_DS3505
ZBYN,1996-11-01 22:00,ZBYN 012200Z AUTO 00000KT 5SM 03/03 A3021 RMK T00300030 IEM_DS3505
ZBYN,1996-11-01 23:00,ZBYN 012300Z AUTO 00000KT 1SM 03/02 A3021 RMK T00300020 IEM_DS3505
ZBYN,1996-11-02 00:00,ZBYN 020000Z AUTO 00000KT 4SM 03/03 A3021 RMK SLP257 T00320027 52011 IEM_DS3505
ZBYN,1996-11-02 01:00,ZBYN 020100Z AUTO 15004KT 2SM 06/04 A3024 RMK T00600040 IEM_DS3505
ZBYN,1996-11-02 03:00,ZBYN 020300Z AUTO 18004KT 5SM 10/06 A3024 RMK SLP252 T01040056 52005 IEM_DS3505
ZBYN,1996-11-02 04:00,ZBYN 020400Z AUTO 22004KT 7SM 13/05 A3021 RMK T01300050 IEM_DS3505
ZBYN,1996-11-02 05:00,ZBYN 020500Z AUTO 26006KT 7SM 14/03 A3018 RMK T01400030 IEM_DS3505
ZBYN,1996-11-02 06:00,ZBYN 020600Z AUTO 16010KT 5SM 14/04 A3015 RMK SLP223 T01440045 57023 IEM_DS3505
ZBYN,1996-11-02 07:00,ZBYN 020700Z AUTO 18010KT 7SM 16/02 A3015 RMK T01600020 IEM_DS3505
ZBYN,1996-11-02 08:00,ZBYN 020800Z AUTO 22006KT 7SM 16/03 A3015 RMK T01600030 IEM_DS3505
ZBYN,1996-11-02 09:00,ZBYN 020900Z AUTO 20006KT 6SM 13/07 A3015 RMK SLP222 T01330070 57004 IEM_DS3505
ZBYN,1996-11-02 10:00,ZBYN 021000Z AUTO 00000KT 7SM 11/06 A3015 RMK T01100060 IEM_DS3505
ZBYN,1996-11-02 11:00,ZBYN 021100Z AUTO 08004KT 5SM 09/05 A3018 RMK T00900050 IEM_DS3505
ZBYN,1996-11-02 12:00,ZBYN 021200Z AUTO 00000KT 6SM 08/04 A3018 RMK SLP247 T00750037 52012 IEM_DS3505
ZBYN,1996-11-02 13:00,ZBYN 021300Z AUTO 11004KT 7SM 06/03 A3021 RMK T00600030 IEM_DS3505
ZBYN,1996-11-02 14:00,ZBYN 021400Z AUTO 00000KT 7SM 05/03 A3021 RMK T00500030 IEM_DS3505
ZBYN,1996-11-02 15:00,ZBYN 021500Z AUTO 00000KT 6SM 04/02 A3024 RMK SLP254 T00420020 52013 IEM_DS3505
ZBYN,1996-11-02 16:00,ZBYN 021600Z AUTO 08006KT 7SM 04/02 A3024 RMK T00400020 IEM_DS3505
ZBYN,1996-11-02 17:00,ZBYN 021700Z AUTO 08004KT 7SM 04/02 A3024 RMK T00400020 IEM_DS3505
ZBYN,1996-11-02 18:00,ZBYN 021800Z AUTO 00000KT 6SM 03/02 A3024 RMK SLP253 T00300020 52003 IEM_DS3505
ZBYN,1996-11-02 19:00,ZBYN 021900Z AUTO 10004KT 7SM 03/02 A3024 RMK T00300020 IEM_DS3505
ZBYN,1996-11-02 20:00,ZBYN 022000Z AUTO 10004KT 7SM 03/02 A3024 RMK T00300020 IEM_DS3505
ZBYN,1996-11-02 21:00,ZBYN 022100Z AUTO 32004KT 6SM 03/02 A3024 RMK SLP253 T00280018 57002 IEM_DS3505
ZBYN,1996-11-02 22:00,ZBYN 022200Z AUTO 00000KT 5SM 02/01 A3024 RMK T00200010 IEM_DS3505
ZBYN,1996-11-02 23:00,ZBYN 022300Z AUTO 00000KT 1 1/2SM 01/00 A3024 RMK T00100000 IEM_DS3505
ZBYN,1996-11-03 00:00,ZBYN 030000Z AUTO 32004KT 6SM 03/00 A3027 RMK SLP275 T00340004 52012 IEM_DS3505
ZBYN,1996-11-03 01:00,ZBYN 030100Z AUTO 00000KT 2SM 04/03 A3030 RMK T00400030 IEM_DS3505
ZBYN,1996-11-03 02:00,ZBYN 030200Z AUTO 00000KT 2SM 08/03 A3027 RMK T00800030 IEM_DS3505
ZBYN,1996-11-03 03:00,ZBYN 030300Z AUTO 34006KT 6SM 10/02 A3024 RMK SLP260 T01030024 57008 IEM_DS3505
ZBYN,1996-11-03 04:00,ZBYN 030400Z AUTO 00000KT 2SM 13/04 A3021 RMK T01300040 IEM_DS3505
ZBYN,1996-11-03 05:00,ZBYN 030500Z AUTO 34008KT 2SM 15/01 A3018 RMK T01500010 IEM_DS3505
ZBYN,1996-11-03 06:00,ZBYN 030600Z AUTO 34006KT 6SM 16/04 A3012 RMK SLP218 T01570039 57032 IEM_DS3505
ZBYN,1996-11-03 07:00,ZBYN 030700Z AUTO 30004KT 2SM 16/05 A3012 RMK T01600050 IEM_DS3505
ZBYN,1996-11-03 08:00,ZBYN 030800Z AUTO 30006KT 2SM 15/06 A3012 RMK T01500060 IEM_DS3505
ZBYN,1996-11-03 09:00,ZBYN 030900Z AUTO 36004KT 6SM 13/06 A3009 RMK SLP209 T01340057 57012 IEM_DS3505
ZBYN,1996-11-03 10:00,ZBYN 031000Z AUTO 00000KT 2SM 14/06 A3009 RMK T01400060 IEM_DS3505
ZBYN,1996-11-03 11:00,ZBYN 031100Z AUTO 00000KT 2SM 12/06 A3012 RMK T01200060 IEM_DS3505
ZBYN,1996-11-03 12:00,ZBYN 031200Z AUTO 32004KT 6SM 11/04 A3012 RMK SLP223 T01080039 52010 IEM_DS3505
ZBYN,1996-11-03 13:00,ZBYN 031300Z AUTO 15006KT 3SM 11/06 A3015 RMK T01100060 IEM_DS3505
ZBYN,1996-11-03 14:00,ZBYN 031400Z AUTO 10004KT 3SM 10/06 A3012 RMK T01000060 IEM_DS3505
ZBYN,1996-11-03 15:00,ZBYN 031500Z AUTO 11004KT 6SM 10/05 A3012 RMK SLP214 T01010053 52001 IEM_DS3505
ZBYN,1996-11-03 16:00,ZBYN 031600Z AUTO 13006KT 3SM 10/06 A3012 RMK T01000060 IEM_DS3505
ZBYN,1996-11-03 17:00,ZBYN 031700Z AUTO 15008KT 7SM 11/05 A3012 RMK T01100050 IEM_DS3505
ZBYN,1996-11-03 18:00,ZBYN 031800Z AUTO 14006KT 6SM 10/05 A3012 RMK SLP197 T00970048 57008 IEM_DS3505
ZBYN,1996-11-03 19:00,ZBYN 031900Z AUTO 16006KT 7SM 10/06 A3009 RMK T01000060 IEM_DS3505
ZBYN,1996-11-03 20:00,ZBYN 032000Z AUTO 17006KT 7SM 10/06 A3009 RMK T01000060 IEM_DS3505
ZBYN,1996-11-03 21:00,ZBYN 032100Z AUTO 14008KT 6SM 09/06 A3006 RMK SLP186 T00860056 57015 IEM_DS3505
ZBYN,1996-11-03 22:00,ZBYN 032200Z AUTO 15004KT 7SM 09/07 A3009 RMK T00900070 IEM_DS3505
ZBYN,1996-11-03 23:00,ZBYN 032300Z AUTO 11004KT 3SM 09/07 A3006 RMK T00900070 IEM_DS3505
ZBYN,1996-11-04 00:00,ZBYN 040000Z AUTO 11004KT 5SM 08/06 A3009 RMK SLP199 T00770058 52007 IEM_DS3505
ZBYN,1996-11-04 01:00,ZBYN 040100Z AUTO 16006KT 5SM 09/07 A3009 RMK T00900070 IEM_DS3505
ZBYN,1996-11-04 02:00,ZBYN 040200Z AUTO 21004KT 5SM 12/08 A3009 RMK T01200080 IEM_DS3505
ZBYN,1996-11-04 03:00,ZBYN 040300Z AUTO 18008KT 5SM 14/08 A3006 RMK SLP185 T01430079 57004 IEM_DS3505
ZBYN,1996-11-04 04:00,ZBYN 040400Z AUTO 24008KT 7SM 16/07 A3003 RMK T01600070 IEM_DS3505
ZBYN,1996-11-04 05:00,ZBYN 040500Z AUTO 24012KT 7SM 18/07 A3000 RMK T01800070 IEM_DS3505
ZBYN,1996-11-04 06:00,ZBYN 040600Z AUTO 20012KT 5SM 17/06 A3000 RMK SLP156 T01730057 57023 IEM_DS3505
ZBYN,1996-11-04 07:00,ZBYN 040700Z AUTO 23012KT 7SM 19/06 A3000 RMK T01900060 IEM_DS3505
ZBYN,1996-11-04 08:00,ZBYN 040800Z AUTO 22008KT 7SM 18/06 A3000 RMK T01800060 IEM_DS3505
ZBYN,1996-11-04 09:00,ZBYN 040900Z AUTO 18002KT 6SM 16/07 A3000 RMK SLP166 T01570067 52005 IEM_DS3505
ZBYN,1996-11-04 10:00,ZBYN 041000Z AUTO 21008KT 6SM 15/08 A3003 RMK T01500080 IEM_DS3505
ZBYN,1996-11-04 11:00,ZBYN 041100Z AUTO 26006KT 6SM 13/07 A3006 RMK T01300070 IEM_DS3505
ZBYN,1996-11-04 12:00,ZBYN 041200Z AUTO 07004KT 6SM 19/07 A3006 RMK SLP189 T01880070 IEM_DS3505
ZBYN,1996-11-04 13:00,ZBYN 041300Z AUTO 13006KT 6SM 09/08 A3009 RMK T00900080 IEM_DS3505
ZBYN,1996-11-04 14:00,ZBYN 041400Z AUTO 09006KT 6SM 08/07 A3009 RMK T00800070 IEM_DS3505
ZBYN,1996-11-04 15:00,ZBYN 041500Z AUTO 00000KT 6SM 07/06 A3009 RMK SLP203 T00710060 52017 IEM_DS3505
ZBYN,1996-11-04 16:00,ZBYN 041600Z AUTO 07004KT 5SM 06/05 A3012 RMK T00600050 IEM_DS3505
ZBYN,1996-11-04 17:00,ZBYN 041700Z AUTO 06004KT 5SM 05/04 A3009 RMK T00500040 IEM_DS3505
ZBYN,1996-11-04 18:00,ZBYN 041800Z AUTO 00000KT 4SM 04/04 A3012 RMK SLP205 T00450038 52002 IEM_DS3505
ZBYN,1996-11-04 19:00,ZBYN 041900Z AUTO 00000KT 5SM 04/04 A3012 RMK T00400040 IEM_DS3505
ZBYN,1996-11-04 20:00,ZBYN 042000Z AUTO 00000KT 4SM 04/03 A3009 RMK T00400030 IEM_DS3505
ZBYN,1996-11-04 21:00,ZBYN 042100Z AUTO 32002KT 2 1/2SM 02/02 A3012 RMK SLP211 T00250023 54000 IEM_DS3505
ZBYN,1996-11-04 22:00,ZBYN 042200Z AUTO 00000KT 4SM 03/02 A3015 RMK T00300020 IEM_DS3505
ZBYN,1996-11-04 23:00,ZBYN 042300Z AUTO 00000KT 3SM 02/02 A3018 RMK T00200020 IEM_DS3505
ZBYN,1996-11-05 00:00,ZBYN 050000Z AUTO 16002KT 1/8SM 02/02 A3021 RMK SLP250 T00190017 52027 IEM_DS3505
ZBYN,1996-11-05 01:00,ZBYN 050100Z AUTO 14004KT 1/8SM 05/04 A3021 RMK T00500040 IEM_DS3505
ZBYN,1996-11-05 02:00,ZBYN 050200Z AUTO 27004KT 1/8SM 06/06 A3024 RMK T00600060 IEM_DS3505
ZBYN,1996-11-05 03:00,ZBYN 050300Z AUTO 32002KT 2 1/2SM 11/05 A3024 RMK SLP250 T01080051 52008 IEM_DS3505
ZBYN,1996-11-05 04:00,ZBYN 050400Z AUTO 19006KT 1 1/4SM 13/07 A3021 RMK T01300070 IEM_DS3505
ZBYN,1996-11-05 05:00,ZBYN 050500Z AUTO 25006KT 2SM 15/05 A3018 RMK T01500050 IEM_DS3505
ZBYN,1996-11-05 06:00,ZBYN 050600Z AUTO 02006KT 6SM 15/M01 A3018 RMK SLP231 T01541010 57014 IEM_DS3505
ZBYN,1996-11-05 07:00,ZBYN 050700Z AUTO 01008KT 7SM 17/00 A3018 RMK T01700000 IEM_DS3505
ZBYN,1996-11-05 08:00,ZBYN 050800Z AUTO 02008KT 7SM 15/M02 A3021 RMK T01501020 IEM_DS3505
ZBYN,1996-11-05 09:00,ZBYN 050900Z AUTO 02008KT 7SM 14/M04 A3024 RMK SLP253 T01361040 52014 IEM_DS3505
ZBYN,1996-11-05 10:00,ZBYN 051000Z AUTO 03006KT 6SM 12/M01 A3024 RMK T01201010 IEM_DS3505
ZBYN,1996-11-05 11:00,ZBYN 051100Z AUTO 00000KT 6SM 10/00 A3030 RMK T01000000 IEM_DS3505
ZBYN,1996-11-05 12:00,ZBYN 051200Z AUTO 36006KT 12SM 11/M04 A3033 RMK SLP299 T01091038 52037 IEM_DS3505
ZBYN,1996-11-05 13:00,ZBYN 051300Z AUTO 33010KT 7SM 09/M03 A3036 RMK T00901030 IEM_DS3505
ZBYN,1996-11-05 15:00,ZBYN 051500Z AUTO 30010KT 12SM 07/M06 A3039 RMK SLP315 T00671064 52022 IEM_DS3505
ZBYN,1996-11-05 16:00,ZBYN 051600Z AUTO 36010KT 7SM 06/M06 A3039 RMK T00601060 IEM_DS3505
ZBYN,1996-11-05 18:00,ZBYN 051800Z AUTO 34006KT 12SM 05/M06 A3042 RMK SLP310 T00511065 54000 IEM_DS3505
ZBYN,1996-11-05 19:00,ZBYN 051900Z AUTO 34004KT 6SM 05/M04 A3042 RMK T00501040 IEM_DS3505
ZBYN,1996-11-05 20:00,ZBYN 052000Z AUTO 10008KT 6SM 05/M03 A3042 RMK T00501030 IEM_DS3505
ZBYN,1996-11-05 21:00,ZBYN 052100Z AUTO 22004KT 12SM 04/M04 A3042 RMK SLP324 T00401039 52008 IEM_DS3505
ZBYN,1996-11-05 22:00,ZBYN 052200Z AUTO 09019KT 6SM 04/M05 A3045 RMK T00401050 IEM_DS3505
ZBYN,1996-11-05 23:00,ZBYN 052300Z AUTO 09010G23KT 7SM 04/M05 A3045 RMK T00401050 IEM_DS3505
ZBYN,1996-11-06 00:00,ZBYN 060000Z AUTO 04008KT 9SM 05/M05 A3047 RMK SLP334 T00501047 52007 IEM_DS3505
ZBYN,1996-11-06 01:00,ZBYN 060100Z AUTO 09012KT 6SM 04/M04 A3047 RMK T00401040 IEM_DS3505
ZBYN,1996-11-06 02:00,ZBYN 060200Z AUTO 06012KT 6SM 05/M04 A3047 RMK T00501040 IEM_DS3505
ZBYN,1996-11-06 03:00,ZBYN 060300Z AUTO 14006KT 5SM 05/M04 A3047 RMK SLP344 T00531039 52003 IEM_DS3505
ZBYN,1996-11-06 04:00,ZBYN 060400Z AUTO 09006KT 6SM 06/M02 A3045 RMK T00601020 IEM_DS3505
ZBYN,1996-11-06 05:00,ZBYN 060500Z AUTO 08008KT 6SM 06/M02 A3042 RMK T00601020 IEM_DS3505
ZBYN,1996-11-06 06:00,ZBYN 060600Z AUTO 14006KT 5SM 06/M04 A3039 RMK SLP316 T00551039 57028 IEM_DS3505
ZBYN,1996-11-06 07:00,ZBYN 060700Z AUTO 15008KT 6SM 06/M01 A3039 RMK T00601010 IEM_DS3505
ZBYN,1996-11-06 08:00,ZBYN 060800Z AUTO 17004KT 6SM 05/00 A3036 RMK T00500000 IEM_DS3505
ZBYN,1996-11-06 09:00,ZBYN 060900Z AUTO 16004KT 5SM 04/M01 A3036 RMK SLP312 T00401013 57008 IEM_DS3505
ZBYN,1996-11-06 10:00,ZBYN 061000Z AUTO 00000KT 7SM 04/01 A3036 RMK T00400010 IEM_DS3505
ZBYN,1996-11-06 11:00,ZBYN 061100Z AUTO 15002KT 7SM 04/01 A3036 RMK T00400010 IEM_DS3505
ZBYN,1996-11-06 12:00,ZBYN 061200Z AUTO 16004KT 4SM 03/00 A3036 RMK 60000 SLP307 T00330005 57004 IEM_DS3505
ZBYN,1996-11-06 13:00,ZBYN 061300Z AUTO 00000KT 7SM 04/02 A3036 RMK T00400020 IEM_DS3505
ZBYN,1996-11-06 14:00,ZBYN 061400Z AUTO 18008KT 7SM 03/02 A3036 RMK T00300020 IEM_DS3505
ZBYN,1996-11-06 15:00,ZBYN 061500Z AUTO 14006KT 6SM 02/01 RMK SLP309 T00160011 54000 IEM_DS3505
ZBYN,1996-11-06 16:00,ZBYN 061600Z AUTO 00000KT 1 1/4SM 02/01 RMK T00200010 IEM_DS3505
ZBYN,1996-11-06 17:00,ZBYN 061700Z AUTO 00000KT 1 1/4SM 02/01 RMK T00200010 IEM_DS3505
ZBYN,1996-11-06 18:00,ZBYN 061800Z AUTO 11004KT 4SM 00/00 A3032 RMK 60008 SLP303 T00020002 57008 IEM_DS3505
ZBYN,1996-11-06 19:00,ZBYN 061900Z AUTO 00000KT 1 1/4SM 01/01 A3033 RMK T00100010 IEM_DS3505
ZBYN,1996-11-06 20:00,ZBYN 062000Z AUTO 00000KT 1 1/4SM 01/01 A3030 RMK T00100010 IEM_DS3505
ZBYN,1996-11-06 21:00,ZBYN 062100Z AUTO 00000KT 1SM 02/01 A3030 RMK T00200010 IEM_DS3505
ZBYN,1996-11-06 22:00,ZBYN 062200Z AUTO 00000KT 1SM 02/01 A3027 RMK T00200010 IEM_DS3505
ZBYN,1996-11-06 23:00,ZBYN 062300Z AUTO 00000KT 1SM 02/01 A3027 RMK T00200010 IEM_DS3505
ZBYN,1996-11-07 00:00,ZBYN 070000Z AUTO 00000KT 4SM 02/01 A3030 RMK 70012 SLP292 T00180013 57003 IEM_DS3505
ZBYN,1996-11-07 01:00,ZBYN 070100Z AUTO 00000KT 1SM 03/02 A3030 RMK T00300020 IEM_DS3505
ZBYN,1996-11-07 02:00,ZBYN 070200Z AUTO 00000KT 1SM 04/03 A3030 RMK T00400030 IEM_DS3505
ZBYN,1996-11-07 03:00,ZBYN 070300Z AUTO 00000KT 3SM 04/02 A3030 RMK SLP296 T00360024 52004 IEM_DS3505
ZBYN,1996-11-07 04:00,ZBYN 070400Z AUTO 00000KT 1SM 04/03 RMK T00400030 IEM_DS3505
ZBYN,1996-11-07 05:00,ZBYN 070500Z AUTO 00000KT 1 1/4SM 04/04 A3024 RMK T00400040 IEM_DS3505
ZBYN,1996-11-07 06:00,ZBYN 070600Z AUTO 14004KT 4SM 05/03 A3024 RMK SLP271 T00490028 57023 IEM_DS3505
ZBYN,1996-11-07 07:00,ZBYN 070700Z AUTO 00000KT 4SM 05/04 A3021 RMK T00500040 IEM_DS3505
ZBYN,1996-11-07 08:00,ZBYN 070800Z AUTO 00000KT 4SM 06/04 A3018 RMK T00600040 IEM_DS3505
ZBYN,1996-11-07 09:00,ZBYN 070900Z AUTO 18004KT 4SM 06/03 A3021 RMK SLP258 T00550034 57010 IEM_DS3505
ZBYN,1996-11-07 10:00,ZBYN 071000Z AUTO 00000KT 2 1/2SM 05/04 A3021 RMK T00500040 IEM_DS3505
ZBYN,1996-11-07 11:00,ZBYN 071100Z AUTO 00000KT 2 1/2SM 05/04 A3021 RMK T00500040 IEM_DS3505
ZBYN,1996-11-07 12:00,ZBYN 071200Z AUTO 04002KT 4SM 05/03 A3021 RMK SLP265 T00460032 52007 IEM_DS3505
ZBYN,1996-11-07 13:00,ZBYN 071300Z AUTO 00000KT 2 1/2SM 04/04 A3024 RMK T00400040 IEM_DS3505
ZBYN,1996-11-07 14:00,ZBYN 071400Z AUTO 00000KT 2 1/2SM 04/04 A3024 RMK T00400040 IEM_DS3505
ZBYN,1996-11-07 15:00,ZBYN 071500Z AUTO 14004KT 6SM 04/04 A3027 RMK SLP273 T00450036 52010 IEM_DS3505
ZBYN,1996-11-07 16:00,ZBYN 071600Z AUTO 00000KT 2 1/2SM 05/04 A3024 RMK T00500040 IEM_DS3505
ZBYN,1996-11-07 17:00,ZBYN 071700Z AUTO 00000KT 2 1/2SM 05/04 A3024 RMK T00500040 IEM_DS3505
ZBYN,1996-11-07 18:00,ZBYN 071800Z AUTO 14004KT 6SM 04/04 A3021 RMK SLP257 T00440035 57013 IEM_DS3505
ZBYN,1996-11-07 21:00,ZBYN 072100Z AUTO 00000KT 6SM 04/04 RMK SLP243 T00420037 57012 IEM_DS3505
ZBYN,1996-11-07 22:00,ZBYN 072200Z AUTO 00000KT 2SM 05/04 A3015 RMK T00500040 IEM_DS3505
ZBYN,1996-11-07 23:00,ZBYN 072300Z AUTO 00000KT 1SM 05/04 A3015 RMK T00500040 IEM_DS3505
ZBYN,1996-11-08 00:00,ZBYN 080000Z AUTO 16004KT 4SM 05/04 A3018 RMK SLP244 T00470038 54000 IEM_DS3505
ZBYN,1996-11-08 01:00,ZBYN 080100Z AUTO 17004KT 1SM 05/05 A3018 RMK T00500050 IEM_DS3505
ZBYN,1996-11-08 02:00,ZBYN 080200Z AUTO 15006KT 1SM 06/05 A3018 RMK T00600050 IEM_DS3505
ZBYN,1996-11-08 03:00,ZBYN 080300Z AUTO 18006KT 2 1/2SM 07/05 A3015 RMK SLP234 T00700046 57005 IEM_DS3505
ZBYN,1996-11-08 05:00,ZBYN 080500Z AUTO 18006KT 1SM 09/06 A3006 RMK T00900060 IEM_DS3505
ZBYN,1996-11-08 06:00,ZBYN 080600Z AUTO 18008KT 2 1/2SM 09/06 A3006 RMK SLP193 T00920056 57034 IEM_DS3505
ZBYN,1996-11-08 07:00,ZBYN 080700Z AUTO 27004KT 1 1/2SM 10/07 A3003 RMK T01000070 IEM_DS3505
ZBYN,1996-11-08 08:00,ZBYN 080800Z AUTO 24008KT 2 1/2SM 10/07 A3003 RMK T01000070 IEM_DS3505
ZBYN,1996-11-08 09:00,ZBYN 080900Z AUTO 20006KT 3SM 10/06 A3003 RMK SLP187 T00960059 57005 IEM_DS3505
ZBYN,1996-11-08 10:00,ZBYN 081000Z AUTO 23010KT 4SM 09/06 A3003 RMK T00900060 IEM_DS3505
ZBYN,1996-11-08 11:00,ZBYN 081100Z AUTO 24008KT 4SM 08/05 A3006 RMK T00800050 IEM_DS3505
ZBYN,1996-11-08 12:00,ZBYN 081200Z AUTO 04004KT 4SM 06/05 A3009 RMK SLP218 T00580049 52023 IEM_DS3505
ZBYN,1996-11-08 13:00,ZBYN 081300Z AUTO 00000KT 2 1/2SM 05/04 A3012 RMK T00500040 IEM_DS3505
ZBYN,1996-11-08 14:00,ZBYN 081400Z AUTO 14004KT 2 1/2SM 04/04 A3012 RMK T00400040 IEM_DS3505
ZBYN,1996-11-08 15:00,ZBYN 081500Z AUTO 14006KT 5SM 04/03 A3012 RMK SLP229 T00360031 52010 IEM_DS3505
ZBYN,1996-11-08 16:00,ZBYN 081600Z AUTO 12006KT 2 1/2SM 05/04 A3012 RMK T00500040 IEM_DS3505
ZBYN,1996-11-08 17:00,ZBYN 081700Z AUTO 17004KT 2 1/2SM 05/05 A3012 RMK T00500050 IEM_DS3505
ZBYN,1996-11-08 18:00,ZBYN 081800Z AUTO 14006KT 4SM 05/04 A3013 RMK SLP224 T00460035 57001 IEM_DS3505
ZBYN,1996-11-08 19:00,ZBYN 081900Z AUTO 00000KT 2 1/2SM 05/04 A3012 RMK T00500040 IEM_DS3505
ZBYN,1996-11-08 20:00,ZBYN 082000Z AUTO 00000KT 2 1/2SM 04/04 A3012 RMK T00400040 IEM_DS3505
ZBYN,1996-11-08 21:00,ZBYN 082100Z AUTO 11002KT 19SM 04/03 A3012 RMK SLP220 T00360026 57003 IEM_DS3505
ZBYN,1996-11-08 22:00,ZBYN 082200Z AUTO 00000KT 2 1/2SM 04/04 A3012 RMK T00400040 IEM_DS3505
ZBYN,1996-11-08 23:00,ZBYN 082300Z AUTO 00000KT 1SM 04/04 A3015 RMK T00400040 IEM_DS3505
ZBYN,1996-11-09 00:00,ZBYN 090000Z AUTO 18006KT 1SM 04/03 A3015 RMK T00400030 IEM_DS3505
ZBYN,1996-11-09 01:00,ZBYN 090100Z AUTO 20004KT 1SM 04/04 A3018 RMK T00400040 IEM_DS3505
ZBYN,1996-11-09 02:00,ZBYN 090200Z AUTO 19004KT 1SM 04/04 A3018 RMK T00400040 IEM_DS3505
ZBYN,1996-11-09 03:00,ZBYN 090300Z AUTO 14006KT 2SM 05/03 A3018 RMK SLP247 T00460034 52005 IEM_DS3505
ZBYN,1996-11-09 04:00,ZBYN 090400Z AUTO 14004KT 1 1/2SM 05/04 A3015 RMK T00500040 IEM_DS3505
ZBYN,1996-11-09 05:00,ZBYN 090500Z AUTO 17006KT 1 1/2SM 06/04 A3012 RMK T00600040 IEM_DS3505
ZBYN,1996-11-09 06:00,ZBYN 090600Z AUTO 16004KT 2 1/2SM 06/04 A3006 RMK SLP211 T00620042 57029 IEM_DS3505
ZBYN,1996-11-09 07:00,ZBYN 090700Z AUTO 00000KT 2 1/2SM 09/06 A3006 RMK T00900060 IEM_DS3505
ZBYN,1996-11-09 08:00,ZBYN 090800Z AUTO 00000KT 2 1/2SM 09/06 A3003 RMK T00900060 IEM_DS3505
ZBYN,1996-11-09 09:00,ZBYN 090900Z AUTO 32002KT 3SM 07/05 A3003 RMK SLP198 T00670047 57012 IEM_DS3505
ZBYN,1996-11-09 10:00,ZBYN 091000Z AUTO 32004KT 2 1/2SM 06/06 A3006 RMK T00600060 IEM_DS3505
ZBYN,1996-11-09 11:00,ZBYN 091100Z AUTO 00000KT 1SM 06/05 A3006 RMK T00600050 IEM_DS3505
ZBYN,1996-11-09 12:00,ZBYN 091200Z AUTO 32002KT 4SM 05/04 A3009 RMK SLP218 T00500041 52016 IEM_DS3505
ZBYN,1996-11-09 13:00,ZBYN 091300Z AUTO 34004KT 1SM 06/05 A3009 RMK T00600050 IEM_DS3505
ZBYN,1996-11-09 14:00,ZBYN 091400Z AUTO 00000KT 1SM 05/04 A3009 RMK T00500040 IEM_DS3505
ZBYN,1996-11-09 15:00,ZBYN 091500Z AUTO 00000KT 5SM 05/03 A3012 RMK SLP227 T00480034 52009 IEM_DS3505
ZBYN,1996-11-09 16:00,ZBYN 091600Z AUTO 09004KT 1 1/4SM 03/03 A3012 RMK T00300030 IEM_DS3505
ZBYN,1996-11-09 17:00,ZBYN 091700Z AUTO 00000KT 1 1/2SM 02/02 A3009 RMK T00200020 IEM_DS3505
ZBYN,1996-11-09 18:00,ZBYN 091800Z AUTO 32004KT 4SM 03/02 A3010 RMK SLP217 T00320025 57009 IEM_DS3505
ZBYN,1996-11-09 19:00,ZBYN 091900Z AUTO 31004KT 1/4SM 03/02 A3006 RMK T00300020 IEM_DS3505
ZBYN,1996-11-09 20:00,ZBYN 092000Z AUTO 00000KT 1/8SM 01/01 A3006 RMK T00100010 IEM_DS3505
ZBYN,1996-11-09 21:00,ZBYN 092100Z AUTO 07002KT 1 1/4SM 02/01 A3006 RMK SLP210 T00160011 57008 IEM_DS3505
ZBYN,1996-11-09 22:00,ZBYN 092200Z AUTO 32006KT 1/8SM 01/01 A3006 RMK T00100010 IEM_DS3505
ZBYN,1996-11-09 23:00,ZBYN 092300Z AUTO 01004KT 1/8SM 01/01 A3006 RMK T00100010 IEM_DS3505
ZBYN,1996-11-10 00:00,ZBYN 100000Z AUTO 32006KT 1 1/4SM 01/01 A3006 RMK SLP218 T00110008 52004 IEM_DS3505
ZBYN,1996-11-10 01:00,ZBYN 100100Z AUTO 00000KT 1/8SM 01/01 A3009 RMK T00100010 IEM_DS3505
ZBYN,1996-11-10 02:00,ZBYN 100200Z AUTO 00000KT 1/8SM 02/02 A3009 RMK T00200020 IEM_DS3505
ZBYN,1996-11-10 03:00,ZBYN 100300Z AUTO 16002KT 0SM 04/ A3009 RMK SLP215 52001 IEM_DS3505
ZBYN,1996-11-10 04:00,ZBYN 100400Z AUTO 24004KT 1SM 08/06 A3003 RMK T00800060 IEM_DS3505
ZBYN,1996-11-10 05:00,ZBYN 100500Z AUTO 00000KT 1SM 12/05 A3000 RMK T01200050 IEM_DS3505
ZBYN,1996-11-10 06:00,ZBYN 100600Z AUTO 18006KT 4SM 12/07 A2997 RMK SLP168 T01200068 57033 IEM_DS3505
ZBYN,1996-11-10 07:00,ZBYN 100700Z AUTO 00000KT 1SM 11/07 A2994 RMK T01100070 IEM_DS3505
ZBYN,1996-11-10 08:00,ZBYN 100800Z AUTO 00000KT 3/8SM 11/07 A2994 RMK T01100070 IEM_DS3505
ZBYN,1996-11-10 09:00,ZBYN 100900Z AUTO 20006KT 4SM 10/06 A2994 RMK SLP164 T01000065 57009 IEM_DS3505
ZBYN,1996-11-10 10:00,ZBYN 101000Z AUTO 00000KT 3/8SM 08/07 A2997 RMK T00800070 IEM_DS3505
ZBYN,1996-11-10 11:00,ZBYN 101100Z AUTO 00000KT 3/8SM 06/06 A2997 RMK T00600060 IEM_DS3505
ZBYN,1996-11-10 12:00,ZBYN 101200Z AUTO 07002KT 1 1/4SM 05/05 A3000 RMK SLP195 T00530046 52020 IEM_DS3505
ZBYN,1996-11-10 13:00,ZBYN 101300Z AUTO 10004KT 3/8SM 04/04 A3003 RMK T00400040 IEM_DS3505
ZBYN,1996-11-10 15:00,ZBYN 101500Z AUTO 11002KT 3/8SM 03/03 A3006 RMK SLP212 T00320032 52017 IEM_DS3505
ZBYN,1996-11-10 16:00,ZBYN 101600Z AUTO 00000KT 3/8SM 04/03 A3006 RMK T00400030 IEM_DS3505
ZBYN,1996-11-10 17:00,ZBYN 101700Z AUTO 00000KT 1/8SM 02/02 A3006 RMK T00200020 IEM_DS3505
ZBYN,1996-11-10 18:00,ZBYN 101800Z AUTO 32004KT 0SM 01/01 A3006 RMK SLP205 T00110011 52003 IEM_DS3505
ZBYN,1996-11-10 19:00,ZBYN 101900Z AUTO 00000KT 1/8SM 00/00 A3006 RMK T00000000 IEM_DS3505
ZBYN,1996-11-10 20:00,ZBYN 102000Z AUTO 00000KT 1/8SM 00/00 A3006 RMK T00000000 IEM_DS3505
ZBYN,1996-11-10 21:00,ZBYN 102100Z AUTO 32002KT 3/8SM 02/02 A3006 RMK SLP208 T00250025 52002 IEM_DS3505
ZBYN,1996-11-10 22:00,ZBYN 102200Z AUTO 34004KT 1SM 03/03 A3009 RMK T00300030 IEM_DS3505
ZBYN,1996-11-10 23:00,ZBYN 102300Z AUTO 00000KT 1/8SM 01/01 A3012 RMK T00100010 IEM_DS3505
ZBYN,1996-11-11 00:00,ZBYN 110000Z AUTO 04004KT 1/2SM 03/03 A3015 RMK SLP238 T00330028 52021 IEM_DS3505
ZBYN,1996-11-11 01:00,ZBYN 110100Z AUTO 13006KT 1/8SM 03/03 A3018 RMK T00300030 IEM_DS3505
ZBYN,1996-11-11 02:00,ZBYN 110200Z AUTO 00000KT 1/2SM 04/04 A3021 RMK T00400040 IEM_DS3505
ZBYN,1996-11-11 03:00,ZBYN 110300Z AUTO 14008KT 2SM 08/04 A3021 RMK SLP252 T00770044 52016 IEM_DS3505
ZBYN,1996-11-11 04:00,ZBYN 110400Z AUTO 09010KT 7SM 09/04 A3018 RMK T00900040 IEM_DS3505
ZBYN,1996-11-11 05:00,ZBYN 110500Z AUTO 09014KT 7SM 10/05 A3018 RMK T01000050 IEM_DS3505
ZBYN,1996-11-11 06:00,ZBYN 110600Z AUTO 09014KT 5SM 11/03 A3015 RMK SLP238 T01070030 57011 IEM_DS3505
ZBYN,1996-11-11 07:00,ZBYN 110700Z AUTO 09016KT 6SM 10/04 A3015 RMK T01000040 IEM_DS3505
ZBYN,1996-11-11 08:00,ZBYN 110800Z AUTO 07016KT 6SM 10/04 A3015 RMK T01000040 IEM_DS3505
ZBYN,1996-11-11 09:00,ZBYN 110900Z AUTO 09010KT 5SM 09/02 A3018 RMK SLP244 T00910020 52005 IEM_DS3505
ZBYN,1996-11-11 10:00,ZBYN 111000Z AUTO 09017KT 7SM 08/03 A3021 RMK T00800030 IEM_DS3505
ZBYN,1996-11-11 11:00,ZBYN 111100Z AUTO 08012KT 7SM 07/03 A3024 RMK T00700030 IEM_DS3505
ZBYN,1996-11-11 12:00,ZBYN 111200Z AUTO 04006KT 6SM 08/02 A3027 RMK SLP278 T00780020 52030 IEM_DS3505
ZBYN,1996-11-11 13:00,ZBYN 111300Z AUTO 08006KT 7SM 07/05 A3030 RMK T00700050 IEM_DS3505
ZBYN,1996-11-11 14:00,ZBYN 111400Z AUTO 06006KT 7SM 06/05 A3033 RMK T00600050 IEM_DS3505
ZBYN,1996-11-11 15:00,ZBYN 111500Z AUTO 04004KT 6SM 06/04 A3033 RMK SLP297 T00590039 52021 IEM_DS3505
ZBYN,1996-11-11 16:00,ZBYN 111600Z AUTO 12004KT 7SM 05/04 A3036 RMK T00500040 IEM_DS3505
ZBYN,1996-11-11 17:00,ZBYN 111700Z AUTO 01006KT 7SM 05/04 A3036 RMK T00500040 IEM_DS3505
ZBYN,1996-11-11 18:00,ZBYN 111800Z AUTO 00000KT 6SM 04/02 A3036 RMK 60012 SLP292 T00440025 57002 IEM_DS3505
ZBYN,1996-11-11 19:00,ZBYN 111900Z AUTO 10006KT 7SM 05/04 A3033 RMK T00500040 IEM_DS3505
ZBYN,1996-11-11 21:00,ZBYN 112100Z AUTO 02006KT 6SM 04/02 A3033 RMK 70012 SLP291 T00450024 57003 IEM_DS3505
ZBYN,1996-11-11 22:00,ZBYN 112200Z AUTO 08004KT 7SM 03/03 A3033 RMK T00300030 IEM_DS3505
ZBYN,1996-11-11 23:00,ZBYN 112300Z AUTO 06008KT 7SM 03/02 A3033 RMK T00300020 IEM_DS3505
ZBYN,1996-11-12 00:00,ZBYN 120000Z AUTO 36004KT 6SM 03/M01 A3036 RMK 70012 SLP309 T00291014 52012 IEM_DS3505
ZBYN,1996-11-12 01:00,ZBYN 120100Z AUTO 09008KT 7SM 02/01 A3039 RMK T00200010 IEM_DS3505
ZBYN,1996-11-12 02:00,ZBYN 120200Z AUTO 07010KT 7SM 02/01 A3036 RMK T00200010 IEM_DS3505
ZBYN,1996-11-12 03:00,ZBYN 120300Z AUTO 36006KT 6SM 03/M03 A3039 RMK SLP317 T00281028 52004 IEM_DS3505
ZBYN,1996-11-12 04:00,ZBYN 120400Z AUTO 12004KT 7SM 04/01 A3036 RMK T00400010 IEM_DS3505
ZBYN,1996-11-12 05:00,ZBYN 120500Z AUTO 12004KT 7SM 05/01 A3033 RMK T00500010 IEM_DS3505
ZBYN,1996-11-12 06:00,ZBYN 120600Z AUTO 02004KT 6SM 05/M02 A3030 RMK SLP288 T00511024 57025 IEM_DS3505
ZBYN,1996-11-12 07:00,ZBYN 120700Z AUTO 00000KT 7SM 06/01 A3027 RMK T00600010 IEM_DS3505
ZBYN,1996-11-12 09:00,ZBYN 120900Z AUTO 18006KT 6SM 04/00 A3030 RMK SLP289 T00440004 54000 IEM_DS3505
ZBYN,1996-11-12 10:00,ZBYN 121000Z AUTO 12002KT 6SM 03/01 A3030 RMK T00300010 IEM_DS3505
ZBYN,1996-11-12 11:00,ZBYN 121100Z AUTO 12006KT 6SM 03/01 A3030 RMK T00300010 IEM_DS3505
ZBYN,1996-11-12 12:00,ZBYN 121200Z AUTO 16004KT 6SM 02/M02 A3033 RMK SLP303 T00221022 52006 IEM_DS3505
ZBYN,1996-11-12 13:00,ZBYN 121300Z AUTO 11002KT 6SM 01/00 A3033 RMK T00100000 IEM_DS3505
ZBYN,1996-11-12 14:00,ZBYN 121400Z AUTO 09002KT 6SM 02/00 A3036 RMK T00200000 IEM_DS3505
ZBYN,1996-11-12 15:00,ZBYN 121500Z AUTO 04006KT 9SM 02/ A3036 RMK SLP316 52012 IEM_DS3505
ZBYN,1996-11-12 16:00,ZBYN 121600Z AUTO 00000KT 7SM 02/M01 A3036 RMK T00201010 IEM_DS3505
ZBYN,1996-11-12 17:00,ZBYN 121700Z AUTO 02004KT 7SM 01/M01 A3036 RMK T00101010 IEM_DS3505
ZBYN,1996-11-12 18:00,ZBYN 121800Z AUTO 34004KT 9SM 01/M11 A3036 RMK SLP314 T00131107 54000 IEM_DS3505
ZBYN,1996-11-12 20:00,ZBYN 122000Z AUTO 00000KT 7SM 01/00 A3033 RMK T00100000 IEM_DS3505
ZBYN,1996-11-12 21:00,ZBYN 122100Z AUTO 32006KT 6SM 00/M11 A3033 RMK SLP308 T00021112 57008 IEM_DS3505
ZBYN,1996-11-12 22:00,ZBYN 122200Z AUTO 31006KT 7SM 00/M07 A3033 RMK T00001070 IEM_DS3505
ZBYN,1996-11-13 00:00,ZBYN 130000Z AUTO 32004KT 6SM M00/M12 A3036 RMK SLP322 T10051120 52008 IEM_DS3505
ZBYN,1996-11-13 01:00,ZBYN 130100Z AUTO 00000KT 6SM 00/M03 A3033 RMK T00001030 IEM_DS3505
ZBYN,1996-11-13 02:00,ZBYN 130200Z AUTO 00000KT 6SM 02/M05 A3033 RMK T00201050 IEM_DS3505
ZBYN,1996-11-13 03:00,ZBYN 130300Z AUTO 32008KT 6SM 03/M13 A3033 RMK SLP303 T00341128 57011 IEM_DS3505
ZBYN,1996-11-13 04:00,ZBYN 130400Z AUTO 00000KT 6SM 05/M04 A3030 RMK T00501040 IEM_DS3505
ZBYN,1996-11-13 05:00,ZBYN 130500Z AUTO 20004KT 6SM 05/M04 A3027 RMK T00501040 IEM_DS3505
ZBYN,1996-11-13 06:00,ZBYN 130600Z AUTO 18004KT 5SM 05/M08 A3027 RMK SLP281 T00461082 57019 IEM_DS3505
ZBYN,1996-11-13 07:00,ZBYN 130700Z AUTO 21006KT 6SM 05/M03 A3027 RMK T00501030 IEM_DS3505
ZBYN,1996-11-13 08:00,ZBYN 130800Z AUTO 19004KT 6SM 04/M02 A3024 RMK T00401020 IEM_DS3505
ZBYN,1996-11-13 09:00,ZBYN 130900Z AUTO 14006KT 5SM 03/M04 A3024 RMK SLP278 T00321039 57007 IEM_DS3505
ZBYN,1996-11-13 10:00,ZBYN 131000Z AUTO 10004KT 6SM 02/00 A3027 RMK T00200000 IEM_DS3505
ZBYN,1996-11-13 11:00,ZBYN 131100Z AUTO 09004KT 6SM 01/M01 A3027 RMK T00101010 IEM_DS3505
ZBYN,1996-11-13 12:00,ZBYN 131200Z AUTO 00000KT 5SM 00/M02 A3027 RMK SLP298 T00041018 52012 IEM_DS3505
ZBYN,1996-11-13 13:00,ZBYN 131300Z AUTO 00000KT 5SM 00/M01 A3027 RMK T00001010 IEM_DS3505
ZBYN,1996-11-13 14:00,ZBYN 131400Z AUTO 00000KT 5SM 00/M02 A3030 RMK T00001020 IEM_DS3505
ZBYN,1996-11-13 15:00,ZBYN 131500Z AUTO 00000KT 5SM M01/M02 A3030 RMK SLP306 T10081019 52012 IEM_DS3505
ZBYN,1996-11-13 16:00,ZBYN 131600Z AUTO 00000KT 5SM 00/M01 A3030 RMK T00001010 IEM_DS3505
ZBYN,1996-11-13 17:00,ZBYN 131700Z AUTO 00000KT 5SM 00/M01 A3033 RMK T00001010 IEM_DS3505
ZBYN,1996-11-13 18:00,ZBYN 131800Z AUTO 32004KT 5SM M00/M02 A3033 RMK SLP306 T10041021 52003 IEM_DS3505
ZBYN,1996-11-13 19:00,ZBYN 131900Z AUTO 00000KT 4SM 00/M01 A3033 RMK T00001010 IEM_DS3505
ZBYN,1996-11-13 20:00,ZBYN 132000Z AUTO 00000KT 4SM 01/00 A3033 RMK T00100000 IEM_DS3505
ZBYN,1996-11-13 21:00,ZBYN 132100Z AUTO 36004KT 6SM 00/M03 A3033 RMK SLP310 T00021033 52002 IEM_DS3505
ZBYN,1996-11-13 22:00,ZBYN 132200Z AUTO 00000KT 4SM 00/M01 A3036 RMK T00001010 IEM_DS3505
ZBYN,1996-11-13 23:00,ZBYN 132300Z AUTO 03004KT 2 1/2SM M01/M02 A3036 RMK T10101020 IEM_DS3505
ZBYN,1996-11-14 00:00,ZBYN 140000Z AUTO 34004KT 4SM 00/M04 A3039 RMK SLP335 T00021038 52018 IEM_DS3505
ZBYN,1996-11-14 01:00,ZBYN 140100Z AUTO 00000KT 1 1/4SM 01/M01 A3042 RMK T00101010 IEM_DS3505
ZBYN,1996-11-14 02:00,ZBYN 140200Z AUTO 31004KT 2 1/2SM 03/M05 A3042 RMK T00301050 IEM_DS3505
ZBYN,1996-11-14 03:00,ZBYN 140300Z AUTO 04008KT 6SM 05/M14 A3042 RMK SLP336 T00501136 52007 IEM_DS3505
ZBYN,1996-11-14 04:00,ZBYN 140400Z AUTO 36004KT 6SM 07/M12 A3042 RMK T00701120 IEM_DS3505
ZBYN,1996-11-14 05:00,ZBYN 140500Z AUTO 34008KT 6SM 08/M09 A3039 RMK T00801090 IEM_DS3505
ZBYN,1996-11-14 06:00,ZBYN 140600Z AUTO 36006KT 6SM 08/M10 A3036 RMK SLP314 T00791104 57015 IEM_DS3505
ZBYN,1996-11-14 07:00,ZBYN 140700Z AUTO 28006KT 7SM 10/M06 A3036 RMK T01001060 IEM_DS3505
ZBYN,1996-11-14 08:00,ZBYN 140800Z AUTO 18006KT 7SM 09/M03 A3036 RMK T00901030 IEM_DS3505
ZBYN,1996-11-14 09:00,ZBYN 140900Z AUTO 36008KT 7SM 06/M14 A3039 RMK SLP326 T00551144 52008 IEM_DS3505
ZBYN,1996-11-14 10:00,ZBYN 141000Z AUTO 34006KT 6SM 05/M11 A3039 RMK T00501110 IEM_DS3505
ZBYN,1996-11-14 11:00,ZBYN 141100Z AUTO 34008KT 7SM 03/M11 A3042 RMK T00301110 IEM_DS3505
ZBYN,1996-11-14 12:00,ZBYN 141200Z AUTO 34006KT 6SM 03/M15 A3045 RMK SLP355 T00271152 52022 IEM_DS3505
ZBYN,1996-11-14 13:00,ZBYN 141300Z AUTO 03002KT 7SM 02/M10 A3047 RMK T00201100 IEM_DS3505
ZBYN,1996-11-14 14:00,ZBYN 141400Z AUTO 00000KT 7SM 01/M09 A3050 RMK T00101090 IEM_DS3505
ZBYN,1996-11-14 15:00,ZBYN 141500Z AUTO 32004KT 6SM 00/M10 A3053 RMK SLP376 T00031100 52023 IEM_DS3505
ZBYN,1996-11-14 16:00,ZBYN 141600Z AUTO 00000KT 7SM 00/M08 A3053 RMK T00001080 IEM_DS3505
ZBYN,1996-11-14 17:00,ZBYN 141700Z AUTO 00000KT 7SM 00/M08 A3053 RMK T00001080 IEM_DS3505
ZBYN,1996-11-14 18:00,ZBYN 141800Z AUTO 32004KT 6SM M01/M11 A3053 RMK SLP376 T10071113 52003 IEM_DS3505
ZBYN,1996-11-14 21:00,ZBYN 142100Z AUTO 34006KT 6SM M01/M12 A3053 RMK SLP377 T10081121 57003 IEM_DS3505
ZBYN,1996-11-15 00:00,ZBYN 150000Z AUTO 34004KT 6SM M02/M10 A3056 RMK SLP397 T10161103 52012 IEM_DS3505
ZBYN,1996-11-15 01:00,ZBYN 150100Z AUTO 09004KT 6SM M01/M06 A3059 RMK T10101060 IEM_DS3505
ZBYN,1996-11-15 02:00,ZBYN 150200Z AUTO 00000KT 6SM 01/M09 A3059 RMK T00101090 IEM_DS3505
ZBYN,1996-11-15 03:00,ZBYN 150300Z AUTO 32004KT 12SM 00/M10 A3056 RMK SLP376 T00031100 52023 IEM_DS3505
ZBYN,1996-11-15 04:00,ZBYN 150400Z AUTO 00000KT 6SM 06/M14 A3056 RMK T00601140 IEM_DS3505
ZBYN,1996-11-15 05:00,ZBYN 150500Z AUTO 00000KT 6SM 07/M11 A3050 RMK T00701110 IEM_DS3505
ZBYN,1996-11-15 06:00,ZBYN 150600Z AUTO 16004KT 6SM 06/M15 A3047 RMK SLP364 T00611151 57023 IEM_DS3505
ZBYN,1996-11-15 07:00,ZBYN 150700Z AUTO 00000KT 6SM 06/M09 A3047 RMK T00601090 IEM_DS3505
ZBYN,1996-11-15 08:00,ZBYN 150800Z AUTO 00000KT 6SM 07/M08 A3047 RMK T00701080 IEM_DS3505
ZBYN,1996-11-15 09:00,ZBYN 150900Z AUTO 22002KT 7SM 05/M10 A3047 RMK SLP359 T00541103 57006 IEM_DS3505
ZBYN,1996-11-15 10:00,ZBYN 151000Z AUTO 00000KT 6SM 04/M07 A3047 RMK T00401070 IEM_DS3505
ZBYN,1996-11-15 11:00,ZBYN 151100Z AUTO 08004KT 6SM 01/M05 A3047 RMK T00101050 IEM_DS3505
ZBYN,1996-11-15 12:00,ZBYN 151200Z AUTO 20002KT 7SM 02/M07 A3050 RMK SLP375 T00161070 52007 IEM_DS3505
ZBYN,1996-11-15 13:00,ZBYN 151300Z AUTO 00000KT 6SM 00/M04 A3050 RMK T00001040 IEM_DS3505
ZBYN,1996-11-15 14:00,ZBYN 151400Z AUTO 00000KT 6SM 01/M05 A3050 RMK T00101050 IEM_DS3505
ZBYN,1996-11-15 15:00,ZBYN 151500Z AUTO 11004KT 6SM 01/M06 A3050 RMK SLP369 T00061056 52002 IEM_DS3505
ZBYN,1996-11-15 16:00,ZBYN 151600Z AUTO 11004KT 6SM 00/M04 A3050 RMK T00001040 IEM_DS3505
ZBYN,1996-11-15 18:00,ZBYN 151800Z AUTO 14004KT 6SM 00/M04 A3053 RMK SLP360 T00051040 57004 IEM_DS3505
ZBYN,1996-11-15 21:00,ZBYN 152100Z AUTO 16004KT 3SM 00/00 RMK 70002 SLP346 T00000000 57015 IEM_DS3505
ZBYN,1996-11-15 22:00,ZBYN 152200Z AUTO 00000KT 3/8SM 00/00 A3045 RMK T00000000 IEM_DS3505
ZBYN,1996-11-15 23:00,ZBYN 152300Z AUTO 00000KT 3/8SM 00/00 A3045 RMK T00000000 IEM_DS3505
ZBYN,1996-11-16 00:00,ZBYN 160000Z AUTO 14004KT 1SM M00/M00 A3042 RMK 60012 70012 SLP345 T10021002 57008 IEM_DS3505
ZBYN,1996-11-16 01:00,ZBYN 160100Z AUTO 20004KT 3/8SM 00/00 A3042 RMK T00000000 IEM_DS3505
ZBYN,1996-11-16 02:00,ZBYN 160200Z AUTO 23006KT 1/2SM 01/00 A3042 RMK T00100000 IEM_DS3505
ZBYN,1996-11-16 03:00,ZBYN 160300Z AUTO 18006KT 1 1/4SM 01/M01 A3042 RMK SLP341 T00101012 57003 IEM_DS3505
ZBYN,1996-11-16 04:00,ZBYN 160400Z AUTO 22008KT 1SM 02/01 A3039 RMK T00200010 IEM_DS3505
ZBYN,1996-11-16 05:00,ZBYN 160500Z AUTO 21008KT 1 1/4SM 04/01 A3033 RMK T00400010 IEM_DS3505
ZBYN,1996-11-16 06:00,ZBYN 160600Z AUTO 32014KT 9SM 04/M05 A3033 RMK 60002 SLP305 T00431049 57027 IEM_DS3505
ZBYN,1996-11-16 07:00,ZBYN 160700Z AUTO 30016KT 6SM 04/M04 A3033 RMK T00401040 IEM_DS3505
ZBYN,1996-11-16 08:00,ZBYN 160800Z AUTO 29016KT 6SM 04/M07 A3033 RMK T00401070 IEM_DS3505
ZBYN,1996-11-16 09:00,ZBYN 160900Z AUTO 32016KT 9SM 02/M10 A3033 RMK SLP316 T00221101 52005 IEM_DS3505
ZBYN,1996-11-16 10:00,ZBYN 161000Z AUTO 29014KT 6SM 02/M09 A3036 RMK T00201090 IEM_DS3505
ZBYN,1996-11-16 11:00,ZBYN 161100Z AUTO 31010KT 6SM 02/M07 A3039 RMK T00201070 IEM_DS3505
ZBYN,1996-11-16 12:00,ZBYN 161200Z AUTO 32008KT 6SM 01/M10 A3039 RMK SLP339 T00101102 52019 IEM_DS3505
ZBYN,1996-11-16 13:00,ZBYN 161300Z AUTO 24004KT 6SM 00/M08 A3039 RMK T00001080 IEM_DS3505
ZBYN,1996-11-16 14:00,ZBYN 161400Z AUTO 23004KT 6SM M01/M08 A3042 RMK T10101080 IEM_DS3505
ZBYN,1996-11-16 15:00,ZBYN 161500Z AUTO 32002KT 6SM M02/M11 A3042 RMK SLP350 T10161112 52008 IEM_DS3505
ZBYN,1996-11-16 16:00,ZBYN 161600Z AUTO 22008KT 7SM M01/M08 A3042 RMK T10101080 IEM_DS3505
ZBYN,1996-11-16 18:00,ZBYN 161800Z AUTO 32006KT 6SM 00/M10 A3039 RMK SLP334 T00001105 57007 IEM_DS3505
ZBYN,1996-11-16 21:00,ZBYN 162100Z AUTO 32012KT 6SM M01/M14 RMK SLP345 T10111139 52005 IEM_DS3505
ZBYN,1996-11-16 22:00,ZBYN 162200Z AUTO 28017KT 7SM M01/M12 A3042 RMK T10101120 IEM_DS3505
ZBYN,1996-11-16 23:00,ZBYN 162300Z AUTO 33008KT 7SM M02/M13 A3045 RMK T10201130 IEM_DS3505
ZBYN,1996-11-17 00:00,ZBYN 170000Z AUTO 36006KT 6SM M02/M15 A3047 RMK SLP376 T10151148 52025 IEM_DS3505
ZBYN,1996-11-17 01:00,ZBYN 170100Z AUTO 31010KT 6SM M01/M15 A3047 RMK T10101150 IEM_DS3505
ZBYN,1996-11-17 02:00,ZBYN 170200Z AUTO 30017KT 7SM 00/M14 A3047 RMK T00001140 IEM_DS3505
ZBYN,1996-11-17 03:00,ZBYN 170300Z AUTO 32012KT 6SM 01/M14 A3047 RMK SLP367 T00071138 57008 IEM_DS3505
ZBYN,1996-11-17 04:00,ZBYN 170400Z AUTO 27016KT 7SM 03/M14 A3045 RMK T00301140 IEM_DS3505
ZBYN,1996-11-17 05:00,ZBYN 170500Z AUTO 29016KT 6SM 04/M11 A3045 RMK T00401110 IEM_DS3505
ZBYN,1996-11-17 06:00,ZBYN 170600Z AUTO 32014KT 9SM A3042 RMK SLP333 57024 IEM_DS3505
ZBYN,1996-11-17 07:00,ZBYN 170700Z AUTO 30019KT 7SM 06/M16 A3039 RMK T00601160 IEM_DS3505
ZBYN,1996-11-17 08:00,ZBYN 170800Z AUTO 27012KT 6SM 05/M14 A3039 RMK T00501140 IEM_DS3505
ZBYN,1996-11-17 09:00,ZBYN 170900Z AUTO 32010KT 12SM 02/M10 A3039 RMK SLP332 T00251099 57004 IEM_DS3505
ZBYN,1996-11-17 10:00,ZBYN 171000Z AUTO 32008KT 7SM 02/M13 A3042 RMK T00201130 IEM_DS3505
ZBYN,1996-11-17 11:00,ZBYN 171100Z AUTO 30008KT 7SM 01/M12 A3042 RMK T00101120 IEM_DS3505
ZBYN,1996-11-17 12:00,ZBYN 171200Z AUTO 32006KT 9SM 01/M11 A3045 RMK SLP354 T00071108 52016 IEM_DS3505
ZBYN,1996-11-17 13:00,ZBYN 171300Z AUTO 27008KT 7SM 00/M12 A3045 RMK T00001120 IEM_DS3505
ZBYN,1996-11-17 14:00,ZBYN 171400Z AUTO 23008KT 7SM M02/M09 A3045 RMK T10201090 IEM_DS3505
ZBYN,1996-11-17 15:00,ZBYN 171500Z AUTO 20008KT 9SM M02/M12 A3045 RMK SLP362 T10171121 52007 IEM_DS3505
ZBYN,1996-11-17 16:00,ZBYN 171600Z AUTO 25012KT 7SM M02/M09 A3045 RMK T10201090 IEM_DS3505
ZBYN,1996-11-17 17:00,ZBYN 171700Z AUTO 22008KT 7SM M02/M09 A3042 RMK T10201090 IEM_DS3505
ZBYN,1996-11-17 18:00,ZBYN 171800Z AUTO 18006KT 6SM M03/M08 A3042 RMK SLP343 T10261081 57014 IEM_DS3505
ZBYN,1996-11-17 19:00,ZBYN 171900Z AUTO 00000KT 7SM M03/M09 A3042 RMK T10301090 IEM_DS3505
ZBYN,1996-11-17 20:00,ZBYN 172000Z AUTO 00000KT 7SM M04/M10 A3039 RMK T10401100 IEM_DS3505
ZBYN,1996-11-17 21:00,ZBYN 172100Z AUTO 09006KT 7SM M05/M08 A3039 RMK SLP344 T10471084 57004 IEM_DS3505
ZBYN,1996-11-17 22:00,ZBYN 172200Z AUTO 10004KT 7SM M06/M09 A3039 RMK T10601090 IEM_DS3505
ZBYN,1996-11-17 23:00,ZBYN 172300Z AUTO 11006KT 7SM M07/M09 A3039 RMK T10701090 IEM_DS3505
ZBYN,1996-11-18 00:00,ZBYN 180000Z AUTO 09004KT 7SM M05/M08 A3039 RMK SLP348 T10541084 57001 IEM_DS3505
ZBYN,1996-11-18 01:00,ZBYN 180100Z AUTO 11004KT 4SM M04/M07 A3039 RMK T10401070 IEM_DS3505
ZBYN,1996-11-18 02:00,ZBYN 180200Z AUTO 00000KT 4SM M01/M07 A3039 RMK T10101070 IEM_DS3505
ZBYN,1996-11-18 03:00,ZBYN 180300Z AUTO 14004KT 7SM 02/M08 A3036 RMK SLP320 T00241079 57016 IEM_DS3505
ZBYN,1996-11-18 04:00,ZBYN 180400Z AUTO 21010KT 7SM 05/M08 A3030 RMK T00501080 IEM_DS3505
ZBYN,1996-11-18 05:00,ZBYN 180500Z AUTO 22016KT 7SM 06/M09 A3027 RMK T00601090 IEM_DS3505
ZBYN,1996-11-18 06:00,ZBYN 180600Z AUTO 20012KT 9SM 07/M10 A3024 RMK SLP275 T00691097 57035 IEM_DS3505
ZBYN,1996-11-18 07:00,ZBYN 180700Z AUTO 22012KT 7SM 08/M09 A3024 RMK T00801090 IEM_DS3505
ZBYN,1996-11-18 08:00,ZBYN 180800Z AUTO 30014KT 7SM 08/M11 A3024 RMK T00801110 IEM_DS3505
ZBYN,1996-11-18 09:00,ZBYN 180900Z AUTO 29004KT 12SM 06/M10 A3024 RMK SLP284 T00611104 52003 IEM_DS3505
ZBYN,1996-11-18 10:00,ZBYN 181000Z AUTO 30002KT 7SM 04/M05 A3027 RMK T00401050 IEM_DS3505
ZBYN,1996-11-18 11:00,ZBYN 181100Z AUTO 29006KT 7SM 03/M07 A3030 RMK T00301070 IEM_DS3505
ZBYN,1996-11-18 12:00,ZBYN 181200Z AUTO 00000KT 9SM 03/M09 A3030 RMK SLP311 T00301087 52018 IEM_DS3505
ZBYN,1996-11-18 13:00,ZBYN 181300Z AUTO 00000KT 7SM 00/M06 A3033 RMK T00001060 IEM_DS3505
ZBYN,1996-11-18 14:00,ZBYN 181400Z AUTO 11006KT 7SM M02/M05 A3033 RMK T10201050 IEM_DS3505
ZBYN,1996-11-18 15:00,ZBYN 181500Z AUTO 11004KT 9SM M02/M06 A3036 RMK SLP325 T10181060 52018 IEM_DS3505
ZBYN,1996-11-18 16:00,ZBYN 181600Z AUTO 10006KT 7SM M04/M06 A3036 RMK T10401060 IEM_DS3505
ZBYN,1996-11-18 18:00,ZBYN 181800Z AUTO 16002KT 9SM M03/M06 A3033 RMK SLP311 T10331063 57008 IEM_DS3505
ZBYN,1996-11-18 19:00,ZBYN 181900Z AUTO 10006KT 7SM M04/M05 A3033 RMK T10401050 IEM_DS3505
ZBYN,1996-11-18 20:00,ZBYN 182000Z AUTO 00000KT 7SM M04/M06 A3033 RMK T10401060 IEM_DS3505
ZBYN,1996-11-18 21:00,ZBYN 182100Z AUTO 00000KT 9SM M04/M06 A3033 RMK SLP310 T10381064 57003 IEM_DS3505
ZBYN,1996-11-18 22:00,ZBYN 182200Z AUTO 08004KT 6SM M04/M06 A3033 RMK T10401060 IEM_DS3505
ZBYN,1996-11-18 23:00,ZBYN 182300Z AUTO 00000KT 6SM M04/M06 A3033 RMK T10401060 IEM_DS3505
ZBYN,1996-11-19 00:00,ZBYN 190000Z AUTO 00000KT 6SM M04/M06 A3033 RMK SLP320 T10371063 52004 IEM_DS3505
ZBYN,1996-11-19 01:00,ZBYN 190100Z AUTO 13002KT 5SM M02/M04 A3033 RMK T10201040 IEM_DS3505
ZBYN,1996-11-19 02:00,ZBYN 190200Z AUTO 16004KT 4SM 01/M05 A3033 RMK T00101050 IEM_DS3505
ZBYN,1996-11-19 03:00,ZBYN 190300Z AUTO 14004KT 6SM 03/M06 A3030 RMK SLP306 T00271061 57010 IEM_DS3505
ZBYN,1996-11-19 04:00,ZBYN 190400Z AUTO 00000KT 5SM 06/M05 A3027 RMK T00601050 IEM_DS3505
ZBYN,1996-11-19 05:00,ZBYN 190500Z AUTO 22004KT 5SM 06/M04 A3024 RMK T00601040 IEM_DS3505
ZBYN,1996-11-19 06:00,ZBYN 190600Z AUTO 16006KT 6SM 06/M05 A3021 RMK SLP269 T00571051 57031 IEM_DS3505
ZBYN,1996-11-19 07:00,ZBYN 190700Z AUTO 14004KT 4SM 07/M03 A3018 RMK T00701030 IEM_DS3505
ZBYN,1996-11-19 08:00,ZBYN 190800Z AUTO 00000KT 5SM 08/M02 A3018 RMK T00801020 IEM_DS3505
ZBYN,1996-11-19 09:00,ZBYN 190900Z AUTO 18004KT 6SM 06/M02 A3018 RMK SLP256 T00561023 57013 IEM_DS3505
ZBYN,1996-11-19 10:00,ZBYN 191000Z AUTO 26004KT 5SM 04/M03 A3018 RMK T00401030 IEM_DS3505
ZBYN,1996-11-19 11:00,ZBYN 191100Z AUTO 27008KT 5SM 03/M03 A3018 RMK T00301030 IEM_DS3505
ZBYN,1996-11-19 12:00,ZBYN 191200Z AUTO 32004KT 6SM 05/M06 A3021 RMK SLP268 T00491056 52010 IEM_DS3505
ZBYN,1996-11-19 13:00,ZBYN 191300Z AUTO 00000KT 6SM 01/M02 A3021 RMK T00101020 IEM_DS3505
ZBYN,1996-11-19 14:00,ZBYN 191400Z AUTO 00000KT 7SM 01/M02 A3024 RMK T00101020 IEM_DS3505
ZBYN,1996-11-19 15:00,ZBYN 191500Z AUTO 18004KT 6SM 02/M05 A3021 RMK SLP269 T00171049 52006 IEM_DS3505
ZBYN,1996-11-19 16:00,ZBYN 191600Z AUTO 00000KT 7SM 00/M02 A3021 RMK T00001020 IEM_DS3505
ZBYN,1996-11-19 17:00,ZBYN 191700Z AUTO 24012KT 7SM 02/M03 A3018 RMK T00201030 IEM_DS3505
ZBYN,1996-11-19 18:00,ZBYN 191800Z AUTO 18006KT 6SM 01/M05 A3018 RMK SLP255 T00101047 57009 IEM_DS3505
ZBYN,1996-11-19 19:00,ZBYN 191900Z AUTO 24014KT 7SM 02/M01 A3018 RMK T00201010 IEM_DS3505
ZBYN,1996-11-19 20:00,ZBYN 192000Z AUTO 20008KT 7SM 01/M01 A3015 RMK T00101010 IEM_DS3505
ZBYN,1996-11-19 21:00,ZBYN 192100Z AUTO 14004KT 6SM 00/M05 A3015 RMK SLP244 T00021050 57011 IEM_DS3505
ZBYN,1996-11-19 22:00,ZBYN 192200Z AUTO 00000KT 5SM 02/M01 A3015 RMK T00201010 IEM_DS3505
ZBYN,1996-11-19 23:00,ZBYN 192300Z AUTO 36002KT 7SM 03/M01 A3018 RMK T00301010 IEM_DS3505
ZBYN,1996-11-20 00:00,ZBYN 200000Z AUTO 00000KT 6SM 05/M10 A3021 RMK SLP243 T00481098 52005 IEM_DS3505
ZBYN,1996-11-20 01:00,ZBYN 200100Z AUTO 00000KT 7SM 05/M09 A3021 RMK T00501090 IEM_DS3505
ZBYN,1996-11-20 02:00,ZBYN 200200Z AUTO 31021KT 7SM 06/M10 A3024 RMK T00601100 IEM_DS3505
ZBYN,1996-11-20 03:00,ZBYN 200300Z AUTO 32012KT 6SM 07/M12 A3027 RMK SLP275 T00661122 52027 IEM_DS3505
ZBYN,1996-11-20 04:00,ZBYN 200400Z AUTO 31016KT 7SM 08/M12 A3027 RMK T00801120 IEM_DS3505
ZBYN,1996-11-20 05:00,ZBYN 200500Z AUTO 29023KT 7SM 08/M13 A3027 RMK T00801130 IEM_DS3505
ZBYN,1996-11-20 06:00,ZBYN 200600Z AUTO 32019KT 9SM 07/M07 A3026 RMK SLP275 T00731070 54000 IEM_DS3505
ZBYN,1996-11-20 08:00,ZBYN 200800Z AUTO 29021KT 7SM 08/M17 A3024 RMK T00801170 IEM_DS3505
ZBYN,1996-11-20 09:00,ZBYN 200900Z AUTO 32010KT 12SM 06/M14 A3024 RMK SLP278 T00551143 57001 IEM_DS3505
ZBYN,1996-11-20 10:00,ZBYN 201000Z AUTO 30012KT 7SM 04/M12 A3027 RMK T00401120 IEM_DS3505
ZBYN,1996-11-20 11:00,ZBYN 201100Z AUTO 29012KT 7SM 03/M11 A3030 RMK T00301110 IEM_DS3505
ZBYN,1996-11-20 12:00,ZBYN 201200Z AUTO 34002KT 12SM 03/M12 A3033 RMK SLP298 T00291115 52021 IEM_DS3505
ZBYN,1996-11-20 13:00,ZBYN 201300Z AUTO 00000KT 7SM 02/M07 A3033 RMK T00201070 IEM_DS3505
ZBYN,1996-11-20 14:00,ZBYN 201400Z AUTO 00000KT 7SM M01/M06 A3036 RMK T10101060 IEM_DS3505
ZBYN,1996-11-20 15:00,ZBYN 201500Z AUTO 27002KT 12SM M02/M09 A3036 RMK SLP317 T10151091 52013 IEM_DS3505
ZBYN,1996-11-20 16:00,ZBYN 201600Z AUTO 00000KT 7SM M02/M06 A3036 RMK T10201060 IEM_DS3505
ZBYN,1996-11-20 17:00,ZBYN 201700Z AUTO 00000KT 7SM M03/M07 A3033 RMK T10301070 IEM_DS3505
ZBYN,1996-11-20 18:00,ZBYN 201800Z AUTO 00000KT 9SM M04/M08 A3033 RMK SLP313 T10361082 57006 IEM_DS3505
ZBYN,1996-11-20 19:00,ZBYN 201900Z AUTO 00000KT 7SM M05/M08 A3033 RMK T10501080 IEM_DS3505
ZBYN,1996-11-20 20:00,ZBYN 202000Z AUTO 00000KT 7SM M05/M09 A3033 RMK T10501090 IEM_DS3505
ZBYN,1996-11-20 21:00,ZBYN 202100Z AUTO 00000KT 9SM M05/M08 A3030 RMK SLP306 T10501083 57011 IEM_DS3505
ZBYN,1996-11-20 22:00,ZBYN 202200Z AUTO 00000KT 7SM M05/M07 A3033 RMK T10501070 IEM_DS3505
ZBYN,1996-11-20 23:00,ZBYN 202300Z AUTO 00000KT 7SM M05/M08 A3033 RMK T10501080 IEM_DS3505
ZBYN,1996-11-21 00:00,ZBYN 210000Z AUTO 32002KT 5SM M04/M09 A3033 RMK SLP317 T10361086 52008 IEM_DS3505
ZBYN,1996-11-21 01:00,ZBYN 210100Z AUTO 00000KT 4SM M03/M07 A3033 RMK T10301070 IEM_DS3505
ZBYN,1996-11-21 02:00,ZBYN 210200Z AUTO 00000KT 4SM 01/M07 A3033 RMK T00101070 IEM_DS3505
ZBYN,1996-11-21 03:00,ZBYN 210300Z AUTO 14004KT 5SM 03/M08 A3030 RMK SLP302 T00281081 57011 IEM_DS3505
ZBYN,1996-11-21 04:00,ZBYN 210400Z AUTO 21006KT 7SM 06/M07 A3027 RMK T00601070 IEM_DS3505
ZBYN,1996-11-21 05:00,ZBYN 210500Z AUTO 21008KT 7SM 07/M07 A3024 RMK T00701070 IEM_DS3505
ZBYN,1996-11-21 06:00,ZBYN 210600Z AUTO 18012KT 6SM 07/M08 A3021 RMK SLP261 T00721076 57033 IEM_DS3505
ZBYN,1996-11-21 07:00,ZBYN 210700Z AUTO 29006KT 6SM 10/M05 A3015 RMK T01001050 IEM_DS3505
ZBYN,1996-11-21 08:00,ZBYN 210800Z AUTO 29014KT 7SM 10/M10 A3015 RMK T01001100 IEM_DS3505
ZBYN,1996-11-21 09:00,ZBYN 210900Z AUTO 31012KT 7SM 09/M09 A3018 RMK T00901090 IEM_DS3505
ZBYN,1996-11-21 10:00,ZBYN 211000Z AUTO 32012KT 7SM 07/M09 A3021 RMK T00701090 IEM_DS3505
ZBYN,1996-11-21 11:00,ZBYN 211100Z AUTO 30006KT 7SM 05/M09 A3024 RMK T00501090 IEM_DS3505
ZBYN,1996-11-21 12:00,ZBYN 211200Z AUTO 27004KT 9SM 03/M09 A3024 RMK SLP291 T00311090 52020 IEM_DS3505
ZBYN,1996-11-21 13:00,ZBYN 211300Z AUTO 00000KT 7SM 02/M07 A3027 RMK T00201070 IEM_DS3505
ZBYN,1996-11-21 14:00,ZBYN 211400Z AUTO 32010KT 7SM 03/M07 A3027 RMK T00301070 IEM_DS3505
ZBYN,1996-11-21 15:00,ZBYN 211500Z AUTO 29002KT 6SM M01/M08 A3027 RMK SLP292 T10101083 52005 IEM_DS3505
ZBYN,1996-11-21 16:00,ZBYN 211600Z AUTO 34004KT 7SM 02/M08 A3027 RMK T00201080 IEM_DS3505
ZBYN,1996-11-21 17:00,ZBYN 211700Z AUTO 27008KT 7SM 00/M08 A3027 RMK T00001080 IEM_DS3505
ZBYN,1996-11-21 18:00,ZBYN 211800Z AUTO 00000KT 6SM M02/M09 A3027 RMK SLP283 T10151086 57002 IEM_DS3505
ZBYN,1996-11-21 20:00,ZBYN 212000Z AUTO 00000KT 7SM M02/M06 A3024 RMK T10201060 IEM_DS3505
ZBYN,1996-11-21 21:00,ZBYN 212100Z AUTO 36002KT 6SM M04/M09 A3024 RMK SLP273 T10391090 57012 IEM_DS3505
ZBYN,1996-11-21 22:00,ZBYN 212200Z AUTO 10004KT 7SM M05/M08 A3024 RMK T10501080 IEM_DS3505
ZBYN,1996-11-21 23:00,ZBYN 212300Z AUTO 10004KT 7SM M06/M08 A3024 RMK T10601080 IEM_DS3505
ZBYN,1996-11-22 00:00,ZBYN 220000Z AUTO 00000KT 5SM M05/M09 A3024 RMK SLP290 T10521086 52006 IEM_DS3505
ZBYN,1996-11-22 01:00,ZBYN 220100Z AUTO 00000KT 7SM M03/M07 A3024 RMK T10301070 IEM_DS3505
ZBYN,1996-11-22 02:00,ZBYN 220200Z AUTO 15004KT 7SM 01/M09 A3024 RMK T00101090 IEM_DS3505
ZBYN,1996-11-22 03:00,ZBYN 220300Z AUTO 09004KT 6SM 03/M08 A3021 RMK SLP274 T00301078 57008 IEM_DS3505
ZBYN,1996-11-22 04:00,ZBYN 220400Z AUTO 23004KT 6SM 06/M07 A3018 RMK T00601070 IEM_DS3505
ZBYN,1996-11-22 05:00,ZBYN 220500Z AUTO 00000KT 6SM 09/M05 A3012 RMK T00901050 IEM_DS3505
ZBYN,1996-11-22 06:00,ZBYN 220600Z AUTO 20008KT 6SM 10/M08 A3006 RMK SLP216 T00951082 57043 IEM_DS3505
ZBYN,1996-11-22 07:00,ZBYN 220700Z AUTO 24017KT 6SM 10/M09 A3006 RMK T01001090 IEM_DS3505
ZBYN,1996-11-22 08:00,ZBYN 220800Z AUTO 26004KT 7SM 10/M05 A3006 RMK T01001050 IEM_DS3505
ZBYN,1996-11-22 09:00,ZBYN 220900Z AUTO 32008KT 6SM 08/M12 A3006 RMK SLP229 T00751117 52005 IEM_DS3505
ZBYN,1996-11-22 10:00,ZBYN 221000Z AUTO 28014KT 7SM 07/M12 A3009 RMK T00701120 IEM_DS3505
ZBYN,1996-11-22 11:00,ZBYN 221100Z AUTO 28017KT 7SM 06/M11 A3012 RMK T00601110 IEM_DS3505
ZBYN,1996-11-22 12:00,ZBYN 221200Z AUTO 32008KT 6SM 05/M10 A3012 RMK SLP244 T00541101 52008 IEM_DS3505
ZBYN,1996-11-22 13:00,ZBYN 221300Z AUTO 31023KT 7SM 05/M14 A3018 RMK T00501140 IEM_DS3505
ZBYN,1996-11-22 14:00,ZBYN 221400Z AUTO 31025KT 7SM 04/M10 A3021 RMK T00401100 IEM_DS3505
ZBYN,1996-11-22 15:00,ZBYN 221500Z AUTO 32014KT 6SM 03/ A3021 RMK SLP264 52027 IEM_DS3505
ZBYN,1996-11-22 16:00,ZBYN 221600Z AUTO 28016KT 7SM 02/M11 A3021 RMK T00201110 IEM_DS3505
ZBYN,1996-11-22 17:00,ZBYN 221700Z AUTO 29017KT 7SM 01/M12 A3021 RMK T00101120 IEM_DS3505
ZBYN,1996-11-22 18:00,ZBYN 221800Z AUTO 32006KT 6SM 00/M13 A3021 RMK SLP260 T00051129 52003 IEM_DS3505
ZBYN,1996-11-22 19:00,ZBYN 221900Z AUTO 29016KT 7SM M01/M12 A3021 RMK T10101120 IEM_DS3505
ZBYN,1996-11-22 20:00,ZBYN 222000Z AUTO 28008KT 7SM M01/M11 A3018 RMK T10101110 IEM_DS3505
ZBYN,1996-11-22 21:00,ZBYN 222100Z AUTO 32004KT 6SM M02/M12 A3018 RMK SLP257 T10161124 57009 IEM_DS3505
ZBYN,1996-11-22 22:00,ZBYN 222200Z AUTO 28008KT 7SM M01/M13 A3018 RMK T10101130 IEM_DS3505
ZBYN,1996-11-22 23:00,ZBYN 222300Z AUTO 27004KT 7SM M02/M11 A3018 RMK T10201110 IEM_DS3505
ZBYN,1996-11-23 00:00,ZBYN 230000Z AUTO 14006KT 9SM M05/M11 A3021 RMK SLP271 T10481113 52004 IEM_DS3505
ZBYN,1996-11-23 01:00,ZBYN 230100Z AUTO 00000KT 7SM M02/M13 A3021 RMK T10201130 IEM_DS3505
ZBYN,1996-11-23 02:00,ZBYN 230200Z AUTO 19006KT 7SM 02/M10 A3024 RMK T00201100 IEM_DS3505
ZBYN,1996-11-23 03:00,ZBYN 230300Z AUTO 16008KT 6SM 03/M12 A3021 RMK SLP263 T00321120 52001 IEM_DS3505
ZBYN,1996-11-23 04:00,ZBYN 230400Z AUTO 21014KT 7SM 05/M13 A3018 RMK T00501130 IEM_DS3505
ZBYN,1996-11-23 05:00,ZBYN 230500Z AUTO 21016KT 7SM 06/M12 A3012 RMK T00601120 IEM_DS3505
ZBYN,1996-11-23 06:00,ZBYN 230600Z AUTO 20012KT 6SM 06/M13 A3009 RMK SLP219 T00631128 57038 IEM_DS3505
ZBYN,1996-11-23 07:00,ZBYN 230700Z AUTO 23012KT 7SM 08/M07 A3006 RMK T00801070 IEM_DS3505
ZBYN,1996-11-23 08:00,ZBYN 230800Z AUTO 22008KT 7SM 07/M09 A3006 RMK T00701090 IEM_DS3505
ZBYN,1996-11-23 09:00,ZBYN 230900Z AUTO 18004KT 7SM 05/M10 A3003 RMK SLP212 T00511097 57012 IEM_DS3505
ZBYN,1996-11-23 10:00,ZBYN 231000Z AUTO 10004KT 7SM 02/M05 A3003 RMK T00201050 IEM_DS3505
ZBYN,1996-11-23 11:00,ZBYN 231100Z AUTO 09004KT 7SM M01/M06 A3006 RMK T10101060 IEM_DS3505
ZBYN,1996-11-23 12:00,ZBYN 231200Z AUTO 20004KT 6SM 05/M10 A3006 RMK SLP222 T00461096 52003 IEM_DS3505
ZBYN,1996-11-23 13:00,ZBYN 231300Z AUTO 23014KT 7SM 04/M09 A3006 RMK T00401090 IEM_DS3505
ZBYN,1996-11-23 14:00,ZBYN 231400Z AUTO 17004KT 7SM 03/M06 A3009 RMK T00301060 IEM_DS3505
ZBYN,1996-11-23 15:00,ZBYN 231500Z AUTO 22004KT 6SM 00/M07 A3009 RMK SLP230 T00041074 52014 IEM_DS3505
ZBYN,1996-11-23 16:00,ZBYN 231600Z AUTO 09004KT 7SM 00/M05 A3009 RMK T00001050 IEM_DS3505
ZBYN,1996-11-23 17:00,ZBYN 231700Z AUTO 10006KT 7SM M02/M07 A3012 RMK T10201070 IEM_DS3505
ZBYN,1996-11-23 18:00,ZBYN 231800Z AUTO 22004KT 6SM 02/M09 A3012 RMK SLP227 T00211090 52005 IEM_DS3505
ZBYN,1996-11-23 19:00,ZBYN 231900Z AUTO 30014KT 7SM M02/M07 A3012 RMK T10201070 IEM_DS3505
ZBYN,1996-11-23 20:00,ZBYN 232000Z AUTO 31004KT 7SM 01/M04 A3012 RMK T00101040 IEM_DS3505
ZBYN,1996-11-23 21:00,ZBYN 232100Z AUTO 00000KT 6SM 01/M09 A3015 RMK SLP240 T00081090 52007 IEM_DS3505
ZBYN,1996-11-23 22:00,ZBYN 232200Z AUTO 28010KT 7SM 00/M08 A3015 RMK T00001080 IEM_DS3505
ZBYN,1996-11-23 23:00,ZBYN 232300Z AUTO 31004KT 7SM 00/M06 A3015 RMK T00001060 IEM_DS3505
ZBYN,1996-11-24 00:00,ZBYN 240000Z AUTO 00000KT 9SM M02/M08 A3018 RMK SLP256 T10161083 52010 IEM_DS3505
ZBYN,1996-11-24 01:00,ZBYN 240100Z AUTO 00000KT 7SM 00/M08 A3018 RMK T00001080 IEM_DS3505
ZBYN,1996-11-24 02:00,ZBYN 240200Z AUTO 00000KT 7SM 03/M07 A3018 RMK T00301070 IEM_DS3505
ZBYN,1996-11-24 03:00,ZBYN 240300Z AUTO 16002KT 6SM 07/M06 A3015 RMK SLP246 T00671063 57002 IEM_DS3505
ZBYN,1996-11-24 04:00,ZBYN 240400Z AUTO 24014KT 7SM 07/M06 A3012 RMK T00701060 IEM_DS3505
ZBYN,1996-11-24 05:00,ZBYN 240500Z AUTO 24016KT 7SM 08/M08 A3009 RMK T00801080 IEM_DS3505
ZBYN,1996-11-24 06:00,ZBYN 240600Z AUTO 20010KT 7SM 09/M07 A3006 RMK SLP202 T00871070 57034 IEM_DS3505
ZBYN,1996-11-24 07:00,ZBYN 240700Z AUTO 21012KT 7SM 10/M06 A3003 RMK T01001060 IEM_DS3505
ZBYN,1996-11-24 08:00,ZBYN 240800Z AUTO 21012KT 7SM 09/M06 A3003 RMK T00901060 IEM_DS3505
ZBYN,1996-11-24 09:00,ZBYN 240900Z AUTO 20004KT 7SM 07/M06 A3003 RMK SLP202 T00711062 57005 IEM_DS3505
ZBYN,1996-11-24 12:00,ZBYN 241200Z AUTO 18006KT 6SM 03/M06 A3006 RMK SLP224 T00291058 52009 IEM_DS3505
ZBYN,1996-11-24 13:00,ZBYN 241300Z AUTO 09006KT 7SM 00/M04 A3009 RMK T00001040 IEM_DS3505
ZBYN,1996-11-24 14:00,ZBYN 241400Z AUTO 11006KT 7SM 00/M04 A3009 RMK T00001040 IEM_DS3505
ZBYN,1996-11-24 15:00,ZBYN 241500Z AUTO 11006KT 6SM M00/M06 A3009 RMK SLP223 T10021062 52008 IEM_DS3505
ZBYN,1996-11-24 16:00,ZBYN 241600Z AUTO 10010KT 7SM M01/M04 A3009 RMK T10101040 IEM_DS3505
ZBYN,1996-11-24 17:00,ZBYN 241700Z AUTO 10004KT 7SM M02/M05 A3009 RMK T10201050 IEM_DS3505
ZBYN,1996-11-24 18:00,ZBYN 241800Z AUTO 00000KT 6SM M02/M06 A3009 RMK SLP222 T10181056 54000 IEM_DS3505
ZBYN,1996-11-24 19:00,ZBYN 241900Z AUTO 09006KT 7SM M03/M05 A3009 RMK T10301050 IEM_DS3505
ZBYN,1996-11-24 20:00,ZBYN 242000Z AUTO 00000KT 7SM M03/M05 A3009 RMK T10301050 IEM_DS3505
ZBYN,1996-11-24 21:00,ZBYN 242100Z AUTO 00000KT 6SM M03/M05 A3009 RMK SLP228 T10311052 54000 IEM_DS3505
ZBYN,1996-11-24 22:00,ZBYN 242200Z AUTO 00000KT 7SM M03/M06 A3009 RMK T10301060 IEM_DS3505
ZBYN,1996-11-24 23:00,ZBYN 242300Z AUTO 00000KT 7SM M04/M06 A3012 RMK T10401060 IEM_DS3505
ZBYN,1996-11-25 00:00,ZBYN 250000Z AUTO 34004KT 5SM M02/M07 A3012 RMK SLP246 T10221069 52011 IEM_DS3505
ZBYN,1996-11-25 02:00,ZBYN 250200Z AUTO 00000KT 1SM 00/M04 A3015 RMK T00001040 IEM_DS3505
ZBYN,1996-11-25 03:00,ZBYN 250300Z AUTO 00000KT 6SM 02/M06 A3012 RMK SLP244 T00221057 52001 IEM_DS3505
ZBYN,1996-11-25 04:00,ZBYN 250400Z AUTO 30004KT 1SM 04/M02 A3009 RMK T00401020 IEM_DS3505
ZBYN,1996-11-25 05:00,ZBYN 250500Z AUTO 24002KT 1SM 05/M02 A3006 RMK T00501020 IEM_DS3505
ZBYN,1996-11-25 06:00,ZBYN 250600Z AUTO 18004KT 6SM 05/M07 A3006 RMK SLP222 T00501066 57018 IEM_DS3505
ZBYN,1996-11-25 07:00,ZBYN 250700Z AUTO 16004KT 3SM 05/00 A3006 RMK T00500000 IEM_DS3505
ZBYN,1996-11-25 08:00,ZBYN 250800Z AUTO 17002KT 3SM 05/00 A3006 RMK T00500000 IEM_DS3505
ZBYN,1996-11-25 09:00,ZBYN 250900Z AUTO 16004KT 3SM 03/M04 A3006 RMK SLP227 T00341040 57001 IEM_DS3505
ZBYN,1996-11-25 10:00,ZBYN 251000Z AUTO 00000KT 1 1/2SM 03/00 A3009 RMK T00300000 IEM_DS3505
ZBYN,1996-11-25 11:00,ZBYN 251100Z AUTO 13008KT 1SM 03/00 A3009 RMK T00300000 IEM_DS3505
ZBYN,1996-11-25 12:00,ZBYN 251200Z AUTO 16006KT 6SM 04/M00 A3012 RMK SLP236 T00441005 52012 IEM_DS3505
ZBYN,1996-11-25 13:00,ZBYN 251300Z AUTO 13006KT 1SM 03/00 A3012 RMK T00300000 IEM_DS3505
ZBYN,1996-11-25 14:00,ZBYN 251400Z AUTO 13008KT 1SM 03/00 A3012 RMK T00300000 IEM_DS3505
ZBYN,1996-11-25 15:00,ZBYN 251500Z AUTO 00000KT 6SM 02/M00 A3012 RMK SLP240 T00161005 52006 IEM_DS3505
ZBYN,1996-11-25 16:00,ZBYN 251600Z AUTO 16004KT 4SM 01/00 A3012 RMK T00100000 IEM_DS3505
ZBYN,1996-11-25 18:00,ZBYN 251800Z AUTO 00000KT 5SM 00/00 A3014 RMK SLP240 T00030000 52002 IEM_DS3505
ZBYN,1996-11-25 19:00,ZBYN 251900Z AUTO 17004KT 2SM 01/00 A3015 RMK T00100000 IEM_DS3505
ZBYN,1996-11-25 20:00,ZBYN 252000Z AUTO 00000KT 1 1/2SM 00/00 A3015 RMK T00000000 IEM_DS3505
ZBYN,1996-11-25 21:00,ZBYN 252100Z AUTO 00000KT 4SM M00/M01 A3018 RMK SLP259 T10021007 52014 IEM_DS3505
ZBYN,1996-11-25 22:00,ZBYN 252200Z AUTO 00000KT 1/4SM 00/00 A3021 RMK T00000000 IEM_DS3505
ZBYN,1996-11-25 23:00,ZBYN 252300Z AUTO 00000KT 1/4SM 00/M01 A3021 RMK T00001010 IEM_DS3505
ZBYN,1996-11-26 00:00,ZBYN 260000Z AUTO 34010KT 6SM 02/M06 A3027 RMK SLP280 T00161058 52024 IEM_DS3505
ZBYN,1996-11-26 01:00,ZBYN 260100Z AUTO 31012KT 7SM 02/M08 A3033 RMK T00201080 IEM_DS3505
ZBYN,1996-11-26 02:00,ZBYN 260200Z AUTO 31010KT 7SM 02/M06 A3030 RMK T00201060 IEM_DS3505
ZBYN,1996-11-26 03:00,ZBYN 260300Z AUTO 36004KT 11SM 03/M10 A3030 RMK SLP293 T00271105 52009 IEM_DS3505
ZBYN,1996-11-26 04:00,ZBYN 260400Z AUTO 30016KT 7SM 04/M10 A3030 RMK T00401100 IEM_DS3505
ZBYN,1996-11-26 05:00,ZBYN 260500Z AUTO 30019KT 7SM 02/M15 A3030 RMK T00201150 IEM_DS3505
ZBYN,1996-11-26 06:00,ZBYN 260600Z AUTO 32014KT 9SM 01/M21 A3028 RMK SLP296 T00121207 57002 IEM_DS3505
ZBYN,1996-11-26 07:00,ZBYN 260700Z AUTO 32021KT 7SM 02/M12 A3030 RMK T00201120 IEM_DS3505
ZBYN,1996-11-26 08:00,ZBYN 260800Z AUTO 31023KT 7SM 01/M14 A3027 RMK T00101140 IEM_DS3505
ZBYN,1996-11-26 09:00,ZBYN 260900Z AUTO 32014KT 9SM 01/M21 A3030 RMK SLP296 T00121207 57002 IEM_DS3505
ZBYN,1996-11-26 10:00,ZBYN 261000Z AUTO 29017KT 7SM M02/M18 A3030 RMK T10201180 IEM_DS3505
ZBYN,1996-11-26 11:00,ZBYN 261100Z AUTO 29010KT 7SM M02/M20 A3033 RMK T10201200 IEM_DS3505
ZBYN,1996-11-26 12:00,ZBYN 261200Z AUTO 32002KT 7SM M03/M21 A3033 RMK SLP313 T10301211 52006 IEM_DS3505
ZBYN,1996-11-26 13:00,ZBYN 261300Z AUTO 30010KT 7SM M02/M20 A3030 RMK T10201200 IEM_DS3505
ZBYN,1996-11-26 14:00,ZBYN 261400Z AUTO 28006KT 7SM M04/M15 A3030 RMK T10401150 IEM_DS3505
ZBYN,1996-11-26 15:00,ZBYN 261500Z AUTO 20002KT 7SM M05/M16 A3030 RMK SLP310 T10501165 57005 IEM_DS3505
ZBYN,1996-11-26 16:00,ZBYN 261600Z AUTO 00000KT 7SM M06/M13 A3030 RMK T10601130 IEM_DS3505
ZBYN,1996-11-26 17:00,ZBYN 261700Z AUTO 29006KT 7SM M04/M16 A3030 RMK T10401160 IEM_DS3505
ZBYN,1996-11-26 18:00,ZBYN 261800Z AUTO 00000KT 6SM M04/M18 A3030 RMK SLP305 T10391180 57005 IEM_DS3505
ZBYN,1996-11-26 20:00,ZBYN 262000Z AUTO 00000KT 7SM M04/M18 A3027 RMK T10401180 IEM_DS3505
ZBYN,1996-11-26 21:00,ZBYN 262100Z AUTO 20002KT 6SM M06/M14 A3024 RMK SLP301 T10641138 57012 IEM_DS3505
ZBYN,1996-11-26 22:00,ZBYN 262200Z AUTO 00000KT 7SM M08/M13 A3024 RMK T10801130 IEM_DS3505
ZBYN,1996-11-26 23:00,ZBYN 262300Z AUTO 00000KT 7SM M08/M12 A3024 RMK T10801120 IEM_DS3505
ZBYN,1996-11-27 00:00,ZBYN 270000Z AUTO 00000KT 6SM M08/M12 A3027 RMK SLP308 T10811124 52001 IEM_DS3505
ZBYN,1996-11-27 01:00,ZBYN 270100Z AUTO 08004KT 7SM M06/M11 A3027 RMK T10601110 IEM_DS3505
ZBYN,1996-11-27 02:00,ZBYN 270200Z AUTO 13004KT 7SM M02/M12 A3027 RMK T10201120 IEM_DS3505
ZBYN,1996-11-27 03:00,ZBYN 270300Z AUTO 14004KT 6SM M01/M13 A3024 RMK SLP297 T10061134 57001 IEM_DS3505
ZBYN,1996-11-27 04:00,ZBYN 270400Z AUTO 20004KT 7SM 02/M14 A3021 RMK T00201140 IEM_DS3505
ZBYN,1996-11-27 05:00,ZBYN 270500Z AUTO 20004KT 7SM 04/M14 A3015 RMK T00401140 IEM_DS3505
ZBYN,1996-11-27 06:00,ZBYN 270600Z AUTO 18004KT 6SM 02/M12 A3012 RMK SLP247 T00241122 57038 IEM_DS3505
ZBYN,1996-11-27 07:00,ZBYN 270700Z AUTO 23004KT 7SM 04/M14 A3009 RMK T00401140 IEM_DS3505
ZBYN,1996-11-27 08:00,ZBYN 270800Z AUTO 00000KT 7SM 04/M13 A3009 RMK T00401130 IEM_DS3505
ZBYN,1996-11-27 09:00,ZBYN 270900Z AUTO 00000KT 6SM 02/ A3009 RMK SLP240 57012 IEM_DS3505
ZBYN,1996-11-27 10:00,ZBYN 271000Z AUTO 00000KT 7SM M01/M10 A3009 RMK T10101100 IEM_DS3505
ZBYN,1996-11-27 11:00,ZBYN 271100Z AUTO 00000KT 7SM M03/M09 A3009 RMK T10301090 IEM_DS3505
ZBYN,1996-11-27 12:00,ZBYN 271200Z AUTO 34002KT 7SM M02/M09 A3011 RMK SLP257 T10161092 52007 IEM_DS3505
ZBYN,1996-11-27 13:00,ZBYN 271300Z AUTO 08004KT 7SM M05/M10 A3012 RMK T10501100 IEM_DS3505
ZBYN,1996-11-27 14:00,ZBYN 271400Z AUTO 00000KT 7SM M05/M10 A3012 RMK T10501100 IEM_DS3505
ZBYN,1996-11-27 15:00,ZBYN 271500Z AUTO 36004KT 6SM M03/M11 A3012 RMK SLP248 T10311112 52002 IEM_DS3505
ZBYN,1996-11-27 16:00,ZBYN 271600Z AUTO 00000KT 7SM M06/M10 A3012 RMK T10601100 IEM_DS3505
ZBYN,1996-11-27 17:00,ZBYN 271700Z AUTO 00000KT 7SM M06/M09 A3012 RMK T10601090 IEM_DS3505
ZBYN,1996-11-27 18:00,ZBYN 271800Z AUTO 00000KT 7SM M05/M10 A3013 RMK T10481103 52003 IEM_DS3505
ZBYN,1996-11-27 19:00,ZBYN 271900Z AUTO 00000KT 7SM M06/M10 A3012 RMK T10601100 IEM_DS3505
ZBYN,1996-11-27 20:00,ZBYN 272000Z AUTO 00000KT 7SM M08/M10 A3012 RMK T10801100 IEM_DS3505
ZBYN,1996-11-27 21:00,ZBYN 272100Z AUTO 32002KT 6SM M07/M11 A3009 RMK SLP248 T10691108 57006 IEM_DS3505
ZBYN,1996-11-28 00:00,ZBYN 280000Z AUTO 32002KT 6SM M03/M14 A3018 RMK SLP272 T10291136 52023 IEM_DS3505
ZBYN,1996-11-28 01:00,ZBYN 280100Z AUTO 00000KT 6SM M06/M09 A3018 RMK T10601090 IEM_DS3505
ZBYN,1996-11-28 02:00,ZBYN 280200Z AUTO 00000KT 5SM M03/M08 A3021 RMK T10301080 IEM_DS3505
ZBYN,1996-11-28 03:00,ZBYN 280300Z AUTO 36004KT 6SM M00/M11 A3021 RMK SLP278 T10051108 52007 IEM_DS3505
ZBYN,1996-11-28 04:00,ZBYN 280400Z AUTO 32004KT 6SM 01/M13 A3018 RMK T00101130 IEM_DS3505
ZBYN,1996-11-28 05:00,ZBYN 280500Z AUTO 23010KT 6SM 03/M13 A3015 RMK T00301130 IEM_DS3505
ZBYN,1996-11-28 06:00,ZBYN 280600Z AUTO 32014KT 6SM 03/M10 A3015 RMK SLP253 T00341100 57019 IEM_DS3505
ZBYN,1996-11-28 07:00,ZBYN 280700Z AUTO 32021KT 6SM 03/M10 A3015 RMK T00301100 IEM_DS3505
ZBYN,1996-11-28 08:00,ZBYN 280800Z AUTO 30019KT 6SM 02/M08 A3018 RMK T00201080 IEM_DS3505
ZBYN,1996-11-28 09:00,ZBYN 280900Z AUTO 34006KT 12SM 00/M14 A3021 RMK SLP292 T00041144 52027 IEM_DS3505
ZBYN,1996-11-28 10:00,ZBYN 281000Z AUTO 31016KT 6SM M01/M14 A3024 RMK T10101140 IEM_DS3505
ZBYN,1996-11-28 11:00,ZBYN 281100Z AUTO 29016KT 7SM M01/M16 A3027 RMK T10101160 IEM_DS3505
ZBYN,1996-11-28 12:00,ZBYN 281200Z AUTO 32002KT 12SM M04/M15 A3030 RMK SLP315 T10371146 52021 IEM_DS3505
ZBYN,1996-11-28 13:00,ZBYN 281300Z AUTO 25006KT 7SM M04/M14 A3030 RMK T10401140 IEM_DS3505
ZBYN,1996-11-28 14:00,ZBYN 281400Z AUTO 28008KT 7SM M04/M15 A3030 RMK T10401150 IEM_DS3505
ZBYN,1996-11-28 15:00,ZBYN 281500Z AUTO 32004KT 12SM M04/M16 A3030 RMK SLP314 T10431158 52002 IEM_DS3505
ZBYN,1996-11-28 16:00,ZBYN 281600Z AUTO 31014KT 7SM M03/M13 A3030 RMK T10301130 IEM_DS3505
ZBYN,1996-11-28 17:00,ZBYN 281700Z AUTO 31008KT 7SM M03/M14 A3030 RMK T10301140 IEM_DS3505
ZBYN,1996-11-28 18:00,ZBYN 281800Z AUTO 32010KT 7SM M04/M13 A3030 RMK SLP313 T10441134 52005 IEM_DS3505
ZBYN,1996-11-28 19:00,ZBYN 281900Z AUTO 30017KT 7SM M04/M14 A3033 RMK T10401140 IEM_DS3505
ZBYN,1996-11-28 20:00,ZBYN 282000Z AUTO 31017KT 7SM M05/M14 A3033 RMK T10501140 IEM_DS3505
ZBYN,1996-11-28 21:00,ZBYN 282100Z AUTO 32006KT 7SM M06/M19 A3033 RMK SLP331 T10651189 52008 IEM_DS3505
ZBYN,1996-11-28 22:00,ZBYN 282200Z AUTO 30004KT 7SM M07/M16 A3033 RMK T10701160 IEM_DS3505
ZBYN,1996-11-28 23:00,ZBYN 282300Z AUTO 31008KT 7SM M07/M18 A3033 RMK T10701180 IEM_DS3505
ZBYN,1996-11-29 00:00,ZBYN 290000Z AUTO 22004KT 12SM M08/M21 A3033 RMK SLP340 T10771207 57001 IEM_DS3505
ZBYN,1996-11-29 01:00,ZBYN 290100Z AUTO 33008KT 7SM M06/M20 A3033 RMK T10601200 IEM_DS3505
ZBYN,1996-11-29 02:00,ZBYN 290200Z AUTO 33006KT 7SM M05/M21 A3033 RMK T10501210 IEM_DS3505
ZBYN,1996-11-29 03:00,ZBYN 290300Z AUTO 20002KT 14SM M04/M15 A3030 RMK SLP321 T10361152 57011 IEM_DS3505
ZBYN,1996-11-29 04:00,ZBYN 290400Z AUTO 28008KT 6SM M02/M21 A3027 RMK T10201210 IEM_DS3505
ZBYN,1996-11-29 05:00,ZBYN 290500Z AUTO 25012KT 6SM M01/M16 A3021 RMK T10101160 IEM_DS3505
ZBYN,1996-11-29 06:00,ZBYN 290600Z AUTO 32010KT 12SM M01/M19 A3018 RMK SLP276 T10101189 57037 IEM_DS3505
ZBYN,1996-11-29 07:00,ZBYN 290700Z AUTO 29019KT 6SM 00/M13 A3015 RMK T00001130 IEM_DS3505
ZBYN,1996-11-29 08:00,ZBYN 290800Z AUTO 30027KT 7SM M01/M14 A3018 RMK T10101140 IEM_DS3505
ZBYN,1996-11-29 09:00,ZBYN 290900Z AUTO 32006KT 9SM M03/M16 A3021 RMK SLP290 T10261157 52007 IEM_DS3505
ZBYN,1996-11-29 10:00,ZBYN 291000Z AUTO 31021KT 7SM M03/M13 A3021 RMK T10301130 IEM_DS3505
ZBYN,1996-11-29 11:00,ZBYN 291100Z AUTO 31021KT 7SM M04/M12 A3024 RMK T10401120 IEM_DS3505
ZBYN,1996-11-29 12:00,ZBYN 291200Z AUTO 32012KT 9SM M03/M13 A3024 RMK SLP313 T10341128 52017 IEM_DS3505
ZBYN,1996-11-29 13:00,ZBYN 291300Z AUTO 32025KT 7SM M04/M20 A3030 RMK T10401200 IEM_DS3505
ZBYN,1996-11-29 14:00,ZBYN 291400Z AUTO 32025KT 7SM M04/M21 A3033 RMK T10401210 IEM_DS3505
ZBYN,1996-11-29 15:00,ZBYN 291500Z AUTO 32010KT 9SM M06/M20 A3036 RMK SLP345 T10561204 52033 IEM_DS3505
ZBYN,1996-11-29 16:00,ZBYN 291600Z AUTO 30019KT 7SM M06/M23 A3036 RMK T10601230 IEM_DS3505
ZBYN,1996-11-29 17:00,ZBYN 291700Z AUTO 31016KT 7SM M07/M23 A3039 RMK T10701230 IEM_DS3505
ZBYN,1996-11-29 18:00,ZBYN 291800Z AUTO 32012KT 9SM M08/M20 A3039 RMK SLP351 T10751203 52006 IEM_DS3505
ZBYN,1996-11-29 19:00,ZBYN 291900Z AUTO 29010KT 7SM M08/M17 A3039 RMK T10801170 IEM_DS3505
ZBYN,1996-11-29 20:00,ZBYN 292000Z AUTO 29016KT 7SM M08/M15 A3039 RMK T10801150 IEM_DS3505
ZBYN,1996-11-29 21:00,ZBYN 292100Z AUTO 32004KT 6SM M08/M22 A3039 RMK SLP357 T10821219 52002 IEM_DS3505
ZBYN,1996-11-29 22:00,ZBYN 292200Z AUTO 30012KT 7SM M08/M16 A3039 RMK T10801160 IEM_DS3505
ZBYN,1996-11-29 23:00,ZBYN 292300Z AUTO 30012KT 7SM M08/M20 A3042 RMK T10801200 IEM_DS3505
ZBYN,1996-11-30 00:00,ZBYN 300000Z AUTO 32006KT 12SM M09/M23 A3045 RMK SLP378 T10861230 52017 IEM_DS3505
ZBYN,1996-11-30 01:00,ZBYN 300100Z AUTO 30017KT 7SM M07/M21 A3045 RMK T10701210 IEM_DS3505
ZBYN,1996-11-30 02:00,ZBYN 300200Z AUTO 30017KT 7SM M06/M22 A3045 RMK T10601220 IEM_DS3505
ZBYN,1996-11-30 03:00,ZBYN 300300Z AUTO 32010KT 16SM M04/M25 A3045 RMK SLP379 T10441249 52004 IEM_DS3505
ZBYN,1996-11-30 04:00,ZBYN 300400Z AUTO 32016KT 7SM M03/M21 A3045 RMK T10301210 IEM_DS3505
ZBYN,1996-11-30 05:00,ZBYN 300500Z AUTO 30008KT 7SM M01/M19 A3042 RMK T10101190 IEM_DS3505
ZBYN,1996-11-30 06:00,ZBYN 300600Z AUTO 32008KT 16SM M01/M19 A3039 RMK SLP356 T10141193 57019 IEM_DS3505
ZBYN,1996-11-30 07:00,ZBYN 300700Z AUTO 31014KT 7SM 00/M16 A3039 RMK T00001160 IEM_DS3505
ZBYN,1996-11-30 08:00,ZBYN 300800Z AUTO 30017KT 7SM M01/M14 A3039 RMK T10101140 IEM_DS3505
ZBYN,1996-11-30 09:00,ZBYN 300900Z AUTO 32012KT 12SM M03/M18 A3042 RMK SLP365 T10271176 52005 IEM_DS3505
ZBYN,1996-11-30 10:00,ZBYN 301000Z AUTO 30014KT 7SM M03/M19 A3045 RMK T10301190 IEM_DS3505
ZBYN,1996-11-30 11:00,ZBYN 301100Z AUTO 03012KT 7SM M05/M20 A3045 RMK T10501200 IEM_DS3505
ZBYN,1996-11-30 12:00,ZBYN 301200Z AUTO 32004KT 9SM M05/M20 A3047 RMK SLP388 T10491197 52016 IEM_DS3505
ZBYN,1996-11-30 13:00,ZBYN 301300Z AUTO 32012KT 7SM M06/M18 A3047 RMK T10601180 IEM_DS3505
ZBYN,1996-11-30 14:00,ZBYN 301400Z AUTO 32012KT 7SM M06/M18 A3047 RMK T10601180 IEM_DS3505
ZBYN,1996-11-30 15:00,ZBYN 301500Z AUTO 22002KT 6SM M06/M20 A3047 RMK SLP386 T10621201 52003 IEM_DS3505
ZBYN,1996-11-30 16:00,ZBYN 301600Z AUTO 20004KT 7SM M08/M15 A3047 RMK T10801150 IEM_DS3505
ZBYN,1996-11-30 17:00,ZBYN 301700Z AUTO 09004KT 7SM M09/M17 A3047 RMK T10901170 IEM_DS3505
ZBYN,1996-11-30 18:00,ZBYN 301800Z AUTO 09004KT 6SM M10/M18 A3047 RMK SLP358 T11041175 57003 IEM_DS3505
ZBYN,1996-11-30 19:00,ZBYN 301900Z AUTO 09004KT 7SM M11/M19 A3047 RMK T11101190 IEM_DS3505
ZBYN,1996-11-30 20:00,ZBYN 302000Z AUTO 00000KT 7SM M11/M17 A3045 RMK T11101170 IEM_DS3505
ZBYN,1996-11-30 21:00,ZBYN 302100Z AUTO 14002KT 6SM M13/M18 RMK SLP385 T11261179 57006 IEM_DS3505
ZBYN,1996-11-30 22:00,ZBYN 302200Z AUTO 12002KT 7SM M12/M16 A3045 RMK T11201160 IEM_DS3505
ZBYN,1996-12-01 00:00,ZBYN 010000Z AUTO 00000KT 6SM M12/M17 A3042 RMK SLP380 T11241169 57008 IEM_DS3505
ZBYN,1996-12-01 01:00,ZBYN 010100Z AUTO 00000KT 5SM M10/M16 A3042 RMK T11001160 IEM_DS3505
ZBYN,1996-12-01 03:00,ZBYN 010300Z AUTO 34002KT 6SM M04/M18 A3039 RMK SLP352 T10431181 57013 IEM_DS3505
ZBYN,1996-12-01 04:00,ZBYN 010400Z AUTO 17002KT 7SM M01/M17 A3036 RMK T10101170 IEM_DS3505
ZBYN,1996-12-01 05:00,ZBYN 010500Z AUTO 21002KT 7SM 00/M16 A3030 RMK T00001160 IEM_DS3505
ZBYN,1996-12-01 06:00,ZBYN 010600Z AUTO 14006KT 6SM M00/M18 A3027 RMK SLP313 T10051184 57036 IEM_DS3505
ZBYN,1996-12-01 07:00,ZBYN 010700Z AUTO 20004KT 7SM 02/M15 A3024 RMK T00201150 IEM_DS3505
ZBYN,1996-12-01 08:00,ZBYN 010800Z AUTO 21006KT 7SM 02/M14 A3024 RMK T00201140 IEM_DS3505
ZBYN,1996-12-01 09:00,ZBYN 010900Z AUTO 20002KT 7SM M01/M17 A3021 RMK SLP302 T10121169 57015 IEM_DS3505
ZBYN,1996-12-01 10:00,ZBYN 011000Z AUTO 00000KT 7SM M03/M14 A3021 RMK T10301140 IEM_DS3505
ZBYN,1996-12-01 11:00,ZBYN 011100Z AUTO 00000KT 7SM M05/M15 A3024 RMK T10501150 IEM_DS3505
ZBYN,1996-12-01 12:00,ZBYN 011200Z AUTO 00000KT 7SM M05/M15 A3024 RMK SLP314 T10481147 52005 IEM_DS3505
ZBYN,1996-12-01 13:00,ZBYN 011300Z AUTO 00000KT 7SM M08/M15 A3024 RMK T10801150 IEM_DS3505
ZBYN,1996-12-01 14:00,ZBYN 011400Z AUTO 09002KT 7SM M08/M16 A3024 RMK T10801160 IEM_DS3505
ZBYN,1996-12-01 15:00,ZBYN 011500Z AUTO 00000KT 7SM M07/M14 A3024 RMK SLP308 T10741136 52004 IEM_DS3505
ZBYN,1996-12-01 16:00,ZBYN 011600Z AUTO 09004KT 7SM M09/M14 A3024 RMK T10901140 IEM_DS3505
ZBYN,1996-12-01 17:00,ZBYN 011700Z AUTO 13002KT 7SM M09/M14 A3024 RMK T10901140 IEM_DS3505
ZBYN,1996-12-01 18:00,ZBYN 011800Z AUTO 00000KT 6SM M09/M14 A3024 RMK SLP302 T10881139 57002 IEM_DS3505
ZBYN,1996-12-01 19:00,ZBYN 011900Z AUTO 00000KT 7SM M09/M13 A3024 RMK T10901130 IEM_DS3505
ZBYN,1996-12-01 20:00,ZBYN 012000Z AUTO 00000KT 7SM M10/M14 A3021 RMK T11001140 IEM_DS3505
ZBYN,1996-12-01 21:00,ZBYN 012100Z AUTO 00000KT 6SM M09/M14 A3021 RMK SLP293 T10921144 57010 IEM_DS3505
ZBYN,1996-12-01 22:00,ZBYN 012200Z AUTO 00000KT 7SM M10/M14 A3021 RMK T11001140 IEM_DS3505
ZBYN,1996-12-01 23:00,ZBYN 012300Z AUTO 09002KT 7SM M11/M14 A3021 RMK T11101140 IEM_DS3505
ZBYN,1996-12-02 00:00,ZBYN 020000Z AUTO 34002KT 5SM M09/M15 A3021 RMK SLP296 T10861148 57002 IEM_DS3505
ZBYN,1996-12-02 01:00,ZBYN 020100Z AUTO 00000KT 2 1/2SM M09/M14 A3021 RMK T10901140 IEM_DS3505
ZBYN,1996-12-02 02:00,ZBYN 020200Z AUTO 00000KT 1SM M05/M13 A3021 RMK T10501130 IEM_DS3505
ZBYN,1996-12-02 03:00,ZBYN 020300Z AUTO 11004KT 3SM M02/M10 A3021 RMK SLP289 T10181099 52001 IEM_DS3505
ZBYN,1996-12-02 05:00,ZBYN 020500Z AUTO 19006KT 4SM 03/M15 A3012 RMK T00301150 IEM_DS3505
ZBYN,1996-12-02 06:00,ZBYN 020600Z AUTO 16002KT 4SM 02/M12 A3009 RMK SLP244 T00201125 57037 IEM_DS3505
ZBYN,1996-12-02 07:00,ZBYN 020700Z AUTO 22006KT 6SM 04/M13 A3006 RMK T00401130 IEM_DS3505
ZBYN,1996-12-02 08:00,ZBYN 020800Z AUTO 16004KT 7SM 04/M09 A3006 RMK T00401090 IEM_DS3505
ZBYN,1996-12-02 09:00,ZBYN 020900Z AUTO 00000KT 5SM 01/M12 A3006 RMK SLP241 T00111115 57005 IEM_DS3505
ZBYN,1996-12-02 10:00,ZBYN 021000Z AUTO 00000KT 4SM M02/M09 A3006 RMK T10201090 IEM_DS3505
ZBYN,1996-12-02 11:00,ZBYN 021100Z AUTO 00000KT 4SM M03/M11 A3009 RMK T10301110 IEM_DS3505
ZBYN,1996-12-02 12:00,ZBYN 021200Z AUTO 34002KT 6SM M03/M10 A3012 RMK SLP264 T10301095 52015 IEM_DS3505
ZBYN,1996-12-02 13:00,ZBYN 021300Z AUTO 00000KT 7SM M05/M11 A3012 RMK T10501110 IEM_DS3505
ZBYN,1996-12-02 14:00,ZBYN 021400Z AUTO 00000KT 7SM M06/M11 A3012 RMK T10601110 IEM_DS3505
ZBYN,1996-12-02 15:00,ZBYN 021500Z AUTO 00000KT 6SM M05/M10 A3015 RMK SLP265 T10461095 52010 IEM_DS3505
ZBYN,1996-12-02 16:00,ZBYN 021600Z AUTO 00000KT 7SM M07/M10 A3012 RMK T10701100 IEM_DS3505
ZBYN,1996-12-02 17:00,ZBYN 021700Z AUTO 00000KT 7SM M06/M11 A3012 RMK T10601110 IEM_DS3505
ZBYN,1996-12-02 18:00,ZBYN 021800Z AUTO 32002KT 6SM M06/M11 A3013 RMK SLP252 T10581107 57008 IEM_DS3505
ZBYN,1996-12-02 21:00,ZBYN 022100Z AUTO 00000KT 6SM M07/M19 A3012 RMK SLP261 T10721192 52005 IEM_DS3505
ZBYN,1996-12-02 22:00,ZBYN 022200Z AUTO 00000KT 5SM M08/M11 A3012 RMK T10801110 IEM_DS3505
ZBYN,1996-12-02 23:00,ZBYN 022300Z AUTO 00000KT 3SM M09/M12 A3015 RMK T10901120 IEM_DS3505
ZBYN,1996-12-03 00:00,ZBYN 030000Z AUTO 00000KT 4SM M07/M11 A3017 RMK SLP278 T10741110 52008 IEM_DS3505
ZBYN,1996-12-03 01:00,ZBYN 030100Z AUTO 00000KT 1SM M07/M10 A3018 RMK T10701100 IEM_DS3505
ZBYN,1996-12-03 02:00,ZBYN 030200Z AUTO 16004KT 1SM M04/M09 A3018 RMK T10401090 IEM_DS3505
ZBYN,1996-12-03 03:00,ZBYN 030300Z AUTO 00000KT 4SM M02/M08 A3015 RMK SLP269 T10171076 57001 IEM_DS3505
ZBYN,1996-12-03 04:00,ZBYN 030400Z AUTO 00000KT 1 1/4SM 00/M08 A3012 RMK T00001080 IEM_DS3505
ZBYN,1996-12-03 05:00,ZBYN 030500Z AUTO 21008KT 1SM 01/M09 A3009 RMK T00101090 IEM_DS3505
ZBYN,1996-12-03 06:00,ZBYN 030600Z AUTO 00000KT 4SM 02/M08 A3006 RMK SLP234 T00191084 57028 IEM_DS3505
ZBYN,1996-12-03 07:00,ZBYN 030700Z AUTO 00000KT 1SM 02/M07 A3006 RMK T00201070 IEM_DS3505
ZBYN,1996-12-03 08:00,ZBYN 030800Z AUTO 33004KT 1SM 03/M06 A3006 RMK T00301060 IEM_DS3505
ZBYN,1996-12-03 09:00,ZBYN 030900Z AUTO 32004KT 4SM 02/M08 A3006 RMK SLP235 T00251083 57001 IEM_DS3505
ZBYN,1996-12-03 10:00,ZBYN 031000Z AUTO 00000KT 1/2SM 01/M06 A3006 RMK T00101060 IEM_DS3505
ZBYN,1996-12-03 11:00,ZBYN 031100Z AUTO 17004KT 1 1/4SM 00/M05 A3012 RMK T00001050 IEM_DS3505
ZBYN,1996-12-03 12:00,ZBYN 031200Z AUTO 09004KT 3SM 01/M01 A3015 RMK SLP263 T00061006 52022 IEM_DS3505
ZBYN,1996-12-03 13:00,ZBYN 031300Z AUTO 00000KT 1SM 00/M05 A3018 RMK T00001050 IEM_DS3505
ZBYN,1996-12-03 14:00,ZBYN 031400Z AUTO 00000KT 1/2SM 00/M05 A3018 RMK T00001050 IEM_DS3505
ZBYN,1996-12-03 15:00,ZBYN 031500Z AUTO 14004KT 6SM M01/M06 RMK SLP267 T10071058 52011 IEM_DS3505
ZBYN,1996-12-03 16:00,ZBYN 031600Z AUTO 13002KT 1/2SM M01/M04 A3018 RMK T10101040 IEM_DS3505
ZBYN,1996-12-03 18:00,ZBYN 031800Z AUTO 00000KT 6SM M02/M07 A3015 RMK SLP256 T10161066 57005 IEM_DS3505
ZBYN,1996-12-03 19:00,ZBYN 031900Z AUTO 00000KT 1/2SM M02/M05 A3018 RMK T10201050 IEM_DS3505
ZBYN,1996-12-03 20:00,ZBYN 032000Z AUTO 14006KT 1/2SM M02/M05 A3015 RMK T10201050 IEM_DS3505
ZBYN,1996-12-03 21:00,ZBYN 032100Z AUTO 14002KT 4SM M04/M08 A3015 RMK SLP259 T10371075 54000 IEM_DS3505
ZBYN,1996-12-03 22:00,ZBYN 032200Z AUTO 11004KT 3/8SM M04/M06 A3015 RMK T10401060 IEM_DS3505
ZBYN,1996-12-03 23:00,ZBYN 032300Z AUTO 00000KT 3/8SM M04/M06 A3021 RMK T10401060 IEM_DS3505
ZBYN,1996-12-04 00:00,ZBYN 040000Z AUTO 00000KT 2 1/2SM M04/M07 A3024 RMK SLP296 T10381068 52030 IEM_DS3505
ZBYN,1996-12-04 01:00,ZBYN 040100Z AUTO 00000KT 3/8SM M04/M06 A3024 RMK T10401060 IEM_DS3505
ZBYN,1996-12-04 02:00,ZBYN 040200Z AUTO 00000KT 3/8SM M03/M06 A3027 RMK T10301060 IEM_DS3505
ZBYN,1996-12-04 03:00,ZBYN 040300Z AUTO 00000KT 4SM 01/M09 A3030 RMK SLP302 T00091088 52011 IEM_DS3505
ZBYN,1996-12-04 04:00,ZBYN 040400Z AUTO 23004KT 1/2SM 01/M05 A3027 RMK T00101050 IEM_DS3505
ZBYN,1996-12-04 05:00,ZBYN 040500Z AUTO 32002KT 4SM 03/M07 A3024 RMK T00301070 IEM_DS3505
ZBYN,1996-12-04 06:00,ZBYN 040600Z AUTO 32008KT 16SM 04/M13 A3024 RMK SLP281 T00361126 57016 IEM_DS3505
ZBYN,1996-12-04 07:00,ZBYN 040700Z AUTO 33014KT 6SM 03/M14 A3024 RMK T00301140 IEM_DS3505
ZBYN,1996-12-04 08:00,ZBYN 040800Z AUTO 32019KT 6SM 02/M15 A3027 RMK T00201150 IEM_DS3505
ZBYN,1996-12-04 09:00,ZBYN 040900Z AUTO 34012KT 16SM 01/M18 A3030 RMK SLP315 T00071176 52023 IEM_DS3505
ZBYN,1996-12-04 10:00,ZBYN 041000Z AUTO 30019KT 6SM M01/M20 A3036 RMK T10101200 IEM_DS3505
ZBYN,1996-12-04 11:00,ZBYN 041100Z AUTO 31016KT 7SM M02/M19 A3039 RMK T10201190 IEM_DS3505
ZBYN,1996-12-04 12:00,ZBYN 041200Z AUTO 32006KT 9SM M03/M21 A3045 RMK SLP362 T10341214 52035 IEM_DS3505
ZBYN,1996-12-04 13:00,ZBYN 041300Z AUTO 31010KT 7SM M04/M21 A3045 RMK T10401210 IEM_DS3505
ZBYN,1996-12-04 14:00,ZBYN 041400Z AUTO 31016KT 7SM M05/M21 A3047 RMK T10501210 IEM_DS3505
ZBYN,1996-12-04 15:00,ZBYN 041500Z AUTO 34006KT 7SM M06/M21 A3047 RMK SLP372 T10591213 52013 IEM_DS3505
ZBYN,1996-12-04 17:00,ZBYN 041700Z AUTO 31014KT 7SM M07/M24 A3047 RMK T10701240 IEM_DS3505
ZBYN,1996-12-04 18:00,ZBYN 041800Z AUTO 32010KT 6SM M08/M24 A3050 RMK SLP377 T10771241 52006 IEM_DS3505
ZBYN,1996-12-04 19:00,ZBYN 041900Z AUTO 31016KT 7SM M08/M22 A3047 RMK T10801220 IEM_DS3505
ZBYN,1996-12-04 20:00,ZBYN 042000Z AUTO 31016KT 7SM M09/M23 A3050 RMK T10901230 IEM_DS3505
ZBYN,1996-12-04 21:00,ZBYN 042100Z AUTO 32012KT 6SM M10/M25 A3050 RMK SLP387 T10971247 52001 IEM_DS3505
ZBYN,1996-12-04 22:00,ZBYN 042200Z AUTO 31016KT 7SM M10/M22 A3053 RMK T11001220 IEM_DS3505
ZBYN,1996-12-04 23:00,ZBYN 042300Z AUTO 31016KT 7SM M10/M25 A3053 RMK T11001250 IEM_DS3505
ZBYN,1996-12-05 00:00,ZBYN 050000Z AUTO 32010KT 12SM M11/M24 A3053 RMK SLP411 T11071235 52013 IEM_DS3505
ZBYN,1996-12-05 01:00,ZBYN 050100Z AUTO 30019KT 7SM M10/M25 A3053 RMK T11001250 IEM_DS3505
ZBYN,1996-12-05 02:00,ZBYN 050200Z AUTO 29017KT 7SM M08/M25 A3050 RMK T10801250 IEM_DS3505
ZBYN,1996-12-05 03:00,ZBYN 050300Z AUTO 32010KT 12SM M07/M23 A3050 RMK SLP396 T10701233 57012 IEM_DS3505
ZBYN,1996-12-05 04:00,ZBYN 050400Z AUTO 29019KT 7SM M06/M27 A3047 RMK T10601270 IEM_DS3505
ZBYN,1996-12-05 05:00,ZBYN 050500Z AUTO 30019KT 7SM M05/M24 A3042 RMK T10501240 IEM_DS3505
ZBYN,1996-12-05 06:00,ZBYN 050600Z AUTO 32019KT 12SM M05/M23 A3039 RMK SLP348 T10531228 57043 IEM_DS3505
ZBYN,1996-12-05 07:00,ZBYN 050700Z AUTO 31016KT 7SM M04/M27 A3036 RMK T10401270 IEM_DS3505
ZBYN,1996-12-05 08:00,ZBYN 050800Z AUTO 30016KT 7SM M04/M25 A3033 RMK T10401250 IEM_DS3505
ZBYN,1996-12-05 09:00,ZBYN 050900Z AUTO 22008KT 12SM M06/M25 A3033 RMK SLP342 T10601250 57010 IEM_DS3505
ZBYN,1996-12-05 10:00,ZBYN 051000Z AUTO 27019KT 7SM M06/M25 A3033 RMK T10601250 IEM_DS3505
ZBYN,1996-12-05 11:00,ZBYN 051100Z AUTO 27016KT 7SM M06/M24 A3033 RMK T10601240 IEM_DS3505
ZBYN,1996-12-05 12:00,ZBYN 051200Z AUTO 22006KT 9SM M06/M32 A3033 RMK SLP346 T10631317 52001 IEM_DS3505
ZBYN,1996-12-05 13:00,ZBYN 051300Z AUTO 27019KT 7SM M06/M24 A3033 RMK T10601240 IEM_DS3505
ZBYN,1996-12-05 14:00,ZBYN 051400Z AUTO 30019KT 7SM M07/M24 A3030 RMK T10701240 IEM_DS3505
ZBYN,1996-12-05 15:00,ZBYN 051500Z AUTO 32012KT 6SM M06/M24 A3033 RMK SLP339 T10641238 54000 IEM_DS3505
ZBYN,1996-12-05 16:00,ZBYN 051600Z AUTO 28019KT 7SM M06/M25 A3030 RMK T10601250 IEM_DS3505
ZBYN,1996-12-05 17:00,ZBYN 051700Z AUTO 27004KT 7SM M08/M24 A3030 RMK T10801240 IEM_DS3505
ZBYN,1996-12-05 18:00,ZBYN 051800Z AUTO 32004KT 6SM M08/M24 A3027 RMK SLP319 T10811238 57018 IEM_DS3505
ZBYN,1996-12-05 19:00,ZBYN 051900Z AUTO 27008KT 7SM M10/M24 A3024 RMK T11001240 IEM_DS3505
ZBYN,1996-12-05 20:00,ZBYN 052000Z AUTO 27016KT 7SM M10/M24 A3021 RMK T11001240 IEM_DS3505
ZBYN,1996-12-05 21:00,ZBYN 052100Z AUTO 22006KT 6SM M09/M23 A3018 RMK SLP295 T10881233 57024 IEM_DS3505
ZBYN,1996-12-05 22:00,ZBYN 052200Z AUTO 24010KT 7SM M09/M23 A3018 RMK T10901230 IEM_DS3505
ZBYN,1996-12-05 23:00,ZBYN 052300Z AUTO 24010KT 7SM M08/M23 A3021 RMK T10801230 IEM_DS3505
ZBYN,1996-12-06 00:00,ZBYN 060000Z AUTO 32008KT 6SM M06/M28 A3021 RMK SLP296 T10591276 52005 IEM_DS3505
ZBYN,1996-12-06 01:00,ZBYN 060100Z AUTO 26002KT 7SM M06/M23 A3024 RMK T10601230 IEM_DS3505
ZBYN,1996-12-06 02:00,ZBYN 060200Z AUTO 32019G31KT 7SM M04/M23 A3027 RMK T10401230 IEM_DS3505
ZBYN,1996-12-06 03:00,ZBYN 060300Z AUTO 32014KT 6SM M02/M20 A3027 RMK SLP309 T10241203 52018 IEM_DS3505
ZBYN,1996-12-06 04:00,ZBYN 060400Z AUTO 30021KT 7SM M01/M19 A3024 RMK T10101190 IEM_DS3505
ZBYN,1996-12-06 05:00,ZBYN 060500Z AUTO 30025KT 7SM M01/M18 A3021 RMK T10101180 IEM_DS3505
ZBYN,1996-12-06 06:00,ZBYN 060600Z AUTO 32014KT 6SM M00/M18 A3021 RMK SLP296 T10051175 57012 IEM_DS3505
ZBYN,1996-12-06 07:00,ZBYN 060700Z AUTO 29023KT 7SM 00/M15 A3024 RMK T00001150 IEM_DS3505
ZBYN,1996-12-06 09:00,ZBYN 060900Z AUTO 32010KT 6SM M02/M18 A3027 RMK SLP314 T10171183 52013 IEM_DS3505
ZBYN,1996-12-06 10:00,ZBYN 061000Z AUTO 27016KT 7SM M03/M17 A3027 RMK T10301170 IEM_DS3505
ZBYN,1996-12-06 11:00,ZBYN 061100Z AUTO 29010KT 7SM M03/M16 A3030 RMK T10301160 IEM_DS3505
ZBYN,1996-12-06 12:00,ZBYN 061200Z AUTO 22004KT 6SM M03/M18 A3030 RMK SLP329 T10301183 52017 IEM_DS3505
ZBYN,1996-12-06 13:00,ZBYN 061300Z AUTO 24008KT 7SM M04/M18 A3033 RMK T10401180 IEM_DS3505
ZBYN,1996-12-06 14:00,ZBYN 061400Z AUTO 26008KT 7SM M04/M16 A3033 RMK T10401160 IEM_DS3505
ZBYN,1996-12-06 15:00,ZBYN 061500Z AUTO 32004KT 6SM M03/M20 A3033 RMK SLP330 T10281196 52007 IEM_DS3505
ZBYN,1996-12-06 16:00,ZBYN 061600Z AUTO 24004KT 7SM M05/M17 A3033 RMK T10501170 IEM_DS3505
ZBYN,1996-12-06 17:00,ZBYN 061700Z AUTO 21004KT 7SM M07/M16 A3033 RMK T10701160 IEM_DS3505
ZBYN,1996-12-06 18:00,ZBYN 061800Z AUTO 32006KT 9SM M04/M18 A3033 RMK SLP327 T10411185 57002 IEM_DS3505
ZBYN,1996-12-06 19:00,ZBYN 061900Z AUTO 00000KT 7SM M07/M13 A3033 RMK T10701130 IEM_DS3505
ZBYN,1996-12-06 20:00,ZBYN 062000Z AUTO 10006KT 7SM M07/M13 A3030 RMK T10701130 IEM_DS3505
ZBYN,1996-12-06 21:00,ZBYN 062100Z AUTO 11004KT 9SM M09/M17 A3030 RMK SLP324 T10911169 57013 IEM_DS3505
ZBYN,1996-12-06 22:00,ZBYN 062200Z AUTO 10004KT 7SM M11/M16 A3030 RMK T11101160 IEM_DS3505
ZBYN,1996-12-06 23:00,ZBYN 062300Z AUTO 09006KT 7SM M11/M16 A3033 RMK T11101160 IEM_DS3505
ZBYN,1996-12-07 00:00,ZBYN 070000Z AUTO 00000KT 7SM M11/M16 A3033 RMK SLP342 T11121165 52010 IEM_DS3505
ZBYN,1996-12-07 01:00,ZBYN 070100Z AUTO 00000KT 7SM M08/M16 A3033 RMK T10801160 IEM_DS3505
ZBYN,1996-12-07 02:00,ZBYN 070200Z AUTO 00000KT 7SM M03/M16 A3036 RMK T10301160 IEM_DS3505
ZBYN,1996-12-07 03:00,ZBYN 070300Z AUTO 16006KT 7SM M01/M16 A3033 RMK SLP323 T10101157 52001 IEM_DS3505
ZBYN,1996-12-07 04:00,ZBYN 070400Z AUTO 20004KT 7SM 02/M14 A3027 RMK T00201140 IEM_DS3505
ZBYN,1996-12-07 05:00,ZBYN 070500Z AUTO 25012KT 7SM 03/M16 A3024 RMK T00301160 IEM_DS3505
ZBYN,1996-12-07 06:00,ZBYN 070600Z AUTO 18008KT 6SM 04/M12 A3021 RMK SLP278 T00361119 57036 IEM_DS3505
ZBYN,1996-12-07 07:00,ZBYN 070700Z AUTO 23010KT 6SM 04/M16 A3018 RMK T00401160 IEM_DS3505
ZBYN,1996-12-07 08:00,ZBYN 070800Z AUTO 23014KT 6SM 04/M16 A3018 RMK T00401160 IEM_DS3505
ZBYN,1996-12-07 09:00,ZBYN 070900Z AUTO 18004KT 9SM 02/ A3015 RMK SLP271 57018 IEM_DS3505
ZBYN,1996-12-07 10:00,ZBYN 071000Z AUTO 12004KT 6SM M01/M06 A3015 RMK T10101060 IEM_DS3505
ZBYN,1996-12-07 11:00,ZBYN 071100Z AUTO 11004KT 6SM M03/M06 A3018 RMK T10301060 IEM_DS3505
ZBYN,1996-12-07 12:00,ZBYN 071200Z AUTO 00000KT 7SM M01/M13 A3018 RMK SLP292 T10111132 52011 IEM_DS3505
ZBYN,1996-12-07 13:00,ZBYN 071300Z AUTO 00000KT 7SM M04/M13 A3021 RMK T10401130 IEM_DS3505
ZBYN,1996-12-07 14:00,ZBYN 071400Z AUTO 00000KT 7SM M05/M14 A3024 RMK T10501140 IEM_DS3505
ZBYN,1996-12-07 15:00,ZBYN 071500Z AUTO 00000KT 6SM M04/M12 A3024 RMK SLP297 T10391125 52017 IEM_DS3505
ZBYN,1996-12-07 16:00,ZBYN 071600Z AUTO 00000KT 7SM M06/M13 A3024 RMK T10601130 IEM_DS3505
ZBYN,1996-12-07 17:00,ZBYN 071700Z AUTO 10006KT 7SM M06/M13 A3024 RMK T10601130 IEM_DS3505
ZBYN,1996-12-07 18:00,ZBYN 071800Z AUTO 11002KT 6SM M06/M14 A3024 RMK SLP290 T10571144 57001 IEM_DS3505
ZBYN,1996-12-07 19:00,ZBYN 071900Z AUTO 09006KT 7SM M07/M13 A3024 RMK T10701130 IEM_DS3505
ZBYN,1996-12-07 20:00,ZBYN 072000Z AUTO 08004KT 7SM M07/M13 A3024 RMK T10701130 IEM_DS3505
ZBYN,1996-12-07 21:00,ZBYN 072100Z AUTO 14002KT 6SM M09/M15 A3024 RMK SLP294 T10941147 57006 IEM_DS3505
ZBYN,1996-12-07 22:00,ZBYN 072200Z AUTO 09006KT 7SM M10/M14 A3024 RMK T11001140 IEM_DS3505
ZBYN,1996-12-07 23:00,ZBYN 072300Z AUTO 10006KT 7SM M10/M13 A3024 RMK T11001130 IEM_DS3505
ZBYN,1996-12-08 00:00,ZBYN 080000Z AUTO 14002KT 6SM M10/M15 A3027 RMK SLP315 T11021146 52013 IEM_DS3505
ZBYN,1996-12-08 01:00,ZBYN 080100Z AUTO 09002KT 5SM M07/M12 A3030 RMK T10701120 IEM_DS3505
ZBYN,1996-12-08 02:00,ZBYN 080200Z AUTO 16006KT 7SM M02/M13 A3030 RMK T10201130 IEM_DS3505
ZBYN,1996-12-08 03:00,ZBYN 080300Z AUTO 18008KT 6SM 01/M12 A3030 RMK SLP307 T00081122 52005 IEM_DS3505
ZBYN,1996-12-08 04:00,ZBYN 080400Z AUTO 23008KT 7SM 03/M14 A3027 RMK T00301140 IEM_DS3505
ZBYN,1996-12-08 05:00,ZBYN 080500Z AUTO 21010KT 7SM 05/M16 A3024 RMK T00501160 IEM_DS3505
ZBYN,1996-12-08 06:00,ZBYN 080600Z AUTO 20008KT 6SM 04/M16 A3021 RMK SLP282 T00421156 57020 IEM_DS3505
ZBYN,1996-12-08 07:00,ZBYN 080700Z AUTO 23012KT 6SM 04/M18 A3021 RMK T00401180 IEM_DS3505
ZBYN,1996-12-08 08:00,ZBYN 080800Z AUTO 23010KT 6SM 03/M15 A3018 RMK T00301150 IEM_DS3505
ZBYN,1996-12-08 09:00,ZBYN 080900Z AUTO 22004KT 7SM 03/M14 A3018 RMK SLP280 T00261139 57010 IEM_DS3505
ZBYN,1996-12-08 10:00,ZBYN 081000Z AUTO 00000KT 6SM 00/M17 A3021 RMK T00001170 IEM_DS3505
ZBYN,1996-12-08 11:00,ZBYN 081100Z AUTO 33012KT 6SM 01/M17 A3024 RMK T00101170 IEM_DS3505
ZBYN,1996-12-08 12:00,ZBYN 081200Z AUTO 34004KT 6SM 00/M15 A3027 RMK SLP314 T00001154 52025 IEM_DS3505
ZBYN,1996-12-08 13:00,ZBYN 081300Z AUTO 31012KT 7SM 00/M17 A3027 RMK T00001170 IEM_DS3505
ZBYN,1996-12-08 14:00,ZBYN 081400Z AUTO 31014KT 7SM 00/M18 A3030 RMK T00001180 IEM_DS3505
ZBYN,1996-12-08 15:00,ZBYN 081500Z AUTO 22004KT 6SM M03/M17 A3030 RMK SLP312 T10261173 52012 IEM_DS3505
ZBYN,1996-12-08 16:00,ZBYN 081600Z AUTO 21004KT 7SM M04/M14 A3030 RMK T10401140 IEM_DS3505
ZBYN,1996-12-08 17:00,ZBYN 081700Z AUTO 00000KT 7SM M05/M15 A3030 RMK T10501150 IEM_DS3505
ZBYN,1996-12-08 18:00,ZBYN 081800Z AUTO 32006KT 6SM M04/M15 A3027 RMK SLP300 T10451148 57008 IEM_DS3505
ZBYN,1996-12-08 19:00,ZBYN 081900Z AUTO 17006KT 7SM M07/M16 A3027 RMK T10701160 IEM_DS3505
ZBYN,1996-12-08 20:00,ZBYN 082000Z AUTO 23006KT 7SM M06/M14 A3027 RMK T10601140 IEM_DS3505
ZBYN,1996-12-08 21:00,ZBYN 082100Z AUTO 22002KT 6SM M06/M15 A3027 RMK SLP299 T10621147 57007 IEM_DS3505
ZBYN,1996-12-08 22:00,ZBYN 082200Z AUTO 19006KT 7SM M07/M15 A3027 RMK T10701150 IEM_DS3505
ZBYN,1996-12-08 23:00,ZBYN 082300Z AUTO 12002KT 7SM M08/M15 A3027 RMK T10801150 IEM_DS3505
ZBYN,1996-12-09 00:00,ZBYN 090000Z AUTO 32008KT 6SM M03/M15 A3027 RMK SLP299 T10341147 52001 IEM_DS3505
ZBYN,1996-12-09 01:00,ZBYN 090100Z AUTO 19004KT 6SM M04/M14 A3027 RMK T10401140 IEM_DS3505
ZBYN,1996-12-09 02:00,ZBYN 090200Z AUTO 24012KT 6SM M02/M15 A3027 RMK T10201150 IEM_DS3505
ZBYN,1996-12-09 03:00,ZBYN 090300Z AUTO 20004KT 6SM 01/M14 A3027 RMK SLP296 T00061139 57001 IEM_DS3505
ZBYN,1996-12-09 04:00,ZBYN 090400Z AUTO 00000KT 6SM 03/M17 A3024 RMK T00301170 IEM_DS3505
ZBYN,1996-12-09 05:00,ZBYN 090500Z AUTO 30021KT 7SM 04/M15 A3021 RMK T00401150 IEM_DS3505
ZBYN,1996-12-09 06:00,ZBYN 090600Z AUTO 32006KT 6SM 04/M12 A3018 RMK SLP262 T00451116 57027 IEM_DS3505
ZBYN,1996-12-09 07:00,ZBYN 090700Z AUTO 30019KT 7SM 05/M18 A3018 RMK T00501180 IEM_DS3505
ZBYN,1996-12-09 08:00,ZBYN 090800Z AUTO 29017KT 7SM 04/M18 A3018 RMK T00401180 IEM_DS3505
ZBYN,1996-12-09 09:00,ZBYN 090900Z AUTO 32006KT 6SM A3018 RMK SLP277 52007 IEM_DS3505
ZBYN,1996-12-09 10:00,ZBYN 091000Z AUTO 30006KT 7SM 01/M17 A3021 RMK T00101170 IEM_DS3505
ZBYN,1996-12-09 11:00,ZBYN 091100Z AUTO 32004KT 6SM 00/M17 A3021 RMK T00001170 52015 IEM_DS3505
ZBYN,1996-12-09 12:00,ZBYN 091200Z AUTO 32004KT 6SM M01/M16 A3024 RMK SLP294 T10061162 52015 IEM_DS3505
ZBYN,1996-12-09 13:00,ZBYN 091300Z AUTO 28012KT 7SM M01/M15 A3024 RMK T10101150 IEM_DS3505
ZBYN,1996-12-09 14:00,ZBYN 091400Z AUTO 27006KT 7SM M03/M12 A3024 RMK T10301120 IEM_DS3505
ZBYN,1996-12-09 15:00,ZBYN 091500Z AUTO 22002KT 6SM M03/M14 A3024 RMK SLP296 T10321143 52004 IEM_DS3505
ZBYN,1996-12-09 16:00,ZBYN 091600Z AUTO 27004KT 6SM M04/M14 A3024 RMK T10401140 IEM_DS3505
ZBYN,1996-12-09 17:00,ZBYN 091700Z AUTO 00000KT 6SM M05/M14 A3024 RMK T10501140 IEM_DS3505
ZBYN,1996-12-09 18:00,ZBYN 091800Z AUTO 14004KT 6SM M05/M15 A3021 RMK SLP278 T10521148 57013 IEM_DS3505
ZBYN,1996-12-09 19:00,ZBYN 091900Z AUTO 18004KT 7SM M05/M14 A3021 RMK T10501140 IEM_DS3505
ZBYN,1996-12-09 20:00,ZBYN 092000Z AUTO 00000KT 7SM M05/M14 A3018 RMK T10501140 IEM_DS3505
ZBYN,1996-12-09 21:00,ZBYN 092100Z AUTO 09002KT 6SM M07/M14 A3018 RMK SLP274 T10741141 57011 IEM_DS3505
ZBYN,1996-12-09 22:00,ZBYN 092200Z AUTO 00000KT 7SM M08/M14 A3018 RMK T10801140 IEM_DS3505
ZBYN,1996-12-09 23:00,ZBYN 092300Z AUTO 00000KT 7SM M08/M14 A3018 RMK T10801140 IEM_DS3505
ZBYN,1996-12-10 00:00,ZBYN 100000Z AUTO 22002KT 6SM M06/M14 A3018 RMK SLP278 T10551141 52002 IEM_DS3505
ZBYN,1996-12-10 01:00,ZBYN 100100Z AUTO 23002KT 7SM M03/M14 A3021 RMK T10301140 IEM_DS3505
ZBYN,1996-12-10 02:00,ZBYN 100200Z AUTO 27004KT 7SM 00/M13 A3021 RMK T00001130 IEM_DS3505
ZBYN,1996-12-10 03:00,ZBYN 100300Z AUTO 32010KT 6SM 03/M10 A3021 RMK SLP272 T00321105 52005 IEM_DS3505
ZBYN,1996-12-10 04:00,ZBYN 100400Z AUTO 32012KT 7SM 04/M09 A3018 RMK T00401090 IEM_DS3505
ZBYN,1996-12-10 05:00,ZBYN 100500Z AUTO 31010KT 7SM 05/M15 A3012 RMK T00501150 IEM_DS3505
ZBYN,1996-12-10 06:00,ZBYN 100600Z AUTO 32004KT 6SM 06/M10 A3012 RMK SLP241 T00561103 57028 IEM_DS3505
ZBYN,1996-12-10 07:00,ZBYN 100700Z AUTO 32012KT 7SM 06/M12 A3012 RMK T00601120 IEM_DS3505
ZBYN,1996-12-10 09:00,ZBYN 100900Z AUTO 32006KT 6SM 04/M14 A3012 RMK SLP260 T00351144 52010 IEM_DS3505
ZBYN,1996-12-10 10:00,ZBYN 101000Z AUTO 32008KT 7SM 02/M13 A3015 RMK T00201130 IEM_DS3505
ZBYN,1996-12-10 11:00,ZBYN 101100Z AUTO 31017KT 7SM 02/M16 A3018 RMK T00201160 IEM_DS3505
ZBYN,1996-12-10 12:00,ZBYN 101200Z AUTO 32006KT 6SM 00/M16 A3021 RMK SLP291 T00021156 52026 IEM_DS3505
ZBYN,1996-12-10 15:00,ZBYN 101500Z AUTO 00000KT 9SM M02/M13 RMK SLP292 T10241127 52011 IEM_DS3505
ZBYN,1996-12-10 18:00,ZBYN 101800Z AUTO 16004KT 9SM M06/M13 A3025 RMK SLP289 T10581134 57004 IEM_DS3505
ZBYN,1996-12-10 21:00,ZBYN 102100Z AUTO 09002KT 9SM M08/M13 RMK SLP292 T10791132 57004 IEM_DS3505
ZBYN,1996-12-10 22:00,ZBYN 102200Z AUTO 09004KT 7SM M05/M15 A3021 RMK T10501150 IEM_DS3505
ZBYN,1996-12-10 23:00,ZBYN 102300Z AUTO 00000KT 7SM M08/M16 A3021 RMK T10801160 IEM_DS3505
ZBYN,1996-12-11 00:00,ZBYN 110000Z AUTO 18002KT 6SM M10/M13 A3021 RMK SLP306 T10961127 52004 IEM_DS3505
ZBYN,1996-12-11 01:00,ZBYN 110100Z AUTO 12006KT 2SM M06/M14 A3024 RMK T10601140 IEM_DS3505
ZBYN,1996-12-11 02:00,ZBYN 110200Z AUTO 19006KT 2 1/2SM M02/M14 A3024 RMK T10201140 IEM_DS3505
ZBYN,1996-12-11 03:00,ZBYN 110300Z AUTO 11002KT 6SM M00/M11 A3021 RMK SLP297 T10041112 52003 IEM_DS3505
ZBYN,1996-12-11 04:00,ZBYN 110400Z AUTO 21006KT 7SM 02/M12 A3021 RMK T00201120 IEM_DS3505
ZBYN,1996-12-11 05:00,ZBYN 110500Z AUTO 24010KT 7SM 04/M12 A3015 RMK T00401120 IEM_DS3505
ZBYN,1996-12-11 06:00,ZBYN 110600Z AUTO 20006KT 6SM 06/M14 A3012 RMK SLP255 T00551142 57034 IEM_DS3505
ZBYN,1996-12-11 07:00,ZBYN 110700Z AUTO 24010KT 7SM 06/M16 A3009 RMK T00601160 IEM_DS3505
ZBYN,1996-12-11 08:00,ZBYN 110800Z AUTO 23010KT 7SM 06/M16 A3009 RMK T00601160 IEM_DS3505
ZBYN,1996-12-11 09:00,ZBYN 110900Z AUTO 20004KT 9SM 04/M12 A3009 RMK SLP251 T00441123 57009 IEM_DS3505
ZBYN,1996-12-11 10:00,ZBYN 111000Z AUTO 32004KT 6SM 04/M14 A3009 RMK T00401140 IEM_DS3505
ZBYN,1996-12-11 11:00,ZBYN 111100Z AUTO 33008KT 6SM 03/M16 A3009 RMK T00301160 IEM_DS3505
ZBYN,1996-12-11 12:00,ZBYN 111200Z AUTO 22002KT 6SM 00/M12 A3012 RMK SLP281 T00011119 52017 IEM_DS3505
ZBYN,1996-12-11 13:00,ZBYN 111300Z AUTO 34004KT 6SM 03/M14 A3015 RMK T00301140 IEM_DS3505
ZBYN,1996-12-11 14:00,ZBYN 111400Z AUTO 12006KT 6SM 00/M13 A3015 RMK T00001130 IEM_DS3505
ZBYN,1996-12-11 15:00,ZBYN 111500Z AUTO 09002KT 6SM M02/M13 A3015 RMK SLP273 T10181133 52005 IEM_DS3505
ZBYN,1996-12-11 17:00,ZBYN 111700Z AUTO 08004KT 7SM M03/M14 A3015 RMK T10301140 IEM_DS3505
ZBYN,1996-12-11 18:00,ZBYN 111800Z AUTO 09002KT 6SM M02/M13 RMK SLP273 T10181133 52005 IEM_DS3505
ZBYN,1996-12-11 19:00,ZBYN 111900Z AUTO 09008KT 7SM M04/M15 A3015 RMK T10401150 IEM_DS3505
ZBYN,1996-12-11 21:00,ZBYN 112100Z AUTO 02002KT 6SM M08/M15 A3015 RMK SLP269 T10821148 57009 IEM_DS3505
ZBYN,1996-12-11 22:00,ZBYN 112200Z AUTO 09004KT 7SM M04/M14 A3015 RMK T10401140 IEM_DS3505
ZBYN,1996-12-11 23:00,ZBYN 112300Z AUTO 09004KT 7SM M05/M14 A3015 RMK T10501140 IEM_DS3505
ZBYN,1996-12-12 00:00,ZBYN 120000Z AUTO 00000KT 6SM M08/M13 A3015 RMK SLP282 T10781130 52005 IEM_DS3505
ZBYN,1996-12-12 01:00,ZBYN 120100Z AUTO 00000KT 6SM M08/M13 A3019 RMK SLP282 T10781130 52005 IEM_DS3505
ZBYN,1996-12-12 02:00,ZBYN 120200Z AUTO 00000KT 4SM M01/M13 A3018 RMK T10101130 IEM_DS3505
ZBYN,1996-12-12 03:00,ZBYN 120300Z AUTO 16004KT 5SM 01/M13 A3018 RMK SLP283 T00091126 52012 IEM_DS3505
ZBYN,1996-12-12 05:00,ZBYN 120500Z AUTO 23014KT 7SM 05/M16 A3012 RMK T00501160 IEM_DS3505
ZBYN,1996-12-12 06:00,ZBYN 120600Z AUTO 18006KT 5SM 07/M16 A3006 RMK SLP235 T00661163 57041 IEM_DS3505
ZBYN,1996-12-12 07:00,ZBYN 120700Z AUTO 23016KT 7SM 07/M19 A3003 RMK T00701190 IEM_DS3505
ZBYN,1996-12-12 08:00,ZBYN 120800Z AUTO 21012KT 7SM 08/M18 A3003 RMK T00801180 IEM_DS3505
ZBYN,1996-12-12 09:00,ZBYN 120900Z AUTO 22004KT 9SM 05/M16 A3003 RMK SLP232 T00501155 57009 IEM_DS3505
ZBYN,1996-12-12 10:00,ZBYN 121000Z AUTO 18004KT 7SM 03/M12 A3003 RMK T00301120 IEM_DS3505
ZBYN,1996-12-12 11:00,ZBYN 121100Z AUTO 21004KT 7SM 03/M13 A3006 RMK T00301130 IEM_DS3505
ZBYN,1996-12-12 12:00,ZBYN 121200Z AUTO 11002KT 7SM M02/M13 A3006 RMK SLP249 T10151133 52005 IEM_DS3505
ZBYN,1996-12-12 13:00,ZBYN 121300Z AUTO 12002KT 7SM M01/M16 A3006 RMK T10101160 IEM_DS3505
ZBYN,1996-12-12 14:00,ZBYN 121400Z AUTO 09004KT 7SM M03/M14 A3006 RMK T10301140 IEM_DS3505
ZBYN,1996-12-12 15:00,ZBYN 121500Z AUTO 14006KT 6SM M03/M15 A3006 RMK SLP235 T10311153 54000 IEM_DS3505
ZBYN,1996-12-12 16:00,ZBYN 121600Z AUTO 11006KT 7SM M02/M14 A3006 RMK T10201140 IEM_DS3505
ZBYN,1996-12-12 17:00,ZBYN 121700Z AUTO 00000KT 7SM M02/M17 A3006 RMK T10201170 IEM_DS3505
ZBYN,1996-12-12 18:00,ZBYN 121800Z AUTO 00000KT 6SM M06/M15 A3007 RMK SLP225 T10601149 57005 IEM_DS3505
ZBYN,1996-12-12 21:00,ZBYN 122100Z AUTO 14002KT 6SM M07/M14 RMK SLP227 T10701135 57002 IEM_DS3505
ZBYN,1996-12-12 22:00,ZBYN 122200Z AUTO 08008KT 7SM M05/M16 A3003 RMK T10501160 IEM_DS3505
ZBYN,1996-12-12 23:00,ZBYN 122300Z AUTO 00000KT 7SM M06/M15 A3006 RMK T10601150 IEM_DS3505
ZBYN,1996-12-13 00:00,ZBYN 130000Z AUTO 04002KT 6SM M09/M14 A3006 RMK SLP260 T10881139 52016 IEM_DS3505
ZBYN,1996-12-13 01:00,ZBYN 130100Z AUTO 31004KT 1SM M06/M13 A3009 RMK T10601130 IEM_DS3505
ZBYN,1996-12-13 02:00,ZBYN 130200Z AUTO 29004KT 1SM M01/M12 A3009 RMK T10101120 IEM_DS3505
ZBYN,1996-12-13 03:00,ZBYN 130300Z AUTO 18002KT 6SM 03/M13 A3009 RMK SLP246 T00301127 52004 IEM_DS3505
ZBYN,1996-12-13 04:00,ZBYN 130400Z AUTO 19004KT 3SM 05/M16 A3006 RMK T00501160 IEM_DS3505
ZBYN,1996-12-13 05:00,ZBYN 130500Z AUTO 00000KT 5SM 07/M13 A3003 RMK T00701130 IEM_DS3505
ZBYN,1996-12-13 06:00,ZBYN 130600Z AUTO 18002KT 6SM 08/M16 A3003 RMK SLP214 T00831158 57025 IEM_DS3505
ZBYN,1996-12-13 07:00,ZBYN 130700Z AUTO 24008KT 7SM 09/M13 A3000 RMK T00901130 IEM_DS3505
ZBYN,1996-12-13 08:00,ZBYN 130800Z AUTO 23006KT 7SM 10/M15 A2997 RMK T01001150 IEM_DS3505
ZBYN,1996-12-13 09:00,ZBYN 130900Z AUTO 00000KT 6SM 06/M12 A2997 RMK SLP204 T00621117 57014 IEM_DS3505
ZBYN,1996-12-13 10:00,ZBYN 131000Z AUTO 00000KT 7SM 04/M12 A2997 RMK T00401120 IEM_DS3505
ZBYN,1996-12-13 11:00,ZBYN 131100Z AUTO 02004KT 7SM 01/M12 A3000 RMK T00101120 IEM_DS3505
ZBYN,1996-12-13 12:00,ZBYN 131200Z AUTO 11002KT 6SM M01/M12 A3005 RMK SLP236 T10131123 52013 IEM_DS3505
ZBYN,1996-12-13 13:00,ZBYN 131300Z AUTO 09004KT 7SM 00/M14 A3003 RMK T00001140 IEM_DS3505
ZBYN,1996-12-13 14:00,ZBYN 131400Z AUTO 09006KT 7SM 00/M15 A3003 RMK T00001150 IEM_DS3505
ZBYN,1996-12-13 15:00,ZBYN 131500Z AUTO 14002KT 6SM M05/M14 A3006 RMK SLP238 T10521135 52015 IEM_DS3505
ZBYN,1996-12-13 16:00,ZBYN 131600Z AUTO 06004KT 7SM M03/M14 A3006 RMK T10301140 IEM_DS3505
ZBYN,1996-12-13 17:00,ZBYN 131700Z AUTO 09008KT 7SM M03/M13 A3006 RMK T10301130 IEM_DS3505
ZBYN,1996-12-13 18:00,ZBYN 131800Z AUTO 00000KT 6SM M06/M12 A3003 RMK SLP225 T10581117 57004 IEM_DS3505
ZBYN,1996-12-13 19:00,ZBYN 131900Z AUTO 08006KT 7SM M03/M13 A3006 RMK T10301130 IEM_DS3505
ZBYN,1996-12-13 20:00,ZBYN 132000Z AUTO 07002KT 7SM M05/M14 A3003 RMK T10501140 IEM_DS3505
ZBYN,1996-12-13 21:00,ZBYN 132100Z AUTO 32002KT 6SM M06/M11 A3006 RMK SLP231 T10651112 52001 IEM_DS3505
ZBYN,1996-12-13 22:00,ZBYN 132200Z AUTO 00000KT 7SM M08/M16 A3006 RMK T10801160 IEM_DS3505
ZBYN,1996-12-13 23:00,ZBYN 132300Z AUTO 00000KT 6SM M08/M14 A3006 RMK T10801140 IEM_DS3505
ZBYN,1996-12-14 00:00,ZBYN 140000Z AUTO 34002KT 6SM M07/M14 A3006 RMK SLP252 T10741136 52005 IEM_DS3505
ZBYN,1996-12-14 01:00,ZBYN 140100Z AUTO 00000KT 4SM M07/M15 A3006 RMK T10701150 IEM_DS3505
ZBYN,1996-12-14 02:00,ZBYN 140200Z AUTO 16004KT 4SM M02/M14 A3006 RMK T10201140 IEM_DS3505
ZBYN,1996-12-14 03:00,ZBYN 140300Z AUTO 34002KT 6SM 01/M10 A3006 RMK SLP249 T00081100 52002 IEM_DS3505
ZBYN,1996-12-14 04:00,ZBYN 140400Z AUTO 00000KT 2 1/2SM 04/M13 A3006 RMK T00401130 IEM_DS3505
ZBYN,1996-12-14 05:00,ZBYN 140500Z AUTO 17004KT 4SM 05/M10 A3003 RMK T00501100 IEM_DS3505
ZBYN,1996-12-14 06:00,ZBYN 140600Z AUTO 18002KT 6SM 07/M12 A3000 RMK SLP209 T00671124 57028 IEM_DS3505
ZBYN,1996-12-14 07:00,ZBYN 140700Z AUTO 17002KT 6SM 08/M18 A2997 RMK T00801180 IEM_DS3505
ZBYN,1996-12-14 08:00,ZBYN 140800Z AUTO 15002KT 6SM 08/M15 A2997 RMK T00801150 IEM_DS3505
ZBYN,1996-12-14 09:00,ZBYN 140900Z AUTO 34002KT 6SM 05/M13 A2997 RMK SLP207 T00501127 57006 IEM_DS3505
ZBYN,1996-12-14 10:00,ZBYN 141000Z AUTO 00000KT 6SM 05/M17 A2997 RMK T00501170 IEM_DS3505
ZBYN,1996-12-14 12:00,ZBYN 141200Z AUTO 00000KT 6SM M02/M11 A3003 RMK SLP237 T10161112 52015 IEM_DS3505
ZBYN,1996-12-14 13:00,ZBYN 141300Z AUTO 10004KT 7SM 00/M17 A3003 RMK T00001170 IEM_DS3505
ZBYN,1996-12-14 14:00,ZBYN 141400Z AUTO 06004KT 6SM M03/M17 A3006 RMK T10301170 IEM_DS3505
ZBYN,1996-12-14 15:00,ZBYN 141500Z AUTO 32002KT 6SM M05/M10 A3006 RMK SLP244 T10501096 52014 IEM_DS3505
ZBYN,1996-12-14 16:00,ZBYN 141600Z AUTO 00000KT 6SM M04/M16 A3003 RMK T10401160 IEM_DS3505
ZBYN,1996-12-14 17:00,ZBYN 141700Z AUTO 00000KT 6SM M05/M16 A3003 RMK T10501160 IEM_DS3505
ZBYN,1996-12-14 18:00,ZBYN 141800Z AUTO 00000KT 6SM M06/M11 A3003 RMK SLP230 T10641106 57005 IEM_DS3505
ZBYN,1996-12-14 19:00,ZBYN 141900Z AUTO 00000KT 6SM M05/M16 A3003 RMK T10501160 IEM_DS3505
ZBYN,1996-12-14 20:00,ZBYN 142000Z AUTO 00000KT 6SM M06/M16 A3003 RMK T10601160 IEM_DS3505
ZBYN,1996-12-14 21:00,ZBYN 142100Z AUTO 00000KT 6SM M07/M12 A3003 RMK SLP231 T10741125 57003 IEM_DS3505
ZBYN,1996-12-14 22:00,ZBYN 142200Z AUTO 00000KT 6SM M07/M12 A3006 RMK T10701120 IEM_DS3505
ZBYN,1996-12-14 23:00,ZBYN 142300Z AUTO 00000KT 5SM M06/M13 A3006 RMK T10601130 IEM_DS3505
ZBYN,1996-12-15 00:00,ZBYN 150000Z AUTO 00000KT 4SM M06/M13 A3006 RMK SLP254 T10571132 52012 IEM_DS3505
ZBYN,1996-12-15 01:00,ZBYN 150100Z AUTO 00000KT 2SM M05/M10 A3009 RMK T10501100 IEM_DS3505
ZBYN,1996-12-15 02:00,ZBYN 150200Z AUTO 00000KT 1 1/4SM M03/M15 A3009 RMK T10301150 IEM_DS3505
ZBYN,1996-12-15 03:00,ZBYN 150300Z AUTO 14002KT 4SM 02/M13 A3009 RMK SLP251 T00181131 52004 IEM_DS3505
ZBYN,1996-12-15 04:00,ZBYN 150400Z AUTO 00000KT 2SM 06/M16 A3006 RMK T00601160 IEM_DS3505
ZBYN,1996-12-15 06:00,ZBYN 150600Z AUTO 16006KT 4SM 08/M11 A3003 RMK SLP215 T00751111 57025 IEM_DS3505
ZBYN,1996-12-15 07:00,ZBYN 150700Z AUTO 20004KT 2SM 07/M10 A3003 RMK T00701100 IEM_DS3505
ZBYN,1996-12-15 08:00,ZBYN 150800Z AUTO 00000KT 2SM 08/M12 A3003 RMK T00801120 IEM_DS3505
ZBYN,1996-12-15 09:00,ZBYN 150900Z AUTO 09002KT 4SM 04/M11 A3003 RMK SLP233 T00381112 52008 IEM_DS3505
ZBYN,1996-12-15 10:00,ZBYN 151000Z AUTO 00000KT 2SM 05/M13 A3006 RMK T00501130 IEM_DS3505
ZBYN,1996-12-15 11:00,ZBYN 151100Z AUTO 03008KT 2SM 02/M15 A3009 RMK T00201150 IEM_DS3505
ZBYN,1996-12-15 12:00,ZBYN 151200Z AUTO 32008KT 6SM 06/M13 A3015 RMK SLP269 T00571131 52039 IEM_DS3505
ZBYN,1996-12-15 13:00,ZBYN 151300Z AUTO 36012KT 5SM 02/M16 A3018 RMK T00201160 IEM_DS3505
ZBYN,1996-12-15 14:00,ZBYN 151400Z AUTO 17004KT 6SM 02/M14 A3021 RMK T00201140 IEM_DS3505
ZBYN,1996-12-15 15:00,ZBYN 151500Z AUTO 32002KT 6SM 01/M13 A3021 RMK SLP287 T00111127 52021 IEM_DS3505
ZBYN,1996-12-15 16:00,ZBYN 151600Z AUTO 00000KT 7SM M01/M17 A3021 RMK T10101170 IEM_DS3505
ZBYN,1996-12-15 17:00,ZBYN 151700Z AUTO 32010KT 7SM M03/M18 A3021 RMK T10301180 IEM_DS3505
ZBYN,1996-12-15 18:00,ZBYN 151800Z AUTO 32006KT 6SM 01/M10 A3024 RMK SLP287 T00111105 52009 IEM_DS3505
ZBYN,1996-12-15 19:00,ZBYN 151900Z AUTO 00000KT 7SM M04/M16 A3027 RMK T10401160 IEM_DS3505
ZBYN,1996-12-15 20:00,ZBYN 152000Z AUTO 36008KT 7SM M05/M16 A3027 RMK T10501160 IEM_DS3505
ZBYN,1996-12-15 21:00,ZBYN 152100Z AUTO 32008KT 6SM M00/M10 A3027 RMK SLP301 T10021102 52005 IEM_DS3505
ZBYN,1996-12-15 22:00,ZBYN 152200Z AUTO 36012KT 7SM M04/M16 A3027 RMK T10401160 IEM_DS3505
ZBYN,1996-12-15 23:00,ZBYN 152300Z AUTO 36012KT 6SM M02/M14 A3027 RMK T10201140 IEM_DS3505
ZBYN,1996-12-16 00:00,ZBYN 160000Z AUTO 32004KT 9SM M01/M12 A3030 RMK SLP301 T10141117 52001 IEM_DS3505
ZBYN,1996-12-16 02:00,ZBYN 160200Z AUTO 36008KT 4SM 01/M13 A3033 RMK T00101130 IEM_DS3505
ZBYN,1996-12-16 03:00,ZBYN 160300Z AUTO 34004KT 9SM 02/M12 RMK SLP313 T00241124 52010 IEM_DS3505
ZBYN,1996-12-16 04:00,ZBYN 160400Z AUTO 32006KT 6SM 05/M12 A3033 RMK T00501120 IEM_DS3505
ZBYN,1996-12-16 06:00,ZBYN 160600Z AUTO 16006KT 6SM 05/M12 A3021 RMK SLP275 T00501122 57031 IEM_DS3505
ZBYN,1996-12-16 07:00,ZBYN 160700Z AUTO 23006KT 6SM 06/M14 A3021 RMK T00601140 IEM_DS3505
ZBYN,1996-12-16 09:00,ZBYN 160900Z AUTO 16004KT 5SM 03/M13 RMK SLP284 T00321126 52004 IEM_DS3505
ZBYN,1996-12-16 10:00,ZBYN 161000Z AUTO 00000KT 6SM 04/M12 A3024 RMK T00401120 IEM_DS3505
ZBYN,1996-12-16 11:00,ZBYN 161100Z AUTO 22006KT 6SM 03/M12 A3024 RMK T00301120 IEM_DS3505
ZBYN,1996-12-16 12:00,ZBYN 161200Z AUTO 32004KT 6SM 03/M10 A3027 RMK SLP306 T00291104 52017 IEM_DS3505
ZBYN,1996-12-16 13:00,ZBYN 161300Z AUTO 33008KT 6SM 04/M13 A3030 RMK T00401130 IEM_DS3505
ZBYN,1996-12-16 15:00,ZBYN 161500Z AUTO 32006KT 6SM 01/M14 RMK SLP324 T00081135 52019 IEM_DS3505
ZBYN,1996-12-16 18:00,ZBYN 161800Z AUTO 32006KT 6SM M03/M16 A3042 RMK SLP343 T10291165 52016 IEM_DS3505
ZBYN,1996-12-16 21:00,ZBYN 162100Z AUTO 32006KT 6SM M06/M17 RMK SLP379 T10621168 52024 IEM_DS3505
ZBYN,1996-12-17 00:00,ZBYN 170000Z AUTO 32008KT 12SM M08/M17 A3053 RMK SLP405 T10761172 52021 IEM_DS3505
ZBYN,1996-12-17 01:00,ZBYN 170100Z AUTO 04010KT 7SM M07/M17 A3053 RMK T10701170 IEM_DS3505
ZBYN,1996-12-17 02:00,ZBYN 170200Z AUTO 34017KT 7SM M06/M19 A3053 RMK T10601190 IEM_DS3505
ZBYN,1996-12-17 03:00,ZBYN 170300Z AUTO 32010KT 9SM M05/M16 A3053 RMK SLP409 T10531165 52004 IEM_DS3505
ZBYN,1996-12-17 04:00,ZBYN 170400Z AUTO 29012KT 7SM M05/M25 A3050 RMK T10501250 IEM_DS3505
ZBYN,1996-12-17 06:00,ZBYN 170600Z AUTO 32008KT 9SM M03/M17 A3045 RMK SLP379 T10281171 57030 IEM_DS3505
ZBYN,1996-12-17 07:00,ZBYN 170700Z AUTO 33012KT 7SM M02/M28 A3042 RMK T10201280 IEM_DS3505
ZBYN,1996-12-17 08:00,ZBYN 170800Z AUTO 28014KT 7SM M02/M25 A3042 RMK T10201250 IEM_DS3505
ZBYN,1996-12-17 09:00,ZBYN 170900Z AUTO 32006KT 9SM M04/M23 A3039 RMK SLP372 T10381227 57013 IEM_DS3505
ZBYN,1996-12-17 10:00,ZBYN 171000Z AUTO 27012KT 7SM M05/M25 A3039 RMK T10501250 IEM_DS3505
ZBYN,1996-12-17 11:00,ZBYN 171100Z AUTO 04004KT 7SM M06/M21 A3042 RMK T10601210 IEM_DS3505
ZBYN,1996-12-17 12:00,ZBYN 171200Z AUTO 32004KT 12SM M08/M22 A3042 RMK SLP391 T10751223 52008 IEM_DS3505
ZBYN,1996-12-17 13:00,ZBYN 171300Z AUTO 04008KT 7SM M09/M24 A3042 RMK T10901240 IEM_DS3505
ZBYN,1996-12-17 14:00,ZBYN 171400Z AUTO 00000KT 7SM M09/M23 A3042 RMK T10901230 IEM_DS3505
ZBYN,1996-12-17 15:00,ZBYN 171500Z AUTO 34002KT 12SM M09/M22 A3042 RMK SLP388 T10931225 57002 IEM_DS3505
ZBYN,1996-12-17 16:00,ZBYN 171600Z AUTO 00000KT 7SM M09/M23 A3042 RMK T10901230 IEM_DS3505
ZBYN,1996-12-17 17:00,ZBYN 171700Z AUTO 00000KT 7SM M10/M23 A3042 RMK T11001230 IEM_DS3505
ZBYN,1996-12-17 18:00,ZBYN 171800Z AUTO 34004KT 12SM M10/M19 A3042 RMK SLP380 T11041191 57005 IEM_DS3505
ZBYN,1996-12-17 19:00,ZBYN 171900Z AUTO 00000KT 7SM M10/M22 A3042 RMK T11001220 IEM_DS3505
ZBYN,1996-12-17 21:00,ZBYN 172100Z AUTO 00000KT 11SM M14/M20 RMK SLP379 T11351196 57008 IEM_DS3505
ZBYN,1996-12-17 22:00,ZBYN 172200Z AUTO 00000KT 7SM M11/M23 A3039 RMK T11101230 IEM_DS3505
ZBYN,1996-12-17 23:00,ZBYN 172300Z AUTO 00000KT 7SM M13/M23 A3039 RMK T11301230 IEM_DS3505
ZBYN,1996-12-18 00:00,ZBYN 180000Z AUTO 34004KT 6SM M11/M19 A3039 RMK SLP385 T11121191 52003 IEM_DS3505
ZBYN,1996-12-18 01:00,ZBYN 180100Z AUTO 11004KT 5SM M13/M22 A3042 RMK T11301220 IEM_DS3505
ZBYN,1996-12-18 02:00,ZBYN 180200Z AUTO 11004KT 7SM M09/M22 A3042 RMK T10901220 IEM_DS3505
ZBYN,1996-12-18 03:00,ZBYN 180300Z AUTO 20002KT 6SM M06/M23 A3042 RMK SLP384 T10611229 52005 IEM_DS3505
ZBYN,1996-12-18 04:00,ZBYN 180400Z AUTO 00000KT 7SM M04/M23 A3039 RMK T10401230 IEM_DS3505
ZBYN,1996-12-18 05:00,ZBYN 180500Z AUTO 00000KT 7SM M03/M23 A3036 RMK T10301230 IEM_DS3505
ZBYN,1996-12-18 06:00,ZBYN 180600Z AUTO 16004KT 6SM M02/M20 A3033 RMK SLP345 T10211204 57030 IEM_DS3505
ZBYN,1996-12-18 07:00,ZBYN 180700Z AUTO 00000KT 7SM M01/M19 A3030 RMK T10101190 IEM_DS3505
ZBYN,1996-12-18 08:00,ZBYN 180800Z AUTO 22008KT 7SM 00/M21 A3030 RMK T00001210 IEM_DS3505
ZBYN,1996-12-18 09:00,ZBYN 180900Z AUTO 11004KT 6SM M02/M19 A3030 RMK SLP344 T10221188 57007 IEM_DS3505
ZBYN,1996-12-18 10:00,ZBYN 181000Z AUTO 00000KT 7SM M02/M19 A3030 RMK T10201190 IEM_DS3505
ZBYN,1996-12-18 11:00,ZBYN 181100Z AUTO 01006KT 7SM M06/M20 A3033 RMK T10601200 IEM_DS3505
ZBYN,1996-12-18 12:00,ZBYN 181200Z AUTO 00000KT 6SM M07/M16 A3036 RMK SLP372 T10681157 52022 IEM_DS3505
ZBYN,1996-12-18 14:00,ZBYN 181400Z AUTO 00000KT 4SM M07/M18 A3039 RMK T10701180 IEM_DS3505
ZBYN,1996-12-18 15:00,ZBYN 181500Z AUTO 00000KT 6SM M08/M18 A3039 RMK SLP376 T10821175 52010 IEM_DS3505
ZBYN,1996-12-18 16:00,ZBYN 181600Z AUTO 10006KT 7SM M09/M18 A3039 RMK T10901180 IEM_DS3505
ZBYN,1996-12-18 17:00,ZBYN 181700Z AUTO 09004KT 7SM M09/M19 A3039 RMK T10901190 IEM_DS3505
ZBYN,1996-12-18 18:00,ZBYN 181800Z AUTO 00000KT 6SM M11/M18 A3039 RMK SLP378 T11061181 52004 IEM_DS3505
ZBYN,1996-12-18 19:00,ZBYN 181900Z AUTO 09008KT 7SM M10/M20 A3042 RMK T11001200 IEM_DS3505
ZBYN,1996-12-18 20:00,ZBYN 182000Z AUTO 09008KT 7SM M10/M20 A3039 RMK T11001200 IEM_DS3505
ZBYN,1996-12-18 21:00,ZBYN 182100Z AUTO 00000KT 9SM M13/M20 A3039 RMK SLP376 T11321195 57006 IEM_DS3505
ZBYN,1996-12-18 22:00,ZBYN 182200Z AUTO 11006KT 7SM M10/M19 A3039 RMK T11001190 IEM_DS3505
ZBYN,1996-12-18 23:00,ZBYN 182300Z AUTO 04004KT 7SM M11/M22 A3039 RMK T11101220 IEM_DS3505
ZBYN,1996-12-19 00:00,ZBYN 190000Z AUTO 00000KT 7SM M13/M18 A3039 RMK SLP394 T11271185 52009 IEM_DS3505
ZBYN,1996-12-19 01:00,ZBYN 190100Z AUTO 00000KT 7SM M11/M21 A3042 RMK T11101210 IEM_DS3505
ZBYN,1996-12-19 02:00,ZBYN 190200Z AUTO 00000KT 7SM M05/M23 A3042 RMK T10501230 IEM_DS3505
ZBYN,1996-12-19 03:00,ZBYN 190300Z AUTO 16004KT 5SM M03/M19 A3042 RMK SLP370 T10311186 57007 IEM_DS3505
ZBYN,1996-12-19 04:00,ZBYN 190400Z AUTO 00000KT 7SM M01/M19 A3039 RMK T10101190 IEM_DS3505
ZBYN,1996-12-19 05:00,ZBYN 190500Z AUTO 23006KT 7SM 01/M18 A3033 RMK T00101180 IEM_DS3505
ZBYN,1996-12-19 06:00,ZBYN 190600Z AUTO 16004KT 5SM 02/M17 A3030 RMK SLP329 T00231170 57032 IEM_DS3505
ZBYN,1996-12-19 07:00,ZBYN 190700Z AUTO 21008KT 7SM 03/M09 A3027 RMK T00301090 IEM_DS3505
ZBYN,1996-12-19 09:00,ZBYN 190900Z AUTO 14006KT 6SM 01/M17 RMK SLP325 T00091169 57011 IEM_DS3505
ZBYN,1996-12-19 12:00,ZBYN 191200Z AUTO 36002KT 6SM M03/M15 A3032 RMK SLP340 T10281148 52008 IEM_DS3505
ZBYN,1996-12-19 15:00,ZBYN 191500Z AUTO 00000KT 6SM M08/M17 RMK SLP339 T10831170 52006 IEM_DS3505
ZBYN,1996-12-19 18:00,ZBYN 191800Z AUTO 22004KT 6SM M09/M16 A3033 RMK SLP326 T10881157 57003 IEM_DS3505
ZBYN,1996-12-19 20:00,ZBYN 192000Z AUTO 00000KT 7SM M08/M18 A3030 RMK T10801180 IEM_DS3505
ZBYN,1996-12-19 21:00,ZBYN 192100Z AUTO 00000KT 7SM M08/M17 A3030 RMK T10801170 IEM_DS3505
ZBYN,1996-12-19 22:00,ZBYN 192200Z AUTO 00000KT 6SM M08/M14 A3030 RMK T10801140 IEM_DS3505
ZBYN,1996-12-19 23:00,ZBYN 192300Z AUTO 00000KT 6SM M09/M15 A3030 RMK T10901150 IEM_DS3505
ZBYN,1996-12-20 00:00,ZBYN 200000Z AUTO 00000KT 5SM M07/M14 A3033 RMK SLP343 T10741136 52009 IEM_DS3505
ZBYN,1996-12-20 01:00,ZBYN 200100Z AUTO 00000KT 4SM M06/M16 A3033 RMK T10601160 IEM_DS3505
ZBYN,1996-12-20 02:00,ZBYN 200200Z AUTO 00000KT 5SM M04/M17 A3033 RMK T10401170 IEM_DS3505
ZBYN,1996-12-20 03:00,ZBYN 200300Z AUTO 18004KT 5SM M02/M17 A3033 RMK SLP347 T10171167 52004 IEM_DS3505
ZBYN,1996-12-20 05:00,ZBYN 200500Z AUTO 21010KT 5SM 02/M14 A3027 RMK T00201140 IEM_DS3505
ZBYN,1996-12-20 06:00,ZBYN 200600Z AUTO 20008KT 4SM 04/M22 A3024 RMK SLP303 T00361224 57032 IEM_DS3505
ZBYN,1996-12-20 07:00,ZBYN 200700Z AUTO 22012KT 7SM 05/M16 A3021 RMK T00501160 IEM_DS3505
ZBYN,1996-12-20 08:00,ZBYN 200800Z AUTO 24012KT 7SM 05/M19 A3021 RMK T00501190 IEM_DS3505
ZBYN,1996-12-20 09:00,ZBYN 200900Z AUTO 22004KT 12SM 03/M16 A3021 RMK SLP296 T00311163 57007 IEM_DS3505
ZBYN,1996-12-20 10:00,ZBYN 201000Z AUTO 25012KT 7SM 01/M20 A3021 RMK T00101200 IEM_DS3505
ZBYN,1996-12-20 11:00,ZBYN 201100Z AUTO 00000KT 7SM 00/M18 A3024 RMK T00001180 IEM_DS3505
ZBYN,1996-12-20 12:00,ZBYN 201200Z AUTO 32008KT 7SM 01/M16 A3024 RMK SLP310 T00081164 52011 IEM_DS3505
ZBYN,1996-12-20 13:00,ZBYN 201300Z AUTO 32010KT 7SM 00/M17 A3027 RMK T00001170 IEM_DS3505
ZBYN,1996-12-20 14:00,ZBYN 201400Z AUTO 24010KT 7SM M02/M16 A3027 RMK T10201160 IEM_DS3505
ZBYN,1996-12-20 15:00,ZBYN 201500Z AUTO 14004KT 6SM M04/M17 A3027 RMK SLP313 T10451170 52004 IEM_DS3505
ZBYN,1996-12-20 16:00,ZBYN 201600Z AUTO 00000KT 7SM M07/M20 A3024 RMK T10701200 IEM_DS3505
ZBYN,1996-12-20 17:00,ZBYN 201700Z AUTO 09008KT 7SM M08/M21 A3024 RMK T10801210 IEM_DS3505
ZBYN,1996-12-20 18:00,ZBYN 201800Z AUTO 09002KT 6SM M09/M16 A3024 RMK SLP290 T10891165 57020 IEM_DS3505
ZBYN,1996-12-20 19:00,ZBYN 201900Z AUTO 08006KT 7SM M09/M20 A3024 RMK T10901200 IEM_DS3505
ZBYN,1996-12-20 20:00,ZBYN 202000Z AUTO 00000KT 7SM M10/M21 A3018 RMK T11001210 IEM_DS3505
ZBYN,1996-12-20 21:00,ZBYN 202100Z AUTO 00000KT 6SM M10/M16 A3015 RMK SLP282 T11041157 57010 IEM_DS3505
ZBYN,1996-12-20 22:00,ZBYN 202200Z AUTO 09004KT 7SM M08/M20 A3015 RMK T10801200 IEM_DS3505
ZBYN,1996-12-20 23:00,ZBYN 202300Z AUTO 00000KT 7SM M09/M16 A3015 RMK T10901160 IEM_DS3505
ZBYN,1996-12-21 00:00,ZBYN 210000Z AUTO 00000KT 6SM M10/M14 A3015 RMK SLP284 T11041145 57002 IEM_DS3505
ZBYN,1996-12-21 02:00,ZBYN 210200Z AUTO 00000KT 6SM M02/M17 A3015 RMK T10201170 IEM_DS3505
ZBYN,1996-12-21 03:00,ZBYN 210300Z AUTO 16004KT 5SM M03/M19 A3012 RMK T10311186 57007 IEM_DS3505
ZBYN,1996-12-21 04:00,ZBYN 210400Z AUTO 20002KT 7SM 03/M13 A3009 RMK T00301130 IEM_DS3505
ZBYN,1996-12-21 05:00,ZBYN 210500Z AUTO 23006KT 7SM 05/M16 A3006 RMK T00501160 IEM_DS3505
ZBYN,1996-12-21 06:00,ZBYN 210600Z AUTO 20008KT 4SM 04/M22 A3003 RMK SLP303 T00361224 57032 IEM_DS3505
ZBYN,1996-12-21 07:00,ZBYN 210700Z AUTO 00000KT 7SM 08/M08 A3000 RMK T00801080 IEM_DS3505
ZBYN,1996-12-21 08:00,ZBYN 210800Z AUTO 33012KT 7SM 09/M13 A3000 RMK T00901130 IEM_DS3505
ZBYN,1996-12-21 09:00,ZBYN 210900Z AUTO 11004KT 6SM A3003 RMK SLP344 57007 IEM_DS3505
ZBYN,1996-12-21 10:00,ZBYN 211000Z AUTO 33008KT 7SM 06/M14 A3006 RMK T00601140 IEM_DS3505
ZBYN,1996-12-21 11:00,ZBYN 211100Z AUTO 27008KT 7SM 04/M11 A3009 RMK T00401110 IEM_DS3505
ZBYN,1996-12-21 12:00,ZBYN 211200Z AUTO 00000KT 6SM 03/M11 A3009 RMK SLP262 T00261114 52018 IEM_DS3505
ZBYN,1996-12-21 13:00,ZBYN 211300Z AUTO 00000KT 7SM 03/M09 A3012 RMK T00301090 IEM_DS3505
ZBYN,1996-12-21 14:00,ZBYN 211400Z AUTO 27012KT 7SM 04/M13 A3012 RMK T00401130 IEM_DS3505
ZBYN,1996-12-21 15:00,ZBYN 211500Z AUTO 32008KT 6SM 02/M15 A3012 RMK SLP259 T00231146 52013 IEM_DS3505
ZBYN,1996-12-21 16:00,ZBYN 211600Z AUTO 28010KT 7SM 02/M14 A3015 RMK T00201140 IEM_DS3505
ZBYN,1996-12-21 17:00,ZBYN 211700Z AUTO 28010KT 7SM 01/M14 A3015 RMK T00101140 IEM_DS3505
ZBYN,1996-12-21 18:00,ZBYN 211800Z AUTO 32006KT 6SM M00/M14 A3018 RMK SLP264 T10031140 52013 IEM_DS3505
ZBYN,1996-12-21 19:00,ZBYN 211900Z AUTO 21004KT 7SM M01/M14 A3018 RMK T10101140 IEM_DS3505
ZBYN,1996-12-21 21:00,ZBYN 212100Z AUTO 32008KT 6SM 00/M15 A3018 RMK SLP260 T00051149 57003 IEM_DS3505
ZBYN,1996-12-21 22:00,ZBYN 212200Z AUTO 35004KT 7SM M04/M15 A3021 RMK T10401150 IEM_DS3505
ZBYN,1996-12-21 23:00,ZBYN 212300Z AUTO 36008KT 7SM M04/M19 A3021 RMK T10401190 IEM_DS3505
ZBYN,1996-12-22 00:00,ZBYN 220000Z AUTO 32004KT 6SM M04/M19 A3024 RMK SLP301 T10411193 52023 IEM_DS3505
ZBYN,1996-12-22 01:00,ZBYN 220100Z AUTO 00000KT 7SM M04/M20 A3027 RMK T10401200 IEM_DS3505
ZBYN,1996-12-22 02:00,ZBYN 220200Z AUTO 00000KT 7SM 01/M20 A3030 RMK T00101200 IEM_DS3505
ZBYN,1996-12-22 03:00,ZBYN 220300Z AUTO 00000KT 6SM 03/M18 A3030 RMK SLP306 T00291177 52015 IEM_DS3505
ZBYN,1996-12-22 04:00,ZBYN 220400Z AUTO 00000KT 7SM 05/M19 A3030 RMK T00501190 IEM_DS3505
ZBYN,1996-12-22 05:00,ZBYN 220500Z AUTO 16006KT 7SM 04/M22 A3027 RMK T00401220 IEM_DS3505
ZBYN,1996-12-22 06:00,ZBYN 220600Z AUTO 14006KT 6SM 05/M16 A3024 RMK SLP284 T00481155 57021 IEM_DS3505
ZBYN,1996-12-22 07:00,ZBYN 220700Z AUTO 21006KT 7SM 05/M16 A3021 RMK T00501160 IEM_DS3505
ZBYN,1996-12-22 08:00,ZBYN 220800Z AUTO 22012KT 7SM 06/M18 A3021 RMK T00601180 IEM_DS3505
ZBYN,1996-12-22 09:00,ZBYN 220900Z AUTO 22006KT 6SM 04/M18 A3021 RMK SLP280 T00441184 57003 IEM_DS3505
ZBYN,1996-12-22 10:00,ZBYN 221000Z AUTO 27010KT 7SM 03/M20 A3021 RMK T00301200 IEM_DS3505
ZBYN,1996-12-22 11:00,ZBYN 221100Z AUTO 00000KT 7SM 01/M15 A3024 RMK T00101150 IEM_DS3505
ZBYN,1996-12-22 12:00,ZBYN 221200Z AUTO 34002KT 9SM 00/M16 A3024 RMK SLP300 T00051156 52004 IEM_DS3505
ZBYN,1996-12-22 13:00,ZBYN 221300Z AUTO 00000KT 7SM 00/M16 A3024 RMK T00001160 IEM_DS3505
ZBYN,1996-12-22 14:00,ZBYN 221400Z AUTO 09002KT 7SM M03/M16 A3024 RMK T10301160 IEM_DS3505
ZBYN,1996-12-22 15:00,ZBYN 221500Z AUTO 09006KT 9SM M05/M17 A3024 RMK SLP303 T10541166 52005 IEM_DS3505
ZBYN,1996-12-22 16:00,ZBYN 221600Z AUTO 07004KT 7SM M04/M17 A3024 RMK T10401170 IEM_DS3505
ZBYN,1996-12-22 17:00,ZBYN 221700Z AUTO 09006KT 7SM M05/M18 A3021 RMK T10501180 IEM_DS3505
ZBYN,1996-12-22 18:00,ZBYN 221800Z AUTO 00000KT 9SM M07/M16 A3021 RMK SLP286 T10671162 57015 IEM_DS3505
ZBYN,1996-12-22 19:00,ZBYN 221900Z AUTO 09004KT 7SM M06/M17 A3021 RMK T10601170 IEM_DS3505
ZBYN,1996-12-22 20:00,ZBYN 222000Z AUTO 08004KT 7SM M06/M17 A3018 RMK T10601170 IEM_DS3505
ZBYN,1996-12-22 21:00,ZBYN 222100Z AUTO 22002KT 9SM M08/M15 A3015 RMK SLP269 T10821148 57018 IEM_DS3505
ZBYN,1996-12-22 22:00,ZBYN 222200Z AUTO 00000KT 7SM M08/M18 A3012 RMK T10801180 IEM_DS3505
ZBYN,1996-12-22 23:00,ZBYN 222300Z AUTO 00000KT 7SM M09/M18 A3012 RMK T10901180 IEM_DS3505
ZBYN,1996-12-23 00:00,ZBYN 230000Z AUTO 34004KT 5SM M08/M15 A3012 RMK SLP270 T10761151 57005 IEM_DS3505
ZBYN,1996-12-23 01:00,ZBYN 230100Z AUTO 09006KT 4SM M06/M16 A3012 RMK T10601160 IEM_DS3505
ZBYN,1996-12-23 02:00,ZBYN 230200Z AUTO 16004KT 7SM M02/M16 A3012 RMK T10201160 IEM_DS3505
ZBYN,1996-12-23 03:00,ZBYN 230300Z AUTO 16004KT 4SM 01/M15 A3009 RMK SLP255 T00111147 57009 IEM_DS3505
ZBYN,1996-12-23 04:00,ZBYN 230400Z AUTO 18006KT 7SM 03/M16 A3006 RMK T00301160 IEM_DS3505
ZBYN,1996-12-23 05:00,ZBYN 230500Z AUTO 18012KT 4SM 08/M13 A3003 RMK SLP199 T00811126 57041 IEM_DS3505
ZBYN,1996-12-23 06:00,ZBYN 230600Z AUTO 18012KT 4SM 08/M13 A2997 RMK SLP199 T00811126 57041 IEM_DS3505
ZBYN,1996-12-23 07:00,ZBYN 230700Z AUTO 00000KT 7SM 09/M11 A2997 RMK T00901110 IEM_DS3505
ZBYN,1996-12-23 08:00,ZBYN 230800Z AUTO 21008KT 7SM 08/M12 A2994 RMK T00801120 IEM_DS3505
ZBYN,1996-12-23 09:00,ZBYN 230900Z AUTO 20006KT 6SM 08/M10 A2994 RMK SLP193 T00751104 57009 IEM_DS3505
ZBYN,1996-12-23 10:00,ZBYN 231000Z AUTO 21006KT 7SM 06/M10 A2994 RMK T00601100 IEM_DS3505
ZBYN,1996-12-23 12:00,ZBYN 231200Z AUTO 00000KT 12SM M01/M08 A2997 RMK SLP219 T10081078 52011 IEM_DS3505
ZBYN,1996-12-23 13:00,ZBYN 231300Z AUTO 10006KT 4SM 00/M12 A2997 RMK T00001120 IEM_DS3505
ZBYN,1996-12-23 14:00,ZBYN 231400Z AUTO 10010KT 4SM M01/M13 A2997 RMK T10101130 IEM_DS3505
ZBYN,1996-12-23 15:00,ZBYN 231500Z AUTO 09006KT 12SM M03/M11 A2997 RMK SLP217 T10341111 52008 IEM_DS3505
ZBYN,1996-12-23 16:00,ZBYN 231600Z AUTO 10006KT 7SM M03/M13 A2997 RMK T10301130 IEM_DS3505
ZBYN,1996-12-23 17:00,ZBYN 231700Z AUTO 07008KT 7SM M03/M13 A2997 RMK T10301130 IEM_DS3505
ZBYN,1996-12-23 18:00,ZBYN 231800Z AUTO 14002KT 12SM M05/M12 A2997 RMK SLP205 T10481123 57002 IEM_DS3505
ZBYN,1996-12-23 19:00,ZBYN 231900Z AUTO 05006KT 7SM M03/M13 A2997 RMK T10301130 IEM_DS3505
ZBYN,1996-12-23 20:00,ZBYN 232000Z AUTO 00000KT 7SM M04/M14 A2997 RMK T10401140 IEM_DS3505
ZBYN,1996-12-23 21:00,ZBYN 232100Z AUTO 32002KT 6SM M07/M13 A2994 RMK SLP199 T10711126 57010 IEM_DS3505
ZBYN,1996-12-23 22:00,ZBYN 232200Z AUTO 00000KT 7SM M05/M13 A2997 RMK T10501130 IEM_DS3505
ZBYN,1996-12-23 23:00,ZBYN 232300Z AUTO 00000KT 7SM M06/M13 A2997 RMK T10601130 IEM_DS3505
ZBYN,1996-12-24 00:00,ZBYN 240000Z AUTO 32002KT 4SM M08/M12 A2997 RMK SLP229 T10801117 52012 IEM_DS3505
ZBYN,1996-12-24 01:00,ZBYN 240100Z AUTO 09004KT 7SM M06/M12 A3000 RMK T10601120 IEM_DS3505
ZBYN,1996-12-24 02:00,ZBYN 240200Z AUTO 00000KT 4SM M02/M11 A3000 RMK T10201110 IEM_DS3505
ZBYN,1996-12-24 03:00,ZBYN 240300Z AUTO 09006KT 4SM 02/M11 A3003 RMK SLP227 T00181112 52010 IEM_DS3505
ZBYN,1996-12-24 04:00,ZBYN 240400Z AUTO 17004KT 4SM 06/M10 A3000 RMK T00601100 IEM_DS3505
ZBYN,1996-12-24 05:00,ZBYN 240500Z AUTO 16004KT 7SM 08/M10 A2997 RMK T00801100 IEM_DS3505
ZBYN,1996-12-24 06:00,ZBYN 240600Z AUTO 20006KT 4SM 10/M11 A2997 RMK SLP194 T01001108 57019 IEM_DS3505
ZBYN,1996-12-24 07:00,ZBYN 240700Z AUTO 21006KT 7SM 12/M08 A2997 RMK T01201080 IEM_DS3505
ZBYN,1996-12-24 08:00,ZBYN 240800Z AUTO 00000KT 7SM 11/M07 A3000 RMK T01101070 IEM_DS3505
ZBYN,1996-12-24 09:00,ZBYN 240900Z AUTO 32004KT 6SM 06/M10 A3000 RMK SLP226 T00571100 52019 IEM_DS3505
ZBYN,1996-12-24 10:00,ZBYN 241000Z AUTO 01002KT 7SM 06/M09 A3006 RMK T00601090 IEM_DS3505
ZBYN,1996-12-24 11:00,ZBYN 241100Z AUTO 34006KT 7SM 04/M09 A3006 RMK T00401090 IEM_DS3505
ZBYN,1996-12-24 12:00,ZBYN 241200Z AUTO 34004KT 6SM 02/M10 A3009 RMK SLP262 T00201099 52025 IEM_DS3505
ZBYN,1996-12-24 13:00,ZBYN 241300Z AUTO 00000KT 6SM 02/M12 A3012 RMK T00201120 IEM_DS3505
ZBYN,1996-12-24 14:00,ZBYN 241400Z AUTO 03004KT 7SM 00/M12 A3015 RMK T00001120 IEM_DS3505
ZBYN,1996-12-24 15:00,ZBYN 241500Z AUTO 36006KT 6SM 01/M10 A3015 RMK SLP265 T00081105 52017 IEM_DS3505
ZBYN,1996-12-24 16:00,ZBYN 241600Z AUTO 06004KT 7SM M01/M13 A3015 RMK T10101130 IEM_DS3505
ZBYN,1996-12-24 17:00,ZBYN 241700Z AUTO 09004KT 7SM M02/M13 A3018 RMK T10201130 IEM_DS3505
ZBYN,1996-12-24 18:00,ZBYN 241800Z AUTO 22002KT 6SM M03/M12 A3018 RMK SLP267 T10271116 52009 IEM_DS3505
ZBYN,1996-12-24 19:00,ZBYN 241900Z AUTO 00000KT 7SM M05/M13 A3018 RMK T10501130 IEM_DS3505
ZBYN,1996-12-24 20:00,ZBYN 242000Z AUTO 16004KT 7SM M05/M13 A3018 RMK T10501130 IEM_DS3505
ZBYN,1996-12-24 21:00,ZBYN 242100Z AUTO 04004KT 6SM M04/M11 A3018 RMK SLP274 T10401111 57003 IEM_DS3505
ZBYN,1996-12-24 22:00,ZBYN 242200Z AUTO 00000KT 7SM M06/M11 A3018 RMK T10601110 IEM_DS3505
ZBYN,1996-12-24 23:00,ZBYN 242300Z AUTO 00000KT 7SM M06/M13 A3018 RMK T10601130 IEM_DS3505
ZBYN,1996-12-25 00:00,ZBYN 250000Z AUTO 00000KT 4SM M08/M12 A3021 RMK SLP299 T10761122 52011 IEM_DS3505
ZBYN,1996-12-25 01:00,ZBYN 250100Z AUTO 00000KT 5SM M05/M12 A3021 RMK T10501120 IEM_DS3505
ZBYN,1996-12-25 02:00,ZBYN 250200Z AUTO 00000KT 5SM M02/M12 A3024 RMK T10201120 IEM_DS3505
ZBYN,1996-12-25 03:00,ZBYN 250300Z AUTO 00000KT 6SM 02/M11 A3021 RMK SLP290 T00221110 52006 IEM_DS3505
ZBYN,1996-12-25 04:00,ZBYN 250400Z AUTO 00000KT 5SM 06/M14 A3018 RMK T00601140 IEM_DS3505
ZBYN,1996-12-25 05:00,ZBYN 250500Z AUTO 00000KT 7SM 08/M14 A3015 RMK T00801140 IEM_DS3505
ZBYN,1996-12-25 06:00,ZBYN 250600Z AUTO 18008KT 6SM 08/M13 A3012 RMK SLP246 T00791133 57036 IEM_DS3505
ZBYN,1996-12-25 07:00,ZBYN 250700Z AUTO 21008KT 7SM 08/M12 A3009 RMK T00801120 IEM_DS3505
ZBYN,1996-12-25 09:00,ZBYN 250900Z AUTO 00000KT 6SM 05/M10 A3009 RMK SLP250 T00481103 57004 IEM_DS3505
ZBYN,1996-12-25 10:00,ZBYN 251000Z AUTO 00000KT 7SM 03/M13 A3009 RMK T00301130 IEM_DS3505
ZBYN,1996-12-25 11:00,ZBYN 251100Z AUTO 00000KT 7SM 02/M13 A3009 RMK T00201130 IEM_DS3505
ZBYN,1996-12-25 12:00,ZBYN 251200Z AUTO 34002KT 6SM M01/M08 A3009 RMK SLP267 T10101077 54000 IEM_DS3505
ZBYN,1996-12-25 13:00,ZBYN 251300Z AUTO 09002KT 7SM 00/M12 A3009 RMK T00001120 IEM_DS3505
ZBYN,1996-12-25 15:00,ZBYN 251500Z AUTO 00000KT 6SM M04/M10 RMK SLP261 T10381098 52006 IEM_DS3505
ZBYN,1996-12-25 18:00,ZBYN 251800Z AUTO 00000KT 6SM M06/M11 A3015 RMK SLP248 T10581107 57006 IEM_DS3505
ZBYN,1996-12-25 21:00,ZBYN 252100Z AUTO 32004KT 5SM M05/M12 RMK SLP248 T10501116 57003 IEM_DS3505
ZBYN,1996-12-25 22:00,ZBYN 252200Z AUTO 00000KT 7SM M07/M13 A3009 RMK T10701130 IEM_DS3505
ZBYN,1996-12-25 23:00,ZBYN 252300Z AUTO 00000KT 7SM M08/M12 A3009 RMK T10801120 IEM_DS3505
ZBYN,1996-12-26 00:00,ZBYN 260000Z AUTO 00000KT 4SM M06/M12 A3009 RMK SLP255 T10581117 57005 IEM_DS3505
ZBYN,1996-12-26 01:00,ZBYN 260100Z AUTO 00000KT 1 1/2SM M07/M13 A3009 RMK T10701130 IEM_DS3505
ZBYN,1996-12-26 02:00,ZBYN 260200Z AUTO 00000KT 1 1/2SM M03/M14 A3009 RMK T10301140 IEM_DS3505
ZBYN,1996-12-26 03:00,ZBYN 260300Z AUTO 00000KT 5SM M00/M10 A3009 RMK SLP257 T10011100 52007 IEM_DS3505
ZBYN,1996-12-26 04:00,ZBYN 260400Z AUTO 18002KT 2SM 03/M09 A3009 RMK T00301090 IEM_DS3505
ZBYN,1996-12-26 05:00,ZBYN 260500Z AUTO 18004KT 2SM 04/M11 A3003 RMK T00401110 IEM_DS3505
ZBYN,1996-12-26 06:00,ZBYN 260600Z AUTO 16006KT 6SM 06/M10 A3000 RMK SLP215 T00571095 57032 IEM_DS3505
ZBYN,1996-12-26 07:00,ZBYN 260700Z AUTO 18006KT 2 1/2SM 08/M09 A2997 RMK T00801090 IEM_DS3505
ZBYN,1996-12-26 08:00,ZBYN 260800Z AUTO 17002KT 2 1/2SM 07/M10 A2997 RMK T00701100 IEM_DS3505
ZBYN,1996-12-26 09:00,ZBYN 260900Z AUTO 32004KT 6SM 04/M08 A2997 RMK SLP208 T00381077 57008 IEM_DS3505
ZBYN,1996-12-26 10:00,ZBYN 261000Z AUTO 33004KT 1SM 02/M08 A3000 RMK T00201080 IEM_DS3505
ZBYN,1996-12-26 11:00,ZBYN 261100Z AUTO 02004KT 1SM 00/M10 A3000 RMK T00001100 IEM_DS3505
ZBYN,1996-12-26 12:00,ZBYN 261200Z AUTO 34002KT 5SM 00/M08 A3003 RMK SLP235 T00001084 52017 IEM_DS3505
ZBYN,1996-12-26 13:00,ZBYN 261300Z AUTO 09002KT 6SM M01/M12 A3003 RMK T10101120 IEM_DS3505
ZBYN,1996-12-26 14:00,ZBYN 261400Z AUTO 00000KT 6SM M04/M12 A3006 RMK T10401120 IEM_DS3505
ZBYN,1996-12-26 15:00,ZBYN 261500Z AUTO 34004KT 5SM M01/M10 A3009 RMK SLP247 T10081101 52019 IEM_DS3505
ZBYN,1996-12-26 17:00,ZBYN 261700Z AUTO 28002KT 6SM M04/M11 A3012 RMK T10401110 IEM_DS3505
ZBYN,1996-12-26 18:00,ZBYN 261800Z AUTO 29004KT 3SM M04/M10 A3015 RMK SLP261 T10371101 52017 IEM_DS3505
ZBYN,1996-12-26 20:00,ZBYN 262000Z AUTO 00000KT 6SM M05/M12 A3015 RMK T10501120 IEM_DS3505
ZBYN,1996-12-26 21:00,ZBYN 262100Z AUTO 00000KT 6SM M07/M12 A3015 RMK SLP279 T10701119 52008 IEM_DS3505
ZBYN,1996-12-26 22:00,ZBYN 262200Z AUTO 00000KT 3SM M06/M13 A3018 RMK T10601130 IEM_DS3505
ZBYN,1996-12-26 23:00,ZBYN 262300Z AUTO 00000KT 2 1/2SM M06/M13 A3018 RMK T10601130 IEM_DS3505
ZBYN,1996-12-27 00:00,ZBYN 270000Z AUTO 36002KT 6SM M03/M10 A3021 RMK SLP292 T10281097 52012 IEM_DS3505
ZBYN,1996-12-27 01:00,ZBYN 270100Z AUTO 05004KT 1SM M05/M12 A3021 RMK T10501120 IEM_DS3505
ZBYN,1996-12-27 02:00,ZBYN 270200Z AUTO 19004KT 1SM 00/M13 A3024 RMK T00001130 IEM_DS3505
ZBYN,1996-12-27 03:00,ZBYN 270300Z AUTO 25004KT 5SM 05/M08 A3024 RMK SLP290 T00541077 52011 IEM_DS3505
ZBYN,1996-12-27 04:00,ZBYN 270400Z AUTO 18006KT 1SM 05/M09 A3024 RMK T00501090 IEM_DS3505
ZBYN,1996-12-27 05:00,ZBYN 270500Z AUTO 18008KT 1SM 06/M09 A3021 RMK T00601090 IEM_DS3505
ZBYN,1996-12-27 06:00,ZBYN 270600Z AUTO 11004KT 5SM 09/M11 A3018 RMK SLP261 T00941107 57025 IEM_DS3505
ZBYN,1996-12-27 07:00,ZBYN 270700Z AUTO 00000KT 1 1/2SM 09/M08 A3015 RMK T00901080 IEM_DS3505
ZBYN,1996-12-27 08:00,ZBYN 270800Z AUTO 21006KT 2SM 09/M09 A3015 RMK T00901090 IEM_DS3505
ZBYN,1996-12-27 09:00,ZBYN 270900Z AUTO 20004KT 5SM 07/M07 A3015 RMK SLP267 T00691068 57004 IEM_DS3505
ZBYN,1996-12-27 10:00,ZBYN 271000Z AUTO 00000KT 3SM 06/M10 A3015 RMK T00601100 IEM_DS3505
ZBYN,1996-12-27 11:00,ZBYN 271100Z AUTO 09004KT 4SM 02/M12 A3015 RMK T00201120 IEM_DS3505
ZBYN,1996-12-27 12:00,ZBYN 271200Z AUTO 00000KT 6SM M02/M11 A3015 RMK SLP279 T10201106 52003 IEM_DS3505
ZBYN,1996-12-27 13:00,ZBYN 271300Z AUTO 10006KT 4SM M01/M12 A3015 RMK T10101120 IEM_DS3505
ZBYN,1996-12-27 14:00,ZBYN 271400Z AUTO 09002KT 4SM M02/M13 A3018 RMK T10201130 IEM_DS3505
ZBYN,1996-12-27 15:00,ZBYN 271500Z AUTO 00000KT 6SM M04/M11 A3018 RMK SLP276 T10421114 52007 IEM_DS3505
ZBYN,1996-12-27 16:00,ZBYN 271600Z AUTO 08002KT 7SM M04/M12 A3018 RMK T10401120 IEM_DS3505
ZBYN,1996-12-27 17:00,ZBYN 271700Z AUTO 00000KT 7SM M05/M12 A3018 RMK T10501120 IEM_DS3505
ZBYN,1996-12-27 18:00,ZBYN 271800Z AUTO 00000KT 6SM M07/M12 A3015 RMK SLP267 T10661119 57005 IEM_DS3505
ZBYN,1996-12-27 20:00,ZBYN 272000Z AUTO 07002KT 7SM M06/M13 A3012 RMK T10601130 IEM_DS3505
ZBYN,1996-12-27 21:00,ZBYN 272100Z AUTO 34002KT 6SM M06/M09 A3012 RMK SLP254 T10631091 57016 IEM_DS3505
ZBYN,1996-12-27 22:00,ZBYN 272200Z AUTO 07002KT 2 1/2SM M05/M12 A3012 RMK T10501120 IEM_DS3505
ZBYN,1996-12-27 23:00,ZBYN 272300Z AUTO 00000KT 2 1/2SM M05/M13 A3012 RMK T10501130 IEM_DS3505
ZBYN,1996-12-28 00:00,ZBYN 280000Z AUTO 11004KT 5SM M08/M11 A3012 RMK SLP274 T10771113 52001 IEM_DS3505
ZBYN,1996-12-28 01:00,ZBYN 280100Z AUTO 10002KT 1 1/4SM M06/M12 A3012 RMK T10601120 IEM_DS3505
ZBYN,1996-12-28 02:00,ZBYN 280200Z AUTO 35002KT 1SM M04/M09 A3012 RMK T10401090 IEM_DS3505
ZBYN,1996-12-28 03:00,ZBYN 280300Z AUTO 00000KT 5SM 01/M09 A3012 RMK SLP256 T00111089 57005 IEM_DS3505
ZBYN,1996-12-28 04:00,ZBYN 280400Z AUTO 00000KT 1 1/2SM 05/M11 A3009 RMK T00501110 IEM_DS3505
ZBYN,1996-12-28 05:00,ZBYN 280500Z AUTO 00000KT 1 1/2SM 06/M11 A3003 RMK T00601110 IEM_DS3505
ZBYN,1996-12-28 06:00,ZBYN 280600Z AUTO 18008KT 5SM 08/M10 A3000 RMK SLP215 T00761103 57030 IEM_DS3505
ZBYN,1996-12-28 07:00,ZBYN 280700Z AUTO 17004KT 2SM 08/M10 A3000 RMK T00801100 IEM_DS3505
ZBYN,1996-12-28 08:00,ZBYN 280800Z AUTO 00000KT 2SM 08/M09 A2997 RMK T00801090 IEM_DS3505
ZBYN,1996-12-28 09:00,ZBYN 280900Z AUTO 09004KT 5SM 06/M09 A2997 RMK SLP208 T00551094 57010 IEM_DS3505
ZBYN,1996-12-28 10:00,ZBYN 281000Z AUTO 21006KT 1 1/4SM 06/M10 A2997 RMK T00601100 IEM_DS3505
ZBYN,1996-12-28 11:00,ZBYN 281100Z AUTO 15004KT 1 1/2SM 04/M10 A3000 RMK T00401100 IEM_DS3505
ZBYN,1996-12-28 12:00,ZBYN 281200Z AUTO 07002KT 1 1/4SM M02/M09 A3003 RMK SLP239 T10181093 52014 IEM_DS3505
ZBYN,1996-12-28 13:00,ZBYN 281300Z AUTO 08006KT 1 1/2SM M01/M10 A3003 RMK T10101100 IEM_DS3505
ZBYN,1996-12-28 14:00,ZBYN 281400Z AUTO 15004KT 3SM 00/M12 A3003 RMK T00001120 IEM_DS3505
ZBYN,1996-12-28 16:00,ZBYN 281600Z AUTO 13006KT 2 1/2SM M01/M11 A3006 RMK T10101110 IEM_DS3505
ZBYN,1996-12-28 17:00,ZBYN 281700Z AUTO 06006KT 2 1/2SM M02/M11 A3006 RMK T10201110 IEM_DS3505
ZBYN,1996-12-28 18:00,ZBYN 281800Z AUTO 00000KT 6SM M05/M09 A3006 RMK SLP237 T10501088 52005 IEM_DS3505
ZBYN,1996-12-28 19:00,ZBYN 281900Z AUTO 00000KT 7SM M04/M12 A3006 RMK T10401120 IEM_DS3505
ZBYN,1996-12-28 20:00,ZBYN 282000Z AUTO 00000KT 7SM M05/M13 A3006 RMK T10501130 IEM_DS3505
ZBYN,1996-12-28 21:00,ZBYN 282100Z AUTO 36004KT 3SM M05/M09 A3006 RMK SLP236 T10481094 57004 IEM_DS3505
ZBYN,1996-12-28 22:00,ZBYN 282200Z AUTO 00000KT 7SM M06/M14 A3006 RMK T10601140 IEM_DS3505
ZBYN,1996-12-28 23:00,ZBYN 282300Z AUTO 14004KT 5SM M07/M13 A3006 RMK T10701130 IEM_DS3505
ZBYN,1996-12-29 00:00,ZBYN 290000Z AUTO 00000KT 1SM M08/M10 A3006 RMK SLP261 T10761103 52006 IEM_DS3505
ZBYN,1996-12-29 01:00,ZBYN 290100Z AUTO 00000KT 1 1/4SM M06/M11 A3006 RMK T10601110 IEM_DS3505
ZBYN,1996-12-29 02:00,ZBYN 290200Z AUTO 17002KT 1 1/4SM M02/M12 A3006 RMK T10201120 IEM_DS3505
ZBYN,1996-12-29 03:00,ZBYN 290300Z AUTO 36002KT 4SM 03/M10 A3006 RMK SLP239 T00261103 57003 IEM_DS3505
ZBYN,1996-12-29 04:00,ZBYN 290400Z AUTO 00000KT 1SM 06/M10 A3006 RMK T00601100 IEM_DS3505
ZBYN,1996-12-29 05:00,ZBYN 290500Z AUTO 14002KT 2 1/2SM 08/M11 A3000 RMK T00801110 IEM_DS3505
ZBYN,1996-12-29 06:00,ZBYN 290600Z AUTO 18008KT 5SM 04/M12 A2997 RMK SLP205 T00361120 57026 IEM_DS3505
ZBYN,1996-12-29 07:00,ZBYN 290700Z AUTO 19004KT 5SM 09/M11 A2997 RMK T00901110 IEM_DS3505
ZBYN,1996-12-29 08:00,ZBYN 290800Z AUTO 16006KT 5SM 09/M13 A2994 RMK T00901130 IEM_DS3505
ZBYN,1996-12-29 09:00,ZBYN 290900Z AUTO 29002KT 6SM 07/M08 A2994 RMK SLP191 T00661077 57016 IEM_DS3505
ZBYN,1996-12-29 10:00,ZBYN 291000Z AUTO 12004KT 5SM 06/M12 A2994 RMK T00601120 IEM_DS3505
ZBYN,1996-12-29 11:00,ZBYN 291100Z AUTO 00000KT 5SM 01/M11 A2994 RMK T00101110 IEM_DS3505
ZBYN,1996-12-29 12:00,ZBYN 291200Z AUTO 00000KT 5SM M00/M09 A2997 RMK SLP216 T10031089 52007 IEM_DS3505
ZBYN,1996-12-29 13:00,ZBYN 291300Z AUTO 09006KT 5SM 01/M16 A2997 RMK T00101160 IEM_DS3505
ZBYN,1996-12-29 14:00,ZBYN 291400Z AUTO 09008KT 6SM 01/M16 A2997 RMK T00101160 IEM_DS3505
ZBYN,1996-12-29 15:00,ZBYN 291500Z AUTO 20002KT 6SM M03/M12 A2997 RMK SLP208 T10311122 52005 IEM_DS3505
ZBYN,1996-12-29 16:00,ZBYN 291600Z AUTO 12004KT 6SM 00/M13 A2997 RMK T00001130 IEM_DS3505
ZBYN,1996-12-29 17:00,ZBYN 291700Z AUTO 00000KT 6SM M04/M14 A2997 RMK T10401140 IEM_DS3505
ZBYN,1996-12-29 18:00,ZBYN 291800Z AUTO 32004KT 5SM M03/M10 A2997 RMK SLP196 T10341096 57002 IEM_DS3505
ZBYN,1996-12-29 20:00,ZBYN 292000Z AUTO 00000KT 6SM M05/M16 A2997 RMK T10501160 IEM_DS3505
ZBYN,1996-12-29 21:00,ZBYN 292100Z AUTO 32004KT 6SM M06/M09 A2994 RMK SLP201 T10551090 57002 IEM_DS3505
ZBYN,1996-12-29 22:00,ZBYN 292200Z AUTO 00000KT 4SM M06/M12 A2997 RMK T10601120 IEM_DS3505
ZBYN,1996-12-29 23:00,ZBYN 292300Z AUTO 00000KT 4SM M06/M12 A2997 RMK T10601120 IEM_DS3505
ZBYN,1996-12-30 00:00,ZBYN 300000Z AUTO 36002KT 6SM M05/M10 A2997 RMK SLP218 T10491099 52005 IEM_DS3505
ZBYN,1996-12-30 01:00,ZBYN 300100Z AUTO 00000KT 1 1/4SM M04/M13 A3000 RMK T10401130 IEM_DS3505
ZBYN,1996-12-30 02:00,ZBYN 300200Z AUTO 00000KT 1 1/4SM M02/M12 A3000 RMK T10201120 IEM_DS3505
ZBYN,1996-12-30 03:00,ZBYN 300300Z AUTO 11004KT 6SM 02/M09 A3000 RMK SLP215 T00231089 52005 IEM_DS3505
ZBYN,1996-12-30 04:00,ZBYN 300400Z AUTO 06006KT 1 1/4SM 06/M12 A2997 RMK T00601120 IEM_DS3505
ZBYN,1996-12-30 05:00,ZBYN 300500Z AUTO 00000KT 1 1/4SM 08/M12 A2994 RMK T00801120 IEM_DS3505
ZBYN,1996-12-30 06:00,ZBYN 300600Z AUTO 14008KT 6SM 11/M09 A2991 RMK SLP173 T01111092 57025 IEM_DS3505
ZBYN,1996-12-30 07:00,ZBYN 300700Z AUTO 16004KT 2SM 11/M09 A2991 RMK T01101090 IEM_DS3505
ZBYN,1996-12-30 08:00,ZBYN 300800Z AUTO 09004KT 1 1/2SM 11/M09 A2991 RMK T01101090 IEM_DS3505
ZBYN,1996-12-30 09:00,ZBYN 300900Z AUTO 22004KT 5SM 08/M06 A2991 RMK SLP184 T00801060 52002 IEM_DS3505
ZBYN,1996-12-30 10:00,ZBYN 301000Z AUTO 06004KT 1 1/4SM 08/M05 A2991 RMK T00801050 IEM_DS3505
ZBYN,1996-12-30 11:00,ZBYN 301100Z AUTO 00000KT 1 1/4SM 05/M12 A2991 RMK T00501120 IEM_DS3505
ZBYN,1996-12-30 12:00,ZBYN 301200Z AUTO 00000KT 6SM 02/M05 A2994 RMK SLP193 T00241046 54000 IEM_DS3505
ZBYN,1996-12-30 13:00,ZBYN 301300Z AUTO 12004KT 1 1/4SM M02/M12 A2997 RMK T10201120 IEM_DS3505
ZBYN,1996-12-30 14:00,ZBYN 301400Z AUTO 12006KT 1 1/4SM M02/M14 A2997 RMK T10201140 IEM_DS3505
ZBYN,1996-12-30 15:00,ZBYN 301500Z AUTO 09002KT 1 1/2SM M02/M15 A2994 RMK T10201150 IEM_DS3505
ZBYN,1996-12-30 16:00,ZBYN 301600Z AUTO 11006KT 2SM M02/M15 A2991 RMK T10201150 IEM_DS3505
ZBYN,1996-12-30 17:00,ZBYN 301700Z AUTO 00000KT 2SM M02/M14 A2988 RMK T10201140 IEM_DS3505
ZBYN,1996-12-30 18:00,ZBYN 301800Z AUTO 02002KT 6SM 02/M07 A2985 RMK SLP142 T00211069 57028 IEM_DS3505
ZBYN,1996-12-30 21:00,ZBYN 302100Z AUTO 18004KT 6SM M04/M09 A2983 RMK SLP147 T10441092 57011 IEM_DS3505
ZBYN,1996-12-30 22:00,ZBYN 302200Z AUTO 00000KT 2SM M03/M11 A2980 RMK T10301110 IEM_DS3505
ZBYN,1996-12-30 23:00,ZBYN 302300Z AUTO 00000KT 1SM M03/M10 A2980 RMK T10301100 IEM_DS3505
