station,valid,metar
ZBYN,1984-01-01 00:00,ZBYN 010000Z AUTO 34004KT 4SM M11/M14 RMK SLP288 T11111140 54000 IEM_DS3505
ZBYN,1984-01-01 03:00,ZBYN 010300Z AUTO 00000KT 4SM M06/M10 RMK SLP285 T10601105 52002 IEM_DS3505
ZBYN,1984-01-01 06:00,ZBYN 010600Z AUTO 18006KT 6SM M00/M12 RMK SLP245 T10031119 4////1135 57031 IEM_DS3505
ZBYN,1984-01-01 09:00,ZBYN 010900Z AUTO 14004KT 5SM M01/M12 RMK SLP250 T10121119 57005 IEM_DS3505
ZBYN,1984-01-01 12:00,ZBYN 011200Z AUTO 00000KT 6SM M05/M11 RMK SLP255 T10541109 52008 IEM_DS3505
ZBYN,1984-01-01 18:00,ZBYN 011800Z AUTO 00000KT 4SM M12/M13 RMK SLP259 T11161130 52005 IEM_DS3505
ZBYN,1984-01-01 21:00,ZBYN 012100Z AUTO 29012KT 6SM M06/M10 RMK SLP272 T10571105 52021 IEM_DS3505
ZBYN,1984-01-02 00:00,ZBYN 020000Z AUTO 27016KT 7SM M08/M11 RMK SLP319 T10781114 52031 IEM_DS3505
ZBYN,1984-01-02 03:00,ZBYN 020300Z AUTO 29017KT 16SM M07/M21 RMK SLP360 T10671210 52032 IEM_DS3505
ZBYN,1984-01-02 06:00,ZBYN 020600Z AUTO 29019KT 12SM M05/M18 RMK SLP355 T10501183 4////1121 57006 IEM_DS3505
ZBYN,1984-01-02 09:00,ZBYN 020900Z AUTO 34010KT 12SM M06/M21 RMK SLP365 T10621210 52019 IEM_DS3505
ZBYN,1984-01-02 12:00,ZBYN 021200Z AUTO 34008KT 19SM M09/M20 RMK SLP396 T10861200 52020 IEM_DS3505
ZBYN,1984-01-02 15:00,ZBYN 021500Z AUTO 32004KT 19SM M10/M18 RMK SLP413 T10951183 52015 IEM_DS3505
ZBYN,1984-01-02 18:00,ZBYN 021800Z AUTO 22002KT 19SM M12/M19 RMK SLP412 T11151190 41045//// 57002 IEM_DS3505
ZBYN,1984-01-02 21:00,ZBYN 022100Z AUTO 00000KT 12SM M16/M19 RMK SLP417 T11571190 57004 IEM_DS3505
ZBYN,1984-01-03 03:00,ZBYN 030300Z AUTO 00000KT 5SM M10/M20 RMK SLP431 T10951200 52007 IEM_DS3505
ZBYN,1984-01-03 05:00,ZBYN 030500Z AUTO 18002KT 7SM M05/M21 A3053 RMK T10501210 IEM_DS3505
ZBYN,1984-01-03 06:00,ZBYN 030600Z AUTO 20004KT 5SM M04/M21 A3050 RMK SLP391 T10371210 4////1179 57030 IEM_DS3505
ZBYN,1984-01-03 08:00,ZBYN 030800Z AUTO 24004KT 7SM M03/M23 A3047 RMK T10301230 IEM_DS3505
ZBYN,1984-01-03 09:00,ZBYN 030900Z AUTO 00000KT 9SM M04/M19 RMK SLP390 T10371191 57008 IEM_DS3505
ZBYN,1984-01-03 12:00,ZBYN 031200Z AUTO 34004KT 6SM M08/M19 RMK SLP411 T10771191 52010 IEM_DS3505
ZBYN,1984-01-03 15:00,ZBYN 031500Z AUTO 36002KT 9SM M12/M19 RMK SLP418 T11171190 52012 IEM_DS3505
ZBYN,1984-01-03 18:00,ZBYN 031800Z AUTO 07002KT 9SM M15/M19 RMK SLP410 T11471190 41026//// 57002 IEM_DS3505
ZBYN,1984-01-03 21:00,ZBYN 032100Z AUTO 00000KT 7SM M17/M20 RMK SLP416 T11661200 52002 IEM_DS3505
ZBYN,1984-01-04 00:00,ZBYN 040000Z AUTO 00000KT 4SM M17/M19 RMK SLP423 T11711190 57001 IEM_DS3505
ZBYN,1984-01-04 03:00,ZBYN 040300Z AUTO 00000KT 5SM M08/M15 RMK SLP410 T10771147 57003 IEM_DS3505
ZBYN,1984-01-04 06:00,ZBYN 040600Z AUTO 00000KT 4SM M02/M22 RMK SLP366 T10221220 4////1174 57036 IEM_DS3505
ZBYN,1984-01-04 09:00,ZBYN 040900Z AUTO 00000KT 6SM M02/M19 RMK SLP356 T10211191 57012 IEM_DS3505
ZBYN,1984-01-04 12:00,ZBYN 041200Z AUTO 00000KT 6SM M09/M17 RMK SLP378 T10911167 52006 IEM_DS3505
ZBYN,1984-01-04 15:00,ZBYN 041500Z AUTO 00000KT 6SM M13/M16 RMK SLP358 T11261160 57006 IEM_DS3505
ZBYN,1984-01-04 18:00,ZBYN 041800Z AUTO 00000KT 6SM M14/M18 RMK SLP350 T11411180 57001 IEM_DS3505
ZBYN,1984-01-04 21:00,ZBYN 042100Z AUTO 34004KT 6SM M12/M17 RMK SLP323 T11151170 57020 IEM_DS3505
ZBYN,1984-01-05 00:00,ZBYN 050000Z AUTO 00000KT 4SM M14/M17 RMK SLP355 T11441170 52011 IEM_DS3505
ZBYN,1984-01-05 03:00,ZBYN 050300Z AUTO 18002KT 4SM M08/M17 RMK SLP352 T10771167 52004 IEM_DS3505
ZBYN,1984-01-05 06:00,ZBYN 050600Z AUTO 20004KT 4SM M01/M18 RMK SLP309 T10081183 4////1149 57029 IEM_DS3505
ZBYN,1984-01-05 09:00,ZBYN 050900Z AUTO 16004KT 6SM M02/M17 RMK SLP307 T10181167 54000 IEM_DS3505
ZBYN,1984-01-05 12:00,ZBYN 051200Z AUTO 34004KT 6SM M05/M17 RMK SLP338 T10501167 52017 IEM_DS3505
ZBYN,1984-01-05 15:00,ZBYN 051500Z AUTO 02004KT 4SM M08/M18 RMK SLP343 T10771175 52012 IEM_DS3505
ZBYN,1984-01-05 18:00,ZBYN 051800Z AUTO 18002KT 5SM M13/M17 RMK SLP338 T11301170 40001//// 57002 IEM_DS3505
ZBYN,1984-01-05 21:00,ZBYN 052100Z AUTO 00000KT 5SM M15/M17 RMK SLP342 T11491170 57001 IEM_DS3505
ZBYN,1984-01-06 00:00,ZBYN 060000Z AUTO 00000KT 4SM M16/M19 RMK SLP360 T11641190 52009 IEM_DS3505
ZBYN,1984-01-06 03:00,ZBYN 060300Z AUTO 00000KT 4SM M05/M16 RMK SLP351 T10511160 52006 IEM_DS3505
ZBYN,1984-01-06 06:00,ZBYN 060600Z AUTO 25004KT 9SM 01/M16 RMK SLP317 T00121160 4////1164 57029 IEM_DS3505
ZBYN,1984-01-06 09:00,ZBYN 060900Z AUTO 34006KT 6SM M00/M14 RMK SLP331 T10031135 52006 IEM_DS3505
ZBYN,1984-01-06 12:00,ZBYN 061200Z AUTO 32004KT 7SM M06/M20 RMK SLP371 T10601200 52024 IEM_DS3505
ZBYN,1984-01-06 15:00,ZBYN 061500Z AUTO 20004KT 9SM M06/M17 RMK SLP360 T10641167 52009 IEM_DS3505
ZBYN,1984-01-06 18:00,ZBYN 061800Z AUTO 18004KT 12SM M08/M19 RMK SLP352 T10841191 40025//// 54000 IEM_DS3505
ZBYN,1984-01-06 21:00,ZBYN 062100Z AUTO 16002KT 12SM M13/M19 RMK SLP349 T11281186 57013 IEM_DS3505
ZBYN,1984-01-07 00:00,ZBYN 070000Z AUTO 00000KT 11SM M14/M18 A3039 RMK SLP368 T11451180 52005 IEM_DS3505
ZBYN,1984-01-07 01:00,ZBYN 070100Z AUTO 00000KT 7SM M13/M16 A3042 RMK T11301160 IEM_DS3505
ZBYN,1984-01-07 02:00,ZBYN 070200Z AUTO 00000KT 7SM M06/M18 A3042 RMK T10601180 IEM_DS3505
ZBYN,1984-01-07 03:00,ZBYN 070300Z AUTO 12002KT 7SM M03/M17 A3042 RMK SLP349 T10301170 52002 IEM_DS3505
ZBYN,1984-01-07 04:00,ZBYN 070400Z AUTO 16004KT 7SM M01/M16 A3039 RMK T10101160 IEM_DS3505
ZBYN,1984-01-07 05:00,ZBYN 070500Z AUTO 19004KT 7SM 01/M17 A3039 RMK T00101170 IEM_DS3505
ZBYN,1984-01-07 06:00,ZBYN 070600Z AUTO 27016KT 12SM 04/M17 A3030 RMK SLP303 T00371167 4////1153 57034 IEM_DS3505
ZBYN,1984-01-07 07:00,ZBYN 070700Z AUTO 28021KT 7SM 05/ A3030 RMK IEM_DS3505
ZBYN,1984-01-07 08:00,ZBYN 070800Z AUTO 28016KT 7SM 04/M13 A3030 RMK T00401130 IEM_DS3505
ZBYN,1984-01-07 09:00,ZBYN 070900Z AUTO 32010KT 16SM 02/M14 A3030 RMK SLP313 T00231135 57001 IEM_DS3505
ZBYN,1984-01-07 10:00,ZBYN 071000Z AUTO 29014KT 7SM 00/ A3030 RMK IEM_DS3505
ZBYN,1984-01-07 11:00,ZBYN 071100Z AUTO 29017KT 7SM M01/M13 A3033 RMK T10101130 IEM_DS3505
ZBYN,1984-01-07 12:00,ZBYN 071200Z AUTO 32010KT 17SM M01/M18 A3033 RMK SLP336 T10061175 52013 IEM_DS3505
ZBYN,1984-01-07 15:00,ZBYN 071500Z AUTO 29004KT 17SM M04/M22 RMK SLP331 T10411220 52009 IEM_DS3505
ZBYN,1984-01-07 18:00,ZBYN 071800Z AUTO 00000KT 16SM M09/M19 RMK SLP315 T10921191 40043//// 57012 IEM_DS3505
ZBYN,1984-01-07 21:00,ZBYN 072100Z AUTO 14006KT 9SM M09/M18 RMK SLP306 T10861175 57008 IEM_DS3505
ZBYN,1984-01-08 00:00,ZBYN 080000Z AUTO 14004KT 12SM M10/M17 RMK SLP319 T11041170 52004 IEM_DS3505
ZBYN,1984-01-08 03:00,ZBYN 080300Z AUTO 18004KT 12SM M01/M16 RMK SLP314 T10071160 52005 IEM_DS3505
ZBYN,1984-01-08 06:00,ZBYN 080600Z AUTO 25006KT 16SM 05/M11 RMK SLP273 T00491114 4////1116 57036 IEM_DS3505
ZBYN,1984-01-08 09:00,ZBYN 080900Z AUTO 20004KT 12SM 04/M17 RMK SLP268 T00401167 57006 IEM_DS3505
ZBYN,1984-01-08 12:00,ZBYN 081200Z AUTO 29006KT 19SM M01/M15 RMK SLP286 T10101147 52006 IEM_DS3505
ZBYN,1984-01-08 15:00,ZBYN 081500Z AUTO 09004KT 16SM M06/M16 RMK SLP279 T10641160 52001 IEM_DS3505
ZBYN,1984-01-08 18:00,ZBYN 081800Z AUTO 14004KT 9SM M10/M17 RMK SLP260 T10971167 57019 IEM_DS3505
ZBYN,1984-01-08 21:00,ZBYN 082100Z AUTO 00000KT 9SM M11/M16 RMK SLP245 T11081160 57016 IEM_DS3505
ZBYN,1984-01-09 00:00,ZBYN 090000Z AUTO 00000KT 6SM M12/M16 RMK SLP254 T11201160 57003 IEM_DS3505
ZBYN,1984-01-09 03:00,ZBYN 090300Z AUTO 14006KT 5SM M01/M14 RMK SLP241 T10101141 57002 IEM_DS3505
ZBYN,1984-01-09 06:00,ZBYN 090600Z AUTO 16006KT 7SM 06/M15 RMK SLP182 T00631147 4////1126 57046 IEM_DS3505
ZBYN,1984-01-09 09:00,ZBYN 090900Z AUTO 16006KT 16SM 05/M15 RMK SLP191 T00531154 52003 IEM_DS3505
ZBYN,1984-01-09 12:00,ZBYN 091200Z AUTO 32012KT 16SM 04/M18 RMK SLP213 T00451178 52017 IEM_DS3505
ZBYN,1984-01-09 15:00,ZBYN 091500Z AUTO 18002KT 16SM M00/M15 RMK SLP216 T10051154 52012 IEM_DS3505
ZBYN,1984-01-09 18:00,ZBYN 091800Z AUTO 00000KT 16SM M07/M17 RMK SLP221 T10711167 40073//// 52007 IEM_DS3505
ZBYN,1984-01-09 21:00,ZBYN 092100Z AUTO 16004KT 16SM M06/M18 RMK SLP229 T10641183 52006 IEM_DS3505
ZBYN,1984-01-09 22:00,ZBYN 092200Z AUTO 10008KT 7SM M10/M19 A3012 RMK T11001190 IEM_DS3505
ZBYN,1984-01-09 23:00,ZBYN 092300Z AUTO 09004KT 7SM M10/M21 A3012 RMK T11001210 IEM_DS3505
ZBYN,1984-01-10 00:00,ZBYN 100000Z AUTO 00000KT 11SM M10/M16 A3015 RMK SLP252 T10961160 52014 IEM_DS3505
ZBYN,1984-01-10 01:00,ZBYN 100100Z AUTO 00000KT 7SM M09/M18 A3015 RMK T10901180 IEM_DS3505
ZBYN,1984-01-10 02:00,ZBYN 100200Z AUTO 00000KT 4SM M03/M17 A3015 RMK T10301170 IEM_DS3505
ZBYN,1984-01-10 03:00,ZBYN 100300Z AUTO 00000KT 5SM 01/M15 A3015 RMK SLP252 T00101147 52011 IEM_DS3505
ZBYN,1984-01-10 05:00,ZBYN 100500Z AUTO 16004KT 6SM 05/M16 A3015 RMK T00501160 IEM_DS3505
ZBYN,1984-01-10 06:00,ZBYN 100600Z AUTO 18008KT 7SM 06/M11 A3012 RMK SLP227 T00611114 4////1107 57027 IEM_DS3505
ZBYN,1984-01-10 08:00,ZBYN 100800Z AUTO 21012KT 7SM 06/M23 A3006 RMK T00601230 IEM_DS3505
ZBYN,1984-01-10 09:00,ZBYN 100900Z AUTO 18008KT 16SM 05/M16 RMK SLP224 T00471160 57003 IEM_DS3505
ZBYN,1984-01-10 12:00,ZBYN 101200Z AUTO 29004KT 12SM 02/M10 RMK SLP250 T00251096 52014 IEM_DS3505
ZBYN,1984-01-10 15:00,ZBYN 101500Z AUTO 00000KT 12SM M06/M18 RMK SLP261 T10561183 52014 IEM_DS3505
ZBYN,1984-01-10 18:00,ZBYN 101800Z AUTO 00000KT 6SM M10/M19 RMK SLP257 T10981191 40068//// 52002 IEM_DS3505
ZBYN,1984-01-10 21:00,ZBYN 102100Z AUTO 00000KT 6SM M09/M18 RMK SLP245 T10901175 57012 IEM_DS3505
ZBYN,1984-01-11 00:00,ZBYN 110000Z AUTO 34004KT 6SM M10/M16 RMK SLP261 T11021160 52009 IEM_DS3505
ZBYN,1984-01-11 03:00,ZBYN 110300Z AUTO 16002KT 3SM M00/M15 RMK SLP259 T10041147 52002 IEM_DS3505
ZBYN,1984-01-11 06:00,ZBYN 110600Z AUTO 20004KT 5SM 05/M16 RMK SLP234 T00531160 4////1121 57022 IEM_DS3505
ZBYN,1984-01-11 09:00,ZBYN 110900Z AUTO 29010KT 12SM 06/M18 RMK T00561183 57005 IEM_DS3505
ZBYN,1984-01-11 12:00,ZBYN 111200Z AUTO 34004KT 16SM 02/M19 RMK SLP277 T00251191 52040 IEM_DS3505
ZBYN,1984-01-11 15:00,ZBYN 111500Z AUTO 00000KT 9SM 02/M23 RMK SLP276 T00191231 52014 IEM_DS3505
ZBYN,1984-01-11 18:00,ZBYN 111800Z AUTO 36006KT 9SM M01/M16 RMK SLP280 T10141160 40073//// 52008 IEM_DS3505
ZBYN,1984-01-11 21:00,ZBYN 112100Z AUTO 36004KT 16SM M04/ RMK SLP292 52007 IEM_DS3505
ZBYN,1984-01-12 00:00,ZBYN 120000Z AUTO 02004KT 7SM M06/M16 RMK SLP322 T10591160 52019 IEM_DS3505
ZBYN,1984-01-12 03:00,ZBYN 120300Z AUTO 02008KT 9SM M02/M16 RMK SLP323 T10161160 52006 IEM_DS3505
ZBYN,1984-01-12 06:00,ZBYN 120600Z AUTO 25004KT 6SM 02/M16 RMK SLP276 T00181160 4////1060 57041 IEM_DS3505
ZBYN,1984-01-12 09:00,ZBYN 120900Z AUTO 19006KT 9SM 01/M17 RMK SLP270 T00061167 57012 IEM_DS3505
ZBYN,1984-01-12 12:00,ZBYN 121200Z AUTO 00000KT 9SM M04/M17 RMK SLP281 T10391167 57001 IEM_DS3505
ZBYN,1984-01-12 15:00,ZBYN 121500Z AUTO 16002KT 9SM M09/M18 RMK SLP277 T10871183 57005 IEM_DS3505
ZBYN,1984-01-12 18:00,ZBYN 121800Z AUTO 20002KT 14SM M10/M18 RMK SLP243 T11001180 40024//// 57027 IEM_DS3505
ZBYN,1984-01-12 21:00,ZBYN 122100Z AUTO 00000KT 12SM M12/M18 RMK SLP229 T11251180 57019 IEM_DS3505
ZBYN,1984-01-13 00:00,ZBYN 130000Z AUTO 00000KT 5SM M13/M17 RMK SLP226 T11301170 57011 IEM_DS3505
ZBYN,1984-01-13 03:00,ZBYN 130300Z AUTO 00000KT 5SM M02/M17 RMK SLP202 T10211167 57012 IEM_DS3505
ZBYN,1984-01-13 06:00,ZBYN 130600Z AUTO 20006KT 7SM 06/M10 RMK SLP141 T00611105 4////1132 57044 IEM_DS3505
ZBYN,1984-01-13 09:00,ZBYN 130900Z AUTO 00000KT 12SM 06/M10 RMK SLP133 T00651096 57009 IEM_DS3505
ZBYN,1984-01-13 12:00,ZBYN 131200Z AUTO 34008KT 9SM 04/M20 RMK SLP158 T00371200 52016 IEM_DS3505
ZBYN,1984-01-13 15:00,ZBYN 131500Z AUTO 00000KT 9SM M01/M18 RMK SLP175 T10141175 52025 IEM_DS3505
ZBYN,1984-01-13 18:00,ZBYN 131800Z AUTO 36006KT 6SM M04/M18 RMK SLP161 T10411183 40083//// IEM_DS3505
ZBYN,1984-01-13 21:00,ZBYN 132100Z AUTO 34006KT 6SM M05/M18 RMK SLP169 T10471183 52007 IEM_DS3505
ZBYN,1984-01-14 00:00,ZBYN 140000Z AUTO 36006KT 6SM M02/M16 RMK SLP205 T10211160 52032 IEM_DS3505
ZBYN,1984-01-14 03:00,ZBYN 140300Z AUTO 34012KT 5SM M02/M15 A3012 RMK SLP246 T10201154 52029 IEM_DS3505
ZBYN,1984-01-14 04:00,ZBYN 140400Z AUTO 33017KT 6SM 00/M12 A3012 RMK T00001120 IEM_DS3505
ZBYN,1984-01-14 05:00,ZBYN 140500Z AUTO 35016KT 6SM M01/M14 A3012 RMK T10101140 IEM_DS3505
ZBYN,1984-01-14 06:00,ZBYN 140600Z AUTO 36010KT 6SM M02/M16 A3012 RMK SLP238 T10181160 4////1049 57011 IEM_DS3505
ZBYN,1984-01-14 07:00,ZBYN 140700Z AUTO 34014KT 6SM 00/M13 A3012 RMK T00001130 IEM_DS3505
ZBYN,1984-01-14 08:00,ZBYN 140800Z AUTO 33014KT 6SM 00/M14 A3006 RMK T00001140 IEM_DS3505
ZBYN,1984-01-14 09:00,ZBYN 140900Z AUTO 02006KT 6SM M02/M18 A3012 RMK SLP259 T10181183 52017 IEM_DS3505
ZBYN,1984-01-14 12:00,ZBYN 141200Z AUTO 36008KT 9SM M03/M23 RMK SLP292 T10321231 52032 IEM_DS3505
ZBYN,1984-01-14 15:00,ZBYN 141500Z AUTO 36010KT 9SM M06/M22 RMK SLP322 T10551220 52023 IEM_DS3505
ZBYN,1984-01-14 18:00,ZBYN 141800Z AUTO 36006KT 9SM M08/M24 RMK SLP336 T10761244 41008//// 52011 IEM_DS3505
ZBYN,1984-01-14 21:00,ZBYN 142100Z AUTO 34008KT 9SM M09/M26 RMK SLP350 T10931258 52009 IEM_DS3505
ZBYN,1984-01-15 00:00,ZBYN 150000Z AUTO 34006KT 7SM M11/M25 RMK SLP374 T11061250 52017 IEM_DS3505
ZBYN,1984-01-15 03:00,ZBYN 150300Z AUTO 36004KT 7SM M07/M27 RMK SLP381 T10741274 52008 IEM_DS3505
ZBYN,1984-01-15 06:00,ZBYN 150600Z AUTO 36002KT 11SM M04/M24 RMK SLP342 T10421244 4////1116 57033 IEM_DS3505
ZBYN,1984-01-15 09:00,ZBYN 150900Z AUTO 34004KT 19SM M04/M27 RMK SLP336 T10351274 57008 IEM_DS3505
ZBYN,1984-01-15 12:00,ZBYN 151200Z AUTO 32004KT 12SM M09/M26 RMK SLP362 T10871258 52012 IEM_DS3505
ZBYN,1984-01-15 15:00,ZBYN 151500Z AUTO 34002KT 19SM M09/M27 RMK SLP368 T10901274 52011 IEM_DS3505
ZBYN,1984-01-15 18:00,ZBYN 151800Z AUTO 29004KT 16SM M13/M25 RMK SLP350 T11321250 41022//// 57018 IEM_DS3505
ZBYN,1984-01-15 21:00,ZBYN 152100Z AUTO 00000KT 12SM M17/M26 RMK SLP354 T11671260 57001 IEM_DS3505
ZBYN,1984-01-16 00:00,ZBYN 160000Z AUTO 34002KT 6SM M14/M22 RMK SLP356 T11421220 57004 IEM_DS3505
ZBYN,1984-01-16 03:00,ZBYN 160300Z AUTO 09004KT 5SM M07/M21 RMK SLP338 T10701210 57003 IEM_DS3505
ZBYN,1984-01-16 06:00,ZBYN 160600Z AUTO 18004KT 8SM M05/M15 RMK SLP303 T10501154 4////1171 57036 IEM_DS3505
ZBYN,1984-01-16 09:00,ZBYN 160900Z AUTO 18004KT 9SM M04/M22 RMK SLP291 T10451220 57016 IEM_DS3505
ZBYN,1984-01-16 12:00,ZBYN 161200Z AUTO 00000KT 6SM M05/M22 RMK SLP310 T10501220 52014 IEM_DS3505
ZBYN,1984-01-16 15:00,ZBYN 161500Z AUTO 00000KT 6SM M10/M20 RMK SLP310 T10961200 52011 IEM_DS3505
ZBYN,1984-01-16 18:00,ZBYN 161800Z AUTO 34004KT 6SM M11/M21 RMK SLP302 T11131210 41040//// 57006 IEM_DS3505
ZBYN,1984-01-16 21:00,ZBYN 162100Z AUTO 34004KT 6SM M12/M20 RMK SLP301 T11201200 57002 IEM_DS3505
ZBYN,1984-01-17 00:00,ZBYN 170000Z AUTO 00000KT 5SM M17/M23 RMK SLP331 T11671230 52011 IEM_DS3505
ZBYN,1984-01-17 03:00,ZBYN 170300Z AUTO 00000KT 3SM M06/M20 A3024 RMK SLP310 T10651200 57002 IEM_DS3505
ZBYN,1984-01-17 04:00,ZBYN 170400Z AUTO 00000KT 5SM M04/M21 A3024 RMK T10401210 IEM_DS3505
ZBYN,1984-01-17 05:00,ZBYN 170500Z AUTO 26006KT 4SM M02/M23 A3021 RMK T10201230 IEM_DS3505
ZBYN,1984-01-17 06:00,ZBYN 170600Z AUTO 20004KT 5SM M02/M22 A3015 RMK SLP269 T10181220 4////1172 57032 IEM_DS3505
ZBYN,1984-01-17 08:00,ZBYN 170800Z AUTO 00000KT 4SM 00/M19 A3012 RMK T00001190 IEM_DS3505
ZBYN,1984-01-17 09:00,ZBYN 170900Z AUTO 18004KT 6SM M02/M18 A3012 RMK SLP256 T10211183 57013 IEM_DS3505
ZBYN,1984-01-17 12:00,ZBYN 171200Z AUTO 34004KT 4SM M06/M18 RMK SLP294 T10601183 52019 IEM_DS3505
ZBYN,1984-01-17 15:00,ZBYN 171500Z AUTO 00000KT 6SM M06/M21 RMK SLP277 T10651210 52002 IEM_DS3505
ZBYN,1984-01-17 18:00,ZBYN 171800Z AUTO 00000KT 6SM M09/M19 RMK SLP278 T10901191 41004//// 52004 IEM_DS3505
ZBYN,1984-01-17 21:00,ZBYN 172100Z AUTO 34004KT 6SM M09/M23 RMK SLP280 T10911231 52001 IEM_DS3505
ZBYN,1984-01-18 00:00,ZBYN 180000Z AUTO 34006KT 4SM M10/M21 RMK SLP290 T10971210 52002 IEM_DS3505
ZBYN,1984-01-18 03:00,ZBYN 180300Z AUTO 34004KT 5SM M05/M21 RMK SLP297 T10461210 52014 IEM_DS3505
ZBYN,1984-01-18 06:00,ZBYN 180600Z AUTO 36004KT 7SM M01/M21 RMK SLP268 T10081210 4////1103 57024 IEM_DS3505
ZBYN,1984-01-18 09:00,ZBYN 180900Z AUTO 34004KT 6SM M01/M22 RMK SLP257 T10091220 57010 IEM_DS3505
ZBYN,1984-01-18 12:00,ZBYN 181200Z AUTO 00000KT 9SM M07/M18 RMK SLP295 T10711183 52023 IEM_DS3505
ZBYN,1984-01-18 15:00,ZBYN 181500Z AUTO 34002KT 7SM M07/M19 RMK SLP307 T10701191 52019 IEM_DS3505
ZBYN,1984-01-18 18:00,ZBYN 181800Z AUTO 34006KT 7SM M07/M22 RMK SLP302 T10721220 41005//// 52003 IEM_DS3505
ZBYN,1984-01-18 21:00,ZBYN 182100Z AUTO 36004KT 6SM M09/M22 RMK SLP302 T10881220 57004 IEM_DS3505
ZBYN,1984-01-19 00:00,ZBYN 190000Z AUTO 00000KT 6SM M09/M22 RMK SLP324 T10941220 52013 IEM_DS3505
ZBYN,1984-01-19 03:00,ZBYN 190300Z AUTO 00000KT 6SM RMK SLP322 52008 IEM_DS3505
ZBYN,1984-01-19 06:00,ZBYN 190600Z AUTO 00000KT 6SM M02/M21 RMK SLP292 T10191210 4////1096 57002 IEM_DS3505
ZBYN,1984-01-19 09:00,ZBYN 190900Z AUTO 16004KT 6SM M02/M18 RMK SLP288 T10211175 57007 IEM_DS3505
ZBYN,1984-01-19 12:00,ZBYN 191200Z AUTO 00000KT 6SM M06/M20 RMK SLP306 T10631200 52009 IEM_DS3505
ZBYN,1984-01-19 15:00,ZBYN 191500Z AUTO 34006KT 6SM M07/M19 RMK SLP308 T10731191 52006 IEM_DS3505
ZBYN,1984-01-19 18:00,ZBYN 191800Z AUTO 34004KT 7SM M09/M20 RMK SLP305 T10921200 41009//// 54000 IEM_DS3505
ZBYN,1984-01-19 21:00,ZBYN 192100Z AUTO 34006KT 6SM M09/M21 RMK SLP298 T10911210 57006 IEM_DS3505
ZBYN,1984-01-20 00:00,ZBYN 200000Z AUTO 00000KT 6SM M13/M21 RMK SLP326 T11281210 52011 IEM_DS3505
ZBYN,1984-01-20 03:00,ZBYN 200300Z AUTO 34002KT 5SM M05/M19 RMK SLP312 T10471191 54000 IEM_DS3505
ZBYN,1984-01-20 06:00,ZBYN 200600Z AUTO 20006KT 5SM M01/M18 RMK SLP276 T10101175 4////1131 57030 IEM_DS3505
ZBYN,1984-01-20 09:00,ZBYN 200900Z AUTO 16004KT 7SM M01/M18 RMK SLP269 T10071175 57005 IEM_DS3505
ZBYN,1984-01-20 12:00,ZBYN 201200Z AUTO 36008KT 9SM M03/M22 RMK T10341220 52018 IEM_DS3505
ZBYN,1984-01-20 15:00,ZBYN 201500Z AUTO 32012KT 9SM M06/M22 RMK SLP303 T10561220 52012 IEM_DS3505
ZBYN,1984-01-20 18:00,ZBYN 201800Z AUTO 32006KT 9SM M09/M26 RMK SLP310 T10861258 40003//// 52007 IEM_DS3505
ZBYN,1984-01-20 21:00,ZBYN 202100Z AUTO 34006KT 12SM M10/M26 RMK SLP314 T10991258 52002 IEM_DS3505
ZBYN,1984-01-21 00:00,ZBYN 210000Z AUTO 34006KT 12SM M11/M23 RMK SLP335 T11121230 52012 IEM_DS3505
ZBYN,1984-01-21 03:00,ZBYN 210300Z AUTO 29012KT 16SM M08/M23 A3033 RMK SLP335 T10771231 52003 IEM_DS3505
ZBYN,1984-01-21 05:00,ZBYN 210500Z AUTO 27016KT 7SM M05/M23 A3030 RMK T10501230 IEM_DS3505
ZBYN,1984-01-21 06:00,ZBYN 210600Z AUTO 27016KT 14SM M05/M20 A3024 RMK SLP302 T10501200 4////1116 57031 IEM_DS3505
ZBYN,1984-01-21 08:00,ZBYN 210800Z AUTO 28017KT 7SM M04/M22 A3024 RMK T10401220 IEM_DS3505
ZBYN,1984-01-21 09:00,ZBYN 210900Z AUTO 32010KT 16SM M05/M23 A3024 RMK SLP305 T10521231 51010 IEM_DS3505
ZBYN,1984-01-21 12:00,ZBYN 211200Z AUTO 29006KT 17SM M08/M26 RMK SLP333 T10841258 52017 IEM_DS3505
ZBYN,1984-01-21 15:00,ZBYN 211500Z AUTO 34004KT 19SM M10/M23 RMK SLP332 T11001231 52003 IEM_DS3505
ZBYN,1984-01-21 18:00,ZBYN 211800Z AUTO 29004KT 19SM M13/M24 RMK SLP321 T11271240 41038//// 57011 IEM_DS3505
ZBYN,1984-01-21 21:00,ZBYN 212100Z AUTO 11004KT 19SM M16/M25 RMK SLP323 T11651250 57006 IEM_DS3505
ZBYN,1984-01-22 00:00,ZBYN 220000Z AUTO 00000KT 11SM M18/M25 RMK SLP338 T11771250 52006 IEM_DS3505
ZBYN,1984-01-22 03:00,ZBYN 220300Z AUTO 14006KT 16SM M08/M21 RMK SLP324 T10791210 52002 IEM_DS3505
ZBYN,1984-01-22 06:00,ZBYN 220600Z AUTO 22006KT 17SM M03/M22 RMK SLP280 T10301220 4////1182 57036 IEM_DS3505
ZBYN,1984-01-22 09:00,ZBYN 220900Z AUTO 18008KT 17SM M03/M20 RMK SLP280 T10311200 57007 IEM_DS3505
ZBYN,1984-01-22 12:00,ZBYN 221200Z AUTO 29010KT 17SM M06/M24 RMK SLP307 T10551244 52018 IEM_DS3505
ZBYN,1984-01-22 15:00,ZBYN 221500Z AUTO 32010KT 12SM M08/M21 RMK SLP310 T10781210 52016 IEM_DS3505
ZBYN,1984-01-22 18:00,ZBYN 221800Z AUTO 00000KT 12SM M13/M22 RMK SLP305 T11321220 41020//// 57005 IEM_DS3505
ZBYN,1984-01-22 21:00,ZBYN 222100Z AUTO 00000KT 7SM M15/M22 RMK SLP318 T11481220 52009 IEM_DS3505
ZBYN,1984-01-23 00:00,ZBYN 230000Z AUTO 00000KT 12SM M16/M22 RMK SLP346 T11611220 52018 IEM_DS3505
ZBYN,1984-01-23 03:00,ZBYN 230300Z AUTO 20006KT 4SM RMK SLP343 52009 IEM_DS3505
ZBYN,1984-01-23 06:00,ZBYN 230600Z AUTO 20010KT 11SM M02/M20 RMK T10201200 4////1177 57024 IEM_DS3505
ZBYN,1984-01-23 09:00,ZBYN 230900Z AUTO 22006KT 16SM M02/M19 RMK SLP318 T10221191 57001 IEM_DS3505
ZBYN,1984-01-23 12:00,ZBYN 231200Z AUTO 32004KT 11SM M06/M23 RMK SLP360 T10641231 52026 IEM_DS3505
ZBYN,1984-01-23 15:00,ZBYN 231500Z AUTO 00000KT 6SM M10/M20 RMK SLP359 T11011200 52009 IEM_DS3505
ZBYN,1984-01-23 18:00,ZBYN 231800Z AUTO 00000KT 6SM M13/M21 RMK SLP360 T11281210 41012//// 52006 IEM_DS3505
ZBYN,1984-01-23 21:00,ZBYN 232100Z AUTO 36004KT 6SM M10/M17 RMK SLP358 T11041170 52001 IEM_DS3505
ZBYN,1984-01-24 00:00,ZBYN 240000Z AUTO 07002KT 7SM M15/M20 A3042 RMK SLP386 T11511200 52010 IEM_DS3505
ZBYN,1984-01-24 01:00,ZBYN 240100Z AUTO 00000KT 1SM M15/M21 A3047 RMK T11501210 IEM_DS3505
ZBYN,1984-01-24 02:00,ZBYN 240200Z AUTO 00000KT 2SM M09/M23 A3047 RMK T10901230 IEM_DS3505
ZBYN,1984-01-24 03:00,ZBYN 240300Z AUTO 24004KT 4SM M07/M24 A3047 RMK SLP383 T10701240 52006 IEM_DS3505
ZBYN,1984-01-24 04:00,ZBYN 240400Z AUTO 00000KT 5SM M05/M22 A3042 RMK T10501220 IEM_DS3505
ZBYN,1984-01-24 06:00,ZBYN 240600Z AUTO 18004KT 12SM M02/M23 RMK SLP339 T10251231 4////1168 57037 IEM_DS3505
ZBYN,1984-01-24 07:00,ZBYN 240700Z AUTO 18008KT 6SM M03/M20 A3033 RMK T10301200 IEM_DS3505
ZBYN,1984-01-24 08:00,ZBYN 240800Z AUTO 31004KT 3SM A3062 RMK IEM_DS3505
ZBYN,1984-01-24 09:00,ZBYN 240900Z AUTO 32012KT 19SM M02/M24 RMK SLP334 T10251244 54000 IEM_DS3505
ZBYN,1984-01-24 12:00,ZBYN 241200Z AUTO 29004KT 19SM M08/M24 RMK SLP386 T10761244 52029 IEM_DS3505
ZBYN,1984-01-24 15:00,ZBYN 241500Z AUTO 00000KT 16SM M12/M22 RMK SLP388 T11191220 52010 IEM_DS3505
ZBYN,1984-01-24 18:00,ZBYN 241800Z AUTO 00000KT 11SM M15/M22 RMK SLP376 T11491220 41013//// 57009 IEM_DS3505
ZBYN,1984-01-24 21:00,ZBYN 242100Z AUTO 04004KT 9SM M16/M22 RMK SLP385 T11611220 52005 IEM_DS3505
ZBYN,1984-01-25 00:00,ZBYN 250000Z AUTO 00000KT 6SM M16/M22 RMK SLP396 T11631220 52002 IEM_DS3505
ZBYN,1984-01-25 03:00,ZBYN 250300Z AUTO 18004KT 6SM M07/M22 RMK SLP394 T10731220 52009 IEM_DS3505
ZBYN,1984-01-25 06:00,ZBYN 250600Z AUTO 00000KT 9SM M02/M23 RMK SLP350 T10251231 4////1179 57036 IEM_DS3505
ZBYN,1984-01-25 09:00,ZBYN 250900Z AUTO 32008KT 16SM M02/M23 RMK SLP349 T10221231 57003 IEM_DS3505
ZBYN,1984-01-25 11:00,ZBYN 251100Z AUTO 32004KT 16SM M07/M26 RMK SLP386 T10671258 52026 IEM_DS3505
ZBYN,1984-01-25 12:00,ZBYN 251200Z AUTO 32004KT 16SM M07/M26 RMK SLP386 T10671258 52026 IEM_DS3505
ZBYN,1984-01-25 18:00,ZBYN 251800Z AUTO 36006KT 11SM M11/M21 RMK SLP375 T11101210 41009//// 57008 IEM_DS3505
ZBYN,1984-01-25 21:00,ZBYN 252100Z AUTO 00000KT 12SM M15/M23 RMK SLP392 T11491230 52009 IEM_DS3505
ZBYN,1984-01-26 00:00,ZBYN 260000Z AUTO 34006KT 6SM M14/M22 RMK SLP402 T11371220 52005 IEM_DS3505
ZBYN,1984-01-26 03:00,ZBYN 260300Z AUTO 32006KT 7SM M08/M24 RMK SLP405 T10771244 52005 IEM_DS3505
ZBYN,1984-01-26 06:00,ZBYN 260600Z AUTO 11004KT 7SM M01/M22 RMK SLP344 T10141220 4////1156 57044 IEM_DS3505
ZBYN,1984-01-26 09:00,ZBYN 260900Z AUTO 18002KT 7SM M01/M22 RMK SLP346 T10131220 57006 IEM_DS3505
ZBYN,1984-01-26 12:00,ZBYN 261200Z AUTO 32004KT 6SM M07/M22 RMK SLP373 T10711220 52017 IEM_DS3505
ZBYN,1984-01-26 15:00,ZBYN 261500Z AUTO 34006KT 6SM M08/M22 RMK SLP379 T10841220 52013 IEM_DS3505
ZBYN,1984-01-26 18:00,ZBYN 261800Z AUTO 00000KT 6SM M10/M18 RMK SLP360 T11031180 41004//// 57009 IEM_DS3505
ZBYN,1984-01-26 21:00,ZBYN 262100Z AUTO 00000KT 1/8SM M10/M21 RMK SLP379 T11011210 52005 IEM_DS3505
ZBYN,1984-01-27 00:00,ZBYN 270000Z AUTO 00000KT 6SM M10/M19 RMK SLP378 T10981191 52008 IEM_DS3505
ZBYN,1984-01-27 03:00,ZBYN 270300Z AUTO 00000KT 5SM M08/M18 RMK SLP383 T10761183 52007 IEM_DS3505
ZBYN,1984-01-27 06:00,ZBYN 270600Z AUTO 25004KT 4SM M04/M16 RMK SLP342 T10441160 4////1131 57036 IEM_DS3505
ZBYN,1984-01-27 09:00,ZBYN 270900Z AUTO 20006KT 5SM M05/M15 RMK SLP337 T10471147 57004 IEM_DS3505
ZBYN,1984-01-27 12:00,ZBYN 271200Z AUTO 00000KT 6SM M08/M15 RMK SLP361 T10781154 52016 IEM_DS3505
ZBYN,1984-01-27 15:00,ZBYN 271500Z AUTO 02002KT 6SM M09/M17 RMK SLP373 T10911167 52013 IEM_DS3505
ZBYN,1984-01-27 18:00,ZBYN 271800Z AUTO 32004KT 7SM M11/M18 RMK SLP374 T11061180 41036//// 52004 IEM_DS3505
ZBYN,1984-01-27 21:00,ZBYN 272100Z AUTO 04004KT 6SM M13/M20 RMK SLP377 T11281200 57002 IEM_DS3505
ZBYN,1984-01-28 00:00,ZBYN 280000Z AUTO 32004KT 5SM M13/M20 RMK SLP390 T11301200 52007 IEM_DS3505
ZBYN,1984-01-28 03:00,ZBYN 280300Z AUTO 34008KT 7SM M08/M22 A3047 RMK SLP387 T10821220 52003 IEM_DS3505
ZBYN,1984-01-28 04:00,ZBYN 280400Z AUTO 00000KT 4SM M07/M21 A3047 RMK T10701210 IEM_DS3505
ZBYN,1984-01-28 05:00,ZBYN 280500Z AUTO 33002KT 5SM M05/M19 A3042 RMK T10501190 IEM_DS3505
ZBYN,1984-01-28 06:00,ZBYN 280600Z AUTO 00000KT 6SM M05/M20 A3039 RMK SLP354 T10521200 4////1134 57028 IEM_DS3505
ZBYN,1984-01-28 07:00,ZBYN 280700Z AUTO 00000KT 6SM M04/M19 A3039 RMK T10401190 IEM_DS3505
ZBYN,1984-01-28 08:00,ZBYN 280800Z AUTO 00000KT 6SM M03/M19 A3039 RMK T10301190 IEM_DS3505
ZBYN,1984-01-28 09:00,ZBYN 280900Z AUTO 00000KT 6SM M04/M18 A3039 RMK SLP351 T10411183 57004 IEM_DS3505
ZBYN,1984-01-28 10:00,ZBYN 281000Z AUTO 09006KT 6SM M05/M19 A3039 RMK T10501190 IEM_DS3505
ZBYN,1984-01-28 11:00,ZBYN 281100Z AUTO 09012KT 6SM M07/M20 A3039 RMK T10701200 IEM_DS3505
ZBYN,1984-01-28 12:00,ZBYN 281200Z AUTO 14006KT 7SM M06/M18 RMK SLP373 T10631175 52015 IEM_DS3505
ZBYN,1984-01-28 15:00,ZBYN 281500Z AUTO 14008KT 6SM M08/M18 RMK SLP386 T10761175 52018 IEM_DS3505
ZBYN,1984-01-28 18:00,ZBYN 281800Z AUTO 18002KT 5SM M10/M10 RMK SLP356 T10981105 57018 IEM_DS3505
ZBYN,1984-01-28 21:00,ZBYN 282100Z AUTO 18002KT 5SM M10/M10 RMK SLP356 T10981105 IEM_DS3505
ZBYN,1984-01-29 00:00,ZBYN 290000Z AUTO 00000KT 5SM M12/M12 RMK 60004 SLP375 T11181120 52009 IEM_DS3505
ZBYN,1984-01-29 03:00,ZBYN 290300Z AUTO 00000KT 4SM M08/M11 RMK SLP370 T10781109 52001 IEM_DS3505
ZBYN,1984-01-29 06:00,ZBYN 290600Z AUTO 20004KT 5SM RMK 60000 SLP331 4////1118 57033 IEM_DS3505
ZBYN,1984-01-29 09:00,ZBYN 290900Z AUTO 16004KT 5SM M04/M10 RMK SLP329 T10391096 57002 IEM_DS3505
ZBYN,1984-01-29 12:00,ZBYN 291200Z AUTO 00000KT 5SM M06/M09 RMK SLP357 T10571092 52018 IEM_DS3505
ZBYN,1984-01-29 15:00,ZBYN 291500Z AUTO 00000KT 6SM M08/M10 RMK SLP370 T10841100 52015 IEM_DS3505
ZBYN,1984-01-29 18:00,ZBYN 291800Z AUTO 00000KT 6SM M08/M17 RMK SLP356 T10851167 41036//// 57006 IEM_DS3505
ZBYN,1984-01-29 21:00,ZBYN 292100Z AUTO 00000KT 6SM M09/M17 RMK SLP354 T10941167 57003 IEM_DS3505
ZBYN,1984-01-30 00:00,ZBYN 300000Z AUTO 00000KT 6SM M11/M12 RMK SLP370 T11131120 52008 IEM_DS3505
ZBYN,1984-01-30 03:00,ZBYN 300300Z AUTO 14002KT 5SM M08/M11 RMK SLP372 T10751114 52004 IEM_DS3505
ZBYN,1984-01-30 06:00,ZBYN 300600Z AUTO 18006KT 9SM M02/M14 RMK SLP320 T10181141 4////1120 57038 IEM_DS3505
ZBYN,1984-01-30 09:00,ZBYN 300900Z AUTO 20008KT 9SM M02/M15 RMK SLP312 T10211147 57010 IEM_DS3505
ZBYN,1984-01-30 12:00,ZBYN 301200Z AUTO 29008KT 7SM M03/M21 RMK SLP345 T10291210 52026 IEM_DS3505
ZBYN,1984-01-30 15:00,ZBYN 301500Z AUTO 32008KT 9SM M05/M21 RMK SLP352 T10471210 52010 IEM_DS3505
ZBYN,1984-01-30 18:00,ZBYN 301800Z AUTO 27006KT 12SM M07/M20 RMK SLP332 T10661200 41006//// 57011 IEM_DS3505
ZBYN,1984-01-30 21:00,ZBYN 302100Z AUTO 07004KT 12SM M12/M19 RMK SLP323 T11231190 57018 IEM_DS3505
ZBYN,1984-01-31 00:00,ZBYN 310000Z AUTO 16002KT 9SM M14/M17 RMK SLP320 T11421170 57001 IEM_DS3505
ZBYN,1984-01-31 03:00,ZBYN 310300Z AUTO 18004KT 6SM M04/M18 RMK SLP315 T10451175 52002 IEM_DS3505
ZBYN,1984-01-31 04:00,ZBYN 310400Z AUTO 19006KT 7SM M03/M17 A3030 RMK T10301170 IEM_DS3505
ZBYN,1984-01-31 05:00,ZBYN 310500Z AUTO 00000KT 7SM M02/M19 A3024 RMK T10201190 IEM_DS3505
ZBYN,1984-01-31 06:00,ZBYN 310600Z AUTO 11004KT 11SM M00/M18 A3015 RMK SLP265 T10041175 4////1156 57041 IEM_DS3505
ZBYN,1984-01-31 07:00,ZBYN 310700Z AUTO 19008KT 7SM 00/M17 A3015 RMK T00001170 IEM_DS3505
ZBYN,1984-01-31 08:00,ZBYN 310800Z AUTO 00000KT 7SM 00/M22 A3012 RMK T00001220 IEM_DS3505
ZBYN,1984-01-31 09:00,ZBYN 310900Z AUTO 32016KT 9SM M00/M24 A3015 RMK SLP254 T10011244 57020 IEM_DS3505
ZBYN,1984-01-31 12:00,ZBYN 311200Z AUTO 29006KT 12SM M03/M20 RMK T10321200 52022 IEM_DS3505
ZBYN,1984-01-31 15:00,ZBYN 311500Z AUTO 20004KT 16SM M06/M21 RMK SLP278 T10611210 52002 IEM_DS3505
ZBYN,1984-01-31 18:00,ZBYN 311800Z AUTO 34002KT 16SM M06/M20 RMK SLP273 T10621200 40011//// 52003 IEM_DS3505
ZBYN,1984-01-31 21:00,ZBYN 312100Z AUTO 34006KT 16SM M07/M22 RMK SLP281 T10721220 52006 IEM_DS3505
ZBYN,1984-02-01 00:00,ZBYN 010000Z AUTO 32006KT 6SM M10/M24 RMK SLP320 T11021240 52025 IEM_DS3505
ZBYN,1984-02-01 03:00,ZBYN 010300Z AUTO 32006KT 16SM M07/M27 RMK SLP328 T10671274 52008 IEM_DS3505
ZBYN,1984-02-01 06:00,ZBYN 010600Z AUTO 29014KT 16SM M04/M31 RMK SLP297 T10361313 4////1102 57023 IEM_DS3505
ZBYN,1984-02-01 09:00,ZBYN 010900Z AUTO 36008KT 12SM M05/M37 RMK SLP304 T10501374 52002 IEM_DS3505
ZBYN,1984-02-01 12:00,ZBYN 011200Z AUTO 36004KT 16SM M08/M26 RMK SLP352 T10851258 52032 IEM_DS3505
ZBYN,1984-02-01 15:00,ZBYN 011500Z AUTO 34006KT 16SM M11/M33 RMK SLP363 T11061330 52013 IEM_DS3505
ZBYN,1984-02-01 18:00,ZBYN 011800Z AUTO 34008KT 16SM M12/M30 RMK SLP356 T11171300 41023//// 57003 IEM_DS3505
ZBYN,1984-02-01 21:00,ZBYN 012100Z AUTO 34006KT 12SM M13/M29 RMK SLP364 T11311290 52002 IEM_DS3505
ZBYN,1984-02-02 00:00,ZBYN 020000Z AUTO 34002KT 6SM M17/M29 RMK SLP388 T11711290 52009 IEM_DS3505
ZBYN,1984-02-02 03:00,ZBYN 020300Z AUTO 36006KT 6SM M10/M24 RMK SLP386 T10961244 52008 IEM_DS3505
ZBYN,1984-02-02 06:00,ZBYN 020600Z AUTO 04004KT 7SM M05/M29 RMK SLP346 T10471292 4////1176 57030 IEM_DS3505
ZBYN,1984-02-02 09:00,ZBYN 020900Z AUTO 00000KT 6SM M03/M29 RMK SLP337 T10341292 57009 IEM_DS3505
ZBYN,1984-02-02 12:00,ZBYN 021200Z AUTO 32006KT 14SM M08/M27 RMK SLP372 T10811274 52017 IEM_DS3505
ZBYN,1984-02-02 15:00,ZBYN 021500Z AUTO 34004KT 12SM M10/M32 RMK SLP365 T11021320 52004 IEM_DS3505
ZBYN,1984-02-02 18:00,ZBYN 021800Z AUTO 34002KT 12SM M12/M28 RMK SLP358 T11221280 41027//// 57002 IEM_DS3505
ZBYN,1984-02-02 21:00,ZBYN 022100Z AUTO 00000KT 9SM M15/M29 RMK SLP352 T11481290 57008 IEM_DS3505
ZBYN,1984-02-03 00:00,ZBYN 030000Z AUTO 34004KT 5SM M15/M27 RMK SLP352 T11471270 57008 IEM_DS3505
ZBYN,1984-02-03 03:00,ZBYN 030300Z AUTO 00000KT 5SM M07/M24 RMK SLP346 T10661244 54000 IEM_DS3505
ZBYN,1984-02-03 06:00,ZBYN 030600Z AUTO 00000KT 5SM M03/M23 RMK SLP285 T10321231 4////1162 57047 IEM_DS3505
ZBYN,1984-02-03 09:00,ZBYN 030900Z AUTO 18006KT 5SM M03/M21 RMK SLP273 T10311210 57015 IEM_DS3505
ZBYN,1984-02-03 12:00,ZBYN 031200Z AUTO 16002KT 5SM M00/M23 RMK T10051231 52019 IEM_DS3505
ZBYN,1984-02-03 15:00,ZBYN 031500Z AUTO 00000KT 5SM M07/M21 RMK SLP291 T10681210 52005 IEM_DS3505
ZBYN,1984-02-03 18:00,ZBYN 031800Z AUTO 16002KT 4SM M06/M22 RMK T10651220 57011 IEM_DS3505
ZBYN,1984-02-03 21:00,ZBYN 032100Z AUTO 00000KT 6SM M08/M20 RMK SLP264 T10761200 57009 IEM_DS3505
ZBYN,1984-02-04 00:00,ZBYN 040000Z AUTO 34004KT 5SM M08/M20 RMK SLP266 T10781200 57003 IEM_DS3505
ZBYN,1984-02-04 03:00,ZBYN 040300Z AUTO 00000KT 5SM M04/M20 A3021 RMK SLP280 T10421200 52017 IEM_DS3505
ZBYN,1984-02-04 05:00,ZBYN 040500Z AUTO 00000KT 2 1/2SM 00/M17 A3021 RMK T00001170 IEM_DS3505
ZBYN,1984-02-04 06:00,ZBYN 040600Z AUTO 00000KT 5SM 00/M15 A3012 RMK SLP244 T00011154 4////1095 57024 IEM_DS3505
ZBYN,1984-02-04 08:00,ZBYN 040800Z AUTO 21002KT 4SM 01/M15 A3012 RMK T00101150 IEM_DS3505
ZBYN,1984-02-04 09:00,ZBYN 040900Z AUTO 00000KT 6SM 00/M15 A3012 RMK SLP246 T00021147 54000 IEM_DS3505
ZBYN,1984-02-04 12:00,ZBYN 041200Z AUTO 00000KT 6SM M02/M17 RMK SLP282 T10221167 52028 IEM_DS3505
ZBYN,1984-02-04 15:00,ZBYN 041500Z AUTO 00000KT 6SM M03/M23 RMK SLP288 T10301231 52010 IEM_DS3505
ZBYN,1984-02-04 18:00,ZBYN 041800Z AUTO 36006KT 12SM M05/M21 RMK SLP307 T10471210 40008//// 52021 IEM_DS3505
ZBYN,1984-02-04 21:00,ZBYN 042100Z AUTO 34008KT 12SM M08/M27 RMK SLP335 T10761274 52021 IEM_DS3505
ZBYN,1984-02-05 00:00,ZBYN 050000Z AUTO 36010KT 9SM M08/M29 RMK SLP356 T10851292 52013 IEM_DS3505
ZBYN,1984-02-05 03:00,ZBYN 050300Z AUTO 34006KT 9SM M08/M26 RMK SLP369 T10791258 52012 IEM_DS3505
ZBYN,1984-02-05 06:00,ZBYN 050600Z AUTO 36006KT 12SM M06/M24 RMK SLP348 T10621244 4////1090 57019 IEM_DS3505
ZBYN,1984-02-05 09:00,ZBYN 050900Z AUTO 02006KT 16SM M06/M24 RMK SLP352 T10571244 57001 IEM_DS3505
ZBYN,1984-02-05 12:00,ZBYN 051200Z AUTO 29004KT 9SM M10/M26 RMK SLP395 T10981258 52030 IEM_DS3505
ZBYN,1984-02-05 15:00,ZBYN 051500Z AUTO 36010KT 11SM M09/M29 RMK SLP412 T10861292 52018 IEM_DS3505
ZBYN,1984-02-05 18:00,ZBYN 051800Z AUTO 36004KT 12SM M11/M30 RMK SLP422 T11121300 41047//// 52008 IEM_DS3505
ZBYN,1984-02-06 00:00,ZBYN 060000Z AUTO 34010KT 16SM M14/M30 RMK SLP443 T11411300 52008 IEM_DS3505
ZBYN,1984-02-06 03:00,ZBYN 060300Z AUTO 02010KT 9SM M09/M31 RMK SLP428 T10891313 57004 IEM_DS3505
ZBYN,1984-02-06 06:00,ZBYN 060600Z AUTO 14004KT 9SM M04/M24 RMK SLP383 T10431244 4////1169 57037 IEM_DS3505
ZBYN,1984-02-06 09:00,ZBYN 060900Z AUTO 16004KT 12SM M02/M26 RMK SLP358 T10251258 57019 IEM_DS3505
ZBYN,1984-02-06 12:00,ZBYN 061200Z AUTO 32004KT 5SM M09/M23 RMK SLP386 T10881231 52009 IEM_DS3505
ZBYN,1984-02-06 15:00,ZBYN 061500Z AUTO 29006KT 7SM M09/M26 RMK SLP392 T10881258 52014 IEM_DS3505
ZBYN,1984-02-06 18:00,ZBYN 061800Z AUTO 04004KT 6SM M11/M33 RMK SLP377 T11131330 41018//// 57010 IEM_DS3505
ZBYN,1984-02-06 21:00,ZBYN 062100Z AUTO 00000KT 6SM M16/M32 RMK SLP385 T11621320 52002 IEM_DS3505
ZBYN,1984-02-07 00:00,ZBYN 070000Z AUTO 00000KT 7SM M18/M30 RMK SLP418 T11841300 52009 IEM_DS3505
ZBYN,1984-02-07 03:00,ZBYN 070300Z AUTO 36002KT 5SM M08/M26 RMK SLP382 T10771258 57008 IEM_DS3505
ZBYN,1984-02-07 05:00,ZBYN 070500Z AUTO 00000KT 7SM M03/M28 A3039 RMK T10301280 IEM_DS3505
ZBYN,1984-02-07 06:00,ZBYN 070600Z AUTO 09002KT 9SM M01/M26 A3033 RMK SLP332 T10121258 4////1187 57038 IEM_DS3505
ZBYN,1984-02-07 07:00,ZBYN 070700Z AUTO 00000KT 7SM M01/M25 A3033 RMK T10101250 IEM_DS3505
ZBYN,1984-02-07 08:00,ZBYN 070800Z AUTO 22012KT 7SM 00/M32 A3030 RMK T00001320 IEM_DS3505
ZBYN,1984-02-07 09:00,ZBYN 070900Z AUTO 16004KT 12SM M00/M24 RMK SLP324 T10021244 57013 IEM_DS3505
ZBYN,1984-02-07 12:00,ZBYN 071200Z AUTO 32006KT 7SM M07/M27 RMK SLP356 T10731274 52011 IEM_DS3505
ZBYN,1984-02-07 15:00,ZBYN 071500Z AUTO 34006KT 9SM M06/M24 RMK SLP341 T10591244 52008 IEM_DS3505
ZBYN,1984-02-07 18:00,ZBYN 071800Z AUTO 16004KT 11SM M13/M31 RMK SLP339 T11261310 40004//// 57002 IEM_DS3505
ZBYN,1984-02-07 21:00,ZBYN 072100Z AUTO 00000KT 11SM M16/M30 RMK SLP340 T11601300 52005 IEM_DS3505
ZBYN,1984-02-08 00:00,ZBYN 080000Z AUTO 00000KT 7SM M16/M28 RMK SLP370 T11591280 52006 IEM_DS3505
ZBYN,1984-02-08 03:00,ZBYN 080300Z AUTO 00000KT 6SM M06/M26 RMK SLP349 T10611258 52002 IEM_DS3505
ZBYN,1984-02-08 06:00,ZBYN 080600Z AUTO 14004KT 9SM M00/M31 RMK SLP310 T10031313 4////1181 57037 IEM_DS3505
ZBYN,1984-02-08 09:00,ZBYN 080900Z AUTO 00000KT 6SM M00/M26 RMK SLP302 T10011258 57012 IEM_DS3505
ZBYN,1984-02-08 12:00,ZBYN 081200Z AUTO 34008KT 9SM M05/M21 RMK SLP326 T10481210 52013 IEM_DS3505
ZBYN,1984-02-08 15:00,ZBYN 081500Z AUTO 34006KT 9SM M07/M24 RMK SLP323 T10701244 52010 IEM_DS3505
ZBYN,1984-02-08 18:00,ZBYN 081800Z AUTO 34010KT 12SM M08/M26 RMK SLP310 T10851258 40012//// 57004 IEM_DS3505
ZBYN,1984-02-08 21:00,ZBYN 082100Z AUTO 34006KT 12SM M09/M24 RMK SLP311 T10861244 52001 IEM_DS3505
ZBYN,1984-02-09 00:00,ZBYN 090000Z AUTO 32008KT 6SM M10/M26 RMK SLP332 T10961258 52009 IEM_DS3505
ZBYN,1984-02-09 03:00,ZBYN 090300Z AUTO 34008KT 9SM M04/M24 RMK SLP325 T10371244 54000 IEM_DS3505
ZBYN,1984-02-09 06:00,ZBYN 090600Z AUTO 00000KT 19SM 00/M22 RMK SLP280 T00051220 57035 IEM_DS3505
ZBYN,1984-02-09 09:00,ZBYN 090900Z AUTO 22002KT 14SM 01/M21 RMK SLP276 T00091210 57004 IEM_DS3505
ZBYN,1984-02-09 12:00,ZBYN 091200Z AUTO 14004KT 12SM M04/M23 RMK SLP295 T10421231 52007 IEM_DS3505
ZBYN,1984-02-09 15:00,ZBYN 091500Z AUTO 14004KT 12SM M05/M24 RMK SLP295 T10531244 52008 IEM_DS3505
ZBYN,1984-02-09 18:00,ZBYN 091800Z AUTO 00000KT 9SM M07/M24 RMK SLP288 T10671244 40017//// 57001 IEM_DS3505
ZBYN,1984-02-09 21:00,ZBYN 092100Z AUTO 00000KT 7SM M07/M17 RMK SLP282 T10721167 57006 IEM_DS3505
ZBYN,1984-02-10 00:00,ZBYN 100000Z AUTO 34004KT 5SM M08/M10 RMK 60001 SLP296 T10801105 52002 IEM_DS3505
ZBYN,1984-02-10 03:00,ZBYN 100300Z AUTO 00000KT 4SM M05/M09 RMK SLP290 T10471087 57001 IEM_DS3505
ZBYN,1984-02-10 06:00,ZBYN 100600Z AUTO 16006KT 7SM M01/M08 RMK 60001 SLP256 T10141083 4////1083 57028 IEM_DS3505
ZBYN,1984-02-10 09:00,ZBYN 100900Z AUTO 18006KT 6SM M02/M10 RMK SLP256 T10171096 57001 IEM_DS3505
ZBYN,1984-02-10 12:00,ZBYN 101200Z AUTO 16002KT 11SM M06/M10 RMK SLP277 T10561100 52010 IEM_DS3505
ZBYN,1984-02-10 15:00,ZBYN 101500Z AUTO 14004KT 12SM M06/M12 RMK SLP279 T10591124 52007 IEM_DS3505
ZBYN,1984-02-10 18:00,ZBYN 101800Z AUTO 00000KT 12SM M05/M10 RMK SLP270 T10531100 41010//// 57001 IEM_DS3505
ZBYN,1984-02-10 21:00,ZBYN 102100Z AUTO 00000KT 6SM M09/M11 RMK SLP279 T10921114 52001 IEM_DS3505
ZBYN,1984-02-11 00:00,ZBYN 110000Z AUTO 14002KT 5SM M10/M13 RMK SLP298 T11051130 52008 IEM_DS3505
ZBYN,1984-02-11 03:00,ZBYN 110300Z AUTO 00000KT 6SM M04/M10 A3021 RMK SLP287 T10361100 52001 IEM_DS3505
ZBYN,1984-02-11 04:00,ZBYN 110400Z AUTO 18006KT 5SM M01/ RMK IEM_DS3505
ZBYN,1984-02-11 05:00,ZBYN 110500Z AUTO 16006KT 5SM 00/M09 RMK T00001090 IEM_DS3505
ZBYN,1984-02-11 06:00,ZBYN 110600Z AUTO 20006KT 6SM 01/M10 A3015 RMK SLP243 T00141096 4////1113 57030 IEM_DS3505
ZBYN,1984-02-11 07:00,ZBYN 110700Z AUTO 18006KT 6SM 03/M11 A3012 RMK T00301110 IEM_DS3505
ZBYN,1984-02-11 08:00,ZBYN 110800Z AUTO 16008KT 6SM 03/M11 A3012 RMK T00301110 IEM_DS3505
ZBYN,1984-02-11 09:00,ZBYN 110900Z AUTO 18008KT 7SM 03/M09 A3012 RMK SLP241 T00271092 57006 IEM_DS3505
ZBYN,1984-02-11 12:00,ZBYN 111200Z AUTO 29004KT 6SM M04/M13 RMK SLP269 T10421130 52012 IEM_DS3505
ZBYN,1984-02-11 15:00,ZBYN 111500Z AUTO 00000KT 6SM M07/M13 RMK SLP275 T10741130 52012 IEM_DS3505
ZBYN,1984-02-11 18:00,ZBYN 111800Z AUTO 00000KT 6SM M09/M15 RMK SLP277 T10891147 52007 IEM_DS3505
ZBYN,1984-02-11 21:00,ZBYN 112100Z AUTO 00000KT 6SM M10/M13 RMK SLP271 T11051130 57006 IEM_DS3505
ZBYN,1984-02-12 00:00,ZBYN 120000Z AUTO 00000KT 4SM M10/M13 RMK SLP287 T11011130 52004 IEM_DS3505
ZBYN,1984-02-12 03:00,ZBYN 120300Z AUTO 16004KT 5SM M02/M07 RMK SLP279 T10151068 52002 IEM_DS3505
ZBYN,1984-02-12 06:00,ZBYN 120600Z AUTO 20004KT 4SM M02/M05 RMK SLP248 T10181048 4////1116 57026 IEM_DS3505
ZBYN,1984-02-12 09:00,ZBYN 120900Z AUTO 18006KT 5SM 02/M10 RMK SLP242 T00211096 57007 IEM_DS3505
ZBYN,1984-02-12 12:00,ZBYN 121200Z AUTO 00000KT 6SM M03/M10 RMK SLP262 T10321100 52009 IEM_DS3505
ZBYN,1984-02-12 15:00,ZBYN 121500Z AUTO 32004KT 6SM M04/M10 RMK SLP265 T10441105 52017 IEM_DS3505
ZBYN,1984-02-12 18:00,ZBYN 121800Z AUTO 00000KT 4SM M08/M13 RMK SLP268 T10781130 40030//// 52002 IEM_DS3505
ZBYN,1984-02-12 21:00,ZBYN 122100Z AUTO 11004KT 5SM M09/M13 RMK SLP276 T10921130 52005 IEM_DS3505
ZBYN,1984-02-13 00:00,ZBYN 130000Z AUTO 36004KT 6SM M07/M13 RMK SLP296 T10701130 52013 IEM_DS3505
ZBYN,1984-02-13 03:00,ZBYN 130300Z AUTO 34008KT 6SM M00/M12 RMK SLP293 T10011124 52006 IEM_DS3505
ZBYN,1984-02-13 06:00,ZBYN 130600Z AUTO 32010KT 7SM 04/M18 RMK SLP259 T00351175 4////1114 57030 IEM_DS3505
ZBYN,1984-02-13 09:00,ZBYN 130900Z AUTO 36008KT 7SM 05/M18 RMK SLP256 T00471183 57004 IEM_DS3505
ZBYN,1984-02-13 12:00,ZBYN 131200Z AUTO 32006KT 6SM M01/M18 RMK SLP290 T10111175 52026 IEM_DS3505
ZBYN,1984-02-13 15:00,ZBYN 131500Z AUTO 32008KT 6SM M03/M17 RMK SLP296 T10331167 52013 IEM_DS3505
ZBYN,1984-02-13 18:00,ZBYN 131800Z AUTO 32006KT 7SM M05/M19 RMK SLP294 T10531191 40051//// 52001 IEM_DS3505
ZBYN,1984-02-13 21:00,ZBYN 132100Z AUTO 34004KT 9SM M06/M22 RMK SLP276 T10641220 57016 IEM_DS3505
ZBYN,1984-02-14 00:00,ZBYN 140000Z AUTO 34002KT 7SM M07/M18 RMK SLP284 T10741183 57005 IEM_DS3505
ZBYN,1984-02-14 03:00,ZBYN 140300Z AUTO 34004KT 5SM M01/M14 RMK SLP268 T10071141 57006 IEM_DS3505
ZBYN,1984-02-14 06:00,ZBYN 140600Z AUTO 18006KT 4SM 04/M10 RMK SLP220 T00411096 4////1076 57039 IEM_DS3505
ZBYN,1984-02-14 09:00,ZBYN 140900Z AUTO 16004KT 6SM 05/M12 RMK SLP196 T00501124 57022 IEM_DS3505
ZBYN,1984-02-14 12:00,ZBYN 141200Z AUTO 22004KT 6SM M02/M14 RMK SLP239 T10211141 52026 IEM_DS3505
ZBYN,1984-02-14 15:00,ZBYN 141500Z AUTO 00000KT 7SM M06/M15 RMK SLP239 T10591154 52004 IEM_DS3505
ZBYN,1984-02-14 18:00,ZBYN 141800Z AUTO 00000KT 6SM M08/M14 RMK SLP232 T10761141 40056//// 57002 IEM_DS3505
ZBYN,1984-02-14 21:00,ZBYN 142100Z AUTO 36004KT 7SM M06/M14 RMK SLP220 T10631141 57006 IEM_DS3505
ZBYN,1984-02-15 00:00,ZBYN 150000Z AUTO 00000KT 4SM M09/M16 RMK SLP245 T10921160 52005 IEM_DS3505
ZBYN,1984-02-15 03:00,ZBYN 150300Z AUTO 34006KT 6SM M00/M13 RMK SLP251 T10021130 52015 IEM_DS3505
ZBYN,1984-02-15 06:00,ZBYN 150600Z AUTO 11006KT 6SM 04/M11 RMK SLP205 T00391114 4////1094 57038 IEM_DS3505
ZBYN,1984-02-15 09:00,ZBYN 150900Z AUTO 09010KT 6SM 02/M17 RMK SLP195 T00201167 57009 IEM_DS3505
ZBYN,1984-02-15 12:00,ZBYN 151200Z AUTO 04006KT 9SM M02/M15 RMK SLP228 T10201154 52017 IEM_DS3505
ZBYN,1984-02-15 15:00,ZBYN 151500Z AUTO 29004KT 9SM M03/M18 RMK SLP224 T10281183 52010 IEM_DS3505
ZBYN,1984-02-15 18:00,ZBYN 151800Z AUTO 14004KT 9SM M04/M14 RMK SLP209 T10361141 40049//// 57007 IEM_DS3505
ZBYN,1984-02-15 21:00,ZBYN 152100Z AUTO 34006KT 9SM M04/M18 RMK SLP201 T10371175 57011 IEM_DS3505
ZBYN,1984-02-16 00:00,ZBYN 160000Z AUTO 34004KT 4SM M04/M15 RMK SLP228 T10411154 52017 IEM_DS3505
ZBYN,1984-02-16 03:00,ZBYN 160300Z AUTO 00000KT 5SM M01/M12 RMK SLP222 T10091124 57002 IEM_DS3505
ZBYN,1984-02-16 06:00,ZBYN 160600Z AUTO 18004KT 6SM 02/M11 RMK SLP196 T00211109 4////1046 57020 IEM_DS3505
ZBYN,1984-02-16 09:00,ZBYN 160900Z AUTO 18004KT 6SM 03/M07 RMK SLP201 T00281072 52006 IEM_DS3505
ZBYN,1984-02-16 12:00,ZBYN 161200Z AUTO 34008KT 6SM 01/M06 RMK SLP246 T00071055 52037 IEM_DS3505
ZBYN,1984-02-16 15:00,ZBYN 161500Z AUTO 32014KT 9SM M03/M16 RMK SLP299 T10271160 52047 IEM_DS3505
ZBYN,1984-02-16 18:00,ZBYN 161800Z AUTO 02008KT 9SM M06/M17 RMK SLP347 T10581167 40035//// 52044 IEM_DS3505
ZBYN,1984-02-16 21:00,ZBYN 162100Z AUTO 34008KT 12SM M08/M24 RMK SLP350 T10821244 54000 IEM_DS3505
ZBYN,1984-02-17 00:00,ZBYN 170000Z AUTO 34008KT 19SM M09/M20 RMK SLP386 T10911200 52028 IEM_DS3505
ZBYN,1984-02-17 03:00,ZBYN 170300Z AUTO 20002KT 16SM M05/M20 RMK SLP396 T10481200 52009 IEM_DS3505
ZBYN,1984-02-17 06:00,ZBYN 170600Z AUTO 27004KT 9SM M01/M18 RMK SLP354 T10091183 4////1094 57036 IEM_DS3505
ZBYN,1984-02-17 09:00,ZBYN 170900Z AUTO 14002KT 12SM M00/M18 RMK SLP340 T10011183 57015 IEM_DS3505
ZBYN,1984-02-17 12:00,ZBYN 171200Z AUTO 36004KT 16SM M04/M19 RMK SLP358 T10361191 52008 IEM_DS3505
ZBYN,1984-02-17 15:00,ZBYN 171500Z AUTO 34006KT 12SM M06/M18 RMK SLP354 T10571183 54000 IEM_DS3505
ZBYN,1984-02-17 18:00,ZBYN 171800Z AUTO 29004KT 14SM M11/M22 RMK SLP352 T11081220 40006//// 57003 IEM_DS3505
ZBYN,1984-02-17 21:00,ZBYN 172100Z AUTO 34002KT 7SM M13/M22 RMK SLP345 T11271220 57008 IEM_DS3505
ZBYN,1984-02-18 00:00,ZBYN 180000Z AUTO 34006KT 5SM M11/M19 RMK SLP351 T11091190 52001 IEM_DS3505
ZBYN,1984-02-18 03:00,ZBYN 180300Z AUTO 34006KT 7SM M04/M23 A3033 RMK SLP326 T10371231 57012 IEM_DS3505
ZBYN,1984-02-18 04:00,ZBYN 180400Z AUTO 00000KT 7SM M01/M18 A3033 RMK T10101180 IEM_DS3505
ZBYN,1984-02-18 05:00,ZBYN 180500Z AUTO 16002KT 6SM 01/M22 A3030 RMK T00101220 IEM_DS3505
ZBYN,1984-02-18 06:00,ZBYN 180600Z AUTO 25006KT 9SM 02/M24 A3024 RMK SLP290 T00231244 4////1142 57032 IEM_DS3505
ZBYN,1984-02-18 07:00,ZBYN 180700Z AUTO 00000KT 6SM 03/M21 A3021 RMK T00301210 IEM_DS3505
ZBYN,1984-02-18 08:00,ZBYN 180800Z AUTO 00000KT 6SM 04/M20 A3021 RMK T00401200 IEM_DS3505
ZBYN,1984-02-18 09:00,ZBYN 180900Z AUTO 25002KT 12SM 02/M23 A3015 RMK SLP266 T00241231 57025 IEM_DS3505
ZBYN,1984-02-18 10:00,ZBYN 181000Z AUTO 00000KT 6SM 01/M22 A3015 RMK T00101220 IEM_DS3505
ZBYN,1984-02-18 12:00,ZBYN 181200Z AUTO 09004KT 9SM M01/M23 RMK SLP281 T10061231 52011 IEM_DS3505
ZBYN,1984-02-18 15:00,ZBYN 181500Z AUTO 00000KT 9SM M02/M19 RMK SLP279 T10191191 52008 IEM_DS3505
ZBYN,1984-02-18 18:00,ZBYN 181800Z AUTO 00000KT 9SM M02/M18 RMK SLP274 T10161175 40037//// 52005 IEM_DS3505
ZBYN,1984-02-18 21:00,ZBYN 182100Z AUTO 34004KT 9SM M02/ RMK 57013 IEM_DS3505
ZBYN,1984-02-19 00:00,ZBYN 190000Z AUTO 36004KT 6SM M02/M16 RMK SLP267 T10231160 52002 IEM_DS3505
ZBYN,1984-02-19 03:00,ZBYN 190300Z AUTO 00000KT 6SM 00/M15 RMK SLP273 T00011154 52008 IEM_DS3505
ZBYN,1984-02-19 06:00,ZBYN 190600Z AUTO 18004KT 5SM 01/M17 RMK SLP259 T00131167 4////1037 57011 IEM_DS3505
ZBYN,1984-02-19 09:00,ZBYN 190900Z AUTO 00000KT 5SM 02/M16 RMK SLP253 T00171160 57005 IEM_DS3505
ZBYN,1984-02-19 12:00,ZBYN 191200Z AUTO 00000KT 6SM M00/M13 RMK SLP270 T10021130 52012 IEM_DS3505
ZBYN,1984-02-19 15:00,ZBYN 191500Z AUTO 00000KT 6SM M01/M12 RMK SLP282 T10101124 52013 IEM_DS3505
ZBYN,1984-02-19 18:00,ZBYN 191800Z AUTO 00000KT 6SM M02/M14 RMK SLP272 T10211141 40019//// 57008 IEM_DS3505
ZBYN,1984-02-19 21:00,ZBYN 192100Z AUTO 00000KT 7SM M04/M18 RMK SLP269 T10371175 57005 IEM_DS3505
ZBYN,1984-02-20 00:00,ZBYN 200000Z AUTO 00000KT 4SM M03/M15 RMK SLP277 T10281147 52005 IEM_DS3505
ZBYN,1984-02-20 03:00,ZBYN 200300Z AUTO 34008KT 4SM 01/M14 RMK SLP270 T00101135 57001 IEM_DS3505
ZBYN,1984-02-20 06:00,ZBYN 200600Z AUTO 36004KT 4SM 05/M13 RMK SLP231 T00481130 4////1042 57031 IEM_DS3505
ZBYN,1984-02-20 09:00,ZBYN 200900Z AUTO 11008KT 4SM 04/M11 RMK SLP219 T00371114 57015 IEM_DS3505
ZBYN,1984-02-20 12:00,ZBYN 201200Z AUTO 00000KT 6SM 02/M15 RMK SLP239 T00151147 52016 IEM_DS3505
ZBYN,1984-02-20 15:00,ZBYN 201500Z AUTO 00000KT 7SM 01/M12 RMK SLP233 T00071124 54000 IEM_DS3505
ZBYN,1984-02-20 18:00,ZBYN 201800Z AUTO 32004KT 7SM 01/M15 RMK SLP217 T00081154 40051//// 57009 IEM_DS3505
ZBYN,1984-02-20 21:00,ZBYN 202100Z AUTO 00000KT 6SM M01/M14 RMK SLP212 T10071135 57009 IEM_DS3505
ZBYN,1984-02-21 00:00,ZBYN 210000Z AUTO 00000KT 4SM M00/M11 RMK SLP223 T10051109 52007 IEM_DS3505
ZBYN,1984-02-21 03:00,ZBYN 210300Z AUTO 09008KT 6SM 01/M18 RMK SLP227 T00101175 52006 IEM_DS3505
ZBYN,1984-02-21 05:00,ZBYN 210500Z AUTO 08017KT 6SM 01/M13 A3012 RMK T00101130 IEM_DS3505
ZBYN,1984-02-21 06:00,ZBYN 210600Z AUTO 09004KT 5SM 01/M11 RMK SLP214 T00141114 4////1008 57012 IEM_DS3505
ZBYN,1984-02-21 07:00,ZBYN 210700Z AUTO 06019KT 6SM 01/M12 A3006 RMK T00101120 IEM_DS3505
ZBYN,1984-02-21 08:00,ZBYN 210800Z AUTO 07017KT 6SM 01/M12 A3003 RMK T00101120 IEM_DS3505
ZBYN,1984-02-21 09:00,ZBYN 210900Z AUTO 07006KT 5SM 01/M13 A3003 RMK SLP215 T00091130 57002 IEM_DS3505
ZBYN,1984-02-21 12:00,ZBYN 211200Z AUTO 09004KT 5SM M02/M10 RMK 60001 SLP268 T10191096 52043 IEM_DS3505
ZBYN,1984-02-21 15:00,ZBYN 211500Z AUTO 00000KT 6SM M04/M06 RMK SLP264 T10371058 57004 IEM_DS3505
ZBYN,1984-02-21 18:00,ZBYN 211800Z AUTO 36004KT 5SM M04/M06 RMK 60008 SLP254 T10391058 40020//// 57009 IEM_DS3505
ZBYN,1984-02-21 21:00,ZBYN 212100Z AUTO 00000KT 6SM M04/M06 RMK SLP235 T10401065 57018 IEM_DS3505
ZBYN,1984-02-22 00:00,ZBYN 220000Z AUTO 00000KT 4SM M04/M06 RMK SLP259 T10421055 52017 IEM_DS3505
ZBYN,1984-02-22 03:00,ZBYN 220300Z AUTO 20004KT 4SM M03/M06 RMK SLP264 T10291055 52004 IEM_DS3505
ZBYN,1984-02-22 06:00,ZBYN 220600Z AUTO 32010KT 12SM M03/M11 RMK SLP262 T10331109 4////1044 57003 IEM_DS3505
ZBYN,1984-02-22 09:00,ZBYN 220900Z AUTO 29008KT 17SM M02/M13 RMK SLP260 T10231130 54000 IEM_DS3505
ZBYN,1984-02-22 12:00,ZBYN 221200Z AUTO 29006KT 17SM M04/M14 RMK SLP284 T10421135 52018 IEM_DS3505
ZBYN,1984-02-22 15:00,ZBYN 221500Z AUTO 25002KT 16SM M06/M15 RMK SLP291 T10611147 52006 IEM_DS3505
ZBYN,1984-02-22 18:00,ZBYN 221800Z AUTO 00000KT 7SM M08/M13 RMK SLP290 T10791134 41015//// 57006 IEM_DS3505
ZBYN,1984-02-22 21:00,ZBYN 222100Z AUTO 07002KT 7SM M08/M12 RMK SLP287 T10771119 54000 IEM_DS3505
ZBYN,1984-02-23 00:00,ZBYN 230000Z AUTO 00000KT 5SM M08/M12 RMK SLP297 T10821119 52005 IEM_DS3505
ZBYN,1984-02-23 03:00,ZBYN 230300Z AUTO 02002KT 5SM M02/M12 RMK SLP295 T10241124 52004 IEM_DS3505
ZBYN,1984-02-23 06:00,ZBYN 230600Z AUTO 36002KT 5SM 00/M13 RMK SLP268 T00031130 4////1093 57022 IEM_DS3505
ZBYN,1984-02-23 09:00,ZBYN 230900Z AUTO 22002KT 5SM 00/M11 RMK SLP264 T00041109 57003 IEM_DS3505
ZBYN,1984-02-23 12:00,ZBYN 231200Z AUTO 00000KT 5SM M02/M09 RMK SLP288 T10151092 52008 IEM_DS3505
ZBYN,1984-02-23 15:00,ZBYN 231500Z AUTO 00000KT 6SM M04/M11 RMK SLP289 T10411114 52016 IEM_DS3505
ZBYN,1984-02-23 18:00,ZBYN 231800Z AUTO 00000KT 6SM M07/M12 RMK SLP283 T10711124 40007//// 57006 IEM_DS3505
ZBYN,1984-02-23 21:00,ZBYN 232100Z AUTO 34004KT 6SM M05/M11 RMK SLP278 T10541114 57002 IEM_DS3505
ZBYN,1984-02-24 00:00,ZBYN 240000Z AUTO 34004KT 6SM M06/M10 RMK SLP299 T10581105 57016 IEM_DS3505
ZBYN,1984-02-24 03:00,ZBYN 240300Z AUTO 34008KT 4SM M01/M14 RMK SLP293 T10101135 52001 IEM_DS3505
ZBYN,1984-02-24 06:00,ZBYN 240600Z AUTO 34006KT 4SM 01/M12 RMK SLP272 T00111119 4////1075 57023 IEM_DS3505
ZBYN,1984-02-24 09:00,ZBYN 240900Z AUTO 34006KT 6SM 02/M12 RMK SLP264 T00241119 57004 IEM_DS3505
ZBYN,1984-02-24 12:00,ZBYN 241200Z AUTO 32004KT 5SM 00/M12 RMK SLP293 T00001119 52023 IEM_DS3505
ZBYN,1984-02-24 15:00,ZBYN 241500Z AUTO 29002KT 5SM M02/M12 RMK SLP297 T10251119 52006 IEM_DS3505
ZBYN,1984-02-24 18:00,ZBYN 241800Z AUTO 36006KT 7SM M02/M11 RMK SLP279 T10231109 40041//// 57011 IEM_DS3505
ZBYN,1984-02-24 21:00,ZBYN 242100Z AUTO 02004KT 7SM M02/M10 RMK SLP285 T10181105 52006 IEM_DS3505
ZBYN,1984-02-25 00:00,ZBYN 250000Z AUTO 00000KT 6SM M03/M09 RMK SLP312 T10331092 52020 IEM_DS3505
ZBYN,1984-02-25 01:00,ZBYN 250100Z AUTO 00000KT 6SM M03/M08 A3033 RMK T10301080 IEM_DS3505
ZBYN,1984-02-25 02:00,ZBYN 250200Z AUTO 20006KT 5SM M02/M09 A3039 RMK T10201090 IEM_DS3505
ZBYN,1984-02-25 03:00,ZBYN 250300Z AUTO 20004KT 6SM M01/M09 A3039 RMK SLP328 T10121087 52014 IEM_DS3505
ZBYN,1984-02-25 04:00,ZBYN 250400Z AUTO 00000KT 4SM 00/M10 A3039 RMK T00001100 IEM_DS3505
ZBYN,1984-02-25 05:00,ZBYN 250500Z AUTO 00000KT 6SM 01/M12 A3033 RMK T00101120 IEM_DS3505
ZBYN,1984-02-25 06:00,ZBYN 250600Z AUTO 27012KT 12SM 01/M11 RMK SLP307 T00131114 4////1047 57015 IEM_DS3505
ZBYN,1984-02-25 07:00,ZBYN 250700Z AUTO 30012KT 6SM 03/M12 A3033 RMK T00301120 IEM_DS3505
ZBYN,1984-02-25 08:00,ZBYN 250800Z AUTO 29017KT 6SM 02/M19 RMK T00201190 IEM_DS3505
ZBYN,1984-02-25 09:00,ZBYN 250900Z AUTO 29010KT 12SM 01/M17 A3033 RMK T00121167 52001 IEM_DS3505
ZBYN,1984-02-25 12:00,ZBYN 251200Z AUTO 32010KT 16SM M02/M19 RMK SLP339 T10151191 52022 IEM_DS3505
ZBYN,1984-02-25 15:00,ZBYN 251500Z AUTO 32010KT 16SM M03/M15 RMK SLP347 T10261154 52009 IEM_DS3505
ZBYN,1984-02-25 18:00,ZBYN 251800Z AUTO 29006KT 16SM M05/M18 RMK SLP345 T10541183 40030//// 57003 IEM_DS3505
ZBYN,1984-02-25 21:00,ZBYN 252100Z AUTO 25002KT 11SM M08/M23 RMK SLP348 T10751231 57001 IEM_DS3505
ZBYN,1984-02-26 00:00,ZBYN 260000Z AUTO 22004KT 14SM M09/M19 RMK SLP365 T10921191 IEM_DS3505
ZBYN,1984-02-26 03:00,ZBYN 260300Z AUTO 32006KT 12SM M01/M23 RMK SLP344 T10101231 57007 IEM_DS3505
ZBYN,1984-02-26 06:00,ZBYN 260600Z AUTO 32014KT 12SM 03/M23 RMK SLP302 T00261231 4////1109 57036 IEM_DS3505
ZBYN,1984-02-26 09:00,ZBYN 260900Z AUTO 29010KT 12SM 04/M23 RMK SLP302 T00351231 57002 IEM_DS3505
ZBYN,1984-02-26 12:00,ZBYN 261200Z AUTO 34008KT 9SM M01/M19 RMK SLP343 T10101191 52026 IEM_DS3505
ZBYN,1984-02-26 15:00,ZBYN 261500Z AUTO 34008KT 7SM M04/M21 RMK SLP339 T10421210 52005 IEM_DS3505
ZBYN,1984-02-26 18:00,ZBYN 261800Z AUTO 07002KT 6SM M10/M19 RMK SLP345 T10971191 40043//// 52002 IEM_DS3505
ZBYN,1984-02-26 21:00,ZBYN 262100Z AUTO 00000KT 6SM RMK SLP337 54000 IEM_DS3505
ZBYN,1984-02-27 00:00,ZBYN 270000Z AUTO 00000KT 6SM M10/M20 RMK SLP360 T11031200 52007 IEM_DS3505
ZBYN,1984-02-27 03:00,ZBYN 270300Z AUTO 32004KT 6SM M00/M18 RMK SLP339 T10051183 57008 IEM_DS3505
ZBYN,1984-02-27 06:00,ZBYN 270600Z AUTO 22004KT 6SM 04/M21 RMK SLP307 T00361210 4////1113 57031 IEM_DS3505
ZBYN,1984-02-27 09:00,ZBYN 270900Z AUTO 18004KT 11SM 04/M20 RMK SLP285 T00381200 57016 IEM_DS3505
ZBYN,1984-02-27 12:00,ZBYN 271200Z AUTO 32008KT 9SM RMK SLP321 52024 IEM_DS3505
ZBYN,1984-02-27 15:00,ZBYN 271500Z AUTO 29006KT 7SM M00/M18 RMK SLP320 T10011175 52013 IEM_DS3505
ZBYN,1984-02-27 18:00,ZBYN 271800Z AUTO 29012KT 6SM M01/M21 RMK SLP332 T10091210 40048//// 52016 IEM_DS3505
ZBYN,1984-02-27 21:00,ZBYN 272100Z AUTO 32016KT 6SM M04/M26 RMK SLP355 T10431258 52016 IEM_DS3505
ZBYN,1984-02-28 00:00,ZBYN 280000Z AUTO 32014KT 11SM M07/M29 RMK SLP383 T10681292 52017 IEM_DS3505
ZBYN,1984-02-28 01:00,ZBYN 280100Z AUTO 29014KT 7SM M06/M32 A3053 RMK T10601320 IEM_DS3505
ZBYN,1984-02-28 02:00,ZBYN 280200Z AUTO 31019KT 7SM M05/M30 A3053 RMK T10501300 IEM_DS3505
ZBYN,1984-02-28 03:00,ZBYN 280300Z AUTO 29023KT 11SM M04/M26 A3053 RMK SLP388 T10421258 52006 IEM_DS3505
ZBYN,1984-02-28 04:00,ZBYN 280400Z AUTO 33017KT 7SM M03/M30 A3053 RMK T10301300 IEM_DS3505
ZBYN,1984-02-28 05:00,ZBYN 280500Z AUTO 31017KT 6SM M02/M30 A3050 RMK T10201300 IEM_DS3505
ZBYN,1984-02-28 06:00,ZBYN 280600Z AUTO 29014KT 16SM M02/ A3047 RMK SLP358 4////1072 57025 IEM_DS3505
ZBYN,1984-02-28 07:00,ZBYN 280700Z AUTO 28025KT 7SM M02/M27 A3047 RMK T10201270 IEM_DS3505
ZBYN,1984-02-28 08:00,ZBYN 280800Z AUTO 28023KT 7SM M02/M27 RMK T10201270 IEM_DS3505
ZBYN,1984-02-28 09:00,ZBYN 280900Z AUTO 29014KT 16SM M02/M29 A3042 RMK SLP356 T10231292 57008 IEM_DS3505
ZBYN,1984-02-28 12:00,ZBYN 281200Z AUTO 00000KT 16SM M07/M24 RMK SLP375 T10681244 52005 IEM_DS3505
ZBYN,1984-02-28 15:00,ZBYN 281500Z AUTO 22004KT 16SM M08/M29 RMK SLP363 T10751292 57007 IEM_DS3505
ZBYN,1984-02-28 18:00,ZBYN 281800Z AUTO 22004KT 12SM M09/M29 RMK SLP352 T10891292 41009//// 57009 IEM_DS3505
ZBYN,1984-02-28 21:00,ZBYN 282100Z AUTO 20004KT 9SM M11/M27 RMK SLP334 T11101270 57020 IEM_DS3505
ZBYN,1984-02-29 00:00,ZBYN 290000Z AUTO 20006KT 17SM M11/M26 RMK SLP330 T11061258 57010 IEM_DS3505
ZBYN,1984-02-29 03:00,ZBYN 290300Z AUTO 18008KT 9SM M01/M27 RMK SLP294 T10071274 57018 IEM_DS3505
ZBYN,1984-02-29 06:00,ZBYN 290600Z AUTO 27019KT 12SM 05/ RMK SLP232 4////1122 57049 IEM_DS3505
ZBYN,1984-02-29 09:00,ZBYN 290900Z AUTO 29017KT 4SM 03/M26 RMK SLP236 T00271258 57003 IEM_DS3505
ZBYN,1984-02-29 12:00,ZBYN 291200Z AUTO 29016KT 3SM 00/M31 RMK SLP279 T00051313 52035 IEM_DS3505
ZBYN,1984-02-29 15:00,ZBYN 291500Z AUTO 00000KT 5SM M00/M29 RMK SLP266 T10051292 52004 IEM_DS3505
ZBYN,1984-02-29 18:00,ZBYN 291800Z AUTO 20004KT 6SM M02/M24 RMK SLP236 T10231244 40059//// 57020 IEM_DS3505
ZBYN,1984-02-29 21:00,ZBYN 292100Z AUTO 00000KT 6SM M02/M19 RMK SLP225 T10231191 57015 IEM_DS3505
ZBYN,1984-03-01 00:00,ZBYN 010000Z AUTO 29010KT 4SM M02/M24 RMK SLP264 T10211244 52032 IEM_DS3505
ZBYN,1984-03-01 03:00,ZBYN 010300Z AUTO 29016KT 6SM 01/M21 RMK SLP260 T00101210 52001 IEM_DS3505
ZBYN,1984-03-01 06:00,ZBYN 010600Z AUTO 27023KT 12SM 05/M31 RMK SLP229 T00461313 57026 IEM_DS3505
ZBYN,1984-03-01 09:00,ZBYN 010900Z AUTO 32014KT 16SM 05/M26 RMK SLP221 T00521258 57007 IEM_DS3505
ZBYN,1984-03-01 12:00,ZBYN 011200Z AUTO 22004KT 16SM M00/M21 RMK SLP237 T10051210 52006 IEM_DS3505
ZBYN,1984-03-01 15:00,ZBYN 011500Z AUTO 09004KT 16SM M01/M19 RMK SLP232 T10081191 57003 IEM_DS3505
ZBYN,1984-03-01 18:00,ZBYN 011800Z AUTO 27004KT 16SM M05/M22 RMK SLP225 T10511220 40058//// 57005 IEM_DS3505
ZBYN,1984-03-01 21:00,ZBYN 012100Z AUTO 27008KT 16SM M04/M16 RMK SLP223 T10361160 52005 IEM_DS3505
ZBYN,1984-03-02 00:00,ZBYN 020000Z AUTO 34004KT 19SM M02/M15 RMK SLP258 T10191147 52022 IEM_DS3505
ZBYN,1984-03-02 03:00,ZBYN 020300Z AUTO 32010KT 16SM 02/M10 RMK SLP271 T00221100 52015 IEM_DS3505
ZBYN,1984-03-02 06:00,ZBYN 020600Z AUTO 34014KT 16SM 04/M23 RMK SLP272 T00371231 4////1059 54000 IEM_DS3505
ZBYN,1984-03-02 09:00,ZBYN 020900Z AUTO 34010KT 16SM 03/M26 RMK SLP280 T00261258 52011 IEM_DS3505
ZBYN,1984-03-02 12:00,ZBYN 021200Z AUTO 04002KT 16SM M03/M22 RMK SLP324 T10261220 52030 IEM_DS3505
ZBYN,1984-03-02 15:00,ZBYN 021500Z AUTO 00000KT 16SM M06/M21 RMK SLP342 T10571210 52018 IEM_DS3505
ZBYN,1984-03-02 18:00,ZBYN 021800Z AUTO 34002KT 16SM M10/M24 RMK SLP339 T11031240 40044//// 57008 IEM_DS3505
ZBYN,1984-03-02 21:00,ZBYN 022100Z AUTO 00000KT 16SM M12/M24 RMK SLP343 T11181240 54000 IEM_DS3505
ZBYN,1984-03-03 00:00,ZBYN 030000Z AUTO 16002KT 12SM M12/M22 RMK SLP355 T11201220 52001 IEM_DS3505
ZBYN,1984-03-03 03:00,ZBYN 030300Z AUTO 18006KT 12SM M00/M21 A3039 RMK SLP333 T10051210 57005 IEM_DS3505
ZBYN,1984-03-03 04:00,ZBYN 030400Z AUTO 15008KT 7SM 01/M21 A3039 RMK T00101210 IEM_DS3505
ZBYN,1984-03-03 05:00,ZBYN 030500Z AUTO 18004KT 7SM 03/M23 RMK T00301230 IEM_DS3505
ZBYN,1984-03-03 06:00,ZBYN 030600Z AUTO 32008KT 16SM 05/M19 A3030 RMK SLP297 T00521191 4////1148 57031 IEM_DS3505
ZBYN,1984-03-03 07:00,ZBYN 030700Z AUTO 18014KT 7SM 05/M23 A3024 RMK T00501230 IEM_DS3505
ZBYN,1984-03-03 08:00,ZBYN 030800Z AUTO 18004KT 6SM 06/M27 A3024 RMK T00601270 IEM_DS3505
ZBYN,1984-03-03 09:00,ZBYN 030900Z AUTO 27016KT 12SM 06/M18 A3027 RMK SLP275 T00631175 57021 IEM_DS3505
ZBYN,1984-03-03 10:00,ZBYN 031000Z AUTO 28014KT 7SM 05/M24 A3021 RMK T00501240 IEM_DS3505
ZBYN,1984-03-03 12:00,ZBYN 031200Z AUTO 32006KT 9SM 00/M21 RMK SLP303 T00011210 52015 IEM_DS3505
ZBYN,1984-03-03 15:00,ZBYN 031500Z AUTO 02006KT 9SM M04/M18 RMK SLP288 T10431183 57002 IEM_DS3505
ZBYN,1984-03-03 18:00,ZBYN 031800Z AUTO 00000KT 6SM M08/M19 RMK SLP280 T10791191 40068//// 57003 IEM_DS3505
ZBYN,1984-03-03 21:00,ZBYN 032100Z AUTO 00000KT 6SM M10/M21 RMK SLP260 T10981210 57020 IEM_DS3505
ZBYN,1984-03-04 00:00,ZBYN 040000Z AUTO 00000KT 6SM M08/M18 RMK SLP267 T10801183 54000 IEM_DS3505
ZBYN,1984-03-04 03:00,ZBYN 040300Z AUTO 22004KT 5SM 03/M17 RMK SLP251 T00291167 57004 IEM_DS3505
ZBYN,1984-03-04 06:00,ZBYN 040600Z AUTO 32012KT 16SM 10/M18 RMK SLP211 T01021175 57031 IEM_DS3505
ZBYN,1984-03-04 09:00,ZBYN 040900Z AUTO 32012KT 19SM 09/M19 RMK SLP223 T00861191 52006 IEM_DS3505
ZBYN,1984-03-04 12:00,ZBYN 041200Z AUTO 25006KT 11SM 02/M16 RMK SLP252 T00201155 52018 IEM_DS3505
ZBYN,1984-03-04 15:00,ZBYN 041500Z AUTO 36004KT 12SM 01/M14 RMK SLP258 T00061135 52020 IEM_DS3505
ZBYN,1984-03-04 18:00,ZBYN 041800Z AUTO 02006KT 9SM M02/M14 RMK SLP253 T10171135 52004 IEM_DS3505
ZBYN,1984-03-04 21:00,ZBYN 042100Z AUTO 36004KT 16SM M03/M19 RMK SLP263 T10321191 52004 IEM_DS3505
ZBYN,1984-03-05 00:00,ZBYN 050000Z AUTO 34004KT 7SM M06/M17 RMK SLP289 T10571167 52008 IEM_DS3505
ZBYN,1984-03-05 03:00,ZBYN 050300Z AUTO 32006KT 14SM 01/M18 RMK SLP274 T00071183 57004 IEM_DS3505
ZBYN,1984-03-05 06:00,ZBYN 050600Z AUTO 22002KT 12SM 05/M15 RMK SLP236 T00531154 4////1081 57032 IEM_DS3505
ZBYN,1984-03-05 09:00,ZBYN 050900Z AUTO 34006KT 11SM 05/M19 RMK SLP231 T00501191 57007 IEM_DS3505
ZBYN,1984-03-05 12:00,ZBYN 051200Z AUTO 00000KT 12SM 01/M15 RMK SLP262 T00141147 52018 IEM_DS3505
ZBYN,1984-03-05 18:00,ZBYN 051800Z AUTO 34006KT 9SM M02/M17 RMK SLP277 T10251167 40063//// 52005 IEM_DS3505
ZBYN,1984-03-05 21:00,ZBYN 052100Z AUTO 34002KT 9SM M04/M18 RMK SLP270 T10371183 57008 IEM_DS3505
ZBYN,1984-03-06 00:00,ZBYN 060000Z AUTO 32004KT 7SM M04/M16 RMK SLP299 T10401160 52019 IEM_DS3505
ZBYN,1984-03-06 03:00,ZBYN 060300Z AUTO 36006KT 7SM 02/M18 A3030 RMK SLP291 T00171175 57002 IEM_DS3505
ZBYN,1984-03-06 04:00,ZBYN 060400Z AUTO 00000KT 6SM 04/M14 A3030 RMK T00401140 IEM_DS3505
ZBYN,1984-03-06 05:00,ZBYN 060500Z AUTO 15006KT 6SM 05/M15 A3024 RMK T00501150 IEM_DS3505
ZBYN,1984-03-06 06:00,ZBYN 060600Z AUTO 22004KT 7SM 06/M16 RMK SLP255 T00571160 57028 IEM_DS3505
ZBYN,1984-03-06 07:00,ZBYN 060700Z AUTO 21014KT 6SM 06/M14 A3021 RMK T00601140 IEM_DS3505
ZBYN,1984-03-06 08:00,ZBYN 060800Z AUTO 21004KT 6SM 07/M11 A3021 RMK T00701110 IEM_DS3505
ZBYN,1984-03-06 09:00,ZBYN 060900Z AUTO 14004KT 9SM 07/M15 RMK SLP246 T00681147 57008 IEM_DS3505
ZBYN,1984-03-06 12:00,ZBYN 061200Z AUTO 11004KT 6SM 00/M14 RMK SLP278 T00011141 52017 IEM_DS3505
ZBYN,1984-03-06 15:00,ZBYN 061500Z AUTO 00000KT 6SM M05/M18 RMK SLP296 T10511175 52017 IEM_DS3505
ZBYN,1984-03-06 18:00,ZBYN 061800Z AUTO 00000KT 6SM M07/M18 RMK SLP297 T10731175 40070//// 52004 IEM_DS3505
ZBYN,1984-03-06 21:00,ZBYN 062100Z AUTO 00000KT 6SM M09/M15 RMK T10871147 57002 IEM_DS3505
ZBYN,1984-03-07 00:00,ZBYN 070000Z AUTO 11004KT 9SM M08/M15 RMK SLP315 T10811154 52008 IEM_DS3505
ZBYN,1984-03-07 03:00,ZBYN 070300Z AUTO 02006KT 9SM 03/M21 RMK SLP297 T00331210 57006 IEM_DS3505
ZBYN,1984-03-07 06:00,ZBYN 070600Z AUTO 14004KT 9SM 08/M19 RMK SLP260 T00751191 4////1093 57030 IEM_DS3505
ZBYN,1984-03-07 09:00,ZBYN 070900Z AUTO 18002KT 12SM 08/M14 RMK SLP243 T00791141 57017 IEM_DS3505
ZBYN,1984-03-07 12:00,ZBYN 071200Z AUTO 32006KT 12SM 03/M16 RMK SLP248 T00271160 57004 IEM_DS3505
ZBYN,1984-03-07 15:00,ZBYN 071500Z AUTO 29002KT 12SM M02/M18 RMK SLP252 T10181175 52016 IEM_DS3505
ZBYN,1984-03-07 18:00,ZBYN 071800Z AUTO 36004KT 11SM M01/M18 RMK SLP231 T10091183 57011 IEM_DS3505
ZBYN,1984-03-07 21:00,ZBYN 072100Z AUTO 32004KT 7SM M01/M17 RMK SLP214 T10111167 57016 IEM_DS3505
ZBYN,1984-03-08 00:00,ZBYN 080000Z AUTO 02002KT 6SM M00/M17 RMK SLP221 T10021167 54000 IEM_DS3505
ZBYN,1984-03-08 03:00,ZBYN 080300Z AUTO 16004KT 6SM 04/M14 RMK SLP221 T00381141 57001 IEM_DS3505
ZBYN,1984-03-08 06:00,ZBYN 080600Z AUTO 20010KT 7SM 07/M11 RMK SLP175 T00671109 4////1027 57035 IEM_DS3505
ZBYN,1984-03-08 09:00,ZBYN 080900Z AUTO 20010KT 12SM 08/M05 RMK SLP154 T00751052 57019 IEM_DS3505
ZBYN,1984-03-08 12:00,ZBYN 081200Z AUTO 32010KT 16SM 05/M15 RMK SLP184 T00541147 52026 IEM_DS3505
ZBYN,1984-03-08 15:00,ZBYN 081500Z AUTO 32006KT 16SM 01/M14 RMK SLP215 T00131141 52028 IEM_DS3505
ZBYN,1984-03-08 18:00,ZBYN 081800Z AUTO 36010KT 12SM M02/M17 RMK SLP238 T10231167 52019 IEM_DS3505
ZBYN,1984-03-08 21:00,ZBYN 082100Z AUTO 36012KT 16SM M06/M21 RMK SLP256 T10601210 52012 IEM_DS3505
ZBYN,1984-03-09 00:00,ZBYN 090000Z AUTO 36006KT 12SM M07/M26 RMK T10681258 52018 IEM_DS3505
ZBYN,1984-03-09 03:00,ZBYN 090300Z AUTO 27004KT 12SM M02/M22 RMK SLP278 T10191220 57001 IEM_DS3505
ZBYN,1984-03-09 06:00,ZBYN 090600Z AUTO 32010KT 12SM 04/M24 RMK SLP235 T00381244 4////1071 57036 IEM_DS3505
ZBYN,1984-03-09 09:00,ZBYN 090900Z AUTO 32010KT 12SM 04/M24 RMK T00381244 57007 IEM_DS3505
ZBYN,1984-03-09 12:00,ZBYN 091200Z AUTO 29008KT 16SM M01/M26 RMK SLP272 T10071258 52025 IEM_DS3505
ZBYN,1984-03-09 15:00,ZBYN 091500Z AUTO 00000KT 12SM M06/M18 RMK SLP272 T10631175 57001 IEM_DS3505
ZBYN,1984-03-09 18:00,ZBYN 091800Z AUTO 07004KT 12SM M09/M15 RMK SLP260 T10931154 57007 IEM_DS3505
ZBYN,1984-03-09 21:00,ZBYN 092100Z AUTO 00000KT 12SM M11/M20 RMK SLP245 T11081200 57016 IEM_DS3505
ZBYN,1984-03-10 00:00,ZBYN 100000Z AUTO 00000KT 12SM M09/M19 RMK SLP253 T10891191 52003 IEM_DS3505
ZBYN,1984-03-10 03:00,ZBYN 100300Z AUTO 20004KT 5SM 02/M17 A3012 RMK SLP226 T00191167 57015 IEM_DS3505
ZBYN,1984-03-10 04:00,ZBYN 100400Z AUTO 18017KT 7SM 03/M11 A3006 RMK T00301110 IEM_DS3505
ZBYN,1984-03-10 05:00,ZBYN 100500Z AUTO 25012KT 7SM 05/M12 A2997 RMK T00501120 IEM_DS3505
ZBYN,1984-03-10 06:00,ZBYN 100600Z AUTO 20004KT 9SM 06/M17 A2994 RMK SLP179 T00601167 4////1111 57040 IEM_DS3505
ZBYN,1984-03-10 07:00,ZBYN 100700Z AUTO 20010KT 7SM 08/M19 A2994 RMK T00801190 IEM_DS3505
ZBYN,1984-03-10 09:00,ZBYN 100900Z AUTO 32010KT 17SM 08/M19 A2985 RMK SLP163 T00781191 57015 IEM_DS3505
ZBYN,1984-03-10 12:00,ZBYN 101200Z AUTO 00000KT 6SM 01/M15 RMK SLP192 T00111147 52019 IEM_DS3505
ZBYN,1984-03-10 15:00,ZBYN 101500Z AUTO 16004KT 6SM M03/M17 RMK SLP182 T10321167 52001 IEM_DS3505
ZBYN,1984-03-10 18:00,ZBYN 101800Z AUTO 14004KT 9SM M06/M18 RMK SLP160 T10561175 40086//// 57017 IEM_DS3505
ZBYN,1984-03-10 21:00,ZBYN 102100Z AUTO 14002KT 11SM M06/M18 RMK SLP137 T10551175 57018 IEM_DS3505
ZBYN,1984-03-11 00:00,ZBYN 110000Z AUTO 00000KT 4SM M05/M16 RMK SLP153 T10481160 52005 IEM_DS3505
ZBYN,1984-03-11 03:00,ZBYN 110300Z AUTO 20006KT 5SM 07/M14 RMK SLP138 T00661141 57002 IEM_DS3505
ZBYN,1984-03-11 06:00,ZBYN 110600Z AUTO 34008KT 16SM 13/M19 RMK SLP105 T01331191 4////1076 57023 IEM_DS3505
ZBYN,1984-03-11 09:00,ZBYN 110900Z AUTO 32006KT 19SM 13/M19 RMK SLP097 T01341191 57007 IEM_DS3505
ZBYN,1984-03-11 12:00,ZBYN 111200Z AUTO 27002KT 12SM 05/M12 RMK SLP142 T00541124 52030 IEM_DS3505
ZBYN,1984-03-11 15:00,ZBYN 111500Z AUTO 16006KT 9SM 01/M15 RMK SLP151 T00071147 52018 IEM_DS3505
ZBYN,1984-03-11 18:00,ZBYN 111800Z AUTO 16006KT 9SM 00/M17 RMK SLP160 T00011167 40138//// 52018 IEM_DS3505
ZBYN,1984-03-11 21:00,ZBYN 112100Z AUTO 00000KT 9SM M04/M14 RMK SLP184 T10451141 52015 IEM_DS3505
ZBYN,1984-03-12 00:00,ZBYN 120000Z AUTO 32004KT 9SM 00/M15 RMK SLP204 T00011147 52012 IEM_DS3505
ZBYN,1984-03-12 03:00,ZBYN 120300Z AUTO 32006KT 7SM 05/M15 RMK SLP205 T00471154 52001 IEM_DS3505
ZBYN,1984-03-12 06:00,ZBYN 120600Z AUTO 09012KT 7SM 07/M16 RMK SLP176 T00721160 4////1048 57023 IEM_DS3505
ZBYN,1984-03-12 09:00,ZBYN 120900Z AUTO 07010KT 9SM 06/M15 RMK SLP178 T00621154 57007 IEM_DS3505
ZBYN,1984-03-12 12:00,ZBYN 121200Z AUTO 00000KT 6SM 03/M12 RMK SLP200 T00291119 52021 IEM_DS3505
ZBYN,1984-03-12 15:00,ZBYN 121500Z AUTO 00000KT 6SM 01/M13 RMK SLP221 T00071130 52024 IEM_DS3505
ZBYN,1984-03-12 18:00,ZBYN 121800Z AUTO 34006KT 9SM 00/M13 RMK SLP196 T00031130 40078//// 57020 IEM_DS3505
ZBYN,1984-03-12 21:00,ZBYN 122100Z AUTO 36002KT 9SM 00/M14 RMK SLP183 T00011135 57014 IEM_DS3505
ZBYN,1984-03-13 00:00,ZBYN 130000Z AUTO 11010KT 6SM M02/M06 RMK SLP211 T10211055 52017 IEM_DS3505
ZBYN,1984-03-13 03:00,ZBYN 130300Z AUTO 00000KT 4SM M02/M03 RMK SLP211 T10191026 57003 IEM_DS3505
ZBYN,1984-03-13 05:00,ZBYN 130500Z AUTO 06010KT 1SM M02/M03 A2997 RMK T10201030 IEM_DS3505
ZBYN,1984-03-13 06:00,ZBYN 130600Z AUTO 29004KT 4SM M02/M03 A2997 RMK 60024 SLP178 T10191028 4////1029 57031 IEM_DS3505
ZBYN,1984-03-13 07:00,ZBYN 130700Z AUTO 36002KT 1/2SM M02/M02 A2997 RMK T10201020 IEM_DS3505
ZBYN,1984-03-13 08:00,ZBYN 130800Z AUTO 00000KT 1SM M01/M03 A2994 RMK T10101030 IEM_DS3505
ZBYN,1984-03-13 09:00,ZBYN 130900Z AUTO 00000KT 4SM M01/M03 A2994 RMK SLP167 T10121028 57009 IEM_DS3505
ZBYN,1984-03-13 12:00,ZBYN 131200Z AUTO 34002KT 4SM M03/M04 RMK 60016 SLP197 T10271042 52022 IEM_DS3505
ZBYN,1984-03-13 15:00,ZBYN 131500Z AUTO 00000KT 4SM M03/M04 RMK SLP218 T10331045 52017 IEM_DS3505
ZBYN,1984-03-13 18:00,ZBYN 131800Z AUTO 00000KT 4SM M03/M05 RMK SLP197 T10331052 40003//// 57018 IEM_DS3505
ZBYN,1984-03-13 21:00,ZBYN 132100Z AUTO 11004KT 4SM M04/M06 RMK T10371058 54000 IEM_DS3505
ZBYN,1984-03-14 00:00,ZBYN 140000Z AUTO 00000KT 4SM M04/M06 RMK SLP200 T10351055 52010 IEM_DS3505
ZBYN,1984-03-14 03:00,ZBYN 140300Z AUTO 34004KT 4SM M00/M03 RMK SLP203 T10021026 52006 IEM_DS3505
ZBYN,1984-03-14 06:00,ZBYN 140600Z AUTO 20004KT 1SM 01/M03 RMK SLP185 T00111026 4////1058 57013 IEM_DS3505
ZBYN,1984-03-14 09:00,ZBYN 140900Z AUTO 20004KT 4SM 01/M03 RMK SLP192 T00081031 52005 IEM_DS3505
ZBYN,1984-03-14 12:00,ZBYN 141200Z AUTO 11004KT 4SM M01/M03 RMK SLP212 T10091034 52017 IEM_DS3505
ZBYN,1984-03-14 15:00,ZBYN 141500Z AUTO 11004KT 5SM M01/M04 RMK SLP209 T10131039 54000 IEM_DS3505
ZBYN,1984-03-14 18:00,ZBYN 141800Z AUTO 00000KT 5SM M03/M05 RMK SLP207 T10321052 40017//// 57003 IEM_DS3505
ZBYN,1984-03-14 21:00,ZBYN 142100Z AUTO 00000KT 3/8SM M05/M06 RMK SLP186 T10471055 57021 IEM_DS3505
ZBYN,1984-03-15 00:00,ZBYN 150000Z AUTO 00000KT 1/2SM M04/M04 RMK SLP188 T10401045 54000 IEM_DS3505
ZBYN,1984-03-15 06:00,ZBYN 150600Z AUTO 11004KT 4SM 04/M01 RMK SLP162 T00391008 4////1055 57023 IEM_DS3505
ZBYN,1984-03-15 09:00,ZBYN 150900Z AUTO 32012KT 4SM 08/M07 RMK SLP159 T00831072 52001 IEM_DS3505
ZBYN,1984-03-15 12:00,ZBYN 151200Z AUTO 32014KT 6SM 04/M18 RMK SLP214 T00401175 52044 IEM_DS3505
ZBYN,1984-03-15 15:00,ZBYN 151500Z AUTO 34010KT 6SM 02/M18 RMK SLP238 T00221175 52026 IEM_DS3505
ZBYN,1984-03-15 18:00,ZBYN 151800Z AUTO 32010KT 6SM 01/M17 RMK SLP245 T00101167 40091//// 52011 IEM_DS3505
ZBYN,1984-03-15 21:00,ZBYN 152100Z AUTO 32004KT 6SM M01/M18 RMK SLP234 T10071183 57007 IEM_DS3505
ZBYN,1984-03-16 00:00,ZBYN 160000Z AUTO 00000KT 6SM M01/M16 RMK SLP255 T10121160 52012 IEM_DS3505
ZBYN,1984-03-16 03:00,ZBYN 160300Z AUTO 16004KT 9SM 03/M10 RMK SLP254 T00301100 52004 IEM_DS3505
ZBYN,1984-03-16 06:00,ZBYN 160600Z AUTO 16004KT 9SM 06/M10 RMK SLP214 T00641105 4////1019 57034 IEM_DS3505
ZBYN,1984-03-16 09:00,ZBYN 160900Z AUTO 18010KT 9SM 07/M11 RMK SLP187 T00671114 57026 IEM_DS3505
ZBYN,1984-03-16 12:00,ZBYN 161200Z AUTO 00000KT 7SM 03/M10 RMK SLP198 T00311096 52003 IEM_DS3505
ZBYN,1984-03-16 15:00,ZBYN 161500Z AUTO 34002KT 9SM M01/M05 RMK SLP192 T10061052 57009 IEM_DS3505
ZBYN,1984-03-16 18:00,ZBYN 161800Z AUTO 34004KT 7SM M00/M06 RMK SLP173 T10011061 40076//// 57011 IEM_DS3505
ZBYN,1984-03-16 21:00,ZBYN 162100Z AUTO 34006KT 7SM M02/M08 RMK SLP146 T10151083 57025 IEM_DS3505
ZBYN,1984-03-17 00:00,ZBYN 170000Z AUTO 32006KT 7SM M00/M08 RMK SLP158 T10011079 52006 IEM_DS3505
ZBYN,1984-03-17 03:00,ZBYN 170300Z AUTO 00000KT 5SM 07/M06 RMK SLP141 T00681058 57010 IEM_DS3505
ZBYN,1984-03-17 06:00,ZBYN 170600Z AUTO 18006KT 6SM 11/M05 A2980 RMK SLP100 T01111052 4////1022 57030 IEM_DS3505
ZBYN,1984-03-17 07:00,ZBYN 170700Z AUTO 17004KT 6SM 12/M04 A2962 RMK T01201040 IEM_DS3505
ZBYN,1984-03-17 08:00,ZBYN 170800Z AUTO 18010KT 6SM 12/M03 A2962 RMK T01201030 IEM_DS3505
ZBYN,1984-03-17 09:00,ZBYN 170900Z AUTO 16008KT 6SM 12/M02 A2977 RMK SLP087 T01171018 57013 IEM_DS3505
ZBYN,1984-03-17 12:00,ZBYN 171200Z AUTO 14004KT 9SM 06/M01 RMK SLP104 T00581008 57009 IEM_DS3505
ZBYN,1984-03-17 15:00,ZBYN 171500Z AUTO 25002KT 6SM 03/M01 RMK T00291010 52020 IEM_DS3505
ZBYN,1984-03-17 18:00,ZBYN 171800Z AUTO 00000KT 9SM 01/M03 RMK SLP123 T00071026 52007 IEM_DS3505
ZBYN,1984-03-17 21:00,ZBYN 172100Z AUTO 32004KT 7SM 01/M03 RMK SLP122 T00071034 54000 IEM_DS3505
ZBYN,1984-03-18 00:00,ZBYN 180000Z AUTO 36004KT 4SM 01/M02 RMK SLP175 T00111023 52039 IEM_DS3505
ZBYN,1984-03-18 03:00,ZBYN 180300Z AUTO 02008KT 6SM 05/M12 RMK SLP194 T00501124 52019 IEM_DS3505
ZBYN,1984-03-18 06:00,ZBYN 180600Z AUTO 36008KT 7SM 09/M11 RMK SLP178 T00921114 4////0000 57011 IEM_DS3505
ZBYN,1984-03-18 09:00,ZBYN 180900Z AUTO 02006KT 11SM 09/M11 RMK SLP183 T00881114 52004 IEM_DS3505
ZBYN,1984-03-18 12:00,ZBYN 181200Z AUTO 32006KT 6SM 04/M09 RMK SLP217 T00361087 52023 IEM_DS3505
ZBYN,1984-03-18 15:00,ZBYN 181500Z AUTO 00000KT 6SM 01/M09 RMK SLP237 T00071087 52020 IEM_DS3505
ZBYN,1984-03-18 18:00,ZBYN 181800Z AUTO 00000KT 6SM 01/M10 RMK SLP235 T00081100 40103//// 52005 IEM_DS3505
ZBYN,1984-03-18 21:00,ZBYN 182100Z AUTO 00000KT 9SM M04/M08 RMK SLP244 T10361079 52001 IEM_DS3505
ZBYN,1984-03-19 00:00,ZBYN 190000Z AUTO 36006KT 6SM M01/M12 RMK SLP261 T10071119 52011 IEM_DS3505
ZBYN,1984-03-19 03:00,ZBYN 190300Z AUTO 34004KT 7SM 06/M16 RMK SLP245 T00611160 57009 IEM_DS3505
ZBYN,1984-03-19 06:00,ZBYN 190600Z AUTO 34014KT 16SM 10/M23 RMK SLP219 T01041231 4////1051 57016 IEM_DS3505
ZBYN,1984-03-19 09:00,ZBYN 190900Z AUTO 29016KT 19SM 10/M26 RMK SLP214 T01041258 57012 IEM_DS3505
ZBYN,1984-03-19 12:00,ZBYN 191200Z AUTO 00000KT 19SM 04/M23 RMK SLP244 T00411231 52022 IEM_DS3505
ZBYN,1984-03-19 15:00,ZBYN 191500Z AUTO 20006KT 19SM 03/M14 RMK SLP236 T00261135 52002 IEM_DS3505
ZBYN,1984-03-19 18:00,ZBYN 191800Z AUTO 00000KT 16SM M01/M12 RMK SLP236 T10121124 40135//// 52001 IEM_DS3505
ZBYN,1984-03-19 21:00,ZBYN 192100Z AUTO 32010KT 12SM 03/M17 RMK SLP217 T00331167 57010 IEM_DS3505
ZBYN,1984-03-20 00:00,ZBYN 200000Z AUTO 36014KT 5SM M02/M23 RMK SLP286 T10171231 52043 IEM_DS3505
ZBYN,1984-03-20 02:00,ZBYN 200200Z AUTO 34017KT 7SM M01/M18 A3033 RMK T10101180 IEM_DS3505
ZBYN,1984-03-20 03:00,ZBYN 200300Z AUTO 02016KT 5SM M02/M26 A3039 RMK SLP327 T10201258 52035 IEM_DS3505
ZBYN,1984-03-20 06:00,ZBYN 200600Z AUTO 02012KT 8SM 00/M27 A3039 RMK SLP325 T00001274 4////1028 57005 IEM_DS3505
ZBYN,1984-03-20 07:00,ZBYN 200700Z AUTO 36019KT 6SM 02/M22 A3039 RMK T00201220 IEM_DS3505
ZBYN,1984-03-20 08:00,ZBYN 200800Z AUTO 36023KT 6SM 03/M24 A3039 RMK T00301240 IEM_DS3505
ZBYN,1984-03-20 09:00,ZBYN 200900Z AUTO 36010KT 9SM 01/M31 A3039 RMK SLP318 T00101313 52003 IEM_DS3505
ZBYN,1984-03-20 12:00,ZBYN 201200Z AUTO 34012KT 11SM M01/M27 RMK SLP341 T10111274 52009 IEM_DS3505
ZBYN,1984-03-20 15:00,ZBYN 201500Z AUTO 36006KT 12SM M02/M26 RMK SLP362 T10241258 52017 IEM_DS3505
ZBYN,1984-03-20 18:00,ZBYN 201800Z AUTO 34004KT 14SM M04/M20 RMK SLP368 T10381200 40041//// 52006 IEM_DS3505
ZBYN,1984-03-20 21:00,ZBYN 202100Z AUTO 34004KT 11SM M04/M19 RMK SLP349 T10411191 57016 IEM_DS3505
ZBYN,1984-03-21 00:00,ZBYN 210000Z AUTO 34004KT 6SM M03/M20 RMK SLP355 T10331200 52003 IEM_DS3505
ZBYN,1984-03-21 03:00,ZBYN 210300Z AUTO 16008KT 6SM 02/M22 RMK SLP322 T00211220 57023 IEM_DS3505
ZBYN,1984-03-21 06:00,ZBYN 210600Z AUTO 18012KT 6SM 05/M12 RMK SLP269 T00471119 4////1042 57046 IEM_DS3505
ZBYN,1984-03-21 09:00,ZBYN 210900Z AUTO 00000KT 6SM 06/M11 RMK SLP238 T00571109 57027 IEM_DS3505
ZBYN,1984-03-21 12:00,ZBYN 211200Z AUTO 11006KT 11SM 04/M11 RMK SLP230 T00351109 57009 IEM_DS3505
ZBYN,1984-03-21 15:00,ZBYN 211500Z AUTO 16006KT 9SM 02/M09 RMK SLP225 T00151092 54000 IEM_DS3505
ZBYN,1984-03-21 18:00,ZBYN 211800Z AUTO 14006KT 7SM 00/M08 RMK SLP209 T00001079 40061//// 57012 IEM_DS3505
ZBYN,1984-03-21 21:00,ZBYN 212100Z AUTO 00000KT 6SM M02/M08 RMK SLP201 T10251079 57010 IEM_DS3505
ZBYN,1984-03-22 00:00,ZBYN 220000Z AUTO 00000KT 5SM M01/M04 RMK SLP211 T10071045 52008 IEM_DS3505
ZBYN,1984-03-22 03:00,ZBYN 220300Z AUTO 18006KT 5SM 04/M06 RMK SLP204 T00431055 57001 IEM_DS3505
ZBYN,1984-03-22 06:00,ZBYN 220600Z AUTO 16008KT 6SM 08/M03 RMK SLP170 T00831028 4////1032 57027 IEM_DS3505
ZBYN,1984-03-22 09:00,ZBYN 220900Z AUTO 16006KT 7SM 10/M01 RMK SLP154 T00991008 57016 IEM_DS3505
ZBYN,1984-03-22 12:00,ZBYN 221200Z AUTO 00000KT 7SM 07/M02 RMK SLP172 T00671020 52014 IEM_DS3505
ZBYN,1984-03-22 15:00,ZBYN 221500Z AUTO 18008KT 7SM 07/M05 RMK SLP175 T00711048 52011 IEM_DS3505
ZBYN,1984-03-22 18:00,ZBYN 221800Z AUTO 02002KT 6SM RMK SLP178 40104//// 52010 IEM_DS3505
ZBYN,1984-03-22 21:00,ZBYN 222100Z AUTO 34002KT 6SM 02/M06 RMK SLP189 T00251055 52005 IEM_DS3505
ZBYN,1984-03-23 00:00,ZBYN 230000Z AUTO 36008KT 9SM 04/M06 RMK SLP233 T00371061 52036 IEM_DS3505
ZBYN,1984-03-23 03:00,ZBYN 230300Z AUTO 02010KT 11SM 07/M08 RMK SLP267 T00671079 52037 IEM_DS3505
ZBYN,1984-03-23 06:00,ZBYN 230600Z AUTO 34004KT 16SM 09/M08 RMK SLP235 T00891083 4////0016 57025 IEM_DS3505
ZBYN,1984-03-23 09:00,ZBYN 230900Z AUTO 34010KT 19SM 09/M20 RMK SLP240 T00921200 57003 IEM_DS3505
ZBYN,1984-03-23 12:00,ZBYN 231200Z AUTO 32004KT 12SM 04/M16 RMK SLP278 T00441160 52029 IEM_DS3505
ZBYN,1984-03-23 15:00,ZBYN 231500Z AUTO 34004KT 16SM 01/M15 RMK SLP289 T00141147 52010 IEM_DS3505
ZBYN,1984-03-23 18:00,ZBYN 231800Z AUTO 02006KT 16SM M00/M15 RMK SLP276 T10031147 40108//// 57011 IEM_DS3505
ZBYN,1984-03-23 21:00,ZBYN 232100Z AUTO 34004KT 16SM M05/M14 RMK SLP270 T10471135 57012 IEM_DS3505
ZBYN,1984-03-24 00:00,ZBYN 240000Z AUTO 00000KT 7SM M03/M11 RMK SLP291 T10291109 52014 IEM_DS3505
ZBYN,1984-03-24 03:00,ZBYN 240300Z AUTO 18004KT 9SM 06/M10 A3024 RMK SLP261 T00561100 57019 IEM_DS3505
ZBYN,1984-03-24 04:00,ZBYN 240400Z AUTO 16010KT 7SM 07/M09 A3021 RMK T00701090 IEM_DS3505
ZBYN,1984-03-24 05:00,ZBYN 240500Z AUTO 26006KT 7SM 09/M09 A3015 RMK T00901090 IEM_DS3505
ZBYN,1984-03-24 06:00,ZBYN 240600Z AUTO 16002KT 16SM 10/M12 RMK SLP207 T01011119 4////1061 57044 IEM_DS3505
ZBYN,1984-03-24 07:00,ZBYN 240700Z AUTO 15002KT 7SM 11/M06 A3006 RMK T01101060 IEM_DS3505
ZBYN,1984-03-24 08:00,ZBYN 240800Z AUTO 16006KT 7SM 11/M11 A3006 RMK T01101110 IEM_DS3505
ZBYN,1984-03-24 09:00,ZBYN 240900Z AUTO 29012KT 19SM 12/M17 A2997 RMK SLP193 T01181167 57017 IEM_DS3505
ZBYN,1984-03-24 12:00,ZBYN 241200Z AUTO 32006KT 9SM 07/M15 RMK SLP219 T00681147 52018 IEM_DS3505
ZBYN,1984-03-24 15:00,ZBYN 241500Z AUTO 36006KT 9SM 03/M13 RMK SLP217 T00321130 52007 IEM_DS3505
ZBYN,1984-03-24 18:00,ZBYN 241800Z AUTO 36004KT 6SM 00/M10 RMK SLP220 T00001105 40124//// 52004 IEM_DS3505
ZBYN,1984-03-24 21:00,ZBYN 242100Z AUTO 00000KT 6SM M03/M09 RMK SLP223 T10301092 52001 IEM_DS3505
ZBYN,1984-03-25 00:00,ZBYN 250000Z AUTO 00000KT 6SM M02/M11 RMK SLP241 T10181114 52010 IEM_DS3505
ZBYN,1984-03-25 03:00,ZBYN 250300Z AUTO 16002KT 7SM 07/M10 RMK SLP224 T00691105 57007 IEM_DS3505
ZBYN,1984-03-25 06:00,ZBYN 250600Z AUTO 20008KT 9SM 10/M08 RMK SLP195 T00991079 4////1042 57027 IEM_DS3505
ZBYN,1984-03-25 09:00,ZBYN 250900Z AUTO 18006KT 9SM 12/M11 RMK SLP177 T01161114 57018 IEM_DS3505
ZBYN,1984-03-25 12:00,ZBYN 251200Z AUTO 14006KT 12SM 05/M11 RMK SLP210 T00531114 52021 IEM_DS3505
ZBYN,1984-03-25 15:00,ZBYN 251500Z AUTO 32004KT 9SM 02/M11 RMK SLP219 T00171114 52017 IEM_DS3505
ZBYN,1984-03-25 18:00,ZBYN 251800Z AUTO 32004KT 9SM M00/M10 RMK T10031100 40125//// 57003 IEM_DS3505
ZBYN,1984-03-25 21:00,ZBYN 252100Z AUTO 00000KT 6SM M01/M11 RMK SLP204 T10131114 57008 IEM_DS3505
ZBYN,1984-03-26 00:00,ZBYN 260000Z AUTO 00000KT 5SM M01/M10 RMK SLP223 T10091100 52008 IEM_DS3505
ZBYN,1984-03-26 03:00,ZBYN 260300Z AUTO 18004KT 4SM 07/M06 RMK SLP222 T00681065 52006 IEM_DS3505
ZBYN,1984-03-26 06:00,ZBYN 260600Z AUTO 20008KT 8SM 13/M03 RMK SLP186 T01271034 4////1036 57027 IEM_DS3505
ZBYN,1984-03-26 09:00,ZBYN 260900Z AUTO 14006KT 9SM 14/M06 RMK SLP175 T01441058 57008 IEM_DS3505
ZBYN,1984-03-26 12:00,ZBYN 261200Z AUTO 34004KT 11SM 10/M13 RMK SLP217 T00971130 52031 IEM_DS3505
ZBYN,1984-03-26 15:00,ZBYN 261500Z AUTO 00000KT 12SM 03/M09 RMK SLP252 T00321087 52033 IEM_DS3505
ZBYN,1984-03-26 18:00,ZBYN 261800Z AUTO 34006KT 14SM 03/M14 RMK SLP249 T00301141 40148//// 52007 IEM_DS3505
ZBYN,1984-03-26 21:00,ZBYN 262100Z AUTO 34008KT 12SM 01/M10 RMK SLP254 T00111105 52003 IEM_DS3505
ZBYN,1984-03-27 00:00,ZBYN 270000Z AUTO 00000KT 6SM 01/M09 A3030 RMK SLP279 T00111087 52016 IEM_DS3505
ZBYN,1984-03-27 01:00,ZBYN 270100Z AUTO 05006KT 6SM 04/M10 A3033 RMK T00401100 IEM_DS3505
ZBYN,1984-03-27 02:00,ZBYN 270200Z AUTO 33006KT 6SM 07/M10 A3036 RMK T00701100 IEM_DS3505
ZBYN,1984-03-27 03:00,ZBYN 270300Z AUTO 16004KT 6SM 09/M12 A3033 RMK SLP277 T00921119 52001 IEM_DS3505
ZBYN,1984-03-27 04:00,ZBYN 270400Z AUTO 15008KT 6SM 11/M07 A3030 RMK T01101070 IEM_DS3505
ZBYN,1984-03-27 05:00,ZBYN 270500Z AUTO 20008KT 6SM 12/M06 A3024 RMK T01201060 IEM_DS3505
ZBYN,1984-03-27 06:00,ZBYN 270600Z AUTO 20010KT 12SM 12/M10 RMK SLP224 T01181100 4////1009 57045 IEM_DS3505
ZBYN,1984-03-27 09:00,ZBYN 270900Z AUTO 29008KT 12SM 14/M09 A3012 RMK SLP202 T01401092 57019 IEM_DS3505
ZBYN,1984-03-27 12:00,ZBYN 271200Z AUTO 00000KT 7SM 10/M03 RMK SLP211 T01031031 52002 IEM_DS3505
ZBYN,1984-03-27 18:00,ZBYN 271800Z AUTO 11006KT 9SM 03/M10 RMK SLP201 T00341096 40150//// 57010 IEM_DS3505
ZBYN,1984-03-27 21:00,ZBYN 272100Z AUTO 09004KT 6SM 00/M08 RMK SLP186 T00011079 57015 IEM_DS3505
ZBYN,1984-03-28 00:00,ZBYN 280000Z AUTO 00000KT 6SM M00/M04 RMK SLP199 T10011039 52005 IEM_DS3505
ZBYN,1984-03-28 03:00,ZBYN 280300Z AUTO 20010KT 6SM 14/M10 RMK SLP147 T01361100 57032 IEM_DS3505
ZBYN,1984-03-28 06:00,ZBYN 280600Z AUTO 20008KT 7SM 18/M10 RMK SLP090 T01801105 4////1020 57050 IEM_DS3505
ZBYN,1984-03-28 09:00,ZBYN 280900Z AUTO 22010KT 9SM 19/M09 RMK SLP061 T01861087 57030 IEM_DS3505
ZBYN,1984-03-28 12:00,ZBYN 281200Z AUTO 20006KT 6SM 15/M03 RMK SLP051 T01521034 57014 IEM_DS3505
ZBYN,1984-03-28 15:00,ZBYN 281500Z AUTO 20006KT 7SM 14/M05 RMK SLP029 T01421048 57001 IEM_DS3505
ZBYN,1984-03-28 18:00,ZBYN 281800Z AUTO 00000KT 12SM 08/M02 RMK SLP025 T00811020 40192//// 57007 IEM_DS3505
ZBYN,1984-03-28 21:00,ZBYN 282100Z AUTO 00000KT 9SM 02/M02 RMK SLP035 T00251018 52002 IEM_DS3505
ZBYN,1984-03-29 00:00,ZBYN 290000Z AUTO 00000KT 4SM 05/M00 RMK SLP011 T00481004 52010 IEM_DS3505
ZBYN,1984-03-29 03:00,ZBYN 290300Z AUTO 18004KT 5SM 17/M05 RMK SLP048 T01741048 52007 IEM_DS3505
ZBYN,1984-03-29 06:00,ZBYN 290600Z AUTO 22010KT 11SM 22/M09 RMK SLP027 T02181087 4////0010 57021 IEM_DS3505
ZBYN,1984-03-29 12:00,ZBYN 291200Z AUTO 00000KT 12SM 17/02 RMK SLP050 T01660022 52017 IEM_DS3505
ZBYN,1984-03-29 15:00,ZBYN 291500Z AUTO 00000KT 12SM 11/M02 RMK SLP056 T01111018 52016 IEM_DS3505
ZBYN,1984-03-29 18:00,ZBYN 291800Z AUTO 00000KT 7SM 10/M01 RMK SLP064 T01011010 40237//// 52012 IEM_DS3505
ZBYN,1984-03-29 21:00,ZBYN 292100Z AUTO 34004KT 9SM 08/00 RMK SLP085 T00820001 52018 IEM_DS3505
ZBYN,1984-03-30 00:00,ZBYN 300000Z AUTO 34006KT 6SM 11/M05 RMK SLP119 T01141052 52027 IEM_DS3505
ZBYN,1984-03-30 03:00,ZBYN 300300Z AUTO 34004KT 7SM 14/M07 RMK SLP145 T01411072 52020 IEM_DS3505
ZBYN,1984-03-30 06:00,ZBYN 300600Z AUTO 16006KT 9SM 16/M01 RMK SLP140 T01561008 4////0069 57004 IEM_DS3505
ZBYN,1984-03-30 09:00,ZBYN 300900Z AUTO 16004KT 9SM 15/03 RMK SLP149 T01490032 52004 IEM_DS3505
ZBYN,1984-03-30 12:00,ZBYN 301200Z AUTO 18004KT 6SM 10/02 RMK SLP169 T00960021 52014 IEM_DS3505
ZBYN,1984-03-30 15:00,ZBYN 301500Z AUTO 20004KT 6SM 06/00 RMK SLP185 T00550004 52013 IEM_DS3505
ZBYN,1984-03-30 18:00,ZBYN 301800Z AUTO 22002KT 6SM 02/M01 RMK SLP193 T00191008 40158//// 52004 IEM_DS3505
ZBYN,1984-03-30 21:00,ZBYN 302100Z AUTO 25004KT 6SM 01/M01 RMK SLP204 T00091013 52008 IEM_DS3505
ZBYN,1984-03-31 00:00,ZBYN 310000Z AUTO 36002KT 5SM 03/M00 RMK SLP230 T00301001 52019 IEM_DS3505
ZBYN,1984-03-31 03:00,ZBYN 310300Z AUTO 18004KT 5SM 10/00 A3015 RMK SLP221 T00990001 57005 IEM_DS3505
ZBYN,1984-03-31 04:00,ZBYN 310400Z AUTO 16004KT 6SM 12/00 A3012 RMK T01200000 IEM_DS3505
ZBYN,1984-03-31 05:00,ZBYN 310500Z AUTO 16010KT 6SM 14/02 A3006 RMK T01400020 IEM_DS3505
ZBYN,1984-03-31 06:00,ZBYN 310600Z AUTO 20008KT 6SM 15/01 A3006 RMK SLP177 T01520014 4////0009 57036 IEM_DS3505
ZBYN,1984-03-31 07:00,ZBYN 310700Z AUTO 19006KT 6SM 17/ RMK IEM_DS3505
ZBYN,1984-03-31 08:00,ZBYN 310800Z AUTO 21004KT 6SM 18/01 A2997 RMK T01800010 IEM_DS3505
ZBYN,1984-03-31 09:00,ZBYN 310900Z AUTO 18008KT 6SM 18/M02 A2997 RMK SLP156 T01761020 57017 IEM_DS3505
ZBYN,1984-03-31 12:00,ZBYN 311200Z AUTO 14008KT 8SM 11/M05 RMK SLP184 T01121052 52018 IEM_DS3505
ZBYN,1984-03-31 15:00,ZBYN 311500Z AUTO 00000KT 9SM 06/M04 RMK SLP210 T00591042 52026 IEM_DS3505
ZBYN,1984-03-31 18:00,ZBYN 311800Z AUTO 34004KT 12SM 04/M05 RMK SLP195 T00451048 40179//// 57007 IEM_DS3505
ZBYN,1984-03-31 21:00,ZBYN 312100Z AUTO 32004KT 12SM 02/M05 RMK SLP179 T00211052 57015 IEM_DS3505
ZBYN,1984-04-01 00:00,ZBYN 010000Z AUTO 34004KT 6SM 04/M05 RMK SLP190 T00361052 52002 IEM_DS3505
ZBYN,1984-04-01 03:00,ZBYN 010300Z AUTO 02004KT 6SM 09/M03 RMK SLP177 T00921034 57011 IEM_DS3505
ZBYN,1984-04-01 06:00,ZBYN 010600Z AUTO 14008KT 9SM 14/M03 RMK SLP129 T01391028 4////0017 57039 IEM_DS3505
ZBYN,1984-04-01 09:00,ZBYN 010900Z AUTO 09004KT 9SM 15/M04 RMK SLP115 T01491039 57024 IEM_DS3505
ZBYN,1984-04-01 12:00,ZBYN 011200Z AUTO 34008KT 7SM 10/M04 RMK SLP152 T01011042 52029 IEM_DS3505
ZBYN,1984-04-01 15:00,ZBYN 011500Z AUTO 18004KT 11SM 04/02 RMK SLP171 T00430022 52016 IEM_DS3505
ZBYN,1984-04-01 21:00,ZBYN 012100Z AUTO 14004KT 9SM 04/02 RMK SLP146 T00420018 57009 IEM_DS3505
ZBYN,1984-04-02 00:00,ZBYN 020000Z AUTO 34004KT 5SM 05/03 RMK SLP164 T00500028 52010 IEM_DS3505
ZBYN,1984-04-02 03:00,ZBYN 020300Z AUTO 32002KT 4SM 10/03 RMK SLP174 T01030032 52009 IEM_DS3505
ZBYN,1984-04-02 06:00,ZBYN 020600Z AUTO 18006KT 5SM 15/00 RMK SLP139 T01480001 4////0036 57026 IEM_DS3505
ZBYN,1984-04-02 09:00,ZBYN 020900Z AUTO 20006KT 6SM 15/02 RMK SLP124 T01520018 57013 IEM_DS3505
ZBYN,1984-04-02 12:00,ZBYN 021200Z AUTO 29006KT 8SM 12/M07 RMK SLP140 T01151072 52011 IEM_DS3505
ZBYN,1984-04-02 15:00,ZBYN 021500Z AUTO 36004KT 9SM 09/M06 RMK SLP142 T00881061 52006 IEM_DS3505
ZBYN,1984-04-02 18:00,ZBYN 021800Z AUTO 00000KT 7SM 02/M02 RMK SLP144 T00171020 57002 IEM_DS3505
ZBYN,1984-04-02 21:00,ZBYN 022100Z AUTO 00000KT 6SM 01/M04 RMK SLP144 T00061042 57002 IEM_DS3505
ZBYN,1984-04-03 00:00,ZBYN 030000Z AUTO 32002KT 5SM 03/M03 RMK SLP156 T00271034 52008 IEM_DS3505
ZBYN,1984-04-03 03:00,ZBYN 030300Z AUTO 00000KT 5SM 14/M03 RMK SLP133 T01411026 57008 IEM_DS3505
ZBYN,1984-04-03 05:00,ZBYN 030500Z AUTO 21006KT 6SM 16/M04 A2988 RMK T01601040 IEM_DS3505
ZBYN,1984-04-03 06:00,ZBYN 030600Z AUTO 20008KT 6SM 19/M04 A2985 RMK SLP113 T01901040 4////0001 57023 IEM_DS3505
ZBYN,1984-04-03 07:00,ZBYN 030700Z AUTO 22004KT 6SM 18/M06 A2980 RMK T01801060 IEM_DS3505
ZBYN,1984-04-03 08:00,ZBYN 030800Z AUTO 00000KT 6SM 18/M04 A2980 RMK T01801040 IEM_DS3505
ZBYN,1984-04-03 09:00,ZBYN 030900Z AUTO 00000KT 11SM 18/M02 A2980 RMK SLP098 T01791018 57014 IEM_DS3505
ZBYN,1984-04-03 10:00,ZBYN 031000Z AUTO 00000KT 6SM 17/M02 A2980 RMK T01701020 IEM_DS3505
ZBYN,1984-04-03 12:00,ZBYN 031200Z AUTO 02004KT 6SM 16/M01 RMK SLP103 T01591010 52004 IEM_DS3505
ZBYN,1984-04-03 15:00,ZBYN 031500Z AUTO 32006KT 6SM 14/M02 RMK SLP113 T01391018 52023 IEM_DS3505
ZBYN,1984-04-03 18:00,ZBYN 031800Z AUTO 16008KT 6SM 11/03 RMK SLP134 T01080026 40196//// 52022 IEM_DS3505
ZBYN,1984-04-03 21:00,ZBYN 032100Z AUTO 32004KT 4SM 08/06 RMK SLP137 T00790065 57003 IEM_DS3505
ZBYN,1984-04-04 00:00,ZBYN 040000Z AUTO 27002KT 6SM 08/06 RMK 60012 SLP144 T00790059 52003 IEM_DS3505
ZBYN,1984-04-04 03:00,ZBYN 040300Z AUTO 00000KT 6SM 11/05 RMK SLP148 T01120048 52006 IEM_DS3505
ZBYN,1984-04-04 06:00,ZBYN 040600Z AUTO 32002KT 6SM 14/01 RMK 60000 SLP121 T01390014 4////0073 57025 IEM_DS3505
ZBYN,1984-04-04 09:00,ZBYN 040900Z AUTO 20004KT 16SM 13/03 RMK SLP117 T01300026 57010 IEM_DS3505
ZBYN,1984-04-04 12:00,ZBYN 041200Z AUTO 20006KT 9SM 10/04 RMK SLP124 T01050043 52003 IEM_DS3505
ZBYN,1984-04-04 15:00,ZBYN 041500Z AUTO 36004KT 6SM 08/04 RMK SLP144 T00760044 52019 IEM_DS3505
ZBYN,1984-04-04 18:00,ZBYN 041800Z AUTO 36016KT 6SM 06/M12 RMK SLP179 T00571124 40144//// 52032 IEM_DS3505
ZBYN,1984-04-04 21:00,ZBYN 042100Z AUTO 02016KT 16SM 01/M12 RMK SLP217 T00111119 52027 IEM_DS3505
ZBYN,1984-04-05 00:00,ZBYN 050000Z AUTO 36014KT 16SM M01/M14 RMK SLP248 T10101135 52021 IEM_DS3505
ZBYN,1984-04-05 06:00,ZBYN 050600Z AUTO 00000KT 16SM 08/M14 RMK SLP236 T00791141 4////1012 57011 IEM_DS3505
ZBYN,1984-04-05 09:00,ZBYN 050900Z AUTO 25004KT 9SM 09/M14 RMK SLP223 T00881142 57018 IEM_DS3505
ZBYN,1984-04-05 12:00,ZBYN 051200Z AUTO 36006KT 16SM 07/M14 RMK SLP239 T00721135 52008 IEM_DS3505
ZBYN,1984-04-05 15:00,ZBYN 051500Z AUTO 34004KT 16SM 05/M15 RMK SLP246 T00541147 52012 IEM_DS3505
ZBYN,1984-04-05 18:00,ZBYN 051800Z AUTO 34006KT 17SM 03/M12 RMK SLP238 T00301124 40097//// 57006 IEM_DS3505
ZBYN,1984-04-05 21:00,ZBYN 052100Z AUTO 34004KT 9SM M00/M10 RMK SLP238 T10051100 57003 IEM_DS3505
ZBYN,1984-04-06 00:00,ZBYN 060000Z AUTO 36004KT 9SM 02/M10 RMK SLP245 T00171100 IEM_DS3505
ZBYN,1984-04-06 03:00,ZBYN 060300Z AUTO 7SM 08/M13 RMK SLP235 T00751130 57004 IEM_DS3505
ZBYN,1984-04-06 06:00,ZBYN 060600Z AUTO 20012KT 7SM 08/M03 RMK SLP205 T00851026 4////1015 57030 IEM_DS3505
ZBYN,1984-04-06 09:00,ZBYN 060900Z AUTO 20014KT 7SM 08/01 RMK SLP190 T00820008 57019 IEM_DS3505
ZBYN,1984-04-06 12:00,ZBYN 061200Z AUTO 18004KT 19SM 05/01 RMK SLP205 T00510010 52012 IEM_DS3505
ZBYN,1984-04-06 15:00,ZBYN 061500Z AUTO 16004KT 17SM 03/02 RMK SLP211 T00340016 52012 IEM_DS3505
ZBYN,1984-04-06 18:00,ZBYN 061800Z AUTO 00000KT 7SM 02/01 RMK SLP198 T00220010 40103//// 57012 IEM_DS3505
ZBYN,1984-04-06 21:00,ZBYN 062100Z AUTO 34002KT 6SM 04/01 A3006 RMK SLP191 T00390012 57004 IEM_DS3505
ZBYN,1984-04-06 22:00,ZBYN 062200Z AUTO 30004KT 2SM 05/M02 A3006 RMK T00501020 IEM_DS3505
ZBYN,1984-04-07 00:00,ZBYN 070000Z AUTO 34006KT 5SM 05/02 A3006 RMK SLP208 T00520022 52012 IEM_DS3505
ZBYN,1984-04-07 01:00,ZBYN 070100Z AUTO 34004KT 6SM 08/02 A3012 RMK T00800020 IEM_DS3505
ZBYN,1984-04-07 02:00,ZBYN 070200Z AUTO 00000KT 6SM 09/02 A3012 RMK T00900020 IEM_DS3505
ZBYN,1984-04-07 03:00,ZBYN 070300Z AUTO 16004KT 6SM 11/03 A3006 RMK SLP199 T01070028 57002 IEM_DS3505
ZBYN,1984-04-07 04:00,ZBYN 070400Z AUTO 14008KT 7SM 13/04 A3006 RMK T01300040 IEM_DS3505
ZBYN,1984-04-07 05:00,ZBYN 070500Z AUTO 17008KT 7SM 14/03 A3006 RMK T01400030 IEM_DS3505
ZBYN,1984-04-07 06:00,ZBYN 070600Z AUTO 18002KT 6SM 14/04 RMK SLP168 T01450039 4////0018 57023 IEM_DS3505
ZBYN,1984-04-07 09:00,ZBYN 070900Z AUTO 20008KT 6SM 16/03 RMK SLP142 T01570034 57020 IEM_DS3505
ZBYN,1984-04-07 12:00,ZBYN 071200Z AUTO 14002KT 11SM 12/02 RMK SLP161 T01200018 52014 IEM_DS3505
ZBYN,1984-04-07 15:00,ZBYN 071500Z AUTO 09006KT 7SM 12/02 RMK SLP174 T01180022 52020 IEM_DS3505
ZBYN,1984-04-07 18:00,ZBYN 071800Z AUTO 14004KT 9SM 10/04 RMK SLP167 T01050037 40162//// 57003 IEM_DS3505
ZBYN,1984-04-07 21:00,ZBYN 072100Z AUTO 14004KT 6SM 09/04 RMK SLP162 T00940041 57004 IEM_DS3505
ZBYN,1984-04-08 00:00,ZBYN 080000Z AUTO 20004KT 4SM 08/05 RMK SLP179 T00830054 52007 IEM_DS3505
ZBYN,1984-04-08 03:00,ZBYN 080300Z AUTO 16006KT 5SM 08/05 RMK SLP197 T00770048 52016 IEM_DS3505
ZBYN,1984-04-08 06:00,ZBYN 080600Z AUTO 16004KT 6SM 08/06 RMK 60008 SLP188 T00820060 4////0073 57009 IEM_DS3505
ZBYN,1984-04-08 09:00,ZBYN 080900Z AUTO 20004KT 6SM 09/07 RMK SLP189 T00880072 54000 IEM_DS3505
ZBYN,1984-04-08 12:00,ZBYN 081200Z AUTO 36002KT 7SM 08/06 RMK SLP205 T00820056 52012 IEM_DS3505
ZBYN,1984-04-08 15:00,ZBYN 081500Z AUTO 00000KT 1SM 04/04 RMK SLP231 T00440039 52017 IEM_DS3505
ZBYN,1984-04-08 18:00,ZBYN 081800Z AUTO 34004KT 4SM 04/03 RMK SLP226 T00390028 40104//// 57005 IEM_DS3505
ZBYN,1984-04-08 21:00,ZBYN 082100Z AUTO 36004KT 5SM 03/02 RMK SLP230 T00270022 52002 IEM_DS3505
ZBYN,1984-04-09 00:00,ZBYN 090000Z AUTO 34002KT 4SM 05/02 RMK SLP242 T00510021 52015 IEM_DS3505
ZBYN,1984-04-09 03:00,ZBYN 090300Z AUTO 00000KT 4SM 11/06 RMK SLP238 T01130064 54000 IEM_DS3505
ZBYN,1984-04-09 06:00,ZBYN 090600Z AUTO 36004KT 6SM 15/04 RMK SLP199 T01520043 4////0016 57030 IEM_DS3505
ZBYN,1984-04-09 09:00,ZBYN 090900Z AUTO 25004KT 7SM 16/03 RMK SLP175 T01640026 57022 IEM_DS3505
ZBYN,1984-04-09 12:00,ZBYN 091200Z AUTO 11004KT 7SM 11/04 RMK SLP191 T01130043 52010 IEM_DS3505
ZBYN,1984-04-09 15:00,ZBYN 091500Z AUTO 00000KT 7SM 08/04 RMK SLP197 T00820043 52010 IEM_DS3505
ZBYN,1984-04-09 18:00,ZBYN 091800Z AUTO 18006KT 7SM 06/03 RMK SLP188 T00650034 40172//// 57005 IEM_DS3505
ZBYN,1984-04-09 21:00,ZBYN 092100Z AUTO 00000KT 7SM 07/03 RMK SLP191 T00660032 52005 IEM_DS3505
ZBYN,1984-04-10 00:00,ZBYN 100000Z AUTO 14004KT 6SM 08/03 RMK SLP214 T00820030 52015 IEM_DS3505
ZBYN,1984-04-10 03:00,ZBYN 100300Z AUTO 18004KT 7SM 13/04 RMK SLP209 T01300043 57002 IEM_DS3505
ZBYN,1984-04-10 05:00,ZBYN 100500Z AUTO 19006KT 6SM 16/05 A3012 RMK T01600050 IEM_DS3505
ZBYN,1984-04-10 06:00,ZBYN 100600Z AUTO 18004KT 7SM 16/04 A3006 RMK SLP180 T01620043 4////0059 57023 IEM_DS3505
ZBYN,1984-04-10 07:00,ZBYN 100700Z AUTO 19006KT 6SM 18/04 A3006 RMK T01800040 IEM_DS3505
ZBYN,1984-04-10 08:00,ZBYN 100800Z AUTO 19004KT 6SM 19/03 A3003 RMK T01900030 IEM_DS3505
ZBYN,1984-04-10 09:00,ZBYN 100900Z AUTO 20004KT 12SM 19/04 A3003 RMK SLP159 T01860036 57016 IEM_DS3505
ZBYN,1984-04-10 12:00,ZBYN 101200Z AUTO 00000KT 9SM 14/05 RMK SLP174 T01390054 52006 IEM_DS3505
ZBYN,1984-04-10 15:00,ZBYN 101500Z AUTO 00000KT 9SM 09/06 RMK SLP185 T00920064 52013 IEM_DS3505
ZBYN,1984-04-10 18:00,ZBYN 101800Z AUTO 36004KT 11SM 08/04 RMK SLP186 T00750043 40189//// 52001 IEM_DS3505
ZBYN,1984-04-10 21:00,ZBYN 102100Z AUTO 36002KT 6SM 08/02 RMK SLP173 T00760021 57009 IEM_DS3505
ZBYN,1984-04-11 00:00,ZBYN 110000Z AUTO 36004KT 5SM 08/02 RMK SLP187 T00830021 52007 IEM_DS3505
ZBYN,1984-04-11 03:00,ZBYN 110300Z AUTO 34008KT 6SM 16/02 RMK SLP187 T01580022 52004 IEM_DS3505
ZBYN,1984-04-11 06:00,ZBYN 110600Z AUTO 27002KT 9SM 20/00 RMK SLP147 T01960004 4////0054 57033 IEM_DS3505
ZBYN,1984-04-11 09:00,ZBYN 110900Z AUTO 18006KT 12SM 18/M03 RMK SLP139 T01771028 57010 IEM_DS3505
ZBYN,1984-04-11 12:00,ZBYN 111200Z AUTO 22002KT 14SM 13/04 RMK SLP169 T01330041 52021 IEM_DS3505
ZBYN,1984-04-11 15:00,ZBYN 111500Z AUTO 02004KT 12SM 12/04 RMK SLP160 T01190036 52002 IEM_DS3505
ZBYN,1984-04-11 18:00,ZBYN 111800Z AUTO 16004KT 12SM 09/04 RMK SLP134 T00890039 40203//// 57023 IEM_DS3505
ZBYN,1984-04-11 21:00,ZBYN 112100Z AUTO 14006KT 9SM 06/03 RMK SLP131 T00610026 57010 IEM_DS3505
ZBYN,1984-04-12 00:00,ZBYN 120000Z AUTO 20004KT 5SM 08/04 RMK SLP144 T00760037 52009 IEM_DS3505
ZBYN,1984-04-12 03:00,ZBYN 120300Z AUTO 18008KT 7SM 14/06 RMK SLP141 T01360056 52003 IEM_DS3505
ZBYN,1984-04-12 06:00,ZBYN 120600Z AUTO 18010KT 16SM 17/05 RMK SLP115 T01720053 4////0054 57023 IEM_DS3505
ZBYN,1984-04-12 09:00,ZBYN 120900Z AUTO 32004KT 16SM 20/04 RMK SLP103 T01970039 57011 IEM_DS3505
ZBYN,1984-04-12 12:00,ZBYN 121200Z AUTO 00000KT 17SM 16/M05 RMK T01581046 52021 IEM_DS3505
ZBYN,1984-04-12 15:00,ZBYN 121500Z AUTO 00000KT 12SM 12/06 RMK SLP150 T01190059 52021 IEM_DS3505
ZBYN,1984-04-12 18:00,ZBYN 121800Z AUTO 20004KT 4SM 08/06 RMK SLP144 T00770057 40201//// 57006 IEM_DS3505
ZBYN,1984-04-12 21:00,ZBYN 122100Z AUTO 00000KT 2SM 04/03 RMK SLP153 T00390034 52005 IEM_DS3505
ZBYN,1984-04-13 00:00,ZBYN 130000Z AUTO 00000KT 5SM 08/05 RMK SLP153 T00850049 52002 IEM_DS3505
ZBYN,1984-04-13 03:00,ZBYN 130300Z AUTO 14004KT 5SM 17/06 RMK SLP134 T01660060 57011 IEM_DS3505
ZBYN,1984-04-13 06:00,ZBYN 130600Z AUTO 18012KT 9SM 22/04 RMK SLP093 T02190036 4////0039 57036 IEM_DS3505
ZBYN,1984-04-13 09:00,ZBYN 130900Z AUTO 16006KT 8SM 24/04 RMK SLP064 T02400044 57028 IEM_DS3505
ZBYN,1984-04-13 12:00,ZBYN 131200Z AUTO 22004KT 9SM 20/04 RMK SLP067 T02030039 52003 IEM_DS3505
ZBYN,1984-04-13 15:00,ZBYN 131500Z AUTO 11006KT 9SM 15/05 RMK SLP075 T01480046 52011 IEM_DS3505
ZBYN,1984-04-13 18:00,ZBYN 131800Z AUTO 11006KT 9SM 13/06 RMK SLP062 T01340057 40241//// 57005 IEM_DS3505
ZBYN,1984-04-13 21:00,ZBYN 132100Z AUTO 00000KT 6SM 10/06 A2980 RMK SLP065 T01000056 52001 IEM_DS3505
ZBYN,1984-04-13 22:00,ZBYN 132200Z AUTO 11006KT 6SM 10/05 A2980 RMK T01000050 IEM_DS3505
ZBYN,1984-04-13 23:00,ZBYN 132300Z AUTO 08004KT 6SM 10/06 A2980 RMK T01000060 IEM_DS3505
ZBYN,1984-04-14 00:00,ZBYN 140000Z AUTO 00000KT 5SM 12/06 A2980 RMK SLP078 T01210057 52009 IEM_DS3505
ZBYN,1984-04-14 01:00,ZBYN 140100Z AUTO 16004KT 6SM 17/08 A2980 RMK T01700080 IEM_DS3505
ZBYN,1984-04-14 02:00,ZBYN 140200Z AUTO 17006KT 6SM 19/08 A2985 RMK T01900080 IEM_DS3505
ZBYN,1984-04-14 03:00,ZBYN 140300Z AUTO 00000KT 6SM 20/09 A2980 RMK SLP074 T02020086 54000 IEM_DS3505
ZBYN,1984-04-14 04:00,ZBYN 140400Z AUTO 20006KT 7SM 23/08 A2980 RMK T02300080 IEM_DS3505
ZBYN,1984-04-14 05:00,ZBYN 140500Z AUTO 21010KT 7SM 28/07 A2977 RMK T02800070 IEM_DS3505
ZBYN,1984-04-14 06:00,ZBYN 140600Z AUTO 18008KT 7SM 26/08 A2977 RMK SLP035 T02610081 4////0024 57029 IEM_DS3505
ZBYN,1984-04-14 07:00,ZBYN 140700Z AUTO 13008KT 7SM 28/07 A2974 RMK T02800070 IEM_DS3505
ZBYN,1984-04-14 09:00,ZBYN 140900Z AUTO 20006KT 16SM 28/08 RMK SLP010 T02780075 57026 IEM_DS3505
ZBYN,1984-04-14 12:00,ZBYN 141200Z AUTO 07014KT 7SM 21/07 RMK SLP040 T02070071 52021 IEM_DS3505
ZBYN,1984-04-14 15:00,ZBYN 141500Z AUTO 27004KT 6SM 18/08 RMK SLP047 T01750080 52014 IEM_DS3505
ZBYN,1984-04-14 18:00,ZBYN 141800Z AUTO 32002KT 7SM 15/07 RMK SLP042 T01490072 40279//// 57001 IEM_DS3505
ZBYN,1984-04-14 21:00,ZBYN 142100Z AUTO 00000KT 4SM 12/06 RMK SLP037 T01240060 57006 IEM_DS3505
ZBYN,1984-04-15 00:00,ZBYN 150000Z AUTO 00000KT 4SM 12/08 RMK SLP065 T01230075 52016 IEM_DS3505
ZBYN,1984-04-15 03:00,ZBYN 150300Z AUTO 34002KT 7SM 20/10 RMK SLP055 T01960100 57004 IEM_DS3505
ZBYN,1984-04-15 06:00,ZBYN 150600Z AUTO 18006KT 7SM 26/10 RMK SLP020 T02560098 4////0096 57026 IEM_DS3505
ZBYN,1984-04-15 09:00,ZBYN 150900Z AUTO 20002KT 6SM 26/11 RMK SLP000 T02630111 51021 IEM_DS3505
ZBYN,1984-04-15 12:00,ZBYN 151200Z AUTO 07008KT 7SM 22/ RMK SLP030 52020 IEM_DS3505
ZBYN,1984-04-15 15:00,ZBYN 151500Z AUTO 07006KT 9SM 18/12 RMK SLP053 T01830121 52027 IEM_DS3505
ZBYN,1984-04-15 18:00,ZBYN 151800Z AUTO 34004KT 6SM 15/11 RMK SLP059 T01530108 40279//// 52009 IEM_DS3505
ZBYN,1984-04-15 21:00,ZBYN 152100Z AUTO 25004KT 5SM 14/10 RMK SLP062 T01350103 52002 IEM_DS3505
ZBYN,1984-04-16 00:00,ZBYN 160000Z AUTO 27004KT 4SM 15/10 RMK SLP090 T01460096 52021 IEM_DS3505
ZBYN,1984-04-16 03:00,ZBYN 160300Z AUTO 34008KT 5SM 16/09 RMK SLP119 T01590091 52023 IEM_DS3505
ZBYN,1984-04-16 06:00,ZBYN 160600Z AUTO 02010KT 5SM 17/08 RMK SLP120 T01660080 4////0128 57003 IEM_DS3505
ZBYN,1984-04-16 09:00,ZBYN 160900Z AUTO 34008KT 4SM 14/05 RMK SLP147 T01440053 52019 IEM_DS3505
ZBYN,1984-04-16 12:00,ZBYN 161200Z AUTO 14004KT 9SM 11/09 RMK 60008 SLP174 T01080086 52021 IEM_DS3505
ZBYN,1984-04-16 15:00,ZBYN 161500Z AUTO 11004KT 9SM 10/08 RMK SLP182 T00950082 52007 IEM_DS3505
ZBYN,1984-04-16 18:00,ZBYN 161800Z AUTO 29002KT 4SM 08/08 RMK SLP185 T00790075 40279//// 52002 IEM_DS3505
ZBYN,1984-04-16 21:00,ZBYN 162100Z AUTO 00000KT 4SM 07/06 RMK SLP199 T00700064 52007 IEM_DS3505
ZBYN,1984-04-17 00:00,ZBYN 170000Z AUTO 34004KT 1/8SM 07/07 RMK SLP217 T00690067 52012 IEM_DS3505
ZBYN,1984-04-17 03:00,ZBYN 170300Z AUTO 34006KT 4SM 14/M04 RMK SLP207 T01441045 54000 IEM_DS3505
ZBYN,1984-04-17 06:00,ZBYN 170600Z AUTO 36002KT 6SM 17/M01 RMK SLP187 T01681010 4////0049 57017 IEM_DS3505
ZBYN,1984-04-17 09:00,ZBYN 170900Z AUTO 00000KT 7SM 16/01 RMK T01560013 52001 IEM_DS3505
ZBYN,1984-04-17 12:00,ZBYN 171200Z AUTO 18008KT 7SM 12/03 RMK SLP206 T01230034 52008 IEM_DS3505
ZBYN,1984-04-17 15:00,ZBYN 171500Z AUTO 22006KT 12SM 11/03 RMK SLP205 T01110028 52008 IEM_DS3505
ZBYN,1984-04-17 18:00,ZBYN 171800Z AUTO 20004KT 16SM 09/03 RMK SLP198 T00940026 40172//// 57005 IEM_DS3505
ZBYN,1984-04-17 21:00,ZBYN 172100Z AUTO 14004KT 16SM 06/03 RMK SLP202 T00580028 57004 IEM_DS3505
ZBYN,1984-04-18 00:00,ZBYN 180000Z AUTO 00000KT 6SM 08/04 RMK SLP207 T00750037 52003 IEM_DS3505
ZBYN,1984-04-18 03:00,ZBYN 180300Z AUTO 20006KT 12SM 13/03 RMK SLP185 T01340028 57013 IEM_DS3505
ZBYN,1984-04-18 06:00,ZBYN 180600Z AUTO 14004KT 16SM 15/02 RMK SLP149 T01500016 4////0046 57034 IEM_DS3505
ZBYN,1984-04-18 09:00,ZBYN 180900Z AUTO 18006KT 16SM 17/02 RMK SLP115 T01710021 57033 IEM_DS3505
ZBYN,1984-04-18 12:00,ZBYN 181200Z AUTO 16006KT 16SM 13/05 RMK SLP121 T01290049 52002 IEM_DS3505
ZBYN,1984-04-18 15:00,ZBYN 181500Z AUTO 14004KT 16SM 10/04 RMK SLP126 T01040041 52010 IEM_DS3505
ZBYN,1984-04-18 18:00,ZBYN 181800Z AUTO 14004KT 9SM 08/04 RMK SLP125 T00830041 40178//// 57002 IEM_DS3505
ZBYN,1984-04-18 21:00,ZBYN 182100Z AUTO 00000KT 6SM 06/04 RMK SLP117 T00590043 57010 IEM_DS3505
ZBYN,1984-04-19 00:00,ZBYN 190000Z AUTO 00000KT 9SM 11/04 RMK SLP116 T01070044 52002 IEM_DS3505
ZBYN,1984-04-19 03:00,ZBYN 190300Z AUTO 18004KT 9SM 16/05 RMK SLP095 T01560048 57015 IEM_DS3505
ZBYN,1984-04-19 06:00,ZBYN 190600Z AUTO 22006KT 12SM 17/04 RMK SLP068 T01690044 4////0050 57025 IEM_DS3505
ZBYN,1984-04-19 09:00,ZBYN 190900Z AUTO 27006KT 9SM 17/05 RMK SLP053 T01720046 57018 IEM_DS3505
ZBYN,1984-04-19 12:00,ZBYN 191200Z AUTO 16002KT 9SM 15/08 RMK SLP070 T01480078 52019 IEM_DS3505
ZBYN,1984-04-19 15:00,ZBYN 191500Z AUTO 16004KT 6SM 11/09 RMK SLP092 T01090093 52002 IEM_DS3505
ZBYN,1984-04-19 18:00,ZBYN 191800Z AUTO 16004KT 6SM 11/10 RMK 60008 SLP086 T01070095 40176//// 57004 IEM_DS3505
ZBYN,1984-04-19 21:00,ZBYN 192100Z AUTO 00000KT 6SM 10/08 RMK 70008 SLP101 T01040083 52013 IEM_DS3505
ZBYN,1984-04-20 00:00,ZBYN 200000Z AUTO 32008KT 1SM 11/M04 RMK SLP141 T01091039 52035 IEM_DS3505
ZBYN,1984-04-20 03:00,ZBYN 200300Z AUTO 02006KT 4SM 13/M05 RMK SLP162 T01291052 52016 IEM_DS3505
ZBYN,1984-04-20 05:00,ZBYN 200500Z AUTO 20008KT 5SM 16/M02 RMK SLP149 T01551015 57001 IEM_DS3505
ZBYN,1984-04-20 06:00,ZBYN 200600Z AUTO 32006KT 4SM 16/M06 RMK SLP150 T01561065 4////0102 57008 IEM_DS3505
ZBYN,1984-04-20 09:00,ZBYN 200900Z AUTO 20008KT 5SM 16/M02 RMK SLP149 T01551015 57001 IEM_DS3505
ZBYN,1984-04-20 12:00,ZBYN 201200Z AUTO 22004KT 4SM 13/01 RMK SLP176 T01280010 52022 IEM_DS3505
ZBYN,1984-04-20 15:00,ZBYN 201500Z AUTO 36004KT 8SM 13/M13 RMK SLP206 T01341130 52030 IEM_DS3505
ZBYN,1984-04-20 18:00,ZBYN 201800Z AUTO 32006KT 9SM 12/M12 RMK SLP212 T01191124 40168//// 52007 IEM_DS3505
ZBYN,1984-04-20 21:00,ZBYN 202100Z AUTO 29004KT 7SM 08/M08 A3021 RMK SLP221 T00831076 52004 IEM_DS3505
ZBYN,1984-04-20 22:00,ZBYN 202200Z AUTO 16004KT 5SM 04/M03 A3024 RMK T00401030 IEM_DS3505
ZBYN,1984-04-20 23:00,ZBYN 202300Z AUTO 08006KT 5SM 04/M04 A3024 RMK T00401040 IEM_DS3505
ZBYN,1984-04-21 00:00,ZBYN 210000Z AUTO 11004KT 5SM 08/M02 A3030 RMK SLP252 T00761020 52022 IEM_DS3505
ZBYN,1984-04-21 01:00,ZBYN 210100Z AUTO 20006KT 4SM 10/M04 A3024 RMK T01001040 IEM_DS3505
ZBYN,1984-04-21 02:00,ZBYN 210200Z AUTO 20006KT 5SM 13/M05 A3030 RMK T01301050 IEM_DS3505
ZBYN,1984-04-21 03:00,ZBYN 210300Z AUTO 20008KT 6SM 15/M05 A3030 RMK SLP231 T01511048 57006 IEM_DS3505
ZBYN,1984-04-21 04:00,ZBYN 210400Z AUTO 12012KT 7SM 16/M10 A3024 RMK T01601100 IEM_DS3505
ZBYN,1984-04-21 06:00,ZBYN 210600Z AUTO 18006KT 6SM 19/M02 RMK SLP206 T01891018 4////0043 57020 IEM_DS3505
ZBYN,1984-04-21 09:00,ZBYN 210900Z AUTO 20008KT 7SM 19/M05 RMK SLP191 T01931052 57019 IEM_DS3505
ZBYN,1984-04-21 12:00,ZBYN 211200Z AUTO 00000KT 6SM 16/M05 RMK SLP199 T01601052 52003 IEM_DS3505
ZBYN,1984-04-21 15:00,ZBYN 211500Z AUTO 11008KT 6SM 09/M03 RMK SLP211 T00891026 52012 IEM_DS3505
ZBYN,1984-04-21 18:00,ZBYN 211800Z AUTO 00000KT 6SM 06/M03 RMK SLP216 T00651031 40197//// 52006 IEM_DS3505
ZBYN,1984-04-21 21:00,ZBYN 212100Z AUTO 00000KT 7SM 03/M01 RMK SLP229 T00301013 52017 IEM_DS3505
ZBYN,1984-04-22 00:00,ZBYN 220000Z AUTO 00000KT 7SM 08/M00 RMK SLP232 T00851003 52007 IEM_DS3505
ZBYN,1984-04-22 03:00,ZBYN 220300Z AUTO 16006KT 6SM 16/M03 RMK SLP231 T01641026 54000 IEM_DS3505
ZBYN,1984-04-22 06:00,ZBYN 220600Z AUTO 16004KT 9SM 12/M08 RMK SLP198 T01211076 57027 IEM_DS3505
ZBYN,1984-04-22 09:00,ZBYN 220900Z AUTO 20008KT 16SM 22/M05 RMK SLP174 T02201052 57026 IEM_DS3505
ZBYN,1984-04-22 12:00,ZBYN 221200Z AUTO 00000KT 16SM 16/00 RMK SLP176 T01630004 52003 IEM_DS3505
ZBYN,1984-04-22 15:00,ZBYN 221500Z AUTO 11004KT 16SM 12/01 RMK SLP188 T01180008 52016 IEM_DS3505
ZBYN,1984-04-22 18:00,ZBYN 221800Z AUTO 14004KT 16SM 10/M03 RMK SLP186 T01051026 40226//// 52004 IEM_DS3505
ZBYN,1984-04-22 21:00,ZBYN 222100Z AUTO 00000KT 12SM 06/01 RMK SLP189 T00650006 57002 IEM_DS3505
ZBYN,1984-04-23 00:00,ZBYN 230000Z AUTO 34004KT 6SM 11/M01 RMK SLP198 T01071013 52005 IEM_DS3505
ZBYN,1984-04-23 03:00,ZBYN 230300Z AUTO 16006KT 6SM 19/01 RMK SLP174 T01930008 57015 IEM_DS3505
ZBYN,1984-04-23 06:00,ZBYN 230600Z AUTO 20004KT 9SM 20/M03 RMK SLP154 T02051026 4////0059 57019 IEM_DS3505
ZBYN,1984-04-23 09:00,ZBYN 230900Z AUTO 20006KT 11SM 22/02 RMK SLP122 T02170018 57034 IEM_DS3505
ZBYN,1984-04-23 12:00,ZBYN 231200Z AUTO 20006KT 9SM 17/07 RMK SLP125 T01700068 52003 IEM_DS3505
ZBYN,1984-04-23 15:00,ZBYN 231500Z AUTO 14006KT 9SM 14/06 RMK SLP124 T01450060 52008 IEM_DS3505
ZBYN,1984-04-23 18:00,ZBYN 231800Z AUTO 14006KT 8SM 14/06 RMK SLP126 T01360060 40228//// 52002 IEM_DS3505
ZBYN,1984-04-23 21:00,ZBYN 232100Z AUTO 14004KT 7SM 12/07 RMK SLP119 T01170071 57007 IEM_DS3505
ZBYN,1984-04-24 00:00,ZBYN 240000Z AUTO 11004KT 5SM 12/08 RMK SLP130 T01230082 52003 IEM_DS3505
ZBYN,1984-04-24 03:00,ZBYN 240300Z AUTO 22004KT 6SM 17/07 A2988 RMK SLP103 T01710067 57021 IEM_DS3505
ZBYN,1984-04-24 05:00,ZBYN 240500Z AUTO 20016KT 6SM 20/07 A2985 RMK T02000070 IEM_DS3505
ZBYN,1984-04-24 06:00,ZBYN 240600Z AUTO 18004KT 9SM 19/08 A2980 RMK SLP066 T01910080 4////0115 57031 IEM_DS3505
ZBYN,1984-04-24 07:00,ZBYN 240700Z AUTO 19008KT 6SM 22/ A2977 RMK IEM_DS3505
ZBYN,1984-04-24 08:00,ZBYN 240800Z AUTO 18012KT 6SM 22/08 A2974 RMK T02200080 IEM_DS3505
ZBYN,1984-04-24 09:00,ZBYN 240900Z AUTO 18010KT 9SM 22/09 A2974 RMK SLP034 T02210089 57028 IEM_DS3505
ZBYN,1984-04-24 10:00,ZBYN 241000Z AUTO 20004KT 6SM 22/09 A2974 RMK T02200090 IEM_DS3505
ZBYN,1984-04-24 12:00,ZBYN 241200Z AUTO 16006KT 9SM 18/04 RMK SLP052 T01780044 52010 IEM_DS3505
ZBYN,1984-04-24 15:00,ZBYN 241500Z AUTO 09008KT 7SM 15/08 RMK SLP054 T01480075 52005 IEM_DS3505
ZBYN,1984-04-24 18:00,ZBYN 241800Z AUTO 00000KT 6SM 12/09 RMK SLP053 T01240089 40223//// 57002 IEM_DS3505
ZBYN,1984-04-24 21:00,ZBYN 242100Z AUTO 00000KT 5SM 10/08 RMK SLP052 T01010075 52001 IEM_DS3505
ZBYN,1984-04-25 00:00,ZBYN 250000Z AUTO 00000KT 5SM 13/09 RMK SLP062 T01330091 52007 IEM_DS3505
ZBYN,1984-04-25 03:00,ZBYN 250300Z AUTO 18006KT 6SM 20/11 RMK SLP059 T01950107 52004 IEM_DS3505
ZBYN,1984-04-25 06:00,ZBYN 250600Z AUTO 18008KT 6SM 25/10 RMK SLP025 T02460100 4////0089 57030 IEM_DS3505
ZBYN,1984-04-25 09:00,ZBYN 250900Z AUTO 18006KT 6SM 27/07 RMK SLP002 T02690068 57021 IEM_DS3505
ZBYN,1984-04-25 12:00,ZBYN 251200Z AUTO 14008KT 6SM 19/09 RMK SLP024 T01870086 52014 IEM_DS3505
ZBYN,1984-04-25 15:00,ZBYN 251500Z AUTO 34004KT 6SM 15/09 RMK SLP060 T01490089 52036 IEM_DS3505
ZBYN,1984-04-25 18:00,ZBYN 251800Z AUTO 32006KT 7SM 13/08 RMK SLP066 T01310085 40272//// 52011 IEM_DS3505
ZBYN,1984-04-25 21:00,ZBYN 252100Z AUTO 32006KT 7SM 13/09 RMK SLP081 T01270088 52015 IEM_DS3505
ZBYN,1984-04-26 00:00,ZBYN 260000Z AUTO 07004KT 4SM 14/09 RMK SLP120 T01380091 52027 IEM_DS3505
ZBYN,1984-04-26 03:00,ZBYN 260300Z AUTO 32008KT 1/2SM 16/M12 RMK SLP146 T01601124 52020 IEM_DS3505
ZBYN,1984-04-26 06:00,ZBYN 260600Z AUTO 34008KT 1SM 15/M05 RMK SLP159 T01531048 4////0126 52009 IEM_DS3505
ZBYN,1984-04-26 09:00,ZBYN 260900Z AUTO 34008KT 1SM 25/M05 RMK T02531048 52009 IEM_DS3505
ZBYN,1984-04-26 12:00,ZBYN 261200Z AUTO 34008KT 4SM 10/M07 RMK SLP211 T00981072 52016 IEM_DS3505
ZBYN,1984-04-26 15:00,ZBYN 261500Z AUTO 34006KT 9SM 07/M09 RMK SLP233 T00721087 52020 IEM_DS3505
ZBYN,1984-04-26 18:00,ZBYN 261800Z AUTO 36004KT 11SM 04/M08 RMK SLP236 T00441079 40162//// 57003 IEM_DS3505
ZBYN,1984-04-26 21:00,ZBYN 262100Z AUTO 34004KT 7SM 02/M08 RMK SLP257 T00241079 52010 IEM_DS3505
ZBYN,1984-04-27 00:00,ZBYN 270000Z AUTO 36004KT 9SM 05/M10 RMK SLP259 T00471096 52003 IEM_DS3505
ZBYN,1984-04-27 03:00,ZBYN 270300Z AUTO 22004KT 9SM 10/M09 RMK T00971092 57017 IEM_DS3505
ZBYN,1984-04-27 06:00,ZBYN 270600Z AUTO 09004KT 11SM 13/M10 RMK SLP197 T01301100 4////0019 57035 IEM_DS3505
ZBYN,1984-04-27 09:00,ZBYN 270900Z AUTO 20004KT 11SM 14/M10 RMK SLP175 T01391105 57022 IEM_DS3505
ZBYN,1984-04-27 12:00,ZBYN 271200Z AUTO 00000KT 9SM 10/M02 RMK SLP170 T00951020 57008 IEM_DS3505
ZBYN,1984-04-27 15:00,ZBYN 271500Z AUTO 00000KT 9SM 06/M04 RMK SLP183 T00591039 52014 IEM_DS3505
ZBYN,1984-04-27 18:00,ZBYN 271800Z AUTO 00000KT 9SM 03/M02 RMK SLP167 T00271023 40140//// 57014 IEM_DS3505
ZBYN,1984-04-27 21:00,ZBYN 272100Z AUTO 09002KT 7SM M01/M02 A3003 RMK SLP172 T10091023 52003 IEM_DS3505
ZBYN,1984-04-27 22:00,ZBYN 272200Z AUTO 10006KT 7SM 02/M04 A3003 RMK T00201040 IEM_DS3505
ZBYN,1984-04-28 00:00,ZBYN 280000Z AUTO 00000KT 6SM 07/M02 A3003 RMK SLP176 T00671023 52006 IEM_DS3505
ZBYN,1984-04-28 01:00,ZBYN 280100Z AUTO 18002KT 7SM 09/M02 A3003 RMK T00901020 IEM_DS3505
ZBYN,1984-04-28 03:00,ZBYN 280300Z AUTO 16008KT 4SM 13/M01 A3003 RMK SLP158 T01321008 57012 IEM_DS3505
ZBYN,1984-04-28 04:00,ZBYN 280400Z AUTO 18012KT 7SM 15/M01 A2997 RMK T01501010 IEM_DS3505
ZBYN,1984-04-28 05:00,ZBYN 280500Z AUTO 21012KT 7SM 18/M03 A2994 RMK T01801030 IEM_DS3505
ZBYN,1984-04-28 06:00,ZBYN 280600Z AUTO 20008KT 6SM 18/M03 RMK SLP121 T01851031 4////0008 57031 IEM_DS3505
ZBYN,1984-04-28 09:00,ZBYN 280900Z AUTO 32010KT 7SM 21/ RMK SLP096 57021 IEM_DS3505
ZBYN,1984-04-28 12:00,ZBYN 281200Z AUTO 27004KT 6SM 16/M05 RMK SLP102 T01621049 52006 IEM_DS3505
ZBYN,1984-04-28 15:00,ZBYN 281500Z AUTO 04002KT 7SM 10/M02 RMK SLP114 T01021020 52012 IEM_DS3505
ZBYN,1984-04-28 18:00,ZBYN 281800Z AUTO 17006KT 6SM 07/M01 RMK SLP119 T00711009 52008 IEM_DS3505
ZBYN,1984-04-28 21:00,ZBYN 282100Z AUTO 00000KT 6SM 04/M01 RMK SLP130 T00441008 52010 IEM_DS3505
ZBYN,1984-04-29 00:00,ZBYN 290000Z AUTO 32004KT 6SM 11/M06 RMK SLP142 T01091065 52014 IEM_DS3505
ZBYN,1984-04-29 03:00,ZBYN 290300Z AUTO 04004KT 11SM 18/M12 RMK SLP140 T01841124 54000 IEM_DS3505
ZBYN,1984-04-29 06:00,ZBYN 290600Z AUTO 18006KT 14SM 21/M11 RMK SLP118 T02071114 4////0026 57021 IEM_DS3505
ZBYN,1984-04-29 09:00,ZBYN 290900Z AUTO 20008KT 16SM 21/M11 RMK SLP094 T02081114 57026 IEM_DS3505
ZBYN,1984-04-29 12:00,ZBYN 291200Z AUTO 00000KT 17SM 16/M02 RMK SLP096 T01591018 52004 IEM_DS3505
ZBYN,1984-04-29 15:00,ZBYN 291500Z AUTO 00000KT 16SM 09/M00 RMK SLP108 T00941001 52013 IEM_DS3505
ZBYN,1984-04-29 18:00,ZBYN 291800Z AUTO 00000KT 12SM 05/M03 RMK SLP113 T00541028 40216//// 52001 IEM_DS3505
ZBYN,1984-04-29 21:00,ZBYN 292100Z AUTO 34006KT 6SM 07/M05 RMK SLP118 T00731048 52009 IEM_DS3505
ZBYN,1984-04-30 00:00,ZBYN 300000Z AUTO 34006KT 9SM 11/M09 RMK SLP146 T01141092 52024 IEM_DS3505
ZBYN,1984-04-30 03:00,ZBYN 300300Z AUTO 34006KT 9SM 20/M12 RMK SLP142 T01951124 57002 IEM_DS3505
ZBYN,1984-04-30 06:00,ZBYN 300600Z AUTO 34010KT 12SM 24/M15 RMK SLP121 T02351147 4////0033 57019 IEM_DS3505
ZBYN,1984-04-30 09:00,ZBYN 300900Z AUTO 34006KT 9SM 23/M14 RMK SLP103 T02301141 57014 IEM_DS3505
ZBYN,1984-04-30 12:00,ZBYN 301200Z AUTO 07006KT 10SM 18/M11 RMK SLP128 T01821114 52022 IEM_DS3505
ZBYN,1984-04-30 15:00,ZBYN 301500Z AUTO 02004KT 7SM 14/M01 RMK SLP156 T01391010 52031 IEM_DS3505
ZBYN,1984-04-30 18:00,ZBYN 301800Z AUTO 24002KT 9SM 11/M03 RMK SLP173 T01071031 52017 IEM_DS3505
ZBYN,1984-04-30 21:00,ZBYN 302100Z AUTO 34004KT 6SM 09/M02 RMK SLP181 T00871023 52004 IEM_DS3505
ZBYN,1984-05-01 00:00,ZBYN 010000Z AUTO 34008KT 6SM 10/M08 RMK SLP203 T00971079 52014 IEM_DS3505
ZBYN,1984-05-01 02:00,ZBYN 010200Z AUTO 06010KT 6SM 13/M10 A3015 RMK T01301100 IEM_DS3505
ZBYN,1984-05-01 03:00,ZBYN 010300Z AUTO 18006KT 7SM 15/M03 A3015 RMK SLP190 T01531031 57009 IEM_DS3505
ZBYN,1984-05-01 04:00,ZBYN 010400Z AUTO 09016KT 6SM 16/M08 A3015 RMK T01601080 IEM_DS3505
ZBYN,1984-05-01 05:00,ZBYN 010500Z AUTO 06016KT 6SM 16/M06 A3012 RMK T01601060 IEM_DS3505
ZBYN,1984-05-01 06:00,ZBYN 010600Z AUTO 11008KT 9SM 18/M06 A3006 RMK SLP161 T01811061 4////0077 57027 IEM_DS3505
ZBYN,1984-05-01 07:00,ZBYN 010700Z AUTO 08016KT 6SM 19/M06 A3003 RMK T01901060 IEM_DS3505
ZBYN,1984-05-01 08:00,ZBYN 010800Z AUTO 06016KT 6SM 19/M05 A3003 RMK T01901050 IEM_DS3505
ZBYN,1984-05-01 09:00,ZBYN 010900Z AUTO 09010KT 7SM 18/M08 RMK SLP141 T01841076 57021 IEM_DS3505
ZBYN,1984-05-01 12:00,ZBYN 011200Z AUTO 07008KT 6SM 15/M08 RMK SLP168 T01501076 52021 IEM_DS3505
ZBYN,1984-05-01 15:00,ZBYN 011500Z AUTO 04002KT 6SM 13/M06 RMK SLP180 T01321061 52017 IEM_DS3505
ZBYN,1984-05-01 18:00,ZBYN 011800Z AUTO 00000KT 6SM 10/02 RMK 60001 SLP184 T01030022 40197//// 52003 IEM_DS3505
ZBYN,1984-05-01 21:00,ZBYN 012100Z AUTO 32004KT 5SM 06/04 RMK 70016 SLP200 T00650044 52009 IEM_DS3505
ZBYN,1984-05-02 00:00,ZBYN 020000Z AUTO 32002KT 4SM 06/05 RMK 60031 SLP228 T00590049 52019 IEM_DS3505
ZBYN,1984-05-02 03:00,ZBYN 020300Z AUTO 34004KT 4SM 07/04 RMK SLP235 T00670039 52005 IEM_DS3505
ZBYN,1984-05-02 06:00,ZBYN 020600Z AUTO 00000KT 9SM 07/04 RMK 60016 SLP227 T00700037 4////0056 57011 IEM_DS3505
ZBYN,1984-05-02 09:00,ZBYN 020900Z AUTO 00000KT 6SM 09/05 RMK SLP217 T00880048 57012 IEM_DS3505
ZBYN,1984-05-02 12:00,ZBYN 021200Z AUTO 00000KT 6SM 08/05 RMK SLP223 T00850054 52003 IEM_DS3505
ZBYN,1984-05-02 15:00,ZBYN 021500Z AUTO 00000KT 7SM 08/06 RMK SLP225 T00790059 52003 IEM_DS3505
ZBYN,1984-05-02 18:00,ZBYN 021800Z AUTO 00000KT 4SM 06/05 RMK SLP214 T00550051 40103//// 57013 IEM_DS3505
ZBYN,1984-05-02 21:00,ZBYN 022100Z AUTO 00000KT 4SM 06/05 RMK SLP205 T00550051 57006 IEM_DS3505
ZBYN,1984-05-03 00:00,ZBYN 030000Z AUTO 11004KT 5SM 07/06 RMK SLP210 T00730057 52007 IEM_DS3505
ZBYN,1984-05-03 03:00,ZBYN 030300Z AUTO 18006KT 6SM 12/07 RMK SLP200 T01210071 57003 IEM_DS3505
ZBYN,1984-05-03 06:00,ZBYN 030600Z AUTO 16004KT 6SM 17/08 RMK SLP168 T01690083 4////0052 57025 IEM_DS3505
ZBYN,1984-05-03 09:00,ZBYN 030900Z AUTO 20006KT 9SM 20/12 RMK SLP144 T01950120 57018 IEM_DS3505
ZBYN,1984-05-03 12:00,ZBYN 031200Z AUTO 00000KT 9SM 16/11 RMK SLP152 T01550108 52003 IEM_DS3505
ZBYN,1984-05-03 15:00,ZBYN 031500Z AUTO 11004KT 9SM 13/06 RMK SLP162 T01340056 52014 IEM_DS3505
ZBYN,1984-05-03 18:00,ZBYN 031800Z AUTO 00000KT 6SM 11/06 RMK SLP160 T01090059 40194//// 52002 IEM_DS3505
ZBYN,1984-05-03 21:00,ZBYN 032100Z AUTO 00000KT 4SM 08/06 RMK SLP164 T00780060 52003 IEM_DS3505
ZBYN,1984-05-04 00:00,ZBYN 040000Z AUTO 14002KT 4SM 11/08 RMK SLP176 T01060075 52009 IEM_DS3505
ZBYN,1984-05-04 03:00,ZBYN 040300Z AUTO 16006KT 6SM 17/10 RMK SLP170 T01660105 52001 IEM_DS3505
ZBYN,1984-05-04 06:00,ZBYN 040600Z AUTO 14006KT 11SM 21/04 RMK SLP151 T02110044 4////0069 57015 IEM_DS3505
ZBYN,1984-05-04 09:00,ZBYN 040900Z AUTO 11006KT 9SM 22/09 RMK SLP143 T02200088 57011 IEM_DS3505
ZBYN,1984-05-04 12:00,ZBYN 041200Z AUTO 11006KT 7SM 18/05 RMK SLP161 T01840051 52016 IEM_DS3505
ZBYN,1984-05-04 15:00,ZBYN 041500Z AUTO 00000KT 7SM 16/06 RMK SLP175 T01550056 52017 IEM_DS3505
ZBYN,1984-05-04 18:00,ZBYN 041800Z AUTO 00000KT 6SM 11/06 RMK SLP174 T01120060 40225//// 57001 IEM_DS3505
ZBYN,1984-05-04 20:00,ZBYN 042000Z AUTO 08004KT 7SM 10/05 A3006 RMK T01000050 IEM_DS3505
ZBYN,1984-05-04 21:00,ZBYN 042100Z AUTO 00000KT 6SM 08/06 A3006 RMK SLP170 T00820057 57006 IEM_DS3505
ZBYN,1984-05-04 22:00,ZBYN 042200Z AUTO 10006KT 4SM 08/07 A3006 RMK T00800070 IEM_DS3505
ZBYN,1984-05-04 23:00,ZBYN 042300Z AUTO 11004KT 5SM 10/07 A3012 RMK T01000070 IEM_DS3505
ZBYN,1984-05-05 00:00,ZBYN 050000Z AUTO 16004KT 5SM 11/08 A3012 RMK SLP173 T01140081 52002 IEM_DS3505
ZBYN,1984-05-05 01:00,ZBYN 050100Z AUTO 13002KT 5SM 14/09 A3012 RMK T01400090 IEM_DS3505
ZBYN,1984-05-05 02:00,ZBYN 050200Z AUTO 17006KT 5SM 16/11 A3006 RMK T01600110 IEM_DS3505
ZBYN,1984-05-05 03:00,ZBYN 050300Z AUTO 16010KT 6SM 18/12 A3006 RMK SLP153 T01830116 57012 IEM_DS3505
ZBYN,1984-05-05 04:00,ZBYN 050400Z AUTO 20010KT 6SM 20/11 A3003 RMK T02000110 IEM_DS3505
ZBYN,1984-05-05 05:00,ZBYN 050500Z AUTO 18012KT 6SM 21/12 A2997 RMK T02100120 IEM_DS3505
ZBYN,1984-05-05 06:00,ZBYN 050600Z AUTO 18010KT 7SM 22/12 RMK SLP117 T02250124 4////0074 57033 IEM_DS3505
ZBYN,1984-05-05 09:00,ZBYN 050900Z AUTO 20008KT 17SM 22/06 RMK SLP110 T02170065 57013 IEM_DS3505
ZBYN,1984-05-05 12:00,ZBYN 051200Z AUTO 18004KT 11SM 19/06 RMK SLP115 T01920057 52006 IEM_DS3505
ZBYN,1984-05-05 15:00,ZBYN 051500Z AUTO 32002KT 9SM 14/07 RMK SLP138 T01370074 52022 IEM_DS3505
ZBYN,1984-05-05 18:00,ZBYN 051800Z AUTO 25002KT 7SM 10/07 RMK SLP136 T01010074 40233//// 54000 IEM_DS3505
ZBYN,1984-05-05 21:00,ZBYN 052100Z AUTO 32002KT 5SM 08/06 RMK SLP145 T00760062 52003 IEM_DS3505
ZBYN,1984-05-06 00:00,ZBYN 060000Z AUTO 6SM 13/08 RMK SLP150 T01310078 52009 IEM_DS3505
ZBYN,1984-05-06 03:00,ZBYN 060300Z AUTO 20002KT 6SM 21/06 RMK SLP133 T02140065 57011 IEM_DS3505
ZBYN,1984-05-06 06:00,ZBYN 060600Z AUTO 20004KT 12SM 26/07 RMK SLP102 T02560072 4////0070 57027 IEM_DS3505
ZBYN,1984-05-06 09:00,ZBYN 060900Z AUTO 18004KT 12SM 26/05 RMK SLP081 T02620053 57022 IEM_DS3505
ZBYN,1984-05-06 12:00,ZBYN 061200Z AUTO 16004KT 9SM 20/09 RMK SLP080 T02000086 57002 IEM_DS3505
ZBYN,1984-05-06 15:00,ZBYN 061500Z AUTO 11006KT 9SM 16/08 RMK SLP078 T01580080 52004 IEM_DS3505
ZBYN,1984-05-06 18:00,ZBYN 061800Z AUTO 16004KT 9SM 14/10 RMK SLP070 T01450096 40265//// 57004 IEM_DS3505
ZBYN,1984-05-06 21:00,ZBYN 062100Z AUTO 00000KT 6SM 11/10 RMK SLP075 T01080096 54000 IEM_DS3505
ZBYN,1984-05-07 00:00,ZBYN 070000Z AUTO 00000KT 9SM 16/11 RMK SLP087 T01590111 52010 IEM_DS3505
ZBYN,1984-05-07 03:00,ZBYN 070300Z AUTO 20004KT 6SM 22/09 RMK SLP072 T02220093 57011 IEM_DS3505
ZBYN,1984-05-07 06:00,ZBYN 070600Z AUTO 14004KT 9SM 29/09 RMK SLP023 T02900088 4////0095 57037 IEM_DS3505
ZBYN,1984-05-07 09:00,ZBYN 070900Z AUTO 22008KT 12SM 29/04 RMK SLP008 T02920036 57018 IEM_DS3505
ZBYN,1984-05-07 12:00,ZBYN 071200Z AUTO 22006KT 12SM 24/05 RMK SLP021 T02440048 52012 IEM_DS3505
ZBYN,1984-05-07 15:00,ZBYN 071500Z AUTO 16002KT 12SM 20/04 RMK SLP029 T02030043 52011 IEM_DS3505
ZBYN,1984-05-07 18:00,ZBYN 071800Z AUTO 11008KT 12SM 16/06 RMK SLP025 T01630060 40299//// 54000 IEM_DS3505
ZBYN,1984-05-07 21:00,ZBYN 072100Z AUTO 29004KT 9SM 12/06 RMK SLP048 T01250059 52016 IEM_DS3505
ZBYN,1984-05-08 00:00,ZBYN 080000Z AUTO 00000KT 5SM 17/10 RMK SLP065 T01700096 52015 IEM_DS3505
ZBYN,1984-05-08 03:00,ZBYN 080300Z AUTO 14004KT 6SM 25/08 A2980 RMK SLP058 T02460075 57002 IEM_DS3505
ZBYN,1984-05-08 04:00,ZBYN 080400Z AUTO 09004KT 7SM 27/07 A2980 RMK T02700070 IEM_DS3505
ZBYN,1984-05-08 05:00,ZBYN 080500Z AUTO 17006KT 7SM 28/06 A2980 RMK T02800060 IEM_DS3505
ZBYN,1984-05-08 06:00,ZBYN 080600Z AUTO 20002KT 12SM 30/07 A2977 RMK SLP033 T02980067 4////0116 57021 IEM_DS3505
ZBYN,1984-05-08 07:00,ZBYN 080700Z AUTO 00000KT 7SM 31/06 A2977 RMK T03100060 IEM_DS3505
ZBYN,1984-05-08 08:00,ZBYN 080800Z AUTO 00000KT 7SM 31/06 A2977 RMK T03100060 IEM_DS3505
ZBYN,1984-05-08 09:00,ZBYN 080900Z AUTO 20004KT 12SM 30/06 A2974 RMK SLP028 T03020062 57009 IEM_DS3505
ZBYN,1984-05-08 10:00,ZBYN 081000Z AUTO 09016KT 7SM 30/05 A2974 RMK T03000050 IEM_DS3505
ZBYN,1984-05-08 12:00,ZBYN 081200Z AUTO 09014KT 9SM 25/07 RMK SLP042 T02540071 52012 IEM_DS3505
ZBYN,1984-05-08 15:00,ZBYN 081500Z AUTO 09008KT 7SM 21/13 RMK SLP065 T02130128 52026 IEM_DS3505
ZBYN,1984-05-08 18:00,ZBYN 081800Z AUTO 34002KT 6SM 17/13 RMK SLP071 T01730130 40311//// 52007 IEM_DS3505
ZBYN,1984-05-08 21:00,ZBYN 082100Z AUTO 00000KT 6SM 16/12 RMK SLP076 T01570121 52003 IEM_DS3505
ZBYN,1984-05-09 00:00,ZBYN 090000Z AUTO 34004KT 5SM 18/11 RMK SLP091 T01790112 52010 IEM_DS3505
ZBYN,1984-05-09 03:00,ZBYN 090300Z AUTO 16004KT 6SM 25/10 RMK SLP085 T02530104 57001 IEM_DS3505
ZBYN,1984-05-09 06:00,ZBYN 090600Z AUTO 20006KT 12SM 28/09 RMK SLP062 T02850088 4////0142 57022 IEM_DS3505
ZBYN,1984-05-09 09:00,ZBYN 090900Z AUTO 20006KT 16SM 28/10 RMK SLP046 T02820100 57017 IEM_DS3505
ZBYN,1984-05-09 12:00,ZBYN 091200Z AUTO 11004KT 12SM 24/09 RMK SLP057 T02400089 52007 IEM_DS3505
ZBYN,1984-05-09 15:00,ZBYN 091500Z AUTO 00000KT 9SM 19/10 RMK SLP070 T01880101 52015 IEM_DS3505
ZBYN,1984-05-09 18:00,ZBYN 091800Z AUTO 00000KT 9SM 18/10 RMK SLP066 T01770096 40292//// 57001 IEM_DS3505
ZBYN,1984-05-09 21:00,ZBYN 092100Z AUTO 00000KT 6SM 13/10 RMK SLP072 T01330104 57001 IEM_DS3505
ZBYN,1984-05-10 00:00,ZBYN 100000Z AUTO 34002KT 4SM 19/11 RMK SLP071 T01900110 52001 IEM_DS3505
ZBYN,1984-05-10 03:00,ZBYN 100300Z AUTO 18006KT 6SM 26/14 RMK SLP064 T02560143 57005 IEM_DS3505
ZBYN,1984-05-10 06:00,ZBYN 100600Z AUTO 20004KT 9SM 28/16 RMK SLP026 T02780157 4////0127 57032 IEM_DS3505
ZBYN,1984-05-10 09:00,ZBYN 100900Z AUTO 00000KT 9SM 27/18 RMK SLP016 T02720178 57016 IEM_DS3505
ZBYN,1984-05-10 12:00,ZBYN 101200Z AUTO 07006KT 6SM 24/14 RMK SLP007 T02410136 57004 IEM_DS3505
ZBYN,1984-05-10 15:00,ZBYN 101500Z AUTO 02012KT 4SM 20/10 RMK SLP047 T01960104 52039 IEM_DS3505
ZBYN,1984-05-10 18:00,ZBYN 101800Z AUTO 27006KT 4SM 15/15 RMK 60114 SLP049 T01480146 40284//// 57002 IEM_DS3505
ZBYN,1984-05-10 21:00,ZBYN 102100Z AUTO 32004KT 4SM 15/15 RMK SLP063 T01540152 52013 IEM_DS3505
ZBYN,1984-05-11 00:00,ZBYN 110000Z AUTO 00000KT 9SM 16/15 RMK 60012 SLP097 T01630146 52027 IEM_DS3505
ZBYN,1984-05-11 03:00,ZBYN 110300Z AUTO 00000KT 11SM 18/14 RMK SLP101 T01800138 54000 IEM_DS3505
ZBYN,1984-05-11 06:00,ZBYN 110600Z AUTO 09014KT 12SM 16/12 RMK SLP111 T01620124 4////0136 57001 IEM_DS3505
ZBYN,1984-05-11 09:00,ZBYN 110900Z AUTO 09008KT 9SM 16/11 RMK SLP108 T01620114 57002 IEM_DS3505
ZBYN,1984-05-11 12:00,ZBYN 111200Z AUTO 09008KT 6SM 14/09 RMK SLP131 T01410088 52019 IEM_DS3505
ZBYN,1984-05-11 15:00,ZBYN 111500Z AUTO 00000KT 12SM 13/09 RMK SLP142 T01290091 52011 IEM_DS3505
ZBYN,1984-05-11 18:00,ZBYN 111800Z AUTO 00000KT 6SM 12/09 RMK SLP148 T01220086 40194//// 52002 IEM_DS3505
ZBYN,1984-05-11 21:00,ZBYN 112100Z AUTO 00000KT 9SM 13/09 A2997 RMK SLP137 T01310091 57008 IEM_DS3505
ZBYN,1984-05-11 22:00,ZBYN 112200Z AUTO 00000KT 6SM 11/09 A2997 RMK T01100090 IEM_DS3505
ZBYN,1984-05-11 23:00,ZBYN 112300Z AUTO 00000KT 6SM 12/09 A3003 RMK T01200090 IEM_DS3505
ZBYN,1984-05-12 00:00,ZBYN 120000Z AUTO 04004KT 9SM 15/09 A3003 RMK SLP156 T01470089 52017 IEM_DS3505
ZBYN,1984-05-12 01:00,ZBYN 120100Z AUTO 03002KT 6SM 16/07 A3003 RMK T01600070 IEM_DS3505
ZBYN,1984-05-12 02:00,ZBYN 120200Z AUTO 36004KT 6SM 17/02 A3003 RMK T01700020 IEM_DS3505
ZBYN,1984-05-12 03:00,ZBYN 120300Z AUTO 22002KT 9SM 18/06 A3003 RMK SLP155 T01800056 52002 IEM_DS3505
ZBYN,1984-05-12 04:00,ZBYN 120400Z AUTO 11004KT 6SM 18/08 A3003 RMK T01800080 IEM_DS3505
ZBYN,1984-05-12 06:00,ZBYN 120600Z AUTO 36002KT 19SM 21/10 RMK SLP126 T02080095 4////0120 57024 IEM_DS3505
ZBYN,1984-05-12 09:00,ZBYN 120900Z AUTO 20004KT 16SM 21/10 RMK SLP101 T02120098 57021 IEM_DS3505
ZBYN,1984-05-12 15:00,ZBYN 121500Z AUTO 00000KT 6SM 15/13 RMK SLP120 T01490131 52007 IEM_DS3505
ZBYN,1984-05-12 18:00,ZBYN 121800Z AUTO 00000KT 6SM 13/12 RMK SLP117 T01260115 40222//// 57002 IEM_DS3505
ZBYN,1984-05-12 21:00,ZBYN 122100Z AUTO 34006KT 6SM 13/10 RMK SLP116 T01290096 54000 IEM_DS3505
ZBYN,1984-05-13 00:00,ZBYN 130000Z AUTO 34006KT 7SM 16/09 RMK SLP126 T01570089 52009 IEM_DS3505
ZBYN,1984-05-13 03:00,ZBYN 130300Z AUTO 07002KT 11SM 21/04 RMK SLP115 T02130041 57007 IEM_DS3505
ZBYN,1984-05-13 06:00,ZBYN 130600Z AUTO 20008KT 7SM 23/06 RMK SLP095 T02320060 4////0115 57018 IEM_DS3505
ZBYN,1984-05-13 09:00,ZBYN 130900Z AUTO 16006KT 12SM 24/09 RMK SLP068 T02380091 57024 IEM_DS3505
ZBYN,1984-05-13 12:00,ZBYN 131200Z AUTO 09002KT 9SM 20/10 RMK SLP073 T01980103 52003 IEM_DS3505
ZBYN,1984-05-13 15:00,ZBYN 131500Z AUTO 32006KT 9SM 19/03 RMK SLP091 T01870034 52022 IEM_DS3505
ZBYN,1984-05-13 18:00,ZBYN 131800Z AUTO 00000KT 9SM 16/06 RMK SLP084 T01600062 40239//// 57007 IEM_DS3505
ZBYN,1984-05-13 21:00,ZBYN 132100Z AUTO 34004KT 9SM 15/07 RMK T01530069 52002 IEM_DS3505
ZBYN,1984-05-14 00:00,ZBYN 140000Z AUTO 36010KT 9SM 16/04 RMK SLP114 T01650044 52021 IEM_DS3505
ZBYN,1984-05-14 03:00,ZBYN 140300Z AUTO 36014KT 16SM 15/06 RMK SLP134 T01500060 52019 IEM_DS3505
ZBYN,1984-05-14 06:00,ZBYN 140600Z AUTO 36010KT 16SM 17/05 RMK SLP124 T01710048 4////0141 57010 IEM_DS3505
ZBYN,1984-05-14 09:00,ZBYN 140900Z AUTO 32006KT 16SM 15/08 RMK SLP131 T01470082 52001 IEM_DS3505
ZBYN,1984-05-14 12:00,ZBYN 141200Z AUTO 00000KT 9SM 13/08 RMK 60001 SLP153 T01310085 52020 IEM_DS3505
ZBYN,1984-05-14 15:00,ZBYN 141500Z AUTO 09004KT 6SM 12/10 RMK SLP164 T01250101 52007 IEM_DS3505
ZBYN,1984-05-14 18:00,ZBYN 141800Z AUTO 00000KT 4SM 12/11 RMK 60002 SLP160 T01180106 40179//// 57001 IEM_DS3505
ZBYN,1984-05-14 21:00,ZBYN 142100Z AUTO 32002KT 4SM 11/10 RMK SLP161 T01110095 57004 IEM_DS3505
ZBYN,1984-05-15 00:00,ZBYN 150000Z AUTO 34002KT 7SM 13/09 RMK 60001 SLP170 T01320089 52008 IEM_DS3505
ZBYN,1984-05-15 03:00,ZBYN 150300Z AUTO 18008KT 6SM 18/10 RMK SLP158 T01800101 57003 IEM_DS3505
ZBYN,1984-05-15 04:00,ZBYN 150400Z AUTO 00000KT 7SM 19/09 A3006 RMK T01900090 IEM_DS3505
ZBYN,1984-05-15 06:00,ZBYN 150600Z AUTO 20006KT 16SM 20/09 RMK SLP139 T02030086 4////0111 57016 IEM_DS3505
ZBYN,1984-05-15 07:00,ZBYN 150700Z AUTO 20010KT 7SM 20/08 A2997 RMK T02000080 IEM_DS3505
ZBYN,1984-05-15 08:00,ZBYN 150800Z AUTO 21010KT 7SM 20/08 A2997 RMK T02000080 IEM_DS3505
ZBYN,1984-05-15 09:00,ZBYN 150900Z AUTO 20006KT 16SM 20/08 A2997 RMK SLP133 T01970082 57008 IEM_DS3505
ZBYN,1984-05-15 12:00,ZBYN 151200Z AUTO 16002KT 12SM 16/08 RMK SLP148 T01610082 52012 IEM_DS3505
ZBYN,1984-05-15 15:00,ZBYN 151500Z AUTO 11006KT 6SM 14/08 RMK SLP162 T01350078 52016 IEM_DS3505
ZBYN,1984-05-15 18:00,ZBYN 151800Z AUTO 00000KT 6SM 11/07 RMK SLP162 T01110074 40206//// 54000 IEM_DS3505
ZBYN,1984-05-15 21:00,ZBYN 152100Z AUTO 00000KT 6SM 08/07 RMK SLP166 T00810074 57002 IEM_DS3505
ZBYN,1984-05-16 00:00,ZBYN 160000Z AUTO 00000KT 4SM 13/09 RMK SLP168 T01340093 52005 IEM_DS3505
ZBYN,1984-05-16 03:00,ZBYN 160300Z AUTO 16004KT 5SM 18/10 RMK SLP177 T01820100 52012 IEM_DS3505
ZBYN,1984-05-16 06:00,ZBYN 160600Z AUTO 22006KT 19SM 20/06 RMK SLP158 T01970062 4////0077 57019 IEM_DS3505
ZBYN,1984-05-16 09:00,ZBYN 160900Z AUTO 22006KT 16SM 19/08 RMK SLP160 T01920075 57004 IEM_DS3505
ZBYN,1984-05-16 12:00,ZBYN 161200Z AUTO 00000KT 19SM 16/09 RMK SLP151 T01650090 57004 IEM_DS3505
ZBYN,1984-05-16 15:00,ZBYN 161500Z AUTO 00000KT 16SM 13/08 RMK SLP159 T01330078 52009 IEM_DS3505
ZBYN,1984-05-16 18:00,ZBYN 161800Z AUTO 00000KT 9SM 12/08 RMK SLP150 T01200081 40202//// 57007 IEM_DS3505
ZBYN,1984-05-16 21:00,ZBYN 162100Z AUTO 14004KT 7SM 12/06 RMK SLP145 T01240065 57006 IEM_DS3505
ZBYN,1984-05-17 00:00,ZBYN 170000Z AUTO 14004KT 7SM 15/09 RMK SLP146 T01470090 52001 IEM_DS3505
ZBYN,1984-05-17 03:00,ZBYN 170300Z AUTO 22006KT 9SM 18/10 RMK SLP141 T01810103 57005 IEM_DS3505
ZBYN,1984-05-17 06:00,ZBYN 170600Z AUTO 22010KT 9SM 21/10 RMK SLP108 T02070103 4////0115 57027 IEM_DS3505
ZBYN,1984-05-17 09:00,ZBYN 170900Z AUTO 18006KT 9SM 22/12 RMK SLP084 T02220120 57019 IEM_DS3505
ZBYN,1984-05-17 12:00,ZBYN 171200Z AUTO 32004KT 6SM 19/12 RMK SLP102 T01880120 IEM_DS3505
ZBYN,1984-05-17 15:00,ZBYN 171500Z AUTO 02008KT 6SM 17/11 RMK SLP122 T01730111 52021 IEM_DS3505
ZBYN,1984-05-17 18:00,ZBYN 171800Z AUTO 34006KT 6SM 15/09 RMK SLP124 T01500090 40227//// 52003 IEM_DS3505
ZBYN,1984-05-17 21:00,ZBYN 172100Z AUTO 00000KT 4SM 11/09 RMK SLP138 T01060090 52008 IEM_DS3505
ZBYN,1984-05-18 00:00,ZBYN 180000Z AUTO 36004KT 5SM 16/09 RMK SLP143 T01620093 52007 IEM_DS3505
ZBYN,1984-05-18 03:00,ZBYN 180300Z AUTO 36004KT 7SM 22/08 RMK SLP127 T02200077 57008 IEM_DS3505
ZBYN,1984-05-18 06:00,ZBYN 180600Z AUTO 36004KT 19SM 25/06 RMK SLP104 T02540060 57020 IEM_DS3505
ZBYN,1984-05-18 09:00,ZBYN 180900Z AUTO 20004KT 16SM 26/05 RMK SLP091 T02570051 57017 IEM_DS3505
ZBYN,1984-05-18 12:00,ZBYN 181200Z AUTO 07004KT 9SM 20/12 RMK SLP091 T02040123 52001 IEM_DS3505
ZBYN,1984-05-18 15:00,ZBYN 181500Z AUTO 36004KT 9SM 19/06 RMK SLP099 T01860064 52013 IEM_DS3505
ZBYN,1984-05-18 18:00,ZBYN 181800Z AUTO 04002KT 9SM 15/05 RMK SLP107 T01520046 40265//// 52007 IEM_DS3505
ZBYN,1984-05-18 21:00,ZBYN 182100Z AUTO 00000KT 9SM 13/05 RMK SLP117 T01340051 52004 IEM_DS3505
ZBYN,1984-05-19 00:00,ZBYN 190000Z AUTO 00000KT 5SM 17/09 RMK SLP128 T01730089 52011 IEM_DS3505
ZBYN,1984-05-19 03:00,ZBYN 190300Z AUTO 16004KT 9SM 22/10 A2997 RMK SLP109 T02180104 57014 IEM_DS3505
ZBYN,1984-05-19 04:00,ZBYN 190400Z AUTO 21010KT 6SM 23/11 A2994 RMK T02300110 IEM_DS3505
ZBYN,1984-05-19 05:00,ZBYN 190500Z AUTO 17012KT 6SM 24/11 A2994 RMK T02400110 IEM_DS3505
ZBYN,1984-05-19 06:00,ZBYN 190600Z AUTO 18010KT 9SM 25/12 A2988 RMK SLP085 T02460117 4////0126 57002 IEM_DS3505
ZBYN,1984-05-19 07:00,ZBYN 190700Z AUTO 21008KT 6SM 26/11 A2985 RMK T02600110 IEM_DS3505
ZBYN,1984-05-19 08:00,ZBYN 190800Z AUTO 21010KT 7SM 26/12 A2980 RMK T02600120 IEM_DS3505
ZBYN,1984-05-19 09:00,ZBYN 190900Z AUTO 20006KT 12SM 25/13 A2980 RMK SLP061 T02530128 57024 IEM_DS3505
ZBYN,1984-05-19 12:00,ZBYN 191200Z AUTO 18004KT 12SM 22/09 RMK SLP078 T02220086 52010 IEM_DS3505
ZBYN,1984-05-19 15:00,ZBYN 191500Z AUTO 11004KT 6SM 19/12 RMK SLP091 T01930117 52021 IEM_DS3505
ZBYN,1984-05-19 18:00,ZBYN 191800Z AUTO 11004KT 6SM 17/10 RMK SLP082 T01710098 40255//// 57002 IEM_DS3505
ZBYN,1984-05-19 21:00,ZBYN 192100Z AUTO 11006KT 7SM 17/09 RMK SLP077 T01670088 57010 IEM_DS3505
ZBYN,1984-05-20 00:00,ZBYN 200000Z AUTO 16006KT 9SM 18/09 RMK SLP083 T01840094 52004 IEM_DS3505
ZBYN,1984-05-20 03:00,ZBYN 200300Z AUTO 18008KT 16SM 21/09 RMK SLP082 T02120091 57001 IEM_DS3505
ZBYN,1984-05-20 06:00,ZBYN 200600Z AUTO 14010KT 12SM 18/10 RMK 60002 SLP090 T01770098 4////0162 57001 IEM_DS3505
ZBYN,1984-05-20 09:00,ZBYN 200900Z AUTO 22002KT 16SM 15/10 RMK SLP101 T01520103 52006 IEM_DS3505
ZBYN,1984-05-20 12:00,ZBYN 201200Z AUTO 29004KT 6SM 14/12 RMK 60004 SLP115 T01440119 52014 IEM_DS3505
ZBYN,1984-05-20 15:00,ZBYN 201500Z AUTO 36004KT 6SM 14/11 RMK SLP113 T01440111 52022 IEM_DS3505
ZBYN,1984-05-20 18:00,ZBYN 201800Z AUTO 34002KT 6SM 14/11 RMK SLP132 T01430110 40221//// 52012 IEM_DS3505
ZBYN,1984-05-20 21:00,ZBYN 202100Z AUTO 00000KT 4SM 14/11 RMK SLP143 T01370111 52005 IEM_DS3505
ZBYN,1984-05-21 00:00,ZBYN 210000Z AUTO 00000KT 4SM 15/12 RMK SLP154 T01480121 52012 IEM_DS3505
ZBYN,1984-05-21 03:00,ZBYN 210300Z AUTO 00000KT 4SM 15/13 RMK SLP173 T01510128 52017 IEM_DS3505
ZBYN,1984-05-21 06:00,ZBYN 210600Z AUTO 00000KT 4SM 15/12 RMK 60012 SLP184 T01520121 4////0126 52010 IEM_DS3505
ZBYN,1984-05-21 09:00,ZBYN 210900Z AUTO 00000KT 6SM 16/10 RMK SLP168 T01650104 57013 IEM_DS3505
ZBYN,1984-05-21 12:00,ZBYN 211200Z AUTO 00000KT 6SM 14/12 RMK 60001 SLP180 T01410117 52009 IEM_DS3505
ZBYN,1984-05-21 15:00,ZBYN 211500Z AUTO 00000KT 6SM 12/10 RMK SLP191 T01150105 52006 IEM_DS3505
ZBYN,1984-05-21 18:00,ZBYN 211800Z AUTO 00000KT 3/8SM 10/09 RMK SLP197 T00980094 40169//// 52003 IEM_DS3505
ZBYN,1984-05-21 21:00,ZBYN 212100Z AUTO 00000KT 1 1/4SM 09/09 RMK SLP196 T00920088 52001 IEM_DS3505
ZBYN,1984-05-22 00:00,ZBYN 220000Z AUTO 32004KT 4SM 13/11 RMK SLP200 T01270108 52004 IEM_DS3505
ZBYN,1984-05-22 03:00,ZBYN 220300Z AUTO 00000KT 4SM 19/11 A3015 RMK SLP195 T01860110 52001 IEM_DS3505
ZBYN,1984-05-22 04:00,ZBYN 220400Z AUTO 00000KT 6SM 19/11 A3015 RMK T01900110 IEM_DS3505
ZBYN,1984-05-22 06:00,ZBYN 220600Z AUTO 00000KT 6SM 20/11 A3012 RMK SLP176 T02000107 4////0082 57017 IEM_DS3505
ZBYN,1984-05-22 07:00,ZBYN 220700Z AUTO 00000KT 5SM 20/12 A3012 RMK T02000120 IEM_DS3505
ZBYN,1984-05-22 08:00,ZBYN 220800Z AUTO 19006KT 7SM 20/10 A3012 RMK T02000100 IEM_DS3505
ZBYN,1984-05-22 09:00,ZBYN 220900Z AUTO 20010KT 6SM 18/ A3006 RMK SLP168 57011 IEM_DS3505
ZBYN,1984-05-22 12:00,ZBYN 221200Z AUTO 00000KT 5SM 15/13 RMK 60000 SLP186 T01460132 52016 IEM_DS3505
ZBYN,1984-05-22 15:00,ZBYN 221500Z AUTO 00000KT 8SM 13/12 RMK SLP173 T01320121 57005 IEM_DS3505
ZBYN,1984-05-22 18:00,ZBYN 221800Z AUTO 00000KT 5SM 12/12 RMK 60000 SLP166 T01230120 40210//// 57006 IEM_DS3505
ZBYN,1984-05-22 21:00,ZBYN 222100Z AUTO 00000KT 1 1/4SM 11/11 RMK SLP168 T01080106 57002 IEM_DS3505
ZBYN,1984-05-23 00:00,ZBYN 230000Z AUTO 00000KT 6SM 15/13 RMK T01510126 52001 IEM_DS3505
ZBYN,1984-05-23 03:00,ZBYN 230300Z AUTO 22002KT 6SM 19/12 RMK SLP152 T01870115 57012 IEM_DS3505
ZBYN,1984-05-23 06:00,ZBYN 230600Z AUTO 20006KT 12SM 20/11 RMK SLP123 T02030111 4////0103 57020 IEM_DS3505
ZBYN,1984-05-23 09:00,ZBYN 230900Z AUTO 14008KT 9SM 16/13 RMK SLP139 T01570132 54000 IEM_DS3505
ZBYN,1984-05-23 12:00,ZBYN 231200Z AUTO 32002KT 6SM 15/14 RMK 60020 SLP148 T01460137 52013 IEM_DS3505
ZBYN,1984-05-23 15:00,ZBYN 231500Z AUTO 00000KT 4SM 14/14 RMK SLP147 T01450140 52004 IEM_DS3505
ZBYN,1984-05-23 18:00,ZBYN 231800Z AUTO 00000KT 4SM 14/14 RMK 60008 SLP138 T01410137 40215//// 57006 IEM_DS3505
ZBYN,1984-05-23 21:00,ZBYN 232100Z AUTO 00000KT 4SM 14/13 RMK SLP141 T01350129 57006 IEM_DS3505
ZBYN,1984-05-24 00:00,ZBYN 240000Z AUTO 00000KT 5SM 14/12 RMK 60004 SLP154 T01440122 52012 IEM_DS3505
ZBYN,1984-05-24 03:00,ZBYN 240300Z AUTO 16002KT 4SM 15/10 RMK SLP162 T01500096 52008 IEM_DS3505
ZBYN,1984-05-24 06:00,ZBYN 240600Z AUTO 00000KT 9SM 15/11 RMK 60002 SLP149 T01540107 4////0134 57012 IEM_DS3505
ZBYN,1984-05-24 09:00,ZBYN 240900Z AUTO 00000KT 9SM 16/12 RMK SLP141 T01610117 57008 IEM_DS3505
ZBYN,1984-05-24 12:00,ZBYN 241200Z AUTO 00000KT 9SM 15/12 RMK 60002 SLP143 T01520123 52003 IEM_DS3505
ZBYN,1984-05-24 15:00,ZBYN 241500Z AUTO 16002KT 9SM 14/12 RMK SLP155 T01390121 52010 IEM_DS3505
ZBYN,1984-05-24 18:00,ZBYN 241800Z AUTO 16002KT 9SM 13/12 RMK SLP148 T01280115 40169//// 57008 IEM_DS3505
ZBYN,1984-05-24 21:00,ZBYN 242100Z AUTO 00000KT 6SM 13/12 RMK SLP148 T01260119 52001 IEM_DS3505
ZBYN,1984-05-25 00:00,ZBYN 250000Z AUTO 00000KT 5SM 15/13 RMK SLP159 T01490127 52013 IEM_DS3505
ZBYN,1984-05-25 03:00,ZBYN 250300Z AUTO 18004KT 7SM 18/12 RMK SLP151 T01840115 57005 IEM_DS3505
ZBYN,1984-05-25 06:00,ZBYN 250600Z AUTO 16006KT 12SM 21/14 RMK SLP129 T02110141 4////0122 57017 IEM_DS3505
ZBYN,1984-05-25 09:00,ZBYN 250900Z AUTO 18004KT 16SM 21/13 RMK SLP104 T02140133 57023 IEM_DS3505
ZBYN,1984-05-25 12:00,ZBYN 251200Z AUTO 16002KT 11SM 14/12 RMK 60028 SLP143 T01410121 52027 IEM_DS3505
ZBYN,1984-05-25 15:00,ZBYN 251500Z AUTO 00000KT 7SM 14/12 RMK SLP141 T01410117 52005 IEM_DS3505
ZBYN,1984-05-25 18:00,ZBYN 251800Z AUTO 00000KT 7SM 13/11 RMK SLP135 T01310114 40216//// 57004 IEM_DS3505
ZBYN,1984-05-25 21:00,ZBYN 252100Z AUTO 00000KT 9SM 12/11 RMK SLP132 T01220113 57003 IEM_DS3505
ZBYN,1984-05-26 00:00,ZBYN 260000Z AUTO 00000KT 6SM 15/12 RMK SLP143 T01520120 52003 IEM_DS3505
ZBYN,1984-05-26 03:00,ZBYN 260300Z AUTO 18008KT 6SM 20/15 A2997 RMK SLP122 T02000146 57012 IEM_DS3505
ZBYN,1984-05-26 04:00,ZBYN 260400Z AUTO 20006KT 7SM 21/15 A2994 RMK T02100150 IEM_DS3505
ZBYN,1984-05-26 06:00,ZBYN 260600Z AUTO 16002KT 6SM 22/16 A2988 RMK SLP096 T02220163 4////0119 57021 IEM_DS3505
ZBYN,1984-05-26 07:00,ZBYN 260700Z AUTO 11006KT 7SM 21/17 A2985 RMK T02100170 IEM_DS3505
ZBYN,1984-05-26 08:00,ZBYN 260800Z AUTO 07006KT 7SM 23/17 A2985 RMK T02300170 IEM_DS3505
ZBYN,1984-05-26 09:00,ZBYN 260900Z AUTO 16006KT 16SM 24/13 A2980 RMK SLP067 T02420133 57026 IEM_DS3505
ZBYN,1984-05-26 12:00,ZBYN 261200Z AUTO 27004KT 11SM 21/04 RMK SLP077 T02110041 52009 IEM_DS3505
ZBYN,1984-05-26 15:00,ZBYN 261500Z AUTO 20006KT 9SM 17/10 RMK SLP084 T01740099 52008 IEM_DS3505
ZBYN,1984-05-26 18:00,ZBYN 261800Z AUTO 14004KT 9SM 14/09 RMK SLP083 T01400089 40245//// 57002 IEM_DS3505
ZBYN,1984-05-26 21:00,ZBYN 262100Z AUTO 00000KT 7SM 10/09 RMK SLP086 T01040090 52001 IEM_DS3505
ZBYN,1984-05-27 00:00,ZBYN 270000Z AUTO 14004KT 7SM 16/10 RMK SLP080 T01570098 57003 IEM_DS3505
ZBYN,1984-05-27 03:00,ZBYN 270300Z AUTO 16008KT 12SM 21/13 RMK SLP061 T02110127 57015 IEM_DS3505
ZBYN,1984-05-27 06:00,ZBYN 270600Z AUTO 22004KT 12SM 18/09 RMK 60031 SLP040 T01750091 4////0100 57030 IEM_DS3505
ZBYN,1984-05-27 09:00,ZBYN 270900Z AUTO 11008KT 12SM 20/11 RMK SLP031 T02010108 57009 IEM_DS3505
ZBYN,1984-05-27 12:00,ZBYN 271200Z AUTO 11006KT 16SM 18/10 RMK 60000 SLP029 T01820104 52003 IEM_DS3505
ZBYN,1984-05-27 15:00,ZBYN 271500Z AUTO 11004KT 12SM 15/11 RMK SLP050 T01490107 52023 IEM_DS3505
ZBYN,1984-05-27 18:00,ZBYN 271800Z AUTO 32004KT 4SM 13/10 RMK SLP057 T01280101 40220//// 57003 IEM_DS3505
ZBYN,1984-05-27 21:00,ZBYN 272100Z AUTO 04004KT 4SM 11/10 RMK SLP053 T01110098 57002 IEM_DS3505
ZBYN,1984-05-28 00:00,ZBYN 280000Z AUTO 14002KT 5SM 14/10 RMK SLP061 T01450105 52010 IEM_DS3505
ZBYN,1984-05-28 03:00,ZBYN 280300Z AUTO 00000KT 6SM 20/14 RMK SLP055 T02050138 57002 IEM_DS3505
ZBYN,1984-05-28 06:00,ZBYN 280600Z AUTO 14004KT 16SM 25/12 RMK SLP030 T02470125 4////0102 57020 IEM_DS3505
ZBYN,1984-05-28 09:00,ZBYN 280900Z AUTO 22002KT 16SM 25/07 RMK SLP017 T02530069 57014 IEM_DS3505
ZBYN,1984-05-28 12:00,ZBYN 281200Z AUTO 27004KT 12SM 20/15 RMK SLP034 T02030146 52014 IEM_DS3505
ZBYN,1984-05-28 15:00,ZBYN 281500Z AUTO 00000KT 12SM 16/14 RMK SLP045 T01570138 52012 IEM_DS3505
ZBYN,1984-05-28 18:00,ZBYN 281800Z AUTO 29004KT 12SM 16/06 RMK SLP038 T01550064 40260//// 57001 IEM_DS3505
ZBYN,1984-05-28 21:00,ZBYN 282100Z AUTO 14006KT 9SM 16/08 RMK SLP047 T01550078 52009 IEM_DS3505
ZBYN,1984-05-29 00:00,ZBYN 290000Z AUTO 32004KT 16SM 16/10 A2980 RMK SLP066 T01580104 52011 IEM_DS3505
ZBYN,1984-05-29 01:00,ZBYN 290100Z AUTO 21006KT 7SM 17/11 A2980 RMK T01700110 IEM_DS3505
ZBYN,1984-05-29 02:00,ZBYN 290200Z AUTO 14004KT 7SM 18/12 A2980 RMK T01800120 IEM_DS3505
ZBYN,1984-05-29 03:00,ZBYN 290300Z AUTO 18006KT 16SM 16/12 A2980 RMK SLP073 T01620124 54000 IEM_DS3505
ZBYN,1984-05-29 04:00,ZBYN 290400Z AUTO 20006KT 6SM 19/13 A2980 RMK T01900130 IEM_DS3505
ZBYN,1984-05-29 05:00,ZBYN 290500Z AUTO 17012KT 6SM 21/12 A2980 RMK T02100120 IEM_DS3505
ZBYN,1984-05-29 06:00,ZBYN 290600Z AUTO 14008KT 17SM 21/12 A2977 RMK SLP054 T02130120 4////0138 57010 IEM_DS3505
ZBYN,1984-05-29 07:00,ZBYN 290700Z AUTO 16010KT 7SM 22/12 A2977 RMK T02200120 IEM_DS3505
ZBYN,1984-05-29 08:00,ZBYN 290800Z AUTO 23010KT 7SM 23/12 A2974 RMK T02300120 IEM_DS3505
ZBYN,1984-05-29 09:00,ZBYN 290900Z AUTO 18004KT 16SM 21/13 RMK SLP042 T02100126 57011 IEM_DS3505
ZBYN,1984-05-29 12:00,ZBYN 291200Z AUTO 16002KT 16SM 19/15 RMK SLP060 T01890148 52014 IEM_DS3505
ZBYN,1984-05-29 15:00,ZBYN 291500Z AUTO 36002KT 12SM 15/13 RMK SLP083 T01530131 52015 IEM_DS3505
ZBYN,1984-05-29 18:00,ZBYN 291800Z AUTO 11002KT 12SM 13/09 RMK SLP093 T01330094 40223//// 52015 IEM_DS3505
ZBYN,1984-05-29 21:00,ZBYN 292100Z AUTO 00000KT 5SM 11/10 RMK SLP107 T01100100 52008 IEM_DS3505
ZBYN,1984-05-30 00:00,ZBYN 300000Z AUTO 00000KT 4SM 15/11 RMK SLP118 T01530108 52014 IEM_DS3505
ZBYN,1984-05-30 03:00,ZBYN 300300Z AUTO 18004KT 5SM 22/13 RMK SLP115 T02170130 52001 IEM_DS3505
ZBYN,1984-05-30 06:00,ZBYN 300600Z AUTO 20004KT 12SM 27/13 RMK SLP098 T02660126 4////0105 57011 IEM_DS3505
ZBYN,1984-05-30 09:00,ZBYN 300900Z AUTO 16004KT 12SM 27/06 RMK SLP089 T02720062 57011 IEM_DS3505
ZBYN,1984-05-30 12:00,ZBYN 301200Z AUTO 25002KT 12SM 22/16 RMK SLP117 T02190158 52024 IEM_DS3505
ZBYN,1984-05-30 15:00,ZBYN 301500Z AUTO 20002KT 12SM 17/12 RMK SLP110 T01710119 57004 IEM_DS3505
ZBYN,1984-05-30 18:00,ZBYN 301800Z AUTO 11004KT 12SM 15/08 RMK SLP105 T01540083 40278//// 54000 IEM_DS3505
ZBYN,1984-05-30 21:00,ZBYN 302100Z AUTO 00000KT 6SM 13/10 RMK SLP111 T01270100 52003 IEM_DS3505
ZBYN,1984-05-31 00:00,ZBYN 310000Z AUTO 14004KT 6SM 19/10 RMK SLP117 T01880096 52006 IEM_DS3505
ZBYN,1984-05-31 03:00,ZBYN 310300Z AUTO 20002KT 16SM 23/11 RMK SLP109 T02300111 57008 IEM_DS3505
ZBYN,1984-05-31 06:00,ZBYN 310600Z AUTO 16006KT 19SM 27/11 RMK SLP084 T02660108 4////0121 57020 IEM_DS3505
ZBYN,1984-05-31 09:00,ZBYN 310900Z AUTO 22006KT 19SM 27/11 RMK SLP069 T02730106 57017 IEM_DS3505
ZBYN,1984-05-31 12:00,ZBYN 311200Z AUTO 00000KT 19SM 23/14 RMK SLP071 T02320141 52005 IEM_DS3505
ZBYN,1984-05-31 15:00,ZBYN 311500Z AUTO 07002KT 16SM 19/13 RMK SLP082 T01930128 52010 IEM_DS3505
ZBYN,1984-05-31 18:00,ZBYN 311800Z AUTO 11004KT 12SM 17/11 RMK T01710106 40284//// 52002 IEM_DS3505
ZBYN,1984-05-31 21:00,ZBYN 312100Z AUTO 36004KT 9SM 14/11 RMK SLP084 T01390107 57001 IEM_DS3505
ZBYN,1984-06-01 00:00,ZBYN 010000Z AUTO 00000KT 6SM 19/11 RMK SLP086 T01900107 52003 IEM_DS3505
ZBYN,1984-06-01 03:00,ZBYN 010300Z AUTO 18002KT 6SM 24/12 RMK SLP071 T02390125 57012 IEM_DS3505
ZBYN,1984-06-01 06:00,ZBYN 010600Z AUTO 22004KT 12SM 26/15 RMK SLP043 T02590147 4////0135 57027 IEM_DS3505
ZBYN,1984-06-01 09:00,ZBYN 010900Z AUTO 22004KT 12SM 29/11 RMK SLP028 T02900108 57013 IEM_DS3505
ZBYN,1984-06-01 12:00,ZBYN 011200Z AUTO 32006KT 11SM 25/09 RMK SLP032 T02530086 52005 IEM_DS3505
ZBYN,1984-06-01 15:00,ZBYN 011500Z AUTO 20006KT 11SM 20/11 RMK SLP049 T01960113 52010 IEM_DS3505
ZBYN,1984-06-01 18:00,ZBYN 011800Z AUTO 00000KT 12SM 16/13 RMK SLP037 T01600126 40298//// 57008 IEM_DS3505
ZBYN,1984-06-01 21:00,ZBYN 012100Z AUTO 00000KT 7SM 14/12 A2974 RMK SLP030 T01370121 57005 IEM_DS3505
ZBYN,1984-06-01 23:00,ZBYN 012300Z AUTO 09002KT 7SM 17/11 A2977 RMK T01700110 IEM_DS3505
ZBYN,1984-06-02 00:00,ZBYN 020000Z AUTO 00000KT 12SM 18/12 RMK SLP036 T01800125 52006 IEM_DS3505
ZBYN,1984-06-02 01:00,ZBYN 020100Z AUTO 14004KT 7SM 21/12 A2977 RMK T02100120 IEM_DS3505
ZBYN,1984-06-02 02:00,ZBYN 020200Z AUTO 18006KT 6SM 23/12 A2974 RMK T02300120 IEM_DS3505
ZBYN,1984-06-02 03:00,ZBYN 020300Z AUTO 18006KT 19SM 24/13 A2974 RMK SLP022 T02400128 57013 IEM_DS3505
ZBYN,1984-06-02 04:00,ZBYN 020400Z AUTO 21012KT 6SM 26/13 A2968 RMK T02600130 IEM_DS3505
ZBYN,1984-06-02 05:00,ZBYN 020500Z AUTO 29012KT 6SM 27/14 A2965 RMK T02700140 IEM_DS3505
ZBYN,1984-06-02 06:00,ZBYN 020600Z AUTO 18008KT 16SM 27/15 A2965 RMK SLP994 T02660152 4////0134 57026 IEM_DS3505
ZBYN,1984-06-02 08:00,ZBYN 020800Z AUTO 18010KT 6SM 30/15 A2959 RMK T03000150 IEM_DS3505
ZBYN,1984-06-02 09:00,ZBYN 020900Z AUTO 16008KT 12SM 29/15 A2956 RMK SLP965 T02940150 57026 IEM_DS3505
ZBYN,1984-06-02 12:00,ZBYN 021200Z AUTO 27008KT 9SM 26/16 RMK SLP976 T02650155 52012 IEM_DS3505
ZBYN,1984-06-02 15:00,ZBYN 021500Z AUTO 08006KT 9SM 23/14 RMK SLP974 T02320135 52002 IEM_DS3505
ZBYN,1984-06-02 18:00,ZBYN 021800Z AUTO 16006KT 12SM 22/14 RMK SLP959 T02230138 40296//// 57012 IEM_DS3505
ZBYN,1984-06-02 21:00,ZBYN 022100Z AUTO 00000KT 6SM 19/15 RMK SLP959 T01860148 57001 IEM_DS3505
ZBYN,1984-06-03 00:00,ZBYN 030000Z AUTO 00000KT 5SM 21/16 RMK SLP979 T02060165 52018 IEM_DS3505
ZBYN,1984-06-03 01:00,ZBYN 030100Z AUTO 16006KT 19SM 25/12 RMK SLP987 T02480115 57029 IEM_DS3505
ZBYN,1984-06-03 03:00,ZBYN 030300Z AUTO 34014KT 6SM 25/08 RMK SLP994 T02540080 52015 IEM_DS3505
ZBYN,1984-06-03 06:00,ZBYN 030600Z AUTO 07004KT 17SM 22/12 RMK SLP017 T02180117 4////0183 52015 IEM_DS3505
ZBYN,1984-06-03 09:00,ZBYN 030900Z AUTO 16006KT 19SM 25/12 RMK SLP987 T02480115 57029 IEM_DS3505
ZBYN,1984-06-03 12:00,ZBYN 031200Z AUTO 00000KT 11SM 24/13 RMK SLP994 T02370133 52008 IEM_DS3505
ZBYN,1984-06-03 15:00,ZBYN 031500Z AUTO 00000KT 12SM 19/13 RMK SLP017 T01890131 52021 IEM_DS3505
ZBYN,1984-06-03 18:00,ZBYN 031800Z AUTO 34006KT 12SM 18/12 RMK SLP019 T01800116 40258//// 57004 IEM_DS3505
ZBYN,1984-06-03 21:00,ZBYN 032100Z AUTO 32006KT 9SM 17/11 RMK SLP008 T01700113 57007 IEM_DS3505
ZBYN,1984-06-04 00:00,ZBYN 040000Z AUTO 00000KT 6SM 18/14 RMK SLP018 T01830140 52009 IEM_DS3505
ZBYN,1984-06-04 03:00,ZBYN 040300Z AUTO 14004KT 6SM 23/15 RMK SLP017 T02290149 57001 IEM_DS3505
ZBYN,1984-06-04 06:00,ZBYN 040600Z AUTO 16006KT 7SM 25/15 RMK SLP995 T02540147 4////0159 57018 IEM_DS3505
ZBYN,1984-06-04 09:00,ZBYN 040900Z AUTO 34004KT 7SM 24/18 RMK SLP002 T02350180 52002 IEM_DS3505
ZBYN,1984-06-04 12:00,ZBYN 041200Z AUTO 20004KT 9SM 22/17 RMK 60001 SLP032 T02220174 52028 IEM_DS3505
ZBYN,1984-06-04 15:00,ZBYN 041500Z AUTO 16006KT 9SM 20/17 RMK SLP047 T01950168 52015 IEM_DS3505
ZBYN,1984-06-04 18:00,ZBYN 041800Z AUTO 36004KT 6SM 18/17 RMK 60047 T01840171 57014 IEM_DS3505
ZBYN,1984-06-04 21:00,ZBYN 042100Z AUTO 18004KT 5SM 19/16 RMK 70012 SLP041 T01890163 52009 IEM_DS3505
ZBYN,1984-06-05 00:00,ZBYN 050000Z AUTO 09004KT 5SM 18/17 RMK 60031 SLP063 T01800173 52017 IEM_DS3505
ZBYN,1984-06-05 03:00,ZBYN 050300Z AUTO 02006KT 5SM 21/16 A2985 RMK SLP070 T02090165 52006 IEM_DS3505
ZBYN,1984-06-05 04:00,ZBYN 050400Z AUTO 01010KT 7SM 22/09 A2985 RMK T02200090 IEM_DS3505
ZBYN,1984-06-05 05:00,ZBYN 050500Z AUTO 35016KT 6SM 22/07 A2985 RMK T02200070 IEM_DS3505
ZBYN,1984-06-05 06:00,ZBYN 050600Z AUTO 02008KT 6SM 23/02 A2980 RMK SLP063 T02340021 4////0176 57003 IEM_DS3505
ZBYN,1984-06-05 07:00,ZBYN 050700Z AUTO 36012KT 6SM 23/00 A2985 RMK T02300000 IEM_DS3505
ZBYN,1984-06-05 08:00,ZBYN 050800Z AUTO 36008KT 6SM 24/04 A2985 RMK T02400040 IEM_DS3505
ZBYN,1984-06-05 09:00,ZBYN 050900Z AUTO 36004KT 6SM 23/02 A2980 RMK SLP062 T02270024 57002 IEM_DS3505
ZBYN,1984-06-05 12:00,ZBYN 051200Z AUTO 6SM 20/05 RMK T02010054 52015 IEM_DS3505
ZBYN,1984-06-05 15:00,ZBYN 051500Z AUTO 00000KT 6SM 17/13 RMK SLP103 T01660132 52017 IEM_DS3505
ZBYN,1984-06-05 18:00,ZBYN 051800Z AUTO 00000KT 6SM 16/12 RMK SLP099 T01590119 40236//// 57001 IEM_DS3505
ZBYN,1984-06-05 21:00,ZBYN 052100Z AUTO 00000KT 6SM 13/11 RMK SLP104 T01340113 54000 IEM_DS3505
ZBYN,1984-06-06 00:00,ZBYN 060000Z AUTO 00000KT 6SM 17/13 RMK SLP116 T01680131 52012 IEM_DS3505
ZBYN,1984-06-06 03:00,ZBYN 060300Z AUTO 18004KT 6SM 22/10 RMK SLP108 T02150104 57006 IEM_DS3505
ZBYN,1984-06-06 06:00,ZBYN 060600Z AUTO 22010KT 12SM 25/10 RMK SLP085 T02480096 4////0127 57017 IEM_DS3505
ZBYN,1984-06-06 09:00,ZBYN 060900Z AUTO 20010KT 16SM 25/10 RMK SLP078 T02490095 57010 IEM_DS3505
ZBYN,1984-06-06 12:00,ZBYN 061200Z AUTO 16006KT 16SM 21/11 RMK SLP076 T02090106 57002 IEM_DS3505
ZBYN,1984-06-06 15:00,ZBYN 061500Z AUTO 11004KT 16SM 17/12 RMK SLP090 T01740124 52014 IEM_DS3505
ZBYN,1984-06-06 18:00,ZBYN 061800Z AUTO 11002KT 12SM 15/13 RMK SLP099 T01490131 40253//// 52010 IEM_DS3505
ZBYN,1984-06-06 21:00,ZBYN 062100Z AUTO 11004KT 4SM 13/12 RMK SLP111 T01290120 52008 IEM_DS3505
ZBYN,1984-06-07 00:00,ZBYN 070000Z AUTO 11004KT 4SM 18/15 RMK SLP123 T01780146 52012 IEM_DS3505
ZBYN,1984-06-07 03:00,ZBYN 070300Z AUTO 09002KT 5SM 23/15 RMK SLP110 T02260146 57010 IEM_DS3505
ZBYN,1984-06-07 06:00,ZBYN 070600Z AUTO 18002KT 12SM 27/11 RMK SLP083 T02730114 4////0126 57022 IEM_DS3505
ZBYN,1984-06-07 09:00,ZBYN 070900Z AUTO 20004KT 14SM 27/12 RMK SLP075 T02720115 57010 IEM_DS3505
ZBYN,1984-06-07 12:00,ZBYN 071200Z AUTO 16004KT 16SM 23/15 RMK SLP081 T02340151 52007 IEM_DS3505
ZBYN,1984-06-07 15:00,ZBYN 071500Z AUTO 14004KT 12SM 21/11 RMK SLP084 T02100113 52006 IEM_DS3505
ZBYN,1984-06-07 18:00,ZBYN 071800Z AUTO 29002KT 8SM 16/13 RMK SLP085 T01570128 52001 IEM_DS3505
ZBYN,1984-06-08 00:00,ZBYN 080000Z AUTO 00000KT 6SM 18/12 RMK SLP086 T01830124 54000 IEM_DS3505
ZBYN,1984-06-08 03:00,ZBYN 080300Z AUTO 20002KT 6SM 23/13 RMK SLP078 T02300130 57005 IEM_DS3505
ZBYN,1984-06-08 06:00,ZBYN 080600Z AUTO 27006KT 9SM 28/10 RMK SLP056 T02800095 4////0156 57016 IEM_DS3505
ZBYN,1984-06-08 09:00,ZBYN 080900Z AUTO 34002KT 11SM 28/08 RMK SLP054 T02770080 57007 IEM_DS3505
ZBYN,1984-06-08 12:00,ZBYN 081200Z AUTO 34006KT 7SM 24/11 RMK SLP074 T02410114 52017 IEM_DS3505
ZBYN,1984-06-08 15:00,ZBYN 081500Z AUTO 00000KT 9SM 20/08 RMK SLP085 T01990082 52011 IEM_DS3505
ZBYN,1984-06-08 18:00,ZBYN 081800Z AUTO 00000KT 7SM 14/11 RMK SLP090 T01430110 40287//// 52003 IEM_DS3505
ZBYN,1984-06-08 21:00,ZBYN 082100Z AUTO 11004KT 6SM 12/09 RMK SLP093 T01230091 54000 IEM_DS3505
ZBYN,1984-06-09 00:00,ZBYN 090000Z AUTO 11006KT 7SM 17/08 RMK SLP097 T01690081 52005 IEM_DS3505
ZBYN,1984-06-09 03:00,ZBYN 090300Z AUTO 22006KT 6SM 23/12 A2988 RMK SLP076 T02310121 57017 IEM_DS3505
ZBYN,1984-06-09 04:00,ZBYN 090400Z AUTO 22010KT 7SM 26/07 A2988 RMK T02600070 IEM_DS3505
ZBYN,1984-06-09 05:00,ZBYN 090500Z AUTO 19008KT 7SM 28/04 A2985 RMK T02800040 IEM_DS3505
ZBYN,1984-06-09 06:00,ZBYN 090600Z AUTO 09006KT 9SM 29/07 A2985 RMK SLP059 T02860069 4////0120 57015 IEM_DS3505
ZBYN,1984-06-09 07:00,ZBYN 090700Z AUTO 18012KT 7SM 30/04 A2980 RMK T03000040 IEM_DS3505
ZBYN,1984-06-09 08:00,ZBYN 090800Z AUTO 33010KT 7SM 31/M02 A2980 RMK T03101020 IEM_DS3505
ZBYN,1984-06-09 09:00,ZBYN 090900Z AUTO 27012KT 16SM 30/M01 A2977 RMK SLP048 T02991013 57011 IEM_DS3505
ZBYN,1984-06-09 10:00,ZBYN 091000Z AUTO 30010KT 7SM 29/03 A2977 RMK T02900030 IEM_DS3505
ZBYN,1984-06-09 12:00,ZBYN 091200Z AUTO 00000KT 16SM 24/11 RMK SLP055 T02350111 52004 IEM_DS3505
ZBYN,1984-06-09 15:00,ZBYN 091500Z AUTO 09004KT 12SM 18/09 RMK SLP068 T01810090 52013 IEM_DS3505
ZBYN,1984-06-09 18:00,ZBYN 091800Z AUTO 34002KT 9SM 14/11 RMK SLP073 T01360107 40309//// 52006 IEM_DS3505
ZBYN,1984-06-09 21:00,ZBYN 092100Z AUTO 00000KT 9SM 12/09 RMK SLP079 T01170089 52004 IEM_DS3505
ZBYN,1984-06-10 00:00,ZBYN 100000Z AUTO 00000KT 5SM 18/08 RMK SLP083 T01790078 52004 IEM_DS3505
ZBYN,1984-06-10 03:00,ZBYN 100300Z AUTO 14004KT 6SM 24/11 RMK SLP070 T02390107 57011 IEM_DS3505
ZBYN,1984-06-10 06:00,ZBYN 100600Z AUTO 18010KT 11SM RMK SLP035 4////0112 57032 IEM_DS3505
ZBYN,1984-06-10 09:00,ZBYN 100900Z AUTO 22008KT 12SM 29/12 RMK SLP022 T02880124 57013 IEM_DS3505
ZBYN,1984-06-10 12:00,ZBYN 101200Z AUTO 22010KT 16SM 27/06 RMK SLP016 T02690056 54000 IEM_DS3505
ZBYN,1984-06-10 15:00,ZBYN 101500Z AUTO 11008KT 9SM 21/08 RMK SLP029 T02110082 52011 IEM_DS3505
ZBYN,1984-06-10 18:00,ZBYN 101800Z AUTO 00000KT 7SM 18/10 RMK SLP025 T01770103 40307//// 57001 IEM_DS3505
ZBYN,1984-06-10 21:00,ZBYN 102100Z AUTO 00000KT 6SM 15/12 RMK SLP031 T01530120 52002 IEM_DS3505
ZBYN,1984-06-11 00:00,ZBYN 110000Z AUTO 00000KT 12SM 21/13 RMK SLP029 T02130126 52004 IEM_DS3505
ZBYN,1984-06-11 03:00,ZBYN 110300Z AUTO 20004KT 17SM 28/13 RMK SLP019 T02790129 57008 IEM_DS3505
ZBYN,1984-06-11 06:00,ZBYN 110600Z AUTO 20006KT 17SM 30/13 RMK SLP995 T03040134 4////0144 57023 IEM_DS3505
ZBYN,1984-06-11 09:00,ZBYN 110900Z AUTO 18002KT 16SM 30/16 RMK SLP988 T03020165 57010 IEM_DS3505
ZBYN,1984-06-11 12:00,ZBYN 111200Z AUTO 34004KT 6SM 25/15 RMK SLP024 T02500153 52034 IEM_DS3505
ZBYN,1984-06-11 15:00,ZBYN 111500Z AUTO 36010KT 9SM 19/14 RMK SLP045 T01940141 52021 IEM_DS3505
ZBYN,1984-06-11 18:00,ZBYN 111800Z AUTO 34004KT 11SM 19/13 RMK SLP041 T01940131 40314//// 54000 IEM_DS3505
ZBYN,1984-06-11 21:00,ZBYN 112100Z AUTO 34006KT 7SM 18/14 RMK SLP047 T01820142 52002 IEM_DS3505
ZBYN,1984-06-12 00:00,ZBYN 120000Z AUTO 34004KT 6SM 20/15 RMK SLP069 T01960147 52016 IEM_DS3505
ZBYN,1984-06-12 02:00,ZBYN 120200Z AUTO 05008KT 6SM 23/16 A2985 RMK T02300160 IEM_DS3505
ZBYN,1984-06-12 03:00,ZBYN 120300Z AUTO 34004KT 6SM 24/16 A2985 RMK SLP062 T02420164 57008 IEM_DS3505
ZBYN,1984-06-12 04:00,ZBYN 120400Z AUTO 05016KT 6SM 26/16 A2980 RMK T02600160 IEM_DS3505
ZBYN,1984-06-12 05:00,ZBYN 120500Z AUTO 07019KT 7SM 26/16 A2980 RMK T02600160 IEM_DS3505
ZBYN,1984-06-12 06:00,ZBYN 120600Z AUTO 11012KT 6SM 27/18 A2977 RMK SLP042 T02690176 4////0180 57015 IEM_DS3505
ZBYN,1984-06-12 07:00,ZBYN 120700Z AUTO 08017KT 6SM 26/16 A2977 RMK T02600160 IEM_DS3505
ZBYN,1984-06-12 09:00,ZBYN 120900Z AUTO 07008KT 7SM 26/17 RMK SLP036 T02570168 57008 IEM_DS3505
ZBYN,1984-06-12 12:00,ZBYN 121200Z AUTO 02008KT 6SM 22/16 RMK SLP063 T02250161 52022 IEM_DS3505
ZBYN,1984-06-12 15:00,ZBYN 121500Z AUTO 02004KT 6SM 21/16 RMK SLP079 T02130160 52019 IEM_DS3505
ZBYN,1984-06-12 18:00,ZBYN 121800Z AUTO 09006KT 6SM 20/16 RMK SLP065 T01990159 40274//// 57011 IEM_DS3505
ZBYN,1984-06-12 21:00,ZBYN 122100Z AUTO 09006KT 6SM 20/16 RMK SLP068 T01950160 52001 IEM_DS3505
ZBYN,1984-06-13 00:00,ZBYN 130000Z AUTO 16004KT 5SM 20/16 RMK SLP075 T01950165 52002 IEM_DS3505
ZBYN,1984-06-13 03:00,ZBYN 130300Z AUTO 09008KT 7SM 21/16 RMK SLP074 T02110162 57001 IEM_DS3505
ZBYN,1984-06-13 06:00,ZBYN 130600Z AUTO 09006KT 6SM 21/16 RMK SLP073 T02060165 57003 IEM_DS3505
ZBYN,1984-06-13 09:00,ZBYN 130900Z AUTO 07006KT 5SM 21/17 RMK SLP067 T02070166 57006 IEM_DS3505
ZBYN,1984-06-13 12:00,ZBYN 131200Z AUTO 00000KT 5SM 19/16 RMK SLP081 T01870165 52010 IEM_DS3505
ZBYN,1984-06-13 15:00,ZBYN 131500Z AUTO 25002KT 7SM 18/16 RMK SLP084 T01830165 52004 IEM_DS3505
ZBYN,1984-06-13 18:00,ZBYN 131800Z AUTO 32002KT 7SM 18/16 RMK 60001 SLP078 T01780162 40213//// 57007 IEM_DS3505
ZBYN,1984-06-13 21:00,ZBYN 132100Z AUTO 36002KT 7SM 18/16 RMK SLP069 T01750155 57008 IEM_DS3505
ZBYN,1984-06-14 00:00,ZBYN 140000Z AUTO 00000KT 5SM 20/16 RMK SLP077 T01950160 52007 IEM_DS3505
ZBYN,1984-06-14 03:00,ZBYN 140300Z AUTO 07006KT 6SM 21/14 RMK SLP059 T02110141 57015 IEM_DS3505
ZBYN,1984-06-14 06:00,ZBYN 140600Z AUTO 18002KT 6SM 24/15 RMK SLP039 T02390149 4////0170 57014 IEM_DS3505
ZBYN,1984-06-14 09:00,ZBYN 140900Z AUTO 20006KT 6SM 22/16 RMK SLP035 T02190163 57007 IEM_DS3505
ZBYN,1984-06-14 12:00,ZBYN 141200Z AUTO 18006KT 6SM 17/16 RMK 60008 SLP050 T01700155 52010 IEM_DS3505
ZBYN,1984-06-14 15:00,ZBYN 141500Z AUTO 16004KT 4SM 16/16 RMK SLP047 T01630161 57002 IEM_DS3505
ZBYN,1984-06-14 18:00,ZBYN 141800Z AUTO 00000KT 4SM 16/16 RMK 60035 SLP032 T01640163 57010 IEM_DS3505
ZBYN,1984-06-14 21:00,ZBYN 142100Z AUTO 09002KT 4SM 16/16 RMK SLP031 T01650165 57004 IEM_DS3505
ZBYN,1984-06-15 00:00,ZBYN 150000Z AUTO 18002KT 18/16 RMK SLP036 T01810163 52001 IEM_DS3505
ZBYN,1984-06-15 03:00,ZBYN 150300Z AUTO 11002KT 6SM 22/18 RMK SLP021 T02250179 57009 IEM_DS3505
ZBYN,1984-06-15 06:00,ZBYN 150600Z AUTO 18004KT 7SM 26/17 RMK SLP000 T02640172 4////0157 57014 IEM_DS3505
ZBYN,1984-06-15 09:00,ZBYN 150900Z AUTO 25004KT 7SM 28/16 RMK SLP979 T02800156 57016 IEM_DS3505
ZBYN,1984-06-15 12:00,ZBYN 151200Z AUTO 00000KT 16SM 24/18 RMK SLP990 T02420179 52006 IEM_DS3505
ZBYN,1984-06-15 15:00,ZBYN 151500Z AUTO 00000KT 11SM 19/15 RMK SLP002 T01870151 52010 IEM_DS3505
ZBYN,1984-06-15 18:00,ZBYN 151800Z AUTO 11004KT 9SM 16/14 RMK SLP997 T01580135 40282//// 57003 IEM_DS3505
ZBYN,1984-06-15 21:00,ZBYN 152100Z AUTO 00000KT 7SM 14/12 RMK SLP994 T01420116 57003 IEM_DS3505
ZBYN,1984-06-16 00:00,ZBYN 160000Z AUTO 14004KT 12SM 19/13 A2965 RMK SLP994 T01880126 52001 IEM_DS3505
ZBYN,1984-06-16 01:00,ZBYN 160100Z AUTO 00000KT 7SM 22/13 A2965 RMK T02200130 IEM_DS3505
ZBYN,1984-06-16 02:00,ZBYN 160200Z AUTO 00000KT 7SM 23/13 A2959 RMK T02300130 IEM_DS3505
ZBYN,1984-06-16 03:00,ZBYN 160300Z AUTO 18006KT 9SM 24/16 A2959 RMK SLP982 T02430162 57011 IEM_DS3505
ZBYN,1984-06-16 04:00,ZBYN 160400Z AUTO 21006KT 6SM 27/13 A2959 RMK T02700130 IEM_DS3505
ZBYN,1984-06-16 05:00,ZBYN 160500Z AUTO 19004KT 6SM 29/11 A2956 RMK T02900110 IEM_DS3505
ZBYN,1984-06-16 06:00,ZBYN 160600Z AUTO 34012KT 16SM 31/07 A2956 RMK SLP955 T03110072 4////0135 57019 IEM_DS3505
ZBYN,1984-06-16 07:00,ZBYN 160700Z AUTO 30017KT 6SM 31/04 RMK T03100040 IEM_DS3505
ZBYN,1984-06-16 08:00,ZBYN 160800Z AUTO 30019KT 6SM 31/04 A2950 RMK T03100040 IEM_DS3505
ZBYN,1984-06-16 09:00,ZBYN 160900Z AUTO 34008KT 19SM 30/07 A2950 RMK SLP957 T03020068 57002 IEM_DS3505
ZBYN,1984-06-16 12:00,ZBYN 161200Z AUTO 32002KT 17SM 25/10 RMK SLP970 T02470103 52011 IEM_DS3505
ZBYN,1984-06-16 15:00,ZBYN 161500Z AUTO 34004KT 11SM 21/08 RMK SLP981 T02140080 52014 IEM_DS3505
ZBYN,1984-06-16 18:00,ZBYN 161800Z AUTO 34002KT 11SM 19/08 RMK SLP974 T01870083 40311//// 57001 IEM_DS3505
ZBYN,1984-06-16 21:00,ZBYN 162100Z AUTO 00000KT 12SM 15/09 RMK SLP985 T01530091 52003 IEM_DS3505
ZBYN,1984-06-17 00:00,ZBYN 170000Z AUTO 00000KT 9SM 19/11 RMK SLP994 T01870113 52006 IEM_DS3505
ZBYN,1984-06-17 03:00,ZBYN 170300Z AUTO 14004KT 6SM 26/12 RMK SLP971 T02570119 57016 IEM_DS3505
ZBYN,1984-06-17 06:00,ZBYN 170600Z AUTO 20004KT 12SM 28/13 RMK SLP949 T02820133 4////0127 57021 IEM_DS3505
ZBYN,1984-06-17 09:00,ZBYN 170900Z AUTO 00000KT 11SM 29/15 RMK SLP941 T02930150 57010 IEM_DS3505
ZBYN,1984-06-17 12:00,ZBYN 171200Z AUTO 32004KT 16SM 26/08 RMK SLP960 T02590085 52018 IEM_DS3505
ZBYN,1984-06-17 15:00,ZBYN 171500Z AUTO 20002KT 9SM 20/14 RMK SLP974 T02050136 52014 IEM_DS3505
ZBYN,1984-06-17 18:00,ZBYN 171800Z AUTO 14002KT 7SM 19/12 RMK SLP977 T01910120 40297//// 52005 IEM_DS3505
ZBYN,1984-06-17 21:00,ZBYN 172100Z AUTO 00000KT 6SM 16/13 RMK SLP981 T01620132 52001 IEM_DS3505
ZBYN,1984-06-18 00:00,ZBYN 180000Z AUTO 11004KT 6SM 21/14 RMK SLP991 T02090141 52011 IEM_DS3505
ZBYN,1984-06-18 03:00,ZBYN 180300Z AUTO 18004KT 7SM 26/17 RMK SLP986 T02550167 57006 IEM_DS3505
ZBYN,1984-06-18 06:00,ZBYN 180600Z AUTO 20004KT 16SM 22/15 RMK SLP986 T02240151 4////0156 57006 IEM_DS3505
ZBYN,1984-06-18 09:00,ZBYN 180900Z AUTO 16004KT 19SM 24/16 RMK SLP982 T02360163 57007 IEM_DS3505
ZBYN,1984-06-18 10:00,ZBYN 181000Z AUTO 32004KT 19SM 23/12 RMK SLP988 T02260121 52012 IEM_DS3505
ZBYN,1984-06-18 12:00,ZBYN 181200Z AUTO 32004KT 43SM 23/12 RMK 60000 SLP988 T02260121 52012 IEM_DS3505
ZBYN,1984-06-18 15:00,ZBYN 181500Z AUTO 34002KT 16SM 19/13 RMK SLP003 T01860134 52015 IEM_DS3505
ZBYN,1984-06-18 18:00,ZBYN 181800Z AUTO 09004KT 12SM 16/13 RMK SLP022 T01560127 40262//// 52008 IEM_DS3505
ZBYN,1984-06-18 21:00,ZBYN 182100Z AUTO 00000KT 9SM 14/12 RMK SLP037 T01370121 52014 IEM_DS3505
ZBYN,1984-06-19 00:00,ZBYN 190000Z AUTO 00000KT 5SM 19/15 RMK SLP040 T01930146 52009 IEM_DS3505
ZBYN,1984-06-19 03:00,ZBYN 190300Z AUTO 20006KT 9SM 24/16 A2977 RMK SLP040 T02430157 52001 IEM_DS3505
ZBYN,1984-06-19 04:00,ZBYN 190400Z AUTO 23008KT 7SM 25/14 A2977 RMK T02500140 IEM_DS3505
ZBYN,1984-06-19 05:00,ZBYN 190500Z AUTO 21006KT 7SM 26/13 A2977 RMK T02600130 IEM_DS3505
ZBYN,1984-06-19 06:00,ZBYN 190600Z AUTO 18006KT 19SM 27/15 A2974 RMK SLP033 T02710152 4////0132 57007 IEM_DS3505
ZBYN,1984-06-19 07:00,ZBYN 190700Z AUTO 22008KT 7SM 28/13 A2974 RMK T02800130 IEM_DS3505
ZBYN,1984-06-19 08:00,ZBYN 190800Z AUTO 20004KT 7SM 28/12 A2974 RMK T02800120 IEM_DS3505
ZBYN,1984-06-19 09:00,ZBYN 190900Z AUTO 20004KT 19SM 27/18 A2974 RMK SLP033 T02710175 57002 IEM_DS3505
ZBYN,1984-06-19 12:00,ZBYN 191200Z AUTO 07008KT 17SM 24/19 RMK SLP034 T02440191 52005 IEM_DS3505
ZBYN,1984-06-19 15:00,ZBYN 191500Z AUTO 07012KT 11SM 23/16 RMK SLP055 T02310159 52024 IEM_DS3505
ZBYN,1984-06-19 18:00,ZBYN 191800Z AUTO 09006KT 12SM 22/17 RMK SLP060 T02220167 40282//// 52007 IEM_DS3505
ZBYN,1984-06-19 21:00,ZBYN 192100Z AUTO 04008KT 5SM 21/17 RMK SLP070 T02070166 52007 IEM_DS3505
ZBYN,1984-06-20 00:00,ZBYN 200000Z AUTO 00000KT 4SM 20/16 RMK T02030158 52008 IEM_DS3505
ZBYN,1984-06-20 03:00,ZBYN 200300Z AUTO 00000KT 6SM 19/18 RMK SLP102 T01920176 52013 IEM_DS3505
ZBYN,1984-06-20 06:00,ZBYN 200600Z AUTO 00000KT 6SM 19/18 RMK 60008 SLP098 T01890178 4////0184 57004 IEM_DS3505
ZBYN,1984-06-20 09:00,ZBYN 200900Z AUTO 34004KT 6SM 19/18 RMK SLP089 T01940180 57010 IEM_DS3505
ZBYN,1984-06-20 12:00,ZBYN 201200Z AUTO 34002KT 6SM 19/18 RMK 60001 SLP094 T01910180 52003 IEM_DS3505
ZBYN,1984-06-20 15:00,ZBYN 201500Z AUTO 36004KT 6SM 18/17 RMK SLP096 T01850167 54000 IEM_DS3505
ZBYN,1984-06-20 18:00,ZBYN 201800Z AUTO 00000KT 5SM 18/17 RMK 60001 SLP090 T01770167 40224//// 57007 IEM_DS3505
ZBYN,1984-06-20 21:00,ZBYN 202100Z AUTO 34002KT 4SM 17/17 RMK SLP085 T01710171 57005 IEM_DS3505
ZBYN,1984-06-21 00:00,ZBYN 210000Z AUTO 34004KT 2SM 17/17 RMK 60063 SLP081 T01710171 57004 IEM_DS3505
ZBYN,1984-06-21 03:00,ZBYN 210300Z AUTO 00000KT 2SM 18/17 RMK SLP086 T01760174 52004 IEM_DS3505
ZBYN,1984-06-21 06:00,ZBYN 210600Z AUTO 09006KT 5SM 18/18 RMK 60055 SLP075 T01850180 4////0165 57010 IEM_DS3505
ZBYN,1984-06-21 09:00,ZBYN 210900Z AUTO 14004KT 6SM 19/17 RMK SLP073 T01900172 57001 IEM_DS3505
ZBYN,1984-06-21 12:00,ZBYN 211200Z AUTO 00000KT 7SM 19/18 RMK 60004 SLP079 T01910176 52005 IEM_DS3505
ZBYN,1984-06-21 15:00,ZBYN 211500Z AUTO 00000KT 7SM 18/18 RMK SLP083 T01840177 52004 IEM_DS3505
ZBYN,1984-06-21 18:00,ZBYN 211800Z AUTO 00000KT 5SM 18/18 RMK SLP081 T01830176 40194//// 57001 IEM_DS3505
ZBYN,1984-06-21 21:00,ZBYN 212100Z AUTO 00000KT 2SM 18/17 RMK SLP076 T01810172 57004 IEM_DS3505
ZBYN,1984-06-22 00:00,ZBYN 220000Z AUTO 34006KT 5SM 20/18 RMK SLP085 T01950176 52010 IEM_DS3505
ZBYN,1984-06-22 03:00,ZBYN 220300Z AUTO 02006KT 6SM 22/18 RMK SLP080 T02250177 57002 IEM_DS3505
ZBYN,1984-06-22 06:00,ZBYN 220600Z AUTO 00000KT 6SM 23/18 RMK SLP070 T02280184 4////0175 57008 IEM_DS3505
ZBYN,1984-06-22 09:00,ZBYN 220900Z AUTO 00000KT 6SM 24/19 RMK SLP062 T02350191 57007 IEM_DS3505
ZBYN,1984-06-22 12:00,ZBYN 221200Z AUTO 22002KT 2SM 21/20 RMK 60004 SLP075 T02070199 52010 IEM_DS3505
ZBYN,1984-06-22 15:00,ZBYN 221500Z AUTO 00000KT 1 1/4SM 19/19 RMK SLP089 T01930186 52015 IEM_DS3505
ZBYN,1984-06-22 18:00,ZBYN 221800Z AUTO 00000KT 3/8SM 19/19 RMK 60008 SLP081 T01890186 40248//// 57007 IEM_DS3505
ZBYN,1984-06-22 21:00,ZBYN 222100Z AUTO 00000KT 1/2SM 19/18 RMK SLP082 T01860181 52001 IEM_DS3505
ZBYN,1984-06-23 00:00,ZBYN 230000Z AUTO 00000KT 1SM 20/18 RMK 60002 SLP097 T01950179 52011 IEM_DS3505
ZBYN,1984-06-23 02:00,ZBYN 230200Z AUTO 02008KT 7SM 21/16 A2988 RMK T02100160 IEM_DS3505
ZBYN,1984-06-23 03:00,ZBYN 230300Z AUTO 00000KT 4SM 22/18 A2988 RMK SLP084 T02190176 57010 IEM_DS3505
ZBYN,1984-06-23 04:00,ZBYN 230400Z AUTO 06006KT 7SM 23/17 A2985 RMK T02300170 IEM_DS3505
ZBYN,1984-06-23 05:00,ZBYN 230500Z AUTO 00000KT 7SM 24/18 A2985 RMK T02400180 IEM_DS3505
ZBYN,1984-06-23 06:00,ZBYN 230600Z AUTO 22004KT 6SM 24/18 A2985 RMK SLP066 T02360184 4////0184 57015 IEM_DS3505
ZBYN,1984-06-23 07:00,ZBYN 230700Z AUTO 00000KT 7SM 23/18 A2985 RMK T02300180 IEM_DS3505
ZBYN,1984-06-23 08:00,ZBYN 230800Z AUTO 20004KT 7SM 23/18 A2980 RMK T02300180 IEM_DS3505
ZBYN,1984-06-23 09:00,ZBYN 230900Z AUTO 22004KT 6SM 23/18 A2980 RMK SLP057 T02300180 57010 IEM_DS3505
ZBYN,1984-06-23 12:00,ZBYN 231200Z AUTO 11004KT 9SM 18/ RMK SLP056 57002 IEM_DS3505
ZBYN,1984-06-23 15:00,ZBYN 231500Z AUTO 14004KT 5SM 19/19 RMK SLP057 T01920187 52002 IEM_DS3505
ZBYN,1984-06-23 18:00,ZBYN 231800Z AUTO 16008KT 6SM 19/11 RMK 60002 SLP036 T01910113 40240//// 57017 IEM_DS3505
ZBYN,1984-06-23 21:00,ZBYN 232100Z AUTO 18006KT 6SM 18/18 RMK SLP030 T01840179 57007 IEM_DS3505
ZBYN,1984-06-24 00:00,ZBYN 240000Z AUTO 20004KT 5SM 20/19 RMK SLP037 T01980186 52004 IEM_DS3505
ZBYN,1984-06-24 03:00,ZBYN 240300Z AUTO 11006KT 9SM 25/20 RMK SLP028 T02500200 57002 IEM_DS3505
ZBYN,1984-06-24 06:00,ZBYN 240600Z AUTO 02006KT 19SM 25/14 RMK SLP032 T02540140 52008 IEM_DS3505
ZBYN,1984-06-24 11:00,ZBYN 241100Z AUTO 00000KT 19SM 24/ RMK SLP046 52012 IEM_DS3505
ZBYN,1984-06-24 12:00,ZBYN 241200Z AUTO 00000KT 19SM 24/15 RMK SLP046 T02360154 52012 IEM_DS3505
ZBYN,1984-06-24 15:00,ZBYN 241500Z AUTO 00000KT 16SM 19/18 RMK SLP058 T01920176 52012 IEM_DS3505
ZBYN,1984-06-24 18:00,ZBYN 241800Z AUTO 36004KT 12SM 18/15 RMK SLP069 T01820151 40281//// 52012 IEM_DS3505
ZBYN,1984-06-24 21:00,ZBYN 242100Z AUTO 34004KT 12SM 18/13 RMK SLP082 T01820133 52009 IEM_DS3505
ZBYN,1984-06-25 00:00,ZBYN 250000Z AUTO 04004KT 9SM 21/12 RMK SLP088 T02140121 52007 IEM_DS3505
ZBYN,1984-06-25 03:00,ZBYN 250300Z AUTO 20004KT 12SM 25/14 RMK SLP088 T02480141 57001 IEM_DS3505
ZBYN,1984-06-25 06:00,ZBYN 250600Z AUTO 25004KT 19SM 27/11 RMK SLP062 T02670112 4////0164 57023 IEM_DS3505
ZBYN,1984-06-25 09:00,ZBYN 250900Z AUTO 29002KT 19SM 26/12 RMK SLP052 T02580122 57010 IEM_DS3505
ZBYN,1984-06-25 12:00,ZBYN 251200Z AUTO 20004KT 19SM 22/17 RMK SLP057 T02200173 52004 IEM_DS3505
ZBYN,1984-06-25 15:00,ZBYN 251500Z AUTO 00000KT 16SM 19/16 RMK SLP076 T01870158 52017 IEM_DS3505
ZBYN,1984-06-25 18:00,ZBYN 251800Z AUTO 16002KT 9SM 16/15 RMK SLP081 T01640152 40279//// 52005 IEM_DS3505
ZBYN,1984-06-25 21:00,ZBYN 252100Z AUTO 00000KT 11SM 20/19 RMK SLP087 T01950190 52008 IEM_DS3505
ZBYN,1984-06-26 00:00,ZBYN 260000Z AUTO 11004KT 9SM 19/16 RMK SLP106 T01930162 52012 IEM_DS3505
ZBYN,1984-06-26 03:00,ZBYN 260300Z AUTO 32002KT 7SM 24/12 A2994 RMK SLP098 T02410124 57006 IEM_DS3505
ZBYN,1984-06-26 04:00,ZBYN 260400Z AUTO 36004KT 6SM 26/08 A2988 RMK T02600080 IEM_DS3505
ZBYN,1984-06-26 05:00,ZBYN 260500Z AUTO 31004KT 6SM 25/11 A2988 RMK T02500110 IEM_DS3505
ZBYN,1984-06-26 06:00,ZBYN 260600Z AUTO 25004KT 19SM 25/12 A2988 RMK SLP087 T02500117 4////0139 57011 IEM_DS3505
ZBYN,1984-06-26 07:00,ZBYN 260700Z AUTO 24010KT 6SM 25/11 A2988 RMK T02500110 IEM_DS3505
ZBYN,1984-06-26 08:00,ZBYN 260800Z AUTO 22008KT 6SM 19/15 A2988 RMK T01900150 IEM_DS3505
ZBYN,1984-06-26 09:00,ZBYN 260900Z AUTO 00000KT 19SM 23/15 A2988 RMK SLP077 T02310153 57008 IEM_DS3505
ZBYN,1984-06-26 10:00,ZBYN 261000Z AUTO 22006KT 6SM 23/14 A2985 RMK T02300140 IEM_DS3505
ZBYN,1984-06-26 11:00,ZBYN 261100Z AUTO 19004KT 6SM 22/15 A2985 RMK T02200150 IEM_DS3505
ZBYN,1984-06-26 12:00,ZBYN 261200Z AUTO 09004KT 12SM 20/17 RMK SLP082 T02050166 52001 IEM_DS3505
ZBYN,1984-06-26 15:00,ZBYN 261500Z AUTO 00000KT 9SM 18/16 RMK SLP089 T01850158 52010 IEM_DS3505
ZBYN,1984-06-26 18:00,ZBYN 261800Z AUTO 00000KT 6SM 18/16 RMK SLP091 T01750160 40262//// 52002 IEM_DS3505
ZBYN,1984-06-26 21:00,ZBYN 262100Z AUTO 00000KT 4SM 17/16 RMK SLP095 T01710163 54000 IEM_DS3505
ZBYN,1984-06-27 00:00,ZBYN 270000Z AUTO 16004KT 5SM 18/18 RMK SLP102 T01840176 52005 IEM_DS3505
ZBYN,1984-06-27 03:00,ZBYN 270300Z AUTO 16008KT 9SM 19/16 RMK SLP107 T01930162 52003 IEM_DS3505
ZBYN,1984-06-27 06:00,ZBYN 270600Z AUTO 11004KT 11SM 21/15 RMK SLP088 T02110148 4////0170 57016 IEM_DS3505
ZBYN,1984-06-27 09:00,ZBYN 270900Z AUTO 00000KT 16SM 22/15 RMK SLP075 T02210146 57011 IEM_DS3505
ZBYN,1984-06-27 12:00,ZBYN 271200Z AUTO 00000KT 17SM 20/16 RMK SLP075 T02050160 57001 IEM_DS3505
ZBYN,1984-06-27 15:00,ZBYN 271500Z AUTO 00000KT 16SM 16/15 RMK SLP085 T01600148 52005 IEM_DS3505
ZBYN,1984-06-27 18:00,ZBYN 271800Z AUTO 00000KT 12SM 14/14 RMK SLP080 T01410135 40239//// 57005 IEM_DS3505
ZBYN,1984-06-27 20:00,ZBYN 272000Z AUTO 00000KT 5SM 13/12 RMK SLP079 T01270122 57002 IEM_DS3505
ZBYN,1984-06-27 21:00,ZBYN 272100Z AUTO 00000KT 5SM 13/12 RMK SLP079 T01270122 57002 IEM_DS3505
ZBYN,1984-06-28 00:00,ZBYN 280000Z AUTO 00000KT 4SM 16/14 RMK SLP075 T01630140 57001 IEM_DS3505
ZBYN,1984-06-28 03:00,ZBYN 280300Z AUTO 00000KT 6SM 23/14 RMK SLP060 T02310142 57010 IEM_DS3505
ZBYN,1984-06-28 06:00,ZBYN 280600Z AUTO 00000KT 12SM 26/14 RMK SLP038 T02640139 4////0120 57018 IEM_DS3505
ZBYN,1984-06-28 09:00,ZBYN 280900Z AUTO 00000KT 12SM 28/16 RMK SLP024 T02790163 57013 IEM_DS3505
ZBYN,1984-06-28 12:00,ZBYN 281200Z AUTO 00000KT 12SM 24/18 RMK SLP020 T02360179 57004 IEM_DS3505
ZBYN,1984-06-28 15:00,ZBYN 281500Z AUTO 00000KT 9SM 18/16 RMK SLP034 T01840156 52014 IEM_DS3505
ZBYN,1984-06-28 18:00,ZBYN 281800Z AUTO 00000KT 9SM 16/14 RMK SLP041 T01590144 40284//// 52008 IEM_DS3505
ZBYN,1984-06-28 21:00,ZBYN 282100Z AUTO 00000KT 6SM 15/14 RMK SLP036 T01480139 57004 IEM_DS3505
ZBYN,1984-06-29 00:00,ZBYN 290000Z AUTO 20006KT 12SM RMK SLP015 4////0145 57014 IEM_DS3505
ZBYN,1984-06-29 03:00,ZBYN 290300Z AUTO 18006KT 6SM 25/16 RMK SLP031 T02540158 57010 IEM_DS3505
ZBYN,1984-06-29 06:00,ZBYN 290600Z AUTO 20006KT 12SM 28/17 RMK SLP015 T02840174 4////0145 57014 IEM_DS3505
ZBYN,1984-06-29 09:00,ZBYN 290900Z AUTO 22004KT 16SM 30/17 RMK SLP002 T03030172 57010 IEM_DS3505
ZBYN,1984-06-29 12:00,ZBYN 291200Z AUTO 00000KT 19SM 26/21 RMK SLP998 T02580210 57002 IEM_DS3505
ZBYN,1984-06-29 15:00,ZBYN 291500Z AUTO 11008KT 19SM 25/16 RMK SLP015 T02470163 52020 IEM_DS3505
ZBYN,1984-06-29 18:00,ZBYN 291800Z AUTO 00000KT 12SM 17/16 RMK SLP027 T01730162 57001 IEM_DS3505
ZBYN,1984-06-30 00:00,ZBYN 300000Z AUTO 00000KT 7SM 22/17 RMK SLP028 T02230172 52002 IEM_DS3505
ZBYN,1984-06-30 02:00,ZBYN 300200Z AUTO 13008KT 7SM 27/16 A2977 RMK T02700160 IEM_DS3505
ZBYN,1984-06-30 03:00,ZBYN 300300Z AUTO 16004KT 11SM 27/17 A2977 RMK SLP023 T02710168 52001 IEM_DS3505
ZBYN,1984-06-30 04:00,ZBYN 300400Z AUTO 24004KT 7SM 29/17 A2977 RMK T02900170 IEM_DS3505
ZBYN,1984-06-30 05:00,ZBYN 300500Z AUTO 23006KT 7SM 30/ RMK IEM_DS3505
ZBYN,1984-06-30 06:00,ZBYN 300600Z AUTO 22006KT 16SM 30/16 A2974 RMK SLP013 T02950163 4////0167 57013 IEM_DS3505
ZBYN,1984-06-30 07:00,ZBYN 300700Z AUTO 19010KT 6SM 31/14 A2974 RMK T03100140 IEM_DS3505
ZBYN,1984-06-30 08:00,ZBYN 300800Z AUTO 19008KT 6SM 32/15 A2968 RMK T03200150 IEM_DS3505
ZBYN,1984-06-30 09:00,ZBYN 300900Z AUTO 25004KT 16SM 31/17 RMK SLP996 T03120170 57016 IEM_DS3505
ZBYN,1984-06-30 12:00,ZBYN 301200Z AUTO 11002KT 8SM 27/23 RMK SLP998 T02690228 52003 IEM_DS3505
ZBYN,1984-06-30 15:00,ZBYN 301500Z AUTO 14002KT 12SM 24/18 RMK SLP011 T02370176 52013 IEM_DS3505
ZBYN,1984-06-30 18:00,ZBYN 301800Z AUTO 14004KT 12SM 23/19 RMK SLP011 T02280186 40314//// 52002 IEM_DS3505
ZBYN,1984-06-30 21:00,ZBYN 302100Z AUTO 00000KT 12SM 22/19 RMK SLP010 T02180191 54000 IEM_DS3505
ZBYN,1984-07-01 00:00,ZBYN 010000Z AUTO 18004KT 6SM 24/22 RMK 60020 SLP015 T02430216 4////0201 57005 IEM_DS3505
ZBYN,1984-07-01 03:00,ZBYN 010300Z AUTO 00000KT 12SM 22/21 RMK SLP022 T02200206 52003 IEM_DS3505
ZBYN,1984-07-01 06:00,ZBYN 010600Z AUTO 18004KT 6SM 24/22 RMK 60020 SLP015 T02430216 4////0201 57005 IEM_DS3505
ZBYN,1984-07-01 09:00,ZBYN 010900Z AUTO 00000KT 19SM 25/22 RMK SLP016 T02500219 54000 IEM_DS3505
ZBYN,1984-07-01 12:00,ZBYN 011200Z AUTO 36008KT 9SM 24/17 RMK SLP032 T02360174 52013 IEM_DS3505
ZBYN,1984-07-01 15:00,ZBYN 011500Z AUTO 34004KT 9SM 22/18 RMK SLP052 T02230176 52016 IEM_DS3505
ZBYN,1984-07-01 18:00,ZBYN 011800Z AUTO 00000KT 6SM 19/18 RMK 60012 SLP058 T01890178 40254//// 52005 IEM_DS3505
ZBYN,1984-07-01 21:00,ZBYN 012100Z AUTO 00000KT 5SM 18/18 RMK SLP060 T01820177 IEM_DS3505
ZBYN,1984-07-02 00:00,ZBYN 020000Z AUTO 00000KT 5SM 18/18 RMK 60008 SLP073 T01850177 52010 IEM_DS3505
ZBYN,1984-07-02 03:00,ZBYN 020300Z AUTO 00000KT 5SM 20/18 RMK SLP076 T02030184 52003 IEM_DS3505
ZBYN,1984-07-02 06:00,ZBYN 020600Z AUTO 18006KT 7SM 24/20 RMK 60000 SLP056 T02430195 4////0180 57017 IEM_DS3505
ZBYN,1984-07-02 09:00,ZBYN 020900Z AUTO 20004KT 9SM 24/19 RMK T02440194 57010 IEM_DS3505
ZBYN,1984-07-02 12:00,ZBYN 021200Z AUTO 27004KT 12SM 20/18 RMK 60012 SLP069 T01950177 52015 IEM_DS3505
ZBYN,1984-07-02 15:00,ZBYN 021500Z AUTO 34004KT 9SM 20/17 RMK SLP082 T02050166 52015 IEM_DS3505
ZBYN,1984-07-02 18:00,ZBYN 021800Z AUTO 34004KT 9SM 19/17 RMK SLP070 T01880170 40251//// 57007 IEM_DS3505
ZBYN,1984-07-02 21:00,ZBYN 022100Z AUTO 00000KT 5SM 17/17 RMK SLP087 T01720170 52013 IEM_DS3505
ZBYN,1984-07-03 00:00,ZBYN 030000Z AUTO 00000KT 5SM 21/17 RMK SLP123 T02090172 52007 IEM_DS3505
ZBYN,1984-07-03 03:00,ZBYN 030300Z AUTO 00000KT 6SM 24/17 A2988 RMK SLP086 T02450166 57004 IEM_DS3505
ZBYN,1984-07-03 04:00,ZBYN 030400Z AUTO 00000KT 7SM 26/18 A2988 RMK T02600180 IEM_DS3505
ZBYN,1984-07-03 05:00,ZBYN 030500Z AUTO 09004KT 7SM 27/16 A2985 RMK T02700160 IEM_DS3505
ZBYN,1984-07-03 06:00,ZBYN 030600Z AUTO 27002KT 9SM 25/18 A2985 RMK SLP064 T02530181 57020 IEM_DS3505
ZBYN,1984-07-03 07:00,ZBYN 030700Z AUTO 02012KT 7SM 24/14 A2985 RMK T02400140 IEM_DS3505
ZBYN,1984-07-03 08:00,ZBYN 030800Z AUTO 06006KT 7SM 27/17 A2985 RMK T02700170 IEM_DS3505
ZBYN,1984-07-03 09:00,ZBYN 030900Z AUTO 04004KT 9SM 27/18 A2980 RMK SLP104 T02740184 52004 IEM_DS3505
ZBYN,1984-07-03 10:00,ZBYN 031000Z AUTO 08008KT 7SM 28/16 A2980 RMK T02800160 IEM_DS3505
ZBYN,1984-07-03 11:00,ZBYN 031100Z AUTO 07006KT 7SM 26/14 A2985 RMK T02600140 IEM_DS3505
ZBYN,1984-07-03 12:00,ZBYN 031200Z AUTO 25002KT 12SM 23/17 RMK SLP078 T02310173 52009 IEM_DS3505
ZBYN,1984-07-03 15:00,ZBYN 031500Z AUTO 00000KT 12SM 20/17 RMK SLP092 T01950172 52013 IEM_DS3505
ZBYN,1984-07-03 18:00,ZBYN 031800Z AUTO 00000KT 12SM 17/17 RMK SLP101 T01730167 40279//// 52006 IEM_DS3505
ZBYN,1984-07-03 21:00,ZBYN 032100Z AUTO 00000KT 4SM 16/16 RMK SLP094 T01650155 57004 IEM_DS3505
ZBYN,1984-07-04 00:00,ZBYN 040000Z AUTO 00000KT 9SM 20/16 RMK SLP103 T02040156 52007 IEM_DS3505
ZBYN,1984-07-04 03:00,ZBYN 040300Z AUTO 14004KT 7SM 26/18 RMK SLP101 T02570180 52001 IEM_DS3505
ZBYN,1984-07-04 06:00,ZBYN 040600Z AUTO 16004KT 16SM 27/18 RMK SLP086 T02740179 4////0161 57015 IEM_DS3505
ZBYN,1984-07-04 09:00,ZBYN 040900Z AUTO 27006KT 19SM 29/17 RMK SLP064 T02910172 57019 IEM_DS3505
ZBYN,1984-07-04 12:00,ZBYN 041200Z AUTO 00000KT 19SM 25/19 RMK SLP073 T02500194 52008 IEM_DS3505
ZBYN,1984-07-04 15:00,ZBYN 041500Z AUTO 16004KT 16SM 23/17 RMK SLP084 T02330172 52015 IEM_DS3505
ZBYN,1984-07-04 18:00,ZBYN 041800Z AUTO 00000KT 16SM 20/19 RMK SLP083 T02010189 40293//// 57003 IEM_DS3505
ZBYN,1984-07-04 21:00,ZBYN 042100Z AUTO 00000KT 9SM 19/18 RMK SLP082 T01910176 54000 IEM_DS3505
ZBYN,1984-07-05 00:00,ZBYN 050000Z AUTO 00000KT 5SM 22/18 RMK SLP093 T02170179 52008 IEM_DS3505
ZBYN,1984-07-05 03:00,ZBYN 050300Z AUTO 29002KT 4SM 24/19 RMK SLP082 T02420189 57009 IEM_DS3505
ZBYN,1984-07-05 06:00,ZBYN 050600Z AUTO 25004KT 8SM 27/19 RMK SLP065 T02700190 4////0188 57015 IEM_DS3505
ZBYN,1984-07-05 09:00,ZBYN 050900Z AUTO 18006KT 12SM 26/19 RMK SLP058 T02560188 57010 IEM_DS3505
ZBYN,1984-07-05 12:00,ZBYN 051200Z AUTO 18006KT 6SM 23/19 RMK SLP071 T02290186 52012 IEM_DS3505
ZBYN,1984-07-05 15:00,ZBYN 051500Z AUTO 07004KT 7SM 20/16 RMK SLP086 T02000158 52012 IEM_DS3505
ZBYN,1984-07-05 18:00,ZBYN 051800Z AUTO 14004KT 7SM 19/16 RMK SLP078 T01890163 57008 IEM_DS3505
ZBYN,1984-07-05 21:00,ZBYN 052100Z AUTO 14004KT 5SM 18/16 RMK SLP086 T01770160 52003 IEM_DS3505
ZBYN,1984-07-06 00:00,ZBYN 060000Z AUTO 16004KT 5SM 19/16 RMK SLP089 T01890163 52001 IEM_DS3505
ZBYN,1984-07-06 03:00,ZBYN 060300Z AUTO 22004KT 16SM 23/16 RMK SLP077 T02320163 57009 IEM_DS3505
ZBYN,1984-07-06 06:00,ZBYN 060600Z AUTO 22006KT 7SM 24/18 RMK SLP060 T02420175 4////0175 57015 IEM_DS3505
ZBYN,1984-07-06 09:00,ZBYN 060900Z AUTO 18006KT 9SM 23/18 RMK SLP050 T02320181 57013 IEM_DS3505
ZBYN,1984-07-06 12:00,ZBYN 061200Z AUTO 14004KT 9SM 21/17 RMK SLP062 T02130166 52010 IEM_DS3505
ZBYN,1984-07-06 15:00,ZBYN 061500Z AUTO 00000KT 9SM 20/16 RMK SLP056 T02000163 57001 IEM_DS3505
ZBYN,1984-07-06 18:00,ZBYN 061800Z AUTO 00000KT 6SM 18/17 RMK 60001 SLP114 T01840172 40249//// 54000 IEM_DS3505
ZBYN,1984-07-06 21:00,ZBYN 062100Z AUTO 14002KT 5SM 17/17 RMK SLP050 T01740168 57009 IEM_DS3505
ZBYN,1984-07-06 22:00,ZBYN 062200Z AUTO 14002KT 5SM 17/17 RMK SLP050 T01740168 57009 IEM_DS3505
ZBYN,1984-07-07 00:00,ZBYN 070000Z AUTO 11002KT 4SM 18/17 RMK SLP059 T01830172 52006 IEM_DS3505
ZBYN,1984-07-07 02:00,ZBYN 070200Z AUTO 00000KT 6SM 21/18 A2980 RMK T02100180 IEM_DS3505
ZBYN,1984-07-07 03:00,ZBYN 070300Z AUTO 11004KT 6SM 22/18 A2980 RMK SLP049 T02210185 57005 IEM_DS3505
ZBYN,1984-07-07 04:00,ZBYN 070400Z AUTO 19008KT 7SM 25/17 A2977 RMK T02500170 IEM_DS3505
ZBYN,1984-07-07 05:00,ZBYN 070500Z AUTO 14006KT 7SM 26/17 A2977 RMK T02600170 IEM_DS3505
ZBYN,1984-07-07 06:00,ZBYN 070600Z AUTO 18006KT 9SM 27/18 A2974 RMK SLP028 T02710184 4////0172 57015 IEM_DS3505
ZBYN,1984-07-07 07:00,ZBYN 070700Z AUTO 08004KT 7SM 29/15 A2974 RMK T02900150 IEM_DS3505
ZBYN,1984-07-07 08:00,ZBYN 070800Z AUTO 18008KT 7SM 30/17 A2974 RMK T03000170 IEM_DS3505
ZBYN,1984-07-07 09:00,ZBYN 070900Z AUTO 20006KT 12SM 28/18 A2968 RMK SLP013 T02760183 57014 IEM_DS3505
ZBYN,1984-07-07 10:00,ZBYN 071000Z AUTO 11004KT 6SM RMK SLP034 40285//// 52007 IEM_DS3505
ZBYN,1984-07-07 12:00,ZBYN 071200Z AUTO 18004KT 12SM 25/18 RMK SLP024 T02470184 52007 IEM_DS3505
ZBYN,1984-07-07 15:00,ZBYN 071500Z AUTO 18006KT 9SM 22/18 RMK SLP031 T02160178 52008 IEM_DS3505
ZBYN,1984-07-07 18:00,ZBYN 071800Z AUTO 11004KT 6SM 20/18 RMK SLP034 T01950183 40285//// 52007 IEM_DS3505
ZBYN,1984-07-07 21:00,ZBYN 072100Z AUTO 00000KT 5SM 18/18 RMK SLP042 T01790176 52005 IEM_DS3505
ZBYN,1984-07-08 00:00,ZBYN 080000Z AUTO 18004KT 5SM 21/19 RMK SLP054 T02090189 50011 IEM_DS3505
ZBYN,1984-07-08 03:00,ZBYN 080300Z AUTO 18004KT 12SM 26/20 RMK SLP041 T02640195 57008 IEM_DS3505
ZBYN,1984-07-08 05:00,ZBYN 080500Z AUTO 18004KT 12SM 32/17 RMK SLP007 T03150170 57012 IEM_DS3505
ZBYN,1984-07-08 06:00,ZBYN 080600Z AUTO 18008KT 12SM 31/17 RMK SLP019 T03060166 4////0172 57017 IEM_DS3505
ZBYN,1984-07-08 09:00,ZBYN 080900Z AUTO 18004KT 12SM 32/17 RMK SLP007 T03150170 57012 IEM_DS3505
ZBYN,1984-07-08 12:00,ZBYN 081200Z AUTO 18002KT 12SM 28/20 RMK SLP015 T02760201 52005 IEM_DS3505
ZBYN,1984-07-08 15:00,ZBYN 081500Z AUTO 11004KT 12SM 21/18 RMK SLP027 T02090179 52010 IEM_DS3505
ZBYN,1984-07-08 18:00,ZBYN 081800Z AUTO 29002KT 12SM 18/17 RMK SLP028 T01830170 40319//// 52003 IEM_DS3505
ZBYN,1984-07-08 21:00,ZBYN 082100Z AUTO 00000KT 9SM 17/16 RMK SLP041 T01660161 52011 IEM_DS3505
ZBYN,1984-07-09 00:00,ZBYN 090000Z AUTO 36004KT 9SM 22/16 RMK SLP052 T02220160 52012 IEM_DS3505
ZBYN,1984-07-09 03:00,ZBYN 090300Z AUTO 00000KT 7SM 29/18 RMK SLP051 T02880183 54000 IEM_DS3505
ZBYN,1984-07-09 06:00,ZBYN 090600Z AUTO 00000KT 19SM RMK SLP036 4////0166 57015 IEM_DS3505
ZBYN,1984-07-09 09:00,ZBYN 090900Z AUTO 14004KT 16SM 30/20 RMK SLP033 T02950195 57007 IEM_DS3505
ZBYN,1984-07-09 12:00,ZBYN 091200Z AUTO 00000KT 19SM 26/17 RMK SLP040 T02650168 52010 IEM_DS3505
ZBYN,1984-07-09 15:00,ZBYN 091500Z AUTO 00000KT 16SM 20/17 RMK SLP057 T02020166 52005 IEM_DS3505
ZBYN,1984-07-09 18:00,ZBYN 091800Z AUTO 32002KT 9SM 20/17 RMK SLP056 T01970168 40320//// 52002 IEM_DS3505
ZBYN,1984-07-09 21:00,ZBYN 092100Z AUTO 00000KT 7SM 19/18 RMK SLP060 T01910176 52001 IEM_DS3505
ZBYN,1984-07-10 00:00,ZBYN 100000Z AUTO 00000KT 5SM 21/17 RMK SLP070 T02110168 52007 IEM_DS3505
ZBYN,1984-07-10 03:00,ZBYN 100300Z AUTO 00000KT 3SM 22/18 RMK SLP084 T02170179 52006 IEM_DS3505
ZBYN,1984-07-10 04:00,ZBYN 100400Z AUTO 08008KT 7SM 20/17 A2988 RMK T02000170 IEM_DS3505
ZBYN,1984-07-10 05:00,ZBYN 100500Z AUTO 00000KT 2SM 20/18 A2988 RMK T02000180 IEM_DS3505
ZBYN,1984-07-10 06:00,ZBYN 100600Z AUTO 02002KT 5SM 18/18 A2985 RMK 60028 SLP084 T01850179 4////0182 57006 IEM_DS3505
ZBYN,1984-07-10 07:00,ZBYN 100700Z AUTO 32006KT 2SM 19/18 A2985 RMK T01900180 IEM_DS3505
ZBYN,1984-07-10 08:00,ZBYN 100800Z AUTO 03006KT 2 1/2SM 19/18 A2985 RMK T01900180 IEM_DS3505
ZBYN,1984-07-10 09:00,ZBYN 100900Z AUTO 34006KT 4SM 18/18 A2985 RMK SLP074 T01840176 57010 IEM_DS3505
ZBYN,1984-07-10 10:00,ZBYN 101000Z AUTO 36004KT 4SM 18/17 A2985 RMK T01800170 IEM_DS3505
ZBYN,1984-07-10 12:00,ZBYN 101200Z AUTO 34006KT 4SM 18/18 RMK 60035 SLP065 T01780175 57006 IEM_DS3505
ZBYN,1984-07-10 15:00,ZBYN 101500Z AUTO 32004KT 2 1/2SM 17/17 RMK SLP069 T01730172 52004 IEM_DS3505
ZBYN,1984-07-10 18:00,ZBYN 101800Z AUTO 34006KT 2 1/2SM 17/17 RMK 60110 SLP056 T01700170 40217//// 57017 IEM_DS3505
ZBYN,1984-07-10 21:00,ZBYN 102100Z AUTO 32006KT 2SM 17/17 RMK SLP048 T01710171 57006 IEM_DS3505
ZBYN,1984-07-11 00:00,ZBYN 110000Z AUTO 36004KT 4SM 17/17 RMK 60004 SLP043 T01740172 57006 IEM_DS3505
ZBYN,1984-07-11 03:00,ZBYN 110300Z AUTO 00000KT 5SM 18/18 RMK SLP045 T01810176 52002 IEM_DS3505
ZBYN,1984-07-11 06:00,ZBYN 110600Z AUTO 00000KT 5SM 19/18 RMK 60008 SLP036 T01930185 4////0165 57007 IEM_DS3505
ZBYN,1984-07-11 09:00,ZBYN 110900Z AUTO 00000KT 5SM 21/19 RMK SLP030 T02060186 57003 IEM_DS3505
ZBYN,1984-07-11 12:00,ZBYN 111200Z AUTO 00000KT 4SM 20/19 RMK SLP038 T02020189 52007 IEM_DS3505
ZBYN,1984-07-11 15:00,ZBYN 111500Z AUTO 00000KT 4SM 19/19 RMK SLP039 T01890186 54000 IEM_DS3505
ZBYN,1984-07-11 18:00,ZBYN 111800Z AUTO 00000KT 4SM 19/18 RMK SLP037 T01860184 40208//// 54000 IEM_DS3505
ZBYN,1984-07-11 21:00,ZBYN 112100Z AUTO 11004KT 2SM 19/18 RMK SLP031 T01860184 57004 IEM_DS3505
ZBYN,1984-07-12 00:00,ZBYN 120000Z AUTO 14004KT 4SM 20/19 RMK SLP031 T02010194 52001 IEM_DS3505
ZBYN,1984-07-12 03:00,ZBYN 120300Z AUTO 20006KT 11SM 24/20 RMK SLP025 T02430200 57001 IEM_DS3505
ZBYN,1984-07-12 06:00,ZBYN 120600Z AUTO 20006KT 29/20 RMK SLP008 T02880200 4////0185 57011 IEM_DS3505
ZBYN,1984-07-12 09:00,ZBYN 120900Z AUTO 27006KT 19SM 29/18 RMK SLP995 T02910176 57010 IEM_DS3505
ZBYN,1984-07-12 12:00,ZBYN 121200Z AUTO 00000KT 12SM 25/18 RMK SLP005 T02460176 52005 IEM_DS3505
ZBYN,1984-07-12 15:00,ZBYN 121500Z AUTO 11004KT 9SM 22/20 RMK SLP013 T02160199 52009 IEM_DS3505
ZBYN,1984-07-12 18:00,ZBYN 121800Z AUTO 11006KT 7SM 20/20 RMK SLP012 T02050197 40297//// 52002 IEM_DS3505
ZBYN,1984-07-12 21:00,ZBYN 122100Z AUTO 14004KT 5SM 20/20 RMK SLP015 T02010198 IEM_DS3505
ZBYN,1984-07-13 00:00,ZBYN 130000Z AUTO 00000KT 4SM 21/20 RMK SLP026 T02090200 52005 IEM_DS3505
ZBYN,1984-07-13 03:00,ZBYN 130300Z AUTO 22004KT 4SM 25/21 RMK SLP018 T02510211 57006 IEM_DS3505
ZBYN,1984-07-13 06:00,ZBYN 130600Z AUTO 20012KT 9SM 28/21 RMK SLP994 T02750212 4////0201 57020 IEM_DS3505
ZBYN,1984-07-13 09:00,ZBYN 130900Z AUTO 32004KT 12SM 27/15 RMK SLP996 T02670147 54000 IEM_DS3505
ZBYN,1984-07-13 12:00,ZBYN 131200Z AUTO 22004KT 11SM 24/17 RMK SLP007 T02450170 52008 IEM_DS3505
ZBYN,1984-07-13 15:00,ZBYN 131500Z AUTO 11004KT 9SM 20/19 RMK SLP013 T02010193 52006 IEM_DS3505
ZBYN,1984-07-13 18:00,ZBYN 131800Z AUTO 11004KT 7SM 19/18 RMK SLP013 T01880181 40285//// 52001 IEM_DS3505
ZBYN,1984-07-13 21:00,ZBYN 132100Z AUTO 11004KT 7SM 18/17 RMK SLP014 T01780170 57001 IEM_DS3505
ZBYN,1984-07-14 00:00,ZBYN 140000Z AUTO 16004KT 5SM 19/18 RMK SLP021 T01920177 52005 IEM_DS3505
ZBYN,1984-07-14 02:00,ZBYN 140200Z AUTO 00000KT 6SM 22/17 A2974 RMK T02200170 IEM_DS3505
ZBYN,1984-07-14 03:00,ZBYN 140300Z AUTO 14004KT 6SM 24/19 A2968 RMK SLP011 T02360193 57009 IEM_DS3505
ZBYN,1984-07-14 04:00,ZBYN 140400Z AUTO 19006KT 6SM 24/18 A2968 RMK T02400180 IEM_DS3505
ZBYN,1984-07-14 05:00,ZBYN 140500Z AUTO 21008KT 6SM 25/18 A2968 RMK T02500180 IEM_DS3505
ZBYN,1984-07-14 06:00,ZBYN 140600Z AUTO 16006KT 6SM 25/18 A2965 RMK SLP994 T02520182 4////0172 57016 IEM_DS3505
ZBYN,1984-07-14 07:00,ZBYN 140700Z AUTO 21012KT 6SM 26/16 A2965 RMK T02600160 IEM_DS3505
ZBYN,1984-07-14 08:00,ZBYN 140800Z AUTO 21012KT 6SM 26/16 A2959 RMK T02600160 IEM_DS3505
ZBYN,1984-07-14 09:00,ZBYN 140900Z AUTO 22004KT 9SM 26/18 RMK SLP974 T02560184 57018 IEM_DS3505
ZBYN,1984-07-14 12:00,ZBYN 141200Z AUTO 22004KT 7SM 23/18 RMK SLP972 T02330184 57003 IEM_DS3505
ZBYN,1984-07-14 15:00,ZBYN 141500Z AUTO 00000KT 6SM 21/19 RMK SLP976 T02120193 52006 IEM_DS3505
ZBYN,1984-07-14 18:00,ZBYN 141800Z AUTO 00000KT 4SM 19/19 RMK SLP982 T01870186 40258//// 52005 IEM_DS3505
ZBYN,1984-07-14 21:00,ZBYN 142100Z AUTO 00000KT 4SM 18/18 RMK SLP998 T01770175 52013 IEM_DS3505
ZBYN,1984-07-15 00:00,ZBYN 150000Z AUTO 00000KT 6SM 18/14 RMK SLP020 T01850144 52019 IEM_DS3505
ZBYN,1984-07-15 03:00,ZBYN 150300Z AUTO 34002KT 9SM 25/12 RMK SLP009 T02540119 57004 IEM_DS3505
ZBYN,1984-07-15 06:00,ZBYN 150600Z AUTO 18002KT 7SM 28/15 RMK SLP002 T02820146 4////0161 57006 IEM_DS3505
ZBYN,1984-07-15 09:00,ZBYN 150900Z AUTO 22002KT 7SM 29/16 RMK SLP998 T02890159 57004 IEM_DS3505
ZBYN,1984-07-15 12:00,ZBYN 151200Z AUTO 00000KT 11SM 23/20 RMK T02340200 52007 IEM_DS3505
ZBYN,1984-07-15 15:00,ZBYN 151500Z AUTO 07004KT 9SM 22/16 RMK SLP023 T02170156 52017 IEM_DS3505
ZBYN,1984-07-15 18:00,ZBYN 151800Z AUTO 22004KT 7SM 17/16 RMK SLP035 T01660157 40290//// 52007 IEM_DS3505
ZBYN,1984-07-15 21:00,ZBYN 152100Z AUTO 34004KT 7SM 17/14 RMK SLP043 T01670135 52008 IEM_DS3505
ZBYN,1984-07-16 00:00,ZBYN 160000Z AUTO 00000KT 5SM 21/15 RMK SLP060 T02070146 52014 IEM_DS3505
ZBYN,1984-07-16 03:00,ZBYN 160300Z AUTO 32002KT 8SM 26/16 RMK SLP053 T02620163 57001 IEM_DS3505
ZBYN,1984-07-16 06:00,ZBYN 160600Z AUTO 18002KT 12SM 30/15 RMK SLP041 T03000154 4////0154 57013 IEM_DS3505
ZBYN,1984-07-16 09:00,ZBYN 160900Z AUTO 25002KT 16SM 30/17 RMK SLP032 T02960174 57009 IEM_DS3505
ZBYN,1984-07-16 12:00,ZBYN 161200Z AUTO 00000KT 9SM 25/22 RMK SLP040 T02480219 52006 IEM_DS3505
ZBYN,1984-07-16 15:00,ZBYN 161500Z AUTO 00000KT 6SM 22/20 RMK SLP051 T02190202 52014 IEM_DS3505
ZBYN,1984-07-16 18:00,ZBYN 161800Z AUTO 34002KT 6SM 22/18 RMK SLP047 T02180175 40311//// 52002 IEM_DS3505
ZBYN,1984-07-16 21:00,ZBYN 162100Z AUTO 00000KT 6SM 21/18 RMK SLP059 T02070178 52008 IEM_DS3505
ZBYN,1984-07-17 00:00,ZBYN 170000Z AUTO 18006KT 6SM 20/18 RMK SLP077 T02040176 52010 IEM_DS3505
ZBYN,1984-07-17 03:00,ZBYN 170300Z AUTO 00000KT 12SM 19/18 RMK SLP100 T01920176 52015 IEM_DS3505
ZBYN,1984-07-17 04:00,ZBYN 170400Z AUTO 33006KT 7SM 18/17 A2994 RMK T01800170 IEM_DS3505
ZBYN,1984-07-17 05:00,ZBYN 170500Z AUTO 00000KT 7SM 18/16 A2994 RMK T01800160 IEM_DS3505
ZBYN,1984-07-17 06:00,ZBYN 170600Z AUTO 00000KT 16SM 19/17 A2988 RMK 60008 SLP094 T01920174 4////0180 57006 IEM_DS3505
ZBYN,1984-07-17 07:00,ZBYN 170700Z AUTO 00000KT 7SM 19/17 A2988 RMK T01900170 IEM_DS3505
ZBYN,1984-07-17 08:00,ZBYN 170800Z AUTO 29004KT 6SM RMK IEM_DS3505
ZBYN,1984-07-17 09:00,ZBYN 170900Z AUTO 00000KT 4SM 20/18 A2988 RMK SLP084 T01960182 57010 IEM_DS3505
ZBYN,1984-07-17 10:00,ZBYN 171000Z AUTO 00000KT 7SM 20/18 A2988 RMK T02000180 IEM_DS3505
ZBYN,1984-07-17 11:00,ZBYN 171100Z AUTO 00000KT 7SM 20/18 A2988 RMK T02000180 IEM_DS3505
ZBYN,1984-07-17 12:00,ZBYN 171200Z AUTO 00000KT 5SM 19/18 RMK SLP093 T01910185 55007 IEM_DS3505
ZBYN,1984-07-17 15:00,ZBYN 171500Z AUTO 00000KT 5SM 18/18 RMK SLP096 T01850179 52001 IEM_DS3505
ZBYN,1984-07-17 18:00,ZBYN 171800Z AUTO 00000KT 5SM 18/17 RMK 60016 SLP095 T01790172 40223//// 57002 IEM_DS3505
ZBYN,1984-07-17 21:00,ZBYN 172100Z AUTO 00000KT 4SM 16/16 RMK SLP101 T01620158 52004 IEM_DS3505
ZBYN,1984-07-18 00:00,ZBYN 180000Z AUTO 32004KT 4SM 16/16 RMK 60012 SLP102 T01630161 54000 IEM_DS3505
ZBYN,1984-07-18 03:00,ZBYN 180300Z AUTO 00000KT 6SM 19/17 RMK SLP099 T01910170 54000 IEM_DS3505
ZBYN,1984-07-18 06:00,ZBYN 180600Z AUTO 11006KT 11SM 19/16 RMK SLP098 T01920160 4////0155 57001 IEM_DS3505
ZBYN,1984-07-18 09:00,ZBYN 180900Z AUTO 00000KT 14SM 19/16 RMK SLP091 T01910164 57009 IEM_DS3505
ZBYN,1984-07-18 12:00,ZBYN 181200Z AUTO 34004KT 5SM 18/16 RMK 60001 SLP097 T01810158 52005 IEM_DS3505
ZBYN,1984-07-18 15:00,ZBYN 181500Z AUTO 00000KT 5SM 18/16 RMK SLP093 T01810163 54000 IEM_DS3505
ZBYN,1984-07-18 18:00,ZBYN 181800Z AUTO 00000KT 5SM 18/16 RMK SLP087 T01790163 40197//// 57006 IEM_DS3505
ZBYN,1984-07-18 21:00,ZBYN 182100Z AUTO 00000KT 5SM 18/16 RMK SLP090 T01760164 52002 IEM_DS3505
ZBYN,1984-07-19 00:00,ZBYN 190000Z AUTO 00000KT 7SM 19/16 RMK SLP095 T01890164 52005 IEM_DS3505
ZBYN,1984-07-19 03:00,ZBYN 190300Z AUTO 14006KT 9SM 20/16 RMK SLP094 T01960156 54000 IEM_DS3505
ZBYN,1984-07-19 06:00,ZBYN 190600Z AUTO 14006KT 9SM 21/15 RMK SLP079 T02120152 4////0173 57011 IEM_DS3505
ZBYN,1984-07-19 09:00,ZBYN 190900Z AUTO 00000KT 9SM 21/16 RMK SLP072 T02130164 57008 IEM_DS3505
ZBYN,1984-07-19 12:00,ZBYN 191200Z AUTO 00000KT 7SM 20/18 RMK SLP075 T01990178 52003 IEM_DS3505
ZBYN,1984-07-19 15:00,ZBYN 191500Z AUTO 16002KT 7SM 18/17 RMK SLP080 T01850170 52004 IEM_DS3505
ZBYN,1984-07-19 18:00,ZBYN 191800Z AUTO 00000KT 6SM 18/17 RMK SLP075 T01810172 40220//// IEM_DS3505
ZBYN,1984-07-19 21:00,ZBYN 192100Z AUTO 00000KT 5SM 18/17 RMK SLP065 T01790169 57009 IEM_DS3505
ZBYN,1984-07-20 00:00,ZBYN 200000Z AUTO 09002KT 6SM 21/18 RMK SLP068 T02110181 52004 IEM_DS3505
ZBYN,1984-07-20 03:00,ZBYN 200300Z AUTO 00000KT 6SM 24/17 RMK SLP064 T02380171 57001 IEM_DS3505
ZBYN,1984-07-20 06:00,ZBYN 200600Z AUTO 20006KT 16SM 26/17 RMK SLP048 T02610172 4////0166 57012 IEM_DS3505
ZBYN,1984-07-20 09:00,ZBYN 200900Z AUTO 20006KT 16SM 27/17 RMK SLP033 T02700174 57013 IEM_DS3505
ZBYN,1984-07-20 12:00,ZBYN 201200Z AUTO 00000KT 19SM 23/20 RMK SLP033 T02340197 54000 IEM_DS3505
ZBYN,1984-07-20 15:00,ZBYN 201500Z AUTO 16004KT 16SM 22/19 RMK SLP045 T02170186 52015 IEM_DS3505
ZBYN,1984-07-20 18:00,ZBYN 201800Z AUTO 00000KT 7SM 19/ RMK SLP045 40271//// 57001 IEM_DS3505
ZBYN,1984-07-20 21:00,ZBYN 202100Z AUTO 00000KT 2 1/2SM 17/16 RMK SLP050 T01700162 52004 IEM_DS3505
ZBYN,1984-07-21 00:00,ZBYN 210000Z AUTO 02004KT 4SM 21/18 RMK SLP056 T02070176 52005 IEM_DS3505
ZBYN,1984-07-21 02:00,ZBYN 210200Z AUTO 14006KT 7SM 25/16 A2980 RMK T02500160 IEM_DS3505
ZBYN,1984-07-21 03:00,ZBYN 210300Z AUTO 00000KT 6SM 26/19 A2980 RMK SLP049 T02550189 57002 IEM_DS3505
ZBYN,1984-07-21 04:00,ZBYN 210400Z AUTO 17006KT 7SM 27/19 A2980 RMK T02700190 IEM_DS3505
ZBYN,1984-07-21 05:00,ZBYN 210500Z AUTO 26004KT 7SM 28/19 A2980 RMK T02800190 IEM_DS3505
ZBYN,1984-07-21 06:00,ZBYN 210600Z AUTO 20006KT 6SM 28/19 A2977 RMK SLP035 T02790189 4////0167 57013 IEM_DS3505
ZBYN,1984-07-21 07:00,ZBYN 210700Z AUTO 00000KT 7SM 30/21 A2977 RMK T03000210 IEM_DS3505
ZBYN,1984-07-21 08:00,ZBYN 210800Z AUTO 00000KT 7SM 30/28 A2974 RMK T03000280 IEM_DS3505
ZBYN,1984-07-21 09:00,ZBYN 210900Z AUTO 00000KT 9SM 30/20 RMK SLP019 T02960201 57015 IEM_DS3505
ZBYN,1984-07-21 12:00,ZBYN 211200Z AUTO 07006KT 7SM 26/19 RMK SLP027 T02550191 52006 IEM_DS3505
ZBYN,1984-07-21 15:00,ZBYN 211500Z AUTO 00000KT 9SM 24/19 RMK SLP037 T02390188 52014 IEM_DS3505
ZBYN,1984-07-21 18:00,ZBYN 211800Z AUTO 00000KT 9SM 21/19 RMK SLP040 T02070191 40299//// 52002 IEM_DS3505
ZBYN,1984-07-21 21:00,ZBYN 212100Z AUTO 00000KT 4SM 20/18 RMK SLP037 T01960185 57002 IEM_DS3505
ZBYN,1984-07-22 00:00,ZBYN 220000Z AUTO 34004KT 5SM 22/19 RMK SLP047 T02160186 52006 IEM_DS3505
ZBYN,1984-07-22 01:00,ZBYN 220100Z AUTO 14004KT 7SM 29/20 RMK SLP027 T02870203 4////0190 57016 IEM_DS3505
ZBYN,1984-07-22 03:00,ZBYN 220300Z AUTO 14004KT 5SM 26/19 RMK SLP044 T02630191 52001 IEM_DS3505
ZBYN,1984-07-22 06:00,ZBYN 220600Z AUTO 14004KT 7SM 29/20 RMK SLP027 T02870203 4////0190 57016 IEM_DS3505
ZBYN,1984-07-22 12:00,ZBYN 221200Z AUTO 36002KT 6SM 25/22 RMK SLP031 T02510218 52014 IEM_DS3505
ZBYN,1984-07-22 15:00,ZBYN 221500Z AUTO 14002KT 9SM 23/19 RMK SLP044 T02330186 52015 IEM_DS3505
ZBYN,1984-07-22 18:00,ZBYN 221800Z AUTO 09002KT 20/19 RMK SLP040 T02040193 40295//// 57003 IEM_DS3505
ZBYN,1984-07-22 21:00,ZBYN 222100Z AUTO 00000KT 5SM 20/19 RMK SLP045 T01950187 52001 IEM_DS3505
ZBYN,1984-07-23 00:00,ZBYN 230000Z AUTO 00000KT 5SM 22/19 RMK SLP049 T02220194 52004 IEM_DS3505
ZBYN,1984-07-23 03:00,ZBYN 230300Z AUTO 32008KT 6SM 24/19 RMK SLP045 T02390193 57003 IEM_DS3505
ZBYN,1984-07-23 06:00,ZBYN 230600Z AUTO 34002KT 9SM 24/18 RMK SLP041 T02400184 4////0192 57007 IEM_DS3505
ZBYN,1984-07-23 09:00,ZBYN 230900Z AUTO 36008KT 9SM 23/17 RMK SLP037 T02340168 57007 IEM_DS3505
ZBYN,1984-07-23 12:00,ZBYN 231200Z AUTO 34008KT 6SM 21/16 RMK T02130164 52001 IEM_DS3505
ZBYN,1984-07-23 15:00,ZBYN 231500Z AUTO 34006KT 6SM 20/16 RMK SLP039 T02010163 52003 IEM_DS3505
ZBYN,1984-07-23 18:00,ZBYN 231800Z AUTO 00000KT 6SM 19/17 RMK 60012 SLP035 T01910170 40261//// 57004 IEM_DS3505
ZBYN,1984-07-23 21:00,ZBYN 232100Z AUTO 00000KT 6SM 19/17 RMK SLP033 T01870172 57005 IEM_DS3505
ZBYN,1984-07-24 00:00,ZBYN 240000Z AUTO 00000KT 6SM 21/18 RMK 60001 SLP038 T02100176 52005 IEM_DS3505
ZBYN,1984-07-24 03:00,ZBYN 240300Z AUTO 07002KT 6SM 26/19 RMK SLP025 T02560186 57006 IEM_DS3505
ZBYN,1984-07-24 04:00,ZBYN 240400Z AUTO 00000KT 7SM 27/18 A2974 RMK T02700180 IEM_DS3505
ZBYN,1984-07-24 05:00,ZBYN 240500Z AUTO 21006KT 7SM 27/18 A2974 RMK T02700180 IEM_DS3505
ZBYN,1984-07-24 06:00,ZBYN 240600Z AUTO 07002KT 14SM 28/19 A2968 RMK SLP006 T02810186 4////0180 57016 IEM_DS3505
ZBYN,1984-07-24 07:00,ZBYN 240700Z AUTO 00000KT 7SM 30/18 A2968 RMK T03000180 IEM_DS3505
ZBYN,1984-07-24 08:00,ZBYN 240800Z AUTO 20006KT 7SM 30/18 A2965 RMK T03000180 IEM_DS3505
ZBYN,1984-07-24 09:00,ZBYN 240900Z AUTO 25004KT 9SM 30/20 RMK SLP988 T02950197 57015 IEM_DS3505
ZBYN,1984-07-24 12:00,ZBYN 241200Z AUTO 09006KT 11SM 26/17 RMK SLP001 T02590170 52010 IEM_DS3505
ZBYN,1984-07-24 15:00,ZBYN 241500Z AUTO 09006KT 7SM 23/17 RMK SLP016 T02340166 52016 IEM_DS3505
ZBYN,1984-07-24 18:00,ZBYN 241800Z AUTO 34002KT 6SM 21/18 RMK SLP011 T02120178 40295//// 57004 IEM_DS3505
ZBYN,1984-07-24 21:00,ZBYN 242100Z AUTO 00000KT 6SM 20/17 RMK SLP009 T02020173 57001 IEM_DS3505
ZBYN,1984-07-25 00:00,ZBYN 250000Z AUTO 02004KT 4SM 22/19 RMK SLP012 T02160186 54000 IEM_DS3505
ZBYN,1984-07-25 03:00,ZBYN 250300Z AUTO 00000KT 6SM 26/17 RMK SLP009 T02600171 54000 IEM_DS3505
ZBYN,1984-07-25 06:00,ZBYN 250600Z AUTO 12004KT 9SM 25/17 RMK SLP001 T02510169 4////0190 57012 IEM_DS3505
ZBYN,1984-07-25 09:00,ZBYN 250900Z AUTO 00000KT 9SM 24/14 RMK SLP010 T02370143 52005 IEM_DS3505
ZBYN,1984-07-25 12:00,ZBYN 251200Z AUTO 11004KT 7SM 21/18 RMK SLP016 T02120178 52004 IEM_DS3505
ZBYN,1984-07-25 15:00,ZBYN 251500Z AUTO 11002KT 6SM 20/19 RMK SLP017 T01980186 52005 IEM_DS3505
ZBYN,1984-07-25 18:00,ZBYN 251800Z AUTO 14002KT 4SM 19/18 RMK SLP015 T01860178 40260//// 57004 IEM_DS3505
ZBYN,1984-07-25 21:00,ZBYN 252100Z AUTO 00000KT 3/8SM 16/16 RMK SLP014 T01650162 57007 IEM_DS3505
ZBYN,1984-07-26 00:00,ZBYN 260000Z AUTO 00000KT 4SM 20/18 RMK SLP015 T02010179 52003 IEM_DS3505
ZBYN,1984-07-26 03:00,ZBYN 260300Z AUTO 14006KT 4SM 24/18 RMK SLP009 T02410183 57002 IEM_DS3505
ZBYN,1984-07-26 06:00,ZBYN 260600Z AUTO 22004KT 6SM 28/20 RMK SLP984 T02750201 4////0158 57020 IEM_DS3505
ZBYN,1984-07-26 09:00,ZBYN 260900Z AUTO 20010KT 9SM 29/18 RMK SLP975 T02870183 57009 IEM_DS3505
ZBYN,1984-07-26 12:00,ZBYN 261200Z AUTO 11004KT 12SM 24/17 RMK SLP975 T02430168 57002 IEM_DS3505
ZBYN,1984-07-26 15:00,ZBYN 261500Z AUTO 32004KT 12SM 23/15 RMK SLP983 T02290151 52011 IEM_DS3505
ZBYN,1984-07-26 18:00,ZBYN 261800Z AUTO 11004KT 9SM 19/18 RMK SLP995 T01940175 40292//// 52011 IEM_DS3505
ZBYN,1984-07-26 21:00,ZBYN 262100Z AUTO 14004KT 9SM 20/18 RMK SLP995 T01950184 52002 IEM_DS3505
ZBYN,1984-07-27 00:00,ZBYN 270000Z AUTO 00000KT 5SM 21/19 RMK SLP006 T02090194 52006 IEM_DS3505
ZBYN,1984-07-27 03:00,ZBYN 270300Z AUTO 18008KT 9SM 26/18 RMK SLP997 T02650184 57002 IEM_DS3505
ZBYN,1984-07-27 06:00,ZBYN 270600Z AUTO 18006KT 11SM 30/20 RMK SLP983 T03010202 4////0184 57013 IEM_DS3505
ZBYN,1984-07-27 09:00,ZBYN 270900Z AUTO 22004KT 9SM 31/20 RMK SLP968 T03090198 57013 IEM_DS3505
ZBYN,1984-07-27 12:00,ZBYN 271200Z AUTO 27004KT 7SM 26/18 RMK SLP986 T02580180 52012 IEM_DS3505
ZBYN,1984-07-27 15:00,ZBYN 271500Z AUTO 34006KT 9SM 24/22 RMK SLP011 T02410223 52028 IEM_DS3505
ZBYN,1984-07-27 18:00,ZBYN 271800Z AUTO 32004KT 9SM 20/16 RMK SLP024 T02010156 40312//// 52011 IEM_DS3505
ZBYN,1984-07-27 21:00,ZBYN 272100Z AUTO 34002KT 6SM 19/14 RMK SLP025 T01940145 52001 IEM_DS3505
ZBYN,1984-07-28 00:00,ZBYN 280000Z AUTO 34004KT 5SM 22/16 RMK SLP039 T02200159 52010 IEM_DS3505
ZBYN,1984-07-28 01:00,ZBYN 280100Z AUTO 34004KT 5SM 22/16 RMK SLP039 T02200159 52010 IEM_DS3505
ZBYN,1984-07-28 02:00,ZBYN 280200Z AUTO 00000KT 7SM 27/17 A2977 RMK T02700170 IEM_DS3505
ZBYN,1984-07-28 03:00,ZBYN 280300Z AUTO 00000KT 8SM 29/18 A2977 RMK SLP031 T02890183 57001 IEM_DS3505
ZBYN,1984-07-28 04:00,ZBYN 280400Z AUTO 00000KT 7SM 30/17 A2977 RMK T03000170 IEM_DS3505
ZBYN,1984-07-28 05:00,ZBYN 280500Z AUTO 00000KT 7SM 32/17 A2977 RMK T03200170 IEM_DS3505
ZBYN,1984-07-28 06:00,ZBYN 280600Z AUTO 00000KT 10SM 32/17 A2974 RMK SLP015 T03190172 4////0188 57015 IEM_DS3505
ZBYN,1984-07-28 07:00,ZBYN 280700Z AUTO 23010KT 7SM 33/14 A2974 RMK T03300140 IEM_DS3505
ZBYN,1984-07-28 08:00,ZBYN 280800Z AUTO 24006KT 7SM 34/15 A2974 RMK T03400150 IEM_DS3505
ZBYN,1984-07-28 09:00,ZBYN 280900Z AUTO 18004KT 11SM 32/17 A2974 RMK SLP009 T03240166 57006 IEM_DS3505
ZBYN,1984-07-28 12:00,ZBYN 281200Z AUTO 09004KT 11SM 27/18 RMK SLP027 T02680175 52012 IEM_DS3505
ZBYN,1984-07-28 15:00,ZBYN 281500Z AUTO 04004KT 7SM 24/21 RMK SLP042 T02450207 52020 IEM_DS3505
ZBYN,1984-07-28 18:00,ZBYN 281800Z AUTO 32002KT 7SM 22/20 RMK SLP049 T02210198 40329//// 52007 IEM_DS3505
ZBYN,1984-07-28 21:00,ZBYN 282100Z AUTO 22002KT 7SM 22/20 RMK SLP029 T02210198 52007 IEM_DS3505
ZBYN,1984-07-29 00:00,ZBYN 290000Z AUTO 00000KT 5SM 24/20 RMK SLP073 T02420201 52016 IEM_DS3505
ZBYN,1984-07-29 03:00,ZBYN 290300Z AUTO 32004KT 6SM 27/21 RMK SLP074 T02740213 52002 IEM_DS3505
ZBYN,1984-07-29 06:00,ZBYN 290600Z AUTO 09004KT 7SM 31/20 RMK SLP057 T03110199 4////0207 57013 IEM_DS3505
ZBYN,1984-07-29 09:00,ZBYN 290900Z AUTO 09006KT 6SM 30/20 RMK SLP053 T02980199 57008 IEM_DS3505
ZBYN,1984-07-29 12:00,ZBYN 291200Z AUTO 09010KT 6SM 27/20 RMK SLP061 T02710198 52009 IEM_DS3505
ZBYN,1984-07-29 15:00,ZBYN 291500Z AUTO 09006KT 9SM 25/20 RMK SLP078 T02540199 52017 IEM_DS3505
ZBYN,1984-07-29 18:00,ZBYN 291800Z AUTO 09004KT 6SM 24/19 RMK SLP080 T02380191 40317//// 52004 IEM_DS3505
ZBYN,1984-07-29 21:00,ZBYN 292100Z AUTO 00000KT 6SM 22/19 RMK SLP085 T02160193 54000 IEM_DS3505
ZBYN,1984-07-30 00:00,ZBYN 300000Z AUTO 11004KT 5SM 25/20 RMK SLP095 T02460200 52010 IEM_DS3505
ZBYN,1984-07-30 03:00,ZBYN 300300Z AUTO 22004KT 7SM 26/20 RMK SLP098 T02610199 52002 IEM_DS3505
ZBYN,1984-07-30 06:00,ZBYN 300600Z AUTO 27004KT 7SM 29/20 RMK SLP076 T02910197 4////0210 57018 IEM_DS3505
ZBYN,1984-07-30 09:00,ZBYN 300900Z AUTO 22004KT 9SM 27/21 RMK SLP071 T02740207 57010 IEM_DS3505
ZBYN,1984-07-30 12:00,ZBYN 301200Z AUTO 14002KT 6SM 25/20 RMK SLP060 T02490199 57009 IEM_DS3505
ZBYN,1984-07-30 15:00,ZBYN 301500Z AUTO 00000KT 6SM 22/21 RMK SLP082 T02250207 52019 IEM_DS3505
ZBYN,1984-07-30 18:00,ZBYN 301800Z AUTO 22004KT 9SM 27/21 RMK SLP071 T02740207 57010 IEM_DS3505
ZBYN,1984-07-30 21:00,ZBYN 302100Z AUTO 22002KT 4SM 20/19 RMK SLP073 T02050194 57007 IEM_DS3505
ZBYN,1984-07-31 00:00,ZBYN 310000Z AUTO 34004KT 5SM 23/20 RMK SLP086 T02270199 52011 IEM_DS3505
ZBYN,1984-07-31 03:00,ZBYN 310300Z AUTO 00000KT 4SM 27/20 A2988 RMK SLP076 T02720199 57006 IEM_DS3505
ZBYN,1984-07-31 04:00,ZBYN 310400Z AUTO 00000KT 7SM 29/19 A2988 RMK T02900190 IEM_DS3505
ZBYN,1984-07-31 05:00,ZBYN 310500Z AUTO 18008KT 7SM 31/18 A2988 RMK T03100180 IEM_DS3505
ZBYN,1984-07-31 06:00,ZBYN 310600Z AUTO 00000KT 11SM 30/19 A2985 RMK SLP059 T03010194 4////0197 57012 IEM_DS3505
ZBYN,1984-07-31 07:00,ZBYN 310700Z AUTO 00000KT 7SM 30/18 A2985 RMK T03000180 IEM_DS3505
ZBYN,1984-07-31 09:00,ZBYN 310900Z AUTO 00000KT 9SM 31/19 RMK SLP041 T03070194 57018 IEM_DS3505
ZBYN,1984-07-31 12:00,ZBYN 311200Z AUTO 09012KT 6SM 28/19 RMK SLP045 T02750192 52002 IEM_DS3505
ZBYN,1984-07-31 15:00,ZBYN 311500Z AUTO 00000KT 11SM 30/19 RMK SLP059 T03010194 4////0197 57012 IEM_DS3505
ZBYN,1984-07-31 18:00,ZBYN 311800Z AUTO 34004KT 7SM 25/19 RMK SLP053 T02520194 40320//// 57002 IEM_DS3505
ZBYN,1984-07-31 21:00,ZBYN 312100Z AUTO 00000KT 6SM 23/19 RMK SLP059 T02330194 52003 IEM_DS3505
ZBYN,1984-08-01 00:00,ZBYN 010000Z AUTO 32002KT 5SM 24/20 RMK SLP065 T02380196 52002 IEM_DS3505
ZBYN,1984-08-01 03:00,ZBYN 010300Z AUTO 00000KT 5SM 28/20 RMK SLP055 T02800199 57010 IEM_DS3505
ZBYN,1984-08-01 06:00,ZBYN 010600Z AUTO 09004KT 7SM 31/20 RMK SLP034 T03080200 4////0225 57017 IEM_DS3505
ZBYN,1984-08-01 09:00,ZBYN 010900Z AUTO 07006KT 9SM 30/19 RMK SLP018 T02980191 57018 IEM_DS3505
ZBYN,1984-08-01 12:00,ZBYN 011200Z AUTO 09010KT 7SM 28/19 RMK SLP024 T02750192 52003 IEM_DS3505
ZBYN,1984-08-01 15:00,ZBYN 011500Z AUTO 11010KT 9SM 25/17 RMK SLP041 T02520174 52018 IEM_DS3505
ZBYN,1984-08-01 18:00,ZBYN 011800Z AUTO 09010KT 9SM 24/19 RMK SLP036 T02420192 40316//// 57003 IEM_DS3505
ZBYN,1984-08-01 21:00,ZBYN 012100Z AUTO 09008KT 6SM 23/19 RMK SLP033 T02320189 57005 IEM_DS3505
ZBYN,1984-08-02 00:00,ZBYN 020000Z AUTO 11008KT 6SM 23/19 RMK SLP043 T02340192 52006 IEM_DS3505
ZBYN,1984-08-02 03:00,ZBYN 020300Z AUTO 11006KT 9SM 26/20 RMK SLP040 T02550195 57002 IEM_DS3505
ZBYN,1984-08-02 06:00,ZBYN 020600Z AUTO 11004KT 11SM 28/20 RMK SLP022 T02840198 4////0229 57014 IEM_DS3505
ZBYN,1984-08-02 09:00,ZBYN 020900Z AUTO 07004KT 7SM 27/20 RMK SLP014 T02670202 57011 IEM_DS3505
ZBYN,1984-08-02 12:00,ZBYN 021200Z AUTO 07006KT 9SM 26/20 RMK SLP018 T02550197 52002 IEM_DS3505
ZBYN,1984-08-02 15:00,ZBYN 021500Z AUTO 09010KT 9SM 25/20 RMK SLP029 T02490199 52012 IEM_DS3505
ZBYN,1984-08-02 18:00,ZBYN 021800Z AUTO 11004KT 7SM 24/20 RMK SLP022 T02410200 40293//// 57003 IEM_DS3505
ZBYN,1984-08-02 21:00,ZBYN 022100Z AUTO 00000KT 6SM 22/21 RMK SLP025 T02210209 57003 IEM_DS3505
ZBYN,1984-08-03 00:00,ZBYN 030000Z AUTO 00000KT 5SM 24/21 RMK SLP025 T02360210 52001 IEM_DS3505
ZBYN,1984-08-03 03:00,ZBYN 030300Z AUTO 18004KT 7SM 26/21 RMK SLP023 T02640213 52001 IEM_DS3505
ZBYN,1984-08-03 06:00,ZBYN 030600Z AUTO 11004KT 9SM 27/21 RMK SLP011 T02680212 4////0219 57012 IEM_DS3505
ZBYN,1984-08-03 09:00,ZBYN 030900Z AUTO 25004KT 6SM 26/21 RMK SLP017 T02550213 52001 IEM_DS3505
ZBYN,1984-08-03 12:00,ZBYN 031200Z AUTO 29004KT 10SM 24/22 RMK 60008 SLP032 T02360221 52014 IEM_DS3505
ZBYN,1984-08-03 15:00,ZBYN 031500Z AUTO 18002KT 12SM 22/19 RMK SLP045 T02240194 52013 IEM_DS3505
ZBYN,1984-08-03 18:00,ZBYN 031800Z AUTO 00000KT 9SM 21/19 RMK SLP051 T02110186 40284//// 52005 IEM_DS3505
ZBYN,1984-08-03 21:00,ZBYN 032100Z AUTO 00000KT 6SM 21/18 RMK SLP061 T02090180 52006 IEM_DS3505
ZBYN,1984-08-03 22:00,ZBYN 032200Z AUTO 00000KT 7SM 21/18 A2980 RMK T02100180 IEM_DS3505
ZBYN,1984-08-03 23:00,ZBYN 032300Z AUTO 21006KT 7SM 20/18 A2980 RMK T02000180 IEM_DS3505
ZBYN,1984-08-04 00:00,ZBYN 040000Z AUTO 36002KT 9SM 23/18 A2985 RMK SLP067 T02330181 52007 IEM_DS3505
ZBYN,1984-08-04 02:00,ZBYN 040200Z AUTO 19004KT 7SM 25/17 A2985 RMK T02500170 IEM_DS3505
ZBYN,1984-08-04 03:00,ZBYN 040300Z AUTO 18006KT 12SM 27/19 A2985 RMK SLP061 T02710186 57006 IEM_DS3505
ZBYN,1984-08-04 04:00,ZBYN 040400Z AUTO 22006KT 7SM 28/17 A2985 RMK T02800170 IEM_DS3505
ZBYN,1984-08-04 05:00,ZBYN 040500Z AUTO 21010KT 7SM 29/17 A2985 RMK T02900170 IEM_DS3505
ZBYN,1984-08-04 06:00,ZBYN 040600Z AUTO 18006KT 16SM 29/18 A2980 RMK SLP047 T02940181 4////0202 57011 IEM_DS3505
ZBYN,1984-08-04 07:00,ZBYN 040700Z AUTO 22008KT 7SM 31/18 A2980 RMK T03100180 IEM_DS3505
ZBYN,1984-08-04 08:00,ZBYN 040800Z AUTO 20010KT 7SM 31/17 A2980 RMK T03100170 IEM_DS3505
ZBYN,1984-08-04 09:00,ZBYN 040900Z AUTO 22004KT 16SM 30/20 A2980 RMK SLP036 T02980201 57010 IEM_DS3505
ZBYN,1984-08-04 10:00,ZBYN 041000Z AUTO 23008KT 7SM 30/19 A2980 RMK T03000190 IEM_DS3505
ZBYN,1984-08-04 12:00,ZBYN 041200Z AUTO 20004KT 16SM 26/18 RMK SLP046 T02580183 52007 IEM_DS3505
ZBYN,1984-08-04 15:00,ZBYN 041500Z AUTO 00000KT 12SM 22/19 RMK SLP065 T02180193 52017 IEM_DS3505
ZBYN,1984-08-04 18:00,ZBYN 041800Z AUTO 00000KT 9SM 19/18 RMK SLP069 T01930182 40302//// 52003 IEM_DS3505
ZBYN,1984-08-04 21:00,ZBYN 042100Z AUTO 00000KT 6SM 17/17 RMK SLP070 T01740168 57001 IEM_DS3505
ZBYN,1984-08-05 00:00,ZBYN 050000Z AUTO 29002KT 4SM 22/18 RMK SLP086 T02180178 52015 IEM_DS3505
ZBYN,1984-08-05 03:00,ZBYN 050300Z AUTO 16004KT 6SM 28/18 RMK SLP074 T02780182 57008 IEM_DS3505
ZBYN,1984-08-05 06:00,ZBYN 050600Z AUTO 18006KT 11SM 32/18 RMK SLP058 T03170183 4////0168 57013 IEM_DS3505
ZBYN,1984-08-05 09:00,ZBYN 050900Z AUTO 18004KT 16SM 30/19 RMK SLP046 T03040190 57015 IEM_DS3505
ZBYN,1984-08-05 12:00,ZBYN 051200Z AUTO 11004KT 16SM 24/19 RMK SLP054 T02440193 52005 IEM_DS3505
ZBYN,1984-08-05 15:00,ZBYN 051500Z AUTO 00000KT 12SM 21/19 RMK SLP061 T02120189 52010 IEM_DS3505
ZBYN,1984-08-05 18:00,ZBYN 051800Z AUTO 00000KT 9SM 21/18 RMK SLP057 T02060180 40319//// 52001 IEM_DS3505
ZBYN,1984-08-05 21:00,ZBYN 052100Z AUTO 14002KT 5SM 18/17 RMK SLP066 T01770170 52003 IEM_DS3505
ZBYN,1984-08-06 00:00,ZBYN 060000Z AUTO 00000KT 6SM 22/18 RMK SLP075 T02210185 52006 IEM_DS3505
ZBYN,1984-08-06 03:00,ZBYN 060300Z AUTO 18006KT 6SM 28/19 RMK SLP064 T02780187 57007 IEM_DS3505
ZBYN,1984-08-06 06:00,ZBYN 060600Z AUTO 18006KT 11SM 31/18 RMK SLP038 T03080182 4////0110 57020 IEM_DS3505
ZBYN,1984-08-06 09:00,ZBYN 060900Z AUTO 20004KT 9SM 31/20 RMK SLP020 T03110195 57020 IEM_DS3505
ZBYN,1984-08-06 12:00,ZBYN 061200Z AUTO 07002KT 12SM 25/20 RMK SLP027 T02510199 52004 IEM_DS3505
ZBYN,1984-08-06 18:00,ZBYN 061800Z AUTO 00000KT 7SM 20/17 RMK SLP042 T01970174 40318//// 54000 IEM_DS3505
ZBYN,1984-08-06 21:00,ZBYN 062100Z AUTO 00000KT 6SM 18/17 RMK SLP047 T01770170 52005 IEM_DS3505
ZBYN,1984-08-07 00:00,ZBYN 070000Z AUTO 32006KT 5SM 22/18 RMK SLP066 T02210183 52016 IEM_DS3505
ZBYN,1984-08-07 03:00,ZBYN 070300Z AUTO 16006KT 6SM 29/21 RMK SLP058 T02880207 57003 IEM_DS3505
ZBYN,1984-08-07 06:00,ZBYN 070600Z AUTO 00000KT 9SM 33/20 RMK SLP026 T03310203 4////0174 57026 IEM_DS3505
ZBYN,1984-08-07 09:00,ZBYN 070900Z AUTO 11012KT 5SM 29/16 RMK SLP029 T02930165 57006 IEM_DS3505
ZBYN,1984-08-07 12:00,ZBYN 071200Z AUTO 27004KT 16SM 24/16 RMK SLP040 T02410160 52009 IEM_DS3505
ZBYN,1984-08-07 15:00,ZBYN 071500Z AUTO 11006KT 16SM 23/20 RMK SLP057 T02300198 52024 IEM_DS3505
ZBYN,1984-08-07 18:00,ZBYN 071800Z AUTO 00000KT 9SM 20/18 RMK SLP057 T01990180 40334//// 52001 IEM_DS3505
ZBYN,1984-08-07 21:00,ZBYN 072100Z AUTO 00000KT 7SM 21/18 RMK SLP063 T02060180 52002 IEM_DS3505
ZBYN,1984-08-08 00:00,ZBYN 080000Z AUTO 00000KT 5SM 23/21 RMK SLP076 T02340207 52008 IEM_DS3505
ZBYN,1984-08-08 03:00,ZBYN 080300Z AUTO 18004KT 6SM 28/20 RMK SLP068 T02840203 57002 IEM_DS3505
ZBYN,1984-08-08 06:00,ZBYN 080600Z AUTO 18004KT 16SM 30/19 RMK SLP044 T03050193 4////0188 57016 IEM_DS3505
ZBYN,1984-08-08 09:00,ZBYN 080900Z AUTO 25004KT 16SM 31/20 RMK SLP027 T03100196 57021 IEM_DS3505
ZBYN,1984-08-08 12:00,ZBYN 081200Z AUTO 09008KT 16SM 28/19 RMK SLP038 T02800193 52010 IEM_DS3505
ZBYN,1984-08-08 15:00,ZBYN 081500Z AUTO 14004KT 9SM 24/21 RMK SLP063 T02430208 52024 IEM_DS3505
ZBYN,1984-08-08 18:00,ZBYN 081800Z AUTO 34002KT 11SM 25/20 RMK SLP053 T02470196 40315//// 57005 IEM_DS3505
ZBYN,1984-08-08 21:00,ZBYN 082100Z AUTO 00000KT 6SM 22/20 RMK SLP046 T02200196 57010 IEM_DS3505
ZBYN,1984-08-09 00:00,ZBYN 090000Z AUTO 09002KT 5SM 24/20 RMK SLP060 T02380198 52012 IEM_DS3505
ZBYN,1984-08-09 03:00,ZBYN 090300Z AUTO 34002KT 9SM 27/20 RMK SLP055 T02710196 57006 IEM_DS3505
ZBYN,1984-08-09 06:00,ZBYN 090600Z AUTO 09008KT 11SM 28/20 RMK SLP041 T02770203 4////0212 57012 IEM_DS3505
ZBYN,1984-08-09 09:00,ZBYN 090900Z AUTO 09010KT 11SM 26/18 RMK SLP033 T02640181 57012 IEM_DS3505
ZBYN,1984-08-09 12:00,ZBYN 091200Z AUTO 09006KT 9SM 23/18 RMK SLP041 T02320176 52005 IEM_DS3505
ZBYN,1984-08-09 15:00,ZBYN 091500Z AUTO 29006KT 8SM 21/17 RMK SLP047 T02080171 52007 IEM_DS3505
ZBYN,1984-08-09 18:00,ZBYN 091800Z AUTO 29004KT 10SM 21/18 RMK SLP040 T02140183 40282//// 57004 IEM_DS3505
ZBYN,1984-08-09 21:00,ZBYN 092100Z AUTO 00000KT 6SM 18/17 RMK SLP035 T01840171 57011 IEM_DS3505
ZBYN,1984-08-10 00:00,ZBYN 100000Z AUTO 18002KT 6SM 21/18 RMK SLP035 T02110183 57001 IEM_DS3505
ZBYN,1984-08-10 03:00,ZBYN 100300Z AUTO 18006KT 7SM 26/19 RMK SLP032 T02580194 52001 IEM_DS3505
ZBYN,1984-08-10 06:00,ZBYN 100600Z AUTO 18008KT 7SM 29/21 RMK SLP011 T02890207 4////0170 57015 IEM_DS3505
ZBYN,1984-08-10 09:00,ZBYN 100900Z AUTO 00000KT 9SM 32/21 RMK SLP006 T03190213 57004 IEM_DS3505
ZBYN,1984-08-10 12:00,ZBYN 101200Z AUTO 32004KT 9SM 26/21 RMK SLP025 T02620208 52013 IEM_DS3505
ZBYN,1984-08-10 15:00,ZBYN 101500Z AUTO 36004KT 6SM 24/19 RMK SLP047 T02390186 52024 IEM_DS3505
ZBYN,1984-08-10 18:00,ZBYN 101800Z AUTO 00000KT 6SM 18/17 RMK SLP063 T01760169 52005 IEM_DS3505
ZBYN,1984-08-10 23:00,ZBYN 102300Z AUTO 00000KT 7SM 19/17 A2988 RMK T01900170 IEM_DS3505
ZBYN,1984-08-11 00:00,ZBYN 110000Z AUTO 36004KT 6SM 22/17 A2988 RMK SLP073 T02240169 52008 IEM_DS3505
ZBYN,1984-08-11 01:00,ZBYN 110100Z AUTO 00000KT 6SM 26/18 A2988 RMK T02600180 IEM_DS3505
ZBYN,1984-08-11 02:00,ZBYN 110200Z AUTO 00000KT 6SM 28/18 A2988 RMK T02800180 IEM_DS3505
ZBYN,1984-08-11 03:00,ZBYN 110300Z AUTO 00000KT 7SM 30/19 A2988 RMK SLP063 T03030194 57002 IEM_DS3505
ZBYN,1984-08-11 04:00,ZBYN 110400Z AUTO 29004KT 7SM 32/19 A2988 RMK T03200190 IEM_DS3505
ZBYN,1984-08-11 05:00,ZBYN 110500Z AUTO 19002KT 7SM 33/18 A2985 RMK T03300180 IEM_DS3505
ZBYN,1984-08-11 06:00,ZBYN 110600Z AUTO 25004KT 12SM 33/19 A2985 RMK SLP064 T03270188 57001 IEM_DS3505
ZBYN,1984-08-11 07:00,ZBYN 110700Z AUTO 00000KT 7SM 34/13 A2980 RMK T03400130 IEM_DS3505
ZBYN,1984-08-11 09:00,ZBYN 110900Z AUTO 27004KT 16SM 34/18 RMK SLP028 T03380179 57034 IEM_DS3505
ZBYN,1984-08-11 10:00,ZBYN 111000Z AUTO 08014KT 7SM 32/19 A2977 RMK T03200190 IEM_DS3505
ZBYN,1984-08-11 12:00,ZBYN 111200Z AUTO 09014KT 9SM 28/19 RMK SLP042 T02810186 52011 IEM_DS3505
ZBYN,1984-08-11 15:00,ZBYN 111500Z AUTO 09006KT 6SM 25/21 RMK SLP049 T02530209 52013 IEM_DS3505
ZBYN,1984-08-11 18:00,ZBYN 111800Z AUTO 11004KT 6SM 24/21 RMK SLP046 T02390207 40344//// 57001 IEM_DS3505
ZBYN,1984-08-11 21:00,ZBYN 112100Z AUTO 00000KT 4SM 21/20 RMK SLP045 T02110202 57003 IEM_DS3505
ZBYN,1984-08-12 00:00,ZBYN 120000Z AUTO 36006KT 6SM 24/22 RMK SLP047 T02440217 57001 IEM_DS3505
ZBYN,1984-08-12 03:00,ZBYN 120300Z AUTO 00000KT 5SM 28/21 RMK SLP044 T02840211 57001 IEM_DS3505
ZBYN,1984-08-12 06:00,ZBYN 120600Z AUTO 04004KT 4SM 21/19 RMK 60016 SLP059 T02100186 4////0192 52001 IEM_DS3505
ZBYN,1984-08-12 09:00,ZBYN 120900Z AUTO 00000KT 5SM 23/20 RMK SLP047 T02290198 57012 IEM_DS3505
ZBYN,1984-08-12 12:00,ZBYN 121200Z AUTO 20002KT 10SM 22/19 RMK 60000 SLP044 T02190189 54000 IEM_DS3505
ZBYN,1984-08-12 15:00,ZBYN 121500Z AUTO 18002KT 9SM 19/18 RMK SLP055 T01870177 52012 IEM_DS3505
ZBYN,1984-08-12 18:00,ZBYN 121800Z AUTO 20002KT 6SM 18/17 RMK SLP067 T01750172 40288//// 57001 IEM_DS3505
ZBYN,1984-08-12 21:00,ZBYN 122100Z AUTO 00000KT 6SM 16/16 RMK SLP070 T01620160 52003 IEM_DS3505
ZBYN,1984-08-13 00:00,ZBYN 130000Z AUTO 04006KT 4SM 20/19 RMK SLP081 T02050191 52014 IEM_DS3505
ZBYN,1984-08-13 06:00,ZBYN 130600Z AUTO 02006KT 19SM 30/11 RMK SLP060 T03020112 4////0157 57008 IEM_DS3505
ZBYN,1984-08-13 09:00,ZBYN 130900Z AUTO 34006KT 19SM 30/06 RMK SLP058 T03020059 57004 IEM_DS3505
ZBYN,1984-08-13 12:00,ZBYN 131200Z AUTO 02006KT 16SM 24/08 RMK SLP084 T02450080 52021 IEM_DS3505
ZBYN,1984-08-13 15:00,ZBYN 131500Z AUTO 34006KT 12SM 20/08 RMK SLP113 T01970082 52029 IEM_DS3505
ZBYN,1984-08-13 18:00,ZBYN 131800Z AUTO 32004KT 9SM 18/06 RMK SLP119 T01830065 40306//// 52009 IEM_DS3505
ZBYN,1984-08-13 21:00,ZBYN 132100Z AUTO 00000KT 9SM 13/08 RMK SLP135 T01280083 52007 IEM_DS3505
ZBYN,1984-08-14 00:00,ZBYN 140000Z AUTO 34004KT 16SM 17/08 RMK SLP148 T01730080 52011 IEM_DS3505
ZBYN,1984-08-14 03:00,ZBYN 140300Z AUTO 34004KT 11SM 23/03 RMK SLP143 T02300026 57004 IEM_DS3505
ZBYN,1984-08-14 04:00,ZBYN 140400Z AUTO 33016KT 7SM 26/02 A3003 RMK T02600020 IEM_DS3505
ZBYN,1984-08-14 05:00,ZBYN 140500Z AUTO 35008KT 7SM 26/M01 A3003 RMK T02601010 IEM_DS3505
ZBYN,1984-08-14 06:00,ZBYN 140600Z AUTO 34006KT 12SM 25/07 RMK SLP125 T02530072 4////0109 57016 IEM_DS3505
ZBYN,1984-08-14 07:00,ZBYN 140700Z AUTO 29012KT 7SM 27/05 A3003 RMK T02700050 IEM_DS3505
ZBYN,1984-08-14 08:00,ZBYN 140800Z AUTO 01008KT 7SM 26/05 A3000 RMK T02600050 IEM_DS3505
ZBYN,1984-08-14 09:00,ZBYN 140900Z AUTO 34004KT 12SM 26/09 A2988 RMK SLP112 T02610089 57018 IEM_DS3505
ZBYN,1984-08-14 11:00,ZBYN 141100Z AUTO 19SM 21/07 RMK SLP122 T02140068 52009 IEM_DS3505
ZBYN,1984-08-14 12:00,ZBYN 141200Z AUTO 00000KT 19SM 21/07 RMK SLP122 T02140068 52009 IEM_DS3505
ZBYN,1984-08-14 15:00,ZBYN 141500Z AUTO 00000KT 19SM 14/10 RMK SLP145 T01380098 52018 IEM_DS3505
ZBYN,1984-08-14 18:00,ZBYN 141800Z AUTO 24021KT 4SM RMK SLP168 40265//// 53003 IEM_DS3505
ZBYN,1984-08-14 21:00,ZBYN 142100Z AUTO 00000KT 9SM 13/08 RMK SLP148 T01320083 57001 IEM_DS3505
ZBYN,1984-08-15 00:00,ZBYN 150000Z AUTO 34006KT 9SM 15/07 RMK SLP154 T01530072 52006 IEM_DS3505
ZBYN,1984-08-15 03:00,ZBYN 150300Z AUTO 00000KT 9SM 24/07 RMK SLP144 T02420068 57007 IEM_DS3505
ZBYN,1984-08-15 06:00,ZBYN 150600Z AUTO 00000KT 12SM 27/07 RMK SLP123 T02670071 4////0086 57019 IEM_DS3505
ZBYN,1984-08-15 09:00,ZBYN 150900Z AUTO 22002KT 16SM 26/08 RMK SLP103 T02640085 57020 IEM_DS3505
ZBYN,1984-08-15 12:00,ZBYN 151200Z AUTO 00000KT 12SM 18/14 RMK SLP107 T01800136 57001 IEM_DS3505
ZBYN,1984-08-15 15:00,ZBYN 151500Z AUTO 00000KT 12SM 20/12 RMK SLP105 T01950124 52013 IEM_DS3505
ZBYN,1984-08-15 18:00,ZBYN 151800Z AUTO 16004KT 11SM 17/12 RMK SLP116 T01680115 40275//// 52009 IEM_DS3505
ZBYN,1984-08-15 21:00,ZBYN 152100Z AUTO 00000KT 6SM 14/12 RMK SLP121 T01430125 52001 IEM_DS3505
ZBYN,1984-08-16 00:00,ZBYN 160000Z AUTO 00000KT 9SM 18/13 RMK SLP134 T01800134 52005 IEM_DS3505
ZBYN,1984-08-16 03:00,ZBYN 160300Z AUTO 22004KT 16SM 23/12 RMK SLP118 T02310119 57005 IEM_DS3505
ZBYN,1984-08-16 06:00,ZBYN 160600Z AUTO 20002KT 19SM 25/12 RMK SLP093 T02500122 4////0130 57024 IEM_DS3505
ZBYN,1984-08-16 09:00,ZBYN 160900Z AUTO 22002KT 16SM 27/12 RMK SLP082 T02670116 57012 IEM_DS3505
ZBYN,1984-08-16 12:00,ZBYN 161200Z AUTO 11006KT 12SM 22/13 RMK SLP094 T02190133 52010 IEM_DS3505
ZBYN,1984-08-16 15:00,ZBYN 161500Z AUTO 11008KT 9SM 20/14 RMK SLP102 T02030136 52012 IEM_DS3505
ZBYN,1984-08-16 18:00,ZBYN 161800Z AUTO 14004KT 7SM 19/13 RMK SLP113 T01930134 40267//// 52017 IEM_DS3505
ZBYN,1984-08-16 21:00,ZBYN 162100Z AUTO 14004KT 7SM 18/13 RMK SLP118 T01790130 52005 IEM_DS3505
ZBYN,1984-08-17 00:00,ZBYN 170000Z AUTO 00000KT 6SM 19/14 RMK SLP135 T01860137 52011 IEM_DS3505
ZBYN,1984-08-17 03:00,ZBYN 170300Z AUTO 00000KT 7SM 24/14 RMK SLP128 T02370141 57002 IEM_DS3505
ZBYN,1984-08-17 06:00,ZBYN 170600Z AUTO 29004KT 9SM 28/16 RMK SLP105 T02770156 4////0166 57018 IEM_DS3505
ZBYN,1984-08-17 09:00,ZBYN 170900Z AUTO 07010KT 9SM 26/15 RMK SLP104 T02570148 57005 IEM_DS3505
ZBYN,1984-08-17 12:00,ZBYN 171200Z AUTO 07012KT 6SM 23/15 RMK SLP116 T02280146 52008 IEM_DS3505
ZBYN,1984-08-17 15:00,ZBYN 171500Z AUTO 07002KT 9SM 21/15 RMK SLP130 T02090147 52018 IEM_DS3505
ZBYN,1984-08-17 18:00,ZBYN 171800Z AUTO 00000KT 12SM 18/14 RMK SLP131 T01790143 40228//// 52002 IEM_DS3505
ZBYN,1984-08-17 21:00,ZBYN 172100Z AUTO 00000KT 6SM 17/14 A3006 RMK SLP141 T01730138 52005 IEM_DS3505
ZBYN,1984-08-17 22:00,ZBYN 172200Z AUTO 08006KT 6SM 17/14 A3006 RMK T01700140 IEM_DS3505
ZBYN,1984-08-17 23:00,ZBYN 172300Z AUTO 07006KT 6SM 18/14 A3006 RMK T01800140 IEM_DS3505
ZBYN,1984-08-18 00:00,ZBYN 180000Z AUTO 00000KT 6SM 19/15 A3012 RMK SLP152 T01860150 52009 IEM_DS3505
ZBYN,1984-08-18 02:00,ZBYN 180200Z AUTO 09010KT 6SM 22/13 RMK T02200130 IEM_DS3505
ZBYN,1984-08-18 03:00,ZBYN 180300Z AUTO 11004KT 9SM 23/11 A3006 RMK SLP145 T02330113 57003 IEM_DS3505
ZBYN,1984-08-18 04:00,ZBYN 180400Z AUTO 13008KT 6SM 25/10 A3006 RMK T02500100 IEM_DS3505
ZBYN,1984-08-18 05:00,ZBYN 180500Z AUTO 18010KT 6SM 26/09 A3003 RMK T02600090 IEM_DS3505
ZBYN,1984-08-18 06:00,ZBYN 180600Z AUTO 20004KT 12SM 26/10 A3003 RMK T02610104 4////0160 57019 IEM_DS3505
ZBYN,1984-08-18 07:00,ZBYN 180700Z AUTO 19004KT 6SM 28/11 A2997 RMK T02800110 IEM_DS3505
ZBYN,1984-08-18 08:00,ZBYN 180800Z AUTO 17012KT 6SM 28/12 A2997 RMK T02800120 IEM_DS3505
ZBYN,1984-08-18 09:00,ZBYN 180900Z AUTO 20004KT 16SM 27/13 A2997 RMK SLP107 T02710133 57017 IEM_DS3505
ZBYN,1984-08-18 10:00,ZBYN 181000Z AUTO 23004KT 6SM 27/13 A2994 RMK T02700130 IEM_DS3505
ZBYN,1984-08-18 12:00,ZBYN 181200Z AUTO 09008KT 8SM 22/14 RMK SLP122 T02250138 52010 IEM_DS3505
ZBYN,1984-08-18 15:00,ZBYN 181500Z AUTO 09002KT 9SM 20/15 RMK SLP127 T02030151 52008 IEM_DS3505
ZBYN,1984-08-18 18:00,ZBYN 181800Z AUTO 29002KT 9SM 18/16 RMK SLP126 T01820157 40276//// 54000 IEM_DS3505
ZBYN,1984-08-18 21:00,ZBYN 182100Z AUTO 00000KT 5SM 18/16 RMK SLP117 T01810157 57007 IEM_DS3505
ZBYN,1984-08-19 00:00,ZBYN 190000Z AUTO 00000KT 4SM 19/17 RMK SLP130 T01880167 52007 IEM_DS3505
ZBYN,1984-08-19 03:00,ZBYN 190300Z AUTO 18004KT 5SM 23/17 RMK SLP120 T02280170 57007 IEM_DS3505
ZBYN,1984-08-19 06:00,ZBYN 190600Z AUTO 18006KT 9SM 25/17 RMK T02470174 4////0175 57014 IEM_DS3505
ZBYN,1984-08-19 09:00,ZBYN 190900Z AUTO 16002KT 12SM 24/18 RMK SLP097 T02410176 57008 IEM_DS3505
ZBYN,1984-08-19 12:00,ZBYN 191200Z AUTO 14002KT 12SM 22/07 RMK SLP099 T02160074 57001 IEM_DS3505
ZBYN,1984-08-19 15:00,ZBYN 191500Z AUTO 11004KT 6SM 20/17 RMK SLP104 T02010172 52008 IEM_DS3505
ZBYN,1984-08-19 18:00,ZBYN 191800Z AUTO 11004KT 5SM 18/17 RMK T01830167 40250//// 57005 IEM_DS3505
ZBYN,1984-08-19 21:00,ZBYN 192100Z AUTO 29002KT 5SM 16/15 RMK SLP099 T01550151 57004 IEM_DS3505
ZBYN,1984-08-20 00:00,ZBYN 200000Z AUTO 34002KT 4SM 18/15 RMK SLP100 T01850146 52002 IEM_DS3505
ZBYN,1984-08-20 03:00,ZBYN 200300Z AUTO 11002KT 5SM 24/16 RMK SLP086 T02390165 57008 IEM_DS3505
ZBYN,1984-08-20 06:00,ZBYN 200600Z AUTO 16006KT 7SM 26/17 RMK SLP059 T02620166 4////0145 57023 IEM_DS3505
ZBYN,1984-08-20 09:00,ZBYN 200900Z AUTO 16002KT 12SM 26/16 RMK SLP050 T02630160 57012 IEM_DS3505
ZBYN,1984-08-20 12:00,ZBYN 201200Z AUTO 36006KT 11SM 22/13 RMK SLP066 T02150130 52012 IEM_DS3505
ZBYN,1984-08-20 15:00,ZBYN 201500Z AUTO 32004KT 9SM 19/13 RMK SLP066 T01860130 52003 IEM_DS3505
ZBYN,1984-08-20 18:00,ZBYN 201800Z AUTO 34004KT 9SM 17/13 RMK SLP059 T01660134 40277//// 57006 IEM_DS3505
ZBYN,1984-08-20 21:00,ZBYN 202100Z AUTO 34002KT 9SM 14/13 RMK SLP053 T01380131 57009 IEM_DS3505
ZBYN,1984-08-21 00:00,ZBYN 210000Z AUTO 00000KT 5SM 18/14 RMK SLP059 T01790145 52004 IEM_DS3505
ZBYN,1984-08-21 02:00,ZBYN 210200Z AUTO 32012KT 7SM 21/15 A2980 RMK T02100150 IEM_DS3505
ZBYN,1984-08-21 03:00,ZBYN 210300Z AUTO 00000KT 6SM 26/14 A2980 RMK SLP044 T02550135 57007 IEM_DS3505
ZBYN,1984-08-21 04:00,ZBYN 210400Z AUTO 32010KT 7SM 28/12 A2977 RMK T02800120 IEM_DS3505
ZBYN,1984-08-21 05:00,ZBYN 210500Z AUTO 25008KT 7SM 29/13 A2974 RMK T02900130 IEM_DS3505
ZBYN,1984-08-21 06:00,ZBYN 210600Z AUTO 14002KT 9SM 29/15 A2974 RMK SLP012 T02920149 4////0136 57027 IEM_DS3505
ZBYN,1984-08-21 07:00,ZBYN 210700Z AUTO 25006KT 7SM 29/15 A2968 RMK T02900150 IEM_DS3505
ZBYN,1984-08-21 09:00,ZBYN 210900Z AUTO 00000KT 9SM 27/18 A2965 RMK SLP005 T02710183 57014 IEM_DS3505
ZBYN,1984-08-21 12:00,ZBYN 211200Z AUTO 22002KT 7SM 22/17 RMK SLP011 T02180169 52005 IEM_DS3505
ZBYN,1984-08-21 15:00,ZBYN 211500Z AUTO 34008KT 11SM 18/14 RMK SLP031 T01820142 52023 IEM_DS3505
ZBYN,1984-08-21 18:00,ZBYN 211800Z AUTO 02002KT 11SM 18/15 RMK 60008 SLP021 T01790150 40300//// 57004 IEM_DS3505
ZBYN,1984-08-21 21:00,ZBYN 212100Z AUTO 18004KT 6SM 16/15 RMK 70008 SLP028 T01630149 52001 IEM_DS3505
ZBYN,1984-08-22 00:00,ZBYN 220000Z AUTO 00000KT 4SM 18/16 RMK SLP033 T01780158 57001 IEM_DS3505
ZBYN,1984-08-22 03:00,ZBYN 220300Z AUTO 20008KT 11SM 24/16 RMK SLP022 T02350162 57007 IEM_DS3505
ZBYN,1984-08-22 06:00,ZBYN 220600Z AUTO 20010KT 12SM 27/16 RMK SLP997 T02700163 4////0159 57019 IEM_DS3505
ZBYN,1984-08-22 09:00,ZBYN 220900Z AUTO 27004KT 19SM 27/15 RMK SLP993 T02670153 57006 IEM_DS3505
ZBYN,1984-08-22 12:00,ZBYN 221200Z AUTO 00000KT 16SM 24/12 RMK SLP024 T02380122 52026 IEM_DS3505
ZBYN,1984-08-22 15:00,ZBYN 221500Z AUTO 32004KT 12SM 19/14 RMK SLP045 T01860145 52020 IEM_DS3505
ZBYN,1984-08-22 18:00,ZBYN 221800Z AUTO 00000KT 11SM 16/14 RMK SLP068 T01610140 40282//// 52023 IEM_DS3505
ZBYN,1984-08-22 21:00,ZBYN 222100Z AUTO 00000KT 9SM 16/14 RMK SLP050 T01560142 57018 IEM_DS3505
ZBYN,1984-08-23 00:00,ZBYN 230000Z AUTO 00000KT 4SM 17/15 RMK SLP068 T01720153 52014 IEM_DS3505
ZBYN,1984-08-23 03:00,ZBYN 230300Z AUTO 20004KT 5SM 22/16 RMK SLP069 T02220156 52001 IEM_DS3505
ZBYN,1984-08-23 06:00,ZBYN 230600Z AUTO 18006KT 7SM 23/16 RMK SLP061 T02290157 4////0147 57010 IEM_DS3505
ZBYN,1984-08-23 09:00,ZBYN 230900Z AUTO 32006KT 6SM 26/16 RMK SLP050 T02590155 57006 IEM_DS3505
ZBYN,1984-08-23 12:00,ZBYN 231200Z AUTO 32006KT 9SM 20/14 RMK SLP066 T01990135 52009 IEM_DS3505
ZBYN,1984-08-23 15:00,ZBYN 231500Z AUTO 32008KT 9SM 16/13 RMK SLP085 T01620128 52018 IEM_DS3505
ZBYN,1984-08-23 18:00,ZBYN 231800Z AUTO 34002KT 9SM 14/ RMK 60002 SLP086 40264//// 57001 IEM_DS3505
ZBYN,1984-08-23 21:00,ZBYN 232100Z AUTO 00000KT 6SM 13/12 RMK SLP079 T01290124 IEM_DS3505
ZBYN,1984-08-24 00:00,ZBYN 240000Z AUTO 36004KT 5SM 16/13 RMK SLP091 T01610129 52007 IEM_DS3505
ZBYN,1984-08-24 03:00,ZBYN 240300Z AUTO 11004KT 6SM 24/15 RMK SLP085 T02420146 54000 IEM_DS3505
ZBYN,1984-08-24 06:00,ZBYN 240600Z AUTO 18006KT 9SM 28/16 RMK SLP063 T02820160 4////0120 57017 IEM_DS3505
ZBYN,1984-08-24 09:00,ZBYN 240900Z AUTO 00000KT 16SM 27/16 RMK SLP047 T02740156 57018 IEM_DS3505
ZBYN,1984-08-24 12:00,ZBYN 241200Z AUTO 22004KT 16SM 23/17 RMK SLP055 T02280172 52006 IEM_DS3505
ZBYN,1984-08-24 15:00,ZBYN 241500Z AUTO 00000KT 7SM 17/14 RMK SLP071 T01680136 52017 IEM_DS3505
ZBYN,1984-08-24 18:00,ZBYN 241800Z AUTO 14002KT 11SM 15/14 RMK SLP082 T01470136 40293//// 52013 IEM_DS3505
ZBYN,1984-08-24 21:00,ZBYN 242100Z AUTO 00000KT 6SM 14/13 RMK SLP081 T01440128 57002 IEM_DS3505
ZBYN,1984-08-25 00:00,ZBYN 250000Z AUTO 02004KT 6SM 18/13 RMK SLP091 T01790126 52007 IEM_DS3505
ZBYN,1984-08-25 02:00,ZBYN 250200Z AUTO 00000KT 7SM 24/13 A2988 RMK T02400130 IEM_DS3505
ZBYN,1984-08-25 03:00,ZBYN 250300Z AUTO 00000KT 9SM 26/12 A2994 RMK SLP087 T02640124 54000 IEM_DS3505
ZBYN,1984-08-25 04:00,ZBYN 250400Z AUTO 15004KT 7SM 28/14 A2988 RMK T02800140 IEM_DS3505
ZBYN,1984-08-25 05:00,ZBYN 250500Z AUTO 00000KT 7SM 30/14 A2985 RMK T03000140 IEM_DS3505
ZBYN,1984-08-25 06:00,ZBYN 250600Z AUTO 16006KT 11SM 30/14 A2985 RMK SLP067 T03040145 4////0131 57015 IEM_DS3505
ZBYN,1984-08-25 07:00,ZBYN 250700Z AUTO 13004KT 7SM 31/13 A2985 RMK T03100130 IEM_DS3505
ZBYN,1984-08-25 08:00,ZBYN 250800Z AUTO 23006KT 7SM 32/14 A2980 RMK T03200140 IEM_DS3505
ZBYN,1984-08-25 09:00,ZBYN 250900Z AUTO 00000KT 11SM 30/14 A2980 RMK SLP053 T03050140 57014 IEM_DS3505
ZBYN,1984-08-25 10:00,ZBYN 251000Z AUTO 00000KT 7SM 30/14 A2980 RMK T03000140 IEM_DS3505
ZBYN,1984-08-25 11:00,ZBYN 251100Z AUTO 00000KT 6SM 26/ A2980 RMK IEM_DS3505
ZBYN,1984-08-25 12:00,ZBYN 251200Z AUTO 00000KT 9SM 20/17 A2985 RMK SLP072 T02050168 52008 IEM_DS3505
ZBYN,1984-08-25 15:00,ZBYN 251500Z AUTO 00000KT 9SM 20/17 RMK SLP072 T02050168 52008 IEM_DS3505
ZBYN,1984-08-25 18:00,ZBYN 251800Z AUTO 34004KT 9SM 18/16 RMK SLP091 T01830157 52009 IEM_DS3505
ZBYN,1984-08-25 21:00,ZBYN 252100Z AUTO 34004KT 7SM 18/16 RMK SLP094 T01810157 52003 IEM_DS3505
ZBYN,1984-08-26 00:00,ZBYN 260000Z AUTO 34004KT 5SM 20/16 RMK SLP115 T01990163 52007 IEM_DS3505
ZBYN,1984-08-26 03:00,ZBYN 260300Z AUTO 02002KT 5SM 26/18 RMK SLP107 T02550176 54000 IEM_DS3505
ZBYN,1984-08-26 06:00,ZBYN 260600Z AUTO 25004KT 7SM 30/18 RMK SLP077 T02950179 4////0167 57023 IEM_DS3505
ZBYN,1984-08-26 09:00,ZBYN 260900Z AUTO 25004KT 12SM 30/20 RMK SLP070 T03000198 57007 IEM_DS3505
ZBYN,1984-08-26 11:00,ZBYN 261100Z AUTO 34004KT 9SM 23/18 RMK T02310182 IEM_DS3505
ZBYN,1984-08-26 12:00,ZBYN 261200Z AUTO 34004KT 9SM 23/18 RMK SLP087 T02310182 52008 IEM_DS3505
ZBYN,1984-08-26 15:00,ZBYN 261500Z AUTO 09006KT 9SM 22/18 RMK SLP098 T02210178 52017 IEM_DS3505
ZBYN,1984-08-26 18:00,ZBYN 261800Z AUTO 11008KT 7SM 21/18 RMK SLP089 T02070175 40307//// 57005 IEM_DS3505
ZBYN,1984-08-26 21:00,ZBYN 262100Z AUTO 14002KT 7SM 20/17 RMK SLP088 T01990173 57001 IEM_DS3505
ZBYN,1984-08-27 00:00,ZBYN 270000Z AUTO 14004KT 6SM 21/17 RMK SLP100 T02130166 52003 IEM_DS3505
ZBYN,1984-08-27 03:00,ZBYN 270300Z AUTO 25002KT 7SM 23/18 RMK SLP098 T02330181 54000 IEM_DS3505
ZBYN,1984-08-27 06:00,ZBYN 270600Z AUTO 34006KT 5SM 17/16 RMK 60012 SLP126 T01670157 4////0166 52015 IEM_DS3505
ZBYN,1984-08-27 09:00,ZBYN 270900Z AUTO 34002KT 4SM 16/15 RMK SLP131 T01610152 52002 IEM_DS3505
ZBYN,1984-08-27 12:00,ZBYN 271200Z AUTO 29004KT 9SM 16/14 RMK 60031 SLP129 T01560144 57001 IEM_DS3505
ZBYN,1984-08-27 15:00,ZBYN 271500Z AUTO 29004KT 9SM 15/14 RMK SLP133 T01470136 52006 IEM_DS3505
ZBYN,1984-08-27 18:00,ZBYN 271800Z AUTO 34002KT 7SM 14/13 RMK SLP150 T01370130 40239//// 52004 IEM_DS3505
ZBYN,1984-08-27 21:00,ZBYN 272100Z AUTO 00000KT 1 1/4SM 12/11 RMK SLP152 T01190113 57001 IEM_DS3505
ZBYN,1984-08-28 00:00,ZBYN 280000Z AUTO 00000KT 3/8SM 14/14 RMK SLP153 T01440138 52004 IEM_DS3505
ZBYN,1984-08-28 03:00,ZBYN 280300Z AUTO 00000KT 4SM 21/13 RMK SLP136 T02070126 57008 IEM_DS3505
ZBYN,1984-08-28 04:00,ZBYN 280400Z AUTO 00000KT 7SM 22/15 A2997 RMK T02200150 IEM_DS3505
ZBYN,1984-08-28 05:00,ZBYN 280500Z AUTO 00000KT 7SM 23/15 A2997 RMK T02300150 IEM_DS3505
ZBYN,1984-08-28 06:00,ZBYN 280600Z AUTO 14002KT 6SM 24/14 A2997 RMK SLP114 T02420139 4////0115 57016 IEM_DS3505
ZBYN,1984-08-28 07:00,ZBYN 280700Z AUTO 21002KT 7SM 25/16 A2994 RMK T02500160 IEM_DS3505
ZBYN,1984-08-28 09:00,ZBYN 280900Z AUTO 22004KT 6SM 25/15 A2997 RMK SLP104 T02500153 57011 IEM_DS3505
ZBYN,1984-08-28 10:00,ZBYN 281000Z AUTO 00000KT 6SM 25/16 A2997 RMK T02500160 IEM_DS3505
ZBYN,1984-08-28 12:00,ZBYN 281200Z AUTO 00000KT 6SM 20/17 RMK SLP114 T01980170 52005 IEM_DS3505
ZBYN,1984-08-28 15:00,ZBYN 281500Z AUTO 00000KT 6SM 18/17 RMK SLP110 T01840174 52004 IEM_DS3505
ZBYN,1984-08-28 18:00,ZBYN 281800Z AUTO 00000KT 5SM 18/16 RMK SLP104 T01770158 40255//// 57002 IEM_DS3505
ZBYN,1984-08-28 21:00,ZBYN 282100Z AUTO 00000KT 4SM 16/15 RMK SLP105 T01600149 57001 IEM_DS3505
ZBYN,1984-08-29 00:00,ZBYN 290000Z AUTO 00000KT 2SM 17/16 RMK SLP123 T01720163 52011 IEM_DS3505
ZBYN,1984-08-29 03:00,ZBYN 290300Z AUTO 18004KT 5SM 24/17 RMK SLP114 T02390170 57001 IEM_DS3505
ZBYN,1984-08-29 06:00,ZBYN 290600Z AUTO 18006KT 9SM 27/16 RMK SLP094 T02660165 4////0150 57015 IEM_DS3505
ZBYN,1984-08-29 09:00,ZBYN 290900Z AUTO 18002KT 16SM 24/16 RMK SLP088 T02450163 57010 IEM_DS3505
ZBYN,1984-08-29 12:00,ZBYN 291200Z AUTO 00000KT 7SM 20/16 RMK SLP095 T02020159 52001 IEM_DS3505
ZBYN,1984-08-29 15:00,ZBYN 291500Z AUTO 32004KT 9SM 21/10 RMK SLP097 T02130096 52013 IEM_DS3505
ZBYN,1984-08-29 18:00,ZBYN 291800Z AUTO 36002KT 7SM 18/11 RMK T01810107 40270//// IEM_DS3505
ZBYN,1984-08-29 21:00,ZBYN 292100Z AUTO 36002KT 9SM 15/11 RMK SLP125 T01530114 52008 IEM_DS3505
ZBYN,1984-08-30 00:00,ZBYN 300000Z AUTO 36004KT 16SM 15/10 RMK SLP143 T01520105 52010 IEM_DS3505
ZBYN,1984-08-30 03:00,ZBYN 300300Z AUTO 36008KT 16SM 24/10 RMK SLP123 T02390105 57004 IEM_DS3505
ZBYN,1984-08-30 06:00,ZBYN 300600Z AUTO 02002KT 16SM 28/10 RMK SLP098 T02770103 4////0145 57022 IEM_DS3505
ZBYN,1984-08-30 09:00,ZBYN 300900Z AUTO 00000KT 12SM 28/07 RMK SLP095 T02760071 57007 IEM_DS3505
ZBYN,1984-08-30 12:00,ZBYN 301200Z AUTO 32002KT 9SM 20/12 RMK SLP116 T02010123 52009 IEM_DS3505
ZBYN,1984-08-30 15:00,ZBYN 301500Z AUTO 34004KT 9SM 18/12 RMK SLP118 T01810120 52011 IEM_DS3505
ZBYN,1984-08-30 18:00,ZBYN 301800Z AUTO 34004KT 9SM 17/11 RMK SLP120 T01700110 40285//// 52005 IEM_DS3505
ZBYN,1984-08-30 21:00,ZBYN 302100Z AUTO 32006KT 9SM 15/10 RMK SLP125 T01540105 52002 IEM_DS3505
ZBYN,1984-08-31 00:00,ZBYN 310000Z AUTO 32008KT 12SM 18/11 RMK SLP136 T01810114 52004 IEM_DS3505
ZBYN,1984-08-31 03:00,ZBYN 310300Z AUTO 00000KT 9SM 25/12 RMK SLP127 T02500125 57001 IEM_DS3505
ZBYN,1984-08-31 06:00,ZBYN 310600Z AUTO 16006KT 16SM 26/13 RMK SLP106 T02630131 4////0146 57019 IEM_DS3505
ZBYN,1984-08-31 09:00,ZBYN 310900Z AUTO 36010KT 16SM 26/12 RMK SLP093 T02650116 57014 IEM_DS3505
ZBYN,1984-08-31 12:00,ZBYN 311200Z AUTO 11008KT 4SM 17/14 RMK 60028 SLP125 T01730142 52020 IEM_DS3505
ZBYN,1984-08-31 15:00,ZBYN 311500Z AUTO 00000KT 9SM 17/16 RMK SLP126 T01730165 52010 IEM_DS3505
ZBYN,1984-08-31 18:00,ZBYN 311800Z AUTO 02004KT 4SM 16/14 RMK 60016 SLP124 T01640140 57001 IEM_DS3505
ZBYN,1984-08-31 21:00,ZBYN 312100Z AUTO 00000KT 5SM 16/14 RMK SLP121 T01550143 57004 IEM_DS3505
ZBYN,1984-09-01 00:00,ZBYN 010000Z AUTO 34004KT 5SM 16/15 RMK SLP126 T01630153 52003 IEM_DS3505
ZBYN,1984-09-01 02:00,ZBYN 010200Z AUTO 19004KT 7SM 22/12 A3003 RMK T02200120 IEM_DS3505
ZBYN,1984-09-01 03:00,ZBYN 010300Z AUTO 04002KT 12SM 22/12 A2997 RMK SLP126 T02210121 57002 IEM_DS3505
ZBYN,1984-09-01 04:00,ZBYN 010400Z AUTO 00000KT 7SM 24/13 A2997 RMK T02400130 IEM_DS3505
ZBYN,1984-09-01 05:00,ZBYN 010500Z AUTO 36004KT 7SM 24/12 A2994 RMK T02400120 IEM_DS3505
ZBYN,1984-09-01 06:00,ZBYN 010600Z AUTO 11004KT 16SM 25/13 A2994 RMK SLP102 T02460130 4////0151 57020 IEM_DS3505
ZBYN,1984-09-01 07:00,ZBYN 010700Z AUTO 06010KT 7SM 23/11 A2988 RMK T02300110 IEM_DS3505
ZBYN,1984-09-01 08:00,ZBYN 010800Z AUTO 08006KT 7SM 23/11 A2988 RMK T02300110 IEM_DS3505
ZBYN,1984-09-01 09:00,ZBYN 010900Z AUTO 11004KT 7SM 23/12 A2988 RMK SLP097 T02320123 57007 IEM_DS3505
ZBYN,1984-09-01 10:00,ZBYN 011000Z AUTO 06008KT 7SM 22/10 A2988 RMK T02200100 IEM_DS3505
ZBYN,1984-09-01 12:00,ZBYN 011200Z AUTO 00000KT 11SM 18/14 RMK 60004 SLP124 T01770142 52018 IEM_DS3505
ZBYN,1984-09-01 15:00,ZBYN 011500Z AUTO 00000KT 9SM 14/13 RMK SLP127 T01430130 52006 IEM_DS3505
ZBYN,1984-09-01 18:00,ZBYN 011800Z AUTO 00000KT 11SM 12/12 RMK SLP123 T01240120 40253//// 57003 IEM_DS3505
ZBYN,1984-09-01 21:00,ZBYN 012100Z AUTO 34002KT 6SM 13/12 RMK SLP126 T01300117 52002 IEM_DS3505
ZBYN,1984-09-02 00:00,ZBYN 020000Z AUTO 09002KT 5SM 14/12 RMK SLP142 T01370124 52007 IEM_DS3505
ZBYN,1984-09-02 03:00,ZBYN 020300Z AUTO 18004KT 6SM 20/14 RMK SLP133 T02040137 57003 IEM_DS3505
ZBYN,1984-09-02 06:00,ZBYN 020600Z AUTO 18006KT 6SM 24/14 RMK SLP106 T02390140 4////0108 57022 IEM_DS3505
ZBYN,1984-09-02 09:00,ZBYN 020900Z AUTO 20006KT 9SM 24/13 RMK SLP095 T02440132 57009 IEM_DS3505
ZBYN,1984-09-02 12:00,ZBYN 021200Z AUTO 00000KT 9SM 18/13 RMK SLP116 T01750131 52010 IEM_DS3505
ZBYN,1984-09-02 15:00,ZBYN 021500Z AUTO 00000KT 9SM 15/12 RMK SLP121 T01500123 52011 IEM_DS3505
ZBYN,1984-09-02 18:00,ZBYN 021800Z AUTO 00000KT 9SM 13/12 RMK SLP122 T01310116 40249//// 52003 IEM_DS3505
ZBYN,1984-09-02 21:00,ZBYN 022100Z AUTO 34004KT 6SM 14/12 RMK SLP120 T01420117 52001 IEM_DS3505
ZBYN,1984-09-03 00:00,ZBYN 030000Z AUTO 34002KT 4SM 16/13 RMK SLP134 T01630129 52006 IEM_DS3505
ZBYN,1984-09-03 03:00,ZBYN 030300Z AUTO 07004KT 6SM 22/14 RMK SLP129 T02220141 54000 IEM_DS3505
ZBYN,1984-09-03 06:00,ZBYN 030600Z AUTO 18004KT 7SM 25/15 RMK SLP104 T02540147 4////0127 57021 IEM_DS3505
ZBYN,1984-09-03 09:00,ZBYN 030900Z AUTO 18004KT 14SM 25/14 RMK SLP104 T02540142 57011 IEM_DS3505
ZBYN,1984-09-03 12:00,ZBYN 031200Z AUTO 07006KT 11SM 16/14 RMK 60063 SLP133 T01630136 52011 IEM_DS3505
ZBYN,1984-09-03 15:00,ZBYN 031500Z AUTO 00000KT 12SM 14/13 RMK SLP149 T01450132 52020 IEM_DS3505
ZBYN,1984-09-03 18:00,ZBYN 031800Z AUTO 02002KT 1 1/4SM 14/14 RMK SLP142 T01450136 54000 IEM_DS3505
ZBYN,1984-09-03 21:00,ZBYN 032100Z AUTO 00000KT 7SM 12/11 RMK SLP166 T01220114 52004 IEM_DS3505
ZBYN,1984-09-04 00:00,ZBYN 040000Z AUTO 34004KT 6SM 15/12 RMK SLP172 T01490115 52009 IEM_DS3505
ZBYN,1984-09-04 03:00,ZBYN 040300Z AUTO 27004KT 16SM 21/12 RMK SLP157 T02090125 57008 IEM_DS3505
ZBYN,1984-09-04 05:00,ZBYN 040500Z AUTO 00000KT 7SM 23/13 A3003 RMK T02300130 IEM_DS3505
ZBYN,1984-09-04 06:00,ZBYN 040600Z AUTO 20002KT 17SM 24/12 A3003 RMK SLP132 T02450120 4////0108 57018 IEM_DS3505
ZBYN,1984-09-04 07:00,ZBYN 040700Z AUTO 18006KT 7SM 26/14 A2997 RMK T02600140 IEM_DS3505
ZBYN,1984-09-04 08:00,ZBYN 040800Z AUTO 24004KT 7SM 26/13 A2997 RMK T02600130 IEM_DS3505
ZBYN,1984-09-04 09:00,ZBYN 040900Z AUTO 25002KT 17SM 25/15 A2997 RMK SLP123 T02470146 57011 IEM_DS3505
ZBYN,1984-09-04 10:00,ZBYN 041000Z AUTO 21008KT 7SM 25/15 A2997 RMK T02500150 IEM_DS3505
ZBYN,1984-09-04 11:00,ZBYN 041100Z AUTO 11010KT 7SM A2997 RMK IEM_DS3505
ZBYN,1984-09-04 12:00,ZBYN 041200Z AUTO 09006KT 7SM 20/14 RMK SLP140 T02030136 52014 IEM_DS3505
ZBYN,1984-09-04 15:00,ZBYN 041500Z AUTO 11004KT 6SM 19/13 RMK SLP142 T01880130 52009 IEM_DS3505
ZBYN,1984-09-04 18:00,ZBYN 041800Z AUTO 18004KT 7SM 18/14 RMK SLP138 T01770138 40258//// 57001 IEM_DS3505
ZBYN,1984-09-04 21:00,ZBYN 042100Z AUTO 14002KT 6SM 17/14 RMK SLP132 T01670145 57007 IEM_DS3505
ZBYN,1984-09-05 00:00,ZBYN 050000Z AUTO 00000KT 4SM 16/15 RMK 60001 SLP151 T01620153 52010 IEM_DS3505
ZBYN,1984-09-05 03:00,ZBYN 050300Z AUTO 00000KT 4SM 16/15 RMK SLP152 T01600153 57001 IEM_DS3505
ZBYN,1984-09-05 06:00,ZBYN 050600Z AUTO 00000KT 5SM 17/15 RMK 60020 SLP130 T01710154 4////0153 57020 IEM_DS3505
ZBYN,1984-09-05 09:00,ZBYN 050900Z AUTO 00000KT 6SM 17/14 RMK T01720145 57013 IEM_DS3505
ZBYN,1984-09-05 12:00,ZBYN 051200Z AUTO 11004KT 6SM 17/14 RMK SLP130 T01670141 52008 IEM_DS3505
ZBYN,1984-09-05 15:00,ZBYN 051500Z AUTO 16002KT 5SM 17/15 RMK SLP132 T01660147 52002 IEM_DS3505
ZBYN,1984-09-05 18:00,ZBYN 051800Z AUTO 00000KT 4SM 16/15 RMK SLP138 T01580148 40178//// 52005 IEM_DS3505
ZBYN,1984-09-05 21:00,ZBYN 052100Z AUTO 00000KT 4SM 14/14 RMK SLP131 T01410135 57009 IEM_DS3505
ZBYN,1984-09-06 00:00,ZBYN 060000Z AUTO 00000KT 3SM 15/14 RMK SLP139 T01530144 52008 IEM_DS3505
ZBYN,1984-09-06 03:00,ZBYN 060300Z AUTO 18002KT 5SM 20/14 RMK SLP120 T01990135 57010 IEM_DS3505
ZBYN,1984-09-06 06:00,ZBYN 060600Z AUTO 00000KT 6SM 24/16 RMK SLP100 T02410165 4////0128 57013 IEM_DS3505
ZBYN,1984-09-06 09:00,ZBYN 060900Z AUTO 25002KT 9SM 25/15 RMK SLP088 T02530153 57012 IEM_DS3505
ZBYN,1984-09-06 12:00,ZBYN 061200Z AUTO 00000KT 9SM 18/16 RMK SLP103 T01790163 52005 IEM_DS3505
ZBYN,1984-09-06 15:00,ZBYN 061500Z AUTO 00000KT 7SM 15/14 RMK SLP111 T01540144 52010 IEM_DS3505
ZBYN,1984-09-06 18:00,ZBYN 061800Z AUTO 00000KT 6SM 14/13 RMK T01380129 40257//// 57003 IEM_DS3505
ZBYN,1984-09-06 21:00,ZBYN 062100Z AUTO 34002KT 6SM 15/13 RMK SLP089 T01480130 57010 IEM_DS3505
ZBYN,1984-09-07 00:00,ZBYN 070000Z AUTO 00000KT 4SM 16/15 RMK SLP111 T01630149 52011 IEM_DS3505
ZBYN,1984-09-07 03:00,ZBYN 070300Z AUTO 00000KT 5SM 22/16 RMK SLP098 T02190165 57007 IEM_DS3505
ZBYN,1984-09-07 06:00,ZBYN 070600Z AUTO 09002KT 7SM 25/17 RMK SLP078 T02510169 4////0130 57016 IEM_DS3505
ZBYN,1984-09-07 09:00,ZBYN 070900Z AUTO 14002KT 7SM 25/16 RMK SLP059 T02530164 57016 IEM_DS3505
ZBYN,1984-09-07 12:00,ZBYN 071200Z AUTO 18002KT 11SM 21/17 RMK SLP063 T02090172 54000 IEM_DS3505
ZBYN,1984-09-07 15:00,ZBYN 071500Z AUTO 29002KT 7SM 18/18 RMK SLP071 T01850175 52011 IEM_DS3505
ZBYN,1984-09-07 18:00,ZBYN 071800Z AUTO 00000KT 6SM 19/18 RMK SLP063 T01860175 40256//// 57002 IEM_DS3505
ZBYN,1984-09-07 21:00,ZBYN 072100Z AUTO 14004KT 6SM 18/16 RMK SLP060 T01850165 57002 IEM_DS3505
ZBYN,1984-09-08 00:00,ZBYN 080000Z AUTO 32002KT 5SM 18/17 RMK 60008 SLP095 T01810166 52024 IEM_DS3505
ZBYN,1984-09-08 03:00,ZBYN 080300Z AUTO 34004KT 9SM 18/13 RMK SLP102 T01850134 52004 IEM_DS3505
ZBYN,1984-09-08 06:00,ZBYN 080600Z AUTO 36002KT 7SM 20/15 RMK 60004 SLP099 T01980153 4////0168 57001 IEM_DS3505
ZBYN,1984-09-08 09:00,ZBYN 080900Z AUTO 00000KT 7SM 20/16 RMK SLP099 T02010163 52001 IEM_DS3505
ZBYN,1984-09-08 12:00,ZBYN 081200Z AUTO 00000KT 6SM 18/16 RMK 60000 SLP117 T01790156 52013 IEM_DS3505
ZBYN,1984-09-08 15:00,ZBYN 081500Z AUTO 00000KT 6SM 16/11 RMK SLP133 T01610113 52012 IEM_DS3505
ZBYN,1984-09-08 18:00,ZBYN 081800Z AUTO 32004KT 6SM 15/09 RMK SLP135 T01460094 40201//// 52001 IEM_DS3505
ZBYN,1984-09-08 21:00,ZBYN 082100Z AUTO 34006KT 9SM 15/08 RMK SLP136 T01500081 52003 IEM_DS3505
ZBYN,1984-09-09 00:00,ZBYN 090000Z AUTO 36006KT 9SM 17/03 RMK SLP146 T01660028 52008 IEM_DS3505
ZBYN,1984-09-09 03:00,ZBYN 090300Z AUTO 32006KT 11SM 19/06 RMK SLP156 T01870060 52009 IEM_DS3505
ZBYN,1984-09-09 06:00,ZBYN 090600Z AUTO 27006KT 14SM 22/03 RMK SLP135 T02160034 4////0130 57017 IEM_DS3505
ZBYN,1984-09-09 09:00,ZBYN 090900Z AUTO 18006KT 16SM 21/10 RMK SLP121 T02070103 57013 IEM_DS3505
ZBYN,1984-09-09 12:00,ZBYN 091200Z AUTO 00000KT 9SM 16/10 RMK SLP132 T01570100 52005 IEM_DS3505
ZBYN,1984-09-09 15:00,ZBYN 091500Z AUTO 00000KT 11SM 14/11 RMK SLP150 T01410111 52017 IEM_DS3505
ZBYN,1984-09-09 18:00,ZBYN 091800Z AUTO 00000KT 6SM 13/12 RMK SLP149 T01320116 52002 IEM_DS3505
ZBYN,1984-09-09 21:00,ZBYN 092100Z AUTO 36002KT 16SM 14/05 RMK SLP161 T01360048 52010 IEM_DS3505
ZBYN,1984-09-10 00:00,ZBYN 100000Z AUTO 34002KT 9SM 14/05 RMK SLP188 T01350054 52018 IEM_DS3505
ZBYN,1984-09-10 03:00,ZBYN 100300Z AUTO 36008KT 19SM 20/02 RMK SLP175 T02010021 57005 IEM_DS3505
ZBYN,1984-09-10 06:00,ZBYN 100600Z AUTO 36004KT 19SM 23/04 RMK SLP157 T02290041 4////0109 57014 IEM_DS3505
ZBYN,1984-09-10 09:00,ZBYN 100900Z AUTO 18002KT 17SM 24/06 RMK SLP144 T02370064 57010 IEM_DS3505
ZBYN,1984-09-10 12:00,ZBYN 101200Z AUTO 00000KT 9SM 14/11 RMK SLP176 T01450113 52015 IEM_DS3505
ZBYN,1984-09-10 15:00,ZBYN 101500Z AUTO 00000KT 9SM 12/09 RMK SLP182 T01170091 52012 IEM_DS3505
ZBYN,1984-09-10 18:00,ZBYN 101800Z AUTO 00000KT 6SM 09/07 RMK SLP186 T00900072 40239//// 52004 IEM_DS3505
ZBYN,1984-09-10 21:00,ZBYN 102100Z AUTO 36002KT 11SM 10/06 RMK SLP190 T00950056 52005 IEM_DS3505
ZBYN,1984-09-11 00:00,ZBYN 110000Z AUTO 14002KT 7SM 11/08 RMK SLP220 T01100077 52016 IEM_DS3505
ZBYN,1984-09-11 01:00,ZBYN 110100Z AUTO 00000KT 6SM 15/08 A3021 RMK T01500080 IEM_DS3505
ZBYN,1984-09-11 02:00,ZBYN 110200Z AUTO 22004KT 7SM 18/08 A3021 RMK T01800080 IEM_DS3505
ZBYN,1984-09-11 03:00,ZBYN 110300Z AUTO 00000KT 7SM 21/05 RMK SLP205 T02060053 57004 IEM_DS3505
ZBYN,1984-09-11 04:00,ZBYN 110400Z AUTO 32010KT 7SM 22/02 A3021 RMK T02200020 IEM_DS3505
ZBYN,1984-09-11 05:00,ZBYN 110500Z AUTO 00000KT 7SM 23/06 A3015 RMK T02300060 IEM_DS3505
ZBYN,1984-09-11 06:00,ZBYN 110600Z AUTO 00000KT 6SM 23/05 A3015 RMK SLP183 T02280051 4////0072 57020 IEM_DS3505
ZBYN,1984-09-11 07:00,ZBYN 110700Z AUTO 00000KT 7SM 24/05 A3012 RMK T02400050 IEM_DS3505
ZBYN,1984-09-11 08:00,ZBYN 110800Z AUTO 00000KT 7SM 24/06 RMK T02400060 IEM_DS3505
ZBYN,1984-09-11 09:00,ZBYN 110900Z AUTO 00000KT 9SM 23/13 RMK SLP175 T02260131 57007 IEM_DS3505
ZBYN,1984-09-11 10:00,ZBYN 111000Z AUTO 36004KT 6SM 21/08 A3012 RMK T02100080 IEM_DS3505
ZBYN,1984-09-11 12:00,ZBYN 111200Z AUTO 32004KT 6SM 15/09 RMK SLP203 T01530094 52016 IEM_DS3505
ZBYN,1984-09-11 15:00,ZBYN 111500Z AUTO 34004KT 9SM 14/06 RMK SLP205 T01370065 52014 IEM_DS3505
ZBYN,1984-09-11 18:00,ZBYN 111800Z AUTO 16004KT 9SM 13/05 RMK SLP202 T01340048 40239//// 54000 IEM_DS3505
ZBYN,1984-09-11 21:00,ZBYN 112100Z AUTO 00000KT 9SM 08/06 RMK T00750062 52001 IEM_DS3505
ZBYN,1984-09-12 00:00,ZBYN 120000Z AUTO 00000KT 6SM 12/08 RMK SLP229 T01190078 52011 IEM_DS3505
ZBYN,1984-09-12 03:00,ZBYN 120300Z AUTO 34002KT 11SM 20/07 RMK SLP211 T01990072 57008 IEM_DS3505
ZBYN,1984-09-12 06:00,ZBYN 120600Z AUTO 29004KT 11SM 23/07 RMK SLP180 T02330068 4////0063 57023 IEM_DS3505
ZBYN,1984-09-12 09:00,ZBYN 120900Z AUTO 00000KT 9SM 24/07 RMK SLP168 T02360072 57018 IEM_DS3505
ZBYN,1984-09-12 12:00,ZBYN 121200Z AUTO 27004KT 11SM 17/09 RMK SLP185 T01740088 52012 IEM_DS3505
ZBYN,1984-09-12 15:00,ZBYN 121500Z AUTO 32004KT 7SM 14/10 RMK SLP182 T01430096 52004 IEM_DS3505
ZBYN,1984-09-12 18:00,ZBYN 121800Z AUTO 00000KT 12SM 12/09 RMK SLP174 T01160088 40241//// 57006 IEM_DS3505
ZBYN,1984-09-12 21:00,ZBYN 122100Z AUTO 34004KT 6SM 12/08 RMK SLP166 T01190078 57007 IEM_DS3505
ZBYN,1984-09-13 00:00,ZBYN 130000Z AUTO 00000KT 5SM 13/09 RMK SLP178 T01290089 52004 IEM_DS3505
ZBYN,1984-09-13 03:00,ZBYN 130300Z AUTO 00000KT 6SM 20/09 RMK SLP165 T02050091 57006 IEM_DS3505
ZBYN,1984-09-13 06:00,ZBYN 130600Z AUTO 00000KT 9SM 23/06 RMK SLP136 T02290062 4////0097 57026 IEM_DS3505
ZBYN,1984-09-13 09:00,ZBYN 130900Z AUTO 22012KT 16SM RMK SLP146 57002 IEM_DS3505
ZBYN,1984-09-13 12:00,ZBYN 131200Z AUTO 00000KT 12SM 13/10 RMK 60002 SLP155 T01290100 52007 IEM_DS3505
ZBYN,1984-09-13 15:00,ZBYN 131500Z AUTO 00000KT 7SM 10/09 RMK SLP152 T01050091 52004 IEM_DS3505
ZBYN,1984-09-13 18:00,ZBYN 131800Z AUTO 00000KT 6SM 09/08 RMK SLP153 T00870081 40245//// 52002 IEM_DS3505
ZBYN,1984-09-13 21:00,ZBYN 132100Z AUTO 00000KT 6SM 08/08 RMK SLP164 T00850081 57001 IEM_DS3505
ZBYN,1984-09-14 00:00,ZBYN 140000Z AUTO 00000KT 5SM 12/09 RMK SLP174 T01180088 52010 IEM_DS3505
ZBYN,1984-09-14 03:00,ZBYN 140300Z AUTO 20004KT 9SM 20/10 RMK SLP162 T01960103 57003 IEM_DS3505
ZBYN,1984-09-14 06:00,ZBYN 140600Z AUTO 18004KT 12SM 23/08 RMK SLP131 T02340081 4////0072 57025 IEM_DS3505
ZBYN,1984-09-14 09:00,ZBYN 140900Z AUTO 00000KT 17SM 20/12 RMK SLP128 T02000122 57008 IEM_DS3505
ZBYN,1984-09-14 12:00,ZBYN 141200Z AUTO 09002KT 9SM 17/08 RMK SLP151 T01670081 52021 IEM_DS3505
ZBYN,1984-09-14 15:00,ZBYN 141500Z AUTO 00000KT 9SM 14/09 RMK SLP158 T01390093 52013 IEM_DS3505
ZBYN,1984-09-14 18:00,ZBYN 141800Z AUTO 34004KT 9SM 12/09 RMK SLP159 T01250091 40239//// 52005 IEM_DS3505
ZBYN,1984-09-14 21:00,ZBYN 142100Z AUTO 34004KT 9SM 11/08 RMK SLP169 T01090082 52002 IEM_DS3505
ZBYN,1984-09-15 00:00,ZBYN 150000Z AUTO 36004KT 9SM 13/08 RMK SLP184 T01300083 52012 IEM_DS3505
ZBYN,1984-09-15 02:00,ZBYN 150200Z AUTO 00000KT 6SM 19/10 A3012 RMK T01900100 IEM_DS3505
ZBYN,1984-09-15 03:00,ZBYN 150300Z AUTO 00000KT 7SM 20/10 A3012 RMK SLP177 T02020104 57001 IEM_DS3505
ZBYN,1984-09-15 04:00,ZBYN 150400Z AUTO 15002KT 7SM 23/11 A3012 RMK T02300110 IEM_DS3505
ZBYN,1984-09-15 05:00,ZBYN 150500Z AUTO 00000KT 7SM 24/11 A3012 RMK T02400110 IEM_DS3505
ZBYN,1984-09-15 06:00,ZBYN 150600Z AUTO 16004KT 9SM 25/12 A3006 RMK SLP153 T02510124 4////0095 57017 IEM_DS3505
ZBYN,1984-09-15 07:00,ZBYN 150700Z AUTO 20004KT 7SM 24/10 A3006 RMK T02400100 IEM_DS3505
ZBYN,1984-09-15 08:00,ZBYN 150800Z AUTO 18004KT 7SM 25/11 A3003 RMK T02500110 IEM_DS3505
ZBYN,1984-09-15 09:00,ZBYN 150900Z AUTO 20004KT 14SM 24/12 A3003 RMK SLP147 T02430117 57008 IEM_DS3505
ZBYN,1984-09-15 12:00,ZBYN 151200Z AUTO 11004KT 6SM 20/11 RMK SLP165 T01950112 52013 IEM_DS3505
ZBYN,1984-09-15 15:00,ZBYN 151500Z AUTO 20002KT 6SM 17/12 RMK SLP174 T01710121 52014 IEM_DS3505
ZBYN,1984-09-15 18:00,ZBYN 151800Z AUTO 00000KT 6SM 14/13 RMK SLP143 T01390126 40251//// 57025 IEM_DS3505
ZBYN,1984-09-15 21:00,ZBYN 152100Z AUTO 09004KT 5SM 14/13 RMK SLP179 T01390126 52032 IEM_DS3505
ZBYN,1984-09-16 00:00,ZBYN 160000Z AUTO 11004KT 5SM 14/13 RMK SLP194 T01440130 52007 IEM_DS3505
ZBYN,1984-09-16 03:00,ZBYN 160300Z AUTO 16004KT 6SM 16/13 RMK SLP202 T01590132 52005 IEM_DS3505
ZBYN,1984-09-16 06:00,ZBYN 160600Z AUTO 18004KT 12SM 18/13 RMK SLP181 T01780130 4////0135 57020 IEM_DS3505
ZBYN,1984-09-16 09:00,ZBYN 160900Z AUTO 16004KT 19SM 20/12 RMK SLP150 T01990121 57025 IEM_DS3505
ZBYN,1984-09-16 12:00,ZBYN 161200Z AUTO 11002KT 7SM 14/11 RMK SLP167 T01380110 52007 IEM_DS3505
ZBYN,1984-09-16 15:00,ZBYN 161500Z AUTO 00000KT 6SM 12/11 RMK SLP172 T01210106 52004 IEM_DS3505
ZBYN,1984-09-16 18:00,ZBYN 161800Z AUTO 00000KT 6SM 09/09 RMK SLP168 T00920090 40200//// 57006 IEM_DS3505
ZBYN,1984-09-16 21:00,ZBYN 162100Z AUTO 00000KT 6SM 10/09 RMK SLP157 T00950091 57005 IEM_DS3505
ZBYN,1984-09-17 00:00,ZBYN 170000Z AUTO 00000KT 4SM 11/11 RMK SLP175 T01110108 52009 IEM_DS3505
ZBYN,1984-09-17 03:00,ZBYN 170300Z AUTO 00000KT 5SM 18/12 RMK SLP168 T01850121 52003 IEM_DS3505
ZBYN,1984-09-17 06:00,ZBYN 170600Z AUTO 25004KT 7SM 23/12 RMK SLP130 T02330117 4////0084 57032 IEM_DS3505
ZBYN,1984-09-17 09:00,ZBYN 170900Z AUTO 25008KT 9SM 20/10 RMK SLP141 T01970104 52004 IEM_DS3505
ZBYN,1984-09-17 12:00,ZBYN 171200Z AUTO 20004KT 9SM 15/12 RMK 60000 SLP175 T01500115 52027 IEM_DS3505
ZBYN,1984-09-17 15:00,ZBYN 171500Z AUTO 02002KT 6SM 14/12 RMK SLP173 T01350119 52007 IEM_DS3505
ZBYN,1984-09-17 18:00,ZBYN 171800Z AUTO 34002KT 5SM 12/11 RMK SLP164 T01250110 40239//// 57003 IEM_DS3505
ZBYN,1984-09-17 21:00,ZBYN 172100Z AUTO 34002KT 5SM 13/10 RMK SLP166 T01330104 57002 IEM_DS3505
ZBYN,1984-09-18 00:00,ZBYN 180000Z AUTO 00000KT 5SM 13/12 RMK 60004 SLP187 T01330120 52012 IEM_DS3505
ZBYN,1984-09-18 03:00,ZBYN 180300Z AUTO 00000KT 6SM 18/11 A3012 RMK SLP178 T01810107 57003 IEM_DS3505
ZBYN,1984-09-18 04:00,ZBYN 180400Z AUTO 33006KT 7SM 20/11 A3012 RMK T02000110 IEM_DS3505
ZBYN,1984-09-18 05:00,ZBYN 180500Z AUTO 03002KT 7SM 21/10 A3006 RMK T02100100 IEM_DS3505
ZBYN,1984-09-18 06:00,ZBYN 180600Z AUTO 18004KT 9SM 22/10 A3003 RMK SLP146 T02170095 4////0120 57026 IEM_DS3505
ZBYN,1984-09-18 07:00,ZBYN 180700Z AUTO 07004KT 7SM 21/08 A3003 RMK T02100080 IEM_DS3505
ZBYN,1984-09-18 08:00,ZBYN 180800Z AUTO 07012KT 7SM 19/10 A3003 RMK T01900100 IEM_DS3505
ZBYN,1984-09-18 09:00,ZBYN 180900Z AUTO 36010KT 9SM 18/10 A3003 RMK SLP152 T01830096 52002 IEM_DS3505
ZBYN,1984-09-18 10:00,ZBYN 181000Z AUTO 33019KT 7SM 15/10 A3006 RMK T01500100 IEM_DS3505
ZBYN,1984-09-18 11:00,ZBYN 181100Z AUTO 00000KT 7SM 13/12 A3006 RMK T01300120 IEM_DS3505
ZBYN,1984-09-18 12:00,ZBYN 181200Z AUTO 09004KT 7SM 12/11 RMK 60020 SLP178 T01170107 52014 IEM_DS3505
ZBYN,1984-09-18 15:00,ZBYN 181500Z AUTO 36004KT 6SM 11/10 RMK SLP178 T01120100 52007 IEM_DS3505
ZBYN,1984-09-18 18:00,ZBYN 181800Z AUTO 34006KT 9SM 10/09 RMK SLP169 T01030089 40219//// 57005 IEM_DS3505
ZBYN,1984-09-18 21:00,ZBYN 182100Z AUTO 00000KT 6SM 09/08 RMK SLP177 T00920082 54000 IEM_DS3505
ZBYN,1984-09-19 00:00,ZBYN 190000Z AUTO 34006KT 6SM 11/08 RMK SLP195 T01110081 52010 IEM_DS3505
ZBYN,1984-09-19 03:00,ZBYN 190300Z AUTO 36002KT 7SM 18/10 RMK SLP187 T01750105 52002 IEM_DS3505
ZBYN,1984-09-19 06:00,ZBYN 190600Z AUTO 18004KT 7SM 21/11 RMK SLP159 T02100113 4////0081 57022 IEM_DS3505
ZBYN,1984-09-19 09:00,ZBYN 190900Z AUTO 18006KT 16SM 22/09 RMK SLP149 T02220090 57009 IEM_DS3505
ZBYN,1984-09-19 12:00,ZBYN 191200Z AUTO 14002KT 11SM 14/11 RMK SLP171 T01350111 52010 IEM_DS3505
ZBYN,1984-09-19 15:00,ZBYN 191500Z AUTO 00000KT 9SM 12/11 RMK SLP178 T01210106 52014 IEM_DS3505
ZBYN,1984-09-19 18:00,ZBYN 191800Z AUTO 34002KT 7SM 12/09 RMK SLP176 T01170093 40221//// 52003 IEM_DS3505
ZBYN,1984-09-19 21:00,ZBYN 192100Z AUTO 34004KT 6SM 12/10 RMK SLP182 T01170095 52007 IEM_DS3505
ZBYN,1984-09-20 00:00,ZBYN 200000Z AUTO 36002KT 5SM 13/10 RMK SLP212 T01280101 52015 IEM_DS3505
ZBYN,1984-09-20 03:00,ZBYN 200300Z AUTO 36004KT 4SM 19/11 RMK SLP203 T01910113 54000 IEM_DS3505
ZBYN,1984-09-20 06:00,ZBYN 200600Z AUTO 22004KT 9SM 23/12 RMK SLP178 T02300115 4////0101 57018 IEM_DS3505
ZBYN,1984-09-20 09:00,ZBYN 200900Z AUTO 20004KT 9SM 22/11 RMK SLP177 T02240107 57002 IEM_DS3505
ZBYN,1984-09-20 12:00,ZBYN 201200Z AUTO 14006KT 9SM 17/12 RMK SLP207 T01730115 52022 IEM_DS3505
ZBYN,1984-09-20 15:00,ZBYN 201500Z AUTO 00000KT 6SM 15/13 RMK SLP212 T01470127 52010 IEM_DS3505
ZBYN,1984-09-20 18:00,ZBYN 201800Z AUTO 00000KT 6SM 15/13 RMK SLP207 T01520128 40238//// 57005 IEM_DS3505
ZBYN,1984-09-20 21:00,ZBYN 202100Z AUTO 34004KT 6SM 15/13 RMK SLP206 T01480132 57003 IEM_DS3505
ZBYN,1984-09-21 00:00,ZBYN 210000Z AUTO 32002KT 4SM 16/14 RMK SLP217 T01590136 52005 IEM_DS3505
ZBYN,1984-09-21 03:00,ZBYN 210300Z AUTO 00000KT 5SM 17/15 RMK SLP228 T01690148 52007 IEM_DS3505
ZBYN,1984-09-21 06:00,ZBYN 210600Z AUTO 18006KT 7SM 21/13 RMK SLP199 T02130128 4////0143 57019 IEM_DS3505
ZBYN,1984-09-21 09:00,ZBYN 210900Z AUTO 00000KT 9SM 20/15 RMK SLP198 T02010148 57004 IEM_DS3505
ZBYN,1984-09-21 12:00,ZBYN 211200Z AUTO 00000KT 6SM 17/15 RMK SLP201 T01730153 IEM_DS3505
ZBYN,1984-09-21 15:00,ZBYN 211500Z AUTO 00000KT 6SM 18/14 RMK SLP200 T01760141 52001 IEM_DS3505
ZBYN,1984-09-21 18:00,ZBYN 211800Z AUTO 14004KT 7SM 16/14 RMK SLP188 T01650137 57006 IEM_DS3505
ZBYN,1984-09-21 21:00,ZBYN 212100Z AUTO 00000KT 5SM 15/14 RMK SLP187 T01540144 57005 IEM_DS3505
ZBYN,1984-09-22 00:00,ZBYN 220000Z AUTO 14004KT 4SM 15/14 RMK 60001 SLP198 T01530143 52007 IEM_DS3505
ZBYN,1984-09-22 02:00,ZBYN 220200Z AUTO 13006KT 4SM 16/14 A3015 RMK T01600140 IEM_DS3505
ZBYN,1984-09-22 03:00,ZBYN 220300Z AUTO 18006KT 4SM 17/15 A3015 RMK SLP192 T01680149 57004 IEM_DS3505
ZBYN,1984-09-22 04:00,ZBYN 220400Z AUTO 18008KT 7SM 18/15 A3015 RMK T01800150 IEM_DS3505
ZBYN,1984-09-22 06:00,ZBYN 220600Z AUTO 22006KT 6SM 19/16 A3012 RMK SLP167 T01860156 4////0147 57021 IEM_DS3505
ZBYN,1984-09-22 07:00,ZBYN 220700Z AUTO 22004KT 7SM 20/16 A3012 RMK T02000160 IEM_DS3505
ZBYN,1984-09-22 08:00,ZBYN 220800Z AUTO 20002KT 6SM 20/16 A3012 RMK T02000160 IEM_DS3505
ZBYN,1984-09-22 09:00,ZBYN 220900Z AUTO 18006KT 6SM 20/16 A3006 RMK SLP149 T01980160 57016 IEM_DS3505
ZBYN,1984-09-22 10:00,ZBYN 221000Z AUTO 20004KT 6SM 20/16 A3006 RMK T02000160 IEM_DS3505
ZBYN,1984-09-22 11:00,ZBYN 221100Z AUTO 00000KT 6SM 18/16 A3006 RMK T01800160 IEM_DS3505
ZBYN,1984-09-22 12:00,ZBYN 221200Z AUTO 22002KT 6SM 18/ RMK 60001 52011 IEM_DS3505
ZBYN,1984-09-22 15:00,ZBYN 221500Z AUTO 00000KT 6SM 16/14 RMK SLP177 T01550139 52010 IEM_DS3505
ZBYN,1984-09-22 18:00,ZBYN 221800Z AUTO 36002KT 6SM 14/12 RMK SLP171 T01390119 40201//// 57005 IEM_DS3505
ZBYN,1984-09-22 21:00,ZBYN 222100Z AUTO 02004KT 9SM 14/10 RMK SLP160 T01390103 57008 IEM_DS3505
ZBYN,1984-09-23 00:00,ZBYN 230000Z AUTO 34002KT 7SM 14/10 RMK SLP167 T01420098 52004 IEM_DS3505
ZBYN,1984-09-23 03:00,ZBYN 230300Z AUTO 34008KT 6SM 18/07 RMK SLP161 T01850072 57003 IEM_DS3505
ZBYN,1984-09-23 06:00,ZBYN 230600Z AUTO 36004KT 7SM 19/09 RMK SLP150 T01940086 4////0129 57011 IEM_DS3505
ZBYN,1984-09-23 09:00,ZBYN 230900Z AUTO 32002KT 7SM 17/12 RMK SLP149 T01710121 57005 IEM_DS3505
ZBYN,1984-09-23 12:00,ZBYN 231200Z AUTO 00000KT 9SM 13/10 RMK 60001 SLP173 T01310103 52017 IEM_DS3505
ZBYN,1984-09-23 15:00,ZBYN 231500Z AUTO 00000KT 6SM 12/10 RMK SLP171 T01250098 52003 IEM_DS3505
ZBYN,1984-09-23 18:00,ZBYN 231800Z AUTO 00000KT 4SM 11/10 RMK SLP174 T01060095 40201//// 52002 IEM_DS3505
ZBYN,1984-09-23 21:00,ZBYN 232100Z AUTO 00000KT 1SM 08/07 RMK SLP186 T00760071 52003 IEM_DS3505
ZBYN,1984-09-24 00:00,ZBYN 240000Z AUTO 00000KT 4SM 10/09 RMK SLP197 T01020094 52008 IEM_DS3505
ZBYN,1984-09-24 03:00,ZBYN 240300Z AUTO 00000KT 5SM 17/10 RMK SLP199 T01680103 52011 IEM_DS3505
ZBYN,1984-09-24 06:00,ZBYN 240600Z AUTO 29002KT 9SM 21/05 RMK SLP171 T02130048 4////0068 57022 IEM_DS3505
ZBYN,1984-09-24 09:00,ZBYN 240900Z AUTO 00000KT 11SM 21/09 RMK SLP168 T02090086 57007 IEM_DS3505
ZBYN,1984-09-24 12:00,ZBYN 241200Z AUTO 11002KT 7SM 14/10 RMK SLP194 T01350105 52016 IEM_DS3505
ZBYN,1984-09-24 15:00,ZBYN 241500Z AUTO 18002KT 6SM 10/07 RMK SLP210 T01030074 52019 IEM_DS3505
ZBYN,1984-09-24 18:00,ZBYN 241800Z AUTO 00000KT 9SM 07/06 RMK SLP219 T00740065 40222//// 52011 IEM_DS3505
ZBYN,1984-09-24 21:00,ZBYN 242100Z AUTO 32002KT 9SM 08/06 RMK SLP222 T00790064 52003 IEM_DS3505
ZBYN,1984-09-25 00:00,ZBYN 250000Z AUTO 07002KT 5SM 11/06 RMK SLP248 T01080059 52016 IEM_DS3505
ZBYN,1984-09-25 02:00,ZBYN 250200Z AUTO 09008KT 6SM 18/M01 A3030 RMK T01801010 IEM_DS3505
ZBYN,1984-09-25 03:00,ZBYN 250300Z AUTO 07006KT 16SM 18/M02 A3030 RMK SLP241 T01821020 52001 IEM_DS3505
ZBYN,1984-09-25 05:00,ZBYN 250500Z AUTO 00000KT 6SM 19/02 A3024 RMK T01900020 IEM_DS3505
ZBYN,1984-09-25 06:00,ZBYN 250600Z AUTO 00000KT 16SM 19/M00 RMK SLP223 T01921003 4////0064 57020 IEM_DS3505
ZBYN,1984-09-25 07:00,ZBYN 250700Z AUTO 00000KT 6SM 20/04 A3021 RMK T02000040 IEM_DS3505
ZBYN,1984-09-25 08:00,ZBYN 250800Z AUTO 00000KT 6SM 16/08 A3021 RMK T01600080 IEM_DS3505
ZBYN,1984-09-25 09:00,ZBYN 250900Z AUTO 25002KT 12SM 18/07 A3021 RMK SLP219 T01770067 57005 IEM_DS3505
ZBYN,1984-09-25 12:00,ZBYN 251200Z AUTO 14008KT 9SM 15/06 RMK SLP231 T01490060 52012 IEM_DS3505
ZBYN,1984-09-25 15:00,ZBYN 251500Z AUTO 20004KT 7SM 13/06 RMK SLP233 T01300065 52010 IEM_DS3505
ZBYN,1984-09-25 18:00,ZBYN 251800Z AUTO 11004KT 7SM 11/07 RMK SLP233 T01100068 40197//// 57002 IEM_DS3505
ZBYN,1984-09-25 21:00,ZBYN 252100Z AUTO 11002KT 7SM 10/07 RMK SLP234 T01030074 57003 IEM_DS3505
ZBYN,1984-09-26 00:00,ZBYN 260000Z AUTO 00000KT 7SM 11/09 RMK SLP240 T01110089 52003 IEM_DS3505
ZBYN,1984-09-26 03:00,ZBYN 260300Z AUTO 34004KT 4SM 13/08 RMK SLP237 T01320083 57003 IEM_DS3505
ZBYN,1984-09-26 06:00,ZBYN 260600Z AUTO 32002KT 5SM 13/10 RMK 60001 SLP217 T01340105 4////0097 57021 IEM_DS3505
ZBYN,1984-09-26 09:00,ZBYN 260900Z AUTO 00000KT 5SM 12/11 RMK SLP221 T01230107 52002 IEM_DS3505
ZBYN,1984-09-26 12:00,ZBYN 261200Z AUTO 09004KT 5SM 10/09 RMK 60024 SLP232 T01030089 52007 IEM_DS3505
ZBYN,1984-09-26 15:00,ZBYN 261500Z AUTO 00000KT 5SM 11/08 RMK SLP233 T01060075 52006 IEM_DS3505
ZBYN,1984-09-26 18:00,ZBYN 261800Z AUTO 32004KT 5SM 10/08 RMK 60001 SLP233 T00960083 40138//// 57002 IEM_DS3505
ZBYN,1984-09-26 21:00,ZBYN 262100Z AUTO 00000KT 9SM 10/07 RMK SLP227 T01000072 57006 IEM_DS3505
ZBYN,1984-09-27 00:00,ZBYN 270000Z AUTO 04002KT 7SM 10/07 RMK SLP237 T01000071 52005 IEM_DS3505
ZBYN,1984-09-27 03:00,ZBYN 270300Z AUTO 00000KT 7SM 10/08 RMK SLP226 T01050078 57008 IEM_DS3505
ZBYN,1984-09-27 06:00,ZBYN 270600Z AUTO 36004KT 4SM 09/07 RMK 60035 SLP227 T00920067 4////0088 57003 IEM_DS3505
ZBYN,1984-09-27 09:00,ZBYN 270900Z AUTO 34006KT 6SM 09/08 RMK SLP218 T00930077 57007 IEM_DS3505
ZBYN,1984-09-27 12:00,ZBYN 271200Z AUTO 34004KT 6SM 08/06 RMK 60012 SLP224 T00850065 52004 IEM_DS3505
ZBYN,1984-09-27 15:00,ZBYN 271500Z AUTO 00000KT 6SM 08/06 RMK SLP229 T00810065 52005 IEM_DS3505
ZBYN,1984-09-27 18:00,ZBYN 271800Z AUTO 00000KT 9SM 08/07 RMK SLP219 T00810069 40107//// 57011 IEM_DS3505
ZBYN,1984-09-27 21:00,ZBYN 272100Z AUTO 00000KT 2 1/2SM 07/06 RMK SLP217 T00710064 57004 IEM_DS3505
ZBYN,1984-09-28 00:00,ZBYN 280000Z AUTO 00000KT 4SM 08/07 RMK SLP211 T00750068 57006 IEM_DS3505
ZBYN,1984-09-28 03:00,ZBYN 280300Z AUTO 18004KT 4SM 10/08 RMK SLP197 T01010078 57009 IEM_DS3505
ZBYN,1984-09-28 06:00,ZBYN 280600Z AUTO 20008KT 9SM 18/09 RMK SLP149 T01840089 4////0054 57031 IEM_DS3505
ZBYN,1984-09-28 09:00,ZBYN 280900Z AUTO 18006KT 9SM 19/08 RMK SLP135 T01910081 57014 IEM_DS3505
ZBYN,1984-09-28 12:00,ZBYN 281200Z AUTO 25006KT 9SM 14/04 RMK SLP158 T01410039 52014 IEM_DS3505
ZBYN,1984-09-28 15:00,ZBYN 281500Z AUTO 14004KT 7SM 08/05 RMK SLP173 T00800053 52009 IEM_DS3505
ZBYN,1984-09-28 18:00,ZBYN 281800Z AUTO 00000KT 4SM 05/05 RMK SLP166 T00540049 40198//// 52003 IEM_DS3505
ZBYN,1984-09-28 21:00,ZBYN 282100Z AUTO 00000KT 1 1/4SM 04/04 RMK SLP170 T00390039 52002 IEM_DS3505
ZBYN,1984-09-29 00:00,ZBYN 290000Z AUTO 00000KT 2SM 08/07 A3012 RMK SLP182 T00810074 52010 IEM_DS3505
ZBYN,1984-09-29 01:00,ZBYN 290100Z AUTO 10004KT 6SM 12/08 A3012 RMK T01200080 IEM_DS3505
ZBYN,1984-09-29 02:00,ZBYN 290200Z AUTO 17006KT 6SM 14/09 A3012 RMK T01400090 IEM_DS3505
ZBYN,1984-09-29 03:00,ZBYN 290300Z AUTO 00000KT 6SM 16/08 A3006 RMK SLP176 T01580080 57003 IEM_DS3505
ZBYN,1984-09-29 04:00,ZBYN 290400Z AUTO 00000KT 6SM 18/10 A3006 RMK T01800100 IEM_DS3505
ZBYN,1984-09-29 05:00,ZBYN 290500Z AUTO 20008KT 6SM 20/10 A3006 RMK T02000100 IEM_DS3505
ZBYN,1984-09-29 06:00,ZBYN 290600Z AUTO 20004KT 7SM 20/10 RMK SLP144 T01970099 4////0033 57027 IEM_DS3505
ZBYN,1984-09-29 09:00,ZBYN 290900Z AUTO 00000KT 9SM 20/12 RMK SLP134 T02010117 57012 IEM_DS3505
ZBYN,1984-09-29 12:00,ZBYN 291200Z AUTO 00000KT 12SM 12/10 RMK SLP150 T01250104 52010 IEM_DS3505
ZBYN,1984-09-29 15:00,ZBYN 291500Z AUTO 14004KT 9SM 12/09 RMK SLP151 T01170091 52011 IEM_DS3505
ZBYN,1984-09-29 18:00,ZBYN 291800Z AUTO 00000KT 6SM 09/08 RMK SLP152 T00860078 40203//// 52002 IEM_DS3505
ZBYN,1984-09-29 21:00,ZBYN 292100Z AUTO 00000KT 5SM 08/07 RMK SLP148 T00790072 57004 IEM_DS3505
ZBYN,1984-09-30 00:00,ZBYN 300000Z AUTO 34002KT 2SM 10/08 RMK SLP157 T00990081 57001 IEM_DS3505
ZBYN,1984-09-30 03:00,ZBYN 300300Z AUTO 00000KT 5SM 16/11 RMK SLP148 T01590107 54000 IEM_DS3505
ZBYN,1984-09-30 06:00,ZBYN 300600Z AUTO 00000KT 6SM 21/10 RMK SLP120 T02110104 4////0077 57022 IEM_DS3505
ZBYN,1984-09-30 09:00,ZBYN 300900Z AUTO 00000KT 6SM 21/13 RMK SLP108 T02140129 57012 IEM_DS3505
ZBYN,1984-09-30 12:00,ZBYN 301200Z AUTO 18004KT 9SM 16/12 RMK SLP132 T01650115 52018 IEM_DS3505
ZBYN,1984-09-30 15:00,ZBYN 301500Z AUTO 11004KT 7SM 12/10 RMK SLP146 T01230095 52015 IEM_DS3505
ZBYN,1984-09-30 18:00,ZBYN 301800Z AUTO 18004KT 5SM 10/09 RMK SLP153 T01050091 40236//// 52012 IEM_DS3505
ZBYN,1984-09-30 21:00,ZBYN 302100Z AUTO 00000KT 5SM 10/09 RMK SLP150 T00960088 57004 IEM_DS3505
ZBYN,1984-10-01 00:00,ZBYN 010000Z AUTO 00000KT 2SM 10/09 RMK SLP167 T01030093 52009 IEM_DS3505
ZBYN,1984-10-01 03:00,ZBYN 010300Z AUTO 34004KT 5SM 17/11 RMK SLP163 T01660106 54000 IEM_DS3505
ZBYN,1984-10-01 06:00,ZBYN 010600Z AUTO 22002KT 9SM 22/08 RMK SLP126 T02250085 4////0078 57028 IEM_DS3505
ZBYN,1984-10-01 09:00,ZBYN 010900Z AUTO 09006KT 12SM 20/08 RMK SLP135 T02010081 52004 IEM_DS3505
ZBYN,1984-10-01 12:00,ZBYN 011200Z AUTO 34002KT 7SM 17/09 RMK SLP156 T01690093 52015 IEM_DS3505
ZBYN,1984-10-01 15:00,ZBYN 011500Z AUTO 09010KT 7SM 15/10 RMK SLP162 T01500099 52012 IEM_DS3505
ZBYN,1984-10-01 18:00,ZBYN 011800Z AUTO 29002KT 5SM 12/10 RMK SLP155 T01210104 40226//// 57002 IEM_DS3505
ZBYN,1984-10-01 21:00,ZBYN 012100Z AUTO 32012KT 9SM 14/04 RMK SLP175 T01350036 52017 IEM_DS3505
ZBYN,1984-10-02 00:00,ZBYN 020000Z AUTO 32010KT 12SM 13/03 RMK SLP196 T01300026 52014 IEM_DS3505
ZBYN,1984-10-02 03:00,ZBYN 020300Z AUTO 29004KT 16SM 13/M03 A3024 RMK SLP217 T01321034 52017 IEM_DS3505
ZBYN,1984-10-02 04:00,ZBYN 020400Z AUTO 28012KT 6SM 14/M03 A3024 RMK T01401030 IEM_DS3505
ZBYN,1984-10-02 05:00,ZBYN 020500Z AUTO 28014KT 6SM 14/M04 A3021 RMK T01401040 IEM_DS3505
ZBYN,1984-10-02 06:00,ZBYN 020600Z AUTO 25004KT 16SM 14/M04 A3021 RMK SLP212 T01361039 4////0101 57009 IEM_DS3505
ZBYN,1984-10-02 07:00,ZBYN 020700Z AUTO 29008KT 6SM RMK IEM_DS3505
ZBYN,1984-10-02 08:00,ZBYN 020800Z AUTO 26010KT 6SM 14/M03 A3021 RMK T01401030 IEM_DS3505
ZBYN,1984-10-02 09:00,ZBYN 020900Z AUTO 27006KT 16SM 12/M04 RMK SLP220 T01231039 52008 IEM_DS3505
ZBYN,1984-10-02 12:00,ZBYN 021200Z AUTO 34008KT 9SM 12/M06 RMK SLP240 T01211055 52017 IEM_DS3505
ZBYN,1984-10-02 15:00,ZBYN 021500Z AUTO 32008KT 9SM 11/M05 RMK SLP263 T01091052 52019 IEM_DS3505
ZBYN,1984-10-02 18:00,ZBYN 021800Z AUTO 32006KT 9SM 10/M04 RMK SLP269 T01001039 40144//// 52005 IEM_DS3505
ZBYN,1984-10-02 21:00,ZBYN 022100Z AUTO 32004KT 9SM 08/M03 RMK SLP274 T00821034 54000 IEM_DS3505
ZBYN,1984-10-03 00:00,ZBYN 030000Z AUTO 34004KT 12SM 08/M04 RMK SLP283 T00801037 52008 IEM_DS3505
ZBYN,1984-10-03 03:00,ZBYN 030300Z AUTO 32002KT 16SM 12/M05 RMK SLP281 T01171052 52002 IEM_DS3505
ZBYN,1984-10-03 06:00,ZBYN 030600Z AUTO 32012KT 19SM 16/M07 RMK SLP243 T01571068 4////0064 57030 IEM_DS3505
ZBYN,1984-10-03 09:00,ZBYN 030900Z AUTO 29012KT 19SM 14/M07 RMK SLP241 T01421072 57008 IEM_DS3505
ZBYN,1984-10-03 12:00,ZBYN 031200Z AUTO 27002KT 12SM 07/M01 RMK SLP268 T00691010 52013 IEM_DS3505
ZBYN,1984-10-03 15:00,ZBYN 031500Z AUTO 00000KT 12SM 02/00 RMK SLP280 T00190001 52009 IEM_DS3505
ZBYN,1984-10-03 18:00,ZBYN 031800Z AUTO 00000KT 9SM RMK SLP279 40157//// 52002 IEM_DS3505
ZBYN,1984-10-03 21:00,ZBYN 032100Z AUTO 00000KT 12SM M01/M03 RMK SLP282 T10121028 57001 IEM_DS3505
ZBYN,1984-10-04 00:00,ZBYN 040000Z AUTO 00000KT 7SM 03/00 RMK SLP295 T00270001 52006 IEM_DS3505
ZBYN,1984-10-04 03:00,ZBYN 040300Z AUTO 18004KT 6SM 13/M01 RMK SLP276 T01291013 57009 IEM_DS3505
ZBYN,1984-10-04 06:00,ZBYN 040600Z AUTO 18006KT 19SM 18/M04 RMK SLP237 T01751039 4////1022 57031 IEM_DS3505
ZBYN,1984-10-04 09:00,ZBYN 040900Z AUTO 18004KT 19SM 17/M04 RMK SLP223 T01691045 57015 IEM_DS3505
ZBYN,1984-10-04 12:00,ZBYN 041200Z AUTO 00000KT 7SM 06/02 RMK T00650024 52013 IEM_DS3505
ZBYN,1984-10-04 15:00,ZBYN 041500Z AUTO 14002KT 7SM 03/00 RMK SLP244 T00330001 52007 IEM_DS3505
ZBYN,1984-10-04 18:00,ZBYN 041800Z AUTO 00000KT 7SM 01/M01 RMK SLP243 T00111013 40182//// 52003 IEM_DS3505
ZBYN,1984-10-04 21:00,ZBYN 042100Z AUTO 32004KT 5SM M00/M01 RMK SLP241 T10051008 57006 IEM_DS3505
ZBYN,1984-10-05 00:00,ZBYN 050000Z AUTO 00000KT 2SM 02/01 RMK SLP268 T00190008 52012 IEM_DS3505
ZBYN,1984-10-05 03:00,ZBYN 050300Z AUTO 00000KT 6SM 14/M01 RMK SLP249 T01411013 57003 IEM_DS3505
ZBYN,1984-10-05 06:00,ZBYN 050600Z AUTO 20006KT 12SM 19/M03 RMK SLP213 T01901034 4////1016 57029 IEM_DS3505
ZBYN,1984-10-05 09:00,ZBYN 050900Z AUTO 18002KT 12SM 19/M02 RMK SLP202 T01911015 57012 IEM_DS3505
ZBYN,1984-10-05 12:00,ZBYN 051200Z AUTO 00000KT 7SM 08/03 RMK SLP230 T00790032 52012 IEM_DS3505
ZBYN,1984-10-05 15:00,ZBYN 051500Z AUTO 00000KT 7SM 04/02 RMK SLP232 T00380018 52015 IEM_DS3505
ZBYN,1984-10-05 18:00,ZBYN 051800Z AUTO 00000KT 6SM 02/01 RMK SLP231 T00210010 40197//// 52003 IEM_DS3505
ZBYN,1984-10-05 21:00,ZBYN 052100Z AUTO 00000KT 4SM 01/00 RMK SLP234 T00100004 52001 IEM_DS3505
ZBYN,1984-10-06 00:00,ZBYN 060000Z AUTO 00000KT 4SM 04/02 RMK SLP257 T00360022 52008 IEM_DS3505
ZBYN,1984-10-06 02:00,ZBYN 060200Z AUTO 00000KT 7SM 14/01 A3024 RMK T01400010 IEM_DS3505
ZBYN,1984-10-06 03:00,ZBYN 060300Z AUTO 00000KT 5SM 15/00 A3024 RMK SLP238 T01530004 57005 IEM_DS3505
ZBYN,1984-10-06 04:00,ZBYN 060400Z AUTO 13006KT 7SM 18/03 A3021 RMK T01800030 IEM_DS3505
ZBYN,1984-10-06 05:00,ZBYN 060500Z AUTO 14006KT 7SM 20/03 A3012 RMK T02000030 IEM_DS3505
ZBYN,1984-10-06 06:00,ZBYN 060600Z AUTO 22006KT 9SM 21/01 A3012 RMK SLP195 T02080012 4////1001 57034 IEM_DS3505
ZBYN,1984-10-06 07:00,ZBYN 060700Z AUTO 22014KT 7SM 22/02 A3006 RMK T02200020 IEM_DS3505
ZBYN,1984-10-06 09:00,ZBYN 060900Z AUTO 18002KT 9SM 21/02 A3006 RMK SLP182 T02100020 57014 IEM_DS3505
ZBYN,1984-10-06 12:00,ZBYN 061200Z AUTO 00000KT 9SM 10/06 RMK SLP204 T01050060 52009 IEM_DS3505
ZBYN,1984-10-06 15:00,ZBYN 061500Z AUTO 00000KT 11SM 07/04 RMK SLP207 T00740044 52016 IEM_DS3505
ZBYN,1984-10-06 18:00,ZBYN 061800Z AUTO 00000KT 5SM 05/04 RMK SLP203 T00480036 40213//// 54000 IEM_DS3505
ZBYN,1984-10-06 21:00,ZBYN 062100Z AUTO 00000KT 6SM 05/04 RMK SLP204 T00470037 54000 IEM_DS3505
ZBYN,1984-10-07 00:00,ZBYN 070000Z AUTO 00000KT 5SM 07/06 RMK SLP220 T00720056 52005 IEM_DS3505
ZBYN,1984-10-07 03:00,ZBYN 070300Z AUTO 14002KT 5SM 17/05 RMK SLP200 T01710054 57008 IEM_DS3505
ZBYN,1984-10-07 06:00,ZBYN 070600Z AUTO 18006KT 9SM 21/04 RMK SLP168 T02130041 4////0035 57028 IEM_DS3505
ZBYN,1984-10-07 09:00,ZBYN 070900Z AUTO 20002KT 16SM 20/05 RMK SLP160 T01950053 57010 IEM_DS3505
ZBYN,1984-10-07 12:00,ZBYN 071200Z AUTO 14006KT 11SM 15/03 RMK SLP177 T01490032 52013 IEM_DS3505
ZBYN,1984-10-07 15:00,ZBYN 071500Z AUTO 00000KT 9SM 10/05 RMK SLP192 T01040054 52021 IEM_DS3505
ZBYN,1984-10-07 18:00,ZBYN 071800Z AUTO 00000KT 7SM 07/04 RMK SLP195 T00690036 40220//// 52005 IEM_DS3505
ZBYN,1984-10-07 21:00,ZBYN 072100Z AUTO 00000KT 6SM 05/03 RMK SLP200 T00480034 57002 IEM_DS3505
ZBYN,1984-10-08 00:00,ZBYN 080000Z AUTO 00000KT 5SM 08/05 RMK SLP214 T00750048 52010 IEM_DS3505
ZBYN,1984-10-08 03:00,ZBYN 080300Z AUTO 22004KT 4SM 16/05 RMK SLP203 T01640054 57004 IEM_DS3505
ZBYN,1984-10-08 06:00,ZBYN 080600Z AUTO 16004KT 16SM 20/04 RMK SLP179 T02040036 4////0033 57021 IEM_DS3505
ZBYN,1984-10-08 09:00,ZBYN 080900Z AUTO 00000KT 12SM 20/07 RMK SLP172 T01980071 57010 IEM_DS3505
ZBYN,1984-10-08 12:00,ZBYN 081200Z AUTO 00000KT 9SM 14/07 RMK SLP188 T01410069 52009 IEM_DS3505
ZBYN,1984-10-08 15:00,ZBYN 081500Z AUTO 00000KT 9SM 11/07 RMK SLP200 T01130067 52021 IEM_DS3505
ZBYN,1984-10-08 18:00,ZBYN 081800Z AUTO 00000KT 9SM 07/06 RMK SLP204 T00740059 40213//// 52004 IEM_DS3505
ZBYN,1984-10-08 21:00,ZBYN 082100Z AUTO 00000KT 4SM 06/05 RMK SLP210 T00560051 52002 IEM_DS3505
ZBYN,1984-10-09 00:00,ZBYN 090000Z AUTO 00000KT 5SM 09/05 RMK SLP221 T00910053 52007 IEM_DS3505
ZBYN,1984-10-09 03:00,ZBYN 090300Z AUTO 18002KT 5SM 17/06 RMK SLP213 T01690056 54000 IEM_DS3505
ZBYN,1984-10-09 06:00,ZBYN 090600Z AUTO 18004KT 9SM 22/08 RMK SLP175 T02240083 4////0049 57032 IEM_DS3505
ZBYN,1984-10-09 09:00,ZBYN 090900Z AUTO 20004KT 11SM 22/10 RMK SLP171 T02250096 57006 IEM_DS3505
ZBYN,1984-10-09 12:00,ZBYN 091200Z AUTO 11004KT 12SM 13/09 RMK SLP190 T01330094 52008 IEM_DS3505
ZBYN,1984-10-09 15:00,ZBYN 091500Z AUTO 11004KT 9SM 12/08 RMK SLP199 T01200077 52018 IEM_DS3505
ZBYN,1984-10-09 18:00,ZBYN 091800Z AUTO 00000KT 11SM 09/07 RMK SLP206 T00870068 40238//// 52010 IEM_DS3505
ZBYN,1984-10-09 21:00,ZBYN 092100Z AUTO 00000KT 4SM 07/06 RMK SLP211 T00670065 IEM_DS3505
ZBYN,1984-10-10 00:00,ZBYN 100000Z AUTO 00000KT 3SM 09/08 RMK SLP227 T00890082 52004 IEM_DS3505
ZBYN,1984-10-10 03:00,ZBYN 100300Z AUTO 11004KT 4SM 18/08 RMK SLP210 T01810082 57004 IEM_DS3505
ZBYN,1984-10-10 06:00,ZBYN 100600Z AUTO 16006KT 9SM 21/07 RMK SLP181 T02130072 4////0054 57026 IEM_DS3505
ZBYN,1984-10-10 09:00,ZBYN 100900Z AUTO 14006KT 19SM 20/08 RMK SLP178 T02050081 57008 IEM_DS3505
ZBYN,1984-10-10 12:00,ZBYN 101200Z AUTO 11006KT 7SM 15/08 RMK SLP198 T01520077 52014 IEM_DS3505
ZBYN,1984-10-10 15:00,ZBYN 101500Z AUTO 00000KT 6SM 11/08 RMK SLP209 T01110085 52018 IEM_DS3505
ZBYN,1984-10-10 18:00,ZBYN 101800Z AUTO 14002KT 5SM 09/08 RMK SLP190 T00920075 57019 IEM_DS3505
ZBYN,1984-10-11 00:00,ZBYN 110000Z AUTO 00000KT 4SM 11/10 RMK SLP212 T01070095 52013 IEM_DS3505
ZBYN,1984-10-11 03:00,ZBYN 110300Z AUTO 00000KT 4SM 12/11 RMK SLP220 T01180111 52003 IEM_DS3505
ZBYN,1984-10-11 06:00,ZBYN 110600Z AUTO 00000KT 4SM 12/12 RMK 60020 SLP198 T01240116 4////0086 57018 IEM_DS3505
ZBYN,1984-10-11 09:00,ZBYN 110900Z AUTO 00000KT 4SM 12/09 RMK SLP224 T01200093 52019 IEM_DS3505
ZBYN,1984-10-11 12:00,ZBYN 111200Z AUTO 22002KT 12SM 11/08 RMK 60024 SLP254 T01080083 52027 IEM_DS3505
ZBYN,1984-10-11 15:00,ZBYN 111500Z AUTO 32010KT 12SM 10/04 RMK SLP265 T01050037 52012 IEM_DS3505
ZBYN,1984-10-11 18:00,ZBYN 111800Z AUTO 32006KT 16SM 09/01 RMK SLP278 T00890014 40125//// 52011 IEM_DS3505
ZBYN,1984-10-11 21:00,ZBYN 112100Z AUTO 02004KT 12SM 04/03 RMK SLP287 T00420034 54000 IEM_DS3505
ZBYN,1984-10-12 00:00,ZBYN 120000Z AUTO 32004KT 5SM 06/04 RMK SLP306 T00570043 52018 IEM_DS3505
ZBYN,1984-10-12 03:00,ZBYN 120300Z AUTO 29004KT 7SM 13/02 RMK SLP296 T01270018 52001 IEM_DS3505
ZBYN,1984-10-12 06:00,ZBYN 120600Z AUTO 16004KT 6SM 16/M01 RMK SLP260 T01551010 4////0034 57026 IEM_DS3505
ZBYN,1984-10-12 09:00,ZBYN 120900Z AUTO 20002KT 9SM 14/03 RMK SLP258 T01350026 57017 IEM_DS3505
ZBYN,1984-10-12 12:00,ZBYN 121200Z AUTO 14004KT 7SM 08/03 RMK SLP269 T00810028 52004 IEM_DS3505
ZBYN,1984-10-12 15:00,ZBYN 121500Z AUTO 00000KT 6SM RMK SLP262 52002 IEM_DS3505
ZBYN,1984-10-12 18:00,ZBYN 121800Z AUTO 00000KT 5SM 03/02 RMK SLP260 T00320024 40158//// 57003 IEM_DS3505
ZBYN,1984-10-12 21:00,ZBYN 122100Z AUTO 00000KT 1 1/4SM 01/01 RMK SLP254 T00140010 57012 IEM_DS3505
ZBYN,1984-10-13 00:00,ZBYN 130000Z AUTO 00000KT 3SM 04/03 RMK SLP277 T00350030 52016 IEM_DS3505
ZBYN,1984-10-13 02:00,ZBYN 130200Z AUTO 00000KT 5SM 10/04 A3030 RMK T01000040 IEM_DS3505
ZBYN,1984-10-13 03:00,ZBYN 130300Z AUTO 16004KT 5SM 12/04 RMK SLP243 T01200037 57019 IEM_DS3505
ZBYN,1984-10-13 04:00,ZBYN 130400Z AUTO 00000KT 7SM 14/04 A3024 RMK T01400040 IEM_DS3505
ZBYN,1984-10-13 05:00,ZBYN 130500Z AUTO 00000KT 7SM 16/05 A3021 RMK T01600050 IEM_DS3505
ZBYN,1984-10-13 06:00,ZBYN 130600Z AUTO 18006KT 7SM 16/04 A3021 RMK SLP215 T01630036 4////1001 57025 IEM_DS3505
ZBYN,1984-10-13 07:00,ZBYN 130700Z AUTO 19004KT 7SM 17/04 A3015 RMK T01700040 IEM_DS3505
ZBYN,1984-10-13 08:00,ZBYN 130800Z AUTO 19006KT 7SM 18/04 A3012 RMK T01800040 IEM_DS3505
ZBYN,1984-10-13 09:00,ZBYN 130900Z AUTO 16002KT 7SM 16/05 A3012 RMK SLP207 T01650048 57009 IEM_DS3505
ZBYN,1984-10-13 10:00,ZBYN 131000Z AUTO 00000KT 7SM 14/07 A3012 RMK T01400070 IEM_DS3505
ZBYN,1984-10-13 11:00,ZBYN 131100Z AUTO 00000KT 7SM 11/07 A3015 RMK T01100070 IEM_DS3505
ZBYN,1984-10-13 12:00,ZBYN 131200Z AUTO 00000KT 7SM 08/06 RMK SLP228 T00810060 52007 IEM_DS3505
ZBYN,1984-10-13 15:00,ZBYN 131500Z AUTO 00000KT 2SM 06/05 RMK SLP233 T00550048 52016 IEM_DS3505
ZBYN,1984-10-13 18:00,ZBYN 131800Z AUTO 34002KT 1/8SM 04/04 RMK SLP230 T00380037 40172//// 52001 IEM_DS3505
ZBYN,1984-10-13 21:00,ZBYN 132100Z AUTO 36004KT 6SM 06/03 RMK SLP223 T00550026 57004 IEM_DS3505
ZBYN,1984-10-14 00:00,ZBYN 140000Z AUTO 00000KT 5SM 05/03 RMK SLP250 T00530028 52012 IEM_DS3505
ZBYN,1984-10-14 03:00,ZBYN 140300Z AUTO 36002KT 5SM 16/M04 RMK SLP233 T01551037 57005 IEM_DS3505
ZBYN,1984-10-14 06:00,ZBYN 140600Z AUTO 11004KT 9SM 22/M01 RMK SLP195 T02231008 4////0029 57026 IEM_DS3505
ZBYN,1984-10-14 09:00,ZBYN 140900Z AUTO 00000KT 16SM 21/02 RMK SLP188 T02090021 57006 IEM_DS3505
ZBYN,1984-10-14 12:00,ZBYN 141200Z AUTO 09008KT 11SM 16/03 RMK SLP222 T01590030 52023 IEM_DS3505
ZBYN,1984-10-14 15:00,ZBYN 141500Z AUTO 00000KT 9SM 09/05 RMK SLP224 T00890054 52007 IEM_DS3505
ZBYN,1984-10-14 18:00,ZBYN 141800Z AUTO 00000KT 6SM 05/04 RMK SLP221 T00520043 40223//// 52001 IEM_DS3505
ZBYN,1984-10-14 21:00,ZBYN 142100Z AUTO 00000KT 4SM 04/04 RMK SLP220 T00390036 57004 IEM_DS3505
ZBYN,1984-10-15 00:00,ZBYN 150000Z AUTO 00000KT 4SM 05/04 RMK SLP237 T00530043 52010 IEM_DS3505
ZBYN,1984-10-15 03:00,ZBYN 150300Z AUTO 20004KT 4SM 14/07 RMK SLP222 T01350069 57012 IEM_DS3505
ZBYN,1984-10-15 06:00,ZBYN 150600Z AUTO 18006KT 6SM 19/07 RMK SLP186 T01860072 4////0025 57030 IEM_DS3505
ZBYN,1984-10-15 09:00,ZBYN 150900Z AUTO 16004KT 7SM 17/08 RMK SLP183 T01660080 57008 IEM_DS3505
ZBYN,1984-10-15 12:00,ZBYN 151200Z AUTO 00000KT 9SM 13/09 RMK SLP199 T01280090 52011 IEM_DS3505
ZBYN,1984-10-15 15:00,ZBYN 151500Z AUTO 32006KT 9SM 15/03 RMK SLP200 T01510032 52017 IEM_DS3505
ZBYN,1984-10-15 18:00,ZBYN 151800Z AUTO 29010KT 7SM 12/M04 RMK T01251043 40186//// 52009 IEM_DS3505
ZBYN,1984-10-15 21:00,ZBYN 152100Z AUTO 34002KT 12SM 08/M01 RMK SLP219 T00791013 52002 IEM_DS3505
ZBYN,1984-10-16 00:00,ZBYN 160000Z AUTO 00000KT 16SM 07/01 RMK SLP234 T00680012 52005 IEM_DS3505
ZBYN,1984-10-16 01:00,ZBYN 160100Z AUTO 10004KT 7SM 11/02 A3024 RMK T01100020 IEM_DS3505
ZBYN,1984-10-16 02:00,ZBYN 160200Z AUTO 20006KT 7SM 14/00 A3024 RMK T01400000 IEM_DS3505
ZBYN,1984-10-16 03:00,ZBYN 160300Z AUTO 18006KT 16SM 15/M02 A3021 RMK SLP207 T01521020 57008 IEM_DS3505
ZBYN,1984-10-16 05:00,ZBYN 160500Z AUTO 23014KT 6SM 18/M01 A3012 RMK T01801010 IEM_DS3505
ZBYN,1984-10-16 06:00,ZBYN 160600Z AUTO 18008KT 12SM 19/M03 A3015 RMK SLP171 T01861034 4////0023 57031 IEM_DS3505
ZBYN,1984-10-16 07:00,ZBYN 160700Z AUTO 22014KT 6SM 18/M01 A3006 RMK T01801010 IEM_DS3505
ZBYN,1984-10-16 08:00,ZBYN 160800Z AUTO 21006KT 6SM 18/01 A3006 RMK T01800010 IEM_DS3505
ZBYN,1984-10-16 09:00,ZBYN 160900Z AUTO 27006KT 12SM 18/M10 RMK SLP166 T01811096 57012 IEM_DS3505
ZBYN,1984-10-16 10:00,ZBYN 161000Z AUTO 25006KT 6SM 14/M02 A3006 RMK T01401020 IEM_DS3505
ZBYN,1984-10-16 11:00,ZBYN 161100Z AUTO 27006KT 7SM 11/02 A3012 RMK T01100020 IEM_DS3505
ZBYN,1984-10-16 12:00,ZBYN 161200Z AUTO 32004KT 9SM 11/M02 A3012 RMK SLP196 T01131020 52015 IEM_DS3505
ZBYN,1984-10-16 13:00,ZBYN 161300Z AUTO 36002KT 7SM 10/M01 A3012 RMK T01001010 IEM_DS3505
ZBYN,1984-10-16 15:00,ZBYN 161500Z AUTO 00000KT 7SM 06/M00 RMK SLP198 T00621001 52006 IEM_DS3505
ZBYN,1984-10-16 18:00,ZBYN 161800Z AUTO 14002KT 7SM 06/M01 RMK SLP188 T00561008 40192//// 57004 IEM_DS3505
ZBYN,1984-10-16 21:00,ZBYN 162100Z AUTO 00000KT 6SM 02/M01 RMK SLP193 T00171006 57002 IEM_DS3505
ZBYN,1984-10-17 00:00,ZBYN 170000Z AUTO 00000KT 12SM 03/00 RMK SLP212 T00310001 52008 IEM_DS3505
ZBYN,1984-10-17 03:00,ZBYN 170300Z AUTO 18004KT 5SM 14/M00 RMK SLP194 T01431003 57004 IEM_DS3505
ZBYN,1984-10-17 06:00,ZBYN 170600Z AUTO 20006KT 7SM 20/M04 RMK SLP161 T01991039 4////0004 57023 IEM_DS3505
ZBYN,1984-10-17 09:00,ZBYN 170900Z AUTO 16002KT 9SM 19/M03 RMK SLP157 T01931028 57011 IEM_DS3505
ZBYN,1984-10-17 12:00,ZBYN 171200Z AUTO 18002KT 9SM 08/01 RMK SLP196 T00830012 52021 IEM_DS3505
ZBYN,1984-10-17 15:00,ZBYN 171500Z AUTO 00000KT 7SM 05/01 RMK SLP201 T00510006 52017 IEM_DS3505
ZBYN,1984-10-17 18:00,ZBYN 171800Z AUTO 00000KT 7SM 02/M00 RMK SLP199 T00191003 40206//// 52002 IEM_DS3505
ZBYN,1984-10-17 21:00,ZBYN 172100Z AUTO 00000KT 5SM 00/00 RMK SLP207 T00040001 52005 IEM_DS3505
ZBYN,1984-10-18 00:00,ZBYN 180000Z AUTO 00000KT 4SM 01/M00 RMK SLP236 T00141001 52011 IEM_DS3505
ZBYN,1984-10-18 03:00,ZBYN 180300Z AUTO 14004KT 6SM 14/00 RMK SLP223 T01440001 52002 IEM_DS3505
ZBYN,1984-10-18 06:00,ZBYN 180600Z AUTO 18006KT 7SM 19/M00 RMK SLP184 T01901003 4////1002 57032 IEM_DS3505
ZBYN,1984-10-18 09:00,ZBYN 180900Z AUTO 20006KT 9SM 20/M00 RMK SLP172 T02051001 57012 IEM_DS3505
ZBYN,1984-10-18 11:00,ZBYN 181100Z AUTO 29004KT 16SM 13/M01 RMK SLP201 T01311008 52017 IEM_DS3505
ZBYN,1984-10-18 12:00,ZBYN 181200Z AUTO 29004KT 16SM 13/M01 RMK SLP201 T01311008 52017 IEM_DS3505
ZBYN,1984-10-18 15:00,ZBYN 181500Z AUTO 32010KT 12SM 15/M14 RMK SLP208 T01481135 52029 IEM_DS3505
ZBYN,1984-10-18 18:00,ZBYN 181800Z AUTO 34002KT 11SM 12/M08 RMK SLP218 T01171076 40207//// 52012 IEM_DS3505
ZBYN,1984-10-18 21:00,ZBYN 182100Z AUTO 32012KT 12SM 08/ RMK SLP247 52020 IEM_DS3505
ZBYN,1984-10-19 00:00,ZBYN 190000Z AUTO 32002KT 19SM 07/M04 RMK SLP289 T00661045 52024 IEM_DS3505
ZBYN,1984-10-19 03:00,ZBYN 190300Z AUTO 29008KT 16SM 12/M10 RMK SLP279 T01151100 52001 IEM_DS3505
ZBYN,1984-10-19 06:00,ZBYN 190600Z AUTO 34008KT 19SM 15/M14 RMK SLP259 T01511141 4////0049 57018 IEM_DS3505
ZBYN,1984-10-19 09:00,ZBYN 190900Z AUTO 32006KT 19SM 14/M12 RMK SLP266 T01441119 52001 IEM_DS3505
ZBYN,1984-10-19 12:00,ZBYN 191200Z AUTO 00000KT 12SM 05/M02 RMK SLP311 T00491023 52023 IEM_DS3505
ZBYN,1984-10-19 15:00,ZBYN 191500Z AUTO 00000KT 12SM 02/M02 RMK SLP319 T00181023 52011 IEM_DS3505
ZBYN,1984-10-19 18:00,ZBYN 191800Z AUTO 00000KT 6SM M01/M03 RMK SLP322 T10121034 40176//// 52003 IEM_DS3505
ZBYN,1984-10-19 21:00,ZBYN 192100Z AUTO 00000KT 9SM M02/M03 RMK SLP319 T10231031 57005 IEM_DS3505
ZBYN,1984-10-20 00:00,ZBYN 200000Z AUTO 00000KT 16SM 01/M04 RMK SLP336 T00061045 52004 IEM_DS3505
ZBYN,1984-10-20 02:00,ZBYN 200200Z AUTO 15006KT 7SM 09/M04 A3042 RMK T00901040 IEM_DS3505
ZBYN,1984-10-20 03:00,ZBYN 200300Z AUTO 20006KT 7SM 12/M05 A3042 RMK SLP301 T01191052 57018 IEM_DS3505
ZBYN,1984-10-20 04:00,ZBYN 200400Z AUTO 20014KT 7SM 15/M05 A3039 RMK T01501050 IEM_DS3505
ZBYN,1984-10-20 05:00,ZBYN 200500Z AUTO 22014KT 7SM 17/M06 A3033 RMK T01701060 IEM_DS3505
ZBYN,1984-10-20 06:00,ZBYN 200600Z AUTO 20010KT 19SM 18/M04 A3030 RMK SLP257 T01841042 4////1035 57034 IEM_DS3505
ZBYN,1984-10-20 07:00,ZBYN 200700Z AUTO 21012KT 7SM 19/M05 A3024 RMK T01901050 IEM_DS3505
ZBYN,1984-10-20 08:00,ZBYN 200800Z AUTO 20010KT 7SM 19/M06 A3024 RMK T01901060 IEM_DS3505
ZBYN,1984-10-20 09:00,ZBYN 200900Z AUTO 22004KT 19SM 19/M01 RMK SLP238 T01931010 57019 IEM_DS3505
ZBYN,1984-10-20 10:00,ZBYN 201000Z AUTO 24008KT 7SM 15/M03 A3021 RMK T01501030 IEM_DS3505
ZBYN,1984-10-20 12:00,ZBYN 201200Z AUTO 36002KT 12SM 09/M01 RMK SLP259 T00881013 52008 IEM_DS3505
ZBYN,1984-10-20 15:00,ZBYN 201500Z AUTO 11004KT 9SM 05/M04 RMK SLP257 T00501037 52010 IEM_DS3505
ZBYN,1984-10-20 18:00,ZBYN 201800Z AUTO 25002KT 6SM 01/M02 RMK SLP252 T00091023 40193//// 57001 IEM_DS3505
ZBYN,1984-10-20 21:00,ZBYN 202100Z AUTO 00000KT 7SM M01/M02 RMK SLP241 T10091023 57012 IEM_DS3505
ZBYN,1984-10-21 00:00,ZBYN 210000Z AUTO 00000KT 5SM M00/M02 RMK SLP258 T10051020 54000 IEM_DS3505
ZBYN,1984-10-21 03:00,ZBYN 210300Z AUTO 00000KT 6SM 13/M03 RMK SLP228 T01261034 57013 IEM_DS3505
ZBYN,1984-10-21 06:00,ZBYN 210600Z AUTO 18008KT 6SM 18/M02 RMK SLP184 T01851018 4////1022 57037 IEM_DS3505
ZBYN,1984-10-21 09:00,ZBYN 210900Z AUTO 00000KT 6SM 18/02 RMK SLP175 T01810022 57011 IEM_DS3505
ZBYN,1984-10-21 12:00,ZBYN 211200Z AUTO 29002KT 9SM 12/M05 RMK SLP197 T01251048 52011 IEM_DS3505
ZBYN,1984-10-21 15:00,ZBYN 211500Z AUTO 00000KT 7SM 05/01 RMK SLP193 T00480006 52005 IEM_DS3505
ZBYN,1984-10-21 18:00,ZBYN 211800Z AUTO 34002KT 7SM 04/M03 RMK SLP171 T00391028 40192//// 57012 IEM_DS3505
ZBYN,1984-10-21 21:00,ZBYN 212100Z AUTO 34004KT 6SM 00/M02 RMK SLP167 T00011020 57010 IEM_DS3505
ZBYN,1984-10-22 00:00,ZBYN 220000Z AUTO 00000KT 4SM 02/M00 RMK SLP184 T00191003 52009 IEM_DS3505
ZBYN,1984-10-22 03:00,ZBYN 220300Z AUTO 18004KT 5SM 14/00 RMK SLP174 T01380004 57002 IEM_DS3505
ZBYN,1984-10-22 06:00,ZBYN 220600Z AUTO 29010KT 12SM 22/M12 RMK SLP127 T02191119 4////1014 57032 IEM_DS3505
ZBYN,1984-10-22 09:00,ZBYN 220900Z AUTO 29008KT 12SM 21/M08 RMK SLP134 T02091083 57002 IEM_DS3505
ZBYN,1984-10-22 12:00,ZBYN 221200Z AUTO 11004KT 14SM 09/01 RMK SLP164 T00870006 52012 IEM_DS3505
ZBYN,1984-10-22 15:00,ZBYN 221500Z AUTO 00000KT 12SM 06/02 RMK SLP170 T00610024 52020 IEM_DS3505
ZBYN,1984-10-22 18:00,ZBYN 221800Z AUTO 32002KT 9SM 03/M00 RMK SLP163 T00331003 40227//// 52002 IEM_DS3505
ZBYN,1984-10-22 21:00,ZBYN 222100Z AUTO 00000KT 6SM 01/M01 RMK SLP171 T00081010 52002 IEM_DS3505
ZBYN,1984-10-23 00:00,ZBYN 230000Z AUTO 00000KT 4SM 01/M01 RMK SLP207 T00141006 52014 IEM_DS3505
ZBYN,1984-10-23 03:00,ZBYN 230300Z AUTO 00000KT 6SM 16/M03 RMK SLP185 T01641028 54000 IEM_DS3505
ZBYN,1984-10-23 04:00,ZBYN 230400Z AUTO 00000KT 7SM 19/M04 A3006 RMK T01901040 IEM_DS3505
ZBYN,1984-10-23 05:00,ZBYN 230500Z AUTO 22004KT 7SM 21/M04 A3006 RMK T02101040 IEM_DS3505
ZBYN,1984-10-23 06:00,ZBYN 230600Z AUTO 18004KT 7SM 22/M04 A3003 RMK SLP156 T02171039 4////1004 57023 IEM_DS3505
ZBYN,1984-10-23 07:00,ZBYN 230700Z AUTO 20004KT 7SM 23/M04 A3003 RMK T02301040 IEM_DS3505
ZBYN,1984-10-23 08:00,ZBYN 230800Z AUTO 24004KT 7SM 23/03 A2997 RMK T02300030 IEM_DS3505
ZBYN,1984-10-23 09:00,ZBYN 230900Z AUTO 16002KT 7SM 21/01 RMK SLP156 T02090014 57005 IEM_DS3505
ZBYN,1984-10-23 12:00,ZBYN 231200Z AUTO 00000KT 9SM 09/02 RMK SLP189 T00910024 52013 IEM_DS3505
ZBYN,1984-10-23 15:00,ZBYN 231500Z AUTO 00000KT 6SM 05/02 RMK SLP188 T00520022 52015 IEM_DS3505
ZBYN,1984-10-23 18:00,ZBYN 231800Z AUTO 00000KT 5SM 04/01 RMK SLP181 T00380012 40223//// 54000 IEM_DS3505
ZBYN,1984-10-23 21:00,ZBYN 232100Z AUTO 00000KT 7SM 02/00 RMK SLP187 T00200001 52002 IEM_DS3505
ZBYN,1984-10-24 00:00,ZBYN 240000Z AUTO 34002KT 6SM 03/00 RMK SLP219 T00310001 52013 IEM_DS3505
ZBYN,1984-10-24 03:00,ZBYN 240300Z AUTO 20002KT 4SM 17/M00 RMK SLP198 T01691003 57004 IEM_DS3505
ZBYN,1984-10-24 06:00,ZBYN 240600Z AUTO 11004KT 5SM 21/00 RMK SLP170 T02100001 4////0010 57022 IEM_DS3505
ZBYN,1984-10-24 09:00,ZBYN 240900Z AUTO 00000KT 6SM 20/05 RMK SLP167 T02000046 57007 IEM_DS3505
ZBYN,1984-10-24 12:00,ZBYN 241200Z AUTO 00000KT 6SM 09/05 RMK SLP198 T00910048 52014 IEM_DS3505
ZBYN,1984-10-24 15:00,ZBYN 241500Z AUTO 00000KT 6SM 06/05 RMK SLP191 T00590048 52010 IEM_DS3505
ZBYN,1984-10-24 18:00,ZBYN 241800Z AUTO 00000KT 6SM 05/02 RMK SLP196 T00500024 52009 IEM_DS3505
ZBYN,1984-10-24 21:00,ZBYN 242100Z AUTO 00000KT 4SM 04/02 RMK SLP198 T00350018 57002 IEM_DS3505
ZBYN,1984-10-25 00:00,ZBYN 250000Z AUTO 00000KT 4SM 06/02 RMK SLP227 T00560024 52013 IEM_DS3505
ZBYN,1984-10-25 03:00,ZBYN 250300Z AUTO 00000KT 4SM 12/04 RMK SLP217 T01180036 57004 IEM_DS3505
ZBYN,1984-10-25 06:00,ZBYN 250600Z AUTO 22004KT 5SM 17/02 RMK SLP196 T01730021 4////0034 57013 IEM_DS3505
ZBYN,1984-10-25 09:00,ZBYN 250900Z AUTO 11008KT 5SM 15/08 RMK SLP202 T01510082 54000 IEM_DS3505
ZBYN,1984-10-25 12:00,ZBYN 251200Z AUTO 09004KT 4SM 11/09 RMK 60002 SLP233 T01130093 52026 IEM_DS3505
ZBYN,1984-10-25 15:00,ZBYN 251500Z AUTO 00000KT 4SM 11/10 RMK SLP237 T01080100 52013 IEM_DS3505
ZBYN,1984-10-25 18:00,ZBYN 251800Z AUTO 16002KT 4SM 10/09 RMK 60031 SLP229 T00980090 40188//// 57001 IEM_DS3505
ZBYN,1984-10-25 21:00,ZBYN 252100Z AUTO 18002KT 6SM 09/09 RMK SLP235 T00920088 52001 IEM_DS3505
ZBYN,1984-10-26 00:00,ZBYN 260000Z AUTO 29008KT 16SM 10/M01 RMK 60002 SLP249 T00981013 52008 IEM_DS3505
ZBYN,1984-10-26 03:00,ZBYN 260300Z AUTO 27006KT 12SM 13/M06 RMK SLP249 T01321055 52004 IEM_DS3505
ZBYN,1984-10-26 06:00,ZBYN 260600Z AUTO 29012KT 12SM 15/M09 RMK SLP222 T01511092 4////0085 57023 IEM_DS3505
ZBYN,1984-10-26 09:00,ZBYN 260900Z AUTO 29006KT 12SM 14/M06 RMK SLP221 T01391065 57003 IEM_DS3505
ZBYN,1984-10-26 12:00,ZBYN 261200Z AUTO 25002KT 9SM 06/01 RMK SLP240 T00630010 52006 IEM_DS3505
ZBYN,1984-10-26 15:00,ZBYN 261500Z AUTO 34002KT 9SM 04/00 RMK SLP246 T00410004 52008 IEM_DS3505
ZBYN,1984-10-26 18:00,ZBYN 261800Z AUTO 07002KT 6SM 01/M01 RMK SLP247 T00071006 40156//// 57002 IEM_DS3505
ZBYN,1984-10-26 21:00,ZBYN 262100Z AUTO 00000KT 12SM M01/M02 RMK SLP247 T10081015 57004 IEM_DS3505
ZBYN,1984-10-27 00:00,ZBYN 270000Z AUTO 00000KT 9SM 00/M02 RMK SLP271 T00051018 52011 IEM_DS3505
ZBYN,1984-10-27 02:00,ZBYN 270200Z AUTO 00000KT 7SM 09/M02 A3021 RMK T00901020 IEM_DS3505
ZBYN,1984-10-27 03:00,ZBYN 270300Z AUTO 18002KT 6SM 11/M02 RMK SLP250 T01101015 57005 IEM_DS3505
ZBYN,1984-10-27 04:00,ZBYN 270400Z AUTO 22006KT 6SM 13/M02 A3024 RMK T01301020 IEM_DS3505
ZBYN,1984-10-27 05:00,ZBYN 270500Z AUTO 20006KT 6SM 14/M02 A3021 RMK T01401020 IEM_DS3505
ZBYN,1984-10-27 06:00,ZBYN 270600Z AUTO 20008KT 16SM 15/M06 A3015 RMK SLP219 T01491058 4////1017 57029 IEM_DS3505
ZBYN,1984-10-27 07:00,ZBYN 270700Z AUTO 23010KT 6SM 15/M04 A3012 RMK T01501040 IEM_DS3505
ZBYN,1984-10-27 08:00,ZBYN 270800Z AUTO 21010KT 6SM 15/M04 A3012 RMK T01501040 IEM_DS3505
ZBYN,1984-10-27 09:00,ZBYN 270900Z AUTO 29010KT 19SM 13/M10 A3012 RMK SLP216 T01311096 57007 IEM_DS3505
ZBYN,1984-10-27 10:00,ZBYN 271000Z AUTO 28010KT 6SM 11/M07 A3012 RMK T01101070 IEM_DS3505
ZBYN,1984-10-27 11:00,ZBYN 271100Z AUTO 28010KT 6SM 09/M06 A3015 RMK T00901060 IEM_DS3505
ZBYN,1984-10-27 12:00,ZBYN 271200Z AUTO 29012KT 16SM 10/M08 A3021 RMK SLP249 T01031076 52027 IEM_DS3505
ZBYN,1984-10-27 15:00,ZBYN 271500Z AUTO 34002KT 16SM 07/M05 RMK SLP253 T00671052 52016 IEM_DS3505
ZBYN,1984-10-27 18:00,ZBYN 271800Z AUTO 34006KT 12SM 05/M07 RMK SLP262 T00511072 40150//// 52011 IEM_DS3505
ZBYN,1984-10-27 21:00,ZBYN 272100Z AUTO 32002KT 16SM 01/M06 RMK SLP272 T00111058 54000 IEM_DS3505
ZBYN,1984-10-28 00:00,ZBYN 280000Z AUTO 36002KT 17SM 02/M06 RMK SLP286 T00201061 52010 IEM_DS3505
ZBYN,1984-10-28 03:00,ZBYN 280300Z AUTO 00000KT 9SM 07/M08 RMK SLP284 T00741079 52001 IEM_DS3505
ZBYN,1984-10-28 06:00,ZBYN 280600Z AUTO 00000KT 9SM 11/M06 RMK SLP248 T01071058 4////1002 57030 IEM_DS3505
ZBYN,1984-10-28 09:00,ZBYN 280900Z AUTO 20004KT 9SM 10/M02 RMK SLP246 T01001023 57009 IEM_DS3505
ZBYN,1984-10-28 12:00,ZBYN 281200Z AUTO 34002KT 6SM 04/M01 RMK SLP262 T00421008 52006 IEM_DS3505
ZBYN,1984-10-28 15:00,ZBYN 281500Z AUTO 32004KT 7SM 03/M04 RMK SLP265 T00321039 52010 IEM_DS3505
ZBYN,1984-10-28 18:00,ZBYN 281800Z AUTO 00000KT 6SM 02/M03 RMK SLP263 T00171031 40107//// 52001 IEM_DS3505
ZBYN,1984-10-28 21:00,ZBYN 282100Z AUTO 34004KT 9SM 02/M04 RMK SLP253 T00171045 57010 IEM_DS3505
ZBYN,1984-10-29 00:00,ZBYN 290000Z AUTO 34004KT 6SM 01/M04 RMK SLP279 T00061042 52013 IEM_DS3505
ZBYN,1984-10-29 03:00,ZBYN 290300Z AUTO 00000KT 4SM 08/M05 RMK SLP268 T00751052 57001 IEM_DS3505
ZBYN,1984-10-29 06:00,ZBYN 290600Z AUTO 18006KT 6SM 11/M05 RMK SLP238 T01071052 4////1006 57025 IEM_DS3505
ZBYN,1984-10-29 09:00,ZBYN 290900Z AUTO 18002KT 7SM 12/M00 RMK SLP229 T01191003 57006 IEM_DS3505
ZBYN,1984-10-29 12:00,ZBYN 291200Z AUTO 34002KT 6SM 06/M01 RMK SLP264 T00641010 52021 IEM_DS3505
ZBYN,1984-10-29 15:00,ZBYN 291500Z AUTO 00000KT 6SM 02/M01 RMK SLP277 T00171013 52016 IEM_DS3505
ZBYN,1984-10-29 18:00,ZBYN 291800Z AUTO 00000KT 6SM M01/M02 RMK SLP286 T10101023 40120//// 52009 IEM_DS3505
ZBYN,1984-10-29 21:00,ZBYN 292100Z AUTO 00000KT 3SM M02/M04 RMK T10251037 52007 IEM_DS3505
ZBYN,1984-10-30 00:00,ZBYN 300000Z AUTO 36002KT 2SM M00/M04 RMK SLP310 T10041037 52009 IEM_DS3505
ZBYN,1984-10-30 03:00,ZBYN 300300Z AUTO 09002KT 4SM 07/00 RMK SLP304 T00740004 54000 IEM_DS3505
ZBYN,1984-10-30 04:00,ZBYN 300400Z AUTO 15006KT 6SM 10/M01 A3039 RMK T01001010 IEM_DS3505
ZBYN,1984-10-30 05:00,ZBYN 300500Z AUTO 19002KT 6SM 12/00 A3033 RMK T01200000 IEM_DS3505
ZBYN,1984-10-30 06:00,ZBYN 300600Z AUTO 18006KT 6SM 13/M03 A3030 RMK SLP262 T01271034 4////1034 57035 IEM_DS3505
ZBYN,1984-10-30 08:00,ZBYN 300800Z AUTO 20010KT 6SM 14/M04 A3024 RMK T01401040 IEM_DS3505
ZBYN,1984-10-30 09:00,ZBYN 300900Z AUTO 18004KT 7SM 12/M00 A3024 RMK SLP255 T01151003 57011 IEM_DS3505
ZBYN,1984-10-30 10:00,ZBYN 301000Z AUTO 00000KT 6SM 09/00 A3024 RMK T00900000 IEM_DS3505
ZBYN,1984-10-30 11:00,ZBYN 301100Z AUTO 06004KT 6SM 07/00 A3024 RMK T00700000 IEM_DS3505
ZBYN,1984-10-30 12:00,ZBYN 301200Z AUTO 00000KT 6SM 06/01 RMK SLP269 T00610012 52008 IEM_DS3505
ZBYN,1984-10-30 15:00,ZBYN 301500Z AUTO 00000KT 6SM RMK SLP270 52009 IEM_DS3505
ZBYN,1984-10-30 18:00,ZBYN 301800Z AUTO 00000KT 6SM 02/M01 RMK SLP262 T00201006 40133//// 57001 IEM_DS3505
ZBYN,1984-10-30 21:00,ZBYN 302100Z AUTO 36004KT 4SM 02/01 RMK SLP262 T00170006 57002 IEM_DS3505
ZBYN,1984-10-31 00:00,ZBYN 310000Z AUTO 02002KT 4SM 02/01 RMK SLP279 T00240010 52008 IEM_DS3505
ZBYN,1984-10-31 03:00,ZBYN 310300Z AUTO 00000KT 5SM 10/04 RMK SLP274 T00950036 52003 IEM_DS3505
ZBYN,1984-10-31 06:00,ZBYN 310600Z AUTO 00000KT 5SM 12/03 RMK SLP252 T01220026 4////0014 57019 IEM_DS3505
ZBYN,1984-10-31 09:00,ZBYN 310900Z AUTO 00000KT 6SM 12/05 RMK SLP249 T01240048 57003 IEM_DS3505
ZBYN,1984-10-31 12:00,ZBYN 311200Z AUTO 32006KT 12SM 10/M07 RMK SLP272 T00991068 52018 IEM_DS3505
ZBYN,1984-10-31 15:00,ZBYN 311500Z AUTO 32006KT 12SM 09/M07 RMK SLP281 T00921072 52018 IEM_DS3505
ZBYN,1984-10-31 18:00,ZBYN 311800Z AUTO 34002KT 9SM 02/M02 RMK SLP293 T00251023 40131//// 52005 IEM_DS3505
ZBYN,1984-10-31 21:00,ZBYN 312100Z AUTO 00000KT 6SM M02/M03 RMK SLP308 T10151026 52007 IEM_DS3505
ZBYN,1984-11-01 00:00,ZBYN 010000Z AUTO 00000KT 12SM M01/M03 RMK SLP326 T10111031 52014 IEM_DS3505
ZBYN,1984-11-01 03:00,ZBYN 010300Z AUTO 22002KT 5SM 11/M03 RMK SLP311 T01091031 52004 IEM_DS3505
ZBYN,1984-11-01 06:00,ZBYN 010600Z AUTO 22002KT 7SM 14/06 RMK SLP289 T01350055 57027 IEM_DS3505
ZBYN,1984-11-01 09:00,ZBYN 010900Z AUTO 18004KT 11SM 12/M01 RMK SLP290 T01251013 57007 IEM_DS3505
ZBYN,1984-11-01 12:00,ZBYN 011200Z AUTO 00000KT 12SM 05/M01 RMK SLP317 T00461013 52012 IEM_DS3505
ZBYN,1984-11-01 15:00,ZBYN 011500Z AUTO 00000KT 9SM 01/M02 RMK SLP310 T00121020 52009 IEM_DS3505
ZBYN,1984-11-01 18:00,ZBYN 011800Z AUTO 00000KT 9SM 00/M03 RMK SLP304 T00021026 40138//// 57003 IEM_DS3505
ZBYN,1984-11-01 21:00,ZBYN 012100Z AUTO 00000KT 6SM M02/M03 RMK SLP301 T10231031 57009 IEM_DS3505
ZBYN,1984-11-02 00:00,ZBYN 020000Z AUTO 00000KT 5SM M01/M04 RMK SLP319 T10091039 52006 IEM_DS3505
ZBYN,1984-11-02 03:00,ZBYN 020300Z AUTO 20004KT 6SM 09/M04 RMK SLP297 T00901039 57010 IEM_DS3505
ZBYN,1984-11-02 06:00,ZBYN 020600Z AUTO 16006KT 6SM 14/M05 RMK SLP249 T01371052 4////1023 57037 IEM_DS3505
ZBYN,1984-11-02 09:00,ZBYN 020900Z AUTO 00000KT 9SM 13/M03 RMK SLP243 T01301028 57011 IEM_DS3505
ZBYN,1984-11-02 11:00,ZBYN 021100Z AUTO 32002KT 7SM RMK SLP252 57006 IEM_DS3505
ZBYN,1984-11-02 12:00,ZBYN 021200Z AUTO 00000KT 11SM RMK SLP268 52013 IEM_DS3505
ZBYN,1984-11-02 15:00,ZBYN 021500Z AUTO 00000KT 7SM 01/M02 RMK SLP264 T00091023 52005 IEM_DS3505
ZBYN,1984-11-02 18:00,ZBYN 021800Z AUTO 32002KT 7SM M01/M04 RMK SLP252 T10111037 40144//// 57006 IEM_DS3505
ZBYN,1984-11-02 21:00,ZBYN 022100Z AUTO 00000KT 5SM M03/M04 RMK SLP251 T10311045 57006 IEM_DS3505
ZBYN,1984-11-03 00:00,ZBYN 030000Z AUTO 00000KT 4SM M00/M05 RMK SLP254 T10041052 57005 IEM_DS3505
ZBYN,1984-11-03 01:00,ZBYN 030100Z AUTO 00000KT 7SM 02/M04 A3021 RMK T00201040 IEM_DS3505
ZBYN,1984-11-03 02:00,ZBYN 030200Z AUTO 00000KT 7SM 07/M04 A3021 RMK T00701040 IEM_DS3505
ZBYN,1984-11-03 03:00,ZBYN 030300Z AUTO 14002KT 5SM 09/M06 RMK SLP233 T00941055 57011 IEM_DS3505
ZBYN,1984-11-03 04:00,ZBYN 030400Z AUTO 21010KT 7SM 11/M05 A3015 RMK T01101050 IEM_DS3505
ZBYN,1984-11-03 06:00,ZBYN 030600Z AUTO 18008KT 4SM 15/M02 A3012 RMK SLP183 T01511023 4////1036 57039 IEM_DS3505
ZBYN,1984-11-03 07:00,ZBYN 030700Z AUTO 17006KT 7SM 16/M01 A3003 RMK T01601010 IEM_DS3505
ZBYN,1984-11-03 08:00,ZBYN 030800Z AUTO 22008KT 7SM 17/01 A3003 RMK T01700010 IEM_DS3505
ZBYN,1984-11-03 09:00,ZBYN 030900Z AUTO 18004KT 9SM 14/02 A3003 RMK SLP177 T01370018 57011 IEM_DS3505
ZBYN,1984-11-03 12:00,ZBYN 031200Z AUTO 00000KT 6SM 08/01 RMK SLP186 T00830006 52004 IEM_DS3505
ZBYN,1984-11-03 18:00,ZBYN 031800Z AUTO 00000KT 4SM 01/M01 RMK SLP192 T00071010 40156//// 52006 IEM_DS3505
ZBYN,1984-11-03 21:00,ZBYN 032100Z AUTO 34002KT 3SM 00/M02 RMK SLP194 T00031015 57001 IEM_DS3505
ZBYN,1984-11-04 00:00,ZBYN 040000Z AUTO 00000KT 1 1/4SM M01/M02 RMK SLP217 T10081015 52010 IEM_DS3505
ZBYN,1984-11-04 03:00,ZBYN 040300Z AUTO 18006KT 6SM 12/M01 RMK SLP201 T01231008 52001 IEM_DS3505
ZBYN,1984-11-04 06:00,ZBYN 040600Z AUTO 20006KT 6SM 18/M06 RMK SLP174 T01771061 4////1022 57023 IEM_DS3505
ZBYN,1984-11-04 09:00,ZBYN 040900Z AUTO 00000KT 11SM 17/M01 RMK SLP174 T01671010 57002 IEM_DS3505
ZBYN,1984-11-04 12:00,ZBYN 041200Z AUTO 34004KT 9SM 08/M02 RMK SLP205 T00771020 52012 IEM_DS3505
ZBYN,1984-11-04 15:00,ZBYN 041500Z AUTO 36004KT 6SM 06/M04 RMK SLP193 T00581039 52007 IEM_DS3505
ZBYN,1984-11-04 18:00,ZBYN 041800Z AUTO 07004KT 6SM 04/M04 RMK SLP188 T00351045 40156//// 54000 IEM_DS3505
ZBYN,1984-11-04 21:00,ZBYN 042100Z AUTO 34010KT 7SM 04/M08 RMK SLP179 T00441076 57008 IEM_DS3505
ZBYN,1984-11-05 00:00,ZBYN 050000Z AUTO 34006KT 6SM 05/M07 RMK SLP205 T00521072 52011 IEM_DS3505
ZBYN,1984-11-05 01:00,ZBYN 050100Z AUTO 34004KT 6SM RMK SLP161 57032 IEM_DS3505
ZBYN,1984-11-05 03:00,ZBYN 050300Z AUTO 36006KT 6SM 12/M05 RMK SLP204 T01181048 52006 IEM_DS3505
ZBYN,1984-11-05 06:00,ZBYN 050600Z AUTO 34004KT 6SM 19/M02 RMK SLP161 T01861020 4////0011 57032 IEM_DS3505
ZBYN,1984-11-05 09:00,ZBYN 050900Z AUTO 20006KT 7SM 16/03 RMK SLP163 T01650026 54000 IEM_DS3505
ZBYN,1984-11-05 12:00,ZBYN 051200Z AUTO 00000KT 7SM 13/02 RMK SLP200 T01260016 52030 IEM_DS3505
ZBYN,1984-11-05 15:00,ZBYN 051500Z AUTO 32008KT 6SM 14/M04 RMK SLP208 T01421037 52019 IEM_DS3505
ZBYN,1984-11-05 18:00,ZBYN 051800Z AUTO 29008KT 7SM 13/M08 RMK SLP205 T01261076 40198//// 52005 IEM_DS3505
ZBYN,1984-11-05 21:00,ZBYN 052100Z AUTO 32006KT 6SM 10/M08 RMK SLP219 T00961079 52005 IEM_DS3505
ZBYN,1984-11-06 00:00,ZBYN 060000Z AUTO 14004KT 5SM 07/M04 RMK SLP246 T00731042 52015 IEM_DS3505
ZBYN,1984-11-06 03:00,ZBYN 060300Z AUTO 34006KT 5SM 12/M13 RMK SLP238 T01241130 52003 IEM_DS3505
ZBYN,1984-11-06 06:00,ZBYN 060600Z AUTO 16004KT 4SM 15/M09 RMK SLP205 T01461092 4////0066 57029 IEM_DS3505
ZBYN,1984-11-06 09:00,ZBYN 060900Z AUTO 18004KT 4SM 12/M04 RMK SLP205 T01221039 57008 IEM_DS3505
ZBYN,1984-11-06 12:00,ZBYN 061200Z AUTO 11002KT 7SM 07/M03 RMK SLP236 T00671028 52016 IEM_DS3505
ZBYN,1984-11-06 15:00,ZBYN 061500Z AUTO 29002KT 6SM 04/M03 RMK SLP240 T00441031 52008 IEM_DS3505
ZBYN,1984-11-06 18:00,ZBYN 061800Z AUTO 00000KT 6SM M00/M02 RMK SLP236 T10011020 57007 IEM_DS3505
ZBYN,1984-11-06 21:00,ZBYN 062100Z AUTO 34002KT 6SM M00/M04 RMK SLP237 T10031042 57004 IEM_DS3505
ZBYN,1984-11-07 00:00,ZBYN 070000Z AUTO 00000KT 5SM M01/M04 RMK SLP253 T10141045 52005 IEM_DS3505
ZBYN,1984-11-07 03:00,ZBYN 070300Z AUTO 16002KT 6SM 08/M06 RMK SLP235 T00791055 57006 IEM_DS3505
ZBYN,1984-11-07 06:00,ZBYN 070600Z AUTO 00000KT 6SM 13/M06 RMK SLP196 T01341065 4////1024 57030 IEM_DS3505
ZBYN,1984-11-07 09:00,ZBYN 070900Z AUTO 00000KT 7SM 13/01 RMK SLP181 T01260008 57016 IEM_DS3505
ZBYN,1984-11-07 12:00,ZBYN 071200Z AUTO 34004KT 4SM 07/M02 RMK SLP204 T00691018 52010 IEM_DS3505
ZBYN,1984-11-07 15:00,ZBYN 071500Z AUTO 00000KT 2 1/2SM 06/M01 RMK SLP211 T00601010 52020 IEM_DS3505
ZBYN,1984-11-07 18:00,ZBYN 071800Z AUTO 00000KT 6SM 02/M02 RMK SLP200 T00251023 40142//// 57007 IEM_DS3505
ZBYN,1984-11-07 21:00,ZBYN 072100Z AUTO 00000KT 4SM 03/M03 RMK SLP210 T00291028 52008 IEM_DS3505
ZBYN,1984-11-08 00:00,ZBYN 080000Z AUTO 34006KT 4SM 04/M05 RMK SLP240 T00381048 52020 IEM_DS3505
ZBYN,1984-11-08 03:00,ZBYN 080300Z AUTO 18004KT 5SM 11/M04 RMK SLP233 T01111037 52005 IEM_DS3505
ZBYN,1984-11-08 06:00,ZBYN 080600Z AUTO 18008KT 5SM 13/M04 RMK SLP214 T01271045 4////0010 57021 IEM_DS3505
ZBYN,1984-11-08 09:00,ZBYN 080900Z AUTO 20004KT 6SM 11/M02 RMK SLP214 T01061018 57003 IEM_DS3505
ZBYN,1984-11-08 12:00,ZBYN 081200Z AUTO 32002KT 6SM 05/M01 RMK SLP234 T00491006 52011 IEM_DS3505
ZBYN,1984-11-08 15:00,ZBYN 081500Z AUTO 00000KT 6SM 04/M02 RMK SLP234 T00411015 52010 IEM_DS3505
ZBYN,1984-11-08 18:00,ZBYN 081800Z AUTO 32002KT 6SM 02/M03 RMK SLP228 T00211026 40133//// 57006 IEM_DS3505
ZBYN,1984-11-08 21:00,ZBYN 082100Z AUTO 00000KT 6SM 02/M04 RMK SLP223 T00221045 57008 IEM_DS3505
ZBYN,1984-11-09 00:00,ZBYN 090000Z AUTO 32004KT 6SM 04/M08 RMK SLP242 T00401083 52011 IEM_DS3505
ZBYN,1984-11-09 03:00,ZBYN 090300Z AUTO 34008KT 6SM 08/M09 RMK SLP238 T00831092 52002 IEM_DS3505
ZBYN,1984-11-09 06:00,ZBYN 090600Z AUTO 32004KT 4SM 12/M08 RMK SLP207 T01171079 4////0014 57025 IEM_DS3505
ZBYN,1984-11-09 09:00,ZBYN 090900Z AUTO 18002KT 4SM 11/M02 RMK SLP203 T01111023 57005 IEM_DS3505
ZBYN,1984-11-09 12:00,ZBYN 091200Z AUTO 00000KT 18/01 RMK SLP218 T01770006 52011 IEM_DS3505
ZBYN,1984-11-09 15:00,ZBYN 091500Z AUTO 25002KT 6SM 06/M01 RMK SLP223 T00611008 52008 IEM_DS3505
ZBYN,1984-11-09 18:00,ZBYN 091800Z AUTO 14002KT 6SM 04/01 RMK SLP218 T00430010 40122//// 57002 IEM_DS3505
ZBYN,1984-11-09 21:00,ZBYN 092100Z AUTO 34002KT 5SM 03/00 RMK SLP212 T00330004 57008 IEM_DS3505
ZBYN,1984-11-10 00:00,ZBYN 100000Z AUTO 00000KT 4SM 01/M01 RMK SLP234 T00061006 52011 IEM_DS3505
ZBYN,1984-11-10 01:00,ZBYN 100100Z AUTO 00000KT 2SM 04/M01 A3015 RMK T00401010 IEM_DS3505
ZBYN,1984-11-10 02:00,ZBYN 100200Z AUTO 00000KT 4SM 07/M01 A3021 RMK T00701010 IEM_DS3505
ZBYN,1984-11-10 03:00,ZBYN 100300Z AUTO 00000KT 4SM 08/M01 A3015 RMK SLP230 T00801008 52006 IEM_DS3505
ZBYN,1984-11-10 04:00,ZBYN 100400Z AUTO 11004KT 6SM 10/M01 A3015 RMK T01001010 IEM_DS3505
ZBYN,1984-11-10 05:00,ZBYN 100500Z AUTO 22004KT 6SM 11/M02 A3015 RMK T01101020 IEM_DS3505
ZBYN,1984-11-10 06:00,ZBYN 100600Z AUTO 00000KT 4SM 12/M01 A3012 RMK SLP208 T01151013 4////0006 57018 IEM_DS3505
ZBYN,1984-11-10 07:00,ZBYN 100700Z AUTO 20006KT 6SM 11/ A3012 RMK IEM_DS3505
ZBYN,1984-11-10 09:00,ZBYN 100900Z AUTO 11002KT 4SM 09/01 A3012 RMK SLP215 T00940008 52002 IEM_DS3505
ZBYN,1984-11-10 10:00,ZBYN 101000Z AUTO 06002KT 4SM 08/01 A3015 RMK T00800010 IEM_DS3505
ZBYN,1984-11-10 11:00,ZBYN 101100Z AUTO 05004KT 4SM 06/00 A3015 RMK T00600000 IEM_DS3505
ZBYN,1984-11-10 12:00,ZBYN 101200Z AUTO 00000KT 6SM 05/01 RMK SLP249 T00460012 52019 IEM_DS3505
ZBYN,1984-11-10 15:00,ZBYN 101500Z AUTO 00000KT 4SM 02/00 RMK SLP255 T00150001 52012 IEM_DS3505
ZBYN,1984-11-10 18:00,ZBYN 101800Z AUTO 00000KT 4SM M01/M02 RMK SLP258 T10061018 40115//// 52005 IEM_DS3505
ZBYN,1984-11-10 21:00,ZBYN 102100Z AUTO 00000KT 4SM M02/M03 RMK SLP263 T10241028 57002 IEM_DS3505
ZBYN,1984-11-11 00:00,ZBYN 110000Z AUTO 00000KT 2SM M02/M03 RMK SLP286 T10201028 52014 IEM_DS3505
ZBYN,1984-11-11 03:00,ZBYN 110300Z AUTO 00000KT 5SM 08/M02 RMK SLP277 T00771023 52003 IEM_DS3505
ZBYN,1984-11-11 06:00,ZBYN 110600Z AUTO 20006KT 4SM 12/M06 RMK SLP249 T01181061 57023 IEM_DS3505
ZBYN,1984-11-11 09:00,ZBYN 110900Z AUTO 16004KT 9SM 11/M03 RMK SLP246 T01121031 57006 IEM_DS3505
ZBYN,1984-11-11 12:00,ZBYN 111200Z AUTO 00000KT 6SM 06/M03 RMK SLP269 T00641031 52014 IEM_DS3505
ZBYN,1984-11-11 15:00,ZBYN 111500Z AUTO 00000KT 6SM 02/M02 RMK SLP270 T00151023 52009 IEM_DS3505
ZBYN,1984-11-11 18:00,ZBYN 111800Z AUTO 00000KT 6SM M01/M03 RMK SLP274 T10101026 40126//// 52005 IEM_DS3505
ZBYN,1984-11-11 21:00,ZBYN 112100Z AUTO 00000KT 5SM M02/M03 RMK SLP275 T10211028 57001 IEM_DS3505
ZBYN,1984-11-12 00:00,ZBYN 120000Z AUTO 00000KT 4SM M02/M05 RMK SLP297 T10171052 52014 IEM_DS3505
ZBYN,1984-11-12 03:00,ZBYN 120300Z AUTO 00000KT 4SM 08/M04 RMK SLP291 T00801039 52001 IEM_DS3505
ZBYN,1984-11-12 06:00,ZBYN 120600Z AUTO 16004KT 4SM 11/M04 RMK SLP259 T01141042 4////1029 57028 IEM_DS3505
ZBYN,1984-11-12 12:00,ZBYN 121200Z AUTO 07008KT 6SM 07/M00 RMK SLP294 T00741003 52022 IEM_DS3505
ZBYN,1984-11-12 15:00,ZBYN 121500Z AUTO 14006KT 7SM 06/M00 RMK SLP284 T00561003 52003 IEM_DS3505
ZBYN,1984-11-12 18:00,ZBYN 121800Z AUTO 14004KT 6SM 05/01 RMK SLP275 T00510010 40122//// 57003 IEM_DS3505
ZBYN,1984-11-12 21:00,ZBYN 122100Z AUTO 00000KT 6SM 04/02 RMK SLP270 T00420016 57009 IEM_DS3505
ZBYN,1984-11-13 00:00,ZBYN 130000Z AUTO 00000KT 5SM 04/02 RMK SLP280 T00450021 52005 IEM_DS3505
ZBYN,1984-11-13 03:00,ZBYN 130300Z AUTO 14002KT 4SM 06/03 RMK SLP266 T00630032 57012 IEM_DS3505
ZBYN,1984-11-13 05:00,ZBYN 130500Z AUTO 21004KT 6SM 07/03 A3024 RMK T00700030 IEM_DS3505
ZBYN,1984-11-13 06:00,ZBYN 130600Z AUTO 18004KT 5SM 07/04 A3024 RMK SLP258 T00660037 4////0042 57008 IEM_DS3505
ZBYN,1984-11-13 07:00,ZBYN 130700Z AUTO 00000KT 7SM 07/03 A3024 RMK T00700030 IEM_DS3505
ZBYN,1984-11-13 08:00,ZBYN 130800Z AUTO 18002KT 7SM 07/04 A3024 RMK T00700040 IEM_DS3505
ZBYN,1984-11-13 09:00,ZBYN 130900Z AUTO 16006KT 6SM 07/04 A3024 RMK SLP251 T00670039 57008 IEM_DS3505
ZBYN,1984-11-13 12:00,ZBYN 131200Z AUTO 16002KT 6SM RMK SLP264 52012 IEM_DS3505
ZBYN,1984-11-13 15:00,ZBYN 131500Z AUTO 16004KT 6SM 06/05 RMK SLP260 T00550046 57002 IEM_DS3505
ZBYN,1984-11-13 18:00,ZBYN 131800Z AUTO 00000KT 6SM 05/05 RMK SLP251 T00510046 40068//// 57008 IEM_DS3505
ZBYN,1984-11-13 21:00,ZBYN 132100Z AUTO 11002KT 5SM 04/03 RMK SLP244 T00430034 57008 IEM_DS3505
ZBYN,1984-11-14 00:00,ZBYN 140000Z AUTO 18004KT 5SM 05/04 RMK SLP249 T00480041 4////0017 52004 IEM_DS3505
ZBYN,1984-11-14 03:00,ZBYN 140300Z AUTO 34002KT 5SM 08/03 RMK SLP237 T00830032 57005 IEM_DS3505
ZBYN,1984-11-14 06:00,ZBYN 140600Z AUTO 18006KT 9SM 11/02 RMK SLP199 T01130022 4////0043 57031 IEM_DS3505
ZBYN,1984-11-14 09:00,ZBYN 140900Z AUTO 18004KT 9SM 10/03 RMK SLP194 T01030026 57007 IEM_DS3505
ZBYN,1984-11-14 12:00,ZBYN 141200Z AUTO 14004KT 7SM 05/02 RMK SLP212 T00490018 52009 IEM_DS3505
ZBYN,1984-11-14 15:00,ZBYN 141500Z AUTO 11004KT 6SM 03/02 RMK SLP216 T00330021 52005 IEM_DS3505
ZBYN,1984-11-14 18:00,ZBYN 141800Z AUTO 14002KT 6SM 02/02 RMK SLP213 T00230016 40120//// 52001 IEM_DS3505
ZBYN,1984-11-14 21:00,ZBYN 142100Z AUTO 29002KT 1/4SM 02/01 RMK SLP207 T00170014 57008 IEM_DS3505
ZBYN,1984-11-15 00:00,ZBYN 150000Z AUTO 00000KT 5SM 03/03 RMK SLP223 T00320026 52009 IEM_DS3505
ZBYN,1984-11-15 03:00,ZBYN 150300Z AUTO 18004KT 6SM 06/01 RMK SLP223 T00550014 52001 IEM_DS3505
ZBYN,1984-11-15 06:00,ZBYN 150600Z AUTO 16006KT 6SM 10/01 RMK SLP185 T00970010 4////0016 57030 IEM_DS3505
ZBYN,1984-11-15 09:00,ZBYN 150900Z AUTO 00000KT 6SM 09/02 RMK SLP177 T00930024 57009 IEM_DS3505
ZBYN,1984-11-15 12:00,ZBYN 151200Z AUTO 11004KT 6SM 05/01 RMK SLP200 T00510014 52017 IEM_DS3505
ZBYN,1984-11-15 15:00,ZBYN 151500Z AUTO 00000KT 4SM 02/00 RMK SLP210 T00150000 52007 IEM_DS3505
ZBYN,1984-11-15 18:00,ZBYN 151800Z AUTO 00000KT 4SM 02/01 RMK SLP197 T00210008 40106//// 57004 IEM_DS3505
ZBYN,1984-11-15 21:00,ZBYN 152100Z AUTO 00000KT 1 1/4SM 00/M01 RMK SLP210 T00041006 52013 IEM_DS3505
ZBYN,1984-11-16 00:00,ZBYN 160000Z AUTO 32004KT 2SM M00/M01 RMK SLP229 T10011006 52009 IEM_DS3505
ZBYN,1984-11-16 03:00,ZBYN 160300Z AUTO 00000KT 4SM 07/02 RMK SLP232 T00720022 52009 IEM_DS3505
ZBYN,1984-11-16 06:00,ZBYN 160600Z AUTO 5SM 12/04 RMK SLP198 T01250036 4////1013 57022 IEM_DS3505
ZBYN,1984-11-16 09:00,ZBYN 160900Z AUTO 00000KT 5SM 12/05 RMK SLP198 T01180053 57003 IEM_DS3505
ZBYN,1984-11-16 12:00,ZBYN 161200Z AUTO 00000KT 6SM 07/04 RMK SLP223 T00680037 52013 IEM_DS3505
ZBYN,1984-11-16 15:00,ZBYN 161500Z AUTO 00000KT 5SM 04/02 RMK SLP231 T00370022 52014 IEM_DS3505
ZBYN,1984-11-16 18:00,ZBYN 161800Z AUTO 00000KT 4SM 02/01 RMK SLP230 T00150010 40132//// IEM_DS3505
ZBYN,1984-11-16 21:00,ZBYN 162100Z AUTO 00000KT 4SM 04/02 RMK SLP222 T00420018 57005 IEM_DS3505
ZBYN,1984-11-17 00:00,ZBYN 170000Z AUTO 32004KT 5SM 06/01 RMK SLP242 T00550006 52013 IEM_DS3505
ZBYN,1984-11-17 02:00,ZBYN 170200Z AUTO 07010KT 7SM 05/00 A3024 RMK T00500000 IEM_DS3505
ZBYN,1984-11-17 03:00,ZBYN 170300Z AUTO 25004KT 5SM 06/01 A3021 RMK SLP246 T00580010 57001 IEM_DS3505
ZBYN,1984-11-17 04:00,ZBYN 170400Z AUTO 06014KT 6SM 05/00 A3021 RMK T00500000 IEM_DS3505
ZBYN,1984-11-17 05:00,ZBYN 170500Z AUTO 07017KT 6SM 06/M01 A3012 RMK T00601010 IEM_DS3505
ZBYN,1984-11-17 06:00,ZBYN 170600Z AUTO 09004KT 5SM 08/00 A3006 RMK SLP202 T00750004 4////0010 57041 IEM_DS3505
ZBYN,1984-11-17 08:00,ZBYN 170800Z AUTO 08010KT 6SM 07/00 A3006 RMK T00700000 IEM_DS3505
ZBYN,1984-11-17 09:00,ZBYN 170900Z AUTO 34002KT 5SM 07/02 A3006 RMK SLP189 T00690021 57008 IEM_DS3505
ZBYN,1984-11-17 10:00,ZBYN 171000Z AUTO 05006KT 5SM 07/00 A3006 RMK T00700000 IEM_DS3505
ZBYN,1984-11-17 12:00,ZBYN 171200Z AUTO 00000KT 4SM 06/02 A3012 RMK SLP207 T00590016 52016 IEM_DS3505
ZBYN,1984-11-17 13:00,ZBYN 171300Z AUTO 09006KT 7SM 05/02 A3012 RMK T00500020 IEM_DS3505
ZBYN,1984-11-17 15:00,ZBYN 171500Z AUTO 34004KT 6SM 03/02 RMK SLP224 T00290021 52012 IEM_DS3505
ZBYN,1984-11-17 18:00,ZBYN 171800Z AUTO 29002KT 9SM 03/01 RMK SLP221 T00330012 40077//// 54000 IEM_DS3505
ZBYN,1984-11-17 21:00,ZBYN 172100Z AUTO 20002KT 9SM 02/M00 RMK SLP228 T00211001 52004 IEM_DS3505
ZBYN,1984-11-18 00:00,ZBYN 180000Z AUTO 34004KT 4SM 02/01 RMK SLP256 T00250006 52024 IEM_DS3505
ZBYN,1984-11-18 03:00,ZBYN 180300Z AUTO 36010KT 6SM 05/M02 RMK SLP289 T00531015 52030 IEM_DS3505
ZBYN,1984-11-18 06:00,ZBYN 180600Z AUTO 36010KT 7SM 07/M05 RMK SLP285 T00741048 4////0020 54000 IEM_DS3505
ZBYN,1984-11-18 09:00,ZBYN 180900Z AUTO 36010KT 9SM 04/M08 RMK SLP318 T00441079 52024 IEM_DS3505
ZBYN,1984-11-18 12:00,ZBYN 181200Z AUTO 34008KT 9SM 01/M11 RMK SLP366 T00111114 52038 IEM_DS3505
ZBYN,1984-11-18 15:00,ZBYN 181500Z AUTO 34006KT 11SM M01/M15 RMK SLP372 T10101154 52005 IEM_DS3505
ZBYN,1984-11-18 18:00,ZBYN 181800Z AUTO 36004KT 12SM M03/M14 RMK SLP376 T10311141 40080//// 52004 IEM_DS3505
ZBYN,1984-11-18 21:00,ZBYN 182100Z AUTO 32004KT 12SM M05/M14 RMK SLP375 T10521135 57009 IEM_DS3505
ZBYN,1984-11-19 00:00,ZBYN 190000Z AUTO 34006KT 6SM M06/M15 RMK SLP390 T10551154 52007 IEM_DS3505
ZBYN,1984-11-19 03:00,ZBYN 190300Z AUTO 36006KT 6SM 00/M17 RMK SLP381 T00041167 57002 IEM_DS3505
ZBYN,1984-11-19 06:00,ZBYN 190600Z AUTO 16004KT 11SM 05/M14 RMK SLP336 T00531135 4////1062 57036 IEM_DS3505
ZBYN,1984-11-19 09:00,ZBYN 190900Z AUTO 16002KT 16SM 05/M08 RMK SLP324 T00481083 57016 IEM_DS3505
ZBYN,1984-11-19 12:00,ZBYN 191200Z AUTO 11004KT 9SM M02/M06 RMK SLP343 T10161061 52010 IEM_DS3505
ZBYN,1984-11-19 15:00,ZBYN 191500Z AUTO 00000KT 6SM M03/M07 RMK SLP340 T10311068 52001 IEM_DS3505
ZBYN,1984-11-19 18:00,ZBYN 191800Z AUTO 00000KT 6SM M03/M07 RMK SLP325 T10281068 40063//// 57004 IEM_DS3505
ZBYN,1984-11-19 21:00,ZBYN 192100Z AUTO 00000KT 9SM M05/M07 RMK SLP319 T10541072 57011 IEM_DS3505
ZBYN,1984-11-20 00:00,ZBYN 200000Z AUTO 36004KT 5SM M04/M10 RMK SLP330 T10431100 52001 IEM_DS3505
ZBYN,1984-11-20 03:00,ZBYN 200300Z AUTO 00000KT 5SM 02/M06 RMK SLP320 T00171055 57001 IEM_DS3505
ZBYN,1984-11-20 05:00,ZBYN 200500Z AUTO 19002KT 6SM 04/M06 A3033 RMK T00401060 IEM_DS3505
ZBYN,1984-11-20 06:00,ZBYN 200600Z AUTO 16004KT 5SM 03/M06 A3030 RMK SLP290 T00341065 4////1054 57024 IEM_DS3505
ZBYN,1984-11-20 07:00,ZBYN 200700Z AUTO 00000KT 4SM 04/M06 A3030 RMK T00401060 IEM_DS3505
ZBYN,1984-11-20 08:00,ZBYN 200800Z AUTO 00000KT 4SM 03/M05 A3030 RMK T00301050 IEM_DS3505
ZBYN,1984-11-20 09:00,ZBYN 200900Z AUTO 18002KT 4SM 03/M04 A3030 RMK SLP300 T00271039 52003 IEM_DS3505
ZBYN,1984-11-20 10:00,ZBYN 201000Z AUTO 00000KT 3SM 02/M03 A3030 RMK T00201030 IEM_DS3505
ZBYN,1984-11-20 11:00,ZBYN 201100Z AUTO 00000KT 6SM 01/M03 A3033 RMK T00101030 IEM_DS3505
ZBYN,1984-11-20 12:00,ZBYN 201200Z AUTO 00000KT 6SM M01/M04 A3033 RMK SLP315 T10071039 52010 IEM_DS3505
ZBYN,1984-11-20 13:00,ZBYN 201300Z AUTO 00000KT 7SM M02/M04 A3033 RMK T10201040 IEM_DS3505
ZBYN,1984-11-20 14:00,ZBYN 201400Z AUTO 08002KT 7SM M04/M07 A3039 RMK T10401070 IEM_DS3505
ZBYN,1984-11-20 15:00,ZBYN 201500Z AUTO 00000KT 6SM M03/M04 RMK SLP318 T10291037 52009 IEM_DS3505
ZBYN,1984-11-20 18:00,ZBYN 201800Z AUTO 00000KT 7SM M03/M04 RMK SLP313 T10261045 40035//// 57002 IEM_DS3505
ZBYN,1984-11-20 21:00,ZBYN 202100Z AUTO 34002KT 5SM M04/M06 RMK SLP316 T10421055 57006 IEM_DS3505
ZBYN,1984-11-21 00:00,ZBYN 210000Z AUTO 36004KT 4SM M04/M06 RMK SLP335 T10431058 51012 IEM_DS3505
ZBYN,1984-11-21 03:00,ZBYN 210300Z AUTO 34004KT 4SM 03/M06 RMK SLP321 T00291065 57004 IEM_DS3505
ZBYN,1984-11-21 06:00,ZBYN 210600Z AUTO 00000KT 5SM 09/M06 RMK SLP276 T00911061 4////1050 57030 IEM_DS3505
ZBYN,1984-11-21 09:00,ZBYN 210900Z AUTO 20006KT 4SM 04/M04 RMK SLP291 T00401043 52003 IEM_DS3505
ZBYN,1984-11-21 12:00,ZBYN 211200Z AUTO 18004KT 7SM 04/00 RMK SLP303 T00350004 52009 IEM_DS3505
ZBYN,1984-11-21 15:00,ZBYN 211500Z AUTO 00000KT 6SM 03/M03 RMK T00341031 52005 IEM_DS3505
ZBYN,1984-11-21 18:00,ZBYN 211800Z AUTO 00000KT 6SM 03/M03 RMK SLP283 T00301034 40098//// 57002 IEM_DS3505
ZBYN,1984-11-21 21:00,ZBYN 212100Z AUTO 00000KT 6SM 02/M03 RMK SLP289 T00231031 57004 IEM_DS3505
ZBYN,1984-11-22 00:00,ZBYN 220000Z AUTO 00000KT 6SM 02/M03 RMK SLP296 T00191026 52005 IEM_DS3505
ZBYN,1984-11-22 03:00,ZBYN 220300Z AUTO 18004KT 6SM 06/M04 RMK SLP290 T00551042 54000 IEM_DS3505
ZBYN,1984-11-22 06:00,ZBYN 220600Z AUTO 20008KT 6SM 09/00 RMK SLP264 T00890001 4////0015 57019 IEM_DS3505
ZBYN,1984-11-22 09:00,ZBYN 220900Z AUTO 16004KT 5SM 07/01 RMK SLP266 T00680006 57002 IEM_DS3505
ZBYN,1984-11-22 12:00,ZBYN 221200Z AUTO 16002KT 4SM 04/M02 RMK SLP286 T00421018 52013 IEM_DS3505
ZBYN,1984-11-22 15:00,ZBYN 221500Z AUTO 00000KT 4SM 04/00 RMK SLP288 T00410001 52007 IEM_DS3505
ZBYN,1984-11-22 18:00,ZBYN 221800Z AUTO 00000KT 4SM 02/01 RMK 60012 SLP286 T00250014 40093//// 52001 IEM_DS3505
ZBYN,1984-11-22 21:00,ZBYN 222100Z AUTO 00000KT 4SM 02/01 RMK SLP283 T00170010 57006 IEM_DS3505
ZBYN,1984-11-23 00:00,ZBYN 230000Z AUTO 00000KT 1/2SM 02/01 RMK 60004 SLP305 T00180012 52015 IEM_DS3505
ZBYN,1984-11-23 03:00,ZBYN 230300Z AUTO 34004KT 2SM 04/02 RMK SLP310 T00410021 52008 IEM_DS3505
ZBYN,1984-11-23 06:00,ZBYN 230600Z AUTO 34004KT 4SM 08/01 RMK SLP296 T00790012 4////0016 57010 IEM_DS3505
ZBYN,1984-11-23 09:00,ZBYN 230900Z AUTO 36004KT 5SM 07/00 RMK SLP308 T00660004 52008 IEM_DS3505
ZBYN,1984-11-23 11:00,ZBYN 231100Z AUTO 32004KT 6SM 03/M02 RMK SLP384 T00341020 52014 IEM_DS3505
ZBYN,1984-11-23 12:00,ZBYN 231200Z AUTO 32004KT 6SM 03/M02 RMK SLP384 T00341020 52014 IEM_DS3505
ZBYN,1984-11-23 15:00,ZBYN 231500Z AUTO 32006KT 9SM 02/M04 RMK SLP345 T00251045 52017 IEM_DS3505
ZBYN,1984-11-23 18:00,ZBYN 231800Z AUTO 32006KT 7SM 01/M05 RMK SLP344 T00131048 40080//// 52004 IEM_DS3505
ZBYN,1984-11-23 21:00,ZBYN 232100Z AUTO 34006KT 7SM 00/M06 RMK SLP350 T00031058 52001 IEM_DS3505
ZBYN,1984-11-24 00:00,ZBYN 240000Z AUTO 32006KT 5SM 00/M07 A3047 RMK SLP364 T00011072 52007 IEM_DS3505
ZBYN,1984-11-24 01:00,ZBYN 240100Z AUTO 32014KT 5SM 01/M05 A3050 RMK T00101050 IEM_DS3505
ZBYN,1984-11-24 02:00,ZBYN 240200Z AUTO 32010KT 4SM 02/M04 A3050 RMK T00201040 IEM_DS3505
ZBYN,1984-11-24 03:00,ZBYN 240300Z AUTO 34006KT 4SM 03/M07 A3050 RMK SLP360 T00271072 54000 IEM_DS3505
ZBYN,1984-11-24 04:00,ZBYN 240400Z AUTO 00000KT 6SM 05/M02 A3050 RMK T00501020 IEM_DS3505
ZBYN,1984-11-24 05:00,ZBYN 240500Z AUTO 00000KT 6SM 06/M01 A3050 RMK T00601010 IEM_DS3505
ZBYN,1984-11-24 06:00,ZBYN 240600Z AUTO 14002KT 6SM 06/M03 A3047 RMK SLP332 T00651031 4////1002 57022 IEM_DS3505
ZBYN,1984-11-24 07:00,ZBYN 240700Z AUTO 14002KT 7SM 07/M01 A3047 RMK T00701010 IEM_DS3505
ZBYN,1984-11-24 08:00,ZBYN 240800Z AUTO 16004KT 7SM 07/M01 A3042 RMK T00701010 IEM_DS3505
ZBYN,1984-11-24 09:00,ZBYN 240900Z AUTO 00000KT 5SM 05/00 A3042 RMK SLP332 T00510001 57003 IEM_DS3505
ZBYN,1984-11-24 10:00,ZBYN 241000Z AUTO 19002KT 5SM 03/00 A3047 RMK T00300000 IEM_DS3505
ZBYN,1984-11-24 12:00,ZBYN 241200Z AUTO 14004KT 5SM 02/00 A3047 RMK SLP352 T00230001 52012 IEM_DS3505
ZBYN,1984-11-24 15:00,ZBYN 241500Z AUTO 16002KT 6SM 01/M02 RMK SLP357 T00101020 52008 IEM_DS3505
ZBYN,1984-11-24 18:00,ZBYN 241800Z AUTO 00000KT 5SM 00/M01 RMK SLP348 T00021010 40070//// 57004 IEM_DS3505
ZBYN,1984-11-24 21:00,ZBYN 242100Z AUTO 36002KT 4SM 02/M00 RMK SLP336 T00161003 57011 IEM_DS3505
ZBYN,1984-11-25 00:00,ZBYN 250000Z AUTO 00000KT 4SM 02/M01 RMK SLP348 T00211008 52007 IEM_DS3505
ZBYN,1984-11-25 03:00,ZBYN 250300Z AUTO 00000KT 2SM 03/00 RMK SLP353 T00290001 52004 IEM_DS3505
ZBYN,1984-11-25 06:00,ZBYN 250600Z AUTO 14002KT 2 1/2SM 04/01 RMK 60002 SLP328 T00390010 4////1003 57022 IEM_DS3505
ZBYN,1984-11-25 09:00,ZBYN 250900Z AUTO 18004KT 4SM 04/01 RMK SLP319 T00390012 57006 IEM_DS3505
ZBYN,1984-11-25 12:00,ZBYN 251200Z AUTO 16006KT 6SM 03/01 RMK 60000 SLP326 T00330012 52006 IEM_DS3505
ZBYN,1984-11-25 15:00,ZBYN 251500Z AUTO 00000KT 4SM 03/01 RMK SLP331 T00290010 52006 IEM_DS3505
ZBYN,1984-11-25 18:00,ZBYN 251800Z AUTO 00000KT 6SM 01/M00 RMK SLP327 T00071005 40042//// 57006 IEM_DS3505
ZBYN,1984-11-25 21:00,ZBYN 252100Z AUTO 11002KT 6SM M01/M04 RMK SLP308 T10071039 57003 IEM_DS3505
ZBYN,1984-11-26 00:00,ZBYN 260000Z AUTO 00000KT 2 1/2SM M01/M01 RMK SLP352 T10071013 52022 IEM_DS3505
ZBYN,1984-11-26 03:00,ZBYN 260300Z AUTO 18006KT 5SM 04/M06 RMK SLP357 T00361058 52011 IEM_DS3505
ZBYN,1984-11-26 06:00,ZBYN 260600Z AUTO 36008KT 9SM 03/M12 RMK SLP362 T00311120 4////1010 54000 IEM_DS3505
ZBYN,1984-11-26 09:00,ZBYN 260900Z AUTO 02010KT 11SM 02/M08 RMK SLP380 T00151076 52011 IEM_DS3505
ZBYN,1984-11-26 12:00,ZBYN 261200Z AUTO 36010KT 7SM M01/M15 RMK SLP406 T10071150 52021 IEM_DS3505
ZBYN,1984-11-26 15:00,ZBYN 261500Z AUTO 34008KT 9SM M02/M15 RMK SLP414 T10231146 52011 IEM_DS3505
ZBYN,1984-11-26 18:00,ZBYN 261800Z AUTO 34004KT 7SM M05/M15 RMK SLP419 T10501146 40041//// 57001 IEM_DS3505
ZBYN,1984-11-26 21:00,ZBYN 262100Z AUTO 32004KT 9SM M07/M14 RMK SLP419 T10681135 57011 IEM_DS3505
ZBYN,1984-11-27 00:00,ZBYN 270000Z AUTO 34006KT 7SM M07/M14 RMK SLP414 T10721135 57003 IEM_DS3505
ZBYN,1984-11-27 01:00,ZBYN 270100Z AUTO 00000KT 7SM M07/M10 A3062 RMK T10701100 IEM_DS3505
ZBYN,1984-11-27 02:00,ZBYN 270200Z AUTO 00000KT 7SM M04/M13 A3062 RMK T10401130 IEM_DS3505
ZBYN,1984-11-27 03:00,ZBYN 270300Z AUTO 00000KT 5SM M01/M11 A3059 RMK SLP395 T10111110 57010 IEM_DS3505
ZBYN,1984-11-27 04:00,ZBYN 270400Z AUTO 00000KT 7SM 00/M14 A3053 RMK T00001140 IEM_DS3505
ZBYN,1984-11-27 05:00,ZBYN 270500Z AUTO 18006KT 6SM 01/M12 A3050 RMK T00101120 IEM_DS3505
ZBYN,1984-11-27 06:00,ZBYN 270600Z AUTO 16006KT 7SM 01/M11 A3047 RMK SLP353 T00101110 4////1072 57039 IEM_DS3505
ZBYN,1984-11-27 07:00,ZBYN 270700Z AUTO 19002KT 7SM 02/M11 A3047 RMK T00201110 IEM_DS3505
ZBYN,1984-11-27 08:00,ZBYN 270800Z AUTO 19004KT 7SM 02/M11 A3042 RMK T00201110 IEM_DS3505
ZBYN,1984-11-27 09:00,ZBYN 270900Z AUTO 00000KT 6SM 00/M12 A3042 RMK SLP342 T00031115 57015 IEM_DS3505
ZBYN,1984-11-27 10:00,ZBYN 271000Z AUTO 00000KT 7SM M02/M06 A3042 RMK T10201060 IEM_DS3505
ZBYN,1984-11-27 12:00,ZBYN 271200Z AUTO 00000KT 6SM M03/M09 RMK SLP349 T10311092 52001 IEM_DS3505
ZBYN,1984-11-27 15:00,ZBYN 271500Z AUTO 36002KT 6SM M04/M12 RMK SLP337 T10381120 57002 IEM_DS3505
ZBYN,1984-11-27 18:00,ZBYN 271800Z AUTO 34004KT 6SM M06/M09 RMK SLP323 T10591087 40017//// 57013 IEM_DS3505
ZBYN,1984-11-27 21:00,ZBYN 272100Z AUTO 32002KT 5SM M07/M10 RMK SLP310 T10741105 57015 IEM_DS3505
ZBYN,1984-11-28 00:00,ZBYN 280000Z AUTO 34002KT 2 1/2SM M08/M10 RMK SLP322 T10751105 52004 IEM_DS3505
ZBYN,1984-11-28 03:00,ZBYN 280300Z AUTO 00000KT 5SM M01/M08 RMK SLP314 T10091083 52003 IEM_DS3505
ZBYN,1984-11-28 06:00,ZBYN 280600Z AUTO 16004KT 7SM 03/M07 RMK SLP278 T00301072 57030 IEM_DS3505
ZBYN,1984-11-28 09:00,ZBYN 280900Z AUTO 00000KT 5SM 02/M09 RMK SLP273 T00211092 57008 IEM_DS3505
ZBYN,1984-11-28 12:00,ZBYN 281200Z AUTO 00000KT 6SM M03/M07 RMK SLP291 T10331072 52007 IEM_DS3505
ZBYN,1984-11-28 15:00,ZBYN 281500Z AUTO 00000KT 6SM M04/M06 RMK SLP285 T10431058 52004 IEM_DS3505
ZBYN,1984-11-28 18:00,ZBYN 281800Z AUTO 00000KT 5SM M07/M08 RMK SLP280 T10681083 57003 IEM_DS3505
ZBYN,1984-11-29 00:00,ZBYN 290000Z AUTO 00000KT 4SM M05/M08 RMK SLP300 T10541083 52012 IEM_DS3505
ZBYN,1984-11-29 06:00,ZBYN 290600Z AUTO 00000KT 9SM 05/M04 RMK SLP274 T00491042 4////1007 57019 IEM_DS3505
ZBYN,1984-11-29 09:00,ZBYN 290900Z AUTO 00000KT 9SM 04/M03 RMK SLP282 T00441026 52002 IEM_DS3505
ZBYN,1984-11-29 12:00,ZBYN 291200Z AUTO 18004KT 9SM 00/M06 RMK SLP314 T00001058 52024 IEM_DS3505
ZBYN,1984-11-29 15:00,ZBYN 291500Z AUTO 11004KT 9SM M01/M06 RMK SLP319 T10081065 52011 IEM_DS3505
ZBYN,1984-11-29 18:00,ZBYN 291800Z AUTO 00000KT 9SM M02/M06 RMK SLP305 T10251065 40076//// 57006 IEM_DS3505
ZBYN,1984-11-29 21:00,ZBYN 292100Z AUTO 20002KT 9SM M03/M07 RMK SLP308 T10311072 52001 IEM_DS3505
ZBYN,1984-11-30 00:00,ZBYN 300000Z AUTO 27004KT 12SM M05/M09 RMK SLP332 T10481087 52011 IEM_DS3505
ZBYN,1984-11-30 03:00,ZBYN 300300Z AUTO 34012KT 12SM 05/M12 RMK SLP317 T00541115 52003 IEM_DS3505
ZBYN,1984-11-30 06:00,ZBYN 300600Z AUTO 34014KT 12SM 07/M12 RMK SLP292 T00721120 4////1048 57023 IEM_DS3505
ZBYN,1984-11-30 09:00,ZBYN 300900Z AUTO 32014KT 12SM 05/M16 RMK SLP305 T00511165 52007 IEM_DS3505
ZBYN,1984-11-30 12:00,ZBYN 301200Z AUTO 00000KT 14SM 00/M09 RMK SLP333 T00031087 52014 IEM_DS3505
ZBYN,1984-11-30 15:00,ZBYN 301500Z AUTO 00000KT 12SM M02/M08 RMK SLP317 T10211083 57001 IEM_DS3505
ZBYN,1984-11-30 18:00,ZBYN 301800Z AUTO 29006KT 12SM M01/M12 RMK SLP306 T10131115 40075//// 57005 IEM_DS3505
ZBYN,1984-11-30 21:00,ZBYN 302100Z AUTO 00000KT 12SM M05/M11 RMK SLP314 T10521110 57003 IEM_DS3505
ZBYN,1984-12-01 00:00,ZBYN 010000Z AUTO 00000KT 9SM M08/M10 RMK SLP335 T10761105 52007 IEM_DS3505
ZBYN,1984-12-01 01:00,ZBYN 010100Z AUTO 07004KT 7SM M03/M12 A3039 RMK T10301120 IEM_DS3505
ZBYN,1984-12-01 02:00,ZBYN 010200Z AUTO 09008KT 7SM 00/M13 A3039 RMK T00001130 IEM_DS3505
ZBYN,1984-12-01 03:00,ZBYN 010300Z AUTO 16002KT 6SM 02/M12 A3039 RMK SLP317 T00151115 57005 IEM_DS3505
ZBYN,1984-12-01 04:00,ZBYN 010400Z AUTO 00000KT 7SM 04/M10 A3033 RMK T00401100 IEM_DS3505
ZBYN,1984-12-01 05:00,ZBYN 010500Z AUTO 18004KT 6SM 06/M13 A3030 RMK T00601130 IEM_DS3505
ZBYN,1984-12-01 06:00,ZBYN 010600Z AUTO 18006KT 11SM 06/M13 A3024 RMK SLP262 T00561130 4////1077 57042 IEM_DS3505
ZBYN,1984-12-01 07:00,ZBYN 010700Z AUTO 00000KT 7SM 06/M13 A3024 RMK T00601130 IEM_DS3505
ZBYN,1984-12-01 08:00,ZBYN 010800Z AUTO 00000KT 7SM 08/M10 A3021 RMK T00801100 IEM_DS3505
ZBYN,1984-12-01 09:00,ZBYN 010900Z AUTO 00000KT 12SM 05/M03 A3021 RMK SLP253 T00461029 57016 IEM_DS3505
ZBYN,1984-12-01 10:00,ZBYN 011000Z AUTO 00000KT 7SM 06/M10 A3021 RMK T00601100 IEM_DS3505
ZBYN,1984-12-01 12:00,ZBYN 011200Z AUTO 00000KT 6SM M02/M08 RMK SLP276 T10231083 57005 IEM_DS3505
ZBYN,1984-12-01 15:00,ZBYN 011500Z AUTO 00000KT 6SM M01/M09 RMK T10131092 57002 IEM_DS3505
ZBYN,1984-12-01 18:00,ZBYN 011800Z AUTO 00000KT 6SM M02/M10 RMK SLP240 T10221105 40065//// 57009 IEM_DS3505
ZBYN,1984-12-01 21:00,ZBYN 012100Z AUTO 34006KT 7SM M04/M12 RMK SLP234 T10361120 57009 IEM_DS3505
ZBYN,1984-12-02 00:00,ZBYN 020000Z AUTO 00000KT 7SM M04/M11 RMK SLP249 T10421110 52015 IEM_DS3505
ZBYN,1984-12-02 03:00,ZBYN 020300Z AUTO 34004KT 5SM 02/M12 RMK SLP226 T00231125 57008 IEM_DS3505
ZBYN,1984-12-02 06:00,ZBYN 020600Z AUTO 18004KT 5SM 07/M07 RMK SLP188 T00721072 4////1047 57028 IEM_DS3505
ZBYN,1984-12-02 09:00,ZBYN 020900Z AUTO 00000KT 6SM 05/M05 RMK SLP202 T00511048 52007 IEM_DS3505
ZBYN,1984-12-02 12:00,ZBYN 021200Z AUTO 00000KT 5SM M01/M05 RMK SLP230 T10131052 52013 IEM_DS3505
ZBYN,1984-12-02 15:00,ZBYN 021500Z AUTO 34002KT 6SM M01/M07 RMK SLP232 T10081072 52014 IEM_DS3505
ZBYN,1984-12-02 18:00,ZBYN 021800Z AUTO 00000KT 7SM M03/M06 RMK SLP225 T10311058 40075//// 57001 IEM_DS3505
ZBYN,1984-12-02 21:00,ZBYN 022100Z AUTO 34004KT 6SM M02/ RMK SLP223 57005 IEM_DS3505
ZBYN,1984-12-03 00:00,ZBYN 030000Z AUTO 36004KT 4SM M04/M07 RMK SLP258 T10451072 52018 IEM_DS3505
ZBYN,1984-12-03 03:00,ZBYN 030300Z AUTO 00000KT 4SM 02/M05 RMK SLP252 T00211052 52007 IEM_DS3505
ZBYN,1984-12-03 06:00,ZBYN 030600Z AUTO 00000KT 4SM 07/M05 RMK SLP233 T00671052 4////1052 57015 IEM_DS3505
ZBYN,1984-12-03 09:00,ZBYN 030900Z AUTO 00000KT 4SM 04/M09 RMK SLP261 T00411087 52024 IEM_DS3505
ZBYN,1984-12-03 12:00,ZBYN 031200Z AUTO 02012KT 6SM 03/M06 RMK SLP328 T00271058 52054 IEM_DS3505
ZBYN,1984-12-03 15:00,ZBYN 031500Z AUTO 36010KT 9SM M01/M08 RMK SLP355 T10111079 52028 IEM_DS3505
ZBYN,1984-12-03 18:00,ZBYN 031800Z AUTO 02010KT 12SM M03/M12 RMK SLP379 T10321115 40067//// 52027 IEM_DS3505
ZBYN,1984-12-03 21:00,ZBYN 032100Z AUTO 02008KT 11SM M06/M15 RMK SLP403 T10601146 52010 IEM_DS3505
ZBYN,1984-12-04 00:00,ZBYN 040000Z AUTO 02002KT 9SM M08/M17 RMK SLP413 T10821170 52005 IEM_DS3505
ZBYN,1984-12-04 03:00,ZBYN 040300Z AUTO 36004KT 6SM M07/M15 RMK SLP423 T10661150 52007 IEM_DS3505
ZBYN,1984-12-04 05:00,ZBYN 040500Z AUTO 32006KT 6SM M03/M24 A3053 RMK T10301240 IEM_DS3505
ZBYN,1984-12-04 06:00,ZBYN 040600Z AUTO 00000KT 6SM M03/M16 A3050 RMK SLP380 T10291160 4////1082 57038 IEM_DS3505
ZBYN,1984-12-04 07:00,ZBYN 040700Z AUTO 6SM M02/M22 A3050 RMK T10201220 IEM_DS3505
ZBYN,1984-12-04 08:00,ZBYN 040800Z AUTO 22006KT 6SM M03/ A3050 RMK IEM_DS3505
ZBYN,1984-12-04 09:00,ZBYN 040900Z AUTO 16004KT 11SM M04/M15 RMK SLP372 T10361146 57012 IEM_DS3505
ZBYN,1984-12-04 12:00,ZBYN 041200Z AUTO 27002KT 9SM M07/M15 RMK SLP392 T10691146 52008 IEM_DS3505
ZBYN,1984-12-04 15:00,ZBYN 041500Z AUTO 02006KT 11SM M06/M19 RMK SLP385 T10601190 57002 IEM_DS3505
ZBYN,1984-12-04 18:00,ZBYN 041800Z AUTO 11004KT 12SM M10/M18 RMK SLP378 T10961180 41022//// 57006 IEM_DS3505
ZBYN,1984-12-04 21:00,ZBYN 042100Z AUTO 00000KT 12SM M12/M16 RMK SLP368 T11171160 57014 IEM_DS3505
ZBYN,1984-12-05 00:00,ZBYN 050000Z AUTO 00000KT 6SM M12/M17 RMK SLP370 T11151170 57004 IEM_DS3505
ZBYN,1984-12-05 03:00,ZBYN 050300Z AUTO 34004KT 5SM M06/M16 RMK SLP357 T10641160 57001 IEM_DS3505
ZBYN,1984-12-05 06:00,ZBYN 050600Z AUTO 00000KT 7SM M02/M16 RMK SLP315 T10231165 4////1124 57037 IEM_DS3505
ZBYN,1984-12-05 09:00,ZBYN 050900Z AUTO 00000KT 5SM M02/M16 RMK SLP302 T10221160 57014 IEM_DS3505
ZBYN,1984-12-05 12:00,ZBYN 051200Z AUTO 00000KT 5SM M06/M15 RMK SLP313 T10621146 52002 IEM_DS3505
ZBYN,1984-12-05 15:00,ZBYN 051500Z AUTO 09004KT 6SM M08/M15 RMK SLP317 T10821146 52009 IEM_DS3505
ZBYN,1984-12-05 18:00,ZBYN 051800Z AUTO 34002KT 7SM M08/M16 RMK SLP311 T10801160 41012//// 52003 IEM_DS3505
ZBYN,1984-12-05 21:00,ZBYN 052100Z AUTO 00000KT 9SM M09/M14 RMK SLP303 T10871140 57008 IEM_DS3505
ZBYN,1984-12-06 00:00,ZBYN 060000Z AUTO 00000KT 5SM M11/M14 RMK SLP321 T11121140 52005 IEM_DS3505
ZBYN,1984-12-06 03:00,ZBYN 060300Z AUTO 00000KT 5SM M03/M17 RMK SLP307 T10271170 57001 IEM_DS3505
ZBYN,1984-12-06 06:00,ZBYN 060600Z AUTO 00000KT 6SM 03/M12 RMK SLP271 T00261115 4////1112 57024 IEM_DS3505
ZBYN,1984-12-06 09:00,ZBYN 060900Z AUTO 29002KT 6SM 01/M12 RMK SLP268 T00091120 57006 IEM_DS3505
ZBYN,1984-12-06 12:00,ZBYN 061200Z AUTO 02002KT 5SM M04/M11 RMK SLP293 T10421110 52010 IEM_DS3505
ZBYN,1984-12-06 15:00,ZBYN 061500Z AUTO 02004KT 2 1/2SM M05/M11 RMK SLP293 T10521110 52012 IEM_DS3505
ZBYN,1984-12-06 18:00,ZBYN 061800Z AUTO 36002KT 5SM M06/M13 RMK SLP278 T10561130 40032//// 57006 IEM_DS3505
ZBYN,1984-12-06 21:00,ZBYN 062100Z AUTO 00000KT 4SM M05/M10 RMK T10501105 57007 IEM_DS3505
ZBYN,1984-12-07 00:00,ZBYN 070000Z AUTO 00000KT 5SM M04/M12 RMK SLP285 T10381115 52006 IEM_DS3505
ZBYN,1984-12-07 03:00,ZBYN 070300Z AUTO 00000KT 4SM M02/M09 RMK SLP297 T10211092 52012 IEM_DS3505
ZBYN,1984-12-07 06:00,ZBYN 070600Z AUTO 18004KT 4SM M01/M10 RMK SLP278 T10131105 4////1067 57016 IEM_DS3505
ZBYN,1984-12-07 09:00,ZBYN 070900Z AUTO 00000KT 4SM M01/M08 RMK SLP280 T10091076 52003 IEM_DS3505
ZBYN,1984-12-07 12:00,ZBYN 071200Z AUTO 00000KT 6SM M03/M07 RMK SLP294 T10321069 52011 IEM_DS3505
ZBYN,1984-12-07 15:00,ZBYN 071500Z AUTO 00000KT 4SM M04/M09 RMK SLP298 T10451087 52004 IEM_DS3505
ZBYN,1984-12-07 18:00,ZBYN 071800Z AUTO 32004KT 6SM M06/M09 RMK T10581087 40028//// 57036 IEM_DS3505
ZBYN,1984-12-07 21:00,ZBYN 072100Z AUTO 00000KT 4SM M08/M10 RMK SLP302 T10781105 57002 IEM_DS3505
ZBYN,1984-12-08 00:00,ZBYN 080000Z AUTO 00000KT 2 1/2SM M06/M09 RMK SLP313 T10621087 52009 IEM_DS3505
ZBYN,1984-12-08 01:00,ZBYN 080100Z AUTO 00000KT 1 1/4SM M07/M08 A3033 RMK T10701080 IEM_DS3505
ZBYN,1984-12-08 02:00,ZBYN 080200Z AUTO 28004KT 1SM M05/M07 A3033 RMK T10501070 IEM_DS3505
ZBYN,1984-12-08 03:00,ZBYN 080300Z AUTO 00000KT 4SM M02/M07 A3033 RMK SLP308 T10251069 54000 IEM_DS3505
ZBYN,1984-12-08 04:00,ZBYN 080400Z AUTO 00000KT 1SM 00/M06 A3030 RMK T00001060 IEM_DS3505
ZBYN,1984-12-08 05:00,ZBYN 080500Z AUTO 00000KT 1 1/2SM 01/M05 A3024 RMK T00101050 IEM_DS3505
ZBYN,1984-12-08 06:00,ZBYN 080600Z AUTO 00000KT 5SM 01/M08 A3024 RMK SLP276 T00071079 4////1080 57027 IEM_DS3505
ZBYN,1984-12-08 07:00,ZBYN 080700Z AUTO 00000KT 1SM 01/M07 A3021 RMK T00101070 IEM_DS3505
ZBYN,1984-12-08 08:00,ZBYN 080800Z AUTO 00000KT 1SM 01/M07 A3021 RMK T00101070 IEM_DS3505
ZBYN,1984-12-08 09:00,ZBYN 080900Z AUTO 00000KT 4SM 01/M06 A3021 RMK SLP270 T00061065 57009 IEM_DS3505
ZBYN,1984-12-08 10:00,ZBYN 081000Z AUTO 00000KT 1SM M01/M06 A3021 RMK T10101060 IEM_DS3505
ZBYN,1984-12-08 12:00,ZBYN 081200Z AUTO 00000KT 4SM M01/M04 RMK SLP286 T10111045 52015 IEM_DS3505
ZBYN,1984-12-08 15:00,ZBYN 081500Z AUTO 00000KT 4SM M01/M04 RMK SLP291 T10081039 52011 IEM_DS3505
ZBYN,1984-12-08 18:00,ZBYN 081800Z AUTO 00000KT 4SM M02/M03 RMK 60001 SLP268 T10191026 40014//// 57017 IEM_DS3505
ZBYN,1984-12-08 21:00,ZBYN 082100Z AUTO 00000KT 4SM M02/M04 RMK SLP252 T10191037 57015 IEM_DS3505
ZBYN,1984-12-09 00:00,ZBYN 090000Z AUTO 00000KT 4SM M02/M04 RMK SLP265 T10221037 52008 IEM_DS3505
ZBYN,1984-12-09 03:00,ZBYN 090300Z AUTO 16004KT 4SM 00/M03 RMK SLP256 T00051031 57003 IEM_DS3505
ZBYN,1984-12-09 06:00,ZBYN 090600Z AUTO 16004KT 5SM 03/M04 RMK SLP229 T00331042 4////1028 57021 IEM_DS3505
ZBYN,1984-12-09 09:00,ZBYN 090900Z AUTO 00000KT 4SM 02/M04 RMK SLP237 T00221045 52005 IEM_DS3505
ZBYN,1984-12-09 12:00,ZBYN 091200Z AUTO 00000KT 6SM M02/M04 RMK SLP255 T10171039 52010 IEM_DS3505
ZBYN,1984-12-09 15:00,ZBYN 091500Z AUTO 00000KT 4SM M03/M05 RMK SLP263 T10331048 52008 IEM_DS3505
ZBYN,1984-12-09 18:00,ZBYN 091800Z AUTO 14002KT 4SM M05/M06 RMK SLP270 T10541061 40113//// 52008 IEM_DS3505
ZBYN,1984-12-09 21:00,ZBYN 092100Z AUTO 00000KT 2 1/2SM M06/M06 RMK SLP273 T10571065 54000 IEM_DS3505
ZBYN,1984-12-10 00:00,ZBYN 100000Z AUTO 00000KT 2 1/2SM M06/M07 RMK SLP291 T10631072 52010 IEM_DS3505
ZBYN,1984-12-10 03:00,ZBYN 100300Z AUTO 00000KT 2 1/2SM M01/M05 RMK SLP293 T10121048 52006 IEM_DS3505
ZBYN,1984-12-10 06:00,ZBYN 100600Z AUTO 18004KT 4SM RMK SLP267 4////1070 57020 IEM_DS3505
ZBYN,1984-12-10 09:00,ZBYN 100900Z AUTO 16002KT 9SM 00/M03 RMK SLP278 T00041026 52005 IEM_DS3505
ZBYN,1984-12-10 12:00,ZBYN 101200Z AUTO 16002KT 5SM M02/M04 RMK SLP299 T10221039 52014 IEM_DS3505
ZBYN,1984-12-10 15:00,ZBYN 101500Z AUTO 00000KT 4SM M02/M03 RMK SLP301 T10211031 52011 IEM_DS3505
ZBYN,1984-12-10 18:00,ZBYN 101800Z AUTO 00000KT 5SM M02/M03 RMK SLP278 T10171028 40032//// 57014 IEM_DS3505
ZBYN,1984-12-10 21:00,ZBYN 102100Z AUTO 00000KT 2 1/2SM M02/M03 RMK SLP264 T10171026 57016 IEM_DS3505
ZBYN,1984-12-11 00:00,ZBYN 110000Z AUTO 00000KT 2 1/2SM M02/M03 RMK 60004 SLP276 T10171026 52006 IEM_DS3505
ZBYN,1984-12-11 03:00,ZBYN 110300Z AUTO 25004KT 4SM 01/M02 A3024 RMK SLP274 T00121020 52003 IEM_DS3505
ZBYN,1984-12-11 04:00,ZBYN 110400Z AUTO 20008KT 1 1/2SM 03/M01 A3021 RMK T00301010 IEM_DS3505
ZBYN,1984-12-11 05:00,ZBYN 110500Z AUTO 20008KT 2SM 04/M01 A3021 RMK T00401010 IEM_DS3505
ZBYN,1984-12-11 06:00,ZBYN 110600Z AUTO 18004KT 6SM 04/M01 A3015 RMK SLP243 T00411008 4////1024 57023 IEM_DS3505
ZBYN,1984-12-11 07:00,ZBYN 110700Z AUTO 00000KT 6SM 04/ A3015 RMK IEM_DS3505
ZBYN,1984-12-11 08:00,ZBYN 110800Z AUTO 23006KT 7SM 04/M03 A3021 RMK T00401030 IEM_DS3505
ZBYN,1984-12-11 09:00,ZBYN 110900Z AUTO 00000KT 5SM 02/M03 A3021 RMK SLP253 T00231031 52008 IEM_DS3505
ZBYN,1984-12-11 10:00,ZBYN 111000Z AUTO 00000KT 7SM 00/M04 A3021 RMK T00001040 IEM_DS3505
ZBYN,1984-12-11 11:00,ZBYN 111100Z AUTO 32004KT 6SM M01/M04 A3024 RMK T10101045 52025 IEM_DS3505
ZBYN,1984-12-11 12:00,ZBYN 111200Z AUTO 32004KT 6SM M01/M04 A3024 RMK SLP288 T10101045 52025 IEM_DS3505
ZBYN,1984-12-11 13:00,ZBYN 111300Z AUTO 32010KT 7SM M03/M06 A3024 RMK T10301060 IEM_DS3505
ZBYN,1984-12-11 15:00,ZBYN 111500Z AUTO 29004KT 7SM M02/M06 RMK SLP286 T10201061 52005 IEM_DS3505
ZBYN,1984-12-11 17:00,ZBYN 111700Z AUTO 07002KT 7SM M03/M08 A3030 RMK T10301080 IEM_DS3505
ZBYN,1984-12-11 18:00,ZBYN 111800Z AUTO 34004KT 9SM M03/M06 A3030 RMK SLP287 T10261065 40043//// 52001 IEM_DS3505
ZBYN,1984-12-11 19:00,ZBYN 111900Z AUTO 00000KT 7SM M07/M08 A3030 RMK T10701080 IEM_DS3505
ZBYN,1984-12-11 20:00,ZBYN 112000Z AUTO 00000KT 7SM M08/M10 A3030 RMK T10801100 IEM_DS3505
ZBYN,1984-12-11 21:00,ZBYN 112100Z AUTO 34004KT 6SM RMK SLP292 57002 IEM_DS3505
ZBYN,1984-12-11 22:00,ZBYN 112200Z AUTO 15006KT 7SM M08/M10 A3030 RMK T10801100 IEM_DS3505
ZBYN,1984-12-11 23:00,ZBYN 112300Z AUTO 02004KT 7SM M10/M12 A3030 RMK T11001120 IEM_DS3505
ZBYN,1984-12-12 00:00,ZBYN 120000Z AUTO 34006KT 7SM M05/M09 RMK SLP307 T10471092 52009 IEM_DS3505
ZBYN,1984-12-12 01:00,ZBYN 120100Z AUTO 01004KT 5SM M07/M09 A3033 RMK T10701090 IEM_DS3505
ZBYN,1984-12-12 02:00,ZBYN 120200Z AUTO 35006KT 2 1/2SM M02/M06 A3033 RMK T10201060 IEM_DS3505
ZBYN,1984-12-12 03:00,ZBYN 120300Z AUTO 34004KT 5SM M01/M07 A3030 RMK SLP299 T10061072 57003 IEM_DS3505
ZBYN,1984-12-12 04:00,ZBYN 120400Z AUTO 06014KT 6SM 03/M08 A3024 RMK T00301080 IEM_DS3505
ZBYN,1984-12-12 06:00,ZBYN 120600Z AUTO 34002KT 6SM M02/M07 RMK SLP261 T10241069 4////1055 57030 IEM_DS3505
ZBYN,1984-12-12 09:00,ZBYN 120900Z AUTO 00000KT 5SM 01/M05 RMK SLP259 T00131048 57008 IEM_DS3505
ZBYN,1984-12-12 12:00,ZBYN 121200Z AUTO 00000KT 5SM 00/M06 RMK SLP270 T00031058 52009 IEM_DS3505
ZBYN,1984-12-12 15:00,ZBYN 121500Z AUTO 34004KT 5SM M02/M04 RMK SLP263 T10151039 57003 IEM_DS3505
ZBYN,1984-12-12 18:00,ZBYN 121800Z AUTO 32002KT 6SM M03/M03 RMK 60004 SLP247 T10271034 40030//// 57012 IEM_DS3505
ZBYN,1984-12-12 21:00,ZBYN 122100Z AUTO 00000KT 7SM M03/M03 RMK SLP230 T10261034 57016 IEM_DS3505
ZBYN,1984-12-13 00:00,ZBYN 130000Z AUTO 16002KT 4SM M02/M03 RMK SLP240 T10241034 52007 IEM_DS3505
ZBYN,1984-12-13 03:00,ZBYN 130300Z AUTO 00000KT 4SM M01/M02 RMK SLP255 T10111018 52013 IEM_DS3505
ZBYN,1984-12-13 06:00,ZBYN 130600Z AUTO 32002KT 4SM M00/M02 RMK SLP240 T10011015 4////1031 57014 IEM_DS3505
ZBYN,1984-12-13 09:00,ZBYN 130900Z AUTO 34008KT 4SM 00/M02 RMK SLP234 T00051015 57004 IEM_DS3505
ZBYN,1984-12-13 12:00,ZBYN 131200Z AUTO 02002KT 4SM 01/M02 RMK SLP269 T00081023 52033 IEM_DS3505
ZBYN,1984-12-13 15:00,ZBYN 131500Z AUTO 00000KT 4SM 01/M03 RMK SLP288 T00071034 52019 IEM_DS3505
ZBYN,1984-12-13 18:00,ZBYN 131800Z AUTO 34004KT 4SM 00/M03 RMK SLP285 T00041026 40011//// 57001 IEM_DS3505
ZBYN,1984-12-13 21:00,ZBYN 132100Z AUTO 34006KT 5SM M02/M07 RMK SLP290 T10201069 52001 IEM_DS3505
ZBYN,1984-12-14 00:00,ZBYN 140000Z AUTO 04006KT 6SM M02/M07 RMK SLP316 T10221072 52024 IEM_DS3505
ZBYN,1984-12-14 03:00,ZBYN 140300Z AUTO 11006KT 5SM M01/M07 RMK SLP330 T10071069 52015 IEM_DS3505
ZBYN,1984-12-14 06:00,ZBYN 140600Z AUTO 09012KT 6SM M00/M08 RMK SLP309 T10041079 4////1031 57019 IEM_DS3505
ZBYN,1984-12-14 09:00,ZBYN 140900Z AUTO 07010KT 12SM M01/M08 RMK SLP326 T10121083 52010 IEM_DS3505
ZBYN,1984-12-14 12:00,ZBYN 141200Z AUTO 00000KT 7SM M03/M07 RMK SLP347 T10311072 52015 IEM_DS3505
ZBYN,1984-12-14 15:00,ZBYN 141500Z AUTO 07010KT 6SM M04/M07 RMK SLP361 T10411072 52014 IEM_DS3505
ZBYN,1984-12-14 18:00,ZBYN 141800Z AUTO 00000KT 5SM M05/M08 RMK 60001 SLP355 T10461076 40005//// 57006 IEM_DS3505
ZBYN,1984-12-14 21:00,ZBYN 142100Z AUTO 32002KT 4SM M05/M06 RMK SLP341 T10531065 57016 IEM_DS3505
ZBYN,1984-12-15 00:00,ZBYN 150000Z AUTO 00000KT 3SM M06/M07 A3042 RMK 60004 SLP349 T10601069 52004 IEM_DS3505
ZBYN,1984-12-15 01:00,ZBYN 150100Z AUTO 06006KT M06/M09 A3042 RMK T10601090 IEM_DS3505
ZBYN,1984-12-15 02:00,ZBYN 150200Z AUTO 07006KT 5SM M05/M09 A3042 RMK T10501090 IEM_DS3505
ZBYN,1984-12-15 03:00,ZBYN 150300Z AUTO 32004KT 4SM M05/M07 A3039 RMK SLP344 T10501069 57005 IEM_DS3505
ZBYN,1984-12-15 05:00,ZBYN 150500Z AUTO 01004KT 5SM M04/M09 A3033 RMK T10401090 IEM_DS3505
ZBYN,1984-12-15 06:00,ZBYN 150600Z AUTO 34004KT 4SM M04/M06 A3030 RMK 60004 SLP306 T10431065 4////1060 57034 IEM_DS3505
ZBYN,1984-12-15 07:00,ZBYN 150700Z AUTO 00000KT 3SM M04/M08 A3030 RMK T10401080 IEM_DS3505
ZBYN,1984-12-15 08:00,ZBYN 150800Z AUTO 06006KT 2 1/2SM M04/M08 A3030 RMK T10401080 IEM_DS3505
ZBYN,1984-12-15 09:00,ZBYN 150900Z AUTO 00000KT 4SM M05/M06 A3030 RMK SLP306 T10501065 57002 IEM_DS3505
ZBYN,1984-12-15 10:00,ZBYN 151000Z AUTO 09006KT 2SM M05/M07 A3030 RMK T10501070 IEM_DS3505
ZBYN,1984-12-15 12:00,ZBYN 151200Z AUTO 00000KT 4SM M06/M06 RMK 60004 SLP315 T10571065 52005 IEM_DS3505
ZBYN,1984-12-15 15:00,ZBYN 151500Z AUTO 00000KT 4SM M07/M08 RMK SLP317 T10671076 52002 IEM_DS3505
ZBYN,1984-12-15 18:00,ZBYN 151800Z AUTO 00000KT 6SM M12/M13 RMK 60002 SLP313 T11191130 41040//// 57011 IEM_DS3505
ZBYN,1984-12-15 21:00,ZBYN 152100Z AUTO 00000KT 6SM M09/M10 RMK SLP293 T10871096 57014 IEM_DS3505
ZBYN,1984-12-16 00:00,ZBYN 160000Z AUTO 00000KT 4SM M07/M08 RMK SLP307 T10741079 52013 IEM_DS3505
ZBYN,1984-12-16 03:00,ZBYN 160300Z AUTO 00000KT 4SM M05/M08 RMK SLP296 T10541079 57008 IEM_DS3505
ZBYN,1984-12-16 06:00,ZBYN 160600Z AUTO 00000KT 5SM M04/M08 RMK SLP277 T10391083 4////1130 57023 IEM_DS3505
ZBYN,1984-12-16 09:00,ZBYN 160900Z AUTO 00000KT 4SM M05/M07 RMK SLP264 T10471069 57008 IEM_DS3505
ZBYN,1984-12-16 12:00,ZBYN 161200Z AUTO 00000KT 6SM M06/M07 RMK SLP290 T10621072 52023 IEM_DS3505
ZBYN,1984-12-16 15:00,ZBYN 161500Z AUTO 00000KT 5SM M09/M10 RMK T10941100 IEM_DS3505
ZBYN,1984-12-16 18:00,ZBYN 161800Z AUTO 02002KT 4SM M08/M10 RMK SLP293 T10771096 41034//// 52011 IEM_DS3505
ZBYN,1984-12-16 21:00,ZBYN 162100Z AUTO 36006KT 4SM M10/M12 RMK T10981115 52003 IEM_DS3505
ZBYN,1984-12-17 00:00,ZBYN 170000Z AUTO 34010KT 9SM M08/M15 RMK SLP325 T10801146 52024 IEM_DS3505
ZBYN,1984-12-17 03:00,ZBYN 170300Z AUTO 29010KT 12SM M08/M18 RMK SLP374 T10831180 52037 IEM_DS3505
ZBYN,1984-12-17 06:00,ZBYN 170600Z AUTO 29012KT 16SM M09/M19 RMK SLP363 T10891190 4////1103 57008 IEM_DS3505
ZBYN,1984-12-17 09:00,ZBYN 170900Z AUTO 29008KT 12SM M11/M21 RMK SLP375 T11101210 52004 IEM_DS3505
ZBYN,1984-12-17 12:00,ZBYN 171200Z AUTO 29014KT 11SM M13/M21 RMK SLP403 T11291210 52026 IEM_DS3505
ZBYN,1984-12-17 15:00,ZBYN 171500Z AUTO 29010KT 12SM M14/M21 RMK SLP411 T11391210 52005 IEM_DS3505
ZBYN,1984-12-17 18:00,ZBYN 171800Z AUTO 22004KT 11SM M17/M22 RMK T11721220 41045//// 57016 IEM_DS3505
ZBYN,1984-12-17 21:00,ZBYN 172100Z AUTO 20002KT 16SM M17/M21 RMK SLP390 T11711210 57016 IEM_DS3505
ZBYN,1984-12-18 00:00,ZBYN 180000Z AUTO 14004KT 16SM M18/M21 RMK SLP406 T11831210 52009 IEM_DS3505
ZBYN,1984-12-18 03:00,ZBYN 180300Z AUTO 20006KT 16SM M13/M19 RMK SLP401 T11271190 52006 IEM_DS3505
ZBYN,1984-12-18 04:00,ZBYN 180400Z AUTO 20006KT 7SM M11/M21 A3042 RMK T11101210 IEM_DS3505
ZBYN,1984-12-18 05:00,ZBYN 180500Z AUTO 21006KT 7SM M09/M23 A3039 RMK T10901230 IEM_DS3505
ZBYN,1984-12-18 06:00,ZBYN 180600Z AUTO 20004KT 11SM M10/M17 A3033 RMK SLP360 T11031170 4////1183 57041 IEM_DS3505
ZBYN,1984-12-18 07:00,ZBYN 180700Z AUTO 22006KT 7SM M08/ A3036 RMK IEM_DS3505
ZBYN,1984-12-18 08:00,ZBYN 180800Z AUTO 18004KT 7SM M08/M21 RMK T10801210 IEM_DS3505
ZBYN,1984-12-18 09:00,ZBYN 180900Z AUTO 14004KT 11SM M11/M18 A3030 RMK SLP345 T11081180 57013 IEM_DS3505
ZBYN,1984-12-18 10:00,ZBYN 181000Z AUTO 18008KT 6SM M10/M18 A3030 RMK T11001180 IEM_DS3505
ZBYN,1984-12-18 12:00,ZBYN 181200Z AUTO 11002KT 9SM M10/M15 RMK SLP359 T11031150 52010 IEM_DS3505
ZBYN,1984-12-18 15:00,ZBYN 181500Z AUTO 14002KT 11SM M10/M16 RMK SLP347 T10981160 54000 IEM_DS3505
ZBYN,1984-12-18 18:00,ZBYN 181800Z AUTO 00000KT 9SM M12/M16 RMK SLP333 T11191160 41085//// 57011 IEM_DS3505
ZBYN,1984-12-18 21:00,ZBYN 182100Z AUTO 00000KT 9SM M11/M14 RMK SLP350 T11091140 52016 IEM_DS3505
ZBYN,1984-12-19 00:00,ZBYN 190000Z AUTO 14002KT 7SM M11/M14 RMK SLP345 T11121140 57004 IEM_DS3505
ZBYN,1984-12-19 03:00,ZBYN 190300Z AUTO 16002KT 6SM M07/M14 RMK SLP335 T10671135 57001 IEM_DS3505
ZBYN,1984-12-19 06:00,ZBYN 190600Z AUTO 18004KT 9SM M03/M15 RMK SLP307 T10321150 4////1134 57022 IEM_DS3505
ZBYN,1984-12-19 09:00,ZBYN 190900Z AUTO 11002KT 12SM M05/M14 RMK SLP304 T10501140 57003 IEM_DS3505
ZBYN,1984-12-19 12:00,ZBYN 191200Z AUTO 29002KT 12SM M09/M16 RMK SLP330 T10911160 52015 IEM_DS3505
ZBYN,1984-12-19 15:00,ZBYN 191500Z AUTO 00000KT 6SM M13/M16 RMK SLP347 T11281160 52016 IEM_DS3505
ZBYN,1984-12-19 18:00,ZBYN 191800Z AUTO 14004KT 9SM M15/M18 RMK SLP338 T11521180 41031//// 57006 IEM_DS3505
ZBYN,1984-12-19 21:00,ZBYN 192100Z AUTO 00000KT 9SM M17/M19 RMK SLP343 T11661190 57001 IEM_DS3505
ZBYN,1984-12-20 00:00,ZBYN 200000Z AUTO 00000KT 4SM M15/M17 RMK SLP358 T11481170 52010 IEM_DS3505
ZBYN,1984-12-20 03:00,ZBYN 200300Z AUTO 16002KT 5SM M08/M15 RMK SLP364 T10791150 52011 IEM_DS3505
ZBYN,1984-12-20 06:00,ZBYN 200600Z AUTO 18004KT 4SM M05/M15 RMK SLP347 T10541150 4////1175 57015 IEM_DS3505
ZBYN,1984-12-20 09:00,ZBYN 200900Z AUTO 00000KT 6SM M07/M14 RMK SLP359 T10661135 52005 IEM_DS3505
ZBYN,1984-12-20 12:00,ZBYN 201200Z AUTO 16004KT 6SM M09/M14 RMK SLP384 T10871135 52022 IEM_DS3505
ZBYN,1984-12-20 15:00,ZBYN 201500Z AUTO 29006KT 12SM M07/M15 RMK SLP386 T10671146 57018 IEM_DS3505
ZBYN,1984-12-20 18:00,ZBYN 201800Z AUTO 32008KT 9SM M08/M16 RMK SLP393 T10851165 41051//// 52008 IEM_DS3505
ZBYN,1984-12-20 21:00,ZBYN 202100Z AUTO 32004KT 12SM M12/M18 RMK T11161180 52018 IEM_DS3505
ZBYN,1984-12-21 00:00,ZBYN 210000Z AUTO 29008KT 19SM M12/M19 RMK SLP420 T11201194 52006 IEM_DS3505
ZBYN,1984-12-21 03:00,ZBYN 210300Z AUTO 29014KT 19SM M09/M24 RMK SLP411 T10861244 52001 IEM_DS3505
ZBYN,1984-12-21 06:00,ZBYN 210600Z AUTO 29008KT 19SM M07/M23 RMK SLP384 T10701230 4////1126 57025 IEM_DS3505
ZBYN,1984-12-21 09:00,ZBYN 210900Z AUTO 29012KT 17SM M08/M23 RMK SLP390 T10851230 57002 IEM_DS3505
ZBYN,1984-12-21 12:00,ZBYN 211200Z AUTO 36004KT 12SM M12/M24 RMK SLP415 T11151240 52015 IEM_DS3505
ZBYN,1984-12-21 15:00,ZBYN 211500Z AUTO 00000KT 9SM M15/M22 RMK SLP415 T11481220 52001 IEM_DS3505
ZBYN,1984-12-21 18:00,ZBYN 211800Z AUTO 00000KT 7SM M15/M24 RMK SLP412 T11471240 41063//// 54000 IEM_DS3505
ZBYN,1984-12-21 21:00,ZBYN 212100Z AUTO 20002KT 12SM M15/M21 RMK SLP406 T11461210 57008 IEM_DS3505
ZBYN,1984-12-22 00:00,ZBYN 220000Z AUTO 27008KT 19SM M13/M22 A3050 RMK SLP413 T11301220 52010 IEM_DS3505
ZBYN,1984-12-22 02:00,ZBYN 220200Z AUTO 25014KT 6SM M12/M23 A3053 RMK T11201230 IEM_DS3505
ZBYN,1984-12-22 03:00,ZBYN 220300Z AUTO 29016KT 19SM M12/M22 A3053 RMK SLP432 T11211220 52007 IEM_DS3505
ZBYN,1984-12-22 04:00,ZBYN 220400Z AUTO 28012KT 6SM M12/M23 A3053 RMK T11201230 IEM_DS3505
ZBYN,1984-12-22 05:00,ZBYN 220500Z AUTO 28017KT 6SM M11/M22 A3050 RMK T11101220 IEM_DS3505
ZBYN,1984-12-22 06:00,ZBYN 220600Z AUTO 29017KT 19SM M10/M21 A3050 RMK SLP409 T11041210 4////1161 57017 IEM_DS3505
ZBYN,1984-12-22 07:00,ZBYN 220700Z AUTO 27014KT 7SM M10/M23 A3047 RMK T11001230 IEM_DS3505
ZBYN,1984-12-22 08:00,ZBYN 220800Z AUTO 27016KT 7SM M10/M23 A3047 RMK T11001230 IEM_DS3505
ZBYN,1984-12-22 09:00,ZBYN 220900Z AUTO 29010KT 19SM M11/M22 RMK SLP404 T11111220 57006 IEM_DS3505
ZBYN,1984-12-22 12:00,ZBYN 221200Z AUTO 29012KT 12SM M13/M24 RMK SLP430 T11331240 52022 IEM_DS3505
ZBYN,1984-12-22 15:00,ZBYN 221500Z AUTO 32012KT 16SM M14/M25 RMK SLP438 T11411250 52008 IEM_DS3505
ZBYN,1984-12-22 18:00,ZBYN 221800Z AUTO 29008KT 11SM RMK SLP439 41096//// 52003 IEM_DS3505
ZBYN,1984-12-22 21:00,ZBYN 222100Z AUTO 29006KT 9SM M15/M24 RMK SLP434 T11511240 57007 IEM_DS3505
ZBYN,1984-12-23 00:00,ZBYN 230000Z AUTO 32004KT 11SM M15/M24 RMK SLP447 T11541240 52007 IEM_DS3505
ZBYN,1984-12-23 03:00,ZBYN 230300Z AUTO 18004KT 12SM M12/M20 RMK SLP440 T11231200 57002 IEM_DS3505
ZBYN,1984-12-23 06:00,ZBYN 230600Z AUTO 18006KT 12SM M10/M18 RMK SLP406 T11001180 4////1161 57027 IEM_DS3505
ZBYN,1984-12-23 09:00,ZBYN 230900Z AUTO 22006KT 12SM M10/M20 RMK SLP395 T11021200 57011 IEM_DS3505
ZBYN,1984-12-23 12:00,ZBYN 231200Z AUTO 32004KT 11SM M12/M22 RMK SLP431 T11181220 52028 IEM_DS3505
ZBYN,1984-12-23 15:00,ZBYN 231500Z AUTO 11002KT 12SM M17/M23 RMK SLP448 T11701230 52012 IEM_DS3505
ZBYN,1984-12-23 18:00,ZBYN 231800Z AUTO 11002KT 11SM M19/M22 RMK SLP442 T11891220 41083//// 57004 IEM_DS3505
ZBYN,1984-12-23 21:00,ZBYN 232100Z AUTO 00000KT 9SM M20/M23 RMK SLP440 T11971230 57004 IEM_DS3505
ZBYN,1984-12-24 00:00,ZBYN 240000Z AUTO 36002KT 9SM M20/M23 RMK SLP453 T12001230 52008 IEM_DS3505
ZBYN,1984-12-24 03:00,ZBYN 240300Z AUTO 32002KT 5SM M14/M17 RMK SLP455 T11421170 52003 IEM_DS3505
ZBYN,1984-12-24 06:00,ZBYN 240600Z AUTO 18004KT 4SM M09/M18 RMK SLP410 T10881180 4////1207 57035 IEM_DS3505
ZBYN,1984-12-24 09:00,ZBYN 240900Z AUTO 18002KT 9SM M10/M18 RMK SLP408 T11031180 57005 IEM_DS3505
ZBYN,1984-12-24 12:00,ZBYN 241200Z AUTO 00000KT 6SM M15/M18 RMK SLP435 T11501180 52015 IEM_DS3505
ZBYN,1984-12-24 15:00,ZBYN 241500Z AUTO 00000KT 5SM M16/M19 RMK SLP418 T11621190 57007 IEM_DS3505
ZBYN,1984-12-24 18:00,ZBYN 241800Z AUTO 00000KT 6SM M16/M19 RMK SLP400 T11631190 41079//// 57006 IEM_DS3505
ZBYN,1984-12-24 21:00,ZBYN 242100Z AUTO 00000KT 5SM M16/M19 RMK SLP398 T11611190 57005 IEM_DS3505
ZBYN,1984-12-25 00:00,ZBYN 250000Z AUTO 00000KT 4SM M15/M18 RMK SLP406 T11511180 54000 IEM_DS3505
ZBYN,1984-12-25 03:00,ZBYN 250300Z AUTO 00000KT 5SM M11/M16 RMK SLP402 T11111160 52002 IEM_DS3505
ZBYN,1984-12-25 05:00,ZBYN 250500Z AUTO 20004KT 6SM M07/M19 A3039 RMK T10701190 IEM_DS3505
ZBYN,1984-12-25 06:00,ZBYN 250600Z AUTO 18008KT 7SM M07/M17 A3033 RMK SLP350 T10661170 4////1170 57039 IEM_DS3505
ZBYN,1984-12-25 09:00,ZBYN 250900Z AUTO 00000KT 16SM M07/M19 A3033 RMK SLP353 T10661190 52003 IEM_DS3505
ZBYN,1984-12-25 10:00,ZBYN 251000Z AUTO 24008KT 6SM M09/M20 A3039 RMK T10901200 IEM_DS3505
ZBYN,1984-12-25 11:00,ZBYN 251100Z AUTO 30010KT 6SM M09/M24 A3039 RMK T10901240 IEM_DS3505
ZBYN,1984-12-25 12:00,ZBYN 251200Z AUTO 34006KT 12SM M08/M21 RMK T10791210 52021 IEM_DS3505
ZBYN,1984-12-25 15:00,ZBYN 251500Z AUTO 32004KT 9SM M10/M17 RMK SLP387 T10971170 52014 IEM_DS3505
ZBYN,1984-12-25 18:00,ZBYN 251800Z AUTO 36008KT 6SM M10/M20 RMK SLP378 T11041200 41058//// 57002 IEM_DS3505
ZBYN,1984-12-25 21:00,ZBYN 252100Z AUTO 36006KT 11SM M12/M20 RMK SLP369 T11181200 57011 IEM_DS3505
ZBYN,1984-12-26 00:00,ZBYN 260000Z AUTO 29004KT 5SM M14/M20 RMK SLP396 T11351200 52020 IEM_DS3505
ZBYN,1984-12-26 03:00,ZBYN 260300Z AUTO 34006KT 6SM M09/M20 RMK SLP391 T10941200 57001 IEM_DS3505
ZBYN,1984-12-26 06:00,ZBYN 260600Z AUTO 25002KT 5SM M06/M21 RMK SLP355 T10601210 4////1139 57028 IEM_DS3505
ZBYN,1984-12-26 09:00,ZBYN 260900Z AUTO 00000KT 6SM M08/M16 RMK SLP369 T10781165 52007 IEM_DS3505
ZBYN,1984-12-26 12:00,ZBYN 261200Z AUTO 22004KT 6SM M08/M16 RMK SLP392 T10841160 52017 IEM_DS3505
ZBYN,1984-12-26 15:00,ZBYN 261500Z AUTO 00000KT 7SM M10/M15 RMK SLP384 T11021150 57004 IEM_DS3505
ZBYN,1984-12-26 18:00,ZBYN 261800Z AUTO 04002KT 6SM M13/M16 RMK SLP379 T11271160 41057//// 57002 IEM_DS3505
ZBYN,1984-12-26 21:00,ZBYN 262100Z AUTO 27002KT 9SM M09/M16 RMK SLP372 T10931165 57004 IEM_DS3505
ZBYN,1984-12-27 00:00,ZBYN 270000Z AUTO 27004KT 12SM M10/M21 RMK SLP384 T11001210 52009 IEM_DS3505
ZBYN,1984-12-27 03:00,ZBYN 270300Z AUTO 16006KT 12SM M09/M15 RMK SLP392 T10931150 52005 IEM_DS3505
ZBYN,1984-12-27 06:00,ZBYN 270600Z AUTO 29012KT 19SM M02/M20 RMK SLP346 T10241200 4////1136 57034 IEM_DS3505
ZBYN,1984-12-27 09:00,ZBYN 270900Z AUTO 34006KT 12SM M05/M16 RMK SLP354 T10471165 52010 IEM_DS3505
ZBYN,1984-12-27 15:00,ZBYN 271500Z AUTO 34002KT 9SM M11/M21 RMK SLP418 T11121210 52014 IEM_DS3505
ZBYN,1984-12-27 18:00,ZBYN 271800Z AUTO 29008KT 6SM M12/M22 RMK SLP400 T11171220 41023//// 57005 IEM_DS3505
ZBYN,1984-12-27 21:00,ZBYN 272100Z AUTO 25006KT 16SM M11/M22 RMK SLP408 T11131220 52004 IEM_DS3505
ZBYN,1984-12-28 00:00,ZBYN 280000Z AUTO 25004KT 12SM M13/M22 RMK SLP424 T11281220 52006 IEM_DS3505
ZBYN,1984-12-28 03:00,ZBYN 280300Z AUTO 25004KT 12SM M09/M20 RMK SLP423 T10861200 52002 IEM_DS3505
ZBYN,1984-12-28 06:00,ZBYN 280600Z AUTO 18006KT 12SM M07/M17 RMK SLP385 T10701170 4////1139 57034 IEM_DS3505
ZBYN,1984-12-28 09:00,ZBYN 280900Z AUTO 27002KT 16SM M06/M16 RMK SLP384 T10641165 57010 IEM_DS3505
ZBYN,1984-12-28 12:00,ZBYN 281200Z AUTO 29004KT 16SM M10/M17 RMK SLP396 T10961170 52014 IEM_DS3505
ZBYN,1984-12-28 15:00,ZBYN 281500Z AUTO 18002KT 9SM M14/M22 RMK SLP396 T11371220 54000 IEM_DS3505
ZBYN,1984-12-28 18:00,ZBYN 281800Z AUTO 00000KT 9SM M16/M21 RMK SLP390 T11611210 57008 IEM_DS3505
ZBYN,1984-12-28 21:00,ZBYN 282100Z AUTO 00000KT 9SM M18/M21 RMK SLP382 T11771210 57008 IEM_DS3505
ZBYN,1984-12-29 00:00,ZBYN 290000Z AUTO 00000KT 9SM M18/M21 RMK SLP395 T11761210 52006 IEM_DS3505
ZBYN,1984-12-29 01:00,ZBYN 290100Z AUTO 00000KT 7SM M16/M22 A3042 RMK T11601220 IEM_DS3505
ZBYN,1984-12-29 02:00,ZBYN 290200Z AUTO 00000KT 7SM M12/M19 A3042 RMK T11201190 IEM_DS3505
ZBYN,1984-12-29 03:00,ZBYN 290300Z AUTO 00000KT 16SM M10/M21 RMK SLP383 T10991210 57005 IEM_DS3505
ZBYN,1984-12-29 04:00,ZBYN 290400Z AUTO 21002KT 7SM M07/M14 A3042 RMK T10701140 IEM_DS3505
ZBYN,1984-12-29 05:00,ZBYN 290500Z AUTO 24012KT 7SM M06/M16 A3033 RMK T10601160 IEM_DS3505
ZBYN,1984-12-29 06:00,ZBYN 290600Z AUTO 18006KT 16SM M04/M17 A3033 RMK T10441170 4////1181 IEM_DS3505
ZBYN,1984-12-29 07:00,ZBYN 290700Z AUTO 22014KT 7SM M04/M16 A3033 RMK T10401160 IEM_DS3505
ZBYN,1984-12-29 08:00,ZBYN 290800Z AUTO 22014KT 7SM M03/M18 A3033 RMK T10301180 IEM_DS3505
ZBYN,1984-12-29 09:00,ZBYN 290900Z AUTO 20006KT 12SM M05/M18 A3033 RMK SLP330 T10461180 57009 IEM_DS3505
ZBYN,1984-12-29 12:00,ZBYN 291200Z AUTO 02002KT 11SM M10/M16 RMK SLP348 T11021160 52006 IEM_DS3505
ZBYN,1984-12-29 15:00,ZBYN 291500Z AUTO 11004KT 9SM M12/M18 RMK SLP349 T11251180 52004 IEM_DS3505
ZBYN,1984-12-29 18:00,ZBYN 291800Z AUTO 00000KT 9SM M16/M20 RMK SLP331 T11561200 41034//// 57005 IEM_DS3505
ZBYN,1984-12-29 21:00,ZBYN 292100Z AUTO 00000KT 9SM M17/M20 RMK SLP323 T11671200 57010 IEM_DS3505
ZBYN,1984-12-30 00:00,ZBYN 300000Z AUTO 00000KT 6SM M18/M21 RMK SLP346 T11831210 52007 IEM_DS3505
ZBYN,1984-12-30 03:00,ZBYN 300300Z AUTO 00000KT 5SM M07/M17 RMK SLP328 T10711170 54000 IEM_DS3505
ZBYN,1984-12-30 06:00,ZBYN 300600Z AUTO 18006KT 11SM M03/M16 RMK SLP297 T10261165 4////1185 57025 IEM_DS3505
ZBYN,1984-12-30 09:00,ZBYN 300900Z AUTO 00000KT 11SM M03/M16 RMK SLP361 T10291160 52001 IEM_DS3505
ZBYN,1984-12-30 12:00,ZBYN 301200Z AUTO 00000KT 7SM M09/M15 RMK SLP332 T10891146 52014 IEM_DS3505
ZBYN,1984-12-30 15:00,ZBYN 301500Z AUTO 00000KT 6SM M09/M15 RMK SLP317 T10921150 52007 IEM_DS3505
ZBYN,1984-12-30 18:00,ZBYN 301800Z AUTO 00000KT 7SM M13/M16 RMK SLP313 T11291160 41014//// 57003 IEM_DS3505
ZBYN,1984-12-30 21:00,ZBYN 302100Z AUTO 00000KT 6SM M15/M18 RMK SLP314 T11471180 57003 IEM_DS3505
