station,valid,metar
ZBYN,2003-01-01 00:00,ZBYN 010000Z 13001MPS 3000 R31/0900N BR SKC M18/M21 Q1029 NOSIG
ZBYN,2003-01-01 01:00,ZBYN 010100Z 00000MPS 2000 R31/0700N BR SKC M15/M18 Q1030 NOSIG
ZBYN,2003-01-01 02:00,ZBYN 010200Z 00000MPS 2000 R31/0750N BR SKC M13/M16 Q1030 NOSIG
ZBYN,2003-01-01 03:00,ZBYN 010300Z 00000MPS 2200 R31/1200 FU SKC M09/M15 Q1030 NOSIG
ZBYN,2003-01-01 04:00,ZBYN 010400Z 02001MPS 3000 FU SKC M06/M14 Q1028 NOSIG
ZBYN,2003-01-01 05:00,ZBYN 010500Z 31001MPS 6000 NSC M04/M14 Q1027 NOSIG
ZBYN,2003-01-01 06:00,ZBYN 010600Z VRB01MPS 3000 R31/1400 FU SKC M02/M13 Q1026 NOSIG
ZBYN,2003-01-01 07:00,ZBYN 010700Z 19002MPS 2000 FU SKC M01/M11 Q1025 NOSIG
ZBYN,2003-01-01 08:00,ZBYN 010800Z 20002MPS 4000 FU NSC M03/M11 Q1025 NOSIG
ZBYN,2003-01-01 09:00,ZBYN 010900Z 20001MPS 3000 FU NSC M04/M12 Q1025 NOSIG
ZBYN,2003-01-01 10:00,ZBYN 011000Z 19001MPS 3000 BR NSC M07/M11 Q1026 NOSIG
ZBYN,2003-01-01 11:00,ZBYN 011100Z 00000MPS 3000 R31/1100 BR NSC M08/M12 Q1027 NOSIG
ZBYN,2003-01-01 12:00,ZBYN 011200Z 12002MPS 3000 R31/0900N BR NSC M07/M11 Q1028 NOSIG
ZBYN,2003-01-01 13:00,ZBYN 011300Z 12002MPS 3000 BR NSC M09/M12 Q1028 NOSIG
ZBYN,2003-01-01 14:00,ZBYN 011400Z 12002MPS 3000 BR NSC M08/M12 Q1028 NOSIG
ZBYN,2003-01-01 15:00,ZBYN 011500Z 09001MPS 3000 R31/1000N BR NSC M08/M11 Q1028 NOSIG
ZBYN,2003-01-01 16:00,ZBYN 011600Z 12001MPS 3000 BR NSC M08/M12 Q1027 NOSIG
ZBYN,2003-01-01 17:00,ZBYN 011700Z 12002MPS 3000 BR NSC M09/M13 Q1027
ZBYN,2003-01-01 18:00,ZBYN 011800Z 00000MPS 3000 BR NSC M09/M12 Q1027
ZBYN,2003-01-01 19:00,ZBYN 011900Z 11001MPS 3000 BR NSC M09/M12 Q1027 NOSIG
ZBYN,2003-01-01 20:00,ZBYN 012000Z 08001MPS 5000 R31/1400N BR NSC M09/M13 Q1027
ZBYN,2003-01-01 21:00,ZBYN 012100Z VRB01MPS 5000 R31/1200N BR NSC M09/M12 Q1027
ZBYN,2003-01-01 22:00,ZBYN 012200Z 23002MPS 3000 R31/1000 BR NSC M08/M13 Q1027 NOSIG
ZBYN,2003-01-01 23:00,ZBYN 012300Z 33002MPS 8000 NSC M07/M13 Q1027 NOSIG
ZBYN,2003-01-02 00:00,ZBYN 020000Z 33002MPS 1200 R31/1100 BR NSC M10/M14 Q1029 NOSIG
ZBYN,2003-01-02 01:00,ZBYN 020100Z VRB01MPS CAVOK M06/M15 Q1029 NOSIG
ZBYN,2003-01-02 02:00,ZBYN 020200Z 32009MPS CAVOK M04/M18 Q1029 NOSIG
ZBYN,2003-01-02 03:00,ZBYN 020300Z 32009MPS CAVOK M04/M20 Q1029 NOSIG
ZBYN,2003-01-02 04:00,ZBYN 020400Z 32010MPS CAVOK M03/M20 Q1028 NOSIG
ZBYN,2003-01-02 05:00,ZBYN 020500Z 33008MPS CAVOK M02/M18 Q1027 NOSIG
ZBYN,2003-01-02 06:00,ZBYN 020600Z 32009MPS CAVOK M03/M20 Q1026 NOSIG
ZBYN,2003-01-02 07:00,ZBYN 020700Z 33010MPS CAVOK M04/M20 Q1027 NOSIG
ZBYN,2003-01-02 08:00,ZBYN 020800Z 31007MPS CAVOK M04/M20 Q1027 NOSIG
ZBYN,2003-01-02 09:00,ZBYN 020900Z 31007MPS CAVOK M06/M22 Q1028 NOSIG
ZBYN,2003-01-02 10:00,ZBYN 021000Z 31004MPS CAVOK M08/M22 Q1029 NOSIG
ZBYN,2003-01-02 11:00,ZBYN 021100Z 32004MPS CAVOK M09/M21 Q1030 NOSIG
ZBYN,2003-01-02 12:00,ZBYN 021200Z 30003MPS CAVOK M10/M22 Q1030 NOSIG
ZBYN,2003-01-02 13:00,ZBYN 021300Z 30006MPS CAVOK M09/M22 Q1031 NOSIG
ZBYN,2003-01-02 14:00,ZBYN 021400Z 31006MPS CAVOK M10/M23 Q1031 NOSIG
ZBYN,2003-01-02 15:00,ZBYN 021500Z 30005MPS CAVOK M10/M22 Q1031 NOSIG
ZBYN,2003-01-02 16:00,ZBYN 021600Z 29005MPS CAVOK M11/M21 Q1032 NOSIG
ZBYN,2003-01-02 17:00,ZBYN 021700Z 30007MPS CAVOK M11/M23 Q1031
ZBYN,2003-01-02 18:00,ZBYN 021800Z 30004MPS CAVOK M13/M23 Q1032
ZBYN,2003-01-02 19:00,ZBYN 021900Z 29005MPS CAVOK M13/M23 Q1032
ZBYN,2003-01-02 20:00,ZBYN 022000Z 26002MPS CAVOK M13/M24 Q1032
ZBYN,2003-01-02 21:00,ZBYN 022100Z 29003MPS CAVOK M13/M24 Q1032
ZBYN,2003-01-02 22:00,ZBYN 022200Z VRB01MPS CAVOK M14/M24 Q1032 NOSIG
ZBYN,2003-01-02 23:00,ZBYN 022300Z 00000MPS CAVOK M15/M23 Q1032 NOSIG
ZBYN,2003-01-03 00:00,ZBYN 030000Z 20001MPS CAVOK M16/M22 Q1033 NOSIG
ZBYN,2003-01-03 01:00,ZBYN 030100Z 23001MPS CAVOK M15/M22 Q1033 NOSIG
ZBYN,2003-01-03 02:00,ZBYN 030200Z 19001MPS CAVOK M13/M21 Q1033 NOSIG
ZBYN,2003-01-03 03:00,ZBYN 030300Z 21001MPS CAVOK M11/M20 Q1032 NOSIG
ZBYN,2003-01-03 04:00,ZBYN 030400Z 21002MPS CAVOK M10/M20 Q1031 NOSIG
ZBYN,2003-01-03 05:00,ZBYN 030500Z 21002MPS CAVOK M09/M18 Q1030 NOSIG
ZBYN,2003-01-03 06:00,ZBYN 030600Z 21002MPS CAVOK M08/M18 Q1028 NOSIG
ZBYN,2003-01-03 07:00,ZBYN 030700Z 22003MPS CAVOK M07/M17 Q1028 NOSIG
ZBYN,2003-01-03 08:00,ZBYN 030800Z 21002MPS CAVOK M07/M17 Q1027 NOSIG
ZBYN,2003-01-03 09:00,ZBYN 030900Z VRB01MPS CAVOK M08/M17 Q1027 NOSIG
ZBYN,2003-01-03 10:00,ZBYN 031000Z 26002MPS CAVOK M08/M21 Q1027 NOSIG
ZBYN,2003-01-03 10:30,ZBYN 031030Z 32005MPS CAVOK M10/M22 Q1028 NOSIG
ZBYN,2003-01-03 11:00,ZBYN 031100Z 29005MPS CAVOK M09/M23 Q1028 NOSIG
ZBYN,2003-01-03 11:30,ZBYN 031130Z 29005MPS CAVOK M09/M23 Q1028 NOSIG
ZBYN,2003-01-03 12:00,ZBYN 031200Z 29005MPS CAVOK M10/M24 Q1029 NOSIG
ZBYN,2003-01-03 13:00,ZBYN 031300Z 29004MPS CAVOK M10/M24 Q1029 NOSIG
ZBYN,2003-01-03 14:00,ZBYN 031400Z 30003MPS CAVOK M12/M23 Q1029 NOSIG
ZBYN,2003-01-03 15:00,ZBYN 031500Z 30003MPS CAVOK M13/M24 Q1029 NOSIG
ZBYN,2003-01-03 16:00,ZBYN 031600Z 35001MPS CAVOK M14/M24 Q1029 NOSIG
ZBYN,2003-01-03 17:00,ZBYN 031700Z 04001MPS CAVOK M16/M24 Q1029
ZBYN,2003-01-03 18:00,ZBYN 031800Z 05001MPS CAVOK M16/M23 Q1030
ZBYN,2003-01-03 19:00,ZBYN 031900Z 08001MPS CAVOK M18/M24 Q1030
ZBYN,2003-01-03 20:00,ZBYN 032000Z 00000MPS CAVOK M19/M24 Q1031
ZBYN,2003-01-03 21:00,ZBYN 032100Z 00000MPS CAVOK M19/M24 Q1031
ZBYN,2003-01-03 22:00,ZBYN 032200Z 13002MPS CAVOK M21/M25 Q1031 NOSIG
ZBYN,2003-01-03 23:00,ZBYN 032300Z 00000MPS CAVOK M20/M24 Q1032 NOSIG
ZBYN,2003-01-04 00:00,ZBYN 040000Z 00000MPS CAVOK M20/M24 Q1033 NOSIG
ZBYN,2003-01-04 01:00,ZBYN 040100Z 00000MPS 7000 SKC M17/M22 Q1034 NOSIG
ZBYN,2003-01-04 02:00,ZBYN 040200Z 36004MPS CAVOK M11/M22 Q1035 NOSIG
ZBYN,2003-01-04 03:00,ZBYN 040300Z 35004MPS CAVOK M09/M21 Q1035 NOSIG
ZBYN,2003-01-04 04:00,ZBYN 040400Z VRB01MPS CAVOK M08/M21 Q1035 NOSIG
ZBYN,2003-01-04 05:00,ZBYN 040500Z 20002MPS CAVOK M08/M20 Q1035 NOSIG
ZBYN,2003-01-04 06:00,ZBYN 040600Z 19002MPS CAVOK M08/M21 Q1034 NOSIG
ZBYN,2003-01-04 07:00,ZBYN 040700Z 22002MPS CAVOK M07/M20 Q1035 NOSIG
ZBYN,2003-01-04 08:00,ZBYN 040800Z 23001MPS CAVOK M08/M20 Q1035 NOSIG
ZBYN,2003-01-04 09:00,ZBYN 040900Z 00000MPS CAVOK M08/M20 Q1035 NOSIG
ZBYN,2003-01-04 10:00,ZBYN 041000Z 32001MPS CAVOK M12/M20 Q1036 NOSIG
ZBYN,2003-01-04 11:00,ZBYN 041100Z 35003MPS CAVOK M12/M23 Q1036 NOSIG
ZBYN,2003-01-04 12:00,ZBYN 041200Z 33003MPS CAVOK M14/M23 Q1037 NOSIG
ZBYN,2003-01-04 13:00,ZBYN 041300Z 33003MPS CAVOK M13/M22 Q1037 NOSIG
ZBYN,2003-01-04 14:00,ZBYN 041400Z 36003MPS CAVOK M12/M23 Q1037 NOSIG
ZBYN,2003-01-04 15:00,ZBYN 041500Z 31003MPS CAVOK M13/M24 Q1038 NOSIG
ZBYN,2003-01-04 16:00,ZBYN 041600Z 34005MPS CAVOK M13/M23 Q1037 NOSIG
ZBYN,2003-01-04 17:00,ZBYN 041700Z 27002MPS CAVOK M14/M23 Q1037
ZBYN,2003-01-04 18:00,ZBYN 041800Z 29001MPS CAVOK M16/M22 Q1037
ZBYN,2003-01-04 19:00,ZBYN 041900Z 33003MPS CAVOK M15/M24 Q1037
ZBYN,2003-01-04 20:00,ZBYN 042000Z 30002MPS CAVOK M16/M23 Q1037
ZBYN,2003-01-04 21:00,ZBYN 042100Z 21001MPS CAVOK M17/M23 Q1037
ZBYN,2003-01-04 22:00,ZBYN 042200Z 00000MPS CAVOK M20/M23 Q1037 NOSIG
ZBYN,2003-01-04 23:00,ZBYN 042300Z 12001MPS CAVOK M20/M25 Q1037 NOSIG
ZBYN,2003-01-05 00:00,ZBYN 050000Z 00000MPS CAVOK M20/M25 Q1037 NOSIG
ZBYN,2003-01-05 01:00,ZBYN 050100Z VRB01MPS 7000 SKC M18/M23 Q1037 NOSIG
ZBYN,2003-01-05 02:00,ZBYN 050200Z 00000MPS 2300 R31/1100 FU SKC M14/M21 Q1037 NOSIG
ZBYN,2003-01-05 03:00,ZBYN 050300Z 17001MPS 2300 R31/0800 FU SKC M12/M20 Q1036 NOSIG
ZBYN,2003-01-05 04:00,ZBYN 050400Z 27001MPS 5000 FU SKC M10/M22 Q1035 NOSIG
ZBYN,2003-01-05 05:00,ZBYN 050500Z 17001MPS 5000 FU SKC M08/M21 Q1033 NOSIG
ZBYN,2003-01-05 06:00,ZBYN 050600Z 23001MPS 5000 FU SKC M07/M19 Q1032 NOSIG
ZBYN,2003-01-05 07:00,ZBYN 050700Z VRB01MPS 6000 SKC M07/M19 Q1032 NOSIG
ZBYN,2003-01-05 08:00,ZBYN 050800Z 00000MPS 6000 SKC M07/M20 Q1031 NOSIG
ZBYN,2003-01-05 09:00,ZBYN 050900Z 25001MPS 7000 SKC M07/M20 Q1031 NOSIG
ZBYN,2003-01-05 10:00,ZBYN 051000Z 00000MPS 7000 SKC M10/M20 Q1031 NOSIG
ZBYN,2003-01-05 11:00,ZBYN 051100Z 00000MPS CAVOK M11/M19 Q1030 NOSIG
ZBYN,2003-01-05 12:00,ZBYN 051200Z 09001MPS 7000 SKC M13/M18 Q1031 NOSIG
ZBYN,2003-01-05 13:00,ZBYN 051300Z 12001MPS 9000 SKC M15/M21 Q1031 NOSIG
ZBYN,2003-01-05 14:00,ZBYN 051400Z 11001MPS CAVOK M14/M20 Q1031 NOSIG
ZBYN,2003-01-05 15:00,ZBYN 051500Z 11001MPS CAVOK M15/M21 Q1030 NOSIG
ZBYN,2003-01-05 16:00,ZBYN 051600Z 00000MPS CAVOK M15/M21 Q1030 NOSIG
ZBYN,2003-01-05 17:00,ZBYN 051700Z 08001MPS CAVOK M15/M20 Q1029
ZBYN,2003-01-05 18:00,ZBYN 051800Z 00000MPS CAVOK M16/M21 Q1029
ZBYN,2003-01-05 19:00,ZBYN 051900Z 00000MPS 7000 SKC M16/M21 Q1029
ZBYN,2003-01-05 20:00,ZBYN 052000Z 00000MPS 5000 BR SKC M17/M21 Q1028
ZBYN,2003-01-05 21:00,ZBYN 052100Z 00000MPS 3000 R31/1300N BR SKC M16/M20 Q1028
ZBYN,2003-01-05 22:00,ZBYN 052200Z 00000MPS 3000 BR SKC M16/M19 Q1028 NOSIG
ZBYN,2003-01-05 23:00,ZBYN 052300Z 00000MPS 4000 BR SKC M17/M21 Q1028 NOSIG
ZBYN,2003-01-06 00:00,ZBYN 060000Z 00000MPS 3000 BR SKC M17/M20 Q1029 NOSIG
ZBYN,2003-01-06 01:00,ZBYN 060100Z 00000MPS 1500 R31/1100N BR SKC M16/M20 Q1029 NOSIG
ZBYN,2003-01-06 02:00,ZBYN 060200Z 14001MPS 1200 R31/0800 BR SKC M12/M16 Q1030 NOSIG
ZBYN,2003-01-06 03:00,ZBYN 060300Z 16001MPS 1400 R31/1000 BR SKC M08/M16 Q1029 NOSIG
ZBYN,2003-01-06 04:00,ZBYN 060400Z 28001MPS 1800 R31/1200 FU SKC M06/M16 Q1028 NOSIG
ZBYN,2003-01-06 05:00,ZBYN 060500Z 21002MPS 1900 R31/0900N FU SKC M04/M13 Q1027 NOSIG
ZBYN,2003-01-06 06:00,ZBYN 060600Z 32004MPS CAVOK M01/M12 Q1027 NOSIG
ZBYN,2003-01-06 07:00,ZBYN 060700Z 33005MPS CAVOK M00/M12 Q1027 NOSIG
ZBYN,2003-01-06 08:00,ZBYN 060800Z 32004MPS CAVOK M00/M13 Q1027 NOSIG
ZBYN,2003-01-06 09:00,ZBYN 060900Z 26002MPS CAVOK M04/M12 Q1028 NOSIG
ZBYN,2003-01-06 10:00,ZBYN 061000Z 25002MPS CAVOK M06/M13 Q1029 NOSIG
ZBYN,2003-01-06 11:00,ZBYN 061100Z 31003MPS CAVOK M08/M14 Q1029 NOSIG
ZBYN,2003-01-06 12:00,ZBYN 061200Z 30001MPS CAVOK M06/M15 Q1030 NOSIG
ZBYN,2003-01-06 13:00,ZBYN 061300Z 02002MPS 6000 SKC M11/M16 Q1030 NOSIG
ZBYN,2003-01-06 14:00,ZBYN 061400Z 03002MPS 3000 BR SKC M11/M16 Q1031 NOSIG
ZBYN,2003-01-06 15:00,ZBYN 061500Z VRB01MPS 4000 BR SKC M13/M16 Q1031 NOSIG
ZBYN,2003-01-06 16:00,ZBYN 061600Z 13001MPS 5000 BR SKC M15/M19 Q1031 NOSIG
ZBYN,2003-01-06 17:00,ZBYN 061700Z 11001MPS 8000 SKC M15/M19 Q1031 NOSIG
ZBYN,2003-01-06 18:00,ZBYN 061800Z 15001MPS 7000 SKC M14/M17 Q1031
ZBYN,2003-01-06 19:00,ZBYN 061900Z 13001MPS 8000 SKC M14/M18 Q1031
ZBYN,2003-01-06 20:00,ZBYN 062000Z 08001MPS CAVOK M16/M19 Q1031
ZBYN,2003-01-06 21:00,ZBYN 062100Z 07001MPS CAVOK M17/M20 Q1031
ZBYN,2003-01-06 22:00,ZBYN 062200Z 11001MPS 8000 SKC M17/M20 Q1031 NOSIG
ZBYN,2003-01-06 22:30,ZBYN 062230Z 12002MPS 8000 SKC M17/M20 Q1031 NOSIG
ZBYN,2003-01-06 23:00,ZBYN 062300Z 14001MPS 8000 SKC M17/M20 Q1031 NOSIG
ZBYN,2003-01-07 00:00,ZBYN 070000Z 00000MPS 6000 SKC M16/M19 Q1031 NOSIG
ZBYN,2003-01-07 01:00,ZBYN 070100Z 11001MPS 3500 BR SKC M16/M19 Q1031 NOSIG
ZBYN,2003-01-07 02:00,ZBYN 070200Z 00000MPS 2500 R31/1400N BR SKC M11/M15 Q1031 NOSIG
ZBYN,2003-01-07 03:00,ZBYN 070300Z VRB01MPS 3500 FU SKC M08/M14 Q1031 NOSIG
ZBYN,2003-01-07 04:00,ZBYN 070400Z VRB01MPS 3500 R31/1200N FU SKC M06/M14 Q1029 NOSIG
ZBYN,2003-01-07 05:00,ZBYN 070500Z 25001MPS 2500 R31/1100N FU SKC M03/M13 Q1028 NOSIG
ZBYN,2003-01-07 06:00,ZBYN 070600Z 23001MPS 5000 FU SKC M03/M13 Q1027 NOSIG
ZBYN,2003-01-07 07:00,ZBYN 070700Z 21002MPS 5000 FU SKC M02/M13 Q1026 NOSIG
ZBYN,2003-01-07 08:00,ZBYN 070800Z 20001MPS 5000 FU SKC M02/M12 Q1026 NOSIG
ZBYN,2003-01-07 09:00,ZBYN 070900Z 15001MPS 4000 FU SKC M04/M11 Q1026 NOSIG
ZBYN,2003-01-07 10:00,ZBYN 071000Z 00000MPS 6000 SKC M08/M13 Q1026 NOSIG
ZBYN,2003-01-07 11:00,ZBYN 071100Z 05001MPS 4000 FU SKC M09/M13 Q1026 NOSIG
ZBYN,2003-01-07 12:00,ZBYN 071200Z 11001MPS 4000 BR SKC M09/M13 Q1027 NOSIG
ZBYN,2003-01-07 13:00,ZBYN 071300Z 10001MPS 6000 SKC M11/M14 Q1027 NOSIG
ZBYN,2003-01-07 14:00,ZBYN 071400Z 12002MPS 6000 SKC M13/M16 Q1027 NOSIG
ZBYN,2003-01-07 15:00,ZBYN 071500Z 12002MPS 6000 SKC M12/M16 Q1027 NOSIG
ZBYN,2003-01-07 16:00,ZBYN 071600Z 12002MPS 6000 SKC M13/M16 Q1027 NOSIG
ZBYN,2003-01-07 17:00,ZBYN 071700Z 00000MPS 6000 SKC M14/M17 Q1026
ZBYN,2003-01-07 18:00,ZBYN 071800Z 36001MPS 3500 BR SKC M14/M17 Q1026
ZBYN,2003-01-07 19:00,ZBYN 071900Z 13002MPS 5000 BR SKC M15/M18 Q1026
ZBYN,2003-01-07 20:00,ZBYN 072000Z 12002MPS 5000 BR SKC M15/M17 Q1025
ZBYN,2003-01-07 21:00,ZBYN 072100Z 00000MPS 4000 BR SKC M15/M18 Q1025
ZBYN,2003-01-07 22:00,ZBYN 072200Z 11001MPS 4000 BR SKC M15/M17 Q1025 NOSIG
ZBYN,2003-01-07 23:00,ZBYN 072300Z 00000MPS 3000 R31/1200D BR SKC M15/M17 Q1025 NOSIG
ZBYN,2003-01-08 00:00,ZBYN ZGGG 080000Z 33003MPS 300V360 9999 OVC026 06/01 Q1029 NOSIG
ZBYN,2003-01-08 01:00,ZBYN 080100Z 12001MPS 0900 R31/0900N FZFG SKC M14/M16 Q1025 NOSIG
ZBYN,2003-01-08 02:00,ZBYN 080200Z 00000MPS 0700 R31/0600N FZFG SKC M11/M13 Q1026 NOSIG
ZBYN,2003-01-08 03:00,ZBYN 080300Z AUTO 00000KT 3SM M08/M12 RMK SLP339 T10781115 52004 IEM_DS3505
ZBYN,2003-01-08 04:00,ZBYN 080400Z VRB01MPS 1600 R31/1000N BR SKC M05/M12 Q1024 NOSIG
ZBYN,2003-01-08 05:00,ZBYN 080500Z 00000MPS 1700 R31/0900N FU SKC M04/M11 Q1023 NOSIG
ZBYN,2003-01-08 06:00,ZBYN 080600Z AUTO 16002KT 4SM M04/M11 RMK SLP299 T10361110 57031 IEM_DS3505
ZBYN,2003-01-08 07:00,ZBYN 080700Z 18001MPS 2500 R31/1200N FU SKC M01/M11 Q1022 NOSIG
ZBYN,2003-01-08 08:00,ZBYN 080800Z 12001MPS 2500 R31/1200N FU SKC M01/M10 Q1021 NOSIG
ZBYN,2003-01-08 09:00,ZBYN 080900Z 00000MPS 2500 R31/1400 FU SKC M03/M09 Q1022 NOSIG
ZBYN,2003-01-08 10:00,ZBYN 081000Z 28001MPS 1600 R31/0800 FU SKC M05/M10 Q1022 NOSIG
ZBYN,2003-01-08 11:00,ZBYN 081100Z 03001MPS 2000 FU SKC M07/M11 Q1023 NOSIG
ZBYN,2003-01-08 12:00,ZBYN 081200Z 09001MPS 1800 R31/1300N FU SKC M08/M11 Q1023 NOSIG
ZBYN,2003-01-08 13:00,ZBYN 081300Z 11001MPS 2000 FU SKC M09/M12 Q1024 NOSIG
ZBYN,2003-01-08 14:00,ZBYN 081400Z 08001MPS 2000 FU SKC M09/M12 Q1024 NOSIG
ZBYN,2003-01-08 15:00,ZBYN 081500Z 13001MPS 1400 R31/0900 BR SKC M10/M13 Q1024 NOSIG
ZBYN,2003-01-08 16:00,ZBYN 081600Z 00000MPS 1200 R31/0900N BR SKC M11/M13 Q1025 NOSIG
ZBYN,2003-01-08 17:00,ZBYN 081700Z 12001MPS 1100 R31/0800N BR SKC M12/M14 Q1024 NOSIG
ZBYN,2003-01-08 18:00,ZBYN 081800Z 00000MPS 1600 R31/1300N BR SKC M12/M14 Q1025
ZBYN,2003-01-08 19:00,ZBYN 081900Z 00000MPS 1200 R31/0800N BR SKC M11/M13 Q1025
ZBYN,2003-01-08 20:00,ZBYN 082000Z 00000MPS 1200 R31/0650N BR SKC M12/M14 Q1025
ZBYN,2003-01-08 21:00,ZBYN 082100Z 06001MPS 1200 R31/0700N BR SKC M13/M14 Q1025
ZBYN,2003-01-08 22:00,ZBYN 082200Z 00000MPS 1000 R31/0700N BR SKC M13/M15 Q1025 NOSIG
ZBYN,2003-01-08 23:00,ZBYN 082300Z 00000MPS 1200 R31/0750N BR SKC M12/M14 Q1026 NOSIG
ZBYN,2003-01-09 00:00,ZBYN 090000Z 12001MPS 1200 R31/1200N BR NSC M14/M15 Q1026 NOSIG
ZBYN,2003-01-09 01:00,ZBYN 090100Z VRB01MPS 0700 R31/0750N FZFG SKC M12/M14 Q1027 NOSIG
ZBYN,2003-01-09 02:00,ZBYN 090200Z 00000MPS 0700 R31/0500N FZFG SKC M08/M11 Q1027 NOSIG
ZBYN,2003-01-09 02:30,ZBYN 090230Z 21001MPS 0700 R31/0450N FZFG SKC M07/M10 Q1027 NOSIG
ZBYN,2003-01-09 03:00,ZBYN 090300Z 24001MPS 0700 R31/0450N FZFG SKC M05/M10 Q1027 NOSIG
ZBYN,2003-01-09 03:30,ZBYN 090330Z 23001MPS 0700 R31/0450N FU NSC M04/M09 Q1026 NOSIG
ZBYN,2003-01-09 04:00,ZBYN 090400Z 00000MPS 0700 R31/0450N FU NSC M03/M09 Q1026 NOSIG
ZBYN,2003-01-09 05:00,ZBYN 090500Z 20002MPS 0800 R31/0600 FU SKC M01/M07 Q1025 NOSIG
ZBYN,2003-01-09 06:00,ZBYN 090600Z 25002MPS 1200 R31/0800 FU SKC 01/M08 Q1024 NOSIG
ZBYN,2003-01-09 07:00,ZBYN 090700Z 24001MPS 1300 R31/0800 FU SKC 02/M07 Q1023 NOSIG
ZBYN,2003-01-09 08:00,ZBYN 090800Z 21001MPS 1600 R31/1100 FU NSC 01/M08 Q1024 NOSIG
ZBYN,2003-01-09 09:00,ZBYN 090900Z 00000MPS 2500 FU NSC 00/M09 Q1024 NOSIG
ZBYN,2003-01-09 10:00,ZBYN 091000Z 08001MPS 3000 FU SKC M01/M09 Q1024 NOSIG
ZBYN,2003-01-09 11:00,ZBYN 091100Z 11001MPS 2300 R31/1300N FU SKC M03/M08 Q1025 NOSIG
ZBYN,2003-01-09 12:00,ZBYN 091200Z 09001MPS 2300 BR SKC M05/M09 Q1025 NOSIG
ZBYN,2003-01-09 13:00,ZBYN 091300Z 12002MPS 2500 BR SKC M07/M11 Q1026 NOSIG
ZBYN,2003-01-09 14:00,ZBYN 091400Z 11001MPS 2500 BR SKC M08/M11 Q1026 NOSIG
ZBYN,2003-01-09 15:00,ZBYN 091500Z 11001MPS 2100 BR SKC M09/M12 Q1026 NOSIG
ZBYN,2003-01-09 16:00,ZBYN 091600Z AUTO 12004KT 1 1/2SM M10/ RMK IEM_DS3505
ZBYN,2003-01-09 17:00,ZBYN 091700Z 11002MPS 2500 R31/1100N BR SKC M11/M14 Q1025
ZBYN,2003-01-09 18:00,ZBYN 091800Z 10001MPS 2500 R31/1000N BR SKC M11/M13 Q1025
ZBYN,2003-01-09 19:00,ZBYN 091900Z 10001MPS 2300 R31/1000N BR SKC M10/M13 Q1025
ZBYN,2003-01-09 20:00,ZBYN 092000Z 10001MPS 2000 R31/0900 BR SKC M11/M13 Q1025 NOSIG
ZBYN,2003-01-09 21:00,ZBYN 092100Z 12001MPS 2000 R31/1400 BR SKC M12/M14 Q1024 NOSIG
ZBYN,2003-01-09 22:00,ZBYN 092200Z 00000MPS 2000 R31/0750 BR SKC M12/M14 Q1025 NOSIG
ZBYN,2003-01-09 23:00,ZBYN 092300Z 00000MPS 2000 R31/0650 BR SKC M12/M14 Q1025 NOSIG
ZBYN,2003-01-10 00:00,ZBYN 100000Z 00000MPS 2500 BR SKC M13/M15 Q1025 NOSIG
ZBYN,2003-01-10 01:00,ZBYN 100100Z 13002MPS 1400 R31/1000D BR SKC M11/M13 Q1026 NOSIG
ZBYN,2003-01-10 02:00,ZBYN 100200Z 00000MPS 1600 R31/0900N BR SKC M07/M10 Q1026 NOSIG
ZBYN,2003-01-10 03:00,ZBYN 100300Z 00000MPS 1600 R31/0800N BR SKC M04/M09 Q1026 NOSIG
ZBYN,2003-01-10 04:00,ZBYN 100400Z 00000MPS 1400 R31/0750N FU SKC M01/M09 Q1025 NOSIG
ZBYN,2003-01-10 05:00,ZBYN 100500Z 25001MPS 3000 R31/1000N FU SKC 01/M09 Q1024 NOSIG
ZBYN,2003-01-10 06:00,ZBYN 100600Z 21001MPS 3000 R31/1400 FU SKC 01/M10 Q1023 NOSIG
ZBYN,2003-01-10 07:00,ZBYN 100700Z 31001MPS 3000 R31/1100N FU SKC 01/M09 Q1023 NOSIG
ZBYN,2003-01-10 08:00,ZBYN 100800Z 03001MPS 3000 R31/1200N FU SKC 02/M10 Q1024 NOSIG
ZBYN,2003-01-10 09:00,ZBYN 100900Z 00000MPS 3000 R31/1400N FU SKC 01/M09 Q1024 NOSIG
ZBYN,2003-01-10 10:00,ZBYN 101000Z 31001MPS 3000 FU SKC M03/M08 Q1025 NOSIG
ZBYN,2003-01-10 11:00,ZBYN 101100Z VRB01MPS 2500 FU SKC M03/M09 Q1025 NOSIG
ZBYN,2003-01-10 12:00,ZBYN 101200Z 00000MPS 2500 FU SKC M04/M09 Q1026 NOSIG
ZBYN,2003-01-10 13:00,ZBYN 101300Z 11001MPS 2500 BR SKC M06/M10 Q1027 NOSIG
ZBYN,2003-01-10 14:00,ZBYN 101400Z 00000MPS 2500 BR SKC M08/M11 Q1028 NOSIG
ZBYN,2003-01-10 15:00,ZBYN 101500Z 13001MPS 2500 BR SKC M08/M10 Q1028 NOSIG
ZBYN,2003-01-10 16:00,ZBYN 101600Z 04002MPS 2500 R31/0900N BR SKC M10/M12 Q1028 NOSIG
ZBYN,2003-01-10 17:00,ZBYN 101700Z 11002MPS 2500 R31/0900N BR SKC M09/M12 Q1028
ZBYN,2003-01-10 18:00,ZBYN 101800Z 11001MPS 3000 R31/1000N BR SKC M10/M12 Q1028
ZBYN,2003-01-10 19:00,ZBYN 101900Z 09001MPS 3500 R31/1100N BR SKC M10/M12 Q1028
ZBYN,2003-01-10 20:00,ZBYN 102000Z 12002MPS 3500 R31/1200N BR SKC M12/M14 Q1027
ZBYN,2003-01-10 21:00,ZBYN 102100Z 10001MPS 3500 R31/1100N BR SKC M12/M14 Q1027
ZBYN,2003-01-10 22:00,ZBYN 102200Z 00000MPS 4000 R31/1400N BR SKC M12/M14 Q1027 NOSIG
ZBYN,2003-01-10 23:00,ZBYN 102300Z 08001MPS 4000 R31/1400N BR SKC M12/M13 Q1027 NOSIG
ZBYN,2003-01-11 00:00,ZBYN 110000Z 10001MPS 4000 BR SKC M12/M14 Q1027 NOSIG
ZBYN,2003-01-11 01:00,ZBYN 110100Z 12001MPS 2000 R31/1100N BR SKC M10/M12 Q1028 NOSIG
ZBYN,2003-01-11 02:00,ZBYN 110200Z 11001MPS 2500 R31/1200N BR SKC M05/M09 Q1028 NOSIG
ZBYN,2003-01-11 03:00,ZBYN 110300Z 16001MPS 2500 R31/1200N FU SKC M02/M09 Q1028 NOSIG
ZBYN,2003-01-11 04:00,ZBYN 110400Z VRB01MPS 3000 R31/1400U FU SKC M00/M09 Q1027 NOSIG
ZBYN,2003-01-11 05:00,ZBYN 110500Z 20001MPS 4000 R31/1100N FU SKC 01/M08 Q1026 NOSIG
ZBYN,2003-01-11 06:00,ZBYN 110600Z 22002MPS 5000 R31/1300N FU SKC 03/M06 Q1025 NOSIG
ZBYN,2003-01-11 07:00,ZBYN 110700Z VRB01MPS 5000 R31/1400 FU SKC 04/M06 Q1024 NOSIG
ZBYN,2003-01-11 08:00,ZBYN 110800Z 19001MPS 7000 SKC 04/M05 Q1023 NOSIG
ZBYN,2003-01-11 09:00,ZBYN 110900Z 00000MPS 7000 SKC 03/M05 Q1023 NOSIG
ZBYN,2003-01-11 10:00,ZBYN 111000Z 10001MPS CAVOK 00/M05 Q1023 NOSIG
ZBYN,2003-01-11 11:00,ZBYN 111100Z VRB01MPS 6000 SKC M02/M07 Q1024 NOSIG
ZBYN,2003-01-11 12:00,ZBYN 111200Z 12001MPS 4000 BR SKC M04/M07 Q1024 NOSIG
ZBYN,2003-01-11 13:00,ZBYN 111300Z 00000MPS 4000 BR SKC M04/M07 Q1024 NOSIG
ZBYN,2003-01-11 14:00,ZBYN 111400Z 08001MPS 3000 R31/1100N BR SKC M06/M08 Q1024 NOSIG
ZBYN,2003-01-11 15:00,ZBYN 111500Z 09001MPS 3000 BR SKC M07/M10 Q1024 NOSIG
ZBYN,2003-01-11 17:00,ZBYN 111700Z 07001MPS 3000 R31/1100N BR SKC M07/M08 Q1023
ZBYN,2003-01-11 18:00,ZBYN 111800Z 07001MPS 3000 R31/1100N BR SKC M07/M09 Q1023
ZBYN,2003-01-11 19:00,ZBYN 111900Z 09001MPS 3000 R31/1100N BR SKC M07/M09 Q1022
ZBYN,2003-01-11 20:00,ZBYN 112000Z 10001MPS 4000 R31/1100N BR SKC M07/M09 Q1021
ZBYN,2003-01-11 21:00,ZBYN 112100Z VRB01MPS 4000 R31/1100N BR SKC M07/M09 Q1021
ZBYN,2003-01-11 22:00,ZBYN 112200Z 12001MPS 6000 SKC M08/M10 Q1021 NOSIG
ZBYN,2003-01-11 23:00,ZBYN 112300Z 11001MPS 4000 R31/1200U BR NSC M07/M09 Q1021 NOSIG
ZBYN,2003-01-12 00:00,ZBYN 120000Z 00000MPS 3500 BR NSC M07/M09 Q1021 NOSIG
ZBYN,2003-01-12 01:00,ZBYN 120100Z VRB01MPS 3000 R31/0900N BR NSC M04/M07 Q1021 NOSIG
ZBYN,2003-01-12 02:00,ZBYN 120200Z 13002MPS 3000 R31/0900N FU NSC M00/M06 Q1021 NOSIG
ZBYN,2003-01-12 03:00,ZBYN 120300Z VRB01MPS 3000 R31/0750N FU NSC 01/M07 Q1020 NOSIG
ZBYN,2003-01-12 04:00,ZBYN 120400Z 20002MPS 3000 R31/0900N FU NSC 02/M06 Q1019 NOSIG
ZBYN,2003-01-12 05:00,ZBYN 120500Z 23002MPS 4000 R31/1200 FU SKC 04/M07 Q1018 NOSIG
ZBYN,2003-01-12 06:00,ZBYN 120600Z 22003MPS 4000 R31/1100N FU SKC 05/M04 Q1016 NOSIG
ZBYN,2003-01-12 07:00,ZBYN 120700Z 22003MPS 5000 R31/1400N FU SKC 06/M04 Q1016 NOSIG
ZBYN,2003-01-12 08:00,ZBYN 120800Z 24002MPS 5000 FU SKC 06/M03 Q1016 NOSIG
ZBYN,2003-01-12 09:00,ZBYN 120900Z 23002MPS 5000 FU SKC 05/M04 Q1016 NOSIG
ZBYN,2003-01-12 10:00,ZBYN 121000Z 25002MPS 6000 SKC 03/M04 Q1017 NOSIG
ZBYN,2003-01-12 11:00,ZBYN 121100Z 20002MPS CAVOK 03/M06 Q1017 NOSIG
ZBYN,2003-01-12 12:00,ZBYN 121200Z 22002MPS CAVOK 01/M05 Q1017 NOSIG
ZBYN,2003-01-12 13:00,ZBYN 121300Z 24002MPS CAVOK 01/M05 Q1018 NOSIG
ZBYN,2003-01-12 14:00,ZBYN 121400Z 15001MPS 7000 SKC M02/M06 Q1018 NOSIG
ZBYN,2003-01-12 15:00,ZBYN 121500Z 07001MPS 4000 BR SKC M04/M07 Q1018 NOSIG
ZBYN,2003-01-12 16:00,ZBYN 121600Z 10001MPS 5000 BR SKC M05/M07 Q1018
ZBYN,2003-01-12 17:00,ZBYN 121700Z 09001MPS 4000 R31/1200N BR SKC M06/M08 Q1018
ZBYN,2003-01-12 18:00,ZBYN 121800Z VRB01MPS 4000 R31/1200N BR SKC M06/M08 Q1018
ZBYN,2003-01-12 19:00,ZBYN 121900Z 12001MPS 4000 R31/1200N BR SKC M07/M10 Q1018
ZBYN,2003-01-12 20:00,ZBYN 122000Z 07002MPS 4000 R31/1200N BR SKC M06/M08 Q1018
ZBYN,2003-01-12 21:00,ZBYN 122100Z 10002MPS 4000 R31/1200N BR SKC M07/M09 Q1018
ZBYN,2003-01-12 22:00,ZBYN 122200Z 12002MPS 4000 R31/1300N BR SKC M07/M09 Q1018
ZBYN,2003-01-12 23:00,ZBYN 122300Z VRB01MPS 4000 BR SKC M08/M10 Q1018 NOSIG
ZBYN,2003-01-13 00:00,ZBYN 130000Z 09001MPS 3000 BR SKC M08/M09 Q1019 NOSIG
ZBYN,2003-01-13 01:00,ZBYN 130100Z 08002MPS 3000 R31/1200 BR SKC M04/M07 Q1020 NOSIG
ZBYN,2003-01-13 02:00,ZBYN 130200Z 12002MPS 2500 R31/1100 FU SKC M01/M05 Q1020 NOSIG
ZBYN,2003-01-13 03:00,ZBYN 130300Z 22002MPS 3000 R31/1100 FU SKC 02/M06 Q1020 NOSIG
ZBYN,2003-01-13 04:00,ZBYN 130400Z 19001MPS 5000 FU SKC 04/M06 Q1020 NOSIG
ZBYN,2003-01-13 05:00,ZBYN 130500Z 22002MPS 4000 R31/1200N FU SKC 05/M05 Q1019 NOSIG
ZBYN,2003-01-13 06:00,ZBYN 130600Z 25002MPS 5000 R31/1400N FU SKC 05/M05 Q1019 NOSIG
ZBYN,2003-01-13 07:00,ZBYN 130700Z 22001MPS 5000 FU SKC 06/M07 Q1019 NOSIG
ZBYN,2003-01-13 08:00,ZBYN 130800Z 25001MPS 5000 FU SKC 06/M05 Q1020 NOSIG
ZBYN,2003-01-13 09:00,ZBYN 130900Z 29001MPS 8000 SKC 04/M05 Q1021 NOSIG
ZBYN,2003-01-13 10:00,ZBYN 131000Z 32003MPS 6000 SKC 01/M05 Q1022 NOSIG
ZBYN,2003-01-13 11:00,ZBYN 131100Z 32004MPS CAVOK 00/M06 Q1023 NOSIG
ZBYN,2003-01-13 12:00,ZBYN 131200Z 31004MPS CAVOK M00/M06 Q1024 NOSIG
ZBYN,2003-01-13 13:00,ZBYN 131300Z 32004MPS CAVOK M01/M07 Q1025 NOSIG
ZBYN,2003-01-13 14:00,ZBYN 131400Z 33004MPS CAVOK 00/M07 Q1025 NOSIG
ZBYN,2003-01-13 15:00,ZBYN 131500Z 01002MPS CAVOK M01/M07 Q1026 NOSIG
ZBYN,2003-01-13 16:00,ZBYN 131600Z 01002MPS CAVOK M02/M07 Q1027 NOSIG
ZBYN,2003-01-13 17:00,ZBYN 131700Z 03002MPS CAVOK M03/M08 Q1027
ZBYN,2003-01-13 18:00,ZBYN 131800Z 00000MPS CAVOK M04/M09 Q1028
ZBYN,2003-01-13 19:00,ZBYN 131900Z 15001MPS CAVOK M07/M09 Q1028
ZBYN,2003-01-13 20:00,ZBYN 132000Z 03001MPS CAVOK M07/M09 Q1028
ZBYN,2003-01-13 21:00,ZBYN 132100Z 09001MPS CAVOK M09/M11 Q1028
ZBYN,2003-01-13 22:00,ZBYN 132200Z 12002MPS CAVOK M09/M11 Q1028 NOSIG
ZBYN,2003-01-13 23:00,ZBYN 132300Z 12001MPS CAVOK M08/M10 Q1028 NOSIG
ZBYN,2003-01-14 00:00,ZBYN 140000Z 00000MPS CAVOK M08/M10 Q1029 NOSIG
ZBYN,2003-01-14 01:00,ZBYN 140100Z 09001MPS 6000 SKC M07/M09 Q1030 NOSIG
ZBYN,2003-01-14 02:00,ZBYN 140200Z 15001MPS 5000 BR SKC M04/M08 Q1030 NOSIG
ZBYN,2003-01-14 03:00,ZBYN 140300Z VRB01MPS 5000 FU SKC M02/M08 Q1030 NOSIG
ZBYN,2003-01-14 04:00,ZBYN 140400Z 17001MPS 7000 SKC 00/M08 Q1029 NOSIG
ZBYN,2003-01-14 05:00,ZBYN 140500Z VRB01MPS 8000 SKC 02/M07 Q1028 NOSIG
ZBYN,2003-01-14 06:00,ZBYN 140600Z 20001MPS 8000 SKC 03/M08 Q1027 NOSIG
ZBYN,2003-01-14 07:00,ZBYN 140700Z 22001MPS 6000 SKC 03/M08 Q1027 NOSIG
ZBYN,2003-01-14 08:00,ZBYN 140800Z 21001MPS 7000 SKC 03/M07 Q1027 NOSIG
ZBYN,2003-01-14 09:00,ZBYN 140900Z 16001MPS 5000 FU SKC 02/M06 Q1027 NOSIG
ZBYN,2003-01-14 10:00,ZBYN 141000Z 12001MPS 7000 SKC M01/M05 Q1027 NOSIG
ZBYN,2003-01-14 11:00,ZBYN 141100Z 09001MPS 6000 SKC M01/M05 Q1028 NOSIG
ZBYN,2003-01-14 12:00,ZBYN 141200Z 08002MPS 7000 SKC M03/M07 Q1028 NOSIG
ZBYN,2003-01-14 13:00,ZBYN 141300Z 00000MPS 7000 SKC M04/M07 Q1028 NOSIG
ZBYN,2003-01-14 14:00,ZBYN 141400Z 11001MPS 7000 SKC M05/M08 Q1028 NOSIG
ZBYN,2003-01-14 15:00,ZBYN 141500Z 11002MPS 7000 SKC M06/M09 Q1028 NOSIG
ZBYN,2003-01-14 16:00,ZBYN 141600Z 11002MPS 6000 SKC M06/M09 Q1028 NOSIG
ZBYN,2003-01-14 17:00,ZBYN 141700Z 00000MPS 5000 BR SKC M06/M09 Q1028 NOSIG
ZBYN,2003-01-14 18:00,ZBYN 141800Z 00000MPS 5000 BR SKC M07/M09 Q1027
ZBYN,2003-01-14 19:00,ZBYN 141900Z 12002MPS 5000 BR SKC M07/M09 Q1027
ZBYN,2003-01-14 20:00,ZBYN 142000Z 00000MPS 5000 BR SKC M08/M10 Q1027
ZBYN,2003-01-14 21:00,ZBYN 142100Z 00000MPS 5000 BR SKC M09/M10 Q1026
ZBYN,2003-01-14 22:00,ZBYN 142200Z 00000MPS 4000 BR SKC M08/M09 Q1026 NOSIG
ZBYN,2003-01-14 23:00,ZBYN 142300Z 11001MPS 4000 BR SKC M08/M09 Q1025 NOSIG
ZBYN,2003-01-15 00:00,ZBYN 150000Z 12001MPS 3000 BR SKC M08/M09 Q1025 NOSIG
ZBYN,2003-01-15 01:00,ZBYN 150100Z 12002MPS 1500 BR SKC M07/M09 Q1025 NOSIG
ZBYN,2003-01-15 02:00,ZBYN 150200Z 06001MPS 1500 BR SKC M04/M07 Q1025 NOSIG
ZBYN,2003-01-15 03:00,ZBYN 150300Z 11001MPS 1700 BR SKC M01/M06 Q1025 NOSIG
ZBYN,2003-01-15 04:00,ZBYN 150400Z 15002MPS 2000 FU SKC 00/M06 Q1023 NOSIG
ZBYN,2003-01-15 05:00,ZBYN 150500Z 16002MPS 2000 FU SKC 02/M06 Q1022 NOSIG
ZBYN,2003-01-15 06:00,ZBYN 150600Z 15002MPS 2000 FU SKC 03/M06 Q1020 NOSIG
ZBYN,2003-01-15 07:00,ZBYN 150700Z 17002MPS 2500 FU SKC 04/M06 Q1020 NOSIG
ZBYN,2003-01-15 08:00,ZBYN 150800Z 15002MPS 2500 FU SKC 04/M06 Q1019 NOSIG
ZBYN,2003-01-15 09:00,ZBYN 150900Z 14001MPS 2500 FU SKC 03/M05 Q1019 NOSIG
ZBYN,2003-01-15 10:00,ZBYN 151000Z 00000MPS 3000 FU SKC 00/M05 Q1019 NOSIG
ZBYN,2003-01-15 11:00,ZBYN 151100Z 11001MPS 4000 FU SKC M02/M05 Q1019 NOSIG
ZBYN,2003-01-15 12:00,ZBYN 151200Z 09001MPS 6000 SKC M03/M06 Q1019 NOSIG
ZBYN,2003-01-15 13:00,ZBYN 151300Z 11001MPS 6000 SKC M03/M07 Q1019 NOSIG
ZBYN,2003-01-15 14:00,ZBYN 151400Z 09001MPS 6000 SKC M04/M07 Q1019 NOSIG
ZBYN,2003-01-15 15:00,ZBYN 151500Z 00000MPS 6000 SKC M04/M07 Q1019 NOSIG
ZBYN,2003-01-15 16:00,ZBYN 151600Z 11001MPS 5000 FU SKC M05/M07 Q1018 NOSIG
ZBYN,2003-01-15 17:00,ZBYN 151700Z 10001MPS 6000 SKC M07/M09 Q1018
ZBYN,2003-01-15 18:00,ZBYN 151800Z 11002MPS 6000 SKC M06/M07 Q1018
ZBYN,2003-01-15 19:00,ZBYN 151900Z 32001MPS 6000 SKC M06/M08 Q1017
ZBYN,2003-01-15 20:00,ZBYN 152000Z 08001MPS 6000 SKC M07/M08 Q1017
ZBYN,2003-01-15 21:00,ZBYN 152100Z VRB01MPS 6000 SKC M07/M08 Q1017
ZBYN,2003-01-15 22:00,ZBYN 152200Z 08001MPS 4000 BR SKC M08/M09 Q1017 NOSIG
ZBYN,2003-01-15 23:00,ZBYN 152300Z 12001MPS 3000 BR SKC M08/M10 Q1017 NOSIG
ZBYN,2003-01-16 00:00,ZBYN 160000Z 00000MPS 2000 BR SKC M09/M10 Q1017 NOSIG
ZBYN,2003-01-16 01:00,ZBYN 160100Z 00000MPS 1300 R31/1500 BR SKC M07/M08 Q1018 NOSIG
ZBYN,2003-01-16 02:00,ZBYN 160200Z 00000MPS 1200 R31/1200 BR SKC M04/M05 Q1018 NOSIG
ZBYN,2003-01-16 03:00,ZBYN 160300Z 13001MPS 1800 BR SKC M00/M04 Q1018 NOSIG
ZBYN,2003-01-16 04:00,ZBYN 160400Z 16002MPS 1800 FU SKC 02/M05 Q1017 NOSIG
ZBYN,2003-01-16 05:00,ZBYN 160500Z 15002MPS 2000 FU SKC 04/M04 Q1016 NOSIG
ZBYN,2003-01-16 06:00,ZBYN 160600Z 16001MPS 2100 FU SKC 05/M04 Q1015 NOSIG
ZBYN,2003-01-16 07:00,ZBYN 160700Z 15002MPS 2500 FU SKC 06/M04 Q1015 NOSIG
ZBYN,2003-01-16 08:00,ZBYN 160800Z 13001MPS 3000 FU SKC 06/M05 Q1015 NOSIG
ZBYN,2003-01-16 09:00,ZBYN 160900Z 03001MPS 3000 FU SKC 04/M04 Q1016 NOSIG
ZBYN,2003-01-16 10:00,ZBYN 161000Z 13001MPS 4000 FU SKC 01/M04 Q1017 NOSIG
ZBYN,2003-01-16 11:00,ZBYN 161100Z 11001MPS 4000 FU SKC 00/M05 Q1017 NOSIG
ZBYN,2003-01-16 12:00,ZBYN 161200Z 31001MPS 4000 FU NSC M01/M05 Q1019 NOSIG
ZBYN,2003-01-16 13:00,ZBYN 161300Z 30004MPS 8000 NSC 04/M06 Q1019 NOSIG
ZBYN,2003-01-16 15:00,ZBYN 161500Z 34002MPS CAVOK M01/M07 Q1021 NOSIG
ZBYN,2003-01-16 18:00,ZBYN 161800Z 10002MPS 8000 SKC M07/M10 Q1022
ZBYN,2003-01-16 19:00,ZBYN 161900Z 01001MPS CAVOK M06/M10 Q1023
ZBYN,2003-01-16 20:00,ZBYN 162000Z 06001MPS CAVOK M06/M09 Q1023
ZBYN,2003-01-16 21:00,ZBYN 162100Z 06001MPS CAVOK M07/M10 Q1023
ZBYN,2003-01-16 22:00,ZBYN 162200Z 00000MPS CAVOK M06/M09 Q1023 NOSIG
ZBYN,2003-01-16 23:00,ZBYN 162300Z VRB01MPS CAVOK M08/M10 Q1024 NOSIG
ZBYN,2003-01-17 00:00,ZBYN 170000Z 08001MPS 6000 SKC M06/M09 Q1025 NOSIG
ZBYN,2003-01-17 01:00,ZBYN 170100Z 12001MPS 4000 BR SKC M05/M08 Q1027 NOSIG
ZBYN,2003-01-17 02:00,ZBYN 170200Z 35001MPS 3000 R31/1200N FU SKC M01/M07 Q1027 NOSIG
ZBYN,2003-01-17 03:00,ZBYN 170300Z 34002MPS 3500 FU SKC 02/M08 Q1027 NOSIG
ZBYN,2003-01-17 04:00,ZBYN 170400Z VRB01MPS 5000 FU SKC 04/M09 Q1026 NOSIG
ZBYN,2003-01-17 05:00,ZBYN 170500Z 20001MPS CAVOK 05/M09 Q1025 NOSIG
ZBYN,2003-01-17 06:00,ZBYN 170600Z VRB01MPS CAVOK 06/M09 Q1024 NOSIG
ZBYN,2003-01-17 07:00,ZBYN 170700Z VRB01MPS CAVOK 06/M11 Q1024 NOSIG
ZBYN,2003-01-17 08:00,ZBYN 170800Z VRB01MPS CAVOK 06/M10 Q1024 NOSIG
ZBYN,2003-01-17 09:00,ZBYN 170900Z 00000MPS CAVOK 05/M10 Q1024 NOSIG
ZBYN,2003-01-17 10:00,ZBYN 171000Z 00000MPS CAVOK 02/M08 Q1024 NOSIG
ZBYN,2003-01-17 11:00,ZBYN 171100Z 05001MPS 6000 NSC M01/M07 Q1025 NOSIG
ZBYN,2003-01-17 12:00,ZBYN 171200Z 08001MPS 7000 NSC M02/M07 Q1025 NOSIG
ZBYN,2003-01-17 13:00,ZBYN 171300Z 12003MPS CAVOK M03/M07 Q1025 NOSIG
ZBYN,2003-01-17 14:00,ZBYN 171400Z 12001MPS CAVOK M02/M06 Q1024 NOSIG
ZBYN,2003-01-17 15:00,ZBYN 171500Z 36002MPS 6000 SKC M03/M06 Q1025 NOSIG
ZBYN,2003-01-17 16:00,ZBYN 171600Z 08001MPS 5000 BR SKC M04/M07 Q1024 NOSIG
ZBYN,2003-01-17 17:00,ZBYN 171700Z 11002MPS 4000 BR SKC M04/M07 Q1024
ZBYN,2003-01-17 18:00,ZBYN 171800Z 00000MPS 4000 BR SKC M04/M07 Q1024
ZBYN,2003-01-17 19:00,ZBYN 171900Z ///// //// BR ////// M06/M08 Q1023CS
ZBYN,2003-01-17 20:00,ZBYN 172000Z 08001MPS 4000 BR SKC M05/M07 Q1023 NOSIG
ZBYN,2003-01-17 21:00,ZBYN 172100Z 00000MPS 4000 BR SKC M05/M07 Q1023 NOSIG
ZBYN,2003-01-17 22:00,ZBYN 172200Z 09001MPS 4000 BR NSC M06/M08 Q1022 NOSIG
ZBYN,2003-01-17 23:00,ZBYN 172300Z 33001MPS 4000 BR SKC M06/M08 Q1023 NOSIG
ZBYN,2003-01-18 00:00,ZBYN 180000Z 14001MPS 2000 R31/1200 BR SKC M06/M07 Q1024 NOSIG
ZBYN,2003-01-18 01:00,ZBYN 180100Z 14001MPS 1000 R31/0800N BR SKC M05/M06 Q1025 NOSIG
ZBYN,2003-01-18 02:00,ZBYN 180200Z 00000MPS 1000 R31/0800N BR SKC M01/M05 Q1025 NOSIG
ZBYN,2003-01-18 03:00,ZBYN 180300Z 16001MPS 1400 R31/0800N FU SKC 01/M04 Q1025 NOSIG
ZBYN,2003-01-18 04:00,ZBYN 180400Z VRB01MPS 4000 FU SKC 04/M05 Q1024 NOSIG
ZBYN,2003-01-18 05:00,ZBYN 180500Z 31006MPS CAVOK 06/M09 Q1023 NOSIG
ZBYN,2003-01-18 06:00,ZBYN 180600Z 31006MPS CAVOK 07/M08 Q1023 NOSIG
ZBYN,2003-01-18 07:00,ZBYN 180700Z 30006MPS CAVOK 07/M09 Q1023 NOSIG
ZBYN,2003-01-18 08:00,ZBYN 180800Z 28004MPS CAVOK 06/M09 Q1023 NOSIG
ZBYN,2003-01-18 09:00,ZBYN 180900Z 31003MPS CAVOK 05/M09 Q1023 NOSIG
ZBYN,2003-01-18 10:00,ZBYN 181000Z 26002MPS CAVOK 03/M05 Q1024 NOSIG
ZBYN,2003-01-18 11:00,ZBYN 181100Z 32002MPS CAVOK M01/M07 Q1024 NOSIG
ZBYN,2003-01-18 12:00,ZBYN 181200Z 21001MPS CAVOK 01/M06 Q1024 NOSIG
ZBYN,2003-01-18 13:00,ZBYN 181300Z 23001MPS CAVOK M01/M06 Q1025 NOSIG
ZBYN,2003-01-18 14:00,ZBYN 181400Z 27002MPS CAVOK M00/M06 Q1025 NOSIG
ZBYN,2003-01-18 15:00,ZBYN 181500Z 23001MPS CAVOK M02/M08 Q1024 NOSIG
ZBYN,2003-01-18 16:00,ZBYN 181600Z 11001MPS CAVOK M04/M08 Q1024 NOSIG
ZBYN,2003-01-18 17:00,ZBYN 181700Z 08001MPS CAVOK M06/M09 Q1024 NOSIG
ZBYN,2003-01-18 18:00,ZBYN 181800Z 09001MPS CAVOK M06/M09 Q1024
ZBYN,2003-01-18 19:00,ZBYN 181900Z 10001MPS CAVOK M07/M10 Q1024
ZBYN,2003-01-18 20:00,ZBYN 182000Z 00000MPS CAVOK M07/M09 Q1023
ZBYN,2003-01-18 21:00,ZBYN 182100Z 07001MPS CAVOK M07/M09 Q1023
ZBYN,2003-01-18 22:00,ZBYN 182200Z 10001MPS CAVOK M07/M10 Q1023 NOSIG
ZBYN,2003-01-18 23:00,ZBYN 182300Z 11001MPS CAVOK M08/M11 Q1023 NOSIG
ZBYN,2003-01-19 00:00,ZBYN 190000Z 00000MPS 7000 SKC M08/M10 Q1023 NOSIG
ZBYN,2003-01-19 01:00,ZBYN 190100Z 13001MPS 6000 SKC M06/M08 Q1023 NOSIG
ZBYN,2003-01-19 02:00,ZBYN 190200Z 00000MPS 6000 SKC M02/M07 Q1023 NOSIG
ZBYN,2003-01-19 03:00,ZBYN 190300Z 16001MPS 8000 SKC 00/M07 Q1023 NOSIG
ZBYN,2003-01-19 04:00,ZBYN 190400Z 14001MPS 6000 SKC 02/M07 Q1021 NOSIG
ZBYN,2003-01-19 05:00,ZBYN 190500Z 19001MPS 7000 NSC 03/M07 Q1020 NOSIG
ZBYN,2003-01-19 06:00,ZBYN 190600Z 17002MPS CAVOK 04/M07 Q1019 NOSIG
ZBYN,2003-01-19 07:00,ZBYN 190700Z 15002MPS CAVOK 04/M06 Q1019 NOSIG
ZBYN,2003-01-19 08:00,ZBYN 190800Z 15001MPS CAVOK 05/M06 Q1018 NOSIG
ZBYN,2003-01-19 09:00,ZBYN 190900Z 10001MPS CAVOK 03/M06 Q1018 NOSIG
ZBYN,2003-01-19 10:00,ZBYN 191000Z 08001MPS CAVOK 02/M06 Q1018 NOSIG
ZBYN,2003-01-19 11:00,ZBYN 191100Z 01001MPS CAVOK 00/M06 Q1019 NOSIG
ZBYN,2003-01-19 12:00,ZBYN 191200Z 31001MPS 6000 NSC M01/M06 Q1019 NOSIG
ZBYN,2003-01-19 13:00,ZBYN 191300Z 28001MPS 3000 R31/1200N FU NSC 00/M04 Q1019 NOSIG
ZBYN,2003-01-19 14:00,ZBYN 191400Z 09001MPS 3000 R31/1100N FU NSC M02/M06 Q1020 NOSIG
ZBYN,2003-01-19 15:00,ZBYN 191500Z 00000MPS 8000 SKC M03/M06 Q1020 NOSIG
ZBYN,2003-01-19 16:00,ZBYN 191600Z 10001MPS 7000 SKC M04/M07 Q1021 NOSIG
ZBYN,2003-01-19 17:00,ZBYN 191700Z 11001MPS 7000 SKC M06/M09 Q1021
ZBYN,2003-01-19 18:00,ZBYN 191800Z VRB01MPS 6000 SKC M06/M08 Q1021
ZBYN,2003-01-19 19:00,ZBYN 191900Z 08001MPS 8000 SKC M07/M09 Q1022
ZBYN,2003-01-19 20:00,ZBYN 192000Z 08001MPS 8000 SKC M07/M09 Q1022
ZBYN,2003-01-19 21:00,ZBYN 192100Z 00000MPS 8000 SKC M07/M09 Q1022
ZBYN,2003-01-19 22:00,ZBYN 192200Z 12002MPS CAVOK M08/M11 Q1022 NOSIG
ZBYN,2003-01-19 23:00,ZBYN 192300Z 11001MPS CAVOK M08/M11 Q1022 NOSIG
ZBYN,2003-01-20 00:00,ZBYN 200000Z 09001MPS CAVOK M09/M11 Q1023 NOSIG
ZBYN,2003-01-20 01:00,ZBYN 200100Z 11001MPS 8000 SKC M04/M07 Q1024 NOSIG
ZBYN,2003-01-20 02:00,ZBYN 200200Z 10001MPS 7000 SKC M00/M06 Q1024 NOSIG
ZBYN,2003-01-20 03:00,ZBYN 200300Z 36002MPS 6000 SKC 03/M09 Q1024 NOSIG
ZBYN,2003-01-20 04:00,ZBYN 200400Z VRB01MPS CAVOK 05/M13 Q1023 NOSIG
ZBYN,2003-01-20 05:00,ZBYN 200500Z VRB01MPS CAVOK 06/M14 Q1022 NOSIG
ZBYN,2003-01-20 06:00,ZBYN 200600Z 22002MPS CAVOK 06/M13 Q1021 NOSIG
ZBYN,2003-01-20 07:00,ZBYN 200700Z 25003MPS CAVOK 06/M11 Q1021 NOSIG
ZBYN,2003-01-20 08:00,ZBYN 200800Z 23002MPS CAVOK 06/M11 Q1020 NOSIG
ZBYN,2003-01-20 09:00,ZBYN 200900Z 22001MPS CAVOK 05/M10 Q1020 NOSIG
ZBYN,2003-01-20 10:00,ZBYN 201000Z 06001MPS CAVOK 00/M09 Q1019 NOSIG
ZBYN,2003-01-20 11:00,ZBYN 201100Z 09001MPS CAVOK M02/M09 Q1019 NOSIG
ZBYN,2003-01-20 12:00,ZBYN 201200Z 11001MPS CAVOK M04/M09 Q1019 NOSIG
ZBYN,2003-01-20 13:00,ZBYN 201300Z 12002MPS CAVOK M04/M09 Q1020 NOSIG
ZBYN,2003-01-20 14:00,ZBYN 201400Z 06001MPS CAVOK M04/M09 Q1019 NOSIG
ZBYN,2003-01-20 15:00,ZBYN 201500Z 13001MPS CAVOK M04/M10 Q1019 NOSIG
ZBYN,2003-01-20 16:00,ZBYN 201600Z 11001MPS CAVOK M05/M10 Q1019 NOSIG
ZBYN,2003-01-20 17:00,ZBYN 201700Z 07001MPS CAVOK M05/M10 Q1018 NOSIG
ZBYN,2003-01-20 18:00,ZBYN 201800Z 09001MPS CAVOK M05/M10 Q1018 NOSIG
ZBYN,2003-01-20 19:00,ZBYN 201900Z 10001MPS CAVOK M06/M10 Q1018
ZBYN,2003-01-20 20:00,ZBYN 202000Z 13001MPS CAVOK M07/M10 Q1017 NOSIG
ZBYN,2003-01-20 21:00,ZBYN 202100Z 11001MPS CAVOK M07/M10 Q1016 NOSIG
ZBYN,2003-01-20 22:00,ZBYN 202200Z 04001MPS CAVOK M07/M10 Q1016 NOSIG
ZBYN,2003-01-20 23:00,ZBYN 202300Z 00000MPS CAVOK M07/M10 Q1016 NOSIG
ZBYN,2003-01-21 00:00,ZBYN 210000Z 00000MPS 6000 SKC M07/M10 Q1016 NOSIG
ZBYN,2003-01-21 01:00,ZBYN 210100Z VRB01MPS 3000 BR SKC M05/M08 Q1016 NOSIG
ZBYN,2003-01-21 02:00,ZBYN 210200Z 00000MPS 1800 R31/1000 BR SKC M02/M06 Q1016 NOSIG
ZBYN,2003-01-21 03:00,ZBYN 210300Z 33001MPS 1700 FU SKC 01/M06 Q1016 NOSIG
ZBYN,2003-01-21 04:00,ZBYN 210400Z 21001MPS 2300 FU SKC 02/M07 Q1015 NOSIG
ZBYN,2003-01-21 05:00,ZBYN 210500Z 17001MPS 3000 FU SKC 03/M07 Q1014 NOSIG
ZBYN,2003-01-21 06:00,ZBYN 210600Z VRB01MPS 3500 FU NSC 03/M07 Q1013 NOSIG
ZBYN,2003-01-21 07:00,ZBYN 210700Z 24001MPS 3500 FU NSC 03/M06 Q1012 NOSIG
ZBYN,2003-01-21 08:00,ZBYN 210800Z 00000MPS 3000 FU NSC 03/M06 Q1012 NOSIG
ZBYN,2003-01-21 08:30,ZBYN 210830Z 23001MPS 3000 FU NSC 03/M05 Q1012 NOSIG
ZBYN,2003-01-21 09:00,ZBYN 210900Z 24001MPS 3000 FU NSC 02/M05 Q1013 NOSIG
ZBYN,2003-01-21 10:00,ZBYN 211000Z 00000MPS 3500 FU NSC 02/M04 Q1013 NOSIG
ZBYN,2003-01-21 11:00,ZBYN 211100Z 15001MPS 3000 FU NSC 00/M04 Q1014 NOSIG
ZBYN,2003-01-21 12:00,ZBYN 211200Z 00000MPS 3000 FU NSC 01/M04 Q1015 NOSIG
ZBYN,2003-01-21 13:00,ZBYN 211300Z 30003MPS CAVOK 02/M05 Q1015 NOSIG
ZBYN,2003-01-21 14:00,ZBYN 211400Z 30004MPS CAVOK 02/M07 Q1016 NOSIG
ZBYN,2003-01-21 15:00,ZBYN 211500Z 28002MPS CAVOK 01/M07 Q1016 NOSIG
ZBYN,2003-01-21 16:00,ZBYN 211600Z 29004MPS CAVOK 00/M08 Q1015 NOSIG
ZBYN,2003-01-21 17:00,ZBYN 211700Z 29004MPS CAVOK 00/M09 Q1015
ZBYN,2003-01-21 18:00,ZBYN 211800Z AUTO 29004KT 9SM M01/M10 RMK SLP194 T10081098 57001 IEM_DS3505
ZBYN,2003-01-21 21:00,ZBYN 212100Z 27002MPS CAVOK M02/M09 Q1015 NOSIG
ZBYN,2003-01-21 22:00,ZBYN 212200Z 29004MPS CAVOK M01/M09 Q1015 NOSIG
ZBYN,2003-01-21 23:00,ZBYN 212300Z 27002MPS CAVOK M02/M09 Q1015 NOSIG
ZBYN,2003-01-22 00:00,ZBYN 220000Z 00000MPS CAVOK M02/M10 Q1016 NOSIG
ZBYN,2003-01-22 01:00,ZBYN 220100Z 15002MPS CAVOK M02/M07 Q1016 NOSIG
ZBYN,2003-01-22 02:00,ZBYN 220200Z 20001MPS CAVOK 00/M07 Q1017 NOSIG
ZBYN,2003-01-22 03:00,ZBYN 220300Z 24002MPS CAVOK 02/M07 Q1017 NOSIG
ZBYN,2003-01-22 04:00,ZBYN 220400Z 13002MPS CAVOK 04/M08 Q1016 NOSIG
ZBYN,2003-01-22 05:00,ZBYN 220500Z 34003MPS 9999 FEW033 06/M11 Q1016 NOSIG
ZBYN,2003-01-22 06:00,ZBYN 220600Z 02001MPS 9999 FEW033 06/M11 Q1015 NOSIG
ZBYN,2003-01-22 07:00,ZBYN 220700Z 32002MPS 9999 SCT033 06/M11 Q1015 NOSIG
ZBYN,2003-01-22 08:00,ZBYN 220800Z 34003MPS CAVOK 05/M10 Q1016 NOSIG
ZBYN,2003-01-22 09:00,ZBYN 220900Z 33003MPS CAVOK 04/M10 Q1017 NOSIG
ZBYN,2003-01-22 10:00,ZBYN 221000Z 34002MPS CAVOK 01/M09 Q1018 NOSIG
ZBYN,2003-01-22 11:00,ZBYN 221100Z 31002MPS CAVOK M01/M08 Q1019 NOSIG
ZBYN,2003-01-22 12:00,ZBYN 221200Z 32004MPS CAVOK M00/M09 Q1019 NOSIG
ZBYN,2003-01-22 13:00,ZBYN 221300Z 31003MPS CAVOK M01/M09 Q1019 NOSIG
ZBYN,2003-01-22 14:00,ZBYN 221400Z 30001MPS CAVOK M02/M08 Q1019 NOSIG
ZBYN,2003-01-22 15:00,ZBYN 221500Z 13001MPS CAVOK M04/M09 Q1019 NOSIG
ZBYN,2003-01-22 16:00,ZBYN 221600Z VRB01MPS CAVOK M06/M09 Q1019 NOSIG
ZBYN,2003-01-22 17:00,ZBYN 221700Z 09001MPS CAVOK M07/M10 Q1019 NOSIG
ZBYN,2003-01-22 18:00,ZBYN 221800Z 10001MPS CAVOK M08/M10 Q1019
ZBYN,2003-01-22 19:00,ZBYN 221900Z 00000MPS CAVOK M08/M10 Q1019
ZBYN,2003-01-22 20:00,ZBYN 222000Z 10001MPS CAVOK M08/M10 Q1018
ZBYN,2003-01-22 21:00,ZBYN 222100Z 13002MPS CAVOK M08/M11 Q1018
ZBYN,2003-01-22 22:00,ZBYN 222200Z 12002MPS CAVOK M08/M10 Q1017 NOSIG
ZBYN,2003-01-22 23:00,ZBYN 222300Z 12002MPS CAVOK M09/M11 Q1017 NOSIG
ZBYN,2003-01-23 00:00,ZBYN 230000Z 10001MPS CAVOK M09/M10 Q1017 NOSIG
ZBYN,2003-01-23 01:00,ZBYN 230100Z 13001MPS 4000 BR SKC M06/M08 Q1017 NOSIG
ZBYN,2003-01-23 02:00,ZBYN 230200Z 00000MPS 3000 R31/1100D BR SKC M02/M06 Q1017 NOSIG
ZBYN,2003-01-23 03:00,ZBYN 230300Z 20001MPS 4000 FU SKC 00/M07 Q1017 NOSIG
ZBYN,2003-01-23 04:00,ZBYN 230400Z 25001MPS CAVOK 01/M08 Q1016 NOSIG
ZBYN,2003-01-23 05:00,ZBYN 230500Z VRB01MPS CAVOK 03/M08 Q1015 NOSIG
ZBYN,2003-01-23 06:00,ZBYN 230600Z 17002MPS CAVOK 05/M09 Q1013 NOSIG
ZBYN,2003-01-23 07:00,ZBYN 230700Z 22001MPS CAVOK 05/M10 Q1013 NOSIG
ZBYN,2003-01-23 08:00,ZBYN 230800Z 22001MPS CAVOK 06/M12 Q1013 NOSIG
ZBYN,2003-01-23 09:00,ZBYN 230900Z 12002MPS CAVOK 05/M11 Q1013 NOSIG
ZBYN,2003-01-23 10:00,ZBYN 231000Z 02001MPS CAVOK 02/M09 Q1013 NOSIG
ZBYN,2003-01-23 11:00,ZBYN 231100Z 06001MPS 7000 SKC M00/M09 Q1014 NOSIG
ZBYN,2003-01-23 12:00,ZBYN 231200Z 11001MPS 8000 SKC M02/M09 Q1014 NOSIG
ZBYN,2003-01-23 13:00,ZBYN 231300Z 07002MPS CAVOK M03/M09 Q1014 NOSIG
ZBYN,2003-01-23 14:00,ZBYN 231400Z 06001MPS CAVOK M04/M09 Q1015 NOSIG
ZBYN,2003-01-23 15:00,ZBYN 231500Z 12001MPS CAVOK M05/M09 Q1015 NOSIG
ZBYN,2003-01-23 16:00,ZBYN 231600Z 12002MPS CAVOK M05/M10 Q1015
ZBYN,2003-01-23 17:00,ZBYN 231700Z 08001MPS CAVOK M05/M10 Q1015
ZBYN,2003-01-23 18:00,ZBYN 231800Z 10001MPS CAVOK M06/M10 Q1016
ZBYN,2003-01-23 19:00,ZBYN 231900Z VRB01MPS CAVOK M07/M10 Q1016
ZBYN,2003-01-23 20:00,ZBYN 232000Z VRB01MPS CAVOK M07/M11 Q1016
ZBYN,2003-01-23 21:00,ZBYN 232100Z 05001MPS CAVOK M08/M11 Q1016
ZBYN,2003-01-23 22:00,ZBYN 232200Z VRB01MPS CAVOK M07/M10 Q1016 NOSIG
ZBYN,2003-01-23 23:00,ZBYN 232300Z 00000MPS CAVOK M09/M12 Q1016 NOSIG
ZBYN,2003-01-24 00:00,ZBYN 240000Z 09001MPS CAVOK M08/M11 Q1017 NOSIG
ZBYN,2003-01-24 01:00,ZBYN 240100Z 01002MPS 4000 BR NSC M04/M09 Q1018 NOSIG
ZBYN,2003-01-24 02:00,ZBYN 240200Z 35003MPS 6000 NSC M01/M08 Q1018 NOSIG
ZBYN,2003-01-24 03:00,ZBYN 240300Z 03001MPS 6000 NSC 01/M08 Q1018 NOSIG
ZBYN,2003-01-24 04:00,ZBYN 240400Z VRB01MPS 6000 NSC 03/M09 Q1018 NOSIG
ZBYN,2003-01-24 05:00,ZBYN 240500Z VRB01MPS 6000 NSC 05/M09 Q1017 NOSIG
ZBYN,2003-01-24 06:00,ZBYN 240600Z 19001MPS 7000 NSC 05/M09 Q1016 NOSIG
ZBYN,2003-01-24 07:00,ZBYN 240700Z 00000MPS 8000 NSC 06/M09 Q1016 NOSIG
ZBYN,2003-01-24 08:00,ZBYN 240800Z VRB01MPS 8000 NSC 07/M09 Q1016 NOSIG
ZBYN,2003-01-24 09:00,ZBYN 240900Z 22001MPS 8000 SKC 06/M08 Q1016 NOSIG
ZBYN,2003-01-24 10:00,ZBYN 241000Z 10004MPS 4000 FU SKC 03/M05 Q1016 NOSIG
ZBYN,2003-01-24 11:00,ZBYN 241100Z 08005MPS 4000 FU SKC 01/M05 Q1017 NOSIG
ZBYN,2003-01-24 12:00,ZBYN 241200Z 08007MPS 4000 FU NSC 00/M05 Q1018 NOSIG
ZBYN,2003-01-24 13:00,ZBYN 241300Z 08005MPS 4000 FU NSC M00/M05 Q1019 NOSIG
ZBYN,2003-01-24 14:00,ZBYN 241400Z 08004MPS 4000 FU NSC M00/M05 Q1020 NOSIG
ZBYN,2003-01-24 15:00,ZBYN 241500Z 09004MPS 4000 FU NSC M00/M05 Q1020 NOSIG
ZBYN,2003-01-24 16:00,ZBYN 241600Z 10003MPS 4000 FU NSC M00/M05 Q1020 NOSIG
ZBYN,2003-01-24 17:00,ZBYN 241700Z 08002MPS 4000 FU NSC M00/M05 Q1019
ZBYN,2003-01-24 18:00,ZBYN 241800Z 12001MPS 4000 BR NSC M01/M05 Q1019
ZBYN,2003-01-24 19:00,ZBYN 241900Z 13003MPS 5000 BR NSC M01/M04 Q1019
ZBYN,2003-01-24 20:00,ZBYN 242000Z 10002MPS 1700 -SN OVC040 M01/M03 Q1019
ZBYN,2003-01-24 21:00,ZBYN 242100Z 12001MPS 1200 R31/0700 -SN OVC040 M02/M03 Q1019
ZBYN,2003-01-24 22:00,ZBYN 242200Z 12002MPS 0900 R31/0400N SN OVC040 M02/M03 Q1019 NOSIG
ZBYN,2003-01-24 23:00,ZBYN 242300Z 09003MPS 1100 R31/0500N -SN OVC040 M02/M03 Q1019 NOSIG
ZBYN,2003-01-25 00:00,ZBYN 250000Z 09002MPS 1200 R31/0800N -SN OVC040 M02/M03 Q1019 NOSIG
ZBYN,2003-01-25 01:00,ZBYN 250100Z 08001MPS 0500 R31/0450N -SN FZFG OVC040 M02/M02 Q1020 RESN NOSIG
ZBYN,2003-01-25 02:00,ZBYN 250200Z 00000MPS 0500 R31/0450N -SN FZFG OVC040 M01/M02 Q1021 NOSIG
ZBYN,2003-01-25 03:00,ZBYN 250300Z 00000MPS 0500 R31/0450N -SN FZFG OVC040 M01/M01 Q1021 NOSIG
ZBYN,2003-01-25 04:00,ZBYN 250400Z 00000MPS 0700 R31/0650N -SN FZFG OVC040 M00/M01 Q1020 NOSIG
ZBYN,2003-01-25 05:00,ZBYN 250500Z 28001MPS 0800 R31/0650N FG OVC040 00/M01 Q1019 NOSIG
ZBYN,2003-01-25 06:00,ZBYN 250600Z 00000MPS 1300 R31/0900N BR NSC 01/M01 Q1018 NOSIG
ZBYN,2003-01-25 07:00,ZBYN 250700Z 00000MPS 1600 R31/1200N -SN BR NSC 02/M01 Q1018 NOSIG
ZBYN,2003-01-25 08:00,ZBYN 250800Z 14001MPS 1600 R31/1200D BR NSC 02/M01 Q1018 NOSIG
ZBYN,2003-01-25 09:00,ZBYN 250900Z 14001MPS 1400 R31/1100N BR NSC 01/M01 Q1018 NOSIG
ZBYN,2003-01-25 10:00,ZBYN 251000Z 22001MPS 1400 R31/P1500 BR NSC M00/M02 Q1019 NOSIG
ZBYN,2003-01-25 11:00,ZBYN 251100Z 00000MPS 1400 R31/P1500 BR NSC M01/M02 Q1019 NOSI G
ZBYN,2003-01-25 12:00,ZBYN 251200Z 02001MPS 1200 R31/0450N BR NSC M02/M03 Q1020 NOSIG
ZBYN,2003-01-25 13:00,ZBYN 251300Z 11001MPS 1200 R31/0550N BR NSC M02/M02 Q1021 NOSIG
ZBYN,2003-01-25 14:00,ZBYN 251400Z 13002MPS 1400 R31/0800 BR NSC M02/M02 Q1022 NOSIG
ZBYN,2003-01-25 15:00,ZBYN 251500Z 11001MPS 1700 R31/1300N -SN BR NSC M02/M02 Q1022 NOSIG
ZBYN,2003-01-25 16:00,ZBYN 251600Z 06001MPS 1700 R31/1400 BR NSC M01/M02 Q1021 NOSIG
ZBYN,2003-01-25 17:00,ZBYN 251700Z 13001MPS 1700 R31/0650N BR NSC M01/M02 Q1021
ZBYN,2003-01-25 18:00,ZBYN 251800Z 14002MPS 1200 R31/1000 SN BR OVC090 M01/M02 Q1021
ZBYN,2003-01-25 19:00,ZBYN 251900Z 14001MPS 1100 R31/0450N SN BR OVC090 M02/M03 Q1021
ZBYN,2003-01-25 20:00,ZBYN 252000Z 09001MPS 0800 R31/0800 -SN FZFG OVC023 M01/M01 Q1021
ZBYN,2003-01-25 21:00,ZBYN 252100Z 10001MPS 0700 R31/0250N -SN FZFG OVC023 M01/M01 Q1020
ZBYN,2003-01-25 22:00,ZBYN 252200Z 16001MPS 0700 R31/0650N -SN FZFG OVC023 M01/M01 Q1021 NOSIG
ZBYN,2003-01-25 23:00,ZBYN 252300Z 21001MPS 0700 R31/0550N -SN FZFG OVC023 M01/M01 Q1022 NOSIG
ZBYN,2003-01-26 00:00,ZBYN 260000Z 09001MPS 0500 R31/0500N -SN FZFG OVC023 M01/M01 Q1022 NOSIG
ZBYN,2003-01-26 01:00,ZBYN 260100Z 00000MPS 0300 R31/0300N FZFG OVC040 M01/M01 Q1023 NOSIG
ZBYN,2003-01-26 02:00,ZBYN 260200Z 22001MPS 0250 R31/0250N FZFG NSC M00/M00 Q1023 NOSIG
ZBYN,2003-01-26 03:00,ZBYN 260300Z 30007MPS CAVOK 01/M04 Q1024 NOSIG
ZBYN,2003-01-26 04:00,ZBYN 260400Z 29006MPS CAVOK 02/M07 Q1024 NOSIG
ZBYN,2003-01-26 05:00,ZBYN 260500Z 29008MPS CAVOK 02/M09 Q1024 NOSIG
ZBYN,2003-01-26 06:00,ZBYN 260600Z 30006MPS CAVOK 02/M09 Q1024 NOSIG
ZBYN,2003-01-26 07:00,ZBYN 260700Z 32010MPS CAVOK 01/M11 Q1024 NOSIG
ZBYN,2003-01-26 08:00,ZBYN 260800Z 30009MPS CAVOK M00/M14 Q1024 NOSIG
ZBYN,2003-01-26 09:00,ZBYN 260900Z 31008MPS CAVOK M01/M17 Q1025 NOSIG
ZBYN,2003-01-26 10:00,ZBYN 261000Z 30009MPS CAVOK M03/M19 Q1027 NOSIG
ZBYN,2003-01-26 11:00,ZBYN 261100Z 30007MPS CAVOK M04/M18 Q1028 NOSIG
ZBYN,2003-01-26 12:00,ZBYN 261200Z 30005MPS CAVOK M05/M18 Q1029 NOSIG
ZBYN,2003-01-26 13:00,ZBYN 261300Z 31007MPS CAVOK M06/M19 Q1030 NOSIG
ZBYN,2003-01-26 14:00,ZBYN 261400Z 29004MPS CAVOK M07/M17 Q1030 NOSIG
ZBYN,2003-01-26 15:00,ZBYN 261500Z 30005MPS CAVOK M07/M16 Q1031 NOSIG
ZBYN,2003-01-26 16:00,ZBYN 261600Z 30008MPS CAVOK M08/M21 Q1031 NOSIG
ZBYN,2003-01-26 17:00,ZBYN 261700Z 30006MPS CAVOK M09/M21 Q1031
ZBYN,2003-01-26 18:00,ZBYN 261800Z 30005MPS CAVOK M09/M21 Q1031
ZBYN,2003-01-26 19:00,ZBYN 261900Z 30004MPS CAVOK M10/M21 Q1031
ZBYN,2003-01-26 20:00,ZBYN 262000Z 29005MPS CAVOK M10/M21 Q1030
ZBYN,2003-01-26 21:00,ZBYN 262100Z 28005MPS CAVOK M10/M21 Q1029
ZBYN,2003-01-26 22:00,ZBYN 262200Z 29005MPS CAVOK M10/M22 Q1029 NOSIG
ZBYN,2003-01-26 23:00,ZBYN 262300Z 28003MPS CAVOK M11/M22 Q1029 NOSIG
ZBYN,2003-01-27 00:00,ZBYN 270000Z 28004MPS CAVOK M11/M22 Q1029 NOSIG
ZBYN,2003-01-27 01:00,ZBYN 270100Z 25001MPS CAVOK M09/M21 Q1029 NOSIG
ZBYN,2003-01-27 02:00,ZBYN 270200Z 23003MPS CAVOK M08/M18 Q1029 NOSIG
ZBYN,2003-01-27 03:00,ZBYN 270300Z 23004MPS CAVOK M07/M16 Q1029 NOSIG
ZBYN,2003-01-27 04:00,ZBYN 270400Z 23004MPS CAVOK M06/M17 Q1027 NOSIG
ZBYN,2003-01-27 05:00,ZBYN 270500Z 24004MPS CAVOK M05/M17 Q1026 NOSIG
ZBYN,2003-01-27 06:00,ZBYN 270600Z 23004MPS CAVOK M04/M17 Q1025 NOSIG
ZBYN,2003-01-27 07:00,ZBYN 270700Z 22003MPS CAVOK M03/M18 Q1024 NOSIG
ZBYN,2003-01-27 08:00,ZBYN 270800Z 27004MPS CAVOK M02/M19 Q1023 NOSIG
ZBYN,2003-01-27 09:00,ZBYN 270900Z 24004MPS CAVOK M03/M17 Q1023 NOSIG
ZBYN,2003-01-27 10:00,ZBYN 271000Z 25002MPS CAVOK M05/M16 Q1023 NOSIG
ZBYN,2003-01-27 11:00,ZBYN 271100Z 24003MPS CAVOK M06/M14 Q1023 NOSIG
ZBYN,2003-01-27 12:00,ZBYN 271200Z 22002MPS CAVOK M07/M15 Q1024 NOSIG
ZBYN,2003-01-27 13:00,ZBYN 271300Z 20002MPS CAVOK M07/M16 Q1024 NOSIG
ZBYN,2003-01-27 14:00,ZBYN 271400Z 00000MPS CAVOK M08/M16 Q1023 NOSIG
ZBYN,2003-01-27 15:00,ZBYN 271500Z 10001MPS CAVOK M10/M16 Q1023 NOSIG
ZBYN,2003-01-27 16:00,ZBYN 271600Z 10001MPS CAVOK M12/M16 Q1022 NOSIG
ZBYN,2003-01-27 17:00,ZBYN 271700Z VRB01MPS CAVOK M11/M15 Q1021
ZBYN,2003-01-27 18:00,ZBYN 271800Z 14001MPS CAVOK M11/M16 Q1021
ZBYN,2003-01-27 19:00,ZBYN 271900Z VRB01MPS CAVOK M12/M16 Q1021
ZBYN,2003-01-27 20:00,ZBYN 272000Z 10001MPS CAVOK M12/M16 Q1021 NOSIG
ZBYN,2003-01-27 21:00,ZBYN 272100Z 08001MPS CAVOK M13/M17 Q1021 NOSIG
ZBYN,2003-01-27 22:00,ZBYN 272200Z 12002MPS CAVOK M13/M16 Q1021 NOSIG
ZBYN,2003-01-27 23:00,ZBYN 272300Z 06002MPS CAVOK M12/M16 Q1023 NOSIG
ZBYN,2003-01-28 00:00,ZBYN 280000Z 00000MPS CAVOK M14/M17 Q1023 NOSIG
ZBYN,2003-01-28 01:00,ZBYN 280100Z 00000MPS 4000 FU SKC M11/M14 Q1024 NOSIG
ZBYN,2003-01-28 02:00,ZBYN 280200Z 17001MPS 3000 FU SKC M06/M13 Q1025 NOSIG
ZBYN,2003-01-28 03:00,ZBYN 280300Z 21001MPS CAVOK M03/M15 Q1025 NOSIG
ZBYN,2003-01-28 04:00,ZBYN 280400Z 29002MPS CAVOK M01/M16 Q1024 NOSIG
ZBYN,2003-01-28 05:00,ZBYN 280500Z 32009MPS CAVOK 01/M17 Q1023 NOSIG
ZBYN,2003-01-28 06:00,ZBYN 280600Z 30008MPS CAVOK 01/M16 Q1023 NOSIG
ZBYN,2003-01-28 07:00,ZBYN 280700Z 30006MPS CAVOK 01/M16 Q1023 NOSIG
ZBYN,2003-01-28 08:00,ZBYN 280800Z 31007MPS CAVOK 01/M18 Q1023 NOSIG
ZBYN,2003-01-28 09:00,ZBYN 280900Z 31009MPS CAVOK M00/M18 Q1023 NOSIG
ZBYN,2003-01-28 10:00,ZBYN 281000Z 32007MPS CAVOK M02/M18 Q1024 NOSIG
ZBYN,2003-01-28 11:00,ZBYN 281100Z 33002MPS CAVOK M06/M17 Q1025 NOSIG
ZBYN,2003-01-28 12:00,ZBYN 281200Z 08002MPS CAVOK M05/M17 Q1026 NOSIG
ZBYN,2003-01-28 13:00,ZBYN 281300Z VRB01MPS CAVOK M07/M17 Q1026 NOSIG
ZBYN,2003-01-28 14:00,ZBYN 281400Z 09001MPS CAVOK M10/M17 Q1027 NOSIG
ZBYN,2003-01-28 15:00,ZBYN 281500Z 09002MPS CAVOK M11/M16 Q1027 NOSIG
ZBYN,2003-01-28 16:00,ZBYN 281600Z 06002MPS CAVOK M11/M16 Q1026 NOSIG
ZBYN,2003-01-28 17:00,ZBYN 281700Z 09001MPS CAVOK M10/M16 Q1026
ZBYN,2003-01-28 18:00,ZBYN 281800Z 12002MPS CAVOK M12/M16 Q1026
ZBYN,2003-01-28 19:00,ZBYN 281900Z 08002MPS CAVOK M13/M16 Q1026
ZBYN,2003-01-28 20:00,ZBYN 282000Z 00000MPS CAVOK M12/M16 Q1025
ZBYN,2003-01-28 21:00,ZBYN 282100Z 13002MPS CAVOK M13/M16 Q1025
ZBYN,2003-01-28 22:00,ZBYN 282200Z 13002MPS CAVOK M14/M17 Q1025 NOSIG
ZBYN,2003-01-28 23:00,ZBYN 282300Z 00000MPS CAVOK M15/M18 Q1026 NOSIG
ZBYN,2003-01-29 00:00,ZBYN 290000Z 13002MPS CAVOK M15/M18 Q1026 NOSIG
ZBYN,2003-01-29 01:00,ZBYN 290100Z 12001MPS 8000 SKC M10/14 Q1026 NOSIG
ZBYN,2003-01-29 02:00,ZBYN 290200Z 15001MPS CAVOK M07/M14 Q1026 NOSIG
ZBYN,2003-01-29 03:00,ZBYN 290300Z 17001MPS CAVOK M04/M15 Q1026 NOSIG
ZBYN,2003-01-29 04:00,ZBYN 290400Z VRB01MPS CAVOK M02/M15 Q1025 NOSIG
ZBYN,2003-01-29 05:00,ZBYN 290500Z 04001MPS CAVOK M01/M14 Q1023 NOSIG
ZBYN,2003-01-29 06:00,ZBYN 290600Z VRB01MPS CAVOK 01/M15 Q1022 NOSIG
ZBYN,2003-01-29 07:00,ZBYN 290700Z VRB01MPS CAVOK 02/M14 Q1021 NOSIG
ZBYN,2003-01-29 08:00,ZBYN 290800Z 19002MPS CAVOK 02/M14 Q1021 NOSIG
ZBYN,2003-01-29 09:00,ZBYN 290900Z 15002MPS CAVOK 01/M13 Q1021 NOSIG
ZBYN,2003-01-29 10:00,ZBYN 291000Z 00000MPS CAVOK M01/M11 Q1021 NOSIG
ZBYN,2003-01-29 11:00,ZBYN 291100Z VRB01MPS CAVOK M03/M09 Q1022 NOSIG
ZBYN,2003-01-29 12:00,ZBYN 291200Z 07001MPS CAVOK M05/M10 Q1022 NOSIG
ZBYN,2003-01-29 13:00,ZBYN 291300Z 00000MPS CAVOK M05/M09 Q1021 NOSIG
ZBYN,2003-01-29 14:00,ZBYN 291400Z 08001MPS CAVOK M07/M10 Q1021 NOSIG
ZBYN,2003-01-29 15:00,ZBYN 291500Z 00000MPS CAVOK M06/M10 Q1022 NOSIG
ZBYN,2003-01-29 16:00,ZBYN 291600Z 12001MPS CAVOK M07/M11 Q1022 NOSIG
ZBYN,2003-01-29 17:00,ZBYN 291700Z 12001MPS CAVOK M09/M12 Q1022
ZBYN,2003-01-29 18:00,ZBYN 291800Z 10001MPS CAVOK M07/M11 Q1022
ZBYN,2003-01-29 19:00,ZBYN 291900Z 08001MPS CAVOK M09/M12 Q1022
ZBYN,2003-01-29 20:00,ZBYN 292000Z 00000MPS CAVOK M08/M11 Q1022 NOSIG
ZBYN,2003-01-29 21:00,ZBYN 292100Z VRB01MPS CAVOK M08/M10 Q1022 NOSIG
ZBYN,2003-01-29 22:00,ZBYN 292200Z 14001MPS CAVOK M09/M12 Q1021 NOSIG
ZBYN,2003-01-29 23:00,ZBYN 292300Z 00000MPS CAVOK M08/M11 Q1021 NOSIG
ZBYN,2003-01-30 00:00,ZBYN 300000Z VRB01MPS 6000 NSC M09/M11 Q1022 NOSIG
ZBYN,2003-01-30 01:00,ZBYN 300100Z 00000MPS 2500 BR NSC M07/M09 Q1023 NOSIG
ZBYN,2003-01-30 02:00,ZBYN 300200Z 00000MPS 3000 BR NSC M04/M09 Q1023 NOSIG
ZBYN,2003-01-30 03:00,ZBYN 300300Z 08001MPS 3000 R31/1100N FU NSC M02/M09 Q1023 NOSIG
ZBYN,2003-01-30 04:00,ZBYN 300400Z 17002MPS 6000 NSC M01/M09 Q1023 NOSIG
ZBYN,2003-01-30 05:00,ZBYN 300500Z 09001MPS 6000 NSC 01/M09 Q1021 NOSIG
ZBYN,2003-01-30 06:00,ZBYN 300600Z 04001MPS 4000 R31/1300N FU NSC 02/M09 Q1020 NOSIG
ZBYN,2003-01-30 07:00,ZBYN 300700Z 03001MPS 4000 R31/1400N FU NSC 03/M09 Q1019 NOSIG
ZBYN,2003-01-30 08:00,ZBYN 300800Z 21001MPS 5000 FU NSC 04/M09 Q1019 NOSIG
ZBYN,2003-01-30 09:00,ZBYN 300900Z 31002MPS CAVOK 03/M12 Q1020 NOSIG
ZBYN,2003-01-30 10:00,ZBYN 301000Z 33004MPS CAVOK 01/M11 Q1020 NOSIG
ZBYN,2003-01-30 11:00,ZBYN 301100Z 05002MPS CAVOK M00/M10 Q1021 NOSIG
ZBYN,2003-01-30 12:00,ZBYN 301200Z 08003MPS CAVOK 01/M10 Q1022 NOSIG
ZBYN,2003-01-30 13:00,ZBYN 301300Z 06003MPS CAVOK 00/M11 Q1023 NOSIG
ZBYN,2003-01-30 14:00,ZBYN 301400Z VRB01MPS 8000 NSC 01/M11 Q1024 NOSIG
ZBYN,2003-01-30 15:00,ZBYN 301500Z AUTO 34002KT 6SM M02/M11 RMK SLP291 T10231114 52017 IEM_DS3505
ZBYN,2003-01-30 16:00,ZBYN 301600Z 06004MPS CAVOK M01/M13 Q1024 NOSIG
ZBYN,2003-01-30 17:00,ZBYN 301700Z 05004MPS CAVOK M01/M14 Q1025 NOSIG
ZBYN,2003-01-30 18:00,ZBYN 301800Z 03003MPS CAVOK M02/M13 Q1025 NOSIG
ZBYN,2003-01-30 19:00,ZBYN 301900Z 03002MPS CAVOK M02/M14 Q1025
ZBYN,2003-01-30 20:00,ZBYN 302000Z 08001MPS CAVOK M02/M15 Q1025
ZBYN,2003-01-30 21:00,ZBYN 302100Z 08003MPS CAVOK M02/M14 Q1025
ZBYN,2003-01-30 22:00,ZBYN 302200Z 09004MPS CAVOK M02/M14 Q1025 NOSIG
ZBYN,2003-01-30 23:00,ZBYN 302300Z 06004MPS CAVOK M03/M13 Q1025 NOSIG
ZBYN,2003-01-31 00:00,ZBYN 310000Z 05004MPS CAVOK M02/M14 Q1026 NOSIG
ZBYN,2003-01-31 01:00,ZBYN 310100Z 04001MPS 5000 FU NSC M02/M13 Q1026 NOSIG
ZBYN,2003-01-31 02:00,ZBYN 310200Z 32002MPS 6000 NSC M01/M12 Q1027 NOSIG
ZBYN,2003-01-31 03:00,ZBYN 310300Z 07002MPS 6000 NSC M01/M14 Q1027 NOSIG
ZBYN,2003-01-31 04:00,ZBYN 310400Z 09003MPS CAVOK 01/M14 Q1027 NOSIG
ZBYN,2003-01-31 05:00,ZBYN 310500Z 07001MPS CAVOK 02/M14 Q1026 NOSIG
ZBYN,2003-01-31 06:00,ZBYN 310600Z VRB01MPS CAVOK 02/M13 Q1025 NOSIG
ZBYN,2003-01-31 07:00,ZBYN 310700Z VRB01MPS CAVOK 03/M11 Q1025 NOSIG
ZBYN,2003-01-31 08:00,ZBYN 310800Z 18002MPS 7000 NSC 02/M09 Q1025 NOSIG
ZBYN,2003-01-31 09:00,ZBYN 310900Z 21001MPS 6000 SKC 01/M07 Q1025 NOSIG
ZBYN,2003-01-31 10:00,ZBYN 311000Z 00000MPS 3000 R31/1300U FU NSC M01/M07 Q1025 NOSIG
ZBYN,2003-01-31 11:00,ZBYN 311100Z 17001MPS 3500 R31/1200U FU NSC M01/M06 Q1026 NOSIG
ZBYN,2003-01-31 12:00,ZBYN 311200Z 17001MPS 3500 R31/0900N FU NSC M01/M06 Q1026 NOSIG
ZBYN,2003-01-31 13:00,ZBYN 311300Z VRB01MPS 3000 R31/0900N BR NSC M02/M05 Q1027 NOSIG
ZBYN,2003-01-31 14:00,ZBYN 311400Z 11001MPS 3000 R31/0900N BR NSC M03/M06 Q1027 NOSIG
ZBYN,2003-01-31 15:00,ZBYN 311500Z 10002MPS 3000 R31/1100N BR NSC M06/M09 Q1027 NOSIG
ZBYN,2003-01-31 16:00,ZBYN 311600Z 05001MPS 3000 R31/0700 BR NSC M05/M08 Q1027 NOSIG
ZBYN,2003-01-31 17:00,ZBYN 311700Z 10001MPS 2500 R31/0900N BR NSC M05/M07 Q1027
ZBYN,2003-01-31 18:00,ZBYN 311800Z 11002MPS 2500 R31/1000N BR NSC M06/M09 Q1027
ZBYN,2003-01-31 19:00,ZBYN 311900Z VRB01MPS 2500 R31/1000N BR NSC M06/M08 Q1028
ZBYN,2003-01-31 20:00,ZBYN 312000Z 08001MPS 2500 R31/1000N BR NSC M06/M08 Q1028
ZBYN,2003-01-31 21:00,ZBYN 312100Z 08001MPS 2500 R31/0900N BR NSC M07/M09 Q1027
ZBYN,2003-01-31 22:00,ZBYN 312200Z 00000MPS 2500 R31/0900N BR NSC M07/M09 Q1028 NOSIG
ZBYN,2003-01-31 23:00,ZBYN 312300Z 12001MPS 2500 R31/0800N BR NSC M08/M09 Q1028 NOSIG
ZBYN,2003-02-01 00:00,ZBYN 010000Z 09001MPS 1400 R31/1100 BR NSC M07/M09 Q1029 NOSIG
ZBYN,2003-02-01 01:00,ZBYN 010100Z 11001MPS 0800 R31/0600N FZFG NSC M05/M06 Q1029 NOSIG
ZBYN,2003-02-01 02:00,ZBYN 010200Z 10001MPS 0700 R31/0600N FZFG NSC M02/M04 Q1030 NOSIG
ZBYN,2003-02-01 03:00,ZBYN 010300Z VRB01MPS 0700 R31/0700N FZFG NSC M02/M04 Q1030 NOSIG
ZBYN,2003-02-01 04:00,ZBYN 010400Z 15001MPS 0700 R31/0600N FZFG NSC M01/M03 Q1029 NOSIG
ZBYN,2003-02-01 05:00,ZBYN 010500Z VRB01MPS 1100 R31/0700N BR NSC 00/M03 Q1028 NOSIG
ZBYN,2003-02-01 06:00,ZBYN 010600Z VRB01MPS 1100 R31/0700N BR NSC 02/M02 Q1027 NOSIG
ZBYN,2003-02-01 07:00,ZBYN 010700Z 15002MPS 1200 R31/0800N BR NSC 03/M02 Q1026 NOSIG
ZBYN,2003-02-01 08:00,ZBYN 010800Z 16001MPS 1400 R31/0900N FU SKC 04/M02 Q1026 NOSIG
ZBYN,2003-02-01 09:00,ZBYN 010900Z 13001MPS 1700 R31/1000N FU SKC 03/M03 Q1027 NOSIG
ZBYN,2003-02-01 10:00,ZBYN 011000Z 10001MPS 1400 R31/P1500 FU SKC 00/M04 Q1027 NOSIG
ZBYN,2003-02-01 11:00,ZBYN 011100Z 10001MPS 1800 R31/0800N FU SKC M02/M05 Q1028 NOSIG
ZBYN,2003-02-01 12:00,ZBYN 011200Z 00000MPS 1400 R31/1300 BR SKC M02/M05 Q1028 NOSIG
ZBYN,2003-02-01 13:00,ZBYN 011300Z 12002MPS 3000 BR SKC M03/M06 Q1028 NOSIG
ZBYN,2003-02-01 14:00,ZBYN 011400Z 12001MPS 3000 BR SKC M04/M08 Q1029 NOSIG
ZBYN,2003-02-01 15:00,ZBYN 011500Z 07001MPS 3000 BR SKC M05/M07 Q1029 NOSIG
ZBYN,2003-02-01 16:00,ZBYN 011600Z 12002MPS 3000 BR SKC M06/M08 Q1029 NOSIG
ZBYN,2003-02-01 18:00,ZBYN 011800Z 08001MPS 3000 R31/0900N BR SKC M07/M09 Q1028
ZBYN,2003-02-01 19:00,ZBYN 011900Z 00000MPS 2000 R31/0700N BR SKC M07/M08 Q1029
ZBYN,2003-02-01 20:00,ZBYN 012000Z 08001MPS 2000 R31/1300 BR SKC M07/M08 Q1029
ZBYN,2003-02-01 21:00,ZBYN 012100Z 13002MPS 2000 R31/0600N BR SKC M08/M09 Q1029
ZBYN,2003-02-01 22:00,ZBYN 012200Z 07001MPS 2000 R31/0700N BR SKC M08/M09 Q1029 NOSIG
ZBYN,2003-02-01 23:00,ZBYN 012300Z 00000MPS 2000 R31/0600N BR SKC M08/M09 Q1030 NOSIG
ZBYN,2003-02-02 00:00,ZBYN 020000Z 09001MPS 1400 R31/1200N BR SKC M08/M09 Q1030 NOSIG
ZBYN,2003-02-02 01:00,ZBYN 020100Z 08001MPS 0500 R31/0100D FZFG NSC M06/M07 Q1030 NOSIG
ZBYN,2003-02-02 02:00,ZBYN 020200Z 08001MPS 0500 R31/0350N FZFG SKC M04/M04 Q1030 NOSIG
ZBYN,2003-02-02 03:00,ZBYN 020300Z 12002MPS 1200 R31/0500N BR SKC M00/M02 Q1030 NOSIG
ZBYN,2003-02-02 04:00,ZBYN 020400Z 15001MPS 1400 R31/0700N FU SKC 02/M04 Q1029 NOSIG
ZBYN,2003-02-02 05:00,ZBYN 020500Z 23002MPS 1200 R31/0700 FU SKC 04/M04 Q1028 NOSIG
ZBYN,2003-02-02 06:00,ZBYN 020600Z 23002MPS 1800 R31/0900 FU SKC 05/M06 Q1027 NOSIG
ZBYN,2003-02-02 07:00,ZBYN 020700Z VRB01MPS 2000 R31/0900 FU SKC 06/M06 Q1027 NOSIG
ZBYN,2003-02-02 08:00,ZBYN 020800Z VRB01MPS 3000 R31/1000 FU SKC 07/M08 Q1026 NOSIG
ZBYN,2003-02-02 09:00,ZBYN 020900Z 18001MPS 6000 NSC 06/M09 Q1026 NOSIG
ZBYN,2003-02-02 10:00,ZBYN 021000Z 23001MPS 3000 FU NSC 03/M06 Q1027 NOSIG
ZBYN,2003-02-02 11:00,ZBYN 021100Z 00000MPS 3500 R31/1000U BR SKC M03/M08 Q1027 NOSIG
ZBYN,2003-02-02 12:00,ZBYN 021200Z 11001MPS 3500 BR SKC M02/M07 Q1027 NOSIG
ZBYN,2003-02-02 13:00,ZBYN 021300Z 09002MPS 4500 BR SKC M03/M07 Q1027 NOSIG
ZBYN,2003-02-02 14:00,ZBYN 021400Z 12003MPS 6000 SKC M02/M06 Q1028 NOSIG
ZBYN,2003-02-02 15:00,ZBYN 021500Z 13003MPS 4000 BR NSC M01/M06 Q1028 NOSIG
ZBYN,2003-02-02 16:00,ZBYN 021600Z 13001MPS 3000 BR NSC M02/M06 Q1028 NOSIG
ZBYN,2003-02-02 17:00,ZBYN 021700Z 13002MPS 3000 R31/1000N BR NSC M03/M06 Q1028
ZBYN,2003-02-02 18:00,ZBYN 021800Z 12002MPS 4000 BR NSC M03/M06 Q1027
ZBYN,2003-02-02 19:00,ZBYN 021900Z 11001MPS 4000 BR NSC M03/M07 Q1027
ZBYN,2003-02-02 20:00,ZBYN 022000Z 10001MPS 5000 BR NSC M04/M06 Q1026 NOSIG
ZBYN,2003-02-02 21:00,ZBYN 022100Z 11001MPS 3000 R31/0800 BR NSC M03/M06 Q1026 NOSIG
ZBYN,2003-02-02 22:00,ZBYN 022200Z 06001MPS 2000 R31/0700 BR NSC M02/M04 Q1026 NOSIG
ZBYN,2003-02-02 22:30,ZBYN 022230Z 13001MPS 1600 R31/0700 BR NSC M02/M04 Q1026 NOSIG
ZBYN,2003-02-02 23:30,ZBYN 022330Z VRB01MPS 1300 R31/1400 BR NSC M03/M05 Q1026 NOSIG
ZBYN,2003-02-03 00:00,ZBYN 030000Z 02001MPS 1100 R31/1300 BR NSC M03/M04 Q1026 NOSIG
ZBYN,2003-02-03 01:00,ZBYN 030100Z 00000MPS 0700 R31/0500N FZFG NSC M02/M04 Q1026 NOSIG
ZBYN,2003-02-03 02:00,ZBYN 030200Z VRB01MPS 0700 R31/0500N FG SKC 00/M03 Q1026 NOSIG
ZBYN,2003-02-03 03:00,ZBYN 030300Z 25001MPS 0800 R31/0650N FG SKC 03/M02 Q1026 NOSIG
ZBYN,2003-02-03 04:00,ZBYN 030400Z 30010G15MPS CAVOK 05/M13 Q1025 NOSIG
ZBYN,2003-02-03 05:00,ZBYN 030500Z 26009MPS CAVOK 06/M13 Q1024 NOSIG
ZBYN,2003-02-03 06:00,ZBYN 030600Z 30010MPS CAVOK 06/M13 Q1024 NOSIG
ZBYN,2003-02-03 07:00,ZBYN 030700Z 30008MPS CAVOK 06/M13 Q1023 NOSIG
ZBYN,2003-02-03 08:00,ZBYN 030800Z 30008MPS CAVOK 06/M15 Q1024 NOSIG
ZBYN,2003-02-03 09:00,ZBYN 030900Z 29007MPS CAVOK 04/M13 Q1025 NOSIG
ZBYN,2003-02-03 10:00,ZBYN 031000Z 30005MPS CAVOK 03/M13 Q1025 NOSIG
ZBYN,2003-02-03 11:00,ZBYN 031100Z 30003MPS CAVOK 02/M12 Q1026 NOSIG
ZBYN,2003-02-03 12:00,ZBYN 031200Z 26002MPS CAVOK 00/M11 Q1026 NOSIG
ZBYN,2003-02-03 13:00,ZBYN 031300Z 00000MPS CAVOK M02/M10 Q1026 NOSIG
ZBYN,2003-02-03 14:00,ZBYN 031400Z 30004G09MPS CAVOK 00/M10 Q1026 NOSIG
ZBYN,2003-02-03 15:00,ZBYN 031500Z 31008MPS CAVOK 01/M13 Q1027 NOSIG
ZBYN,2003-02-03 16:00,ZBYN 031600Z 29003MPS CAVOK M00/M12 Q1027 NOSIG
ZBYN,2003-02-03 17:00,ZBYN 031700Z 31007MPS CAVOK M00/M12 Q1028
ZBYN,2003-02-03 18:00,ZBYN 031800Z 31005MPS CAVOK M01/M13 Q1028
ZBYN,2003-02-03 19:00,ZBYN 031900Z 31004MPS CAVOK M02/M13 Q1029
ZBYN,2003-02-03 20:00,ZBYN 032000Z 36002MPS CAVOK M04/M13 Q1029
ZBYN,2003-02-03 21:00,ZBYN 032100Z VRB01MPS CAVOK M05/M13 Q1029
ZBYN,2003-02-03 22:00,ZBYN 032200Z 27001MPS CAVOK M06/M13 Q1030 NOSIG
ZBYN,2003-02-03 23:00,ZBYN 032300Z 36002MPS CAVOK M06/M13 Q1031 NOSIG
ZBYN,2003-02-04 00:00,ZBYN 040000Z 00000MPS CAVOK M07/M13 Q1031 NOSIG
ZBYN,2003-02-04 01:00,ZBYN 040100Z 00000MPS CAVOK M03/M12 Q1032 NOSIG
ZBYN,2003-02-04 02:00,ZBYN 040200Z 31002MPS CAVOK M01/M14 Q1032 NOSIG
ZBYN,2003-02-04 03:00,ZBYN 040300Z 05001MPS CAVOK M00/M15 Q1032 NOSIG
ZBYN,2003-02-04 04:00,ZBYN 040400Z 03001MPS CAVOK 01/M16 Q1032 NOSIG
ZBYN,2003-02-04 05:00,ZBYN 040500Z 16002MPS CAVOK 02/M15 Q1031 NOSIG
ZBYN,2003-02-04 06:00,ZBYN 040600Z 22002MPS CAVOK 03/M15 Q1031 NOSIG
ZBYN,2003-02-04 07:00,ZBYN 040700Z 22002MPS CAVOK 03/M14 Q1030 NOSIG
ZBYN,2003-02-04 08:00,ZBYN 040800Z 22002MPS CAVOK 03/M14 Q1030 NOSIG
ZBYN,2003-02-04 09:00,ZBYN 040900Z 21001MPS CAVOK 03/M15 Q1030 NOSIG
ZBYN,2003-02-04 10:00,ZBYN 041000Z 22001MPS CAVOK 01/M14 Q1030 NOSIG
ZBYN,2003-02-04 11:00,ZBYN 041100Z 35002MPS CAVOK M02/M11 Q1031 NOSIG
ZBYN,2003-02-04 12:00,ZBYN 041200Z 32002MPS CAVOK M03/M13 Q1032 NOSIG
ZBYN,2003-02-04 13:00,ZBYN 041300Z 01001MPS CAVOK M03/M13 Q1032 NOSIG
ZBYN,2003-02-04 14:00,ZBYN 041400Z VRB01MPS CAVOK M04/M12 Q1033 NOSIG
ZBYN,2003-02-04 15:00,ZBYN 041500Z 32003MPS CAVOK M05/M13 Q1033 NOSIG
ZBYN,2003-02-04 16:00,ZBYN 041600Z 36002MPS CAVOK M05/M13 Q1033 NOSIG
ZBYN,2003-02-04 17:00,ZBYN 041700Z 36002MPS CAVOK M05/M13 Q1033
ZBYN,2003-02-04 18:00,ZBYN 041800Z 01002MPS CAVOK M07/M14 Q1033
ZBYN,2003-02-04 19:00,ZBYN 041900Z 01002MPS CAVOK M07/M14 Q1033
ZBYN,2003-02-04 20:00,ZBYN 042000Z 05001MPS CAVOK M08/M14 Q1033
ZBYN,2003-02-04 21:00,ZBYN 042100Z 36002MPS CAVOK M07/M15 Q1032 NOSIG
ZBYN,2003-02-04 22:00,ZBYN 042200Z 32003MPS CAVOK M09/M15 Q1032 NOSIG
ZBYN,2003-02-04 23:00,ZBYN 042300Z 35002MPS CAVOK M08/M15 Q1032 NOSIG
ZBYN,2003-02-05 00:00,ZBYN 050000Z 20001MPS CAVOK M07/M13 Q1033 NOSIG
ZBYN,2003-02-05 01:00,ZBYN 050100Z VRB01MPS CAVOK M05/M13 Q1033 NOSIG
ZBYN,2003-02-05 02:00,ZBYN 050200Z 00000MPS CAVOK M03/M13 Q1033 NOSIG
ZBYN,2003-02-05 03:00,ZBYN 050300Z VRB01MPS CAVOK M01/M14 Q1033 NOSIG
ZBYN,2003-02-05 04:00,ZBYN 050400Z VRB01MPS CAVOK 01/M15 Q1031 NOSIG
ZBYN,2003-02-05 05:00,ZBYN 050500Z 24002MPS CAVOK 02/M15 Q1030 NOSIG
ZBYN,2003-02-05 06:00,ZBYN 050600Z 26002MPS CAVOK 03/M16 Q1029 NOSIG
ZBYN,2003-02-05 07:00,ZBYN 050700Z 27002MPS CAVOK 04/M14 Q1028 NOSIG
ZBYN,2003-02-05 08:00,ZBYN 050800Z 20001MPS CAVOK 05/M16 Q1027 NOSIG
ZBYN,2003-02-05 09:00,ZBYN 050900Z VRB01MPS CAVOK 04/M17 Q1027 NOSIG
ZBYN,2003-02-05 10:00,ZBYN 051000Z 17001MPS CAVOK 02/M16 Q1027 NOSIG
ZBYN,2003-02-05 11:00,ZBYN 051100Z 10002MPS CAVOK M02/M14 Q1027 NOSIG
ZBYN,2003-02-05 12:00,ZBYN 051200Z 10002MPS CAVOK M06/M13 Q1027 NOSIG
ZBYN,2003-02-05 13:00,ZBYN 051300Z 11002MPS CAVOK M04/M12 Q1027 NOSIG
ZBYN,2003-02-05 14:00,ZBYN 051400Z 12002MPS CAVOK M04/M12 Q1027 NOSIG
ZBYN,2003-02-05 15:00,ZBYN 051500Z 09001MPS CAVOK M04/M12 Q1026 NOSIG
ZBYN,2003-02-05 16:00,ZBYN 051600Z 11002MPS CAVOK M05/M12 Q1026 NOSIG
ZBYN,2003-02-05 17:00,ZBYN 051700Z 10002MPS CAVOK M07/M12 Q1025
ZBYN,2003-02-05 18:00,ZBYN 051800Z 09001MPS CAVOK M06/M12 Q1025
ZBYN,2003-02-05 19:00,ZBYN 051900Z 12001MPS CAVOK M07/M12 Q1024
ZBYN,2003-02-05 20:00,ZBYN 052000Z 00000MPS CAVOK M07/M12 Q1023 NOSIG
ZBYN,2003-02-05 21:00,ZBYN 052100Z 00000MPS CAVOK M09/M13 Q1023
ZBYN,2003-02-05 22:00,ZBYN 052200Z 12002MPS CAVOK M09/M13 Q1023 NOSIG
ZBYN,2003-02-05 23:00,ZBYN 052300Z 10001MPS CAVOK M09/M13 Q1023 NOSIG
ZBYN,2003-02-06 00:00,ZBYN 060000Z 09001MPS 6000 SKC M08/M12 Q1023 NOSIG
ZBYN,2003-02-06 01:00,ZBYN 060100Z 05001MPS 4000 FU SKC M05/M10 Q1023 NOSIG
ZBYN,2003-02-06 02:00,ZBYN 060200Z 00000MPS 6000 SKC M01/M11 Q1022 NOSIG
ZBYN,2003-02-06 03:00,ZBYN 060300Z VRB01MPS 7000 SKC 01/M11 Q1022 NOSIG
ZBYN,2003-02-06 04:00,ZBYN 060400Z VRB01MPS 8000 SKC 03/M12 Q1021 NOSIG
ZBYN,2003-02-06 05:00,ZBYN 060500Z 19001MPS 8000 SKC 05/M11 Q1019 NOSIG
ZBYN,2003-02-06 06:00,ZBYN 060600Z 21002MPS CAVOK 07/M12 Q1018 NOSIG
ZBYN,2003-02-06 07:00,ZBYN 060700Z 20002MPS CAVOK 07/M12 Q1017 NOSIG
ZBYN,2003-02-06 08:00,ZBYN 060800Z 20002MPS CAVOK 08/M12 Q1016 NOSIG
ZBYN,2003-02-06 09:00,ZBYN 060900Z 21001MPS CAVOK 07/M12 Q1016 NOSIG
ZBYN,2003-02-06 10:00,ZBYN 061000Z 07001MPS CAVOK 03/M11 Q1016 NOSIG
ZBYN,2003-02-06 11:00,ZBYN 061100Z 09001MPS CAVOK 01/M10 Q1016 NOSIG
ZBYN,2003-02-06 12:00,ZBYN 061200Z 11002MPS CAVOK M02/M10 Q1016 NOSIG
ZBYN,2003-02-06 13:00,ZBYN 061300Z 11002MPS CAVOK M03/M09 Q1016 NOSIG
ZBYN,2003-02-06 14:00,ZBYN 061400Z 11001MPS CAVOK M03/M09 Q1016 NOSIG
ZBYN,2003-02-06 15:00,ZBYN 061500Z 09002MPS CAVOK M04/M08 Q1016 NOSIG
ZBYN,2003-02-06 15:30,ZBYN 061530Z 09001MPS CAVOK M03/M09 Q1016 NOSIG
ZBYN,2003-02-06 17:00,ZBYN 061700Z 07003MPS CAVOK M03/M08 Q1015
ZBYN,2003-02-06 18:00,ZBYN 061800Z 11002MPS CAVOK M07/M10 Q1014
ZBYN,2003-02-06 19:00,ZBYN 061900Z 07002MPS CAVOK M04/M09 Q1014
ZBYN,2003-02-06 20:00,ZBYN 062000Z 00000MPS CAVOK M06/M09 Q1013
ZBYN,2003-02-06 21:00,ZBYN 062100Z 13001MPS CAVOK M05/M09 Q1013
ZBYN,2003-02-06 22:00,ZBYN 062200Z 11001MPS CAVOK M06/M09 Q1012 NOSIG
ZBYN,2003-02-06 23:00,ZBYN 062300Z 14002MPS CAVOK M07/M11 Q1012 NOSIG
ZBYN,2003-02-07 00:00,ZBYN 070000Z 10001MPS 3000 BR SKC M07/M10 Q1013 NOSIG
ZBYN,2003-02-07 01:00,ZBYN 070100Z 00000MPS 2500 BR SKC M04/M07 Q1012 NOSIG
ZBYN,2003-02-07 02:00,ZBYN 070200Z 00000MPS 3000 BR SKC M00/M07 Q1012 NOSIG
ZBYN,2003-02-07 03:00,ZBYN 070300Z 16001MPS 5000 FU NSC 03/M08 Q1012 NOSIG
ZBYN,2003-02-07 04:00,ZBYN 070400Z VRB01MPS 8000 NSC 05/M09 Q1011 NOSIG
ZBYN,2003-02-07 05:00,ZBYN 070500Z 31002MPS 4000 FU NSC 07/M09 Q1009 NOSIG
ZBYN,2003-02-07 06:00,ZBYN 070600Z 32002MPS 4000 FU NSC 08/M10 Q1008 NOSIG
ZBYN,2003-02-07 07:00,ZBYN 070700Z 33002MPS 4000 FU 10/M09 Q1007
ZBYN,2003-02-07 08:00,ZBYN 070800Z 32002MPS 7000 NSC 10/M09 Q1007 NOSIG
ZBYN,2003-02-07 09:00,ZBYN 070900Z 28002MPS 3000 FU NSC 08/M08 Q1007 NOSIG
ZBYN,2003-02-07 10:00,ZBYN 071000Z 28001MPS 3000 FU NSC 06/M07 Q1008 NOSIG
ZBYN,2003-02-07 11:00,ZBYN 071100Z 22001MPS 6000 NSC 04/M08 Q1008 NOSIG
ZBYN,2003-02-07 12:00,ZBYN 071200Z 31001MPS 6000 NSC 01/M07 Q1009 NOSIG
ZBYN,2003-02-07 13:00,ZBYN 071300Z 12001MPS 5000 FU NSC M01/M06 Q1009 NOSIG
ZBYN,2003-02-07 14:00,ZBYN 071400Z 12002MPS 5000 BR NSC M02/M07 Q1010 NOSIG
ZBYN,2003-02-07 15:00,ZBYN 071500Z 00000MPS 7000 NSC M02/M06 Q1010 NOSIG
ZBYN,2003-02-07 16:00,ZBYN 071600Z 08001MPS 8000 NSC M03/M06 Q1010 NOSIG
ZBYN,2003-02-07 17:00,ZBYN 071700Z 08001MPS 6000 NSC M02/M06 Q1011 NOSIG
ZBYN,2003-02-07 18:00,ZBYN 071800Z 02001MPS 7000 NSC M04/M07 Q1010
ZBYN,2003-02-07 19:00,ZBYN 071900Z 00000MPS 5000 BR NSC M04/M07 Q1011
ZBYN,2003-02-07 20:00,ZBYN 072000Z 06001MPS 5000 BR NSC M05/M07 Q1011
ZBYN,2003-02-07 21:00,ZBYN 072100Z 12002MPS 5000 BR NSC M04/M07 Q1011
ZBYN,2003-02-07 22:00,ZBYN 072200Z 13001MPS 6000 SKC M05/M07 Q1011 NOSIG
ZBYN,2003-02-07 23:00,ZBYN 072300Z 01001MPS 5000 BR NSC M06/M08 Q1012 NOSIG
ZBYN,2003-02-08 00:00,ZBYN 080000Z 11001MPS 3000 BR NSC M06/M08 Q1013 NOSIG
ZBYN,2003-02-08 01:00,ZBYN 080100Z 12001MPS 2500 R31/1000N BR NSC M03/M05 Q1012 NOSIG
ZBYN,2003-02-08 02:00,ZBYN 080200Z 00000MPS 1800 R31/1200N BR NSC M00/M04 Q1013 NOSIG
ZBYN,2003-02-08 03:00,ZBYN 080300Z 35001MPS 2500 FU NSC 04/M06 Q1013 NOSIG
ZBYN,2003-02-08 04:00,ZBYN 080400Z 23001MPS 3000 FU NSC 05/M06 Q1013 NOSIG
ZBYN,2003-02-08 05:00,ZBYN 080500Z 17002MPS 3000 FU NSC 06/M05 Q1012 NOSIG
ZBYN,2003-02-08 06:00,ZBYN 080600Z VRB01MPS 5000 FU NSC 08/M05 Q1012 NOSIG
ZBYN,2003-02-08 07:00,ZBYN 080700Z 15002MPS 5000 FU NSC 09/M04 Q1011 NOSIG
ZBYN,2003-02-08 08:00,ZBYN 080800Z VRB01MPS 6000 NSC 10/M04 Q1011 NOSIG
ZBYN,2003-02-08 09:00,ZBYN 080900Z 00000MPS 6000 NSC 08/M04 Q1011 NOSIG
ZBYN,2003-02-08 10:00,ZBYN 081000Z 33001MPS 5000 FU NSC 05/M04 Q1012 NOSIG
ZBYN,2003-02-08 11:00,ZBYN 081100Z 36001MPS 5000 FU NSC 05/M04 Q1012 NOSIG
ZBYN,2003-02-08 12:00,ZBYN 081200Z VRB01MPS 4000 FU NSC 03/M04 Q1013 NOSIG
ZBYN,2003-02-08 13:00,ZBYN 081300Z 30001MPS 4000 FU NSC 04/M03 Q1013 NOSIG
ZBYN,2003-02-08 14:00,ZBYN 081400Z 05001MPS 3000 FU NSC 03/M04 Q1014 NOSIG
ZBYN,2003-02-08 15:00,ZBYN 081500Z VRB01MPS 4000 FU NSC 04/M04 Q1014 NOSIG
ZBYN,2003-02-08 16:00,ZBYN 081600Z 33001MPS 4000 FU NSC 05/M06 Q1014 NOSIG
ZBYN,2003-02-08 17:00,ZBYN 081700Z 33002MPS 4000 FU NSC 05/M06 Q1015
ZBYN,2003-02-08 18:00,ZBYN 081800Z 33001MPS 6000 NSC 05/M06 Q1015
ZBYN,2003-02-08 19:00,ZBYN 081900Z VRB01MPS 6000 NSC 02/M04 Q1015
ZBYN,2003-02-08 20:00,ZBYN 082000Z 00000MPS 6000 NSC 03/M04 Q1015
ZBYN,2003-02-08 21:00,ZBYN 082100Z VRB01MPS 6000 NSC 03/M06 Q1015
ZBYN,2003-02-08 22:00,ZBYN 082200Z 29001MPS 7000 NSC 04/M06 Q1016 NOSIG
ZBYN,2003-02-08 23:00,ZBYN 082300Z VRB01MPS CAVOK 04/M06 Q1017 NOSIG
ZBYN,2003-02-09 00:00,ZBYN 090000Z 06004MPS 5000 FU NSC 04/M05 Q1018 NOSIG
ZBYN,2003-02-09 01:00,ZBYN 090100Z 07005MPS 2000 R31/1200 FU NSC 04/M04 Q1019 NOSIG
ZBYN,2003-02-09 02:00,ZBYN 090200Z 06006MPS 3000 HZ NSC 03/M03 Q1021 NOSIG
ZBYN,2003-02-09 03:00,ZBYN 090300Z 06006MPS 0500 R31/0800 SN SCT030 OVC050 01/M01 Q1021 NOSIG
ZBYN,2003-02-09 04:00,ZBYN 090400Z 04005MPS 0700 R31/0450N SN SCT026 OVC050 M01/M02 Q1022 NOSIG
ZBYN,2003-02-09 05:00,ZBYN 090500Z 04007MPS 0700 R31/0800 SN OVC033 M02/M03 Q1022 NOSIG
ZBYN,2003-02-09 06:00,ZBYN 090600Z 04005MPS 1300 R31/1400 -SN OVC033 M02/M04 Q1022 NOSIG
ZBYN,2003-02-09 07:00,ZBYN 090700Z 05005MPS 1100 R31/1200 -SN OVC033 M02/M04 Q1023 NOSIG
ZBYN,2003-02-09 08:00,ZBYN 090800Z 05004MPS 1700 -SN OVC033 M02/M04 Q1023 NOSIG
ZBYN,2003-02-09 09:00,ZBYN 090900Z 06004MPS 3000 -SN OVC033 M03/M05 Q1023 NOSIG
ZBYN,2003-02-09 10:00,ZBYN 091000Z 06005MPS 1600 -SN OVC033 M04/M06 Q1024 NOSIG
ZBYN,2003-02-09 11:00,ZBYN 091100Z 06004MPS 6000 -SN SCT020 OVC040 M04/M07 Q1025 NOSIG
ZBYN,2003-02-09 12:00,ZBYN 091200Z 05004MPS 6000 -SN SCT023 OVC040 M05/M07 Q1026 NOSIG
ZBYN,2003-02-09 13:00,ZBYN 091300Z 05005MPS 8000 -SN OVC040 M05/M08 Q1026 NOSIG
ZBYN,2003-02-09 14:00,ZBYN 091400Z 04006MPS 9999 -SN OVC040 M05/M09 Q1027 NOSIG
ZBYN,2003-02-09 15:00,ZBYN 091500Z 04005MPS 8000 -SN OVC040 M06/M08 Q1027 NOSIG
ZBYN,2003-02-09 16:00,ZBYN 091600Z 05005MPS 9999 -SN OVC040 M06/M10 Q1027 NOSIG
ZBYN,2003-02-09 17:00,ZBYN 091700Z 05005MPS 9999 -SN OVC040 M05/M10 Q1027
ZBYN,2003-02-09 18:00,ZBYN 091800Z 06005MPS 9999 OVC040 M06/M10 Q1027
ZBYN,2003-02-09 19:00,ZBYN 091900Z 05004MPS 9999 BKN040 M06/M11 Q1026
ZBYN,2003-02-09 20:00,ZBYN 092000Z 00000MPS 9999 BKN033 M06/M10 Q1027
ZBYN,2003-02-09 21:00,ZBYN 092100Z 04001MPS 9999 BKN033 M07/M10 Q1026 NOSIG
ZBYN,2003-02-09 22:00,ZBYN 092200Z 00000MPS 9999 OVC040 M07/M10 Q1027 NOSIG
ZBYN,2003-02-09 23:00,ZBYN 092300Z 13001MPS 9999 OVC040 M08/M11 Q1027 NOSIG
ZBYN,2003-02-10 00:00,ZBYN 100000Z 20001MPS 7000 OVC040 M07/M10 Q1027 NOSIG
ZBYN,2003-02-10 01:00,ZBYN 100100Z 00000MPS CAVOK M07/M10 Q1028 NOSIG
ZBYN,2003-02-10 02:00,ZBYN 100200Z 12001MPS CAVOK M05/M10 Q1027 NOSIG
ZBYN,2003-02-10 03:00,ZBYN 100300Z VRB01MPS CAVOK M04/M09 Q1027 NOSIG
ZBYN,2003-02-10 04:00,ZBYN 100400Z 14001MPS CAVOK M03/M09 Q1027 NOSIG
ZBYN,2003-02-10 05:00,ZBYN 100500Z 22002MPS CAVOK M02/M09 Q1026 NOSIG
ZBYN,2003-02-10 06:00,ZBYN 100600Z 21002MPS CAVOK M02/M08 Q1026 NOSIG
ZBYN,2003-02-10 07:00,ZBYN 100700Z 20002MPS CAVOK M01/M08 Q1025 NOSIG
ZBYN,2003-02-10 08:00,ZBYN 100800Z 25002MPS 8000 SKC M01/M08 Q1025 NOSIG
ZBYN,2003-02-10 09:00,ZBYN 100900Z 25001MPS 7000 SKC M02/M07 Q1025 NOSIG
ZBYN,2003-02-10 10:00,ZBYN 101000Z 28001MPS 5000 HZ SKC M04/M08 Q1026 NOSIG
ZBYN,2003-02-10 11:00,ZBYN 101100Z 31001MPS 3000 BR SKC M05/M08 Q1027 NOSIG
ZBYN,2003-02-10 12:00,ZBYN 101200Z 31001MPS 3000 BR SKC M07/M09 Q1027 NOSIG
ZBYN,2003-02-10 13:00,ZBYN 101300Z 28002MPS 2500 BR SKC M06/M08 Q1028 NOSIG
ZBYN,2003-02-10 14:00,ZBYN 101400Z 34003MPS CAVOK M06/M10 Q1029 NOSIG
ZBYN,2003-02-10 15:00,ZBYN 101500Z 34003MPS CAVOK M06/M13 Q1029 NOSIG
ZBYN,2003-02-10 16:00,ZBYN 101600Z 34003MPS CAVOK M07/M14 Q1029 NOSIG
ZBYN,2003-02-10 17:00,ZBYN 101700Z 01001MPS CAVOK M07/M15 Q1030
ZBYN,2003-02-10 18:00,ZBYN 101800Z 33002MPS CAVOK M09/M15 Q1030
ZBYN,2003-02-10 19:00,ZBYN 101900Z 34002MPS CAVOK M07/M15 Q1029
ZBYN,2003-02-10 20:00,ZBYN 102000Z 00000MPS CAVOK M08/M15 Q1029
ZBYN,2003-02-10 21:00,ZBYN 102100Z 00000MPS CAVOK M09/M15 Q1029
ZBYN,2003-02-10 22:00,ZBYN 102200Z 12001MPS CAVOK M10/M15 Q1029 NOSIG
ZBYN,2003-02-10 23:00,ZBYN 102300Z 11001MPS CAVOK M12/M16 Q1029 NOSIG
ZBYN,2003-02-11 00:00,ZBYN 110000Z 09001MPS CAVOK M12/M16 Q1030 NOSIG
ZBYN,2003-02-11 01:00,ZBYN 110100Z VRB01MPS CAVOK M10/M14 Q1031 NOSIG
ZBYN,2003-02-11 02:00,ZBYN 110200Z 04001MPS CAVOK M06/M13 Q1030 NOSIG
ZBYN,2003-02-11 03:00,ZBYN 110300Z 14001MPS CAVOK M04/M13 Q1030 NOSIG
ZBYN,2003-02-11 04:00,ZBYN 110400Z VRB01MPS CAVOK M03/M16 Q1029 NOSIG
ZBYN,2003-02-11 05:00,ZBYN 110500Z 31001MPS CAVOK M02/M16 Q1028 NOSIG
ZBYN,2003-02-11 06:00,ZBYN 110600Z VRB01MPS CAVOK M01/M15 Q1027 NOSIG
ZBYN,2003-02-11 07:00,ZBYN 110700Z 21002MPS CAVOK M01/M13 Q1026 NOSIG
ZBYN,2003-02-11 08:00,ZBYN 110800Z 22002MPS CAVOK M00/M13 Q1026 NOSIG
ZBYN,2003-02-11 09:00,ZBYN 110900Z 22001MPS CAVOK M01/M12 Q1025 NOSIG
ZBYN,2003-02-11 10:00,ZBYN 111000Z 00000MPS 8000 SKC M02/M10 Q1026 NOSIG
ZBYN,2003-02-11 11:00,ZBYN 111100Z 04001MPS 8000 SKC M05/M10 Q1026 NOSIG
ZBYN,2003-02-11 12:00,ZBYN 111200Z VRB01MPS 6000 SKC M06/M11 Q1026 NOSIG
ZBYN,2003-02-11 13:00,ZBYN 111300Z 10001MPS 7000 SKC M07/M11 Q1027 NOSIG
ZBYN,2003-02-11 14:00,ZBYN 111400Z 05001MPS 7000 SKC M09/M12 Q1027 NOSIG
ZBYN,2003-02-11 15:00,ZBYN 111500Z 03001MPS 7000 SKC M09/M12 Q1027 NOSIG
ZBYN,2003-02-11 16:00,ZBYN 111600Z 28001MPS 8000 SKC M07/M11 Q1027 NOSIG
ZBYN,2003-02-11 17:00,ZBYN 111700Z 11002MPS CAVOK M10/M14 Q1027
ZBYN,2003-02-11 18:00,ZBYN 111800Z VRB01MPS CAVOK M09/M12 Q1027
ZBYN,2003-02-11 19:00,ZBYN 111900Z 10001MPS CAVOK M11/M14 Q1027
ZBYN,2003-02-11 20:00,ZBYN 112000Z 10001MPS CAVOK M11/M14 Q1026
ZBYN,2003-02-11 21:00,ZBYN 112100Z 08002MPS CAVOK M10/M13 Q1026
ZBYN,2003-02-11 22:00,ZBYN 112200Z 32001MPS CAVOK M13/M16 Q1026 NOSIG
ZBYN,2003-02-11 23:00,ZBYN 112300Z 11001MPS 7000 SKC M14/M17 Q1026 NOSIG
ZBYN,2003-02-12 00:00,ZBYN 120000Z 13001MPS 3000 BR SKC M14/M17 Q1027 NOSIG
ZBYN,2003-02-12 01:00,ZBYN 120100Z 00000MPS 2000 R31/1400N BR SKC M09/M11 Q1027 NOSIG
ZBYN,2003-02-12 02:00,ZBYN 120200Z 10001MPS 2000 FU SKC M05/M10 Q1027 NOSIG
ZBYN,2003-02-12 03:00,ZBYN 120300Z 23002MPS 2000 R31/1300N FU SKC M02/M09 Q1026 NOSIG
ZBYN,2003-02-12 04:00,ZBYN 120400Z 21002MPS 3000 FU SKC M00/M10 Q1026 NOSIG
ZBYN,2003-02-12 05:00,ZBYN 120500Z 24003MPS 7000 SKC 01/M11 Q1025 NOSIG
ZBYN,2003-02-12 06:00,ZBYN 120600Z 23003MPS CAVOK 02/M13 Q1023 NOSIG
ZBYN,2003-02-12 07:00,ZBYN 120700Z 23003MPS CAVOK 02/M14 Q1022 NOSIG
ZBYN,2003-02-12 08:00,ZBYN 120800Z 23003MPS CAVOK 03/M14 Q1022 NOSIG
ZBYN,2003-02-12 09:00,ZBYN 120900Z 23002MPS CAVOK 03/M13 Q1021 NOSIG
ZBYN,2003-02-12 10:00,ZBYN 121000Z 00000MPS CAVOK 01/M11 Q1021 NOSIG
ZBYN,2003-02-12 11:00,ZBYN 121100Z 06001MPS CAVOK M02/M10 Q1021 NOSIG
ZBYN,2003-02-12 12:00,ZBYN 121200Z 11001MPS CAVOK M05/M10 Q1021 NOSIG
ZBYN,2003-02-12 13:00,ZBYN 121300Z 12002MPS CAVOK M06/M10 Q1022 NOSIG
ZBYN,2003-02-12 14:00,ZBYN 121400Z 13002MPS CAVOK M06/M11 Q1022 NOSIG
ZBYN,2003-02-12 15:00,ZBYN 121500Z 08001MPS CAVOK M07/M12 Q1022 NOSIG
ZBYN,2003-02-12 16:00,ZBYN 121600Z VRB01MPS CAVOK M08/M12 Q1022 NOSIG
ZBYN,2003-02-12 17:00,ZBYN 121700Z 09001MPS CAVOK M08/M12 Q1023
ZBYN,2003-02-12 18:00,ZBYN 121800Z 08002MPS CAVOK M09/M12 Q1022
ZBYN,2003-02-12 19:00,ZBYN 121900Z 09002MPS CAVOK M08/M12 Q1022
ZBYN,2003-02-12 20:00,ZBYN 122000Z 12001MPS CAVOK M09/M13 Q1022
ZBYN,2003-02-12 21:00,ZBYN 122100Z 09001MPS CAVOK M11/M14 Q1022
ZBYN,2003-02-12 22:00,ZBYN 122200Z VRB01MPS CAVOK M10/M13 Q1022
ZBYN,2003-02-12 23:00,ZBYN 122300Z 10001MPS CAVOK M10/M14 Q1022 NOSIG
ZBYN,2003-02-13 00:00,ZBYN 130000Z 13002MPS CAVOK M10/M14 Q1023 NOSIG
ZBYN,2003-02-13 01:00,ZBYN 130100Z 00000MPS CAVOK M06/M12 Q1024 NOSIG
ZBYN,2003-02-13 02:00,ZBYN 130200Z 00000MPS CAVOK M03/M12 Q1024 NOSIG
ZBYN,2003-02-13 03:00,ZBYN 130300Z VRB01MPS 8000 SKC 00/M11 Q1024 NOSIG
ZBYN,2003-02-13 04:00,ZBYN 130400Z 28001MPS CAVOK 02/M12 Q1023 NOSIG
ZBYN,2003-02-13 05:00,ZBYN 130500Z VRB01MPS CAVOK 04/M12 Q1022 NOSIG
ZBYN,2003-02-13 06:00,ZBYN 130600Z VRB01MPS CAVOK 06/M13 Q1020 NOSIG
ZBYN,2003-02-13 07:00,ZBYN 130700Z 24001MPS CAVOK 07/M13 Q1020 NOSIG
ZBYN,2003-02-13 08:00,ZBYN 130800Z VRB01MPS CAVOK 07/M11 Q1020 NOSIG
ZBYN,2003-02-13 09:00,ZBYN 130900Z 30002MPS CAVOK 06/M10 Q1020 NOSIG
ZBYN,2003-02-13 10:00,ZBYN 131000Z 28002MPS CAVOK 03/M08 Q1020 NOSIG
ZBYN,2003-02-13 11:00,ZBYN 131100Z 27002MPS CAVOK 02/M09 Q1021 NOSIG
ZBYN,2003-02-13 12:00,ZBYN 131200Z 00000MPS CAVOK 00/M07 Q1021 NOSIG
ZBYN,2003-02-13 13:00,ZBYN 131300Z 02001MPS CAVOK M01/M07 Q1022 NOSIG
ZBYN,2003-02-13 14:00,ZBYN 131400Z 11001MPS CAVOK M03/M07 Q1022 NOSIG
ZBYN,2003-02-13 15:00,ZBYN 131500Z 00000MPS CAVOK M01/M08 Q1022 NOSIG
ZBYN,2003-02-13 16:00,ZBYN 131600Z 00000MPS CAVOK M03/M07 Q1023 NOSIG
ZBYN,2003-02-13 17:00,ZBYN 131700Z 34002MPS CAVOK M03/M07 Q1022
ZBYN,2003-02-13 18:00,ZBYN 131800Z 02001MPS CAVOK M05/M09 Q1022
ZBYN,2003-02-13 19:00,ZBYN 131900Z 21001MPS CAVOK M04/M08 Q1022 NOSIG
ZBYN,2003-02-13 20:00,ZBYN 132000Z 00000MPS CAVOK M06/M09 Q1021
ZBYN,2003-02-13 21:00,ZBYN 132100Z 05001MPS CAVOK M06/M08 Q1021
ZBYN,2003-02-13 22:00,ZBYN 132200Z 06001MPS CAVOK M06/M09 Q1021 NOSIG
ZBYN,2003-02-13 23:00,ZBYN 132300Z 04001MPS CAVOK M07/M09 Q1021 NOSIG
ZBYN,2003-02-14 00:00,ZBYN 140000Z 00000MPS 7000 SKC M06/M09 Q1022 NOSIG
ZBYN,2003-02-14 01:00,ZBYN 140100Z 07001MPS 6000 NSC M03/M06 Q1022 NOSIG
ZBYN,2003-02-14 02:00,ZBYN 140200Z VRB01MPS 5000 FU NSC 01/M08 Q1022 NOSIG
ZBYN,2003-02-14 03:00,ZBYN 140300Z 00000MPS 5000 FU NSC 03/M08 Q1022 NOSIG
ZBYN,2003-02-14 04:00,ZBYN 140400Z VRB01MPS 6000 NSC 04/M08 Q1022 NOSIG
ZBYN,2003-02-14 05:00,ZBYN 140500Z 16001MPS 3000 FU NSC 04/M07 Q1021 NOSIG
ZBYN,2003-02-14 06:00,ZBYN 140600Z 10002MPS 5000 FU NSC 06/M06 Q1019 NOSIG
ZBYN,2003-02-14 07:00,ZBYN 140700Z 22001MPS 8000 NSC 06/M05 Q1019 NOSIG
ZBYN,2003-02-14 08:00,ZBYN 140800Z 25002MPS 8000 NSC 06/M05 Q1019 NOSIG
ZBYN,2003-02-14 09:00,ZBYN 140900Z 21001MPS 6000 NSC 04/M04 Q1019 NOSIG
ZBYN,2003-02-14 10:00,ZBYN 141000Z 16001MPS 3000 FU NSC 03/M04 Q1019 NOSIG
ZBYN,2003-02-14 11:00,ZBYN 141100Z 00000MPS 5000 FU NSC 03/M04 Q1019 NOSIG
ZBYN,2003-02-14 12:00,ZBYN 141200Z 13001MPS 6000 NSC 01/M04 Q1020 NOSIG
ZBYN,2003-02-14 13:00,ZBYN 141300Z 00000MPS 4000 FU NSC 02/M04 Q1020 NOSIG
ZBYN,2003-02-14 14:00,ZBYN 141400Z 13001MPS 3000 FU NSC 00/M04 Q1020 NOSIG
ZBYN,2003-02-14 15:00,ZBYN 141500Z 06001MPS 2000 R31/1200 FU NSC M01/M04 Q1020 NOSIG
ZBYN,2003-02-14 16:00,ZBYN 141600Z 13002MPS 2000 R31/1100 FU NSC M02/M05 Q1020 NOSIG
ZBYN,2003-02-14 17:00,ZBYN 141700Z 10002MPS 3000 FU NSC M03/M05 Q1020
ZBYN,2003-02-14 18:00,ZBYN 141800Z 12002MPS 3000 FU NSC M03/M05 Q1020
ZBYN,2003-02-14 19:00,ZBYN 141900Z 04001MPS 2000 FU NSC M02/M04 Q1020
ZBYN,2003-02-14 20:00,ZBYN 142000Z 13002MPS 3000 R31/1400N BR NSC M01/M03 Q1019
ZBYN,2003-02-14 21:00,ZBYN 142100Z 13002MPS 3000 BR NSC M01/M03 Q1019
ZBYN,2003-02-14 22:00,ZBYN 142200Z 05001MPS 3000 BR NSC M01/M03 Q1019 NOSIG
ZBYN,2003-02-14 22:30,ZBYN 142230Z 14001MPS 3000 BR NSC M00/M03 Q1019 NOSIG
ZBYN,2003-02-14 23:00,ZBYN 142300Z 00000MPS 2500 R31/1300N BR NSC M01/M04 Q1019 NOSIG
ZBYN,2003-02-15 00:00,ZBYN 150000Z 36001MPS 1200 R31/1300N BR SKC M04/M05 Q1020 NOSIG
ZBYN,2003-02-15 01:00,ZBYN 150100Z 13001MPS 1000 R31/0700N BR SKC M01/M02 Q1021 NOSIG
ZBYN,2003-02-15 02:00,ZBYN 150200Z 08001MPS 1200 R31/0900N BR SKC 02/M02 Q1020 NOSIG
ZBYN,2003-02-15 03:00,ZBYN 150300Z 33003MPS 2000 BR SKC 06/M02 Q1020 NOSIG
ZBYN,2003-02-15 04:00,ZBYN 150400Z 32003MPS 7000 NSC 08/M04 Q1019 NOSIG
ZBYN,2003-02-15 05:00,ZBYN 150500Z 31004MPS CAVOK 09/M05 Q1018 NOSIG
ZBYN,2003-02-15 06:00,ZBYN 150600Z 31003MPS CAVOK 10/M06 Q1017 NOSIG
ZBYN,2003-02-15 07:00,ZBYN 150700Z 31003MPS CAVOK 11/M08 Q1017 NOSIG
ZBYN,2003-02-15 08:00,ZBYN 150800Z 34003MPS CAVOK 11/M09 Q1017 NOSIG
ZBYN,2003-02-15 09:00,ZBYN 150900Z 29003MPS CAVOK 09/M03 Q1017 NOSIG
ZBYN,2003-02-15 10:00,ZBYN 151000Z 34002MPS CAVOK 06/M06 Q1017 NOSIG
ZBYN,2003-02-15 11:00,ZBYN 151100Z VRB01MPS CAVOK 04/M09 Q1018 NOSIG
ZBYN,2003-02-15 12:00,ZBYN 151200Z VRB01MPS CAVOK 02/M09 Q1019 NOSIG
ZBYN,2003-02-15 13:00,ZBYN 151300Z VRB01MPS CAVOK 00/M07 Q1019 NOSIG
ZBYN,2003-02-15 14:00,ZBYN 151400Z 00000MPS CAVOK M01/M08 Q1020 NOSIG
ZBYN,2003-02-15 15:00,ZBYN 151500Z 03001MPS CAVOK M01/M08 Q1020 NOSIG
ZBYN,2003-02-15 16:00,ZBYN 151600Z 00000MPS CAVOK M03/M08 Q1021 NOSIG
ZBYN,2003-02-15 18:00,ZBYN 151800Z 00000MPS CAVOK M04/M07 Q1021
ZBYN,2003-02-15 19:00,ZBYN 151900Z 14001MPS CAVOK M05/M07 Q1021
ZBYN,2003-02-15 20:00,ZBYN 152000Z 08001MPS CAVOK M05/M09 Q1021
ZBYN,2003-02-15 21:00,ZBYN 152100Z 16001MPS CAVOK M05/M07 Q1021
ZBYN,2003-02-15 22:00,ZBYN 152200Z 00000MPS CAVOK M05/M08 Q1021 NOSIG
ZBYN,2003-02-15 23:00,ZBYN 152300Z 12001MPS CAVOK M07/M09 Q1021 NOSIG
ZBYN,2003-02-16 00:00,ZBYN 160000Z 20002MPS CAVOK M04/M07 Q1022 NOSIG
ZBYN,2003-02-16 01:00,ZBYN 160100Z 00000MPS 6000 NSC M01/M05 Q1023 NOSIG
ZBYN,2003-02-16 02:00,ZBYN 160200Z 06001MPS 4000 FU NSC 01/M06 Q1023 NOSIG
ZBYN,2003-02-16 03:00,ZBYN 160300Z VRB01MPS 6000 NSC 04/M07 Q1022 NOSIG
ZBYN,2003-02-16 04:00,ZBYN 160400Z VRB01MPS CAVOK 07/M09 Q1021 NOSIG
ZBYN,2003-02-16 05:00,ZBYN 160500Z VRB01MPS CAVOK 07/M08 Q1020 NOSIG
ZBYN,2003-02-16 06:00,ZBYN 160600Z VRB01MPS CAVOK 08/M07 Q1019 NOSIG
ZBYN,2003-02-16 07:00,ZBYN 160700Z VRB01MPS CAVOK 08/M08 Q1019 NOSIG
ZBYN,2003-02-16 08:00,ZBYN 160800Z 26001MPS CAVOK 08/M07 Q1018 NOSIG
ZBYN,2003-02-16 09:00,ZBYN 160900Z 22001MPS CAVOK 07/M07 Q1018 NOSIG
ZBYN,2003-02-16 10:00,ZBYN 161000Z 18001MPS CAVOK 06/M05 Q1018 NOSIG
ZBYN,2003-02-16 11:00,ZBYN 161100Z 15001MPS CAVOK 01/M05 Q1018 NOSIG
ZBYN,2003-02-16 12:00,ZBYN 161200Z 12001MPS CAVOK 01/M04 Q1019 NOSIG
ZBYN,2003-02-16 13:00,ZBYN 161300Z 14001MPS CAVOK 03/M04 Q1019 NOSIG
ZBYN,2003-02-16 14:00,ZBYN 161400Z 15001MPS 7000 NSC 02/M04 Q1019 NOSIG
ZBYN,2003-02-16 15:00,ZBYN 161500Z 13002MPS 7000 NSC 02/M04 Q1018 NOSIG
ZBYN,2003-02-16 16:00,ZBYN 161600Z 14002MPS 7000 NSC 02/M04 Q1018 NOSIG
ZBYN,2003-02-16 17:00,ZBYN 161700Z 19002MPS 7000 NSC 03/M02 Q1017
ZBYN,2003-02-16 18:00,ZBYN 161800Z 13002MPS 7000 NSC 01/M03 Q1017
ZBYN,2003-02-16 19:00,ZBYN 161900Z 16001MPS 7000 NSC 02/M01 Q1016
ZBYN,2003-02-16 20:00,ZBYN 162000Z 00000MPS 7000 NSC 02/M01 Q1016
ZBYN,2003-02-16 21:00,ZBYN 162100Z 00000MPS 6000 NSC 01/M01 Q1016
ZBYN,2003-02-16 22:00,ZBYN 162200Z 06001MPS 7000 NSC M00/M02 Q1016 NOSIG
ZBYN,2003-02-16 23:00,ZBYN 162300Z 22002MPS 6000 NSC 01/M01 Q1016 NOSIG
ZBYN,2003-02-17 00:00,ZBYN 170000Z 27002MPS 2000 BR NSC 01/M02 Q1017 NOSIG
ZBYN,2003-02-17 01:00,ZBYN 170100Z 25003MPS 3000 HZ SKC 03/M01 Q1017 NOSIG
ZBYN,2003-02-17 02:00,ZBYN 170200Z 27003MPS CAVOK 06/M04 Q1017 NOSIG
ZBYN,2003-02-17 03:00,ZBYN 170300Z 20003MPS CAVOK 07/M02 Q1017 NOSIG
ZBYN,2003-02-17 04:00,ZBYN 170400Z 24003MPS CAVOK 08/M04 Q1017 NOSIG
ZBYN,2003-02-17 05:00,ZBYN 170500Z 24002MPS CAVOK 09/M04 Q1016 NOSIG
ZBYN,2003-02-17 06:00,ZBYN 170600Z 22003MPS CAVOK 09/M06 Q1015 NOSIG
ZBYN,2003-02-17 07:00,ZBYN 170700Z 25002MPS CAVOK 10/M05 Q1015 NOSIG
ZBYN,2003-02-17 08:00,ZBYN 170800Z 22002MPS CAVOK 09/M06 Q1015 NOSIG
ZBYN,2003-02-17 09:00,ZBYN 170900Z 23002MPS CAVOK 09/M06 Q1015 NOSIG
ZBYN,2003-02-17 10:00,ZBYN 171000Z 29002MPS CAVOK 06/M05 Q1016 NOSIG
ZBYN,2003-02-17 11:00,ZBYN 171100Z 26002MPS CAVOK 05/M06 Q1016 NOSIG
ZBYN,2003-02-17 12:00,ZBYN 171200Z 33003MPS CAVOK 03/M05 Q1017 NOSIG
ZBYN,2003-02-17 13:00,ZBYN 171300Z 34001MPS CAVOK 02/M04 Q1018 NOSIG
ZBYN,2003-02-17 14:00,ZBYN 171400Z 00000MPS CAVOK 02/M04 Q1018 NOSIG
ZBYN,2003-02-17 15:00,ZBYN 171500Z VRB01MPS CAVOK 01/M06 Q1018 NOSIG
ZBYN,2003-02-17 17:00,ZBYN 171700Z 05001MPS CAVOK M02/M05 Q1018
ZBYN,2003-02-17 18:00,ZBYN 171800Z 09001MPS CAVOK M02/M05 Q1018
ZBYN,2003-02-17 19:00,ZBYN 171900Z VRB01MPS CAVOK M03/M05 Q1018
ZBYN,2003-02-17 20:00,ZBYN 172000Z 11001MPS CAVOK M04/M06 Q1018
ZBYN,2003-02-17 21:00,ZBYN 172100Z 14002MPS CAVOK M04/M06 Q1018
ZBYN,2003-02-17 22:00,ZBYN 172200Z 07001MPS CAVOK M03/M06 Q1019 NOSIG
ZBYN,2003-02-17 23:00,ZBYN 172300Z 00000MPS CAVOK M05/M07 Q1019 NOSIG
ZBYN,2003-02-18 00:00,ZBYN 180000Z 12002MPS 7000 SKC M05/M07 Q1020 NOSIG
ZBYN,2003-02-18 01:00,ZBYN 180100Z 00000MPS 6000 SKC M01/M04 Q1021 NOSIG
ZBYN,2003-02-18 02:00,ZBYN 180200Z 25001MPS 4000 FU SKC 03/M04 Q1021 NOSIG
ZBYN,2003-02-18 03:00,ZBYN 180300Z 26001MPS 4000 FU SKC 05/M04 Q1021 NOSIG
ZBYN,2003-02-18 04:00,ZBYN 180400Z VRB01MPS 4000 FU SKC 07/M05 Q1020 NOSIG
ZBYN,2003-02-18 05:00,ZBYN 180500Z 20001MPS 8000 SKC 08/M06 Q1019 NOSIG
ZBYN,2003-02-18 06:00,ZBYN 180600Z 22001MPS 7000 SKC 09/M04 Q1018 NOSIG
ZBYN,2003-02-18 07:00,ZBYN 180700Z 25002MPS 7000 SKC 10/M04 Q1018 NOSIG
ZBYN,2003-02-18 08:00,ZBYN 180800Z 26002MPS 7000 SKC 10/M05 Q1018 NOSIG
ZBYN,2003-02-18 09:00,ZBYN 180900Z 26002MPS 7000 SKC 09/M03 Q1018 NOSIG
ZBYN,2003-02-18 10:00,ZBYN 181000Z 26002MPS 7000 SKC 07/M02 Q1019 NOSIG
ZBYN,2003-02-18 11:00,ZBYN 181100Z VRB01MPS CAVOK 04/M05 Q1020 NOSIG
ZBYN,2003-02-18 12:00,ZBYN 181200Z 34002MPS CAVOK 03/M07 Q1021 NOSIG
ZBYN,2003-02-18 13:00,ZBYN 181300Z 02002MPS CAVOK 04/M07 Q1022 NOSIG
ZBYN,2003-02-18 14:00,ZBYN 181400Z 01001MPS CAVOK 02/M07 Q1023 NOSIG
ZBYN,2003-02-18 15:00,ZBYN 181500Z 02002MPS CAVOK 01/M06 Q1023 NOSIG
ZBYN,2003-02-18 16:00,ZBYN 181600Z 30001MPS CAVOK 01/M06 Q1023 NOSIG
ZBYN,2003-02-18 17:00,ZBYN 181700Z 00000MPS CAVOK 01/M07 Q1024
ZBYN,2003-02-18 18:00,ZBYN 181800Z 10001MPS CAVOK M03/M07 Q1024
ZBYN,2003-02-18 19:00,ZBYN 181900Z 07001MPS CAVOK M04/M07 Q1023
ZBYN,2003-02-18 20:00,ZBYN 182000Z 13001MPS CAVOK M04/M07 Q1024
ZBYN,2003-02-18 21:00,ZBYN 182100Z 05002MPS CAVOK M05/M07 Q1024 NOSIG
ZBYN,2003-02-18 22:00,ZBYN 182200Z 11001MPS CAVOK M05/M08 Q1024 NOSIG
ZBYN,2003-02-18 23:00,ZBYN 182300Z 06002MPS CAVOK M05/M09 Q1024 NOSIG
ZBYN,2003-02-19 00:00,ZBYN 190000Z VRB01MPS CAVOK M05/M08 Q1025 NOSIG
ZBYN,2003-02-19 01:00,ZBYN 190100Z 00000MPS CAVOK 01/M06 Q1025 NOSIG
ZBYN,2003-02-19 02:00,ZBYN 190200Z 09001MPS CAVOK 03/M06 Q1024 NOSIG
ZBYN,2003-02-19 03:00,ZBYN 190300Z VRB01MPS CAVOK 06/M08 Q1024 NOSIG
ZBYN,2003-02-19 04:00,ZBYN 190400Z 20001MPS CAVOK 08/M09 Q1024 NOSIG
ZBYN,2003-02-19 05:00,ZBYN 190500Z 05001MPS CAVOK 10/M12 Q1022 NOSIG
ZBYN,2003-02-19 06:00,ZBYN 190600Z VRB01MPS CAVOK 11/M16 Q1021 NOSIG
ZBYN,2003-02-19 07:00,ZBYN 190700Z VRB01MPS CAVOK 11/M13 Q1021 NOSIG
ZBYN,2003-02-19 08:00,ZBYN 190800Z VRB01MPS CAVOK 12/M12 Q1020 NOSIG
ZBYN,2003-02-19 09:00,ZBYN 190900Z VRB01MPS CAVOK 12/M13 Q1019 NOSIG
ZBYN,2003-02-19 10:00,ZBYN 191000Z 00000MPS CAVOK 09/M12 Q1019 NOSIG
ZBYN,2003-02-19 11:00,ZBYN 191100Z 09004MPS CAVOK 07/M06 Q1019 NOSIG
ZBYN,2003-02-19 12:00,ZBYN 191200Z 08006MPS CAVOK 06/M07 Q1019 NOSIG
ZBYN,2003-02-19 13:00,ZBYN 191300Z 09005MPS CAVOK 05/M07 Q1019 NOSIG
ZBYN,2003-02-19 14:00,ZBYN 191400Z 08005MPS CAVOK 05/M07 Q1019 NOSIG
ZBYN,2003-02-19 15:00,ZBYN 191500Z 08004MPS CAVOK 04/M07 Q1018 NOSIG
ZBYN,2003-02-19 16:00,ZBYN 191600Z 10004MPS CAVOK 03/M07 Q1018 NOSIG
ZBYN,2003-02-19 17:00,ZBYN 191700Z 09005MPS CAVOK 03/M06 Q1017
ZBYN,2003-02-19 18:00,ZBYN 191800Z 10004MPS CAVOK 03/M05 Q1017
ZBYN,2003-02-19 19:00,ZBYN 191900Z 12003MPS CAVOK 02/M04 Q1016
ZBYN,2003-02-19 20:00,ZBYN 192000Z 12004MPS CAVOK 03/M04 Q1015
ZBYN,2003-02-19 21:00,ZBYN 192100Z 12004MPS CAVOK 03/M04 Q1015
ZBYN,2003-02-19 22:00,ZBYN 192200Z 12003MPS CAVOK 02/M04 Q1015 NOSIG
ZBYN,2003-02-19 23:00,ZBYN 192300Z 11005MPS CAVOK 04/M04 Q1015 NOSIG
ZBYN,2003-02-20 00:00,ZBYN 200000Z 08006MPS CAVOK 02/M06 Q1015 NOSIG
ZBYN,2003-02-20 01:00,ZBYN 200100Z 09005MPS CAVOK 03/M07 Q1014 NOSIG
ZBYN,2003-02-20 02:00,ZBYN 200200Z 08005MPS CAVOK 03/M07 Q1014 NOSIG
ZBYN,2003-02-20 03:00,ZBYN 200300Z 09005MPS CAVOK 03/M07 Q1013 NOSIG
ZBYN,2003-02-20 04:00,ZBYN 200400Z 08005MPS CAVOK 05/M06 Q1013 NOSIG
ZBYN,2003-02-20 05:00,ZBYN 200500Z 08004MPS CAVOK 06/M05 Q1012 NOSIG
ZBYN,2003-02-20 06:00,ZBYN 200600Z 07005MPS CAVOK 07/M05 Q1011 NOSIG
ZBYN,2003-02-20 07:00,ZBYN 200700Z 07004MPS CAVOK 06/M05 Q1010 NOSIG
ZBYN,2003-02-20 08:00,ZBYN 200800Z 06004MPS 8000 NSC 06/M05 Q1010 NOSIG
ZBYN,2003-02-20 09:00,ZBYN 200900Z 06005MPS 7000 NSC 05/M05 Q1010 NOSIG
ZBYN,2003-02-20 10:00,ZBYN 201000Z 07004MPS 6000 NSC 04/M05 Q1011 NOSIG
ZBYN,2003-02-20 11:00,ZBYN 201100Z 06005MPS 8000 NSC 03/M05 Q1012 NOSIG
ZBYN,2003-02-20 12:00,ZBYN 201200Z 06005MPS 8000 NSC 03/M05 Q1012 NOSIG
ZBYN,2003-02-20 13:00,ZBYN 201300Z 05004MPS 8000 NSC 03/M05 Q1013 NOSIG
ZBYN,2003-02-20 14:00,ZBYN 201400Z 06004MPS 8000 NSC 03/M05 Q1013 NOSIG
ZBYN,2003-02-20 15:00,ZBYN 201500Z 07004MPS 8000 NSC 03/M05 Q1013 NOSIG
ZBYN,2003-02-20 16:00,ZBYN 201600Z 07004MPS 8000 NSC 03/M04 Q1013 NOSIG
ZBYN,2003-02-20 17:00,ZBYN 201700Z 09003MPS 6000 -RASN NSC 02/M03 Q1013
ZBYN,2003-02-20 18:00,ZBYN 201800Z 08003MPS 6000 -RASN NSC 01/M01 Q1013
ZBYN,2003-02-20 19:00,ZBYN 201900Z 10001MPS 6000 -RASN NSC 01/M01 Q1013
ZBYN,2003-02-20 20:00,ZBYN 202000Z 14001MPS 3000 BR NSC 01/M01 Q1013
ZBYN,2003-02-20 20:30,ZBYN 202030Z 25001MPS 3000 BR NSC 01/M01 Q1012
ZBYN,2003-02-20 21:00,ZBYN 202100Z 00000MPS 3000 BR NSC 01/M01 Q1012
ZBYN,2003-02-20 22:00,ZBYN 202200Z 16002MPS 3000 -SN BR NSC 01/M01 Q1013 NOSIG
ZBYN,2003-02-20 22:30,ZBYN 202230Z 15002MPS 3000 -SN BR NSC 01/M01 Q1012 NOSIG
ZBYN,2003-02-20 23:00,ZBYN 202300Z 15001MPS 3000 -SN BR NSC 01/M01 Q1012 NOSIG
ZBYN,2003-02-21 00:00,ZBYN 210000Z 16001MPS 2500 -SN BR NSC 01/M01 Q1013 NOSIG
ZBYN,2003-02-21 01:00,ZBYN 210100Z 26001MPS 1100 R31/0900 -SN BR NSC 01/M01 Q1013 NOSIG
ZBYN,2003-02-21 02:00,ZBYN 210200Z 31001MPS 0800 R31/0650 SN NSC 01/M00 Q1013 NOSIG
ZBYN,2003-02-21 03:00,ZBYN 210300Z 34002MPS 0900 R31/0700 FG -SN NSC 01/00 Q1013 NOSIG
ZBYN,2003-02-21 04:00,ZBYN 210400Z 34001MPS 1200 R31/1000 BR NSC 02/01 Q1012 NOSIG
ZBYN,2003-02-21 05:00,ZBYN 210500Z 30001MPS 1600 -SN BR NSC 03/00 Q1012 NOSIG
ZBYN,2003-02-21 06:00,ZBYN 210600Z 00000MPS 2100 BR NSC 04/01 Q1011 NOSIG
ZBYN,2003-02-21 07:00,ZBYN 210700Z 23001MPS 3000 BR NSC 04/00 Q1011 NOSIG
ZBYN,2003-02-21 08:00,ZBYN 210800Z 15001MPS 2000 R31/1200N BR NSC 03/01 Q1011 NOSIG
ZBYN,2003-02-21 09:00,ZBYN 210900Z 18001MPS 1300 R31/1300 -RA BR NSC 03/01 Q1012 NOSIG
ZBYN,2003-02-21 10:00,ZBYN 211000Z 20001MPS 0800 R31/1300 -RA FG NSC 03/01 Q1012 NOSIG
ZBYN,2003-02-21 11:00,ZBYN 211100Z 00000MPS 1300 R31/1200 -RA BR NSC 03/01 Q1013 NOSIG
ZBYN,2003-02-21 12:00,ZBYN 211200Z 14001MPS 1300 R31/0800 -RA BR NSC 02/01 Q1013 NOSIG
ZBYN,2003-02-21 13:00,ZBYN 211300Z 22001MPS 1600 R31/1300 -RA BR NSC 02/01 Q1014 NOSIG
ZBYN,2003-02-21 14:00,ZBYN 211400Z 14001MPS 1500 R31/1400 BR NSC 02/01 Q1014 NOSIG
ZBYN,2003-02-21 15:00,ZBYN 211500Z 11002MPS 2500 BR NSC 02/M00 Q1015 NOSIG
ZBYN,2003-02-21 16:00,ZBYN 211600Z 12002MPS 3000 BR NSC 02/M00 Q1015 NOSIG
ZBYN,2003-02-21 17:00,ZBYN 211700Z 12001MPS 3000 BR NSC 01/M00 Q1015
ZBYN,2003-02-21 18:00,ZBYN 211800Z 12002MPS 3000 BR NSC 01/M00 Q1015 NOSIG
ZBYN,2003-02-21 19:00,ZBYN 211900Z 13002MPS 3000 BR NSC 01/M01 Q1015
ZBYN,2003-02-21 20:00,ZBYN 212000Z 12001MPS 3000 BR NSC 01/M01 Q1015 NOSIG
ZBYN,2003-02-21 21:00,ZBYN 212100Z 10002MPS 3000 BR NSC 02/M01 Q1014
ZBYN,2003-02-21 22:00,ZBYN 212200Z 09003MPS 3000 BR NSC 02/M01 Q1014 NOSIG
ZBYN,2003-02-21 23:00,ZBYN 212300Z 08002MPS 2000 R31/1200 BR NSC 02/M01 Q1015 NOSIG
ZBYN,2003-02-22 00:00,ZBYN 220000Z 09004MPS 1400 R31/P1500 BR NSC 02/M01 Q1016 NOSIG
ZBYN,2003-02-22 01:00,ZBYN 220100Z 07003MPS 1400 R31/P1500 BR NSC 02/M01 Q1016 NOSIG
ZBYN,2003-02-22 02:00,ZBYN 220200Z 08003MPS 1400 R31/P1500 BR NSC 02/M01 Q1017 NOSIG
ZBYN,2003-02-22 03:00,ZBYN 220300Z 09004MPS 1400 R31/P1500 BR NSC 02/M01 Q1017 NOSIG
ZBYN,2003-02-22 04:00,ZBYN 220400Z 08005MPS 1800 FU NSC 03/M01 Q1017 NOSIG
ZBYN,2003-02-22 05:00,ZBYN 220500Z 08006MPS 2500 FU NSC 03/M01 Q1016 NOSIG
ZBYN,2003-02-22 06:00,ZBYN 220600Z 09004MPS 2500 FU NSC 05/M00 Q1016 NOSIG
ZBYN,2003-02-22 07:00,ZBYN 220700Z 08004MPS 2500 FU NSC 06/M00 Q1015 NOSIG
ZBYN,2003-02-22 08:00,ZBYN 220800Z 08004MPS 3000 FU NSC 06/M00 Q1015 NOSIG
ZBYN,2003-02-22 09:00,ZBYN 220900Z 08004MPS 4000 FU NSC 05/M00 Q1015 NOSIG
ZBYN,2003-02-22 10:00,ZBYN 221000Z 09003MPS 4000 FU NSC 04/M00 Q1015 NOSIG
ZBYN,2003-02-22 11:00,ZBYN 221100Z 12002MPS 4000 FU NSC 01/M02 Q1016 NOSIG
ZBYN,2003-02-22 12:00,ZBYN 221200Z 11002MPS 4000 BR NSC 00/M02 Q1016 NOSIG
ZBYN,2003-02-22 13:00,ZBYN 221300Z 12001MPS 4000 BR NSC 01/M01 Q1017 NOSIG
ZBYN,2003-02-22 14:00,ZBYN 221400Z 00000MPS 4000 BR NSC 01/M01 Q1017 NOSIG
ZBYN,2003-02-22 15:00,ZBYN 221500Z 00000MPS 3000 BR NSC M01/M02 Q1017 NOSIG
ZBYN,2003-02-22 16:00,ZBYN 221600Z 15001MPS 2000 BR NSC M01/M02 Q1017 NOSIG
ZBYN,2003-02-22 17:00,ZBYN 221700Z 00000MPS 1800 BR NSC M02/M02 Q1017
ZBYN,2003-02-22 18:00,ZBYN 221800Z 08001MPS 2000 BR NSC M02/M02 Q1017
ZBYN,2003-02-22 19:00,ZBYN 221900Z 05001MPS 1800 BR NSC M01/M02 Q1017
ZBYN,2003-02-22 20:00,ZBYN 222000Z 12001MPS 1400 R31/0550N BR NSC M01/M02 Q1016
ZBYN,2003-02-22 21:00,ZBYN 222100Z 00000MPS 1400 R31/0650N BR NSC M00/M01 Q1016
ZBYN,2003-02-22 22:00,ZBYN 222200Z 02001MPS 1300 R31/0650N BR NSC 00/M01 Q1016 NOSIG
ZBYN,2003-02-22 23:00,ZBYN 222300Z 00000MPS 1300 R31/0800N BR NSC 00/M01 Q1015 NOSIG
ZBYN,2003-02-23 00:00,ZBYN 230000Z 21001MPS 0900 R31/P1500 FG NSC 01/M00 Q1016 NOSIG
ZBYN,2003-02-23 01:00,ZBYN 230100Z 15001MPS 0800 R31/1000N FG NSC 01/01 Q1017 NOSIG
ZBYN,2003-02-23 02:00,ZBYN 230200Z 00000MPS 0800 R31/0900N FG NSC 02/01 Q1018 NOSIG
ZBYN,2003-02-23 03:00,ZBYN 230300Z 00000MPS 0800 R31/0750N FG NSC 03/01 Q1017 NOSIG
ZBYN,2003-02-23 04:00,ZBYN 230400Z 16001MPS 1000 R31/0750N BR NSC 05/01 Q1016 NOSIG
ZBYN,2003-02-23 05:00,ZBYN 230500Z 18001MPS 1000 R31/1000N FU NSC 07/02 Q1015 NOSIG
ZBYN,2003-02-23 06:00,ZBYN 230600Z 18002MPS 1200 R31/1100U FU NSC 09/02 Q1013 NOSIG
ZBYN,2003-02-23 07:00,ZBYN 230700Z 23003MPS 1700 FU NSC 11/01 Q1012 NOSIG
ZBYN,2003-02-23 08:00,ZBYN 230800Z 21002MPS 2000 HZ SKC 11/00 Q1012 NOSIG
ZBYN,2003-02-23 09:00,ZBYN 230900Z 22001MPS 2000 HZ SKC 11/01 Q1012 NOSIG
ZBYN,2003-02-23 10:00,ZBYN 231000Z 12001MPS 2000 HZ SKC 08/01 Q1013 N0SIG
ZBYN,2003-02-23 11:00,ZBYN 231100Z 08001MPS 3000 HZ NSC 06/01 Q1013 NOSIG
ZBYN,2003-02-23 12:00,ZBYN 231200Z 08001MPS 3000 BR NSC 04/M01 Q1014 NOSIG
ZBYN,2003-02-23 13:00,ZBYN 231300Z 10001MPS 2500 BR NSC 02/M01 Q1015 NOSIG
ZBYN,2003-02-23 14:00,ZBYN 231400Z 14002MPS 2500 BR NSC 00/M02 Q1016 NOSIG
ZBYN,2003-02-23 15:00,ZBYN 231500Z 06001MPS 2500 BR NSC 00/M02 Q1016 NOSIG
ZBYN,2003-02-23 16:00,ZBYN 231600Z 09002MPS 2500 R31/1000N BR SKC M00/M02 Q1016 NOSIG
ZBYN,2003-02-23 17:00,ZBYN 231700Z 10002MPS 2500 BR SKC M01/M02 Q1016
ZBYN,2003-02-23 18:00,ZBYN 231800Z 09002MPS 2000 BR SKC M00/M01 Q1016
ZBYN,2003-02-23 19:00,ZBYN 231900Z 09001MPS 2000 R31/1000U BR SKC M00/M01 Q1016
ZBYN,2003-02-23 20:00,ZBYN 232000Z 11001MPS 2000 R31/1000N BR SKC M00/M01 Q1015
ZBYN,2003-02-23 21:00,ZBYN 232100Z 10001MPS 1600 R31/0800N BR SKC M00/M01 Q1016 NOSIG
ZBYN,2003-02-23 22:00,ZBYN 232200Z 14001MPS 1600 R31/0800N BR SKC M01/M02 Q1016 NOSIG
ZBYN,2003-02-23 23:00,ZBYN 232300Z 09001MPS 1200 R31/0900N BR SKC M01/M01 Q1016 NOSIG
ZBYN,2003-02-24 00:00,ZBYN 240000Z 00000MPS 0900 R31/0750N FZFG SKC M02/M03 Q1017 NOSIG
ZBYN,2003-02-24 01:00,ZBYN 240100Z 00000MPS 0700 R31/0750N FG SKC 01/00 Q1017 NOSIG
ZBYN,2003-02-24 02:00,ZBYN 240200Z 00000MPS 1200 R31/0800N BR SKC 05/02 Q1017 NOSIG
ZBYN,2003-02-24 03:00,ZBYN 240300Z 00000MPS 1600 R31/1200N BR SKC 08/02 Q1016 NOSIG
ZBYN,2003-02-24 04:00,ZBYN 240400Z 16001MPS 2500 BR SKC 11/01 Q1015 NOSIG
ZBYN,2003-02-24 05:00,ZBYN 240500Z 20002MPS 4000 FU SKC 13/M01 Q1014 NOSIG
ZBYN,2003-02-24 06:00,ZBYN 240600Z 16001MPS 4000 FU NSC 14/M01 Q1013 NOSIG
ZBYN,2003-02-24 07:00,ZBYN 240700Z 19002MPS CAVOK 15/M02 Q1013 NOSIG
ZBYN,2003-02-24 08:00,ZBYN 240800Z 24001MPS CAVOK 15/M01 Q1012 NOSIG
ZBYN,2003-02-24 09:00,ZBYN 240900Z 27002MPS 6000 NSC 15/01 Q1012 NOSIG
ZBYN,2003-02-24 10:00,ZBYN 241000Z 28001MPS 6000 NSC 12/01 Q1012 NOSIG
ZBYN,2003-02-24 11:00,ZBYN 241100Z 02001MPS 7000 NSC 10/01 Q1012 NOSIG
ZBYN,2003-02-24 12:00,ZBYN 241200Z 10002MPS 7000 NSC 06/M00 Q1013 NOSIG
ZBYN,2003-02-24 13:00,ZBYN 241300Z 10002MPS 7000 NSC 04/M01 Q1013 NOSIG
ZBYN,2003-02-24 14:00,ZBYN 241400Z 08001MPS CAVOK 05/M01 Q1014 NOSIG
ZBYN,2003-02-24 15:00,ZBYN 241500Z 09001MPS CAVOK 05/M02 Q1014 NOSIG
ZBYN,2003-02-24 16:00,ZBYN 241600Z 11001MPS CAVOK 03/M02 Q1015 NOSIG
ZBYN,2003-02-24 17:00,ZBYN 241700Z 11002MPS CAVOK 05/M03 Q1015 NOSIG
ZBYN,2003-02-24 18:00,ZBYN 241800Z 09002MPS CAVOK 03/M03 Q1015
ZBYN,2003-02-24 19:00,ZBYN 241900Z 08001MPS CAVOK 03/M02 Q1015
ZBYN,2003-02-24 20:00,ZBYN 242000Z 11002MPS CAVOK 01/M03 Q1014
ZBYN,2003-02-24 21:00,ZBYN 242100Z 11002MPS CAVOK 00/M03 Q1014
ZBYN,2003-02-24 22:00,ZBYN 242200Z 00000MPS CAVOK 00/M03 Q1015 NOSIG
ZBYN,2003-02-24 23:00,ZBYN 242300Z 07001MPS CAVOK 00/M03 Q1015 NOSIG
ZBYN,2003-02-25 00:00,ZBYN 250000Z 12001MPS CAVOK 01/M01 Q1016 NOSIG
ZBYN,2003-02-25 01:00,ZBYN 250100Z VRB01MPS 7000 NSC 05/M01 Q1017 NOSIG
ZBYN,2003-02-25 02:00,ZBYN 250200Z 15002MPS 3000 FU NSC 06/M00 Q1017 NOSIG
ZBYN,2003-02-25 03:00,ZBYN 250300Z 23002MPS 2200 FU NSC 08/00 Q1016 NOSIG
ZBYN,2003-02-25 04:00,ZBYN 250400Z VRB01MPS 4000 FU NSC 11/M00 Q1016 NOSIG
ZBYN,2003-02-25 05:00,ZBYN 250500Z 24003MPS 5000 FU NSC 13/M00 Q1015 NOSIG
ZBYN,2003-02-25 06:00,ZBYN 250600Z 21003MPS CAVOK 14/M03 Q1014 NOSIG
ZBYN,2003-02-25 07:00,ZBYN 250700Z 24002MPS CAVOK 14/M03 Q1014 NOSIG
ZBYN,2003-02-25 08:00,ZBYN 250800Z 21002MPS CAVOK 14/M02 Q1014 NOSIG
ZBYN,2003-02-25 09:00,ZBYN 250900Z 30004MPS CAVOK 13/M14 Q1015 NOSIG
ZBYN,2003-02-25 10:00,ZBYN 251000Z 29003MPS CAVOK 11/M14 Q1016 NOSIG
ZBYN,2003-02-25 11:00,ZBYN 251100Z 34003MPS CAVOK 09/M11 Q1017 NOSIG
ZBYN,2003-02-25 12:00,ZBYN 251200Z 34003MPS CAVOK 08/M16 Q1018 NOSIG
ZBYN,2003-02-25 13:00,ZBYN 251300Z 02004MPS CAVOK 08/M15 Q1019 NOSIG
ZBYN,2003-02-25 14:00,ZBYN 251400Z 36003MPS CAVOK 07/M15 Q1020 NOSIG
ZBYN,2003-02-25 15:00,ZBYN 251500Z 34001MPS CAVOK 05/M15 Q1021 NOSIG
ZBYN,2003-02-25 16:00,ZBYN 251600Z 32002MPS CAVOK 03/M14 Q1021 NOSIG
ZBYN,2003-02-25 17:00,ZBYN 251700Z 10001MPS CAVOK M00/M11 Q1021
ZBYN,2003-02-25 18:00,ZBYN 251800Z 35002MPS CAVOK M01/M09 Q1021
ZBYN,2003-02-25 19:00,ZBYN 251900Z 36001MPS CAVOK 00/M11 Q1021
ZBYN,2003-02-25 20:00,ZBYN 252000Z 36001MPS CAVOK 01/M11 Q1021
ZBYN,2003-02-25 21:00,ZBYN 252100Z 35002MPS CAVOK 01/M11 Q1022
ZBYN,2003-02-25 22:00,ZBYN 252200Z 02001MPS CAVOK M03/M09 Q1022 NOSIG
ZBYN,2003-02-25 23:00,ZBYN 252300Z 02001MPS CAVOK M02/M09 Q1022 NOSIG
ZBYN,2003-02-26 00:00,ZBYN 260000Z 33002MPS CAVOK 01/M08 Q1023 NOSIG
ZBYN,2003-02-26 01:00,ZBYN 260100Z 34003MPS CAVOK 04/M10 Q1023 NOSIG
ZBYN,2003-02-26 02:00,ZBYN 260200Z 34003MPS CAVOK 05/M11 Q1024 NOSIG
ZBYN,2003-02-26 03:00,ZBYN 260300Z 06003MPS CAVOK 07/M09 Q1023 NOSIG
ZBYN,2003-02-26 04:00,ZBYN 260400Z 35003MPS CAVOK 09/M11 Q1023 NOSIG
ZBYN,2003-02-26 05:00,ZBYN 260500Z VRB01MPS CAVOK 10/M16 Q1022 NOSIG
ZBYN,2003-02-26 06:00,ZBYN 260600Z 33002MPS CAVOK 11/M12 Q1021 NOSIG
ZBYN,2003-02-26 07:00,ZBYN 260700Z VRB01MPS CAVOK 13/M15 Q1020 NOSIG
ZBYN,2003-02-26 08:00,ZBYN 260800Z 08002MPS CAVOK 12/M09 Q1020 NOSIG
ZBYN,2003-02-26 09:00,ZBYN 260900Z 10005MPS CAVOK 11/M06 Q1020 NOSIG
ZBYN,2003-02-26 10:00,ZBYN 261000Z 10005MPS CAVOK 08/M06 Q1020 NOSIG
ZBYN,2003-02-26 11:00,ZBYN 261100Z 08007MPS CAVOK 06/M05 Q1020 NOSIG
ZBYN,2003-02-26 12:00,ZBYN 261200Z 07008MPS CAVOK 05/M05 Q1021 NOSIG
ZBYN,2003-02-26 13:00,ZBYN 261300Z 08009MPS CAVOK 04/M05 Q1022 NOSIG
ZBYN,2003-02-26 13:30,ZBYN 261330Z 07008MPS CAVOK 04/M05 Q1022 NOSIG
ZBYN,2003-02-26 14:00,ZBYN 261400Z 08008MPS CAVOK 04/M05 Q1022 NOSIG
ZBYN,2003-02-26 15:00,ZBYN 261500Z 08006MPS CAVOK 03/M05 Q1023 NOSIG
ZBYN,2003-02-26 16:00,ZBYN 261600Z 08007MPS CAVOK 03/M05 Q1023 NOSIG
ZBYN,2003-02-26 17:00,ZBYN 261700Z 08006MPS CAVOK 02/M05 Q1023
ZBYN,2003-02-26 18:00,ZBYN 261800Z 08006MPS CAVOK 02/M05 Q1023
ZBYN,2003-02-26 19:00,ZBYN 261900Z 09004MPS CAVOK 02/M05 Q1023
ZBYN,2003-02-26 20:00,ZBYN 262000Z 09005MPS CAVOK 02/M05 Q1023 NOSIG
ZBYN,2003-02-26 21:00,ZBYN 262100Z 06003MPS CAVOK 02/M05 Q1023 NOSIG
ZBYN,2003-02-26 22:00,ZBYN 262200Z 08003MPS CAVOK 02/M05 Q1022 NOSIG
ZBYN,2003-02-26 23:00,ZBYN 262300Z 08005MPS CAVOK 01/M05 Q1022 NOSIG
ZBYN,2003-02-27 00:00,ZBYN 270000Z 09006MPS 8000 -SN NSC 01/M05 Q1023 NOSIG
ZBYN,2003-02-27 01:00,ZBYN 270100Z 09005MPS 7000 -SN NSC 02/M05 Q1024 NOSIG
ZBYN,2003-02-27 02:00,ZBYN 270200Z 09005MPS 5000 -SN BR NSC 01/M03 Q1024 NOSIG
ZBYN,2003-02-27 03:00,ZBYN 270300Z 09004MPS 5000 -SN BR NSC 02/M01 Q1024 NOSIG
ZBYN,2003-02-27 04:00,ZBYN 270400Z 09003MPS 6000 NSC 04/M02 Q1023 NOSIG
ZBYN,2003-02-27 05:00,ZBYN 270500Z 08002MPS 6000 NSC 04/M02 Q1023 NOSIG
ZBYN,2003-02-27 06:00,ZBYN 270600Z 10003MPS 6000 NSC 04/M02 Q1022 NOSIG
ZBYN,2003-02-27 07:00,ZBYN 270700Z 08002MPS 6000 NSC 05/M03 Q1021 NOSIG
ZBYN,2003-02-27 08:00,ZBYN 270800Z 08004MPS 6000 NSC 05/M03 Q1020 NOSIG
ZBYN,2003-02-27 09:00,ZBYN 270900Z 07003MPS 6000 NSC 04/M02 Q1020 NOSIG
ZBYN,2003-02-27 10:00,ZBYN 271000Z 08003MPS 7000 NSC 04/M02 Q1020 NOSIG
ZBYN,2003-02-27 11:00,ZBYN 271100Z 09003MPS 6000 NSC 03/M02 Q1021 NOSIG
ZBYN,2003-02-27 12:00,ZBYN 271200Z 08002MPS 6000 NSC 03/M02 Q1021 NOSIG
ZBYN,2003-02-27 13:00,ZBYN 271300Z 10002MPS 6000 NSC 02/M02 Q1021 NOSIG
ZBYN,2003-02-27 14:00,ZBYN 271400Z 11001MPS 6000 NSC 02/M03 Q1021 NOSIG
ZBYN,2003-02-27 15:00,ZBYN 271500Z 03001MPS 6000 NSC 02/M02 Q1021 NOSIG
ZBYN,2003-02-27 16:00,ZBYN 271600Z 14001MPS 6000 NSC 01/M02 Q1021 NOSIG
ZBYN,2003-02-27 17:00,ZBYN 271700Z 15002MPS 6000 NSC 01/M02 Q1021
ZBYN,2003-02-27 18:00,ZBYN 271800Z 12002MPS 6000 NSC 00/M02 Q1020
ZBYN,2003-02-27 19:00,ZBYN 271900Z 11001MPS 5000 BR NSC 01/M02 Q1019
ZBYN,2003-02-27 20:00,ZBYN 272000Z 12001MPS 5000 BR NSC 01/M02 Q1018
ZBYN,2003-02-27 21:00,ZBYN 272100Z 00000MPS 4000 R31/1100N BR NSC 01/M02 Q1018
ZBYN,2003-02-27 22:00,ZBYN 272200Z 00000MPS 3000 R31/0800N BR NSC M01/M02 Q1018 NOSIG
ZBYN,2003-02-27 23:00,ZBYN 272300Z 00000MPS 2500 R31/0750N BR NSC M01/M02 Q1018 NOSIG
ZBYN,2003-02-28 00:00,ZBYN 280000Z 00000MPS 1500 R31/1400N BR NSC M00/M02 Q1018 NOSIG
ZBYN,2003-02-28 01:00,ZBYN 280100Z 10001MPS 1300 R31/0800N BR NSC 02/M01 Q1018 NOSIG
ZBYN,2003-02-28 02:00,ZBYN 280200Z 00000MPS 1200 R31/0800N BR NSC 03/M00 Q1018 NOSIG
ZBYN,2003-02-28 03:00,ZBYN 280300Z VRB01MPS 1300 R31/0900N BR NSC 05/M01 Q1017 NOSIG
ZBYN,2003-02-28 04:00,ZBYN 280400Z 16001MPS 1600 R31/1300N BR NSC 07/M00 Q1016 NOSIG
ZBYN,2003-02-28 05:00,ZBYN 280500Z 18002MPS 2000 R31/1200N HZ NSC 08/00 Q1015 NOSIG
ZBYN,2003-02-28 06:00,ZBYN 280600Z VRB01MPS 2000 R31/1000N HZ NSC 09/00 Q1014 NOSIG
ZBYN,2003-02-28 07:00,ZBYN 280700Z VRB01MPS 2000 R31/1100N HZ NSC 10/M00 Q1013 NOSIG
ZBYN,2003-02-28 08:00,ZBYN 280800Z 24001MPS 2000 R31/1400U HZ NSC 10/01 Q1013 NOSIG
ZBYN,2003-02-28 09:00,ZBYN 280900Z 24001MPS 2000 R31/1400U HZ NSC 09/01 Q1012 NOSIG
ZBYN,2003-02-28 10:00,ZBYN 281000Z 00000MPS 3000 HZ NSC 09/01 Q1012 NOSIG
ZBYN,2003-02-28 11:00,ZBYN 281100Z 12001MPS 2500 HZ NSC 06/00 Q1012 NOSIG
ZBYN,2003-02-28 12:00,ZBYN 281200Z 12001MPS 2500 BR NSC 03/M01 Q1013 NOSIG
ZBYN,2003-02-28 13:00,ZBYN 281300Z 13002MPS 2500 BR NSC 01/M02 Q1013 NOSIG
ZBYN,2003-02-28 14:00,ZBYN 281400Z 13002MPS 2500 BR NSC 01/M01 Q1014 NOSIG
ZBYN,2003-02-28 15:00,ZBYN 281500Z 11002MPS 2000 R31/1400 BR NSC 01/M01 Q1014 NOSIG
ZBYN,2003-02-28 16:00,ZBYN 281600Z 12002MPS 2000 R31/0800N BR NSC 01/M01 Q1014 NOSIG
ZBYN,2003-02-28 17:00,ZBYN 281700Z 11002MPS 2000 R31/0800N BR NSC M01/M02 Q1013
ZBYN,2003-02-28 18:00,ZBYN 281800Z 09001MPS 2000 R31/0800N BR NSC M01/M02 Q1013
ZBYN,2003-02-28 19:00,ZBYN 281900Z 11002MPS 2000 R31/0900N BR NSC M01/M02 Q1013
ZBYN,2003-02-28 20:00,ZBYN 282000Z 10001MPS 2000 R31/0750N BR NSC M01/M02 Q1013
ZBYN,2003-02-28 21:00,ZBYN 282100Z 12001MPS 2000 R31/0700N BR NSC M02/M02 Q1013
ZBYN,2003-02-28 22:00,ZBYN 282200Z 12001MPS 2000 R31/0650N BR NSC M01/M01 Q1013 NOSIG
ZBYN,2003-02-28 23:00,ZBYN 282300Z 12001MPS 1600 R31/0650N BR NSC M01/M02 Q1013 NOSIG
ZBYN,2003-03-01 00:00,ZBYN 010000Z 30001MPS 0900 R31/0700D FZFG NSC M01/M02 Q1013 NOSIG
ZBYN,2003-03-01 01:00,ZBYN 010100Z VRB01MPS 0600 R31/0550 FG NSC 01/01 Q1013 NOSIG
ZBYN,2003-03-01 02:00,ZBYN 010200Z 00000MPS 0800 R31/0550N FG NSC 03/02 Q1014 NOSIG
ZBYN,2003-03-01 03:00,ZBYN 010300Z VRB01MPS 1300 R31/0900N BR NSC 06/02 Q1013 NOSIG
ZBYN,2003-03-01 04:00,ZBYN 010400Z VRB01MPS 1600 R31/1200D FU NSC 08/02 Q1013 NOSIG
ZBYN,2003-03-01 05:00,ZBYN 010500Z 20002MPS 2000 R31/1200 FU NSC 10/02 Q1012 NOSIG
ZBYN,2003-03-01 06:00,ZBYN 010600Z 19002MPS 3000 FU NSC 12/01 Q1010 NOSIG
ZBYN,2003-03-01 07:00,ZBYN 010700Z 21002MPS 8000 NSC 13/01 Q1009 NOSIG
ZBYN,2003-03-01 08:00,ZBYN 010800Z 25002MPS 8000 NSC 14/01 Q1007 NOSIG
ZBYN,2003-03-01 09:00,ZBYN 010900Z 00000MPS CAVOK 14/M00 Q1007 NOSIG
ZBYN,2003-03-01 10:00,ZBYN 011000Z 22001MPS 5000 FU NSC 12/03 Q1007 NOSIG
ZBYN,2003-03-01 11:00,ZBYN 011100Z 12002MPS 5000 FU NSC 08/02 Q1008 NOSIG
ZBYN,2003-03-01 12:00,ZBYN 011200Z 11001MPS 7000 06/01 Q1008 NOSIG
ZBYN,2003-03-01 12:30,ZBYN 011230Z VRB01MPS 8000 NSC 06/01 Q1009 NOSIG
ZBYN,2003-03-01 13:00,ZBYN 011300Z 06001MPS 8000 NSC 07/01 Q1009 NOSIG
ZBYN,2003-03-01 14:00,ZBYN 011400Z 11002MPS 7000 NSC 05/M00 Q1009 NOSIG
ZBYN,2003-03-01 15:00,ZBYN 011500Z 13002MPS 8000 NSC 04/00 Q1009 NOSIG
ZBYN,2003-03-01 16:00,ZBYN 011600Z 11001MPS CAVOK 04/M00 Q1008 NOSIG
ZBYN,2003-03-01 17:00,ZBYN 011700Z 13001MPS CAVOK 02/M01 Q1008
ZBYN,2003-03-01 18:00,ZBYN 011800Z 11003MPS CAVOK 02/M00 Q1006
ZBYN,2003-03-01 19:00,ZBYN 011900Z 13002MPS CAVOK 01/M02 Q1007
ZBYN,2003-03-01 20:00,ZBYN 012000Z VRB01MPS 8000 NSC 01/M01 Q1006
ZBYN,2003-03-01 21:00,ZBYN 012100Z 12002MPS 8000 NSC 01/M01 Q1006
ZBYN,2003-03-01 22:00,ZBYN 012200Z 11001MPS 8000 NSC 01/M01 Q1006 NOSIG
ZBYN,2003-03-01 23:00,ZBYN 012300Z 08002MPS 5000 BR NSC 00/M01 Q1007 NOSIG
ZBYN,2003-03-02 00:00,ZBYN 020000Z 12001MPS 1800 BR SKC M00/M02 Q1008 NOSIG
ZBYN,2003-03-02 01:00,ZBYN 020100Z 13001MPS 1700 R31/1400 BR SKC 04/01 Q1009 NOSIG
ZBYN,2003-03-02 02:00,ZBYN 020200Z 12001MPS 1600 FU NSC 06/02 Q1009 NOSIG
ZBYN,2003-03-02 03:00,ZBYN 020300Z 16002MPS 1200 R31/1000 FU NSC 08/03 Q1009 NOSIG
ZBYN,2003-03-02 04:00,ZBYN 020400Z VRB01MPS 1000 R31/1000 FU NSC 09/03 Q1009 NOSIG
ZBYN,2003-03-02 05:00,ZBYN 020500Z 31014MPS 3000 BLSA NSC 13/M12 Q1010 NOSIG
ZBYN,2003-03-02 06:00,ZBYN 020600Z 30008MPS CAVOK 09/M07 Q1009 NOSIG
ZBYN,2003-03-02 07:00,ZBYN 020700Z 30005MPS CAVOK 11/M07 Q1009 NOSIG
ZBYN,2003-03-02 08:00,ZBYN 020800Z 33008MPS CAVOK 13/M18 Q1009 NOSIG
ZBYN,2003-03-02 09:00,ZBYN 020900Z 31007MPS CAVOK 12/M19 Q1010 NOSIG
ZBYN,2003-03-02 10:00,ZBYN 021000Z 32006MPS CAVOK 09/M16 Q1011 NOSIG
ZBYN,2003-03-02 11:00,ZBYN 021100Z 01005MPS CAVOK 07/M11 Q1013 NOSIG
ZBYN,2003-03-02 12:00,ZBYN 021200Z 02006MPS CAVOK 06/M10 Q1014 NOSIG
ZBYN,2003-03-02 13:00,ZBYN 021300Z 36004MPS CAVOK 04/M09 Q1016 NOSIG
ZBYN,2003-03-02 14:00,ZBYN 021400Z 33005MPS CAVOK 03/M09 Q1018 NOSIG
ZBYN,2003-03-02 15:00,ZBYN 021500Z 34006MPS CAVOK 02/M10 Q1019 NOSIG
ZBYN,2003-03-02 16:00,ZBYN 021600Z 33007MPS CAVOK 01/M11 Q1020 NOSIG
ZBYN,2003-03-02 17:00,ZBYN 021700Z 34007MPS CAVOK 00/M12 Q1021
ZBYN,2003-03-02 18:00,ZBYN 021800Z 36005MPS CAVOK M01/M13 Q1022
ZBYN,2003-03-02 21:00,ZBYN 022100Z 34005MPS CAVOK M03/M15 Q1022
ZBYN,2003-03-02 22:00,ZBYN 022200Z 33006MPS CAVOK M04/M15 Q1022 NOSIG
ZBYN,2003-03-02 23:00,ZBYN 022300Z 34004MPS CAVOK M04/M16 Q1023 NOSIG
ZBYN,2003-03-03 00:00,ZBYN 030000Z 34006MPS CAVOK M03/M18 Q1024 NOSIG
ZBYN,2003-03-03 01:00,ZBYN 030100Z 35007MPS CAVOK M02/M20 Q1024 NOSIG
ZBYN,2003-03-03 02:00,ZBYN 030200Z 35007MPS CAVOK M00/M22 Q1024 NOSIG
ZBYN,2003-03-03 03:00,ZBYN 030300Z 35007MPS CAVOK 01/M25 Q1024 NOSIG
ZBYN,2003-03-03 04:00,ZBYN 030400Z 36006MPS CAVOK 03/M27 Q1022 NOSIG
ZBYN,2003-03-03 05:00,ZBYN 030500Z 33006MPS CAVOK 04/M25 Q1021 NOSIG
ZBYN,2003-03-03 06:00,ZBYN 030600Z AUTO 36004KT 16SM 02/M19 RMK SLP244 T00231186 57034 IEM_DS3505
ZBYN,2003-03-03 07:00,ZBYN 030700Z 33005MPS CAVOK 05/M25 Q1020 NOSIG
ZBYN,2003-03-03 08:00,ZBYN 030800Z 33004MPS CAVOK 04/M25 Q1019 NOSIG
ZBYN,2003-03-03 09:00,ZBYN 030900Z 30003MPS CAVOK 04/M24 Q1019 NOSIG
ZBYN,2003-03-03 10:00,ZBYN 031000Z 32003MPS CAVOK 02/M21 Q1019 NOSIG
ZBYN,2003-03-03 11:00,ZBYN 031100Z 34003MPS CAVOK 02/M21 Q1020 NOSIG
ZBYN,2003-03-03 12:00,ZBYN 031200Z 35002MPS CAVOK 01/M19 Q1020 NOSIG
ZBYN,2003-03-03 13:00,ZBYN 031300Z 08002MPS CAVOK 01/M14 Q1021 NOSIG
ZBYN,2003-03-03 14:00,ZBYN 031400Z 07004MPS CAVOK 01/M14 Q1022 NOSIG
ZBYN,2003-03-03 15:00,ZBYN 031500Z 09003MPS CAVOK 01/M15 Q1022 NOSIG
ZBYN,2003-03-03 16:00,ZBYN 031600Z 07003MPS CAVOK 01/M13 Q1022 NOSIG
ZBYN,2003-03-03 17:00,ZBYN 031700Z 08002MPS CAVOK 00/M13 Q1021
ZBYN,2003-03-03 18:00,ZBYN 031800Z 09002MPS CAVOK 00/M12 Q1022
ZBYN,2003-03-03 19:00,ZBYN 031900Z 05002MPS CAVOK M01/M11 Q1022
ZBYN,2003-03-03 20:00,ZBYN 032000Z 07003MPS CAVOK 00/M11 Q1021
ZBYN,2003-03-03 21:00,ZBYN 032100Z 09003MPS CAVOK 00/M10 Q1020
ZBYN,2003-03-03 22:00,ZBYN 032200Z 05002MPS CAVOK 00/M09 Q1020 NOSIG
ZBYN,2003-03-03 23:00,ZBYN 032300Z 36002MPS CAVOK 00/M09 Q1020 NOSIG
ZBYN,2003-03-04 00:00,ZBYN 040000Z 03001MPS CAVOK 01/M11 Q1021 NOSIG
ZBYN,2003-03-04 01:00,ZBYN 040100Z 06001MPS CAVOK 01/M12 Q1022 NOSIG
ZBYN,2003-03-04 02:00,ZBYN 040200Z 08003MPS CAVOK 02/M13 Q1022 NOSIG
ZBYN,2003-03-04 02:30,ZBYN 040230Z 09002MPS CAVOK 03/M13 Q1022 NOSIG
ZBYN,2003-03-04 03:00,ZBYN 040300Z 10002MPS CAVOK 03/M14 Q1022 NOSIG
ZBYN,2003-03-04 03:30,ZBYN 040330Z 07001MPS CAVOK 03/M14 Q1021 NOSIG
ZBYN,2003-03-04 04:00,ZBYN 040400Z 10002MPS CAVOK 04/M15 Q1021 NOSIG
ZBYN,2003-03-04 04:30,ZBYN 040430Z 08001MPS CAVOK 04/M16 Q1021 NOSIG
ZBYN,2003-03-04 05:00,ZBYN 040500Z VRB01MPS CAVOK 04/M15 Q1021 NOSIG
ZBYN,2003-03-04 06:00,ZBYN 040600Z VRB01MPS CAVOK 04/M15 Q1019 NOSIG
ZBYN,2003-03-04 07:00,ZBYN 040700Z 19001MPS CAVOK 04/M14 Q1019 NOSIG
ZBYN,2003-03-04 08:00,ZBYN 040800Z 17002MPS CAVOK 03/M14 Q1019 NOSIG
ZBYN,2003-03-04 09:00,ZBYN 040900Z 14002MPS CAVOK 02/M13 Q1019 NOSIG
ZBYN,2003-03-04 10:00,ZBYN 041000Z 18002MPS CAVOK 02/M13 Q1019 NOSIG
ZBYN,2003-03-04 11:00,ZBYN 041100Z 21002MPS 9999 -RASN BKN026 OVC050 00/M07 Q1021 NOSIG
ZBYN,2003-03-04 12:00,ZBYN 041200Z 18002MPS 2000 -SN BR SCT016 OVC026 M02/M03 Q1022 NOSIG
ZBYN,2003-03-04 13:00,ZBYN 041300Z 19002MPS 1400 R31/P1500 -SN BR OVC020 M02/M03 Q1022 NOSIG
ZBYN,2003-03-04 14:00,ZBYN 041400Z 00000MPS 2500 -SN BR OVC020 M02/M03 Q1022 NOSIG
ZBYN,2003-03-04 15:00,ZBYN 041500Z 27001MPS 3000 -SN BR OVC020 M03/M03 Q1023 NOSIG
ZBYN,2003-03-04 16:00,ZBYN 041600Z 00000MPS 1700 R31/0800N -SN BR OVC020 M03/M03 Q1023 NOSIG
ZBYN,2003-03-04 17:00,ZBYN 041700Z 12001MPS 2500 -SN BR OVC020 M03/M03 Q1022
ZBYN,2003-03-04 18:00,ZBYN 041800Z 09002MPS 3000 -SN BR OVC020 M03/M04 Q1022
ZBYN,2003-03-04 19:00,ZBYN 041900Z 08002MPS 3500 -SN BR OVC040 M03/M04 Q1022
ZBYN,2003-03-04 21:00,ZBYN 042100Z 07002MPS 3000 -SN BR OVC040 M03/M04 Q1020
ZBYN,2003-03-04 21:30,ZBYN 042130Z 09003MPS 3000 -SN BR OVC040 M03/M05 Q1020
ZBYN,2003-03-04 22:00,ZBYN 042200Z 08004MPS 4000 -SN BR OVC040 M03/M06 Q1020 NOSIG
ZBYN,2003-03-04 22:30,ZBYN 042230Z 06004MPS 8000 OVC040 M03/M06 Q1021 NOSIG
ZBYN,2003-03-04 23:00,ZBYN 042300Z 06004MPS CAVOK M03/M06 Q1021 NOSIG
ZBYN,2003-03-05 00:00,ZBYN 050000Z 06004MPS 9999 -SN OVC040 M03/M06 Q1022 NOSIG
ZBYN,2003-03-05 01:00,ZBYN 050100Z 08004MPS 9999 -SN NSC M02/M06 Q1023 NOSIG
ZBYN,2003-03-05 02:00,ZBYN 050200Z 06004MPS 9999 -SN NSC M01/M05 Q1023 NOSIG
ZBYN,2003-03-05 03:00,ZBYN 050300Z 06003MPS 6000 -SN NSC M01/M05 Q1023 NOSIG
ZBYN,2003-03-05 04:00,ZBYN 050400Z 11003MPS 9999 -SN NSC M01/M05 Q1023 NOSIG
ZBYN,2003-03-05 05:00,ZBYN 050500Z 07002MPS CAVOK M01/M05 Q1022 NOSIG
ZBYN,2003-03-05 06:00,ZBYN 050600Z 08003MPS 9999 -SN NSC M01/M05 Q1021 NOSIG
ZBYN,2003-03-05 07:00,ZBYN 050700Z 08002MPS 0800 R31/0400D SN SCT040 OVC100 M02/M04 Q1021 NOSIG
ZBYN,2003-03-05 08:00,ZBYN 050800Z 12002MPS 1400 R31/P1500 -SN BR SCT040 OVC100 M02/M03 Q1020 NOSIG
ZBYN,2003-03-05 09:00,ZBYN 050900Z 00000MPS 2000 -SN BR SCT026 OVC100 M02/M03 Q1020 NOSIG
ZBYN,2003-03-05 10:00,ZBYN 051000Z 13001MPS 2000 -SN BR SCT026 OVC100 M02/M04 Q1020 NOSIG
ZBYN,2003-03-05 11:00,ZBYN 051100Z 00000MPS 2000 -SN BR BKN026 OVC100 M02/M03 Q1021 NOSIG
ZBYN,2003-03-05 12:00,ZBYN 051200Z 12002MPS 4000 -SN BR SCT026 OVC100 M03/M04 Q1022 NOSIG
ZBYN,2003-03-05 13:00,ZBYN 051300Z AUTO 16002KT 2SM M03/M04 A3018 RMK T10301040 IEM_DS3505
ZBYN,2003-03-05 14:00,ZBYN 051400Z 21001MPS 4000 -SN BR BKN030 OVC100 M03/M04 Q1023 NOSIG
ZBYN,2003-03-05 15:00,ZBYN 051500Z 23001MPS 4000 -SN BR NSC M03/M04 Q1023 NOSIG
ZBYN,2003-03-05 16:00,ZBYN 051600Z 19001MPS 1400 R31/1000N -SN BR NSC M03/M04 Q1023 NOSIG
ZBYN,2003-03-05 17:00,ZBYN 051700Z 11001MPS 2000 -SN BR NSC M06/M06 Q1023
ZBYN,2003-03-05 18:00,ZBYN 051800Z 09001MPS 3000 BR NSC M05/M06 Q1022
ZBYN,2003-03-05 19:00,ZBYN 051900Z 12001MPS 3000 BR NSC M04/M05 Q1022
ZBYN,2003-03-05 20:00,ZBYN 052000Z 10002MPS 4000 BR NSC M04/M04 Q1021
ZBYN,2003-03-05 21:00,ZBYN 052100Z 12002MPS 4000 BR NSC M03/M04 Q1020
ZBYN,2003-03-05 22:00,ZBYN 052200Z VRB01MPS 4000 BR NSC M03/M04 Q1021 NOSIG
ZBYN,2003-03-05 23:00,ZBYN 052300Z AUTO 21002KT 1SM A3018 RMK IEM_DS3505
ZBYN,2003-03-06 00:00,ZBYN 060000Z 20001MPS 1100 R31/1200N BR NSC M03/M04 Q1022 NOSIG
ZBYN,2003-03-06 01:00,ZBYN 060100Z 16002MPS 1000 R31/0900N BR SCT020 OVC100 M03/M04 Q1022 NOSIG
ZBYN,2003-03-06 02:00,ZBYN 060200Z VRB01MPS 1200 R31/1200 BR SCT040 OVC200 M02/M04 Q1022 NOSIG
ZBYN,2003-03-06 03:00,ZBYN 060300Z VRB01MPS 1400 R31/1100U BR NSC M00/M04 Q1021 NOSIG
ZBYN,2003-03-06 04:00,ZBYN 060400Z 21001MPS 1400 R31/1100N BR NSC 01/M04 Q1021 NOSIG
ZBYN,2003-03-06 05:00,ZBYN 060500Z 22001MPS 1600 R31/1100 FU SKC 03/M02 Q1020 NOSIG
ZBYN,2003-03-06 06:00,ZBYN 060600Z 26002MPS 1600 R31/1000 FU NSC 04/M03 Q1019 NOSIG
ZBYN,2003-03-06 07:00,ZBYN 060700Z 22002MPS 2500 FU NSC 05/M02 Q1019 NOSIG
ZBYN,2003-03-06 08:00,ZBYN 060800Z 25003MPS 9999 SCT033 05/M03 Q1018 NOSIG
ZBYN,2003-03-06 09:00,ZBYN 060900Z 31007MPS 9999 FEW033 05/M07 Q1019 NOSIG
ZBYN,2003-03-06 10:00,ZBYN 061000Z 29005MPS CAVOK 04/M06 Q1020 NOSIG
ZBYN,2003-03-06 11:00,ZBYN 061100Z 28002MPS CAVOK 02/M07 Q1020 NOSIG
ZBYN,2003-03-06 12:00,ZBYN 061200Z 27002MPS CAVOK 01/M06 Q1021 NOSIG
ZBYN,2003-03-06 13:00,ZBYN 061300Z 27005MPS CAVOK 01/M06 Q1021 NOSIG
ZBYN,2003-03-06 14:00,ZBYN 061400Z 26002MPS CAVOK 02/M06 Q1022 NOSIG
ZBYN,2003-03-06 15:00,ZBYN 061500Z 23002MPS CAVOK 01/M06 Q1022 NOSIG
ZBYN,2003-03-06 16:00,ZBYN 061600Z 24002MPS CAVOK 00/M05 Q1022 NOSIG
ZBYN,2003-03-06 17:00,ZBYN 061700Z 19001MPS CAVOK M00/M04 Q1021
ZBYN,2003-03-06 18:00,ZBYN 061800Z 21001MPS CAVOK M00/M04 Q1021
ZBYN,2003-03-06 19:00,ZBYN 061900Z VRB01MPS CAVOK 00/M04 Q1021
ZBYN,2003-03-06 20:00,ZBYN 062000Z 23002MPS CAVOK M00/M04 Q1021 NOSIG
ZBYN,2003-03-06 21:00,ZBYN 062100Z VRB01MPS CAVOK M02/M05 Q1022 NOSIG
ZBYN,2003-03-06 22:00,ZBYN 062200Z 23003MPS CAVOK M01/M05 Q1022 NOSIG
ZBYN,2003-03-06 23:00,ZBYN 062300Z 23002MPS CAVOK M01/M05 Q1022 NOSIG
ZBYN,2003-03-07 00:00,ZBYN 070000Z 07001MPS 7000 NSC M00/M04 Q1023 NOSIG
ZBYN,2003-03-07 01:00,ZBYN 070100Z VRB01MPS CAVOK 03/M05 Q1024 NOSIG
ZBYN,2003-03-07 02:00,ZBYN 070200Z 30006MPS CAVOK 05/M07 Q1024 NOSIG
ZBYN,2003-03-07 03:00,ZBYN 070300Z 22006MPS CAVOK 05/M05 Q1024 NOSIG
ZBYN,2003-03-07 04:00,ZBYN 070400Z 17004MPS CAVOK 06/M07 Q1023 NOSIG
ZBYN,2003-03-07 05:00,ZBYN 070500Z 29007MPS 9999 FEW033 09/M09 Q1022 NOSIG
ZBYN,2003-03-07 06:00,ZBYN 070600Z 30008MPS 9999 FEW033 09/M12 Q1021 NOSIG
ZBYN,2003-03-07 06:30,ZBYN 070630Z 30008MPS 9999 FEW033 10/M12 Q1021 NOSIG
ZBYN,2003-03-07 07:00,ZBYN 070700Z 30008MPS 9999 FEW033 09/M13 Q1021 NOSIG
ZBYN,2003-03-07 07:30,ZBYN 070730Z 29006MPS 9999 FEW033 10/M12 Q1021 NOSIG
ZBYN,2003-03-07 08:00,ZBYN 070800Z 30006MPS 9999 FEW033 10/M14 Q1021 NOSIG
ZBYN,2003-03-07 09:00,ZBYN 070900Z 30006MPS 9999 FEW033 09/M11 Q1021 NOSIG
ZBYN,2003-03-07 10:00,ZBYN 071000Z 30003MPS 9999 SCT033 07/M10 Q1022 NOSIG
ZBYN,2003-03-07 11:00,ZBYN 071100Z 26002MPS 9999 SCT033 05/M09 Q1023 NOSIG
ZBYN,2003-03-07 12:00,ZBYN 071200Z 31003MPS 9999 FEW033 03/M10 Q1023 NOSIG
ZBYN,2003-03-07 13:00,ZBYN 071300Z 28003MPS CAVOK 03/M08 Q1024 NOSIG
ZBYN,2003-03-07 14:00,ZBYN 071400Z 29002MPS CAVOK 02/M07 Q1025 NOSIG
ZBYN,2003-03-07 15:00,ZBYN 071500Z 24001MPS CAVOK 03/M08 Q1025 NOSIG
ZBYN,2003-03-07 16:00,ZBYN 071600Z 25002MPS CAVOK 02/M08 Q1025 NOSIG
ZBYN,2003-03-07 17:00,ZBYN 071700Z VRB01MPS CAVOK M01/M07 Q1025
ZBYN,2003-03-07 18:00,ZBYN 071800Z 15001MPS CAVOK M01/M08 Q1026
ZBYN,2003-03-07 19:00,ZBYN 071900Z 06001MPS CAVOK M02/M07 Q1025
ZBYN,2003-03-07 20:00,ZBYN 072000Z 15001MPS CAVOK M02/M06 Q1025
ZBYN,2003-03-07 21:00,ZBYN 072100Z 12001MPS CAVOK M04/M06 Q1025
ZBYN,2003-03-07 22:00,ZBYN 072200Z 12001MPS CAVOK M04/M07 Q1026 NOSIG
ZBYN,2003-03-07 23:00,ZBYN 072300Z 11001MPS CAVOK M04/M08 Q1026 NOSIG
ZBYN,2003-03-08 00:00,ZBYN 080000Z 17001MPS 6000 SKC M01/M05 Q1027 NOSIG
ZBYN,2003-03-08 01:00,ZBYN 080100Z 00000MPS 6000 SKC 03/M07 Q1028 NOSIG
ZBYN,2003-03-08 02:00,ZBYN 080200Z 30004MPS CAVOK 05/M12 Q1028 NOSIG
ZBYN,2003-03-08 03:00,ZBYN 080300Z 32006MPS CAVOK 07/M18 Q1028 NOSIG
ZBYN,2003-03-08 04:00,ZBYN 080400Z 31004MPS CAVOK 08/M17 Q1027 NOSIG
ZBYN,2003-03-08 05:00,ZBYN 080500Z 32002MPS CAVOK 09/M18 Q1027 NOSIG
ZBYN,2003-03-08 06:00,ZBYN 080600Z 31005MPS CAVOK 10/M20 Q1026 NOSIG
ZBYN,2003-03-08 07:00,ZBYN 080700Z 25004MPS CAVOK 10/M12 Q1025 NOSIG
ZBYN,2003-03-08 08:00,ZBYN 080800Z 24002MPS CAVOK 10/M12 Q1025 NOSIG
ZBYN,2003-03-08 09:00,ZBYN 080900Z 20003MPS CAVOK 09/M12 Q1025 NOSIG
ZBYN,2003-03-08 10:00,ZBYN 081000Z 22001MPS CAVOK 07/M11 Q1025 NOSIG
ZBYN,2003-03-08 11:00,ZBYN 081100Z VRB01MPS CAVOK 06/M10 Q1026 NOSIG
ZBYN,2003-03-08 12:00,ZBYN 081200Z VRB01MPS CAVOK 02/M08 Q1026 NOSIG
ZBYN,2003-03-08 13:00,ZBYN 081300Z VRB01MPS CAVOK 02/M07 Q1026 NOSIG
ZBYN,2003-03-08 14:00,ZBYN 081400Z 00000MPS CAVOK 01/M05 Q1027 NOSIG
ZBYN,2003-03-08 15:00,ZBYN 081500Z 15001MPS CAVOK 01/M06 Q1027 NOSIG
ZBYN,2003-03-08 16:00,ZBYN 081600Z 10001MPS CAVOK M00/M06 Q1027 NOSIG
ZBYN,2003-03-08 17:00,ZBYN 081700Z 10001MPS CAVOK M01/M06 Q1028
ZBYN,2003-03-08 18:00,ZBYN 081800Z 12002MPS CAVOK M01/M06 Q1027
ZBYN,2003-03-08 19:00,ZBYN 081900Z 09001MPS CAVOK M01/M06 Q1027
ZBYN,2003-03-08 20:00,ZBYN 082000Z 10003MPS CAVOK M02/M05 Q1026
ZBYN,2003-03-08 21:00,ZBYN 082100Z 12001MPS CAVOK M02/M07 Q1026
ZBYN,2003-03-08 22:00,ZBYN 082200Z 00000MPS CAVOK M03/M06 Q1026 NOSIG
ZBYN,2003-03-08 23:00,ZBYN 082300Z 13002MPS CAVOK M03/M07 Q1027 NOSIG
ZBYN,2003-03-09 00:00,ZBYN 090000Z 00000MPS 5000 FU SKC M02/M05 Q1027 NOSIG
ZBYN,2003-03-09 01:00,ZBYN 090100Z 12001MPS 3500 FU NSC 03/M04 Q1027 NOSIG
ZBYN,2003-03-09 02:00,ZBYN 090200Z VRB01MPS 4000 FU NSC 05/M07 Q1027 NOSIG
ZBYN,2003-03-09 03:00,ZBYN 090300Z VRB01MPS CAVOK 07/M10 Q1026 NOSIG
ZBYN,2003-03-09 04:00,ZBYN 090400Z VRB01MPS CAVOK 08/M09 Q1026 NOSIG
ZBYN,2003-03-09 05:00,ZBYN 090500Z 24002MPS CAVOK 08/M07 Q1024 NOSIG
ZBYN,2003-03-09 06:00,ZBYN 090600Z 23003MPS CAVOK 08/M10 Q1024 NOSIG
ZBYN,2003-03-09 07:00,ZBYN 090700Z 20002MPS CAVOK 09/M08 Q1023 NOSIG
ZBYN,2003-03-09 08:00,ZBYN 090800Z 15002MPS CAVOK 09/M07 Q1023 NOSIG
ZBYN,2003-03-09 09:00,ZBYN 090900Z 17001MPS CAVOK 08/M07 Q1022 NOSIG
ZBYN,2003-03-09 10:00,ZBYN 091000Z 13002MPS CAVOK 07/M06 Q1022 NOSIG
ZBYN,2003-03-09 11:00,ZBYN 091100Z 09001MPS CAVOK 06/M06 Q1022 NOSIG
ZBYN,2003-03-09 12:00,ZBYN 091200Z 09003MPS CAVOK 05/M05 Q1022 NOSIG
ZBYN,2003-03-09 13:00,ZBYN 091300Z 09003MPS CAVOK 05/M05 Q1022 NOSIG
ZBYN,2003-03-09 14:00,ZBYN 091400Z 10004MPS CAVOK 05/M05 Q1022 NOSIG
ZBYN,2003-03-09 15:00,ZBYN 091500Z 09003MPS CAVOK 04/M04 Q1023 NOSIG
ZBYN,2003-03-09 16:00,ZBYN 091600Z 14004MPS CAVOK 05/M02 Q1022 NOSIG
ZBYN,2003-03-09 17:00,ZBYN 091700Z 13003MPS CAVOK 03/M02 Q1022
ZBYN,2003-03-09 18:00,ZBYN 091800Z 12002MPS CAVOK 02/M02 Q1022
ZBYN,2003-03-09 19:00,ZBYN 091900Z 06002MPS CAVOK 01/M02 Q1022
ZBYN,2003-03-09 20:00,ZBYN 092000Z 07002MPS 7000 NSC 01/M02 Q1021
ZBYN,2003-03-09 21:00,ZBYN 092100Z 06002MPS 5000 BR NSC 01/M02 Q1022
ZBYN,2003-03-09 22:00,ZBYN 092200Z 10001MPS 5000 BR NSC 00/M02 Q1021 NOSIG
ZBYN,2003-03-09 23:00,ZBYN 092300Z 08001MPS 3500 R31/1100D BR NSC M00/M02 Q1022 NOSIG
ZBYN,2003-03-10 00:00,ZBYN 100000Z 11003MPS 3000 R31/1000U BR NSC 03/M00 Q1022 NOSIG
ZBYN,2003-03-10 01:00,ZBYN 100100Z 09004MPS 4000 FU NSC 05/M01 Q1023 NOSIG
ZBYN,2003-03-10 02:00,ZBYN 100200Z 12005MPS 8000 NSC 07/M02 Q1023 NOSIG
ZBYN,2003-03-10 03:00,ZBYN 100300Z 12006MPS CAVOK 09/M03 Q1022 NOSIG
ZBYN,2003-03-10 04:00,ZBYN 100400Z 15005MPS CAVOK 10/M04 Q1022 NOSIG
ZBYN,2003-03-10 05:00,ZBYN 100500Z 17007MPS CAVOK 10/M04 Q1021 NOSIG
ZBYN,2003-03-10 06:00,ZBYN 100600Z 16004MPS CAVOK 10/M03 Q1021 NOSIG
ZBYN,2003-03-10 07:00,ZBYN 100700Z 16005MPS CAVOK 10/M03 Q1021 NOSIG
ZBYN,2003-03-10 08:00,ZBYN 100800Z 13005MPS CAVOK 10/M03 Q1020 NOSIG
ZBYN,2003-03-10 09:00,ZBYN 100900Z 12003MPS 4000 FU NSC 09/M02 Q1021 NOSIG
ZBYN,2003-03-10 10:00,ZBYN 101000Z 07006MPS 3000 BLSA NSC 07/M01 Q1022 NOSIG
ZBYN,2003-03-10 11:00,ZBYN 101100Z 12004MPS 8000 NSC 08/M02 Q1023 NOSIG
ZBYN,2003-03-10 12:00,ZBYN 101200Z 07005MPS 4000 BLSA NSC 05/M01 Q1023 NOSIG
ZBYN,2003-03-10 13:00,ZBYN 101300Z 09004MPS 4000 BLSA NSC 05/M01 Q1024 NOSIG
ZBYN,2003-03-10 14:00,ZBYN 101400Z 09004MPS 5000 BLSA NSC 05/M00 Q1025 NOSIG
ZBYN,2003-03-10 15:00,ZBYN 101500Z 10003MPS 5000 BLSA NSC 05/M01 Q1025 NOSIG
ZBYN,2003-03-10 16:00,ZBYN 101600Z 11002MPS 6000 NSC 05/M01 Q1025 NOSIG
ZBYN,2003-03-10 17:00,ZBYN 101700Z 16002MPS 7000 -RA NSC 05/M00 Q1025
ZBYN,2003-03-10 18:00,ZBYN 101800Z 19001MPS 7000 -RA NSC 05/01 Q1025
ZBYN,2003-03-10 19:00,ZBYN 101900Z 06002MPS 5000 -RA NSC 04/02 Q1024
ZBYN,2003-03-10 20:00,ZBYN 102000Z 07002MPS 2500 -RA NSC 03/02 Q1024 NOSIG
ZBYN,2003-03-10 21:00,ZBYN 102100Z 11001MPS 2500 R31/0800N -RA BR NSC 03/02 Q1024
ZBYN,2003-03-10 22:00,ZBYN 102200Z 10002MPS 2000 R31/0800N BR NSC 03/02 Q1024 NOSIG
ZBYN,2003-03-10 23:00,ZBYN 102300Z 11002MPS 2000 R31/0900 BR NSC 03/02 Q1024 NOSIG
ZBYN,2003-03-11 00:00,ZBYN 110000Z VRB01MPS 1400 R31/1300 BR NSC 03/02 Q1025 NOSIG
ZBYN,2003-03-11 01:00,ZBYN 110100Z 13001MPS 1500 R31/1200N BR NSC 04/03 Q1025 NOSIG
ZBYN,2003-03-11 02:00,ZBYN 110200Z 19001MPS 1600 R31/1100N BR NSC 04/03 Q1025 NOSIG
ZBYN,2003-03-11 03:00,ZBYN 110300Z VRB01MPS 1700 R31/1400N BR NSC 06/04 Q1025 NOSIG
ZBYN,2003-03-11 04:00,ZBYN 110400Z 27001MPS 1600 R31/1200N BR NSC 07/04 Q1025 NOSIG
ZBYN,2003-03-11 05:00,ZBYN 110500Z 02003MPS 2500 BR NSC 07/02 Q1025 NOSIG
ZBYN,2003-03-11 06:00,ZBYN 110600Z 01004MPS 5000 BR NSC 08/M00 Q1025 NOSIG
ZBYN,2003-03-11 07:00,ZBYN 110700Z 36004MPS CAVOK 10/M00 Q1025 NOSIG
ZBYN,2003-03-11 08:00,ZBYN 110800Z 35004MPS CAVOK 09/M02 Q1025 NOSIG
ZBYN,2003-03-11 09:00,ZBYN 110900Z 36005MPS CAVOK 09/M03 Q1025 NOSIG
ZBYN,2003-03-11 10:00,ZBYN 111000Z 36004MPS CAVOK 08/M04 Q1026 NOSIG
ZBYN,2003-03-11 11:00,ZBYN 111100Z 01006MPS CAVOK 05/M06 Q1027 NOSIG
ZBYN,2003-03-11 12:00,ZBYN 111200Z 01003MPS CAVOK 04/M06 Q1028 NOSIG
ZBYN,2003-03-11 13:00,ZBYN 111300Z 35004MPS CAVOK 04/M07 Q1029 NOSIG
ZBYN,2003-03-11 14:00,ZBYN 111400Z 36004MPS CAVOK 03/M08 Q1030 NOSIG
ZBYN,2003-03-11 15:00,ZBYN 111500Z 35004MPS CAVOK 03/M08 Q1031 NOSIG
ZBYN,2003-03-11 16:00,ZBYN 111600Z 36003MPS CAVOK 03/M07 Q1031 NOSIG
ZBYN,2003-03-11 17:00,ZBYN 111700Z 05003MPS CAVOK 03/M01 Q1031 NOSIG
ZBYN,2003-03-11 18:00,ZBYN 111800Z 36002MPS CAVOK 02/M06 Q1031 NOSIG
ZBYN,2003-03-11 19:00,ZBYN 111900Z 36004MPS CAVOK 01/M08 Q1031
ZBYN,2003-03-11 20:00,ZBYN 112000Z 36004MPS CAVOK 01/M09 Q1031
ZBYN,2003-03-11 21:00,ZBYN 112100Z 34004MPS CAVOK 00/M10 Q1031
ZBYN,2003-03-11 22:00,ZBYN 112200Z 34004MPS CAVOK 00/M09 Q1031 NOSIG
ZBYN,2003-03-11 23:00,ZBYN 112300Z 34002MPS CAVOK 00/M09 Q1032 NOSIG
ZBYN,2003-03-12 00:00,ZBYN 120000Z 33003MPS 9999 -SN NSC 01/M09 Q1032 NOSIG
ZBYN,2003-03-12 01:00,ZBYN 120100Z 33005MPS CAVOK 01/M09 Q1033 NOSIG
ZBYN,2003-03-12 02:00,ZBYN 120200Z 33005MPS CAVOK 02/M10 Q1033 NOSIG
ZBYN,2003-03-12 03:00,ZBYN 120300Z 33004MPS CAVOK 04/M09 Q1032 NOSIG
ZBYN,2003-03-12 04:00,ZBYN 120400Z 32003MPS CAVOK 05/M07 Q1032 NOSIG
ZBYN,2003-03-12 05:00,ZBYN 120500Z 35002MPS CAVOK 06/M06 Q1031 NOSIG
ZBYN,2003-03-12 06:00,ZBYN 120600Z 04002MPS CAVOK 07/M04 Q1030 NOSIG
ZBYN,2003-03-12 07:00,ZBYN 120700Z VRB01MPS CAVOK 08/M03 Q1029 NOSIG
ZBYN,2003-03-12 08:00,ZBYN 120800Z 06002MPS CAVOK 08/M03 Q1029 NOSIG
ZBYN,2003-03-12 09:00,ZBYN 120900Z 11002MPS CAVOK 08/M03 Q1029 NOSIG
ZBYN,2003-03-12 10:00,ZBYN 121000Z 10003MPS CAVOK 07/M02 Q1029 NOSIG
ZBYN,2003-03-12 11:00,ZBYN 121100Z 08004MPS CAVOK 06/M02 Q1030 NOSIG
ZBYN,2003-03-12 12:00,ZBYN 121200Z 08005MPS CAVOK 04/M04 Q1030 NOSIG
ZBYN,2003-03-12 13:00,ZBYN 121300Z 08005MPS CAVOK 04/M05 Q1031 NOSIG
ZBYN,2003-03-12 14:00,ZBYN 121400Z 08006MPS CAVOK 03/M06 Q1032 NOSIG
ZBYN,2003-03-12 15:00,ZBYN 121500Z 08005MPS CAVOK 03/M06 Q1032 NOSIG
ZBYN,2003-03-12 16:00,ZBYN 121600Z 08006MPS CAVOK 03/M07 Q1032 NOSIG
ZBYN,2003-03-12 17:00,ZBYN 121700Z 07006MPS CAVOK 03/M06 Q1032
ZBYN,2003-03-12 18:00,ZBYN 121800Z 08006MPS CAVOK 02/M07 Q1031
ZBYN,2003-03-12 19:00,ZBYN 121900Z 08004MPS CAVOK 02/M07 Q1031
ZBYN,2003-03-12 20:00,ZBYN 122000Z 07004MPS CAVOK 02/M07 Q1031
ZBYN,2003-03-12 21:00,ZBYN 122100Z 07005MPS CAVOK 02/M07 Q1031
ZBYN,2003-03-12 22:00,ZBYN 122200Z 08004MPS CAVOK 02/M09 Q1031 NOSIG
ZBYN,2003-03-12 23:00,ZBYN 122300Z 06004MPS CAVOK 02/M09 Q1031 NOSIG
ZBYN,2003-03-13 00:00,ZBYN 130000Z 07006MPS 9999 -SN NSC 02/M08 Q1032 NOSIG
ZBYN,2003-03-13 01:00,ZBYN 130100Z 06006MPS 9999 -SN SCT030 OVC100 00/M05 Q1032 NOSIG
ZBYN,2003-03-13 02:00,ZBYN 130200Z 06005MPS 9999 SCT030 OVC100 01/M06 Q1031 NOSIG
ZBYN,2003-03-13 03:00,ZBYN 130300Z 05005MPS 4000 -SN BR SCT030 OVC100 02/M05 Q1031 NOSIG
ZBYN,2003-03-13 04:00,ZBYN 130400Z 08005MPS 9999 FEW030 BKN100 02/M04 Q1031 NOSIG
ZBYN,2003-03-13 05:00,ZBYN 130500Z 05005MPS 5000 -SN BR FEW023 SCT033 OVC100 03/M03 Q1030 NOSIG
ZBYN,2003-03-13 06:00,ZBYN 130600Z 05004MPS 3500 -SN BR FEW020 OVC090 03/M02 Q1029 NOSIG
ZBYN,2003-03-13 07:00,ZBYN 130700Z 04003MPS 9999 -SN SCT030 OVC090 04/M02 Q1028 NOSIG
ZBYN,2003-03-13 08:00,ZBYN 130800Z 06004MPS 9999 BKN030 OVC090 04/M02 Q1027 NOSIG
ZBYN,2003-03-13 09:00,ZBYN 130900Z 06004MPS 9999 BKN040 OVC100 04/M02 Q1027 NOSIG
ZBYN,2003-03-13 10:00,ZBYN 131000Z 06004MPS 9999 -SN FEW040 OVC100 03/M02 Q1027 NOSIG
ZBYN,2003-03-13 11:00,ZBYN 131100Z 08005MPS 6000 -SN FEW040 OVC100 02/M02 Q1027 NOSIG
ZBYN,2003-03-13 12:00,ZBYN 131200Z 08004MPS 6000 -SN SCT030 OVC100 01/M01 Q1028 NOSIG
ZBYN,2003-03-13 13:00,ZBYN 131300Z 06004MPS 3000 -SN BR BKN026 OVC100 02/M02 Q1029 NOSIG
ZBYN,2003-03-13 14:00,ZBYN 131400Z 08004MPS 1600 R31/1400 -SN BR BKN023 OVC050 00/M01 Q1028 NOSIG
ZBYN,2003-03-13 15:00,ZBYN 131500Z 07004MPS 2100 R31/0900 -SN BR BKN020 OVC050 00/M01 Q1028 NOSIG
ZBYN,2003-03-13 16:00,ZBYN 131600Z 06002MPS 2000 R31/0900 -SN BR FEW020 OVC050 00/M01 Q1027 NOSIG
ZBYN,2003-03-13 17:00,ZBYN 131700Z 05002MPS 1300 R31/1000 -SN BR FEW020 OVC050 00/M01 Q1027
ZBYN,2003-03-13 18:00,ZBYN 131800Z 28001MPS 0800 R31/0400N -SNRA FG FEW020 OVC050 01/M00 Q1026
ZBYN,2003-03-13 19:00,ZBYN 131900Z AUTO 00000KT 1/2SM RMK IEM_DS3505
ZBYN,2003-03-13 20:00,ZBYN 132000Z 00000MPS 0700 R31/0300N -SNRA FG SCT020 OVC050 01/M00 Q1024 NOSIG
ZBYN,2003-03-13 21:00,ZBYN 132100Z 31001MPS 0600 R31/0250N -SG FG BKN013 OVC050 01/M00 Q1024
ZBYN,2003-03-13 22:00,ZBYN 132200Z AUTO 36002KT 1SM 00/00 A3024 RMK T00000000 IEM_DS3505
ZBYN,2003-03-13 23:00,ZBYN 132300Z VRB01MPS 0500 R31/1000N SN FG FEW020 OVC050 00/M00 Q1024 NOSIG
ZBYN,2003-03-14 00:00,ZBYN 140000Z 35001MPS 0300 R31/0350N SN FG FEW020 OVC040 01/M00 Q1024 NOSIG
ZBYN,2003-03-14 01:00,ZBYN 140100Z 36001MPS 0500 R31/0400N SN FG OVC040 01/00 Q1024 NOSIG
ZBYN,2003-03-14 02:00,ZBYN 140200Z 33001MPS 0600 R31/0450N SNRA FG OVC033 01/01 Q1024 NOSIG
ZBYN,2003-03-14 03:00,ZBYN 140300Z 35001MPS 0700 R31/0500N -SNRA FG OVC040 02/01 Q1023 NOSIG
ZBYN,2003-03-14 04:00,ZBYN 140400Z 32001MPS 0800 R31/0650N -SNRA FG NSC 02/02 Q1023 NOSIG
ZBYN,2003-03-14 05:00,ZBYN 140500Z 01001MPS 0500 R31/0550 -SNRA FG NSC 03/02 Q1022 NOSIG
ZBYN,2003-03-14 06:00,ZBYN 140600Z 07003MPS 0800 R31/1000 -RA FG NSC 04/03 Q1021 NOS IG
ZBYN,2003-03-14 07:00,ZBYN 140700Z VRB01MPS 1300 R31/0900 BR NSC 04/03 Q1020 NOSIG
ZBYN,2003-03-14 08:00,ZBYN 140800Z 08003MPS 2000 -RA BR NSC 04/02 Q1020 NOSIG
ZBYN,2003-03-14 09:00,ZBYN 140900Z 08004MPS 3000 BR NSC 04/01 Q1019 NOSIG
ZBYN,2003-03-14 10:00,ZBYN 141000Z 07005MPS 3000 BR NSC 03/M00 Q1020 NOSIG
ZBYN,2003-03-14 11:00,ZBYN 141100Z 07004MPS 6000 OVC040 03/M01 Q1020 NOSIG
ZBYN,2003-03-14 12:00,ZBYN 141200Z 08005MPS 6000 OVC030 02/M01 Q1020 NOSIG
ZBYN,2003-03-14 13:00,ZBYN 141300Z 09005MPS 4000 BR OVC040 02/M01 Q1021 NOSIG
ZBYN,2003-03-14 14:00,ZBYN 141400Z 08005MPS 4000 BR OVC040 02/M01 Q1021 NOSIG
ZBYN,2003-03-14 15:00,ZBYN 141500Z 09004MPS 6000 NSC 02/M01 Q1021 NOSIG
ZBYN,2003-03-14 16:00,ZBYN 141600Z 09003MPS 6000 NSC 02/M01 Q1020 NOSIG
ZBYN,2003-03-14 17:00,ZBYN 141700Z 09003MPS 4000 BR NSC 02/M01 Q1020
ZBYN,2003-03-14 18:00,ZBYN 141800Z 09004MPS 6000 NSC 02/M01 Q1018
ZBYN,2003-03-14 19:00,ZBYN 141900Z 09003MPS 6000 NSC 02/M01 Q1018
ZBYN,2003-03-14 20:00,ZBYN 142000Z 09003MPS 6000 NSC 02/M01 Q1017
ZBYN,2003-03-14 21:00,ZBYN 142100Z 10003MPS 8000 NSC 02/M01 Q1018 NOSIG
ZBYN,2003-03-14 22:00,ZBYN 142200Z 10004MPS 8000 NSC 02/M00 Q1017 NOSIG
ZBYN,2003-03-14 23:00,ZBYN 142300Z 10005MPS 7000 SCT040 SCT050 02/M00 Q1016 NOSIG
ZBYN,2003-03-15 00:00,ZBYN 150000Z 11003MPS 5000 BR OVC040 02/M00 Q1016 NOSIG
ZBYN,2003-03-15 01:00,ZBYN 150100Z 10003MPS 5000 BR NSC 03/01 Q1018 NOSIG
ZBYN,2003-03-15 02:00,ZBYN 150200Z 09003MPS 5000 BR NSC 03/01 Q1018 NOSIG
ZBYN,2003-03-15 03:00,ZBYN 150300Z 11004MPS 6000 NSC 04/01 Q1017 NOSIG
ZBYN,2003-03-15 04:00,ZBYN 150400Z 09004MPS 8000 NSC 04/00 Q1016 NOSIG
ZBYN,2003-03-15 05:00,ZBYN 150500Z 10004MPS 9999 BKN040 OVC100 04/M00 Q1015 NOSIG
ZBYN,2003-03-15 06:00,ZBYN 150600Z 09005MPS 4000 -SNRA BR BKN040 OVC100 03/M00 Q1014 NOSIG
ZBYN,2003-03-15 07:00,ZBYN 150700Z 08004MPS 1600 R31/1300N -SNRA BR BKN040 OVC100 03/01 Q1014 NOSIG
ZBYN,2003-03-15 08:00,ZBYN 150800Z 08004MPS 0700 R31/0650N SN FG SCT020 OVC050 01/M00 Q1015 NOSIG
ZBYN,2003-03-15 09:00,ZBYN 150900Z 07004MPS 0700 R31/0650N SN FG FEW020 OVC040 01/M00 Q1015 NOSIG
ZBYN,2003-03-15 10:00,ZBYN 151000Z 08005MPS 0900 R31/0700N SN FG OVC033 00/M01 Q1016 NOSIG
ZBYN,2003-03-15 11:00,ZBYN 151100Z 08006MPS 6000 -SN OVC033 00/M01 Q1016 NOSIG
ZBYN,2003-03-15 12:00,ZBYN 151200Z 08005MPS 7000 -SN BKN040 OVC090 00/M01 Q1016 NOSIG
ZBYN,2003-03-15 13:00,ZBYN 151300Z 06004MPS 8000 -SN BKN040 OVC090 00/M02 Q1017 NOSIG
ZBYN,2003-03-15 14:00,ZBYN 151400Z 08004MPS 6000 -SN NSC 00/M02 Q1017 NOSIG
ZBYN,2003-03-15 15:00,ZBYN 151500Z 07003MPS 5000 -SN BR NSC M00/M02 Q1017 NOSIG
ZBYN,2003-03-15 16:00,ZBYN 151600Z 05004MPS 7000 -SN NSC 00/M02 Q1017 NOSIG
ZBYN,2003-03-15 17:00,ZBYN 151700Z 04002MPS 5000 -SN BR NSC 00/M02 Q1017 NOSIG
ZBYN,2003-03-15 18:00,ZBYN 151800Z 07003MPS 9999 -SN NSC M00/M03 Q1017
ZBYN,2003-03-15 19:00,ZBYN 151900Z 07003MPS CAVOK 00/M03 Q1017
ZBYN,2003-03-15 20:00,ZBYN 152000Z 06003MPS 6000 BKN040 OVC090 00/M03 Q1017
ZBYN,2003-03-15 21:00,ZBYN 152100Z 00000MPS 3000 BR BKN040 OVC090 M00/M02 Q1018
ZBYN,2003-03-15 22:00,ZBYN 152200Z 06002MPS 4000 BR OVC040 M00/M03 Q1018 NOSIG
ZBYN,2003-03-15 23:00,ZBYN 152300Z 10002MPS CAVOK M01/M03 Q1018 NOSIG
ZBYN,2003-03-16 00:00,ZBYN 160000Z 09002MPS 8000 NSC 00/M03 Q1019 NOSIG
ZBYN,2003-03-16 00:30,ZBYN 160030Z 03001MPS 4000 BR NSC 01/M02 Q1019 NOSIG
ZBYN,2003-03-16 01:00,ZBYN 160100Z 33001MPS 4000 BR NSC 01/M02 Q1019 NOSIG
ZBYN,2003-03-16 01:30,ZBYN 160130Z 00000MPS 4000 BR NSC 02/M02 Q1020 NOSIG
ZBYN,2003-03-16 02:00,ZBYN 160200Z 26001MPS 4000 BR NSC 03/M02 Q1020 NOSIG
ZBYN,2003-03-16 02:30,ZBYN 160230Z 00000MPS 4000 R31/1300N BR NSC 03/M02 Q1020 NOSIG
ZBYN,2003-03-16 03:00,ZBYN 160300Z VRB01MPS 6000 NSC 04/M02 Q1021 NOSIG
ZBYN,2003-03-16 04:00,ZBYN 160400Z VRB01MPS 6000 NSC 05/M01 Q1020 NOSIG
ZBYN,2003-03-16 04:30,ZBYN 160430Z 27001MPS 7000 NSC 06/M00 Q1020 NOSIG
ZBYN,2003-03-16 05:00,ZBYN 160500Z 24002MPS 7000 NSC 06/M00 Q1020 NOSIG
ZBYN,2003-03-16 06:00,ZBYN 160600Z 28002MPS 6000 NSC 07/M00 Q1020 NOSIG
ZBYN,2003-03-16 07:00,ZBYN 160700Z 27002MPS 6000 NSC 08/00 Q1019 NOSIG
ZBYN,2003-03-16 08:00,ZBYN 160800Z 27003MPS 5000 HZ NSC 08/M00 Q1019 NOSIG
ZBYN,2003-03-16 09:00,ZBYN 160900Z 25003MPS 4000 HZ NSC 08/01 Q1020 NOSIG
ZBYN,2003-03-16 10:00,ZBYN 161000Z 26002MPS 4000 HZ NSC 07/01 Q1020 NOSIG
ZBYN,2003-03-16 11:00,ZBYN 161100Z 25002MPS 3000 BR NSC 06/02 Q1021 NOSIG
ZBYN,2003-03-16 12:00,ZBYN 161200Z 27001MPS 3000 BR NSC 06/02 Q1022 NOSIG
ZBYN,2003-03-16 13:00,ZBYN 161300Z 36001MPS 8000 NSC 04/01 Q1023 NOSIG
ZBYN,2003-03-16 14:00,ZBYN 161400Z 35002MPS 6000 NSC 04/01 Q1023 NOSIG
ZBYN,2003-03-16 15:00,ZBYN 161500Z 35002MPS 6000 NSC 05/01 Q1024 NOSIG
ZBYN,2003-03-16 16:00,ZBYN 161600Z 33002MPS 7000 NSC 04/M00 Q1024 NOSIG
ZBYN,2003-03-16 17:00,ZBYN 161700Z 32002MPS 6000 NSC 02/M01 Q1024
ZBYN,2003-03-16 18:00,ZBYN 161800Z 33004MPS 6000 NSC 03/00 Q1024
ZBYN,2003-03-16 19:00,ZBYN 161900Z 32005MPS 8000 NSC 03/M00 Q1024
ZBYN,2003-03-16 20:00,ZBYN 162000Z 33005MPS 8000 NSC 03/M01 Q1024 NOSIG
ZBYN,2003-03-16 21:00,ZBYN 162100Z 02002MPS 7000 NSC 02/M01 Q1025
ZBYN,2003-03-16 21:30,ZBYN 162130Z 05001MPS 8000 NSC 02/M01 Q1024
ZBYN,2003-03-16 22:00,ZBYN 162200Z 01001MPS 6000 NSC 01/M00 Q1024 NOSIG
ZBYN,2003-03-16 22:30,ZBYN 162230Z VRB01MPS 7000 NSC 01/M00 Q1025 NOSIG
ZBYN,2003-03-16 23:00,ZBYN 162300Z 24001MPS 7000 NSC 02/M02 Q1025 NOSIG
ZBYN,2003-03-16 23:30,ZBYN 162330Z VRB01MPS 6000 NSC 02/M02 Q1025 NOSIG
ZBYN,2003-03-17 00:00,ZBYN 170000Z 36001MPS 5000 BR NSC 02/M01 Q1026 NOSIG
ZBYN,2003-03-17 01:00,ZBYN 170100Z 01002MPS 7000 NSC 04/M02 Q1026 NOSIG
ZBYN,2003-03-17 02:00,ZBYN 170200Z 04002MPS 8000 NSC 06/M00 Q1027 NOSIG
ZBYN,2003-03-17 03:00,ZBYN 170300Z 08004MPS 9999 FEW033 SCT200 07/M01 Q1027 NOSIG
ZBYN,2003-03-17 04:00,ZBYN 170400Z 09003MPS 9999 SCT033 08/M01 Q1027 NOSIG
ZBYN,2003-03-17 05:00,ZBYN 170500Z 11002MPS 9999 BKN040 09/M02 Q1026 NOSIG
ZBYN,2003-03-17 06:00,ZBYN 170600Z VRB01MPS 9999 BKN040 09/M02 Q1025 NOSIG
ZBYN,2003-03-17 07:00,ZBYN 170700Z VRB01MPS 9999 SCT040 10/M03 Q1025 NOSIG
ZBYN,2003-03-17 08:00,ZBYN 170800Z 16001MPS CAVOK 10/M02 Q1024 NOSIG
ZBYN,2003-03-17 09:00,ZBYN 170900Z VRB01MPS CAVOK 10/M02 Q1025 NOSIG
ZBYN,2003-03-17 10:00,ZBYN 171000Z 00000MPS CAVOK 09/M02 Q1025 NOSIG
ZBYN,2003-03-17 11:00,ZBYN 171100Z 21001MPS CAVOK 07/M01 Q1025 NOSIG
ZBYN,2003-03-17 12:00,ZBYN 171200Z 10001MPS CAVOK 05/M01 Q1026 NOSIG
ZBYN,2003-03-17 13:00,ZBYN 171300Z 09002MPS CAVOK 06/M01 Q1027 NOSIG
ZBYN,2003-03-17 14:00,ZBYN 171400Z 08003MPS CAVOK 05/M01 Q1027 NOSIG
ZBYN,2003-03-17 15:00,ZBYN 171500Z 08004MPS CAVOK 04/M02 Q1027 NOSIG
ZBYN,2003-03-17 16:00,ZBYN 171600Z 09003MPS CAVOK 04/M02 Q1027 NOSIG
ZBYN,2003-03-17 17:00,ZBYN 171700Z 12001MPS CAVOK 01/M02 Q1027
ZBYN,2003-03-17 18:00,ZBYN 171800Z AUTO 00000KT 6SM 00/M02 RMK SLP304 T00001023 52006 IEM_DS3505
ZBYN,2003-03-17 21:00,ZBYN 172100Z 09002MPS 1400 R31/0700N BR NSC M00/M01 Q1027
ZBYN,2003-03-17 22:00,ZBYN 172200Z 11001MPS 1200 R31/0500N BR NSC 00/M01 Q1027 NOSIG
ZBYN,2003-03-17 23:00,ZBYN 172300Z 08002MPS 1200 R31/1000N BR NSC 02/01 Q1027 NOSIG
ZBYN,2003-03-18 00:00,ZBYN 180000Z 11001MPS 0900 R31/1200N FG SCT033 OVC100 02/01 Q1027 NOSIG
ZBYN,2003-03-18 01:00,ZBYN 180100Z 00000MPS 0800 R31/1200 FG SCT033 OVC090 03/02 Q1028 NOSIG
ZBYN,2003-03-18 02:00,ZBYN 180200Z VRB01MPS 0800 R31/1100 FG NSC 04/02 Q1028 NOSIG
ZBYN,2003-03-18 03:00,ZBYN 180300Z 14002MPS 1000 R31/1100 BR SCT020 OVC090 05/03 Q1027 NOSIG
ZBYN,2003-03-18 04:00,ZBYN 180400Z VRB01MPS 1200 BR SCT020 OVC090 06/03 Q1027 NOSIG
ZBYN,2003-03-18 05:00,ZBYN 180500Z 00000MPS 1600 HZ NSC 08/02 Q1026 NOSIG
ZBYN,2003-03-18 06:00,ZBYN 180600Z VRB01MPS 2000 HZ NSC 10/02 Q1025 NOSIG
ZBYN,2003-03-18 07:00,ZBYN 180700Z 23002MPS 2000 HZ NSC 10/03 Q1024 NOSIG
ZBYN,2003-03-18 08:00,ZBYN 180800Z 23002MPS 1700 HZ NSC 10/03 Q1023 NOSIG
ZBYN,2003-03-18 09:00,ZBYN 180900Z 24001MPS 2000 HZ NSC 10/02 Q1023 NOSIG
ZBYN,2003-03-18 10:00,ZBYN 181000Z 20002MPS 1600 HZ NSC 09/03 Q1023 NOSIG
ZBYN,2003-03-18 11:00,ZBYN 181100Z 00000MPS 2000 HZ NSC 07/03 Q1024 NOSIG
ZBYN,2003-03-18 12:00,ZBYN 181200Z 12002MPS 2400 BR NSC 06/03 Q1024 NOSIG
ZBYN,2003-03-18 13:00,ZBYN 181300Z 08001MPS 2000 BR NSC 06/03 Q1025 NOSIG
ZBYN,2003-03-18 14:00,ZBYN 181400Z 11001MPS 1700 BR NSC 05/03 Q1025 NOSIG
ZBYN,2003-03-18 15:00,ZBYN 181500Z 13002MPS 2000 BR NSC 04/02 Q1024 NOSIG
ZBYN,2003-03-18 16:00,ZBYN 181600Z 08001MPS 1700 R31/1000 BR NSC 03/01 Q1024 NOSIG
ZBYN,2003-03-18 17:00,ZBYN 181700Z 11001MPS 2000 BR NSC 02/M00 Q1024
ZBYN,2003-03-18 18:00,ZBYN 181800Z 10002MPS 2000 BR NSC 01/M01 Q1024
ZBYN,2003-03-18 19:00,ZBYN 181900Z 10002MPS 2000 R31/1300 BR NSC 02/00 Q1023
ZBYN,2003-03-18 20:00,ZBYN 182000Z 11002MPS 2000 BR SKC 00/M01 Q1023
ZBYN,2003-03-18 21:00,ZBYN 182100Z 10001MPS 2000 R31/0800 BR SKC M01/M02 Q1023 NOSIG
ZBYN,2003-03-18 22:00,ZBYN 182200Z 08001MPS 1700 R31/0900N BR SKC 00/M00 Q1023 NOSIG
ZBYN,2003-03-18 23:00,ZBYN 182300Z 11002MPS 1400 R31/0900N BR SKC M00/M01 Q1023 NOSIG
ZBYN,2003-03-19 00:00,ZBYN 190000Z 12001MPS 0800 R31/0800 FG SKC 01/00 Q1023 NOSIG
ZBYN,2003-03-19 01:00,ZBYN 190100Z 09002MPS 1000 R31/1000N BR SKC 04/02 Q1023 NOSIG
ZBYN,2003-03-19 02:00,ZBYN 190200Z 18001MPS 1200 R31/1100N BR SKC 06/02 Q1023 NOSIG
ZBYN,2003-03-19 03:00,ZBYN 190300Z VRB01MPS 1600 BR SKC 09/02 Q1022 NOSIG
ZBYN,2003-03-19 04:00,ZBYN 190400Z 21002MPS 3000 FU SKC 11/01 Q1021 NOSIG
ZBYN,2003-03-19 05:00,ZBYN 190500Z 22002MPS 5000 FU SKC 13/00 Q1020 NOSIG
ZBYN,2003-03-19 05:30,ZBYN 190530Z 22002MPS 6000 SKC 14/M00 Q1019 NOSIG
ZBYN,2003-03-19 06:00,ZBYN 190600Z 24003MPS CAVOK 14/M01 Q1019 NOSIG
ZBYN,2003-03-19 06:30,ZBYN 190630Z 23004MPS CAVOK 14/M01 Q1018 NOSIG
ZBYN,2003-03-19 07:00,ZBYN 190700Z 23004MPS CAVOK 15/M01 Q1017 NOSIG
ZBYN,2003-03-19 07:30,ZBYN 190730Z 24004MPS CAVOK 15/M01 Q1017 NOSIG
ZBYN,2003-03-19 08:00,ZBYN 190800Z 23003MPS 8000 NSC 15/M01 Q1017 NOSIG
ZBYN,2003-03-19 08:30,ZBYN 190830Z 23003MPS CAVOK 15/M03 Q1016 NOSIG
ZBYN,2003-03-19 09:00,ZBYN 190900Z 24003MPS CAVOK 14/M01 Q1016 NOSIG
ZBYN,2003-03-19 09:30,ZBYN 190930Z 24002MPS 9999 FEW033 13/M03 Q1016 NOSIG
ZBYN,2003-03-19 10:00,ZBYN 191000Z 23003MPS 6000 FEW033 13/01 Q1016 NOSIG
ZBYN,2003-03-19 10:30,ZBYN 191030Z 22002MPS 6000 SKC 12/02 Q1016 NOSIG
ZBYN,2003-03-19 11:00,ZBYN 191100Z 22002MPS 7000 SKC 11/02 Q1016 NOSIG
ZBYN,2003-03-19 12:00,ZBYN 191200Z 21002MPS 8000 SKC 10/02 Q1015 NOSIG
ZBYN,2003-03-19 13:00,ZBYN 191300Z 11002MPS 6000 SKC 07/02 Q1016 NOSIG
ZBYN,2003-03-19 14:00,ZBYN 191400Z 17001MPS 5000 BR SKC 08/02 Q1016 NOSIG
ZBYN,2003-03-19 15:00,ZBYN 191500Z 21004MPS 4000 BR NSC 09/03 Q1016 NOSIG
ZBYN,2003-03-19 16:00,ZBYN 191600Z 31001MPS 7000 NSC 08/02 Q1016 NOSIG
ZBYN,2003-03-19 17:00,ZBYN 191700Z 00000MPS 9999 -RA NSC 08/04 Q1016
ZBYN,2003-03-19 18:00,ZBYN 191800Z 36003MPS 9999 -RA NSC 07/05 Q1016
ZBYN,2003-03-19 19:00,ZBYN 191900Z AUTO 28002KT 7SM 06/05 A3003 RMK T00600050 IEM_DS3505
ZBYN,2003-03-19 20:00,ZBYN 192000Z 16002MPS CAVOK 06/04 Q1015
ZBYN,2003-03-19 21:00,ZBYN 192100Z 18001MPS CAVOK 05/04 Q1016
ZBYN,2003-03-19 22:00,ZBYN 192200Z 00000MPS CAVOK 03/02 Q1016 NOSIG
ZBYN,2003-03-19 23:00,ZBYN 192300Z 31004MPS CAVOK 02/01 Q1017 NOSIG
ZBYN,2003-03-20 00:00,ZBYN 200000Z 29006MPS CAVOK 05/M04 Q1017 NOSIG
ZBYN,2003-03-20 01:00,ZBYN 200100Z 30007MPS CAVOK 07/M09 Q1018 NOSIG
ZBYN,2003-03-20 02:00,ZBYN 200200Z 30006MPS CAVOK 08/M13 Q1018 NOSIG
ZBYN,2003-03-20 03:00,ZBYN 200300Z 32006MPS CAVOK 09/M14 Q1018 NOSIG
ZBYN,2003-03-20 04:00,ZBYN 200400Z AUTO 30012KT 6SM 10/M13 A3006 RMK T01001130 IEM_DS3505
ZBYN,2003-03-20 05:00,ZBYN 200500Z 29007MPS CAVOK 11/M13 Q1018 NOSIG
ZBYN,2003-03-20 06:00,ZBYN 200600Z 30008MPS CAVOK 11/M13 Q1018 NOSIG
ZBYN,2003-03-20 07:00,ZBYN 200700Z 35009MPS 9999 SCT033 09/M11 Q1019 NOSIG
ZBYN,2003-03-20 08:00,ZBYN 200800Z 32009MPS 9999 FEW033 09/M15 Q1019 NOSIG
ZBYN,2003-03-20 09:00,ZBYN 200900Z 35008MPS CAVOK 08/M16 Q1020 NOSIG
ZBYN,2003-03-20 10:00,ZBYN 201000Z 36005MPS CAVOK 07/M16 Q1021 NOSIG
ZBYN,2003-03-20 11:00,ZBYN 201100Z 36004MPS CAVOK 05/M14 Q1022 NOSIG
ZBYN,2003-03-20 12:00,ZBYN 201200Z 05002MPS CAVOK 03/M10 Q1023 NOSIG
ZBYN,2003-03-20 13:00,ZBYN 201300Z 04003MPS CAVOK 03/M09 Q1024 NOSIG
ZBYN,2003-03-20 14:00,ZBYN 201400Z 01002MPS CAVOK 02/M10 Q1024 NOSIG
ZBYN,2003-03-20 15:00,ZBYN 201500Z 03002MPS CAVOK 02/M09 Q1025 NOSIG
ZBYN,2003-03-20 16:00,ZBYN 201600Z AUTO 36004KT 6SM 01/M09 A3027 RMK T00101090 IEM_DS3505
ZBYN,2003-03-20 17:00,ZBYN 201700Z VRB01MPS CAVOK 00/M10 Q1026
ZBYN,2003-03-20 18:00,ZBYN 201800Z 00000MPS CAVOK M01/M10 Q1026
ZBYN,2003-03-20 19:00,ZBYN 201900Z 02002MPS CAVOK M01/M11 Q1027
ZBYN,2003-03-20 20:00,ZBYN 202000Z 31006MPS CAVOK M02/M09 Q1025
ZBYN,2003-03-20 21:00,ZBYN 202100Z 36003MPS CAVOK M00/M11 Q1027
ZBYN,2003-03-20 22:00,ZBYN 202200Z 33004MPS CAVOK M00/M11 Q1027 NOSIG
ZBYN,2003-03-20 23:00,ZBYN 202300Z 35005MPS CAVOK M00/M11 Q1027 NOSIG
ZBYN,2003-03-21 00:00,ZBYN 210000Z 01004MPS CAVOK 01/M12 Q1028 NOSIG
ZBYN,2003-03-21 01:00,ZBYN 210100Z 36002MPS CAVOK 04/M14 Q1029 NOSIG
ZBYN,2003-03-21 02:00,ZBYN 210200Z 35006MPS CAVOK 05/M13 Q1029 NOSIG
ZBYN,2003-03-21 03:00,ZBYN 210300Z VRB01MPS CAVOK 06/M14 Q1029 NOSIG
ZBYN,2003-03-21 04:00,ZBYN 210400Z 15002MPS CAVOK 07/M13 Q1029 NOSIG
ZBYN,2003-03-21 05:00,ZBYN 210500Z 13002MPS CAVOK 09/M14 Q1029 NOSIG
ZBYN,2003-03-21 06:00,ZBYN 210600Z 20002MPS CAVOK 10/M13 Q1027 NOSIG
ZBYN,2003-03-21 07:00,ZBYN 210700Z 11002MPS CAVOK 11/M13 Q1026 NOSIG
ZBYN,2003-03-21 08:00,ZBYN 210800Z 15002MPS CAVOK 11/M14 Q1026 NOSIG
ZBYN,2003-03-21 09:00,ZBYN 210900Z 00000MPS CAVOK 11/M14 Q1026 NOSIG
ZBYN,2003-03-21 10:00,ZBYN 211000Z 00000MPS CAVOK 10/M12 Q1026 NOSIG
ZBYN,2003-03-21 11:00,ZBYN 211100Z 07001MPS CAVOK 08/M08 Q1026 NOSIG
ZBYN,2003-03-21 12:00,ZBYN 211200Z 07002MPS CAVOK 06/M06 Q1027 NOSIG
ZBYN,2003-03-21 13:00,ZBYN 211300Z 08004MPS CAVOK 06/M07 Q1027 NOSIG
ZBYN,2003-03-21 14:00,ZBYN 211400Z 07007MPS CAVOK 05/M07 Q1027 NOSIG
ZBYN,2003-03-21 15:00,ZBYN 211500Z 07007MPS CAVOK 05/M07 Q1028 NOSIG
ZBYN,2003-03-21 16:00,ZBYN 211600Z 07002MPS CAVOK 04/M07 Q1028 NOSIG
ZBYN,2003-03-21 17:00,ZBYN 211700Z 10002MPS CAVOK 03/M06 Q1028
ZBYN,2003-03-21 18:00,ZBYN 211800Z 09004MPS CAVOK 03/M06 Q1027
ZBYN,2003-03-21 19:00,ZBYN 211900Z 09003MPS CAVOK 03/M06 Q1027
ZBYN,2003-03-21 20:00,ZBYN 212000Z VRB01MPS CAVOK 00/M06 Q1026
ZBYN,2003-03-21 21:00,ZBYN 212100Z 10002MPS CAVOK M01/M05 Q1026
ZBYN,2003-03-21 22:00,ZBYN 212200Z 11002MPS CAVOK M01/M05 Q1026 NOSIG
ZBYN,2003-03-21 23:00,ZBYN 212300Z 09002MPS CAVOK 01/M04 Q1026 NOSIG
ZBYN,2003-03-22 00:00,ZBYN 220000Z 10002MPS CAVOK 04/M04 Q1025 NOSIG
ZBYN,2003-03-22 01:00,ZBYN 220100Z 12002MPS CAVOK 05/M05 Q1026 NOSIG
ZBYN,2003-03-22 02:00,ZBYN 220200Z 14001MPS CAVOK 06/M05 Q1025 NOSIG
ZBYN,2003-03-22 03:00,ZBYN 220300Z VRB01MPS CAVOK 08/M07 Q1024 NOSIG
ZBYN,2003-03-22 04:00,ZBYN 220400Z VRB01MPS CAVOK 08/M07 Q1024 NOSIG
ZBYN,2003-03-22 05:00,ZBYN 220500Z VRB01MPS CAVOK 07/M04 Q1023 NOSIG
ZBYN,2003-03-22 06:00,ZBYN 220600Z 26003MPS 8000 NSC 07/M04 Q1022 NOSIG
ZBYN,2003-03-22 07:00,ZBYN 220700Z 16002MPS 5000 -RA NSC 05/M00 Q1022 NOSIG
ZBYN,2003-03-22 08:00,ZBYN 220800Z VRB01MPS 1300 -RA BR OVC040 02/02 Q1022 NOSIG
ZBYN,2003-03-22 09:00,ZBYN 220900Z 20002MPS 1000 R31/1000 -RA BR OVC030 03/02 Q1022 NOSIG
ZBYN,2003-03-22 10:00,ZBYN 221000Z 24002MPS 1300 -RA BR OVC020 03/02 Q1022 NOSIG
ZBYN,2003-03-22 11:00,ZBYN 221100Z 20001MPS 1600 -RA BR SCT020 OVC040 03/02 Q1022 NOSIG
ZBYN,2003-03-22 12:00,ZBYN 221200Z 18001MPS 1800 BR SCT040 OVC100 03/02 Q1022 NOSIG
ZBYN,2003-03-22 13:00,ZBYN 221300Z 15003MPS 1200 R31/1400 BR SCT040 BKN100 03/02 Q1022 NOSIG
ZBYN,2003-03-22 14:00,ZBYN 221400Z 13002MPS 1000 R31/0500N BR SCT040 BKN100 01/01 Q1022 NOSIG
ZBYN,2003-03-22 15:00,ZBYN 221500Z 11001MPS 0900 R31/0650N FG OVC040 01/00 Q1021 NOSIG
ZBYN,2003-03-22 16:00,ZBYN 221600Z 00000MPS 0600 R31/1200N FG OVC040 02/01 Q1020 NOSIG
ZBYN,2003-03-22 17:00,ZBYN 221700Z 11001MPS 0600 R31/0600N FG NSC 00/M00 Q1020
ZBYN,2003-03-22 18:00,ZBYN 221800Z 00000MPS 1200 R31/0900N BR NSC 01/01 Q1020
ZBYN,2003-03-22 19:00,ZBYN 221900Z 17001MPS 0100 R31/M0050 FG VV003 01/00 Q1020
ZBYN,2003-03-22 20:00,ZBYN 222000Z VRB01MPS 0400 R31/0150 FG NSC 01/01 Q1019 NOSIG
ZBYN,2003-03-22 21:00,ZBYN 222100Z 13001MPS 0600 R31/0300 FG NSC 01/01 Q1018 NOSIG
ZBYN,2003-03-22 22:00,ZBYN 222200Z 11001MPS 0600 R31/0700 FG NSC 01/01 Q1018 NOSIG
ZBYN,2003-03-22 23:00,ZBYN 222300Z 00000MPS 0400 R31/0800D FG OVC012 02/01 Q1018 NOSIG
ZBYN,2003-03-23 00:00,ZBYN 230000Z 25001MPS 0300 R31/0700 FG OVC012 02/02 Q1018 NOSIG
ZBYN,2003-03-23 01:00,ZBYN 230100Z 24001MPS 1000 R31/1200N BR SCT040 OVC100 02/02 Q1019 NOSIG
ZBYN,2003-03-23 02:00,ZBYN 230200Z 31001MPS 1000 R31/1100N -SNRA BR OVC040 03/02 Q1019 NOSIG
ZBYN,2003-03-23 03:00,ZBYN 230300Z 24001MPS 0900 R31/1000N FG SCT040 OVC100 04/03 Q1020 NOSIG
ZBYN,2003-03-23 04:00,ZBYN 230400Z 24001MPS 0900 R31/1000N FG FEW040 OVC200 05/04 Q1019 NOSIG
ZBYN,2003-03-23 05:00,ZBYN 230500Z 21002MPS 1000 R31/1000N BR BKN030 07/04 Q1019 NOSIG
ZBYN,2003-03-23 06:00,ZBYN 230600Z 21002MPS 1300 R31/1300U BR OVC030 08/04 Q1019 NOSIG
ZBYN,2003-03-23 07:00,ZBYN 230700Z 24002MPS 1300 R31/P1500 -RA BR BKN020 OVC040 07/04 Q1019 NOSIG
ZBYN,2003-03-23 08:00,ZBYN 230800Z VRB01MPS 1300 R31/1100N -RA BR BKN040 06/04 Q1019 NOSIG
ZBYN,2003-03-23 09:00,ZBYN 230900Z VRB01MPS 6000 SKC 08/04 Q1019 NOSIG
ZBYN,2003-03-23 10:00,ZBYN 231000Z 11001MPS 5000 BR NSC 07/04 Q1019 NOSIG
ZBYN,2003-03-23 11:00,ZBYN 231100Z 11002MPS 2000 BR NSC 05/03 Q1019 NOSIG
ZBYN,2003-03-23 12:00,ZBYN 231200Z 11001MPS 2000 BR SKC 04/03 Q1020 NOSIG
ZBYN,2003-03-23 12:30,ZBYN 231230Z 12001MPS 1400 R31/P1500 BR SKC 04/03 Q1020 NOSIG
ZBYN,2003-03-23 13:00,ZBYN 231300Z 09001MPS 1600 BR SKC 03/02 Q1020 NOSIG
ZBYN,2003-03-23 13:30,ZBYN 231330Z 12002MPS 1600 BR SKC 02/01 Q1020 NOSIG
ZBYN,2003-03-23 14:00,ZBYN 231400Z 12002MPS 1400 R31/1400N BR SKC 02/01 Q1021 NOSIG
ZBYN,2003-03-23 14:30,ZBYN 231430Z 10002MPS 2000 R31/1400 BR NSC 02/01 Q1020 NOSIG
ZBYN,2003-03-23 15:00,ZBYN 231500Z 13002MPS 2000 R31/1000 BR SKC 01/01 Q1020 NOSIG
ZBYN,2003-03-23 15:30,ZBYN 231530Z 09002MPS 2000 R31/0900 BR SKC 02/01 Q1020 NOSIG
ZBYN,2003-03-23 16:00,ZBYN 231600Z 09001MPS 2000 R31/1200 BR SKC 01/00 Q1020 NOSIG
ZBYN,2003-03-23 17:00,ZBYN 231700Z 10001MPS 3000 BR SKC 00/M00 Q1020
ZBYN,2003-03-23 18:00,ZBYN 231800Z 09001MPS 2500 R31/1100 BR SKC 01/00 Q1020
ZBYN,2003-03-23 19:00,ZBYN 231900Z 11001MPS 3000 BR SKC 00/M00 Q1019
ZBYN,2003-03-23 20:00,ZBYN 232000Z 11001MPS 2000 R31/1000N BR SKC M00/M00 Q1019
ZBYN,2003-03-23 21:00,ZBYN 232100Z 11001MPS 2500 BR SKC M01/M01 Q1019
ZBYN,2003-03-23 22:00,ZBYN 232200Z 09002MPS 2500 R31/0900N BR SKC M02/M02 Q1019 NOSIG
ZBYN,2003-03-23 23:00,ZBYN 232300Z 12002MPS 2500 R31/1000N BR SKC M01/M02 Q1020 NOSIG
ZBYN,2003-03-24 00:00,ZBYN 240000Z 10001MPS 2000 R31/1400N BR SKC 01/01 Q1020 NOSIG
ZBYN,2003-03-24 01:00,ZBYN 240100Z 11001MPS 2000 R31/0900N BR SKC 04/02 Q1020 NOSIG
ZBYN,2003-03-24 02:00,ZBYN 240200Z 13002MPS 2000 R31/1400N BR SKC 06/02 Q1020 NOSIG
ZBYN,2003-03-24 03:00,ZBYN 240300Z 22002MPS 3000 HZ SKC 09/02 Q1020 NOSIG
ZBYN,2003-03-24 04:00,ZBYN 240400Z 18002MPS 3000 HZ SKC 12/01 Q1019 NOSIG
ZBYN,2003-03-24 05:00,ZBYN 240500Z 23002MPS CAVOK 13/M04 Q1018 NOSIG
ZBYN,2003-03-24 06:00,ZBYN 240600Z VRB01MPS CAVOK 14/M07 Q1016 NOSIG
ZBYN,2003-03-24 07:00,ZBYN 240700Z 24002MPS CAVOK 15/M07 Q1016 NOSIG
ZBYN,2003-03-24 08:00,ZBYN 240800Z 23002MPS CAVOK 15/M07 Q1015 NOSIG
ZBYN,2003-03-24 09:00,ZBYN 240900Z 17002MPS CAVOK 15/M07 Q1015 NOSIG
ZBYN,2003-03-24 10:00,ZBYN 241000Z 17001MPS CAVOK 14/M07 Q1014 NOSIG
ZBYN,2003-03-24 11:00,ZBYN 241100Z 14002MPS CAVOK 11/M04 Q1015 NOSIG
ZBYN,2003-03-24 12:00,ZBYN 241200Z 07002MPS CAVOK 09/M02 Q1015 NOSIG
ZBYN,2003-03-24 13:00,ZBYN 241300Z 09002MPS CAVOK 07/M01 Q1016 NOSIG
ZBYN,2003-03-24 14:00,ZBYN 241400Z 11002MPS CAVOK 03/M01 Q1016 NOSIG
ZBYN,2003-03-24 15:00,ZBYN 241500Z 09001MPS CAVOK 04/M01 Q1016 NOSIG
ZBYN,2003-03-24 16:00,ZBYN 241600Z 09001MPS CAVOK 03/M02 Q1016 NOSIG
ZBYN,2003-03-24 17:00,ZBYN 241700Z 11002MPS CAVOK 01/M02 Q1016
ZBYN,2003-03-24 18:00,ZBYN 241800Z 11001MPS CAVOK 01/M02 Q1015
ZBYN,2003-03-24 19:00,ZBYN 241900Z 08001MPS CAVOK 01/M02 Q1015
ZBYN,2003-03-24 20:00,ZBYN 242000Z 36001MPS CAVOK 01/M02 Q1015
ZBYN,2003-03-24 21:00,ZBYN 242100Z 12001MPS CAVOK 00/M03 Q1015
ZBYN,2003-03-24 22:00,ZBYN 242200Z VRB01MPS //9V9//00/M02 Q1015 NOSIG
ZBYN,2003-03-24 23:00,ZBYN 242300Z 13001MPS 4000 BR SKC 01/M01 Q1014 NOSIG
ZBYN,2003-03-25 00:00,ZBYN 250000Z VRB01MPS 3000 BR SKC 03/M00 Q1015 NOSIG
ZBYN,2003-03-25 01:00,ZBYN 250100Z 24001MPS 1600 FU SKC 07/M00 Q1015 NOSIG
ZBYN,2003-03-25 03:00,ZBYN 250300Z 19002MPS 8000 SKC 13/M02 Q1014 NOSIG
ZBYN,2003-03-25 04:00,ZBYN 250400Z 19002MPS CAVOK 16/M02 Q1013 NOSIG
ZBYN,2003-03-25 05:00,ZBYN 250500Z 23003MPS CAVOK 18/M02 Q1012 NOSIG
ZBYN,2003-03-25 06:00,ZBYN 250600Z 19003MPS CAVOK 19/M01 Q1011 NOSIG
ZBYN,2003-03-25 07:00,ZBYN 250700Z 23003MPS CAVOK 20/M03 Q1010 NOSIG
ZBYN,2003-03-25 08:00,ZBYN 250800Z 22003MPS CAVOK 20/M03 Q1009 NOSIG
ZBYN,2003-03-25 09:00,ZBYN 250900Z 23001MPS CAVOK 19/M02 Q1009 NOSIG
ZBYN,2003-03-25 10:00,ZBYN 251000Z 10001MPS CAVOK 18/M01 Q1009 NOSIG
ZBYN,2003-03-25 11:00,ZBYN 251100Z 06002MPS 8000 NSC 16/00 Q1009 NOSIG
ZBYN,2003-03-25 12:00,ZBYN 251200Z VRB01MPS 8000 NSC 14/01 Q1010 NOSIG
ZBYN,2003-03-25 13:00,ZBYN 251300Z 16001MPS 8000 NSC 12/02 Q1011 NOSIG
ZBYN,2003-03-25 14:00,ZBYN 251400Z 00000MPS CAVOK 11/02 Q1012 NOSIG
ZBYN,2003-03-25 15:00,ZBYN 251500Z 09001MPS CAVOK 10/03 Q1012 NOSIG
ZBYN,2003-03-25 16:00,ZBYN 251600Z VRB01MPS CAVOK 08/02 Q1013 NOSIG
ZBYN,2003-03-25 17:00,ZBYN 251700Z VRB01MPS CAVOK 09/02 Q1012
ZBYN,2003-03-25 18:00,ZBYN 251800Z 07001MPS 8000 NSC 08/03 Q1012
ZBYN,2003-03-25 19:00,ZBYN 251900Z 03001MPS 8000 NSC 09/02 Q1012
ZBYN,2003-03-25 20:00,ZBYN 252000Z 34004MPS CAVOK 11/M02 Q1012
ZBYN,2003-03-25 21:00,ZBYN 252100Z 35004MPS CAVOK 08/M01 Q1013
ZBYN,2003-03-25 22:00,ZBYN 252200Z VRB01MPS CAVOK 06/00 Q1015 NOSIG
ZBYN,2003-03-25 23:00,ZBYN 252300Z 35001MPS 8000 NSC 04/01 Q1016 NOSIG
ZBYN,2003-03-26 00:00,ZBYN 260000Z 34004MPS CAVOK 10/M02 Q1016 NOSIG
ZBYN,2003-03-26 01:00,ZBYN 260100Z 36004MPS CAVOK 12/M04 Q1017 NOSIG
ZBYN,2003-03-26 02:00,ZBYN 260200Z 35005MPS CAVOK 13/M04 Q1018 NOSIG
ZBYN,2003-03-26 03:00,ZBYN 260300Z 36007MPS CAVOK 12/M05 Q1019 NOSIG
ZBYN,2003-03-26 04:00,ZBYN 260400Z 36005MPS CAVOK 13/M05 Q1019 NOSIG
ZBYN,2003-03-26 05:00,ZBYN 260500Z 36005MPS CAVOK 14/M06 Q1018 NOSIG
ZBYN,2003-03-26 06:00,ZBYN 260600Z 01005MPS CAVOK 16/M07 Q1017 NOSIG
ZBYN,2003-03-26 07:00,ZBYN 260700Z 36005MPS 9999 FEW030 17/M08 Q1016 NOSIG
ZBYN,2003-03-26 08:00,ZBYN 260800Z 36006MPS 9999 FEW030 17/M09 Q1016 NOSIG
ZBYN,2003-03-26 09:00,ZBYN 260900Z 02006MPS CAVOK 16/M09 Q1017 NOSIG
ZBYN,2003-03-26 10:00,ZBYN 261000Z 01006MPS 9999 FEW033 14/M08 Q1018 NOSIG
ZBYN,2003-03-26 11:00,ZBYN 261100Z 03005MPS CAVOK 12/M07 Q1018 NOSIG
ZBYN,2003-03-26 12:00,ZBYN 261200Z 34004MPS CAVOK 10/M08 Q1020 NOSIG
ZBYN,2003-03-26 13:00,ZBYN 261300Z 34004MPS CAVOK 09/M07 Q1021 NOSIG
ZBYN,2003-03-26 14:00,ZBYN 261400Z 31003MPS CAVOK 06/M06 Q1022 NOSIG
ZBYN,2003-03-26 15:00,ZBYN 261500Z 33004MPS CAVOK 07/M07 Q1022 NOSIG
ZBYN,2003-03-26 16:00,ZBYN 261600Z 36003MPS CAVOK 06/M10 Q1023 NOSIG
ZBYN,2003-03-26 17:00,ZBYN 261700Z 34004MPS CAVOK 05/M10 Q1023 NOSIG
ZBYN,2003-03-26 18:00,ZBYN 261800Z 33002MPS CAVOK 04/M10 Q1023
ZBYN,2003-03-26 19:00,ZBYN 261900Z 00000MPS CAVOK 03/M09 Q1022
ZBYN,2003-03-26 20:00,ZBYN 262000Z 34003MPS CAVOK 03/M09 Q1022
ZBYN,2003-03-26 21:00,ZBYN 262100Z AUTO 32008KT 9SM 03/M08 A3021 RMK SLP249 T00321079 52008 IEM_DS3505
ZBYN,2003-03-26 22:00,ZBYN 262200Z AUTO 01004KT 6SM 00/M08 A3021 RMK T00001080 IEM_DS3505
ZBYN,2003-03-26 23:00,ZBYN 262300Z AUTO 36004KT 6SM 01/M10 A3024 RMK T00101100 IEM_DS3505
ZBYN,2003-03-27 00:00,ZBYN 270000Z AUTO 32004KT 12SM 04/M08 A3027 RMK SLP273 T00411077 52017 IEM_DS3505
ZBYN,2003-03-27 01:00,ZBYN 270100Z 35004MPS CAVOK 06/M13 Q1025 NOSIG
ZBYN,2003-03-27 02:00,ZBYN 270200Z 08002MPS CAVOK 08/M11 Q1024 NOSIG
ZBYN,2003-03-27 03:00,ZBYN 270300Z 32002MPS CAVOK 10/M14 Q1023 NOSIG
ZBYN,2003-03-27 04:00,ZBYN 270400Z VRB01MPS CAVOK 12/M13 Q1022 NOSIG
ZBYN,2003-03-27 05:00,ZBYN 270500Z VRB01MPS CAVOK 11/M11 Q1021 NOSIG
ZBYN,2003-03-27 06:00,ZBYN 270600Z 24002MPS CAVOK 11/M10 Q1020 NOSIG
ZBYN,2003-03-27 07:00,ZBYN 270700Z 22002MPS CAVOK 12/M12 Q1019 NOSIG
ZBYN,2003-03-27 08:00,ZBYN 270800Z 20001MPS CAVOK 11/M12 Q1018 NOSIG
ZBYN,2003-03-27 09:00,ZBYN 270900Z VRB01MPS CAVOK 11/M11 Q1018 NOSIG
ZBYN,2003-03-27 10:00,ZBYN 271000Z 18001MPS CAVOK 11/M10 Q1017 NOSIG
ZBYN,2003-03-27 11:00,ZBYN 271100Z 14001MPS CAVOK 09/M07 Q1017 NOSIG
ZBYN,2003-03-27 12:00,ZBYN 271200Z 15001MPS CAVOK 09/M07 Q1017 NOSIG
ZBYN,2003-03-27 13:00,ZBYN 271300Z 13001MPS CAVOK 08/M06 Q1017 NOSIG
ZBYN,2003-03-27 14:00,ZBYN 271400Z 20001MPS CAVOK 07/M06 Q1017 NOSIG
ZBYN,2003-03-27 15:00,ZBYN 271500Z 24003MPS CAVOK 08/01 Q1016 NOSIG
ZBYN,2003-03-27 16:00,ZBYN 271600Z 23002MPS CAVOK 08/02 Q1016 NOSIG
ZBYN,2003-03-27 17:00,ZBYN 271700Z 11002MPS CAVOK 06/02 Q1016
ZBYN,2003-03-27 18:00,ZBYN 271800Z 07001MPS CAVOK 06/02 Q1015
ZBYN,2003-03-27 19:00,ZBYN 271900Z AUTO 11004KT 6SM 04/00 A2997 RMK T00400000 IEM_DS3505
ZBYN,2003-03-27 20:00,ZBYN 272000Z 10002MPS CAVOK 01/M03 Q1014
ZBYN,2003-03-27 21:00,ZBYN 272100Z 12002MPS CAVOK 02/M02 Q1014
ZBYN,2003-03-27 22:00,ZBYN 272200Z 10002MPS CAVOK 00/M02 Q1014 NOSIG
ZBYN,2003-03-27 23:00,ZBYN 272300Z 34001MPS 6000 SKC 01/M01 Q1014 NOSIG
ZBYN,2003-03-28 00:00,ZBYN 280000Z 00000MPS 5000 BR SKC 04/01 Q1014 NOSIG
ZBYN,2003-03-28 00:30,ZBYN 280030Z AUTO 13002KT 1 1/2SM 06/01 A2994 RMK T00600010 IEM_DS3505
ZBYN,2003-03-28 01:00,ZBYN 280100Z AUTO 14002KT 2 1/2SM 08/02 A2994 RMK T00800020 IEM_DS3505
ZBYN,2003-03-28 02:00,ZBYN 280200Z AUTO 21002KT 3SM 11/03 A2994 RMK T01100030 IEM_DS3505
ZBYN,2003-03-28 02:30,ZBYN 280230Z AUTO 12/03 A2991 RMK T01200030 IEM_DS3505
ZBYN,2003-03-28 03:00,ZBYN 280300Z 24002MPS 6000 SKC 13/03 Q1013 NOSIG
ZBYN,2003-03-28 03:30,ZBYN 280330Z AUTO 23004KT 5SM 14/02 A2988 RMK T01400020 IEM_DS3505
ZBYN,2003-03-28 04:00,ZBYN 280400Z AUTO 20004KT 6SM 15/01 A2988 RMK T01500010 IEM_DS3505
ZBYN,2003-03-28 05:00,ZBYN 280500Z AUTO 21006KT 6SM 16/00 A2983 RMK T01600000 IEM_DS3505
ZBYN,2003-03-28 05:30,ZBYN 280530Z AUTO 21004KT 6SM 17/M04 A2980 RMK T01701040 IEM_DS3505
ZBYN,2003-03-28 06:00,ZBYN 280600Z AUTO 18006KT 6SM 16/02 A2977 RMK SLP091 T01640018 57042 IEM_DS3505
ZBYN,2003-03-28 07:00,ZBYN 280700Z AUTO 23004KT 6SM 18/M04 A2974 RMK T01801040 IEM_DS3505
ZBYN,2003-03-28 08:00,ZBYN 280800Z 21003MPS CAVOK 20/M08 Q1006 NOSIG
ZBYN,2003-03-28 09:00,ZBYN 280900Z 21003MPS CAVOK 19/M11 Q1005 NOSIG
ZBYN,2003-03-28 10:00,ZBYN 281000Z 24003MPS CAVOK 19/M15 Q1005 NOSIG
ZBYN,2003-03-28 11:00,ZBYN 281100Z 30002MPS CAVOK 15/M11 Q1006 NOSIG
ZBYN,2003-03-28 12:00,ZBYN 281200Z 33001MPS CAVOK 13/M10 Q1006 NOSIG
ZBYN,2003-03-28 13:00,ZBYN 281300Z 00000MPS CAVOK 11/M09 Q1006 NOSIG
ZBYN,2003-03-28 14:00,ZBYN 281400Z 12003MPS CAVOK 07/M05 Q1006 NOSIG
ZBYN,2003-03-28 15:00,ZBYN 281500Z 10002MPS CAVOK 07/M04 Q1006 NOSIG
ZBYN,2003-03-28 16:00,ZBYN 281600Z 09001MPS CAVOK 07/M04 Q1005 NOSIG
ZBYN,2003-03-28 17:00,ZBYN 281700Z 09002MPS CAVOK 06/M03 Q1004
ZBYN,2003-03-28 18:00,ZBYN 281800Z 13002MPS CAVOK 06/M03 Q1004
ZBYN,2003-03-28 19:00,ZBYN 281900Z 10001MPS CAVOK 06/M02 Q1003
ZBYN,2003-03-28 20:00,ZBYN 282000Z 09002MPS CAVOK 04/M02 Q1002
ZBYN,2003-03-28 20:30,ZBYN 282030Z 09002MPS CAVOK 04/M02 Q1002
ZBYN,2003-03-28 21:00,ZBYN 282100Z 09001MPS CAVOK 06/M02 Q1002
ZBYN,2003-03-28 21:30,ZBYN 282130Z 08001MPS CAVOK 05/M02 Q1003
ZBYN,2003-03-28 22:00,ZBYN 282200Z 12002MPS CAVOK 05/M02 Q1003 NOSIG
ZBYN,2003-03-28 22:30,ZBYN 282230Z 12002MPS CAVOK 06/M01 Q1003 NOSIG
ZBYN,2003-03-28 23:00,ZBYN 282300Z 00000MPS CAVOK 05/M01 Q1003 NOSIG
ZBYN,2003-03-28 23:30,ZBYN 282330Z 00000MPS CAVOK 05/M00 Q1004 NOSIG
ZBYN,2003-03-29 00:00,ZBYN 290000Z 00000MPS 7000 SKC 08/00 Q1004 NOSIG
ZBYN,2003-03-29 01:00,ZBYN 290100Z 00000MPS 8000 SKC 12/M01 Q1004 NOSIG
ZBYN,2003-03-29 02:00,ZBYN 290200Z 00000MPS 9999 SKC 15/M01 Q1004 NOSIG
ZBYN,2003-03-29 03:00,ZBYN 290300Z VRB01MPS 8000 SKC 18/M01 Q1004 NOSIG
ZBYN,2003-03-29 04:00,ZBYN 290400Z 23002MPS 8000 NSC 20/M01 Q1003 NOSIG
ZBYN,2003-03-29 05:00,ZBYN 290500Z 24002MPS CAVOK 22/M02 Q1002 NOSIG
ZBYN,2003-03-29 06:00,ZBYN 290600Z 22003MPS CAVOK 23/M02 Q1001 NOSIG
ZBYN,2003-03-29 07:00,ZBYN 290700Z 18002MPS CAVOK 24/M03 Q1001 NOSIG
ZBYN,2003-03-29 08:00,ZBYN 290800Z 18001MPS CAVOK 25/M04 Q1000 NOSIG
ZBYN,2003-03-29 09:00,ZBYN 290900Z 23001MPS CAVOK 25/M05 Q1000 NOSIG
ZBYN,2003-03-29 10:00,ZBYN 291000Z 00000MPS CAVOK 24/M02 Q1000 NOSIG
ZBYN,2003-03-29 11:00,ZBYN 291100Z 31002MPS 7000 NSC 19/01 Q1001 NOSIG
ZBYN,2003-03-29 12:00,ZBYN 291200Z 07005MPS 8000 NSC 19/M02 Q1002 NOSIG
ZBYN,2003-03-29 13:00,ZBYN 291300Z 08006MPS CAVOK 18/M03 Q1002 NOSIG
ZBYN,2003-03-29 14:00,ZBYN 291400Z 06005MPS CAVOK 17/M04 Q1003 NOSIG
ZBYN,2003-03-29 15:00,ZBYN 291500Z 04004MPS CAVOK 17/M02 Q1004 NOSIG
ZBYN,2003-03-29 16:00,ZBYN 291600Z 05002MPS CAVOK 15/M01 Q1004 NOSIG
ZBYN,2003-03-29 17:00,ZBYN 291700Z 03002MPS CAVOK 13/M01 Q1004 NOSIG
ZBYN,2003-03-29 18:00,ZBYN 291800Z 00000MPS CAVOK 12/M01 Q1004
ZBYN,2003-03-29 19:00,ZBYN 291900Z 00000MPS 7000 SKC 11/M00 Q1004
ZBYN,2003-03-29 20:00,ZBYN 292000Z 00000MPS 7000 SKC 10/M00 Q1004
ZBYN,2003-03-29 21:00,ZBYN 292100Z 00000MPS 8000 SKC 09/M00 Q1004
ZBYN,2003-03-29 22:00,ZBYN 292200Z 00000MPS 6000 SKC 06/M00 Q1004 NOSIG
ZBYN,2003-03-29 23:00,ZBYN 292300Z 00000MPS 5000 FU SKC 07/01 Q1005 NOSIG
ZBYN,2003-03-30 00:00,ZBYN 300000Z 32001MPS 4000 FU SKC 11/01 Q1005 NOSIG
ZBYN,2003-03-30 01:00,ZBYN 300100Z 29001MPS 4000 FU SKC 14/M01 Q1006 NOSIG
ZBYN,2003-03-30 02:00,ZBYN 300200Z VRB01MPS 3000 FU SKC 18/03 Q1006 NOSIG
ZBYN,2003-03-30 03:00,ZBYN 300300Z 06005MPS 4000 FU SKC 21/03 Q1005 NOSIG
ZBYN,2003-03-30 04:00,ZBYN 300400Z 34003MPS 7000 SKC 22/M01 Q1005 NOSIG
ZBYN,2003-03-30 05:00,ZBYN 300500Z 35002MPS 8000 SKC 25/M01 Q1004 NOSIG
ZBYN,2003-03-30 06:00,ZBYN 300600Z 07002MPS 8000 SKC 26/01 Q1003 NOSIG
ZBYN,2003-03-30 07:00,ZBYN 300700Z VRB01MPS CAVOK 27/02 Q1002 NOSIG
ZBYN,2003-03-30 08:00,ZBYN 300800Z 08003MPS CAVOK 27/02 Q1001 NOSIG
ZBYN,2003-03-30 09:00,ZBYN 300900Z 09006MPS 7000 SKC 25/03 Q1002 NOSIG
ZBYN,2003-03-30 10:00,ZBYN 301000Z 08006MPS 6000 SKC 23/05 Q1002 NOSIG
ZBYN,2003-03-30 11:00,ZBYN 301100Z 08008MPS 4000 BLDU SKC 20/06 Q1003 NOSIG
ZBYN,2003-03-30 12:00,ZBYN 301200Z 08008MPS 5000 BLDU SKC 18/07 Q1004 NOSIG
ZBYN,2003-03-30 13:00,ZBYN 301300Z 08010MPS 4000 BLDU SKC 17/07 Q1005 NOSIG
ZBYN,2003-03-30 14:00,ZBYN 301400Z 07008MPS 4000 BLDU SKC 16/08 Q1006 NOSIG
ZBYN,2003-03-30 15:00,ZBYN 301500Z 06006MPS 4000 BLDU SKC 15/09 Q1007 NOSIG
ZBYN,2003-03-30 16:00,ZBYN 301600Z 06005MPS 3000 R31/1200 BLDU SKC 15/10 Q1008 NOSIG
ZBYN,2003-03-30 17:00,ZBYN 301700Z 07006MPS 3000 R31/1200 BLDU SKC 15/10 Q1008
ZBYN,2003-03-30 18:00,ZBYN 301800Z 07006MPS 3000 R31/1200 BLDU SKC 15/10 Q1008
ZBYN,2003-03-30 19:00,ZBYN 301900Z 01003MPS 3000 BLDU SKC 14/10 Q1008
ZBYN,2003-03-30 20:00,ZBYN 302000Z 05002MPS 3000 BR NSC 14/10 Q1008
ZBYN,2003-03-30 21:00,ZBYN 302100Z 06002MPS 2100 R31/0900 BR NSC 13/10 Q1008 NOSIG
ZBYN,2003-03-30 22:00,ZBYN 302200Z 08003MPS 1800 R31/0900 BR NSC 13/10 Q1009 NOSIG
ZBYN,2003-03-30 23:00,ZBYN 302300Z 07006MPS 1000 R31/0800 BR NSC 13/10 Q1010 NOSIG
ZBYN,2003-03-31 00:00,ZBYN 310000Z 08009MPS 1300 R31/1000 SA NSC 14/09 Q1011 NOSIG
ZBYN,2003-03-31 01:00,ZBYN 310100Z 09007MPS 2000 R31/1400N SA NSC 13/07 Q1012 NOSIG
ZBYN,2003-03-31 02:00,ZBYN 310200Z 09008MPS 4000 R31/1300N SA NSC 13/05 Q1013 NOSIG
ZBYN,2003-03-31 03:00,ZBYN 310300Z 09009MPS 3000 R31/1200N SA NSC 13/06 Q1013 NOSIG
ZBYN,2003-03-31 04:00,ZBYN 310400Z 08010MPS 2500 R31/1100N SA NSC 11/05 Q1014 NOSIG
ZBYN,2003-03-31 05:00,ZBYN 310500Z 07010MPS 3000 R31/1200N SA NSC 11/05 Q1014 NOSIG
ZBYN,2003-03-31 06:00,ZBYN 310600Z 08009MPS 5000 R31/1400 SA NSC 10/04 Q1013 NOSIG
ZBYN,2003-03-31 07:00,ZBYN 310700Z 07008MPS 5000 SA NSC 10/04 Q1014 NOSIG
ZBYN,2003-03-31 08:00,ZBYN 310800Z 08008MPS 5000 SA NSC 09/04 Q1014 NOSIG
ZBYN,2003-03-31 09:00,ZBYN 310900Z 07007MPS 5000 R31/1300N SA NSC 08/04 Q1014 NOSIG
ZBYN,2003-03-31 10:00,ZBYN 311000Z 06007MPS 4000 SA NSC 08/03 Q1014 NOSIG
ZBYN,2003-03-31 11:00,ZBYN 311100Z 06006MPS 4000 SA NSC 08/03 Q1014 NOSIG
ZBYN,2003-03-31 12:00,ZBYN 311200Z 06006MPS 4000 SA NSC 08/02 Q1015 NOSIG
ZBYN,2003-03-31 13:00,ZBYN 311300Z 05006MPS CAVOK 08/00 Q1016 NOSIG
ZBYN,2003-03-31 14:00,ZBYN 311400Z 06006MPS CAVOK 08/M01 Q1016 NOSIG
ZBYN,2003-03-31 15:00,ZBYN 311500Z 05005MPS CAVOK 08/M03 Q1016 NOSIG
ZBYN,2003-03-31 16:00,ZBYN 311600Z 05006MPS CAVOK 08/M04 Q1016 NOSIG
ZBYN,2003-03-31 17:00,ZBYN 311700Z 05004MPS CAVOK 08/M04 Q1016
ZBYN,2003-03-31 18:00,ZBYN 311800Z 06005MPS CAVOK 08/M03 Q1016
ZBYN,2003-03-31 19:00,ZBYN 311900Z 06005MPS CAVOK 08/M04 Q1015 NOSIG
ZBYN,2003-03-31 20:00,ZBYN 312000Z 06005MPS CAVOK 08/M04 Q1015 NOSIG
ZBYN,2003-03-31 21:00,ZBYN 312100Z 07006MPS CAVOK 08/M04 Q1014
ZBYN,2003-03-31 22:00,ZBYN 312200Z 07006MPS CAVOK 08/M03 Q1014 NOSIG
ZBYN,2003-03-31 23:00,ZBYN 312300Z 07006MPS CAVOK 08/M02 Q1014 NOSIG
ZBYN,2003-04-01 00:00,ZBYN 010000Z AUTO 34006KT 4SM 06/04 A2997 RMK 60003 70003 SLP168 T00580035 52001 IEM_DS3505
ZBYN,2003-04-01 01:00,ZBYN 010100Z 08006MPS 6000 -RA SCT030 OVC100 05/02 Q1016 NOSIG
ZBYN,2003-04-01 02:00,ZBYN 010200Z 08005MPS 6000 -RA SCT030 OVC100 06/02 Q1016 NOSIG
ZBYN,2003-04-01 03:00,ZBYN 010300Z 08006MPS 6000 OVC040 06/01 Q1016 NOSIG
ZBYN,2003-04-01 04:00,ZBYN 010400Z 07005MPS 9999 -RA OVC040 05/00 Q1016 NOSIG
ZBYN,2003-04-01 05:00,ZBYN 010500Z 08005MPS 9999 -RA OVC040 05/00 Q1016 NOSIG
ZBYN,2003-04-01 06:00,ZBYN 010600Z 09004MPS 9999 -RA SCT026 OVC040 05/01 Q1016 NOSIG
ZBYN,2003-04-01 07:00,ZBYN 010700Z 06005MPS 9000 -RA SCT026 OVC040 04/02 Q1015 NOSIG
ZBYN,2003-04-01 08:00,ZBYN 010800Z 06004MPS 9999 -RA OVC040 05/02 Q1015 NOSIG
ZBYN,2003-04-01 09:00,ZBYN 010900Z 07004MPS 9999 -RA OVC040 04/02 Q1014 NOSIG
ZBYN,2003-04-01 10:00,ZBYN 011000Z 09003MPS 9999 -RA BKN026 OVC040 04/02 Q1015 NOSIG
ZBYN,2003-04-01 11:00,ZBYN 011100Z 07004MPS 9999 -RA SCT026 OVC040 04/01 Q1015 NOSIG
ZBYN,2003-04-01 12:00,ZBYN 011200Z 07003MPS 9999 -RA SCT026 OVC040 04/02 Q1016 NOSIG
ZBYN,2003-04-01 13:00,ZBYN 011300Z 06004MPS 9999 -RA SCT026 OVC040 03/02 Q1017 NOSIG
ZBYN,2003-04-01 14:00,ZBYN 011400Z 06005MPS 9999 -RA SCT026 OVC040 03/01 Q1018 NOSIG
ZBYN,2003-04-01 15:00,ZBYN 011500Z 07005MPS 9999 -RA SCT026 OVC040 03/01 Q1018 NOSIG
ZBYN,2003-04-01 16:00,ZBYN 011600Z 06003MPS 9999 -RA OVC030 03/01 Q1018 NOSIG
ZBYN,2003-04-01 17:00,ZBYN 011700Z 04002MPS 9999 -RA OVC030 03/01 Q1018
ZBYN,2003-04-01 18:00,ZBYN 011800Z 05002MPS 9999 -RA OVC030 03/00 Q1018
ZBYN,2003-04-01 19:00,ZBYN 011900Z 05003MPS 9999 -RA OVC040 03/00 Q1017
ZBYN,2003-04-01 20:00,ZBYN 012000Z 06003MPS 9999 -RA OVC040 03/00 Q1017
ZBYN,2003-04-01 21:00,ZBYN 012100Z 06003MPS 9999 -RA OVC040 03/00 Q1017
ZBYN,2003-04-01 22:00,ZBYN 012200Z 06003MPS 9999 OVC040 03/00 Q1017 NOSIG
ZBYN,2003-04-01 23:00,ZBYN 012300Z 08003MPS 9999 OVC040 04/00 Q1018 NOSIG
ZBYN,2003-04-02 00:00,ZBYN 020000Z 07003MPS CAVOK 04/00 Q1019 NOSIG
ZBYN,2003-04-02 01:00,ZBYN 020100Z 05003MPS CAVOK 04/01 Q1019 NOSIG
ZBYN,2003-04-02 02:00,ZBYN 020200Z 06003MPS 9999 -RA BKN040 OVC100 04/00 Q1019 NOSIG
ZBYN,2003-04-02 03:00,ZBYN 020300Z 03004MPS 9999 -RA BKN040 OVC100 04/01 Q1020 NOSIG
ZBYN,2003-04-02 05:00,ZBYN 020500Z 08004MPS 9999 SCT040 OVC100 05/02 Q1019 NOSIG
ZBYN,2003-04-02 06:00,ZBYN 020600Z 10004MPS 9999 -RA SCT040 OVC100 06/02 Q1018 NOSIG
ZBYN,2003-04-02 07:00,ZBYN 020700Z 06004MPS 9999 -RA SCT030 OVC100 06/02 Q1017 NOSIG
ZBYN,2003-04-02 08:00,ZBYN 020800Z 09004MPS 9999 FEW040 OVC100 07/01 Q1017 NOSIG
ZBYN,2003-04-02 09:00,ZBYN 020900Z 09004MPS CAVOK 07/01 Q1017 NOSIG
ZBYN,2003-04-02 10:00,ZBYN 021000Z 10004MPS CAVOK 06/01 Q1017 NOSIG
ZBYN,2003-04-02 11:00,ZBYN 021100Z 10003MPS 9999 FEW040 SCT060 OVC100 06/01 Q1017 NOSIG
ZBYN,2003-04-02 12:00,ZBYN 021200Z 10004MPS 9999 FEW030 BKN040 OVC100 05/01 Q1017 NOSIG
ZBYN,2003-04-02 13:00,ZBYN 021300Z 08003MPS 9999 BKN040 OVC100 05/01 Q1018 NOSIG
ZBYN,2003-04-02 14:00,ZBYN 021400Z 09003MPS 9999 BKN040 OVC100 05/00 Q1018 NOSIG
ZBYN,2003-04-02 15:00,ZBYN 021500Z 09004MPS 9999 BKN040 OVC100 05/00 Q1018 NOSIG
ZBYN,2003-04-02 16:00,ZBYN 021600Z 09003MPS CAVOK 05/00 Q1017 NOSIG
ZBYN,2003-04-02 17:00,ZBYN 021700Z 09003MPS CAVOK 04/00 Q1016
ZBYN,2003-04-02 18:00,ZBYN 021800Z 10002MPS CAVOK 04/01 Q1016 NOSIG
ZBYN,2003-04-02 19:00,ZBYN 021900Z 13002MPS CAVOK 04/01 Q1016
ZBYN,2003-04-02 20:00,ZBYN 022000Z 12002MPS CAVOK 04/01 Q1015
ZBYN,2003-04-02 21:00,ZBYN 022100Z 12002MPS CAVOK 04/01 Q1015 NOSIG
ZBYN,2003-04-02 22:00,ZBYN 022200Z 12001MPS CAVOK 04/01 Q1015 NOSIG
ZBYN,2003-04-02 23:00,ZBYN 022300Z 00000MPS CAVOK 04/01 Q1015 NOSIG
ZBYN,2003-04-03 00:00,ZBYN 030000Z 10001MPS 5000 BR NSC 05/02 Q1016 NOSIG
ZBYN,2003-04-03 01:00,ZBYN 030100Z 00000MPS 5000 BR NSC 06/02 Q1016 NOSIG
ZBYN,2003-04-03 02:00,ZBYN 030200Z VRB01MPS 8000 NSC 07/01 Q1016 NOSIG
ZBYN,2003-04-03 03:00,ZBYN 030300Z VRB01MPS 8000 SCT033 BKN100 08/01 Q1016 NOSIG
ZBYN,2003-04-03 04:00,ZBYN 030400Z VRB01MPS 8000 SCT040 BKN100 09/01 Q1016 NOSIG
ZBYN,2003-04-03 05:00,ZBYN 030500Z VRB01MPS 8000 SCT040 OVC100 09/02 Q1016 NOSIG
ZBYN,2003-04-03 06:00,ZBYN 030600Z VRB01MPS 7000 SCT040 OVC100 09/02 Q1015 NOSIG
ZBYN,2003-04-03 07:00,ZBYN 030700Z 13001MPS 8000 FEW040 OVC100 09/02 Q1015 NOSIG
ZBYN,2003-04-03 08:00,ZBYN 030800Z VRB01MPS 7000 NSC 09/02 Q1015 NOSIG
ZBYN,2003-04-03 09:00,ZBYN 030900Z 16001MPS 8000 NSC 10/02 Q1015 NOSIG
ZBYN,2003-04-03 10:00,ZBYN 031000Z 11001MPS 8000 NSC 10/03 Q1015 NOSIG
ZBYN,2003-04-03 11:00,ZBYN 031100Z 10001MPS 8000 NSC 09/03 Q1016 NOSIG
ZBYN,2003-04-03 12:00,ZBYN 031200Z 10001MPS 8000 NSC 07/03 Q1016 NOSIG
ZBYN,2003-04-03 13:00,ZBYN 031300Z 07001MPS 8000 NSC 06/02 Q1018 NOSIG
ZBYN,2003-04-03 14:00,ZBYN 031400Z 12002MPS 8000 NSC 03/01 Q1019 NOSIG
ZBYN,2003-04-03 15:00,ZBYN 031500Z 05001MPS 8000 SKC 03/02 Q1019 NOSIG
ZBYN,2003-04-03 16:00,ZBYN 031600Z VRB01MPS 8000 SKC 03/02 Q1020 NOSIG
ZBYN,2003-04-03 17:00,ZBYN 031700Z 11002MPS 7000 SKC 01/M01 Q1020 NOSIG
ZBYN,2003-04-03 18:00,ZBYN 031800Z 13002MPS 7000 SKC 01/M00 Q1020
ZBYN,2003-04-03 19:00,ZBYN 031900Z 08001MPS 8000 SKC 01/M00 Q1020
ZBYN,2003-04-03 20:00,ZBYN 032000Z 00000MPS 6000 SKC M01/M02 Q1020
ZBYN,2003-04-03 21:00,ZBYN 032100Z 07001MPS 5000 BR SKC M01/M02 Q1021
ZBYN,2003-04-03 22:00,ZBYN 032200Z 06001MPS 3000 BR SKC M00/M01 Q1021 NOSIG
ZBYN,2003-04-03 23:00,ZBYN 032300Z 11001MPS 2000 BR SKC M00/M01 Q1022 NOSIG
ZBYN,2003-04-04 00:00,ZBYN 040000Z 14001MPS 2000 BR SKC 03/02 Q1022 NOSIG
ZBYN,2003-04-04 01:00,ZBYN 040100Z 13001MPS 5000 BR SKC 07/02 Q1023 NOSIG
ZBYN,2003-04-04 02:00,ZBYN 040200Z 19001MPS 8000 SKC 10/01 Q1023 NOSIG
ZBYN,2003-04-04 03:00,ZBYN 040300Z 17001MPS CAVOK 12/00 Q1023 NOSIG
ZBYN,2003-04-04 04:00,ZBYN 040400Z 09003MPS CAVOK 15/M04 Q1022 NOSIG
ZBYN,2003-04-04 05:00,ZBYN 040500Z 12003MPS CAVOK 16/M06 Q1022 NOSIG
ZBYN,2003-04-04 06:00,ZBYN 040600Z VRB01MPS CAVOK 16/M07 Q1021 NOSIG
ZBYN,2003-04-04 07:00,ZBYN 040700Z 10003MPS CAVOK 17/M10 Q1020 NOSIG
ZBYN,2003-04-04 08:00,ZBYN 040800Z 12003MPS CAVOK 17/M10 Q1019 NOSIG
ZBYN,2003-04-04 09:00,ZBYN 040900Z 03002MPS CAVOK 17/M09 Q1019 NOSIG
ZBYN,2003-04-04 10:00,ZBYN 041000Z 14001MPS CAVOK 15/M08 Q1019 NOSIG
ZBYN,2003-04-04 11:00,ZBYN 041100Z 10001MPS CAVOK 13/M06 Q1019 NOSIG
ZBYN,2003-04-04 12:00,ZBYN 041200Z 08002MPS CAVOK 12/M01 Q1020 NOSIG
ZBYN,2003-04-04 13:00,ZBYN 041300Z 09003MPS CAVOK 10/M02 Q1020 NOSIG
ZBYN,2003-04-04 14:00,ZBYN 041400Z 09003MPS CAVOK 09/M02 Q1020 NOSIG
ZBYN,2003-04-04 15:00,ZBYN 041500Z 11003MPS CAVOK 05/M02 Q1021 NOSIG
ZBYN,2003-04-04 16:00,ZBYN 041600Z 10002MPS CAVOK 05/M02 Q1020 NOSIG
ZBYN,2003-04-04 17:00,ZBYN 041700Z 11002MPS CAVOK 04/M01 Q1020
ZBYN,2003-04-04 18:00,ZBYN 041800Z 11002MPS CAVOK 02/M01 Q1020
ZBYN,2003-04-04 19:00,ZBYN 041900Z 12002MPS CAVOK 03/M01 Q1020
ZBYN,2003-04-04 20:00,ZBYN 042000Z 00000MPS CAVOK 03/M01 Q1020
ZBYN,2003-04-04 21:00,ZBYN 042100Z 11001MPS CAVOK 01/M02 Q1020
ZBYN,2003-04-04 22:00,ZBYN 042200Z 13002MPS CAVOK 01/M01 Q1020 NOSIG
ZBYN,2003-04-04 23:00,ZBYN 042300Z 12002MPS CAVOK 02/M01 Q1020 NOSIG
ZBYN,2003-04-05 00:00,ZBYN 050000Z 14001MPS 8000 SKC 05/01 Q1020 NOSIG
ZBYN,2003-04-05 01:00,ZBYN 050100Z VRB01MPS 6000 SKC 08/01 Q1020 NOSIG
ZBYN,2003-04-05 02:00,ZBYN 050200Z 15001MPS 6000 SKC 11/01 Q1020 NOSIG
ZBYN,2003-04-05 03:00,ZBYN 050300Z VRB01MPS 6000 SKC 13/01 Q1019 NOSIG
ZBYN,2003-04-05 04:00,ZBYN 050400Z 22002MPS 7000 SKC 15/01 Q1018 NOSIG
ZBYN,2003-04-05 05:00,ZBYN 050500Z VRB01MPS CAVOK 17/M02 Q1017 NOSIG
ZBYN,2003-04-05 06:00,ZBYN 050600Z 21002MPS CAVOK 17/M03 Q1016 NOSIG
ZBYN,2003-04-05 07:00,ZBYN 050700Z 22002MPS CAVOK 18/M03 Q1014 NOSIG
ZBYN,2003-04-05 08:00,ZBYN 050800Z 24003MPS CAVOK 17/M02 Q1014 NOSIG
ZBYN,2003-04-05 09:00,ZBYN 050900Z 25002MPS CAVOK 17/M02 Q1013 NOSIG
ZBYN,2003-04-05 10:00,ZBYN 051000Z 25002MPS CAVOK 16/M01 Q1013 NOSIG
ZBYN,2003-04-05 11:00,ZBYN 051100Z 24002MPS 7000 NSC 14/M02 Q1013 NOSIG
ZBYN,2003-04-05 12:00,ZBYN 051200Z 19001MPS CAVOK 12/M01 Q1013 NOSIG
ZBYN,2003-04-05 13:00,ZBYN 051300Z VRB01MPS CAVOK 10/M02 Q1014 NOSIG
ZBYN,2003-04-05 14:00,ZBYN 051400Z 15002MPS CAVOK 07/M02 Q1015 NOSIG
ZBYN,2003-04-05 15:00,ZBYN 051500Z 13003MPS CAVOK 06/M01 Q1014 NOSIG
ZBYN,2003-04-05 16:00,ZBYN 051600Z 09001MPS CAVOK 05/M01 Q1014
ZBYN,2003-04-05 17:00,ZBYN 051700Z 10002MPS CAVOK 05/M01 Q1014
ZBYN,2003-04-05 18:00,ZBYN 051800Z 12002MPS CAVOK 05/M00 Q1014
ZBYN,2003-04-05 19:00,ZBYN 051900Z 13002MPS CAVOK 04/M01 Q1014
ZBYN,2003-04-05 20:00,ZBYN 052000Z 11002MPS CAVOK 03/M00 Q1014
ZBYN,2003-04-05 21:00,ZBYN 052100Z 09001MPS CAVOK 04/M01 Q1013
ZBYN,2003-04-05 22:00,ZBYN 052200Z 00000MPS CAVOK 03/M01 Q1013 NOSIG
ZBYN,2003-04-05 23:00,ZBYN 052300Z 12002MPS 3000 BR NSC 02/M00 Q1013 NOSIG
ZBYN,2003-04-06 00:00,ZBYN 060000Z 07001MPS 3000 FU NSC 06/00 Q1013 NOSIG
ZBYN,2003-04-06 01:00,ZBYN 060100Z 30001MPS 2600 R31/1300N FU NSC 09/01 Q1013 NOSIG
ZBYN,2003-04-06 02:00,ZBYN 060200Z VRB01MPS 3000 FU NSC 11/M01 Q1014 NOSIG
ZBYN,2003-04-06 03:00,ZBYN 060300Z VRB01MPS 4000 FU NSC 13/M02 Q1013 NOSIG
ZBYN,2003-04-06 04:00,ZBYN 060400Z 20002MPS 7000 NSC 15/M00 Q1012 NOSIG
ZBYN,2003-04-06 05:00,ZBYN 060500Z 23003MPS 7000 NSC 15/M00 Q1012 NOSIG
ZBYN,2003-04-06 06:00,ZBYN 060600Z 24002MPS 6000 NSC 13/00 Q1012 NOSIG
ZBYN,2003-04-06 07:00,ZBYN 060700Z 19002MPS 6000 NSC 14/M01 Q1011 NOSIG
ZBYN,2003-04-06 08:00,ZBYN 060800Z VRB01MPS 6000 NSC 14/M00 Q1010 NOSIG
ZBYN,2003-04-06 09:00,ZBYN 060900Z 01001MPS 6000 NSC 14/00 Q1010 NOSIG
ZBYN,2003-04-06 10:00,ZBYN 061000Z 29001MPS 6000 NSC 14/M00 Q1011 NOSIG
ZBYN,2003-04-06 11:00,ZBYN 061100Z 32003MPS CAVOK 13/05 Q1011 NOSIG
ZBYN,2003-04-06 12:00,ZBYN 061200Z 31002MPS 9999 -RA BKN050 OVC100 11/07 Q1012 NOSIG
ZBYN,2003-04-06 13:00,ZBYN 061300Z 28002MPS 9999 -RA SCT030 OVC050 10/08 Q1013 NOSIG
ZBYN,2003-04-06 14:00,ZBYN 061400Z 22002MPS 4000 -RA BR SCT030 OVC050 10/08 Q1014 NOSIG
ZBYN,2003-04-06 15:00,ZBYN 061500Z 23002MPS 2200 R31/1000 -RA BR SCT050 OVC100 09/08 Q1013 NOSIG
ZBYN,2003-04-06 16:00,ZBYN 061600Z 22002MPS 3000 R31/1200N BR NSC 09/07 Q1013 NOSIG
ZBYN,2003-04-06 17:00,ZBYN 061700Z 22001MPS 3000 BR NSC 08/07 Q1013 NOSIG
ZBYN,2003-04-06 18:00,ZBYN 061800Z 24001MPS 4000 R31/1200 BR NSC 08/07 Q1012
ZBYN,2003-04-06 19:00,ZBYN 061900Z 00000MPS CAVOK 07/05 Q1012
ZBYN,2003-04-06 20:00,ZBYN 062000Z 00000MPS 2000 BR SKC 05/04 Q1013
ZBYN,2003-04-06 21:00,ZBYN 062100Z VRB01MPS CAVOK 04/03 Q1013
ZBYN,2003-04-06 22:00,ZBYN 062200Z 33003MPS CAVOK 03/02 Q1013 NOSIG
ZBYN,2003-04-06 23:00,ZBYN 062300Z 31001MPS CAVOK 05/02 Q1014 NOSIG
ZBYN,2003-04-07 00:00,ZBYN 070000Z VRB01MPS CAVOK 08/02 Q1014 NOSIG
ZBYN,2003-04-07 01:00,ZBYN 070100Z 36001MPS CAVOK 11/01 Q1014 NOSIG
ZBYN,2003-04-07 02:00,ZBYN 070200Z 32003MPS CAVOK 13/M02 Q1014 NOSIG
ZBYN,2003-04-07 03:00,ZBYN 070300Z 23003MPS CAVOK 14/M01 Q1014 NOSIG
ZBYN,2003-04-07 04:00,ZBYN 070400Z VRB01MPS CAVOK 15/M03 Q1014 NOSIG
ZBYN,2003-04-07 05:00,ZBYN 070500Z VRB01MPS 9999 SCT040 17/M05 Q1013 NOSIG
ZBYN,2003-04-07 06:00,ZBYN 070600Z 32003MPS 9999 BKN040 17/M07 Q1012 NOSIG
ZBYN,2003-04-07 07:00,ZBYN 070700Z 34006MPS 9999 BKN040 18/M19 Q1011 NOSIG
ZBYN,2003-04-07 08:00,ZBYN 070800Z 32005MPS 9999 BKN040 18/M18 Q1011 NOSIG
ZBYN,2003-04-07 09:00,ZBYN 070900Z 32007MPS 9999 BKN040 18/M19 Q1012 NOSIG
ZBYN,2003-04-07 10:00,ZBYN 071000Z 31005MPS 9999 BKN040 16/M18 Q1012 NOSIG
ZBYN,2003-04-07 11:00,ZBYN 071100Z 33008MPS 9999 SCT040 15/M12 Q1014 NOSIG
ZBYN,2003-04-07 12:00,ZBYN 071200Z 28004MPS CAVOK 12/M09 Q1015 NOSIG
ZBYN,2003-04-07 13:00,ZBYN 071300Z 27002MPS CAVOK 11/M09 Q1016 NOSIG
ZBYN,2003-04-07 14:00,ZBYN 071400Z 00000MPS CAVOK 07/M07 Q1016 NOSIG
ZBYN,2003-04-07 15:00,ZBYN 071500Z 14001MPS CAVOK 06/M06 Q1017 NOSIG
ZBYN,2003-04-07 16:00,ZBYN 071600Z 12002MPS CAVOK 06/M05 Q1017 NOSIG
ZBYN,2003-04-07 17:00,ZBYN 071700Z 04001MPS CAVOK 05/M04 Q1018
ZBYN,2003-04-07 18:00,ZBYN 071800Z 36002MPS CAVOK 05/M04 Q1018
ZBYN,2003-04-07 19:00,ZBYN 071900Z 35003MPS CAVOK 05/M04 Q1017
ZBYN,2003-04-07 20:00,ZBYN 072000Z 35001MPS CAVOK 03/M05 Q1018
ZBYN,2003-04-07 21:00,ZBYN 072100Z 29003MPS CAVOK 03/M04 Q1018 NOSIG
ZBYN,2003-04-07 22:00,ZBYN 072200Z 05001MPS CAVOK 02/M04 Q1019 NOSIG
ZBYN,2003-04-07 23:00,ZBYN 072300Z 11001MPS CAVOK 02/M03 Q1020 NOSIG
ZBYN,2003-04-08 00:00,ZBYN 080000Z 08001MPS CAVOK 05/M02 Q1020 NOSIG
ZBYN,2003-04-08 01:00,ZBYN 080100Z 00000MPS CAVOK 07/M05 Q1020 NOSIG
ZBYN,2003-04-08 02:00,ZBYN 080200Z 04001MPS CAVOK 10/M06 Q1021 NOSIG
ZBYN,2003-04-08 03:00,ZBYN 080300Z 36002MPS CAVOK 11/M07 Q1021 NOSIG
ZBYN,2003-04-08 04:00,ZBYN 080400Z VRB01MPS CAVOK 13/M07 Q1020 NOSIG
ZBYN,2003-04-08 05:00,ZBYN 080500Z 24002MPS CAVOK 15/M09 Q1019 NOSIG
ZBYN,2003-04-08 06:00,ZBYN 080600Z 21001MPS CAVOK 16/M11 Q1018 NOSIG
ZBYN,2003-04-08 07:00,ZBYN 080700Z 23002MPS CAVOK 17/M16 Q1017 NOSIG
ZBYN,2003-04-08 08:00,ZBYN 080800Z VRB01MPS CAVOK 17/M13 Q1017 NOSIG
ZBYN,2003-04-08 09:00,ZBYN 080900Z 16002MPS CAVOK 16/M13 Q1016 NOSIG
ZBYN,2003-04-08 10:00,ZBYN 081000Z 12001MPS CAVOK 16/M13 Q1016 NOSIG
ZBYN,2003-04-08 11:00,ZBYN 081100Z 11002MPS CAVOK 12/M08 Q1016 NOSIG
ZBYN,2003-04-08 12:00,ZBYN 081200Z 08002MPS CAVOK 11/M09 Q1017 NOSIG
ZBYN,2003-04-08 13:00,ZBYN 081300Z 08007MPS CAVOK 11/M04 Q1018 NOSIG
ZBYN,2003-04-08 14:00,ZBYN 081400Z 07008MPS CAVOK 10/M04 Q1019 NOSIG
ZBYN,2003-04-08 15:00,ZBYN 081500Z 08009MPS CAVOK 09/M03 Q1019 NOSIG
ZBYN,2003-04-08 16:00,ZBYN 081600Z 08008MPS CAVOK 08/M03 Q1019 NOSIG
ZBYN,2003-04-08 17:00,ZBYN 081700Z 07006MPS CAVOK 08/M03 Q1019
ZBYN,2003-04-08 18:00,ZBYN 081800Z 09005MPS CAVOK 07/M03 Q1019
ZBYN,2003-04-08 19:00,ZBYN 081900Z 08007MPS CAVOK 07/M03 Q1019
ZBYN,2003-04-08 20:00,ZBYN 082000Z 08006MPS CAVOK 07/M03 Q1019
ZBYN,2003-04-08 21:00,ZBYN 082100Z 08005MPS CAVOK 07/M03 Q1019
ZBYN,2003-04-08 22:00,ZBYN 082200Z 08006MPS CAVOK 07/M02 Q1019 NOSIG
ZBYN,2003-04-08 23:00,ZBYN 082300Z 08005MPS CAVOK 07/M02 Q1019 NOSIG
ZBYN,2003-04-09 00:00,ZBYN 090000Z 09004MPS 8000 NSC 08/M01 Q1020 NOSIG
ZBYN,2003-04-09 01:00,ZBYN 090100Z 09005MPS 6000 NSC 09/M00 Q1019 NOSIG
ZBYN,2003-04-09 02:00,ZBYN 090200Z 12004MPS 8000 NSC 11/M01 Q1019 NOSIG
ZBYN,2003-04-09 03:00,ZBYN 090300Z 15005MPS CAVOK 13/M02 Q1018 NOSIG
ZBYN,2003-04-09 04:00,ZBYN 090400Z 15005MPS CAVOK 13/M02 Q1017 NOSIG
ZBYN,2003-04-09 05:00,ZBYN 090500Z 15004MPS CAVOK 14/M02 Q1015 NOSIG
ZBYN,2003-04-09 06:00,ZBYN 090600Z 13005MPS CAVOK 15/M02 Q1014 NOSIG
ZBYN,2003-04-09 07:00,ZBYN 090700Z 15004MPS 9999 BKN040 OVC100 15/M01 Q1014 NOSIG
ZBYN,2003-04-09 08:00,ZBYN 090800Z 12005MPS 7000 BKN040 OVC100 14/M02 Q1014 NOSIG
ZBYN,2003-04-09 09:00,ZBYN 090900Z 07009MPS 6000 BKN040 OVC100 11/M01 Q1013 NOSIG
ZBYN,2003-04-09 10:00,ZBYN 091000Z AUTO 07017KT 10/M01 A2994 RMK T01001010 IEM_DS3505
ZBYN,2003-04-09 11:00,ZBYN 091100Z 08009MPS 7000 SCT040 OVC100 09/M02 Q1015 NOSIG
ZBYN,2003-04-09 12:00,ZBYN 091200Z 08009MPS CAVOK 09/M01 Q1015 NOSIG
ZBYN,2003-04-09 13:00,ZBYN 091300Z 09008MPS CAVOK 09/M03 Q1016 NOSIG
ZBYN,2003-04-09 14:00,ZBYN 091400Z 08007MPS CAVOK 08/M03 Q1016 NOSIG
ZBYN,2003-04-09 15:00,ZBYN 091500Z 08007MPS CAVOK 08/M02 Q1016 NOSIG
ZBYN,2003-04-09 16:00,ZBYN 091600Z 08006MPS CAVOK 08/M02 Q1016 NOSIG
ZBYN,2003-04-09 17:00,ZBYN 091700Z 08005MPS CAVOK 08/M02 Q1015
ZBYN,2003-04-09 18:00,ZBYN 091800Z 09004MPS CAVOK 08/M01 Q1014
ZBYN,2003-04-09 19:00,ZBYN 091900Z 10004MPS CAVOK 08/00 Q1014 NOSIG
ZBYN,2003-04-09 20:00,ZBYN 092000Z 09005MPS 9999 -RA OVC040 07/M00 Q1013
ZBYN,2003-04-09 21:00,ZBYN 092100Z 13001MPS 9999 -RA OVC040 06/03 Q1014
ZBYN,2003-04-09 23:00,ZBYN 092300Z AUTO 08004KT 2 1/2SM 05/04 A2994 RMK T00500040 IEM_DS3505
ZBYN,2003-04-10 00:00,ZBYN 100000Z 00000MPS 3000 -RA BR SCT026 OVC040 06/04 Q1014 NOSIG
ZBYN,2003-04-10 01:00,ZBYN 100100Z 24001MPS 2000 R31/0900N -RA BR SCT040 OVC060 07/05 Q1015 NOSIG
ZBYN,2003-04-10 02:00,ZBYN 100200Z 23002MPS 8000 -RA SCT033 OVC060 07/04 Q1016 NOSIG
ZBYN,2003-04-10 03:00,ZBYN 100300Z 23002MPS 9999 SCT033 OVC060 07/04 Q1016 NOSIG
ZBYN,2003-04-10 04:00,ZBYN 100400Z 22003MPS 9999 SCT033 OVC200 10/03 Q1015 NOSIG
ZBYN,2003-04-10 05:00,ZBYN 100500Z 21004MPS 9999 FEW033 11/01 Q1013 NOSIG
ZBYN,2003-04-10 06:00,ZBYN 100600Z 22005MPS CAVOK 13/M01 Q1013 NOSIG
ZBYN,2003-04-10 07:00,ZBYN 100700Z 22007MPS CAVOK 14/M04 Q1011 NOSIG
ZBYN,2003-04-10 08:00,ZBYN 100800Z 23008MPS CAVOK 15/M05 Q1009 NOSIG
ZBYN,2003-04-10 09:00,ZBYN 100900Z AUTO 29004KT 7SM 15/M03 A2983 RMK SLP104 T01501027 57027 IEM_DS3505
ZBYN,2003-04-10 10:00,ZBYN 101000Z 27003MPS 9999 FEW033 14/M06 Q1011 NOSIG
ZBYN,2003-04-10 11:00,ZBYN 101100Z 26005MPS 9999 FEW033 12/M04 Q1011 NOSIG
ZBYN,2003-04-10 12:00,ZBYN 101200Z 26005MPS CAVOK 11/M04 Q1012 NOSIG
ZBYN,2003-04-10 13:00,ZBYN 101300Z 26002MPS CAVOK 10/M04 Q1013 NOSIG
ZBYN,2003-04-10 14:00,ZBYN 101400Z AUTO 26004KT 6SM 09/M03 A2991 RMK T00901030 IEM_DS3505
ZBYN,2003-04-10 15:00,ZBYN 101500Z AUTO 16004KT 7SM 08/01 A2988 RMK SLP140 T00770008 52002 IEM_DS3505
ZBYN,2003-04-10 16:00,ZBYN 101600Z AUTO 17004KT 6SM 07/M02 A2988 RMK T00701020 IEM_DS3505
ZBYN,2003-04-10 17:00,ZBYN 101700Z 10002MPS CAVOK 04/M01 Q1011 NOSIG
ZBYN,2003-04-10 18:00,ZBYN 101800Z 10001MPS CAVOK 05/M01 Q1011
ZBYN,2003-04-10 19:00,ZBYN 101900Z 10001MPS CAVOK 02/M01 Q1011
ZBYN,2003-04-10 20:00,ZBYN 102000Z 10001MPS CAVOK 01/M02 Q1011
ZBYN,2003-04-10 21:00,ZBYN 102100Z 08002MPS CAVOK 02/M01 Q1011
ZBYN,2003-04-10 22:00,ZBYN 102200Z 08002MPS 6000 SKC 03/00 Q1011 NOSIG
ZBYN,2003-04-10 23:00,ZBYN 102300Z 11003MPS 3000 R31/1200N BR SKC 04/01 Q1012 NOSIG
ZBYN,2003-04-11 00:00,ZBYN 110000Z 12003MPS 3000 R31/1000N BR SKC 07/03 Q1012 NOSIG
ZBYN,2003-04-11 01:00,ZBYN 110100Z 16002MPS 5000 BR SKC 09/03 Q1011 NOSIG
ZBYN,2003-04-11 02:00,ZBYN 110200Z 23004MPS 7000 SKC 13/M00 Q1010
ZBYN,2003-04-11 03:00,ZBYN 110300Z 25006MPS 8000 SKC 15/M04 Q1010 NOSIG
ZBYN,2003-04-11 04:00,ZBYN 110400Z 23004MPS 5000 SA NSC 17/M04 Q1009 NOSIG
ZBYN,2003-04-11 05:00,ZBYN 110500Z 32010MPS 8000 SKC 19/M24 Q1008 NOSIG
ZBYN,2003-04-11 06:00,ZBYN 110600Z 30008MPS 8000 SKC 20/M27 Q1007 NOSIG
ZBYN,2003-04-11 07:00,ZBYN 110700Z 30008MPS CAVOK 21/M23 Q1006 NOSIG
ZBYN,2003-04-11 08:00,ZBYN 110800Z 31007MPS CAVOK 20/M21 Q1006 NOSIG
ZBYN,2003-04-11 09:00,ZBYN 110900Z 30008MPS 9999 FEW030 19/M18 Q1006 NOSIG
ZBYN,2003-04-11 10:00,ZBYN 111000Z 29007MPS CAVOK 18/M23 Q1007 NOSIG
ZBYN,2003-04-11 11:00,ZBYN 111100Z 29003MPS CAVOK 16/M20 Q1007 NOSIG
ZBYN,2003-04-11 12:00,ZBYN 111200Z 26003MPS CAVOK 14/M09 Q1008 NOSIG
ZBYN,2003-04-11 13:00,ZBYN 111300Z 30003MPS CAVOK 13/M10 Q1009 NOSIG
ZBYN,2003-04-11 14:00,ZBYN 111400Z 28003MPS CAVOK 13/M12 Q1009 NOSIG
ZBYN,2003-04-11 15:00,ZBYN 111500Z 30004MPS CAVOK 12/M13 Q1009 NOSIG
ZBYN,2003-04-11 16:00,ZBYN 111600Z 30004MPS CAVOK 13/M16 Q1010 NOSIG
ZBYN,2003-04-11 17:00,ZBYN 111700Z 28006MPS CAVOK 12/M16 Q1010 NOSIG
ZBYN,2003-04-11 18:00,ZBYN 111800Z 28005MPS CAVOK 12/M18 Q1011
ZBYN,2003-04-11 19:00,ZBYN 111900Z 32008MPS CAVOK 10/M17 Q1012
ZBYN,2003-04-11 20:00,ZBYN 112000Z 32004MPS CAVOK 08/M23 Q1014
ZBYN,2003-04-11 21:00,ZBYN 112100Z 32008MPS 5000 SA SKC 08/M28 Q1013 NOSIG
ZBYN,2003-04-11 22:00,ZBYN 112200Z 31004MPS 5000 SA SKC 06/M22 Q1015 NOSIG
ZBYN,2003-04-11 23:00,ZBYN 112300Z 32003MPS 3000 SA SKC 06/M16 Q1015 NOSIG
ZBYN,2003-04-12 00:00,ZBYN 120000Z 29005MPS 4000 SA NSC 07/M15 Q1016 NOSIG
ZBYN,2003-04-12 01:00,ZBYN 120100Z 29005MPS 7000 NSC 09/M14 Q1016 NOSIG
ZBYN,2003-04-12 02:00,ZBYN 120200Z 30005MPS 9000 NSC 11/M16 Q1016 NOSIG
ZBYN,2003-04-12 03:00,ZBYN 120300Z 28002MPS CAVOK 13/M18 Q1015 NOSIG
ZBYN,2003-04-12 04:00,ZBYN 120400Z 27003MPS CAVOK 14/M22 Q1014 NOSIG
ZBYN,2003-04-12 05:00,ZBYN 120500Z 27003MPS 160V080 CAVOK 16/M28 Q1014 NOSIG
ZBYN,2003-04-12 06:00,ZBYN 120600Z 27003MPS CAVOK 17/M39 Q1013 NOSIG
ZBYN,2003-04-12 07:00,ZBYN 120700Z 34004MPS CAVOK 17/M33 Q1014 NOSIG
ZBYN,2003-04-12 08:00,ZBYN 120800Z 32007MPS CAVOK 17/M23 Q1014 NOSIG
ZBYN,2003-04-12 09:00,ZBYN 120900Z 30007MPS CAVOK 16/M18 Q1014 NOSIG
ZBYN,2003-04-12 10:00,ZBYN 121000Z AUTO 31012KT 6SM 14/M06 A2997 RMK T01401060 IEM_DS3505
ZBYN,2003-04-12 11:00,ZBYN 121100Z AUTO 30008KT 6SM 12/ A3000 RMK IEM_DS3505
ZBYN,2003-04-12 12:00,ZBYN 121200Z 30004MPS CAVOK 11/M15 Q1017 NOSIG
ZBYN,2003-04-12 13:00,ZBYN 121300Z AUTO 32010KT 6SM 09/M15 A3006 RMK T00901150 IEM_DS3505
ZBYN,2003-04-12 14:00,ZBYN 121400Z AUTO 31014KT 6SM 11/M15 A3009 RMK T01101150 IEM_DS3505
ZBYN,2003-04-12 15:00,ZBYN 121500Z 28002MPS CAVOK 09/M13 Q1020 NOSIG
ZBYN,2003-04-12 16:00,ZBYN 121600Z 27002MPS CAVOK 10/M11 Q1020 NOSIG
ZBYN,2003-04-12 17:00,ZBYN 121700Z AUTO 20002KT 6SM 08/M11 A3012 RMK T00801110 IEM_DS3505
ZBYN,2003-04-12 18:00,ZBYN 121800Z 25001MPS CAVOK 07/M11 Q1019
ZBYN,2003-04-12 19:00,ZBYN 121900Z 23001MPS CAVOK 07/M10 Q1019
ZBYN,2003-04-12 20:00,ZBYN 122000Z 20002MPS CAVOK 06/M10 Q1018
ZBYN,2003-04-12 21:00,ZBYN 122100Z VRB01MPS CAVOK 05/M09 Q1018
ZBYN,2003-04-12 22:00,ZBYN 122200Z 12001MPS CAVOK 04/M07 Q1018 NOSIG
ZBYN,2003-04-12 23:00,ZBYN 122300Z 08001MPS CAVOK 06/M07 Q1018 NOSIG
ZBYN,2003-04-13 00:00,ZBYN 130000Z AUTO 16002KT 5SM 07/M03 RMK SLP202 T00701031 52008 IEM_DS3505
ZBYN,2003-04-13 01:00,ZBYN 130100Z 24002MPS CAVOK 08/M11 Q1018 NOSIG
ZBYN,2003-04-13 02:00,ZBYN 130200Z AUTO 23006KT 6SM 13/M11 A3006 RMK T01301110 IEM_DS3505
ZBYN,2003-04-13 03:00,ZBYN 130300Z 21003MPS CAVOK 14/M11 Q1017 NOSIG
ZBYN,2003-04-13 05:00,ZBYN 130500Z AUTO 30016KT 6SM 17/M16 A2997 RMK T01701160 IEM_DS3505
ZBYN,2003-04-13 06:00,ZBYN 130600Z 30006MPS CAVOK 18/M17 Q1014 NOSIG
ZBYN,2003-04-13 07:00,ZBYN 130700Z 29004MPS CAVOK 17/M16 Q1013 NOSIG
ZBYN,2003-04-13 09:00,ZBYN 130900Z 33005MPS CAVOK 18/M17 Q1011 NOSIG
ZBYN,2003-04-13 10:00,ZBYN 131000Z 29004MPS CAVOK 17/M16 Q1011 NOSIG
ZBYN,2003-04-13 11:00,ZBYN 131100Z 31003MPS CAVOK 15/M13 Q1012 NOSIG
ZBYN,2003-04-13 12:00,ZBYN 131200Z 29003MPS CAVOK 13/M10 Q1013 NOSIG
ZBYN,2003-04-13 13:00,ZBYN 131300Z 29002MPS CAVOK 11/M08 Q1013 NOSIG
ZBYN,2003-04-13 14:00,ZBYN 131400Z 02001MPS CAVOK 10/M07 Q1013 NOSIG
ZBYN,2003-04-13 15:00,ZBYN 131500Z 00000MPS CAVOK 08/M07 Q1013 NOSIG
ZBYN,2003-04-13 16:00,ZBYN 131600Z 06001MPS CAVOK 07/M05 Q1013 NOSIG
ZBYN,2003-04-13 17:00,ZBYN 131700Z 11001MPS CAVOK 05/M05 Q1012
ZBYN,2003-04-13 18:00,ZBYN 131800Z 12003MPS CAVOK 03/M05 Q1012
ZBYN,2003-04-13 19:00,ZBYN 131900Z 09001MPS CAVOK 03/M04 Q1012
ZBYN,2003-04-13 20:00,ZBYN 132000Z 09002MPS CAVOK 04/M03 Q1011
ZBYN,2003-04-13 21:00,ZBYN 132100Z 09002MPS CAVOK 02/M03 Q1011
ZBYN,2003-04-13 22:00,ZBYN 132200Z 09002MPS CAVOK 01/M03 Q1011 NOSIG
ZBYN,2003-04-13 23:00,ZBYN 132300Z 11002MPS 6000 SKC 05/M01 Q1012 NOSIG
ZBYN,2003-04-14 00:00,ZBYN 140000Z 15002MPS 6000 SKC 08/M01 Q1012 NOSIG
ZBYN,2003-04-14 01:00,ZBYN 140100Z 15002MPS 6000 SKC 10/M02 Q1012 NOSIG
ZBYN,2003-04-14 02:00,ZBYN 140200Z 21004MPS 6000 SKC 13/M02 Q1011 NOSIG
ZBYN,2003-04-14 03:00,ZBYN 140300Z 22004MPS 8000 SKC 16/M04 Q1010 NOSIG
ZBYN,2003-04-14 04:00,ZBYN 140400Z 23004MPS CAVOK 18/M04 Q1009 NOSIG
ZBYN,2003-04-14 05:00,ZBYN 140500Z 23006MPS CAVOK 21/M07 Q1007 NOSIG
ZBYN,2003-04-14 06:00,ZBYN 140600Z 24007MPS CAVOK 22/M14 Q1006 NOSIG
ZBYN,2003-04-14 07:00,ZBYN 140700Z 23006G11MPS CAVOK 22/M12 Q1005 NOSIG
ZBYN,2003-04-14 08:00,ZBYN 140800Z 22006MPS CAVOK 22/M12 Q1005 NOSIG
ZBYN,2003-04-14 09:00,ZBYN 140900Z 23006MPS CAVOK 21/M12 Q1005 NOSIG
ZBYN,2003-04-14 10:00,ZBYN 141000Z 23004MPS CAVOK 21/M08 Q1004 NOSIG
ZBYN,2003-04-14 11:00,ZBYN 141100Z AUTO 23006KT 6SM 18/M05 A2968 RMK T01801050 IEM_DS3505
ZBYN,2003-04-14 12:00,ZBYN 141200Z 23003MPS CAVOK 17/M02 Q1005 NOSIG
ZBYN,2003-04-14 13:00,ZBYN 141300Z 25004MPS CAVOK 17/M03 Q1006 NOSIG
ZBYN,2003-04-14 14:00,ZBYN 141400Z 23003MPS CAVOK 16/M02 Q1006 NOSIG
ZBYN,2003-04-14 15:00,ZBYN 141500Z 21002MPS CAVOK 14/M01 Q1006 NOSIG
ZBYN,2003-04-14 16:00,ZBYN 141600Z 09003MPS CAVOK 12/M01 Q1006 NOSIG
ZBYN,2003-04-14 17:00,ZBYN 141700Z 10003MPS CAVOK 13/M01 Q1006
ZBYN,2003-04-14 18:00,ZBYN 141800Z 12002MPS CAVOK 12/M02 Q1006
ZBYN,2003-04-14 19:00,ZBYN 141900Z 13001MPS CAVOK 11/M02 Q1006
ZBYN,2003-04-14 20:00,ZBYN 142000Z 08001MPS CAVOK 09/M02 Q1006
ZBYN,2003-04-14 21:00,ZBYN 142100Z 11002MPS CAVOK 08/M02 Q1006
ZBYN,2003-04-14 22:00,ZBYN 142200Z 10002MPS CAVOK 06/M02 Q1006 NOSIG
ZBYN,2003-04-14 23:00,ZBYN 142300Z 11002MPS CAVOK 08/M00 Q1007 NOSIG
ZBYN,2003-04-15 00:00,ZBYN 150000Z 12003MPS CAVOK 14/M01 Q1007 NOSIG
ZBYN,2003-04-15 01:00,ZBYN 150100Z 13003MPS CAVOK 18/M03 Q1008 NOSIG
ZBYN,2003-04-15 02:00,ZBYN 150200Z 20002MPS CAVOK 19/M06 Q1007 NOSIG
ZBYN,2003-04-15 03:00,ZBYN 150300Z VRB01MPS CAVOK 21/M07 Q1007 NOSIG
ZBYN,2003-04-15 04:00,ZBYN 150400Z VRB01MPS CAVOK 23/M09 Q1006 NOSIG
ZBYN,2003-04-15 05:00,ZBYN 150500Z 16002MPS CAVOK 25/M10 Q1005 NOSIG
ZBYN,2003-04-15 06:00,ZBYN 150600Z 26002MPS CAVOK 27/M07 Q1004 NOSIG
ZBYN,2003-04-15 07:00,ZBYN 150700Z 24002MPS CAVOK 27/M06 Q1003 NOSIG
ZBYN,2003-04-15 08:00,ZBYN 150800Z AUTO 25004KT 6SM 27/M05 A2956 RMK T02701050 IEM_DS3505
ZBYN,2003-04-15 09:00,ZBYN 150900Z AUTO 22002KT 9SM 27/ A2953 RMK SLP983 57038 IEM_DS3505
ZBYN,2003-04-15 10:00,ZBYN 151000Z AUTO 31004KT 6SM 26/M03 A2956 RMK T02601030 IEM_DS3505
ZBYN,2003-04-15 11:00,ZBYN 151100Z AUTO 07002KT 6SM 24/M02 A2956 RMK T02401020 IEM_DS3505
ZBYN,2003-04-15 12:00,ZBYN 151200Z AUTO 16004KT 7SM 22/06 A2959 RMK SLP002 T02250056 52013 IEM_DS3505
ZBYN,2003-04-15 13:00,ZBYN 151300Z AUTO 17004KT 6SM 22/00 A2962 RMK T02200000 IEM_DS3505
ZBYN,2003-04-15 14:00,ZBYN 151400Z AUTO 15004KT 6SM 18/M02 A2965 RMK T01801020 IEM_DS3505
ZBYN,2003-04-15 15:00,ZBYN 151500Z AUTO 14006KT 7SM 18/05 A2968 RMK SLP023 T01850046 52026 IEM_DS3505
ZBYN,2003-04-15 16:00,ZBYN 151600Z AUTO 13004KT 6SM 14/01 A2968 RMK T01400010 IEM_DS3505
ZBYN,2003-04-15 17:00,ZBYN 151700Z AUTO 11006KT 6SM 14/03 A2968 RMK T01400030 IEM_DS3505
ZBYN,2003-04-15 18:00,ZBYN 151800Z AUTO 14004KT 7SM 14/06 A2968 RMK SLP023 T01450057 52001 IEM_DS3505
ZBYN,2003-04-15 19:00,ZBYN 151900Z AUTO 09004KT 6SM 15/05 A2965 RMK T01500050 IEM_DS3505
ZBYN,2003-04-15 20:00,ZBYN 152000Z AUTO 11004KT 6SM 10/04 A2965 RMK T01000040 IEM_DS3505
ZBYN,2003-04-15 21:00,ZBYN 152100Z 12002MPS CAVOK 10/03 Q1004
ZBYN,2003-04-15 22:00,ZBYN 152200Z AUTO 10002KT 6SM 10/04 A2965 RMK T01000040 IEM_DS3505
ZBYN,2003-04-16 00:00,ZBYN 160000Z AUTO 36004KT 5SM 16/08 A2968 RMK SLP037 T01580083 52020 IEM_DS3505
ZBYN,2003-04-16 01:00,ZBYN 160100Z AUTO 15004KT 6SM 19/05 A2968 RMK T01900050 IEM_DS3505
ZBYN,2003-04-16 02:00,ZBYN 160200Z AUTO 15004KT 6SM 20/05 A2968 RMK T02000050 IEM_DS3505
ZBYN,2003-04-16 03:00,ZBYN 160300Z AUTO 22004KT 4SM 20/07 A2968 RMK SLP034 T02040069 57002 IEM_DS3505
ZBYN,2003-04-16 04:00,ZBYN 160400Z AUTO 6SM 22/04 A2968 RMK T02200040 IEM_DS3505
ZBYN,2003-04-16 05:00,ZBYN 160500Z AUTO 6SM 23/04 A2965 RMK T02300040 IEM_DS3505
ZBYN,2003-04-16 06:00,ZBYN 160600Z AUTO 22004KT 6SM 24/08 A2965 RMK SLP018 T02360083 57016 IEM_DS3505
ZBYN,2003-04-16 07:00,ZBYN 160700Z VRB01MPS CAVOK 24/02 Q1003 NOSIG
ZBYN,2003-04-16 08:00,ZBYN 160800Z AUTO 34004KT 6SM 25/02 A2959 RMK T02500020 IEM_DS3505
ZBYN,2003-04-16 09:00,ZBYN 160900Z AUTO 32004KT 7SM 25/07 A2959 RMK SLP008 T02510074 57010 IEM_DS3505
ZBYN,2003-04-16 10:00,ZBYN 161000Z AUTO 6SM 24/04 A2962 RMK T02400040 IEM_DS3505
ZBYN,2003-04-16 11:00,ZBYN 161100Z AUTO 09010KT 6SM 22/08 A2962 RMK T02200080 IEM_DS3505
ZBYN,2003-04-16 12:00,ZBYN 161200Z AUTO 00000KT 6SM 21/10 A2965 RMK SLP016 T02120101 52007 IEM_DS3505
ZBYN,2003-04-16 13:00,ZBYN 161300Z AUTO 06010KT 6SM 19/10 A2965 RMK T01900100 IEM_DS3505
ZBYN,2003-04-16 14:00,ZBYN 161400Z 06004MPS CAVOK 18/10 Q1005 NOSIG
ZBYN,2003-04-16 15:00,ZBYN 161500Z 07003MPS 7000 NSC 17/10 Q1005 NOSIG
ZBYN,2003-04-16 16:00,ZBYN 161600Z 06003MPS 8000 NSC 17/10 Q1005 NOSIG
ZBYN,2003-04-16 17:00,ZBYN 161700Z 00000MPS 7000 NSC 15/09 Q1006 NOSIG
ZBYN,2003-04-16 18:00,ZBYN 161800Z 00000MPS 6000 NSC 15/09 Q1006
ZBYN,2003-04-16 19:00,ZBYN 161900Z VRB01MPS 6000 NSC 13/08 Q1005
ZBYN,2003-04-16 20:00,ZBYN 162000Z 00000MPS 6000 NSC 14/09 Q1006
ZBYN,2003-04-16 21:00,ZBYN 162100Z 25001MPS 6000 NSC 14/09 Q1006
ZBYN,2003-04-16 22:00,ZBYN 162200Z 05003MPS 5000 FU NSC 15/10 Q1007 NOSIG
ZBYN,2003-04-16 23:00,ZBYN 162300Z 05006MPS 4000 BR NSC 15/11 Q1008 NOSIG
ZBYN,2003-04-17 00:00,ZBYN 170000Z 06007MPS 2500 SA NSC 15/11 Q1009 NOSIG
ZBYN,2003-04-17 01:00,ZBYN 170100Z 05005MPS 2500 SA NSC 16/11 Q1009 NOSIG
ZBYN,2003-04-17 02:00,ZBYN 170200Z 05005MPS 3000 BR NSC 16/11 Q1009 NOSIG
ZBYN,2003-04-17 03:00,ZBYN 170300Z 04005MPS 3000 BR NSC 16/11 Q1009 NOSIG
ZBYN,2003-04-17 04:00,ZBYN 170400Z 02003MPS 2500 -RA BR SCT040 OVC100 15/11 Q1009 NOSIG
ZBYN,2003-04-17 05:00,ZBYN 170500Z 01004MPS 2000 -TSRA BR FEW040CB BKN040 14/10 Q1009 NOSIG
ZBYN,2003-04-17 06:00,ZBYN 170600Z 30004MPS 1400 R31/1200N -TSRA BR BKN040CB SCT040 13/10 Q1010 NOSIG
ZBYN,2003-04-17 07:00,ZBYN 170700Z 05003MPS 1600 -TSRA BR BKN040CB SCT030 14/10 Q1009 NOSIG
ZBYN,2003-04-17 09:00,ZBYN 170900Z 08008MPS 9999 BKN040 OVC100 12/09 Q1008 NOSIG
ZBYN,2003-04-17 10:00,ZBYN 171000Z 06007MPS 9999 BKN020 OVC040 11/07 Q1011 NOSIG
ZBYN,2003-04-17 11:00,ZBYN 171100Z 08006MPS 9999 SCT040 OVC100 11/07 Q1012 NOSIG
ZBYN,2003-04-17 12:00,ZBYN 171200Z 09005MPS 9999 SCT040 OVC100 10/06 Q1014 NOSIG
ZBYN,2003-04-17 13:00,ZBYN 171300Z 08005MPS CAVOK 10/06 Q1015 NOSIG
ZBYN,2003-04-17 14:00,ZBYN 171400Z 08005MPS CAVOK 09/05 Q1015 NOSIG
ZBYN,2003-04-17 15:00,ZBYN 171500Z 07003MPS CAVOK 09/06 Q1015 NOSIG
ZBYN,2003-04-17 16:00,ZBYN 171600Z 06004MPS CAVOK 09/05 Q1016 NOSIG
ZBYN,2003-04-17 17:00,ZBYN 171700Z 07003MPS CAVOK 09/05 Q1016
ZBYN,2003-04-17 18:00,ZBYN 171800Z 09003MPS CAVOK 08/05 Q1016
ZBYN,2003-04-17 19:00,ZBYN 171900Z 08003MPS CAVOK 08/04 Q1016 NOSIG
ZBYN,2003-04-17 20:00,ZBYN 172000Z 05001MPS CAVOK 08/04 Q1016
ZBYN,2003-04-17 21:00,ZBYN 172100Z 34004MPS CAVOK 07/03 Q1016
ZBYN,2003-04-17 22:00,ZBYN 172200Z 35004MPS CAVOK 07/02 Q1016 NOSIG
ZBYN,2003-04-17 23:00,ZBYN 172300Z 34004MPS CAVOK 06/01 Q1017 NOSIG
ZBYN,2003-04-18 00:00,ZBYN 180000Z 34005MPS 9999 -RA OVC030 06/00 Q1018 NOSIG
ZBYN,2003-04-18 01:00,ZBYN 180100Z 35006MPS 9999 -RA OVC030 05/M01 Q1019 NOSIG
ZBYN,2003-04-18 02:00,ZBYN 180200Z 35006MPS 9999 -RASN SCT030 OVC046 04/M00 Q1020 NOSIG
ZBYN,2003-04-18 03:00,ZBYN 180300Z 35005MPS 9999 -RA NSC 03/M00 Q1020 NOSIG
ZBYN,2003-04-18 04:00,ZBYN 180400Z 34005MPS 9999 -RA FEW040 OVC050 03/M00 Q1020 NOSIG
ZBYN,2003-04-18 05:00,ZBYN 180500Z 35004MPS CAVOK 05/01 Q1019 NOSIG
ZBYN,2003-04-18 06:00,ZBYN 180600Z 35005MPS CAVOK 06/00 Q1018 NOSIG
ZBYN,2003-04-18 07:00,ZBYN 180700Z 32003MPS CAVOK 08/02 Q1017 NOSIG
ZBYN,2003-04-18 09:00,ZBYN 180900Z 25003MPS CAVOK 07/03 Q1016 NOSIG
ZBYN,2003-04-18 10:00,ZBYN 181000Z 24003MPS 4000 BR NSC 06/03 Q1017 NOSIG
ZBYN,2003-04-18 11:00,ZBYN 181100Z 23002MPS 2000 BR NSC 06/03 Q1017 NOSIG
ZBYN,2003-04-18 12:00,ZBYN 181200Z 14002MPS 2000 BR NSC 05/02 Q1017 NOSIG
ZBYN,2003-04-18 13:00,ZBYN 181300Z 12001MPS 2200 BR NSC 05/02 Q1018 NOSIG
ZBYN,2003-04-18 14:00,ZBYN 181400Z 10001MPS 3500 BR NSC 04/01 Q1018 NOSIG
ZBYN,2003-04-18 15:00,ZBYN 181500Z 11001MPS 3500 R31/1200N BR NSC 04/01 Q1018 NOSIG
ZBYN,2003-04-18 16:00,ZBYN 181600Z 11001MPS 2200 R31/1000D BR SKC 04/01 Q1017 NOSIG
ZBYN,2003-04-18 17:00,ZBYN 181700Z 13001MPS 2000 R31/0800D BR SKC 03/M00 Q1017
ZBYN,2003-04-18 18:00,ZBYN 181800Z 08002MPS 2000 R31/1100N BR SKC 03/00 Q1015
ZBYN,2003-04-18 19:00,ZBYN 181900Z 05002MPS 3000 R31/1400 BR SKC 03/M00 Q1014
ZBYN,2003-04-18 20:00,ZBYN 182000Z 34002MPS 2000 R31/1000 BR SKC 03/M00 Q1014
ZBYN,2003-04-18 21:00,ZBYN 182100Z 02001MPS 3000 R31/1200N BR SKC 03/M00 Q1014
ZBYN,2003-04-18 22:00,ZBYN 182200Z 00000MPS 2500 R31/1000N BR SKC 02/M01 Q1014 NOSIG
ZBYN,2003-04-18 23:00,ZBYN 182300Z 28001MPS 1600 R31/0700N BR NSC 02/M01 Q1014 NOSIG
ZBYN,2003-04-19 00:00,ZBYN 190000Z 08002MPS 6000 NSC 05/02 Q1014 NOSIG
ZBYN,2003-04-19 01:00,ZBYN 190100Z 32003MPS 6000 NSC 07/02 Q1014 NOSIG
ZBYN,2003-04-19 02:00,ZBYN 190200Z 34004MPS 6000 NSC 07/02 Q1015 NOSIG
ZBYN,2003-04-19 03:00,ZBYN 190300Z AUTO 07002KT 4SM 09/01 A2994 RMK SLP163 T00900013 57004 IEM_DS3505
ZBYN,2003-04-19 04:00,ZBYN 190400Z AUTO 09008KT 6SM 09/01 A2994 RMK T00900010 IEM_DS3505
ZBYN,2003-04-19 05:00,ZBYN 190500Z AUTO 08008KT 6SM 09/01 A2991 RMK T00900010 IEM_DS3505
ZBYN,2003-04-19 06:00,ZBYN 190600Z AUTO 11006KT 9SM 09/02 A2988 RMK SLP144 T00920016 57019 IEM_DS3505
ZBYN,2003-04-19 07:00,ZBYN 190700Z 09004MPS 9999 SCT040 OVC100 10/02 Q1012 NOSIG
ZBYN,2003-04-19 08:00,ZBYN 190800Z 11005MPS CAVOK 10/03 Q1011 NOSIG
ZBYN,2003-04-19 09:00,ZBYN 190900Z 10002MPS 9999 SCT040 OVC100 09/03 Q1011 NOSIG
ZBYN,2003-04-19 10:00,ZBYN 191000Z 05002MPS CAVOK 09/03 Q1012 NOSIG
ZBYN,2003-04-19 11:00,ZBYN 191100Z 09001MPS 9999 -RA SCT030 OVC100 09/04 Q1012 NOSIG
ZBYN,2003-04-19 12:00,ZBYN 191200Z 11002MPS 9999 OVC030 08/04 Q1013 NOSIG
ZBYN,2003-04-19 13:00,ZBYN 191300Z 13002MPS 9999 OVC030 08/04 Q1014 NOSIG
ZBYN,2003-04-19 14:00,ZBYN 191400Z 15001MPS 9999 OVC030 08/04 Q1014 NOSIG
ZBYN,2003-04-19 15:00,ZBYN 191500Z 00000MPS CAVOK 07/04 Q1015 NOSIG
ZBYN,2003-04-19 16:00,ZBYN 191600Z 22001MPS 3000 BR NSC 07/04 Q1015 NOSIG
ZBYN,2003-04-19 17:00,ZBYN 191700Z 00000MPS 3000 BR NSC 07/04 Q1016
ZBYN,2003-04-19 18:00,ZBYN 191800Z 00000MPS 2000 R31/1300 BR NSC 05/02 Q1016
ZBYN,2003-04-19 19:00,ZBYN 191900Z 29003MPS CAVOK 06/02 Q1016
ZBYN,2003-04-19 20:00,ZBYN 192000Z 36002MPS CAVOK 06/01 Q1017
ZBYN,2003-04-19 21:00,ZBYN 192100Z 03004MPS CAVOK 05/M00 Q1017 NOSIG
ZBYN,2003-04-19 22:00,ZBYN 192200Z 01005MPS CAVOK 04/M01 Q1018 NOSIG
ZBYN,2003-04-19 23:00,ZBYN 192300Z 35003MPS CAVOK 05/M02 Q1020 NOSIG
ZBYN,2003-04-20 00:00,ZBYN 200000Z 36007MPS CAVOK 06/M03 Q1021 NOSIG
ZBYN,2003-04-20 01:00,ZBYN 200100Z 36005MPS CAVOK 08/M04 Q1023 NOSIG
ZBYN,2003-04-20 02:00,ZBYN 200200Z 01008MPS CAVOK 08/M05 Q1023 NOSIG
ZBYN,2003-04-20 03:00,ZBYN 200300Z 01006MPS CAVOK 09/M06 Q1023 NOSIG
ZBYN,2003-04-20 04:00,ZBYN 200400Z 35006MPS CAVOK 10/M07 Q1023 NOSIG
ZBYN,2003-04-20 05:00,ZBYN 200500Z 02007MPS CAVOK 11/M09 Q1022 NOSIG
ZBYN,2003-04-20 06:00,ZBYN 200600Z 01007MPS CAVOK 12/M11 Q1021 NOSIG
ZBYN,2003-04-20 07:00,ZBYN 200700Z 36007MPS CAVOK 12/M09 Q1021 NOSIG
ZBYN,2003-04-20 08:00,ZBYN 200800Z 36005MPS CAVOK 13/M10 Q1020 NOSIG
ZBYN,2003-04-20 09:00,ZBYN 200900Z VRB01MPS CAVOK 12/M09 Q1019 NOSIG
ZBYN,2003-04-20 10:00,ZBYN 201000Z VRB01MPS CAVOK 12/M07 Q1020 NOSIG
ZBYN,2003-04-20 11:00,ZBYN 201100Z 34003MPS CAVOK 11/M07 Q1020 NOSIG
ZBYN,2003-04-20 12:00,ZBYN 201200Z 29002MPS CAVOK 08/M05 Q1021 NOSIG
ZBYN,2003-04-20 13:00,ZBYN 201300Z 05001MPS CAVOK 08/M02 Q1022 NOSIG
ZBYN,2003-04-20 14:00,ZBYN 201400Z 07005MPS CAVOK 08/M01 Q1022 NOSIG
ZBYN,2003-04-20 15:00,ZBYN 201500Z 08006MPS CAVOK 08/M02 Q1022 NOSIG
ZBYN,2003-04-20 16:00,ZBYN 201600Z 09005MPS CAVOK 07/M01 Q1023 NOSIG
ZBYN,2003-04-20 17:00,ZBYN 201700Z 11004MPS CAVOK 06/M01 Q1023
ZBYN,2003-04-20 18:00,ZBYN 201800Z 08005MPS CAVOK 06/M01 Q1022
ZBYN,2003-04-20 19:00,ZBYN 201900Z 07005MPS CAVOK 06/M02 Q1022
ZBYN,2003-04-20 20:00,ZBYN 202000Z 08005MPS CAVOK 07/M02 Q1022
ZBYN,2003-04-20 21:00,ZBYN 202100Z 08004MPS CAVOK 06/M02 Q1022
ZBYN,2003-04-20 22:00,ZBYN 202200Z 08004MPS CAVOK 06/M02 Q1022 NOSIG
ZBYN,2003-04-20 23:00,ZBYN 202300Z 08004MPS CAVOK 07/M02 Q1022 NOSIG
ZBYN,2003-04-21 00:00,ZBYN 210000Z 08005MPS CAVOK 07/M02 Q1022 NOSIG
ZBYN,2003-04-21 01:00,ZBYN 210100Z 08005MPS CAVOK 08/M02 Q1021 NOSIG
ZBYN,2003-04-21 02:00,ZBYN 210200Z 09005MPS CAVOK 10/M04 Q1021 NOSIG
ZBYN,2003-04-21 03:00,ZBYN 210300Z 09003MPS CAVOK 12/M04 Q1021 NOSIG
ZBYN,2003-04-21 04:00,ZBYN 210400Z 12003MPS CAVOK 12/M02 Q1020 NOSIG
ZBYN,2003-04-21 05:00,ZBYN 210500Z 10003MPS CAVOK 12/M02 Q1019 NOSIG
ZBYN,2003-04-21 06:00,ZBYN 210600Z 14002MPS CAVOK 12/M01 Q1019
ZBYN,2003-04-21 07:00,ZBYN 210700Z 18002MPS 9999 -RA OVC040 12/00 Q1018 NOSIG
ZBYN,2003-04-21 08:00,ZBYN 210800Z 19002MPS 9999 -RA OVC040 11/01 Q1018 NOSIG
ZBYN,2003-04-21 09:00,ZBYN 210900Z 12003MPS 9999 -RA SCT026 OVC050 11/02 Q1018 NOSIG
ZBYN,2003-04-21 10:00,ZBYN 211000Z 08004MPS 9999 -RA SCT026 OVC040 09/03 Q1018 NOSIG
ZBYN,2003-04-21 11:00,ZBYN 211100Z 07002MPS 9999 -RA SCT026 OVC040 09/02 Q1018 NOSIG
ZBYN,2003-04-21 12:00,ZBYN 211200Z 09003MPS 9999 OVC040 09/02 Q1019 NOSIG
ZBYN,2003-04-21 13:00,ZBYN 211300Z 07002MPS 9999 -RA OVC040 08/02 Q1020 NOSIG
ZBYN,2003-04-21 14:00,ZBYN 211400Z 34002MPS 7000 -RA OVC030 07/04 Q1020 NOSIG
ZBYN,2003-04-21 15:00,ZBYN 211500Z 36002MPS 7000 -RA OVC030 07/04 Q1020 NOSIG
ZBYN,2003-04-21 16:00,ZBYN 211600Z 35001MPS 7000 -RA OVC030 07/04 Q1020
ZBYN,2003-04-21 17:00,ZBYN 211700Z 01001MPS 6000 -RA OVC030 07/04 Q1019
ZBYN,2003-04-21 18:00,ZBYN 211800Z AUTO 32002KT 6SM 06/05 RMK 60008 SLP202 T00610052 57009 IEM_DS3505
ZBYN,2003-04-21 19:00,ZBYN 211900Z 00000MPS 5000 -RA BR OVC030 06/03 Q1018
ZBYN,2003-04-21 20:00,ZBYN 212000Z 00000MPS 4000 BR OVC033 06/03 Q1018
ZBYN,2003-04-21 21:00,ZBYN 212100Z 14001MPS 4000 BR OVC033 06/03 Q1017
ZBYN,2003-04-21 22:00,ZBYN 212200Z 00000MPS 3000 BR OVC033 06/03 Q1018
ZBYN,2003-04-22 00:00,ZBYN 220000Z 16001MPS 1600 BR OVC033 07/04 Q1018 NOSIG
ZBYN,2003-04-22 01:00,ZBYN 220100Z VRB01MPS 2200 R31/1300 BR OVC033 07/04 Q1019 NOSIG
ZBYN,2003-04-22 02:00,ZBYN 220200Z 17001MPS 2000 BR FEW033 OVC060 08/04 Q1019 NOSIG
ZBYN,2003-04-22 03:00,ZBYN 220300Z VRB01MPS 2000 BR NSC 08/05 Q1019 NOSIG
ZBYN,2003-04-22 04:00,ZBYN 220400Z 24001MPS 1400 R31/1400 BR NSC 09/04 Q1018 NOSIG
ZBYN,2003-04-22 05:00,ZBYN 220500Z 22002MPS 1600 R31/1000D BR NSC 09/05 Q1018 NOSIG
ZBYN,2003-04-22 06:00,ZBYN 220600Z 22002MPS 1400 R31/1100N BR NSC 10/05 Q1017 NOSIG
ZBYN,2003-04-22 07:00,ZBYN 220700Z 24003MPS 1400 R31/1100N BR NSC 11/05 Q1016 NOSIG
ZBYN,2003-04-22 08:00,ZBYN 220800Z 22002MPS 2500 R31/1400N BR NSC 11/05 Q1016 NOSIG
ZBYN,2003-04-22 09:00,ZBYN 220900Z 21001MPS 1800 BR NSC 11/05 Q1016 NOSIG
ZBYN,2003-04-22 10:00,ZBYN 221000Z 19001MPS 1700 R31/1100N BR NSC 11/06 Q1016 NOSIG
ZBYN,2003-04-22 11:00,ZBYN 221100Z 16001MPS 2400 BR NSC 11/05 Q1015 NOSIG
ZBYN,2003-04-22 12:00,ZBYN 221200Z 15001MPS 3000 BR NSC 10/05 Q1016 NOSIG
ZBYN,2003-04-22 13:00,ZBYN 221300Z 11002MPS 2400 BR NSC 09/04 Q1017 NOSIG
ZBYN,2003-04-22 14:00,ZBYN 221400Z AUTO 12004KT 1 1/2SM 08/04 A3003 RMK T00800040 IEM_DS3505
ZBYN,2003-04-22 15:00,ZBYN 221500Z 07001MPS 2000 R31/0750N BR NSC 07/03 Q1018 NOSIG
ZBYN,2003-04-22 16:00,ZBYN 221600Z 10001MPS 2000 R31/0600N BR NSC 06/02 Q1018 NOSIG
ZBYN,2003-04-22 17:00,ZBYN 221700Z 11001MPS 1800 R31/0900N BR NSC 06/02 Q1018
ZBYN,2003-04-22 18:00,ZBYN 221800Z 00000MPS 1700 R31/0800N BR SKC 05/02 Q1017
ZBYN,2003-04-22 19:00,ZBYN 221900Z 00000MPS 1800 R31/0900N BR NSC 05/01 Q1017
ZBYN,2003-04-22 20:00,ZBYN 222000Z 10001MPS 2200 R31/0600N BR NSC 04/00 Q1017
ZBYN,2003-04-22 21:00,ZBYN 222100Z 07001MPS 1700 R31/0600N BR NSC 04/02 Q1017
ZBYN,2003-04-22 22:00,ZBYN 222200Z 00000MPS 0700 R31/0500N FG VV/// 06/04 Q1018 NOSIG
ZBYN,2003-04-22 23:00,ZBYN 222300Z 08001MPS 0600 R31/0450N FG VV/// 07/05 Q1018 NOSIG
ZBYN,2003-04-23 00:00,ZBYN 230000Z 09001MPS 0600 R31/0650N FG VV/// 07/06 Q1019 NOSIG
ZBYN,2003-04-23 01:00,ZBYN 230100Z 18001MPS 0700 R31/0700N FG SCT010 08/04 Q1019 NOSIG
ZBYN,2003-04-23 02:00,ZBYN 230200Z 06001MPS 0900 R31/0800N FG SKC 09/05 Q1019 NOSIG
ZBYN,2003-04-23 03:00,ZBYN 230300Z 21001MPS 1200 R31/0800N BR SKC 12/07 Q1019 NOSIG
ZBYN,2003-04-23 04:00,ZBYN 230400Z 18002MPS 1800 R31/0800N FU NSC 15/07 Q1018 NOSIG
ZBYN,2003-04-23 05:00,ZBYN 230500Z 22002MPS 2000 R31/1200 FU NSC 17/06 Q1017 NOSIG
ZBYN,2003-04-23 06:00,ZBYN 230600Z 24003MPS 5000 FU NSC 18/03 Q1016 NOSIG
ZBYN,2003-04-23 07:00,ZBYN 230700Z 21003MPS 6000 NSC 18/02 Q1014 NOSIG
ZBYN,2003-04-23 08:00,ZBYN 230800Z 24004MPS CAVOK 18/M00 Q1014 NOSIG
ZBYN,2003-04-23 09:00,ZBYN 230900Z 25004MPS CAVOK 19/M02 Q1014 NOSIG
ZBYN,2003-04-23 10:00,ZBYN 231000Z 23003MPS CAVOK 18/01 Q1014 NOSIG
ZBYN,2003-04-23 11:00,ZBYN 231100Z 17001MPS CAVOK 17/02 Q1014 NOSIG
ZBYN,2003-04-23 12:00,ZBYN 231200Z 36001MPS CAVOK 14/03 Q1014 NOSIG
ZBYN,2003-04-23 13:00,ZBYN 231300Z 00000MPS 7000 SKC 12/04 Q1016 NOSIG
ZBYN,2003-04-23 14:00,ZBYN 231400Z 15001MPS 6000 SKC 12/04 Q1016 NOSIG
ZBYN,2003-04-23 15:00,ZBYN 231500Z 33004MPS CAVOK 15/M03 Q1016 NOSIG
ZBYN,2003-04-23 16:00,ZBYN 231600Z 33003MPS CAVOK 14/M03 Q1016 NOSIG
ZBYN,2003-04-23 17:00,ZBYN 231700Z 26001MPS CAVOK 13/M02 Q1016 NOSIG
ZBYN,2003-04-23 18:00,ZBYN 231800Z 15002MPS CAVOK 08/01 Q1016
ZBYN,2003-04-23 19:00,ZBYN 231900Z 07001MPS 6000 SKC 08/04 Q1016
ZBYN,2003-04-23 20:00,ZBYN 232000Z 08001MPS CAVOK 08/02 Q1016
ZBYN,2003-04-23 21:00,ZBYN 232100Z 12002MPS CAVOK 05/01 Q1016
ZBYN,2003-04-23 22:00,ZBYN 232200Z 07001MPS CAVOK 05/01 Q1016 NOSIG
ZBYN,2003-04-23 23:00,ZBYN 232300Z 10001MPS CAVOK 07/02 Q1017 NOSIG
ZBYN,2003-04-24 00:00,ZBYN 240000Z 11001MPS CAVOK 11/03 Q1017 NOSIG
ZBYN,2003-04-24 01:00,ZBYN 240100Z 17001MPS 8000 NSC 13/02 Q1017 NOSIG
ZBYN,2003-04-24 02:00,ZBYN 240200Z VRB01MPS CAVOK 16/M01 Q1016 NOSIG
ZBYN,2003-04-24 03:00,ZBYN 240300Z 26002MPS CAVOK 18/M06 Q1016 NOSIG
ZBYN,2003-04-24 04:00,ZBYN 240400Z 31002MPS CAVOK 20/M17 Q1014 NOSIG
ZBYN,2003-04-24 05:00,ZBYN 240500Z 28003MPS 260V350 CAVOK 20/M19 Q1013 NOSIG
ZBYN,2003-04-24 06:00,ZBYN 240600Z VRB01MPS CAVOK 21/M18 Q1012 NOSIG
ZBYN,2003-04-24 07:00,ZBYN 240700Z 18003MPS CAVOK 21/M21 Q1010 NOSIG
ZBYN,2003-04-24 08:00,ZBYN 240800Z 24003MPS CAVOK 21/M18 Q1009 NOSIG
ZBYN,2003-04-24 09:00,ZBYN 240900Z 25003MPS CAVOK 21/M12 Q1009 NOSIG
ZBYN,2003-04-24 10:00,ZBYN 241000Z 24003MPS CAVOK 20/M10 Q1009 NOSIG
ZBYN,2003-04-24 11:00,ZBYN 241100Z 21002MPS CAVOK 18/M06 Q1009 NOSIG
ZBYN,2003-04-24 12:00,ZBYN 241200Z 21001MPS CAVOK 16/M05 Q1009 NOSIG
ZBYN,2003-04-24 13:00,ZBYN 241300Z 03001MPS CAVOK 12/M00 Q1010 NOSIG
ZBYN,2003-04-24 14:00,ZBYN 241400Z 11001MPS CAVOK 11/M00 Q1010 NOSIG
ZBYN,2003-04-24 15:00,ZBYN 241500Z 12002MPS CAVOK 09/01 Q1010 NOSIG
ZBYN,2003-04-24 16:00,ZBYN 241600Z 11001MPS CAVOK 09/M00 Q1010 NOSIG
ZBYN,2003-04-24 17:00,ZBYN 241700Z 11001MPS CAVOK 07/00 Q1010
ZBYN,2003-04-24 18:00,ZBYN 241800Z 11001MPS CAVOK 08/01 Q1010
ZBYN,2003-04-24 19:00,ZBYN 241900Z 11002MPS CAVOK 06/M00 Q1010
ZBYN,2003-04-24 20:00,ZBYN 242000Z 13002MPS CAVOK 06/00 Q1010
ZBYN,2003-04-24 21:00,ZBYN 242100Z 12002MPS CAVOK 05/M00 Q1010
ZBYN,2003-04-24 22:00,ZBYN 242200Z 00000MPS CAVOK 06/00 Q1010 NOSIG
ZBYN,2003-04-24 23:00,ZBYN 242300Z 10001MPS 4000 R31/1200N FU NSC 09/02 Q1011 NOSIG
ZBYN,2003-04-25 00:00,ZBYN 250000Z 12001MPS 4000 R31/1300 FU NSC 12/02 Q1011 NOSIG
ZBYN,2003-04-25 01:00,ZBYN 250100Z 17001MPS 7000 NSC 13/02 Q1011 NOSIG
ZBYN,2003-04-25 02:00,ZBYN 250200Z VRB01MPS 7000 SKC 16/01 Q1011 NOSIG
ZBYN,2003-04-25 03:00,ZBYN 250300Z 24003MPS CAVOK 18/00 Q1011 NOSIG
ZBYN,2003-04-25 04:00,ZBYN 250400Z 22003MPS CAVOK 20/M01 Q1010 NOSIG
ZBYN,2003-04-25 05:00,ZBYN 250500Z 24005MPS 7000 NSC 19/00 Q1010 NOSIG
ZBYN,2003-04-25 06:00,ZBYN 250600Z 21005MPS CAVOK 20/M04 Q1009 NOSIG
ZBYN,2003-04-25 07:00,ZBYN 250700Z 20003MPS CAVOK 21/M04 Q1008 NOSIG
ZBYN,2003-04-25 08:00,ZBYN 250800Z 22004MPS CAVOK 21/M05 Q1007 NOSIG
ZBYN,2003-04-25 09:00,ZBYN 250900Z 23004MPS 9999 SCT030 FEW030CB 21/M04 Q1007 NOSIG
ZBYN,2003-04-25 10:00,ZBYN 251000Z 05004MPS 9999 SCT030 FEW030CB 15/06 Q1009 NOSIG
ZBYN,2003-04-25 11:00,ZBYN 251100Z VRB01MPS CAVOK 14/07 Q1010 NOSIG
ZBYN,2003-04-25 12:00,ZBYN 251200Z VRB01MPS 9999 FEW030CB 12/05 Q1011 NOSIG
ZBYN,2003-04-25 13:00,ZBYN 251300Z 07004MPS CAVOK 13/05 Q1011 NOSIG
ZBYN,2003-04-25 14:00,ZBYN 251400Z 21002MPS CAVOK 12/06 Q1012 NOSIG
ZBYN,2003-04-25 15:00,ZBYN 251500Z 32002MPS CAVOK 10/05 Q1012 NOSIG
ZBYN,2003-04-25 16:00,ZBYN 251600Z 36002MPS CAVOK 10/05 Q1013 NOSIG
ZBYN,2003-04-25 17:00,ZBYN 251700Z 02001MPS CAVOK 10/04 Q1013
ZBYN,2003-04-25 18:00,ZBYN 251800Z 13002MPS CAVOK 05/02 Q1012
ZBYN,2003-04-25 19:00,ZBYN 251900Z 00000MPS CAVOK 06/02 Q1013
ZBYN,2003-04-25 20:00,ZBYN 252000Z 00000MPS CAVOK 05/02 Q1013
ZBYN,2003-04-25 21:00,ZBYN 252100Z 07002MPS CAVOK 05/01 Q1013
ZBYN,2003-04-25 22:00,ZBYN 252200Z 13002MPS CAVOK 03/M01 Q1014 NOSIG
ZBYN,2003-04-25 23:00,ZBYN 252300Z 11001MPS 5000 BR SKC 07/03 Q1015 NOSIG
ZBYN,2003-04-26 00:00,ZBYN 260000Z 13002MPS 8000 NSC 10/05 Q1016 NOSIG
ZBYN,2003-04-26 01:00,ZBYN 260100Z 21001MPS 7000 NSC 13/06 Q1016 NOSIG
ZBYN,2003-04-26 02:00,ZBYN 260200Z VRB01MPS 8000 NSC 15/04 Q1016 NOSIG
ZBYN,2003-04-26 03:00,ZBYN 260300Z 25001MPS CAVOK 18/03 Q1015 NOSIG
ZBYN,2003-04-26 04:00,ZBYN 260400Z VRB01MPS CAVOK 20/M05 Q1014 NOSIG
ZBYN,2003-04-26 05:00,ZBYN 260500Z 02002MPS CAVOK 22/M14 Q1014 NOSIG
ZBYN,2003-04-26 06:00,ZBYN 260600Z VRB01MPS CAVOK 22/M15 Q1013 NOSIG
ZBYN,2003-04-26 07:00,ZBYN 260700Z 18002MPS CAVOK 24/M13 Q1012 NOSIG
ZBYN,2003-04-26 08:00,ZBYN 260800Z 22003MPS CAVOK 24/M14 Q1011 NOSIG
ZBYN,2003-04-26 09:00,ZBYN 260900Z 21003MPS CAVOK 23/M14 Q1011 NOSIG
ZBYN,2003-04-26 10:00,ZBYN 261000Z 19002MPS CAVOK 22/M13 Q1012 NOSIG
ZBYN,2003-04-26 11:00,ZBYN 261100Z 16001MPS CAVOK 21/M12 Q1012 NOSIG
ZBYN,2003-04-26 12:00,ZBYN 261200Z 11002MPS CAVOK 18/M07 Q1013 NOSIG
ZBYN,2003-04-26 13:00,ZBYN 261300Z 12001MPS CAVOK 15/M02 Q1013 NOSIG
ZBYN,2003-04-26 14:00,ZBYN 261400Z 12002MPS CAVOK 12/M00 Q1014 NOSIG
ZBYN,2003-04-26 15:00,ZBYN 261500Z 12002MPS CAVOK 11/M00 Q1014 NOSIG
ZBYN,2003-04-26 16:00,ZBYN 261600Z 09001MPS CAVOK 09/M00 Q1014 NOSIG
ZBYN,2003-04-26 17:00,ZBYN 261700Z 04002MPS CAVOK 09/01 Q1015
ZBYN,2003-04-26 18:00,ZBYN 261800Z 13002MPS CAVOK 08/M00 Q1015
ZBYN,2003-04-26 19:00,ZBYN 261900Z 09002MPS CAVOK 08/M01 Q1014
ZBYN,2003-04-26 20:00,ZBYN 262000Z 13002MPS CAVOK 05/M01 Q1014
ZBYN,2003-04-26 21:00,ZBYN 262100Z 00000MPS CAVOK 07/00 Q1015
ZBYN,2003-04-26 22:00,ZBYN 262200Z 00000MPS CAVOK 07/M00 Q1015 NOSIG
ZBYN,2003-04-26 23:00,ZBYN 262300Z 04001MPS CAVOK 08/01 Q1016 NOSIG
ZBYN,2003-04-27 00:00,ZBYN 270000Z VRB01MPS 6000 NSC 12/M00 Q1016 NOSIG
ZBYN,2003-04-27 01:00,ZBYN 270100Z 17002MPS CAVOK 16/M03 Q1016 NOSIG
ZBYN,2003-04-27 02:00,ZBYN 270200Z VRB01MPS CAVOK 19/M04 Q1016 NOSIG
ZBYN,2003-04-27 03:00,ZBYN 270300Z 19002MPS CAVOK 21/M05 Q1015 NOSIG
ZBYN,2003-04-27 04:00,ZBYN 270400Z 24002MPS CAVOK 23/M05 Q1015 NOSIG
ZBYN,2003-04-27 05:00,ZBYN 270500Z 24003MPS CAVOK 25/M08 Q1014 NOSIG
ZBYN,2003-04-27 06:00,ZBYN 270600Z 24003MPS CAVOK 26/M14 Q1013 NOSIG
ZBYN,2003-04-27 07:00,ZBYN 270700Z 25005MPS CAVOK 27/M27 Q1012 NOSIG
ZBYN,2003-04-27 08:00,ZBYN 270800Z 23003MPS CAVOK 27/M12 Q1011 NOSIG
ZBYN,2003-04-27 09:00,ZBYN 270900Z 20003MPS CAVOK 27/M35 Q1010 NOSIG
ZBYN,2003-04-27 10:00,ZBYN 271000Z 21002MPS CAVOK 26/M27 Q1010 NOSIG
ZBYN,2003-04-27 11:00,ZBYN 271100Z 00000MPS CAVOK 23/M14 Q1010 NOSIG
ZBYN,2003-04-27 12:00,ZBYN 271200Z 08001MPS CAVOK 18/M05 Q1011 NOSIG
ZBYN,2003-04-27 13:00,ZBYN 271300Z 12002MPS CAVOK 15/M02 Q1012 NOSIG
ZBYN,2003-04-27 14:00,ZBYN 271400Z 09001MPS CAVOK 15/M02 Q1012 NOSIG
ZBYN,2003-04-27 15:00,ZBYN 271500Z 12002MPS CAVOK 15/M02 Q1012 NOSIG
ZBYN,2003-04-27 16:00,ZBYN 271600Z 11002MPS CAVOK 11/00 Q1013 NOSIG
ZBYN,2003-04-27 17:00,ZBYN 271700Z 09001MPS CAVOK 12/M00 Q1013
ZBYN,2003-04-27 18:00,ZBYN 271800Z 09001MPS CAVOK 12/01 Q1013
ZBYN,2003-04-27 19:00,ZBYN 271900Z 00000MPS CAVOK 12/03 Q1013
ZBYN,2003-04-27 20:00,ZBYN 272000Z 12002MPS CAVOK 12/04 Q1013
ZBYN,2003-04-27 21:00,ZBYN 272100Z 00000MPS CAVOK 12/05 Q1013 NOSIG
ZBYN,2003-04-27 22:00,ZBYN 272200Z 00000MPS CAVOK 11/05 Q1013 NOSIG
ZBYN,2003-04-27 23:00,ZBYN 272300Z 00000MPS 4000 FU NSC 12/06 Q1013 NOSIG
ZBYN,2003-04-28 00:00,ZBYN 280000Z 31001MPS 3500 FU NSC 16/08 Q1013 NOSIG
ZBYN,2003-04-28 01:00,ZBYN 280100Z 31001MPS 5000 FU NSC 18/04 Q1013 NOSIG
ZBYN,2003-04-28 02:00,ZBYN 280200Z VRB01MPS 7000 NSC 20/06 Q1013 NOSIG
ZBYN,2003-04-28 03:00,ZBYN 280300Z 30001MPS 7000 NSC 21/05 Q1013 NOSIG
ZBYN,2003-04-28 04:00,ZBYN 280400Z 23001MPS 8000 NSC 21/02 Q1013 NOSIG
ZBYN,2003-04-28 05:00,ZBYN 280500Z 27002MPS 8000 NSC 21/04 Q1012 NOSIG
ZBYN,2003-04-28 06:00,ZBYN 280600Z VRB01MPS 8000 NSC 23/00 Q1012 NOSIG
ZBYN,2003-04-28 07:00,ZBYN 280700Z 01005MPS CAVOK 24/M04 Q1011 NOSIG
ZBYN,2003-04-28 08:00,ZBYN 280800Z 35006MPS CAVOK 23/M02 Q1012 NOSIG
ZBYN,2003-04-28 09:00,ZBYN 280900Z 34006MPS CAVOK 22/M01 Q1012 NOSIG
ZBYN,2003-04-28 10:00,ZBYN 281000Z 32010G15MPS 9999 FEW033TCU BKN050 OVC100 19/04 Q1013 NOSIG
ZBYN,2003-04-28 11:00,ZBYN 281100Z 32008MPS 9999 -SHRA FEW033TCU SCT050 OVC100 15/08 Q1015 NOSIG
ZBYN,2003-04-28 12:00,ZBYN 281200Z 32006MPS 9999 -SHRA FEW040TCU SCT050 OVC100 13/08 Q1017 NOSIG
ZBYN,2003-04-28 13:00,ZBYN 281300Z 30003MPS 9999 -RA SCT040 OVC100 12/08 Q1018 NOSIG
ZBYN,2003-04-28 14:00,ZBYN 281400Z 01001MPS 9999 SCT040 OVC090 13/08 Q1017 NOSIG
ZBYN,2003-04-28 15:00,ZBYN 281500Z 00000MPS 9999 -RA SCT040 OVC090 12/08 Q1018 NOSIG
ZBYN,2003-04-28 16:00,ZBYN 281600Z 00000MPS CAVOK 12/07 Q1018 NOSIG
ZBYN,2003-04-28 17:00,ZBYN 281700Z 00000MPS CAVOK 11/07 Q1018
ZBYN,2003-04-28 18:00,ZBYN 281800Z 12001MPS 4000 BR NSC 11/09 Q1017
ZBYN,2003-04-28 19:00,ZBYN 281900Z 09002MPS 4000 BR NSC 11/09 Q1016
ZBYN,2003-04-28 20:00,ZBYN 282000Z VRB01MPS 2000 R31/0700N BR NSC 10/09 Q1017
ZBYN,2003-04-28 21:00,ZBYN 282100Z 27002MPS 1300 R31/0800N BR NSC 08/08 Q1018
ZBYN,2003-04-28 22:00,ZBYN 282200Z 13001MPS 1500 R31/1000N BR NSC 10/09 Q1019 NOSIG
ZBYN,2003-04-28 23:00,ZBYN 282300Z 02002MPS 9000 NSC 12/07 Q1020 NOSIG
ZBYN,2003-04-29 00:00,ZBYN 290000Z 32003MPS CAVOK 14/09 Q1021 NOSIG
ZBYN,2003-04-29 01:00,ZBYN 290100Z 35006MPS CAVOK 16/06 Q1021 NOSIG
ZBYN,2003-04-29 02:00,ZBYN 290200Z 35005MPS CAVOK 18/03 Q1022 NOSIG
ZBYN,2003-04-29 03:00,ZBYN 290300Z 36007MPS 9999 FEW030 20/M00 Q1022 NOSIG
ZBYN,2003-04-29 04:00,ZBYN 290400Z 36006MPS 9999 FEW030 21/M04 Q1021 NOSIG
ZBYN,2003-04-29 05:00,ZBYN 290500Z 32004MPS 9999 SCT030 21/M03 Q1021 NOSIG
ZBYN,2003-04-29 06:00,ZBYN 290600Z 33005MPS 9999 SCT030 22/M02 Q1020 NOSIG
ZBYN,2003-04-29 07:00,ZBYN 290700Z 31005MPS 9999 BKN030 22/M10 Q1019 NOSIG
ZBYN,2003-04-29 08:00,ZBYN 290800Z 31008MPS 9999 BKN030 24/M11 Q1019 NOSIG
ZBYN,2003-04-29 09:00,ZBYN 290900Z 32006MPS 9999 SCT030 21/M08 Q1019 NOSIG
ZBYN,2003-04-29 10:00,ZBYN 291000Z 29006MPS 9999 FEW030 21/M03 Q1019 NOSIG
ZBYN,2003-04-29 11:00,ZBYN 291100Z 29005MPS CAVOK 20/M06 Q1019 NOSIG
ZBYN,2003-04-29 12:00,ZBYN 291200Z 28004MPS CAVOK 18/M07 Q1020 NOSIG
ZBYN,2003-04-29 13:00,ZBYN 291300Z 27002MPS CAVOK 17/M06 Q1021 NOSIG
ZBYN,2003-04-29 14:00,ZBYN 291400Z 31002MPS CAVOK 15/M06 Q1021 NOSIG
ZBYN,2003-04-29 15:00,ZBYN 291500Z 00000MPS CAVOK 12/M04 Q1021 NOSIG
ZBYN,2003-04-29 16:00,ZBYN 291600Z 14001MPS CAVOK 11/M03 Q1021 NOSIG
ZBYN,2003-04-29 17:00,ZBYN 291700Z 10001MPS CAVOK 08/M01 Q1021
ZBYN,2003-04-29 18:00,ZBYN 291800Z 10002MPS CAVOK 07/M00 Q1020
ZBYN,2003-04-29 19:00,ZBYN 291900Z 12001MPS CAVOK 09/M00 Q1020
ZBYN,2003-04-29 20:00,ZBYN 292000Z 10001MPS CAVOK 07/M00 Q1020
ZBYN,2003-04-29 21:00,ZBYN 292100Z 12002MPS CAVOK 05/M01 Q1021
ZBYN,2003-04-29 22:00,ZBYN 292200Z 11001MPS CAVOK 05/M01 Q1020 NOSIG
ZBYN,2003-04-29 23:00,ZBYN 292300Z 13001MPS CAVOK 08/02 Q1021 NOSIG
ZBYN,2003-04-30 00:00,ZBYN 300000Z 14002MPS CAVOK 13/M01 Q1021 NOSIG
ZBYN,2003-04-30 01:00,ZBYN 300100Z 19002MPS 7000 SKC 15/M02 Q1021 NOSIG
ZBYN,2003-04-30 02:00,ZBYN 300200Z 21002MPS CAVOK 18/M03 Q1020 NOSIG
ZBYN,2003-04-30 03:00,ZBYN 300300Z 22002MPS CAVOK 21/M05 Q1019 NOSIG
ZBYN,2003-04-30 04:00,ZBYN 300400Z 22004MPS CAVOK 23/M13 Q1018 NOSIG
ZBYN,2003-04-30 05:00,ZBYN 300500Z 24004MPS CAVOK 24/M12 Q1017 NOSIG
ZBYN,2003-04-30 06:00,ZBYN 300600Z 24004MPS CAVOK 26/M23 Q1015 NOSIG
ZBYN,2003-04-30 07:00,ZBYN 300700Z 24004MPS CAVOK 27/M19 Q1014 NOSIG
ZBYN,2003-04-30 08:00,ZBYN 300800Z 23004MPS CAVOK 27/M22 Q1013 NOSIG
ZBYN,2003-04-30 09:00,ZBYN 300900Z 23005MPS CAVOK 27/M19 Q1012 NOSIG
ZBYN,2003-04-30 10:00,ZBYN 301000Z 23004MPS CAVOK 26/M09 Q1011 NOSIG
ZBYN,2003-04-30 11:00,ZBYN 301100Z 22002MPS CAVOK 24/M05 Q1011 NOSIG
ZBYN,2003-04-30 12:00,ZBYN 301200Z 22002MPS CAVOK 22/M02 Q1011 NOSIG
ZBYN,2003-04-30 13:00,ZBYN 301300Z 22003MPS CAVOK 21/01 Q1012 NOSIG
ZBYN,2003-04-30 14:00,ZBYN 301400Z 22002MPS CAVOK 20/02 Q1012 NOSIG
ZBYN,2003-04-30 15:00,ZBYN 301500Z 15001MPS CAVOK 15/03 Q1012 NOSIG
ZBYN,2003-04-30 16:00,ZBYN 301600Z 11002MPS CAVOK 15/02 Q1012 NOSIG
ZBYN,2003-04-30 17:00,ZBYN 301700Z 11002MPS CAVOK 10/03 Q1012
ZBYN,2003-04-30 18:00,ZBYN 301800Z 10001MPS CAVOK 11/03 Q1011
ZBYN,2003-04-30 21:00,ZBYN 302100Z 12001MPS CAVOK 07/01 Q1011 NOSIG
ZBYN,2003-04-30 22:00,ZBYN 302200Z 09002MPS CAVOK 10/03 Q1011 NOSIG
ZBYN,2003-04-30 23:00,ZBYN 302300Z 00000MPS CAVOK 11/04 Q1011 NOSIG
ZBYN,2003-05-01 00:00,ZBYN 010000Z 25001MPS 7000 SKC 14/04 Q1011 NOSIG
ZBYN,2003-05-01 01:00,ZBYN 010100Z 00000MPS 8000 SKC 18/01 Q1011 NOSIG
ZBYN,2003-05-01 02:00,ZBYN 010200Z VRB01MPS CAVOK 21/00 Q1011 NOSIG
ZBYN,2003-05-01 03:00,ZBYN 010300Z 22002MPS CAVOK 23/M03 Q1010 NOSIG
ZBYN,2003-05-01 04:00,ZBYN 010400Z 25003MPS CAVOK 26/M06 Q1009 NOSIG
ZBYN,2003-05-01 05:00,ZBYN 010500Z 21002MPS CAVOK 27/M10 Q1008 NOSIG
ZBYN,2003-05-01 06:00,ZBYN 010600Z 26003MPS CAVOK 28/M11 Q1006 NOSIG
ZBYN,2003-05-01 07:00,ZBYN 010700Z 22003MPS 180V250 CAVOK 29/M17 Q1005 NOSIG
ZBYN,2003-05-01 08:00,ZBYN 010800Z 21002MPS CAVOK 30/M16 Q1004 NOSIG
ZBYN,2003-05-01 09:00,ZBYN 010900Z VRB01MPS CAVOK 30/M14 Q1003 NOSIG
ZBYN,2003-05-01 10:00,ZBYN 011000Z 23003MPS CAVOK 29/M10 Q1003 NOSIG
ZBYN,2003-05-01 11:00,ZBYN 011100Z 24003MPS CAVOK 27/M07 Q1003 NOSIG
ZBYN,2003-05-01 12:00,ZBYN 011200Z 20002MPS CAVOK 24/M12 Q1003 NOSIG
ZBYN,2003-05-01 13:00,ZBYN 011300Z 17002MPS CAVOK 22/M07 Q1004 NOSIG
ZBYN,2003-05-01 14:00,ZBYN 011400Z 14003MPS CAVOK 19/00 Q1004 NOSIG
ZBYN,2003-05-01 15:00,ZBYN 011500Z 15002MPS CAVOK 21/M01 Q1005 NOSIG
ZBYN,2003-05-01 16:00,ZBYN 011600Z 10002MPS CAVOK 16/02 Q1005 NOSIG
ZBYN,2003-05-01 17:00,ZBYN 011700Z 08001MPS CAVOK 18/03 Q1005
ZBYN,2003-05-01 18:00,ZBYN 011800Z 10001MPS CAVOK 15/04 Q1005
ZBYN,2003-05-01 19:00,ZBYN 011900Z 09002MPS CAVOK 13/05 Q1004
ZBYN,2003-05-01 20:00,ZBYN 012000Z 11001MPS CAVOK 14/05 Q1004
ZBYN,2003-05-01 21:00,ZBYN 012100Z 11002MPS CAVOK 11/05 Q1004
ZBYN,2003-05-01 22:00,ZBYN 012200Z 35001MPS CAVOK 11/06 Q1004 NOSIG
ZBYN,2003-05-01 23:00,ZBYN 012300Z 14001MPS CAVOK 15/08 Q1005 NOSIG
ZBYN,2003-05-02 00:00,ZBYN 020000Z 00000MPS CAVOK 18/06 Q1005 NOSIG
ZBYN,2003-05-02 01:00,ZBYN 020100Z 14002MPS CAVOK 20/07 Q1005 NOSIG
ZBYN,2003-05-02 02:00,ZBYN 020200Z VRB01MPS CAVOK 22/07 Q1005 NOSIG
ZBYN,2003-05-02 03:00,ZBYN 020300Z 28002MPS CAVOK 24/06 Q1005 NOSIG
ZBYN,2003-05-02 04:00,ZBYN 020400Z 28002MPS CAVOK 25/04 Q1004 NOSIG
ZBYN,2003-05-02 05:00,ZBYN 020500Z VRB01MPS CAVOK 27/M01 Q1003 NOSIG
ZBYN,2003-05-02 06:00,ZBYN 020600Z 25003MPS CAVOK 27/M07 Q1002 NOSIG
ZBYN,2003-05-02 07:00,ZBYN 020700Z 23002MPS CAVOK 28/M04 Q1002 NOSIG
ZBYN,2003-05-02 08:00,ZBYN 020800Z VRB01MPS CAVOK 28/M06 Q1001 NOSIG
ZBYN,2003-05-02 09:00,ZBYN 020900Z 15002MPS CAVOK 28/M08 Q1001 NOSIG
ZBYN,2003-05-02 10:00,ZBYN 021000Z 00000MPS CAVOK 28/M09 Q1001 NOSIG
ZBYN,2003-05-02 11:00,ZBYN 021100Z 08003MPS CAVOK 26/10 Q1002 NOSIG
ZBYN,2003-05-02 12:00,ZBYN 021200Z 07005MPS CAVOK 23/13 Q1003 NOSIG
ZBYN,2003-05-02 13:00,ZBYN 021300Z 07007MPS CAVOK 22/13 Q1003 NOSIG
ZBYN,2003-05-02 14:00,ZBYN 021400Z 08007MPS CAVOK 21/12 Q1004 NOSIG
ZBYN,2003-05-02 15:00,ZBYN 021500Z 08005MPS 6000 NSC 20/13 Q1005 NOSIG
ZBYN,2003-05-02 16:00,ZBYN 021600Z 07004MPS 8000 NSC 20/12 Q1005 NOSIG
ZBYN,2003-05-02 17:00,ZBYN 021700Z 08005MPS CAVOK 19/11 Q1005
ZBYN,2003-05-02 18:00,ZBYN 021800Z 08002MPS CAVOK 18/11 Q1005
ZBYN,2003-05-02 19:00,ZBYN 021900Z 09003MPS CAVOK 17/10 Q1005
ZBYN,2003-05-02 20:00,ZBYN 022000Z 07002MPS CAVOK 17/10 Q1006
ZBYN,2003-05-02 21:00,ZBYN 022100Z 04002MPS CAVOK 17/10 Q1006
ZBYN,2003-05-02 22:00,ZBYN 022200Z 03001MPS 6000 SKC 16/10 Q1007 NOSIG
ZBYN,2003-05-02 23:00,ZBYN 022300Z 05003MPS 6000 SKC 18/11 Q1008 NOSIG
ZBYN,2003-05-03 00:00,ZBYN 030000Z 06004MPS 7000 SKC 18/11 Q1009 NOSIG
ZBYN,2003-05-03 02:00,ZBYN 030200Z 08006MPS CAVOK 21/12 Q1009 NOSIG
ZBYN,2003-05-03 03:00,ZBYN 030300Z 07006MPS CAVOK 23/11 Q1009 NOSIG
ZBYN,2003-05-03 04:00,ZBYN 030400Z 09007G13MPS CAVOK 24/11 Q1009 NOSIG
ZBYN,2003-05-03 05:00,ZBYN 030500Z 10008MPS 6000 SCT040 25/11 Q1009 NOSIG
ZBYN,2003-05-03 06:00,ZBYN 030600Z 09008MPS 6000 SCT030 25/11 Q1009 NOSIG
ZBYN,2003-05-03 07:00,ZBYN 030700Z 08008MPS 6000 SKC 25/11 Q1008 NOSIG
ZBYN,2003-05-03 09:00,ZBYN 030900Z 08007MPS 5000 SA SKC 24/11 Q1008 NOSIG
ZBYN,2003-05-03 10:00,ZBYN 031000Z 08009MPS 5000 SA NSC 22/12 Q1008 NOSIG
ZBYN,2003-05-03 11:00,ZBYN 031100Z 08008MPS 6000 NSC 21/12 Q1009 NOSIG
ZBYN,2003-05-03 12:00,ZBYN 031200Z 09006MPS 6000 NSC 20/12 Q1010 NOSIG
ZBYN,2003-05-03 13:00,ZBYN 031300Z 09006MPS CAVOK 19/12 Q1011 NOSIG
ZBYN,2003-05-03 14:00,ZBYN 031400Z 09005MPS 7000 NSC 18/12 Q1012 NOSIG
ZBYN,2003-05-03 15:00,ZBYN 031500Z 08005MPS CAVOK 18/12 Q1012 NOSIG
ZBYN,2003-05-03 16:00,ZBYN 031600Z 08004MPS CAVOK 17/11 Q1013 NOSIG
ZBYN,2003-05-03 17:00,ZBYN 031700Z 08006MPS CAVOK 17/11 Q1013
ZBYN,2003-05-03 18:00,ZBYN 031800Z 09004MPS CAVOK 17/10 Q1013
ZBYN,2003-05-03 19:00,ZBYN 031900Z 09005MPS CAVOK 16/09 Q1013
ZBYN,2003-05-03 20:00,ZBYN 032000Z 07005MPS CAVOK 15/08 Q1013
ZBYN,2003-05-03 21:00,ZBYN 032100Z 08005MPS 4000 SA NSC 14/09 Q1013 NOSIG
ZBYN,2003-05-03 22:00,ZBYN 032200Z 08004MPS 3000 FU NSC 14/09 Q1013 NOSIG
ZBYN,2003-05-03 23:00,ZBYN 032300Z 09003MPS 3000 FU SKC 15/09 Q1014 NOSIG
ZBYN,2003-05-04 00:00,ZBYN 040000Z 09007MPS 3000 SA SKC 16/09 Q1014 NOSIG
ZBYN,2003-05-04 01:00,ZBYN 040100Z 09006MPS 6000 SKC 17/09 Q1015 NOSIG
ZBYN,2003-05-04 02:00,ZBYN 040200Z 09008MPS 8000 SKC 19/08 Q1014 NOSIG
ZBYN,2003-05-04 03:00,ZBYN 040300Z 08008MPS CAVOK 20/07 Q1014 NOSIG
ZBYN,2003-05-04 04:00,ZBYN 040400Z 07007MPS CAVOK 21/05 Q1013 NOSIG
ZBYN,2003-05-04 05:00,ZBYN 040500Z 08007MPS CAVOK 22/04 Q1012 NOSIG
ZBYN,2003-05-04 06:00,ZBYN 040600Z 09007MPS CAVOK 23/04 Q1011 NOSIG
ZBYN,2003-05-04 07:00,ZBYN 040700Z 08009MPS CAVOK 23/04 Q1010 NOSIG
ZBYN,2003-05-04 08:00,ZBYN 040800Z 08008MPS CAVOK 22/05 Q1010 NOSIG
ZBYN,2003-05-04 09:00,ZBYN 040900Z 09008MPS CAVOK 22/05 Q1010 NOSIG
ZBYN,2003-05-04 10:00,ZBYN 041000Z 08009MPS CAVOK 20/05 Q1010 NOSIG
ZBYN,2003-05-04 11:00,ZBYN 041100Z 08008MPS CAVOK 19/07 Q1010 NOSIG
ZBYN,2003-05-04 12:00,ZBYN 041200Z 08008MPS CAVOK 17/08 Q1011 NOSIG
ZBYN,2003-05-04 13:00,ZBYN 041300Z 08007MPS CAVOK 16/09 Q1012 NOSIG
ZBYN,2003-05-04 14:00,ZBYN 041400Z 08007MPS CAVOK 16/08 Q1012 NOSIG
ZBYN,2003-05-04 15:00,ZBYN 041500Z 08007MPS CAVOK 16/09 Q1013 NOSIG
ZBYN,2003-05-04 16:00,ZBYN 041600Z 08006MPS CAVOK 16/09 Q1013 NOSIG
ZBYN,2003-05-04 17:00,ZBYN 041700Z 08005MPS CAVOK 15/09 Q1012 NOSIG
ZBYN,2003-05-04 18:00,ZBYN 041800Z 08005MPS CAVOK 15/09 Q1012
ZBYN,2003-05-04 19:00,ZBYN 041900Z 09004MPS CAVOK 15/09 Q1012
ZBYN,2003-05-04 20:00,ZBYN 042000Z 08004MPS CAVOK 15/09 Q1012
ZBYN,2003-05-04 21:00,ZBYN 042100Z 08004MPS CAVOK 15/09 Q1012
ZBYN,2003-05-04 22:00,ZBYN 042200Z 08005MPS CAVOK 15/09 Q1012 NOSIG
ZBYN,2003-05-04 23:00,ZBYN 042300Z 09005MPS 7000 NSC 15/09 Q1012 NOSIG
ZBYN,2003-05-05 00:00,ZBYN 050000Z 08004MPS 6000 NSC 15/09 Q1012 NOSIG
ZBYN,2003-05-05 01:00,ZBYN 050100Z 08004MPS 6000 NSC 16/09 Q1012 NOSIG
ZBYN,2003-05-05 02:00,ZBYN 050200Z 08005MPS 6000 NSC 17/10 Q1012 NOSIG
ZBYN,2003-05-05 03:00,ZBYN 050300Z 07005MPS 6000 NSC 17/10 Q1012 NOSIG
ZBYN,2003-05-05 04:00,ZBYN 050400Z 06005MPS 6000 NSC 17/10 Q1011 NOSIG
ZBYN,2003-05-05 05:00,ZBYN 050500Z 06005MPS 6000 NSC 18/11 Q1010 NOSIG
ZBYN,2003-05-05 06:00,ZBYN 050600Z 07004MPS 8000 NSC 19/11 Q1010 NOSIG
ZBYN,2003-05-05 07:00,ZBYN 050700Z 06005MPS CAVOK 21/11 Q1009 NOSIG
ZBYN,2003-05-05 08:00,ZBYN 050800Z 06005MPS CAVOK 21/11 Q1008 NOSIG
ZBYN,2003-05-05 09:00,ZBYN 050900Z 06006MPS CAVOK 20/11 Q1008 NOSIG
ZBYN,2003-05-05 10:00,ZBYN 051000Z 07006MPS CAVOK 18/11 Q1008 NOSIG
ZBYN,2003-05-05 11:00,ZBYN 051100Z 06006MPS CAVOK 18/10 Q1008 NOSIG
ZBYN,2003-05-05 12:00,ZBYN 051200Z 08005MPS CAVOK 18/11 Q1008 NOSIG
ZBYN,2003-05-05 13:00,ZBYN 051300Z 08005MPS CAVOK 17/11 Q1009 NOSIG
ZBYN,2003-05-05 14:00,ZBYN 051400Z 08006MPS CAVOK 16/11 Q1009 NOSIG
ZBYN,2003-05-05 15:00,ZBYN 051500Z 08005MPS CAVOK 16/11 Q1009 NOSIG
ZBYN,2003-05-05 16:00,ZBYN 051600Z 09005MPS CAVOK 16/11 Q1009
ZBYN,2003-05-05 17:00,ZBYN 051700Z 09004MPS CAVOK 16/11 Q1009
ZBYN,2003-05-05 18:00,ZBYN 051800Z 08004MPS CAVOK 16/10 Q1008
ZBYN,2003-05-05 19:00,ZBYN 051900Z 08004MPS CAVOK 16/11 Q1008
ZBYN,2003-05-05 20:00,ZBYN 052000Z 09003MPS CAVOK 16/11 Q1008
ZBYN,2003-05-05 21:00,ZBYN 052100Z 08003MPS 9999 -RA OVC030 15/11 Q1008
ZBYN,2003-05-05 22:00,ZBYN 052200Z 08002MPS CAVOK 15/11 Q1008 NOSIG
ZBYN,2003-05-05 23:00,ZBYN 052300Z 05001MPS 6000 -RA OVC040 15/11 Q1008 NOSIG
ZBYN,2003-05-06 00:00,ZBYN 060000Z 09001MPS 6000 -RA OVC040 15/11 Q1008 NOSIG
ZBYN,2003-05-06 01:00,ZBYN 060100Z 06001MPS 3000 -RA BR OVC040 15/11 Q1008 NOSIG
ZBYN,2003-05-06 02:00,ZBYN 060200Z 06001MPS 2000 -RA BR FEW020 OVC040 15/11 Q1008 NOSIG
ZBYN,2003-05-06 03:00,ZBYN 060300Z 08001MPS 2500 -RA BR OVC040 16/11 Q1008 NOSIG
ZBYN,2003-05-06 04:00,ZBYN 060400Z 11002MPS 3000 -RA BR BKN023 OVC050 16/12 Q1007 NOSIG
ZBYN,2003-05-06 05:00,ZBYN 060500Z 00000MPS 3000 -RA BR SCT016 OVC050 16/12 Q1007 NOSIG
ZBYN,2003-05-06 06:00,ZBYN 060600Z 00000MPS 9999 -RA FEW016 SCT040 OVC100 17/13 Q1006 NOSIG
ZBYN,2003-05-06 07:00,ZBYN 060700Z 00000MPS 9999 -RA FEW016 OVC050 17/12 Q1006 NOSIG
ZBYN,2003-05-06 08:00,ZBYN 060800Z 18001MPS 6000 -RA OVC020 16/12 Q1006 NOSIG
ZBYN,2003-05-06 09:00,ZBYN 060900Z 00000MPS 8000 -RA OVC026 16/12 Q1005 NOSIG
ZBYN,2003-05-06 10:00,ZBYN 061000Z 00000MPS 7000 -RA OVC026 16/11 Q1006 NOSIG
ZBYN,2003-05-06 11:00,ZBYN 061100Z 30002MPS 4000 -RA BR OVC030 14/12 Q1007 NOSIG
ZBYN,2003-05-06 12:00,ZBYN 061200Z 30004MPS 9999 -RA OVC040 13/10 Q1007 NOSIG
ZBYN,2003-05-06 13:00,ZBYN 061300Z 31005MPS 9999 -RA OVC040 13/10 Q1008 NOSIG
ZBYN,2003-05-06 14:00,ZBYN 061400Z 27002MPS CAVOK 14/10 Q1008 NOSIG
ZBYN,2003-05-06 15:00,ZBYN 061500Z 19002MPS 3000 BR NSC 14/09 Q1008 NOSIG
ZBYN,2003-05-06 15:30,ZBYN 061530Z 19001MPS 3000 BR NSC 13/09 Q1008 NOSIG
ZBYN,2003-05-06 16:00,ZBYN 061600Z 20001MPS 3000 BR NSC 13/09 Q1008 NOSIG
ZBYN,2003-05-06 17:00,ZBYN 061700Z 22001MPS 5000 BR NSC 13/09 Q1009
ZBYN,2003-05-06 18:00,ZBYN 061800Z 22001MPS 6000 NSC 13/09 Q1008
ZBYN,2003-05-06 19:00,ZBYN 061900Z 00000MPS 3000 BR NSC 13/09 Q1008 NOSIG
ZBYN,2003-05-06 20:00,ZBYN 062000Z 16001MPS 6000 NSC 13/09 Q1008
ZBYN,2003-05-06 21:00,ZBYN 062100Z 14001MPS 6000 NSC 13/09 Q1009
ZBYN,2003-05-06 22:00,ZBYN 062200Z 15001MPS 4000 BR NSC 12/08 Q1009 NOSIG
ZBYN,2003-05-06 23:00,ZBYN 062300Z 00000MPS 3500 BR NSC 13/09 Q1010 NOSIG
ZBYN,2003-05-07 00:00,ZBYN 070000Z VRB01MPS 4000 BR NSC 14/10 Q1011 NOSIG
ZBYN,2003-05-07 01:00,ZBYN 070100Z 32003MPS 9999 SCT030 OVC066 16/10 Q1011 NOSIG
ZBYN,2003-05-07 02:00,ZBYN 070200Z 35003MPS 9999 SCT030 OVC066 14/08 Q1012 NOSIG
ZBYN,2003-05-07 03:00,ZBYN 070300Z 05004MPS 9999 -RA FEW030 OVC050 13/09 Q1013 NOSIG
ZBYN,2003-05-07 04:00,ZBYN 070400Z 07004MPS 9999 -RA SCT020 OVC040 12/08 Q1014 NOSIG
ZBYN,2003-05-07 05:00,ZBYN 070500Z 35004MPS 5000 -RA BR BKN020 OVC050 11/07 Q1014 NOSIG
ZBYN,2003-05-07 06:00,ZBYN 070600Z 34003MPS 8000 BKN020 OVC050 12/08 Q1015 NOSIG
ZBYN,2003-05-07 07:00,ZBYN 070700Z 35003MPS 8000 OVC040 12/07 Q1015 NOSIG
ZBYN,2003-05-07 08:00,ZBYN 070800Z 35002MPS 9999 OVC040 12/07 Q1015 NOSIG
ZBYN,2003-05-07 09:00,ZBYN 070900Z 34002MPS 8000 BKN040 OVC100 12/07 Q1016 NOSIG
ZBYN,2003-05-07 10:00,ZBYN 071000Z 33002MPS 8000 BKN026 OVC100 12/07 Q1016 NOSIG
ZBYN,2003-05-07 11:00,ZBYN 071100Z 34002MPS 7000 FEW026 OVC100 11/07 Q1017 NOSIG
ZBYN,2003-05-07 12:00,ZBYN 071200Z 00000MPS 8000 NSC 12/07 Q1018 NOSIG
ZBYN,2003-05-07 13:00,ZBYN 071300Z 34003MPS CAVOK 12/05 Q1019 NOSIG
ZBYN,2003-05-07 14:00,ZBYN 071400Z 33004MPS CAVOK 11/04 Q1019 NOSIG
ZBYN,2003-05-07 15:00,ZBYN 071500Z 33004MPS CAVOK 11/04 Q1020 NOSIG
ZBYN,2003-05-07 16:00,ZBYN 071600Z 33004MPS CAVOK 11/04 Q1020 NOSIG
ZBYN,2003-05-07 17:00,ZBYN 071700Z 33003MPS CAVOK 11/04 Q1020
ZBYN,2003-05-07 18:00,ZBYN 071800Z 02002MPS CAVOK 11/05 Q1020
ZBYN,2003-05-07 19:00,ZBYN 071900Z 00000MPS CAVOK 10/06 Q1020
ZBYN,2003-05-07 20:00,ZBYN 072000Z 06002MPS CAVOK 10/05 Q1020
ZBYN,2003-05-07 21:00,ZBYN 072100Z 06002MPS CAVOK 10/05 Q1021
ZBYN,2003-05-07 23:00,ZBYN 072300Z 08003MPS 8000 NSC 10/05 Q1022 NOSIG
ZBYN,2003-05-08 00:00,ZBYN 080000Z 07003MPS CAVOK 11/05 Q1022 NOSIG
ZBYN,2003-05-08 01:00,ZBYN 080100Z 08003MPS CAVOK 12/05 Q1023 NOSIG
ZBYN,2003-05-08 02:00,ZBYN 080200Z 11003MPS 9999 BKN030 14/06 Q1023 NOSIG
ZBYN,2003-05-08 03:00,ZBYN 080300Z 14003MPS 9999 BKN030 14/06 Q1022 NOSIG
ZBYN,2003-05-08 04:00,ZBYN 080400Z 13002MPS 9999 BKN030 15/06 Q1021 NOSIG
ZBYN,2003-05-08 05:00,ZBYN 080500Z VRB01MPS 9999 BKN030 16/06 Q1020 NOSIG
ZBYN,2003-05-08 06:00,ZBYN 080600Z 11002MPS 9999 SCT030 17/04 Q1020 NOSIG
ZBYN,2003-05-08 07:00,ZBYN 080700Z 10003MPS 9999 SCT030 17/04 Q1019 NOSIG
ZBYN,2003-05-08 08:00,ZBYN 080800Z 18001MPS 9999 SCT033 18/03 Q1019 NOSIG
ZBYN,2003-05-08 09:00,ZBYN 080900Z 11002MPS 9999 FEW033 BKN200 18/03 Q1018 NOSIG
ZBYN,2003-05-08 10:00,ZBYN 081000Z 12002MPS CAVOK 17/04 Q1018 NOSIG
ZBYN,2003-05-08 11:00,ZBYN 081100Z 15001MPS CAVOK 16/04 Q1019 NOSIG
ZBYN,2003-05-08 12:00,ZBYN 081200Z 15003MPS CAVOK 14/07 Q1019 NOSIG
ZBYN,2003-05-08 13:00,ZBYN 081300Z 10004MPS CAVOK 13/07 Q1020 NOSIG
ZBYN,2003-05-08 14:00,ZBYN 081400Z 11002MPS 7000 SKC 11/06 Q1021 NOSIG
ZBYN,2003-05-08 15:00,ZBYN 081500Z 11002MPS 7000 SKC 11/06 Q1021 NOSIG
ZBYN,2003-05-08 16:00,ZBYN 081600Z 11002MPS 7000 SKC 10/06 Q1021 NOSIG
ZBYN,2003-05-08 17:00,ZBYN 081700Z 12002MPS 7000 SKC 08/04 Q1021
ZBYN,2003-05-08 18:00,ZBYN 081800Z 11002MPS 7000 SKC 08/04 Q1020
ZBYN,2003-05-08 19:00,ZBYN 081900Z 12001MPS 7000 SKC 08/04 Q1020
ZBYN,2003-05-08 20:00,ZBYN 082000Z 06001MPS 6000 SKC 08/04 Q1020 NOSIG
ZBYN,2003-05-08 21:00,ZBYN 082100Z 11001MPS 6000 SKC 07/03 Q1021 NOSIG
ZBYN,2003-05-08 22:00,ZBYN 082200Z 12001MPS 3000 BR SKC 07/03 Q1021 NOSIG
ZBYN,2003-05-08 23:00,ZBYN 082300Z 11001MPS 1700 R31/1300 BR SKC 09/04 Q1021 NOSIG
ZBYN,2003-05-09 00:00,ZBYN 090000Z 13001MPS 2000 BR SKC 11/07 Q1022 NOSIG
ZBYN,2003-05-09 01:00,ZBYN 090100Z 00000MPS 3000 BR SKC 13/08 Q1022 NOSIG
ZBYN,2003-05-09 02:00,ZBYN 090200Z VRB01MPS 1600 BR SKC 15/08 Q1021 NOSIG
ZBYN,2003-05-09 03:00,ZBYN 090300Z VRB01MPS 2700 FU SKC 17/06 Q1021 NOSIG
ZBYN,2003-05-09 04:00,ZBYN 090400Z VRB01MPS 7000 SKC 19/05 Q1020 NOSIG
ZBYN,2003-05-09 05:00,ZBYN 090500Z 15002MPS CAVOK 20/00 Q1019 NOSIG
ZBYN,2003-05-09 06:00,ZBYN 090600Z 17002MPS CAVOK 21/M02 Q1018 NOSIG
ZBYN,2003-05-09 07:00,ZBYN 090700Z 15002MPS CAVOK 22/M03 Q1017 NOSIG
ZBYN,2003-05-09 08:00,ZBYN 090800Z 19002MPS CAVOK 22/M03 Q1017 NOSIG
ZBYN,2003-05-09 09:00,ZBYN 090900Z 22002MPS CAVOK 22/M05 Q1016 NOSIG
ZBYN,2003-05-09 10:00,ZBYN 091000Z VRB01MPS CAVOK 21/M04 Q1016 NOSIG
ZBYN,2003-05-09 11:00,ZBYN 091100Z 26001MPS CAVOK 20/M01 Q1016 NOSIG
ZBYN,2003-05-09 12:00,ZBYN 091200Z 26001MPS CAVOK 18/01 Q1017 NOSIG
ZBYN,2003-05-09 13:00,ZBYN 091300Z 04001MPS CAVOK 16/02 Q1017 NOSIG
ZBYN,2003-05-09 14:00,ZBYN 091400Z 11001MPS CAVOK 15/03 Q1018 NOSIG
ZBYN,2003-05-09 15:00,ZBYN 091500Z 13002MPS CAVOK 15/04 Q1018 NOSIG
ZBYN,2003-05-09 16:00,ZBYN 091600Z 13001MPS CAVOK 14/04 Q1018 NOSIG
ZBYN,2003-05-09 17:00,ZBYN 091700Z 06002MPS CAVOK 13/05 Q1018
ZBYN,2003-05-09 18:00,ZBYN 091800Z 08001MPS CAVOK 11/05 Q1017
ZBYN,2003-05-09 19:00,ZBYN 091900Z 08001MPS CAVOK 10/04 Q1017
ZBYN,2003-05-09 20:00,ZBYN 092000Z 07001MPS CAVOK 10/04 Q1017
ZBYN,2003-05-09 21:00,ZBYN 092100Z 11001MPS 6000 NSC 09/04 Q1017
ZBYN,2003-05-09 22:00,ZBYN 092200Z 13002MPS 4000 FU SKC 08/04 Q1017 NOSIG
ZBYN,2003-05-09 23:00,ZBYN 092300Z 12002MPS 2000 FU SKC 10/06 Q1017 NOSIG
ZBYN,2003-05-10 00:00,ZBYN 100000Z VRB01MPS 3000 FU SKC 13/06 Q1018 NOSIG
ZBYN,2003-05-10 01:00,ZBYN 100100Z 16002MPS 4000 FU SKC 15/06 Q1018 NOSIG
ZBYN,2003-05-10 02:00,ZBYN 100200Z 17002MPS 4000 FU SKC 18/07 Q1017 NOSIG
ZBYN,2003-05-10 03:00,ZBYN 100300Z VRB01MPS 5000 FU SKC 20/05 Q1016 NOSIG
ZBYN,2003-05-10 04:00,ZBYN 100400Z 18002MPS 8000 SKC 23/03 Q1015 NOSIG
ZBYN,2003-05-10 05:00,ZBYN 100500Z 21003MPS CAVOK 24/M02 Q1014 NOSIG
ZBYN,2003-05-10 06:00,ZBYN 100600Z 20003MPS CAVOK 25/M04 Q1013 NOSIG
ZBYN,2003-05-10 07:00,ZBYN 100700Z 25003MPS 9999 FEW030 25/M04 Q1011 NOSIG
ZBYN,2003-05-10 08:00,ZBYN 100800Z 25004MPS 9999 FEW030 26/M05 Q1011 NOSIG
ZBYN,2003-05-10 09:00,ZBYN 100900Z 22003MPS 9999 FEW030 25/M05 Q1010 NOSIG
ZBYN,2003-05-10 10:00,ZBYN 101000Z 22003MPS 9999 FEW030 25/M04 Q1010 NOSIG
ZBYN,2003-05-10 11:00,ZBYN 101100Z 20002MPS CAVOK 23/M04 Q1011 NOSIG
ZBYN,2003-05-10 12:00,ZBYN 101200Z 22001MPS CAVOK 21/M01 Q1011 NOSIG
ZBYN,2003-05-10 13:00,ZBYN 101300Z 22001MPS CAVOK 20/03 Q1012 NOSIG
ZBYN,2003-05-10 14:00,ZBYN 101400Z 24001MPS CAVOK 19/02 Q1013 NOSIG
ZBYN,2003-05-10 15:00,ZBYN 101500Z 23001MPS CAVOK 17/03 Q1013 NOSIG
ZBYN,2003-05-10 16:00,ZBYN 101600Z 15001MPS CAVOK 14/04 Q1013 NOSIG
ZBYN,2003-05-10 17:00,ZBYN 101700Z 13002MPS CAVOK 11/05 Q1013
ZBYN,2003-05-10 18:00,ZBYN 101800Z 12002MPS CAVOK 14/06 Q1013
ZBYN,2003-05-10 19:00,ZBYN 101900Z 09002MPS CAVOK 12/07 Q1013 NOSIG
ZBYN,2003-05-10 20:00,ZBYN 102000Z 09002MPS 6000 NSC 11/06 Q1013
ZBYN,2003-05-10 21:00,ZBYN 102100Z 11002MPS 4000 BR NSC 10/06 Q1012 NOSIG
ZBYN,2003-05-10 22:00,ZBYN 102200Z 06001MPS 3000 BR SCT040 SCT200 11/07 Q1013 NOSIG
ZBYN,2003-05-10 23:00,ZBYN 102300Z 35003MPS 3500 FU NSC 14/07 Q1015 NOSIG
ZBYN,2003-05-11 00:00,ZBYN 110000Z 05002MPS 3000 FU NSC 15/08 Q1014 NOSIG
ZBYN,2003-05-11 01:00,ZBYN 110100Z 15003MPS 5000 FU NSC 18/09 Q1014 NOSIG
ZBYN,2003-05-11 02:00,ZBYN 110200Z 15002MPS 8000 NSC 20/06 Q1013 NOSIG
ZBYN,2003-05-11 03:00,ZBYN 110300Z 21002MPS 8000 SKC 22/05 Q1013 NOSIG
ZBYN,2003-05-11 04:00,ZBYN 110400Z 23002MPS CAVOK 24/04 Q1011 NOSIG
ZBYN,2003-05-11 05:00,ZBYN 110500Z 26003MPS CAVOK 25/04 Q1010 NOSIG
ZBYN,2003-05-11 06:00,ZBYN 110600Z 23003MPS CAVOK 26/04 Q1009 NOSIG
ZBYN,2003-05-11 07:00,ZBYN 110700Z 22004MPS CAVOK 27/02 Q1009 NOSIG
ZBYN,2003-05-11 08:00,ZBYN 110800Z 19004MPS CAVOK 28/01 Q1008 NOSIG
ZBYN,2003-05-11 09:00,ZBYN 110900Z 23002MPS CAVOK 28/01 Q1008 NOSIG
ZBYN,2003-05-11 10:00,ZBYN 111000Z 26002MPS 9999 -TS FEW030CB BKN030 26/01 Q1008 NOSIG
ZBYN,2003-05-11 11:00,ZBYN 111100Z 15001MPS 9999 FEW030 BKN200 25/03 Q1008 NOSIG
ZBYN,2003-05-11 12:00,ZBYN 111200Z 07009MPS 4000 -TSRA SA SCT030 SCT030CB 21/13 Q1010 NOSIG
ZBYN,2003-05-11 13:00,ZBYN 111300Z 09008MPS 4000 SA FEW040 SCT200 19/13 Q1012 NOSIG
ZBYN,2003-05-11 14:00,ZBYN 111400Z 08008MPS 6000 NSC 18/12 Q1014 NOSIG
ZBYN,2003-05-11 15:00,ZBYN 111500Z 08006MPS 6000 NSC 17/11 Q1014 NOSIG
ZBYN,2003-05-11 16:00,ZBYN 111600Z 07007MPS 6000 NSC 16/10 Q1014 NOSIG
ZBYN,2003-05-11 17:00,ZBYN 111700Z 05004MPS 6000 NSC 16/10 Q1014 NOSIG
ZBYN,2003-05-11 18:00,ZBYN 111800Z 04004MPS 6000 NSC 16/10 Q1014
ZBYN,2003-05-11 19:00,ZBYN 111900Z 04003MPS 6000 NSC 16/10 Q1014
ZBYN,2003-05-11 20:00,ZBYN 112000Z 36001MPS 6000 NSC 14/10 Q1014
ZBYN,2003-05-11 21:00,ZBYN 112100Z 00000MPS 6000 NSC 13/09 Q1014
ZBYN,2003-05-11 22:00,ZBYN 112200Z 35001MPS 4000 BR NSC 13/08 Q1015 NOSIG
ZBYN,2003-05-11 23:00,ZBYN 112300Z 00000MPS 3000 BR NSC 15/10 Q1015 NOSIG
ZBYN,2003-05-12 00:00,ZBYN 120000Z 00000MPS 3000 DU SKC 16/11 Q1016 NOSIG
ZBYN,2003-05-12 01:00,ZBYN 120100Z 36001MPS 3000 DU SKC 18/11 Q1016 NOSIG
ZBYN,2003-05-12 02:00,ZBYN 120200Z VRB01MPS 4000 FU SKC 20/11 Q1016 NOSIG
ZBYN,2003-05-12 03:00,ZBYN 120300Z 06002MPS 6000 SKC 22/10 Q1016 NOSIG
ZBYN,2003-05-12 04:00,ZBYN 120400Z 08003MPS 7000 SKC 24/10 Q1015 NOSIG
ZBYN,2003-05-12 05:00,ZBYN 120500Z 12005MPS CAVOK 26/07 Q1014 NOSIG
ZBYN,2003-05-12 06:00,ZBYN 120600Z 10005MPS CAVOK 26/10 Q1013 NOSIG
ZBYN,2003-05-12 07:00,ZBYN 120700Z 08005MPS CAVOK 26/09 Q1012 NOSIG
ZBYN,2003-05-12 08:00,ZBYN 120800Z 08005MPS CAVOK 26/10 Q1012 NOSIG
ZBYN,2003-05-12 09:00,ZBYN 120900Z 09006MPS CAVOK 26/10 Q1012 NOSIG
ZBYN,2003-05-12 10:00,ZBYN 121000Z 08007MPS 6000 SKC 23/12 Q1012 NOSIG
ZBYN,2003-05-12 11:00,ZBYN 121100Z 08008MPS 3000 SA SKC 21/12 Q1013 NOSIG
ZBYN,2003-05-12 12:00,ZBYN 121200Z 08008MPS 3000 SA SKC 19/12 Q1013 NOSIG
ZBYN,2003-05-12 13:00,ZBYN 121300Z 08008MPS 3000 R31/1300 SA SKC 19/12 Q1014 NOSIG
ZBYN,2003-05-12 14:00,ZBYN 121400Z 08008MPS 3000 R31/1300 SA SKC 18/12 Q1015 NOSIG
ZBYN,2003-05-12 15:00,ZBYN 121500Z 11003MPS 3000 SA SKC 18/11 Q1015 NOSIG
ZBYN,2003-05-12 16:00,ZBYN 121600Z 09004MPS 3000 SA SKC 17/11 Q1015 NOSIG
ZBYN,2003-05-12 17:00,ZBYN 121700Z 09004MPS 3000 SA SKC 17/11 Q1015
ZBYN,2003-05-12 18:00,ZBYN 121800Z 09003MPS 3000 SA SKC 16/11 Q1015
ZBYN,2003-05-12 19:00,ZBYN 121900Z 09003MPS 3000 SA SKC 15/11 Q1015
ZBYN,2003-05-12 20:00,ZBYN 122000Z 09003MPS 3000 BR NSC 15/10 Q1014
ZBYN,2003-05-12 21:00,ZBYN 122100Z 12002MPS 2000 R31/1200N BR SKC 12/08 Q1014
ZBYN,2003-05-12 22:00,ZBYN 122200Z 00000MPS 2000 R31/1200N BR NSC 13/09 Q1015 NOSIG
ZBYN,2003-05-12 23:00,ZBYN 122300Z 00000MPS 1800 R31/1300 BR NSC 14/10 Q1015 NOSIG
ZBYN,2003-05-13 00:00,ZBYN 130000Z 14001MPS 1400 R31/1300 BR SKC 17/11 Q1016 NOSIG
ZBYN,2003-05-13 01:00,ZBYN 130100Z 12001MPS 2500 HZ SKC 18/11 Q1016 NOSIG
ZBYN,2003-05-13 02:00,ZBYN 130200Z VRB01MPS 4000 HZ SKC 20/11 Q1015 NOSIG
ZBYN,2003-05-13 03:00,ZBYN 130300Z VRB01MPS 5000 HZ SKC 21/10 Q1014 NOSIG
ZBYN,2003-05-13 04:00,ZBYN 130400Z 14003MPS CAVOK 24/08 Q1013 NOSIG
ZBYN,2003-05-13 05:00,ZBYN 130500Z 14002MPS CAVOK 25/06 Q1012 NOSIG
ZBYN,2003-05-13 06:00,ZBYN 130600Z 13002MPS CAVOK 26/06 Q1011 NOSIG
ZBYN,2003-05-13 07:00,ZBYN 130700Z 16002MPS 9999 SCT040 SCT200 28/05 Q1010 NOSIG
ZBYN,2003-05-13 08:00,ZBYN 130800Z 16002MPS 9999 BKN040 27/03 Q1009 NOSIG
ZBYN,2003-05-13 09:00,ZBYN 130900Z 08007MPS 9999 SCT040 26/09 Q1009 NOSIG
ZBYN,2003-05-13 10:00,ZBYN 131000Z 08008MPS CAVOK 24/08 Q1009 NOSIG
ZBYN,2003-05-13 11:00,ZBYN 131100Z 07007MPS 9999 FEW040 BKN200 23/08 Q1010 NOSIG
ZBYN,2003-05-13 12:00,ZBYN 131200Z 08007MPS CAVOK 21/09 Q1011 NOSIG
ZBYN,2003-05-13 13:00,ZBYN 131300Z 08007MPS CAVOK 20/10 Q1012 NOSIG
ZBYN,2003-05-13 14:00,ZBYN 131400Z 08007MPS CAVOK 19/10 Q1012 NOSIG
ZBYN,2003-05-13 15:00,ZBYN 131500Z 08006MPS CAVOK 18/10 Q1012 NOSIG
ZBYN,2003-05-13 16:00,ZBYN 131600Z 08006MPS CAVOK 17/10 Q1012 NOSIG
ZBYN,2003-05-13 17:00,ZBYN 131700Z 08005MPS CAVOK 17/10 Q1012 NOSIG
ZBYN,2003-05-13 18:00,ZBYN 131800Z 08005MPS CAVOK 17/09 Q1012
ZBYN,2003-05-13 19:00,ZBYN 131900Z 08004MPS CAVOK 17/09 Q1012 NOSIG
ZBYN,2003-05-13 20:00,ZBYN 132000Z 08005MPS CAVOK 17/09 Q1011
ZBYN,2003-05-13 21:00,ZBYN 132100Z 08003MPS CAVOK 16/10 Q1011
ZBYN,2003-05-13 22:00,ZBYN 132200Z 09003MPS CAVOK 16/10 Q1011 NOSIG
ZBYN,2003-05-13 23:00,ZBYN 132300Z 08003MPS 7000 NSC 17/10 Q1012 NOSIG
ZBYN,2003-05-14 00:00,ZBYN 140000Z 10001MPS 7000 NSC 17/10 Q1012 NOSIG
ZBYN,2003-05-14 01:00,ZBYN 140100Z 00000MPS 7000 -RA OVC040 17/11 Q1012 NOSIG
ZBYN,2003-05-14 02:00,ZBYN 140200Z VRB01MPS CAVOK 18/11 Q1012 NOSIG
ZBYN,2003-05-14 03:00,ZBYN 140300Z VRB01MPS CAVOK 18/11 Q1012 NOSIG
ZBYN,2003-05-14 04:00,ZBYN 140400Z VRB01MPS CAVOK 19/11 Q1012 NOSIG
ZBYN,2003-05-14 05:00,ZBYN 140500Z VRB01MPS 6000 SCT040 OVC100 20/11 Q1011 NOSIG
ZBYN,2003-05-14 06:00,ZBYN 140600Z 11002MPS 7000 BKN040 OVC100 21/10 Q1011 NOSIG
ZBYN,2003-05-14 07:00,ZBYN 140700Z 08007MPS CAVOK 19/10 Q1010 NOSIG
ZBYN,2003-05-14 08:00,ZBYN 140800Z 08008MPS CAVOK 20/11 Q1010 NOSIG
ZBYN,2003-05-14 09:00,ZBYN 140900Z 09008MPS CAVOK 18/10 Q1011 NOSIG
ZBYN,2003-05-14 10:00,ZBYN 141000Z 08008MPS CAVOK 16/09 Q1011 NOSIG
ZBYN,2003-05-14 11:00,ZBYN 141100Z 09007MPS CAVOK 15/09 Q1012 NOSIG
ZBYN,2003-05-14 12:00,ZBYN 141200Z 09007MPS CAVOK 14/09 Q1013 NOSIG
ZBYN,2003-05-14 13:00,ZBYN 141300Z 08007MPS CAVOK 14/09 Q1014 NOSIG
ZBYN,2003-05-14 14:00,ZBYN 141400Z 08005MPS CAVOK 14/08 Q1014 NOSIG
ZBYN,2003-05-14 15:00,ZBYN 141500Z 08004MPS CAVOK 13/08 Q1015 NOSIG
ZBYN,2003-05-14 16:00,ZBYN 141600Z 09004MPS CAVOK 13/08 Q1015 NOSIG
ZBYN,2003-05-14 17:00,ZBYN 141700Z 08003MPS CAVOK 13/08 Q1015
ZBYN,2003-05-14 18:00,ZBYN 141800Z 09003MPS CAVOK 13/08 Q1015
ZBYN,2003-05-14 19:00,ZBYN 141900Z 09003MPS CAVOK 12/08 Q1014
ZBYN,2003-05-14 20:00,ZBYN 142000Z 11002MPS CAVOK 10/06 Q1014
ZBYN,2003-05-14 21:00,ZBYN 142100Z 00000MPS CAVOK 10/06 Q1014 NOSIG
ZBYN,2003-05-14 22:00,ZBYN 142200Z 00000MPS 8000 NSC 10/06 Q1015 NOSIG
ZBYN,2003-05-14 23:00,ZBYN 142300Z 11001MPS 6000 NSC 12/08 Q1015 NOSIG
ZBYN,2003-05-15 00:00,ZBYN 150000Z 00000MPS 5000 FU NSC 13/09 Q1016 NOSIG
ZBYN,2003-05-15 01:00,ZBYN 150100Z VRB01MPS 5000 FU NSC 14/09 Q1016 NOSIG
ZBYN,2003-05-15 02:00,ZBYN 150200Z VRB01MPS 6000 NSC 15/09 Q1016 NOSIG
ZBYN,2003-05-15 03:00,ZBYN 150300Z VRB01MPS 6000 NSC 17/10 Q1016 NOSIG
ZBYN,2003-05-15 04:00,ZBYN 150400Z VRB01MPS 8000 NSC 20/10 Q1015 NOSIG
ZBYN,2003-05-15 05:00,ZBYN 150500Z VRB01MPS CAVOK 21/09 Q1014 NOSIG
ZBYN,2003-05-15 06:00,ZBYN 150600Z 16002MPS CAVOK 23/09 Q1013 NOSIG
ZBYN,2003-05-15 07:00,ZBYN 150700Z 14002MPS CAVOK 23/07 Q1013 NOSIG
ZBYN,2003-05-15 08:00,ZBYN 150800Z 13002MPS CAVOK 24/05 Q1012 NOSIG
ZBYN,2003-05-15 09:00,ZBYN 150900Z 01002MPS CAVOK 23/06 Q1012 NOSIG
ZBYN,2003-05-15 10:00,ZBYN 151000Z VRB01MPS CAVOK 23/05 Q1012 NOSIG
ZBYN,2003-05-15 11:00,ZBYN 151100Z 04002MPS CAVOK 21/06 Q1013 NOSIG
ZBYN,2003-05-15 12:00,ZBYN 151200Z 05002MPS CAVOK 20/06 Q1013 NOSIG
ZBYN,2003-05-15 13:00,ZBYN 151300Z 05002MPS CAVOK 19/07 Q1014 NOSIG
ZBYN,2003-05-15 14:00,ZBYN 151400Z 08004MPS CAVOK 18/09 Q1014 NOSIG
ZBYN,2003-05-15 15:00,ZBYN 151500Z 09004MPS CAVOK 17/09 Q1015 NOSIG
ZBYN,2003-05-15 16:00,ZBYN 151600Z 12003MPS CAVOK 15/09 Q1014 NOSIG
ZBYN,2003-05-15 17:00,ZBYN 151700Z 11002MPS CAVOK 15/09 Q1014
ZBYN,2003-05-15 18:00,ZBYN 151800Z 09003MPS CAVOK 15/09 Q1014
ZBYN,2003-05-15 19:00,ZBYN 151900Z 11003MPS CAVOK 15/09 Q1014
ZBYN,2003-05-15 20:00,ZBYN 152000Z 08002MPS CAVOK 15/09 Q1013
ZBYN,2003-05-15 21:00,ZBYN 152100Z 12002MPS CAVOK 14/09 Q1013
ZBYN,2003-05-15 22:00,ZBYN 152200Z 11002MPS CAVOK 14/08 Q1014 NOSIG
ZBYN,2003-05-15 23:00,ZBYN 152300Z 10001MPS 8000 NSC 15/09 Q1014 NOSIG
ZBYN,2003-05-16 00:00,ZBYN 160000Z 00000MPS 6000 NSC 16/09 Q1014 NOSIG
ZBYN,2003-05-16 01:00,ZBYN 160100Z 00000MPS 7000 NSC 17/10 Q1014 NOSIG
ZBYN,2003-05-16 02:00,ZBYN 160200Z VRB01MPS 9000 NSC 18/10 Q1014 NOSIG
ZBYN,2003-05-16 03:00,ZBYN 160300Z VRB01MPS CAVOK 20/10 Q1013 NOSIG
ZBYN,2003-05-16 04:00,ZBYN 160400Z 24002MPS CAVOK 22/09 Q1013 NOSIG
ZBYN,2003-05-16 05:00,ZBYN 160500Z 33004MPS CAVOK 22/08 Q1012 NOSIG
ZBYN,2003-05-16 06:00,ZBYN 160600Z 36003MPS CAVOK 23/07 Q1011 NOSIG
ZBYN,2003-05-16 07:00,ZBYN 160700Z 34009MPS 7000 NSC 20/10 Q1011 NOSIG
ZBYN,2003-05-16 08:00,ZBYN 160800Z 34006MPS 9999 -RA SCT040 OVC100 17/10 Q1012 NOSIG
ZBYN,2003-05-16 09:00,ZBYN 160900Z VRB01MPS 9999 SCT040 OVC100 17/11 Q1012 NOSIG
ZBYN,2003-05-16 10:00,ZBYN 161000Z 10003MPS 6000 -RA NSC 16/11 Q1012 NOSIG
ZBYN,2003-05-16 11:00,ZBYN 161100Z 10001MPS 8000 NSC 15/11 Q1012 NOSIG
ZBYN,2003-05-16 12:00,ZBYN 161200Z 00000MPS CAVOK 15/11 Q1013 NOSIG
ZBYN,2003-05-16 13:00,ZBYN 161300Z 33003MPS 6000 NSC 15/11 Q1013 NOSIG
ZBYN,2003-05-16 14:00,ZBYN 161400Z 33003MPS CAVOK 14/09 Q1014 NOSIG
ZBYN,2003-05-16 15:00,ZBYN 161500Z 34005MPS CAVOK 14/08 Q1014 NOSIG
ZBYN,2003-05-16 16:00,ZBYN 161600Z 33004MPS CAVOK 14/08 Q1013 NOSIG
ZBYN,2003-05-16 17:00,ZBYN 161700Z 33005MPS CAVOK 14/07 Q1014
ZBYN,2003-05-16 18:00,ZBYN 161800Z 34005MPS CAVOK 14/07 Q1013
ZBYN,2003-05-16 19:00,ZBYN 161900Z 33004MPS CAVOK 14/07 Q1013
ZBYN,2003-05-16 20:00,ZBYN 162000Z 34004MPS CAVOK 14/06 Q1013
ZBYN,2003-05-16 21:00,ZBYN 162100Z 34004MPS CAVOK 13/06 Q1013 NOSIG
ZBYN,2003-05-16 22:00,ZBYN 162200Z 35004MPS CAVOK 14/06 Q1013 NOSIG
ZBYN,2003-05-16 23:00,ZBYN 162300Z 34004MPS 9999 OVC040 14/06 Q1014 NOSIG
ZBYN,2003-05-17 00:00,ZBYN 170000Z 34005MPS CAVOK 16/06 Q1014 NOSIG
ZBYN,2003-05-17 01:00,ZBYN 170100Z 35004MPS CAVOK 16/07 Q1014 NOSIG
ZBYN,2003-05-17 02:00,ZBYN 170200Z 32005MPS CAVOK 19/05 Q1014 NOSIG
ZBYN,2003-05-17 03:00,ZBYN 170300Z 33004MPS 9999 FEW040 BKN200 20/04 Q1014 NOSIG
ZBYN,2003-05-17 04:00,ZBYN 170400Z 32003MPS 9999 FEW040 BKN200 21/03 Q1013 NOSIG
ZBYN,2003-05-17 05:00,ZBYN 170500Z 34003MPS 9999 SCT040 23/04 Q1012 NOSIG
ZBYN,2003-05-17 06:00,ZBYN 170600Z VRB01MPS 9999 BKN040 22/03 Q1012 NOSIG
ZBYN,2003-05-17 07:00,ZBYN 170700Z 16002MPS 9999 BKN040 23/04 Q1011 NOSIG
ZBYN,2003-05-17 08:00,ZBYN 170800Z 03002MPS 9999 SCT040 24/M05 Q1010 NOSIG
ZBYN,2003-05-17 09:00,ZBYN 170900Z 01004MPS CAVOK 24/M11 Q1010 NOSIG
ZBYN,2003-05-17 10:00,ZBYN 171000Z 36003MPS CAVOK 23/M06 Q1010 NOSIG
ZBYN,2003-05-17 11:00,ZBYN 171100Z 36002MPS CAVOK 22/M04 Q1010 NOSIG
ZBYN,2003-05-17 12:00,ZBYN 171200Z 06001MPS CAVOK 20/M01 Q1011 NOSIG
ZBYN,2003-05-17 13:00,ZBYN 171300Z 21001MPS CAVOK 20/03 Q1012 NOSIG
ZBYN,2003-05-17 14:00,ZBYN 171400Z 08002MPS CAVOK 20/00 Q1013 NOSIG
ZBYN,2003-05-17 15:00,ZBYN 171500Z VRB01MPS CAVOK 17/02 Q1013 NOSIG
ZBYN,2003-05-17 16:00,ZBYN 171600Z 03001MPS CAVOK 18/02 Q1013 NOSIG
ZBYN,2003-05-17 17:00,ZBYN 171700Z 00000MPS CAVOK 16/03 Q1013
ZBYN,2003-05-17 18:00,ZBYN 171800Z VRB01MPS CAVOK 15/04 Q1013
ZBYN,2003-05-17 19:00,ZBYN 171900Z 00000MPS CAVOK 14/05 Q1013
ZBYN,2003-05-17 20:00,ZBYN 172000Z 34001MPS CAVOK 15/05 Q1013
ZBYN,2003-05-17 21:00,ZBYN 172100Z 00000MPS CAVOK 13/05 Q1013
ZBYN,2003-05-17 22:00,ZBYN 172200Z 01002MPS CAVOK 15/05 Q1013 NOSIG
ZBYN,2003-05-17 23:00,ZBYN 172300Z 02001MPS 9999 FEW040TCU BKN200 15/06 Q1014 NOSIG
ZBYN,2003-05-18 00:00,ZBYN 180000Z 16002MPS CAVOK 16/07 Q1014 NOSIG
ZBYN,2003-05-18 01:00,ZBYN 180100Z 15003MPS CAVOK 18/08 Q1013 NOSIG
ZBYN,2003-05-18 02:00,ZBYN 180200Z 22002MPS CAVOK 20/08 Q1013 NOSIG
ZBYN,2003-05-18 03:00,ZBYN 180300Z 26002MPS 9999 FEW030TCU BKN200 22/04 Q1013 NOSIG
ZBYN,2003-05-18 04:00,ZBYN 180400Z 23002MPS 9999 FEW030TCU BKN200 23/05 Q1012 NOSIG
ZBYN,2003-05-18 05:00,ZBYN 180500Z 26004MPS 9999 SCT030TCU 23/02 Q1011 NOSIG
ZBYN,2003-05-18 06:00,ZBYN 180600Z 24007MPS 9999 SCT033TCU 23/M02 Q1010 NOSIG
ZBYN,2003-05-18 07:00,ZBYN 180700Z 24004MPS 9999 SCT033TCU 23/M01 Q1009 NOSIG
ZBYN,2003-05-18 08:00,ZBYN 180800Z 32008MPS 9999 -TS SCT030CB SCT033TCU 19/01 Q1011 NOSIG
ZBYN,2003-05-18 09:00,ZBYN 180900Z 01004MPS 9999 -TSRA SCT030CB SCT033TCU 16/06 Q1013 NOSIG
ZBYN,2003-05-18 10:00,ZBYN 181000Z 12003MPS CAVOK 14/09 Q1012 NOSIG
ZBYN,2003-05-18 10:30,ZBYN 181030Z VRB01MPS 9999 BKN033 OVC100 15/09 Q1014 NOSIG
ZBYN,2003-05-18 11:00,ZBYN 181100Z 33005MPS 9999 BKN033 13/06 Q1014 NOSIG
ZBYN,2003-05-18 12:00,ZBYN 181200Z 30002MPS CAVOK 12/06 Q1013 NOSIG
ZBYN,2003-05-18 13:00,ZBYN 181300Z 29001MPS CAVOK 12/05 Q1014 NOSIG
ZBYN,2003-05-18 14:00,ZBYN 181400Z 01002MPS CAVOK 11/05 Q1015 NOSIG
ZBYN,2003-05-18 15:00,ZBYN 181500Z VRB01MPS CAVOK 08/03 Q1015 NOSIG
ZBYN,2003-05-18 16:00,ZBYN 181600Z VRB01MPS CAVOK 10/05 Q1014 NOSIG
ZBYN,2003-05-18 17:00,ZBYN 181700Z 26001MPS CAVOK 09/04 Q1014
ZBYN,2003-05-18 18:00,ZBYN 181800Z 25001MPS CAVOK 09/04 Q1014
ZBYN,2003-05-18 19:00,ZBYN 181900Z 33001MPS CAVOK 08/04 Q1014
ZBYN,2003-05-18 20:00,ZBYN 182000Z 28002MPS CAVOK 09/04 Q1014
ZBYN,2003-05-18 21:00,ZBYN 182100Z 14002MPS CAVOK 07/03 Q1014
ZBYN,2003-05-18 22:00,ZBYN 182200Z VRB01MPS 8000 NSC 08/04 Q1015 NOSIG
ZBYN,2003-05-18 23:00,ZBYN 182300Z 34001MPS 8000 SKC 10/05 Q1016 NOSIG
ZBYN,2003-05-19 00:00,ZBYN 190000Z VRB01MPS 8000 SKC 11/06 Q1016 NOSIG
ZBYN,2003-05-19 01:00,ZBYN 190100Z 33004MPS CAVOK 15/05 Q1016 NOSIG
ZBYN,2003-05-19 02:00,ZBYN 190200Z 33005MPS CAVOK 17/05 Q1016 NOSIG
ZBYN,2003-05-19 03:00,ZBYN 190300Z 35005MPS CAVOK 19/03 Q1016 NOSIG
ZBYN,2003-05-19 04:00,ZBYN 190400Z 34004MPS CAVOK 21/01 Q1016 NOSIG
ZBYN,2003-05-19 05:00,ZBYN 190500Z 34004G09MPS 9999 FEW040 22/M02 Q1016 NOSIG
ZBYN,2003-05-19 06:00,ZBYN 190600Z 05004MPS CAVOK 23/M04 Q1015 NOSIG
ZBYN,2003-05-19 07:00,ZBYN 190700Z 35004MPS CAVOK 24/M06 Q1014 NOSIG
ZBYN,2003-05-19 08:00,ZBYN 190800Z 36005MPS 9999 FEW040 24/M09 Q1014 NOSIG
ZBYN,2003-05-19 09:00,ZBYN 190900Z 34004MPS CAVOK 24/M09 Q1014 NOSIG
ZBYN,2003-05-19 10:00,ZBYN 191000Z 31005MPS CAVOK 22/M06 Q1015 NOSIG
ZBYN,2003-05-19 11:00,ZBYN 191100Z 34003MPS CAVOK 21/M01 Q1016 NOSIG
ZBYN,2003-05-19 12:00,ZBYN 191200Z 34006MPS CAVOK 20/M03 Q1017 NOSIG
ZBYN,2003-05-19 13:00,ZBYN 191300Z 01003MPS CAVOK 18/M02 Q1018 NOSIG
ZBYN,2003-05-19 14:00,ZBYN 191400Z 04003MPS CAVOK 17/M02 Q1018 NOSIG
ZBYN,2003-05-19 15:00,ZBYN 191500Z 19001MPS CAVOK 14/M00 Q1019 NOSIG
ZBYN,2003-05-19 16:00,ZBYN 191600Z 03001MPS CAVOK 12/01 Q1019 NOSIG
ZBYN,2003-05-19 17:00,ZBYN 191700Z VRB01MPS CAVOK 11/00 Q1019
ZBYN,2003-05-19 18:00,ZBYN 191800Z 34003MPS CAVOK 13/01 Q1019
ZBYN,2003-05-19 19:00,ZBYN 191900Z 18003MPS CAVOK 11/01 Q1019
ZBYN,2003-05-19 20:00,ZBYN 192000Z 11001MPS CAVOK 07/01 Q1019
ZBYN,2003-05-19 21:00,ZBYN 192100Z 12002MPS CAVOK 06/01 Q1020
ZBYN,2003-05-19 22:00,ZBYN 192200Z 13001MPS CAVOK 07/02 Q1020 NOSIG
ZBYN,2003-05-19 23:00,ZBYN 192300Z 00000MPS CAVOK 10/02 Q1020 NOSIG
ZBYN,2003-05-20 00:00,ZBYN 200000Z 26001MPS 8000 SKC 14/03 Q1020 NOSIG
ZBYN,2003-05-20 01:00,ZBYN 200100Z 34001MPS 8000 SKC 17/03 Q1020 NOSIG
ZBYN,2003-05-20 02:00,ZBYN 200200Z VRB01MPS 9000 NSC 19/02 Q1020 NOSIG
ZBYN,2003-05-20 03:00,ZBYN 200300Z 28002MPS 9000 NSC 22/01 Q1019 NOSIG
ZBYN,2003-05-20 04:00,ZBYN 200400Z 20001MPS CAVOK 23/M00 Q1019 NOSIG
ZBYN,2003-05-20 05:00,ZBYN 200500Z 22002MPS CAVOK 24/M09 Q1018 NOSIG
ZBYN,2003-05-20 06:00,ZBYN 200600Z 14002MPS CAVOK 25/M15 Q1017 NOSIG
ZBYN,2003-05-20 07:00,ZBYN 200700Z 20002MPS CAVOK 26/M23 Q1016 NOSIG
ZBYN,2003-05-20 08:00,ZBYN 200800Z 24002MPS CAVOK 26/M14 Q1015 NOSIG
ZBYN,2003-05-20 09:00,ZBYN 200900Z 25002MPS CAVOK 25/M28 Q1015 NOSIG
ZBYN,2003-05-20 10:00,ZBYN 201000Z 24001MPS CAVOK 24/M24 Q1015 NOSIG
ZBYN,2003-05-20 11:00,ZBYN 201100Z 20001MPS CAVOK 24/M11 Q1015 NOSIG
ZBYN,2003-05-20 12:00,ZBYN 201200Z 17001MPS CAVOK 21/M04 Q1015 NOSIG
ZBYN,2003-05-20 13:00,ZBYN 201300Z 16001MPS CAVOK 19/M02 Q1016 NOSIG
ZBYN,2003-05-20 14:00,ZBYN 201400Z 11001MPS CAVOK 18/M01 Q1016 NOSIG
ZBYN,2003-05-20 15:00,ZBYN 201500Z 10003MPS CAVOK 15/02 Q1017 NOSIG
ZBYN,2003-05-20 16:00,ZBYN 201600Z 14002MPS CAVOK 17/01 Q1017 NOSIG
ZBYN,2003-05-20 17:00,ZBYN 201700Z 11002MPS CAVOK 15/02 Q1016
ZBYN,2003-05-20 18:00,ZBYN 201800Z 11002MPS CAVOK 16/03 Q1016
ZBYN,2003-05-20 19:00,ZBYN 201900Z 14002MPS CAVOK 15/03 Q1016
ZBYN,2003-05-20 20:00,ZBYN 202000Z 10001MPS CAVOK 13/04 Q1016
ZBYN,2003-05-20 21:00,ZBYN 202100Z VRB01MPS CAVOK 13/04 Q1016
ZBYN,2003-05-20 22:00,ZBYN 202200Z 00000MPS CAVOK 13/04 Q1016 NOSIG
ZBYN,2003-05-20 23:00,ZBYN 202300Z 13001MPS 8000 NSC 14/05 Q1016 NOSIG
ZBYN,2003-05-21 00:00,ZBYN 210000Z 13002MPS 8000 NSC 17/05 Q1017 NOSIG
ZBYN,2003-05-21 01:00,ZBYN 210100Z 20001MPS 8000 NSC 19/04 Q1016 NOSIG
ZBYN,2003-05-21 02:00,ZBYN 210200Z VRB01MPS 7000 NSC 22/04 Q1016 NOSIG
ZBYN,2003-05-21 03:00,ZBYN 210300Z 23003MPS 7000 NSC 23/02 Q1015 NOSIG
ZBYN,2003-05-21 04:00,ZBYN 210400Z 21003MPS CAVOK 25/01 Q1015 NOSIG
ZBYN,2003-05-21 05:00,ZBYN 210500Z 20003MPS 160V230 CAVOK 25/M01 Q1014 NOSIG
ZBYN,2003-05-21 06:00,ZBYN 210600Z 21003MPS CAVOK 25/M01 Q1013 NOSIG
ZBYN,2003-05-21 07:00,ZBYN 210700Z 21003MPS CAVOK 25/M01 Q1012 NOSIG
ZBYN,2003-05-21 08:00,ZBYN 210800Z 24002MPS CAVOK 25/00 Q1012 NOSIG
ZBYN,2003-05-21 09:00,ZBYN 210900Z VRB01MPS CAVOK 25/M01 Q1011 NOSIG
ZBYN,2003-05-21 10:00,ZBYN 211000Z 23002MPS CAVOK 25/M01 Q1010 NOSIG
ZBYN,2003-05-21 11:00,ZBYN 211100Z 26002MPS CAVOK 24/M00 Q1010 NOSIG
ZBYN,2003-05-21 12:00,ZBYN 211200Z 19001MPS CAVOK 22/M00 Q1011 NOSIG
ZBYN,2003-05-21 13:00,ZBYN 211300Z 00000MPS CAVOK 18/02 Q1012 NOSIG
ZBYN,2003-05-21 14:00,ZBYN 211400Z 11001MPS CAVOK 16/03 Q1012 NOSIG
ZBYN,2003-05-21 15:00,ZBYN 211500Z 10001MPS CAVOK 15/04 Q1013 NOSIG
ZBYN,2003-05-21 16:00,ZBYN 211600Z 11002MPS CAVOK 13/05 Q1012 NOSIG
ZBYN,2003-05-21 17:00,ZBYN 211700Z 11001MPS CAVOK 14/04 Q1012
ZBYN,2003-05-21 18:00,ZBYN 211800Z 11001MPS CAVOK 13/05 Q1012
ZBYN,2003-05-21 19:00,ZBYN 211900Z VRB01MPS CAVOK 13/05 Q1012
ZBYN,2003-05-21 20:00,ZBYN 212000Z 12002MPS CAVOK 11/04 Q1012
ZBYN,2003-05-21 21:00,ZBYN 212100Z 09001MPS CAVOK 11/04 Q1012
ZBYN,2003-05-21 22:00,ZBYN 212200Z 09001MPS 8000 SKC 12/06 Q1012 NOSIG
ZBYN,2003-05-21 23:00,ZBYN 212300Z 14001MPS 6000 SKC 14/07 Q1012 NOSIG
ZBYN,2003-05-22 00:00,ZBYN 220000Z 14002MPS 7000 SKC 17/06 Q1013 NOSIG
ZBYN,2003-05-22 01:00,ZBYN 220100Z 21002MPS 6000 SKC 19/06 Q1013 NOSIG
ZBYN,2003-05-22 02:00,ZBYN 220200Z 22002MPS 8000 SKC 22/06 Q1012 NOSIG
ZBYN,2003-05-22 03:00,ZBYN 220300Z 23003MPS CAVOK 24/04 Q1012 NOSIG
ZBYN,2003-05-22 04:00,ZBYN 220400Z 30002MPS CAVOK 26/02 Q1011 NOSIG
ZBYN,2003-05-22 05:00,ZBYN 220500Z VRB01MPS CAVOK 27/01 Q1010 NOSIG
ZBYN,2003-05-22 06:00,ZBYN 220600Z VRB01MPS CAVOK 30/M04 Q1008 NOSIG
ZBYN,2003-05-22 07:00,ZBYN 220700Z VRB01MPS CAVOK 29/M07 Q1008 NOSIG
ZBYN,2003-05-22 08:00,ZBYN 220800Z 24002MPS 9999 FEW030TCU SCT033 30/M03 Q1007 NOSIG
ZBYN,2003-05-22 09:00,ZBYN 220900Z 19002MPS 9999 FEW033 30/M04 Q1007 NOSIG
ZBYN,2003-05-22 10:00,ZBYN 221000Z 21002MPS 9999 FEW033TCU 28/M03 Q1007 NOSIG
ZBYN,2003-05-22 11:00,ZBYN 221100Z 20001MPS 9999 FEW033TCU 27/M04 Q1007 NOSIG
ZBYN,2003-05-22 12:00,ZBYN 221200Z 00000MPS CAVOK 24/M00 Q1008 NOSIG
ZBYN,2003-05-22 13:00,ZBYN 221300Z 09001MPS CAVOK 21/03 Q1008 NOSIG
ZBYN,2003-05-22 14:00,ZBYN 221400Z 12003MPS CAVOK 21/04 Q1009 NOSIG
ZBYN,2003-05-22 15:00,ZBYN 221500Z 16003MPS CAVOK 24/03 Q1010 NOSIG
ZBYN,2003-05-22 16:00,ZBYN 221600Z 16003MPS CAVOK 23/05 Q1010 NOSIG
ZBYN,2003-05-22 17:00,ZBYN 221700Z 14002MPS CAVOK 22/07 Q1010
ZBYN,2003-05-22 18:00,ZBYN 221800Z 16002MPS CAVOK 21/07 Q1010
ZBYN,2003-05-22 19:00,ZBYN 221900Z 19001MPS CAVOK 21/08 Q1010
ZBYN,2003-05-22 20:00,ZBYN 222000Z 06001MPS CAVOK 18/08 Q1010
ZBYN,2003-05-22 21:00,ZBYN 222100Z VRB01MPS CAVOK 17/08 Q1010 NOSIG
ZBYN,2003-05-22 22:00,ZBYN 222200Z 06001MPS 7000 NSC 17/09 Q1010 NOSIG
ZBYN,2003-05-22 23:00,ZBYN 222300Z 00000MPS 7000 SKC 18/09 Q1010 NOSIG
ZBYN,2003-05-23 00:00,ZBYN 230000Z 13001MPS 7000 NSC 21/08 Q1010 NOSIG
ZBYN,2003-05-23 01:00,ZBYN 230100Z 32001MPS 8000 NSC 22/07 Q1011 NOSIG
ZBYN,2003-05-23 02:00,ZBYN 230200Z 33004MPS CAVOK 24/06 Q1011 NOSIG
ZBYN,2003-05-23 03:00,ZBYN 230300Z 34004MPS CAVOK 24/05 Q1011 NOSIG
ZBYN,2003-05-23 04:00,ZBYN 230400Z 35007MPS 9999 FEW040TCU SCT060 OVC200 24/05 Q1011 NOSIG
ZBYN,2003-05-23 05:00,ZBYN 230500Z 36008MPS 9999 SCT040 BKN200 23/07 Q1011 NOSIG
ZBYN,2003-05-23 06:00,ZBYN 230600Z 36003MPS 9999 SCT040 BKN200 22/05 Q1011 NOSIG
ZBYN,2003-05-23 07:00,ZBYN 230700Z 35004MPS 9999 BKN040 BKN200 22/06 Q1010 NOSIG
ZBYN,2003-05-23 08:00,ZBYN 230800Z 11002MPS 9999 SCT040 BKN200 22/05 Q1009 NOSIG
ZBYN,2003-05-23 09:00,ZBYN 230900Z 21002MPS 9999 SCT040 BKN200 22/05 Q1009 NOSIG
ZBYN,2003-05-23 10:00,ZBYN 231000Z 21002MPS CAVOK 21/08 Q1009 NOSIG
ZBYN,2003-05-23 11:00,ZBYN 231100Z 17002MPS CAVOK 20/08 Q1010 NOSIG
ZBYN,2003-05-23 12:00,ZBYN 231200Z 16002MPS CAVOK 18/07 Q1011 NOSIG
ZBYN,2003-05-23 13:00,ZBYN 231300Z 13002MPS CAVOK 15/08 Q1011 NOSIG
ZBYN,2003-05-23 14:00,ZBYN 231400Z 14002MPS CAVOK 15/09 Q1011 NOSIG
ZBYN,2003-05-23 15:00,ZBYN 231500Z 10002MPS CAVOK 16/09 Q1011 NOSIG
ZBYN,2003-05-23 16:00,ZBYN 231600Z 00000MPS CAVOK 14/08 Q1011 NOSIG
ZBYN,2003-05-23 17:00,ZBYN 231700Z 13002MPS CAVOK 12/07 Q1012
ZBYN,2003-05-23 18:00,ZBYN 231800Z 11002MPS CAVOK 11/06 Q1012
ZBYN,2003-05-23 19:00,ZBYN 231900Z 12001MPS CAVOK 12/07 Q1011
ZBYN,2003-05-23 20:00,ZBYN 232000Z 05001MPS CAVOK 12/07 Q1011
ZBYN,2003-05-23 21:00,ZBYN 232100Z 00000MPS CAVOK 10/06 Q1011
ZBYN,2003-05-23 22:00,ZBYN 232200Z 15001MPS CAVOK 12/07 Q1011 NOSIG
ZBYN,2003-05-23 23:00,ZBYN 232300Z 13001MPS 8000 SKC 14/08 Q1012 NOSIG
ZBYN,2003-05-24 00:00,ZBYN 240000Z 12001MPS 8000 SKC 16/09 Q1012 NOSIG
ZBYN,2003-05-24 01:00,ZBYN 240100Z VRB01MPS 8000 NSC 19/09 Q1012 NOSIG
ZBYN,2003-05-24 02:00,ZBYN 240200Z 19002MPS CAVOK 20/09 Q1012 NOSIG
ZBYN,2003-05-24 03:00,ZBYN 240300Z 23002MPS CAVOK 23/08 Q1012 NOSIG
ZBYN,2003-05-24 04:00,ZBYN 240400Z 25002MPS CAVOK 25/06 Q1011 NOSIG
ZBYN,2003-05-24 05:00,ZBYN 240500Z 18002MPS 9999 FEW033TCU 27/03 Q1010 NOSIG
ZBYN,2003-05-24 06:00,ZBYN 240600Z 21002MPS 9999 FEW033TCU 28/02 Q1010 NOSIG
ZBYN,2003-05-24 07:00,ZBYN 240700Z VRB01MPS 9999 FEW033 28/M03 Q1009 NOSIG
ZBYN,2003-05-24 08:00,ZBYN 240800Z 21002MPS 9999 FEW033 29/M07 Q1008 NOSIG
ZBYN,2003-05-24 09:00,ZBYN 240900Z 18002MPS 9999 FEW033 29/M09 Q1008 NOSIG
ZBYN,2003-05-24 10:00,ZBYN 241000Z 22002MPS CAVOK 28/M11 Q1008 NOSIG
ZBYN,2003-05-24 11:00,ZBYN 241100Z 20001MPS CAVOK 27/M10 Q1008 NOSIG
ZBYN,2003-05-24 12:00,ZBYN 241200Z 00000MPS CAVOK 23/M03 Q1009 NOSIG
ZBYN,2003-05-24 13:00,ZBYN 241300Z 07005MPS CAVOK 23/12 Q1010 NOSIG
ZBYN,2003-05-24 14:00,ZBYN 241400Z 08007MPS CAVOK 22/13 Q1011 NOSIG
ZBYN,2003-05-24 15:00,ZBYN 241500Z 09004MPS CAVOK 21/12 Q1011 NOSIG
ZBYN,2003-05-24 16:00,ZBYN 241600Z 10004MPS CAVOK 20/12 Q1012 NOSIG
ZBYN,2003-05-24 17:00,ZBYN 241700Z 08004MPS CAVOK 19/13 Q1012
ZBYN,2003-05-24 18:00,ZBYN 241800Z 09002MPS CAVOK 18/12 Q1011 NOSIG
ZBYN,2003-05-24 19:00,ZBYN 241900Z 12002MPS CAVOK 16/11 Q1011
ZBYN,2003-05-24 20:00,ZBYN 242000Z 13002MPS CAVOK 15/11 Q1011
ZBYN,2003-05-24 21:00,ZBYN 242100Z 10001MPS 6000 SKC 14/10 Q1012
ZBYN,2003-05-24 22:00,ZBYN 242200Z VRB01MPS 2000 R31/1300N BR SKC 15/10 Q1012 NOSIG
ZBYN,2003-05-24 23:00,ZBYN 242300Z 10001MPS 2000 BR SKC 16/12 Q1012 NOSIG
ZBYN,2003-05-25 00:00,ZBYN 250000Z 11002MPS 8000 SKC 20/11 Q1013 NOSIG
ZBYN,2003-05-25 01:00,ZBYN 250100Z VRB01MPS 8000 SKC 22/11 Q1013 NOSIG
ZBYN,2003-05-25 02:00,ZBYN 250200Z 18002MPS CAVOK 24/11 Q1012 NOSIG
ZBYN,2003-05-25 03:00,ZBYN 250300Z 21003MPS CAVOK 26/09 Q1012 NOSIG
ZBYN,2003-05-25 04:00,ZBYN 250400Z 23003MPS CAVOK 27/06 Q1011 NOSIG
ZBYN,2003-05-25 05:00,ZBYN 250500Z 23003MPS CAVOK 28/05 Q1011 NOSIG
ZBYN,2003-05-25 06:00,ZBYN 250600Z 19005MPS 9999 FEW030 30/01 Q1010 NOSIG
ZBYN,2003-05-25 07:00,ZBYN 250700Z 18003MPS CAVOK 30/M00 Q1009 NOSIG
ZBYN,2003-05-25 08:00,ZBYN 250800Z 23003MPS CAVOK 30/00 Q1008 NOSIG
ZBYN,2003-05-25 09:00,ZBYN 250900Z 21002MPS CAVOK 30/01 Q1007 NOSIG
ZBYN,2003-05-25 10:00,ZBYN 251000Z 16002MPS CAVOK 29/M02 Q1007 NOSIG
ZBYN,2003-05-25 11:00,ZBYN 251100Z 16003MPS CAVOK 28/M02 Q1008 NOSIG
ZBYN,2003-05-25 12:00,ZBYN 251200Z 16003MPS CAVOK 26/M02 Q1008 NOSIG
ZBYN,2003-05-25 13:00,ZBYN 251300Z 20001MPS CAVOK 25/01 Q1010 NOSIG
ZBYN,2003-05-25 14:00,ZBYN 251400Z 20001MPS CAVOK 23/04 Q1011 NOSIG
ZBYN,2003-05-25 15:00,ZBYN 251500Z 16001MPS CAVOK 21/05 Q1011 NOSIG
ZBYN,2003-05-25 16:00,ZBYN 251600Z 06001MPS CAVOK 19/06 Q1011 NOSIG
ZBYN,2003-05-25 17:00,ZBYN 251700Z 05001MPS CAVOK 19/05 Q1012
ZBYN,2003-05-25 18:00,ZBYN 251800Z 00000MPS CAVOK 18/06 Q1012
ZBYN,2003-05-25 19:00,ZBYN 251900Z 10001MPS CAVOK 17/06 Q1011
ZBYN,2003-05-25 20:00,ZBYN 252000Z 10001MPS CAVOK 15/07 Q1012 NOSIG
ZBYN,2003-05-25 21:00,ZBYN 252100Z 10002MPS CAVOK 17/08 Q1011 NOSIG
ZBYN,2003-05-25 22:00,ZBYN 252200Z 11001MPS CAVOK 15/08 Q1011 NOSIG
ZBYN,2003-05-25 23:00,ZBYN 252300Z 00000MPS 8000 NSC 17/10 Q1012 NOSIG
ZBYN,2003-05-26 00:00,ZBYN 260000Z 11001MPS 3000 FU NSC 19/09 Q1012 NOSIG
ZBYN,2003-05-26 01:00,ZBYN 260100Z 10001MPS 6000 NSC 21/09 Q1012 NOSIG
ZBYN,2003-05-26 02:00,ZBYN 260200Z 15002MPS CAVOK 22/10 Q1012 NOSIG
ZBYN,2003-05-26 03:00,ZBYN 260300Z 15002MPS CAVOK 23/08 Q1012 NOSIG
ZBYN,2003-05-26 04:00,ZBYN 260400Z 14003MPS CAVOK 24/02 Q1012 NOSIG
ZBYN,2003-05-26 05:00,ZBYN 260500Z 15003MPS CAVOK 25/02 Q1011 NOSIG
ZBYN,2003-05-26 06:00,ZBYN 260600Z 16003MPS CAVOK 25/02 Q1010 NOSIG
ZBYN,2003-05-26 07:00,ZBYN 260700Z 15003MPS CAVOK 25/03 Q1010 NOSIG
ZBYN,2003-05-26 08:00,ZBYN 260800Z 17002MPS CAVOK 25/01 Q1009 NOSIG
ZBYN,2003-05-26 09:00,ZBYN 260900Z 16003MPS CAVOK 26/M05 Q1009 NOSIG
ZBYN,2003-05-26 10:00,ZBYN 261000Z 15002MPS CAVOK 25/M02 Q1008 NOSIG
ZBYN,2003-05-26 11:00,ZBYN 261100Z 14001MPS CAVOK 24/00 Q1008 NOSIG
ZBYN,2003-05-26 12:00,ZBYN 261200Z 15002MPS CAVOK 23/M01 Q1009 NOSIG
ZBYN,2003-05-26 13:00,ZBYN 261300Z 15004MPS CAVOK 23/M06 Q1009 NOSIG
ZBYN,2003-05-26 14:00,ZBYN 261400Z 14003MPS CAVOK 21/M02 Q1010 NOSIG
ZBYN,2003-05-26 15:00,ZBYN 261500Z 14003MPS CAVOK 20/M01 Q1011 NOSIG
ZBYN,2003-05-26 16:00,ZBYN 261600Z VRB01MPS CAVOK 19/M00 Q1011 NOSIG
ZBYN,2003-05-26 17:00,ZBYN 261700Z 10002MPS CAVOK 15/02 Q1011
ZBYN,2003-05-26 18:00,ZBYN 261800Z 00000MPS CAVOK 15/04 Q1011
ZBYN,2003-05-26 19:00,ZBYN 261900Z 09002MPS CAVOK 16/04 Q1011
ZBYN,2003-05-26 20:00,ZBYN 262000Z 09003MPS CAVOK 15/05 Q1010
ZBYN,2003-05-26 21:00,ZBYN 262100Z 11003MPS CAVOK 13/05 Q1010
ZBYN,2003-05-26 22:00,ZBYN 262200Z 11002MPS CAVOK 14/06 Q1011 NOSIG
ZBYN,2003-05-26 23:00,ZBYN 262300Z 11001MPS CAVOK 17/06 Q1011 NOSIG
ZBYN,2003-05-27 00:00,ZBYN 270000Z 16001MPS CAVOK 18/07 Q1011 NOSIG
ZBYN,2003-05-27 01:00,ZBYN 270100Z 14002MPS CAVOK 21/08 Q1011 NOSIG
ZBYN,2003-05-27 02:00,ZBYN 270200Z 16003MPS CAVOK 21/08 Q1011 NOSIG
ZBYN,2003-05-27 03:00,ZBYN 270300Z 14003MPS CAVOK 23/06 Q1011 NOSIG
ZBYN,2003-05-27 04:00,ZBYN 270400Z 18004MPS CAVOK 23/05 Q1010 NOSIG
ZBYN,2003-05-27 05:00,ZBYN 270500Z 19004MPS 9999 -SHRA FEW030 SCT066 OVC200 23/04 Q1010 NOSIG
ZBYN,2003-05-27 06:00,ZBYN 270600Z 21003MPS CAVOK 23/05 Q1009 NOSIG
ZBYN,2003-05-27 07:00,ZBYN 270700Z 25004MPS CAVOK 21/09 Q1009 NOSIG
ZBYN,2003-05-27 08:00,ZBYN 270800Z 24002MPS 9999 BKN046 OVC100 20/09 Q1009 NOSIG
ZBYN,2003-05-27 09:00,ZBYN 270900Z 16002MPS 7000 -RA NSC 19/11 Q1010 NOSIG
ZBYN,2003-05-27 10:00,ZBYN 271000Z 18001MPS 8000 NSC 17/11 Q1010 NOSIG
ZBYN,2003-05-27 10:30,ZBYN 271030Z 11002MPS 7000 NSC 16/11 Q1009 NOSIG
ZBYN,2003-05-27 11:00,ZBYN 271100Z 13002MPS 6000 NSC 16/12 Q1009 NOSIG
ZBYN,2003-05-27 11:30,ZBYN 271130Z 17002MPS 6000 -RA NSC 17/11 Q1009 NOSIG
ZBYN,2003-05-27 12:00,ZBYN 271200Z 16002MPS 6000 -RA NSC 16/11 Q1010 NOSIG
ZBYN,2003-05-27 13:00,ZBYN 271300Z 15002MPS 6000 NSC 16/12 Q1010 NOSIG
ZBYN,2003-05-27 14:00,ZBYN 271400Z 14001MPS 4000 BR NSC 16/12 Q1010 NOSIG
ZBYN,2003-05-27 15:00,ZBYN 271500Z 14002MPS 3000 BR NSC 15/11 Q1010 NOSIG
ZBYN,2003-05-27 16:00,ZBYN 271600Z 16002MPS 3000 BR NSC 16/11 Q1009 NOSIG
ZBYN,2003-05-27 17:00,ZBYN 271700Z 19001MPS 3000 BR NSC 16/11 Q1009
ZBYN,2003-05-27 18:00,ZBYN 271800Z 19001MPS 3000 R31/1300N BR NSC 15/10 Q1008
ZBYN,2003-05-27 19:00,ZBYN 271900Z 12001MPS 1400 R31/1200N BR NSC 11/07 Q1008
ZBYN,2003-05-27 20:00,ZBYN 272000Z 10002MPS 1400 R31/0900N BR SKC 10/06 Q1007
ZBYN,2003-05-27 21:00,ZBYN 272100Z 12002MPS 0900 R31/0800 FG SKC 11/07 Q1007
ZBYN,2003-05-27 22:00,ZBYN 272200Z 12002MPS 0600 R31/0600 FG SKC 11/07 Q1007 NOSIG
ZBYN,2003-05-27 23:00,ZBYN 272300Z 13002MPS 0700 R31/1000 FG SKC 13/09 Q1008 NOSIG
ZBYN,2003-05-28 00:00,ZBYN 280000Z 17002MPS 1100 R31/P1500 BR SKC 15/10 Q1008 NOSIG
ZBYN,2003-05-28 01:00,ZBYN 280100Z 21002MPS 4000 BR SKC 18/10 Q1008 NOSIG
ZBYN,2003-05-28 02:00,ZBYN 280200Z 18002MPS 7000 SKC 20/11 Q1008 NOSIG
ZBYN,2003-05-28 03:00,ZBYN 280300Z 20003MPS CAVOK 23/10 Q1007 NOSIG
ZBYN,2003-05-28 04:00,ZBYN 280400Z 24004MPS 9999 SCT030 25/09 Q1006 NOSIG
ZBYN,2003-05-28 05:00,ZBYN 280500Z 24004MPS 9999 SCT033 26/05 Q1005 NOSIG
ZBYN,2003-05-28 06:00,ZBYN 280600Z 29004MPS 9999 SCT033 28/M09 Q1004 NOSIG
ZBYN,2003-05-28 07:00,ZBYN 280700Z 32008MPS 9999 FEW033 SCT200 28/M06 Q1005 NOSIG
ZBYN,2003-05-28 08:00,ZBYN 280800Z 31005MPS 9999 FEW033 SCT200 28/M04 Q1004 NOSIG
ZBYN,2003-05-28 09:00,ZBYN 280900Z 31006MPS 9999 FEW033 28/M06 Q1004 NOSIG
ZBYN,2003-05-28 10:00,ZBYN 281000Z 33009MPS CAVOK 27/M09 Q1004 NOSIG
ZBYN,2003-05-28 11:00,ZBYN 281100Z 33007MPS CAVOK 25/M04 Q1005 NOSIG
ZBYN,2003-05-28 12:00,ZBYN 281200Z 34007MPS CAVOK 24/M01 Q1006 NOSIG
ZBYN,2003-05-28 13:00,ZBYN 281300Z 32005MPS CAVOK 22/00 Q1008 NOSIG
ZBYN,2003-05-28 14:00,ZBYN 281400Z 34005MPS CAVOK 21/01 Q1009 NOSIG
ZBYN,2003-05-28 15:00,ZBYN 281500Z 04002MPS CAVOK 19/03 Q1010 NOSIG
ZBYN,2003-05-28 16:00,ZBYN 281600Z 00000MPS CAVOK 17/04 Q1011 NOSIG
ZBYN,2003-05-28 17:00,ZBYN 281700Z 31001MPS CAVOK 14/04 Q1011
ZBYN,2003-05-28 18:00,ZBYN 281800Z VRB01MPS CAVOK 14/04 Q1011
ZBYN,2003-05-28 19:00,ZBYN 281900Z 11002MPS CAVOK 11/04 Q1011
ZBYN,2003-05-28 20:00,ZBYN 282000Z 00000MPS CAVOK 11/04 Q1011
ZBYN,2003-05-28 21:00,ZBYN 282100Z 14001MPS CAVOK 11/04 Q1012
ZBYN,2003-05-28 22:00,ZBYN 282200Z 12002MPS CAVOK 09/04 Q1012 NOSIG
ZBYN,2003-05-28 23:00,ZBYN 282300Z 12001MPS CAVOK 14/05 Q1013 NOSIG
ZBYN,2003-05-29 00:00,ZBYN 290000Z 19002MPS CAVOK 17/05 Q1013 NOSIG
ZBYN,2003-05-29 01:00,ZBYN 290100Z VRB01MPS CAVOK 20/04 Q1013 NOSIG
ZBYN,2003-05-29 02:00,ZBYN 290200Z VRB01MPS CAVOK 23/03 Q1012 NOSIG
ZBYN,2003-05-29 03:00,ZBYN 290300Z VRB01MPS CAVOK 25/01 Q1012 NOSIG
ZBYN,2003-05-29 04:00,ZBYN 290400Z 35002MPS CAVOK 27/00 Q1012 NOSIG
ZBYN,2003-05-29 05:00,ZBYN 290500Z 35002MPS CAVOK 28/M02 Q1012 NOSIG
ZBYN,2003-05-29 06:00,ZBYN 290600Z 28003MPS CAVOK 30/M02 Q1011 NOSIG
ZBYN,2003-05-29 07:00,ZBYN 290700Z 26003MPS CAVOK 31/M04 Q1010 NOSIG
ZBYN,2003-05-29 08:00,ZBYN 290800Z 30005MPS CAVOK 32/M09 Q1009 NOSIG
ZBYN,2003-05-29 09:00,ZBYN 290900Z VRB01MPS CAVOK 31/M09 Q1009 NOSIG
ZBYN,2003-05-29 10:00,ZBYN 291000Z 36002MPS CAVOK 31/M19 Q1009 NOSIG
ZBYN,2003-05-29 11:00,ZBYN 291100Z 03002MPS CAVOK 30/M12 Q1009 NOSIG
ZBYN,2003-05-29 12:00,ZBYN 291200Z VRB01MPS CAVOK 27/M03 Q1010 NOSIG
ZBYN,2003-05-29 13:00,ZBYN 291300Z 08001MPS CAVOK 25/M00 Q1011 NOSIG
ZBYN,2003-05-29 14:00,ZBYN 291400Z 08005MPS CAVOK 25/05 Q1012 NOSIG
ZBYN,2003-05-29 15:00,ZBYN 291500Z 07005MPS CAVOK 24/06 Q1012 NOSIG
ZBYN,2003-05-29 16:00,ZBYN 291600Z 09004MPS CAVOK 23/05 Q1013 NOSIG
ZBYN,2003-05-29 17:00,ZBYN 291700Z 07003MPS CAVOK 21/06 Q1013
ZBYN,2003-05-29 18:00,ZBYN 291800Z 13001MPS CAVOK 18/06 Q1013
ZBYN,2003-05-29 19:00,ZBYN 291900Z 08001MPS CAVOK 18/07 Q1013
ZBYN,2003-05-29 20:00,ZBYN 292000Z 00000MPS CAVOK 15/07 Q1014
ZBYN,2003-05-29 21:00,ZBYN 292100Z 11001MPS CAVOK 14/07 Q1014
ZBYN,2003-05-29 22:00,ZBYN 292200Z 15001MPS CAVOK 14/07 Q1015 NOSIG
ZBYN,2003-05-29 23:00,ZBYN 292300Z 00000MPS CAVOK 18/07 Q1015 NOSIG
ZBYN,2003-05-30 00:00,ZBYN 300000Z 00000MPS CAVOK 21/06 Q1015 NOSIG
ZBYN,2003-05-30 01:00,ZBYN 300100Z 04001MPS CAVOK 23/05 Q1015 NOSIG
ZBYN,2003-05-30 02:00,ZBYN 300200Z VRB01MPS CAVOK 25/04 Q1015 NOSIG
ZBYN,2003-05-30 03:00,ZBYN 300300Z 23002MPS CAVOK 28/02 Q1015 NOSIG
ZBYN,2003-05-30 04:00,ZBYN 300400Z 24003MPS CAVOK 29/M01 Q1014 NOSIG
ZBYN,2003-05-30 05:00,ZBYN 300500Z 25002MPS CAVOK 29/01 Q1014 NOSIG
ZBYN,2003-05-30 06:00,ZBYN 300600Z 34003MPS CAVOK 31/M03 Q1013 NOSIG
ZBYN,2003-05-30 07:00,ZBYN 300700Z 26003MPS CAVOK 31/M04 Q1012 NOSIG
ZBYN,2003-05-30 08:00,ZBYN 300800Z 18002MPS CAVOK 31/M03 Q1012 NOSIG
ZBYN,2003-05-30 09:00,ZBYN 300900Z 18003MPS CAVOK 31/M03 Q1011 NOSIG
ZBYN,2003-05-30 10:00,ZBYN 301000Z 24004MPS CAVOK 29/01 Q1011 NOSIG
ZBYN,2003-05-30 11:00,ZBYN 301100Z 24003MPS CAVOK 28/02 Q1012 NOSIG
ZBYN,2003-05-30 12:00,ZBYN 301200Z 17002MPS CAVOK 27/01 Q1013 NOSIG
ZBYN,2003-05-30 13:00,ZBYN 301300Z 15002MPS CAVOK 26/00 Q1014 NOSIG
ZBYN,2003-05-30 14:00,ZBYN 301400Z 12002MPS CAVOK 23/02 Q1014 NOSIG
ZBYN,2003-05-30 15:00,ZBYN 301500Z VRB01MPS CAVOK 21/03 Q1015 NOSIG
ZBYN,2003-05-30 16:00,ZBYN 301600Z 08002MPS CAVOK 21/04 Q1015 NOSIG
ZBYN,2003-05-30 17:00,ZBYN 301700Z 10002MPS CAVOK 19/04 Q1015
ZBYN,2003-05-30 18:00,ZBYN 301800Z 09002MPS CAVOK 21/03 Q1014
ZBYN,2003-05-30 19:00,ZBYN 301900Z 08002MPS CAVOK 20/03 Q1014
ZBYN,2003-05-30 20:00,ZBYN 302000Z 11001MPS CAVOK 19/03 Q1014
ZBYN,2003-05-30 21:00,ZBYN 302100Z 12001MPS CAVOK 19/04 Q1014 NOSIG
ZBYN,2003-05-30 22:00,ZBYN 302200Z 10001MPS CAVOK 18/05 Q1014 NOSIG
ZBYN,2003-05-30 23:00,ZBYN 302300Z 14001MPS CAVOK 20/06 Q1014 NOSIG
ZBYN,2003-05-31 00:00,ZBYN 310000Z 15001MPS CAVOK 22/07 Q1015 NOSIG
ZBYN,2003-05-31 01:00,ZBYN 310100Z 16001MPS CAVOK 24/04 Q1015 NOSIG
ZBYN,2003-05-31 02:00,ZBYN 310200Z 22001MPS CAVOK 24/03 Q1015 NOSIG
ZBYN,2003-05-31 03:00,ZBYN 310300Z 24001MPS CAVOK 25/02 Q1014 NOSIG
ZBYN,2003-05-31 04:00,ZBYN 310400Z VRB01MPS 9999 SCT040 BKN130 26/M04 Q1014 NOSIG
ZBYN,2003-05-31 05:00,ZBYN 310500Z 07001MPS 9999 FEW040TCU BKN040 26/M05 Q1013 NOSIG
ZBYN,2003-05-31 06:00,ZBYN 310600Z 03001MPS 9999 FEW040TCU BKN040 27/M04 Q1012 NOSIG
ZBYN,2003-05-31 07:00,ZBYN 310700Z VRB01MPS 9999 FEW040TCU BKN100 28/M07 Q1012 NOSIG
ZBYN,2003-05-31 08:00,ZBYN 310800Z 11002MPS CAVOK 28/M09 Q1011 NOSIG
ZBYN,2003-05-31 09:00,ZBYN 310900Z VRB01MPS CAVOK 29/M07 Q1011 NOSIG
ZBYN,2003-05-31 10:00,ZBYN 311000Z VRB01MPS CAVOK 28/M15 Q1010 NOSIG
ZBYN,2003-05-31 11:00,ZBYN 311100Z 07001MPS CAVOK 26/M05 Q1010 NOSIG
ZBYN,2003-05-31 12:00,ZBYN 311200Z 07002MPS CAVOK 25/M03 Q1011 NOSIG
ZBYN,2003-05-31 13:00,ZBYN 311300Z 09003MPS CAVOK 25/M01 Q1011 NOSIG
ZBYN,2003-05-31 14:00,ZBYN 311400Z 16002MPS CAVOK 23/02 Q1012 NOSIG
ZBYN,2003-05-31 15:00,ZBYN 311500Z 07006MPS CAVOK 22/10 Q1012 NOSIG
ZBYN,2003-05-31 16:00,ZBYN 311600Z 08005MPS CAVOK 21/11 Q1012 NOSIG
ZBYN,2003-05-31 17:00,ZBYN 311700Z 08004MPS CAVOK 21/11 Q1012 NOSIG
ZBYN,2003-05-31 18:00,ZBYN 311800Z 09004MPS CAVOK 20/11 Q1012
ZBYN,2003-05-31 19:00,ZBYN 311900Z 09003MPS CAVOK 20/11 Q1012
ZBYN,2003-05-31 20:00,ZBYN 312000Z 09003MPS CAVOK 20/11 Q1012
ZBYN,2003-05-31 21:00,ZBYN 312100Z 07003MPS CAVOK 19/11 Q1012
ZBYN,2003-05-31 22:00,ZBYN 312200Z 06001MPS CAVOK 19/11 Q1012 NOSIG
ZBYN,2003-05-31 23:00,ZBYN 312300Z 06001MPS CAVOK 20/10 Q1012 NOSIG
ZBYN,2003-06-01 00:00,ZBYN 010000Z 23001MPS 7000 NSC 20/11 Q1013 NOSIG
ZBYN,2003-06-01 01:00,ZBYN 010100Z 00000MPS 8000 NSC 21/11 Q1013 NOSIG
ZBYN,2003-06-01 02:00,ZBYN 010200Z VRB01MPS CAVOK 22/08 Q1013 NOSIG
ZBYN,2003-06-01 03:00,ZBYN 010300Z VRB01MPS CAVOK 24/06 Q1012 NOSIG
ZBYN,2003-06-01 04:00,ZBYN 010400Z VRB01MPS CAVOK 25/04 Q1012 NOSIG
ZBYN,2003-06-01 05:00,ZBYN 010500Z 22003MPS CAVOK 27/M00 Q1011 NOSIG
ZBYN,2003-06-01 06:00,ZBYN 010600Z 16002MPS CAVOK 28/M02 Q1010 NOSIG
ZBYN,2003-06-01 07:00,ZBYN 010700Z 11004MPS CAVOK 29/M09 Q1009 NOSIG
ZBYN,2003-06-01 08:00,ZBYN 010800Z 22002MPS 9999 FEW030 29/M04 Q1008 NOSIG
ZBYN,2003-06-01 09:00,ZBYN 010900Z 15002MPS CAVOK 28/M02 Q1008 NOSIG
ZBYN,2003-06-01 10:00,ZBYN 011000Z 08006MPS CAVOK 26/06 Q1009 NOSIG
ZBYN,2003-06-01 11:00,ZBYN 011100Z 09008MPS 9999 SCT040 OVC100 24/08 Q1009 NOSIG
ZBYN,2003-06-01 12:00,ZBYN 011200Z 08006MPS 9999 SCT040 OVC100 23/09 Q1010 NOSIG
ZBYN,2003-06-01 13:00,ZBYN 011300Z 07004MPS CAVOK 22/08 Q1010 NOSIG
ZBYN,2003-06-01 14:00,ZBYN 011400Z 04003MPS CAVOK 22/07 Q1011 NOSIG
ZBYN,2003-06-01 15:00,ZBYN 011500Z 09003MPS CAVOK 22/07 Q1011 NOSIG
ZBYN,2003-06-01 16:00,ZBYN 011600Z 08002MPS CAVOK 21/07 Q1011 NOSIG
ZBYN,2003-06-01 17:00,ZBYN 011700Z 14002MPS CAVOK 20/08 Q1011
ZBYN,2003-06-01 18:00,ZBYN 011800Z 16002MPS CAVOK 19/11 Q1011
ZBYN,2003-06-01 19:00,ZBYN 011900Z 21002MPS 9999 -RA OVC100 17/13 Q1011
ZBYN,2003-06-01 20:00,ZBYN 012000Z 12001MPS 3000 -RA BR NSC 16/12 Q1011
ZBYN,2003-06-01 21:00,ZBYN 012100Z 10002MPS 2000 -RA BR NSC 16/12 Q1011
ZBYN,2003-06-01 22:00,ZBYN 012200Z 10001MPS 2400 -RA BR NSC 16/12 Q1011 NOSIG
ZBYN,2003-06-01 23:00,ZBYN 012300Z 06003MPS 1600 -RA BR NSC 16/12 Q1011 NOSIG
ZBYN,2003-06-02 00:00,ZBYN 020000Z 09002MPS 2000 -RA BR FEW040 OVC100 17/12 Q1011 NOSIG
ZBYN,2003-06-02 01:00,ZBYN 020100Z 07003MPS 8000 -RA BKN040 OVC100 16/12 Q1012 NOSIG
ZBYN,2003-06-02 02:00,ZBYN 020200Z 05003MPS 9999 BKN040 OVC100 17/13 Q1012 NOSIG
ZBYN,2003-06-02 03:00,ZBYN 020300Z 07005MPS 9999 -RA SCT040 OVC100 17/13 Q1011 NOSIG
ZBYN,2003-06-02 04:00,ZBYN 020400Z 07005MPS 9999 BKN040 OVC100 18/13 Q1011 NOSIG
ZBYN,2003-06-02 05:00,ZBYN 020500Z 07004MPS CAVOK 18/12 Q1010 NOSIG
ZBYN,2003-06-02 06:00,ZBYN 020600Z 07004MPS 9999 -RA BKN040 OVC100 18/12 Q1010 NOSIG
ZBYN,2003-06-02 07:00,ZBYN 020700Z 07004MPS 9999 -RA OVC040 18/12 Q1010 NOSIG
ZBYN,2003-06-02 08:00,ZBYN 020800Z 06005MPS 9999 -RA BKN040 OVC100 16/12 Q1010 NOSIG
ZBYN,2003-06-02 09:00,ZBYN 020900Z 07005MPS 9999 SCT040 OVC100 17/12 Q1010 NOSIG
ZBYN,2003-06-02 10:00,ZBYN 021000Z 05003MPS 9999 -RA BKN040 OVC100 17/12 Q1010 NOSIG
ZBYN,2003-06-02 11:00,ZBYN 021100Z 34001MPS 7000 -RA OVC033 16/12 Q1010 NOSIG
ZBYN,2003-06-02 12:00,ZBYN 021200Z 02002MPS 9999 OVC033 16/12 Q1011 NOSIG
ZBYN,2003-06-02 13:00,ZBYN 021300Z 05003MPS 9999 -RA OVC040 16/12 Q1011 NOSIG
ZBYN,2003-06-02 14:00,ZBYN 021400Z 06003MPS 9999 OVC040 16/11 Q1012 NOSIG
ZBYN,2003-06-02 15:00,ZBYN 021500Z 07002MPS CAVOK 16/11 Q1012 NOSIG
ZBYN,2003-06-02 16:00,ZBYN 021600Z 08003MPS 9999 -RA OVC040 16/11 Q1012 NOSIG
ZBYN,2003-06-02 17:00,ZBYN 021700Z 11003MPS 7000 -RA OVC040 15/11 Q1012 NOSIG
ZBYN,2003-06-02 18:00,ZBYN 021800Z 05002MPS 7000 -RA OVC040 15/10 Q1012
ZBYN,2003-06-02 19:00,ZBYN 021900Z 03002MPS 7000 -RA OVC040 15/10 Q1012
ZBYN,2003-06-02 21:00,ZBYN 022100Z 05002MPS 9999 -RA OVC040 14/10 Q1012 NOSIG
ZBYN,2003-06-02 22:00,ZBYN 022200Z 06002MPS 9999 -RA SCT020 OVC040 14/10 Q1012 NOSIG
ZBYN,2003-06-02 23:00,ZBYN 022300Z 07003MPS 9999 -RA SCT020 OVC040 15/10 Q1013 NOSIG
ZBYN,2003-06-03 00:00,ZBYN 030000Z 09002MPS 9999 -RA OVC030 15/11 Q1014 NOSIG
ZBYN,2003-06-03 01:00,ZBYN 030100Z 08003MPS 8000 -RA OVC030 15/11 Q1014 NOSIG
ZBYN,2003-06-03 02:00,ZBYN 030200Z 06003MPS 9999 -RA OVC030 15/11 Q1014 NOSIG
ZBYN,2003-06-03 03:00,ZBYN 030300Z 06002MPS 9999 -RA FEW020 OVC040 16/12 Q1015 NOSIG
ZBYN,2003-06-03 04:00,ZBYN 030400Z 32002MPS 9999 -RA FEW020 OVC040 18/13 Q1014 NOSIG
ZBYN,2003-06-03 05:00,ZBYN 030500Z 32003MPS CAVOK 19/14 Q1014 NOSIG
ZBYN,2003-06-03 06:00,ZBYN 030600Z 35002MPS CAVOK 20/13 Q1014 NOSIG
ZBYN,2003-06-03 07:00,ZBYN 030700Z 01001MPS 9999 BKN040 OVC100 19/13 Q1014 NOSIG
ZBYN,2003-06-03 08:00,ZBYN 030800Z 36001MPS CAVOK 19/13 Q1013 NOSIG
ZBYN,2003-06-03 09:00,ZBYN 030900Z 14001MPS CAVOK 20/13 Q1013 NOSIG
ZBYN,2003-06-03 10:00,ZBYN 031000Z 15002MPS CAVOK 20/13 Q1012 NOSIG
ZBYN,2003-06-03 11:00,ZBYN 031100Z 17001MPS CAVOK 20/13 Q1013 NOSIG
ZBYN,2003-06-03 12:00,ZBYN 031200Z 21001MPS 7000 SKC 18/13 Q1013 NOSIG
ZBYN,2003-06-03 13:00,ZBYN 031300Z 19001MPS 3000 BR SKC 17/13 Q1014 NOSIG
ZBYN,2003-06-03 14:00,ZBYN 031400Z 14001MPS 3000 BR SKC 15/11 Q1015 NOSIG
ZBYN,2003-06-03 15:00,ZBYN 031500Z 12002MPS 2000 BR SKC 14/10 Q1015 NOSIG
ZBYN,2003-06-03 16:00,ZBYN 031600Z 13002MPS 1700 R31/1100 BR SKC 14/10 Q1014 NOSIG
ZBYN,2003-06-03 17:00,ZBYN 031700Z 10001MPS 2000 BR SKC 13/09 Q1014
ZBYN,2003-06-03 18:00,ZBYN 031800Z 09001MPS 2000 BR SKC 14/09 Q1014
ZBYN,2003-06-03 19:00,ZBYN 031900Z 13001MPS 3000 BR SKC 14/10 Q1013
ZBYN,2003-06-03 20:00,ZBYN 032000Z 13001MPS 3000 BR NSC 13/09 Q1013
ZBYN,2003-06-03 21:00,ZBYN 032100Z 00000MPS 1800 BR NSC 12/08 Q1013
ZBYN,2003-06-03 22:00,ZBYN 032200Z 00000MPS 0900 R31/1200 FG SKC 12/08 Q1014 NOSIG
ZBYN,2003-06-03 23:00,ZBYN 032300Z 13001MPS 0900 R31/1400 FG SKC 14/10 Q1014 NOSIG
ZBYN,2003-06-04 00:00,ZBYN 040000Z 14001MPS 1200 R31/P1500 BR SKC 15/11 Q1014 NOSIG
ZBYN,2003-06-04 01:00,ZBYN 040100Z VRB01MPS 1600 BR SKC 17/12 Q1014 NOSIG
ZBYN,2003-06-04 02:00,ZBYN 040200Z 20001MPS 2300 HZ SKC 18/13 Q1014 NOSIG
ZBYN,2003-06-04 03:00,ZBYN 040300Z 23002MPS 5000 HZ SKC 20/13 Q1013 NOSIG
ZBYN,2003-06-04 04:00,ZBYN 040400Z 23002MPS 6000 SKC 22/14 Q1013 NOSIG
ZBYN,2003-06-04 05:00,ZBYN 040500Z 21002MPS 6000 SKC 24/14 Q1012 NOSIG
ZBYN,2003-06-04 06:00,ZBYN 040600Z 21002MPS 7000 SKC 25/13 Q1010 NOSIG
ZBYN,2003-06-04 07:00,ZBYN 040700Z 24002MPS CAVOK 27/13 Q1009 NOSIG
ZBYN,2003-06-04 08:00,ZBYN 040800Z 28003MPS 9999 -TS FEW040CB FEW040 BKN100 25/14 Q1009 NOSIG
ZBYN,2003-06-04 09:00,ZBYN 040900Z 28002MPS 6000 NSC 24/15 Q1009 NOSIG
ZBYN,2003-06-04 10:00,ZBYN 041000Z 00000MPS 7000 NSC 25/13 Q1008 NOSIG
ZBYN,2003-06-04 11:00,ZBYN 041100Z 00000MPS CAVOK 23/12 Q1008 NOSIG
ZBYN,2003-06-04 12:00,ZBYN 041200Z 20001MPS 9999 FEW040TCU SCT040 22/11 Q1010 NOSIG
ZBYN,2003-06-04 13:00,ZBYN 041300Z 34005G12MPS 9999 -TS SCT040CB SCT040 22/12 Q1012 NOSIG
ZBYN,2003-06-04 14:00,ZBYN 041400Z 34004MPS 9999 TSRA SCT040CB BKN040 17/12 Q1013 NOSIG
ZBYN,2003-06-04 15:00,ZBYN 041500Z 30001MPS CAVOK 16/12 Q1013 NOSIG
ZBYN,2003-06-04 16:00,ZBYN 041600Z 02001MPS CAVOK 16/12 Q1012 NOSIG
ZBYN,2003-06-04 17:00,ZBYN 041700Z 30001MPS CAVOK 15/11 Q1011
ZBYN,2003-06-04 18:00,ZBYN 041800Z 11001MPS CAVOK 15/10 Q1011
ZBYN,2003-06-04 19:00,ZBYN 041900Z 00000MPS 3000 BR SKC 15/11 Q1011
ZBYN,2003-06-04 20:00,ZBYN 042000Z 00000MPS 0800 R31/1100D FG SKC 16/15 Q1011
ZBYN,2003-06-04 21:00,ZBYN 042100Z VRB01MPS 0600 R31/0050N FG NSC 16/15 Q1011
ZBYN,2003-06-04 22:00,ZBYN 042200Z 22001MPS 0400 R31/0600 FG NSC 15/14 Q1012 NOSIG
ZBYN,2003-06-04 23:00,ZBYN 042300Z 21001MPS 1000 R31/1100U BR NSC 16/15 Q1012 NOSIG
ZBYN,2003-06-05 00:00,ZBYN 050000Z 24001MPS 6000 NSC 20/15 Q1012 NOSIG
ZBYN,2003-06-05 01:00,ZBYN 050100Z 32003MPS CAVOK 20/13 Q1012 NOSIG
ZBYN,2003-06-05 02:00,ZBYN 050200Z 33004MPS CAVOK 22/13 Q1012 NOSIG
ZBYN,2003-06-05 03:00,ZBYN 050300Z 35005MPS CAVOK 24/10 Q1012 NOSIG
ZBYN,2003-06-05 04:00,ZBYN 050400Z 35006MPS 9999 FEW033 26/10 Q1011 NOSIG
ZBYN,2003-06-05 05:00,ZBYN 050500Z 35005MPS 9999 FEW033 27/10 Q1011 NOSIG
ZBYN,2003-06-05 06:00,ZBYN 050600Z 33004MPS 9999 FEW033 28/09 Q1010 NOSIG
ZBYN,2003-06-05 07:00,ZBYN 050700Z 34006MPS 9999 FEW033 29/04 Q1009 NOSIG
ZBYN,2003-06-05 08:00,ZBYN 050800Z 01007MPS 9999 FEW033 29/03 Q1009 NOSIG
ZBYN,2003-06-05 09:00,ZBYN 050900Z 02005MPS CAVOK 28/02 Q1009 NOSIG
ZBYN,2003-06-05 10:00,ZBYN 051000Z 36005MPS CAVOK 28/M03 Q1009 NOSIG
ZBYN,2003-06-05 11:00,ZBYN 051100Z 36004MPS CAVOK 27/M06 Q1009 NOSIG
ZBYN,2003-06-05 12:00,ZBYN 051200Z 09001MPS CAVOK 23/02 Q1010 NOSIG
ZBYN,2003-06-05 13:00,ZBYN 051300Z 10001MPS CAVOK 21/09 Q1010 NOSIG
ZBYN,2003-06-05 14:00,ZBYN 051400Z 00000MPS CAVOK 19/09 Q1011 NOSIG
ZBYN,2003-06-05 15:00,ZBYN 051500Z 09001MPS CAVOK 18/10 Q1011 NOSIG
ZBYN,2003-06-05 16:00,ZBYN 051600Z 14002MPS CAVOK 15/09 Q1011 NOSIG
ZBYN,2003-06-05 17:00,ZBYN 051700Z 11001MPS CAVOK 15/10 Q1011
ZBYN,2003-06-05 18:00,ZBYN 051800Z 07001MPS CAVOK 15/10 Q1011
ZBYN,2003-06-05 19:00,ZBYN 051900Z 12001MPS CAVOK 15/10 Q1011
ZBYN,2003-06-05 20:00,ZBYN 052000Z 00000MPS CAVOK 13/09 Q1011
ZBYN,2003-06-05 21:00,ZBYN 052100Z VRB01MPS CAVOK 13/09 Q1011
ZBYN,2003-06-05 22:00,ZBYN 052200Z 00000MPS CAVOK 13/09 Q1011 NOSIG
ZBYN,2003-06-05 23:00,ZBYN 052300Z 00000MPS 7000 SKC 16/11 Q1011 NOSIG
ZBYN,2003-06-06 00:00,ZBYN 060000Z 08001MPS 7000 SKC 18/12 Q1011 NOSIG
ZBYN,2003-06-06 01:00,ZBYN 060100Z VRB01MPS 6000 SKC 21/12 Q1011 NOSIG
ZBYN,2003-06-06 02:00,ZBYN 060200Z VRB01MPS 8000 SKC 23/11 Q1010 NOSIG
ZBYN,2003-06-06 03:00,ZBYN 060300Z VRB01MPS CAVOK 25/10 Q1010 NOSIG
ZBYN,2003-06-06 04:00,ZBYN 060400Z 17002MPS CAVOK 28/07 Q1009 NOSIG
ZBYN,2003-06-06 05:00,ZBYN 060500Z 20002MPS CAVOK 29/05 Q1007 NOSIG
ZBYN,2003-06-06 06:00,ZBYN 060600Z 26002MPS CAVOK 29/04 Q1006 NOSIG
ZBYN,2003-06-06 07:00,ZBYN 060700Z 26003MPS CAVOK 30/03 Q1005 NOSIG
ZBYN,2003-06-06 08:00,ZBYN 060800Z 22002MPS CAVOK 30/04 Q1005 NOSIG
ZBYN,2003-06-06 09:00,ZBYN 060900Z 25003MPS CAVOK 30/04 Q1004 NOSIG
ZBYN,2003-06-06 10:00,ZBYN 061000Z 24002MPS CAVOK 30/06 Q1004 NOSIG
ZBYN,2003-06-06 11:00,ZBYN 061100Z 22001MPS CAVOK 29/07 Q1004 NOSIG
ZBYN,2003-06-06 12:00,ZBYN 061200Z 16001MPS CAVOK 24/10 Q1004 NOSIG
ZBYN,2003-06-06 13:00,ZBYN 061300Z 20002MPS CAVOK 26/09 Q1005 NOSIG
ZBYN,2003-06-06 14:00,ZBYN 061400Z 14002MPS CAVOK 23/11 Q1005 NOSIG
ZBYN,2003-06-06 15:00,ZBYN 061500Z 14002MPS CAVOK 21/12 Q1006 NOSIG
ZBYN,2003-06-06 16:00,ZBYN 061600Z 12002MPS CAVOK 21/12 Q1005 NOSIG
ZBYN,2003-06-06 17:00,ZBYN 061700Z 11002MPS CAVOK 19/12 Q1005
ZBYN,2003-06-06 18:00,ZBYN 061800Z 12001MPS CAVOK 18/12 Q1005
ZBYN,2003-06-06 19:00,ZBYN 061900Z 09001MPS CAVOK 18/12 Q1005
ZBYN,2003-06-06 20:00,ZBYN 062000Z 11002MPS CAVOK 17/11 Q1006
ZBYN,2003-06-06 21:00,ZBYN 062100Z 10001MPS CAVOK 17/12 Q1006 NOSIG
ZBYN,2003-06-06 22:00,ZBYN 062200Z 12002MPS 7000 NSC 17/12 Q1007 NOSIG
ZBYN,2003-06-06 23:00,ZBYN 062300Z 09001MPS 7000 SKC 20/13 Q1007 NOSIG
ZBYN,2003-06-07 00:00,ZBYN 070000Z VRB01MPS 7000 SKC 22/13 Q1007 NOSIG
ZBYN,2003-06-07 01:00,ZBYN 070100Z VRB01MPS 7000 SKC 24/13 Q1007 NOSIG
ZBYN,2003-06-07 02:00,ZBYN 070200Z 22002MPS CAVOK 26/12 Q1007 NOSIG
ZBYN,2003-06-07 03:00,ZBYN 070300Z 23003MPS CAVOK 28/12 Q1007 NOSIG
ZBYN,2003-06-07 04:00,ZBYN 070400Z VRB01MPS CAVOK 30/11 Q1006 NOSIG
ZBYN,2003-06-07 05:00,ZBYN 070500Z VRB01MPS 9999 FEW040TCU 32/10 Q1005 NOSIG
ZBYN,2003-06-07 06:00,ZBYN 070600Z 22003MPS 9999 FEW040TCU BKN200 31/10 Q1004 NOSIG
ZBYN,2003-06-07 07:00,ZBYN 070700Z 29002MPS 9999 -TS SCT040CB OVC200 29/13 Q1004 NOSIG
ZBYN,2003-06-07 08:00,ZBYN 070800Z 05007MPS 9999 -TS SCT040CB SCT040 29/11 Q1005 NOSIG
ZBYN,2003-06-07 09:00,ZBYN 070900Z 07005MPS 9999 -TS SCT040CB SCT040 26/07 Q1006 NOSIG
ZBYN,2003-06-07 10:00,ZBYN 071000Z 07002MPS 9999 -TSRA SCT040CB BKN040 26/06 Q1007 NOSIG
ZBYN,2003-06-07 11:00,ZBYN 071100Z 16002MPS 9999 -TSRA SCT040CB BKN040 25/08 Q1008 NOSIG
ZBYN,2003-06-07 12:00,ZBYN 071200Z 15005MPS 9999 -SHRA FEW040CB BKN040 21/13 Q1008 NOSIG
ZBYN,2003-06-07 13:00,ZBYN 071300Z 24001MPS 9999 OVC040 21/14 Q1010 NOSIG
ZBYN,2003-06-07 14:00,ZBYN 071400Z VRB01MPS CAVOK 20/13 Q1010 NOSIG
ZBYN,2003-06-07 15:00,ZBYN 071500Z 05002MPS CAVOK 20/14 Q1009 NOSIG
ZBYN,2003-06-07 16:00,ZBYN 071600Z 00000MPS CAVOK 20/13 Q1009 NOSIG
ZBYN,2003-06-07 17:00,ZBYN 071700Z VRB01MPS CAVOK 19/13 Q1009
ZBYN,2003-06-07 18:00,ZBYN 071800Z 24001MPS CAVOK 17/13 Q1009
ZBYN,2003-06-07 19:00,ZBYN 071900Z 12002MPS CAVOK 15/11 Q1009
ZBYN,2003-06-07 20:00,ZBYN 072000Z 11002MPS CAVOK 15/11 Q1009
ZBYN,2003-06-07 21:00,ZBYN 072100Z 00000MPS CAVOK 16/11 Q1009
ZBYN,2003-06-07 22:00,ZBYN 072200Z 04001MPS CAVOK 16/12 Q1009 NOSIG
ZBYN,2003-06-07 23:00,ZBYN 072300Z 00000MPS 8000 NSC 18/13 Q1009 NOSIG
ZBYN,2003-06-08 00:00,ZBYN 080000Z 00000MPS 6000 NSC 19/14 Q1010 NOSIG
ZBYN,2003-06-08 01:00,ZBYN 080100Z 11003MPS CAVOK 22/15 Q1009 NOSIG
ZBYN,2003-06-08 02:00,ZBYN 080200Z 11002MPS CAVOK 23/13 Q1009 NOSIG
ZBYN,2003-06-08 03:00,ZBYN 080300Z VRB01MPS CAVOK 24/12 Q1009 NOSIG
ZBYN,2003-06-08 04:00,ZBYN 080400Z VRB01MPS CAVOK 26/12 Q1008 NOSIG
ZBYN,2003-06-08 05:00,ZBYN 080500Z VRB01MPS CAVOK 28/12 Q1007 NOSIG
ZBYN,2003-06-08 06:00,ZBYN 080600Z 21002MPS CAVOK 29/10 Q1006 NOSIG
ZBYN,2003-06-08 07:00,ZBYN 080700Z 25002MPS CAVOK 29/12 Q1004 NOSIG
ZBYN,2003-06-08 08:00,ZBYN 080800Z 22002MPS CAVOK 30/12 Q1004 NOSIG
ZBYN,2003-06-08 09:00,ZBYN 080900Z VRB01MPS 9999 FEW040 FEW040CB OVC200 29/12 Q1004 NOSIG
ZBYN,2003-06-08 10:00,ZBYN 081000Z 06008MPS 9999 FEW040TCU SCT040 OVC200 25/12 Q1004 NOSIG
ZBYN,2003-06-08 11:00,ZBYN 081100Z 07007MPS 9999 FEW040TCU SCT040 OVC100 23/14 Q1005 NOSIG
ZBYN,2003-06-08 12:00,ZBYN 081200Z 04005MPS 9999 -TSRA SCT040CB FEW040 SCT100 20/15 Q1008 NOSIG
ZBYN,2003-06-08 13:00,ZBYN 081300Z 06004MPS 020V080 9999 -TSRA SCT040CB FEW040 SCT100 18/13 Q1009 BECMG 1415 NSW
ZBYN,2003-06-08 14:00,ZBYN 081400Z 09005MPS 9999 -SHRA FEW040CB SCT100 BKN200 17/13 Q1009 NOSIG
ZBYN,2003-06-08 15:00,ZBYN 081500Z 11002MPS CAVOK 18/13 Q1010 NOSIG
ZBYN,2003-06-08 16:00,ZBYN 081600Z 13001MPS 9999 -RA SCT040 OVC100 17/15 Q1010 NOSIG
ZBYN,2003-06-08 17:00,ZBYN 081700Z 06002MPS 9999 SCT040 BKN100 17/14 Q1009
ZBYN,2003-06-08 18:00,ZBYN 081800Z AUTO 00000KT 7SM 16/15 A2979 RMK 60059 SLP062 T01610153 57009 IEM_DS3505
ZBYN,2003-06-08 20:00,ZBYN 082000Z 11001MPS 7000 NSC 16/15 Q1008
ZBYN,2003-06-08 20:30,ZBYN 082030Z 13001MPS 7000 NSC 16/15 Q1008
ZBYN,2003-06-08 21:00,ZBYN 082100Z 12001MPS 7000 NSC 16/15 Q1008
ZBYN,2003-06-08 22:30,ZBYN 082230Z 00000MPS 4000 BR NSC 17/15 Q1009 NOSIG
ZBYN,2003-06-08 23:00,ZBYN 082300Z 13001MPS 7000 NSC 17/15 Q1009 NOSIG
ZBYN,2003-06-09 00:00,ZBYN 090000Z 00000MPS 7000 NSC 18/15 Q1009 NOSIG
ZBYN,2003-06-09 01:00,ZBYN 090100Z 00000MPS 5000 BR NSC 19/14 Q1009 NOSIG
ZBYN,2003-06-09 02:00,ZBYN 090200Z 00000MPS 5000 BR NSC 20/14 Q1009 NOSIG
ZBYN,2003-06-09 03:00,ZBYN 090300Z VRB01MPS 6000 NSC 21/15 Q1009 NOSIG
ZBYN,2003-06-09 04:00,ZBYN 090400Z VRB01MPS 6000 NSC 22/14 Q1008 NOSIG
ZBYN,2003-06-09 05:00,ZBYN 090500Z VRB01MPS 8000 NSC 23/15 Q1008 NOSIG
ZBYN,2003-06-09 06:00,ZBYN 090600Z 28002MPS 9999 -TSRA FEW040 SCT040CB BKN200 24/15 Q1007 NOSIG
ZBYN,2003-06-09 07:00,ZBYN 090700Z 31002MPS 9999 -TS SCT040 SCT040CB 21/12 Q1007 NOSIG
ZBYN,2003-06-09 08:00,ZBYN 090800Z 27002MPS 9999 FEW040 BKN200 22/13 Q1007 NOSIG
ZBYN,2003-06-09 09:00,ZBYN 090900Z 19002MPS CAVOK 23/11 Q1007 NOSIG
ZBYN,2003-06-09 10:00,ZBYN 091000Z 17002MPS CAVOK 21/11 Q1007 NOSIG
ZBYN,2003-06-09 11:00,ZBYN 091100Z 18001MPS CAVOK 21/10 Q1008 NOSIG
ZBYN,2003-06-09 12:00,ZBYN 091200Z 00000MPS 9999 FEW033 19/09 Q1009 NOSIG
ZBYN,2003-06-09 13:00,ZBYN 091300Z 14001MPS CAVOK 18/14 Q1009 NOSIG
ZBYN,2003-06-09 14:00,ZBYN 091400Z 07003MPS 9999 FEW033 19/14 Q1011 NOSIG
ZBYN,2003-06-09 15:00,ZBYN 091500Z 35002MPS CAVOK 19/07 Q1011 NOSIG
ZBYN,2003-06-09 16:00,ZBYN 091600Z 05002MPS CAVOK 17/11 Q1012
ZBYN,2003-06-09 17:00,ZBYN 091700Z 34004MPS CAVOK 18/01 Q1012
ZBYN,2003-06-09 18:00,ZBYN 091800Z 35005MPS CAVOK 17/M02 Q1012
ZBYN,2003-06-09 19:00,ZBYN 091900Z 36006MPS CAVOK 16/M01 Q1012
ZBYN,2003-06-09 20:00,ZBYN 092000Z 35007MPS CAVOK 14/M00 Q1013
ZBYN,2003-06-09 21:00,ZBYN 092100Z 31002MPS CAVOK 11/M00 Q1014
ZBYN,2003-06-09 22:00,ZBYN 092200Z 32003MPS CAVOK 12/00 Q1014 NOSIG
ZBYN,2003-06-09 23:00,ZBYN 092300Z 34003MPS CAVOK 15/M00 Q1014 NOSIG
ZBYN,2003-06-10 00:00,ZBYN 100000Z 36005MPS CAVOK 16/M04 Q1014 NOSIG
ZBYN,2003-06-10 01:00,ZBYN 100100Z 36005MPS CAVOK 17/M04 Q1014 NOSIG
ZBYN,2003-06-10 02:00,ZBYN 100200Z 01004MPS CAVOK 17/M03 Q1014 NOSIG
ZBYN,2003-06-10 03:00,ZBYN 100300Z VRB01MPS CAVOK 18/M02 Q1014 NOSIG
ZBYN,2003-06-10 04:00,ZBYN 100400Z 35002MPS CAVOK 19/M01 Q1013 NOSIG
ZBYN,2003-06-10 05:00,ZBYN 100500Z 04003MPS CAVOK 21/M00 Q1012 NOSIG
ZBYN,2003-06-10 06:00,ZBYN 100600Z VRB01MPS CAVOK 22/00 Q1010 NOSIG
ZBYN,2003-06-10 07:00,ZBYN 100700Z 29002MPS CAVOK 22/01 Q1010 NOSIG
ZBYN,2003-06-10 08:00,ZBYN 100800Z 22003MPS CAVOK 22/01 Q1009 NOSIG
ZBYN,2003-06-10 09:00,ZBYN 100900Z 22002MPS CAVOK 22/00 Q1009 NOSIG
ZBYN,2003-06-10 10:00,ZBYN 101000Z 24004MPS CAVOK 21/00 Q1009 NOSIG
ZBYN,2003-06-10 11:00,ZBYN 101100Z 25002MPS CAVOK 20/M00 Q1009 NOSIG
ZBYN,2003-06-10 12:00,ZBYN 101200Z 20001MPS CAVOK 19/M01 Q1010 NOSIG
ZBYN,2003-06-10 13:00,ZBYN 101300Z 15001MPS CAVOK 16/M04 Q1010 NOSIG
ZBYN,2003-06-10 14:00,ZBYN 101400Z 13002MPS CAVOK 16/M04 Q1010 NOSIG
ZBYN,2003-06-10 15:00,ZBYN 101500Z 10002MPS CAVOK 13/M06 Q1010 NOSIG
ZBYN,2003-06-10 16:00,ZBYN 101600Z 12002MPS CAVOK 12/M07 Q1009 NOSIG
ZBYN,2003-06-10 17:00,ZBYN 101700Z 11001MPS CAVOK 12/M07 Q1008 NOSIG
ZBYN,2003-06-10 18:00,ZBYN 101800Z 10002MPS CAVOK 10/M09 Q1008
ZBYN,2003-06-10 19:00,ZBYN 101900Z 12002MPS CAVOK 11/M08 Q1008
ZBYN,2003-06-10 20:00,ZBYN 102000Z 10002MPS CAVOK 10/M09 Q1007
ZBYN,2003-06-10 21:00,ZBYN 102100Z 11002MPS CAVOK 09/M09 Q1007 NOSIG
ZBYN,2003-06-10 22:00,ZBYN 102200Z 11001MPS 4000 FU SKC 09/M10 Q1007 NOSIG
ZBYN,2003-06-10 23:00,ZBYN 102300Z VRB01MPS 3000 FU NSC 13/06 Q1008 NOSIG
ZBYN,2003-06-11 00:00,ZBYN 110000Z VRB01MPS 6000 SKC 15/05 Q1008 NOSIG
ZBYN,2003-06-11 01:00,ZBYN 110100Z 32003MPS CAVOK 18/01 Q1008 NOSIG
ZBYN,2003-06-11 02:00,ZBYN 110200Z 35003MPS CAVOK 19/01 Q1008 NOSIG
ZBYN,2003-06-11 03:00,ZBYN 110300Z 02002MPS CAVOK 20/01 Q1008 NOSIG
ZBYN,2003-06-11 04:00,ZBYN 110400Z 30002MPS CAVOK 22/M00 Q1008 NOSIG
ZBYN,2003-06-11 05:00,ZBYN 110500Z 01002MPS CAVOK 23/M01 Q1007 NOSIG
ZBYN,2003-06-11 06:00,ZBYN 110600Z 31003MPS CAVOK 24/M03 Q1006 NOSIG
ZBYN,2003-06-11 07:00,ZBYN 110700Z 32002MPS 9999 FEW033 24/M02 Q1006 NOSIG
ZBYN,2003-06-11 08:00,ZBYN 110800Z 35004MPS 9999 FEW033 23/M01 Q1005 NOSIG
ZBYN,2003-06-11 09:00,ZBYN 110900Z 33003MPS 9999 FEW033 23/M00 Q1005 NOSIG
ZBYN,2003-06-11 10:00,ZBYN 111000Z 35004MPS 9999 FEW033 22/M01 Q1005 NOSIG
ZBYN,2003-06-11 11:00,ZBYN 111100Z 36006MPS /320 33TCU FEW033 20/M01 Q1006 NOSIG
ZBYN,2003-06-11 12:00,ZBYN 111200Z 36006MPS CAVOK 18/M01 Q1007 NOSIG
ZBYN,2003-06-11 13:00,ZBYN 111300Z 01002MPS CAVOK 17/M00 Q1008 NOSIG
ZBYN,2003-06-11 14:00,ZBYN 111400Z 03001MPS CAVOK 16/M01 Q1008 NOSIG
ZBYN,2003-06-11 15:00,ZBYN 111500Z 01001MPS CAVOK 13/01 Q1008 NOSIG
ZBYN,2003-06-11 16:00,ZBYN 111600Z 29001MPS CAVOK 13/02 Q1008 NOSIG
ZBYN,2003-06-11 17:00,ZBYN 111700Z 36002MPS CAVOK 13/01 Q1007
ZBYN,2003-06-11 18:00,ZBYN 111800Z 00000MPS CAVOK 11/02 Q1007
ZBYN,2003-06-11 19:00,ZBYN 111900Z 36001MPS CAVOK 11/03 Q1007
ZBYN,2003-06-11 20:00,ZBYN 112000Z 14002MPS CAVOK 09/02 Q1007
ZBYN,2003-06-11 21:00,ZBYN 112100Z 11001MPS CAVOK 08/03 Q1006
ZBYN,2003-06-11 22:00,ZBYN 112200Z 00000MPS CAVOK 08/04 Q1007 NOSIG
ZBYN,2003-06-11 23:00,ZBYN 112300Z 12002MPS CAVOK 11/05 Q1007 NOSIG
ZBYN,2003-06-12 00:00,ZBYN 120000Z 14001MPS CAVOK 13/04 Q1006 NOSIG
ZBYN,2003-06-12 01:00,ZBYN 120100Z VRB01MPS CAVOK 15/03 Q1006 NOSIG
ZBYN,2003-06-12 02:00,ZBYN 120200Z 19002MPS CAVOK 18/01 Q1005 NOSIG
ZBYN,2003-06-12 03:00,ZBYN 120300Z 22003MPS CAVOK 20/02 Q1005 NOSIG
ZBYN,2003-06-12 04:00,ZBYN 120400Z 21003MPS CAVOK 22/01 Q1004 MOSIG
ZBYN,2003-06-12 05:00,ZBYN 120500Z 34004MPS 9999 BKN040 21/M00 Q1004 NOSIG
ZBYN,2003-06-12 06:00,ZBYN 120600Z 28002MPS CAVOK 21/M00 Q1003 NOSIG
ZBYN,2003-06-12 07:00,ZBYN 120700Z 31003MPS 9999 SCT040 23/01 Q1003 NOSIG
ZBYN,2003-06-12 08:00,ZBYN 120800Z 34007MPS 9999 FEW040 21/00 Q1003 NOSIG
ZBYN,2003-06-12 09:00,ZBYN 120900Z 35005MPS 9999 FEW040 21/00 Q1003 NOSIG
ZBYN,2003-06-12 10:00,ZBYN 121000Z 36006MPS 9999 FEW040 20/M00 Q1004 NOSIG
ZBYN,2003-06-12 11:00,ZBYN 121100Z 36005MPS 9999 FEW040 19/01 Q1005 NOSIG
ZBYN,2003-06-12 12:00,ZBYN 121200Z 01003MPS 9999 FEW040 17/02 Q1006 NOSIG
ZBYN,2003-06-12 13:00,ZBYN 121300Z 33003MPS 9999 FEW040 14/02 Q1007 NOSIG
ZBYN,2003-06-12 14:00,ZBYN 121400Z 14001MPS 9999 FEW040 14/02 Q1007 NOSIG
ZBYN,2003-06-12 15:00,ZBYN 121500Z 35002MPS CAVOK 14/02 Q1008 NOSIG
ZBYN,2003-06-12 16:00,ZBYN 121600Z 36003MPS CAVOK 13/03 Q1008 NOSIG
ZBYN,2003-06-12 17:00,ZBYN 121700Z VRB01MPS CAVOK 13/04 Q1008
ZBYN,2003-06-12 18:00,ZBYN 121800Z 02002MPS CAVOK 11/04 Q1008
ZBYN,2003-06-12 19:00,ZBYN 121900Z 31004MPS CAVOK 08/04 Q1008
ZBYN,2003-06-12 20:00,ZBYN 122000Z VRB01MPS CAVOK 09/04 Q1008
ZBYN,2003-06-12 21:00,ZBYN 122100Z 28001MPS CAVOK 08/04 Q1009
ZBYN,2003-06-12 22:00,ZBYN 122200Z 24002MPS CAVOK 08/04 Q1009 NOSIG
ZBYN,2003-06-12 23:00,ZBYN 122300Z 23001MPS CAVOK 12/05 Q1009 NOSIG
ZBYN,2003-06-13 00:00,ZBYN 130000Z 35002MPS CAVOK 15/03 Q1010 NOSIG
ZBYN,2003-06-13 01:00,ZBYN 130100Z 27002MPS CAVOK 17/03 Q1010 NOSIG
ZBYN,2003-06-13 02:00,ZBYN 130200Z 33006MPS CAVOK 19/01 Q1009 NOSIG
ZBYN,2003-06-13 03:00,ZBYN 130300Z 33005MPS 9999 FEW040 21/06 Q1009 NOSIG
ZBYN,2003-06-13 04:00,ZBYN 130400Z 33004MPS 9999 FEW033 21/01 Q1009 NOSIG
ZBYN,2003-06-13 05:00,ZBYN 130500Z 31006MPS 9999 SCT030 22/00 Q1008 NOSIG
ZBYN,2003-06-13 06:00,ZBYN 130600Z 33005MPS 9999 SCT030 23/00 Q1008 NOSIG
ZBYN,2003-06-13 07:00,ZBYN 130700Z 33007MPS 9999 FEW030TCU BKN030 22/01 Q1008 NOSIG
ZBYN,2003-06-13 08:00,ZBYN 130800Z 35004MPS 9999 FEW030 BKN200 23/02 Q1007 NOSIG
ZBYN,2003-06-13 09:00,ZBYN 130900Z 31006MPS CAVOK 23/02 Q1006 NOSIG
ZBYN,2003-06-13 10:00,ZBYN 131000Z 31005MPS 9999 BKN030 23/02 Q1006 NOSIG
ZBYN,2003-06-13 11:00,ZBYN 131100Z 35002MPS CAVOK 22/04 Q1006 NOSIG
ZBYN,2003-06-13 12:00,ZBYN 131200Z 01004MPS 9999 FEW030 SCT040 21/04 Q1008 NOSIG
ZBYN,2003-06-13 13:00,ZBYN 131300Z 05001MPS 9999 SCT040 SCT100 19/06 Q1008 NOSIG
ZBYN,2003-06-13 14:00,ZBYN 131400Z 27001MPS CAVOK 17/07 Q1008 NOSIG
ZBYN,2003-06-13 15:00,ZBYN 131500Z 00000MPS CAVOK 14/07 Q1008 NOSIG
ZBYN,2003-06-13 16:00,ZBYN 131600Z VRB01MPS CAVOK 15/07 Q1008 NOSIG
ZBYN,2003-06-13 17:00,ZBYN 131700Z 00000MPS CAVOK 15/07 Q1007
ZBYN,2003-06-13 18:00,ZBYN 131800Z 00000MPS CAVOK 12/07 Q1008
ZBYN,2003-06-13 19:00,ZBYN 131900Z VRB01MPS CAVOK 12/07 Q1008
ZBYN,2003-06-13 20:00,ZBYN 132000Z 12001MPS CAVOK 09/05 Q1008
ZBYN,2003-06-13 21:00,ZBYN 132100Z 13001MPS CAVOK 09/05 Q1008
ZBYN,2003-06-13 22:00,ZBYN 132200Z 12001MPS CAVOK 10/06 Q1008 NOSIG
ZBYN,2003-06-13 23:00,ZBYN 132300Z 11001MPS CAVOK 15/08 Q1009 NOSIG
ZBYN,2003-06-14 00:00,ZBYN 140000Z VRB01MPS 7000 SKC 17/06 Q1009 NOSIG
ZBYN,2003-06-14 01:00,ZBYN 140100Z 00000MPS 6000 NSC 19/07 Q1009 NOSIG
ZBYN,2003-06-14 02:00,ZBYN 140200Z 31003MPS CAVOK 24/04 Q1009 NOSIG
ZBYN,2003-06-14 03:00,ZBYN 140300Z 34002MPS CAVOK 25/04 Q1008 NOSIG
ZBYN,2003-06-14 04:00,ZBYN 140400Z 33003MPS CAVOK 25/04 Q1008 NOSIG
ZBYN,2003-06-14 05:00,ZBYN 140500Z 03004MPS CAVOK 28/12 Q1007 NOSIG
ZBYN,2003-06-14 06:00,ZBYN 140600Z 34003MPS CAVOK 28/03 Q1006 NOSIG
ZBYN,2003-06-14 07:00,ZBYN 140700Z VRB01MPS 9999 SCT033 BKN200 28/03 Q1006 NOSIG
ZBYN,2003-06-14 08:00,ZBYN 140800Z 34003MPS 9999 -TS FEW030CB BKN200 25/13 Q1007 NOSIG
ZBYN,2003-06-14 09:00,ZBYN 140900Z 03003MPS CAVOK 27/07 Q1007 NOSIG
ZBYN,2003-06-14 10:00,ZBYN 141000Z 35003MPS CAVOK 24/05 Q1008 NOSIG
ZBYN,2003-06-14 11:00,ZBYN 141100Z 10002MPS CAVOK 23/08 Q1008 NOSIG
ZBYN,2003-06-14 12:00,ZBYN 141200Z 20001MPS CAVOK 21/09 Q1008 NOSIG
ZBYN,2003-06-14 13:00,ZBYN 141300Z 00000MPS CAVOK 19/09 Q1009 NOSIG
ZBYN,2003-06-14 14:00,ZBYN 141400Z 12001MPS CAVOK 18/10 Q1010 NOSIG
ZBYN,2003-06-14 15:00,ZBYN 141500Z VRB01MPS CAVOK 16/10 Q1010 NOSIG
ZBYN,2003-06-14 16:00,ZBYN 141600Z 11002MPS CAVOK 15/09 Q1010 NOSIG
ZBYN,2003-06-14 17:00,ZBYN 141700Z 13002MPS CAVOK 14/09 Q1010
ZBYN,2003-06-14 18:00,ZBYN 141800Z 34001MPS CAVOK 14/09 Q1010
ZBYN,2003-06-14 19:00,ZBYN 141900Z 08001MPS CAVOK 13/09 Q1011
ZBYN,2003-06-14 20:00,ZBYN 142000Z 00000MPS CAVOK 14/09 Q1011
ZBYN,2003-06-14 21:00,ZBYN 142100Z 25001MPS CAVOK 13/09 Q1011
ZBYN,2003-06-14 22:00,ZBYN 142200Z 12001MPS 7000 NSC 12/09 Q1011 NOSIG
ZBYN,2003-06-14 23:00,ZBYN 142300Z 22001MPS 7000 NSC 14/10 Q1012 NOSIG
ZBYN,2003-06-15 00:00,ZBYN 150000Z 16001MPS 6000 NSC 16/10 Q1012 NOSIG
ZBYN,2003-06-15 01:00,ZBYN 150100Z 00000MPS 5000 FU NSC 19/09 Q1012 NOSIG
ZBYN,2003-06-15 02:00,ZBYN 150200Z VRB01MPS 6000 NSC 20/10 Q1012 NOSIG
ZBYN,2003-06-15 03:00,ZBYN 150300Z VRB01MPS 8000 NSC 23/10 Q1012 NOSIG
ZBYN,2003-06-15 04:00,ZBYN 150400Z VRB01MPS CAVOK 24/09 Q1012 NOSIG
ZBYN,2003-06-15 05:00,ZBYN 150500Z VRB01MPS CAVOK 26/08 Q1011 NOSIG
ZBYN,2003-06-15 06:00,ZBYN 150600Z 12002MPS 9999 FEW030TCU BKN200 27/05 Q1010 NOSIG
ZBYN,2003-06-15 07:00,ZBYN 150700Z VRB01MPS CAVOK 27/05 Q1009 NOSIG
ZBYN,2003-06-15 08:00,ZBYN 150800Z 10002MPS CAVOK 27/05 Q1009 NOSIG
ZBYN,2003-06-15 09:00,ZBYN 150900Z 13003MPS 9999 FEW033TCU SCT100 27/04 Q1009 NOSIG
ZBYN,2003-06-15 09:30,ZBYN 150930Z AUTO 11006KT 7SM 26/04 A2980 RMK T02600040 IEM_DS3505
ZBYN,2003-06-15 10:00,ZBYN 151000Z 12002MPS 9999 -TS SCT030CB SCT100 25/04 Q1009 NOSIG
ZBYN,2003-06-15 10:30,ZBYN 151030Z AUTO 33004KT 7SM 22/10 A2983 RMK T02200100 IEM_DS3505
ZBYN,2003-06-15 11:00,ZBYN 151100Z 27005MPS 9999 -TS SCT030CB BKN060 21/12 Q1010 NOSIG
ZBYN,2003-06-15 12:00,ZBYN 151200Z VRB01MPS 9999 -TS SCT030CB OVC100 20/12 Q1011 NOSIG
ZBYN,2003-06-15 13:00,ZBYN 151300Z VRB01MPS CAVOK 19/10 Q1012 NOSIG
ZBYN,2003-06-15 14:00,ZBYN 151400Z 00000MPS CAVOK 18/11 Q1012 NOSIG
ZBYN,2003-06-15 15:00,ZBYN 151500Z 00000MPS CAVOK 17/12 Q1013 NOSIG
ZBYN,2003-06-15 16:00,ZBYN 151600Z 13002MPS CAVOK 15/11 Q1013 NOSIG
ZBYN,2003-06-15 17:00,ZBYN 151700Z 11002MPS CAVOK 15/10 Q1013
ZBYN,2003-06-15 18:00,ZBYN 151800Z 11001MPS CAVOK 14/10 Q1013
ZBYN,2003-06-15 19:00,ZBYN 151900Z 09001MPS CAVOK 15/10 Q1013
ZBYN,2003-06-15 20:00,ZBYN 152000Z VRB01MPS CAVOK 14/10 Q1013
ZBYN,2003-06-15 21:00,ZBYN 152100Z 08001MPS CAVOK 14/09 Q1014 NOSIG
ZBYN,2003-06-15 22:00,ZBYN 152200Z 18001MPS 5000 BR SKC 13/10 Q1014 NOSIG
ZBYN,2003-06-15 23:00,ZBYN 152300Z 11001MPS 5000 BR SKC 15/11 Q1014 NOSIG
ZBYN,2003-06-16 00:00,ZBYN 160000Z VRB01MPS 3000 FU SKC 17/11 Q1014 NOSIG
ZBYN,2003-06-16 01:00,ZBYN 160100Z VRB01MPS 6000 SKC 20/11 Q1014 NOSIG
ZBYN,2003-06-16 02:00,ZBYN 160200Z 00000MPS CAVOK 21/10 Q1014 NOSIG
ZBYN,2003-06-16 03:00,ZBYN 160300Z VRB01MPS CAVOK 23/10 Q1013 NOSIG
ZBYN,2003-06-16 04:00,ZBYN 160400Z 00000MPS CAVOK 24/09 Q1013 NOSIG
ZBYN,2003-06-16 05:00,ZBYN 160500Z 24001MPS CAVOK 26/10 Q1012 NOSIG
ZBYN,2003-06-16 06:00,ZBYN 160600Z 23002MPS CAVOK 27/08 Q1011 NOSIG
ZBYN,2003-06-16 07:00,ZBYN 160700Z 17002MPS CAVOK 28/09 Q1011 NOSIG
ZBYN,2003-06-16 08:00,ZBYN 160800Z 19002MPS CAVOK 28/09 Q1010 NOSIG
ZBYN,2003-06-16 09:00,ZBYN 160900Z 23002MPS CAVOK 28/08 Q1010 NOSIG
ZBYN,2003-06-16 10:00,ZBYN 161000Z 21001MPS CAVOK 28/08 Q1010 NOSIG
ZBYN,2003-06-16 11:00,ZBYN 161100Z 25001MPS CAVOK 26/09 Q1010 NOSIG
ZBYN,2003-06-16 12:00,ZBYN 161200Z 16002MPS CAVOK 25/11 Q1011 NOSIG
ZBYN,2003-06-16 13:00,ZBYN 161300Z 17002MPS CAVOK 24/12 Q1011 NOSIG
ZBYN,2003-06-16 14:00,ZBYN 161400Z 00000MPS CAVOK 21/13 Q1012 NOSIG
ZBYN,2003-06-16 15:00,ZBYN 161500Z 09001MPS CAVOK 20/13 Q1012 NOSIG
ZBYN,2003-06-16 16:00,ZBYN 161600Z 06001MPS CAVOK 20/13 Q1012 NOSIG
ZBYN,2003-06-16 17:00,ZBYN 161700Z 13002MPS CAVOK 18/13 Q1012
ZBYN,2003-06-16 18:00,ZBYN 161800Z 11001MPS CAVOK 17/13 Q1012
ZBYN,2003-06-16 19:00,ZBYN 161900Z 12001MPS CAVOK 17/13 Q1012
ZBYN,2003-06-16 20:00,ZBYN 162000Z 12002MPS CAVOK 16/12 Q1012
ZBYN,2003-06-16 21:00,ZBYN 162100Z 12002MPS CAVOK 15/12 Q1012
ZBYN,2003-06-16 22:00,ZBYN 162200Z 13001MPS 6000 SKC 16/12 Q1012 NOSIG
ZBYN,2003-06-16 23:00,ZBYN 162300Z 13001MPS 6000 SKC 18/13 Q1012 NOSIG
ZBYN,2003-06-17 00:00,ZBYN 170000Z 14002MPS 6000 SKC 20/13 Q1012 NOSIG
ZBYN,2003-06-17 01:00,ZBYN 170100Z 16002MPS 6000 SKC 22/12 Q1012 NOSIG
ZBYN,2003-06-17 02:00,ZBYN 170200Z 20002MPS 6000 SKC 24/12 Q1012 NOSIG
ZBYN,2003-06-17 03:00,ZBYN 170300Z 24003MPS 7000 SKC 26/12 Q1011 NOSIG
ZBYN,2003-06-17 04:00,ZBYN 170400Z 23002MPS 8000 SKC 27/12 Q1010 NOSIG
ZBYN,2003-06-17 05:00,ZBYN 170500Z 23002MPS CAVOK 29/11 Q1009 NOSIG
ZBYN,2003-06-17 06:00,ZBYN 170600Z 21002MPS CAVOK 30/10 Q1008 NOSIG
ZBYN,2003-06-17 07:00,ZBYN 170700Z VRB01MPS CAVOK 31/07 Q1008 NOSIG
ZBYN,2003-06-17 08:00,ZBYN 170800Z 21002MPS CAVOK 32/05 Q1006 NOSIG
ZBYN,2003-06-17 09:00,ZBYN 170900Z 25002MPS 9999 -TS FEW040CB SCT200 30/07 Q1007 NOSIG
ZBYN,2003-06-17 10:00,ZBYN 171000Z 27002MPS 9999 -TS SCT040CB SCT200 28/10 Q1007 NOSIG
ZBYN,2003-06-17 11:00,ZBYN 171100Z 32008MPS 9999 -TSRA FEW040CB SCT040 SCT100 24/10 Q1009 NOSIG
ZBYN,2003-06-17 12:00,ZBYN 171200Z 04002MPS CAVOK 22/12 Q1008 NOSIG
ZBYN,2003-06-17 13:00,ZBYN 171300Z 33002MPS CAVOK 21/13 Q1009 NOSIG
ZBYN,2003-06-17 14:00,ZBYN 171400Z VRB01MPS CAVOK 21/10 Q1009 NOSIG
ZBYN,2003-06-17 15:00,ZBYN 171500Z VRB01MPS CAVOK 21/09 Q1009 NOSIG
ZBYN,2003-06-17 16:00,ZBYN 171600Z 00000MPS CAVOK 20/11 Q1009 NOSIG
ZBYN,2003-06-17 17:00,ZBYN 171700Z 05001MPS CAVOK 19/11 Q1009 NOSIG
ZBYN,2003-06-17 18:00,ZBYN 171800Z 16001MPS CAVOK 19/11 Q1009 NOSIG
ZBYN,2003-06-17 19:00,ZBYN 171900Z 11002MPS CAVOK 16/11 Q1008
ZBYN,2003-06-17 20:00,ZBYN 172000Z VRB01MPS CAVOK 16/11 Q1008
ZBYN,2003-06-17 21:00,ZBYN 172100Z 10001MPS CAVOK 16/10 Q1008
ZBYN,2003-06-17 22:00,ZBYN 172200Z VRB01MPS CAVOK 17/10 Q1008 NOSIG
ZBYN,2003-06-17 23:00,ZBYN 172300Z 00000MPS 5000 FU NSC 18/12 Q1008 NOSIG
ZBYN,2003-06-18 00:00,ZBYN 180000Z 00000MPS 5000 FU NSC 19/12 Q1009 NOSIG
ZBYN,2003-06-18 01:00,ZBYN 180100Z 33001MPS 7000 NSC 24/10 Q1008 NOSIG
ZBYN,2003-06-18 02:00,ZBYN 180200Z VRB01MPS 7000 NSC 25/10 Q1008 NOSIG
ZBYN,2003-06-18 03:00,ZBYN 180300Z 28001MPS CAVOK 25/10 Q1008 NOSIG
ZBYN,2003-06-18 04:00,ZBYN 180400Z 19002MPS CAVOK 28/08 Q1007 NOSIG
ZBYN,2003-06-18 05:00,ZBYN 180500Z VRB01MPS CAVOK 30/08 Q1006 NOSIG
ZBYN,2003-06-18 06:00,ZBYN 180600Z VRB01MPS CAVOK 31/07 Q1005 NOSIG
ZBYN,2003-06-18 07:00,ZBYN 180700Z 13002MPS CAVOK 32/04 Q1004 NOSIG
ZBYN,2003-06-18 08:00,ZBYN 180800Z 15002MPS 9999 FEW040 FEW040TCU SCT200 32/05 Q1004 NOSIG
ZBYN,2003-06-18 09:00,ZBYN 180900Z 09002MPS 9999 -TS FEW040 FEW040CB BKN200 31/05 Q1004 NOSIG
ZBYN,2003-06-18 10:00,ZBYN 181000Z 12002MPS 9999 -SHRA SCT040 FEW040TCU OVC200 29/06 Q1004 NOSIG
ZBYN,2003-06-18 11:00,ZBYN 181100Z 00000MPS 9999 FEW040 OVC100 28/06 Q1004 NOSIG
ZBYN,2003-06-18 12:00,ZBYN 181200Z 14001MPS CAVOK 26/07 Q1004 NOSIG
ZBYN,2003-06-18 13:00,ZBYN 181300Z 12002MPS CAVOK 24/09 Q1005 NOSIG
ZBYN,2003-06-18 14:00,ZBYN 181400Z 13003MPS CAVOK 22/09 Q1006 NOSIG
ZBYN,2003-06-18 15:00,ZBYN 181500Z 12002MPS CAVOK 19/10 Q1006 NOSIG
ZBYN,2003-06-18 16:00,ZBYN 181600Z 12003MPS CAVOK 20/11 Q1006
ZBYN,2003-06-18 17:00,ZBYN 181700Z 14001MPS CAVOK 20/11 Q1006
ZBYN,2003-06-18 18:00,ZBYN 181800Z 00000MPS CAVOK 18/11 Q1005
ZBYN,2003-06-18 19:00,ZBYN 181900Z 14002MPS CAVOK 18/12 Q1005
ZBYN,2003-06-18 20:00,ZBYN 182000Z 05001MPS CAVOK 17/12 Q1005
ZBYN,2003-06-18 21:00,ZBYN 182100Z 14001MPS 6000 NSC 17/11 Q1005
ZBYN,2003-06-18 22:00,ZBYN 182200Z 23001MPS 4000 BR SKC 16/12 Q1005 NOSIG
ZBYN,2003-06-18 23:00,ZBYN 182300Z 00000MPS 3000 BR SKC 18/13 Q1005 NOSIG
ZBYN,2003-06-19 00:00,ZBYN 190000Z 32002MPS 4000 FU SKC 22/11 Q1005 NOSIG
ZBYN,2003-06-19 01:00,ZBYN 190100Z 34002MPS 4000 FU SKC 24/10 Q1005 NOSIG
ZBYN,2003-06-19 02:00,ZBYN 190200Z 25001MPS 6000 SKC 26/09 Q1005 NOSIG
ZBYN,2003-06-19 03:00,ZBYN 190300Z 23002MPS 7000 SKC 27/09 Q1004 NOSIG
ZBYN,2003-06-19 04:00,ZBYN 190400Z 21002MPS CAVOK 29/09 Q1004 NOSIG
ZBYN,2003-06-19 05:00,ZBYN 190500Z 20003MPS CAVOK 31/08 Q1003 NOSIG
ZBYN,2003-06-19 06:00,ZBYN 190600Z 22003MPS CAVOK 32/07 Q1002 NOSIG
ZBYN,2003-06-19 07:00,ZBYN 190700Z 22002MPS CAVOK 33/05 Q1001 NOSIG
ZBYN,2003-06-19 08:00,ZBYN 190800Z 22002MPS 9999 FEW030 33/04 Q1001 NOSIG
ZBYN,2003-06-19 09:00,ZBYN 190900Z 22002MPS 9999 FEW030 32/04 Q1000 NOSIG
ZBYN,2003-06-19 10:00,ZBYN 191000Z 27002MPS 9999 FEW030 BKN200 31/07 Q1001 NOSIG
ZBYN,2003-06-19 11:00,ZBYN 191100Z 16003MPS 9999 -TSRA FEW040CB BKN100 30/08 Q1001 NOSIG
ZBYN,2003-06-19 12:00,ZBYN 191200Z 15002MPS 9999 -TS FEW040CB BKN200 27/09 Q1001 NOSIG
ZBYN,2003-06-19 13:00,ZBYN 191300Z 15001MPS CAVOK 26/09 Q1002 NOSIG
ZBYN,2003-06-19 14:00,ZBYN 191400Z 00000MPS CAVOK 23/10 Q1003 NOSIG
ZBYN,2003-06-19 15:00,ZBYN 191500Z 15002MPS CAVOK 23/11 Q1004 NOSIG
ZBYN,2003-06-19 16:00,ZBYN 191600Z 12002MPS CAVOK 22/12 Q1004 NOSIG
ZBYN,2003-06-19 17:00,ZBYN 191700Z 11001MPS CAVOK 19/12 Q1004
ZBYN,2003-06-19 18:00,ZBYN 191800Z 12002MPS CAVOK 18/12 Q1004
ZBYN,2003-06-19 19:00,ZBYN 191900Z 11002MPS CAVOK 18/12 Q1004
ZBYN,2003-06-19 20:00,ZBYN 192000Z VRB01MPS CAVOK 19/12 Q1004
ZBYN,2003-06-19 21:00,ZBYN 192100Z 10002MPS CAVOK 18/12 Q1004 NOSIG
ZBYN,2003-06-19 22:00,ZBYN 192200Z 22001MPS 5000 BR SKC 18/12 Q1005 NOSIG
ZBYN,2003-06-19 23:00,ZBYN 192300Z 00000MPS 4000 FU SKC 20/12 Q1005 NOSIG
ZBYN,2003-06-20 00:00,ZBYN 200000Z 28001MPS 4000 FU SKC 22/13 Q1005 NOSIG
ZBYN,2003-06-20 01:00,ZBYN 200100Z VRB01MPS 6000 SKC 25/13 Q1005 NOSIG
ZBYN,2003-06-20 02:00,ZBYN 200200Z VRB01MPS 7000 SKC 26/13 Q1005 NOSIG
ZBYN,2003-06-20 03:00,ZBYN 200300Z 25002MPS 8000 SKC 28/12 Q1005 NOSIG
ZBYN,2003-06-20 04:00,ZBYN 200400Z 23002MPS CAVOK 30/10 Q1004 NOSIG
ZBYN,2003-06-20 05:00,ZBYN 200500Z 19003MPS CAVOK 32/08 Q1003 NOSIG
ZBYN,2003-06-20 06:00,ZBYN 200600Z 27003MPS 9999 FEW040TCU BKN200 31/11 Q1002 NOSIG
ZBYN,2003-06-20 07:00,ZBYN 200700Z 19003MPS 9999 FEW040TCU BKN200 32/08 Q1002 NOSIG
ZBYN,2003-06-20 08:00,ZBYN 200800Z 21003MPS 9999 -TS FEW040CB BKN200 31/05 Q1002 NOSIG
ZBYN,2003-06-20 09:00,ZBYN 200900Z 33002MPS 9999 FEW040 BKN200 30/04 Q1002 NOSIG
ZBYN,2003-06-20 10:00,ZBYN 201000Z 00000MPS CAVOK 29/08 Q1002 NOSIG
ZBYN,2003-06-20 11:00,ZBYN 201100Z 09005MPS CAVOK 28/08 Q1003 NOSIG
ZBYN,2003-06-20 12:00,ZBYN 201200Z 09004MPS CAVOK 26/09 Q1003 NOSIG
ZBYN,2003-06-20 13:00,ZBYN 201300Z 09003MPS CAVOK 25/09 Q1004 NOSIG
ZBYN,2003-06-20 14:00,ZBYN 201400Z 12001MPS CAVOK 23/09 Q1005 NOSIG
ZBYN,2003-06-20 15:00,ZBYN 201500Z 09003MPS CAVOK 24/10 Q1005 NOSIG
ZBYN,2003-06-20 16:00,ZBYN 201600Z 09003MPS CAVOK 23/10 Q1005 NOSIG
ZBYN,2003-06-20 17:00,ZBYN 201700Z 11002MPS CAVOK 20/11 Q1005
ZBYN,2003-06-20 18:00,ZBYN 201800Z 07001MPS CAVOK 20/11 Q1005
ZBYN,2003-06-20 19:00,ZBYN 201900Z 09001MPS CAVOK 20/12 Q1005
ZBYN,2003-06-20 20:00,ZBYN 202000Z 08001MPS CAVOK 19/13 Q1005
ZBYN,2003-06-20 21:00,ZBYN 202100Z 11002MPS CAVOK 18/13 Q1005
ZBYN,2003-06-20 22:00,ZBYN 202200Z 10002MPS CAVOK 19/13 Q1006 NOSIG
ZBYN,2003-06-20 23:00,ZBYN 202300Z VRB01MPS 6000 SKC 20/14 Q1006 NOSIG
ZBYN,2003-06-21 00:00,ZBYN 210000Z 29002MPS 5000 FU SKC 23/13 Q1006 NOSIG
ZBYN,2003-06-21 01:00,ZBYN 210100Z 35001MPS 6000 SKC 24/13 Q1007 NOSIG
ZBYN,2003-06-21 02:00,ZBYN 210200Z VRB01MPS 6000 SKC 26/13 Q1006 NOSIG
ZBYN,2003-06-21 03:00,ZBYN 210300Z 10002MPS CAVOK 29/12 Q1006 NOSIG
ZBYN,2003-06-21 04:00,ZBYN 210400Z 15003MPS 9999 FEW030 30/09 Q1006 NOSIG
ZBYN,2003-06-21 05:00,ZBYN 210500Z VRB01MPS CAVOK 30/10 Q1005 NOSIG
ZBYN,2003-06-21 06:00,ZBYN 210600Z 19002MPS 9999 BKN040 31/09 Q1004 NOSIG
ZBYN,2003-06-21 07:00,ZBYN 210700Z 11007MPS 9999 FEW040CB BKN040 29/09 Q1005 NOSIG
ZBYN,2003-06-21 08:00,ZBYN 210800Z 07006MPS 9999 FEW040CB BKN040 27/12 Q1005 NOSIG
ZBYN,2003-06-21 09:00,ZBYN 210900Z 12005MPS 9999 FEW040CB BKN040 26/13 Q1006 NOSIG
ZBYN,2003-06-21 10:00,ZBYN 211000Z 13004MPS 9999 -TS FEW040CB BKN040 25/13 Q1006 NOSIG
ZBYN,2003-06-21 11:00,ZBYN 211100Z 10004MPS 9999 FEW040CB FEW040 BKN200 26/12 Q1006 NOSIG
ZBYN,2003-06-21 12:00,ZBYN 211200Z 11003MPS 9999 SCT040 OVC100 25/13 Q1007 NOSIG
ZBYN,2003-06-21 13:00,ZBYN 211300Z 09003MPS 9999 -TS FEW033CB BKN040 24/13 Q1007 NOSIG
ZBYN,2003-06-21 14:00,ZBYN 211400Z 08004MPS CAVOK 24/13 Q1007 NOSIG
ZBYN,2003-06-21 15:00,ZBYN 211500Z 09003MPS CAVOK 23/13 Q1007 NOSIG
ZBYN,2003-06-21 16:00,ZBYN 211600Z 09003MPS CAVOK 23/13 Q1007 NOSIG
ZBYN,2003-06-21 17:00,ZBYN 211700Z 07003MPS CAVOK 23/14 Q1007
ZBYN,2003-06-21 18:00,ZBYN 211800Z 10002MPS CAVOK 22/14 Q1007
ZBYN,2003-06-21 19:00,ZBYN 211900Z 10003MPS CAVOK 22/14 Q1007
ZBYN,2003-06-21 20:00,ZBYN 212000Z 12003MPS 7000 -TSRA FEW033CB BKN033 19/17 Q1007
ZBYN,2003-06-21 21:00,ZBYN 212100Z 00000MPS 6000 -TSRA FEW033CB BKN033 18/17 Q1007
ZBYN,2003-06-21 22:00,ZBYN 212200Z 33003MPS 4000 -SHRA BR BKN020 OVC033 18/17 Q1008 NOSIG
ZBYN,2003-06-21 23:00,ZBYN 212300Z 35002MPS 7000 -SHRA FEW026CB OVC033 18/16 Q1008 NOSIG
ZBYN,2003-06-22 00:00,ZBYN 220000Z 30002MPS 4000 -SHRA BR BKN020 OVC033 18/17 Q1008 NOSIG
ZBYN,2003-06-22 01:00,ZBYN 220100Z 30002MPS 1400 R31/P1500 +SHRA BR BKN020 BKN033TCU 17/16 Q1008 NOSIG
ZBYN,2003-06-22 02:00,ZBYN 220200Z 00000MPS 3000 -RA BR SCT016 BKN040 OVC083 18/17 Q1008 NOSIG
ZBYN,2003-06-22 03:00,ZBYN 220300Z 35001MPS 4000 BR FEW033 SCT050 OVC090 19/17 Q1007 NOSIG
ZBYN,2003-06-22 04:00,ZBYN 220400Z 35001MPS 5000 -RA BR FEW016 BKN033 OVC090 19/17 Q1007 NOSIG
ZBYN,2003-06-22 05:00,ZBYN 220500Z 32001MPS 4000 -RA BR SCT020 BKN033 OVC090 19/17 Q1007 NOSIG
ZBYN,2003-06-22 06:00,ZBYN 220600Z 31001MPS 5000 -RA BR BKN030 OVC090 20/17 Q1006 NOSIG
ZBYN,2003-06-22 07:00,ZBYN 220700Z 01001MPS 6000 -RA BKN040 OVC090 20/17 Q1006 NOSIG
ZBYN,2003-06-22 08:00,ZBYN 220800Z 27001MPS 7000 NSC 22/16 Q1005 NOSIG
ZBYN,2003-06-22 09:00,ZBYN 220900Z 00000MPS 8000 NSC 21/16 Q1005 NOSIG
ZBYN,2003-06-22 10:00,ZBYN 221000Z 00000MPS 6000 NSC 22/15 Q1005 NOSIG
ZBYN,2003-06-22 11:00,ZBYN 221100Z 30001MPS 6000 NSC 20/17 Q1005 NOSIG
ZBYN,2003-06-22 12:00,ZBYN 221200Z 30002MPS 4000 BR NSC 19/17 Q1005 NOSIG
ZBYN,2003-06-22 13:00,ZBYN 221300Z 32002MPS 7000 SKC 19/16 Q1005 NOSIG
ZBYN,2003-06-22 14:00,ZBYN 221400Z 30002MPS 7000 SKC 18/15 Q1005 NOSIG
ZBYN,2003-06-22 15:00,ZBYN 221500Z 30002MPS 8000 SKC 18/15 Q1005 NOSIG
ZBYN,2003-06-22 16:00,ZBYN 221600Z 31002MPS 8000 SKC 17/15 Q1005 NOSIG
ZBYN,2003-06-22 17:00,ZBYN 221700Z 00000MPS 8000 SKC 18/15 Q1004
ZBYN,2003-06-22 18:00,ZBYN 221800Z 23002MPS 4000 BR SKC 17/15 Q1005
ZBYN,2003-06-22 19:00,ZBYN 221900Z 23001MPS 2500 BR SKC 16/15 Q1005
ZBYN,2003-06-22 20:00,ZBYN 222000Z 00000MPS 6000 SKC 16/14 Q1005
ZBYN,2003-06-22 21:00,ZBYN 222100Z 00000MPS 4000 BR SKC 16/14 Q1006
ZBYN,2003-06-22 22:00,ZBYN 222200Z 23001MPS 1500 BR SKC 16/14 Q1006 NOSIG
ZBYN,2003-06-22 23:00,ZBYN 222300Z 25001MPS 2500 BR SKC 18/15 Q1007 NOSIG
ZBYN,2003-06-23 00:00,ZBYN 230000Z 23002MPS 4000 BR SKC 19/15 Q1007 NOSIG
ZBYN,2003-06-23 01:00,ZBYN 230100Z 30003MPS CAVOK 22/15 Q1007 NOSIG
ZBYN,2003-06-23 02:00,ZBYN 230200Z 34005MPS CAVOK 24/13 Q1007 NOSIG
ZBYN,2003-06-23 03:00,ZBYN 230300Z 35005MPS CAVOK 26/12 Q1007 NOSIG
ZBYN,2003-06-23 04:00,ZBYN 230400Z 35004MPS CAVOK 27/11 Q1006 NOSIG
ZBYN,2003-06-23 05:00,ZBYN 230500Z 35004MPS 9999 FEW033 28/07 Q1005 NOSIG
ZBYN,2003-06-23 06:00,ZBYN 230600Z 34003MPS 9999 FEW033 28/10 Q1005 NOSIG
ZBYN,2003-06-23 07:00,ZBYN 230700Z 36003MPS CAVOK 29/11 Q1004 NOSIG
ZBYN,2003-06-23 08:00,ZBYN 230800Z 36002MPS CAVOK 29/11 Q1004 NOSIG
ZBYN,2003-06-23 09:00,ZBYN 230900Z 35003MPS CAVOK 29/12 Q1003 NOSIG
ZBYN,2003-06-23 10:00,ZBYN 231000Z 36003MPS CAVOK 29/11 Q1004 NOSIG
ZBYN,2003-06-23 11:00,ZBYN 231100Z 34003MPS CAVOK 27/11 Q1004 NOSIG
ZBYN,2003-06-23 12:00,ZBYN 231200Z 36002MPS CAVOK 25/12 Q1005 NOSIG
ZBYN,2003-06-23 13:00,ZBYN 231300Z 36001MPS CAVOK 23/13 Q1005 NOSIG
ZBYN,2003-06-23 14:00,ZBYN 231400Z 33001MPS CAVOK 21/14 Q1006 NOSIG
ZBYN,2003-06-23 15:00,ZBYN 231500Z 12001MPS CAVOK 18/14 Q1006 NOSIG
ZBYN,2003-06-23 16:00,ZBYN 231600Z 35001MPS CAVOK 19/12 Q1006 NOSIG
ZBYN,2003-06-23 17:00,ZBYN 231700Z 02003MPS CAVOK 20/09 Q1006
ZBYN,2003-06-23 18:00,ZBYN 231800Z 05001MPS CAVOK 17/11 Q1007
ZBYN,2003-06-23 19:00,ZBYN 231900Z VRB01MPS CAVOK 17/10 Q1007
ZBYN,2003-06-23 20:00,ZBYN 232000Z 30001MPS CAVOK 16/10 Q1007
ZBYN,2003-06-23 21:00,ZBYN 232100Z VRB01MPS CAVOK 16/10 Q1008
ZBYN,2003-06-23 22:00,ZBYN 232200Z 00000MPS CAVOK 15/10 Q1008 NOSIG
ZBYN,2003-06-23 23:00,ZBYN 232300Z 00000MPS CAVOK 18/12 Q1008 NOSIG
ZBYN,2003-06-24 00:00,ZBYN 240000Z 34001MPS CAVOK 21/10 Q1008 NOSIG
ZBYN,2003-06-24 01:00,ZBYN 240100Z 34004MPS CAVOK 23/08 Q1008 NOSIG
ZBYN,2003-06-24 02:00,ZBYN 240200Z 32003MPS CAVOK 25/08 Q1007 NOSIG
ZBYN,2003-06-24 03:00,ZBYN 240300Z 31003MPS CAVOK 26/09 Q1007 NOSIG
ZBYN,2003-06-24 04:00,ZBYN 240400Z 34002MPS CAVOK 27/07 Q1007 NOSIG
ZBYN,2003-06-24 05:00,ZBYN 240500Z 22002MPS CAVOK 28/07 Q1006 NOSIG
ZBYN,2003-06-24 06:00,ZBYN 240600Z VRB01MPS CAVOK 28/05 Q1005 NOSIG
ZBYN,2003-06-24 07:00,ZBYN 240700Z VRB01MPS CAVOK 29/M01 Q1004 NOSIG
ZBYN,2003-06-24 09:00,ZBYN 240900Z VRB01MPS CAVOK 30/M02 Q1003 NOSIG
ZBYN,2003-06-24 10:00,ZBYN 241000Z VRB01MPS CAVOK 29/01 Q1003 NOSIG
ZBYN,2003-06-24 11:00,ZBYN 241100Z 22001MPS CAVOK 28/10 Q1003 NOSIG
ZBYN,2003-06-24 12:00,ZBYN 241200Z 04001MPS CAVOK 24/10 Q1003 NOSIG
ZBYN,2003-06-24 13:00,ZBYN 241300Z 00000MPS CAVOK 21/11 Q1003 NOSIG
ZBYN,2003-06-24 14:00,ZBYN 241400Z 08001MPS CAVOK 22/07 Q1004 NOSIG
ZBYN,2003-06-24 15:00,ZBYN 241500Z 07005MPS CAVOK 23/08 Q1004 NOSIG
ZBYN,2003-06-24 16:00,ZBYN 241600Z 07004MPS CAVOK 23/08 Q1004 NOSIG
ZBYN,2003-06-24 17:00,ZBYN 241700Z 06002MPS CAVOK 22/08 Q1004
ZBYN,2003-06-24 18:00,ZBYN 241800Z 00000MPS CAVOK 20/09 Q1004
ZBYN,2003-06-24 19:00,ZBYN 241900Z 00000MPS CAVOK 19/10 Q1004
ZBYN,2003-06-24 20:00,ZBYN 242000Z 00000MPS CAVOK 18/10 Q1004
ZBYN,2003-06-24 21:00,ZBYN 242100Z 05001MPS CAVOK 18/11 Q1004 NOSIG
ZBYN,2003-06-24 22:00,ZBYN 242200Z 00000MPS 7000 SKC 18/12 Q1004 NOSIG
ZBYN,2003-06-24 23:00,ZBYN 242300Z 30001MPS 5000 FU SKC 19/12 Q1004 NOSIG
ZBYN,2003-06-25 00:00,ZBYN 250000Z 35001MPS 5000 FU SKC 21/13 Q1004 NOSIG
ZBYN,2003-06-25 01:00,ZBYN 250100Z 01001MPS 4000 FU SKC 24/15 Q1004 NOSIG
ZBYN,2003-06-25 02:00,ZBYN 250200Z VRB01MPS 5000 FU NSC 26/16 Q1004 NOSIG
ZBYN,2003-06-25 03:00,ZBYN 250300Z 21001MPS 5000 FU NSC 26/16 Q1003 NOSIG
ZBYN,2003-06-25 04:00,ZBYN 250400Z 13002MPS 6000 NSC 28/15 Q1002 NOSIG
ZBYN,2003-06-25 05:00,ZBYN 250500Z 15003MPS CAVOK 28/12 Q1001 NOSIG
ZBYN,2003-06-25 06:00,ZBYN 250600Z 14005MPS CAVOK 31/12 Q1000 NOSIG
ZBYN,2003-06-25 08:00,ZBYN 250800Z 17002MPS CAVOK 30/11 Q1001 NOSIG
ZBYN,2003-06-25 09:00,ZBYN 250900Z 16002MPS CAVOK 29/13 Q1001 NOSIG
ZBYN,2003-06-25 10:00,ZBYN 251000Z 15001MPS CAVOK 28/13 Q1000 NOSIG
ZBYN,2003-06-25 11:00,ZBYN 251100Z 18005MPS 6000 -TSRA FEW040CB BKN050 22/15 Q1002 NOSIG
ZBYN,2003-06-25 12:00,ZBYN 251200Z 20001MPS 9999 BKN040 OVC100 24/15 Q1002 NOSIG
ZBYN,2003-06-25 13:00,ZBYN 251300Z 12001MPS 9999 SCT040 OVC100 22/17 Q1002 NOSIG
ZBYN,2003-06-25 14:00,ZBYN 251400Z 32002MPS CAVOK 24/16 Q1003 NOSIG
ZBYN,2003-06-25 15:00,ZBYN 251500Z 34003MPS CAVOK 23/16 Q1003 NOSIG
ZBYN,2003-06-25 16:00,ZBYN 251600Z 31004MPS CAVOK 22/16 Q1004 NOSIG
ZBYN,2003-06-25 17:00,ZBYN 251700Z 34004MPS CAVOK 22/15 Q1017004MPS 9999 FEW020 BKN130 28/2 4 Q1004 NOSIG
ZBYN,2003-06-25 18:00,ZBYN 251800Z 35003MPS CAVOK 21/14 Q1004
ZBYN,2003-06-25 19:00,ZBYN 251900Z 34003MPS CAVOK 21/14 Q1004
ZBYN,2003-06-25 20:00,ZBYN 252000Z 36002MPS CAVOK 21/15 Q1004
ZBYN,2003-06-25 21:00,ZBYN 252100Z 21001MPS CAVOK 20/16 Q1004
ZBYN,2003-06-25 22:00,ZBYN 252200Z 00000MPS 9999 -RA OVC040 20/15 Q1004 NOSIG
ZBYN,2003-06-25 23:00,ZBYN 252300Z 17001MPS 6000 NSC 20/15 Q1004 NOSIG
ZBYN,2003-06-26 00:00,ZBYN 260000Z 00000MPS 4000 BR NSC 20/16 Q1005 NOSIG
ZBYN,2003-06-26 01:00,ZBYN 260100Z 24001MPS 5000 BR NSC 20/16 Q1005 NOSIG
ZBYN,2003-06-26 02:00,ZBYN 260200Z VRB01MPS 5000 BR NSC 21/16 Q1005 NOSIG
ZBYN,2003-06-26 03:00,ZBYN 260300Z 18002MPS 5000 HZ NSC 22/15 Q1005 NOSIG
ZBYN,2003-06-26 04:00,ZBYN 260400Z 18002MPS 6000 NSC 24/15 Q1004 NOSIG
ZBYN,2003-06-26 05:00,ZBYN 260500Z 33001MPS 9000 FEW040TCU SCT100 25/14 Q1004 NOSIG
ZBYN,2003-06-26 06:00,ZBYN 260600Z 24002MPS 9999 FEW040TCU BKN100 26/15 Q1003 NOSIG
ZBYN,2003-06-26 07:00,ZBYN 260700Z 30003MPS 9999 FEW040TCU SCT100 28/12 Q1003 NOSIG
ZBYN,2003-06-26 08:00,ZBYN 260800Z 14004MPS 9999 SCT040 28/13 Q1003 NOSIG
ZBYN,2003-06-26 09:00,ZBYN 260900Z 16002MPS 9999 FEW040 28/13 Q1002 NOSIG
ZBYN,2003-06-26 10:00,ZBYN 261000Z 20002MPS 9999 FEW040TCU FEW040 26/14 Q1002 NOSIG
ZBYN,2003-06-26 11:00,ZBYN 261100Z 22001MPS 9999 SCT040 26/15 Q1003 NOSIG
ZBYN,2003-06-26 12:00,ZBYN 261200Z 29001MPS 9999 SCT040 24/17 Q1003 NOSIG
ZBYN,2003-06-26 13:00,ZBYN 261300Z 08001MPS 9999 FEW040 23/16 Q1004 NOSIG
ZBYN,2003-06-26 14:00,ZBYN 261400Z 01002MPS 9999 -TS FEW040CB BKN040 23/14 Q1004 NOSIG
ZBYN,2003-06-26 15:00,ZBYN 261500Z 00000MPS 9999 FEW040 21/14 Q1005
ZBYN,2003-06-26 16:00,ZBYN 261600Z 12001MPS CAVOK 18/15 Q1005
ZBYN,2003-06-26 17:00,ZBYN 261700Z 10001MPS CAVOK 18/14 Q1005
ZBYN,2003-06-26 18:00,ZBYN 261800Z 08001MPS CAVOK 17/14 Q1005
ZBYN,2003-06-26 19:00,ZBYN 261900Z VRB01MPS CAVOK 16/14 Q1005
ZBYN,2003-06-26 20:00,ZBYN 262000Z 00000MPS 6000 SKC 15/13 Q1005
ZBYN,2003-06-26 21:00,ZBYN 262100Z 00000MPS 8000 SKC 15/13 Q1006
ZBYN,2003-06-26 22:00,ZBYN 262200Z 12002MPS 8000 SKC 14/13 Q1006 NOSIG
ZBYN,2003-06-26 23:00,ZBYN 262300Z 08001MPS 8000 SKC 17/13 Q1006 NOSIG
ZBYN,2003-06-27 00:00,ZBYN 270000Z 13001MPS 6000 SKC 19/14 Q1006 NOSIG
ZBYN,2003-06-27 01:00,ZBYN 270100Z VRB01MPS 6000 SKC 21/13 Q1006 NOSIG
ZBYN,2003-06-27 02:00,ZBYN 270200Z VRB01MPS 6000 SKC 23/14 Q1005 NOSIG
ZBYN,2003-06-27 03:00,ZBYN 270300Z 21002MPS 8000 SKC 25/11 Q1005 NOSIG
ZBYN,2003-06-27 04:00,ZBYN 270400Z 22002MPS CAVOK 27/09 Q1004 NOSIG
ZBYN,2003-06-27 06:00,ZBYN 270600Z 16002MPS 9999 FEW033 29/06 Q1003 NOSIG
ZBYN,2003-06-27 07:00,ZBYN 270700Z 16003MPS 9999 FEW033 29/05 Q1002 NOSIG
ZBYN,2003-06-27 08:00,ZBYN 270800Z 16003MPS 9999 SCT033 29/04 Q1002 NOSIG
ZBYN,2003-06-27 09:00,ZBYN 270900Z VRB01MPS 9999 BKN033 FEW033TCU 28/07 Q1002 NOSIG
ZBYN,2003-06-27 10:00,ZBYN 271000Z 32006MPS 9999 BKN040 25/06 Q1003 NOSIG
ZBYN,2003-06-27 11:00,ZBYN 271100Z 33003MPS 9999 BKN040 26/05 Q1002 NOSIG
ZBYN,2003-06-27 12:00,ZBYN 271200Z VRB01MPS 9999 SCT040 23/09 Q1003 NOSIG
ZBYN,2003-06-27 13:00,ZBYN 271300Z 14001MPS CAVOK 21/11 Q1003 NOSIG
ZBYN,2003-06-27 14:00,ZBYN 271400Z VRB01MPS CAVOK 20/10 Q1003 NOSIG
ZBYN,2003-06-27 15:00,ZBYN 271500Z 10002MPS CAVOK 17/10 Q1004 NOSIG
ZBYN,2003-06-27 16:00,ZBYN 271600Z 10002MPS CAVOK 17/09 Q1004 NOSIG
ZBYN,2003-06-27 17:00,ZBYN 271700Z 00000MPS CAVOK 15/09 Q1004 NOSIG
ZBYN,2003-06-27 18:00,ZBYN 271800Z AUTO 00000KT 9SM 18/11 A2964 RMK SLP002 T01810113 52001 IEM_DS3505
ZBYN,2003-06-27 19:00,ZBYN 271900Z 00000MPS CAVOK 14/10 Q1004
ZBYN,2003-06-27 20:00,ZBYN 272000Z 11001MPS CAVOK 13/09 Q1004
ZBYN,2003-06-27 21:00,ZBYN 272100Z 00000MPS CAVOK 13/09 Q1004
ZBYN,2003-06-27 22:00,ZBYN 272200Z 11001MPS CAVOK 13/10 Q1005 NOSIG
ZBYN,2003-06-27 23:00,ZBYN 272300Z 12001MPS CAVOK 16/11 Q1005 NOSIG
ZBYN,2003-06-28 00:00,ZBYN 280000Z 13001MPS 7000 SKC 18/11 Q1005 NOSIG
ZBYN,2003-06-28 01:00,ZBYN 280100Z 14001MPS 8000 SKC 21/11 Q1006 NOSIG
ZBYN,2003-06-28 02:00,ZBYN 280200Z VRB01MPS CAVOK 23/10 Q1005 NOSIG
ZBYN,2003-06-28 03:00,ZBYN 280300Z 20002MPS CAVOK 25/09 Q1005 NOSIG
ZBYN,2003-06-28 04:00,ZBYN 280400Z 24002MPS CAVOK 27/06 Q1004 NOSIG
ZBYN,2003-06-28 05:00,ZBYN 280500Z 28006MPS CAVOK 30/M05 Q1004 NOSIG
ZBYN,2003-06-28 06:00,ZBYN 280600Z 32005MPS CAVOK 30/M05 Q1003 NOSIG
ZBYN,2003-06-28 07:00,ZBYN 280700Z 33006MPS CAVOK 31/M06 Q1003 NOSIG
ZBYN,2003-06-28 08:00,ZBYN 280800Z 33006MPS CAVOK 31/M07 Q1003 NOSIG
ZBYN,2003-06-28 09:00,ZBYN 280900Z 34007MPS CAVOK 30/M07 Q1003 NOSIG
ZBYN,2003-06-28 10:00,ZBYN 281000Z 02004MPS CAVOK 29/M01 Q1003 NOSIG
ZBYN,2003-06-28 11:00,ZBYN 281100Z 36003MPS CAVOK 28/01 Q1004 NOSIG
ZBYN,2003-06-28 12:00,ZBYN 281200Z 35004MPS CAVOK 25/03 Q1005 NOSIG
ZBYN,2003-06-28 13:00,ZBYN 281300Z 35002MPS CAVOK 23/05 Q1006 NOSIG
ZBYN,2003-06-28 14:00,ZBYN 281400Z 32003MPS CAVOK 20/06 Q1007 NOSIG
ZBYN,2003-06-28 15:00,ZBYN 281500Z 07002MPS CAVOK 20/07 Q1007 NOSIG
ZBYN,2003-06-28 16:00,ZBYN 281600Z 01002MPS CAVOK 20/07 Q1008 NOSIG
ZBYN,2003-06-28 17:00,ZBYN 281700Z 01002MPS CAVOK 21/06 Q1008
ZBYN,2003-06-28 18:00,ZBYN 281800Z 05004MPS CAVOK 22/03 Q1008
ZBYN,2003-06-28 19:00,ZBYN 281900Z 06003MPS CAVOK 21/04 Q1008
ZBYN,2003-06-28 20:00,ZBYN 282000Z 05003MPS CAVOK 21/03 Q1009
ZBYN,2003-06-28 21:00,ZBYN 282100Z 01004MPS 9999 -SHRA SCT040 OVC100 21/04 Q1009
ZBYN,2003-06-28 22:00,ZBYN 282200Z 35003MPS 9999 SCT040 OVC100 20/07 Q1010 NOSIG
ZBYN,2003-06-28 23:00,ZBYN 282300Z 30002MPS CAVOK 20/07 Q1010 NOSIG
ZBYN,2003-06-29 00:00,ZBYN 290000Z 01002MPS CAVOK 20/08 Q1010 NOSIG
ZBYN,2003-06-29 01:00,ZBYN 290100Z 36003MPS CAVOK 21/09 Q1010 NOSIG
ZBYN,2003-06-29 02:00,ZBYN 290200Z 05004MPS CAVOK 23/08 Q1010 NOSIG
ZBYN,2003-06-29 03:00,ZBYN 290300Z 09004MPS CAVOK 24/07 Q1010 NOSIG
ZBYN,2003-06-29 04:00,ZBYN 290400Z 06004MPS CAVOK 25/07 Q1009 NOSIG
ZBYN,2003-06-29 05:00,ZBYN 290500Z 09002MPS CAVOK 25/07 Q1009 NOSIG
ZBYN,2003-06-29 06:00,ZBYN 290600Z 11002MPS 9999 SCT040 OVC100 25/06 Q1009 NOSIG
ZBYN,2003-06-29 07:00,ZBYN 290700Z 11005MPS 9999 SCT040 OVC100 24/10 Q1008 NOSIG
ZBYN,2003-06-29 08:00,ZBYN 290800Z 10007MPS CAVOK 24/11 Q1008 NOSIG
ZBYN,2003-06-29 09:00,ZBYN 290900Z 12003MPS CAVOK 24/12 Q1007 NOSIG
ZBYN,2003-06-29 10:00,ZBYN 291000Z 10004MPS CAVOK 24/10 Q1007 NOSIG
ZBYN,2003-06-29 11:00,ZBYN 291100Z 10005MPS CAVOK 23/10 Q1008 NOSIG
ZBYN,2003-06-29 12:00,ZBYN 291200Z 11004MPS CAVOK 21/09 Q1008 NOSIG
ZBYN,2003-06-29 13:00,ZBYN 291300Z 08004MPS CAVOK 21/09 Q1009 NOSIG
ZBYN,2003-06-29 14:00,ZBYN 291400Z 08003MPS 9999 -RA NSC 21/09 Q1009 NOSIG
ZBYN,2003-06-29 15:00,ZBYN 291500Z 09001MPS 9999 -RA NSC 19/11 Q1010 NOSIG
ZBYN,2003-06-29 16:00,ZBYN 291600Z 11002MPS 9999 -RA NSC 17/13 Q1010 NOSIG
ZBYN,2003-06-29 17:00,ZBYN 291700Z 07003MPS 9999 -RA NSC 17/13 Q1010
ZBYN,2003-06-29 18:00,ZBYN 291800Z AUTO 14002KT 6SM 17/15 A2982 RMK 60004 SLP072 T01740149 57005 IEM_DS3505
ZBYN,2003-06-29 19:00,ZBYN 291900Z 11001MPS 9999 -RA NSC 15/14 Q1009
ZBYN,2003-06-29 20:00,ZBYN 292000Z 13002MPS 5000 -RA BR BKN040 OVC100 15/14 Q1009
ZBYN,2003-06-29 21:00,ZBYN 292100Z 11001MPS 5000 -RA BR BKN040 OVC100 15/14 Q1009 NOSIG
ZBYN,2003-06-29 22:00,ZBYN 292200Z 00000MPS 4000 -RA BR NSC 16/14 Q1009 NOSIG
ZBYN,2003-06-29 23:00,ZBYN 292300Z 00000MPS 2000 RA BR BKN040 OVC100 16/14 Q1009 NOSIG
ZBYN,2003-06-30 00:00,ZBYN 300000Z 00000MPS 2500 -RA BR BKN040 OVC100 16/14 Q1009 NOSIG
ZBYN,2003-06-30 01:00,ZBYN 300100Z 13001MPS 5000 -RA BR BKN046 OVC100 16/14 Q1009 NOSIG
ZBYN,2003-06-30 02:00,ZBYN 300200Z 08001MPS 7000 -RA SCT016 BKN046 OVC100 17/14 Q1009 NOSIG
ZBYN,2003-06-30 03:00,ZBYN 300300Z 00000MPS 7000 -RA SCT016 BKN050 OVC100 17/14 Q1009 NOSIG
ZBYN,2003-06-30 04:00,ZBYN 300400Z 05001MPS 6000 NSC 18/15 Q1009 NOSIG
ZBYN,2003-06-30 05:00,ZBYN 300500Z 11002MPS CAVOK 19/14 Q1009 NOSIG
ZBYN,2003-06-30 06:00,ZBYN 300600Z 18001MPS 9999 -RA NSC 19/15 Q1009 NOSIG
ZBYN,2003-06-30 07:00,ZBYN 300700Z 11001MPS 9999 -RA NSC 19/15 Q1008 NOSIG
ZBYN,2003-06-30 08:00,ZBYN 300800Z 00000MPS 9999 -RA NSC 19/14 Q1008 NOSIG
ZBYN,2003-06-30 09:00,ZBYN 300900Z 32001MPS 9999 -RA BKN030 OVC050 18/15 Q1009 NOSIG
ZBYN,2003-06-30 10:00,ZBYN 301000Z 02001MPS 7000 -RA BKN023 OVC050 18/15 Q1009 NOSIG
ZBYN,2003-06-30 11:00,ZBYN 301100Z 08002MPS 9999 -RA NSC 17/14 Q1009 NOSIG
ZBYN,2003-06-30 12:00,ZBYN 301200Z 03001MPS CAVOK 17/15 Q1010 NOSIG
ZBYN,2003-06-30 13:00,ZBYN 301300Z 03001MPS CAVOK 17/15 Q1010 NOSIG
ZBYN,2003-06-30 14:00,ZBYN 301400Z 02001MPS CAVOK 17/15 Q1010 NOSIG
ZBYN,2003-06-30 15:00,ZBYN 301500Z 13001MPS 7000 NSC 15/14 Q1010 NOSIG
ZBYN,2003-06-30 16:00,ZBYN 301600Z 00000MPS CAVOK 15/13 Q1010 NOSIG
ZBYN,2003-06-30 17:00,ZBYN 301700Z 00000MPS CAVOK 15/13 Q1010
ZBYN,2003-06-30 18:00,ZBYN 301800Z 03001MPS CAVOK 14/13 Q1010
ZBYN,2003-06-30 19:00,ZBYN 301900Z 11001MPS CAVOK 14/13 Q1010
ZBYN,2003-06-30 20:00,ZBYN 302000Z 13001MPS 5000 BR SKC 13/12 Q1010
ZBYN,2003-06-30 21:00,ZBYN 302100Z 11001MPS 5000 BR NSC 13/12 Q1011
ZBYN,2003-06-30 22:00,ZBYN 302200Z 05001MPS 6000 NSC 13/12 Q1011 NOSIG
ZBYN,2003-06-30 23:00,ZBYN 302300Z 12001MPS 4000 BR NSC 14/13 Q1011 NOSIG
ZBYN,2003-07-01 00:00,ZBYN 010000Z 14001MPS 4000 BR NSC 16/14 Q1011 NOSIG
ZBYN,2003-07-01 01:00,ZBYN 010100Z 10001MPS 4000 BR NSC 18/14 Q1011 NOSIG
ZBYN,2003-07-01 02:00,ZBYN 010200Z 00000MPS 6000 NSC 19/14 Q1011 NOSIG
ZBYN,2003-07-01 03:00,ZBYN 010300Z 13001MPS 8000 NSC 19/14 Q1011 NOSIG
ZBYN,2003-07-01 04:00,ZBYN 010400Z 00000MPS 8000 NSC 20/14 Q1011 NOSIG
ZBYN,2003-07-01 05:00,ZBYN 010500Z VRB01MPS CAVOK 21/14 Q1010 NOSIG
ZBYN,2003-07-01 06:00,ZBYN 010600Z VRB01MPS CAVOK 23/14 Q1010 NOSIG
ZBYN,2003-07-01 07:00,ZBYN 010700Z VRB01MPS CAVOK 23/13 Q1009 NOSIG
ZBYN,2003-07-01 08:00,ZBYN 010800Z 18001MPS CAVOK 23/13 Q1009 NOSIG
ZBYN,2003-07-01 09:00,ZBYN 010900Z 22001MPS CAVOK 22/15 Q1009 NOSIG
ZBYN,2003-07-01 10:00,ZBYN 011000Z 26001MPS 9999 SCT033 OVC100 22/16 Q1009 NOSIG
ZBYN,2003-07-01 11:00,ZBYN 011100Z 00000MPS CAVOK 21/16 Q1009 NOSIG
ZBYN,2003-07-01 12:00,ZBYN 011200Z 21001MPS CAVOK 21/16 Q1010 NOSIG
ZBYN,2003-07-01 13:00,ZBYN 011300Z 13001MPS CAVOK 20/17 Q1010 NOSIG
ZBYN,2003-07-01 14:00,ZBYN 011400Z 13001MPS 8000 -RA FEW030 BKN050 OVC100 19/17 Q1010 NOSIG
ZBYN,2003-07-01 15:00,ZBYN 011500Z 09001MPS 8000 -RA BKN033 OVC100 19/16 Q1010 NOSIG
ZBYN,2003-07-01 16:00,ZBYN 011600Z 12002MPS 6000 -RA BKN033 OVC100 19/16 Q1010 NOSIG
ZBYN,2003-07-01 17:00,ZBYN 011700Z 13001MPS 6000 -RA SCT033 OVC100 18/16 Q1010
ZBYN,2003-07-01 18:00,ZBYN 011800Z 09001MPS 4000 BR SCT033 OVC100 18/16 Q1010
ZBYN,2003-07-01 19:00,ZBYN 011900Z 11002MPS 3000 BR FEW033 OVC100 18/16 Q1009
ZBYN,2003-07-01 20:00,ZBYN 012000Z 14001MPS 3000 BR FEW033 OVC100 18/16 Q1009
ZBYN,2003-07-01 21:00,ZBYN 012100Z 14001MPS 2500 BR FEW033 OVC100 18/16 Q1009
ZBYN,2003-07-01 22:00,ZBYN 012200Z 00000MPS 1400 R31/1000N BR NSC 18/16 Q1009 NOSIG
ZBYN,2003-07-01 23:00,ZBYN 012300Z 20001MPS 0700 R31/1000N FG NSC 18/16 Q1010 NOSIG
ZBYN,2003-07-02 00:00,ZBYN 020000Z 22001MPS 1000 BR NSC 17/16 Q1010 NOSIG
ZBYN,2003-07-02 01:00,ZBYN 020100Z 20002MPS 1000 R31/1200U BR OVC100 18/16 Q1010 NOSIG
ZBYN,2003-07-02 02:00,ZBYN 020200Z 19002MPS 1300 R31/1300U BR NSC 18/16 Q1010 NOSIG
ZBYN,2003-07-02 03:00,ZBYN 020300Z 20001MPS 1700 BR NSC 20/16 Q1010 NOSIG
ZBYN,2003-07-02 04:00,ZBYN 020400Z 20001MPS 4000 BR NSC 22/16 Q1009 NOSIG
ZBYN,2003-07-02 05:00,ZBYN 020500Z 23002MPS 6000 NSC 23/16 Q1008 NOSIG
ZBYN,2003-07-02 06:00,ZBYN 020600Z 20002MPS 6000 SCT040 24/16 Q1008 NOSIG
ZBYN,2003-07-02 07:00,ZBYN 020700Z 19002MPS 6000 NSC 25/16 Q1007 NOSIG
ZBYN,2003-07-02 08:00,ZBYN 020800Z 20002MPS 6000 SKC 26/16 Q1006 NOSIG
ZBYN,2003-07-02 09:00,ZBYN 020900Z 22002MPS 7000 SKC 26/15 Q1006 NOSIG
ZBYN,2003-07-02 10:00,ZBYN 021000Z 22002MPS CAVOK 25/15 Q1005 NOSIG
ZBYN,2003-07-02 11:00,ZBYN 021100Z 18001MPS CAVOK 25/16 Q1006 NOSIG
ZBYN,2003-07-02 12:00,ZBYN 021200Z 19001MPS CAVOK 23/16 Q1006 NOSIG
ZBYN,2003-07-02 13:00,ZBYN 021300Z 21002MPS CAVOK 23/16 Q1007 NOSIG
ZBYN,2003-07-02 14:00,ZBYN 021400Z 20002MPS CAVOK 22/15 Q1007 NOSIG
ZBYN,2003-07-02 15:00,ZBYN 021500Z 16002MPS CAVOK 21/15 Q1008 NOSIG
ZBYN,2003-07-02 16:00,ZBYN 021600Z 11003MPS CAVOK 20/16 Q1008 NOSIG
ZBYN,2003-07-02 17:00,ZBYN 021700Z 13003MPS 5000 BR NSC 20/16 Q1007 NOSIG
ZBYN,2003-07-02 18:00,ZBYN 021800Z 14001MPS 4000 BR NSC 19/16 Q1007
ZBYN,2003-07-02 19:00,ZBYN 021900Z 14001MPS 3000 BR NSC 19/16 Q1007 NOSIG
ZBYN,2003-07-02 20:00,ZBYN 022000Z 18001MPS 3000 BR NSC 19/16 Q1007
ZBYN,2003-07-02 21:00,ZBYN 022100Z 13002MPS 2000 BR NSC 17/15 Q1007
ZBYN,2003-07-02 22:00,ZBYN 022200Z 13002MPS 1400 R31/1300N BR NSC 17/16 Q1007 NOSIG
ZBYN,2003-07-02 23:00,ZBYN 022300Z 14002MPS 1200 R31/1200N BR NSC 18/17 Q1008 NOSIG
ZBYN,2003-07-03 00:00,ZBYN 030000Z 19002MPS 1300 R31/P1500 BR NSC 20/17 Q1007 NOSIG
ZBYN,2003-07-03 01:00,ZBYN 030100Z 20002MPS 1600 BR NSC 21/17 Q1007 NOSIG
ZBYN,2003-07-03 02:00,ZBYN 030200Z 23001MPS 1700 BR NSC 22/17 Q1007 NOSIG
ZBYN,2003-07-03 03:00,ZBYN 030300Z 18001MPS 2000 BR NSC 24/18 Q1006 NOSIG
ZBYN,2003-07-03 04:00,ZBYN 030400Z 19001MPS 2500 BR NSC 25/17 Q1006 NOSIG
ZBYN,2003-07-03 05:00,ZBYN 030500Z 21001MPS 5000 FU NSC 26/18 Q1006 NOSIG
ZBYN,2003-07-03 06:00,ZBYN 030600Z 00000MPS 4000 FU NSC 26/18 Q1005 NOSIG
ZBYN,2003-07-03 07:00,ZBYN 030700Z 21002MPS 5000 FU FEW033TCU SCT100 OVC200 26/17 Q1005 NOSIG
ZBYN,2003-07-03 08:00,ZBYN 030800Z 15004MPS 9999 -TS SCT033CB BKN060 23/12 Q1005 NOSIG
ZBYN,2003-07-03 09:00,ZBYN 030900Z VRB01MPS CAVOK 23/15 Q1005 NOSIG
ZBYN,2003-07-03 10:00,ZBYN 031000Z 18001MPS CAVOK 23/15 Q1004 NOSIG
ZBYN,2003-07-03 11:00,ZBYN 031100Z 00000MPS CAVOK 23/16 Q1005 NOSIG
ZBYN,2003-07-03 12:00,ZBYN 031200Z VRB01MPS CAVOK 22/17 Q1005 NOSIG
ZBYN,2003-07-03 13:00,ZBYN 031300Z 11002MPS CAVOK 20/17 Q1005 NOSIG
ZBYN,2003-07-03 14:00,ZBYN 031400Z 14002MPS CAVOK 21/16 Q1005 NOSIG
ZBYN,2003-07-03 15:00,ZBYN 031500Z 15001MPS 8000 NSC 21/16 Q1005 NOSIG
ZBYN,2003-07-03 16:00,ZBYN 031600Z 12002MPS 5000 BR SKC 19/16 Q1005 NOSIG
ZBYN,2003-07-03 17:00,ZBYN 031700Z 12002MPS 3000 BR SKC 18/16 Q1005
ZBYN,2003-07-03 18:00,ZBYN 031800Z 13002MPS 1600 R31/1100 BR SKC 18/16 Q1005
ZBYN,2003-07-03 19:00,ZBYN 031900Z 13003MPS 1400 R31/1100 BR SKC 18/17 Q1005
ZBYN,2003-07-03 20:00,ZBYN 032000Z 13002MPS 1100 R31/0600 BR SKC 18/17 Q1005
ZBYN,2003-07-03 21:00,ZBYN 032100Z 13003MPS 1100 R31/1000 BR SKC 18/17 Q1005 NOSIG
ZBYN,2003-07-03 22:00,ZBYN 032200Z 13002MPS 0500 R31/0500 FG SKC 18/17 Q1006 NOSIG
ZBYN,2003-07-03 23:00,ZBYN 032300Z 14002MPS 0500 R31/0900 FG SKC 19/17 Q1006 NOSIG
ZBYN,2003-07-04 00:00,ZBYN 040000Z 12003MPS 0800 R31/1200 FG SKC 20/18 Q1006 NOSIG
ZBYN,2003-07-04 01:00,ZBYN 040100Z 17002MPS 1200 R31/P1500 BR SKC 21/18 Q1006 NOSIG
ZBYN,2003-07-04 02:00,ZBYN 040200Z 18001MPS 1400 R31/P1500 BR SKC 22/18 Q1005 NOSIG
ZBYN,2003-07-04 03:00,ZBYN 040300Z VRB01MPS 2000 BR SKC 24/18 Q1005 NOSIG
ZBYN,2003-07-04 04:00,ZBYN 040400Z 19003MPS 2000 BR SKC 27/18 Q1005 NOSIG
ZBYN,2003-07-04 05:00,ZBYN 040500Z 20002MPS 7000 NSC 28/17 Q1004 NOSIG
ZBYN,2003-07-04 06:00,ZBYN 040600Z 19002MPS 9999 FEW033 SCT200 29/16 Q1003 NOSIG
ZBYN,2003-07-04 07:00,ZBYN 040700Z 22001MPS 9999 FEW033TCU FEW033 31/15 Q1003 NOSIG
ZBYN,2003-07-04 08:00,ZBYN 040800Z 22001MPS 9999 FEW033TCU FEW033 31/12 Q1002 NOSIG
ZBYN,2003-07-04 09:00,ZBYN 040900Z 22001MPS 9999 FEW033CB FEW033 30/13 Q1002 NOSIG
ZBYN,2003-07-04 10:00,ZBYN 041000Z 19001MPS 9999 FEW033TCU FEW033 31/11 Q1002 NOSIG
ZBYN,2003-07-04 11:00,ZBYN 041100Z 11003MPS 9999 FEW033TCU FEW033 28/10 Q1003 NOSIG
ZBYN,2003-07-04 12:00,ZBYN 041200Z 06003MPS 9999 FEW033TCU 26/10 Q1004 NOSIG
ZBYN,2003-07-04 13:00,ZBYN 041300Z 10002MPS CAVOK 23/12 Q1004 NOSIG
ZBYN,2003-07-04 14:00,ZBYN 041400Z VRB01MPS CAVOK 23/12 Q1006 NOSIG
ZBYN,2003-07-04 15:00,ZBYN 041500Z 00000MPS CAVOK 21/13 Q1006 NOSIG
ZBYN,2003-07-04 16:00,ZBYN 041600Z 14001MPS CAVOK 19/13 Q1006 NOSIG
ZBYN,2003-07-04 17:00,ZBYN 041700Z 00000MPS CAVOK 18/13 Q1006
ZBYN,2003-07-04 18:00,ZBYN 041800Z 00000MPS CAVOK 18/12 Q1007
ZBYN,2003-07-04 19:00,ZBYN 041900Z 12002MPS CAVOK 16/12 Q1007
ZBYN,2003-07-04 20:00,ZBYN 042000Z 00000MPS CAVOK 17/11 Q1007
ZBYN,2003-07-04 21:00,ZBYN 042100Z 16001MPS CAVOK 15/11 Q1007
ZBYN,2003-07-04 22:00,ZBYN 042200Z 11002MPS CAVOK 15/11 Q1008 NOSIG
ZBYN,2003-07-04 23:00,ZBYN 042300Z 01002MPS CAVOK 19/13 Q1008 NOSIG
ZBYN,2003-07-05 00:00,ZBYN 050000Z 36003MPS CAVOK 23/12 Q1009 NOSIG
ZBYN,2003-07-05 01:00,ZBYN 050100Z 04004MPS CAVOK 24/13 Q1009 NOSIG
ZBYN,2003-07-05 02:00,ZBYN 050200Z 05004MPS CAVOK 25/13 Q1009 NOSIG
ZBYN,2003-07-05 03:00,ZBYN 050300Z 05004MPS CAVOK 26/14 Q1009 NOSIG
ZBYN,2003-07-05 04:00,ZBYN 050400Z 04004MPS CAVOK 26/13 Q1009 NOSIG
ZBYN,2003-07-05 05:00,ZBYN 050500Z 35007MPS CAVOK 26/11 Q1008 NOSIG
ZBYN,2003-07-05 06:00,ZBYN 050600Z 34007MPS 9999 -TSRA FEW040CB BKN040 23/12 Q1009 NOSIG
ZBYN,2003-07-05 07:00,ZBYN 050700Z 31006MPS CAVOK 21/12 Q1010 NOSIG
ZBYN,2003-07-05 08:00,ZBYN 050800Z 07004MPS CAVOK 20/15 Q1009 NOSIG
ZBYN,2003-07-05 09:00,ZBYN 050900Z 12004MPS CAVOK 21/15 Q1009 NOSIG
ZBYN,2003-07-05 10:00,ZBYN 051000Z 09006MPS CAVOK 20/13 Q1009 NOSIG
ZBYN,2003-07-05 11:00,ZBYN 051100Z 12004MPS 9999 SCT040 BKN100 20/14 Q1010 NOSIG
ZBYN,2003-07-05 12:00,ZBYN 051200Z 09004MPS 9999 -SHRA FEW040CB BKN040 19/14 Q1010 NOSIG
ZBYN,2003-07-05 13:00,ZBYN 051300Z 09003MPS 9999 -SHRA OVC040 18/14 Q1010 NOSIG
ZBYN,2003-07-05 14:00,ZBYN 051400Z 10003MPS 9999 SCT040 OVC100 18/13 Q1011 NOSIG
ZBYN,2003-07-05 15:00,ZBYN 051500Z 04002MPS CAVOK 18/13 Q1011 NOSIG
ZBYN,2003-07-05 16:00,ZBYN 051600Z 08001MPS CAVOK 16/12 Q1010 NOSIG
ZBYN,2003-07-05 17:00,ZBYN 051700Z 13001MPS CAVOK 14/12 Q1010
ZBYN,2003-07-05 18:00,ZBYN 051800Z 00000MPS CAVOK 14/12 Q1009
ZBYN,2003-07-05 19:00,ZBYN 051900Z 11001MPS CAVOK 14/12 Q1009
ZBYN,2003-07-05 20:00,ZBYN 052000Z VRB01MPS CAVOK 13/11 Q1009
ZBYN,2003-07-05 21:00,ZBYN 052100Z 00000MPS CAVOK 13/11 Q1009 NOSIG
ZBYN,2003-07-05 22:00,ZBYN 052200Z 13001MPS 7000 SKC 12/11 Q1009 NOSIG
ZBYN,2003-07-05 23:00,ZBYN 052300Z 06001MPS 6000 SKC 15/12 Q1010 NOSIG
ZBYN,2003-07-06 00:00,ZBYN 060000Z 06001MPS 6000 SKC 17/13 Q1010 NOSIG
ZBYN,2003-07-06 01:00,ZBYN 060100Z VRB01MPS 7000 SKC 19/12 Q1010 NOSIG
ZBYN,2003-07-06 02:00,ZBYN 060200Z 12002MPS CAVOK 21/13 Q1010 NOSIG
ZBYN,2003-07-06 03:00,ZBYN 060300Z 14002MPS CAVOK 22/13 Q1010 NOSIG
ZBYN,2003-07-06 04:00,ZBYN 060400Z 19002MPS CAVOK 24/13 Q1009 NOSIG
ZBYN,2003-07-06 05:00,ZBYN 060500Z 17002MPS 9999 FEW030 SCT200 25/11 Q1008 NOSIG
ZBYN,2003-07-06 06:00,ZBYN 060600Z VRB01MPS 9999 -TS SCT030CB SCT030 24/08 Q1008 NOSIG
ZBYN,2003-07-06 07:00,ZBYN 060700Z 33002MPS 9999 FEW030 24/13 Q1007 NOSIG
ZBYN,2003-07-06 08:00,ZBYN 060800Z VRB01MPS CAVOK 25/10 Q1006 NOSIG
ZBYN,2003-07-06 09:00,ZBYN 060900Z 31002MPS 9999 SCT040 25/09 Q1006 NOSIG
ZBYN,2003-07-06 10:00,ZBYN 061000Z 29001MPS 9999 FEW040 25/11 Q1006 NOSIG
ZBYN,2003-07-06 11:00,ZBYN 061100Z 09004MPS CAVOK 24/14 Q1006 NOSIG
ZBYN,2003-07-06 12:00,ZBYN 061200Z 08004MPS CAVOK 22/14 Q1006 NOSIG
ZBYN,2003-07-06 13:00,ZBYN 061300Z 07005MPS 9999 -TS FEW040CB 21/14 Q1007 NOSIG
ZBYN,2003-07-06 14:00,ZBYN 061400Z 05004MPS 8000 FEW040CB BKN060 20/15 Q1008 NOSIG
ZBYN,2003-07-06 15:00,ZBYN 061500Z 04002MPS 9999 FEW030CB SCT030 20/13 Q1008 NOSIG
ZBYN,2003-07-06 16:00,ZBYN 061600Z VRB01MPS CAVOK 17/11 Q1008 NOSIG
ZBYN,2003-07-06 17:00,ZBYN 061700Z 10002MPS 9999 -TSRA FEW040CB BKN040 17/11 Q1008
ZBYN,2003-07-06 18:00,ZBYN 061800Z 09002MPS 9999 -TS FEW040CB BKN040 17/12 Q1008
ZBYN,2003-07-06 19:00,ZBYN 061900Z 11002MPS CAVOK 16/13 Q1008
ZBYN,2003-07-06 20:00,ZBYN 062000Z 07002MPS CAVOK 16/13 Q1007
ZBYN,2003-07-06 21:00,ZBYN 062100Z 36003MPS 5000 BR NSC 16/13 Q1007 NOSIG
ZBYN,2003-07-06 22:00,ZBYN 062200Z VRB01MPS 4000 BR NSC 15/13 Q1008 NOSIG
ZBYN,2003-07-06 23:00,ZBYN 062300Z 00000MPS 3000 BR NSC 17/12 Q1007 NOSIG
ZBYN,2003-07-07 00:00,ZBYN 070000Z 00000MPS 3000 BR NSC 18/13 Q1008 NOSIG
ZBYN,2003-07-07 01:00,ZBYN 070100Z VRB01MPS 4000 BR FEW033CB BKN090 18/13 Q1008 NOSIG
ZBYN,2003-07-07 02:00,ZBYN 070200Z 33002MPS 6000 SCT033CB BKN060 18/13 Q1008 NOSIG
ZBYN,2003-07-07 03:00,ZBYN 070300Z VRB01MPS 1800 R31/1400 -TSRA FEW030CB BKN060 16/15 Q1008 RERA NOSIG
ZBYN,2003-07-07 05:00,ZBYN 070500Z VRB01MPS 7000 NSC 21/15 Q1006 NOSIG
ZBYN,2003-07-07 06:00,ZBYN 070600Z VRB01MPS 8000 NSC 23/15 Q1006 NOSIG
ZBYN,2003-07-07 07:00,ZBYN 070700Z 18002MPS CAVOK 24/14 Q1005 NOSIG
ZBYN,2003-07-07 08:00,ZBYN 070800Z 20002MPS CAVOK 25/14 Q1005 NOSIG
ZBYN,2003-07-07 09:00,ZBYN 070900Z 23001MPS 8000 FEW033 BKN200 24/15 Q1005 NOSIG
ZBYN,2003-07-07 10:00,ZBYN 071000Z 31003MPS 8000 FEW033TCU BKN200 24/16 Q1005 NOSIG
ZBYN,2003-07-07 11:00,ZBYN 071100Z 30004MPS 9999 FEW033TCU BKN200 24/08 Q1006 NOSIG
ZBYN,2003-07-07 12:00,ZBYN 071200Z 30002MPS CAVOK 22/10 Q1006 NOSIG
ZBYN,2003-07-07 13:00,ZBYN 071300Z 35001MPS CAVOK 20/14 Q1008 NOSIG
ZBYN,2003-07-07 14:00,ZBYN 071400Z VRB01MPS CAVOK 18/14 Q1009 NOSIG
ZBYN,2003-07-07 15:00,ZBYN 071500Z 00000MPS CAVOK 18/12 Q1009 NOSIG
ZBYN,2003-07-07 16:00,ZBYN 071600Z 01001MPS CAVOK 17/13 Q1009 NOSIG
ZBYN,2003-07-07 17:00,ZBYN 071700Z 08001MPS CAVOK 15/12 Q1009
ZBYN,2003-07-07 18:00,ZBYN 071800Z 31001MPS CAVOK 16/11 Q1009
ZBYN,2003-07-07 19:00,ZBYN 071900Z 36002MPS CAVOK 15/10 Q1008
ZBYN,2003-07-07 20:00,ZBYN 072000Z VRB01MPS CAVOK 15/10 Q1008
ZBYN,2003-07-07 21:00,ZBYN 072100Z 00000MPS 8000 NSC 13/10 Q1008
ZBYN,2003-07-07 22:00,ZBYN 072200Z 27001MPS 7000 NSC 13/09 Q1009 NOSIG
ZBYN,2003-07-07 23:00,ZBYN 072300Z 00000MPS CAVOK 15/10 Q1009 NOSIG
ZBYN,2003-07-08 00:00,ZBYN 080000Z 34004MPS CAVOK 18/07 Q1009 NOSIG
ZBYN,2003-07-08 01:00,ZBYN 080100Z 36004MPS CAVOK 20/06 Q1010 NOSIG
ZBYN,2003-07-08 02:00,ZBYN 080200Z 36005MPS CAVOK 21/06 Q1010 NOSIG
ZBYN,2003-07-08 03:00,ZBYN 080300Z 01004MPS CAVOK 23/04 Q1009 NOSIG
ZBYN,2003-07-08 04:00,ZBYN 080400Z 36004MPS CAVOK 24/04 Q1009 NOSIG
ZBYN,2003-07-08 05:00,ZBYN 080500Z 01005MPS CAVOK 25/03 Q1009 NOSIG
ZBYN,2003-07-08 06:00,ZBYN 080600Z 36005MPS CAVOK 25/03 Q1008 NOSIG
ZBYN,2003-07-08 07:00,ZBYN 080700Z 02006MPS CAVOK 26/03 Q1008 NOSIG
ZBYN,2003-07-08 08:00,ZBYN 080800Z 03007MPS CAVOK 26/03 Q1007 NOSIG
ZBYN,2003-07-08 09:00,ZBYN 080900Z 04007MPS CAVOK 26/02 Q1007 NOSIG
ZBYN,2003-07-08 10:00,ZBYN 081000Z 03007MPS CAVOK 26/01 Q1007 NOSIG
ZBYN,2003-07-08 11:00,ZBYN 081100Z 03003MPS CAVOK 24/03 Q1007 NOSIG
ZBYN,2003-07-08 12:00,ZBYN 081200Z 08001MPS CAVOK 22/04 Q1008 NOSIG
ZBYN,2003-07-08 13:00,ZBYN 081300Z VRB01MPS CAVOK 19/06 Q1008 NOSIG
ZBYN,2003-07-08 14:00,ZBYN 081400Z 12001MPS CAVOK 17/08 Q1009 NOSIG
ZBYN,2003-07-08 15:00,ZBYN 081500Z 00000MPS CAVOK 16/09 Q1009 NOSIG
ZBYN,2003-07-08 16:00,ZBYN 081600Z 10001MPS CAVOK 14/09 Q1009 NOSIG
ZBYN,2003-07-08 17:00,ZBYN 081700Z VRB01MPS CAVOK 14/08 Q1009
ZBYN,2003-07-08 18:00,ZBYN 081800Z 12001MPS CAVOK 13/09 Q1009
ZBYN,2003-07-08 19:00,ZBYN 081900Z 12002MPS CAVOK 12/09 Q1009
ZBYN,2003-07-08 20:00,ZBYN 082000Z 11001MPS CAVOK 10/08 Q1009
ZBYN,2003-07-08 21:00,ZBYN 082100Z 14001MPS CAVOK 11/08 Q1009
ZBYN,2003-07-08 22:00,ZBYN 082200Z 12001MPS CAVOK 10/08 Q1010 NOSIG
ZBYN,2003-07-08 23:00,ZBYN 082300Z 12001MPS 7000 NSC 13/11 Q1010 NOSIG
ZBYN,2003-07-09 00:00,ZBYN 090000Z 11001MPS 7000 NSC 16/11 Q1011 NOSIG
ZBYN,2003-07-09 01:00,ZBYN 090100Z 00000MPS 8000 NSC 18/09 Q1010 NOSIG
ZBYN,2003-07-09 02:00,ZBYN 090200Z VRB01MPS 8000 NSC 21/09 Q1011 NOSIG
ZBYN,2003-07-09 03:00,ZBYN 090300Z 25001MPS 8000 NSC 23/07 Q1010 NOSIG
ZBYN,2003-07-09 04:00,ZBYN 090400Z VRB01MPS 8000 NSC 24/08 Q1010 NOSIG
ZBYN,2003-07-09 05:00,ZBYN 090500Z 19002MPS CAVOK 26/05 Q1009 NOSIG
ZBYN,2003-07-09 06:00,ZBYN 090600Z VRB01MPS CAVOK 26/02 Q1009 NOSIG
ZBYN,2003-07-09 07:00,ZBYN 090700Z 15002MPS CAVOK 27/05 Q1008 NOSIG
ZBYN,2003-07-09 08:00,ZBYN 090800Z 14002MPS CAVOK 27/05 Q1007 NOSIG
ZBYN,2003-07-09 09:00,ZBYN 090900Z 18001MPS CAVOK 27/04 Q1007 NOSIG
ZBYN,2003-07-09 10:00,ZBYN 091000Z 20001MPS CAVOK 27/03 Q1007 NOSIG
ZBYN,2003-07-09 11:00,ZBYN 091100Z 18001MPS CAVOK 26/05 Q1007 NOSIG
ZBYN,2003-07-09 12:00,ZBYN 091200Z 00000MPS CAVOK 21/11 Q1007 NOSIG
ZBYN,2003-07-09 13:00,ZBYN 091300Z 12002MPS CAVOK 18/10 Q1008 NOSIG
ZBYN,2003-07-09 14:00,ZBYN 091400Z 10002MPS CAVOK 18/10 Q1008 NOSIG
ZBYN,2003-07-09 15:00,ZBYN 091500Z 04001MPS CAVOK 19/09 Q1009 NOSIG
ZBYN,2003-07-09 16:00,ZBYN 091600Z 00000MPS CAVOK 18/09 Q1009 NOSIG
ZBYN,2003-07-09 17:00,ZBYN 091700Z 14001MPS CAVOK 17/09 Q1009
ZBYN,2003-07-09 18:00,ZBYN 091800Z 12002MPS CAVOK 14/10 Q1009
ZBYN,2003-07-09 19:00,ZBYN 091900Z 12003MPS CAVOK 14/10 Q1008
ZBYN,2003-07-09 20:00,ZBYN 092000Z 00000MPS CAVOK 15/09 Q1008
ZBYN,2003-07-09 21:00,ZBYN 092100Z 09001MPS CAVOK 15/10 Q1008
ZBYN,2003-07-09 22:00,ZBYN 092200Z 10001MPS CAVOK 13/10 Q1009 NOSIG
ZBYN,2003-07-09 23:00,ZBYN 092300Z 14001MPS 6000 NSC 16/11 Q1009 NOSIG
ZBYN,2003-07-10 00:00,ZBYN 100000Z 00000MPS 6000 NSC 19/11 Q1009 NOSIG
ZBYN,2003-07-10 01:00,ZBYN 100100Z VRB01MPS 4000 HZ NSC 21/10 Q1009 NOSIG
ZBYN,2003-07-10 02:00,ZBYN 100200Z VRB01MPS 6000 NSC 22/08 Q1009 NOSIG
ZBYN,2003-07-10 03:00,ZBYN 100300Z VRB01MPS 8000 NSC 24/09 Q1009 NOSIG
ZBYN,2003-07-10 04:00,ZBYN 100400Z VRB01MPS CAVOK 25/07 Q1008 NOSIG
ZBYN,2003-07-10 05:00,ZBYN 100500Z 22001MPS CAVOK 27/06 Q1007 NOSIG
ZBYN,2003-07-10 06:00,ZBYN 100600Z 14002MPS CAVOK 28/04 Q1007 NOSIG
ZBYN,2003-07-10 07:00,ZBYN 100700Z VRB01MPS CAVOK 28/06 Q1006 NOSIG
ZBYN,2003-07-10 08:00,ZBYN 100800Z VRB01MPS CAVOK 29/07 Q1006 NOSIG
ZBYN,2003-07-10 09:00,ZBYN 100900Z 24001MPS CAVOK 28/06 Q1005 NOSIG
ZBYN,2003-07-10 10:00,ZBYN 101000Z 12002MPS CAVOK 28/09 Q1005 NOSIG
ZBYN,2003-07-10 11:00,ZBYN 101100Z 08003MPS CAVOK 27/07 Q1005 NOSIG
ZBYN,2003-07-10 12:00,ZBYN 101200Z 08003MPS CAVOK 26/09 Q1005 NOSIG
ZBYN,2003-07-10 13:00,ZBYN 101300Z 10002MPS CAVOK 23/11 Q1007 NOSIG
ZBYN,2003-07-10 14:00,ZBYN 101400Z 10001MPS CAVOK 20/11 Q1008 NOSIG
ZBYN,2003-07-10 15:00,ZBYN 101500Z 08001MPS CAVOK 20/12 Q1008 NOSIG
ZBYN,2003-07-10 16:00,ZBYN 101600Z 13001MPS CAVOK 19/12 Q1008 NOSIG
ZBYN,2003-07-10 17:00,ZBYN 101700Z 10002MPS CAVOK 16/13 Q1008
ZBYN,2003-07-10 18:00,ZBYN 101800Z 11002MPS CAVOK 16/12 Q1008
ZBYN,2003-07-10 19:00,ZBYN 101900Z 00000MPS CAVOK 17/12 Q1008
ZBYN,2003-07-10 20:00,ZBYN 102000Z 00000MPS CAVOK 17/12 Q1008 NOSIG
ZBYN,2003-07-10 21:00,ZBYN 102100Z 10002MPS CAVOK 17/12 Q1008 NOSIG
ZBYN,2003-07-10 22:00,ZBYN 102200Z 00000MPS CAVOK 16/12 Q1008 NOSIG
ZBYN,2003-07-10 23:00,ZBYN 102300Z 12001MPS 7000 NSC 18/13 Q1008 NOSIG
ZBYN,2003-07-11 00:00,ZBYN 110000Z 06001MPS 7000 NSC 20/12 Q1009 NOSIG
ZBYN,2003-07-11 01:00,ZBYN 110100Z 00000MPS CAVOK 21/11 Q1008 NOSIG
ZBYN,2003-07-11 02:00,ZBYN 110200Z 14001MPS CAVOK 23/11 Q1008 NOSIG
ZBYN,2003-07-11 03:00,ZBYN 110300Z VRB01MPS CAVOK 24/11 Q1008 NOSIG
ZBYN,2003-07-11 04:00,ZBYN 110400Z VRB01MPS CAVOK 26/09 Q1008 NOSIG
ZBYN,2003-07-11 05:00,ZBYN 110500Z VRB01MPS CAVOK 26/09 Q1007 NOSIG
ZBYN,2003-07-11 06:00,ZBYN 110600Z VRB01MPS CAVOK 27/07 Q1007 NOSIG
ZBYN,2003-07-11 07:00,ZBYN 110700Z VRB01MPS CAVOK 27/07 Q1006 NOSIG
ZBYN,2003-07-11 08:00,ZBYN 110800Z VRB01MPS CAVOK 27/08 Q1006 NOSIG
ZBYN,2003-07-11 09:00,ZBYN 110900Z 06003MPS CAVOK 26/08 Q1006 NOSIG
ZBYN,2003-07-11 10:00,ZBYN 111000Z 07004MPS CAVOK 26/10 Q1006 NOSIG
ZBYN,2003-07-11 11:00,ZBYN 111100Z 06004MPS CAVOK 25/11 Q1007 NOSIG
ZBYN,2003-07-11 12:00,ZBYN 111200Z 07005MPS CAVOK 24/11 Q1007 NOSIG
ZBYN,2003-07-11 13:00,ZBYN 111300Z 08005MPS CAVOK 24/10 Q1008 NOSIG
ZBYN,2003-07-11 14:00,ZBYN 111400Z 08004MPS CAVOK 23/11 Q1008 NOSIG
ZBYN,2003-07-11 15:00,ZBYN 111500Z 09003MPS CAVOK 22/11 Q1007 NOSIG
ZBYN,2003-07-11 16:00,ZBYN 111600Z 10003MPS 9999 -RA NSC 22/11 Q1007 NOSIG
ZBYN,2003-07-11 17:00,ZBYN 111700Z 16002MPS CAVOK 21/13 Q1008
ZBYN,2003-07-11 18:00,ZBYN 111800Z 15001MPS 7000 -RA SCT040 OVC100 19/15 Q1008
ZBYN,2003-07-11 19:00,ZBYN 111900Z 14002MPS 4000 R31/1400 BR NSC 18/15 Q1008
ZBYN,2003-07-11 20:00,ZBYN 112000Z 11002MPS 2000 R31/1000N -RA BR NSC 18/16 Q1007
ZBYN,2003-07-11 21:00,ZBYN 112100Z 14001MPS 2000 R31/0900N -RA BR NSC 17/16 Q1007
ZBYN,2003-07-11 22:00,ZBYN 112200Z 00000MPS 1800 R31/0900N -RA BR NSC 18/16 Q1008 NOSIG
ZBYN,2003-07-11 23:00,ZBYN 112300Z 29001MPS 0700 R31/0800N -RA FG NSC 18/17 Q1008 TEMPO 0800 -RA FG
ZBYN,2003-07-12 00:00,ZBYN 120000Z VRB01MPS 0800 R31/1100 FG NSC 18/17 Q1008 NOSIG
ZBYN,2003-07-12 01:00,ZBYN 120100Z 05001MPS 2000 BR NSC 19/16 Q1009 NOSIG
ZBYN,2003-07-12 02:00,ZBYN 120200Z 00000MPS 3000 BR NSC 20/14 Q1009 NOSIG
ZBYN,2003-07-12 03:00,ZBYN 120300Z 11004MPS 6000 NSC 21/13 Q1009 NOSIG
ZBYN,2003-07-12 04:00,ZBYN 120400Z 12003MPS 8000 NSC 20/14 Q1008 NOSIG
ZBYN,2003-07-12 05:00,ZBYN 120500Z 10004MPS CAVOK 21/14 Q1008 NOSIG
ZBYN,2003-07-12 06:00,ZBYN 120600Z 12003MPS CAVOK 22/13 Q1008 NOSIG
ZBYN,2003-07-12 07:00,ZBYN 120700Z 10002MPS 9999 FEW040 BKN100 22/12 Q1007 NOSIG
ZBYN,2003-07-12 08:00,ZBYN 120800Z 07003MPS CAVOK 23/13 Q1007 NOSIG
ZBYN,2003-07-12 09:00,ZBYN 120900Z 08003MPS CAVOK 23/12 Q1007 NOSIG
ZBYN,2003-07-12 10:00,ZBYN 121000Z 07004MPS CAVOK 23/12 Q1007 NOSIG
ZBYN,2003-07-12 11:00,ZBYN 121100Z 06002MPS CAVOK 22/11 Q1007 NOSIG
ZBYN,2003-07-12 12:00,ZBYN 121200Z 08002MPS CAVOK 21/12 Q1007 NOSIG
ZBYN,2003-07-12 13:00,ZBYN 121300Z 08002MPS CAVOK 21/12 Q1008 NOSIG
ZBYN,2003-07-12 14:00,ZBYN 121400Z 09003MPS CAVOK 20/13 Q1008 NOSIG
ZBYN,2003-07-12 15:00,ZBYN 121500Z 09003MPS CAVOK 20/13 Q1009 NOSIG
ZBYN,2003-07-12 16:00,ZBYN 121600Z 09003MPS CAVOK 19/13 Q1008
ZBYN,2003-07-12 17:00,ZBYN 121700Z 07003MPS CAVOK 19/13 Q1008
ZBYN,2003-07-12 18:00,ZBYN 121800Z 07002MPS CAVOK 19/13 Q1008
ZBYN,2003-07-12 19:00,ZBYN 121900Z 10002MPS CAVOK 18/13 Q1008
ZBYN,2003-07-12 20:00,ZBYN 122000Z 04002MPS CAVOK 17/13 Q1008
ZBYN,2003-07-12 21:00,ZBYN 122100Z 16001MPS CAVOK 16/13 Q1008
ZBYN,2003-07-12 22:00,ZBYN 122200Z 15001MPS 6000 NSC 16/13 Q1008 NOSIG
ZBYN,2003-07-12 23:00,ZBYN 122300Z VRB01MPS 6000 NSC 18/13 Q1009 NOSIG
ZBYN,2003-07-13 00:00,ZBYN 130000Z 00000MPS 5000 BR NSC 19/14 Q1009 NOSIG
ZBYN,2003-07-13 01:00,ZBYN 130100Z 07003MPS 8000 NSC 21/11 Q1009 NOSIG
ZBYN,2003-07-13 02:00,ZBYN 130200Z 07003MPS 8000 NSC 22/12 Q1009 NOSIG
ZBYN,2003-07-13 03:00,ZBYN 130300Z 09004MPS 8000 NSC 24/12 Q1009 NOSIG
ZBYN,2003-07-13 04:00,ZBYN 130400Z 08004MPS 8000 NSC 23/12 Q1008 NOSIG
ZBYN,2003-07-13 05:00,ZBYN 130500Z 09004MPS 8000 NSC 23/12 Q1008 NOSIG
ZBYN,2003-07-13 06:00,ZBYN 130600Z 07004MPS 6000 -RA NSC 23/12 Q1007 NOSIG
ZBYN,2003-07-13 07:00,ZBYN 130700Z 06003MPS 6000 -RA NSC 21/15 Q1009 NOSIG
ZBYN,2003-07-13 08:00,ZBYN 130800Z 07002MPS 3000 -RA BR SCT040 OVC100 20/16 Q1008 NOSIG
ZBYN,2003-07-13 09:00,ZBYN 130900Z 13001MPS 2000 -RA BR SCT040 OVC100 19/17 Q1008 NOSIG
ZBYN,2003-07-13 10:00,ZBYN 131000Z VRB01MPS 4000 -RA BR BKN030 OVC100 18/15 Q1008 NOSIG
ZBYN,2003-07-13 11:00,ZBYN 131100Z 25002MPS 3000 -RA BR NSC 18/16 Q1009 NOSIG
ZBYN,2003-07-13 12:00,ZBYN 131200Z 29001MPS 3000 BR NSC 17/15 Q1009 NOSIG
ZBYN,2003-07-13 13:00,ZBYN 131300Z 00000MPS 4000 BR NSC 17/15 Q1009 NOSIG
ZBYN,2003-07-13 14:00,ZBYN 131400Z 21001MPS 4000 BR NSC 17/15 Q1010 NOSIG
ZBYN,2003-07-13 15:00,ZBYN 131500Z 00000MPS 5000 BR NSC 17/15 Q1010 NOSIG
ZBYN,2003-07-13 16:00,ZBYN 131600Z 03001MPS 5000 BR NSC 17/15 Q1009 NOSIG
ZBYN,2003-07-13 17:00,ZBYN 131700Z 00000MPS 5000 BR NSC 17/15 Q1009 NOSIG
ZBYN,2003-07-13 18:00,ZBYN 131800Z VRB01MPS 6000 NSC 17/14 Q1008
ZBYN,2003-07-13 19:00,ZBYN 131900Z 26001MPS 3000 R31/1200N BR NSC 16/15 Q1008
ZBYN,2003-07-13 20:00,ZBYN 132000Z 00000MPS 3000 BR NSC 16/14 Q1008
ZBYN,2003-07-13 21:00,ZBYN 132100Z VRB01MPS 3000 BR NSC 15/14 Q1008
ZBYN,2003-07-13 22:00,ZBYN 132200Z 16001MPS 3000 BR NSC 16/13 Q1008 NOSIG
ZBYN,2003-07-14 00:00,ZBYN 140000Z 09001MPS 6000 BKN040 17/14 Q1009 NOSIG
ZBYN,2003-07-14 01:00,ZBYN 140100Z 08003MPS 9999 BKN030 OVC100 18/13 Q1009 NOSIG
ZBYN,2003-07-14 02:00,ZBYN 140200Z 08002MPS 9999 SCT030 BKN100 19/13 Q1009 NOSIG
ZBYN,2003-07-14 03:00,ZBYN 140300Z 07002MPS 9999 BKN033 OVC100 19/13 Q1009 NOSIG
ZBYN,2003-07-14 04:00,ZBYN 140400Z 08002MPS 9999 SCT033 OVC100 19/13 Q1009 NOSIG
ZBYN,2003-07-14 05:00,ZBYN 140500Z 07002MPS 9999 SCT040 OVC100 20/13 Q1009 NOSIG
ZBYN,2003-07-14 06:00,ZBYN 140600Z 10003MPS 9999 OVC040 21/13 Q1008 NOSIG
ZBYN,2003-07-14 07:00,ZBYN 140700Z 11002MPS 9999 BKN040 OVC100 21/13 Q1008 NOSIG
ZBYN,2003-07-14 08:00,ZBYN 140800Z 08002MPS 9999 BKN040 OVC100 21/12 Q1008 NOSIG
ZBYN,2003-07-14 09:00,ZBYN 140900Z 10003MPS CAVOK 21/13 Q1008 NOSIG
ZBYN,2003-07-14 10:00,ZBYN 141000Z 09005MPS CAVOK 20/13 Q1009 NOSIG
ZBYN,2003-07-14 11:00,ZBYN 141100Z 09003MPS CAVOK 19/13 Q1009 NOSIG
ZBYN,2003-07-14 12:00,ZBYN 141200Z 06004MPS CAVOK 19/12 Q1009 NOSIG
ZBYN,2003-07-14 13:00,ZBYN 141300Z 07002MPS 9999 SCT040 OVC100 19/12 Q1010 NOSIG
ZBYN,2003-07-14 14:00,ZBYN 141400Z 16001MPS CAVOK 17/12 Q1010 NOSIG
ZBYN,2003-07-14 15:00,ZBYN 141500Z VRB01MPS CAVOK 16/12 Q1010 NOSIG
ZBYN,2003-07-14 16:00,ZBYN 141600Z VRB01MPS CAVOK 15/12 Q1011 NOSIG
ZBYN,2003-07-14 17:00,ZBYN 141700Z 09001MPS CAVOK 16/12 Q1010
ZBYN,2003-07-14 18:00,ZBYN 141800Z 36001MPS CAVOK 15/12 Q1010
ZBYN,2003-07-14 19:00,ZBYN 141900Z 12002MPS CAVOK 15/13 Q1010
ZBYN,2003-07-14 20:00,ZBYN 142000Z 03001MPS CAVOK 15/13 Q1010
ZBYN,2003-07-14 21:00,ZBYN 142100Z 21001MPS CAVOK 15/12 Q1010
ZBYN,2003-07-14 22:00,ZBYN 142200Z 30001MPS 6000 NSC 14/12 Q1011 NOSIG
ZBYN,2003-07-14 23:00,ZBYN 142300Z 01001MPS 8000 NSC 16/13 Q1011 NOSIG
ZBYN,2003-07-15 00:00,ZBYN 150000Z 00000MPS 7000 NSC 18/13 Q1011 NOSIG
ZBYN,2003-07-15 01:00,ZBYN 150100Z 00000MPS 7000 NSC 20/12 Q1011 NOSIG
ZBYN,2003-07-15 02:00,ZBYN 150200Z 11002MPS CAVOK 22/12 Q1011 NOSIG
ZBYN,2003-07-15 03:00,ZBYN 150300Z 08004MPS CAVOK 23/12 Q1011 NOSIG
ZBYN,2003-07-15 04:00,ZBYN 150400Z 10005MPS 9999 BKN040 23/13 Q1010 NOSIG
ZBYN,2003-07-15 05:00,ZBYN 150500Z 11004MPS 9999 FEW040 BKN200 24/12 Q1010 NOSIG
ZBYN,2003-07-15 06:00,ZBYN 150600Z 10004MPS 9999 FEW040 BKN200 24/13 Q1009 NOSIG
ZBYN,2003-07-15 07:00,ZBYN 150700Z 11005MPS 9999 FEW040 BKN120 25/13 Q1009 NOSIG
ZBYN,2003-07-15 08:00,ZBYN 150800Z 11005MPS 9999 FEW040 BKN130 25/13 Q1009 NOSIG
ZBYN,2003-07-15 09:00,ZBYN 150900Z 12005MPS CAVOK 24/14 Q1009 NOSIG
ZBYN,2003-07-15 10:00,ZBYN 151000Z 11005MPS CAVOK 23/13 Q1009 NOSIG
ZBYN,2003-07-15 11:00,ZBYN 151100Z 09003MPS CAVOK 23/13 Q1010 NOSIG
ZBYN,2003-07-15 12:00,ZBYN 151200Z 08003MPS CAVOK 22/13 Q1010 NOSIG
ZBYN,2003-07-15 13:00,ZBYN 151300Z 12002MPS CAVOK 20/12 Q1010 NOSIG
ZBYN,2003-07-15 14:00,ZBYN 151400Z 08003MPS CAVOK 21/12 Q1011 NOSIG
ZBYN,2003-07-15 15:00,ZBYN 151500Z 08002MPS CAVOK 20/13 Q1011 NOSIG
ZBYN,2003-07-15 16:00,ZBYN 151600Z 08003MPS CAVOK 20/13 Q1011 NOSIG
ZBYN,2003-07-15 17:00,ZBYN 151700Z 07002MPS CAVOK 20/14 Q1011
ZBYN,2003-07-15 18:00,ZBYN 151800Z 03002MPS CAVOK 19/14 Q1011
ZBYN,2003-07-15 19:00,ZBYN 151900Z 07002MPS CAVOK 19/13 Q1010
ZBYN,2003-07-15 20:00,ZBYN 152000Z 07002MPS 6000 NSC 18/13 Q1010
ZBYN,2003-07-15 21:00,ZBYN 152100Z 06002MPS 6000 NSC 18/13 Q1010
ZBYN,2003-07-15 22:00,ZBYN 152200Z 00000MPS 3000 BR NSC 17/13 Q1011 NOSIG
ZBYN,2003-07-15 23:00,ZBYN 152300Z 03001MPS 3000 BR NSC 18/13 Q1011 NOSIG
ZBYN,2003-07-16 00:00,ZBYN 160000Z VRB01MPS 2500 BR NSC 19/14 Q1011 NOSIG
ZBYN,2003-07-16 01:00,ZBYN 160100Z 07003MPS CAVOK 20/13 Q1011 NOSIG
ZBYN,2003-07-16 02:00,ZBYN 160200Z 09003MPS CAVOK 21/12 Q1011 NOSIG
ZBYN,2003-07-16 03:00,ZBYN 160300Z 10003MPS CAVOK 22/13 Q1011 NOSIG
ZBYN,2003-07-16 04:00,ZBYN 160400Z 10002MPS 9999 -RA NSC 22/13 Q1010 NOSIG
ZBYN,2003-07-16 05:00,ZBYN 160500Z 06002MPS 9999 -RA NSC 22/13 Q1010 NOSIG
ZBYN,2003-07-16 06:00,ZBYN 160600Z 06003MPS 9999 -RA SCT040 OVC100 21/14 Q1010 NOSIG
ZBYN,2003-07-16 07:00,ZBYN 160700Z 09003MPS 8000 -RA NSC 21/14 Q1010 NOSIG
ZBYN,2003-07-16 08:00,ZBYN 160800Z 10003MPS 7000 NSC 21/14 Q1010 NOSIG
ZBYN,2003-07-16 09:00,ZBYN 160900Z 09004MPS 6000 NSC 21/14 Q1009 NOSIG
ZBYN,2003-07-16 10:00,ZBYN 161000Z 10003MPS 7000 NSC 21/13 Q1009 NOSIG
ZBYN,2003-07-16 11:00,ZBYN 161100Z 11004MPS 7000 NSC 21/13 Q1009 NOSIG
ZBYN,2003-07-16 12:00,ZBYN 161200Z 10003MPS 7000 NSC 20/13 Q1009 NOSIG
ZBYN,2003-07-16 13:00,ZBYN 161300Z 11002MPS 8000 NSC 18/13 Q1009 NOSIG
ZBYN,2003-07-16 14:00,ZBYN 161400Z 10001MPS CAVOK 17/13 Q1010 NOSIG
ZBYN,2003-07-16 15:00,ZBYN 161500Z 11001MPS 7000 NSC 16/13 Q1009 NOSIG
ZBYN,2003-07-16 16:00,ZBYN 161600Z 14001MPS 6000 NSC 17/13 Q1009 NOSIG
ZBYN,2003-07-16 17:00,ZBYN 161700Z 00000MPS 6000 NSC 17/14 Q1009
ZBYN,2003-07-16 18:00,ZBYN 161800Z 11001MPS 6000 NSC 16/14 Q1008
ZBYN,2003-07-16 19:00,ZBYN 161900Z 00000MPS 5000 BR NSC 16/14 Q1008
ZBYN,2003-07-16 20:00,ZBYN 162000Z 13002MPS 4000 BR NSC 15/14 Q1007
ZBYN,2003-07-16 21:00,ZBYN 162100Z 14001MPS 4000 R31/1300N BR NSC 16/14 Q1007
ZBYN,2003-07-16 22:00,ZBYN 162200Z 11001MPS 1500 R31/1000N BR NSC 16/15 Q1008 NOSIG
ZBYN,2003-07-16 23:00,ZBYN 162300Z 13001MPS 1000 R31/0800N BR NSC 17/15 Q1008 NOSIG
ZBYN,2003-07-17 00:00,ZBYN 170000Z 17001MPS 1000 R31/0800N BR NSC 18/16 Q1008 NOSIG
ZBYN,2003-07-17 01:00,ZBYN 170100Z 13001MPS 0900 R31/0800N -RA FG NSC 18/16 Q1007 NOSIG
ZBYN,2003-07-17 02:00,ZBYN 170200Z 00000MPS 0900 R31/0800N FG NSC 19/16 Q1008 NOSIG
ZBYN,2003-07-17 03:00,ZBYN 170300Z 00000MPS 0800 R31/0800N FG NSC 20/16 Q1007 NOSIG
ZBYN,2003-07-17 04:00,ZBYN 170400Z 02001MPS 1400 R31/1200N -RA BR NSC 20/15 Q1007 NO SIG
ZBYN,2003-07-17 05:00,ZBYN 170500Z VRB01MPS 1600 HZ NSC 22/15 Q1007 NOSIG
ZBYN,2003-07-17 06:00,ZBYN 170600Z VRB01MPS 2000 HZ NSC 24/15 Q1006 NOSIG
ZBYN,2003-07-17 07:00,ZBYN 170700Z 02001MPS 2000 HZ NSC 23/15 Q1005 NOSIG
ZBYN,2003-07-17 08:00,ZBYN 170800Z 09004MPS 6000 FEW040TCU BKN100 23/14 Q1005 NOSIG
ZBYN,2003-07-17 09:00,ZBYN 170900Z 10003MPS 8000 FEW040TCU SCT100 24/14 Q1005 NOSIG
ZBYN,2003-07-17 10:00,ZBYN 171000Z 11002MPS 8000 NSC 23/15 Q1004 NOSIG
ZBYN,2003-07-17 11:00,ZBYN 171100Z 01006MPS 3000 -TSRA SA SCT040 BKN040CB 22/14 Q1005 NOSIG
ZBYN,2003-07-17 12:00,ZBYN 171200Z 08002MPS 9999 -TSRA SCT040 SCT040CB 18/14 Q1006 NOSIG
ZBYN,2003-07-17 13:00,ZBYN 171300Z 00000MPS 9999 SCT040 17/15 Q1005 NOSIG
ZBYN,2003-07-17 14:00,ZBYN 171400Z 04001MPS CAVOK 17/15 Q1006 NOSIG
ZBYN,2003-07-17 15:00,ZBYN 171500Z 23002MPS CAVOK 17/15 Q1006 NOSIG
ZBYN,2003-07-17 16:00,ZBYN 171600Z 00000MPS 6000 NSC 17/15 Q1006 NOSIG
ZBYN,2003-07-17 17:00,ZBYN 171700Z 00000MPS 6000 NSC 17/15 Q1005
ZBYN,2003-07-17 18:00,ZBYN 171800Z 17002MPS 3000 -RA BR NSC 16/15 Q1005
ZBYN,2003-07-17 19:00,ZBYN 171900Z VRB01MPS 2000 -RA BR NSC 17/15 Q1004
ZBYN,2003-07-17 20:00,ZBYN 172000Z 34001MPS 2000 R31/0750N -RA BR NSC 16/15 Q1005
ZBYN,2003-07-17 21:00,ZBYN 172100Z 12003MPS 1600 R31/0600N -TSRA BR SCT033CB BKN033 17/15 Q1003
ZBYN,2003-07-17 22:00,ZBYN 172200Z VRB01MPS 2000 R31/0750N BR NSC 16/15 Q1004 NOSIG
ZBYN,2003-07-17 23:00,ZBYN 172300Z 00000MPS 1100 R31/0750N -RA BR BKN040 17/16 Q1004 NOSIG
ZBYN,2003-07-18 00:00,ZBYN 180000Z 09001MPS 1100 R31/0900N BR NSC 17/16 Q1004 NOSIG
ZBYN,2003-07-18 01:00,ZBYN 180100Z VRB01MPS 1600 R31/1100N BR NSC 19/16 Q1004 NOSIG
ZBYN,2003-07-18 02:00,ZBYN 180200Z 00000MPS 1600 R31/1200N BR NSC 20/16 Q1004 NOSIG
ZBYN,2003-07-18 03:00,ZBYN 180300Z VRB01MPS 1600 R31/1200N BR NSC 21/16 Q1004 NOSIG
ZBYN,2003-07-18 04:00,ZBYN 180400Z VRB01MPS 2500 BR NSC 23/15 Q1003 NOSIG
ZBYN,2003-07-18 05:00,ZBYN 180500Z VRB01MPS 6000 NSC 24/15 Q1003 NOSIG
ZBYN,2003-07-18 06:00,ZBYN 180600Z 17002MPS 8000 NSC 25/14 Q1002 NOSIG
ZBYN,2003-07-18 07:00,ZBYN 180700Z 22002MPS 8000 -TSRA FEW030CB BKN100 25/16 Q1002 NOSIG
ZBYN,2003-07-18 08:00,ZBYN 180800Z 00000MPS 6000 -SHRA FEW030CB BKN060 23/18 Q1002 NOSIG
ZBYN,2003-07-18 09:00,ZBYN 180900Z 28001MPS 9999 FEW030CB BKN100 23/17 Q1002 NOSIG
ZBYN,2003-07-18 10:00,ZBYN 181000Z 00000MPS CAVOK 24/15 Q1002 NOSIG
ZBYN,2003-07-18 11:00,ZBYN 181100Z 17001MPS 9999 FEW040 BKN100 23/18 Q1002 NOSIG
ZBYN,2003-07-18 12:00,ZBYN 181200Z 24001MPS 9999 SCT040 BKN100 22/18 Q1002 NOSIG
ZBYN,2003-07-18 13:00,ZBYN 181300Z 18001MPS 8000 NSC 21/18 Q1003 NOSIG
ZBYN,2003-07-18 14:00,ZBYN 181400Z 00000MPS 6000 NSC 20/16 Q1004 NOSIG
ZBYN,2003-07-18 15:00,ZBYN 181500Z 10001MPS 6000 SKC 19/16 Q1004 NOSIG
ZBYN,2003-07-18 16:00,ZBYN 181600Z 00000MPS 8000 SKC 17/16 Q1004 NOSIG
ZBYN,2003-07-18 17:00,ZBYN 181700Z 09001MPS 8000 SKC 16/14 Q1004
ZBYN,2003-07-18 18:00,ZBYN 181800Z 11001MPS 8000 SKC 17/14 Q1004
ZBYN,2003-07-18 19:00,ZBYN 181900Z 12002MPS 8000 SKC 15/14 Q1004
ZBYN,2003-07-18 20:00,ZBYN 182000Z VRB01MPS 8000 SKC 16/14 Q1004 NOSIG
ZBYN,2003-07-18 21:00,ZBYN 182100Z 00000MPS 7000 SKC 15/14 Q1004 NOSIG
ZBYN,2003-07-18 22:00,ZBYN 182200Z 00000MPS 4000 BR SKC 15/13 Q1005 NOSIG
ZBYN,2003-07-18 23:00,ZBYN 182300Z 16001MPS 2500 R31/1100 BR SKC 17/15 Q1005 NOSIG
ZBYN,2003-07-19 00:00,ZBYN 190000Z 00000MPS 2500 R31/1400 BR SKC 19/16 Q1005 NOSIG
ZBYN,2003-07-19 01:00,ZBYN 190100Z VRB01MPS 2500 BR SKC 21/16 Q1005 NOSIG
ZBYN,2003-07-19 02:00,ZBYN 190200Z VRB01MPS 2500 R31/1400N HZ SKC 22/16 Q1005 NOSIG
ZBYN,2003-07-19 03:00,ZBYN 190300Z 21002MPS 4000 HZ SKC 25/16 Q1005 NOSIG
ZBYN,2003-07-19 04:00,ZBYN 190400Z 18001MPS 5000 HZ SKC 26/16 Q1004 NOSIG
ZBYN,2003-07-19 05:00,ZBYN 190500Z 20002MPS 8000 FEW040TCU 27/16 Q1004 NOSIG
ZBYN,2003-07-19 06:00,ZBYN 190600Z 19002MPS 9999 FEW040TCU 29/15 Q1003 NOSIG
ZBYN,2003-07-19 07:00,ZBYN 190700Z 20002MPS 9999 FEW040TCU 30/13 Q1003 NOSIG
ZBYN,2003-07-19 08:00,ZBYN 190800Z 21002MPS 9999 FEW040TCU 30/13 Q1002 NOSIG
ZBYN,2003-07-19 09:00,ZBYN 190900Z 20002MPS 9999 FEW040TCU SCT200 30/13 Q1002 NOSIG
ZBYN,2003-07-19 10:00,ZBYN 191000Z 23001MPS 9999 FEW040CB SCT100 28/15 Q1002 NOSIG
ZBYN,2003-07-19 11:00,ZBYN 191100Z 30003MPS 9999 -TSRA FEW040 BKN040CB 26/15 Q1003 NOSIG
ZBYN,2003-07-19 12:00,ZBYN 191200Z 33005MPS 9999 -TSRA FEW040 BKN040CB 22/15 Q1004 NOSIG
ZBYN,2003-07-19 13:00,ZBYN 191300Z 32003MPS 9999 -TS BKN040 FEW040CB 22/15 Q1004 NOSIG
ZBYN,2003-07-19 14:00,ZBYN 191400Z 35002MPS 9999 BKN040 FEW040TCU 23/13 Q1004 NOSIG
ZBYN,2003-07-19 15:00,ZBYN 191500Z 28002MPS 9999 FEW030 BKN040 20/15 Q1005 NOSIG
ZBYN,2003-07-19 16:00,ZBYN 191600Z 33001MPS 9999 SCT030 BKN040 21/15 Q1005 NOSIG
ZBYN,2003-07-19 17:00,ZBYN 191700Z 32001MPS CAVOK 20/16 Q1005
ZBYN,2003-07-19 18:00,ZBYN 191800Z 32001MPS CAVOK 20/16 Q1005
ZBYN,2003-07-19 19:00,ZBYN 191900Z 25001MPS CAVOK 20/15 Q1006
ZBYN,2003-07-19 20:00,ZBYN 192000Z 16001MPS CAVOK 20/15 Q1005
ZBYN,2003-07-19 21:00,ZBYN 192100Z 33002MPS CAVOK 18/15 Q1006
ZBYN,2003-07-19 22:00,ZBYN 192200Z VRB01MPS 7000 SKC 17/15 Q1006 NOSIG
ZBYN,2003-07-19 23:00,ZBYN 192300Z 00000MPS 2500 BR SKC 19/15 Q1006 NOSIG
ZBYN,2003-07-20 00:00,ZBYN 200000Z 00000MPS 2500 R31/1400 BR SKC 21/16 Q1006 NOSIG
ZBYN,2003-07-20 01:00,ZBYN 200100Z 10001MPS 5000 HZ SKC 23/16 Q1006 NOSIG
ZBYN,2003-07-20 02:00,ZBYN 200200Z 21001MPS 4000 HZ SKC 24/17 Q1006 NOSIG
ZBYN,2003-07-20 03:00,ZBYN 200300Z VRB01MPS CAVOK 26/14 Q1006 NOSIG
ZBYN,2003-07-20 04:00,ZBYN 200400Z 19002MPS CAVOK 27/14 Q1005 NOSIG
ZBYN,2003-07-20 05:00,ZBYN 200500Z 22002MPS CAVOK 29/14 Q1005 NOSIG
ZBYN,2003-07-20 06:00,ZBYN 200600Z 20002MPS 9999 FEW040TCU FEW040 30/13 Q1004 NOSIG
ZBYN,2003-07-20 07:00,ZBYN 200700Z 18002MPS 9999 FEW040TCU FEW040 31/11 Q1003 NOSIG
ZBYN,2003-07-20 08:00,ZBYN 200800Z 21002MPS 9999 FEW040TCU 31/11 Q1003 NOSIG
ZBYN,2003-07-20 09:00,ZBYN 200900Z 20002MPS 9999 FEW040TCU FEW040 30/12 Q1003 NOSIG
ZBYN,2003-07-20 10:00,ZBYN 201000Z 23001MPS 9999 FEW040CB FEW040 29/14 Q1003 NOSIG
ZBYN,2003-07-20 11:00,ZBYN 201100Z 08001MPS 9999 SCT040TCU 27/15 Q1004 NOSIG
ZBYN,2003-07-20 12:00,ZBYN 201200Z 08007MPS 8000 FEW040CB BKN040 25/17 Q1005 NOSIG
ZBYN,2003-07-20 13:00,ZBYN 201300Z 08007MPS 6000 FEW040CB BKN040 24/17 Q1006 NOSIG
ZBYN,2003-07-20 14:00,ZBYN 201400Z 08006MPS 5000 SA BKN040 23/17 Q1006 NOSIG
ZBYN,2003-07-20 15:00,ZBYN 201500Z AUTO 07002KT 6SM 24/18 RMK SLP029 T02430185 52025 IEM_DS3505
ZBYN,2003-07-20 16:00,ZBYN 201600Z 07005MPS 4000 SA OVC040 22/17 Q1007 NOSIG
ZBYN,2003-07-20 17:00,ZBYN 201700Z 05002MPS 4000 DU NSC 22/17 Q1007
ZBYN,2003-07-20 18:00,ZBYN 201800Z VRB01MPS 4000 DU NSC 21/16 Q1007
ZBYN,2003-07-20 19:00,ZBYN 201900Z 09002MPS 4000 DU NSC 21/17 Q1007
ZBYN,2003-07-20 20:00,ZBYN 202000Z 06002MPS 2500 R31/1000N BR NSC 21/17 Q1007
ZBYN,2003-07-20 21:00,ZBYN 202100Z 06002MPS 1800 R31/1100N BR NSC 21/16 Q1007
ZBYN,2003-07-20 22:00,ZBYN 202200Z 05002MPS 2200 R31/0900N BR NSC 20/16 Q1008 NOSIG
ZBYN,2003-07-20 23:00,ZBYN 202300Z VRB01MPS 1100 R31/0800N BR SKC 20/17 Q1007 NOSIG
ZBYN,2003-07-21 00:00,ZBYN 210000Z 34001MPS 2200 R31/1000N BR SKC 22/17 Q1008 NOSIG
ZBYN,2003-07-21 01:00,ZBYN 210100Z 01001MPS 1600 R31/1000N BR SKC 23/17 Q1008 NOSIG
ZBYN,2003-07-21 02:00,ZBYN 210200Z 11003MPS 2000 R31/1300N BR SKC 25/17 Q1008 NOSIG
ZBYN,2003-07-21 03:00,ZBYN 210300Z 10003MPS 3000 R31/1300N BR NSC 26/17 Q1007 NOSIG
ZBYN,2003-07-21 04:00,ZBYN 210400Z 07002MPS 3000 R31/1400N HZ NSC 27/17 Q1007 NOSIG
ZBYN,2003-07-21 05:00,ZBYN 210500Z 11002MPS 4000 HZ NSC 28/17 Q1006 NOSIG
ZBYN,2003-07-21 06:00,ZBYN 210600Z 11002MPS 6000 NSC 30/17 Q1005 NOSIG
ZBYN,2003-07-21 07:00,ZBYN 210700Z 12003MPS 7000 FEW030 BKN200 29/16 Q1005 NOSIG
ZBYN,2003-07-21 08:00,ZBYN 210800Z 09005MPS 6000 SCT030 OVC200 28/17 Q1005 NOSIG
ZBYN,2003-07-21 09:00,ZBYN 210900Z 10007MPS 4000 -TS SA FEW040 FEW040CB OVC200 26/17 Q1006 NOSIG
ZBYN,2003-07-21 10:00,ZBYN 211000Z 06005MPS 3000 -TS SA SCT040 BKN040CB 24/16 Q1008 NOSIG
ZBYN,2003-07-21 11:00,ZBYN 211100Z 13007MPS 9999 TSRA FEW033 BKN033CB 18/14 Q1008 NOSIG
ZBYN,2003-07-21 12:00,ZBYN 211200Z 15003MPS 9999 -TS FEW033 BKN033CB 20/13 Q1007 TEMPO -TS
ZBYN,2003-07-21 13:00,ZBYN 211300Z VRB01MPS 9999 SCT033CB SCT200 19/15 Q1008 NSW
ZBYN,2003-07-21 14:00,ZBYN 211400Z 12001MPS 9999 FEW040CB BKN200 18/15 Q1009 NOSIG
ZBYN,2003-07-21 15:00,ZBYN 211500Z VRB01MPS CAVOK 18/15 Q1010 NOSIG
ZBYN,2003-07-21 16:00,ZBYN 211600Z 16003MPS CAVOK 18/15 Q1010 NOSIG
ZBYN,2003-07-21 17:00,ZBYN 211700Z 00000MPS CAVOK 17/15 Q1010 NOSIG
ZBYN,2003-07-21 18:00,ZBYN 211800Z 07001MPS CAVOK 18/15 Q1009
ZBYN,2003-07-21 19:00,ZBYN 211900Z 06001MPS 8000 NSC 18/16 Q1009
ZBYN,2003-07-21 20:00,ZBYN 212000Z 32001MPS 6000 SKC 17/15 Q1009
ZBYN,2003-07-21 21:00,ZBYN 212100Z 00000MPS 3000 BR NSC 17/15 Q1010
ZBYN,2003-07-21 22:00,ZBYN 212200Z 00000MPS 3000 BR NSC 17/15 Q1010 NOSIG
ZBYN,2003-07-21 23:00,ZBYN 212300Z 14001MPS 2000 BR NSC 18/16 Q1011 NOSIG
ZBYN,2003-07-22 00:00,ZBYN 220000Z 25001MPS 2000 BR NSC 19/16 Q1011 NOSIG
ZBYN,2003-07-22 01:00,ZBYN 220100Z 00000MPS 2000 BR SKC 21/16 Q1011 NOSIG
ZBYN,2003-07-22 02:00,ZBYN 220200Z VRB01MPS 2000 BR SKC 22/15 Q1011 NOSIG
ZBYN,2003-07-22 03:00,ZBYN 220300Z 12001MPS 6000 SKC 24/15 Q1010 NOSIG
ZBYN,2003-07-22 04:00,ZBYN 220400Z VRB01MPS 6000 SKC 25/17 Q1010 NOSIG
ZBYN,2003-07-22 05:00,ZBYN 220500Z VRB01MPS 8000 SKC 26/16 Q1010 NOSIG
ZBYN,2003-07-22 06:00,ZBYN 220600Z VRB01MPS CAVOK 27/15 Q1009 NOSIG
ZBYN,2003-07-22 07:00,ZBYN 220700Z 13001MPS CAVOK 28/14 Q1008 NOSIG
ZBYN,2003-07-22 08:00,ZBYN 220800Z VRB01MPS CAVOK 28/15 Q1007 NOSIG
ZBYN,2003-07-22 09:00,ZBYN 220900Z 15001MPS CAVOK 28/15 Q1007 NOSIG
ZBYN,2003-07-22 11:00,ZBYN 221100Z 11001MPS CAVOK 26/20 Q1007 NOSIG
ZBYN,2003-07-22 12:00,ZBYN 221200Z 14002MPS CAVOK 24/18 Q1008 NOSIG
ZBYN,2003-07-22 13:00,ZBYN 221300Z 09003MPS 7000 NSC 25/19 Q1008 NOSIG
ZBYN,2003-07-22 14:00,ZBYN 221400Z 10003MPS 2000 BR NSC 24/19 Q1009 NOSIG
ZBYN,2003-07-22 15:00,ZBYN 221500Z 09004MPS 1700 BR NSC 23/19 Q1009 NOSIG
ZBYN,2003-07-22 16:00,ZBYN 221600Z 11003MPS 2000 BR NSC 23/18 Q1009 NOSIG
ZBYN,2003-07-22 17:00,ZBYN 221700Z 10002MPS 2000 R31/1300 BR NSC 22/18 Q1010
ZBYN,2003-07-22 18:00,ZBYN 221800Z 11003MPS 2000 R31/1200N BR NSC 21/18 Q1009
ZBYN,2003-07-22 19:00,ZBYN 221900Z 10002MPS 1800 BR NSC 20/18 Q1009
ZBYN,2003-07-22 20:00,ZBYN 222000Z 11002MPS 1800 R31/0900N BR SKC 19/18 Q1008
ZBYN,2003-07-22 21:00,ZBYN 222100Z 12002MPS 1700 R31/0900N BR SKC 19/17 Q1009 NOSIG
ZBYN,2003-07-22 22:00,ZBYN 222200Z 10001MPS 0800 R31/0900N FG SKC 19/17 Q1009 NOSIG
ZBYN,2003-07-22 23:00,ZBYN 222300Z 11001MPS 1000 R31/1200 BR SKC 20/18 Q1009 NOSIG
ZBYN,2003-07-23 00:00,ZBYN 230000Z 10003MPS 1500 BR NSC 22/18 Q1009 NOSIG
ZBYN,2003-07-23 01:00,ZBYN 230100Z 11002MPS 3000 FU SKC 23/17 Q1009 NOSIG
ZBYN,2003-07-23 02:00,ZBYN 230200Z VRB01MPS 3000 FU SKC 24/17 Q1009 NOSIG
ZBYN,2003-07-23 03:00,ZBYN 230300Z 24001MPS 4000 FU NSC 25/16 Q1009 NOSIG
ZBYN,2003-07-23 04:00,ZBYN 230400Z VRB01MPS 5000 FU NSC 25/17 Q1008 NOSIG
ZBYN,2003-07-23 05:00,ZBYN 230500Z 20002MPS 6000 NSC 27/18 Q1008 NOSIG
ZBYN,2003-07-23 06:00,ZBYN 230600Z 17004MPS CAVOK 28/16 Q1007 NOSIG
ZBYN,2003-07-23 07:00,ZBYN 230700Z 16002MPS 9999 SCT033 BKN200 27/16 Q1007 NOSIG
ZBYN,2003-07-23 08:00,ZBYN 230800Z 18003MPS 9999 -TSRA SCT033CB OVC200 25/17 Q1007 NOSIG
ZBYN,2003-07-23 09:00,ZBYN 230900Z 33003MPS 2000 -TSRA BR FEW020 FEW033CB OVC060 20/19 Q1008 NOSIG
ZBYN,2003-07-23 10:00,ZBYN 231000Z 04002MPS 2500 -TSRA BR FEW020 FEW033CB SCT040 21/19 Q1008 RERA NOSIG
ZBYN,2003-07-23 11:00,ZBYN 231100Z 07001MPS 4000 BR NSC 21/19 Q1008 NOSIG
ZBYN,2003-07-23 12:00,ZBYN 231200Z 27001MPS 1400 R31/P1500 BR NSC 20/19 Q1008 NOSIG
ZBYN,2003-07-23 13:00,ZBYN 231300Z 34001MPS 2000 BR NSC 20/19 Q1008 NOSIG
ZBYN,2003-07-23 14:00,ZBYN 231400Z 01001MPS 3000 BR NSC 20/19 Q1009 NOSIG
ZBYN,2003-07-23 15:00,ZBYN 231500Z VRB01MPS 2500 BR NSC 20/19 Q1009 NOSIG
ZBYN,2003-07-23 16:00,ZBYN 231600Z 01001MPS 2500 BR NSC 20/18 Q1008 NOSIG
ZBYN,2003-07-23 17:00,ZBYN 231700Z 00000MPS 3000 BR NSC 20/18 Q1008
ZBYN,2003-07-23 18:00,ZBYN 231800Z 00000MPS 3000 BR NSC 19/18 Q1008
ZBYN,2003-07-23 19:00,ZBYN 231900Z 02001MPS 3000 BR NSC 20/18 Q1008
ZBYN,2003-07-23 20:00,ZBYN 232000Z 00000MPS 3000 BR NSC 20/18 Q1008
ZBYN,2003-07-23 21:00,ZBYN 232100Z 32001MPS 3000 BR NSC 19/18 Q1008
ZBYN,2003-07-23 22:00,ZBYN 232200Z 30001MPS 1600 BR NSC 19/18 Q1008 NOSIG
ZBYN,2003-07-23 23:00,ZBYN 232300Z 00000MPS 1800 BR NSC 20/18 Q1008 NOSIG
ZBYN,2003-07-24 00:00,ZBYN 240000Z 00000MPS 1700 BR NSC 21/18 Q1008 NOSIG
ZBYN,2003-07-24 01:00,ZBYN 240100Z 00000MPS 4000 BR SKC 22/18 Q1008 NOSIG
ZBYN,2003-07-24 02:00,ZBYN 240200Z 11001MPS 6000 SKC 24/19 Q1008 NOSIG
ZBYN,2003-07-24 03:00,ZBYN 240300Z VRB01MPS 7000 SKC 25/19 Q1008 NOSIG
ZBYN,2003-07-24 04:00,ZBYN 240400Z 28001MPS 9999 FEW030 26/18 Q1007 NOSIG
ZBYN,2003-07-24 05:00,ZBYN 240500Z 30001MPS CAVOK 27/18 Q1006 NOSIG
ZBYN,2003-07-24 06:00,ZBYN 240600Z 27001MPS CAVOK 28/18 Q1006 NOSIG
ZBYN,2003-07-24 07:00,ZBYN 240700Z 27002MPS CAVOK 29/20 Q1005 NOSIG
ZBYN,2003-07-24 08:00,ZBYN 240800Z 27002MPS 9999 FEW030 29/19 Q1005 NOSIG
ZBYN,2003-07-24 09:00,ZBYN 240900Z VRB01MPS 9999 FEW040 FEW040CB SCT200 29/19 Q1005 NOSIG
ZBYN,2003-07-24 10:00,ZBYN 241000Z 08007MPS 5000 SA BKN030 FEW030TCU 27/18 Q1005 NOSIG
ZBYN,2003-07-24 11:00,ZBYN 241100Z 07006MPS 4000 SA SKC 26/19 Q1005 NOSIG
ZBYN,2003-07-24 12:00,ZBYN 241200Z 08005MPS 3000 SA FEW040 25/19 Q1006 NOSIG
ZBYN,2003-07-24 13:00,ZBYN 241300Z 08006MPS 2000 SA FEW040TCU 24/19 Q1006 NOSIG
ZBYN,2003-07-24 14:00,ZBYN 241400Z 09006MPS 2500 SA SKC 24/19 Q1006 NOSIG
ZBYN,2003-07-24 15:00,ZBYN 241500Z 08005MPS 2100 SA NSC 24/19 Q1007 NOSIG
ZBYN,2003-07-24 16:00,ZBYN 241600Z 09004MPS 2500 SA NSC 24/19 Q1007 NOSIG
ZBYN,2003-07-24 17:00,ZBYN 241700Z 07004MPS 2500 SA NSC 24/19 Q1007
ZBYN,2003-07-24 18:00,ZBYN 241800Z 06002MPS 3000 DU SKC 23/20 Q1007
ZBYN,2003-07-24 19:00,ZBYN 241900Z 09002MPS 3500 DU SKC 23/19 Q1007
ZBYN,2003-07-24 20:00,ZBYN 242000Z 08001MPS 4000 DU SKC 22/20 Q1006
ZBYN,2003-07-24 21:00,ZBYN 242100Z 11001MPS 4000 BR BKN040 21/19 Q1006
ZBYN,2003-07-24 22:00,ZBYN 242200Z 11001MPS 2000 R31/1000 BR NSC 22/19 Q1007 NOSIG
ZBYN,2003-07-24 23:00,ZBYN 242300Z 11002MPS 1700 R31/1300D BR NSC 23/20 Q1007 NOSIG
ZBYN,2003-07-25 00:00,ZBYN 250000Z 08003MPS 3000 BR NSC 25/20 Q1007 NOSIG
ZBYN,2003-07-25 01:00,ZBYN 250100Z 09002MPS 3000 BR NSC 26/20 Q1008 NOSIG
ZBYN,2003-07-25 02:00,ZBYN 250200Z 09002MPS 3000 HZ NSC 27/20 Q1008 NOSIG
ZBYN,2003-07-25 03:00,ZBYN 250300Z 14002MPS 6000 NSC 28/21 Q1008 NOSIG
ZBYN,2003-07-25 04:00,ZBYN 250400Z 14001MPS 6000 NSC 29/20 Q1008 NOSIG
ZBYN,2003-07-25 05:00,ZBYN 250500Z 18001MPS 8000 FEW040 BKN200 30/19 Q1007 NOSIG
ZBYN,2003-07-25 06:00,ZBYN 250600Z VRB01MPS 9999 FEW040 BKN200 31/20 Q1007
ZBYN,2003-07-25 07:00,ZBYN 250700Z 17001MPS CAVOK 32/20 Q1006 NOSIG
ZBYN,2003-07-25 08:00,ZBYN 250800Z 14002MPS 9999 FEW040 BKN200 32/20 Q1005 NOSIG
ZBYN,2003-07-25 09:00,ZBYN 250900Z 16002MPS 8000 NSC 32/20 Q1005 NOSIG
ZBYN,2003-07-25 10:00,ZBYN 251000Z 08004MPS 6000 NSC 31/20 Q1005 NOSIG
ZBYN,2003-07-25 11:00,ZBYN 251100Z 08004MPS 6000 FEW033 BKN200 29/20 Q1005 NOSIG
ZBYN,2003-07-25 12:00,ZBYN 251200Z 09003MPS 6000 SCT033 BKN200 28/20 Q1006 NOSIG
ZBYN,2003-07-25 13:00,ZBYN 251300Z 11004MPS 6000 FEW033 BKN200 27/20 Q1007 NOSIG
ZBYN,2003-07-25 14:00,ZBYN 251400Z 08003MPS 6000 NSC 27/20 Q1008 NOSIG
ZBYN,2003-07-25 15:00,ZBYN 251500Z 10004MPS 6000 NSC 26/20 Q1008 NOSIG
ZBYN,2003-07-25 16:00,ZBYN 251600Z 08004MPS 6000 NSC 26/20 Q1008 NOSIG
ZBYN,2003-07-25 17:00,ZBYN 251700Z 09004MPS 6000 NSC 26/20 Q1007
ZBYN,2003-07-25 18:00,ZBYN 251800Z 09003MPS 6000 NSC 25/20 Q1007
ZBYN,2003-07-25 19:00,ZBYN 251900Z 10003MPS 6000 NSC 24/20 Q1007
ZBYN,2003-07-25 20:00,ZBYN 252000Z 09003MPS 6000 NSC 24/20 Q1007
ZBYN,2003-07-25 21:00,ZBYN 252100Z 09003MPS 6000 NSC 24/20 Q1008 NOSIG
ZBYN,2003-07-25 22:00,ZBYN 252200Z 09002MPS 4000 BR NSC 24/20 Q1008 NOSIG
ZBYN,2003-07-25 23:00,ZBYN 252300Z 10003MPS 2500 BR NSC 24/20 Q1008 NOSIG
ZBYN,2003-07-26 00:00,ZBYN 260000Z 11003MPS 3000 BR NSC 25/20 Q1008 NOSIG
ZBYN,2003-07-26 01:00,ZBYN 260100Z 13002MPS 2500 HZ NSC 26/20 Q1008 NOSIG
ZBYN,2003-07-26 02:00,ZBYN 260200Z VRB01MPS 6000 NSC 27/19 Q1008 NOSIG
ZBYN,2003-07-26 03:00,ZBYN 260300Z 18002MPS 6000 NSC 28/20 Q1008 NOSIG
ZBYN,2003-07-26 04:00,ZBYN 260400Z 17001MPS 5000 HZ NSC 29/20 Q1007 NOSIG
ZBYN,2003-07-26 05:00,ZBYN 260500Z 16001MPS 6000 NSC 30/20 Q1006 NOSIG
ZBYN,2003-07-26 06:00,ZBYN 260600Z 16002MPS 7000 NSC 30/20 Q1006 NOSIG
ZBYN,2003-07-26 07:00,ZBYN 260700Z 16002MPS 8000 NSC 31/20 Q1005 NOSIG
ZBYN,2003-07-26 08:00,ZBYN 260800Z 17002MPS 9999 FEW033CB SCT100 BKN200 30/20 Q1005 NOSIG
ZBYN,2003-07-26 09:00,ZBYN 260900Z 16003MPS CAVOK 28/21 Q1005 NOSIG
ZBYN,2003-07-26 10:00,ZBYN 261000Z 16004MPS CAVOK 29/21 Q1005 NOSIG
ZBYN,2003-07-26 11:00,ZBYN 261100Z 16003MPS 9999 FEW040 BKN200 28/20 Q1005 NOSIG
ZBYN,2003-07-26 12:00,ZBYN 261200Z 16001MPS 9999 SCT030TCU BKN200 27/20 Q1006 NOSIG
ZBYN,2003-07-26 13:00,ZBYN 261300Z 13001MPS CAVOK 25/20 Q1007 NOSIG
ZBYN,2003-07-26 14:00,ZBYN 261400Z 13002MPS CAVOK 25/20 Q1007 NOSIG
ZBYN,2003-07-26 15:00,ZBYN 261500Z 11001MPS 3000 BR NSC 25/21 Q1007 NOSIG
ZBYN,2003-07-26 16:00,ZBYN 261600Z 15001MPS 6000 NSC 24/21 Q1007 NOSIG
ZBYN,2003-07-26 17:00,ZBYN 261700Z 12002MPS 2500 BR NSC 23/21 Q1006
ZBYN,2003-07-26 18:00,ZBYN 261800Z 12002MPS 3000 BR NSC 23/21 Q1006
ZBYN,2003-07-26 21:00,ZBYN 262100Z 13002MPS CAVOK 23/21 Q1006 NOSIG
ZBYN,2003-07-26 22:00,ZBYN 262200Z 13002MPS 8000 NSC 23/20 Q1006 NOSIG
ZBYN,2003-07-26 23:00,ZBYN 262300Z 11001MPS 7000 NSC 23/21 Q1006 NOSIG
ZBYN,2003-07-27 00:00,ZBYN 270000Z 15001MPS 8000 NSC 25/21 Q1006 NOSIG
ZBYN,2003-07-27 01:00,ZBYN 270100Z 19002MPS 8000 SKC 27/21 Q1006 NOSIG
ZBYN,2003-07-27 02:00,ZBYN 270200Z 22002MPS 9999 FEW033TCU SCT100 28/21 Q1006 NOSIG
ZBYN,2003-07-27 03:00,ZBYN 270300Z AUTO 32006KT 5SM 28/24 RMK SLP018 T02840238 57001 IEM_DS3505
ZBYN,2003-07-27 04:00,ZBYN 270400Z 30004MPS 9999 TSRA FEW040CB BKN040 22/20 Q1006 NOSIG
ZBYN,2003-07-27 05:00,ZBYN 270500Z 33003MPS 9999 -TSRA FEW040CB BKN040 22/20 Q1006 NOSIG
ZBYN,2003-07-27 06:00,ZBYN 270600Z 32004MPS 9999 -TSRA FEW040CB BKN040 22/20 Q1006 NOSIG
ZBYN,2003-07-27 07:00,ZBYN 270700Z 00000MPS 9999 -TSRA FEW040CB BKN040 21/20 Q1005 NOSIG
ZBYN,2003-07-27 08:00,ZBYN 270800Z 03001MPS 7000 BKN040 24/21 Q1004 NOSIG
ZBYN,2003-07-27 09:00,ZBYN 270900Z 32002MPS 9999 BKN040 27/21 Q1005 NOSIG
ZBYN,2003-07-27 10:00,ZBYN 271000Z 33004MPS 9999 FEW040TCU BKN040 26/20 Q1005 NOSIG
ZBYN,2003-07-27 11:00,ZBYN 271100Z 33004MPS 9999 FEW040TCU BKN040 24/19 Q1005 NOSIG
ZBYN,2003-07-27 12:00,ZBYN 271200Z 34004MPS 9999 -SHRA FEW040 SCT050 23/19 Q1005 NOSIG
ZBYN,2003-07-27 13:00,ZBYN 271300Z 33003MPS CAVOK 23/20 Q1006 NOSIG
ZBYN,2003-07-27 14:00,ZBYN 271400Z 32002MPS CAVOK 23/20 Q1007 NOSIG
ZBYN,2003-07-27 15:00,ZBYN 271500Z 05002MPS CAVOK 22/19 Q1007 NOSIG
ZBYN,2003-07-27 16:00,ZBYN 271600Z 00000MPS CAVOK 22/19 Q1008 NOSIG
ZBYN,2003-07-27 17:00,ZBYN 271700Z 00000MPS CAVOK 22/19 Q1007
ZBYN,2003-07-27 18:00,ZBYN 271800Z 36001MPS CAVOK 22/20 Q1007
ZBYN,2003-07-27 19:00,ZBYN 271900Z 35001MPS CAVOK 22/20 Q1007
ZBYN,2003-07-27 20:00,ZBYN 272000Z 31001MPS CAVOK 21/19 Q1007
ZBYN,2003-07-27 21:00,ZBYN 272100Z 14001MPS CAVOK 20/19 Q1007
ZBYN,2003-07-27 22:00,ZBYN 272200Z 01001MPS CAVOK 21/19 Q1008 NOSIG
ZBYN,2003-07-27 23:00,ZBYN 272300Z 33001MPS 7000 NSC 22/20 Q1008 NOSIG
ZBYN,2003-07-28 00:00,ZBYN 280000Z 22001MPS 6000 NSC 23/20 Q1008 NOSIG
ZBYN,2003-07-28 01:00,ZBYN 280100Z VRB01MPS CAVOK 25/20 Q1009 NOSIG
ZBYN,2003-07-28 02:00,ZBYN 280200Z 02001MPS CAVOK 27/18 Q1009 NOSIG
ZBYN,2003-07-28 03:00,ZBYN 280300Z VRB01MPS CAVOK 28/17 Q1008 NOSIG
ZBYN,2003-07-28 04:00,ZBYN 280400Z VRB01MPS 9999 FEW033 29/19 Q1008 NOSIG
ZBYN,2003-07-28 05:00,ZBYN 280500Z 35002MPS 9999 FEW033 30/17 Q1008 NOSIG
ZBYN,2003-07-28 06:00,ZBYN 280600Z VRB01MPS 9999 FEW033TCU FEW033 30/19 Q1007 NOSIG
ZBYN,2003-07-28 07:00,ZBYN 280700Z 35002MPS 9999 FEW033 31/18 Q1006 NOSIG
ZBYN,2003-07-28 08:00,ZBYN 280800Z 24001MPS 9999 FEW033 32/18 Q1006 NOSIG
ZBYN,2003-07-28 09:00,ZBYN 280900Z 07003MPS 9999 FEW033 32/15 Q1006 NOSIG
ZBYN,2003-07-28 10:00,ZBYN 281000Z 10005MPS 9999 FEW033TCU FEW033 SCT060 30/16 Q1006 NOSIG
ZBYN,2003-07-28 11:00,ZBYN 281100Z 10005MPS 9999 FEW033 SCT100 29/14 Q1007 NOSIG
ZBYN,2003-07-28 12:00,ZBYN 281200Z 08004MPS 9999 SCT033 28/15 Q1007 NOSIG
ZBYN,2003-07-28 13:00,ZBYN 281300Z 08003MPS 9999 SCT033 27/16 Q1008 NOSIG
ZBYN,2003-07-28 14:00,ZBYN 281400Z 08004MPS 9999 SCT033 26/17 Q1009 NOSIG
ZBYN,2003-07-28 15:00,ZBYN 281500Z 08004MPS CAVOK 25/17 Q1009 NOSIG
ZBYN,2003-07-28 16:00,ZBYN 281600Z 13003MPS CAVOK 24/17 Q1009
ZBYN,2003-07-28 17:00,ZBYN 281700Z 10003MPS CAVOK 24/17 Q1009
ZBYN,2003-07-28 18:00,ZBYN 281800Z 07003MPS CAVOK 24/17 Q1009
ZBYN,2003-07-28 19:00,ZBYN 281900Z 11002MPS CAVOK 22/17 Q1009
ZBYN,2003-07-28 21:00,ZBYN 282100Z 08001MPS CAVOK 22/17 Q1009
ZBYN,2003-07-28 22:00,ZBYN 282200Z 00000MPS CAVOK 21/17 Q1009 NOSIG
ZBYN,2003-07-28 23:00,ZBYN 282300Z 11001MPS CAVOK 22/17 Q1009 NOSIG
ZBYN,2003-07-29 00:00,ZBYN 290000Z 03001MPS CAVOK 24/16 Q1009 NOSIG
ZBYN,2003-07-29 01:00,ZBYN 290100Z 06002MPS CAVOK 26/14 Q1009 NOSIG
ZBYN,2003-07-29 02:00,ZBYN 290200Z 12002MPS CAVOK 27/12 Q1009 NOSIG
ZBYN,2003-07-29 03:00,ZBYN 290300Z 12001MPS CAVOK 29/10 Q1008 NOSIG
ZBYN,2003-07-29 04:00,ZBYN 290400Z 17002MPS CAVOK 29/09 Q1008 NOSIG
ZBYN,2003-07-29 05:00,ZBYN 290500Z 18003MPS CAVOK 29/11 Q1007 NOSIG
ZBYN,2003-07-29 06:00,ZBYN 290600Z 20002MPS CAVOK 28/14 Q1007 NOSIG
ZBYN,2003-07-29 07:00,ZBYN 290700Z 18002MPS CAVOK 26/15 Q1007 NOSIG
ZBYN,2003-07-29 08:00,ZBYN 290800Z 19001MPS 9999 -RA NSC 26/14 Q1007 NOSIG
ZBYN,2003-07-29 09:00,ZBYN 290900Z 10002MPS CAVOK 26/15 Q1007 NOSIG
ZBYN,2003-07-29 10:00,ZBYN 291000Z 14003MPS CAVOK 25/15 Q1006 NOSIG
ZBYN,2003-07-29 11:00,ZBYN 291100Z 10003MPS CAVOK 25/16 Q1006 NOSIG
ZBYN,2003-07-29 12:00,ZBYN 291200Z 11003MPS CAVOK 25/16 Q1006 NOSIG
ZBYN,2003-07-29 13:00,ZBYN 291300Z 09002MPS CAVOK 25/16 Q1007 NOSIG
ZBYN,2003-07-29 14:00,ZBYN 291400Z 09003MPS CAVOK 24/16 Q1007 NOSIG
ZBYN,2003-07-29 15:00,ZBYN 291500Z 09003MPS CAVOK 24/14 Q1006 NOSIG
ZBYN,2003-07-29 16:00,ZBYN 291600Z 08003MPS CAVOK 24/11 Q1006 NOSIG
ZBYN,2003-07-29 17:00,ZBYN 291700Z 12003MPS CAVOK 24/13 Q1006
ZBYN,2003-07-29 18:00,ZBYN 291800Z 10002MPS CAVOK 23/13 Q1006
ZBYN,2003-07-29 19:00,ZBYN 291900Z 10003MPS CAVOK 23/14 Q1005
ZBYN,2003-07-29 20:00,ZBYN 292000Z 09002MPS CAVOK 23/15 Q1004
ZBYN,2003-07-29 21:00,ZBYN 292100Z VRB01MPS CAVOK 23/15 Q1004
ZBYN,2003-07-29 22:00,ZBYN 292200Z 10001MPS 8000 NSC 23/17 Q1004 NOSIG
ZBYN,2003-07-29 23:00,ZBYN 292300Z 13002MPS 6000 NSC 22/18 Q1004 NOSIG
ZBYN,2003-07-30 00:00,ZBYN 300000Z VRB01MPS 3000 BR NSC 23/18 Q1004 NOSIG
ZBYN,2003-07-30 01:00,ZBYN 300100Z 00000MPS 1600 BR BKN040 OVC100 23/19 Q1004 NOSIG
ZBYN,2003-07-30 02:00,ZBYN 300200Z 32001MPS 1600 BR NSC 24/20 Q1004 NOSIG
ZBYN,2003-07-30 03:00,ZBYN 300300Z 32002MPS 3000 BR NSC 24/18 Q1004 NOSIG
ZBYN,2003-07-30 04:00,ZBYN 300400Z 32004MPS 4000 BR NSC 23/18 Q1004 NOSIG
ZBYN,2003-07-30 05:00,ZBYN 300500Z 32003MPS 4000 BR NSC 23/19 Q1003 NOSIG
ZBYN,2003-07-30 06:00,ZBYN 300600Z 32002MPS 4000 BR NSC 25/20 Q1002 NOSIG
ZBYN,2003-07-30 07:00,ZBYN 300700Z 33004MPS 5000 HZ NSC 25/19 Q1001 NOSIG
ZBYN,2003-07-30 08:00,ZBYN 300800Z 33004MPS 7000 -TSRA FEW033CB SCT033 OVC100 24/19 Q1001 NOSIG
ZBYN,2003-07-30 09:00,ZBYN 300900Z 32005MPS 6000 -TSRA FEW033CB BKN033 OVC100 23/19 Q1002 NOSIG
ZBYN,2003-07-30 10:00,ZBYN 301000Z 28001MPS 5000 BR BKN033 OVC100 24/20 Q1003 NOSIG
ZBYN,2003-07-30 11:00,ZBYN 301100Z 30002MPS 6000 NSC 23/20 Q1002 NOSIG
ZBYN,2003-07-30 12:00,ZBYN 301200Z 32002MPS 9000 NSC 22/19 Q1003 NOSIG
ZBYN,2003-07-30 13:00,ZBYN 301300Z 31001MPS CAVOK 22/18 Q1004 NOSIG
ZBYN,2003-07-30 14:00,ZBYN 301400Z 30001MPS CAVOK 22/18 Q1004 NOSIG
ZBYN,2003-07-30 15:00,ZBYN 301500Z 32001MPS CAVOK 21/18 Q1004 NOSIG
ZBYN,2003-07-30 16:00,ZBYN 301600Z 29001MPS CAVOK 21/18 Q1004 NOSIG
ZBYN,2003-07-30 17:00,ZBYN 301700Z 32001MPS CAVOK 21/19 Q1004
ZBYN,2003-07-30 18:00,ZBYN 301800Z 00000MPS CAVOK 21/18 Q1004
ZBYN,2003-07-30 19:00,ZBYN 301900Z 31001MPS CAVOK 21/19 Q1003
ZBYN,2003-07-30 20:00,ZBYN 302000Z 00000MPS CAVOK 21/18 Q1003
ZBYN,2003-07-30 21:00,ZBYN 302100Z 28001MPS 8000 NSC 21/19 Q1004
ZBYN,2003-07-30 22:00,ZBYN 302200Z 20001MPS 7000 NSC 21/19 Q1004 NOSIG
ZBYN,2003-07-30 23:00,ZBYN 302300Z 20001MPS 5000 BR NSC 21/19 Q1004 NOSIG
ZBYN,2003-07-31 00:00,ZBYN 310000Z 28001MPS 5000 BR NSC 22/19 Q1005 NOSIG
ZBYN,2003-07-31 01:00,ZBYN 310100Z 00000MPS 4000 BR NSC 23/19 Q1005 NOSIG
ZBYN,2003-07-31 02:00,ZBYN 310200Z 34002MPS CAVOK 24/19 Q1004 NOSIG
ZBYN,2003-07-31 03:00,ZBYN 310300Z 33004MPS CAVOK 26/19 Q1004 NOSIG
ZBYN,2003-07-31 04:00,ZBYN 310400Z 33006MPS CAVOK 27/19 Q1004 NOSIG
ZBYN,2003-07-31 05:00,ZBYN 310500Z 33007MPS 9999 FEW033TCU SCT033 27/18 Q1004 NOSIG
ZBYN,2003-07-31 06:00,ZBYN 310600Z 32005MPS 9999 -SHRA FEW033CB BKN033 25/19 Q1004 NOSIG
ZBYN,2003-07-31 07:00,ZBYN 310700Z 34006MPS 9999 FEW033TCU BKN033 26/18 Q1003 NOSIG
ZBYN,2003-07-31 08:00,ZBYN 310800Z 34007MPS 9999 -SHRA FEW033CB BKN033 25/17 Q1004 NOSIG
ZBYN,2003-07-31 09:00,ZBYN 310900Z 01002MPS 9999 FEW033TCU BKN033 23/19 Q1004 NOSIG
ZBYN,2003-07-31 10:00,ZBYN 311000Z 01003MPS 9999 BKN033 23/18 Q1005 NOSIG
ZBYN,2003-07-31 11:00,ZBYN 311100Z 32002MPS 6000 -SHRA FEW030CB BKN030 22/19 Q1005 NOSIG
ZBYN,2003-07-31 12:00,ZBYN 311200Z 07004MPS 9999 -SHRA FEW030CB BKN030 21/19 Q1006 NOSIG
ZBYN,2003-07-31 13:00,ZBYN 311300Z 35001MPS 9999 OVC040 21/20 Q1006 NOSIG
ZBYN,2003-07-31 14:00,ZBYN 311400Z 36002MPS 6000 NSC 22/20 Q1006 NOSIG
ZBYN,2003-07-31 15:00,ZBYN 311500Z 36002MPS 6000 NSC 22/19 Q1006 NOSIG
ZBYN,2003-07-31 16:00,ZBYN 311600Z 34005MPS 8000 NSC 22/18 Q1006 NOSIG
ZBYN,2003-07-31 17:00,ZBYN 311700Z 35006MPS CAVOK 20/17 Q1006
ZBYN,2003-07-31 18:00,ZBYN 311800Z 34006MPS CAVOK 20/17 Q1005
ZBYN,2003-07-31 19:00,ZBYN 311900Z 01002MPS 9999 -RA NSC 20/17 Q1005
ZBYN,2003-07-31 20:00,ZBYN 312000Z 33004MPS 9999 -RA NSC 20/17 Q1005
ZBYN,2003-07-31 21:00,ZBYN 312100Z 36005MPS 9999 -RA OVC040 18/17 Q1006
ZBYN,2003-07-31 22:00,ZBYN 312200Z 34006MPS 9999 -RA OVC040 18/17 Q1006 NOSIG
ZBYN,2003-07-31 23:00,ZBYN 312300Z 34003MPS 9999 -RA SCT020 OVC040 18/17 Q1007 NOSIG
ZBYN,2003-08-01 00:00,ZBYN 010000Z 36002MPS 9999 -RA SCT020 OVC050 19/17 Q1007 NOSIG
ZBYN,2003-08-01 01:00,ZBYN 010100Z 30001MPS 9999 -RA BKN033 OVC100 19/18 Q1008 NOSIG
ZBYN,2003-08-01 02:00,ZBYN 010200Z 33001MPS 9999 BKN040 BKN100 20/17 Q1008 NOSIG
ZBYN,2003-08-01 03:00,ZBYN 010300Z 36002MPS 9999 SCT040 BKN100 22/18 Q1008 NOSIG
ZBYN,2003-08-01 04:00,ZBYN 010400Z 32001MPS 9999 SCT040 BKN100 23/17 Q1008 NOSIG
ZBYN,2003-08-01 04:30,ZBYN 010430Z 14001MPS //50 40 BKN100 22/18 Q1008 NOSIG
ZBYN,2003-08-01 05:00,ZBYN 010500Z 22001MPS 9999 SCT030 BKN090 24/18 Q1007 NOSIG
ZBYN,2003-08-01 06:00,ZBYN 010600Z 12001MPS 9999 FEW40/ OVC100 23/18 Q1007 NOSIG
ZBYN,2003-08-01 07:00,ZBYN 010700Z 10001MPS CAVOK 24/18 Q1007 NOSIG
ZBYN,2003-08-01 08:00,ZBYN 010800Z 14001MPS CAVOK 24/18 Q1007 NOSIG
ZBYN,2003-08-01 09:00,ZBYN 010900Z 15001MPS CAVOK 25/18 Q1007 NOSIG
ZBYN,2003-08-01 10:00,ZBYN 011000Z 18001MPS CAVOK 24/19 Q1008 NOSIG
ZBYN,2003-08-01 12:00,ZBYN 011200Z 22001MPS CAVOK 22/19 Q1008 NOSIG
ZBYN,2003-08-01 13:00,ZBYN 011300Z 20001MPS CAVOK 22/19 Q1009 NOSIG
ZBYN,2003-08-01 14:00,ZBYN 011400Z 14001MPS 6000 NSC 21/19 Q1009 NOSIG
ZBYN,2003-08-01 15:00,ZBYN 011500Z 00000MPS 6000 NSC 21/19 Q1010 NOSIG
ZBYN,2003-08-01 16:00,ZBYN 011600Z 12001MPS 3000 BR NSC 20/19 Q1010 NOSIG
ZBYN,2003-08-01 17:00,ZBYN 011700Z VRB01MPS 3000 R31/1300D BR NSC 20/18 Q1009
ZBYN,2003-08-01 18:00,ZBYN 011800Z 00000MPS 2500 R31/1000N BR NSC 20/19 Q1009
ZBYN,2003-08-01 19:00,ZBYN 011900Z 00000MPS 1700 R31/0800N BR NSC 20/19 Q1009
ZBYN,2003-08-01 20:00,ZBYN 012000Z 00000MPS 1700 R31/0800N BR NSC 19/18 Q1010
ZBYN,2003-08-01 21:00,ZBYN 012100Z 00000MPS 1400 R31/1300 BR NSC 20/19 Q1010 NOSIG
ZBYN,2003-08-01 22:00,ZBYN 012200Z 05001MPS 1600 BR NSC 20/18 Q1010 NOSIG
ZBYN,2003-08-01 23:00,ZBYN 012300Z 00000MPS 0900 R31/0800N FG NSC 20/18 Q1010 NOSIG
ZBYN,2003-08-02 00:00,ZBYN 020000Z 02001MPS 1000 R31/1000N BR NSC 20/19 Q1010 NOSIG
ZBYN,2003-08-02 01:00,ZBYN 020100Z 00000MPS 1300 R31/1000N BR NSC 21/19 Q1011 NOSIG
ZBYN,2003-08-02 02:00,ZBYN 020200Z 00000MPS 1600 R31/1100N BR NSC 22/19 Q1011 NOSIG
ZBYN,2003-08-02 03:00,ZBYN 020300Z 00000MPS 2000 BR NSC 24/19 Q1011 NOSIG
ZBYN,2003-08-02 04:00,ZBYN 020400Z 31003MPS 4000 BR NSC 24/19 Q1011 NOSIG
ZBYN,2003-08-02 05:00,ZBYN 020500Z 32002MPS CAVOK 25/16 Q1011 NOSIG
ZBYN,2003-08-02 06:00,ZBYN 020600Z 33003MPS CAVOK 25/14 Q1012 NOSIG
ZBYN,2003-08-02 07:00,ZBYN 020700Z 33002MPS CAVOK 24/16 Q1011 NOSIG
ZBYN,2003-08-02 08:00,ZBYN 020800Z 22001MPS CAVOK 25/17 Q1011 NOSIG
ZBYN,2003-08-02 09:00,ZBYN 020900Z 23001MPS 6000 NSC 24/19 Q1012 NOSIG
ZBYN,2003-08-02 10:00,ZBYN 021000Z 18001MPS 7000 NSC 24/18 Q1011 NOSIG
ZBYN,2003-08-02 11:00,ZBYN 021100Z 00000MPS 3000 BR NSC 23/19 Q1012 NOSIG
ZBYN,2003-08-02 12:00,ZBYN 021200Z 17002MPS 3000 BR NSC 22/19 Q1012 NOSIG
ZBYN,2003-08-02 13:00,ZBYN 021300Z 00000MPS 3000 BR NSC 21/19 Q1013 NOSIG
ZBYN,2003-08-02 14:00,ZBYN 021400Z 16001MPS 4000 BR NSC 21/17 Q1013 NOSIG
ZBYN,2003-08-02 15:00,ZBYN 021500Z 00000MPS 6000 NSC 20/17 Q1013 NOSIG
ZBYN,2003-08-02 16:00,ZBYN 021600Z 00000MPS 6000 NSC 20/17 Q1013 NOSIG
ZBYN,2003-08-02 17:00,ZBYN 021700Z 16002MPS 4000 BR NSC 19/17 Q1013
ZBYN,2003-08-02 18:00,ZBYN 021800Z 12002MPS 3000 BR NSC 18/17 Q1013
ZBYN,2003-08-02 19:00,ZBYN 021900Z 12001MPS 3000 BR NSC 18/16 Q1013
ZBYN,2003-08-02 20:00,ZBYN 022000Z 13001MPS 4000 R31/1400N BR NSC 18/16 Q1013
ZBYN,2003-08-02 21:00,ZBYN 022100Z 00000MPS 3000 R31/13200N BR NSC 18/16 Q1013
ZBYN,2003-08-02 22:00,ZBYN 022200Z VRB01MPS 2000 R31/1000N BR NSC 18/16 Q1013 NOSIG
ZBYN,2003-08-02 23:00,ZBYN 022300Z 08001MPS 2000 R31/1100N BR NSC 18/17 Q1013 NOSIG
ZBYN,2003-08-03 00:00,ZBYN 030000Z 15001MPS 1500 R31/1300 BR NSC 19/17 Q1013 NOSIG
ZBYN,2003-08-03 01:00,ZBYN 030100Z 20001MPS 2000 BR NSC 20/16 Q1013 NOSIG
ZBYN,2003-08-03 02:00,ZBYN 030200Z VRB01MPS 3000 BR NSC 21/15 Q1013 NOSIG
ZBYN,2003-08-03 03:00,ZBYN 030300Z 00000MPS 3000 HZ NSC 22/16 Q1013 NOSIG
ZBYN,2003-08-03 04:00,ZBYN 030400Z 19001MPS 3500 HZ NSC 24/16 Q1013 NOSIG
ZBYN,2003-08-03 05:00,ZBYN 030500Z 21001MPS 7000 FEW030TCU SCT100 25/16 Q1012 NOSIG
ZBYN,2003-08-03 06:00,ZBYN 030600Z 20002MPS CAVOK 26/15 Q1012 NOSIG
ZBYN,2003-08-03 07:00,ZBYN 030700Z 20002MPS 9999 FEW030TCU 27/13 Q1011 NOSIG
ZBYN,2003-08-03 08:00,ZBYN 030800Z 21002MPS CAVOK 28/13 Q1011 NOSIG
ZBYN,2003-08-03 09:00,ZBYN 030900Z 25002MPS CAVOK 27/14 Q1011 NOSIG
ZBYN,2003-08-03 10:00,ZBYN 031000Z 27001MPS CAVOK 27/15 Q1010 NOSIG
ZBYN,2003-08-03 11:00,ZBYN 031100Z 12001MPS CAVOK 25/19 Q1011 NOSIG
ZBYN,2003-08-03 12:00,ZBYN 031200Z 14001MPS CAVOK 20/18 Q1011 NOSIG
ZBYN,2003-08-03 13:00,ZBYN 031300Z 11001MPS CAVOK 21/17 Q1012 NOSIG
ZBYN,2003-08-03 14:00,ZBYN 031400Z 13002MPS CAVOK 20/16 Q1012 NOSIG
ZBYN,2003-08-03 15:00,ZBYN 031500Z 12001MPS 7000 SKC 19/17 Q1012 NOSIG
ZBYN,2003-08-03 16:00,ZBYN 031600Z 10001MPS 4000 BR SKC 19/16 Q1012 NOSIG
ZBYN,2003-08-03 17:00,ZBYN 031700Z 09001MPS 4000 BR SKC 18/15 Q1012
ZBYN,2003-08-03 18:00,ZBYN 031800Z 14002MPS 4000 BR SKC 17/15 Q1012
ZBYN,2003-08-03 19:00,ZBYN 031900Z 00000MPS 6000 SKC 17/15 Q1012
ZBYN,2003-08-03 20:00,ZBYN 032000Z 00000MPS 6000 SKC 15/14 Q1013
ZBYN,2003-08-03 21:00,ZBYN 032100Z 00000MPS 6000 SKC 16/15 Q1013 NOSIG
ZBYN,2003-08-03 22:00,ZBYN 032200Z 05001MPS 2000 R31/1400 BR SKC 16/15 Q1013 NOSIG
ZBYN,2003-08-03 23:00,ZBYN 032300Z 09001MPS 1700 R31/1300 BR SKC 17/16 Q1013 TEMPO 1 500 BR
ZBYN,2003-08-04 00:00,ZBYN 040000Z VRB01MPS 1700 R31/1400 BR SKC 20/16 Q1013 NOSIG
ZBYN,2003-08-04 01:00,ZBYN 040100Z 32002MPS 3000 HZ SKC 22/16 Q1012 NOSIG
ZBYN,2003-08-04 02:00,ZBYN 040200Z VRB01MPS 9000 SKC 24/15 Q1012 NOSIG
ZBYN,2003-08-04 03:00,ZBYN 040300Z VRB01MPS CAVOK 26/15 Q1012 NOSIG
ZBYN,2003-08-04 04:00,ZBYN 040400Z 08002MPS CAVOK 28/12 Q1011 NOSIG
ZBYN,2003-08-04 05:00,ZBYN 040500Z 07002MPS CAVOK 29/12 Q1010 NOSIG
ZBYN,2003-08-04 06:00,ZBYN 040600Z 09004MPS CAVOK 30/08 Q1010 NOSIG
ZBYN,2003-08-04 07:00,ZBYN 040700Z 08005MPS CAVOK 30/09 Q1009 NOSIG
ZBYN,2003-08-04 08:00,ZBYN 040800Z 08006MPS CAVOK 29/09 Q1009 NOSIG
ZBYN,2003-08-04 09:00,ZBYN 040900Z 08006MPS 9999 FEW040 29/10 Q1009 NOSIG
ZBYN,2003-08-04 10:00,ZBYN 041000Z 08005MPS 9999 FEW040 SCT200 27/10 Q1009 NOSIG
ZBYN,2003-08-04 11:00,ZBYN 041100Z 09003MPS 9999 FEW040 BKN200 26/11 Q1010 NOSIG
ZBYN,2003-08-04 12:00,ZBYN 041200Z 09005MPS 9999 FEW040 OVC200 24/13 Q1011 NOSIG
ZBYN,2003-08-04 13:00,ZBYN 041300Z 09004MPS CAVOK 24/11 Q1011 NOSIG
ZBYN,2003-08-04 14:00,ZBYN 041400Z 09004MPS CAVOK 23/10 Q1011 NOSIG
ZBYN,2003-08-04 15:00,ZBYN 041500Z 09004MPS CAVOK 22/11 Q1010 NOSIG
ZBYN,2003-08-04 16:00,ZBYN 041600Z 08004MPS CAVOK 22/12 Q1010 NOSIG
ZBYN,2003-08-04 17:00,ZBYN 041700Z 08004MPS CAVOK 22/13 Q1010
ZBYN,2003-08-04 18:00,ZBYN 041800Z 07001MPS CAVOK 22/13 Q1010
ZBYN,2003-08-04 19:00,ZBYN 041900Z 09002MPS CAVOK 21/14 Q1010
ZBYN,2003-08-04 20:00,ZBYN 042000Z 06002MPS CAVOK 21/14 Q1010
ZBYN,2003-08-04 21:00,ZBYN 042100Z 08003MPS CAVOK 21/15 Q1010
ZBYN,2003-08-04 22:00,ZBYN 042200Z 08003MPS CAVOK 21/15 Q1010 NOSIG
ZBYN,2003-08-04 23:00,ZBYN 042300Z 09002MPS 6000 NSC 21/15 Q1010 NOSIG
ZBYN,2003-08-05 00:00,ZBYN 050000Z 09002MPS 6000 NSC 22/16 Q1009 NOSIG
ZBYN,2003-08-05 01:00,ZBYN 050100Z 12002MPS 7000 NSC 23/16 Q1009 NOSIG
ZBYN,2003-08-05 02:00,ZBYN 050200Z 17001MPS 6000 NSC 24/17 Q1009 NOSIG
ZBYN,2003-08-05 03:00,ZBYN 050300Z 19001MPS 6000 NSC 25/17 Q1009 NOSIG
ZBYN,2003-08-05 04:00,ZBYN 050400Z VRB01MPS 2000 -TSRA BR FEW033CB BKN100 22/19 Q1009 NOSIG
ZBYN,2003-08-05 05:00,ZBYN 050500Z 33001MPS 4000 -RA BR FEW040CB SCT050 BKN100 23/19 Q1008 NOSIG
ZBYN,2003-08-05 06:00,ZBYN 050600Z 16001MPS 6000 NSC 24/18 Q1008 NOSIG
ZBYN,2003-08-05 07:00,ZBYN 050700Z 20003MPS 6000 SCT040 25/18 Q1007 NOSIG
ZBYN,2003-08-05 08:00,ZBYN 050800Z 20002MPS 9000 NSC 25/18 Q1007 NOSIG
ZBYN,2003-08-05 09:00,ZBYN 050900Z 21002MPS 7000 SKC 25/18 Q1006 NOSIG
ZBYN,2003-08-05 10:00,ZBYN 051000Z 23001MPS 7000 SKC 25/18 Q1006 NOSIG
ZBYN,2003-08-05 11:00,ZBYN 051100Z 20001MPS 5000 BR SKC 24/18 Q1006 NOSIG
ZBYN,2003-08-05 12:00,ZBYN 051200Z 11001MPS 6000 SKC 21/19 Q1006 NOSIG
ZBYN,2003-08-05 13:00,ZBYN 051300Z 12002MPS 6000 SKC 20/18 Q1007 NOSIG
ZBYN,2003-08-05 14:00,ZBYN 051400Z 08001MPS 4000 BR SKC 20/19 Q1007 NOSIG
ZBYN,2003-08-05 15:00,ZBYN 051500Z 11001MPS 3000 BR SKC 20/18 Q1007 NOSIG
ZBYN,2003-08-05 16:00,ZBYN 051600Z 12001MPS 2500 BR NSC 19/18 Q1008 NOSIG
ZBYN,2003-08-05 17:00,ZBYN 051700Z 12001MPS 3000 R31/1400N BR NSC 19/18 Q1008
ZBYN,2003-08-05 18:00,ZBYN 051800Z 14001MPS 3000 BR NSC 18/17 Q1008
ZBYN,2003-08-05 19:00,ZBYN 051900Z 00000MPS 3000 R31/1200N BR SKC 18/16 Q1008
ZBYN,2003-08-05 20:00,ZBYN 052000Z 00000MPS 1600 BR NSC 18/16 Q1008
ZBYN,2003-08-05 21:00,ZBYN 052100Z 12001MPS 1400 R31/0800N BR SKC 17/16 Q1007
ZBYN,2003-08-05 22:00,ZBYN 052200Z 00000MPS 1200 R31/0900N BR SKC 17/16 Q1008 NOSIG
ZBYN,2003-08-05 23:00,ZBYN 052300Z 10001MPS 1100 R31/0900N BR SKC 18/17 Q1008 NOSIG
ZBYN,2003-08-06 00:00,ZBYN 060000Z 05001MPS 1400 R31/1100U BR SKC 20/18 Q1008 NOSIG
ZBYN,2003-08-06 01:00,ZBYN 060100Z 28001MPS 1600 R31/1200N BR SKC 22/18 Q1008 NOSIG
ZBYN,2003-08-06 02:00,ZBYN 060200Z 30001MPS 3000 HZ SKC 24/18 Q1008 NOSIG
ZBYN,2003-08-06 03:00,ZBYN 060300Z VRB01MPS 6000 SKC 26/17 Q1008 NOSIG
ZBYN,2003-08-06 04:00,ZBYN 060400Z 24002MPS 7000 SKC 28/17 Q1007 NOSIG
ZBYN,2003-08-06 05:00,ZBYN 060500Z 16002MPS CAVOK 29/15 Q1007 NOSIG
ZBYN,2003-08-06 06:00,ZBYN 060600Z 19002MPS CAVOK 30/14 Q1006 NOSIG
ZBYN,2003-08-06 07:00,ZBYN 060700Z 21001MPS 9999 FEW030 30/14 Q1006 NOSIG
ZBYN,2003-08-06 08:00,ZBYN 060800Z 25002MPS 9999 FEW030 31/13 Q1006 NOSIG
ZBYN,2003-08-06 09:00,ZBYN 060900Z 27001MPS 9999 FEW030 30/15 Q1006 NOSIG
ZBYN,2003-08-06 10:00,ZBYN 061000Z 28002MPS 9999 FEW030 29/17 Q1006 NOSIG
ZBYN,2003-08-06 11:00,ZBYN 061100Z 03003MPS 9999 FEW030 28/12 Q1007 NOSIG
ZBYN,2003-08-06 12:00,ZBYN 061200Z 03002MPS 9999 SCT030 26/14 Q1007 NOSIG
ZBYN,2003-08-06 13:00,ZBYN 061300Z 05001MPS 9999 SCT030 24/16 Q1008 NOSIG
ZBYN,2003-08-06 14:00,ZBYN 061400Z VRB01MPS CAVOK 22/15 Q1009 NOSIG
ZBYN,2003-08-06 15:00,ZBYN 061500Z VRB01MPS CAVOK 20/15 Q1009 NOSIG
ZBYN,2003-08-06 16:00,ZBYN 061600Z 12002MPS CAVOK 19/15 Q1009 NOSIG
ZBYN,2003-08-06 17:00,ZBYN 061700Z 12002MPS CAVOK 19/13 Q1009
ZBYN,2003-08-06 18:00,ZBYN 061800Z 00000MPS CAVOK 19/13 Q1009
ZBYN,2003-08-06 19:00,ZBYN 061900Z 10001MPS CAVOK 17/14 Q1009
ZBYN,2003-08-06 20:00,ZBYN 062000Z AUTO 00000KT 6SM 18/14 A2980 RMK T01800140 IEM_DS3505
ZBYN,2003-08-06 21:00,ZBYN 062100Z 00000MPS CAVOK 18/14 Q1010
ZBYN,2003-08-06 22:00,ZBYN 062200Z 31002MPS CAVOK 18/13 Q1010 NOSIG
ZBYN,2003-08-06 23:00,ZBYN 062300Z 00000MPS CAVOK 19/14 Q1010 NOSIG
ZBYN,2003-08-07 00:00,ZBYN 070000Z 35002MPS CAVOK 22/14 Q1010 NOSIG
ZBYN,2003-08-07 01:00,ZBYN 070100Z 07002MPS CAVOK 25/13 Q1010 NOSIG
ZBYN,2003-08-07 02:00,ZBYN 070200Z 08004MPS CAVOK 27/12 Q1009 NOSIG
ZBYN,2003-08-07 03:00,ZBYN 070300Z 07004MPS CAVOK 28/13 Q1009 NOSIG
ZBYN,2003-08-07 04:00,ZBYN 070400Z 06002MPS CAVOK 29/15 Q1008 NOSIG
ZBYN,2003-08-07 05:00,ZBYN 070500Z 17001MPS CAVOK 30/15 Q1008 NOSIG
ZBYN,2003-08-07 06:00,ZBYN 070600Z VRB01MPS CAVOK 30/16 Q1007 NOSIG
ZBYN,2003-08-07 07:00,ZBYN 070700Z 19002MPS CAVOK 30/16 Q1006 NOSIG
ZBYN,2003-08-07 08:00,ZBYN 070800Z 19001MPS CAVOK 31/16 Q1006 NOSIG
ZBYN,2003-08-07 09:00,ZBYN 070900Z 22002MPS 9999 FEW030 30/17 Q1005 NOSIG
ZBYN,2003-08-07 10:00,ZBYN 071000Z 16001MPS CAVOK 29/18 Q1005 NOSIG
ZBYN,2003-08-07 11:00,ZBYN 071100Z 08004MPS CAVOK 28/15 Q1005 NOSIG
ZBYN,2003-08-07 12:00,ZBYN 071200Z 08004MPS CAVOK 27/15 Q1006 NOSIG
ZBYN,2003-08-07 13:00,ZBYN 071300Z 08005MPS CAVOK 26/15 Q1007 NOSIG
ZBYN,2003-08-07 14:00,ZBYN 071400Z 08005MPS CAVOK 25/15 Q1007 NOSIG
ZBYN,2003-08-07 15:00,ZBYN 071500Z 09004MPS CAVOK 25/15 Q1006 NOSIG
ZBYN,2003-08-07 16:00,ZBYN 071600Z 11003MPS CAVOK 24/16 Q1005 NOSIG
ZBYN,2003-08-07 17:00,ZBYN 071700Z 09003MPS 9999 -RA NSC 22/17 Q1005
ZBYN,2003-08-07 18:00,ZBYN 071800Z AUTO 00000KT 6SM 23/19 A2969 RMK 60001 SLP010 T02270194 57012 IEM_DS3505
ZBYN,2003-08-07 21:00,ZBYN 072100Z AUTO 11004KT 5SM 21/20 RMK 70016 SLP013 T02090198 54000 IEM_DS3505
ZBYN,2003-08-07 22:00,ZBYN 072200Z 11001MPS 3000 R31/1300U -RA BR SCT040 OVC100 19/// 17 Q1005 NOSIG
ZBYN,2003-08-08 00:00,ZBYN 080000Z 11001MPS 1000 R31/1000N -RA BR NSC 19/18 Q1005 NOSIG
ZBYN,2003-08-08 01:00,ZBYN 080100Z 11002MPS 0800 R31/0700N -RA FG SCT020 OVC090 19/18 Q1005 NOSIG
ZBYN,2003-08-08 02:00,ZBYN 080200Z 00000MPS 1600 -RA BR BKN020 OVC090 19/18 Q1005 NOSIG
ZBYN,2003-08-08 03:00,ZBYN 080300Z 00000MPS 1800 -RA BR BKN020 OVC090 19/18 Q1005 NOSIG
ZBYN,2003-08-08 04:00,ZBYN 080400Z 00000MPS 1800 -RA BR SCT020 OVC090 20/18 Q1004 NOSIG
ZBYN,2003-08-08 05:00,ZBYN 080500Z 12001MPS 1800 BR FEW020 OVC100 20/19 Q1004 NOSIG
ZBYN,2003-08-08 06:00,ZBYN 080600Z 00000MPS 2500 BR NSC 21/18 Q1004 NOSIG
ZBYN,2003-08-08 07:00,ZBYN 080700Z 00000MPS 2500 BR NSC 23/18 Q1004 NOSIG
ZBYN,2003-08-08 08:00,ZBYN 080800Z 27001MPS 2500 BR NSC 23/19 Q1004 NOSIG
ZBYN,2003-08-08 09:00,ZBYN 080900Z 18001MPS 3000 BR NSC 23/19 Q1003 NOSIG
ZBYN,2003-08-08 10:00,ZBYN 081000Z 17002MPS 3000 BR NSC 23/19 Q1003 NOSIG
ZBYN,2003-08-08 11:00,ZBYN 081100Z 17001MPS 4000 BR NSC 22/19 Q1004 NOSIG
ZBYN,2003-08-08 12:00,ZBYN 081200Z 16001MPS 2500 BR NSC 21/19 Q1004 NOSIG
ZBYN,2003-08-08 13:00,ZBYN 081300Z 00000MPS 2000 BR NSC 20/19 Q1005 NOSIG
ZBYN,2003-08-08 14:00,ZBYN 081400Z 25001MPS 1400 R31/1300N BR NSC 20/19 Q1005 NOSIG
ZBYN,2003-08-08 15:00,ZBYN 081500Z 00000MPS 1400 R31/1000N BR NSC 19/18 Q1005 NOSIG
ZBYN,2003-08-08 16:00,ZBYN 081600Z 11001MPS 1200 R31/0200N BR NSC 18/17 Q1005 NOSIG
ZBYN,2003-08-08 17:00,ZBYN 081700Z VRB01MPS 0900 R31/0050N FG NSC 18/17 Q1005
ZBYN,2003-08-08 18:00,ZBYN 081800Z 14001MPS 0200 R31/M0050N FG NSC 18/17 Q1004
ZBYN,2003-08-08 19:00,ZBYN 081900Z 28001MPS 0200 R31/0100N FG NSC 19/18 Q1004
ZBYN,2003-08-08 20:00,ZBYN 082000Z 09001MPS 0500 R31/0400N FG NSC 19/18 Q1004
ZBYN,2003-08-08 21:00,ZBYN 082100Z 00000MPS 0500 R31/0400N FG NSC 19/19 Q1005
ZBYN,2003-08-08 22:00,ZBYN 082200Z 25001MPS 0600 R31/0400N FG NSC 19/19 Q1005 NOSIG
ZBYN,2003-08-08 23:00,ZBYN 082300Z 00000MPS 0600 R31/0600N FG NSC 20/19 Q1005 NOSIG
ZBYN,2003-08-09 00:00,ZBYN 090000Z 00000MPS 0700 R31/0800N FG NSC 20/19 Q1006 NOSIG
ZBYN,2003-08-09 01:00,ZBYN 090100Z 20001MPS 0700 R31/0800N FG NSC 21/19 Q1006 NOSIG
ZBYN,2003-08-09 02:00,ZBYN 090200Z 17001MPS 1100 R31/1000N BR FEW016 BKN200 22/19 Q1006 NOSIG
ZBYN,2003-08-09 03:00,ZBYN 090300Z 17002MPS 1600 BR NSC 24/19 Q1005 NOSIG
ZBYN,2003-08-09 04:00,ZBYN 090400Z 16002MPS 4000 BR NSC 25/20 Q1005 NOSIG
ZBYN,2003-08-09 05:00,ZBYN 090500Z 18002MPS 4000 BR NSC 26/20 Q1004 NOSIG
ZBYN,2003-08-09 06:00,ZBYN 090600Z 19002MPS 4000 HZ NSC 27/19 Q1004 NOSIG
ZBYN,2003-08-09 07:00,ZBYN 090700Z VRB01MPS CAVOK 28/18 Q1003 NOSIG
ZBYN,2003-08-09 08:00,ZBYN 090800Z 22001MPS CAVOK 28/16 Q1003 NOSIG
ZBYN,2003-08-09 09:00,ZBYN 090900Z 21001MPS CAVOK 28/15 Q1003 NOSIG
ZBYN,2003-08-09 10:00,ZBYN 091000Z 18001MPS CAVOK 27/17 Q1003 NOSIG
ZBYN,2003-08-09 11:00,ZBYN 091100Z 19001MPS CAVOK 26/19 Q1003 NOSIG
ZBYN,2003-08-09 12:00,ZBYN 091200Z 17001MPS CAVOK 24/19 Q1004 NOSIG
ZBYN,2003-08-09 13:00,ZBYN 091300Z 28002MPS CAVOK 23/19 Q1005 NOSIG
ZBYN,2003-08-09 14:00,ZBYN 091400Z 06001MPS CAVOK 23/20 Q1005 NOSIG
ZBYN,2003-08-09 15:00,ZBYN 091500Z 36006MPS CAVOK 24/12 Q1006 NOSIG
ZBYN,2003-08-09 16:00,ZBYN 091600Z 33004MPS CAVOK 23/11 Q1007 NOSIG
ZBYN,2003-08-09 17:00,ZBYN 091700Z 35003MPS CAVOK 22/12 Q1007 NOSIG
ZBYN,2003-08-09 18:00,ZBYN 091800Z 31001MPS CAVOK 20/14 Q1007
ZBYN,2003-08-09 19:00,ZBYN 091900Z 34003MPS CAVOK 21/13 Q1008
ZBYN,2003-08-09 20:00,ZBYN 092000Z 33003MPS CAVOK 21/13 Q1008
ZBYN,2003-08-09 21:00,ZBYN 092100Z 31003MPS CAVOK 19/14 Q1009
ZBYN,2003-08-09 22:00,ZBYN 092200Z 10001MPS 9999 -RA NSC 18/16 Q1009 NOSIG
ZBYN,2003-08-09 23:00,ZBYN 092300Z 28001MPS 9999 -RA NSC 18/16 Q1009 NOSIG
ZBYN,2003-08-10 00:00,ZBYN 100000Z 30001MPS CAVOK 19/16 Q1010 NOSIG
ZBYN,2003-08-10 01:00,ZBYN 100100Z 27001MPS CAVOK 19/15 Q1010 NOSIG
ZBYN,2003-08-10 02:00,ZBYN 100200Z 23002MPS CAVOK 20/14 Q1010 NOSIG
ZBYN,2003-08-10 03:00,ZBYN 100300Z 23003MPS 5000 FU NSC 21/16 Q1010 NOSIG
ZBYN,2003-08-10 04:00,ZBYN 100400Z 22003MPS CAVOK 21/15 Q1009 NOSIG
ZBYN,2003-08-10 05:00,ZBYN 100500Z 23002MPS CAVOK 22/16 Q1010 NOSIG
ZBYN,2003-08-10 06:00,ZBYN 100600Z 23002MPS CAVOK 22/16 Q1009 NOSIG
ZBYN,2003-08-10 07:00,ZBYN 100700Z 20002MPS CAVOK 23/16 Q1008 NOSIG
ZBYN,2003-08-10 08:00,ZBYN 100800Z 24003MPS CAVOK 23/15 Q1008 NOSIG
ZBYN,2003-08-10 09:00,ZBYN 100900Z 22002MPS CAVOK 23/15 Q1009 NOSIG
ZBYN,2003-08-10 10:00,ZBYN 101000Z 23003MPS CAVOK 22/14 Q1009 NOSIG
ZBYN,2003-08-10 11:00,ZBYN 101100Z 36006MPS 9999 SCT040TCU BKN200 19/13 Q1010 NOSIG
ZBYN,2003-08-10 12:00,ZBYN 101200Z VRB01MPS CAVOK 18/13 Q1011 NOSIG
ZBYN,2003-08-10 13:00,ZBYN 101300Z VRB01MPS CAVOK 17/14 Q1012 NOSIG
ZBYN,2003-08-10 14:00,ZBYN 101400Z 00000MPS CAVOK 16/13 Q1012 NOSIG
ZBYN,2003-08-10 15:00,ZBYN 101500Z 30001MPS CAVOK 16/13 Q1012 NOSIG
ZBYN,2003-08-10 16:00,ZBYN 101600Z 29002MPS CAVOK 16/12 Q1012 NOSIG
ZBYN,2003-08-10 17:00,ZBYN 101700Z 20001MPS CAVOK 15/13 Q1012
ZBYN,2003-08-10 18:00,ZBYN 101800Z 00000MPS CAVOK 14/13 Q1012
ZBYN,2003-08-10 19:00,ZBYN 101900Z 00000MPS 8000 NSC 14/13 Q1012
ZBYN,2003-08-10 20:00,ZBYN 102000Z VRB01MPS 7000 NSC 13/12 Q1013
ZBYN,2003-08-10 21:00,ZBYN 102100Z 14001MPS 6000 NSC 13/12 Q1013
ZBYN,2003-08-10 22:00,ZBYN 102200Z 00000MPS 6000 NSC 13/12 Q1013 NOSIG
ZBYN,2003-08-10 23:00,ZBYN 102300Z 00000MPS 6000 NSC 14/13 Q1014 NOSIG
ZBYN,2003-08-11 00:00,ZBYN 110000Z 00000MPS 4000 BR NSC 16/13 Q1014 NOSIG
ZBYN,2003-08-11 01:00,ZBYN 110100Z VRB01MPS 4000 BR NSC 18/14 Q1015 NOSIG
ZBYN,2003-08-11 02:00,ZBYN 110200Z VRB01MPS 6000 SKC 21/14 Q1015 NOSIG
ZBYN,2003-08-11 03:00,ZBYN 110300Z 22001MPS 9000 NSC 22/13 Q1015 NOSIG
ZBYN,2003-08-11 04:00,ZBYN 110400Z VRB01MPS 9999 FEW040 23/12 Q1014 NOSIG
ZBYN,2003-08-11 05:00,ZBYN 110500Z 27002MPS 9999 FEW030TCU 26/07 Q1013 NOSIG
ZBYN,2003-08-11 06:00,ZBYN 110600Z 28002MPS 9999 FEW030 SCT200 27/05 Q1013 NOSIG
ZBYN,2003-08-11 07:00,ZBYN 110700Z 25002MPS CAVOK 27/04 Q1012 NOSIG
ZBYN,2003-08-11 08:00,ZBYN 110800Z 34002MPS CAVOK 27/04 Q1012 NOSIG
ZBYN,2003-08-11 09:00,ZBYN 110900Z 09001MPS CAVOK 27/05 Q1012 NOSIG
ZBYN,2003-08-11 10:00,ZBYN 111000Z 13001MPS CAVOK 26/09 Q1012 NOSIG
ZBYN,2003-08-11 11:00,ZBYN 111100Z VRB01MPS CAVOK 24/10 Q1012 NOSIG
ZBYN,2003-08-11 12:00,ZBYN 111200Z 00000MPS CAVOK 21/11 Q1013 NOSIG
ZBYN,2003-08-11 13:00,ZBYN 111300Z 00000MPS CAVOK 19/13 Q1013 NOSIG
ZBYN,2003-08-11 14:00,ZBYN 111400Z VRB01MPS CAVOK 17/13 Q1014 NOSIG
ZBYN,2003-08-11 15:00,ZBYN 111500Z 14002MPS CAVOK 17/10 Q1014 NOSIG
ZBYN,2003-08-11 16:00,ZBYN 111600Z 11002MPS CAVOK 16/12 Q1015 NOSIG
ZBYN,2003-08-11 17:00,ZBYN 111700Z 00000MPS CAVOK 17/11 Q1014
ZBYN,2003-08-11 18:00,ZBYN 111800Z 19001MPS CAVOK 17/10 Q1014
ZBYN,2003-08-11 19:00,ZBYN 111900Z 11001MPS CAVOK 14/11 Q1014
ZBYN,2003-08-11 20:00,ZBYN 112000Z 13001MPS CAVOK 14/10 Q1015
ZBYN,2003-08-11 21:00,ZBYN 112100Z 11001MPS CAVOK 14/10 Q1015 NOSIG
ZBYN,2003-08-11 22:00,ZBYN 112200Z 12002MPS CAVOK 12/10 Q1015 NOSIG
ZBYN,2003-08-11 23:00,ZBYN 112300Z 04001MPS CAVOK 15/12 Q1015 NOSIG
ZBYN,2003-08-12 00:00,ZBYN 120000Z 00000MPS CAVOK 17/12 Q1015 NOSIG
ZBYN,2003-08-12 01:00,ZBYN 120100Z 32001MPS 7000 NSC 20/11 Q1015 NOSIG
ZBYN,2003-08-12 02:00,ZBYN 120200Z 36001MPS CAVOK 22/10 Q1015 NOSIG
ZBYN,2003-08-12 03:00,ZBYN 120300Z VRB01MPS CAVOK 23/10 Q1015 NOSIG
ZBYN,2003-08-12 04:00,ZBYN 120400Z VRB01MPS CAVOK 24/10 Q1014 NOSIG
ZBYN,2003-08-12 05:00,ZBYN 120500Z VRB01MPS CAVOK 26/11 Q1014 NOSIG
ZBYN,2003-08-12 06:00,ZBYN 120600Z VRB01MPS CAVOK 27/10 Q1013 NOSIG
ZBYN,2003-08-12 07:00,ZBYN 120700Z 27001MPS 9999 FEW040 SCT150 27/07 Q1012 NOSIG
ZBYN,2003-08-12 08:00,ZBYN 120800Z VRB01MPS 9999 FEW040 BKN150 27/07 Q1012 NOSIG
ZBYN,2003-08-12 09:00,ZBYN 120900Z 21001MPS 9999 FEW040 BKN150 27/09 Q1012 NOSIG
ZBYN,2003-08-12 10:00,ZBYN 121000Z 21001MPS CAVOK 26/11 Q1012 NOSIG
ZBYN,2003-08-12 11:00,ZBYN 121100Z 14003MPS CAVOK 25/09 Q1012 NOSIG
ZBYN,2003-08-12 12:00,ZBYN 121200Z 16002MPS CAVOK 23/10 Q1012 NOSIG
ZBYN,2003-08-12 13:00,ZBYN 121300Z 09001MPS CAVOK 22/11 Q1013 NOSIG
ZBYN,2003-08-12 14:00,ZBYN 121400Z 13002MPS CAVOK 18/13 Q1014 NOSIG
ZBYN,2003-08-12 15:00,ZBYN 121500Z 15001MPS CAVOK 19/12 Q1013 NOSIG
ZBYN,2003-08-12 16:00,ZBYN 121600Z 14002MPS CAVOK 17/13 Q1014 NOSIG
ZBYN,2003-08-12 17:00,ZBYN 121700Z 12002MPS CAVOK 16/13 Q1014
ZBYN,2003-08-12 18:00,ZBYN 121800Z 11001MPS CAVOK 17/13 Q1013
ZBYN,2003-08-12 19:00,ZBYN 121900Z 14002MPS CAVOK 15/13 Q1013
ZBYN,2003-08-12 20:00,ZBYN 122000Z 10001MPS CAVOK 16/13 Q1013
ZBYN,2003-08-12 21:00,ZBYN 122100Z 00000MPS 7000 NSC 15/13 Q1013
ZBYN,2003-08-12 22:00,ZBYN 122200Z VRB01MPS 4000 R31/1400N BR NSC 15/13 Q1013 NOSIG
ZBYN,2003-08-12 23:00,ZBYN 122300Z 15001MPS 2000 BR NSC 15/13 Q1013 NOSIG
ZBYN,2003-08-13 00:00,ZBYN 130000Z 00000MPS 2000 BR NSC 17/14 Q1013 NOSIG
ZBYN,2003-08-13 01:00,ZBYN 130100Z 13001MPS 3000 BR NSC 19/14 Q1013 NOSIG
ZBYN,2003-08-13 02:00,ZBYN 130200Z VRB01MPS 6000 NSC 21/14 Q1013 NOSIG
ZBYN,2003-08-13 03:00,ZBYN 130300Z 17001MPS 5000 HZ NSC 22/13 Q1013 NOSIG
ZBYN,2003-08-13 04:00,ZBYN 130400Z 22002MPS 6000 NSC 24/14 Q1013 NOSIG
ZBYN,2003-08-13 05:00,ZBYN 130500Z 19001MPS CAVOK 25/14 Q1012 NOSIG
ZBYN,2003-08-13 06:00,ZBYN 130600Z 25002MPS CAVOK 26/12 Q1011 NOSIG
ZBYN,2003-08-13 07:00,ZBYN 130700Z VRB01MPS CAVOK 27/09 Q1011 NOSIG
ZBYN,2003-08-13 08:00,ZBYN 130800Z VRB01MPS CAVOK 27/09 Q1010 NOSIG
ZBYN,2003-08-13 09:00,ZBYN 130900Z 27001MPS CAVOK 27/09 Q1010 NOSIG
ZBYN,2003-08-13 10:00,ZBYN 131000Z 27001MPS CAVOK 26/11 Q1010 NOSIG
ZBYN,2003-08-13 11:00,ZBYN 131100Z 25001MPS CAVOK 24/15 Q1010 NOSIG
ZBYN,2003-08-13 12:00,ZBYN 131200Z 00000MPS CAVOK 22/13 Q1010 NOSIG
ZBYN,2003-08-13 13:00,ZBYN 131300Z 09001MPS CAVOK 20/13 Q1011 NOSIG
ZBYN,2003-08-13 14:00,ZBYN 131400Z 11001MPS CAVOK 18/13 Q1012 NOSIG
ZBYN,2003-08-13 15:00,ZBYN 131500Z 09001MPS CAVOK 18/14 Q1012 NOSIG
ZBYN,2003-08-13 16:00,ZBYN 131600Z 16001MPS CAVOK 19/14 Q1013 NOSIG
ZBYN,2003-08-13 17:00,ZBYN 131700Z 13002MPS CAVOK 16/14 Q1012
ZBYN,2003-08-13 18:00,ZBYN 131800Z 12002MPS CAVOK 17/14 Q1012
ZBYN,2003-08-13 19:00,ZBYN 131900Z 12003MPS CAVOK 16/14 Q1012
ZBYN,2003-08-13 20:00,ZBYN 132000Z 13003MPS CAVOK 16/14 Q1012
ZBYN,2003-08-13 21:00,ZBYN 132100Z VRB01MPS CAVOK 16/13 Q1012
ZBYN,2003-08-13 22:00,ZBYN 132200Z 08001MPS 7000 NSC 15/13 Q1012 NOSIG
ZBYN,2003-08-13 23:00,ZBYN 132300Z 15001MPS 4000 BR NSC 17/14 Q1012 NOSIG
ZBYN,2003-08-14 00:00,ZBYN 140000Z 05001MPS 4000 BR NSC 19/15 Q1012 NOSIG
ZBYN,2003-08-14 01:00,ZBYN 140100Z 00000MPS 4000 BR NSC 22/17 Q1012 NOSIG
ZBYN,2003-08-14 02:00,ZBYN 140200Z 10003MPS CAVOK 23/13 Q1012 NOSIG
ZBYN,2003-08-14 03:00,ZBYN 140300Z 10003MPS CAVOK 25/09 Q1012 NOSIG
ZBYN,2003-08-14 04:00,ZBYN 140400Z 13002MPS CAVOK 27/09 Q1011 NOSIG
ZBYN,2003-08-14 05:00,ZBYN 140500Z 10004MPS CAVOK 27/09 Q1011 NOSIG
ZBYN,2003-08-14 06:00,ZBYN 140600Z 06005MPS CAVOK 28/10 Q1010 NOSIG
ZBYN,2003-08-14 07:00,ZBYN 140700Z 06004MPS 9999 FEW040 SCT120 28/08 Q1010 NOSIG
ZBYN,2003-08-14 08:00,ZBYN 140800Z 07004MPS 9999 FEW040 SCT200 27/08 Q1010 NOSIG
ZBYN,2003-08-14 09:00,ZBYN 140900Z 09005MPS CAVOK 26/06 Q1010 NOSIG
ZBYN,2003-08-14 10:00,ZBYN 141000Z 07006MPS 9999 FEW040 BKN200 25/11 Q1010 NOSIG
ZBYN,2003-08-14 11:00,ZBYN 141100Z 07006MPS 9999 FEW040 BKN100 23/10 Q1010 NOSIG
ZBYN,2003-08-14 12:00,ZBYN 141200Z 08007MPS 9999 FEW040 BKN100 22/11 Q1011 NOSIG
ZBYN,2003-08-14 13:00,ZBYN 141300Z 09006MPS 9999 FEW040 OVC100 21/13 Q1012 NOSIG
ZBYN,2003-08-14 14:00,ZBYN 141400Z 08005MPS 9999 FEW040 OVC100 20/13 Q1013 NOSIG
ZBYN,2003-08-14 15:00,ZBYN 141500Z 08005MPS CAVOK 19/13 Q1013 NOSIG
ZBYN,2003-08-14 16:00,ZBYN 141600Z 09004MPS CAVOK 19/13 Q1014 NOSIG
ZBYN,2003-08-14 17:00,ZBYN 141700Z 08003MPS CAVOK 19/13 Q1013
ZBYN,2003-08-14 18:00,ZBYN 141800Z 08003MPS CAVOK 18/13 Q1013
ZBYN,2003-08-14 19:00,ZBYN 141900Z 07003MPS CAVOK 18/13 Q1013
ZBYN,2003-08-14 20:00,ZBYN 142000Z 08003MPS CAVOK 18/13 Q1013
ZBYN,2003-08-14 21:00,ZBYN 142100Z 10001MPS 9999 -RA SCT040 OVC100 17/14 Q1013
ZBYN,2003-08-14 22:00,ZBYN 142200Z 12002MPS 7000 -RA SCT040 OVC100 16/15 Q1013 NOSIG
ZBYN,2003-08-14 23:00,ZBYN 142300Z 09002MPS 8000 -RA SCT040 OVC100 17/14 Q1013 NOSIG
ZBYN,2003-08-15 00:00,ZBYN 150000Z 14001MPS 3000 BR BKN040 OVC120 17/14 Q1013 NOSIG
ZBYN,2003-08-15 01:00,ZBYN 150100Z 12001MPS 3000 -RA BR BKN040 OVC120 18/15 Q1014 NOSIG
ZBYN,2003-08-15 02:00,ZBYN 150200Z VRB01MPS 4000 BR BKN030 OVC100 19/14 Q1015 NOSIG
ZBYN,2003-08-15 03:00,ZBYN 150300Z 33004MPS 9999 FEW040 OVC100 16/12 Q1015 NOSIG
ZBYN,2003-08-15 04:00,ZBYN 150400Z 36002MPS CAVOK 18/12 Q1014 NOSIG
ZBYN,2003-08-15 05:00,ZBYN 150500Z 35004MPS CAVOK 19/12 Q1015 NOSIG
ZBYN,2003-08-15 06:00,ZBYN 150600Z 31004MPS 9999 FEW040 21/11 Q1013 NOSIG
ZBYN,2003-08-15 07:00,ZBYN 150700Z 27002MPS 9999 FEW040TCU 22/11 Q1013 NOSIG
ZBYN,2003-08-15 08:00,ZBYN 150800Z 22002MPS 9999 FEW040 23/11 Q1013 NOSIG
ZBYN,2003-08-15 09:00,ZBYN 150900Z 21002MPS 9999 FEW040 23/12 Q1012 NOSIG
ZBYN,2003-08-15 10:00,ZBYN 151000Z 22002MPS CAVOK 22/12 Q1012 NOSIG
ZBYN,2003-08-15 11:00,ZBYN 151100Z 00000MPS CAVOK 20/12 Q1013 NOSIG
ZBYN,2003-08-15 12:00,ZBYN 151200Z 11001MPS CAVOK 18/13 Q1014 NOSIG
ZBYN,2003-08-15 13:00,ZBYN 151300Z 00000MPS CAVOK 15/13 Q1015 NOSIG
ZBYN,2003-08-15 14:00,ZBYN 151400Z 09004MPS CAVOK 18/14 Q1015 NOSIG
ZBYN,2003-08-15 15:00,ZBYN 151500Z 09004MPS CAVOK 17/13 Q1015 NOSIG
ZBYN,2003-08-15 16:00,ZBYN 151600Z 09004MPS 4000 BR SKC 16/13 Q1015 NOSIG
ZBYN,2003-08-15 17:00,ZBYN 151700Z 08003MPS 3000 BR SKC 16/13 Q1015
ZBYN,2003-08-15 18:00,ZBYN 151800Z 08002MPS 3000 BR SKC 16/13 Q1015
ZBYN,2003-08-15 19:00,ZBYN 151900Z 07001MPS 3000 BR SKC 15/13 Q1015
ZBYN,2003-08-15 20:00,ZBYN 152000Z 14002MPS 3000 BR SKC 13/12 Q1015
ZBYN,2003-08-15 21:00,ZBYN 152100Z 12001MPS 3000 R31/1400N BR NSC 13/12 Q1016
ZBYN,2003-08-15 22:00,ZBYN 152200Z 11002MPS 3000 BR SKC 12/11 Q1016 NOSIG
ZBYN,2003-08-15 23:00,ZBYN 152300Z 00000MPS 3000 BR SKC 13/12 Q1017 NOSIG
ZBYN,2003-08-16 00:00,ZBYN 160000Z 15002MPS 0500 R31/0550N FG SKC 14/13 Q1017 NOSIG
ZBYN,2003-08-16 01:00,ZBYN 160100Z 15002MPS 1600 R31/1300N BR NSC 16/13 Q1017 NOSIG
ZBYN,2003-08-16 02:00,ZBYN 160200Z 18002MPS 1500 R31/1300N BR NSC 17/13 Q1017 NOSIG
ZBYN,2003-08-16 03:00,ZBYN 160300Z VRB01MPS 3000 FU NSC 20/13 Q1017 NOSIG
ZBYN,2003-08-16 04:00,ZBYN 160400Z 23002MPS 4000 FU NSC 22/14 Q1016 NOSIG
ZBYN,2003-08-16 05:00,ZBYN 160500Z 21003MPS CAVOK 23/10 Q1015 NOSIG
ZBYN,2003-08-16 06:00,ZBYN 160600Z 20002MPS CAVOK 25/10 Q1015 NOSIG
ZBYN,2003-08-16 07:00,ZBYN 160700Z 19002MPS CAVOK 26/09 Q1014 NOSIG
ZBYN,2003-08-16 08:00,ZBYN 160800Z 20002MPS CAVOK 27/08 Q1014 NOSIG
ZBYN,2003-08-16 09:00,ZBYN 160900Z 20002MPS CAVOK 27/07 Q1013 NOSIG
ZBYN,2003-08-16 10:00,ZBYN 161000Z VRB01MPS CAVOK 25/11 Q1013 NOSIG
ZBYN,2003-08-16 11:00,ZBYN 161100Z 00000MPS CAVOK 22/13 Q1014 NOSIG
ZBYN,2003-08-16 12:00,ZBYN 161200Z 13002MPS CAVOK 18/13 Q1014 NOSIG
ZBYN,2003-08-16 13:00,ZBYN 161300Z 11003MPS CAVOK 19/10 Q1015 NOSIG
ZBYN,2003-08-16 14:00,ZBYN 161400Z 14002MPS CAVOK 17/13 Q1016 NOSIG
ZBYN,2003-08-16 15:00,ZBYN 161500Z 12002MPS CAVOK 15/13 Q1016 NOSIG
ZBYN,2003-08-16 16:00,ZBYN 161600Z 12002MPS CAVOK 16/13 Q1016 NOSIG
ZBYN,2003-08-16 17:00,ZBYN 161700Z 12003MPS 6000 SKC 15/13 Q1016
ZBYN,2003-08-16 18:00,ZBYN 161800Z 12002MPS 7000 SKC 14/12 Q1016
ZBYN,2003-08-16 19:00,ZBYN 161900Z 11002MPS 7000 SKC 14/13 Q1016
ZBYN,2003-08-16 20:00,ZBYN 162000Z 13002MPS 7000 SKC 14/12 Q1016
ZBYN,2003-08-16 21:00,ZBYN 162100Z 12002MPS 7000 SKC 13/12 Q1016
ZBYN,2003-08-16 22:00,ZBYN 162200Z 13002MPS 7000 SKC 13/11 Q1016 NOSIG
ZBYN,2003-08-16 23:00,ZBYN 162300Z 13003MPS 4000 BR SKC 14/12 Q1016 NOSIG
ZBYN,2003-08-17 00:00,ZBYN 170000Z 12001MPS 5000 BR SKC 17/13 Q1017 NOSIG
ZBYN,2003-08-17 01:00,ZBYN 170100Z 13001MPS 6000 SKC 19/13 Q1017 NOSIG
ZBYN,2003-08-17 02:00,ZBYN 170200Z VRB01MPS 6000 SKC 21/13 Q1017 NOSIG
ZBYN,2003-08-17 03:00,ZBYN 170300Z VRB01MPS 6000 SKC 23/13 Q1016 NOSIG
ZBYN,2003-08-17 04:00,ZBYN 170400Z VRB01MPS 7000 SKC 24/13 Q1016 NOSIG
ZBYN,2003-08-17 05:00,ZBYN 170500Z VRB01MPS CAVOK 26/10 Q1015 NOSIG
ZBYN,2003-08-17 06:00,ZBYN 170600Z VRB01MPS CAVOK 28/11 Q1014 NOSIG
ZBYN,2003-08-17 07:00,ZBYN 170700Z 19003MPS CAVOK 29/09 Q1014 NOSIG
ZBYN,2003-08-17 08:00,ZBYN 170800Z 17003MPS CAVOK 29/10 Q1013 NOSIG
ZBYN,2003-08-17 09:00,ZBYN 170900Z 21002MPS CAVOK 28/09 Q1013 NOSIG
ZBYN,2003-08-17 10:00,ZBYN 171000Z 17003MPS CAVOK 27/08 Q1013 NOSIG
ZBYN,2003-08-17 11:00,ZBYN 171100Z 16002MPS CAVOK 24/07 Q1013 NOSIG
ZBYN,2003-08-17 12:00,ZBYN 171200Z 14002MPS CAVOK 21/08 Q1014 NOSIG
ZBYN,2003-08-17 13:00,ZBYN 171300Z 14003MPS CAVOK 19/07 Q1014 NOSIG
ZBYN,2003-08-17 14:00,ZBYN 171400Z VRB01MPS CAVOK 19/09 Q1014 NOSIG
ZBYN,2003-08-17 15:00,ZBYN 171500Z VRB01MPS CAVOK 17/10 Q1015 NOSIG
ZBYN,2003-08-17 16:00,ZBYN 171600Z 11002MPS CAVOK 16/11 Q1014 NOSIG
ZBYN,2003-08-17 17:00,ZBYN 171700Z 13002MPS CAVOK 15/12 Q1015
ZBYN,2003-08-17 18:00,ZBYN 171800Z 12002MPS 6000 SKC 15/13 Q1014
ZBYN,2003-08-17 19:00,ZBYN 171900Z 13002MPS 6000 SKC 15/13 Q1014
ZBYN,2003-08-17 20:00,ZBYN 172000Z 09002MPS 6000 SKC 14/12 Q1014
ZBYN,2003-08-17 21:00,ZBYN 172100Z 07001MPS 5000 R31/1400D BR SKC 14/13 Q1014
ZBYN,2003-08-17 22:00,ZBYN 172200Z 13002MPS 4000 BR SKC 15/14 Q1014 NOSIG
ZBYN,2003-08-17 23:00,ZBYN 172300Z 15001MPS 3000 BR NSC 16/14 Q1014 NOSIG
ZBYN,2003-08-18 00:00,ZBYN 180000Z 15002MPS 4000 BR SKC 18/14 Q1014 NOSIG
ZBYN,2003-08-18 01:00,ZBYN 180100Z 20002MPS 6000 SKC 20/14 Q1014 NOSIG
ZBYN,2003-08-18 02:00,ZBYN 180200Z 18002MPS 8000 SKC 21/14 Q1014 NOSIG
ZBYN,2003-08-18 03:00,ZBYN 180300Z 17002MPS CAVOK 23/14 Q1013 NOSIG
ZBYN,2003-08-18 04:00,ZBYN 180400Z 21002MPS CAVOK 24/14 Q1012 NOSIG
ZBYN,2003-08-18 05:00,ZBYN 180500Z 22002MPS CAVOK 26/13 Q1011 NOSIG
ZBYN,2003-08-18 06:00,ZBYN 180600Z 17002MPS CAVOK 27/12 Q1010 NOSIG
ZBYN,2003-08-18 07:00,ZBYN 180700Z 18002MPS CAVOK 29/11 Q1009 NOSIG
ZBYN,2003-08-18 08:00,ZBYN 180800Z 22002MPS CAVOK 29/10 Q1009 NOSIG
ZBYN,2003-08-18 09:00,ZBYN 180900Z 24002MPS CAVOK 29/11 Q1009 NOSIG
ZBYN,2003-08-18 10:00,ZBYN 181000Z 19001MPS CAVOK 28/13 Q1008 NOSIG
ZBYN,2003-08-18 11:00,ZBYN 181100Z 11002MPS CAVOK 24/17 Q1009 NOSIG
ZBYN,2003-08-18 12:00,ZBYN 181200Z 09004MPS CAVOK 25/16 Q1009 NOSIG
ZBYN,2003-08-18 13:00,ZBYN 181300Z 09005MPS 5000 HZ NSC 23/16 Q1010 NOSIG
ZBYN,2003-08-18 14:00,ZBYN 181400Z 03005MPS 6000 SKC 24/18 Q1011 NOSIG
ZBYN,2003-08-18 15:00,ZBYN 181500Z 10005MPS 5000 BR SKC 21/16 Q1011 NOSIG
ZBYN,2003-08-18 16:00,ZBYN 181600Z 09005MPS 6000 SKC 21/16 Q1011 NOSIG
ZBYN,2003-08-18 17:00,ZBYN 181700Z 05003MPS CAVOK 20/16 Q1011
ZBYN,2003-08-18 18:00,ZBYN 181800Z 12002MPS CAVOK 19/16 Q1011
ZBYN,2003-08-18 19:00,ZBYN 181900Z 11002MPS 6000 SKC 18/16 Q1011
ZBYN,2003-08-18 20:00,ZBYN 182000Z 10002MPS 6000 SKC 18/16 Q1011
ZBYN,2003-08-18 21:00,ZBYN 182100Z 07002MPS 6000 SKC 19/16 Q1011
ZBYN,2003-08-18 22:00,ZBYN 182200Z 13001MPS 2000 R31/1100N BR SKC 17/15 Q1011 NOSIG
ZBYN,2003-08-18 23:00,ZBYN 182300Z 15001MPS 1800 BR NSC 19/17 Q1011 NOSIG
ZBYN,2003-08-19 00:00,ZBYN 190000Z 13001MPS 2000 BR NSC 20/16 Q1011 NOSIG
ZBYN,2003-08-19 01:00,ZBYN 190100Z VRB01MPS 7000 NSC 22/15 Q1011 NOSIG
ZBYN,2003-08-19 02:00,ZBYN 190200Z VRB01MPS CAVOK 23/15 Q1011 NOSIG
ZBYN,2003-08-19 03:00,ZBYN 190300Z VRB01MPS CAVOK 25/16 Q1011 NOSIG
ZBYN,2003-08-19 04:00,ZBYN 190400Z VRB01MPS CAVOK 26/15 Q1011 NOSIG
ZBYN,2003-08-19 04:49,ZBYN 190449Z 190606 21004MPS 6000 NSC BECMG 0910 09004MPS TEMPO 0615 FEW033CB BKN200
ZBYN,2003-08-19 05:00,ZBYN 190500Z VRB01MPS CAVOK 28/13 Q1010 NOSIG
ZBYN,2003-08-19 06:00,ZBYN 190600Z VRB01MPS CAVOK 29/12 Q1009 NOSIG
ZBYN,2003-08-19 07:00,ZBYN 190700Z 18002MPS 9999 FEW030TCU 30/09 Q1008 NOSIG
ZBYN,2003-08-19 08:00,ZBYN 190800Z 17003MPS 9999 FEW030TCU 30/07 Q1008 NOSIG
ZBYN,2003-08-19 09:00,ZBYN 190900Z 17004MPS 9999 FEW030TCU 30/09 Q1008 NOSIG
ZBYN,2003-08-19 10:00,ZBYN 191000Z 15003MPS 9999 FEW030TCU 28/13 Q1009 NOSIG
ZBYN,2003-08-19 11:00,ZBYN 191100Z 11004MPS 7000 NSC 26/17 Q1009 NOSIG
ZBYN,2003-08-19 12:00,ZBYN 191200Z 08004MPS 6000 SKC 24/17 Q1009 NOSIG
ZBYN,2003-08-19 13:00,ZBYN 191300Z 09004MPS 6000 SKC 23/17 Q1010 NOSIG
ZBYN,2003-08-19 14:00,ZBYN 191400Z 09004MPS 7000 NSC 22/17 Q1011 NOSIG
ZBYN,2003-08-19 15:00,ZBYN 191500Z 09003MPS 8000 NSC 22/17 Q1011 NOSIG
ZBYN,2003-08-19 16:00,ZBYN 191600Z 11002MPS 6000 SKC 20/16 Q1011 NOSIG
ZBYN,2003-08-19 17:00,ZBYN 191700Z 10003MPS 6000 SKC 20/16 Q1011
ZBYN,2003-08-19 18:00,ZBYN 191800Z 00000MPS 8000 SKC 19/15 Q1011
ZBYN,2003-08-19 19:00,ZBYN 191900Z 30001MPS CAVOK 18/15 Q1011
ZBYN,2003-08-19 20:00,ZBYN 192000Z 14001MPS CAVOK 17/14 Q1011
ZBYN,2003-08-19 21:00,ZBYN 192100Z 12003MPS 6000 SKC 17/15 Q1012 NOSIG
ZBYN,2003-08-19 22:00,ZBYN 192200Z 11002MPS 2600 R31/1200 BR NSC 16/14 Q1012 NOSIG
ZBYN,2003-08-19 23:00,ZBYN 192300Z 13001MPS 3000 BR NSC 17/15 Q1012 NOSIG
ZBYN,2003-08-20 00:00,ZBYN 200000Z 09002MPS 5000 BR NSC 20/15 Q1012 NOSIG
ZBYN,2003-08-20 01:00,ZBYN 200100Z 13003MPS CAVOK 23/15 Q1012 NOSIG
ZBYN,2003-08-20 02:00,ZBYN 200200Z 18002MPS CAVOK 23/14 Q1012 NOSIG
ZBYN,2003-08-20 03:00,ZBYN 200300Z 14002MPS CAVOK 25/13 Q1012 NOSIG
ZBYN,2003-08-20 04:00,ZBYN 200400Z 21002MPS 9999 FEW033 26/12 Q1012 NOSIG
ZBYN,2003-08-20 05:00,ZBYN 200500Z 15002MPS 9999 FEW030 26/12 Q1011 NOSIG
ZBYN,2003-08-20 06:00,ZBYN 200600Z 09002MPS CAVOK 28/11 Q1010 NOSIG
ZBYN,2003-08-20 07:00,ZBYN 200700Z 14002MPS CAVOK 29/10 Q1010 NOSIG
ZBYN,2003-08-20 08:00,ZBYN 200800Z 15002MPS CAVOK 29/10 Q1009 NOSIG
ZBYN,2003-08-20 09:00,ZBYN 200900Z 22002MPS 9999 FEW030TCU 28/11 Q1009 NOSIG
ZBYN,2003-08-20 10:00,ZBYN 201000Z VRB01MPS 9999 SCT030 28/12 Q1009 NOSIG
ZBYN,2003-08-20 11:00,ZBYN 201100Z 09002MPS 9999 SCT030 26/14 Q1010 NOSIG
ZBYN,2003-08-20 12:00,ZBYN 201200Z 07004MPS 9999 BKN030 25/14 Q1011 NOSIG
ZBYN,2003-08-20 13:00,ZBYN 201300Z 08004MPS 9999 BKN030 23/15 Q1012 NOSIG
ZBYN,2003-08-20 14:00,ZBYN 201400Z 07005MPS CAVOK 23/15 Q1012 NOSIG
ZBYN,2003-08-20 15:00,ZBYN 201500Z 08005MPS CAVOK 22/15 Q1012 NOSIG
ZBYN,2003-08-20 16:00,ZBYN 201600Z 08005MPS CAVOK 21/15 Q1013 NOSIG
ZBYN,2003-08-20 17:00,ZBYN 201700Z 08004MPS CAVOK 21/15 Q1013
ZBYN,2003-08-20 18:00,ZBYN 201800Z 08005MPS CAVOK 21/15 Q1013
ZBYN,2003-08-20 19:00,ZBYN 201900Z 09004MPS CAVOK 20/15 Q1013
ZBYN,2003-08-20 20:00,ZBYN 202000Z 08005MPS CAVOK 20/15 Q1013
ZBYN,2003-08-20 21:00,ZBYN 202100Z 09004MPS CAVOK 20/14 Q1013
ZBYN,2003-08-20 22:00,ZBYN 202200Z 09004MPS CAVOK 20/15 Q1013 NOSIG
ZBYN,2003-08-20 23:00,ZBYN 202300Z 07003MPS 5000 BR NSC 20/15 Q1013 NOSIG
ZBYN,2003-08-21 00:00,ZBYN 210000Z 08003MPS CAVOK 21/15 Q1013 NOSIG
ZBYN,2003-08-21 01:00,ZBYN 210100Z 14002MPS CAVOK 23/15 Q1013 NOSIG
ZBYN,2003-08-21 02:00,ZBYN 210200Z 13002MPS CAVOK 24/14 Q1013 NOSIG
ZBYN,2003-08-21 03:00,ZBYN 210300Z 17003MPS CAVOK 25/15 Q1012 NOSIG
ZBYN,2003-08-21 04:00,ZBYN 210400Z 15003MPS CAVOK 25/15 Q1012 NOSIG
ZBYN,2003-08-21 05:00,ZBYN 210500Z 18002MPS CAVOK 25/15 Q1011 NOSIG
ZBYN,2003-08-21 06:00,ZBYN 210600Z 24001MPS CAVOK 26/16 Q1011 NOSIG
ZBYN,2003-08-21 07:00,ZBYN 210700Z VRB01MPS CAVOK 27/16 Q1010 NOSIG
ZBYN,2003-08-21 08:00,ZBYN 210800Z VRB01MPS CAVOK 28/16 Q1009 NOSIG
ZBYN,2003-08-21 09:00,ZBYN 210900Z VRB01MPS 9999 FEW040 28/16 Q1009 NOSIG
ZBYN,2003-08-21 10:00,ZBYN 211000Z 29002MPS 9999 SCT040 BKN200 26/17 Q1010 NOSIG
ZBYN,2003-08-21 11:00,ZBYN 211100Z 00000MPS 9999 FEW040 BKN200 25/17 Q1010 NOSIG
ZBYN,2003-08-21 12:00,ZBYN 211200Z 10002MPS CAVOK 23/17 Q1011 NOSIG
ZBYN,2003-08-21 13:00,ZBYN 211300Z 08003MPS 7000 NSC 24/18 Q1011 NOSIG
ZBYN,2003-08-21 14:00,ZBYN 211400Z 09004MPS 7000 NSC 24/17 Q1011 NOSIG
ZBYN,2003-08-21 15:00,ZBYN 211500Z 09004MPS 5000 BR NSC 23/18 Q1011 NOSIG
ZBYN,2003-08-21 16:00,ZBYN 211600Z 08003MPS 7000 NSC 23/17 Q1012 NOSIG
ZBYN,2003-08-21 17:00,ZBYN 211700Z 10002MPS 7000 NSC 23/17 Q1012
ZBYN,2003-08-21 18:00,ZBYN 211800Z 09002MPS 7000 NSC 22/17 Q1011
ZBYN,2003-08-21 19:00,ZBYN 211900Z 10003MPS 6000 NSC 21/18 Q1011
ZBYN,2003-08-21 20:00,ZBYN 212000Z 09001MPS 6000 NSC 21/18 Q1011
ZBYN,2003-08-21 21:00,ZBYN 212100Z 13001MPS 6000 NSC 20/18 Q1011
ZBYN,2003-08-21 22:00,ZBYN 212200Z 00000MPS 4000 BR NSC 21/18 Q1012 NOSIG
ZBYN,2003-08-21 23:00,ZBYN 212300Z 15001MPS 2200 R31/1300N -RA BR NSC 20/18 Q1012 NOSIG
ZBYN,2003-08-22 00:00,ZBYN 220000Z 12001MPS 1300 R31/1300N -RA BR NSC 20/19 Q1013 NO SIG
ZBYN,2003-08-22 01:00,ZBYN 220100Z 00000MPS 1300 R31/1100N BR OVC046 21/19 Q1013 NOSIG
ZBYN,2003-08-22 02:00,ZBYN 220200Z 11001MPS 1500 R31/1400N BR NSC 22/19 Q1013 NOSIG
ZBYN,2003-08-22 03:00,ZBYN 220300Z VRB01MPS 2000 BR NSC 25/19 Q1013 NOSIG
ZBYN,2003-08-22 04:00,ZBYN 220400Z 00000MPS 4000 HZ NSC 26/18 Q1012 NOSIG
ZBYN,2003-08-22 05:00,ZBYN 220500Z VRB01MPS 6000 NSC 28/18 Q1012 NOSIG
ZBYN,2003-08-22 06:00,ZBYN 220600Z 26001MPS CAVOK 29/17 Q1011 NOSIG
ZBYN,2003-08-22 07:00,ZBYN 220700Z 27001MPS CAVOK 29/17 Q1011 NOSIG
ZBYN,2003-08-22 08:00,ZBYN 220800Z 27002MPS CAVOK 28/16 Q1011 NOSIG
ZBYN,2003-08-22 09:00,ZBYN 220900Z 25001MPS CAVOK 29/16 Q1011 NOSIG
ZBYN,2003-08-22 10:00,ZBYN 221000Z 26001MPS CAVOK 28/16 Q1011 NOSIG
ZBYN,2003-08-22 11:00,ZBYN 221100Z 27001MPS CAVOK 26/17 Q1011 NOSIG
ZBYN,2003-08-22 12:00,ZBYN 221200Z 33003MPS CAVOK 27/17 Q1011 NOSIG
ZBYN,2003-08-22 13:00,ZBYN 221300Z 34003MPS CAVOK 26/18 Q1012 NOSIG
ZBYN,2003-08-22 14:00,ZBYN 221400Z 34003MPS CAVOK 25/17 Q1012 NOSIG
ZBYN,2003-08-22 15:00,ZBYN 221500Z 33003MPS CAVOK 24/17 Q1012 NOSIG
ZBYN,2003-08-22 16:00,ZBYN 221600Z 36002MPS CAVOK 24/18 Q1012 NOSIG
ZBYN,2003-08-22 17:00,ZBYN 221700Z 35002MPS CAVOK 24/18 Q1012
ZBYN,2003-08-22 18:00,ZBYN 221800Z 36002MPS CAVOK 24/18 Q1012
ZBYN,2003-08-22 19:00,ZBYN 221900Z 35001MPS CAVOK 24/18 Q1012
ZBYN,2003-08-22 20:00,ZBYN 222000Z VRB01MPS CAVOK 23/18 Q1012
ZBYN,2003-08-22 21:00,ZBYN 222100Z VRB01MPS 9999 -RA NSC 22/19 Q1012
ZBYN,2003-08-22 22:00,ZBYN 222200Z 34002MPS 5000 BR NSC 22/19 Q1012 NOSIG
ZBYN,2003-08-22 23:00,ZBYN 222300Z 28001MPS 2500 BR NSC 21/20 Q1012 NOSIG
ZBYN,2003-08-23 00:00,ZBYN 230000Z 00000MPS 3000 BR NSC 22/20 Q1013 NOSIG
ZBYN,2003-08-23 01:00,ZBYN 230100Z 33002MPS 5000 BR NSC 22/19 Q1013 NOSIG
ZBYN,2003-08-23 02:00,ZBYN 230200Z 33002MPS 7000 NSC 23/19 Q1013 NOSIG
ZBYN,2003-08-23 03:00,ZBYN 230300Z 33001MPS 7000 NSC 23/19 Q1012 NOSIG
ZBYN,2003-08-23 04:00,ZBYN 230400Z 33002MPS 6000 NSC 24/20 Q1012 NOSIG
ZBYN,2003-08-23 05:00,ZBYN 230500Z 02002MPS 9999 -RA BKN046 OVC200 24/19 Q1012 NOSIG
ZBYN,2003-08-23 06:00,ZBYN 230600Z 05003MPS 9999 FEW023 BKN060 23/18 Q1012 NOSIG
ZBYN,2003-08-23 07:00,ZBYN 230700Z 05004MPS CAVOK 23/17 Q1012 NOSIG
ZBYN,2003-08-23 08:00,ZBYN 230800Z 05004MPS 9999 FEW040 BKN060 23/17 Q1012 NOSIG
ZBYN,2003-08-23 09:00,ZBYN 230900Z 09002MPS CAVOK 22/18 Q1012 NOSIG
ZBYN,2003-08-23 10:00,ZBYN 231000Z 05004MPS 9999 -RA NSC 22/17 Q1012 NOSIG
ZBYN,2003-08-23 11:00,ZBYN 231100Z 07003MPS CAVOK 22/17 Q1012 NOSIG
ZBYN,2003-08-23 12:00,ZBYN 231200Z 07003MPS CAVOK 22/17 Q1013 NOSIG
ZBYN,2003-08-23 13:00,ZBYN 231300Z 08004MPS CAVOK 21/17 Q1013 NOSIG
ZBYN,2003-08-23 14:00,ZBYN 231400Z 07003MPS CAVOK 21/17 Q1013 NOSIG
ZBYN,2003-08-23 15:00,ZBYN 231500Z 06003MPS CAVOK 21/17 Q1013 NOSIG
ZBYN,2003-08-23 16:00,ZBYN 231600Z 08002MPS CAVOK 21/16 Q1013 NOSIG
ZBYN,2003-08-23 17:00,ZBYN 231700Z 08003MPS CAVOK 20/16 Q1013 NOSIG
ZBYN,2003-08-23 18:00,ZBYN 231800Z 09003MPS CAVOK 21/16 Q1012
ZBYN,2003-08-23 19:00,ZBYN 231900Z 07002MPS CAVOK 20/16 Q1012
ZBYN,2003-08-23 20:00,ZBYN 232000Z 08003MPS 9999 -RA NSC 20/16 Q1012
ZBYN,2003-08-23 21:00,ZBYN 232100Z 10002MPS CAVOK 19/16 Q1012
ZBYN,2003-08-23 22:00,ZBYN 232200Z 06002MPS CAVOK 20/16 Q1012 NOSIG
ZBYN,2003-08-23 23:00,ZBYN 232300Z 07002MPS CAVOK 20/16 Q1012 NOSIG
ZBYN,2003-08-24 00:00,ZBYN 240000Z 02001MPS CAVOK 21/16 Q1012 NOSIG
ZBYN,2003-08-24 01:00,ZBYN 240100Z 06001MPS 8000 NSC 22/16 Q1012 NOSIG
ZBYN,2003-08-24 02:00,ZBYN 240200Z 09002MPS CAVOK 23/15 Q1012 NOSIG
ZBYN,2003-08-24 03:00,ZBYN 240300Z 09002MPS CAVOK 24/16 Q1012 NOSIG
ZBYN,2003-08-24 04:00,ZBYN 240400Z 10002MPS CAVOK 24/16 Q1012 NOSIG
ZBYN,2003-08-24 05:00,ZBYN 240500Z VRB01MPS CAVOK 25/16 Q1011 NOSIG
ZBYN,2003-08-24 06:00,ZBYN 240600Z 22002MPS CAVOK 24/18 Q1011 NOSIG
ZBYN,2003-08-24 07:00,ZBYN 240700Z VRB01MPS CAVOK 26/18 Q1010 NOSIG
ZBYN,2003-08-24 08:00,ZBYN 240800Z 17002MPS CAVOK 27/17 Q1009 NOSIG
ZBYN,2003-08-24 09:00,ZBYN 240900Z 19002MPS CAVOK 27/16 Q1009 NOSIG
ZBYN,2003-08-24 10:00,ZBYN 241000Z 10003MPS CAVOK 27/15 Q1009 NOSIG
ZBYN,2003-08-24 11:00,ZBYN 241100Z 10001MPS CAVOK 23/16 Q1009 NOSIG
ZBYN,2003-08-24 12:00,ZBYN 241200Z 07002MPS CAVOK 23/15 Q1010 NOSIG
ZBYN,2003-08-24 13:00,ZBYN 241300Z 07003MPS CAVOK 22/15 Q1011 NOSIG
ZBYN,2003-08-24 14:00,ZBYN 241400Z 09003MPS CAVOK 21/15 Q1011 NOSIG
ZBYN,2003-08-24 15:00,ZBYN 241500Z 08002MPS CAVOK 21/15 Q1011 NOSIG
ZBYN,2003-08-24 16:00,ZBYN 241600Z 09002MPS CAVOK 19/15 Q1012 NOSIG
ZBYN,2003-08-24 17:00,ZBYN 241700Z 10001MPS CAVOK 17/15 Q1011
ZBYN,2003-08-24 18:00,ZBYN 241800Z 11001MPS 8000 NSC 16/14 Q1011
ZBYN,2003-08-24 19:00,ZBYN 241900Z 10001MPS CAVOK 16/13 Q1011
ZBYN,2003-08-24 20:00,ZBYN 242000Z 13002MPS CAVOK 16/14 Q1011 NOSIG
ZBYN,2003-08-24 21:00,ZBYN 242100Z 11001MPS CAVOK 16/14 Q1011
ZBYN,2003-08-24 22:00,ZBYN 242200Z 08001MPS CAVOK 16/14 Q1011 NOSIG
ZBYN,2003-08-24 23:00,ZBYN 242300Z 13002MPS 7000 NSC 17/14 Q1012 NOSIG
ZBYN,2003-08-25 00:00,ZBYN 250000Z 00000MPS 6000 NSC 19/15 Q1012 NOSIG
ZBYN,2003-08-25 01:00,ZBYN 250100Z 07001MPS 8000 NSC 22/14 Q1012 NOSIG
ZBYN,2003-08-25 02:00,ZBYN 250200Z 00000MPS CAVOK 24/16 Q1012 NOSIG
ZBYN,2003-08-25 03:00,ZBYN 250300Z VRB01MPS CAVOK 25/15 Q1012 NOSIG
ZBYN,2003-08-25 04:00,ZBYN 250400Z 18001MPS CAVOK 26/15 Q1011 NOSIG
ZBYN,2003-08-25 05:00,ZBYN 250500Z VRB01MPS CAVOK 27/16 Q1010 NOSIG
ZBYN,2003-08-25 06:00,ZBYN 250600Z 27002MPS CAVOK 29/15 Q1009 NOSIG
ZBYN,2003-08-25 07:00,ZBYN 250700Z 30002MPS 9999 FEW033CB OVC200 27/15 Q1009 NOSIG
ZBYN,2003-08-25 08:00,ZBYN 250800Z 04002MPS CAVOK 27/09 Q1009 NOSIG
ZBYN,2003-08-25 09:00,ZBYN 250900Z 08003MPS CAVOK 26/15 Q1009 NOSIG
ZBYN,2003-08-25 10:00,ZBYN 251000Z 09003MPS 9999 -RA SCT040 OVC120 25/15 Q1010 NOSIG
ZBYN,2003-08-25 11:00,ZBYN 251100Z VRB01MPS 9999 -RA FEW020 BKN053 OVC100 21/17 Q1011 NOSIG
ZBYN,2003-08-25 12:00,ZBYN 251200Z 19001MPS 9999 -RA FEW020 BKN060 OVC100 19/17 Q1012 NOSIG
ZBYN,2003-08-25 13:00,ZBYN 251300Z VRB01MPS 9999 -RA NSC 18/16 Q1012 NOSIG
ZBYN,2003-08-25 14:00,ZBYN 251400Z 07001MPS 9999 -RA NSC 18/16 Q1012 NOSIG
ZBYN,2003-08-25 15:00,ZBYN 251500Z 06002MPS CAVOK 18/16 Q1011 NOSIG
ZBYN,2003-08-25 17:00,ZBYN 251700Z VRB01MPS CAVOK 18/16 Q1011
ZBYN,2003-08-25 18:00,ZBYN 251800Z AUTO 16002KT 5SM 18/17 A2985 RMK 60002 SLP077 T01830174 57004 IEM_DS3505
ZBYN,2003-08-25 20:00,ZBYN 252000Z VRB01MPS 6000 -RA OVC040 17/16 Q1010 NOSIG
ZBYN,2003-08-25 21:00,ZBYN 252100Z 00000MPS 6000 -RA OVC040 17/16 Q1010 NOSIG
ZBYN,2003-08-25 22:00,ZBYN 252200Z 09001MPS 5000 -RA BR OVC033 17/16 Q1011 NOSIG
ZBYN,2003-08-25 23:00,ZBYN 252300Z 05001MPS 7000 -RA SCT020 OVC100 16/15 Q1011 NOSIG
ZBYN,2003-08-26 00:00,ZBYN 260000Z 00000MPS 9999 -RA SCT020 OVC100 16/14 Q1011 NOSIG
ZBYN,2003-08-26 01:00,ZBYN 260100Z 36001MPS 9999 -RA FEW020 OVC100 17/14 Q1011 NOSIG
ZBYN,2003-08-26 02:00,ZBYN 260200Z 32001MPS 9999 -RA BKN040 OVC100 17/14 Q1012 NOSIG
ZBYN,2003-08-26 03:00,ZBYN 260300Z 03001MPS 9999 -RA BKN040 OVC100 18/15 Q1011 NOSIG
ZBYN,2003-08-26 05:00,ZBYN 260500Z 34002MPS 9999 -RA NSC 19/16 Q1010 NOSIG
ZBYN,2003-08-26 06:00,ZBYN 260600Z 03001MPS 9999 -RA NSC 19/16 Q1010 NOSIG
ZBYN,2003-08-26 07:00,ZBYN 260700Z 00000MPS 9999 -RA NSC 19/16 Q1010 NOSIG
ZBYN,2003-08-26 08:00,ZBYN 260800Z 04001MPS 9999 -RA NSC 19/16 Q1009 NOSIG
ZBYN,2003-08-26 09:00,ZBYN 260900Z 33002MPS 6000 -RA BKN040 OVC100 19/16 Q1009 NOSIG
ZBYN,2003-08-26 10:00,ZBYN 261000Z 36001MPS 6000 -RA BKN040 OVC100 19/17 Q1009 NOSIG
ZBYN,2003-08-26 11:00,ZBYN 261100Z 03001MPS 9999 SCT020 OVC100 19/15 Q1009 NOSIG
ZBYN,2003-08-26 12:00,ZBYN 261200Z 11001MPS CAVOK 18/16 Q1010 NOSIG
ZBYN,2003-08-26 13:00,ZBYN 261300Z 12001MPS CAVOK 18/15 Q1010 NOSIG
ZBYN,2003-08-26 14:00,ZBYN 261400Z 12002MPS CAVOK 18/15 Q1010 NOSIG
ZBYN,2003-08-26 15:00,ZBYN 261500Z 08001MPS CAVOK 18/15 Q1010 NOSIG
ZBYN,2003-08-26 16:00,ZBYN 261600Z 08001MPS CAVOK 16/14 Q1009 NOSIG
ZBYN,2003-08-26 17:00,ZBYN 261700Z 12001MPS CAVOK 16/14 Q1009
ZBYN,2003-08-26 18:00,ZBYN 261800Z 12001MPS CAVOK 14/13 Q1009
ZBYN,2003-08-26 19:00,ZBYN 261900Z 14001MPS CAVOK 14/13 Q1009
ZBYN,2003-08-26 20:00,ZBYN 262000Z 36001MPS CAVOK 14/13 Q1009
ZBYN,2003-08-26 21:00,ZBYN 262100Z 12001MPS CAVOK 12/11 Q1009
ZBYN,2003-08-26 22:00,ZBYN 262200Z 12001MPS 0150 R31/0050N FG NSC 14/13 Q1010 NOSIG
ZBYN,2003-08-26 23:00,ZBYN 262300Z 11002MPS 0150 R31/0100N FG SKC 15/14 Q1010 NOSIG
ZBYN,2003-08-27 00:00,ZBYN 270000Z VRB01MPS 0400 R31/0550N FG SKC 15/15 Q1010 NOSIG
ZBYN,2003-08-27 01:00,ZBYN 270100Z 17001MPS 0600 R31/1000 FG NSC 16/15 Q1010 NOSIG
ZBYN,2003-08-27 02:00,ZBYN 270200Z VRB01MPS 1500 R31/1400U BR NSC 17/15 Q1011 NOSIG
ZBYN,2003-08-27 03:00,ZBYN 270300Z VRB01MPS 3000 BR FEW040 20/16 Q1010 NOSIG
ZBYN,2003-08-27 04:00,ZBYN 270400Z 16001MPS 3500 BR FEW040 21/16 Q1010 NOSIG
ZBYN,2003-08-27 05:00,ZBYN 270500Z VRB01MPS 5000 FU SKC 23/16 Q1009 NOSIG
ZBYN,2003-08-27 06:00,ZBYN 270600Z VRB01MPS 6000 SKC 24/16 Q1008 NOSIG
ZBYN,2003-08-27 07:00,ZBYN 270700Z 16001MPS 8000 SKC 25/16 Q1007 NOSIG
ZBYN,2003-08-27 08:00,ZBYN 270800Z 21001MPS CAVOK 26/16 Q1007 NOSIG
ZBYN,2003-08-27 09:00,ZBYN 270900Z 18001MPS CAVOK 26/16 Q1007 NOSIG
ZBYN,2003-08-27 10:00,ZBYN 271000Z 20001MPS CAVOK 25/17 Q1006 NOSIG
ZBYN,2003-08-27 11:00,ZBYN 271100Z 00000MPS CAVOK 23/18 Q1007 NOSIG
ZBYN,2003-08-27 12:00,ZBYN 271200Z 13002MPS 7000 SKC 19/17 Q1007 NOSIG
ZBYN,2003-08-27 13:00,ZBYN 271300Z 10001MPS 3000 BR SKC 19/17 Q1008 NOSIG
ZBYN,2003-08-27 14:00,ZBYN 271400Z 13002MPS 3000 BR SKC 18/16 Q1008 NOSIG
ZBYN,2003-08-27 15:00,ZBYN 271500Z 12002MPS 4000 BR SKC 18/16 Q1008 NOSIG
ZBYN,2003-08-27 16:00,ZBYN 271600Z 12002MPS 3000 BR SKC 18/17 Q1009 NOSIG
ZBYN,2003-08-27 17:00,ZBYN 271700Z 12001MPS 3000 BR SKC 18/17 Q1009
ZBYN,2003-08-27 18:00,ZBYN 271800Z AUTO 11002KT 4SM 19/18 A2980 RMK SLP061 T01910185 52007 IEM_DS3505
ZBYN,2003-08-27 19:00,ZBYN 271900Z 13002MPS 2000 R31/0800 BR SKC 18/16 Q1009
ZBYN,2003-08-27 20:00,ZBYN 272000Z 10001MPS 3000 R31/1100 BR SKC 18/17 Q1009
ZBYN,2003-08-27 21:00,ZBYN 272100Z VRB01MPS 2000 R31/1100 BR SKC 18/16 Q1009 NOSIG
ZBYN,2003-08-27 22:00,ZBYN 272200Z 00000MPS 1200 R31/0700 BR SKC 17/16 Q1009 NOSIG
ZBYN,2003-08-27 23:00,ZBYN 272300Z 00000MPS 0500 R31/0700 FG SKC 18/17 Q1010 NOSIG
ZBYN,2003-08-28 00:00,ZBYN 280000Z 00000MPS 0800 R31/1100 FG SKC 19/17 Q1010 NOSIG
ZBYN,2003-08-28 01:00,ZBYN 280100Z 33001MPS 1100 R31/1100U BR NSC 20/18 Q1010 NOSIG
ZBYN,2003-08-28 02:00,ZBYN 280200Z 29002MPS 1100 R31/1000N BR NSC 20/18 Q1011 NOSIG
ZBYN,2003-08-28 03:00,ZBYN 280300Z 32002MPS 1300 R31/1300N BR NSC 21/17 Q1011 NOSIG
ZBYN,2003-08-28 04:00,ZBYN 280400Z 29001MPS 1600 R31/1400N BR NSC 22/17 Q1010 NOSIG
ZBYN,2003-08-28 05:00,ZBYN 280500Z 00000MPS 1600 R31/1300N BR NSC 23/18 Q1010 NOSIG
ZBYN,2003-08-28 06:00,ZBYN 280600Z 13001MPS 6000 NSC 23/17 Q1010 NOSIG
ZBYN,2003-08-28 07:00,ZBYN 280700Z 00000MPS 5000 FU NSC 23/17 Q1010 NOSIG
ZBYN,2003-08-28 08:00,ZBYN 280800Z 25001MPS 5000 FU SCT040 OVC100 23/17 Q1011 NOSIG
ZBYN,2003-08-28 09:00,ZBYN 280900Z 00000MPS 5000 FU NSC 23/18 Q1011 NOSIG
ZBYN,2003-08-28 10:00,ZBYN 281000Z 36001MPS 6000 FEW040 OVC100 23/18 Q1011 NOSIG
ZBYN,2003-08-28 11:00,ZBYN 281100Z 07003MPS 5000 BR SCT040 OVC100 22/17 Q1012 NOSIG
ZBYN,2003-08-28 12:00,ZBYN 281200Z 06004MPS 6000 BKN040 OVC100 21/16 Q1013 NOSIG
ZBYN,2003-08-28 13:00,ZBYN 281300Z 09006MPS 7000 BKN040 OVC100 20/16 Q1015 NOSIG
ZBYN,2003-08-28 14:00,ZBYN 281400Z 09007MPS 9999 BKN040 OVC100 18/15 Q1015 NOSIG
ZBYN,2003-08-28 15:00,ZBYN 281500Z 08008MPS 9999 OVC040 17/13 Q1016 NOSIG
ZBYN,2003-08-28 16:00,ZBYN 281600Z 07005MPS 9999 FEW040CB BKN040 17/12 Q1017 NOSIG
ZBYN,2003-08-28 17:00,ZBYN 281700Z 04004MPS 9999 -SHRA OVC040 16/13 Q1016
ZBYN,2003-08-28 18:00,ZBYN 281800Z 05003MPS 9999 -RA OVC040 15/13 Q1017
ZBYN,2003-08-28 19:00,ZBYN 281900Z 05003MPS 9999 -RA OVC040 15/13 Q1018
ZBYN,2003-08-28 20:00,ZBYN 282000Z 07003MPS 9999 -RA OVC040 15/12 Q1017
ZBYN,2003-08-28 21:00,ZBYN 282100Z 06004MPS CAVOK 15/11 Q1018
ZBYN,2003-08-28 22:00,ZBYN 282200Z 05003MPS CAVOK 14/09 Q1019 NOSIG
ZBYN,2003-08-28 23:00,ZBYN 282300Z 06003MPS CAVOK 14/09 Q1019 NOSIG
ZBYN,2003-08-29 00:00,ZBYN 290000Z 05004MPS CAVOK 14/09 Q1020 NOSIG
ZBYN,2003-08-29 01:00,ZBYN 290100Z 06003MPS CAVOK 14/08 Q1020 NOSIG
ZBYN,2003-08-29 02:00,ZBYN 290200Z 06003MPS CAVOK 14/08 Q1021 NOSIG
ZBYN,2003-08-29 03:00,ZBYN 290300Z 06002MPS CAVOK 14/08 Q1021 NOSIG
ZBYN,2003-08-29 04:00,ZBYN 290400Z 05002MPS CAVOK 14/07 Q1021 NOSIG
ZBYN,2003-08-29 05:00,ZBYN 290500Z 04003MPS CAVOK 14/08 Q1021 NOSIG
ZBYN,2003-08-29 06:00,ZBYN 290600Z 35003MPS 9999 -RA NSC 13/10 Q1021 NOSIG
ZBYN,2003-08-29 07:00,ZBYN 290700Z 01003MPS 9999 -RA NSC 13/10 Q1020 NOSIG
ZBYN,2003-08-29 08:00,ZBYN 290800Z 01002MPS 9999 -RA NSC 13/10 Q1020 NOSIG
ZBYN,2003-08-29 09:00,ZBYN 290900Z 03004MPS 9999 -RA NSC 13/08 Q1020 NOSIG
ZBYN,2003-08-29 10:00,ZBYN 291000Z 01002MPS 9999 -RA NSC 12/09 Q1020 NOSIG
ZBYN,2003-08-29 11:00,ZBYN 291100Z 36003MPS CAVOK 12/09 Q1020 NOSIG
ZBYN,2003-08-29 12:00,ZBYN 291200Z 02001MPS CAVOK 12/10 Q1020 NOSIG
ZBYN,2003-08-29 13:00,ZBYN 291300Z 36002MPS 9999 -RA NSC 11/10 Q1020 NOSIG
ZBYN,2003-08-29 14:00,ZBYN 291400Z 34002MPS 9999 -RA OVC033 11/09 Q1020 NOSIG
ZBYN,2003-08-29 15:00,ZBYN 291500Z 34002MPS 9999 -RA OVC033 11/09 Q1020 NOSIG
ZBYN,2003-08-29 16:00,ZBYN 291600Z 34002MPS 9999 -RA OVC033 11/09 Q1019 NOSIG
ZBYN,2003-08-29 17:00,ZBYN 291700Z 35001MPS 9999 -RA OVC033 11/09 Q1019
ZBYN,2003-08-29 18:00,ZBYN 291800Z 34002MPS 9999 -RA OVC033 11/09 Q1018
ZBYN,2003-08-29 19:00,ZBYN 291900Z 32003MPS 9999 -RA OVC033 10/09 Q1018
ZBYN,2003-08-29 20:00,ZBYN 292000Z 33002MPS 9999 -RA OVC033 10/09 Q1018
ZBYN,2003-08-29 21:00,ZBYN 292100Z 34002MPS 9999 -RA OVC040 11/09 Q1017 NOSIG
ZBYN,2003-08-29 22:00,ZBYN 292200Z 34002MPS 9999 -RA OVC046 11/09 Q1018 NOSIG
ZBYN,2003-08-29 23:00,ZBYN 292300Z 34002MPS CAVOK 11/09 Q1018 NOSIG
ZBYN,2003-08-30 00:00,ZBYN 300000Z 35002MPS CAVOK 12/09 Q1018 NOSIG
ZBYN,2003-08-30 01:00,ZBYN 300100Z VRB01MPS CAVOK 13/08 Q1018 NOSIG
ZBYN,2003-08-30 02:00,ZBYN 300200Z 07001MPS CAVOK 14/06 Q1018 NOSIG
ZBYN,2003-08-30 03:00,ZBYN 300300Z VRB01MPS 9999 SCT040 15/07 Q1018 NOSIG
ZBYN,2003-08-30 04:00,ZBYN 300400Z VRB01MPS 9999 SCT040 16/07 Q1017 NOSIG
ZBYN,2003-08-30 05:00,ZBYN 300500Z VRB01MPS 9999 FEW040 17/08 Q1016 NOSIG
ZBYN,2003-08-30 06:00,ZBYN 300600Z VRB01MPS 9999 BKN040 18/08 Q1016 NOSIG
ZBYN,2003-08-30 07:00,ZBYN 300700Z 31002MPS 9999 SCT040 BKN100 18/08 Q1015 NOSIG
ZBYN,2003-08-30 08:00,ZBYN 300800Z VRB01MPS 9999 FEW040 SCT100 19/09 Q1014 NOSIG
ZBYN,2003-08-30 09:00,ZBYN 300900Z 19001MPS 9999 SCT040 BKN100 18/10 Q1014 NOSIG
ZBYN,2003-08-30 10:00,ZBYN 301000Z 24002MPS CAVOK 17/10 Q1014 NOSIG
ZBYN,2003-08-30 11:00,ZBYN 301100Z 23001MPS CAVOK 16/10 Q1014 NOSIG
ZBYN,2003-08-30 12:00,ZBYN 301200Z 14001MPS CAVOK 13/11 Q1014 NOSIG
ZBYN,2003-08-30 13:00,ZBYN 301300Z 13001MPS CAVOK 13/10 Q1015 NOSIG
ZBYN,2003-08-30 14:00,ZBYN 301400Z 11001MPS 6000 SKC 12/10 Q1015 NOSIG
ZBYN,2003-08-30 15:00,ZBYN 301500Z 00000MPS 4000 BR SKC 11/10 Q1015 NOSIG
ZBYN,2003-08-30 16:00,ZBYN 301600Z 12001MPS 4000 BR SKC 10/09 Q1015 NOSIG
ZBYN,2003-08-30 17:00,ZBYN 301700Z 11001MPS 3000 BR SKC 10/09 Q1015
ZBYN,2003-08-30 18:00,ZBYN 301800Z VRB01MPS 3000 BR SKC 11/09 Q1015
ZBYN,2003-08-30 19:00,ZBYN 301900Z 00000MPS 3000 R31/1000 BR SKC 10/09 Q1015
ZBYN,2003-08-30 20:00,ZBYN 302000Z 00000MPS 2500 R31/1000N BR SKC 10/09 Q1015
ZBYN,2003-08-30 21:00,ZBYN 302100Z 10001MPS 2500 R31/1400 BR SKC 09/08 Q1015
ZBYN,2003-08-30 22:00,ZBYN 302200Z 11001MPS 3000 BR NSC 09/08 Q1015 NOSIG
ZBYN,2003-08-30 23:00,ZBYN 302300Z 11001MPS 2000 R31/1100N BR NSC 10/09 Q1015 NOSIG
ZBYN,2003-08-31 00:00,ZBYN 310000Z 07001MPS 1700 R31/1300D BR NSC 13/11 Q1016 NOSIG
ZBYN,2003-08-31 01:00,ZBYN 310100Z VRB01MPS 3000 BR NSC 14/11 Q1016 NOSIG
ZBYN,2003-08-31 02:00,ZBYN 310200Z 00000MPS 3000 BR NSC 16/10 Q1016 NOSIG
ZBYN,2003-08-31 03:00,ZBYN 310300Z 00000MPS 5000 BR NSC 18/11 Q1016 NOSIG
ZBYN,2003-08-31 04:00,ZBYN 310400Z VRB01MPS 7000 NSC 18/11 Q1016 NOSIG
ZBYN,2003-08-31 05:00,ZBYN 310500Z VRB01MPS 9000 NSC 19/11 Q1015 NOSIG
ZBYN,2003-08-31 06:00,ZBYN 310600Z VRB01MPS CAVOK 19/10 Q1015 NOSIG
ZBYN,2003-08-31 07:00,ZBYN 310700Z 21001MPS CAVOK 19/11 Q1014 NOSIG
ZBYN,2003-08-31 08:00,ZBYN 310800Z 22001MPS CAVOK 20/12 Q1014 NOSIG
ZBYN,2003-08-31 09:00,ZBYN 310900Z 21001MPS CAVOK 19/11 Q1014 NOSIG
ZBYN,2003-08-31 10:00,ZBYN 311000Z 20001MPS 8000 NSC 19/12 Q1014 NOSIG
ZBYN,2003-08-31 11:00,ZBYN 311100Z 18001MPS 4000 BR NSC 17/13 Q1014 NOSIG
ZBYN,2003-08-31 12:00,ZBYN 311200Z 19001MPS 6000 NSC 15/13 Q1015 NOSIG
ZBYN,2003-08-31 13:00,ZBYN 311300Z 00000MPS 6000 NSC 15/12 Q1015 NOSIG
ZBYN,2003-08-31 14:00,ZBYN 311400Z 10001MPS 5000 BR NSC 15/13 Q1016 NOSIG
ZBYN,2003-08-31 15:00,ZBYN 311500Z 13002MPS 1700 BR NSC 14/12 Q1016 NOSIG
ZBYN,2003-08-31 16:00,ZBYN 311600Z 11001MPS 3000 R31/0900N BR NSC 14/13 Q1016 NOSIG
ZBYN,2003-08-31 17:00,ZBYN 311700Z 12001MPS 3000 BR NSC 14/13 Q1016 NOSIG
ZBYN,2003-08-31 18:00,ZBYN 311800Z AUTO 00000KT 4SM 15/14 A2998 RMK SLP138 T01490140 57004 IEM_DS3505
ZBYN,2003-08-31 21:00,ZBYN 312100Z 12001MPS 1400 R31/0450N BR NSC 13/12 Q1015
ZBYN,2003-08-31 22:00,ZBYN 312200Z 11002MPS 1100 R31/0600N BR FEW016 BKN200 14/13 Q1 015 NOSIG
ZBYN,2003-08-31 22:30,ZBYN 312230Z 13001MPS 1100 R31/0600N BR FEW016 OVC100 14/13 Q1 015 NOSIG
ZBYN,2003-08-31 23:00,ZBYN 312300Z 15001MPS 1100 R31/0750N BR FEW016 OVC100 14/13 Q1015 NOSIG
ZBYN,2003-09-01 00:00,ZBYN 010000Z 14001MPS 1000 R31/0800N BR FEW016 OVC100 15/13 Q1015 NOSIG
ZBYN,2003-09-01 01:00,ZBYN 010100Z 20001MPS 1000 R31/1000N BR NSC 15/13 Q1016 NOSIG
ZBYN,2003-09-01 02:00,ZBYN 010200Z 16001MPS 1000 R31/1000N BR NSC 17/13 Q1015 NOSIG
ZBYN,2003-09-01 03:00,ZBYN 010300Z 21002MPS 4000 BR NSC 18/13 Q1015 NOSIG
ZBYN,2003-09-01 04:00,ZBYN 010400Z VRB01MPS 6000 NSC 20/13 Q1014 NOSIG
ZBYN,2003-09-01 05:00,ZBYN 010500Z VRB01MPS CAVOK 22/13 Q1014 NOSIG
ZBYN,2003-09-01 06:00,ZBYN 010600Z 20002MPS CAVOK 22/13 Q1013 NOSIG
ZBYN,2003-09-01 07:00,ZBYN 010700Z 22002MPS CAVOK 23/13 Q1013 NOSIG
ZBYN,2003-09-01 08:00,ZBYN 010800Z 24003MPS CAVOK 22/14 Q1012 NOSIG
ZBYN,2003-09-01 09:00,ZBYN 010900Z 20002MPS CAVOK 21/14 Q1012 NOSIG
ZBYN,2003-09-01 10:00,ZBYN 011000Z 18001MPS CAVOK 21/14 Q1012 NOSIG
ZBYN,2003-09-01 11:00,ZBYN 011100Z 18001MPS 6000 NSC 19/14 Q1013 NOSIG
ZBYN,2003-09-01 12:00,ZBYN 011200Z 19001MPS 6000 NSC 18/14 Q1014 NOSIG
ZBYN,2003-09-01 13:00,ZBYN 011300Z 14002MPS 2000 BR NSC 16/14 Q1015 NOSIG
ZBYN,2003-09-01 14:00,ZBYN 011400Z 16001MPS 3000 BR NSC 15/14 Q1016 NOSIG
ZBYN,2003-09-01 15:00,ZBYN 011500Z 14002MPS 3000 BR NSC 15/13 Q1016 NOSIG
ZBYN,2003-09-01 16:00,ZBYN 011600Z 13002MPS 3000 BR NSC 15/13 Q1017 NOSIG
ZBYN,2003-09-01 17:00,ZBYN 011700Z 16002MPS 3000 BR NSC 15/13 Q1017
ZBYN,2003-09-01 18:00,ZBYN 011800Z 19001MPS 2300 R31/1200N -RA BR NSC 15/14 Q1016
ZBYN,2003-09-01 19:00,ZBYN 011900Z 14001MPS 1800 R31/0800N -RA BR NSC 15/13 Q1016
ZBYN,2003-09-01 20:00,ZBYN 012000Z 14002MPS 1800 R31/0800N BR NSC 15/13 Q1016
ZBYN,2003-09-01 21:00,ZBYN 012100Z 00000MPS 1800 BR NSC 15/13 Q1017
ZBYN,2003-09-01 22:00,ZBYN 012200Z 00000MPS 1800 R31/0800N BR NSC 15/13 Q1017 NOSIG
ZBYN,2003-09-01 23:00,ZBYN 012300Z 18001MPS 1400 R31/0900N BR NSC 15/14 Q1017 NOSIG
ZBYN,2003-09-02 00:00,ZBYN 020000Z 18001MPS 1600 R31/1300N BR NSC 15/14 Q1018 NOSIG
ZBYN,2003-09-02 01:00,ZBYN 020100Z 16001MPS 1600 BR FEW040 OVC100 16/13 Q1018 NOSIG
ZBYN,2003-09-02 02:00,ZBYN 020200Z 20001MPS 1600 BR NSC 16/13 Q1019 NOSIG
ZBYN,2003-09-02 03:00,ZBYN 020300Z 17001MPS 1800 BR NSC 17/14 Q1018 NOSIG
ZBYN,2003-09-02 04:00,ZBYN 020400Z VRB01MPS 3000 BR NSC 18/13 Q1018 NOSIG
ZBYN,2003-09-02 05:00,ZBYN 020500Z VRB01MPS 3500 BR NSC 19/13 Q1017 NOSIG
ZBYN,2003-09-02 06:00,ZBYN 020600Z VRB01MPS 6000 NSC 20/14 Q1017 NOSIG
ZBYN,2003-09-02 07:00,ZBYN 020700Z 18001MPS 6000 NSC 21/14 Q1016 NOSIG
ZBYN,2003-09-02 08:00,ZBYN 020800Z VRB01MPS 6000 NSC 22/14 Q1016 NOSIG
ZBYN,2003-09-02 09:00,ZBYN 020900Z 18001MPS 6000 NSC 22/14 Q1016 NOSIG
ZBYN,2003-09-02 10:00,ZBYN 021000Z 14001MPS 4000 FU NSC 21/15 Q1016 NOSIG
ZBYN,2003-09-02 11:00,ZBYN 021100Z 11002MPS 3000 FU NSC 18/15 Q1016 NOSIG
ZBYN,2003-09-02 12:00,ZBYN 021200Z 11001MPS 4000 BR NSC 16/14 Q1017 NOSIG
ZBYN,2003-09-02 13:00,ZBYN 021300Z 10001MPS 4000 BR SKC 15/14 Q1018 NOSIG
ZBYN,2003-09-02 14:00,ZBYN 021400Z 11002MPS 6000 SKC 16/13 Q1018 NOSIG
ZBYN,2003-09-02 15:00,ZBYN 021500Z 14001MPS 5000 BR SKC 15/13 Q1019 NOSIG
ZBYN,2003-09-02 16:00,ZBYN 021600Z 12002MPS 3000 BR SKC 14/13 Q1019 NOSIG
ZBYN,2003-09-02 17:00,ZBYN 021700Z 11001MPS 3000 R31/1300N BR SKC 14/13 Q1019
ZBYN,2003-09-02 18:00,ZBYN 021800Z 14002MPS 3000 R31/1200 BR SKC 14/13 Q1019
ZBYN,2003-09-02 19:00,ZBYN 021900Z 14001MPS 2000 R31/0800 BR SKC 15/14 Q1019
ZBYN,2003-09-02 20:00,ZBYN 022000Z 00000MPS 3000 R31/0900N BR SKC 15/14 Q1019
ZBYN,2003-09-02 21:00,ZBYN 022100Z 00000MPS 2000 R31/0900N BR SKC 15/14 Q1020
ZBYN,2003-09-02 22:00,ZBYN 022200Z 00000MPS 1700 R31/0750N BR NSC 15/14 Q1020 NOSIG
ZBYN,2003-09-02 23:00,ZBYN 022300Z 04001MPS 1300 R31/0750N BR NSC 15/14 Q1021 NOSIG
ZBYN,2003-09-03 00:00,ZBYN 030000Z 12002MPS 1200 R31/0900N BR NSC 15/14 Q1021 NOSIG
ZBYN,2003-09-03 01:00,ZBYN 030100Z AUTO 1SM 16/14 A3015 RMK T01600140 IEM_DS3505
ZBYN,2003-09-03 02:00,ZBYN 030200Z AUTO 00000KT 1SM 17/15 A3015 RMK T01700150 IEM_DS3505
ZBYN,2003-09-03 03:00,ZBYN 030300Z VRB01MPS 1400 R31/1200N BR NSC 20/15 Q1020 NOSIG
ZBYN,2003-09-03 04:00,ZBYN 030400Z 23001MPS 1800 R31/1300N HZ NSC 22/15 Q1019 NOSIG
ZBYN,2003-09-03 05:00,ZBYN 030500Z 25001MPS 2000 HZ NSC 23/15 Q1018 NOSIG
ZBYN,2003-09-03 06:00,ZBYN 030600Z 23001MPS 2000 HZ NSC 24/16 Q1017 NOSIG
ZBYN,2003-09-03 07:00,ZBYN 030700Z 22002MPS 2000 R31/1300N HZ NSC 24/16 Q1017 NOSIG
ZBYN,2003-09-03 08:00,ZBYN 030800Z 23002MPS 2000 R31/1400N HZ NSC 23/16 Q1016 NOSIG
ZBYN,2003-09-03 09:00,ZBYN 030900Z 14003MPS 1300 R31/1200N -SHRA BR FEW040TCU BKN060 19/17 Q1018 NOSIG
ZBYN,2003-09-03 10:00,ZBYN 031000Z 11001MPS 0800 R31/0800N -RA FG SCT030 OVC100 18/17 Q1019 NOSIG
ZBYN,2003-09-03 11:00,ZBYN 031100Z 05001MPS 1600 -RA BR BKN040 OVC100 18/16 Q1019 NOSIG
ZBYN,2003-09-03 12:00,ZBYN 031200Z 03002MPS 3000 -RA BR BKN040 OVC100 17/15 Q1020 NOSIG
ZBYN,2003-09-03 13:00,ZBYN 031300Z 35002MPS 6000 -RA BKN040 OVC100 17/15 Q1020 NOSIG
ZBYN,2003-09-03 14:00,ZBYN 031400Z VRB01MPS 6000 -RA BKN040 OVC100 17/15 Q1021 NOSIG
ZBYN,2003-09-03 15:00,ZBYN 031500Z 05002MPS 8000 -RA BKN040 OVC100 16/13 Q1020 NOSIG
ZBYN,2003-09-03 16:00,ZBYN 031600Z 06003MPS 9999 -RA OVC040 14/13 Q1019 NOSIG
ZBYN,2003-09-03 17:00,ZBYN 031700Z 00000MPS 9999 -RA OVC040 15/13 Q1019
ZBYN,2003-09-03 18:00,ZBYN 031800Z 34001MPS 9999 -RA OVC040 15/13 Q1018
ZBYN,2003-09-03 19:00,ZBYN 031900Z VRB01MPS 9999 -RA OVC040 15/14 Q1017
ZBYN,2003-09-03 20:00,ZBYN 032000Z 00000MPS 6000 -RA OVC040 15/12 Q1017
ZBYN,2003-09-03 21:00,ZBYN 032100Z 36002MPS 6000 -RA OVC040 14/13 Q1017
ZBYN,2003-09-03 22:00,ZBYN 032200Z 34001MPS 8000 -RA OVC030 14/13 Q1016 NOSIG
ZBYN,2003-09-03 23:00,ZBYN 032300Z 35001MPS 2000 -RA BR OVC030 14/13 Q1017 NOSIG
ZBYN,2003-09-04 00:00,ZBYN 040000Z 34002MPS 2500 R31/1400N -RA BR SCT020 OVC040 14/13 Q1016 NOSIG
ZBYN,2003-09-04 01:00,ZBYN 040100Z 36001MPS 6000 -RA SCT026 OVC083 14/13 Q1017 NOSIG
ZBYN,2003-09-04 02:00,ZBYN 040200Z 00000MPS 9999 -RA FEW020 BKN050 OVC083 14/13 Q1017 NOSIG
ZBYN,2003-09-04 03:00,ZBYN 040300Z 00000MPS 9999 FEW020 BKN050 OVC100 15/13 Q1016 NOSIG
ZBYN,2003-09-04 04:00,ZBYN 040400Z 10001MPS 9999 FEW020 SCT050 OVC100 16/13 Q1016 NOSIG
ZBYN,2003-09-04 05:00,ZBYN 040500Z 00000MPS 9999 SCT020 OVC100 16/13 Q1015 NOSIG
ZBYN,2003-09-04 06:00,ZBYN 040600Z 18001MPS 9999 SCT020 OVC100 17/13 Q1015 NOSIG
ZBYN,2003-09-04 07:00,ZBYN 040700Z VRB01MPS 9999 BKN033 OVC100 17/13 Q1015 NOSIG
ZBYN,2003-09-04 08:00,ZBYN 040800Z VRB01MPS 9999 BKN033 OVC100 18/13 Q1014 NOSIG
ZBYN,2003-09-04 09:00,ZBYN 040900Z 17001MPS 9999 OVC033 17/14 Q1014 NOSIG
ZBYN,2003-09-04 10:00,ZBYN 041000Z 17001MPS CAVOK 17/14 Q1014 NOSIG
ZBYN,2003-09-04 11:00,ZBYN 041100Z 14001MPS 8000 NSC 16/14 Q1015 NOSIG
ZBYN,2003-09-04 12:00,ZBYN 041200Z 10001MPS 8000 NSC 15/14 Q1015 NOSIG
ZBYN,2003-09-04 13:00,ZBYN 041300Z 07001MPS 6000 NSC 16/14 Q1016 NOSIG
ZBYN,2003-09-04 14:00,ZBYN 041400Z 10002MPS 4000 BR NSC 16/14 Q1016 NOSIG
ZBYN,2003-09-04 15:00,ZBYN 041500Z 00000MPS 2000 R31/1100 BR NSC 15/14 Q1016 NOSIG
ZBYN,2003-09-04 16:00,ZBYN 041600Z 00000MPS 1800 R31/0900N BR NSC 15/14 Q1016 NOSIG
ZBYN,2003-09-04 17:00,ZBYN 041700Z 00000MPS 1800 R31/1100U BR NSC 15/14 Q1016
ZBYN,2003-09-04 18:00,ZBYN 041800Z 00000MPS 2400 R31/1100 BR NSC 14/14 Q1015 NOSIG
ZBYN,2003-09-04 19:00,ZBYN 041900Z 26001MPS 1700 R31/0700 BR NSC 14/14 Q1015
ZBYN,2003-09-04 20:00,ZBYN 042000Z 22001MPS 1700 R31/0600 BR NSC 15/14 Q1015
ZBYN,2003-09-04 21:00,ZBYN 042100Z 22001MPS 1400 R31/0500D BR NSC 14/13 Q1015 NOSIG
ZBYN,2003-09-04 22:00,ZBYN 042200Z 00000MPS 0050 R31/0050 FG NSC 14/13 Q1015 NOSIG
ZBYN,2003-09-04 23:00,ZBYN 042300Z 14001MPS 0050 R31/0050 FG NSC 13/13 Q1016 NOSIG
ZBYN,2003-09-05 00:00,ZBYN 050000Z 00000MPS 0900 R31/0800 FG NSC 15/14 Q1016 NOSIG
ZBYN,2003-09-05 01:00,ZBYN 050100Z 19001MPS 1400 R31/0900N BR NSC 16/15 Q1016 N0SIG
ZBYN,2003-09-05 02:00,ZBYN 050200Z 22001MPS 1600 R31/1100N BR NSC 18/15 Q1017 NOSIG
ZBYN,2003-09-05 03:00,ZBYN 050300Z VRB01MPS 2500 BR NSC 19/14 Q1016 NOSIG
ZBYN,2003-09-05 04:00,ZBYN 050400Z VRB01MPS 3000 BR NSC 20/14 Q1016 NOSIG
ZBYN,2003-09-05 05:00,ZBYN 050500Z 23001MPS 3000 BR NSC 20/14 Q1015 NOSIG
ZBYN,2003-09-05 06:00,ZBYN 050600Z 24001MPS 3000 BR NSC 20/14 Q1015 NOSIG
ZBYN,2003-09-05 08:00,ZBYN 050800Z 28001MPS 6000 NSC 20/14 Q1015 NOSIG
ZBYN,2003-09-05 09:00,ZBYN 050900Z 27001MPS 6000 NSC 20/14 Q1015 NOSIG
ZBYN,2003-09-05 10:00,ZBYN 051000Z 00000MPS 3000 BR NSC 19/15 Q1015 NOSIG
ZBYN,2003-09-05 11:00,ZBYN 051100Z 31001MPS 3000 BR NSC 18/15 Q1015 NOSIG
ZBYN,2003-09-05 12:00,ZBYN 051200Z 00000MPS 3000 -RA BR NSC 18/15 Q1016 NOSIG
ZBYN,2003-09-05 13:00,ZBYN 051300Z 13002MPS 3000 -RA BR BKN040 OVC060 17/15 Q1016 NOSIG
ZBYN,2003-09-05 14:00,ZBYN 051400Z 00000MPS 3000 -RA BR NSC 17/15 Q1017 NOSIG
ZBYN,2003-09-05 15:00,ZBYN 051500Z 13002MPS 3000 -RA BR NSC 16/15 Q1017 NOSIG
ZBYN,2003-09-05 16:00,ZBYN 051600Z 09001MPS 4000 BR NSC 16/15 Q1017 NOSIG
ZBYN,2003-09-05 17:00,ZBYN 051700Z VRB01MPS 4000 -RA BR NSC 16/15 Q1016
ZBYN,2003-09-05 18:00,ZBYN 051800Z 00000MPS 4000 BR NSC 16/15 Q1016
ZBYN,2003-09-05 19:00,ZBYN 051900Z 12002MPS 2000 BR NSC 15/14 Q1016
ZBYN,2003-09-05 20:00,ZBYN 052000Z 15001MPS 1400 R31/0700N BR NSC 15/14 Q1016
ZBYN,2003-09-05 21:00,ZBYN 052100Z 15001MPS 1700 BR NSC 15/14 Q1015
ZBYN,2003-09-05 22:00,ZBYN 052200Z 13001MPS 1600 R31/0900N BR NSC 14/13 Q1016 NOSIG
ZBYN,2003-09-05 23:00,ZBYN 052300Z 00000MPS 1600 R31/0800N BR NSC 14/13 Q1016 NOSIG
ZBYN,2003-09-06 00:00,ZBYN 060000Z 11001MPS 2000 R31/1200U BR NSC 16/14 Q1016 NOSIG
ZBYN,2003-09-06 01:00,ZBYN 060100Z 00000MPS 3000 R31/1400N BR NSC 17/13 Q1016 NOSIG
ZBYN,2003-09-06 02:00,ZBYN 060200Z 10001MPS 3000 R31/1300N BR NSC 18/14 Q1016 NOSIG
ZBYN,2003-09-06 03:00,ZBYN 060300Z VRB01MPS 5000 BR NSC 20/13 Q1016 NOSIG
ZBYN,2003-09-06 04:00,ZBYN 060400Z VRB01MPS 6000 NSC 22/13 Q1015 NOSIG
ZBYN,2003-09-06 05:00,ZBYN 060500Z 21002MPS CAVOK 23/12 Q1014 NOSIG
ZBYN,2003-09-06 06:00,ZBYN 060600Z 22002MPS CAVOK 24/13 Q1013 NOSIG
ZBYN,2003-09-06 07:00,ZBYN 060700Z VRB01MPS CAVOK 23/12 Q1013 NOSIG
ZBYN,2003-09-06 08:00,ZBYN 060800Z 22001MPS CAVOK 23/12 Q1012 NOSIG
ZBYN,2003-09-06 09:00,ZBYN 060900Z 20002MPS CAVOK 24/12 Q1012 NOSIG
ZBYN,2003-09-06 10:00,ZBYN 061000Z 20001MPS CAVOK 22/14 Q1012 NOSIG
ZBYN,2003-09-06 11:00,ZBYN 061100Z 00000MPS CAVOK 20/15 Q1012 NOSIG
ZBYN,2003-09-06 12:00,ZBYN 061200Z 12001MPS CAVOK 18/15 Q1013 NOSIG
ZBYN,2003-09-06 12:30,ZBYN 061230Z 21001MPS CAVOK 19/15 Q1014 NOSIG
ZBYN,2003-09-06 13:00,ZBYN 061300Z 19002MPS 6000 NSC 18/15 Q1014 NOSIG
ZBYN,2003-09-06 15:00,ZBYN 061500Z 12002MPS 3000 R31/1000D BR NSC 16/14 Q1014 NOSIG
ZBYN,2003-09-06 16:00,ZBYN 061600Z 15002MPS 4000 BR NSC 16/14 Q1014 NOSIG
ZBYN,2003-09-06 17:00,ZBYN 061700Z 12002MPS 3000 R31/1300N FU NSC 16/14 Q1014 NOSIG
ZBYN,2003-09-06 18:00,ZBYN 061800Z 15002MPS 4000 BR NSC 16/14 Q1014
ZBYN,2003-09-06 19:00,ZBYN 061900Z 12002MPS 3000 R31/1000N BR NSC 16/14 Q1013
ZBYN,2003-09-06 20:00,ZBYN 062000Z 14002MPS 2500 R31/0900N BR NSC 16/14 Q1013
ZBYN,2003-09-06 21:00,ZBYN 062100Z 15002MPS 2500 R31/1000N BR NSC 16/14 Q1013
ZBYN,2003-09-06 22:00,ZBYN 062200Z 17002MPS 2500 R31/1000N BR NSC 16/14 Q1013 NOSIG
ZBYN,2003-09-06 23:00,ZBYN 062300Z 17001MPS 1200 R31/0900N BR NSC 16/14 Q1014 NOSIG
ZBYN,2003-09-07 00:00,ZBYN 070000Z 16001MPS 1400 R31/1100N BR NSC 16/14 Q1014 NOSIG
ZBYN,2003-09-07 01:00,ZBYN 070100Z 17001MPS 1600 R31/1300N BR SCT020 OVC060 17/14 Q1014 NOSIG
ZBYN,2003-09-07 02:00,ZBYN 070200Z VRB01MPS 2000 BR NSC 18/14 Q1014 NOSIG
ZBYN,2003-09-07 03:00,ZBYN 070300Z VRB01MPS 2000 BR NSC 19/14 Q1014 NOSIG
ZBYN,2003-09-07 04:00,ZBYN 070400Z 20002MPS 2500 BR NSC 21/15 Q1013 NOSIG
ZBYN,2003-09-07 05:00,ZBYN 070500Z 21002MPS 5000 HZ NSC 22/15 Q1012 NOSIG
ZBYN,2003-09-07 06:00,ZBYN 070600Z 21002MPS 5000 HZ NSC 24/15 Q1011 NOSIG
ZBYN,2003-09-07 07:00,ZBYN 070700Z 24002MPS 6000 FEW040TCU SCT200 23/16 Q1011 NOSIG
ZBYN,2003-09-07 08:00,ZBYN 070800Z 26002MPS 6000 FEW040TCU 22/16 Q1010 NOSIG
ZBYN,2003-09-07 09:00,ZBYN 070900Z 00000MPS 3000 HZ SKC 24/16 Q1010 NOSIG
ZBYN,2003-09-07 10:00,ZBYN 071000Z VRB01MPS 6000 SKC 23/16 Q1010 NOSIG
ZBYN,2003-09-07 11:00,ZBYN 071100Z 11002MPS 4000 BR SKC 18/16 Q1011 NOSIG
ZBYN,2003-09-07 12:00,ZBYN 071200Z 00000MPS 4000 BR SKC 20/16 Q1012 NOSIG
ZBYN,2003-09-07 13:00,ZBYN 071300Z 00000MPS 2000 BR SKC 18/16 Q1013 NOSIG
ZBYN,2003-09-07 14:00,ZBYN 071400Z VRB01MPS 8000 SKC 17/14 Q1014 NOSIG
ZBYN,2003-09-07 15:00,ZBYN 071500Z VRB01MPS 6000 SKC 15/13 Q1014 NOSIG
ZBYN,2003-09-07 16:00,ZBYN 071600Z 00000MPS 8000 SKC 15/13 Q1014 NOSIG
ZBYN,2003-09-07 17:00,ZBYN 071700Z 00000MPS 2000 R31/0700N BR SKC 14/13 Q1014
ZBYN,2003-09-07 18:00,ZBYN 071800Z 03001MPS 1700 R31/0600N BR SKC 15/15 Q1014
ZBYN,2003-09-07 19:00,ZBYN 071900Z 08001MPS 2000 R31/0900N BR SKC 15/14 Q1014
ZBYN,2003-09-07 20:00,ZBYN 072000Z 11001MPS 2500 R31/0800N BR SKC 14/12 Q1014
ZBYN,2003-09-07 21:00,ZBYN 072100Z 07001MPS 3000 R31/1200N BR SKC 13/11 Q1014
ZBYN,2003-09-07 22:00,ZBYN 072200Z 11001MPS 2000 R31/0900N BR NSC 14/12 Q1014 NOSIG
ZBYN,2003-09-07 23:00,ZBYN 072300Z 00000MPS 0800 R31/0650N FG NSC 15/14 Q1014 NOSIG
ZBYN,2003-09-08 00:00,ZBYN 080000Z 14001MPS 0900 R31/0900N FG NSC 15/13 Q1014 NOSIG
ZBYN,2003-09-08 01:00,ZBYN 080100Z VRB01MPS 1400 R31/0900N BR NSC 15/13 Q1014 NOSIG
ZBYN,2003-09-08 02:00,ZBYN 080200Z 16001MPS 1600 R31/1100N BR SCT016 17/14 Q1014 NOSIG
ZBYN,2003-09-08 03:00,ZBYN 080300Z 15001MPS 4000 BR SKC 20/14 Q1013 NOSIG
ZBYN,2003-09-08 04:00,ZBYN 080400Z 18002MPS 6000 NSC 22/13 Q1012 NOSIG
ZBYN,2003-09-08 05:00,ZBYN 080500Z 20002MPS 9999 FEW040CB SCT100 23/13 Q1011 NOSIG
ZBYN,2003-09-08 06:00,ZBYN 080600Z VRB01MPS 9999 -TSRA SCT040CB FEW040 23/13 Q1011 RERA NOSIG
ZBYN,2003-09-08 07:00,ZBYN 080700Z 20002MPS CAVOK 25/13 Q1009 NOSIG
ZBYN,2003-09-08 08:00,ZBYN 080800Z VRB01MPS CAVOK 25/14 Q1009 NOSIG
ZBYN,2003-09-08 09:00,ZBYN 080900Z 31001MPS 8000 FEW040CB 24/16 Q1009 NOSIG
ZBYN,2003-09-08 10:00,ZBYN 081000Z 34005MPS 9999 FEW040CB 25/05 Q1009 NOSIG
ZBYN,2003-09-08 11:00,ZBYN 081100Z 29002MPS CAVOK 20/09 Q1010 NOSIG
ZBYN,2003-09-08 12:00,ZBYN 081200Z 31003MPS CAVOK 19/05 Q1012 NOSIG
ZBYN,2003-09-08 13:00,ZBYN 081300Z 29003MPS CAVOK 17/06 Q1013 NOSIG
ZBYN,2003-09-08 14:00,ZBYN 081400Z 31002MPS CAVOK 16/06 Q1014 NOSIG
ZBYN,2003-09-08 15:00,ZBYN 081500Z 29002MPS CAVOK 16/04 Q1014 NOSIG
ZBYN,2003-09-08 16:00,ZBYN 081600Z 25001MPS CAVOK 15/04 Q1015 NOSIG
ZBYN,2003-09-08 17:00,ZBYN 081700Z 32003MPS CAVOK 11/05 Q1015 NOSIG
ZBYN,2003-09-08 18:00,ZBYN 081800Z VRB01MPS CAVOK 13/04 Q1015
ZBYN,2003-09-08 19:00,ZBYN 081900Z VRB01MPS CAVOK 09/05 Q1015
ZBYN,2003-09-08 20:00,ZBYN 082000Z 04001MPS CAVOK 09/05 Q1015
ZBYN,2003-09-08 21:00,ZBYN 082100Z 12001MPS CAVOK 08/05 Q1015
ZBYN,2003-09-08 22:00,ZBYN 082200Z 12001MPS CAVOK 07/05 Q1015 NOSIG
ZBYN,2003-09-08 23:00,ZBYN 082300Z VRB01MPS CAVOK 09/06 Q1016 NOSIG
ZBYN,2003-09-09 00:00,ZBYN 090000Z 01003MPS CAVOK 14/05 Q1016 NOSIG
ZBYN,2003-09-09 01:00,ZBYN 090100Z 34004MPS CAVOK 16/03 Q1016 NOSIG
ZBYN,2003-09-09 02:00,ZBYN 090200Z 34005MPS CAVOK 17/01 Q1017 NOSIG
ZBYN,2003-09-09 03:00,ZBYN 090300Z 01002MPS CAVOK 17/01 Q1016 NOSIG
ZBYN,2003-09-09 04:00,ZBYN 090400Z 31002MPS CAVOK 19/01 Q1016 NOSIG
ZBYN,2003-09-09 05:00,ZBYN 090500Z 34002MPS CAVOK 20/02 Q1015 NOSIG
ZBYN,2003-09-09 06:00,ZBYN 090600Z 24002MPS CAVOK 21/01 Q1015 NOSIG
ZBYN,2003-09-09 07:00,ZBYN 090700Z 17002MPS CAVOK 22/03 Q1014 NOSIG
ZBYN,2003-09-09 08:00,ZBYN 090800Z 27001MPS CAVOK 22/03 Q1013 NOSIG
ZBYN,2003-09-09 09:00,ZBYN 090900Z 00000MPS CAVOK 22/03 Q1013 NOSIG
ZBYN,2003-09-09 10:00,ZBYN 091000Z 16002MPS CAVOK 20/05 Q1013 NOSIG
ZBYN,2003-09-09 11:00,ZBYN 091100Z 19001MPS CAVOK 19/05 Q1014 NOSIG
ZBYN,2003-09-09 12:00,ZBYN 091200Z 32002MPS CAVOK 15/08 Q1015 NOSIG
ZBYN,2003-09-09 13:00,ZBYN 091300Z 00000MPS CAVOK 14/09 Q1016 NOSIG
ZBYN,2003-09-09 14:00,ZBYN 091400Z 00000MPS CAVOK 13/09 Q1016 NOSIG
ZBYN,2003-09-09 15:00,ZBYN 091500Z 12001MPS CAVOK 11/08 Q1016 NOSIG
ZBYN,2003-09-09 16:00,ZBYN 091600Z 13001MPS CAVOK 10/07 Q1016 NOSIG
ZBYN,2003-09-09 17:00,ZBYN 091700Z 13002MPS CAVOK 09/07 Q1016 NOSIG
ZBYN,2003-09-09 18:00,ZBYN 091800Z 00000MPS CAVOK 10/07 Q1016
ZBYN,2003-09-09 19:00,ZBYN 091900Z 00000MPS CAVOK 09/06 Q1016
ZBYN,2003-09-09 20:00,ZBYN 092000Z 00000MPS CAVOK 07/06 Q1016
ZBYN,2003-09-09 21:00,ZBYN 092100Z 08001MPS CAVOK 06/05 Q1016
ZBYN,2003-09-09 22:00,ZBYN 092200Z 00000MPS CAVOK 07/05 Q1016 NOSIG
ZBYN,2003-09-09 23:00,ZBYN 092300Z 11001MPS 7000 SKC 07/06 Q1016 NOSIG
ZBYN,2003-09-10 00:00,ZBYN 100000Z 09001MPS 8000 SKC 11/08 Q1017 NOSIG
ZBYN,2003-09-10 01:00,ZBYN 100100Z 00000MPS CAVOK 14/08 Q1017 NOSIG
ZBYN,2003-09-10 02:00,ZBYN 100200Z VRB01MPS CAVOK 16/07 Q1017 NOSIG
ZBYN,2003-09-10 03:00,ZBYN 100300Z 20001MPS CAVOK 18/07 Q1016 NOSIG
ZBYN,2003-09-10 04:00,ZBYN 100400Z 24002MPS CAVOK 20/04 Q1016 NOSIG
ZBYN,2003-09-10 05:00,ZBYN 100500Z 28002MPS CAVOK 22/02 Q1015 NOSIG
ZBYN,2003-09-10 06:00,ZBYN 100600Z VRB01MPS CAVOK 23/01 Q1014 NOSIG
ZBYN,2003-09-10 07:00,ZBYN 100700Z VRB01MPS CAVOK 24/03 Q1014 NOSIG
ZBYN,2003-09-10 08:00,ZBYN 100800Z 23002MPS CAVOK 24/05 Q1013 NOSIG
ZBYN,2003-09-10 09:00,ZBYN 100900Z 16002MPS CAVOK 23/05 Q1013 NOSIG
ZBYN,2003-09-10 10:00,ZBYN 101000Z 18001MPS CAVOK 22/07 Q1013 NOSIG
ZBYN,2003-09-10 11:00,ZBYN 101100Z 00000MPS CAVOK 18/11 Q1013 NOSIG
ZBYN,2003-09-10 12:00,ZBYN 101200Z 09002MPS CAVOK 13/10 Q1013 NOSIG
ZBYN,2003-09-10 13:00,ZBYN 101300Z 11001MPS CAVOK 13/09 Q1014 NOSIG
ZBYN,2003-09-10 14:00,ZBYN 101400Z 12002MPS CAVOK 12/09 Q1014 NOSIG
ZBYN,2003-09-10 15:00,ZBYN 101500Z 12001MPS CAVOK 11/08 Q1014 NOSIG
ZBYN,2003-09-10 16:00,ZBYN 101600Z 06001MPS CAVOK 11/09 Q1014 NOSIG
ZBYN,2003-09-10 17:00,ZBYN 101700Z 15001MPS CAVOK 08/07 Q1015
ZBYN,2003-09-10 18:00,ZBYN 101800Z 12002MPS CAVOK 09/07 Q1014
ZBYN,2003-09-10 19:00,ZBYN 101900Z 00000MPS CAVOK 10/07 Q1014
ZBYN,2003-09-10 20:00,ZBYN 102000Z 13002MPS CAVOK 08/06 Q1015
ZBYN,2003-09-10 21:00,ZBYN 102100Z 14001MPS CAVOK 07/05 Q1015
ZBYN,2003-09-10 22:00,ZBYN 102200Z 00000MPS CAVOK 08/06 Q1015 NOSIG
ZBYN,2003-09-10 23:00,ZBYN 102300Z 00000MPS 7000 SKC 08/07 Q1016 NOSIG
ZBYN,2003-09-11 00:00,ZBYN 110000Z 13001MPS 6000 SKC 11/09 Q1016 NOSIG
ZBYN,2003-09-11 01:00,ZBYN 110100Z 00000MPS 6000 NSC 14/09 Q1016 NOSIG
ZBYN,2003-09-11 02:00,ZBYN 110200Z VRB01MPS 7000 NSC 18/07 Q1016 NOSIG
ZBYN,2003-09-11 03:00,ZBYN 110300Z VRB01MPS 7000 NSC 20/06 Q1015 NOSIG
ZBYN,2003-09-11 04:00,ZBYN 110400Z VRB01MPS CAVOK 23/05 Q1014 NOSIG
ZBYN,2003-09-11 05:00,ZBYN 110500Z VRB01MPS CAVOK 24/04 Q1014 NOSIG
ZBYN,2003-09-11 06:00,ZBYN 110600Z 14002MPS CAVOK 26/02 Q1013 NOSIG
ZBYN,2003-09-11 07:00,ZBYN 110700Z VRB01MPS CAVOK 26/01 Q1012 NOSIG
ZBYN,2003-09-11 08:00,ZBYN 110800Z VRB01MPS CAVOK 27/03 Q1011 NOSIG
ZBYN,2003-09-11 09:00,ZBYN 110900Z VRB01MPS CAVOK 26/03 Q1011 NOSIG
ZBYN,2003-09-11 10:00,ZBYN 111000Z 28001MPS CAVOK 25/06 Q1011 NOSIG
ZBYN,2003-09-11 11:00,ZBYN 111100Z 12001MPS CAVOK 18/11 Q1011 NOSIG
ZBYN,2003-09-11 12:00,ZBYN 111200Z 07003MPS CAVOK 21/07 Q1012 NOSIG
ZBYN,2003-09-11 13:00,ZBYN 111300Z 07004MPS CAVOK 20/08 Q1013 NOSIG
ZBYN,2003-09-11 14:00,ZBYN 111400Z 07004MPS CAVOK 19/08 Q1013 NOSIG
ZBYN,2003-09-11 15:00,ZBYN 111500Z 08003MPS CAVOK 18/08 Q1013 NOSIG
ZBYN,2003-09-11 16:00,ZBYN 111600Z 10001MPS CAVOK 15/08 Q1013 NOSIG
ZBYN,2003-09-11 17:00,ZBYN 111700Z 00000MPS CAVOK 13/09 Q1013
ZBYN,2003-09-11 18:00,ZBYN 111800Z 11001MPS CAVOK 12/09 Q1013
ZBYN,2003-09-11 19:00,ZBYN 111900Z 13002MPS CAVOK 12/09 Q1013
ZBYN,2003-09-11 20:00,ZBYN 112000Z 13001MPS CAVOK 12/09 Q1013
ZBYN,2003-09-11 21:00,ZBYN 112100Z 00000MPS CAVOK 12/09 Q1013
ZBYN,2003-09-11 22:00,ZBYN 112200Z 00000MPS CAVOK 11/09 Q1013 NOSIG
ZBYN,2003-09-11 23:00,ZBYN 112300Z 00000MPS 6000 NSC 10/08 Q1013 NOSIG
ZBYN,2003-09-12 00:00,ZBYN 120000Z 00000MPS 5000 BR NSC 13/11 Q1014 NOSIG
ZBYN,2003-09-12 01:00,ZBYN 120100Z 34001MPS 6000 NSC 16/10 Q1014 NOSIG
ZBYN,2003-09-12 02:00,ZBYN 120200Z VRB01MPS 7000 NSC 18/10 Q1014 NOSIG
ZBYN,2003-09-12 03:00,ZBYN 120300Z VRB01MPS 8000 NSC 21/10 Q1013 NOSIG
ZBYN,2003-09-12 04:00,ZBYN 120400Z VRB01MPS CAVOK 23/10 Q1012 NOSIG
ZBYN,2003-09-12 05:00,ZBYN 120500Z 20002MPS CAVOK 24/10 Q1012 NOSIG
ZBYN,2003-09-12 06:00,ZBYN 120600Z 20002MPS CAVOK 25/10 Q1011 NOSIG
ZBYN,2003-09-12 07:00,ZBYN 120700Z 24003MPS CAVOK 26/08 Q1010 NOSIG
ZBYN,2003-09-12 08:00,ZBYN 120800Z 24003MPS CAVOK 26/09 Q1009 NOSIG
ZBYN,2003-09-12 09:00,ZBYN 120900Z 23002MPS CAVOK 25/09 Q1009 NOSIG
ZBYN,2003-09-12 10:00,ZBYN 121000Z 19001MPS CAVOK 24/11 Q1009 NOSIG
ZBYN,2003-09-12 11:00,ZBYN 121100Z 15001MPS CAVOK 18/13 Q1009 NOSIG
ZBYN,2003-09-12 12:00,ZBYN 121200Z 09001MPS CAVOK 18/13 Q1010 NOSIG
ZBYN,2003-09-12 13:00,ZBYN 121300Z 13003MPS CAVOK 16/12 Q1010 NOSIG
ZBYN,2003-09-12 14:00,ZBYN 121400Z 13003MPS CAVOK 15/12 Q1010 NOSIG
ZBYN,2003-09-12 15:00,ZBYN 121500Z 13003MPS CAVOK 15/11 Q1010 NOSIG
ZBYN,2003-09-12 16:00,ZBYN 121600Z 11002MPS CAVOK 14/11 Q1011 NOSIG
ZBYN,2003-09-12 17:00,ZBYN 121700Z 11001MPS CAVOK 13/11 Q1010
ZBYN,2003-09-12 18:00,ZBYN 121800Z AUTO 00000KT 3SM 14/13 A2984 RMK SLP084 T01410131 54000 IEM_DS3505
ZBYN,2003-09-12 21:00,ZBYN 122100Z 12001MPS 6000 SKC 12/10 Q1011
ZBYN,2003-09-12 22:00,ZBYN 122200Z 13002MPS 5000 BR SKC 11/10 Q1011 NOSIG
ZBYN,2003-09-12 23:00,ZBYN 122300Z 12002MPS 2000 R31/1200N BR SKC 12/11 Q1012 NOSIG
ZBYN,2003-09-13 00:00,ZBYN 130000Z 00000MPS 1800 R31/1300N BR SKC 15/13 Q1012 NOSIG
ZBYN,2003-09-13 01:00,ZBYN 130100Z 14001MPS 2000 BR SKC 18/13 Q1012 NOSIG
ZBYN,2003-09-13 02:00,ZBYN 130200Z 16001MPS 4000 FU SKC 20/13 Q1012 NOSIG
ZBYN,2003-09-13 03:00,ZBYN 130300Z VRB01MPS 4000 FU SKC 23/13 Q1012 NOSIG
ZBYN,2003-09-13 04:00,ZBYN 130400Z VRB01MPS 6000 SKC 25/13 Q1011 NOSIG
ZBYN,2003-09-13 05:00,ZBYN 130500Z VRB01MPS 7000 SKC 27/14 Q1011 NOSIG
ZBYN,2003-09-13 06:00,ZBYN 130600Z 18001MPS 7000 SKC 28/13 Q1010 NOSIG
ZBYN,2003-09-13 07:00,ZBYN 130700Z 20002MPS 9000 SKC 29/13 Q1009 NOSIG
ZBYN,2003-09-13 08:00,ZBYN 130800Z 20001MPS CAVOK 29/13 Q1009 NOSIG
ZBYN,2003-09-13 09:00,ZBYN 130900Z VRB01MPS CAVOK 29/13 Q1009 NOSIG
ZBYN,2003-09-13 10:00,ZBYN 131000Z 13001MPS CAVOK 26/17 Q1009 NOSIG
ZBYN,2003-09-13 11:00,ZBYN 131100Z 09001MPS CAVOK 23/17 Q1010 NOSIG
ZBYN,2003-09-13 12:00,ZBYN 131200Z 12002MPS 8000 NSC 20/16 Q1011 NOSIG
ZBYN,2003-09-13 13:00,ZBYN 131300Z 14003MPS CAVOK 21/15 Q1012 NOSIG
ZBYN,2003-09-13 14:00,ZBYN 131400Z 14003MPS CAVOK 22/15 Q1012 NOSIG
ZBYN,2003-09-13 15:00,ZBYN 131500Z 12003MPS CAVOK 20/15 Q1013 NOSIG
ZBYN,2003-09-13 16:00,ZBYN 131600Z 10003MPS CAVOK 21/15 Q1013 NOSIG
ZBYN,2003-09-13 17:00,ZBYN 131700Z 09004MPS CAVOK 21/14 Q1013
ZBYN,2003-09-13 18:00,ZBYN 131800Z 04001MPS CAVOK 21/15 Q1014
ZBYN,2003-09-13 19:00,ZBYN 131900Z 33001MPS 6000 NSC 20/15 Q1014
ZBYN,2003-09-13 20:00,ZBYN 132000Z VRB01MPS 5000 BR NSC 18/15 Q1014
ZBYN,2003-09-13 21:00,ZBYN 132100Z 06004MPS CAVOK 20/14 Q1015
ZBYN,2003-09-13 22:00,ZBYN 132200Z 07005MPS 8000 NSC 20/14 Q1015 NOSIG
ZBYN,2003-09-13 23:00,ZBYN 132300Z 07004MPS 2500 FU NSC 20/15 Q1016 NOSIG
ZBYN,2003-09-14 00:00,ZBYN 140000Z 07004MPS 2500 FU SKC 21/15 Q1017 NOSIG
ZBYN,2003-09-14 01:00,ZBYN 140100Z 06005MPS 2500 FU SKC 22/15 Q1017 NOSIG
ZBYN,2003-09-14 02:00,ZBYN 140200Z 08006MPS 2500 SA SKC 23/15 Q1017 NOSIG
ZBYN,2003-09-14 03:00,ZBYN 140300Z 08005MPS 2500 SA SKC 24/15 Q1017 NOSIG
ZBYN,2003-09-14 04:00,ZBYN 140400Z 07005MPS 3000 SA SKC 25/15 Q1017 NOSIG
ZBYN,2003-09-14 05:00,ZBYN 140500Z 08004MPS 5000 SA SKC 26/14 Q1016 NOSIG
ZBYN,2003-09-14 06:00,ZBYN 140600Z 09005MPS 5000 SA SKC 27/15 Q1015 NOSIG
ZBYN,2003-09-14 07:00,ZBYN 140700Z 08004MPS 5000 SA SKC 27/14 Q1014 NOSIG
ZBYN,2003-09-14 08:00,ZBYN 140800Z 08004MPS 6000 SKC 27/14 Q1014 NOSIG
ZBYN,2003-09-14 09:00,ZBYN 140900Z 09005MPS 5000 FU SKC 26/15 Q1014 NOSIG
ZBYN,2003-09-14 10:00,ZBYN 141000Z 09005MPS 2500 FU SKC 24/16 Q1014 NOSIG
ZBYN,2003-09-14 11:00,ZBYN 141100Z 09006MPS 2500 SA SKC 21/16 Q1014 NOSIG
ZBYN,2003-09-14 12:00,ZBYN 141200Z 09006MPS 3000 SA SKC 20/15 Q1015 NOSIG
ZBYN,2003-09-14 13:00,ZBYN 141300Z 09006MPS 3000 SA SKC 20/16 Q1015 NOSIG
ZBYN,2003-09-14 14:00,ZBYN 141400Z 09005MPS 3000 SA SKC 20/15 Q1016 NOSIG
ZBYN,2003-09-14 15:00,ZBYN 141500Z 09004MPS 3000 SA SKC 19/15 Q1016 NOSIG
ZBYN,2003-09-14 16:00,ZBYN 141600Z 10003MPS 3000 BR SKC 19/15 Q1016 NOSIG
ZBYN,2003-09-14 17:00,ZBYN 141700Z 10003MPS 3000 BR SKC 18/15 Q1016
ZBYN,2003-09-14 18:00,ZBYN 141800Z 09003MPS 2000 BR SKC 18/15 Q1016
ZBYN,2003-09-14 19:00,ZBYN 141900Z 12002MPS 2500 R31/1200N BR SKC 17/15 Q1016
ZBYN,2003-09-14 20:00,ZBYN 142000Z 09001MPS 2500 R31/1400N BR SKC 16/14 Q1016
ZBYN,2003-09-14 21:00,ZBYN 142100Z 10001MPS 2500 R31/1000N BR SKC 15/14 Q1016
ZBYN,2003-09-14 22:00,ZBYN 142200Z 11001MPS 2000 R31/1100N BR NSC 15/14 Q1015 NOSIG
ZBYN,2003-09-14 23:00,ZBYN 142300Z 13002MPS 1500 R31/1000N BR NSC 15/14 Q1016 NOSIG
ZBYN,2003-09-15 00:00,ZBYN 150000Z 11001MPS 1400 R31/1200N BR SKC 18/15 Q1016 NOSIG
ZBYN,2003-09-15 01:00,ZBYN 150100Z 16002MPS 3000 BR SKC 20/14 Q1016 NOSIG
ZBYN,2003-09-15 02:00,ZBYN 150200Z 18002MPS 4000 FU SKC 22/13 Q1016 NOSIG
ZBYN,2003-09-15 03:00,ZBYN 150300Z 20002MPS 6000 FEW040 23/13 Q1015 NOSIG
ZBYN,2003-09-15 04:00,ZBYN 150400Z 18002MPS CAVOK 24/12 Q1014 NOSIG
ZBYN,2003-09-15 05:00,ZBYN 150500Z 23003MPS 200V260 CAVOK 25/11 Q1013 NOSIG
ZBYN,2003-09-15 06:00,ZBYN 150600Z 23003MPS 170V270 CAVOK 26/11 Q1013 NOSIG
ZBYN,2003-09-15 07:00,ZBYN 150700Z 22003MPS CAVOK 26/11 Q1012 NOSIG
ZBYN,2003-09-15 08:00,ZBYN 150800Z 19002MPS CAVOK 27/11 Q1011 NOSIG
ZBYN,2003-09-15 09:00,ZBYN 150900Z 18002MPS CAVOK 26/11 Q1011 NOSIG
ZBYN,2003-09-15 10:00,ZBYN 151000Z 17001MPS CAVOK 24/12 Q1011 NOSIG
ZBYN,2003-09-15 11:00,ZBYN 151100Z 15002MPS CAVOK 21/13 Q1011 NOSIG
ZBYN,2003-09-15 12:00,ZBYN 151200Z 12002MPS CAVOK 20/14 Q1011 NOSIG
ZBYN,2003-09-15 13:00,ZBYN 151300Z 09001MPS 8000 SKC 18/14 Q1012 NOSIG
ZBYN,2003-09-15 14:00,ZBYN 151400Z 12002MPS 8000 SKC 17/14 Q1012 NOSIG
ZBYN,2003-09-15 15:00,ZBYN 151500Z 11001MPS 8000 SKC 17/14 Q1012 NOSIG
ZBYN,2003-09-15 16:00,ZBYN 151600Z 09001MPS 8000 SKC 16/14 Q1013 NOSIG
ZBYN,2003-09-15 17:00,ZBYN 151700Z 12002MPS 8000 SKC 16/14 Q1013
ZBYN,2003-09-15 18:00,ZBYN 151800Z 12002MPS 6000 SKC 14/13 Q1013
ZBYN,2003-09-15 19:00,ZBYN 151900Z 11001MPS 6000 SKC 15/13 Q1013
ZBYN,2003-09-15 20:00,ZBYN 152000Z 13001MPS 6000 SKC 15/13 Q1013
ZBYN,2003-09-15 21:00,ZBYN 152100Z 12002MPS 2500 R31/1300N BR NSC 14/12 Q1013
ZBYN,2003-09-15 22:00,ZBYN 152200Z 33001MPS 2500 BR NSC 14/13 Q1013 NOSIG
ZBYN,2003-09-15 23:00,ZBYN 152300Z 00000MPS 4000 BR FEW026 BKN100 16/14 Q1014 NOSIG
ZBYN,2003-09-16 00:00,ZBYN 160000Z 13001MPS 3500 BR NSC 18/16 Q1014 NOSIG
ZBYN,2003-09-16 01:00,ZBYN 160100Z 00000MPS 3000 BR NSC 19/14 Q1014 NOSIG
ZBYN,2003-09-16 02:00,ZBYN 160200Z 25001MPS 4000 BR NSC 22/14 Q1014 NOSIG
ZBYN,2003-09-16 03:00,ZBYN 160300Z VRB01MPS 5000 BR SKC 23/14 Q1013 NOSIG
ZBYN,2003-09-16 04:00,ZBYN 160400Z 17001MPS 6000 SKC 25/14 Q1013 NOSIG
ZBYN,2003-09-16 05:00,ZBYN 160500Z VRB01MPS 7000 NSC 26/13 Q1012 NOSIG
ZBYN,2003-09-16 06:00,ZBYN 160600Z 14002MPS 7000 NSC 27/12 Q1011 NOSIG
ZBYN,2003-09-16 07:00,ZBYN 160700Z VRB01MPS CAVOK 27/10 Q1010 NOSIG
ZBYN,2003-09-16 08:00,ZBYN 160800Z 22001MPS CAVOK 28/09 Q1010 NOSIG
ZBYN,2003-09-16 09:00,ZBYN 160900Z 00000MPS CAVOK 27/10 Q1010 NOSIG
ZBYN,2003-09-16 10:00,ZBYN 161000Z 19001MPS CAVOK 26/12 Q1010 NOSIG
ZBYN,2003-09-16 11:00,ZBYN 161100Z 16001MPS CAVOK 22/14 Q1011 NOSIG
ZBYN,2003-09-16 12:00,ZBYN 161200Z 08005MPS 3000 FU NSC 23/16 Q1012 NOSIG
ZBYN,2003-09-16 13:00,ZBYN 161300Z 08005MPS 4000 FU NSC 21/15 Q1012 NOSIG
ZBYN,2003-09-16 14:00,ZBYN 161400Z 09005MPS 3000 FU NSC 21/15 Q1013 NOSIG
ZBYN,2003-09-16 15:00,ZBYN 161500Z 08004MPS 2500 FU NSC 21/16 Q1013 NOSIG
ZBYN,2003-09-16 16:00,ZBYN 161600Z 08003MPS 2500 FU NSC 21/16 Q1013 NOSIG
ZBYN,2003-09-16 17:00,ZBYN 161700Z 05001MPS 3000 FU NSC 20/16 Q1013
ZBYN,2003-09-16 18:00,ZBYN 161800Z VRB01MPS 2500 BR NSC 18/16 Q1012
ZBYN,2003-09-16 19:00,ZBYN 161900Z 05001MPS 2500 BR NSC 19/16 Q1012
ZBYN,2003-09-16 20:00,ZBYN 162000Z 05002MPS 3000 R31/1000N BR NSC 20/16 Q1012
ZBYN,2003-09-16 21:00,ZBYN 162100Z 08002MPS 3000 R31/1100N BR NSC 20/16 Q1012
ZBYN,2003-09-16 22:00,ZBYN 162200Z 11001MPS 3000 BR NSC 19/16 Q1012 NOSIG
ZBYN,2003-09-16 23:00,ZBYN 162300Z 00000MPS 1400 R31/1000N BR NSC 19/16 Q1012 NOSIG
ZBYN,2003-09-17 00:00,ZBYN 170000Z 09001MPS 1700 R31/1300N BR NSC 20/16 Q1012 NOSIG
ZBYN,2003-09-17 01:00,ZBYN 170100Z 10002MPS 2000 -RA BR NSC 22/16 Q1012 NOSIG
ZBYN,2003-09-17 02:00,ZBYN 170200Z 10001MPS 1400 R31/P1500 -RA BR NSC 22/16 Q1013 NOSIG
ZBYN,2003-09-17 03:00,ZBYN 170300Z 05002MPS 1400 R31/P1500 BR NSC 22/17 Q1013 NOSIG
ZBYN,2003-09-17 04:00,ZBYN 170400Z 36002MPS 1400 R31/1000D BR NSC 22/17 Q1012 NOSIG
ZBYN,2003-09-17 05:00,ZBYN 170500Z 34005MPS 3000 -RA BR NSC 21/17 Q1012 NOSIG
ZBYN,2003-09-17 06:00,ZBYN 170600Z 33004MPS 9999 -SHRA FEW040TCU BKN040 18/16 Q1012 NOSIG
ZBYN,2003-09-17 07:00,ZBYN 170700Z 34006MPS 7000 SHRA FEW040TCU BKN040 17/15 Q1013 NOSIG
ZBYN,2003-09-17 08:00,ZBYN 170800Z 34002MPS 7000 -RA OVC030 17/15 Q1013 NOSIG
ZBYN,2003-09-17 09:00,ZBYN 170900Z 32001MPS 7000 -RA BKN040 OVC100 17/15 Q1013 NOSIG
ZBYN,2003-09-17 10:00,ZBYN 171000Z 27001MPS 7000 NSC 17/16 Q1013 NOSIG
ZBYN,2003-09-17 11:00,ZBYN 171100Z 35002MPS 4000 BR NSC 18/15 Q1013 NOSIG
ZBYN,2003-09-17 12:00,ZBYN 171200Z 01001MPS 9000 NSC 18/16 Q1014 NOSIG
ZBYN,2003-09-17 13:00,ZBYN 171300Z VRB01MPS CAVOK 18/15 Q1015 NOSIG
ZBYN,2003-09-17 14:00,ZBYN 171400Z 35001MPS CAVOK 18/15 Q1015 NOSIG
ZBYN,2003-09-17 15:00,ZBYN 171500Z 01001MPS CAVOK 18/15 Q1016 NOSIG
ZBYN,2003-09-17 16:00,ZBYN 171600Z 10001MPS CAVOK 18/15 Q1016 NOSIG
ZBYN,2003-09-17 17:00,ZBYN 171700Z 10002MPS CAVOK 16/14 Q1015
ZBYN,2003-09-17 18:00,ZBYN 171800Z 11003MPS CAVOK 15/14 Q1015
ZBYN,2003-09-17 19:00,ZBYN 171900Z 10002MPS CAVOK 16/14 Q1015
ZBYN,2003-09-17 20:00,ZBYN 172000Z 10001MPS CAVOK 16/14 Q1016
ZBYN,2003-09-17 21:00,ZBYN 172100Z 01001MPS CAVOK 17/14 Q1016
ZBYN,2003-09-17 22:00,ZBYN 172200Z 15001MPS CAVOK 16/14 Q1016 NOSIG
ZBYN,2003-09-17 23:00,ZBYN 172300Z 00000MPS CAVOK 16/14 Q1017 NOSIG
ZBYN,2003-09-18 00:00,ZBYN 180000Z 00000MPS 7000 NSC 17/14 Q1017 NOSIG
ZBYN,2003-09-18 01:00,ZBYN 180100Z 29001MPS 7000 BKN033 OVC100 17/14 Q1017 NOSIG
ZBYN,2003-09-18 02:00,ZBYN 180200Z VRB01MPS 6000 NSC 18/14 Q1017 NOSIG
ZBYN,2003-09-18 03:00,ZBYN 180300Z VRB01MPS 9999 FEW033 SCT200 20/14 Q1017 NOSIG
ZBYN,2003-09-18 04:00,ZBYN 180400Z VRB01MPS 8000 FEW033 BKN060 21/14 Q1017 NOSIG
ZBYN,2003-09-18 05:00,ZBYN 180500Z 08001MPS 9999 OVC040 21/14 Q1016 NOSIG
ZBYN,2003-09-18 06:00,ZBYN 180600Z VRB01MPS CAVOK 22/14 Q1016 NOSIG
ZBYN,2003-09-18 07:00,ZBYN 180700Z 12001MPS CAVOK 22/14 Q1015 NOSIG
ZBYN,2003-09-18 08:00,ZBYN 180800Z 25001MPS 8000 NSC 22/14 Q1015 NOSIG
ZBYN,2003-09-18 09:00,ZBYN 180900Z 22001MPS 8000 NSC 21/15 Q1015 NOSIG
ZBYN,2003-09-18 10:00,ZBYN 181000Z 00000MPS 6000 NSC 20/15 Q1015 NOSIG
ZBYN,2003-09-18 11:00,ZBYN 181100Z 16001MPS 5000 BR NSC 18/16 Q1015 NOSIG
ZBYN,2003-09-18 12:00,ZBYN 181200Z 00000MPS 6000 SCT040 OVC100 18/16 Q1016 NOSIG
ZBYN,2003-09-18 13:00,ZBYN 181300Z 08003MPS 8000 SCT040 OVC100 19/15 Q1017 NOSIG
ZBYN,2003-09-18 14:00,ZBYN 181400Z 08005MPS 8000 NSC 19/15 Q1018 NOSIG
ZBYN,2003-09-18 15:00,ZBYN 181500Z 10005MPS CAVOK 18/14 Q1018 NOSIG
ZBYN,2003-09-18 16:00,ZBYN 181600Z 10005MPS 6000 -TSRA FEW040CB BKN060 17/14 Q1019 NOSIG
ZBYN,2003-09-18 17:00,ZBYN 181700Z 03003MPS 6000 TSRA FEW040CB BKN050 16/15 Q1019
ZBYN,2003-09-18 18:00,ZBYN 181800Z 07002MPS 8000 RA SCT020 OVC050 16/14 Q1019
ZBYN,2003-09-18 19:00,ZBYN 181900Z 08003MPS 9999 -RA SCT016 OVC050 16/14 Q1019
ZBYN,2003-09-18 20:00,ZBYN 182000Z 06003MPS 9999 -RA NSC 16/14 Q1019
ZBYN,2003-09-18 21:00,ZBYN 182100Z 08005MPS 9999 -RA NSC 16/14 Q1019
ZBYN,2003-09-18 22:00,ZBYN 182200Z 07005MPS 9999 -RA NSC 15/13 Q1020 NOSIG
ZBYN,2003-09-18 23:00,ZBYN 182300Z 09006MPS 9999 -RA NSC 14/12 Q1021 NOSIG
ZBYN,2003-09-19 00:00,ZBYN 190000Z 09007MPS 9999 -RA OVC040 13/11 Q1021 NOSIG
ZBYN,2003-09-19 01:00,ZBYN 190100Z 08006MPS 9999 -RA BKN023 OVC040 12/10 Q1022 NOSIG
ZBYN,2003-09-19 02:00,ZBYN 190200Z 09004MPS 9999 -RA BKN023 OVC040 12/10 Q1023 NOSIG
ZBYN,2003-09-19 03:00,ZBYN 190300Z 08004MPS 9999 -RA BKN030 OVC060 13/10 Q1023 NOSIG
ZBYN,2003-09-19 04:00,ZBYN 190400Z 06004MPS 9999 -RA BKN030 OVC100 14/11 Q1022 NOSIG
ZBYN,2003-09-19 05:00,ZBYN 190500Z 06004MPS 9999 -RA SCT030 OVC100 14/11 Q1022 NOSIG
ZBYN,2003-09-19 06:00,ZBYN 190600Z 06003MPS 9999 -RA SCT030 OVC100 15/10 Q1022 NOSIG
ZBYN,2003-09-19 07:00,ZBYN 190700Z 05003MPS 9999 -RA SCT040 OVC100 15/11 Q1022 NOSIG
ZBYN,2003-09-19 08:00,ZBYN 190800Z 05003MPS CAVOK 15/10 Q1021 NOSIG
ZBYN,2003-09-19 09:00,ZBYN 190900Z 06003MPS CAVOK 15/10 Q1021 NOSIG
ZBYN,2003-09-19 10:00,ZBYN 191000Z 08002MPS CAVOK 15/10 Q1022 NOSIG
ZBYN,2003-09-19 11:00,ZBYN 191100Z 09002MPS CAVOK 14/11 Q1022 NOSIG
ZBYN,2003-09-19 12:00,ZBYN 191200Z 09001MPS CAVOK 14/10 Q1022 NOSIG
ZBYN,2003-09-19 13:00,ZBYN 191300Z 08002MPS CAVOK 14/10 Q1022 NOSIG
ZBYN,2003-09-19 14:00,ZBYN 191400Z 11002MPS CAVOK 14/11 Q1022 NOSIG
ZBYN,2003-09-19 15:00,ZBYN 191500Z 14001MPS CAVOK 13/11 Q1023 NOSIG
ZBYN,2003-09-19 16:00,ZBYN 191600Z 14002MPS CAVOK 13/11 Q1022 NOSIG
ZBYN,2003-09-19 17:00,ZBYN 191700Z 12002MPS CAVOK 13/11 Q1022
ZBYN,2003-09-19 18:00,ZBYN 191800Z 11001MPS CAVOK 13/11 Q1022
ZBYN,2003-09-19 19:00,ZBYN 191900Z 00000MPS 7000 NSC 13/11 Q1021
ZBYN,2003-09-19 20:00,ZBYN 192000Z 00000MPS 6000 NSC 13/11 Q1021
ZBYN,2003-09-19 21:00,ZBYN 192100Z 20001MPS 6000 NSC 12/11 Q1022
ZBYN,2003-09-19 22:00,ZBYN 192200Z 00000MPS 8000 NSC 12/11 Q1022 NOSIG
ZBYN,2003-09-19 23:00,ZBYN 192300Z 00000MPS 8000 NSC 12/11 Q1022 NOSIG
ZBYN,2003-09-20 00:00,ZBYN 200000Z 00000MPS 6000 NSC 13/11 Q1022 NOSIG
ZBYN,2003-09-20 01:00,ZBYN 200100Z 16001MPS 6000 NSC 14/11 Q1022 NOSIG
ZBYN,2003-09-20 02:00,ZBYN 200200Z VRB01MPS 6000 NSC 16/11 Q1022 NOSIG
ZBYN,2003-09-20 03:00,ZBYN 200300Z VRB01MPS 7000 NSC 18/11 Q1022 NOSIG
ZBYN,2003-09-20 04:00,ZBYN 200400Z VRB01MPS 8000 NSC 19/10 Q1021 NOSIG
ZBYN,2003-09-20 05:00,ZBYN 200500Z VRB01MPS CAVOK 20/09 Q1020 NOSIG
ZBYN,2003-09-20 06:00,ZBYN 200600Z 23001MPS CAVOK 22/08 Q1019 NOSIG
ZBYN,2003-09-20 07:00,ZBYN 200700Z 21003MPS CAVOK 20/10 Q1019 NOSIG
ZBYN,2003-09-20 08:00,ZBYN 200800Z 22003MPS CAVOK 21/10 Q1018 NOSIG
ZBYN,2003-09-20 09:00,ZBYN 200900Z 24002MPS CAVOK 20/11 Q1018 NOSIG
ZBYN,2003-09-20 10:00,ZBYN 201000Z 21001MPS CAVOK 19/11 Q1018 NOSIG
ZBYN,2003-09-20 11:00,ZBYN 201100Z 21001MPS CAVOK 17/10 Q1019 NOSIG
ZBYN,2003-09-20 12:00,ZBYN 201200Z 15001MPS CAVOK 15/11 Q1019 NOSIG
ZBYN,2003-09-20 13:00,ZBYN 201300Z 13002MPS CAVOK 13/10 Q1020 NOSIG
ZBYN,2003-09-20 14:00,ZBYN 201400Z 10001MPS CAVOK 13/11 Q1020 NOSIG
ZBYN,2003-09-20 15:00,ZBYN 201500Z 14001MPS CAVOK 12/11 Q1020 NOSIG
ZBYN,2003-09-20 16:00,ZBYN 201600Z 11002MPS CAVOK 12/10 Q1020 NOSIG
ZBYN,2003-09-20 17:00,ZBYN 201700Z 14002MPS 3000 BR SKC 11/10 Q1020
ZBYN,2003-09-20 18:00,ZBYN 201800Z VRB01MPS 1400 R31/1200N BR SKC 12/11 Q1020
ZBYN,2003-09-20 19:00,ZBYN 201900Z 14001MPS 1800 BR SKC 11/10 Q1020
ZBYN,2003-09-20 20:00,ZBYN 202000Z 11001MPS 1800 BR SKC 13/12 Q1019
ZBYN,2003-09-20 21:00,ZBYN 202100Z 12001MPS 1800 BR SKC 12/11 Q1019
ZBYN,2003-09-20 22:00,ZBYN 202200Z 00000MPS 1800 BR SKC 12/11 Q1019 NOSIG
ZBYN,2003-09-20 23:00,ZBYN 202300Z VRB01MPS 0800 R31/0700N FG BKN016 12/11 Q1020 NOSIG
ZBYN,2003-09-21 00:00,ZBYN 210000Z 00000MPS 1200 R31/1100N BR BKN020 13/11 Q1020 NOSIG
ZBYN,2003-09-21 01:00,ZBYN 210100Z 00000MPS 1700 R31/1300N BR NSC 14/12 Q1020 NOSIG
ZBYN,2003-09-21 02:00,ZBYN 210200Z 19001MPS 2000 BR NSC 16/11 Q1020 NOSIG
ZBYN,2003-09-21 03:00,ZBYN 210300Z VRB01MPS 4000 BR NSC 18/11 Q1019 NOSIG
ZBYN,2003-09-21 04:00,ZBYN 210400Z VRB01MPS 8000 NSC 20/08 Q1018 NOSIG
ZBYN,2003-09-21 05:00,ZBYN 210500Z VRB01MPS CAVOK 21/08 Q1017 NOSIG
ZBYN,2003-09-21 06:00,ZBYN 210600Z VRB01MPS CAVOK 22/07 Q1016 NOSIG
ZBYN,2003-09-21 07:00,ZBYN 210700Z 17001MPS CAVOK 23/09 Q1015 NOSIG
ZBYN,2003-09-21 08:00,ZBYN 210800Z 21001MPS CAVOK 23/08 Q1015 NOSIG
ZBYN,2003-09-21 09:00,ZBYN 210900Z 18001MPS 9999 FEW040 22/08 Q1015 NOSIG
ZBYN,2003-09-21 10:00,ZBYN 211000Z 00000MPS 9999 BKN040 21/09 Q1015 NOSIG
ZBYN,2003-09-21 11:00,ZBYN 211100Z 00000MPS 9999 SCT040 17/12 Q1015 NOSIG
ZBYN,2003-09-21 12:00,ZBYN 211200Z 12001MPS 9999 SCT040 15/12 Q1016 NOSIG
ZBYN,2003-09-21 13:00,ZBYN 211300Z 11004MPS CAVOK 16/11 Q1016 NOSIG
ZBYN,2003-09-21 14:00,ZBYN 211400Z 11003MPS CAVOK 16/11 Q1016 NOSIG
ZBYN,2003-09-21 15:00,ZBYN 211500Z 08002MPS CAVOK 16/12 Q1016 NOSIG
ZBYN,2003-09-21 16:00,ZBYN 211600Z 08002MPS 6000 NSC 15/12 Q1016 NOSIG
ZBYN,2003-09-21 17:00,ZBYN 211700Z 12002MPS 3000 BR NSC 13/11 Q1016
ZBYN,2003-09-21 18:00,ZBYN 211800Z 09002MPS 5000 BR NSC 13/12 Q1016
ZBYN,2003-09-21 19:00,ZBYN 211900Z 14001MPS 5000 BR NSC 12/11 Q1016
ZBYN,2003-09-21 20:00,ZBYN 212000Z 00000MPS 2000 R31/1100N BR NSC 12/11 Q1015 NOSIG
ZBYN,2003-09-21 21:00,ZBYN 212100Z 00000MPS 1700 R31/1000N BR NSC 12/11 Q1015
ZBYN,2003-09-21 22:00,ZBYN 212200Z 00000MPS 1400 R31/1000N BR NSC 12/11 Q1015 NOSIG
ZBYN,2003-09-21 23:00,ZBYN 212300Z 00000MPS 1000 R31/0700N BR NSC 11/10 Q1016 NOSIG
ZBYN,2003-09-22 00:00,ZBYN 220000Z 00000MPS 1000 R31/0700N BR NSC 13/12 Q1016 NOSIG
ZBYN,2003-09-22 01:00,ZBYN 220100Z VRB01MPS 2000 R31/1100N BR SCT016 OVC100 14/12 Q1017 NOSIG
ZBYN,2003-09-22 02:00,ZBYN 220200Z 12002MPS 1700 BR OVC016 15/13 Q1016 NOSIG
ZBYN,2003-09-22 03:00,ZBYN 220300Z 13002MPS 3000 BR BKN016 17/13 Q1016 NOSIG
ZBYN,2003-09-22 04:00,ZBYN 220400Z 22003MPS 6000 NSC 20/13 Q1015 NOSIG
ZBYN,2003-09-22 05:00,ZBYN 220500Z 18002MPS 6000 NSC 21/13 Q1014 NOSIG
ZBYN,2003-09-22 06:00,ZBYN 220600Z 19002MPS 7000 NSC 22/13 Q1013 NOSIG
ZBYN,2003-09-22 07:00,ZBYN 220700Z 19001MPS 9999 FEW040 BKN200 22/13 Q1012 NOSIG
ZBYN,2003-09-22 08:00,ZBYN 220800Z 11003MPS 9999 FEW040TCU SCT040 SCT200 21/12 Q1011 NOSIG
ZBYN,2003-09-22 09:00,ZBYN 220900Z 07002MPS 9999 FEW040TCU BKN040 21/11 Q1011 NOSIG
ZBYN,2003-09-22 10:00,ZBYN 221000Z 00000MPS 9999 FEW040 BKN100 20/12 Q1012 NOSIG
ZBYN,2003-09-22 11:00,ZBYN 221100Z 16002MPS 8000 -TS SCT040CB SCT040 19/12 Q1012 NOSIG
ZBYN,2003-09-22 12:00,ZBYN 221200Z 17002MPS 9999 FEW040CB SCT040 18/11 Q1012 NOSIG
ZBYN,2003-09-22 13:00,ZBYN 221300Z 13001MPS CAVOK 16/09 Q1014 NOSIG
ZBYN,2003-09-22 14:00,ZBYN 221400Z 15002MPS 9999 TSRA SCT040 BKN040CB 17/09 Q1014 NOSIG
ZBYN,2003-09-22 15:00,ZBYN 221500Z 19002MPS 9999 SCT040 FEW040CB SCT100 16/09 Q1013 NOSIG
ZBYN,2003-09-22 16:00,ZBYN 221600Z 12001MPS CAVOK 14/10 Q1013 NOSIG
ZBYN,2003-09-22 17:00,ZBYN 221700Z 14003MPS CAVOK 13/09 Q1014 NOSIG
ZBYN,2003-09-22 18:00,ZBYN 221800Z 12002MPS CAVOK 11/08 Q1013 NOSIG
ZBYN,2003-09-22 19:00,ZBYN 221900Z 12001MPS CAVOK 11/08 Q1013 NOSIG
ZBYN,2003-09-22 20:00,ZBYN 222000Z 08001MPS CAVOK 11/09 Q1014 NOSIG
ZBYN,2003-09-22 21:00,ZBYN 222100Z 12001MPS CAVOK 09/07 Q1014
ZBYN,2003-09-22 22:00,ZBYN 222200Z 12002MPS CAVOK 08/07 Q1014 NOSIG
ZBYN,2003-09-22 23:00,ZBYN 222300Z 12001MPS 7000 SKC 09/08 Q1014 NOSIG
ZBYN,2003-09-23 00:00,ZBYN 230000Z 12002MPS 8000 SKC 12/10 Q1015 NOSIG
ZBYN,2003-09-23 01:00,ZBYN 230100Z 00000MPS 9999 SKC 16/09 Q1015 NOSIG
ZBYN,2003-09-23 02:00,ZBYN 230200Z VRB01MPS CAVOK 18/08 Q1015 NOSIG
ZBYN,2003-09-23 03:00,ZBYN 230300Z 19002MPS 9999 FEW040 19/08 Q1014 NOSIG
ZBYN,2003-09-23 04:00,ZBYN 230400Z VRB01MPS CAVOK 22/08 Q1013 NOSIG
ZBYN,2003-09-23 05:00,ZBYN 230500Z 19002MPS CAVOK 23/07 Q1013 NOSIG
ZBYN,2003-09-23 06:00,ZBYN 230600Z 22002MPS 9999 FEW040CB 25/06 Q1012 NOSIG
ZBYN,2003-09-23 07:00,ZBYN 230700Z 20002MPS 9999 FEW040TCU FEW200 25/07 Q1011 NOSIG
ZBYN,2003-09-23 08:00,ZBYN 230800Z 22003MPS 9999 FEW040TCU 26/07 Q1011 NOSIG
ZBYN,2003-09-23 09:00,ZBYN 230900Z 24003MPS 9999 FEW040TCU SCT200 25/07 Q1011 NOSIG
ZBYN,2003-09-23 10:00,ZBYN 231000Z 20001MPS CAVOK 23/09 Q1012 NOSIG
ZBYN,2003-09-23 11:00,ZBYN 231100Z 15001MPS CAVOK 18/11 Q1012 NOSIG
ZBYN,2003-09-23 12:00,ZBYN 231200Z VRB01MPS CAVOK 19/11 Q1013 NOSIG
ZBYN,2003-09-23 13:00,ZBYN 231300Z 11002MPS CAVOK 16/12 Q1014 NOSIG
ZBYN,2003-09-23 14:00,ZBYN 231400Z 10003MPS 7000 SKC 17/13 Q1015 NOSIG
ZBYN,2003-09-23 15:00,ZBYN 231500Z 10003MPS 8000 SKC 16/12 Q1015 NOSIG
ZBYN,2003-09-23 16:00,ZBYN 231600Z 10003MPS 7000 SKC 16/12 Q1015 NOSIG
ZBYN,2003-09-23 17:00,ZBYN 231700Z 11003MPS 7000 SKC 15/12 Q1015
ZBYN,2003-09-23 18:00,ZBYN 231800Z 11003MPS 6000 SKC 14/12 Q1015
ZBYN,2003-09-23 19:00,ZBYN 231900Z 11003MPS 6000 SKC 14/12 Q1015 NOSIG
ZBYN,2003-09-23 20:00,ZBYN 232000Z 10003MPS 5000 BR SKC 14/12 Q1015
ZBYN,2003-09-23 20:30,ZBYN 232030Z 11002MPS 5000 BR SKC 13/12 Q1015
ZBYN,2003-09-23 21:00,ZBYN 232100Z 12002MPS 3000 BR SKC 13/11 Q1015
ZBYN,2003-09-23 21:30,ZBYN 232130Z 12002MPS 2000 R31/1200N BR SKC 12/11 Q1015
ZBYN,2003-09-23 22:00,ZBYN 232200Z 00000MPS 1800 BR NSC 12/11 Q1015 NOSIG
ZBYN,2003-09-23 23:00,ZBYN 232300Z 11002MPS 2500 BR NSC 12/11 Q1016 NOSIG
ZBYN,2003-09-24 00:00,ZBYN 240000Z 11002MPS 4000 BR NSC 16/13 Q1016 NOSIG
ZBYN,2003-09-24 01:00,ZBYN 240100Z 15002MPS 6000 NSC 17/12 Q1016 NOSIG
ZBYN,2003-09-24 02:00,ZBYN 240200Z 18002MPS CAVOK 19/12 Q1016 NOSIG
ZBYN,2003-09-24 03:00,ZBYN 240300Z 19002MPS CAVOK 21/12 Q1016 NOSIG
ZBYN,2003-09-24 04:00,ZBYN 240400Z 19002MPS CAVOK 22/12 Q1015 NOSIG
ZBYN,2003-09-24 05:00,ZBYN 240500Z 23002MPS CAVOK 23/13 Q1014 NOSIG
ZBYN,2003-09-24 06:00,ZBYN 240600Z 22002MPS CAVOK 24/12 Q1013 NOSIG
ZBYN,2003-09-24 07:00,ZBYN 240700Z 23002MPS CAVOK 25/12 Q1013 NOSIG
ZBYN,2003-09-24 08:00,ZBYN 240800Z 21002MPS CAVOK 26/12 Q1012 NOSIG
ZBYN,2003-09-24 09:00,ZBYN 240900Z 19002MPS CAVOK 26/13 Q1012 NOSIG
ZBYN,2003-09-24 10:00,ZBYN 241000Z 16002MPS 9999 FEW033TCU 24/14 Q1013 NOSIG
ZBYN,2003-09-24 11:00,ZBYN 241100Z 14002MPS 9999 FEW040TCU SCT100 20/14 Q1013 NOSIG
ZBYN,2003-09-24 12:00,ZBYN 241200Z 13003MPS CAVOK 19/14 Q1015 NOSIG
ZBYN,2003-09-24 13:00,ZBYN 241300Z 11002MPS CAVOK 18/14 Q1015 NOSIG
ZBYN,2003-09-24 14:00,ZBYN 241400Z 09002MPS 8000 SKC 19/15 Q1016 NOSIG
ZBYN,2003-09-24 15:00,ZBYN 241500Z 11003MPS 2000 BR SKC 17/15 Q1016 NOSIG
ZBYN,2003-09-24 16:00,ZBYN 241600Z 10002MPS 2500 BR SKC 16/14 Q1016 NOSIG
ZBYN,2003-09-24 18:00,ZBYN 241800Z AUTO 00000KT 5SM 17/15 A3003 RMK SLP149 T01660154 52011 IEM_DS3505
ZBYN,2003-09-24 21:00,ZBYN 242100Z 10001MPS 2000 BR SKC 13/12 Q1018
ZBYN,2003-09-24 22:00,ZBYN 242200Z 07001MPS 2000 R31/1000N BR SKC 14/13 Q1018 NOSIG
ZBYN,2003-09-24 22:30,ZBYN 242230Z AUTO 1SM 14/12 A3006 RMK T01400120 IEM_DS3505
ZBYN,2003-09-24 23:00,ZBYN 242300Z VRB01MPS 1200 R31/1100U BR NSC 14/13 Q1018 NOSIG
ZBYN,2003-09-25 00:00,ZBYN 250000Z 08001MPS 1200 R31/1200N BR NSC 15/14 Q1018 NOSIG
ZBYN,2003-09-25 01:00,ZBYN 250100Z 01001MPS 1400 R31/1300N BR NSC 17/15 Q1018 NOSIG
ZBYN,2003-09-25 02:00,ZBYN 250200Z 30003MPS 1600 BR NSC 19/15 Q1019 NOSIG
ZBYN,2003-09-25 03:00,ZBYN 250300Z 35003MPS 3000 HZ NSC 21/14 Q1019 NOSIG
ZBYN,2003-09-25 04:00,ZBYN 250400Z 34004MPS 5000 HZ NSC 21/14 Q1018 NOSIG
ZBYN,2003-09-25 05:00,ZBYN 250500Z 33003MPS 4000 HZ NSC 22/15 Q1017 NOSIG
ZBYN,2003-09-25 06:00,ZBYN 250600Z 34002MPS 5000 HZ NSC 23/15 Q1016 NOSIG
ZBYN,2003-09-25 07:00,ZBYN 250700Z 32003MPS 6000 SCT040 OVC100 22/15 Q1016 NOSIG
ZBYN,2003-09-25 08:00,ZBYN 250800Z 06003MPS 4000 HZ FEW030 OVC100 21/15 Q1016 NOSIG
ZBYN,2003-09-25 09:00,ZBYN 250900Z 09005MPS 3000 HZ NSC 21/14 Q1016 NOSIG
ZBYN,2003-09-25 10:00,ZBYN 251000Z 09006MPS 2500 SA NSC 19/14 Q1016 NOSIG
ZBYN,2003-09-25 11:00,ZBYN 251100Z 10003MPS 4000 -RA BR BKN040 OVC100 18/15 Q1017 NOSIG
ZBYN,2003-09-25 12:00,ZBYN 251200Z 08004MPS 3000 -RA BR FEW020 BKN040 OVC100 17/15 Q1018 NOSIG
ZBYN,2003-09-25 13:00,ZBYN 251300Z 07003MPS 6000 -RA FEW020 SCT050 OVC100 17/15 Q1017 NOSIG
ZBYN,2003-09-25 14:00,ZBYN 251400Z 10003MPS 5000 -RA BR NSC 17/15 Q1018 NOSIG
ZBYN,2003-09-25 15:00,ZBYN 251500Z 09004MPS 5000 -RA BR FEW020 SCT040 OVC100 17/15 Q 1018 NOSIG
ZBYN,2003-09-25 16:00,ZBYN 251600Z 10003MPS 4000 -RA BR SCT026 OVC100 16/14 Q1018 NOSIG
ZBYN,2003-09-25 17:00,ZBYN 251700Z 10004MPS 4000 -RA BR SCT026 OVC100 16/14 Q1017
ZBYN,2003-09-25 18:00,ZBYN 251800Z 09002MPS 4000 -RA BR SCT026 OVC100 17/14 Q1017
ZBYN,2003-09-25 19:00,ZBYN 251900Z 09003MPS 5000 -RA BR SCT026 OVC100 16/14 Q1016
ZBYN,2003-09-25 20:00,ZBYN 252000Z 09002MPS 5000 -RA BR SCT026 OVC100 16/14 Q1016
ZBYN,2003-09-25 21:00,ZBYN 252100Z 10003MPS 6000 -RA NSC 16/14 Q1016
ZBYN,2003-09-25 22:00,ZBYN 252200Z 10003MPS 6000 NSC 16/14 Q1016 NOSIG
ZBYN,2003-09-25 23:00,ZBYN 252300Z 11003MPS 6000 NSC 16/13 Q1016 NOSIG
ZBYN,2003-09-26 00:00,ZBYN 260000Z 11003MPS 2000 BR NSC 16/13 Q1016 NOSIG
ZBYN,2003-09-26 01:00,ZBYN 260100Z 11004MPS 3000 BR NSC 17/14 Q1016 NOSIG
ZBYN,2003-09-26 02:00,ZBYN 260200Z 11003MPS 6000 NSC 18/13 Q1016 NOSIG
ZBYN,2003-09-26 03:00,ZBYN 260300Z 12003MPS 5000 -RA BR NSC 18/13 Q1015 NOSIG
ZBYN,2003-09-26 04:00,ZBYN 260400Z 15004MPS 6000 -RA NSC 18/12 Q1015 NOSIG
ZBYN,2003-09-26 05:00,ZBYN 260500Z 15003MPS 4000 -RA BR NSC 16/13 Q1015 NOSIG
ZBYN,2003-09-26 06:00,ZBYN 260600Z 15002MPS 4000 -RA BR SCT040 OVC100 16/13 Q1014 NOSIG
ZBYN,2003-09-26 07:00,ZBYN 260700Z 18001MPS 8000 -RA NSC 16/13 Q1013 NOSIG
ZBYN,2003-09-26 08:00,ZBYN 260800Z 16001MPS 5000 -RA BR NSC 16/14 Q1013 NOSIG
ZBYN,2003-09-26 09:00,ZBYN 260900Z 22001MPS 5000 -RA BR SCT030 OVC100 15/12 Q1013 NOSIG
ZBYN,2003-09-26 10:00,ZBYN 261000Z 23002MPS 7000 -RA BKN030 OVC100 15/12 Q1014 NOSIG
ZBYN,2003-09-26 11:00,ZBYN 261100Z 18001MPS 5000 BR NSC 15/13 Q1014 NOSIG
ZBYN,2003-09-26 12:00,ZBYN 261200Z 13001MPS 3000 R31/1200 BR NSC 14/13 Q1014 NOSIG
ZBYN,2003-09-26 13:00,ZBYN 261300Z 11002MPS 2500 BR NSC 14/13 Q1015 NOSIG
ZBYN,2003-09-26 14:00,ZBYN 261400Z 11002MPS 3000 BR NSC 14/13 Q1015 NOSIG
ZBYN,2003-09-26 15:00,ZBYN 261500Z 10001MPS 2000 BR NSC 14/13 Q1015 NOSIG
ZBYN,2003-09-26 16:00,ZBYN 261600Z 12001MPS 1700 R31/1000D BR NSC 14/13 Q1014 NOSIG
ZBYN,2003-09-26 17:00,ZBYN 261700Z 12002MPS 1700 BR NSC 14/13 Q1014
ZBYN,2003-09-26 18:00,ZBYN 261800Z 00000MPS 1500 R31/0800N BR NSC 15/13 Q1014
ZBYN,2003-09-26 19:00,ZBYN 261900Z 00000MPS 1400 R31/0700N BR NSC 15/14 Q1014
ZBYN,2003-09-26 20:00,ZBYN 262000Z 00000MPS 1400 R31/0700N BR NSC 14/13 Q1013
ZBYN,2003-09-26 21:00,ZBYN 262100Z 00000MPS 1100 R31/0600N BR NSC 14/13 Q1014
ZBYN,2003-09-26 22:00,ZBYN 262200Z 30001MPS 1200 R31/0500N BR NSC 14/13 Q1014 NOSIG
ZBYN,2003-09-26 23:00,ZBYN 262300Z 25001MPS 0700 R31/0600N FG NSC 14/14 Q1015 NOSIG
ZBYN,2003-09-27 00:00,ZBYN 270000Z 05001MPS 0800 R31/0800N FG NSC 15/14 Q1015 NOSIG
ZBYN,2003-09-27 01:00,ZBYN 270100Z 01001MPS 1300 R31/1100N BR OVC023 16/13 Q1015 NOSIG
ZBYN,2003-09-27 02:00,ZBYN 270200Z VRB01MPS 1600 BR OVC023 17/13 Q1015 NOSIG
ZBYN,2003-09-27 03:00,ZBYN 270300Z 34003MPS 3000 BR SCT023 19/13 Q1015 NOSIG
ZBYN,2003-09-27 04:00,ZBYN 270400Z 31002MPS 8000 NSC 20/12 Q1014 NOSIG
ZBYN,2003-09-27 05:00,ZBYN 270500Z 32003MPS 8000 NSC 20/12 Q1014 NOSIG
ZBYN,2003-09-27 06:00,ZBYN 270600Z 33003MPS 9000 NSC 19/12 Q1014 NOSIG
ZBYN,2003-09-27 07:00,ZBYN 270700Z 32004MPS 9000 NSC 19/12 Q1013 NOSIG
ZBYN,2003-09-27 08:00,ZBYN 270800Z 33003MPS 8000 NSC 18/13 Q1013 NOSIG
ZBYN,2003-09-27 09:00,ZBYN 270900Z 33003MPS CAVOK 18/12 Q1013 NOSIG
ZBYN,2003-09-27 10:00,ZBYN 271000Z 34003MPS CAVOK 17/12 Q1014 NOSIG
ZBYN,2003-09-27 11:00,ZBYN 271100Z 34003MPS 7000 -RA SCT023 OVC040 16/13 Q1015 NOSIG
ZBYN,2003-09-27 12:00,ZBYN 271200Z VRB01MPS 6000 -RA SCT023 OVC040 16/13 Q1016 NOSIG
ZBYN,2003-09-27 13:00,ZBYN 271300Z 06002MPS 7000 -RA BKN023 OVC040 16/13 Q1017 NOSIG
ZBYN,2003-09-27 14:00,ZBYN 271400Z 08003MPS 8000 -RA OVC030 15/12 Q1017 NOSIG
ZBYN,2003-09-27 15:00,ZBYN 271500Z 08003MPS 8000 -RA OVC030 14/12 Q1017 NOSIG
ZBYN,2003-09-27 16:00,ZBYN 271600Z 09003MPS 8000 -RA OVC030 14/12 Q1017 NOSIG
ZBYN,2003-09-27 17:00,ZBYN 271700Z 10002MPS 9999 -RA OVC030 13/12 Q1018
ZBYN,2003-09-27 18:00,ZBYN 271800Z 07002MPS 9999 -RA OVC030 13/12 Q1018
ZBYN,2003-09-27 19:00,ZBYN 271900Z 07003MPS 9999 -RA OVC040 13/11 Q1017
ZBYN,2003-09-27 20:00,ZBYN 272000Z 05002MPS 9999 -RA OVC040 13/10 Q1018
ZBYN,2003-09-27 21:00,ZBYN 272100Z 05002MPS 9999 -RA OVC040 13/11 Q1018
ZBYN,2003-09-27 22:00,ZBYN 272200Z 06002MPS 9999 -RA OVC040 13/11 Q1019 NOSIG
ZBYN,2003-09-27 23:00,ZBYN 272300Z 06003MPS 9999 RA SCT020 OVC040 13/10 Q1019 NOSIG
ZBYN,2003-09-28 00:00,ZBYN 280000Z 04002MPS 9999 -RA BKN020 OVC050 13/11 Q1020 NOSIG
ZBYN,2003-09-28 01:00,ZBYN 280100Z 06003MPS 9999 -RA SCT020 OVC050 13/10 Q1020 NOSIG
ZBYN,2003-09-28 02:00,ZBYN 280200Z 06003MPS 9999 -RA SCT040 OVC100 13/10 Q1021 NOSIG
ZBYN,2003-09-28 03:00,ZBYN 280300Z 07003MPS 9999 -RA SCT020 OVC090 13/10 Q1021 NOSIG
ZBYN,2003-09-28 04:00,ZBYN 280400Z 07002MPS 9999 -RA SCT020 OVC090 13/10 Q1021 NOSIG
ZBYN,2003-09-28 05:00,ZBYN 280500Z VRB01MPS 9999 -RA SCT020 OVC100 14/11 Q1020 NOSIG
ZBYN,2003-09-28 06:00,ZBYN 280600Z 08002MPS 9999 -RA FEW020 OVC090 14/10 Q1020 NOSIG
ZBYN,2003-09-28 07:00,ZBYN 280700Z 05002MPS 9999 -RA FEW020 OVC090 14/10 Q1020 NOSIG
ZBYN,2003-09-28 08:00,ZBYN 280800Z 36001MPS 9999 -RA FEW020 OVC090 14/12 Q1020 NOSIG
ZBYN,2003-09-28 09:00,ZBYN 280900Z 07002MPS 9999 -RA FEW020 OVC090 14/10 Q1020 NOSIG
ZBYN,2003-09-28 10:00,ZBYN 281000Z 06002MPS 9999 -RA SCT040 OVC090 13/10 Q1020 NOSIG
ZBYN,2003-09-28 11:00,ZBYN 281100Z VRB01MPS 9999 -RA SCT040 OVC090 13/10 Q1020 NOSIG
ZBYN,2003-09-28 12:00,ZBYN 281200Z 35002MPS 9999 -RA SCT040 OVC090 13/11 Q1021 NOSIG
ZBYN,2003-09-28 13:00,ZBYN 281300Z 36001MPS 8000 -RA SCT030 OVC090 13/11 Q1022 NOSIG
ZBYN,2003-09-28 14:00,ZBYN 281400Z 34002MPS 6000 -RA SCT020 OVC090 13/11 Q1023 NOSIG
ZBYN,2003-09-28 15:00,ZBYN 281500Z 35002MPS 4000 -RA BR SCT020 OVC090 12/11 Q1023 NOSIG
ZBYN,2003-09-28 16:00,ZBYN 281600Z 05003MPS 6000 -RA SCT020 OVC090 12/11 Q1023 NOSIG
ZBYN,2003-09-28 17:00,ZBYN 281700Z 06002MPS 9999 -RA SCT020 OVC090 12/10 Q1023
ZBYN,2003-09-28 18:00,ZBYN 281800Z 36001MPS 7000 -RA SCT020 OVC090 12/11 Q1022
ZBYN,2003-09-28 19:00,ZBYN 281900Z 06003MPS 9999 -RA SCT020 OVC090 11/08 Q1022
ZBYN,2003-09-28 20:00,ZBYN 282000Z 04003MPS 9999 -RA OVC040 11/08 Q1022
ZBYN,2003-09-28 21:00,ZBYN 282100Z 06004MPS 9999 -RA OVC040 10/06 Q1022
ZBYN,2003-09-28 22:00,ZBYN 282200Z 06005MPS 9999 -RA SCT020 OVC040 11/07 Q1022 NOSIG
ZBYN,2003-09-28 23:00,ZBYN 282300Z 04003MPS 9999 -RA OVC033 11/07 Q1022 NOSIG
ZBYN,2003-09-29 00:00,ZBYN 290000Z 06004MPS 9999 -RA SCT020 OVC040 11/07 Q1023 NOSIG
ZBYN,2003-09-29 01:00,ZBYN 290100Z 06005MPS 9999 -RA NSC 11/06 Q1023 NOSIG
ZBYN,2003-09-29 02:00,ZBYN 290200Z 07004MPS CAVOK 12/07 Q1023 NOSIG
ZBYN,2003-09-29 03:00,ZBYN 290300Z 07004MPS CAVOK 12/07 Q1022 NOSIG
ZBYN,2003-09-29 04:00,ZBYN 290400Z 07004MPS CAVOK 12/06 Q1021 NOSIG
ZBYN,2003-09-29 05:00,ZBYN 290500Z 07004MPS CAVOK 12/06 Q1021 NOSIG
ZBYN,2003-09-29 06:00,ZBYN 290600Z 06003MPS 9999 -RA BKN040 OVC100 12/05 Q1020 NOSIG
ZBYN,2003-09-29 07:00,ZBYN 290700Z 05004MPS 9999 -RA OVC033 09/07 Q1021 NOSIG
ZBYN,2003-09-29 08:00,ZBYN 290800Z 06003MPS 8000 -RA BKN020 OVC040 09/07 Q1021 NOSIG
ZBYN,2003-09-29 09:00,ZBYN 290900Z 02001MPS 9999 -RA BKN026 OVC100 09/08 Q1021 NOSIG
ZBYN,2003-09-29 10:00,ZBYN 291000Z 34001MPS 6000 -RA FEW016 BKN030 OVC100 09/08 Q1021 NOSIG
ZBYN,2003-09-29 11:00,ZBYN 291100Z 32002MPS 6000 -RA FEW020 BKN040 OVC100 09/08 Q1020 NOSIG
ZBYN,2003-09-29 12:00,ZBYN 291200Z 34003MPS 6000 OVC040 09/08 Q1020 NOSIG
ZBYN,2003-09-29 13:00,ZBYN 291300Z 35002MPS 8000 BKN040 OVC100 09/08 Q1020 NOSIG
ZBYN,2003-09-29 14:00,ZBYN 291400Z 36001MPS 8000 BKN033 OVC100 09/08 Q1020 NOSIG
ZBYN,2003-09-29 15:00,ZBYN 291500Z 00000MPS 8000 SCT033 OVC100 10/08 Q1020 NOSIG
ZBYN,2003-09-29 16:00,ZBYN 291600Z 33001MPS 8000 SCT033 OVC100 10/08 Q1019 NOSIG
ZBYN,2003-09-29 17:00,ZBYN 291700Z 30001MPS 8000 SCT030 OVC100 10/08 Q1019 NOSIG
ZBYN,2003-09-29 18:00,ZBYN 291800Z 00000MPS 8000 SCT030 OVC100 10/08 Q1019
ZBYN,2003-09-29 19:00,ZBYN 291900Z 23001MPS 8000 SCT030 OVC100 10/08 Q1018 NOSIG
ZBYN,2003-09-29 20:00,ZBYN 292000Z 30002MPS 7000 -RA SCT026 OVC100 09/08 Q1018
ZBYN,2003-09-29 21:00,ZBYN 292100Z 00000MPS 4000 -RA BR SCT026 OVC100 09/08 Q1018
ZBYN,2003-09-29 22:00,ZBYN 292200Z 24001MPS 1200 R31/0900N -RA BR BKN020 OVC100 09/08 Q1019 NOSIG
ZBYN,2003-09-29 23:00,ZBYN 292300Z 16001MPS 1000 R31/1300 RA BR BKN016 OVC083 09/08 Q1019 NOSIG
ZBYN,2003-09-30 00:00,ZBYN 300000Z 24001MPS 1200 R31/1300 RA BR BKN016 OVC050 09/08 Q1019 NOSIG
ZBYN,2003-09-30 01:00,ZBYN 300100Z 00000MPS 1200 R31/1200N RA BR SCT016 OVC040 09/09 Q1019 NOSIG
ZBYN,2003-09-30 02:00,ZBYN 300200Z 29001MPS 2000 -RA BR BKN016 OVC040 10/09 Q1019 NOSIG
ZBYN,2003-09-30 03:00,ZBYN 300300Z 00000MPS 1800 -RA BR BKN026 OVC060 10/09 Q1018 NOSIG
ZBYN,2003-09-30 04:00,ZBYN 300400Z 24001MPS 1600 -RA BR BKN020 OVC050 10/09 Q1019 NOSIG
ZBYN,2003-09-30 05:00,ZBYN 300500Z 25001MPS 1600 -RA BR SCT020 OVC050 10/09 Q1018 NOSIG
ZBYN,2003-09-30 06:00,ZBYN 300600Z 25001MPS 1400 R31/1300N -RA BR BKN020 OVC050 10/10 Q1018 NOSIG
ZBYN,2003-09-30 07:00,ZBYN 300700Z 25001MPS 1400 R31/1300N RA BR BKN020 OVC050 11/10 Q1018 NOSIG
ZBYN,2003-09-30 08:00,ZBYN 300800Z 23001MPS 1400 R31/1300N RA BR BKN020 OVC050 11/10 Q1018 NOSIG
ZBYN,2003-09-30 09:00,ZBYN 300900Z VRB01MPS 1700 -RA BR BKN016 OVC050 11/10 Q1017 NOSIG
ZBYN,2003-09-30 10:00,ZBYN 301000Z 23002MPS 3000 BR BKN030 OVC100 11/10 Q1017 NOSIG
ZBYN,2003-09-30 11:00,ZBYN 301100Z 00000MPS 5000 BR BKN030 OVC100 11/10 Q1017 NOSIG
ZBYN,2003-09-30 12:00,ZBYN 301200Z 00000MPS 5000 BR BKN016 OVC100 11/10 Q1018 NOSIG
ZBYN,2003-09-30 13:00,ZBYN 301300Z 00000MPS 4000 BR SCT016 OVC100 10/09 Q1018 NOSIG
ZBYN,2003-09-30 14:00,ZBYN 301400Z 16001MPS 2500 BR SCT016 OVC100 10/09 Q1019 NOSIG
ZBYN,2003-09-30 15:00,ZBYN 301500Z 15001MPS 4000 BR SCT033 OVC100 10/09 Q1019 NOSIG
ZBYN,2003-09-30 16:00,ZBYN 301600Z 00000MPS 3000 BR SCT033 OVC100 10/09 Q1020 NOSIG
ZBYN,2003-09-30 17:00,ZBYN 301700Z 14001MPS 2000 BR SCT033 OVC100 09/08 Q1019 NOSIG
ZBYN,2003-09-30 18:00,ZBYN 301800Z 00000MPS 1600 R31/1400U BR SCT033 OVC100 09/08 Q1019
ZBYN,2003-09-30 19:00,ZBYN 301900Z 00000MPS 1800 R31/0900 BR BKN026 OVC100 10/09 Q1019
ZBYN,2003-09-30 20:00,ZBYN 302000Z 00000MPS 1700 BR SCT026 OVC100 09/09 Q1020
ZBYN,2003-09-30 21:00,ZBYN 302100Z 00000MPS 1400 R31/0550N BR SCT026 OVC100 09/09 Q1019
ZBYN,2003-09-30 22:00,ZBYN 302200Z VRB01MPS 1000 R31/0350N BR BKN026 OVC100 09/08 Q1021 NOSIG
ZBYN,2003-09-30 23:00,ZBYN 302300Z 00000MPS 0800 R31/0800U FG OVC020 09/09 Q1021 NOSIG
ZBYN,2003-10-01 00:00,ZBYN 010000Z 00000MPS 0800 R31/1100D FG OVC020 10/09 Q1021 NOSIG
ZBYN,2003-10-01 01:00,ZBYN 010100Z 00000MPS 0800 R31/0800U FG FEW020 OVC060 10/09 Q1022 NOSIG
ZBYN,2003-10-01 02:00,ZBYN 010200Z 00000MPS 0900 R31/0900N FG SCT050 BKN100 11/10 Q1022 NOSIG
ZBYN,2003-10-01 03:00,ZBYN 010300Z VRB01MPS 3000 BR NSC 13/08 Q1022 NOSIG
ZBYN,2003-10-01 04:00,ZBYN 010400Z 29002MPS CAVOK 14/05 Q1022 NOSIG
ZBYN,2003-10-01 05:00,ZBYN 010500Z 33002MPS CAVOK 15/M00 Q1021 NOSIG
ZBYN,2003-10-01 06:00,ZBYN 010600Z VRB01MPS CAVOK 17/M00 Q1020 NOSIG
ZBYN,2003-10-01 07:00,ZBYN 010700Z 23001MPS CAVOK 17/02 Q1020 NOSIG
ZBYN,2003-10-01 08:00,ZBYN 010800Z VRB01MPS CAVOK 17/04 Q1020 NOSIG
ZBYN,2003-10-01 09:00,ZBYN 010900Z 26001MPS 8000 NSC 16/06 Q1020 NOSIG
ZBYN,2003-10-01 10:00,ZBYN 011000Z 29001MPS 8000 NSC 13/08 Q1020 NOSIG
ZBYN,2003-10-01 11:00,ZBYN 011100Z 00000MPS CAVOK 10/08 Q1021 NOSIG
ZBYN,2003-10-01 12:00,ZBYN 011200Z 13001MPS 8000 NSC 09/07 Q1021 NOSIG
ZBYN,2003-10-01 13:00,ZBYN 011300Z 12001MPS CAVOK 09/07 Q1022 NOSIG
ZBYN,2003-10-01 14:00,ZBYN 011400Z 35001MPS CAVOK 09/06 Q1023 NOSIG
ZBYN,2003-10-01 15:00,ZBYN 011500Z 17001MPS CAVOK 09/06 Q1023 NOSIG
ZBYN,2003-10-01 16:00,ZBYN 011600Z 00000MPS CAVOK 07/05 Q1024 NOSIG
ZBYN,2003-10-01 17:00,ZBYN 011700Z 00000MPS CAVOK 08/05 Q1024
ZBYN,2003-10-01 18:00,ZBYN 011800Z VRB01MPS CAVOK 08/06 Q1024
ZBYN,2003-10-01 19:00,ZBYN 011900Z 11001MPS CAVOK 08/07 Q1025
ZBYN,2003-10-01 20:00,ZBYN 012000Z 33001MPS CAVOK 10/03 Q1025 NOSIG
ZBYN,2003-10-01 21:00,ZBYN 012100Z 32004MPS CAVOK 09/02 Q1026
ZBYN,2003-10-01 22:00,ZBYN 012200Z 29002MPS CAVOK 09/03 Q1026 NOSIG
ZBYN,2003-10-01 23:00,ZBYN 012300Z 33003MPS CAVOK 09/02 Q1027 NOSIG
ZBYN,2003-10-02 00:00,ZBYN 020000Z 02002MPS CAVOK 10/04 Q1027 NOSIG
ZBYN,2003-10-02 01:00,ZBYN 020100Z VRB01MPS CAVOK 10/00 Q1028 NOSIG
ZBYN,2003-10-02 02:00,ZBYN 020200Z 35005MPS CAVOK 11/M02 Q1028 NOSIG
ZBYN,2003-10-02 03:00,ZBYN 020300Z 35002MPS CAVOK 11/M02 Q1029 NOSIG
ZBYN,2003-10-02 04:00,ZBYN 020400Z 28003MPS CAVOK 11/M02 Q1028 NOSIG
ZBYN,2003-10-02 05:00,ZBYN 020500Z 25003MPS CAVOK 11/04 Q1028 NOSIG
ZBYN,2003-10-02 06:00,ZBYN 020600Z 26002MPS CAVOK 12/02 Q1027 NOSIG
ZBYN,2003-10-02 07:00,ZBYN 020700Z 24003MPS CAVOK 12/04 Q1027 NOSIG
ZBYN,2003-10-02 08:00,ZBYN 020800Z 23003MPS CAVOK 12/04 Q1027 NOSIG
ZBYN,2003-10-02 09:00,ZBYN 020900Z 20002MPS CAVOK 11/06 Q1027 NOSIG
ZBYN,2003-10-02 10:00,ZBYN 021000Z 19001MPS CAVOK 10/05 Q1027 NOSIG
ZBYN,2003-10-02 11:00,ZBYN 021100Z 13002MPS CAVOK 07/05 Q1028 NOSIG
ZBYN,2003-10-02 12:00,ZBYN 021200Z 11002MPS 8000 NSC 07/05 Q1028 NOSIG
ZBYN,2003-10-02 13:00,ZBYN 021300Z 10001MPS 8000 NSC 06/05 Q1029 NOSIG
ZBYN,2003-10-02 14:00,ZBYN 021400Z 13002MPS 6000 NSC 06/05 Q1030 NOSIG
ZBYN,2003-10-02 15:00,ZBYN 021500Z 12001MPS 4000 BR NSC 06/04 Q1030 NOSIG
ZBYN,2003-10-02 16:00,ZBYN 021600Z 11001MPS 5000 BR NSC 06/05 Q1029 NOSIG
ZBYN,2003-10-02 17:00,ZBYN 021700Z 12002MPS 5000 BR NSC 06/04 Q1030
ZBYN,2003-10-02 18:00,ZBYN 021800Z 11001MPS 5000 BR NSC 06/04 Q1030
ZBYN,2003-10-02 19:00,ZBYN 021900Z 00000MPS 8000 NSC 06/05 Q1030
ZBYN,2003-10-02 20:00,ZBYN 022000Z 00000MPS 8000 NSC 06/05 Q1030
ZBYN,2003-10-02 21:00,ZBYN 022100Z 03001MPS CAVOK 06/04 Q1029
ZBYN,2003-10-02 23:00,ZBYN 022300Z 11001MPS 2500 R31/1400N BR NSC 05/04 Q1031 NOSIG
ZBYN,2003-10-03 00:00,ZBYN 030000Z 14002MPS 2000 BR NSC 07/05 Q1031 NOSIG
ZBYN,2003-10-03 01:00,ZBYN 030100Z 04001MPS 8000 NSC 09/05 Q1032 NOSIG
ZBYN,2003-10-03 02:00,ZBYN 030200Z 00000MPS 7000 NSC 10/05 Q1031 NOSIG
ZBYN,2003-10-03 03:00,ZBYN 030300Z VRB01MPS CAVOK 12/04 Q1031 NOSIG
ZBYN,2003-10-03 04:00,ZBYN 030400Z VRB01MPS CAVOK 14/01 Q1030 NOSIG
ZBYN,2003-10-03 05:00,ZBYN 030500Z VRB01MPS CAVOK 15/M02 Q1029 NOSIG
ZBYN,2003-10-03 06:00,ZBYN 030600Z 30002MPS CAVOK 16/M02 Q1029 NOSIG
ZBYN,2003-10-03 07:00,ZBYN 030700Z 20002MPS CAVOK 16/M02 Q1028 NOSIG
ZBYN,2003-10-03 08:00,ZBYN 030800Z 29001MPS CAVOK 16/M02 Q1027 NOSIG
ZBYN,2003-10-03 09:00,ZBYN 030900Z 00000MPS CAVOK 15/M02 Q1027 NOSIG
ZBYN,2003-10-03 10:00,ZBYN 031000Z 00000MPS CAVOK 13/05 Q1027 NOSIG
ZBYN,2003-10-03 11:00,ZBYN 031100Z 16001MPS CAVOK 10/05 Q1027 NOSIG
ZBYN,2003-10-03 12:00,ZBYN 031200Z 10001MPS CAVOK 09/05 Q1028 NOSIG
ZBYN,2003-10-03 13:00,ZBYN 031300Z 13002MPS CAVOK 08/04 Q1029 NOSIG
ZBYN,2003-10-03 14:00,ZBYN 031400Z 11002MPS CAVOK 08/05 Q1028 NOSIG
ZBYN,2003-10-03 15:00,ZBYN 031500Z 13001MPS CAVOK 07/05 Q1029 NOSIG
ZBYN,2003-10-03 16:00,ZBYN 031600Z 12002MPS CAVOK 07/05 Q1028 NOSIG
ZBYN,2003-10-03 17:00,ZBYN 031700Z 11002MPS 7000 NSC 07/05 Q1029
ZBYN,2003-10-03 18:00,ZBYN 031800Z 12001MPS 6000 NSC 07/05 Q1028
ZBYN,2003-10-03 19:00,ZBYN 031900Z 11001MPS 6000 NSC 07/05 Q1028
ZBYN,2003-10-03 20:00,ZBYN 032000Z 12001MPS 6000 NSC 06/05 Q1028
ZBYN,2003-10-03 21:00,ZBYN 032100Z 00000MPS 6000 NSC 07/05 Q1028
ZBYN,2003-10-03 22:00,ZBYN 032200Z 13001MPS 4000 BR NSC 06/05 Q1029 NOSIG
ZBYN,2003-10-03 23:00,ZBYN 032300Z 00000MPS 3000 R31/1400N BR NSC 07/05 Q1029 NOSIG
ZBYN,2003-10-04 00:00,ZBYN 040000Z 00000MPS 1200 R31/1200 BR NSC 08/06 Q1029 NOSIG
ZBYN,2003-10-04 01:00,ZBYN 040100Z 12001MPS 1400 R31/1400N BR NSC 09/07 Q1029 NOSIG
ZBYN,2003-10-04 02:00,ZBYN 040200Z 00000MPS 2000 BR NSC 10/06 Q1029 NOSIG
ZBYN,2003-10-04 03:00,ZBYN 040300Z 00000MPS 1800 BR NSC 11/06 Q1029 NOSIG
ZBYN,2003-10-04 04:00,ZBYN 040400Z 34001MPS 2000 BR NSC 12/06 Q1028 NOSIG
ZBYN,2003-10-04 05:00,ZBYN 040500Z VRB01MPS 3000 HZ NSC 13/05 Q1027 NOSIG
ZBYN,2003-10-04 06:00,ZBYN 040600Z VRB01MPS 5000 HZ NSC 15/05 Q1026 NOSIG
ZBYN,2003-10-04 07:00,ZBYN 040700Z 24002MPS CAVOK 15/03 Q1026 NOSIG
ZBYN,2003-10-04 08:00,ZBYN 040800Z 20002MPS 6000 NSC 15/06 Q1025 NOSIG
ZBYN,2003-10-04 09:00,ZBYN 040900Z 21002MPS 4000 FU NSC 14/07 Q1025 NOSIG
ZBYN,2003-10-04 10:00,ZBYN 041000Z 21002MPS 2500 FU NSC 12/07 Q1025 NOSIG
ZBYN,2003-10-04 11:00,ZBYN 041100Z 18001MPS 2000 FU NSC 11/07 Q1026 NOSIG
ZBYN,2003-10-04 12:00,ZBYN 041200Z 17001MPS 2500 BR NSC 10/06 Q1026 NOSIG
ZBYN,2003-10-04 13:00,ZBYN 041300Z 18002MPS 2500 BR NSC 10/06 Q1027 NOSIG
ZBYN,2003-10-04 14:00,ZBYN 041400Z 15001MPS 3000 BR NSC 09/06 Q1027 NOSIG
ZBYN,2003-10-04 15:00,ZBYN 041500Z 14002MPS 2500 BR NSC 08/06 Q1027 NOSIG
ZBYN,2003-10-04 16:00,ZBYN 041600Z 13002MPS 2500 BR NSC 08/06 Q1026 NOSIG
ZBYN,2003-10-04 17:00,ZBYN 041700Z 12002MPS 2500 R31/1400N BR NSC 07/06 Q1026
ZBYN,2003-10-04 18:00,ZBYN 041800Z 12002MPS 2500 BR NSC 07/05 Q1025
ZBYN,2003-10-04 19:00,ZBYN 041900Z 12001MPS 2500 BR NSC 06/04 Q1025
ZBYN,2003-10-04 20:00,ZBYN 042000Z 00000MPS 3000 BR NSC 06/04 Q1025
ZBYN,2003-10-04 21:00,ZBYN 042100Z 10001MPS 3000 BR NSC 05/04 Q1025
ZBYN,2003-10-04 22:00,ZBYN 042200Z 12001MPS 3000 BR NSC 04/03 Q1025 NOSIG
ZBYN,2003-10-04 23:00,ZBYN 042300Z 12001MPS 2500 R31/1200N BR NSC 04/03 Q1025 NOSIG
ZBYN,2003-10-05 00:00,ZBYN 050000Z 11001MPS 1600 R31/1100U BR NSC 06/05 Q1025 NOSIG
ZBYN,2003-10-05 01:00,ZBYN 050100Z 14001MPS 1600 R31/1200N BR NSC 08/06 Q1026 NOSIG
ZBYN,2003-10-05 02:00,ZBYN 050200Z VRB01MPS 1600 BR NSC 10/06 Q1026 NOSIG
ZBYN,2003-10-05 03:00,ZBYN 050300Z VRB01MPS 2000 BR SKC 12/06 Q1025 NOSIG
ZBYN,2003-10-05 04:00,ZBYN 050400Z 18001MPS 3000 FU NSC 13/06 Q1024 NOSIG
ZBYN,2003-10-05 05:00,ZBYN 050500Z VRB01MPS 3000 FU NSC 16/05 Q1023 NOSIG
ZBYN,2003-10-05 06:00,ZBYN 050600Z VRB01MPS 6000 SKC 17/04 Q1022 NOSIG
ZBYN,2003-10-05 07:00,ZBYN 050700Z VRB01MPS CAVOK 18/01 Q1021 NOSIG
ZBYN,2003-10-05 08:00,ZBYN 050800Z 25001MPS CAVOK 18/00 Q1020 NOSIG
ZBYN,2003-10-05 09:00,ZBYN 050900Z 20001MPS CAVOK 18/02 Q1020 NOSIG
ZBYN,2003-10-05 10:00,ZBYN 051000Z 00000MPS CAVOK 15/05 Q1020 NOSIG
ZBYN,2003-10-05 11:00,ZBYN 051100Z 00000MPS 8000 NSC 12/06 Q1021 NOSIG
ZBYN,2003-10-05 12:00,ZBYN 051200Z 11001MPS 8000 NSC 10/07 Q1022 NOSIG
ZBYN,2003-10-05 13:00,ZBYN 051300Z 12002MPS 8000 NSC 08/06 Q1022 NOSIG
ZBYN,2003-10-05 14:00,ZBYN 051400Z 13003MPS 8000 NSC 09/06 Q1023 NOSIG
ZBYN,2003-10-05 15:00,ZBYN 051500Z 14001MPS 5000 BR NSC 09/07 Q1024 NOSIG
ZBYN,2003-10-05 16:00,ZBYN 051600Z VRB01MPS 3000 BR NSC 08/06 Q1024 NOSIG
ZBYN,2003-10-05 17:00,ZBYN 051700Z 15002MPS 2000 BR NSC 09/07 Q1024
ZBYN,2003-10-05 18:00,ZBYN 051800Z 12002MPS 1400 R31/0800 BR NSC 07/06 Q1023
ZBYN,2003-10-05 19:00,ZBYN 051900Z 00000MPS 1400 R31/0900N BR NSC 07/06 Q1023
ZBYN,2003-10-05 20:00,ZBYN 052000Z 13001MPS 1400 R31/P1500 BR NSC 08/07 Q1022
ZBYN,2003-10-05 21:00,ZBYN 052100Z 27001MPS 1400 R31/1000N BR NSC 09/07 Q1023
ZBYN,2003-10-05 22:00,ZBYN 052200Z 00000MPS 1200 R31/1000N BR NSC 08/07 Q1023 NOSIG
ZBYN,2003-10-05 23:00,ZBYN 052300Z 16001MPS 0800 R31/0750N FG NSC 08/07 Q1023 NOSIG
ZBYN,2003-10-06 00:00,ZBYN 060000Z VRB01MPS 1000 R31/P1500 BR NSC 08/07 Q1023 NOSIG
ZBYN,2003-10-06 01:00,ZBYN 060100Z 17001MPS 1000 R31/P1500 BR NSC 08/07 Q1023 NOSIG
ZBYN,2003-10-06 02:00,ZBYN 060200Z 18001MPS 1000 R31/P1500 BR NSC 09/07 Q1023 NOSIG
ZBYN,2003-10-06 03:00,ZBYN 060300Z VRB01MPS 1400 R31/1400N BR NSC 09/06 Q1023 NOSIG
ZBYN,2003-10-06 04:00,ZBYN 060400Z VRB01MPS 1700 BR NSC 10/07 Q1022 NOSIG
ZBYN,2003-10-06 05:00,ZBYN 060500Z 27001MPS 1700 BR SKC 12/07 Q1021 NOSIG
ZBYN,2003-10-06 06:00,ZBYN 060600Z 16002MPS 1700 HZ SKC 14/07 Q1019 NOSIG
ZBYN,2003-10-06 07:00,ZBYN 060700Z 19001MPS 1800 HZ SKC 16/08 Q1018 NOSIG
ZBYN,2003-10-06 08:00,ZBYN 060800Z VRB01MPS 4000 HZ SKC 17/06 Q1018 NOSIG
ZBYN,2003-10-06 09:00,ZBYN 060900Z 17001MPS 5000 HZ SKC 16/06 Q1017 NOSIG
ZBYN,2003-10-06 10:00,ZBYN 061000Z 00000MPS 5000 HZ SKC 13/08 Q1017 NOSIG
ZBYN,2003-10-06 11:00,ZBYN 061100Z 12001MPS 4000 BR NSC 09/06 Q1017 NOSIG
ZBYN,2003-10-06 12:00,ZBYN 061200Z 10001MPS 3000 BR NSC 10/07 Q1017 NOSIG
ZBYN,2003-10-06 13:00,ZBYN 061300Z 10002MPS 3000 BR NSC 07/06 Q1018 NOSIG
ZBYN,2003-10-06 14:00,ZBYN 061400Z 13002MPS 4000 BR NSC 08/06 Q1018 NOSIG
ZBYN,2003-10-06 15:00,ZBYN 061500Z 11002MPS 4000 BR SKC 07/05 Q1018 NOSIG
ZBYN,2003-10-06 16:00,ZBYN 061600Z 12002MPS 4000 BR SKC 06/04 Q1018 NOSIG
ZBYN,2003-10-06 17:00,ZBYN 061700Z 00000MPS 6000 SKC 06/04 Q1018
ZBYN,2003-10-06 18:00,ZBYN 061800Z 00000MPS 6000 SKC 06/03 Q1017
ZBYN,2003-10-06 19:00,ZBYN 061900Z 13001MPS 7000 SKC 06/04 Q1017
ZBYN,2003-10-06 20:00,ZBYN 062000Z 13001MPS 8000 SKC 05/03 Q1017
ZBYN,2003-10-06 21:00,ZBYN 062100Z 11002MPS 8000 SKC 05/04 Q1016
ZBYN,2003-10-06 22:00,ZBYN 062200Z 11001MPS 6000 NSC 05/04 Q1016 NOSIG
ZBYN,2003-10-06 23:00,ZBYN 062300Z 00000MPS 6000 NSC 06/04 Q1016 NOSIG
ZBYN,2003-10-07 00:00,ZBYN 070000Z 15001MPS 6000 NSC 07/05 Q1017 NOSIG
ZBYN,2003-10-07 01:00,ZBYN 070100Z 14002MPS 5000 BR NSC 10/07 Q1017 NOSIG
ZBYN,2003-10-07 02:00,ZBYN 070200Z 19002MPS 3000 BR NSC 12/07 Q1017 NOSIG
ZBYN,2003-10-07 03:00,ZBYN 070300Z 17001MPS 4000 HZ NSC 13/06 Q1016 NOSIG
ZBYN,2003-10-07 04:00,ZBYN 070400Z 17002MPS 4000 HZ NSC 15/06 Q1015 NOSIG
ZBYN,2003-10-07 05:00,ZBYN 070500Z 14002MPS 8000 NSC 16/06 Q1013 NOSIG
ZBYN,2003-10-07 06:00,ZBYN 070600Z VRB01MPS CAVOK 17/06 Q1013 NOSIG
ZBYN,2003-10-07 07:00,ZBYN 070700Z VRB01MPS CAVOK 18/05 Q1011 NOSIG
ZBYN,2003-10-07 08:00,ZBYN 070800Z 00000MPS CAVOK 18/06 Q1011 NOSIG
ZBYN,2003-10-07 09:00,ZBYN 070900Z 04001MPS CAVOK 17/08 Q1011 NOSIG
ZBYN,2003-10-07 10:00,ZBYN 071000Z 05001MPS CAVOK 16/09 Q1011 NOSIG
ZBYN,2003-10-07 11:00,ZBYN 071100Z 11001MPS 7000 NSC 13/09 Q1011 NOSIG
ZBYN,2003-10-07 12:00,ZBYN 071200Z AUTO 00000KT 5SM 14/11 A2988 RMK SLP127 T01390108 52003 IEM_DS3505
ZBYN,2003-10-07 13:00,ZBYN 071300Z 10005MPS 4000 BR NSC 13/09 Q1013 NOSIG
ZBYN,2003-10-07 14:00,ZBYN 071400Z 09005MPS 5000 BR SKC 12/08 Q1012 NOSIG
ZBYN,2003-10-07 15:00,ZBYN 071500Z 11003MPS 5000 BR SKC 11/08 Q1013 NOSIG
ZBYN,2003-10-07 16:00,ZBYN 071600Z 09004MPS 4000 BR NSC 12/07 Q1014 NOSIG
ZBYN,2003-10-07 17:00,ZBYN 071700Z 12004MPS 5000 BR NSC 11/07 Q1014
ZBYN,2003-10-07 18:00,ZBYN 071800Z 11003MPS 4000 BR NSC 11/08 Q1014
ZBYN,2003-10-07 19:00,ZBYN 071900Z 12002MPS 4000 BR NSC 11/08 Q1014
ZBYN,2003-10-07 20:00,ZBYN 072000Z 13001MPS 4000 BR NSC 10/08 Q1013
ZBYN,2003-10-07 21:00,ZBYN 072100Z 11001MPS 4000 BR NSC 08/07 Q1012
ZBYN,2003-10-07 22:00,ZBYN 072200Z VRB01MPS 4000 BR NSC 08/07 Q1012 NOSIG
ZBYN,2003-10-07 23:00,ZBYN 072300Z 00000MPS 3000 R31/1200D BR NSC 07/06 Q1013 NOSIG
ZBYN,2003-10-08 00:00,ZBYN 080000Z 00000MPS 1600 R31/1400 BR NSC 09/08 Q1014 NOSIG
ZBYN,2003-10-08 01:00,ZBYN 080100Z 18001MPS 1600 BR NSC 11/09 Q1014 NOSIG
ZBYN,2003-10-08 02:00,ZBYN 080200Z 16001MPS 3000 BR NSC 13/09 Q1014 NOSIG
ZBYN,2003-10-08 03:00,ZBYN 080300Z 20002MPS 5000 HZ NSC 14/08 Q1014 NOSIG
ZBYN,2003-10-08 04:00,ZBYN 080400Z 24001MPS 6000 NSC 16/09 Q1013 NOSIG
ZBYN,2003-10-08 05:00,ZBYN 080500Z VRB01MPS 7000 NSC 17/09 Q1012 NOSIG
ZBYN,2003-10-08 06:00,ZBYN 080600Z VRB01MPS 8000 NSC 19/09 Q1011 NOSIG
ZBYN,2003-10-08 07:00,ZBYN 080700Z VRB01MPS CAVOK 19/08 Q1010 NOSIG
ZBYN,2003-10-08 08:00,ZBYN 080800Z 00000MPS CAVOK 20/07 Q1010 NOSIG
ZBYN,2003-10-08 09:00,ZBYN 080900Z 32001MPS CAVOK 19/08 Q1011 NOSIG
ZBYN,2003-10-08 10:00,ZBYN 081000Z 27001MPS CAVOK 17/10 Q1011 NOSIG
ZBYN,2003-10-08 11:00,ZBYN 081100Z 07001MPS CAVOK 14/10 Q1011 NOSIG
ZBYN,2003-10-08 12:00,ZBYN 081200Z 07002MPS 8000 NSC 14/10 Q1012 NOSIG
ZBYN,2003-10-08 13:00,ZBYN 081300Z 09004MPS 3000 HZ NSC 15/10 Q1013 NOSIG
ZBYN,2003-10-08 14:00,ZBYN 081400Z 13002MPS 2500 HZ NSC 13/10 Q1014 NOSIG
ZBYN,2003-10-08 15:00,ZBYN 081500Z 10004MPS 2500 HZ NSC 14/10 Q1015 NOSIG
ZBYN,2003-10-08 16:00,ZBYN 081600Z 08004MPS 3000 HZ NSC 14/10 Q1015 NOSIG
ZBYN,2003-10-08 17:00,ZBYN 081700Z 07004MPS 5000 HZ NSC 14/09 Q1015
ZBYN,2003-10-08 18:00,ZBYN 081800Z 09004MPS 4000 HZ NSC 13/09 Q1015
ZBYN,2003-10-08 19:00,ZBYN 081900Z 08005MPS 5000 HZ NSC 13/09 Q1014
ZBYN,2003-10-08 20:00,ZBYN 082000Z 09003MPS 6000 NSC 13/09 Q1014
ZBYN,2003-10-08 21:00,ZBYN 082100Z 06001MPS 6000 NSC 13/09 Q1015
ZBYN,2003-10-08 22:00,ZBYN 082200Z 01001MPS 3000 BR NSC 13/10 Q1015 NOSIG
ZBYN,2003-10-08 23:00,ZBYN 082300Z VRB01MPS 2000 R31/1100N BR NSC 13/10 Q1015 NOSIG
ZBYN,2003-10-09 00:00,ZBYN 090000Z VRB01MPS 2000 BR NSC 13/10 Q1016 NOSIG
ZBYN,2003-10-09 01:00,ZBYN 090100Z 11001MPS 2000 BR NSC 14/10 Q1015 NOSIG
ZBYN,2003-10-09 02:00,ZBYN 090200Z 12002MPS 2000 BR NSC 14/11 Q1016 NOSIG
ZBYN,2003-10-09 03:00,ZBYN 090300Z 10001MPS 2000 -RA BR NSC 14/11 Q1016 NOSIG
ZBYN,2003-10-09 04:00,ZBYN 090400Z VRB01MPS 3000 BR NSC 14/11 Q1016 NOSIG
ZBYN,2003-10-09 05:00,ZBYN 090500Z 00000MPS 4000 BR BKN033 OVC100 15/11 Q1015 NOSIG
ZBYN,2003-10-09 06:00,ZBYN 090600Z VRB01MPS 6000 NSC 16/11 Q1015 NOSIG
ZBYN,2003-10-09 07:00,ZBYN 090700Z 11001MPS 8000 NSC 16/11 Q1015 NOSIG
ZBYN,2003-10-09 08:00,ZBYN 090800Z VRB01MPS 7000 NSC 16/11 Q1015 NOSIG
ZBYN,2003-10-09 09:00,ZBYN 090900Z 14001MPS 6000 NSC 16/11 Q1015 NOSIG
ZBYN,2003-10-09 10:00,ZBYN 091000Z 00000MPS 5000 BR NSC 15/11 Q1016 NOSIG
ZBYN,2003-10-09 11:00,ZBYN 091100Z 00000MPS 5000 BR NSC 14/12 Q1016 NOSIG
ZBYN,2003-10-09 12:00,ZBYN 091200Z 06001MPS 6000 NSC 13/11 Q1016 NOSIG
ZBYN,2003-10-09 13:00,ZBYN 091300Z 07001MPS 6000 NSC 13/11 Q1017 NOSIG
ZBYN,2003-10-09 14:00,ZBYN 091400Z 10001MPS 4000 BR NSC 13/11 Q1017 NOSIG
ZBYN,2003-10-09 15:00,ZBYN 091500Z VRB01MPS 5000 BR NSC 13/11 Q1017 NOSIG
ZBYN,2003-10-09 16:00,ZBYN 091600Z VRB01MPS 2500 R31/1400 BR NSC 12/11 Q1017 NOSIG
ZBYN,2003-10-09 17:00,ZBYN 091700Z 00000MPS 2100 R31/1300 BR NSC 12/11 Q1017
ZBYN,2003-10-09 18:00,ZBYN 091800Z 17001MPS 2100 BR NSC 12/11 Q1017
ZBYN,2003-10-09 19:00,ZBYN 091900Z 05001MPS 3000 BR NSC 12/11 Q1017
ZBYN,2003-10-09 20:00,ZBYN 092000Z 00000MPS 2000 R31/1200N BR NSC 12/10 Q1016
ZBYN,2003-10-09 21:00,ZBYN 092100Z 32001MPS 2000 BR NSC 12/10 Q1017
ZBYN,2003-10-09 22:00,ZBYN 092200Z 07001MPS 1700 R31/0800D BR NSC 11/10 Q1017 NOSIG
ZBYN,2003-10-09 23:00,ZBYN 092300Z 05003MPS 3000 BR NSC 13/10 Q1016 NOSIG
ZBYN,2003-10-10 00:00,ZBYN 100000Z 07004MPS 3000 -RA BR NSC 14/10 Q1017 NOSIG
ZBYN,2003-10-10 01:00,ZBYN 100100Z 08004MPS 3000 -RA BR BKN040 OVC100 13/10 Q1017 NOSIG
ZBYN,2003-10-10 02:00,ZBYN 100200Z 08004MPS 3000 -RA BR BKN033 OVC100 13/11 Q1018 NOSIG
ZBYN,2003-10-10 03:00,ZBYN 100300Z 09003MPS 4000 -RA BR BKN033 OVC100 13/11 Q1017 NOSIG
ZBYN,2003-10-10 04:00,ZBYN 100400Z 08004MPS 6000 -RA SCT020 OVC100 12/10 Q1016 NOSIG
ZBYN,2003-10-10 05:00,ZBYN 100500Z 08003MPS 8000 -RA FEW020 BKN033 OVC100 12/11 Q1016 NOSIG
ZBYN,2003-10-10 06:00,ZBYN 100600Z 09004MPS 9999 RA FEW020 BKN040 OVC100 12/11 Q1015 NOSIG
ZBYN,2003-10-10 07:00,ZBYN 100700Z 08004MPS 9999 -RA BKN040 OVC100 12/11 Q1015 NOSIG
ZBYN,2003-10-10 08:00,ZBYN 100800Z 06001MPS 9999 -RA FEW020 BKN040 OVC100 13/11 Q1015 NOSIG
ZBYN,2003-10-10 09:00,ZBYN 100900Z 05002MPS 9999 -RA SCT020 BKN040 OVC100 12/10 Q1014 NOSIG
ZBYN,2003-10-10 10:00,ZBYN 101000Z 07003MPS 9999 -RA FEW020 BKN040 OVC100 12/10 Q1015 NOSIG
ZBYN,2003-10-10 11:00,ZBYN 101100Z 06003MPS 9999 RA BKN020 OVC100 11/09 Q1015 NOSIG
ZBYN,2003-10-10 12:00,ZBYN 101200Z 06002MPS 9999 -RA SCT020 OVC050 11/09 Q1016 NOSIG
ZBYN,2003-10-10 13:00,ZBYN 101300Z 04004MPS 9999 RA SCT020 OVC050 11/08 Q1016 NOSIG
ZBYN,2003-10-10 14:00,ZBYN 101400Z 06002MPS 9999 RA BKN020 OVC050 10/08 Q1017 NOSIG
ZBYN,2003-10-10 15:00,ZBYN 101500Z 36001MPS 9999 -RA BKN020 OVC050 10/09 Q1016 NOSIG
ZBYN,2003-10-10 16:00,ZBYN 101600Z 00000MPS 9999 -RA OVC030 10/09 Q1016 NOSIG
ZBYN,2003-10-10 17:00,ZBYN 101700Z 01001MPS 6000 -RA OVC030 11/10 Q1016
ZBYN,2003-10-10 18:00,ZBYN 101800Z 01001MPS 6000 -RA OVC030 10/09 Q1016
ZBYN,2003-10-10 19:00,ZBYN 101900Z 36002MPS 8000 -RA OVC030 10/09 Q1015
ZBYN,2003-10-10 20:00,ZBYN 102000Z 34001MPS 8000 -RA OVC030 10/09 Q1015
ZBYN,2003-10-10 21:00,ZBYN 102100Z 08002MPS 9999 -RA OVC030 10/08 Q1015
ZBYN,2003-10-10 22:00,ZBYN 102200Z 06001MPS 9999 -RA OVC030 10/08 Q1015 NOSIG
ZBYN,2003-10-10 23:00,ZBYN 102300Z 08001MPS 9999 -RA BKN020 OVC033 09/08 Q1015 NOSIG
ZBYN,2003-10-11 00:00,ZBYN 110000Z 11003MPS 9999 -RA BKN020 OVC033 09/07 Q1017 NOSIG
ZBYN,2003-10-11 01:00,ZBYN 110100Z 09003MPS 9999 -RA FEW026 OVC050 08/06 Q1017 NOSIG
ZBYN,2003-10-11 02:00,ZBYN 110200Z 08004MPS 9999 SCT020 OVC050 09/07 Q1016 NOSIG
ZBYN,2003-10-11 03:00,ZBYN 110300Z 09004MPS 9999 SCT020 OVC050 10/06 Q1016 NOSIG
ZBYN,2003-10-11 04:00,ZBYN 110400Z 09005MPS 9999 BKN026 OVC083 10/06 Q1017 NOSIG
ZBYN,2003-10-11 05:00,ZBYN 110500Z 10005MPS 9999 BKN026 OVC100 10/06 Q1017 NOSIG
ZBYN,2003-10-11 06:00,ZBYN 110600Z 10003MPS 9999 BKN040 OVC100 09/06 Q1017 NOSIG
ZBYN,2003-10-11 07:00,ZBYN 110700Z 10003MPS 9999 BKN026 OVC100 10/06 Q1016 NOSIG
ZBYN,2003-10-11 08:00,ZBYN 110800Z 10003MPS 9999 BKN026 OVC100 09/06 Q1017 NOSIG
ZBYN,2003-10-11 09:00,ZBYN 110900Z 10006MPS 9999 BKN026 OVC100 09/05 Q1017 NOSIG
ZBYN,2003-10-11 10:00,ZBYN 111000Z 10006MPS 9999 BKN026 OVC100 08/05 Q1018 NOSIG
ZBYN,2003-10-11 11:00,ZBYN 111100Z 10005MPS 9999 BKN040 OVC100 08/05 Q1019 NOSIG
ZBYN,2003-10-11 12:00,ZBYN 111200Z 09004MPS CAVOK 08/04 Q1019 NOSIG
ZBYN,2003-10-11 13:00,ZBYN 111300Z 08004MPS CAVOK 08/04 Q1019 NOSIG
ZBYN,2003-10-11 14:00,ZBYN 111400Z 06002MPS CAVOK 08/04 Q1020 NOSIG
ZBYN,2003-10-11 15:00,ZBYN 111500Z 08004MPS 9999 -RA BKN026 OVC040 06/04 Q1020 NOSIG
ZBYN,2003-10-11 16:00,ZBYN 111600Z 10003MPS 9999 -RA BKN023 OVC040 06/04 Q1021 NOSIG
ZBYN,2003-10-11 17:00,ZBYN 111700Z 11004MPS 9999 -RA OVC020 05/04 Q1022
ZBYN,2003-10-11 18:00,ZBYN 111800Z 11004MPS 9999 -RA OVC020 05/04 Q1022
ZBYN,2003-10-11 19:00,ZBYN 111900Z 11005MPS 9999 -RA BKN020 OVC100 05/04 Q1021
ZBYN,2003-10-11 20:00,ZBYN 112000Z 08003MPS 9999 -RA BKN020 OVC100 05/04 Q1020
ZBYN,2003-10-11 21:00,ZBYN 112100Z 09003MPS 9999 -RA BKN020 OVC100 05/03 Q1021
ZBYN,2003-10-11 22:00,ZBYN 112200Z 09003MPS 9999 BKN020 BKN100 05/03 Q1020 NOSIG
ZBYN,2003-10-11 23:00,ZBYN 112300Z 09002MPS 9999 BKN020 06/03 Q1021 NOSIG
ZBYN,2003-10-12 00:00,ZBYN 120000Z 09003MPS 9999 OVC026 06/03 Q1023 NOSIG
ZBYN,2003-10-12 01:00,ZBYN 120100Z 10002MPS CAVOK 06/03 Q1024 NOSIG
ZBYN,2003-10-12 01:30,ZBYN 120130Z 07003MPS CAVOK 06/03 Q1025 NOSIG
ZBYN,2003-10-12 02:00,ZBYN 120200Z 07004MPS CAVOK 06/02 Q1025 NOSIG
ZBYN,2003-10-12 02:30,ZBYN 120230Z 06003MPS CAVOK 06/03 Q1025 NOSIG
ZBYN,2003-10-12 03:00,ZBYN 120300Z 09005MPS 9999 OVC026 06/02 Q1024 NOSIG
ZBYN,2003-10-12 04:00,ZBYN 120400Z 08005MPS 9999 OVC033 06/01 Q1024 NOSIG
ZBYN,2003-10-12 05:00,ZBYN 120500Z 09005MPS CAVOK 06/01 Q1025 NOSIG
ZBYN,2003-10-12 06:00,ZBYN 120600Z 10005MPS CAVOK 06/01 Q1024 NOSIG
ZBYN,2003-10-12 07:00,ZBYN 120700Z 08005MPS CAVOK 05/01 Q1025 NOSIG
ZBYN,2003-10-12 08:00,ZBYN 120800Z 09005MPS 9999 OVC040 05/01 Q1025 NOSIG
ZBYN,2003-10-12 09:00,ZBYN 120900Z 10006MPS 9999 OVC040 04/01 Q1025 NOSIG
ZBYN,2003-10-12 10:00,ZBYN 121000Z 10004MPS 9999 OVC040 04/01 Q1026 NOSIG
ZBYN,2003-10-12 11:00,ZBYN 121100Z 10003MPS 9999 -RA OVC040 04/01 Q1027 NOSIG
ZBYN,2003-10-12 12:00,ZBYN 121200Z 10003MPS 9999 -RA OVC033 03/01 Q1028 NOSIG
ZBYN,2003-10-12 13:00,ZBYN 121300Z 13003MPS 9999 -RA OVC040 02/01 Q1029 NOSIG
ZBYN,2003-10-12 14:00,ZBYN 121400Z 13002MPS 9999 -RA OVC040 02/01 Q1029 NOSIG
ZBYN,2003-10-12 15:00,ZBYN 121500Z 32002MPS 9999 -RA OVC040 02/01 Q1030 NOSIG
ZBYN,2003-10-12 16:00,ZBYN 121600Z 30001MPS 9999 -RA OVC040 03/01 Q1029 NOSIG
ZBYN,2003-10-12 17:00,ZBYN 121700Z 29001MPS 8000 -RA OVC040 03/02 Q1029 NOSIG
ZBYN,2003-10-12 18:00,ZBYN 121800Z 27001MPS 8000 NSC 03/02 Q1029
ZBYN,2003-10-12 19:00,ZBYN 121900Z 19001MPS 6000 NSC 03/02 Q1028
ZBYN,2003-10-12 20:00,ZBYN 122000Z 00000MPS 4000 BR NSC 03/02 Q1028
ZBYN,2003-10-12 21:00,ZBYN 122100Z 12001MPS 5000 BR NSC 03/02 Q1028
ZBYN,2003-10-12 22:00,ZBYN 122200Z 00000MPS 5000 BR NSC 03/02 Q1029 NOSIG
ZBYN,2003-10-12 23:00,ZBYN 122300Z 13001MPS 6000 NSC 03/02 Q1029 NOSIG
ZBYN,2003-10-13 00:00,ZBYN 130000Z 00000MPS 8000 OVC046 04/02 Q1029 NOSIG
ZBYN,2003-10-13 01:00,ZBYN 130100Z 23001MPS 9999 OVC040 04/02 Q1030 NOSIG
ZBYN,2003-10-13 02:00,ZBYN 130200Z 00000MPS 6000 NSC 05/02 Q1030 NOSIG
ZBYN,2003-10-13 03:00,ZBYN 130300Z 00000MPS CAVOK 07/01 Q1029 NOSIG
ZBYN,2003-10-13 04:00,ZBYN 130400Z 22001MPS CAVOK 09/01 Q1028 NOSIG
ZBYN,2003-10-13 05:00,ZBYN 130500Z VRB01MPS CAVOK 10/02 Q1027 NOSIG
ZBYN,2003-10-13 06:00,ZBYN 130600Z 21002MPS 8000 SKC 11/03 Q1026 NOSIG
ZBYN,2003-10-13 07:00,ZBYN 130700Z 18002MPS CAVOK 12/03 Q1026 NOSIG
ZBYN,2003-10-13 08:00,ZBYN 130800Z 21003MPS CAVOK 12/03 Q1025 NOSIG
ZBYN,2003-10-13 09:00,ZBYN 130900Z 22002MPS CAVOK 11/04 Q1025 NOSIG
ZBYN,2003-10-13 10:00,ZBYN 131000Z 20002MPS CAVOK 10/04 Q1025 NOSIG
ZBYN,2003-10-13 11:00,ZBYN 131100Z 22001MPS CAVOK 09/04 Q1026 NOSIG
ZBYN,2003-10-13 12:00,ZBYN 131200Z 00000MPS CAVOK 06/04 Q1027 NOSIG
ZBYN,2003-10-13 13:00,ZBYN 131300Z 26002MPS CAVOK 09/M00 Q1027 NOSIG
ZBYN,2003-10-13 14:00,ZBYN 131400Z 26002MPS CAVOK 08/M01 Q1028 NOSIG
ZBYN,2003-10-13 15:00,ZBYN 131500Z 31004MPS CAVOK 07/M05 Q1028 NOSIG
ZBYN,2003-10-13 16:00,ZBYN 131600Z 31008MPS CAVOK 06/M09 Q1029 NOSIG
ZBYN,2003-10-13 17:00,ZBYN 131700Z 31006MPS CAVOK 05/M07 Q1030
ZBYN,2003-10-13 18:00,ZBYN 131800Z 30003MPS CAVOK 04/M06 Q1031
ZBYN,2003-10-13 19:00,ZBYN 131900Z 27002MPS CAVOK 03/M06 Q1031
ZBYN,2003-10-13 20:00,ZBYN 132000Z 28002MPS CAVOK 02/M05 Q1030
ZBYN,2003-10-13 21:00,ZBYN 132100Z 08001MPS CAVOK M00/M04 Q1031 NOSIG
ZBYN,2003-10-13 22:00,ZBYN 132200Z 00000MPS CAVOK M02/M04 Q1032 NOSIG
ZBYN,2003-10-13 23:00,ZBYN 132300Z 31003MPS CAVOK M01/M05 Q1032 NOSIG
ZBYN,2003-10-14 00:00,ZBYN 140000Z 34003MPS CAVOK 03/M06 Q1033 NOSIG
ZBYN,2003-10-14 01:00,ZBYN 140100Z 30003MPS CAVOK 05/M07 Q1033 NOSIG
ZBYN,2003-10-14 02:00,ZBYN 140200Z 31004MPS CAVOK 07/M08 Q1033 NOSIG
ZBYN,2003-10-14 03:00,ZBYN 140300Z 31004MPS CAVOK 08/M08 Q1032 NOSIG
ZBYN,2003-10-14 04:00,ZBYN 140400Z 31004MPS CAVOK 10/M07 Q1031 NOSIG
ZBYN,2003-10-14 05:00,ZBYN 140500Z 29004MPS CAVOK 11/M08 Q1030 NOSIG
ZBYN,2003-10-14 06:00,ZBYN 140600Z 30004MPS CAVOK 12/M09 Q1029 NOSIG
ZBYN,2003-10-14 07:00,ZBYN 140700Z 30003MPS CAVOK 13/M10 Q1028 NOSIG
ZBYN,2003-10-14 08:00,ZBYN 140800Z 29003MPS CAVOK 13/M09 Q1027 NOSIG
ZBYN,2003-10-14 09:00,ZBYN 140900Z 29002MPS CAVOK 12/M07 Q1027 NOSIG
ZBYN,2003-10-14 10:00,ZBYN 141000Z 29003MPS CAVOK 09/M05 Q1027 NOSIG
ZBYN,2003-10-14 11:00,ZBYN 141100Z 29003MPS CAVOK 08/M07 Q1028 NOSIG
ZBYN,2003-10-14 12:00,ZBYN 141200Z 28002MPS CAVOK 06/M06 Q1028 NOSIG
ZBYN,2003-10-14 13:00,ZBYN 141300Z 30002MPS CAVOK 06/M06 Q1029 NOSIG
ZBYN,2003-10-14 14:00,ZBYN 141400Z 31002MPS CAVOK 04/M05 Q1029 NOSIG
ZBYN,2003-10-14 15:00,ZBYN 141500Z 30002MPS CAVOK 05/M06 Q1029 NOSIG
ZBYN,2003-10-14 16:00,ZBYN 141600Z 08001MPS CAVOK 03/M04 Q1029 NOSIG
ZBYN,2003-10-14 17:00,ZBYN 141700Z VRB01MPS CAVOK 00/M04 Q1029 NOSIG
ZBYN,2003-10-14 18:00,ZBYN 141800Z 00000MPS CAVOK M01/M04 Q1029
ZBYN,2003-10-14 19:00,ZBYN 141900Z 25002MPS CAVOK 01/M04 Q1028
ZBYN,2003-10-14 20:00,ZBYN 142000Z 30002MPS CAVOK M00/M06 Q1028
ZBYN,2003-10-14 21:00,ZBYN 142100Z 05001MPS CAVOK M02/M05 Q1028
ZBYN,2003-10-14 22:00,ZBYN 142200Z 16001MPS CAVOK M03/M05 Q1027 NOSIG
ZBYN,2003-10-14 23:00,ZBYN 142300Z 00000MPS CAVOK M01/M07 Q1028 NOSIG
ZBYN,2003-10-15 00:00,ZBYN 150000Z 20002MPS CAVOK 02/M07 Q1028 NOSIG
ZBYN,2003-10-15 01:00,ZBYN 150100Z 24001MPS CAVOK 05/M06 Q1028 NOSIG
ZBYN,2003-10-15 02:00,ZBYN 150200Z VRB01MPS CAVOK 07/M07 Q1028 NOSIG
ZBYN,2003-10-15 03:00,ZBYN 150300Z 17002MPS CAVOK 09/M07 Q1027 NOSIG
ZBYN,2003-10-15 04:00,ZBYN 150400Z 26002MPS CAVOK 11/M07 Q1026 NOSIG
ZBYN,2003-10-15 05:00,ZBYN 150500Z VRB01MPS CAVOK 12/M07 Q1024 NOSIG
ZBYN,2003-10-15 06:00,ZBYN 150600Z VRB01MPS CAVOK 13/M10 Q1023 NOSIG
ZBYN,2003-10-15 07:00,ZBYN 150700Z 17002MPS CAVOK 14/M09 Q1023 NOSIG
ZBYN,2003-10-15 08:00,ZBYN 150800Z 24002MPS CAVOK 14/M09 Q1022 NOSIG
ZBYN,2003-10-15 09:00,ZBYN 150900Z 24002MPS CAVOK 13/M09 Q1022 NOSIG
ZBYN,2003-10-15 10:00,ZBYN 151000Z 29003MPS CAVOK 11/M08 Q1022 NOSIG
ZBYN,2003-10-15 11:00,ZBYN 151100Z 31005MPS CAVOK 09/M09 Q1024 NOSIG
ZBYN,2003-10-15 12:00,ZBYN 151200Z 33005MPS CAVOK 09/M09 Q1024 NOSIG
ZBYN,2003-10-15 13:00,ZBYN 151300Z 33005MPS CAVOK 08/M08 Q1025 NOSIG
ZBYN,2003-10-15 14:00,ZBYN 151400Z 03001MPS CAVOK 05/M05 Q1025 NOSIG
ZBYN,2003-10-15 15:00,ZBYN 151500Z 36001MPS CAVOK 04/M04 Q1026 NOSIG
ZBYN,2003-10-15 16:00,ZBYN 151600Z 00000MPS CAVOK 02/M04 Q1026 NOSIG
ZBYN,2003-10-15 17:00,ZBYN 151700Z 00000MPS CAVOK 00/M04 Q1026 NOSIG
ZBYN,2003-10-15 18:00,ZBYN 151800Z 00000MPS CAVOK M00/M03 Q1026
ZBYN,2003-10-15 19:00,ZBYN 151900Z 13002MPS CAVOK M01/M04 Q1026
ZBYN,2003-10-15 20:00,ZBYN 152000Z 00000MPS CAVOK M00/M03 Q1026
ZBYN,2003-10-15 21:00,ZBYN 152100Z 13001MPS CAVOK M01/M04 Q1026
ZBYN,2003-10-15 22:00,ZBYN 152200Z 10001MPS CAVOK M03/M04 Q1027 NOSIG
ZBYN,2003-10-15 23:00,ZBYN 152300Z 09001MPS CAVOK M02/M04 Q1027 NOSIG
ZBYN,2003-10-16 00:00,ZBYN 160000Z 11001MPS CAVOK 01/M03 Q1028 NOSIG
ZBYN,2003-10-16 01:00,ZBYN 160100Z 00000MPS 6000 SKC 04/M04 Q1028 NOSIG
ZBYN,2003-10-16 02:00,ZBYN 160200Z 19001MPS 7000 SKC 07/M06 Q1028 NOSIG
ZBYN,2003-10-16 03:00,ZBYN 160300Z 18001MPS CAVOK 09/M06 Q1027 NOSIG
ZBYN,2003-10-16 04:00,ZBYN 160400Z VRB01MPS CAVOK 11/M06 Q1026 NOSIG
ZBYN,2003-10-16 05:00,ZBYN 160500Z VRB01MPS CAVOK 13/M05 Q1024 NOSIG
ZBYN,2003-10-16 06:00,ZBYN 160600Z 21002MPS CAVOK 14/M05 Q1023 NOSIG
ZBYN,2003-10-16 07:00,ZBYN 160700Z 20003MPS CAVOK 15/M05 Q1022 NOSIG
ZBYN,2003-10-16 08:00,ZBYN 160800Z 22002MPS CAVOK 15/M05 Q1021 NOSIG
ZBYN,2003-10-16 09:00,ZBYN 160900Z 23002MPS CAVOK 14/M04 Q1021 NOSIG
ZBYN,2003-10-16 10:00,ZBYN 161000Z 16001MPS CAVOK 11/M02 Q1021 NOSIG
ZBYN,2003-10-16 11:00,ZBYN 161100Z 15001MPS CAVOK 10/M02 Q1021 NOSIG
ZBYN,2003-10-16 12:00,ZBYN 161200Z 13002MPS CAVOK 06/00 Q1021 NOSIG
ZBYN,2003-10-16 13:00,ZBYN 161300Z 14002MPS CAVOK 05/M00 Q1022 NOSIG
ZBYN,2003-10-16 14:00,ZBYN 161400Z 00000MPS CAVOK 04/00 Q1023 NOSIG
ZBYN,2003-10-16 15:00,ZBYN 161500Z 13001MPS CAVOK 04/M00 Q1023 NOSIG
ZBYN,2003-10-16 16:00,ZBYN 161600Z 00000MPS CAVOK 03/M00 Q1023 NOSIG
ZBYN,2003-10-16 17:00,ZBYN 161700Z 12001MPS CAVOK 01/M01 Q1023
ZBYN,2003-10-16 18:00,ZBYN 161800Z 10001MPS CAVOK 01/M01 Q1023
ZBYN,2003-10-16 19:00,ZBYN 161900Z 10001MPS CAVOK 01/M02 Q1022
ZBYN,2003-10-16 20:00,ZBYN 162000Z 10001MPS 6000 SKC 00/M02 Q1022
ZBYN,2003-10-16 21:00,ZBYN 162100Z 11001MPS 6000 SKC M01/M02 Q1022
ZBYN,2003-10-16 22:00,ZBYN 162200Z 12002MPS 6000 SKC M01/M03 Q1023 NOSIG
ZBYN,2003-10-16 23:00,ZBYN 162300Z 11001MPS 6000 SKC M01/M02 Q1023 NOSIG
ZBYN,2003-10-17 00:00,ZBYN 170000Z 12002MPS 4000 BR SKC 01/M01 Q1024 NOSIG
ZBYN,2003-10-17 01:00,ZBYN 170100Z VRB01MPS 5000 BR SKC 05/00 Q1024 NOSIG
ZBYN,2003-10-17 02:00,ZBYN 170200Z 16001MPS 7000 SKC 08/M01 Q1024 NOSIG
ZBYN,2003-10-17 03:00,ZBYN 170300Z VRB01MPS CAVOK 11/M03 Q1023 NOSIG
ZBYN,2003-10-17 04:00,ZBYN 170400Z 21001MPS CAVOK 13/M05 Q1023 NOSIG
ZBYN,2003-10-17 05:00,ZBYN 170500Z VRB01MPS CAVOK 15/M08 Q1021 NOSIG
ZBYN,2003-10-17 06:00,ZBYN 170600Z 15001MPS CAVOK 16/M08 Q1021 NOSIG
ZBYN,2003-10-17 07:00,ZBYN 170700Z VRB01MPS CAVOK 17/M10 Q1020 NOSIG
ZBYN,2003-10-17 08:00,ZBYN 170800Z VRB01MPS CAVOK 18/M10 Q1020 NOSIG
ZBYN,2003-10-17 09:00,ZBYN 170900Z 22001MPS CAVOK 16/M04 Q1020 NOSIG
ZBYN,2003-10-17 10:00,ZBYN 171000Z 13001MPS CAVOK 11/M02 Q1021 NOSIG
ZBYN,2003-10-17 11:00,ZBYN 171100Z 06002MPS CAVOK 09/M00 Q1022 NOSIG
ZBYN,2003-10-17 12:00,ZBYN 171200Z 00000MPS CAVOK 07/M01 Q1023 NOSIG
ZBYN,2003-10-17 13:00,ZBYN 171300Z 32001MPS CAVOK 10/M05 Q1024 NOSIG
ZBYN,2003-10-17 14:00,ZBYN 171400Z 00000MPS CAVOK 07/M03 Q1025 NOSIG
ZBYN,2003-10-17 15:00,ZBYN 171500Z 02003MPS CAVOK 06/M02 Q1025 NOSIG
ZBYN,2003-10-17 16:00,ZBYN 171600Z 31003MPS CAVOK 05/M03 Q1026 NOSIG
ZBYN,2003-10-17 17:00,ZBYN 171700Z 13002MPS CAVOK 02/M03 Q1026
ZBYN,2003-10-17 18:00,ZBYN 171800Z 09001MPS CAVOK M01/M03 Q1027
ZBYN,2003-10-17 19:00,ZBYN 171900Z VRB01MPS CAVOK 01/M02 Q1027
ZBYN,2003-10-17 20:00,ZBYN 172000Z 00000MPS CAVOK 00/M03 Q1027
ZBYN,2003-10-17 21:00,ZBYN 172100Z 12002MPS CAVOK M01/M03 Q1027
ZBYN,2003-10-17 22:00,ZBYN 172200Z 12001MPS CAVOK M01/M03 Q1027 NOSIG
ZBYN,2003-10-17 23:00,ZBYN 172300Z 00000MPS CAVOK M00/M03 Q1028 NOSIG
ZBYN,2003-10-18 00:00,ZBYN 180000Z 00000MPS CAVOK 02/M01 Q1028 NOSIG
ZBYN,2003-10-18 01:00,ZBYN 180100Z VRB01MPS 7000 SKC 06/M01 Q1029 NOSIG
ZBYN,2003-10-18 02:00,ZBYN 180200Z VRB01MPS 7000 SKC 09/M02 Q1029 NOSIG
ZBYN,2003-10-18 03:00,ZBYN 180300Z 00000MPS CAVOK 12/M02 Q1028 NOSIG
ZBYN,2003-10-18 04:00,ZBYN 180400Z 09001MPS CAVOK 14/M04 Q1027 NOSIG
ZBYN,2003-10-18 05:00,ZBYN 180500Z 18001MPS CAVOK 15/M06 Q1026 NOSIG
ZBYN,2003-10-18 06:00,ZBYN 180600Z 24002MPS CAVOK 17/M06 Q1024 NOSIG
ZBYN,2003-10-18 07:00,ZBYN 180700Z 24002MPS CAVOK 17/M06 Q1024 NOSIG
ZBYN,2003-10-18 08:00,ZBYN 180800Z VRB01MPS CAVOK 16/M07 Q1023 NOSIG
ZBYN,2003-10-18 09:00,ZBYN 180900Z 23001MPS CAVOK 15/M05 Q1023 NOSIG
ZBYN,2003-10-18 10:00,ZBYN 181000Z 00000MPS CAVOK 12/M02 Q1023 NOSIG
ZBYN,2003-10-18 11:00,ZBYN 181100Z 09002MPS CAVOK 07/01 Q1023 NOSIG
ZBYN,2003-10-18 12:00,ZBYN 181200Z 11002MPS CAVOK 05/01 Q1024 NOSIG
ZBYN,2003-10-18 13:00,ZBYN 181300Z 12002MPS CAVOK 05/M00 Q1024 NOSIG
ZBYN,2003-10-18 14:00,ZBYN 181400Z 10001MPS CAVOK 04/M00 Q1025 NOSIG
ZBYN,2003-10-18 15:00,ZBYN 181500Z 09001MPS CAVOK 04/M01 Q1024 NOSIG
ZBYN,2003-10-18 16:00,ZBYN 181600Z 12001MPS CAVOK 03/M02 Q1025 NOSIG
ZBYN,2003-10-18 17:00,ZBYN 181700Z 11001MPS CAVOK 03/M01 Q1025
ZBYN,2003-10-18 18:00,ZBYN 181800Z 14002MPS CAVOK 03/M01 Q1025
ZBYN,2003-10-18 19:00,ZBYN 181900Z 00000MPS CAVOK 04/M00 Q1024
ZBYN,2003-10-18 20:00,ZBYN 182000Z 00000MPS CAVOK 02/M00 Q1024
ZBYN,2003-10-18 21:00,ZBYN 182100Z 00000MPS CAVOK 01/M01 Q1024
ZBYN,2003-10-18 22:00,ZBYN 182200Z 12001MPS CAVOK 02/00 Q1023 NOSIG
ZBYN,2003-10-18 23:00,ZBYN 182300Z VRB01MPS 7000 NSC 03/00 Q1023 NOSIG
ZBYN,2003-10-19 00:00,ZBYN 190000Z 00000MPS 5000 BR NSC 04/02 Q1024 NOSIG
ZBYN,2003-10-19 01:00,ZBYN 190100Z 11001MPS 4000 BR NSC 06/02 Q1024 NOSIG
ZBYN,2003-10-19 02:00,ZBYN 190200Z 00000MPS 4000 BR NSC 07/02 Q1023 NOSIG
ZBYN,2003-10-19 03:00,ZBYN 190300Z 00000MPS 4000 FU NSC 08/01 Q1023 NOSIG
ZBYN,2003-10-19 04:00,ZBYN 190400Z 00000MPS 5000 FU NSC 09/02 Q1022 NOSIG
ZBYN,2003-10-19 05:00,ZBYN 190500Z 16002MPS 3000 FU NSC 09/02 Q1021 NOSIG
ZBYN,2003-10-19 06:00,ZBYN 190600Z 00000MPS 2500 FU NSC 10/02 Q1021 NOSIG
ZBYN,2003-10-19 07:00,ZBYN 190700Z 14001MPS 2000 -RA FU NSC 10/03 Q1021 NOSIG
ZBYN,2003-10-19 08:00,ZBYN 190800Z 12001MPS 2000 -RA FU NSC 09/04 Q1020 NOSIG
ZBYN,2003-10-19 09:00,ZBYN 190900Z 18001MPS 3000 -RA FU NSC 09/04 Q1020 NOSIG
ZBYN,2003-10-19 10:00,ZBYN 191000Z 23002MPS 3000 -RA BR OVC040 07/05 Q1020 NOSIG
ZBYN,2003-10-19 11:00,ZBYN 191100Z 25003MPS 3000 BR OVC040 07/05 Q1020 NOSIG
ZBYN,2003-10-19 12:00,ZBYN 191200Z 24002MPS 1700 R31/1000N BR FEW016 OVC040 07/05 Q1021 NOSIG
ZBYN,2003-10-19 13:00,ZBYN 191300Z 23002MPS 1700 BR FEW016 OVC050 06/05 Q1021 NOSIG
ZBYN,2003-10-19 14:00,ZBYN 191400Z 00000MPS 1900 BR NSC 06/04 Q1021 NOSIG
ZBYN,2003-10-19 15:00,ZBYN 191500Z 12001MPS 0900 R31/1200 FG NSC 03/02 Q1021 NOSIG
ZBYN,2003-10-19 16:00,ZBYN 191600Z 00000MPS 1000 R31/P1500 BR SKC 03/02 Q1020 NOSIG
ZBYN,2003-10-19 17:00,ZBYN 191700Z 00000MPS 1100 R31/1400 BR SKC 03/02 Q1020
ZBYN,2003-10-19 18:00,ZBYN 191800Z 11001MPS 0600 R31/0050 FG SKC 01/M00 Q1019
ZBYN,2003-10-19 19:00,ZBYN 191900Z 10001MPS 0500 R31/M0050N FG SKC 01/M00 Q1019
ZBYN,2003-10-19 20:00,ZBYN 192000Z 11001MPS 0200 R31/M0050 FG SKC 00/M01 Q1018
ZBYN,2003-10-19 21:00,ZBYN 192100Z 13001MPS 1600 BR SKC 01/M00 Q1018 NOSIG
ZBYN,2003-10-19 22:00,ZBYN 192200Z 10001MPS 2000 R31/0750N BR SKC M00/M01 Q1018 NOSIG
ZBYN,2003-10-19 23:00,ZBYN 192300Z 12001MPS 1400 R31/1100 BR SKC 01/M00 Q1018 NOSIG
ZBYN,2003-10-20 00:00,ZBYN 200000Z 13002MPS 0250 R31/0200N FG SKC 02/01 Q1019 NOSIG
ZBYN,2003-10-20 01:00,ZBYN 200100Z 00000MPS 0600 R31/0600 FG VV006 03/03 Q1019 NOSIG
ZBYN,2003-10-20 02:00,ZBYN 200200Z VRB01MPS 1200 R31/1200N BR BKN013 05/03 Q1019 NOSIG
ZBYN,2003-10-20 03:00,ZBYN 200300Z VRB01MPS 1800 BR SCT020 08/04 Q1018 NOSIG
ZBYN,2003-10-20 04:00,ZBYN 200400Z VRB01MPS 4000 HZ SKC 11/04 Q1017 NOSIG
ZBYN,2003-10-20 05:00,ZBYN 200500Z 21002MPS 7000 SKC 14/03 Q1015 NOSIG
ZBYN,2003-10-20 06:00,ZBYN 200600Z 21002MPS 8000 SKC 16/02 Q1014 NOSIG
ZBYN,2003-10-20 07:00,ZBYN 200700Z 24004MPS CAVOK 17/M01 Q1013 NOSIG
ZBYN,2003-10-20 08:00,ZBYN 200800Z 23004MPS CAVOK 17/M01 Q1012 NOSIG
ZBYN,2003-10-20 09:00,ZBYN 200900Z 28002MPS CAVOK 16/M03 Q1013 NOSIG
ZBYN,2003-10-20 10:00,ZBYN 201000Z 29002MPS CAVOK 13/M05 Q1013 NOSIG
ZBYN,2003-10-20 11:00,ZBYN 201100Z 28001MPS CAVOK 12/M04 Q1014 NOSIG
ZBYN,2003-10-20 12:00,ZBYN 201200Z 20002MPS CAVOK 11/M02 Q1015 NOSIG
ZBYN,2003-10-20 13:00,ZBYN 201300Z 23001MPS CAVOK 09/02 Q1015 NOSIG
ZBYN,2003-10-20 14:00,ZBYN 201400Z 00000MPS 8000 SKC 07/02 Q1016 NOSIG
ZBYN,2003-10-20 15:00,ZBYN 201500Z 12002MPS 6000 SKC 05/02 Q1016 NOSIG
ZBYN,2003-10-20 16:00,ZBYN 201600Z 10001MPS 6000 SKC 04/01 Q1016 NOSIG
ZBYN,2003-10-20 17:00,ZBYN 201700Z 11002MPS 6000 SKC 02/00 Q1016
ZBYN,2003-10-20 18:00,ZBYN 201800Z 07001MPS 6000 SKC 02/00 Q1016
ZBYN,2003-10-20 19:00,ZBYN 201900Z 10001MPS 4000 BR SKC 02/01 Q1016
ZBYN,2003-10-20 20:00,ZBYN 202000Z 12002MPS 3000 R31/1000 BR SKC 01/M00 Q1016
ZBYN,2003-10-20 21:00,ZBYN 202100Z 12001MPS 4000 BR SKC 01/M00 Q1017
ZBYN,2003-10-20 22:00,ZBYN 202200Z 12001MPS 3000 BR SKC 00/M01 Q1017 NOSIG
ZBYN,2003-10-20 23:00,ZBYN 202300Z VRB01MPS 3000 R31/1400U BR SKC 01/M00 Q1018 NOSIG
ZBYN,2003-10-21 00:00,ZBYN 210000Z 12001MPS 1800 R31/1000N BR SKC 01/00 Q1018 NOSIG
ZBYN,2003-10-21 01:00,ZBYN 210100Z 11002MPS 1300 R31/1300N BR SKC 05/03 Q1019 NOSIG
ZBYN,2003-10-21 02:00,ZBYN 210200Z VRB01MPS 1300 R31/1300N BR SKC 08/03 Q1019 NOSIG
ZBYN,2003-10-21 03:00,ZBYN 210300Z 18001MPS 1600 HZ SKC 10/03 Q1019 NOSIG
ZBYN,2003-10-21 04:00,ZBYN 210400Z 22003MPS 4000 HZ SKC 14/M01 Q1018 NOSIG
ZBYN,2003-10-21 05:00,ZBYN 210500Z 30008MPS CAVOK 17/M11 Q1017 NOSIG
ZBYN,2003-10-21 06:00,ZBYN 210600Z 29007MPS CAVOK 17/M11 Q1016 NOSIG
ZBYN,2003-10-21 07:00,ZBYN 210700Z 30007MPS CAVOK 17/M11 Q1016 NOSIG
ZBYN,2003-10-21 08:00,ZBYN 210800Z 29007MPS CAVOK 16/M11 Q1017 NOSIG
ZBYN,2003-10-21 09:00,ZBYN 210900Z 29006MPS CAVOK 14/M10 Q1017 NOSIG
ZBYN,2003-10-21 10:00,ZBYN 211000Z 31004MPS CAVOK 11/M10 Q1018 NOSIG
ZBYN,2003-10-21 11:00,ZBYN 211100Z 28001MPS CAVOK 09/M09 Q1020 NOSIG
ZBYN,2003-10-21 12:00,ZBYN 211200Z VRB01MPS CAVOK 06/M07 Q1021 NOSIG
ZBYN,2003-10-21 13:00,ZBYN 211300Z 28002MPS CAVOK 07/M07 Q1021 NOSIG
ZBYN,2003-10-21 14:00,ZBYN 211400Z 31002MPS CAVOK 06/M06 Q1022 NOSIG
ZBYN,2003-10-21 15:00,ZBYN 211500Z 35003MPS CAVOK 06/M06 Q1023 NOSIG
ZBYN,2003-10-21 16:00,ZBYN 211600Z 36002MPS CAVOK 05/M08 Q1023 NOSIG
ZBYN,2003-10-21 17:00,ZBYN 211700Z 34003MPS CAVOK 04/M07 Q1024
ZBYN,2003-10-21 18:00,ZBYN 211800Z 35002MPS CAVOK 03/M08 Q1024
ZBYN,2003-10-21 19:00,ZBYN 211900Z 31003MPS CAVOK 00/M07 Q1024
ZBYN,2003-10-21 20:00,ZBYN 212000Z 32002MPS CAVOK 00/M07 Q1025
ZBYN,2003-10-21 21:00,ZBYN 212100Z 31001MPS CAVOK 01/M08 Q1025
ZBYN,2003-10-21 22:00,ZBYN 212200Z 36002MPS CAVOK M00/M07 Q1026 NOSIG
ZBYN,2003-10-21 23:00,ZBYN 212300Z 32002MPS CAVOK M01/M07 Q1026 NOSIG
ZBYN,2003-10-22 00:00,ZBYN 220000Z 35002MPS CAVOK 02/M07 Q1027 NOSIG
ZBYN,2003-10-22 01:00,ZBYN 220100Z 33004MPS CAVOK 05/M10 Q1027 NOSIG
ZBYN,2003-10-22 02:00,ZBYN 220200Z 34005MPS CAVOK 06/M11 Q1028 NOSIG
ZBYN,2003-10-22 03:00,ZBYN 220300Z 34003MPS CAVOK 08/M10 Q1027 NOSIG
ZBYN,2003-10-22 04:00,ZBYN 220400Z 30003MPS CAVOK 08/M09 Q1027 NOSIG
ZBYN,2003-10-22 05:00,ZBYN 220500Z 27001MPS CAVOK 10/M09 Q1026 NOSIG
ZBYN,2003-10-22 06:00,ZBYN 220600Z VRB01MPS CAVOK 10/M10 Q1025 NOSIG
ZBYN,2003-10-22 07:00,ZBYN 220700Z 25002MPS CAVOK 10/M09 Q1024 NOSIG
ZBYN,2003-10-22 08:00,ZBYN 220800Z 17001MPS CAVOK 10/M08 Q1024 NOSIG
ZBYN,2003-10-22 09:00,ZBYN 220900Z 12001MPS CAVOK 10/M08 Q1024 NOSIG
ZBYN,2003-10-22 10:00,ZBYN 221000Z 10001MPS CAVOK 07/M06 Q1024 NOSIG
ZBYN,2003-10-22 11:00,ZBYN 221100Z 05001MPS CAVOK 05/M03 Q1024 NOSIG
ZBYN,2003-10-22 12:00,ZBYN 221200Z 10001MPS CAVOK 04/M03 Q1024 NOSIG
ZBYN,2003-10-22 13:00,ZBYN 221300Z 00000MPS CAVOK 02/M03 Q1025 NOSIG
ZBYN,2003-10-22 14:00,ZBYN 221400Z 13002MPS CAVOK 01/M03 Q1025 NOSIG
ZBYN,2003-10-22 15:00,ZBYN 221500Z VRB01MPS CAVOK 02/M04 Q1025 NOSIG
ZBYN,2003-10-22 16:00,ZBYN 221600Z 00000MPS CAVOK M01/M04 Q1025 NOSIG
ZBYN,2003-10-22 17:00,ZBYN 221700Z 00000MPS CAVOK M02/M04 Q1025
ZBYN,2003-10-22 18:00,ZBYN 221800Z 13001MPS CAVOK M02/M04 Q1025
ZBYN,2003-10-22 19:00,ZBYN 221900Z 09001MPS CAVOK M02/M05 Q1025
ZBYN,2003-10-22 20:00,ZBYN 222000Z 00000MPS CAVOK M02/M05 Q1025
ZBYN,2003-10-22 21:00,ZBYN 222100Z 00000MPS CAVOK M04/M06 Q1025
ZBYN,2003-10-22 22:00,ZBYN 222200Z 10001MPS CAVOK M04/M05 Q1024 NOSIG
ZBYN,2003-10-22 23:00,ZBYN 222300Z 12001MPS CAVOK M02/M04 Q1024 NOSIG
ZBYN,2003-10-23 00:00,ZBYN 230000Z AUTO 00000KT 4SM 01/M01 A3024 RMK SLP279 T00081011 57006 IEM_DS3505
ZBYN,2003-10-23 01:00,ZBYN 230100Z 14001MPS 3000 FU NSC 01/M03 Q1024 NOSIG
ZBYN,2003-10-23 02:00,ZBYN 230200Z VRB01MPS 5000 FU NSC 05/M04 Q1024 NOSIG
ZBYN,2003-10-23 03:00,ZBYN 230300Z VRB01MPS 6000 NSC 08/M04 Q1022 NOSIG
ZBYN,2003-10-23 04:00,ZBYN 230400Z 15001MPS 8000 SKC 10/M06 Q1021 NOSIG
ZBYN,2003-10-23 05:00,ZBYN 230500Z 17002MPS CAVOK 12/M06 Q1019 NOSIG
ZBYN,2003-10-23 06:00,ZBYN 230600Z 16002MPS CAVOK 13/M06 Q1018 NOSIG
ZBYN,2003-10-23 07:00,ZBYN 230700Z 00000MPS CAVOK 14/M06 Q1017 NOSIG
ZBYN,2003-10-23 08:00,ZBYN 230800Z 13001MPS CAVOK 14/M05 Q1017 NOSIG
ZBYN,2003-10-23 09:00,ZBYN 230900Z 13001MPS CAVOK 13/M04 Q1016 NOSIG
ZBYN,2003-10-23 10:00,ZBYN 231000Z VRB01MPS 7000 SKC 09/M02 Q1016 NOSIG
ZBYN,2003-10-23 11:00,ZBYN 231100Z VRB01MPS 8000 SKC 07/M01 Q1016 NOSIG
ZBYN,2003-10-23 12:00,ZBYN 231200Z 03001MPS 8000 SKC 06/M00 Q1016 NOSIG
ZBYN,2003-10-23 13:00,ZBYN 231300Z 14001MPS 8000 SKC 05/M00 Q1017 NOSIG
ZBYN,2003-10-23 14:00,ZBYN 231400Z 10001MPS 7000 SKC 04/M00 Q1017 NOSIG
ZBYN,2003-10-23 15:00,ZBYN 231500Z 12001MPS 7000 NSC 03/M01 Q1017 NOSIG
ZBYN,2003-10-23 16:00,ZBYN 231600Z 11002MPS 7000 NSC 02/M01 Q1017 NOSIG
ZBYN,2003-10-23 17:00,ZBYN 231700Z 11001MPS 8000 NSC 03/M01 Q1017
ZBYN,2003-10-23 18:00,ZBYN 231800Z 08001MPS 6000 SKC 02/M00 Q1017
ZBYN,2003-10-23 19:00,ZBYN 231900Z 12001MPS 6000 SKC 02/M00 Q1017
ZBYN,2003-10-23 20:00,ZBYN 232000Z 08001MPS 2000 R31/1200N BR SKC 01/M01 Q1017
ZBYN,2003-10-23 21:00,ZBYN 232100Z 10001MPS 1700 R31/1100N BR SKC 02/M00 Q1017
ZBYN,2003-10-23 22:00,ZBYN 232200Z 36001MPS 1400 R31/1200U BR SKC 01/M01 Q1018 NOSIG
ZBYN,2003-10-23 23:00,ZBYN 232300Z 13001MPS 0800 R31/0600 FZFG SKC M01/M02 Q1018 NOSIG
ZBYN,2003-10-24 00:00,ZBYN 240000Z 12002MPS 1100 R31/0800N BR SKC 01/M01 Q1019 NOSIG
ZBYN,2003-10-24 01:00,ZBYN 240100Z 13002MPS 1600 R31/1200N BR SKC 06/02 Q1019 NOSIG
ZBYN,2003-10-24 02:00,ZBYN 240200Z 15001MPS 1800 R31/1200N BR SKC 09/02 Q1019 NOSIG
ZBYN,2003-10-24 03:00,ZBYN 240300Z VRB01MPS 2500 HZ SKC 11/02 Q1019 NOSIG
ZBYN,2003-10-24 04:00,ZBYN 240400Z 25001MPS 5000 HZ SKC 14/00 Q1019 NOSIG
ZBYN,2003-10-24 05:00,ZBYN 240500Z VRB01MPS 7000 SKC 16/M02 Q1018 NOSIG
ZBYN,2003-10-24 06:00,ZBYN 240600Z 19002MPS 7000 SKC 17/M02 Q1017 NOSIG
ZBYN,2003-10-24 07:00,ZBYN 240700Z VRB01MPS CAVOK 18/M04 Q1016 NOSIG
ZBYN,2003-10-24 08:00,ZBYN 240800Z 36002MPS CAVOK 18/M06 Q1017 NOSIG
ZBYN,2003-10-24 09:00,ZBYN 240900Z 35002MPS CAVOK 16/M05 Q1017 NOSIG
ZBYN,2003-10-24 10:00,ZBYN 241000Z 31002MPS CAVOK 11/M02 Q1018 NOSIG
ZBYN,2003-10-24 11:00,ZBYN 241100Z 33001MPS CAVOK 10/M02 Q1019 NOSIG
ZBYN,2003-10-24 12:00,ZBYN 241200Z 01001MPS CAVOK 07/M02 Q1019 NOSIG
ZBYN,2003-10-24 13:00,ZBYN 241300Z VRB01MPS CAVOK 03/M02 Q1020 NOSIG
ZBYN,2003-10-24 14:00,ZBYN 241400Z 19001MPS CAVOK 03/M02 Q1021 NOSIG
ZBYN,2003-10-24 15:00,ZBYN 241500Z VRB01MPS CAVOK 02/M02 Q1021 NOSIG
ZBYN,2003-10-24 16:00,ZBYN 241600Z 09001MPS CAVOK 01/M03 Q1021 NOSIG
ZBYN,2003-10-24 17:00,ZBYN 241700Z VRB01MPS CAVOK 02/M02 Q1022
ZBYN,2003-10-24 18:00,ZBYN 241800Z 11002MPS CAVOK M01/M04 Q1022
ZBYN,2003-10-24 19:00,ZBYN 241900Z 12001MPS CAVOK 01/M04 Q1021
ZBYN,2003-10-24 20:00,ZBYN 242000Z 00000MPS CAVOK M01/M04 Q1021
ZBYN,2003-10-24 21:00,ZBYN 242100Z 00000MPS CAVOK M01/M04 Q1022
ZBYN,2003-10-24 22:00,ZBYN 242200Z 04002MPS CAVOK M02/M04 Q1021 NOSIG
ZBYN,2003-10-24 23:00,ZBYN 242300Z 00000MPS CAVOK M03/M05 Q1022 NOSIG
ZBYN,2003-10-25 00:00,ZBYN 250000Z 08001MPS 8000 NSC M00/M03 Q1023 NOSIG
ZBYN,2003-10-25 01:00,ZBYN 250100Z 15001MPS CAVOK 04/M02 Q1023 NOSIG
ZBYN,2003-10-25 02:00,ZBYN 250200Z 16001MPS CAVOK 06/M01 Q1023 NOSIG
ZBYN,2003-10-25 03:00,ZBYN 250300Z 17001MPS 8000 NSC 09/M03 Q1022 NOSIG
ZBYN,2003-10-25 04:00,ZBYN 250400Z 19001MPS CAVOK 11/M04 Q1021 NOSIG
ZBYN,2003-10-25 05:00,ZBYN 250500Z 21002MPS CAVOK 14/M04 Q1020 NOSIG
ZBYN,2003-10-25 06:00,ZBYN 250600Z 19002MPS CAVOK 15/M06 Q1019 NOSIG
ZBYN,2003-10-25 07:00,ZBYN 250700Z 22002MPS CAVOK 16/M07 Q1018 NOSIG
ZBYN,2003-10-25 08:00,ZBYN 250800Z 22002MPS CAVOK 16/M07 Q1017 NOSIG
ZBYN,2003-10-25 09:00,ZBYN 250900Z 22002MPS CAVOK 15/M06 Q1017 NOSIG
ZBYN,2003-10-25 10:00,ZBYN 251000Z 26002MPS CAVOK 12/M05 Q1017 NOSIG
ZBYN,2003-10-25 11:00,ZBYN 251100Z VRB01MPS CAVOK 10/M04 Q1017 NOSIG
ZBYN,2003-10-25 12:00,ZBYN 251200Z 00000MPS CAVOK 06/M02 Q1018 NOSIG
ZBYN,2003-10-25 13:00,ZBYN 251300Z 12002MPS 8000 SKC 03/M02 Q1018 NOSIG
ZBYN,2003-10-25 14:00,ZBYN 251400Z 09002MPS 8000 SKC 05/M01 Q1018 NOSIG
ZBYN,2003-10-25 15:00,ZBYN 251500Z 10001MPS CAVOK 03/M02 Q1018 NOSIG
ZBYN,2003-10-25 16:00,ZBYN 251600Z 10001MPS CAVOK 02/M02 Q1018 NOSIG
ZBYN,2003-10-25 17:00,ZBYN 251700Z 12002MPS CAVOK 02/M02 Q1018
ZBYN,2003-10-25 18:00,ZBYN 251800Z VRB01MPS CAVOK 01/M02 Q1017
ZBYN,2003-10-25 19:00,ZBYN 251900Z 11001MPS CAVOK 00/M03 Q1017
ZBYN,2003-10-25 20:00,ZBYN 252000Z 10001MPS CAVOK 01/M02 Q1017
ZBYN,2003-10-25 21:00,ZBYN 252100Z VRB01MPS CAVOK 00/M03 Q1016
ZBYN,2003-10-25 22:00,ZBYN 252200Z 12002MPS 4000 BR SKC M01/M03 Q1016 NOSIG
ZBYN,2003-10-25 23:00,ZBYN 252300Z 11001MPS 3000 BR SKC M01/M04 Q1016 NOSIG
ZBYN,2003-10-25 23:30,ZBYN 252330Z VRB01MPS 2000 BR SKC M00/M02 Q1016 NOSIG
ZBYN,2003-10-26 00:00,ZBYN 260000Z 10001MPS 1800 R31/1400N BR SKC 01/M01 Q1016 NOSIG
ZBYN,2003-10-26 01:00,ZBYN 260100Z 11002MPS 2000 FU SKC 06/00 Q1016 NOSIG
ZBYN,2003-10-26 02:00,ZBYN 260200Z 14002MPS 2000 FU SKC 08/00 Q1016 NOSIG
ZBYN,2003-10-26 03:00,ZBYN 260300Z VRB01MPS 3000 FU SKC 11/M01 Q1016 NOSIG
ZBYN,2003-10-26 04:00,ZBYN 260400Z 25001MPS 5000 FU SKC 14/M00 Q1014 NOSIG
ZBYN,2003-10-26 05:00,ZBYN 260500Z 23002MPS 8000 SKC 17/M01 Q1013 NOSIG
ZBYN,2003-10-26 06:00,ZBYN 260600Z 24004MPS CAVOK 20/M06 Q1012 NOSIG
ZBYN,2003-10-26 07:00,ZBYN 260700Z 24004MPS CAVOK 20/M06 Q1011 NOSIG
ZBYN,2003-10-26 08:00,ZBYN 260800Z 25002MPS CAVOK 20/M04 Q1011 NOSIG
ZBYN,2003-10-26 09:00,ZBYN 260900Z 31005MPS CAVOK 19/M09 Q1010 NOSIG
ZBYN,2003-10-26 10:00,ZBYN 261000Z 25002MPS CAVOK 16/M07 Q1011 NOSIG
ZBYN,2003-10-26 11:00,ZBYN 261100Z 21002MPS CAVOK 14/M04 Q1011 NOSIG
ZBYN,2003-10-26 12:00,ZBYN 261200Z 22002MPS CAVOK 12/M00 Q1011 NOSIG
ZBYN,2003-10-26 13:00,ZBYN 261300Z VRB01MPS 6000 SKC 10/00 Q1011 NOSIG
ZBYN,2003-10-26 14:00,ZBYN 261400Z 11001MPS 5000 FU SKC 08/01 Q1012 NOSIG
ZBYN,2003-10-26 15:00,ZBYN 261500Z 12003MPS 5000 FU SKC 06/01 Q1012 NOSIG
ZBYN,2003-10-26 16:00,ZBYN 261600Z 12002MPS 5000 FU SKC 04/00 Q1012 NOSIG
ZBYN,2003-10-26 17:00,ZBYN 261700Z VRB01MPS 6000 SKC 04/00 Q1011
ZBYN,2003-10-26 18:00,ZBYN 261800Z 11001MPS 4000 FU SKC 04/01 Q1012
ZBYN,2003-10-26 19:00,ZBYN 261900Z 09001MPS 4000 FU SKC 03/M01 Q1012
ZBYN,2003-10-26 20:00,ZBYN 262000Z 00000MPS 4000 BR SKC 04/01 Q1012
ZBYN,2003-10-26 21:00,ZBYN 262100Z 12002MPS 4000 BR SKC 02/M00 Q1013
ZBYN,2003-10-26 22:00,ZBYN 262200Z VRB01MPS 3000 BR SKC 03/00 Q1014 NOSIG
ZBYN,2003-10-26 23:00,ZBYN 262300Z 00000MPS 2000 R31/1000N BR SKC 02/M00 Q1015 NOSIG
ZBYN,2003-10-27 00:00,ZBYN 270000Z VRB01MPS 1300 R31/1000N BR SKC 03/01 Q1017 NOSIG
ZBYN,2003-10-27 01:00,ZBYN 270100Z 12002MPS 1500 R31/1000N BR SKC 08/03 Q1017 NOSIG
ZBYN,2003-10-27 02:00,ZBYN 270200Z VRB01MPS 7000 NSC 14/M00 Q1017 NOSIG
ZBYN,2003-10-27 03:00,ZBYN 270300Z 31009MPS CAVOK 17/M06 Q1017 NOSIG
ZBYN,2003-10-27 04:00,ZBYN 270400Z 31010MPS CAVOK 18/M07 Q1017 NOSIG
ZBYN,2003-10-27 05:00,ZBYN 270500Z 33009MPS CAVOK 18/M09 Q1017 NOSIG
ZBYN,2003-10-27 05:30,ZBYN 270530Z 31007MPS CAVOK 19/M09 Q1016 NOSIG
ZBYN,2003-10-27 06:00,ZBYN 270600Z 31007MPS CAVOK 18/M09 Q1016 NOSIG
ZBYN,2003-10-27 07:00,ZBYN 270700Z 31007MPS CAVOK 18/M10 Q1016 NOSIG
ZBYN,2003-10-27 08:00,ZBYN 270800Z 29006MPS CAVOK 17/M09 Q1017 NOSIG
ZBYN,2003-10-27 08:30,ZBYN 270830Z 30005MPS CAVOK 17/M09 Q1018 NOSIG
ZBYN,2003-10-27 09:00,ZBYN 270900Z 30005MPS CAVOK 16/M09 Q1018 NOSIG
ZBYN,2003-10-27 09:30,ZBYN 270930Z 30005MPS CAVOK 15/M08 Q1019 NOSIG
ZBYN,2003-10-27 10:00,ZBYN 271000Z 30004MPS CAVOK 13/M07 Q1019 NOSIG
ZBYN,2003-10-27 10:30,ZBYN 271030Z 30003MPS CAVOK 13/M07 Q1019 NOSIG
ZBYN,2003-10-27 10:41,ZBYN 271041Z 271212 32004MPS CAVOK
ZBYN,2003-10-27 11:00,ZBYN 271100Z 19002MPS CAVOK 13/M07 Q1020 NOSIG
ZBYN,2003-10-27 12:00,ZBYN 271200Z VRB01MPS CAVOK 11/M06 Q1020 NOSIG
ZBYN,2003-10-27 13:00,ZBYN 271300Z 00000MPS CAVOK 09/M05 Q1021 NOSIG
ZBYN,2003-10-27 14:00,ZBYN 271400Z 13002MPS CAVOK 05/M03 Q1022 NOSIG
ZBYN,2003-10-27 15:00,ZBYN 271500Z 06001MPS CAVOK 05/M01 Q1021 NOSIG
ZBYN,2003-10-27 16:00,ZBYN 271600Z 12001MPS CAVOK 04/M02 Q1022 NOSIG
ZBYN,2003-10-27 17:00,ZBYN 271700Z VRB01MPS CAVOK 04/M02 Q1022
ZBYN,2003-10-27 18:00,ZBYN 271800Z 09001MPS CAVOK 03/M02 Q1022
ZBYN,2003-10-27 19:00,ZBYN 271900Z 12001MPS CAVOK 02/M03 Q1022
ZBYN,2003-10-27 20:00,ZBYN 272000Z 12002MPS CAVOK 01/M03 Q1023
ZBYN,2003-10-27 21:00,ZBYN 272100Z 00000MPS CAVOK 02/M03 Q1023
ZBYN,2003-10-27 22:00,ZBYN 272200Z 00000MPS CAVOK 01/M03 Q1023 NOSIG
ZBYN,2003-10-27 23:00,ZBYN 272300Z 13001MPS CAVOK 01/M03 Q1024 NOSIG
ZBYN,2003-10-28 00:00,ZBYN 280000Z 00000MPS 6000 SKC 02/M01 Q1024 NOSIG
ZBYN,2003-10-28 01:00,ZBYN 280100Z 00000MPS 4000 HZ SKC 07/M01 Q1025 NOSIG
ZBYN,2003-10-28 02:00,ZBYN 280200Z VRB01MPS 8000 SKC 11/M03 Q1025 NOSIG
ZBYN,2003-10-28 03:00,ZBYN 280300Z 18002MPS CAVOK 13/M03 Q1025 NOSIG
ZBYN,2003-10-28 04:00,ZBYN 280400Z VRB01MPS CAVOK 15/M04 Q1024 NOSIG
ZBYN,2003-10-28 05:00,ZBYN 280500Z 18002MPS CAVOK 18/M05 Q1023 NOSIG
ZBYN,2003-10-28 06:00,ZBYN 280600Z 15002MPS CAVOK 20/M09 Q1022 NOSIG
ZBYN,2003-10-28 07:00,ZBYN 280700Z 17001MPS CAVOK 20/M09 Q1021 NOSIG
ZBYN,2003-10-28 08:00,ZBYN 280800Z 21001MPS CAVOK 20/M07 Q1021 NOSIG
ZBYN,2003-10-28 09:00,ZBYN 280900Z 00000MPS CAVOK 18/M03 Q1021 NOSIG
ZBYN,2003-10-28 10:00,ZBYN 281000Z 09001MPS CAVOK 14/M02 Q1021 NOSIG
ZBYN,2003-10-28 11:00,ZBYN 281100Z 12002MPS CAVOK 09/00 Q1022 NOSIG
ZBYN,2003-10-28 12:00,ZBYN 281200Z 12003MPS CAVOK 08/M00 Q1022 NOSIG
ZBYN,2003-10-28 13:00,ZBYN 281300Z 36001MPS CAVOK 08/M00 Q1023 NOSIG
ZBYN,2003-10-28 14:00,ZBYN 281400Z 12002MPS CAVOK 06/M01 Q1023 NOSIG
ZBYN,2003-10-28 15:00,ZBYN 281500Z 13002MPS CAVOK 05/M01 Q1023 NOSIG
ZBYN,2003-10-28 16:00,ZBYN 281600Z 06001MPS CAVOK 05/M01 Q1024 NOSIG
ZBYN,2003-10-28 17:00,ZBYN 281700Z 11001MPS CAVOK 04/M01 Q1024
ZBYN,2003-10-28 18:00,ZBYN 281800Z 01001MPS CAVOK 05/M01 Q1024
ZBYN,2003-10-28 19:00,ZBYN 281900Z 14001MPS CAVOK 01/M01 Q1024
ZBYN,2003-10-28 20:00,ZBYN 282000Z 00000MPS CAVOK 03/M01 Q1024
ZBYN,2003-10-28 21:00,ZBYN 282100Z 00000MPS CAVOK 01/M02 Q1025
ZBYN,2003-10-28 22:00,ZBYN 282200Z 00000MPS CAVOK 02/M02 Q1025 NOSIG
ZBYN,2003-10-28 23:00,ZBYN 282300Z 15001MPS 6000 NSC 01/M02 Q1025 NOSIG
ZBYN,2003-10-29 00:00,ZBYN 290000Z VRB01MPS 4000 BR NSC 04/01 Q1025 NOSIG
ZBYN,2003-10-29 01:00,ZBYN 290100Z 00000MPS 3000 BR NSC 07/01 Q1025 NOSIG
ZBYN,2003-10-29 02:00,ZBYN 290200Z VRB01MPS 2000 R31/1400N BR NSC 10/01 Q1025 NOSIG
ZBYN,2003-10-29 03:00,ZBYN 290300Z 13001MPS 4000 HZ NSC 14/M00 Q1024 NOSIG
ZBYN,2003-10-29 04:00,ZBYN 290400Z VRB01MPS 8000 NSC 16/M02 Q1024 NOSIG
ZBYN,2003-10-29 05:00,ZBYN 290500Z 20002MPS 8000 NSC 18/M02 Q1022 NOSIG
ZBYN,2003-10-29 06:00,ZBYN 290600Z 17002MPS 7000 NSC 19/M01 Q1021 NOSIG
ZBYN,2003-10-29 07:00,ZBYN 290700Z 17002MPS 7000 NSC 20/M01 Q1021 NOSIG
ZBYN,2003-10-29 08:00,ZBYN 290800Z 16001MPS 8000 NSC 19/M00 Q1021 NOSIG
ZBYN,2003-10-29 09:00,ZBYN 290900Z 11001MPS 8000 NSC 15/01 Q1021 NOSIG
ZBYN,2003-10-29 10:00,ZBYN 291000Z 11001MPS 5000 FU NSC 13/02 Q1021 NOSIG
ZBYN,2003-10-29 11:00,ZBYN 291100Z 11002MPS 5000 FU NSC 11/03 Q1021 NOSIG
ZBYN,2003-10-29 12:00,ZBYN 291200Z 12001MPS 3000 FU NSC 11/03 Q1022 NOSIG
ZBYN,2003-10-29 13:00,ZBYN 291300Z 14001MPS 3000 FU NSC 10/04 Q1022 NOSIG
ZBYN,2003-10-29 14:00,ZBYN 291400Z 09001MPS 6000 NSC 10/04 Q1022 NOSIG
ZBYN,2003-10-29 15:00,ZBYN 291500Z 11001MPS 6000 NSC 08/03 Q1022 NOSIG
ZBYN,2003-10-29 16:00,ZBYN 291600Z 07002MPS 6000 NSC 10/04 Q1021 NOSIG
ZBYN,2003-10-29 17:00,ZBYN 291700Z 00000MPS 6000 NSC 08/04 Q1021
ZBYN,2003-10-29 18:00,ZBYN 291800Z 05002MPS 5000 R31/1400N BR NSC 08/04 Q1021
ZBYN,2003-10-29 19:00,ZBYN 291900Z 09002MPS 5000 R31/1400N BR NSC 08/04 Q1021
ZBYN,2003-10-29 20:00,ZBYN 292000Z 12001MPS 6000 NSC 07/04 Q1021
ZBYN,2003-10-29 21:00,ZBYN 292100Z 03001MPS 6000 NSC 07/04 Q1021 NOSIG
ZBYN,2003-10-29 22:00,ZBYN 292200Z 16001MPS 5000 R31/1200 BR NSC 07/04 Q1021 NOSIG
ZBYN,2003-10-29 23:00,ZBYN 292300Z 05001MPS 4000 R31/1300 BR NSC 06/04 Q1021 NOSIG
ZBYN,2003-10-30 00:00,ZBYN 300000Z 00000MPS 1600 R31/1200 BR NSC 08/05 Q1021 NOSIG
ZBYN,2003-10-30 01:00,ZBYN 300100Z 13001MPS 2500 BR NSC 11/04 Q1021 NOSIG
ZBYN,2003-10-30 02:00,ZBYN 300200Z 14001MPS 2500 R31/1400N BR NSC 13/05 Q1021 NOSIG
ZBYN,2003-10-30 03:00,ZBYN 300300Z 20002MPS 2000 FU SKC 16/05 Q1020 NOSIG
ZBYN,2003-10-30 04:00,ZBYN 300400Z 23002MPS 4000 FU NSC 18/04 Q1019 NOSIG
ZBYN,2003-10-30 05:00,ZBYN 300500Z 22002MPS 4000 FU NSC 19/02 Q1018 NOSIG
ZBYN,2003-10-30 06:00,ZBYN 300600Z 19002MPS 6000 NSC 20/02 Q1017 NOSIG
ZBYN,2003-10-30 07:00,ZBYN 300700Z 23002MPS CAVOK 21/01 Q1016 NOSIG
ZBYN,2003-10-30 08:00,ZBYN 300800Z 23002MPS CAVOK 21/M00 Q1016 NOSIG
ZBYN,2003-10-30 09:00,ZBYN 300900Z 21001MPS CAVOK 20/02 Q1016 NOSIG
ZBYN,2003-10-30 10:00,ZBYN 301000Z 16001MPS CAVOK 16/04 Q1016 NOSIG
ZBYN,2003-10-30 11:00,ZBYN 301100Z 12001MPS CAVOK 14/05 Q1016 NOSIG
ZBYN,2003-10-30 12:00,ZBYN 301200Z 14002MPS CAVOK 11/05 Q1016 NOSIG
ZBYN,2003-10-30 13:00,ZBYN 301300Z VRB01MPS CAVOK 11/05 Q1017 NOSIG
ZBYN,2003-10-30 13:30,ZBYN 301330Z 13001MPS CAVOK 10/04 Q1017 NOSIG
ZBYN,2003-10-30 14:00,ZBYN 301400Z 11002MPS 7000 NSC 09/05 Q1017 NOSIG
ZBYN,2003-10-30 15:00,ZBYN 301500Z 12002MPS 4000 BR NSC 09/05 Q1017 NOSIG
ZBYN,2003-10-30 16:00,ZBYN 301600Z 09002MPS 2200 R31/0900 BR NSC 06/04 Q1017 NOSIG
ZBYN,2003-10-30 17:00,ZBYN 301700Z 09001MPS 2000 R31/0800N BR NSC 06/05 Q1017
ZBYN,2003-10-30 18:00,ZBYN 301800Z 10002MPS 2000 R31/0700N BR NSC 05/04 Q1016
ZBYN,2003-10-30 19:00,ZBYN 301900Z 12002MPS 1400 R31/0600N BR NSC 06/04 Q1016
ZBYN,2003-10-30 20:00,ZBYN 302000Z 08001MPS 1200 R31/0550N BR NSC 06/05 Q1016
ZBYN,2003-10-30 21:00,ZBYN 302100Z 12001MPS 1000 R31/0500N BR NSC 05/04 Q1016
ZBYN,2003-10-30 22:00,ZBYN 302200Z 13001MPS 0800 R31/0450N FG NSC 05/04 Q1016 NOSIG
ZBYN,2003-10-30 23:00,ZBYN 302300Z 00000MPS 0700 R31/0450N FG NSC 05/04 Q1016 NOSIG
ZBYN,2003-10-31 00:00,ZBYN 310000Z 12001MPS 0600 R31/0650N FG SKC 05/04 Q1016 NOSIG
ZBYN,2003-10-31 01:00,ZBYN 310100Z 00000MPS 0800 R31/0550N FG SKC 07/06 Q1016 NOSIG
ZBYN,2003-10-31 02:00,ZBYN 310200Z VRB01MPS 0900 R31/0750N FG SKC 10/07 Q1016 NOSIG
ZBYN,2003-10-31 03:00,ZBYN 310300Z 15002MPS 1200 R31/1200N BR SKC 13/06 Q1015 NOSIG
ZBYN,2003-10-31 04:00,ZBYN 310400Z 15002MPS 2000 HZ SKC 16/06 Q1014 NOSIG
ZBYN,2003-10-31 05:00,ZBYN 310500Z 20001MPS 3500 HZ SKC 18/05 Q1013 NOSIG
ZBYN,2003-10-31 06:00,ZBYN 310600Z 20002MPS 6000 SKC 19/05 Q1012 NOSIG
ZBYN,2003-10-31 07:00,ZBYN 310700Z 21002MPS 6000 SKC 19/04 Q1011 NOSIG
ZBYN,2003-10-31 08:00,ZBYN 310800Z 18002MPS 6000 SKC 19/04 Q1011 NOSIG
ZBYN,2003-10-31 09:00,ZBYN 310900Z 00000MPS 6000 SKC 17/04 Q1011 NOSIG
ZBYN,2003-10-31 10:00,ZBYN 311000Z 12001MPS 4000 FU SKC 14/05 Q1011 NOSIG
ZBYN,2003-10-31 11:00,ZBYN 311100Z 12002MPS 6000 SKC 10/05 Q1011 NOSIG
ZBYN,2003-10-31 12:00,ZBYN 311200Z 11002MPS 7000 SKC 08/05 Q1012 NOSIG
ZBYN,2003-10-31 13:00,ZBYN 311300Z 12003MPS 6000 SKC 09/05 Q1012 NOSIG
ZBYN,2003-10-31 14:00,ZBYN 311400Z 11001MPS 6000 SKC 10/04 Q1012 NOSIG
ZBYN,2003-10-31 15:00,ZBYN 311500Z 12002MPS 8000 SKC 09/04 Q1012 NOSIG
ZBYN,2003-10-31 16:00,ZBYN 311600Z 11001MPS 8000 SKC 07/04 Q1012 NOSIG
ZBYN,2003-10-31 17:00,ZBYN 311700Z 11002MPS 8000 SKC 07/03 Q1012
ZBYN,2003-10-31 18:00,ZBYN 311800Z 10001MPS 6000 SKC 07/04 Q1012
ZBYN,2003-10-31 19:00,ZBYN 311900Z 11001MPS 6000 SKC 06/04 Q1011
ZBYN,2003-10-31 20:00,ZBYN 312000Z 00000MPS 3000 R31/1400N BR SKC 06/04 Q1011
ZBYN,2003-10-31 21:00,ZBYN 312100Z 17001MPS 2500 R31/1400N BR SKC 05/03 Q1011
ZBYN,2003-10-31 22:00,ZBYN 312200Z 10001MPS 2000 R31/0800 BR SKC 04/03 Q1011 NOSIG
ZBYN,2003-10-31 23:00,ZBYN 312300Z 00000MPS 1900 R31/0900N BR SKC 04/03 Q1012 NOSIG
ZBYN,2003-11-01 00:00,ZBYN 010000Z 00000MPS 1200 R31/1000D BR SKC 04/03 Q1012 NOSIG
ZBYN,2003-11-01 01:00,ZBYN 010100Z 00000MPS 1200 R31/0900N BR SKC 08/05 Q1012 NOSIG
ZBYN,2003-11-01 02:00,ZBYN 010200Z 11001MPS 1200 R31/1200 FU SKC 11/05 Q1012 NOSIG
ZBYN,2003-11-01 03:00,ZBYN 010300Z VRB01MPS 2500 FU SKC 14/06 Q1012 NOSIG
ZBYN,2003-11-01 04:00,ZBYN 010400Z 21002MPS 4000 FU SKC 17/05 Q1011 NOSIG
ZBYN,2003-11-01 05:00,ZBYN 010500Z 23003MPS 3000 FU SKC 18/04 Q1010 NOSIG
ZBYN,2003-11-01 06:00,ZBYN 010600Z 22002MPS 4000 FU SKC 20/03 Q1009 NOSIG
ZBYN,2003-11-01 07:00,ZBYN 010700Z 20002MPS 8000 SKC 20/01 Q1009 NOSIG
ZBYN,2003-11-01 08:00,ZBYN 010800Z 17001MPS 7000 SKC 20/01 Q1009 NOSIG
ZBYN,2003-11-01 09:00,ZBYN 010900Z 11001MPS 7000 SKC 17/02 Q1009 NOSIG
ZBYN,2003-11-01 10:00,ZBYN 011000Z 07002MPS 4000 FU SKC 14/04 Q1009 NOSIG
ZBYN,2003-11-01 11:00,ZBYN 011100Z 12002MPS 5000 FU SKC 11/04 Q1010 NOSIG
ZBYN,2003-11-01 12:00,ZBYN 011200Z VRB01MPS 6000 SKC 10/04 Q1011 NOSIG
ZBYN,2003-11-01 13:00,ZBYN 011300Z 12001MPS 6000 SKC 09/04 Q1011 NOSIG
ZBYN,2003-11-01 14:00,ZBYN 011400Z 12002MPS 5000 BR SKC 08/04 Q1012 NOSIG
ZBYN,2003-11-01 15:00,ZBYN 011500Z 08001MPS 4000 BR SKC 08/04 Q1013 NOSIG
ZBYN,2003-11-01 16:00,ZBYN 011600Z VRB01MPS 4000 BR SKC 07/03 Q1013 NOSIG
ZBYN,2003-11-01 17:00,ZBYN 011700Z 00000MPS 4000 BR SKC 07/03 Q1013
ZBYN,2003-11-01 18:00,ZBYN 011800Z 00000MPS 4000 BR SKC 05/02 Q1014
ZBYN,2003-11-01 19:00,ZBYN 011900Z 35001MPS 4000 BR SKC 06/02 Q1015
ZBYN,2003-11-01 20:00,ZBYN 012000Z 32002MPS 8000 SKC 07/00 Q1015
ZBYN,2003-11-01 21:00,ZBYN 012100Z 31005MPS CAVOK 11/M04 Q1017
ZBYN,2003-11-01 22:00,ZBYN 012200Z 32005MPS CAVOK 11/M06 Q1017 NOSIG
ZBYN,2003-11-01 23:00,ZBYN 012300Z 28005MPS CAVOK 10/M09 Q1018 NOSIG
ZBYN,2003-11-02 00:00,ZBYN 020000Z 30008MPS CAVOK 11/M14 Q1019 NOSIG
ZBYN,2003-11-02 01:00,ZBYN 020100Z 27005MPS CAVOK 10/M15 Q1021 NOSIG
ZBYN,2003-11-02 02:00,ZBYN 020200Z 28006MPS CAVOK 11/M19 Q1022 NOSIG
ZBYN,2003-11-02 03:00,ZBYN 020300Z 30006MPS CAVOK 12/M19 Q1022 NOSIG
ZBYN,2003-11-02 04:00,ZBYN 020400Z 32009MPS CAVOK 12/M21 Q1021 NOSIG
ZBYN,2003-11-02 05:00,ZBYN 020500Z 32010MPS CAVOK 14/M22 Q1020 NOSIG
ZBYN,2003-11-02 06:00,ZBYN 020600Z 33009MPS CAVOK 14/M23 Q1021 NOSIG
ZBYN,2003-11-02 07:00,ZBYN 020700Z 32006MPS CAVOK 14/M22 Q1021 NOSIG
ZBYN,2003-11-02 08:00,ZBYN 020800Z 29006MPS CAVOK 13/M24 Q1022 NOSIG
ZBYN,2003-11-02 09:00,ZBYN 020900Z 31005MPS CAVOK 11/M24 Q1022 NOSIG
ZBYN,2003-11-02 10:00,ZBYN 021000Z 32004MPS CAVOK 07/M22 Q1023 NOSIG
ZBYN,2003-11-02 11:00,ZBYN 021100Z 31005MPS CAVOK 08/M22 Q1024 NOSIG
ZBYN,2003-11-02 12:00,ZBYN 021200Z 31002MPS CAVOK 06/M21 Q1025 NOSIG
ZBYN,2003-11-02 13:00,ZBYN 021300Z 29003MPS CAVOK 05/M19 Q1026 NOSIG
ZBYN,2003-11-02 14:00,ZBYN 021400Z 29001MPS CAVOK 02/M15 Q1026 NOSIG
ZBYN,2003-11-02 15:00,ZBYN 021500Z VRB01MPS CAVOK 00/M13 Q1027 NOSIG
ZBYN,2003-11-02 16:00,ZBYN 021600Z 08001MPS CAVOK M00/M11 Q1027 NOSIG
ZBYN,2003-11-02 17:00,ZBYN 021700Z 12002MPS CAVOK M03/M10 Q1027 NOSIG
ZBYN,2003-11-02 18:00,ZBYN 021800Z 00000MPS CAVOK M02/M11 Q1027
ZBYN,2003-11-02 19:00,ZBYN 021900Z 12002MPS CAVOK M03/M11 Q1026
ZBYN,2003-11-02 20:00,ZBYN 022000Z 20001MPS CAVOK M02/M10 Q1026
ZBYN,2003-11-02 21:00,ZBYN 022100Z VRB01MPS CAVOK M05/M10 Q1026
ZBYN,2003-11-02 22:00,ZBYN 022200Z 11001MPS CAVOK M04/M10 Q1026 NOSIG
ZBYN,2003-11-02 23:00,ZBYN 022300Z 06001MPS CAVOK M04/M10 Q1027 NOSIG
ZBYN,2003-11-03 00:00,ZBYN 030000Z 12001MPS 7000 SKC M04/M09 Q1027 NOSIG
ZBYN,2003-11-03 01:00,ZBYN 030100Z 12001MPS 6000 SKC 01/M11 Q1027 NOSIG
ZBYN,2003-11-03 02:00,ZBYN 030200Z VRB01MPS 6000 SKC 03/M13 Q1027 NOSIG
ZBYN,2003-11-03 03:00,ZBYN 030300Z VRB01MPS 8000 SKC 06/M17 Q1025 NOSIG
ZBYN,2003-11-03 04:00,ZBYN 030400Z 00000MPS CAVOK 09/M16 Q1024 NOSIG
ZBYN,2003-11-03 05:00,ZBYN 030500Z VRB01MPS CAVOK 10/M17 Q1022 NOSIG
ZBYN,2003-11-03 06:00,ZBYN 030600Z VRB01MPS CAVOK 12/M16 Q1021 NOSIG
ZBYN,2003-11-03 07:00,ZBYN 030700Z VRB01MPS CAVOK 13/M15 Q1020 NOSIG
ZBYN,2003-11-03 08:00,ZBYN 030800Z 21002MPS CAVOK 12/M14 Q1019 NOSIG
ZBYN,2003-11-03 09:00,ZBYN 030900Z 00000MPS CAVOK 11/M11 Q1019 NOSIG
ZBYN,2003-11-03 10:00,ZBYN 031000Z 16001MPS CAVOK 08/M09 Q1019 NOSIG
ZBYN,2003-11-03 11:00,ZBYN 031100Z 09001MPS CAVOK 06/M07 Q1019 NOSIG
ZBYN,2003-11-03 12:00,ZBYN 031200Z 10002MPS CAVOK 04/M06 Q1018 NOSIG
ZBYN,2003-11-03 13:00,ZBYN 031300Z 10001MPS CAVOK 07/M07 Q1018 NOSIG
ZBYN,2003-11-03 14:00,ZBYN 031400Z 12002MPS CAVOK 07/M06 Q1018 NOSIG
ZBYN,2003-11-03 15:00,ZBYN 031500Z 11001MPS CAVOK 07/M04 Q1018 NOSIG
ZBYN,2003-11-03 16:00,ZBYN 031600Z 15002MPS CAVOK 08/M05 Q1018 NOSIG
ZBYN,2003-11-03 17:00,ZBYN 031700Z 15002MPS CAVOK 08/M06 Q1017
ZBYN,2003-11-03 18:00,ZBYN 031800Z 15003MPS CAVOK 08/M06 Q1017
ZBYN,2003-11-03 19:00,ZBYN 031900Z 15002MPS CAVOK 08/M06 Q1016 NOSIG
ZBYN,2003-11-03 20:00,ZBYN 032000Z 15003MPS CAVOK 07/M06 Q1016
ZBYN,2003-11-03 21:00,ZBYN 032100Z 14003MPS CAVOK 06/M05 Q1016
ZBYN,2003-11-03 22:00,ZBYN 032200Z 13002MPS CAVOK 05/M04 Q1016 NOSIG
ZBYN,2003-11-03 23:00,ZBYN 032300Z 13002MPS CAVOK 04/M03 Q1016 NOSIG
ZBYN,2003-11-04 00:00,ZBYN 040000Z 11002MPS 7000 NSC 04/M02 Q1017 NOSIG
ZBYN,2003-11-04 01:00,ZBYN 040100Z 14002MPS 8000 NSC 08/M01 Q1017 NOSIG
ZBYN,2003-11-04 02:00,ZBYN 040200Z 16002MPS CAVOK 09/M00 Q1017 NOSIG
ZBYN,2003-11-04 03:00,ZBYN 040300Z 17002MPS CAVOK 09/00 Q1017 NOSIG
ZBYN,2003-11-04 04:00,ZBYN 040400Z 16002MPS CAVOK 11/01 Q1016 NOSIG
ZBYN,2003-11-04 05:00,ZBYN 040500Z 19002MPS 7000 NSC 11/01 Q1015 NOSIG
ZBYN,2003-11-04 06:00,ZBYN 040600Z 18002MPS 7000 NSC 12/01 Q1014 NOSIG
ZBYN,2003-11-04 07:00,ZBYN 040700Z 17002MPS 7000 NSC 12/01 Q1014 NOSIG
ZBYN,2003-11-04 08:00,ZBYN 040800Z 15001MPS 6000 NSC 12/02 Q1013 NOSIG
ZBYN,2003-11-04 09:00,ZBYN 040900Z 13002MPS 6000 NSC 11/02 Q1013 NOSIG
ZBYN,2003-11-04 10:00,ZBYN 041000Z 16001MPS 6000 NSC 10/02 Q1014 NOSIG
ZBYN,2003-11-04 11:00,ZBYN 041100Z 15001MPS 5000 HZ NSC 07/02 Q1014 NOSIG
ZBYN,2003-11-04 12:00,ZBYN 041200Z 11002MPS 6000 SKC 05/01 Q1014 NOSIG
ZBYN,2003-11-04 13:00,ZBYN 041300Z 08001MPS 6000 SKC 06/02 Q1015 NOSIG
ZBYN,2003-11-04 14:00,ZBYN 041400Z 14001MPS 6000 SKC 06/02 Q1015 NOSIG
ZBYN,2003-11-04 15:00,ZBYN 041500Z 13001MPS 5000 BR NSC 03/00 Q1015 NOSIG
ZBYN,2003-11-04 16:00,ZBYN 041600Z 12002MPS 4000 BR NSC 02/00 Q1015 NOSIG
ZBYN,2003-11-04 17:00,ZBYN 041700Z 09001MPS 5000 BR NSC 03/01 Q1015
ZBYN,2003-11-04 18:00,ZBYN 041800Z 13002MPS 5000 BR NSC 03/00 Q1015
ZBYN,2003-11-04 19:00,ZBYN 041900Z 11001MPS 5000 BR NSC 03/01 Q1015
ZBYN,2003-11-04 20:00,ZBYN 042000Z 00000MPS 4000 BR NSC 03/01 Q1014
ZBYN,2003-11-04 21:00,ZBYN 042100Z 12001MPS 2500 BR NSC 02/00 Q1014
ZBYN,2003-11-04 22:00,ZBYN 042200Z 00000MPS 2000 R31/0800N BR NSC 01/M00 Q1015 NOSIG
ZBYN,2003-11-04 23:00,ZBYN 042300Z 11001MPS 2500 BR NSC 01/M00 Q1015 NOSIG
ZBYN,2003-11-05 00:00,ZBYN 050000Z VRB01MPS 1200 R31/0800D BR NSC 02/01 Q1016 NOSIG
ZBYN,2003-11-05 01:00,ZBYN 050100Z 00000MPS 1200 R31/0800 BR NSC 05/03 Q1016 NOSIG
ZBYN,2003-11-05 02:00,ZBYN 050200Z 00000MPS 1600 R31/0900 BR NSC 08/04 Q1016 NOSIG
ZBYN,2003-11-05 03:00,ZBYN 050300Z VRB01MPS 1800 R31/1200N FU NSC 11/04 Q1016 NOSIG
ZBYN,2003-11-05 04:00,ZBYN 050400Z 34001MPS 1400 R31/0700N FU NSC 11/04 Q1015 NOSIG
ZBYN,2003-11-05 05:00,ZBYN 050500Z 06001MPS 1700 R31/1000N FU NSC 13/04 Q1013 NOSIG
ZBYN,2003-11-05 06:00,ZBYN 050600Z 14001MPS 4000 FU NSC 15/05 Q1013 NOSIG
ZBYN,2003-11-05 07:00,ZBYN 050700Z 08005MPS 3000 FU NSC 14/02 Q1012 NOSIG
ZBYN,2003-11-05 08:00,ZBYN 050800Z 08007MPS 5000 SA NSC 12/M02 Q1012 NOSIG
ZBYN,2003-11-05 09:00,ZBYN 050900Z 08007MPS 5000 SA NSC 10/M03 Q1013 NOSIG
ZBYN,2003-11-05 10:00,ZBYN 051000Z 08008MPS 7000 NSC 09/M01 Q1014 NOSIG
ZBYN,2003-11-05 11:00,ZBYN 051100Z 08007MPS 7000 NSC 07/M02 Q1014 NOSIG
ZBYN,2003-11-05 12:00,ZBYN 051200Z 07007MPS 9999 OVC040 07/M04 Q1015 NOSIG
ZBYN,2003-11-05 13:00,ZBYN 051300Z 08007MPS 9999 OVC040 07/M04 Q1016 NOSIG
ZBYN,2003-11-05 14:00,ZBYN 051400Z 08008MPS CAVOK 06/M04 Q1017 NOSIG
ZBYN,2003-11-05 15:00,ZBYN 051500Z 08009MPS CAVOK 06/M03 Q1017 NOSIG
ZBYN,2003-11-05 16:00,ZBYN 051600Z 07006MPS CAVOK 06/M03 Q1018
ZBYN,2003-11-05 17:00,ZBYN 051700Z 07007MPS CAVOK 06/M02 Q1018
ZBYN,2003-11-05 18:00,ZBYN 051800Z 08007MPS CAVOK 06/M02 Q1017
ZBYN,2003-11-05 19:00,ZBYN 051900Z 07005MPS CAVOK 06/M03 Q1017
ZBYN,2003-11-05 20:00,ZBYN 052000Z 06006MPS CAVOK 05/M03 Q1016
ZBYN,2003-11-05 21:00,ZBYN 052100Z 07056MPS CAVOK 05/M03 Q1016
ZBYN,2003-11-05 22:00,ZBYN 052200Z 07006MPS CAVOK 05/M02 Q1016 NOSIG
ZBYN,2003-11-05 23:00,ZBYN 052300Z 06006MPS CAVOK 05/M01 Q1017 NOSIG
ZBYN,2003-11-06 00:00,ZBYN 060000Z 06005MPS 9999 -RA NSC 04/M00 Q1017 NOSIG
ZBYN,2003-11-06 01:00,ZBYN 060100Z 05005MPS 6000 -RASN SCT020 OVC100 04/01 Q1018 NOSIG
ZBYN,2003-11-06 02:00,ZBYN 060200Z 06005MPS 6000 -RA SCT020 OVC100 04/01 Q1018 NOSIG
ZBYN,2003-11-06 03:00,ZBYN 060300Z 03003MPS 2000 -RA BR SCT020 OVC100 04/02 Q1019 NOSIG
ZBYN,2003-11-06 04:00,ZBYN 060400Z 06003MPS 9999 -RA SCT020 OVC100 03/01 Q1018 NOSIG
ZBYN,2003-11-06 05:00,ZBYN 060500Z 05005MPS 9999 SCT020 OVC100 03/00 Q1017 NOSIG
ZBYN,2003-11-06 06:00,ZBYN 060600Z 06005MPS 9999 FEW026 OVC100 03/M00 Q1017 NOSIG
ZBYN,2003-11-06 07:00,ZBYN 060700Z 05005MPS 9999 -RA FEW026 OVC100 04/00 Q1017 NOSIG
ZBYN,2003-11-06 08:00,ZBYN 060800Z 06005MPS 9999 -RA SCT023 OVC100 03/M00 Q1017 NOSIG
ZBYN,2003-11-06 09:00,ZBYN 060900Z 06005MPS 9999 -RA SCT023 OVC100 02/M00 Q1017 NOSIG
ZBYN,2003-11-06 10:00,ZBYN 061000Z 05004MPS 8000 -RASN SCT020 OVC100 02/M00 Q1017 NOSIG
ZBYN,2003-11-06 11:00,ZBYN 061100Z 05004MPS 9999 -RASN SCT020 OVC100 02/M00 Q1018 NOSIG
ZBYN,2003-11-06 12:00,ZBYN 061200Z 05005MPS 8000 -RASN SCT020 OVC100 01/M02 Q1019 NOSIG
ZBYN,2003-11-06 13:00,ZBYN 061300Z 05004MPS 6000 -RASN SCT020 OVC100 01/M01 Q1021 NOSIG
ZBYN,2003-11-06 14:00,ZBYN 061400Z 08005MPS 6000 -SNRA FEW020 OVC040 01/M02 Q1022 NOSIG
ZBYN,2003-11-06 15:00,ZBYN 061500Z 06004MPS 2000 -SN BR FEW020 OVC040 00/M02 Q1023 NOSIG
ZBYN,2003-11-06 16:00,ZBYN 061600Z 04002MPS 2000 -SN BR FEW020 OVC040 M00/M01 Q1024 NOSIG
ZBYN,2003-11-06 17:00,ZBYN 061700Z 06002MPS 9999 -SN FEW020 OVC040 M01/M02 Q1024
ZBYN,2003-11-06 18:00,ZBYN 061800Z 05004MPS 1200 R31/0800 -SN BR OVC040 M01/M03 Q1024
ZBYN,2003-11-06 19:00,ZBYN 061900Z 05003MPS 1200 R31/0700N -SN BR OVC040 M02/M03 Q1024
ZBYN,2003-11-06 20:00,ZBYN 062000Z 04003MPS 1200 R31/0900 -SN BR OVC040 M02/M02 Q1024
ZBYN,2003-11-06 21:00,ZBYN 062100Z 06002MPS 6000 -SN OVC033 M02/M03 Q1024 NOSIG
ZBYN,2003-11-06 22:00,ZBYN 062200Z 07004MPS 9999 OVC040 M01/M04 Q1024 NOSIG
ZBYN,2003-11-06 23:00,ZBYN 062300Z 05004MPS 9999 OVC040 M01/M05 Q1025 NOSIG
ZBYN,2003-11-07 00:00,ZBYN 070000Z 07004MPS 9999 OVC033 M01/M05 Q1026 NOSIG
ZBYN,2003-11-07 01:00,ZBYN 070100Z 07003MPS 9999 BKN033 OVC100 M01/M05 Q1027 NOSIG
ZBYN,2003-11-07 02:00,ZBYN 070200Z 08004MPS 9999 BKN033 OVC100 M01/M06 Q1027 NOSIG
ZBYN,2003-11-07 03:00,ZBYN 070300Z 06002MPS 9999 BKN030 OVC100 M01/M05 Q1027 NOSIG
ZBYN,2003-11-07 04:00,ZBYN 070400Z 34004MPS 9999 SCT030 OVC100 M01/M07 Q1026 NOSIG
ZBYN,2003-11-07 05:00,ZBYN 070500Z 35004MPS 9999 SCT030 OVC100 M01/M06 Q1025 NOSIG
ZBYN,2003-11-07 06:00,ZBYN 070600Z 33003MPS 9999 BKN030 OVC100 M01/M06 Q1025 NOSIG
ZBYN,2003-11-07 07:00,ZBYN 070700Z 34005MPS 9999 BKN030 OVC100 M01/M07 Q1025 NOSIG
ZBYN,2003-11-07 08:00,ZBYN 070800Z 35006MPS CAVOK M01/M08 Q1026 NOSIG
ZBYN,2003-11-07 09:00,ZBYN 070900Z 34005MPS CAVOK M02/M09 Q1027 NOSIG
ZBYN,2003-11-07 10:00,ZBYN 071000Z 34006MPS 9999 OVC046 M02/M10 Q1028 NOSIG
ZBYN,2003-11-07 11:00,ZBYN 071100Z 35005MPS CAVOK M02/M10 Q1028 NOSIG
ZBYN,2003-11-07 12:00,ZBYN 071200Z 35005MPS CAVOK M03/M13 Q1028 NOSIG
ZBYN,2003-11-07 13:00,ZBYN 071300Z 35006MPS CAVOK M04/M12 Q1028 NOSIG
ZBYN,2003-11-07 14:00,ZBYN 071400Z 35007MPS CAVOK M05/M11 Q1029 NOSIG
ZBYN,2003-11-07 15:00,ZBYN 071500Z 36007MPS CAVOK M05/M13 Q1030 NOSIG
ZBYN,2003-11-07 16:00,ZBYN 071600Z 35004MPS CAVOK M05/M13 Q1030 NOSIG
ZBYN,2003-11-07 17:00,ZBYN 071700Z 35003MPS CAVOK M05/M13 Q1030
ZBYN,2003-11-07 18:00,ZBYN 071800Z 35003MPS CAVOK M05/M14 Q1030
ZBYN,2003-11-07 19:00,ZBYN 071900Z 36003MPS CAVOK M06/M13 Q1029
ZBYN,2003-11-07 20:00,ZBYN 072000Z 34004MPS CAVOK M06/M14 Q1028
ZBYN,2003-11-07 21:00,ZBYN 072100Z 33005MPS CAVOK M06/M14 Q1028
ZBYN,2003-11-07 22:00,ZBYN 072200Z 33004MPS CAVOK M06/M14 Q1029 NOSIG
ZBYN,2003-11-07 23:00,ZBYN 072300Z 34001MPS CAVOK M07/M14 Q1029 NOSIG
ZBYN,2003-11-08 00:00,ZBYN 080000Z 34003MPS CAVOK M06/M14 Q1030 NOSIG
ZBYN,2003-11-08 01:00,ZBYN 080100Z 35003MPS CAVOK M05/M14 Q1030 NOSIG
ZBYN,2003-11-08 02:00,ZBYN 080200Z 34003MPS CAVOK M04/M12 Q1030 NOSIG
ZBYN,2003-11-08 03:00,ZBYN 080300Z 34004MPS CAVOK M03/M13 Q1029 NOSIG
ZBYN,2003-11-08 04:00,ZBYN 080400Z 34005MPS CAVOK M02/M13 Q1028 NOSIG
ZBYN,2003-11-08 05:00,ZBYN 080500Z 34005MPS CAVOK M01/M13 Q1028 NOSIG
ZBYN,2003-11-08 06:00,ZBYN 080600Z 35004MPS CAVOK 00/M13 Q1027 NOSIG
ZBYN,2003-11-08 07:00,ZBYN 080700Z 29003MPS CAVOK 01/M10 Q1026 NOSIG
ZBYN,2003-11-08 08:00,ZBYN 080800Z 31004MPS CAVOK 00/M11 Q1026 NOSIG
ZBYN,2003-11-08 09:00,ZBYN 080900Z 33004MPS CAVOK M01/M12 Q1026 NOSIG
ZBYN,2003-11-08 10:00,ZBYN 081000Z 34003MPS CAVOK M02/M13 Q1026 NOSIG
ZBYN,2003-11-08 11:00,ZBYN 081100Z 34004MPS CAVOK M02/M12 Q1027 NOSIG
ZBYN,2003-11-08 12:00,ZBYN 081200Z 34004MPS CAVOK M03/M12 Q1027 NOSIG
ZBYN,2003-11-08 13:00,ZBYN 081300Z 35002MPS CAVOK M04/M11 Q1028 NOSIG
ZBYN,2003-11-08 14:00,ZBYN 081400Z 36003MPS CAVOK M03/M12 Q1028 NOSIG
ZBYN,2003-11-08 15:00,ZBYN 081500Z 02002MPS CAVOK M03/M09 Q1029 NOSIG
ZBYN,2003-11-08 16:00,ZBYN 081600Z 06002MPS CAVOK M03/M09 Q1029 NOSIG
ZBYN,2003-11-08 17:00,ZBYN 081700Z 07001MPS CAVOK M03/M09 Q1028
ZBYN,2003-11-08 18:00,ZBYN 081800Z 00000MPS CAVOK M03/M07 Q1029
ZBYN,2003-11-08 19:00,ZBYN 081900Z 00000MPS CAVOK M03/M07 Q1029
ZBYN,2003-11-08 20:00,ZBYN 082000Z 36001MPS CAVOK M03/M08 Q1028
ZBYN,2003-11-08 21:00,ZBYN 082100Z 33002MPS CAVOK M03/M11 Q1028
ZBYN,2003-11-08 22:00,ZBYN 082200Z 34003MPS CAVOK M03/M12 Q1028 NOSIG
ZBYN,2003-11-08 23:00,ZBYN 082300Z 00000MPS CAVOK M03/M10 Q1028 NOSIG
ZBYN,2003-11-09 00:00,ZBYN 090000Z 32001MPS CAVOK M03/M09 Q1029 NOSIG
ZBYN,2003-11-09 01:00,ZBYN 090100Z 00000MPS 8000 NSC M02/M11 Q1029 NOSIG
ZBYN,2003-11-09 02:00,ZBYN 090200Z 05001MPS 7000 NSC M02/M07 Q1029 NOSIG
ZBYN,2003-11-09 03:00,ZBYN 090300Z VRB01MPS 8000 NSC M00/M08 Q1029 NOSIG
ZBYN,2003-11-09 04:00,ZBYN 090400Z 24001MPS CAVOK 00/M11 Q1028 NOSIG
ZBYN,2003-11-09 05:00,ZBYN 090500Z 31001MPS CAVOK 01/M13 Q1027 NOSIG
ZBYN,2003-11-09 06:00,ZBYN 090600Z 26001MPS CAVOK 01/M13 Q1027 NOSIG
ZBYN,2003-11-09 07:00,ZBYN 090700Z 21002MPS 7000 NSC 00/M09 Q1026 NOSIG
ZBYN,2003-11-09 08:00,ZBYN 090800Z 21001MPS 7000 NSC M00/M08 Q1027 NOSIG
ZBYN,2003-11-09 09:00,ZBYN 090900Z 19001MPS 5000 FU OVC040 M00/M06 Q1027 NOSIG
ZBYN,2003-11-09 10:00,ZBYN 091000Z 23002MPS 2000 R31/1300N -SN BR OVC030 M02/M04 Q1028 NOSIG
ZBYN,2003-11-09 11:00,ZBYN 091100Z 19002MPS 1400 R31/1300N -SN BR OVC030 M02/M04 Q1028 NOSIG
ZBYN,2003-11-09 12:00,ZBYN 091200Z 20001MPS 1500 R31/P1500 -SN BR SCT020 OVC030 M02/M04 Q1029 NOSIG
ZBYN,2003-11-09 13:00,ZBYN 091300Z 16001MPS 1700 -SN BR OVC030 M03/M04 Q1029 NOSIG
ZBYN,2003-11-09 14:00,ZBYN 091400Z 15001MPS 2500 -SN BR OVC030 M03/M04 Q1029 NOSIG
ZBYN,2003-11-09 15:00,ZBYN 091500Z 00000MPS 2500 R31/1400 -SN BR OVC030 M02/M04 Q102 9 NOSIG
ZBYN,2003-11-09 16:00,ZBYN 091600Z 24001MPS 2500 R31/1300N -SN BR OVC030 M02/M04 Q1029
ZBYN,2003-11-09 17:00,ZBYN 091700Z 19001MPS 2500 R31/1300N -SN BR OVC030 M02/M04 Q1029
ZBYN,2003-11-09 18:00,ZBYN 091800Z 00000MPS 2500 R31/1300N -SN BR OVC030 M02/M04 Q1029
ZBYN,2003-11-09 19:00,ZBYN 091900Z 00000MPS 2500 R31/1300N -SN BR OVC030 M02/M04 Q1029
ZBYN,2003-11-09 20:00,ZBYN 092000Z 14001MPS 2500 R31/1200N -SN BR OVC030 M02/M04 Q1028
ZBYN,2003-11-09 21:00,ZBYN 092100Z 20001MPS 2500 R31/1000N BR OVC030 M02/M04 Q1028
ZBYN,2003-11-09 22:00,ZBYN 092200Z 16001MPS 2500 R31/0900D -SN BR OVC023 M02/M03 Q1028 NOSIG
ZBYN,2003-11-09 23:00,ZBYN 092300Z 06001MPS 1200 R31/0550N SN BR OVC016 M02/M03 Q1028 NOSIG
ZBYN,2003-11-10 00:00,ZBYN 100000Z 29001MPS 0900 R31/1000U -SN FZFG OVC016 M02/M03 Q1029 NOSIG
ZBYN,2003-11-10 01:00,ZBYN 100100Z 00000MPS 1800 R31/1400 BR BKN040 M02/M04 Q1030 NOSIG
ZBYN,2003-11-10 02:00,ZBYN 100200Z 24001MPS 2000 BR SCT040 M01/M04 Q1030 NOSIG
ZBYN,2003-11-10 03:00,ZBYN 100300Z 22001MPS 5000 BR NSC 00/M04 Q1030 NOSIG
ZBYN,2003-11-10 04:00,ZBYN 100400Z 24001MPS 5000 BR NSC 01/M04 Q1030 NOSIG
ZBYN,2003-11-10 05:00,ZBYN 100500Z 22001MPS 3000 FU NSC 01/M05 Q1029 NOSIG
ZBYN,2003-11-10 06:00,ZBYN 100600Z 28002MPS 2500 FU OVC040 01/M05 Q1028 NOSIG
ZBYN,2003-11-10 07:00,ZBYN 100700Z 31002MPS 4000 FU NSC 01/M05 Q1029 NOSIG
ZBYN,2003-11-10 08:00,ZBYN 100800Z 35003MPS CAVOK 02/M05 Q1029 NOSIG
ZBYN,2003-11-10 09:00,ZBYN 100900Z 36003MPS CAVOK 00/M06 Q1029 NOSIG
ZBYN,2003-11-10 10:00,ZBYN 101000Z 35002MPS CAVOK M01/M07 Q1030 NOSIG
ZBYN,2003-11-10 11:00,ZBYN 101100Z 00000MPS CAVOK M01/M07 Q1031 NOSIG
ZBYN,2003-11-10 12:00,ZBYN 101200Z 32003MPS CAVOK M03/M07 Q1031 NOSIG
ZBYN,2003-11-10 13:00,ZBYN 101300Z 33002MPS CAVOK M02/M07 Q1032 NOSIG
ZBYN,2003-11-10 14:00,ZBYN 101400Z 35002MPS CAVOK M02/M07 Q1032 NOSIG
ZBYN,2003-11-10 15:00,ZBYN 101500Z 00000MPS 8000 SKC M03/M07 Q1032 NOSIG
ZBYN,2003-11-10 16:00,ZBYN 101600Z 32004MPS 8000 SKC M05/M07 Q1032 NOSIG
ZBYN,2003-11-10 17:00,ZBYN 101700Z 35002MPS CAVOK M03/M07 Q1032
ZBYN,2003-11-10 18:00,ZBYN 101800Z 34003MPS 8000 SKC M03/M08 Q1032 NOSIG
ZBYN,2003-11-10 19:00,ZBYN 101900Z 34002MPS CAVOK M05/M08 Q1032
ZBYN,2003-11-10 20:00,ZBYN 102000Z 29002MPS CAVOK M04/M07 Q1033
ZBYN,2003-11-10 21:00,ZBYN 102100Z 00000MPS CAVOK M06/M08 Q1033
ZBYN,2003-11-10 22:00,ZBYN 102200Z 36001MPS CAVOK M06/M08 Q1033 NOSIG
ZBYN,2003-11-10 23:00,ZBYN 102300Z 00000MPS 4000 R31/1400N BR NSC M07/M08 Q1033 NOSIG
ZBYN,2003-11-11 00:00,ZBYN 110000Z VRB01MPS 4000 BR NSC M04/M08 Q1033 NOSIG
ZBYN,2003-11-11 01:00,ZBYN 110100Z 16001MPS 3000 BR NSC M03/M07 Q1034 NOSIG
ZBYN,2003-11-11 02:00,ZBYN 110200Z 25001MPS 3000 BR NSC M02/M07 Q1035 NOSIG
ZBYN,2003-11-11 03:00,ZBYN 110300Z VRB01MPS 2500 BR NSC M02/M06 Q1035 NOSIG
ZBYN,2003-11-11 04:00,ZBYN 110400Z 11003MPS 2500 BR NSC M01/M06 Q1033 NOSIG
ZBYN,2003-11-11 05:00,ZBYN 110500Z 17001MPS 3000 FU NSC M00/M06 Q1032 NOSIG
ZBYN,2003-11-11 06:00,ZBYN 110600Z 19001MPS 3000 FU NSC M00/M05 Q1031 NOSIG
ZBYN,2003-11-11 07:00,ZBYN 110700Z 23001MPS 2200 FU NSC M00/M06 Q1031 NOSIG
ZBYN,2003-11-11 08:00,ZBYN 110800Z 21001MPS 2000 FU NSC M00/M05 Q1030 NOSIG
ZBYN,2003-11-11 09:00,ZBYN 110900Z 00000MPS 1800 R31/1200N FU NSC M01/M05 Q1031 NOSIG
ZBYN,2003-11-11 10:00,ZBYN 111000Z 15001MPS 2000 R31/1200N BR NSC M01/M05 Q1031 NOSIG
ZBYN,2003-11-11 11:00,METAR ZBYN 111100Z 22001MPS 1100 R31/1000 -SN BR BKN020 OVC090 M02/M03 Q1031 NOSIG
ZBYN,2003-11-11 12:00,ZBYN 111200Z 13001MPS 1200 R31/P1500 BR OVC040 M02/M03 Q1031 NOSIG
ZBYN,2003-11-11 12:30,ZBYN 111230Z 12001MPS 1500 BR OVC040 M02/M03 Q1031 NOSIG
ZBYN,2003-11-11 13:00,ZBYN 111300Z 13001MPS 2000 BR OVC040 M02/M04 Q1031 NOSIG
ZBYN,2003-11-11 14:00,ZBYN 111400Z 13001MPS 2500 BR OVC040 M02/M04 Q1031 NOSIG
ZBYN,2003-11-11 15:00,ZBYN 111500Z 18001MPS 2000 R31/0800N BR NSC M02/M03 Q1030 NOSI G
ZBYN,2003-11-11 16:00,ZBYN 111600Z 24001MPS 2000 R31/0800N BR SKC M02/M04 Q1030 NOSIG
ZBYN,2003-11-11 17:00,ZBYN 111700Z 00000MPS 0900 R31/0750 FZFG SKC M03/M04 Q1030
ZBYN,2003-11-11 18:00,ZBYN 111800Z 20002MPS 1700 BR SKC M03/M04 Q1029 REFZFG
ZBYN,2003-11-11 19:00,ZBYN 111900Z 20001MPS 3000 BR SKC M04/M05 Q1029
ZBYN,2003-11-11 20:00,ZBYN 112000Z 09001MPS 3000 BR SKC M06/M08 Q1029
ZBYN,2003-11-11 21:00,ZBYN 112100Z 11001MPS 3000 BR SKC M05/M06 Q1028
ZBYN,2003-11-11 22:00,ZBYN 112200Z 11001MPS 2300 R31/1100 BR SKC M05/M06 Q1029 NOSIG
ZBYN,2003-11-11 23:00,ZBYN 112300Z 08002MPS 1400 R31/0700N BR SKC M06/M07 Q1029 NOSIG
ZBYN,2003-11-12 00:00,ZBYN 120000Z 09001MPS 1400 R31/0800N BR SKC M05/M06 Q1029 NOSIG
ZBYN,2003-11-12 01:00,ZBYN 120100Z 11001MPS 1500 R31/0900N BR SKC M03/M05 Q1029 NOSIG
ZBYN,2003-11-12 02:00,ZBYN 120200Z 10001MPS 1600 R31/1200 BR SKC M02/M04 Q1029 NOSIG
ZBYN,2003-11-12 03:00,ZBYN 120300Z 15001MPS 2000 HZ SKC 00/M05 Q1029 NOSIG
ZBYN,2003-11-12 04:00,ZBYN 120400Z 19002MPS 7000 SKC 01/M06 Q1028 NOSIG
ZBYN,2003-11-12 05:00,ZBYN 120500Z 20002MPS 5000 HZ SKC 02/M05 Q1027 NOSIG
ZBYN,2003-11-12 06:00,ZBYN 120600Z 23002MPS 8000 SKC 04/M04 Q1026 NOSIG
ZBYN,2003-11-12 07:00,ZBYN 120700Z 20001MPS 6000 SKC 04/M05 Q1025 NOSIG
ZBYN,2003-11-12 08:00,ZBYN 120800Z 22001MPS 5000 HZ SKC 04/M04 Q1024 NOSIG
ZBYN,2003-11-12 09:00,ZBYN 120900Z 12001MPS 5000 HZ SKC 02/M04 Q1024 NOSIG
ZBYN,2003-11-12 10:00,ZBYN 121000Z 00000MPS 7000 SKC 00/M04 Q1024 NOSIG
ZBYN,2003-11-12 11:00,ZBYN 121100Z 09001MPS 5000 BR SKC M01/M04 Q1024 NOSIG
ZBYN,2003-11-12 12:00,ZBYN 121200Z 11001MPS 6000 SKC M03/M05 Q1024 NOSIG
ZBYN,2003-11-12 13:00,ZBYN 121300Z 13002MPS 4000 BR SKC M03/M05 Q1024 NOSIG
ZBYN,2003-11-12 14:00,ZBYN 121400Z 09001MPS 8000 SKC M03/M05 Q1024 NOSIG
ZBYN,2003-11-12 15:00,ZBYN 121500Z 09001MPS 4000 BR SKC M03/M05 Q1024 NOSIG
ZBYN,2003-11-12 16:00,ZBYN 121600Z 10001MPS 2500 R31/0900N BR NSC M03/M04 Q1024 NOSIG
ZBYN,2003-11-12 17:00,ZBYN 121700Z 00000MPS 2000 R31/0900N BR SKC M04/M05 Q1024
ZBYN,2003-11-12 18:00,ZBYN 121800Z 00000MPS 2000 R31/1000 BR SKC M04/M05 Q1023
ZBYN,2003-11-12 19:00,ZBYN 121900Z 05001MPS 2000 R31/1000 BR SKC M04/M05 Q1023
ZBYN,2003-11-12 20:00,ZBYN 122000Z 14001MPS 2000 R31/1100D BR SKC M05/M07 Q1022
ZBYN,2003-11-12 21:00,ZBYN 122100Z 11001MPS 2000 BR SKC M06/M07 Q1022
ZBYN,2003-11-12 22:00,ZBYN 122200Z 00000MPS 5000 BR SKC M06/M07 Q1022 NOSIG
ZBYN,2003-11-12 23:00,ZBYN 122300Z 00000MPS 5000 BR SKC M05/M06 Q1022 NOSIG
ZBYN,2003-11-13 00:00,ZBYN 130000Z 32002MPS 1200 R31/1100N BR SKC M03/M05 Q1022 NOSIG
ZBYN,2003-11-13 01:00,ZBYN 130100Z 06001MPS 1000 R31/1000N BR SKC M02/M04 Q1022 NOSIG
ZBYN,2003-11-13 02:00,ZBYN 130200Z 14001MPS 1600 R31/1000N BR SKC 00/M03 Q1022 NOSIG
ZBYN,2003-11-13 03:00,ZBYN 130300Z VRB01MPS 1800 HZ SKC 02/M04 Q1022 NOSIG
ZBYN,2003-11-13 04:00,ZBYN 130400Z 06001MPS 3000 HZ SKC 04/M04 Q1021 NOSIG
ZBYN,2003-11-13 05:00,ZBYN 130500Z VRB01MPS 3500 HZ SKC 06/M04 Q1020 NOSIG
ZBYN,2003-11-13 06:00,ZBYN 130600Z 00000MPS 4000 HZ SKC 07/M04 Q1019 NOSIG
ZBYN,2003-11-13 07:00,ZBYN 130700Z 26002MPS 3000 HZ SKC 08/M04 Q1018 NOSIG
ZBYN,2003-11-13 08:00,ZBYN 130800Z 00000MPS 3000 HZ SKC 08/M03 Q1018 NOSIG
ZBYN,2003-11-13 09:00,ZBYN 130900Z 30001MPS 2000 FU NSC 06/M00 Q1018 NOSIG
ZBYN,2003-11-13 10:00,ZBYN 131000Z 00000MPS 2000 FU NSC 03/M01 Q1018 NOSIG
ZBYN,2003-11-13 11:00,ZBYN 131100Z VRB01MPS 2000 BR NSC 02/M02 Q1018 NOSIG
ZBYN,2003-11-13 12:00,ZBYN 131200Z VRB01MPS 2000 BR NSC 01/M02 Q1019 NOSIG
ZBYN,2003-11-13 13:00,ZBYN 131300Z 00000MPS 2000 BR NSC 01/M02 Q1018 NOSIG
ZBYN,2003-11-13 14:00,ZBYN 131400Z 00000MPS 1800 BR NSC 01/M02 Q1018 NOSIG
ZBYN,2003-11-13 15:00,ZBYN 131500Z 00000MPS 1100 R31/P1500 BR NSC 00/M02 Q1018 NOSIG
ZBYN,2003-11-13 16:00,ZBYN 131600Z 00000MPS 2000 BR NSC 00/M03 Q1019 NOSIG
ZBYN,2003-11-13 17:00,ZBYN 131700Z 06001MPS 3000 BR NSC M01/M03 Q1018
ZBYN,2003-11-13 18:00,ZBYN 131800Z 00000MPS 2000 R31/1200N BR NSC M02/M03 Q1018
ZBYN,2003-11-13 19:00,ZBYN 131900Z 00000MPS 2000 R31/1400N BR NSC M01/M03 Q1018
ZBYN,2003-11-13 20:00,ZBYN 132000Z VRB01MPS 3000 BR NSC M02/M03 Q1018
ZBYN,2003-11-13 21:00,ZBYN 132100Z 09001MPS 3000 BR SKC M04/M05 Q1018 NOSIG
ZBYN,2003-11-13 22:00,ZBYN 132200Z 00000MPS 2500 R31/1100N BR SKC M03/M04 Q1017 NOSIG
ZBYN,2003-11-13 23:00,ZBYN 132300Z 00000MPS 2500 R31/1000N BR SKC M03/M04 Q1018 NOSIG
ZBYN,2003-11-14 00:00,ZBYN 140000Z 06001MPS 1200 R31/1100N BR SKC M02/M03 Q1019 NOSIG
ZBYN,2003-11-14 01:00,ZBYN 140100Z 15002MPS 1200 R31/1100N BR SKC M01/M02 Q1019 NOSIG
ZBYN,2003-11-14 02:00,ZBYN 140200Z VRB01MPS 1400 R31/1300N BR SKC 01/M02 Q1019 NOSIG
ZBYN,2003-11-14 03:00,ZBYN 140300Z 19001MPS 1600 BR SKC 03/M02 Q1019 NOSIG
ZBYN,2003-11-14 04:00,ZBYN 140400Z 00000MPS 1600 R31/1100N BR SKC 05/M01 Q1018 NOSIG
ZBYN,2003-11-14 05:00,ZBYN 140500Z 14001MPS 1600 R31/1200 FU SKC 07/M01 Q1018 NOSIG
ZBYN,2003-11-14 06:00,ZBYN 140600Z 17001MPS 1600 R31/1200N FU SKC 08/M01 Q1017 NOSIG
ZBYN,2003-11-14 07:00,ZBYN 140700Z 00000MPS 1600 R31/1100N FU SKC 09/M00 Q1017 NOSIG
ZBYN,2003-11-14 08:00,ZBYN 140800Z 31001MPS 1600 R31/1000N FU SKC 09/M00 Q1018 NOSIG
ZBYN,2003-11-14 09:00,ZBYN 140900Z 00000MPS 1400 R31/1200N FU SKC 07/M00 Q1019 NOSIG
ZBYN,2003-11-14 10:00,ZBYN 141000Z 34001MPS 1400 R31/1400N FU SKC 04/M00 Q1020 NOSIG
ZBYN,2003-11-14 10:30,ZBYN 141030Z 26001MPS 1400 R31/1200N FU SKC 04/00 Q1020 NOSIG
ZBYN,2003-11-14 11:00,ZBYN 141100Z 29001MPS 1400 R31/1100N FU SKC 04/00 Q1021 NOSIG
ZBYN,2003-11-14 11:30,ZBYN 141130Z 29001MPS 1200 R31/1000N FU SKC 04/M00 Q1021 NOSIG
ZBYN,2003-11-14 12:00,ZBYN 141200Z 31002MPS 1000 R31/0900D BR SKC 01/M01 Q1022 NOSIG
ZBYN,2003-11-14 13:00,ZBYN 141300Z 30002MPS 2500 BR SKC 03/M01 Q1023 NOSIG
ZBYN,2003-11-14 14:00,ZBYN 141400Z 33002MPS 2500 BR SKC 03/M02 Q1023 NOSIG
ZBYN,2003-11-14 15:00,ZBYN 141500Z 34003MPS 4000 BR SKC 02/M03 Q1024 NOSIG
ZBYN,2003-11-14 16:00,ZBYN 141600Z 32002MPS 7000 SKC 01/M04 Q1024 NOSIG
ZBYN,2003-11-14 17:00,ZBYN 141700Z 00000MPS 5000 BR SKC 00/M04 Q1024
ZBYN,2003-11-14 18:00,ZBYN 141800Z 13001MPS 5000 BR SKC M01/M04 Q1025
ZBYN,2003-11-14 19:00,ZBYN 141900Z 09001MPS 7000 BR SKC M02/M04 Q1025
ZBYN,2003-11-14 20:00,ZBYN 142000Z 09002MPS 6000 SKC M02/M04 Q1024
ZBYN,2003-11-14 21:00,ZBYN 142100Z 12001MPS CAVOK M02/M05 Q1024
ZBYN,2003-11-14 22:00,ZBYN 142200Z 15001MPS CAVOK M01/M04 Q1025 NOSIG
ZBYN,2003-11-14 23:00,ZBYN 142300Z VRB01MPS 5000 BR SKC M03/M05 Q1025 NOSIG
ZBYN,2003-11-15 00:00,ZBYN 150000Z 10001MPS 3000 BR SKC M02/M04 Q1026 NOSIG
ZBYN,2003-11-15 01:00,ZBYN 150100Z 13001MPS 3000 BR SKC 00/M03 Q1026 NOSIG
ZBYN,2003-11-15 02:00,ZBYN 150200Z 22002MPS 6000 SKC 03/M03 Q1026 NOSIG
ZBYN,2003-11-15 03:00,ZBYN 150300Z 24002MPS 6000 SKC 05/M06 Q1026 NOSIG
ZBYN,2003-11-15 04:00,ZBYN 150400Z 30002MPS 8000 SKC 06/M07 Q1025 NOSIG
ZBYN,2003-11-15 05:00,ZBYN 150500Z VRB01MPS CAVOK 07/M05 Q1024 NOSIG
ZBYN,2003-11-15 06:00,ZBYN 150600Z VRB01MPS CAVOK 08/M07 Q1023 NOSIG
ZBYN,2003-11-15 07:00,ZBYN 150700Z 29001MPS CAVOK 08/M07 Q1023 NOSIG
ZBYN,2003-11-15 08:00,ZBYN 150800Z 30002MPS CAVOK 08/M07 Q1023 NOSIG
ZBYN,2003-11-15 09:00,ZBYN 150900Z 32002MPS CAVOK 05/M07 Q1023 NOSIG
ZBYN,2003-11-15 10:00,ZBYN 151000Z 32003MPS CAVOK 02/M07 Q1023 NOSIG
ZBYN,2003-11-15 11:00,ZBYN 151100Z 35002MPS CAVOK 01/M06 Q1024 NOSIG
ZBYN,2003-11-15 12:00,ZBYN 151200Z 01001MPS CAVOK 01/M07 Q1024 NOSIG
ZBYN,2003-11-15 13:00,ZBYN 151300Z 06001MPS CAVOK 01/M07 Q1025 NOSIG
ZBYN,2003-11-15 14:00,ZBYN 151400Z 00000MPS CAVOK M02/M05 Q1026 NOSIG
ZBYN,2003-11-15 15:00,ZBYN 151500Z 00000MPS CAVOK M02/M05 Q1026 NOSIG
ZBYN,2003-11-15 16:00,ZBYN 151600Z 06001MPS 8000 SKC M02/M05 Q1026 NOSIG
ZBYN,2003-11-15 17:00,ZBYN 151700Z 13001MPS 8000 SKC M04/M06 Q1026
ZBYN,2003-11-15 18:00,ZBYN 151800Z 36001MPS CAVOK M04/M06 Q1026
ZBYN,2003-11-15 19:00,ZBYN 151900Z 02001MPS CAVOK M03/M05 Q1027
ZBYN,2003-11-15 20:00,ZBYN 152000Z 01001MPS CAVOK M03/M07 Q1027
ZBYN,2003-11-15 21:00,ZBYN 152100Z 34002MPS CAVOK M01/M07 Q1026
ZBYN,2003-11-15 22:00,ZBYN 152200Z 09001MPS CAVOK M02/M07 Q1026 NOSIG
ZBYN,2003-11-15 23:00,ZBYN 152300Z 25001MPS CAVOK M01/M07 Q1027 NOSIG
ZBYN,2003-11-16 00:00,ZBYN 160000Z 04001MPS 6000 NSC M02/M05 Q1028 NOSIG
ZBYN,2003-11-16 01:00,ZBYN 160100Z 35001MPS 6000 NSC M01/M05 Q1028 NOSIG
ZBYN,2003-11-16 02:00,ZBYN 160200Z 32002MPS 8000 NSC 02/M09 Q1028 NOSIG
ZBYN,2003-11-16 03:00,ZBYN 160300Z 34002MPS CAVOK 04/M09 Q1028 NOSIG
ZBYN,2003-11-16 04:00,ZBYN 160400Z 32001MPS CAVOK 05/M09 Q1027 NOSIG
ZBYN,2003-11-16 05:00,ZBYN 160500Z VRB01MPS CAVOK 06/M09 Q1025 NOSIG
ZBYN,2003-11-16 06:00,ZBYN 160600Z 28001MPS CAVOK 07/M07 Q1025 NOSIG
ZBYN,2003-11-16 07:00,ZBYN 160700Z VRB01MPS CAVOK 08/M06 Q1025 NOSIG
ZBYN,2003-11-16 08:00,ZBYN 160800Z 31001MPS 8000 NSC 07/M05 Q1024 NOSIG
ZBYN,2003-11-16 09:00,ZBYN 160900Z 29001MPS 8000 NSC 05/M04 Q1025 NOSIG
ZBYN,2003-11-16 10:00,ZBYN 161000Z 13002MPS 5000 HZ SKC 02/M04 Q1025 NOSIG
ZBYN,2003-11-16 11:00,ZBYN 161100Z 00000MPS 5000 HZ SKC 03/M03 Q1026 NOSIG
ZBYN,2003-11-16 12:00,ZBYN 161200Z 00000MPS 6000 SKC 01/M03 Q1026 NOSIG
ZBYN,2003-11-16 13:00,ZBYN 161300Z 13001MPS 2500 HZ SKC 00/M03 Q1026 NOSIG
ZBYN,2003-11-16 14:00,ZBYN 161400Z 02001MPS 3000 HZ SKC M00/M04 Q1026 NOSIG
ZBYN,2003-11-16 15:00,ZBYN 161500Z 00000MPS 2500 BR NSC 00/M03 Q1026 NOSIG
ZBYN,2003-11-16 16:00,ZBYN 161600Z 01001MPS 2500 BR NSC M01/M03 Q1026 NOSIG
ZBYN,2003-11-16 17:00,ZBYN 161700Z 06001MPS 2500 BR NSC 00/M03 Q1026
ZBYN,2003-11-16 18:00,ZBYN 161800Z 03001MPS 3000 BR NSC 01/M03 Q1026
ZBYN,2003-11-16 19:00,ZBYN 161900Z 00000MPS 3000 BR NSC 01/M03 Q1026
ZBYN,2003-11-16 20:00,ZBYN 162000Z 09001MPS 3000 R31/1000N BR NSC 01/M02 Q1025
ZBYN,2003-11-16 21:00,ZBYN 162100Z 10001MPS 3000 BR NSC 01/M02 Q1025
ZBYN,2003-11-16 22:00,ZBYN 162200Z VRB01MPS 5000 BR NSC 02/M03 Q1025 NOSIG
ZBYN,2003-11-16 23:00,ZBYN 162300Z 06001MPS 8000 NSC 02/M03 Q1024 NOSIG
ZBYN,2003-11-17 00:00,ZBYN 170000Z 00000MPS 3000 BR NSC 02/M02 Q1024 NOSIG
ZBYN,2003-11-17 01:00,ZBYN 170100Z VRB01MPS 1600 FU NSC 03/M02 Q1025 NOSIG
ZBYN,2003-11-17 02:00,ZBYN 170200Z 35001MPS 1600 FU NSC 04/M04 Q1025 NOSIG
ZBYN,2003-11-17 03:00,ZBYN 170300Z 25001MPS 1600 R31/1000N FU NSC 04/M02 Q1025 NOSIG
ZBYN,2003-11-17 04:00,ZBYN 170400Z 33001MPS 6000 NSC 05/M05 Q1024 NOSIG
ZBYN,2003-11-17 05:00,ZBYN 170500Z 10002MPS 6000 NSC 05/M07 Q1022 NOSIG
ZBYN,2003-11-17 06:00,ZBYN 170600Z 06001MPS 8000 NSC 06/M08 Q1021 NOSIG
ZBYN,2003-11-17 07:00,ZBYN 170700Z VRB01MPS 8000 NSC 06/M09 Q1021 NOSIG
ZBYN,2003-11-17 08:00,ZBYN 170800Z 11001MPS CAVOK 06/M07 Q1021 NOSIG
ZBYN,2003-11-17 09:00,ZBYN 170900Z 00000MPS 5000 FU NSC 04/M04 Q1021 NOSIG
ZBYN,2003-11-17 10:00,ZBYN 171000Z 00000MPS 4000 FU NSC 04/M02 Q1021 NOSIG
ZBYN,2003-11-17 11:00,ZBYN 171100Z 00000MPS 3000 BR NSC 04/M01 Q1021 NOSIG
ZBYN,2003-11-17 12:00,ZBYN 171200Z 00000MPS 4000 FU NSC 04/M03 Q1021 NOSIG
ZBYN,2003-11-17 13:00,ZBYN 171300Z 13002MPS 6000 NSC 04/M04 Q1022 NOSIG
ZBYN,2003-11-17 14:00,ZBYN 171400Z 11001MPS 5000 FU NSC 03/M03 Q1022 NOSIG
ZBYN,2003-11-17 15:00,ZBYN 171500Z 13002MPS 3000 R31/1000N FU NSC 03/M02 Q1022 NOSIG
ZBYN,2003-11-17 16:00,ZBYN 171600Z 15002MPS 3000 FU NSC 03/M03 Q1022 NOSIG
ZBYN,2003-11-17 17:00,ZBYN 171700Z 13002MPS CAVOK 03/M02 Q1022
ZBYN,2003-11-17 18:00,ZBYN 171800Z 13001MPS 9999 OVC040 03/M02 Q1021
ZBYN,2003-11-17 19:00,ZBYN 171900Z 10001MPS 9999 OVC040 03/M02 Q1021
ZBYN,2003-11-17 20:00,ZBYN 172000Z 10001MPS 9999 -RA OVC040 02/M01 Q1020
ZBYN,2003-11-17 21:00,ZBYN 172100Z 00000MPS 9999 OVC040 02/M01 Q1020
ZBYN,2003-11-17 22:00,ZBYN 172200Z 14001MPS 9999 -RA OVC040 02/M01 Q1020 NOSIG
ZBYN,2003-11-17 23:00,ZBYN 172300Z 13001MPS 8000 -RA OVC040 02/M00 Q1020 NOSIG
ZBYN,2003-11-18 00:00,ZBYN 180000Z 02001MPS 6000 -RA OVC040 02/M00 Q1021 NOSIG
ZBYN,2003-11-18 01:00,ZBYN 180100Z 00000MPS 3000 BR OVC040 03/M00 Q1021 NOSIG
ZBYN,2003-11-18 02:00,ZBYN 180200Z 00000MPS 5000 BR NSC 03/M01 Q1021 NOSIG
ZBYN,2003-11-18 03:00,ZBYN 180300Z 00000MPS 5000 BR NSC 04/M01 Q1021 NOSIG
ZBYN,2003-11-18 04:00,ZBYN 180400Z 06001MPS 3000 BR NSC 04/M00 Q1020 NOSIG
ZBYN,2003-11-18 05:00,ZBYN 180500Z VRB01MPS 1800 R31/1400N -RA BR SCT040 OVC090 05/M00 Q1019 NOSIG
ZBYN,2003-11-18 06:00,ZBYN 180600Z 14001MPS 4000 -RA BR NSC 05/M00 Q1019 NOSIG
ZBYN,2003-11-18 07:00,ZBYN 180700Z 11001MPS 6000 OVC040 04/00 Q1019 NOSIG
ZBYN,2003-11-18 08:00,ZBYN 180800Z 03001MPS 8000 -RA OVC040 04/01 Q1018 NOSIG
ZBYN,2003-11-18 09:00,ZBYN 180900Z 00000MPS 4000 -RA BR OVC040 04/01 Q1018 NOSIG
ZBYN,2003-11-18 10:00,ZBYN 181000Z 32001MPS 2500 -RA BR OVC040 03/02 Q1019 NOSIG
ZBYN,2003-11-18 11:00,ZBYN 181100Z 35001MPS 2000 -RA BR OVC030 03/02 Q1019 NOSIG
ZBYN,2003-11-18 12:00,ZBYN 181200Z 35001MPS 2000 -RA BR OVC020 03/01 Q1020 NOSIG
ZBYN,2003-11-18 13:00,ZBYN 181300Z 34002MPS 2500 RA BR OVC020 02/M00 Q1020 NOSIG
ZBYN,2003-11-18 14:00,ZBYN 181400Z 34004MPS 1400 R31/1200N RA BR OVC020 01/M00 Q1020 NOSIG
ZBYN,2003-11-18 15:00,ZBYN 181500Z 33003MPS 2000 R31/0900N -RA BR OVC020 01/00 Q1020 NOSIG
ZBYN,2003-11-18 16:00,ZBYN 181600Z 33003MPS 2000 R31/0900N -RA BR OVC020 01/M00 Q1020 NOSIG
ZBYN,2003-11-18 17:00,ZBYN 181700Z 33002MPS 2000 R31/0800N -RA BR OVC020 01/M00 Q1020
ZBYN,2003-11-18 18:00,ZBYN 181800Z 33002MPS 2000 R31/0800N -RA BR OVC020 01/M00 Q1020 NOSIG
ZBYN,2003-11-18 19:00,ZBYN 181900Z 35002MPS 3000 R31/0900N BR OVC030 01/00 Q1019
ZBYN,2003-11-18 20:00,ZBYN 182000Z 34002MPS 2000 R31/1200N -RA BR OVC020 01/00 Q1019
ZBYN,2003-11-18 21:00,ZBYN 182100Z 28001MPS 1400 R31/0650N -RA BR OVC020 01/00 Q1019 NOSIG
ZBYN,2003-11-18 22:00,ZBYN 182200Z 34001MPS 1200 R31/0550N -RA BR OVC020 01/00 Q1019 NOSIG
ZBYN,2003-11-18 23:00,ZBYN 182300Z 31001MPS 1000 R31/0550N -RA BR OVC020 01/00 Q1019 NOSIG
ZBYN,2003-11-19 00:00,ZBYN 190000Z 28001MPS 0800 R31/0900N -RA FG SCT020 OVC030 01/00 Q1019 NOSIG
ZBYN,2003-11-19 01:00,ZBYN 190100Z 00000MPS 0700 R31/0900N -RA FG SCT016 OVC030 01/01 Q1020 NOSIG
ZBYN,2003-11-19 02:00,ZBYN 190200Z 00000MPS 0800 R31/1100N FG FEW020 OVC030 02/01 Q1020 NOSIG
ZBYN,2003-11-19 03:00,ZBYN 190300Z 00000MPS 1500 R31/0900N BR FEW020 BKN030 OVC100 02/01 Q1020 NOSIG
ZBYN,2003-11-19 04:00,ZBYN 190400Z 17001MPS 1500 R31/1100 BR FEW020 OVC090 03/01 Q1019 NOSIG
ZBYN,2003-11-19 05:00,ZBYN 190500Z 16001MPS 2000 BR BKN020 OVC090 03/01 Q1019 NOSIG
ZBYN,2003-11-19 06:00,ZBYN 190600Z VRB01MPS 1400 R31/1400N BR BKN020 OVC090 03/01 Q1 018 NOSIG
ZBYN,2003-11-19 07:00,ZBYN 190700Z 20001MPS 1800 BR BKN020 OVC090 03/01 Q1018 NOSIG
ZBYN,2003-11-19 08:00,ZBYN 190800Z 20001MPS 2500 BR BKN020 OVC090 03/01 Q1018 NOSIG
ZBYN,2003-11-19 09:00,ZBYN 190900Z VRB01MPS 2000 BR BKN020 OVC090 03/01 Q1018 NOSIG
ZBYN,2003-11-19 10:00,ZBYN 191000Z 12001MPS 2000 BR BKN020 OVC090 03/01 Q1018 NOSIG
ZBYN,2003-11-19 11:00,ZBYN 191100Z 00000MPS 2000 R31/1400N BR BKN020 OVC090 03/01 Q1019 NOSIG
ZBYN,2003-11-19 12:00,ZBYN 191200Z 16001MPS 2000 R31/1300N BR SCT020 OVC090 03/01 Q1019 NOSIG
ZBYN,2003-11-19 13:00,ZBYN 191300Z VRB01MPS 1300 R31/1300 BR BKN020 OVC090 03/01 Q1019 NOSIG
ZBYN,2003-11-19 14:00,ZBYN 191400Z 15001MPS 1300 R31/1300 BR BKN020 OVC090 03/01 Q1020 NOSIG
ZBYN,2003-11-19 15:00,ZBYN 191500Z 12001MPS 1400 R31/1300N BR BKN026 OVC090 03/01 Q1020 NOSIG
ZBYN,2003-11-19 16:00,ZBYN 191600Z 10001MPS 1200 R31/0600N BR BKN026 OVC090 02/01 Q1020 NOSIG
ZBYN,2003-11-19 17:00,ZBYN 191700Z 10002MPS 0900 R31/0500N FG BKN026 OVC090 01/M00 Q1019 NOSIG
ZBYN,2003-11-19 18:00,ZBYN 191800Z 22001MPS 0900 R31/0500N FG BKN040 02/01 Q1020 NOSIG
ZBYN,2003-11-19 19:00,ZBYN 191900Z 26005MPS CAVOK 04/M01 Q1020
ZBYN,2003-11-19 20:00,ZBYN 192000Z 26004MPS CAVOK 03/M04 Q1020
ZBYN,2003-11-19 21:00,ZBYN 192100Z 26004MPS CAVOK 03/M04 Q1020
ZBYN,2003-11-19 22:00,ZBYN 192200Z 28005MPS CAVOK 03/M04 Q1020 NOSIG
ZBYN,2003-11-19 23:00,ZBYN 192300Z 27002MPS CAVOK 02/M04 Q1021 NOSIG
ZBYN,2003-11-20 00:00,ZBYN 200000Z 28002MPS CAVOK 02/M04 Q1021 NOSIG
ZBYN,2003-11-20 01:00,ZBYN 200100Z 26004MPS CAVOK 04/M04 Q1022 NOSIG
ZBYN,2003-11-20 02:00,ZBYN 200200Z 28005MPS CAVOK 04/M05 Q1022 NOSIG
ZBYN,2003-11-20 03:00,ZBYN 200300Z 29006MPS CAVOK 05/M05 Q1022 NOSIG
ZBYN,2003-11-20 04:00,ZBYN 200400Z 28006MPS CAVOK 05/M06 Q1022 NOSIG
ZBYN,2003-11-20 05:00,ZBYN 200500Z 29005MPS CAVOK 06/M05 Q1021 NOSIG
ZBYN,2003-11-20 06:00,ZBYN 200600Z 28005MPS CAVOK 07/M05 Q1020 NOSIG
ZBYN,2003-11-20 07:00,ZBYN 200700Z 26004MPS CAVOK 07/M05 Q1020 NOSIG
ZBYN,2003-11-20 08:00,ZBYN 200800Z 28004MPS CAVOK 07/M08 Q1021 NOSIG
ZBYN,2003-11-20 09:00,ZBYN 200900Z 30007MPS CAVOK 06/M09 Q1021 NOSIG
ZBYN,2003-11-20 10:00,ZBYN 201000Z 31005MPS CAVOK 04/M09 Q1022 NOSIG
ZBYN,2003-11-20 11:00,ZBYN 201100Z 29004MPS CAVOK 03/M09 Q1023 NOSIG
ZBYN,2003-11-20 12:00,ZBYN 201200Z 30006MPS CAVOK 03/M10 Q1024 NOSIG
ZBYN,2003-11-20 13:00,ZBYN 201300Z 30006MPS CAVOK 02/M12 Q1026 NOSIG
ZBYN,2003-11-20 14:00,ZBYN 201400Z 31005MPS CAVOK 01/M13 Q1027 NOSIG
ZBYN,2003-11-20 15:00,ZBYN 201500Z 31005MPS CAVOK 00/M14 Q1028 NOSIG
ZBYN,2003-11-20 16:00,ZBYN 201600Z 30004MPS CAVOK M00/M14 Q1029 NOSIG
ZBYN,2003-11-20 17:00,ZBYN 201700Z 32006MPS CAVOK M01/M17 Q1028 NOSIG
ZBYN,2003-11-20 18:00,ZBYN 201800Z 30003MPS CAVOK M02/M16 Q1028
ZBYN,2003-11-20 19:00,ZBYN 201900Z 29004MPS CAVOK M02/M15 Q1028
ZBYN,2003-11-20 20:00,ZBYN 202000Z 30004MPS CAVOK M03/M14 Q1028
ZBYN,2003-11-20 21:00,ZBYN 202100Z 36002MPS CAVOK M04/M13 Q1029
ZBYN,2003-11-20 22:00,ZBYN 202200Z 00000MPS CAVOK M04/M12 Q1030 NOSIG
ZBYN,2003-11-20 23:00,ZBYN 202300Z 30002MPS CAVOK M05/M13 Q1031 NOSIG
ZBYN,2003-11-21 00:00,ZBYN 210000Z 29002MPS CAVOK M04/M14 Q1032 NOSIG
ZBYN,2003-11-21 01:00,ZBYN 210100Z 28004MPS CAVOK M02/M16 Q1032 NOSIG
ZBYN,2003-11-21 02:00,ZBYN 210200Z 30003MPS CAVOK M01/M16 Q1033 NOSIG
ZBYN,2003-11-21 03:00,ZBYN 210300Z 31003MPS CAVOK M00/M16 Q1033 NOSIG
ZBYN,2003-11-21 04:00,ZBYN 210400Z 30005MPS CAVOK 01/M16 Q1031 NOSIG
ZBYN,2003-11-21 05:00,ZBYN 210500Z 24003MPS CAVOK 01/M14 Q1030 NOSIG
ZBYN,2003-11-21 06:00,ZBYN 210600Z 26002MPS CAVOK 01/M15 Q1029 NOSIG
ZBYN,2003-11-21 07:00,ZBYN 210700Z 24003MPS CAVOK 02/M14 Q1028 NOSIG
ZBYN,2003-11-21 08:00,ZBYN 210800Z 23002MPS CAVOK 01/M14 Q1028 NOSIG
ZBYN,2003-11-21 09:00,ZBYN 210900Z 22002MPS CAVOK 00/M13 Q1028 NOSIG
ZBYN,2003-11-21 10:00,ZBYN 211000Z 23002MPS CAVOK M01/M11 Q1028 NOSIG
ZBYN,2003-11-21 11:00,ZBYN 211100Z 00000MPS CAVOK M03/M11 Q1028 NOSIG
ZBYN,2003-11-21 12:00,ZBYN 211200Z 25001MPS CAVOK M02/M10 Q1028 NOSIG
ZBYN,2003-11-21 13:00,ZBYN 211300Z 15001MPS CAVOK M03/M09 Q1028 NOSIG
ZBYN,2003-11-21 14:00,ZBYN 211400Z 12001MPS CAVOK M05/M08 Q1029 NOSIG
ZBYN,2003-11-21 15:00,ZBYN 211500Z 19001MPS CAVOK M03/M09 Q1028 NOSIG
ZBYN,2003-11-21 16:00,ZBYN 211600Z 12001MPS CAVOK M05/M09 Q1028 NOSIG
ZBYN,2003-11-21 17:00,ZBYN 211700Z 09001MPS CAVOK M05/M09 Q1028
ZBYN,2003-11-21 18:00,ZBYN 211800Z 09001MPS CAVOK M07/M09 Q1027
ZBYN,2003-11-21 19:00,ZBYN 211900Z 07001MPS CAVOK M07/M09 Q1027
ZBYN,2003-11-21 20:00,ZBYN 212000Z 09001MPS CAVOK M06/M09 Q1026 NOSIG
ZBYN,2003-11-21 21:00,ZBYN 212100Z 08001MPS CAVOK M07/M09 Q1026
ZBYN,2003-11-21 22:00,ZBYN 212200Z 08001MPS CAVOK M06/M09 Q1025 NOSIG
ZBYN,2003-11-21 23:00,ZBYN 212300Z 12001MPS CAVOK M07/M10 Q1025 NOSIG
ZBYN,2003-11-22 00:00,ZBYN 220000Z 00000MPS 8000 SKC M07/M09 Q1026 NOSIG
ZBYN,2003-11-22 01:00,ZBYN 220100Z 03001MPS 6000 SKC M04/M08 Q1025 NOSIG
ZBYN,2003-11-22 02:00,ZBYN 220200Z 03001MPS 8000 SKC M02/M10 Q1025 NOSIG
ZBYN,2003-11-22 03:00,ZBYN 220300Z 03001MPS CAVOK M00/M11 Q1024 NOSIG
ZBYN,2003-11-22 04:00,ZBYN 220400Z VRB01MPS CAVOK 02/M11 Q1023 NOSIG
ZBYN,2003-11-22 05:00,ZBYN 220500Z 25001MPS CAVOK 03/M12 Q1022 NOSIG
ZBYN,2003-11-22 06:00,ZBYN 220600Z 23001MPS CAVOK 04/M13 Q1021 NOSIG
ZBYN,2003-11-22 07:00,ZBYN 220700Z 21001MPS CAVOK 05/M13 Q1020 NOSIG
ZBYN,2003-11-22 08:00,ZBYN 220800Z 15002MPS CAVOK 04/M12 Q1020 NOSIG
ZBYN,2003-11-22 09:00,ZBYN 220900Z VRB01MPS CAVOK 02/M11 Q1020 NOSIG
ZBYN,2003-11-22 10:00,ZBYN 221000Z 09001MPS CAVOK 00/M10 Q1021 NOSIG
ZBYN,2003-11-22 11:00,ZBYN 221100Z 11001MPS CAVOK M01/M09 Q1022 NOSIG
ZBYN,2003-11-22 12:00,ZBYN 221200Z VRB01MPS CAVOK M02/M07 Q1022 NOSIG
ZBYN,2003-11-22 13:00,ZBYN 221300Z VRB01MPS CAVOK M02/M06 Q1023 NOSIG
ZBYN,2003-11-22 14:00,ZBYN 221400Z 05001MPS CAVOK M04/M07 Q1023 NOSIG
ZBYN,2003-11-22 15:00,ZBYN 221500Z 06001MPS 6000 SKC M04/M07 Q1023 NOSIG
ZBYN,2003-11-22 16:00,ZBYN 221600Z 00000MPS 3000 R31/1300N BR SKC M04/M07 Q1023 NOSIG
ZBYN,2003-11-22 17:00,ZBYN 221700Z 12001MPS 3000 BR SKC M04/M06 Q1023
ZBYN,2003-11-22 18:00,ZBYN 221800Z 09001MPS 4000 BR SKC M04/M06 Q1023
ZBYN,2003-11-22 19:00,ZBYN 221900Z 10001MPS 6000 SKC M05/M07 Q1023
ZBYN,2003-11-22 20:00,ZBYN 222000Z 31001MPS 3000 R31/1100N BR SKC M05/M07 Q1024
ZBYN,2003-11-22 21:00,ZBYN 222100Z 00000MPS 3000 BR SKC M04/M06 Q1023
ZBYN,2003-11-22 22:00,ZBYN 222200Z 14002MPS 1600 R31/1200 BR SKC M05/M07 Q1023 NOSIG
ZBYN,2003-11-22 23:00,ZBYN 222300Z 00000MPS 1100 R31/1100N BR SKC M05/M07 Q1024 NOSIG
ZBYN,2003-11-23 00:00,ZBYN 230000Z 00000MPS 1400 R31/P1500 BR NSC M04/M06 Q1024 NOSIG
ZBYN,2003-11-23 01:00,ZBYN 230100Z 14001MPS 1400 R31/1100 BR NSC M03/M04 Q1025 NOSIG
ZBYN,2003-11-23 02:00,ZBYN 230200Z 03001MPS 1100 R31/0800N BR NSC M01/M04 Q1025 NOSIG
ZBYN,2003-11-23 03:00,ZBYN 230300Z 16001MPS 1800 FU NSC 02/M05 Q1024 NOSIG
ZBYN,2003-11-23 04:00,ZBYN 230400Z 19001MPS 1800 FU NSC 03/M05 Q1024 NOSIG
ZBYN,2003-11-23 05:00,ZBYN 230500Z VRB01MPS 3000 FU NSC 04/M06 Q1023 NOSIG
ZBYN,2003-11-23 06:00,ZBYN 230600Z VRB01MPS 4000 FU NSC 05/M05 Q1021 NOSIG
ZBYN,2003-11-23 07:00,ZBYN 230700Z 23001MPS 3000 FU NSC 06/M05 Q1021 NOSIG
ZBYN,2003-11-23 08:00,ZBYN 230800Z 00000MPS 3000 FU NSC 05/M04 Q1021 NOSIG
ZBYN,2003-11-23 09:00,ZBYN 230900Z 00000MPS 4000 FU NSC 04/M05 Q1021 NOSIG
ZBYN,2003-11-23 10:00,ZBYN 231000Z 25001MPS 3000 FU NSC 02/M04 Q1022 NOSIG
ZBYN,2003-11-23 11:00,ZBYN 231100Z 11001MPS 3000 FU NSC 01/M04 Q1023 NOSIG
ZBYN,2003-11-23 12:00,ZBYN 231200Z 13001MPS 4000 FU NSC 01/M03 Q1023 NOSIG
ZBYN,2003-11-23 13:00,ZBYN 231300Z 13001MPS 3000 FU NSC 00/M03 Q1023 NOSIG
ZBYN,2003-11-23 14:00,ZBYN 231400Z 00000MPS 3000 FU NSC 00/M03 Q1024 NOSIG
ZBYN,2003-11-23 15:00,ZBYN 231500Z 00000MPS 2000 FU NSC M00/M03 Q1024 NOSIG
ZBYN,2003-11-23 16:00,ZBYN 231600Z 13001MPS 2000 BR NSC M02/M03 Q1024 NOSIG
ZBYN,2003-11-23 17:00,ZBYN 231700Z 11001MPS 2500 BR NSC M02/M03 Q1024
ZBYN,2003-11-23 18:00,ZBYN 231800Z 10001MPS 2500 BR NSC M02/M04 Q1023
ZBYN,2003-11-23 19:00,ZBYN 231900Z 00000MPS 1800 BR NSC M03/M04 Q1024
ZBYN,2003-11-23 20:00,ZBYN 232000Z 00000MPS 2500 R31/0900N BR NSC M03/M04 Q1024
ZBYN,2003-11-23 21:00,ZBYN 232100Z 13001MPS 1700 R31/0800N BR NSC M05/M06 Q1024 NOSIG
ZBYN,2003-11-23 21:30,ZBYN 232130Z 09001MPS 1700 R31/0750N BR NSC M03/M04 Q1023 NOSIG
ZBYN,2003-11-23 22:00,ZBYN 232200Z 00000MPS 2000 R31/0700N BR NSC M04/M05 Q1024 NOSIG
ZBYN,2003-11-23 22:30,ZBYN 232230Z 03001MPS 2000 R31/0700N BR NSC M04/M05 Q1024 NOSIG
ZBYN,2003-11-23 23:00,ZBYN 232300Z 00000MPS 1400 R31/0700N BR NSC M04/M05 Q1025 NOSIG
ZBYN,2003-11-23 23:30,ZBYN 232330Z 10001MPS 1400 R31/1200N BR NSC M04/M05 Q1026 NOSIG
ZBYN,2003-11-24 00:00,ZBYN 240000Z 12002MPS 1600 R31/1000 BR NSC M05/M06 Q1026 NOSIG
ZBYN,2003-11-24 01:00,ZBYN 240100Z 12001MPS 0800 R31/0700N FZFG SKC M03/M04 Q1027 NOSIG
ZBYN,2003-11-24 02:00,ZBYN 240200Z 13001MPS 0800 R31/0750N FZFG SKC M01/M03 Q1027 NOSIG
ZBYN,2003-11-24 03:00,ZBYN 240300Z 00000MPS 0800 R31/0550N FG SKC 00/M02 Q1027 NOSIG
ZBYN,2003-11-24 04:00,ZBYN 240400Z 16001MPS 0800 R31/0400N FG SKC 02/M02 Q1027 NOSIG
ZBYN,2003-11-24 05:00,ZBYN 240500Z 15001MPS 0600 R31/0500N FU SKC 04/M01 Q1026 NOSIG
ZBYN,2003-11-24 06:00,ZBYN 240600Z 14001MPS 0700 R31/0700N FU SKC 05/M01 Q1026 NOSIG
ZBYN,2003-11-24 07:00,ZBYN 240700Z 22001MPS 0800 R31/0800N FU SKC 07/M02 Q1026 NOSIG
ZBYN,2003-11-24 08:00,ZBYN 240800Z 00000MPS 1000 R31/1000N FU SKC 07/M02 Q1026 NOSIG
ZBYN,2003-11-24 09:00,ZBYN 240900Z 09001MPS 1200 R31/P1500 FU SKC 03/M02 Q1026 NOSIG
ZBYN,2003-11-24 10:00,ZBYN 241000Z 11001MPS 1000 R31/1100 FU SKC 01/M02 Q1027 NOSIG
ZBYN,2003-11-24 11:00,ZBYN 241100Z VRB01MPS 1300 R31/1400N BR SKC 00/M03 Q1028 NOSIG
ZBYN,2003-11-24 12:00,ZBYN 241200Z 12002MPS 1300 R31/P1500 BR SKC M02/M05 Q1029 NOSIG
ZBYN,2003-11-24 13:00,ZBYN 241300Z 10002MPS 1800 BR SKC M03/M05 Q1029 NOSIG
ZBYN,2003-11-24 14:00,ZBYN 241400Z 14001MPS 2000 BR SKC M01/M04 Q1030 NOSIG
ZBYN,2003-11-24 15:00,ZBYN 241500Z 04001MPS 2000 BR SKC M02/M04 Q1030 NOSIG
ZBYN,2003-11-24 16:00,ZBYN 241600Z VRB01MPS 2000 R31/1000N BR SKC M03/M06 Q1031 NOSIG
ZBYN,2003-11-24 17:00,ZBYN 241700Z 00000MPS 2000 R31/0900N BR SKC M02/M04 Q1031
ZBYN,2003-11-24 18:00,ZBYN 241800Z 01001MPS 2000 R31/0900N BR SKC M05/M06 Q1030
ZBYN,2003-11-24 19:00,ZBYN 241900Z 12002MPS 2000 R31/1200N BR SKC M04/M06 Q1031
ZBYN,2003-11-24 20:00,ZBYN 242000Z 35001MPS 2000 R31/1200N BR SKC M05/M07 Q1031
ZBYN,2003-11-24 21:00,ZBYN 242100Z 14001MPS 2000 BR SKC M05/M06 Q1031
ZBYN,2003-11-24 22:00,ZBYN 242200Z 35001MPS 3000 BR SKC M05/M06 Q1031 NOSIG
ZBYN,2003-11-24 23:00,ZBYN 242300Z 13002MPS 2000 R31/1200N BR SKC M06/M07 Q1032 NOSIG
ZBYN,2003-11-25 00:00,ZBYN 250000Z 13001MPS 2000 BR NSC M04/M06 Q1032 NOSIG
ZBYN,2003-11-25 01:00,ZBYN 250100Z 00000MPS 1200 R31/0750N BR NSC M02/M04 Q1032 NOSIG
ZBYN,2003-11-25 02:00,ZBYN 250200Z 34002MPS 1800 R31/1000N BR NSC 01/M03 Q1032 NOSIG
ZBYN,2003-11-25 03:00,ZBYN 250300Z 34001MPS 4000 BR NSC 05/M05 Q1032 NOSIG
ZBYN,2003-11-25 04:00,ZBYN 250400Z 08003MPS 5000 BR SKC 07/M04 Q1031 NOSIG
ZBYN,2003-11-25 05:00,ZBYN 250500Z 06002MPS 6000 SKC 07/M04 Q1030 NOSIG
ZBYN,2003-11-25 06:00,ZBYN 250600Z 10004MPS 7000 NSC 08/M04 Q1028 NOSIG
ZBYN,2003-11-25 07:00,ZBYN 250700Z 08004MPS 4000 HZ NSC 07/M03 Q1028 NOSIG
ZBYN,2003-11-25 08:00,ZBYN 250800Z 08005MPS 2000 HZ NSC 05/M03 Q1028 NOSIG
ZBYN,2003-11-25 09:00,ZBYN 250900Z 10005MPS 2000 HZ NSC 04/M03 Q1028 NOSIG
ZBYN,2003-11-25 10:00,ZBYN 251000Z 11004MPS 3000 HZ NSC 02/M03 Q1028 NOSIG
ZBYN,2003-11-25 11:00,ZBYN 251100Z 12004MPS 3000 BR SKC NSC 02/M03 Q1030 NOSIG
ZBYN,2003-11-25 12:00,ZBYN 251200Z 12002MPS 2000 -RA BR NSC 01/M02 Q1031 NOSIG
ZBYN,2003-11-25 13:00,ZBYN 251300Z 12002MPS 1700 BR NSC 01/M01 Q1031 NOSIG
ZBYN,2003-11-25 14:00,ZBYN 251400Z 10002MPS 1200 R31/0550 -RA BR OVC040 01/M00 Q1031 NOSIG
ZBYN,2003-11-25 15:00,ZBYN 251500Z 24004MPS 2500 -RA BR OVC040 02/01 Q1030 NOSIG
ZBYN,2003-11-25 16:00,ZBYN 251600Z 23004MPS 5000 BR NSC 02/01 Q1030 NOSIG
ZBYN,2003-11-25 17:00,ZBYN 251700Z 23003MPS 5000 BR NSC 02/00 Q1030
ZBYN,2003-11-25 18:00,ZBYN 251800Z 21002MPS 4000 BR NSC 01/M00 Q1030
ZBYN,2003-11-25 19:00,ZBYN 251900Z 00000MPS 3000 BR NSC 00/M01 Q1029
ZBYN,2003-11-25 21:00,ZBYN 252100Z VRB01MPS 2000 BR SKC M00/M01 Q1029
ZBYN,2003-11-25 22:00,ZBYN 252200Z 12002MPS 1400 R31/0750N BR SKC M03/M04 Q1029 NOSIG
ZBYN,2003-11-25 23:00,ZBYN 252300Z 08001MPS 1200 R31/0500N BR SKC M02/M03 Q1030 NOSIG
ZBYN,2003-11-26 00:00,ZBYN 260000Z 10001MPS 1000 R31/0550N BR SKC M02/M03 Q1031 NOSIG
ZBYN,2003-11-26 01:00,ZBYN 260100Z 08002MPS 1000 R31/0900U BR SKC M01/M01 Q1031 NOSIG
ZBYN,2003-11-26 02:00,ZBYN 260200Z 12002MPS 1600 R31/1200 BR SKC 01/M01 Q1031 NOSIG
ZBYN,2003-11-26 03:00,ZBYN 260300Z 19001MPS 1800 BR SKC 02/M01 Q1031 NOSIG
ZBYN,2003-11-26 04:00,ZBYN 260400Z 26001MPS 4000 FU SKC 04/M03 Q1030 NOSIG
ZBYN,2003-11-26 05:00,ZBYN 260500Z VRB01MPS 6000 SKC 05/M04 Q1029 NOSIG
ZBYN,2003-11-26 06:00,ZBYN 260600Z 23001MPS 6000 SKC 05/M04 Q1029 NOSIG
ZBYN,2003-11-26 07:00,ZBYN 260700Z 20001MPS 6000 SKC 05/M04 Q1029 NOSIG
ZBYN,2003-11-26 08:00,ZBYN 260800Z 19001MPS 6000 SKC 05/M04 Q1028 NOSIG
ZBYN,2003-11-26 09:00,ZBYN 260900Z 18001MPS 6000 SKC 04/M03 Q1028 NOSIG
ZBYN,2003-11-26 10:00,ZBYN 261000Z 10001MPS 8000 SKC 01/M03 Q1029 NOSIG
ZBYN,2003-11-26 10:30,ZBYN 261030Z 07001MPS 4000 BR SKC 00/M03 Q1029 NOSIG
ZBYN,2003-11-26 11:00,ZBYN 261100Z 08002MPS 3000 BR SKC 01/M03 Q1029 NOSIG
ZBYN,2003-11-26 11:30,ZBYN 261130Z 08002MPS 3000 BR SKC 00/M03 Q1029 NOSIG
ZBYN,2003-11-26 12:00,ZBYN 261200Z 10001MPS 3000 BR SKC 00/M03 Q1029 NOSIG
ZBYN,2003-11-26 13:00,ZBYN 261300Z 10002MPS 3500 BR SKC M02/M04 Q1029 NOSIG
ZBYN,2003-11-26 14:00,ZBYN 261400Z VRB01MPS 3500 BR SKC M01/M03 Q1029 NOSIG
ZBYN,2003-11-26 15:00,ZBYN 261500Z 10001MPS 5000 BR SKC M03/M05 Q1029 NOSIG
ZBYN,2003-11-26 16:00,ZBYN 261600Z 12004MPS 4000 BR SKC M02/M04 Q1030 NOSIG
ZBYN,2003-11-26 17:00,ZBYN 261700Z 11004MPS 5000 BR SKC M03/M04 Q1029
ZBYN,2003-11-26 18:00,ZBYN 261800Z 10003MPS 5000 BR SKC M03/M05 Q1029
ZBYN,2003-11-26 19:00,ZBYN 261900Z 09003MPS 6000 SKC M02/M04 Q1029
ZBYN,2003-11-26 20:00,ZBYN 262000Z 10002MPS 6000 SKC M03/M05 Q1028
ZBYN,2003-11-26 22:00,ZBYN 262200Z 26001MPS 3000 BR SKC M02/M04 Q1028 NOSIG
ZBYN,2003-11-26 23:00,ZBYN 262300Z 00000MPS 2500 BR SKC M02/M04 Q1028 NOSIG
ZBYN,2003-11-27 00:00,ZBYN 270000Z 13001MPS 2500 BR OVC020 M02/M03 Q1028 NOSIG
ZBYN,2003-11-27 01:00,ZBYN 270100Z 00000MPS 1400 BR SCT010 OVC020 M01/M03 Q1028 NOSIG
ZBYN,2003-11-27 02:00,ZBYN 270200Z 26001MPS 1200 R31/1100N BR SCT010 OVC020 M01/M03 Q1028 NOSIG
ZBYN,2003-11-27 03:00,ZBYN 270300Z 29001MPS 1500 R31/1200N BR NSC 00/M03 Q1028 NOSIG
ZBYN,2003-11-27 04:00,ZBYN 270400Z VRB01MPS 2000 BR NSC 01/M03 Q1027 NOSIG
ZBYN,2003-11-27 05:00,ZBYN 270500Z VRB01MPS 3000 FU SCT023 BKN200 03/M03 Q1026 NOSIG
ZBYN,2003-11-27 06:00,ZBYN 270600Z VRB01MPS 3000 FU BKN023 02/M03 Q1025 NOSIG
ZBYN,2003-11-27 07:00,ZBYN 270700Z 18002MPS 3500 FU BKN023 03/M04 Q1025 NOSIG
ZBYN,2003-11-27 08:00,ZBYN 270800Z 15003MPS 6000 BKN023 02/M04 Q1024 NOSIG
ZBYN,2003-11-27 09:00,ZBYN 270900Z 14003MPS 6000 BKN023 OVC200 01/M04 Q1025 NOSIG
ZBYN,2003-11-27 10:00,ZBYN 271000Z 15002MPS 7000 BKN023 OVC200 01/M04 Q1025 NOSIG
ZBYN,2003-11-27 11:00,ZBYN 271100Z 15002MPS 7000 NSC M01/M05 Q1026 NOSIG
ZBYN,2003-11-27 12:00,ZBYN 271200Z 07003MPS 6000 NSC M01/M04 Q1025 NOSIG
ZBYN,2003-11-27 13:00,ZBYN 271300Z 10002MPS 7000 NSC M01/M05 Q1026 NOSIG
ZBYN,2003-11-27 14:00,ZBYN 271400Z 00000MPS 5000 BR NSC M02/M04 Q1026 NOSIG
ZBYN,2003-11-27 15:00,ZBYN 271500Z 00000MPS 5000 BR NSC M02/M04 Q1026 NOSIG
ZBYN,2003-11-27 16:00,ZBYN 271600Z 00000MPS 4000 BR NSC M01/M04 Q1026 NOSIG
ZBYN,2003-11-27 17:00,ZBYN 271700Z 12001MPS 6000 NSC M02/M04 Q1026 NOSIG
ZBYN,2003-11-27 18:00,ZBYN 271800Z 13002MPS 6000 NSC M02/M04 Q1026
ZBYN,2003-11-27 19:00,ZBYN 271900Z 26001MPS 5000 BR NSC M02/M04 Q1026
ZBYN,2003-11-27 20:00,ZBYN 272000Z 13001MPS 6000 NSC M02/M04 Q1026
ZBYN,2003-11-27 21:00,ZBYN 272100Z 13001MPS 4000 BR NSC M02/M04 Q1026
ZBYN,2003-11-27 22:00,ZBYN 272200Z 14001MPS 2000 R31/0700N BR NSC M01/M02 Q1025 NOSIG
ZBYN,2003-11-27 23:00,ZBYN 272300Z 11001MPS 1400 R31/0500N BR NSC M01/M03 Q1026 NOSIG
ZBYN,2003-11-28 00:00,ZBYN 280000Z 10001MPS 1000 R31/0800N BR NSC M02/M03 Q1026 NOSIG
ZBYN,2003-11-28 01:00,ZBYN 280100Z VRB01MPS 0600 R31/0800N FZFG NSC M02/M03 Q1027 NOSIG
ZBYN,2003-11-28 02:00,ZBYN 280200Z VRB01MPS 0600 R31/0750N FZFG NSC M00/M02 Q1027 NOSIG
ZBYN,2003-11-28 03:00,ZBYN 280300Z 15002MPS 0700 R31/0750N FG NSC 01/M02 Q1027 NOSIG
ZBYN,2003-11-28 04:00,ZBYN 280400Z 29006MPS CAVOK 05/M08 Q1026 NOSIG
ZBYN,2003-11-28 05:00,ZBYN 280500Z 31007MPS CAVOK 05/M12 Q1026 NOSIG
ZBYN,2003-11-28 06:00,ZBYN 280600Z 29007MPS CAVOK 05/M14 Q1025 NOSIG
ZBYN,2003-11-28 07:00,ZBYN 280700Z 29006MPS CAVOK 05/M16 Q1025 NOSIG
ZBYN,2003-11-28 08:00,ZBYN 280800Z 30007MPS CAVOK 04/M17 Q1025 NOSIG
ZBYN,2003-11-28 09:00,ZBYN 280900Z 28004MPS CAVOK 02/M17 Q1026 NOSIG
ZBYN,2003-11-28 10:00,ZBYN 281000Z 30004MPS CAVOK 01/M18 Q1026 NOSIG
ZBYN,2003-11-28 11:00,ZBYN 281100Z 30003MPS CAVOK 00/M17 Q1027 NOSIG
ZBYN,2003-11-28 12:00,ZBYN 281200Z AUTO 29004KT 12SM 00/M16 A3034 RMK SLP324 T00041156 52015 IEM_DS3505
ZBYN,2003-11-28 13:00,ZBYN 281300Z 26002MPS CAVOK M01/M16 Q1028 NOSIG
ZBYN,2003-11-28 14:00,ZBYN 281400Z 25001MPS CAVOK M02/M16 Q1028 NOSIG
ZBYN,2003-11-28 15:00,ZBYN 281500Z 18002MPS CAVOK M03/M11 Q1028 NOSIG
ZBYN,2003-11-28 16:00,ZBYN 281600Z 21001MPS CAVOK M05/M11 Q1028 NOSIG
ZBYN,2003-11-28 17:00,ZBYN 281700Z 12001MPS CAVOK M06/M12 Q1028
ZBYN,2003-11-28 18:00,ZBYN 281800Z 08002MPS CAVOK M07/M11 Q1027
ZBYN,2003-11-28 19:00,ZBYN 281900Z 09001MPS CAVOK M07/M11 Q1027
ZBYN,2003-11-28 20:00,ZBYN 282000Z 10001MPS CAVOK M08/M11 Q1026 NOSIG
ZBYN,2003-11-28 21:00,ZBYN 282100Z 09001MPS CAVOK M08/M11 Q1026
ZBYN,2003-11-28 22:00,ZBYN 282200Z 08001MPS CAVOK M07/M11 Q1025 NOSIG
ZBYN,2003-11-28 23:00,ZBYN 282300Z 13001MPS CAVOK M08/M11 Q1025 NOSIG
ZBYN,2003-11-29 00:00,ZBYN 290000Z 11001MPS 7000 SKC M08/M12 Q1025 NOSIG
ZBYN,2003-11-29 01:00,ZBYN 290100Z 04001MPS 6000 SKC M04/M09 Q1025 NOSIG
ZBYN,2003-11-29 02:00,ZBYN 290200Z 00000MPS 8000 SKC M03/M12 Q1025 NOSIG
ZBYN,2003-11-29 02:30,ZBYN 290230Z VRB01MPS 8000 SKC M01/M12 Q1025 NOSIG
ZBYN,2003-11-29 03:00,ZBYN 290300Z 17001MPS CAVOK M00/M12 Q1025 NOSIG
ZBYN,2003-11-29 03:30,ZBYN 290330Z 19002MPS CAVOK 00/M13 Q1024 NOSIG
ZBYN,2003-11-29 04:00,ZBYN 290400Z 18002MPS CAVOK 01/M13 Q1024 NOSIG
ZBYN,2003-11-29 04:30,ZBYN 290430Z 18001MPS CAVOK 02/M14 Q1023 NOSIG
ZBYN,2003-11-29 05:00,ZBYN 290500Z 19002MPS CAVOK 02/M14 Q1022 NOSIG
ZBYN,2003-11-29 06:00,ZBYN 290600Z VRB01MPS CAVOK 03/M14 Q1021 NOSIG
ZBYN,2003-11-29 07:00,ZBYN 290700Z 23001MPS CAVOK 04/M13 Q1020 NOSIG
ZBYN,2003-11-29 08:00,ZBYN 290800Z 13001MPS CAVOK 04/M13 Q1020 NOSIG
ZBYN,2003-11-29 09:00,ZBYN 290900Z 12002MPS CAVOK 01/M12 Q1020 NOSIG
ZBYN,2003-11-29 10:00,ZBYN 291000Z 12001MPS CAVOK M01/M11 Q1020 NOSIG
ZBYN,2003-11-29 11:00,ZBYN 291100Z 11002MPS CAVOK M02/M09 Q1020 NOSIG
ZBYN,2003-11-29 12:00,ZBYN 291200Z 11002MPS CAVOK M03/M09 Q1020 NOSIG
ZBYN,2003-11-29 13:00,ZBYN 291300Z 04001MPS CAVOK M04/M08 Q1021 NOSIG
ZBYN,2003-11-29 14:00,ZBYN 291400Z 05001MPS 8000 SKC M04/M09 Q1021 NOSIG
ZBYN,2003-11-29 15:00,ZBYN 291500Z 10001MPS 7000 SKC M04/M09 Q1021 NOSIG
ZBYN,2003-11-29 16:00,ZBYN 291600Z 34001MPS CAVOK M06/M09 Q1021 NOSIG
ZBYN,2003-11-29 17:00,ZBYN 291700Z 12002MPS CAVOK M06/M09 Q1021
ZBYN,2003-11-29 18:00,ZBYN 291800Z 00000MPS CAVOK M06/M09 Q1020
ZBYN,2003-11-29 19:00,ZBYN 291900Z 34001MPS CAVOK M06/M09 Q1020
ZBYN,2003-11-29 20:00,ZBYN 292000Z 11002MPS CAVOK M09/M11 Q1019
ZBYN,2003-11-29 20:30,ZBYN 292030Z 11001MPS CAVOK M07/M09 Q1019
ZBYN,2003-11-29 21:00,ZBYN 292100Z 00000MPS CAVOK M07/M10 Q1019
ZBYN,2003-11-29 21:30,ZBYN 292130Z VRB01MPS 8000 SKC M05/M08 Q1019
ZBYN,2003-11-29 22:00,ZBYN 292200Z 11001MPS 8000 SKC M07/M09 Q1019 NOSIG
ZBYN,2003-11-29 23:00,ZBYN 292300Z 03001MPS CAVOK M08/M10 Q1020 NOSIG
ZBYN,2003-11-30 00:00,ZBYN 300000Z 00000MPS 6000 SKC M06/M09 Q1020 NOSIG
ZBYN,2003-11-30 01:00,ZBYN 300100Z 13001MPS 4000 FU SKC M04/M07 Q1020 NOSIG
ZBYN,2003-11-30 02:00,ZBYN 300200Z 32001MPS 2500 FU SKC M02/M07 Q1020 NOSIG
ZBYN,2003-11-30 03:00,ZBYN 300300Z 00000MPS 5000 FU SKC M00/M09 Q1019 NOSIG
ZBYN,2003-11-30 04:00,ZBYN 300400Z VRB01MPS 7000 SKC 03/M09 Q1018 NOSIG
ZBYN,2003-11-30 05:00,ZBYN 300500Z 23001MPS 7000 SKC 04/M09 Q1017 NOSIG
ZBYN,2003-11-30 06:00,ZBYN 300600Z VRB01MPS 6000 SKC 05/M10 Q1016 NOSIG
ZBYN,2003-11-30 07:00,ZBYN 300700Z 22002MPS 4000 HZ SKC 06/M09 Q1016 NOSIG
ZBYN,2003-11-30 08:00,ZBYN 300800Z 17001MPS 5000 HZ SKC 05/M09 Q1017 NOSIG
ZBYN,2003-11-30 09:00,ZBYN 300900Z 00000MPS 4000 FU SKC 02/M08 Q1017 NOSIG
ZBYN,2003-11-30 10:00,ZBYN 301000Z 00000MPS 4000 FU SKC M00/M08 Q1017 NOSIG
ZBYN,2003-11-30 11:00,ZBYN 301100Z 12001MPS 3000 FU SKC M02/M07 Q1018 NOSIG
ZBYN,2003-11-30 12:00,ZBYN 301200Z 11001MPS 2000 FU SKC M02/M06 Q1019 NOSIG
ZBYN,2003-11-30 13:00,ZBYN 301300Z 12001MPS 3000 FU SKC M02/M06 Q1019 NOSIG
ZBYN,2003-11-30 14:00,ZBYN 301400Z 11001MPS 5000 FU SKC M03/M06 Q1020 NOSIG
ZBYN,2003-11-30 15:00,ZBYN 301500Z 00000MPS 4000 FU SKC M03/M06 Q1020 NOSIG
ZBYN,2003-11-30 16:00,ZBYN 301600Z 09001MPS 4000 FU SKC M04/M06 Q1020 NOSIG
ZBYN,2003-11-30 17:00,ZBYN 301700Z 18001MPS 3000 BR SKC M03/M05 Q1021
ZBYN,2003-11-30 18:00,ZBYN 301800Z 00000MPS 5000 BR SKC M04/M06 Q1021
ZBYN,2003-11-30 19:00,ZBYN 301900Z 16001MPS 3000 BR SKC M03/M05 Q1021
ZBYN,2003-11-30 20:00,ZBYN 302000Z 09001MPS 3000 R31/1100N BR SKC M04/M06 Q1022
ZBYN,2003-11-30 21:00,ZBYN 302100Z 00000MPS 5000 BR SKC M03/M05 Q1023
ZBYN,2003-11-30 22:00,ZBYN 302200Z 00000MPS 4000 BR SKC M03/M05 Q1023 NOSIG
ZBYN,2003-11-30 23:00,ZBYN 302300Z 12002MPS 3000 R31/1300N BR SKC M03/M05 Q1023 NOSIG
ZBYN,2003-12-01 00:00,ZBYN 010000Z 00000MPS 3000 BR NSC M03/M05 Q1025 NOSIG
ZBYN,2003-12-01 01:00,ZBYN 010100Z 00000MPS 1400 R31/0750N BR NSC M02/M04 Q1025 NOSIG
ZBYN,2003-12-01 02:00,ZBYN 010200Z 11001MPS 1200 R31/0900U BR NSC M01/M04 Q1026 NOSIG
ZBYN,2003-12-01 03:00,ZBYN 010300Z 17001MPS 1200 R31/0900N FU NSC 01/M04 Q1026 NOSIG
ZBYN,2003-12-01 04:00,ZBYN 010400Z 18002MPS 1400 R31/1000N FU NSC 03/M04 Q1025 NOSIG
ZBYN,2003-12-01 05:00,ZBYN 010500Z 23002MPS 1000 R31/0800N FU NSC 04/M04 Q1024 NOSIG
ZBYN,2003-12-01 06:00,ZBYN 010600Z 20002MPS 1200 R31/1200N FU SKC 05/M06 Q1023 NOSIG
ZBYN,2003-12-01 07:00,ZBYN 010700Z 24002MPS 1600 FU NSC 05/M04 Q1023 NOSIG
ZBYN,2003-12-01 08:00,ZBYN 010800Z 23001MPS 2000 FU SKC 04/M05 Q1023 NOSIG
ZBYN,2003-12-01 09:00,ZBYN 010900Z 19001MPS 1300 R31/P1500 FU NSC 03/M04 Q1024 NOSIG
ZBYN,2003-12-01 10:00,ZBYN 011000Z 00000MPS 1800 FU NSC M01/M04 Q1024 NOSIG
ZBYN,2003-12-01 11:00,ZBYN 011100Z 04001MPS 1800 BR NSC M02/M06 Q1025 NOSIG
ZBYN,2003-12-01 12:00,ZBYN 011200Z VRB01MPS CAVOK 00/M07 Q1026 NOSIG
ZBYN,2003-12-01 13:00,ZBYN 011300Z 32003MPS CAVOK 00/M13 Q1026 NOSIG
ZBYN,2003-12-01 14:00,ZBYN 011400Z 19001MPS CAVOK 00/M12 Q1026 NOSIG
ZBYN,2003-12-01 15:00,ZBYN 011500Z 17001MPS CAVOK M01/M09 Q1026 NOSIG
ZBYN,2003-12-01 16:00,ZBYN 011600Z 09002MPS CAVOK M04/M09 Q1026 NOSIG
ZBYN,2003-12-01 17:00,ZBYN 011700Z 11001MPS CAVOK M04/M08 Q1026
ZBYN,2003-12-01 18:00,ZBYN 011800Z 11001MPS CAVOK M07/M10 Q1026
ZBYN,2003-12-01 19:00,ZBYN 011900Z 10001MPS CAVOK M06/M09 Q1026
ZBYN,2003-12-01 20:00,ZBYN 012000Z 09001MPS CAVOK M06/M09 Q1025
ZBYN,2003-12-01 21:00,ZBYN 012100Z 05001MPS CAVOK M07/M10 Q1025
ZBYN,2003-12-01 22:00,ZBYN 012200Z 12001MPS 8000 SKC M07/M10 Q1026 NOSIG
ZBYN,2003-12-01 23:00,ZBYN 012300Z 00000MPS 6000 SKC M07/M10 Q1026 NOSIG
ZBYN,2003-12-02 00:00,ZBYN 020000Z 14002MPS 3000 BR NSC M07/M10 Q1026 NOSIG
ZBYN,2003-12-02 01:00,ZBYN 020100Z 00000MPS 4000 BR NSC M04/M07 Q1027 NOSIG
ZBYN,2003-12-02 02:00,ZBYN 020200Z VRB01MPS 4000 FU SKC M01/M08 Q1027 NOSIG
ZBYN,2003-12-02 03:00,ZBYN 020300Z 22002MPS 3000 FU SKC 00/M08 Q1026 NOSIG
ZBYN,2003-12-02 04:00,ZBYN 020400Z 25002MPS 4000 FU NSC 02/M08 Q1025 NOSIG
ZBYN,2003-12-02 05:00,ZBYN 020500Z 21002MPS 2000 FU NSC 04/M08 Q1024 NOSIG
ZBYN,2003-12-02 06:00,ZBYN 020600Z 19002MPS CAVOK 05/M13 Q1023 NOSIG
ZBYN,2003-12-02 07:00,ZBYN 020700Z 22002MPS CAVOK 05/M12 Q1022 NOSIG
ZBYN,2003-12-02 08:00,ZBYN 020800Z 20002MPS 6000 NSC 04/M10 Q1023 NOSIG
ZBYN,2003-12-02 09:00,ZBYN 020900Z 15002MPS 6000 NSC 02/M08 Q1022 NOSIG
ZBYN,2003-12-02 10:00,ZBYN 021000Z 10001MPS 6000 SKC M00/M09 Q1023 NOSIG
ZBYN,2003-12-02 11:00,ZBYN 021100Z VRB01MPS 6000 SKC M02/M08 Q1023 NOSIG
ZBYN,2003-12-02 12:00,ZBYN 021200Z 10001MPS 7000 SKC M04/M08 Q1024 NOSIG
ZBYN,2003-12-02 13:00,ZBYN 021300Z VRB01MPS 6000 SKC M02/M08 Q1024 NOSIG
ZBYN,2003-12-02 14:00,ZBYN 021400Z 13002MPS 6000 SKC M04/M08 Q1025 NOSIG
ZBYN,2003-12-02 15:00,ZBYN 021500Z 09001MPS 4000 FU SKC M04/M08 Q1024 NOSIG
ZBYN,2003-12-02 16:00,ZBYN 021600Z VRB01MPS 6000 SKC M05/M08 Q1024 NOSIG
ZBYN,2003-12-02 17:00,ZBYN 021700Z 07001MPS 6000 SKC M06/M09 Q1024
ZBYN,2003-12-02 18:00,ZBYN 021800Z 11001MPS 6000 SKC M06/M09 Q1023
ZBYN,2003-12-02 19:00,ZBYN 021900Z 08001MPS 6000 BR SKC M06/M09 Q1023
ZBYN,2003-12-02 20:00,ZBYN 022000Z 11001MPS 6000 SKC M05/M09 Q1023
ZBYN,2003-12-02 21:00,ZBYN 022100Z 12001MPS 6000 SKC M06/M10 Q1023
ZBYN,2003-12-02 22:00,ZBYN 022200Z 15001MPS 6000 SKC M06/M09 Q1023 NOSIG
ZBYN,2003-12-02 23:00,ZBYN 022300Z 09001MPS 5000 BR SKC M06/M10 Q1023 NOSIG
ZBYN,2003-12-03 00:00,ZBYN 030000Z 05001MPS 2000 BR SKC M07/M10 Q1023 NOSIG
ZBYN,2003-12-03 01:00,ZBYN 030100Z 00000MPS 1500 R31/1100D BR SKC M04/M07 Q1024 NOSIG
ZBYN,2003-12-03 02:00,ZBYN 030200Z 14001MPS 1500 FU SKC M01/M07 Q1024 NOSIG
ZBYN,2003-12-03 03:00,ZBYN 030300Z 04001MPS 4000 FU NSC 00/M09 Q1024 NOSIG
ZBYN,2003-12-03 04:00,ZBYN 030400Z 11002MPS 7000 NSC 04/M09 Q1022 NOSIG
ZBYN,2003-12-03 05:00,ZBYN 030500Z 00000MPS 8000 SKC 05/M11 Q1021 NOSIG
ZBYN,2003-12-03 06:00,ZBYN 030600Z 16001MPS CAVOK 06/M12 Q1020 NOSIG
ZBYN,2003-12-03 07:00,ZBYN 030700Z 16001MPS CAVOK 06/M12 Q1019 NOSIG
ZBYN,2003-12-03 09:00,ZBYN 030900Z 10005MPS 6000 NSC 02/M07 Q1019 NOSIG
ZBYN,2003-12-03 10:00,ZBYN 031000Z 09007MPS 6000 SKC 00/M07 Q1020 NOSIG
ZBYN,2003-12-03 11:00,ZBYN 031100Z 09006MPS 9000 SKC M01/M07 Q1020 NOSIG
ZBYN,2003-12-03 12:00,ZBYN 031200Z 08004MPS CAVOK M01/M08 Q1020 NOSIG
ZBYN,2003-12-03 13:00,ZBYN 031300Z 09002MPS CAVOK M02/M08 Q1021 NOSIG
ZBYN,2003-12-03 14:00,ZBYN 031400Z 09003MPS CAVOK M02/M09 Q1021 NOSIG
ZBYN,2003-12-03 15:00,ZBYN 031500Z 08003MPS CAVOK M02/M09 Q1021 NOSIG
ZBYN,2003-12-03 16:00,ZBYN 031600Z VRB01MPS 6000 NSC M04/M08 Q1021 NOSIG
ZBYN,2003-12-03 17:00,ZBYN 031700Z 24001MPS 6000 NSC M04/M08 Q1021
ZBYN,2003-12-03 18:00,ZBYN 031800Z 00000MPS 6000 BR NSC M04/M08 Q1021
ZBYN,2003-12-03 19:00,ZBYN 031900Z 00000MPS 5000 BR NSC M04/M08 Q1021
ZBYN,2003-12-03 20:00,ZBYN 032000Z 00000MPS 5000 BR NSC M05/M07 Q1020
ZBYN,2003-12-03 21:00,ZBYN 032100Z 15001MPS 6000 NSC M05/M07 Q1020
ZBYN,2003-12-03 22:00,ZBYN 032200Z 27001MPS 6000 NSC M04/M07 Q1020 NOSIG
ZBYN,2003-12-03 23:00,ZBYN 032300Z 00000MPS 5000 BR NSC M05/M07 Q1020 NOSIG
ZBYN,2003-12-04 00:00,ZBYN 040000Z 00000MPS 3000 BR NSC M04/M06 Q1021 NOSIG
ZBYN,2003-12-04 01:00,ZBYN 040100Z 22001MPS 2000 BR NSC M03/M06 Q1021 NOSIG
ZBYN,2003-12-04 02:00,ZBYN 040200Z 15002MPS 1800 R31/1000N BR NSC M02/M05 Q1022 NOSIG
ZBYN,2003-12-04 03:00,ZBYN 040300Z 00000MPS 1400 R31/1200 BR NSC M01/M06 Q1022 NOSIG
ZBYN,2003-12-04 04:00,ZBYN 040400Z 00000MPS 1700 R31/1200 FU NSC M00/M06 Q1020 NOSIG
ZBYN,2003-12-04 05:00,ZBYN 040500Z 25001MPS 1400 R31/P1500 FU NSC 00/M07 Q1020 NOSIG
ZBYN,2003-12-04 06:00,ZBYN 040600Z VRB01MPS 1800 FU NSC 01/M08 Q1019 NOSIG
ZBYN,2003-12-04 07:00,ZBYN 040700Z 21001MPS 2500 FU NSC 02/M07 Q1019 NOSIG
ZBYN,2003-12-04 08:00,ZBYN 040800Z 24001MPS 2000 FU NSC 01/M07 Q1019 NOSIG
ZBYN,2003-12-04 09:00,ZBYN 040900Z 23001MPS 1300 R31/1400N FU NSC M00/M06 Q1020 NOSIG
ZBYN,2003-12-04 10:00,ZBYN 041000Z 20001MPS 1400 R31/1200N FU NSC M03/M06 Q1020 NOSIG
ZBYN,2003-12-04 11:00,ZBYN 041100Z 13001MPS 1400 R31/1400N BR NSC M02/M05 Q1021 NOSIG
ZBYN,2003-12-04 12:00,ZBYN 041200Z 00000MPS 1600 R31/1300 BR NSC M04/M06 Q1022 NOSIG
ZBYN,2003-12-04 13:00,ZBYN 041300Z 08001MPS 1600 R31/1400N BR NSC M04/M06 Q1022 NOSIG
ZBYN,2003-12-04 14:00,ZBYN 041400Z 12001MPS 2000 BR SKC M04/M06 Q1023 NOSIG
ZBYN,2003-12-04 15:00,ZBYN 041500Z 11001MPS 2500 BR SKC M04/M06 Q1023 NOSIG
ZBYN,2003-12-04 16:00,ZBYN 041600Z 11001MPS 3000 BR SKC M06/M08 Q1023 NOSIG
ZBYN,2003-12-04 17:00,ZBYN 041700Z 00000MPS 3000 BR SKC M05/M06 Q1023
ZBYN,2003-12-04 18:00,ZBYN 041800Z 06001MPS 3000 BR SKC M05/M07 Q1024
ZBYN,2003-12-04 19:00,ZBYN 041900Z 12001MPS 2500 BR SKC M06/M07 Q1024
ZBYN,2003-12-04 20:00,ZBYN 042000Z 00000MPS 1600 BR SKC M05/M06 Q1024
ZBYN,2003-12-04 21:00,ZBYN 042100Z 12001MPS 1600 BR SKC M05/M06 Q1024
ZBYN,2003-12-04 22:00,ZBYN 042200Z 09001MPS 1200 BR SKC M05/M07 Q1024 NOSIG
ZBYN,2003-12-04 23:00,ZBYN 042300Z 11001MPS 1200 R31/0700N BR NSC M05/M07 Q1025 NOSIG
ZBYN,2003-12-05 00:00,ZBYN 050000Z 12001MPS 0900 R31/1000N FZFG OVC016 M04/M05 Q1025 NOSIG
ZBYN,2003-12-05 00:44,ZBYN 050044Z 050124 11004MPS 0700 FZFG NSC BECMG 0102 1200 BR BECMG 0203 1500 BECMG 0304 1600 BECMG 0506 30004MPS 6000
ZBYN,2003-12-05 01:00,ZBYN 050100Z 08001MPS 0600 R31/0800N FZFG OVC016 M01/M03 Q1026 NOSIG
ZBYN,2003-12-05 02:00,ZBYN 050200Z 18001MPS 0600 R31/0900N FZFG OVC016 M01/M03 Q1026 NOSIG
ZBYN,2003-12-05 03:00,ZBYN 050300Z 00000MPS 0600 R31/0700N FZFG OVC016 M01/M03 Q1026 NOSIG
ZBYN,2003-12-05 04:00,ZBYN 050400Z 13001MPS 0700 R31/0900N FG OVC016 00/M03 Q1025 NOSIG
ZBYN,2003-12-05 05:00,ZBYN 050500Z 14001MPS 1000 R31/1000N BR OVC016 01/M03 Q1024 NOSIG
ZBYN,2003-12-05 06:00,ZBYN 050600Z 19001MPS 1000 R31/0900N BR SKC 02/M02 Q1023 NOSIG
ZBYN,2003-12-05 07:00,ZBYN 050700Z 25001MPS 0900 R31/0900N FG NSC 03/M02 Q1022 NOSIG
ZBYN,2003-12-05 08:00,ZBYN 050800Z 00000MPS 0900 R31/0900 FG NSC 02/M02 Q1023 NOSIG
ZBYN,2003-12-05 09:00,ZBYN 050900Z 08001MPS 0700 R31/1100N FZFG SKC M00/M03 Q1023 NOSIG
ZBYN,2003-12-05 10:00,ZBYN 051000Z VRB01MPS 0700 R31/1000 FZFG SKC M02/M04 Q1023 NOSIG
ZBYN,2003-12-05 11:00,ZBYN 051100Z 33002MPS 4000 FU SKC M02/M07 Q1024 NOSIG
ZBYN,2003-12-05 12:00,ZBYN 051200Z 31003MPS CAVOK M02/M11 Q1024 NOSIG
ZBYN,2003-12-05 13:00,ZBYN 051300Z 28002MPS CAVOK M01/M12 Q1025 NOSIG
ZBYN,2003-12-05 14:00,ZBYN 051400Z 28001MPS CAVOK M02/M11 Q1026 NOSIG
ZBYN,2003-12-05 14:30,ZBYN 051430Z 28001MPS CAVOK M02/M12 Q1026 NOSIG
ZBYN,2003-12-05 15:00,ZBYN 051500Z 27002MPS CAVOK M02/M12 Q1026 NOSIG
ZBYN,2003-12-05 16:00,ZBYN 051600Z 30003MPS CAVOK M02/M11 Q1026 NOSIG
ZBYN,2003-12-05 17:00,ZBYN 051700Z 31005MPS CAVOK M01/M14 Q1026
ZBYN,2003-12-05 18:00,ZBYN 051800Z 31008MPS CAVOK M01/M17 Q1026
ZBYN,2003-12-05 19:00,ZBYN 051900Z 31006MPS CAVOK M03/M21 Q1027
ZBYN,2003-12-05 20:00,ZBYN 052000Z 31008MPS CAVOK M04/M22 Q1028
ZBYN,2003-12-05 21:00,ZBYN 052100Z 35007MPS CAVOK M06/M19 Q1029
ZBYN,2003-12-05 22:00,ZBYN 052200Z 35003MPS CAVOK M08/M22 Q1030 NOSIG
ZBYN,2003-12-05 23:00,ZBYN 052300Z 36004MPS CAVOK M09/M24 Q1031 NOSIG
ZBYN,2003-12-06 00:00,ZBYN 060000Z 35005MPS CAVOK M10/M23 Q1033 NOSIG
ZBYN,2003-12-06 01:00,ZBYN 060100Z 36005MPS CAVOK M08/M24 Q1033 NOSIG
ZBYN,2003-12-06 02:00,ZBYN 060200Z 35006MPS CAVOK M07/M25 Q1034 NOSIG
ZBYN,2003-12-06 03:00,ZBYN 060300Z 35004MPS CAVOK M06/M24 Q1035 NOSIG
ZBYN,2003-12-06 04:00,ZBYN 060400Z 34004MPS CAVOK M05/M25 Q1034 NOSIG
ZBYN,2003-12-06 05:00,ZBYN 060500Z 34003MPS CAVOK M04/M25 Q1032 NOSIG
ZBYN,2003-12-06 06:00,ZBYN 060600Z 34003MPS 310V020 CAVOK M03/M27 Q1032 NOSIG
ZBYN,2003-12-06 07:00,ZBYN 060700Z 04002MPS CAVOK M03/M28 Q1031 NOSIG
ZBYN,2003-12-06 08:00,ZBYN 060800Z 35002MPS CAVOK M03/M25 Q1031 NOSIG
ZBYN,2003-12-06 09:00,ZBYN 060900Z 28002MPS CAVOK M05/M23 Q1032 NOSIG
ZBYN,2003-12-06 10:00,ZBYN 061000Z 29002MPS CAVOK M06/M19 Q1032 NOSIG
ZBYN,2003-12-06 11:00,ZBYN 061100Z 35002MPS CAVOK M07/M20 Q1032 NOSIG
ZBYN,2003-12-06 12:00,ZBYN 061200Z 33002MPS CAVOK M09/M18 Q1032 NOSIG
ZBYN,2003-12-06 13:00,ZBYN 061300Z 32003MPS CAVOK M09/M20 Q1033 NOSIG
ZBYN,2003-12-06 14:00,ZBYN 061400Z 00000MPS CAVOK M09/M21 Q1033 NOSIG
ZBYN,2003-12-06 15:00,ZBYN 061500Z 00000MPS CAVOK M09/M21 Q1033 NOSIG
ZBYN,2003-12-06 16:00,ZBYN 061600Z 08001MPS CAVOK M11/M16 Q1033 NOSIG
ZBYN,2003-12-06 17:00,ZBYN 061700Z 00000MPS CAVOK M12/M17 Q1032
ZBYN,2003-12-06 18:00,ZBYN 061800Z 00000MPS CAVOK M12/M16 Q1032
ZBYN,2003-12-06 19:00,ZBYN 061900Z 11001MPS CAVOK M12/M16 Q1032
ZBYN,2003-12-06 20:00,ZBYN 062000Z 13001MPS CAVOK M11/M16 Q1031
ZBYN,2003-12-06 21:00,ZBYN 062100Z 09001MPS CAVOK M12/M16 Q1031
ZBYN,2003-12-06 22:00,ZBYN 062200Z 00000MPS CAVOK M12/M17 Q1031 NOSIG
ZBYN,2003-12-06 23:00,ZBYN 062300Z 11001MPS CAVOK M12/M16 Q1031 NOSIG
ZBYN,2003-12-07 00:00,ZBYN 070000Z 05001MPS CAVOK M13/M16 Q1032 NOSIG
ZBYN,2003-12-07 01:00,ZBYN 070100Z 00000MPS 7000 SKC M10/M14 Q1032 NOSIG
ZBYN,2003-12-07 02:00,ZBYN 070200Z 00000MPS 7000 SKC M06/M15 Q1031 NOSIG
ZBYN,2003-12-07 03:00,ZBYN 070300Z 14001MPS 7000 SKC M05/M18 Q1031 NOSIG
ZBYN,2003-12-07 04:00,ZBYN 070400Z VRB01MPS 7000 SKC M04/M19 Q1030 NOSIG
ZBYN,2003-12-07 05:00,ZBYN 070500Z 17002MPS 6000 SKC M03/M19 Q1028 NOSIG
ZBYN,2003-12-07 06:00,ZBYN 070600Z 19001MPS 7000 SKC M01/M19 Q1027 NOSIG
ZBYN,2003-12-07 07:00,ZBYN 070700Z 23002MPS 7000 SKC M01/M19 Q1027 NOSIG
ZBYN,2003-12-07 08:00,ZBYN 070800Z 18001MPS 7000 SKC M01/M17 Q1027 NOSIG
ZBYN,2003-12-07 09:00,ZBYN 070900Z 19001MPS 8000 SKC M02/M16 Q1026 NOSIG
ZBYN,2003-12-07 10:00,ZBYN 071000Z 03001MPS 8000 SKC M04/M14 Q1027 NOSIG
ZBYN,2003-12-07 11:00,ZBYN 071100Z 00000MPS 8000 SKC M06/M13 Q1028 NOSIG
ZBYN,2003-12-07 12:00,ZBYN 071200Z 33005MPS CAVOK M05/M13 Q1028 NOSIG
ZBYN,2003-12-07 13:00,ZBYN 071300Z 29002MPS CAVOK M03/M16 Q1029 NOSIG
ZBYN,2003-12-07 14:00,ZBYN 071400Z 14001MPS CAVOK M06/M14 Q1029 NOSIG
ZBYN,2003-12-07 15:00,ZBYN 071500Z VRB01MPS CAVOK M06/M14 Q1030 NOSIG
ZBYN,2003-12-07 16:00,ZBYN 071600Z 12001MPS 8000 SKC M08/M13 Q1030 NOSIG
ZBYN,2003-12-07 17:00,ZBYN 071700Z 08001MPS 5000 FU SKC M09/M13 Q1030
ZBYN,2003-12-07 18:00,ZBYN 071800Z 11001MPS 6000 SKC M09/M13 Q1030
ZBYN,2003-12-07 19:00,ZBYN 071900Z 08002MPS 8000 SKC M09/M13 Q1030 NOSIG
ZBYN,2003-12-07 20:00,ZBYN 072000Z 07001MPS 8000 SKC M09/M13 Q1030
ZBYN,2003-12-07 21:00,ZBYN 072100Z 05001MPS 8000 SKC M10/M14 Q1030
ZBYN,2003-12-07 22:00,ZBYN 072200Z 12002MPS 8000 SKC M11/M15 Q1030 NOSIG
ZBYN,2003-12-07 23:00,ZBYN 072300Z 16001MPS 7000 SKC M10/M14 Q1030 NOSIG
ZBYN,2003-12-08 00:00,ZBYN 080000Z VRB01MPS 6000 SKC M10/M14 Q1031 NOSIG
ZBYN,2003-12-08 01:00,ZBYN 080100Z 00000MPS 6000 SKC M07/M12 Q1032 NOSIG
ZBYN,2003-12-08 02:00,ZBYN 080200Z 02001MPS 6000 SKC M04/M12 Q1032 NOSIG
ZBYN,2003-12-08 03:00,ZBYN 080300Z VRB01MPS CAVOK M02/M16 Q1032 NOSIG
ZBYN,2003-12-08 04:00,ZBYN 080400Z 34001MPS CAVOK M00/M19 Q1031 NOSIG
ZBYN,2003-12-08 05:00,ZBYN 080500Z VRB01MPS CAVOK 01/M19 Q1030 NOSIG
ZBYN,2003-12-08 06:00,ZBYN 080600Z VRB01MPS CAVOK 02/M19 Q1029 NOSIG
ZBYN,2003-12-08 07:00,ZBYN 080700Z VRB01MPS CAVOK 02/M19 Q1029 NOSIG
ZBYN,2003-12-08 07:30,ZBYN 080730Z VRB01MPS CAVOK 02/M19 Q1029 NOSIG
ZBYN,2003-12-08 08:00,ZBYN 080800Z 02001MPS CAVOK 01/M18 Q1029 NOSIG
ZBYN,2003-12-08 09:00,ZBYN 080900Z 00000MPS CAVOK M01/M17 Q1029 NOSIG
ZBYN,2003-12-08 10:00,ZBYN 081000Z 06002MPS CAVOK M03/M16 Q1029 NOSIG
ZBYN,2003-12-08 11:00,ZBYN 081100Z 00000MPS CAVOK M05/M13 Q1029 NOSIG
ZBYN,2003-12-08 12:00,ZBYN 081200Z 12002MPS 8000 SKC M07/M14 Q1030 NOSIG
ZBYN,2003-12-08 13:00,ZBYN 081300Z 00000MPS CAVOK M05/M14 Q1030 NOSIG
ZBYN,2003-12-08 14:00,ZBYN 081400Z 00000MPS CAVOK M07/M14 Q1031 NOSIG
ZBYN,2003-12-08 15:00,ZBYN 081500Z VRB01MPS CAVOK M07/M13 Q1031 NOSIG
ZBYN,2003-12-08 16:00,ZBYN 081600Z 15001MPS CAVOK M06/M13 Q1031 NOSIG
ZBYN,2003-12-08 17:00,ZBYN 081700Z 00000MPS CAVOK M05/M14 Q1031
ZBYN,2003-12-08 18:00,ZBYN 081800Z 34001MPS CAVOK M07/M15 Q1031
ZBYN,2003-12-08 19:00,ZBYN 081900Z 08001MPS CAVOK M07/M14 Q1031
ZBYN,2003-12-08 20:00,ZBYN 082000Z 00000MPS CAVOK M07/M14 Q1031
ZBYN,2003-12-08 21:00,ZBYN 082100Z 14001MPS CAVOK M09/M14 Q1031
ZBYN,2003-12-08 22:00,ZBYN 082200Z 13002MPS CAVOK M09/M14 Q1031 NOSIG
ZBYN,2003-12-08 23:00,ZBYN 082300Z 05001MPS CAVOK M09/M14 Q1031 NOSIG
ZBYN,2003-12-09 00:00,ZBYN 090000Z 00000MPS 6000 NSC M10/M14 Q1032 NOSIG
ZBYN,2003-12-09 01:00,ZBYN 090100Z 13001MPS 3000 FU SKC M08/M11 Q1032 NOSIG
ZBYN,2003-12-09 02:00,ZBYN 090200Z 00000MPS 2600 R31/1400U FU NSC M03/M11 Q1032 NOSIG
ZBYN,2003-12-09 03:00,ZBYN 090300Z 33001MPS 2500 R31/1200N FU SKC M02/M11 Q1032 NOSIG
ZBYN,2003-12-09 04:00,ZBYN 090400Z VRB01MPS 5000 FU NSC M00/M14 Q1031 NOSIG
ZBYN,2003-12-09 05:00,ZBYN 090500Z VRB01MPS 6000 SKC 01/M13 Q1030 NOSIG
ZBYN,2003-12-09 06:00,ZBYN 090600Z 00000MPS 7000 NSC 01/M13 Q1029 NOSIG
ZBYN,2003-12-09 07:00,ZBYN 090700Z 00000MPS 8000 NSC 02/M13 Q1029 NOSIG
ZBYN,2003-12-09 08:00,ZBYN 090800Z 24001MPS 8000 NSC 01/M13 Q1029 NOSIG
ZBYN,2003-12-09 09:00,ZBYN 090900Z 20001MPS 7000 NSC M00/M12 Q1029 NOSIG
ZBYN,2003-12-09 10:00,ZBYN 091000Z 13001MPS 6000 NSC M03/M11 Q1029 NOSIG
ZBYN,2003-12-09 11:00,ZBYN 091100Z 13001MPS 4000 FU NSC M02/M10 Q1029 NOSIG
ZBYN,2003-12-09 12:00,ZBYN 091200Z 14001MPS 4000 FU NSC M03/M09 Q1029 NOSIG
ZBYN,2003-12-09 13:00,ZBYN 091300Z 11002MPS 4000 FU NSC M03/M09 Q1029 NOSIG
ZBYN,2003-12-09 14:00,ZBYN 091400Z 13002MPS 3000 FU NSC M03/M08 Q1029 NOSIG
ZBYN,2003-12-09 15:00,ZBYN 091500Z 00000MPS 4000 FU NSC M02/M08 Q1029 NOSIG
ZBYN,2003-12-09 16:00,ZBYN 091600Z 19002MPS 3000 FU NSC M01/M09 Q1029 NOSIG
ZBYN,2003-12-09 17:00,ZBYN 091700Z 17002MPS 4000 FU NSC M01/M07 Q1028 NOSIG
ZBYN,2003-12-09 18:00,ZBYN 091800Z AUTO 18006KT 4SM M01/M04 A3035 RMK SLP324 T10131044 57010 IEM_DS3505
ZBYN,2003-12-09 19:00,ZBYN 091900Z 18002MPS 4000 BR NSC M02/M05 Q1028
ZBYN,2003-12-09 20:00,ZBYN 092000Z 13002MPS 4000 -SN BR NSC M02/M05 Q1027
ZBYN,2003-12-09 21:00,ZBYN 092100Z 13002MPS 5000 BR NSC M03/M05 Q1027
ZBYN,2003-12-09 22:00,ZBYN 092200Z 12001MPS 4000 BR NSC M04/M05 Q1027 NOSIG
ZBYN,2003-12-09 23:00,ZBYN 092300Z 09001MPS 3000 BR NSC M03/M05 Q1027 NOSIG
ZBYN,2003-12-10 00:00,ZBYN 100000Z 10001MPS 2000 R31/1400N BR NSC M04/M06 Q1027 NOSIG
ZBYN,2003-12-10 01:00,ZBYN 100100Z 06001MPS 1500 R31/1100N BR NSC M04/M06 Q1028 NOSIG
ZBYN,2003-12-10 02:00,ZBYN 100200Z 07001MPS 1700 R31/1300N BR SKC M02/M04 Q1027 NOSIG
ZBYN,2003-12-10 03:00,ZBYN 100300Z 14001MPS 1700 BR SKC M01/M05 Q1027 NOSIG
ZBYN,2003-12-10 04:00,ZBYN 100400Z VRB01MPS 1700 FU SKC 00/M05 Q1026 NOSIG
ZBYN,2003-12-10 05:00,ZBYN 100500Z 19001MPS 1600 FU SKC 01/M05 Q1025 NOSIG
ZBYN,2003-12-10 06:00,ZBYN 100600Z 23002MPS 3000 FU SKC 02/M06 Q1024 NOSIG
ZBYN,2003-12-10 07:00,ZBYN 100700Z 25002MPS 4000 FU NSC 03/M07 Q1024 NOSIG
ZBYN,2003-12-10 08:00,ZBYN 100800Z 31005MPS CAVOK 03/M14 Q1024 NOSIG
ZBYN,2003-12-10 09:00,ZBYN 100900Z 30006MPS CAVOK 01/M15 Q1025 NOSIG
ZBYN,2003-12-10 10:00,ZBYN 101000Z 30005MPS CAVOK M01/M15 Q1026 NOSIG
ZBYN,2003-12-10 11:00,ZBYN 101100Z 35004MPS CAVOK M01/M14 Q1027 NOSIG
ZBYN,2003-12-10 12:00,ZBYN 101200Z 34003MPS CAVOK M02/M16 Q1028 NOSIG
ZBYN,2003-12-10 13:00,ZBYN 101300Z 02003MPS CAVOK M03/M14 Q1029 NOSIG
ZBYN,2003-12-10 14:00,ZBYN 101400Z 35001MPS CAVOK M04/M14 Q1029 NOSIG
ZBYN,2003-12-10 15:00,ZBYN 101500Z 36002MPS CAVOK M05/M13 Q1029 NOSIG
ZBYN,2003-12-10 16:00,ZBYN 101600Z 01003MPS CAVOK M06/M13 Q1029 NOSIG
ZBYN,2003-12-10 17:00,ZBYN 101700Z 02002MPS CAVOK M07/M13 Q1029
ZBYN,2003-12-10 18:00,ZBYN 101800Z 04001MPS CAVOK M08/M13 Q1029
ZBYN,2003-12-10 19:00,ZBYN 101900Z 04001MPS CAVOK M08/M14 Q1030
ZBYN,2003-12-10 20:00,ZBYN 102000Z 07001MPS CAVOK M09/M14 Q1030
ZBYN,2003-12-10 21:00,ZBYN 102100Z 03002MPS CAVOK M09/M14 Q1030
ZBYN,2003-12-10 22:00,ZBYN 102200Z 06002MPS CAVOK M08/M14 Q1030 NOSIG
ZBYN,2003-12-10 23:00,ZBYN 102300Z 05001MPS CAVOK M09/M14 Q1030 NOSIG
ZBYN,2003-12-11 00:00,ZBYN 110000Z 04001MPS CAVOK M09/M13 Q1030 NOSIG
ZBYN,2003-12-11 01:00,ZBYN 110100Z 24001MPS CAVOK M07/M11 Q1031 NOSIG
ZBYN,2003-12-11 02:00,ZBYN 110200Z 31002MPS CAVOK M03/M12 Q1031 NOSIG
ZBYN,2003-12-11 03:00,ZBYN 110300Z 32003MPS CAVOK M02/M16 Q1031 NOSIG
ZBYN,2003-12-11 04:00,ZBYN 110400Z VRB01MPS CAVOK M01/M15 Q1030 NOSIG
ZBYN,2003-12-11 05:00,ZBYN 110500Z 21001MPS CAVOK M00/M15 Q1029 NOSIG
ZBYN,2003-12-11 06:00,ZBYN 110600Z 24001MPS CAVOK M00/M15 Q1029 NOSIG
ZBYN,2003-12-11 07:00,ZBYN 110700Z 25001MPS 7000 SKC M00/M14 Q1028 NOSIG
ZBYN,2003-12-11 08:00,ZBYN 110800Z 25002MPS 8000 SKC M01/M14 Q1029 NOSIG
ZBYN,2003-12-11 09:00,ZBYN 110900Z 25001MPS 8000 SKC M02/M13 Q1029 NOSIG
ZBYN,2003-12-11 10:00,ZBYN 111000Z 35001MPS CAVOK M04/M13 Q1029 NOSIG
ZBYN,2003-12-11 11:00,ZBYN 111100Z 04002MPS CAVOK M06/M12 Q1030 NOSIG
ZBYN,2003-12-11 12:00,ZBYN 111200Z 34002MPS CAVOK M06/M13 Q1030 NOSIG
ZBYN,2003-12-11 13:00,ZBYN 111300Z 34001MPS CAVOK M06/M13 Q1031 NOSIG
ZBYN,2003-12-11 14:00,ZBYN 111400Z 34001MPS CAVOK M06/M13 Q1031 NOSIG
ZBYN,2003-12-11 15:00,ZBYN 111500Z 11002MPS 6000 SKC M09/M14 Q1031 NOSIG
ZBYN,2003-12-11 16:00,ZBYN 111600Z 09001MPS CAVOK M09/M13 Q1031 NOSIG
ZBYN,2003-12-11 17:00,ZBYN 111700Z VRB01MPS CAVOK M09/M13 Q1030 NOSIG
ZBYN,2003-12-11 18:00,ZBYN 111800Z 20001MPS CAVOK M08/M13 Q1030 NOSIG
ZBYN,2003-12-11 19:00,ZBYN 111900Z 10001MPS CAVOK M11/M14 Q1031
ZBYN,2003-12-11 20:00,ZBYN 112000Z 16001MPS 7000 SKC M10/M13 Q1031
ZBYN,2003-12-11 21:00,ZBYN 112100Z 09001MPS CAVOK M12/M14 Q1030 NOSIG
ZBYN,2003-12-11 22:00,ZBYN 112200Z 15001MPS CAVOK M12/M15 Q1030 NOSIG
ZBYN,2003-12-11 23:00,ZBYN 112300Z 06001MPS CAVOK M13/M15 Q1031 NOSIG
ZBYN,2003-12-12 00:00,ZBYN 120000Z 11001MPS 7000 SKC M12/M16 Q1031 NOSIG
ZBYN,2003-12-12 01:00,ZBYN 120100Z 08001MPS 4000 BR SKC M09/M13 Q1031 NOSIG
ZBYN,2003-12-12 02:00,ZBYN 120200Z 22001MPS 4000 FU SKC M06/M11 Q1031 NOSIG
ZBYN,2003-12-12 03:00,ZBYN 120300Z 23001MPS 6000 SKC M02/M11 Q1030 NOSIG
ZBYN,2003-12-12 04:00,ZBYN 120400Z 29002MPS CAVOK 00/M16 Q1030 NOSIG
ZBYN,2003-12-12 05:00,ZBYN 120500Z 24002MPS CAVOK 01/M16 Q1028 NOSIG
ZBYN,2003-12-12 06:00,ZBYN 120600Z AUTO 22002KT 5SM 02/M14 A3034 RMK SLP330 T00251142 57026 IEM_DS3505
ZBYN,2003-12-12 07:00,ZBYN 120700Z 23002MPS 8000 SKC 01/M16 Q1027 NOSIG
ZBYN,2003-12-12 08:00,ZBYN 120800Z 24002MPS 8000 SKC 01/M16 Q1027 NOSIG
ZBYN,2003-12-12 09:00,ZBYN 120900Z 24001MPS 7000 NSC M01/M14 Q1027 NOSIG
ZBYN,2003-12-12 10:00,ZBYN 121000Z 05001MPS 8000 NSC M04/M14 Q1027 NOSIG
ZBYN,2003-12-12 11:00,ZBYN 121100Z 10001MPS 6000 NSC M04/M13 Q1028 NOSIG
ZBYN,2003-12-12 12:00,ZBYN 121200Z 11001MPS 6000 NSC M05/M13 Q1028 NOSIG
ZBYN,2003-12-12 13:00,ZBYN 121300Z 12002MPS 7000 NSC M09/M14 Q1028 NOSIG
ZBYN,2003-12-12 14:00,ZBYN 121400Z 13002MPS 7000 NSC M07/M13 Q1028 NOSIG
ZBYN,2003-12-12 15:00,ZBYN 121500Z 00000MPS 6000 SKC M08/M13 Q1028 NOSIG
ZBYN,2003-12-12 16:00,ZBYN 121600Z 11001MPS 8000 SKC M10/M14 Q1028 NOSIG
ZBYN,2003-12-12 17:00,ZBYN 121700Z 12001MPS CAVOK M10/M14 Q1028
ZBYN,2003-12-12 18:00,ZBYN 121800Z 11002MPS CAVOK M11/M15 Q1028
ZBYN,2003-12-12 19:00,ZBYN 121900Z 08001MPS CAVOK M11/M14 Q1028
ZBYN,2003-12-12 20:00,ZBYN 122000Z 09001MPS CAVOK M10/M14 Q1027
ZBYN,2003-12-12 21:00,ZBYN 122100Z 09001MPS 8000 SKC M11/M14 Q1028
ZBYN,2003-12-12 22:00,ZBYN 122200Z 12001MPS 8000 SKC M10/M14 Q1028 NOSIG
ZBYN,2003-12-12 23:00,ZBYN 122300Z 08001MPS 7000 SKC M11/M14 Q1028 NOSIG
ZBYN,2003-12-13 00:00,ZBYN 130000Z 12002MPS 5000 NSC M11/M14 Q1028 NOSIG
ZBYN,2003-12-13 01:00,ZBYN 130100Z 12001MPS 2000 BR NSC M07/M11 Q1029 NOSIG
ZBYN,2003-12-13 02:00,ZBYN 130200Z 13001MPS 2500 FU NSC M06/M11 Q1029 NOSIG
ZBYN,2003-12-13 03:00,ZBYN 130300Z 19001MPS 2500 FU SKC M02/M09 Q1029 NOSIG
ZBYN,2003-12-13 04:00,ZBYN 130400Z VRB01MPS 3000 FU SKC M01/M12 Q1028 NOSIG
ZBYN,2003-12-13 05:00,ZBYN 130500Z 22001MPS 5000 FU SKC 01/M13 Q1027 NOSIG
ZBYN,2003-12-13 06:00,ZBYN 130600Z 21001MPS 7000 SKC 02/M14 Q1026 NOSIG
ZBYN,2003-12-13 07:00,ZBYN 130700Z 23002MPS 6000 SKC 02/M14 Q1026 NOSIG
ZBYN,2003-12-13 08:00,ZBYN 130800Z 24002MPS 7000 SKC 02/M15 Q1026 NOSIG
ZBYN,2003-12-13 09:00,ZBYN 130900Z 00000MPS 6000 SKC M00/M14 Q1026 NOSIG
ZBYN,2003-12-13 10:00,ZBYN 131000Z 04001MPS 5000 FU SKC M03/M14 Q1027 NOSIG
ZBYN,2003-12-13 11:00,ZBYN 131100Z 10001MPS 4000 FU SKC M05/M13 Q1027 NOSIG
ZBYN,2003-12-13 12:00,ZBYN 131200Z 09001MPS 2500 FU SKC M06/M13 Q1028 NOSIG
ZBYN,2003-12-13 13:00,ZBYN 131300Z 11001MPS 3000 FU SKC M07/M13 Q1028 NOSIG
ZBYN,2003-12-13 14:00,ZBYN 131400Z 00000MPS 4000 FU SKC M09/M13 Q1028 NOSIG
ZBYN,2003-12-13 15:00,ZBYN 131500Z 11001MPS 4000 FU SKC M08/M12 Q1029 NOSIG
ZBYN,2003-12-13 16:00,ZBYN 131600Z 12001MPS 4000 FU SKC M09/M13 Q1029 NOSIG
ZBYN,2003-12-13 17:00,ZBYN 131700Z 11001MPS 5000 FU SKC M09/M13 Q1029
ZBYN,2003-12-13 18:00,ZBYN 131800Z 13001MPS 8000 SKC M09/M13 Q1029
ZBYN,2003-12-13 19:00,ZBYN 131900Z 07001MPS 6000 SKC M10/M13 Q1029
ZBYN,2003-12-13 20:00,ZBYN 132000Z 15001MPS 4000 FU SKC M11/M14 Q1028
ZBYN,2003-12-13 21:00,ZBYN 132100Z 00000MPS 4000 BR SKC M11/M14 Q1028
ZBYN,2003-12-13 22:00,ZBYN 132200Z 09001MPS 4000 BR SKC M11/M14 Q1028 NOSIG
ZBYN,2003-12-13 23:00,ZBYN 132300Z 12001MPS 3000 BR SKC M10/M13 Q1028 NOSIG
ZBYN,2003-12-14 00:00,ZBYN 140000Z 05001MPS 1600 BR SKC M11/M14 Q1029 NOSIG
ZBYN,2003-12-14 01:00,ZBYN 140100Z VRB01MPS 1300 R31/1300D BR SKC M09/M12 Q1029 NOSIG
ZBYN,2003-12-14 02:00,ZBYN 140200Z 13002MPS 1400 R31/1000N FU SKC M05/M10 Q1029 NOSIG
ZBYN,2003-12-14 03:00,ZBYN 140300Z 00000MPS 1400 R31/1000N FU SKC M01/M08 Q1029 NOSIG
ZBYN,2003-12-14 04:00,ZBYN 140400Z 21001MPS 1800 FU SKC 00/M11 Q1027 NOSIG
ZBYN,2003-12-14 05:00,ZBYN 140500Z 24001MPS 3000 FU SKC 02/M12 Q1027 NOSIG
ZBYN,2003-12-14 05:30,ZBYN 140530Z 24002MPS 3000 FU SKC 03/M13 Q1026 NOSIG
ZBYN,2003-12-14 06:00,ZBYN 140600Z 22001MPS 4000 FU SKC 03/M13 Q1026 NOSIG
ZBYN,2003-12-14 06:30,ZBYN 140630Z 22001MPS 4000 FU SKC 04/M14 Q1025 NOSIG
ZBYN,2003-12-14 07:00,ZBYN 140700Z 23002MPS 4000 FU SKC 04/M13 Q1025 NOSIG
ZBYN,2003-12-14 08:00,ZBYN 140800Z 28002MPS 4000 FU SKC 03/M13 Q1025 NOSIG
ZBYN,2003-12-14 08:30,ZBYN 140830Z 28001MPS 4000 FU SKC 03/M13 Q1025 NOSIG
ZBYN,2003-12-14 09:00,ZBYN 140900Z VRB01MPS 3000 FU SKC 01/M13 Q1025 NOSIG
ZBYN,2003-12-14 09:30,ZBYN 140930Z 13001MPS 3000 FU SKC M01/M12 Q1025 NOSIG
ZBYN,2003-12-14 10:00,ZBYN 141000Z VRB01MPS 3000 FU SKC M03/M12 Q1026 NOSIG
ZBYN,2003-12-14 11:00,ZBYN 141100Z 09002MPS 3000 FU SKC M05/M13 Q1026 NOSIG
ZBYN,2003-12-14 12:00,ZBYN 141200Z 13002MPS 4000 FU SKC M06/M12 Q1027 NOSIG
ZBYN,2003-12-14 13:00,ZBYN 141300Z 11001MPS 4000 FU SKC M06/M12 Q1027 NOSIG
ZBYN,2003-12-14 14:00,ZBYN 141400Z 08001MPS 4000 FU SKC M06/M11 Q1028 NOSIG
ZBYN,2003-12-14 15:00,ZBYN 141500Z 11001MPS 5000 FU SKC M04/M12 Q1028 NOSIG
ZBYN,2003-12-14 16:00,ZBYN 141600Z 03001MPS 3000 FU SKC M07/M12 Q1028 NOSIG
ZBYN,2003-12-14 17:00,ZBYN 141700Z 32001MPS 3000 FU SKC M06/M12 Q1028 NOSIG
ZBYN,2003-12-14 18:00,ZBYN 141800Z VRB01MPS 4000 FU SKC M06/M12 Q1028
ZBYN,2003-12-14 19:00,ZBYN 141900Z 07001MPS 6000 SKC M05/M13 Q1028
ZBYN,2003-12-14 20:00,ZBYN 142000Z 33001MPS 6000 SKC M05/M13 Q1028
ZBYN,2003-12-14 21:00,ZBYN 142100Z 29001MPS 7000 SKC M05/M13 Q1028
ZBYN,2003-12-14 22:00,ZBYN 142200Z VRB01MPS 7000 SKC M06/M13 Q1028 NOSIG
ZBYN,2003-12-14 23:00,ZBYN 142300Z 06001MPS 6000 SKC M08/M14 Q1028 NOSIG
ZBYN,2003-12-15 00:00,ZBYN 150000Z 11001MPS 4000 FU SKC M09/M13 Q1028 NOSIG
ZBYN,2003-12-15 01:00,ZBYN 150100Z 00000MPS 2000 FU SKC M06/M11 Q1029 NOSIG
ZBYN,2003-12-15 02:00,ZBYN 150200Z 20001MPS 2500 FU SKC M00/M09 Q1029 NOSIG
ZBYN,2003-12-15 03:00,ZBYN 150300Z 25001MPS 3000 FU SKC M00/M11 Q1028 NOSIG
ZBYN,2003-12-15 04:00,ZBYN 150400Z 17001MPS 6000 SKC 00/M14 Q1027 NOSIG
ZBYN,2003-12-15 05:00,ZBYN 150500Z 21001MPS 6000 SKC 02/M13 Q1026 NOSIG
ZBYN,2003-12-15 06:00,ZBYN 150600Z VRB01MPS 6000 SKC 03/M13 Q1024 NOSIG
ZBYN,2003-12-15 07:00,ZBYN 150700Z 17001MPS 4000 HZ SKC 03/M13 Q1023 NOSIG
ZBYN,2003-12-15 08:00,ZBYN 150800Z 19002MPS 5000 HZ SKC 03/M14 Q1023 NOSIG
ZBYN,2003-12-15 09:00,ZBYN 150900Z 16001MPS 3000 HZ NSC 00/M12 Q1023 NOSIG
ZBYN,2003-12-15 10:00,ZBYN 151000Z 13003MPS 4000 HZ NSC M02/M12 Q1024 NOSIG
ZBYN,2003-12-15 11:00,ZBYN 151100Z 12001MPS 3000 HZ NSC M02/M11 Q1024 NOSIG
ZBYN,2003-12-15 12:00,ZBYN 151200Z 13002MPS 3000 HZ NSC M01/M11 Q1024 NOSIG
ZBYN,2003-12-15 13:00,ZBYN 151300Z 11001MPS 6000 NSC M01/M10 Q1024 NOSIG
ZBYN,2003-12-15 14:00,ZBYN 151400Z 12001MPS 6000 NSC M01/M10 Q1024 NOSIG
ZBYN,2003-12-15 15:00,ZBYN 151500Z VRB01MPS 5000 HZ NSC 01/M10 Q1024 NOSIG
ZBYN,2003-12-15 16:00,ZBYN 151600Z 14001MPS 6000 NSC M01/M10 Q1023 NOSIG
ZBYN,2003-12-15 17:00,ZBYN 151700Z 22001MPS 3000 FU NSC M03/M09 Q1023 NOSIG
ZBYN,2003-12-15 18:00,ZBYN 151800Z VRB01MPS 4000 FU SKC M04/M10 Q1023
ZBYN,2003-12-15 19:00,ZBYN 151900Z 32004MPS CAVOK 00/M11 Q1023
ZBYN,2003-12-15 20:00,ZBYN 152000Z 30003MPS CAVOK 01/M13 Q1023
ZBYN,2003-12-15 21:00,ZBYN 152100Z 29004MPS CAVOK M01/M15 Q1023
ZBYN,2003-12-15 22:00,ZBYN 152200Z 31005MPS CAVOK M02/M14 Q1023 NOSIG
ZBYN,2003-12-15 23:00,ZBYN 152300Z 30004MPS CAVOK M03/M15 Q1024 NOSIG
ZBYN,2003-12-16 00:00,ZBYN 160000Z 30004MPS CAVOK M03/M15 Q1025 NOSIG
ZBYN,2003-12-16 01:00,ZBYN 160100Z 36001MPS CAVOK M03/M13 Q1026 NOSIG
ZBYN,2003-12-16 02:00,ZBYN 160200Z 36003MPS CAVOK M01/M16 Q1026 NOSIG
ZBYN,2003-12-16 03:00,ZBYN 160300Z 30004MPS CAVOK M00/M21 Q1025 NOSIG
ZBYN,2003-12-16 04:00,ZBYN 160400Z 29006MPS CAVOK 01/M22 Q1025 NOSIG
ZBYN,2003-12-16 04:30,ZBYN 160430Z 29007MPS CAVOK 01/M22 Q1024 NOSIG
ZBYN,2003-12-16 05:00,ZBYN 160500Z 30007MPS CAVOK 02/M23 Q1024 NOSIG
ZBYN,2003-12-16 05:30,ZBYN 160530Z 30006MPS CAVOK 02/M23 Q1023 NOSIG
ZBYN,2003-12-16 06:00,ZBYN 160600Z 30007MPS CAVOK 02/M23 Q1022 NOSIG
ZBYN,2003-12-16 07:00,ZBYN 160700Z 29007MPS CAVOK 02/M24 Q1022 NOSIG
ZBYN,2003-12-16 08:00,ZBYN 160800Z 29006MPS CAVOK 01/M23 Q1022 NOSIG
ZBYN,2003-12-16 09:00,ZBYN 160900Z 32004MPS CAVOK M00/M21 Q1023 NOSIG
ZBYN,2003-12-16 10:00,ZBYN 161000Z 33003MPS CAVOK M03/M21 Q1024 NOSIG
ZBYN,2003-12-16 11:00,ZBYN 161100Z 35002MPS CAVOK M05/M21 Q1024 NOSIG
ZBYN,2003-12-16 12:00,ZBYN 161200Z VRB01MPS CAVOK M04/M20 Q1024 NOSIG
ZBYN,2003-12-16 13:00,ZBYN 161300Z VRB01MPS CAVOK M05/M20 Q1025 NOSIG
ZBYN,2003-12-16 14:00,ZBYN 161400Z 11001MPS CAVOK M08/M18 Q1025 NOSIG
ZBYN,2003-12-16 15:00,ZBYN 161500Z 08001MPS CAVOK M07/M18 Q1025 NOSIG
ZBYN,2003-12-16 16:00,ZBYN 161600Z 01001MPS CAVOK M08/M16 Q1026 NOSIG
ZBYN,2003-12-16 17:00,ZBYN 161700Z 02002MPS CAVOK M07/M17 Q1025
ZBYN,2003-12-16 18:00,ZBYN 161800Z 00000MPS CAVOK M07/M17 Q1026
ZBYN,2003-12-16 19:00,ZBYN 161900Z 00000MPS CAVOK M10/M17 Q1026
ZBYN,2003-12-16 20:00,ZBYN 162000Z 35001MPS CAVOK M09/M18 Q1026
ZBYN,2003-12-16 21:00,ZBYN 162100Z 00000MPS CAVOK M10/M17 Q1025
ZBYN,2003-12-16 22:00,ZBYN 162200Z 04001MPS CAVOK M12/M17 Q1025 NOSIG
ZBYN,2003-12-16 23:00,ZBYN 162300Z 12002MPS CAVOK M13/M18 Q1025 NOSIG
ZBYN,2003-12-17 00:00,ZBYN 170000Z 23002MPS CAVOK M11/M16 Q1026 NOSIG
ZBYN,2003-12-17 01:00,ZBYN 170100Z 00000MPS CAVOK M08/M16 Q1026 NOSIG
ZBYN,2003-12-17 02:00,ZBYN 170200Z 23001MPS 7000 SKC M02/M13 Q1027 NOSIG
ZBYN,2003-12-17 03:00,ZBYN 170300Z 30002MPS CAVOK M01/M19 Q1026 NOSIG
ZBYN,2003-12-17 04:00,ZBYN 170400Z 27002MPS CAVOK 00/M20 Q1025 NOSIG
ZBYN,2003-12-17 05:00,ZBYN 170500Z 26002MPS CAVOK 00/M20 Q1024 NOSIG
ZBYN,2003-12-17 06:00,ZBYN 170600Z 29002MPS CAVOK 01/M21 Q1023 NOSIG
ZBYN,2003-12-17 07:00,ZBYN 170700Z 27001MPS CAVOK 02/M21 Q1022 NOSIG
ZBYN,2003-12-17 08:00,ZBYN 170800Z 23001MPS CAVOK 01/M20 Q1022 NOSIG
ZBYN,2003-12-17 09:00,ZBYN 170900Z 20001MPS CAVOK M01/M20 Q1023 NOSIG
ZBYN,2003-12-17 10:00,ZBYN 171000Z 05001MPS CAVOK M04/M19 Q1023 NOSIG
ZBYN,2003-12-17 11:00,ZBYN 171100Z VRB01MPS 7000 NSC M05/M17 Q1024 NOSIG
ZBYN,2003-12-17 12:00,ZBYN 171200Z 00000MPS 8000 NSC M05/M16 Q1024 NOSIG
ZBYN,2003-12-17 12:30,ZBYN 171230Z 19001MPS 8000 NSC M05/M15 Q1025 NOSIG
ZBYN,2003-12-17 13:00,ZBYN 171300Z VRB01MPS 6000 NSC M04/M16 Q1025 NOSIG
ZBYN,2003-12-17 14:00,ZBYN 171400Z 05001MPS CAVOK M06/M14 Q1026 NOSIG
ZBYN,2003-12-17 15:00,ZBYN 171500Z 14001MPS 6000 NSC M07/M14 Q1026 NOSIG
ZBYN,2003-12-17 15:30,ZBYN 171530Z 11001MPS 8000 NSC M06/M14 Q1026 NOSIG
ZBYN,2003-12-17 16:00,ZBYN 171600Z 10001MPS CAVOK M06/M14 Q1026 NOSIG
ZBYN,2003-12-17 17:00,ZBYN 171700Z VRB01MPS CAVOK M07/M14 Q1026
ZBYN,2003-12-17 18:00,ZBYN 171800Z VRB01MPS CAVOK M07/M13 Q1026
ZBYN,2003-12-17 19:00,ZBYN 171900Z 09002MPS CAVOK M07/M13 Q1026
ZBYN,2003-12-17 20:00,ZBYN 172000Z VRB01MPS CAVOK M07/M13 Q1027
ZBYN,2003-12-17 21:00,ZBYN 172100Z 12002MPS CAVOK M07/M13 Q1026
ZBYN,2003-12-17 22:00,ZBYN 172200Z 00000MPS CAVOK M06/M13 Q1027 NOSIG
ZBYN,2003-12-17 23:00,ZBYN 172300Z 28006MPS CAVOK M02/M18 Q1027 NOSIG
ZBYN,2003-12-18 00:00,ZBYN 180000Z 30006MPS CAVOK M03/M18 Q1029 NOSIG
ZBYN,2003-12-18 01:00,ZBYN 180100Z 30008G13MPS CAVOK M03/M19 Q1030 NOSIG
ZBYN,2003-12-18 02:00,ZBYN 180200Z 30008MPS CAVOK 00/M16 Q1031 NOSIG
ZBYN,2003-12-18 03:00,ZBYN 180300Z 33009MPS CAVOK M01/M20 Q1032 NOSIG
ZBYN,2003-12-18 04:00,ZBYN 180400Z 32009MPS CAVOK M02/M21 Q1032 NOSIG
ZBYN,2003-12-18 05:00,ZBYN 180500Z 32007MPS CAVOK M01/M23 Q1032 NOSIG
ZBYN,2003-12-18 06:00,ZBYN 180600Z 31007MPS CAVOK M01/M24 Q1032 NOSIG
ZBYN,2003-12-18 07:00,ZBYN 180700Z 33007MPS CAVOK M02/M25 Q1033 NOSIG
ZBYN,2003-12-18 08:00,ZBYN 180800Z AUTO 30017KT 6SM M03/M25 A3056 RMK T10301250 IEM_DS3505
ZBYN,2003-12-18 09:00,ZBYN 180900Z AUTO 31012KT 6SM M05/M24 A3059 RMK T10501240 IEM_DS3505
ZBYN,2003-12-18 10:00,ZBYN 181000Z AUTO 31014KT 6SM M06/M25 A3059 RMK T10601250 IEM_DS3505
ZBYN,2003-12-18 11:00,ZBYN 181100Z AUTO 30012KT 6SM M06/M25 A3062 RMK T10601250 IEM_DS3505
ZBYN,2003-12-18 12:00,ZBYN 181200Z AUTO 32010KT 12SM M06/M21 A3065 RMK SLP440 T10581211 52016 IEM_DS3505
ZBYN,2003-12-18 13:00,ZBYN 181300Z AUTO 28006KT 6SM M07/M24 A3065 RMK T10701240 IEM_DS3505
ZBYN,2003-12-18 14:00,ZBYN 181400Z 30004MPS CAVOK M08/M24 Q1038 NOSIG
ZBYN,2003-12-18 15:00,ZBYN 181500Z 29004MPS CAVOK M08/M25 Q1038 NOSIG
ZBYN,2003-12-18 16:00,ZBYN 181600Z 29003MPS CAVOK M08/M25 Q1038 NOSIG
ZBYN,2003-12-18 17:00,ZBYN 181700Z 27002MPS CAVOK M09/M25 Q1037 NOSIG
ZBYN,2003-12-18 18:00,ZBYN 181800Z 24002MPS CAVOK M10/M25 Q1037
ZBYN,2003-12-18 19:00,ZBYN 181900Z 28003MPS CAVOK M10/M25 Q1037
ZBYN,2003-12-18 20:00,ZBYN 182000Z 22001MPS CAVOK M11/M24 Q1036
ZBYN,2003-12-18 21:00,ZBYN 182100Z 19001MPS CAVOK M11/M23 Q1036
ZBYN,2003-12-18 22:00,ZBYN 182200Z 15001MPS CAVOK M13/M22 Q1036 NOSIG
ZBYN,2003-12-18 23:00,ZBYN 182300Z 19001MPS CAVOK M11/M23 Q1036 NOSIG
ZBYN,2003-12-19 00:00,ZBYN 190000Z 14001MPS CAVOK M13/M23 Q1036 NOSIG
ZBYN,2003-12-19 01:00,ZBYN 190100Z 23004MPS CAVOK M09/M22 Q1037 NOSIG
ZBYN,2003-12-19 02:00,ZBYN 190200Z 22003MPS CAVOK M07/M23 Q1037 NOSIG
ZBYN,2003-12-19 03:00,ZBYN 190300Z 22004MPS CAVOK M03/M23 Q1036 NOSIG
ZBYN,2003-12-19 04:00,ZBYN 190400Z 23004MPS CAVOK 00/M23 Q1035 NOSIG
ZBYN,2003-12-19 05:00,ZBYN 190500Z 22004MPS CAVOK M00/M24 Q1033 NOSIG
ZBYN,2003-12-19 06:00,ZBYN 190600Z 22004MPS CAVOK 01/M25 Q1032 NOSIG
ZBYN,2003-12-19 07:00,ZBYN 190700Z 22003MPS CAVOK 01/M25 Q1032 NOSIG
ZBYN,2003-12-19 08:00,ZBYN 190800Z 23004MPS CAVOK 00/M25 Q1032 NOSIG
ZBYN,2003-12-19 09:00,ZBYN 190900Z 22002MPS CAVOK M01/M24 Q1033 NOSIG
ZBYN,2003-12-19 10:00,ZBYN 191000Z 24001MPS CAVOK M03/M23 Q1033 NOSIG
ZBYN,2003-12-19 11:00,ZBYN 191100Z VRB01MPS CAVOK M06/M23 Q1033 NOSIG
ZBYN,2003-12-19 12:00,ZBYN 191200Z 02002MPS CAVOK M08/M22 Q1034 NOSIG
ZBYN,2003-12-19 13:00,ZBYN 191300Z 12002MPS CAVOK M10/M21 Q1035 NOSIG
ZBYN,2003-12-19 14:00,ZBYN 191400Z 13002MPS CAVOK M11/M21 Q1035 NOSIG
ZBYN,2003-12-19 15:00,ZBYN 191500Z 12001MPS CAVOK M10/M21 Q1035 NOSIG
ZBYN,2003-12-19 16:00,ZBYN 191600Z 14001MPS CAVOK M11/M20 Q1035 NOSIG
ZBYN,2003-12-19 17:00,ZBYN 191700Z 07001MPS CAVOK M12/M20 Q1035
ZBYN,2003-12-19 18:00,ZBYN 191800Z 11001MPS CAVOK M11/M19 Q1035
ZBYN,2003-12-19 19:00,ZBYN 191900Z 11001MPS CAVOK M12/M19 Q1035
ZBYN,2003-12-19 20:00,ZBYN 192000Z 09001MPS CAVOK M13/M19 Q1035
ZBYN,2003-12-19 21:00,ZBYN 192100Z 08001MPS CAVOK M12/M19 Q1035 NOSIG
ZBYN,2003-12-19 22:00,ZBYN 192200Z 08001MPS CAVOK M12/M19 Q1034 NOSIG
ZBYN,2003-12-19 23:00,ZBYN 192300Z VRB01MPS CAVOK M12/M19 Q1035 NOSIG
ZBYN,2003-12-20 00:00,ZBYN 200000Z 08001MPS 8000 SKC M14/M20 Q1035 NOSIG
ZBYN,2003-12-20 01:00,ZBYN 200100Z 00000MPS 3000 FU SKC M11/M16 Q1035 NOSIG
ZBYN,2003-12-20 02:00,ZBYN 200200Z 20001MPS 3000 FU SKC M02/M14 Q1035 NOSIG
ZBYN,2003-12-20 03:00,ZBYN 200300Z 22002MPS 3000 FU SKC M02/M16 Q1035 NOSIG
ZBYN,2003-12-20 04:00,ZBYN 200400Z 26002MPS 4000 FU SKC M00/M17 Q1033 NOSIG
ZBYN,2003-12-20 05:00,ZBYN 200500Z 25002MPS CAVOK 01/M20 Q1032 NOSIG
ZBYN,2003-12-20 06:00,ZBYN 200600Z 25002MPS CAVOK 02/M20 Q1031 NOSIG
ZBYN,2003-12-20 07:00,ZBYN 200700Z VRB01MPS CAVOK 02/M20 Q1031 NOSIG
ZBYN,2003-12-20 08:00,ZBYN 200800Z 25001MPS CAVOK 02/M20 Q1030 NOSIG
ZBYN,2003-12-20 09:00,ZBYN 200900Z 00000MPS CAVOK 00/M19 Q1030 NOSIG
ZBYN,2003-12-20 10:00,ZBYN 201000Z 33001MPS CAVOK M03/M18 Q1030 NOSIG
ZBYN,2003-12-20 11:00,ZBYN 201100Z 09001MPS 6000 SKC M06/M18 Q1030 NOSIG
ZBYN,2003-12-20 12:00,ZBYN 201200Z 08001MPS 7000 SKC M06/M17 Q1031 NOSIG
ZBYN,2003-12-20 13:00,ZBYN 201300Z 13002MPS 7000 SKC M07/M16 Q1031 NOSIG
ZBYN,2003-12-20 14:00,ZBYN 201400Z 09001MPS 7000 SKC M08/M16 Q1032 NOSIG
ZBYN,2003-12-20 15:00,ZBYN 201500Z 12002MPS 7000 SKC M09/M16 Q1032 NOSIG
ZBYN,2003-12-20 16:00,ZBYN 201600Z 11002MPS 7000 SKC M08/M16 Q1032 NOSIG
ZBYN,2003-12-20 17:00,ZBYN 201700Z 13001MPS 6000 SKC M09/M16 Q1031
ZBYN,2003-12-20 18:00,ZBYN 201800Z 00000MPS 6000 SKC M10/M16 Q1031
ZBYN,2003-12-20 19:00,ZBYN 201900Z 11001MPS 6000 SKC M10/16 Q1030
ZBYN,2003-12-20 20:00,ZBYN 202000Z 13002MPS 6000 SKC M11/M16 Q1030
ZBYN,2003-12-20 21:00,ZBYN 202100Z 11002MPS 6000 SKC M12/M17 Q1029
ZBYN,2003-12-20 22:00,ZBYN 202200Z 12001MPS 6000 SKC M10/M16 Q1029 NOSIG
ZBYN,2003-12-20 23:00,ZBYN 202300Z 00000MPS 6000 SKC M12/M17 Q1030 NOSIG
ZBYN,2003-12-21 00:00,ZBYN 210000Z 00000MPS 4000 BR SKC M11/M16 Q1030 NOSIG
ZBYN,2003-12-21 01:00,ZBYN 210100Z 13001MPS 1600 BR SKC M10/M14 Q1030 NOSIG
ZBYN,2003-12-21 02:00,ZBYN 210200Z 11001MPS 2000 FU SKC M05/M13 Q1030 NOSIG
ZBYN,2003-12-21 03:00,ZBYN 210300Z 16001MPS 3000 FU SKC M00/M11 Q1030 NOSIG
ZBYN,2003-12-21 04:00,ZBYN 210400Z 18001MPS 6000 SKC M00/M14 Q1028 NOSIG
ZBYN,2003-12-21 05:00,ZBYN 210500Z VRB01MPS 6000 SKC 01/M15 Q1027 NOSIG
ZBYN,2003-12-21 06:00,ZBYN 210600Z 21002MPS 6000 SKC 02/M16 Q1026 NOSIG
ZBYN,2003-12-21 07:00,ZBYN 210700Z 22001MPS 5000 FU SKC 03/M16 Q1025 NOSIG
ZBYN,2003-12-21 08:00,ZBYN 210800Z 19001MPS 5000 FU SKC 02/M16 Q1025 NOSIG
ZBYN,2003-12-21 09:00,ZBYN 210900Z 06001MPS 5000 FU SKC 00/M16 Q1025 NOSIG
ZBYN,2003-12-21 10:00,ZBYN 211000Z 02002MPS 6000 SKC M04/M15 Q1025 NOSIG
ZBYN,2003-12-21 11:00,ZBYN 211100Z 10001MPS 4000 FU SKC M05/M16 Q1025 NOSIG
ZBYN,2003-12-21 12:00,ZBYN 211200Z 11001MPS 4000 FU SKC M06/M15 Q1025 NOSIG
ZBYN,2003-12-21 13:00,ZBYN 211300Z 12002MPS 6000 SKC M08/M16 Q1025 NOSIG
ZBYN,2003-12-21 14:00,ZBYN 211400Z 08001MPS 8000 SKC M06/M15 Q1026 NOSIG
ZBYN,2003-12-21 15:00,ZBYN 211500Z 11001MPS 8000 SKC M09/M16 Q1026 NOSIG
ZBYN,2003-12-21 16:00,ZBYN 211600Z 00000MPS 8000 SKC M09/M15 Q1026 NOSIG
ZBYN,2003-12-21 17:00,ZBYN 211700Z 10002MPS 5000 FU SKC M10/M14 Q1026
ZBYN,2003-12-21 18:00,ZBYN 211800Z 10001MPS 5000 FU SKC M10/M15 Q1026
ZBYN,2003-12-21 19:00,ZBYN 211900Z 08001MPS 5000 FU SKC M09/M14 Q1026
ZBYN,2003-12-21 20:00,ZBYN 212000Z 05001MPS 5000 FU SKC M11/M16 Q1025
ZBYN,2003-12-21 21:00,ZBYN 212100Z 11001MPS 5000 FU SKC M10/M15 Q1024
ZBYN,2003-12-21 22:00,ZBYN 212200Z 06001MPS 5000 FU NSC M11/M15 Q1024 NOSIG
ZBYN,2003-12-21 23:00,ZBYN 212300Z 14002MPS 3500 FU NSC M12/M16 Q1024 NOSIG
ZBYN,2003-12-22 00:00,ZBYN 220000Z VRB01MPS 5000 BR SKC M11/M15 Q1024 NOSIG
ZBYN,2003-12-22 01:00,ZBYN 220100Z 00000MPS 1800 BR SKC M10/M14 Q1025 NOSIG
ZBYN,2003-12-22 02:00,ZBYN 220200Z 04001MPS 1300 R31/P1500 FU SKC M06/M12 Q1025 NOSIG
ZBYN,2003-12-22 03:00,ZBYN 220300Z 14001MPS 1400 R31/P1500 FU SKC M00/M10 Q1024 NOSIG
ZBYN,2003-12-22 04:00,ZBYN 220400Z 18001MPS 1600 FU SKC 00/M12 Q1022 NOSIG
ZBYN,2003-12-22 05:00,ZBYN 220500Z 18001MPS 1600 FU SKC 02/M13 Q1021 NOSIG
ZBYN,2003-12-22 06:00,ZBYN 220600Z 18001MPS 1600 FU SKC 03/M14 Q1020 NOSIG
ZBYN,2003-12-22 07:00,ZBYN 220700Z 16001MPS 1600 FU SKC 04/M14 Q1019 NOSIG
ZBYN,2003-12-22 08:00,ZBYN 220800Z 23001MPS 2000 FU SKC 04/M16 Q1019 NOSIG
ZBYN,2003-12-22 09:00,ZBYN 220900Z 07001MPS 2000 FU SKC 02/M17 Q1019 NOSIG
ZBYN,2003-12-22 10:00,ZBYN 221000Z 07001MPS 3000 FU SKC M02/M15 Q1020 NOSIG
ZBYN,2003-12-22 11:00,ZBYN 221100Z 10001MPS 4000 FU SKC M05/M16 Q1020 NOSIG
ZBYN,2003-12-22 12:00,ZBYN 221200Z 11001MPS 4000 FU SKC M06/M18 Q1020 NOSIG
ZBYN,2003-12-22 13:00,ZBYN 221300Z 13001MPS 5000 FU NSC M07/M17 Q1021 NOSIG
ZBYN,2003-12-22 14:00,ZBYN 221400Z 13002MPS 6000 NSC M08/M16 Q1021 NOSIG
ZBYN,2003-12-22 15:00,ZBYN 221500Z 09001MPS 6000 NSC M08/M16 Q1021 NOSIG
ZBYN,2003-12-22 16:00,ZBYN 221600Z 12001MPS 4000 FU SKC M08/M16 Q1021 NOSIG
ZBYN,2003-12-22 17:00,ZBYN 221700Z 11001MPS 4000 FU SKC M10/M16 Q1021
ZBYN,2003-12-22 18:00,ZBYN 221800Z 00000MPS 4000 FU SKC M10/M16 Q1020
ZBYN,2003-12-22 19:00,ZBYN 221900Z 04001MPS 3000 FU SKC M11/M16 Q1021
ZBYN,2003-12-22 20:00,ZBYN 222000Z 07001MPS 3000 FU SKC M10/M16 Q1020
ZBYN,2003-12-22 21:00,ZBYN 222100Z 14002MPS 4000 FU SKC M12/M16 Q1020
ZBYN,2003-12-22 22:00,ZBYN 222200Z 13002MPS 4000 FU SKC M10/M16 Q1020 NOSIG
ZBYN,2003-12-22 23:00,ZBYN 222300Z 00000MPS 4000 FU SKC M10/M16 Q1020 NOSIG
ZBYN,2003-12-23 00:00,ZBYN 230000Z 07001MPS 1400 R31/P1500 FU SKC M13/M17 Q1021 NOSIG
ZBYN,2003-12-23 01:00,ZBYN 230100Z VRB01MPS 1400 R31/1400 FU SKC M10/M14 Q1022 NOSIG
ZBYN,2003-12-23 02:00,ZBYN 230200Z 07001MPS 1300 R31/P1500 FU SKC M05/M12 Q1022 NOSIG
ZBYN,2003-12-23 03:00,ZBYN 230300Z 17001MPS 1300 R31/P1500 FU SKC M01/M12 Q1022 NOSIG
ZBYN,2003-12-23 04:00,ZBYN 230400Z 13002MPS 1700 FU SKC 01/M13 Q1021 NOSIG
ZBYN,2003-12-23 05:00,ZBYN 230500Z 19001MPS 2000 FU SKC 04/M15 Q1020 NOSIG
ZBYN,2003-12-23 06:00,ZBYN 230600Z 22002MPS 3000 FU SKC 05/M16 Q1019 NOSIG
ZBYN,2003-12-23 07:00,ZBYN 230700Z 22002MPS 2500 FU SKC 05/M16 Q1018 NOSIG
ZBYN,2003-12-23 08:00,ZBYN 230800Z 00000MPS 2500 FU SKC 05/M16 Q1018 NOSIG
ZBYN,2003-12-23 09:00,ZBYN 230900Z 11002MPS 2000 FU SKC 02/M15 Q1018 NOSIG
ZBYN,2003-12-23 10:00,ZBYN 231000Z 06001MPS 2500 FU SKC M02/M16 Q1018 NOSIG
ZBYN,2003-12-23 11:00,ZBYN 231100Z 05001MPS 2000 FU SKC M05/M15 Q1019 NOSIG
ZBYN,2003-12-23 12:00,ZBYN 231200Z VRB01MPS 3000 FU SKC M03/M14 Q1019 NOSIG
ZBYN,2003-12-23 13:00,ZBYN 231300Z 15001MPS 2000 FU SKC M03/M15 Q1020 NOSIG
ZBYN,2003-12-23 14:00,ZBYN 231400Z 20002MPS 4000 FU SKC M02/M16 Q1020 NOSIG
ZBYN,2003-12-23 15:00,ZBYN 231500Z 13001MPS 6000 SKC M07/M16 Q1020 NOSIG
ZBYN,2003-12-23 16:00,ZBYN 231600Z 07001MPS 6000 SKC M08/M15 Q1021 NOSIG
ZBYN,2003-12-23 17:00,ZBYN 231700Z 11002MPS 6000 SKC M10/M16 Q1021
ZBYN,2003-12-23 18:00,ZBYN 231800Z 10001MPS 7000 SKC M09/M16 Q1021
ZBYN,2003-12-23 19:00,ZBYN 231900Z 11002MPS 8000 SKC M11/M16 Q1022
ZBYN,2003-12-23 20:00,ZBYN 232000Z 12003MPS 7000 SKC M11/M16 Q1021
ZBYN,2003-12-23 21:00,ZBYN 232100Z 12002MPS 7000 SKC M11/M16 Q1021
ZBYN,2003-12-23 22:00,ZBYN 232200Z 05001MPS 7000 SKC M12/M16 Q1021 NOSIG
ZBYN,2003-12-23 23:00,ZBYN 232300Z VRB01MPS 5000 FU SKC M13/M17 Q1021 NOSIG
ZBYN,2003-12-24 00:00,ZBYN 240000Z 10001MPS 4000 FU SKC M13/M17 Q1021 NOSIG
ZBYN,2003-12-24 01:00,ZBYN 240100Z 00000MPS 5000 FU SKC M09/M14 Q1022 NOSIG
ZBYN,2003-12-24 02:00,ZBYN 240200Z 17001MPS 3000 FU SKC M01/M11 Q1023 NOSIG
ZBYN,2003-12-24 03:00,ZBYN 240300Z 24001MPS 2500 FU SKC 00/M12 Q1023 NOSIG
ZBYN,2003-12-24 04:00,ZBYN 240400Z 21001MPS 5000 FU SKC 03/M15 Q1021 NOSIG
ZBYN,2003-12-24 05:00,ZBYN 240500Z 22002MPS 5000 FU SKC 03/M17 Q1021 NOSIG
ZBYN,2003-12-24 06:00,ZBYN 240600Z 24002MPS 5000 FU NSC 04/M17 Q1020 NOSIG
ZBYN,2003-12-24 07:00,ZBYN 240700Z 33003MPS 5000 FU NSC 04/M17 Q1021 NOSIG
ZBYN,2003-12-24 08:00,ZBYN 240800Z 31002MPS 5000 FU NSC 04/M18 Q1021 NOSIG
ZBYN,2003-12-24 09:00,ZBYN 240900Z 34002MPS 7000 NSC 02/M18 Q1022 NOSIG
ZBYN,2003-12-24 10:00,ZBYN 241000Z 32004MPS CAVOK 01/M16 Q1023 NOSIG
ZBYN,2003-12-24 11:00,ZBYN 241100Z 32003MPS CAVOK M00/M16 Q1024 NOSIG
ZBYN,2003-12-24 12:00,ZBYN 241200Z 33003MPS CAVOK M02/M16 Q1025 NOSIG
ZBYN,2003-12-24 13:00,ZBYN 241300Z 31004MPS CAVOK M02/M18 Q1026 NOSIG
ZBYN,2003-12-24 14:00,ZBYN 241400Z 31005MPS CAVOK M02/M18 Q1027 NOSIG
ZBYN,2003-12-24 15:00,ZBYN 241500Z 33005MPS CAVOK M03/M20 Q1028 NOSIG
ZBYN,2003-12-24 16:00,ZBYN 241600Z 35005MPS CAVOK M04/M19 Q1029 NOSIG
ZBYN,2003-12-24 17:00,ZBYN 241700Z 32004MPS CAVOK M06/M21 Q1030
ZBYN,2003-12-24 18:00,ZBYN 241800Z 34005MPS CAVOK M06/M21 Q1030
ZBYN,2003-12-24 19:00,ZBYN 241900Z 35002MPS CAVOK M08/M23 Q1031
ZBYN,2003-12-24 20:00,ZBYN 242000Z 35004MPS CAVOK M08/M24 Q1031
ZBYN,2003-12-24 21:00,ZBYN 242100Z 36003MPS CAVOK M09/M24 Q1031
ZBYN,2003-12-24 22:00,ZBYN 242200Z 34003MPS CAVOK M10/M25 Q1031 NOSIG
ZBYN,2003-12-24 23:00,ZBYN 242300Z 00000MPS CAVOK M10/M25 Q1031 NOSIG
ZBYN,2003-12-25 00:00,ZBYN 250000Z 13001MPS CAVOK M16/M24 Q1031 NOSIG
ZBYN,2003-12-25 01:00,ZBYN 250100Z 00000MPS CAVOK M09/M22 Q1032 NOSIG
ZBYN,2003-12-25 02:00,ZBYN 250200Z 36003MPS CAVOK M06/M25 Q1032 NOSIG
ZBYN,2003-12-25 03:00,ZBYN 250300Z VRB01MPS CAVOK M03/M24 Q1032 NOSIG
ZBYN,2003-12-25 04:00,ZBYN 250400Z 00000MPS CAVOK M04/M24 Q1030 NOSIG
ZBYN,2003-12-25 06:00,ZBYN 250600Z 15001MPS CAVOK M02/M23 Q1027 NOSIG
ZBYN,2003-12-25 07:00,ZBYN 250700Z 28001MPS CAVOK M01/M22 Q1027 NOSIG
ZBYN,2003-12-25 08:00,ZBYN 250800Z 24001MPS CAVOK M01/M23 Q1027 NOSIG
ZBYN,2003-12-25 09:00,ZBYN 250900Z 34002MPS CAVOK M03/M22 Q1027 NOSIG
ZBYN,2003-12-25 10:00,ZBYN 251000Z 30002MPS CAVOK M06/M24 Q1029 NOSIG
ZBYN,2003-12-25 11:00,ZBYN 251100Z 31003MPS CAVOK M07/M24 Q1030 NOSIG
ZBYN,2003-12-25 12:00,ZBYN 251200Z 31004MPS CAVOK M06/M24 Q1030 NOSIG
ZBYN,2003-12-25 13:00,ZBYN 251300Z 30002MPS CAVOK M07/M24 Q1031 NOSIG
ZBYN,2003-12-25 14:00,ZBYN 251400Z 00000MPS CAVOK M07/M24 Q1031 NOSIG
ZBYN,2003-12-25 15:00,ZBYN 251500Z 10001MPS CAVOK M13/M22 Q1031 NOSIG
ZBYN,2003-12-25 16:00,ZBYN 251600Z 13002MPS CAVOK M13/M21 Q1031 NOSIG
ZBYN,2003-12-25 17:00,ZBYN 251700Z 11001MPS CAVOK M14/M22 Q1031
ZBYN,2003-12-25 18:00,ZBYN 251800Z 10001MPS CAVOK M14/M22 Q1031
ZBYN,2003-12-25 19:00,ZBYN 251900Z 08002MPS CAVOK M15/M22 Q1031
ZBYN,2003-12-25 20:00,ZBYN 252000Z 11001MPS CAVOK M15/M22 Q1031
ZBYN,2003-12-25 21:00,ZBYN 252100Z 10001MPS CAVOK M14/M22 Q1031
ZBYN,2003-12-25 22:00,ZBYN 252200Z 10001MPS CAVOK M14/M21 Q1031 NOSIG
ZBYN,2003-12-25 23:00,ZBYN 252300Z 10001MPS CAVOK M15/M22 Q1031 NOSIG
ZBYN,2003-12-26 00:00,ZBYN 260000Z 10001MPS CAVOK M15/M22 Q1031 NOSIG
ZBYN,2003-12-26 01:00,ZBYN 260100Z 09001MPS 6000 SKC M11/M17 Q1032 NOSIG
ZBYN,2003-12-26 02:00,ZBYN 260200Z 12001MPS 6000 SKC M06/M20 Q1033 NOSIG
ZBYN,2003-12-26 03:00,ZBYN 260300Z 23002MPS 7000 SKC M02/M19 Q1032 NOSIG
ZBYN,2003-12-26 04:00,ZBYN 260400Z VRB01MPS 8000 SKC M02/M21 Q1031 NOSIG
ZBYN,2003-12-26 05:00,ZBYN 260500Z VRB01MPS CAVOK M01/M22 Q1030 NOSIG
ZBYN,2003-12-26 05:30,ZBYN 260530Z VRB01MPS CAVOK 00/M22 Q1029 NOSIG
ZBYN,2003-12-26 06:00,ZBYN 260600Z 18001MPS CAVOK 01/M21 Q1029 NOSIG
ZBYN,2003-12-26 06:30,ZBYN 260630Z 16001MPS CAVOK 01/M21 Q1029 NOSIG
ZBYN,2003-12-26 07:00,ZBYN 260700Z 19002MPS CAVOK 01/M21 Q1029 NOSIG
ZBYN,2003-12-26 08:00,ZBYN 260800Z 19001MPS CAVOK 01/M22 Q1029 NOSIG
ZBYN,2003-12-26 09:00,ZBYN 260900Z 13001MPS CAVOK M01/M21 Q1029 NOSIG
ZBYN,2003-12-26 10:00,ZBYN 261000Z 10001MPS CAVOK M04/M21 Q1029 NOSIG
ZBYN,2003-12-26 11:00,ZBYN 261100Z 11001MPS CAVOK M06/M20 Q1029 NOSIG
ZBYN,2003-12-26 12:00,ZBYN 261200Z 09001MPS 8000 SKC M08/M20 Q1029 NOSIG
ZBYN,2003-12-26 13:00,ZBYN 261300Z 14002MPS CAVOK M09/M19 Q1030 NOSIG
ZBYN,2003-12-26 15:00,ZBYN 261500Z 12002MPS CAVOK M10/M19 Q1030 NOSIG
ZBYN,2003-12-26 16:00,ZBYN 261600Z 10001MPS CAVOK M12/M21 Q1030 NOSIG
ZBYN,2003-12-26 17:00,ZBYN 261700Z 10002MPS CAVOK M12/M19 Q1030
ZBYN,2003-12-26 18:00,ZBYN 261800Z 06002MPS CAVOK M11/M18 Q1029
ZBYN,2003-12-26 19:00,ZBYN 261900Z 12002MPS CAVOK M11/M19 Q1029
ZBYN,2003-12-26 20:00,ZBYN 262000Z 06001MPS CAVOK M12/M18 Q1029
ZBYN,2003-12-26 21:00,ZBYN 262100Z 09001MPS CAVOK M13/M19 Q1028
ZBYN,2003-12-26 22:00,ZBYN 262200Z 13002MPS CAVOK M14/M20 Q1028 NOSIG
ZBYN,2003-12-26 23:00,ZBYN 262300Z 13001MPS CAVOK M14/M19 Q1028 NOSIG
ZBYN,2003-12-27 00:00,ZBYN 270000Z 00000MPS 5000 FU SKC M14/M19 Q1029 NOSIG
ZBYN,2003-12-27 01:00,ZBYN 270100Z 00000MPS 4000 FU SKC M12/M16 Q1029 NOSIG
ZBYN,2003-12-27 02:00,ZBYN 270200Z 00000MPS 3000 FU SKC M08/M16 Q1029 NOSIG
ZBYN,2003-12-27 03:00,ZBYN 270300Z 13001MPS 4000 FU SKC M03/M16 Q1029 NOSIG
ZBYN,2003-12-27 03:30,ZBYN 270330Z 17001MPS 4000 FU SKC M01/M16 Q1028 NOSIG
ZBYN,2003-12-27 04:00,ZBYN 270400Z VRB01MPS 4000 FU SKC M01/M16 Q1027 NOSIG
ZBYN,2003-12-27 04:30,ZBYN 270430Z VRB01MPS 4000 FU SKC M01/M17 Q1026 NOSIG
ZBYN,2003-12-27 05:00,ZBYN 270500Z VRB01MPS 3000 FU SKC M00/M17 Q1025 NOSIG
ZBYN,2003-12-27 06:00,ZBYN 270600Z VRB01MPS 6000 SKC 01/M19 Q1024 NOSIG
ZBYN,2003-12-27 07:00,ZBYN 270700Z 18001MPS 6000 NSC 02/M19 Q1024 NOSIG
ZBYN,2003-12-27 08:00,ZBYN 270800Z 15001MPS 7000 NSC 02/M18 Q1024 NOSIG
ZBYN,2003-12-27 09:00,ZBYN 270900Z 11001MPS 7000 NSC M00/M18 Q1024 NOSIG
ZBYN,2003-12-27 10:00,ZBYN 271000Z 18001MPS 7000 NSC M03/M17 Q1024 NOSIG
ZBYN,2003-12-27 11:00,ZBYN 271100Z 09001MPS 5000 FU SKC M04/M18 Q1024 NOSIG
ZBYN,2003-12-27 12:00,ZBYN 271200Z 12001MPS 6000 SKC M06/M19 Q1024 NOSIG
ZBYN,2003-12-27 13:00,ZBYN 271300Z 00000MPS 7000 SKC M06/M18 Q1025 NOSIG
ZBYN,2003-12-27 14:00,ZBYN 271400Z 12002MPS 8000 SKC M08/M18 Q1024 NOSIG
ZBYN,2003-12-27 15:00,ZBYN 271500Z 00000MPS CAVOK M08/M18 Q1024 NOSIG
ZBYN,2003-12-27 16:00,ZBYN 271600Z 11001MPS CAVOK M09/M18 Q1024 NOSIG
ZBYN,2003-12-27 17:00,ZBYN 271700Z 10001MPS CAVOK M09/M17 Q1024
ZBYN,2003-12-27 18:00,ZBYN 271800Z 13001MPS CAVOK M08/M16 Q1024 NOSIG
ZBYN,2003-12-27 19:00,ZBYN 271900Z VRB01MPS CAVOK M10/M16 Q1024
ZBYN,2003-12-27 20:00,ZBYN 272000Z 12001MPS CAVOK M08/M16 Q1023
ZBYN,2003-12-27 21:00,ZBYN 272100Z 08001MPS 8000 SKC M10/M16 Q1023 NOSIG
ZBYN,2003-12-27 22:00,ZBYN 272200Z 05001MPS 7000 NSC M10/M16 Q1023 NOSIG
ZBYN,2003-12-27 23:00,ZBYN 272300Z 13001MPS 7000 NSC M08/M14 Q1024 NOSIG
ZBYN,2003-12-28 00:00,ZBYN 280000Z 00000MPS 3000 FU NSC M07/M13 Q1024 NOSIG
ZBYN,2003-12-28 01:00,ZBYN 280100Z 00000MPS 2500 FU SKC M07/M13 Q1025 NOSIG
ZBYN,2003-12-28 02:00,ZBYN 280200Z VRB01MPS 2000 FU SKC M03/M12 Q1024 NOSIG
ZBYN,2003-12-28 03:00,ZBYN 280300Z 19002MPS 2000 FU SKC 01/M13 Q1024 NOSIG
ZBYN,2003-12-28 04:00,ZBYN 280400Z 21002MPS 2000 FU NSC 01/M15 Q1024 NOSIG
ZBYN,2003-12-28 05:00,ZBYN 280500Z 24002MPS 2000 FU NSC 01/M14 Q1023 NOSIG
ZBYN,2003-12-28 06:00,ZBYN 280600Z 23002MPS 1600 FU NSC 01/M15 Q1023 NOSIG
ZBYN,2003-12-28 07:00,ZBYN 280700Z 22003MPS CAVOK 01/M17 Q1023 NOSIG
ZBYN,2003-12-28 08:00,ZBYN 280800Z 22004MPS CAVOK 01/M16 Q1024 NOSIG
ZBYN,2003-12-28 09:00,ZBYN 280900Z 23005MPS CAVOK 01/M17 Q1024 NOSIG
ZBYN,2003-12-28 10:00,ZBYN 281000Z 23004MPS CAVOK 00/M17 Q1025 NOSIG
ZBYN,2003-12-28 11:00,ZBYN 281100Z 24002MPS CAVOK M01/M16 Q1026 NOSIG
ZBYN,2003-12-28 12:00,ZBYN 281200Z 24002MPS CAVOK M01/M16 Q1027 NOSIG
ZBYN,2003-12-28 13:00,ZBYN 281300Z 27002MPS CAVOK M02/M16 Q1028 NOSIG
ZBYN,2003-12-28 14:00,ZBYN 281400Z 20001MPS CAVOK M03/M17 Q1028 NOSIG
ZBYN,2003-12-28 15:00,ZBYN 281500Z 23002MPS CAVOK M05/M16 Q1028 NOSIG
ZBYN,2003-12-28 16:00,ZBYN 281600Z 13001MPS CAVOK M08/M16 Q1028 NOSIG
ZBYN,2003-12-28 17:00,ZBYN 281700Z 11001MPS CAVOK M10/M16 Q1028
ZBYN,2003-12-28 18:00,ZBYN 281800Z 09001MPS CAVOK M10/M16 Q1029
ZBYN,2003-12-28 19:00,ZBYN 281900Z 13002MPS CAVOK M09/M15 Q1029
ZBYN,2003-12-28 20:00,ZBYN 282000Z 12001MPS CAVOK M09/M16 Q1029
ZBYN,2003-12-28 21:00,ZBYN 282100Z 11002MPS CAVOK M09/M15 Q1028
ZBYN,2003-12-28 22:00,ZBYN 282200Z 02003MPS CAVOK M06/M14 Q1029 NOSIG
ZBYN,2003-12-28 23:00,ZBYN 282300Z 12002MPS CAVOK M08/M14 Q1029 NOSIG
ZBYN,2003-12-29 00:00,ZBYN 290000Z VRB01MPS CAVOK M07/M14 Q1030 NOSIG
ZBYN,2003-12-29 01:00,ZBYN 290100Z 18001MPS 6000 NSC M06/M14 Q1031 NOSIG
ZBYN,2003-12-29 02:00,ZBYN 290200Z VRB01MPS 6000 NSC M03/M14 Q1031 NOSIG
ZBYN,2003-12-29 03:00,ZBYN 290300Z 33001MPS 8000 NSC M02/M14 Q1031 NOSIG
ZBYN,2003-12-29 04:00,ZBYN 290400Z 32003MPS CAVOK 03/M16 Q1029 NOSIG
ZBYN,2003-12-29 05:00,ZBYN 290500Z 34002MPS CAVOK 02/M17 Q1028 NOSIG
ZBYN,2003-12-29 06:00,ZBYN 290600Z 30002MPS CAVOK 03/M18 Q1027 NOSIG
ZBYN,2003-12-29 07:00,ZBYN 290700Z 31002MPS CAVOK 03/M18 Q1027 NOSIG
ZBYN,2003-12-29 08:00,ZBYN 290800Z 26001MPS CAVOK 02/M17 Q1027 NOSIG
ZBYN,2003-12-29 09:00,ZBYN 290900Z 24001MPS 8000 NSC 00/M16 Q1028 NOSIG
ZBYN,2003-12-29 10:00,ZBYN 291000Z 22001MPS 8000 NSC M00/M15 Q1028 NOSIG
ZBYN,2003-12-29 11:00,ZBYN 291100Z VRB01MPS CAVOK M01/M15 Q1028 NOSIG
ZBYN,2003-12-29 12:00,ZBYN 291200Z 00000MPS 8000 NSC M02/M14 Q1028 NOSIG
ZBYN,2003-12-29 13:00,ZBYN 291300Z 09001MPS 6000 NSC M02/M14 Q1028 NOSIG
ZBYN,2003-12-29 14:00,ZBYN 291400Z VRB01MPS 6000 NSC M03/M14 Q1028 NOSIG
ZBYN,2003-12-29 15:00,ZBYN 291500Z 13001MPS 5000 FU NSC M06/M14 Q1028 NOSIG
ZBYN,2003-12-29 16:00,ZBYN 291600Z 11001MPS 6000 NSC M05/M13 Q1027 NOSIG
ZBYN,2003-12-29 17:00,ZBYN 291700Z 11002MPS CAVOK M07/M14 Q1027
ZBYN,2003-12-29 18:00,ZBYN 291800Z 13003MPS CAVOK M08/M14 Q1026
ZBYN,2003-12-29 19:00,ZBYN 291900Z 09001MPS CAVOK M08/M14 Q1026
ZBYN,2003-12-29 20:00,ZBYN 292000Z 08001MPS CAVOK M08/M15 Q1025
ZBYN,2003-12-29 21:00,ZBYN 292100Z 12001MPS 8000 SKC M10/M15 Q1025
ZBYN,2003-12-29 22:00,ZBYN 292200Z 13002MPS 7000 SKC M10/M15 Q1025 NOSIG
ZBYN,2003-12-29 23:00,ZBYN 292300Z 10001MPS 7000 SKC M10/M14 Q1025 NOSIG
ZBYN,2003-12-30 00:00,ZBYN 300000Z 12001MPS 5000 FU NSC M10/M15 Q1025 NOSIG
ZBYN,2003-12-30 01:00,ZBYN 300100Z 00000MPS 3000 FU NSC M09/M14 Q1025 NOSIG
ZBYN,2003-12-30 02:00,ZBYN 300200Z 00000MPS 3000 FU NSC M05/M12 Q1026 NOSIG
ZBYN,2003-12-30 03:00,ZBYN 300300Z VRB01MPS 3000 FU NSC M03/M13 Q1025 NOSIG
ZBYN,2003-12-30 04:00,ZBYN 300400Z 17001MPS 3000 FU NSC 00/M11 Q1023 NOSIG
ZBYN,2003-12-30 05:00,ZBYN 300500Z VRB01MPS 3000 FU NSC 01/M13 Q1022 NOSIG
ZBYN,2003-12-30 06:00,ZBYN 300600Z 21002MPS 3000 FU SKC 02/M13 Q1020 NOSIG
ZBYN,2003-12-30 07:00,ZBYN 300700Z 22002MPS 4000 FU SKC 03/M14 Q1020 NOSIG
ZBYN,2003-12-30 08:00,ZBYN 300800Z 21002MPS 4000 FU SKC 02/M14 Q1020 NOSIG
ZBYN,2003-12-30 09:00,ZBYN 300900Z 00000MPS 4000 FU SKC M00/M14 Q1020 NOSIG
ZBYN,2003-12-30 10:00,ZBYN 301000Z 09001MPS 4000 FU SKC M02/M14 Q1020 NOSIG
ZBYN,2003-12-30 11:00,ZBYN 301100Z 00000MPS 6000 SKC M05/M14 Q1021 NOSIG
ZBYN,2003-12-30 12:00,ZBYN 301200Z 12001MPS 6000 SKC M08/M14 Q1021 NOSIG
ZBYN,2003-12-30 13:00,ZBYN 301300Z VRB01MPS 6000 SKC M06/M14 Q1022 NOSIG
ZBYN,2003-12-30 14:00,ZBYN 301400Z VRB01MPS 4000 FU SKC M08/M15 Q1022 NOSIG
ZBYN,2003-12-30 15:00,ZBYN 301500Z 08001MPS 4000 FU SKC M09/M15 Q1022 NOSIG
ZBYN,2003-12-30 16:00,ZBYN 301600Z 09001MPS 3000 FU SKC M09/M14 Q1022 NOSIG
ZBYN,2003-12-30 17:00,ZBYN 301700Z 09001MPS 4000 FU SKC M11/M15 Q1021
ZBYN,2003-12-30 18:00,ZBYN 301800Z 12002MPS 4000 FU SKC M11/M16 Q1022
ZBYN,2003-12-30 19:00,ZBYN 301900Z 12002MPS 4000 FU SKC M12/M15 Q1022
ZBYN,2003-12-30 20:00,ZBYN 302000Z VRB01MPS 5000 FU SKC M11/M15 Q1022
ZBYN,2003-12-30 21:00,ZBYN 302100Z VRB01MPS 5000 FU SKC M11/M16 Q1021
ZBYN,2003-12-30 22:00,ZBYN 302200Z VRB01MPS 5000 FU SKC M12/M16 Q1022 NOSIG
ZBYN,2003-12-30 23:00,ZBYN 302300Z 11001MPS 5000 FU SKC M13/M16 Q1022 NOSIG
