station,valid,metar
ZBYN,1990-01-01 00:00,ZBYN 010000Z AUTO 00000KT 17SM M04/M10 A3021 RMK SLP274 T10401101 52016 IEM_DS3505
ZBYN,1990-01-01 01:00,ZBYN 010100Z AUTO 00000KT 7SM M05/M10 RMK T10501100 IEM_DS3505
ZBYN,1990-01-01 02:00,ZBYN 010200Z AUTO 15004KT 5SM M02/M09 A3024 RMK T10201090 IEM_DS3505
ZBYN,1990-01-01 03:00,ZBYN 010300Z AUTO 00000KT 12SM 01/M09 RMK SLP270 T00061089 52010 IEM_DS3505
ZBYN,1990-01-01 04:00,ZBYN 010400Z AUTO 34010KT 7SM 01/M15 A3024 RMK T00101150 IEM_DS3505
ZBYN,1990-01-01 05:00,ZBYN 010500Z AUTO 33014KT 7SM 02/M08 A3024 RMK T00201080 IEM_DS3505
ZBYN,1990-01-01 06:00,ZBYN 010600Z AUTO 29012KT 17SM 02/M13 A3021 RMK SLP259 T00181131 4////1061 57011 IEM_DS3505
ZBYN,1990-01-01 07:00,ZBYN 010700Z AUTO 27010KT 7SM 03/M16 A3021 RMK T00301160 IEM_DS3505
ZBYN,1990-01-01 08:00,ZBYN 010800Z AUTO 30016KT 7SM 02/M16 A3021 RMK T00201160 IEM_DS3505
ZBYN,1990-01-01 09:00,ZBYN 010900Z AUTO 32008KT 12SM 01/M15 A3021 RMK SLP275 T00101150 52006 IEM_DS3505
ZBYN,1990-01-01 10:00,ZBYN 011000Z AUTO 32010KT 7SM M02/M12 A3027 RMK T10201120 IEM_DS3505
ZBYN,1990-01-01 11:00,ZBYN 011100Z AUTO 36010KT 7SM M02/M12 RMK T10201120 IEM_DS3505
ZBYN,1990-01-01 12:00,ZBYN 011200Z AUTO 02004KT 12SM M02/M08 RMK SLP310 T10221075 IEM_DS3505
ZBYN,1990-01-01 13:00,ZBYN 011300Z AUTO 35008KT 7SM M05/M15 A3030 RMK T10501150 IEM_DS3505
ZBYN,1990-01-01 15:00,ZBYN 011500Z AUTO 32006KT 12SM M05/M14 RMK SLP316 T10481135 52009 IEM_DS3505
ZBYN,1990-01-01 16:00,ZBYN 011600Z AUTO 01006KT 7SM M06/M15 A3033 RMK T10601150 IEM_DS3505
ZBYN,1990-01-01 17:00,ZBYN 011700Z AUTO 07004KT 7SM M09/M15 A3033 RMK T10901150 IEM_DS3505
ZBYN,1990-01-01 18:00,ZBYN 011800Z AUTO 00000KT 12SM M06/M13 A3033 RMK SLP315 T10601132 40025//// 57001 IEM_DS3505
ZBYN,1990-01-01 21:00,ZBYN 012100Z AUTO 00000KT 12SM M09/M12 RMK T10941125 52005 IEM_DS3505
ZBYN,1990-01-01 22:00,ZBYN 012200Z AUTO 00000KT 7SM M13/M15 A3033 RMK T11301150 IEM_DS3505
ZBYN,1990-01-01 23:00,ZBYN 012300Z AUTO 00000KT 7SM M12/M15 A3033 RMK T11201150 IEM_DS3505
ZBYN,1990-01-02 00:00,ZBYN 020000Z AUTO 36002KT 12SM M09/M14 RMK SLP335 T10921144 52001 IEM_DS3505
ZBYN,1990-01-02 02:00,ZBYN 020200Z AUTO 05004KT 7SM M06/M15 A3039 RMK T10601150 IEM_DS3505
ZBYN,1990-01-02 03:00,ZBYN 020300Z AUTO 32004KT 9SM M04/M10 A3039 RMK SLP329 T10411098 57001 IEM_DS3505
ZBYN,1990-01-02 05:00,ZBYN 020500Z AUTO 00000KT 7SM M01/M14 A3033 RMK T10101140 IEM_DS3505
ZBYN,1990-01-02 06:00,ZBYN 020600Z AUTO 00000KT 6SM 01/M07 A3027 RMK SLP300 T00101073 4////1120 57020 IEM_DS3505
ZBYN,1990-01-02 07:00,ZBYN 020700Z AUTO 21004KT 7SM 01/M14 A3027 RMK T00101140 IEM_DS3505
ZBYN,1990-01-02 08:00,ZBYN 020800Z AUTO 00000KT 7SM 01/M13 A3027 RMK T00101130 IEM_DS3505
ZBYN,1990-01-02 09:00,ZBYN 020900Z AUTO 00000KT 6SM 00/M14 A3027 RMK SLP306 T00021135 57002 IEM_DS3505
ZBYN,1990-01-02 10:00,ZBYN 021000Z AUTO 00000KT 7SM M02/M10 A3027 RMK T10201100 IEM_DS3505
ZBYN,1990-01-02 11:00,ZBYN 021100Z AUTO 00000KT 7SM M05/M12 RMK T10501120 IEM_DS3505
ZBYN,1990-01-02 12:00,ZBYN 021200Z AUTO 32004KT 6SM M05/M13 RMK SLP326 T10461126 52011 IEM_DS3505
ZBYN,1990-01-02 13:00,ZBYN 021300Z AUTO 00000KT 7SM M07/M14 A3030 RMK T10701140 IEM_DS3505
ZBYN,1990-01-02 14:00,ZBYN 021400Z AUTO 00000KT 7SM M08/M14 A3033 RMK T10801140 IEM_DS3505
ZBYN,1990-01-02 15:00,ZBYN 021500Z AUTO 00000KT 6SM M07/M14 A3033 RMK SLP325 T10661135 52004 IEM_DS3505
ZBYN,1990-01-02 16:00,ZBYN 021600Z AUTO 00000KT 7SM M09/M13 A3033 RMK T10901130 IEM_DS3505
ZBYN,1990-01-02 17:00,ZBYN 021700Z AUTO 00000KT 7SM M09/M14 A3033 RMK T10901140 IEM_DS3505
ZBYN,1990-01-02 18:00,ZBYN 021800Z AUTO 00000KT 6SM M07/M13 RMK SLP313 T10731130 40017//// 57003 IEM_DS3505
ZBYN,1990-01-02 19:00,ZBYN 021900Z AUTO 00000KT 7SM M11/M14 A3033 RMK T11101140 IEM_DS3505
ZBYN,1990-01-02 20:00,ZBYN 022000Z AUTO 00000KT 7SM M11/M14 RMK T11101140 IEM_DS3505
ZBYN,1990-01-02 21:00,ZBYN 022100Z AUTO 00000KT 6SM M10/M13 A3027 RMK T11011127 57010 IEM_DS3505
ZBYN,1990-01-02 22:00,ZBYN 022200Z AUTO 00000KT 7SM M12/M14 A3027 RMK T11201140 IEM_DS3505
ZBYN,1990-01-02 23:00,ZBYN 022300Z AUTO 00000KT 7SM M12/M14 A3030 RMK T11201140 IEM_DS3505
ZBYN,1990-01-03 00:00,ZBYN 030000Z AUTO 00000KT 4SM M13/M15 A3030 RMK T11301150 57002 IEM_DS3505
ZBYN,1990-01-03 01:00,ZBYN 030100Z AUTO 00000KT 2 1/2SM M12/M13 A3033 RMK T11201130 IEM_DS3505
ZBYN,1990-01-03 02:00,ZBYN 030200Z AUTO 00000KT 4SM M07/M13 A3033 RMK T10701130 IEM_DS3505
ZBYN,1990-01-03 03:00,ZBYN 030300Z AUTO 00000KT 5SM M05/M10 A3033 RMK SLP324 T10481103 52002 IEM_DS3505
ZBYN,1990-01-03 04:00,ZBYN 030400Z AUTO 00000KT 4SM M05/M12 A3033 RMK T10501120 IEM_DS3505
ZBYN,1990-01-03 05:00,ZBYN 030500Z AUTO 00000KT 7SM M01/M12 A3027 RMK T10101120 IEM_DS3505
ZBYN,1990-01-03 06:00,ZBYN 030600Z AUTO 11004KT 5SM M01/M12 RMK SLP283 T10081120 4////1113 57032 IEM_DS3505
ZBYN,1990-01-03 07:00,ZBYN 030700Z AUTO 20006KT 7SM 00/M12 A3021 RMK T00001120 IEM_DS3505
ZBYN,1990-01-03 08:00,ZBYN 030800Z AUTO 23002KT 7SM 00/M10 A3018 RMK T00001100 IEM_DS3505
ZBYN,1990-01-03 09:00,ZBYN 030900Z AUTO 00000KT 5SM M01/M09 RMK SLP277 T10101092 57010 IEM_DS3505
ZBYN,1990-01-03 10:00,ZBYN 031000Z AUTO 00000KT 2 1/2SM M08/M11 RMK SLP291 T10801108 IEM_DS3505
ZBYN,1990-01-03 11:00,ZBYN 031100Z AUTO 10006KT 4SM M05/M10 A3021 RMK T10501100 IEM_DS3505
ZBYN,1990-01-03 12:00,ZBYN 031200Z AUTO 00000KT 5SM M05/M08 RMK SLP299 T10481085 52012 IEM_DS3505
ZBYN,1990-01-03 14:00,ZBYN 031400Z AUTO 12008KT 4SM M07/M10 A3024 RMK T10701100 IEM_DS3505
ZBYN,1990-01-03 15:00,ZBYN 031500Z AUTO 14004KT 4SM M06/M09 A3024 RMK SLP296 T10611089 52005 IEM_DS3505
ZBYN,1990-01-03 16:00,ZBYN 031600Z AUTO 11006KT 4SM M07/M10 A3024 RMK T10701100 IEM_DS3505
ZBYN,1990-01-03 17:00,ZBYN 031700Z AUTO 12006KT 2SM M08/M10 A3024 RMK T10801100 IEM_DS3505
ZBYN,1990-01-03 18:00,ZBYN 031800Z AUTO 00000KT 2 1/2SM M08/M11 A3024 RMK SLP291 T10801108 40002//// 57001 IEM_DS3505
ZBYN,1990-01-03 19:00,ZBYN 031900Z AUTO 00000KT 2 1/2SM M05/M07 A3024 RMK T10501070 IEM_DS3505
ZBYN,1990-01-03 20:00,ZBYN 032000Z AUTO 00000KT 2 1/2SM A3024 RMK IEM_DS3505
ZBYN,1990-01-03 21:00,ZBYN 032100Z AUTO 00000KT 2 1/2SM M06/M07 A3024 RMK SLP279 T10611073 57008 IEM_DS3505
ZBYN,1990-01-03 22:00,ZBYN 032200Z AUTO 20006KT 2 1/2SM M04/M06 RMK T10401060 IEM_DS3505
ZBYN,1990-01-03 23:00,ZBYN 032300Z AUTO 00000KT 1 1/2SM M05/M07 A3021 RMK T10501070 IEM_DS3505
ZBYN,1990-01-04 00:00,ZBYN 040000Z AUTO 00000KT 4SM M05/M07 A3024 RMK SLP289 T10491066 52005 IEM_DS3505
ZBYN,1990-01-04 01:00,ZBYN 040100Z AUTO 18004KT 1 1/2SM M04/M06 A3024 RMK T10401060 IEM_DS3505
ZBYN,1990-01-04 02:00,ZBYN 040200Z AUTO 21004KT 1 1/2SM M03/M05 A3024 RMK T10301050 IEM_DS3505
ZBYN,1990-01-04 03:00,ZBYN 040300Z AUTO 16004KT 4SM M04/M05 A3021 RMK SLP293 T10361051 52004 IEM_DS3505
ZBYN,1990-01-04 06:00,ZBYN 040600Z AUTO 16002KT 4SM M02/M06 A3015 RMK SLP259 T10211061 4////1086 57032 IEM_DS3505
ZBYN,1990-01-04 07:00,ZBYN 040700Z AUTO 20008KT 3SM M02/M05 A3012 RMK T10201050 IEM_DS3505
ZBYN,1990-01-04 08:00,ZBYN 040800Z AUTO 19006KT 3SM M02/M05 A3015 RMK T10201050 IEM_DS3505
ZBYN,1990-01-04 08:08,ZBYN 040808Z AUTO 19006KT 3SM M02/M05 A3015 RMK T10201050 IEM_DS3505
ZBYN,1990-01-04 09:00,ZBYN 040900Z AUTO 18004KT 4SM M02/M06 A3015 RMK SLP265 T10201056 52009 IEM_DS3505
ZBYN,1990-01-04 10:00,ZBYN 041000Z AUTO 00000KT 3SM M02/M05 A3018 RMK T10201050 IEM_DS3505
ZBYN,1990-01-04 11:00,ZBYN 041100Z AUTO 00000KT 3SM M02/M05 A3018 RMK T10201050 IEM_DS3505
ZBYN,1990-01-04 12:00,ZBYN 041200Z AUTO 32002KT 4SM M02/M05 A3021 RMK SLP282 T10241051 52017 IEM_DS3505
ZBYN,1990-01-04 13:00,ZBYN 041300Z AUTO 14002KT 4SM M02/M04 A3021 RMK T10201040 IEM_DS3505
ZBYN,1990-01-04 14:00,ZBYN 041400Z AUTO 22004KT 4SM M02/M04 A3024 RMK T10201040 IEM_DS3505
ZBYN,1990-01-04 15:00,ZBYN 041500Z AUTO 00000KT 4SM M05/M05 A3024 RMK SLP288 T10481054 52003 IEM_DS3505
ZBYN,1990-01-04 18:00,ZBYN 041800Z AUTO 36002KT 4SM M05/M06 A3024 RMK SLP286 T10501056 41018//// 52001 IEM_DS3505
ZBYN,1990-01-04 19:00,ZBYN 041900Z AUTO 00000KT 2 1/2SM M05/M07 A3027 RMK T10501070 IEM_DS3505
ZBYN,1990-01-04 20:00,ZBYN 042000Z AUTO 03004KT 2 1/2SM M07/M08 A3027 RMK T10701080 IEM_DS3505
ZBYN,1990-01-04 21:00,ZBYN 042100Z AUTO 00000KT 4SM M07/M09 RMK SLP294 T10711088 52004 IEM_DS3505
ZBYN,1990-01-04 22:00,ZBYN 042200Z AUTO 00000KT 2 1/2SM M09/M11 A3027 RMK T10901110 IEM_DS3505
ZBYN,1990-01-04 23:00,ZBYN 042300Z AUTO 00000KT 2 1/2SM M11/M12 A3030 RMK T11101120 IEM_DS3505
ZBYN,1990-01-05 00:00,ZBYN 050000Z AUTO 32002KT 3SM M09/M11 A3033 RMK SLP320 T10931109 52019 IEM_DS3505
ZBYN,1990-01-05 02:00,ZBYN 050200Z AUTO 00000KT 1SM M07/M07 A3039 RMK T10701070 IEM_DS3505
ZBYN,1990-01-05 03:00,ZBYN 050300Z AUTO 00000KT 4SM M03/M08 RMK SLP339 T10341075 52023 IEM_DS3505
ZBYN,1990-01-05 05:00,ZBYN 050500Z AUTO 00000KT 4SM 00/M09 A3036 RMK T00001090 IEM_DS3505
ZBYN,1990-01-05 06:00,ZBYN 050600Z AUTO 00000KT 6SM 02/M12 A3033 RMK SLP313 T00181119 4////1098 57015 IEM_DS3505
ZBYN,1990-01-05 07:00,ZBYN 050700Z AUTO 27008KT 7SM 03/M07 A3030 RMK T00301070 IEM_DS3505
ZBYN,1990-01-05 08:00,ZBYN 050800Z AUTO 22008KT 4SM 01/M06 A3033 RMK T00101060 IEM_DS3505
ZBYN,1990-01-05 09:00,ZBYN 050900Z AUTO 20002KT 6SM M01/M08 A3033 RMK SLP322 T10081080 54000 IEM_DS3505
ZBYN,1990-01-05 10:00,ZBYN 051000Z AUTO 00000KT 1 1/2SM M03/M09 A3036 RMK T10301090 IEM_DS3505
ZBYN,1990-01-05 11:00,ZBYN 051100Z AUTO 00000KT 3SM M05/M09 A3036 RMK T10501090 IEM_DS3505
ZBYN,1990-01-05 12:00,ZBYN 051200Z AUTO 29002KT 5SM M05/M09 A3039 RMK SLP352 T10521086 52016 IEM_DS3505
ZBYN,1990-01-05 14:00,ZBYN 051400Z AUTO 00000KT 5SM M08/M11 A3042 RMK T10801110 IEM_DS3505
ZBYN,1990-01-05 15:00,ZBYN 051500Z AUTO 00000KT 5SM M07/M11 A3042 RMK SLP358 T10701109 52012 IEM_DS3505
ZBYN,1990-01-05 16:00,ZBYN 051600Z AUTO 00000KT 7SM M10/M13 A3045 RMK T11001130 IEM_DS3505
ZBYN,1990-01-05 17:00,ZBYN 051700Z AUTO 00000KT 7SM M10/M13 A3045 RMK T11001130 IEM_DS3505
ZBYN,1990-01-05 18:00,ZBYN 051800Z AUTO 00000KT 5SM M10/M11 A3045 RMK SLP356 T10961112 40025//// 52003 IEM_DS3505
ZBYN,1990-01-05 19:00,ZBYN 051900Z AUTO 00000KT 7SM M12/M14 A3045 RMK T11201140 IEM_DS3505
ZBYN,1990-01-05 20:00,ZBYN 052000Z AUTO 00000KT 4SM M11/M14 A3045 RMK T11101140 IEM_DS3505
ZBYN,1990-01-05 21:00,ZBYN 052100Z AUTO 00000KT 3SM M11/M12 A3045 RMK SLP363 T11111123 57001 IEM_DS3505
ZBYN,1990-01-05 22:00,ZBYN 052200Z AUTO 11004KT 2 1/2SM M12/M15 A3045 RMK T11201150 IEM_DS3505
ZBYN,1990-01-05 23:00,ZBYN 052300Z AUTO 00000KT 2 1/2SM M13/M15 A3045 RMK T11301150 IEM_DS3505
ZBYN,1990-01-06 00:00,ZBYN 060000Z AUTO 00000KT 4SM M12/M13 RMK SLP380 T11221132 52006 IEM_DS3505
ZBYN,1990-01-06 01:00,ZBYN 060100Z AUTO 00000KT 1 1/4SM M12/M14 A3047 RMK T11201140 IEM_DS3505
ZBYN,1990-01-06 02:00,ZBYN 060200Z AUTO 00000KT 1 1/4SM M08/M12 A3047 RMK T10801120 IEM_DS3505
ZBYN,1990-01-06 03:00,ZBYN 060300Z AUTO 00000KT 4SM M05/M11 A3047 RMK SLP375 T10511108 52005 IEM_DS3505
ZBYN,1990-01-06 05:00,ZBYN 060500Z AUTO 00000KT 4SM M01/M10 A3042 RMK T10101100 IEM_DS3505
ZBYN,1990-01-06 06:00,ZBYN 060600Z AUTO 16004KT 5SM 00/M11 A3039 RMK SLP337 T00011108 4////1128 57030 IEM_DS3505
ZBYN,1990-01-06 07:00,ZBYN 060700Z AUTO 00000KT 7SM 01/M09 RMK T00101090 IEM_DS3505
ZBYN,1990-01-06 08:00,ZBYN 060800Z AUTO 18004KT 7SM 02/M08 A3033 RMK T00201080 IEM_DS3505
ZBYN,1990-01-06 09:00,ZBYN 060900Z AUTO 00000KT 5SM 00/M08 A3033 RMK SLP323 T00041083 57015 IEM_DS3505
ZBYN,1990-01-06 10:00,ZBYN 061000Z AUTO 00000KT 7SM M02/M07 A3033 RMK T10201070 IEM_DS3505
ZBYN,1990-01-06 11:00,ZBYN 061100Z AUTO 00000KT 5SM M04/M11 A3033 RMK T10401110 IEM_DS3505
ZBYN,1990-01-06 12:00,ZBYN 061200Z AUTO 32002KT 4SM M04/M09 A3033 RMK SLP340 T10451094 IEM_DS3505
ZBYN,1990-01-06 13:00,ZBYN 061300Z AUTO 10002KT 5SM M07/M12 A3033 RMK T10701120 IEM_DS3505
ZBYN,1990-01-06 15:00,ZBYN 061500Z AUTO 34002KT 4SM M06/M10 A3033 RMK SLP329 T10641103 57001 IEM_DS3505
ZBYN,1990-01-06 16:00,ZBYN 061600Z AUTO 00000KT 3SM M09/M13 A3033 RMK T10901130 IEM_DS3505
ZBYN,1990-01-06 17:00,ZBYN 061700Z AUTO 00000KT 2 1/2SM M10/M12 A3030 RMK T11001120 IEM_DS3505
ZBYN,1990-01-06 18:00,ZBYN 061800Z AUTO 00000KT 5SM M07/M11 RMK SLP313 T10701114 40014//// 57006 IEM_DS3505
ZBYN,1990-01-06 19:00,ZBYN 061900Z AUTO 00000KT 3SM M10/M13 A3030 RMK T11001130 IEM_DS3505
ZBYN,1990-01-06 20:00,ZBYN 062000Z AUTO 00000KT 3SM M11/M13 A3030 RMK T11101130 IEM_DS3505
ZBYN,1990-01-06 21:00,ZBYN 062100Z AUTO 34004KT 5SM M08/M12 RMK SLP330 T10821120 57014 IEM_DS3505
ZBYN,1990-01-06 22:00,ZBYN 062200Z AUTO 00000KT 2 1/2SM M11/M13 A3027 RMK T11101130 IEM_DS3505
ZBYN,1990-01-07 00:00,ZBYN 070000Z AUTO 36002KT 5SM M06/M11 RMK SLP304 T10651112 57002 IEM_DS3505
ZBYN,1990-01-07 01:00,ZBYN 070100Z AUTO 14004KT 2SM M07/M10 A3027 RMK T10701100 IEM_DS3505
ZBYN,1990-01-07 02:00,ZBYN 070200Z AUTO 00000KT 2 1/2SM M05/ RMK IEM_DS3505
ZBYN,1990-01-07 03:00,ZBYN 070300Z AUTO 00000KT 6SM M03/M10 A3027 RMK SLP302 T10271100 52002 IEM_DS3505
ZBYN,1990-01-07 04:00,ZBYN 070400Z AUTO 00000KT 2 1/2SM 01/M09 A3024 RMK T00101090 IEM_DS3505
ZBYN,1990-01-07 06:00,ZBYN 070600Z AUTO 00000KT 6SM 03/M09 A3015 RMK SLP254 T00261091 4////1086 57036 IEM_DS3505
ZBYN,1990-01-07 07:00,ZBYN 070700Z AUTO 00000KT 6SM 04/M06 A3012 RMK T00401060 IEM_DS3505
ZBYN,1990-01-07 08:00,ZBYN 070800Z AUTO 00000KT 6SM 04/M07 A3012 RMK T00401070 IEM_DS3505
ZBYN,1990-01-07 09:00,ZBYN 070900Z AUTO 00000KT 7SM 02/M06 A3012 RMK SLP250 T00241058 57006 IEM_DS3505
ZBYN,1990-01-07 12:00,ZBYN 071200Z AUTO 00000KT 4SM M04/M07 RMK SLP268 T10361073 52009 IEM_DS3505
ZBYN,1990-01-07 13:00,ZBYN 071300Z AUTO 00000KT 2 1/2SM M06/M07 A3018 RMK T10601070 IEM_DS3505
ZBYN,1990-01-07 14:00,ZBYN 071400Z AUTO 13004KT 2 1/2SM M05/M10 A3021 RMK T10501100 IEM_DS3505
ZBYN,1990-01-07 15:00,ZBYN 071500Z AUTO 00000KT 4SM M04/M10 RMK SLP270 T10351103 52009 IEM_DS3505
ZBYN,1990-01-07 18:00,ZBYN 071800Z AUTO 00000KT 4SM M07/M10 A3021 RMK SLP269 T10701095 40039//// 52002 IEM_DS3505
ZBYN,1990-01-07 20:00,ZBYN 072000Z AUTO 00000KT 2SM M09/M12 A3021 RMK T10901120 IEM_DS3505
ZBYN,1990-01-07 21:00,ZBYN 072100Z AUTO 00000KT 4SM M06/M11 A3021 RMK SLP271 T10641106 52002 IEM_DS3505
ZBYN,1990-01-07 22:00,ZBYN 072200Z AUTO 10006KT 2 1/2SM M09/M12 A3021 RMK T10901120 IEM_DS3505
ZBYN,1990-01-07 23:00,ZBYN 072300Z AUTO 00000KT 3SM M11/M13 A3021 RMK T11101130 IEM_DS3505
ZBYN,1990-01-08 00:00,ZBYN 080000Z AUTO 00000KT 4SM M09/M12 RMK SLP295 T10941115 52007 IEM_DS3505
ZBYN,1990-01-08 02:00,ZBYN 080200Z AUTO 00000KT 1SM M06/M09 A3024 RMK T10601090 IEM_DS3505
ZBYN,1990-01-08 05:00,ZBYN 080500Z AUTO 17004KT 3SM 02/M09 A3015 RMK T00201090 IEM_DS3505
ZBYN,1990-01-08 06:00,ZBYN 080600Z AUTO 00000KT 5SM 02/M06 A3012 RMK SLP249 T00241062 4////1098 57030 IEM_DS3505
ZBYN,1990-01-08 09:00,ZBYN 080900Z AUTO 08004KT 5SM 02/M07 RMK T00201068 IEM_DS3505
ZBYN,1990-01-08 10:00,ZBYN 081000Z AUTO 00000KT 1 1/2SM 00/M05 A3015 RMK T00001050 IEM_DS3505
ZBYN,1990-01-08 12:00,ZBYN 081200Z AUTO 00000KT 5SM M02/M06 A3015 RMK SLP268 T10201064 52001 IEM_DS3505
ZBYN,1990-01-08 13:00,ZBYN 081300Z AUTO 36004KT 2SM M03/M05 A3015 RMK T10301050 IEM_DS3505
ZBYN,1990-01-08 15:00,ZBYN 081500Z AUTO 20004KT 5SM M02/M06 A3018 RMK SLP255 T10171064 52002 IEM_DS3505
ZBYN,1990-01-08 16:00,ZBYN 081600Z AUTO 11004KT 2SM M03/M07 A3018 RMK T10301070 IEM_DS3505
ZBYN,1990-01-08 17:00,ZBYN 081700Z AUTO 13006KT 2SM M02/M07 A3018 RMK T10201070 IEM_DS3505
ZBYN,1990-01-08 18:00,ZBYN 081800Z AUTO 00000KT 5SM M02/M06 A3015 RMK SLP241 T10171064 40039//// 57006 IEM_DS3505
ZBYN,1990-01-08 20:00,ZBYN 082000Z AUTO 18004KT 2SM M01/M04 A3012 RMK T10101040 IEM_DS3505
ZBYN,1990-01-08 21:00,ZBYN 082100Z AUTO 00000KT 4SM M02/M04 A3012 RMK SLP233 T10181036 57010 IEM_DS3505
ZBYN,1990-01-08 22:00,ZBYN 082200Z AUTO 00000KT 1 1/4SM M02/M02 A3012 RMK T10201020 IEM_DS3505
ZBYN,1990-01-08 23:00,ZBYN 082300Z AUTO 00000KT 1 1/4SM M02/M02 A3012 RMK T10201020 IEM_DS3505
ZBYN,1990-01-09 00:00,ZBYN 090000Z AUTO 00000KT 1SM M02/M03 A3012 RMK SLP243 T10241033 52003 IEM_DS3505
ZBYN,1990-01-09 01:00,ZBYN 090100Z AUTO 21006KT 1SM M02/M03 A3015 RMK T10201030 IEM_DS3505
ZBYN,1990-01-09 03:00,ZBYN 090300Z AUTO 14002KT 3SM M00/M02 A3018 RMK SLP248 T10021023 52009 IEM_DS3505
ZBYN,1990-01-09 05:00,ZBYN 090500Z AUTO 23010KT 4SM 02/M05 A3012 RMK T00201050 IEM_DS3505
ZBYN,1990-01-09 06:00,ZBYN 090600Z AUTO 16004KT 5SM 04/M06 A3012 RMK SLP229 T00391055 4////1034 57011 IEM_DS3505
ZBYN,1990-01-09 07:00,ZBYN 090700Z AUTO 19004KT 7SM 04/M02 A3012 RMK T00401020 IEM_DS3505
ZBYN,1990-01-09 09:00,ZBYN 090900Z AUTO 04004KT 6SM 03/M06 RMK SLP234 T00341058 52004 IEM_DS3505
ZBYN,1990-01-09 10:00,ZBYN 091000Z AUTO 12004KT 7SM 01/M04 A3015 RMK T00101040 IEM_DS3505
ZBYN,1990-01-09 11:00,ZBYN 091100Z AUTO 00000KT 6SM M01/M09 A3015 RMK SLP263 T10121091 52018 IEM_DS3505
ZBYN,1990-01-09 12:00,ZBYN 091200Z AUTO 00000KT 6SM M01/M09 RMK SLP263 T10121091 52018 IEM_DS3505
ZBYN,1990-01-09 14:00,ZBYN 091400Z AUTO 00000KT 7SM M06/M11 A3018 RMK T10601110 IEM_DS3505
ZBYN,1990-01-09 15:00,ZBYN 091500Z AUTO 34004KT 6SM M03/M10 A3021 RMK SLP276 T10321100 52012 IEM_DS3505
ZBYN,1990-01-09 16:00,ZBYN 091600Z AUTO 09004KT 7SM M06/M12 A3021 RMK T10601120 IEM_DS3505
ZBYN,1990-01-09 17:00,ZBYN 091700Z AUTO 00000KT 7SM M08/M12 A3021 RMK T10801120 IEM_DS3505
ZBYN,1990-01-09 18:00,ZBYN 091800Z AUTO 00000KT 6SM M06/M12 A3021 RMK SLP275 T10601120 40053//// 52001 IEM_DS3505
ZBYN,1990-01-09 19:00,ZBYN 091900Z AUTO 00000KT 7SM M09/M12 A3021 RMK T10901120 IEM_DS3505
ZBYN,1990-01-09 21:00,ZBYN 092100Z AUTO 00000KT 6SM M09/M12 A3021 RMK SLP277 T10901120 57001 IEM_DS3505
ZBYN,1990-01-09 22:00,ZBYN 092200Z AUTO 06004KT 7SM M12/M14 RMK T11201140 IEM_DS3505
ZBYN,1990-01-10 00:00,ZBYN 100000Z AUTO 34002KT 6SM M09/M12 RMK SLP294 T10921117 52007 IEM_DS3505
ZBYN,1990-01-10 01:00,ZBYN 100100Z AUTO 00000KT 2 1/2SM M11/M13 A3024 RMK T11101130 IEM_DS3505
ZBYN,1990-01-10 02:00,ZBYN 100200Z AUTO 00000KT 2 1/2SM M11/M13 A3024 RMK T11101130 IEM_DS3505
ZBYN,1990-01-10 03:00,ZBYN 100300Z AUTO 36004KT 6SM M01/M07 A3024 RMK SLP282 T10141072 57001 IEM_DS3505
ZBYN,1990-01-10 04:00,ZBYN 100400Z AUTO 00000KT 7SM 00/M11 A3021 RMK T00001110 IEM_DS3505
ZBYN,1990-01-10 05:00,ZBYN 100500Z AUTO 00000KT 6SM 02/M08 A3018 RMK T00201080 IEM_DS3505
ZBYN,1990-01-10 06:00,ZBYN 100600Z AUTO 00000KT 6SM 03/M06 A3015 RMK SLP251 T00331060 4////1097 57025 IEM_DS3505
ZBYN,1990-01-10 08:00,ZBYN 100800Z AUTO 23004KT 7SM 02/M06 A3012 RMK T00201060 IEM_DS3505
ZBYN,1990-01-10 09:00,ZBYN 100900Z AUTO 16004KT 6SM 02/M07 A3012 RMK SLP254 T00191071 57004 IEM_DS3505
ZBYN,1990-01-10 10:00,ZBYN 101000Z AUTO 15008KT 4SM 01/M06 A3015 RMK T00101060 IEM_DS3505
ZBYN,1990-01-10 11:00,ZBYN 101100Z AUTO 11010KT 4SM M03/M07 A3018 RMK T10301070 IEM_DS3505
ZBYN,1990-01-10 12:00,ZBYN 101200Z AUTO 18004KT 6SM M04/M09 A3018 RMK SLP279 T10391086 52012 IEM_DS3505
ZBYN,1990-01-10 13:00,ZBYN 101300Z AUTO 10006KT 4SM M05/M10 A3021 RMK T10501100 IEM_DS3505
ZBYN,1990-01-10 14:00,ZBYN 101400Z AUTO 10008KT 4SM M06/M09 A3024 RMK T10601090 IEM_DS3505
ZBYN,1990-01-10 15:00,ZBYN 101500Z AUTO 00000KT 6SM M07/M09 RMK SLP289 T10681093 52018 IEM_DS3505
ZBYN,1990-01-10 16:00,ZBYN 101600Z AUTO 00000KT 3SM M07/M10 A3024 RMK T10701100 IEM_DS3505
ZBYN,1990-01-10 17:00,ZBYN 101700Z AUTO 00000KT 2 1/2SM M07/M10 A3021 RMK T10701100 IEM_DS3505
ZBYN,1990-01-10 18:00,ZBYN 101800Z AUTO 00000KT 6SM M08/M09 A3024 RMK SLP281 T10801094 40049//// 57002 IEM_DS3505
ZBYN,1990-01-10 19:00,ZBYN 101900Z AUTO 00000KT 3SM M08/M11 A3024 RMK T10801110 IEM_DS3505
ZBYN,1990-01-10 21:00,ZBYN 102100Z AUTO 00000KT 5SM M10/M11 RMK SLP280 T10961108 57006 IEM_DS3505
ZBYN,1990-01-10 22:00,ZBYN 102200Z AUTO 00000KT 2 1/2SM M09/M11 A3018 RMK T10901110 IEM_DS3505
ZBYN,1990-01-11 00:00,ZBYN 110000Z AUTO 34002KT 3SM M08/M09 A3018 RMK SLP282 T10791093 57005 IEM_DS3505
ZBYN,1990-01-11 01:00,ZBYN 110100Z AUTO 00000KT 1 1/2SM M09/M10 A3021 RMK T10901100 IEM_DS3505
ZBYN,1990-01-11 03:00,ZBYN 110300Z AUTO 00000KT 3SM M04/M08 RMK SLP297 T10401075 52015 IEM_DS3505
ZBYN,1990-01-11 04:00,ZBYN 110400Z AUTO 00000KT 1 1/2SM M01/M07 A3024 RMK T10101070 IEM_DS3505
ZBYN,1990-01-11 05:00,ZBYN 110500Z AUTO 20008KT 2SM 01/M08 A3021 RMK T00101080 IEM_DS3505
ZBYN,1990-01-11 06:00,ZBYN 110600Z AUTO 18006KT 4SM 02/M09 A3018 RMK SLP263 T00251093 4////1099 57021 IEM_DS3505
ZBYN,1990-01-11 07:00,ZBYN 110700Z AUTO 21012KT 6SM 03/M11 A3018 RMK T00301110 IEM_DS3505
ZBYN,1990-01-11 08:00,ZBYN 110800Z AUTO 23012KT 6SM 02/M10 A3018 RMK T00201100 IEM_DS3505
ZBYN,1990-01-11 09:00,ZBYN 110900Z AUTO 29012KT 9SM 03/M17 RMK SLP270 T00261168 52003 IEM_DS3505
ZBYN,1990-01-11 10:00,ZBYN 111000Z AUTO 29008KT 6SM 01/M14 A3021 RMK T00101140 IEM_DS3505
ZBYN,1990-01-11 11:00,ZBYN 111100Z AUTO 32017KT 6SM 00/M12 A3024 RMK T00001120 IEM_DS3505
ZBYN,1990-01-11 12:00,ZBYN 111200Z AUTO 32010KT 12SM M01/M19 A3027 RMK SLP311 T10121186 52034 IEM_DS3505
ZBYN,1990-01-11 13:00,ZBYN 111300Z AUTO 34016KT 6SM M02/M11 A3033 RMK T10201110 IEM_DS3505
ZBYN,1990-01-11 15:00,ZBYN 111500Z AUTO 36004KT 12SM M03/M15 RMK SLP326 T10331151 52017 IEM_DS3505
ZBYN,1990-01-11 16:00,ZBYN 111600Z AUTO 00000KT 7SM M06/M15 A3033 RMK T10601150 IEM_DS3505
ZBYN,1990-01-11 17:00,ZBYN 111700Z AUTO 34004KT 7SM M06/M16 A3036 RMK T10601160 IEM_DS3505
ZBYN,1990-01-11 18:00,ZBYN 111800Z AUTO 00000KT 9SM M05/M17 A3039 RMK SLP332 T10511167 40031//// 52013 IEM_DS3505
ZBYN,1990-01-11 20:00,ZBYN 112000Z AUTO 35012KT 7SM M07/M16 A3042 RMK T10701160 IEM_DS3505
ZBYN,1990-01-11 21:00,ZBYN 112100Z AUTO 36002KT 9SM M07/M16 A3042 RMK SLP340 T10721158 52004 IEM_DS3505
ZBYN,1990-01-11 23:00,ZBYN 112300Z AUTO 35006KT 7SM M11/M19 A3045 RMK T11101190 IEM_DS3505
ZBYN,1990-01-12 00:00,ZBYN 120000Z AUTO 36004KT 9SM M10/M18 A3045 RMK SLP364 T10961177 52011 IEM_DS3505
ZBYN,1990-01-12 01:00,ZBYN 120100Z AUTO 34012KT 7SM M08/M19 A3045 RMK T10801190 IEM_DS3505
ZBYN,1990-01-12 03:00,ZBYN 120300Z AUTO 02006KT 9SM M05/M21 A3047 RMK SLP377 T10471211 52017 IEM_DS3505
ZBYN,1990-01-12 04:00,ZBYN 120400Z AUTO 01008KT 7SM M03/M19 A3045 RMK T10301190 IEM_DS3505
ZBYN,1990-01-12 05:00,ZBYN 120500Z AUTO 02004KT 7SM M03/M19 A3042 RMK T10301190 IEM_DS3505
ZBYN,1990-01-12 06:00,ZBYN 120600Z AUTO 02002KT 7SM M02/M22 A3039 RMK SLP343 T10211215 4////1100 57030 IEM_DS3505
ZBYN,1990-01-12 07:00,ZBYN 120700Z AUTO 26004KT 7SM M01/M19 A3039 RMK T10101190 IEM_DS3505
ZBYN,1990-01-12 08:00,ZBYN 120800Z AUTO 20008KT 7SM M01/M22 A3039 RMK T10101220 IEM_DS3505
ZBYN,1990-01-12 09:00,ZBYN 120900Z AUTO 16002KT 7SM M02/M19 A3036 RMK SLP337 T10231191 57009 IEM_DS3505
ZBYN,1990-01-12 10:00,ZBYN 121000Z AUTO 22002KT 7SM M04/M16 A3039 RMK T10401160 IEM_DS3505
ZBYN,1990-01-12 12:00,ZBYN 121200Z AUTO 00000KT 7SM M08/M20 RMK SLP357 T10781200 52004 IEM_DS3505
ZBYN,1990-01-12 14:00,ZBYN 121400Z AUTO 09006KT 7SM M10/M20 A3036 RMK T11001200 IEM_DS3505
ZBYN,1990-01-12 15:00,ZBYN 121500Z AUTO 00000KT 7SM M13/M22 A3036 RMK T11301220 IEM_DS3505
ZBYN,1990-01-12 16:00,ZBYN 121600Z AUTO 00000KT 7SM M12/M19 A3036 RMK T11201190 IEM_DS3505
ZBYN,1990-01-12 17:00,ZBYN 121700Z AUTO 00000KT 7SM M13/M19 A3033 RMK T11301190 IEM_DS3505
ZBYN,1990-01-12 18:00,ZBYN 121800Z AUTO 36002KT 7SM M10/M17 A3030 RMK SLP323 T11011170 41002//// 57011 IEM_DS3505
ZBYN,1990-01-12 19:00,ZBYN 121900Z AUTO 09004KT 7SM M14/M19 A3030 RMK T11401190 IEM_DS3505
ZBYN,1990-01-12 20:00,ZBYN 122000Z AUTO 00000KT 6SM M15/M19 A3027 RMK T11501190 IEM_DS3505
ZBYN,1990-01-12 21:00,ZBYN 122100Z AUTO 34002KT 7SM M12/M17 A3024 RMK SLP306 T11181169 57019 IEM_DS3505
ZBYN,1990-01-12 22:00,ZBYN 122200Z AUTO 00000KT 7SM M15/M19 A3024 RMK T11501190 IEM_DS3505
ZBYN,1990-01-12 23:00,ZBYN 122300Z AUTO 14004KT 7SM M14/M18 A3024 RMK T11401180 IEM_DS3505
ZBYN,1990-01-13 00:00,ZBYN 130000Z AUTO 00000KT 5SM M14/M16 A3024 RMK SLP310 T11361162 57005 IEM_DS3505
ZBYN,1990-01-13 01:00,ZBYN 130100Z AUTO 00000KT 6SM M13/M16 A3024 RMK T11301160 IEM_DS3505
ZBYN,1990-01-13 02:00,ZBYN 130200Z AUTO 34008KT 5SM M08/M18 A3027 RMK T10801180 IEM_DS3505
ZBYN,1990-01-13 03:00,ZBYN 130300Z AUTO 34004KT 6SM M06/M20 A3024 RMK SLP305 T10551201 54000 IEM_DS3505
ZBYN,1990-01-13 04:00,ZBYN 130400Z AUTO 00000KT 6SM M02/M16 A3021 RMK T10201160 IEM_DS3505
ZBYN,1990-01-13 05:00,ZBYN 130500Z AUTO 19004KT 6SM M02/M18 A3015 RMK T10201180 IEM_DS3505
ZBYN,1990-01-13 06:00,ZBYN 130600Z AUTO 14004KT 6SM M01/M16 A3012 RMK SLP250 T10141158 4////1143 57041 IEM_DS3505
ZBYN,1990-01-13 07:00,ZBYN 130700Z AUTO 00000KT 6SM 01/M15 A3006 RMK T00101150 IEM_DS3505
ZBYN,1990-01-13 08:00,ZBYN 130800Z AUTO 21006KT 6SM 01/M16 RMK T00101160 IEM_DS3505
ZBYN,1990-01-13 09:00,ZBYN 130900Z AUTO 00000KT 6SM M00/M14 RMK SLP246 T10041138 57005 IEM_DS3505
ZBYN,1990-01-13 10:00,ZBYN 131000Z AUTO 00000KT 7SM M03/M14 A3009 RMK T10301140 IEM_DS3505
ZBYN,1990-01-13 12:00,ZBYN 131200Z AUTO 32004KT 6SM M06/M17 A3012 RMK SLP284 T10621174 52021 IEM_DS3505
ZBYN,1990-01-13 13:00,ZBYN 131300Z AUTO 00000KT 7SM M08/M15 RMK T10801150 IEM_DS3505
ZBYN,1990-01-13 14:00,ZBYN 131400Z AUTO 32004KT 7SM M10/M14 A3018 RMK T11001140 IEM_DS3505
ZBYN,1990-01-13 15:00,ZBYN 131500Z AUTO 34002KT 6SM M06/M17 A3018 RMK SLP280 T10641171 52010 IEM_DS3505
ZBYN,1990-01-13 17:00,ZBYN 131700Z AUTO 00000KT 6SM M10/M16 A3021 RMK T11001160 IEM_DS3505
ZBYN,1990-01-13 18:00,ZBYN 131800Z AUTO 36004KT 6SM M07/M17 A3018 RMK SLP278 T10701167 40012//// 52003 IEM_DS3505
ZBYN,1990-01-13 19:00,ZBYN 131900Z AUTO 00000KT 6SM M10/M16 A3021 RMK T11001160 IEM_DS3505
ZBYN,1990-01-13 20:00,ZBYN 132000Z AUTO 00000KT 6SM M10/M15 A3024 RMK T11001150 IEM_DS3505
ZBYN,1990-01-13 21:00,ZBYN 132100Z AUTO 34002KT 6SM M07/M16 A3024 RMK SLP288 T10721157 52012 IEM_DS3505
ZBYN,1990-01-13 22:00,ZBYN 132200Z AUTO 05006KT 6SM M10/M16 A3024 RMK T11001160 IEM_DS3505
ZBYN,1990-01-13 23:00,ZBYN 132300Z AUTO 02006KT 6SM M09/M15 A3027 RMK T10901150 IEM_DS3505
ZBYN,1990-01-14 00:00,ZBYN 140000Z AUTO 32004KT 6SM M09/M18 A3027 RMK SLP322 T10881178 52018 IEM_DS3505
ZBYN,1990-01-14 01:00,ZBYN 140100Z AUTO 01012KT 6SM M06/M20 A3030 RMK T10601200 IEM_DS3505
ZBYN,1990-01-14 02:00,ZBYN 140200Z AUTO 01016KT 6SM M04/M21 A3033 RMK T10401210 IEM_DS3505
ZBYN,1990-01-14 03:00,ZBYN 140300Z AUTO 36008KT 11SM M03/M18 A3033 RMK SLP324 T10281178 52014 IEM_DS3505
ZBYN,1990-01-14 04:00,ZBYN 140400Z AUTO 35010KT 6SM M01/M17 A3030 RMK T10101170 IEM_DS3505
ZBYN,1990-01-14 05:00,ZBYN 140500Z AUTO 35012KT 6SM 00/M17 A3027 RMK T00001170 IEM_DS3505
ZBYN,1990-01-14 06:00,ZBYN 140600Z AUTO 36008KT 16SM M00/M16 A3024 RMK SLP291 T10011156 4////1092 57027 IEM_DS3505
ZBYN,1990-01-14 07:00,ZBYN 140700Z AUTO 33004KT 6SM 02/M16 RMK T00201160 IEM_DS3505
ZBYN,1990-01-14 08:00,ZBYN 140800Z AUTO 00000KT 6SM 03/M19 A3024 RMK T00301190 IEM_DS3505
ZBYN,1990-01-14 09:00,ZBYN 140900Z AUTO 02004KT 16SM 00/M18 RMK SLP277 T00051180 57003 IEM_DS3505
ZBYN,1990-01-14 10:00,ZBYN 141000Z AUTO 18008KT 6SM M02/M20 A3024 RMK T10201200 IEM_DS3505
ZBYN,1990-01-14 11:00,ZBYN 141100Z AUTO 23006KT 6SM M03/M21 A3024 RMK T10301210 IEM_DS3505
ZBYN,1990-01-14 12:00,ZBYN 141200Z AUTO 32004KT 9SM M02/M20 A3027 RMK SLP309 T10241203 52013 IEM_DS3505
ZBYN,1990-01-14 13:00,ZBYN 141300Z AUTO 19004KT 6SM M04/M20 A3030 RMK T10401200 IEM_DS3505
ZBYN,1990-01-14 14:00,ZBYN 141400Z AUTO 18006KT 6SM M03/M18 A3033 RMK T10301180 IEM_DS3505
ZBYN,1990-01-14 15:00,ZBYN 141500Z AUTO 00000KT 9SM M03/M18 A3033 RMK SLP319 T10341176 52017 IEM_DS3505
ZBYN,1990-01-14 16:00,ZBYN 141600Z AUTO 07004KT 6SM M04/M16 A3030 RMK T10401160 IEM_DS3505
ZBYN,1990-01-14 17:00,ZBYN 141700Z AUTO 23004KT 6SM M04/M15 A3030 RMK T10401150 IEM_DS3505
ZBYN,1990-01-14 18:00,ZBYN 141800Z AUTO 00000KT 9SM M05/M15 A3030 RMK SLP309 T10491149 40018//// 57007 IEM_DS3505
ZBYN,1990-01-14 19:00,ZBYN 141900Z AUTO 08004KT 6SM M06/M15 A3030 RMK T10601150 IEM_DS3505
ZBYN,1990-01-14 21:00,ZBYN 142100Z AUTO 00000KT 6SM M05/M14 A3030 RMK SLP304 T10541139 57004 IEM_DS3505
ZBYN,1990-01-14 22:00,ZBYN 142200Z AUTO 12004KT 6SM M07/M14 A3027 RMK T10701140 IEM_DS3505
ZBYN,1990-01-14 23:00,ZBYN 142300Z AUTO 10004KT 6SM M07/M15 A3027 RMK T10701150 IEM_DS3505
ZBYN,1990-01-15 00:00,ZBYN 150000Z AUTO 18002KT 11SM M08/M16 A3027 RMK SLP303 T10761164 57010 IEM_DS3505
ZBYN,1990-01-15 01:24,ZBYN 150124Z AUTO 09004KT 5SM M08/M16 A3030 RMK T10801160 IEM_DS3505
ZBYN,1990-01-15 02:00,ZBYN 150200Z AUTO 00000KT 7SM M03/M17 RMK T10301170 IEM_DS3505
ZBYN,1990-01-15 02:26,ZBYN 150226Z AUTO 00000KT 7SM M03/M17 A3030 RMK T10301170 IEM_DS3505
ZBYN,1990-01-15 02:27,ZBYN 150227Z AUTO 00000KT 7SM M03/M17 A3030 RMK T10301170 IEM_DS3505
ZBYN,1990-01-15 03:00,ZBYN 150300Z AUTO 18004KT 12SM 00/M16 A3030 RMK SLP292 T00041159 52002 IEM_DS3505
ZBYN,1990-01-15 04:00,ZBYN 150400Z AUTO 26006KT 7SM 02/M17 A3027 RMK T00201170 IEM_DS3505
ZBYN,1990-01-15 05:00,ZBYN 150500Z AUTO 25006KT 7SM 03/M16 A3021 RMK T00301160 IEM_DS3505
ZBYN,1990-01-15 06:00,ZBYN 150600Z AUTO 20008KT 12SM 04/M13 RMK SLP263 T00371133 4////1076 57023 IEM_DS3505
ZBYN,1990-01-15 07:00,ZBYN 150700Z AUTO 20010KT 7SM 04/M22 A3018 RMK T00401220 IEM_DS3505
ZBYN,1990-01-15 08:00,ZBYN 150800Z AUTO 23010KT 7SM 05/M17 A3018 RMK T00501170 IEM_DS3505
ZBYN,1990-01-15 09:00,ZBYN 150900Z AUTO 20004KT 12SM 03/M15 A3018 RMK SLP210 T00331154 57004 IEM_DS3505
ZBYN,1990-01-15 10:00,ZBYN 151000Z AUTO 00000KT 7SM 01/M13 A3018 RMK T00101130 IEM_DS3505
ZBYN,1990-01-15 11:00,ZBYN 151100Z AUTO 06002KT 7SM M02/M12 A3021 RMK T10201120 IEM_DS3505
ZBYN,1990-01-15 12:00,ZBYN 151200Z AUTO 00000KT 12SM M02/M15 RMK SLP279 T10161149 52005 IEM_DS3505
ZBYN,1990-01-15 13:00,ZBYN 151300Z AUTO 11002KT 7SM M05/M17 A3024 RMK T10501170 IEM_DS3505
ZBYN,1990-01-15 15:00,ZBYN 151500Z AUTO 11004KT 12SM M06/M14 A3024 RMK SLP276 T10601143 52003 IEM_DS3505
ZBYN,1990-01-15 16:00,ZBYN 151600Z AUTO 10006KT 7SM M08/M16 A3024 RMK T10801160 IEM_DS3505
ZBYN,1990-01-15 17:00,ZBYN 151700Z AUTO 10006KT 7SM M08/M16 A3021 RMK T10801160 IEM_DS3505
ZBYN,1990-01-15 18:00,ZBYN 151800Z AUTO 14004KT 7SM M08/M15 A3021 RMK SLP267 T10801151 40048//// 57006 IEM_DS3505
ZBYN,1990-01-15 20:00,ZBYN 152000Z AUTO 10006KT 7SM M08/M15 A3018 RMK T10801150 IEM_DS3505
ZBYN,1990-01-15 21:00,ZBYN 152100Z AUTO 00000KT 9SM M10/M12 A3015 RMK SLP260 T11011118 57007 IEM_DS3505
ZBYN,1990-01-15 22:00,ZBYN 152200Z AUTO 09004KT 7SM M11/M15 A3015 RMK T11101150 IEM_DS3505
ZBYN,1990-01-15 23:00,ZBYN 152300Z AUTO 00000KT 7SM M13/M16 A3012 RMK T11301160 IEM_DS3505
ZBYN,1990-01-16 00:00,ZBYN 160000Z AUTO 34002KT 6SM M09/M12 A3012 RMK SLP255 T10861125 57011 IEM_DS3505
ZBYN,1990-01-16 01:00,ZBYN 160100Z AUTO 00000KT 4SM M11/M14 A3009 RMK T11101140 IEM_DS3505
ZBYN,1990-01-16 02:00,ZBYN 160200Z AUTO 00000KT 1 1/4SM M06/M13 A3012 RMK T10601130 IEM_DS3505
ZBYN,1990-01-16 03:00,ZBYN 160300Z AUTO 36004KT 5SM M02/M14 RMK SLP241 T10241139 57009 IEM_DS3505
ZBYN,1990-01-16 04:00,ZBYN 160400Z AUTO 17004KT 4SM 02/M12 A3006 RMK T00201120 IEM_DS3505
ZBYN,1990-01-16 05:00,ZBYN 160500Z AUTO 00000KT 7SM 05/M12 A2997 RMK T00501120 IEM_DS3505
ZBYN,1990-01-16 06:00,ZBYN 160600Z AUTO 16004KT 5SM 05/M14 A2997 RMK SLP176 T00521135 4////1115 57050 IEM_DS3505
ZBYN,1990-01-16 07:00,ZBYN 160700Z AUTO 20004KT 7SM 06/M13 A2988 RMK T00601130 IEM_DS3505
ZBYN,1990-01-16 08:00,ZBYN 160800Z AUTO 18006KT 7SM 07/M13 A2988 RMK T00701130 IEM_DS3505
ZBYN,1990-01-16 09:00,ZBYN 160900Z AUTO 14004KT 6SM 05/M12 A2985 RMK SLP160 T00491122 57018 IEM_DS3505
ZBYN,1990-01-16 10:00,ZBYN 161000Z AUTO 00000KT 7SM 02/M08 A2985 RMK T00201080 IEM_DS3505
ZBYN,1990-01-16 11:00,ZBYN 161100Z AUTO 00000KT 7SM M02/M12 A2988 RMK T10201120 IEM_DS3505
ZBYN,1990-01-16 12:00,ZBYN 161200Z AUTO 14002KT 7SM M02/M15 A2985 RMK SLP168 T10251146 57003 IEM_DS3505
ZBYN,1990-01-16 13:00,ZBYN 161300Z AUTO 00000KT 7SM M04/M13 A2988 RMK T10401130 IEM_DS3505
ZBYN,1990-01-16 14:00,ZBYN 161400Z AUTO 00000KT 7SM M07/M14 A2988 RMK T10701140 IEM_DS3505
ZBYN,1990-01-16 15:00,ZBYN 161500Z AUTO 00000KT 7SM M06/M12 RMK SLP169 T10631124 52005 IEM_DS3505
ZBYN,1990-01-16 16:00,ZBYN 161600Z AUTO 11006KT 7SM M06/M13 A2988 RMK T10601130 IEM_DS3505
ZBYN,1990-01-16 17:00,ZBYN 161700Z AUTO 00000KT 7SM M08/M13 A2988 RMK T10801130 IEM_DS3505
ZBYN,1990-01-16 18:00,ZBYN 161800Z AUTO 00000KT 6SM M07/M14 A2988 RMK SLP153 T10681137 40063//// 57003 IEM_DS3505
ZBYN,1990-01-16 19:00,ZBYN 161900Z AUTO 00000KT 6SM M08/M13 A2985 RMK T10801130 IEM_DS3505
ZBYN,1990-01-16 20:00,ZBYN 162000Z AUTO 00000KT 4SM M07/M12 A2988 RMK T10701120 IEM_DS3505
ZBYN,1990-01-16 21:00,ZBYN 162100Z AUTO 00000KT 6SM M07/M13 RMK SLP152 T10681132 57001 IEM_DS3505
ZBYN,1990-01-16 22:00,ZBYN 162200Z AUTO 07004KT 6SM M07/M12 A2988 RMK T10701120 IEM_DS3505
ZBYN,1990-01-17 00:00,ZBYN 170000Z AUTO 29002KT 6SM M06/M11 A2991 RMK SLP179 T10641106 52013 IEM_DS3505
ZBYN,1990-01-17 01:00,ZBYN 170100Z AUTO 00000KT 4SM M06/M11 A2994 RMK T10601110 IEM_DS3505
ZBYN,1990-01-17 02:00,ZBYN 170200Z AUTO 28010KT 7SM 01/M19 A3000 RMK T00101190 IEM_DS3505
ZBYN,1990-01-17 03:00,ZBYN 170300Z AUTO 29010KT 5SM 02/M14 RMK SLP201 T00181143 52027 IEM_DS3505
ZBYN,1990-01-17 04:00,ZBYN 170400Z AUTO 29021KT 6SM 03/M10 A3000 RMK T00301100 IEM_DS3505
ZBYN,1990-01-17 05:00,ZBYN 170500Z AUTO 30019KT 6SM 03/M13 A3000 RMK T00301130 IEM_DS3505
ZBYN,1990-01-17 06:00,ZBYN 170600Z AUTO 29010KT 4SM 05/M20 A2997 RMK SLP183 T00471205 4////1078 57012 IEM_DS3505
ZBYN,1990-01-17 07:00,ZBYN 170700Z AUTO 25014KT 6SM 03/M10 A3000 RMK T00301100 IEM_DS3505
ZBYN,1990-01-17 08:00,ZBYN 170800Z AUTO 24006KT 6SM 03/M17 A3000 RMK T00301170 IEM_DS3505
ZBYN,1990-01-17 09:00,ZBYN 170900Z AUTO 29012KT 6SM 02/ A3003 RMK SLP203 52014 IEM_DS3505
ZBYN,1990-01-17 10:00,ZBYN 171000Z AUTO 28014KT 6SM 01/M18 A3006 RMK T00101180 IEM_DS3505
ZBYN,1990-01-17 11:00,ZBYN 171100Z AUTO 29016KT 6SM 00/M12 A3006 RMK T00001120 IEM_DS3505
ZBYN,1990-01-17 12:00,ZBYN 171200Z AUTO 32008KT 6SM M00/ A3012 RMK SLP250 52039 IEM_DS3505
ZBYN,1990-01-17 13:00,ZBYN 171300Z AUTO 29012KT 6SM M01/M15 A3012 RMK T10101150 IEM_DS3505
ZBYN,1990-01-17 14:00,ZBYN 171400Z AUTO 30014KT 6SM M01/M18 A3015 RMK T10101180 IEM_DS3505
ZBYN,1990-01-17 15:00,ZBYN 171500Z AUTO 32006KT 11SM M02/M33 A3015 RMK SLP252 T10171326 52013 IEM_DS3505
ZBYN,1990-01-17 17:00,ZBYN 171700Z AUTO 28008KT 7SM M03/M22 A3015 RMK T10301220 IEM_DS3505
ZBYN,1990-01-17 18:00,ZBYN 171800Z AUTO 32008KT 12SM M03/M30 A3018 RMK SLP252 T10341300 40048//// 52002 IEM_DS3505
ZBYN,1990-01-17 19:00,ZBYN 171900Z AUTO 33010KT 7SM M04/M24 A3018 RMK T10401240 IEM_DS3505
ZBYN,1990-01-17 20:00,ZBYN 172000Z AUTO 00000KT 6SM M05/M28 A3015 RMK T10501280 IEM_DS3505
ZBYN,1990-01-17 21:00,ZBYN 172100Z AUTO 36006KT 12SM M04/M28 A3018 RMK SLP257 T10451281 57001 IEM_DS3505
ZBYN,1990-01-17 22:00,ZBYN 172200Z AUTO 36010KT 6SM M05/M22 A3021 RMK T10501220 IEM_DS3505
ZBYN,1990-01-17 23:00,ZBYN 172300Z AUTO 36008KT 6SM M05/M23 A3021 RMK T10501230 IEM_DS3505
ZBYN,1990-01-18 00:00,ZBYN 180000Z AUTO 04004KT 6SM M05/M27 A3024 RMK SLP284 T10531267 52019 IEM_DS3505
ZBYN,1990-01-18 01:00,ZBYN 180100Z AUTO 35004KT 6SM M05/M23 A3024 RMK T10501230 IEM_DS3505
ZBYN,1990-01-18 02:00,ZBYN 180200Z AUTO 36006KT 6SM M04/M24 A3024 RMK T10401240 IEM_DS3505
ZBYN,1990-01-18 03:00,ZBYN 180300Z AUTO 34006KT 6SM M04/M21 A3024 RMK SLP296 T10401210 52010 IEM_DS3505
ZBYN,1990-01-18 04:00,ZBYN 180400Z AUTO 34004KT 6SM M03/M22 A3024 RMK T10301220 IEM_DS3505
ZBYN,1990-01-18 05:00,ZBYN 180500Z AUTO 31004KT 6SM 00/M26 A3021 RMK T00001260 IEM_DS3505
ZBYN,1990-01-18 06:00,ZBYN 180600Z AUTO 00000KT 6SM 00/M22 A3018 RMK SLP264 T00001217 4////1069 57025 IEM_DS3505
ZBYN,1990-01-18 07:00,ZBYN 180700Z AUTO 17004KT 6SM 01/M21 A3018 RMK T00101210 IEM_DS3505
ZBYN,1990-01-18 08:00,ZBYN 180800Z AUTO 00000KT 6SM 02/ A3018 RMK IEM_DS3505
ZBYN,1990-01-18 09:00,ZBYN 180900Z AUTO 00000KT 6SM 00/M23 A3021 RMK SLP265 T00031230 54000 IEM_DS3505
ZBYN,1990-01-18 10:00,ZBYN 181000Z AUTO 21006KT 6SM M02/M15 A3024 RMK T10201150 IEM_DS3505
ZBYN,1990-01-18 11:00,ZBYN 181100Z AUTO 29006KT 6SM M03/M21 A3027 RMK T10301210 IEM_DS3505
ZBYN,1990-01-18 12:00,ZBYN 181200Z AUTO 02002KT 6SM M03/M22 RMK SLP307 T10261220 52031 IEM_DS3505
ZBYN,1990-01-18 13:00,ZBYN 181300Z AUTO 33006KT 6SM M04/M21 A3033 RMK T10401210 IEM_DS3505
ZBYN,1990-01-18 14:00,ZBYN 181400Z AUTO 32016KT 6SM M03/M19 A3033 RMK T10301190 IEM_DS3505
ZBYN,1990-01-18 15:00,ZBYN 181500Z AUTO 00000KT 6SM M05/M17 A3036 RMK SLP329 T10541174 52018 IEM_DS3505
ZBYN,1990-01-18 16:00,ZBYN 181600Z AUTO 25004KT 7SM M05/M18 A3036 RMK T10501180 IEM_DS3505
ZBYN,1990-01-18 17:00,ZBYN 181700Z AUTO 25004KT 7SM M06/M18 A3033 RMK T10601180 IEM_DS3505
ZBYN,1990-01-18 18:00,ZBYN 181800Z AUTO 29006KT 6SM M05/M18 A3036 RMK SLP327 T10481176 40010//// 52006 IEM_DS3505
ZBYN,1990-01-18 19:00,ZBYN 181900Z AUTO 32016KT 7SM M05/M19 A3039 RMK T10501190 IEM_DS3505
ZBYN,1990-01-18 21:00,ZBYN 182100Z AUTO 32010KT 9SM M07/M24 RMK SLP352 T10741244 52019 IEM_DS3505
ZBYN,1990-01-18 22:00,ZBYN 182200Z AUTO 34008KT 7SM M08/M26 A3047 RMK T10801260 IEM_DS3505
ZBYN,1990-01-18 23:00,ZBYN 182300Z AUTO 01008KT 7SM M10/M24 A3050 RMK T11001240 IEM_DS3505
ZBYN,1990-01-19 00:00,ZBYN 190000Z AUTO 00000KT 9SM M11/M23 A3050 RMK SLP400 T11121230 52032 IEM_DS3505
ZBYN,1990-01-19 01:00,ZBYN 190100Z AUTO 36008KT 7SM M10/M23 RMK T11001230 IEM_DS3505
ZBYN,1990-01-19 02:00,ZBYN 190200Z AUTO 32010KT 7SM M09/M25 A3056 RMK T10901250 IEM_DS3505
ZBYN,1990-01-19 03:00,ZBYN 190300Z AUTO 36002KT 17SM M08/M28 A3059 RMK SLP416 T10841279 52014 IEM_DS3505
ZBYN,1990-01-19 04:00,ZBYN 190400Z AUTO 01008KT 7SM M07/M27 A3056 RMK T10701270 IEM_DS3505
ZBYN,1990-01-19 05:00,ZBYN 190500Z AUTO 00000KT 7SM M06/M29 A3053 RMK T10601290 IEM_DS3505
ZBYN,1990-01-19 06:00,ZBYN 190600Z AUTO 18004KT 19SM M04/M29 A3050 RMK SLP380 T10421289 4////1117 57024 IEM_DS3505
ZBYN,1990-01-19 07:00,ZBYN 190700Z AUTO 18004KT 7SM M04/M27 A3047 RMK T10401270 IEM_DS3505
ZBYN,1990-01-19 08:00,ZBYN 190800Z AUTO 16008KT 7SM M04/M21 A3047 RMK T10401210 IEM_DS3505
ZBYN,1990-01-19 09:00,ZBYN 190900Z AUTO 20006KT 19SM M05/M23 A3047 RMK T10461230 57013 IEM_DS3505
ZBYN,1990-01-19 10:00,ZBYN 191000Z AUTO 21006KT 7SM M07/M24 A3047 RMK T10701240 IEM_DS3505
ZBYN,1990-01-19 11:00,ZBYN 191100Z AUTO 00000KT 7SM M08/M23 A3050 RMK T10801230 IEM_DS3505
ZBYN,1990-01-19 12:00,ZBYN 191200Z AUTO 32004KT 9SM M09/M24 A3050 RMK SLP403 T10861235 52015 IEM_DS3505
ZBYN,1990-01-19 13:00,ZBYN 191300Z AUTO 32002KT 7SM M09/M28 A3050 RMK T10901280 IEM_DS3505
ZBYN,1990-01-19 15:00,ZBYN 191500Z AUTO 09002KT 9SM M10/M26 A3050 RMK SLP405 T11041262 52003 IEM_DS3505
ZBYN,1990-01-19 16:00,ZBYN 191600Z AUTO 09004KT 7SM M12/M26 A3050 RMK T11201260 IEM_DS3505
ZBYN,1990-01-19 18:00,ZBYN 191800Z AUTO 14002KT 7SM M14/M25 RMK T11441250 41019//// 57007 IEM_DS3505
ZBYN,1990-01-19 19:00,ZBYN 191900Z AUTO 00000KT 7SM M13/M26 A3047 RMK T11301260 IEM_DS3505
ZBYN,1990-01-19 20:00,ZBYN 192000Z AUTO 00000KT 7SM M15/M28 A3047 RMK T11501280 IEM_DS3505
ZBYN,1990-01-19 21:00,ZBYN 192100Z AUTO 00000KT 6SM M15/M22 A3047 RMK T11491219 57008 IEM_DS3505
ZBYN,1990-01-19 22:00,ZBYN 192200Z AUTO 08004KT 6SM M16/M27 A3045 RMK T11601270 IEM_DS3505
ZBYN,1990-01-19 23:00,ZBYN 192300Z AUTO 07004KT 7SM M16/M27 A3045 RMK T11601270 IEM_DS3505
ZBYN,1990-01-20 00:00,ZBYN 200000Z AUTO 00000KT 6SM M16/M21 A3045 RMK SLP388 T11561212 57010 IEM_DS3505
ZBYN,1990-01-20 01:00,ZBYN 200100Z AUTO 11002KT 6SM M14/M25 A3042 RMK T11401250 IEM_DS3505
ZBYN,1990-01-20 02:00,ZBYN 200200Z AUTO 00000KT 6SM M09/M24 A3039 RMK T10901240 IEM_DS3505
ZBYN,1990-01-20 03:00,ZBYN 200300Z AUTO 18002KT 6SM M07/M24 RMK SLP366 T10721238 57008 IEM_DS3505
ZBYN,1990-01-20 04:00,ZBYN 200400Z AUTO 20004KT 7SM M04/M30 RMK T10401300 IEM_DS3505
ZBYN,1990-01-20 05:00,ZBYN 200500Z AUTO 21008KT 7SM M03/M23 A3030 RMK T10301230 IEM_DS3505
ZBYN,1990-01-20 06:00,ZBYN 200600Z AUTO 18008KT 6SM M02/M21 A3027 RMK SLP310 T10211214 4////1170 57049 IEM_DS3505
ZBYN,1990-01-20 07:00,ZBYN 200700Z AUTO 20010KT 7SM M02/M20 A3021 RMK T10201200 IEM_DS3505
ZBYN,1990-01-20 08:00,ZBYN 200800Z AUTO 20006KT 7SM M01/M18 RMK T10101180 IEM_DS3505
ZBYN,1990-01-20 09:00,ZBYN 200900Z AUTO 16008KT 7SM M02/M18 A3018 RMK SLP285 T10171182 57022 IEM_DS3505
ZBYN,1990-01-20 12:00,ZBYN 201200Z AUTO 00000KT 7SM M07/M21 A3021 RMK SLP303 T10671212 52006 IEM_DS3505
ZBYN,1990-01-20 13:00,ZBYN 201300Z AUTO 11006KT 7SM M08/M22 A3018 RMK T10801220 IEM_DS3505
ZBYN,1990-01-20 15:00,ZBYN 201500Z AUTO 00000KT 7SM M08/M18 A3018 RMK SLP280 T10771181 57008 IEM_DS3505
ZBYN,1990-01-20 16:00,ZBYN 201600Z AUTO 00000KT 7SM M12/M22 A3018 RMK T11201220 IEM_DS3505
ZBYN,1990-01-20 17:00,ZBYN 201700Z AUTO 10004KT 7SM M10/M20 A3015 RMK T11001200 IEM_DS3505
ZBYN,1990-01-20 18:00,ZBYN 201800Z AUTO 34002KT 7SM M10/M27 RMK SLP262 T11011272 41009//// 57012 IEM_DS3505
ZBYN,1990-01-20 19:00,ZBYN 201900Z AUTO 00000KT 7SM M10/M19 A3015 RMK T11001190 IEM_DS3505
ZBYN,1990-01-20 20:00,ZBYN 202000Z AUTO 00000KT 7SM M11/M19 A3015 RMK T11101190 IEM_DS3505
ZBYN,1990-01-20 21:00,ZBYN 202100Z AUTO 00000KT 6SM M10/M16 A3015 RMK SLP269 T11031164 52007 IEM_DS3505
ZBYN,1990-01-20 22:00,ZBYN 202200Z AUTO 12004KT 7SM M11/M17 A3018 RMK T11101170 IEM_DS3505
ZBYN,1990-01-20 23:00,ZBYN 202300Z AUTO 09006KT 6SM M10/M18 A3018 RMK T11001180 IEM_DS3505
ZBYN,1990-01-21 00:00,ZBYN 210000Z AUTO 00000KT 7SM M11/M14 A3021 RMK SLP290 T11061145 52010 IEM_DS3505
ZBYN,1990-01-21 01:00,ZBYN 210100Z AUTO 27002KT 6SM M09/M16 A3024 RMK T10901160 IEM_DS3505
ZBYN,1990-01-21 02:00,ZBYN 210200Z AUTO 00000KT 1 1/4SM M07/M16 A3027 RMK T10701160 IEM_DS3505
ZBYN,1990-01-21 03:00,ZBYN 210300Z AUTO 32002KT 6SM M04/M12 A3027 RMK SLP297 T10421119 52016 IEM_DS3505
ZBYN,1990-01-21 04:00,ZBYN 210400Z AUTO 29004KT 6SM M01/M15 A3027 RMK T10101150 IEM_DS3505
ZBYN,1990-01-21 05:00,ZBYN 210500Z AUTO 00000KT 1 1/2SM 01/M15 RMK T00101150 IEM_DS3505
ZBYN,1990-01-21 06:00,ZBYN 210600Z AUTO 32012KT 7SM 04/M15 A3021 RMK SLP267 T00421148 4////1120 57017 IEM_DS3505
ZBYN,1990-01-21 07:00,ZBYN 210700Z AUTO 32019KT 7SM 03/M16 A3018 RMK T00301160 IEM_DS3505
ZBYN,1990-01-21 08:00,ZBYN 210800Z AUTO 29017KT 7SM 03/M14 A3021 RMK T00301140 IEM_DS3505
ZBYN,1990-01-21 09:00,ZBYN 210900Z AUTO 29008KT 9SM 01/M19 A3024 RMK SLP282 T00131192 52008 IEM_DS3505
ZBYN,1990-01-21 10:00,ZBYN 211000Z AUTO 34006KT 7SM M03/M17 A3027 RMK T10301170 IEM_DS3505
ZBYN,1990-01-21 11:00,ZBYN 211100Z AUTO 00000KT 7SM M04/M19 RMK T10401190 IEM_DS3505
ZBYN,1990-01-21 12:00,ZBYN 211200Z AUTO 00000KT 9SM M03/M11 A3036 RMK SLP338 T10311112 52043 IEM_DS3505
ZBYN,1990-01-21 13:00,ZBYN 211300Z AUTO 00000KT 7SM M06/M18 A3039 RMK T10601180 IEM_DS3505
ZBYN,1990-01-21 14:00,ZBYN 211400Z AUTO 00000KT 7SM M08/M21 A3042 RMK T10801210 IEM_DS3505
ZBYN,1990-01-21 15:00,ZBYN 211500Z AUTO 00000KT 9SM M09/M17 A3042 RMK SLP353 T10911169 52014 IEM_DS3505
ZBYN,1990-01-21 16:00,ZBYN 211600Z AUTO 00000KT 7SM M11/M22 A3042 RMK T11101220 IEM_DS3505
ZBYN,1990-01-21 17:00,ZBYN 211700Z AUTO 00000KT 7SM M12/M22 A3039 RMK T11201220 IEM_DS3505
ZBYN,1990-01-21 18:00,ZBYN 211800Z AUTO 34002KT 9SM M08/M15 A3039 RMK SLP339 T10811146 40045//// 52003 IEM_DS3505
ZBYN,1990-01-21 19:00,ZBYN 211900Z AUTO 00000KT 7SM M12/M21 A3042 RMK T11201210 IEM_DS3505
ZBYN,1990-01-21 20:00,ZBYN 212000Z AUTO 00000KT 7SM M13/M22 RMK T11301220 IEM_DS3505
ZBYN,1990-01-21 21:00,ZBYN 212100Z AUTO 00000KT 7SM M11/M18 A3045 RMK SLP359 T11071184 52009 IEM_DS3505
ZBYN,1990-01-21 22:00,ZBYN 212200Z AUTO 00000KT 7SM M14/M21 A3047 RMK T11401210 IEM_DS3505
ZBYN,1990-01-21 23:00,ZBYN 212300Z AUTO 00000KT 6SM M14/M20 A3047 RMK T11401200 IEM_DS3505
ZBYN,1990-01-22 00:00,ZBYN 220000Z AUTO 00000KT 7SM M13/M19 RMK SLP383 T11261188 52011 IEM_DS3505
ZBYN,1990-01-22 01:00,ZBYN 220100Z AUTO 00000KT 6SM A3050 RMK IEM_DS3505
ZBYN,1990-01-22 02:00,ZBYN 220200Z AUTO 00000KT 6SM M07/M21 A3050 RMK T10701210 IEM_DS3505
ZBYN,1990-01-22 03:00,ZBYN 220300Z AUTO 29004KT 9SM M03/M15 A3050 RMK SLP377 T10281151 52001 IEM_DS3505
ZBYN,1990-01-22 04:00,ZBYN 220400Z AUTO 29021KT 7SM M01/M17 A3047 RMK T10101170 IEM_DS3505
ZBYN,1990-01-22 05:00,ZBYN 220500Z AUTO 30023KT 7SM 00/M28 A3042 RMK T00001280 IEM_DS3505
ZBYN,1990-01-22 06:00,ZBYN 220600Z AUTO 32016KT 16SM 00/M30 A3039 RMK SLP341 T00031301 4////1133 57026 IEM_DS3505
ZBYN,1990-01-22 07:00,ZBYN 220700Z AUTO 29017KT 7SM 01/M34 A3039 RMK T00101340 IEM_DS3505
ZBYN,1990-01-22 08:00,ZBYN 220800Z AUTO 29017KT 7SM 00/M37 A3039 RMK T00001370 IEM_DS3505
ZBYN,1990-01-22 09:00,ZBYN 220900Z AUTO 29010KT 16SM M01/M36 RMK SLP345 T10101361 57003 IEM_DS3505
ZBYN,1990-01-22 10:00,ZBYN 221000Z AUTO 00000KT 12SM A3039 RMK 40007//// 57009 IEM_DS3505
ZBYN,1990-01-22 11:00,ZBYN 221100Z AUTO 33008KT 7SM M04/M25 A3042 RMK T10401250 IEM_DS3505
ZBYN,1990-01-22 12:00,ZBYN 221200Z AUTO 00000KT 12SM RMK SLP370 52011 IEM_DS3505
ZBYN,1990-01-22 13:00,ZBYN 221300Z AUTO 10004KT 7SM M08/M27 A3039 RMK T10801270 IEM_DS3505
ZBYN,1990-01-22 15:00,ZBYN 221500Z AUTO 00000KT 12SM M10/M24 RMK SLP349 T11031235 57009 IEM_DS3505
ZBYN,1990-01-22 18:00,ZBYN 221800Z AUTO 00000KT 12SM M10/ A3033 RMK SLP333 40007//// 57009 IEM_DS3505
ZBYN,1990-01-22 19:00,ZBYN 221900Z AUTO 30010KT 7SM M08/M21 A3033 RMK T10801210 IEM_DS3505
ZBYN,1990-01-22 20:00,ZBYN 222000Z AUTO 30006KT 7SM M10/M24 A3036 RMK T11001240 IEM_DS3505
ZBYN,1990-01-22 21:00,ZBYN 222100Z AUTO 32004KT 9SM M09/M19 A3036 RMK SLP335 T10871192 52002 IEM_DS3505
ZBYN,1990-01-22 22:00,ZBYN 222200Z AUTO 33006KT 7SM M11/M23 A3036 RMK T11101230 IEM_DS3505
ZBYN,1990-01-22 23:00,ZBYN 222300Z AUTO 33006KT 7SM M13/M25 A3036 RMK T11301250 IEM_DS3505
ZBYN,1990-01-23 00:00,ZBYN 230000Z AUTO 32002KT 7SM M12/M22 A3036 RMK SLP355 T11221217 52003 IEM_DS3505
ZBYN,1990-01-23 01:00,ZBYN 230100Z AUTO 00000KT 7SM M11/M22 A3039 RMK T11101220 IEM_DS3505
ZBYN,1990-01-23 02:00,ZBYN 230200Z AUTO 03004KT 7SM M07/M21 RMK T10701210 IEM_DS3505
ZBYN,1990-01-23 03:00,ZBYN 230300Z AUTO 00000KT 6SM M05/M26 A3039 RMK SLP345 T10541257 57005 IEM_DS3505
ZBYN,1990-01-23 05:00,ZBYN 230500Z AUTO 19006KT 7SM M02/M20 RMK T10201200 IEM_DS3505
ZBYN,1990-01-23 06:00,ZBYN 230600Z AUTO 29012KT 9SM M00/M14 A3024 RMK SLP296 T10021138 4////1130 57035 IEM_DS3505
ZBYN,1990-01-23 07:00,ZBYN 230700Z AUTO 25012KT 7SM 00/M17 RMK T00001170 IEM_DS3505
ZBYN,1990-01-23 08:00,ZBYN 230800Z AUTO 28014KT 7SM 00/M17 A3021 RMK T00001170 IEM_DS3505
ZBYN,1990-01-23 09:00,ZBYN 230900Z AUTO 29010KT 12SM M01/M13 A3021 RMK SLP286 T10071129 57007 IEM_DS3505
ZBYN,1990-01-23 11:00,ZBYN 231100Z AUTO 35008KT 7SM M05/M26 A3027 RMK T10501260 IEM_DS3505
ZBYN,1990-01-23 12:00,ZBYN 231200Z AUTO 04002KT 12SM M06/M23 A3030 RMK SLP320 T10581230 52016 IEM_DS3505
ZBYN,1990-01-23 13:00,ZBYN 231300Z AUTO 34008KT 7SM M09/M32 A3030 RMK T10901320 IEM_DS3505
ZBYN,1990-01-23 14:00,ZBYN 231400Z AUTO 35004KT 7SM M09/M30 RMK T10901300 IEM_DS3505
ZBYN,1990-01-23 15:00,ZBYN 231500Z AUTO 00000KT 12SM M07/M26 A3033 RMK SLP317 T10741256 52006 IEM_DS3505
ZBYN,1990-01-23 16:00,ZBYN 231600Z AUTO 09002KT 7SM M12/M27 A3030 RMK T11201270 IEM_DS3505
ZBYN,1990-01-23 18:00,ZBYN 231800Z AUTO 00000KT 11SM M13/M27 RMK SLP312 T11311266 40009//// 57006 IEM_DS3505
ZBYN,1990-01-23 19:00,ZBYN 231900Z AUTO 00000KT 7SM M13/M27 A3027 RMK T11301270 IEM_DS3505
ZBYN,1990-01-23 20:00,ZBYN 232000Z AUTO 07004KT 7SM M16/M28 A3027 RMK T11601280 IEM_DS3505
ZBYN,1990-01-23 21:00,ZBYN 232100Z AUTO 00000KT 11SM M13/M24 RMK SLP308 T11281236 57003 IEM_DS3505
ZBYN,1990-01-23 22:00,ZBYN 232200Z AUTO 05004KT 7SM M15/M26 RMK T11501260 IEM_DS3505
ZBYN,1990-01-24 00:00,ZBYN 240000Z AUTO 36002KT 7SM M11/M21 RMK SLP316 T11061213 52002 IEM_DS3505
ZBYN,1990-01-24 01:00,ZBYN 240100Z AUTO 33004KT 3SM RMK IEM_DS3505
ZBYN,1990-01-24 02:00,ZBYN 240200Z AUTO 33008KT 6SM RMK IEM_DS3505
ZBYN,1990-01-24 03:00,ZBYN 240300Z AUTO 34006KT 7SM M07/M20 RMK SLP318 T10681205 52006 IEM_DS3505
ZBYN,1990-01-24 04:00,ZBYN 240400Z AUTO 31006KT 6SM M05/M25 A3027 RMK T10501250 IEM_DS3505
ZBYN,1990-01-24 05:00,ZBYN 240500Z AUTO 35010KT 6SM M05/M22 A3027 RMK T10501220 IEM_DS3505
ZBYN,1990-01-24 06:00,ZBYN 240600Z AUTO 36006KT 7SM M04/M20 A3027 RMK SLP315 T10421196 4////1155 57009 IEM_DS3505
ZBYN,1990-01-24 07:00,ZBYN 240700Z AUTO 00000KT 6SM M03/M19 A3024 RMK T10301190 IEM_DS3505
ZBYN,1990-01-24 08:00,ZBYN 240800Z AUTO 24004KT 6SM M02/M20 A3027 RMK T10201200 IEM_DS3505
ZBYN,1990-01-24 09:00,ZBYN 240900Z AUTO 00000KT 7SM M03/M21 A3027 RMK SLP313 T10301210 52002 IEM_DS3505
ZBYN,1990-01-24 10:00,ZBYN 241000Z AUTO 00000KT 6SM M05/M19 A3030 RMK T10501190 IEM_DS3505
ZBYN,1990-01-24 15:00,ZBYN 241500Z AUTO 00000KT 7SM M11/M18 RMK SLP353 T11091175 52010 IEM_DS3505
ZBYN,1990-01-24 18:00,ZBYN 241800Z AUTO 22002KT 6SM M11/M16 RMK SLP348 T11101159 41024//// 54000 IEM_DS3505
ZBYN,1990-01-24 21:00,ZBYN 242100Z AUTO 00000KT 6SM M13/M16 RMK SLP342 T11281165 57006 IEM_DS3505
ZBYN,1990-01-25 00:00,ZBYN 250000Z AUTO 00000KT 6SM M14/M17 A3036 RMK SLP355 T11361166 54000 IEM_DS3505
ZBYN,1990-01-25 01:00,ZBYN 250100Z AUTO 00000KT 5SM M12/M18 A3039 RMK T11201180 IEM_DS3505
ZBYN,1990-01-25 02:00,ZBYN 250200Z AUTO 00000KT 4SM M10/M17 A3039 RMK T11001170 IEM_DS3505
ZBYN,1990-01-25 03:00,ZBYN 250300Z AUTO 16002KT 6SM M08/M18 A3039 RMK SLP361 T10761179 52012 IEM_DS3505
ZBYN,1990-01-25 04:00,ZBYN 250400Z AUTO 17008KT 7SM M05/M16 A3036 RMK T10501160 IEM_DS3505
ZBYN,1990-01-25 06:00,ZBYN 250600Z AUTO 18004KT 6SM M03/M14 A3030 RMK SLP317 T10291137 4////1139 57032 IEM_DS3505
ZBYN,1990-01-25 07:00,ZBYN 250700Z AUTO 21004KT 7SM M03/M13 A3027 RMK T10301130 IEM_DS3505
ZBYN,1990-01-25 08:00,ZBYN 250800Z AUTO 17004KT 6SM M02/M13 A3024 RMK T10201130 IEM_DS3505
ZBYN,1990-01-25 09:00,ZBYN 250900Z AUTO 16004KT 6SM M02/M13 A3027 RMK SLP306 T10251129 57012 IEM_DS3505
ZBYN,1990-01-25 10:00,ZBYN 251000Z AUTO 09004KT 6SM M05/M13 A3027 RMK T10501130 IEM_DS3505
ZBYN,1990-01-25 11:00,ZBYN 251100Z AUTO 10004KT 6SM M08/M16 A3030 RMK T10801160 IEM_DS3505
ZBYN,1990-01-25 12:00,ZBYN 251200Z AUTO 00000KT 6SM M07/M14 RMK SLP326 T10741136 52008 IEM_DS3505
ZBYN,1990-01-25 13:00,ZBYN 251300Z AUTO 11008KT 6SM M08/M17 A3030 RMK T10801170 IEM_DS3505
ZBYN,1990-01-25 14:00,ZBYN 251400Z AUTO 11008KT 6SM M09/M17 A3033 RMK T10901170 IEM_DS3505
ZBYN,1990-01-25 15:00,ZBYN 251500Z AUTO 20002KT 6SM M10/M14 A3036 RMK SLP342 T10951143 52021 IEM_DS3505
ZBYN,1990-01-25 16:00,ZBYN 251600Z AUTO 11006KT 6SM M10/M16 A3036 RMK T11001160 IEM_DS3505
ZBYN,1990-01-25 17:00,ZBYN 251700Z AUTO 00000KT 6SM M11/M16 A3036 RMK T11101160 IEM_DS3505
ZBYN,1990-01-25 18:00,ZBYN 251800Z AUTO 00000KT 6SM M12/M15 A3036 RMK SLP345 T11241150 41017//// 52006 IEM_DS3505
ZBYN,1990-01-25 19:00,ZBYN 251900Z AUTO 08004KT 6SM M12/M16 A3036 RMK T11201160 IEM_DS3505
ZBYN,1990-01-25 20:00,ZBYN 252000Z AUTO 00000KT 5SM M14/M17 A3036 RMK T11401170 IEM_DS3505
ZBYN,1990-01-25 21:00,ZBYN 252100Z AUTO 00000KT 6SM M13/M15 A3036 RMK T11311147 IEM_DS3505
ZBYN,1990-01-25 22:00,ZBYN 252200Z AUTO 11004KT 4SM M14/M16 A3036 RMK T11401160 IEM_DS3505
ZBYN,1990-01-26 00:00,ZBYN 260000Z AUTO 09002KT 5SM M13/M16 A3039 RMK SLP362 T11331156 52009 IEM_DS3505
ZBYN,1990-01-26 01:00,ZBYN 260100Z AUTO 00000KT 1 1/2SM M12/M15 A3039 RMK T11201150 IEM_DS3505
ZBYN,1990-01-26 02:00,ZBYN 260200Z AUTO 00000KT 2SM M09/M15 A3039 RMK T10901150 IEM_DS3505
ZBYN,1990-01-26 03:00,ZBYN 260300Z AUTO 00000KT 2 1/2SM M05/M14 A3039 RMK T10501140 IEM_DS3505
ZBYN,1990-01-26 04:00,ZBYN 260400Z AUTO 00000KT 4SM M03/M14 A3039 RMK T10301140 IEM_DS3505
ZBYN,1990-01-26 06:00,ZBYN 260600Z AUTO 11004KT 6SM 00/M12 A3033 RMK SLP328 T00021123 4////1138 57025 IEM_DS3505
ZBYN,1990-01-26 07:00,ZBYN 260700Z AUTO 20004KT 7SM 02/M10 A3030 RMK T00201100 IEM_DS3505
ZBYN,1990-01-26 08:00,ZBYN 260800Z AUTO 00000KT 7SM 02/M11 A3030 RMK T00201110 IEM_DS3505
ZBYN,1990-01-26 09:00,ZBYN 260900Z AUTO 00000KT 7SM 01/M11 RMK SLP313 T00101112 57013 IEM_DS3505
ZBYN,1990-01-26 10:00,ZBYN 261000Z AUTO 00000KT 7SM M01/M11 A3030 RMK T10101110 IEM_DS3505
ZBYN,1990-01-26 11:00,ZBYN 261100Z AUTO 08006KT 7SM M05/M14 A3027 RMK SLP327 T10461138 52002 IEM_DS3505
ZBYN,1990-01-26 12:00,ZBYN 261200Z AUTO 32004KT 7SM M05/M14 A3030 RMK SLP327 T10461138 52002 IEM_DS3505
ZBYN,1990-01-26 14:00,ZBYN 261400Z AUTO 11004KT 7SM M07/M15 A3030 RMK T10701150 IEM_DS3505
ZBYN,1990-01-26 15:00,ZBYN 261500Z AUTO 18002KT 7SM M08/M15 A3030 RMK SLP330 T10831149 52011 IEM_DS3505
ZBYN,1990-01-26 17:00,ZBYN 261700Z AUTO 13006KT 5SM M08/M15 A3030 RMK T10801150 IEM_DS3505
ZBYN,1990-01-26 18:00,ZBYN 261800Z AUTO 32002KT 6SM M10/M15 A3030 RMK SLP317 T11011151 40016//// 57006 IEM_DS3505
ZBYN,1990-01-26 19:00,ZBYN 261900Z AUTO 00000KT 4SM M10/M16 A3027 RMK T11001160 IEM_DS3505
ZBYN,1990-01-26 20:00,ZBYN 262000Z AUTO 00000KT 4SM M13/M16 A3027 RMK T11301160 IEM_DS3505
ZBYN,1990-01-26 21:00,ZBYN 262100Z AUTO 16002KT 6SM M12/M15 A3027 RMK SLP304 T11251146 57014 IEM_DS3505
ZBYN,1990-01-26 22:00,ZBYN 262200Z AUTO 00000KT 5SM M13/M16 A3027 RMK T11301160 IEM_DS3505
ZBYN,1990-01-26 23:00,ZBYN 262300Z AUTO 00000KT 4SM M13/M16 A3027 RMK T11301160 IEM_DS3505
ZBYN,1990-01-27 00:00,ZBYN 270000Z AUTO 00000KT 5SM M12/M14 A3030 RMK SLP321 T11161139 52007 IEM_DS3505
ZBYN,1990-01-27 03:00,ZBYN 270300Z AUTO 36002KT 6SM M06/M13 A3030 RMK SLP327 T10631131 52008 IEM_DS3505
ZBYN,1990-01-27 04:00,ZBYN 270400Z AUTO 05004KT 3SM M03/M12 A3027 RMK T10301120 IEM_DS3505
ZBYN,1990-01-27 05:00,ZBYN 270500Z AUTO 11004KT 6SM M02/M13 A3018 RMK T10201130 IEM_DS3505
ZBYN,1990-01-27 06:00,ZBYN 270600Z AUTO 18002KT 6SM M02/M10 A3015 RMK SLP276 T10191102 4////1129 57042 IEM_DS3505
ZBYN,1990-01-27 07:00,ZBYN 270700Z AUTO 15008KT 6SM M01/M11 A3012 RMK T10101110 IEM_DS3505
ZBYN,1990-01-27 08:00,ZBYN 270800Z AUTO 15008KT 6SM M01/M11 A3012 RMK T10101110 IEM_DS3505
ZBYN,1990-01-27 09:00,ZBYN 270900Z AUTO 11004KT 6SM M02/M10 A3009 RMK SLP260 T10201099 57018 IEM_DS3505
ZBYN,1990-01-27 10:00,ZBYN 271000Z AUTO 11010KT 4SM M04/M14 A3009 RMK T10401140 IEM_DS3505
ZBYN,1990-01-27 11:00,ZBYN 271100Z AUTO 09010KT 6SM M04/M15 A3012 RMK T10401150 IEM_DS3505
ZBYN,1990-01-27 12:00,ZBYN 271200Z AUTO 14004KT 6SM M04/M12 A3015 RMK SLP270 T10381118 52007 IEM_DS3505
ZBYN,1990-01-27 15:00,ZBYN 271500Z AUTO 00000KT 4SM M06/M07 RMK SLP272 T10611069 52007 IEM_DS3505
ZBYN,1990-01-27 18:00,ZBYN 271800Z AUTO 36002KT 4SM M06/M08 RMK 60016 SLP262 T10641084 41010//// 57002 IEM_DS3505
ZBYN,1990-01-27 21:00,ZBYN 272100Z AUTO 32002KT 5SM M07/M09 RMK SLP254 T10671090 57008 IEM_DS3505
ZBYN,1990-01-28 00:00,ZBYN 280000Z AUTO 20006KT 5SM M07/M09 A3018 RMK SLP272 T10671089 52013 IEM_DS3505
ZBYN,1990-01-28 03:00,ZBYN 280300Z AUTO 00000KT 4SM M06/M10 A3018 RMK SLP273 T10581098 57001 IEM_DS3505
ZBYN,1990-01-28 04:00,ZBYN 280400Z AUTO 11004KT 6SM M02/M13 A3018 RMK T10201130 IEM_DS3505
ZBYN,1990-01-28 06:00,ZBYN 280600Z AUTO 18002KT 6SM M03/M08 A3012 RMK SLP255 T10301078 4////1074 57012 IEM_DS3505
ZBYN,1990-01-28 07:00,ZBYN 280700Z AUTO 00000KT 5SM M02/M07 A3012 RMK T10201070 IEM_DS3505
ZBYN,1990-01-28 09:00,ZBYN 280900Z AUTO 00000KT 6SM M03/M08 A3018 RMK SLP263 T10301075 52006 IEM_DS3505
ZBYN,1990-01-28 12:00,ZBYN 281200Z AUTO 00000KT 6SM RMK SLP309 52034 IEM_DS3505
ZBYN,1990-01-28 14:00,ZBYN 281400Z AUTO 00000KT 2 1/2SM M13/M14 A3030 RMK T11301140 IEM_DS3505
ZBYN,1990-01-28 15:00,ZBYN 281500Z AUTO 00000KT 6SM M07/M09 RMK SLP319 T10741087 52011 IEM_DS3505
ZBYN,1990-01-28 16:00,ZBYN 281600Z AUTO 34006KT 2SM M12/M14 A3030 RMK T11201140 IEM_DS3505
ZBYN,1990-01-28 17:00,ZBYN 281700Z AUTO 00000KT 1 1/4SM M12/M13 A3033 RMK T11201130 IEM_DS3505
ZBYN,1990-01-28 18:00,ZBYN 281800Z AUTO 32010KT 6SM M08/M10 A3036 RMK SLP322 T10801099 41011//// 52007 IEM_DS3505
ZBYN,1990-01-28 19:00,ZBYN 281900Z AUTO 00000KT 2SM M09/M11 A3036 RMK T10901110 IEM_DS3505
ZBYN,1990-01-28 20:00,ZBYN 282000Z AUTO 10006KT 7SM M10/M12 A3033 RMK T11001120 IEM_DS3505
ZBYN,1990-01-28 21:00,ZBYN 282100Z AUTO 34010KT 7SM M07/M12 A3036 RMK SLP326 T10701119 52005 IEM_DS3505
ZBYN,1990-01-28 22:00,ZBYN 282200Z AUTO 11006KT 7SM M12/M15 A3036 RMK T11201150 IEM_DS3505
ZBYN,1990-01-29 00:00,ZBYN 290000Z AUTO 34002KT 7SM M09/M11 A3039 RMK SLP355 T10861110 52015 IEM_DS3505
ZBYN,1990-01-29 01:00,ZBYN 290100Z AUTO 00000KT 3SM M11/M13 RMK T11101130 IEM_DS3505
ZBYN,1990-01-29 03:00,ZBYN 290300Z AUTO 36004KT 5SM M04/M12 A3050 RMK SLP386 T10441118 52036 IEM_DS3505
ZBYN,1990-01-29 04:00,ZBYN 290400Z AUTO 06010KT 5SM M05/M11 A3047 RMK T10501110 IEM_DS3505
ZBYN,1990-01-29 05:00,ZBYN 290500Z AUTO 10004KT 5SM M04/M10 A3047 RMK T10401100 IEM_DS3505
ZBYN,1990-01-29 06:00,ZBYN 290600Z AUTO 34004KT 5SM M04/M10 A3047 RMK SLP373 T10381103 4////1110 57011 IEM_DS3505
ZBYN,1990-01-29 07:00,ZBYN 290700Z AUTO 00000KT 3SM M05/M07 A3045 RMK T10501070 IEM_DS3505
ZBYN,1990-01-29 08:00,ZBYN 290800Z AUTO 10004KT 2SM M05/M08 A3045 RMK T10501080 IEM_DS3505
ZBYN,1990-01-29 09:00,ZBYN 290900Z AUTO 00000KT 5SM M05/M08 A3047 RMK SLP374 T10531079 54000 IEM_DS3505
ZBYN,1990-01-29 10:00,ZBYN 291000Z AUTO 00000KT 4SM M05/M09 A3047 RMK T10501090 IEM_DS3505
ZBYN,1990-01-29 11:00,ZBYN 291100Z AUTO 07008KT 3SM M06/M08 A3050 RMK T10601080 IEM_DS3505
ZBYN,1990-01-29 12:00,ZBYN 291200Z AUTO 00000KT 5SM M06/M08 RMK 60004 SLP396 T10571076 52016 IEM_DS3505
ZBYN,1990-01-29 13:00,ZBYN 291300Z AUTO 11008KT 4SM M07/M09 A3053 RMK T10701090 IEM_DS3505
ZBYN,1990-01-29 15:00,ZBYN 291500Z AUTO 00000KT 5SM M07/M08 A3053 RMK SLP399 T10691082 52008 IEM_DS3505
ZBYN,1990-01-29 16:00,ZBYN 291600Z AUTO 08008KT 4SM M07/M09 A3056 RMK T10701090 IEM_DS3505
ZBYN,1990-01-29 17:00,ZBYN 291700Z AUTO 07008KT 4SM M07/M09 A3053 RMK T10701090 IEM_DS3505
ZBYN,1990-01-29 18:00,ZBYN 291800Z AUTO 00000KT 4SM M07/M08 A3053 RMK 60012 SLP397 T10681081 41034//// 57001 IEM_DS3505
ZBYN,1990-01-29 19:00,ZBYN 291900Z AUTO 08006KT 7SM M07/M10 A3053 RMK T10701100 IEM_DS3505
ZBYN,1990-01-29 20:00,ZBYN 292000Z AUTO 04012KT 7SM M08/M12 A3053 RMK T10801120 IEM_DS3505
ZBYN,1990-01-29 21:00,ZBYN 292100Z AUTO 00000KT 4SM M08/M09 A3050 RMK SLP394 T10751093 57006 IEM_DS3505
ZBYN,1990-01-29 22:00,ZBYN 292200Z AUTO 08008KT 7SM M08/M13 A3053 RMK T10801130 IEM_DS3505
ZBYN,1990-01-29 23:00,ZBYN 292300Z AUTO 07012KT 4SM M09/M12 A3053 RMK T10901120 IEM_DS3505
ZBYN,1990-01-30 00:00,ZBYN 300000Z AUTO 11004KT 4SM M09/M12 A3056 RMK 60008 SLP407 T10941115 52008 IEM_DS3505
ZBYN,1990-01-30 01:00,ZBYN 300100Z AUTO 09010KT 7SM M09/M15 A3056 RMK T10901150 IEM_DS3505
ZBYN,1990-01-30 02:00,ZBYN 300200Z AUTO 08010KT 6SM M09/M15 A3059 RMK T10901150 IEM_DS3505
ZBYN,1990-01-30 03:00,ZBYN 300300Z AUTO 00000KT 4SM M07/M12 RMK SLP416 T10711116 52010 IEM_DS3505
ZBYN,1990-01-30 04:00,ZBYN 300400Z AUTO 06006KT 6SM M07/M14 A3056 RMK T10701140 IEM_DS3505
ZBYN,1990-01-30 05:00,ZBYN 300500Z AUTO 08006KT 6SM M07/M13 A3053 RMK T10701130 IEM_DS3505
ZBYN,1990-01-30 06:00,ZBYN 300600Z AUTO 14002KT 4SM M07/M10 A3050 RMK 60002 SLP397 T10711097 4////1098 57017 IEM_DS3505
ZBYN,1990-01-30 07:00,ZBYN 300700Z AUTO 12006KT 2 1/2SM M07/M09 A3050 RMK T10701090 IEM_DS3505
ZBYN,1990-01-30 08:00,ZBYN 300800Z AUTO 00000KT 7SM M07/M10 A3050 RMK T10701100 IEM_DS3505
ZBYN,1990-01-30 09:00,ZBYN 300900Z AUTO 16002KT 4SM M07/M10 A3047 RMK SLP392 T10741096 57007 IEM_DS3505
ZBYN,1990-01-30 10:00,ZBYN 301000Z AUTO 00000KT 7SM M08/M10 A3050 RMK T10801100 IEM_DS3505
ZBYN,1990-01-30 11:00,ZBYN 301100Z AUTO 00000KT 7SM M10/M12 A3053 RMK T11001120 IEM_DS3505
ZBYN,1990-01-30 12:00,ZBYN 301200Z AUTO 00000KT 4SM M11/M12 A3056 RMK 60001 SLP419 T11111121 52015 IEM_DS3505
ZBYN,1990-01-30 14:00,ZBYN 301400Z AUTO 11004KT 4SM M10/M12 A3056 RMK T11001120 IEM_DS3505
ZBYN,1990-01-30 15:00,ZBYN 301500Z AUTO 11002KT 4SM M12/M13 A3056 RMK SLP420 T11231133 52003 IEM_DS3505
ZBYN,1990-01-30 16:00,ZBYN 301600Z AUTO 11004KT 4SM M13/M15 A3056 RMK T11301150 IEM_DS3505
ZBYN,1990-01-30 17:00,ZBYN 301700Z AUTO 11006KT 4SM M14/M15 A3053 RMK T11401150 IEM_DS3505
ZBYN,1990-01-30 18:00,ZBYN 301800Z AUTO 00000KT 4SM M15/M16 A3053 RMK SLP422 T11471160 41058//// 57003 IEM_DS3505
ZBYN,1990-01-30 20:00,ZBYN 302000Z AUTO 00000KT 1/2SM M12/M14 A3053 RMK T11201140 IEM_DS3505
ZBYN,1990-01-30 21:00,ZBYN 302100Z AUTO 00000KT 1 1/4SM M12/M13 A3053 RMK SLP407 T11151128 57008 IEM_DS3505
ZBYN,1990-01-30 22:00,ZBYN 302200Z AUTO 00000KT 1/2SM M13/M14 A3053 RMK T11301140 IEM_DS3505
ZBYN,1990-01-30 23:00,ZBYN 302300Z AUTO 00000KT 1SM M13/M14 A3053 RMK T11301140 IEM_DS3505
ZBYN,1990-01-31 00:00,ZBYN 310000Z AUTO 00000KT 1 1/4SM M14/M16 A3053 RMK 60000 70004 SLP423 T11421156 52003 IEM_DS3505
ZBYN,1990-01-31 01:00,ZBYN 310100Z AUTO 17006KT 1/2SM M12/M14 A3053 RMK T11201140 IEM_DS3505
ZBYN,1990-01-31 02:00,ZBYN 310200Z AUTO 00000KT 1/2SM M12/M13 A3056 RMK T11201130 IEM_DS3505
ZBYN,1990-01-31 03:00,ZBYN 310300Z AUTO 00000KT 5SM M11/M12 A3056 RMK SLP418 T11061118 54000 IEM_DS3505
ZBYN,1990-01-31 04:00,ZBYN 310400Z AUTO 17004KT 2SM M09/M10 A3053 RMK T10901100 IEM_DS3505
ZBYN,1990-01-31 05:00,ZBYN 310500Z AUTO 22006KT 7SM M07/M14 A3047 RMK T10701140 IEM_DS3505
ZBYN,1990-01-31 06:00,ZBYN 310600Z AUTO 20006KT 5SM M06/M14 A3045 RMK SLP383 T10601144 4////1154 57028 IEM_DS3505
ZBYN,1990-01-31 08:00,ZBYN 310800Z AUTO 22010KT 7SM M05/M13 A3042 RMK T10501130 IEM_DS3505
ZBYN,1990-01-31 09:00,ZBYN 310900Z AUTO 20008KT 16SM M05/M14 A3042 RMK SLP359 T10521142 57015 IEM_DS3505
ZBYN,1990-01-31 10:00,ZBYN 311000Z AUTO 22010KT 7SM M07/M14 A3039 RMK T10701140 IEM_DS3505
ZBYN,1990-01-31 12:00,ZBYN 311200Z AUTO 22004KT 16SM M10/M13 A3042 RMK SLP384 T10961133 IEM_DS3505
ZBYN,1990-01-31 14:00,ZBYN 311400Z AUTO 09006KT 7SM M14/M17 A3042 RMK T11401170 IEM_DS3505
ZBYN,1990-01-31 15:00,ZBYN 311500Z AUTO 14004KT 9SM M15/M17 RMK SLP377 T11491171 52001 IEM_DS3505
ZBYN,1990-01-31 16:00,ZBYN 311600Z AUTO 11006KT 7SM M14/M17 A3042 RMK T11401170 IEM_DS3505
ZBYN,1990-01-31 17:00,ZBYN 311700Z AUTO 10006KT 7SM M15/M17 RMK T11501170 IEM_DS3505
ZBYN,1990-01-31 18:00,ZBYN 311800Z AUTO 00000KT 7SM M17/M18 A3039 RMK SLP362 T11741179 41047//// 57010 IEM_DS3505
ZBYN,1990-01-31 19:00,ZBYN 311900Z AUTO 00000KT 7SM M16/M18 A3039 RMK T11601180 IEM_DS3505
ZBYN,1990-01-31 20:00,ZBYN 312000Z AUTO 00000KT 7SM M20/M22 A3036 RMK T12001220 IEM_DS3505
ZBYN,1990-01-31 21:00,ZBYN 312100Z AUTO 34002KT 7SM M17/M18 A3033 RMK SLP348 T11691184 57010 IEM_DS3505
ZBYN,1990-01-31 23:00,ZBYN 312300Z AUTO 00000KT 7SM M20/M21 A3033 RMK T12001210 IEM_DS3505
ZBYN,1990-02-01 00:00,ZBYN 010000Z AUTO 36002KT 6SM M15/M16 A3033 RMK SLP351 T11461161 57001 IEM_DS3505
ZBYN,1990-02-01 01:00,ZBYN 010100Z AUTO 00000KT 7SM M17/M19 RMK T11701190 IEM_DS3505
ZBYN,1990-02-01 02:00,ZBYN 010200Z AUTO 00000KT 7SM M13/M16 RMK T11301160 IEM_DS3505
ZBYN,1990-02-01 03:00,ZBYN 010300Z AUTO 14004KT 5SM M08/M15 A3033 RMK SLP348 T10781148 54000 IEM_DS3505
ZBYN,1990-02-01 04:00,ZBYN 010400Z AUTO 00000KT 7SM M06/M15 A3030 RMK T10601150 IEM_DS3505
ZBYN,1990-02-01 05:00,ZBYN 010500Z AUTO 00000KT 7SM M05/M16 A3027 RMK T10501160 IEM_DS3505
ZBYN,1990-02-01 06:00,ZBYN 010600Z AUTO 20002KT 6SM M04/M10 A3024 RMK SLP312 T10401101 4////1190 57030 IEM_DS3505
ZBYN,1990-02-01 07:00,ZBYN 010700Z AUTO 00000KT 7SM M04/M14 A3021 RMK T10401140 IEM_DS3505
ZBYN,1990-02-01 08:00,ZBYN 010800Z AUTO 20004KT 7SM M04/M14 RMK T10401140 IEM_DS3505
ZBYN,1990-02-01 09:00,ZBYN 010900Z AUTO 20004KT 6SM M05/M12 A3018 RMK SLP301 T10501116 57011 IEM_DS3505
ZBYN,1990-02-01 10:00,ZBYN 011000Z AUTO 20004KT 7SM M07/M13 A3021 RMK T10701130 IEM_DS3505
ZBYN,1990-02-01 11:00,ZBYN 011100Z AUTO 00000KT 7SM M10/M14 RMK T11001140 IEM_DS3505
ZBYN,1990-02-01 12:00,ZBYN 011200Z AUTO 14002KT 6SM M10/M15 A3024 RMK SLP324 T11041153 52015 IEM_DS3505
ZBYN,1990-02-01 13:00,ZBYN 011300Z AUTO 07004KT 7SM M12/M16 A3027 RMK T11201160 IEM_DS3505
ZBYN,1990-02-01 14:00,ZBYN 011400Z AUTO 12006KT 7SM M13/M15 RMK T11301150 IEM_DS3505
ZBYN,1990-02-01 14:28,ZBYN 011428Z AUTO 12006KT 7SM M13/M15 RMK T11301150 IEM_DS3505
ZBYN,1990-02-01 15:00,ZBYN 011500Z AUTO 00000KT 6SM M15/M16 A3027 RMK SLP324 T11481159 52004 IEM_DS3505
ZBYN,1990-02-01 17:00,ZBYN 011700Z AUTO 00000KT 7SM M15/M17 A3027 RMK T11501170 IEM_DS3505
ZBYN,1990-02-01 18:00,ZBYN 011800Z AUTO 00000KT 1 1/4SM M16/M17 A3027 RMK SLP322 T11561167 41029//// 52004 IEM_DS3505
ZBYN,1990-02-01 19:00,ZBYN 011900Z AUTO 08004KT 5SM M16/M17 A3027 RMK T11601170 IEM_DS3505
ZBYN,1990-02-01 20:00,ZBYN 012000Z AUTO 00000KT 4SM M16/M18 A3027 RMK T11601180 IEM_DS3505
ZBYN,1990-02-01 21:00,ZBYN 012100Z AUTO 00000KT 1 1/4SM M16/M17 A3027 RMK SLP324 T11591174 57001 IEM_DS3505
ZBYN,1990-02-01 22:00,ZBYN 012200Z AUTO 00000KT 3SM M17/M18 A3027 RMK T11701180 IEM_DS3505
ZBYN,1990-02-01 23:00,ZBYN 012300Z AUTO 00000KT 3SM M16/M18 A3030 RMK T11601180 IEM_DS3505
ZBYN,1990-02-02 00:00,ZBYN 020000Z AUTO 36002KT 3SM M13/M15 A3033 RMK SLP345 T11331149 52014 IEM_DS3505
ZBYN,1990-02-02 01:00,ZBYN 020100Z AUTO 00000KT 4SM M14/M16 A3033 RMK T11401160 IEM_DS3505
ZBYN,1990-02-02 01:12,ZBYN 020112Z AUTO 00000KT 4SM M14/M16 A3033 RMK T11401160 IEM_DS3505
ZBYN,1990-02-02 02:23,ZBYN 020223Z AUTO 00000KT 2 1/2SM M11/M14 A3036 RMK T11101140 IEM_DS3505
ZBYN,1990-02-02 02:26,ZBYN 020226Z AUTO 00000KT 2 1/2SM M11/M14 A3036 RMK T11101140 IEM_DS3505
ZBYN,1990-02-02 03:00,ZBYN 020300Z AUTO 18002KT 6SM M09/M12 RMK SLP356 T10901125 52010 IEM_DS3505
ZBYN,1990-02-02 06:00,ZBYN 020600Z AUTO 11002KT 6SM M02/M12 RMK SLP326 T10161118 4////1172 57015 IEM_DS3505
ZBYN,1990-02-02 07:00,ZBYN 020700Z AUTO 18006KT 3SM M01/M11 A3027 RMK T10101110 IEM_DS3505
ZBYN,1990-02-02 09:00,ZBYN 020900Z AUTO 18002KT 6SM M03/M11 A3030 RMK SLP330 T10281112 52001 IEM_DS3505
ZBYN,1990-02-02 10:00,ZBYN 021000Z AUTO 00000KT 6SM M04/M12 A3033 RMK T10401120 IEM_DS3505
ZBYN,1990-02-02 11:00,ZBYN 021100Z AUTO 00000KT 6SM M07/M12 A3036 RMK T10701120 IEM_DS3505
ZBYN,1990-02-02 12:00,ZBYN 021200Z AUTO 00000KT 6SM M08/M11 RMK SLP366 T10761112 52028 IEM_DS3505
ZBYN,1990-02-02 13:00,ZBYN 021300Z AUTO 00000KT 6SM M07/M11 A3042 RMK T10701110 IEM_DS3505
ZBYN,1990-02-02 14:00,ZBYN 021400Z AUTO 00000KT 6SM M08/M11 A3042 RMK T10801110 IEM_DS3505
ZBYN,1990-02-02 15:00,ZBYN 021500Z AUTO 36006KT 6SM M03/M14 RMK SLP366 T10301139 52016 IEM_DS3505
ZBYN,1990-02-02 16:00,ZBYN 021600Z AUTO 01004KT 6SM M07/M12 A3045 RMK T10701120 IEM_DS3505
ZBYN,1990-02-02 17:00,ZBYN 021700Z AUTO 35004KT 6SM M09/M12 A3047 RMK T10901120 IEM_DS3505
ZBYN,1990-02-02 18:00,ZBYN 021800Z AUTO 36006KT 9SM M05/M15 RMK SLP362 T10481148 41002//// 52006 IEM_DS3505
ZBYN,1990-02-02 19:00,ZBYN 021900Z AUTO 35004KT 6SM M10/M13 A3045 RMK T11001130 IEM_DS3505
ZBYN,1990-02-02 20:00,ZBYN 022000Z AUTO 32006KT 6SM M10/M15 A3045 RMK T11001150 IEM_DS3505
ZBYN,1990-02-02 21:00,ZBYN 022100Z AUTO 34004KT 7SM M08/M14 A3045 RMK SLP370 T10821142 57001 IEM_DS3505
ZBYN,1990-02-02 22:00,ZBYN 022200Z AUTO 00000KT 6SM M10/M15 A3045 RMK T11001150 IEM_DS3505
ZBYN,1990-02-02 23:00,ZBYN 022300Z AUTO 00000KT 6SM M13/M16 A3047 RMK T11301160 IEM_DS3505
ZBYN,1990-02-03 00:00,ZBYN 030000Z AUTO 32006KT 6SM M10/M16 A3047 RMK SLP387 T10951155 52005 IEM_DS3505
ZBYN,1990-02-03 01:00,ZBYN 030100Z AUTO 00000KT 6SM M10/M14 A3047 RMK T11001140 IEM_DS3505
ZBYN,1990-02-03 02:00,ZBYN 030200Z AUTO 00000KT 6SM M08/M13 A3047 RMK T10801130 IEM_DS3505
ZBYN,1990-02-03 03:00,ZBYN 030300Z AUTO 32002KT 4SM M04/M14 A3047 RMK SLP368 T10421137 54000 IEM_DS3505
ZBYN,1990-02-03 04:00,ZBYN 030400Z AUTO 00000KT 6SM M03/M15 A3045 RMK T10301150 IEM_DS3505
ZBYN,1990-02-03 05:00,ZBYN 030500Z AUTO 00000KT 6SM M02/M13 A3045 RMK T10201130 IEM_DS3505
ZBYN,1990-02-03 06:00,ZBYN 030600Z AUTO 00000KT 4SM M01/M13 A3039 RMK SLP338 T10101130 4////1107 57025 IEM_DS3505
ZBYN,1990-02-03 07:00,ZBYN 030700Z AUTO 16004KT 7SM M01/M11 A3036 RMK T10101110 IEM_DS3505
ZBYN,1990-02-03 09:00,ZBYN 030900Z AUTO 18004KT 5SM M02/M11 A3036 RMK SLP335 T10241111 57011 IEM_DS3505
ZBYN,1990-02-03 10:00,ZBYN 031000Z AUTO 17006KT 6SM M04/M11 A3036 RMK T10401110 IEM_DS3505
ZBYN,1990-02-03 11:00,ZBYN 031100Z AUTO 00000KT 7SM M08/M11 A3039 RMK T10801110 IEM_DS3505
ZBYN,1990-02-03 12:00,ZBYN 031200Z AUTO 00000KT 6SM M07/M11 RMK SLP354 T10701109 52007 IEM_DS3505
ZBYN,1990-02-03 13:00,ZBYN 031300Z AUTO 00000KT 7SM M09/M13 A3039 RMK T10901130 IEM_DS3505
ZBYN,1990-02-03 14:00,ZBYN 031400Z AUTO 00000KT 7SM M10/M12 RMK T11001120 IEM_DS3505
ZBYN,1990-02-03 15:00,ZBYN 031500Z AUTO 16004KT 5SM M11/M13 A3039 RMK SLP355 T11091128 52004 IEM_DS3505
ZBYN,1990-02-03 16:00,ZBYN 031600Z AUTO 00000KT 7SM M12/M14 A3039 RMK T11201140 IEM_DS3505
ZBYN,1990-02-03 17:00,ZBYN 031700Z AUTO 10004KT 7SM M12/M14 A3039 RMK T11201140 IEM_DS3505
ZBYN,1990-02-03 18:00,ZBYN 031800Z AUTO 00000KT 4SM M13/M15 RMK SLP347 T11301148 41004//// 57006 IEM_DS3505
ZBYN,1990-02-03 19:00,ZBYN 031900Z AUTO 00000KT 4SM M15/M16 A3036 RMK T11501160 IEM_DS3505
ZBYN,1990-02-03 20:00,ZBYN 032000Z AUTO 00000KT 4SM M15/M17 A3036 RMK T11501170 IEM_DS3505
ZBYN,1990-02-03 21:00,ZBYN 032100Z AUTO 00000KT 5SM M14/M15 RMK SLP339 T11401151 57010 IEM_DS3505
ZBYN,1990-02-04 00:00,ZBYN 040000Z AUTO 00000KT 5SM M16/M17 RMK SLP357 T11601173 52004 IEM_DS3505
ZBYN,1990-02-04 01:00,ZBYN 040100Z AUTO 00000KT 3SM M14/M16 A3036 RMK T11401160 IEM_DS3505
ZBYN,1990-02-04 02:00,ZBYN 040200Z AUTO 00000KT 2 1/2SM M11/M13 A3039 RMK T11101130 IEM_DS3505
ZBYN,1990-02-04 03:00,ZBYN 040300Z AUTO 18004KT 5SM M08/M13 A3036 RMK SLP350 T10811129 52001 IEM_DS3505
ZBYN,1990-02-04 04:00,ZBYN 040400Z AUTO 00000KT 5SM M05/M13 A3033 RMK T10501130 IEM_DS3505
ZBYN,1990-02-04 06:00,ZBYN 040600Z AUTO 18004KT 5SM M03/M12 A3027 RMK SLP318 T10281117 4////1168 57023 IEM_DS3505
ZBYN,1990-02-04 07:00,ZBYN 040700Z AUTO 18004KT 6SM M01/M12 A3024 RMK T10101120 IEM_DS3505
ZBYN,1990-02-04 09:00,ZBYN 040900Z AUTO 14004KT 6SM M03/M11 A3024 RMK SLP309 T10261109 57010 IEM_DS3505
ZBYN,1990-02-04 10:00,ZBYN 041000Z AUTO 00000KT 6SM M03/M12 A3024 RMK T10301120 IEM_DS3505
ZBYN,1990-02-04 11:00,ZBYN 041100Z AUTO 00000KT 6SM M05/M10 A3027 RMK T10501100 IEM_DS3505
ZBYN,1990-02-04 12:00,ZBYN 041200Z AUTO 00000KT 7SM M06/M10 A3027 RMK SLP329 T10631105 52008 IEM_DS3505
ZBYN,1990-02-04 13:00,ZBYN 041300Z AUTO 00000KT 7SM M09/M12 A3030 RMK T10901120 IEM_DS3505
ZBYN,1990-02-04 15:00,ZBYN 041500Z AUTO 14002KT 7SM M10/M13 A3030 RMK SLP326 T11021127 52005 IEM_DS3505
ZBYN,1990-02-04 18:00,ZBYN 041800Z AUTO 00000KT 7SM M11/M14 RMK SLP328 T11131142 41014//// 52009 IEM_DS3505
ZBYN,1990-02-04 19:00,ZBYN 041900Z AUTO 00000KT 7SM M14/M16 A3033 RMK T11401160 IEM_DS3505
ZBYN,1990-02-04 20:00,ZBYN 042000Z AUTO 00000KT 5SM M13/M15 A3030 RMK T11301150 IEM_DS3505
ZBYN,1990-02-04 21:00,ZBYN 042100Z AUTO 00000KT 6SM M14/M16 A3030 RMK SLP332 T11391156 57001 IEM_DS3505
ZBYN,1990-02-04 22:00,ZBYN 042200Z AUTO 30016KT 7SM M06/M18 A3036 RMK T10601180 IEM_DS3505
ZBYN,1990-02-04 23:00,ZBYN 042300Z AUTO 00000KT 4SM A3033 RMK IEM_DS3505
ZBYN,1990-02-05 00:00,ZBYN 050000Z AUTO 00000KT 4SM M14/M15 A3036 RMK SLP353 T11371150 52013 IEM_DS3505
ZBYN,1990-02-05 01:00,ZBYN 050100Z AUTO 00000KT 2 1/2SM M12/M14 A3039 RMK T11201140 IEM_DS3505
ZBYN,1990-02-05 02:00,ZBYN 050200Z AUTO 00000KT 2SM M08/M14 A3039 RMK T10801140 IEM_DS3505
ZBYN,1990-02-05 03:00,ZBYN 050300Z AUTO 14002KT 5SM M05/M11 A3042 RMK SLP358 T10531110 52013 IEM_DS3505
ZBYN,1990-02-05 04:00,ZBYN 050400Z AUTO 00000KT 2 1/2SM M03/M11 A3042 RMK T10301110 IEM_DS3505
ZBYN,1990-02-05 06:00,ZBYN 050600Z AUTO 14004KT 6SM M01/M09 A3036 RMK SLP338 T10081089 4////1147 57013 IEM_DS3505
ZBYN,1990-02-05 07:00,ZBYN 050700Z AUTO 00000KT 6SM 00/M06 RMK T00001060 IEM_DS3505
ZBYN,1990-02-05 08:00,ZBYN 050800Z AUTO 21006KT 6SM 01/M06 A3033 RMK T00101060 IEM_DS3505
ZBYN,1990-02-05 09:00,ZBYN 050900Z AUTO 14004KT 7SM 00/ A3036 RMK SLP339 57002 IEM_DS3505
ZBYN,1990-02-05 11:00,ZBYN 051100Z AUTO 00000KT 4SM M03/M06 A3036 RMK T10301060 IEM_DS3505
ZBYN,1990-02-05 12:00,ZBYN 051200Z AUTO 00000KT 7SM M03/M07 A3039 RMK SLP365 T10321068 52018 IEM_DS3505
ZBYN,1990-02-05 13:00,ZBYN 051300Z AUTO 00000KT 4SM M07/M10 A3042 RMK T10701100 IEM_DS3505
ZBYN,1990-02-05 14:00,ZBYN 051400Z AUTO 12006KT 6SM M07/M11 A3042 RMK T10701110 IEM_DS3505
ZBYN,1990-02-05 15:00,ZBYN 051500Z AUTO 00000KT 7SM M06/M09 RMK SLP358 T10581094 52004 IEM_DS3505
ZBYN,1990-02-05 18:00,ZBYN 051800Z AUTO 00000KT 6SM M10/M12 RMK SLP361 T10961122 40008//// 52004 IEM_DS3505
ZBYN,1990-02-05 19:00,ZBYN 051900Z AUTO 00000KT 6SM M12/M14 A3045 RMK T11201140 IEM_DS3505
ZBYN,1990-02-05 20:00,ZBYN 052000Z AUTO 00000KT 6SM M12/M14 A3045 RMK T11201140 IEM_DS3505
ZBYN,1990-02-05 21:00,ZBYN 052100Z AUTO 34002KT 5SM A3045 RMK SLP358 54000 IEM_DS3505
ZBYN,1990-02-05 22:00,ZBYN 052200Z AUTO 00000KT 7SM M13/M15 RMK T11301150 IEM_DS3505
ZBYN,1990-02-05 23:00,ZBYN 052300Z AUTO 00000KT 7SM M13/M15 A3045 RMK T11301150 IEM_DS3505
ZBYN,1990-02-06 00:00,ZBYN 060000Z AUTO 34002KT 5SM M11/M13 A3045 RMK SLP380 T11061134 52011 IEM_DS3505
ZBYN,1990-02-06 01:00,ZBYN 060100Z AUTO 00000KT 4SM M10/M13 A3047 RMK T11001130 IEM_DS3505
ZBYN,1990-02-06 02:00,ZBYN 060200Z AUTO 31004KT 1SM M05/M11 A3047 RMK T10501110 IEM_DS3505
ZBYN,1990-02-06 03:00,ZBYN 060300Z AUTO 02004KT 6SM M02/M11 A3047 RMK SLP365 T10171110 57002 IEM_DS3505
ZBYN,1990-02-06 04:00,ZBYN 060400Z AUTO 35008KT 6SM 00/M10 A3045 RMK T00001100 IEM_DS3505
ZBYN,1990-02-06 06:00,ZBYN 060600Z AUTO 34004KT 9SM 02/M08 A3039 RMK SLP335 T00221075 4////1124 57027 IEM_DS3505
ZBYN,1990-02-06 07:00,ZBYN 060700Z AUTO 00000KT 6SM 04/M10 A3033 RMK T00401100 IEM_DS3505
ZBYN,1990-02-06 08:00,ZBYN 060800Z AUTO 25004KT 6SM 05/M06 RMK T00501060 IEM_DS3505
ZBYN,1990-02-06 09:00,ZBYN 060900Z AUTO 22004KT 9SM 02/M07 RMK SLP326 T00241070 57007 IEM_DS3505
ZBYN,1990-02-06 10:00,ZBYN 061000Z AUTO 00000KT 1 1/2SM 00/M04 A3036 RMK T00001040 IEM_DS3505
ZBYN,1990-02-06 12:00,ZBYN 061200Z AUTO 22002KT 6SM M01/M06 A3039 RMK SLP350 T10111056 52013 IEM_DS3505
ZBYN,1990-02-06 13:00,ZBYN 061300Z AUTO 09004KT 2 1/2SM M01/M07 A3042 RMK T10101070 IEM_DS3505
ZBYN,1990-02-06 15:00,ZBYN 061500Z AUTO 00000KT 6SM M02/M05 A3042 RMK SLP341 T10151050 52006 IEM_DS3505
ZBYN,1990-02-06 18:00,ZBYN 061800Z AUTO 22004KT 6SM M02/M05 RMK SLP331 T10221052 40038//// 57004 IEM_DS3505
ZBYN,1990-02-06 19:00,ZBYN 061900Z AUTO 00000KT 2 1/2SM M04/M06 A3039 RMK T10401060 IEM_DS3505
ZBYN,1990-02-06 20:00,ZBYN 062000Z AUTO 00000KT 2 1/2SM M04/M05 A3036 RMK T10401050 IEM_DS3505
ZBYN,1990-02-06 21:00,ZBYN 062100Z AUTO 32002KT 5SM M04/M05 A3036 RMK SLP320 T10371049 57012 IEM_DS3505
ZBYN,1990-02-06 22:00,ZBYN 062200Z AUTO 00000KT 2SM M04/M05 A3036 RMK T10401050 IEM_DS3505
ZBYN,1990-02-06 23:00,ZBYN 062300Z AUTO 00000KT 1 1/4SM M04/M05 A3036 RMK T10401050 IEM_DS3505
ZBYN,1990-02-07 01:00,ZBYN 070100Z AUTO 13004KT 1 1/2SM M03/M05 A3039 RMK T10301050 IEM_DS3505
ZBYN,1990-02-07 02:00,ZBYN 070200Z AUTO 00000KT 1SM M03/M04 A3039 RMK T10301040 IEM_DS3505
ZBYN,1990-02-07 03:00,ZBYN 070300Z AUTO 00000KT 4SM M01/M03 A3039 RMK SLP323 T10081027 52002 IEM_DS3505
ZBYN,1990-02-07 04:00,ZBYN 070400Z AUTO 19004KT 7SM 02/M04 RMK T00201040 IEM_DS3505
ZBYN,1990-02-07 05:00,ZBYN 070500Z AUTO 00000KT 1SM M03/M04 A3039 RMK T10301040 IEM_DS3505
ZBYN,1990-02-07 06:00,ZBYN 070600Z AUTO 18006KT 5SM 01/M04 A3033 RMK SLP292 T00141042 4////1042 57025 IEM_DS3505
ZBYN,1990-02-07 07:00,ZBYN 070700Z AUTO 20006KT 6SM 02/M05 A3027 RMK T00201050 IEM_DS3505
ZBYN,1990-02-07 09:00,ZBYN 070900Z AUTO 18002KT 5SM 01/M04 A3024 RMK SLP284 T00091038 57017 IEM_DS3505
ZBYN,1990-02-07 10:00,ZBYN 071000Z AUTO 18006KT 4SM 00/M04 A3027 RMK T00001040 IEM_DS3505
ZBYN,1990-02-07 11:00,ZBYN 071100Z AUTO 16004KT 4SM M01/M03 A3027 RMK T10101030 IEM_DS3505
ZBYN,1990-02-07 12:00,ZBYN 071200Z AUTO 09002KT 4SM M01/M04 A3027 RMK SLP292 T10121039 52005 IEM_DS3505
ZBYN,1990-02-07 13:00,ZBYN 071300Z AUTO 12004KT 4SM M03/M05 A3027 RMK T10301050 IEM_DS3505
ZBYN,1990-02-07 14:00,ZBYN 071400Z AUTO 12004KT 4SM M03/M04 A3030 RMK T10301040 IEM_DS3505
ZBYN,1990-02-07 15:00,ZBYN 071500Z AUTO 00000KT 5SM M02/M04 A3027 RMK SLP291 T10151036 52002 IEM_DS3505
ZBYN,1990-02-07 16:00,ZBYN 071600Z AUTO 00000KT 4SM RMK IEM_DS3505
ZBYN,1990-02-07 17:00,ZBYN 071700Z AUTO 11006KT 3SM M02/M04 A3030 RMK T10201040 IEM_DS3505
ZBYN,1990-02-07 18:00,ZBYN 071800Z AUTO 00000KT 5SM M02/M04 RMK SLP283 T10171045 40021//// 57004 IEM_DS3505
ZBYN,1990-02-07 19:00,ZBYN 071900Z AUTO 11006KT 3SM M03/M05 A3024 RMK T10301050 IEM_DS3505
ZBYN,1990-02-07 20:00,ZBYN 072000Z AUTO 00000KT 4SM M04/M06 A3027 RMK T10401060 IEM_DS3505
ZBYN,1990-02-07 21:00,ZBYN 072100Z AUTO 00000KT 4SM M03/M05 A3024 RMK SLP285 T10341047 57002 IEM_DS3505
ZBYN,1990-02-07 22:00,ZBYN 072200Z AUTO 00000KT 2 1/2SM M05/M07 A3024 RMK T10501070 IEM_DS3505
ZBYN,1990-02-08 00:00,ZBYN 080000Z AUTO 00000KT 3SM M04/M05 A3024 RMK SLP288 T10421054 57002 IEM_DS3505
ZBYN,1990-02-08 01:00,ZBYN 080100Z AUTO 00000KT 1SM M05/M07 A3027 RMK T10501070 IEM_DS3505
ZBYN,1990-02-08 02:00,ZBYN 080200Z AUTO 00000KT 1SM M02/M04 A3027 RMK T10201040 IEM_DS3505
ZBYN,1990-02-08 03:00,ZBYN 080300Z AUTO 11004KT 4SM 00/M05 RMK SLP291 T00011047 52010 IEM_DS3505
ZBYN,1990-02-08 04:00,ZBYN 080400Z AUTO 00000KT 2 1/2SM 03/M04 A3027 RMK T00301040 IEM_DS3505
ZBYN,1990-02-08 05:00,ZBYN 080500Z AUTO 19008KT 5SM 04/M03 A3021 RMK T00401030 IEM_DS3505
ZBYN,1990-02-08 06:00,ZBYN 080600Z AUTO 18008KT 6SM 04/M02 RMK SLP261 T00421016 4////1049 57021 IEM_DS3505
ZBYN,1990-02-08 07:00,ZBYN 080700Z AUTO 18010KT 7SM 05/M03 A3021 RMK T00501030 IEM_DS3505
ZBYN,1990-02-08 08:00,ZBYN 080800Z AUTO 00000KT 7SM 05/M03 A3018 RMK T00501030 IEM_DS3505
ZBYN,1990-02-08 09:00,ZBYN 080900Z AUTO 14004KT 7SM 04/M02 A3018 RMK SLP249 T00441020 57013 IEM_DS3505
ZBYN,1990-02-08 11:00,ZBYN 081100Z AUTO 00000KT 6SM 01/M02 RMK T00101020 IEM_DS3505
ZBYN,1990-02-08 12:00,ZBYN 081200Z AUTO 00000KT 5SM 00/M02 A3021 RMK SLP267 T00001023 52007 IEM_DS3505
ZBYN,1990-02-08 13:00,ZBYN 081300Z AUTO 10004KT 6SM M02/M05 A3021 RMK T10201050 IEM_DS3505
ZBYN,1990-02-08 15:00,ZBYN 081500Z AUTO 00000KT 5SM M02/M02 A3024 RMK SLP274 T10151024 52011 IEM_DS3505
ZBYN,1990-02-08 16:00,ZBYN 081600Z AUTO 00000KT 6SM M04/M05 A3024 RMK T10401050 IEM_DS3505
ZBYN,1990-02-08 17:00,ZBYN 081700Z AUTO 00000KT 6SM A3024 RMK IEM_DS3505
ZBYN,1990-02-08 18:00,ZBYN 081800Z AUTO 34002KT 5SM M01/M04 A3024 RMK SLP268 T10121036 40051//// 52002 IEM_DS3505
ZBYN,1990-02-08 19:00,ZBYN 081900Z AUTO 08004KT 6SM M04/M06 A3024 RMK T10401060 IEM_DS3505
ZBYN,1990-02-08 21:00,ZBYN 082100Z AUTO 29002KT 4SM M01/M04 A3018 RMK SLP295 T10121042 57011 IEM_DS3505
ZBYN,1990-02-08 22:00,ZBYN 082200Z AUTO 12004KT 5SM M05/M08 A3024 RMK T10501080 IEM_DS3505
ZBYN,1990-02-08 23:00,ZBYN 082300Z AUTO 00000KT 6SM M04/M05 A3021 RMK T10401050 IEM_DS3505
ZBYN,1990-02-09 00:00,ZBYN 090000Z AUTO 00000KT 4SM M02/M04 RMK SLP273 T10241037 52007 IEM_DS3505
ZBYN,1990-02-09 01:00,ZBYN 090100Z AUTO 00000KT 2 1/2SM M02/M04 A3024 RMK T10201040 IEM_DS3505
ZBYN,1990-02-09 02:00,ZBYN 090200Z AUTO 34002KT 1SM 01/M03 A3024 RMK T00101030 IEM_DS3505
ZBYN,1990-02-09 03:00,ZBYN 090300Z AUTO 32002KT 4SM 02/M03 RMK SLP267 T00191026 57001 IEM_DS3505
ZBYN,1990-02-09 05:00,ZBYN 090500Z AUTO 00000KT 1SM 03/M02 A3021 RMK T00301020 IEM_DS3505
ZBYN,1990-02-09 06:00,ZBYN 090600Z AUTO 18004KT 3SM 02/M02 RMK SLP255 T00251015 4////1036 57009 IEM_DS3505
ZBYN,1990-02-09 07:00,ZBYN 090700Z AUTO 20006KT 1SM 02/M01 RMK T00201010 IEM_DS3505
ZBYN,1990-02-09 08:00,ZBYN 090800Z AUTO 18002KT 1SM 02/M01 RMK T00201010 IEM_DS3505
ZBYN,1990-02-09 09:00,ZBYN 090900Z AUTO 16004KT 3SM 01/M01 A3021 RMK SLP263 T00131014 52005 IEM_DS3505
ZBYN,1990-02-09 10:00,ZBYN 091000Z AUTO 00000KT 01/M01 A3024 RMK T00101010 IEM_DS3505
ZBYN,1990-02-09 11:00,ZBYN 091100Z AUTO 12004KT 1 1/4SM 00/M01 A3024 RMK T00001010 IEM_DS3505
ZBYN,1990-02-09 12:00,ZBYN 091200Z AUTO 11002KT 4SM M00/M01 A3024 RMK SLP276 T10031014 52007 IEM_DS3505
ZBYN,1990-02-09 13:00,ZBYN 091300Z AUTO 12004KT 1SM M01/M01 A3024 RMK T10101010 IEM_DS3505
ZBYN,1990-02-09 14:00,ZBYN 091400Z AUTO 00000KT 1SM M01/M01 A3027 RMK T10101010 IEM_DS3505
ZBYN,1990-02-09 15:00,ZBYN 091500Z AUTO 18002KT 4SM M01/M01 A3027 RMK SLP278 T10061014 52008 IEM_DS3505
ZBYN,1990-02-09 17:00,ZBYN 091700Z AUTO 00000KT 1/2SM M01/M02 A3027 RMK T10101020 IEM_DS3505
ZBYN,1990-02-09 18:00,ZBYN 091800Z AUTO 00000KT 4SM M01/M02 A3027 RMK SLP279 T10071015 40036//// 52002 IEM_DS3505
ZBYN,1990-02-09 19:00,ZBYN 091900Z AUTO 22004KT 3/8SM M01/M01 A3027 RMK T10101010 IEM_DS3505
ZBYN,1990-02-09 21:00,ZBYN 092100Z AUTO 20002KT 1/2SM M02/M02 A3027 RMK SLP280 T10191025 57003 IEM_DS3505
ZBYN,1990-02-09 23:00,ZBYN 092300Z AUTO 00000KT 1SM M02/M03 A3027 RMK T10201030 IEM_DS3505
ZBYN,1990-02-10 00:00,ZBYN 100000Z AUTO 20004KT 1/2SM M03/M03 A3027 RMK SLP287 T10291033 52002 IEM_DS3505
ZBYN,1990-02-10 01:00,ZBYN 100100Z AUTO 17004KT 1/4SM M03/M03 A3027 RMK T10301030 IEM_DS3505
ZBYN,1990-02-10 02:00,ZBYN 100200Z AUTO 00000KT 3/8SM M03/M04 A3027 RMK T10301040 IEM_DS3505
ZBYN,1990-02-10 03:00,ZBYN 100300Z AUTO 16004KT 1SM M02/M02 A3027 RMK SLP288 T10171022 52003 IEM_DS3505
ZBYN,1990-02-10 05:00,ZBYN 100500Z AUTO 21012KT 7SM 05/M03 A3021 RMK T00501030 IEM_DS3505
ZBYN,1990-02-10 06:00,ZBYN 100600Z AUTO 20010KT 6SM 07/M04 A3018 RMK SLP241 T00661044 4////1032 57030 IEM_DS3505
ZBYN,1990-02-10 07:00,ZBYN 100700Z AUTO 27010KT 7SM 09/M03 A3015 RMK T00901030 IEM_DS3505
ZBYN,1990-02-10 08:00,ZBYN 100800Z AUTO 25012KT 7SM 10/M04 A3012 RMK T01001040 IEM_DS3505
ZBYN,1990-02-10 09:00,ZBYN 100900Z AUTO 29006KT 12SM 08/M11 A3012 RMK SLP228 T00821112 57011 IEM_DS3505
ZBYN,1990-02-10 10:00,ZBYN 101000Z AUTO 31006KT 7SM 06/M08 A3015 RMK T00601080 IEM_DS3505
ZBYN,1990-02-10 11:00,ZBYN 101100Z AUTO 26012KT 7SM 05/M10 A3012 RMK T00501100 IEM_DS3505
ZBYN,1990-02-10 12:00,ZBYN 101200Z AUTO 25006KT 11SM 05/M09 RMK SLP236 T00501089 52001 IEM_DS3505
ZBYN,1990-02-10 13:00,ZBYN 101300Z AUTO 20012KT 7SM 03/M07 A3015 RMK T00301070 IEM_DS3505
ZBYN,1990-02-10 14:00,ZBYN 101400Z AUTO 22012KT 7SM 03/M07 A3015 RMK T00301070 IEM_DS3505
ZBYN,1990-02-10 15:00,ZBYN 101500Z AUTO 22006KT 9SM 02/M05 RMK SLP246 T00201052 52006 IEM_DS3505
ZBYN,1990-02-10 16:00,ZBYN 101600Z AUTO 26012KT 7SM 02/M06 A3015 RMK T00201060 IEM_DS3505
ZBYN,1990-02-10 17:00,ZBYN 101700Z AUTO 22008KT 7SM 01/M06 A3015 RMK T00101060 IEM_DS3505
ZBYN,1990-02-10 18:00,ZBYN 101800Z AUTO 25004KT 7SM 04/M10 A3012 RMK SLP218 T00391099 40093//// 57009 IEM_DS3505
ZBYN,1990-02-10 19:00,ZBYN 101900Z AUTO 24010KT 6SM 02/M06 RMK T00201060 IEM_DS3505
ZBYN,1990-02-10 20:00,ZBYN 102000Z AUTO 24012KT 7SM 02/M07 A3012 RMK T00201070 IEM_DS3505
ZBYN,1990-02-10 21:00,ZBYN 102100Z AUTO 22002KT 7SM 02/M09 A3009 RMK SLP205 T00161086 57013 IEM_DS3505
ZBYN,1990-02-10 22:00,ZBYN 102200Z AUTO 00000KT 7SM M01/M08 RMK T10101080 IEM_DS3505
ZBYN,1990-02-10 23:00,ZBYN 102300Z AUTO 22008KT 7SM 01/M06 A3015 RMK T00101060 IEM_DS3505
ZBYN,1990-02-11 00:00,ZBYN 110000Z AUTO 00000KT 5SM M01/M07 A3012 RMK SLP227 T10131069 52010 IEM_DS3505
ZBYN,1990-02-11 01:00,ZBYN 110100Z AUTO 27006KT 3SM 02/M07 A3012 RMK T00201070 IEM_DS3505
ZBYN,1990-02-11 02:00,ZBYN 110200Z AUTO 30008KT 6SM 06/M09 A3015 RMK T00601090 IEM_DS3505
ZBYN,1990-02-11 03:00,ZBYN 110300Z AUTO 29008KT 7SM 06/M10 A3015 RMK SLP231 T00641097 52011 IEM_DS3505
ZBYN,1990-02-11 04:00,ZBYN 110400Z AUTO 28006KT 7SM 08/M12 A3015 RMK T00801120 IEM_DS3505
ZBYN,1990-02-11 05:00,ZBYN 110500Z AUTO 26010KT 7SM 09/M11 A3015 RMK T00901110 IEM_DS3505
ZBYN,1990-02-11 06:00,ZBYN 110600Z AUTO 29010KT 9SM 10/M09 A3012 RMK SLP212 T00991094 4////1015 57009 IEM_DS3505
ZBYN,1990-02-11 07:00,ZBYN 110700Z AUTO 29016KT 7SM 11/M12 A3009 RMK T01101120 IEM_DS3505
ZBYN,1990-02-11 08:00,ZBYN 110800Z AUTO 25012KT 7SM 10/ A3012 RMK IEM_DS3505
ZBYN,1990-02-11 09:00,ZBYN 110900Z AUTO 29008KT 9SM 09/M12 A3012 RMK SLP219 T00921124 52002 IEM_DS3505
ZBYN,1990-02-11 10:00,ZBYN 111000Z AUTO 29014KT 7SM 07/M12 A3015 RMK T00701120 IEM_DS3505
ZBYN,1990-02-11 11:00,ZBYN 111100Z AUTO 31012KT 7SM 06/M11 A3015 RMK T00601110 IEM_DS3505
ZBYN,1990-02-11 12:00,ZBYN 111200Z AUTO 34004KT 9SM 06/M13 RMK SLP242 T00571130 52011 IEM_DS3505
ZBYN,1990-02-11 13:00,ZBYN 111300Z AUTO 32010KT 7SM 04/M10 A3018 RMK T00401100 IEM_DS3505
ZBYN,1990-02-11 14:00,ZBYN 111400Z AUTO 08006KT 7SM 00/M06 A3021 RMK T00001060 IEM_DS3505
ZBYN,1990-02-11 15:00,ZBYN 111500Z AUTO 00000KT 7SM M01/M06 A3021 RMK SLP258 T10081063 52016 IEM_DS3505
ZBYN,1990-02-11 17:00,ZBYN 111700Z AUTO 08008KT 7SM M02/M08 A3021 RMK T10201080 IEM_DS3505
ZBYN,1990-02-11 18:00,ZBYN 111800Z AUTO 00000KT 7SM M03/M06 RMK SLP255 T10291057 40105//// 54000 IEM_DS3505
ZBYN,1990-02-11 19:00,ZBYN 111900Z AUTO 00000KT 7SM M04/M09 A3021 RMK T10401090 IEM_DS3505
ZBYN,1990-02-11 21:00,ZBYN 112100Z AUTO 00000KT 7SM M02/M08 A3021 RMK SLP250 T10161075 57004 IEM_DS3505
ZBYN,1990-02-11 22:00,ZBYN 112200Z AUTO 00000KT 7SM M04/M07 RMK T10401070 IEM_DS3505
ZBYN,1990-02-11 23:00,ZBYN 112300Z AUTO 00000KT 5SM M06/M08 A3021 RMK T10601080 IEM_DS3505
ZBYN,1990-02-12 00:00,ZBYN 120000Z AUTO 36006KT 6SM M02/M09 A3024 RMK SLP267 T10221092 52009 IEM_DS3505
ZBYN,1990-02-12 01:00,ZBYN 120100Z AUTO 17004KT 7SM 00/M09 A3024 RMK T00001090 IEM_DS3505
ZBYN,1990-02-12 02:00,ZBYN 120200Z AUTO 36004KT 7SM 03/M09 A3024 RMK T00301090 IEM_DS3505
ZBYN,1990-02-12 03:00,ZBYN 120300Z AUTO 00000KT 6SM 04/M10 A3024 RMK SLP263 T00451099 57003 IEM_DS3505
ZBYN,1990-02-12 04:00,ZBYN 120400Z AUTO 05006KT 7SM 08/M05 A3021 RMK T00801050 IEM_DS3505
ZBYN,1990-02-12 05:00,ZBYN 120500Z AUTO 13006KT 7SM 10/M03 A3015 RMK T01001030 IEM_DS3505
ZBYN,1990-02-12 06:00,ZBYN 120600Z AUTO 14004KT 9SM 10/M06 A3012 RMK SLP231 T01011065 4////1041 57024 IEM_DS3505
ZBYN,1990-02-12 08:00,ZBYN 120800Z AUTO 13010KT 6SM 11/M02 A3009 RMK T01101020 IEM_DS3505
ZBYN,1990-02-12 09:00,ZBYN 120900Z AUTO 11004KT 12SM 09/M05 A3009 RMK SLP219 T00941052 57010 IEM_DS3505
ZBYN,1990-02-12 11:00,ZBYN 121100Z AUTO 09012KT 6SM 05/M03 A3012 RMK T00501030 IEM_DS3505
ZBYN,1990-02-12 12:00,ZBYN 121200Z AUTO 25004KT 7SM 02/M03 A3012 RMK SLP239 T00221032 52006 IEM_DS3505
ZBYN,1990-02-12 13:00,ZBYN 121300Z AUTO 08016KT 6SM 03/M04 A3012 RMK T00301040 IEM_DS3505
ZBYN,1990-02-12 14:00,ZBYN 121400Z AUTO 07006KT 6SM 04/M04 A3015 RMK T00401040 IEM_DS3505
ZBYN,1990-02-12 15:00,ZBYN 121500Z AUTO 36004KT 7SM 03/M04 A3018 RMK SLP232 T00281041 52005 IEM_DS3505
ZBYN,1990-02-12 16:00,ZBYN 121600Z AUTO 00000KT 6SM 02/M03 A3018 RMK T00201030 IEM_DS3505
ZBYN,1990-02-12 17:00,ZBYN 121700Z AUTO 09004KT 6SM 01/M03 A3018 RMK T00101030 IEM_DS3505
ZBYN,1990-02-12 18:00,ZBYN 121800Z AUTO 00000KT 7SM 02/M04 RMK SLP220 T00161043 40110//// 57004 IEM_DS3505
ZBYN,1990-02-12 19:00,ZBYN 121900Z AUTO 00000KT 6SM 01/M03 A3015 RMK T00101030 IEM_DS3505
ZBYN,1990-02-12 20:00,ZBYN 122000Z AUTO 00000KT 4SM 01/M03 A3009 RMK T00101030 IEM_DS3505
ZBYN,1990-02-12 21:00,ZBYN 122100Z AUTO 16002KT 6SM 01/M02 A3012 RMK SLP217 T00141025 57004 IEM_DS3505
ZBYN,1990-02-12 22:00,ZBYN 122200Z AUTO 00000KT 1 1/4SM A3009 RMK IEM_DS3505
ZBYN,1990-02-12 23:00,ZBYN 122300Z AUTO 00000KT 1SM A3009 RMK IEM_DS3505
ZBYN,1990-02-13 00:00,ZBYN 130000Z AUTO 34002KT 1/4SM M00/M01 A3009 RMK 60008 SLP227 T10031006 57005 IEM_DS3505
ZBYN,1990-02-13 01:00,ZBYN 130100Z AUTO 00000KT 1/4SM 00/00 A3012 RMK T00000000 IEM_DS3505
ZBYN,1990-02-13 02:00,ZBYN 130200Z AUTO 00000KT 1/2SM 00/00 A3012 RMK T00000000 IEM_DS3505
ZBYN,1990-02-13 04:00,ZBYN 130400Z AUTO 00000KT 1/2SM 01/00 A3009 RMK T00100000 IEM_DS3505
ZBYN,1990-02-13 05:00,ZBYN 130500Z AUTO 00000KT 1SM 01/01 A3006 RMK T00100010 IEM_DS3505
ZBYN,1990-02-13 06:00,ZBYN 130600Z AUTO 34002KT 4SM 01/01 A3006 RMK 60008 SLP208 T00100010 4////1004 57018 IEM_DS3505
ZBYN,1990-02-13 07:00,ZBYN 130700Z AUTO 35004KT 1SM 01/01 A3003 RMK T00100010 IEM_DS3505
ZBYN,1990-02-13 08:00,ZBYN 130800Z AUTO 00000KT 1SM 02/01 A3003 RMK T00200010 IEM_DS3505
ZBYN,1990-02-13 09:00,ZBYN 130900Z AUTO 34002KT 4SM 01/00 A3006 RMK SLP206 T00110001 57002 IEM_DS3505
ZBYN,1990-02-13 10:00,ZBYN 131000Z AUTO 23004KT 1SM 01/00 A3006 RMK T00100000 IEM_DS3505
ZBYN,1990-02-13 11:00,ZBYN 131100Z AUTO 00000KT 1SM 01/01 A3006 RMK T00100010 IEM_DS3505
ZBYN,1990-02-13 12:00,ZBYN 131200Z AUTO 20002KT 2SM 01/00 A3006 RMK 60002 SLP218 T00080003 52008 IEM_DS3505
ZBYN,1990-02-13 13:00,ZBYN 131300Z AUTO 00000KT 1SM 01/01 A3009 RMK T00100010 IEM_DS3505
ZBYN,1990-02-13 15:00,ZBYN 131500Z AUTO 20004KT 2SM 00/M00 A3009 RMK SLP222 T00041001 52004 IEM_DS3505
ZBYN,1990-02-13 19:00,ZBYN 131900Z AUTO 12006KT 3SM 01/M01 A3009 RMK T00101010 IEM_DS3505
ZBYN,1990-02-13 20:00,ZBYN 132000Z AUTO 00000KT 2 1/2SM 01/00 A3009 RMK T00100000 IEM_DS3505
ZBYN,1990-02-13 21:00,ZBYN 132100Z AUTO 00000KT 2SM 00/M00 A3009 RMK SLP217 T00041001 57004 IEM_DS3505
ZBYN,1990-02-13 22:00,ZBYN 132200Z AUTO 00000KT 1/2SM 00/00 A3009 RMK T00000000 IEM_DS3505
ZBYN,1990-02-13 23:00,ZBYN 132300Z AUTO 00000KT 1/2SM 00/00 A3009 RMK T00000000 IEM_DS3505
ZBYN,1990-02-14 00:00,ZBYN 140000Z AUTO 00000KT 1/4SM 01/00 A3009 RMK 60001 70012 SLP220 T00060003 52003 IEM_DS3505
ZBYN,1990-02-14 01:00,ZBYN 140100Z AUTO 00000KT 1/8SM 01/00 A3009 RMK T00100000 IEM_DS3505
ZBYN,1990-02-14 02:00,ZBYN 140200Z AUTO 30004KT 1/4SM 00/00 A3012 RMK T00000000 IEM_DS3505
ZBYN,1990-02-14 02:01,ZBYN 140201Z AUTO 30004KT 1/4SM 00/00 A3012 RMK T00000000 IEM_DS3505
ZBYN,1990-02-14 03:00,ZBYN 140300Z AUTO 32004KT 1SM 01/M00 A3012 RMK SLP228 T00061002 52007 IEM_DS3505
ZBYN,1990-02-14 04:00,ZBYN 140400Z AUTO 35004KT 1SM 02/01 A3012 RMK T00200010 IEM_DS3505
ZBYN,1990-02-14 05:00,ZBYN 140500Z AUTO 33006KT 1 1/4SM 03/01 A3009 RMK T00300010 IEM_DS3505
ZBYN,1990-02-14 06:00,ZBYN 140600Z AUTO 36002KT 6SM 03/00 A3006 RMK SLP209 T00290001 4////0000 57014 IEM_DS3505
ZBYN,1990-02-14 07:00,ZBYN 140700Z AUTO 00000KT 2 1/2SM 05/02 A3006 RMK T00500020 IEM_DS3505
ZBYN,1990-02-14 08:00,ZBYN 140800Z AUTO 32006KT 1 1/4SM 04/02 A3006 RMK T00400020 IEM_DS3505
ZBYN,1990-02-14 09:00,ZBYN 140900Z AUTO 34004KT 6SM 02/01 A3006 RMK SLP211 T00250007 52001 IEM_DS3505
ZBYN,1990-02-14 10:00,ZBYN 141000Z AUTO 32004KT 1 1/4SM 03/01 A3009 RMK T00300010 IEM_DS3505
ZBYN,1990-02-14 11:00,ZBYN 141100Z AUTO 00000KT 1 1/4SM 03/01 A3009 RMK T00300010 IEM_DS3505
ZBYN,1990-02-14 12:00,ZBYN 141200Z AUTO 34002KT 5SM 02/01 A3012 RMK 60000 SLP228 T00170007 52015 IEM_DS3505
ZBYN,1990-02-14 13:00,ZBYN 141300Z AUTO 00000KT 1 1/4SM 02/01 A3012 RMK T00200010 IEM_DS3505
ZBYN,1990-02-14 14:00,ZBYN 141400Z AUTO 30004KT 1 1/4SM 01/01 A3015 RMK T00100010 IEM_DS3505
ZBYN,1990-02-14 15:00,ZBYN 141500Z AUTO 00000KT 4SM 02/01 A3015 RMK SLP241 T00160008 52011 IEM_DS3505
ZBYN,1990-02-14 18:00,ZBYN 141800Z AUTO 11002KT 4SM 01/00 RMK SLP243 T00120002 40038//// 52005 IEM_DS3505
ZBYN,1990-02-14 19:00,ZBYN 141900Z AUTO 00000KT 1SM 01/01 A3018 RMK T00100010 IEM_DS3505
ZBYN,1990-02-14 20:00,ZBYN 142000Z AUTO 00000KT 1SM 01/01 A3015 RMK T00100010 IEM_DS3505
ZBYN,1990-02-14 21:00,ZBYN 142100Z AUTO 00000KT 2 1/2SM 01/00 A3018 RMK SLP247 T00070002 52002 IEM_DS3505
ZBYN,1990-02-14 22:00,ZBYN 142200Z AUTO 00000KT 1SM 00/00 A3018 RMK T00000000 IEM_DS3505
ZBYN,1990-02-14 23:00,ZBYN 142300Z AUTO 00000KT 1SM 00/00 A3021 RMK T00000000 IEM_DS3505
ZBYN,1990-02-15 00:00,ZBYN 150000Z AUTO 32004KT 4SM 00/M01 A3024 RMK SLP270 T00001014 52019 IEM_DS3505
ZBYN,1990-02-15 01:00,ZBYN 150100Z AUTO 12004KT 0SM M01/M01 A3027 RMK T10101010 IEM_DS3505
ZBYN,1990-02-15 03:00,ZBYN 150300Z AUTO 02004KT 5SM 04/M01 A3027 RMK SLP271 T00381012 52007 IEM_DS3505
ZBYN,1990-02-15 04:00,ZBYN 150400Z AUTO 21010KT 1 1/4SM 04/01 A3027 RMK T00400010 IEM_DS3505
ZBYN,1990-02-15 05:00,ZBYN 150500Z AUTO 22004KT 3SM 05/01 A3027 RMK T00500010 IEM_DS3505
ZBYN,1990-02-15 06:00,ZBYN 150600Z AUTO 27002KT 5SM 06/00 A3024 RMK SLP260 T00630004 4////1004 IEM_DS3505
ZBYN,1990-02-15 07:00,ZBYN 150700Z AUTO 00000KT 4SM 07/02 A3021 RMK T00700020 IEM_DS3505
ZBYN,1990-02-15 08:00,ZBYN 150800Z AUTO 12004KT 6SM 08/02 A3021 RMK T00800020 IEM_DS3505
ZBYN,1990-02-15 09:00,ZBYN 150900Z AUTO 36002KT 5SM 07/M00 A3021 RMK SLP248 T00711003 57010 IEM_DS3505
ZBYN,1990-02-15 10:00,ZBYN 151000Z AUTO 00000KT 4SM 06/02 A3021 RMK T00600020 IEM_DS3505
ZBYN,1990-02-15 11:00,ZBYN 151100Z AUTO 00000KT 3SM 03/02 A3021 RMK T00300020 IEM_DS3505
ZBYN,1990-02-15 12:00,ZBYN 151200Z AUTO 34002KT 6SM 03/M00 A3024 RMK SLP269 T00301004 52011 IEM_DS3505
ZBYN,1990-02-15 13:00,ZBYN 151300Z AUTO 33004KT 2 1/2SM 01/00 A3024 RMK T00100000 IEM_DS3505
ZBYN,1990-02-15 14:00,ZBYN 151400Z AUTO 2 1/2SM 01/M01 A3027 RMK T00101010 IEM_DS3505
ZBYN,1990-02-15 15:00,ZBYN 151500Z AUTO 34004KT 6SM 03/M01 A3027 RMK SLP276 T00261011 52012 IEM_DS3505
ZBYN,1990-02-15 16:00,ZBYN 151600Z AUTO 00000KT 6SM 01/M01 A3030 RMK T00101010 IEM_DS3505
ZBYN,1990-02-15 18:00,ZBYN 151800Z AUTO 34002KT 6SM 01/M01 A3030 RMK SLP277 T00141010 40084//// 52003 IEM_DS3505
ZBYN,1990-02-15 19:00,ZBYN 151900Z AUTO 01006KT 4SM 00/M01 A3030 RMK T00001010 IEM_DS3505
ZBYN,1990-02-15 20:00,ZBYN 152000Z AUTO 30004KT 2SM 00/M01 A3030 RMK T00001010 IEM_DS3505
ZBYN,1990-02-15 21:00,ZBYN 152100Z AUTO 36004KT 6SM 01/M02 RMK SLP272 T00091016 57004 IEM_DS3505
ZBYN,1990-02-15 22:00,ZBYN 152200Z AUTO 36004KT 6SM 01/M02 A3030 RMK SLP272 T00091016 50040 IEM_DS3505
ZBYN,1990-02-15 23:00,ZBYN 152300Z AUTO 31004KT 2SM M01/M02 A3030 RMK T10101020 IEM_DS3505
ZBYN,1990-02-16 00:00,ZBYN 160000Z AUTO 32004KT 6SM 01/M02 A3030 RMK SLP283 T00071015 52003 IEM_DS3505
ZBYN,1990-02-16 01:00,ZBYN 160100Z AUTO 00000KT 3SM 02/M02 A3033 RMK T00201020 IEM_DS3505
ZBYN,1990-02-16 02:00,ZBYN 160200Z AUTO 00000KT 6SM 04/M02 A3033 RMK T00401020 IEM_DS3505
ZBYN,1990-02-16 03:00,ZBYN 160300Z AUTO 34002KT 5SM 06/M01 A3033 RMK SLP286 T00561008 52010 IEM_DS3505
ZBYN,1990-02-16 04:00,ZBYN 160400Z AUTO 09004KT 6SM 10/M03 A3030 RMK SLP249 T01031033 4////0005 57028 IEM_DS3505
ZBYN,1990-02-16 05:00,ZBYN 160500Z AUTO 00000KT 6SM 09/M03 A3027 RMK T00901030 IEM_DS3505
ZBYN,1990-02-16 06:00,ZBYN 160600Z AUTO 09004KT 6SM 10/M03 A3024 RMK SLP249 T01031033 4////0042 57028 IEM_DS3505
ZBYN,1990-02-16 07:00,ZBYN 160700Z AUTO 07006KT 6SM 09/M02 A3021 RMK T00901020 IEM_DS3505
ZBYN,1990-02-16 08:00,ZBYN 160800Z AUTO 09008KT 6SM 08/M02 A3021 RMK T00801020 IEM_DS3505
ZBYN,1990-02-16 09:00,ZBYN 160900Z AUTO 09008KT 9SM 08/M03 RMK SLP247 T00781026 57007 IEM_DS3505
ZBYN,1990-02-16 12:00,ZBYN 161200Z AUTO 25008KT 6SM 04/M00 RMK SLP272 T00441002 52017 IEM_DS3505
ZBYN,1990-02-16 15:00,ZBYN 161500Z AUTO 00000KT 6SM 01/00 RMK SLP270 T00120002 52001 IEM_DS3505
ZBYN,1990-02-16 16:00,ZBYN 161600Z AUTO 08010KT 6SM 01/00 A3027 RMK T00100000 IEM_DS3505
ZBYN,1990-02-16 17:00,ZBYN 161700Z AUTO 09006KT 5SM 01/00 A3027 RMK T00100000 IEM_DS3505
ZBYN,1990-02-16 18:00,ZBYN 161800Z AUTO 00000KT 2 1/2SM 00/00 A3024 RMK SLP253 T00030000 40107//// 57009 IEM_DS3505
ZBYN,1990-02-16 19:00,ZBYN 161900Z AUTO 09006KT 6SM 01/M01 A3021 RMK T00101010 IEM_DS3505
ZBYN,1990-02-16 21:00,ZBYN 162100Z AUTO 00000KT 3SM 00/00 A3018 RMK SLP242 T00040001 57014 IEM_DS3505
ZBYN,1990-02-16 23:00,ZBYN 162300Z AUTO 10006KT 7SM 01/M01 A3018 RMK T00101010 IEM_DS3505
ZBYN,1990-02-17 00:00,ZBYN 170000Z AUTO 00000KT 3SM 00/00 A3021 RMK 60004 70012 SLP252 T00030000 52003 IEM_DS3505
ZBYN,1990-02-17 01:00,ZBYN 170100Z AUTO 09006KT 4SM 01/00 A3021 RMK T00100000 IEM_DS3505
ZBYN,1990-02-17 02:00,ZBYN 170200Z AUTO 00000KT 4SM 01/00 A3021 RMK T00100000 IEM_DS3505
ZBYN,1990-02-17 03:00,ZBYN 170300Z AUTO 00000KT 3SM 01/01 RMK SLP261 T00130008 52005 IEM_DS3505
ZBYN,1990-02-17 04:00,ZBYN 170400Z AUTO 07006KT 7SM 03/00 A3021 RMK T00300000 IEM_DS3505
ZBYN,1990-02-17 05:00,ZBYN 170500Z AUTO 15004KT 7SM 04/00 A3015 RMK T00400000 IEM_DS3505
ZBYN,1990-02-17 06:00,ZBYN 170600Z AUTO 32002KT 4SM 03/01 A3012 RMK 60004 SLP236 T00260008 4////0001 57022 IEM_DS3505
ZBYN,1990-02-17 07:00,ZBYN 170700Z AUTO 31006KT 5SM 03/M01 A3012 RMK T00301010 IEM_DS3505
ZBYN,1990-02-17 08:00,ZBYN 170800Z AUTO 36004KT 3SM 04/M01 A3012 RMK T00401010 IEM_DS3505
ZBYN,1990-02-17 09:00,ZBYN 170900Z AUTO 34002KT 4SM 02/M00 A3012 RMK SLP229 T00251001 57006 IEM_DS3505
ZBYN,1990-02-17 10:00,ZBYN 171000Z AUTO 08006KT 7SM 03/M01 A3012 RMK T00301010 IEM_DS3505
ZBYN,1990-02-17 12:00,ZBYN 171200Z AUTO 36002KT 4SM 02/00 RMK SLP240 T00210000 52009 IEM_DS3505
ZBYN,1990-02-17 13:00,ZBYN 171300Z AUTO 09008KT 7SM 01/M01 A3015 RMK T00101010 IEM_DS3505
ZBYN,1990-02-17 14:00,ZBYN 171400Z AUTO 10008KT 7SM 01/M01 A3015 RMK T00101010 IEM_DS3505
ZBYN,1990-02-17 15:00,ZBYN 171500Z AUTO 11006KT 6SM 01/M01 A3015 RMK SLP243 T00091013 52002 IEM_DS3505
ZBYN,1990-02-17 16:00,ZBYN 171600Z AUTO 09006KT 6SM 01/M01 A3015 RMK T00101010 IEM_DS3505
ZBYN,1990-02-17 17:00,ZBYN 171700Z AUTO 11004KT 7SM 01/M01 A3015 RMK T00101010 IEM_DS3505
ZBYN,1990-02-17 18:00,ZBYN 171800Z AUTO 00000KT 3SM M00/M01 A3012 RMK 60000 SLP232 T10011006 40029//// 57009 IEM_DS3505
ZBYN,1990-02-17 19:00,ZBYN 171900Z AUTO 00000KT 4SM 00/M01 A3012 RMK T00001010 IEM_DS3505
ZBYN,1990-02-17 20:00,ZBYN 172000Z AUTO 00000KT 4SM 00/M01 A3009 RMK T00001010 IEM_DS3505
ZBYN,1990-02-17 21:00,ZBYN 172100Z AUTO 00000KT 3SM M00/M01 RMK SLP221 T10041007 57011 IEM_DS3505
ZBYN,1990-02-17 22:00,ZBYN 172200Z AUTO 00000KT 2SM A3009 RMK IEM_DS3505
ZBYN,1990-02-17 23:00,ZBYN 172300Z AUTO 00000KT 1 1/4SM M01/M01 A3009 RMK T10101010 IEM_DS3505
ZBYN,1990-02-18 00:00,ZBYN 180000Z AUTO 00000KT 1 1/4SM M01/M01 A3009 RMK T10101010 IEM_DS3505
ZBYN,1990-02-18 01:00,ZBYN 180100Z AUTO 00000KT 4SM 00/M01 A3012 RMK T00001010 IEM_DS3505
ZBYN,1990-02-18 02:00,ZBYN 180200Z AUTO 00000KT 6SM 01/M02 A3012 RMK T00101020 IEM_DS3505
ZBYN,1990-02-18 03:00,ZBYN 180300Z AUTO 18004KT 5SM 00/M01 A3012 RMK SLP233 T00051009 52006 IEM_DS3505
ZBYN,1990-02-18 04:00,ZBYN 180400Z AUTO 20004KT 5SM 01/00 A3012 RMK T00100000 IEM_DS3505
ZBYN,1990-02-18 05:00,ZBYN 180500Z AUTO 00000KT 6SM 03/00 A3012 RMK T00300000 IEM_DS3505
ZBYN,1990-02-18 06:00,ZBYN 180600Z AUTO 18004KT 6SM 04/00 A3009 RMK SLP213 T00370004 4////1009 57015 IEM_DS3505
ZBYN,1990-02-18 07:00,ZBYN 180700Z AUTO 20008KT 7SM 06/01 A3006 RMK T00600010 IEM_DS3505
ZBYN,1990-02-18 08:00,ZBYN 180800Z AUTO 22006KT 7SM 06/01 A3006 RMK T00600010 IEM_DS3505
ZBYN,1990-02-18 09:00,ZBYN 180900Z AUTO 20004KT 9SM 05/M01 A3003 RMK SLP200 T00461008 57011 IEM_DS3505
ZBYN,1990-02-18 10:00,ZBYN 181000Z AUTO 21006KT 6SM 04/00 A3006 RMK T00400000 IEM_DS3505
ZBYN,1990-02-18 11:00,ZBYN 181100Z AUTO 00000KT 6SM 02/00 A3009 RMK T00200000 IEM_DS3505
ZBYN,1990-02-18 12:00,ZBYN 181200Z AUTO 18002KT 9SM 01/M02 A3012 RMK SLP222 T00121015 52014 IEM_DS3505
ZBYN,1990-02-18 14:00,ZBYN 181400Z AUTO 11004KT 7SM 00/M01 A3012 RMK T00001010 IEM_DS3505
ZBYN,1990-02-18 15:00,ZBYN 181500Z AUTO 14002KT 9SM 00/M01 A3009 RMK SLP224 T00041012 52003 IEM_DS3505
ZBYN,1990-02-18 16:00,ZBYN 181600Z AUTO 11004KT 7SM M01/M02 A3009 RMK T10101020 IEM_DS3505
ZBYN,1990-02-18 17:00,ZBYN 181700Z AUTO 08006KT 7SM M01/M02 A3009 RMK T10101020 IEM_DS3505
ZBYN,1990-02-18 18:00,ZBYN 181800Z AUTO 00000KT 5SM M01/M02 RMK SLP221 T10141020 40056//// 57001 IEM_DS3505
ZBYN,1990-02-18 19:00,ZBYN 181900Z AUTO 00000KT 7SM M01/M02 A3012 RMK T10101020 IEM_DS3505
ZBYN,1990-02-18 20:00,ZBYN 182000Z AUTO 12004KT 4SM 00/M02 A3009 RMK T00001020 IEM_DS3505
ZBYN,1990-02-18 21:00,ZBYN 182100Z AUTO 00000KT 1SM M01/M01 A3009 RMK SLP219 T10071010 52001 IEM_DS3505
ZBYN,1990-02-18 22:00,ZBYN 182200Z AUTO 00000KT 4SM 00/M02 A3006 RMK T00001020 IEM_DS3505
ZBYN,1990-02-18 23:00,ZBYN 182300Z AUTO 00000KT 4SM 00/M02 A3009 RMK T00001020 IEM_DS3505
ZBYN,1990-02-19 00:00,ZBYN 190000Z AUTO 00000KT 3SM 00/M01 A3009 RMK SLP229 T00001008 52005 IEM_DS3505
ZBYN,1990-02-19 01:00,ZBYN 190100Z AUTO 15004KT 2 1/2SM 01/00 A3012 RMK T00100000 IEM_DS3505
ZBYN,1990-02-19 02:00,ZBYN 190200Z AUTO 00000KT 2SM 01/00 A3015 RMK T00100000 IEM_DS3505
ZBYN,1990-02-19 03:00,ZBYN 190300Z AUTO 36004KT 4SM 02/M02 RMK SLP235 T00201018 52007 IEM_DS3505
ZBYN,1990-02-19 04:00,ZBYN 190400Z AUTO 24004KT 2 1/2SM 03/00 A3015 RMK T00300000 IEM_DS3505
ZBYN,1990-02-19 06:00,ZBYN 190600Z AUTO 34002KT 5SM 06/00 A3009 RMK SLP214 T00570003 4////1018 57016 IEM_DS3505
ZBYN,1990-02-19 07:00,ZBYN 190700Z AUTO 00000KT 4SM 07/01 A3006 RMK T00700010 IEM_DS3505
ZBYN,1990-02-19 09:00,ZBYN 190900Z AUTO 00000KT 6SM 08/01 RMK SLP197 T00800006 57010 IEM_DS3505
ZBYN,1990-02-19 12:00,ZBYN 191200Z AUTO 00000KT 5SM 02/01 RMK SLP211 T00230010 52004 IEM_DS3505
ZBYN,1990-02-19 15:00,ZBYN 191500Z AUTO 00000KT 5SM 01/00 RMK SLP219 T00100002 52009 IEM_DS3505
ZBYN,1990-02-19 18:00,ZBYN 191800Z AUTO 34004KT 7SM 01/M02 RMK SLP213 T00141016 40085//// 52001 IEM_DS3505
ZBYN,1990-02-19 21:00,ZBYN 192100Z AUTO 34004KT 7SM 02/M02 RMK SLP198 T00151015 57010 IEM_DS3505
ZBYN,1990-02-20 00:00,ZBYN 200000Z AUTO 36004KT 5SM 02/M01 RMK SLP214 T00181009 52006 IEM_DS3505
ZBYN,1990-02-20 01:00,ZBYN 200100Z AUTO 00000KT 1SM 01/00 A3009 RMK T00100000 IEM_DS3505
ZBYN,1990-02-20 02:00,ZBYN 200200Z AUTO 00000KT 1SM 03/01 A3006 RMK T00300010 IEM_DS3505
ZBYN,1990-02-20 03:00,ZBYN 200300Z AUTO 32004KT 6SM 04/M00 A3009 RMK SLP220 T00421001 52007 IEM_DS3505
ZBYN,1990-02-20 04:00,ZBYN 200400Z AUTO 00000KT 2 1/2SM 05/00 A3006 RMK T00500000 IEM_DS3505
ZBYN,1990-02-20 06:00,ZBYN 200600Z AUTO 00000KT 6SM 05/01 A3006 RMK SLP203 T00530006 4////1004 57013 IEM_DS3505
ZBYN,1990-02-20 07:00,ZBYN 200700Z AUTO 09008KT 4SM 05/01 A3006 RMK T00500010 IEM_DS3505
ZBYN,1990-02-20 08:00,ZBYN 200800Z AUTO 09006KT 7SM 04/01 A3003 RMK T00400010 IEM_DS3505
ZBYN,1990-02-20 09:00,ZBYN 200900Z AUTO 14004KT 6SM 05/01 A3006 RMK SLP195 T00460006 57008 IEM_DS3505
ZBYN,1990-02-20 10:00,ZBYN 201000Z AUTO 08008KT 7SM 04/00 A3006 RMK T00400000 IEM_DS3505
ZBYN,1990-02-20 11:00,ZBYN 201100Z AUTO 07010KT 7SM 03/00 A3006 RMK T00300000 IEM_DS3505
ZBYN,1990-02-20 12:00,ZBYN 201200Z AUTO 00000KT 4SM 03/01 A3006 RMK SLP205 T00310014 52007 IEM_DS3505
ZBYN,1990-02-20 14:00,ZBYN 201400Z AUTO 06004KT 7SM 03/M01 A3009 RMK T00301010 IEM_DS3505
ZBYN,1990-02-20 15:00,ZBYN 201500Z AUTO 00000KT 5SM 02/00 RMK SLP208 T00250005 52006 IEM_DS3505
ZBYN,1990-02-20 17:00,ZBYN 201700Z AUTO 06006KT 7SM 03/M01 RMK T00301010 IEM_DS3505
ZBYN,1990-02-20 18:00,ZBYN 201800Z AUTO 32004KT 6SM 02/00 A3009 RMK SLP208 T00220001 40055//// 52001 IEM_DS3505
ZBYN,1990-02-20 20:00,ZBYN 202000Z AUTO 11006KT 4SM 01/00 A3009 RMK T00100000 IEM_DS3505
ZBYN,1990-02-20 21:00,ZBYN 202100Z AUTO 32002KT 3SM 01/00 A3009 RMK SLP210 T00080003 57002 IEM_DS3505
ZBYN,1990-02-20 22:00,ZBYN 202200Z AUTO 07008KT 7SM 02/M01 A3009 RMK T00201010 IEM_DS3505
ZBYN,1990-02-20 23:00,ZBYN 202300Z AUTO 00000KT 1 1/2SM 01/00 A3009 RMK T00100000 IEM_DS3505
ZBYN,1990-02-21 00:00,ZBYN 210000Z AUTO 00000KT 3SM 00/00 A3009 RMK 60004 70004 SLP221 T00050000 52007 IEM_DS3505
ZBYN,1990-02-21 01:00,ZBYN 210100Z AUTO 06004KT 1 1/4SM 01/00 A3012 RMK T00100000 IEM_DS3505
ZBYN,1990-02-21 02:00,ZBYN 210200Z AUTO 00000KT 1 1/2SM 01/00 A3012 RMK T00100000 IEM_DS3505
ZBYN,1990-02-21 03:00,ZBYN 210300Z AUTO 00000KT 4SM 02/01 A3012 RMK SLP229 T00150010 52008 IEM_DS3505
ZBYN,1990-02-21 04:00,ZBYN 210400Z AUTO 07008KT 7SM 03/01 A3012 RMK T00300010 IEM_DS3505
ZBYN,1990-02-21 05:00,ZBYN 210500Z AUTO 00000KT 7SM 03/02 A3009 RMK T00300020 IEM_DS3505
ZBYN,1990-02-21 06:00,ZBYN 210600Z AUTO 00000KT 4SM 03/01 A3009 RMK 60004 SLP214 T00330013 4////0002 57011 IEM_DS3505
ZBYN,1990-02-21 09:00,ZBYN 210900Z AUTO 09004KT 5SM 03/M01 A3009 RMK SLP219 T00331012 52002 IEM_DS3505
ZBYN,1990-02-21 10:00,ZBYN 211000Z AUTO 09010KT 7SM 03/M01 A3012 RMK T00301010 IEM_DS3505
ZBYN,1990-02-21 11:00,ZBYN 211100Z AUTO 10008KT 7SM 02/M01 A3012 RMK T00201010 IEM_DS3505
ZBYN,1990-02-21 12:00,ZBYN 211200Z AUTO 09002KT 7SM 02/M01 A3015 RMK 60001 SLP240 T00221010 52017 IEM_DS3505
ZBYN,1990-02-21 12:12,ZBYN 211212Z AUTO 09006KT 3SM A3006 RMK IEM_DS3505
ZBYN,1990-02-21 14:00,ZBYN 211400Z AUTO 09008KT 6SM 02/M01 A3021 RMK T00201010 IEM_DS3505
ZBYN,1990-02-21 15:00,ZBYN 211500Z AUTO 00000KT 7SM 02/M02 A3021 RMK SLP252 T00191019 52012 IEM_DS3505
ZBYN,1990-02-21 18:00,ZBYN 211800Z AUTO 14002KT 7SM 01/M02 A3021 RMK SLP257 T00111020 40041//// 52006 IEM_DS3505
ZBYN,1990-02-21 21:00,ZBYN 212100Z AUTO 12004KT 7SM 01/M01 A3021 RMK T00101010 IEM_DS3505
ZBYN,1990-02-22 00:00,ZBYN 220000Z AUTO 32004KT 7SM 00/M01 A3027 RMK 60000 70008 SLP277 T00041010 52016 IEM_DS3505
ZBYN,1990-02-22 01:00,ZBYN 220100Z AUTO 34006KT 2 1/2SM 00/M01 A3027 RMK T00001010 IEM_DS3505
ZBYN,1990-02-22 02:00,ZBYN 220200Z AUTO 36008KT 4SM 01/M01 A3027 RMK T00101010 IEM_DS3505
ZBYN,1990-02-22 03:00,ZBYN 220300Z AUTO 36008KT 6SM 01/M03 A3027 RMK SLP287 T00091032 52009 IEM_DS3505
ZBYN,1990-02-22 04:00,ZBYN 220400Z AUTO 33014KT 7SM 03/M02 A3030 RMK T00301020 IEM_DS3505
ZBYN,1990-02-22 05:00,ZBYN 220500Z AUTO 34017KT 5SM 01/M01 A3027 RMK T00101010 IEM_DS3505
ZBYN,1990-02-22 06:00,ZBYN 220600Z AUTO 36006KT 3SM M01/M02 RMK 60002 SLP293 T10101023 4////1010 52001 IEM_DS3505
ZBYN,1990-02-22 07:00,ZBYN 220700Z AUTO 35017KT 6SM 00/M02 A3030 RMK T00001020 IEM_DS3505
ZBYN,1990-02-22 08:19,ZBYN 220819Z AUTO 36008KT 4SM 01/M01 A3027 RMK T00101010 IEM_DS3505
ZBYN,1990-02-22 08:23,ZBYN 220823Z AUTO 36008KT 4SM 01/M01 A3027 RMK T00101010 IEM_DS3505
ZBYN,1990-02-22 09:00,ZBYN 220900Z AUTO 36004KT 3SM M01/M04 A3036 RMK SLP304 T10071040 52010 IEM_DS3505
ZBYN,1990-02-22 09:29,ZBYN 220929Z AUTO 36014KT 7SM M01/M04 A3030 RMK T10101040 IEM_DS3505
ZBYN,1990-02-22 09:30,ZBYN 220930Z AUTO 36014KT 7SM M01/M04 A3030 RMK T10101040 IEM_DS3505
ZBYN,1990-02-22 09:31,ZBYN 220931Z AUTO 36014KT 7SM M01/M04 A3030 RMK T10101040 IEM_DS3505
ZBYN,1990-02-22 10:07,ZBYN 221007Z AUTO 35014KT 7SM M01/M04 A3033 RMK T10101040 IEM_DS3505
ZBYN,1990-02-22 10:15,ZBYN 221015Z AUTO 35014KT 7SM M01/M04 A3033 RMK T10101040 IEM_DS3505
ZBYN,1990-02-22 11:19,ZBYN 221119Z AUTO 36014KT 7SM M02/M05 A3036 RMK T10201050 IEM_DS3505
ZBYN,1990-02-22 11:23,ZBYN 221123Z AUTO 36014KT 7SM M02/M05 A3036 RMK T10201050 IEM_DS3505
ZBYN,1990-02-22 12:00,ZBYN 221200Z AUTO 36008KT 3SM M02/M06 RMK 60002 SLP340 T10221055 52030 IEM_DS3505
ZBYN,1990-02-22 14:00,ZBYN 221400Z AUTO 36014KT 7SM M03/M06 A3045 RMK T10301060 IEM_DS3505
ZBYN,1990-02-22 15:00,ZBYN 221500Z AUTO 36010KT 3SM M03/M08 A3045 RMK SLP359 T10301078 52016 IEM_DS3505
ZBYN,1990-02-22 16:00,ZBYN 221600Z AUTO 35014KT 7SM M04/M08 A3047 RMK T10401080 IEM_DS3505
ZBYN,1990-02-22 17:00,ZBYN 221700Z AUTO 34017KT 7SM M04/M08 A3047 RMK T10401080 IEM_DS3505
ZBYN,1990-02-22 18:00,ZBYN 221800Z AUTO 36006KT 3SM M04/M08 A3050 RMK 60001 SLP378 T10371083 40014//// 52013 IEM_DS3505
ZBYN,1990-02-22 19:00,ZBYN 221900Z AUTO 35014KT 7SM M04/M08 A3050 RMK T10401080 IEM_DS3505
ZBYN,1990-02-22 20:00,ZBYN 222000Z AUTO 35014KT 7SM M04/M09 A3050 RMK T10401090 IEM_DS3505
ZBYN,1990-02-22 21:00,ZBYN 222100Z AUTO 36008KT 6SM M04/M10 A3050 RMK SLP379 T10431096 52001 IEM_DS3505
ZBYN,1990-02-22 22:00,ZBYN 222200Z AUTO 36019KT 6SM M05/M12 A3053 RMK T10501120 IEM_DS3505
ZBYN,1990-02-22 23:00,ZBYN 222300Z AUTO 36014KT 6SM M05/M13 A3053 RMK T10501130 IEM_DS3505
ZBYN,1990-02-23 00:00,ZBYN 230000Z AUTO 36006KT 9SM M05/M13 A3056 RMK 70004 SLP398 T10501127 52013 IEM_DS3505
ZBYN,1990-02-23 01:00,ZBYN 230100Z AUTO 36019KT 7SM M05/M12 A3059 RMK T10501120 IEM_DS3505
ZBYN,1990-02-23 02:00,ZBYN 230200Z AUTO 35016KT 7SM M05/M11 A3059 RMK T10501110 IEM_DS3505
ZBYN,1990-02-23 03:00,ZBYN 230300Z AUTO 36006KT 9SM M04/M12 A3059 RMK SLP409 T10381124 52011 IEM_DS3505
ZBYN,1990-02-23 04:00,ZBYN 230400Z AUTO 35016KT 6SM M04/M08 A3056 RMK T10401080 IEM_DS3505
ZBYN,1990-02-23 05:00,ZBYN 230500Z AUTO 36014KT 6SM M02/M09 A3053 RMK T10201090 IEM_DS3505
ZBYN,1990-02-23 06:00,ZBYN 230600Z AUTO 36006KT 9SM M02/M10 A3050 RMK SLP379 T10161098 4////1052 57020 IEM_DS3505
ZBYN,1990-02-23 07:00,ZBYN 230700Z AUTO 34010KT 6SM M01/M09 A3047 RMK T10101090 IEM_DS3505
ZBYN,1990-02-23 08:00,ZBYN 230800Z AUTO 36012KT 6SM M01/M10 A3047 RMK T10101100 IEM_DS3505
ZBYN,1990-02-23 09:00,ZBYN 230900Z AUTO 36004KT 9SM M01/M10 A3047 RMK SLP367 T10091096 57011 IEM_DS3505
ZBYN,1990-02-23 10:00,ZBYN 231000Z AUTO 36008KT 6SM M02/M11 A3047 RMK T10201110 IEM_DS3505
ZBYN,1990-02-23 11:00,ZBYN 231100Z AUTO 36008KT 6SM M02/M12 A3047 RMK T10201120 IEM_DS3505
ZBYN,1990-02-23 12:00,ZBYN 231200Z AUTO 36006KT 9SM M02/M11 RMK SLP374 T10241106 52003 IEM_DS3505
ZBYN,1990-02-23 13:00,ZBYN 231300Z AUTO 35008KT 7SM M03/M12 A3050 RMK T10301120 IEM_DS3505
ZBYN,1990-02-23 14:00,ZBYN 231400Z AUTO 33008KT 7SM M04/M15 A3050 RMK T10401150 IEM_DS3505
ZBYN,1990-02-23 15:00,ZBYN 231500Z AUTO 02008KT 9SM M04/M18 A3050 RMK SLP389 T10441176 52012 IEM_DS3505
ZBYN,1990-02-23 16:00,ZBYN 231600Z AUTO 35014KT 7SM M05/M15 A3053 RMK T10501150 IEM_DS3505
ZBYN,1990-02-23 17:00,ZBYN 231700Z AUTO 34012KT 6SM M06/M15 A3050 RMK T10601150 IEM_DS3505
ZBYN,1990-02-23 18:00,ZBYN 231800Z AUTO 34006KT 9SM M06/M15 A3050 RMK SLP386 T10561150 41006//// 57001 IEM_DS3505
ZBYN,1990-02-23 19:00,ZBYN 231900Z AUTO 33012KT 6SM M07/M15 A3050 RMK T10701150 IEM_DS3505
ZBYN,1990-02-23 20:00,ZBYN 232000Z AUTO 34010KT 7SM M07/M15 A3047 RMK T10701150 IEM_DS3505
ZBYN,1990-02-23 21:00,ZBYN 232100Z AUTO 32006KT 9SM M07/M15 A3047 RMK SLP375 T10701148 57031 IEM_DS3505
ZBYN,1990-02-23 22:00,ZBYN 232200Z AUTO 34010KT 7SM M08/M17 A3045 RMK T10801170 IEM_DS3505
ZBYN,1990-02-23 23:00,ZBYN 232300Z AUTO 35012KT 7SM M08/ A3047 RMK IEM_DS3505
ZBYN,1990-02-24 00:00,ZBYN 240000Z AUTO 36006KT 9SM M07/M14 A3047 RMK SLP381 T10741142 52002 IEM_DS3505
ZBYN,1990-02-24 01:00,ZBYN 240100Z AUTO 34010KT 7SM M07/M17 RMK T10701170 IEM_DS3505
ZBYN,1990-02-24 02:00,ZBYN 240200Z AUTO 02012KT 7SM M06/M18 A3050 RMK T10601180 IEM_DS3505
ZBYN,1990-02-24 03:00,ZBYN 240300Z AUTO 04004KT 11SM M04/M16 RMK SLP370 T10401160 57007 IEM_DS3505
ZBYN,1990-02-24 04:00,ZBYN 240400Z AUTO 01008KT 6SM M03/M17 A3045 RMK T10301170 IEM_DS3505
ZBYN,1990-02-24 05:00,ZBYN 240500Z AUTO 31002KT 6SM M03/M10 A3039 RMK T10301100 IEM_DS3505
ZBYN,1990-02-24 06:00,ZBYN 240600Z AUTO 02004KT 12SM M02/M16 A3036 RMK SLP337 T10161164 4////1080 57028 IEM_DS3505
ZBYN,1990-02-24 07:00,ZBYN 240700Z AUTO 23008KT 6SM 00/M14 A3033 RMK T00001140 IEM_DS3505
ZBYN,1990-02-24 08:00,ZBYN 240800Z AUTO 18006KT 7SM M01/M15 A3033 RMK T10101150 IEM_DS3505
ZBYN,1990-02-24 09:00,ZBYN 240900Z AUTO 34004KT 17SM M00/M17 A3033 RMK SLP320 T10041173 57016 IEM_DS3505
ZBYN,1990-02-24 10:00,ZBYN 241000Z AUTO 34006KT 7SM M02/M13 A3030 RMK T10201130 IEM_DS3505
ZBYN,1990-02-24 11:00,ZBYN 241100Z AUTO 01008KT 7SM M03/M15 RMK T10301150 IEM_DS3505
ZBYN,1990-02-24 12:00,ZBYN 241200Z AUTO 36006KT 12SM M04/M20 RMK SLP340 T10381205 52012 IEM_DS3505
ZBYN,1990-02-24 14:00,ZBYN 241400Z AUTO 34010KT 7SM M05/M16 A3039 RMK T10501160 IEM_DS3505
ZBYN,1990-02-24 15:00,ZBYN 241500Z AUTO 32008KT 9SM M06/M20 A3039 RMK SLP344 T10601205 52005 IEM_DS3505
ZBYN,1990-02-24 16:00,ZBYN 241600Z AUTO 32008KT 7SM M07/M16 A3039 RMK T10701160 IEM_DS3505
ZBYN,1990-02-24 18:00,ZBYN 241800Z AUTO 32006KT 9SM M07/M20 A3039 RMK SLP339 T10741200 40016//// 57002 IEM_DS3505
ZBYN,1990-02-24 20:00,ZBYN 242000Z AUTO 36006KT 7SM M10/M15 A3036 RMK T11001150 IEM_DS3505
ZBYN,1990-02-24 21:00,ZBYN 242100Z AUTO 36006KT 9SM M08/M20 RMK SLP330 T10821200 57008 IEM_DS3505
ZBYN,1990-02-24 22:00,ZBYN 242200Z AUTO 05004KT 7SM M10/M17 A3036 RMK T11001170 IEM_DS3505
ZBYN,1990-02-24 23:00,ZBYN 242300Z AUTO 36004KT 7SM M10/M18 A3036 RMK T11001180 IEM_DS3505
ZBYN,1990-02-25 00:00,ZBYN 250000Z AUTO 34004KT 9SM M08/M18 A3036 RMK SLP336 T10851181 57001 IEM_DS3505
ZBYN,1990-02-25 01:00,ZBYN 250100Z AUTO 34004KT 6SM M08/M17 A3036 RMK T10801170 IEM_DS3505
ZBYN,1990-02-25 02:00,ZBYN 250200Z AUTO 33008KT 7SM M06/M18 A3036 RMK T10601180 IEM_DS3505
ZBYN,1990-02-25 03:00,ZBYN 250300Z AUTO 32004KT 7SM M04/M17 A3036 RMK SLP334 T10401174 52002 IEM_DS3505
ZBYN,1990-02-25 05:00,ZBYN 250500Z AUTO 26008KT 7SM M02/M17 A3033 RMK T10201170 IEM_DS3505
ZBYN,1990-02-25 06:00,ZBYN 250600Z AUTO 00000KT 9SM M01/M20 A3030 RMK SLP309 T10101199 4////1092 57020 IEM_DS3505
ZBYN,1990-02-25 07:00,ZBYN 250700Z AUTO 25008KT 7SM 00/M17 A3027 RMK T00001170 IEM_DS3505
ZBYN,1990-02-25 08:00,ZBYN 250800Z AUTO 20006KT 7SM 00/M13 A3027 RMK T00001130 IEM_DS3505
ZBYN,1990-02-25 09:00,ZBYN 250900Z AUTO 18004KT 9SM M01/M13 A3027 RMK SLP296 T10081132 57012 IEM_DS3505
ZBYN,1990-02-25 10:00,ZBYN 251000Z AUTO 23004KT 7SM M02/M12 A3024 RMK T10201120 IEM_DS3505
ZBYN,1990-02-25 11:00,ZBYN 251100Z AUTO 20004KT 7SM M03/M12 A3027 RMK T10301120 IEM_DS3505
ZBYN,1990-02-25 12:00,ZBYN 251200Z AUTO 16004KT 7SM M03/M10 A3030 RMK SLP305 T10291099 52004 IEM_DS3505
ZBYN,1990-02-25 14:00,ZBYN 251400Z AUTO 10006KT 7SM M07/M10 A3033 RMK T10701100 IEM_DS3505
ZBYN,1990-02-25 15:00,ZBYN 251500Z AUTO 11004KT 7SM M05/M10 RMK SLP309 T10521095 52007 IEM_DS3505
ZBYN,1990-02-25 16:00,ZBYN 251600Z AUTO 12006KT 7SM M07/M11 A3033 RMK T10701110 IEM_DS3505
ZBYN,1990-02-25 17:00,ZBYN 251700Z AUTO 11006KT 7SM M08/M12 A3030 RMK T10801120 IEM_DS3505
ZBYN,1990-02-25 18:00,ZBYN 251800Z AUTO 00000KT 7SM M07/M08 A3030 RMK SLP309 T10671083 40008//// 52003 IEM_DS3505
ZBYN,1990-02-25 19:00,ZBYN 251900Z AUTO 00000KT 7SM M09/M12 A3033 RMK T10901120 IEM_DS3505
ZBYN,1990-02-25 20:00,ZBYN 252000Z AUTO 00000KT 7SM M09/M12 RMK T10901120 IEM_DS3505
ZBYN,1990-02-25 21:00,ZBYN 252100Z AUTO 00000KT 7SM M08/M10 A3030 RMK SLP308 T10831098 57004 IEM_DS3505
ZBYN,1990-02-25 23:00,ZBYN 252300Z AUTO 00000KT 7SM M11/M14 A3030 RMK T11101140 IEM_DS3505
ZBYN,1990-02-26 00:00,ZBYN 260000Z AUTO 00000KT 6SM M09/M11 A3030 RMK SLP317 T10881108 52004 IEM_DS3505
ZBYN,1990-02-26 01:00,ZBYN 260100Z AUTO 00000KT 4SM M06/M12 A3033 RMK T10601120 IEM_DS3505
ZBYN,1990-02-26 02:00,ZBYN 260200Z AUTO 00000KT 7SM M04/M11 A3033 RMK T10401110 IEM_DS3505
ZBYN,1990-02-26 03:00,ZBYN 260300Z AUTO 20002KT 6SM M02/M10 A3033 RMK SLP312 T10191097 52003 IEM_DS3505
ZBYN,1990-02-26 05:00,ZBYN 260500Z AUTO 00000KT 7SM 02/M14 A3027 RMK T00201140 IEM_DS3505
ZBYN,1990-02-26 06:00,ZBYN 260600Z AUTO 09002KT 6SM 02/M14 A3024 RMK SLP288 T00191142 4////1093 57018 IEM_DS3505
ZBYN,1990-02-26 07:00,ZBYN 260700Z AUTO 00000KT 7SM 03/M12 A3021 RMK T00301120 IEM_DS3505
ZBYN,1990-02-26 08:00,ZBYN 260800Z AUTO 19004KT 7SM 03/M11 A3021 RMK T00301110 IEM_DS3505
ZBYN,1990-02-26 09:00,ZBYN 260900Z AUTO 22004KT 9SM 03/M13 A3021 RMK SLP274 T00281134 57013 IEM_DS3505
ZBYN,1990-02-26 11:00,ZBYN 261100Z AUTO 25004KT 7SM M01/M09 A3021 RMK T10101090 IEM_DS3505
ZBYN,1990-02-26 12:00,ZBYN 261200Z AUTO 18002KT 9SM M02/M08 RMK T10201081 IEM_DS3505
ZBYN,1990-02-26 14:00,ZBYN 261400Z AUTO 09006KT 7SM M04/M10 A3024 RMK T10401100 IEM_DS3505
ZBYN,1990-02-26 15:00,ZBYN 261500Z AUTO 11002KT 9SM M03/M09 A3024 RMK SLP288 T10341092 52008 IEM_DS3505
ZBYN,1990-02-26 16:00,ZBYN 261600Z AUTO 10004KT 7SM M03/M10 A3024 RMK T10301100 IEM_DS3505
ZBYN,1990-02-26 18:00,ZBYN 261800Z AUTO 00000KT 9SM M04/M07 A3027 RMK SLP288 T10451073 40036//// 52004 IEM_DS3505
ZBYN,1990-02-26 19:00,ZBYN 261900Z AUTO 00000KT 7SM M05/M11 RMK T10501110 IEM_DS3505
ZBYN,1990-02-26 20:00,ZBYN 262000Z AUTO 08004KT 7SM M06/M10 A3027 RMK T10601100 IEM_DS3505
ZBYN,1990-02-26 21:00,ZBYN 262100Z AUTO 34002KT 6SM M05/M09 A3024 RMK SLP279 T10481089 57007 IEM_DS3505
ZBYN,1990-02-27 00:00,ZBYN 270000Z AUTO 32004KT 6SM M05/M10 A3027 RMK SLP301 T10531096 52011 IEM_DS3505
ZBYN,1990-02-27 01:00,ZBYN 270100Z AUTO 00000KT 4SM M04/M09 A3030 RMK T10401090 IEM_DS3505
ZBYN,1990-02-27 02:00,ZBYN 270200Z AUTO 00000KT 4SM 00/M09 A3030 RMK T00001090 IEM_DS3505
ZBYN,1990-02-27 03:00,ZBYN 270300Z AUTO 00000KT 6SM 01/M10 A3030 RMK SLP294 T00121098 52002 IEM_DS3505
ZBYN,1990-02-27 05:00,ZBYN 270500Z AUTO 19006KT 6SM 03/M08 A3027 RMK T00301080 IEM_DS3505
ZBYN,1990-02-27 06:00,ZBYN 270600Z AUTO 20002KT 6SM 03/M08 A3024 RMK SLP274 T00341084 4////1061 57016 IEM_DS3505
ZBYN,1990-02-27 07:00,ZBYN 270700Z AUTO 20004KT 6SM 04/M08 A3021 RMK T00401080 IEM_DS3505
ZBYN,1990-02-27 09:00,ZBYN 270900Z AUTO 20004KT 7SM 04/M09 RMK SLP293 T00401089 52018 IEM_DS3505
ZBYN,1990-02-27 10:00,ZBYN 271000Z AUTO 00000KT 6SM 00/M06 A3021 RMK T00001060 IEM_DS3505
ZBYN,1990-02-27 12:00,ZBYN 271200Z AUTO 11002KT 7SM M01/M10 A3024 RMK SLP292 T10081102 57010 IEM_DS3505
ZBYN,1990-02-27 13:00,ZBYN 271300Z AUTO 09006KT 7SM M01/M06 RMK T10101060 IEM_DS3505
ZBYN,1990-02-27 15:00,ZBYN 271500Z AUTO 22002KT 7SM M02/M09 A3030 RMK SLP299 T10221093 52015 IEM_DS3505
ZBYN,1990-02-27 16:00,ZBYN 271600Z AUTO 11008KT 7SM M02/M05 A3030 RMK T10201050 IEM_DS3505
ZBYN,1990-02-27 17:00,ZBYN 271700Z AUTO 12006KT 7SM M03/M05 A3030 RMK T10301050 IEM_DS3505
ZBYN,1990-02-27 18:00,ZBYN 271800Z AUTO 00000KT 7SM M04/M07 RMK SLP298 T10371067 40049//// 54000 IEM_DS3505
ZBYN,1990-02-27 19:00,ZBYN 271900Z AUTO 00000KT 7SM M06/M09 A3027 RMK T10601090 IEM_DS3505
ZBYN,1990-02-27 20:00,ZBYN 272000Z AUTO 11006KT 7SM M05/M08 A3027 RMK T10501080 IEM_DS3505
ZBYN,1990-02-27 21:00,ZBYN 272100Z AUTO 00000KT 7SM M05/M06 RMK T10501064 57005 IEM_DS3505
ZBYN,1990-02-27 22:00,ZBYN 272200Z AUTO 00000KT 6SM M06/M09 A3027 RMK T10601090 IEM_DS3505
ZBYN,1990-02-27 23:00,ZBYN 272300Z AUTO 06004KT 4SM M06/M08 A3027 RMK T10601080 IEM_DS3505
ZBYN,1990-02-28 00:00,ZBYN 280000Z AUTO 00000KT 4SM M04/M06 RMK SLP301 T10421058 54000 IEM_DS3505
ZBYN,1990-02-28 03:00,ZBYN 280300Z AUTO 32002KT 4SM 01/M06 A3030 RMK SLP299 T00131060 52005 IEM_DS3505
ZBYN,1990-02-28 04:00,ZBYN 280400Z AUTO 14004KT 4SM 04/M05 A3030 RMK T00401050 IEM_DS3505
ZBYN,1990-02-28 05:00,ZBYN 280500Z AUTO 24008KT 6SM 05/M06 A3030 RMK T00501060 IEM_DS3505
ZBYN,1990-02-28 06:00,ZBYN 280600Z AUTO 18006KT 4SM 06/M06 A3024 RMK SLP268 T00551062 4////1057 57024 IEM_DS3505
ZBYN,1990-02-28 07:00,ZBYN 280700Z AUTO 25004KT 7SM 07/M06 A3024 RMK T00701060 IEM_DS3505
ZBYN,1990-02-28 08:00,ZBYN 280800Z AUTO 00000KT 7SM 07/M04 A3021 RMK T00701040 IEM_DS3505
ZBYN,1990-02-28 09:00,ZBYN 280900Z AUTO 18004KT 6SM 06/M06 A3024 RMK SLP260 T00601062 57008 IEM_DS3505
ZBYN,1990-02-28 10:00,ZBYN 281000Z AUTO 19002KT 7SM 03/M03 A3024 RMK T00301030 IEM_DS3505
ZBYN,1990-02-28 12:00,ZBYN 281200Z AUTO 18004KT 6SM 02/M03 A3027 RMK SLP275 T00181030 52008 IEM_DS3505
ZBYN,1990-02-28 13:00,ZBYN 281300Z AUTO 11004KT 7SM 00/M04 A3027 RMK T00001040 IEM_DS3505
ZBYN,1990-02-28 14:00,ZBYN 281400Z AUTO 12004KT 6SM 01/M04 A3027 RMK T00101040 IEM_DS3505
ZBYN,1990-02-28 15:00,ZBYN 281500Z AUTO 14006KT 6SM 01/M03 RMK SLP280 T00121034 52012 IEM_DS3505
ZBYN,1990-02-28 17:00,ZBYN 281700Z AUTO 13004KT 6SM 00/M03 A3024 RMK T00001030 IEM_DS3505
ZBYN,1990-02-28 18:00,ZBYN 281800Z AUTO 16002KT 4SM 00/M03 A3024 RMK SLP269 T00001029 40071//// 57005 IEM_DS3505
ZBYN,1990-02-28 20:00,ZBYN 282000Z AUTO 11004KT 5SM M01/M04 A3027 RMK T10101040 IEM_DS3505
ZBYN,1990-02-28 21:00,ZBYN 282100Z AUTO 00000KT 5SM M01/M03 A3027 RMK SLP266 T10071034 57003 IEM_DS3505
ZBYN,1990-02-28 22:00,ZBYN 282200Z AUTO 12004KT 4SM M01/M04 A3024 RMK T10101040 IEM_DS3505
ZBYN,1990-02-28 23:00,ZBYN 282300Z AUTO 00000KT 2 1/2SM M01/M04 A3027 RMK T10101040 IEM_DS3505
ZBYN,1990-03-01 00:00,ZBYN 010000Z AUTO 00000KT 4SM M01/M04 A3025 RMK SLP280 T10091036 52006 IEM_DS3505
ZBYN,1990-03-01 01:00,ZBYN 010100Z AUTO 12004KT 2 1/2SM 00/M04 A3030 RMK T00001040 IEM_DS3505
ZBYN,1990-03-01 02:00,ZBYN 010200Z AUTO 19006KT 6SM 03/M05 RMK T00301050 IEM_DS3505
ZBYN,1990-03-01 03:00,ZBYN 010300Z AUTO 00000KT 6SM 04/M04 A3027 RMK SLP280 T00381042 52006 IEM_DS3505
ZBYN,1990-03-01 04:00,ZBYN 010400Z AUTO 00000KT 6SM 06/M04 A3021 RMK T00601040 IEM_DS3505
ZBYN,1990-03-01 05:00,ZBYN 010500Z AUTO 00000KT 6SM 08/M04 A3018 RMK T00801040 IEM_DS3505
ZBYN,1990-03-01 06:00,ZBYN 010600Z AUTO 00000KT 6SM 08/M04 A3018 RMK SLP242 T00791042 4////1014 57030 IEM_DS3505
ZBYN,1990-03-01 07:00,ZBYN 010700Z AUTO 21004KT 6SM 09/M04 A3015 RMK T00901040 IEM_DS3505
ZBYN,1990-03-01 08:00,ZBYN 010800Z AUTO 00000KT 6SM 08/M05 A3015 RMK T00801050 IEM_DS3505
ZBYN,1990-03-01 09:00,ZBYN 010900Z AUTO 11002KT 9SM 08/M05 A3015 RMK SLP231 T00791050 57011 IEM_DS3505
ZBYN,1990-03-01 10:00,ZBYN 011000Z AUTO 20008KT 6SM 07/M03 A3015 RMK T00701030 IEM_DS3505
ZBYN,1990-03-01 11:00,ZBYN 011100Z AUTO 12004KT 2 1/2SM 00/M04 RMK T00001040 IEM_DS3505
ZBYN,1990-03-01 12:00,ZBYN 011200Z AUTO 11008KT 7SM 04/M03 A3018 RMK SLP250 T00441033 52012 IEM_DS3505
ZBYN,1990-03-01 13:00,ZBYN 011300Z AUTO 08008KT 4SM 03/M03 RMK T00301030 IEM_DS3505
ZBYN,1990-03-01 15:00,ZBYN 011500Z AUTO 22002KT 6SM 02/M01 A3020 RMK SLP251 T00241014 52005 IEM_DS3505
ZBYN,1990-03-01 16:00,ZBYN 011600Z AUTO 08008KT 4SM 03/M02 RMK T00301020 IEM_DS3505
ZBYN,1990-03-01 18:00,ZBYN 011800Z AUTO 00000KT 5SM 01/M02 A3020 RMK SLP248 T00121015 40095//// 52002 IEM_DS3505
ZBYN,1990-03-01 19:00,ZBYN 011900Z AUTO 09006KT 4SM 02/M02 RMK T00201020 IEM_DS3505
ZBYN,1990-03-01 20:00,ZBYN 012000Z AUTO 09004KT 6SM 01/M02 A3018 RMK T00101020 IEM_DS3505
ZBYN,1990-03-01 21:00,ZBYN 012100Z AUTO 10004KT 5SM 00/M02 A3018 RMK SLP246 T00021015 57004 IEM_DS3505
ZBYN,1990-03-01 22:00,ZBYN 012200Z AUTO 00000KT 6SM 00/M02 A3018 RMK T00001020 IEM_DS3505
ZBYN,1990-03-01 23:00,ZBYN 012300Z AUTO 00000KT 4SM 00/M02 A3021 RMK T00001020 IEM_DS3505
ZBYN,1990-03-02 00:00,ZBYN 020000Z AUTO 00000KT 5SM M00/M02 A3021 RMK SLP262 T10041018 52008 IEM_DS3505
ZBYN,1990-03-02 01:00,ZBYN 020100Z AUTO 00000KT 1 1/2SM 01/M01 A3024 RMK T00101010 IEM_DS3505
ZBYN,1990-03-02 02:00,ZBYN 020200Z AUTO 00000KT 1 1/2SM 03/M01 A3024 RMK T00301010 IEM_DS3505
ZBYN,1990-03-02 03:00,ZBYN 020300Z AUTO 18002KT 5SM 05/M01 A3024 RMK SLP255 T00541007 54000 IEM_DS3505
ZBYN,1990-03-02 04:00,ZBYN 020400Z AUTO 23008KT 2SM 07/M01 A3021 RMK T00701010 IEM_DS3505
ZBYN,1990-03-02 05:21,ZBYN 020521Z AUTO 18006KT 3SM 09/M01 A3018 RMK T00901010 IEM_DS3505
ZBYN,1990-03-02 05:23,ZBYN 020523Z AUTO 18006KT 3SM 09/M01 A3018 RMK T00901010 IEM_DS3505
ZBYN,1990-03-02 06:00,ZBYN 020600Z AUTO 25006KT 5SM 09/M02 A3016 RMK SLP232 T00901015 4////1007 IEM_DS3505
ZBYN,1990-03-02 06:06,ZBYN 020606Z AUTO 34006KT 3SM RMK IEM_DS3505
ZBYN,1990-03-02 06:18,ZBYN 020618Z AUTO 21006KT 5SM 09/M01 A3015 RMK T00901010 IEM_DS3505
ZBYN,1990-03-02 06:20,ZBYN 020620Z AUTO 21006KT 5SM 09/M01 A3015 RMK T00901010 IEM_DS3505
ZBYN,1990-03-02 07:11,ZBYN 020711Z AUTO 23008KT 6SM 10/M01 A3012 RMK T01001010 IEM_DS3505
ZBYN,1990-03-02 07:16,ZBYN 020716Z AUTO 23008KT 6SM 10/M01 A3012 RMK T01001010 IEM_DS3505
ZBYN,1990-03-02 09:00,ZBYN 020900Z AUTO 20004KT 5SM 09/M02 A3012 RMK SLP220 T00911020 57012 IEM_DS3505
ZBYN,1990-03-02 09:16,ZBYN 020916Z AUTO 26006KT 6SM 10/M02 A3012 RMK T01001020 IEM_DS3505
ZBYN,1990-03-02 11:10,ZBYN 021110Z AUTO 26006KT 6SM 10/M02 A3012 RMK T01001020 IEM_DS3505
ZBYN,1990-03-02 11:23,ZBYN 021123Z AUTO 25006KT 6SM 06/00 A3015 RMK T00600000 IEM_DS3505
ZBYN,1990-03-02 11:30,ZBYN 021130Z AUTO 25006KT 6SM 06/00 A3015 RMK T00600000 IEM_DS3505
ZBYN,1990-03-02 12:00,ZBYN 021200Z AUTO 00000KT 6SM 05/00 A3018 RMK SLP250 T00500000 52019 IEM_DS3505
ZBYN,1990-03-02 13:00,ZBYN 021300Z AUTO 11004KT 6SM 03/M02 A3018 RMK T00301020 IEM_DS3505
ZBYN,1990-03-02 14:00,ZBYN 021400Z AUTO 00000KT 4SM 01/M01 A3021 RMK T00101010 IEM_DS3505
ZBYN,1990-03-02 15:00,ZBYN 021500Z AUTO 00000KT 6SM 02/M01 A3021 RMK SLP253 T00251012 52008 IEM_DS3505
ZBYN,1990-03-02 17:00,ZBYN 021700Z AUTO 09006KT 6SM 00/M03 A3021 RMK T00001030 IEM_DS3505
ZBYN,1990-03-02 18:00,ZBYN 021800Z AUTO 00000KT 6SM 01/M02 A3021 RMK SLP254 T00141022 40095//// 52005 IEM_DS3505
ZBYN,1990-03-02 21:00,ZBYN 022100Z AUTO 36002KT 6SM M01/M03 A3021 RMK SLP251 T10071030 57006 IEM_DS3505
ZBYN,1990-03-02 22:00,ZBYN 022200Z AUTO 11004KT 2 1/2SM M03/M04 A3021 RMK T10301040 IEM_DS3505
ZBYN,1990-03-02 23:00,ZBYN 022300Z AUTO 10004KT 2 1/2SM M03/M05 A3021 RMK T10301050 IEM_DS3505
ZBYN,1990-03-03 00:00,ZBYN 030000Z AUTO 00000KT 6SM M02/M04 A3024 RMK SLP267 T10181036 52007 IEM_DS3505
ZBYN,1990-03-03 01:00,ZBYN 030100Z AUTO 00000KT 2SM 00/M03 A3024 RMK T00001030 IEM_DS3505
ZBYN,1990-03-03 02:00,ZBYN 030200Z AUTO 01004KT 2SM 04/M05 A3024 RMK T00401050 IEM_DS3505
ZBYN,1990-03-03 03:00,ZBYN 030300Z AUTO 34006KT 6SM 06/M06 A3024 RMK SLP262 T00611061 52004 IEM_DS3505
ZBYN,1990-03-03 04:00,ZBYN 030400Z AUTO 32008KT 6SM 08/M07 A3024 RMK T00801070 IEM_DS3505
ZBYN,1990-03-03 05:00,ZBYN 030500Z AUTO 29006KT 6SM 08/M06 RMK T00801060 IEM_DS3505
ZBYN,1990-03-03 06:00,ZBYN 030600Z AUTO 22002KT 6SM 09/M04 A3018 RMK SLP239 T00921044 4////1023 57018 IEM_DS3505
ZBYN,1990-03-03 07:00,ZBYN 030700Z AUTO 00000KT 6SM A3015 RMK IEM_DS3505
ZBYN,1990-03-03 08:00,ZBYN 030800Z AUTO 23006KT 6SM 10/M04 A3012 RMK T01001040 IEM_DS3505
ZBYN,1990-03-03 09:00,ZBYN 030900Z AUTO 36006KT 6SM 09/M07 A3012 RMK SLP228 T00901073 57014 IEM_DS3505
ZBYN,1990-03-03 10:00,ZBYN 031000Z AUTO 34008KT 6SM 08/M08 A3012 RMK T00801080 IEM_DS3505
ZBYN,1990-03-03 11:00,ZBYN 031100Z AUTO 01006KT 6SM 06/M07 A3015 RMK T00601070 IEM_DS3505
ZBYN,1990-03-03 12:00,ZBYN 031200Z AUTO 36006KT 6SM 06/M13 A3018 RMK SLP246 T00581128 52010 IEM_DS3505
ZBYN,1990-03-03 13:00,ZBYN 031300Z AUTO 34010KT 7SM 04/M11 A3018 RMK T00401110 IEM_DS3505
ZBYN,1990-03-03 14:00,ZBYN 031400Z AUTO 35008KT 7SM 04/M11 A3021 RMK T00401110 IEM_DS3505
ZBYN,1990-03-03 15:00,ZBYN 031500Z AUTO 34004KT 7SM 02/M09 A3021 RMK SLP250 T00241087 52011 IEM_DS3505
ZBYN,1990-03-03 17:00,ZBYN 031700Z AUTO 35004KT 7SM 03/M09 A3021 RMK T00301090 IEM_DS3505
ZBYN,1990-03-03 18:00,ZBYN 031800Z AUTO 36006KT 7SM 03/M11 A3021 RMK SLP244 T00321108 40097//// 54000 IEM_DS3505
ZBYN,1990-03-03 19:00,ZBYN 031900Z AUTO 34008KT 7SM 02/M08 A3018 RMK T00201080 IEM_DS3505
ZBYN,1990-03-03 20:00,ZBYN 032000Z AUTO 36008KT 6SM 03/M09 A3018 RMK T00301090 IEM_DS3505
ZBYN,1990-03-03 21:00,ZBYN 032100Z AUTO 36006KT 6SM 02/M10 A3018 RMK SLP244 T00221104 57002 IEM_DS3505
ZBYN,1990-03-03 22:00,ZBYN 032200Z AUTO 36010KT 6SM 01/M09 A3018 RMK T00101090 IEM_DS3505
ZBYN,1990-03-03 23:00,ZBYN 032300Z AUTO 36014KT 2SM M01/M02 A3018 RMK T10101020 IEM_DS3505
ZBYN,1990-03-04 00:00,ZBYN 040000Z AUTO 36006KT 11SM 01/M11 A3021 RMK SLP253 T00131112 52002 IEM_DS3505
ZBYN,1990-03-04 01:00,ZBYN 040100Z AUTO 36008KT 6SM 01/M08 A3024 RMK T00101080 IEM_DS3505
ZBYN,1990-03-04 02:00,ZBYN 040200Z AUTO 06004KT 6SM 03/M08 A3021 RMK T00301080 IEM_DS3505
ZBYN,1990-03-04 03:00,ZBYN 040300Z AUTO 36010KT 12SM 04/M09 A3021 RMK SLP250 T00381092 57004 IEM_DS3505
ZBYN,1990-03-04 04:00,ZBYN 040400Z AUTO 05017KT 6SM 05/M13 A3021 RMK T00501130 IEM_DS3505
ZBYN,1990-03-04 05:00,ZBYN 040500Z AUTO 36010KT 7SM 06/M14 A3018 RMK T00601140 IEM_DS3505
ZBYN,1990-03-04 06:00,ZBYN 040600Z AUTO 04006KT 12SM 04/M09 A3015 RMK SLP237 T00401093 4////0010 57010 IEM_DS3505
ZBYN,1990-03-04 08:00,ZBYN 040800Z AUTO 35012KT 7SM 06/M15 A3012 RMK T00601150 IEM_DS3505
ZBYN,1990-03-04 09:00,ZBYN 040900Z AUTO 02017KT 7SM 05/M16 A3012 RMK T00501160 IEM_DS3505
ZBYN,1990-03-04 10:00,ZBYN 041000Z AUTO 03012KT 7SM 04/M17 A3012 RMK T00401170 IEM_DS3505
ZBYN,1990-03-04 11:00,ZBYN 041100Z AUTO 02016KT 7SM 03/M19 A3018 RMK T00301190 IEM_DS3505
ZBYN,1990-03-04 12:00,ZBYN 041200Z AUTO 36006KT 12SM 02/M14 A3021 RMK SLP256 T00201142 52018 IEM_DS3505
ZBYN,1990-03-04 13:00,ZBYN 041300Z AUTO 35004KT 7SM 00/M12 A3024 RMK T00001120 IEM_DS3505
ZBYN,1990-03-04 14:00,ZBYN 041400Z AUTO 00000KT 7SM M01/M12 A3024 RMK T10101120 IEM_DS3505
ZBYN,1990-03-04 15:00,ZBYN 041500Z AUTO 32006KT 12SM M00/M12 A3022 RMK SLP265 T10041123 52008 IEM_DS3505
ZBYN,1990-03-04 16:00,ZBYN 041600Z AUTO 00000KT 7SM M01/M12 A3024 RMK T10101120 IEM_DS3505
ZBYN,1990-03-04 17:00,ZBYN 041700Z AUTO 32010KT 7SM M03/M12 A3024 RMK T10301120 IEM_DS3505
ZBYN,1990-03-04 18:00,ZBYN 041800Z AUTO 32004KT 12SM M01/M12 A3024 RMK SLP267 T10121122 40061//// 52001 IEM_DS3505
ZBYN,1990-03-04 19:00,ZBYN 041900Z AUTO 00000KT 7SM M03/M11 A3024 RMK T10301110 IEM_DS3505
ZBYN,1990-03-04 20:00,ZBYN 042000Z AUTO 33004KT 7SM M04/M11 A3021 RMK T10401110 IEM_DS3505
ZBYN,1990-03-04 21:00,ZBYN 042100Z AUTO 34004KT 12SM M01/M13 A3021 RMK SLP262 T10141132 57005 IEM_DS3505
ZBYN,1990-03-04 23:00,ZBYN 042300Z AUTO 24006KT 7SM M05/M11 A3021 RMK T10501110 IEM_DS3505
ZBYN,1990-03-05 00:00,ZBYN 050000Z AUTO 27002KT 9SM M04/M11 A3021 RMK SLP274 T10411107 52003 IEM_DS3505
ZBYN,1990-03-05 01:00,ZBYN 050100Z AUTO 00000KT 7SM 01/M10 A3024 RMK T00101100 IEM_DS3505
ZBYN,1990-03-05 02:00,ZBYN 050200Z AUTO 00000KT 7SM 03/M13 A3024 RMK T00301130 IEM_DS3505
ZBYN,1990-03-05 03:00,ZBYN 050300Z AUTO 16006KT 7SM 04/M12 A3021 RMK SLP259 T00421116 57004 IEM_DS3505
ZBYN,1990-03-05 04:00,ZBYN 050400Z AUTO 00000KT 7SM 05/M11 A3018 RMK T00501110 IEM_DS3505
ZBYN,1990-03-05 05:00,ZBYN 050500Z AUTO 25004KT 7SM 07/M09 A3018 RMK T00701090 IEM_DS3505
ZBYN,1990-03-05 06:00,ZBYN 050600Z AUTO 18006KT 7SM 08/M09 A3012 RMK SLP226 T00781088 4////1049 57025 IEM_DS3505
ZBYN,1990-03-05 07:00,ZBYN 050700Z AUTO 24006KT 7SM 09/M08 A3009 RMK T00901080 IEM_DS3505
ZBYN,1990-03-05 09:00,ZBYN 050900Z AUTO 20004KT 7SM 09/M09 A3006 RMK SLP206 T00901088 57017 IEM_DS3505
ZBYN,1990-03-05 10:00,ZBYN 051000Z AUTO 23004KT 7SM 08/M06 A3006 RMK T00801060 IEM_DS3505
ZBYN,1990-03-05 11:00,ZBYN 051100Z AUTO 06004KT 7SM 06/M05 A3009 RMK T00601050 IEM_DS3505
ZBYN,1990-03-05 12:00,ZBYN 051200Z AUTO 00000KT 12SM 04/M00 A3009 RMK SLP229 T00361003 52008 IEM_DS3505
ZBYN,1990-03-05 13:00,ZBYN 051300Z AUTO 00000KT 7SM 01/M07 A3012 RMK T00101070 IEM_DS3505
ZBYN,1990-03-05 15:00,ZBYN 051500Z AUTO 34004KT 12SM 04/M09 A3015 RMK SLP221 T00421094 52007 IEM_DS3505
ZBYN,1990-03-05 16:00,ZBYN 051600Z AUTO 00000KT 7SM M01/M07 RMK T10101070 IEM_DS3505
ZBYN,1990-03-05 17:00,ZBYN 051700Z AUTO 00000KT 7SM M02/M07 RMK T10201070 IEM_DS3505
ZBYN,1990-03-05 18:00,ZBYN 051800Z AUTO 11004KT 12SM M02/M07 A3016 RMK SLP240 T10181072 40093//// 52014 IEM_DS3505
ZBYN,1990-03-05 21:00,ZBYN 052100Z AUTO 00000KT 9SM M04/M06 A2999 RMK SLP236 T10431060 57006 IEM_DS3505
ZBYN,1990-03-05 22:00,ZBYN 052200Z AUTO 00000KT 7SM M05/M10 A3015 RMK T10501100 IEM_DS3505
ZBYN,1990-03-05 23:00,ZBYN 052300Z AUTO 07004KT 7SM M06/M10 RMK T10601100 IEM_DS3505
ZBYN,1990-03-06 00:00,ZBYN 060000Z AUTO 00000KT 6SM M04/M06 A3018 RMK SLP254 T10371057 52008 IEM_DS3505
ZBYN,1990-03-06 01:00,ZBYN 060100Z AUTO 00000KT 7SM 00/M08 A3018 RMK T00001080 IEM_DS3505
ZBYN,1990-03-06 02:00,ZBYN 060200Z AUTO 00000KT 5SM 05/M08 A3018 RMK T00501080 IEM_DS3505
ZBYN,1990-03-06 03:00,ZBYN 060300Z AUTO 25004KT 4SM 07/M08 A3018 RMK SLP232 T00721085 57001 IEM_DS3505
ZBYN,1990-03-06 04:00,ZBYN 060400Z AUTO 23010KT 6SM 08/M10 A3015 RMK T00801100 IEM_DS3505
ZBYN,1990-03-06 05:00,ZBYN 060500Z AUTO 23006KT 6SM 10/M07 A3012 RMK T01001070 IEM_DS3505
ZBYN,1990-03-06 06:00,ZBYN 060600Z AUTO 25006KT 5SM 10/M10 A3009 RMK SLP208 T01051096 4////1052 57026 IEM_DS3505
ZBYN,1990-03-06 07:00,ZBYN 060700Z AUTO 28008KT 7SM 11/M07 A3006 RMK T01101070 IEM_DS3505
ZBYN,1990-03-06 08:00,ZBYN 060800Z AUTO 26008KT 7SM 12/M08 A3006 RMK T01201080 IEM_DS3505
ZBYN,1990-03-06 09:00,ZBYN 060900Z AUTO 22006KT 9SM 11/M08 A3006 RMK SLP207 T01071081 57005 IEM_DS3505
ZBYN,1990-03-06 11:00,ZBYN 061100Z AUTO 24006KT 7SM 07/M06 A3009 RMK T00701060 IEM_DS3505
ZBYN,1990-03-06 12:00,ZBYN 061200Z AUTO 00000KT 12SM 05/M06 A3009 RMK SLP231 T00541059 52014 IEM_DS3505
ZBYN,1990-03-06 13:00,ZBYN 061300Z AUTO 09006KT 7SM 02/M06 A3015 RMK T00201060 IEM_DS3505
ZBYN,1990-03-06 15:00,ZBYN 061500Z AUTO 00000KT 9SM M00/M04 A3018 RMK SLP248 T10021044 52024 IEM_DS3505
ZBYN,1990-03-06 16:00,ZBYN 061600Z AUTO 00000KT 7SM M02/M07 A3021 RMK T10201070 IEM_DS3505
ZBYN,1990-03-06 17:00,ZBYN 061700Z AUTO 10004KT 7SM M03/M06 RMK T10301060 IEM_DS3505
ZBYN,1990-03-06 18:00,ZBYN 061800Z AUTO 36004KT 7SM 01/M07 A3021 RMK SLP248 T00131066 40121//// 52008 IEM_DS3505
ZBYN,1990-03-06 19:00,ZBYN 061900Z AUTO 09004KT 7SM M03/M08 A3024 RMK T10301080 IEM_DS3505
ZBYN,1990-03-06 20:00,ZBYN 062000Z AUTO 00000KT 7SM M05/M10 A3024 RMK T10501100 IEM_DS3505
ZBYN,1990-03-06 21:00,ZBYN 062100Z AUTO 10004KT 7SM M05/M10 A3024 RMK T10501100 IEM_DS3505
ZBYN,1990-03-06 22:00,ZBYN 062200Z AUTO 00000KT 7SM M05/M10 A3027 RMK T10501100 IEM_DS3505
ZBYN,1990-03-07 00:00,ZBYN 070000Z AUTO 00000KT 6SM M02/M07 A3030 RMK SLP290 T10221067 52020 IEM_DS3505
ZBYN,1990-03-07 01:00,ZBYN 070100Z AUTO 00000KT 6SM 01/M07 A3033 RMK T00101070 IEM_DS3505
ZBYN,1990-03-07 02:00,ZBYN 070200Z AUTO 00000KT 6SM 06/M08 A3033 RMK T00601080 IEM_DS3505
ZBYN,1990-03-07 03:00,ZBYN 070300Z AUTO 32002KT 7SM 08/M09 A3033 RMK SLP292 T00781089 52009 IEM_DS3505
ZBYN,1990-03-07 06:00,ZBYN 070600Z AUTO 10002KT 9SM 12/M08 A3024 RMK SLP253 T01221084 4////1039 57026 IEM_DS3505
ZBYN,1990-03-07 07:00,ZBYN 070700Z AUTO 00000KT 6SM 12/M10 RMK T01201100 IEM_DS3505
ZBYN,1990-03-07 08:00,ZBYN 070800Z AUTO 00000KT 6SM 12/M09 A3021 RMK T01201090 IEM_DS3505
ZBYN,1990-03-07 09:00,ZBYN 070900Z AUTO 18004KT 12SM 11/M07 A3021 RMK SLP245 T01131069 57012 IEM_DS3505
ZBYN,1990-03-07 10:00,ZBYN 071000Z AUTO 22006KT 6SM 10/M05 A3021 RMK T01001050 IEM_DS3505
ZBYN,1990-03-07 11:00,ZBYN 071100Z AUTO 10006KT 6SM 08/M04 A3021 RMK T00801040 IEM_DS3505
ZBYN,1990-03-07 12:00,ZBYN 071200Z AUTO 11006KT 9SM 07/M04 A3021 RMK SLP259 T00701038 52004 IEM_DS3505
ZBYN,1990-03-07 13:00,ZBYN 071300Z AUTO 00000KT 6SM 07/M04 A3024 RMK T00701040 IEM_DS3505
ZBYN,1990-03-07 14:00,ZBYN 071400Z AUTO 11010KT 6SM 06/M05 A3024 RMK T00601050 IEM_DS3505
ZBYN,1990-03-07 15:00,ZBYN 071500Z AUTO 14006KT 7SM 05/M03 A3024 RMK SLP255 T00481031 52009 IEM_DS3505
ZBYN,1990-03-07 16:00,ZBYN 071600Z AUTO 10008KT 6SM 05/M04 A3024 RMK T00501040 IEM_DS3505
ZBYN,1990-03-07 17:00,ZBYN 071700Z AUTO 11008KT 6SM 05/M05 A3024 RMK T00501050 IEM_DS3505
ZBYN,1990-03-07 18:00,ZBYN 071800Z AUTO 14002KT 7SM 03/M02 A3023 RMK SLP248 T00331018 40128//// 57002 IEM_DS3505
ZBYN,1990-03-07 19:00,ZBYN 071900Z AUTO 00000KT 6SM 03/00 A3024 RMK T00300000 IEM_DS3505
ZBYN,1990-03-07 20:00,ZBYN 072000Z AUTO 12006KT 6SM 03/M01 A3024 RMK T00301010 IEM_DS3505
ZBYN,1990-03-07 21:00,ZBYN 072100Z AUTO 11004KT 7SM 01/M01 A3024 RMK SLP250 T00061008 57004 IEM_DS3505
ZBYN,1990-03-07 22:00,ZBYN 072200Z AUTO 15002KT 6SM 01/00 A3024 RMK T00100000 IEM_DS3505
ZBYN,1990-03-07 23:00,ZBYN 072300Z AUTO 00000KT 7SM 01/00 A3024 RMK T00100000 IEM_DS3505
ZBYN,1990-03-08 00:00,ZBYN 080000Z AUTO 00000KT 6SM 00/M00 A3027 RMK SLP267 T00021003 52008 IEM_DS3505
ZBYN,1990-03-08 02:00,ZBYN 080200Z AUTO 00000KT 3SM 03/01 A3027 RMK T00300010 IEM_DS3505
ZBYN,1990-03-08 03:00,ZBYN 080300Z AUTO 14004KT 6SM 06/02 A3027 RMK SLP269 T00560015 52007 IEM_DS3505
ZBYN,1990-03-08 04:00,ZBYN 080400Z AUTO 22004KT 7SM 07/00 A3027 RMK T00700000 IEM_DS3505
ZBYN,1990-03-08 05:00,ZBYN 080500Z AUTO 15004KT 7SM 09/M01 A3021 RMK T00901010 IEM_DS3505
ZBYN,1990-03-08 06:00,ZBYN 080600Z AUTO 20006KT 11SM 10/M02 A3020 RMK SLP239 T01011022 4////1009 57023 IEM_DS3505
ZBYN,1990-03-08 07:00,ZBYN 080700Z AUTO 17004KT 7SM 11/M04 A3018 RMK T01101040 IEM_DS3505
ZBYN,1990-03-08 09:00,ZBYN 080900Z AUTO 20006KT 16SM 10/M05 A3015 RMK SLP223 T01041047 57018 IEM_DS3505
ZBYN,1990-03-08 10:00,ZBYN 081000Z AUTO 22006KT 7SM 10/M04 A3015 RMK T01001040 IEM_DS3505
ZBYN,1990-03-08 11:00,ZBYN 081100Z AUTO 27004KT 7SM 07/M04 A3015 RMK T00701040 IEM_DS3505
ZBYN,1990-03-08 12:00,ZBYN 081200Z AUTO 32004KT 12SM 06/M08 A3018 RMK SLP240 T00651075 52014 IEM_DS3505
ZBYN,1990-03-08 13:00,ZBYN 081300Z AUTO 10004KT 7SM 04/M05 A3021 RMK T00401050 IEM_DS3505
ZBYN,1990-03-08 14:00,ZBYN 081400Z AUTO 08006KT 7SM 02/M05 A3021 RMK T00201050 IEM_DS3505
ZBYN,1990-03-08 15:00,ZBYN 081500Z AUTO 14004KT 12SM 01/M06 A3024 RMK SLP252 T00091059 52005 IEM_DS3505
ZBYN,1990-03-08 16:00,ZBYN 081600Z AUTO 09006KT 7SM 00/M06 RMK T00001060 IEM_DS3505
ZBYN,1990-03-08 18:00,ZBYN 081800Z AUTO 14004KT 12SM M00/M06 RMK SLP253 T10051059 40114//// 52006 IEM_DS3505
ZBYN,1990-03-08 20:00,ZBYN 082000Z AUTO 15004KT 7SM M02/M07 A3021 RMK T10201070 IEM_DS3505
ZBYN,1990-03-08 21:00,ZBYN 082100Z AUTO 00000KT 9SM M03/M05 A3021 RMK SLP252 T10291052 57004 IEM_DS3505
ZBYN,1990-03-08 22:00,ZBYN 082200Z AUTO 10006KT 7SM M03/M07 A3021 RMK T10301070 IEM_DS3505
ZBYN,1990-03-08 23:00,ZBYN 082300Z AUTO 10006KT 7SM M03/M07 A3021 RMK T10301070 IEM_DS3505
ZBYN,1990-03-09 00:00,ZBYN 090000Z AUTO 34004KT 6SM M01/M05 A3021 RMK SLP262 T10141052 52005 IEM_DS3505
ZBYN,1990-03-09 01:00,ZBYN 090100Z AUTO 00000KT 3SM 02/M04 A3024 RMK T00201040 IEM_DS3505
ZBYN,1990-03-09 02:00,ZBYN 090200Z AUTO 13004KT 7SM 07/M08 A3024 RMK T00701080 IEM_DS3505
ZBYN,1990-03-09 03:00,ZBYN 090300Z AUTO 14002KT 6SM 09/M04 A3024 RMK SLP252 T00871037 57002 IEM_DS3505
ZBYN,1990-03-09 04:00,ZBYN 090400Z AUTO 17004KT 7SM 11/M06 A3021 RMK T01101060 IEM_DS3505
ZBYN,1990-03-09 05:00,ZBYN 090500Z AUTO 20008KT 7SM 14/M06 A3018 RMK T01401060 IEM_DS3505
ZBYN,1990-03-09 06:00,ZBYN 090600Z AUTO 16008KT 6SM 14/M05 A3011 RMK SLP210 T01421053 4////1035 57032 IEM_DS3505
ZBYN,1990-03-09 07:00,ZBYN 090700Z AUTO 15006KT 6SM 15/M05 RMK T01501050 IEM_DS3505
ZBYN,1990-03-09 08:00,ZBYN 090800Z AUTO 20006KT 6SM 15/M04 A3006 RMK T01501040 IEM_DS3505
ZBYN,1990-03-09 09:00,ZBYN 090900Z AUTO 20023KT 6SM 14/M01 A3003 RMK SLP186 T01451014 57025 IEM_DS3505
ZBYN,1990-03-09 12:00,ZBYN 091200Z AUTO 00000KT 7SM 08/00 A3006 RMK SLP200 T00840002 52008 IEM_DS3505
ZBYN,1990-03-09 13:00,ZBYN 091300Z AUTO 09008KT 7SM 09/M02 A3006 RMK T00901020 IEM_DS3505
ZBYN,1990-03-09 15:00,ZBYN 091500Z AUTO 11006KT 7SM 06/M02 A3006 RMK SLP192 T00571019 52004 IEM_DS3505
ZBYN,1990-03-09 16:00,ZBYN 091600Z AUTO 05004KT 6SM 04/M01 A3006 RMK T00401010 IEM_DS3505
ZBYN,1990-03-09 17:00,ZBYN 091700Z AUTO 11006KT 6SM 05/M01 RMK T00501010 IEM_DS3505
ZBYN,1990-03-09 18:00,ZBYN 091800Z AUTO 25002KT 7SM 07/00 A3007 RMK SLP181 T00660002 40154//// 54000 IEM_DS3505
ZBYN,1990-03-09 19:00,ZBYN 091900Z AUTO 09008KT 6SM 04/00 A3006 RMK T00400000 IEM_DS3505
ZBYN,1990-03-09 20:00,ZBYN 092000Z AUTO 11008KT 6SM 05/01 A3003 RMK T00500010 IEM_DS3505
ZBYN,1990-03-09 22:00,ZBYN 092200Z AUTO 13010KT 6SM 06/01 A3003 RMK T00600010 IEM_DS3505
ZBYN,1990-03-09 23:00,ZBYN 092300Z AUTO 08006KT 6SM 04/01 A3003 RMK T00400010 IEM_DS3505
ZBYN,1990-03-10 00:00,ZBYN 100000Z AUTO 00000KT 5SM 03/01 A3003 RMK SLP191 T00340009 52010 IEM_DS3505
ZBYN,1990-03-10 01:00,ZBYN 100100Z AUTO 00000KT 6SM 07/03 A3009 RMK T00700030 IEM_DS3505
ZBYN,1990-03-10 02:00,ZBYN 100200Z AUTO 00000KT 7SM 10/02 A3009 RMK T01000020 IEM_DS3505
ZBYN,1990-03-10 03:00,ZBYN 100300Z AUTO 18004KT 6SM 11/03 A3009 RMK SLP190 T01070027 52006 IEM_DS3505
ZBYN,1990-03-10 04:00,ZBYN 100400Z AUTO 20006KT 7SM 14/03 A3006 RMK T01400030 IEM_DS3505
ZBYN,1990-03-10 05:00,ZBYN 100500Z AUTO 23008KT 6SM 16/00 A3000 RMK T01600000 IEM_DS3505
ZBYN,1990-03-10 05:56,ZBYN 100556Z AUTO 23008KT 6SM 16/00 A3000 RMK T01600000 IEM_DS3505
ZBYN,1990-03-10 06:00,ZBYN 100600Z AUTO 20010KT 6SM 16/M00 A3000 RMK SLP156 T01631004 4////0020 57021 IEM_DS3505
ZBYN,1990-03-10 07:00,ZBYN 100700Z AUTO 20010KT 7SM 17/M03 A2994 RMK T01701030 IEM_DS3505
ZBYN,1990-03-10 08:00,ZBYN 100800Z AUTO 22008KT 7SM 17/M01 A2994 RMK T01701010 IEM_DS3505
ZBYN,1990-03-10 09:00,ZBYN 100900Z AUTO 22006KT 6SM 17/00 A2994 RMK SLP144 T01700000 57015 IEM_DS3505
ZBYN,1990-03-10 10:00,ZBYN 101000Z AUTO 31016KT 7SM 16/M13 A2994 RMK T01601130 IEM_DS3505
ZBYN,1990-03-10 11:00,ZBYN 101100Z AUTO 33016KT 7SM 14/M15 A2997 RMK T01401150 IEM_DS3505
ZBYN,1990-03-10 12:00,ZBYN 101200Z AUTO 32004KT 9SM 11/M07 A3000 RMK SLP179 T01061068 52023 IEM_DS3505
ZBYN,1990-03-10 13:00,ZBYN 101300Z AUTO 33012KT 7SM 09/M10 A3003 RMK T00901100 IEM_DS3505
ZBYN,1990-03-10 14:00,ZBYN 101400Z AUTO 30014KT 7SM 10/M13 A3006 RMK T01001130 IEM_DS3505
ZBYN,1990-03-10 15:00,ZBYN 101500Z AUTO 32006KT 9SM 07/M10 A3009 RMK SLP201 T00711103 52026 IEM_DS3505
ZBYN,1990-03-10 16:00,ZBYN 101600Z AUTO 30004KT 7SM 05/M09 A3009 RMK T00501090 IEM_DS3505
ZBYN,1990-03-10 17:00,ZBYN 101700Z AUTO 28010KT 7SM 04/M11 A3015 RMK T00401110 IEM_DS3505
ZBYN,1990-03-10 18:00,ZBYN 101800Z AUTO 32006KT 9SM 05/M10 A3015 RMK SLP213 T00461102 40170//// 52015 IEM_DS3505
ZBYN,1990-03-10 19:00,ZBYN 101900Z AUTO 30006KT 7SM 03/M10 A3015 RMK T00301100 IEM_DS3505
ZBYN,1990-03-10 20:00,ZBYN 102000Z AUTO 00000KT 6SM 01/M08 A3018 RMK T00101080 IEM_DS3505
ZBYN,1990-03-10 21:00,ZBYN 102100Z AUTO 29008KT 9SM 03/M12 A3019 RMK SLP224 T00331117 52009 IEM_DS3505
ZBYN,1990-03-10 22:00,ZBYN 102200Z AUTO 00000KT 7SM 01/M08 A3021 RMK T00101080 IEM_DS3505
ZBYN,1990-03-11 00:00,ZBYN 110000Z AUTO 04002KT 19SM 02/M10 A3027 RMK SLP274 T00201095 52034 IEM_DS3505
ZBYN,1990-03-11 01:00,ZBYN 110100Z AUTO 02012KT 7SM 04/M11 A3033 RMK T00401110 IEM_DS3505
ZBYN,1990-03-11 02:00,ZBYN 110200Z AUTO 33008KT 7SM 05/M11 A3033 RMK T00501110 IEM_DS3505
ZBYN,1990-03-11 03:00,ZBYN 110300Z AUTO 36006KT 16SM 06/M11 A3033 RMK SLP285 T00581111 52010 IEM_DS3505
ZBYN,1990-03-11 04:00,ZBYN 110400Z AUTO 34006KT 7SM 07/M12 A3033 RMK T00701120 IEM_DS3505
ZBYN,1990-03-11 05:00,ZBYN 110500Z AUTO 32010KT 7SM 08/M12 A3030 RMK T00801120 IEM_DS3505
ZBYN,1990-03-11 06:00,ZBYN 110600Z AUTO 04006KT 9SM 09/M10 A3027 RMK SLP257 T00891102 4////0002 57024 IEM_DS3505
ZBYN,1990-03-11 07:00,ZBYN 110700Z AUTO 09004KT 7SM 10/M11 A3024 RMK T01001110 IEM_DS3505
ZBYN,1990-03-11 08:00,ZBYN 110800Z AUTO 36006KT 7SM 10/M09 A3021 RMK T01001090 IEM_DS3505
ZBYN,1990-03-11 09:00,ZBYN 110900Z AUTO 02004KT 9SM 09/M11 A3021 RMK SLP245 T00941107 57012 IEM_DS3505
ZBYN,1990-03-11 10:00,ZBYN 111000Z AUTO 01010KT 7SM 09/M13 A3021 RMK T00901130 IEM_DS3505
ZBYN,1990-03-11 11:00,ZBYN 111100Z AUTO 34006KT 7SM 07/M11 A3024 RMK T00701110 IEM_DS3505
ZBYN,1990-03-11 12:00,ZBYN 111200Z AUTO 36002KT 9SM 06/M09 A3027 RMK SLP275 T00631094 52020 IEM_DS3505
ZBYN,1990-03-11 13:00,ZBYN 111300Z AUTO 33004KT 7SM 03/M07 A3027 RMK T00301070 IEM_DS3505
ZBYN,1990-03-11 14:00,ZBYN 111400Z AUTO 11004KT 7SM 01/M07 A3027 RMK T00101070 IEM_DS3505
ZBYN,1990-03-11 15:00,ZBYN 111500Z AUTO 34002KT 9SM 03/M07 A3029 RMK SLP280 T00321070 52006 IEM_DS3505
ZBYN,1990-03-11 16:00,ZBYN 111600Z AUTO 00000KT 7SM M01/M07 A3030 RMK T10101070 IEM_DS3505
ZBYN,1990-03-11 17:00,ZBYN 111700Z AUTO 00000KT 7SM M02/M08 A3030 RMK T10201080 IEM_DS3505
ZBYN,1990-03-11 18:00,ZBYN 111800Z AUTO 34002KT 9SM M01/M06 A3030 RMK SLP281 T10111063 40105//// 57001 IEM_DS3505
ZBYN,1990-03-11 19:00,ZBYN 111900Z AUTO 13004KT 7SM M03/M08 A3027 RMK T10301080 IEM_DS3505
ZBYN,1990-03-11 20:00,ZBYN 112000Z AUTO 00000KT 7SM M04/M09 A3027 RMK T10401090 IEM_DS3505
ZBYN,1990-03-11 21:00,ZBYN 112100Z AUTO 07002KT 6SM M03/M08 A3028 RMK SLP280 T10281085 57003 IEM_DS3505
ZBYN,1990-03-12 00:00,ZBYN 120000Z AUTO 36002KT 9SM 00/M08 A3033 RMK SLP289 T00001080 52008 IEM_DS3505
ZBYN,1990-03-12 01:00,ZBYN 120100Z AUTO 00000KT 7SM 02/M08 A3033 RMK T00201080 IEM_DS3505
ZBYN,1990-03-12 02:00,ZBYN 120200Z AUTO 00000KT 6SM 06/M07 A3033 RMK T00601070 IEM_DS3505
ZBYN,1990-03-12 03:00,ZBYN 120300Z AUTO 16002KT 4SM 08/M08 A3030 RMK SLP274 T00781079 57007 IEM_DS3505
ZBYN,1990-03-12 04:00,ZBYN 120400Z AUTO 19006KT 7SM 10/M08 A3027 RMK T01001080 IEM_DS3505
ZBYN,1990-03-12 05:00,ZBYN 120500Z AUTO 21008KT 7SM 11/M08 A3024 RMK T01101080 IEM_DS3505
ZBYN,1990-03-12 06:00,ZBYN 120600Z AUTO 22008KT 6SM 12/M12 A3019 RMK SLP239 T01241120 4////1037 57031 IEM_DS3505
ZBYN,1990-03-12 07:00,ZBYN 120700Z AUTO 21004KT 7SM 13/M09 A3018 RMK T01301090 IEM_DS3505
ZBYN,1990-03-12 08:00,ZBYN 120800Z AUTO 21006KT 7SM 14/M06 A3012 RMK T01401060 IEM_DS3505
ZBYN,1990-03-12 09:00,ZBYN 120900Z AUTO 22008KT 6SM 13/M06 A3009 RMK SLP214 T01301065 57024 IEM_DS3505
ZBYN,1990-03-12 10:00,ZBYN 121000Z AUTO 21004KT 7SM 13/M04 A3009 RMK T01301040 IEM_DS3505
ZBYN,1990-03-12 11:00,ZBYN 121100Z AUTO 19004KT 7SM 11/M03 A3009 RMK T01101030 IEM_DS3505
ZBYN,1990-03-12 12:00,ZBYN 121200Z AUTO 14002KT 9SM 07/M02 A3012 RMK SLP217 T00661019 57003 IEM_DS3505
ZBYN,1990-03-12 13:00,ZBYN 121300Z AUTO 09008KT 6SM 06/M06 A3012 RMK T00601060 IEM_DS3505
ZBYN,1990-03-12 15:00,ZBYN 121500Z AUTO 00000KT 9SM 04/M04 A3015 RMK SLP220 T00401042 52011 IEM_DS3505
ZBYN,1990-03-12 16:00,ZBYN 121600Z AUTO 12004KT 6SM 07/M06 A3012 RMK T00701060 IEM_DS3505
ZBYN,1990-03-12 17:00,ZBYN 121700Z AUTO 11010KT 6SM 06/M04 A3015 RMK T00601040 IEM_DS3505
ZBYN,1990-03-12 18:00,ZBYN 121800Z AUTO 18004KT 7SM 06/M02 A3013 RMK SLP206 T00571025 40136//// 57003 IEM_DS3505
ZBYN,1990-03-12 19:00,ZBYN 121900Z AUTO 11004KT 6SM 06/M04 A3012 RMK T00601040 IEM_DS3505
ZBYN,1990-03-12 20:00,ZBYN 122000Z AUTO 11006KT 6SM 05/M04 A3009 RMK T00501040 IEM_DS3505
ZBYN,1990-03-12 21:00,ZBYN 122100Z AUTO 11006KT 7SM 05/M03 A3009 RMK SLP187 T00531034 57017 IEM_DS3505
ZBYN,1990-03-12 22:00,ZBYN 122200Z AUTO 09004KT 6SM 06/M04 A3006 RMK T00601040 IEM_DS3505
ZBYN,1990-03-13 00:00,ZBYN 130000Z AUTO 14004KT 6SM 05/M01 A3008 RMK SLP201 T00481008 52002 IEM_DS3505
ZBYN,1990-03-13 01:00,ZBYN 130100Z AUTO 18006KT 6SM 07/01 A3009 RMK T00700010 IEM_DS3505
ZBYN,1990-03-13 02:00,ZBYN 130200Z AUTO 23010KT 7SM 07/01 RMK T00700010 IEM_DS3505
ZBYN,1990-03-13 03:00,ZBYN 130300Z AUTO 18010KT 7SM 08/01 A3009 RMK SLP203 T00760009 52002 IEM_DS3505
ZBYN,1990-03-13 04:00,ZBYN 130400Z AUTO 22008KT 6SM 08/02 A3006 RMK T00800020 IEM_DS3505
ZBYN,1990-03-13 05:00,ZBYN 130500Z AUTO 23008KT 6SM 11/02 A3003 RMK T01100020 IEM_DS3505
ZBYN,1990-03-13 06:00,ZBYN 130600Z AUTO 18008KT 7SM 13/02 A3000 RMK SLP167 T01260023 4////0025 IEM_DS3505
ZBYN,1990-03-13 07:00,ZBYN 130700Z AUTO 21008KT 7SM 13/01 A2997 RMK T01300010 IEM_DS3505
ZBYN,1990-03-13 08:00,ZBYN 130800Z AUTO 19006KT 6SM 13/01 A2997 RMK T01300010 IEM_DS3505
ZBYN,1990-03-13 09:00,ZBYN 130900Z AUTO 18004KT 7SM 13/01 A2997 RMK SLP156 T01340008 57009 IEM_DS3505
ZBYN,1990-03-13 10:00,ZBYN 131000Z AUTO 21006KT 6SM 13/01 A2997 RMK T01300010 IEM_DS3505
ZBYN,1990-03-13 11:00,ZBYN 131100Z AUTO 30008KT 6SM 11/M05 A3003 RMK T01101050 IEM_DS3505
ZBYN,1990-03-13 12:00,ZBYN 131200Z AUTO 25002KT 6SM 09/M02 A3003 RMK SLP182 T00891022 52016 IEM_DS3505
ZBYN,1990-03-13 13:00,ZBYN 131300Z AUTO 26004KT 6SM 08/M03 A3003 RMK T00801030 IEM_DS3505
ZBYN,1990-03-13 14:00,ZBYN 131400Z AUTO 00000KT 6SM 07/M03 RMK T00701030 IEM_DS3505
ZBYN,1990-03-13 15:00,ZBYN 131500Z AUTO 18002KT 6SM 04/M02 A3003 RMK SLP185 T00361017 57001 IEM_DS3505
ZBYN,1990-03-13 16:00,ZBYN 131600Z AUTO 00000KT 6SM 04/M01 A3003 RMK T00401010 IEM_DS3505
ZBYN,1990-03-13 17:00,ZBYN 131700Z AUTO 25002KT 6SM 05/M02 A3003 RMK T00501020 IEM_DS3505
ZBYN,1990-03-13 18:00,ZBYN 131800Z AUTO 32016KT 5SM 06/ A3009 RMK SLP186 40138//// 52013 IEM_DS3505
ZBYN,1990-03-13 19:00,ZBYN 131900Z AUTO 32025KT 6SM 06/M03 RMK T00601030 IEM_DS3505
ZBYN,1990-03-13 21:00,ZBYN 132100Z AUTO 32010KT 4SM 04/M18 A3009 RMK SLP203 T00441182 52016 IEM_DS3505
ZBYN,1990-03-13 22:00,ZBYN 132200Z AUTO 33023KT 5SM 04/M21 A3012 RMK T00401210 IEM_DS3505
ZBYN,1990-03-13 23:00,ZBYN 132300Z AUTO 30016KT 5SM 02/M14 A3018 RMK T00201140 IEM_DS3505
ZBYN,1990-03-14 00:00,ZBYN 140000Z AUTO 29010KT 5SM 02/M14 A3020 RMK SLP242 T00251135 52023 IEM_DS3505
ZBYN,1990-03-14 02:00,ZBYN 140200Z AUTO 29021KT 7SM 05/M13 A3024 RMK T00501130 IEM_DS3505
ZBYN,1990-03-14 03:00,ZBYN 140300Z AUTO 29014KT 12SM 07/M11 A3024 RMK SLP260 T00691114 52015 IEM_DS3505
ZBYN,1990-03-14 04:16,ZBYN 140416Z AUTO 28016KT 7SM 08/M13 A3024 RMK T00801130 IEM_DS3505
ZBYN,1990-03-14 06:00,ZBYN 140600Z AUTO 29012KT 16SM 10/M14 A3021 RMK SLP237 T00961141 4////1013 57012 IEM_DS3505
ZBYN,1990-03-14 07:00,ZBYN 140700Z AUTO 30017KT 7SM 10/M14 A3018 RMK T01001140 IEM_DS3505
ZBYN,1990-03-14 08:00,ZBYN 140800Z AUTO 29014KT 7SM 11/M16 A3021 RMK T01101160 IEM_DS3505
ZBYN,1990-03-14 09:00,ZBYN 140900Z AUTO 28016KT 7SM 10/M15 A3021 RMK T01001150 IEM_DS3505
ZBYN,1990-03-14 10:00,ZBYN 141000Z AUTO 28017KT 7SM 09/M16 A3021 RMK T00901160 IEM_DS3505
ZBYN,1990-03-14 11:00,ZBYN 141100Z AUTO 29012KT 7SM 07/M15 A3027 RMK T00701150 IEM_DS3505
ZBYN,1990-03-14 12:00,ZBYN 141200Z AUTO 29010KT 16SM 06/M12 A3028 RMK SLP277 T00571118 52023 IEM_DS3505
ZBYN,1990-03-14 13:00,ZBYN 141300Z AUTO 35012KT 7SM 05/M15 A3030 RMK T00501150 IEM_DS3505
ZBYN,1990-03-14 14:00,ZBYN 141400Z AUTO 34010KT 7SM 05/M15 A3033 RMK T00501150 IEM_DS3505
ZBYN,1990-03-14 15:00,ZBYN 141500Z AUTO 34002KT 16SM 04/M10 A3033 RMK SLP287 T00401104 52013 IEM_DS3505
ZBYN,1990-03-14 18:00,ZBYN 141800Z AUTO 34002KT 12SM 00/M09 A3035 RMK SLP297 T00031089 40107//// 52008 IEM_DS3505
ZBYN,1990-03-14 19:00,ZBYN 141900Z AUTO 00000KT 7SM M03/M10 A3036 RMK T10301100 IEM_DS3505
ZBYN,1990-03-14 20:00,ZBYN 142000Z AUTO 00000KT 7SM M04/M09 A3036 RMK T10401090 IEM_DS3505
ZBYN,1990-03-14 21:00,ZBYN 142100Z AUTO 00000KT 9SM M01/M09 A3036 RMK SLP304 T10101091 52004 IEM_DS3505
ZBYN,1990-03-14 22:00,ZBYN 142200Z AUTO 00000KT 7SM M05/M11 A3039 RMK T10501110 IEM_DS3505
ZBYN,1990-03-14 23:00,ZBYN 142300Z AUTO 00000KT 6SM M05/M11 A3039 RMK T10501110 IEM_DS3505
ZBYN,1990-03-15 00:00,ZBYN 150000Z AUTO 32004KT 9SM 00/M05 A3042 RMK SLP319 T00011052 52009 IEM_DS3505
ZBYN,1990-03-15 02:00,ZBYN 150200Z AUTO 00000KT 6SM 05/M09 RMK T00501090 IEM_DS3505
ZBYN,1990-03-15 03:00,ZBYN 150300Z AUTO 14004KT 6SM 07/M09 A3040 RMK SLP312 T00701086 52002 IEM_DS3505
ZBYN,1990-03-15 06:00,ZBYN 150600Z AUTO 18008KT 9SM 11/M08 A3033 RMK SLP287 T01131085 4////1021 57022 IEM_DS3505
ZBYN,1990-03-15 08:00,ZBYN 150800Z AUTO 23008KT 6SM 13/M07 A3030 RMK T01301070 IEM_DS3505
ZBYN,1990-03-15 09:00,ZBYN 150900Z AUTO 18008KT 6SM 12/M07 A3030 RMK SLP274 T01201074 57013 IEM_DS3505
ZBYN,1990-03-15 10:00,ZBYN 151000Z AUTO 20004KT 6SM 12/M05 A3030 RMK T01201050 IEM_DS3505
ZBYN,1990-03-15 11:00,ZBYN 151100Z AUTO 16006KT 7SM 10/M03 A3027 RMK T01001030 IEM_DS3505
ZBYN,1990-03-15 12:00,ZBYN 151200Z AUTO 11004KT 6SM 07/M03 A3030 RMK SLP285 T00681034 52004 IEM_DS3505
ZBYN,1990-03-15 14:00,ZBYN 151400Z AUTO 00000KT 7SM 08/M05 A3030 RMK T00801050 IEM_DS3505
ZBYN,1990-03-15 15:00,ZBYN 151500Z AUTO 00000KT 6SM 03/M03 A3030 RMK SLP288 T00341027 52008 IEM_DS3505
ZBYN,1990-03-15 16:00,ZBYN 151600Z AUTO 00000KT 7SM 02/M06 A3033 RMK T00201060 IEM_DS3505
ZBYN,1990-03-15 17:00,ZBYN 151700Z AUTO 11006KT 7SM 03/M06 A3030 RMK T00301060 IEM_DS3505
ZBYN,1990-03-15 18:00,ZBYN 151800Z AUTO 00000KT 4SM 01/M05 A3030 RMK SLP284 T00081046 40128//// 57001 IEM_DS3505
ZBYN,1990-03-15 19:00,ZBYN 151900Z AUTO 09004KT 7SM 00/M05 A3033 RMK T00001050 IEM_DS3505
ZBYN,1990-03-15 20:00,ZBYN 152000Z AUTO 00000KT 6SM 00/M05 A3036 RMK T00001050 IEM_DS3505
ZBYN,1990-03-15 21:00,ZBYN 152100Z AUTO 00000KT 3SM M01/M04 A3031 RMK SLP282 T10101044 57003 IEM_DS3505
ZBYN,1990-03-15 22:00,ZBYN 152200Z AUTO 00000KT 7SM M02/M05 A3033 RMK T10201050 IEM_DS3505
ZBYN,1990-03-15 23:00,ZBYN 152300Z AUTO 00000KT 7SM M02/M04 A3036 RMK T10201040 IEM_DS3505
ZBYN,1990-03-16 00:00,ZBYN 160000Z AUTO 00000KT 5SM M00/M04 A3036 RMK T10041040 52012 IEM_DS3505
ZBYN,1990-03-16 01:00,ZBYN 160100Z AUTO 00000KT 4SM 03/M07 A3036 RMK T00301070 IEM_DS3505
ZBYN,1990-03-16 02:00,ZBYN 160200Z AUTO 00000KT 4SM 08/M05 A3036 RMK T00801050 IEM_DS3505
ZBYN,1990-03-16 03:00,ZBYN 160300Z AUTO 14004KT 5SM 10/M04 A3036 RMK SLP292 T00981038 54000 IEM_DS3505
ZBYN,1990-03-16 04:00,ZBYN 160400Z AUTO 24004KT 7SM 12/M03 A3030 RMK T01201030 IEM_DS3505
ZBYN,1990-03-16 05:00,ZBYN 160500Z AUTO 19008KT 6SM 12/M02 A3027 RMK T01201020 IEM_DS3505
ZBYN,1990-03-16 06:00,ZBYN 160600Z AUTO 20010KT 5SM 14/M04 A3027 RMK SLP256 T01381036 4////1026 57030 IEM_DS3505
ZBYN,1990-03-16 07:00,ZBYN 160700Z AUTO 21014KT 6SM A3024 RMK IEM_DS3505
ZBYN,1990-03-16 08:00,ZBYN 160800Z AUTO 22012KT 6SM 15/M03 A3021 RMK T01501030 IEM_DS3505
ZBYN,1990-03-16 09:00,ZBYN 160900Z AUTO 34012KT 7SM 16/M16 A3021 RMK SLP242 T01571161 57013 IEM_DS3505
ZBYN,1990-03-16 10:00,ZBYN 161000Z AUTO 33017KT 7SM 14/M16 A3021 RMK T01401160 IEM_DS3505
ZBYN,1990-03-16 11:00,ZBYN 161100Z AUTO 31012KT 7SM 12/M13 A3024 RMK T01201130 IEM_DS3505
ZBYN,1990-03-16 12:00,ZBYN 161200Z AUTO 32004KT 9SM 07/M08 A3026 RMK SLP273 T00721081 52016 IEM_DS3505
ZBYN,1990-03-16 13:00,ZBYN 161300Z AUTO 29008KT 7SM 09/M10 A3027 RMK T00901100 IEM_DS3505
ZBYN,1990-03-16 14:00,ZBYN 161400Z AUTO 26004KT 7SM 05/M06 A3030 RMK T00501060 IEM_DS3505
ZBYN,1990-03-16 15:00,ZBYN 161500Z AUTO 36002KT 9SM 01/M07 A3033 RMK SLP284 T00131074 52017 IEM_DS3505
ZBYN,1990-03-16 18:00,ZBYN 161800Z AUTO 34004KT 9SM 03/M10 A3033 RMK SLP277 T00341100 40165//// 52003 IEM_DS3505
ZBYN,1990-03-16 19:00,ZBYN 161900Z AUTO 10006KT 7SM M02/M12 A3033 RMK T10201120 IEM_DS3505
ZBYN,1990-03-16 20:00,ZBYN 162000Z AUTO 00000KT 7SM M01/M11 A3030 RMK T10101110 IEM_DS3505
ZBYN,1990-03-16 21:00,ZBYN 162100Z AUTO 00000KT 6SM M00/M11 A3030 RMK SLP275 T10021107 57005 IEM_DS3505
ZBYN,1990-03-16 22:00,ZBYN 162200Z AUTO 08004KT 7SM M05/M16 A3033 RMK T10501160 IEM_DS3505
ZBYN,1990-03-16 23:00,ZBYN 162300Z AUTO 29006KT 7SM 02/M09 A3033 RMK T00201090 IEM_DS3505
ZBYN,1990-03-17 00:00,ZBYN 170000Z AUTO 00000KT 6SM M00/M08 A3036 RMK SLP305 T10051084 52014 IEM_DS3505
ZBYN,1990-03-17 01:00,ZBYN 170100Z AUTO 00000KT 6SM 04/M11 A3039 RMK T00401110 IEM_DS3505
ZBYN,1990-03-17 03:00,ZBYN 170300Z AUTO 00000KT 6SM 10/M11 A3039 RMK SLP304 T01011109 52006 IEM_DS3505
ZBYN,1990-03-17 04:00,ZBYN 170400Z AUTO 21008KT 7SM 12/M06 A3036 RMK T01201060 IEM_DS3505
ZBYN,1990-03-17 05:00,ZBYN 170500Z AUTO 05004KT 7SM 13/M06 A3033 RMK T01301060 IEM_DS3505
ZBYN,1990-03-17 06:00,ZBYN 170600Z AUTO 16004KT 6SM 15/M12 A3027 RMK SLP259 T01501123 4////1043 57030 IEM_DS3505
ZBYN,1990-03-17 08:00,ZBYN 170800Z AUTO 26002KT 7SM 17/M03 A3024 RMK T01701030 IEM_DS3505
ZBYN,1990-03-17 09:00,ZBYN 170900Z AUTO 18002KT 7SM 16/ A3021 RMK SLP241 57020 IEM_DS3505
ZBYN,1990-03-17 10:00,ZBYN 171000Z AUTO 21004KT 7SM 16/M01 A3021 RMK T01601010 IEM_DS3505
ZBYN,1990-03-17 11:00,ZBYN 171100Z AUTO 00000KT 7SM A3021 RMK SLP257 40167//// 52004 IEM_DS3505
ZBYN,1990-03-17 12:00,ZBYN 171200Z AUTO 20002KT 7SM 10/M07 A3022 RMK SLP253 T00981072 52001 IEM_DS3505
ZBYN,1990-03-17 13:00,ZBYN 171300Z AUTO 08010KT 7SM 10/M04 A3024 RMK T01001040 IEM_DS3505
ZBYN,1990-03-17 14:00,ZBYN 171400Z AUTO 06008KT 7SM 09/M04 A3027 RMK T00901040 IEM_DS3505
ZBYN,1990-03-17 15:00,ZBYN 171500Z AUTO 00000KT 7SM 08/M08 A3027 RMK SLP255 T00761083 52015 IEM_DS3505
ZBYN,1990-03-17 16:00,ZBYN 171600Z AUTO 00000KT 7SM 07/M02 A3027 RMK T00701020 IEM_DS3505
ZBYN,1990-03-17 17:00,ZBYN 171700Z AUTO 00000KT 6SM 05/M02 A3027 RMK T00501020 IEM_DS3505
ZBYN,1990-03-17 18:00,ZBYN 171800Z AUTO 00000KT 7SM 04/M06 A3028 RMK SLP257 T00451062 40167//// 52004 IEM_DS3505
ZBYN,1990-03-17 19:00,ZBYN 171900Z AUTO 00000KT 7SM 02/M03 A3027 RMK T00201030 IEM_DS3505
ZBYN,1990-03-17 20:00,ZBYN 172000Z AUTO 00000KT 7SM 01/M03 A3027 RMK T00101030 IEM_DS3505
ZBYN,1990-03-17 21:00,ZBYN 172100Z AUTO 34002KT 6SM 03/M05 A3027 RMK SLP255 T00301053 57002 IEM_DS3505
ZBYN,1990-03-17 22:00,ZBYN 172200Z AUTO 00000KT 6SM 00/M04 A3027 RMK T00001040 IEM_DS3505
ZBYN,1990-03-17 23:00,ZBYN 172300Z AUTO 00000KT 6SM 00/M03 A3027 RMK T00001030 IEM_DS3505
ZBYN,1990-03-18 00:00,ZBYN 180000Z AUTO 00000KT 5SM 02/M04 A3027 RMK SLP267 T00161036 57001 IEM_DS3505
ZBYN,1990-03-18 02:00,ZBYN 180200Z AUTO 00000KT 7SM 10/M01 A3030 RMK T01001010 IEM_DS3505
ZBYN,1990-03-18 03:00,ZBYN 180300Z AUTO 18004KT 5SM 11/M02 A3030 RMK SLP255 T01101018 54000 IEM_DS3505
ZBYN,1990-03-18 04:00,ZBYN 180400Z AUTO 16010KT 7SM 14/01 A3027 RMK T01400010 IEM_DS3505
ZBYN,1990-03-18 05:00,ZBYN 180500Z AUTO 20004KT 7SM 15/02 A3021 RMK T01500020 IEM_DS3505
ZBYN,1990-03-18 06:00,ZBYN 180600Z AUTO 18010KT 5SM 16/M01 A3017 RMK SLP219 T01601013 4////1010 57030 IEM_DS3505
ZBYN,1990-03-18 08:00,ZBYN 180800Z AUTO 21008KT 7SM 18/05 A3009 RMK T01800050 IEM_DS3505
ZBYN,1990-03-18 09:00,ZBYN 180900Z AUTO 20008KT 5SM 17/M01 A3006 RMK SLP185 T01721009 57031 IEM_DS3505
ZBYN,1990-03-18 10:00,ZBYN 181000Z AUTO 20004KT 7SM 15/02 RMK T01500020 IEM_DS3505
ZBYN,1990-03-18 11:00,ZBYN 181100Z AUTO 21008KT 7SM 18/05 A3009 RMK T01800050 IEM_DS3505
ZBYN,1990-03-18 12:00,ZBYN 181200Z AUTO 00000KT 4SM 11/03 A3006 RMK SLP198 T01140026 54000 IEM_DS3505
ZBYN,1990-03-18 13:00,ZBYN 181300Z AUTO 09006KT 7SM 10/M02 A3006 RMK T01001020 IEM_DS3505
ZBYN,1990-03-18 14:00,ZBYN 181400Z AUTO 00000KT 7SM 09/03 A3009 RMK T00900030 IEM_DS3505
ZBYN,1990-03-18 15:00,ZBYN 181500Z AUTO 11004KT 4SM 07/00 A3008 RMK SLP190 T00690003 52001 IEM_DS3505
ZBYN,1990-03-18 17:00,ZBYN 181700Z AUTO 11008KT 7SM 09/03 A3006 RMK T00900030 IEM_DS3505
ZBYN,1990-03-18 18:00,ZBYN 181800Z AUTO 14006KT 4SM 08/02 A3006 RMK SLP175 T00760015 40174//// 57005 IEM_DS3505
ZBYN,1990-03-18 19:00,ZBYN 181900Z AUTO 10006KT 7SM 06/03 A3003 RMK T00600030 IEM_DS3505
ZBYN,1990-03-18 20:00,ZBYN 182000Z AUTO 11006KT 7SM 06/02 A3003 RMK T00600020 IEM_DS3505
ZBYN,1990-03-18 21:00,ZBYN 182100Z AUTO 18004KT 6SM 04/02 A3006 RMK SLP177 T00400016 57002 IEM_DS3505
ZBYN,1990-03-18 22:00,ZBYN 182200Z AUTO 13004KT 7SM 04/01 A3003 RMK T00400010 IEM_DS3505
ZBYN,1990-03-18 23:00,ZBYN 182300Z AUTO 00000KT 7SM 02/01 A3006 RMK T00200010 IEM_DS3505
ZBYN,1990-03-19 00:00,ZBYN 190000Z AUTO 00000KT 6SM 05/03 A3006 RMK SLP189 T00480027 52003 IEM_DS3505
ZBYN,1990-03-19 01:00,ZBYN 190100Z AUTO 00000KT 7SM 08/05 A3006 RMK T00800050 IEM_DS3505
ZBYN,1990-03-19 02:00,ZBYN 190200Z AUTO 22006KT 7SM 12/05 A3006 RMK T01200050 IEM_DS3505
ZBYN,1990-03-19 03:00,ZBYN 190300Z AUTO 18004KT 6SM 14/04 A3003 RMK SLP175 T01420039 57005 IEM_DS3505
ZBYN,1990-03-19 04:00,ZBYN 190400Z AUTO 17004KT 7SM 15/06 A3000 RMK T01500060 IEM_DS3505
ZBYN,1990-03-19 05:00,ZBYN 190500Z AUTO 18008KT 7SM 17/07 A2997 RMK T01700070 IEM_DS3505
ZBYN,1990-03-19 06:00,ZBYN 190600Z AUTO 20008KT 5SM 19/04 A2995 RMK SLP133 T01860044 4////0021 57031 IEM_DS3505
ZBYN,1990-03-19 06:15,ZBYN 190615Z AUTO 24008KT 7SM 18/07 A2994 RMK T01800070 IEM_DS3505
ZBYN,1990-03-19 07:00,ZBYN 190700Z AUTO 23004KT 7SM 19/07 A2991 RMK T01900070 IEM_DS3505
ZBYN,1990-03-19 09:00,ZBYN 190900Z AUTO 14002KT 6SM 20/03 A2988 RMK SLP116 T01980028 57019 IEM_DS3505
ZBYN,1990-03-19 10:00,ZBYN 191000Z AUTO 20004KT 7SM 20/09 A2988 RMK T02000090 IEM_DS3505
ZBYN,1990-03-19 11:00,ZBYN 191100Z AUTO 07019KT 4SM 15/04 A2991 RMK T01500040 IEM_DS3505
ZBYN,1990-03-19 12:00,ZBYN 191200Z AUTO 09012KT 6SM 14/02 A2994 RMK SLP137 T01420020 52012 IEM_DS3505
ZBYN,1990-03-19 13:00,ZBYN 191300Z AUTO 08025KT 7SM 12/03 A2997 RMK T01200030 IEM_DS3505
ZBYN,1990-03-19 14:00,ZBYN 191400Z AUTO 09023KT 6SM 12/02 A3000 RMK T01200020 IEM_DS3505
ZBYN,1990-03-19 15:00,ZBYN 191500Z AUTO 04004KT 6SM 13/03 A3000 RMK SLP155 T01340034 52029 IEM_DS3505
ZBYN,1990-03-19 16:00,ZBYN 191600Z AUTO 07017KT 6SM 11/03 A3003 RMK T01100030 IEM_DS3505
ZBYN,1990-03-19 18:00,ZBYN 191800Z AUTO 36002KT 6SM 11/06 A3003 RMK SLP155 T01100059 40200//// 52003 IEM_DS3505
ZBYN,1990-03-19 19:00,ZBYN 191900Z AUTO 08016KT 6SM 11/01 A3003 RMK T01100010 IEM_DS3505
ZBYN,1990-03-19 20:00,ZBYN 192000Z AUTO 07016KT 6SM 10/03 A3006 RMK T01000030 IEM_DS3505
ZBYN,1990-03-19 21:00,ZBYN 192100Z AUTO 04002KT 6SM 11/04 A3006 RMK SLP160 T01060037 52006 IEM_DS3505
ZBYN,1990-03-19 22:00,ZBYN 192200Z AUTO 07012KT 4SM 09/03 A3006 RMK T00900030 IEM_DS3505
ZBYN,1990-03-19 23:00,ZBYN 192300Z AUTO 07014KT 4SM 09/03 A3009 RMK T00900030 IEM_DS3505
ZBYN,1990-03-20 00:00,ZBYN 200000Z AUTO 11002KT 5SM 09/04 A3009 RMK SLP192 T00900035 52019 IEM_DS3505
ZBYN,1990-03-20 01:00,ZBYN 200100Z AUTO 08012KT 4SM 07/03 A3012 RMK T00700030 IEM_DS3505
ZBYN,1990-03-20 02:00,ZBYN 200200Z AUTO 06019KT 5SM 06/01 A3015 RMK T00600010 IEM_DS3505
ZBYN,1990-03-20 03:00,ZBYN 200300Z AUTO 11008KT 5SM 06/00 A3015 RMK SLP214 T00590002 52014 IEM_DS3505
ZBYN,1990-03-20 04:00,ZBYN 200400Z AUTO 08017KT 6SM 05/M05 A3018 RMK T00501050 IEM_DS3505
ZBYN,1990-03-20 06:00,ZBYN 200600Z AUTO 11006KT 5SM 04/M00 A3016 RMK SLP223 T00431003 4////0036 52002 IEM_DS3505
ZBYN,1990-03-20 08:00,ZBYN 200800Z AUTO 08010KT 7SM 02/M01 A3012 RMK T00201010 IEM_DS3505
ZBYN,1990-03-20 09:00,ZBYN 200900Z AUTO 00000KT 5SM 03/01 A3014 RMK SLP219 T00280008 57007 IEM_DS3505
ZBYN,1990-03-20 12:00,ZBYN 201200Z AUTO 34004KT 5SM 02/M01 A3014 RMK 60016 SLP223 T00181009 54000 IEM_DS3505
ZBYN,1990-03-20 15:00,ZBYN 201500Z AUTO 34004KT 5SM 02/00 A3014 RMK SLP228 T00160000 57001 IEM_DS3505
ZBYN,1990-03-20 21:00,ZBYN 202100Z AUTO 36010KT 5SM 02/M01 A3008 RMK SLP216 T00161008 57011 IEM_DS3505
ZBYN,1990-03-21 00:00,ZBYN 210000Z AUTO 36004KT 6SM 02/M01 A3010 RMK 60004 70051 SLP224 T00161011 52006 IEM_DS3505
ZBYN,1990-03-21 01:00,ZBYN 210100Z AUTO 00000KT 9SM A3008 RMK SLP212 4////0006 57008 IEM_DS3505
ZBYN,1990-03-21 03:00,ZBYN 210300Z AUTO 02006KT 6SM 03/00 A3008 RMK SLP224 T00280002 52001 IEM_DS3505
ZBYN,1990-03-21 06:00,ZBYN 210600Z AUTO 00000KT 9SM 05/01 A3008 RMK SLP212 T00460009 4////0006 57008 IEM_DS3505
ZBYN,1990-03-21 08:00,ZBYN 210800Z AUTO 07008KT 7SM 05/01 A3003 RMK T00500010 IEM_DS3505
ZBYN,1990-03-21 09:00,ZBYN 210900Z AUTO 02004KT 9SM 06/01 A3003 RMK SLP192 T00560013 57016 IEM_DS3505
ZBYN,1990-03-21 10:00,ZBYN 211000Z AUTO 08008KT 7SM 04/01 A3003 RMK T00400010 IEM_DS3505
ZBYN,1990-03-21 11:00,ZBYN 211100Z AUTO 10008KT 6SM 04/01 A3006 RMK T00400010 IEM_DS3505
ZBYN,1990-03-21 12:00,ZBYN 211200Z AUTO 36002KT 6SM 05/01 A3009 RMK SLP211 T00480014 52016 IEM_DS3505
ZBYN,1990-03-21 13:00,ZBYN 211300Z AUTO 10012KT 6SM 03/00 A3009 RMK T00300000 IEM_DS3505
ZBYN,1990-03-21 14:00,ZBYN 211400Z AUTO 10006KT 6SM 04/01 A3009 RMK T00400010 IEM_DS3505
ZBYN,1990-03-21 15:00,ZBYN 211500Z AUTO 00000KT 6SM 04/02 A3009 RMK SLP218 T00360019 52006 IEM_DS3505
ZBYN,1990-03-21 16:00,ZBYN 211600Z AUTO 04004KT 6SM 04/01 A3009 RMK T00400010 IEM_DS3505
ZBYN,1990-03-21 17:00,ZBYN 211700Z AUTO 00000KT 6SM 04/01 A3006 RMK T00400010 IEM_DS3505
ZBYN,1990-03-21 18:00,ZBYN 211800Z AUTO 34004KT 6SM 04/01 A3006 RMK SLP203 T00380013 40056//// 57010 IEM_DS3505
ZBYN,1990-03-21 19:00,ZBYN 211900Z AUTO 00000KT 6SM 04/01 A3006 RMK T00400010 IEM_DS3505
ZBYN,1990-03-21 20:00,ZBYN 212000Z AUTO 21004KT 6SM 04/01 A3003 RMK T00400010 IEM_DS3505
ZBYN,1990-03-21 21:00,ZBYN 212100Z AUTO 36002KT 6SM 04/01 A3003 RMK SLP196 T00420010 57004 IEM_DS3505
ZBYN,1990-03-21 22:00,ZBYN 212200Z AUTO 00000KT 6SM 04/02 A3003 RMK T00400020 IEM_DS3505
ZBYN,1990-03-21 23:00,ZBYN 212300Z AUTO 00000KT 7SM 04/01 A3003 RMK T00400010 IEM_DS3505
ZBYN,1990-03-22 00:00,ZBYN 220000Z AUTO 32002KT 5SM 04/02 A3005 RMK SLP196 T00440020 57001 IEM_DS3505
ZBYN,1990-03-22 01:00,ZBYN 220100Z AUTO 31004KT 7SM 05/02 A3006 RMK T00500020 IEM_DS3505
ZBYN,1990-03-22 02:00,ZBYN 220200Z AUTO 00000KT 4SM 06/03 A3006 RMK T00600030 IEM_DS3505
ZBYN,1990-03-22 03:00,ZBYN 220300Z AUTO 36006KT 6SM 06/03 A3006 RMK SLP195 T00620027 54000 IEM_DS3505
ZBYN,1990-03-22 04:00,ZBYN 220400Z AUTO 09010KT 4SM 08/03 A3003 RMK T00800030 IEM_DS3505
ZBYN,1990-03-22 05:00,ZBYN 220500Z AUTO 30002KT 7SM 08/03 A3000 RMK T00800030 IEM_DS3505
ZBYN,1990-03-22 06:00,ZBYN 220600Z AUTO 34004KT 6SM 08/04 A3000 RMK SLP177 T00780038 4////0018 57014 IEM_DS3505
ZBYN,1990-03-22 07:00,ZBYN 220700Z AUTO 09008KT 7SM 07/04 A2997 RMK T00700040 IEM_DS3505
ZBYN,1990-03-22 08:00,ZBYN 220800Z AUTO 09004KT 7SM 07/04 A2994 RMK T00700040 IEM_DS3505
ZBYN,1990-03-22 09:00,ZBYN 220900Z AUTO 36004KT 6SM 07/04 A2994 RMK SLP159 T00680037 57017 IEM_DS3505
ZBYN,1990-03-22 10:00,ZBYN 221000Z AUTO 00000KT 7SM RMK IEM_DS3505
ZBYN,1990-03-22 11:00,ZBYN 221100Z AUTO 23004KT 6SM 06/04 A2994 RMK T00600040 IEM_DS3505
ZBYN,1990-03-22 12:00,ZBYN 221200Z AUTO 34004KT 5SM 06/04 A2994 RMK SLP157 T00580035 57003 IEM_DS3505
ZBYN,1990-03-22 13:00,ZBYN 221300Z AUTO 19004KT 4SM 06/04 A2994 RMK T00600040 IEM_DS3505
ZBYN,1990-03-22 14:00,ZBYN 221400Z AUTO 00000KT 4SM 05/05 A2994 RMK T00500050 IEM_DS3505
ZBYN,1990-03-22 15:00,ZBYN 221500Z AUTO 34004KT 4SM 05/04 A2994 RMK SLP158 T00500043 52002 IEM_DS3505
ZBYN,1990-03-22 16:00,ZBYN 221600Z AUTO 27002KT 2SM 05/05 A2994 RMK T00500050 IEM_DS3505
ZBYN,1990-03-22 18:00,ZBYN 221800Z AUTO 00000KT 4SM 05/04 A2993 RMK 60051 SLP150 T00480044 40080//// 57005 IEM_DS3505
ZBYN,1990-03-22 19:00,ZBYN 221900Z AUTO 00000KT 4SM 04/04 A2991 RMK T00400040 IEM_DS3505
ZBYN,1990-03-22 20:00,ZBYN 222000Z AUTO 00000KT 5SM 04/04 A2988 RMK T00400040 IEM_DS3505
ZBYN,1990-03-22 21:00,ZBYN 222100Z AUTO 00000KT 2SM 04/04 A2988 RMK SLP139 T00420037 57012 IEM_DS3505
ZBYN,1990-03-22 22:00,ZBYN 222200Z AUTO 00000KT 3SM 04/03 A2994 RMK T00400030 IEM_DS3505
ZBYN,1990-03-22 23:00,ZBYN 222300Z AUTO 00000KT 3SM 04/04 A2991 RMK T00400040 IEM_DS3505
ZBYN,1990-03-23 00:00,ZBYN 230000Z AUTO 00000KT 5SM 04/04 A2991 RMK 60002 70055 SLP149 T00450043 52008 IEM_DS3505
ZBYN,1990-03-23 02:00,ZBYN 230200Z AUTO 00000KT 4SM 07/05 A2994 RMK T00700050 IEM_DS3505
ZBYN,1990-03-23 03:00,ZBYN 230300Z AUTO 00000KT 6SM 09/05 A2991 RMK SLP150 T00860054 52006 IEM_DS3505
ZBYN,1990-03-23 04:00,ZBYN 230400Z AUTO 00000KT 4SM 10/06 A2991 RMK T01000060 IEM_DS3505
ZBYN,1990-03-23 05:00,ZBYN 230500Z AUTO 00000KT 5SM 11/06 A2994 RMK T01100060 IEM_DS3505
ZBYN,1990-03-23 06:00,ZBYN 230600Z AUTO 20002KT 6SM 12/06 A2991 RMK SLP133 T01210062 4////0036 57011 IEM_DS3505
ZBYN,1990-03-23 07:00,ZBYN 230700Z AUTO 03006KT 5SM 13/08 A2988 RMK T01300080 IEM_DS3505
ZBYN,1990-03-23 08:00,ZBYN 230800Z AUTO 00000KT 6SM 15/09 A2988 RMK T01500090 IEM_DS3505
ZBYN,1990-03-23 09:00,ZBYN 230900Z AUTO 34004KT 6SM 15/09 A2988 RMK SLP117 T01500090 57016 IEM_DS3505
ZBYN,1990-03-23 10:00,ZBYN 231000Z AUTO 09014KT 7SM 14/08 A2988 RMK T01400080 IEM_DS3505
ZBYN,1990-03-23 11:00,ZBYN 231100Z AUTO 09016KT 7SM 10/06 A2991 RMK T01000060 IEM_DS3505
ZBYN,1990-03-23 12:00,ZBYN 231200Z AUTO 09006KT 6SM 10/04 A2994 RMK SLP160 T00980044 52032 IEM_DS3505
ZBYN,1990-03-23 13:00,ZBYN 231300Z AUTO 08016KT 7SM 07/05 A3000 RMK T00700050 IEM_DS3505
ZBYN,1990-03-23 15:00,ZBYN 231500Z AUTO 09004KT 7SM 07/02 A3006 RMK SLP194 T00730025 52033 IEM_DS3505
ZBYN,1990-03-23 16:00,ZBYN 231600Z AUTO 07021KT 7SM 06/02 A3009 RMK T00600020 IEM_DS3505
ZBYN,1990-03-23 17:00,ZBYN 231700Z AUTO 07008KT 7SM 06/02 A3009 RMK T00600020 IEM_DS3505
ZBYN,1990-03-23 18:00,ZBYN 231800Z AUTO 09004KT 9SM 06/02 A3009 RMK SLP199 T00640017 40148//// 52009 IEM_DS3505
ZBYN,1990-03-23 19:00,ZBYN 231900Z AUTO 08016KT 7SM 05/02 A3012 RMK T00500020 IEM_DS3505
ZBYN,1990-03-23 20:00,ZBYN 232000Z AUTO 08010KT 7SM 05/01 A3015 RMK T00500010 IEM_DS3505
ZBYN,1990-03-23 21:00,ZBYN 232100Z AUTO 09008KT 9SM 05/01 A3021 RMK SLP217 T00460006 52018 IEM_DS3505
ZBYN,1990-03-23 22:00,ZBYN 232200Z AUTO 06012KT 7SM 04/00 A3021 RMK T00400000 IEM_DS3505
ZBYN,1990-03-23 23:00,ZBYN 232300Z AUTO 08010KT 7SM 03/00 A3024 RMK T00300000 IEM_DS3505
ZBYN,1990-03-24 00:00,ZBYN 240000Z AUTO 04002KT 9SM 03/00 A3027 RMK 60004 70004 SLP258 T00300005 52027 IEM_DS3505
ZBYN,1990-03-24 01:00,ZBYN 240100Z AUTO 09010KT 7SM 03/00 A3027 RMK T00300000 IEM_DS3505
ZBYN,1990-03-24 02:00,ZBYN 240200Z AUTO 06004KT 7SM 02/01 A3030 RMK T00200010 IEM_DS3505
ZBYN,1990-03-24 03:00,ZBYN 240300Z AUTO 02004KT 6SM 03/02 A3030 RMK SLP274 T00290017 52010 IEM_DS3505
ZBYN,1990-03-24 04:00,ZBYN 240400Z AUTO 08016KT 7SM 02/M01 A3030 RMK T00201010 IEM_DS3505
ZBYN,1990-03-24 05:00,ZBYN 240500Z AUTO 09012KT 7SM 02/M03 A3033 RMK T00201030 IEM_DS3505
ZBYN,1990-03-24 06:00,ZBYN 240600Z AUTO 07006KT 9SM 02/M03 A3033 RMK SLP286 T00151034 4////0013 52007 IEM_DS3505
ZBYN,1990-03-24 07:00,ZBYN 240700Z AUTO 08008KT 7SM 01/M03 A3030 RMK T00101030 IEM_DS3505
ZBYN,1990-03-24 08:00,ZBYN 240800Z AUTO 07010KT 7SM 01/M02 A3030 RMK T00101020 IEM_DS3505
ZBYN,1990-03-24 09:00,ZBYN 240900Z AUTO 02004KT 9SM 02/M04 A3030 RMK SLP289 T00151044 54000 IEM_DS3505
ZBYN,1990-03-24 12:00,ZBYN 241200Z AUTO 36004KT 9SM 01/M04 A3036 RMK SLP309 T00111042 IEM_DS3505
ZBYN,1990-03-24 13:00,ZBYN 241300Z AUTO 08004KT 6SM 01/M02 A3036 RMK T00101020 IEM_DS3505
ZBYN,1990-03-24 15:00,ZBYN 241500Z AUTO 36002KT 5SM 01/M02 A3039 RMK SLP321 T00101024 52011 IEM_DS3505
ZBYN,1990-03-24 17:00,ZBYN 241700Z AUTO 03008KT 7SM 01/M01 A3039 RMK T00101010 IEM_DS3505
ZBYN,1990-03-24 18:00,ZBYN 241800Z AUTO 36002KT 5SM 01/M01 A3039 RMK 60004 SLP326 T00061008 40063//// 52001 IEM_DS3505
ZBYN,1990-03-24 20:00,ZBYN 242000Z AUTO 06008KT 5SM 01/M02 A3039 RMK T00101020 IEM_DS3505
ZBYN,1990-03-24 21:00,ZBYN 242100Z AUTO 34004KT 6SM 00/M01 A3039 RMK SLP324 T00041007 57002 IEM_DS3505
ZBYN,1990-03-24 22:00,ZBYN 242200Z AUTO 09008KT 7SM 00/M01 A3039 RMK T00001010 IEM_DS3505
ZBYN,1990-03-24 23:00,ZBYN 242300Z AUTO 09008KT 7SM 00/M01 A3039 RMK T00001010 IEM_DS3505
ZBYN,1990-03-25 00:00,ZBYN 250000Z AUTO 07008KT 6SM 01/M04 A3042 RMK SLP331 T00061038 52006 IEM_DS3505
ZBYN,1990-03-25 01:00,ZBYN 250100Z AUTO 06008KT 4SM 00/M02 A3042 RMK T00001020 IEM_DS3505
ZBYN,1990-03-25 02:00,ZBYN 250200Z AUTO 06006KT 2SM 00/M01 A3042 RMK T00001010 IEM_DS3505
ZBYN,1990-03-25 03:00,ZBYN 250300Z AUTO 00000KT 4SM M00/M00 A3042 RMK SLP339 T10021005 52006 IEM_DS3505
ZBYN,1990-03-25 04:00,ZBYN 250400Z AUTO 06010KT 2 1/2SM 00/M02 A3042 RMK T00001020 IEM_DS3505
ZBYN,1990-03-25 05:00,ZBYN 250500Z AUTO 06008KT 7SM 00/M02 A3042 RMK T00001020 IEM_DS3505
ZBYN,1990-03-25 06:00,ZBYN 250600Z AUTO 02004KT 4SM M00/M01 A3039 RMK 60012 SLP328 T10021008 4////1006 57011 IEM_DS3505
ZBYN,1990-03-25 07:00,ZBYN 250700Z AUTO 07008KT 2 1/2SM M01/M02 A3036 RMK T10101020 IEM_DS3505
ZBYN,1990-03-25 08:00,ZBYN 250800Z AUTO 05004KT 1SM M01/M02 A3036 RMK T10101020 IEM_DS3505
ZBYN,1990-03-25 09:00,ZBYN 250900Z AUTO 00000KT 4SM M01/M01 A3036 RMK SLP317 T10101011 IEM_DS3505
ZBYN,1990-03-25 10:00,ZBYN 251000Z AUTO 06008KT 7SM M01/M04 A3036 RMK T10101040 IEM_DS3505
ZBYN,1990-03-25 11:00,ZBYN 251100Z AUTO 06006KT 7SM M01/M02 A3033 RMK T10101020 IEM_DS3505
ZBYN,1990-03-25 12:00,ZBYN 251200Z AUTO 04012KT 4SM M01/M01 A3036 RMK 60016 SLP317 T10121014 54000 IEM_DS3505
ZBYN,1990-03-25 13:00,ZBYN 251300Z AUTO 01004KT 7SM M01/M04 A3036 RMK T10101040 IEM_DS3505
ZBYN,1990-03-25 14:00,ZBYN 251400Z AUTO 05004KT 7SM M01/M02 A3039 RMK T10101020 IEM_DS3505
ZBYN,1990-03-25 15:00,ZBYN 251500Z AUTO 00000KT 2 1/2SM M01/M01 A3038 RMK SLP327 T10101014 52008 IEM_DS3505
ZBYN,1990-03-25 18:00,ZBYN 251800Z AUTO 00000KT 2 1/2SM M01/M02 A3033 RMK 60002 SLP310 T10101023 40011//// 57016 IEM_DS3505
ZBYN,1990-03-25 21:00,ZBYN 252100Z AUTO 04004KT 5SM M01/M03 A3029 RMK SLP297 T10081027 57012 IEM_DS3505
ZBYN,1990-03-25 23:00,ZBYN 252300Z AUTO 00000KT 7SM 00/M03 A3027 RMK T00001030 IEM_DS3505
ZBYN,1990-03-26 00:00,ZBYN 260000Z AUTO 34004KT 5SM M01/M02 A3027 RMK 60001 70028 SLP294 T10061019 57003 IEM_DS3505
ZBYN,1990-03-26 02:00,ZBYN 260200Z AUTO 33006KT 3SM 00/M02 A3030 RMK T00001020 IEM_DS3505
ZBYN,1990-03-26 03:00,ZBYN 260300Z AUTO 34004KT 5SM 01/M02 A3030 RMK SLP285 T00071018 57006 IEM_DS3505
ZBYN,1990-03-26 04:00,ZBYN 260400Z AUTO 33006KT 3SM 00/M02 A3030 RMK T00001020 IEM_DS3505
ZBYN,1990-03-26 06:00,ZBYN 260600Z AUTO 36004KT 3SM 00/M01 A3021 RMK 60001 SLP269 T00011007 4////1015 57015 IEM_DS3505
ZBYN,1990-03-26 07:00,ZBYN 260700Z AUTO 00000KT 1/4SM 00/00 A3018 RMK T00000000 IEM_DS3505
ZBYN,1990-03-26 08:00,ZBYN 260800Z AUTO 08004KT 1SM M01/M01 A3018 RMK T10101010 IEM_DS3505
ZBYN,1990-03-26 09:00,ZBYN 260900Z AUTO 36004KT 3SM 00/M01 A3018 RMK SLP255 T00001006 57013 IEM_DS3505
ZBYN,1990-03-26 12:00,ZBYN 261200Z AUTO 36004KT 3SM M01/M02 A3017 RMK 60035 SLP256 T10101020 54000 IEM_DS3505
ZBYN,1990-03-26 15:00,ZBYN 261500Z AUTO 00000KT 3SM M01/M02 A3016 RMK SLP252 T10101017 57002 IEM_DS3505
ZBYN,1990-03-26 18:00,ZBYN 261800Z AUTO 00000KT 3SM M01/M02 A3014 RMK 60008 T10101017 40014//// 57007 IEM_DS3505
ZBYN,1990-03-26 21:00,ZBYN 262100Z AUTO 36002KT 3SM M01/M02 A3009 RMK SLP227 T10121017 57017 IEM_DS3505
ZBYN,1990-03-26 23:00,ZBYN 262300Z AUTO 00000KT 1 1/4SM M01/M02 A3009 RMK T10101020 IEM_DS3505
ZBYN,1990-03-27 00:00,ZBYN 270000Z AUTO 36002KT 5SM M00/M01 A3009 RMK 60002 SLP229 T10051014 52001 IEM_DS3505
ZBYN,1990-03-27 01:00,ZBYN 270100Z AUTO 00000KT 1 1/4SM 00/M01 A3009 RMK T00001010 IEM_DS3505
ZBYN,1990-03-27 02:00,ZBYN 270200Z AUTO 00000KT 1 1/4SM 01/00 A3012 RMK T00100000 IEM_DS3505
ZBYN,1990-03-27 03:00,ZBYN 270300Z AUTO 36002KT 5SM 02/M02 A3009 RMK SLP229 T00181017 52004 IEM_DS3505
ZBYN,1990-03-27 04:00,ZBYN 270400Z AUTO 17004KT 5SM 03/00 A3009 RMK T00300000 IEM_DS3505
ZBYN,1990-03-27 05:00,ZBYN 270500Z AUTO 00000KT 7SM 02/00 A3009 RMK T00200000 IEM_DS3505
ZBYN,1990-03-27 06:00,ZBYN 270600Z AUTO 00000KT 5SM 02/M00 A3006 RMK 60012 SLP220 T00191005 4////1016 57008 IEM_DS3505
ZBYN,1990-03-27 07:00,ZBYN 270700Z AUTO 00000KT 7SM 02/M01 A3003 RMK T00201010 IEM_DS3505
ZBYN,1990-03-27 08:00,ZBYN 270800Z AUTO 00000KT 4SM 02/00 A3003 RMK T00200000 IEM_DS3505
ZBYN,1990-03-27 09:00,ZBYN 270900Z AUTO 00000KT 4SM 01/00 A3003 RMK SLP212 T00090001 57009 IEM_DS3505
ZBYN,1990-03-27 10:00,ZBYN 271000Z AUTO 00000KT 3/8SM 01/01 A3003 RMK T00100010 IEM_DS3505
ZBYN,1990-03-27 11:00,ZBYN 271100Z AUTO 00000KT 3/8SM 01/00 A3006 RMK T00100000 IEM_DS3505
ZBYN,1990-03-27 12:00,ZBYN 271200Z AUTO 00000KT 1/4SM 00/00 A3009 RMK 60004 SLP220 T00050000 52008 IEM_DS3505
ZBYN,1990-03-27 13:00,ZBYN 271300Z AUTO 00000KT 1/4SM 00/00 A3009 RMK T00000000 IEM_DS3505
ZBYN,1990-03-27 14:00,ZBYN 271400Z AUTO 00000KT 1/4SM 00/00 A3012 RMK T00000000 IEM_DS3505
ZBYN,1990-03-27 15:00,ZBYN 271500Z AUTO 00000KT 1/8SM 00/M00 A3012 RMK SLP227 T00021001 52009 IEM_DS3505
ZBYN,1990-03-27 18:00,ZBYN 271800Z AUTO 00000KT 1/4SM 00/00 A3009 RMK 60004 SLP223 T00030000 40030//// 57003 IEM_DS3505
ZBYN,1990-03-27 23:00,ZBYN 272300Z AUTO 00000KT 1/4SM 00/00 A3006 RMK T00000000 IEM_DS3505
ZBYN,1990-03-28 00:00,ZBYN 280000Z AUTO 00000KT 1/8SM 00/00 A3009 RMK 60002 70020 SLP222 T00020002 52009 IEM_DS3505
ZBYN,1990-03-28 01:50,ZBYN 280150Z AUTO 00000KT 1/8SM 00/00 A3009 RMK T00000000 IEM_DS3505
ZBYN,1990-03-28 03:00,ZBYN 280300Z AUTO 00000KT 1SM 01/01 A3011 RMK SLP229 T00100007 52007 IEM_DS3505
ZBYN,1990-03-28 03:50,ZBYN 280350Z AUTO 00000KT 1SM 01/01 A3009 RMK T00100010 IEM_DS3505
ZBYN,1990-03-28 04:00,ZBYN 280400Z AUTO 00000KT 1SM 02/01 A3009 RMK T00200010 IEM_DS3505
ZBYN,1990-03-28 05:00,ZBYN 280500Z AUTO 00000KT 1SM 03/01 A3009 RMK T00300010 IEM_DS3505
ZBYN,1990-03-28 06:00,ZBYN 280600Z AUTO 00000KT 3SM 04/01 A3006 RMK 60004 SLP213 T00440010 4////1009 57009 IEM_DS3505
ZBYN,1990-03-28 06:42,ZBYN 280642Z AUTO 00000KT 1 1/2SM 04/02 A3006 RMK T00400020 IEM_DS3505
ZBYN,1990-03-28 07:00,ZBYN 280700Z AUTO 00000KT 2SM 05/02 A3006 RMK T00500020 IEM_DS3505
ZBYN,1990-03-28 08:00,ZBYN 280800Z AUTO 00000KT 2 1/2SM 05/02 A3003 RMK T00500020 IEM_DS3505
ZBYN,1990-03-28 09:00,ZBYN 280900Z AUTO 00000KT 5SM 04/02 A3003 RMK SLP206 T00400018 57008 IEM_DS3505
ZBYN,1990-03-28 10:00,ZBYN 281000Z AUTO 00000KT 2SM 05/02 A3006 RMK T00500020 IEM_DS3505
ZBYN,1990-03-28 11:00,ZBYN 281100Z AUTO 00000KT 1SM 04/02 A3009 RMK T00400020 IEM_DS3505
ZBYN,1990-03-28 12:00,ZBYN 281200Z AUTO 00000KT 4SM 04/02 A3009 RMK 60001 SLP213 T00370020 52007 IEM_DS3505
ZBYN,1990-03-28 13:00,ZBYN 281300Z AUTO 00000KT 1SM 04/03 A3012 RMK T00400030 IEM_DS3505
ZBYN,1990-03-28 14:00,ZBYN 281400Z AUTO 00000KT 1SM 03/03 A3012 RMK T00300030 IEM_DS3505
ZBYN,1990-03-28 15:00,ZBYN 281500Z AUTO 00000KT 2 1/2SM 03/02 A3012 RMK SLP223 T00280018 52009 IEM_DS3505
ZBYN,1990-03-28 16:00,ZBYN 281600Z AUTO 00000KT 1SM 03/03 A3012 RMK T00300030 IEM_DS3505
ZBYN,1990-03-28 17:00,ZBYN 281700Z AUTO 00000KT 1SM 02/02 A3012 RMK T00200020 IEM_DS3505
ZBYN,1990-03-28 18:00,ZBYN 281800Z AUTO 00000KT 2SM 02/02 A3012 RMK 60000 SLP217 T00210016 40046//// 57002 IEM_DS3505
ZBYN,1990-03-28 19:00,ZBYN 281900Z AUTO 00000KT 1SM 02/02 A3009 RMK T00200020 IEM_DS3505
ZBYN,1990-03-28 20:00,ZBYN 282000Z AUTO 08004KT 1SM 02/02 A3009 RMK T00200020 IEM_DS3505
ZBYN,1990-03-28 21:00,ZBYN 282100Z AUTO 00000KT 1 1/4SM 02/01 A3007 RMK SLP210 T00170012 57007 IEM_DS3505
ZBYN,1990-03-28 23:00,ZBYN 282300Z AUTO 00000KT 1/2SM 02/02 A3009 RMK T00200020 IEM_DS3505
ZBYN,1990-03-29 00:00,ZBYN 290000Z AUTO 00000KT 1/2SM 03/02 A3009 RMK 70004 SLP216 T00260019 52006 IEM_DS3505
ZBYN,1990-03-29 01:00,ZBYN 290100Z AUTO 00000KT 1 1/4SM 04/02 A3009 RMK T00400020 IEM_DS3505
ZBYN,1990-03-29 03:00,ZBYN 290300Z AUTO 00000KT 3SM 05/02 A3012 RMK SLP211 T00540023 57001 IEM_DS3505
ZBYN,1990-03-29 04:00,ZBYN 290400Z AUTO 00000KT 1 1/4SM 07/03 A3009 RMK T00700030 IEM_DS3505
ZBYN,1990-03-29 05:00,ZBYN 290500Z AUTO 00000KT 2SM 09/05 A3006 RMK T00900050 IEM_DS3505
ZBYN,1990-03-29 06:00,ZBYN 290600Z AUTO 14002KT 4SM 10/04 A3003 RMK SLP191 T01040042 4////0000 57012 IEM_DS3505
ZBYN,1990-03-29 07:00,ZBYN 290700Z AUTO 21006KT 6SM 12/06 A3000 RMK T01200060 IEM_DS3505
ZBYN,1990-03-29 09:00,ZBYN 290900Z AUTO 18002KT 6SM A2997 RMK 57021 IEM_DS3505
ZBYN,1990-03-29 10:00,ZBYN 291000Z AUTO 00000KT 6SM 12/06 A2997 RMK T01200060 IEM_DS3505
ZBYN,1990-03-29 11:00,ZBYN 291100Z AUTO 00000KT 6SM 11/08 A2997 RMK T01100080 IEM_DS3505
ZBYN,1990-03-29 12:00,ZBYN 291200Z AUTO 00000KT 6SM 10/08 A3000 RMK SLP176 T00970075 52007 IEM_DS3505
ZBYN,1990-03-29 13:00,ZBYN 291300Z AUTO 00000KT 4SM 08/07 A3003 RMK T00800070 IEM_DS3505
ZBYN,1990-03-29 14:00,ZBYN 291400Z AUTO 00000KT 4SM 06/06 A3003 RMK T00600060 IEM_DS3505
ZBYN,1990-03-29 15:00,ZBYN 291500Z AUTO 32002KT 5SM 06/04 A3003 RMK SLP179 T00600044 52002 IEM_DS3505
ZBYN,1990-03-29 16:00,ZBYN 291600Z AUTO 00000KT 3SM 05/04 A3003 RMK T00500040 IEM_DS3505
ZBYN,1990-03-29 17:00,ZBYN 291700Z AUTO 00000KT 2SM 04/03 A3003 RMK T00400030 IEM_DS3505
ZBYN,1990-03-29 18:00,ZBYN 291800Z AUTO 00000KT 4SM 03/03 A3003 RMK SLP175 T00310029 40126//// 57001 IEM_DS3505
ZBYN,1990-03-29 19:00,ZBYN 291900Z AUTO 00000KT 1 1/4SM 02/02 A3003 RMK T00200020 IEM_DS3505
ZBYN,1990-03-29 20:00,ZBYN 292000Z AUTO 00000KT 1 1/4SM 02/02 A3003 RMK T00200020 IEM_DS3505
ZBYN,1990-03-29 21:00,ZBYN 292100Z AUTO 00000KT 1/4SM 01/01 A3000 RMK SLP172 T00110011 57002 IEM_DS3505
ZBYN,1990-03-29 23:00,ZBYN 292300Z AUTO 00000KT 1SM 01/01 A3003 RMK T00100010 IEM_DS3505
ZBYN,1990-03-30 00:00,ZBYN 300000Z AUTO 00000KT 1SM 03/02 A3003 RMK SLP182 T00280023 52007 IEM_DS3505
ZBYN,1990-03-30 01:00,ZBYN 300100Z AUTO 00000KT 1SM 05/04 A3006 RMK T00500040 IEM_DS3505
ZBYN,1990-03-30 02:00,ZBYN 300200Z AUTO 00000KT 1 1/4SM 09/06 A3006 RMK T00900060 IEM_DS3505
ZBYN,1990-03-30 03:00,ZBYN 300300Z AUTO 18004KT 5SM 11/07 A3003 RMK SLP173 T01090069 57001 IEM_DS3505
ZBYN,1990-03-30 04:00,ZBYN 300400Z AUTO 00000KT 5SM 13/07 A3003 RMK T01300070 IEM_DS3505
ZBYN,1990-03-30 05:00,ZBYN 300500Z AUTO 26004KT 4SM 13/07 A3000 RMK T01300070 IEM_DS3505
ZBYN,1990-03-30 06:00,ZBYN 300600Z AUTO 16004KT 7SM 14/07 A2995 RMK 60000 SLP146 T01430071 4////1005 57024 IEM_DS3505
ZBYN,1990-03-30 07:00,ZBYN 300700Z AUTO 20004KT 7SM 16/06 A2988 RMK T01600060 IEM_DS3505
ZBYN,1990-03-30 08:00,ZBYN 300800Z AUTO 22014KT 7SM 16/07 A2988 RMK T01600070 IEM_DS3505
ZBYN,1990-03-30 09:00,ZBYN 300900Z AUTO 36006KT 9SM 15/08 A2988 RMK SLP130 T01500080 57017 IEM_DS3505
ZBYN,1990-03-30 10:00,ZBYN 301000Z AUTO 04004KT 7SM 15/06 A2988 RMK T01500060 IEM_DS3505
ZBYN,1990-03-30 11:00,ZBYN 301100Z AUTO 27006KT 7SM 13/06 A2991 RMK T01300060 IEM_DS3505
ZBYN,1990-03-30 12:00,ZBYN 301200Z AUTO 32004KT 9SM 10/04 A2991 RMK SLP147 T01000044 52011 IEM_DS3505
ZBYN,1990-03-30 14:00,ZBYN 301400Z AUTO 10006KT 7SM 09/04 A2994 RMK T00900040 IEM_DS3505
ZBYN,1990-03-30 15:00,ZBYN 301500Z AUTO 00000KT 9SM 07/03 A2994 RMK SLP152 T00680032 52012 IEM_DS3505
ZBYN,1990-03-30 16:00,ZBYN 301600Z AUTO 09006KT 7SM 07/04 A2997 RMK T00700040 IEM_DS3505
ZBYN,1990-03-30 18:00,ZBYN 301800Z AUTO 00000KT 9SM 04/02 A2994 RMK SLP148 T00380024 40164//// 57003 IEM_DS3505
ZBYN,1990-03-31 00:00,ZBYN 310000Z AUTO 00000KT 5SM 04/04 A2996 RMK SLP157 T00440035 52007 IEM_DS3505
ZBYN,1990-03-31 02:00,ZBYN 310200Z AUTO 00000KT 7SM 14/06 A2997 RMK T01400060 IEM_DS3505
ZBYN,1990-03-31 03:00,ZBYN 310300Z AUTO 18004KT 6SM 13/04 A2994 RMK SLP146 T01340037 57001 IEM_DS3505
ZBYN,1990-03-31 06:00,ZBYN 310600Z AUTO 18006KT 9SM 17/M00 A2988 RMK SLP119 T01711003 4////0002 57023 IEM_DS3505
ZBYN,1990-03-31 07:00,ZBYN 310700Z AUTO 17006KT 7SM 18/00 A2985 RMK T01800000 IEM_DS3505
ZBYN,1990-03-31 08:00,ZBYN 310800Z AUTO 15006KT 7SM 18/01 A2983 RMK T01800010 IEM_DS3505
ZBYN,1990-03-31 09:00,ZBYN 310900Z AUTO 18004KT 9SM 18/02 A2985 RMK SLP109 T01750015 57012 IEM_DS3505
ZBYN,1990-03-31 10:00,ZBYN 311000Z AUTO 00000KT 7SM 17/01 A2983 RMK T01700010 IEM_DS3505
ZBYN,1990-03-31 11:00,ZBYN 311100Z AUTO 00000KT 7SM 15/04 A2985 RMK T01500040 IEM_DS3505
ZBYN,1990-03-31 12:00,ZBYN 311200Z AUTO 00000KT 9SM 12/05 A2985 RMK SLP118 T01190048 52004 IEM_DS3505
ZBYN,1990-03-31 13:00,ZBYN 311300Z AUTO 07004KT 7SM 10/06 A2988 RMK T01000060 IEM_DS3505
ZBYN,1990-03-31 14:00,ZBYN 311400Z AUTO 00000KT 7SM 09/05 A2991 RMK T00900050 IEM_DS3505
ZBYN,1990-03-31 15:00,ZBYN 311500Z AUTO 36004KT 9SM 09/04 A2991 RMK SLP127 T00940040 52018 IEM_DS3505
ZBYN,1990-03-31 17:00,ZBYN 311700Z AUTO 11006KT 7SM 07/03 A2991 RMK T00700030 IEM_DS3505
ZBYN,1990-03-31 18:00,ZBYN 311800Z AUTO 00000KT 9SM 06/03 A2991 RMK SLP130 T00550034 40179//// 52002 IEM_DS3505
ZBYN,1990-03-31 19:00,ZBYN 311900Z AUTO 00000KT 7SM 04/02 A2991 RMK T00400020 IEM_DS3505
ZBYN,1990-03-31 20:00,ZBYN 312000Z AUTO 01002KT 7SM 04/03 A2991 RMK T00400030 IEM_DS3505
ZBYN,1990-03-31 21:00,ZBYN 312100Z AUTO 00000KT 5SM 03/02 A2993 RMK SLP135 T00280018 52001 IEM_DS3505
ZBYN,1990-03-31 22:00,ZBYN 312200Z AUTO 15004KT 7SM 03/01 A2994 RMK T00300010 IEM_DS3505
ZBYN,1990-03-31 23:00,ZBYN 312300Z AUTO 00000KT 7SM 01/00 A2994 RMK T00100000 IEM_DS3505
ZBYN,1990-04-01 00:00,ZBYN 010000Z AUTO 00000KT 5SM 05/03 RMK SLP151 T00530027 52010 IEM_DS3505
ZBYN,1990-04-01 01:00,ZBYN 010100Z AUTO 00000KT 3SM 09/05 A2997 RMK T00900050 IEM_DS3505
ZBYN,1990-04-01 02:00,ZBYN 010200Z AUTO 17004KT 7SM 13/04 A2997 RMK T01300040 IEM_DS3505
ZBYN,1990-04-01 03:00,ZBYN 010300Z AUTO 00000KT 6SM 15/03 A2997 RMK SLP140 T01460034 54000 IEM_DS3505
ZBYN,1990-04-01 04:00,ZBYN 010400Z AUTO 00000KT 7SM 17/05 A2994 RMK T01700050 IEM_DS3505
ZBYN,1990-04-01 05:00,ZBYN 010500Z AUTO 18006KT 7SM 19/04 A2991 RMK T01900040 IEM_DS3505
ZBYN,1990-04-01 06:00,ZBYN 010600Z AUTO 29004KT 9SM 20/M00 A2988 RMK SLP113 T02001005 57022 IEM_DS3505
ZBYN,1990-04-01 07:00,ZBYN 010700Z AUTO 00000KT 7SM 21/01 A2985 RMK T02100010 IEM_DS3505
ZBYN,1990-04-01 08:00,ZBYN 010800Z AUTO 00000KT 7SM 21/01 A2983 RMK T02100010 IEM_DS3505
ZBYN,1990-04-01 09:00,ZBYN 010900Z AUTO 14004KT 12SM 20/M04 A2983 RMK SLP104 T02011035 57012 IEM_DS3505
ZBYN,1990-04-01 10:00,ZBYN 011000Z AUTO 18004KT 6SM 20/01 A2983 RMK T02000010 IEM_DS3505
ZBYN,1990-04-01 11:00,ZBYN 011100Z AUTO 00000KT 6SM 17/07 A2985 RMK T01700070 IEM_DS3505
ZBYN,1990-04-01 12:00,ZBYN 011200Z AUTO 00000KT 12SM 15/05 A2985 RMK SLP110 T01510050 52002 IEM_DS3505
ZBYN,1990-04-01 13:00,ZBYN 011300Z AUTO 06008KT 6SM 15/04 A2985 RMK T01500040 IEM_DS3505
ZBYN,1990-04-01 15:00,ZBYN 011500Z AUTO 00000KT 9SM 13/04 A2988 RMK SLP111 T01260044 52011 IEM_DS3505
ZBYN,1990-04-01 16:00,ZBYN 011600Z AUTO 10006KT 6SM 13/06 A2988 RMK T01300060 IEM_DS3505
ZBYN,1990-04-01 17:00,ZBYN 011700Z AUTO 09006KT 6SM 12/06 A2988 RMK T01200060 IEM_DS3505
ZBYN,1990-04-01 18:00,ZBYN 011800Z AUTO 34002KT 9SM 10/03 A2988 RMK SLP107 T01000034 40209//// 54000 IEM_DS3505
ZBYN,1990-04-01 19:00,ZBYN 011900Z AUTO 09008KT 6SM 11/05 A2988 RMK T01100050 IEM_DS3505
ZBYN,1990-04-01 21:00,ZBYN 012100Z AUTO 29002KT 7SM 08/06 A2988 RMK SLP102 T00800055 57003 IEM_DS3505
ZBYN,1990-04-01 22:00,ZBYN 012200Z AUTO 00000KT 6SM 10/07 A2988 RMK T01000070 IEM_DS3505
ZBYN,1990-04-01 23:00,ZBYN 012300Z AUTO 00000KT 6SM 08/06 A2988 RMK T00800060 IEM_DS3505
ZBYN,1990-04-02 00:00,ZBYN 020000Z AUTO 32002KT 5SM 11/06 A2988 RMK SLP112 T01060059 52001 IEM_DS3505
ZBYN,1990-04-02 01:00,ZBYN 020100Z AUTO 18004KT 7SM 14/06 A2988 RMK T01400060 IEM_DS3505
ZBYN,1990-04-02 02:00,ZBYN 020200Z AUTO 00000KT 6SM 15/07 A2988 RMK T01500070 IEM_DS3505
ZBYN,1990-04-02 03:00,ZBYN 020300Z AUTO 34004KT 5SM 15/06 A2988 RMK SLP112 T01460065 52003 IEM_DS3505
ZBYN,1990-04-02 04:00,ZBYN 020400Z AUTO 33016KT 6SM 17/07 A2991 RMK T01700070 IEM_DS3505
ZBYN,1990-04-02 05:00,ZBYN 020500Z AUTO 30019KT 7SM 14/04 A2991 RMK T01400040 IEM_DS3505
ZBYN,1990-04-02 06:00,ZBYN 020600Z AUTO 01016KT 7SM 10/07 A2994 RMK T01000070 IEM_DS3505
ZBYN,1990-04-02 07:00,ZBYN 020700Z AUTO 01012KT 7SM 10/06 A2994 RMK T01000060 IEM_DS3505
ZBYN,1990-04-02 08:00,ZBYN 020800Z AUTO 36008KT 7SM 11/06 A2997 RMK T01100060 IEM_DS3505
ZBYN,1990-04-02 09:00,ZBYN 020900Z AUTO 36008KT 9SM 09/02 RMK SLP165 T00880016 52017 IEM_DS3505
ZBYN,1990-04-02 10:00,ZBYN 021000Z AUTO 36017KT 7SM 08/01 A3003 RMK T00800010 IEM_DS3505
ZBYN,1990-04-02 11:00,ZBYN 021100Z AUTO 01017KT 7SM 06/00 A3003 RMK T00600000 IEM_DS3505
ZBYN,1990-04-02 12:00,ZBYN 021200Z AUTO 02010KT 9SM 05/M01 A3009 RMK 60002 SLP205 T00521013 52035 IEM_DS3505
ZBYN,1990-04-02 13:00,ZBYN 021300Z AUTO 01010KT 6SM 05/M02 A3012 RMK T00501020 IEM_DS3505
ZBYN,1990-04-02 15:00,ZBYN 021500Z AUTO 36006KT 9SM 04/M04 RMK SLP230 T00381038 52027 IEM_DS3505
ZBYN,1990-04-02 18:00,ZBYN 021800Z AUTO 36014KT 9SM 01/M09 RMK SLP261 T00141086 40155//// 52018 IEM_DS3505
ZBYN,1990-04-02 21:00,ZBYN 022100Z AUTO 36006KT 17SM 00/M11 RMK 70004 SLP278 T00021106 52011 IEM_DS3505
ZBYN,1990-04-02 22:00,ZBYN 022200Z AUTO 36017KT 7SM 00/M12 A3030 RMK T00001120 IEM_DS3505
ZBYN,1990-04-02 23:00,ZBYN 022300Z AUTO 35010KT 7SM 00/M07 A3033 RMK T00001070 IEM_DS3505
ZBYN,1990-04-03 00:00,ZBYN 030000Z AUTO 36004KT 17SM M00/M11 A3033 RMK 70004 SLP301 T10021114 52014 IEM_DS3505
ZBYN,1990-04-03 02:00,ZBYN 030200Z AUTO 36012KT 7SM 03/M11 A3039 RMK T00301110 IEM_DS3505
ZBYN,1990-04-03 03:00,ZBYN 030300Z AUTO 34006KT 12SM 02/M11 A3039 RMK SLP310 T00161112 52009 IEM_DS3505
ZBYN,1990-04-03 04:00,ZBYN 030400Z AUTO 36017KT 7SM 04/M09 A3039 RMK T00401090 IEM_DS3505
ZBYN,1990-04-03 05:00,ZBYN 030500Z AUTO 36017KT 7SM 04/M08 A3036 RMK T00401080 IEM_DS3505
ZBYN,1990-04-03 06:00,ZBYN 030600Z AUTO 36006KT 16SM 04/M10 A3033 RMK T00381098 4////1007 57008 IEM_DS3505
ZBYN,1990-04-03 07:00,ZBYN 030700Z AUTO 02014KT 7SM 05/M09 A3033 RMK T00501090 IEM_DS3505
ZBYN,1990-04-03 07:30,ZBYN 030730Z AUTO 02014KT 7SM 05/M09 A3033 RMK T00501090 IEM_DS3505
ZBYN,1990-04-03 09:00,ZBYN 030900Z AUTO 36004KT 16SM 04/M09 RMK SLP300 T00381093 57003 IEM_DS3505
ZBYN,1990-04-03 12:00,ZBYN 031200Z AUTO 36006KT 16SM 02/M09 A3036 RMK SLP318 T00161090 52012 IEM_DS3505
ZBYN,1990-04-03 12:39,ZBYN 031239Z AUTO 03010KT 7SM 04/M10 A3033 RMK T00401100 IEM_DS3505
ZBYN,1990-04-03 12:47,ZBYN 031247Z AUTO 03010KT 7SM 04/M10 A3033 RMK T00401100 IEM_DS3505
ZBYN,1990-04-03 13:00,ZBYN 031300Z AUTO 34006KT 7SM 00/M08 A3039 RMK T00001080 IEM_DS3505
ZBYN,1990-04-03 15:00,ZBYN 031500Z AUTO 34004KT 12SM 00/M07 RMK SLP328 T00021073 52010 IEM_DS3505
ZBYN,1990-04-03 18:00,ZBYN 031800Z AUTO 27006KT 12SM M01/M08 RMK SLP323 T10121082 40049//// 57004 IEM_DS3505
ZBYN,1990-04-03 20:00,ZBYN 032000Z AUTO 00000KT 7SM M03/M09 A3036 RMK T10301090 IEM_DS3505
ZBYN,1990-04-03 21:00,ZBYN 032100Z AUTO 09004KT 12SM M03/M10 A3036 RMK SLP320 T10301096 57005 IEM_DS3505
ZBYN,1990-04-03 22:00,ZBYN 032200Z AUTO 09004KT 7SM M04/ A3036 RMK IEM_DS3505
ZBYN,1990-04-03 23:00,ZBYN 032300Z AUTO 13004KT 7SM M04/M08 A3039 RMK T10401080 IEM_DS3505
ZBYN,1990-04-04 00:00,ZBYN 040000Z AUTO 14002KT 12SM M00/M05 A3039 RMK SLP324 T10041054 52004 IEM_DS3505
ZBYN,1990-04-04 01:00,ZBYN 040100Z AUTO 18010KT 7SM 02/M07 A3039 RMK T00201070 IEM_DS3505
ZBYN,1990-04-04 02:00,ZBYN 040200Z AUTO 26006KT 7SM 05/M10 A3039 RMK T00501100 IEM_DS3505
ZBYN,1990-04-04 03:00,ZBYN 040300Z AUTO 32008KT 19SM 07/M07 RMK SLP306 T00731070 57006 IEM_DS3505
ZBYN,1990-04-04 04:00,ZBYN 040400Z AUTO 35014KT 7SM 08/M14 A3033 RMK T00801140 IEM_DS3505
ZBYN,1990-04-04 06:00,ZBYN 040600Z AUTO 29014KT 19SM 11/M10 A3027 RMK SLP276 T01061095 4////1045 57024 IEM_DS3505
ZBYN,1990-04-04 07:00,ZBYN 040700Z AUTO 32017KT 7SM 11/M12 A3027 RMK T01101120 IEM_DS3505
ZBYN,1990-04-04 08:00,ZBYN 040800Z AUTO 27014KT 7SM 12/M11 A3021 RMK T01201110 IEM_DS3505
ZBYN,1990-04-04 09:00,ZBYN 040900Z AUTO 29014KT 19SM 11/M10 A3021 RMK SLP260 T01061095 57018 IEM_DS3505
ZBYN,1990-04-04 10:00,ZBYN 041000Z AUTO 28016KT 7SM 10/M10 A3024 RMK T01001100 IEM_DS3505
ZBYN,1990-04-04 11:00,ZBYN 041100Z AUTO 29012KT 7SM 08/M11 A3027 RMK T00801110 IEM_DS3505
ZBYN,1990-04-04 12:00,ZBYN 041200Z AUTO 29004KT 19SM 06/M02 A3024 RMK SLP263 T00591023 54000 IEM_DS3505
ZBYN,1990-04-04 13:00,ZBYN 041300Z AUTO 29010KT 7SM 05/M09 A3027 RMK T00501090 IEM_DS3505
ZBYN,1990-04-04 14:00,ZBYN 041400Z AUTO 12004KT 7SM 04/M07 A3027 RMK T00401070 IEM_DS3505
ZBYN,1990-04-04 15:00,ZBYN 041500Z AUTO 09004KT 16SM 03/M07 A3027 RMK SLP256 T00321066 52001 IEM_DS3505
ZBYN,1990-04-04 18:00,ZBYN 041800Z AUTO 14004KT 16SM M01/M05 RMK SLP253 T10121053 40116//// 57004 IEM_DS3505
ZBYN,1990-04-04 20:00,ZBYN 042000Z AUTO 09008KT 7SM M01/M05 A3018 RMK T10101050 IEM_DS3505
ZBYN,1990-04-04 21:00,ZBYN 042100Z AUTO 00000KT 12SM M02/M06 A3018 RMK SLP240 T10241062 57014 IEM_DS3505
ZBYN,1990-04-04 22:00,ZBYN 042200Z AUTO 09006KT 7SM M02/M06 A3015 RMK T10201060 IEM_DS3505
ZBYN,1990-04-05 00:00,ZBYN 050000Z AUTO 00000KT 7SM 02/M07 A3015 RMK SLP231 T00201069 57009 IEM_DS3505
ZBYN,1990-04-05 01:00,ZBYN 050100Z AUTO 00000KT 7SM 06/M06 A3015 RMK T00601060 IEM_DS3505
ZBYN,1990-04-05 02:00,ZBYN 050200Z AUTO 14006KT 7SM 07/M07 A3015 RMK T00701070 IEM_DS3505
ZBYN,1990-04-05 03:00,ZBYN 050300Z AUTO 18008KT 12SM 10/M08 A3012 RMK SLP213 T01051081 57007 IEM_DS3505
ZBYN,1990-04-05 04:00,ZBYN 050400Z AUTO 21016KT 7SM 12/M09 A3009 RMK T01201090 IEM_DS3505
ZBYN,1990-04-05 06:00,ZBYN 050600Z AUTO 18004KT 16SM 15/M06 RMK SLP173 T01501057 4////1044 57036 IEM_DS3505
ZBYN,1990-04-05 09:00,ZBYN 050900Z AUTO 20004KT 16SM 17/M03 RMK SLP135 T01671033 57034 IEM_DS3505
ZBYN,1990-04-05 10:00,ZBYN 051000Z AUTO 27004KT 6SM 17/M01 A2985 RMK T01701010 IEM_DS3505
ZBYN,1990-04-05 11:00,ZBYN 051100Z AUTO 27004KT 6SM 17/M01 A2985 RMK T01701010 IEM_DS3505
ZBYN,1990-04-05 12:00,ZBYN 051200Z AUTO 00000KT 16SM 11/01 A2988 RMK SLP129 T01070008 57008 IEM_DS3505
ZBYN,1990-04-05 13:00,ZBYN 051300Z AUTO 10004KT 6SM 14/01 A2988 RMK T01400010 IEM_DS3505
ZBYN,1990-04-05 15:00,ZBYN 051500Z AUTO 00000KT 9SM 08/01 A2988 RMK SLP125 T00820009 52006 IEM_DS3505
ZBYN,1990-04-05 16:00,ZBYN 051600Z AUTO 10004KT 6SM 08/02 A2988 RMK T00800020 IEM_DS3505
ZBYN,1990-04-05 18:00,ZBYN 051800Z AUTO 00000KT 6SM 06/01 RMK SLP113 T00600007 40167//// 57008 IEM_DS3505
ZBYN,1990-04-05 21:00,ZBYN 052100Z AUTO 00000KT 6SM 03/01 RMK SLP099 T00340007 57014 IEM_DS3505
ZBYN,1990-04-05 22:00,ZBYN 052200Z AUTO 00000KT 6SM 03/00 A2980 RMK T00300000 IEM_DS3505
ZBYN,1990-04-05 23:00,ZBYN 052300Z AUTO 00000KT 6SM 03/01 A2983 RMK T00300010 IEM_DS3505
ZBYN,1990-04-06 00:00,ZBYN 060000Z AUTO 04002KT 4SM 07/01 A2983 RMK SLP100 T00740007 57002 IEM_DS3505
ZBYN,1990-04-06 01:00,ZBYN 060100Z AUTO 00000KT 7SM 12/01 A2980 RMK T01200010 IEM_DS3505
ZBYN,1990-04-06 02:00,ZBYN 060200Z AUTO 00000KT 7SM 14/00 A2980 RMK T01400000 IEM_DS3505
ZBYN,1990-04-06 03:00,ZBYN 060300Z AUTO 18004KT 6SM 15/01 A2977 RMK SLP086 T01500008 57005 IEM_DS3505
ZBYN,1990-04-06 04:00,ZBYN 060400Z AUTO 24006KT 6SM 17/02 A2977 RMK T01700020 IEM_DS3505
ZBYN,1990-04-06 05:00,ZBYN 060500Z AUTO 20010KT 7SM 19/02 A2974 RMK T01900020 IEM_DS3505
ZBYN,1990-04-06 06:00,ZBYN 060600Z AUTO 22004KT 9SM 19/01 A2971 RMK SLP051 T01930011 4////0018 57029 IEM_DS3505
ZBYN,1990-04-06 08:00,ZBYN 060800Z AUTO 30027KT 7SM 17/M02 A2971 RMK T01701020 IEM_DS3505
ZBYN,1990-04-06 09:00,ZBYN 060900Z AUTO 32029G47KT 3SM 14/M09 A2974 RMK SLP072 T01411087 52008 IEM_DS3505
ZBYN,1990-04-06 10:00,ZBYN 061000Z AUTO 32029KT 1 1/2SM 12/M12 A2980 RMK T01201120 IEM_DS3505
ZBYN,1990-04-06 11:00,ZBYN 061100Z AUTO 34023KT 2 1/2SM 11/M13 A2985 RMK T01101130 IEM_DS3505
ZBYN,1990-04-06 12:00,ZBYN 061200Z AUTO 32017KT 2 1/2SM 10/M15 A2985 RMK SLP210 T01031154 52044 IEM_DS3505
ZBYN,1990-04-06 13:00,ZBYN 061300Z AUTO 30017KT 2 1/2SM 09/M14 RMK T00901140 IEM_DS3505
ZBYN,1990-04-06 15:00,ZBYN 061500Z AUTO 32016KT 5SM 08/M12 A3000 RMK SLP159 T00791119 52043 IEM_DS3505
ZBYN,1990-04-06 16:00,ZBYN 061600Z AUTO 30019KT 2 1/2SM 07/M11 A3000 RMK T00701110 IEM_DS3505
ZBYN,1990-04-06 18:00,ZBYN 061800Z AUTO 32014KT 5SM 04/M10 A3006 RMK SLP180 T00421099 40195//// 52009 IEM_DS3505
ZBYN,1990-04-06 19:00,ZBYN 061900Z AUTO 30014KT 7SM 03/M15 A3006 RMK T00301150 IEM_DS3505
ZBYN,1990-04-06 20:00,ZBYN 062000Z AUTO 30029KT 2 1/2SM 08/M14 A3000 RMK T00801140 IEM_DS3505
ZBYN,1990-04-06 21:00,ZBYN 062100Z AUTO 29006KT 6SM 02/M09 A3000 RMK SLP170 T00231093 57005 IEM_DS3505
ZBYN,1990-04-06 22:00,ZBYN 062200Z AUTO 28012KT 7SM 02/M12 A3000 RMK T00201120 IEM_DS3505
ZBYN,1990-04-06 23:00,ZBYN 062300Z AUTO 28004KT 7SM 01/M09 A3000 RMK T00101090 IEM_DS3505
ZBYN,1990-04-07 00:00,ZBYN 070000Z AUTO 00000KT 12SM 04/M09 A3000 RMK SLP174 T00441090 57003 IEM_DS3505
ZBYN,1990-04-07 02:00,ZBYN 070200Z AUTO 30025KT 7SM 08/M14 A3003 RMK T00801140 IEM_DS3505
ZBYN,1990-04-07 03:00,ZBYN 070300Z AUTO 29017KT 6SM 09/M14 A3003 RMK SLP169 T00901143 57001 IEM_DS3505
ZBYN,1990-04-07 04:00,ZBYN 070400Z AUTO 30027KT 7SM 10/M09 A3003 RMK T01001090 IEM_DS3505
ZBYN,1990-04-07 05:00,ZBYN 070500Z AUTO 32019KT 7SM 11/M03 A3000 RMK T01101030 IEM_DS3505
ZBYN,1990-04-07 06:00,ZBYN 070600Z AUTO 29014KT 7SM 11/ A2997 RMK SLP151 4////0013 57018 IEM_DS3505
ZBYN,1990-04-07 07:00,ZBYN 070700Z AUTO 33023KT 7SM 13/04 A2994 RMK T01300040 IEM_DS3505
ZBYN,1990-04-07 08:00,ZBYN 070800Z AUTO 30023KT 7SM 13/M08 A2988 RMK T01301080 IEM_DS3505
ZBYN,1990-04-07 09:00,ZBYN 070900Z AUTO 32016KT 4SM 12/M11 A2988 RMK SLP135 T01251114 57016 IEM_DS3505
ZBYN,1990-04-07 10:00,ZBYN 071000Z AUTO 31023KT 4SM 12/M11 A2988 RMK T01201110 IEM_DS3505
ZBYN,1990-04-07 11:00,ZBYN 071100Z AUTO 29014KT 5SM 11/M08 A2991 RMK T01101080 IEM_DS3505
ZBYN,1990-04-07 12:00,ZBYN 071200Z AUTO 29006KT 5SM 10/M10 A2994 RMK SLP150 T01041104 52014 IEM_DS3505
ZBYN,1990-04-07 13:00,ZBYN 071300Z AUTO 28008KT 7SM 09/M06 A2997 RMK T00901060 IEM_DS3505
ZBYN,1990-04-07 14:00,ZBYN 071400Z AUTO 29010KT 7SM 08/M05 A2997 RMK T00801050 IEM_DS3505
ZBYN,1990-04-07 15:00,ZBYN 071500Z AUTO 00000KT 6SM 07/M06 A2997 RMK SLP160 T00711055 52011 IEM_DS3505
ZBYN,1990-04-07 16:00,ZBYN 071600Z AUTO 21010KT 7SM 05/M04 A2997 RMK T00501040 IEM_DS3505
ZBYN,1990-04-07 17:00,ZBYN 071700Z AUTO 21006KT 7SM 06/M04 A3000 RMK T00601040 IEM_DS3505
ZBYN,1990-04-07 18:00,ZBYN 071800Z AUTO 25002KT 7SM 04/M04 A2997 RMK SLP163 T00451042 40132//// 52002 IEM_DS3505
ZBYN,1990-04-07 19:00,ZBYN 071900Z AUTO 12004KT 7SM 03/M05 A3000 RMK T00301050 IEM_DS3505
ZBYN,1990-04-07 20:00,ZBYN 072000Z AUTO 11006KT 3SM 03/M04 A3000 RMK T00301040 IEM_DS3505
ZBYN,1990-04-07 21:00,ZBYN 072100Z AUTO 11002KT 6SM 02/M06 RMK SLP167 T00151055 52001 IEM_DS3505
ZBYN,1990-04-07 22:00,ZBYN 072200Z AUTO 11004KT 7SM 01/M05 A3000 RMK T00101050 IEM_DS3505
ZBYN,1990-04-07 23:00,ZBYN 072300Z AUTO 09004KT 7SM 02/M05 A3003 RMK T00201050 IEM_DS3505
ZBYN,1990-04-08 00:00,ZBYN 080000Z AUTO 11004KT 9SM 05/M04 RMK SLP175 T00531038 52010 IEM_DS3505
ZBYN,1990-04-08 01:00,ZBYN 080100Z AUTO 11006KT 7SM 09/M02 A3003 RMK T00901020 IEM_DS3505
ZBYN,1990-04-08 02:00,ZBYN 080200Z AUTO 16006KT 7SM 11/02 A3003 RMK T01100020 IEM_DS3505
ZBYN,1990-04-08 03:00,ZBYN 080300Z AUTO 14002KT 6SM 13/M04 A3000 RMK SLP160 T01341038 57007 IEM_DS3505
ZBYN,1990-04-08 04:00,ZBYN 080400Z AUTO 19006KT 7SM 17/M04 A2997 RMK T01701040 IEM_DS3505
ZBYN,1990-04-08 05:00,ZBYN 080500Z AUTO 22008KT 7SM 17/M04 A2991 RMK T01701040 IEM_DS3505
ZBYN,1990-04-08 06:00,ZBYN 080600Z AUTO 18010KT 12SM 18/M07 A2988 RMK SLP122 T01801073 4////1004 57031 IEM_DS3505
ZBYN,1990-04-08 07:00,ZBYN 080700Z AUTO 26006KT 7SM 19/M04 A2985 RMK T01901040 IEM_DS3505
ZBYN,1990-04-08 08:00,ZBYN 080800Z AUTO 23008KT 7SM 20/M03 A2983 RMK T02001030 IEM_DS3505
ZBYN,1990-04-08 09:00,ZBYN 080900Z AUTO 18008KT 12SM 19/M06 A2980 RMK T01881061 57030 IEM_DS3505
ZBYN,1990-04-08 10:00,ZBYN 081000Z AUTO 00000KT 7SM 19/00 A2980 RMK T01900000 IEM_DS3505
ZBYN,1990-04-08 11:00,ZBYN 081100Z AUTO 19004KT 7SM 17/00 A2980 RMK T01700000 IEM_DS3505
ZBYN,1990-04-08 12:00,ZBYN 081200Z AUTO 25004KT 9SM 14/M01 A2980 RMK SLP097 T01441012 52003 IEM_DS3505
ZBYN,1990-04-08 13:00,ZBYN 081300Z AUTO 10004KT 7SM 12/01 A2983 RMK T01200010 IEM_DS3505
ZBYN,1990-04-08 14:00,ZBYN 081400Z AUTO 00000KT 7SM 09/00 A2985 RMK T00900000 IEM_DS3505
ZBYN,1990-04-08 15:00,ZBYN 081500Z AUTO 00000KT 6SM 07/00 A2985 RMK SLP112 T00660000 52014 IEM_DS3505
ZBYN,1990-04-08 16:00,ZBYN 081600Z AUTO 08008KT 7SM 07/M02 A2985 RMK T00701020 IEM_DS3505
ZBYN,1990-04-08 17:00,ZBYN 081700Z AUTO 00000KT 7SM 06/00 A2985 RMK T00600000 IEM_DS3505
ZBYN,1990-04-08 18:00,ZBYN 081800Z AUTO 00000KT 6SM 03/M01 A2985 RMK SLP110 T00281009 40194//// 57001 IEM_DS3505
ZBYN,1990-04-08 19:00,ZBYN 081900Z AUTO 17004KT 7SM 04/M02 A2983 RMK T00401020 IEM_DS3505
ZBYN,1990-04-08 20:00,ZBYN 082000Z AUTO 00000KT 7SM 03/M02 A2983 RMK T00301020 IEM_DS3505
ZBYN,1990-04-08 21:00,ZBYN 082100Z AUTO 36004KT 6SM 04/M03 A2983 RMK SLP100 T00381034 57010 IEM_DS3505
ZBYN,1990-04-08 22:00,ZBYN 082200Z AUTO 00000KT 7SM 02/M02 A2983 RMK T00201020 IEM_DS3505
ZBYN,1990-04-08 23:00,ZBYN 082300Z AUTO 00000KT 7SM 02/M01 A2983 RMK T00201010 IEM_DS3505
ZBYN,1990-04-09 00:00,ZBYN 090000Z AUTO 00000KT 6SM 05/00 A2985 RMK SLP108 T00520003 52003 IEM_DS3505
ZBYN,1990-04-09 01:00,ZBYN 090100Z AUTO 00000KT 4SM 10/M02 A2985 RMK T01001020 IEM_DS3505
ZBYN,1990-04-09 02:00,ZBYN 090200Z AUTO 00000KT 7SM 13/M04 A2985 RMK T01301040 IEM_DS3505
ZBYN,1990-04-09 03:00,ZBYN 090300Z AUTO 00000KT 4SM 16/M02 A2985 RMK SLP105 T01581019 52001 IEM_DS3505
ZBYN,1990-04-09 04:00,ZBYN 090400Z AUTO 00000KT 7SM 18/M01 A2985 RMK T01801010 IEM_DS3505
ZBYN,1990-04-09 05:00,ZBYN 090500Z AUTO 22006KT 7SM 19/M01 A2980 RMK T01901010 IEM_DS3505
ZBYN,1990-04-09 06:00,ZBYN 090600Z AUTO 20008KT 7SM 20/M04 A2977 RMK SLP080 T02031038 4////0007 57022 IEM_DS3505
ZBYN,1990-04-09 07:00,ZBYN 090700Z AUTO 24008KT 7SM 21/M01 A2974 RMK T02101010 IEM_DS3505
ZBYN,1990-04-09 08:00,ZBYN 090800Z AUTO 00000KT 7SM 22/00 A2971 RMK T02200000 IEM_DS3505
ZBYN,1990-04-09 09:00,ZBYN 090900Z AUTO 16004KT 7SM 22/M03 A2971 RMK SLP055 T02171031 57019 IEM_DS3505
ZBYN,1990-04-09 10:00,ZBYN 091000Z AUTO 16006KT 7SM 21/M06 A2971 RMK T02101060 IEM_DS3505
ZBYN,1990-04-09 11:00,ZBYN 091100Z AUTO 16004KT 7SM 19/00 A2971 RMK T01900000 IEM_DS3505
ZBYN,1990-04-09 12:00,ZBYN 091200Z AUTO 00000KT 7SM 14/01 A2974 RMK SLP074 T01450010 52009 IEM_DS3505
ZBYN,1990-04-09 13:00,ZBYN 091300Z AUTO 07008KT 7SM 15/M03 A2977 RMK T01501030 IEM_DS3505
ZBYN,1990-04-09 14:00,ZBYN 091400Z AUTO 07010KT 7SM 15/00 A2980 RMK T01500000 IEM_DS3505
ZBYN,1990-04-09 15:00,ZBYN 091500Z AUTO 00000KT 7SM 10/01 A2980 RMK SLP082 T01010014 52016 IEM_DS3505
ZBYN,1990-04-09 16:00,ZBYN 091600Z AUTO 07004KT 7SM 11/01 A2983 RMK T01100010 IEM_DS3505
ZBYN,1990-04-09 17:00,ZBYN 091700Z AUTO 00000KT 7SM 10/01 A2983 RMK T01000010 IEM_DS3505
ZBYN,1990-04-09 18:00,ZBYN 091800Z AUTO 34002KT 7SM 08/00 RMK SLP089 T00780001 40217//// 52010 IEM_DS3505
ZBYN,1990-04-09 19:00,ZBYN 091900Z AUTO 34002KT 7SM 08/00 A2983 RMK SLP089 T00780001 52010 IEM_DS3505
ZBYN,1990-04-09 21:00,ZBYN 092100Z AUTO 00000KT 6SM 08/M01 RMK SLP093 T00811011 52006 IEM_DS3505
ZBYN,1990-04-09 22:00,ZBYN 092200Z AUTO 00000KT 7SM 06/02 A2983 RMK T00600020 IEM_DS3505
ZBYN,1990-04-09 23:00,ZBYN 092300Z AUTO 10002KT 7SM 04/01 A2988 RMK T00400010 IEM_DS3505
ZBYN,1990-04-10 00:00,ZBYN 100000Z AUTO 02004KT 5SM 10/M02 A2988 RMK SLP119 T00971020 52016 IEM_DS3505
ZBYN,1990-04-10 01:00,ZBYN 100100Z AUTO 00000KT 4SM 13/00 A2991 RMK T01300000 IEM_DS3505
ZBYN,1990-04-10 03:00,ZBYN 100300Z AUTO 00000KT 5SM 18/M01 A2991 RMK SLP119 T01751006 52005 IEM_DS3505
ZBYN,1990-04-10 04:00,ZBYN 100400Z AUTO 00000KT 7SM 21/01 A2988 RMK T02100010 IEM_DS3505
ZBYN,1990-04-10 05:00,ZBYN 100500Z AUTO 30006KT 6SM 22/01 A2985 RMK T02200010 IEM_DS3505
ZBYN,1990-04-10 06:00,ZBYN 100600Z AUTO 25004KT 7SM 24/M00 A2983 RMK T02381005 4////0061 57027 IEM_DS3505
ZBYN,1990-04-10 07:00,ZBYN 100700Z AUTO 19004KT 6SM 24/02 A2983 RMK T02400020 IEM_DS3505
ZBYN,1990-04-10 08:00,ZBYN 100800Z AUTO 23004KT 6SM 24/03 A2980 RMK T02400030 IEM_DS3505
ZBYN,1990-04-10 09:00,ZBYN 100900Z AUTO 18004KT 7SM 24/M01 A2980 RMK SLP074 T02361009 57008 IEM_DS3505
ZBYN,1990-04-10 10:00,ZBYN 101000Z AUTO 00000KT 6SM 23/02 A2980 RMK T02300020 IEM_DS3505
ZBYN,1990-04-10 12:00,ZBYN 101200Z AUTO 09004KT 7SM 18/M01 A2988 RMK SLP106 T01831009 52023 IEM_DS3505
ZBYN,1990-04-10 13:00,ZBYN 101300Z AUTO 09010KT 6SM 18/M01 A2991 RMK T01801010 IEM_DS3505
ZBYN,1990-04-10 14:00,ZBYN 101400Z AUTO 09010KT 6SM 16/02 A2994 RMK T01600020 IEM_DS3505
ZBYN,1990-04-10 15:00,ZBYN 101500Z AUTO 14004KT 7SM 13/02 A2994 RMK SLP125 T01320020 52022 IEM_DS3505
ZBYN,1990-04-10 16:00,ZBYN 101600Z AUTO 09008KT 6SM 15/03 A2994 RMK T01500030 IEM_DS3505
ZBYN,1990-04-10 17:00,ZBYN 101700Z AUTO 09010KT 6SM 13/03 A2994 RMK T01300030 IEM_DS3505
ZBYN,1990-04-10 18:00,ZBYN 101800Z AUTO 00000KT 7SM 10/04 A2994 RMK SLP119 T01050043 40242//// 57001 IEM_DS3505
ZBYN,1990-04-10 19:00,ZBYN 101900Z AUTO 10004KT 6SM 13/03 A2994 RMK T01300030 IEM_DS3505
ZBYN,1990-04-10 21:00,ZBYN 102100Z AUTO 00000KT 9SM 09/03 A2994 RMK SLP124 T00870034 52002 IEM_DS3505
ZBYN,1990-04-11 00:00,ZBYN 110000Z AUTO 34002KT 6SM 13/01 RMK SLP148 T01280014 52020 IEM_DS3505
ZBYN,1990-04-11 01:00,ZBYN 110100Z AUTO 36016KT 4SM 14/M01 A3003 RMK T01401010 IEM_DS3505
ZBYN,1990-04-11 02:00,ZBYN 110200Z AUTO 35016KT 5SM 15/M04 A3003 RMK T01501040 IEM_DS3505
ZBYN,1990-04-11 03:00,ZBYN 110300Z AUTO 02008KT 4SM 15/M05 A3003 RMK SLP167 T01461048 52013 IEM_DS3505
ZBYN,1990-04-11 04:00,ZBYN 110400Z AUTO 01019KT 5SM 16/M05 A3003 RMK T01601050 IEM_DS3505
ZBYN,1990-04-11 05:00,ZBYN 110500Z AUTO 35019KT 6SM 18/M03 A3000 RMK T01801030 IEM_DS3505
ZBYN,1990-04-11 06:00,ZBYN 110600Z AUTO 34008KT 4SM 17/M04 A3000 RMK SLP153 T01681036 4////0071 57014 IEM_DS3505
ZBYN,1990-04-11 07:00,ZBYN 110700Z AUTO 01017KT 6SM 17/M01 A2997 RMK T01701010 IEM_DS3505
ZBYN,1990-04-11 08:00,ZBYN 110800Z AUTO 04012KT 7SM 16/M01 A2997 RMK T01601010 IEM_DS3505
ZBYN,1990-04-11 09:00,ZBYN 110900Z AUTO 36012KT 6SM 14/M00 A3000 RMK SLP162 T01381002 52001 IEM_DS3505
ZBYN,1990-04-11 10:00,ZBYN 111000Z AUTO 34016KT 7SM 09/07 A3006 RMK T00900070 IEM_DS3505
ZBYN,1990-04-11 11:00,ZBYN 111100Z AUTO 36025KT 7SM 09/02 A3003 RMK T00900020 IEM_DS3505
ZBYN,1990-04-11 12:00,ZBYN 111200Z AUTO 36010G37KT 6SM 09/02 A3006 RMK 60012 SLP188 T00910017 52023 IEM_DS3505
ZBYN,1990-04-11 14:00,ZBYN 111400Z AUTO 35019KT 7SM 07/01 A3015 RMK T00700010 IEM_DS3505
ZBYN,1990-04-11 15:00,ZBYN 111500Z AUTO 34008KT 9SM 07/01 A3015 RMK SLP210 T00740007 52020 IEM_DS3505
ZBYN,1990-04-11 16:00,ZBYN 111600Z AUTO 35012KT 7SM 06/03 A3015 RMK T00600030 IEM_DS3505
ZBYN,1990-04-11 17:00,ZBYN 111700Z AUTO 34014KT 7SM 05/03 A3015 RMK T00500030 IEM_DS3505
ZBYN,1990-04-11 17:20,ZBYN 111720Z AUTO 34014KT 7SM 05/03 A3015 RMK T00500030 IEM_DS3505
ZBYN,1990-04-11 18:00,ZBYN 111800Z AUTO 36008KT 9SM 05/03 RMK 60012 SLP208 T00490028 40168//// 57002 IEM_DS3505
ZBYN,1990-04-11 19:00,ZBYN 111900Z AUTO 33017KT 7SM 05/03 A3012 RMK T00500030 IEM_DS3505
ZBYN,1990-04-11 21:00,ZBYN 112100Z AUTO 27006KT 9SM 04/03 A3009 RMK 71213 SLP204 T00360026 57010 IEM_DS3505
ZBYN,1990-04-11 22:00,ZBYN 112200Z AUTO 31008KT 4SM 03/02 A3009 RMK T00300020 IEM_DS3505
ZBYN,1990-04-11 23:00,ZBYN 112300Z AUTO 22006KT 4SM 02/02 A3012 RMK T00200020 IEM_DS3505
ZBYN,1990-04-12 00:00,ZBYN 120000Z AUTO 14002KT 6SM 00/00 A3012 RMK 60028 70051 SLP220 T00040001 52002 IEM_DS3505
ZBYN,1990-04-12 01:00,ZBYN 120100Z AUTO 00000KT 1SM 00/00 A3012 RMK T00000000 IEM_DS3505
ZBYN,1990-04-12 02:00,ZBYN 120200Z AUTO 00000KT 1SM 01/01 A3012 RMK T00100010 IEM_DS3505
ZBYN,1990-04-12 03:00,ZBYN 120300Z AUTO 00000KT 5SM 01/00 A3012 RMK SLP226 T00080005 52003 IEM_DS3505
ZBYN,1990-04-12 04:00,ZBYN 120400Z AUTO 00000KT 1 1/4SM 01/01 A3012 RMK T00100010 IEM_DS3505
ZBYN,1990-04-12 05:00,ZBYN 120500Z AUTO 20006KT 3SM 02/01 A3012 RMK T00200010 IEM_DS3505
ZBYN,1990-04-12 06:00,ZBYN 120600Z AUTO 18002KT 5SM 02/02 A3012 RMK 60031 SLP227 T00200018 4////0003 IEM_DS3505
ZBYN,1990-04-12 07:00,ZBYN 120700Z AUTO 19004KT 4SM 03/02 A3009 RMK T00300020 IEM_DS3505
ZBYN,1990-04-12 09:00,ZBYN 120900Z AUTO 00000KT 6SM 04/03 A3006 RMK SLP200 T00400028 57017 IEM_DS3505
ZBYN,1990-04-12 10:00,ZBYN 121000Z AUTO 20006KT 7SM 04/03 A3006 RMK T00400030 IEM_DS3505
ZBYN,1990-04-12 11:00,ZBYN 121100Z AUTO 21004KT 7SM 04/02 A3003 RMK T00400020 IEM_DS3505
ZBYN,1990-04-12 12:00,ZBYN 121200Z AUTO 34006KT 9SM 04/02 A3003 RMK 60002 SLP198 T00420020 57007 IEM_DS3505
ZBYN,1990-04-12 13:00,ZBYN 121300Z AUTO 31006KT 7SM 03/00 A3003 RMK T00300000 IEM_DS3505
ZBYN,1990-04-12 14:00,ZBYN 121400Z AUTO 31012KT 7SM 03/00 A3003 RMK T00300000 IEM_DS3505
ZBYN,1990-04-12 15:00,ZBYN 121500Z AUTO 32004KT 9SM 03/M01 A3003 RMK SLP198 T00321007 57001 IEM_DS3505
ZBYN,1990-04-12 16:00,ZBYN 121600Z AUTO 32008KT 7SM 02/01 A3003 RMK T00200010 IEM_DS3505
ZBYN,1990-04-12 17:00,ZBYN 121700Z AUTO 29004KT 7SM 03/00 A3003 RMK T00300000 IEM_DS3505
ZBYN,1990-04-12 18:00,ZBYN 121800Z AUTO 34002KT 7SM 03/00 A3000 RMK SLP189 T00330003 40050//// 57006 IEM_DS3505
ZBYN,1990-04-12 19:00,ZBYN 121900Z AUTO 27006KT 7SM 03/M01 A2997 RMK T00301010 IEM_DS3505
ZBYN,1990-04-12 20:00,ZBYN 122000Z AUTO 21004KT 7SM 03/M01 A2997 RMK T00301010 IEM_DS3505
ZBYN,1990-04-12 21:00,ZBYN 122100Z AUTO 32006KT 7SM 03/M05 A2994 RMK 70059 SLP163 T00331052 57020 IEM_DS3505
ZBYN,1990-04-12 22:00,ZBYN 122200Z AUTO 00000KT 6SM 02/00 A2994 RMK T00200000 IEM_DS3505
ZBYN,1990-04-12 23:00,ZBYN 122300Z AUTO 30010KT 6SM 03/M04 A2997 RMK T00301040 IEM_DS3505
ZBYN,1990-04-13 00:00,ZBYN 130000Z AUTO 32008KT 19SM 04/M06 RMK SLP164 T00401061 52002 IEM_DS3505
ZBYN,1990-04-13 02:00,ZBYN 130200Z AUTO 30014KT 6SM 06/M06 A2997 RMK T00601060 IEM_DS3505
ZBYN,1990-04-13 03:00,ZBYN 130300Z AUTO 29010KT 19SM 07/M06 A2997 RMK SLP166 T00741062 52006 IEM_DS3505
ZBYN,1990-04-13 05:00,ZBYN 130500Z AUTO 31021KT 6SM 08/M05 A2991 RMK T00801050 IEM_DS3505
ZBYN,1990-04-13 06:00,ZBYN 130600Z AUTO 32014KT 19SM 09/M08 A2991 RMK SLP139 T00941083 4////0022 57022 IEM_DS3505
ZBYN,1990-04-13 07:00,ZBYN 130700Z AUTO 28021KT 6SM 10/M08 A2988 RMK T01001080 IEM_DS3505
ZBYN,1990-04-13 08:00,ZBYN 130800Z AUTO 29019KT 6SM 10/M10 A2988 RMK T01001100 IEM_DS3505
ZBYN,1990-04-13 09:00,ZBYN 130900Z AUTO 32014KT 19SM 09/M09 RMK SLP134 T00901092 57005 IEM_DS3505
ZBYN,1990-04-13 11:00,ZBYN 131100Z AUTO 31010KT 7SM 07/M05 A2991 RMK T00701050 IEM_DS3505
ZBYN,1990-04-13 12:00,ZBYN 131200Z AUTO 36006KT 19SM 07/M07 A2991 RMK SLP150 T00661068 52012 IEM_DS3505
ZBYN,1990-04-13 13:00,ZBYN 131300Z AUTO 30006KT 7SM 05/M04 A2994 RMK T00501040 IEM_DS3505
ZBYN,1990-04-13 14:00,ZBYN 131400Z AUTO 30006KT 7SM 04/M04 A2997 RMK T00401040 IEM_DS3505
ZBYN,1990-04-13 15:00,ZBYN 131500Z AUTO 00000KT 19SM 04/M05 A2994 RMK SLP154 T00421050 52005 IEM_DS3505
ZBYN,1990-04-13 16:00,ZBYN 131600Z AUTO 34004KT 7SM 03/M03 A2994 RMK T00301030 IEM_DS3505
ZBYN,1990-04-13 18:00,ZBYN 131800Z AUTO 36002KT 19SM 04/M05 A2994 RMK SLP146 T00401053 40100//// 57004 IEM_DS3505
ZBYN,1990-04-13 19:00,ZBYN 131900Z AUTO 00000KT 7SM 00/M03 A2994 RMK T00001030 IEM_DS3505
ZBYN,1990-04-13 20:00,ZBYN 132000Z AUTO 00000KT 7SM M01/M03 A2994 RMK T10101030 IEM_DS3505
ZBYN,1990-04-13 21:00,ZBYN 132100Z AUTO 00000KT 16SM M01/M04 A2994 RMK SLP160 T10081038 52004 IEM_DS3505
ZBYN,1990-04-13 22:00,ZBYN 132200Z AUTO 10004KT 7SM M01/M03 A2994 RMK T10101030 IEM_DS3505
ZBYN,1990-04-13 23:00,ZBYN 132300Z AUTO 10004KT 7SM 00/M03 A2997 RMK T00001030 IEM_DS3505
ZBYN,1990-04-14 00:00,ZBYN 140000Z AUTO 14004KT 9SM 03/M03 A2997 RMK SLP170 T00261030 52011 IEM_DS3505
ZBYN,1990-04-14 01:00,ZBYN 140100Z AUTO 00000KT 6SM 06/M02 RMK T00601020 IEM_DS3505
ZBYN,1990-04-14 02:00,ZBYN 140200Z AUTO 25006KT 6SM 09/M02 A2997 RMK T00901020 IEM_DS3505
ZBYN,1990-04-14 03:00,ZBYN 140300Z AUTO 18004KT 6SM 11/M02 A2994 RMK SLP155 T01061020 57005 IEM_DS3505
ZBYN,1990-04-14 04:00,ZBYN 140400Z AUTO 20006KT 6SM 12/M04 A2991 RMK T01201040 IEM_DS3505
ZBYN,1990-04-14 04:15,ZBYN 140415Z AUTO 20006KT 6SM 12/M04 A2991 RMK T01201040 IEM_DS3505
ZBYN,1990-04-14 05:00,ZBYN 140500Z AUTO 24008KT 6SM 14/M03 A2988 RMK T01401030 IEM_DS3505
ZBYN,1990-04-14 06:00,ZBYN 140600Z AUTO 00000KT 12SM 15/M05 A2985 RMK SLP115 T01531054 4////1024 57029 IEM_DS3505
ZBYN,1990-04-14 07:00,ZBYN 140700Z AUTO 29016KT 6SM 17/M08 A2983 RMK T01701080 IEM_DS3505
ZBYN,1990-04-14 08:00,ZBYN 140800Z AUTO 30014KT 7SM 17/M08 A2983 RMK T01701080 IEM_DS3505
ZBYN,1990-04-14 09:00,ZBYN 140900Z AUTO 29010KT 19SM 16/M08 A2983 RMK SLP103 T01631080 57017 IEM_DS3505
ZBYN,1990-04-14 10:00,ZBYN 141000Z AUTO 29016KT 7SM 16/M07 A2983 RMK T01601070 IEM_DS3505
ZBYN,1990-04-14 11:00,ZBYN 141100Z AUTO 31008KT 7SM 13/M06 A2983 RMK T01301060 IEM_DS3505
ZBYN,1990-04-14 12:00,ZBYN 141200Z AUTO 34006KT 19SM 13/M04 A2985 RMK SLP123 T01261041 52018 IEM_DS3505
ZBYN,1990-04-14 13:00,ZBYN 141300Z AUTO 36004KT 7SM 09/M02 A2988 RMK T00901020 IEM_DS3505
ZBYN,1990-04-14 14:00,ZBYN 141400Z AUTO 00000KT 7SM 06/00 A2988 RMK T00600000 IEM_DS3505
ZBYN,1990-04-14 15:00,ZBYN 141500Z AUTO 00000KT 12SM 06/M00 A2991 RMK SLP131 T00651002 52010 IEM_DS3505
ZBYN,1990-04-14 16:00,ZBYN 141600Z AUTO 10004KT 7SM 04/M01 A2991 RMK T00401010 IEM_DS3505
ZBYN,1990-04-14 17:00,ZBYN 141700Z AUTO 00000KT 7SM 04/M01 A2991 RMK T00401010 IEM_DS3505
ZBYN,1990-04-14 18:00,ZBYN 141800Z AUTO 00000KT 7SM 03/M00 A2991 RMK T00281003 IEM_DS3505
ZBYN,1990-04-14 19:00,ZBYN 141900Z AUTO 00000KT 7SM 02/M01 A2991 RMK T00201010 IEM_DS3505
ZBYN,1990-04-14 20:00,ZBYN 142000Z AUTO 00000KT 7SM 00/M01 A2991 RMK T00001010 IEM_DS3505
ZBYN,1990-04-14 21:00,ZBYN 142100Z AUTO 00000KT 7SM 01/M01 A2991 RMK SLP134 T00091010 52003 IEM_DS3505
ZBYN,1990-04-14 22:00,ZBYN 142200Z AUTO 10004KT 7SM M01/M02 A2991 RMK T10101020 IEM_DS3505
ZBYN,1990-04-14 23:00,ZBYN 142300Z AUTO 00000KT 6SM 00/M02 A2994 RMK T00001020 IEM_DS3505
ZBYN,1990-04-15 00:00,ZBYN 150000Z AUTO 00000KT 6SM 05/00 A2997 RMK SLP153 T00520000 52018 IEM_DS3505
ZBYN,1990-04-15 01:00,ZBYN 150100Z AUTO 23004KT 7SM 08/M01 A3000 RMK T00801010 IEM_DS3505
ZBYN,1990-04-15 02:00,ZBYN 150200Z AUTO 00000KT 7SM 12/01 A3000 RMK T01200010 IEM_DS3505
ZBYN,1990-04-15 03:00,ZBYN 150300Z AUTO 00000KT 5SM 15/M02 A2997 RMK SLP149 T01461023 52001 IEM_DS3505
ZBYN,1990-04-15 04:00,ZBYN 150400Z AUTO 20004KT 7SM 16/00 A2994 RMK T01600000 IEM_DS3505
ZBYN,1990-04-15 05:00,ZBYN 150500Z AUTO 19008KT 7SM 17/M04 A2994 RMK T01701040 IEM_DS3505
ZBYN,1990-04-15 06:00,ZBYN 150600Z AUTO 00000KT 7SM 18/M04 A2991 RMK SLP134 T01801039 4////1012 57014 IEM_DS3505
ZBYN,1990-04-15 07:00,ZBYN 150700Z AUTO 36008KT 7SM 19/M06 A2991 RMK T01901060 IEM_DS3505
ZBYN,1990-04-15 09:00,ZBYN 150900Z AUTO 02002KT 9SM 18/M06 A2988 RMK SLP122 T01831065 57013 IEM_DS3505
ZBYN,1990-04-15 10:00,ZBYN 151000Z AUTO 36006KT 7SM 18/M05 A2988 RMK T01801050 IEM_DS3505
ZBYN,1990-04-15 11:00,ZBYN 151100Z AUTO 06004KT 6SM 16/M04 A2988 RMK T01601040 IEM_DS3505
ZBYN,1990-04-15 12:00,ZBYN 151200Z AUTO 02002KT 12SM 15/M09 A2988 RMK SLP127 T01461087 52005 IEM_DS3505
ZBYN,1990-04-15 13:00,ZBYN 151300Z AUTO 30004KT 7SM 10/M01 A2994 RMK T01001010 IEM_DS3505
ZBYN,1990-04-15 14:00,ZBYN 151400Z AUTO 30006KT 6SM 10/M01 A2997 RMK T01001010 IEM_DS3505
ZBYN,1990-04-15 15:00,ZBYN 151500Z AUTO 34004KT 9SM 11/M05 A2997 RMK SLP141 T01061046 52021 IEM_DS3505
ZBYN,1990-04-15 16:00,ZBYN 151600Z AUTO 21006KT 6SM 09/M02 A2997 RMK T00901020 IEM_DS3505
ZBYN,1990-04-15 17:00,ZBYN 151700Z AUTO 05006KT 6SM 08/00 A3000 RMK T00800000 IEM_DS3505
ZBYN,1990-04-15 18:00,ZBYN 151800Z AUTO 00000KT 7SM 08/M02 A2997 RMK SLP144 T00851025 40192//// 52005 IEM_DS3505
ZBYN,1990-04-15 19:00,ZBYN 151900Z AUTO 00000KT 6SM 06/01 A3000 RMK T00600010 IEM_DS3505
ZBYN,1990-04-15 21:00,ZBYN 152100Z AUTO 36004KT 6SM 06/M02 A3000 RMK SLP147 T00631023 54000 IEM_DS3505
ZBYN,1990-04-15 22:00,ZBYN 152200Z AUTO 24004KT 5SM 05/M02 A3000 RMK T00501020 IEM_DS3505
ZBYN,1990-04-15 23:00,ZBYN 152300Z AUTO 24004KT 5SM 05/M02 A3000 RMK T00501020 IEM_DS3505
ZBYN,1990-04-16 00:00,ZBYN 160000Z AUTO 34004KT 9SM 09/M03 A3003 RMK SLP163 T00901028 52013 IEM_DS3505
ZBYN,1990-04-16 01:00,ZBYN 160100Z AUTO 09010KT 7SM 14/M04 A3003 RMK T01401040 IEM_DS3505
ZBYN,1990-04-16 02:00,ZBYN 160200Z AUTO 10004KT 6SM 16/M01 A3000 RMK T01601010 IEM_DS3505
ZBYN,1990-04-16 03:00,ZBYN 160300Z AUTO 09006KT 6SM 17/M03 RMK SLP153 T01681032 57004 IEM_DS3505
ZBYN,1990-04-16 04:00,ZBYN 160400Z AUTO 00000KT 6SM 18/00 A3000 RMK T01800000 IEM_DS3505
ZBYN,1990-04-16 05:00,ZBYN 160500Z AUTO 15004KT 6SM 19/M02 A2997 RMK T01901020 IEM_DS3505
ZBYN,1990-04-16 06:00,ZBYN 160600Z AUTO 20008KT 12SM 20/00 A2994 RMK SLP125 T02000002 4////0050 57024 IEM_DS3505
ZBYN,1990-04-16 07:00,ZBYN 160700Z AUTO 22004KT 7SM 20/01 A2991 RMK T02000010 IEM_DS3505
ZBYN,1990-04-16 08:00,ZBYN 160800Z AUTO 00000KT 7SM 19/02 A2991 RMK T01900020 IEM_DS3505
ZBYN,1990-04-16 09:00,ZBYN 160900Z AUTO 18006KT 12SM 19/01 A2988 RMK SLP116 T01860007 57013 IEM_DS3505
ZBYN,1990-04-16 10:00,ZBYN 161000Z AUTO 15012KT 7SM 17/03 A2991 RMK T01700030 IEM_DS3505
ZBYN,1990-04-16 11:00,ZBYN 161100Z AUTO 23010KT 7SM 15/04 A2994 RMK T01500040 IEM_DS3505
ZBYN,1990-04-16 12:00,ZBYN 161200Z AUTO 22006KT 9SM 14/04 A2997 RMK SLP137 T01380040 52016 IEM_DS3505
ZBYN,1990-04-16 13:00,ZBYN 161300Z AUTO 16008KT 7SM 13/05 A3000 RMK T01300050 IEM_DS3505
ZBYN,1990-04-16 14:00,ZBYN 161400Z AUTO 12008KT 7SM 13/04 A3003 RMK T01300040 IEM_DS3505
ZBYN,1990-04-16 15:00,ZBYN 161500Z AUTO 11008KT 6SM 11/06 A3000 RMK T01100060 IEM_DS3505
ZBYN,1990-04-16 16:00,ZBYN 161600Z AUTO 11004KT 6SM 11/06 A3000 RMK T01100060 IEM_DS3505
ZBYN,1990-04-16 17:00,ZBYN 161700Z AUTO 12006KT 6SM 11/00 A3000 RMK T01100000 IEM_DS3505
ZBYN,1990-04-16 18:00,ZBYN 161800Z AUTO 29002KT 9SM 10/04 A3000 RMK SLP141 T01040044 40200//// 57001 IEM_DS3505
ZBYN,1990-04-16 19:00,ZBYN 161900Z AUTO 09008KT 6SM 12/01 A2997 RMK T01200010 IEM_DS3505
ZBYN,1990-04-16 20:00,ZBYN 162000Z AUTO 09010KT 6SM 11/02 A2997 RMK T01100020 IEM_DS3505
ZBYN,1990-04-16 21:00,ZBYN 162100Z AUTO 00000KT 9SM 10/03 A2994 RMK SLP132 T01030028 57011 IEM_DS3505
ZBYN,1990-04-16 23:00,ZBYN 162300Z AUTO 10006KT 6SM 10/03 A2994 RMK T01000030 IEM_DS3505
ZBYN,1990-04-17 00:00,ZBYN 170000Z AUTO 14004KT 9SM 11/02 RMK SLP136 T01100023 57002 IEM_DS3505
ZBYN,1990-04-17 01:00,ZBYN 170100Z AUTO 14008KT 6SM 13/01 A2991 RMK T01300010 IEM_DS3505
ZBYN,1990-04-17 02:00,ZBYN 170200Z AUTO 18008KT 6SM 14/00 A2994 RMK T01400000 IEM_DS3505
ZBYN,1990-04-17 03:00,ZBYN 170300Z AUTO 20002KT 6SM 15/M01 A2991 RMK SLP120 T01471007 57013 IEM_DS3505
ZBYN,1990-04-17 04:00,ZBYN 170400Z AUTO 17006KT 6SM 15/M01 A2988 RMK T01501010 IEM_DS3505
ZBYN,1990-04-17 05:00,ZBYN 170500Z AUTO 15008KT 7SM 14/M02 A2985 RMK T01401020 IEM_DS3505
ZBYN,1990-04-17 06:00,ZBYN 170600Z AUTO 22008KT 6SM 14/M02 A2985 RMK SLP102 T01451025 4////0086 57018 IEM_DS3505
ZBYN,1990-04-17 07:00,ZBYN 170700Z AUTO 22014KT 7SM 14/00 A2983 RMK T01400000 IEM_DS3505
ZBYN,1990-04-17 08:00,ZBYN 170800Z AUTO 24012KT 7SM 14/M01 A2980 RMK T01401010 IEM_DS3505
ZBYN,1990-04-17 09:00,ZBYN 170900Z AUTO 20008KT 9SM 13/00 A2980 RMK SLP095 T01300005 57009 IEM_DS3505
ZBYN,1990-04-17 11:00,ZBYN 171100Z AUTO 13006KT 6SM 13/04 A2983 RMK T01300040 IEM_DS3505
ZBYN,1990-04-17 12:00,ZBYN 171200Z AUTO 14006KT 9SM 11/02 A2983 RMK SLP096 T01120021 54000 IEM_DS3505
ZBYN,1990-04-17 13:00,ZBYN 171300Z AUTO 08008KT 7SM 09/03 A2985 RMK T00900030 IEM_DS3505
ZBYN,1990-04-17 15:00,ZBYN 171500Z AUTO 00000KT 9SM 06/02 RMK SLP116 T00620025 52016 IEM_DS3505
ZBYN,1990-04-17 16:00,ZBYN 171600Z AUTO 00000KT 7SM 07/03 A2985 RMK T00700030 IEM_DS3505
ZBYN,1990-04-17 17:00,ZBYN 171700Z AUTO 00000KT 7SM 06/02 A2985 RMK T00600020 IEM_DS3505
ZBYN,1990-04-17 18:00,ZBYN 171800Z AUTO 00000KT 7SM 06/04 A2985 RMK SLP109 T00600037 40153//// 57007 IEM_DS3505
ZBYN,1990-04-17 19:00,ZBYN 171900Z AUTO 00000KT 5SM 04/02 A2983 RMK T00400020 IEM_DS3505
ZBYN,1990-04-17 20:00,ZBYN 172000Z AUTO 00000KT 5SM 04/03 A2983 RMK T00400030 IEM_DS3505
ZBYN,1990-04-17 21:00,ZBYN 172100Z AUTO 00000KT 12SM 05/03 A2980 RMK SLP099 T00470031 57013 IEM_DS3505
ZBYN,1990-04-17 22:00,ZBYN 172200Z AUTO 33004KT 1 1/4SM 02/02 A2980 RMK T00200020 IEM_DS3505
ZBYN,1990-04-18 00:00,ZBYN 180000Z AUTO 32004KT 4SM 07/03 A2985 RMK SLP117 T00660034 52016 IEM_DS3505
ZBYN,1990-04-18 01:00,ZBYN 180100Z AUTO 01006KT 4SM 08/04 A2988 RMK T00800040 IEM_DS3505
ZBYN,1990-04-18 03:00,ZBYN 180300Z AUTO 02004KT 5SM 09/06 A2985 RMK SLP123 T00930058 52002 IEM_DS3505
ZBYN,1990-04-18 04:00,ZBYN 180400Z AUTO 03004KT 6SM 13/05 A2983 RMK T01300050 IEM_DS3505
ZBYN,1990-04-18 05:00,ZBYN 180500Z AUTO 00000KT 6SM 16/06 A2980 RMK T01600060 IEM_DS3505
ZBYN,1990-04-18 06:00,ZBYN 180600Z AUTO 32004KT 9SM 17/00 A2977 RMK SLP074 T01710003 4////0036 57033 IEM_DS3505
ZBYN,1990-04-18 07:00,ZBYN 180700Z AUTO 00000KT 6SM 19/05 A2974 RMK T01900050 IEM_DS3505
ZBYN,1990-04-18 08:00,ZBYN 180800Z AUTO 00000KT 6SM 20/06 A2971 RMK T02000060 IEM_DS3505
ZBYN,1990-04-18 09:00,ZBYN 180900Z AUTO 00000KT 12SM 20/07 A2968 RMK SLP040 T02030067 57028 IEM_DS3505
ZBYN,1990-04-18 10:00,ZBYN 181000Z AUTO 10008KT 6SM 19/08 A2968 RMK T01900080 IEM_DS3505
ZBYN,1990-04-18 11:00,ZBYN 181100Z AUTO 10002KT 6SM 17/07 A2968 RMK T01700070 IEM_DS3505
ZBYN,1990-04-18 12:00,ZBYN 181200Z AUTO 00000KT 9SM 14/09 A2968 RMK SLP059 T01410092 52011 IEM_DS3505
ZBYN,1990-04-18 13:00,ZBYN 181300Z AUTO 08006KT 6SM 15/08 A2974 RMK T01500080 IEM_DS3505
ZBYN,1990-04-18 14:00,ZBYN 181400Z AUTO 10006KT 6SM 14/07 A2977 RMK T01400070 IEM_DS3505
ZBYN,1990-04-18 15:00,ZBYN 181500Z AUTO 00000KT 7SM 14/08 A2977 RMK SLP078 T01350081 52020 IEM_DS3505
ZBYN,1990-04-18 16:00,ZBYN 181600Z AUTO 11010KT 6SM 13/06 A2977 RMK T01300060 IEM_DS3505
ZBYN,1990-04-18 17:00,ZBYN 181700Z AUTO 00000KT 6SM 13/09 A2977 RMK T01300090 IEM_DS3505
ZBYN,1990-04-18 18:00,ZBYN 181800Z AUTO 00000KT 7SM 12/09 A2974 RMK SLP056 T01200088 40205//// 57011 IEM_DS3505
ZBYN,1990-04-18 19:00,ZBYN 181900Z AUTO 12006KT 6SM 12/07 A2974 RMK T01200070 IEM_DS3505
ZBYN,1990-04-18 20:00,ZBYN 182000Z AUTO 15004KT 6SM 11/07 A2974 RMK T01100070 IEM_DS3505
ZBYN,1990-04-18 21:00,ZBYN 182100Z AUTO 20006KT 6SM 11/08 A2974 RMK SLP052 T01130082 54000 IEM_DS3505
ZBYN,1990-04-18 22:00,ZBYN 182200Z AUTO 20008KT 4SM 11/09 A2974 RMK T01100090 IEM_DS3505
ZBYN,1990-04-18 23:00,ZBYN 182300Z AUTO 22010KT 4SM 10/09 A2977 RMK T01000090 IEM_DS3505
ZBYN,1990-04-19 00:00,ZBYN 190000Z AUTO 32006KT 6SM 11/07 A2977 RMK 60001 SLP077 T01100074 52014 IEM_DS3505
ZBYN,1990-04-19 03:00,ZBYN 190300Z AUTO 29010KT 9SM 15/M03 RMK SLP085 T01481034 52012 IEM_DS3505
ZBYN,1990-04-19 04:00,ZBYN 190400Z AUTO 27014KT 7SM 16/M04 A2983 RMK T01601040 IEM_DS3505
ZBYN,1990-04-19 05:00,ZBYN 190500Z AUTO 30019KT 7SM 17/M04 A2983 RMK T01701040 IEM_DS3505
ZBYN,1990-04-19 06:00,ZBYN 190600Z AUTO 29008KT 12SM 18/M00 A2980 RMK SLP078 T01801003 4////0089 57004 IEM_DS3505
ZBYN,1990-04-19 07:00,ZBYN 190700Z AUTO 30019KT 7SM 18/M02 A2980 RMK T01801020 IEM_DS3505
ZBYN,1990-04-19 08:00,ZBYN 190800Z AUTO 30019KT 7SM 18/M02 A2980 RMK T01801020 IEM_DS3505
ZBYN,1990-04-19 09:00,ZBYN 190900Z AUTO 29014KT 12SM 18/00 A2980 RMK SLP075 T01810002 57004 IEM_DS3505
ZBYN,1990-04-19 12:00,ZBYN 191200Z AUTO 29004KT 12SM 14/M01 RMK SLP100 T01351006 52016 IEM_DS3505
ZBYN,1990-04-19 13:00,ZBYN 191300Z AUTO 32010KT 6SM 11/00 A2988 RMK T01100000 IEM_DS3505
ZBYN,1990-04-19 14:00,ZBYN 191400Z AUTO 34008KT 6SM 12/M01 A2991 RMK T01201010 IEM_DS3505
ZBYN,1990-04-19 15:00,ZBYN 191500Z AUTO 34004KT 9SM 10/00 A2991 RMK SLP121 T01050005 52020 IEM_DS3505
ZBYN,1990-04-19 16:00,ZBYN 191600Z AUTO 36006KT 7SM 09/00 A2994 RMK T00900000 IEM_DS3505
ZBYN,1990-04-19 17:00,ZBYN 191700Z AUTO 00000KT 7SM 09/01 A2994 RMK T00900010 IEM_DS3505
ZBYN,1990-04-19 18:00,ZBYN 191800Z AUTO 34004KT 9SM 09/00 A2994 RMK SLP122 T00860002 40187//// 52003 IEM_DS3505
ZBYN,1990-04-19 19:00,ZBYN 191900Z AUTO 00000KT 7SM 07/01 A2994 RMK T00700010 IEM_DS3505
ZBYN,1990-04-19 20:00,ZBYN 192000Z AUTO 00000KT 7SM 06/M02 A2994 RMK T00601020 IEM_DS3505
ZBYN,1990-04-19 21:00,ZBYN 192100Z AUTO 00000KT 9SM 07/02 A2991 RMK SLP121 T00700024 57003 IEM_DS3505
ZBYN,1990-04-19 22:00,ZBYN 192200Z AUTO 08002KT 6SM 05/02 A2994 RMK T00500020 IEM_DS3505
ZBYN,1990-04-20 00:00,ZBYN 200000Z AUTO 34004KT 9SM 08/02 A2997 RMK SLP140 T00800017 52012 IEM_DS3505
ZBYN,1990-04-20 01:00,ZBYN 200100Z AUTO 36004KT 6SM 10/02 A2994 RMK T01000020 IEM_DS3505
ZBYN,1990-04-20 03:00,ZBYN 200300Z AUTO 36004KT 7SM 13/02 A2997 RMK SLP141 T01270018 52003 IEM_DS3505
ZBYN,1990-04-20 04:00,ZBYN 200400Z AUTO 00000KT 6SM 14/03 A2994 RMK T01400030 IEM_DS3505
ZBYN,1990-04-20 05:00,ZBYN 200500Z AUTO 00000KT 7SM 15/04 A2991 RMK T01500040 IEM_DS3505
ZBYN,1990-04-20 06:00,ZBYN 200600Z AUTO 00000KT 7SM 15/04 RMK SLP122 T01540038 4////0058 57016 IEM_DS3505
ZBYN,1990-04-20 07:00,ZBYN 200700Z AUTO 00000KT 6SM 16/05 A2988 RMK T01600050 IEM_DS3505
ZBYN,1990-04-20 08:00,ZBYN 200800Z AUTO 21008KT 7SM 15/04 A2988 RMK T01500040 IEM_DS3505
ZBYN,1990-04-20 09:00,ZBYN 200900Z AUTO 22006KT 6SM 13/07 A2988 RMK SLP116 T01310074 57011 IEM_DS3505
ZBYN,1990-04-20 10:00,ZBYN 201000Z AUTO 22016KT 7SM 12/06 A2988 RMK T01200060 IEM_DS3505
ZBYN,1990-04-20 11:00,ZBYN 201100Z AUTO 6SM 10/07 A2991 RMK T01000070 IEM_DS3505
ZBYN,1990-04-20 12:00,ZBYN 201200Z AUTO 14004KT 3SM 10/08 A2991 RMK 60001 SLP135 T00950085 52013 IEM_DS3505
ZBYN,1990-04-20 13:00,ZBYN 201300Z AUTO 12006KT 4SM 09/08 A2994 RMK T00900080 IEM_DS3505
ZBYN,1990-04-20 14:00,ZBYN 201400Z AUTO 12004KT 4SM 09/08 A2997 RMK T00900080 IEM_DS3505
ZBYN,1990-04-20 15:00,ZBYN 201500Z AUTO 14004KT 3SM 09/08 A2997 RMK SLP141 T00890083 52012 IEM_DS3505
ZBYN,1990-04-20 16:00,ZBYN 201600Z AUTO 12004KT 4SM 09/08 A2994 RMK T00900080 IEM_DS3505
ZBYN,1990-04-20 17:00,ZBYN 201700Z AUTO 12004KT 4SM 09/08 A2994 RMK T00900080 IEM_DS3505
ZBYN,1990-04-20 18:00,ZBYN 201800Z AUTO 16002KT 3SM 09/08 A2994 RMK 60004 SLP132 T00870083 40156//// 57005 IEM_DS3505
ZBYN,1990-04-20 21:00,ZBYN 202100Z AUTO 14002KT 3SM 08/08 RMK 70008 SLP129 T00840082 57015 IEM_DS3505
ZBYN,1990-04-20 22:00,ZBYN 202200Z AUTO 00000KT 1SM 09/08 A2988 RMK T00900080 IEM_DS3505
ZBYN,1990-04-20 23:00,ZBYN 202300Z AUTO 00000KT 1SM 09/08 A2988 RMK T00900080 IEM_DS3505
ZBYN,1990-04-21 00:00,ZBYN 210000Z AUTO 14002KT 2SM 09/08 A2991 RMK SLP129 T00900084 52004 IEM_DS3505
ZBYN,1990-04-21 01:00,ZBYN 210100Z AUTO 23006KT 3SM 11/08 A2991 RMK T01100080 IEM_DS3505
ZBYN,1990-04-21 02:00,ZBYN 210200Z AUTO 24006KT 4SM 14/08 A2991 RMK T01400080 IEM_DS3505
ZBYN,1990-04-21 03:00,ZBYN 210300Z AUTO 00000KT 5SM 13/08 RMK SLP125 T01270083 52001 IEM_DS3505
ZBYN,1990-04-21 04:00,ZBYN 210400Z AUTO 22006KT 7SM 15/09 A2988 RMK T01500090 IEM_DS3505
ZBYN,1990-04-21 05:00,ZBYN 210500Z AUTO 00000KT 7SM 16/08 A2985 RMK T01600080 IEM_DS3505
ZBYN,1990-04-21 06:00,ZBYN 210600Z AUTO 25004KT 5SM 17/08 A2980 RMK SLP089 T01670083 4////0078 57027 IEM_DS3505
ZBYN,1990-04-21 07:00,ZBYN 210700Z AUTO 25006KT 6SM 17/08 A2980 RMK T01700080 IEM_DS3505
ZBYN,1990-04-21 08:00,ZBYN 210800Z AUTO 26006KT 6SM 17/08 A2980 RMK T01700080 IEM_DS3505
ZBYN,1990-04-21 09:00,ZBYN 210900Z AUTO 18004KT 6SM 16/08 RMK SLP081 T01640083 57008 IEM_DS3505
ZBYN,1990-04-21 10:00,ZBYN 211000Z AUTO 22006KT 6SM 16/08 A2980 RMK T01600080 IEM_DS3505
ZBYN,1990-04-21 11:00,ZBYN 211100Z AUTO 00000KT 6SM 16/10 A2983 RMK T01600100 IEM_DS3505
ZBYN,1990-04-21 12:00,ZBYN 211200Z AUTO 11004KT 6SM 14/08 RMK SLP102 T01440085 52017 IEM_DS3505
ZBYN,1990-04-21 13:00,ZBYN 211300Z AUTO 00000KT 6SM 14/09 A2988 RMK T01400090 IEM_DS3505
ZBYN,1990-04-21 14:00,ZBYN 211400Z AUTO 00000KT 6SM 13/09 A2988 RMK T01300090 IEM_DS3505
ZBYN,1990-04-21 15:00,ZBYN 211500Z AUTO 00000KT 6SM 12/09 A2988 RMK SLP117 T01220090 52016 IEM_DS3505
ZBYN,1990-04-21 16:00,ZBYN 211600Z AUTO 20004KT 6SM 12/09 A2988 RMK T01200090 IEM_DS3505
ZBYN,1990-04-21 17:00,ZBYN 211700Z AUTO 00000KT 6SM 10/08 A2988 RMK T01000080 IEM_DS3505
ZBYN,1990-04-21 18:00,ZBYN 211800Z AUTO 00000KT 6SM 09/08 A2988 RMK SLP114 T00940076 40171//// 57001 IEM_DS3505
ZBYN,1990-04-21 19:00,ZBYN 211900Z AUTO 10006KT 4SM 08/07 A2988 RMK T00800070 IEM_DS3505
ZBYN,1990-04-21 20:00,ZBYN 212000Z AUTO 00000KT 3SM 07/07 A2991 RMK T00700070 IEM_DS3505
ZBYN,1990-04-21 21:00,ZBYN 212100Z AUTO 11002KT 5SM 07/07 A2991 RMK SLP120 T00710067 52001 IEM_DS3505
ZBYN,1990-04-21 22:00,ZBYN 212200Z AUTO 10006KT 4SM 08/07 A2988 RMK T00800070 IEM_DS3505
ZBYN,1990-04-21 23:00,ZBYN 212300Z AUTO 00000KT 2SM 09/08 A2994 RMK T00900080 IEM_DS3505
ZBYN,1990-04-22 00:00,ZBYN 220000Z AUTO 14006KT 2SM 09/08 A2997 RMK SLP150 T00910081 52028 IEM_DS3505
ZBYN,1990-04-22 01:00,ZBYN 220100Z AUTO 00000KT 11/08 A2997 RMK T01100080 IEM_DS3505
ZBYN,1990-04-22 02:00,ZBYN 220200Z AUTO 11004KT 4SM 12/08 A2997 RMK T01200080 IEM_DS3505
ZBYN,1990-04-22 03:00,ZBYN 220300Z AUTO 14004KT 4SM 14/09 A2994 RMK SLP138 T01380089 57007 IEM_DS3505
ZBYN,1990-04-22 04:00,ZBYN 220400Z AUTO 19008KT 6SM 16/09 A2994 RMK T01600090 IEM_DS3505
ZBYN,1990-04-22 05:00,ZBYN 220500Z AUTO 23008KT 7SM 16/08 A2991 RMK T01600080 IEM_DS3505
ZBYN,1990-04-22 06:00,ZBYN 220600Z AUTO 00000KT 7SM 17/15 RMK SLP114 T01740149 4////0057 57021 IEM_DS3505
ZBYN,1990-04-22 07:00,ZBYN 220700Z AUTO 36002KT 6SM 18/08 A2985 RMK T01800080 IEM_DS3505
ZBYN,1990-04-22 08:00,ZBYN 220800Z AUTO 09012KT 7SM 16/07 A2983 RMK T01600070 IEM_DS3505
ZBYN,1990-04-22 09:00,ZBYN 220900Z AUTO 11006KT 6SM 12/09 A2991 RMK SLP124 T01240094 57002 IEM_DS3505
ZBYN,1990-04-22 10:00,ZBYN 221000Z AUTO 09012KT 5SM 12/09 A2991 RMK T01200090 IEM_DS3505
ZBYN,1990-04-22 11:00,ZBYN 221100Z AUTO 00000KT 6SM 11/10 A2994 RMK T01100100 IEM_DS3505
ZBYN,1990-04-22 12:00,ZBYN 221200Z AUTO 02010KT 12SM 09/05 A2997 RMK 60016 SLP174 T00940047 52044 IEM_DS3505
ZBYN,1990-04-22 13:00,ZBYN 221300Z AUTO 36021KT 7SM 06/01 A3009 RMK T00600010 IEM_DS3505
ZBYN,1990-04-22 15:00,ZBYN 221500Z AUTO 36008KT 9SM 05/M00 A3018 RMK SLP218 T00541004 52041 IEM_DS3505
ZBYN,1990-04-22 17:00,ZBYN 221700Z AUTO 00000KT 9SM 02/M02 A3021 RMK 70016 SLP250 T00221019 52007 IEM_DS3505
ZBYN,1990-04-22 18:00,ZBYN 221800Z AUTO 02008KT 9SM 04/M01 A3021 RMK SLP231 T00351013 40180//// 52015 IEM_DS3505
ZBYN,1990-04-22 19:00,ZBYN 221900Z AUTO 33008KT 6SM 03/M02 A3024 RMK T00301020 IEM_DS3505
ZBYN,1990-04-22 20:00,ZBYN 222000Z AUTO 36006KT 7SM 03/M02 A3024 RMK T00301020 IEM_DS3505
ZBYN,1990-04-22 21:00,ZBYN 222100Z AUTO 00000KT 9SM 02/M02 A3024 RMK 70016 SLP250 T00221019 52007 IEM_DS3505
ZBYN,1990-04-22 22:00,ZBYN 222200Z AUTO 00000KT 7SM 00/M03 A3024 RMK T00001030 IEM_DS3505
ZBYN,1990-04-22 23:00,ZBYN 222300Z AUTO 00000KT 7SM 02/M02 A3027 RMK T00201020 IEM_DS3505
ZBYN,1990-04-23 00:00,ZBYN 230000Z AUTO 00000KT 9SM 05/M05 RMK 70016 SLP271 T00541052 52020 IEM_DS3505
ZBYN,1990-04-23 01:00,ZBYN 230100Z AUTO 00000KT 7SM 06/M06 RMK T00601060 IEM_DS3505
ZBYN,1990-04-23 02:00,ZBYN 230200Z AUTO 36010KT 7SM RMK IEM_DS3505
ZBYN,1990-04-23 03:00,ZBYN 230300Z AUTO 34010KT 16SM 08/M06 A3033 RMK SLP277 T00831060 52002 IEM_DS3505
ZBYN,1990-04-23 04:00,ZBYN 230400Z AUTO 36010KT 7SM 10/M10 A3030 RMK T01001100 IEM_DS3505
ZBYN,1990-04-23 05:00,ZBYN 230500Z AUTO 01008KT 7SM 10/M07 A3027 RMK T01001070 IEM_DS3505
ZBYN,1990-04-23 06:00,ZBYN 230600Z AUTO 32016KT 19SM 11/M10 RMK SLP253 T01101097 4////0006 57020 IEM_DS3505
ZBYN,1990-04-23 07:00,ZBYN 230700Z AUTO 34016KT 7SM 10/M12 A3024 RMK T01001120 IEM_DS3505
ZBYN,1990-04-23 08:00,ZBYN 230800Z AUTO 31012KT 7SM 11/M09 A3021 RMK T01101090 IEM_DS3505
ZBYN,1990-04-23 09:00,ZBYN 230900Z AUTO 29010KT 19SM 10/M11 A3021 RMK SLP243 T01011107 57013 IEM_DS3505
ZBYN,1990-04-23 10:00,ZBYN 231000Z AUTO 34012KT 7SM 11/M10 A3018 RMK T01101100 IEM_DS3505
ZBYN,1990-04-23 11:00,ZBYN 231100Z AUTO 33012KT 7SM 09/M13 A3021 RMK T00901130 IEM_DS3505
ZBYN,1990-04-23 12:00,ZBYN 231200Z AUTO 32004KT 19SM 07/M10 A3021 RMK SLP237 T00741097 57004 IEM_DS3505
ZBYN,1990-04-23 13:00,ZBYN 231300Z AUTO 36004KT 7SM 05/M05 A3021 RMK T00501050 IEM_DS3505
ZBYN,1990-04-23 14:00,ZBYN 231400Z AUTO 34006KT 7SM 04/M06 A3024 RMK T00401060 IEM_DS3505
ZBYN,1990-04-23 15:00,ZBYN 231500Z AUTO 00000KT 19SM 02/M04 A3024 RMK SLP253 T00201045 52010 IEM_DS3505
ZBYN,1990-04-23 16:00,ZBYN 231600Z AUTO 00000KT 7SM 01/M03 A3021 RMK T00101030 IEM_DS3505
ZBYN,1990-04-23 17:00,ZBYN 231700Z AUTO 00000KT 7SM M01/M04 A3021 RMK T10101040 IEM_DS3505
ZBYN,1990-04-23 18:00,ZBYN 231800Z AUTO 00000KT 12SM M01/M04 A3018 RMK SLP239 T10061042 40116//// 57012 IEM_DS3505
ZBYN,1990-04-23 19:00,ZBYN 231900Z AUTO 11006KT 7SM M01/M05 A3018 RMK T10101050 IEM_DS3505
ZBYN,1990-04-23 20:00,ZBYN 232000Z AUTO 00000KT 7SM M01/M05 A3018 RMK T10101050 IEM_DS3505
ZBYN,1990-04-23 21:00,ZBYN 232100Z AUTO 00000KT 11SM M01/M05 A3015 RMK SLP232 T10091053 57009 IEM_DS3505
ZBYN,1990-04-23 22:00,ZBYN 232200Z AUTO 12006KT 7SM M02/M04 A3015 RMK T10201040 IEM_DS3505
ZBYN,1990-04-23 23:00,ZBYN 232300Z AUTO 10004KT 7SM 01/M04 A3015 RMK T00101040 IEM_DS3505
ZBYN,1990-04-24 00:00,ZBYN 240000Z AUTO 14004KT 12SM 03/M04 A3012 RMK SLP210 T00301038 57008 IEM_DS3505
ZBYN,1990-04-24 02:00,ZBYN 240200Z AUTO 00000KT 6SM 08/M03 A3009 RMK T00801030 IEM_DS3505
ZBYN,1990-04-24 03:00,ZBYN 240300Z AUTO 16006KT 7SM 10/M04 RMK SLP191 T01041038 57024 IEM_DS3505
ZBYN,1990-04-24 04:00,ZBYN 240400Z AUTO 21006KT 7SM 13/M06 A3003 RMK T01301060 IEM_DS3505
ZBYN,1990-04-24 05:00,ZBYN 240500Z AUTO 21008KT 7SM 15/M04 A2997 RMK T01501040 IEM_DS3505
ZBYN,1990-04-24 06:00,ZBYN 240600Z AUTO 18008KT 11SM 15/M04 A2991 RMK SLP141 T01481039 4////1028 57043 IEM_DS3505
ZBYN,1990-04-24 07:00,ZBYN 240700Z AUTO 23006KT 7SM 16/M01 A2985 RMK T01601010 IEM_DS3505
ZBYN,1990-04-24 08:00,ZBYN 240800Z AUTO 00000KT 7SM 17/M01 A2983 RMK T01701010 IEM_DS3505
ZBYN,1990-04-24 09:00,ZBYN 240900Z AUTO 29014KT 16SM 18/M07 RMK SLP102 T01761067 57031 IEM_DS3505
ZBYN,1990-04-24 10:00,ZBYN 241000Z AUTO 30016KT 7SM 17/M05 A2980 RMK T01701050 IEM_DS3505
ZBYN,1990-04-24 11:00,ZBYN 241100Z AUTO 30010KT 6SM 15/M03 A2983 RMK T01501030 IEM_DS3505
ZBYN,1990-04-24 12:00,ZBYN 241200Z AUTO 29004KT 6SM 13/M02 A2983 RMK SLP112 T01321015 52008 IEM_DS3505
ZBYN,1990-04-24 15:00,ZBYN 241500Z AUTO 18004KT 9SM 09/01 RMK SLP120 T00900014 52012 IEM_DS3505
ZBYN,1990-04-24 18:00,ZBYN 241800Z AUTO 22008KT 9SM 10/00 A2985 RMK SLP105 T01020001 40184//// 57005 IEM_DS3505
ZBYN,1990-04-24 19:00,ZBYN 241900Z AUTO 24014KT 6SM 10/01 A2985 RMK T01000010 IEM_DS3505
ZBYN,1990-04-24 20:00,ZBYN 242000Z AUTO 23008KT 6SM 09/01 A2985 RMK T00900010 IEM_DS3505
ZBYN,1990-04-24 21:00,ZBYN 242100Z AUTO 22006KT 9SM 09/M02 A2983 RMK SLP097 T00901024 57005 IEM_DS3505
ZBYN,1990-04-24 23:00,ZBYN 242300Z AUTO 26010KT 5SM 10/M03 A2985 RMK T01001030 IEM_DS3505
ZBYN,1990-04-25 00:00,ZBYN 250000Z AUTO 18004KT 6SM 11/M02 A2988 RMK SLP109 T01131015 52008 IEM_DS3505
ZBYN,1990-04-25 02:00,ZBYN 250200Z AUTO 27014KT 7SM 17/M09 A2988 RMK T01701090 IEM_DS3505
ZBYN,1990-04-25 03:00,ZBYN 250300Z AUTO 32010KT 7SM 18/M06 A2988 RMK SLP105 T01831055 54000 IEM_DS3505
ZBYN,1990-04-25 04:00,ZBYN 250400Z AUTO 32019KT 6SM 20/M10 A2991 RMK T02001100 IEM_DS3505
ZBYN,1990-04-25 05:00,ZBYN 250500Z AUTO 32017KT 6SM 20/M07 A2988 RMK T02001070 IEM_DS3505
ZBYN,1990-04-25 06:00,ZBYN 250600Z AUTO 29012KT 6SM 20/M08 A2988 RMK SLP101 T02011080 4////0076 52001 IEM_DS3505
ZBYN,1990-04-25 07:00,ZBYN 250700Z AUTO 31019KT 7SM 20/M09 A2988 RMK T02001090 IEM_DS3505
ZBYN,1990-04-25 08:00,ZBYN 250800Z AUTO 32023KT 7SM 20/M06 A2988 RMK T02001060 IEM_DS3505
ZBYN,1990-04-25 09:00,ZBYN 250900Z AUTO 29019KT 6SM 19/M07 A2988 RMK SLP110 T01901067 52005 IEM_DS3505
ZBYN,1990-04-25 10:00,ZBYN 251000Z AUTO 30012KT 7SM 18/M06 A2994 RMK T01801060 IEM_DS3505
ZBYN,1990-04-25 11:00,ZBYN 251100Z AUTO 32012KT 7SM 17/M08 A2994 RMK T01701080 IEM_DS3505
ZBYN,1990-04-25 12:00,ZBYN 251200Z AUTO 34004KT 9SM 15/M03 A3000 RMK SLP142 T01501031 52027 IEM_DS3505
ZBYN,1990-04-25 13:00,ZBYN 251300Z AUTO 32006KT 7SM 13/M02 A3003 RMK T01301020 IEM_DS3505
ZBYN,1990-04-25 14:00,ZBYN 251400Z AUTO 36002KT 7SM 11/M01 A3006 RMK T01101010 IEM_DS3505
ZBYN,1990-04-25 15:00,ZBYN 251500Z AUTO 34004KT 9SM 11/M02 A3006 RMK SLP159 T01141018 52020 IEM_DS3505
ZBYN,1990-04-25 16:00,ZBYN 251600Z AUTO 00000KT 7SM 09/M06 A3006 RMK T00901060 IEM_DS3505
ZBYN,1990-04-25 17:00,ZBYN 251700Z AUTO 00000KT 7SM 08/M05 A3006 RMK T00801050 IEM_DS3505
ZBYN,1990-04-25 18:00,ZBYN 251800Z AUTO 00000KT 7SM 06/M02 A3006 RMK SLP173 T00641019 40203//// 52008 IEM_DS3505
ZBYN,1990-04-25 20:00,ZBYN 252000Z AUTO 00000KT 7SM 03/M02 A3009 RMK T00301020 IEM_DS3505
ZBYN,1990-04-25 21:00,ZBYN 252100Z AUTO 00000KT 6SM 03/M00 A3006 RMK SLP174 T00291005 57006 IEM_DS3505
ZBYN,1990-04-25 22:00,ZBYN 252200Z AUTO 00000KT 7SM 03/M02 A3003 RMK T00301020 IEM_DS3505
ZBYN,1990-04-26 00:00,ZBYN 260000Z AUTO 34004KT 6SM 08/M02 A3006 RMK SLP172 T00821019 54000 IEM_DS3505
ZBYN,1990-04-26 01:00,ZBYN 260100Z AUTO 00000KT 7SM 12/M03 A3003 RMK T01201030 IEM_DS3505
ZBYN,1990-04-26 02:00,ZBYN 260200Z AUTO 00000KT 7SM 15/M03 A3003 RMK T01501030 IEM_DS3505
ZBYN,1990-04-26 03:00,ZBYN 260300Z AUTO 20004KT 6SM 16/M02 RMK SLP152 T01581020 57012 IEM_DS3505
ZBYN,1990-04-26 06:00,ZBYN 260600Z AUTO 22010KT 6SM 21/01 A2988 RMK SLP104 T02100014 4////0005 57043 IEM_DS3505
ZBYN,1990-04-26 07:00,ZBYN 260700Z AUTO 22016KT 6SM 22/M01 RMK T02201010 IEM_DS3505
ZBYN,1990-04-26 08:00,ZBYN 260800Z AUTO 22014KT 6SM 23/M01 A2980 RMK T02301010 IEM_DS3505
ZBYN,1990-04-26 09:00,ZBYN 260900Z AUTO 22010KT 6SM 23/00 RMK SLP072 T02260000 57032 IEM_DS3505
ZBYN,1990-04-26 10:00,ZBYN 261000Z AUTO 24012KT 6SM 22/M01 A2977 RMK T02201010 IEM_DS3505
ZBYN,1990-04-26 11:00,ZBYN 261100Z AUTO 23012KT 7SM 20/01 A2977 RMK T02000010 IEM_DS3505
ZBYN,1990-04-26 12:00,ZBYN 261200Z AUTO 22012KT 9SM 19/02 A2977 RMK SLP075 T01930023 52005 IEM_DS3505
ZBYN,1990-04-26 13:00,ZBYN 261300Z AUTO 22014KT 6SM 18/02 A2980 RMK T01800020 IEM_DS3505
ZBYN,1990-04-26 15:00,ZBYN 261500Z AUTO 22006KT 9SM 18/04 A2980 RMK SLP073 T01830042 52008 IEM_DS3505
ZBYN,1990-04-26 16:00,ZBYN 261600Z AUTO 11008KT 6SM 15/04 A2980 RMK T01500040 IEM_DS3505
ZBYN,1990-04-26 17:00,ZBYN 261700Z AUTO 12006KT 6SM 16/03 A2983 RMK T01600030 IEM_DS3505
ZBYN,1990-04-26 18:00,ZBYN 261800Z AUTO 11006KT 7SM 14/05 A2983 RMK SLP075 T01390051 40228//// 52003 IEM_DS3505
ZBYN,1990-04-26 19:00,ZBYN 261900Z AUTO 09010KT 6SM 13/03 A2983 RMK T01300030 IEM_DS3505
ZBYN,1990-04-26 20:00,ZBYN 262000Z AUTO 15008KT 6SM 13/04 A2985 RMK T01300040 IEM_DS3505
ZBYN,1990-04-26 21:00,ZBYN 262100Z AUTO 11006KT 7SM 11/05 A2985 RMK SLP053 T01120052 52015 IEM_DS3505
ZBYN,1990-04-26 22:00,ZBYN 262200Z AUTO 10006KT 6SM 11/05 A2985 RMK T01100050 IEM_DS3505
ZBYN,1990-04-26 23:00,ZBYN 262300Z AUTO 12008KT 7SM 12/05 A2988 RMK T01200050 IEM_DS3505
ZBYN,1990-04-27 00:00,ZBYN 270000Z AUTO 00000KT 6SM 13/06 A2991 RMK SLP116 T01290060 52019 IEM_DS3505
ZBYN,1990-04-27 02:00,ZBYN 270200Z AUTO 25002KT 7SM 19/06 A2991 RMK T01900060 IEM_DS3505
ZBYN,1990-04-27 03:00,ZBYN 270300Z AUTO 18006KT 6SM 21/06 A2991 RMK SLP101 T02120059 57004 IEM_DS3505
ZBYN,1990-04-27 04:00,ZBYN 270400Z AUTO 23012KT 7SM 24/05 A2988 RMK T02400050 IEM_DS3505
ZBYN,1990-04-27 06:00,ZBYN 270600Z AUTO 14004KT 6SM 25/03 A2985 RMK SLP072 T02540028 57029 IEM_DS3505
ZBYN,1990-04-27 07:00,ZBYN 270700Z AUTO 25008KT 6SM 27/00 A2983 RMK T02700000 IEM_DS3505
ZBYN,1990-04-27 08:00,ZBYN 270800Z AUTO 34014KT 7SM 27/M05 A2980 RMK T02701050 IEM_DS3505
ZBYN,1990-04-27 09:00,ZBYN 270900Z AUTO 32006KT 9SM 26/02 A2980 RMK SLP064 T02620017 57016 IEM_DS3505
ZBYN,1990-04-27 10:00,ZBYN 271000Z AUTO 31006KT 7SM 26/M01 A2980 RMK T02601010 IEM_DS3505
ZBYN,1990-04-27 11:00,ZBYN 271100Z AUTO 29004KT 7SM 23/03 A2980 RMK T02300030 IEM_DS3505
ZBYN,1990-04-27 12:00,ZBYN 271200Z AUTO 16010KT 9SM 21/05 A2988 RMK SLP087 T02070046 IEM_DS3505
ZBYN,1990-04-27 13:00,ZBYN 271300Z AUTO 09017G27KT 6SM 16/05 A2988 RMK T01600050 IEM_DS3505
ZBYN,1990-04-27 14:00,ZBYN 271400Z AUTO 09017KT 6SM 15/05 A2994 RMK T01500050 IEM_DS3505
ZBYN,1990-04-27 15:00,ZBYN 271500Z AUTO 09012KT 6SM 14/04 A2997 RMK T01400040 IEM_DS3505
ZBYN,1990-04-27 16:00,ZBYN 271600Z AUTO 08008KT 6SM 14/06 A3000 RMK T01400060 IEM_DS3505
ZBYN,1990-04-27 17:00,ZBYN 271700Z AUTO 32004KT 9SM 13/07 A3003 RMK SLP134 T01290067 IEM_DS3505
ZBYN,1990-04-27 18:00,ZBYN 271800Z AUTO 32004KT 9SM 13/07 A3000 RMK SLP134 T01290067 40273//// 52015 IEM_DS3505
ZBYN,1990-04-27 19:00,ZBYN 271900Z AUTO 00000KT 5SM 12/07 A3003 RMK T01200070 IEM_DS3505
ZBYN,1990-04-27 20:00,ZBYN 272000Z AUTO 00000KT 6SM 12/07 A3003 RMK T01200070 IEM_DS3505
ZBYN,1990-04-27 21:00,ZBYN 272100Z AUTO 34002KT 6SM 11/06 A3006 RMK SLP145 T01080065 52008 IEM_DS3505
ZBYN,1990-04-27 22:00,ZBYN 272200Z AUTO 00000KT 4SM 10/07 A3006 RMK T01000070 IEM_DS3505
ZBYN,1990-04-27 23:00,ZBYN 272300Z AUTO 17004KT 4SM 11/07 A3009 RMK T01100070 IEM_DS3505
ZBYN,1990-04-28 00:00,ZBYN 280000Z AUTO 36002KT 6SM 13/06 RMK SLP168 T01280064 52016 IEM_DS3505
ZBYN,1990-04-28 01:00,ZBYN 280100Z AUTO 00000KT 4SM 15/07 A3012 RMK T01500070 IEM_DS3505
ZBYN,1990-04-28 02:00,ZBYN 280200Z AUTO 00000KT 3SM 17/08 A3012 RMK T01700080 IEM_DS3505
ZBYN,1990-04-28 03:00,ZBYN 280300Z AUTO 04004KT 6SM 19/05 A3012 RMK SLP180 T01860054 52010 IEM_DS3505
ZBYN,1990-04-28 04:00,ZBYN 280400Z AUTO 36006KT 6SM 21/07 A3012 RMK T02100070 IEM_DS3505
ZBYN,1990-04-28 06:00,ZBYN 280600Z AUTO 36006KT 6SM 24/05 A3006 RMK SLP152 T02390046 4////0100 57020 IEM_DS3505
ZBYN,1990-04-28 07:00,ZBYN 280700Z AUTO 09012KT 6SM 25/M01 A3003 RMK T02501010 IEM_DS3505
ZBYN,1990-04-28 08:00,ZBYN 280800Z AUTO 09012KT 6SM 24/M03 A3003 RMK T02401030 IEM_DS3505
ZBYN,1990-04-28 09:00,ZBYN 280900Z AUTO 11012KT 6SM 23/01 A3003 RMK SLP140 T02260013 57016 IEM_DS3505
ZBYN,1990-04-28 10:00,ZBYN 281000Z AUTO 09017KT 6SM 21/01 A3003 RMK T02100010 IEM_DS3505
ZBYN,1990-04-28 12:00,ZBYN 281200Z AUTO 09014KT 6SM 18/04 A3006 RMK SLP165 T01790035 52019 IEM_DS3505
ZBYN,1990-04-28 13:00,ZBYN 281300Z AUTO 08017KT 6SM 17/03 A3012 RMK T01700030 IEM_DS3505
ZBYN,1990-04-28 14:00,ZBYN 281400Z AUTO 07017KT 6SM 16/03 A3015 RMK T01600030 IEM_DS3505
ZBYN,1990-04-28 15:00,ZBYN 281500Z AUTO 07008KT 6SM 16/03 RMK SLP185 T01570030 52024 IEM_DS3505
ZBYN,1990-04-28 16:00,ZBYN 281600Z AUTO 07016KT 6SM 14/02 A3015 RMK T01400020 IEM_DS3505
ZBYN,1990-04-28 17:00,ZBYN 281700Z AUTO 06010KT 6SM 14/02 A3015 RMK T01400020 IEM_DS3505
ZBYN,1990-04-28 18:00,ZBYN 281800Z AUTO 34002KT 6SM 12/05 A3012 RMK SLP181 T01210053 40246//// 57002 IEM_DS3505
ZBYN,1990-04-28 19:00,ZBYN 281900Z AUTO 06006KT 7SM 14/02 A3012 RMK T01400020 IEM_DS3505
ZBYN,1990-04-28 21:00,ZBYN 282100Z AUTO 34002KT 11SM 12/04 A3012 RMK SLP177 T01230040 57005 IEM_DS3505
ZBYN,1990-04-28 22:00,ZBYN 282200Z AUTO 03006KT 6SM 14/03 A3012 RMK T01400030 IEM_DS3505
ZBYN,1990-04-28 23:00,ZBYN 282300Z AUTO 09012KT 7SM 13/01 A3012 RMK T01300010 IEM_DS3505
ZBYN,1990-04-29 00:00,ZBYN 290000Z AUTO 27006KT 5SM 11/07 RMK 60002 70004 SLP190 T01090069 52003 IEM_DS3505
ZBYN,1990-04-29 01:00,ZBYN 290100Z AUTO 33004KT 5SM 10/08 A3015 RMK T01000080 IEM_DS3505
ZBYN,1990-04-29 02:00,ZBYN 290200Z AUTO 33008KT 4SM 10/08 A3015 RMK T01000080 IEM_DS3505
ZBYN,1990-04-29 03:00,ZBYN 290300Z AUTO 36006KT 5SM 10/08 A3018 RMK SLP202 T00960076 52006 IEM_DS3505
ZBYN,1990-04-29 04:00,ZBYN 290400Z AUTO 34010KT 7SM 11/08 A3015 RMK T01100080 IEM_DS3505
ZBYN,1990-04-29 05:00,ZBYN 290500Z AUTO 34008KT 7SM 11/09 A3009 RMK T01100090 IEM_DS3505
ZBYN,1990-04-29 06:00,ZBYN 290600Z AUTO 34004KT 5SM 11/09 A3009 RMK 60020 SLP193 T01080087 4////0094 57012 IEM_DS3505
ZBYN,1990-04-29 07:00,ZBYN 290700Z AUTO 35008KT 7SM 11/10 A3009 RMK T01100100 IEM_DS3505
ZBYN,1990-04-29 08:00,ZBYN 290800Z AUTO 33014KT 7SM 11/10 A3006 RMK T01100100 IEM_DS3505
ZBYN,1990-04-29 09:00,ZBYN 290900Z AUTO 32006KT 5SM 11/10 A3006 RMK SLP184 T01080095 57008 IEM_DS3505
ZBYN,1990-04-29 10:00,ZBYN 291000Z AUTO 34010KT 7SM 11/08 A3006 RMK T01100080 IEM_DS3505
ZBYN,1990-04-29 11:00,ZBYN 291100Z AUTO 33006KT 7SM 11/08 A3006 RMK T01100080 IEM_DS3505
ZBYN,1990-04-29 12:00,ZBYN 291200Z AUTO 32006KT 5SM 11/08 A3009 RMK 60012 SLP189 T01060085 52002 IEM_DS3505
ZBYN,1990-04-29 13:00,ZBYN 291300Z AUTO 36002KT 7SM 11/09 A3009 RMK T01100090 IEM_DS3505
ZBYN,1990-04-29 14:00,ZBYN 291400Z AUTO 35004KT 6SM 11/06 A3012 RMK T01100060 IEM_DS3505
ZBYN,1990-04-29 15:00,ZBYN 291500Z AUTO 00000KT 5SM 10/08 A3012 RMK SLP203 T01010075 52010 IEM_DS3505
ZBYN,1990-04-29 16:00,ZBYN 291600Z AUTO 08008KT 7SM 10/07 A3012 RMK T01000070 IEM_DS3505
ZBYN,1990-04-29 17:00,ZBYN 291700Z AUTO 08006KT 7SM 10/07 A3012 RMK T01000070 IEM_DS3505
ZBYN,1990-04-29 18:00,ZBYN 291800Z AUTO 34004KT 5SM 09/08 A3009 RMK 60012 SLP194 T00860076 40130//// 57008 IEM_DS3505
ZBYN,1990-04-29 19:00,ZBYN 291900Z AUTO 34008KT 2 1/2SM 09/08 A3006 RMK T00900080 IEM_DS3505
ZBYN,1990-04-29 20:00,ZBYN 292000Z AUTO 33004KT 2 1/2SM 09/08 A3006 RMK T00900080 IEM_DS3505
ZBYN,1990-04-29 21:00,ZBYN 292100Z AUTO 34004KT 4SM 10/07 RMK 70043 SLP172 T00970069 57019 IEM_DS3505
ZBYN,1990-04-29 22:00,ZBYN 292200Z AUTO 31006KT 5SM 09/08 A3003 RMK T00900080 IEM_DS3505
ZBYN,1990-04-29 23:00,ZBYN 292300Z AUTO 33006KT 5SM 10/08 A3003 RMK T01000080 IEM_DS3505
ZBYN,1990-04-30 00:00,ZBYN 300000Z AUTO 34004KT 6SM 09/08 A3006 RMK 60002 70047 SLP175 T00940080 52002 IEM_DS3505
ZBYN,1990-04-30 01:00,ZBYN 300100Z AUTO 02004KT 5SM 10/08 A3006 RMK T01000080 IEM_DS3505
ZBYN,1990-04-30 02:00,ZBYN 300200Z AUTO 35008KT 3SM 10/09 A3006 RMK T01000090 IEM_DS3505
ZBYN,1990-04-30 03:00,ZBYN 300300Z AUTO 36004KT 5SM 10/08 A3006 RMK SLP174 T00950085 57001 IEM_DS3505
ZBYN,1990-04-30 05:00,ZBYN 300500Z AUTO 34004KT 3SM 10/09 A3000 RMK T01000090 IEM_DS3505
ZBYN,1990-04-30 06:00,ZBYN 300600Z AUTO 00000KT 5SM 10/09 A3000 RMK SLP168 T00960090 4////0071 57008 IEM_DS3505
ZBYN,1990-04-30 07:00,ZBYN 300700Z AUTO 01006KT 7SM 11/09 A2994 RMK T01100090 IEM_DS3505
ZBYN,1990-04-30 08:00,ZBYN 300800Z AUTO 00000KT 7SM 10/09 A2994 RMK T01000090 IEM_DS3505
ZBYN,1990-04-30 09:00,ZBYN 300900Z AUTO 00000KT 5SM 10/08 A2994 RMK SLP143 T01030085 57020 IEM_DS3505
ZBYN,1990-04-30 10:00,ZBYN 301000Z AUTO 00000KT 7SM 10/09 A2994 RMK T01000090 IEM_DS3505
ZBYN,1990-04-30 11:00,ZBYN 301100Z AUTO 00000KT 7SM 09/09 A2994 RMK T00900090 IEM_DS3505
ZBYN,1990-04-30 12:00,ZBYN 301200Z AUTO 00000KT 5SM 10/09 A2994 RMK 60028 SLP146 T00980086 52002 IEM_DS3505
ZBYN,1990-04-30 13:00,ZBYN 301300Z AUTO 00000KT 7SM 09/09 A2997 RMK T00900090 IEM_DS3505
ZBYN,1990-04-30 14:00,ZBYN 301400Z AUTO 00000KT 7SM 09/09 A2997 RMK T00900090 IEM_DS3505
ZBYN,1990-04-30 15:00,ZBYN 301500Z AUTO 00000KT 5SM 09/09 A2997 RMK SLP149 T00940088 52002 IEM_DS3505
ZBYN,1990-04-30 16:00,ZBYN 301600Z AUTO 00000KT 4SM 09/09 A2994 RMK T00900090 IEM_DS3505
ZBYN,1990-04-30 17:00,ZBYN 301700Z AUTO 00000KT 4SM 09/09 A2994 RMK T00900090 IEM_DS3505
ZBYN,1990-04-30 18:00,ZBYN 301800Z AUTO 32004KT 5SM 10/08 A2991 RMK 60001 SLP139 T00970085 40105//// 57009 IEM_DS3505
ZBYN,1990-04-30 19:00,ZBYN 301900Z AUTO 00000KT 1 1/4SM 09/09 A2988 RMK T00900090 IEM_DS3505
ZBYN,1990-04-30 20:00,ZBYN 302000Z AUTO 00000KT 2SM 08/08 A2991 RMK T00800080 IEM_DS3505
ZBYN,1990-04-30 21:00,ZBYN 302100Z AUTO 02002KT 1 1/4SM 07/07 A2994 RMK 70079 SLP141 T00740070 54000 IEM_DS3505
ZBYN,1990-04-30 22:00,ZBYN 302200Z AUTO 24008KT 2 1/2SM 10/09 A3000 RMK T01000090 IEM_DS3505
ZBYN,1990-04-30 23:00,ZBYN 302300Z AUTO 00000KT 0SM 07/07 A2991 RMK T00700070 IEM_DS3505
ZBYN,1990-04-30 23:14,ZBYN 302314Z AUTO 24008KT 2 1/2SM 10/09 A3000 RMK T01000090 IEM_DS3505
ZBYN,1990-05-01 00:00,ZBYN 010000Z AUTO 16002KT 1/2SM 08/07 A2994 RMK 70079 SLP138 T00800074 57003 IEM_DS3505
ZBYN,1990-05-01 01:00,ZBYN 010100Z AUTO 17004KT 1 1/2SM 10/09 A2994 RMK T01000090 IEM_DS3505
ZBYN,1990-05-01 02:00,ZBYN 010200Z AUTO 32008KT 7SM 14/11 A2994 RMK T01400110 IEM_DS3505
ZBYN,1990-05-01 03:00,ZBYN 010300Z AUTO 32006KT 7SM 17/09 A2991 RMK SLP125 T01690092 52001 IEM_DS3505
ZBYN,1990-05-01 04:00,ZBYN 010400Z AUTO 36010KT 7SM 18/08 A2991 RMK T01800080 IEM_DS3505
ZBYN,1990-05-01 05:00,ZBYN 010500Z AUTO 35006KT 7SM 19/09 A2988 RMK T01900090 IEM_DS3505
ZBYN,1990-05-01 06:00,ZBYN 010600Z AUTO 22006KT 7SM 21/10 A2988 RMK SLP103 T02060097 4////0047 57014 IEM_DS3505
ZBYN,1990-05-01 07:00,ZBYN 010700Z AUTO 26004KT 6SM 21/11 A2985 RMK T02100110 IEM_DS3505
ZBYN,1990-05-01 08:00,ZBYN 010800Z AUTO 34010KT 6SM 21/10 A2983 RMK T02100100 IEM_DS3505
ZBYN,1990-05-01 09:00,ZBYN 010900Z AUTO 36006KT 9SM 21/06 A2983 RMK SLP089 T02120060 57015 IEM_DS3505
ZBYN,1990-05-01 10:00,ZBYN 011000Z AUTO 33006KT 6SM 20/07 A2983 RMK T02000070 IEM_DS3505
ZBYN,1990-05-01 11:00,ZBYN 011100Z AUTO 32004KT 6SM 18/09 A2985 RMK T01800090 IEM_DS3505
ZBYN,1990-05-01 12:00,ZBYN 011200Z AUTO 00000KT 9SM 17/08 A2985 RMK SLP103 T01680075 52007 IEM_DS3505
ZBYN,1990-05-01 13:00,ZBYN 011300Z AUTO 33004KT 6SM 15/08 A2988 RMK T01500080 IEM_DS3505
ZBYN,1990-05-01 14:00,ZBYN 011400Z AUTO 07010KT 6SM 15/11 A2991 RMK T01500110 IEM_DS3505
ZBYN,1990-05-01 15:00,ZBYN 011500Z AUTO 11004KT 7SM 14/10 A2994 RMK SLP118 T01380105 52022 IEM_DS3505
ZBYN,1990-05-01 16:00,ZBYN 011600Z AUTO 07010KT 6SM 14/10 A2994 RMK T01400100 IEM_DS3505
ZBYN,1990-05-01 17:00,ZBYN 011700Z AUTO 07008KT 6SM 13/10 A2994 RMK T01300100 IEM_DS3505
ZBYN,1990-05-01 18:00,ZBYN 011800Z AUTO 00000KT 6SM 12/10 A2994 RMK T01190100 40215//// 52006 IEM_DS3505
ZBYN,1990-05-01 19:00,ZBYN 011900Z AUTO 10010KT 5SM 11/11 A2994 RMK T01100110 IEM_DS3505
ZBYN,1990-05-01 20:00,ZBYN 012000Z AUTO 09012KT 4SM 11/09 A2994 RMK T01100090 IEM_DS3505
ZBYN,1990-05-01 21:00,ZBYN 012100Z AUTO 11006KT 4SM 11/09 A2997 RMK SLP130 T01060087 52007 IEM_DS3505
ZBYN,1990-05-01 22:00,ZBYN 012200Z AUTO 09014KT 7SM 10/07 A2997 RMK T01000070 IEM_DS3505
ZBYN,1990-05-01 23:00,ZBYN 012300Z AUTO 09010KT 7SM 10/07 A2997 RMK T01000070 IEM_DS3505
ZBYN,1990-05-02 00:00,ZBYN 020000Z AUTO 27004KT 5SM 11/09 A3000 RMK SLP141 T01110088 52004 IEM_DS3505
ZBYN,1990-05-02 01:00,ZBYN 020100Z AUTO 07006KT 7SM 13/07 A2999 RMK SLP151 T01320069 4////0098 57013 IEM_DS3505
ZBYN,1990-05-02 03:00,ZBYN 020300Z AUTO 11014KT 5SM 10/07 A3006 RMK SLP167 T01040070 52018 IEM_DS3505
ZBYN,1990-05-02 04:00,ZBYN 020400Z AUTO 09008KT 7SM 11/07 A3003 RMK T01100070 IEM_DS3505
ZBYN,1990-05-02 05:00,ZBYN 020500Z AUTO 08016KT 7SM 13/07 A3003 RMK T01300070 IEM_DS3505
ZBYN,1990-05-02 06:00,ZBYN 020600Z AUTO 07006KT 7SM 13/07 A3000 RMK SLP151 T01320069 4////0098 57013 IEM_DS3505
ZBYN,1990-05-02 08:00,ZBYN 020800Z AUTO 07012KT 7SM 13/07 A3000 RMK T01300070 IEM_DS3505
ZBYN,1990-05-02 09:00,ZBYN 020900Z AUTO 14004KT 5SM 10/09 A3003 RMK SLP170 T01040090 52011 IEM_DS3505
ZBYN,1990-05-02 10:00,ZBYN 021000Z AUTO 07006KT 7SM 10/09 A3003 RMK T01000090 IEM_DS3505
ZBYN,1990-05-02 11:00,ZBYN 021100Z AUTO 36004KT 7SM 10/09 A3009 RMK T01000090 IEM_DS3505
ZBYN,1990-05-02 12:00,ZBYN 021200Z AUTO 00000KT 5SM 10/09 A3012 RMK 60024 SLP198 T00950087 52025 IEM_DS3505
ZBYN,1990-05-02 13:00,ZBYN 021300Z AUTO 00000KT 7SM 09/08 A3012 RMK T00900080 IEM_DS3505
ZBYN,1990-05-02 14:00,ZBYN 021400Z AUTO 00000KT 7SM 09/09 A3012 RMK T00900090 IEM_DS3505
ZBYN,1990-05-02 15:00,ZBYN 021500Z AUTO 00000KT 6SM 09/08 A3012 RMK SLP205 T00860080 52004 IEM_DS3505
ZBYN,1990-05-02 16:00,ZBYN 021600Z AUTO 00000KT 7SM 09/09 A3012 RMK T00900090 IEM_DS3505
ZBYN,1990-05-02 17:00,ZBYN 021700Z AUTO 00000KT 6SM 09/09 A3009 RMK T00900090 IEM_DS3505
ZBYN,1990-05-02 18:00,ZBYN 021800Z AUTO 00000KT 6SM 08/07 A3009 RMK 60002 SLP194 T00800074 40140//// 57007 IEM_DS3505
ZBYN,1990-05-02 19:00,ZBYN 021900Z AUTO 00000KT 4SM 08/07 A3009 RMK T00800070 IEM_DS3505
ZBYN,1990-05-02 20:00,ZBYN 022000Z AUTO 26004KT 4SM 08/07 A3009 RMK T00800070 IEM_DS3505
ZBYN,1990-05-02 21:00,ZBYN 022100Z AUTO 27006KT 6SM 08/01 A3009 RMK 70028 SLP190 T00830013 57007 IEM_DS3505
ZBYN,1990-05-02 22:00,ZBYN 022200Z AUTO 30012KT 6SM 08/00 A3006 RMK T00800000 IEM_DS3505
ZBYN,1990-05-02 23:00,ZBYN 022300Z AUTO 31012KT 6SM 08/01 A3009 RMK T00800010 IEM_DS3505
ZBYN,1990-05-03 00:00,ZBYN 030000Z AUTO 34008KT 9SM 08/M03 A3009 RMK 70028 T00801026 52004 IEM_DS3505
ZBYN,1990-05-03 01:00,ZBYN 030100Z AUTO 31017KT 7SM 09/M01 A3012 RMK T00901010 IEM_DS3505
ZBYN,1990-05-03 03:00,ZBYN 030300Z AUTO 29016KT 16SM 11/00 A3012 RMK SLP196 T01090001 52003 IEM_DS3505
ZBYN,1990-05-03 04:00,ZBYN 030400Z AUTO 32006KT 7SM 11/M01 A3009 RMK T01101010 IEM_DS3505
ZBYN,1990-05-03 05:00,ZBYN 030500Z AUTO 02006KT 7SM 12/00 A3009 RMK T01200000 IEM_DS3505
ZBYN,1990-05-03 06:00,ZBYN 030600Z AUTO 32006KT 16SM 13/00 A3009 RMK SLP184 T01320001 57012 IEM_DS3505
ZBYN,1990-05-03 07:00,ZBYN 030700Z AUTO 28012KT 7SM 14/M01 A3009 RMK T01401010 IEM_DS3505
ZBYN,1990-05-03 09:00,ZBYN 030900Z AUTO 29010KT 9SM 13/M00 A3005 RMK SLP177 T01281005 57007 IEM_DS3505
ZBYN,1990-05-03 12:00,ZBYN 031200Z AUTO 29004KT 12SM 10/M01 A3005 RMK SLP182 T01001009 54000 IEM_DS3505
ZBYN,1990-05-03 15:00,ZBYN 031500Z AUTO 00000KT 9SM 06/01 A3007 RMK SLP191 T00550006 52005 IEM_DS3505
ZBYN,1990-05-03 18:00,ZBYN 031800Z AUTO 00000KT 9SM 03/01 A3003 RMK SLP178 T00260006 40137//// 57012 IEM_DS3505
ZBYN,1990-05-03 21:00,ZBYN 032100Z AUTO 18002KT 6SM 02/00 A3000 RMK SLP170 T00160000 57010 IEM_DS3505
ZBYN,1990-05-03 23:00,ZBYN 032300Z AUTO 28019KT 7SM 11/M01 A3012 RMK T01101010 IEM_DS3505
ZBYN,1990-05-04 00:00,ZBYN 040000Z AUTO 14004KT 5SM 06/01 A3000 RMK SLP162 T00590013 57005 IEM_DS3505
ZBYN,1990-05-04 02:00,ZBYN 040200Z AUTO 19008KT 7SM 11/01 A2997 RMK T01100010 IEM_DS3505
ZBYN,1990-05-04 03:00,ZBYN 040300Z AUTO 16004KT 6SM 13/04 A2994 RMK SLP143 T01330035 57013 IEM_DS3505
ZBYN,1990-05-04 04:00,ZBYN 040400Z AUTO 20010KT 7SM 16/02 A2988 RMK T01600020 IEM_DS3505
ZBYN,1990-05-04 05:00,ZBYN 040500Z AUTO 24014KT 7SM 17/00 A2985 RMK T01700000 IEM_DS3505
ZBYN,1990-05-04 06:00,ZBYN 040600Z AUTO 34008KT 16SM 20/M02 A2983 RMK SLP090 T01961020 4////0012 57043 IEM_DS3505
ZBYN,1990-05-04 07:00,ZBYN 040700Z AUTO 27010KT 7SM 20/M02 A2977 RMK T02001020 IEM_DS3505
ZBYN,1990-05-04 08:00,ZBYN 040800Z AUTO 27017KT 7SM 20/M05 A2974 RMK T02001050 IEM_DS3505
ZBYN,1990-05-04 09:00,ZBYN 040900Z AUTO 29012KT 14SM 20/M01 A2974 RMK SLP068 T02011013 57021 IEM_DS3505
ZBYN,1990-05-04 10:00,ZBYN 041000Z AUTO 26010KT 6SM 20/M03 A2974 RMK T02001030 IEM_DS3505
ZBYN,1990-05-04 11:00,ZBYN 041100Z AUTO 28006KT 6SM 18/M01 A2974 RMK T01801010 IEM_DS3505
ZBYN,1990-05-04 12:00,ZBYN 041200Z AUTO 20004KT 19SM 15/01 A2974 RMK SLP063 T01520012 57005 IEM_DS3505
ZBYN,1990-05-04 13:00,ZBYN 041300Z AUTO 20010KT 7SM 14/01 A2974 RMK T01400010 IEM_DS3505
ZBYN,1990-05-04 14:00,ZBYN 041400Z AUTO 16004KT 7SM 12/03 A2974 RMK T01200030 IEM_DS3505
ZBYN,1990-05-04 15:00,ZBYN 041500Z AUTO 18004KT 12SM 12/02 A2974 RMK SLP056 T01160018 57001 IEM_DS3505
ZBYN,1990-05-04 16:00,ZBYN 041600Z AUTO 12008KT 7SM 11/04 A2971 RMK T01100040 IEM_DS3505
ZBYN,1990-05-04 17:00,ZBYN 041700Z AUTO 11008KT 7SM 09/04 A2968 RMK T00900040 IEM_DS3505
ZBYN,1990-05-04 18:00,ZBYN 041800Z AUTO 11008KT 11SM 09/04 A2968 RMK SLP026 T00870039 40205//// 57022 IEM_DS3505
ZBYN,1990-05-04 19:00,ZBYN 041900Z AUTO 09008KT 6SM 08/05 A2962 RMK T00800050 IEM_DS3505
ZBYN,1990-05-04 20:00,ZBYN 042000Z AUTO 09008KT 6SM 09/05 A2962 RMK T00900050 IEM_DS3505
ZBYN,1990-05-04 21:00,ZBYN 042100Z AUTO 16004KT 9SM 08/04 A2959 RMK SLP009 T00760039 57017 IEM_DS3505
ZBYN,1990-05-05 00:00,ZBYN 050000Z AUTO 18002KT 6SM 11/06 A2959 RMK SLP005 T01100057 57005 IEM_DS3505
ZBYN,1990-05-05 03:00,ZBYN 050300Z AUTO 14006KT 4SM 18/10 A2955 RMK SLP990 T01820095 57009 IEM_DS3505
ZBYN,1990-05-05 06:00,ZBYN 050600Z AUTO 32008KT 5SM 22/M00 A2950 RMK SLP967 T02241002 4////0070 57019 IEM_DS3505
ZBYN,1990-05-05 07:00,ZBYN 050700Z AUTO 34021KT 2 1/2SM 21/M02 A2950 RMK T02101020 IEM_DS3505
ZBYN,1990-05-05 08:00,ZBYN 050800Z AUTO 30027KT 7SM 19/02 A2956 RMK T01900020 IEM_DS3505
ZBYN,1990-05-05 09:00,ZBYN 050900Z AUTO 29012KT 7SM 17/03 A2962 RMK SLP013 T01740032 52033 IEM_DS3505
ZBYN,1990-05-05 10:00,ZBYN 051000Z AUTO 29016KT 6SM 17/05 A2962 RMK T01700050 IEM_DS3505
ZBYN,1990-05-05 11:00,ZBYN 051100Z AUTO 29017KT 6SM 17/04 A2965 RMK T01700040 IEM_DS3505
ZBYN,1990-05-05 12:00,ZBYN 051200Z AUTO 34002KT 9SM 16/04 A2968 RMK SLP040 T01570043 52027 IEM_DS3505
ZBYN,1990-05-05 13:00,ZBYN 051300Z AUTO 32016KT 6SM 15/04 A2971 RMK T01500040 IEM_DS3505
ZBYN,1990-05-05 14:00,ZBYN 051400Z AUTO 32012KT 6SM 15/04 A2974 RMK T01500040 IEM_DS3505
ZBYN,1990-05-05 15:00,ZBYN 051500Z AUTO 32006KT 9SM 15/04 A2977 RMK SLP050 T01510042 52019 IEM_DS3505
ZBYN,1990-05-05 16:00,ZBYN 051600Z AUTO 33008KT 6SM 14/04 A2977 RMK T01400040 IEM_DS3505
ZBYN,1990-05-05 17:00,ZBYN 051700Z AUTO 32008KT 6SM 14/04 A2977 RMK T01400040 IEM_DS3505
ZBYN,1990-05-05 18:00,ZBYN 051800Z AUTO 32006KT 9SM 14/03 A2976 RMK SLP050 T01440029 40244//// 52005 IEM_DS3505
ZBYN,1990-05-05 19:00,ZBYN 051900Z AUTO 00000KT 7SM 10/05 A2980 RMK T01000050 IEM_DS3505
ZBYN,1990-05-05 20:00,ZBYN 052000Z AUTO 7SM 08/05 A2980 RMK T00800050 IEM_DS3505
ZBYN,1990-05-05 21:00,ZBYN 052100Z AUTO 34004KT 7SM 12/03 A2980 RMK SLP079 T01200029 52016 IEM_DS3505
ZBYN,1990-05-05 22:00,ZBYN 052200Z AUTO 08004KT 7SM 07/03 A2983 RMK T00700030 IEM_DS3505
ZBYN,1990-05-05 23:00,ZBYN 052300Z AUTO 09006KT 7SM 09/04 A2985 RMK T00900040 IEM_DS3505
ZBYN,1990-05-06 00:00,ZBYN 060000Z AUTO 18004KT 9SM 11/05 A2988 RMK SLP106 T01140054 52021 IEM_DS3505
ZBYN,1990-05-06 01:00,ZBYN 060100Z AUTO 00000KT 7SM 16/06 A2988 RMK T01600060 IEM_DS3505
ZBYN,1990-05-06 02:00,ZBYN 060200Z AUTO 16006KT 7SM 18/06 A2988 RMK T01800060 IEM_DS3505
ZBYN,1990-05-06 03:00,ZBYN 060300Z AUTO 32004KT 9SM 21/02 A2985 RMK SLP086 T02130020 57005 IEM_DS3505
ZBYN,1990-05-06 04:00,ZBYN 060400Z AUTO 30016KT 7SM 22/04 A2985 RMK T02200040 IEM_DS3505
ZBYN,1990-05-06 05:00,ZBYN 060500Z AUTO 29012KT 7SM 23/02 A2983 RMK T02300020 IEM_DS3505
ZBYN,1990-05-06 06:00,ZBYN 060600Z AUTO 29016KT 12SM 24/02 A2980 RMK SLP062 T02400024 4////0056 57019 IEM_DS3505
ZBYN,1990-05-06 07:00,ZBYN 060700Z AUTO 30019KT 7SM 24/01 A2980 RMK T02400010 IEM_DS3505
ZBYN,1990-05-06 08:00,ZBYN 060800Z AUTO 32016KT 7SM 25/M01 A2980 RMK T02501010 IEM_DS3505
ZBYN,1990-05-06 09:00,ZBYN 060900Z AUTO 32012KT 12SM 25/02 A2980 RMK SLP057 T02460023 57007 IEM_DS3505
ZBYN,1990-05-06 10:00,ZBYN 061000Z AUTO 02010KT 7SM 24/00 A2977 RMK T02400000 IEM_DS3505
ZBYN,1990-05-06 11:00,ZBYN 061100Z AUTO 34012KT 7SM 23/M03 A2980 RMK T02301030 IEM_DS3505
ZBYN,1990-05-06 12:00,ZBYN 061200Z AUTO 02004KT 12SM 21/01 A2983 RMK SLP078 T02100011 52013 IEM_DS3505
ZBYN,1990-05-06 13:00,ZBYN 061300Z AUTO 13006KT 7SM 17/02 A2985 RMK T01700020 IEM_DS3505
ZBYN,1990-05-06 14:00,ZBYN 061400Z AUTO 00000KT 7SM 15/04 A2985 RMK T01500040 IEM_DS3505
ZBYN,1990-05-06 15:00,ZBYN 061500Z AUTO 00000KT 12SM 12/05 A2988 RMK SLP094 T01200052 52016 IEM_DS3505
ZBYN,1990-05-06 16:00,ZBYN 061600Z AUTO 07006KT 7SM 12/03 A2988 RMK T01200030 IEM_DS3505
ZBYN,1990-05-06 18:00,ZBYN 061800Z AUTO 00000KT 7SM 08/06 A2987 RMK SLP096 T00840057 40248//// 52001 IEM_DS3505
ZBYN,1990-05-06 21:00,ZBYN 062100Z AUTO 00000KT 6SM 07/04 A2988 RMK SLP095 T00680044 57003 IEM_DS3505
ZBYN,1990-05-06 23:00,ZBYN 062300Z AUTO 00000KT 7SM 09/05 A2988 RMK T00900050 IEM_DS3505
ZBYN,1990-05-07 00:00,ZBYN 070000Z AUTO 00000KT 5SM 13/05 A2991 RMK SLP107 T01300054 52015 IEM_DS3505
ZBYN,1990-05-07 00:49,ZBYN 070049Z AUTO 00000KT 7SM 12/05 A2991 RMK T01200050 IEM_DS3505
ZBYN,1990-05-07 01:00,ZBYN 070100Z AUTO 00000KT 7SM 17/04 A2991 RMK T01700040 IEM_DS3505
ZBYN,1990-05-07 03:00,ZBYN 070300Z AUTO 18004KT 6SM 20/06 A2991 RMK SLP107 T02010059 57003 IEM_DS3505
ZBYN,1990-05-07 04:00,ZBYN 070400Z AUTO 23010KT 7SM 23/03 A2988 RMK T02300030 IEM_DS3505
ZBYN,1990-05-07 05:00,ZBYN 070500Z AUTO 21012KT 7SM 24/05 A2985 RMK T02400050 IEM_DS3505
ZBYN,1990-05-07 06:00,ZBYN 070600Z AUTO 18008KT 12SM 25/05 A2983 RMK SLP078 T02540047 4////0060 57024 IEM_DS3505
ZBYN,1990-05-07 08:00,ZBYN 070800Z AUTO 21010KT 7SM 29/05 A2977 RMK T02900050 IEM_DS3505
ZBYN,1990-05-07 09:00,ZBYN 070900Z AUTO 20004KT 16SM 28/03 A2974 RMK SLP051 T02770030 57023 IEM_DS3505
ZBYN,1990-05-07 10:00,ZBYN 071000Z AUTO 24004KT 7SM 28/08 A2977 RMK T02800080 IEM_DS3505
ZBYN,1990-05-07 11:00,ZBYN 071100Z AUTO 00000KT 7SM 26/10 A2974 RMK T02600100 IEM_DS3505
ZBYN,1990-05-07 12:00,ZBYN 071200Z AUTO 16006KT 16SM 21/07 A2974 RMK SLP052 T02100070 54000 IEM_DS3505
ZBYN,1990-05-07 15:00,ZBYN 071500Z AUTO 14004KT 11SM 16/07 A2980 RMK SLP063 T01620067 52013 IEM_DS3505
ZBYN,1990-05-07 16:00,ZBYN 071600Z AUTO 11006KT 7SM 16/07 A2980 RMK T01600070 IEM_DS3505
ZBYN,1990-05-07 18:00,ZBYN 071800Z AUTO 16004KT 11SM 14/05 A2978 RMK SLP056 T01410049 40278//// 57002 IEM_DS3505
ZBYN,1990-05-07 20:00,ZBYN 072000Z AUTO 22002KT 7SM 11/07 A2977 RMK T01100070 IEM_DS3505
ZBYN,1990-05-07 21:00,ZBYN 072100Z AUTO 36002KT 6SM 12/07 A2977 RMK SLP048 T01180068 57007 IEM_DS3505
ZBYN,1990-05-07 22:00,ZBYN 072200Z AUTO 00000KT 7SM 10/07 A2977 RMK T01000070 IEM_DS3505
ZBYN,1990-05-07 23:00,ZBYN 072300Z AUTO 00000KT 7SM 12/07 A2980 RMK T01200070 IEM_DS3505
ZBYN,1990-05-08 00:00,ZBYN 080000Z AUTO 00000KT 4SM 16/08 A2980 RMK SLP066 T01560078 52012 IEM_DS3505
ZBYN,1990-05-08 01:00,ZBYN 080100Z AUTO 17004KT 7SM 20/09 A2980 RMK T02000090 IEM_DS3505
ZBYN,1990-05-08 02:00,ZBYN 080200Z AUTO 14006KT 7SM 22/08 A2980 RMK T02200080 IEM_DS3505
ZBYN,1990-05-08 03:00,ZBYN 080300Z AUTO 16004KT 4SM 24/08 A2978 RMK SLP054 T02370080 57006 IEM_DS3505
ZBYN,1990-05-08 05:00,ZBYN 080500Z AUTO 21008KT 7SM 28/08 A2971 RMK T02800080 IEM_DS3505
ZBYN,1990-05-08 06:00,ZBYN 080600Z AUTO 18006KT 6SM 28/09 A2971 RMK SLP021 T02850089 4////0094 57026 IEM_DS3505
ZBYN,1990-05-08 07:00,ZBYN 080700Z AUTO 21008KT 7SM 30/10 A2965 RMK T03000100 IEM_DS3505
ZBYN,1990-05-08 08:00,ZBYN 080800Z AUTO 23006KT 7SM 31/11 A2962 RMK T03100110 IEM_DS3505
ZBYN,1990-05-08 09:00,ZBYN 080900Z AUTO 16006KT 7SM 29/11 A2962 RMK SLP997 T02920112 57025 IEM_DS3505
ZBYN,1990-05-08 10:00,ZBYN 081000Z AUTO 13006KT 6SM 30/14 A2962 RMK T03000140 IEM_DS3505
ZBYN,1990-05-08 11:00,ZBYN 081100Z AUTO 00000KT 6SM 28/12 A2959 RMK T02800120 IEM_DS3505
ZBYN,1990-05-08 12:00,ZBYN 081200Z AUTO 14006KT 7SM 25/12 A2962 RMK SLP992 T02520122 57004 IEM_DS3505
ZBYN,1990-05-08 13:00,ZBYN 081300Z AUTO 16008KT 6SM 24/13 A2962 RMK T02400130 IEM_DS3505
ZBYN,1990-05-08 15:00,ZBYN 081500Z AUTO 14006KT 7SM 19/13 A2968 RMK SLP015 T01860130 52023 IEM_DS3505
ZBYN,1990-05-08 18:00,ZBYN 081800Z AUTO 00000KT 6SM 16/13 A2972 RMK SLP026 T01590128 40306//// 52013 IEM_DS3505
ZBYN,1990-05-08 21:00,ZBYN 082100Z AUTO 00000KT 4SM 13/12 A2974 RMK SLP036 T01320120 52006 IEM_DS3505
ZBYN,1990-05-08 23:00,ZBYN 082300Z AUTO 00000KT 6SM 16/13 A2977 RMK T01600130 IEM_DS3505
ZBYN,1990-05-09 00:00,ZBYN 090000Z AUTO 02006KT 4SM 19/10 A2978 RMK SLP049 T01900101 52014 IEM_DS3505
ZBYN,1990-05-09 03:00,ZBYN 090300Z AUTO 04002KT 5SM 26/08 A2983 RMK SLP059 T02640078 52011 IEM_DS3505
ZBYN,1990-05-09 06:00,ZBYN 090600Z AUTO 04004KT 6SM 26/12 A2980 RMK SLP058 T02600120 4////0124 57006 IEM_DS3505
ZBYN,1990-05-09 07:00,ZBYN 090700Z AUTO 02008KT 7SM 26/09 A2980 RMK T02600090 IEM_DS3505
ZBYN,1990-05-09 08:00,ZBYN 090800Z AUTO 32014KT 7SM 27/07 A2977 RMK T02700070 IEM_DS3505
ZBYN,1990-05-09 09:00,ZBYN 090900Z AUTO 29006KT 12SM 26/09 A2977 RMK SLP053 T02650087 57007 IEM_DS3505
ZBYN,1990-05-09 12:00,ZBYN 091200Z AUTO 22004KT 12SM 22/08 A2980 RMK SLP060 T02240085 52009 IEM_DS3505
ZBYN,1990-05-09 14:00,ZBYN 091400Z AUTO 03008KT 6SM 21/09 A2983 RMK T02100090 IEM_DS3505
ZBYN,1990-05-09 15:00,ZBYN 091500Z AUTO 11006KT 9SM 20/08 A2982 RMK SLP055 T02050075 52003 IEM_DS3505
ZBYN,1990-05-09 17:00,ZBYN 091700Z AUTO 07006KT 6SM 19/10 A2985 RMK T01900100 IEM_DS3505
ZBYN,1990-05-09 18:00,ZBYN 091800Z AUTO 00000KT 9SM 16/12 A2983 RMK SLP066 T01630117 40272//// 52003 IEM_DS3505
ZBYN,1990-05-09 19:00,ZBYN 091900Z AUTO 36006KT 6SM 19/09 A2985 RMK T01900090 IEM_DS3505
ZBYN,1990-05-09 20:00,ZBYN 092000Z AUTO 34012KT 2SM 21/M01 A2985 RMK T02101010 IEM_DS3505
ZBYN,1990-05-09 21:00,ZBYN 092100Z AUTO 34008KT 2 1/2SM 20/M01 A2988 RMK SLP082 T01971007 52020 IEM_DS3505
ZBYN,1990-05-09 22:00,ZBYN 092200Z AUTO 36019KT 2SM 20/M12 A2988 RMK T02001120 IEM_DS3505
ZBYN,1990-05-10 00:00,ZBYN 100000Z AUTO 36008G23KT 4SM 18/M11 A2997 RMK SLP115 T01831107 52023 IEM_DS3505
ZBYN,1990-05-10 02:00,ZBYN 100200Z AUTO 01008KT 4SM 19/M02 A3000 RMK T01901020 IEM_DS3505
ZBYN,1990-05-10 03:00,ZBYN 100300Z AUTO 36010KT 5SM 20/M06 A2997 RMK SLP125 T02031059 52009 IEM_DS3505
ZBYN,1990-05-10 04:00,ZBYN 100400Z AUTO 01010KT 6SM 22/M01 A2997 RMK T02201010 IEM_DS3505
ZBYN,1990-05-10 06:00,ZBYN 100600Z AUTO 04004KT 7SM 25/M05 A2991 RMK SLP098 T02501047 4////0153 57024 IEM_DS3505
ZBYN,1990-05-10 07:00,ZBYN 100700Z AUTO 35010KT 7SM 26/03 A2988 RMK T02600030 IEM_DS3505
ZBYN,1990-05-10 08:00,ZBYN 100800Z AUTO 00000KT 7SM 26/02 A2988 RMK T02600020 IEM_DS3505
ZBYN,1990-05-10 09:00,ZBYN 100900Z AUTO 36006KT 6SM 26/M04 A2988 RMK SLP081 T02561040 57010 IEM_DS3505
ZBYN,1990-05-10 10:00,ZBYN 101000Z AUTO 34006KT 7SM 25/01 A2988 RMK T02500010 IEM_DS3505
ZBYN,1990-05-10 12:00,ZBYN 101200Z AUTO 32002KT 6SM 20/03 A2991 RMK SLP099 T01980034 52007 IEM_DS3505
ZBYN,1990-05-10 13:00,ZBYN 101300Z AUTO 06006KT 7SM 18/04 A2994 RMK T01800040 IEM_DS3505
ZBYN,1990-05-10 14:00,ZBYN 101400Z AUTO 06004KT 7SM 19/05 A2994 RMK T01900050 IEM_DS3505
ZBYN,1990-05-10 15:00,ZBYN 101500Z AUTO 36004KT 6SM 17/02 A2997 RMK SLP121 T01680021 52018 IEM_DS3505
ZBYN,1990-05-10 16:00,ZBYN 101600Z AUTO 00000KT 7SM 16/06 A2997 RMK T01600060 IEM_DS3505
ZBYN,1990-05-10 17:00,ZBYN 101700Z AUTO 12004KT 7SM 15/06 A2997 RMK T01500060 IEM_DS3505
ZBYN,1990-05-10 18:00,ZBYN 101800Z AUTO 36002KT 9SM 13/02 A2995 RMK SLP116 T01280020 40260//// 57003 IEM_DS3505
ZBYN,1990-05-10 21:00,ZBYN 102100Z AUTO 00000KT 9SM 10/01 A2994 RMK SLP114 T01020012 57005 IEM_DS3505
ZBYN,1990-05-10 22:00,ZBYN 102200Z AUTO 00000KT 7SM 09/05 A2994 RMK T00900050 IEM_DS3505
ZBYN,1990-05-10 23:00,ZBYN 102300Z AUTO 00000KT 3SM 11/06 A2994 RMK T01100060 IEM_DS3505
ZBYN,1990-05-11 00:00,ZBYN 110000Z AUTO 00000KT 6SM 15/03 A2995 RMK SLP120 T01490028 52004 IEM_DS3505
ZBYN,1990-05-11 02:00,ZBYN 110200Z AUTO 16006KT 5SM 19/04 A2994 RMK T01900040 IEM_DS3505
ZBYN,1990-05-11 03:00,ZBYN 110300Z AUTO 16006KT 6SM 21/06 A2991 RMK SLP104 T02120057 57010 IEM_DS3505
ZBYN,1990-05-11 04:00,ZBYN 110400Z AUTO 20010KT 6SM 23/09 A2988 RMK T02300090 IEM_DS3505
ZBYN,1990-05-11 06:00,ZBYN 110600Z AUTO 18010KT 6SM 24/07 A2985 RMK SLP075 T02440072 4////0077 57028 IEM_DS3505
ZBYN,1990-05-11 07:00,ZBYN 110700Z AUTO 00000KT 6SM 26/10 A2980 RMK T02600100 IEM_DS3505
ZBYN,1990-05-11 08:00,ZBYN 110800Z AUTO 00000KT 6SM 26/06 A2977 RMK T02600060 IEM_DS3505
ZBYN,1990-05-11 09:00,ZBYN 110900Z AUTO 16008KT 6SM 25/11 RMK T02540109 57029 IEM_DS3505
ZBYN,1990-05-11 11:00,ZBYN 111100Z AUTO 20008KT 6SM 24/12 A2974 RMK T02400120 IEM_DS3505
ZBYN,1990-05-11 12:00,ZBYN 111200Z AUTO 20006KT 7SM 24/09 A2977 RMK SLP041 T02430089 52001 IEM_DS3505
ZBYN,1990-05-11 13:00,ZBYN 111300Z AUTO 12006KT 7SM 23/11 A2980 RMK T02300110 IEM_DS3505
ZBYN,1990-05-11 15:00,ZBYN 111500Z AUTO 11006KT 7SM 20/10 A2980 RMK SLP053 T01980104 52014 IEM_DS3505
ZBYN,1990-05-11 16:00,ZBYN 111600Z AUTO 10008KT 7SM 19/10 A2980 RMK T01900100 IEM_DS3505
ZBYN,1990-05-11 17:00,ZBYN 111700Z AUTO 00000KT 7SM 19/10 A2980 RMK T01900100 IEM_DS3505
ZBYN,1990-05-11 18:00,ZBYN 111800Z AUTO 00000KT 7SM 17/11 A2980 RMK T01700110 IEM_DS3505
ZBYN,1990-05-11 21:00,ZBYN 112100Z AUTO 00000KT 6SM 15/11 A2977 RMK SLP049 T01460106 57004 IEM_DS3505
ZBYN,1990-05-11 22:00,ZBYN 112200Z AUTO 12008KT 6SM 16/11 A2977 RMK T01600110 IEM_DS3505
ZBYN,1990-05-11 23:00,ZBYN 112300Z AUTO 09006KT 6SM 16/11 A2977 RMK T01600110 IEM_DS3505
ZBYN,1990-05-12 00:00,ZBYN 120000Z AUTO 00000KT 6SM 18/12 A2977 RMK SLP048 T01790118 52002 IEM_DS3505
ZBYN,1990-05-12 01:00,ZBYN 120100Z AUTO 17004KT 6SM 22/12 A2977 RMK T02200120 IEM_DS3505
ZBYN,1990-05-12 02:00,ZBYN 120200Z AUTO 19006KT 6SM 24/12 A2977 RMK T02400120 IEM_DS3505
ZBYN,1990-05-12 03:00,ZBYN 120300Z AUTO 20006KT 5SM 25/13 A2974 RMK SLP032 T02520126 57011 IEM_DS3505
ZBYN,1990-05-12 04:00,ZBYN 120400Z AUTO 31012KT 6SM 27/14 A2971 RMK T02700140 IEM_DS3505
ZBYN,1990-05-12 05:00,ZBYN 120500Z AUTO 23012KT 7SM 29/12 A2971 RMK T02900120 IEM_DS3505
ZBYN,1990-05-12 06:00,ZBYN 120600Z AUTO 22008KT 7SM 29/12 A2968 RMK SLP009 T02870118 4////0129 57020 IEM_DS3505
ZBYN,1990-05-12 07:00,ZBYN 120700Z AUTO 23012KT 7SM 29/11 A2965 RMK T02900110 IEM_DS3505
ZBYN,1990-05-12 07:37,ZBYN 120737Z AUTO 23012KT 7SM 29/11 A2965 RMK T02900110 IEM_DS3505
ZBYN,1990-05-12 08:00,ZBYN 120800Z AUTO 26010KT 6SM 30/12 A2965 RMK T03000120 IEM_DS3505
ZBYN,1990-05-12 09:00,ZBYN 120900Z AUTO 29012KT 6SM 30/03 A2965 RMK SLP981 T02970028 57010 IEM_DS3505
ZBYN,1990-05-12 10:00,ZBYN 121000Z AUTO 30010KT 6SM 28/03 A2965 RMK T02800030 IEM_DS3505
ZBYN,1990-05-12 11:00,ZBYN 121100Z AUTO 32019KT 6SM 27/06 A2965 RMK T02700060 IEM_DS3505
ZBYN,1990-05-12 12:00,ZBYN 121200Z AUTO 29006KT 12SM 25/02 A2971 RMK SLP027 T02540022 52023 IEM_DS3505
ZBYN,1990-05-12 13:00,ZBYN 121300Z AUTO 09010KT 6SM 21/15 A2974 RMK T02100150 IEM_DS3505
ZBYN,1990-05-12 14:00,ZBYN 121400Z AUTO 09016KT 6SM 20/15 A2980 RMK T02000150 IEM_DS3505
ZBYN,1990-05-12 15:00,ZBYN 121500Z AUTO 09008KT 11SM 22/07 A2983 RMK SLP064 T02150074 52039 IEM_DS3505
ZBYN,1990-05-12 16:00,ZBYN 121600Z AUTO 09014KT 6SM 17/11 A2988 RMK T01700110 IEM_DS3505
ZBYN,1990-05-12 17:00,ZBYN 121700Z AUTO 09012KT 6SM 15/10 A2988 RMK T01500100 IEM_DS3505
ZBYN,1990-05-12 18:00,ZBYN 121800Z AUTO 09017KT 9SM 15/09 A2988 RMK SLP088 T01530094 52018 IEM_DS3505
ZBYN,1990-05-12 19:00,ZBYN 121900Z AUTO 09012KT 6SM 15/09 A2988 RMK T01500090 IEM_DS3505
ZBYN,1990-05-12 20:00,ZBYN 122000Z AUTO 09006KT 6SM 14/10 A2988 RMK T01400100 IEM_DS3505
ZBYN,1990-05-12 21:00,ZBYN 122100Z AUTO 00000KT 6SM 13/10 A2988 RMK SLP090 T01300098 54000 IEM_DS3505
ZBYN,1990-05-12 22:00,ZBYN 122200Z AUTO 12004KT 5SM 13/10 A2991 RMK T01300100 IEM_DS3505
ZBYN,1990-05-12 23:00,ZBYN 122300Z AUTO 00000KT 5SM 14/11 A2994 RMK T01400110 IEM_DS3505
ZBYN,1990-05-13 00:00,ZBYN 130000Z AUTO 00000KT 6SM 16/11 A2994 RMK SLP100 T01650112 52014 IEM_DS3505
ZBYN,1990-05-13 01:00,ZBYN 130100Z AUTO 00000KT 6SM 18/12 A2994 RMK T01800120 IEM_DS3505
ZBYN,1990-05-13 02:00,ZBYN 130200Z AUTO 00000KT 6SM 21/12 A2994 RMK T02100120 IEM_DS3505
ZBYN,1990-05-13 03:00,ZBYN 130300Z AUTO 14004KT 5SM 22/12 A2994 RMK SLP101 T02180117 57003 IEM_DS3505
ZBYN,1990-05-13 04:00,ZBYN 130400Z AUTO 00000KT 6SM 22/10 A2991 RMK T02200100 IEM_DS3505
ZBYN,1990-05-13 05:00,ZBYN 130500Z AUTO 20006KT 7SM 23/09 A2988 RMK T02300090 IEM_DS3505
ZBYN,1990-05-13 06:00,ZBYN 130600Z AUTO 16006KT 9SM 25/08 A2988 RMK SLP085 T02530084 4////0104 57019 IEM_DS3505
ZBYN,1990-05-13 07:00,ZBYN 130700Z AUTO 11012KT 7SM 26/08 A2985 RMK T02600080 IEM_DS3505
ZBYN,1990-05-13 08:00,ZBYN 130800Z AUTO 27004KT 7SM 25/05 A2985 RMK T02500050 IEM_DS3505
ZBYN,1990-05-13 09:00,ZBYN 130900Z AUTO 11004KT 9SM 24/05 A2986 RMK SLP084 T02430051 57001 IEM_DS3505
ZBYN,1990-05-13 11:00,ZBYN 131100Z AUTO 17004KT 7SM 21/08 A2991 RMK T02100080 IEM_DS3505
ZBYN,1990-05-13 12:00,ZBYN 131200Z AUTO 09006KT 9SM 19/07 A2991 RMK SLP106 T01890074 52017 IEM_DS3505
ZBYN,1990-05-13 13:00,ZBYN 131300Z AUTO 09010KT 7SM 18/06 A2994 RMK T01800060 IEM_DS3505
ZBYN,1990-05-13 15:00,ZBYN 131500Z AUTO 00000KT 9SM 15/08 A3000 RMK SLP133 T01490082 52027 IEM_DS3505
ZBYN,1990-05-13 16:00,ZBYN 131600Z AUTO 10002KT 7SM 16/08 A3000 RMK T01600080 IEM_DS3505
ZBYN,1990-05-13 17:00,ZBYN 131700Z AUTO 00000KT 7SM 15/08 A3000 RMK T01500080 IEM_DS3505
ZBYN,1990-05-13 18:00,ZBYN 131800Z AUTO 00000KT 9SM 11/09 A3000 RMK SLP139 T01140091 40263//// 52005 IEM_DS3505
ZBYN,1990-05-13 19:00,ZBYN 131900Z AUTO 00000KT 7SM 13/09 A3003 RMK T01300090 IEM_DS3505
ZBYN,1990-05-13 20:00,ZBYN 132000Z AUTO 00000KT 7SM 11/08 A3003 RMK T01100080 IEM_DS3505
ZBYN,1990-05-13 21:00,ZBYN 132100Z AUTO 09002KT 9SM 12/08 A3003 RMK SLP147 T01220075 52007 IEM_DS3505
ZBYN,1990-05-13 22:00,ZBYN 132200Z AUTO 00000KT 6SM 11/09 A3006 RMK T01100090 IEM_DS3505
ZBYN,1990-05-13 23:00,ZBYN 132300Z AUTO 00000KT 6SM 13/10 A3006 RMK T01300100 IEM_DS3505
ZBYN,1990-05-14 00:00,ZBYN 140000Z AUTO 34004KT 6SM 16/08 A3009 RMK SLP166 T01580080 52015 IEM_DS3505
ZBYN,1990-05-14 01:00,ZBYN 140100Z AUTO 00000KT 6SM 20/10 A3009 RMK T02000100 IEM_DS3505
ZBYN,1990-05-14 02:00,ZBYN 140200Z AUTO 00000KT 6SM 21/10 A3009 RMK T02100100 IEM_DS3505
ZBYN,1990-05-14 03:00,ZBYN 140300Z AUTO 22002KT 7SM 22/09 A3009 RMK SLP161 T02250093 57001 IEM_DS3505
ZBYN,1990-05-14 04:00,ZBYN 140400Z AUTO 23008KT 6SM 24/09 A3006 RMK T02400090 IEM_DS3505
ZBYN,1990-05-14 05:00,ZBYN 140500Z AUTO 00000KT 6SM 24/09 A3003 RMK T02400090 IEM_DS3505
ZBYN,1990-05-14 06:00,ZBYN 140600Z AUTO 29004KT 9SM 24/09 A3003 RMK SLP148 T02350086 4////0109 57015 IEM_DS3505
ZBYN,1990-05-14 09:00,ZBYN 140900Z AUTO 07008KT 9SM 23/04 A3003 RMK SLP147 T02310042 57001 IEM_DS3505
ZBYN,1990-05-14 10:00,ZBYN 141000Z AUTO 08008KT 7SM 21/13 A3003 RMK T02100130 IEM_DS3505
ZBYN,1990-05-14 11:00,ZBYN 141100Z AUTO 08006KT 7SM 20/15 A3006 RMK T02000150 IEM_DS3505
ZBYN,1990-05-14 12:00,ZBYN 141200Z AUTO 09006KT 9SM 19/10 A3009 RMK SLP172 T01930100 52023 IEM_DS3505
ZBYN,1990-05-14 13:00,ZBYN 141300Z AUTO 08008KT 7SM 19/08 A3009 RMK T01900080 IEM_DS3505
ZBYN,1990-05-14 15:00,ZBYN 141500Z AUTO 34004KT 9SM 18/10 A3012 RMK SLP173 T01820105 52009 IEM_DS3505
ZBYN,1990-05-14 16:00,ZBYN 141600Z AUTO 10004KT 7SM 18/09 A3012 RMK T01800090 IEM_DS3505
ZBYN,1990-05-14 17:00,ZBYN 141700Z AUTO 00000KT 7SM 16/09 A3015 RMK T01600090 IEM_DS3505
ZBYN,1990-05-14 18:00,ZBYN 141800Z AUTO 00000KT 9SM 17/10 A3013 RMK SLP173 T01660098 40250//// 57001 IEM_DS3505
ZBYN,1990-05-14 21:00,ZBYN 142100Z AUTO 34002KT 7SM A3012 RMK SLP173 57003 IEM_DS3505
ZBYN,1990-05-15 00:00,ZBYN 150000Z AUTO 00000KT 5SM 18/09 A3013 RMK SLP180 T01770090 52005 IEM_DS3505
ZBYN,1990-05-15 02:00,ZBYN 150200Z AUTO 14008KT 6SM 20/08 A3015 RMK T02000080 IEM_DS3505
ZBYN,1990-05-15 03:00,ZBYN 150300Z AUTO 16004KT 11SM 19/08 A3015 RMK SLP185 T01940078 52005 IEM_DS3505
ZBYN,1990-05-15 04:00,ZBYN 150400Z AUTO 17010KT 6SM 21/05 A3015 RMK T02100050 IEM_DS3505
ZBYN,1990-05-15 05:00,ZBYN 150500Z AUTO 17010KT 6SM 21/02 A3012 RMK T02100020 IEM_DS3505
ZBYN,1990-05-15 06:00,ZBYN 150600Z AUTO 16006KT 16SM 22/05 A3009 RMK SLP164 T02160046 4////0140 57018 IEM_DS3505
ZBYN,1990-05-15 07:00,ZBYN 150700Z AUTO 23006KT 6SM 21/04 A3006 RMK T02100040 IEM_DS3505
ZBYN,1990-05-15 08:00,ZBYN 150800Z AUTO 24004KT 6SM 21/06 A3006 RMK T02100060 IEM_DS3505
ZBYN,1990-05-15 09:00,ZBYN 150900Z AUTO 22004KT 16SM 21/03 A3003 RMK SLP152 T02060026 57015 IEM_DS3505
ZBYN,1990-05-15 10:00,ZBYN 151000Z AUTO 23006KT 6SM 20/06 A3003 RMK T02000060 IEM_DS3505
ZBYN,1990-05-15 12:00,ZBYN 151200Z AUTO 00000KT 12SM 18/08 A3003 RMK SLP151 T01750076 57001 IEM_DS3505
ZBYN,1990-05-15 13:00,ZBYN 151300Z AUTO 09006KT 7SM 17/08 A3006 RMK T01700080 IEM_DS3505
ZBYN,1990-05-15 14:00,ZBYN 151400Z AUTO 20004KT 7SM 15/09 A3006 RMK T01500090 IEM_DS3505
ZBYN,1990-05-15 15:00,ZBYN 151500Z AUTO 00000KT 9SM 14/09 A3006 RMK SLP161 T01430086 52007 IEM_DS3505
ZBYN,1990-05-15 16:00,ZBYN 151600Z AUTO 11010KT 7SM 14/09 A3003 RMK T01400090 IEM_DS3505
ZBYN,1990-05-15 17:00,ZBYN 151700Z AUTO 19006KT 7SM 14/09 A3003 RMK T01400090 IEM_DS3505
ZBYN,1990-05-15 18:00,ZBYN 151800Z AUTO 16002KT 9SM 14/08 A3003 RMK SLP148 T01350081 40216//// 57010 IEM_DS3505
ZBYN,1990-05-15 19:00,ZBYN 151900Z AUTO 21008KT 7SM 13/08 A3003 RMK T01300080 IEM_DS3505
ZBYN,1990-05-15 20:00,ZBYN 152000Z AUTO 22006KT 7SM 13/07 A3000 RMK T01300070 IEM_DS3505
ZBYN,1990-05-15 21:00,ZBYN 152100Z AUTO 16004KT 9SM 12/07 A3000 RMK SLP141 T01250074 57009 IEM_DS3505
ZBYN,1990-05-15 23:00,ZBYN 152300Z AUTO 19008KT 7SM 12/08 A3000 RMK T01200080 IEM_DS3505
ZBYN,1990-05-16 00:00,ZBYN 160000Z AUTO 00000KT 9SM 13/07 A3000 RMK SLP151 T01300073 52005 IEM_DS3505
ZBYN,1990-05-16 01:00,ZBYN 160100Z AUTO 17008KT 7SM 13/08 A3003 RMK T01300080 IEM_DS3505
ZBYN,1990-05-16 02:00,ZBYN 160200Z AUTO 25004KT 7SM 13/09 A3003 RMK T01300090 IEM_DS3505
ZBYN,1990-05-16 03:00,ZBYN 160300Z AUTO 18002KT 9SM 14/07 A3003 RMK SLP157 T01380074 52002 IEM_DS3505
ZBYN,1990-05-16 05:00,ZBYN 160500Z AUTO 23008KT 7SM 13/09 RMK T01300090 IEM_DS3505
ZBYN,1990-05-16 06:00,ZBYN 160600Z AUTO 20004KT 9SM 13/07 A3000 RMK SLP155 T01330071 4////0116 57004 IEM_DS3505
ZBYN,1990-05-16 07:00,ZBYN 160700Z AUTO 18002KT 7SM 13/09 A3000 RMK T01300090 IEM_DS3505
ZBYN,1990-05-16 08:00,ZBYN 160800Z AUTO 21004KT 7SM 14/09 A3000 RMK T01400090 IEM_DS3505
ZBYN,1990-05-16 09:00,ZBYN 160900Z AUTO 20004KT 9SM 14/08 A3000 RMK SLP152 T01370081 57003 IEM_DS3505
ZBYN,1990-05-16 11:00,ZBYN 161100Z AUTO 29002KT 7SM 12/09 A3000 RMK T01200090 IEM_DS3505
ZBYN,1990-05-16 12:00,ZBYN 161200Z AUTO 14002KT 7SM 12/10 A3000 RMK SLP156 T01180095 52001 IEM_DS3505
ZBYN,1990-05-16 13:00,ZBYN 161300Z AUTO 00000KT 6SM 11/10 A3003 RMK T01100100 IEM_DS3505
ZBYN,1990-05-16 14:00,ZBYN 161400Z AUTO 00000KT 6SM 11/10 A3006 RMK T01100100 IEM_DS3505
ZBYN,1990-05-16 15:00,ZBYN 161500Z AUTO 00000KT 7SM 11/10 A3006 RMK SLP167 T01080097 52010 IEM_DS3505
ZBYN,1990-05-16 16:00,ZBYN 161600Z AUTO 00000KT 6SM 11/10 A3006 RMK T01100100 IEM_DS3505
ZBYN,1990-05-16 18:00,ZBYN 161800Z AUTO 00000KT 6SM 10/09 A3003 RMK SLP166 T00990091 40140//// 57003 IEM_DS3505
ZBYN,1990-05-16 21:00,ZBYN 162100Z AUTO 32002KT 4SM 10/09 A2998 RMK SLP147 T00970091 57017 IEM_DS3505
ZBYN,1990-05-16 22:00,ZBYN 162200Z AUTO 00000KT 6SM 11/06 A2997 RMK T01100060 IEM_DS3505
ZBYN,1990-05-16 23:00,ZBYN 162300Z AUTO 00000KT 6SM 12/09 A2997 RMK T01200090 IEM_DS3505
ZBYN,1990-05-17 00:00,ZBYN 170000Z AUTO 16002KT 7SM 12/07 A3000 RMK SLP149 T01220068 52003 IEM_DS3505
ZBYN,1990-05-17 01:00,ZBYN 170100Z AUTO 00000KT 6SM 13/07 A3000 RMK T01300070 IEM_DS3505
ZBYN,1990-05-17 02:00,ZBYN 170200Z AUTO 19004KT 7SM 13/07 A2997 RMK T01300070 IEM_DS3505
ZBYN,1990-05-17 03:00,ZBYN 170300Z AUTO 18010KT 7SM 15/08 A2995 RMK SLP136 T01480079 57010 IEM_DS3505
ZBYN,1990-05-17 04:00,ZBYN 170400Z AUTO 20010KT 6SM 15/08 A2994 RMK T01500080 IEM_DS3505
ZBYN,1990-05-17 05:00,ZBYN 170500Z AUTO 20012KT 7SM 15/08 A2991 RMK T01500080 IEM_DS3505
ZBYN,1990-05-17 06:00,ZBYN 170600Z AUTO 16006KT 7SM 16/09 A2988 RMK SLP110 T01550088 4////0089 57024 IEM_DS3505
ZBYN,1990-05-17 07:00,ZBYN 170700Z AUTO 21008KT 7SM 17/09 A2985 RMK T01700090 IEM_DS3505
ZBYN,1990-05-17 08:00,ZBYN 170800Z AUTO 17010KT 7SM 16/09 A2983 RMK T01600090 IEM_DS3505
ZBYN,1990-05-17 09:00,ZBYN 170900Z AUTO 20006KT 6SM 16/09 A2983 RMK SLP093 T01590088 57015 IEM_DS3505
ZBYN,1990-05-17 10:00,ZBYN 171000Z AUTO 21006KT 6SM 15/09 A2980 RMK T01500090 IEM_DS3505
ZBYN,1990-05-17 12:00,ZBYN 171200Z AUTO 16004KT 12SM 13/08 A2980 RMK SLP082 T01320084 57010 IEM_DS3505
ZBYN,1990-05-17 13:00,ZBYN 171300Z AUTO 12006KT 6SM 12/09 A2983 RMK T01200090 IEM_DS3505
ZBYN,1990-05-17 14:00,ZBYN 171400Z AUTO 09006KT 6SM 12/09 A2980 RMK T01200090 IEM_DS3505
ZBYN,1990-05-17 15:00,ZBYN 171500Z AUTO 14004KT 9SM 11/09 A2980 RMK SLP078 T01140089 57003 IEM_DS3505
ZBYN,1990-05-17 16:00,ZBYN 171600Z AUTO 11006KT 6SM 11/10 A2980 RMK T01100100 IEM_DS3505
ZBYN,1990-05-17 17:00,ZBYN 171700Z AUTO 15006KT 6SM 11/09 A2977 RMK T01100090 IEM_DS3505
ZBYN,1990-05-17 18:00,ZBYN 171800Z AUTO 00000KT 9SM 10/09 A2977 RMK SLP065 T01020092 40170//// 57012 IEM_DS3505
ZBYN,1990-05-17 19:00,ZBYN 171900Z AUTO 00000KT 6SM 10/09 A2974 RMK T01000090 IEM_DS3505
ZBYN,1990-05-17 20:00,ZBYN 172000Z AUTO 00000KT 7SM 10/09 A2974 RMK T01000090 IEM_DS3505
ZBYN,1990-05-17 21:00,ZBYN 172100Z AUTO 00000KT 4SM 10/10 A2971 RMK SLP058 T01040098 57006 IEM_DS3505
ZBYN,1990-05-17 22:00,ZBYN 172200Z AUTO 04006KT 2 1/2SM 10/10 A2971 RMK T01000100 IEM_DS3505
ZBYN,1990-05-17 23:00,ZBYN 172300Z AUTO 30002KT 3SM 11/10 A2971 RMK T01100100 IEM_DS3505
ZBYN,1990-05-18 00:00,ZBYN 180000Z AUTO 20002KT 5SM 12/10 A2971 RMK 60004 SLP049 T01170104 57010 IEM_DS3505
ZBYN,1990-05-18 01:00,ZBYN 180100Z AUTO 24006KT 6SM 15/11 A2968 RMK T01500110 IEM_DS3505
ZBYN,1990-05-18 02:00,ZBYN 180200Z AUTO 22006KT 6SM 17/12 A2968 RMK T01700120 IEM_DS3505
ZBYN,1990-05-18 03:00,ZBYN 180300Z AUTO 18006KT 6SM 19/13 A2968 RMK SLP030 T01870126 57010 IEM_DS3505
ZBYN,1990-05-18 04:00,ZBYN 180400Z AUTO 17008KT 6SM 21/12 A2965 RMK T02100120 IEM_DS3505
ZBYN,1990-05-18 06:00,ZBYN 180600Z AUTO 18004KT 6SM 24/13 A2959 RMK SLP994 T02390132 4////0094 57027 IEM_DS3505
ZBYN,1990-05-18 09:00,ZBYN 180900Z AUTO 18010KT 9SM 24/14 A2953 RMK SLP977 T02440144 57015 IEM_DS3505
ZBYN,1990-05-18 10:00,ZBYN 181000Z AUTO 17006KT 7SM 25/13 A2953 RMK T02500130 IEM_DS3505
ZBYN,1990-05-18 11:00,ZBYN 181100Z AUTO 00000KT 6SM 21/15 A2953 RMK SLP996 T02060154 52014 IEM_DS3505
ZBYN,1990-05-18 12:00,ZBYN 181200Z AUTO 00000KT 6SM 21/15 A2956 RMK SLP996 T02060154 52014 IEM_DS3505
ZBYN,1990-05-18 13:00,ZBYN 181300Z AUTO 00000KT 6SM 21/15 A2959 RMK T02100150 IEM_DS3505
ZBYN,1990-05-18 14:00,ZBYN 181400Z AUTO 31019KT 6SM 22/08 A2965 RMK T02200080 IEM_DS3505
ZBYN,1990-05-18 15:00,ZBYN 181500Z AUTO 36006KT 6SM 20/09 A2968 RMK SLP022 T02020090 52033 IEM_DS3505
ZBYN,1990-05-18 16:00,ZBYN 181600Z AUTO 36008KT 6SM 20/09 A2968 RMK T02000090 IEM_DS3505
ZBYN,1990-05-18 17:00,ZBYN 181700Z AUTO 32006KT 6SM 19/10 A2971 RMK T01900100 IEM_DS3505
ZBYN,1990-05-18 18:00,ZBYN 181800Z AUTO 00000KT 7SM 19/09 A2974 RMK SLP037 T01920092 40250//// 52020 IEM_DS3505
ZBYN,1990-05-18 19:00,ZBYN 181900Z AUTO 00000KT 6SM 18/10 A2977 RMK T01800100 IEM_DS3505
ZBYN,1990-05-18 20:00,ZBYN 182000Z AUTO 32010KT 6SM 18/09 A2977 RMK T01800090 IEM_DS3505
ZBYN,1990-05-18 21:00,ZBYN 182100Z AUTO 29008KT 9SM 18/04 A2977 RMK SLP040 T01840041 52002 IEM_DS3505
ZBYN,1990-05-18 22:00,ZBYN 182200Z AUTO 32006KT 6SM 16/07 A2980 RMK T01600070 IEM_DS3505
ZBYN,1990-05-18 23:00,ZBYN 182300Z AUTO 36010KT 6SM 17/04 RMK T01700040 IEM_DS3505
ZBYN,1990-05-19 00:00,ZBYN 190000Z AUTO 34006KT 9SM 17/05 A2983 RMK SLP072 T01730052 52023 IEM_DS3505
ZBYN,1990-05-19 01:00,ZBYN 190100Z AUTO 36014KT 6SM 19/00 A2985 RMK T01900000 IEM_DS3505
ZBYN,1990-05-19 02:00,ZBYN 190200Z AUTO 36010KT 6SM 21/02 A2985 RMK T02100020 IEM_DS3505
ZBYN,1990-05-19 03:00,ZBYN 190300Z AUTO 32010KT 6SM 22/02 A2985 RMK SLP070 T02210015 57002 IEM_DS3505
ZBYN,1990-05-19 04:00,ZBYN 190400Z AUTO 33012KT 6SM 24/01 A2985 RMK T02400010 IEM_DS3505
ZBYN,1990-05-19 05:00,ZBYN 190500Z AUTO 31021KT 6SM 22/M04 A2985 RMK T02201040 IEM_DS3505
ZBYN,1990-05-19 06:00,ZBYN 190600Z AUTO 29016KT 9SM 22/M02 A2984 RMK SLP070 T02241020 4////0164 57001 IEM_DS3505
ZBYN,1990-05-19 07:00,ZBYN 190700Z AUTO 31010KT 7SM 22/M02 A2985 RMK T02201020 IEM_DS3505
ZBYN,1990-05-19 08:00,ZBYN 190800Z AUTO 33019KT 7SM 23/M05 A2985 RMK T02301050 IEM_DS3505
ZBYN,1990-05-19 09:00,ZBYN 190900Z AUTO 29006KT 12SM 22/M05 A2985 RMK SLP075 T02201048 52003 IEM_DS3505
ZBYN,1990-05-19 10:00,ZBYN 191000Z AUTO 32012KT 7SM 22/M06 A2988 RMK T02201060 IEM_DS3505
ZBYN,1990-05-19 11:00,ZBYN 191100Z AUTO 34014KT 7SM 20/M07 A2991 RMK T02001070 IEM_DS3505
ZBYN,1990-05-19 12:00,ZBYN 191200Z AUTO 32002KT 16SM 19/M03 A2994 RMK SLP108 T01891028 52024 IEM_DS3505
ZBYN,1990-05-19 13:00,ZBYN 191300Z AUTO 00000KT 7SM 15/01 A2997 RMK T01500010 IEM_DS3505
ZBYN,1990-05-19 14:00,ZBYN 191400Z AUTO 31002KT 7SM 14/01 A2997 RMK T01400010 IEM_DS3505
ZBYN,1990-05-19 15:00,ZBYN 191500Z AUTO 00000KT 9SM 12/02 A3000 RMK SLP130 T01230021 52018 IEM_DS3505
ZBYN,1990-05-19 16:00,ZBYN 191600Z AUTO 36006KT 7SM 09/02 A3003 RMK T00900020 IEM_DS3505
ZBYN,1990-05-19 17:00,ZBYN 191700Z AUTO 00000KT 7SM 10/00 A3003 RMK T01000000 IEM_DS3505
ZBYN,1990-05-19 18:00,ZBYN 191800Z AUTO 36002KT 9SM 12/00 A3003 RMK SLP142 T01250000 40235//// 52011 IEM_DS3505
ZBYN,1990-05-19 21:00,ZBYN 192100Z AUTO 34002KT 9SM 10/01 A3003 RMK SLP154 T00980007 52007 IEM_DS3505
ZBYN,1990-05-19 22:00,ZBYN 192200Z AUTO 00000KT 6SM 07/02 A3006 RMK T00700020 IEM_DS3505
ZBYN,1990-05-19 23:00,ZBYN 192300Z AUTO 00000KT 6SM 09/01 A3009 RMK T00900010 IEM_DS3505
ZBYN,1990-05-20 00:00,ZBYN 200000Z AUTO 14002KT 6SM 13/03 A3012 RMK SLP175 T01320034 52019 IEM_DS3505
ZBYN,1990-05-20 01:00,ZBYN 200100Z AUTO 00000KT 7SM 16/03 A3012 RMK T01600030 IEM_DS3505
ZBYN,1990-05-20 02:00,ZBYN 200200Z AUTO 33006KT 7SM 18/01 A3009 RMK T01800010 IEM_DS3505
ZBYN,1990-05-20 03:00,ZBYN 200300Z AUTO 22010KT 7SM 20/M01 A3006 RMK T02001010 IEM_DS3505
ZBYN,1990-05-20 04:00,ZBYN 200400Z AUTO 26010KT 7SM 21/00 A3003 RMK T02100000 IEM_DS3505
ZBYN,1990-05-20 05:00,ZBYN 200500Z AUTO 26006KT 6SM 22/00 RMK T02200000 IEM_DS3505
ZBYN,1990-05-20 06:00,ZBYN 200600Z AUTO 32004KT 12SM 24/M02 A2997 RMK SLP124 T02421021 4////0072 57028 IEM_DS3505
ZBYN,1990-05-20 07:00,ZBYN 200700Z AUTO 27006KT 6SM 25/M04 A2994 RMK T02501040 IEM_DS3505
ZBYN,1990-05-20 08:00,ZBYN 200800Z AUTO 33010KT 6SM 25/M05 A2994 RMK T02501050 IEM_DS3505
ZBYN,1990-05-20 09:00,ZBYN 200900Z AUTO 36004KT 12SM 24/M04 A2994 RMK SLP111 T02451041 57015 IEM_DS3505
ZBYN,1990-05-20 10:00,ZBYN 201000Z AUTO 32010KT 6SM 23/M07 A2994 RMK T02301070 IEM_DS3505
ZBYN,1990-05-20 11:00,ZBYN 201100Z AUTO 30006KT 6SM 21/M02 A2994 RMK T02101020 IEM_DS3505
ZBYN,1990-05-20 12:00,ZBYN 201200Z AUTO 32004KT 12SM 19/02 A2996 RMK SLP126 T01930019 52011 IEM_DS3505
ZBYN,1990-05-20 13:00,ZBYN 201300Z AUTO 00000KT 6SM 17/04 A2997 RMK T01700040 IEM_DS3505
ZBYN,1990-05-20 14:00,ZBYN 201400Z AUTO 01006KT 6SM 17/M03 A3000 RMK T01701030 IEM_DS3505
ZBYN,1990-05-20 15:00,ZBYN 201500Z AUTO 34004KT 9SM 16/00 A3003 RMK SLP145 T01600001 52023 IEM_DS3505
ZBYN,1990-05-20 16:00,ZBYN 201600Z AUTO 33008KT 7SM 14/M03 A3003 RMK T01401030 IEM_DS3505
ZBYN,1990-05-20 17:00,ZBYN 201700Z AUTO 33008KT 7SM 14/M03 A3003 RMK T01401030 IEM_DS3505
ZBYN,1990-05-20 18:00,ZBYN 201800Z AUTO 34002KT 9SM 12/00 A3006 RMK SLP157 T01240005 40250//// 52011 IEM_DS3505
ZBYN,1990-05-20 19:00,ZBYN 201900Z AUTO 32008KT 7SM 10/M01 A3006 RMK T01001010 IEM_DS3505
ZBYN,1990-05-20 20:00,ZBYN 202000Z AUTO 32006KT 7SM 08/01 A3009 RMK T00800010 IEM_DS3505
ZBYN,1990-05-20 21:00,ZBYN 202100Z AUTO 36002KT 6SM 12/M03 A3012 RMK SLP175 T01181026 52016 IEM_DS3505
ZBYN,1990-05-20 22:00,ZBYN 202200Z AUTO 03004KT 6SM 07/01 A3012 RMK T00700010 IEM_DS3505
ZBYN,1990-05-20 23:00,ZBYN 202300Z AUTO 00000KT 6SM 12/01 A3012 RMK T01200010 IEM_DS3505
ZBYN,1990-05-21 00:00,ZBYN 210000Z AUTO 32002KT 6SM 14/02 A3015 RMK SLP190 T01380022 52009 IEM_DS3505
ZBYN,1990-05-21 01:00,ZBYN 210100Z AUTO 03012KT 6SM 18/M07 A3015 RMK T01801070 IEM_DS3505
ZBYN,1990-05-21 03:00,ZBYN 210300Z AUTO 02006KT 9SM 20/M04 A3015 RMK SLP183 T02001035 57002 IEM_DS3505
ZBYN,1990-05-21 04:00,ZBYN 210400Z AUTO 36017KT 6SM 21/M06 A3015 RMK T02101060 IEM_DS3505
ZBYN,1990-05-21 05:00,ZBYN 210500Z AUTO 03017KT 6SM 22/M06 A3012 RMK T02201060 IEM_DS3505
ZBYN,1990-05-21 06:00,ZBYN 210600Z AUTO 12008KT 6SM 22/M06 A3009 RMK SLP162 T02241065 4////0096 IEM_DS3505
ZBYN,1990-05-21 07:00,ZBYN 210700Z AUTO 03016KT 6SM 23/M06 A3006 RMK T02301060 IEM_DS3505
ZBYN,1990-05-21 09:00,ZBYN 210900Z AUTO 36006KT 9SM 22/M06 A3003 RMK SLP142 T02211057 57019 IEM_DS3505
ZBYN,1990-05-21 11:00,ZBYN 211100Z AUTO 02008KT 6SM 20/M04 A3003 RMK T02001040 IEM_DS3505
ZBYN,1990-05-21 12:00,ZBYN 211200Z AUTO 34004KT 9SM 20/M02 A3006 RMK SLP158 T01961018 52014 IEM_DS3505
ZBYN,1990-05-21 13:00,ZBYN 211300Z AUTO 00000KT 6SM 17/04 A3009 RMK T01700040 IEM_DS3505
ZBYN,1990-05-21 14:00,ZBYN 211400Z AUTO 09006KT 6SM 17/02 A3012 RMK T01700020 IEM_DS3505
ZBYN,1990-05-21 15:00,ZBYN 211500Z AUTO 00000KT 9SM 14/04 A3012 RMK SLP172 T01440037 52014 IEM_DS3505
ZBYN,1990-05-21 16:00,ZBYN 211600Z AUTO 06004KT 7SM 16/04 A3012 RMK T01600040 IEM_DS3505
ZBYN,1990-05-21 17:00,ZBYN 211700Z AUTO 04008KT 7SM 14/04 A3012 RMK T01400040 IEM_DS3505
ZBYN,1990-05-21 18:00,ZBYN 211800Z AUTO 32004KT 9SM 14/03 A3012 RMK SLP169 T01400031 40228//// 54000 IEM_DS3505
ZBYN,1990-05-21 19:00,ZBYN 211900Z AUTO 00000KT 7SM 12/04 A3009 RMK T01200040 IEM_DS3505
ZBYN,1990-05-21 20:00,ZBYN 212000Z AUTO 00000KT 6SM 10/05 A3009 RMK T01000050 IEM_DS3505
ZBYN,1990-05-21 21:00,ZBYN 212100Z AUTO 36004KT 9SM 11/03 A3009 RMK SLP175 T01060026 54000 IEM_DS3505
ZBYN,1990-05-21 22:00,ZBYN 212200Z AUTO 00000KT 6SM 09/05 A3012 RMK T00900050 IEM_DS3505
ZBYN,1990-05-21 23:00,ZBYN 212300Z AUTO 00000KT 6SM 12/07 A3012 RMK T01200070 IEM_DS3505
ZBYN,1990-05-22 00:00,ZBYN 220000Z AUTO 34002KT 6SM 15/05 A3015 RMK SLP182 T01500048 52009 IEM_DS3505
ZBYN,1990-05-22 01:00,ZBYN 220100Z AUTO 00000KT 6SM 18/07 A3015 RMK T01800070 IEM_DS3505
ZBYN,1990-05-22 02:00,ZBYN 220200Z AUTO 12004KT 6SM 19/05 A3015 RMK T01900050 IEM_DS3505
ZBYN,1990-05-22 03:00,ZBYN 220300Z AUTO 00000KT 6SM 21/07 A3012 RMK SLP175 T02110073 57005 IEM_DS3505
ZBYN,1990-05-22 04:00,ZBYN 220400Z AUTO 22010KT 6SM 21/06 A3009 RMK T02100060 IEM_DS3505
ZBYN,1990-05-22 05:00,ZBYN 220500Z AUTO 19004KT 6SM 23/05 A3006 RMK T02300050 IEM_DS3505
ZBYN,1990-05-22 06:00,ZBYN 220600Z AUTO 20004KT 7SM 24/05 A3003 RMK SLP142 T02370049 4////0094 57027 IEM_DS3505
ZBYN,1990-05-22 07:00,ZBYN 220700Z AUTO 23006KT 6SM 24/02 A3000 RMK T02400020 IEM_DS3505
ZBYN,1990-05-22 08:00,ZBYN 220800Z AUTO 18006KT 6SM 24/02 A2997 RMK T02400020 IEM_DS3505
ZBYN,1990-05-22 09:00,ZBYN 220900Z AUTO 18008KT 7SM 24/06 A2994 RMK SLP124 T02390061 57021 IEM_DS3505
ZBYN,1990-05-22 11:00,ZBYN 221100Z AUTO 22008KT 6SM 22/05 A2994 RMK T02200050 IEM_DS3505
ZBYN,1990-05-22 12:00,ZBYN 221200Z AUTO 20010KT 6SM 20/08 A2994 RMK SLP116 T02000084 57006 IEM_DS3505
ZBYN,1990-05-22 15:00,ZBYN 221500Z AUTO 11004KT 6SM 15/08 A2998 RMK SLP128 T01540084 52013 IEM_DS3505
ZBYN,1990-05-22 18:00,ZBYN 221800Z AUTO 16006KT 7SM 12/08 A3002 RMK SLP143 T01190076 40242//// 52012 IEM_DS3505
ZBYN,1990-05-22 21:00,ZBYN 222100Z AUTO 00000KT 6SM 09/07 A3005 RMK SLP157 T00920074 52009 IEM_DS3505
ZBYN,1990-05-22 23:00,ZBYN 222300Z AUTO 00000KT 6SM 13/08 A3012 RMK T01300080 IEM_DS3505
ZBYN,1990-05-23 00:00,ZBYN 230000Z AUTO 00000KT 5SM 14/09 A3012 RMK SLP180 T01440087 52023 IEM_DS3505
ZBYN,1990-05-23 01:00,ZBYN 230100Z AUTO 00000KT 6SM 17/09 A3015 RMK T01700090 IEM_DS3505
ZBYN,1990-05-23 02:00,ZBYN 230200Z AUTO 00000KT 6SM 19/09 A3012 RMK T01900090 IEM_DS3505
ZBYN,1990-05-23 03:00,ZBYN 230300Z AUTO 36004KT 9SM 22/06 A3011 RMK SLP170 T02220058 57004 IEM_DS3505
ZBYN,1990-05-23 04:00,ZBYN 230400Z AUTO 36004KT 6SM 24/02 A3012 RMK T02400020 IEM_DS3505
ZBYN,1990-05-23 06:00,ZBYN 230600Z AUTO 04004KT 11SM 25/M00 A3005 RMK SLP152 T02471002 4////0083 57018 IEM_DS3505
ZBYN,1990-05-23 07:00,ZBYN 230700Z AUTO 13006KT 7SM 25/04 A3006 RMK T02500040 IEM_DS3505
ZBYN,1990-05-23 08:00,ZBYN 230800Z AUTO 02006KT 7SM 24/03 A3003 RMK T02400030 IEM_DS3505
ZBYN,1990-05-23 09:00,ZBYN 230900Z AUTO 02004KT 12SM 25/01 A3003 RMK SLP148 T02510014 57007 IEM_DS3505
ZBYN,1990-05-23 10:00,ZBYN 231000Z AUTO 10004KT 7SM 23/03 A3003 RMK T02300030 IEM_DS3505
ZBYN,1990-05-23 11:00,ZBYN 231100Z AUTO 09006KT 7SM 20/06 A3009 RMK T02000060 IEM_DS3505
ZBYN,1990-05-23 12:00,ZBYN 231200Z AUTO 07004KT 11SM 21/04 A3009 RMK SLP173 T02070045 52024 IEM_DS3505
ZBYN,1990-05-23 14:00,ZBYN 231400Z AUTO 06010KT 7SM 18/06 A3015 RMK T01800060 IEM_DS3505
ZBYN,1990-05-23 15:00,ZBYN 231500Z AUTO 00000KT 9SM 17/07 A3015 RMK SLP187 T01730069 52019 IEM_DS3505
ZBYN,1990-05-23 16:00,ZBYN 231600Z AUTO 08004KT 7SM 16/06 A3018 RMK T01600060 IEM_DS3505
ZBYN,1990-05-23 17:00,ZBYN 231700Z AUTO 07008KT 7SM 15/06 A3018 RMK T01500060 IEM_DS3505
ZBYN,1990-05-23 18:00,ZBYN 231800Z AUTO 34004KT 9SM 14/05 A3018 RMK SLP189 T01400047 40259//// 52001 IEM_DS3505
ZBYN,1990-05-23 19:00,ZBYN 231900Z AUTO 22004KT 7SM 13/05 A3018 RMK T01300050 IEM_DS3505
ZBYN,1990-05-23 20:00,ZBYN 232000Z AUTO 00000KT 7SM 10/06 A3018 RMK T01000060 IEM_DS3505
ZBYN,1990-05-23 21:00,ZBYN 232100Z AUTO 00000KT 9SM 09/06 A3015 RMK SLP194 T00910062 57002 IEM_DS3505
ZBYN,1990-05-23 22:00,ZBYN 232200Z AUTO 00000KT 7SM 09/06 A3018 RMK T00900060 IEM_DS3505
ZBYN,1990-05-23 23:00,ZBYN 232300Z AUTO 00000KT 7SM 14/08 A3021 RMK T01400080 IEM_DS3505
ZBYN,1990-05-24 00:00,ZBYN 240000Z AUTO 36002KT 5SM 15/07 A3018 RMK SLP197 T01510071 52005 IEM_DS3505
ZBYN,1990-05-24 01:00,ZBYN 240100Z AUTO 00000KT 7SM 17/09 A3018 RMK T01700090 IEM_DS3505
ZBYN,1990-05-24 02:00,ZBYN 240200Z AUTO 20006KT 7SM 20/10 A3015 RMK T02000100 IEM_DS3505
ZBYN,1990-05-24 03:00,ZBYN 240300Z AUTO 18012KT 6SM 22/11 A3013 RMK SLP177 T02180106 57014 IEM_DS3505
ZBYN,1990-05-24 04:00,ZBYN 240400Z AUTO 20012KT 7SM 23/10 A3012 RMK T02300100 IEM_DS3505
ZBYN,1990-05-24 05:00,ZBYN 240500Z AUTO 20008KT 6SM 27/06 A3006 RMK SLP114 T02730062 57029 IEM_DS3505
ZBYN,1990-05-24 06:00,ZBYN 240600Z AUTO 20012KT 7SM 25/09 A3003 RMK SLP142 T02520087 4////0087 57032 IEM_DS3505
ZBYN,1990-05-24 07:00,ZBYN 240700Z AUTO 23014KT 7SM 27/08 A3000 RMK T02700080 IEM_DS3505
ZBYN,1990-05-24 08:00,ZBYN 240800Z AUTO 22017KT 7SM 28/07 A2997 RMK T02800070 IEM_DS3505
ZBYN,1990-05-24 09:00,ZBYN 240900Z AUTO 20008KT 6SM 27/06 A2994 RMK SLP114 T02730062 57029 IEM_DS3505
ZBYN,1990-05-24 10:00,ZBYN 241000Z AUTO 22016KT 7SM 27/05 A2994 RMK T02700050 IEM_DS3505
ZBYN,1990-05-24 11:00,ZBYN 241100Z AUTO 23014KT 7SM 25/07 A2991 RMK T02500070 IEM_DS3505
ZBYN,1990-05-24 12:00,ZBYN 241200Z AUTO 20008KT 7SM 23/08 A2994 RMK SLP108 T02310078 57003 IEM_DS3505
ZBYN,1990-05-24 13:00,ZBYN 241300Z AUTO 22017KT 7SM 22/08 A2994 RMK T02200080 IEM_DS3505
ZBYN,1990-05-24 14:00,ZBYN 241400Z AUTO 21014KT 7SM 21/08 A2994 RMK T02100080 IEM_DS3505
ZBYN,1990-05-24 15:00,ZBYN 241500Z AUTO 20008KT 7SM 21/06 A2994 RMK SLP106 T02060058 52004 IEM_DS3505
ZBYN,1990-05-24 16:00,ZBYN 241600Z AUTO 10006KT 7SM 19/10 A2994 RMK T01900100 IEM_DS3505
ZBYN,1990-05-24 17:00,ZBYN 241700Z AUTO 17012KT 7SM 19/10 A2994 RMK T01900100 IEM_DS3505
ZBYN,1990-05-24 18:00,ZBYN 241800Z AUTO 16006KT 7SM 17/09 A2994 RMK SLP105 T01690094 40275//// 57001 IEM_DS3505
ZBYN,1990-05-24 19:00,ZBYN 241900Z AUTO 13008KT 7SM 17/10 A2994 RMK T01700100 IEM_DS3505
ZBYN,1990-05-24 20:00,ZBYN 242000Z AUTO 11008KT 7SM 16/10 A2994 RMK T01600100 IEM_DS3505
ZBYN,1990-05-24 21:00,ZBYN 242100Z AUTO 11008KT 7SM 15/09 A2991 RMK SLP099 T01510091 57005 IEM_DS3505
ZBYN,1990-05-24 22:00,ZBYN 242200Z AUTO 12008KT 6SM 15/10 A2991 RMK T01500100 IEM_DS3505
ZBYN,1990-05-25 00:00,ZBYN 250000Z AUTO 14006KT 7SM 17/10 A2991 RMK SLP097 T01700103 57005 IEM_DS3505
ZBYN,1990-05-25 01:00,ZBYN 250100Z AUTO 18010KT 6SM 20/11 A2988 RMK T02000110 IEM_DS3505
ZBYN,1990-05-25 02:00,ZBYN 250200Z AUTO 17008KT 6SM 21/12 RMK T02100120 IEM_DS3505
ZBYN,1990-05-25 03:00,ZBYN 250300Z AUTO 18014KT 7SM 24/11 A2985 RMK SLP074 T02360106 57016 IEM_DS3505
ZBYN,1990-05-25 04:00,ZBYN 250400Z AUTO 22016KT 7SM 25/10 A2983 RMK T02500100 IEM_DS3505
ZBYN,1990-05-25 05:00,ZBYN 250500Z AUTO 23016KT 7SM 27/09 A2977 RMK T02700090 IEM_DS3505
ZBYN,1990-05-25 06:00,ZBYN 250600Z AUTO 22012KT 7SM 27/09 A2977 RMK SLP039 T02700093 4////0139 57032 IEM_DS3505
ZBYN,1990-05-25 07:00,ZBYN 250700Z AUTO 24017KT 7SM 28/09 A2974 RMK T02800090 IEM_DS3505
ZBYN,1990-05-25 08:00,ZBYN 250800Z AUTO 24023KT 7SM 29/08 A2968 RMK T02900080 IEM_DS3505
ZBYN,1990-05-25 09:00,ZBYN 250900Z AUTO 20014KT 7SM 28/10 A2968 RMK SLP019 T02790097 57020 IEM_DS3505
ZBYN,1990-05-25 10:00,ZBYN 251000Z AUTO 23016KT 7SM 27/10 A2968 RMK T02700100 IEM_DS3505
ZBYN,1990-05-25 11:00,ZBYN 251100Z AUTO 23017KT 7SM 26/11 A2971 RMK T02600110 IEM_DS3505
ZBYN,1990-05-25 12:00,ZBYN 251200Z AUTO 22006KT 6SM 25/11 A2974 RMK SLP026 T02540107 52006 IEM_DS3505
ZBYN,1990-05-25 13:00,ZBYN 251300Z AUTO 24021KT 6SM 24/11 A2977 RMK T02400110 IEM_DS3505
ZBYN,1990-05-25 14:00,ZBYN 251400Z AUTO 24014KT 6SM 23/10 A2980 RMK T02300100 IEM_DS3505
ZBYN,1990-05-25 15:00,ZBYN 251500Z AUTO 27004KT 6SM 21/11 A2983 RMK SLP057 T02110112 52031 IEM_DS3505
ZBYN,1990-05-25 16:00,ZBYN 251600Z AUTO 30010KT 7SM 20/09 A2988 RMK T02000090 IEM_DS3505
ZBYN,1990-05-25 17:00,ZBYN 251700Z AUTO 01006KT 7SM 19/10 A2985 RMK T01900100 IEM_DS3505
ZBYN,1990-05-25 18:00,ZBYN 251800Z AUTO 36008KT 6SM 20/03 A2988 RMK SLP068 T02050028 40286//// 52014 IEM_DS3505
ZBYN,1990-05-25 19:00,ZBYN 251900Z AUTO 35012KT 7SM 18/01 A2985 RMK T01800010 IEM_DS3505
ZBYN,1990-05-25 20:00,ZBYN 252000Z AUTO 35016KT 7SM 17/M04 A2988 RMK T01701040 IEM_DS3505
ZBYN,1990-05-25 21:00,ZBYN 252100Z AUTO 36008KT 9SM 17/M01 A2988 RMK SLP089 T01671010 52016 IEM_DS3505
ZBYN,1990-05-25 23:00,ZBYN 252300Z AUTO 35004KT 7SM 17/04 A2994 RMK T01700040 IEM_DS3505
ZBYN,1990-05-26 00:00,ZBYN 260000Z AUTO 36004KT 9SM 18/00 A2994 RMK SLP112 T01750004 52018 IEM_DS3505
ZBYN,1990-05-26 01:00,ZBYN 260100Z AUTO 36008KT 7SM 20/M01 A2997 RMK T02001010 IEM_DS3505
ZBYN,1990-05-26 02:00,ZBYN 260200Z AUTO 34010KT 7SM 23/01 A2997 RMK T02300010 IEM_DS3505
ZBYN,1990-05-26 03:00,ZBYN 260300Z AUTO 34004KT 9SM 23/02 A2997 RMK SLP113 T02270019 52002 IEM_DS3505
ZBYN,1990-05-26 04:00,ZBYN 260400Z AUTO 00000KT 7SM 24/05 A2994 RMK T02400050 IEM_DS3505
ZBYN,1990-05-26 05:00,ZBYN 260500Z AUTO 17004KT 7SM 25/03 A2994 RMK T02500030 IEM_DS3505
ZBYN,1990-05-26 06:00,ZBYN 260600Z AUTO 14006KT 9SM 26/04 A2989 RMK SLP082 T02570040 4////0156 57025 IEM_DS3505
ZBYN,1990-05-26 08:00,ZBYN 260800Z AUTO 20010KT 7SM 28/07 A2985 RMK T02800070 IEM_DS3505
ZBYN,1990-05-26 09:00,ZBYN 260900Z AUTO 20006KT 7SM 27/06 A2983 RMK SLP062 T02730060 57021 IEM_DS3505
ZBYN,1990-05-26 11:00,ZBYN 261100Z AUTO 00000KT 6SM 26/08 A2980 RMK T02600080 IEM_DS3505
ZBYN,1990-05-26 12:00,ZBYN 261200Z AUTO 14004KT 7SM 21/11 A2980 RMK SLP070 T02110108 54000 IEM_DS3505
ZBYN,1990-05-26 13:00,ZBYN 261300Z AUTO 09004KT 6SM 21/09 A2983 RMK T02100090 IEM_DS3505
ZBYN,1990-05-26 15:00,ZBYN 261500Z AUTO 00000KT 7SM 20/08 A2985 RMK SLP083 T02000080 52017 IEM_DS3505
ZBYN,1990-05-26 16:00,ZBYN 261600Z AUTO 09010KT 7SM 19/10 A2988 RMK T01900100 IEM_DS3505
ZBYN,1990-05-26 17:00,ZBYN 261700Z AUTO 00000KT 7SM 19/10 A2988 RMK T01900100 IEM_DS3505
ZBYN,1990-05-26 18:00,ZBYN 261800Z AUTO 00000KT 7SM 14/11 A2988 RMK SLP093 T01440106 40275//// 52006 IEM_DS3505
ZBYN,1990-05-26 19:00,ZBYN 261900Z AUTO 27004KT 7SM 15/09 A2988 RMK T01500090 IEM_DS3505
ZBYN,1990-05-26 20:00,ZBYN 262000Z AUTO 00000KT 7SM 13/09 A2988 RMK T01300090 IEM_DS3505
ZBYN,1990-05-26 21:00,ZBYN 262100Z AUTO 00000KT 6SM 13/10 A2991 RMK SLP096 T01280104 52003 IEM_DS3505
ZBYN,1990-05-26 22:00,ZBYN 262200Z AUTO 00000KT 6SM 13/10 A2994 RMK T01300100 IEM_DS3505
ZBYN,1990-05-26 23:00,ZBYN 262300Z AUTO 12012KT 7SM 15/11 A2991 RMK T01500110 IEM_DS3505
ZBYN,1990-05-27 00:00,ZBYN 270000Z AUTO 36002KT 6SM 16/11 A2991 RMK SLP110 T01620108 52008 IEM_DS3505
ZBYN,1990-05-27 01:00,ZBYN 270100Z AUTO 35004KT 6SM 19/13 A2991 RMK T01900130 IEM_DS3505
ZBYN,1990-05-27 02:00,ZBYN 270200Z AUTO 18006KT 6SM 22/12 A2991 RMK T02200120 IEM_DS3505
ZBYN,1990-05-27 03:00,ZBYN 270300Z AUTO 16004KT 7SM 24/13 A2991 RMK SLP096 T02440130 57002 IEM_DS3505
ZBYN,1990-05-27 04:00,ZBYN 270400Z AUTO 00000KT 7SM 27/12 A2991 RMK T02700120 IEM_DS3505
ZBYN,1990-05-27 06:00,ZBYN 270600Z AUTO 16006KT 7SM 30/14 A2985 RMK SLP076 T03030143 4////0110 57018 IEM_DS3505
ZBYN,1990-05-27 07:00,ZBYN 270700Z AUTO 00000KT 7SM 32/08 A2983 RMK T03200080 IEM_DS3505
ZBYN,1990-05-27 08:00,ZBYN 270800Z AUTO 19002KT 7SM 32/07 A2983 RMK T03200070 IEM_DS3505
ZBYN,1990-05-27 09:00,ZBYN 270900Z AUTO 18006KT 7SM 31/09 A2980 RMK SLP053 T03090087 57023 IEM_DS3505
ZBYN,1990-05-27 10:00,ZBYN 271000Z AUTO 20004KT 7SM 31/09 A2980 RMK T03100090 IEM_DS3505
ZBYN,1990-05-27 11:00,ZBYN 271100Z AUTO 13006KT 6SM 29/13 A2980 RMK T02900130 IEM_DS3505
ZBYN,1990-05-27 12:00,ZBYN 271200Z AUTO 11004KT 9SM 25/12 A2983 RMK SLP064 T02500121 52007 IEM_DS3505
ZBYN,1990-05-27 13:00,ZBYN 271300Z AUTO 07012KT 7SM 26/10 A2985 RMK T02600100 IEM_DS3505
ZBYN,1990-05-27 14:00,ZBYN 271400Z AUTO 09014KT 7SM 25/11 A2988 RMK T02500110 IEM_DS3505
ZBYN,1990-05-27 15:00,ZBYN 271500Z AUTO 11006KT 9SM 22/13 A2983 RMK SLP075 T02250130 52018 IEM_DS3505
ZBYN,1990-05-27 16:00,ZBYN 271600Z AUTO 11006KT 6SM 22/13 A2980 RMK T02200130 IEM_DS3505
ZBYN,1990-05-27 17:00,ZBYN 271700Z AUTO 00000KT 6SM 22/14 A2988 RMK T02200140 IEM_DS3505
ZBYN,1990-05-27 18:00,ZBYN 271800Z AUTO 16004KT 9SM 19/13 A2993 RMK SLP090 T01900133 40319//// 52017 IEM_DS3505
ZBYN,1990-05-27 19:00,ZBYN 271900Z AUTO 09006KT 6SM 19/13 A2991 RMK T01900130 IEM_DS3505
ZBYN,1990-05-27 20:00,ZBYN 272000Z AUTO 00000KT 6SM 19/13 A2991 RMK T01900130 IEM_DS3505
ZBYN,1990-05-27 21:00,ZBYN 272100Z AUTO 16004KT 6SM 18/13 A2991 RMK SLP093 T01800130 52001 IEM_DS3505
ZBYN,1990-05-27 22:00,ZBYN 272200Z AUTO 09006KT 6SM 18/13 A2994 RMK T01800130 IEM_DS3505
ZBYN,1990-05-27 23:00,ZBYN 272300Z AUTO 00000KT 7SM A2983 RMK IEM_DS3505
ZBYN,1990-05-28 00:00,ZBYN 280000Z AUTO 00000KT 6SM 22/15 A2994 RMK SLP100 T02200147 52005 IEM_DS3505
ZBYN,1990-05-28 02:00,ZBYN 280200Z AUTO 18004KT 6SM 23/16 A2994 RMK T02300160 IEM_DS3505
ZBYN,1990-05-28 03:00,ZBYN 280300Z AUTO 18004KT 6SM 25/15 A2994 RMK SLP097 T02460152 57003 IEM_DS3505
ZBYN,1990-05-28 04:00,ZBYN 280400Z AUTO 18006KT 6SM 26/16 A2994 RMK T02600160 IEM_DS3505
ZBYN,1990-05-28 05:00,ZBYN 280500Z AUTO 22008KT 6SM 26/12 A2991 RMK T02600120 IEM_DS3505
ZBYN,1990-05-28 06:00,ZBYN 280600Z AUTO 25004KT 6SM 26/14 A2991 RMK SLP093 T02560143 4////0163 57007 IEM_DS3505
ZBYN,1990-05-28 07:00,ZBYN 280700Z AUTO 23010KT 6SM 26/15 A2991 RMK T02600150 IEM_DS3505
ZBYN,1990-05-28 08:00,ZBYN 280800Z AUTO 31012KT 2SM 25/10 A2991 RMK T02500100 IEM_DS3505
ZBYN,1990-05-28 09:00,ZBYN 280900Z AUTO 32006KT 4SM 24/10 RMK SLP095 T02390101 57003 IEM_DS3505
ZBYN,1990-05-28 10:00,ZBYN 281000Z AUTO 31012KT 4SM 24/10 A2991 RMK T02400100 IEM_DS3505
ZBYN,1990-05-28 12:00,ZBYN 281200Z AUTO 00000KT 4SM 22/10 A2991 RMK SLP096 T02240099 52006 IEM_DS3505
ZBYN,1990-05-28 13:00,ZBYN 281300Z AUTO 00000KT 6SM 21/11 A2994 RMK T02100110 IEM_DS3505
ZBYN,1990-05-28 14:00,ZBYN 281400Z AUTO 00000KT 6SM 20/12 A2994 RMK T02000120 IEM_DS3505
ZBYN,1990-05-28 15:00,ZBYN 281500Z AUTO 00000KT 3SM 20/12 A2997 RMK SLP107 T02030115 52010 IEM_DS3505
ZBYN,1990-05-28 16:00,ZBYN 281600Z AUTO 00000KT 6SM 19/13 A2994 RMK T01900130 IEM_DS3505
ZBYN,1990-05-28 18:00,ZBYN 281800Z AUTO 00000KT 3SM 17/14 A2993 RMK 60000 SLP102 T01740137 40261//// 57007 IEM_DS3505
ZBYN,1990-05-28 19:00,ZBYN 281900Z AUTO 00000KT 6SM 18/13 A2994 RMK T01800130 IEM_DS3505
ZBYN,1990-05-28 20:00,ZBYN 282000Z AUTO 00000KT 6SM 18/13 A2994 RMK T01800130 IEM_DS3505
ZBYN,1990-05-28 21:00,ZBYN 282100Z AUTO 09002KT 4SM 15/13 A2988 RMK SLP093 T01540132 57013 IEM_DS3505
ZBYN,1990-05-28 22:00,ZBYN 282200Z AUTO 01004KT 6SM 16/12 A2991 RMK T01600120 IEM_DS3505
ZBYN,1990-05-28 23:00,ZBYN 282300Z AUTO 00000KT 6SM 16/13 A2991 RMK T01600130 IEM_DS3505
ZBYN,1990-05-29 00:00,ZBYN 290000Z AUTO 32002KT 6SM 20/11 A2991 RMK SLP095 T01960110 52005 IEM_DS3505
ZBYN,1990-05-29 01:00,ZBYN 290100Z AUTO 33010KT 4SM 21/11 A2991 RMK T02100110 IEM_DS3505
ZBYN,1990-05-29 02:00,ZBYN 290200Z AUTO 33004KT 5SM 23/11 A2991 RMK T02300110 IEM_DS3505
ZBYN,1990-05-29 03:00,ZBYN 290300Z AUTO 32006KT 5SM 25/10 A2988 RMK SLP081 T02480098 57008 IEM_DS3505
ZBYN,1990-05-29 04:00,ZBYN 290400Z AUTO 10006KT 6SM 26/09 A2985 RMK T02600090 IEM_DS3505
ZBYN,1990-05-29 05:00,ZBYN 290500Z AUTO 14004KT 7SM 27/09 A2985 RMK T02700090 IEM_DS3505
ZBYN,1990-05-29 06:00,ZBYN 290600Z AUTO 04004KT 6SM 28/07 A2980 RMK SLP055 T02810066 4////0150 57023 IEM_DS3505
ZBYN,1990-05-29 08:00,ZBYN 290800Z AUTO 17006KT 7SM 28/08 A2977 RMK T02800080 IEM_DS3505
ZBYN,1990-05-29 09:00,ZBYN 290900Z AUTO 16004KT 7SM 28/08 A2974 RMK SLP039 T02800080 57018 IEM_DS3505
ZBYN,1990-05-29 10:00,ZBYN 291000Z AUTO 12014KT 7SM 26/11 A2974 RMK T02600110 IEM_DS3505
ZBYN,1990-05-29 11:00,ZBYN 291100Z AUTO 10010KT 6SM 24/10 A2977 RMK T02400100 IEM_DS3505
ZBYN,1990-05-29 12:00,ZBYN 291200Z AUTO 09008KT 7SM 23/04 A2980 RMK SLP053 T02300038 52012 IEM_DS3505
ZBYN,1990-05-29 13:00,ZBYN 291300Z AUTO 10010KT 6SM 22/10 A2983 RMK T02200100 IEM_DS3505
ZBYN,1990-05-29 14:00,ZBYN 291400Z AUTO 10006KT 6SM 21/11 A2983 RMK T02100110 IEM_DS3505
ZBYN,1990-05-29 15:00,ZBYN 291500Z AUTO 09004KT 9SM 21/11 A2984 RMK SLP064 T02080111 52014 IEM_DS3505
ZBYN,1990-05-29 16:00,ZBYN 291600Z AUTO 06006KT 7SM 20/11 A2983 RMK T02000110 IEM_DS3505
ZBYN,1990-05-29 17:00,ZBYN 291700Z AUTO 05006KT 7SM 21/10 A2983 RMK T02100100 IEM_DS3505
ZBYN,1990-05-29 18:00,ZBYN 291800Z AUTO 32004KT 9SM 19/12 A2983 RMK SLP059 T01920118 40292//// 57002 IEM_DS3505
ZBYN,1990-05-29 19:00,ZBYN 291900Z AUTO 09006KT 7SM 19/13 A2980 RMK T01900130 IEM_DS3505
ZBYN,1990-05-29 20:00,ZBYN 292000Z AUTO 23006KT 7SM 17/14 A2983 RMK T01700140 IEM_DS3505
ZBYN,1990-05-29 21:00,ZBYN 292100Z AUTO 25004KT 9SM 15/14 A2983 RMK 70016 SLP070 T01530143 52004 IEM_DS3505
ZBYN,1990-05-29 22:00,ZBYN 292200Z AUTO 20004KT 4SM 15/14 A2983 RMK T01500140 IEM_DS3505
ZBYN,1990-05-29 23:00,ZBYN 292300Z AUTO 00000KT 4SM 15/15 A2985 RMK T01500150 IEM_DS3505
ZBYN,1990-05-30 00:00,ZBYN 300000Z AUTO 04006KT 6SM 16/13 A2986 RMK 60016 70016 SLP082 T01620129 52006 IEM_DS3505
ZBYN,1990-05-30 02:00,ZBYN 300200Z AUTO 00000KT 7SM RMK IEM_DS3505
ZBYN,1990-05-30 03:00,ZBYN 300300Z AUTO 34004KT 7SM 15/12 A2985 RMK SLP089 T01540117 52002 IEM_DS3505
ZBYN,1990-05-30 04:00,ZBYN 300400Z AUTO 00000KT 6SM 17/13 A2985 RMK T01700130 IEM_DS3505
ZBYN,1990-05-30 05:00,ZBYN 300500Z AUTO 00000KT 7SM 18/13 RMK T01800130 IEM_DS3505
ZBYN,1990-05-30 05:47,ZBYN 300547Z AUTO 00000KT 7SM 18/13 A2985 RMK T01800130 IEM_DS3505
ZBYN,1990-05-30 06:00,ZBYN 300600Z AUTO 36004KT 7SM 18/13 A2983 RMK 60004 SLP072 T01840133 4////0142 57014 IEM_DS3505
ZBYN,1990-05-30 09:00,ZBYN 300900Z AUTO 32004KT 7SM 19/10 A2977 RMK SLP061 T01890103 57015 IEM_DS3505
ZBYN,1990-05-30 10:00,ZBYN 301000Z AUTO 33006KT 9SM 15/09 A2977 RMK 60008 SLP101 T01520086 52030 IEM_DS3505
ZBYN,1990-05-30 11:00,ZBYN 301100Z AUTO 27008KT 7SM 16/11 A2980 RMK T01600110 IEM_DS3505
ZBYN,1990-05-30 12:00,ZBYN 301200Z AUTO 36004KT 9SM 15/09 A2983 RMK 60008 T01520086 52033 IEM_DS3505
ZBYN,1990-05-30 13:00,ZBYN 301300Z AUTO 00000KT 7SM 14/08 A2985 RMK T01400080 IEM_DS3505
ZBYN,1990-05-30 14:00,ZBYN 301400Z AUTO 00000KT 7SM 12/09 A2988 RMK T01200090 IEM_DS3505
ZBYN,1990-05-30 15:00,ZBYN 301500Z AUTO 29004KT 9SM 12/10 A2988 RMK SLP114 T01190096 52006 IEM_DS3505
ZBYN,1990-05-30 16:00,ZBYN 301600Z AUTO 00000KT 7SM 11/09 A2988 RMK T01100090 IEM_DS3505
ZBYN,1990-05-30 17:00,ZBYN 301700Z AUTO 00000KT 7SM 10/09 A2985 RMK T01000090 IEM_DS3505
ZBYN,1990-05-30 18:00,ZBYN 301800Z AUTO 00000KT 9SM 10/07 A2987 RMK 60000 SLP101 T01040074 40197//// 57010 IEM_DS3505
ZBYN,1990-05-30 19:00,ZBYN 301900Z AUTO 26006KT 7SM 10/07 A2985 RMK T01000070 IEM_DS3505
ZBYN,1990-05-30 20:00,ZBYN 302000Z AUTO 36004KT 7SM 09/07 A2985 RMK T00900070 IEM_DS3505
ZBYN,1990-05-30 21:00,ZBYN 302100Z AUTO 36004KT 6SM 11/08 A2985 RMK 70012 SLP098 T01110080 57001 IEM_DS3505
ZBYN,1990-05-30 23:00,ZBYN 302300Z AUTO 33004KT 7SM RMK IEM_DS3505
ZBYN,1990-05-31 00:00,ZBYN 310000Z AUTO 02004KT 6SM 14/07 A2988 RMK 70012 SLP107 T01400074 52007 IEM_DS3505
ZBYN,1990-05-31 01:00,ZBYN 310100Z AUTO 34004KT 7SM 16/08 A2988 RMK T01600080 IEM_DS3505
ZBYN,1990-05-31 02:00,ZBYN 310200Z AUTO 19006KT 7SM 17/10 A2988 RMK T01700100 IEM_DS3505
ZBYN,1990-05-31 03:00,ZBYN 310300Z AUTO 00000KT 7SM 18/08 A2989 RMK SLP107 T01820081 52001 IEM_DS3505
ZBYN,1990-05-31 04:00,ZBYN 310400Z AUTO 00000KT 7SM 20/09 A2988 RMK T02000090 IEM_DS3505
ZBYN,1990-05-31 05:00,ZBYN 310500Z AUTO 00000KT 7SM 20/09 A2988 RMK T02000090 IEM_DS3505
ZBYN,1990-05-31 06:00,ZBYN 310600Z AUTO 07002KT 6SM 22/08 A2983 RMK SLP086 T02160078 4////0094 57016 IEM_DS3505
ZBYN,1990-05-31 07:00,ZBYN 310700Z AUTO 31004KT 7SM 23/09 A2983 RMK T02300090 IEM_DS3505
ZBYN,1990-05-31 08:00,ZBYN 310800Z AUTO 04012KT 7SM 22/06 A2983 RMK T02200060 IEM_DS3505
ZBYN,1990-05-31 09:00,ZBYN 310900Z AUTO 04004KT 11SM 21/07 A2983 RMK SLP083 T02100070 57003 IEM_DS3505
ZBYN,1990-05-31 10:00,ZBYN 311000Z AUTO 02006KT 6SM 21/06 A2985 RMK T02100060 IEM_DS3505
ZBYN,1990-05-31 11:00,ZBYN 311100Z AUTO 02004KT 6SM 20/07 A2985 RMK T02000070 IEM_DS3505
ZBYN,1990-05-31 12:00,ZBYN 311200Z AUTO 00000KT 9SM 20/08 A2987 RMK SLP094 T01950078 52012 IEM_DS3505
ZBYN,1990-05-31 14:00,ZBYN 311400Z AUTO 00000KT 6SM 16/11 A2988 RMK T01600110 IEM_DS3505
ZBYN,1990-05-31 15:00,ZBYN 311500Z AUTO 32002KT 7SM 14/09 A2991 RMK SLP109 T01440089 52013 IEM_DS3505
ZBYN,1990-05-31 17:00,ZBYN 311700Z AUTO 00000KT 7SM RMK IEM_DS3505
ZBYN,1990-05-31 18:00,ZBYN 311800Z AUTO 36002KT 7SM 14/08 A2991 RMK SLP106 T01350079 40225//// 52001 IEM_DS3505
ZBYN,1990-05-31 20:00,ZBYN 312000Z AUTO 00000KT 7SM 09/08 A2991 RMK T00900080 IEM_DS3505
ZBYN,1990-05-31 21:00,ZBYN 312100Z AUTO 00000KT 7SM A2991 RMK SLP115 54000 IEM_DS3505
ZBYN,1990-05-31 22:00,ZBYN 312200Z AUTO 00000KT 7SM 08/07 A2991 RMK T00800070 IEM_DS3505
ZBYN,1990-06-01 00:00,ZBYN 010000Z AUTO 00000KT 7SM 14/08 A2994 RMK T01400080 IEM_DS3505
ZBYN,1990-06-01 02:00,ZBYN 010200Z AUTO 00000KT 7SM 18/09 A2991 RMK T01800090 IEM_DS3505
ZBYN,1990-06-01 03:00,ZBYN 010300Z AUTO 22006KT 6SM 20/11 A2991 RMK SLP107 T02040112 57007 IEM_DS3505
ZBYN,1990-06-01 04:00,ZBYN 010400Z AUTO 00000KT 7SM 23/10 A2988 RMK T02300100 IEM_DS3505
ZBYN,1990-06-01 05:00,ZBYN 010500Z AUTO 17006KT 7SM 24/10 A2985 RMK T02400100 IEM_DS3505
ZBYN,1990-06-01 06:00,ZBYN 010600Z AUTO 18008KT 9SM 26/12 RMK SLP071 T02550123 4////0070 57027 IEM_DS3505
ZBYN,1990-06-01 07:00,ZBYN 010700Z AUTO 18010KT 7SM 28/08 A2980 RMK T02800080 IEM_DS3505
ZBYN,1990-06-01 08:00,ZBYN 010800Z AUTO 22004KT 7SM 29/09 A2977 RMK T02900090 IEM_DS3505
ZBYN,1990-06-01 09:00,ZBYN 010900Z AUTO 18006KT 9SM 28/10 A2977 RMK SLP057 T02790102 57016 IEM_DS3505
ZBYN,1990-06-01 10:00,ZBYN 011000Z AUTO 21006KT 7SM 28/07 A2977 RMK T02800070 IEM_DS3505
ZBYN,1990-06-01 12:00,ZBYN 011200Z AUTO 16006KT 9SM 23/14 A2980 RMK SLP063 T02280141 52005 IEM_DS3505
ZBYN,1990-06-01 13:00,ZBYN 011300Z AUTO 11006KT 7SM 22/08 A2980 RMK T02200080 IEM_DS3505
ZBYN,1990-06-01 14:00,ZBYN 011400Z AUTO 07004KT 7SM 20/08 A2983 RMK T02000080 IEM_DS3505
ZBYN,1990-06-01 15:00,ZBYN 011500Z AUTO 13004KT 7SM 18/08 A2983 RMK T01800080 IEM_DS3505
ZBYN,1990-06-01 16:00,ZBYN 011600Z AUTO 00000KT 6SM 16/08 A2983 RMK T01600080 IEM_DS3505
ZBYN,1990-06-01 17:00,ZBYN 011700Z AUTO 09012KT 6SM 19/07 A2983 RMK T01900070 IEM_DS3505
ZBYN,1990-06-01 18:00,ZBYN 011800Z AUTO 00000KT 7SM 16/09 A2985 RMK SLP080 T01550090 40279//// 52007 IEM_DS3505
ZBYN,1990-06-01 19:00,ZBYN 011900Z AUTO 34004KT 7SM 15/08 A2985 RMK T01500080 IEM_DS3505
ZBYN,1990-06-01 20:00,ZBYN 012000Z AUTO 00000KT 7SM 14/09 A2985 RMK T01400090 IEM_DS3505
ZBYN,1990-06-01 21:00,ZBYN 012100Z AUTO 00000KT 7SM 12/09 A2985 RMK SLP085 T01170088 52003 IEM_DS3505
ZBYN,1990-06-01 22:00,ZBYN 012200Z AUTO 00000KT 7SM 11/09 A2988 RMK T01100090 IEM_DS3505
ZBYN,1990-06-01 23:00,ZBYN 012300Z AUTO 00000KT 7SM 15/10 A2988 RMK T01500100 IEM_DS3505
ZBYN,1990-06-02 00:00,ZBYN 020000Z AUTO 00000KT 6SM 17/11 A2988 RMK SLP093 T01740114 52008 IEM_DS3505
ZBYN,1990-06-02 01:00,ZBYN 020100Z AUTO 13004KT 6SM 21/12 A2988 RMK T02100120 IEM_DS3505
ZBYN,1990-06-02 02:00,ZBYN 020200Z AUTO 17008KT 6SM 23/10 A2988 RMK T02300100 IEM_DS3505
ZBYN,1990-06-02 03:00,ZBYN 020300Z AUTO 16006KT 6SM 25/12 A2988 RMK SLP084 T02460118 57007 IEM_DS3505
ZBYN,1990-06-02 04:00,ZBYN 020400Z AUTO 20006KT 7SM 27/10 A2985 RMK T02700100 IEM_DS3505
ZBYN,1990-06-02 06:00,ZBYN 020600Z AUTO 18008KT 7SM 28/11 A2983 RMK SLP051 T02790111 4////0104 57027 IEM_DS3505
ZBYN,1990-06-02 07:00,ZBYN 020700Z AUTO 18012KT 7SM 28/02 A2980 RMK T02800020 IEM_DS3505
ZBYN,1990-06-02 08:00,ZBYN 020800Z AUTO 20037KT 7SM 26/02 A2980 RMK T02600020 IEM_DS3505
ZBYN,1990-06-02 09:00,ZBYN 020900Z AUTO 22010KT 16SM 28/05 A2977 RMK SLP046 T02750049 57010 IEM_DS3505
ZBYN,1990-06-02 11:00,ZBYN 021100Z AUTO 18010KT 7SM 27/02 A2974 RMK T02700020 IEM_DS3505
ZBYN,1990-06-02 12:00,ZBYN 021200Z AUTO 18006KT 16SM 23/10 A2977 RMK SLP051 T02260095 52005 IEM_DS3505
ZBYN,1990-06-02 13:00,ZBYN 021300Z AUTO 11006KT 6SM 20/09 A2980 RMK T02000090 IEM_DS3505
ZBYN,1990-06-02 15:00,ZBYN 021500Z AUTO 14006KT 9SM 19/08 RMK SLP062 T01920083 52016 IEM_DS3505
ZBYN,1990-06-02 16:00,ZBYN 021600Z AUTO 12004KT 6SM 20/08 A2983 RMK T02000080 IEM_DS3505
ZBYN,1990-06-02 17:00,ZBYN 021700Z AUTO 11008KT 7SM 18/10 A2983 RMK T01800100 IEM_DS3505
ZBYN,1990-06-02 18:00,ZBYN 021800Z AUTO 00000KT 9SM 16/11 A2983 RMK SLP065 T01580112 40290//// 52002 IEM_DS3505
ZBYN,1990-06-02 19:00,ZBYN 021900Z AUTO 00000KT 6SM 16/10 A2983 RMK T01600100 IEM_DS3505
ZBYN,1990-06-02 20:00,ZBYN 022000Z AUTO 00000KT 6SM 15/11 A2983 RMK T01500110 IEM_DS3505
ZBYN,1990-06-02 21:00,ZBYN 022100Z AUTO 00000KT 6SM 15/09 RMK SLP065 T01460090 57002 IEM_DS3505
ZBYN,1990-06-02 22:00,ZBYN 022200Z AUTO 11004KT 6SM 13/09 A2983 RMK T01300090 IEM_DS3505
ZBYN,1990-06-02 23:00,ZBYN 022300Z AUTO 00000KT 7SM 15/12 A2983 RMK T01500120 IEM_DS3505
ZBYN,1990-06-03 00:00,ZBYN 030000Z AUTO 36002KT 6SM 19/10 A2985 RMK SLP066 T01870105 54000 IEM_DS3505
ZBYN,1990-06-03 01:00,ZBYN 030100Z AUTO 00000KT 7SM 23/12 A2985 RMK T02300120 IEM_DS3505
ZBYN,1990-06-03 02:00,ZBYN 030200Z AUTO 15006KT 7SM 24/12 A2983 RMK T02400120 IEM_DS3505
ZBYN,1990-06-03 03:00,ZBYN 030300Z AUTO 18010KT 7SM 25/13 A2980 RMK SLP049 T02530127 57011 IEM_DS3505
ZBYN,1990-06-03 04:00,ZBYN 030400Z AUTO 24010KT 7SM 28/09 A2977 RMK T02800090 IEM_DS3505
ZBYN,1990-06-03 05:00,ZBYN 030500Z AUTO 21019KT 7SM 30/08 A2971 RMK T03000080 IEM_DS3505
ZBYN,1990-06-03 06:00,ZBYN 030600Z AUTO 20016KT 7SM 29/08 A2968 RMK SLP012 T02900080 4////0119 57031 IEM_DS3505
ZBYN,1990-06-03 07:00,ZBYN 030700Z AUTO 23017KT 7SM 31/07 A2965 RMK T03100070 IEM_DS3505
ZBYN,1990-06-03 08:00,ZBYN 030800Z AUTO 21016KT 7SM 31/08 A2962 RMK T03100080 IEM_DS3505
ZBYN,1990-06-03 09:00,ZBYN 030900Z AUTO 20010KT 7SM 30/09 A2962 RMK SLP985 T03020089 57027 IEM_DS3505
ZBYN,1990-06-03 10:00,ZBYN 031000Z AUTO 23014KT 6SM 30/08 A2959 RMK T03000080 IEM_DS3505
ZBYN,1990-06-03 11:00,ZBYN 031100Z AUTO 22010KT 6SM 27/10 A2959 RMK T02700100 IEM_DS3505
ZBYN,1990-06-03 12:00,ZBYN 031200Z AUTO 25010KT 9SM 27/10 A2959 RMK SLP983 T02730098 54000 IEM_DS3505
ZBYN,1990-06-03 13:00,ZBYN 031300Z AUTO 24016KT 6SM 26/08 A2962 RMK T02600080 IEM_DS3505
ZBYN,1990-06-03 14:00,ZBYN 031400Z AUTO 25008KT 6SM 26/10 A2965 RMK T02600100 IEM_DS3505
ZBYN,1990-06-03 15:00,ZBYN 031500Z AUTO 25004KT 9SM 24/12 A2962 RMK SLP993 T02360120 52013 IEM_DS3505
ZBYN,1990-06-03 16:00,ZBYN 031600Z AUTO 23014KT 7SM 24/08 A2962 RMK T02400080 IEM_DS3505
ZBYN,1990-06-03 17:00,ZBYN 031700Z AUTO 23012KT 6SM 24/07 A2962 RMK T02400070 IEM_DS3505
ZBYN,1990-06-03 18:00,ZBYN 031800Z AUTO 22006KT 9SM 24/10 A2962 RMK SLP973 T02370099 40316//// 57011 IEM_DS3505
ZBYN,1990-06-03 19:00,ZBYN 031900Z AUTO 18006KT 6SM 20/11 A2962 RMK T02000110 IEM_DS3505
ZBYN,1990-06-03 20:00,ZBYN 032000Z AUTO 00000KT 6SM 20/11 A2962 RMK T02000110 IEM_DS3505
ZBYN,1990-06-03 21:00,ZBYN 032100Z AUTO 34002KT 6SM 18/12 A2965 RMK SLP998 T01760119 52014 IEM_DS3505
ZBYN,1990-06-03 22:00,ZBYN 032200Z AUTO 00000KT 7SM 16/11 A2968 RMK T01600110 IEM_DS3505
ZBYN,1990-06-03 23:00,ZBYN 032300Z AUTO 00000KT 7SM 19/12 A2971 RMK T01900120 IEM_DS3505
ZBYN,1990-06-04 00:00,ZBYN 040000Z AUTO 29008KT 6SM 24/03 RMK SLP009 T02410033 52015 IEM_DS3505
ZBYN,1990-06-04 01:00,ZBYN 040100Z AUTO 35006KT 7SM 25/05 A2971 RMK T02500050 IEM_DS3505
ZBYN,1990-06-04 02:00,ZBYN 040200Z AUTO 30012KT 6SM 26/02 A2971 RMK T02600020 IEM_DS3505
ZBYN,1990-06-04 03:00,ZBYN 040300Z AUTO 32010KT 6SM 28/06 A2971 RMK SLP009 T02750055 57001 IEM_DS3505
ZBYN,1990-06-04 04:00,ZBYN 040400Z AUTO 31014KT 6SM 29/02 A2968 RMK T02900020 IEM_DS3505
ZBYN,1990-06-04 05:00,ZBYN 040500Z AUTO 29016KT 7SM 30/01 A2965 RMK T03000010 IEM_DS3505
ZBYN,1990-06-04 06:00,ZBYN 040600Z AUTO 34008KT 7SM 30/M04 A2965 RMK SLP991 T03011043 4////0162 57013 IEM_DS3505
ZBYN,1990-06-04 08:00,ZBYN 040800Z AUTO 30008KT 7SM 31/04 A2965 RMK T03100040 IEM_DS3505
ZBYN,1990-06-04 09:00,ZBYN 040900Z AUTO 34004KT 9SM 30/03 A2965 RMK SLP993 T02960026 57007 IEM_DS3505
ZBYN,1990-06-04 10:00,ZBYN 041000Z AUTO 30004KT 6SM 30/07 A2962 RMK T03000070 IEM_DS3505
ZBYN,1990-06-04 11:00,ZBYN 041100Z AUTO 18004KT 7SM 28/09 A2962 RMK T02800090 IEM_DS3505
ZBYN,1990-06-04 12:00,ZBYN 041200Z AUTO 00000KT 16SM 24/10 A2962 RMK SLP993 T02420097 52002 IEM_DS3505
ZBYN,1990-06-04 14:00,ZBYN 041400Z AUTO 12006KT 7SM 20/09 A2965 RMK T02000090 IEM_DS3505
ZBYN,1990-06-04 15:00,ZBYN 041500Z AUTO 29004KT 9SM 18/ A2968 RMK SLP012 52013 IEM_DS3505
ZBYN,1990-06-04 16:00,ZBYN 041600Z AUTO 00000KT 7SM 18/11 A2968 RMK T01800110 IEM_DS3505
ZBYN,1990-06-04 17:00,ZBYN 041700Z AUTO 09010KT 7SM 21/10 A2968 RMK T02100100 IEM_DS3505
ZBYN,1990-06-04 18:00,ZBYN 041800Z AUTO 00000KT 9SM 17/09 A2968 RMK SLP012 T01740087 40234//// 52003 IEM_DS3505
ZBYN,1990-06-04 19:00,ZBYN 041900Z AUTO 08004KT 7SM 20/10 A2968 RMK T02000100 IEM_DS3505
ZBYN,1990-06-04 20:00,ZBYN 042000Z AUTO 00000KT 6SM 16/10 A2968 RMK T01600100 IEM_DS3505
ZBYN,1990-06-04 21:00,ZBYN 042100Z AUTO 00000KT 9SM 16/08 A2971 RMK SLP018 T01620076 52003 IEM_DS3505
ZBYN,1990-06-04 22:00,ZBYN 042200Z AUTO 28004KT 5SM 14/10 A2968 RMK T01400100 IEM_DS3505
ZBYN,1990-06-04 23:00,ZBYN 042300Z AUTO 00000KT 5SM 17/12 A2971 RMK T01700120 IEM_DS3505
ZBYN,1990-06-05 00:00,ZBYN 050000Z AUTO 34004KT 9SM 20/10 A2971 RMK SLP018 T02020097 57002 IEM_DS3505
ZBYN,1990-06-05 02:00,ZBYN 050200Z AUTO 00000KT 7SM 26/12 A2971 RMK T02600120 IEM_DS3505
ZBYN,1990-06-05 03:00,ZBYN 050300Z AUTO 16006KT 5SM 27/12 A2971 RMK SLP013 T02740118 57003 IEM_DS3505
ZBYN,1990-06-05 04:00,ZBYN 050400Z AUTO 23008KT 7SM 29/10 A2968 RMK T02900100 IEM_DS3505
ZBYN,1990-06-05 05:00,ZBYN 050500Z AUTO 20006KT 7SM 30/13 A2965 RMK T03000130 IEM_DS3505
ZBYN,1990-06-05 06:00,ZBYN 050600Z AUTO 20010KT 6SM 32/11 A2962 RMK SLP981 T03150107 4////0132 57024 IEM_DS3505
ZBYN,1990-06-05 07:00,ZBYN 050700Z AUTO 21012KT 7SM 32/11 A2959 RMK T03200110 IEM_DS3505
ZBYN,1990-06-05 08:00,ZBYN 050800Z AUTO 20008KT 7SM 33/12 A2956 RMK T03300120 IEM_DS3505
ZBYN,1990-06-05 09:00,ZBYN 050900Z AUTO 20012KT 6SM 32/10 A2956 RMK SLP967 T03230103 57014 IEM_DS3505
ZBYN,1990-06-05 10:00,ZBYN 051000Z AUTO 20010KT 7SM 32/08 A2959 RMK T03200080 IEM_DS3505
ZBYN,1990-06-05 11:00,ZBYN 051100Z AUTO 16004KT 7SM 29/12 A2959 RMK T02900120 IEM_DS3505
ZBYN,1990-06-05 12:00,ZBYN 051200Z AUTO 18004KT 9SM 25/12 A2962 RMK SLP982 T02460125 57009 IEM_DS3505
ZBYN,1990-06-05 13:00,ZBYN 051300Z AUTO 16004KT 7SM 25/11 A2962 RMK T02500110 IEM_DS3505
ZBYN,1990-06-05 14:00,ZBYN 051400Z AUTO 00000KT 7SM 25/12 A2971 RMK T02500120 IEM_DS3505
ZBYN,1990-06-05 15:00,ZBYN 051500Z AUTO 34004KT 9SM 21/13 A2974 RMK SLP019 T02140134 52039 IEM_DS3505
ZBYN,1990-06-05 16:00,ZBYN 051600Z AUTO 34006KT 7SM 21/14 A2977 RMK T02100140 IEM_DS3505
ZBYN,1990-06-05 17:00,ZBYN 051700Z AUTO 13008KT 7SM 22/13 A2974 RMK T02200130 IEM_DS3505
ZBYN,1990-06-05 18:00,ZBYN 051800Z AUTO 34002KT 9SM 19/16 A2971 RMK 60002 SLP019 T01910157 40336//// 52003 IEM_DS3505
ZBYN,1990-06-05 19:00,ZBYN 051900Z AUTO 00000KT 6SM 20/13 A2971 RMK T02000130 IEM_DS3505
ZBYN,1990-06-05 20:00,ZBYN 052000Z AUTO 00000KT 6SM 19/13 A2971 RMK T01900130 IEM_DS3505
ZBYN,1990-06-05 22:00,ZBYN 052200Z AUTO 6SM 17/15 A2974 RMK T01700150 IEM_DS3505
ZBYN,1990-06-05 23:00,ZBYN 052300Z AUTO 00000KT 6SM 19/15 A2974 RMK T01900150 IEM_DS3505
ZBYN,1990-06-06 00:00,ZBYN 060000Z AUTO 34004KT 6SM 21/14 A2977 RMK SLP037 T02090145 50110 IEM_DS3505
ZBYN,1990-06-06 01:00,ZBYN 060100Z AUTO 17004KT 7SM 25/15 RMK T02500150 IEM_DS3505
ZBYN,1990-06-06 02:00,ZBYN 060200Z AUTO 00000KT 6SM 27/14 A2977 RMK T02700140 IEM_DS3505
ZBYN,1990-06-06 03:00,ZBYN 060300Z AUTO 00000KT 7SM 28/15 A2974 RMK SLP027 T02810146 57003 IEM_DS3505
ZBYN,1990-06-06 04:00,ZBYN 060400Z AUTO 29006KT 7SM 28/15 A2974 RMK T02800150 IEM_DS3505
ZBYN,1990-06-06 05:00,ZBYN 060500Z AUTO 36017KT 7SM 29/14 A2974 RMK T02900140 IEM_DS3505
ZBYN,1990-06-06 06:00,ZBYN 060600Z AUTO 02010KT 6SM 25/13 A2974 RMK SLP039 T02530131 4////0166 52012 IEM_DS3505
ZBYN,1990-06-06 09:00,ZBYN 060900Z AUTO 02008KT 7SM 17/14 RMK SLP103 T01740135 52046 IEM_DS3505
ZBYN,1990-06-06 11:00,ZBYN 061100Z AUTO 00000KT 7SM 17/15 A2988 RMK T01700150 IEM_DS3505
ZBYN,1990-06-06 12:00,ZBYN 061200Z AUTO 36006KT 7SM 17/12 A2991 RMK 60008 SLP104 T01720118 52004 IEM_DS3505
ZBYN,1990-06-06 13:00,ZBYN 061300Z AUTO 35010KT 7SM 16/13 A2994 RMK T01600130 IEM_DS3505
ZBYN,1990-06-06 14:00,ZBYN 061400Z AUTO 33012KT 7SM 16/13 A2997 RMK T01600130 IEM_DS3505
ZBYN,1990-06-06 15:00,ZBYN 061500Z AUTO 00000KT 6SM 14/13 RMK SLP124 T01420130 52024 IEM_DS3505
ZBYN,1990-06-06 16:00,ZBYN 061600Z AUTO 36006KT 7SM 14/14 A2997 RMK T01400140 IEM_DS3505
ZBYN,1990-06-06 17:00,ZBYN 061700Z AUTO 34004KT 5SM 15/14 A2994 RMK T01500140 IEM_DS3505
ZBYN,1990-06-06 18:00,ZBYN 061800Z AUTO 00000KT 6SM 15/13 A2994 RMK 60016 SLP112 T01520129 40281//// 57013 IEM_DS3505
ZBYN,1990-06-06 19:00,ZBYN 061900Z AUTO 00000KT 7SM 15/14 A2994 RMK T01500140 IEM_DS3505
ZBYN,1990-06-06 20:00,ZBYN 062000Z AUTO 00000KT 7SM 15/14 A2994 RMK T01500140 IEM_DS3505
ZBYN,1990-06-06 21:00,ZBYN 062100Z AUTO 36002KT 5SM 15/13 A2994 RMK SLP125 T01500131 54000 IEM_DS3505
ZBYN,1990-06-06 22:00,ZBYN 062200Z AUTO 34008KT 7SM 15/13 A2994 RMK T01500130 IEM_DS3505
ZBYN,1990-06-07 00:00,ZBYN 070000Z AUTO 34004KT 6SM 16/11 A2997 RMK 70024 SLP133 T01580113 52008 IEM_DS3505
ZBYN,1990-06-07 01:00,ZBYN 070100Z AUTO 33004KT 7SM 16/12 A2997 RMK T01600120 IEM_DS3505
ZBYN,1990-06-07 02:00,ZBYN 070200Z AUTO 00000KT 7SM 16/13 A3000 RMK T01600130 IEM_DS3505
ZBYN,1990-06-07 03:00,ZBYN 070300Z AUTO 00000KT 9SM 16/12 RMK SLP135 T01640122 57001 IEM_DS3505
ZBYN,1990-06-07 06:00,ZBYN 070600Z AUTO 00000KT 7SM 18/13 RMK SLP121 T01800127 4////0130 57009 IEM_DS3505
ZBYN,1990-06-07 08:00,ZBYN 070800Z AUTO 00000KT 7SM 19/13 A2994 RMK T01900130 IEM_DS3505
ZBYN,1990-06-07 09:00,ZBYN 070900Z AUTO 09004KT 12SM 19/11 A2994 RMK SLP110 T01890106 57009 IEM_DS3505
ZBYN,1990-06-07 10:00,ZBYN 071000Z AUTO 10010KT 6SM 18/11 A2991 RMK T01800110 IEM_DS3505
ZBYN,1990-06-07 11:00,ZBYN 071100Z AUTO 12008KT 6SM 18/12 A2994 RMK T01800120 IEM_DS3505
ZBYN,1990-06-07 12:00,ZBYN 071200Z AUTO 00000KT 12SM 15/12 A2994 RMK SLP120 T01540117 52005 IEM_DS3505
ZBYN,1990-06-07 13:00,ZBYN 071300Z AUTO 12008KT 6SM 15/10 A2991 RMK T01500100 IEM_DS3505
ZBYN,1990-06-07 14:00,ZBYN 071400Z AUTO 00000KT 6SM 13/11 A2994 RMK T01300110 IEM_DS3505
ZBYN,1990-06-07 15:00,ZBYN 071500Z AUTO 00000KT 7SM 12/11 RMK SLP133 T01210106 52008 IEM_DS3505
ZBYN,1990-06-07 18:00,ZBYN 071800Z AUTO 00000KT 5SM 11/10 RMK SLP111 T01070099 57020 IEM_DS3505
ZBYN,1990-06-07 21:00,ZBYN 072100Z AUTO 14002KT 3SM 08/08 A2985 RMK SLP100 T00840082 57012 IEM_DS3505
ZBYN,1990-06-07 22:00,ZBYN 072200Z AUTO 00000KT 5SM 08/08 A2985 RMK T00800080 IEM_DS3505
ZBYN,1990-06-07 23:00,ZBYN 072300Z AUTO 00000KT 7SM 12/10 A2985 RMK T01200100 IEM_DS3505
ZBYN,1990-06-08 00:00,ZBYN 080000Z AUTO 18002KT 5SM 13/11 A2985 RMK SLP095 T01320112 57003 IEM_DS3505
ZBYN,1990-06-08 01:00,ZBYN 080100Z AUTO 00000KT 7SM 16/12 A2985 RMK T01600120 IEM_DS3505
ZBYN,1990-06-08 02:00,ZBYN 080200Z AUTO 20006KT 7SM 18/12 A2983 RMK T01800120 IEM_DS3505
ZBYN,1990-06-08 03:00,ZBYN 080300Z AUTO 07004KT 6SM 20/12 A2980 RMK SLP073 T02050123 57014 IEM_DS3505
ZBYN,1990-06-08 04:00,ZBYN 080400Z AUTO 00000KT 7SM 21/12 A2980 RMK T02100120 IEM_DS3505
ZBYN,1990-06-08 05:00,ZBYN 080500Z AUTO 23006KT 7SM 23/13 A2977 RMK T02300130 IEM_DS3505
ZBYN,1990-06-08 06:00,ZBYN 080600Z AUTO 16004KT 7SM 24/11 A2974 RMK SLP047 T02440113 4////0073 57020 IEM_DS3505
ZBYN,1990-06-08 08:00,ZBYN 080800Z AUTO 26006KT 7SM 26/10 A2971 RMK T02600100 IEM_DS3505
ZBYN,1990-06-08 09:00,ZBYN 080900Z AUTO 34012KT 12SM 25/05 A2968 RMK SLP034 T02470047 57015 IEM_DS3505
ZBYN,1990-06-08 10:00,ZBYN 081000Z AUTO 30012KT 7SM 25/06 A2968 RMK T02500060 IEM_DS3505
ZBYN,1990-06-08 11:00,ZBYN 081100Z AUTO 00000KT 7SM 24/12 A2965 RMK T02400120 IEM_DS3505
ZBYN,1990-06-08 12:00,ZBYN 081200Z AUTO 00000KT 12SM 21/08 A2968 RMK SLP031 T02060084 57002 IEM_DS3505
ZBYN,1990-06-08 13:00,ZBYN 081300Z AUTO 12006KT 7SM 19/08 A2971 RMK T01900080 IEM_DS3505
ZBYN,1990-06-08 14:00,ZBYN 081400Z AUTO 15006KT 7SM 19/07 A2971 RMK T01900070 IEM_DS3505
ZBYN,1990-06-08 15:00,ZBYN 081500Z AUTO 32004KT 12SM 17/07 A2974 RMK SLP040 T01700068 52014 IEM_DS3505
ZBYN,1990-06-08 17:00,ZBYN 081700Z AUTO 09004KT 7SM 13/08 A2968 RMK T01300080 IEM_DS3505
ZBYN,1990-06-08 18:00,ZBYN 081800Z AUTO 00000KT 9SM 12/08 A2968 RMK SLP030 T01180081 40264//// 57011 IEM_DS3505
ZBYN,1990-06-08 19:00,ZBYN 081900Z AUTO 10004KT 7SM 11/08 A2968 RMK T01100080 IEM_DS3505
ZBYN,1990-06-08 20:00,ZBYN 082000Z AUTO 00000KT 7SM 11/07 A2968 RMK T01100070 IEM_DS3505
ZBYN,1990-06-08 21:00,ZBYN 082100Z AUTO 00000KT 9SM 09/07 A2965 RMK SLP020 T00920074 57013 IEM_DS3505
ZBYN,1990-06-09 00:00,ZBYN 090000Z AUTO 00000KT 9SM 16/07 A2962 RMK SLP004 T01570073 57011 IEM_DS3505
ZBYN,1990-06-09 01:00,ZBYN 090100Z AUTO 18008KT 6SM 18/09 A2959 RMK T01800090 IEM_DS3505
ZBYN,1990-06-09 02:00,ZBYN 090200Z AUTO 16010KT 6SM 21/09 A2956 RMK T02100090 IEM_DS3505
ZBYN,1990-06-09 03:00,ZBYN 090300Z AUTO 20006KT 6SM 23/09 A2953 RMK SLP932 T02340086 57023 IEM_DS3505
ZBYN,1990-06-09 04:00,ZBYN 090400Z AUTO 20012KT 6SM 24/09 A2950 RMK T02400090 IEM_DS3505
ZBYN,1990-06-09 05:00,ZBYN 090500Z AUTO 32014KT 7SM 28/11 A2953 RMK T02800110 IEM_DS3505
ZBYN,1990-06-09 06:00,ZBYN 090600Z AUTO 34008KT 9SM 29/05 A2950 RMK SLP953 T02890052 4////0079 57014 IEM_DS3505
ZBYN,1990-06-09 07:00,ZBYN 090700Z AUTO 32014KT 7SM 29/08 A2947 RMK T02900080 IEM_DS3505
ZBYN,1990-06-09 08:00,ZBYN 090800Z AUTO 31016KT 7SM 30/05 A2947 RMK T03000050 IEM_DS3505
ZBYN,1990-06-09 09:00,ZBYN 090900Z AUTO 29006KT 16SM 29/05 A2947 RMK SLP959 T02940052 52002 IEM_DS3505
ZBYN,1990-06-09 10:00,ZBYN 091000Z AUTO 35010KT 7SM RMK IEM_DS3505
ZBYN,1990-06-09 12:00,ZBYN 091200Z AUTO 36004KT 16SM 25/07 A2950 RMK SLP971 T02500072 52014 IEM_DS3505
ZBYN,1990-06-09 13:00,ZBYN 091300Z AUTO 29004KT 7SM 20/09 A2956 RMK T02000090 IEM_DS3505
ZBYN,1990-06-09 14:00,ZBYN 091400Z AUTO 35006KT 6SM 20/07 A2959 RMK T02000070 IEM_DS3505
ZBYN,1990-06-09 15:00,ZBYN 091500Z AUTO 32004KT 12SM 20/08 A2962 RMK SLP998 T02010084 52029 IEM_DS3505
ZBYN,1990-06-09 18:00,ZBYN 091800Z AUTO 32004KT 12SM 18/08 A2965 RMK SLP000 T01760085 40298//// 52006 IEM_DS3505
ZBYN,1990-06-09 19:00,ZBYN 091900Z AUTO 33008KT 6SM 15/08 A2965 RMK T01500080 IEM_DS3505
ZBYN,1990-06-09 20:00,ZBYN 092000Z AUTO 03006KT 6SM 19/08 A2962 RMK T01900080 IEM_DS3505
ZBYN,1990-06-09 21:00,ZBYN 092100Z AUTO 36002KT 9SM 16/08 A2971 RMK SLP018 T01580085 52014 IEM_DS3505
ZBYN,1990-06-09 22:00,ZBYN 092200Z AUTO 00000KT 7SM 13/09 A2974 RMK T01300090 IEM_DS3505
ZBYN,1990-06-09 23:00,ZBYN 092300Z AUTO 33004KT 4SM 17/10 A2974 RMK T01700100 IEM_DS3505
ZBYN,1990-06-10 00:00,ZBYN 100000Z AUTO 32004KT 9SM 20/08 RMK T01950085 IEM_DS3505
ZBYN,1990-06-10 01:00,ZBYN 100100Z AUTO 00000KT 6SM 23/09 A2977 RMK T02300090 IEM_DS3505
ZBYN,1990-06-10 02:00,ZBYN 100200Z AUTO 30004KT 6SM 24/11 A2974 RMK T02400110 IEM_DS3505
ZBYN,1990-06-10 03:00,ZBYN 100300Z AUTO 00000KT 9SM 26/11 A2974 RMK SLP035 T02650111 52006 IEM_DS3505
ZBYN,1990-06-10 04:00,ZBYN 100400Z AUTO 17004KT 6SM 27/10 A2974 RMK T02700100 IEM_DS3505
ZBYN,1990-06-10 05:00,ZBYN 100500Z AUTO 00000KT 6SM 27/07 A2974 RMK T02700070 IEM_DS3505
ZBYN,1990-06-10 06:00,ZBYN 100600Z AUTO 16006KT 9SM 28/12 RMK SLP028 T02820118 4////0139 57008 IEM_DS3505
ZBYN,1990-06-10 07:00,ZBYN 100700Z AUTO 21008KT 6SM 29/08 A2971 RMK T02900080 IEM_DS3505
ZBYN,1990-06-10 08:00,ZBYN 100800Z AUTO 24006KT 6SM 28/09 A2971 RMK T02800090 IEM_DS3505
ZBYN,1990-06-10 09:00,ZBYN 100900Z AUTO 18010KT 9SM 28/13 RMK SLP025 T02830126 57005 IEM_DS3505
ZBYN,1990-06-10 10:00,ZBYN 101000Z AUTO 21010KT 6SM 28/10 A2971 RMK T02800100 IEM_DS3505
ZBYN,1990-06-10 12:00,ZBYN 101200Z AUTO 16006KT 7SM 24/13 A2974 RMK SLP031 T02370131 52005 IEM_DS3505
ZBYN,1990-06-10 13:00,ZBYN 101300Z AUTO 14006KT 6SM 23/11 A2977 RMK T02300110 IEM_DS3505
ZBYN,1990-06-10 14:00,ZBYN 101400Z AUTO 12006KT 7SM 21/12 A2977 RMK T02100120 IEM_DS3505
ZBYN,1990-06-10 15:00,ZBYN 101500Z AUTO 00000KT 7SM 19/13 A2980 RMK SLP044 T01880132 52014 IEM_DS3505
ZBYN,1990-06-10 16:00,ZBYN 101600Z AUTO 00000KT 6SM 18/13 A2980 RMK T01800130 IEM_DS3505
ZBYN,1990-06-10 17:00,ZBYN 101700Z AUTO 00000KT 6SM 18/13 A2980 RMK T01800130 IEM_DS3505
ZBYN,1990-06-10 18:00,ZBYN 101800Z AUTO 00000KT 7SM 16/13 A2980 RMK SLP053 T01570131 40289//// 52007 IEM_DS3505
ZBYN,1990-06-10 19:00,ZBYN 101900Z AUTO 00000KT 6SM 17/13 A2980 RMK T01700130 IEM_DS3505
ZBYN,1990-06-10 20:00,ZBYN 102000Z AUTO 10004KT 6SM 14/13 A2983 RMK T01400130 IEM_DS3505
ZBYN,1990-06-10 21:00,ZBYN 102100Z AUTO 00000KT 6SM 15/10 A2980 RMK SLP066 T01500105 52011 IEM_DS3505
ZBYN,1990-06-10 23:00,ZBYN 102300Z AUTO 00000KT 6SM 17/12 A2985 RMK T01700120 IEM_DS3505
ZBYN,1990-06-11 00:00,ZBYN 110000Z AUTO 36008KT 9SM 19/11 A2991 RMK T01940108 52023 IEM_DS3505
ZBYN,1990-06-11 01:00,ZBYN 110100Z AUTO 00000KT 7SM 20/10 A2988 RMK T02000100 IEM_DS3505
ZBYN,1990-06-11 02:00,ZBYN 110200Z AUTO 32004KT 7SM 21/11 A2988 RMK T02100110 IEM_DS3505
ZBYN,1990-06-11 03:00,ZBYN 110300Z AUTO 00000KT 12SM 23/12 A2985 RMK SLP082 T02290125 57011 IEM_DS3505
ZBYN,1990-06-11 04:00,ZBYN 110400Z AUTO 20004KT 7SM 24/11 A2985 RMK T02400110 IEM_DS3505
ZBYN,1990-06-11 05:00,ZBYN 110500Z AUTO 33008KT 7SM 26/12 A2985 RMK T02600120 IEM_DS3505
ZBYN,1990-06-11 06:00,ZBYN 110600Z AUTO 11004KT 12SM 27/12 A2983 RMK T02730125 4////0117 57013 IEM_DS3505
ZBYN,1990-06-11 07:00,ZBYN 110700Z AUTO 35006KT 7SM 28/08 A2980 RMK T02800080 IEM_DS3505
ZBYN,1990-06-11 09:00,ZBYN 110900Z AUTO 36004KT 12SM 28/12 RMK SLP050 T02840118 57014 IEM_DS3505
ZBYN,1990-06-11 10:00,ZBYN 111000Z AUTO 02008KT 7SM 28/09 A2977 RMK T02800090 IEM_DS3505
ZBYN,1990-06-11 11:00,ZBYN 111100Z AUTO 35008KT 7SM 27/08 A2977 RMK T02700080 IEM_DS3505
ZBYN,1990-06-11 12:00,ZBYN 111200Z AUTO 00000KT 12SM 24/10 A2980 RMK SLP054 T02410100 52004 IEM_DS3505
ZBYN,1990-06-11 13:00,ZBYN 111300Z AUTO 11006KT 6SM 22/11 A2983 RMK T02200110 IEM_DS3505
ZBYN,1990-06-11 14:00,ZBYN 111400Z AUTO 10006KT 7SM 22/09 A2983 RMK T02200090 IEM_DS3505
ZBYN,1990-06-11 15:00,ZBYN 111500Z AUTO 29002KT 11SM 19/10 A2983 RMK SLP073 T01920101 52015 IEM_DS3505
ZBYN,1990-06-11 16:00,ZBYN 111600Z AUTO 04004KT 7SM 19/11 A2985 RMK T01900110 IEM_DS3505
ZBYN,1990-06-11 17:00,ZBYN 111700Z AUTO 00000KT 7SM 17/12 A2985 RMK T01700120 IEM_DS3505
ZBYN,1990-06-11 18:00,ZBYN 111800Z AUTO 00000KT 9SM 16/10 A2983 RMK SLP071 T01610101 40288//// 54000 IEM_DS3505
ZBYN,1990-06-11 19:00,ZBYN 111900Z AUTO 00000KT 7SM 16/12 A2983 RMK T01600120 IEM_DS3505
ZBYN,1990-06-11 20:00,ZBYN 112000Z AUTO 00000KT 7SM 15/13 A2983 RMK T01500130 IEM_DS3505
ZBYN,1990-06-11 21:00,ZBYN 112100Z AUTO 00000KT 9SM 16/10 A2983 RMK SLP068 T01580098 57001 IEM_DS3505
ZBYN,1990-06-11 22:00,ZBYN 112200Z AUTO 08004KT 7SM 14/12 A2985 RMK T01400120 IEM_DS3505
ZBYN,1990-06-12 00:00,ZBYN 120000Z AUTO 16004KT 7SM 20/14 A2983 RMK SLP069 T02020139 52001 IEM_DS3505
ZBYN,1990-06-12 01:00,ZBYN 120100Z AUTO 20006KT 7SM 23/14 A2983 RMK T02300140 IEM_DS3505
ZBYN,1990-06-12 02:00,ZBYN 120200Z AUTO 19008KT 7SM 24/15 A2980 RMK T02400150 IEM_DS3505
ZBYN,1990-06-12 03:00,ZBYN 120300Z AUTO 16008KT 6SM 25/14 A2980 RMK SLP047 T02530145 57020 IEM_DS3505
ZBYN,1990-06-12 04:00,ZBYN 120400Z AUTO 23012KT 7SM 28/15 A2977 RMK T02800150 IEM_DS3505
ZBYN,1990-06-12 05:00,ZBYN 120500Z AUTO 20010KT 7SM 28/14 A2974 RMK T02800140 IEM_DS3505
ZBYN,1990-06-12 06:00,ZBYN 120600Z AUTO 20008KT 11SM 29/14 A2971 RMK SLP017 T02900140 4////0131 57027 IEM_DS3505
ZBYN,1990-06-12 08:00,ZBYN 120800Z AUTO 18008KT 7SM 30/13 A2965 RMK T03000130 IEM_DS3505
ZBYN,1990-06-12 09:00,ZBYN 120900Z AUTO 18006KT 12SM 30/13 A2962 RMK SLP989 T02960127 57025 IEM_DS3505
ZBYN,1990-06-12 11:00,ZBYN 121100Z AUTO 00000KT 12SM 22/16 A2962 RMK SLP999 T02150159 52004 IEM_DS3505
ZBYN,1990-06-12 12:00,ZBYN 121200Z AUTO 00000KT 7SM 23/17 A2962 RMK T02300170 IEM_DS3505
ZBYN,1990-06-12 13:00,ZBYN 121300Z AUTO 12004KT 7SM 22/14 A2965 RMK T02200140 IEM_DS3505
ZBYN,1990-06-12 14:00,ZBYN 121400Z AUTO 13006KT 7SM 22/15 A2965 RMK T02200150 IEM_DS3505
ZBYN,1990-06-12 15:00,ZBYN 121500Z AUTO 16008KT 9SM 21/15 A2968 RMK SLP004 T02100154 52011 IEM_DS3505
ZBYN,1990-06-12 17:00,ZBYN 121700Z AUTO 14008KT 6SM 20/15 A2968 RMK T02000150 IEM_DS3505
ZBYN,1990-06-12 18:00,ZBYN 121800Z AUTO 16006KT 9SM 19/16 A2968 RMK SLP004 T01890157 40305//// IEM_DS3505
ZBYN,1990-06-12 20:00,ZBYN 122000Z AUTO 07008KT 7SM 18/16 A2968 RMK T01800160 IEM_DS3505
ZBYN,1990-06-12 21:00,ZBYN 122100Z AUTO 11002KT 7SM 18/16 A2968 RMK SLP011 T01760160 52006 IEM_DS3505
ZBYN,1990-06-12 22:00,ZBYN 122200Z AUTO 00000KT 7SM 18/17 A2968 RMK T01800170 IEM_DS3505
ZBYN,1990-06-12 23:00,ZBYN 122300Z AUTO 30008KT 7SM 19/18 A2971 RMK T01900180 IEM_DS3505
ZBYN,1990-06-13 00:00,ZBYN 130000Z AUTO 00000KT 6SM 19/17 A2971 RMK 60028 70028 SLP029 T01920172 52007 IEM_DS3505
ZBYN,1990-06-13 02:00,ZBYN 130200Z AUTO 00000KT 7SM 23/17 A2971 RMK T02300170 IEM_DS3505
ZBYN,1990-06-13 03:00,ZBYN 130300Z AUTO 00000KT 5SM 26/18 RMK SLP013 T02550177 57006 IEM_DS3505
ZBYN,1990-06-13 04:00,ZBYN 130400Z AUTO 00000KT 6SM 27/19 A2968 RMK T02700190 IEM_DS3505
ZBYN,1990-06-13 05:00,ZBYN 130500Z AUTO 16004KT 6SM 28/17 A2965 RMK T02800170 IEM_DS3505
ZBYN,1990-06-13 06:00,ZBYN 130600Z AUTO 22016KT 6SM 26/16 A2962 RMK 60000 SLP007 T02570163 4////0164 57008 IEM_DS3505
ZBYN,1990-06-13 07:00,ZBYN 130700Z AUTO 19008KT 7SM 26/19 A2962 RMK T02600190 IEM_DS3505
ZBYN,1990-06-13 09:00,ZBYN 130900Z AUTO 00000KT 9SM 28/19 A2962 RMK SLP995 T02800187 57010 IEM_DS3505
ZBYN,1990-06-13 10:00,ZBYN 131000Z AUTO 00000KT 7SM 29/18 A2959 RMK T02900180 IEM_DS3505
ZBYN,1990-06-13 11:00,ZBYN 131100Z AUTO 31004KT 6SM 28/20 A2962 RMK T02800200 IEM_DS3505
ZBYN,1990-06-13 12:00,ZBYN 131200Z AUTO 18002KT 7SM 24/20 A2965 RMK 60008 SLP004 T02400197 52005 IEM_DS3505
ZBYN,1990-06-13 14:00,ZBYN 131400Z AUTO 11006KT 6SM 23/16 A2971 RMK T02300160 IEM_DS3505
ZBYN,1990-06-13 15:00,ZBYN 131500Z AUTO 32004KT 9SM 23/13 A2971 RMK SLP023 T02290129 52024 IEM_DS3505
ZBYN,1990-06-13 16:00,ZBYN 131600Z AUTO 00000KT 6SM 21/16 A2974 RMK T02100160 IEM_DS3505
ZBYN,1990-06-13 17:00,ZBYN 131700Z AUTO 00000KT 7SM 19/17 A2971 RMK T01900170 IEM_DS3505
ZBYN,1990-06-13 18:00,ZBYN 131800Z AUTO 00000KT 7SM 20/09 A2974 RMK SLP000 T01980087 40291//// 57025 IEM_DS3505
ZBYN,1990-06-13 20:00,ZBYN 132000Z AUTO 00000KT 7SM 19/15 A2977 RMK T01900150 IEM_DS3505
ZBYN,1990-06-13 21:00,ZBYN 132100Z AUTO 34004KT 9SM 19/13 A2977 RMK 70035 SLP037 T01900130 52037 IEM_DS3505
ZBYN,1990-06-13 22:00,ZBYN 132200Z AUTO 31004KT 6SM 18/14 A2980 RMK T01800140 IEM_DS3505
ZBYN,1990-06-13 23:00,ZBYN 132300Z AUTO 31004KT 6SM RMK IEM_DS3505
ZBYN,1990-06-14 00:00,ZBYN 140000Z AUTO 36004KT 11SM 20/09 RMK 70008 SLP060 T02000092 52016 IEM_DS3505
ZBYN,1990-06-14 02:00,ZBYN 140200Z AUTO 07004KT 6SM 23/13 A2983 RMK T02300130 IEM_DS3505
ZBYN,1990-06-14 03:00,ZBYN 140300Z AUTO 34004KT 9SM 22/12 RMK SLP070 T02200115 52011 IEM_DS3505
ZBYN,1990-06-14 04:00,ZBYN 140400Z AUTO 07012KT 7SM 22/11 A2985 RMK T02200110 IEM_DS3505
ZBYN,1990-06-14 05:00,ZBYN 140500Z AUTO 08016KT 7SM 21/11 A2985 RMK T02100110 IEM_DS3505
ZBYN,1990-06-14 06:00,ZBYN 140600Z AUTO 11006KT 12SM 22/12 A2985 RMK SLP080 T02150121 4////0190 52004 IEM_DS3505
ZBYN,1990-06-14 09:00,ZBYN 140900Z AUTO 14004KT 12SM 21/14 A2985 RMK SLP079 T02140138 57002 IEM_DS3505
ZBYN,1990-06-14 10:00,ZBYN 141000Z AUTO 17004KT 6SM 22/14 A2985 RMK T02200140 IEM_DS3505
ZBYN,1990-06-14 11:00,ZBYN 141100Z AUTO 18004KT 6SM 22/14 A2985 RMK T02200140 IEM_DS3505
ZBYN,1990-06-14 12:00,ZBYN 141200Z AUTO 16002KT 12SM 19/15 A2988 RMK SLP089 T01880152 52006 IEM_DS3505
ZBYN,1990-06-14 13:00,ZBYN 141300Z AUTO 00000KT 7SM 18/14 A2988 RMK T01800140 IEM_DS3505
ZBYN,1990-06-14 14:00,ZBYN 141400Z AUTO 00000KT 7SM 17/14 A2991 RMK T01700140 IEM_DS3505
ZBYN,1990-06-14 15:00,ZBYN 141500Z AUTO 00000KT 7SM 16/14 RMK SLP104 T01620135 52013 IEM_DS3505
ZBYN,1990-06-14 16:00,ZBYN 141600Z AUTO 00000KT 7SM 15/14 A2991 RMK T01500140 IEM_DS3505
ZBYN,1990-06-14 17:00,ZBYN 141700Z AUTO 00000KT 7SM 15/13 A2991 RMK T01500130 IEM_DS3505
ZBYN,1990-06-14 18:00,ZBYN 141800Z AUTO 00000KT 7SM 14/12 A2994 RMK SLP113 T01410125 40227//// 52005 IEM_DS3505
ZBYN,1990-06-14 19:00,ZBYN 141900Z AUTO 12004KT 7SM 13/12 A2994 RMK T01300120 IEM_DS3505
ZBYN,1990-06-14 21:00,ZBYN 142100Z AUTO 00000KT 6SM 12/11 A2994 RMK SLP120 T01220113 52003 IEM_DS3505
ZBYN,1990-06-14 22:00,ZBYN 142200Z AUTO 12004KT 7SM 13/11 A2997 RMK T01300110 IEM_DS3505
ZBYN,1990-06-14 23:00,ZBYN 142300Z AUTO 00000KT 7SM 15/12 A2997 RMK T01500120 IEM_DS3505
ZBYN,1990-06-15 00:00,ZBYN 150000Z AUTO 00000KT 6SM 18/14 A2997 RMK SLP126 T01760135 52010 IEM_DS3505
ZBYN,1990-06-15 01:00,ZBYN 150100Z AUTO 00000KT 7SM 19/14 A2997 RMK T01900140 IEM_DS3505
ZBYN,1990-06-15 02:00,ZBYN 150200Z AUTO 23006KT 7SM 21/15 A2997 RMK T02100150 IEM_DS3505
ZBYN,1990-06-15 04:00,ZBYN 150400Z AUTO 21008KT 7SM 25/15 A2994 RMK T02500150 IEM_DS3505
ZBYN,1990-06-15 05:00,ZBYN 150500Z AUTO 19008KT 7SM 27/14 A2994 RMK T02700140 IEM_DS3505
ZBYN,1990-06-15 06:00,ZBYN 150600Z AUTO 18006KT 9SM 28/12 A2991 RMK SLP097 T02750123 4////0211 57016 IEM_DS3505
ZBYN,1990-06-15 07:00,ZBYN 150700Z AUTO 23008KT 7SM 29/10 A2988 RMK T02900100 IEM_DS3505
ZBYN,1990-06-15 09:00,ZBYN 150900Z AUTO 18004KT 12SM 28/09 A2985 RMK SLP086 T02840092 57012 IEM_DS3505
ZBYN,1990-06-15 10:00,ZBYN 151000Z AUTO 21008KT 7SM 28/10 A2985 RMK T02800100 IEM_DS3505
ZBYN,1990-06-15 11:00,ZBYN 151100Z AUTO 21002KT 7SM 28/14 A2988 RMK T02800140 IEM_DS3505
ZBYN,1990-06-15 12:00,ZBYN 151200Z AUTO 00000KT 12SM 24/14 A2988 RMK SLP084 T02360145 57001 IEM_DS3505
ZBYN,1990-06-15 13:00,ZBYN 151300Z AUTO 09006KT 7SM 20/15 A2988 RMK T02000150 IEM_DS3505
ZBYN,1990-06-15 14:00,ZBYN 151400Z AUTO 11004KT 7SM 20/12 A2991 RMK T02000120 IEM_DS3505
ZBYN,1990-06-15 15:00,ZBYN 151500Z AUTO 16004KT 12SM 18/12 RMK SLP097 T01830115 52012 IEM_DS3505
ZBYN,1990-06-15 16:00,ZBYN 151600Z AUTO 11008KT 7SM 19/12 A2994 RMK T01900120 IEM_DS3505
ZBYN,1990-06-15 17:00,ZBYN 151700Z AUTO 12004KT 7SM 18/13 A2991 RMK T01800130 IEM_DS3505
ZBYN,1990-06-15 18:00,ZBYN 151800Z AUTO 00000KT 12SM 16/12 A2994 RMK SLP095 T01620122 40287//// 52002 IEM_DS3505
ZBYN,1990-06-15 19:00,ZBYN 151900Z AUTO 11004KT 7SM 17/13 A2991 RMK T01700130 IEM_DS3505
ZBYN,1990-06-15 20:00,ZBYN 152000Z AUTO 09006KT 7SM 17/12 A2991 RMK T01700120 IEM_DS3505
ZBYN,1990-06-15 21:00,ZBYN 152100Z AUTO 00000KT 9SM 14/12 A2991 RMK SLP101 T01390123 52003 IEM_DS3505
ZBYN,1990-06-15 22:00,ZBYN 152200Z AUTO 12004KT 6SM 16/12 A2994 RMK T01600120 IEM_DS3505
ZBYN,1990-06-15 23:00,ZBYN 152300Z AUTO 21008KT 7SM A2985 RMK IEM_DS3505
ZBYN,1990-06-16 00:00,ZBYN 160000Z AUTO 00000KT 9SM 21/14 A2994 RMK SLP102 T02130140 52005 IEM_DS3505
ZBYN,1990-06-16 03:00,ZBYN 160300Z AUTO 16006KT 9SM 26/14 RMK SLP089 T02590138 57013 IEM_DS3505
ZBYN,1990-06-16 04:00,ZBYN 160400Z AUTO 13006KT 6SM 23/13 A2994 RMK T02300130 IEM_DS3505
ZBYN,1990-06-16 05:00,ZBYN 160500Z AUTO 25008KT 6SM 27/13 A2985 RMK T02700130 IEM_DS3505
ZBYN,1990-06-16 06:00,ZBYN 160600Z AUTO 20006KT 9SM 28/13 A2983 RMK SLP063 T02770128 57024 IEM_DS3505
ZBYN,1990-06-16 07:00,ZBYN 160700Z AUTO 15008KT 6SM 29/11 A2983 RMK T02900110 IEM_DS3505
ZBYN,1990-06-16 08:00,ZBYN 160800Z AUTO 21012KT 6SM 28/11 A2980 RMK T02800110 IEM_DS3505
ZBYN,1990-06-16 09:00,ZBYN 160900Z AUTO 14010KT 12SM 26/11 A2980 RMK SLP054 T02610108 57014 IEM_DS3505
ZBYN,1990-06-16 11:00,ZBYN 161100Z AUTO 17012KT 6SM 26/11 A2977 RMK T02600110 IEM_DS3505
ZBYN,1990-06-16 12:00,ZBYN 161200Z AUTO 16004KT 12SM 22/10 A2980 RMK SLP054 T02230102 52005 IEM_DS3505
ZBYN,1990-06-16 13:00,ZBYN 161300Z AUTO 16006KT 6SM 22/09 A2980 RMK T02200090 IEM_DS3505
ZBYN,1990-06-16 14:00,ZBYN 161400Z AUTO 12006KT 7SM 21/10 A2980 RMK T02100100 IEM_DS3505
ZBYN,1990-06-16 15:00,ZBYN 161500Z AUTO 11004KT 9SM 20/11 A2983 RMK SLP058 T02000107 52007 IEM_DS3505
ZBYN,1990-06-16 16:00,ZBYN 161600Z AUTO 12004KT 7SM 20/11 A2980 RMK T02000110 IEM_DS3505
ZBYN,1990-06-16 17:00,ZBYN 161700Z AUTO 09006KT 7SM 19/11 A2980 RMK T01900110 IEM_DS3505
ZBYN,1990-06-16 18:00,ZBYN 161800Z AUTO 11006KT 9SM 18/10 A2980 RMK SLP052 T01810098 40288//// 57006 IEM_DS3505
ZBYN,1990-06-16 19:00,ZBYN 161900Z AUTO 11004KT 6SM 19/11 A2980 RMK T01900110 IEM_DS3505
ZBYN,1990-06-16 20:00,ZBYN 162000Z AUTO 09006KT 6SM 18/11 A2980 RMK T01800110 IEM_DS3505
ZBYN,1990-06-16 21:00,ZBYN 162100Z AUTO 00000KT 7SM 16/12 A2980 RMK SLP059 T01600120 52002 IEM_DS3505
ZBYN,1990-06-16 22:00,ZBYN 162200Z AUTO 00000KT 6SM 17/12 A2980 RMK T01700120 IEM_DS3505
ZBYN,1990-06-16 23:00,ZBYN 162300Z AUTO 11006KT 6SM 19/13 A2980 RMK T01900130 IEM_DS3505
ZBYN,1990-06-17 00:00,ZBYN 170000Z AUTO 14002KT 11SM 19/14 A2980 RMK SLP066 T01860136 52004 IEM_DS3505
ZBYN,1990-06-17 01:00,ZBYN 170100Z AUTO 00000KT 7SM 20/14 A2983 RMK T02000140 IEM_DS3505
ZBYN,1990-06-17 02:00,ZBYN 170200Z AUTO 21010KT 7SM 20/12 A2985 RMK T02000120 IEM_DS3505
ZBYN,1990-06-17 03:00,ZBYN 170300Z AUTO 16006KT 7SM 18/14 A2985 RMK SLP073 T01830138 52003 IEM_DS3505
ZBYN,1990-06-17 04:00,ZBYN 170400Z AUTO 15006KT 7SM 18/14 A2985 RMK T01800140 IEM_DS3505
ZBYN,1990-06-17 05:00,ZBYN 170500Z AUTO 17006KT 19/14 A2985 RMK T01900140 IEM_DS3505
ZBYN,1990-06-17 06:00,ZBYN 170600Z AUTO 16006KT 6SM 18/15 A2985 RMK 60000 SLP077 T01850152 4////0152 52001 IEM_DS3505
ZBYN,1990-06-17 07:00,ZBYN 170700Z AUTO 18004KT 7SM 19/15 A2985 RMK T01900150 IEM_DS3505
ZBYN,1990-06-17 08:00,ZBYN 170800Z AUTO 19008KT 7SM 20/14 A2983 RMK T02000140 IEM_DS3505
ZBYN,1990-06-17 09:00,ZBYN 170900Z AUTO 18004KT 7SM 20/15 A2983 RMK SLP056 T02000153 52004 IEM_DS3505
ZBYN,1990-06-17 10:00,ZBYN 171000Z AUTO 23010KT 6SM 20/15 A2977 RMK T02000150 IEM_DS3505
ZBYN,1990-06-17 11:00,ZBYN 171100Z AUTO 18006KT 6SM 20/15 A2980 RMK T02000150 IEM_DS3505
ZBYN,1990-06-17 12:00,ZBYN 171200Z AUTO 14004KT 7SM 18/16 A2980 RMK SLP073 T01840156 52003 IEM_DS3505
ZBYN,1990-06-17 13:00,ZBYN 171300Z AUTO 13004KT 6SM 18/16 A2983 RMK T01800160 IEM_DS3505
ZBYN,1990-06-17 15:00,ZBYN 171500Z AUTO 00000KT 6SM 17/16 A2985 RMK SLP088 T01730155 52012 IEM_DS3505
ZBYN,1990-06-17 16:00,ZBYN 171600Z AUTO 00000KT 6SM 18/16 A2985 RMK T01800160 IEM_DS3505
ZBYN,1990-06-17 17:00,ZBYN 171700Z AUTO 00000KT 6SM 18/16 A2983 RMK T01800160 IEM_DS3505
ZBYN,1990-06-17 18:00,ZBYN 171800Z AUTO 00000KT 6SM 18/16 A2985 RMK SLP080 T01790160 40206//// 57006 IEM_DS3505
ZBYN,1990-06-17 19:00,ZBYN 171900Z AUTO 00000KT 6SM 18/16 A2983 RMK T01800160 IEM_DS3505
ZBYN,1990-06-17 20:00,ZBYN 172000Z AUTO 20004KT 4SM 17/16 A2983 RMK T01700160 IEM_DS3505
ZBYN,1990-06-17 21:00,ZBYN 172100Z AUTO 00000KT 6SM 17/16 A2983 RMK SLP080 T01670162 54000 IEM_DS3505
ZBYN,1990-06-17 22:00,ZBYN 172200Z AUTO 00000KT 2SM 17/16 A2985 RMK T01700160 IEM_DS3505
ZBYN,1990-06-17 23:00,ZBYN 172300Z AUTO 00000KT 6SM 18/16 A2985 RMK T01800160 IEM_DS3505
ZBYN,1990-06-18 00:00,ZBYN 180000Z AUTO 09002KT 6SM 18/16 A2985 RMK SLP087 T01750164 52005 IEM_DS3505
ZBYN,1990-06-18 01:00,ZBYN 180100Z AUTO 00000KT 2SM 18/17 A2985 RMK T01800170 IEM_DS3505
ZBYN,1990-06-18 02:00,ZBYN 180200Z AUTO 00000KT 2 1/2SM 19/17 A2985 RMK T01900170 IEM_DS3505
ZBYN,1990-06-18 03:00,ZBYN 180300Z AUTO 18004KT 5SM 22/18 A2985 RMK SLP078 T02170175 57003 IEM_DS3505
ZBYN,1990-06-18 04:00,ZBYN 180400Z AUTO 21004KT 4SM 23/17 A2983 RMK T02300170 IEM_DS3505
ZBYN,1990-06-18 05:00,ZBYN 180500Z AUTO 22008KT 5SM 24/18 A2988 RMK T02400180 IEM_DS3505
ZBYN,1990-06-18 06:00,ZBYN 180600Z AUTO 18006KT 6SM 25/17 A2983 RMK SLP057 T02460170 4////0157 57015 IEM_DS3505
ZBYN,1990-06-18 07:00,ZBYN 180700Z AUTO 24006KT 6SM 25/17 A2980 RMK T02500170 IEM_DS3505
ZBYN,1990-06-18 08:00,ZBYN 180800Z AUTO 24006KT 6SM 25/17 A2977 RMK T02500170 IEM_DS3505
ZBYN,1990-06-18 09:00,ZBYN 180900Z AUTO 20006KT 6SM 25/18 A2977 RMK SLP052 T02460180 57006 IEM_DS3505
ZBYN,1990-06-18 10:00,ZBYN 181000Z AUTO 20006KT 6SM 24/17 A2977 RMK T02400170 IEM_DS3505
ZBYN,1990-06-18 12:00,ZBYN 181200Z AUTO 20008KT 7SM 22/18 RMK SLP061 T02210176 52006 IEM_DS3505
ZBYN,1990-06-18 13:00,ZBYN 181300Z AUTO 19006KT 6SM 24/17 A2977 RMK T02400170 IEM_DS3505
ZBYN,1990-06-18 15:00,ZBYN 181500Z AUTO 14004KT 6SM 18/17 RMK SLP087 T01850171 52025 IEM_DS3505
ZBYN,1990-06-18 16:00,ZBYN 181600Z AUTO 12006KT 5SM 19/17 A2988 RMK T01900170 IEM_DS3505
ZBYN,1990-06-18 17:00,ZBYN 181700Z AUTO 12006KT 5SM 19/17 A2988 RMK T01900170 IEM_DS3505
ZBYN,1990-06-18 18:00,ZBYN 181800Z AUTO 00000KT 5SM 18/17 RMK SLP079 T01830172 40252//// 57004 IEM_DS3505
ZBYN,1990-06-18 19:00,ZBYN 181900Z AUTO 13004KT 4SM 19/17 A2988 RMK T01900170 IEM_DS3505
ZBYN,1990-06-18 20:00,ZBYN 182000Z AUTO 16006KT 4SM 19/17 A2985 RMK T01900170 IEM_DS3505
ZBYN,1990-06-18 21:00,ZBYN 182100Z AUTO 16002KT 5SM 18/17 RMK SLP082 T01830172 52003 IEM_DS3505
ZBYN,1990-06-18 22:00,ZBYN 182200Z AUTO 00000KT 4SM 19/17 A2988 RMK T01900170 IEM_DS3505
ZBYN,1990-06-18 23:00,ZBYN 182300Z AUTO 00000KT 4SM 19/17 A2991 RMK T01900170 IEM_DS3505
ZBYN,1990-06-19 00:00,ZBYN 190000Z AUTO 00000KT 3SM 20/17 A2988 RMK SLP092 T02010173 52008 IEM_DS3505
ZBYN,1990-06-19 01:00,ZBYN 190100Z AUTO 18006KT 3SM 21/17 A2991 RMK T02100170 IEM_DS3505
ZBYN,1990-06-19 02:00,ZBYN 190200Z AUTO 17004KT 4SM 21/17 A2988 RMK T02100170 IEM_DS3505
ZBYN,1990-06-19 03:00,ZBYN 190300Z AUTO 20006KT 4SM 22/17 A2988 RMK SLP096 T02160172 52001 IEM_DS3505
ZBYN,1990-06-19 04:00,ZBYN 190400Z AUTO 18004KT 5SM 22/17 A2988 RMK T02200170 IEM_DS3505
ZBYN,1990-06-19 05:00,ZBYN 190500Z AUTO 20004KT 5SM 23/18 A2988 RMK T02300180 IEM_DS3505
ZBYN,1990-06-19 06:00,ZBYN 190600Z AUTO 20006KT 4SM 24/18 A2985 RMK SLP083 T02370181 4////0169 57010 IEM_DS3505
ZBYN,1990-06-19 07:00,ZBYN 190700Z AUTO 21006KT 5SM 25/18 A2985 RMK T02500180 IEM_DS3505
ZBYN,1990-06-19 08:00,ZBYN 190800Z AUTO 20010KT 6SM 25/18 A2983 RMK T02500180 IEM_DS3505
ZBYN,1990-06-19 09:00,ZBYN 190900Z AUTO 18006KT 4SM 25/18 A2983 RMK SLP066 T02460180 57014 IEM_DS3505
ZBYN,1990-06-19 10:00,ZBYN 191000Z AUTO 21006KT 6SM 24/17 A2983 RMK T02400170 IEM_DS3505
ZBYN,1990-06-19 11:00,ZBYN 191100Z AUTO 17006KT 6SM 23/17 A2985 RMK T02300170 IEM_DS3505
ZBYN,1990-06-19 12:00,ZBYN 191200Z AUTO 18006KT 4SM 22/17 A2985 RMK SLP074 T02200168 52006 IEM_DS3505
ZBYN,1990-06-19 13:00,ZBYN 191300Z AUTO 20006KT 6SM 21/16 A2988 RMK T02100160 IEM_DS3505
ZBYN,1990-06-19 15:00,ZBYN 191500Z AUTO 14006KT 6SM 18/16 A2991 RMK SLP094 T01820156 52015 IEM_DS3505
ZBYN,1990-06-19 16:00,ZBYN 191600Z AUTO 13006KT 6SM 17/14 A2991 RMK T01700140 IEM_DS3505
ZBYN,1990-06-19 18:00,ZBYN 191800Z AUTO 14006KT 6SM 15/13 RMK SLP085 T01530129 40250//// 57009 IEM_DS3505
ZBYN,1990-06-19 21:00,ZBYN 192100Z AUTO 3SM 13/12 RMK SLP075 T01320120 57011 IEM_DS3505
ZBYN,1990-06-19 22:00,ZBYN 192200Z AUTO 14004KT 6SM 15/13 A2983 RMK T01500130 IEM_DS3505
ZBYN,1990-06-19 23:00,ZBYN 192300Z AUTO 00000KT 6SM 16/14 A2983 RMK T01600140 IEM_DS3505
ZBYN,1990-06-20 00:00,ZBYN 200000Z AUTO 00000KT 5SM 17/14 A2983 RMK SLP070 T01660137 57003 IEM_DS3505
ZBYN,1990-06-20 02:00,ZBYN 200200Z AUTO 17006KT 6SM 19/14 A2980 RMK T01900140 IEM_DS3505
ZBYN,1990-06-20 03:00,ZBYN 200300Z AUTO 16006KT 6SM 21/16 RMK SLP062 T02130157 57006 IEM_DS3505
ZBYN,1990-06-20 05:00,ZBYN 200500Z AUTO 21008KT 6SM 24/12 A2974 RMK T02400120 IEM_DS3505
ZBYN,1990-06-20 06:00,ZBYN 200600Z AUTO 18008KT 7SM 26/15 A2971 RMK SLP029 T02590153 4////0126 57028 IEM_DS3505
ZBYN,1990-06-20 07:00,ZBYN 200700Z AUTO 24016KT 7SM 27/13 A2968 RMK T02700130 IEM_DS3505
ZBYN,1990-06-20 08:00,ZBYN 200800Z AUTO 24012KT 7SM 28/20 A2968 RMK T02800200 IEM_DS3505
ZBYN,1990-06-20 09:00,ZBYN 200900Z AUTO 18006KT 9SM 28/14 A2965 RMK SLP013 T02790139 57015 IEM_DS3505
ZBYN,1990-06-20 10:00,ZBYN 201000Z AUTO 18006KT 7SM 28/21 A2965 RMK T02800210 IEM_DS3505
ZBYN,1990-06-20 11:00,ZBYN 201100Z AUTO 18008KT 7SM 27/20 A2965 RMK T02700200 IEM_DS3505
ZBYN,1990-06-20 12:00,ZBYN 201200Z AUTO 16004KT 12SM 24/15 A2965 RMK SLP014 T02360147 54000 IEM_DS3505
ZBYN,1990-06-20 13:00,ZBYN 201300Z AUTO 09006KT 7SM 22/16 A2968 RMK T02200160 IEM_DS3505
ZBYN,1990-06-20 15:00,ZBYN 201500Z AUTO 04004KT 7SM 21/17 A2974 RMK T02100170 IEM_DS3505
ZBYN,1990-06-20 16:00,ZBYN 201600Z AUTO 16008KT 7SM 19/16 A2971 RMK T01900160 IEM_DS3505
ZBYN,1990-06-20 17:00,ZBYN 201700Z AUTO 09004KT 7SM 19/16 A2971 RMK T01900160 IEM_DS3505
ZBYN,1990-06-20 18:00,ZBYN 201800Z AUTO 11004KT 12SM 16/15 A2971 RMK SLP025 T01640146 40280//// 57015 IEM_DS3505
ZBYN,1990-06-20 19:00,ZBYN 201900Z AUTO 10004KT 6SM 18/16 A2971 RMK T01800160 IEM_DS3505
ZBYN,1990-06-20 20:00,ZBYN 202000Z AUTO 11006KT 6SM 18/16 A2971 RMK T01800160 IEM_DS3505
ZBYN,1990-06-20 21:00,ZBYN 202100Z AUTO 14004KT 5SM 16/15 A2971 RMK T01600148 57001 IEM_DS3505
ZBYN,1990-06-20 22:00,ZBYN 202200Z AUTO 12006KT 7SM 17/15 A2971 RMK T01700150 IEM_DS3505
ZBYN,1990-06-20 23:00,ZBYN 202300Z AUTO 00000KT 7SM 19/16 A2971 RMK T01900160 IEM_DS3505
ZBYN,1990-06-21 00:00,ZBYN 210000Z AUTO 16004KT 4SM 19/16 A2974 RMK SLP035 T01940160 52011 IEM_DS3505
ZBYN,1990-06-21 01:00,ZBYN 210100Z AUTO 23008KT 7SM 22/17 A2977 RMK T02200170 IEM_DS3505
ZBYN,1990-06-21 02:00,ZBYN 210200Z AUTO 16006KT 7SM 24/20 A2974 RMK T02400200 IEM_DS3505
ZBYN,1990-06-21 03:00,ZBYN 210300Z AUTO 20006KT 9SM 26/17 RMK SLP020 T02650166 57008 IEM_DS3505
ZBYN,1990-06-21 04:00,ZBYN 210400Z AUTO 20006KT 7SM 29/23 A2971 RMK T02900230 IEM_DS3505
ZBYN,1990-06-21 05:00,ZBYN 210500Z AUTO 15006KT 7SM 31/28 A2968 RMK T03100280 IEM_DS3505
ZBYN,1990-06-21 06:00,ZBYN 210600Z AUTO 04002KT 12SM 32/12 A2968 RMK SLP999 T03180124 4////0146 57018 IEM_DS3505
ZBYN,1990-06-21 07:00,ZBYN 210700Z AUTO 00000KT 7SM 33/09 A2965 RMK T03300090 IEM_DS3505
ZBYN,1990-06-21 08:00,ZBYN 210800Z AUTO 30014KT 7SM 33/02 A2962 RMK T03300020 IEM_DS3505
ZBYN,1990-06-21 09:00,ZBYN 210900Z AUTO 34012KT 7SM 33/03 A2962 RMK T03300030 IEM_DS3505
ZBYN,1990-06-21 10:00,ZBYN 211000Z AUTO 34014KT 7SM 32/ A2962 RMK IEM_DS3505
ZBYN,1990-06-21 11:00,ZBYN 211100Z AUTO 03004KT 6SM 30/07 A2962 RMK T03000070 IEM_DS3505
ZBYN,1990-06-21 12:00,ZBYN 211200Z AUTO 00000KT 12SM 28/10 A2965 RMK SLP998 T02770096 52008 IEM_DS3505
ZBYN,1990-06-21 13:00,ZBYN 211300Z AUTO 15004KT 7SM 25/10 A2965 RMK T02500100 IEM_DS3505
ZBYN,1990-06-21 14:00,ZBYN 211400Z AUTO 20014KT 7SM 28/05 A2971 RMK T02800050 IEM_DS3505
ZBYN,1990-06-21 15:00,ZBYN 211500Z AUTO 16008KT 9SM 25/09 A2971 RMK SLP005 T02460088 52012 IEM_DS3505
ZBYN,1990-06-21 16:00,ZBYN 211600Z AUTO 04006KT 7SM 25/07 A2974 RMK T02500070 IEM_DS3505
ZBYN,1990-06-21 17:00,ZBYN 211700Z AUTO 25006KT 7SM 21/09 A2974 RMK T02100090 IEM_DS3505
ZBYN,1990-06-21 18:00,ZBYN 211800Z AUTO 34006KT 7SM 19/10 A2971 RMK SLP021 T01890095 40334//// 52014 IEM_DS3505
ZBYN,1990-06-21 19:00,ZBYN 211900Z AUTO 12004KT 7SM 20/10 A2968 RMK T02000100 IEM_DS3505
ZBYN,1990-06-21 20:00,ZBYN 212000Z AUTO 00000KT 7SM 17/11 A2968 RMK T01700110 IEM_DS3505
ZBYN,1990-06-21 21:00,ZBYN 212100Z AUTO 32002KT 6SM 15/11 A2968 RMK SLP012 T01490108 57013 IEM_DS3505
ZBYN,1990-06-21 23:00,ZBYN 212300Z AUTO 00000KT 7SM 17/13 A2971 RMK T01700130 IEM_DS3505
ZBYN,1990-06-22 00:00,ZBYN 220000Z AUTO 00000KT 6SM 22/13 A2974 RMK SLP025 T02190130 52015 IEM_DS3505
ZBYN,1990-06-22 01:00,ZBYN 220100Z AUTO 00000KT 6SM 24/12 A2974 RMK T02400120 IEM_DS3505
ZBYN,1990-06-22 02:00,ZBYN 220200Z AUTO 30006KT 7SM 26/11 A2977 RMK T02600110 IEM_DS3505
ZBYN,1990-06-22 03:00,ZBYN 220300Z AUTO 25004KT 7SM 28/11 A2977 RMK SLP028 T02750112 52006 IEM_DS3505
ZBYN,1990-06-22 04:00,ZBYN 220400Z AUTO 32016KT 7SM 29/ A2977 RMK IEM_DS3505
ZBYN,1990-06-22 05:00,ZBYN 220500Z AUTO 33019KT 7SM 30/14 A2977 RMK T03000140 IEM_DS3505
ZBYN,1990-06-22 06:00,ZBYN 220600Z AUTO 32008KT 12SM 29/ A2974 RMK SLP032 4////0128 57002 IEM_DS3505
ZBYN,1990-06-22 07:00,ZBYN 220700Z AUTO 33019KT 7SM 30/23 A2974 RMK T03000230 IEM_DS3505
ZBYN,1990-06-22 08:00,ZBYN 220800Z AUTO 32017KT 7SM 30/23 A2974 RMK T03000230 IEM_DS3505
ZBYN,1990-06-22 09:00,ZBYN 220900Z AUTO 34008KT 12SM 29/ A2974 RMK SLP037 57001 IEM_DS3505
ZBYN,1990-06-22 10:00,ZBYN 221000Z AUTO 31012KT 6SM 29/23 A2974 RMK T02900230 IEM_DS3505
ZBYN,1990-06-22 11:00,ZBYN 221100Z AUTO 33010KT 6SM 28/21 A2977 RMK T02800210 IEM_DS3505
ZBYN,1990-06-22 12:00,ZBYN 221200Z AUTO 36004KT 12SM 26/ A2980 RMK SLP048 52015 IEM_DS3505
ZBYN,1990-06-22 13:00,ZBYN 221300Z AUTO 06006KT 6SM 23/15 A2983 RMK T02300150 IEM_DS3505
ZBYN,1990-06-22 14:00,ZBYN 221400Z AUTO 30014KT 6SM 20/15 A2985 RMK T02000150 IEM_DS3505
ZBYN,1990-06-22 15:00,ZBYN 221500Z AUTO 36002KT 12SM 21/08 RMK SLP066 T02100079 52018 IEM_DS3505
ZBYN,1990-06-22 18:00,ZBYN 221800Z AUTO 34004KT 12SM 19/06 A2985 RMK SLP069 T01860055 40295//// 52001 IEM_DS3505
ZBYN,1990-06-22 19:00,ZBYN 221900Z AUTO 36006KT 6SM 18/13 A2985 RMK T01800130 IEM_DS3505
ZBYN,1990-06-22 21:00,ZBYN 222100Z AUTO 34004KT 11SM 17/06 A2985 RMK SLP076 T01740063 52005 IEM_DS3505
ZBYN,1990-06-22 22:00,ZBYN 222200Z AUTO 07004KT 6SM 17/13 A2985 RMK T01700130 IEM_DS3505
ZBYN,1990-06-23 00:00,ZBYN 230000Z AUTO 34002KT 9SM 18/08 A2991 RMK SLP090 T01850085 52010 IEM_DS3505
ZBYN,1990-06-23 01:00,ZBYN 230100Z AUTO 00000KT 6SM 22/13 A2988 RMK T02200130 IEM_DS3505
ZBYN,1990-06-23 02:00,ZBYN 230200Z AUTO 00000KT 6SM 22/13 A2988 RMK T02200130 IEM_DS3505
ZBYN,1990-06-23 03:00,ZBYN 230300Z AUTO 00000KT 5SM 23/15 A2991 RMK SLP087 T02340147 57003 IEM_DS3505
ZBYN,1990-06-23 04:00,ZBYN 230400Z AUTO 24004KT 6SM 27/16 A2988 RMK T02700160 IEM_DS3505
ZBYN,1990-06-23 05:00,ZBYN 230500Z AUTO 15006KT 6SM 28/20 A2985 RMK T02800200 IEM_DS3505
ZBYN,1990-06-23 06:00,ZBYN 230600Z AUTO 18010KT 6SM 28/15 A2985 RMK SLP064 T02830152 4////0164 57017 IEM_DS3505
ZBYN,1990-06-23 07:00,ZBYN 230700Z AUTO 17012KT 6SM 29/21 A2980 RMK T02900210 IEM_DS3505
ZBYN,1990-06-23 08:00,ZBYN 230800Z AUTO 20010KT 6SM 30/23 A2980 RMK T03000230 IEM_DS3505
ZBYN,1990-06-23 09:00,ZBYN 230900Z AUTO 20004KT 12SM 29/ A2980 RMK SLP045 57018 IEM_DS3505
ZBYN,1990-06-23 10:00,ZBYN 231000Z AUTO 20006KT 6SM 30/22 A2977 RMK T03000220 IEM_DS3505
ZBYN,1990-06-23 11:00,ZBYN 231100Z AUTO 13004KT 6SM 29/21 A2980 RMK T02900210 IEM_DS3505
ZBYN,1990-06-23 12:00,ZBYN 231200Z AUTO 11004KT 12SM 25/16 A2980 RMK SLP059 T02480158 IEM_DS3505
ZBYN,1990-06-23 13:00,ZBYN 231300Z AUTO 08004KT 6SM 25/19 A2983 RMK T02500190 IEM_DS3505
ZBYN,1990-06-23 14:00,ZBYN 231400Z AUTO 09006KT 6SM 25/19 A2985 RMK T02500190 IEM_DS3505
ZBYN,1990-06-23 15:00,ZBYN 231500Z AUTO 16004KT 12SM 22/16 A2985 RMK SLP068 T02220162 52012 IEM_DS3505
ZBYN,1990-06-23 16:00,ZBYN 231600Z AUTO 06008KT 6SM 24/20 A2985 RMK T02400200 IEM_DS3505
ZBYN,1990-06-23 17:00,ZBYN 231700Z AUTO 09010KT 6SM 23/20 A2985 RMK T02300200 IEM_DS3505
ZBYN,1990-06-23 18:00,ZBYN 231800Z AUTO 00000KT 9SM 21/18 A2985 RMK SLP069 T02100181 40297//// 52006 IEM_DS3505
ZBYN,1990-06-23 19:00,ZBYN 231900Z AUTO 00000KT 6SM 21/18 A2988 RMK T02100180 IEM_DS3505
ZBYN,1990-06-23 20:00,ZBYN 232000Z AUTO 00000KT 7SM 21/16 A2985 RMK T02100160 IEM_DS3505
ZBYN,1990-06-23 21:00,ZBYN 232100Z AUTO 00000KT 6SM 19/18 A2985 RMK SLP075 T01900177 52003 IEM_DS3505
ZBYN,1990-06-23 22:00,ZBYN 232200Z AUTO 00000KT 7SM 20/17 A2985 RMK T02000170 IEM_DS3505
ZBYN,1990-06-23 23:00,ZBYN 232300Z AUTO 21004KT 6SM 20/17 A2985 RMK T02000170 IEM_DS3505
ZBYN,1990-06-24 00:00,ZBYN 240000Z AUTO 00000KT 5SM 20/18 A2988 RMK SLP079 T02030181 54000 IEM_DS3505
ZBYN,1990-06-24 01:00,ZBYN 240100Z AUTO 18006KT 7SM 23/19 A2988 RMK SLP066 T02300190 4////0175 57010 IEM_DS3505
ZBYN,1990-06-24 02:00,ZBYN 240200Z AUTO 00000KT 6SM 25/20 A2988 RMK T02500200 IEM_DS3505
ZBYN,1990-06-24 03:00,ZBYN 240300Z AUTO 18004KT 7SM 25/18 A2988 RMK SLP075 T02530175 54000 IEM_DS3505
ZBYN,1990-06-24 04:00,ZBYN 240400Z AUTO 20006KT 6SM 26/22 A2988 RMK T02600220 IEM_DS3505
ZBYN,1990-06-24 05:00,ZBYN 240500Z AUTO 19004KT 6SM 26/17 A2985 RMK T02600170 IEM_DS3505
ZBYN,1990-06-24 06:00,ZBYN 240600Z AUTO 18006KT 7SM 25/18 A2985 RMK SLP066 T02520180 4////0175 57010 IEM_DS3505
ZBYN,1990-06-24 07:00,ZBYN 240700Z AUTO 20008KT 6SM 25/16 A2985 RMK T02500160 IEM_DS3505
ZBYN,1990-06-24 08:00,ZBYN 240800Z AUTO 21006KT 7SM 25/16 A2985 RMK T02500160 IEM_DS3505
ZBYN,1990-06-24 09:00,ZBYN 240900Z AUTO 18010KT 9SM 23/17 A2983 RMK SLP068 T02300174 57004 IEM_DS3505
ZBYN,1990-06-24 09:26,ZBYN 240926Z AUTO 18010KT 7SM 24/17 A2983 RMK T02400170 IEM_DS3505
ZBYN,1990-06-24 10:00,ZBYN 241000Z AUTO 18008KT 7SM 22/17 A2983 RMK T02200170 IEM_DS3505
ZBYN,1990-06-24 12:00,ZBYN 241200Z AUTO 20004KT 6SM 19/18 A2985 RMK 60001 SLP078 T01910179 52005 IEM_DS3505
ZBYN,1990-06-24 13:00,ZBYN 241300Z AUTO 00000KT 7SM 19/18 A2985 RMK T01900180 IEM_DS3505
ZBYN,1990-06-24 14:00,ZBYN 241400Z AUTO 17004KT 7SM 18/17 A2988 RMK T01800170 IEM_DS3505
ZBYN,1990-06-24 15:00,ZBYN 241500Z AUTO 11004KT 5SM 18/18 A2991 RMK SLP090 T01770175 52016 IEM_DS3505
ZBYN,1990-06-24 16:00,ZBYN 241600Z AUTO 00000KT 7SM 17/17 A2991 RMK T01700170 IEM_DS3505
ZBYN,1990-06-24 18:00,ZBYN 241800Z AUTO 00000KT 5SM 17/17 RMK 60031 SLP073 T01740172 40265//// 57016 IEM_DS3505
ZBYN,1990-06-24 20:00,ZBYN 242000Z AUTO 00000KT 2 1/2SM 16/16 A2985 RMK T01600160 IEM_DS3505
ZBYN,1990-06-24 21:00,ZBYN 242100Z AUTO 00000KT 5SM 17/17 RMK 70024 SLP068 T01660166 57009 IEM_DS3505
ZBYN,1990-06-24 22:00,ZBYN 242200Z AUTO 30004KT 3SM 17/17 A2983 RMK T01700170 IEM_DS3505
ZBYN,1990-06-24 23:00,ZBYN 242300Z AUTO 00000KT 2 1/2SM 17/17 A2983 RMK T01700170 IEM_DS3505
ZBYN,1990-06-25 00:00,ZBYN 250000Z AUTO 00000KT 5SM 20/18 RMK SLP079 T02030181 54000 IEM_DS3505
ZBYN,1990-06-25 01:00,ZBYN 250100Z AUTO 35006KT 3SM 19/17 A2980 RMK T01900170 IEM_DS3505
ZBYN,1990-06-25 02:00,ZBYN 250200Z AUTO 00000KT 4SM 19/17 A2980 RMK T01900170 IEM_DS3505
ZBYN,1990-06-25 03:00,ZBYN 250300Z AUTO 34004KT 5SM 20/17 A2980 RMK SLP065 T01960171 57003 IEM_DS3505
ZBYN,1990-06-25 04:00,ZBYN 250400Z AUTO 00000KT 6SM 22/18 A2980 RMK T02200180 IEM_DS3505
ZBYN,1990-06-25 05:00,ZBYN 250500Z AUTO 00000KT 7SM 23/18 A2980 RMK T02300180 IEM_DS3505
ZBYN,1990-06-25 06:00,ZBYN 250600Z AUTO 00000KT 6SM 23/17 A2977 RMK 60000 SLP049 T02280172 4////0156 53010 IEM_DS3505
ZBYN,1990-06-25 07:00,ZBYN 250700Z AUTO 11010KT 7SM 22/17 A2977 RMK T02200170 IEM_DS3505
ZBYN,1990-06-25 09:00,ZBYN 250900Z AUTO 36004KT 5SM 21/18 RMK SLP041 T02090178 57011 IEM_DS3505
ZBYN,1990-06-25 10:00,ZBYN 251000Z AUTO 07004KT 7SM 22/17 A2971 RMK T02200170 IEM_DS3505
ZBYN,1990-06-25 11:00,ZBYN 251100Z AUTO 32004KT 7SM 21/18 A2971 RMK T02100180 IEM_DS3505
ZBYN,1990-06-25 12:00,ZBYN 251200Z AUTO 00000KT 9SM 21/18 A2971 RMK 60000 SLP039 T02100180 57001 IEM_DS3505
ZBYN,1990-06-25 13:00,ZBYN 251300Z AUTO 35004KT 7SM 20/18 A2974 RMK T02000180 IEM_DS3505
ZBYN,1990-06-25 14:00,ZBYN 251400Z AUTO 28004KT 6SM 20/18 A2974 RMK T02000180 IEM_DS3505
ZBYN,1990-06-25 15:00,ZBYN 251500Z AUTO 00000KT 6SM 20/17 A2974 RMK SLP047 T01990166 52009 IEM_DS3505
ZBYN,1990-06-25 16:00,ZBYN 251600Z AUTO 00000KT 5SM 19/18 A2974 RMK T01900180 IEM_DS3505
ZBYN,1990-06-25 17:00,ZBYN 251700Z AUTO 00000KT 5SM 19/18 A2974 RMK T01900180 IEM_DS3505
ZBYN,1990-06-25 18:00,ZBYN 251800Z AUTO 00000KT 5SM 19/18 A2974 RMK 60001 SLP035 T01870176 40230//// 57008 IEM_DS3505
ZBYN,1990-06-25 19:00,ZBYN 251900Z AUTO 00000KT 4SM 19/18 A2974 RMK T01900180 IEM_DS3505
ZBYN,1990-06-25 20:00,ZBYN 252000Z AUTO 00000KT 4SM 18/18 A2971 RMK T01800180 IEM_DS3505
ZBYN,1990-06-25 21:00,ZBYN 252100Z AUTO 00000KT 4SM 18/17 A2971 RMK 70008 SLP031 T01790174 57008 IEM_DS3505
ZBYN,1990-06-25 23:00,ZBYN 252300Z AUTO 00000KT 6SM 18/17 A2971 RMK T01800170 IEM_DS3505
ZBYN,1990-06-26 00:00,ZBYN 260000Z AUTO 00000KT 5SM 19/18 A2971 RMK 60002 70004 SLP037 T01860178 52006 IEM_DS3505
ZBYN,1990-06-26 01:00,ZBYN 260100Z AUTO 00000KT 4SM 19/18 A2974 RMK T01900180 IEM_DS3505
ZBYN,1990-06-26 03:00,ZBYN 260300Z AUTO 00000KT 5SM 21/18 A2971 RMK SLP034 T02100176 54000 IEM_DS3505
ZBYN,1990-06-26 04:00,ZBYN 260400Z AUTO 20006KT 7SM 24/19 A2968 RMK T02400190 IEM_DS3505
ZBYN,1990-06-26 05:00,ZBYN 260500Z AUTO 20006KT 7SM 24/19 A2968 RMK T02400190 IEM_DS3505
ZBYN,1990-06-26 06:00,ZBYN 260600Z AUTO 18004KT 6SM 25/18 A2965 RMK 60000 SLP009 T02480180 4////0166 57019 IEM_DS3505
ZBYN,1990-06-26 07:00,ZBYN 260700Z AUTO 18004KT 7SM 26/18 A2965 RMK T02600180 IEM_DS3505
ZBYN,1990-06-26 08:00,ZBYN 260800Z AUTO 00000KT 7SM 27/18 A2962 RMK T02700180 IEM_DS3505
ZBYN,1990-06-26 09:00,ZBYN 260900Z AUTO 20004KT 5SM 26/19 A2962 RMK SLP993 T02630188 IEM_DS3505
ZBYN,1990-06-26 10:00,ZBYN 261000Z AUTO 00000KT 7SM 27/18 A2959 RMK T02700180 IEM_DS3505
ZBYN,1990-06-26 11:00,ZBYN 261100Z AUTO 21004KT 7SM 26/18 A2962 RMK T02600180 IEM_DS3505
ZBYN,1990-06-26 12:00,ZBYN 261200Z AUTO 11002KT 6SM 23/19 A2965 RMK SLP006 T02270194 52008 IEM_DS3505
ZBYN,1990-06-26 13:00,ZBYN 261300Z AUTO 09004KT 7SM 22/19 A2965 RMK T02200190 IEM_DS3505
ZBYN,1990-06-26 14:00,ZBYN 261400Z AUTO 09004KT 7SM 21/19 A2965 RMK T02100190 IEM_DS3505
ZBYN,1990-06-26 15:00,ZBYN 261500Z AUTO 00000KT 6SM 20/19 A2965 RMK SLP005 T02000188 57001 IEM_DS3505
ZBYN,1990-06-26 16:00,ZBYN 261600Z AUTO 00000KT 7SM 20/18 A2965 RMK T02000180 IEM_DS3505
ZBYN,1990-06-26 17:00,ZBYN 261700Z AUTO 09006KT 7SM 19/18 A2968 RMK T01900180 IEM_DS3505
ZBYN,1990-06-26 18:00,ZBYN 261800Z AUTO 00000KT 4SM 18/17 A2968 RMK SLP013 T01840171 40265//// 52010 IEM_DS3505
ZBYN,1990-06-26 19:00,ZBYN 261900Z AUTO 00000KT 6SM 19/18 A2968 RMK T01900180 IEM_DS3505
ZBYN,1990-06-26 20:00,ZBYN 262000Z AUTO 09004KT 6SM 19/17 A2971 RMK T01900170 IEM_DS3505
ZBYN,1990-06-26 21:00,ZBYN 262100Z AUTO 00000KT 3SM 17/17 A2971 RMK SLP016 T01710168 52003 IEM_DS3505
ZBYN,1990-06-26 22:00,ZBYN 262200Z AUTO 00000KT 7SM 20/18 A2965 RMK T02000180 IEM_DS3505
ZBYN,1990-06-26 23:00,ZBYN 262300Z AUTO 00000KT 5SM 20/18 A2971 RMK T02000180 IEM_DS3505
ZBYN,1990-06-27 00:00,ZBYN 270000Z AUTO 00000KT 3SM 21/19 A2971 RMK SLP025 T02060186 52008 IEM_DS3505
ZBYN,1990-06-27 01:00,ZBYN 270100Z AUTO 00000KT 6SM 23/19 A2971 RMK T02300190 IEM_DS3505
ZBYN,1990-06-27 02:00,ZBYN 270200Z AUTO 00000KT 6SM 25/19 A2971 RMK T02500190 IEM_DS3505
ZBYN,1990-06-27 03:00,ZBYN 270300Z AUTO 22002KT 6SM 27/20 A2971 RMK SLP015 T02680195 57004 IEM_DS3505
ZBYN,1990-06-27 04:00,ZBYN 270400Z AUTO 24006KT 7SM 26/19 A2968 RMK T02600190 IEM_DS3505
ZBYN,1990-06-27 05:00,ZBYN 270500Z AUTO 29008KT 4SM 24/20 A2968 RMK T02400200 IEM_DS3505
ZBYN,1990-06-27 06:00,ZBYN 270600Z AUTO 25002KT 9SM 22/19 A2971 RMK 60000 SLP025 T02170186 4////0156 IEM_DS3505
ZBYN,1990-06-27 07:00,ZBYN 270700Z AUTO 17008KT 7SM 24/18 A2971 RMK T02400180 IEM_DS3505
ZBYN,1990-06-27 08:00,ZBYN 270800Z AUTO 00000KT 6SM 26/18 A2968 RMK T02600180 IEM_DS3505
ZBYN,1990-06-27 09:00,ZBYN 270900Z AUTO 18004KT 9SM 26/17 A2965 RMK SLP011 T02650173 57008 IEM_DS3505
ZBYN,1990-06-27 10:00,ZBYN 271000Z AUTO 12010KT 6SM 26/17 A2968 RMK T02600170 IEM_DS3505
ZBYN,1990-06-27 11:00,ZBYN 271100Z AUTO 11006KT 6SM 25/17 A2968 RMK T02500170 IEM_DS3505
ZBYN,1990-06-27 12:00,ZBYN 271200Z AUTO 16002KT 7SM 23/18 A2971 RMK SLP012 T02330183 52001 IEM_DS3505
ZBYN,1990-06-27 13:00,ZBYN 271300Z AUTO 09006KT 6SM 23/16 A2968 RMK T02300160 IEM_DS3505
ZBYN,1990-06-27 15:00,ZBYN 271500Z AUTO 34002KT 7SM 20/17 A2971 RMK SLP017 T01970172 52008 IEM_DS3505
ZBYN,1990-06-27 17:00,ZBYN 271700Z AUTO 00000KT 7SM 19/15 A2971 RMK T01900150 IEM_DS3505
ZBYN,1990-06-27 18:00,ZBYN 271800Z AUTO 00000KT 7SM 17/16 A2974 RMK SLP032 T01670161 40268//// 52003 IEM_DS3505
ZBYN,1990-06-27 19:00,ZBYN 271900Z AUTO 07006KT 7SM 17/15 A2971 RMK T01700150 IEM_DS3505
ZBYN,1990-06-27 20:00,ZBYN 272000Z AUTO 13006KT 7SM 17/15 A2971 RMK T01700150 IEM_DS3505
ZBYN,1990-06-27 21:00,ZBYN 272100Z AUTO 00000KT 5SM 15/14 A2974 RMK SLP040 T01500138 52011 IEM_DS3505
ZBYN,1990-06-27 22:00,ZBYN 272200Z AUTO 10004KT 7SM 17/15 A2974 RMK T01700150 IEM_DS3505
ZBYN,1990-06-27 23:00,ZBYN 272300Z AUTO 34006KT 2SM 18/17 A2974 RMK T01800170 IEM_DS3505
ZBYN,1990-06-28 00:00,ZBYN 280000Z AUTO 36004KT 4SM 20/16 A2977 RMK SLP044 T02010161 52007 IEM_DS3505
ZBYN,1990-06-28 01:00,ZBYN 280100Z AUTO 31002KT 4SM 24/15 A2977 RMK T02400150 IEM_DS3505
ZBYN,1990-06-28 02:00,ZBYN 280200Z AUTO 27004KT 7SM 26/15 A2977 RMK T02600150 IEM_DS3505
ZBYN,1990-06-28 03:00,ZBYN 280300Z AUTO 02002KT 6SM 27/11 A2977 RMK SLP033 T02740113 57005 IEM_DS3505
ZBYN,1990-06-28 04:00,ZBYN 280400Z AUTO 34010KT 6SM 29/10 A2974 RMK T02900100 IEM_DS3505
ZBYN,1990-06-28 05:00,ZBYN 280500Z AUTO 17006KT 7SM 30/10 A2971 RMK T03000100 IEM_DS3505
ZBYN,1990-06-28 06:00,ZBYN 280600Z AUTO 20004KT 6SM 30/11 RMK SLP013 T03050106 4////0140 57018 IEM_DS3505
ZBYN,1990-06-28 08:00,ZBYN 280800Z AUTO 22008KT 6SM 32/09 A2968 RMK T03200090 IEM_DS3505
ZBYN,1990-06-28 09:00,ZBYN 280900Z AUTO 20004KT 16SM 31/10 A2968 RMK SLP011 T03080103 57004 IEM_DS3505
ZBYN,1990-06-28 10:00,ZBYN 281000Z AUTO 20006KT 6SM 31/09 A2968 RMK T03100090 IEM_DS3505
ZBYN,1990-06-28 11:00,ZBYN 281100Z AUTO 00000KT 6SM 30/15 A2968 RMK T03000150 IEM_DS3505
ZBYN,1990-06-28 12:00,ZBYN 281200Z AUTO 00000KT 12SM 25/16 A2971 RMK SLP016 T02530164 52004 IEM_DS3505
ZBYN,1990-06-28 13:00,ZBYN 281300Z AUTO 36006KT 6SM 23/11 A2974 RMK T02300110 IEM_DS3505
ZBYN,1990-06-28 14:00,ZBYN 281400Z AUTO 35006KT 7SM 19/12 A2974 RMK T01900120 IEM_DS3505
ZBYN,1990-06-28 15:00,ZBYN 281500Z AUTO 32004KT 12SM 22/06 A2977 RMK SLP032 T02240057 52021 IEM_DS3505
ZBYN,1990-06-28 16:00,ZBYN 281600Z AUTO 16004KT 7SM 18/10 A2977 RMK T01800100 IEM_DS3505
ZBYN,1990-06-28 18:00,ZBYN 281800Z AUTO 00000KT 7SM 16/11 RMK SLP043 T01580106 40318//// 50011 IEM_DS3505
ZBYN,1990-06-28 21:00,ZBYN 282100Z AUTO 00000KT 6SM 14/11 RMK SLP048 T01370110 52002 IEM_DS3505
ZBYN,1990-06-28 22:00,ZBYN 282200Z AUTO 00000KT 6SM 14/10 A2980 RMK T01400100 IEM_DS3505
ZBYN,1990-06-28 23:00,ZBYN 282300Z AUTO 00000KT 6SM 18/13 A2983 RMK T01800130 IEM_DS3505
ZBYN,1990-06-29 00:00,ZBYN 290000Z AUTO 00000KT 6SM 21/12 A2983 RMK SLP060 T02060116 52013 IEM_DS3505
ZBYN,1990-06-29 01:00,ZBYN 290100Z AUTO 00000KT 7SM 24/13 A2983 RMK T02400130 IEM_DS3505
ZBYN,1990-06-29 02:00,ZBYN 290200Z AUTO 00000KT 7SM 26/14 A2983 RMK T02600140 IEM_DS3505
ZBYN,1990-06-29 03:00,ZBYN 290300Z AUTO 22004KT 6SM 28/13 A2983 RMK SLP052 T02760131 57002 IEM_DS3505
ZBYN,1990-06-29 04:00,ZBYN 290400Z AUTO 20008KT 7SM 29/13 A2983 RMK T02900130 IEM_DS3505
ZBYN,1990-06-29 05:00,ZBYN 290500Z AUTO 23004KT 7SM 31/12 A2980 RMK T03100120 IEM_DS3505
ZBYN,1990-06-29 06:00,ZBYN 290600Z AUTO 18006KT 7SM 32/12 A2980 RMK SLP040 T03220125 4////0124 57014 IEM_DS3505
ZBYN,1990-06-29 07:00,ZBYN 290700Z AUTO 00000KT 6SM 34/06 A2977 RMK T03400060 IEM_DS3505
ZBYN,1990-06-29 08:00,ZBYN 290800Z AUTO 23004KT 6SM 34/10 A2977 RMK T03400100 IEM_DS3505
ZBYN,1990-06-29 09:00,ZBYN 290900Z AUTO 18002KT 12SM 34/08 A2974 RMK SLP024 T03360085 57015 IEM_DS3505
ZBYN,1990-06-29 10:00,ZBYN 291000Z AUTO 25008KT 6SM 33/09 A2971 RMK T03300090 IEM_DS3505
ZBYN,1990-06-29 12:00,ZBYN 291200Z AUTO 22002KT 12SM 27/15 A2971 RMK SLP018 T02720146 57005 IEM_DS3505
ZBYN,1990-06-29 13:00,ZBYN 291300Z AUTO 12006KT 6SM 26/14 A2974 RMK T02600140 IEM_DS3505
ZBYN,1990-06-29 14:00,ZBYN 291400Z AUTO 17004KT 6SM 27/12 A2977 RMK T02700120 IEM_DS3505
ZBYN,1990-06-29 15:00,ZBYN 291500Z AUTO 14004KT 12SM 24/14 A2977 RMK SLP031 T02440136 52018 IEM_DS3505
ZBYN,1990-06-29 16:00,ZBYN 291600Z AUTO 15006KT 6SM 23/15 A2980 RMK T02300150 IEM_DS3505
ZBYN,1990-06-29 17:00,ZBYN 291700Z AUTO 15008KT 6SM 23/15 A2977 RMK T02300150 IEM_DS3505
ZBYN,1990-06-29 18:00,ZBYN 291800Z AUTO 14006KT 9SM 21/16 A2980 RMK SLP032 T02130160 40339//// 52003 IEM_DS3505
ZBYN,1990-06-29 19:00,ZBYN 291900Z AUTO 10004KT 6SM 21/16 A2977 RMK T02100160 IEM_DS3505
ZBYN,1990-06-29 20:00,ZBYN 292000Z AUTO 09004KT 6SM 21/16 A2977 RMK T02100160 IEM_DS3505
ZBYN,1990-06-29 21:00,ZBYN 292100Z AUTO 00000KT 6SM 18/16 A2977 RMK SLP033 T01830160 57002 IEM_DS3505
ZBYN,1990-06-29 22:00,ZBYN 292200Z AUTO 00000KT 6SM 18/17 A2977 RMK T01800170 IEM_DS3505
ZBYN,1990-06-29 23:00,ZBYN 292300Z AUTO 00000KT 5SM 20/17 A2977 RMK T02000170 IEM_DS3505
ZBYN,1990-06-30 00:00,ZBYN 300000Z AUTO 36004KT 5SM 21/14 A2980 RMK SLP042 T02140140 52004 IEM_DS3505
ZBYN,1990-06-30 01:00,ZBYN 300100Z AUTO 00000KT 6SM 25/16 A2980 RMK T02500160 IEM_DS3505
ZBYN,1990-06-30 02:00,ZBYN 300200Z AUTO 18002KT 6SM 26/17 A2980 RMK T02600170 IEM_DS3505
ZBYN,1990-06-30 03:00,ZBYN 300300Z AUTO 18004KT 6SM 26/17 A2980 RMK SLP038 T02610173 57001 IEM_DS3505
ZBYN,1990-06-30 04:00,ZBYN 300400Z AUTO 09004KT 6SM 29/18 A2977 RMK T02900180 IEM_DS3505
ZBYN,1990-06-30 05:00,ZBYN 300500Z AUTO 17004KT 6SM 29/18 A2977 RMK T02900180 IEM_DS3505
ZBYN,1990-06-30 06:00,ZBYN 300600Z AUTO 20004KT 6SM 29/18 A2977 RMK SLP031 T02870183 4////0174 57007 IEM_DS3505
ZBYN,1990-06-30 07:00,ZBYN 300700Z AUTO 25006KT 6SM 28/18 A2974 RMK T02800180 IEM_DS3505
ZBYN,1990-06-30 08:00,ZBYN 300800Z AUTO 00000KT 6SM 28/18 A2974 RMK T02800180 IEM_DS3505
ZBYN,1990-06-30 09:00,ZBYN 300900Z AUTO 18004KT 9SM 28/20 A2974 RMK SLP028 T02760198 57008 IEM_DS3505
ZBYN,1990-06-30 10:00,ZBYN 301000Z AUTO 00000KT 6SM 28/18 A2974 RMK T02800180 IEM_DS3505
ZBYN,1990-06-30 11:00,ZBYN 301100Z AUTO 20004KT 6SM 27/19 A2974 RMK T02700190 IEM_DS3505
ZBYN,1990-06-30 12:00,ZBYN 301200Z AUTO 18004KT 5SM 26/18 A2977 RMK SLP038 T02550180 52010 IEM_DS3505
ZBYN,1990-06-30 13:00,ZBYN 301300Z AUTO 22004KT 6SM 25/18 A2977 RMK T02500180 IEM_DS3505
ZBYN,1990-06-30 14:00,ZBYN 301400Z AUTO 17012KT 6SM 24/17 A2977 RMK T02400170 IEM_DS3505
ZBYN,1990-06-30 15:00,ZBYN 301500Z AUTO 18004KT 12SM 26/18 A2980 RMK SLP038 T02550180 52010 IEM_DS3505
ZBYN,1990-06-30 16:00,ZBYN 301600Z AUTO 20010KT 6SM 23/17 A2980 RMK T02300170 IEM_DS3505
ZBYN,1990-06-30 18:00,ZBYN 301800Z AUTO 16002KT 6SM 21/17 RMK SLP053 T02140167 40291//// 52004 IEM_DS3505
ZBYN,1990-06-30 21:00,ZBYN 302100Z AUTO 07002KT 5SM 20/16 A2983 RMK SLP049 T01980156 57007 IEM_DS3505
ZBYN,1990-06-30 22:00,ZBYN 302200Z AUTO 12006KT 7SM 20/15 A2985 RMK T02000150 IEM_DS3505
ZBYN,1990-07-01 00:00,ZBYN 010000Z AUTO 14004KT 6SM 21/15 A2985 RMK SLP066 T02060149 52014 IEM_DS3505
ZBYN,1990-07-01 01:00,ZBYN 010100Z AUTO 00000KT 7SM 21/15 A2985 RMK T02100150 IEM_DS3505
ZBYN,1990-07-01 02:00,ZBYN 010200Z AUTO 11006KT 7SM 22/14 A2985 RMK T02200140 IEM_DS3505
ZBYN,1990-07-01 03:00,ZBYN 010300Z AUTO 09010KT 6SM 20/16 A2988 RMK SLP083 T02050157 52012 IEM_DS3505
ZBYN,1990-07-01 04:00,ZBYN 010400Z AUTO 09006KT 7SM 21/16 A2988 RMK T02100160 IEM_DS3505
ZBYN,1990-07-01 05:00,ZBYN 010500Z AUTO 02006KT 7SM 19/16 A2988 RMK T01900160 IEM_DS3505
ZBYN,1990-07-01 06:00,ZBYN 010600Z AUTO 32004KT 6SM 19/16 A2985 RMK 60012 SLP087 T01940164 4////0183 57001 IEM_DS3505
ZBYN,1990-07-01 07:00,ZBYN 010700Z AUTO 33008KT 7SM 20/16 A2985 RMK T02000160 IEM_DS3505
ZBYN,1990-07-01 08:00,ZBYN 010800Z AUTO 01008KT 6SM 21/15 A2980 RMK T02100150 IEM_DS3505
ZBYN,1990-07-01 09:00,ZBYN 010900Z AUTO 04002KT 7SM 21/15 A2980 RMK SLP067 T02130153 57017 IEM_DS3505
ZBYN,1990-07-01 10:00,ZBYN 011000Z AUTO 00000KT 6SM 22/17 A2980 RMK T02200170 IEM_DS3505
ZBYN,1990-07-01 11:00,ZBYN 011100Z AUTO 08002KT 7SM 21/15 A2980 RMK T02100150 IEM_DS3505
ZBYN,1990-07-01 12:00,ZBYN 011200Z AUTO 00000KT 7SM 20/16 A2983 RMK 60004 SLP066 T02010164 57002 IEM_DS3505
ZBYN,1990-07-01 14:00,ZBYN 011400Z AUTO 11006KT 6SM 19/17 A2985 RMK T01900170 IEM_DS3505
ZBYN,1990-07-01 15:00,ZBYN 011500Z AUTO 16002KT 7SM 17/16 A2983 RMK SLP073 T01710158 52002 IEM_DS3505
ZBYN,1990-07-01 16:00,ZBYN 011600Z AUTO 10006KT 6SM 18/15 A2983 RMK T01800150 IEM_DS3505
ZBYN,1990-07-01 17:00,ZBYN 011700Z AUTO 07006KT 6SM 17/14 A2983 RMK T01700140 IEM_DS3505
ZBYN,1990-07-01 18:00,ZBYN 011800Z AUTO 00000KT 6SM 16/15 A2983 RMK SLP073 T01620154 40220//// 57003 IEM_DS3505
ZBYN,1990-07-01 20:00,ZBYN 012000Z AUTO 00000KT 6SM 16/15 A2980 RMK T01600150 IEM_DS3505
ZBYN,1990-07-01 21:00,ZBYN 012100Z AUTO 00000KT 6SM 15/15 A2980 RMK SLP068 T01530146 57003 IEM_DS3505
ZBYN,1990-07-01 22:00,ZBYN 012200Z AUTO 00000KT 4SM 16/15 A2980 RMK T01600150 IEM_DS3505
ZBYN,1990-07-01 23:00,ZBYN 012300Z AUTO 00000KT 4SM 17/16 A2980 RMK T01700160 IEM_DS3505
ZBYN,1990-07-02 00:00,ZBYN 020000Z AUTO 00000KT 6SM 18/16 A2983 RMK 60000 SLP070 T01810163 52004 IEM_DS3505
ZBYN,1990-07-02 02:00,ZBYN 020200Z AUTO 00000KT 6SM 21/16 A2994 RMK T02100160 IEM_DS3505
ZBYN,1990-07-02 03:00,ZBYN 020300Z AUTO 00000KT 6SM 24/15 RMK SLP053 T02420154 57011 IEM_DS3505
ZBYN,1990-07-02 04:00,ZBYN 020400Z AUTO 00000KT 6SM 21/16 A2994 RMK T02100160 IEM_DS3505
ZBYN,1990-07-02 05:00,ZBYN 020500Z AUTO 00000KT 7SM 26/15 A2974 RMK T02600150 IEM_DS3505
ZBYN,1990-07-02 06:00,ZBYN 020600Z AUTO 00000KT 7SM 26/16 A2971 RMK SLP032 T02610157 4////0148 57018 IEM_DS3505
ZBYN,1990-07-02 07:00,ZBYN 020700Z AUTO 03010KT 4SM 19/16 A2974 RMK T01900160 IEM_DS3505
ZBYN,1990-07-02 09:00,ZBYN 020900Z AUTO 00000KT 5SM 18/17 A2977 RMK SLP065 T01780168 52017 IEM_DS3505
ZBYN,1990-07-02 10:00,ZBYN 021000Z AUTO 00000KT 2SM 17/17 A2977 RMK T01700170 IEM_DS3505
ZBYN,1990-07-02 11:00,ZBYN 021100Z AUTO 00000KT 4SM 17/17 A2977 RMK T01700170 IEM_DS3505
ZBYN,1990-07-02 12:00,ZBYN 021200Z AUTO 00000KT 6SM 18/17 A2977 RMK 60020 SLP061 T01780172 52001 IEM_DS3505
ZBYN,1990-07-02 13:00,ZBYN 021300Z AUTO 00000KT 1 1/2SM 17/17 A2980 RMK T01700170 IEM_DS3505
ZBYN,1990-07-02 14:00,ZBYN 021400Z AUTO 00000KT 1 1/2SM 17/16 A2980 RMK T01700160 IEM_DS3505
ZBYN,1990-07-02 15:00,ZBYN 021500Z AUTO 00000KT 4SM 16/16 A2980 RMK SLP061 T01630163 52006 IEM_DS3505
ZBYN,1990-07-02 16:00,ZBYN 021600Z AUTO 00000KT 1 1/2SM 16/16 A2980 RMK T01600160 IEM_DS3505
ZBYN,1990-07-02 17:00,ZBYN 021700Z AUTO 00000KT 2SM 16/16 A2980 RMK T01600160 IEM_DS3505
ZBYN,1990-07-02 18:00,ZBYN 021800Z AUTO 00000KT 1SM 15/15 A2977 RMK SLP054 T01480146 57006 IEM_DS3505
ZBYN,1990-07-02 19:00,ZBYN 021900Z AUTO 32004KT 1SM 14/14 A2977 RMK T01400140 IEM_DS3505
ZBYN,1990-07-02 20:00,ZBYN 022000Z AUTO 00000KT 1SM 15/15 A2977 RMK T01500150 IEM_DS3505
ZBYN,1990-07-02 21:00,ZBYN 022100Z AUTO 00000KT 3/8SM 16/16 A2980 RMK 70020 SLP064 T01600155 57001 IEM_DS3505
ZBYN,1990-07-02 22:00,ZBYN 022200Z AUTO 00000KT 1/2SM 14/14 A2980 RMK T01400140 IEM_DS3505
ZBYN,1990-07-02 23:00,ZBYN 022300Z AUTO 00000KT 1SM 16/16 A2980 RMK T01600160 IEM_DS3505
ZBYN,1990-07-03 00:00,ZBYN 030000Z AUTO 04002KT 6SM 20/16 A2983 RMK SLP071 T02000163 52013 IEM_DS3505
ZBYN,1990-07-03 01:00,ZBYN 030100Z AUTO 10004KT 7SM 21/16 A2983 RMK T02100160 IEM_DS3505
ZBYN,1990-07-03 02:00,ZBYN 030200Z AUTO 22004KT 7SM 22/17 A2983 RMK T02200170 IEM_DS3505
ZBYN,1990-07-03 03:00,ZBYN 030300Z AUTO 00000KT 5SM 23/16 A2980 RMK SLP009 T02300164 54000 IEM_DS3505
ZBYN,1990-07-03 04:00,ZBYN 030400Z AUTO 20004KT 7SM 24/16 A2983 RMK T02400160 IEM_DS3505
ZBYN,1990-07-03 05:00,ZBYN 030500Z AUTO 00000KT 7SM 25/17 A2980 RMK T02500170 IEM_DS3505
ZBYN,1990-07-03 06:00,ZBYN 030600Z AUTO 20006KT 6SM 26/17 A2977 RMK SLP051 T02590169 4////0140 57015 IEM_DS3505
ZBYN,1990-07-03 07:00,ZBYN 030700Z AUTO 22008KT 7SM 26/17 A2974 RMK T02600170 IEM_DS3505
ZBYN,1990-07-03 08:00,ZBYN 030800Z AUTO 20004KT 7SM 27/19 A2974 RMK T02700190 IEM_DS3505
ZBYN,1990-07-03 09:00,ZBYN 030900Z AUTO 18004KT 6SM 27/17 A2971 RMK SLP029 T02670174 57017 IEM_DS3505
ZBYN,1990-07-03 10:00,ZBYN 031000Z AUTO 16008KT 7SM 27/15 A2974 RMK T02700150 IEM_DS3505
ZBYN,1990-07-03 11:00,ZBYN 031100Z AUTO 16008KT 7SM 27/15 A2974 RMK T02700150 IEM_DS3505
ZBYN,1990-07-03 12:00,ZBYN 031200Z AUTO 13006KT 7SM 24/16 A2974 RMK SLP034 T02400165 IEM_DS3505
ZBYN,1990-07-03 13:00,ZBYN 031300Z AUTO 09010KT 7SM 23/19 A2980 RMK T02300190 IEM_DS3505
ZBYN,1990-07-03 14:00,ZBYN 031400Z AUTO 09010KT 7SM 22/18 A2977 RMK T02200180 IEM_DS3505
ZBYN,1990-07-03 15:00,ZBYN 031500Z AUTO 09010KT 7SM 23/18 A2977 RMK SLP041 T02260177 52009 IEM_DS3505
ZBYN,1990-07-03 17:00,ZBYN 031700Z AUTO 08008KT 6SM 21/17 A2977 RMK T02100170 IEM_DS3505
ZBYN,1990-07-03 18:00,ZBYN 031800Z AUTO 11004KT 7SM 21/17 A2977 RMK SLP039 T02060173 40287//// 57001 IEM_DS3505
ZBYN,1990-07-03 19:00,ZBYN 031900Z AUTO 09006KT 6SM 20/17 A2974 RMK T02000170 IEM_DS3505
ZBYN,1990-07-03 20:00,ZBYN 032000Z AUTO 09006KT 6SM 20/17 A2971 RMK T02000170 IEM_DS3505
ZBYN,1990-07-03 21:00,ZBYN 032100Z AUTO 11006KT 6SM 20/17 A2971 RMK T02000170 IEM_DS3505
ZBYN,1990-07-03 22:00,ZBYN 032200Z AUTO 10012KT 6SM 20/17 A2968 RMK T02000170 IEM_DS3505
ZBYN,1990-07-03 23:00,ZBYN 032300Z AUTO 11008KT 6SM 21/17 A2968 RMK T02100170 IEM_DS3505
ZBYN,1990-07-04 00:00,ZBYN 040000Z AUTO 14006KT 5SM 21/18 A2971 RMK SLP016 T02140183 57001 IEM_DS3505
ZBYN,1990-07-04 01:00,ZBYN 040100Z AUTO 17012KT 6SM 23/17 A2968 RMK T02300170 IEM_DS3505
ZBYN,1990-07-04 02:00,ZBYN 040200Z AUTO 18010KT 7SM 23/17 A2968 RMK T02300170 IEM_DS3505
ZBYN,1990-07-04 03:00,ZBYN 040300Z AUTO 18006KT 5SM 21/18 A2971 RMK SLP019 T02060184 54000 IEM_DS3505
ZBYN,1990-07-04 04:00,ZBYN 040400Z AUTO 23012KT 4SM 23/19 A2971 RMK T02300190 IEM_DS3505
ZBYN,1990-07-04 05:00,ZBYN 040500Z AUTO 23010KT 7SM 23/20 A2971 RMK T02300200 IEM_DS3505
ZBYN,1990-07-04 06:00,ZBYN 040600Z AUTO 20008KT 7SM 24/19 A2968 RMK 60008 T02420186 4////0181 57003 IEM_DS3505
ZBYN,1990-07-04 07:00,ZBYN 040700Z AUTO 22010KT 7SM 26/17 A2968 RMK T02600170 IEM_DS3505
ZBYN,1990-07-04 08:00,ZBYN 040800Z AUTO 23008KT 7SM 28/18 A2968 RMK T02800180 IEM_DS3505
ZBYN,1990-07-04 09:00,ZBYN 040900Z AUTO 18006KT 9SM 26/18 A2968 RMK SLP010 T02650182 57003 IEM_DS3505
ZBYN,1990-07-04 10:00,ZBYN 041000Z AUTO 24008KT 7SM 27/18 A2968 RMK T02700180 IEM_DS3505
ZBYN,1990-07-04 11:00,ZBYN 041100Z AUTO 23006KT 7SM 26/18 A2968 RMK T02600180 IEM_DS3505
ZBYN,1990-07-04 12:00,ZBYN 041200Z AUTO 00000KT 12SM 28/18 A2971 RMK SLP017 T02760185 52008 IEM_DS3505
ZBYN,1990-07-04 13:00,ZBYN 041300Z AUTO 00000KT 6SM 21/19 A2971 RMK T02100190 IEM_DS3505
ZBYN,1990-07-04 14:00,ZBYN 041400Z AUTO 00000KT 6SM 20/18 A2974 RMK T02000180 IEM_DS3505
ZBYN,1990-07-04 15:00,ZBYN 041500Z AUTO 00000KT 9SM 20/18 A2974 RMK SLP042 T01960176 52014 IEM_DS3505
ZBYN,1990-07-04 16:00,ZBYN 041600Z AUTO 00000KT 6SM 19/17 A2974 RMK T01900170 IEM_DS3505
ZBYN,1990-07-04 17:00,ZBYN 041700Z AUTO 08006KT 5SM 18/17 A2977 RMK T01800170 IEM_DS3505
ZBYN,1990-07-04 18:00,ZBYN 041800Z AUTO 00000KT 6SM 17/17 A2977 RMK SLP048 T01720169 40269//// 52008 IEM_DS3505
ZBYN,1990-07-04 19:00,ZBYN 041900Z AUTO 10006KT 5SM 18/16 A2977 RMK T01800160 IEM_DS3505
ZBYN,1990-07-04 20:00,ZBYN 042000Z AUTO 09006KT 4SM 18/16 A2977 RMK T01800160 IEM_DS3505
ZBYN,1990-07-04 21:00,ZBYN 042100Z AUTO 00000KT 4SM 16/15 A2977 RMK 70004 SLP054 T01560154 52006 IEM_DS3505
ZBYN,1990-07-04 22:00,ZBYN 042200Z AUTO 00000KT 6SM 16/15 A2980 RMK T01600150 IEM_DS3505
ZBYN,1990-07-04 23:00,ZBYN 042300Z AUTO 00000KT 5SM 19/17 A2980 RMK T01900170 IEM_DS3505
ZBYN,1990-07-05 00:00,ZBYN 050000Z AUTO 32002KT 4SM 20/16 A2980 RMK 70004 SLP053 T02040163 52003 IEM_DS3505
ZBYN,1990-07-05 01:00,ZBYN 050100Z AUTO 33008KT 3SM 24/17 A2980 RMK T02400170 IEM_DS3505
ZBYN,1990-07-05 02:00,ZBYN 050200Z AUTO 00000KT 4SM 26/18 A2980 RMK T02600180 IEM_DS3505
ZBYN,1990-07-05 03:00,ZBYN 050300Z AUTO 02004KT 6SM 27/17 A2980 RMK SLP049 T02690171 57001 IEM_DS3505
ZBYN,1990-07-05 04:00,ZBYN 050400Z AUTO 00000KT 6SM 28/18 A2980 RMK T02800180 IEM_DS3505
ZBYN,1990-07-05 05:00,ZBYN 050500Z AUTO 18004KT 6SM 29/19 A2977 RMK T02900190 IEM_DS3505
ZBYN,1990-07-05 06:00,ZBYN 050600Z AUTO 18004KT 7SM 30/18 A2977 RMK SLP030 T03000180 4////0148 57013 IEM_DS3505
ZBYN,1990-07-05 07:00,ZBYN 050700Z AUTO 22004KT 6SM 30/16 A2977 RMK T03000160 IEM_DS3505
ZBYN,1990-07-05 08:00,ZBYN 050800Z AUTO 21004KT 6SM 31/16 A2974 RMK T03100160 IEM_DS3505
ZBYN,1990-07-05 09:00,ZBYN 050900Z AUTO 18006KT 7SM 30/16 A2974 RMK SLP018 T03050158 57016 IEM_DS3505
ZBYN,1990-07-05 10:00,ZBYN 051000Z AUTO 18004KT 6SM 30/17 A2971 RMK T03000170 IEM_DS3505
ZBYN,1990-07-05 11:00,ZBYN 051100Z AUTO 00000KT 6SM 29/21 A2971 RMK T02900210 IEM_DS3505
ZBYN,1990-07-05 12:00,ZBYN 051200Z AUTO 14004KT 7SM 25/19 A2974 RMK SLP025 T02540189 52006 IEM_DS3505
ZBYN,1990-07-05 13:00,ZBYN 051300Z AUTO 13008KT 6SM 25/16 A2974 RMK T02500160 IEM_DS3505
ZBYN,1990-07-05 14:00,ZBYN 051400Z AUTO 00000KT 6SM 23/18 A2977 RMK T02300180 IEM_DS3505
ZBYN,1990-07-05 15:00,ZBYN 051500Z AUTO 11004KT 7SM 23/16 A2977 RMK SLP029 T02330162 52009 IEM_DS3505
ZBYN,1990-07-05 16:00,ZBYN 051600Z AUTO 10004KT 6SM 23/16 A2977 RMK T02300160 IEM_DS3505
ZBYN,1990-07-05 17:00,ZBYN 051700Z AUTO 10004KT 6SM 22/17 A2974 RMK T02200170 IEM_DS3505
ZBYN,1990-07-05 18:00,ZBYN 051800Z AUTO 00000KT 7SM 21/18 A2972 RMK SLP019 T02100179 40315//// 57008 IEM_DS3505
ZBYN,1990-07-05 19:00,ZBYN 051900Z AUTO 00000KT 6SM 20/16 A2971 RMK T02000160 IEM_DS3505
ZBYN,1990-07-05 20:00,ZBYN 052000Z AUTO 00000KT 6SM 18/17 A2971 RMK T01800170 IEM_DS3505
ZBYN,1990-07-05 21:00,ZBYN 052100Z AUTO 34002KT 6SM 18/17 A2971 RMK SLP021 T01800167 57001 IEM_DS3505
ZBYN,1990-07-05 22:00,ZBYN 052200Z AUTO 00000KT 6SM 18/16 A2971 RMK T01800160 IEM_DS3505
ZBYN,1990-07-05 23:00,ZBYN 052300Z AUTO 00000KT 5SM 20/18 A2968 RMK T02000180 IEM_DS3505
ZBYN,1990-07-06 00:00,ZBYN 060000Z AUTO 32004KT 6SM 22/16 A2968 RMK SLP010 T02190165 57012 IEM_DS3505
ZBYN,1990-07-06 02:00,ZBYN 060200Z AUTO 32006KT 2SM 22/19 A2965 RMK T02200190 IEM_DS3505
ZBYN,1990-07-06 03:00,ZBYN 060300Z AUTO 34004KT 6SM 23/19 A2965 RMK SLP004 T02310190 57007 IEM_DS3505
ZBYN,1990-07-06 04:00,ZBYN 060400Z AUTO 00000KT 2SM 22/19 A2965 RMK T02200190 IEM_DS3505
ZBYN,1990-07-06 05:00,ZBYN 060500Z AUTO 34006KT 2 1/2SM 22/20 A2965 RMK T02200200 IEM_DS3505
ZBYN,1990-07-06 06:00,ZBYN 060600Z AUTO 36004KT 6SM 21/19 A2962 RMK 60012 SLP995 T02110194 4////0171 57014 IEM_DS3505
ZBYN,1990-07-06 07:00,ZBYN 060700Z AUTO 34010KT 4SM 21/19 A2959 RMK T02100190 IEM_DS3505
ZBYN,1990-07-06 08:00,ZBYN 060800Z AUTO 34008KT 2 1/2SM 21/20 A2956 RMK T02100200 IEM_DS3505
ZBYN,1990-07-06 09:00,ZBYN 060900Z AUTO 00000KT 5SM 21/20 A2953 RMK SLP968 T02070195 57029 IEM_DS3505
ZBYN,1990-07-06 10:00,ZBYN 061000Z AUTO 00000KT 4SM 21/20 A2953 RMK T02100200 IEM_DS3505
ZBYN,1990-07-06 11:00,ZBYN 061100Z AUTO 35008KT 2SM 20/19 A2950 RMK T02000190 IEM_DS3505
ZBYN,1990-07-06 12:00,ZBYN 061200Z AUTO 34004KT 5SM 20/19 A2950 RMK 60016 SLP963 T01980192 57001 IEM_DS3505
ZBYN,1990-07-06 13:00,ZBYN 061300Z AUTO 33004KT 1 1/4SM 20/19 A2950 RMK T02000190 IEM_DS3505
ZBYN,1990-07-06 14:00,ZBYN 061400Z AUTO 36016KT 1 1/4SM 18/17 A2953 RMK T01800170 IEM_DS3505
ZBYN,1990-07-06 15:00,ZBYN 061500Z AUTO 34002KT 5SM 18/17 A2953 RMK SLP967 T01790174 52003 IEM_DS3505
ZBYN,1990-07-06 16:00,ZBYN 061600Z AUTO 32010KT 7SM 18/17 A2953 RMK T01800170 IEM_DS3505
ZBYN,1990-07-06 17:00,ZBYN 061700Z AUTO 27006KT 7SM 18/17 A2950 RMK T01800170 IEM_DS3505
ZBYN,1990-07-06 18:00,ZBYN 061800Z AUTO 27004KT 6SM 18/17 A2950 RMK 60063 SLP963 T01760173 40232//// 57007 IEM_DS3505
ZBYN,1990-07-06 19:00,ZBYN 061900Z AUTO 26004KT 4SM 18/17 A2950 RMK T01800170 IEM_DS3505
ZBYN,1990-07-06 21:00,ZBYN 062100Z AUTO 00000KT 4SM 17/17 A2950 RMK 70087 SLP956 T01740171 57007 IEM_DS3505
ZBYN,1990-07-06 22:00,ZBYN 062200Z AUTO 00000KT 1 1/2SM 18/17 A2950 RMK T01800170 IEM_DS3505
ZBYN,1990-07-06 23:00,ZBYN 062300Z AUTO 00000KT 2 1/2SM 19/18 A2950 RMK T01900180 IEM_DS3505
ZBYN,1990-07-07 00:00,ZBYN 070000Z AUTO 00000KT 12SM 21/15 A2950 RMK 70087 SLP958 T02130154 52006 IEM_DS3505
ZBYN,1990-07-07 01:00,ZBYN 070100Z AUTO 30008KT 7SM 22/16 A2950 RMK T02200160 IEM_DS3505
ZBYN,1990-07-07 02:00,ZBYN 070200Z AUTO 34006KT 7SM 24/14 A2953 RMK T02400140 IEM_DS3505
ZBYN,1990-07-07 03:00,ZBYN 070300Z AUTO 32006KT 19SM 25/14 A2953 RMK SLP961 T02500138 52005 IEM_DS3505
ZBYN,1990-07-07 04:00,ZBYN 070400Z AUTO 29012KT 7SM 25/14 A2953 RMK T02500140 IEM_DS3505
ZBYN,1990-07-07 05:00,ZBYN 070500Z AUTO 29016KT 7SM 25/14 RMK T02500140 IEM_DS3505
ZBYN,1990-07-07 06:00,ZBYN 070600Z AUTO 29010KT 19SM 27/14 A2953 RMK T02710141 4////0164 54000 IEM_DS3505
ZBYN,1990-07-07 07:00,ZBYN 070700Z AUTO 27017KT 7SM 28/15 A2953 RMK T02800150 IEM_DS3505
ZBYN,1990-07-07 08:00,ZBYN 070800Z AUTO 30019KT 7SM 28/16 A2950 RMK T02800160 IEM_DS3505
ZBYN,1990-07-07 09:00,ZBYN 070900Z AUTO 29010KT 19SM 28/12 A2950 RMK SLP956 T02750119 57002 IEM_DS3505
ZBYN,1990-07-07 11:00,ZBYN 071100Z AUTO 24012KT 7SM 26/14 A2950 RMK T02600140 IEM_DS3505
ZBYN,1990-07-07 12:00,ZBYN 071200Z AUTO 22006KT 16SM 25/15 A2953 RMK SLP963 T02460148 52008 IEM_DS3505
ZBYN,1990-07-07 13:00,ZBYN 071300Z AUTO 28010KT 7SM 23/15 A2953 RMK T02300150 IEM_DS3505
ZBYN,1990-07-07 14:00,ZBYN 071400Z AUTO 23012KT 7SM 22/15 A2956 RMK T02200150 IEM_DS3505
ZBYN,1990-07-07 15:00,ZBYN 071500Z AUTO 18002KT 12SM 19/16 A2956 RMK SLP974 T01900165 52008 IEM_DS3505
ZBYN,1990-07-07 18:00,ZBYN 071800Z AUTO 22004KT 12SM 20/15 A2953 RMK SLP959 T01970152 40283//// 57010 IEM_DS3505
ZBYN,1990-07-07 19:00,ZBYN 071900Z AUTO 25008KT 7SM 20/14 A2953 RMK T02000140 IEM_DS3505
ZBYN,1990-07-07 20:00,ZBYN 072000Z AUTO 26004KT 7SM A2953 RMK IEM_DS3505
ZBYN,1990-07-07 21:00,ZBYN 072100Z AUTO 22002KT 12SM 19/14 A2953 RMK SLP958 T01870144 57002 IEM_DS3505
ZBYN,1990-07-07 22:00,ZBYN 072200Z AUTO 23016KT 7SM 20/14 A2953 RMK T02000140 IEM_DS3505
ZBYN,1990-07-07 23:00,ZBYN 072300Z AUTO 25004KT 7SM 21/14 A2956 RMK T02100140 IEM_DS3505
ZBYN,1990-07-08 00:00,ZBYN 080000Z AUTO 18006KT 12SM 22/15 A2956 RMK SLP970 T02210154 52012 IEM_DS3505
ZBYN,1990-07-08 01:00,ZBYN 080100Z AUTO 24014KT 7SM 24/17 A2956 RMK T02400170 IEM_DS3505
ZBYN,1990-07-08 02:00,ZBYN 080200Z AUTO 23012KT 6SM 26/15 A2956 RMK T02600150 IEM_DS3505
ZBYN,1990-07-08 03:00,ZBYN 080300Z AUTO 16006KT 12SM 28/18 A2956 RMK SLP965 T02780178 57005 IEM_DS3505
ZBYN,1990-07-08 05:00,ZBYN 080500Z AUTO 28008KT 6SM 31/16 A2953 RMK T03100160 IEM_DS3505
ZBYN,1990-07-08 06:00,ZBYN 080600Z AUTO 32006KT 19SM 30/15 A2953 RMK SLP954 T03040147 4////0121 57005 IEM_DS3505
ZBYN,1990-07-08 07:00,ZBYN 080700Z AUTO 29016KT 7SM 31/14 A2953 RMK T03100140 IEM_DS3505
ZBYN,1990-07-08 08:00,ZBYN 080800Z AUTO 30012KT 7SM 31/14 A2953 RMK T03100140 IEM_DS3505
ZBYN,1990-07-08 09:00,ZBYN 080900Z AUTO 29004KT 19SM 32/16 A2953 RMK SLP952 T03170159 57002 IEM_DS3505
ZBYN,1990-07-08 10:00,ZBYN 081000Z AUTO 30008KT 7SM 29/16 A2953 RMK T02900160 IEM_DS3505
ZBYN,1990-07-08 11:00,ZBYN 081100Z AUTO 30021KT 7SM 24/14 A2959 RMK T02400140 IEM_DS3505
ZBYN,1990-07-08 12:00,ZBYN 081200Z AUTO 11006KT 19SM 20/16 A2959 RMK 60035 SLP993 T02020160 52027 IEM_DS3505
ZBYN,1990-07-08 14:00,ZBYN 081400Z AUTO 10004KT 7SM 20/16 A2965 RMK T02000160 IEM_DS3505
ZBYN,1990-07-08 15:00,ZBYN 081500Z AUTO 11004KT 12SM 19/16 A2965 RMK SLP001 T01890163 52013 IEM_DS3505
ZBYN,1990-07-08 16:00,ZBYN 081600Z AUTO 00000KT 7SM 19/16 A2965 RMK T01900160 IEM_DS3505
ZBYN,1990-07-08 18:00,ZBYN 081800Z AUTO 11004KT 9SM 19/16 A2965 RMK SLP000 T01870156 40318//// 52002 IEM_DS3505
ZBYN,1990-07-08 19:00,ZBYN 081900Z AUTO 00000KT 7SM 19/16 A2965 RMK T01900160 IEM_DS3505
ZBYN,1990-07-08 20:00,ZBYN 082000Z AUTO 16006KT 7SM 19/15 A2965 RMK T01900150 IEM_DS3505
ZBYN,1990-07-08 21:00,ZBYN 082100Z AUTO 11006KT 19SM 18/15 A2967 RMK 70035 SLP002 T01820153 52003 IEM_DS3505
ZBYN,1990-07-08 22:00,ZBYN 082200Z AUTO 09006KT 18/15 A2968 RMK T01800150 IEM_DS3505
ZBYN,1990-07-08 23:00,ZBYN 082300Z AUTO 11006KT 7SM 20/16 A2968 RMK T02000160 IEM_DS3505
ZBYN,1990-07-09 00:00,ZBYN 090000Z AUTO 16004KT 9SM 21/16 A2971 RMK SLP028 T02110165 52012 IEM_DS3505
ZBYN,1990-07-09 01:00,ZBYN 090100Z AUTO 16006KT 6SM 23/16 A2971 RMK T02300160 IEM_DS3505
ZBYN,1990-07-09 02:00,ZBYN 090200Z AUTO 15006KT 6SM 25/16 A2971 RMK T02500160 IEM_DS3505
ZBYN,1990-07-09 03:00,ZBYN 090300Z AUTO 16004KT 9SM 26/18 A2971 RMK SLP021 T02560185 57002 IEM_DS3505
ZBYN,1990-07-09 04:00,ZBYN 090400Z AUTO 00000KT 6SM 27/18 A2968 RMK T02700180 IEM_DS3505
ZBYN,1990-07-09 05:00,ZBYN 090500Z AUTO 17006KT 7SM 29/16 A2968 RMK T02900160 IEM_DS3505
ZBYN,1990-07-09 06:00,ZBYN 090600Z AUTO 16004KT 12SM 29/18 A2965 RMK SLP001 T02940180 4////0164 57013 IEM_DS3505
ZBYN,1990-07-09 07:00,ZBYN 090700Z AUTO 28008KT 7SM 28/17 A2968 RMK T02800170 IEM_DS3505
ZBYN,1990-07-09 08:00,ZBYN 090800Z AUTO 16010KT 7SM 30/17 A2962 RMK T03000170 IEM_DS3505
ZBYN,1990-07-09 09:00,ZBYN 090900Z AUTO 18004KT 19SM 30/17 A2961 RMK SLP984 T03050166 57015 IEM_DS3505
ZBYN,1990-07-09 10:00,ZBYN 091000Z AUTO 00000KT 7SM 30/16 A2959 RMK T03000160 IEM_DS3505
ZBYN,1990-07-09 10:24,ZBYN 091024Z AUTO 00000KT 7SM 30/16 A2959 RMK T03000160 IEM_DS3505
ZBYN,1990-07-09 11:00,ZBYN 091100Z AUTO 15002KT 6SM 29/21 A2959 RMK T02900210 IEM_DS3505
ZBYN,1990-07-09 12:00,ZBYN 091200Z AUTO 00000KT 12SM 26/21 A2962 RMK 60002 SLP989 T02650211 52003 IEM_DS3505
ZBYN,1990-07-09 13:00,ZBYN 091300Z AUTO 08006KT 7SM 25/20 A2965 RMK T02500200 IEM_DS3505
ZBYN,1990-07-09 14:00,ZBYN 091400Z AUTO 06004KT 7SM 24/20 A2968 RMK T02400200 IEM_DS3505
ZBYN,1990-07-09 15:00,ZBYN 091500Z AUTO 09004KT 9SM 23/17 A2965 RMK SLP000 T02330173 52012 IEM_DS3505
ZBYN,1990-07-09 16:00,ZBYN 091600Z AUTO 09010KT 7SM 21/17 A2968 RMK T02100170 IEM_DS3505
ZBYN,1990-07-09 17:00,ZBYN 091700Z AUTO 13008KT 7SM 20/17 A2968 RMK T02000170 IEM_DS3505
ZBYN,1990-07-09 18:00,ZBYN 091800Z AUTO 29002KT 9SM 19/18 A2968 RMK SLP020 T01930177 40305//// 52018 IEM_DS3505
ZBYN,1990-07-09 19:00,ZBYN 091900Z AUTO 07004KT 7SM 20/18 A2968 RMK T02000180 IEM_DS3505
ZBYN,1990-07-09 20:00,ZBYN 092000Z AUTO 07006KT 7SM 19/18 A2968 RMK T01900180 IEM_DS3505
ZBYN,1990-07-09 21:00,ZBYN 092100Z AUTO 36002KT 9SM 18/17 A2965 RMK SLP013 T01830174 57006 IEM_DS3505
ZBYN,1990-07-09 22:00,ZBYN 092200Z AUTO 09004KT 7SM 18/16 A2971 RMK T01800160 IEM_DS3505
ZBYN,1990-07-10 00:00,ZBYN 100000Z AUTO 29002KT 6SM 22/18 A2971 RMK SLP020 T02220176 52006 IEM_DS3505
ZBYN,1990-07-10 01:00,ZBYN 100100Z AUTO 00000KT 5SM 24/18 A2971 RMK T02400180 IEM_DS3505
ZBYN,1990-07-10 02:00,ZBYN 100200Z AUTO 12006KT 7SM 27/18 A2971 RMK T02700180 IEM_DS3505
ZBYN,1990-07-10 03:00,ZBYN 100300Z AUTO 11004KT 7SM 28/17 A2971 RMK SLP013 T02840171 57002 IEM_DS3505
ZBYN,1990-07-10 04:00,ZBYN 100400Z AUTO 13006KT 7SM 29/19 A2968 RMK T02900190 IEM_DS3505
ZBYN,1990-07-10 05:00,ZBYN 100500Z AUTO 12004KT 7SM 30/18 A2968 RMK T03000180 IEM_DS3505
ZBYN,1990-07-10 06:00,ZBYN 100600Z AUTO 20002KT 9SM 28/19 A2965 RMK SLP998 T02850190 57019 IEM_DS3505
ZBYN,1990-07-10 07:00,ZBYN 100700Z AUTO 29006KT 7SM 30/19 A2962 RMK T03000190 IEM_DS3505
ZBYN,1990-07-10 08:00,ZBYN 100800Z AUTO 00000KT 7SM 32/18 A2962 RMK T03200180 IEM_DS3505
ZBYN,1990-07-10 09:00,ZBYN 100900Z AUTO 20004KT 9SM 31/18 A2962 RMK SLP983 T03080175 57012 IEM_DS3505
ZBYN,1990-07-10 10:00,ZBYN 101000Z AUTO 00000KT 7SM 30/20 A2962 RMK T03000200 IEM_DS3505
ZBYN,1990-07-10 11:00,ZBYN 101100Z AUTO 09016KT 7SM 27/17 A2965 RMK T02700170 IEM_DS3505
ZBYN,1990-07-10 12:00,ZBYN 101200Z AUTO 09006KT 9SM 26/16 A2965 RMK SLP997 T02560157 52011 IEM_DS3505
ZBYN,1990-07-10 13:00,ZBYN 101300Z AUTO 10008KT 7SM 25/16 A2968 RMK T02500160 IEM_DS3505
ZBYN,1990-07-10 14:00,ZBYN 101400Z AUTO 08010KT 7SM 25/15 A2971 RMK T02500150 IEM_DS3505
ZBYN,1990-07-10 15:00,ZBYN 101500Z AUTO 29004KT 9SM 23/17 A2971 RMK SLP013 T02340170 52020 IEM_DS3505
ZBYN,1990-07-10 17:00,ZBYN 101700Z AUTO 02006KT 7SM 24/17 A2971 RMK T02400170 IEM_DS3505
ZBYN,1990-07-10 18:00,ZBYN 101800Z AUTO 36002KT 9SM 22/18 A2971 RMK 60000 SLP006 T02190181 40316//// 57008 IEM_DS3505
ZBYN,1990-07-10 19:00,ZBYN 101900Z AUTO 01004KT 7SM 20/19 A2968 RMK T02000190 IEM_DS3505
ZBYN,1990-07-10 20:00,ZBYN 102000Z AUTO 14004KT 4SM 21/19 A2968 RMK T02100190 IEM_DS3505
ZBYN,1990-07-10 21:00,ZBYN 102100Z AUTO 29004KT 7SM 21/18 A2968 RMK 70004 SLP001 T02080185 52003 IEM_DS3505
ZBYN,1990-07-10 22:30,ZBYN 102230Z AUTO 28008KT 3SM 20/ A2968 RMK IEM_DS3505
ZBYN,1990-07-10 22:48,ZBYN 102248Z AUTO 28008KT 3SM 20/ A2968 RMK IEM_DS3505
ZBYN,1990-07-10 23:00,ZBYN 102300Z AUTO 28008KT 3SM 20/ A2968 RMK IEM_DS3505
ZBYN,1990-07-11 00:00,ZBYN 110000Z AUTO 18004KT 5SM 22/20 A2968 RMK 60004 70004 SLP022 T02180197 52013 IEM_DS3505
ZBYN,1990-07-11 01:00,ZBYN 110100Z AUTO 26004KT 5SM 23/20 A2971 RMK T02300200 IEM_DS3505
ZBYN,1990-07-11 02:00,ZBYN 110200Z AUTO 00000KT 7SM 24/20 A2971 RMK T02400200 IEM_DS3505
ZBYN,1990-07-11 03:00,ZBYN 110300Z AUTO 09002KT 7SM 27/19 A2971 RMK SLP009 T02670193 57008 IEM_DS3505
ZBYN,1990-07-11 04:00,ZBYN 110400Z AUTO 16006KT 6SM 28/20 A2968 RMK T02800200 IEM_DS3505
ZBYN,1990-07-11 05:00,ZBYN 110500Z AUTO 15006KT 6SM 29/19 A2968 RMK T02900190 IEM_DS3505
ZBYN,1990-07-11 06:00,ZBYN 110600Z AUTO 11004KT 9SM 30/20 A2965 RMK SLP987 T03030198 4////0194 57017 IEM_DS3505
ZBYN,1990-07-11 07:00,ZBYN 110700Z AUTO 16008KT 6SM 31/19 A2962 RMK T03100190 IEM_DS3505
ZBYN,1990-07-11 08:00,ZBYN 110800Z AUTO 16008KT 6SM 31/18 A2962 RMK T03100180 IEM_DS3505
ZBYN,1990-07-11 09:00,ZBYN 110900Z AUTO 18004KT 12SM 30/18 A2959 RMK SLP974 T03030182 57014 IEM_DS3505
ZBYN,1990-07-11 10:00,ZBYN 111000Z AUTO 26004KT 7SM 29/21 A2959 RMK T02900210 IEM_DS3505
ZBYN,1990-07-11 11:00,ZBYN 111100Z AUTO 00000KT 6SM 28/23 A2959 RMK T02800230 IEM_DS3505
ZBYN,1990-07-11 12:00,ZBYN 111200Z AUTO 09004KT 12SM 26/20 A2959 RMK SLP986 T02640204 52007 IEM_DS3505
ZBYN,1990-07-11 13:00,ZBYN 111300Z AUTO 08010KT 7SM 27/20 A2962 RMK T02700200 IEM_DS3505
ZBYN,1990-07-11 15:00,ZBYN 111500Z AUTO 09006KT 9SM 26/21 A2969 RMK SLP005 T02560206 52023 IEM_DS3505
ZBYN,1990-07-11 17:00,ZBYN 111700Z AUTO 09008KT 7SM 25/20 A2968 RMK T02500200 IEM_DS3505
ZBYN,1990-07-11 18:00,ZBYN 111800Z AUTO 00000KT 7SM 22/21 A2968 RMK SLP004 T02230207 40313//// 54000 IEM_DS3505
ZBYN,1990-07-11 19:00,ZBYN 111900Z AUTO 09006KT 7SM 23/20 A2968 RMK T02300200 IEM_DS3505
ZBYN,1990-07-11 20:00,ZBYN 112000Z AUTO 00000KT 4SM 23/20 A2968 RMK T02300200 IEM_DS3505
ZBYN,1990-07-11 21:00,ZBYN 112100Z AUTO 00000KT 6SM 23/20 A2968 RMK SLP000 T02260199 57004 IEM_DS3505
ZBYN,1990-07-11 22:00,ZBYN 112200Z AUTO 00000KT 2 1/2SM 22/20 A2968 RMK T02200200 IEM_DS3505
ZBYN,1990-07-11 23:00,ZBYN 112300Z AUTO 00000KT 2 1/2SM 23/20 A2968 RMK T02300200 IEM_DS3505
ZBYN,1990-07-12 00:00,ZBYN 120000Z AUTO 32004KT 5SM 25/21 A2971 RMK SLP004 T02470207 52002 IEM_DS3505
ZBYN,1990-07-12 03:00,ZBYN 120300Z AUTO 18002KT 5SM 28/21 A2966 RMK SLP994 T02810210 57006 IEM_DS3505
ZBYN,1990-07-12 05:00,ZBYN 120500Z AUTO 12006KT 6SM 30/22 A2965 RMK T03000220 IEM_DS3505
ZBYN,1990-07-12 06:00,ZBYN 120600Z AUTO 18006KT 7SM 32/21 A2965 RMK SLP978 T03170206 57014 IEM_DS3505
ZBYN,1990-07-12 07:00,ZBYN 120700Z AUTO 00000KT 7SM 32/21 A2959 RMK T03200210 IEM_DS3505
ZBYN,1990-07-12 08:00,ZBYN 120800Z AUTO 00000KT 7SM 33/21 A2959 RMK T03300210 IEM_DS3505
ZBYN,1990-07-12 09:00,ZBYN 120900Z AUTO 03041KT 9SM 33/20 A2956 RMK T03300200 57019 IEM_DS3505
ZBYN,1990-07-12 10:00,ZBYN 121000Z AUTO 16010KT 7SM 33/20 A2956 RMK T03300200 IEM_DS3505
ZBYN,1990-07-12 11:00,ZBYN 121100Z AUTO 22004KT 6SM 29/22 A2956 RMK T02900220 IEM_DS3505
ZBYN,1990-07-12 12:00,ZBYN 121200Z AUTO 18004KT 9SM 27/20 A2959 RMK SLP971 T02720203 52010 IEM_DS3505
ZBYN,1990-07-12 13:00,ZBYN 121300Z AUTO 11006KT 6SM 27/22 A2962 RMK T02700220 IEM_DS3505
ZBYN,1990-07-12 14:00,ZBYN 121400Z AUTO 10006KT 6SM 27/22 A2962 RMK T02700220 IEM_DS3505
ZBYN,1990-07-12 15:00,ZBYN 121500Z AUTO 00000KT 9SM 25/23 A2959 RMK SLP972 T02500226 52002 IEM_DS3505
ZBYN,1990-07-12 16:00,ZBYN 121600Z AUTO 13006KT 6SM 26/22 A2959 RMK T02600220 IEM_DS3505
ZBYN,1990-07-12 18:00,ZBYN 121800Z AUTO 20004KT 6SM 24/22 A2959 RMK 60004 SLP969 T02400224 40328//// 52001 IEM_DS3505
ZBYN,1990-07-12 19:00,ZBYN 121900Z AUTO 00000KT 7SM 22/21 A2959 RMK T02200210 IEM_DS3505
ZBYN,1990-07-12 20:00,ZBYN 122000Z AUTO 00000KT 7SM 22/21 A2956 RMK T02200210 IEM_DS3505
ZBYN,1990-07-12 21:00,ZBYN 122100Z AUTO 00000KT 4SM 21/21 A2959 RMK 70043 SLP966 T02080207 57007 IEM_DS3505
ZBYN,1990-07-12 22:00,ZBYN 122200Z AUTO 17004KT 7SM 22/21 A2959 RMK T02200210 IEM_DS3505
ZBYN,1990-07-12 23:00,ZBYN 122300Z AUTO 13006KT 5SM 22/21 A2959 RMK T02200210 IEM_DS3505
ZBYN,1990-07-13 00:00,ZBYN 130000Z AUTO 18002KT 3SM 22/21 A2958 RMK 60039 70004 SLP971 T02200214 54000 IEM_DS3505
ZBYN,1990-07-13 01:00,ZBYN 130100Z AUTO 00000KT 7SM 24/22 A2959 RMK T02400220 IEM_DS3505
ZBYN,1990-07-13 02:00,ZBYN 130200Z AUTO 21008KT 7SM 25/23 A2959 RMK T02500230 IEM_DS3505
ZBYN,1990-07-13 03:00,ZBYN 130300Z AUTO 18006KT 6SM 26/23 A2956 RMK SLP968 T02620231 54000 IEM_DS3505
ZBYN,1990-07-13 04:00,ZBYN 130400Z AUTO 20006KT 7SM 28/23 A2956 RMK T02800230 IEM_DS3505
ZBYN,1990-07-13 05:00,ZBYN 130500Z AUTO 20010KT 7SM 29/23 A2956 RMK T02900230 IEM_DS3505
ZBYN,1990-07-13 06:00,ZBYN 130600Z AUTO 29008KT 12SM 31/19 A2953 RMK SLP946 T03090189 4////0203 57015 IEM_DS3505
ZBYN,1990-07-13 07:00,ZBYN 130700Z AUTO 27012KT 7SM 31/22 A2950 RMK T03100220 IEM_DS3505
ZBYN,1990-07-13 08:00,ZBYN 130800Z AUTO 30010KT 7SM 31/19 A2950 RMK T03100190 IEM_DS3505
ZBYN,1990-07-13 09:00,ZBYN 130900Z AUTO 32006KT 12SM 32/17 A2950 RMK SLP945 T03180172 57004 IEM_DS3505
ZBYN,1990-07-13 10:00,ZBYN 131000Z AUTO 32006KT 7SM 29/19 A2950 RMK T02900190 IEM_DS3505
ZBYN,1990-07-13 11:00,ZBYN 131100Z AUTO 31006KT 6SM 29/19 A2953 RMK T02900190 IEM_DS3505
ZBYN,1990-07-13 12:00,ZBYN 131200Z AUTO 00000KT 12SM 28/18 A2953 RMK SLP955 T02760178 52005 IEM_DS3505
ZBYN,1990-07-13 14:00,ZBYN 131400Z AUTO 09006KT 6SM 24/20 A2956 RMK T02400200 IEM_DS3505
ZBYN,1990-07-13 15:00,ZBYN 131500Z AUTO 07002KT 12SM 23/20 A2956 RMK SLP968 T02270197 52011 IEM_DS3505
ZBYN,1990-07-13 16:00,ZBYN 131600Z AUTO 10006KT 7SM 22/18 A2956 RMK T02200180 IEM_DS3505
ZBYN,1990-07-13 17:00,ZBYN 131700Z AUTO 09004KT 6SM 21/19 A2956 RMK T02100190 IEM_DS3505
ZBYN,1990-07-13 18:00,ZBYN 131800Z AUTO 00000KT 6SM 20/19 A2958 RMK SLP971 T01980190 40320//// 52005 IEM_DS3505
ZBYN,1990-07-13 21:00,ZBYN 132100Z AUTO 00000KT 5SM A2960 RMK SLP975 52004 IEM_DS3505
ZBYN,1990-07-13 22:00,ZBYN 132200Z AUTO 09004KT 6SM 21/19 A2956 RMK T02100190 IEM_DS3505
ZBYN,1990-07-13 23:00,ZBYN 132300Z AUTO 00000KT 6SM 23/19 A2962 RMK T02300190 IEM_DS3505
ZBYN,1990-07-14 00:00,ZBYN 140000Z AUTO 00000KT 5SM 24/20 A2965 RMK SLP988 T02390202 52012 IEM_DS3505
ZBYN,1990-07-14 01:00,ZBYN 140100Z AUTO 12004KT 6SM 26/20 A2965 RMK T02600200 IEM_DS3505
ZBYN,1990-07-14 02:00,ZBYN 140200Z AUTO 18004KT 6SM 27/20 A2965 RMK T02700200 IEM_DS3505
ZBYN,1990-07-14 03:00,ZBYN 140300Z AUTO 18006KT 6SM 29/19 A2962 RMK SLP992 T02870194 52003 IEM_DS3505
ZBYN,1990-07-14 04:00,ZBYN 140400Z AUTO 18004KT 6SM 29/21 A2962 RMK T02900210 IEM_DS3505
ZBYN,1990-07-14 05:00,ZBYN 140500Z AUTO 20006KT 6SM 31/21 A2965 RMK T03100210 IEM_DS3505
ZBYN,1990-07-14 06:00,ZBYN 140600Z AUTO 18006KT 6SM 32/21 A2962 RMK SLP985 T03190210 4////0188 57006 IEM_DS3505
ZBYN,1990-07-14 07:00,ZBYN 140700Z AUTO 20006KT 6SM 31/20 A2962 RMK T03100200 IEM_DS3505
ZBYN,1990-07-14 08:00,ZBYN 140800Z AUTO 20006KT 6SM 31/22 A2959 RMK T03100220 IEM_DS3505
ZBYN,1990-07-14 09:00,ZBYN 140900Z AUTO 32004KT 9SM 32/20 A2959 RMK SLP977 T03190198 57007 IEM_DS3505
ZBYN,1990-07-14 10:00,ZBYN 141000Z AUTO 23006KT 7SM 32/19 A2959 RMK T03200190 IEM_DS3505
ZBYN,1990-07-14 11:00,ZBYN 141100Z AUTO 22008KT 7SM 30/19 A2959 RMK T03000190 IEM_DS3505
ZBYN,1990-07-14 12:00,ZBYN 141200Z AUTO 22006KT 12SM 27/19 A2959 RMK SLP980 T02730188 52002 IEM_DS3505
ZBYN,1990-07-14 13:00,ZBYN 141300Z AUTO 00000KT 7SM 25/19 A2962 RMK T02500190 IEM_DS3505
ZBYN,1990-07-14 14:00,ZBYN 141400Z AUTO 11004KT 7SM 24/19 A2962 RMK T02400190 IEM_DS3505
ZBYN,1990-07-14 15:00,ZBYN 141500Z AUTO 11004KT 12SM 22/19 A2965 RMK SLP992 T02180194 52010 IEM_DS3505
ZBYN,1990-07-14 16:00,ZBYN 141600Z AUTO 08006KT 7SM 22/18 A2965 RMK T02200180 IEM_DS3505
ZBYN,1990-07-14 17:00,ZBYN 141700Z AUTO 09006KT 7SM 21/18 A2965 RMK T02100180 IEM_DS3505
ZBYN,1990-07-14 18:00,ZBYN 141800Z AUTO 16002KT 9SM 19/18 A2964 RMK SLP998 T01930179 40333//// 57002 IEM_DS3505
ZBYN,1990-07-14 19:00,ZBYN 141900Z AUTO 09006KT 7SM 20/17 A2965 RMK T02000170 IEM_DS3505
ZBYN,1990-07-14 20:00,ZBYN 142000Z AUTO 10006KT 6SM 21/17 A2965 RMK T02100170 IEM_DS3505
ZBYN,1990-07-14 21:00,ZBYN 142100Z AUTO 00000KT 9SM 18/17 A2965 RMK SLP996 T01820173 52005 IEM_DS3505
ZBYN,1990-07-14 22:00,ZBYN 142200Z AUTO 33004KT 7SM 19/18 A2965 RMK T01900180 IEM_DS3505
ZBYN,1990-07-15 00:00,ZBYN 150000Z AUTO 00000KT 9SM 24/19 A2965 RMK SLP994 T02390186 54000 IEM_DS3505
ZBYN,1990-07-15 01:00,ZBYN 150100Z AUTO 00000KT 7SM 26/17 A2965 RMK T02600170 IEM_DS3505
ZBYN,1990-07-15 02:00,ZBYN 150200Z AUTO 00000KT 7SM 28/17 A2965 RMK T02800170 IEM_DS3505
ZBYN,1990-07-15 03:00,ZBYN 150300Z AUTO 14004KT 6SM 30/23 A2964 RMK SLP988 T03020229 57004 IEM_DS3505
ZBYN,1990-07-15 04:00,ZBYN 150400Z AUTO 17006KT 7SM 31/18 A2962 RMK T03100180 IEM_DS3505
ZBYN,1990-07-15 05:00,ZBYN 150500Z AUTO 20010KT 7SM 32/19 A2962 RMK T03200190 IEM_DS3505
ZBYN,1990-07-15 06:00,ZBYN 150600Z AUTO 18008KT 9SM 33/21 A2959 RMK SLP973 T03310206 4////0177 57013 IEM_DS3505
ZBYN,1990-07-15 07:00,ZBYN 150700Z AUTO 24012KT 7SM 33/19 RMK T03300190 IEM_DS3505
ZBYN,1990-07-15 08:00,ZBYN 150800Z AUTO 23010KT 7SM 35/19 A2953 RMK T03500190 IEM_DS3505
ZBYN,1990-07-15 09:00,ZBYN 150900Z AUTO 34006KT 12SM 35/14 A2953 RMK SLP953 T03490140 57018 IEM_DS3505
ZBYN,1990-07-15 10:00,ZBYN 151000Z AUTO 27004KT 7SM 33/16 A2953 RMK T03300160 IEM_DS3505
ZBYN,1990-07-15 11:00,ZBYN 151100Z AUTO 21004KT 7SM 32/14 A2953 RMK T03200140 IEM_DS3505
ZBYN,1990-07-15 12:00,ZBYN 151200Z AUTO 25004KT 12SM 30/17 A2956 RMK SLP952 T03000173 54000 IEM_DS3505
ZBYN,1990-07-15 13:00,ZBYN 151300Z AUTO 27006KT 7SM 27/16 A2956 RMK T02700160 IEM_DS3505
ZBYN,1990-07-15 14:00,ZBYN 151400Z AUTO 31004KT 7SM 25/17 A2956 RMK T02500170 IEM_DS3505
ZBYN,1990-07-15 15:00,ZBYN 151500Z AUTO 03002KT 7SM 24/18 A2959 RMK T02400180 IEM_DS3505
ZBYN,1990-07-15 16:00,ZBYN 151600Z AUTO 00000KT 7SM 22/17 A2959 RMK T02200170 IEM_DS3505
ZBYN,1990-07-15 17:00,ZBYN 151700Z AUTO 00000KT 7SM 21/16 A2959 RMK T02100160 IEM_DS3505
ZBYN,1990-07-15 18:00,ZBYN 151800Z AUTO 36002KT 12SM 24/12 A2962 RMK SLP969 T02450115 40358//// 52009 IEM_DS3505
ZBYN,1990-07-15 19:00,ZBYN 151900Z AUTO 06004KT 6SM 21/14 A2959 RMK T02100140 IEM_DS3505
ZBYN,1990-07-15 20:00,ZBYN 152000Z AUTO 10004KT 7SM 21/13 A2959 RMK T02100130 IEM_DS3505
ZBYN,1990-07-15 21:00,ZBYN 152100Z AUTO 22002KT 9SM 18/14 A2959 RMK SLP979 T01780141 52003 IEM_DS3505
ZBYN,1990-07-15 23:00,ZBYN 152300Z AUTO 00000KT 6SM 21/15 A2962 RMK T02100150 IEM_DS3505
ZBYN,1990-07-16 00:00,ZBYN 160000Z AUTO 00000KT 6SM 25/16 A2962 RMK SLP982 T02460161 52005 IEM_DS3505
ZBYN,1990-07-16 01:00,ZBYN 160100Z AUTO 00000KT 5SM 27/16 A2962 RMK T02700160 IEM_DS3505
ZBYN,1990-07-16 02:00,ZBYN 160200Z AUTO 18004KT 6SM 28/15 A2962 RMK T02800150 IEM_DS3505
ZBYN,1990-07-16 03:00,ZBYN 160300Z AUTO 16006KT 6SM 28/20 A2959 RMK SLP975 T02800199 57011 IEM_DS3505
ZBYN,1990-07-16 04:00,ZBYN 160400Z AUTO 20006KT 6SM 28/18 A2959 RMK T02800180 IEM_DS3505
ZBYN,1990-07-16 05:00,ZBYN 160500Z AUTO 17008KT 6SM 29/16 A2956 RMK T02900160 IEM_DS3505
ZBYN,1990-07-16 06:00,ZBYN 160600Z AUTO 20006KT 6SM 28/20 A2956 RMK SLP960 T02790196 57012 IEM_DS3505
ZBYN,1990-07-16 07:00,ZBYN 160700Z AUTO 22012KT 6SM 29/19 A2953 RMK T02900190 IEM_DS3505
ZBYN,1990-07-16 08:00,ZBYN 160800Z AUTO 22016KT 6SM 29/20 A2953 RMK T02900200 IEM_DS3505
ZBYN,1990-07-16 09:00,ZBYN 160900Z AUTO 22008KT 6SM 28/15 A2953 RMK SLP962 T02790150 57007 IEM_DS3505
ZBYN,1990-07-16 11:00,ZBYN 161100Z AUTO 22012KT 6SM 26/18 A2956 RMK T02600180 IEM_DS3505
ZBYN,1990-07-16 12:00,ZBYN 161200Z AUTO 18004KT 19SM 25/16 A2956 RMK SLP963 T02470160 52006 IEM_DS3505
ZBYN,1990-07-16 13:00,ZBYN 161300Z AUTO 17006KT 6SM 24/13 A2956 RMK T02400130 IEM_DS3505
ZBYN,1990-07-16 14:00,ZBYN 161400Z AUTO 07004KT 6SM 23/13 A2959 RMK T02300130 IEM_DS3505
ZBYN,1990-07-16 15:00,ZBYN 161500Z AUTO 00000KT 9SM 21/14 A2956 RMK SLP971 T02140140 52007 IEM_DS3505
ZBYN,1990-07-16 16:00,ZBYN 161600Z AUTO 00000KT 6SM 21/14 A2959 RMK T02100140 IEM_DS3505
ZBYN,1990-07-16 17:00,ZBYN 161700Z AUTO 00000KT 6SM 20/15 A2956 RMK T02000150 IEM_DS3505
ZBYN,1990-07-16 18:00,ZBYN 161800Z AUTO 00000KT 7SM 19/15 A2956 RMK SLP964 T01900149 40291//// 57010 IEM_DS3505
ZBYN,1990-07-16 19:00,ZBYN 161900Z AUTO 12006KT 6SM 19/15 A2953 RMK T01900150 IEM_DS3505
ZBYN,1990-07-16 20:00,ZBYN 162000Z AUTO 10006KT 6SM 19/14 A2953 RMK T01900140 IEM_DS3505
ZBYN,1990-07-16 21:00,ZBYN 162100Z AUTO 00000KT 6SM 17/15 A2953 RMK SLP960 T01740149 57005 IEM_DS3505
ZBYN,1990-07-16 23:00,ZBYN 162300Z AUTO 10004KT 6SM 20/14 A2953 RMK T02000140 IEM_DS3505
ZBYN,1990-07-17 00:00,ZBYN 170000Z AUTO 00000KT 7SM 22/14 A2953 RMK SLP961 T02200143 52002 IEM_DS3505
ZBYN,1990-07-17 01:00,ZBYN 170100Z AUTO 00000KT 6SM 25/15 A2953 RMK T02500150 IEM_DS3505
ZBYN,1990-07-17 02:00,ZBYN 170200Z AUTO 20006KT 6SM 26/15 A2953 RMK T02600150 IEM_DS3505
ZBYN,1990-07-17 03:00,ZBYN 170300Z AUTO 18006KT 5SM 28/17 A2950 RMK SLP950 T02750173 57007 IEM_DS3505
ZBYN,1990-07-17 05:00,ZBYN 170500Z AUTO 19006KT 7SM 29/18 A2947 RMK T02900180 IEM_DS3505
ZBYN,1990-07-17 06:00,ZBYN 170600Z AUTO 18006KT 9SM 30/17 A2944 RMK SLP925 T03030166 57022 IEM_DS3505
ZBYN,1990-07-17 07:00,ZBYN 170700Z AUTO 21012KT 7SM 31/18 A2941 RMK T03100180 IEM_DS3505
ZBYN,1990-07-17 08:00,ZBYN 170800Z AUTO 22014KT 7SM 32/15 A2941 RMK T03200150 IEM_DS3505
ZBYN,1990-07-17 09:00,ZBYN 170900Z AUTO 32010KT 9SM 31/12 A2941 RMK SLP916 T03110116 57009 IEM_DS3505
ZBYN,1990-07-17 10:00,ZBYN 171000Z AUTO 30010KT 7SM 30/13 A2941 RMK T03000130 IEM_DS3505
ZBYN,1990-07-17 11:00,ZBYN 171100Z AUTO 29006KT 7SM 29/16 A2941 RMK T02900160 IEM_DS3505
ZBYN,1990-07-17 12:00,ZBYN 171200Z AUTO 27004KT 9SM 28/14 A2944 RMK SLP924 T02800143 52009 IEM_DS3505
ZBYN,1990-07-17 13:00,ZBYN 171300Z AUTO 29006KT 7SM 25/14 A2947 RMK T02500140 IEM_DS3505
ZBYN,1990-07-17 14:00,ZBYN 171400Z AUTO 31006KT 7SM 24/15 A2947 RMK T02400150 IEM_DS3505
ZBYN,1990-07-17 15:00,ZBYN 171500Z AUTO 00000KT 9SM 24/17 A2950 RMK SLP936 T02400167 52013 IEM_DS3505
ZBYN,1990-07-17 16:00,ZBYN 171600Z AUTO 00000KT 7SM 24/16 A2950 RMK T02400160 IEM_DS3505
ZBYN,1990-07-17 17:00,ZBYN 171700Z AUTO 00000KT 7SM A2961 RMK IEM_DS3505
ZBYN,1990-07-17 18:00,ZBYN 171800Z AUTO 00000KT 9SM 21/17 A2947 RMK SLP935 T02090168 40321//// 57001 IEM_DS3505
ZBYN,1990-07-17 19:00,ZBYN 171900Z AUTO 00000KT 7SM 21/16 A2947 RMK T02100160 IEM_DS3505
ZBYN,1990-07-17 21:00,ZBYN 172100Z AUTO 00000KT 9SM 19/16 A2949 RMK SLP940 T01920162 52003 IEM_DS3505
ZBYN,1990-07-18 00:00,ZBYN 180000Z AUTO 14002KT 7SM 25/17 A2956 RMK SLP954 T02480171 52016 IEM_DS3505
ZBYN,1990-07-18 01:00,ZBYN 180100Z AUTO 15004KT 7SM 26/17 A2956 RMK T02600170 IEM_DS3505
ZBYN,1990-07-18 02:00,ZBYN 180200Z AUTO 27002KT 7SM 28/18 A2956 RMK T02800180 IEM_DS3505
ZBYN,1990-07-18 03:00,ZBYN 180300Z AUTO 18004KT 9SM 28/18 A2956 RMK SLP963 T02830181 52008 IEM_DS3505
ZBYN,1990-07-18 04:00,ZBYN 180400Z AUTO 18008KT 7SM 29/17 A2956 RMK T02900170 IEM_DS3505
ZBYN,1990-07-18 05:00,ZBYN 180500Z AUTO 24010KT 7SM 30/15 A2953 RMK T03000150 IEM_DS3505
ZBYN,1990-07-18 06:00,ZBYN 180600Z AUTO 20006KT 12SM 29/17 A2950 RMK SLP951 T02910171 4////0181 57014 IEM_DS3505
ZBYN,1990-07-18 07:00,ZBYN 180700Z AUTO 25012KT 7SM 27/17 A2953 RMK T02700170 IEM_DS3505
ZBYN,1990-07-18 08:00,ZBYN 180800Z AUTO 00000KT 7SM 28/18 A2950 RMK T02800180 IEM_DS3505
ZBYN,1990-07-18 09:00,ZBYN 180900Z AUTO 16006KT 12SM 30/17 A2950 RMK SLP943 T03050170 57008 IEM_DS3505
ZBYN,1990-07-18 10:00,ZBYN 181000Z AUTO 09008KT 7SM 28/19 A2950 RMK T02800190 IEM_DS3505
ZBYN,1990-07-18 11:00,ZBYN 181100Z AUTO 34004KT 6SM A2959 RMK 60012 SLP997 52042 IEM_DS3505
ZBYN,1990-07-18 12:00,ZBYN 181200Z AUTO 34004KT 6SM 20/18 A2959 RMK 60012 SLP997 T01980183 52042 IEM_DS3505
ZBYN,1990-07-18 13:00,ZBYN 181300Z AUTO 00000KT 7SM 20/19 A2962 RMK T02000190 IEM_DS3505
ZBYN,1990-07-18 14:00,ZBYN 181400Z AUTO 16004KT 7SM 20/18 A2965 RMK T02000180 IEM_DS3505
ZBYN,1990-07-18 15:00,ZBYN 181500Z AUTO 36004KT 6SM 19/18 A2965 RMK SLP997 T01940182 52005 IEM_DS3505
ZBYN,1990-07-18 16:00,ZBYN 181600Z AUTO 14008KT 7SM 19/17 A2968 RMK T01900170 IEM_DS3505
ZBYN,1990-07-18 17:00,ZBYN 181700Z AUTO 00000KT 7SM 18/17 A2968 RMK T01800170 IEM_DS3505
ZBYN,1990-07-18 18:00,ZBYN 181800Z AUTO 20004KT 6SM 18/17 A2965 RMK 60028 SLP009 T01810173 52010 IEM_DS3505
ZBYN,1990-07-18 19:00,ZBYN 181900Z AUTO 03006KT 7SM 18/17 A2968 RMK T01800170 IEM_DS3505
ZBYN,1990-07-18 20:00,ZBYN 182000Z AUTO 01002KT 7SM 18/17 A2968 RMK T01800170 IEM_DS3505
ZBYN,1990-07-18 21:00,ZBYN 182100Z AUTO 34006KT 5SM 19/ A2968 RMK SLP992 57004 IEM_DS3505
ZBYN,1990-07-18 22:00,ZBYN 182200Z AUTO 00000KT 7SM 19/18 A2968 RMK T01900180 IEM_DS3505
ZBYN,1990-07-18 23:00,ZBYN 182300Z AUTO 00000KT 7SM 19/18 A2971 RMK T01900180 IEM_DS3505
ZBYN,1990-07-19 00:00,ZBYN 190000Z AUTO 00000KT 6SM 20/18 A2974 RMK 70039 SLP036 T02020177 52019 IEM_DS3505
ZBYN,1990-07-19 01:00,ZBYN 190100Z AUTO 05008KT 6SM 22/17 A2974 RMK T02200170 IEM_DS3505
ZBYN,1990-07-19 02:00,ZBYN 190200Z AUTO 07008KT 7SM 22/18 A2974 RMK T02200180 IEM_DS3505
ZBYN,1990-07-19 03:00,ZBYN 190300Z AUTO 00000KT 7SM 24/18 A2974 RMK SLP032 T02430182 52001 IEM_DS3505
ZBYN,1990-07-19 04:00,ZBYN 190400Z AUTO 08006KT 7SM 25/19 A2974 RMK T02500190 IEM_DS3505
ZBYN,1990-07-19 05:00,ZBYN 190500Z AUTO 06004KT 7SM 26/19 A2971 RMK T02600190 IEM_DS3505
ZBYN,1990-07-19 06:00,ZBYN 190600Z AUTO 27002KT 9SM 27/19 A2968 RMK SLP019 T02660190 4////0174 57010 IEM_DS3505
ZBYN,1990-07-19 07:00,ZBYN 190700Z AUTO 11016KT 7SM 25/17 A2971 RMK T02500170 IEM_DS3505
ZBYN,1990-07-19 08:00,ZBYN 190800Z AUTO 08010KT 7SM 25/18 A2968 RMK T02500180 IEM_DS3505
ZBYN,1990-07-19 09:00,ZBYN 190900Z AUTO 09006KT 16SM 25/17 A2971 RMK SLP020 T02490172 IEM_DS3505
ZBYN,1990-07-19 10:00,ZBYN 191000Z AUTO 09010KT 7SM 24/17 A2968 RMK T02400170 IEM_DS3505
ZBYN,1990-07-19 11:00,ZBYN 191100Z AUTO 07014KT 7SM 23/17 A2971 RMK T02300170 IEM_DS3505
ZBYN,1990-07-19 12:00,ZBYN 191200Z AUTO 09006KT 9SM 22/17 A2974 RMK 60002 SLP049 T02210166 52025 IEM_DS3505
ZBYN,1990-07-19 13:00,ZBYN 191300Z AUTO 09014KT 7SM 21/17 A2977 RMK T02100170 IEM_DS3505
ZBYN,1990-07-19 14:00,ZBYN 191400Z AUTO 07010KT 7SM 20/18 A2980 RMK T02000180 IEM_DS3505
ZBYN,1990-07-19 15:00,ZBYN 191500Z AUTO 00000KT 6SM 20/18 A2980 RMK SLP059 T02030185 52012 IEM_DS3505
ZBYN,1990-07-19 16:00,ZBYN 191600Z AUTO 07006KT 6SM 20/16 A2983 RMK T02000160 IEM_DS3505
ZBYN,1990-07-19 17:00,ZBYN 191700Z AUTO 08006KT 7SM 19/17 A2980 RMK T01900170 IEM_DS3505
ZBYN,1990-07-19 18:00,ZBYN 191800Z AUTO 34004KT 6SM 18/18 A2980 RMK 60016 SLP059 T01810175 40266//// 54000 IEM_DS3505
ZBYN,1990-07-19 19:00,ZBYN 191900Z AUTO 36006KT 4SM 18/18 A2980 RMK T01800180 IEM_DS3505
ZBYN,1990-07-19 20:00,ZBYN 192000Z AUTO 33004KT 2 1/2SM 19/18 A2980 RMK T01900180 IEM_DS3505
ZBYN,1990-07-19 21:00,ZBYN 192100Z AUTO 34004KT 6SM 18/17 A2981 RMK 70020 SLP061 T01840168 54000 IEM_DS3505
ZBYN,1990-07-19 22:00,ZBYN 192200Z AUTO 33004KT 3SM 18/18 A2983 RMK T01800180 IEM_DS3505
ZBYN,1990-07-20 00:00,ZBYN 200000Z AUTO 34004KT 5SM 19/18 A2985 RMK 60002 70059 SLP080 T01940175 52015 IEM_DS3505
ZBYN,1990-07-20 01:00,ZBYN 200100Z AUTO 01002KT 4SM 21/19 A2985 RMK T02100190 IEM_DS3505
ZBYN,1990-07-20 02:00,ZBYN 200200Z AUTO 09004KT 7SM 22/18 A2985 RMK T02200180 IEM_DS3505
ZBYN,1990-07-20 03:00,ZBYN 200300Z AUTO 00000KT 5SM 23/18 A2985 RMK SLP073 T02310185 57004 IEM_DS3505
ZBYN,1990-07-20 04:00,ZBYN 200400Z AUTO 11008KT 7SM 24/19 A2985 RMK T02400190 IEM_DS3505
ZBYN,1990-07-20 05:00,ZBYN 200500Z AUTO 09004KT 7SM 25/20 A2983 RMK T02500200 IEM_DS3505
ZBYN,1990-07-20 06:00,ZBYN 200600Z AUTO 00000KT 7SM 26/19 A2980 RMK 60004 SLP059 T02590193 4////0124 57012 IEM_DS3505
ZBYN,1990-07-20 07:00,ZBYN 200700Z AUTO 10004KT 7SM 26/20 A2980 RMK T02600200 IEM_DS3505
ZBYN,1990-07-20 08:00,ZBYN 200800Z AUTO 08008KT 7SM 27/20 A2980 RMK T02700200 IEM_DS3505
ZBYN,1990-07-20 09:00,ZBYN 200900Z AUTO 11006KT 6SM 27/19 A2977 RMK SLP046 T02660193 52010 IEM_DS3505
ZBYN,1990-07-20 10:00,ZBYN 201000Z AUTO 10012KT 6SM 24/20 A2980 RMK T02400200 IEM_DS3505
ZBYN,1990-07-20 11:00,ZBYN 201100Z AUTO 10010KT 6SM 23/19 A2980 RMK T02300190 IEM_DS3505
ZBYN,1990-07-20 12:00,ZBYN 201200Z AUTO 11004KT 6SM 22/19 A2983 RMK SLP063 T02240189 52011 IEM_DS3505
ZBYN,1990-07-20 13:00,ZBYN 201300Z AUTO 08008KT 7SM 23/18 A2983 RMK T02300180 IEM_DS3505
ZBYN,1990-07-20 14:00,ZBYN 201400Z AUTO 06004KT 7SM 23/18 A2985 RMK T02300180 IEM_DS3505
ZBYN,1990-07-20 15:00,ZBYN 201500Z AUTO 00000KT 6SM 22/19 A2983 RMK SLP067 T02200194 52008 IEM_DS3505
ZBYN,1990-07-20 16:00,ZBYN 201600Z AUTO 00000KT 6SM 21/19 A2983 RMK T02100190 IEM_DS3505
ZBYN,1990-07-20 17:00,ZBYN 201700Z AUTO 00000KT 6SM 21/18 A2983 RMK T02100180 IEM_DS3505
ZBYN,1990-07-20 18:00,ZBYN 201800Z AUTO 00000KT 6SM 20/19 A2983 RMK SLP061 T02020188 40266//// 57004 IEM_DS3505
ZBYN,1990-07-20 19:00,ZBYN 201900Z AUTO 00000KT 7SM 19/19 A2983 RMK T01900190 IEM_DS3505
ZBYN,1990-07-20 20:00,ZBYN 202000Z AUTO 00000KT 7SM 20/19 A2985 RMK T02000190 IEM_DS3505
ZBYN,1990-07-20 21:00,ZBYN 202100Z AUTO 32002KT 6SM 20/18 A2982 RMK SLP058 T01960184 57003 IEM_DS3505
ZBYN,1990-07-20 22:00,ZBYN 202200Z AUTO 11006KT 4SM 20/19 A2983 RMK T02000190 IEM_DS3505
ZBYN,1990-07-20 23:00,ZBYN 202300Z AUTO 06006KT 4SM 20/19 A2983 RMK T02000190 IEM_DS3505
ZBYN,1990-07-21 00:00,ZBYN 210000Z AUTO 00000KT 3SM 22/20 A2983 RMK SLP067 T02150197 52005 IEM_DS3505
ZBYN,1990-07-21 01:00,ZBYN 210100Z AUTO 07004KT 6SM 24/20 A2983 RMK T02400200 IEM_DS3505
ZBYN,1990-07-21 02:00,ZBYN 210200Z AUTO 03006KT 4SM 25/20 A2983 RMK T02500200 IEM_DS3505
ZBYN,1990-07-21 03:00,ZBYN 210300Z AUTO 36006KT 4SM 25/20 A2983 RMK SLP062 T02500200 54000 IEM_DS3505
ZBYN,1990-07-21 04:00,ZBYN 210400Z AUTO 09010KT 7SM 27/23 A2980 RMK T02700230 IEM_DS3505
ZBYN,1990-07-21 05:00,ZBYN 210500Z AUTO 08012KT 7SM 27/20 A2980 RMK T02700200 IEM_DS3505
ZBYN,1990-07-21 06:00,ZBYN 210600Z AUTO 09008KT 6SM 28/20 A2980 RMK SLP048 T02770196 4////0183 57011 IEM_DS3505
ZBYN,1990-07-21 07:00,ZBYN 210700Z AUTO 09014KT 7SM 28/19 A2977 RMK T02800190 IEM_DS3505
ZBYN,1990-07-21 08:00,ZBYN 210800Z AUTO 09012KT 6SM 28/19 A2977 RMK T02800190 IEM_DS3505
ZBYN,1990-07-21 09:00,ZBYN 210900Z AUTO 11010KT 6SM 28/19 A2977 RMK SLP991 T02750187 57054 IEM_DS3505
ZBYN,1990-07-21 11:00,ZBYN 211100Z AUTO 12010KT 6SM 25/20 A2977 RMK T02500200 IEM_DS3505
ZBYN,1990-07-21 12:00,ZBYN 211200Z AUTO 11006KT 6SM 24/19 A2980 RMK SLP050 T02370190 52006 IEM_DS3505
ZBYN,1990-07-21 13:00,ZBYN 211300Z AUTO 11008KT 6SM 23/19 A2980 RMK T02300190 IEM_DS3505
ZBYN,1990-07-21 14:00,ZBYN 211400Z AUTO 09008KT 6SM 23/19 A2983 RMK T02300190 IEM_DS3505
ZBYN,1990-07-21 15:00,ZBYN 211500Z AUTO 09002KT 6SM 23/20 A2983 RMK SLP057 T02290201 52010 IEM_DS3505
ZBYN,1990-07-21 16:00,ZBYN 211600Z AUTO 08006KT 6SM 22/19 A2983 RMK T02200190 IEM_DS3505
ZBYN,1990-07-21 18:00,ZBYN 211800Z AUTO 00000KT 4SM 22/20 A2980 RMK SLP049 T02180195 40286//// 57005 IEM_DS3505
ZBYN,1990-07-21 20:00,ZBYN 212000Z AUTO 00000KT 6SM 22/20 A2980 RMK T02200200 IEM_DS3505
ZBYN,1990-07-21 21:00,ZBYN 212100Z AUTO 00000KT 2SM 21/20 A2980 RMK T02100200 IEM_DS3505
ZBYN,1990-07-21 22:00,ZBYN 212200Z AUTO 30004KT 2SM 21/20 A2980 RMK T02100200 IEM_DS3505
ZBYN,1990-07-21 23:00,ZBYN 212300Z AUTO 35004KT 2 1/2SM 22/20 A2980 RMK T02200200 IEM_DS3505
ZBYN,1990-07-22 00:00,ZBYN 220000Z AUTO 34004KT 6SM 22/19 A2980 RMK SLP057 T02220190 52003 IEM_DS3505
ZBYN,1990-07-22 01:00,ZBYN 220100Z AUTO 00000KT 3SM 25/20 A2980 RMK T02500200 IEM_DS3505
ZBYN,1990-07-22 03:00,ZBYN 220300Z AUTO 00000KT 6SM 27/20 A2980 RMK SLP048 T02690201 57003 IEM_DS3505
ZBYN,1990-07-22 04:00,ZBYN 220400Z AUTO 21004KT 6SM 26/21 A2980 RMK T02600210 IEM_DS3505
ZBYN,1990-07-22 05:00,ZBYN 220500Z AUTO 18006KT 7SM 25/21 A2980 RMK T02500210 IEM_DS3505
ZBYN,1990-07-22 06:00,ZBYN 220600Z AUTO 22008KT 5SM 25/21 A2980 RMK SLP050 T02460211 4////0204 57003 IEM_DS3505
ZBYN,1990-07-22 07:00,ZBYN 220700Z AUTO 20006KT 6SM 24/21 A2980 RMK T02400210 IEM_DS3505
ZBYN,1990-07-22 08:00,ZBYN 220800Z AUTO 18006KT 7SM 24/21 A2977 RMK T02400210 IEM_DS3505
ZBYN,1990-07-22 09:00,ZBYN 220900Z AUTO 16006KT 5SM 23/21 A2977 RMK SLP042 T02340212 57010 IEM_DS3505
ZBYN,1990-07-22 10:00,ZBYN 221000Z AUTO 17006KT 6SM 24/21 A2974 RMK T02400210 IEM_DS3505
ZBYN,1990-07-22 11:00,ZBYN 221100Z AUTO 00000KT 6SM 24/21 A2974 RMK T02400210 IEM_DS3505
ZBYN,1990-07-22 12:00,ZBYN 221200Z AUTO 14004KT 5SM 23/21 A2977 RMK SLP039 T02320210 57001 IEM_DS3505
ZBYN,1990-07-22 13:00,ZBYN 221300Z AUTO 00000KT 7SM 23/22 A2977 RMK T02300220 IEM_DS3505
ZBYN,1990-07-22 14:00,ZBYN 221400Z AUTO 16004KT 7SM 22/22 A2977 RMK T02200220 IEM_DS3505
ZBYN,1990-07-22 15:00,ZBYN 221500Z AUTO 11004KT 6SM 22/21 A2977 RMK SLP035 T02200211 52001 IEM_DS3505
ZBYN,1990-07-22 16:00,ZBYN 221600Z AUTO 15006KT 4SM 22/21 A2977 RMK T02200210 IEM_DS3505
ZBYN,1990-07-22 17:00,ZBYN 221700Z AUTO 00000KT 4SM 22/21 A2974 RMK T02200210 IEM_DS3505
ZBYN,1990-07-22 18:00,ZBYN 221800Z AUTO 14002KT 6SM 21/20 A2974 RMK 60002 SLP032 T02100204 40269//// 57007 IEM_DS3505
ZBYN,1990-07-22 21:00,ZBYN 222100Z AUTO 00000KT 6SM 21/21 A2971 RMK SLP028 T02110207 57005 IEM_DS3505
ZBYN,1990-07-22 22:00,ZBYN 222200Z AUTO 00000KT 2 1/2SM 21/21 A2974 RMK T02100210 IEM_DS3505
ZBYN,1990-07-22 23:00,ZBYN 222300Z AUTO 00000KT 2 1/2SM 22/21 A2974 RMK T02200210 IEM_DS3505
ZBYN,1990-07-23 00:00,ZBYN 230000Z AUTO 14004KT 5SM 23/21 A2974 RMK SLP031 T02310212 52005 IEM_DS3505
ZBYN,1990-07-23 01:00,ZBYN 230100Z AUTO 31004KT 7SM 25/21 A2974 RMK T02500210 IEM_DS3505
ZBYN,1990-07-23 02:00,ZBYN 230200Z AUTO 00000KT 7SM 26/21 A2974 RMK T02600210 IEM_DS3505
ZBYN,1990-07-23 03:00,ZBYN 230300Z AUTO 16004KT 5SM 28/23 A2974 RMK SLP026 T02790233 54000 IEM_DS3505
ZBYN,1990-07-23 04:00,ZBYN 230400Z AUTO 18006KT 7SM 29/21 A2971 RMK T02900210 IEM_DS3505
ZBYN,1990-07-23 05:00,ZBYN 230500Z AUTO 17006KT 7SM 30/23 A2971 RMK T03000230 IEM_DS3505
ZBYN,1990-07-23 06:00,ZBYN 230600Z AUTO 18004KT 7SM 31/21 A2971 RMK SLP009 T03060214 4////0188 57013 IEM_DS3505
ZBYN,1990-07-23 07:00,ZBYN 230700Z AUTO 00000KT 7SM 30/22 A2968 RMK T03000220 IEM_DS3505
ZBYN,1990-07-23 08:00,ZBYN 230800Z AUTO 22006KT 7SM 31/22 A2968 RMK T03100220 IEM_DS3505
ZBYN,1990-07-23 09:00,ZBYN 230900Z AUTO 18004KT 7SM 30/21 A2965 RMK SLP997 T03040214 57012 IEM_DS3505
ZBYN,1990-07-23 10:00,ZBYN 231000Z AUTO 17004KT 7SM 31/23 A2965 RMK T03100230 IEM_DS3505
ZBYN,1990-07-23 11:00,ZBYN 231100Z AUTO 00000KT 7SM 29/22 A2968 RMK T02900220 IEM_DS3505
ZBYN,1990-07-23 12:00,ZBYN 231200Z AUTO 14002KT 7SM 27/23 A2968 RMK SLP004 T02720230 52005 IEM_DS3505
ZBYN,1990-07-23 13:00,ZBYN 231300Z AUTO 09004KT 7SM 26/23 A2968 RMK T02600230 IEM_DS3505
ZBYN,1990-07-23 14:00,ZBYN 231400Z AUTO 00000KT 7SM 26/23 A2971 RMK T02600230 IEM_DS3505
ZBYN,1990-07-23 15:00,ZBYN 231500Z AUTO 00000KT 7SM 25/23 A2971 RMK SLP013 T02530229 52012 IEM_DS3505
ZBYN,1990-07-23 16:00,ZBYN 231600Z AUTO 09004KT 6SM 25/23 A2971 RMK T02500230 IEM_DS3505
ZBYN,1990-07-23 17:00,ZBYN 231700Z AUTO 11004KT 7SM 24/22 A2971 RMK T02400220 IEM_DS3505
ZBYN,1990-07-23 18:00,ZBYN 231800Z AUTO 00000KT 7SM 23/22 A2971 RMK SLP011 T02260219 40307//// 57002 IEM_DS3505
ZBYN,1990-07-23 19:00,ZBYN 231900Z AUTO 00000KT 6SM 23/22 A2971 RMK T02300220 IEM_DS3505
ZBYN,1990-07-23 20:00,ZBYN 232000Z AUTO 00000KT 7SM 22/21 A2971 RMK T02200210 IEM_DS3505
ZBYN,1990-07-23 21:00,ZBYN 232100Z AUTO 00000KT 7SM 22/21 A2971 RMK SLP012 T02240208 54000 IEM_DS3505
ZBYN,1990-07-23 23:00,ZBYN 232300Z AUTO 00000KT 3SM 22/21 A2971 RMK T02200210 IEM_DS3505
ZBYN,1990-07-24 00:00,ZBYN 240000Z AUTO 00000KT 5SM 24/22 A2974 RMK SLP018 T02430220 52004 IEM_DS3505
ZBYN,1990-07-24 03:00,ZBYN 240300Z AUTO 32002KT 6SM 30/22 A2971 RMK SLP010 T03040225 57002 IEM_DS3505
ZBYN,1990-07-24 06:00,ZBYN 240600Z AUTO 29004KT 7SM 33/21 A2967 RMK SLP994 T03300209 4////0208 57014 IEM_DS3505
ZBYN,1990-07-24 09:00,ZBYN 240900Z AUTO 14002KT 7SM 33/22 A2964 RMK SLP984 T03340220 57009 IEM_DS3505
ZBYN,1990-07-24 11:00,ZBYN 241100Z AUTO 12010KT 7SM 32/21 A2965 RMK T03200210 IEM_DS3505
ZBYN,1990-07-24 12:00,ZBYN 241200Z AUTO 02004KT 12SM 29/21 A2965 RMK SLP997 T02910207 52008 IEM_DS3505
ZBYN,1990-07-24 13:00,ZBYN 241300Z AUTO 16010KT 7SM 27/19 A2968 RMK T02700190 IEM_DS3505
ZBYN,1990-07-24 14:00,ZBYN 241400Z AUTO 10006KT 7SM 27/20 A2971 RMK T02700200 IEM_DS3505
ZBYN,1990-07-24 15:00,ZBYN 241500Z AUTO 00000KT 9SM 25/21 A2973 RMK SLP015 T02510207 52020 IEM_DS3505
ZBYN,1990-07-24 16:00,ZBYN 241600Z AUTO 08004KT 7SM 26/20 A2974 RMK T02600200 IEM_DS3505
ZBYN,1990-07-24 18:00,ZBYN 241800Z AUTO 00000KT 7SM 24/20 A2975 RMK SLP019 T02360205 40343//// 52005 IEM_DS3505
ZBYN,1990-07-24 19:00,ZBYN 241900Z AUTO 30006KT 7SM 23/21 A2974 RMK T02300210 IEM_DS3505
ZBYN,1990-07-24 20:00,ZBYN 242000Z AUTO 00000KT 7SM 22/21 A2974 RMK T02200210 IEM_DS3505
ZBYN,1990-07-24 21:00,ZBYN 242100Z AUTO 00000KT 7SM 21/20 A2976 RMK SLP026 T02110197 52003 IEM_DS3505
ZBYN,1990-07-24 22:00,ZBYN 242200Z AUTO 03004KT 3SM 25/22 A2974 RMK T02500220 IEM_DS3505
ZBYN,1990-07-24 23:00,ZBYN 242300Z AUTO 00000KT 2SM 23/21 A2977 RMK T02300210 IEM_DS3505
ZBYN,1990-07-25 00:00,ZBYN 250000Z AUTO 07008KT 6SM 26/21 A2980 RMK SLP039 T02610210 52013 IEM_DS3505
ZBYN,1990-07-25 01:00,ZBYN 250100Z AUTO 07016KT 7SM 26/21 A2980 RMK T02600210 IEM_DS3505
ZBYN,1990-07-25 02:00,ZBYN 250200Z AUTO 09017KT 7SM 27/20 A2980 RMK T02700200 IEM_DS3505
ZBYN,1990-07-25 03:00,ZBYN 250300Z AUTO 09008KT 6SM 29/22 A2980 RMK SLP039 T02910218 57001 IEM_DS3505
ZBYN,1990-07-25 04:00,ZBYN 250400Z AUTO 07012KT 7SM 29/21 A2980 RMK T02900210 IEM_DS3505
ZBYN,1990-07-25 05:00,ZBYN 250500Z AUTO 06014KT 7SM 29/21 A2977 RMK T02900210 IEM_DS3505
ZBYN,1990-07-25 06:00,ZBYN 250600Z AUTO 11008KT 6SM 31/21 A2974 RMK SLP019 T03080212 4////0204 57018 IEM_DS3505
ZBYN,1990-07-25 07:00,ZBYN 250700Z AUTO 08012KT 7SM 30/22 A2971 RMK T03000220 IEM_DS3505
ZBYN,1990-07-25 08:00,ZBYN 250800Z AUTO 08014KT 7SM 30/22 A2968 RMK T03000220 IEM_DS3505
ZBYN,1990-07-25 09:00,ZBYN 250900Z AUTO 11010KT 6SM 29/22 A2968 RMK SLP007 T02890225 57017 IEM_DS3505
ZBYN,1990-07-25 10:00,ZBYN 251000Z AUTO 10016KT 7SM 26/20 A2971 RMK T02600200 IEM_DS3505
ZBYN,1990-07-25 11:00,ZBYN 251100Z AUTO 10016KT 6SM 24/19 A2971 RMK T02400190 IEM_DS3505
ZBYN,1990-07-25 12:00,ZBYN 251200Z AUTO 09004KT 5SM 25/20 A2971 RMK SLP019 T02480201 52012 IEM_DS3505
ZBYN,1990-07-25 13:00,ZBYN 251300Z AUTO 09019KT 7SM 23/18 A2971 RMK T02300180 IEM_DS3505
ZBYN,1990-07-25 14:00,ZBYN 251400Z AUTO 08012KT 7SM 22/18 A2974 RMK T02200180 IEM_DS3505
ZBYN,1990-07-25 15:00,ZBYN 251500Z AUTO 00000KT 6SM 23/20 A2974 RMK SLP028 T02320196 52010 IEM_DS3505
ZBYN,1990-07-25 16:00,ZBYN 251600Z AUTO 05006KT 7SM 22/18 A2977 RMK T02200180 IEM_DS3505
ZBYN,1990-07-25 17:00,ZBYN 251700Z AUTO 08010KT 7SM 21/19 A2977 RMK T02100190 IEM_DS3505
ZBYN,1990-07-25 18:00,ZBYN 251800Z AUTO 00000KT 6SM 22/20 A2974 RMK SLP023 T02220200 40317//// 57003 IEM_DS3505
ZBYN,1990-07-25 20:00,ZBYN 252000Z AUTO 09010KT 6SM 22/18 A2974 RMK T02200180 IEM_DS3505
ZBYN,1990-07-25 21:00,ZBYN 252100Z AUTO 00000KT 6SM 23/19 A2974 RMK SLP016 T02260193 57009 IEM_DS3505
ZBYN,1990-07-25 22:00,ZBYN 252200Z AUTO 05006KT 7SM 22/18 A2977 RMK T02200180 IEM_DS3505
ZBYN,1990-07-25 23:00,ZBYN 252300Z AUTO 11006KT 7SM 22/18 A2971 RMK T02200180 IEM_DS3505
ZBYN,1990-07-26 00:00,ZBYN 260000Z AUTO 11004KT 5SM 22/20 A2974 RMK 60000 SLP023 T02240204 52001 IEM_DS3505
ZBYN,1990-07-26 01:00,ZBYN 260100Z AUTO 10006KT 7SM 24/20 A2971 RMK T02400200 IEM_DS3505
ZBYN,1990-07-26 02:00,ZBYN 260200Z AUTO 17004KT 7SM 26/21 A2971 RMK T02600210 IEM_DS3505
ZBYN,1990-07-26 03:00,ZBYN 260300Z AUTO 18006KT 6SM 27/22 A2968 RMK SLP011 T02700220 57008 IEM_DS3505
ZBYN,1990-07-26 04:00,ZBYN 260400Z AUTO 00000KT 7SM 27/22 A2968 RMK T02700220 IEM_DS3505
ZBYN,1990-07-26 05:00,ZBYN 260500Z AUTO 21014KT 7SM 25/20 A2968 RMK T02500200 IEM_DS3505
ZBYN,1990-07-26 06:00,ZBYN 260600Z AUTO 18008KT 12SM 26/21 A2968 RMK SLP004 T02550207 4////0214 57009 IEM_DS3505
ZBYN,1990-07-26 07:00,ZBYN 260700Z AUTO 22016KT 6SM 27/21 A2965 RMK T02700210 IEM_DS3505
ZBYN,1990-07-26 08:00,ZBYN 260800Z AUTO 26012KT 7SM 27/22 A2965 RMK T02700220 IEM_DS3505
ZBYN,1990-07-26 09:00,ZBYN 260900Z AUTO 32006KT 16SM 26/18 A2965 RMK SLP997 T02630179 57007 IEM_DS3505
ZBYN,1990-07-26 10:00,ZBYN 261000Z AUTO 30008KT 6SM 25/19 A2965 RMK T02500190 IEM_DS3505
ZBYN,1990-07-26 11:00,ZBYN 261100Z AUTO 29004KT 7SM 24/19 A2965 RMK T02400190 IEM_DS3505
ZBYN,1990-07-26 12:00,ZBYN 261200Z AUTO 29006KT 19SM 25/17 A2968 RMK SLP014 T02500169 52014 IEM_DS3505
ZBYN,1990-07-26 13:00,ZBYN 261300Z AUTO 29004KT 7SM 23/18 A2971 RMK T02300180 IEM_DS3505
ZBYN,1990-07-26 14:00,ZBYN 261400Z AUTO 00000KT 7SM 23/20 A2974 RMK T02300200 IEM_DS3505
ZBYN,1990-07-26 15:00,ZBYN 261500Z AUTO 00000KT 12SM 22/19 A2974 RMK SLP027 T02220189 52013 IEM_DS3505
ZBYN,1990-07-26 16:00,ZBYN 261600Z AUTO 22006KT 6SM 22/19 A2974 RMK T02200190 IEM_DS3505
ZBYN,1990-07-26 17:00,ZBYN 261700Z AUTO 00000KT 6SM 21/20 A2974 RMK T02100200 IEM_DS3505
ZBYN,1990-07-26 18:00,ZBYN 261800Z AUTO 34002KT 12SM 22/18 A2974 RMK SLP028 T02190176 40274//// 54000 IEM_DS3505
ZBYN,1990-07-26 19:00,ZBYN 261900Z AUTO 20004KT 6SM 20/18 A2974 RMK T02000180 IEM_DS3505
ZBYN,1990-07-26 20:00,ZBYN 262000Z AUTO 00000KT 6SM 19/18 A2974 RMK T01900180 IEM_DS3505
ZBYN,1990-07-26 21:00,ZBYN 262100Z AUTO 14002KT 12SM 18/18 A2974 RMK SLP034 T01810179 52001 IEM_DS3505
ZBYN,1990-07-26 22:00,ZBYN 262200Z AUTO 00000KT 4SM 19/18 A2974 RMK T01900180 IEM_DS3505
ZBYN,1990-07-26 23:00,ZBYN 262300Z AUTO 00000KT 4SM 20/19 A2977 RMK T02000190 IEM_DS3505
ZBYN,1990-07-27 00:00,ZBYN 270000Z AUTO 16002KT 6SM 22/19 A2974 RMK SLP045 T02150192 52013 IEM_DS3505
ZBYN,1990-07-27 03:00,ZBYN 270300Z AUTO 18002KT 6SM 26/18 A2977 RMK SLP038 T02650183 57003 IEM_DS3505
ZBYN,1990-07-27 04:00,ZBYN 270400Z AUTO 19006KT 6SM 26/18 A2977 RMK T02600180 IEM_DS3505
ZBYN,1990-07-27 05:00,ZBYN 270500Z AUTO 18006KT 6SM 28/19 A2974 RMK T02800190 IEM_DS3505
ZBYN,1990-07-27 06:00,ZBYN 270600Z AUTO 18004KT 7SM 29/19 A2974 RMK SLP022 T02900190 4////0173 57012 IEM_DS3505
ZBYN,1990-07-27 07:00,ZBYN 270700Z AUTO 17006KT 7SM 30/19 A2971 RMK T03000190 IEM_DS3505
ZBYN,1990-07-27 08:00,ZBYN 270800Z AUTO 18006KT 7SM 30/19 A2971 RMK T03000190 IEM_DS3505
ZBYN,1990-07-27 09:00,ZBYN 270900Z AUTO 20006KT 7SM 30/20 A2971 RMK SLP017 T03010204 57008 IEM_DS3505
ZBYN,1990-07-27 10:00,ZBYN 271000Z AUTO 23004KT 7SM 30/20 A2971 RMK T03000200 IEM_DS3505
ZBYN,1990-07-27 11:00,ZBYN 271100Z AUTO 00000KT 7SM 29/21 A2968 RMK T02900210 IEM_DS3505
ZBYN,1990-07-27 12:00,ZBYN 271200Z AUTO 00000KT 9SM 25/20 A2972 RMK SLP023 T02500203 52003 IEM_DS3505
ZBYN,1990-07-27 13:00,ZBYN 271300Z AUTO 08006KT 7SM 24/21 A2974 RMK T02400210 IEM_DS3505
ZBYN,1990-07-27 14:00,ZBYN 271400Z AUTO 11004KT 7SM 22/20 A2977 RMK T02200200 IEM_DS3505
ZBYN,1990-07-27 15:00,ZBYN 271500Z AUTO 20002KT 6SM 21/20 A2980 RMK SLP045 T02120198 52022 IEM_DS3505
ZBYN,1990-07-27 16:00,ZBYN 271600Z AUTO 00000KT 7SM 20/18 A2980 RMK T02000180 IEM_DS3505
ZBYN,1990-07-27 19:00,ZBYN 271900Z AUTO 15008KT 7SM 27/25 A2971 RMK T02700250 IEM_DS3505
ZBYN,1990-07-27 21:00,ZBYN 272100Z AUTO 00000KT 6SM 17/16 A2982 RMK SLP058 T01710164 52005 IEM_DS3505
ZBYN,1990-07-27 22:00,ZBYN 272200Z AUTO 05004KT 7SM 17/16 A2985 RMK T01700160 IEM_DS3505
ZBYN,1990-07-28 00:00,ZBYN 280000Z AUTO 00000KT 6SM 22/19 A2985 RMK SLP073 T02230186 52014 IEM_DS3505
ZBYN,1990-07-28 02:00,ZBYN 280200Z AUTO 32004KT 6SM 27/17 A2985 RMK T02700170 IEM_DS3505
ZBYN,1990-07-28 03:00,ZBYN 280300Z AUTO 00000KT 6SM 30/18 A2985 RMK T03000180 IEM_DS3505
ZBYN,1990-07-28 04:00,ZBYN 280400Z AUTO 00000KT 6SM 32/17 A2985 RMK T03200170 IEM_DS3505
ZBYN,1990-07-28 05:00,ZBYN 280500Z AUTO 09006KT 6SM 32/14 A2983 RMK T03200140 IEM_DS3505
ZBYN,1990-07-28 06:00,ZBYN 280600Z AUTO 09004KT 16SM 34/16 A2983 RMK SLP049 T03390159 4////0159 57013 IEM_DS3505
ZBYN,1990-07-28 07:00,ZBYN 280700Z AUTO 09010KT 7SM 33/15 A2980 RMK T03300150 IEM_DS3505
ZBYN,1990-07-28 08:00,ZBYN 280800Z AUTO 07010KT 7SM 32/17 A2980 RMK T03200170 IEM_DS3505
ZBYN,1990-07-28 09:00,ZBYN 280900Z AUTO 09010KT 12SM 31/20 A2980 RMK SLP053 T03080205 57003 IEM_DS3505
ZBYN,1990-07-28 10:00,ZBYN 281000Z AUTO 12019KT 7SM 24/20 A2983 RMK T02400200 IEM_DS3505
ZBYN,1990-07-28 11:00,ZBYN 281100Z AUTO 09010KT 7SM 23/22 A2985 RMK T02300220 IEM_DS3505
ZBYN,1990-07-28 12:00,ZBYN 281200Z AUTO 11004KT 7SM 25/22 A2985 RMK SLP072 T02500221 52017 IEM_DS3505
ZBYN,1990-07-28 13:00,ZBYN 281300Z AUTO 09014KT 7SM 25/21 A2988 RMK T02500210 IEM_DS3505
ZBYN,1990-07-28 14:00,ZBYN 281400Z AUTO 09012KT 6SM 24/21 A2991 RMK T02400210 IEM_DS3505
ZBYN,1990-07-28 15:00,ZBYN 281500Z AUTO 11004KT 7SM 25/21 A2991 RMK SLP076 T02500212 52013 IEM_DS3505
ZBYN,1990-07-28 18:00,ZBYN 281800Z AUTO 09006KT 7SM 24/20 A2991 RMK SLP074 T02420201 52003 IEM_DS3505
ZBYN,1990-07-28 19:00,ZBYN 281900Z AUTO 09008KT 4SM 23/20 A2991 RMK T02300200 IEM_DS3505
ZBYN,1990-07-28 21:00,ZBYN 282100Z AUTO 00000KT 7SM 23/20 A2991 RMK SLP083 T02330203 52003 IEM_DS3505
ZBYN,1990-07-28 22:00,ZBYN 282200Z AUTO 08006KT 6SM 23/20 A2991 RMK T02300200 IEM_DS3505
ZBYN,1990-07-28 23:00,ZBYN 282300Z AUTO 08006KT 5SM 23/19 A2994 RMK T02300190 IEM_DS3505
ZBYN,1990-07-29 00:00,ZBYN 290000Z AUTO 00000KT 6SM 24/21 A2997 RMK SLP103 T02380213 52011 IEM_DS3505
ZBYN,1990-07-29 01:00,ZBYN 290100Z AUTO 09008KT 4SM 22/22 A2997 RMK T02200220 IEM_DS3505
ZBYN,1990-07-29 02:00,ZBYN 290200Z AUTO 11006KT 7SM 24/22 A2997 RMK T02400220 IEM_DS3505
ZBYN,1990-07-29 03:00,ZBYN 290300Z AUTO 07004KT 5SM 25/21 A2997 RMK SLP103 T02510208 52002 IEM_DS3505
ZBYN,1990-07-29 04:00,ZBYN 290400Z AUTO 07012KT 6SM 25/21 A2997 RMK T02500210 IEM_DS3505
ZBYN,1990-07-29 05:00,ZBYN 290500Z AUTO 09012KT 7SM 26/20 A2994 RMK T02600200 IEM_DS3505
ZBYN,1990-07-29 06:00,ZBYN 290600Z AUTO 09006KT 12SM 28/21 A2994 RMK SLP090 T02790206 57009 IEM_DS3505
ZBYN,1990-07-29 07:00,ZBYN 290700Z AUTO 08016KT 6SM 27/19 A2994 RMK T02700190 IEM_DS3505
ZBYN,1990-07-29 08:00,ZBYN 290800Z AUTO 11016KT 6SM 26/19 A2994 RMK T02600190 IEM_DS3505
ZBYN,1990-07-29 09:00,ZBYN 290900Z AUTO 11010KT 12SM 26/20 A2994 RMK SLP090 T02620201 57004 IEM_DS3505
ZBYN,1990-07-29 10:00,ZBYN 291000Z AUTO 10010KT 6SM 25/19 A2991 RMK T02500190 IEM_DS3505
ZBYN,1990-07-29 11:00,ZBYN 291100Z AUTO 10012KT 6SM 24/19 A2994 RMK T02400190 IEM_DS3505
ZBYN,1990-07-29 12:00,ZBYN 291200Z AUTO 09008KT 7SM 24/20 A2994 RMK SLP103 T02430198 52010 IEM_DS3505
ZBYN,1990-07-29 13:00,ZBYN 291300Z AUTO 09008KT 6SM 24/19 A2997 RMK T02400190 IEM_DS3505
ZBYN,1990-07-29 14:00,ZBYN 291400Z AUTO 10010KT 6SM 23/19 A3000 RMK T02300190 IEM_DS3505
ZBYN,1990-07-29 15:00,ZBYN 291500Z AUTO 11006KT 7SM 23/20 A3000 RMK SLP163 T02300200 52008 IEM_DS3505
ZBYN,1990-07-29 16:00,ZBYN 291600Z AUTO 10010KT 6SM 22/19 A2997 RMK T02200190 IEM_DS3505
ZBYN,1990-07-29 17:00,ZBYN 291700Z AUTO 09006KT 6SM 22/19 A3000 RMK T02200190 IEM_DS3505
ZBYN,1990-07-29 18:00,ZBYN 291800Z AUTO 00000KT 7SM 22/19 A2997 RMK SLP106 T02200190 40298//// 57003 IEM_DS3505
ZBYN,1990-07-29 19:00,ZBYN 291900Z AUTO 00000KT 6SM 22/20 A2994 RMK T02200200 IEM_DS3505
ZBYN,1990-07-29 20:00,ZBYN 292000Z AUTO 09006KT 6SM 22/19 A2994 RMK T02200190 IEM_DS3505
ZBYN,1990-07-29 21:00,ZBYN 292100Z AUTO 00000KT 6SM 22/21 A2994 RMK T02160207 57004 IEM_DS3505
ZBYN,1990-07-29 22:00,ZBYN 292200Z AUTO 00000KT 6SM 22/20 A2994 RMK T02200200 IEM_DS3505
ZBYN,1990-07-29 23:00,ZBYN 292300Z AUTO 08004KT 6SM 22/20 A2994 RMK T02200200 IEM_DS3505
ZBYN,1990-07-30 00:00,ZBYN 300000Z AUTO 00000KT 6SM 24/21 A2994 RMK SLP099 T02440212 57004 IEM_DS3505
ZBYN,1990-07-30 01:00,ZBYN 300100Z AUTO 12006KT 6SM 24/20 A2997 RMK T02400200 IEM_DS3505
ZBYN,1990-07-30 02:00,ZBYN 300200Z AUTO 00000KT 6SM 25/22 A2997 RMK T02500220 IEM_DS3505
ZBYN,1990-07-30 03:00,ZBYN 300300Z AUTO 00000KT 6SM 25/22 A2997 RMK SLP107 T02540216 52007 IEM_DS3505
ZBYN,1990-07-30 04:00,ZBYN 300400Z AUTO 00000KT 7SM 24/22 A2997 RMK T02400220 IEM_DS3505
ZBYN,1990-07-30 05:00,ZBYN 300500Z AUTO 11006KT 7SM 26/22 A2994 RMK T02600220 IEM_DS3505
ZBYN,1990-07-30 06:00,ZBYN 300600Z AUTO 14006KT 9SM 28/22 A2991 RMK SLP084 T02820220 4////0198 57019 IEM_DS3505
ZBYN,1990-07-30 07:00,ZBYN 300700Z AUTO 13006KT 7SM 29/22 A2988 RMK T02900220 IEM_DS3505
ZBYN,1990-07-30 08:00,ZBYN 300800Z AUTO 00000KT 7SM 30/21 A2988 RMK T03000210 IEM_DS3505
ZBYN,1990-07-30 09:00,ZBYN 300900Z AUTO 14004KT 9SM 29/23 A2985 RMK SLP063 T02880232 57018 IEM_DS3505
ZBYN,1990-07-30 11:00,ZBYN 301100Z AUTO 25004KT 7SM 26/21 A2985 RMK T02600210 IEM_DS3505
ZBYN,1990-07-30 12:00,ZBYN 301200Z AUTO 20002KT 7SM 25/22 A2988 RMK SLP072 T02530220 52007 IEM_DS3505
ZBYN,1990-07-30 13:00,ZBYN 301300Z AUTO 10004KT 7SM 24/21 A2988 RMK T02400210 IEM_DS3505
ZBYN,1990-07-30 14:00,ZBYN 301400Z AUTO 12006KT 7SM 24/21 A2988 RMK T02400210 IEM_DS3505
ZBYN,1990-07-30 15:00,ZBYN 301500Z AUTO 18004KT 6SM 24/22 A2991 RMK SLP085 T02370218 52011 IEM_DS3505
ZBYN,1990-07-30 16:00,ZBYN 301600Z AUTO 11004KT 7SM 22/22 A2991 RMK T02200220 IEM_DS3505
ZBYN,1990-07-30 17:00,ZBYN 301700Z AUTO 10004KT 7SM 22/22 A2991 RMK T02200220 IEM_DS3505
ZBYN,1990-07-30 18:00,ZBYN 301800Z AUTO 14004KT 5SM 22/22 A2990 RMK SLP080 T02240218 40299//// 57002 IEM_DS3505
ZBYN,1990-07-30 21:00,ZBYN 302100Z AUTO 00000KT 5SM 22/21 A2990 RMK SLP080 T02170213 57001 IEM_DS3505
ZBYN,1990-07-30 22:00,ZBYN 302200Z AUTO 11004KT 4SM 22/21 A2991 RMK T02200210 IEM_DS3505
ZBYN,1990-07-30 23:00,ZBYN 302300Z AUTO 11004KT 22/21 A2991 RMK T02200210 IEM_DS3505
ZBYN,1990-07-31 00:00,ZBYN 310000Z AUTO 14004KT 5SM 24/21 A2991 RMK SLP087 T02360214 52005 IEM_DS3505
ZBYN,1990-07-31 01:00,ZBYN 310100Z AUTO 17006KT 4SM 25/21 A2991 RMK T02500210 IEM_DS3505
ZBYN,1990-07-31 03:00,ZBYN 310300Z AUTO 18006KT 5SM 28/23 A2991 RMK SLP078 T02790226 57005 IEM_DS3505
ZBYN,1990-07-31 04:00,ZBYN 310400Z AUTO 20006KT 7SM 28/22 A2988 RMK T02800220 IEM_DS3505
ZBYN,1990-07-31 05:00,ZBYN 310500Z AUTO 18006KT 7SM 29/22 A2985 RMK T02900220 IEM_DS3505
ZBYN,1990-07-31 06:00,ZBYN 310600Z AUTO 14006KT 6SM 30/22 A2983 RMK SLP057 T02970218 4////0211 57018 IEM_DS3505
ZBYN,1990-07-31 07:00,ZBYN 310700Z AUTO 32002KT 7SM 30/22 A2983 RMK T03000220 IEM_DS3505
ZBYN,1990-07-31 08:00,ZBYN 310800Z AUTO 31006KT 6SM 30/23 A2980 RMK T03000230 IEM_DS3505
ZBYN,1990-07-31 09:00,ZBYN 310900Z AUTO 34004KT 7SM 30/22 A2980 RMK SLP044 T02970222 57013 IEM_DS3505
ZBYN,1990-07-31 10:00,ZBYN 311000Z AUTO 19016KT 7SM 28/22 A2980 RMK T02800220 IEM_DS3505
ZBYN,1990-07-31 11:00,ZBYN 311100Z AUTO 02008KT 7SM 23/23 A2983 RMK T02300230 IEM_DS3505
ZBYN,1990-07-31 12:00,ZBYN 311200Z AUTO 34004KT 6SM 24/22 A2982 RMK 60008 SLP058 T02380219 52007 IEM_DS3505
ZBYN,1990-07-31 13:00,ZBYN 311300Z AUTO 00000KT 7SM 24/22 A2983 RMK T02400220 IEM_DS3505
ZBYN,1990-07-31 15:00,ZBYN 311500Z AUTO 00000KT 6SM 23/22 A2985 RMK SLP064 T02340220 52011 IEM_DS3505
ZBYN,1990-07-31 18:00,ZBYN 311800Z AUTO 00000KT 6SM 22/22 A2983 RMK SLP057 T02220219 40303//// 57006 IEM_DS3505
ZBYN,1990-07-31 18:30,ZBYN 311830Z AUTO 00000KT 6SM 23/22 A2983 RMK T02300220 IEM_DS3505
ZBYN,1990-07-31 19:00,ZBYN 311900Z AUTO 00000KT 6SM 23/22 A2983 RMK T02300220 IEM_DS3505
ZBYN,1990-07-31 20:00,ZBYN 312000Z AUTO 00000KT 4SM 22/21 A2983 RMK T02200210 IEM_DS3505
ZBYN,1990-07-31 21:00,ZBYN 312100Z AUTO 00000KT 4SM 21/21 A2983 RMK 70008 SLP054 T02060206 57005 IEM_DS3505
ZBYN,1990-07-31 22:00,ZBYN 312200Z AUTO 00000KT 1 1/4SM 20/20 A2985 RMK T02000200 IEM_DS3505
ZBYN,1990-07-31 23:00,ZBYN 312300Z AUTO 13002KT 2 1/2SM 22/21 A2985 RMK T02200210 IEM_DS3505
ZBYN,1990-08-01 00:00,ZBYN 010000Z AUTO 14004KT 4SM 22/21 A2985 RMK 70008 SLP069 T02230214 52008 IEM_DS3505
ZBYN,1990-08-01 01:00,ZBYN 010100Z AUTO 18008KT 5SM RMK IEM_DS3505
ZBYN,1990-08-01 02:00,ZBYN 010200Z AUTO 17008KT 6SM 26/22 A2983 RMK T02600220 IEM_DS3505
ZBYN,1990-08-01 03:00,ZBYN 010300Z AUTO 20008KT 6SM 27/23 A2983 RMK SLP053 T02730231 57008 IEM_DS3505
ZBYN,1990-08-01 04:00,ZBYN 010400Z AUTO 17008KT 6SM 26/22 A2983 RMK T02600220 IEM_DS3505
ZBYN,1990-08-01 05:00,ZBYN 010500Z AUTO 21006KT 7SM 29/22 A2980 RMK T02900220 IEM_DS3505
ZBYN,1990-08-01 06:00,ZBYN 010600Z AUTO 20008KT 6SM 28/21 A2977 RMK SLP035 T02820206 4////0193 57017 IEM_DS3505
ZBYN,1990-08-01 07:00,ZBYN 010700Z AUTO 22014KT 7SM 27/21 A2977 RMK T02700210 IEM_DS3505
ZBYN,1990-08-01 08:00,ZBYN 010800Z AUTO 18012KT 7SM 25/20 A2977 RMK T02500200 IEM_DS3505
ZBYN,1990-08-01 09:00,ZBYN 010900Z AUTO 00000KT 11SM 24/21 A2977 RMK SLP045 T02440213 52002 IEM_DS3505
ZBYN,1990-08-01 11:00,ZBYN 011100Z AUTO 31014KT 7SM 24/16 A2980 RMK T02400160 IEM_DS3505
ZBYN,1990-08-01 12:00,ZBYN 011200Z AUTO 32006KT 12SM 23/16 A2983 RMK SLP060 T02260163 52013 IEM_DS3505
ZBYN,1990-08-01 13:00,ZBYN 011300Z AUTO 23004KT 6SM 22/16 A2983 RMK T02200160 IEM_DS3505
ZBYN,1990-08-01 14:00,ZBYN 011400Z AUTO 21006KT 6SM 21/17 A2983 RMK T02100170 IEM_DS3505
ZBYN,1990-08-01 15:00,ZBYN 011500Z AUTO 00000KT 7SM 20/18 A2985 RMK SLP067 T02030183 52011 IEM_DS3505
ZBYN,1990-08-01 16:00,ZBYN 011600Z AUTO 00000KT 6SM 20/17 A2985 RMK T02000170 IEM_DS3505
ZBYN,1990-08-01 17:00,ZBYN 011700Z AUTO 00000KT 6SM 20/18 A2985 RMK T02000180 IEM_DS3505
ZBYN,1990-08-01 18:00,ZBYN 011800Z AUTO 00000KT 7SM 20/16 RMK SLP061 T02030160 40292//// 57005 IEM_DS3505
ZBYN,1990-08-01 19:00,ZBYN 011900Z AUTO 00000KT 7SM 19/17 A2983 RMK T01900170 IEM_DS3505
ZBYN,1990-08-01 21:00,ZBYN 012100Z AUTO 32002KT 7SM 19/17 A2980 RMK SLP061 T01900168 57007 IEM_DS3505
ZBYN,1990-08-01 22:00,ZBYN 012200Z AUTO 29004KT 7SM 18/16 A2980 RMK T01800160 IEM_DS3505
ZBYN,1990-08-01 23:00,ZBYN 012300Z AUTO 33004KT 7SM 19/16 A2983 RMK T01900160 IEM_DS3505
ZBYN,1990-08-02 00:00,ZBYN 020000Z AUTO 00000KT 6SM A2982 RMK SLP064 52003 IEM_DS3505
ZBYN,1990-08-02 01:00,ZBYN 020100Z AUTO 34006KT 6SM 22/15 A2983 RMK T02200150 IEM_DS3505
ZBYN,1990-08-02 02:00,ZBYN 020200Z AUTO 30006KT 6SM 23/15 A2983 RMK T02300150 IEM_DS3505
ZBYN,1990-08-02 03:00,ZBYN 020300Z AUTO 27002KT 7SM 25/16 A2980 RMK SLP060 T02540158 IEM_DS3505
ZBYN,1990-08-02 04:00,ZBYN 020400Z AUTO 32010KT 6SM 26/14 A2983 RMK T02600140 IEM_DS3505
ZBYN,1990-08-02 05:00,ZBYN 020500Z AUTO 04008KT 6SM 28/14 A2980 RMK T02800140 IEM_DS3505
ZBYN,1990-08-02 06:00,ZBYN 020600Z AUTO 00000KT 12SM 29/14 A2977 RMK SLP037 T02930144 4////0183 57016 IEM_DS3505
ZBYN,1990-08-02 07:00,ZBYN 020700Z AUTO 35010KT 7SM 30/13 A2974 RMK T03000130 IEM_DS3505
ZBYN,1990-08-02 08:00,ZBYN 020800Z AUTO 33008KT 7SM 30/13 A2974 RMK T03000130 IEM_DS3505
ZBYN,1990-08-02 09:00,ZBYN 020900Z AUTO 18004KT 9SM 29/18 A2974 RMK SLP026 T02900185 57012 IEM_DS3505
ZBYN,1990-08-02 10:00,ZBYN 021000Z AUTO 26006KT 7SM 27/18 A2974 RMK T02700180 IEM_DS3505
ZBYN,1990-08-02 11:00,ZBYN 021100Z AUTO 00000KT 7SM 26/19 A2977 RMK T02600190 IEM_DS3505
ZBYN,1990-08-02 12:00,ZBYN 021200Z AUTO 00000KT 11SM 24/20 A2977 RMK SLP030 T02410204 52007 IEM_DS3505
ZBYN,1990-08-02 13:00,ZBYN 021300Z AUTO 09004KT 7SM 22/19 A2980 RMK T02200190 IEM_DS3505
ZBYN,1990-08-02 14:00,ZBYN 021400Z AUTO 08004KT 7SM 21/16 A2980 RMK T02100160 IEM_DS3505
ZBYN,1990-08-02 15:00,ZBYN 021500Z AUTO 22002KT 9SM 19/18 A2980 RMK SLP054 T01940180 52014 IEM_DS3505
ZBYN,1990-08-02 16:00,ZBYN 021600Z AUTO 00000KT 7SM 19/16 A2980 RMK T01900160 IEM_DS3505
ZBYN,1990-08-02 17:00,ZBYN 021700Z AUTO 00000KT 7SM 19/16 A2980 RMK T01900160 IEM_DS3505
ZBYN,1990-08-02 18:00,ZBYN 021800Z AUTO 34004KT 6SM 19/17 A2980 RMK SLP049 T01940167 40307//// 52001 IEM_DS3505
ZBYN,1990-08-02 19:00,ZBYN 021900Z AUTO 00000KT 7SM 17/16 A2977 RMK T01700160 IEM_DS3505
ZBYN,1990-08-02 21:00,ZBYN 022100Z AUTO 00000KT 5SM 16/15 A2980 RMK SLP050 T01600150 57004 IEM_DS3505
ZBYN,1990-08-02 23:00,ZBYN 022300Z AUTO 00000KT 7SM 18/15 A2980 RMK T01800150 IEM_DS3505
ZBYN,1990-08-03 00:00,ZBYN 030000Z AUTO 34002KT 4SM 20/18 A2980 RMK SLP058 T02050175 52006 IEM_DS3505
ZBYN,1990-08-03 01:00,ZBYN 030100Z AUTO 00000KT 7SM 18/15 A2980 RMK T01800150 IEM_DS3505
ZBYN,1990-08-03 02:00,ZBYN 030200Z AUTO 00000KT 7SM 23/17 A2983 RMK T02300170 IEM_DS3505
ZBYN,1990-08-03 03:00,ZBYN 030300Z AUTO 16006KT 6SM 27/19 A2983 RMK SLP056 T02730189 52001 IEM_DS3505
ZBYN,1990-08-03 04:00,ZBYN 030400Z AUTO 24006KT 7SM 28/18 A2980 RMK T02800180 IEM_DS3505
ZBYN,1990-08-03 05:00,ZBYN 030500Z AUTO 23006KT 7SM 30/17 A2980 RMK T03000170 IEM_DS3505
ZBYN,1990-08-03 06:00,ZBYN 030600Z AUTO 09008KT 6SM 31/17 A2977 RMK SLP036 T03100170 4////0148 57013 IEM_DS3505
ZBYN,1990-08-03 07:00,ZBYN 030700Z AUTO 33008KT 7SM 33/21 A2977 RMK T03300210 IEM_DS3505
ZBYN,1990-08-03 08:00,ZBYN 030800Z AUTO 02004KT 7SM 33/12 A2974 RMK T03300120 IEM_DS3505
ZBYN,1990-08-03 09:00,ZBYN 030900Z AUTO 36006KT 9SM 32/16 A2974 RMK SLP029 T03230156 57009 IEM_DS3505
ZBYN,1990-08-03 10:00,ZBYN 031000Z AUTO 04006KT 7SM 31/13 A2974 RMK T03100130 IEM_DS3505
ZBYN,1990-08-03 11:00,ZBYN 031100Z AUTO 02006KT 6SM 29/16 A2974 RMK T02900160 IEM_DS3505
ZBYN,1990-08-03 12:00,ZBYN 031200Z AUTO 00000KT 9SM 25/18 A2977 RMK SLP035 T02500180 52004 IEM_DS3505
ZBYN,1990-08-03 13:00,ZBYN 031300Z AUTO 09006KT 7SM 24/18 A2977 RMK T02400180 IEM_DS3505
ZBYN,1990-08-03 14:00,ZBYN 031400Z AUTO 18002KT 7SM 24/15 A2980 RMK T02400150 IEM_DS3505
ZBYN,1990-08-03 15:00,ZBYN 031500Z AUTO 00000KT 7SM 20/17 A2980 RMK SLP053 T02040174 52017 IEM_DS3505
ZBYN,1990-08-03 16:00,ZBYN 031600Z AUTO 00000KT 7SM 20/17 A2983 RMK T02000170 IEM_DS3505
ZBYN,1990-08-03 17:00,ZBYN 031700Z AUTO 00000KT 7SM 19/17 A2983 RMK T01900170 IEM_DS3505
ZBYN,1990-08-03 18:00,ZBYN 031800Z AUTO 00000KT 7SM 18/17 A2983 RMK SLP054 T01760171 40331//// 52002 IEM_DS3505
ZBYN,1990-08-03 19:00,ZBYN 031900Z AUTO 00000KT 7SM 18/17 A2980 RMK T01800170 IEM_DS3505
ZBYN,1990-08-03 20:00,ZBYN 032000Z AUTO 00000KT 7SM 17/16 A2980 RMK T01700160 IEM_DS3505
ZBYN,1990-08-03 21:00,ZBYN 032100Z AUTO 00000KT 7SM 16/16 A2981 RMK SLP051 T01630163 57003 IEM_DS3505
ZBYN,1990-08-03 22:00,ZBYN 032200Z AUTO 00000KT 3SM 16/16 A2980 RMK T01600160 IEM_DS3505
ZBYN,1990-08-03 23:00,ZBYN 032300Z AUTO 00000KT 3SM 18/16 A2983 RMK T01800160 IEM_DS3505
ZBYN,1990-08-04 00:00,ZBYN 040000Z AUTO 00000KT 6SM 22/19 A2983 RMK SLP057 T02180189 52006 IEM_DS3505
ZBYN,1990-08-04 00:24,ZBYN 040024Z AUTO 09006KT 7SM RMK IEM_DS3505
ZBYN,1990-08-04 01:00,ZBYN 040100Z AUTO 00000KT 6SM 24/18 A2983 RMK T02400180 IEM_DS3505
ZBYN,1990-08-04 02:00,ZBYN 040200Z AUTO 21004KT 6SM 26/19 A2985 RMK T02600190 IEM_DS3505
ZBYN,1990-08-04 03:00,ZBYN 040300Z AUTO 16004KT 4SM 28/20 A2983 RMK SLP053 T02810200 57004 IEM_DS3505
ZBYN,1990-08-04 04:00,ZBYN 040400Z AUTO 22008KT 7SM 29/18 A2980 RMK T02900180 IEM_DS3505
ZBYN,1990-08-04 05:00,ZBYN 040500Z AUTO 17006KT 7SM 31/20 A2977 RMK T03100200 IEM_DS3505
ZBYN,1990-08-04 06:00,ZBYN 040600Z AUTO 16008KT 6SM 32/22 A2974 RMK SLP033 T03170216 57017 IEM_DS3505
ZBYN,1990-08-04 07:00,ZBYN 040700Z AUTO 24006KT 7SM 32/21 A2974 RMK T03200210 IEM_DS3505
ZBYN,1990-08-04 09:00,ZBYN 040900Z AUTO 16006KT 6SM 32/22 A2974 RMK SLP023 T03230223 57010 IEM_DS3505
ZBYN,1990-08-04 10:00,ZBYN 041000Z AUTO 22006KT 7SM 32/20 A2971 RMK T03200200 IEM_DS3505
ZBYN,1990-08-04 11:00,ZBYN 041100Z AUTO 23004KT 7SM 30/22 A2974 RMK T03000220 IEM_DS3505
ZBYN,1990-08-04 12:00,ZBYN 041200Z AUTO 22004KT 6SM 28/21 A2974 RMK SLP025 T02840207 52004 IEM_DS3505
ZBYN,1990-08-04 13:00,ZBYN 041300Z AUTO 09004KT 7SM 26/21 A2977 RMK T02600210 IEM_DS3505
ZBYN,1990-08-04 14:00,ZBYN 041400Z AUTO 10006KT 7SM 24/20 A2977 RMK T02400200 IEM_DS3505
ZBYN,1990-08-04 15:00,ZBYN 041500Z AUTO 00000KT 6SM 22/21 A2977 RMK SLP036 T02170207 52009 IEM_DS3505
ZBYN,1990-08-04 16:00,ZBYN 041600Z AUTO 00000KT 7SM 22/20 A2977 RMK T02200200 IEM_DS3505
ZBYN,1990-08-04 17:00,ZBYN 041700Z AUTO 00000KT 7SM 21/20 A2977 RMK T02100200 IEM_DS3505
ZBYN,1990-08-04 18:00,ZBYN 041800Z AUTO 00000KT 6SM 20/20 A2977 RMK SLP033 T01950195 57001 IEM_DS3505
ZBYN,1990-08-04 19:00,ZBYN 041900Z AUTO 00000KT 7SM 20/19 A2977 RMK T02000190 IEM_DS3505
ZBYN,1990-08-04 20:00,ZBYN 042000Z AUTO 00000KT 4SM 19/19 A2977 RMK T01900190 IEM_DS3505
ZBYN,1990-08-04 21:00,ZBYN 042100Z AUTO 00000KT 6SM 19/18 A2977 RMK SLP032 T01930179 54000 IEM_DS3505
ZBYN,1990-08-04 22:00,ZBYN 042200Z AUTO 00000KT 2 1/2SM 18/17 A2977 RMK T01800170 IEM_DS3505
ZBYN,1990-08-04 23:00,ZBYN 042300Z AUTO 00000KT 4SM 20/19 A2977 RMK T02000190 IEM_DS3505
ZBYN,1990-08-05 00:00,ZBYN 050000Z AUTO 00000KT 5SM 24/19 A2977 RMK SLP035 T02390191 52004 IEM_DS3505
ZBYN,1990-08-05 01:00,ZBYN 050100Z AUTO 00000KT 7SM 26/21 A2977 RMK T02600210 IEM_DS3505
ZBYN,1990-08-05 02:00,ZBYN 050200Z AUTO 00000KT 7SM 29/18 A2977 RMK T02900180 IEM_DS3505
ZBYN,1990-08-05 03:00,ZBYN 050300Z AUTO 16004KT 6SM 30/22 A2977 RMK SLP033 T03020218 57003 IEM_DS3505
ZBYN,1990-08-05 04:00,ZBYN 050400Z AUTO 18006KT 7SM 31/21 A2977 RMK T03100210 IEM_DS3505
ZBYN,1990-08-05 05:00,ZBYN 050500Z AUTO 23006KT 7SM 32/21 A2977 RMK T03200210 IEM_DS3505
ZBYN,1990-08-05 06:00,ZBYN 050600Z AUTO 16004KT 7SM 33/23 A2971 RMK SLP022 T03280232 4////0171 57018 IEM_DS3505
ZBYN,1990-08-05 07:00,ZBYN 050700Z AUTO 21004KT 7SM 34/19 A2971 RMK T03400190 IEM_DS3505
ZBYN,1990-08-05 08:00,ZBYN 050800Z AUTO 21006KT 7SM 34/21 A2968 RMK T03400210 IEM_DS3505
ZBYN,1990-08-05 09:00,ZBYN 050900Z AUTO 16004KT 11SM 33/23 A2968 RMK SLP002 T03320228 57009 IEM_DS3505
ZBYN,1990-08-05 10:00,ZBYN 051000Z AUTO 00000KT 7SM 34/22 A2968 RMK T03400220 IEM_DS3505
ZBYN,1990-08-05 11:00,ZBYN 051100Z AUTO 00000KT 7SM 31/25 A2968 RMK T03100250 IEM_DS3505
ZBYN,1990-08-05 12:00,ZBYN 051200Z AUTO 22002KT 9SM 27/24 A2971 RMK SLP012 T02710240 52007 IEM_DS3505
ZBYN,1990-08-05 13:00,ZBYN 051300Z AUTO 09004KT 7SM 26/20 A2971 RMK T02600200 IEM_DS3505
ZBYN,1990-08-05 14:00,ZBYN 051400Z AUTO 00000KT 7SM 25/19 A2974 RMK T02500190 IEM_DS3505
ZBYN,1990-08-05 15:00,ZBYN 051500Z AUTO 34002KT 7SM 25/20 A2974 RMK SLP017 T02520197 52010 IEM_DS3505
ZBYN,1990-08-05 16:00,ZBYN 051600Z AUTO 12006KT 7SM 23/18 A2977 RMK T02300180 IEM_DS3505
ZBYN,1990-08-05 17:00,ZBYN 051700Z AUTO 00000KT 7SM 21/19 A2974 RMK T02100190 IEM_DS3505
ZBYN,1990-08-05 18:00,ZBYN 051800Z AUTO 00000KT 6SM 20/19 A2974 RMK SLP023 T02050191 40343//// 52003 IEM_DS3505
ZBYN,1990-08-05 21:00,ZBYN 052100Z AUTO 00000KT 4SM 19/18 A2977 RMK SLP028 T01860184 52003 IEM_DS3505
ZBYN,1990-08-05 22:00,ZBYN 052200Z AUTO 00000KT 4SM 20/18 A2977 RMK T02000180 IEM_DS3505
ZBYN,1990-08-05 23:00,ZBYN 052300Z AUTO 00000KT 4SM 21/19 A2977 RMK T02100190 IEM_DS3505
ZBYN,1990-08-06 00:00,ZBYN 060000Z AUTO 34006KT 5SM 24/20 A2977 RMK SLP034 T02380195 52004 IEM_DS3505
ZBYN,1990-08-06 02:00,ZBYN 060200Z AUTO 00000KT 7SM 20/20 A2977 RMK T02000200 IEM_DS3505
ZBYN,1990-08-06 03:00,ZBYN 060300Z AUTO 16006KT 5SM 32/22 A2977 RMK SLP025 T03150215 57001 IEM_DS3505
ZBYN,1990-08-06 04:00,ZBYN 060400Z AUTO 18006KT 7SM 32/23 A2974 RMK T03200230 IEM_DS3505
ZBYN,1990-08-06 05:00,ZBYN 060500Z AUTO 17004KT 7SM 33/20 A2974 RMK T03300200 IEM_DS3505
ZBYN,1990-08-06 06:00,ZBYN 060600Z AUTO 16006KT 11SM 35/22 A2971 RMK SLP007 T03470217 4////0178 57018 IEM_DS3505
ZBYN,1990-08-06 07:00,ZBYN 060700Z AUTO 10006KT 7SM 35/21 A2971 RMK T03500210 IEM_DS3505
ZBYN,1990-08-06 08:00,ZBYN 060800Z AUTO 06014KT 7SM 35/21 A2968 RMK T03500210 IEM_DS3505
ZBYN,1990-08-06 09:00,ZBYN 060900Z AUTO 09012KT 9SM 32/23 A2974 RMK SLP016 T03180228 52002 IEM_DS3505
ZBYN,1990-08-06 10:00,ZBYN 061000Z AUTO 11008KT 7SM 30/20 A2971 RMK T03000200 IEM_DS3505
ZBYN,1990-08-06 11:00,ZBYN 061100Z AUTO 07008KT 6SM 29/21 A2974 RMK T02900210 IEM_DS3505
ZBYN,1990-08-06 12:00,ZBYN 061200Z AUTO 09006KT 9SM 28/22 A2974 RMK SLP031 T02780219 52015 IEM_DS3505
ZBYN,1990-08-06 13:00,ZBYN 061300Z AUTO 09008KT 6SM 27/21 A2980 RMK T02700210 IEM_DS3505
ZBYN,1990-08-06 14:00,ZBYN 061400Z AUTO 09010KT 7SM 27/20 A2980 RMK T02700200 IEM_DS3505
ZBYN,1990-08-06 15:00,ZBYN 061500Z AUTO 00000KT 9SM 26/21 A2980 RMK SLP035 T02580214 52011 IEM_DS3505
ZBYN,1990-08-06 16:00,ZBYN 061600Z AUTO 09006KT 6SM 25/20 A2980 RMK T02500200 IEM_DS3505
ZBYN,1990-08-06 17:00,ZBYN 061700Z AUTO 00000KT 6SM 24/21 A2980 RMK T02400210 IEM_DS3505
ZBYN,1990-08-06 18:00,ZBYN 061800Z AUTO 00000KT 6SM 22/21 A2977 RMK SLP032 T02180211 40355//// 57007 IEM_DS3505
ZBYN,1990-08-06 19:00,ZBYN 061900Z AUTO 00000KT 6SM 22/20 A2980 RMK T02200200 IEM_DS3505
ZBYN,1990-08-06 20:00,ZBYN 062000Z AUTO 00000KT 4SM 22/20 A2980 RMK T02200200 IEM_DS3505
ZBYN,1990-08-06 21:00,ZBYN 062100Z AUTO 12006KT 2 1/2SM 21/20 A2980 RMK T02100200 IEM_DS3505
ZBYN,1990-08-06 22:00,ZBYN 062200Z AUTO 00000KT 2SM 20/19 A2980 RMK T02000190 IEM_DS3505
ZBYN,1990-08-06 23:00,ZBYN 062300Z AUTO 00000KT 3SM 22/20 A2980 RMK T02200200 IEM_DS3505
ZBYN,1990-08-07 00:00,ZBYN 070000Z AUTO 34002KT 5SM 24/21 A2983 RMK SLP050 T02360213 52011 IEM_DS3505
ZBYN,1990-08-07 03:00,ZBYN 070300Z AUTO 00000KT 5SM 28/22 A2981 RMK SLP035 T02770217 57003 IEM_DS3505
ZBYN,1990-08-07 04:00,ZBYN 070400Z AUTO 25006KT 6SM 29/21 A2980 RMK T02900210 IEM_DS3505
ZBYN,1990-08-07 05:00,ZBYN 070500Z AUTO 17004KT 6SM 30/22 A2977 RMK T03000220 IEM_DS3505
ZBYN,1990-08-07 06:00,ZBYN 070600Z AUTO 16002KT 5SM 30/22 A2974 RMK SLP019 T03050223 4////0188 57024 IEM_DS3505
ZBYN,1990-08-07 09:00,ZBYN 070900Z AUTO 36006KT 5SM 25/21 A2977 RMK SLP044 T02500214 52013 IEM_DS3505
ZBYN,1990-08-07 11:00,ZBYN 071100Z AUTO 01010KT 7SM 25/16 A2977 RMK T02500160 IEM_DS3505
ZBYN,1990-08-07 12:00,ZBYN 071200Z AUTO 36004KT 9SM 23/17 A2985 RMK 60055 SLP068 T02320171 52024 IEM_DS3505
ZBYN,1990-08-07 13:00,ZBYN 071300Z AUTO 36006KT 7SM 23/14 A2985 RMK T02300140 IEM_DS3505
ZBYN,1990-08-07 14:00,ZBYN 071400Z AUTO 01004KT 7SM 20/16 A2988 RMK T02000160 IEM_DS3505
ZBYN,1990-08-07 15:00,ZBYN 071500Z AUTO 36004KT 9SM 21/16 A2988 RMK SLP086 T02070155 52019 IEM_DS3505
ZBYN,1990-08-07 16:00,ZBYN 071600Z AUTO 35014KT 6SM 21/11 A2988 RMK T02100110 IEM_DS3505
ZBYN,1990-08-07 17:00,ZBYN 071700Z AUTO 34010KT 7SM 20/12 A2988 RMK T02000120 IEM_DS3505
ZBYN,1990-08-07 18:00,ZBYN 071800Z AUTO 34004KT 7SM 20/15 A2988 RMK SLP078 T02030149 40309//// 57004 IEM_DS3505
ZBYN,1990-08-07 21:00,ZBYN 072100Z AUTO 34002KT 7SM 20/15 A2988 RMK 70055 T01950147 57002 IEM_DS3505
ZBYN,1990-08-07 22:00,ZBYN 072200Z AUTO 34004KT 7SM 20/14 A2988 RMK T02000140 IEM_DS3505
ZBYN,1990-08-07 23:00,ZBYN 072300Z AUTO 35010KT 7SM 20/14 A2991 RMK T02000140 IEM_DS3505
ZBYN,1990-08-08 00:00,ZBYN 080000Z AUTO 32004KT 12SM 20/15 A2991 RMK 70055 SLP095 T01970150 52007 IEM_DS3505
ZBYN,1990-08-08 01:00,ZBYN 080100Z AUTO 00000KT 7SM 20/15 A2991 RMK T02000150 IEM_DS3505
ZBYN,1990-08-08 02:00,ZBYN 080200Z AUTO 00000KT 6SM 23/14 A2991 RMK T02300140 IEM_DS3505
ZBYN,1990-08-08 03:00,ZBYN 080300Z AUTO 32004KT 12SM 24/17 A2991 RMK SLP094 T02370168 52001 IEM_DS3505
ZBYN,1990-08-08 04:00,ZBYN 080400Z AUTO 00000KT 7SM 25/16 RMK T02500160 IEM_DS3505
ZBYN,1990-08-08 05:00,ZBYN 080500Z AUTO 27004KT 7SM 25/16 A2991 RMK T02500160 IEM_DS3505
ZBYN,1990-08-08 06:00,ZBYN 080600Z AUTO 00000KT 12SM 25/16 A2988 RMK SLP088 T02520161 4////0188 57004 IEM_DS3505
ZBYN,1990-08-08 07:00,ZBYN 080700Z AUTO 00000KT 7SM 24/16 A2988 RMK T02400160 IEM_DS3505
ZBYN,1990-08-08 08:00,ZBYN 080800Z AUTO 00000KT 6SM 24/16 A2985 RMK T02400160 IEM_DS3505
ZBYN,1990-08-08 09:00,ZBYN 080900Z AUTO 16004KT 9SM 26/18 A2985 RMK SLP075 T02550185 57013 IEM_DS3505
ZBYN,1990-08-08 10:00,ZBYN 081000Z AUTO 00000KT 4SM 25/16 A2985 RMK SLP087 T02500160 40258//// 57001 IEM_DS3505
ZBYN,1990-08-08 12:00,ZBYN 081200Z AUTO 16004KT 7SM 21/19 A2985 RMK SLP075 T02090191 57006 IEM_DS3505
ZBYN,1990-08-08 13:00,ZBYN 081300Z AUTO 10004KT 7SM 20/17 A2985 RMK T02000170 IEM_DS3505
ZBYN,1990-08-08 14:00,ZBYN 081400Z AUTO 12004KT 7SM 18/15 A2988 RMK T01800150 IEM_DS3505
ZBYN,1990-08-08 15:00,ZBYN 081500Z AUTO 00000KT 6SM 17/16 A2988 RMK SLP087 T01660164 52011 IEM_DS3505
ZBYN,1990-08-08 16:00,ZBYN 081600Z AUTO 00000KT 7SM 16/15 A2988 RMK T01600150 IEM_DS3505
ZBYN,1990-08-08 17:00,ZBYN 081700Z AUTO 16006KT 7SM 16/14 A2988 RMK T01600140 IEM_DS3505
ZBYN,1990-08-08 18:00,ZBYN 081800Z AUTO 00000KT 7SM 15/14 A2988 RMK T01500140 IEM_DS3505
ZBYN,1990-08-08 19:00,ZBYN 081900Z AUTO 00000KT 7SM 14/13 A2985 RMK T01400130 IEM_DS3505
ZBYN,1990-08-08 20:00,ZBYN 082000Z AUTO 00000KT 7SM 13/13 A2985 RMK T01300130 IEM_DS3505
ZBYN,1990-08-08 21:00,ZBYN 082100Z AUTO 16002KT 4SM 13/13 A2985 RMK SLP081 T01260126 57008 IEM_DS3505
ZBYN,1990-08-08 22:00,ZBYN 082200Z AUTO 09004KT 7SM 13/12 A2985 RMK T01300120 IEM_DS3505
ZBYN,1990-08-08 23:00,ZBYN 082300Z AUTO 00000KT 7SM 15/12 A2985 RMK T01500120 IEM_DS3505
ZBYN,1990-08-09 00:00,ZBYN 090000Z AUTO 00000KT 6SM 17/15 A2985 RMK SLP085 T01670149 52003 IEM_DS3505
ZBYN,1990-08-09 01:00,ZBYN 090100Z AUTO 12006KT 7SM 21/15 A2985 RMK T02100150 IEM_DS3505
ZBYN,1990-08-09 02:00,ZBYN 090200Z AUTO 00000KT 7SM 22/16 A2985 RMK T02200160 IEM_DS3505
ZBYN,1990-08-09 03:00,ZBYN 090300Z AUTO 16002KT 6SM 24/18 A2983 RMK SLP070 T02350178 57010 IEM_DS3505
ZBYN,1990-08-09 04:00,ZBYN 090400Z AUTO 22006KT 7SM 26/16 A2980 RMK T02600160 IEM_DS3505
ZBYN,1990-08-09 05:00,ZBYN 090500Z AUTO 22004KT 7SM 27/14 A2980 RMK T02700140 IEM_DS3505
ZBYN,1990-08-09 06:00,ZBYN 090600Z AUTO 16008KT 9SM 27/14 A2977 RMK SLP050 T02730143 4////0117 57016 IEM_DS3505
ZBYN,1990-08-09 07:00,ZBYN 090700Z AUTO 18006KT 7SM 29/11 A2977 RMK T02900110 IEM_DS3505
ZBYN,1990-08-09 08:00,ZBYN 090800Z AUTO 19006KT 6SM 29/12 A2971 RMK T02900120 IEM_DS3505
ZBYN,1990-08-09 09:00,ZBYN 090900Z AUTO 14004KT 12SM 28/15 A2971 RMK SLP030 T02790147 57020 IEM_DS3505
ZBYN,1990-08-09 10:00,ZBYN 091000Z AUTO 20002KT 6SM 29/13 A2971 RMK T02900130 IEM_DS3505
ZBYN,1990-08-09 11:00,ZBYN 091100Z AUTO 00000KT 6SM 26/18 A2968 RMK T02600180 IEM_DS3505
ZBYN,1990-08-09 12:00,ZBYN 091200Z AUTO 00000KT 12SM 21/18 A2971 RMK SLP032 T02130182 57002 IEM_DS3505
ZBYN,1990-08-09 13:00,ZBYN 091300Z AUTO 08014KT 7SM 22/13 A2974 RMK T02200130 IEM_DS3505
ZBYN,1990-08-09 14:00,ZBYN 091400Z AUTO 08010KT 7SM 23/15 A2977 RMK T02300150 IEM_DS3505
ZBYN,1990-08-09 15:00,ZBYN 091500Z AUTO 00000KT 12SM 21/17 A2977 RMK SLP042 T02130167 52019 IEM_DS3505
ZBYN,1990-08-09 16:00,ZBYN 091600Z AUTO 00000KT 7SM 21/15 A2977 RMK T02100150 IEM_DS3505
ZBYN,1990-08-09 17:00,ZBYN 091700Z AUTO 00000KT 7SM 19/15 A2977 RMK T01900150 IEM_DS3505
ZBYN,1990-08-09 18:00,ZBYN 091800Z AUTO 34002KT 9SM 18/15 A2977 RMK SLP039 T01800150 40283//// 57002 IEM_DS3505
ZBYN,1990-08-09 19:00,ZBYN 091900Z AUTO 00000KT 6SM 16/15 A2977 RMK T01600150 IEM_DS3505
ZBYN,1990-08-09 20:00,ZBYN 092000Z AUTO 00000KT 6SM 15/15 A2977 RMK T01500150 IEM_DS3505
ZBYN,1990-08-09 21:00,ZBYN 092100Z AUTO 34002KT 9SM 17/15 A2974 RMK SLP035 T01680148 57005 IEM_DS3505
ZBYN,1990-08-09 22:00,ZBYN 092200Z AUTO 00000KT 4SM 15/14 A2974 RMK T01500140 IEM_DS3505
ZBYN,1990-08-09 23:00,ZBYN 092300Z AUTO 00000KT 4SM 17/16 A2977 RMK T01700160 IEM_DS3505
ZBYN,1990-08-10 00:00,ZBYN 100000Z AUTO 32004KT 5SM 18/15 A2980 RMK SLP059 T01750152 52014 IEM_DS3505
ZBYN,1990-08-10 02:00,ZBYN 100200Z AUTO 09008KT 7SM 23/17 A2977 RMK T02300170 IEM_DS3505
ZBYN,1990-08-10 03:00,ZBYN 100300Z AUTO 29004KT 6SM 24/18 A2974 RMK SLP036 T02380176 57012 IEM_DS3505
ZBYN,1990-08-10 04:00,ZBYN 100400Z AUTO 25004KT 7SM 26/17 A2974 RMK T02600170 IEM_DS3505
ZBYN,1990-08-10 05:00,ZBYN 100500Z AUTO 35004KT 6SM 26/18 A2971 RMK T02600180 IEM_DS3505
ZBYN,1990-08-10 06:00,ZBYN 100600Z AUTO 12004KT 7SM 28/17 A2971 RMK T02800170 IEM_DS3505
ZBYN,1990-08-10 07:00,ZBYN 100700Z AUTO 15008KT 7SM 30/16 A2968 RMK T03000160 IEM_DS3505
ZBYN,1990-08-10 08:00,ZBYN 100800Z AUTO 19004KT 7SM 30/17 A2965 RMK T03000170 IEM_DS3505
ZBYN,1990-08-10 09:00,ZBYN 100900Z AUTO 16004KT 9SM 30/21 A2965 RMK SLP998 T02960211 57017 IEM_DS3505
ZBYN,1990-08-10 10:00,ZBYN 101000Z AUTO 00000KT 6SM 30/21 A2962 RMK T03000210 IEM_DS3505
ZBYN,1990-08-10 11:00,ZBYN 101100Z AUTO 00000KT 6SM 28/23 A2965 RMK T02800230 IEM_DS3505
ZBYN,1990-08-10 12:00,ZBYN 101200Z AUTO 11002KT 9SM 27/17 A2968 RMK SLP071 T02700170 52007 IEM_DS3505
ZBYN,1990-08-10 13:00,ZBYN 101300Z AUTO 09006KT 7SM 26/18 A2971 RMK T02600180 IEM_DS3505
ZBYN,1990-08-10 14:00,ZBYN 101400Z AUTO 06004KT 7SM 24/18 A2971 RMK T02400180 IEM_DS3505
ZBYN,1990-08-10 15:00,ZBYN 101500Z AUTO 34002KT 9SM 22/18 A2974 RMK SLP022 T02250184 52015 IEM_DS3505
ZBYN,1990-08-10 16:00,ZBYN 101600Z AUTO 08008KT 7SM 23/19 A2974 RMK T02300190 IEM_DS3505
ZBYN,1990-08-10 17:00,ZBYN 101700Z AUTO 10006KT 7SM 23/19 A2974 RMK T02300190 IEM_DS3505
ZBYN,1990-08-10 18:00,ZBYN 101800Z AUTO 34002KT 7SM 22/18 A2974 RMK SLP020 T02150183 40296//// 52002 IEM_DS3505
ZBYN,1990-08-10 19:00,ZBYN 101900Z AUTO 09006KT 7SM 21/19 A2971 RMK T02100190 IEM_DS3505
ZBYN,1990-08-10 20:00,ZBYN 102000Z AUTO 31004KT 7SM 20/18 A2974 RMK T02000180 IEM_DS3505
ZBYN,1990-08-10 21:00,ZBYN 102100Z AUTO 32004KT 6SM 20/18 A2974 RMK SLP019 T02000185 57001 IEM_DS3505
ZBYN,1990-08-10 22:00,ZBYN 102200Z AUTO 00000KT 2 1/2SM 19/18 A2974 RMK T01900180 IEM_DS3505
ZBYN,1990-08-10 23:00,ZBYN 102300Z AUTO 00000KT 4SM 21/19 A2971 RMK T02100190 IEM_DS3505
ZBYN,1990-08-11 00:00,ZBYN 110000Z AUTO 34004KT 5SM 22/20 A2977 RMK SLP024 T02220201 52003 IEM_DS3505
ZBYN,1990-08-11 01:00,ZBYN 110100Z AUTO 14006KT 6SM 25/20 A2977 RMK T02500200 IEM_DS3505
ZBYN,1990-08-11 02:00,ZBYN 110200Z AUTO 16006KT 7SM 26/20 A2977 RMK T02600200 IEM_DS3505
ZBYN,1990-08-11 03:00,ZBYN 110300Z AUTO 18006KT 6SM 27/21 A2974 RMK SLP021 T02710212 57001 IEM_DS3505
ZBYN,1990-08-11 04:00,ZBYN 110400Z AUTO 23006KT 7SM 28/20 A2974 RMK T02800200 IEM_DS3505
ZBYN,1990-08-11 05:00,ZBYN 110500Z AUTO 15006KT 6SM 30/21 A2971 RMK T03000210 IEM_DS3505
ZBYN,1990-08-11 06:00,ZBYN 110600Z AUTO 22002KT 6SM 30/22 A2968 RMK SLP006 T03020219 4////0186 57011 IEM_DS3505
ZBYN,1990-08-11 07:00,ZBYN 110700Z AUTO 00000KT 7SM 30/22 A2968 RMK T03000220 IEM_DS3505
ZBYN,1990-08-11 08:00,ZBYN 110800Z AUTO 32025KT 5SM 25/17 A2971 RMK T02500170 IEM_DS3505
ZBYN,1990-08-11 09:00,ZBYN 110900Z AUTO 32002KT 6SM 20/19 A2974 RMK SLP030 T01980192 52006 IEM_DS3505
ZBYN,1990-08-11 10:00,ZBYN 111000Z AUTO 21012KT 7SM 19/18 A2980 RMK T01900180 IEM_DS3505
ZBYN,1990-08-11 11:00,ZBYN 111100Z AUTO 7SM 19/18 A2980 RMK T01900180 IEM_DS3505
ZBYN,1990-08-11 12:00,ZBYN 111200Z AUTO 00000KT 6SM 19/19 A2980 RMK SLP059 T01900190 52028 IEM_DS3505
ZBYN,1990-08-11 13:00,ZBYN 111300Z AUTO 36004KT 6SM RMK IEM_DS3505
ZBYN,1990-08-11 15:00,ZBYN 111500Z AUTO 36004KT 6SM 18/18 A2985 RMK SLP066 T01830183 52013 IEM_DS3505
ZBYN,1990-08-11 17:00,ZBYN 111700Z AUTO 13006KT 7SM 18/17 A2983 RMK T01800170 IEM_DS3505
ZBYN,1990-08-11 18:00,ZBYN 111800Z AUTO 00000KT 4SM 18/18 A2983 RMK SLP061 T01760176 40303//// 57002 IEM_DS3505
ZBYN,1990-08-11 19:00,ZBYN 111900Z AUTO 34002KT 3SM 17/17 A2983 RMK T01700170 IEM_DS3505
ZBYN,1990-08-11 20:00,ZBYN 112000Z AUTO 00000KT 2SM 16/16 A2983 RMK T01600160 IEM_DS3505
ZBYN,1990-08-11 21:00,ZBYN 112100Z AUTO 34004KT 2 1/2SM 17/17 A2985 RMK 70161 SLP073 T01730173 57004 IEM_DS3505
ZBYN,1990-08-11 22:00,ZBYN 112200Z AUTO 00000KT 1/8SM 16/16 A2985 RMK T01600160 IEM_DS3505
ZBYN,1990-08-11 23:00,ZBYN 112300Z AUTO 00000KT 1/8SM 17/17 A2988 RMK T01700170 IEM_DS3505
ZBYN,1990-08-12 00:00,ZBYN 120000Z AUTO 04002KT 1/2SM 17/17 A2988 RMK 70161 T01710171 52021 IEM_DS3505
ZBYN,1990-08-12 01:00,ZBYN 120100Z AUTO 00000KT 1 1/4SM 19/18 A2988 RMK T01900180 IEM_DS3505
ZBYN,1990-08-12 02:00,ZBYN 120200Z AUTO 00000KT 2 1/2SM 22/19 A2985 RMK T02200190 IEM_DS3505
ZBYN,1990-08-12 03:00,ZBYN 120300Z AUTO 00000KT 3SM 24/19 A2985 RMK SLP077 T02350191 57010 IEM_DS3505
ZBYN,1990-08-12 04:00,ZBYN 120400Z AUTO 25002KT 5SM 25/20 A2985 RMK T02500200 IEM_DS3505
ZBYN,1990-08-12 05:00,ZBYN 120500Z AUTO 00000KT 6SM 27/21 A2983 RMK T02700210 IEM_DS3505
ZBYN,1990-08-12 06:00,ZBYN 120600Z AUTO 00000KT 4SM 28/20 A2980 RMK SLP055 T02810197 4////0157 57015 IEM_DS3505
ZBYN,1990-08-12 07:00,ZBYN 120700Z AUTO 00000KT 7SM 28/19 A2980 RMK T02800190 IEM_DS3505
ZBYN,1990-08-12 08:00,ZBYN 120800Z AUTO 32004KT 7SM 29/20 A2977 RMK T02900200 IEM_DS3505
ZBYN,1990-08-12 09:00,ZBYN 120900Z AUTO 00000KT 6SM 29/22 A2977 RMK SLP037 T02890216 57016 IEM_DS3505
ZBYN,1990-08-12 10:00,ZBYN 121000Z AUTO 05008KT 7SM 28/21 A2977 RMK T02800210 IEM_DS3505
ZBYN,1990-08-12 11:00,ZBYN 121100Z AUTO 05006KT 7SM 26/17 A2977 RMK T02600170 IEM_DS3505
ZBYN,1990-08-12 12:00,ZBYN 121200Z AUTO 11006KT 5SM 20/18 A2980 RMK 60016 SLP080 T01950175 52026 IEM_DS3505
ZBYN,1990-08-12 13:00,ZBYN 121300Z AUTO 30012KT 7SM 18/17 A2991 RMK T01800170 IEM_DS3505
ZBYN,1990-08-12 14:00,ZBYN 121400Z AUTO 34008KT 6SM 18/17 A2991 RMK T01800170 IEM_DS3505
ZBYN,1990-08-12 15:00,ZBYN 121500Z AUTO 34004KT 5SM 18/18 A2991 RMK SLP088 T01820180 52015 IEM_DS3505
ZBYN,1990-08-12 16:00,ZBYN 121600Z AUTO 34012KT 2 1/2SM 18/17 A2988 RMK T01800170 IEM_DS3505
ZBYN,1990-08-12 18:00,ZBYN 121800Z AUTO 36002KT 5SM 18/18 A2988 RMK 60094 SLP074 T01810179 40291//// 57007 IEM_DS3505
ZBYN,1990-08-12 19:00,ZBYN 121900Z AUTO 01017KT 2 1/2SM 19/17 A2988 RMK T01900170 IEM_DS3505
ZBYN,1990-08-12 20:00,ZBYN 122000Z AUTO 24017KT 1 1/4SM 20/18 A2974 RMK T02000180 IEM_DS3505
ZBYN,1990-08-12 21:00,ZBYN 122100Z AUTO 36004KT 5SM 18/18 A2985 RMK SLP076 T01810175 52003 IEM_DS3505
ZBYN,1990-08-12 22:00,ZBYN 122200Z AUTO 35010KT 2SM 18/17 A2988 RMK T01800170 IEM_DS3505
ZBYN,1990-08-12 23:00,ZBYN 122300Z AUTO 35010KT 7SM 19/16 A2991 RMK T01900160 IEM_DS3505
ZBYN,1990-08-13 00:00,ZBYN 130000Z AUTO 02004KT 4SM 18/17 A2991 RMK 60001 70110 T01850174 52007 IEM_DS3505
ZBYN,1990-08-13 01:00,ZBYN 130100Z AUTO 33006KT 7SM 19/17 A2991 RMK T01900170 IEM_DS3505
ZBYN,1990-08-13 02:00,ZBYN 130200Z AUTO 30006KT 7SM 18/17 A2991 RMK T01800170 IEM_DS3505
ZBYN,1990-08-13 03:00,ZBYN 130300Z AUTO 00000KT 4SM 19/18 A2994 RMK SLP108 T01860178 52008 IEM_DS3505
ZBYN,1990-08-13 04:00,ZBYN 130400Z AUTO 00000KT 5SM 19/18 A2991 RMK T01900180 IEM_DS3505
ZBYN,1990-08-13 05:00,ZBYN 130500Z AUTO 29004KT 7SM 19/18 A2991 RMK T01900180 IEM_DS3505
ZBYN,1990-08-13 06:00,ZBYN 130600Z AUTO 34004KT 5SM 21/18 A2991 RMK 60016 SLP094 T02100180 4////0165 57010 IEM_DS3505
ZBYN,1990-08-13 07:00,ZBYN 130700Z AUTO 00000KT 7SM 21/18 A2988 RMK T02100180 IEM_DS3505
ZBYN,1990-08-13 08:00,ZBYN 130800Z AUTO 00000KT 7SM 22/18 A2988 RMK T02200180 IEM_DS3505
ZBYN,1990-08-13 09:00,ZBYN 130900Z AUTO 18002KT 6SM 22/18 A2986 RMK SLP081 T02180183 57010 IEM_DS3505
ZBYN,1990-08-13 10:00,ZBYN 131000Z AUTO 18006KT 6SM 22/18 A2985 RMK T02200180 IEM_DS3505
ZBYN,1990-08-13 11:00,ZBYN 131100Z AUTO 00000KT 6SM 21/19 A2985 RMK T02100190 IEM_DS3505
ZBYN,1990-08-13 12:00,ZBYN 131200Z AUTO 00000KT 6SM 20/19 A2985 RMK SLP083 T01950186 57001 IEM_DS3505
ZBYN,1990-08-13 15:00,ZBYN 131500Z AUTO 00000KT 5SM 18/18 A2987 RMK SLP090 T01830178 52005 IEM_DS3505
ZBYN,1990-08-13 18:00,ZBYN 131800Z AUTO 00000KT 5SM 18/18 A2988 RMK SLP088 T01780175 40222//// 54000 IEM_DS3505
ZBYN,1990-08-13 19:00,ZBYN 131900Z AUTO 00000KT 2SM 17/17 A2988 RMK T01700170 IEM_DS3505
ZBYN,1990-08-13 20:00,ZBYN 132000Z AUTO 00000KT 4SM 17/17 A2985 RMK T01700170 IEM_DS3505
ZBYN,1990-08-13 21:00,ZBYN 132100Z AUTO 00000KT 1/4SM 17/17 A2985 RMK 70016 SLP083 T01660166 57005 IEM_DS3505
ZBYN,1990-08-13 22:00,ZBYN 132200Z AUTO 00000KT 4SM 17/17 A2988 RMK T01700170 IEM_DS3505
ZBYN,1990-08-13 23:00,ZBYN 132300Z AUTO 34006KT 1 1/4SM 18/17 A2988 RMK T01800170 IEM_DS3505
ZBYN,1990-08-14 00:00,ZBYN 140000Z AUTO 00000KT 3SM 20/18 A2988 RMK 70016 SLP088 T01960177 52006 IEM_DS3505
ZBYN,1990-08-14 01:00,ZBYN 140100Z AUTO 20006KT 2SM 21/18 A2988 RMK T02100180 IEM_DS3505
ZBYN,1990-08-14 03:00,ZBYN 140300Z AUTO 00000KT 6SM 25/19 A2988 RMK SLP082 T02460194 54000 IEM_DS3505
ZBYN,1990-08-14 04:00,ZBYN 140400Z AUTO 00000KT 7SM 25/19 A2985 RMK T02500190 IEM_DS3505
ZBYN,1990-08-14 05:00,ZBYN 140500Z AUTO 00000KT 6SM 28/ A2983 RMK IEM_DS3505
ZBYN,1990-08-14 06:00,ZBYN 140600Z AUTO 00000KT 7SM 28/16 A2983 RMK T02820163 4////0151 57012 IEM_DS3505
ZBYN,1990-08-14 07:00,ZBYN 140700Z AUTO 00000KT 6SM 29/17 A2980 RMK T02900170 IEM_DS3505
ZBYN,1990-08-14 09:00,ZBYN 140900Z AUTO 00000KT 9SM 29/17 A2980 RMK SLP055 T02890166 57009 IEM_DS3505
ZBYN,1990-08-14 10:00,ZBYN 141000Z AUTO 09006KT 6SM 28/16 A2983 RMK T02800160 IEM_DS3505
ZBYN,1990-08-14 12:00,ZBYN 141200Z AUTO 00000KT 12SM 22/17 A2983 RMK SLP067 T02240174 52006 IEM_DS3505
ZBYN,1990-08-14 15:00,ZBYN 141500Z AUTO 02002KT 12SM 20/16 A2988 RMK SLP081 T02040163 52017 IEM_DS3505
ZBYN,1990-08-14 16:00,ZBYN 141600Z AUTO 29004KT 6SM 19/16 A2988 RMK T01900160 IEM_DS3505
ZBYN,1990-08-14 17:00,ZBYN 141700Z AUTO 00000KT 6SM 18/15 A2988 RMK T01800150 IEM_DS3505
ZBYN,1990-08-14 18:00,ZBYN 141800Z AUTO 36004KT 12SM 20/14 A2991 RMK SLP077 T01990143 40300//// 54000 IEM_DS3505
ZBYN,1990-08-14 19:00,ZBYN 141900Z AUTO 00000KT 6SM 17/16 A2988 RMK T01700160 IEM_DS3505
ZBYN,1990-08-14 20:00,ZBYN 142000Z AUTO 00000KT 6SM 16/16 A2991 RMK T01600160 IEM_DS3505
ZBYN,1990-08-14 21:00,ZBYN 142100Z AUTO 36006KT 6SM 18/14 A2991 RMK SLP083 T01800142 52004 IEM_DS3505
ZBYN,1990-08-14 22:00,ZBYN 142200Z AUTO 00000KT 6SM 16/15 A2991 RMK T01600150 IEM_DS3505
ZBYN,1990-08-14 23:00,ZBYN 142300Z AUTO 00000KT 6SM 17/16 A2991 RMK T01700160 IEM_DS3505
ZBYN,1990-08-15 00:00,ZBYN 150000Z AUTO 32004KT 6SM 19/14 A2991 RMK SLP095 T01890142 52003 IEM_DS3505
ZBYN,1990-08-15 01:00,ZBYN 150100Z AUTO 00000KT 5SM 21/17 A2991 RMK T02100170 IEM_DS3505
ZBYN,1990-08-15 02:00,ZBYN 150200Z AUTO 00000KT 6SM 24/18 A2994 RMK T02400180 IEM_DS3505
ZBYN,1990-08-15 03:00,ZBYN 150300Z AUTO 32004KT 6SM 23/17 A2994 RMK SLP109 T02320173 52016 IEM_DS3505
ZBYN,1990-08-15 04:00,ZBYN 150400Z AUTO 08006KT 7SM 24/15 A2997 RMK T02400150 IEM_DS3505
ZBYN,1990-08-15 05:00,ZBYN 150500Z AUTO 06010KT 6SM 24/15 A2994 RMK T02400150 IEM_DS3505
ZBYN,1990-08-15 06:00,ZBYN 150600Z AUTO 04008KT 12SM 24/14 A2994 RMK SLP103 T02420137 4////0165 57004 IEM_DS3505
ZBYN,1990-08-15 07:00,ZBYN 150700Z AUTO 03008KT 6SM 23/16 A2994 RMK T02300160 IEM_DS3505
ZBYN,1990-08-15 08:00,ZBYN 150800Z AUTO 07006KT 7SM 23/15 A2994 RMK T02300150 IEM_DS3505
ZBYN,1990-08-15 09:00,ZBYN 150900Z AUTO 32002KT 9SM 22/17 A3000 RMK SLP122 T02170173 52011 IEM_DS3505
ZBYN,1990-08-15 10:00,ZBYN 151000Z AUTO 02006KT 7SM 21/18 A3000 RMK T02100180 IEM_DS3505
ZBYN,1990-08-15 11:00,ZBYN 151100Z AUTO 36006KT 7SM 19/17 A3000 RMK T01900170 IEM_DS3505
ZBYN,1990-08-15 12:00,ZBYN 151200Z AUTO 04004KT 6SM 18/16 A3003 RMK 60008 SLP148 T01750159 52019 IEM_DS3505
ZBYN,1990-08-15 13:00,ZBYN 151300Z AUTO 36010KT 7SM 16/15 A3006 RMK T01600150 IEM_DS3505
ZBYN,1990-08-15 14:00,ZBYN 151400Z AUTO 36006KT 7SM 16/15 A3009 RMK T01600150 IEM_DS3505
ZBYN,1990-08-15 15:00,ZBYN 151500Z AUTO 36004KT 6SM 16/15 A3009 RMK SLP157 T01600153 52012 IEM_DS3505
ZBYN,1990-08-15 16:00,ZBYN 151600Z AUTO 36008KT 7SM 16/15 A3009 RMK T01600150 IEM_DS3505
ZBYN,1990-08-15 17:00,ZBYN 151700Z AUTO 34008KT 7SM 16/15 A3006 RMK T01600150 IEM_DS3505
ZBYN,1990-08-15 18:00,ZBYN 151800Z AUTO 36004KT 6SM 16/15 A3009 RMK 60031 SLP157 T01570150 40248//// 52001 IEM_DS3505
ZBYN,1990-08-15 19:00,ZBYN 151900Z AUTO 32008KT 7SM 16/15 A3006 RMK T01600150 IEM_DS3505
ZBYN,1990-08-15 20:00,ZBYN 152000Z AUTO 02006KT 4SM 16/15 A3006 RMK T01600150 IEM_DS3505
ZBYN,1990-08-15 21:00,ZBYN 152100Z AUTO 32002KT 6SM 16/15 A3006 RMK SLP156 T01580151 57004 IEM_DS3505
ZBYN,1990-08-15 22:00,ZBYN 152200Z AUTO 34006KT 7SM 16/15 A3009 RMK T01600150 IEM_DS3505
ZBYN,1990-08-15 23:00,ZBYN 152300Z AUTO 34004KT 7SM 16/15 A3009 RMK T01600150 IEM_DS3505
ZBYN,1990-08-16 00:00,ZBYN 160000Z AUTO 32002KT 5SM 17/16 A3009 RMK 60002 SLP169 T01740159 52008 IEM_DS3505
ZBYN,1990-08-16 02:00,ZBYN 160200Z AUTO 36008KT 6SM 21/16 A3009 RMK T02100160 IEM_DS3505
ZBYN,1990-08-16 03:00,ZBYN 160300Z AUTO 06008KT 7SM 23/15 A3009 RMK T02300150 IEM_DS3505
ZBYN,1990-08-16 04:00,ZBYN 160400Z AUTO 05008KT 7SM 24/16 A3006 RMK T02400160 IEM_DS3505
ZBYN,1990-08-16 05:00,ZBYN 160500Z AUTO 06006KT 7SM 24/15 A3003 RMK T02400150 IEM_DS3505
ZBYN,1990-08-16 06:00,ZBYN 160600Z AUTO 09004KT 9SM 24/16 A3003 RMK SLP139 T02440155 4////0142 57015 IEM_DS3505
ZBYN,1990-08-16 07:00,ZBYN 160700Z AUTO 11010KT 7SM 26/16 A3000 RMK T02600160 IEM_DS3505
ZBYN,1990-08-16 08:00,ZBYN 160800Z AUTO 11010KT 7SM 26/15 A3000 RMK T02600150 IEM_DS3505
ZBYN,1990-08-16 09:00,ZBYN 160900Z AUTO 14008KT 12SM 25/15 A3000 RMK SLP125 T02510150 57012 IEM_DS3505
ZBYN,1990-08-16 10:00,ZBYN 161000Z AUTO 10006KT 6SM 24/16 A3000 RMK T02400160 IEM_DS3505
ZBYN,1990-08-16 12:00,ZBYN 161200Z AUTO 14006KT 12SM 20/16 A3003 RMK T01960162 IEM_DS3505
ZBYN,1990-08-16 13:00,ZBYN 161300Z AUTO 09006KT 7SM 19/16 A3006 RMK T01900160 IEM_DS3505
ZBYN,1990-08-16 14:00,ZBYN 161400Z AUTO 09004KT 7SM 19/16 A3006 RMK T01900160 IEM_DS3505
ZBYN,1990-08-16 15:00,ZBYN 161500Z AUTO 00000KT 7SM 17/16 A3006 RMK SLP151 T01680158 52011 IEM_DS3505
ZBYN,1990-08-16 16:00,ZBYN 161600Z AUTO 00000KT 7SM 17/16 A3006 RMK T01700160 IEM_DS3505
ZBYN,1990-08-16 17:00,ZBYN 161700Z AUTO 00000KT 7SM 16/15 A3006 RMK T01600150 IEM_DS3505
ZBYN,1990-08-16 18:00,ZBYN 161800Z AUTO 00000KT 6SM 16/15 A3006 RMK SLP146 T01570152 40258//// 57003 IEM_DS3505
ZBYN,1990-08-16 19:00,ZBYN 161900Z AUTO 00000KT 6SM 15/14 A3003 RMK T01500140 IEM_DS3505
ZBYN,1990-08-16 21:00,ZBYN 162100Z AUTO 00000KT 0SM 15/14 A3003 RMK SLP141 T01520140 57004 IEM_DS3505
ZBYN,1990-08-16 22:00,ZBYN 162200Z AUTO 00000KT 6SM 13/13 A3003 RMK T01300130 IEM_DS3505
ZBYN,1990-08-16 23:00,ZBYN 162300Z AUTO 00000KT 6SM 15/14 A3003 RMK T01500140 IEM_DS3505
ZBYN,1990-08-17 00:00,ZBYN 170000Z AUTO 34004KT 4SM 17/15 A3003 RMK SLP151 T01730150 52004 IEM_DS3505
ZBYN,1990-08-17 01:00,ZBYN 170100Z AUTO 33004KT 4SM 20/16 A3006 RMK T02000160 IEM_DS3505
ZBYN,1990-08-17 02:00,ZBYN 170200Z AUTO 00000KT 6SM 22/16 A3003 RMK T02200160 IEM_DS3505
ZBYN,1990-08-17 03:00,ZBYN 170300Z AUTO 00000KT 9SM 24/14 A3003 RMK SLP139 T02350140 57006 IEM_DS3505
ZBYN,1990-08-17 04:00,ZBYN 170400Z AUTO 00000KT 6SM 24/14 A3000 RMK T02400140 IEM_DS3505
ZBYN,1990-08-17 05:00,ZBYN 170500Z AUTO 24004KT 6SM 26/15 A3000 RMK T02600150 IEM_DS3505
ZBYN,1990-08-17 06:00,ZBYN 170600Z AUTO 16008KT 12SM 25/13 A2994 RMK SLP110 T02520132 4////0132 57025 IEM_DS3505
ZBYN,1990-08-17 07:00,ZBYN 170700Z AUTO 24006KT 7SM 26/16 A2994 RMK T02600160 IEM_DS3505
ZBYN,1990-08-17 08:00,ZBYN 170800Z AUTO 21006KT 7SM 26/16 A2991 RMK T02600160 IEM_DS3505
ZBYN,1990-08-17 09:00,ZBYN 170900Z AUTO 22006KT 12SM 26/16 A2991 RMK SLP100 T02570156 57010 IEM_DS3505
ZBYN,1990-08-17 10:00,ZBYN 171000Z AUTO 00000KT 6SM 25/16 A2991 RMK T02500160 IEM_DS3505
ZBYN,1990-08-17 11:00,ZBYN 171100Z AUTO 00000KT 6SM 24/17 A2991 RMK T02400170 IEM_DS3505
ZBYN,1990-08-17 12:00,ZBYN 171200Z AUTO 11004KT 12SM 22/17 A2991 RMK SLP100 T02200170 57002 IEM_DS3505
ZBYN,1990-08-17 13:00,ZBYN 171300Z AUTO 08008KT 6SM 22/16 A2991 RMK T02200160 IEM_DS3505
ZBYN,1990-08-17 14:00,ZBYN 171400Z AUTO 07010KT 6SM 22/16 A2991 RMK T02200160 IEM_DS3505
ZBYN,1990-08-17 15:00,ZBYN 171500Z AUTO 00000KT 11SM 22/16 A2991 RMK SLP094 T02150159 52003 IEM_DS3505
ZBYN,1990-08-17 16:00,ZBYN 171600Z AUTO 00000KT 6SM 21/16 A2991 RMK T02100160 IEM_DS3505
ZBYN,1990-08-17 17:00,ZBYN 171700Z AUTO 00000KT 7SM 21/17 A2991 RMK T02100170 IEM_DS3505
ZBYN,1990-08-17 18:00,ZBYN 171800Z AUTO 04002KT 6SM 20/17 A2991 RMK SLP090 T01980170 40263//// 57004 IEM_DS3505
ZBYN,1990-08-17 19:00,ZBYN 171900Z AUTO 00000KT 7SM 18/18 A2991 RMK T01800180 IEM_DS3505
ZBYN,1990-08-17 20:00,ZBYN 172000Z AUTO 00000KT 7SM 19/18 A2991 RMK T01900180 IEM_DS3505
ZBYN,1990-08-17 21:00,ZBYN 172100Z AUTO 00000KT 7SM 19/18 A2988 RMK T01900180 IEM_DS3505
ZBYN,1990-08-17 22:00,ZBYN 172200Z AUTO 00000KT 6SM 19/18 A2988 RMK T01900180 IEM_DS3505
ZBYN,1990-08-17 23:00,ZBYN 172300Z AUTO 00000KT 5SM 19/18 A2988 RMK T01900180 IEM_DS3505
ZBYN,1990-08-18 00:00,ZBYN 180000Z AUTO 00000KT 5SM 19/18 A2988 RMK 60004 70004 SLP090 T01900179 54000 IEM_DS3505
ZBYN,1990-08-18 01:00,ZBYN 180100Z AUTO 00000KT 6SM 21/19 A2988 RMK T02100190 IEM_DS3505
ZBYN,1990-08-18 02:00,ZBYN 180200Z AUTO 00000KT 6SM 21/18 A2988 RMK T02100180 IEM_DS3505
ZBYN,1990-08-18 03:00,ZBYN 180300Z AUTO 16002KT 5SM 23/19 A2988 RMK SLP084 T02310187 54000 IEM_DS3505
ZBYN,1990-08-18 04:00,ZBYN 180400Z AUTO 18004KT 7SM 25/18 A2988 RMK T02500180 IEM_DS3505
ZBYN,1990-08-18 05:00,ZBYN 180500Z AUTO 22008KT 7SM 24/19 A2985 RMK T02400190 IEM_DS3505
ZBYN,1990-08-18 06:00,ZBYN 180600Z AUTO 20006KT 6SM 26/20 A2983 RMK SLP073 T02570196 4////0173 57009 IEM_DS3505
ZBYN,1990-08-18 07:00,ZBYN 180700Z AUTO 20006KT 7SM 27/19 A2983 RMK T02700190 IEM_DS3505
ZBYN,1990-08-18 08:00,ZBYN 180800Z AUTO 18006KT 7SM 27/19 A2980 RMK T02700190 IEM_DS3505
ZBYN,1990-08-18 09:00,ZBYN 180900Z AUTO 18006KT 6SM 26/20 A2977 RMK T02630195 57024 IEM_DS3505
ZBYN,1990-08-18 10:00,ZBYN 181000Z AUTO 23006KT 7SM 26/20 A2980 RMK T02600200 IEM_DS3505
ZBYN,1990-08-18 11:00,ZBYN 181100Z AUTO 21002KT 7SM 25/20 A2980 RMK T02500200 IEM_DS3505
ZBYN,1990-08-18 12:00,ZBYN 181200Z AUTO 20004KT 9SM 23/20 A2980 RMK SLP056 T02320196 52004 IEM_DS3505
ZBYN,1990-08-18 13:00,ZBYN 181300Z AUTO 00000KT 6SM 23/19 A2983 RMK T02300190 IEM_DS3505
ZBYN,1990-08-18 14:00,ZBYN 181400Z AUTO 00000KT 6SM 22/20 A2983 RMK T02200200 IEM_DS3505
ZBYN,1990-08-18 15:00,ZBYN 181500Z AUTO 16002KT 6SM 20/19 A2984 RMK SLP070 T01980187 52014 IEM_DS3505
ZBYN,1990-08-18 16:00,ZBYN 181600Z AUTO 11006KT 7SM 20/19 A2983 RMK T02000190 IEM_DS3505
ZBYN,1990-08-18 18:00,ZBYN 181800Z AUTO 00000KT 5SM 18/18 A2983 RMK SLP068 T01840181 54000 IEM_DS3505
ZBYN,1990-08-18 19:00,ZBYN 181900Z AUTO 10006KT 3SM 19/18 A2983 RMK T01900180 IEM_DS3505
ZBYN,1990-08-18 20:00,ZBYN 182000Z AUTO 12004KT 1 1/4SM 19/19 A2983 RMK T01900190 IEM_DS3505
ZBYN,1990-08-18 21:00,ZBYN 182100Z AUTO 00000KT 3SM 19/19 A2983 RMK SLP061 T01900187 57005 IEM_DS3505
ZBYN,1990-08-18 22:00,ZBYN 182200Z AUTO 11002KT 2SM 20/19 A2985 RMK T02000190 IEM_DS3505
ZBYN,1990-08-18 23:00,ZBYN 182300Z AUTO 11002KT 1 1/4SM 20/19 A2983 RMK T02000190 IEM_DS3505
ZBYN,1990-08-19 00:00,ZBYN 190000Z AUTO 00000KT 4SM 19/17 A2985 RMK SLP074 T01910174 52008 IEM_DS3505
ZBYN,1990-08-19 03:00,ZBYN 190300Z AUTO 16004KT 6SM 25/19 A2985 RMK SLP073 T02510194 52002 IEM_DS3505
ZBYN,1990-08-19 04:00,ZBYN 190400Z AUTO 17006KT 6SM 27/19 A2983 RMK T02700190 IEM_DS3505
ZBYN,1990-08-19 05:00,ZBYN 190500Z AUTO 15006KT 6SM 28/20 A2983 RMK T02800200 IEM_DS3505
ZBYN,1990-08-19 06:00,ZBYN 190600Z AUTO 18006KT 6SM 28/20 A2980 RMK SLP055 T02790198 4////0171 57014 IEM_DS3505
ZBYN,1990-08-19 07:00,ZBYN 190700Z AUTO 17008KT 7SM 29/19 A2980 RMK T02900190 IEM_DS3505
ZBYN,1990-08-19 08:00,ZBYN 190800Z AUTO 20008KT 7SM 30/19 A2977 RMK T03000190 IEM_DS3505
ZBYN,1990-08-19 09:00,ZBYN 190900Z AUTO 18006KT 11SM 29/18 A2977 RMK SLP039 T02860177 57013 IEM_DS3505
ZBYN,1990-08-19 10:00,ZBYN 191000Z AUTO 22004KT 7SM 29/19 A2977 RMK T02900190 IEM_DS3505
ZBYN,1990-08-19 11:00,ZBYN 191100Z AUTO 00000KT 7SM 27/22 A2977 RMK T02700220 IEM_DS3505
ZBYN,1990-08-19 12:00,ZBYN 191200Z AUTO 14002KT 7SM 23/19 A2977 RMK SLP050 T02280193 52002 IEM_DS3505
ZBYN,1990-08-19 13:00,ZBYN 191300Z AUTO 12006KT 7SM 22/19 A2980 RMK T02200190 IEM_DS3505
ZBYN,1990-08-19 14:00,ZBYN 191400Z AUTO 00000KT 7SM 20/17 A2983 RMK T02000170 IEM_DS3505
ZBYN,1990-08-19 15:00,ZBYN 191500Z AUTO 00000KT 7SM 19/18 A2983 RMK SLP064 T01870179 52016 IEM_DS3505
ZBYN,1990-08-19 16:00,ZBYN 191600Z AUTO 09004KT 7SM 19/ A2983 RMK IEM_DS3505
ZBYN,1990-08-19 17:00,ZBYN 191700Z AUTO 11004KT 7SM 18/15 A2983 RMK T01800150 IEM_DS3505
ZBYN,1990-08-19 18:00,ZBYN 191800Z AUTO 00000KT 6SM 17/16 A2983 RMK SLP063 T01700162 40219//// 54000 IEM_DS3505
ZBYN,1990-08-19 19:00,ZBYN 191900Z AUTO 11004KT 7SM 17/15 A2983 RMK T01700150 IEM_DS3505
ZBYN,1990-08-19 20:00,ZBYN 192000Z AUTO 00000KT 7SM 16/15 A2983 RMK T01600150 IEM_DS3505
ZBYN,1990-08-19 21:00,ZBYN 192100Z AUTO 00000KT 6SM 16/16 A2985 RMK SLP066 T01580156 52002 IEM_DS3505
ZBYN,1990-08-19 22:00,ZBYN 192200Z AUTO 00000KT 5SM 15/15 A2985 RMK T01500150 IEM_DS3505
ZBYN,1990-08-19 23:00,ZBYN 192300Z AUTO 00000KT 5SM 17/15 A2985 RMK T01700150 IEM_DS3505
ZBYN,1990-08-20 00:00,ZBYN 200000Z AUTO 00000KT 5SM 19/17 A2985 RMK SLP078 T01930171 52008 IEM_DS3505
ZBYN,1990-08-20 01:00,ZBYN 200100Z AUTO 00000KT 5SM 22/17 A2985 RMK T02200170 IEM_DS3505
ZBYN,1990-08-20 02:00,ZBYN 200200Z AUTO 00000KT 7SM 25/17 A2985 RMK T02500170 IEM_DS3505
ZBYN,1990-08-20 03:00,ZBYN 200300Z AUTO 14004KT 6SM 26/18 A2985 RMK SLP073 T02610184 57001 IEM_DS3505
ZBYN,1990-08-20 04:00,ZBYN 200400Z AUTO 00000KT 7SM 28/19 A2983 RMK T02800190 IEM_DS3505
ZBYN,1990-08-20 05:00,ZBYN 200500Z AUTO 20006KT 7SM 29/19 A2980 RMK T02900190 IEM_DS3505
ZBYN,1990-08-20 06:00,ZBYN 200600Z AUTO 18010KT 6SM 29/19 A2980 RMK SLP046 T02940192 4////0147 57022 IEM_DS3505
ZBYN,1990-08-20 07:00,ZBYN 200700Z AUTO 21004KT 7SM 31/19 A2977 RMK T03100190 IEM_DS3505
ZBYN,1990-08-20 08:00,ZBYN 200800Z AUTO 20008KT 7SM 31/18 A2977 RMK T03100180 IEM_DS3505
ZBYN,1990-08-20 09:00,ZBYN 200900Z AUTO 16004KT 6SM 30/19 A2974 RMK SLP031 T02990191 57015 IEM_DS3505
ZBYN,1990-08-20 10:00,ZBYN 201000Z AUTO 17006KT 7SM 30/19 A2974 RMK T03000190 IEM_DS3505
ZBYN,1990-08-20 11:00,ZBYN 201100Z AUTO 13008KT 7SM 28/20 A2974 RMK T02800200 IEM_DS3505
ZBYN,1990-08-20 12:00,ZBYN 201200Z AUTO 00000KT 9SM 24/20 A2977 RMK SLP042 T02400205 52007 IEM_DS3505
ZBYN,1990-08-20 13:00,ZBYN 201300Z AUTO 00000KT 7SM 24/18 A2980 RMK T02400180 IEM_DS3505
ZBYN,1990-08-20 14:00,ZBYN 201400Z AUTO 00000KT 7SM 24/18 A2983 RMK T02400180 IEM_DS3505
ZBYN,1990-08-20 15:00,ZBYN 201500Z AUTO 04006KT 7SM 21/18 A2980 RMK SLP057 T02120175 52019 IEM_DS3505
ZBYN,1990-08-20 16:00,ZBYN 201600Z AUTO 09006KT 7SM 21/18 RMK T02100180 IEM_DS3505
ZBYN,1990-08-20 17:00,ZBYN 201700Z AUTO 09006KT 7SM 20/17 A2983 RMK T02000170 IEM_DS3505
ZBYN,1990-08-20 18:00,ZBYN 201800Z AUTO 07004KT 6SM 18/18 A2983 RMK 60008 SLP056 T01850179 40304//// 54000 IEM_DS3505
ZBYN,1990-08-20 19:00,ZBYN 201900Z AUTO 33004KT 7SM 18/17 A2980 RMK T01800170 IEM_DS3505
ZBYN,1990-08-20 20:00,ZBYN 202000Z AUTO 00000KT 7SM 17/17 A2980 RMK T01700170 IEM_DS3505
ZBYN,1990-08-20 21:00,ZBYN 202100Z AUTO 34002KT 6SM 18/16 A2980 RMK 70008 SLP047 T01760163 57009 IEM_DS3505
ZBYN,1990-08-20 22:00,ZBYN 202200Z AUTO 12002KT 7SM 17/16 A2980 RMK T01700160 IEM_DS3505
ZBYN,1990-08-20 23:00,ZBYN 202300Z AUTO 00000KT 7SM 17/16 A2980 RMK T01700160 IEM_DS3505
ZBYN,1990-08-21 00:00,ZBYN 210000Z AUTO 34004KT 6SM 20/17 A2980 RMK SLP057 T01970172 52004 IEM_DS3505
ZBYN,1990-08-21 01:00,ZBYN 210100Z AUTO 00000KT 7SM 22/18 A2980 RMK T02200180 IEM_DS3505
ZBYN,1990-08-21 02:00,ZBYN 210200Z AUTO 00000KT 7SM 23/17 A2980 RMK T02300170 IEM_DS3505
ZBYN,1990-08-21 03:00,ZBYN 210300Z AUTO 14002KT 6SM 25/17 A2980 RMK SLP046 T02480174 57007 IEM_DS3505
ZBYN,1990-08-21 04:00,ZBYN 210400Z AUTO 19006KT 7SM 26/18 A2977 RMK T02600180 IEM_DS3505
ZBYN,1990-08-21 05:00,ZBYN 210500Z AUTO 22006KT 7SM 28/20 A2974 RMK T02800200 IEM_DS3505
ZBYN,1990-08-21 06:00,ZBYN 210600Z AUTO 18004KT 7SM 29/20 A2977 RMK SLP016 T02870197 4////0170 57026 IEM_DS3505
ZBYN,1990-08-21 07:00,ZBYN 210700Z AUTO 20010KT 7SM 30/19 A2968 RMK T03000190 IEM_DS3505
ZBYN,1990-08-21 08:00,ZBYN 210800Z AUTO 17006KT 7SM 31/19 A2965 RMK T03100190 IEM_DS3505
ZBYN,1990-08-21 09:00,ZBYN 210900Z AUTO 32006KT 9SM 31/10 A2965 RMK SLP998 T03090100 57014 IEM_DS3505
ZBYN,1990-08-21 11:00,ZBYN 211100Z AUTO 00000KT 7SM 26/18 A2965 RMK T02600180 IEM_DS3505
ZBYN,1990-08-21 12:00,ZBYN 211200Z AUTO 00000KT 9SM 23/16 A2967 RMK SLP011 T02310160 52004 IEM_DS3505
ZBYN,1990-08-21 14:00,ZBYN 211400Z AUTO 09004KT 7SM 21/17 A2971 RMK T02100170 IEM_DS3505
ZBYN,1990-08-21 15:00,ZBYN 211500Z AUTO 20002KT 7SM 19/16 A2971 RMK SLP023 T01920165 52012 IEM_DS3505
ZBYN,1990-08-21 16:00,ZBYN 211600Z AUTO 00000KT 7SM 18/15 A2971 RMK T01800150 IEM_DS3505
ZBYN,1990-08-21 17:00,ZBYN 211700Z AUTO 00000KT 7SM 17/15 A2971 RMK T01700150 IEM_DS3505
ZBYN,1990-08-21 18:00,ZBYN 211800Z AUTO 36002KT 6SM 17/14 A2974 RMK SLP025 T01740141 40314//// 52005 IEM_DS3505
ZBYN,1990-08-21 21:00,ZBYN 212100Z AUTO 36004KT 6SM 18/12 A2971 RMK SLP018 T01830117 57002 IEM_DS3505
ZBYN,1990-08-21 22:00,ZBYN 212200Z AUTO 00000KT 7SM 15/13 A2974 RMK T01500130 IEM_DS3505
ZBYN,1990-08-22 00:00,ZBYN 220000Z AUTO 00000KT 6SM 19/15 A2977 RMK SLP043 T01880150 52013 IEM_DS3505
ZBYN,1990-08-22 01:00,ZBYN 220100Z AUTO 00000KT 7SM 21/15 A2977 RMK T02100150 IEM_DS3505
ZBYN,1990-08-22 02:00,ZBYN 220200Z AUTO 17008KT 7SM 26/16 A2974 RMK T02600160 IEM_DS3505
ZBYN,1990-08-22 03:00,ZBYN 220300Z AUTO 18002KT 4SM 25/16 A2974 RMK SLP035 T02530164 57004 IEM_DS3505
ZBYN,1990-08-22 04:00,ZBYN 220400Z AUTO 21004KT 7SM 27/15 A2971 RMK T02700150 IEM_DS3505
ZBYN,1990-08-22 05:00,ZBYN 220500Z AUTO 17008KT 7SM 29/15 A2971 RMK T02900150 IEM_DS3505
ZBYN,1990-08-22 06:00,ZBYN 220600Z AUTO 00000KT 9SM 29/15 A2971 RMK SLP016 T02930154 4////0154 57014 IEM_DS3505
ZBYN,1990-08-22 07:00,ZBYN 220700Z AUTO 00000KT 7SM 30/16 A2968 RMK T03000160 IEM_DS3505
ZBYN,1990-08-22 08:00,ZBYN 220800Z AUTO 17004KT 7SM 30/14 A2965 RMK T03000140 IEM_DS3505
ZBYN,1990-08-22 09:00,ZBYN 220900Z AUTO 20004KT 9SM 30/14 A2965 RMK SLP003 T03010145 57010 IEM_DS3505
ZBYN,1990-08-22 10:00,ZBYN 221000Z AUTO 00000KT 7SM 30/16 A2965 RMK T03000160 IEM_DS3505
ZBYN,1990-08-22 11:00,ZBYN 221100Z AUTO 04004KT 7SM 26/18 A2968 RMK T02600180 IEM_DS3505
ZBYN,1990-08-22 12:00,ZBYN 221200Z AUTO 00000KT 9SM 23/17 A2971 RMK SLP010 T02270171 IEM_DS3505
ZBYN,1990-08-22 13:00,ZBYN 221300Z AUTO 07004KT 7SM 22/15 A2971 RMK T02200150 IEM_DS3505
ZBYN,1990-08-22 15:00,ZBYN 221500Z AUTO 32006KT 9SM 20/14 A2974 RMK SLP032 T02040136 52015 IEM_DS3505
ZBYN,1990-08-22 18:00,ZBYN 221800Z AUTO 34004KT 9SM 17/14 A2978 RMK SLP044 T01700140 40311//// 52012 IEM_DS3505
ZBYN,1990-08-22 19:00,ZBYN 221900Z AUTO 00000KT 7SM 15/14 A2980 RMK T01500140 IEM_DS3505
ZBYN,1990-08-22 21:00,ZBYN 222100Z AUTO 34002KT 9SM 14/13 A2980 RMK SLP056 T01420130 52008 IEM_DS3505
ZBYN,1990-08-22 22:00,ZBYN 222200Z AUTO 00000KT 7SM 13/12 A2983 RMK T01300120 IEM_DS3505
ZBYN,1990-08-22 23:00,ZBYN 222300Z AUTO 00000KT 7SM 14/13 A2983 RMK T01400130 IEM_DS3505
ZBYN,1990-08-23 00:00,ZBYN 230000Z AUTO 00000KT 5SM 18/15 A2985 RMK SLP075 T01820153 52013 IEM_DS3505
ZBYN,1990-08-23 01:00,ZBYN 230100Z AUTO 00000KT 7SM 21/15 A2985 RMK T02100150 IEM_DS3505
ZBYN,1990-08-23 02:00,ZBYN 230200Z AUTO 00000KT 7SM 24/15 A2985 RMK T02400150 IEM_DS3505
ZBYN,1990-08-23 03:00,ZBYN 230300Z AUTO 18002KT 6SM 26/16 A2985 RMK SLP068 T02550159 54000 IEM_DS3505
ZBYN,1990-08-23 04:00,ZBYN 230400Z AUTO 00000KT 7SM 27/15 A2983 RMK T02700150 IEM_DS3505
ZBYN,1990-08-23 05:00,ZBYN 230500Z AUTO 14004KT 7SM 29/16 A2983 RMK T02900160 IEM_DS3505
ZBYN,1990-08-23 06:00,ZBYN 230600Z AUTO 18006KT 7SM 29/16 A2980 RMK SLP051 T02910159 4////0127 57015 IEM_DS3505
ZBYN,1990-08-23 07:00,ZBYN 230700Z AUTO 20004KT 7SM 30/17 A2980 RMK T03000170 IEM_DS3505
ZBYN,1990-08-23 08:00,ZBYN 230800Z AUTO 21006KT 7SM 31/17 A2977 RMK T03100170 IEM_DS3505
ZBYN,1990-08-23 09:00,ZBYN 230900Z AUTO 16006KT 7SM 30/18 A2977 RMK SLP044 T02970180 57010 IEM_DS3505
ZBYN,1990-08-23 10:00,ZBYN 231000Z AUTO 00000KT 7SM 30/19 A2977 RMK T03000190 IEM_DS3505
ZBYN,1990-08-23 12:00,ZBYN 231200Z AUTO 14004KT 7SM 24/19 A2977 RMK SLP053 T02370187 52006 IEM_DS3505
ZBYN,1990-08-23 13:00,ZBYN 231300Z AUTO 12004KT 7SM 23/18 A2980 RMK T02300180 IEM_DS3505
ZBYN,1990-08-23 14:00,ZBYN 231400Z AUTO 09008KT 7SM 22/17 A2980 RMK T02200170 IEM_DS3505
ZBYN,1990-08-23 15:00,ZBYN 231500Z AUTO 11006KT 7SM 21/17 A2980 RMK SLP057 T02090170 52010 IEM_DS3505
ZBYN,1990-08-23 17:00,ZBYN 231700Z AUTO 00000KT 7SM 21/16 A2985 RMK T02100160 IEM_DS3505
ZBYN,1990-08-23 18:00,ZBYN 231800Z AUTO 00000KT 7SM 18/17 A2985 RMK SLP070 T01770166 40299//// 52013 IEM_DS3505
ZBYN,1990-08-23 19:00,ZBYN 231900Z AUTO 24004KT 7SM 19/16 A2985 RMK T01900160 IEM_DS3505
ZBYN,1990-08-23 20:00,ZBYN 232000Z AUTO 12004KT 7SM 18/16 A2988 RMK T01800160 IEM_DS3505
ZBYN,1990-08-23 21:00,ZBYN 232100Z AUTO 00000KT 6SM 16/16 A2988 RMK SLP083 T01640157 52010 IEM_DS3505
ZBYN,1990-08-23 22:00,ZBYN 232200Z AUTO 11004KT 7SM 17/15 A2988 RMK T01700150 IEM_DS3505
ZBYN,1990-08-23 23:00,ZBYN 232300Z AUTO 00000KT 6SM 17/16 A2991 RMK T01700160 IEM_DS3505
ZBYN,1990-08-24 00:00,ZBYN 240000Z AUTO 00000KT 5SM 20/16 A2993 RMK SLP100 T01980165 52012 IEM_DS3505
ZBYN,1990-08-24 02:00,ZBYN 240200Z AUTO 00000KT 6SM 27/17 A2994 RMK T02700170 IEM_DS3505
ZBYN,1990-08-24 03:00,ZBYN 240300Z AUTO 00000KT 6SM 26/18 A2991 RMK SLP093 T02580182 57002 IEM_DS3505
ZBYN,1990-08-24 04:00,ZBYN 240400Z AUTO 20008KT 6SM 29/17 A2991 RMK T02900170 IEM_DS3505
ZBYN,1990-08-24 05:00,ZBYN 240500Z AUTO 22004KT 6SM 29/18 A2991 RMK T02900180 IEM_DS3505
ZBYN,1990-08-24 06:00,ZBYN 240600Z AUTO 16002KT 11SM 29/19 A2988 RMK SLP081 T02890193 57011 IEM_DS3505
ZBYN,1990-08-24 07:00,ZBYN 240700Z AUTO 11004KT 6SM 30/19 A2988 RMK T03000190 IEM_DS3505
ZBYN,1990-08-24 08:00,ZBYN 240800Z AUTO 13004KT 6SM 31/18 A2985 RMK T03100180 IEM_DS3505
ZBYN,1990-08-24 09:00,ZBYN 240900Z AUTO 14004KT 12SM 30/21 A2985 RMK SLP072 T03010207 57008 IEM_DS3505
ZBYN,1990-08-24 10:00,ZBYN 241000Z AUTO 00000KT 7SM A2993 RMK SLP092 52005 IEM_DS3505
ZBYN,1990-08-24 11:00,ZBYN 241100Z AUTO 09006KT 6SM 24/19 A2988 RMK T02400190 IEM_DS3505
ZBYN,1990-08-24 12:00,ZBYN 241200Z AUTO 00000KT 9SM 24/21 A2991 RMK SLP084 T02380210 52007 IEM_DS3505
ZBYN,1990-08-24 14:00,ZBYN 241400Z AUTO 00000KT 6SM 21/16 A2991 RMK T02100160 IEM_DS3505
ZBYN,1990-08-24 15:00,ZBYN 241500Z AUTO 00000KT 7SM 22/19 A2991 RMK SLP090 T02190189 52011 IEM_DS3505
ZBYN,1990-08-24 16:00,ZBYN 241600Z AUTO 00000KT 6SM 20/17 A2994 RMK T02000170 IEM_DS3505
ZBYN,1990-08-24 17:00,ZBYN 241700Z AUTO 00000KT 6SM 21/17 A2994 RMK T02100170 IEM_DS3505
ZBYN,1990-08-24 18:00,ZBYN 241800Z AUTO 00000KT 7SM 22/17 A2994 RMK SLP092 T02160169 40310//// 52005 IEM_DS3505
ZBYN,1990-08-24 19:00,ZBYN 241900Z AUTO 00000KT 4SM 20/18 A2994 RMK T02000180 IEM_DS3505
ZBYN,1990-08-24 20:00,ZBYN 242000Z AUTO 00000KT 4SM 20/18 A2994 RMK T02000180 IEM_DS3505
ZBYN,1990-08-24 21:00,ZBYN 242100Z AUTO 36002KT 6SM 20/17 A2997 RMK SLP099 T02020167 52007 IEM_DS3505
ZBYN,1990-08-24 22:00,ZBYN 242200Z AUTO 00000KT 2 1/2SM 18/17 A2997 RMK T01800170 IEM_DS3505
ZBYN,1990-08-24 23:00,ZBYN 242300Z AUTO 00000KT 3SM 19/17 A3000 RMK T01900170 IEM_DS3505
ZBYN,1990-08-25 00:00,ZBYN 250000Z AUTO 34004KT 5SM 21/18 A3000 RMK SLP121 T02140183 52013 IEM_DS3505
ZBYN,1990-08-25 01:00,ZBYN 250100Z AUTO 08012KT 4SM 26/20 A3000 RMK T02600200 IEM_DS3505
ZBYN,1990-08-25 02:00,ZBYN 250200Z AUTO 09008KT 7SM 27/20 A3000 RMK T02700200 IEM_DS3505
ZBYN,1990-08-25 03:00,ZBYN 250300Z AUTO 09008KT 6SM 28/19 A3000 RMK SLP107 T02820191 57006 IEM_DS3505
ZBYN,1990-08-25 04:00,ZBYN 250400Z AUTO 09010KT 7SM 30/19 A2997 RMK T03000190 IEM_DS3505
ZBYN,1990-08-25 05:00,ZBYN 250500Z AUTO 10010KT 7SM 30/19 A2994 RMK T03000190 IEM_DS3505
ZBYN,1990-08-25 06:00,ZBYN 250600Z AUTO 18006KT 6SM 31/19 A2994 RMK SLP086 T03130192 4////0183 57016 IEM_DS3505
ZBYN,1990-08-25 07:00,ZBYN 250700Z AUTO 22006KT 7SM 31/17 A2991 RMK T03100170 IEM_DS3505
ZBYN,1990-08-25 08:00,ZBYN 250800Z AUTO 18010KT 7SM 30/16 A2991 RMK T03000160 IEM_DS3505
ZBYN,1990-08-25 09:00,ZBYN 250900Z AUTO 18004KT 7SM 28/18 A2991 RMK SLP089 T02780181 57004 IEM_DS3505
ZBYN,1990-08-25 10:00,ZBYN 251000Z AUTO 11008KT 6SM 28/16 A2994 RMK T02800160 IEM_DS3505
ZBYN,1990-08-25 12:00,ZBYN 251200Z AUTO 09004KT 7SM 25/20 A2996 RMK SLP107 T02500198 52015 IEM_DS3505
ZBYN,1990-08-25 13:00,ZBYN 251300Z AUTO 09008KT 6SM 26/19 A2994 RMK T02600190 IEM_DS3505
ZBYN,1990-08-25 14:00,ZBYN 251400Z AUTO 09006KT 6SM 24/19 A3000 RMK T02400190 IEM_DS3505
ZBYN,1990-08-25 15:00,ZBYN 251500Z AUTO 09008KT 7SM 24/18 A3000 RMK SLP113 T02410185 52013 IEM_DS3505
ZBYN,1990-08-25 16:00,ZBYN 251600Z AUTO 10004KT 6SM 23/19 A3000 RMK T02300190 IEM_DS3505
ZBYN,1990-08-25 17:00,ZBYN 251700Z AUTO 09008KT 6SM 23/18 A3000 RMK T02300180 IEM_DS3505
ZBYN,1990-08-25 18:00,ZBYN 251800Z AUTO 00000KT 7SM 22/19 A3000 RMK SLP110 T02220187 57001 IEM_DS3505
ZBYN,1990-08-25 19:00,ZBYN 251900Z AUTO 09010KT 6SM 23/18 A3000 RMK T02300180 IEM_DS3505
ZBYN,1990-08-25 21:00,ZBYN 252100Z AUTO 09002KT 7SM 23/19 A2997 RMK SLP109 T02300190 57007 IEM_DS3505
ZBYN,1990-08-25 22:00,ZBYN 252200Z AUTO 30006KT 5SM 22/19 A3000 RMK T02200190 IEM_DS3505
ZBYN,1990-08-25 23:00,ZBYN 252300Z AUTO 00000KT 3SM 22/19 A3000 RMK T02200190 IEM_DS3505
ZBYN,1990-08-26 00:00,ZBYN 260000Z AUTO 00000KT 3SM 21/20 A3000 RMK SLP123 T02130204 52010 IEM_DS3505
ZBYN,1990-08-26 01:00,ZBYN 260100Z AUTO 35004KT 3SM 23/20 A3000 RMK T02300200 IEM_DS3505
ZBYN,1990-08-26 02:00,ZBYN 260200Z AUTO 12006KT 4SM 24/20 A3000 RMK T02400200 IEM_DS3505
ZBYN,1990-08-26 03:00,ZBYN 260300Z AUTO 36004KT 4SM 22/21 A3000 RMK SLP129 T02210206 52004 IEM_DS3505
ZBYN,1990-08-26 04:00,ZBYN 260400Z AUTO 00000KT 7SM 24/20 A3000 RMK T02400200 IEM_DS3505
ZBYN,1990-08-26 05:00,ZBYN 260500Z AUTO 09010KT 7SM 25/19 A3000 RMK T02500190 IEM_DS3505
ZBYN,1990-08-26 06:00,ZBYN 260600Z AUTO 04004KT 4SM 22/21 A3000 RMK 60012 SLP123 T02240208 57007 IEM_DS3505
ZBYN,1990-08-26 07:00,ZBYN 260700Z AUTO 10016KT 7SM 23/18 A3000 RMK T02300180 IEM_DS3505
ZBYN,1990-08-26 08:00,ZBYN 260800Z AUTO 09014KT 7SM 23/17 A3000 RMK T02300170 IEM_DS3505
ZBYN,1990-08-26 09:00,ZBYN 260900Z AUTO 09004KT 9SM 23/18 A3000 RMK SLP127 T02270182 52002 IEM_DS3505
ZBYN,1990-08-26 10:00,ZBYN 261000Z AUTO 10006KT 6SM 22/17 A3000 RMK T02200170 IEM_DS3505
ZBYN,1990-08-26 12:00,ZBYN 261200Z AUTO 07006KT 9SM 22/17 A3003 RMK SLP137 T02180171 52008 IEM_DS3505
ZBYN,1990-08-26 13:00,ZBYN 261300Z AUTO 09012KT 7SM 20/16 A3006 RMK T02000160 IEM_DS3505
ZBYN,1990-08-26 15:00,ZBYN 261500Z AUTO 00000KT 9SM 20/19 A3006 RMK SLP143 T01980186 52004 IEM_DS3505
ZBYN,1990-08-26 18:00,ZBYN 261800Z AUTO 32002KT 9SM 20/19 A3003 RMK 60001 SLP140 T01950190 40241//// 57003 IEM_DS3505
ZBYN,1990-08-26 19:00,ZBYN 261900Z AUTO 00000KT 7SM 20/17 A3003 RMK T02000170 IEM_DS3505
ZBYN,1990-08-26 21:00,ZBYN 262100Z AUTO 00000KT 6SM 20/ A3002 RMK 70012 SLP133 57005 IEM_DS3505
ZBYN,1990-08-26 22:00,ZBYN 262200Z AUTO 00000KT 6SM 19/18 A3003 RMK T01900180 IEM_DS3505
ZBYN,1990-08-27 00:00,ZBYN 270000Z AUTO 34004KT 3/8SM A3004 RMK 60001 SLP142 52007 IEM_DS3505
ZBYN,1990-08-27 01:00,ZBYN 270100Z AUTO 00000KT 4SM 21/19 A3006 RMK T02100190 IEM_DS3505
ZBYN,1990-08-27 02:00,ZBYN 270200Z AUTO 00000KT 4SM 21/19 A3006 RMK T02100190 IEM_DS3505
ZBYN,1990-08-27 03:00,ZBYN 270300Z AUTO 34004KT 5SM 21/19 A3003 RMK SLP145 T02110194 52002 IEM_DS3505
ZBYN,1990-08-27 04:00,ZBYN 270400Z AUTO 08008KT 7SM 21/17 A3003 RMK T02100170 IEM_DS3505
ZBYN,1990-08-27 05:00,ZBYN 270500Z AUTO 08012KT 7SM 22/17 A3003 RMK T02200170 IEM_DS3505
ZBYN,1990-08-27 06:00,ZBYN 270600Z AUTO 32004KT 6SM 22/19 A3000 RMK 60001 SLP130 T02170194 4////0183 57014 IEM_DS3505
ZBYN,1990-08-27 07:00,ZBYN 270700Z AUTO 08010KT 7SM 22/18 A2997 RMK T02200180 IEM_DS3505
ZBYN,1990-08-27 08:00,ZBYN 270800Z AUTO 06012KT 7SM 21/18 A2997 RMK T02100180 IEM_DS3505
ZBYN,1990-08-27 09:00,ZBYN 270900Z AUTO 00000KT 5SM 21/19 A2997 RMK SLP118 T02090189 57012 IEM_DS3505
ZBYN,1990-08-27 10:00,ZBYN 271000Z AUTO 03006KT 7SM 21/18 A2994 RMK T02100180 IEM_DS3505
ZBYN,1990-08-27 11:00,ZBYN 271100Z AUTO 28004KT 4SM 21/19 A2994 RMK T02100190 IEM_DS3505
ZBYN,1990-08-27 12:00,ZBYN 271200Z AUTO 36004KT 2SM 20/18 A2994 RMK 60004 SLP113 T02020185 57005 IEM_DS3505
ZBYN,1990-08-27 13:00,ZBYN 271300Z AUTO 03004KT 5SM 21/18 A2994 RMK T02100180 IEM_DS3505
ZBYN,1990-08-27 14:00,ZBYN 271400Z AUTO 09008KT 7SM 21/18 A2994 RMK T02100180 IEM_DS3505
ZBYN,1990-08-27 15:00,ZBYN 271500Z AUTO 00000KT 5SM 20/19 A2994 RMK SLP107 T02010190 57004 IEM_DS3505
ZBYN,1990-08-27 16:00,ZBYN 271600Z AUTO 09010KT 7SM 22/18 A2991 RMK T02200180 IEM_DS3505
ZBYN,1990-08-27 17:00,ZBYN 271700Z AUTO 10004KT 5SM 21/20 A2991 RMK T02100200 IEM_DS3505
ZBYN,1990-08-27 18:00,ZBYN 271800Z AUTO 00000KT 5SM 20/20 A2988 RMK 60002 SLP090 T02020196 40220//// 57014 IEM_DS3505
ZBYN,1990-08-27 19:00,ZBYN 271900Z AUTO 21006KT 4SM 21/20 A2988 RMK T02100200 IEM_DS3505
ZBYN,1990-08-27 20:00,ZBYN 272000Z AUTO 11008KT 2SM 20/20 A2991 RMK T02000200 IEM_DS3505
ZBYN,1990-08-27 21:00,ZBYN 272100Z AUTO 20006KT 4SM 20/20 A2991 RMK 70091 SLP100 T01980195 52007 IEM_DS3505
ZBYN,1990-08-27 22:00,ZBYN 272200Z AUTO 21010KT 2SM 20/20 A2994 RMK T02000200 IEM_DS3505
ZBYN,1990-08-27 23:00,ZBYN 272300Z AUTO 22010KT 4SM 20/19 A2997 RMK T02000190 IEM_DS3505
ZBYN,1990-08-28 00:00,ZBYN 280000Z AUTO 20006KT 7SM 20/19 A3000 RMK 60087 SLP126 T01990191 52023 IEM_DS3505
ZBYN,1990-08-28 01:00,ZBYN 280100Z AUTO 22008KT 7SM 21/19 A3003 RMK T02100190 IEM_DS3505
ZBYN,1990-08-28 02:00,ZBYN 280200Z AUTO 24010KT 7SM 21/20 A3003 RMK T02100200 IEM_DS3505
ZBYN,1990-08-28 03:00,ZBYN 280300Z AUTO 18004KT 7SM 22/20 A3003 RMK SLP134 T02200199 52010 IEM_DS3505
ZBYN,1990-08-28 04:00,ZBYN 280400Z AUTO 22008KT 6SM 23/19 A3003 RMK T02300190 IEM_DS3505
ZBYN,1990-08-28 05:00,ZBYN 280500Z AUTO 21008KT 6SM 24/19 A3000 RMK T02400190 IEM_DS3505
ZBYN,1990-08-28 06:00,ZBYN 280600Z AUTO 20004KT 11SM 25/18 A3000 RMK SLP123 T02530185 4////0191 57005 IEM_DS3505
ZBYN,1990-08-28 07:00,ZBYN 280700Z AUTO 23010KT 6SM 26/20 A3000 RMK T02600200 IEM_DS3505
ZBYN,1990-08-28 08:00,ZBYN 280800Z AUTO 21010KT 6SM 25/19 A2997 RMK T02500190 IEM_DS3505
ZBYN,1990-08-28 09:00,ZBYN 280900Z AUTO 22006KT 12SM 26/19 A2997 RMK SLP111 T02550190 57011 IEM_DS3505
ZBYN,1990-08-28 10:00,ZBYN 281000Z AUTO 23010KT 6SM 26/19 A2997 RMK T02600190 IEM_DS3505
ZBYN,1990-08-28 11:00,ZBYN 281100Z AUTO 23008KT 6SM 23/19 A3000 RMK T02300190 IEM_DS3505
ZBYN,1990-08-28 12:00,ZBYN 281200Z AUTO 00000KT 12SM 22/19 A3000 RMK SLP131 T02160193 52010 IEM_DS3505
ZBYN,1990-08-28 13:00,ZBYN 281300Z AUTO 14006KT 6SM 21/19 A3003 RMK T02100190 IEM_DS3505
ZBYN,1990-08-28 14:00,ZBYN 281400Z AUTO 12004KT 6SM 21/19 A3006 RMK T02100190 IEM_DS3505
ZBYN,1990-08-28 15:00,ZBYN 281500Z AUTO 00000KT 7SM 19/18 A3006 RMK SLP149 T01890183 52015 IEM_DS3505
ZBYN,1990-08-28 16:00,ZBYN 281600Z AUTO 11006KT 7SM 19/18 A3006 RMK T01900180 IEM_DS3505
ZBYN,1990-08-28 17:00,ZBYN 281700Z AUTO 10004KT 7SM 18/17 A3006 RMK T01800170 IEM_DS3505
ZBYN,1990-08-28 18:00,ZBYN 281800Z AUTO 00000KT 6SM 17/16 A3006 RMK SLP150 T01680165 40276//// 52003 IEM_DS3505
ZBYN,1990-08-28 19:00,ZBYN 281900Z AUTO 00000KT 4SM 16/16 A3006 RMK T01600160 IEM_DS3505
ZBYN,1990-08-28 20:00,ZBYN 282000Z AUTO 10004KT 4SM 16/15 A3006 RMK T01600150 IEM_DS3505
ZBYN,1990-08-28 21:00,ZBYN 282100Z AUTO 00000KT 3SM 14/14 A3006 RMK 70004 SLP152 T01450143 57001 IEM_DS3505
ZBYN,1990-08-28 22:00,ZBYN 282200Z AUTO 09004KT 3SM 15/14 A3006 RMK T01500140 IEM_DS3505
ZBYN,1990-08-28 23:00,ZBYN 282300Z AUTO 10004KT 2SM 15/15 A3009 RMK T01500150 IEM_DS3505
ZBYN,1990-08-29 00:00,ZBYN 290000Z AUTO 10004KT 3SM 17/17 A3012 RMK SLP162 T01710169 52007 IEM_DS3505
ZBYN,1990-08-29 02:00,ZBYN 290200Z AUTO 07004KT 5SM 23/17 A3009 RMK T02300170 IEM_DS3505
ZBYN,1990-08-29 03:00,ZBYN 290300Z AUTO 16002KT 6SM 24/18 A3009 RMK SLP153 T02380180 57003 IEM_DS3505
ZBYN,1990-08-29 04:00,ZBYN 290400Z AUTO 32006KT 7SM 26/14 A3006 RMK T02600140 IEM_DS3505
ZBYN,1990-08-29 05:00,ZBYN 290500Z AUTO 22006KT 7SM 27/13 A3003 RMK T02700130 IEM_DS3505
ZBYN,1990-08-29 06:00,ZBYN 290600Z AUTO 22006KT 6SM 27/15 A3003 RMK SLP129 T02720146 4////0126 57020 IEM_DS3505
ZBYN,1990-08-29 08:00,ZBYN 290800Z AUTO 17004KT 7SM 28/13 A3000 RMK T02800130 IEM_DS3505
ZBYN,1990-08-29 09:00,ZBYN 290900Z AUTO 20006KT 6SM 27/16 A2997 RMK T02670155 IEM_DS3505
ZBYN,1990-08-29 10:00,ZBYN 291000Z AUTO 00000KT 7SM 26/15 A2997 RMK T02600150 IEM_DS3505
ZBYN,1990-08-29 11:00,ZBYN 291100Z AUTO 19004KT 7SM 24/18 A2997 RMK T02400180 IEM_DS3505
ZBYN,1990-08-29 12:00,ZBYN 291200Z AUTO 18004KT 9SM 20/16 A2998 RMK SLP128 T02040161 52001 IEM_DS3505
ZBYN,1990-08-29 13:00,ZBYN 291300Z AUTO 08006KT 7SM 20/17 A3000 RMK T02000170 IEM_DS3505
ZBYN,1990-08-29 14:00,ZBYN 291400Z AUTO 11004KT 7SM 18/17 A3000 RMK T01800170 IEM_DS3505
ZBYN,1990-08-29 15:00,ZBYN 291500Z AUTO 32002KT 6SM 17/15 A3000 RMK SLP128 T01680148 52005 IEM_DS3505
ZBYN,1990-08-29 16:00,ZBYN 291600Z AUTO 00000KT 7SM 16/15 A3003 RMK T01600150 IEM_DS3505
ZBYN,1990-08-29 18:00,ZBYN 291800Z AUTO 09004KT 6SM 15/14 A3001 RMK SLP132 T01490142 40278//// 52005 IEM_DS3505
ZBYN,1990-08-29 19:00,ZBYN 291900Z AUTO 00000KT 7SM 15/14 A3000 RMK T01500140 IEM_DS3505
ZBYN,1990-08-29 20:00,ZBYN 292000Z AUTO 03002KT 7SM 15/14 A3000 RMK T01500140 IEM_DS3505
ZBYN,1990-08-29 21:00,ZBYN 292100Z AUTO 09002KT 6SM 15/14 A3000 RMK SLP125 T01500143 57007 IEM_DS3505
ZBYN,1990-08-29 22:00,ZBYN 292200Z AUTO 13004KT 7SM 14/14 A3000 RMK T01400140 IEM_DS3505
ZBYN,1990-08-29 23:00,ZBYN 292300Z AUTO 12002KT 7SM 15/13 A3003 RMK T01500130 IEM_DS3505
ZBYN,1990-08-30 00:00,ZBYN 300000Z AUTO 00000KT 5SM 17/15 A3003 RMK SLP145 T01670149 52012 IEM_DS3505
ZBYN,1990-08-30 01:00,ZBYN 300100Z AUTO 00000KT 7SM 20/15 A3003 RMK T02000150 IEM_DS3505
ZBYN,1990-08-30 02:00,ZBYN 300200Z AUTO 17004KT 7SM 22/15 A3003 RMK T02200150 IEM_DS3505
ZBYN,1990-08-30 03:00,ZBYN 300300Z AUTO 20006KT 6SM 23/16 A3000 RMK SLP128 T02340165 57011 IEM_DS3505
ZBYN,1990-08-30 04:00,ZBYN 300400Z AUTO 16002KT 6SM 26/16 A2997 RMK T02600160 IEM_DS3505
ZBYN,1990-08-30 05:00,ZBYN 300500Z AUTO 21006KT 6SM 27/16 A2997 RMK T02700160 IEM_DS3505
ZBYN,1990-08-30 06:00,ZBYN 300600Z AUTO 18004KT 6SM 27/16 A2994 RMK SLP108 T02690163 4////0132 57010 IEM_DS3505
ZBYN,1990-08-30 07:00,ZBYN 300700Z AUTO 18006KT 6SM 29/16 A2991 RMK T02900160 IEM_DS3505
ZBYN,1990-08-30 08:00,ZBYN 300800Z AUTO 19008KT 6SM 29/14 A2988 RMK T02900140 IEM_DS3505
ZBYN,1990-08-30 09:00,ZBYN 300900Z AUTO 20004KT 9SM 27/16 A2988 RMK SLP088 T02730155 57018 IEM_DS3505
ZBYN,1990-08-30 10:00,ZBYN 301000Z AUTO 21004KT 6SM 27/16 A2988 RMK T02700160 IEM_DS3505
ZBYN,1990-08-30 11:00,ZBYN 301100Z AUTO 00000KT 6SM 24/20 A2988 RMK T02400200 IEM_DS3505
ZBYN,1990-08-30 12:00,ZBYN 301200Z AUTO 00000KT 7SM 23/17 A2991 RMK SLP101 T02300170 52005 IEM_DS3505
ZBYN,1990-08-30 13:00,ZBYN 301300Z AUTO 11006KT 7SM 20/17 A2991 RMK T02000170 IEM_DS3505
ZBYN,1990-08-30 14:00,ZBYN 301400Z AUTO 13006KT 6SM 19/15 A2994 RMK T01900150 IEM_DS3505
ZBYN,1990-08-30 15:00,ZBYN 301500Z AUTO 00000KT 7SM 18/17 A2994 RMK SLP107 T01760168 52011 IEM_DS3505
ZBYN,1990-08-30 16:00,ZBYN 301600Z AUTO 00000KT 7SM 16/16 A2994 RMK T01600160 IEM_DS3505
ZBYN,1990-08-30 17:00,ZBYN 301700Z AUTO 12004KT 6SM 17/16 A2994 RMK T01700160 IEM_DS3505
ZBYN,1990-08-30 18:00,ZBYN 301800Z AUTO 00000KT 7SM 17/16 A2994 RMK SLP103 T01700159 40277//// 54000 IEM_DS3505
ZBYN,1990-08-30 21:00,ZBYN 302100Z AUTO 00000KT 6SM 15/14 A2993 RMK SLP104 T01500143 57001 IEM_DS3505
ZBYN,1990-08-30 23:00,ZBYN 302300Z AUTO 18006KT 6SM 16/13 A2997 RMK T01600130 IEM_DS3505
ZBYN,1990-08-31 00:00,ZBYN 310000Z AUTO 32002KT 6SM 18/14 A2997 RMK SLP125 T01830145 52014 IEM_DS3505
ZBYN,1990-08-31 01:00,ZBYN 310100Z AUTO 31006KT 4SM 21/16 A2997 RMK T02100160 IEM_DS3505
ZBYN,1990-08-31 02:00,ZBYN 310200Z AUTO 00000KT 7SM 24/15 A2997 RMK T02400150 IEM_DS3505
ZBYN,1990-08-31 03:00,ZBYN 310300Z AUTO 00000KT 6SM 26/17 A2997 RMK SLP114 T02570174 57003 IEM_DS3505
ZBYN,1990-08-31 04:00,ZBYN 310400Z AUTO 00000KT 7SM 28/17 A2997 RMK T02800170 IEM_DS3505
ZBYN,1990-08-31 05:00,ZBYN 310500Z AUTO 25004KT 7SM 29/17 A2994 RMK T02900170 IEM_DS3505
ZBYN,1990-08-31 06:00,ZBYN 310600Z AUTO 16002KT 7SM 29/17 A2991 RMK SLP090 T02930167 4////0129 57018 IEM_DS3505
ZBYN,1990-08-31 07:00,ZBYN 310700Z AUTO 00000KT 7SM 30/14 A2988 RMK T03000140 IEM_DS3505
ZBYN,1990-08-31 08:00,ZBYN 310800Z AUTO 00000KT 7SM 31/13 A2985 RMK T03100130 IEM_DS3505
ZBYN,1990-08-31 09:00,ZBYN 310900Z AUTO 00000KT 7SM 29/19 A2985 RMK SLP074 T02920189 57018 IEM_DS3505
ZBYN,1990-08-31 10:00,ZBYN 311000Z AUTO 08004KT 7SM 28/15 A2985 RMK T02800150 IEM_DS3505
ZBYN,1990-08-31 11:00,ZBYN 311100Z AUTO 20004KT 9SM A2985 RMK SLP109 40303//// 52003 IEM_DS3505
ZBYN,1990-08-31 12:00,ZBYN 311200Z AUTO 36012KT 9SM 24/11 A2988 RMK SLP094 T02450114 52017 IEM_DS3505
ZBYN,1990-08-31 13:00,ZBYN 311300Z AUTO 01006KT 7SM 22/12 A2994 RMK T02200120 IEM_DS3505
ZBYN,1990-08-31 15:00,ZBYN 311500Z AUTO 34004KT 9SM 20/14 A2997 RMK SLP109 T02000135 52017 IEM_DS3505
ZBYN,1990-08-31 16:00,ZBYN 311600Z AUTO 32004KT 7SM 19/14 A2994 RMK T01900140 IEM_DS3505
ZBYN,1990-08-31 17:00,ZBYN 311700Z AUTO 00000KT 7SM 19/14 A2997 RMK T01900140 IEM_DS3505
ZBYN,1990-08-31 18:00,ZBYN 311800Z AUTO 20004KT 9SM 19/14 A2997 RMK SLP109 T01860143 40303//// 52003 IEM_DS3505
ZBYN,1990-08-31 19:00,ZBYN 311900Z AUTO 20006KT 7SM 19/14 A3000 RMK T01900140 IEM_DS3505
ZBYN,1990-08-31 20:00,ZBYN 312000Z AUTO 00000KT 7SM 18/15 A3000 RMK T01800150 IEM_DS3505
ZBYN,1990-08-31 21:00,ZBYN 312100Z AUTO 36004KT 6SM 16/15 A2998 RMK SLP116 T01620149 52003 IEM_DS3505
ZBYN,1990-08-31 22:00,ZBYN 312200Z AUTO 08004KT 6SM 15/14 A3000 RMK T01500140 IEM_DS3505
ZBYN,1990-08-31 22:18,ZBYN 312218Z AUTO 08004KT 6SM 15/14 A3000 RMK T01500140 IEM_DS3505
ZBYN,1990-08-31 23:00,ZBYN 312300Z AUTO 09006KT 7SM 16/15 A3000 RMK T01600150 IEM_DS3505
ZBYN,1990-09-01 00:00,ZBYN 010000Z AUTO 14004KT 6SM 18/15 A3000 RMK SLP127 T01780153 52006 IEM_DS3505
ZBYN,1990-09-01 02:00,ZBYN 010200Z AUTO 00000KT 7SM 24/15 A3000 RMK T02400150 IEM_DS3505
ZBYN,1990-09-01 03:00,ZBYN 010300Z AUTO 32004KT 6SM 24/16 A3000 RMK SLP120 T02400156 57004 IEM_DS3505
ZBYN,1990-09-01 04:00,ZBYN 010400Z AUTO 24006KT 7SM 28/15 A2997 RMK T02800150 IEM_DS3505
ZBYN,1990-09-01 05:00,ZBYN 010500Z AUTO 24006KT 7SM 28/15 A2997 RMK T02800150 IEM_DS3505
ZBYN,1990-09-01 06:00,ZBYN 010600Z AUTO 32004KT 6SM 28/16 A2994 RMK SLP098 T02850161 4////0136 57016 IEM_DS3505
ZBYN,1990-09-01 07:00,ZBYN 010700Z AUTO 07004KT 7SM 29/14 A2991 RMK T02900140 IEM_DS3505
ZBYN,1990-09-01 08:00,ZBYN 010800Z AUTO 09008KT 7SM 28/11 A2988 RMK T02800110 IEM_DS3505
ZBYN,1990-09-01 09:00,ZBYN 010900Z AUTO 09006KT 12SM 28/12 A2988 RMK SLP090 T02800123 57011 IEM_DS3505
ZBYN,1990-09-01 10:00,ZBYN 011000Z AUTO 12006KT 7SM 27/12 A2991 RMK T02700120 IEM_DS3505
ZBYN,1990-09-01 11:00,ZBYN 011100Z AUTO 09004KT 7SM 24/11 A2991 RMK T02400110 IEM_DS3505
ZBYN,1990-09-01 12:00,ZBYN 011200Z AUTO 09004KT 7SM 23/12 A2994 RMK SLP111 T02300118 52014 IEM_DS3505
ZBYN,1990-09-01 13:00,ZBYN 011300Z AUTO 08006KT 7SM 20/12 A2997 RMK T02000120 IEM_DS3505
ZBYN,1990-09-01 15:00,ZBYN 011500Z AUTO 00000KT 7SM 16/14 A3000 RMK SLP125 T01600140 52012 IEM_DS3505
ZBYN,1990-09-01 16:00,ZBYN 011600Z AUTO 11002KT 7SM 16/13 A2997 RMK T01600130 IEM_DS3505
ZBYN,1990-09-01 17:00,ZBYN 011700Z AUTO 00000KT 7SM 16/12 A2997 RMK T01600120 IEM_DS3505
ZBYN,1990-09-01 18:00,ZBYN 011800Z AUTO 04002KT 6SM 15/14 A2997 RMK SLP116 T01500135 40293//// 57003 IEM_DS3505
ZBYN,1990-09-01 19:00,ZBYN 011900Z AUTO 00000KT 7SM 14/12 A2997 RMK T01400120 IEM_DS3505
ZBYN,1990-09-01 20:00,ZBYN 012000Z AUTO 00000KT 7SM 13/12 A2997 RMK T01300120 IEM_DS3505
ZBYN,1990-09-01 21:00,ZBYN 012100Z AUTO 04002KT 5SM 13/12 A2997 RMK SLP119 T01280119 57001 IEM_DS3505
ZBYN,1990-09-01 22:00,ZBYN 012200Z AUTO 00000KT 7SM 13/12 A3000 RMK T01300120 IEM_DS3505
ZBYN,1990-09-01 23:00,ZBYN 012300Z AUTO 00000KT 7SM 13/12 A3000 RMK T01300120 IEM_DS3505
ZBYN,1990-09-02 00:00,ZBYN 020000Z AUTO 00000KT 5SM 17/14 A3000 RMK SLP131 T01680145 52009 IEM_DS3505
ZBYN,1990-09-02 01:00,ZBYN 020100Z AUTO 15004KT 7SM 20/14 A3000 RMK T02000140 IEM_DS3505
ZBYN,1990-09-02 02:00,ZBYN 020200Z AUTO 00000KT 7SM 23/14 A3000 RMK T02300140 IEM_DS3505
ZBYN,1990-09-02 03:00,ZBYN 020300Z AUTO 18004KT 5SM 24/16 A3000 RMK SLP127 T02400159 57003 IEM_DS3505
ZBYN,1990-09-02 04:00,ZBYN 020400Z AUTO 18006KT 6SM 26/15 A2997 RMK T02600150 IEM_DS3505
ZBYN,1990-09-02 05:00,ZBYN 020500Z AUTO 19006KT 7SM 28/16 A2994 RMK T02800160 IEM_DS3505
ZBYN,1990-09-02 06:00,ZBYN 020600Z AUTO 18010KT 6SM 28/18 A2994 RMK SLP099 T02790179 4////0114 57022 IEM_DS3505
ZBYN,1990-09-02 07:00,ZBYN 020700Z AUTO 19010KT 7SM 30/15 A2991 RMK T03000150 IEM_DS3505
ZBYN,1990-09-02 08:00,ZBYN 020800Z AUTO 20010KT 7SM 30/12 A2988 RMK T03000120 IEM_DS3505
ZBYN,1990-09-02 09:00,ZBYN 020900Z AUTO 20010KT 9SM 28/16 A2988 RMK SLP082 T02780156 57018 IEM_DS3505
ZBYN,1990-09-02 10:00,ZBYN 021000Z AUTO 21006KT 6SM 27/14 A2988 RMK T02700140 IEM_DS3505
ZBYN,1990-09-02 11:00,ZBYN 021100Z AUTO 17008KT 6SM 25/16 A2988 RMK T02500160 IEM_DS3505
ZBYN,1990-09-02 12:00,ZBYN 021200Z AUTO 00000KT 9SM 22/16 A2988 RMK SLP091 T02180164 52005 IEM_DS3505
ZBYN,1990-09-02 13:00,ZBYN 021300Z AUTO 16004KT 6SM 21/15 A2991 RMK T02100150 IEM_DS3505
ZBYN,1990-09-02 14:00,ZBYN 021400Z AUTO 10006KT 6SM 20/14 A2991 RMK T02000140 IEM_DS3505
ZBYN,1990-09-02 15:00,ZBYN 021500Z AUTO 11002KT 7SM 18/15 A2991 RMK SLP098 T01820151 52011 IEM_DS3505
ZBYN,1990-09-02 17:00,ZBYN 021700Z AUTO 11004KT 6SM 18/14 A2991 RMK T01800140 IEM_DS3505
ZBYN,1990-09-02 18:00,ZBYN 021800Z AUTO 11004KT 7SM 17/14 A2991 RMK SLP092 T01700140 40293//// 57002 IEM_DS3505
ZBYN,1990-09-02 19:00,ZBYN 021900Z AUTO 00000KT 6SM 16/13 A2991 RMK T01600130 IEM_DS3505
ZBYN,1990-09-02 20:00,ZBYN 022000Z AUTO 12006KT 6SM 16/13 A2991 RMK T01600130 IEM_DS3505
ZBYN,1990-09-02 21:00,ZBYN 022100Z AUTO 25004KT 6SM 14/14 A2991 RMK SLP094 T01450136 57001 IEM_DS3505
ZBYN,1990-09-02 22:00,ZBYN 022200Z AUTO 33008KT 6SM 15/14 A2991 RMK T01500140 IEM_DS3505
ZBYN,1990-09-02 23:00,ZBYN 022300Z AUTO 35010KT 7SM 18/15 A2994 RMK T01800150 IEM_DS3505
ZBYN,1990-09-03 00:00,ZBYN 030000Z AUTO 34027KT 7SM 18/16 A2997 RMK 60000 SLP120 T01770161 52020 IEM_DS3505
ZBYN,1990-09-03 01:00,ZBYN 030100Z AUTO 00000KT 7SM 18/16 A2997 RMK T01800160 IEM_DS3505
ZBYN,1990-09-03 02:00,ZBYN 030200Z AUTO 30008KT 6SM 18/17 A3000 RMK T01800170 IEM_DS3505
ZBYN,1990-09-03 03:00,ZBYN 030300Z AUTO 07002KT 4SM 19/ A2997 RMK SLP127 52002 IEM_DS3505
ZBYN,1990-09-03 04:00,ZBYN 030400Z AUTO 30008KT 6SM 18/17 A3000 RMK T01800170 IEM_DS3505
ZBYN,1990-09-03 05:00,ZBYN 030500Z AUTO 00000KT 7SM 20/17 A2994 RMK T02000170 IEM_DS3505
ZBYN,1990-09-03 06:00,ZBYN 030600Z AUTO 00000KT 5SM 20/17 A2994 RMK 60016 SLP110 T02050174 4////0129 57015 IEM_DS3505
ZBYN,1990-09-03 07:00,ZBYN 030700Z AUTO 19004KT 7SM 22/18 A2991 RMK T02200180 IEM_DS3505
ZBYN,1990-09-03 08:00,ZBYN 030800Z AUTO 21004KT 7SM 20/19 A2991 RMK T02000190 IEM_DS3505
ZBYN,1990-09-03 09:00,ZBYN 030900Z AUTO 18004KT 5SM 20/17 A2991 RMK SLP114 T02000173 54000 IEM_DS3505
ZBYN,1990-09-03 10:00,ZBYN 031000Z AUTO 19004KT 6SM 20/18 A2994 RMK T02000180 IEM_DS3505
ZBYN,1990-09-03 11:00,ZBYN 031100Z AUTO 00000KT 6SM 19/18 A2994 RMK T01900180 IEM_DS3505
ZBYN,1990-09-03 12:00,ZBYN 031200Z AUTO 16002KT 5SM 18/17 RMK 60000 SLP125 T01760170 52011 IEM_DS3505
ZBYN,1990-09-03 13:00,ZBYN 031300Z AUTO 20004KT 7SM 18/17 A3000 RMK T01800170 IEM_DS3505
ZBYN,1990-09-03 14:00,ZBYN 031400Z AUTO 00000KT 4SM 18/17 A3000 RMK T01800170 IEM_DS3505
ZBYN,1990-09-03 15:00,ZBYN 031500Z AUTO 00000KT 5SM 18/16 A3000 RMK SLP138 T01760163 52013 IEM_DS3505
ZBYN,1990-09-03 16:00,ZBYN 031600Z AUTO 13006KT 4SM 17/17 A3000 RMK T01700170 IEM_DS3505
ZBYN,1990-09-03 17:00,ZBYN 031700Z AUTO 00000KT 4SM 18/17 A3000 RMK T01800170 IEM_DS3505
ZBYN,1990-09-03 18:00,ZBYN 031800Z AUTO 00000KT 4SM 17/16 A3000 RMK SLP135 T01700165 40208//// 54000 IEM_DS3505
ZBYN,1990-09-03 19:00,ZBYN 031900Z AUTO 00000KT 2 1/2SM 18/17 A3000 RMK T01800170 IEM_DS3505
ZBYN,1990-09-03 20:00,ZBYN 032000Z AUTO 00000KT 2 1/2SM 18/17 A3000 RMK T01800170 IEM_DS3505
ZBYN,1990-09-03 21:00,ZBYN 032100Z AUTO 00000KT 2 1/2SM 18/17 A3000 RMK T01800170 IEM_DS3505
ZBYN,1990-09-03 22:00,ZBYN 032200Z AUTO 00000KT 2 1/2SM 17/17 A3000 RMK T01700170 IEM_DS3505
ZBYN,1990-09-03 23:00,ZBYN 032300Z AUTO 00000KT 1SM 17/17 A3000 RMK T01700170 IEM_DS3505
ZBYN,1990-09-04 00:00,ZBYN 040000Z AUTO 00000KT 4SM 18/17 A3003 RMK 70016 T01800170 52005 IEM_DS3505
ZBYN,1990-09-04 01:00,ZBYN 040100Z AUTO 00000KT 2SM 20/18 A3003 RMK T02000180 IEM_DS3505
ZBYN,1990-09-04 03:00,ZBYN 040300Z AUTO 16006KT 6SM 22/16 A3003 RMK SLP140 T02230161 52005 IEM_DS3505
ZBYN,1990-09-04 04:00,ZBYN 040400Z AUTO 14002KT 7SM 24/16 A3000 RMK T02400160 IEM_DS3505
ZBYN,1990-09-04 05:00,ZBYN 040500Z AUTO 21006KT 7SM 26/17 A2997 RMK T02600170 IEM_DS3505
ZBYN,1990-09-04 06:00,ZBYN 040600Z AUTO 16006KT 6SM 26/15 A2994 RMK SLP112 T02570154 4////0161 57022 IEM_DS3505
ZBYN,1990-09-04 07:00,ZBYN 040700Z AUTO 30016KT 7SM 21/14 A2997 RMK T02100140 IEM_DS3505
ZBYN,1990-09-04 08:00,ZBYN 040800Z AUTO 00000KT 7SM 18/16 A2997 RMK T01800160 IEM_DS3505
ZBYN,1990-09-04 09:00,ZBYN 040900Z AUTO 36008KT 7SM 20/15 A2997 RMK SLP115 T02050148 57005 IEM_DS3505
ZBYN,1990-09-04 10:00,ZBYN 041000Z AUTO 17008KT 6SM 21/16 A2994 RMK T02100160 IEM_DS3505
ZBYN,1990-09-04 11:00,ZBYN 041100Z AUTO 07004KT 7SM 20/16 A2994 RMK T02000160 IEM_DS3505
ZBYN,1990-09-04 12:00,ZBYN 041200Z AUTO 00000KT 7SM 18/16 A2997 RMK 60028 SLP126 T01780163 52008 IEM_DS3505
ZBYN,1990-09-04 13:00,ZBYN 041300Z AUTO 09010KT 7SM 18/15 A3000 RMK T01800150 IEM_DS3505
ZBYN,1990-09-04 14:00,ZBYN 041400Z AUTO 09006KT 7SM 17/14 A3000 RMK T01700140 IEM_DS3505
ZBYN,1990-09-04 15:00,ZBYN 041500Z AUTO 00000KT 5SM 15/15 A3000 RMK SLP137 T01540151 52013 IEM_DS3505
ZBYN,1990-09-04 16:00,ZBYN 041600Z AUTO 00000KT 7SM 15/14 A3000 RMK T01500140 IEM_DS3505
ZBYN,1990-09-04 17:00,ZBYN 041700Z AUTO 00000KT 3SM 15/15 A3000 RMK T01500150 IEM_DS3505
ZBYN,1990-09-04 18:00,ZBYN 041800Z AUTO 32004KT 5SM 16/15 A3000 RMK SLP129 T01640151 40257//// 57001 IEM_DS3505
ZBYN,1990-09-04 19:00,ZBYN 041900Z AUTO 00000KT 2SM 15/15 A3000 RMK T01500150 IEM_DS3505
ZBYN,1990-09-04 20:00,ZBYN 042000Z AUTO 00000KT 2 1/2SM 15/14 A3000 RMK T01500140 IEM_DS3505
ZBYN,1990-09-04 21:00,ZBYN 042100Z AUTO 32004KT 6SM 16/14 A3003 RMK 70028 SLP136 T01580141 57002 IEM_DS3505
ZBYN,1990-09-04 22:00,ZBYN 042200Z AUTO 00000KT 1SM 13/13 A3003 RMK T01300130 IEM_DS3505
ZBYN,1990-09-04 23:00,ZBYN 042300Z AUTO 00000KT 1 1/2SM 14/14 A3003 RMK T01400140 IEM_DS3505
ZBYN,1990-09-05 00:00,ZBYN 050000Z AUTO 00000KT 5SM 17/16 A3003 RMK 70028 SLP148 T01730160 52009 IEM_DS3505
ZBYN,1990-09-05 01:00,ZBYN 050100Z AUTO 12006KT 6SM 22/15 A3003 RMK T02200150 IEM_DS3505
ZBYN,1990-09-05 02:00,ZBYN 050200Z AUTO 14006KT 6SM 22/15 A3003 RMK T02200150 IEM_DS3505
ZBYN,1990-09-05 03:00,ZBYN 050300Z AUTO 16004KT 6SM 23/15 A3003 RMK SLP141 T02270149 57002 IEM_DS3505
ZBYN,1990-09-05 04:00,ZBYN 050400Z AUTO 00000KT 7SM 24/15 A3000 RMK T02400150 IEM_DS3505
ZBYN,1990-09-05 05:00,ZBYN 050500Z AUTO 20006KT 7SM 24/15 A3000 RMK T02400150 IEM_DS3505
ZBYN,1990-09-05 06:00,ZBYN 050600Z AUTO 18004KT 9SM 24/16 A3000 RMK SLP124 T02410155 4////0142 57012 IEM_DS3505
ZBYN,1990-09-05 07:00,ZBYN 050700Z AUTO 16002KT 7SM 24/15 A3000 RMK T02400150 IEM_DS3505
ZBYN,1990-09-05 08:00,ZBYN 050800Z AUTO 16006KT 7SM 25/15 A2997 RMK T02500150 IEM_DS3505
ZBYN,1990-09-05 09:00,ZBYN 050900Z AUTO 16004KT 11SM 25/17 A2997 RMK SLP113 T02470166 57010 IEM_DS3505
ZBYN,1990-09-05 10:00,ZBYN 051000Z AUTO 00000KT 7SM 25/16 A2994 RMK T02500160 IEM_DS3505
ZBYN,1990-09-05 11:00,ZBYN 051100Z AUTO 09006KT 7SM 22/17 A2997 RMK T02200170 IEM_DS3505
ZBYN,1990-09-05 12:00,ZBYN 051200Z AUTO 09008KT 9SM 21/17 A2997 RMK SLP125 T02100169 52008 IEM_DS3505
ZBYN,1990-09-05 13:00,ZBYN 051300Z AUTO 09014KT 6SM 20/16 A3000 RMK T02000160 IEM_DS3505
ZBYN,1990-09-05 15:00,ZBYN 051500Z AUTO 00000KT 6SM 20/17 RMK SLP143 T01980168 52022 IEM_DS3505
ZBYN,1990-09-05 18:00,ZBYN 051800Z AUTO 11006KT 6SM 19/16 RMK SLP141 T01890158 40252//// 57001 IEM_DS3505
ZBYN,1990-09-05 19:00,ZBYN 051900Z AUTO 12006KT 7SM 19/16 A3006 RMK T01900160 IEM_DS3505
ZBYN,1990-09-05 21:00,ZBYN 052100Z AUTO 11004KT 6SM 18/16 A3006 RMK SLP143 T01780160 52001 IEM_DS3505
ZBYN,1990-09-05 22:00,ZBYN 052200Z AUTO 12006KT 4SM 17/15 A3006 RMK T01700150 IEM_DS3505
ZBYN,1990-09-05 22:27,ZBYN 052227Z AUTO 12006KT 4SM 17/15 A3006 RMK T01700150 IEM_DS3505
ZBYN,1990-09-05 23:00,ZBYN 052300Z AUTO 09004KT 5SM 17/15 A3006 RMK T01700150 IEM_DS3505
ZBYN,1990-09-06 00:00,ZBYN 060000Z AUTO 00000KT 6SM 20/16 A3009 RMK SLP158 T01950160 52011 IEM_DS3505
ZBYN,1990-09-06 02:00,ZBYN 060200Z AUTO 11010KT 7SM 24/14 A3009 RMK T02400140 IEM_DS3505
ZBYN,1990-09-06 04:00,ZBYN 060400Z AUTO 16004KT 7SM 26/14 A3006 RMK T02600140 IEM_DS3505
ZBYN,1990-09-06 05:00,ZBYN 060500Z AUTO 12006KT 7SM 26/15 A3006 RMK T02600150 IEM_DS3505
ZBYN,1990-09-06 06:00,ZBYN 060600Z AUTO 14008KT 7SM 25/15 A3003 RMK SLP135 T02510154 4////0161 57018 IEM_DS3505
ZBYN,1990-09-06 07:00,ZBYN 060700Z AUTO 17008KT 7SM 27/15 A3003 RMK T02700150 IEM_DS3505
ZBYN,1990-09-06 08:00,ZBYN 060800Z AUTO 19006KT 7SM 26/16 A3003 RMK T02600160 IEM_DS3505
ZBYN,1990-09-06 09:00,ZBYN 060900Z AUTO 09008KT 6SM 24/16 A3003 RMK SLP137 T02380164 57002 IEM_DS3505
ZBYN,1990-09-06 10:00,ZBYN 061000Z AUTO 11006KT 7SM 24/16 A3003 RMK T02400160 IEM_DS3505
ZBYN,1990-09-06 11:00,ZBYN 061100Z AUTO 11006KT 7SM 23/15 A3003 RMK T02300150 IEM_DS3505
ZBYN,1990-09-06 12:00,ZBYN 061200Z AUTO 11008KT 7SM 22/16 A3009 RMK SLP157 T02190158 52018 IEM_DS3505
ZBYN,1990-09-06 15:00,ZBYN 061500Z AUTO 09008KT 7SM 21/16 RMK SLP166 T02060156 52013 IEM_DS3505
ZBYN,1990-09-06 18:00,ZBYN 061800Z AUTO 00000KT 7SM 19/ RMK SLP169 40259//// 52001 IEM_DS3505
ZBYN,1990-09-06 21:00,ZBYN 062100Z AUTO 00000KT 5SM 18/16 A3012 RMK SLP167 T01760165 57005 IEM_DS3505
ZBYN,1990-09-06 22:00,ZBYN 062200Z AUTO 00000KT 4SM 17/16 A3012 RMK T01700160 IEM_DS3505
ZBYN,1990-09-06 23:00,ZBYN 062300Z AUTO 00000KT 4SM 18/16 A3012 RMK T01800160 IEM_DS3505
ZBYN,1990-09-07 00:00,ZBYN 070000Z AUTO 00000KT 5SM 20/17 A3012 RMK SLP167 T01950173 54000 IEM_DS3505
ZBYN,1990-09-07 01:00,ZBYN 070100Z AUTO 00000KT 3SM 21/17 A3012 RMK T02100170 IEM_DS3505
ZBYN,1990-09-07 02:00,ZBYN 070200Z AUTO 14006KT 6SM 23/16 A3012 RMK T02300160 IEM_DS3505
ZBYN,1990-09-07 03:00,ZBYN 070300Z AUTO 14004KT 5SM 23/17 A3015 RMK SLP169 T02340168 52006 IEM_DS3505
ZBYN,1990-09-07 04:00,ZBYN 070400Z AUTO 7SM 24/17 A3012 RMK T02400170 IEM_DS3505
ZBYN,1990-09-07 05:00,ZBYN 070500Z AUTO 18006KT 6SM 25/17 A3009 RMK T02500170 IEM_DS3505
ZBYN,1990-09-07 06:00,ZBYN 070600Z AUTO 18006KT 7SM 24/17 A3009 RMK T02440173 4////0162 57016 IEM_DS3505
ZBYN,1990-09-07 07:00,ZBYN 070700Z AUTO 16006KT 6SM 25/17 A3006 RMK T02500170 IEM_DS3505
ZBYN,1990-09-07 08:00,ZBYN 070800Z AUTO 15004KT 6SM 26/17 A3006 RMK T02600170 IEM_DS3505
ZBYN,1990-09-07 09:00,ZBYN 070900Z AUTO 20004KT 6SM 23/19 A3006 RMK SLP145 T02340188 57010 IEM_DS3505
ZBYN,1990-09-07 10:00,ZBYN 071000Z AUTO 00000KT 7SM 24/19 A3006 RMK T02400190 IEM_DS3505
ZBYN,1990-09-07 11:00,ZBYN 071100Z AUTO 00000KT 7SM 23/19 A3009 RMK T02300190 IEM_DS3505
ZBYN,1990-09-07 12:00,ZBYN 071200Z AUTO 00000KT 6SM 22/19 A3009 RMK SLP153 T02200188 52008 IEM_DS3505
ZBYN,1990-09-07 13:00,ZBYN 071300Z AUTO 00000KT 7SM 22/19 A3012 RMK T02200190 IEM_DS3505
ZBYN,1990-09-07 14:00,ZBYN 071400Z AUTO 34004KT 6SM 21/18 A3009 RMK T02100180 IEM_DS3505
ZBYN,1990-09-07 15:00,ZBYN 071500Z AUTO 00000KT 6SM 21/18 A3009 RMK SLP154 T02130179 52005 IEM_DS3505
ZBYN,1990-09-07 16:00,ZBYN 071600Z AUTO 00000KT 6SM 21/19 A3012 RMK T02100190 IEM_DS3505
ZBYN,1990-09-07 17:00,ZBYN 071700Z AUTO 00000KT 5SM 21/19 A3012 RMK T02100190 IEM_DS3505
ZBYN,1990-09-07 18:00,ZBYN 071800Z AUTO 04006KT 6SM 18/16 A3009 RMK T01830155 40249//// 57005 IEM_DS3505
ZBYN,1990-09-07 19:00,ZBYN 071900Z AUTO 35010KT 7SM 17/16 A3009 RMK T01700160 IEM_DS3505
ZBYN,1990-09-07 20:00,ZBYN 072000Z AUTO 34010KT 7SM 17/15 A3009 RMK T01700150 IEM_DS3505
ZBYN,1990-09-07 21:00,ZBYN 072100Z AUTO 34008KT 6SM 17/14 A3009 RMK SLP162 T01720145 52007 IEM_DS3505
ZBYN,1990-09-07 23:00,ZBYN 072300Z AUTO 33008KT 7SM 16/15 A3012 RMK T01600150 IEM_DS3505
ZBYN,1990-09-08 00:00,ZBYN 080000Z AUTO 34004KT 5SM 16/16 A3015 RMK 60008 70008 SLP182 T01600155 52014 IEM_DS3505
ZBYN,1990-09-08 01:00,ZBYN 080100Z AUTO 33008KT 7SM 16/15 A3015 RMK T01600150 IEM_DS3505
ZBYN,1990-09-08 02:00,ZBYN 080200Z AUTO 35008KT 7SM 17/15 A3015 RMK T01700150 IEM_DS3505
ZBYN,1990-09-08 03:00,ZBYN 080300Z AUTO 02006KT 6SM 18/15 A3015 RMK SLP181 T01790151 52001 IEM_DS3505
ZBYN,1990-09-08 04:00,ZBYN 080400Z AUTO 13006KT 7SM 18/17 A3015 RMK T01800170 IEM_DS3505
ZBYN,1990-09-08 05:00,ZBYN 080500Z AUTO 13004KT 7SM 18/17 A3012 RMK T01800170 IEM_DS3505
ZBYN,1990-09-08 06:00,ZBYN 080600Z AUTO 11004KT 6SM 18/17 A3012 RMK 60016 SLP178 T01800167 4////0149 57007 IEM_DS3505
ZBYN,1990-09-08 07:00,ZBYN 080700Z AUTO 09010KT 7SM 18/16 A3012 RMK T01800160 IEM_DS3505
ZBYN,1990-09-08 08:00,ZBYN 080800Z AUTO 11010KT 7SM 18/16 A3012 RMK T01800160 IEM_DS3505
ZBYN,1990-09-08 09:00,ZBYN 080900Z AUTO 14004KT 9SM 18/16 A3009 RMK SLP170 T01810157 57009 IEM_DS3505
ZBYN,1990-09-08 10:00,ZBYN 081000Z AUTO 11004KT 6SM 17/15 A3009 RMK T01700150 IEM_DS3505
ZBYN,1990-09-08 12:00,ZBYN 081200Z AUTO 00000KT 7SM 16/15 A3009 RMK 60008 SLP179 T01610148 52004 IEM_DS3505
ZBYN,1990-09-08 13:00,ZBYN 081300Z AUTO 36004KT 6SM 16/15 A3012 RMK T01600150 IEM_DS3505
ZBYN,1990-09-08 14:00,ZBYN 081400Z AUTO 00000KT 7SM 16/15 A3012 RMK T01600150 IEM_DS3505
ZBYN,1990-09-08 15:00,ZBYN 081500Z AUTO 36004KT 6SM 16/15 A3012 RMK SLP174 T01650147 57001 IEM_DS3505
ZBYN,1990-09-08 16:00,ZBYN 081600Z AUTO 07006KT 7SM 17/07 A3012 RMK T01700070 IEM_DS3505
ZBYN,1990-09-08 18:00,ZBYN 081800Z AUTO 36004KT 6SM 16/14 RMK SLP181 T01650136 40193//// 57004 IEM_DS3505
ZBYN,1990-09-08 21:00,ZBYN 082100Z AUTO 36004KT 6SM 16/10 RMK 70031 SLP160 T01590103 57010 IEM_DS3505
ZBYN,1990-09-08 22:00,ZBYN 082200Z AUTO 32004KT 7SM 16/11 A3006 RMK T01600110 IEM_DS3505
ZBYN,1990-09-08 23:00,ZBYN 082300Z AUTO 12004KT 7SM 15/13 A3009 RMK T01500130 IEM_DS3505
ZBYN,1990-09-09 00:00,ZBYN 090000Z AUTO 00000KT 9SM 16/15 A3006 RMK 70024 SLP166 T01580152 52003 IEM_DS3505
ZBYN,1990-09-09 01:00,ZBYN 090100Z AUTO 02006KT 7SM 19/10 A3009 RMK T01900100 IEM_DS3505
ZBYN,1990-09-09 02:00,ZBYN 090200Z AUTO 02006KT 7SM 19/10 A3009 RMK T01900100 IEM_DS3505
ZBYN,1990-09-09 03:00,ZBYN 090300Z AUTO 34002KT 7SM 20/12 A3009 RMK SLP163 T01980124 52003 IEM_DS3505
ZBYN,1990-09-09 04:00,ZBYN 090400Z AUTO 00000KT 6SM 20/12 A3006 RMK T02000120 IEM_DS3505
ZBYN,1990-09-09 06:00,ZBYN 090600Z AUTO 00000KT 7SM 21/11 A3006 RMK SLP151 T02090114 4////0141 57009 IEM_DS3505
ZBYN,1990-09-09 07:00,ZBYN 090700Z AUTO 11008KT 7SM 20/11 A3003 RMK T02000110 IEM_DS3505
ZBYN,1990-09-09 08:00,ZBYN 090800Z AUTO 00000KT 7SM 18/15 A3006 RMK T01800150 IEM_DS3505
ZBYN,1990-09-09 09:00,ZBYN 090900Z AUTO 00000KT 7SM 17/15 A3003 RMK SLP156 T01740146 57001 IEM_DS3505
ZBYN,1990-09-09 10:00,ZBYN 091000Z AUTO 00000KT 7SM 17/14 A3003 RMK T01700140 IEM_DS3505
ZBYN,1990-09-09 11:00,ZBYN 091100Z AUTO 00000KT 7SM 16/15 A3003 RMK T01600150 IEM_DS3505
ZBYN,1990-09-09 12:00,ZBYN 091200Z AUTO 00000KT 7SM 15/15 A3003 RMK 60004 SLP130 T01500150 54000 IEM_DS3505
ZBYN,1990-09-09 13:00,ZBYN 091300Z AUTO 17004KT 7SM 15/15 A3006 RMK T01500150 IEM_DS3505
ZBYN,1990-09-09 15:00,ZBYN 091500Z AUTO 34004KT 6SM 16/13 A3006 RMK SLP156 T01560130 52003 IEM_DS3505
ZBYN,1990-09-09 18:00,ZBYN 091800Z AUTO 00000KT 5SM 14/13 RMK 60000 SLP148 T01400128 40209//// 57008 IEM_DS3505
ZBYN,1990-09-09 20:00,ZBYN 092000Z AUTO 00000KT 6SM 13/12 A3000 RMK T01300120 IEM_DS3505
ZBYN,1990-09-09 21:00,ZBYN 092100Z AUTO 34004KT 5SM 13/12 A3000 RMK 70008 SLP145 T01280117 57010 IEM_DS3505
ZBYN,1990-09-09 22:00,ZBYN 092200Z AUTO 00000KT 6SM 11/11 A3000 RMK T01100110 IEM_DS3505
ZBYN,1990-09-09 23:00,ZBYN 092300Z AUTO 00000KT 6SM 11/11 A3000 RMK T01100110 IEM_DS3505
ZBYN,1990-09-10 00:00,ZBYN 100000Z AUTO 34004KT 7SM 16/14 A3003 RMK SLP148 T01580139 52004 IEM_DS3505
ZBYN,1990-09-10 01:00,ZBYN 100100Z AUTO 00000KT 6SM 18/12 A3003 RMK T01800120 IEM_DS3505
ZBYN,1990-09-10 02:00,ZBYN 100200Z AUTO 00000KT 6SM 21/13 A3003 RMK T02100130 IEM_DS3505
ZBYN,1990-09-10 03:00,ZBYN 100300Z AUTO 32004KT 7SM 21/12 A3000 RMK SLP135 T02140118 57003 IEM_DS3505
ZBYN,1990-09-10 04:00,ZBYN 100400Z AUTO 18002KT 6SM 23/14 A3000 RMK T02300140 IEM_DS3505
ZBYN,1990-09-10 05:00,ZBYN 100500Z AUTO 00000KT 6SM 24/14 A2997 RMK T02400140 IEM_DS3505
ZBYN,1990-09-10 06:00,ZBYN 100600Z AUTO 00000KT 9SM 25/13 A2994 RMK SLP113 T02470131 4////0116 57022 IEM_DS3505
ZBYN,1990-09-10 07:00,ZBYN 100700Z AUTO 00000KT 6SM 26/15 A2994 RMK T02600150 IEM_DS3505
ZBYN,1990-09-10 08:00,ZBYN 100800Z AUTO 17006KT 6SM 25/15 A2994 RMK T02500150 IEM_DS3505
ZBYN,1990-09-10 09:00,ZBYN 100900Z AUTO 18004KT 9SM 23/16 RMK SLP111 T02330162 57005 IEM_DS3505
ZBYN,1990-09-10 10:00,ZBYN 101000Z AUTO 00000KT 6SM 23/18 A2994 RMK T02300180 IEM_DS3505
ZBYN,1990-09-10 11:00,ZBYN 101100Z AUTO 00000KT 6SM 21/17 A2994 RMK T02100170 IEM_DS3505
ZBYN,1990-09-10 12:00,ZBYN 101200Z AUTO 18008KT 7SM 19/17 A2994 RMK SLP123 T01910170 52009 IEM_DS3505
ZBYN,1990-09-10 13:00,ZBYN 101300Z AUTO 09006KT 6SM 19/17 A2997 RMK T01900170 IEM_DS3505
ZBYN,1990-09-10 14:00,ZBYN 101400Z AUTO 00000KT 6SM 19/16 A3000 RMK T01900160 IEM_DS3505
ZBYN,1990-09-10 15:00,ZBYN 101500Z AUTO 00000KT 7SM 17/16 A3000 RMK SLP126 T01720162 52008 IEM_DS3505
ZBYN,1990-09-10 16:00,ZBYN 101600Z AUTO 00000KT 6SM 17/16 A3000 RMK T01700160 IEM_DS3505
ZBYN,1990-09-10 17:00,ZBYN 101700Z AUTO 00000KT 6SM 17/16 A3000 RMK T01700160 IEM_DS3505
ZBYN,1990-09-10 18:00,ZBYN 101800Z AUTO 00000KT 7SM 17/16 A2997 RMK SLP119 T01660158 40254//// 57003 IEM_DS3505
ZBYN,1990-09-10 19:00,ZBYN 101900Z AUTO 00000KT 6SM 15/15 A2997 RMK T01500150 IEM_DS3505
ZBYN,1990-09-10 20:00,ZBYN 102000Z AUTO 00000KT 6SM 15/14 A2997 RMK T01500140 IEM_DS3505
ZBYN,1990-09-10 21:00,ZBYN 102100Z AUTO 00000KT 4SM 15/14 A3000 RMK SLP125 T01520142 52002 IEM_DS3505
ZBYN,1990-09-10 22:00,ZBYN 102200Z AUTO 13004KT 5SM 14/14 A3000 RMK T01400140 IEM_DS3505
ZBYN,1990-09-10 23:00,ZBYN 102300Z AUTO 00000KT 2 1/2SM 13/13 A3000 RMK T01300130 IEM_DS3505
ZBYN,1990-09-11 00:00,ZBYN 110000Z AUTO 00000KT 2 1/2SM 16/15 RMK SLP137 T01580151 52006 IEM_DS3505
ZBYN,1990-09-11 01:00,ZBYN 110100Z AUTO 00000KT 4SM 19/15 A3000 RMK T01900150 IEM_DS3505
ZBYN,1990-09-11 03:00,ZBYN 110300Z AUTO 22002KT 6SM 24/16 A2997 RMK SLP125 T02380159 57003 IEM_DS3505
ZBYN,1990-09-11 04:00,ZBYN 110400Z AUTO 30004KT 7SM 25/15 A2997 RMK T02500150 IEM_DS3505
ZBYN,1990-09-11 05:00,ZBYN 110500Z AUTO 24006KT 7SM 27/14 A2994 RMK T02700140 IEM_DS3505
ZBYN,1990-09-11 06:00,ZBYN 110600Z AUTO 32004KT 7SM 28/12 A2991 RMK SLP094 T02770123 57023 IEM_DS3505
ZBYN,1990-09-11 07:00,ZBYN 110700Z AUTO 34006KT 7SM 29/06 A2991 RMK T02900060 IEM_DS3505
ZBYN,1990-09-11 08:00,ZBYN 110800Z AUTO 18010KT 6SM 27/15 A2988 RMK T02700150 IEM_DS3505
ZBYN,1990-09-11 09:00,ZBYN 110900Z AUTO 09006KT 12SM 26/15 A2991 RMK SLP094 T02650147 57004 IEM_DS3505
ZBYN,1990-09-11 10:00,ZBYN 111000Z AUTO 18006KT 6SM 25/16 A2991 RMK T02500160 IEM_DS3505
ZBYN,1990-09-11 11:00,ZBYN 111100Z AUTO 18004KT 6SM 23/17 A2991 RMK T02300170 IEM_DS3505
ZBYN,1990-09-11 12:00,ZBYN 111200Z AUTO 16002KT 9SM 20/16 A2991 RMK SLP112 T02040164 52009 IEM_DS3505
ZBYN,1990-09-11 13:00,ZBYN 111300Z AUTO 11004KT 6SM 20/17 A2994 RMK T02000170 IEM_DS3505
ZBYN,1990-09-11 14:00,ZBYN 111400Z AUTO 13006KT 6SM 19/16 A2997 RMK T01900160 IEM_DS3505
ZBYN,1990-09-11 15:00,ZBYN 111500Z AUTO 00000KT 9SM 18/14 A2997 RMK SLP116 T01760143 52011 IEM_DS3505
ZBYN,1990-09-11 16:00,ZBYN 111600Z AUTO 00000KT 6SM 17/16 A2997 RMK T01700160 IEM_DS3505
ZBYN,1990-09-11 17:00,ZBYN 111700Z AUTO 00000KT 6SM 16/15 A2997 RMK T01600150 IEM_DS3505
ZBYN,1990-09-11 18:00,ZBYN 111800Z AUTO 00000KT 6SM 14/13 RMK SLP114 T01420130 40285//// 57002 IEM_DS3505
ZBYN,1990-09-11 19:00,ZBYN 111900Z AUTO 00000KT 6SM 14/14 A2997 RMK T01400140 IEM_DS3505
ZBYN,1990-09-11 20:00,ZBYN 112000Z AUTO 00000KT 5SM 15/14 A2997 RMK T01500140 IEM_DS3505
ZBYN,1990-09-11 21:00,ZBYN 112100Z AUTO 07004KT 6SM 14/13 A3000 RMK SLP118 T01370126 52001 IEM_DS3505
ZBYN,1990-09-11 22:00,ZBYN 112200Z AUTO 00000KT 6SM 14/13 A3000 RMK T01400130 IEM_DS3505
ZBYN,1990-09-11 23:00,ZBYN 112300Z AUTO 00000KT 6SM 13/12 A3000 RMK T01300120 IEM_DS3505
ZBYN,1990-09-12 00:00,ZBYN 120000Z AUTO 04002KT 5SM 16/13 RMK SLP139 T01650131 52014 IEM_DS3505
ZBYN,1990-09-12 01:00,ZBYN 120100Z AUTO 00000KT 3SM 19/15 A3000 RMK T01900150 IEM_DS3505
ZBYN,1990-09-12 02:00,ZBYN 120200Z AUTO 00000KT 6SM 23/15 A3003 RMK T02300150 IEM_DS3505
ZBYN,1990-09-12 03:00,ZBYN 120300Z AUTO 00000KT 6SM 24/14 RMK SLP133 T02360141 52001 IEM_DS3505
ZBYN,1990-09-12 04:00,ZBYN 120400Z AUTO 00000KT 6SM 25/14 A3000 RMK T02500140 IEM_DS3505
ZBYN,1990-09-12 05:00,ZBYN 120500Z AUTO 00000KT 6SM 27/13 A2997 RMK T02700130 IEM_DS3505
ZBYN,1990-09-12 06:00,ZBYN 120600Z AUTO 18002KT 12SM 27/14 A3000 RMK SLP118 T02710142 4////0132 57014 IEM_DS3505
ZBYN,1990-09-12 07:00,ZBYN 120700Z AUTO 00000KT 6SM 27/13 A2997 RMK T02700130 IEM_DS3505
ZBYN,1990-09-12 08:00,ZBYN 120800Z AUTO 00000KT 6SM 29/14 A2994 RMK T02900140 IEM_DS3505
ZBYN,1990-09-12 09:00,ZBYN 120900Z AUTO 18006KT 16SM 27/15 A2994 RMK SLP110 T02670149 57008 IEM_DS3505
ZBYN,1990-09-12 11:00,ZBYN 121100Z AUTO 17004KT 6SM 22/16 A2997 RMK T02200160 IEM_DS3505
ZBYN,1990-09-12 12:00,ZBYN 121200Z AUTO 11006KT 9SM 19/16 A2997 RMK SLP128 T01900158 52009 IEM_DS3505
ZBYN,1990-09-12 13:00,ZBYN 121300Z AUTO 09008KT 6SM 21/15 A3000 RMK T02100150 IEM_DS3505
ZBYN,1990-09-12 15:00,ZBYN 121500Z AUTO 16002KT 6SM 17/15 A3000 RMK SLP133 T01710153 52012 IEM_DS3505
ZBYN,1990-09-12 16:00,ZBYN 121600Z AUTO 00000KT 7SM 18/15 A3003 RMK T01800150 IEM_DS3505
ZBYN,1990-09-12 18:00,ZBYN 121800Z AUTO 00000KT 6SM 14/14 RMK SLP136 T01420137 40284//// 52004 IEM_DS3505
ZBYN,1990-09-12 19:00,ZBYN 121900Z AUTO 00000KT 7SM 16/11 A3003 RMK T01600110 IEM_DS3505
ZBYN,1990-09-12 20:00,ZBYN 122000Z AUTO 00000KT 5SM 16/15 A3003 RMK T01600150 IEM_DS3505
ZBYN,1990-09-12 21:00,ZBYN 122100Z AUTO 00000KT 5SM 13/13 A3003 RMK SLP146 T01310127 52007 IEM_DS3505
ZBYN,1990-09-12 22:00,ZBYN 122200Z AUTO 00000KT 2 1/2SM 15/15 A3006 RMK T01500150 IEM_DS3505
ZBYN,1990-09-12 23:00,ZBYN 122300Z AUTO 00000KT 1 1/2SM 15/15 A3006 RMK T01500150 IEM_DS3505
ZBYN,1990-09-13 00:00,ZBYN 130000Z AUTO 00000KT 3SM 14/14 A3006 RMK SLP164 T01450142 52007 IEM_DS3505
ZBYN,1990-09-13 01:00,ZBYN 130100Z AUTO 00000KT 1 1/2SM 17/16 A3006 RMK T01700160 IEM_DS3505
ZBYN,1990-09-13 02:00,ZBYN 130200Z AUTO 00000KT 4SM 21/16 A3006 RMK T02100160 IEM_DS3505
ZBYN,1990-09-13 03:00,ZBYN 130300Z AUTO 18010KT 6SM 23/16 A3006 RMK SLP149 T02280161 57004 IEM_DS3505
ZBYN,1990-09-13 04:00,ZBYN 130400Z AUTO 22010KT 6SM 25/15 A3003 RMK T02500150 IEM_DS3505
ZBYN,1990-09-13 05:00,ZBYN 130500Z AUTO 20010KT 6SM 26/15 A3003 RMK T02600150 IEM_DS3505
ZBYN,1990-09-13 06:00,ZBYN 130600Z AUTO 20014KT 6SM 26/14 A3000 RMK SLP128 T02630136 4////0116 57019 IEM_DS3505
ZBYN,1990-09-13 07:00,ZBYN 130700Z AUTO 19014KT 6SM 28/09 A2997 RMK T02800090 IEM_DS3505
ZBYN,1990-09-13 08:00,ZBYN 130800Z AUTO 23014KT 6SM 28/07 A2997 RMK T02800070 IEM_DS3505
ZBYN,1990-09-13 09:00,ZBYN 130900Z AUTO 20008KT 7SM 26/12 A2994 RMK SLP118 T02590124 57011 IEM_DS3505
ZBYN,1990-09-13 10:00,ZBYN 131000Z AUTO 04010KT 7SM 25/12 A3000 RMK T02500120 IEM_DS3505
ZBYN,1990-09-13 11:00,ZBYN 131100Z AUTO 17006KT 7SM 24/10 A2997 RMK T02400100 IEM_DS3505
ZBYN,1990-09-13 12:00,ZBYN 131200Z AUTO 14004KT 7SM 20/12 RMK SLP137 T01980124 IEM_DS3505
ZBYN,1990-09-13 13:00,ZBYN 131300Z AUTO 12006KT 6SM 18/13 A3003 RMK T01800130 IEM_DS3505
ZBYN,1990-09-13 15:00,ZBYN 131500Z AUTO 00000KT 7SM 17/14 A3003 RMK SLP133 T01740140 52005 IEM_DS3505
ZBYN,1990-09-13 16:00,ZBYN 131600Z AUTO 00000KT 6SM 17/13 A3003 RMK T01700130 IEM_DS3505
ZBYN,1990-09-13 17:00,ZBYN 131700Z AUTO 09004KT 6SM 17/13 A3003 RMK T01700130 IEM_DS3505
ZBYN,1990-09-13 18:00,ZBYN 131800Z AUTO 00000KT 6SM 14/13 A3003 RMK SLP137 T01450131 40272//// 52004 IEM_DS3505
ZBYN,1990-09-13 19:00,ZBYN 131900Z AUTO 00000KT 7SM 15/13 A3003 RMK T01500130 IEM_DS3505
ZBYN,1990-09-13 20:00,ZBYN 132000Z AUTO 00000KT 7SM 14/12 A3006 RMK T01400120 IEM_DS3505
ZBYN,1990-09-13 21:00,ZBYN 132100Z AUTO 10004KT 7SM 13/12 A3006 RMK T01300120 IEM_DS3505
ZBYN,1990-09-13 22:00,ZBYN 132200Z AUTO 00000KT 7SM 12/11 A3006 RMK T01200110 IEM_DS3505
ZBYN,1990-09-13 23:00,ZBYN 132300Z AUTO 00000KT 7SM 12/11 A3012 RMK T01200110 IEM_DS3505
ZBYN,1990-09-14 00:00,ZBYN 140000Z AUTO 32002KT 11SM 16/11 A3012 RMK SLP180 T01650109 52019 IEM_DS3505
ZBYN,1990-09-14 01:00,ZBYN 140100Z AUTO 34006KT 7SM 16/13 A3012 RMK T01600130 IEM_DS3505
ZBYN,1990-09-14 02:00,ZBYN 140200Z AUTO 35010KT 7SM 22/09 A3015 RMK T02200090 IEM_DS3505
ZBYN,1990-09-14 03:00,ZBYN 140300Z AUTO 36006KT 12SM 22/07 A3015 RMK SLP181 T02240066 52006 IEM_DS3505
ZBYN,1990-09-14 05:00,ZBYN 140500Z AUTO 36006KT 7SM 26/05 A3012 RMK T02600050 IEM_DS3505
ZBYN,1990-09-14 06:00,ZBYN 140600Z AUTO 04004KT 19SM 25/07 A3009 RMK SLP159 T02500070 4////0133 57021 IEM_DS3505
ZBYN,1990-09-14 07:00,ZBYN 140700Z AUTO 00000KT 7SM 26/06 A3006 RMK T02600060 IEM_DS3505
ZBYN,1990-09-14 08:00,ZBYN 140800Z AUTO 24006KT 7SM 27/06 A3006 RMK T02700060 IEM_DS3505
ZBYN,1990-09-14 09:00,ZBYN 140900Z AUTO 22004KT 19SM 26/11 A3006 RMK SLP150 T02590106 57009 IEM_DS3505
ZBYN,1990-09-14 10:00,ZBYN 141000Z AUTO 25006KT 7SM 25/12 A3006 RMK T02500120 IEM_DS3505
ZBYN,1990-09-14 11:00,ZBYN 141100Z AUTO 00000KT 7SM 20/12 A3009 RMK T02000120 IEM_DS3505
ZBYN,1990-09-14 12:00,ZBYN 141200Z AUTO 22006KT 12SM 19/10 A3009 RMK SLP172 T01880100 52012 IEM_DS3505
ZBYN,1990-09-14 13:00,ZBYN 141300Z AUTO 12004KT 7SM 15/12 A3012 RMK T01500120 IEM_DS3505
ZBYN,1990-09-14 14:00,ZBYN 141400Z AUTO 36004KT 7SM 18/09 A3015 RMK T01800090 IEM_DS3505
ZBYN,1990-09-14 15:00,ZBYN 141500Z AUTO 32006KT 12SM 16/09 A3015 RMK SLP181 T01630093 52013 IEM_DS3505
ZBYN,1990-09-14 18:00,ZBYN 141800Z AUTO 00000KT 9SM 13/09 RMK SLP181 T01330093 40265//// 54000 IEM_DS3505
ZBYN,1990-09-14 20:00,ZBYN 142000Z AUTO 00000KT 7SM 11/10 A3015 RMK T01100100 IEM_DS3505
ZBYN,1990-09-14 21:00,ZBYN 142100Z AUTO 00000KT 9SM 12/09 A3012 RMK SLP178 T01230091 57003 IEM_DS3505
ZBYN,1990-09-14 22:00,ZBYN 142200Z AUTO 00000KT 5SM 09/08 A3015 RMK T00900080 IEM_DS3505
ZBYN,1990-09-14 23:00,ZBYN 142300Z AUTO 00000KT 6SM 10/09 A3015 RMK T01000090 IEM_DS3505
ZBYN,1990-09-15 00:00,ZBYN 150000Z AUTO 34004KT 6SM 14/10 A3018 RMK SLP198 T01430096 52011 IEM_DS3505
ZBYN,1990-09-15 01:00,ZBYN 150100Z AUTO 00000KT 6SM 18/11 A3018 RMK T01800110 IEM_DS3505
ZBYN,1990-09-15 02:00,ZBYN 150200Z AUTO 00000KT 7SM 20/12 A3018 RMK T02000120 IEM_DS3505
ZBYN,1990-09-15 03:00,ZBYN 150300Z AUTO 16006KT 6SM 21/13 A3018 RMK SLP186 T02120127 57005 IEM_DS3505
ZBYN,1990-09-15 04:00,ZBYN 150400Z AUTO 23006KT 7SM 23/11 A3012 RMK T02300110 IEM_DS3505
ZBYN,1990-09-15 05:00,ZBYN 150500Z AUTO 24010KT 6SM 25/09 A3009 RMK T02500090 IEM_DS3505
ZBYN,1990-09-15 06:00,ZBYN 150600Z AUTO 22012KT 6SM 26/08 A3006 RMK SLP151 T02600080 57031 IEM_DS3505
ZBYN,1990-09-15 07:00,ZBYN 150700Z AUTO 24006KT 7SM 25/08 A3003 RMK T02500080 IEM_DS3505
ZBYN,1990-09-15 08:00,ZBYN 150800Z AUTO 24008KT 7SM 25/09 A3003 RMK T02500090 IEM_DS3505
ZBYN,1990-09-15 09:00,ZBYN 150900Z AUTO 18006KT 7SM 24/13 A3000 RMK SLP132 T02350132 IEM_DS3505
ZBYN,1990-09-15 10:00,ZBYN 151000Z AUTO 09004KT 6SM 24/13 A2997 RMK T02400130 IEM_DS3505
ZBYN,1990-09-15 11:00,ZBYN 151100Z AUTO 12006KT 6SM 21/12 A3000 RMK T02100120 IEM_DS3505
ZBYN,1990-09-15 12:00,ZBYN 151200Z AUTO 00000KT 6SM 17/15 A3000 RMK SLP144 T01720147 52005 IEM_DS3505
ZBYN,1990-09-15 13:00,ZBYN 151300Z AUTO 12008KT 6SM 18/12 A3003 RMK T01800120 IEM_DS3505
ZBYN,1990-09-15 14:00,ZBYN 151400Z AUTO 11004KT 6SM 18/13 A3003 RMK T01800130 IEM_DS3505
ZBYN,1990-09-15 15:00,ZBYN 151500Z AUTO 18004KT 6SM 18/13 A3003 RMK SLP142 T01760133 52009 IEM_DS3505
ZBYN,1990-09-15 16:00,ZBYN 151600Z AUTO 14008KT 6SM 18/13 A3003 RMK T01800130 IEM_DS3505
ZBYN,1990-09-15 18:00,ZBYN 151800Z AUTO 16002KT 6SM 15/12 RMK SLP137 T01460119 40253//// 57004 IEM_DS3505
ZBYN,1990-09-15 19:00,ZBYN 151900Z AUTO 13006KT 7SM 15/11 A3003 RMK T01500110 IEM_DS3505
ZBYN,1990-09-15 20:00,ZBYN 152000Z AUTO 13006KT 7SM 14/11 A3003 RMK T01400110 IEM_DS3505
ZBYN,1990-09-15 21:00,ZBYN 152100Z AUTO 14023KT 6SM 12/11 RMK SLP170 T01180109 57006 IEM_DS3505
ZBYN,1990-09-15 22:00,ZBYN 152200Z AUTO 12004KT 7SM 13/11 A3000 RMK T01300110 IEM_DS3505
ZBYN,1990-09-15 23:00,ZBYN 152300Z AUTO 13006KT 7SM 13/11 A3000 RMK T01300110 IEM_DS3505
ZBYN,1990-09-16 00:00,ZBYN 160000Z AUTO 14004KT 5SM 14/12 A3000 RMK SLP138 T01390121 57005 IEM_DS3505
ZBYN,1990-09-16 01:00,ZBYN 160100Z AUTO 17008KT 7SM 18/12 A2997 RMK T01800120 IEM_DS3505
ZBYN,1990-09-16 02:00,ZBYN 160200Z AUTO 20006KT 7SM 20/13 A2997 RMK T02000130 IEM_DS3505
ZBYN,1990-09-16 03:00,ZBYN 160300Z AUTO 18012KT 7SM 22/13 A2991 RMK SLP105 T02230131 57017 IEM_DS3505
ZBYN,1990-09-16 04:00,ZBYN 160400Z AUTO 18012KT 7SM 25/14 A2991 RMK T02500140 IEM_DS3505
ZBYN,1990-09-16 05:00,ZBYN 160500Z AUTO 23017KT 7SM 28/12 A2988 RMK T02800120 IEM_DS3505
ZBYN,1990-09-16 06:00,ZBYN 160600Z AUTO 32014KT 7SM 26/06 A2988 RMK SLP090 T02600057 4////0095 57013 IEM_DS3505
ZBYN,1990-09-16 07:00,ZBYN 160700Z AUTO 31023G33KT 7SM 25/02 A2994 RMK T02500020 IEM_DS3505
ZBYN,1990-09-16 08:00,ZBYN 160800Z AUTO 30021KT 7SM 24/03 A2994 RMK T02400030 IEM_DS3505
ZBYN,1990-09-16 09:00,ZBYN 160900Z AUTO 32012KT 7SM 23/05 A2994 RMK SLP117 T02270050 52016 IEM_DS3505
ZBYN,1990-09-16 10:00,ZBYN 161000Z AUTO 32021KT 7SM 21/M02 A3000 RMK T02101020 IEM_DS3505
ZBYN,1990-09-16 11:00,ZBYN 161100Z AUTO 32016KT 7SM 18/01 A3003 RMK T01800010 IEM_DS3505
ZBYN,1990-09-16 12:00,ZBYN 161200Z AUTO 34004KT 11SM 17/02 RMK SLP178 T01660018 52050 IEM_DS3505
ZBYN,1990-09-16 13:00,ZBYN 161300Z AUTO 34012KT 7SM 16/00 A3012 RMK T01600000 IEM_DS3505
ZBYN,1990-09-16 15:00,ZBYN 161500Z AUTO 32004KT 11SM 13/03 RMK SLP191 T01260028 52018 IEM_DS3505
ZBYN,1990-09-16 16:00,ZBYN 161600Z AUTO 34006KT 7SM 10/03 A3018 RMK T01000030 IEM_DS3505
ZBYN,1990-09-16 17:00,ZBYN 161700Z AUTO 35008KT 7SM 11/02 A3018 RMK T01100020 IEM_DS3505
ZBYN,1990-09-16 18:00,ZBYN 161800Z AUTO 32004KT 9SM 08/03 A3015 RMK SLP189 T00790034 40270//// 57003 IEM_DS3505
ZBYN,1990-09-16 19:00,ZBYN 161900Z AUTO 08006KT 7SM 08/02 A3015 RMK T00800020 IEM_DS3505
ZBYN,1990-09-16 20:00,ZBYN 162000Z AUTO 00000KT 7SM 07/03 A3015 RMK T00700030 IEM_DS3505
ZBYN,1990-09-16 21:00,ZBYN 162100Z AUTO 34004KT 9SM 09/02 RMK SLP195 T00860025 52001 IEM_DS3505
ZBYN,1990-09-16 22:00,ZBYN 162200Z AUTO 00000KT 7SM 06/03 A3018 RMK T00600030 IEM_DS3505
ZBYN,1990-09-16 23:00,ZBYN 162300Z AUTO 35002KT 7SM 06/03 A3018 RMK T00600030 IEM_DS3505
ZBYN,1990-09-17 00:00,ZBYN 170000Z AUTO 32006KT 12SM 11/03 A3021 RMK SLP208 T01130030 52007 IEM_DS3505
ZBYN,1990-09-17 01:00,ZBYN 170100Z AUTO 30006KT 7SM 14/01 A3018 RMK T01400010 IEM_DS3505
ZBYN,1990-09-17 02:00,ZBYN 170200Z AUTO 32010KT 7SM 15/01 A3021 RMK T01500010 IEM_DS3505
ZBYN,1990-09-17 03:00,ZBYN 170300Z AUTO 07004KT 16SM 17/03 A3018 RMK SLP204 T01710034 57001 IEM_DS3505
ZBYN,1990-09-17 04:00,ZBYN 170400Z AUTO 04006KT 7SM 18/M01 A3015 RMK T01801010 IEM_DS3505
ZBYN,1990-09-17 05:00,ZBYN 170500Z AUTO 35004KT 7SM 19/01 A3012 RMK T01900010 IEM_DS3505
ZBYN,1990-09-17 06:00,ZBYN 170600Z AUTO 32008KT 16SM 20/01 RMK SLP179 T01990006 4////0054 57025 IEM_DS3505
ZBYN,1990-09-17 07:00,ZBYN 170700Z AUTO 30016KT 7SM 21/M01 A3006 RMK T02101010 IEM_DS3505
ZBYN,1990-09-17 08:00,ZBYN 170800Z AUTO 33014KT 7SM 21/00 A3006 RMK T02100000 IEM_DS3505
ZBYN,1990-09-17 09:00,ZBYN 170900Z AUTO 27012KT 16SM 20/02 RMK SLP163 T02030024 57013 IEM_DS3505
ZBYN,1990-09-17 10:00,ZBYN 171000Z AUTO 28012KT 7SM 19/02 A3006 RMK T01900020 IEM_DS3505
ZBYN,1990-09-17 11:00,ZBYN 171100Z AUTO 32006KT 7SM 15/04 A3006 RMK T01500040 IEM_DS3505
ZBYN,1990-09-17 12:00,ZBYN 171200Z AUTO 32004KT 12SM 14/05 A3006 RMK SLP172 T01410049 52003 IEM_DS3505
ZBYN,1990-09-17 13:00,ZBYN 171300Z AUTO 00000KT 7SM 11/04 A3009 RMK T01100040 IEM_DS3505
ZBYN,1990-09-17 15:00,ZBYN 171500Z AUTO 00000KT 9SM 08/05 A3009 RMK SLP181 T00760048 52007 IEM_DS3505
ZBYN,1990-09-17 16:00,ZBYN 171600Z AUTO 10004KT 7SM 08/03 A3009 RMK T00800030 IEM_DS3505
ZBYN,1990-09-17 18:00,ZBYN 171800Z AUTO 00000KT 7SM 05/04 A3003 RMK SLP109 T00540043 40210//// 57010 IEM_DS3505
ZBYN,1990-09-17 19:00,ZBYN 171900Z AUTO 12006KT 7SM 07/03 A3003 RMK T00700030 IEM_DS3505
ZBYN,1990-09-17 20:00,ZBYN 172000Z AUTO 11004KT 7SM 06/03 A3003 RMK T00600030 IEM_DS3505
ZBYN,1990-09-17 21:00,ZBYN 172100Z AUTO 00000KT 7SM 04/04 A3000 RMK SLP156 T00440035 57013 IEM_DS3505
ZBYN,1990-09-17 22:00,ZBYN 172200Z AUTO 13004KT 7SM 06/03 A3000 RMK T00600030 IEM_DS3505
ZBYN,1990-09-17 23:00,ZBYN 172300Z AUTO 11004KT 7SM 06/03 A3000 RMK T00600030 IEM_DS3505
ZBYN,1990-09-18 00:00,ZBYN 180000Z AUTO 00000KT 6SM 09/05 A3000 RMK SLP157 T00860052 57002 IEM_DS3505
ZBYN,1990-09-18 01:00,ZBYN 180100Z AUTO 00000KT 6SM 09/05 A3000 RMK SLP157 T00860052 57002 IEM_DS3505
ZBYN,1990-09-18 02:00,ZBYN 180200Z AUTO 18006KT 7SM 17/05 A3000 RMK T01700050 IEM_DS3505
ZBYN,1990-09-18 03:00,ZBYN 180300Z AUTO 18012KT 7SM 19/06 A2997 RMK SLP131 T01940056 57017 IEM_DS3505
ZBYN,1990-09-18 04:00,ZBYN 180400Z AUTO 22004KT 7SM 21/03 A2991 RMK T02100030 IEM_DS3505
ZBYN,1990-09-18 05:00,ZBYN 180500Z AUTO 19008KT 7SM 23/05 A2988 RMK T02300050 IEM_DS3505
ZBYN,1990-09-18 06:00,ZBYN 180600Z AUTO 16016KT 7SM 24/07 A2983 RMK SLP088 T02400069 4////0029 57036 IEM_DS3505
ZBYN,1990-09-18 07:00,ZBYN 180700Z AUTO 18012KT 6SM 25/06 A2980 RMK T02500060 IEM_DS3505
ZBYN,1990-09-18 08:00,ZBYN 180800Z AUTO 15008KT 6SM 26/01 A2977 RMK T02600010 IEM_DS3505
ZBYN,1990-09-18 09:00,ZBYN 180900Z AUTO 20010KT 7SM 26/07 A2977 RMK T02600070 IEM_DS3505
ZBYN,1990-09-18 10:00,ZBYN 181000Z AUTO 16006KT 7SM 24/09 A2977 RMK T02400090 IEM_DS3505
ZBYN,1990-09-18 11:00,ZBYN 181100Z AUTO 20010KT 7SM 22/07 A2977 RMK T02200070 IEM_DS3505
ZBYN,1990-09-18 12:00,ZBYN 181200Z AUTO 14006KT 9SM 19/09 A2977 RMK SLP070 T01920092 52004 IEM_DS3505
ZBYN,1990-09-18 13:00,ZBYN 181300Z AUTO 15004KT 7SM 19/08 A2980 RMK T01900080 IEM_DS3505
ZBYN,1990-09-18 14:00,ZBYN 181400Z AUTO 11006KT 7SM 17/08 A2980 RMK T01700080 IEM_DS3505
ZBYN,1990-09-18 15:00,ZBYN 181500Z AUTO 11010KT 9SM 15/09 A2983 RMK SLP071 T01520086 52011 IEM_DS3505
ZBYN,1990-09-18 16:00,ZBYN 181600Z AUTO 11008KT 7SM 15/08 A2983 RMK T01500080 IEM_DS3505
ZBYN,1990-09-18 17:00,ZBYN 181700Z AUTO 10006KT 7SM 15/07 A2983 RMK T01500070 IEM_DS3505
ZBYN,1990-09-18 18:00,ZBYN 181800Z AUTO 00000KT 9SM 12/08 A2983 RMK SLP078 T01160083 40254//// 52008 IEM_DS3505
ZBYN,1990-09-18 19:00,ZBYN 181900Z AUTO 00000KT 7SM 12/08 A2983 RMK T01200080 IEM_DS3505
ZBYN,1990-09-18 20:00,ZBYN 182000Z AUTO 11004KT 7SM 11/08 A2983 RMK T01100080 IEM_DS3505
ZBYN,1990-09-18 21:00,ZBYN 182100Z AUTO 00000KT 9SM 10/08 A2983 RMK SLP097 T01000080 54000 IEM_DS3505
ZBYN,1990-09-18 22:00,ZBYN 182200Z AUTO 00000KT 7SM 08/07 A2985 RMK T00800070 IEM_DS3505
ZBYN,1990-09-18 23:00,ZBYN 182300Z AUTO 00000KT 7SM 08/07 A2985 RMK T00800070 IEM_DS3505
ZBYN,1990-09-19 00:00,ZBYN 190000Z AUTO 00000KT 7SM 13/11 A2985 RMK SLP091 T01310109 52007 IEM_DS3505
ZBYN,1990-09-19 01:00,ZBYN 190100Z AUTO 16006KT 7SM 18/08 A2988 RMK T01800080 IEM_DS3505
ZBYN,1990-09-19 02:00,ZBYN 190200Z AUTO 17004KT 7SM 20/09 A2988 RMK T02000090 IEM_DS3505
ZBYN,1990-09-19 03:00,ZBYN 190300Z AUTO 16006KT 6SM 22/11 A2985 RMK SLP086 T02180113 52002 IEM_DS3505
ZBYN,1990-09-19 04:00,ZBYN 190400Z AUTO 21006KT 7SM 25/10 A2983 RMK T02500100 IEM_DS3505
ZBYN,1990-09-19 05:00,ZBYN 190500Z AUTO 21012KT 6SM 27/10 A2980 RMK T02700100 IEM_DS3505
ZBYN,1990-09-19 06:00,ZBYN 190600Z AUTO 18008KT 12SM 27/13 A2980 RMK SLP058 T02720132 4////0077 57023 IEM_DS3505
ZBYN,1990-09-19 07:00,ZBYN 190700Z AUTO 19008KT 7SM 29/10 A2977 RMK T02900100 IEM_DS3505
ZBYN,1990-09-19 08:00,ZBYN 190800Z AUTO 20006KT 7SM 30/09 A2977 RMK T03000090 IEM_DS3505
ZBYN,1990-09-19 09:00,ZBYN 190900Z AUTO 18006KT 16SM 28/13 A2977 RMK SLP050 T02750130 57009 IEM_DS3505
ZBYN,1990-09-19 10:00,ZBYN 191000Z AUTO 16008KT 7SM 26/12 A2977 RMK T02600120 IEM_DS3505
ZBYN,1990-09-19 11:00,ZBYN 191100Z AUTO 12008KT 7SM 24/12 A2980 RMK T02400120 IEM_DS3505
ZBYN,1990-09-19 12:00,ZBYN 191200Z AUTO 14004KT 12SM 19/13 A2983 RMK SLP076 T01860134 52015 IEM_DS3505
ZBYN,1990-09-19 13:00,ZBYN 191300Z AUTO 09006KT 7SM 20/10 A2985 RMK T02000100 IEM_DS3505
ZBYN,1990-09-19 14:00,ZBYN 191400Z AUTO 09010KT 7SM 20/12 A2988 RMK T02000120 IEM_DS3505
ZBYN,1990-09-19 15:00,ZBYN 191500Z AUTO 00000KT 6SM 15/13 A2988 RMK SLP089 T01500127 52020 IEM_DS3505
ZBYN,1990-09-19 16:00,ZBYN 191600Z AUTO 11006KT 7SM 18/12 A2991 RMK T01800120 IEM_DS3505
ZBYN,1990-09-19 18:00,ZBYN 191800Z AUTO 00000KT 6SM 13/12 RMK SLP087 T01320120 40286//// 52003 IEM_DS3505
ZBYN,1990-09-19 20:00,ZBYN 192000Z AUTO 00000KT 7SM 13/11 A2988 RMK T01300110 IEM_DS3505
ZBYN,1990-09-19 21:00,ZBYN 192100Z AUTO 00000KT 6SM 12/11 A2988 RMK SLP090 T01160107 52001 IEM_DS3505
ZBYN,1990-09-20 00:00,ZBYN 200000Z AUTO 00000KT 6SM 14/12 A2994 RMK SLP120 T01440123 52018 IEM_DS3505
ZBYN,1990-09-20 01:00,ZBYN 200100Z AUTO 16004KT 6SM 20/12 A2994 RMK T02000120 IEM_DS3505
ZBYN,1990-09-20 02:00,ZBYN 200200Z AUTO 00000KT 6SM 19/12 A2994 RMK T01900120 IEM_DS3505
ZBYN,1990-09-20 03:00,ZBYN 200300Z AUTO 00000KT 5SM 20/14 A2994 RMK SLP116 T02000136 54000 IEM_DS3505
ZBYN,1990-09-20 04:00,ZBYN 200400Z AUTO 00000KT 6SM 24/12 A2991 RMK T02400120 IEM_DS3505
ZBYN,1990-09-20 05:00,ZBYN 200500Z AUTO 24006KT 6SM 25/11 A2991 RMK T02500110 IEM_DS3505
ZBYN,1990-09-20 06:00,ZBYN 200600Z AUTO 32004KT 5SM 24/15 A2991 RMK SLP101 T02380151 4////0103 57011 IEM_DS3505
ZBYN,1990-09-20 07:00,ZBYN 200700Z AUTO 33008KT 7SM 24/13 A2988 RMK T02400130 IEM_DS3505
ZBYN,1990-09-20 08:00,ZBYN 200800Z AUTO 05004KT 4SM 21/15 A2991 RMK T02100150 IEM_DS3505
ZBYN,1990-09-20 09:00,ZBYN 200900Z AUTO 00000KT 7SM 22/17 A2991 RMK SLP108 T02240173 52002 IEM_DS3505
ZBYN,1990-09-20 10:00,ZBYN 201000Z AUTO 19006KT 4SM 22/17 A2994 RMK T02200170 IEM_DS3505
ZBYN,1990-09-20 11:00,ZBYN 201100Z AUTO 19002KT 3SM 20/16 A2994 RMK T02000160 IEM_DS3505
ZBYN,1990-09-20 12:00,ZBYN 201200Z AUTO 16002KT 7SM 18/17 A2997 RMK 60001 T01820169 IEM_DS3505
ZBYN,1990-09-20 13:00,ZBYN 201300Z AUTO 09008KT 4SM 20/15 A3000 RMK T02000150 IEM_DS3505
ZBYN,1990-09-20 14:00,ZBYN 201400Z AUTO 30002KT 4SM 18/15 A3000 RMK T01800150 IEM_DS3505
ZBYN,1990-09-20 15:00,ZBYN 201500Z AUTO 00000KT 4SM 16/16 A3000 RMK SLP137 T01650155 52014 IEM_DS3505
ZBYN,1990-09-20 16:00,ZBYN 201600Z AUTO 10006KT 2 1/2SM 17/14 A3003 RMK T01700140 IEM_DS3505
ZBYN,1990-09-20 18:00,ZBYN 201800Z AUTO 00000KT 4SM 14/14 RMK SLP139 T01440139 40252//// 52004 IEM_DS3505
ZBYN,1990-09-20 20:00,ZBYN 202000Z AUTO 00000KT 1 1/4SM 13/12 A3003 RMK T01300120 IEM_DS3505
ZBYN,1990-09-20 21:00,ZBYN 202100Z AUTO 34004KT 4SM 14/12 A3003 RMK SLP147 T01390123 52005 IEM_DS3505
ZBYN,1990-09-20 22:00,ZBYN 202200Z AUTO 00000KT 1SM 11/11 A3006 RMK T01100110 IEM_DS3505
ZBYN,1990-09-20 23:00,ZBYN 202300Z AUTO 00000KT 1SM 12/11 A3006 RMK T01200110 IEM_DS3505
ZBYN,1990-09-21 00:00,ZBYN 210000Z AUTO 36004KT 5SM 15/13 A3009 RMK SLP166 T01510130 52013 IEM_DS3505
ZBYN,1990-09-21 01:00,ZBYN 210100Z AUTO 00000KT 2 1/2SM 18/14 A3009 RMK T01800140 IEM_DS3505
ZBYN,1990-09-21 02:00,ZBYN 210200Z AUTO 33004KT 6SM 21/14 A3009 RMK T02100140 IEM_DS3505
ZBYN,1990-09-21 03:00,ZBYN 210300Z AUTO 36004KT 5SM 22/15 A3009 RMK SLP159 T02180150 52001 IEM_DS3505
ZBYN,1990-09-21 04:00,ZBYN 210400Z AUTO 00000KT 6SM 24/15 A3006 RMK T02400150 IEM_DS3505
ZBYN,1990-09-21 05:00,ZBYN 210500Z AUTO 09010KT 6SM 25/15 A3003 RMK T02500150 IEM_DS3505
ZBYN,1990-09-21 06:00,ZBYN 210600Z AUTO 11012KT 5SM 26/15 A3000 RMK SLP130 T02560154 4////0124 57024 IEM_DS3505
ZBYN,1990-09-21 07:00,ZBYN 210700Z AUTO 08014KT 5SM 24/14 A3000 RMK T02400140 IEM_DS3505
ZBYN,1990-09-21 08:00,ZBYN 210800Z AUTO 09014KT 5SM 22/13 A2997 RMK T02200130 IEM_DS3505
ZBYN,1990-09-21 09:00,ZBYN 210900Z AUTO 09010KT 4SM 20/14 A2997 RMK SLP132 T02030138 57007 IEM_DS3505
ZBYN,1990-09-21 10:00,ZBYN 211000Z AUTO 06014KT 4SM 19/13 A3000 RMK T01900130 IEM_DS3505
ZBYN,1990-09-21 11:00,ZBYN 211100Z AUTO 07012KT 5SM 18/13 A3003 RMK T01800130 IEM_DS3505
ZBYN,1990-09-21 12:00,ZBYN 211200Z AUTO 00000KT 4SM 16/15 A3006 RMK 60016 SLP117 T01650148 IEM_DS3505
ZBYN,1990-09-21 13:00,ZBYN 211300Z AUTO 08008KT 7SM 15/14 A3009 RMK T01500140 IEM_DS3505
ZBYN,1990-09-21 14:00,ZBYN 211400Z AUTO 11004KT 7SM 16/14 A3009 RMK T01600140 IEM_DS3505
ZBYN,1990-09-21 15:00,ZBYN 211500Z AUTO 00000KT 6SM 16/15 A3009 RMK SLP163 T01560149 52006 IEM_DS3505
ZBYN,1990-09-21 16:00,ZBYN 211600Z AUTO 00000KT 7SM 15/15 A3012 RMK T01500150 IEM_DS3505
ZBYN,1990-09-21 17:00,ZBYN 211700Z AUTO 00000KT 6SM 15/15 A3009 RMK T01500150 IEM_DS3505
ZBYN,1990-09-21 18:00,ZBYN 211800Z AUTO 00000KT 6SM 16/15 A3009 RMK 60012 SLP156 T01550153 40257//// 57001 IEM_DS3505
ZBYN,1990-09-21 19:00,ZBYN 211900Z AUTO 00000KT 6SM 16/15 A3009 RMK T01600150 IEM_DS3505
ZBYN,1990-09-21 20:00,ZBYN 212000Z AUTO 07004KT 6SM 15/13 A3006 RMK T01500130 IEM_DS3505
ZBYN,1990-09-21 21:00,ZBYN 212100Z AUTO 00000KT 5SM 16/13 A3006 RMK 70024 SLP160 T01560134 57004 IEM_DS3505
ZBYN,1990-09-21 22:00,ZBYN 212200Z AUTO 15004KT 4SM 15/15 A3006 RMK T01500150 IEM_DS3505
ZBYN,1990-09-21 23:00,ZBYN 212300Z AUTO 07004KT 6SM 15/13 A3006 RMK T01500130 IEM_DS3505
ZBYN,1990-09-22 00:00,ZBYN 220000Z AUTO 18002KT 5SM 15/13 A3006 RMK SLP167 T01500133 54000 IEM_DS3505
ZBYN,1990-09-22 01:00,ZBYN 220100Z AUTO 00000KT 7SM 15/13 A3009 RMK T01500130 IEM_DS3505
ZBYN,1990-09-22 02:00,ZBYN 220200Z AUTO 00000KT 4SM 16/14 A3009 RMK T01600140 IEM_DS3505
ZBYN,1990-09-22 03:00,ZBYN 220300Z AUTO 00000KT 5SM 16/14 A3012 RMK SLP174 T01650143 52007 IEM_DS3505
ZBYN,1990-09-22 04:00,ZBYN 220400Z AUTO 00000KT 7SM 17/14 A3009 RMK T01700140 IEM_DS3505
ZBYN,1990-09-22 05:00,ZBYN 220500Z AUTO 33004KT 5SM 17/14 A3009 RMK T01700140 IEM_DS3505
ZBYN,1990-09-22 06:00,ZBYN 220600Z AUTO 00000KT 5SM 17/14 A3009 RMK SLP168 T01710142 4////0145 57004 IEM_DS3505
ZBYN,1990-09-22 07:00,ZBYN 220700Z AUTO 00000KT 6SM 17/15 A3009 RMK T01700150 IEM_DS3505
ZBYN,1990-09-22 08:00,ZBYN 220800Z AUTO 14004KT 6SM 17/14 A3009 RMK T01700140 IEM_DS3505
ZBYN,1990-09-22 09:00,ZBYN 220900Z AUTO 25002KT 5SM 17/14 A3009 RMK SLP168 T01670144 57001 IEM_DS3505
ZBYN,1990-09-22 10:00,ZBYN 221000Z AUTO 00000KT 5SM 16/15 A3009 RMK T01600150 IEM_DS3505
ZBYN,1990-09-22 11:00,ZBYN 221100Z AUTO 00000KT 2 1/2SM 15/15 A3009 RMK T01500150 IEM_DS3505
ZBYN,1990-09-22 12:00,ZBYN 221200Z AUTO 00000KT 4SM 15/14 A3009 RMK 60000 SLP181 T01460137 IEM_DS3505
ZBYN,1990-09-22 13:00,ZBYN 221300Z AUTO 00000KT 4SM 14/14 A3012 RMK T01400140 IEM_DS3505
ZBYN,1990-09-22 14:00,ZBYN 221400Z AUTO 00000KT 2 1/2SM 14/14 A3012 RMK T01400140 IEM_DS3505
ZBYN,1990-09-22 15:00,ZBYN 221500Z AUTO 00000KT 1/8SM 14/13 A3012 RMK SLP190 T01360134 52009 IEM_DS3505
ZBYN,1990-09-22 16:00,ZBYN 221600Z AUTO 00000KT 6SM 13/13 A3015 RMK T01300130 IEM_DS3505
ZBYN,1990-09-22 17:00,ZBYN 221700Z AUTO 00000KT 2SM 11/11 A3015 RMK T01100110 IEM_DS3505
ZBYN,1990-09-22 18:00,ZBYN 221800Z AUTO 00000KT 1/8SM 14/14 A3012 RMK SLP187 T01370135 40172//// 57002 IEM_DS3505
ZBYN,1990-09-22 19:00,ZBYN 221900Z AUTO 00000KT 1/8SM 14/14 A3012 RMK T01400140 IEM_DS3505
ZBYN,1990-09-22 20:00,ZBYN 222000Z AUTO 00000KT 1/8SM 13/13 A3012 RMK T01300130 IEM_DS3505
ZBYN,1990-09-22 21:00,ZBYN 222100Z AUTO 00000KT 1/4SM 14/14 A3012 RMK SLP177 T01370135 57009 IEM_DS3505
ZBYN,1990-09-22 22:00,ZBYN 222200Z AUTO 00000KT 1SM 13/13 A3012 RMK T01300130 IEM_DS3505
ZBYN,1990-09-22 23:00,ZBYN 222300Z AUTO 00000KT 1SM 14/13 A3015 RMK T01400130 IEM_DS3505
ZBYN,1990-09-23 00:00,ZBYN 230000Z AUTO 00000KT 1 1/4SM 15/13 A3015 RMK SLP192 T01460134 52012 IEM_DS3505
ZBYN,1990-09-23 01:00,ZBYN 230100Z AUTO 12002KT 2 1/2SM 16/14 A3015 RMK T01600140 IEM_DS3505
ZBYN,1990-09-23 02:00,ZBYN 230200Z AUTO 12006KT 7SM 17/13 RMK T01700130 IEM_DS3505
ZBYN,1990-09-23 03:00,ZBYN 230300Z AUTO 11004KT 4SM 18/13 A3015 RMK SLP195 T01760130 52005 IEM_DS3505
ZBYN,1990-09-23 04:00,ZBYN 230400Z AUTO 16006KT 7SM 19/13 A3012 RMK T01900130 IEM_DS3505
ZBYN,1990-09-23 05:00,ZBYN 230500Z AUTO 11004KT 7SM 19/12 A3012 RMK T01900120 IEM_DS3505
ZBYN,1990-09-23 06:00,ZBYN 230600Z AUTO 16008KT 6SM 20/13 A3009 RMK SLP170 T02050129 4////0123 57018 IEM_DS3505
ZBYN,1990-09-23 07:00,ZBYN 230700Z AUTO 06004KT 7SM 22/12 A3009 RMK T02200120 IEM_DS3505
ZBYN,1990-09-23 08:00,ZBYN 230800Z AUTO 12004KT 7SM 22/12 A3006 RMK T02200120 IEM_DS3505
ZBYN,1990-09-23 09:00,ZBYN 230900Z AUTO 00000KT 9SM 20/13 A3006 RMK SLP158 T02040133 57011 IEM_DS3505
ZBYN,1990-09-23 10:00,ZBYN 231000Z AUTO 07004KT 6SM 19/13 A3006 RMK T01900130 IEM_DS3505
ZBYN,1990-09-23 11:00,ZBYN 231100Z AUTO 09008KT 6SM 17/13 A3006 RMK T01700130 IEM_DS3505
ZBYN,1990-09-23 12:00,ZBYN 231200Z AUTO 00000KT 6SM 15/13 A3009 RMK SLP176 T01540132 52010 IEM_DS3505
ZBYN,1990-09-23 13:00,ZBYN 231300Z AUTO 08010KT 6SM 17/12 A3012 RMK T01700120 IEM_DS3505
ZBYN,1990-09-23 14:00,ZBYN 231400Z AUTO 08014KT 7SM 16/12 A3015 RMK T01600120 IEM_DS3505
ZBYN,1990-09-23 15:00,ZBYN 231500Z AUTO 04002KT 6SM 16/12 A3015 RMK SLP187 T01620124 52016 IEM_DS3505
ZBYN,1990-09-23 16:00,ZBYN 231600Z AUTO 06008KT 7SM 16/12 A3015 RMK T01600120 IEM_DS3505
ZBYN,1990-09-23 18:00,ZBYN 231800Z AUTO 00000KT 4SM 16/13 A3015 RMK SLP187 T01600130 52002 IEM_DS3505
ZBYN,1990-09-23 19:00,ZBYN 231900Z AUTO 10006KT 7SM 16/12 A3015 RMK T01600120 IEM_DS3505
ZBYN,1990-09-23 19:15,ZBYN 231915Z AUTO 10006KT 7SM 16/12 A3015 RMK T01600120 IEM_DS3505
ZBYN,1990-09-23 20:00,ZBYN 232000Z AUTO 10004KT 7SM 16/12 A3015 RMK T01600120 IEM_DS3505
ZBYN,1990-09-23 21:00,ZBYN 232100Z AUTO 00000KT 5SM 14/13 A3015 RMK SLP185 T01410127 57003 IEM_DS3505
ZBYN,1990-09-23 22:00,ZBYN 232200Z AUTO 06004KT 4SM 15/13 A3015 RMK T01500130 IEM_DS3505
ZBYN,1990-09-23 23:00,ZBYN 232300Z AUTO 00000KT 4SM 15/13 A3018 RMK T01500130 IEM_DS3505
ZBYN,1990-09-24 00:00,ZBYN 240000Z AUTO 32002KT 5SM 15/13 A3018 RMK SLP211 T01540130 52018 IEM_DS3505
ZBYN,1990-09-24 01:00,ZBYN 240100Z AUTO 33006KT 3SM 16/14 A3021 RMK T01600140 IEM_DS3505
ZBYN,1990-09-24 02:00,ZBYN 240200Z AUTO 19006KT 2 1/2SM 16/14 A3021 RMK T01600140 IEM_DS3505
ZBYN,1990-09-24 03:00,ZBYN 240300Z AUTO 14006KT 5SM 17/14 A3021 RMK SLP208 T01720145 52001 IEM_DS3505
ZBYN,1990-09-24 04:00,ZBYN 240400Z AUTO 11010KT 7SM 17/13 A3018 RMK T01700130 IEM_DS3505
ZBYN,1990-09-24 05:00,ZBYN 240500Z AUTO 11010KT 7SM 20/20 A3015 RMK T02000200 IEM_DS3505
ZBYN,1990-09-24 06:00,ZBYN 240600Z AUTO 11004KT 6SM 21/14 A3015 RMK 60002 SLP185 T02060136 4////0130 57017 IEM_DS3505
ZBYN,1990-09-24 07:00,ZBYN 240700Z AUTO 11010KT 7SM 17/13 A3018 RMK T01700130 IEM_DS3505
ZBYN,1990-09-24 08:00,ZBYN 240800Z AUTO 11006KT 6SM 21/13 A3012 RMK T02100130 IEM_DS3505
ZBYN,1990-09-24 09:00,ZBYN 240900Z AUTO 14004KT 6SM 20/13 A3021 RMK SLP170 T02010132 57016 IEM_DS3505
ZBYN,1990-09-24 10:00,ZBYN 241000Z AUTO 11008KT 7SM 20/12 A3009 RMK T02000120 IEM_DS3505
ZBYN,1990-09-24 11:00,ZBYN 241100Z AUTO 09008KT 7SM 18/12 A3012 RMK T01800120 IEM_DS3505
ZBYN,1990-09-24 12:00,ZBYN 241200Z AUTO 04010KT 6SM 16/09 RMK 60002 SLP208 T01640092 52031 IEM_DS3505
ZBYN,1990-09-24 13:00,ZBYN 241300Z AUTO 04010KT 6SM 16/09 RMK SLP208 T01640092 52031 IEM_DS3505
ZBYN,1990-09-24 15:00,ZBYN 241500Z AUTO 20006KT 6SM 12/10 A3021 RMK SLP215 T01250103 52003 IEM_DS3505
ZBYN,1990-09-24 16:00,ZBYN 241600Z AUTO 00000KT 7SM 12/11 A3021 RMK T01200110 IEM_DS3505
ZBYN,1990-09-24 18:00,ZBYN 241800Z AUTO 34004KT 5SM 14/11 RMK 60004 SLP222 T01360107 40209//// 52013 IEM_DS3505
ZBYN,1990-09-24 21:00,ZBYN 242100Z AUTO 00000KT 6SM 11/10 RMK 70035 SLP206 T01140103 57018 IEM_DS3505
ZBYN,1990-09-24 22:00,ZBYN 242200Z AUTO 36002KT 4SM 12/11 A3021 RMK T01200110 IEM_DS3505
ZBYN,1990-09-24 23:00,ZBYN 242300Z AUTO 00000KT 7SM 12/11 A3021 RMK T01200110 IEM_DS3505
ZBYN,1990-09-25 00:00,ZBYN 250000Z AUTO 00000KT 4SM 13/12 A3021 RMK 70008 SLP213 T01270118 52003 IEM_DS3505
ZBYN,1990-09-25 01:00,ZBYN 250100Z AUTO 00000KT 6SM 15/12 A3021 RMK T01500120 IEM_DS3505
ZBYN,1990-09-25 02:00,ZBYN 250200Z AUTO 00000KT 7SM 17/11 A3024 RMK T01700110 IEM_DS3505
ZBYN,1990-09-25 03:00,ZBYN 250300Z AUTO 00000KT 5SM 19/13 A3021 RMK SLP213 T01870127 52003 IEM_DS3505
ZBYN,1990-09-25 04:00,ZBYN 250400Z AUTO 19006KT 6SM 20/12 A3018 RMK T02000120 IEM_DS3505
ZBYN,1990-09-25 05:00,ZBYN 250500Z AUTO 23006KT 6SM 22/14 A3018 RMK T02200140 IEM_DS3505
ZBYN,1990-09-25 06:00,ZBYN 250600Z AUTO 18006KT 7SM 22/ A3015 RMK SLP185 4////0099 57020 IEM_DS3505
ZBYN,1990-09-25 07:00,ZBYN 250700Z AUTO 00000KT 7SM 23/14 A3012 RMK T02300140 IEM_DS3505
ZBYN,1990-09-25 08:00,ZBYN 250800Z AUTO 03012KT 7SM A3018 RMK IEM_DS3505
ZBYN,1990-09-25 09:00,ZBYN 250900Z AUTO 18004KT 7SM 22/14 A3012 RMK SLP181 T02150141 57007 IEM_DS3505
ZBYN,1990-09-25 10:00,ZBYN 251000Z AUTO 00000KT 6SM 21/16 A3012 RMK T02100160 IEM_DS3505
ZBYN,1990-09-25 11:00,ZBYN 251100Z AUTO 00000KT 6SM 21/16 A3012 RMK T02100160 IEM_DS3505
ZBYN,1990-09-25 12:00,ZBYN 251200Z AUTO 11008KT 6SM 18/14 A3018 RMK SLP194 T01800138 52009 IEM_DS3505
ZBYN,1990-09-25 13:00,ZBYN 251300Z AUTO 08010KT 7SM 17/14 A3018 RMK T01700140 IEM_DS3505
ZBYN,1990-09-25 14:00,ZBYN 251400Z AUTO 09010KT 6SM 17/14 A3018 RMK T01700140 IEM_DS3505
ZBYN,1990-09-25 15:00,ZBYN 251500Z AUTO 11002KT 6SM 17/14 A3018 RMK SLP197 T01730137 52010 IEM_DS3505
ZBYN,1990-09-25 16:00,ZBYN 251600Z AUTO 09008KT 6SM 17/14 A3018 RMK T01700140 IEM_DS3505
ZBYN,1990-09-25 17:00,ZBYN 251700Z AUTO 09008KT 6SM 17/14 A3018 RMK T01700140 IEM_DS3505
ZBYN,1990-09-25 18:00,ZBYN 251800Z AUTO 11006KT 6SM 17/13 A3018 RMK SLP191 T01670131 40222//// 57002 IEM_DS3505
ZBYN,1990-09-25 19:00,ZBYN 251900Z AUTO 10006KT 6SM 16/14 A3018 RMK T01600140 IEM_DS3505
ZBYN,1990-09-25 20:00,ZBYN 252000Z AUTO 11006KT 6SM 16/14 A3015 RMK T01600140 IEM_DS3505
ZBYN,1990-09-25 21:00,ZBYN 252100Z AUTO 11002KT 6SM 15/13 A3015 RMK SLP185 T01490132 57008 IEM_DS3505
ZBYN,1990-09-25 22:00,ZBYN 252200Z AUTO 09006KT 6SM 15/13 A3015 RMK T01500130 IEM_DS3505
ZBYN,1990-09-25 23:00,ZBYN 252300Z AUTO 12006KT 6SM 15/13 A3015 RMK T01500130 IEM_DS3505
ZBYN,1990-09-26 00:00,ZBYN 260000Z AUTO 11004KT 5SM 15/13 A3015 RMK SLP199 T01510130 52004 IEM_DS3505
ZBYN,1990-09-26 01:00,ZBYN 260100Z AUTO 16006KT 6SM 17/13 A3018 RMK T01700130 IEM_DS3505
ZBYN,1990-09-26 02:00,ZBYN 260200Z AUTO 16012KT 6SM 17/11 A3018 RMK T01700110 IEM_DS3505
ZBYN,1990-09-26 03:00,ZBYN 260300Z AUTO 18002KT 3SM 17/13 A3018 RMK SLP201 T01680128 52007 IEM_DS3505
ZBYN,1990-09-26 04:00,ZBYN 260400Z AUTO 00000KT 7SM 15/14 A3021 RMK T01500140 IEM_DS3505
ZBYN,1990-09-26 05:00,ZBYN 260500Z AUTO 00000KT 4SM 15/14 A3021 RMK T01500140 IEM_DS3505
ZBYN,1990-09-26 06:00,ZBYN 260600Z AUTO 09006KT 3SM 15/14 A3018 RMK 60024 SLP200 T01460137 4////0132 57005 IEM_DS3505
ZBYN,1990-09-26 07:00,ZBYN 260700Z AUTO 15006KT 4SM 15/14 A3018 RMK T01500140 IEM_DS3505
ZBYN,1990-09-26 08:00,ZBYN 260800Z AUTO 18006KT 3SM RMK IEM_DS3505
ZBYN,1990-09-26 09:00,ZBYN 260900Z AUTO 09004KT 3SM 14/14 A3015 RMK SLP195 T01400135 57008 IEM_DS3505
ZBYN,1990-09-26 10:00,ZBYN 261000Z AUTO 00000KT 2SM 14/14 A3015 RMK T01400140 IEM_DS3505
ZBYN,1990-09-26 11:00,ZBYN 261100Z AUTO 12006KT 1 1/4SM 14/13 A3018 RMK T01400130 IEM_DS3505
ZBYN,1990-09-26 12:00,ZBYN 261200Z AUTO 16002KT 5SM 13/13 A3018 RMK 60031 SLP201 T01330129 52005 IEM_DS3505
ZBYN,1990-09-26 13:00,ZBYN 261300Z AUTO 00000KT 2SM 14/13 A3021 RMK T01400130 IEM_DS3505
ZBYN,1990-09-26 14:00,ZBYN 261400Z AUTO 00000KT 2 1/2SM 13/13 A3018 RMK T01300130 IEM_DS3505
ZBYN,1990-09-26 15:00,ZBYN 261500Z AUTO 14002KT 5SM 12/12 RMK SLP207 T01250121 52006 IEM_DS3505
ZBYN,1990-09-26 16:00,ZBYN 261600Z AUTO 00000KT 1SM 12/12 A3021 RMK T01200120 IEM_DS3505
ZBYN,1990-09-26 17:00,ZBYN 261700Z AUTO 00000KT 12/12 A3021 RMK T01200120 IEM_DS3505
ZBYN,1990-09-26 18:00,ZBYN 261800Z AUTO 00000KT 1/4SM 10/10 A3021 RMK SLP216 T01050103 40173//// 52002 IEM_DS3505
ZBYN,1990-09-26 19:00,ZBYN 261900Z AUTO 00000KT 0SM 12/12 A3021 RMK T01200120 IEM_DS3505
ZBYN,1990-09-26 21:00,ZBYN 262100Z AUTO 00000KT 3/8SM 11/11 A3021 RMK 70055 SLP217 T01110109 52001 IEM_DS3505
ZBYN,1990-09-26 22:00,ZBYN 262200Z AUTO 00000KT 2SM 11/11 A3021 RMK T01100110 IEM_DS3505
ZBYN,1990-09-26 23:00,ZBYN 262300Z AUTO 00000KT 2 1/2SM 11/11 A3021 RMK T01100110 IEM_DS3505
ZBYN,1990-09-27 00:00,ZBYN 270000Z AUTO 00000KT 6SM 11/10 A3024 RMK 70055 SLP231 T01140099 52012 IEM_DS3505
ZBYN,1990-09-27 01:00,ZBYN 270100Z AUTO 00000KT 6SM 13/11 A3024 RMK T01300110 IEM_DS3505
ZBYN,1990-09-27 02:00,ZBYN 270200Z AUTO 00000KT 6SM 14/11 A3024 RMK T01400110 IEM_DS3505
ZBYN,1990-09-27 03:00,ZBYN 270300Z AUTO 16004KT 6SM 16/11 A3024 RMK SLP221 T01590109 57003 IEM_DS3505
ZBYN,1990-09-27 04:00,ZBYN 270400Z AUTO 00000KT 7SM 18/11 A3021 RMK T01800110 IEM_DS3505
ZBYN,1990-09-27 06:00,ZBYN 270600Z AUTO 34006KT 7SM 20/06 A3015 RMK T02040062 4////0092 57020 IEM_DS3505
ZBYN,1990-09-27 07:00,ZBYN 270700Z AUTO 34006KT 7SM 22/04 A3012 RMK T02200040 IEM_DS3505
ZBYN,1990-09-27 08:00,ZBYN 270800Z AUTO 21006KT 7SM 22/07 A3012 RMK T02200070 IEM_DS3505
ZBYN,1990-09-27 09:00,ZBYN 270900Z AUTO 18006KT 7SM 20/09 A3012 RMK SLP181 T02020094 57012 IEM_DS3505
ZBYN,1990-09-27 10:00,ZBYN 271000Z AUTO 23006KT 7SM 19/11 A3012 RMK T01900110 IEM_DS3505
ZBYN,1990-09-27 11:00,ZBYN 271100Z AUTO 00000KT 7SM 16/12 A3015 RMK T01600120 IEM_DS3505
ZBYN,1990-09-27 12:00,ZBYN 271200Z AUTO 20002KT 9SM 14/10 A3015 RMK SLP194 T01420101 52003 IEM_DS3505
ZBYN,1990-09-27 13:00,ZBYN 271300Z AUTO 12004KT 7SM 14/12 A3015 RMK T01400120 IEM_DS3505
ZBYN,1990-09-27 14:00,ZBYN 271400Z AUTO 00000KT 7SM 11/10 A3015 RMK T01100100 IEM_DS3505
ZBYN,1990-09-27 15:00,ZBYN 271500Z AUTO 14002KT 9SM 10/10 A3018 RMK SLP201 T01050095 52008 IEM_DS3505
ZBYN,1990-09-27 16:00,ZBYN 271600Z AUTO 00000KT 7SM 09/09 A3018 RMK T00900090 IEM_DS3505
ZBYN,1990-09-27 18:00,ZBYN 271800Z AUTO 00000KT 9SM 10/08 RMK SLP197 T01020084 40213//// 52002 IEM_DS3505
ZBYN,1990-09-27 20:00,ZBYN 272000Z AUTO 00000KT 7SM 07/07 A3018 RMK T00700070 IEM_DS3505
ZBYN,1990-09-27 20:54,ZBYN 272054Z AUTO 00000KT 7SM 07/07 A3018 RMK T00700070 IEM_DS3505
ZBYN,1990-09-27 21:00,ZBYN 272100Z AUTO 00000KT 7SM 07/07 A3018 RMK T00700070 IEM_DS3505
ZBYN,1990-09-27 22:00,ZBYN 272200Z AUTO 00000KT 6SM 06/06 A3018 RMK T00600060 IEM_DS3505
ZBYN,1990-09-27 23:00,ZBYN 272300Z AUTO 00000KT 2 1/2SM 07/07 A3018 RMK T00700070 IEM_DS3505
ZBYN,1990-09-28 00:00,ZBYN 280000Z AUTO 36004KT 1 1/4SM 09/09 A3018 RMK SLP215 T00920086 52003 IEM_DS3505
ZBYN,1990-09-28 01:00,ZBYN 280100Z AUTO 16002KT 4SM 13/10 A3021 RMK T01300100 IEM_DS3505
ZBYN,1990-09-28 02:00,ZBYN 280200Z AUTO 00000KT 7SM 16/09 A3021 RMK T01600090 IEM_DS3505
ZBYN,1990-09-28 03:00,ZBYN 280300Z AUTO 00000KT 6SM 18/09 A3018 RMK SLP204 T01780094 57003 IEM_DS3505
ZBYN,1990-09-28 04:00,ZBYN 280400Z AUTO 18006KT 7SM 20/10 A3018 RMK T02000100 IEM_DS3505
ZBYN,1990-09-28 05:00,ZBYN 280500Z AUTO 19006KT 7SM 21/10 A3012 RMK T02100100 IEM_DS3505
ZBYN,1990-09-28 06:00,ZBYN 280600Z AUTO 20004KT 7SM 22/07 A3009 RMK SLP175 T02240074 4////0053 57020 IEM_DS3505
ZBYN,1990-09-28 07:00,ZBYN 280700Z AUTO 25004KT 7SM 23/09 A3009 RMK T02300090 IEM_DS3505
ZBYN,1990-09-28 08:00,ZBYN 280800Z AUTO 00000KT 7SM 24/08 A3006 RMK T02400080 IEM_DS3505
ZBYN,1990-09-28 09:00,ZBYN 280900Z AUTO 18004KT 7SM 22/08 A3006 RMK SLP167 T02180085 57013 IEM_DS3505
ZBYN,1990-09-28 10:00,ZBYN 281000Z AUTO 00000KT 6SM 21/11 A3006 RMK T02100110 IEM_DS3505
ZBYN,1990-09-28 11:00,ZBYN 281100Z AUTO 08002KT 6SM 17/12 A3006 RMK T01700120 IEM_DS3505
ZBYN,1990-09-28 12:00,ZBYN 281200Z AUTO 18002KT 6SM 14/12 A3009 RMK SLP191 T01370117 52013 IEM_DS3505
ZBYN,1990-09-28 13:00,ZBYN 281300Z AUTO 11006KT 6SM 14/11 A3009 RMK T01400110 IEM_DS3505
ZBYN,1990-09-28 14:00,ZBYN 281400Z AUTO 00000KT 6SM 12/11 A3012 RMK T01200110 IEM_DS3505
ZBYN,1990-09-28 15:00,ZBYN 281500Z AUTO 00000KT 6SM 12/10 RMK SLP184 T01200101 52004 IEM_DS3505
ZBYN,1990-09-28 16:00,ZBYN 281600Z AUTO 00000KT 6SM 12/11 A3012 RMK T01200110 IEM_DS3505
ZBYN,1990-09-28 17:00,ZBYN 281700Z AUTO 12002KT 6SM 12/11 A3012 RMK T01200110 IEM_DS3505
ZBYN,1990-09-28 18:00,ZBYN 281800Z AUTO 00000KT 5SM 10/09 A3009 RMK SLP177 T01000088 40228//// 57002 IEM_DS3505
ZBYN,1990-09-28 19:00,ZBYN 281900Z AUTO 00000KT 7SM 09/09 A3009 RMK T00900090 IEM_DS3505
ZBYN,1990-09-28 20:00,ZBYN 282000Z AUTO 00000KT 5SM 09/08 A3009 RMK T00900080 IEM_DS3505
ZBYN,1990-09-28 21:00,ZBYN 282100Z AUTO 00000KT 4SM 09/09 A3009 RMK SLP174 T00940088 57005 IEM_DS3505
ZBYN,1990-09-28 22:00,ZBYN 282200Z AUTO 00000KT 2 1/2SM 09/08 A3012 RMK T00900080 IEM_DS3505
ZBYN,1990-09-28 23:00,ZBYN 282300Z AUTO 00000KT 2 1/2SM 07/07 A3012 RMK T00700070 IEM_DS3505
ZBYN,1990-09-29 00:00,ZBYN 290000Z AUTO 00000KT 3SM 09/09 A3015 RMK SLP198 T00940088 52010 IEM_DS3505
ZBYN,1990-09-29 01:00,ZBYN 290100Z AUTO 00000KT 4SM 13/10 A3015 RMK T01300100 IEM_DS3505
ZBYN,1990-09-29 02:00,ZBYN 290200Z AUTO 00000KT 5SM 16/08 A3015 RMK T01600080 IEM_DS3505
ZBYN,1990-09-29 03:00,ZBYN 290300Z AUTO 00000KT 4SM 17/10 A3012 RMK SLP187 T01720103 57001 IEM_DS3505
ZBYN,1990-09-29 04:00,ZBYN 290400Z AUTO 00000KT 6SM 20/11 A3012 RMK T02000110 IEM_DS3505
ZBYN,1990-09-29 05:00,ZBYN 290500Z AUTO 01002KT 6SM 21/11 A3009 RMK T02100110 IEM_DS3505
ZBYN,1990-09-29 06:00,ZBYN 290600Z AUTO 18006KT 6SM 22/09 A3006 RMK SLP165 T02170093 4////0070 57016 IEM_DS3505
ZBYN,1990-09-29 07:00,ZBYN 290700Z AUTO 24010KT 6SM 23/08 A3006 RMK T02300080 IEM_DS3505
ZBYN,1990-09-29 08:00,ZBYN 290800Z AUTO 20004KT 6SM 23/07 A3003 RMK T02300070 IEM_DS3505
ZBYN,1990-09-29 09:00,ZBYN 290900Z AUTO 18004KT 7SM 22/10 A3009 RMK SLP154 T02210101 57011 IEM_DS3505
ZBYN,1990-09-29 10:00,ZBYN 291000Z AUTO 00000KT 6SM 20/12 A3006 RMK T02000120 IEM_DS3505
ZBYN,1990-09-29 11:00,ZBYN 291100Z AUTO 09004KT 6SM 18/12 A3006 RMK T01800120 IEM_DS3505
ZBYN,1990-09-29 12:00,ZBYN 291200Z AUTO 34002KT 11SM 16/11 A3006 RMK SLP179 T01550114 52013 IEM_DS3505
ZBYN,1990-09-29 13:00,ZBYN 291300Z AUTO 00000KT 6SM 14/12 A3009 RMK T01400120 IEM_DS3505
ZBYN,1990-09-29 14:00,ZBYN 291400Z AUTO 00000KT 6SM 12/11 RMK T01200110 IEM_DS3505
ZBYN,1990-09-29 15:00,ZBYN 291500Z AUTO 36008KT 9SM 17/06 RMK SLP185 T01680065 52019 IEM_DS3505
ZBYN,1990-09-29 16:00,ZBYN 291600Z AUTO 36006KT 7SM 13/09 A3015 RMK T01300090 IEM_DS3505
ZBYN,1990-09-29 17:00,ZBYN 291700Z AUTO 34006KT 7SM 12/06 A3015 RMK T01200060 IEM_DS3505
ZBYN,1990-09-29 18:00,ZBYN 291800Z AUTO 04002KT 9SM 13/06 A3018 RMK SLP194 T01300061 40230//// 52009 IEM_DS3505
ZBYN,1990-09-29 19:00,ZBYN 291900Z AUTO 33008KT 7SM 12/03 A3018 RMK T01200030 IEM_DS3505
ZBYN,1990-09-29 20:00,ZBYN 292000Z AUTO 34008KT 7SM 11/03 A3018 RMK T01100030 IEM_DS3505
ZBYN,1990-09-29 21:00,ZBYN 292100Z AUTO 32006KT 7SM 10/04 A3021 RMK SLP208 T01050045 52010 IEM_DS3505
ZBYN,1990-09-29 22:00,ZBYN 292200Z AUTO 06004KT 7SM 10/05 A3021 RMK T01000050 IEM_DS3505
ZBYN,1990-09-30 00:00,ZBYN 300000Z AUTO 34004KT 7SM 11/03 A3024 RMK SLP240 T01100033 52020 IEM_DS3505
ZBYN,1990-09-30 01:00,ZBYN 300100Z AUTO 35014KT 6SM 15/M01 A3027 RMK T01501010 IEM_DS3505
ZBYN,1990-09-30 02:00,ZBYN 300200Z AUTO 35010KT 7SM 18/01 A3027 RMK T01800010 IEM_DS3505
ZBYN,1990-09-30 03:00,ZBYN 300300Z AUTO 36006KT 7SM 17/M01 A3027 RMK SLP234 T01661006 52005 IEM_DS3505
ZBYN,1990-09-30 05:00,ZBYN 300500Z AUTO 31004KT 7SM 20/00 A3024 RMK T02000000 IEM_DS3505
ZBYN,1990-09-30 06:00,ZBYN 300600Z AUTO 04002KT 9SM 20/01 RMK SLP208 T01990006 4////0088 57024 IEM_DS3505
ZBYN,1990-09-30 07:00,ZBYN 300700Z AUTO 27004KT 7SM 22/03 A3018 RMK T02200030 IEM_DS3505
ZBYN,1990-09-30 08:00,ZBYN 300800Z AUTO 27010KT 7SM 21/04 A3018 RMK T02100040 IEM_DS3505
ZBYN,1990-09-30 09:00,ZBYN 300900Z AUTO 32004KT 9SM 19/04 A3018 RMK SLP210 T01940038 57003 IEM_DS3505
ZBYN,1990-09-30 10:00,ZBYN 301000Z AUTO 33006KT 7SM 17/04 A3021 RMK T01700040 IEM_DS3505
ZBYN,1990-09-30 12:00,ZBYN 301200Z AUTO 32006KT 17SM 13/04 A3024 RMK SLP231 T01320036 52011 IEM_DS3505
ZBYN,1990-09-30 13:00,ZBYN 301300Z AUTO 00000KT 6SM 11/05 A3024 RMK T01100050 IEM_DS3505
ZBYN,1990-09-30 14:00,ZBYN 301400Z AUTO 36006KT 7SM 11/02 A3027 RMK T01100020 IEM_DS3505
ZBYN,1990-09-30 15:00,ZBYN 301500Z AUTO 34002KT 12SM 10/03 A3030 RMK SLP243 T01030027 52015 IEM_DS3505
ZBYN,1990-09-30 16:00,ZBYN 301600Z AUTO 29006KT 7SM 07/05 A3030 RMK T00700050 IEM_DS3505
ZBYN,1990-09-30 17:00,ZBYN 301700Z AUTO 00000KT 7SM 07/04 A3030 RMK T00700040 IEM_DS3505
ZBYN,1990-09-30 18:00,ZBYN 301800Z AUTO 34004KT 12SM 08/03 A3033 RMK SLP253 T00830026 40212//// 52011 IEM_DS3505
ZBYN,1990-09-30 19:00,ZBYN 301900Z AUTO 16004KT 7SM 06/03 A3033 RMK T00600030 IEM_DS3505
ZBYN,1990-09-30 20:00,ZBYN 302000Z AUTO 05004KT 7SM 04/02 A3030 RMK T00400020 IEM_DS3505
ZBYN,1990-09-30 21:00,ZBYN 302100Z AUTO 34004KT 9SM 06/02 A3033 RMK SLP257 T00650015 54000 IEM_DS3505
ZBYN,1990-09-30 22:00,ZBYN 302200Z AUTO 00000KT 7SM 03/02 A3033 RMK T00300020 IEM_DS3505
ZBYN,1990-09-30 23:00,ZBYN 302300Z AUTO 15004KT 6SM 03/02 A3036 RMK T00300020 IEM_DS3505
ZBYN,1990-10-01 00:00,ZBYN 010000Z AUTO 34004KT 9SM 03/M00 RMK SLP280 T00311002 52016 IEM_DS3505
ZBYN,1990-10-01 01:00,ZBYN 010100Z AUTO 00000KT 7SM 12/03 A3036 RMK T01200030 IEM_DS3505
ZBYN,1990-10-01 02:00,ZBYN 010200Z AUTO 00000KT 7SM 15/01 A3036 RMK T01500010 IEM_DS3505
ZBYN,1990-10-01 03:00,ZBYN 010300Z AUTO 34006KT 11SM 16/M00 A3036 RMK SLP269 T01591005 57002 IEM_DS3505
ZBYN,1990-10-01 04:00,ZBYN 010400Z AUTO 28004KT 7SM 18/M04 A3033 RMK T01801040 IEM_DS3505
ZBYN,1990-10-01 05:00,ZBYN 010500Z AUTO 24004KT 7SM 19/M03 A3030 RMK T01901030 IEM_DS3505
ZBYN,1990-10-01 06:00,ZBYN 010600Z AUTO 22002KT 12SM 20/M00 A3027 RMK SLP239 T02001001 4////0044 57023 IEM_DS3505
ZBYN,1990-10-01 07:00,ZBYN 010700Z AUTO 21006KT 7SM 20/M01 A3024 RMK T02001010 IEM_DS3505
ZBYN,1990-10-01 08:00,ZBYN 010800Z AUTO 24006KT 7SM 21/01 A3021 RMK T02100010 IEM_DS3505
ZBYN,1990-10-01 09:00,ZBYN 010900Z AUTO 00000KT 12SM 19/04 RMK SLP228 T01920041 57015 IEM_DS3505
ZBYN,1990-10-01 10:00,ZBYN 011000Z AUTO 00000KT 7SM 18/09 A3021 RMK T01800090 IEM_DS3505
ZBYN,1990-10-01 11:00,ZBYN 011100Z AUTO 00000KT 7SM 13/06 A3021 RMK T01300060 IEM_DS3505
ZBYN,1990-10-01 12:00,ZBYN 011200Z AUTO 00000KT 7SM 10/08 A3024 RMK SLP243 T00970075 52005 IEM_DS3505
ZBYN,1990-10-01 13:00,ZBYN 011300Z AUTO 00000KT 7SM 09/07 A3027 RMK T00900070 IEM_DS3505
ZBYN,1990-10-01 14:00,ZBYN 011400Z AUTO 15004KT 7SM 10/04 A3027 RMK T01000040 IEM_DS3505
ZBYN,1990-10-01 15:00,ZBYN 011500Z AUTO 00000KT 7SM 10/04 A3027 RMK SLP237 T01000042 52007 IEM_DS3505
ZBYN,1990-10-01 16:00,ZBYN 011600Z AUTO 00000KT 7SM 06/05 A3027 RMK T00600050 IEM_DS3505
ZBYN,1990-10-01 17:00,ZBYN 011700Z AUTO 00000KT 7SM 06/04 A3027 RMK T00600040 IEM_DS3505
ZBYN,1990-10-01 18:00,ZBYN 011800Z AUTO 36004KT 7SM 09/02 A3027 RMK SLP230 T00930020 40202//// 57002 IEM_DS3505
ZBYN,1990-10-01 19:00,ZBYN 011900Z AUTO 00000KT 6SM 07/03 A3024 RMK T00700030 IEM_DS3505
ZBYN,1990-10-01 20:00,ZBYN 012000Z AUTO 00000KT 7SM 05/04 A3024 RMK T00500040 IEM_DS3505
ZBYN,1990-10-01 21:00,ZBYN 012100Z AUTO 34004KT 6SM 08/03 A3024 RMK SLP226 T00750029 57007 IEM_DS3505
ZBYN,1990-10-01 22:00,ZBYN 012200Z AUTO 00000KT 6SM 06/04 A3021 RMK T00600040 IEM_DS3505
ZBYN,1990-10-01 23:00,ZBYN 012300Z AUTO 00000KT 6SM 06/05 A3024 RMK T00600050 IEM_DS3505
ZBYN,1990-10-02 00:00,ZBYN 020000Z AUTO 22004KT 6SM 09/03 A3024 RMK SLP248 T00920034 52008 IEM_DS3505
ZBYN,1990-10-02 01:00,ZBYN 020100Z AUTO 20004KT 6SM 11/05 A3027 RMK T01100050 IEM_DS3505
ZBYN,1990-10-02 02:00,ZBYN 020200Z AUTO 00000KT 5SM RMK IEM_DS3505
ZBYN,1990-10-02 03:00,ZBYN 020300Z AUTO 00000KT 4SM 12/06 A3027 RMK SLP246 T01160061 52002 IEM_DS3505
ZBYN,1990-10-02 04:00,ZBYN 020400Z AUTO 00000KT 5SM 12/07 A3024 RMK T01200070 IEM_DS3505
ZBYN,1990-10-02 05:00,ZBYN 020500Z AUTO 23008KT 4SM 11/08 A3024 RMK T01100080 IEM_DS3505
ZBYN,1990-10-02 06:00,ZBYN 020600Z AUTO 00000KT 4SM 10/08 RMK 60008 SLP235 T01000080 4////0069 57013 IEM_DS3505
ZBYN,1990-10-02 07:00,ZBYN 020700Z AUTO 00000KT 4SM 10/09 A3021 RMK T01000090 IEM_DS3505
ZBYN,1990-10-02 08:00,ZBYN 020800Z AUTO 08004KT 4SM 09/08 A3018 RMK T00900080 IEM_DS3505
ZBYN,1990-10-02 09:00,ZBYN 020900Z AUTO 00000KT 4SM 09/08 A3018 RMK SLP225 T00930083 57013 IEM_DS3505
ZBYN,1990-10-02 10:00,ZBYN 021000Z AUTO 00000KT 1SM 10/09 A3018 RMK T01000090 IEM_DS3505
ZBYN,1990-10-02 11:00,ZBYN 021100Z AUTO 00000KT 1SM 10/09 A3018 RMK T01000090 IEM_DS3505
ZBYN,1990-10-02 12:00,ZBYN 021200Z AUTO 00000KT 2 1/2SM 10/09 RMK 60024 SLP218 T00970091 57003 IEM_DS3505
ZBYN,1990-10-02 13:00,ZBYN 021300Z AUTO 00000KT 1SM 10/10 A3018 RMK T01000100 IEM_DS3505
ZBYN,1990-10-02 14:00,ZBYN 021400Z AUTO 34004KT 1SM 10/10 A3018 RMK T01000100 IEM_DS3505
ZBYN,1990-10-02 15:00,ZBYN 021500Z AUTO 34002KT 2 1/2SM 10/09 RMK SLP215 T01020094 52001 IEM_DS3505
ZBYN,1990-10-02 16:00,ZBYN 021600Z AUTO 32004KT 1SM 10/10 A3018 RMK T01000100 IEM_DS3505
ZBYN,1990-10-02 17:00,ZBYN 021700Z AUTO 30004KT 1SM 10/10 A3015 RMK T01000100 IEM_DS3505
ZBYN,1990-10-02 18:00,ZBYN 021800Z AUTO 00000KT 3/8SM 10/10 RMK 60001 SLP211 T01040096 40122//// 57005 IEM_DS3505
ZBYN,1990-10-02 21:00,ZBYN 022100Z AUTO 22002KT 1/4SM 10/10 RMK 70031 SLP205 T01010099 57007 IEM_DS3505
ZBYN,1990-10-02 22:00,ZBYN 022200Z AUTO 00000KT 1SM 10/10 A3012 RMK T01000100 IEM_DS3505
ZBYN,1990-10-02 23:00,ZBYN 022300Z AUTO 00000KT 1SM 10/10 A3015 RMK T01000100 IEM_DS3505
ZBYN,1990-10-03 00:00,ZBYN 030000Z AUTO 00000KT 2SM 17/10 RMK SLP221 T01700101 52016 IEM_DS3505
ZBYN,1990-10-03 01:00,ZBYN 030100Z AUTO 24006KT 1 1/2SM 11/10 RMK T01100100 IEM_DS3505
ZBYN,1990-10-03 02:00,ZBYN 030200Z AUTO 00000KT 2SM 12/10 A3021 RMK T01200100 IEM_DS3505
ZBYN,1990-10-03 03:00,ZBYN 030300Z AUTO 11004KT 4SM 14/11 A3018 RMK SLP217 T01380109 52002 IEM_DS3505
ZBYN,1990-10-03 04:00,ZBYN 030400Z AUTO 00000KT 7SM 15/10 A3015 RMK T01500100 IEM_DS3505
ZBYN,1990-10-03 05:00,ZBYN 030500Z AUTO 17006KT 7SM 17/10 A3012 RMK T01700100 IEM_DS3505
ZBYN,1990-10-03 06:00,ZBYN 030600Z AUTO 18006KT 6SM 18/11 A3012 RMK SLP183 T01810110 4////0089 57025 IEM_DS3505
ZBYN,1990-10-03 07:00,ZBYN 030700Z AUTO 12006KT 7SM 19/10 A3009 RMK T01900100 IEM_DS3505
ZBYN,1990-10-03 08:00,ZBYN 030800Z AUTO 20004KT 7SM 19/10 A3006 RMK T01900100 IEM_DS3505
ZBYN,1990-10-03 09:00,ZBYN 030900Z AUTO 18004KT 7SM 19/10 A3006 RMK SLP170 T01860104 57011 IEM_DS3505
ZBYN,1990-10-03 10:00,ZBYN 031000Z AUTO 14004KT 7SM 17/12 A3006 RMK T01700120 IEM_DS3505
ZBYN,1990-10-03 11:00,ZBYN 031100Z AUTO 10004KT 7SM 15/11 A3009 RMK T01500110 IEM_DS3505
ZBYN,1990-10-03 12:00,ZBYN 031200Z AUTO 18004KT 7SM 13/11 A3009 RMK SLP185 T01260106 52005 IEM_DS3505
ZBYN,1990-10-03 13:00,ZBYN 031300Z AUTO 11004KT 7SM 10/10 A3015 RMK T01000100 IEM_DS3505
ZBYN,1990-10-03 15:00,ZBYN 031500Z AUTO 00000KT 5SM 10/09 RMK SLP193 T00960092 52008 IEM_DS3505
ZBYN,1990-10-03 15:18,ZBYN 031518Z AUTO 11004KT 7SM 10/10 A3015 RMK T01000100 IEM_DS3505
ZBYN,1990-10-03 18:00,ZBYN 031800Z AUTO 00000KT 3SM 08/08 RMK SLP192 T00780076 40191//// 52003 IEM_DS3505
ZBYN,1990-10-03 21:00,ZBYN 032100Z AUTO 00000KT 1/2SM 05/05 RMK SLP199 T00540052 52003 IEM_DS3505
ZBYN,1990-10-04 00:00,ZBYN 040000Z AUTO 00000KT 1 1/4SM 08/03 RMK SLP217 T00810033 52012 IEM_DS3505
ZBYN,1990-10-04 01:00,ZBYN 040100Z AUTO 00000KT 2SM 12/09 A3018 RMK T01200090 IEM_DS3505
ZBYN,1990-10-04 02:00,ZBYN 040200Z AUTO 00000KT 3SM 14/10 A3021 RMK T01400100 IEM_DS3505
ZBYN,1990-10-04 03:00,ZBYN 040300Z AUTO 00000KT 4SM 16/09 A3018 RMK SLP269 T01600093 54000 IEM_DS3505
ZBYN,1990-10-04 04:00,ZBYN 040400Z AUTO 17004KT 7SM 19/09 A3015 RMK T01900090 IEM_DS3505
ZBYN,1990-10-04 05:00,ZBYN 040500Z AUTO 23004KT 7SM 21/08 A3012 RMK T02100080 IEM_DS3505
ZBYN,1990-10-04 06:00,ZBYN 040600Z AUTO 14004KT 7SM 22/09 A3012 RMK SLP178 T02160094 4////0047 57023 IEM_DS3505
ZBYN,1990-10-04 07:00,ZBYN 040700Z AUTO 24004KT 7SM 23/08 A3009 RMK T02300080 IEM_DS3505
ZBYN,1990-10-04 09:00,ZBYN 040900Z AUTO 16006KT 12SM 22/10 A3009 RMK SLP172 T02180095 57009 IEM_DS3505
ZBYN,1990-10-04 10:00,ZBYN 041000Z AUTO 13004KT 7SM 20/12 A3009 RMK T02000120 IEM_DS3505
ZBYN,1990-10-04 11:00,ZBYN 041100Z AUTO 10006KT 7SM 16/13 A3009 RMK T01600130 IEM_DS3505
ZBYN,1990-10-04 12:00,ZBYN 041200Z AUTO 11004KT 9SM 14/10 RMK SLP195 T01410098 52014 IEM_DS3505
ZBYN,1990-10-04 13:00,ZBYN 041300Z AUTO 12006KT 7SM 13/10 A3012 RMK T01300100 IEM_DS3505
ZBYN,1990-10-04 14:00,ZBYN 041400Z AUTO 09006KT 7SM 13/10 A3015 RMK T01300100 IEM_DS3505
ZBYN,1990-10-04 15:00,ZBYN 041500Z AUTO 00000KT 6SM 10/10 A3015 RMK SLP201 T01050097 52012 IEM_DS3505
ZBYN,1990-10-04 16:00,ZBYN 041600Z AUTO 08004KT 7SM 12/10 A3015 RMK T01200100 IEM_DS3505
ZBYN,1990-10-04 18:00,ZBYN 041800Z AUTO 11004KT 6SM 09/08 A3015 RMK SLP195 T00860084 40230//// 54000 IEM_DS3505
ZBYN,1990-10-04 19:00,ZBYN 041900Z AUTO 00000KT 7SM 09/08 A3015 RMK T00900080 IEM_DS3505
ZBYN,1990-10-04 20:00,ZBYN 042000Z AUTO 00000KT 3SM 08/08 A3015 RMK T00800080 IEM_DS3505
ZBYN,1990-10-04 21:00,ZBYN 042100Z AUTO 07004KT 5SM 08/07 A3015 RMK SLP195 T00790073 57001 IEM_DS3505
ZBYN,1990-10-04 22:00,ZBYN 042200Z AUTO 00000KT 1 1/4SM 07/07 A3018 RMK T00700070 IEM_DS3505
ZBYN,1990-10-04 23:00,ZBYN 042300Z AUTO 00000KT 1SM 05/05 A3018 RMK T00500050 IEM_DS3505
ZBYN,1990-10-05 00:00,ZBYN 050000Z AUTO 00000KT 5SM 08/08 A3021 RMK SLP222 T00810077 52013 IEM_DS3505
ZBYN,1990-10-05 01:00,ZBYN 050100Z AUTO 00000KT 4SM 12/11 A3021 RMK T01200110 IEM_DS3505
ZBYN,1990-10-05 02:00,ZBYN 050200Z AUTO 00000KT 5SM 16/11 A3021 RMK T01600110 IEM_DS3505
ZBYN,1990-10-05 03:00,ZBYN 050300Z AUTO 20002KT 5SM 19/10 A3021 RMK SLP211 T01880104 52001 IEM_DS3505
ZBYN,1990-10-05 04:00,ZBYN 050400Z AUTO 00000KT 7SM 21/11 A3021 RMK T02100110 IEM_DS3505
ZBYN,1990-10-05 05:00,ZBYN 050500Z AUTO 24004KT 7SM 22/08 A3018 RMK T02200080 IEM_DS3505
ZBYN,1990-10-05 06:00,ZBYN 050600Z AUTO 18006KT 6SM 23/10 RMK SLP192 T02310099 4////0058 57014 IEM_DS3505
ZBYN,1990-10-05 07:00,ZBYN 050700Z AUTO 21006KT 7SM 25/10 A3012 RMK T02500100 IEM_DS3505
ZBYN,1990-10-05 08:00,ZBYN 050800Z AUTO 18008KT 7SM 25/09 A3012 RMK T02500090 IEM_DS3505
ZBYN,1990-10-05 09:00,ZBYN 050900Z AUTO 18004KT 9SM 23/11 A3012 RMK T02300113 57017 IEM_DS3505
ZBYN,1990-10-05 10:00,ZBYN 051000Z AUTO 00000KT 6SM 21/15 A3012 RMK T02100150 IEM_DS3505
ZBYN,1990-10-05 11:00,ZBYN 051100Z AUTO 00000KT 6SM 18/14 A3012 RMK T01800140 IEM_DS3505
ZBYN,1990-10-05 12:00,ZBYN 051200Z AUTO 34004KT 9SM 17/11 A3015 RMK SLP207 T01670110 52021 IEM_DS3505
ZBYN,1990-10-05 13:00,ZBYN 051300Z AUTO 16004KT 7SM 14/11 A3021 RMK T01400110 IEM_DS3505
ZBYN,1990-10-05 15:00,ZBYN 051500Z AUTO 32004KT 9SM 14/09 RMK SLP221 T01400093 52024 IEM_DS3505
ZBYN,1990-10-05 16:00,ZBYN 051600Z AUTO 00000KT 6SM 12/09 A3027 RMK T01200090 IEM_DS3505
ZBYN,1990-10-05 18:00,ZBYN 051800Z AUTO 32004KT 9SM 14/07 A3027 RMK SLP222 T01450068 40242//// 52008 IEM_DS3505
ZBYN,1990-10-05 19:00,ZBYN 051900Z AUTO 00000KT 6SM 11/10 A3027 RMK T01100100 IEM_DS3505
ZBYN,1990-10-05 20:00,ZBYN 052000Z AUTO 07006KT 6SM 15/09 A3030 RMK T01500090 IEM_DS3505
ZBYN,1990-10-05 21:00,ZBYN 052100Z AUTO 00000KT 7SM 12/07 A3033 RMK SLP238 T01180068 52011 IEM_DS3505
ZBYN,1990-10-05 22:00,ZBYN 052200Z AUTO 10006KT 6SM 14/01 A3033 RMK T01400010 IEM_DS3505
ZBYN,1990-10-05 23:00,ZBYN 052300Z AUTO 09008KT 6SM 13/02 A3036 RMK T01300020 IEM_DS3505
ZBYN,1990-10-06 00:00,ZBYN 060000Z AUTO 04002KT 7SM 15/04 A3039 RMK SLP261 T01480042 52016 IEM_DS3505
ZBYN,1990-10-06 01:00,ZBYN 060100Z AUTO 09012KT 6SM 16/03 A3039 RMK T01600030 IEM_DS3505
ZBYN,1990-10-06 02:00,ZBYN 060200Z AUTO 09008KT 6SM 18/05 A3039 RMK T01800050 IEM_DS3505
ZBYN,1990-10-06 03:00,ZBYN 060300Z AUTO 34004KT 6SM 18/05 RMK SLP266 T01780047 52005 IEM_DS3505
ZBYN,1990-10-06 04:00,ZBYN 060400Z AUTO 09010KT 6SM 19/06 A3036 RMK T01900060 IEM_DS3505
ZBYN,1990-10-06 05:00,ZBYN 060500Z AUTO 08010KT 6SM 19/06 A3033 RMK T01900060 IEM_DS3505
ZBYN,1990-10-06 06:00,ZBYN 060600Z AUTO 14004KT 6SM 21/07 A3027 RMK SLP231 T02090069 4////0102 57027 IEM_DS3505
ZBYN,1990-10-06 07:00,ZBYN 060700Z AUTO 16004KT 6SM 21/07 A3027 RMK T02100070 IEM_DS3505
ZBYN,1990-10-06 08:00,ZBYN 060800Z AUTO 15004KT 6SM 21/06 A3024 RMK T02100060 IEM_DS3505
ZBYN,1990-10-06 09:00,ZBYN 060900Z AUTO 18004KT 9SM 19/09 A3024 RMK SLP217 T01860091 57020 IEM_DS3505
ZBYN,1990-10-06 10:00,ZBYN 061000Z AUTO 00000KT 6SM 18/12 A3024 RMK T01800120 IEM_DS3505
ZBYN,1990-10-06 11:00,ZBYN 061100Z AUTO 21004KT 7SM 14/11 A3024 RMK T01400110 IEM_DS3505
ZBYN,1990-10-06 12:00,ZBYN 061200Z AUTO 18004KT 7SM 13/10 A3024 RMK SLP229 T01280100 52007 IEM_DS3505
ZBYN,1990-10-06 14:00,ZBYN 061400Z AUTO 11006KT 6SM 13/08 A3024 RMK T01300080 IEM_DS3505
ZBYN,1990-10-06 15:00,ZBYN 061500Z AUTO 00000KT 7SM 11/09 A3024 RMK SLP229 T01080091 52001 IEM_DS3505
ZBYN,1990-10-06 16:00,ZBYN 061600Z AUTO 00000KT 6SM 11/08 A3024 RMK T01100080 IEM_DS3505
ZBYN,1990-10-06 17:00,ZBYN 061700Z AUTO 00000KT 6SM 11/08 A3024 RMK T01100080 IEM_DS3505
ZBYN,1990-10-06 18:00,ZBYN 061800Z AUTO 00000KT 6SM 09/09 RMK SLP221 T00940088 40212//// 57004 IEM_DS3505
ZBYN,1990-10-06 21:00,ZBYN 062100Z AUTO 34004KT 5SM 11/08 A3021 RMK SLP214 T01080082 57008 IEM_DS3505
ZBYN,1990-10-06 22:00,ZBYN 062200Z AUTO 21004KT 4SM 09/08 A3021 RMK T00900080 IEM_DS3505
ZBYN,1990-10-06 23:00,ZBYN 062300Z AUTO 04004KT 4SM 09/08 A3021 RMK T00900080 IEM_DS3505
ZBYN,1990-10-07 00:00,ZBYN 070000Z AUTO 00000KT 5SM 11/09 A3021 RMK SLP229 T01110092 52005 IEM_DS3505
ZBYN,1990-10-07 01:00,ZBYN 070100Z AUTO 00000KT 5SM 13/10 A3021 RMK T01300100 IEM_DS3505
ZBYN,1990-10-07 02:00,ZBYN 070200Z AUTO 00000KT 6SM 15/09 A3021 RMK T01500090 IEM_DS3505
ZBYN,1990-10-07 03:00,ZBYN 070300Z AUTO 00000KT 5SM 18/09 A3021 RMK SLP214 T01750094 57007 IEM_DS3505
ZBYN,1990-10-07 04:00,ZBYN 070400Z AUTO 00000KT 6SM 19/10 A3018 RMK T01900100 IEM_DS3505
ZBYN,1990-10-07 05:00,ZBYN 070500Z AUTO 22006KT 6SM 21/11 A3015 RMK T02100110 IEM_DS3505
ZBYN,1990-10-07 06:00,ZBYN 070600Z AUTO 16004KT 9SM 22/11 A3012 RMK T02230108 IEM_DS3505
ZBYN,1990-10-07 07:00,ZBYN 070700Z AUTO 00000KT 6SM 24/09 A3012 RMK T02400090 IEM_DS3505
ZBYN,1990-10-07 08:00,ZBYN 070800Z AUTO 00000KT 6SM 23/10 A3012 RMK T02300100 IEM_DS3505
ZBYN,1990-10-07 09:00,ZBYN 070900Z AUTO 00000KT 12SM 21/12 A3012 RMK SLP179 T02090118 57005 IEM_DS3505
ZBYN,1990-10-07 10:00,ZBYN 071000Z AUTO 03010KT 6SM 22/M01 A3012 RMK T02201010 IEM_DS3505
ZBYN,1990-10-07 11:00,ZBYN 071100Z AUTO 06006KT 7SM 18/06 A3015 RMK T01800060 IEM_DS3505
ZBYN,1990-10-07 12:00,ZBYN 071200Z AUTO 36002KT 7SM 18/06 A3018 RMK SLP204 T01760063 52019 IEM_DS3505
ZBYN,1990-10-07 13:00,ZBYN 071300Z AUTO 04004KT 6SM 16/09 A3018 RMK T01600090 IEM_DS3505
ZBYN,1990-10-07 14:00,ZBYN 071400Z AUTO 34006KT 6SM 15/10 A3021 RMK T01500100 IEM_DS3505
ZBYN,1990-10-07 15:00,ZBYN 071500Z AUTO 02004KT 7SM 16/08 A3021 RMK SLP205 T01640076 52008 IEM_DS3505
ZBYN,1990-10-07 17:00,ZBYN 071700Z AUTO 21004KT 6SM 14/10 A3021 RMK T01400100 IEM_DS3505
ZBYN,1990-10-07 18:00,ZBYN 071800Z AUTO 34004KT 7SM 14/09 A3021 RMK SLP205 T01430086 40233//// 52004 IEM_DS3505
ZBYN,1990-10-07 19:00,ZBYN 071900Z AUTO 00000KT 6SM 13/10 A3021 RMK T01300100 IEM_DS3505
ZBYN,1990-10-07 20:00,ZBYN 072000Z AUTO 00000KT 6SM 13/10 A3024 RMK T01300100 IEM_DS3505
ZBYN,1990-10-07 21:00,ZBYN 072100Z AUTO 02004KT 6SM 14/08 A3024 RMK SLP222 T01390079 52013 IEM_DS3505
ZBYN,1990-10-07 22:00,ZBYN 072200Z AUTO 00000KT 6SM 11/10 A3027 RMK T01100100 IEM_DS3505
ZBYN,1990-10-07 23:00,ZBYN 072300Z AUTO 00000KT 6SM 12/09 A3027 RMK T01200090 IEM_DS3505
ZBYN,1990-10-08 00:00,ZBYN 080000Z AUTO 34004KT 6SM 13/08 A3030 RMK SLP251 T01280079 52020 IEM_DS3505
ZBYN,1990-10-08 01:00,ZBYN 080100Z AUTO 35004KT 2SM 15/10 A3036 RMK T01500100 IEM_DS3505
ZBYN,1990-10-08 02:00,ZBYN 080200Z AUTO 09006KT 6SM 18/09 A3036 RMK T01800090 IEM_DS3505
ZBYN,1990-10-08 03:00,ZBYN 080300Z AUTO 34004KT 5SM 19/08 A3033 RMK SLP247 T01860079 52003 IEM_DS3505
ZBYN,1990-10-08 06:00,ZBYN 080600Z AUTO 00000KT 6SM 22/08 RMK SLP234 T02200083 4////0116 57010 IEM_DS3505
ZBYN,1990-10-08 07:00,ZBYN 080700Z AUTO 11008KT 6SM 22/07 A3027 RMK T02200070 IEM_DS3505
ZBYN,1990-10-08 08:00,ZBYN 080800Z AUTO 10006KT 6SM 21/08 A3027 RMK T02100080 IEM_DS3505
ZBYN,1990-10-08 09:00,ZBYN 080900Z AUTO 09008KT 3/8SM 20/07 RMK SLP232 T02020072 57005 IEM_DS3505
ZBYN,1990-10-08 12:00,ZBYN 081200Z AUTO 00000KT 6SM 15/10 A3036 RMK SLP264 T01520096 52020 IEM_DS3505
ZBYN,1990-10-08 13:00,ZBYN 081300Z AUTO 09006KT 6SM 15/08 A3039 RMK T01500080 IEM_DS3505
ZBYN,1990-10-08 14:00,ZBYN 081400Z AUTO 03004KT 6SM 14/08 A3039 RMK T01400080 IEM_DS3505
ZBYN,1990-10-08 15:00,ZBYN 081500Z AUTO 00000KT 9SM 11/10 A3039 RMK SLP270 T01090098 52008 IEM_DS3505
ZBYN,1990-10-08 16:00,ZBYN 081600Z AUTO 08006KT 6SM 14/07 A3039 RMK T01400070 IEM_DS3505
ZBYN,1990-10-08 17:00,ZBYN 081700Z AUTO 09004KT 6SM 13/08 A3042 RMK T01300080 IEM_DS3505
ZBYN,1990-10-08 18:00,ZBYN 081800Z AUTO 36004KT 5SM 11/09 A3042 RMK SLP271 T01090090 40230//// 52006 IEM_DS3505
ZBYN,1990-10-08 19:00,ZBYN 081900Z AUTO 00000KT 6SM 12/09 A3042 RMK T01200090 IEM_DS3505
ZBYN,1990-10-08 20:00,ZBYN 082000Z AUTO 06008KT 6SM 14/07 A3042 RMK T01400070 IEM_DS3505
ZBYN,1990-10-08 21:00,ZBYN 082100Z AUTO 00000KT 5SM 12/08 A3042 RMK SLP291 T01170082 52017 IEM_DS3505
ZBYN,1990-10-08 22:00,ZBYN 082200Z AUTO 09010KT 6SM 13/06 A3045 RMK T01300060 IEM_DS3505
ZBYN,1990-10-08 23:00,ZBYN 082300Z AUTO 09010KT 6SM 13/06 A3045 RMK T01300060 IEM_DS3505
ZBYN,1990-10-09 00:00,ZBYN 090000Z AUTO 07004KT 5SM 13/05 A3047 RMK SLP309 T01320051 52011 IEM_DS3505
ZBYN,1990-10-09 01:00,ZBYN 090100Z AUTO 09016KT 7SM 13/06 A3050 RMK T01300060 IEM_DS3505
ZBYN,1990-10-09 02:00,ZBYN 090200Z AUTO 09014KT 7SM 14/06 A3050 RMK T01400060 IEM_DS3505
ZBYN,1990-10-09 03:00,ZBYN 090300Z AUTO 11014KT 6SM 15/06 A3050 RMK SLP321 T01500065 52007 IEM_DS3505
ZBYN,1990-10-09 04:00,ZBYN 090400Z AUTO 09012KT 7SM 15/07 A3050 RMK T01500070 IEM_DS3505
ZBYN,1990-10-09 05:00,ZBYN 090500Z AUTO 11010KT 6SM 16/08 A3047 RMK T01600080 IEM_DS3505
ZBYN,1990-10-09 06:00,ZBYN 090600Z AUTO 16004KT 5SM 16/06 A3047 RMK SLP305 T01630065 4////0095 57012 IEM_DS3505
ZBYN,1990-10-09 07:00,ZBYN 090700Z AUTO 18008KT 6SM 16/04 RMK T01600040 IEM_DS3505
ZBYN,1990-10-09 08:00,ZBYN 090800Z AUTO 17008KT 6SM 16/06 A3045 RMK T01600060 IEM_DS3505
ZBYN,1990-10-09 09:00,ZBYN 090900Z AUTO 22002KT 6SM 15/08 A3045 RMK SLP293 T01480083 57012 IEM_DS3505
ZBYN,1990-10-09 10:00,ZBYN 091000Z AUTO 14006KT 6SM 15/07 A3042 RMK T01500070 IEM_DS3505
ZBYN,1990-10-09 11:00,ZBYN 091100Z AUTO 09008KT 6SM 14/08 A3045 RMK T01400080 IEM_DS3505
ZBYN,1990-10-09 12:00,ZBYN 091200Z AUTO 12004KT 6SM 13/08 A3047 RMK T01300080 IEM_DS3505
ZBYN,1990-10-09 13:00,ZBYN 091300Z AUTO 12004KT 6SM 13/08 A3047 RMK T01300080 IEM_DS3505
ZBYN,1990-10-09 14:00,ZBYN 091400Z AUTO 09008KT 6SM 12/07 A3045 RMK T01200070 IEM_DS3505
ZBYN,1990-10-09 15:00,ZBYN 091500Z AUTO 11004KT 6SM 12/07 A3045 RMK SLP297 T01220070 52002 IEM_DS3505
ZBYN,1990-10-09 16:00,ZBYN 091600Z AUTO 10008KT 7SM 12/07 A3045 RMK T01200070 IEM_DS3505
ZBYN,1990-10-09 18:00,ZBYN 091800Z AUTO 18004KT 6SM 11/08 RMK SLP292 T01120080 40168//// 57004 IEM_DS3505
ZBYN,1990-10-09 20:00,ZBYN 092000Z AUTO 07008KT 7SM 10/09 A3039 RMK T01000090 IEM_DS3505
ZBYN,1990-10-09 21:00,ZBYN 092100Z AUTO 11002KT 5SM 10/08 A3039 RMK T01020081 57011 IEM_DS3505
ZBYN,1990-10-09 22:00,ZBYN 092200Z AUTO 11006KT 7SM 10/09 A3039 RMK T01000090 IEM_DS3505
ZBYN,1990-10-09 23:00,ZBYN 092300Z AUTO 13006KT 5SM 10/09 A3039 RMK T01000090 IEM_DS3505
ZBYN,1990-10-10 00:00,ZBYN 100000Z AUTO 14004KT 4SM 10/09 RMK 60004 SLP288 T00980092 52001 IEM_DS3505
ZBYN,1990-10-10 02:00,ZBYN 100200Z AUTO 16010KT 7SM 11/08 A3042 RMK T01100080 IEM_DS3505
ZBYN,1990-10-10 03:00,ZBYN 100300Z AUTO 16004KT 6SM 12/08 A3042 RMK SLP288 T01160085 52001 IEM_DS3505
ZBYN,1990-10-10 04:00,ZBYN 100400Z AUTO 15008KT 7SM 13/08 A3039 RMK T01300080 IEM_DS3505
ZBYN,1990-10-10 05:00,ZBYN 100500Z AUTO 16010KT 7SM 13/07 A3036 RMK T01300070 IEM_DS3505
ZBYN,1990-10-10 06:00,ZBYN 100600Z AUTO 22004KT 7SM 12/09 A3036 RMK SLP270 T01220089 57017 IEM_DS3505
ZBYN,1990-10-10 07:00,ZBYN 100700Z AUTO 22004KT 7SM 12/08 A3033 RMK T01200080 IEM_DS3505
ZBYN,1990-10-10 09:00,ZBYN 100900Z AUTO 18004KT 7SM 12/08 A3033 RMK SLP265 T01160079 57007 IEM_DS3505
ZBYN,1990-10-10 10:00,ZBYN 101000Z AUTO 00000KT 7SM 12/08 A3033 RMK T01200080 IEM_DS3505
ZBYN,1990-10-10 11:00,ZBYN 101100Z AUTO 00000KT 7SM 11/09 A3033 RMK T01100090 IEM_DS3505
ZBYN,1990-10-10 12:00,ZBYN 101200Z AUTO 14004KT 6SM 11/09 A3033 RMK SLP270 T01080087 52003 IEM_DS3505
ZBYN,1990-10-10 13:00,ZBYN 101300Z AUTO 00000KT 7SM 11/09 A3033 RMK T01100090 IEM_DS3505
ZBYN,1990-10-10 14:00,ZBYN 101400Z AUTO 00000KT 7SM 11/09 A3033 RMK T01100090 IEM_DS3505
ZBYN,1990-10-10 15:00,ZBYN 101500Z AUTO 14004KT 6SM 11/09 A3033 RMK SLP271 T01060089 52003 IEM_DS3505
ZBYN,1990-10-10 16:00,ZBYN 101600Z AUTO 00000KT 4SM 11/09 A3033 RMK T01100090 IEM_DS3505
ZBYN,1990-10-10 17:00,ZBYN 101700Z AUTO 00000KT 4SM 11/09 A3033 RMK T01100090 IEM_DS3505
ZBYN,1990-10-10 18:00,ZBYN 101800Z AUTO 00000KT 6SM 10/ A3033 RMK SLP267 40126//// 57003 IEM_DS3505
ZBYN,1990-10-10 19:00,ZBYN 101900Z AUTO 00000KT 2 1/2SM 10/09 A3033 RMK T01000090 IEM_DS3505
ZBYN,1990-10-10 20:00,ZBYN 102000Z AUTO 13004KT 2 1/2SM 10/09 A3033 RMK T01000090 IEM_DS3505
ZBYN,1990-10-10 21:00,ZBYN 102100Z AUTO 00000KT 6SM 09/08 A3036 RMK SLP275 T00860080 52004 IEM_DS3505
ZBYN,1990-10-10 22:00,ZBYN 102200Z AUTO 09004KT 3SM 09/08 A3033 RMK T00900080 IEM_DS3505
ZBYN,1990-10-10 23:00,ZBYN 102300Z AUTO 00000KT 2SM 09/08 A3036 RMK T00900080 IEM_DS3505
ZBYN,1990-10-11 00:00,ZBYN 110000Z AUTO 00000KT 4SM 10/09 A3036 RMK SLP281 T00960092 52005 IEM_DS3505
ZBYN,1990-10-11 01:00,ZBYN 110100Z AUTO 00000KT 4SM 11/09 A3039 RMK T01100090 IEM_DS3505
ZBYN,1990-10-11 02:00,ZBYN 110200Z AUTO 00000KT 4SM 13/09 A3039 RMK T01300090 IEM_DS3505
ZBYN,1990-10-11 03:00,ZBYN 110300Z AUTO 00000KT 5SM 15/10 A3036 RMK SLP259 T01530097 57011 IEM_DS3505
ZBYN,1990-10-11 04:00,ZBYN 110400Z AUTO 00000KT 5SM 16/09 A3033 RMK T01600090 IEM_DS3505
ZBYN,1990-10-11 05:00,ZBYN 110500Z AUTO 00000KT 7SM 17/08 A3027 RMK T01700080 IEM_DS3505
ZBYN,1990-10-11 06:00,ZBYN 110600Z AUTO 36004KT 6SM 18/08 A3024 RMK T01840076 IEM_DS3505
ZBYN,1990-10-11 07:00,ZBYN 110700Z AUTO 28006KT 7SM 20/06 A3021 RMK T02000060 IEM_DS3505
ZBYN,1990-10-11 08:00,ZBYN 110800Z AUTO 22008KT 7SM 20/05 A3021 RMK T02000050 IEM_DS3505
ZBYN,1990-10-11 09:00,ZBYN 110900Z AUTO 20006KT 7SM 18/09 A3021 RMK SLP226 T01750088 57005 IEM_DS3505
ZBYN,1990-10-11 10:00,ZBYN 111000Z AUTO 17004KT 6SM 16/10 A3021 RMK T01600100 IEM_DS3505
ZBYN,1990-10-11 11:00,ZBYN 111100Z AUTO 00000KT 6SM 14/10 A3024 RMK T01400100 IEM_DS3505
ZBYN,1990-10-11 12:00,ZBYN 111200Z AUTO 00000KT 7SM 11/09 A3024 RMK SLP247 T01130092 52011 IEM_DS3505
ZBYN,1990-10-11 13:00,ZBYN 111300Z AUTO 00000KT 6SM 11/08 A3027 RMK T01100080 IEM_DS3505
ZBYN,1990-10-11 14:00,ZBYN 111400Z AUTO 10006KT 6SM 10/08 A3027 RMK T01000080 IEM_DS3505
ZBYN,1990-10-11 15:00,ZBYN 111500Z AUTO 00000KT 7SM 10/08 A3030 RMK SLP248 T01000078 52008 IEM_DS3505
ZBYN,1990-10-11 16:00,ZBYN 111600Z AUTO 00000KT 6SM 08/07 A3030 RMK T00800070 IEM_DS3505
ZBYN,1990-10-11 17:00,ZBYN 111700Z AUTO 00000KT 6SM 08/07 A3027 RMK T00800070 IEM_DS3505
ZBYN,1990-10-11 18:00,ZBYN 111800Z AUTO 00000KT 5SM 08/07 A3030 RMK SLP246 T00800072 40197//// 54000 IEM_DS3505
ZBYN,1990-10-11 20:00,ZBYN 112000Z AUTO 00000KT 6SM 08/07 A3024 RMK T00800070 IEM_DS3505
ZBYN,1990-10-11 21:00,ZBYN 112100Z AUTO 36002KT 4SM 08/08 A3024 RMK SLP231 T00800080 57015 IEM_DS3505
ZBYN,1990-10-11 22:00,ZBYN 112200Z AUTO 18004KT 4SM 08/07 A3024 RMK T00800070 IEM_DS3505
ZBYN,1990-10-11 23:00,ZBYN 112300Z AUTO 00000KT 2 1/2SM 07/07 A3024 RMK T00700070 IEM_DS3505
ZBYN,1990-10-12 00:00,ZBYN 120000Z AUTO 00000KT 4SM 08/08 A3027 RMK SLP248 T00820076 52006 IEM_DS3505
ZBYN,1990-10-12 01:00,ZBYN 120100Z AUTO 00000KT 3SM 11/08 A3027 RMK T01100080 IEM_DS3505
ZBYN,1990-10-12 03:00,ZBYN 120300Z AUTO 36002KT 5SM 14/09 A3024 RMK SLP237 T01410086 57003 IEM_DS3505
ZBYN,1990-10-12 04:00,ZBYN 120400Z AUTO 00000KT 6SM 17/08 A3021 RMK T01700080 IEM_DS3505
ZBYN,1990-10-12 05:00,ZBYN 120500Z AUTO 00000KT 6SM 19/08 A3021 RMK T01900080 IEM_DS3505
ZBYN,1990-10-12 06:00,ZBYN 120600Z AUTO 25006KT 6SM 21/07 A3018 RMK SLP203 T02070067 4////0067 57024 IEM_DS3505
ZBYN,1990-10-12 07:00,ZBYN 120700Z AUTO 18004KT 6SM 21/04 A3015 RMK T02100040 IEM_DS3505
ZBYN,1990-10-12 08:00,ZBYN 120800Z AUTO 00000KT 6SM 20/00 A3012 RMK T02000000 IEM_DS3505
ZBYN,1990-10-12 08:03,ZBYN 120803Z AUTO 00000KT 6SM 20/00 A3012 RMK T02000000 IEM_DS3505
ZBYN,1990-10-12 09:00,ZBYN 120900Z AUTO 00000KT 6SM 18/08 A3012 RMK SLP192 T01840079 57023 IEM_DS3505
ZBYN,1990-10-12 10:00,ZBYN 121000Z AUTO 00000KT 6SM 16/07 A3012 RMK T01600070 IEM_DS3505
ZBYN,1990-10-12 12:00,ZBYN 121200Z AUTO 00000KT 9SM 10/08 A3015 RMK SLP213 T01020076 52006 IEM_DS3505
ZBYN,1990-10-12 13:00,ZBYN 121300Z AUTO 10006KT 7SM 10/06 A3018 RMK T01000060 IEM_DS3505
ZBYN,1990-10-12 14:00,ZBYN 121400Z AUTO 07006KT 7SM 09/06 A3018 RMK T00900060 IEM_DS3505
ZBYN,1990-10-12 15:00,ZBYN 121500Z AUTO 00000KT 6SM 09/07 A3018 RMK SLP210 T00880070 52005 IEM_DS3505
ZBYN,1990-10-12 18:00,ZBYN 121800Z AUTO 00000KT 6SM 06/05 RMK SLP200 T00630054 57003 IEM_DS3505
ZBYN,1990-10-12 19:00,ZBYN 121900Z AUTO 00000KT 6SM 06/05 A3015 RMK T00600050 IEM_DS3505
ZBYN,1990-10-12 20:00,ZBYN 122000Z AUTO 00000KT 7SM 05/05 A3012 RMK T00500050 IEM_DS3505
ZBYN,1990-10-12 21:00,ZBYN 122100Z AUTO 00000KT 5SM 05/05 A3012 RMK SLP199 T00500048 57007 IEM_DS3505
ZBYN,1990-10-12 22:00,ZBYN 122200Z AUTO 00000KT 6SM 05/04 A3015 RMK T00500040 IEM_DS3505
ZBYN,1990-10-13 00:00,ZBYN 130000Z AUTO 00000KT 5SM 06/06 A3018 RMK SLP213 T00620056 52002 IEM_DS3505
ZBYN,1990-10-13 01:00,ZBYN 130100Z AUTO 19004KT 4SM 11/07 A3021 RMK T01100070 IEM_DS3505
ZBYN,1990-10-13 02:00,ZBYN 130200Z AUTO 21004KT 5SM 14/06 A3021 RMK T01400060 IEM_DS3505
ZBYN,1990-10-13 03:00,ZBYN 130300Z AUTO 18006KT 5SM 16/07 A3021 RMK SLP213 T01570072 52013 IEM_DS3505
ZBYN,1990-10-13 04:00,ZBYN 130400Z AUTO 20008KT 7SM 17/07 A3018 RMK T01700070 IEM_DS3505
ZBYN,1990-10-13 05:00,ZBYN 130500Z AUTO 22006KT 7SM 19/07 A3012 RMK T01900070 IEM_DS3505
ZBYN,1990-10-13 06:00,ZBYN 130600Z AUTO 14004KT 6SM 20/07 A3009 RMK SLP191 T02050072 4////0040 57017 IEM_DS3505
ZBYN,1990-10-13 07:00,ZBYN 130700Z AUTO 27006KT 7SM 21/06 A3009 RMK T02100060 IEM_DS3505
ZBYN,1990-10-13 08:00,ZBYN 130800Z AUTO 25010KT 7SM 21/06 A3009 RMK T02100060 IEM_DS3505
ZBYN,1990-10-13 09:00,ZBYN 130900Z AUTO 32004KT 7SM 19/06 A3012 RMK SLP194 T01870056 57002 IEM_DS3505
ZBYN,1990-10-13 10:00,ZBYN 131000Z AUTO 25004KT 7SM 16/09 A3012 RMK T01600090 IEM_DS3505
ZBYN,1990-10-13 11:00,ZBYN 131100Z AUTO 34004KT 7SM 13/09 A3018 RMK T01300090 IEM_DS3505
ZBYN,1990-10-13 12:00,ZBYN 131200Z AUTO 34004KT 12SM 14/06 A3018 RMK SLP214 T01410061 52013 IEM_DS3505
ZBYN,1990-10-13 13:00,ZBYN 131300Z AUTO 30004KT 7SM 11/06 A3021 RMK T01100060 IEM_DS3505
ZBYN,1990-10-13 15:00,ZBYN 131500Z AUTO 34004KT 12SM 12/06 A3021 RMK SLP214 T01240059 52012 IEM_DS3505
ZBYN,1990-10-13 16:00,ZBYN 131600Z AUTO 00000KT 7SM 09/07 A3021 RMK T00900070 IEM_DS3505
ZBYN,1990-10-13 17:00,ZBYN 131700Z AUTO 00000KT 7SM 06/05 A3021 RMK T00600050 IEM_DS3505
ZBYN,1990-10-13 18:00,ZBYN 131800Z AUTO 00000KT 7SM 06/06 A3024 RMK SLP220 T00640055 40216//// 52004 IEM_DS3505
ZBYN,1990-10-13 19:00,ZBYN 131900Z AUTO 09004KT 7SM 05/05 A3024 RMK T00500050 IEM_DS3505
ZBYN,1990-10-13 20:00,ZBYN 132000Z AUTO 09004KT 7SM 06/04 A3021 RMK T00600040 IEM_DS3505
ZBYN,1990-10-13 21:00,ZBYN 132100Z AUTO 00000KT 7SM 05/04 A3024 RMK SLP237 T00460041 52010 IEM_DS3505
ZBYN,1990-10-13 22:00,ZBYN 132200Z AUTO 00000KT 7SM 04/03 A3024 RMK T00400030 IEM_DS3505
ZBYN,1990-10-13 23:00,ZBYN 132300Z AUTO 00000KT 6SM 04/04 A3027 RMK T00400040 IEM_DS3505
ZBYN,1990-10-14 00:00,ZBYN 140000Z AUTO 00000KT 6SM 05/05 RMK SLP257 T00540050 52012 IEM_DS3505
ZBYN,1990-10-14 01:00,ZBYN 140100Z AUTO 00000KT 5SM 11/07 A3030 RMK T01100070 IEM_DS3505
ZBYN,1990-10-14 02:00,ZBYN 140200Z AUTO 00000KT 7SM 14/07 A3030 RMK T01400070 IEM_DS3505
ZBYN,1990-10-14 03:00,ZBYN 140300Z AUTO 00000KT 6SM 16/06 A3030 RMK SLP244 T01640064 52004 IEM_DS3505
ZBYN,1990-10-14 04:00,ZBYN 140400Z AUTO 00000KT 7SM 14/07 A3030 RMK T01400070 IEM_DS3505
ZBYN,1990-10-14 05:00,ZBYN 140500Z AUTO 00000KT 7SM 20/05 A3024 RMK T02000050 IEM_DS3505
ZBYN,1990-10-14 06:00,ZBYN 140600Z AUTO 00000KT 16SM 22/04 A3021 RMK SLP217 T02160039 4////0031 57025 IEM_DS3505
ZBYN,1990-10-14 07:00,ZBYN 140700Z AUTO 17004KT 7SM 22/04 A3018 RMK T02200040 IEM_DS3505
ZBYN,1990-10-14 08:00,ZBYN 140800Z AUTO 00000KT 7SM 21/02 A3018 RMK T02100020 IEM_DS3505
ZBYN,1990-10-14 09:00,ZBYN 140900Z AUTO 00000KT 7SM 21/05 A3018 RMK SLP213 T02080047 57008 IEM_DS3505
ZBYN,1990-10-14 10:00,ZBYN 141000Z AUTO 00000KT 7SM 16/09 A3021 RMK T01600090 IEM_DS3505
ZBYN,1990-10-14 11:00,ZBYN 141100Z AUTO 00000KT 6SM 13/08 A3021 RMK T01300080 IEM_DS3505
ZBYN,1990-10-14 12:00,ZBYN 141200Z AUTO 00000KT 12SM 12/07 A3024 RMK SLP241 T01200074 52013 IEM_DS3505
ZBYN,1990-10-14 13:00,ZBYN 141300Z AUTO 09008KT 6SM 16/05 A3024 RMK T01600050 IEM_DS3505
ZBYN,1990-10-14 14:00,ZBYN 141400Z AUTO 07010KT 6SM 16/05 A3027 RMK T01600050 IEM_DS3505
ZBYN,1990-10-14 15:00,ZBYN 141500Z AUTO 00000KT 12SM 12/06 A3027 RMK SLP237 T01200063 52013 IEM_DS3505
ZBYN,1990-10-14 18:00,ZBYN 141800Z AUTO 32002KT 9SM 10/05 RMK SLP231 T01040054 40221//// 54000 IEM_DS3505
ZBYN,1990-10-14 21:00,ZBYN 142100Z AUTO 36004KT 7SM 08/06 RMK SLP237 T00810055 52001 IEM_DS3505
ZBYN,1990-10-14 22:00,ZBYN 142200Z AUTO 00000KT 7SM 05/05 A3030 RMK T00500050 IEM_DS3505
ZBYN,1990-10-14 23:00,ZBYN 142300Z AUTO 00000KT 5SM 05/04 A3024 RMK T00500040 IEM_DS3505
ZBYN,1990-10-15 00:00,ZBYN 150000Z AUTO 00000KT 6SM 09/06 A3030 RMK SLP260 T00880063 52014 IEM_DS3505
ZBYN,1990-10-15 03:00,ZBYN 150300Z AUTO 36002KT 4SM 17/06 RMK SLP249 T01660062 57003 IEM_DS3505
ZBYN,1990-10-15 04:00,ZBYN 150400Z AUTO 00000KT 7SM 19/07 A3027 RMK T01900070 IEM_DS3505
ZBYN,1990-10-15 06:00,ZBYN 150600Z AUTO 32006KT 4SM 20/05 A3021 RMK SLP216 T02010052 4////0077 57028 IEM_DS3505
ZBYN,1990-10-15 07:00,ZBYN 150700Z AUTO 00000KT 6SM 21/06 A3021 RMK T02100060 IEM_DS3505
ZBYN,1990-10-15 08:00,ZBYN 150800Z AUTO 29006KT 7SM 21/06 A3018 RMK T02100060 IEM_DS3505
ZBYN,1990-10-15 09:00,ZBYN 150900Z AUTO 00000KT 7SM 19/06 A3018 RMK SLP213 T01900060 57007 IEM_DS3505
ZBYN,1990-10-15 10:00,ZBYN 151000Z AUTO 36010KT 7SM 18/02 A3021 RMK T01800020 IEM_DS3505
ZBYN,1990-10-15 11:00,ZBYN 151100Z AUTO 30006KT 7SM 15/03 A3021 RMK T01500030 IEM_DS3505
ZBYN,1990-10-15 12:00,ZBYN 151200Z AUTO 32002KT 9SM 15/04 A3024 RMK SLP235 T01500040 IEM_DS3505
ZBYN,1990-10-15 13:00,ZBYN 151300Z AUTO 00000KT 7SM 12/05 A3027 RMK T01200050 IEM_DS3505
ZBYN,1990-10-15 15:00,ZBYN 151500Z AUTO 00000KT 6SM 08/05 A3027 RMK SLP240 T00770046 52007 IEM_DS3505
ZBYN,1990-10-15 16:00,ZBYN 151600Z AUTO 00000KT 7SM 07/04 A3027 RMK T00700040 IEM_DS3505
ZBYN,1990-10-15 17:00,ZBYN 151700Z AUTO 00000KT 7SM 06/04 A3030 RMK T00600040 IEM_DS3505
ZBYN,1990-10-15 18:00,ZBYN 151800Z AUTO 36002KT 6SM 06/04 A3030 RMK SLP239 T00650043 40214//// 52003 IEM_DS3505
ZBYN,1990-10-15 20:00,ZBYN 152000Z AUTO 09006KT 7SM 05/03 A3027 RMK T00500030 IEM_DS3505
ZBYN,1990-10-15 21:00,ZBYN 152100Z AUTO 00000KT 5SM 05/04 A3030 RMK SLP248 T00490035 52004 IEM_DS3505
ZBYN,1990-10-15 22:00,ZBYN 152200Z AUTO 00000KT 7SM 04/03 A3027 RMK T00400030 IEM_DS3505
ZBYN,1990-10-15 23:00,ZBYN 152300Z AUTO 00000KT 7SM 03/02 A3030 RMK T00300020 IEM_DS3505
ZBYN,1990-10-16 00:00,ZBYN 160000Z AUTO 00000KT 11SM 06/04 A3030 RMK SLP261 T00600042 52005 IEM_DS3505
ZBYN,1990-10-16 01:00,ZBYN 160100Z AUTO 00000KT 7SM 12/05 A3030 RMK T01200050 IEM_DS3505
ZBYN,1990-10-16 02:00,ZBYN 160200Z AUTO 00000KT 7SM 14/03 A3030 RMK T01400030 IEM_DS3505
ZBYN,1990-10-16 03:00,ZBYN 160300Z AUTO 36004KT 6SM 17/04 A3030 RMK SLP247 T01730045 57005 IEM_DS3505
ZBYN,1990-10-16 04:00,ZBYN 160400Z AUTO 00000KT 6SM 20/04 A3027 RMK T02000040 IEM_DS3505
ZBYN,1990-10-16 05:00,ZBYN 160500Z AUTO 12004KT 6SM 21/04 A3021 RMK T02100040 IEM_DS3505
ZBYN,1990-10-16 06:00,ZBYN 160600Z AUTO 29006KT 9SM 21/04 A3021 RMK SLP215 T02060037 4////0025 57026 IEM_DS3505
ZBYN,1990-10-16 07:00,ZBYN 160700Z AUTO 00000KT 6SM 22/03 RMK T02200030 IEM_DS3505
ZBYN,1990-10-16 08:00,ZBYN 160800Z AUTO 31004KT 6SM 21/03 A3018 RMK T02100030 IEM_DS3505
ZBYN,1990-10-16 09:00,ZBYN 160900Z AUTO 27002KT 12SM 20/04 RMK SLP203 T01980045 57014 IEM_DS3505
ZBYN,1990-10-16 10:00,ZBYN 161000Z AUTO 04004KT 6SM 15/08 A3015 RMK T01500080 IEM_DS3505
ZBYN,1990-10-16 11:00,ZBYN 161100Z AUTO 08004KT 6SM 15/06 A3015 RMK T01500060 IEM_DS3505
ZBYN,1990-10-16 12:00,ZBYN 161200Z AUTO 11002KT 9SM 12/07 A3018 RMK SLP223 T01150071 52007 IEM_DS3505
ZBYN,1990-10-16 13:00,ZBYN 161300Z AUTO 09008KT 6SM 15/02 A3021 RMK T01500020 IEM_DS3505
ZBYN,1990-10-16 15:00,ZBYN 161500Z AUTO 34002KT 9SM 12/05 A3024 RMK SLP215 T01200054 52011 IEM_DS3505
ZBYN,1990-10-16 16:00,ZBYN 161600Z AUTO 00000KT 6SM 11/05 A3024 RMK T01100050 IEM_DS3505
ZBYN,1990-10-16 17:00,ZBYN 161700Z AUTO 00000KT 6SM 10/06 A3024 RMK T01000060 IEM_DS3505
ZBYN,1990-10-16 18:00,ZBYN 161800Z AUTO 34004KT 9SM 11/04 A3024 RMK SLP217 T01070045 40219//// 52004 IEM_DS3505
ZBYN,1990-10-16 20:00,ZBYN 162000Z AUTO 00000KT 6SM 09/06 A3027 RMK T00900060 IEM_DS3505
ZBYN,1990-10-16 21:00,ZBYN 162100Z AUTO 34002KT 9SM 10/05 A3027 RMK SLP229 T01000046 52009 IEM_DS3505
ZBYN,1990-10-16 22:00,ZBYN 162200Z AUTO 00000KT 6SM 07/06 A3027 RMK T00700060 IEM_DS3505
ZBYN,1990-10-16 23:00,ZBYN 162300Z AUTO 33004KT 6SM 06/05 A3030 RMK T00600050 IEM_DS3505
ZBYN,1990-10-17 00:00,ZBYN 170000Z AUTO 34002KT 6SM 11/04 A3030 RMK SLP257 T01060044 52014 IEM_DS3505
ZBYN,1990-10-17 01:00,ZBYN 170100Z AUTO 00000KT 4SM 11/07 A3033 RMK T01100070 IEM_DS3505
ZBYN,1990-10-17 02:00,ZBYN 170200Z AUTO 00000KT 4SM 15/06 A3033 RMK T01500060 IEM_DS3505
ZBYN,1990-10-17 03:00,ZBYN 170300Z AUTO 34004KT 7SM 16/05 A3033 RMK SLP251 T01550046 52003 IEM_DS3505
ZBYN,1990-10-17 04:00,ZBYN 170400Z AUTO 06006KT 6SM 18/04 A3030 RMK T01800040 IEM_DS3505
ZBYN,1990-10-17 05:00,ZBYN 170500Z AUTO 12006KT 6SM 20/06 A3027 RMK T02000060 IEM_DS3505
ZBYN,1990-10-17 06:00,ZBYN 170600Z AUTO 09002KT 9SM 20/06 A3027 RMK SLP232 T01960061 4////0083 57013 IEM_DS3505
ZBYN,1990-10-17 07:00,ZBYN 170700Z AUTO 00000KT 7SM 20/04 A3027 RMK T02000040 IEM_DS3505
ZBYN,1990-10-17 08:00,ZBYN 170800Z AUTO 09012KT 6SM 20/05 A3027 RMK T02000050 IEM_DS3505
ZBYN,1990-10-17 09:00,ZBYN 170900Z AUTO 09006KT 9SM 18/04 A3027 RMK SLP260 T01810044 54000 IEM_DS3505
ZBYN,1990-10-17 10:00,ZBYN 171000Z AUTO 09006KT 6SM 16/05 A3027 RMK T01600050 IEM_DS3505
ZBYN,1990-10-17 11:00,ZBYN 171100Z AUTO 10010KT 6SM 14/05 A3030 RMK T01400050 IEM_DS3505
ZBYN,1990-10-17 12:00,ZBYN 171200Z AUTO 00000KT 9SM 12/06 RMK SLP256 T01200056 52010 IEM_DS3505
ZBYN,1990-10-17 13:00,ZBYN 171300Z AUTO 08008KT 7SM 13/05 A3033 RMK T01300050 IEM_DS3505
ZBYN,1990-10-17 15:00,ZBYN 171500Z AUTO 11002KT 7SM 09/06 A3033 RMK SLP262 T00870060 52008 IEM_DS3505
ZBYN,1990-10-17 16:00,ZBYN 171600Z AUTO 08008KT 7SM 10/05 A3036 RMK T01000050 IEM_DS3505
ZBYN,1990-10-17 17:00,ZBYN 171700Z AUTO 08004KT 6SM 10/05 A3033 RMK T01000050 IEM_DS3505
ZBYN,1990-10-17 18:00,ZBYN 171800Z AUTO 11002KT 7SM 07/06 A3033 RMK SLP260 T00710060 40203//// 52002 IEM_DS3505
ZBYN,1990-10-17 19:00,ZBYN 171900Z AUTO 00000KT 6SM 07/05 A3033 RMK T00700050 IEM_DS3505
ZBYN,1990-10-17 20:00,ZBYN 172000Z AUTO 00000KT 7SM 06/06 A3036 RMK T00600060 IEM_DS3505
ZBYN,1990-10-17 21:00,ZBYN 172100Z AUTO 00000KT 6SM 05/05 A3036 RMK SLP271 T00530049 52005 IEM_DS3505
ZBYN,1990-10-17 22:00,ZBYN 172200Z AUTO 11004KT 4SM 05/04 A3036 RMK T00500040 IEM_DS3505
ZBYN,1990-10-17 23:00,ZBYN 172300Z AUTO 00000KT 5SM 05/04 A3036 RMK T00500040 IEM_DS3505
ZBYN,1990-10-18 00:00,ZBYN 180000Z AUTO 00000KT 4SM 05/05 A3036 RMK SLP289 T00510049 52007 IEM_DS3505
ZBYN,1990-10-18 01:00,ZBYN 180100Z AUTO 00000KT 4SM 08/05 A3039 RMK T00800050 IEM_DS3505
ZBYN,1990-10-18 02:00,ZBYN 180200Z AUTO 00000KT 6SM 11/05 A3036 RMK T01100050 IEM_DS3505
ZBYN,1990-10-18 03:00,ZBYN 180300Z AUTO 14004KT 5SM 14/06 A3036 RMK SLP268 T01410065 57011 IEM_DS3505
ZBYN,1990-10-18 04:00,ZBYN 180400Z AUTO 23008KT 6SM 17/05 A3027 RMK T01700050 IEM_DS3505
ZBYN,1990-10-18 06:00,ZBYN 180600Z AUTO 18006KT 5SM 18/06 A3024 RMK SLP230 T01750056 4////0040 57032 IEM_DS3505
ZBYN,1990-10-18 07:00,ZBYN 180700Z AUTO 19004KT 6SM 18/03 A3021 RMK T01800030 IEM_DS3505
ZBYN,1990-10-18 09:00,ZBYN 180900Z AUTO 18004KT 9SM 16/06 A3021 RMK SLP211 T01600061 57013 IEM_DS3505
ZBYN,1990-10-18 10:00,ZBYN 181000Z AUTO 15004KT 6SM 15/06 A3018 RMK T01500060 IEM_DS3505
ZBYN,1990-10-18 11:00,ZBYN 181100Z AUTO 12004KT 4SM 12/07 A3018 RMK T01200070 IEM_DS3505
ZBYN,1990-10-18 12:00,ZBYN 181200Z AUTO 00000KT 7SM 11/06 A3018 RMK SLP236 T01110064 52006 IEM_DS3505
ZBYN,1990-10-18 13:00,ZBYN 181300Z AUTO 12006KT 6SM 12/07 A3018 RMK T01200070 IEM_DS3505
ZBYN,1990-10-18 15:00,ZBYN 181500Z AUTO 00000KT 7SM 10/06 A3018 RMK SLP224 T01010064 52001 IEM_DS3505
ZBYN,1990-10-18 16:00,ZBYN 181600Z AUTO 11006KT 6SM 10/06 A3018 RMK T01000060 IEM_DS3505
ZBYN,1990-10-18 17:00,ZBYN 181700Z AUTO 10004KT 6SM 09/05 A3018 RMK T00900050 IEM_DS3505
ZBYN,1990-10-18 18:00,ZBYN 181800Z AUTO 14004KT 7SM 08/05 A3018 RMK SLP220 T00770049 40186//// 57002 IEM_DS3505
ZBYN,1990-10-18 19:00,ZBYN 181900Z AUTO 12004KT 6SM 08/04 A3018 RMK T00800040 IEM_DS3505
ZBYN,1990-10-18 20:00,ZBYN 182000Z AUTO 11004KT 6SM 06/04 A3018 RMK T00600040 IEM_DS3505
ZBYN,1990-10-18 21:00,ZBYN 182100Z AUTO 14002KT 7SM 05/04 A3018 RMK SLP217 T00500043 57009 IEM_DS3505
ZBYN,1990-10-18 22:00,ZBYN 182200Z AUTO 00000KT 6SM 05/03 A3018 RMK T00500030 IEM_DS3505
ZBYN,1990-10-18 23:00,ZBYN 182300Z AUTO 00000KT 6SM 04/01 A3018 RMK T00400010 IEM_DS3505
ZBYN,1990-10-19 00:00,ZBYN 190000Z AUTO 14002KT 5SM 06/06 A3018 RMK SLP225 T00630059 52002 IEM_DS3505
ZBYN,1990-10-19 01:00,ZBYN 190100Z AUTO 00000KT 2 1/2SM 10/06 A3021 RMK T01000060 IEM_DS3505
ZBYN,1990-10-19 02:00,ZBYN 190200Z AUTO 00000KT 6SM 12/05 A3018 RMK T01200050 IEM_DS3505
ZBYN,1990-10-19 03:00,ZBYN 190300Z AUTO 00000KT 5SM 15/06 A3018 RMK SLP207 T01500060 57005 IEM_DS3505
ZBYN,1990-10-19 04:00,ZBYN 190400Z AUTO 00000KT 6SM 16/06 A3015 RMK T01600060 IEM_DS3505
ZBYN,1990-10-19 05:00,ZBYN 190500Z AUTO 00000KT 6SM 18/06 A3012 RMK T01800060 IEM_DS3505
ZBYN,1990-10-19 06:00,ZBYN 190600Z AUTO 18006KT 6SM 19/05 A3006 RMK SLP175 T01860054 4////0037 57027 IEM_DS3505
ZBYN,1990-10-19 07:00,ZBYN 190700Z AUTO 00000KT 6SM 20/06 A3006 RMK T02000060 IEM_DS3505
ZBYN,1990-10-19 08:00,ZBYN 190800Z AUTO 26004KT 6SM 19/06 A3003 RMK T01900060 IEM_DS3505
ZBYN,1990-10-19 09:00,ZBYN 190900Z AUTO 22004KT 7SM 18/06 A3003 RMK SLP170 T01820064 57009 IEM_DS3505
ZBYN,1990-10-19 10:00,ZBYN 191000Z AUTO 00000KT 6SM 16/09 A3003 RMK T01600090 IEM_DS3505
ZBYN,1990-10-19 10:15,ZBYN 191015Z AUTO 00000KT 6SM 16/09 A3003 RMK T01600090 IEM_DS3505
ZBYN,1990-10-19 11:00,ZBYN 191100Z AUTO 00000KT 7SM 13/07 A3003 RMK T01300070 IEM_DS3505
ZBYN,1990-10-19 12:00,ZBYN 191200Z AUTO 22002KT 12SM 10/06 A3006 RMK SLP187 T01020063 52005 IEM_DS3505
ZBYN,1990-10-19 13:00,ZBYN 191300Z AUTO 10006KT 6SM 10/06 A3009 RMK T01000060 IEM_DS3505
ZBYN,1990-10-19 15:00,ZBYN 191500Z AUTO 00000KT 9SM 09/06 A3009 RMK SLP188 T00860059 52012 IEM_DS3505
ZBYN,1990-10-19 16:00,ZBYN 191600Z AUTO 31004KT 7SM 07/04 A3012 RMK T00700040 IEM_DS3505
ZBYN,1990-10-19 17:00,ZBYN 191700Z AUTO 00000KT 7SM 07/05 A3012 RMK T00700050 IEM_DS3505
ZBYN,1990-10-19 18:00,ZBYN 191800Z AUTO 00000KT 9SM 06/05 A3012 RMK SLP189 T00620051 40195//// 52002 IEM_DS3505
ZBYN,1990-10-19 19:00,ZBYN 191900Z AUTO 28004KT 7SM 05/03 A3012 RMK T00500030 IEM_DS3505
ZBYN,1990-10-19 20:00,ZBYN 192000Z AUTO 00000KT 7SM 05/05 A3012 RMK T00500050 IEM_DS3505
ZBYN,1990-10-19 21:00,ZBYN 192100Z AUTO 36002KT 7SM 07/05 A3012 RMK SLP186 T00740048 57011 IEM_DS3505
ZBYN,1990-10-19 22:00,ZBYN 192200Z AUTO 00000KT 7SM 05/04 A3012 RMK T00500040 IEM_DS3505
ZBYN,1990-10-19 23:00,ZBYN 192300Z AUTO 00000KT 4SM 04/03 A3015 RMK T00400030 IEM_DS3505
ZBYN,1990-10-20 00:00,ZBYN 200000Z AUTO 00000KT 5SM 05/05 A3018 RMK SLP221 T00500046 52016 IEM_DS3505
ZBYN,1990-10-20 01:00,ZBYN 200100Z AUTO 00000KT 5SM 05/05 A3018 RMK SLP221 T00500046 52016 IEM_DS3505
ZBYN,1990-10-20 02:00,ZBYN 200200Z AUTO 00000KT 5SM 13/06 A3018 RMK T01300060 IEM_DS3505
ZBYN,1990-10-20 03:00,ZBYN 200300Z AUTO 32002KT 6SM 15/07 A3015 RMK SLP207 T01530071 54000 IEM_DS3505
ZBYN,1990-10-20 04:00,ZBYN 200400Z AUTO 00000KT 6SM 17/08 A3015 RMK T01700080 IEM_DS3505
ZBYN,1990-10-20 05:00,ZBYN 200500Z AUTO 00000KT 7SM 19/08 A3012 RMK T01900080 IEM_DS3505
ZBYN,1990-10-20 06:00,ZBYN 200600Z AUTO 16006KT 6SM 20/05 A3009 RMK SLP178 T02030050 4////0044 57022 IEM_DS3505
ZBYN,1990-10-20 07:00,ZBYN 200700Z AUTO 21006KT 7SM 20/06 A3009 RMK T02000060 IEM_DS3505
ZBYN,1990-10-20 08:00,ZBYN 200800Z AUTO 21006KT 7SM 20/06 A3009 RMK T02000060 IEM_DS3505
ZBYN,1990-10-20 09:00,ZBYN 200900Z AUTO 18004KT 7SM 19/06 A3009 RMK SLP178 T01900060 54000 IEM_DS3505
ZBYN,1990-10-20 10:00,ZBYN 201000Z AUTO 11004KT 6SM 15/08 A3009 RMK T01500080 IEM_DS3505
ZBYN,1990-10-20 11:00,ZBYN 201100Z AUTO 07004KT 7SM 15/06 A3015 RMK T01500060 IEM_DS3505
ZBYN,1990-10-20 12:00,ZBYN 201200Z AUTO 09002KT 7SM 14/06 A3018 RMK T01400057 IEM_DS3505
ZBYN,1990-10-20 13:00,ZBYN 201300Z AUTO 06014KT 6SM 15/05 A3018 RMK T01500050 IEM_DS3505
ZBYN,1990-10-20 15:00,ZBYN 201500Z AUTO 00000KT 6SM 10/07 A3021 RMK SLP225 T01020067 52019 IEM_DS3505
ZBYN,1990-10-20 16:00,ZBYN 201600Z AUTO 09004KT 6SM 13/07 A3024 RMK T01300070 IEM_DS3505
ZBYN,1990-10-20 17:00,ZBYN 201700Z AUTO 36002KT 6SM 11/06 A3024 RMK T01100060 IEM_DS3505
ZBYN,1990-10-20 18:00,ZBYN 201800Z AUTO 00000KT 5SM 07/06 A3027 RMK SLP232 T00710056 40214//// 52009 IEM_DS3505
ZBYN,1990-10-20 20:00,ZBYN 202000Z AUTO 00000KT 4SM 06/05 A3027 RMK T00600050 IEM_DS3505
ZBYN,1990-10-20 21:00,ZBYN 202100Z AUTO 00000KT 4SM 05/04 A3027 RMK SLP238 T00470045 54000 IEM_DS3505
ZBYN,1990-10-20 22:00,ZBYN 202200Z AUTO 00000KT 7SM 08/06 A3027 RMK T00800060 IEM_DS3505
ZBYN,1990-10-20 23:00,ZBYN 202300Z AUTO 00000KT 2 1/2SM 04/03 A3027 RMK T00400030 IEM_DS3505
ZBYN,1990-10-21 00:00,ZBYN 210000Z AUTO 00000KT 4SM 08/05 A3027 RMK T00770053 52005 IEM_DS3505
ZBYN,1990-10-21 01:00,ZBYN 210100Z AUTO 00000KT 2SM 09/07 A3030 RMK T00900070 IEM_DS3505
ZBYN,1990-10-21 02:00,ZBYN 210200Z AUTO 00000KT 2SM 13/06 A3030 RMK T01300060 IEM_DS3505
ZBYN,1990-10-21 03:00,ZBYN 210300Z AUTO 16002KT 6SM 14/06 A3027 RMK SLP240 T01380064 57002 IEM_DS3505
ZBYN,1990-10-21 04:00,ZBYN 210400Z AUTO 18006KT 5SM 14/06 A3030 RMK T01400060 IEM_DS3505
ZBYN,1990-10-21 05:00,ZBYN 210500Z AUTO 16004KT 5SM 16/06 A3027 RMK T01600060 IEM_DS3505
ZBYN,1990-10-21 06:00,ZBYN 210600Z AUTO 08008KT 6SM 16/06 A3024 RMK SLP235 T01650063 4////0040 57006 IEM_DS3505
ZBYN,1990-10-21 07:00,ZBYN 210700Z AUTO 00000KT 7SM 16/06 A3024 RMK T01600060 IEM_DS3505
ZBYN,1990-10-21 08:00,ZBYN 210800Z AUTO 23010KT 6SM 16/06 A3027 RMK T01600060 IEM_DS3505
ZBYN,1990-10-21 09:00,ZBYN 210900Z AUTO 20010KT 6SM 14/07 A3024 RMK SLP239 T01400071 57003 IEM_DS3505
ZBYN,1990-10-21 10:00,ZBYN 211000Z AUTO 20012KT 4SM 13/08 A3024 RMK T01300080 IEM_DS3505
ZBYN,1990-10-21 11:00,ZBYN 211100Z AUTO 23006KT 4SM 11/09 A3027 RMK T01100090 IEM_DS3505
ZBYN,1990-10-21 12:00,ZBYN 211200Z AUTO 20004KT 6SM 11/09 A3030 RMK 60001 SLP254 T01060086 52013 IEM_DS3505
ZBYN,1990-10-21 13:00,ZBYN 211300Z AUTO 10004KT 5SM 11/09 A3030 RMK T01100090 IEM_DS3505
ZBYN,1990-10-21 14:00,ZBYN 211400Z AUTO 00000KT 5SM 11/09 A3027 RMK T01100090 IEM_DS3505
ZBYN,1990-10-21 15:00,ZBYN 211500Z AUTO 14004KT 6SM 10/09 A3030 RMK SLP245 T01050087 52001 IEM_DS3505
ZBYN,1990-10-21 16:00,ZBYN 211600Z AUTO 14004KT 11/10 A3027 RMK T01100100 IEM_DS3505
ZBYN,1990-10-21 17:00,ZBYN 211700Z AUTO 12004KT 3SM 10/09 A3027 RMK T01000090 IEM_DS3505
ZBYN,1990-10-21 18:00,ZBYN 211800Z AUTO 14004KT 6SM 09/08 RMK 60001 SLP238 T00940080 40168//// 57004 IEM_DS3505
ZBYN,1990-10-21 20:00,ZBYN 212000Z AUTO 12004KT 5SM 10/09 A3027 RMK T01000090 IEM_DS3505
ZBYN,1990-10-21 21:00,ZBYN 212100Z AUTO 00000KT 6SM 08/08 A3024 RMK SLP237 T00840076 57007 IEM_DS3505
ZBYN,1990-10-21 22:00,ZBYN 212200Z AUTO 12004KT 6SM 09/08 A3024 RMK T00900080 IEM_DS3505
ZBYN,1990-10-21 23:00,ZBYN 212300Z AUTO 00000KT 2 1/2SM 08/07 A3024 RMK T00800070 IEM_DS3505
ZBYN,1990-10-22 00:00,ZBYN 220000Z AUTO 00000KT 1/2SM 07/06 A3027 RMK SLP254 T00660062 52008 IEM_DS3505
ZBYN,1990-10-22 01:00,ZBYN 220100Z AUTO 00000KT 2 1/2SM 10/08 A3030 RMK T01000080 IEM_DS3505
ZBYN,1990-10-22 02:00,ZBYN 220200Z AUTO 00000KT 2SM 13/08 A3030 RMK T01300080 IEM_DS3505
ZBYN,1990-10-22 03:00,ZBYN 220300Z AUTO 14004KT 4SM 15/09 RMK SLP238 T01520086 57002 IEM_DS3505
ZBYN,1990-10-22 04:00,ZBYN 220400Z AUTO 00000KT 6SM 16/05 A3024 RMK T01600050 IEM_DS3505
ZBYN,1990-10-22 05:00,ZBYN 220500Z AUTO 00000KT 7SM 17/06 A3021 RMK T01700060 IEM_DS3505
ZBYN,1990-10-22 06:00,ZBYN 220600Z AUTO 18002KT 4SM 18/06 A3018 RMK SLP205 T01760055 4////0058 57028 IEM_DS3505
ZBYN,1990-10-22 07:00,ZBYN 220700Z AUTO 24004KT 7SM 19/04 A3018 RMK T01900040 IEM_DS3505
ZBYN,1990-10-22 08:00,ZBYN 220800Z AUTO 00000KT 7SM 19/04 A3018 RMK T01900040 IEM_DS3505
ZBYN,1990-10-22 09:00,ZBYN 220900Z AUTO 18004KT 9SM 17/05 A3015 RMK SLP205 T01660046 57003 IEM_DS3505
ZBYN,1990-10-22 10:00,ZBYN 221000Z AUTO 14004KT 4SM 14/05 A3015 RMK T01400050 IEM_DS3505
ZBYN,1990-10-22 11:00,ZBYN 221100Z AUTO 08004KT 7SM 11/07 A3018 RMK T01100070 IEM_DS3505
ZBYN,1990-10-22 12:00,ZBYN 221200Z AUTO 00000KT 7SM 10/04 A3018 RMK SLP224 T00980044 52004 IEM_DS3505
ZBYN,1990-10-22 13:00,ZBYN 221300Z AUTO 10004KT 7SM 09/05 A3021 RMK T00900050 IEM_DS3505
ZBYN,1990-10-22 14:00,ZBYN 221400Z AUTO 00000KT 7SM 08/04 A3024 RMK T00800040 IEM_DS3505
ZBYN,1990-10-22 15:00,ZBYN 221500Z AUTO 36006KT 6SM 11/04 RMK SLP223 T01130037 52015 IEM_DS3505
ZBYN,1990-10-22 16:00,ZBYN 221600Z AUTO 00000KT 6SM 08/04 A3024 RMK T00800040 IEM_DS3505
ZBYN,1990-10-22 17:00,ZBYN 221700Z AUTO 00000KT 6SM 07/04 A3024 RMK T00700040 IEM_DS3505
ZBYN,1990-10-22 18:00,ZBYN 221800Z AUTO 36004KT 6SM 11/03 A3027 RMK SLP223 T01090030 40186//// 52003 IEM_DS3505
ZBYN,1990-10-22 19:00,ZBYN 221900Z AUTO 00000KT 7SM 07/04 A3024 RMK T00700040 IEM_DS3505
ZBYN,1990-10-22 20:00,ZBYN 222000Z AUTO 33004KT 7SM 06/04 A3021 RMK T00600040 IEM_DS3505
ZBYN,1990-10-22 21:00,ZBYN 222100Z AUTO 29004KT 6SM 06/03 A3024 RMK SLP236 T00640032 52003 IEM_DS3505
ZBYN,1990-10-22 23:00,ZBYN 222300Z AUTO 00000KT 3SM 03/02 A3024 RMK T00300020 IEM_DS3505
ZBYN,1990-10-23 00:00,ZBYN 230000Z AUTO 36006KT 6SM 08/03 A3024 RMK SLP250 T00800028 52005 IEM_DS3505
ZBYN,1990-10-23 01:00,ZBYN 230100Z AUTO 00000KT 4SM 09/04 A3027 RMK T00900040 IEM_DS3505
ZBYN,1990-10-23 02:00,ZBYN 230200Z AUTO 00000KT 6SM 13/04 A3027 RMK T01300040 IEM_DS3505
ZBYN,1990-10-23 03:00,ZBYN 230300Z AUTO 36004KT 6SM 15/02 A3027 RMK SLP237 T01480019 52001 IEM_DS3505
ZBYN,1990-10-23 04:00,ZBYN 230400Z AUTO 29004KT 6SM 16/03 A3024 RMK T01600030 IEM_DS3505
ZBYN,1990-10-23 05:00,ZBYN 230500Z AUTO 00000KT 7SM 18/00 A3021 RMK T01800000 IEM_DS3505
ZBYN,1990-10-23 06:00,ZBYN 230600Z AUTO 36004KT 6SM 18/02 A3018 RMK SLP206 T01820016 4////0049 57024 IEM_DS3505
ZBYN,1990-10-23 08:00,ZBYN 230800Z AUTO 00000KT 6SM 19/01 A3018 RMK T01900010 IEM_DS3505
ZBYN,1990-10-23 09:00,ZBYN 230900Z AUTO 25006KT 6SM 16/04 A3018 RMK SLP216 T01640043 54000 IEM_DS3505
ZBYN,1990-10-23 10:00,ZBYN 231000Z AUTO 29004KT 4SM 14/06 A3021 RMK T01400060 IEM_DS3505
ZBYN,1990-10-23 11:00,ZBYN 231100Z AUTO 33014KT 6SM 15/02 A3024 RMK T01500020 IEM_DS3505
ZBYN,1990-10-23 12:00,ZBYN 231200Z AUTO 32016KT 6SM 13/02 RMK SLP247 T01330023 52026 IEM_DS3505
ZBYN,1990-10-23 13:00,ZBYN 231300Z AUTO 33016KT 7SM 12/04 A3015 RMK T01200040 IEM_DS3505
ZBYN,1990-10-23 14:00,ZBYN 231400Z AUTO 33010KT 7SM 09/07 A3036 RMK T00900070 IEM_DS3505
ZBYN,1990-10-23 15:00,ZBYN 231500Z AUTO 34004KT 6SM 09/06 A3036 RMK SLP272 T00900061 52026 IEM_DS3505
ZBYN,1990-10-23 18:00,ZBYN 231800Z AUTO 34002KT 6SM 09/02 A3039 RMK 60004 SLP271 T00880016 40194//// 52004 IEM_DS3505
ZBYN,1990-10-23 19:00,ZBYN 231900Z AUTO 31008KT 6SM 08/01 A3039 RMK T00800010 IEM_DS3505
ZBYN,1990-10-23 20:00,ZBYN 232000Z AUTO 36006KT 6SM 07/04 A3039 RMK T00700040 IEM_DS3505
ZBYN,1990-10-23 21:00,ZBYN 232100Z AUTO 02006KT 7SM 07/02 A3039 RMK SLP287 T00660021 52009 IEM_DS3505
ZBYN,1990-10-23 22:00,ZBYN 232200Z AUTO 34010KT 7SM 05/00 A3042 RMK T00500000 IEM_DS3505
ZBYN,1990-10-23 23:00,ZBYN 232300Z AUTO 34008KT 7SM 05/M01 A3042 RMK T00501010 IEM_DS3505
ZBYN,1990-10-24 00:00,ZBYN 240000Z AUTO 02006KT 19SM 06/M01 A3045 RMK T00641013 52018 IEM_DS3505
ZBYN,1990-10-24 01:00,ZBYN 240100Z AUTO 32016KT 7SM 07/M03 A3047 RMK T00701030 IEM_DS3505
ZBYN,1990-10-24 02:00,ZBYN 240200Z AUTO 36017KT 7SM 08/M04 A3047 RMK T00801040 IEM_DS3505
ZBYN,1990-10-24 03:00,ZBYN 240300Z AUTO 36008KT 19SM 09/M03 A3047 RMK SLP318 T00921033 52003 IEM_DS3505
ZBYN,1990-10-24 04:00,ZBYN 240400Z AUTO 35010KT 7SM 11/M06 A3045 RMK T01101060 IEM_DS3505
ZBYN,1990-10-24 05:00,ZBYN 240500Z AUTO 01012KT 7SM 11/M07 A3042 RMK T01101070 IEM_DS3505
ZBYN,1990-10-24 06:00,ZBYN 240600Z AUTO 02006KT 19SM 11/M08 A3039 RMK SLP294 T01101076 4////0052 57020 IEM_DS3505
ZBYN,1990-10-24 07:00,ZBYN 240700Z AUTO 02010KT 7SM 12/M10 A3036 RMK T01201100 IEM_DS3505
ZBYN,1990-10-24 08:00,ZBYN 240800Z AUTO 01010KT 7SM 12/M11 A3036 RMK T01201110 IEM_DS3505
ZBYN,1990-10-24 09:00,ZBYN 240900Z AUTO 04006KT 19SM 10/M07 A3036 RMK SLP292 T01031067 57006 IEM_DS3505
ZBYN,1990-10-24 10:00,ZBYN 241000Z AUTO 01006KT 7SM 08/M05 A3036 RMK T00801050 IEM_DS3505
ZBYN,1990-10-24 11:00,ZBYN 241100Z AUTO 28004KT 7SM 06/M04 A3039 RMK T00601040 IEM_DS3505
ZBYN,1990-10-24 12:00,ZBYN 241200Z AUTO 32002KT 12SM 06/M04 A3039 RMK SLP305 T00621040 52005 IEM_DS3505
ZBYN,1990-10-24 14:00,ZBYN 241400Z AUTO 00000KT 7SM 02/M03 A3042 RMK T00201030 IEM_DS3505
ZBYN,1990-10-24 15:00,ZBYN 241500Z AUTO 29002KT 12SM 05/M05 A3042 RMK SLP306 T00531046 52004 IEM_DS3505
ZBYN,1990-10-24 16:00,ZBYN 241600Z AUTO 10008KT 7SM 02/M04 A3039 RMK T00201040 IEM_DS3505
ZBYN,1990-10-24 17:00,ZBYN 241700Z AUTO 09006KT 7SM 01/M04 A3039 RMK T00101040 IEM_DS3505
ZBYN,1990-10-24 18:00,ZBYN 241800Z AUTO 11006KT 12SM 01/M04 RMK SLP309 T00091045 40121//// 57001 IEM_DS3505
ZBYN,1990-10-24 19:00,ZBYN 241900Z AUTO 08004KT 7SM 00/M04 A3039 RMK T00001040 IEM_DS3505
ZBYN,1990-10-24 20:00,ZBYN 242000Z AUTO 09006KT 7SM 00/M04 A3036 RMK T00001040 IEM_DS3505
ZBYN,1990-10-24 21:00,ZBYN 242100Z AUTO 00000KT 9SM M02/M04 A3036 RMK SLP302 T10171045 57012 IEM_DS3505
ZBYN,1990-10-24 22:00,ZBYN 242200Z AUTO 10004KT 7SM M01/M05 A3036 RMK T10101050 IEM_DS3505
ZBYN,1990-10-24 23:00,ZBYN 242300Z AUTO 09004KT 7SM M02/M04 A3036 RMK T10201040 IEM_DS3505
ZBYN,1990-10-25 00:00,ZBYN 250000Z AUTO 00000KT 12SM M00/M05 A3039 RMK SLP309 T10041050 52002 IEM_DS3505
ZBYN,1990-10-25 01:00,ZBYN 250100Z AUTO 18006KT 9SM A3039 RMK SLP249 4////1030 57031 IEM_DS3505
ZBYN,1990-10-25 02:00,ZBYN 250200Z AUTO 17004KT 7SM 08/M05 A3039 RMK T00801050 IEM_DS3505
ZBYN,1990-10-25 03:00,ZBYN 250300Z AUTO 18004KT 6SM 10/M02 A3036 RMK SLP284 T01001024 57008 IEM_DS3505
ZBYN,1990-10-25 05:00,ZBYN 250500Z AUTO 20010KT 7SM 15/M06 A3030 RMK T01501060 IEM_DS3505
ZBYN,1990-10-25 06:00,ZBYN 250600Z AUTO 18006KT 9SM 15/M06 A3027 RMK SLP249 T01501060 4////1030 57031 IEM_DS3505
ZBYN,1990-10-25 06:06,ZBYN 250606Z AUTO 20006KT 7SM RMK IEM_DS3505
ZBYN,1990-10-25 07:00,ZBYN 250700Z AUTO 19002KT 7SM 17/M03 A3024 RMK T01701030 IEM_DS3505
ZBYN,1990-10-25 08:00,ZBYN 250800Z AUTO 19004KT 7SM 17/M04 A3024 RMK T01701040 IEM_DS3505
ZBYN,1990-10-25 09:00,ZBYN 250900Z AUTO 16006KT 12SM 15/M03 RMK SLP240 T01491026 57012 IEM_DS3505
ZBYN,1990-10-25 10:00,ZBYN 251000Z AUTO 08006KT 7SM 11/02 A3021 RMK T01100020 IEM_DS3505
ZBYN,1990-10-25 11:00,ZBYN 251100Z AUTO 04002KT 7SM 09/M01 A3024 RMK T00901010 IEM_DS3505
ZBYN,1990-10-25 12:00,ZBYN 251200Z AUTO 00000KT 12SM 09/M01 A3027 RMK SLP267 T00901008 52017 IEM_DS3505
ZBYN,1990-10-25 13:00,ZBYN 251300Z AUTO 17006KT 7SM 06/M03 A3027 RMK T00601030 IEM_DS3505
ZBYN,1990-10-25 14:00,ZBYN 251400Z AUTO 07004KT 7SM 03/M02 A3030 RMK T00301020 IEM_DS3505
ZBYN,1990-10-25 15:00,ZBYN 251500Z AUTO 16004KT 12SM 05/M02 A3030 RMK SLP266 T00471023 52009 IEM_DS3505
ZBYN,1990-10-25 16:00,ZBYN 251600Z AUTO 08006KT 7SM 04/M04 A3030 RMK T00401040 IEM_DS3505
ZBYN,1990-10-25 17:00,ZBYN 251700Z AUTO 10004KT 7SM 03/M04 A3030 RMK T00301040 IEM_DS3505
ZBYN,1990-10-25 18:00,ZBYN 251800Z AUTO 00000KT 12SM 02/M03 A3033 RMK SLP265 T00161026 40164//// 52002 IEM_DS3505
ZBYN,1990-10-25 19:00,ZBYN 251900Z AUTO 00000KT 7SM M01/M04 A3033 RMK T10101040 IEM_DS3505
ZBYN,1990-10-25 20:00,ZBYN 252000Z AUTO 10004KT 7SM 00/M04 A3030 RMK T00001040 IEM_DS3505
ZBYN,1990-10-25 21:00,ZBYN 252100Z AUTO 00000KT 12SM M02/M02 A3030 RMK SLP274 T10151024 52003 IEM_DS3505
ZBYN,1990-10-25 22:00,ZBYN 252200Z AUTO 00000KT 7SM M03/M03 A3033 RMK T10301030 IEM_DS3505
ZBYN,1990-10-25 23:00,ZBYN 252300Z AUTO 00000KT 7SM M02/M05 A3033 RMK T10201050 IEM_DS3505
ZBYN,1990-10-26 00:00,ZBYN 260000Z AUTO 00000KT 6SM M01/M02 A3033 RMK SLP290 T10091022 52006 IEM_DS3505
ZBYN,1990-10-26 01:00,ZBYN 260100Z AUTO 00000KT 7SM 06/M03 A3036 RMK T00601030 IEM_DS3505
ZBYN,1990-10-26 02:00,ZBYN 260200Z AUTO 00000KT 7SM 12/M05 A3033 RMK T01201050 IEM_DS3505
ZBYN,1990-10-26 03:00,ZBYN 260300Z AUTO 00000KT 7SM 12/M05 A3033 RMK T01201050 IEM_DS3505
ZBYN,1990-10-26 04:00,ZBYN 260400Z AUTO 00000KT 7SM 13/M03 A3030 RMK T01301030 IEM_DS3505
ZBYN,1990-10-26 05:00,ZBYN 260500Z AUTO 00000KT 7SM 16/M03 A3027 RMK T01601030 IEM_DS3505
ZBYN,1990-10-26 06:00,ZBYN 260600Z AUTO 18002KT 6SM 16/M02 A3024 RMK SLP245 T01581021 4////1028 57023 IEM_DS3505
ZBYN,1990-10-26 07:00,ZBYN 260700Z AUTO 13004KT 6SM 16/M04 RMK T01601040 IEM_DS3505
ZBYN,1990-10-26 08:00,ZBYN 260800Z AUTO 22004KT 6SM 16/M03 A3021 RMK T01601030 IEM_DS3505
ZBYN,1990-10-26 09:00,ZBYN 260900Z AUTO 18004KT 7SM 15/M00 A3021 RMK SLP243 T01491005 57008 IEM_DS3505
ZBYN,1990-10-26 10:00,ZBYN 261000Z AUTO 00000KT 6SM 12/02 A3021 RMK T01200020 IEM_DS3505
ZBYN,1990-10-26 11:00,ZBYN 261100Z AUTO 14004KT 7SM 10/00 A3021 RMK T01000000 IEM_DS3505
ZBYN,1990-10-26 12:00,ZBYN 261200Z AUTO 09004KT 9SM 09/M00 A3024 RMK SLP255 T00861001 52002 IEM_DS3505
ZBYN,1990-10-26 13:00,ZBYN 261300Z AUTO 13004KT 7SM 05/M01 A3024 RMK T00501010 IEM_DS3505
ZBYN,1990-10-26 14:00,ZBYN 261400Z AUTO 09006KT 7SM 04/M02 A3027 RMK T00401020 IEM_DS3505
ZBYN,1990-10-26 15:00,ZBYN 261500Z AUTO 00000KT 9SM 03/01 RMK SLP251 T00340009 52008 IEM_DS3505
ZBYN,1990-10-26 16:00,ZBYN 261600Z AUTO 00000KT 7SM 04/M05 A3027 RMK T00401050 IEM_DS3505
ZBYN,1990-10-26 17:00,ZBYN 261700Z AUTO 00000KT 7SM 01/M03 A3027 RMK T00101030 IEM_DS3505
ZBYN,1990-10-26 18:00,ZBYN 261800Z AUTO 00000KT 7SM 01/M01 A3027 RMK SLP253 T00101006 40169//// 52004 IEM_DS3505
ZBYN,1990-10-26 19:00,ZBYN 261900Z AUTO 00000KT 7SM M01/M02 A3027 RMK T10101020 IEM_DS3505
ZBYN,1990-10-26 20:00,ZBYN 262000Z AUTO 00000KT 5SM M01/M02 A3027 RMK T10101020 IEM_DS3505
ZBYN,1990-10-26 21:00,ZBYN 262100Z AUTO 00000KT 6SM M00/M01 A3027 RMK SLP254 T10031008 57002 IEM_DS3505
ZBYN,1990-10-26 22:00,ZBYN 262200Z AUTO 00000KT 5SM M02/M03 A3027 RMK T10201030 IEM_DS3505
ZBYN,1990-10-26 23:00,ZBYN 262300Z AUTO 00000KT 5SM M03/M03 A3027 RMK T10301030 IEM_DS3505
ZBYN,1990-10-27 00:00,ZBYN 270000Z AUTO 00000KT 5SM M00/M02 A3030 RMK SLP271 T10011021 52006 IEM_DS3505
ZBYN,1990-10-27 01:00,ZBYN 270100Z AUTO 00000KT 2 1/2SM 04/M01 A3033 RMK T00401010 IEM_DS3505
ZBYN,1990-10-27 02:00,ZBYN 270200Z AUTO 00000KT 3SM 09/M01 A3030 RMK T00901010 IEM_DS3505
ZBYN,1990-10-27 03:00,ZBYN 270300Z AUTO 16004KT 6SM 11/M00 A3027 RMK SLP262 T01101004 52001 IEM_DS3505
ZBYN,1990-10-27 04:00,ZBYN 270400Z AUTO 17006KT 7SM 13/01 A3027 RMK T01300010 IEM_DS3505
ZBYN,1990-10-27 05:00,ZBYN 270500Z AUTO 17008KT 7SM 15/M03 A3021 RMK T01501030 IEM_DS3505
ZBYN,1990-10-27 06:00,ZBYN 270600Z AUTO 20006KT 6SM 16/00 A3018 RMK SLP229 T01560004 4////1014 57027 IEM_DS3505
ZBYN,1990-10-27 07:00,ZBYN 270700Z AUTO 20004KT 7SM 17/M03 A3018 RMK T01701030 IEM_DS3505
ZBYN,1990-10-27 08:00,ZBYN 270800Z AUTO 00000KT 7SM 17/M04 A3018 RMK T01701040 IEM_DS3505
ZBYN,1990-10-27 09:00,ZBYN 270900Z AUTO 18004KT 6SM 15/02 A3015 RMK SLP222 T01460020 57010 IEM_DS3505
ZBYN,1990-10-27 11:00,ZBYN 271100Z AUTO 09002KT 7SM 06/M01 A3018 RMK T00601010 IEM_DS3505
ZBYN,1990-10-27 12:00,ZBYN 271200Z AUTO 00000KT 6SM 05/01 RMK SLP242 T00500014 52004 IEM_DS3505
ZBYN,1990-10-27 13:00,ZBYN 271300Z AUTO 00000KT 7SM 03/M01 A3018 RMK T00301010 IEM_DS3505
ZBYN,1990-10-27 14:00,ZBYN 271400Z AUTO 17004KT 7SM 02/M02 A3021 RMK T00201020 IEM_DS3505
ZBYN,1990-10-27 15:00,ZBYN 271500Z AUTO 09004KT 5SM 03/M00 RMK SLP233 T00301004 52006 IEM_DS3505
ZBYN,1990-10-27 16:00,ZBYN 271600Z AUTO 11004KT 7SM 02/M02 A3021 RMK T00201020 IEM_DS3505
ZBYN,1990-10-27 17:00,ZBYN 271700Z AUTO 07004KT 7SM 00/M03 A3021 RMK T00001030 IEM_DS3505
ZBYN,1990-10-27 18:00,ZBYN 271800Z AUTO 00000KT 4SM M00/M01 A3021 RMK SLP231 T10051013 40162//// 54000 IEM_DS3505
ZBYN,1990-10-27 19:00,ZBYN 271900Z AUTO 00000KT 7SM M01/M03 A3018 RMK T10101030 IEM_DS3505
ZBYN,1990-10-27 21:00,ZBYN 272100Z AUTO 00000KT 4SM 01/M02 A3021 RMK SLP230 T00141025 57001 IEM_DS3505
ZBYN,1990-10-27 22:00,ZBYN 272200Z AUTO 00000KT 7SM M03/M03 A3021 RMK T10301030 IEM_DS3505
ZBYN,1990-10-27 23:00,ZBYN 272300Z AUTO 00000KT 7SM M04/M06 A3021 RMK T10401060 IEM_DS3505
ZBYN,1990-10-28 00:00,ZBYN 280000Z AUTO 00000KT 3SM M02/M02 A3024 RMK SLP264 T10181024 52010 IEM_DS3505
ZBYN,1990-10-28 01:00,ZBYN 280100Z AUTO 00000KT 5SM 03/M02 A3024 RMK T00301020 IEM_DS3505
ZBYN,1990-10-28 02:00,ZBYN 280200Z AUTO 00000KT 5SM 09/M03 A3024 RMK T00901030 IEM_DS3505
ZBYN,1990-10-28 03:00,ZBYN 280300Z AUTO 14002KT 4SM 12/M00 A3021 RMK SLP242 T01161005 57002 IEM_DS3505
ZBYN,1990-10-28 04:00,ZBYN 280400Z AUTO 18004KT 7SM 14/M03 A3021 RMK T01401030 IEM_DS3505
ZBYN,1990-10-28 05:00,ZBYN 280500Z AUTO 16004KT 6SM 16/02 A3015 RMK SLP199 T01610019 57009 IEM_DS3505
ZBYN,1990-10-28 06:00,ZBYN 280600Z AUTO 16006KT 6SM 17/00 A3012 RMK SLP211 T01680001 4////1025 57026 IEM_DS3505
ZBYN,1990-10-28 08:00,ZBYN 280800Z AUTO 19004KT 7SM 18/M03 RMK T01801030 IEM_DS3505
ZBYN,1990-10-28 09:00,ZBYN 280900Z AUTO 16004KT 6SM 16/02 A3009 RMK SLP199 T01610019 57009 IEM_DS3505
ZBYN,1990-10-28 10:00,ZBYN 281000Z AUTO 00000KT 7SM 12/02 A3009 RMK T01200020 IEM_DS3505
ZBYN,1990-10-28 11:00,ZBYN 281100Z AUTO 11002KT 7SM 09/00 A3009 RMK T00900000 IEM_DS3505
ZBYN,1990-10-28 12:00,ZBYN 281200Z AUTO 00000KT 6SM 07/01 A3009 RMK SLP227 T00710014 52007 IEM_DS3505
ZBYN,1990-10-28 13:00,ZBYN 281300Z AUTO 00000KT 7SM 07/M01 A3012 RMK T00701010 IEM_DS3505
ZBYN,1990-10-28 15:00,ZBYN 281500Z AUTO 00000KT 6SM 04/02 A3012 RMK SLP214 T00410017 52004 IEM_DS3505
ZBYN,1990-10-28 16:00,ZBYN 281600Z AUTO 00000KT 7SM 03/M01 A3012 RMK T00301010 IEM_DS3505
ZBYN,1990-10-28 17:00,ZBYN 281700Z AUTO 00000KT 7SM 01/M02 A3012 RMK T00101020 IEM_DS3505
ZBYN,1990-10-28 18:00,ZBYN 281800Z AUTO 00000KT 6SM 01/M00 A3012 RMK SLP208 T00141002 40179//// 57001 IEM_DS3505
ZBYN,1990-10-28 19:00,ZBYN 281900Z AUTO 00000KT 7SM 00/M02 A3012 RMK T00001020 IEM_DS3505
ZBYN,1990-10-28 20:00,ZBYN 282000Z AUTO 00000KT 7SM M01/M03 A3012 RMK T10101030 IEM_DS3505
ZBYN,1990-10-28 21:00,ZBYN 282100Z AUTO 00000KT 5SM 01/M01 A3012 RMK SLP207 T00081011 57003 IEM_DS3505
ZBYN,1990-10-28 22:00,ZBYN 282200Z AUTO 00000KT 5SM M01/M02 A3015 RMK T10101020 IEM_DS3505
ZBYN,1990-10-28 23:00,ZBYN 282300Z AUTO 00000KT 4SM M01/M02 A3015 RMK T10101020 IEM_DS3505
ZBYN,1990-10-29 00:00,ZBYN 290000Z AUTO 00000KT 5SM 01/M01 A3018 RMK SLP237 T00141010 52014 IEM_DS3505
ZBYN,1990-10-29 01:00,ZBYN 290100Z AUTO 00000KT 3SM 06/M01 A3018 RMK T00601010 IEM_DS3505
ZBYN,1990-10-29 02:00,ZBYN 290200Z AUTO 00000KT 3SM 10/M01 A3018 RMK T01001010 IEM_DS3505
ZBYN,1990-10-29 03:00,ZBYN 290300Z AUTO 36002KT 4SM 13/M01 A3015 RMK SLP218 T01321013 57004 IEM_DS3505
ZBYN,1990-10-29 04:00,ZBYN 290400Z AUTO 17008KT 7SM 16/00 A3012 RMK T01600000 IEM_DS3505
ZBYN,1990-10-29 05:00,ZBYN 290500Z AUTO 22006KT 7SM 18/01 A3009 RMK T01800010 IEM_DS3505
ZBYN,1990-10-29 06:00,ZBYN 290600Z AUTO 08006KT 4SM 18/05 A3006 RMK SLP183 T01840053 57028 IEM_DS3505
ZBYN,1990-10-29 07:00,ZBYN 290700Z AUTO 00000KT 7SM 20/00 RMK T02000000 IEM_DS3505
ZBYN,1990-10-29 08:00,ZBYN 290800Z AUTO 17008KT 7SM 16/00 A3012 RMK T01600000 IEM_DS3505
ZBYN,1990-10-29 09:00,ZBYN 290900Z AUTO 16006KT 6SM 17/04 A3003 RMK SLP176 T01700036 57009 IEM_DS3505
ZBYN,1990-10-29 10:00,ZBYN 291000Z AUTO 13004KT 4SM 14/04 A3003 RMK T01400040 IEM_DS3505
ZBYN,1990-10-29 10:21,ZBYN 291021Z AUTO 13004KT 4SM 14/04 A3003 RMK T01400040 IEM_DS3505
ZBYN,1990-10-29 11:00,ZBYN 291100Z AUTO 10006KT 7SM 12/01 A3006 RMK T01200010 IEM_DS3505
ZBYN,1990-10-29 12:00,ZBYN 291200Z AUTO 00000KT 7SM 11/03 A3009 RMK SLP194 T01070027 52007 IEM_DS3505
ZBYN,1990-10-29 13:00,ZBYN 291300Z AUTO 00000KT 7SM 07/02 A3009 RMK T00700020 IEM_DS3505
ZBYN,1990-10-29 14:00,ZBYN 291400Z AUTO 00000KT 7SM 07/01 A3009 RMK T00700010 IEM_DS3505
ZBYN,1990-10-29 15:00,ZBYN 291500Z AUTO 00000KT 7SM 05/03 A3012 RMK SLP192 T00500031 52008 IEM_DS3505
ZBYN,1990-10-29 16:00,ZBYN 291600Z AUTO 16004KT 7SM 07/01 A3009 RMK T00700010 IEM_DS3505
ZBYN,1990-10-29 17:00,ZBYN 291700Z AUTO 16006KT 7SM 06/02 A3009 RMK T00600020 IEM_DS3505
ZBYN,1990-10-29 18:00,ZBYN 291800Z AUTO 09002KT 6SM 04/00 A3009 RMK SLP185 T00400000 40193//// 57001 IEM_DS3505
ZBYN,1990-10-29 20:00,ZBYN 292000Z AUTO 00000KT 3SM 03/01 A3009 RMK T00300010 IEM_DS3505
ZBYN,1990-10-29 21:00,ZBYN 292100Z AUTO 00000KT 6SM 03/01 A3009 RMK SLP190 T00260011 52001 IEM_DS3505
ZBYN,1990-10-29 22:00,ZBYN 292200Z AUTO 00000KT 3SM 01/01 A3009 RMK T00100010 IEM_DS3505
ZBYN,1990-10-29 23:00,ZBYN 292300Z AUTO 00000KT 1 1/2SM 01/00 A3009 RMK T00100000 IEM_DS3505
ZBYN,1990-10-30 00:00,ZBYN 300000Z AUTO 34002KT 6SM 06/01 A3012 RMK SLP201 T00590013 52006 IEM_DS3505
ZBYN,1990-10-30 01:00,ZBYN 300100Z AUTO 00000KT 1 1/2SM 08/03 A3012 RMK T00800030 IEM_DS3505
ZBYN,1990-10-30 02:00,ZBYN 300200Z AUTO 00000KT 2SM 12/03 A3012 RMK T01200030 IEM_DS3505
ZBYN,1990-10-30 03:00,ZBYN 300300Z AUTO 14004KT 5SM 15/04 A3009 RMK SLP193 T01510044 57002 IEM_DS3505
ZBYN,1990-10-30 04:00,ZBYN 300400Z AUTO 19002KT 7SM 18/04 A3009 RMK T01800040 IEM_DS3505
ZBYN,1990-10-30 05:00,ZBYN 300500Z AUTO 20006KT 7SM 19/04 A3003 RMK T01900040 IEM_DS3505
ZBYN,1990-10-30 06:00,ZBYN 300600Z AUTO 22008KT 6SM 20/05 A3000 RMK SLP152 T01990047 4////0009 IEM_DS3505
ZBYN,1990-10-30 07:00,ZBYN 300700Z AUTO 00000KT 7SM 22/02 A2997 RMK T02200020 IEM_DS3505
ZBYN,1990-10-30 08:00,ZBYN 300800Z AUTO 00000KT 7SM 22/03 A2997 RMK T02200030 IEM_DS3505
ZBYN,1990-10-30 09:00,ZBYN 300900Z AUTO 18004KT 5SM 19/07 A2997 RMK SLP144 T01900071 57011 IEM_DS3505
ZBYN,1990-10-30 10:00,ZBYN 301000Z AUTO 16002KT 4SM 16/05 A2997 RMK T01600050 IEM_DS3505
ZBYN,1990-10-30 11:00,ZBYN 301100Z AUTO 09006KT 7SM 13/04 A2997 RMK T01300040 IEM_DS3505
ZBYN,1990-10-30 12:00,ZBYN 301200Z AUTO 00000KT 6SM 10/05 A2997 RMK SLP150 T01010048 52003 IEM_DS3505
ZBYN,1990-10-30 13:00,ZBYN 301300Z AUTO 00000KT 7SM 08/04 A3000 RMK T00800040 IEM_DS3505
ZBYN,1990-10-30 14:00,ZBYN 301400Z AUTO 00000KT 7SM 08/03 A3000 RMK T00800030 IEM_DS3505
ZBYN,1990-10-30 15:00,ZBYN 301500Z AUTO 00000KT 5SM 06/04 RMK SLP153 T00600040 52005 IEM_DS3505
ZBYN,1990-10-30 16:00,ZBYN 301600Z AUTO 09008KT 7SM 07/03 A3000 RMK T00700030 IEM_DS3505
ZBYN,1990-10-30 17:00,ZBYN 301700Z AUTO 11006KT 7SM 08/03 A3000 RMK T00800030 IEM_DS3505
ZBYN,1990-10-30 18:00,ZBYN 301800Z AUTO 00000KT 5SM 05/03 A3000 RMK 70083 SLP147 T00470028 54000 IEM_DS3505
ZBYN,1990-10-30 19:00,ZBYN 301900Z AUTO 00000KT 7SM 05/01 A2997 RMK T00500010 IEM_DS3505
ZBYN,1990-10-30 20:00,ZBYN 302000Z AUTO 13004KT 7SM 04/01 A2994 RMK T00400010 IEM_DS3505
ZBYN,1990-10-30 21:00,ZBYN 302100Z AUTO 00000KT 7SM 03/00 A2994 RMK T00300000 IEM_DS3505
ZBYN,1990-10-30 22:00,ZBYN 302200Z AUTO 15004KT 7SM 04/02 A2997 RMK T00400020 IEM_DS3505
ZBYN,1990-10-30 23:00,ZBYN 302300Z AUTO 00000KT 3SM 02/02 A2997 RMK T00200020 IEM_DS3505
ZBYN,1990-10-31 00:00,ZBYN 310000Z AUTO 00000KT 2SM 05/02 RMK SLP173 T00520024 52011 IEM_DS3505
ZBYN,1990-10-31 01:00,ZBYN 310100Z AUTO 00000KT 2 1/2SM 07/04 A3003 RMK T00700040 IEM_DS3505
ZBYN,1990-10-31 03:00,ZBYN 310300Z AUTO 00000KT 6SM 14/06 A3003 RMK SLP168 T01390056 52003 IEM_DS3505
ZBYN,1990-10-31 04:00,ZBYN 310400Z AUTO 00000KT 7SM 17/06 A3000 RMK T01700060 IEM_DS3505
ZBYN,1990-10-31 05:00,ZBYN 310500Z AUTO 00000KT 7SM 19/05 A2997 RMK T01900050 IEM_DS3505
ZBYN,1990-10-31 06:00,ZBYN 310600Z AUTO 00000KT 6SM 20/06 A2997 RMK SLP144 T01950063 4////0031 57016 IEM_DS3505
ZBYN,1990-10-31 07:00,ZBYN 310700Z AUTO 23006KT 7SM 20/06 A2994 RMK T02000060 IEM_DS3505
ZBYN,1990-10-31 08:00,ZBYN 310800Z AUTO 00000KT 7SM 20/06 A2994 RMK T02000060 IEM_DS3505
ZBYN,1990-10-31 09:00,ZBYN 310900Z AUTO 00000KT 6SM 17/09 A2994 RMK SLP144 T01700086 57003 IEM_DS3505
ZBYN,1990-10-31 10:00,ZBYN 311000Z AUTO 00000KT 3SM 14/08 A2997 RMK T01400080 IEM_DS3505
ZBYN,1990-10-31 11:00,ZBYN 311100Z AUTO 08012KT 4SM 13/ A3000 RMK IEM_DS3505
ZBYN,1990-10-31 12:00,ZBYN 311200Z AUTO 14004KT 5SM 11/06 A3003 RMK SLP177 T01070057 52021 IEM_DS3505
ZBYN,1990-10-31 13:00,ZBYN 311300Z AUTO 05006KT 3SM 13/06 A3003 RMK T01300060 IEM_DS3505
ZBYN,1990-10-31 14:00,ZBYN 311400Z AUTO 05006KT 3SM 13/05 A3009 RMK T01300050 IEM_DS3505
ZBYN,1990-10-31 15:00,ZBYN 311500Z AUTO 25002KT 4SM 09/05 RMK SLP188 T00860052 52020 IEM_DS3505
ZBYN,1990-10-31 21:00,ZBYN 312100Z AUTO 32004KT 6SM 08/04 A3009 RMK SLP188 T00800035 57001 IEM_DS3505
ZBYN,1990-10-31 22:00,ZBYN 312200Z AUTO 33006KT 6SM 10/02 A3012 RMK T01000020 IEM_DS3505
ZBYN,1990-10-31 23:00,ZBYN 312300Z AUTO 36006KT 4SM 10/03 A3015 RMK T01000030 IEM_DS3505
ZBYN,1990-11-01 00:00,ZBYN 010000Z AUTO 32002KT 6SM 09/03 A3018 RMK SLP222 T00900032 52023 IEM_DS3505
ZBYN,1990-11-01 01:00,ZBYN 010100Z AUTO 05010KT 6SM 11/00 A3021 RMK T01100000 IEM_DS3505
ZBYN,1990-11-01 02:00,ZBYN 010200Z AUTO 03010KT 6SM 11/M06 A3021 RMK T01101060 IEM_DS3505
ZBYN,1990-11-01 03:00,ZBYN 010300Z AUTO 00000KT 5SM 13/M01 A3021 RMK SLP229 T01271011 52008 IEM_DS3505
ZBYN,1990-11-01 04:00,ZBYN 010400Z AUTO 09014KT 6SM 11/M07 A3021 RMK T01101070 IEM_DS3505
ZBYN,1990-11-01 05:00,ZBYN 010500Z AUTO 09012KT 6SM 11/M05 A3018 RMK T01101050 IEM_DS3505
ZBYN,1990-11-01 06:00,ZBYN 010600Z AUTO 09006KT 7SM 11/M01 A3015 RMK SLP209 T01101010 4////0070 57018 IEM_DS3505
ZBYN,1990-11-01 07:00,ZBYN 010700Z AUTO 06014KT 6SM 11/01 A3015 RMK T01100010 IEM_DS3505
ZBYN,1990-11-01 08:00,ZBYN 010800Z AUTO 07006KT 6SM 11/02 A3015 RMK T01100020 IEM_DS3505
ZBYN,1990-11-01 09:00,ZBYN 010900Z AUTO 17006KT 6SM 10/03 A3018 RMK SLP212 T01000030 52003 IEM_DS3505
ZBYN,1990-11-01 12:00,ZBYN 011200Z AUTO 07004KT 6SM 10/03 A3022 RMK SLP235 T01000030 IEM_DS3505
ZBYN,1990-11-01 13:00,ZBYN 011300Z AUTO 04008KT 6SM 09/01 A3024 RMK T00900010 IEM_DS3505
ZBYN,1990-11-01 14:00,ZBYN 011400Z AUTO 02008KT 6SM 08/01 A3027 RMK T00800010 IEM_DS3505
ZBYN,1990-11-01 15:00,ZBYN 011500Z AUTO 00000KT 6SM 08/05 A3024 RMK SLP239 T00830053 52007 IEM_DS3505
ZBYN,1990-11-01 16:00,ZBYN 011600Z AUTO 07006KT 6SM 08/00 A3024 RMK T00800000 IEM_DS3505
ZBYN,1990-11-01 17:00,ZBYN 011700Z AUTO 06008KT 6SM 08/00 A3024 RMK T00800000 IEM_DS3505
ZBYN,1990-11-01 18:00,ZBYN 011800Z AUTO 34004KT 6SM 06/04 A3028 RMK SLP245 T00650039 40132//// 52002 IEM_DS3505
ZBYN,1990-11-01 19:00,ZBYN 011900Z AUTO 36006KT 6SM 07/01 A3024 RMK T00700010 IEM_DS3505
ZBYN,1990-11-01 20:00,ZBYN 012000Z AUTO 00000KT 7SM 07/02 A3024 RMK T00700020 IEM_DS3505
ZBYN,1990-11-01 21:00,ZBYN 012100Z AUTO 34004KT 6SM 04/04 A3024 RMK T00430036 IEM_DS3505
ZBYN,1990-11-01 22:00,ZBYN 012200Z AUTO 02008KT 5SM 04/03 A3024 RMK T00400030 IEM_DS3505
ZBYN,1990-11-01 23:00,ZBYN 012300Z AUTO 02004KT 5SM 04/04 A3027 RMK T00400040 IEM_DS3505
ZBYN,1990-11-02 00:00,ZBYN 020000Z AUTO 34004KT 6SM 04/03 A3027 RMK 60016 SLP261 T00360031 52009 IEM_DS3505
ZBYN,1990-11-02 01:00,ZBYN 020100Z AUTO 34006KT 4SM 04/04 A3030 RMK T00400040 IEM_DS3505
ZBYN,1990-11-02 02:00,ZBYN 020200Z AUTO 01008KT 4SM 04/04 A3030 RMK T00400040 IEM_DS3505
ZBYN,1990-11-02 03:00,ZBYN 020300Z AUTO 34004KT 6SM 05/03 A3027 RMK SLP261 T00480034 57001 IEM_DS3505
ZBYN,1990-11-02 04:00,ZBYN 020400Z AUTO 36008KT 4SM 05/04 A3024 RMK T00500040 IEM_DS3505
ZBYN,1990-11-02 05:00,ZBYN 020500Z AUTO 35006KT 4SM 05/04 A3021 RMK T00500040 IEM_DS3505
ZBYN,1990-11-02 06:00,ZBYN 020600Z AUTO 36004KT 6SM 05/04 A3022 RMK 60012 SLP246 T00500041 4////0033 57016 IEM_DS3505
ZBYN,1990-11-02 07:00,ZBYN 020700Z AUTO 00000KT 4SM 05/05 A3021 RMK T00500050 IEM_DS3505
ZBYN,1990-11-02 08:00,ZBYN 020800Z AUTO 17006KT 3SM 05/05 A3021 RMK T00500050 IEM_DS3505
ZBYN,1990-11-02 09:00,ZBYN 020900Z AUTO 00000KT 6SM 05/04 A3018 RMK T00530040 57005 IEM_DS3505
ZBYN,1990-11-02 11:00,ZBYN 021100Z AUTO 00000KT 4SM 05/04 A3018 RMK T00500040 IEM_DS3505
ZBYN,1990-11-02 12:00,ZBYN 021200Z AUTO 00000KT 6SM 04/04 A3021 RMK 60012 SLP247 T00420040 54000 IEM_DS3505
ZBYN,1990-11-02 13:00,ZBYN 021300Z AUTO 00000KT 3/8SM 02/02 A3021 RMK T00200020 IEM_DS3505
ZBYN,1990-11-02 14:00,ZBYN 021400Z AUTO 00000KT 1SM 04/04 A3021 RMK T00400040 IEM_DS3505
ZBYN,1990-11-02 15:00,ZBYN 021500Z AUTO 16004KT 6SM 05/04 A3021 RMK SLP248 T00480043 52004 IEM_DS3505
ZBYN,1990-11-02 16:00,ZBYN 021600Z AUTO 00000KT 1SM 04/04 A3021 RMK T00400040 IEM_DS3505
ZBYN,1990-11-02 17:00,ZBYN 021700Z AUTO 00000KT 1SM 04/04 A3018 RMK T00400040 IEM_DS3505
ZBYN,1990-11-02 18:00,ZBYN 021800Z AUTO 16002KT 6SM 05/04 A3018 RMK SLP240 T00480041 40065//// 57007 IEM_DS3505
ZBYN,1990-11-02 19:00,ZBYN 021900Z AUTO 00000KT 1SM 04/04 A3018 RMK T00400040 IEM_DS3505
ZBYN,1990-11-02 20:00,ZBYN 022000Z AUTO 00000KT 1 1/4SM 05/04 A3015 RMK T00500040 IEM_DS3505
ZBYN,1990-11-02 21:00,ZBYN 022100Z AUTO 16004KT 6SM 05/04 A3018 RMK SLP235 T00470045 57005 IEM_DS3505
ZBYN,1990-11-02 22:00,ZBYN 022200Z AUTO 00000KT 1 1/4SM 05/04 A3018 RMK T00500040 IEM_DS3505
ZBYN,1990-11-02 23:00,ZBYN 022300Z AUTO 00000KT 1 1/2SM 05/04 A3018 RMK T00500040 IEM_DS3505
ZBYN,1990-11-03 00:00,ZBYN 030000Z AUTO 16004KT 5SM 05/04 A3018 RMK SLP238 T00490045 52002 IEM_DS3505
ZBYN,1990-11-03 01:00,ZBYN 030100Z AUTO 00000KT 1 1/2SM 05/05 A3018 RMK T00500050 IEM_DS3505
ZBYN,1990-11-03 02:00,ZBYN 030200Z AUTO 00000KT 2SM 06/05 A3018 RMK T00600050 IEM_DS3505
ZBYN,1990-11-03 03:00,ZBYN 030300Z AUTO 16006KT 5SM 07/05 A3015 RMK SLP229 T00680048 57005 IEM_DS3505
ZBYN,1990-11-03 04:00,ZBYN 030400Z AUTO 19004KT 7SM 09/05 A3015 RMK T00900050 IEM_DS3505
ZBYN,1990-11-03 05:00,ZBYN 030500Z AUTO 00000KT 7SM 09/05 A3012 RMK T00900050 IEM_DS3505
ZBYN,1990-11-03 06:00,ZBYN 030600Z AUTO 18004KT 5SM 08/05 A3009 RMK SLP198 T00840052 4////0040 57025 IEM_DS3505
ZBYN,1990-11-03 07:00,ZBYN 030700Z AUTO 00000KT 7SM A3006 RMK IEM_DS3505
ZBYN,1990-11-03 08:00,ZBYN 030800Z AUTO 00000KT 7SM 10/06 A3003 RMK T01000060 IEM_DS3505
ZBYN,1990-11-03 09:00,ZBYN 030900Z AUTO 16004KT 5SM 09/06 A3003 RMK SLP179 T00870058 57017 IEM_DS3505
ZBYN,1990-11-03 10:00,ZBYN 031000Z AUTO 00000KT 7SM 07/06 A3003 RMK T00700060 IEM_DS3505
ZBYN,1990-11-03 11:00,ZBYN 031100Z AUTO 00000KT 7SM 06/05 A3000 RMK T00600050 IEM_DS3505
ZBYN,1990-11-03 12:00,ZBYN 031200Z AUTO 00000KT 2 1/2SM 05/00 A3000 RMK SLP185 T00520000 54000 IEM_DS3505
ZBYN,1990-11-03 14:00,ZBYN 031400Z AUTO 14004KT 7SM 05/04 A3000 RMK T00500040 IEM_DS3505
ZBYN,1990-11-03 15:00,ZBYN 031500Z AUTO 16004KT 4SM 06/05 A3000 RMK SLP177 T00590050 57003 IEM_DS3505
ZBYN,1990-11-03 16:00,ZBYN 031600Z AUTO 00000KT 7SM 06/05 A2997 RMK T00600050 IEM_DS3505
ZBYN,1990-11-03 17:00,ZBYN 031700Z AUTO 00000KT 4SM 06/05 A2997 RMK T00600050 IEM_DS3505
ZBYN,1990-11-03 18:00,ZBYN 031800Z AUTO 14006KT 4SM 06/05 A2994 RMK SLP164 T00570050 40094//// 57010 IEM_DS3505
ZBYN,1990-11-03 19:00,ZBYN 031900Z AUTO 00000KT 4SM 06/06 A2994 RMK T00600060 IEM_DS3505
ZBYN,1990-11-03 20:00,ZBYN 032000Z AUTO 00000KT 4SM 07/06 A2994 RMK T00700060 IEM_DS3505
ZBYN,1990-11-03 21:00,ZBYN 032100Z AUTO 00000KT 5SM 06/06 A2994 RMK T00640058 57016 IEM_DS3505
ZBYN,1990-11-03 22:00,ZBYN 032200Z AUTO 00000KT 4SM 07/06 A2994 RMK T00700060 IEM_DS3505
ZBYN,1990-11-03 23:00,ZBYN 032300Z AUTO 00000KT 1 1/2SM 06/06 A2994 RMK T00600060 IEM_DS3505
ZBYN,1990-11-04 00:00,ZBYN 040000Z AUTO 00000KT 1 1/4SM 06/06 A2994 RMK SLP155 T00610057 57001 IEM_DS3505
ZBYN,1990-11-04 01:00,ZBYN 040100Z AUTO 00000KT 1SM 07/06 A2997 RMK T00700060 IEM_DS3505
ZBYN,1990-11-04 03:00,ZBYN 040300Z AUTO 22004KT 2 1/2SM 09/06 A2994 RMK SLP145 T00910058 52001 IEM_DS3505
ZBYN,1990-11-04 04:00,ZBYN 040400Z AUTO 17006KT 2SM 10/06 A2991 RMK T01000060 IEM_DS3505
ZBYN,1990-11-04 05:00,ZBYN 040500Z AUTO 34004KT 3SM 12/07 A2988 RMK SLP116 T01200070 57003 IEM_DS3505
ZBYN,1990-11-04 06:00,ZBYN 040600Z AUTO 36004KT 4SM 12/08 A2985 RMK SLP121 T01240077 4////0037 57017 IEM_DS3505
ZBYN,1990-11-04 07:00,ZBYN 040700Z AUTO 00000KT 7SM 14/07 A2985 RMK T01400070 IEM_DS3505
ZBYN,1990-11-04 08:00,ZBYN 040800Z AUTO 00000KT 7SM 15/09 A2985 RMK T01500090 IEM_DS3505
ZBYN,1990-11-04 09:00,ZBYN 040900Z AUTO 34004KT 3SM 12/08 A2985 RMK SLP116 T01240084 51030 IEM_DS3505
ZBYN,1990-11-04 10:00,ZBYN 041000Z AUTO 33006KT 1SM 10/07 A2988 RMK T01000070 IEM_DS3505
ZBYN,1990-11-04 11:00,ZBYN 041100Z AUTO 02006KT 1 1/4SM 09/08 A2991 RMK T00900080 IEM_DS3505
ZBYN,1990-11-04 12:00,ZBYN 041200Z AUTO 00000KT 4SM 08/07 A2991 RMK SLP143 T00770067 52017 IEM_DS3505
ZBYN,1990-11-04 13:00,ZBYN 041300Z AUTO 00000KT 1 1/4SM 07/06 A2994 RMK T00700060 IEM_DS3505
ZBYN,1990-11-04 14:00,ZBYN 041400Z AUTO 00000KT 1 1/4SM 07/06 A2997 RMK T00700060 IEM_DS3505
ZBYN,1990-11-04 15:00,ZBYN 041500Z AUTO 00000KT 4SM 06/05 A2997 RMK SLP160 T00630052 52018 IEM_DS3505
ZBYN,1990-11-04 16:00,ZBYN 041600Z AUTO 00000KT 2SM 05/05 A3000 RMK T00500050 IEM_DS3505
ZBYN,1990-11-04 17:00,ZBYN 041700Z AUTO 08004KT 2 1/2SM 05/04 A2997 RMK T00500040 IEM_DS3505
ZBYN,1990-11-04 18:00,ZBYN 041800Z AUTO 00000KT 2 1/2SM RMK 40055//// 57003 IEM_DS3505
ZBYN,1990-11-04 19:00,ZBYN 041900Z AUTO 00000KT 2SM 04/04 A2997 RMK T00400040 IEM_DS3505
ZBYN,1990-11-04 20:00,ZBYN 042000Z AUTO 09004KT 1SM 03/03 A2997 RMK T00300030 IEM_DS3505
ZBYN,1990-11-04 21:00,ZBYN 042100Z AUTO 00000KT 2 1/2SM 03/02 A2997 RMK SLP161 T00270025 52002 IEM_DS3505
ZBYN,1990-11-04 22:00,ZBYN 042200Z AUTO 28004KT 1SM 01/01 A2997 RMK T00100010 IEM_DS3505
ZBYN,1990-11-04 23:00,ZBYN 042300Z AUTO 00000KT 1SM 03/03 A2997 RMK T00300030 IEM_DS3505
ZBYN,1990-11-05 00:00,ZBYN 050000Z AUTO 00000KT 3SM 04/03 A3000 RMK SLP175 T00350033 52007 IEM_DS3505
ZBYN,1990-11-05 01:00,ZBYN 050100Z AUTO 00000KT 1SM 05/05 A3000 RMK T00500050 IEM_DS3505
ZBYN,1990-11-05 02:00,ZBYN 050200Z AUTO 00000KT 1 1/4SM 08/05 A3000 RMK T00800050 IEM_DS3505
ZBYN,1990-11-05 03:00,ZBYN 050300Z AUTO 16004KT 2 1/2SM 09/06 A2997 RMK SLP162 T00940063 57005 IEM_DS3505
ZBYN,1990-11-05 04:00,ZBYN 050400Z AUTO 19006KT 2SM 11/07 A2994 RMK T01100070 IEM_DS3505
ZBYN,1990-11-05 05:00,ZBYN 050500Z AUTO 17008KT 2SM 11/06 A2994 RMK T01100060 IEM_DS3505
ZBYN,1990-11-05 06:00,ZBYN 050600Z AUTO 16008KT 4SM 13/07 A2991 RMK SLP134 T01280066 4////0024 57024 IEM_DS3505
ZBYN,1990-11-05 07:00,ZBYN 050700Z AUTO 12012KT 3SM 13/07 A2988 RMK T01300070 IEM_DS3505
ZBYN,1990-11-05 08:00,ZBYN 050800Z AUTO 00000KT 3SM 14/08 A2988 RMK T01400080 IEM_DS3505
ZBYN,1990-11-05 09:00,ZBYN 050900Z AUTO 34002KT 4SM 13/08 A2991 RMK SLP134 T01260082 57002 IEM_DS3505
ZBYN,1990-11-05 11:00,ZBYN 051100Z AUTO 01004KT 2 1/2SM 09/05 A2997 RMK T00900050 IEM_DS3505
ZBYN,1990-11-05 12:00,ZBYN 051200Z AUTO 29006KT 7SM 12/01 A3000 RMK SLP166 T01170010 52029 IEM_DS3505
ZBYN,1990-11-05 13:00,ZBYN 051300Z AUTO 29008KT 7SM 10/01 A3000 RMK T01000010 IEM_DS3505
ZBYN,1990-11-05 14:00,ZBYN 051400Z AUTO 31012KT 7SM 11/M05 A3003 RMK T01101050 IEM_DS3505
ZBYN,1990-11-05 15:00,ZBYN 051500Z AUTO 29008KT 9SM 10/M06 A3006 RMK SLP177 T01011060 52016 IEM_DS3505
ZBYN,1990-11-05 16:00,ZBYN 051600Z AUTO 35004KT 7SM 08/M04 A3006 RMK T00801040 IEM_DS3505
ZBYN,1990-11-05 18:00,ZBYN 051800Z AUTO 29004KT 12SM 05/M03 A3006 RMK SLP181 T00521029 40143//// 52002 IEM_DS3505
ZBYN,1990-11-05 19:00,ZBYN 051900Z AUTO 00000KT 7SM 03/M04 A3006 RMK T00301040 IEM_DS3505
ZBYN,1990-11-05 20:00,ZBYN 052000Z AUTO 00000KT 7SM 04/M03 A3006 RMK T00401030 IEM_DS3505
ZBYN,1990-11-05 21:00,ZBYN 052100Z AUTO 27004KT 12SM 03/M03 A3006 RMK SLP186 T00331027 50010 IEM_DS3505
ZBYN,1990-11-05 22:00,ZBYN 052200Z AUTO 11006KT 4SM 01/M01 A3006 RMK T00101010 IEM_DS3505
ZBYN,1990-11-05 23:00,ZBYN 052300Z AUTO 09004KT 4SM 01/M01 A3009 RMK T00101010 IEM_DS3505
ZBYN,1990-11-06 00:00,ZBYN 060000Z AUTO 00000KT 5SM 01/M01 A3009 RMK SLP201 T00081008 52008 IEM_DS3505
ZBYN,1990-11-06 01:00,ZBYN 060100Z AUTO 00000KT 4SM 06/00 A3009 RMK T00600000 IEM_DS3505
ZBYN,1990-11-06 02:00,ZBYN 060200Z AUTO 11004KT 4SM 09/00 A3012 RMK T00900000 IEM_DS3505
ZBYN,1990-11-06 03:00,ZBYN 060300Z AUTO 11004KT 6SM 11/M00 A3010 RMK SLP191 T01081001 52004 IEM_DS3505
ZBYN,1990-11-06 09:00,ZBYN 060900Z AUTO 14002KT 6SM 14/01 A3000 RMK SLP163 T01380011 57011 IEM_DS3505
ZBYN,1990-11-06 11:00,ZBYN 061100Z AUTO 11004KT 6SM 09/00 A3000 RMK T00900000 IEM_DS3505
ZBYN,1990-11-06 12:00,ZBYN 061200Z AUTO 32004KT 6SM 10/02 A3003 RMK SLP183 T01000018 52008 IEM_DS3505
ZBYN,1990-11-06 13:00,ZBYN 061300Z AUTO 00000KT 6SM 06/02 A3006 RMK T00600020 IEM_DS3505
ZBYN,1990-11-06 14:00,ZBYN 061400Z AUTO 16006KT 6SM 08/01 A3006 RMK T00800010 IEM_DS3505
ZBYN,1990-11-06 15:00,ZBYN 061500Z AUTO 00000KT 6SM 07/02 A3005 RMK SLP177 T00740018 52006 IEM_DS3505
ZBYN,1990-11-06 18:00,ZBYN 061800Z AUTO 00000KT 6SM 06/02 A3004 RMK SLP170 T00630015 40154//// 57002 IEM_DS3505
ZBYN,1990-11-06 21:00,ZBYN 062100Z AUTO 34004KT 6SM 05/M00 A3006 RMK SLP179 T00521001 52005 IEM_DS3505
ZBYN,1990-11-06 22:00,ZBYN 062200Z AUTO 00000KT 5SM 03/01 A3006 RMK T00300010 IEM_DS3505
ZBYN,1990-11-06 23:00,ZBYN 062300Z AUTO 00000KT 2 1/2SM 02/01 A3009 RMK T00200010 IEM_DS3505
ZBYN,1990-11-07 00:00,ZBYN 070000Z AUTO 34004KT 5SM 06/M01 A3012 RMK SLP199 T00561011 52013 IEM_DS3505
ZBYN,1990-11-07 01:00,ZBYN 070100Z AUTO 00000KT 1SM 05/03 A3012 RMK T00500030 IEM_DS3505
ZBYN,1990-11-07 02:00,ZBYN 070200Z AUTO 00000KT 2SM 09/01 A3015 RMK T00900010 IEM_DS3505
ZBYN,1990-11-07 03:00,ZBYN 070300Z AUTO 32004KT 5SM 11/00 A3012 RMK SLP204 T01140002 52010 IEM_DS3505
ZBYN,1990-11-07 04:00,ZBYN 070400Z AUTO 33004KT 3SM 13/02 A3009 RMK T01300020 IEM_DS3505
ZBYN,1990-11-07 05:00,ZBYN 070500Z AUTO 00000KT 4SM 14/03 A3006 RMK T01400030 IEM_DS3505
ZBYN,1990-11-07 06:00,ZBYN 070600Z AUTO 36002KT 5SM 14/03 A3006 RMK SLP177 T01400026 IEM_DS3505
ZBYN,1990-11-07 07:00,ZBYN 070700Z AUTO 08006KT 4SM 15/05 A3003 RMK T01500050 IEM_DS3505
ZBYN,1990-11-07 08:00,ZBYN 070800Z AUTO 09010KT 4SM 12/03 A3006 RMK T01200030 IEM_DS3505
ZBYN,1990-11-07 09:00,ZBYN 070900Z AUTO 09002KT 5SM 12/04 A3006 RMK SLP188 T01170038 52004 IEM_DS3505
ZBYN,1990-11-07 10:00,ZBYN 071000Z AUTO 05010G21KT 4SM 09/02 A3009 RMK T00900020 IEM_DS3505
ZBYN,1990-11-07 11:00,ZBYN 071100Z AUTO 08016KT 4SM 07/03 A3012 RMK T00700030 IEM_DS3505
ZBYN,1990-11-07 12:00,ZBYN 071200Z AUTO 27004KT 4SM 07/05 A3015 RMK 60004 SLP226 T00740048 52029 IEM_DS3505
ZBYN,1990-11-07 13:00,ZBYN 071300Z AUTO 08008KT 5SM 05/04 A3021 RMK T00500040 IEM_DS3505
ZBYN,1990-11-07 14:00,ZBYN 071400Z AUTO 07014KT 7SM 05/04 A3024 RMK T00500040 IEM_DS3505
ZBYN,1990-11-07 15:00,ZBYN 071500Z AUTO 11004KT 4SM 05/04 A3024 RMK SLP249 T00540045 52027 IEM_DS3505
ZBYN,1990-11-07 16:00,ZBYN 071600Z AUTO 12006KT 7SM 04/04 A3027 RMK T00400040 IEM_DS3505
ZBYN,1990-11-07 17:00,ZBYN 071700Z AUTO 00000KT 5SM 05/04 A3027 RMK T00500040 IEM_DS3505
ZBYN,1990-11-07 18:00,ZBYN 071800Z AUTO 34006KT 6SM 06/04 A3027 RMK 60039 SLP250 T00580040 40144//// 52005 IEM_DS3505
ZBYN,1990-11-07 21:00,ZBYN 072100Z AUTO 16004KT 6SM 04/04 A3029 RMK SLP265 T00450036 52008 IEM_DS3505
ZBYN,1990-11-07 22:00,ZBYN 072200Z AUTO 00000KT 5SM 05/03 A3027 RMK T00500030 IEM_DS3505
ZBYN,1990-11-07 23:00,ZBYN 072300Z AUTO 00000KT 5SM 05/03 A3027 RMK T00500030 IEM_DS3505
ZBYN,1990-11-08 00:00,ZBYN 080000Z AUTO 16004KT 6SM 04/03 A3036 RMK 60000 70047 SLP296 T00440032 52022 IEM_DS3505
ZBYN,1990-11-08 01:00,ZBYN 080100Z AUTO 00000KT 7SM 05/04 A3039 RMK T00500040 IEM_DS3505
ZBYN,1990-11-08 02:00,ZBYN 080200Z AUTO 30004KT 6SM 07/05 A3039 RMK T00700050 IEM_DS3505
ZBYN,1990-11-08 03:00,ZBYN 080300Z AUTO 36006KT 6SM 08/02 A3042 RMK SLP304 T00850023 52010 IEM_DS3505
ZBYN,1990-11-08 04:00,ZBYN 080400Z AUTO 01019KT 6SM 10/00 A3042 RMK T01000000 IEM_DS3505
ZBYN,1990-11-08 05:00,ZBYN 080500Z AUTO 36021KT 6SM 09/00 A3039 RMK T00900000 IEM_DS3505
ZBYN,1990-11-08 06:00,ZBYN 080600Z AUTO 04008KT 9SM 08/M01 A3039 RMK SLP305 T00801013 4////0041 52001 IEM_DS3505
ZBYN,1990-11-08 09:00,ZBYN 080900Z AUTO 36004KT 12SM 07/M04 A3046 RMK SLP331 T00671040 52020 IEM_DS3505
ZBYN,1990-11-08 12:00,ZBYN 081200Z AUTO 32008KT 12SM 05/M08 A3053 RMK SLP359 T00511079 52022 IEM_DS3505
ZBYN,1990-11-08 14:00,ZBYN 081400Z AUTO 30014KT 6SM 04/M12 A3059 RMK T00401120 IEM_DS3505
ZBYN,1990-11-08 15:00,ZBYN 081500Z AUTO 32012KT 12SM 03/M12 A3059 RMK SLP376 T00281118 52019 IEM_DS3505
ZBYN,1990-11-08 16:00,ZBYN 081600Z AUTO 32010KT 6SM 02/M12 A3059 RMK T00201120 IEM_DS3505
ZBYN,1990-11-08 17:00,ZBYN 081700Z AUTO 30006KT 6SM 00/M09 A3056 RMK T00001090 IEM_DS3505
ZBYN,1990-11-08 18:00,ZBYN 081800Z AUTO 32010KT 12SM 01/M10 A3057 RMK SLP373 T00101098 40089//// 57007 IEM_DS3505
ZBYN,1990-11-08 21:00,ZBYN 082100Z AUTO 34008KT 12SM M01/M17 A3056 RMK SLP375 T10091166 57003 IEM_DS3505
ZBYN,1990-11-08 23:00,ZBYN 082300Z AUTO 10004KT 7SM M04/M08 A3056 RMK T10401080 IEM_DS3505
ZBYN,1990-11-09 00:00,ZBYN 090000Z AUTO 00000KT 12SM M03/M12 A3056 RMK SLP381 T10271124 54000 IEM_DS3505
ZBYN,1990-11-09 01:00,ZBYN 090100Z AUTO 00000KT 7SM 00/M11 A3056 RMK T00001110 IEM_DS3505
ZBYN,1990-11-09 02:00,ZBYN 090200Z AUTO 25010KT 7SM 03/M14 A3056 RMK T00301140 IEM_DS3505
ZBYN,1990-11-09 03:00,ZBYN 090300Z AUTO 29008KT 12SM 04/M07 A3050 RMK SLP357 T00451071 57014 IEM_DS3505
ZBYN,1990-11-09 04:00,ZBYN 090400Z AUTO 23014KT 7SM 04/M09 A3047 RMK T00401090 IEM_DS3505
ZBYN,1990-11-09 05:00,ZBYN 090500Z AUTO 21012KT 7SM 05/M08 A3045 RMK T00501080 IEM_DS3505
ZBYN,1990-11-09 06:00,ZBYN 090600Z AUTO 22006KT 12SM 07/M06 A3039 RMK SLP311 T00731061 4////1036 57040 IEM_DS3505
ZBYN,1990-11-09 07:00,ZBYN 090700Z AUTO 25012KT 7SM 08/M06 A3036 RMK T00801060 IEM_DS3505
ZBYN,1990-11-09 08:00,ZBYN 090800Z AUTO 29012KT 7SM 08/M08 A3033 RMK T00801080 IEM_DS3505
ZBYN,1990-11-09 09:00,ZBYN 090900Z AUTO 29010KT 12SM 06/M07 A3033 RMK SLP301 T00641073 57014 IEM_DS3505
ZBYN,1990-11-09 10:00,ZBYN 091000Z AUTO 28004KT 7SM 05/M07 A3033 RMK T00501070 IEM_DS3505
ZBYN,1990-11-09 12:00,ZBYN 091200Z AUTO 18004KT 12SM 03/M05 A3033 RMK SLP303 T00281052 57007 IEM_DS3505
ZBYN,1990-11-09 13:00,ZBYN 091300Z AUTO 22012KT 7SM 02/M05 A3030 RMK T00201050 IEM_DS3505
ZBYN,1990-11-09 15:00,ZBYN 091500Z AUTO 20008KT 12SM 02/M05 A3030 RMK SLP285 T00181047 57006 IEM_DS3505
ZBYN,1990-11-09 16:00,ZBYN 091600Z AUTO 26008KT 7SM 02/M05 A3027 RMK T00201050 IEM_DS3505
ZBYN,1990-11-09 17:00,ZBYN 091700Z AUTO 11006KT 7SM 00/M04 A3027 RMK T00001040 IEM_DS3505
ZBYN,1990-11-09 18:00,ZBYN 091800Z AUTO 09004KT 12SM 00/M04 A3028 RMK SLP275 T00021035 40081//// 57007 IEM_DS3505
ZBYN,1990-11-09 19:00,ZBYN 091900Z AUTO 05006KT 7SM M01/M04 A3027 RMK T10101040 IEM_DS3505
ZBYN,1990-11-09 20:00,ZBYN 092000Z AUTO 10006KT 7SM M01/M03 A3027 RMK T10101030 IEM_DS3505
ZBYN,1990-11-09 21:00,ZBYN 092100Z AUTO 00000KT 9SM M02/M04 A3030 RMK SLP282 T10221045 52001 IEM_DS3505
ZBYN,1990-11-09 22:00,ZBYN 092200Z AUTO 09006KT 7SM M02/M03 A3030 RMK T10201030 IEM_DS3505
ZBYN,1990-11-09 23:00,ZBYN 092300Z AUTO 00000KT 7SM M03/M03 A3030 RMK T10301030 IEM_DS3505
ZBYN,1990-11-10 00:00,ZBYN 100000Z AUTO 14002KT 6SM M01/M04 A3033 RMK SLP299 T10081037 52012 IEM_DS3505
ZBYN,1990-11-10 01:00,ZBYN 100100Z AUTO 00000KT 2 1/2SM 03/M08 A3036 RMK T00301080 IEM_DS3505
ZBYN,1990-11-10 02:00,ZBYN 100200Z AUTO 00000KT 7SM 06/M05 A3036 RMK T00601050 IEM_DS3505
ZBYN,1990-11-10 03:00,ZBYN 100300Z AUTO 14004KT 6SM 07/M03 A3033 RMK SLP291 T00671029 52003 IEM_DS3505
ZBYN,1990-11-10 04:00,ZBYN 100400Z AUTO 20006KT 7SM 09/M06 A3033 RMK T00901060 IEM_DS3505
ZBYN,1990-11-10 05:00,ZBYN 100500Z AUTO 19006KT 7SM 10/M04 A3030 RMK T01001040 IEM_DS3505
ZBYN,1990-11-10 06:00,ZBYN 100600Z AUTO 16008KT 6SM 11/M04 A3027 RMK SLP264 T01071038 4////1031 57021 IEM_DS3505
ZBYN,1990-11-10 07:00,ZBYN 100700Z AUTO 19004KT 7SM 12/M03 A3024 RMK T01201030 IEM_DS3505
ZBYN,1990-11-10 08:00,ZBYN 100800Z AUTO 18006KT 7SM 12/M04 A3024 RMK T01201040 IEM_DS3505
ZBYN,1990-11-10 09:00,ZBYN 100900Z AUTO 18006KT 6SM 10/M01 A3024 RMK SLP257 T00981013 57011 IEM_DS3505
ZBYN,1990-11-10 10:00,ZBYN 101000Z AUTO 09006KT 7SM 07/00 A3021 RMK T00700000 IEM_DS3505
ZBYN,1990-11-10 11:00,ZBYN 101100Z AUTO 11006KT 7SM 05/00 A3024 RMK T00500000 IEM_DS3505
ZBYN,1990-11-10 12:00,ZBYN 101200Z AUTO 00000KT 9SM 04/M01 A3024 RMK T00351007 IEM_DS3505
ZBYN,1990-11-10 13:00,ZBYN 101300Z AUTO 12004KT 7SM 02/M02 A3024 RMK T00201020 IEM_DS3505
ZBYN,1990-11-10 14:00,ZBYN 101400Z AUTO 10006KT 7SM 01/M02 A3024 RMK T00101020 IEM_DS3505
ZBYN,1990-11-10 15:00,ZBYN 101500Z AUTO 00000KT 6SM 00/M01 A3024 RMK SLP262 T00031014 52002 IEM_DS3505
ZBYN,1990-11-10 18:00,ZBYN 101800Z AUTO 00000KT 5SM M01/M02 A3023 RMK SLP255 T10061017 40116//// 57001 IEM_DS3505
ZBYN,1990-11-10 19:00,ZBYN 101900Z AUTO 09006KT 7SM M01/M03 A3024 RMK T10101030 IEM_DS3505
ZBYN,1990-11-10 20:00,ZBYN 102000Z AUTO 00000KT 7SM M01/M03 A3024 RMK T10101030 IEM_DS3505
ZBYN,1990-11-10 21:00,ZBYN 102100Z AUTO 00000KT 5SM M00/M02 A3024 RMK SLP254 T10021019 57002 IEM_DS3505
ZBYN,1990-11-10 22:00,ZBYN 102200Z AUTO 14004KT 3SM M02/M03 A3024 RMK T10201030 IEM_DS3505
ZBYN,1990-11-10 23:00,ZBYN 102300Z AUTO 00000KT 2 1/2SM M03/M05 A3024 RMK T10301050 IEM_DS3505
ZBYN,1990-11-11 00:00,ZBYN 110000Z AUTO 00000KT 1SM M02/M03 A3025 RMK SLP277 T10231032 52007 IEM_DS3505
ZBYN,1990-11-11 03:00,ZBYN 110300Z AUTO 16004KT 4SM 08/02 A3024 RMK SLP260 T00810015 57003 IEM_DS3505
ZBYN,1990-11-11 04:00,ZBYN 110400Z AUTO 18004KT 7SM 11/M02 A3021 RMK T01101020 IEM_DS3505
ZBYN,1990-11-11 05:00,ZBYN 110500Z AUTO 18004KT 7SM 12/M03 A3018 RMK T01201030 IEM_DS3505
ZBYN,1990-11-11 06:00,ZBYN 110600Z AUTO 16008KT 6SM 14/M01 A3015 RMK SLP217 T01351007 4////1026 57032 IEM_DS3505
ZBYN,1990-11-11 07:00,ZBYN 110700Z AUTO 20008KT 7SM 15/M02 A3012 RMK T01501020 IEM_DS3505
ZBYN,1990-11-11 09:00,ZBYN 110900Z AUTO 14008KT 7SM 12/M00 A3012 RMK SLP213 T01201002 57006 IEM_DS3505
ZBYN,1990-11-11 11:00,ZBYN 111100Z AUTO 00000KT 7SM 07/02 A3009 RMK T00700020 IEM_DS3505
ZBYN,1990-11-11 12:00,ZBYN 111200Z AUTO 00000KT 6SM 04/02 A3012 RMK SLP243 T00420015 52012 IEM_DS3505
ZBYN,1990-11-11 13:00,ZBYN 111300Z AUTO 12006KT 7SM 04/00 A3015 RMK T00400000 IEM_DS3505
ZBYN,1990-11-11 14:00,ZBYN 111400Z AUTO 10006KT 7SM 03/M01 A3018 RMK T00301010 IEM_DS3505
ZBYN,1990-11-11 15:00,ZBYN 111500Z AUTO 00000KT 6SM 02/M00 A3018 RMK SLP243 T00221001 52013 IEM_DS3505
ZBYN,1990-11-11 16:00,ZBYN 111600Z AUTO 10006KT 7SM 02/00 A3018 RMK T00200000 IEM_DS3505
ZBYN,1990-11-11 17:00,ZBYN 111700Z AUTO 10006KT 7SM 02/M01 A3018 RMK T00201010 IEM_DS3505
ZBYN,1990-11-11 18:00,ZBYN 111800Z AUTO 00000KT 6SM 01/M01 A3018 RMK SLP243 T00071012 40146//// 52006 IEM_DS3505
ZBYN,1990-11-11 19:00,ZBYN 111900Z AUTO 09004KT 7SM 01/M02 A3018 RMK T00101020 IEM_DS3505
ZBYN,1990-11-11 20:00,ZBYN 112000Z AUTO 00000KT 7SM 01/M01 A3021 RMK T00101010 IEM_DS3505
ZBYN,1990-11-11 21:00,ZBYN 112100Z AUTO 00000KT 2 1/2SM M01/M02 A3024 RMK SLP254 T10101020 52005 IEM_DS3505
ZBYN,1990-11-11 22:00,ZBYN 112200Z AUTO 00000KT 5SM M02/M03 A3024 RMK T10201030 IEM_DS3505
ZBYN,1990-11-11 23:00,ZBYN 112300Z AUTO 00000KT 4SM M03/M04 A3027 RMK T10301040 IEM_DS3505
ZBYN,1990-11-12 00:00,ZBYN 120000Z AUTO 32002KT 1/2SM M02/M02 A3030 RMK SLP286 T10171023 52016 IEM_DS3505
ZBYN,1990-11-12 01:00,ZBYN 120100Z AUTO 00000KT 1SM 01/M03 A3030 RMK T00101030 IEM_DS3505
ZBYN,1990-11-12 02:00,ZBYN 120200Z AUTO 00000KT 1SM 06/02 A3030 RMK T00600020 IEM_DS3505
ZBYN,1990-11-12 03:00,ZBYN 120300Z AUTO 00000KT 1SM 09/02 A3029 RMK SLP272 T00870020 54000 IEM_DS3505
ZBYN,1990-11-12 04:00,ZBYN 120400Z AUTO 18006KT 2SM 11/00 A3027 RMK T01100000 IEM_DS3505
ZBYN,1990-11-12 05:00,ZBYN 120500Z AUTO 12002KT 7SM 13/M01 A3024 RMK T01301010 IEM_DS3505
ZBYN,1990-11-12 06:00,ZBYN 120600Z AUTO 16006KT 3SM 14/00 A3021 RMK SLP236 T01420001 4////1025 57026 IEM_DS3505
ZBYN,1990-11-12 07:00,ZBYN 120700Z AUTO 17006KT 7SM 16/M01 A3018 RMK T01601010 IEM_DS3505
ZBYN,1990-11-12 08:00,ZBYN 120800Z AUTO 19004KT 7SM 16/00 A3018 RMK T01600000 IEM_DS3505
ZBYN,1990-11-12 09:00,ZBYN 120900Z AUTO 14004KT 6SM 13/02 A3018 RMK SLP230 T01320016 57010 IEM_DS3505
ZBYN,1990-11-12 10:00,ZBYN 121000Z AUTO 09006KT 4SM 11/02 A3018 RMK T01100020 IEM_DS3505
ZBYN,1990-11-12 11:00,ZBYN 121100Z AUTO 34004KT 5SM 07/01 A3021 RMK T00700010 IEM_DS3505
ZBYN,1990-11-12 12:00,ZBYN 121200Z AUTO 32002KT 7SM 06/03 A3020 RMK SLP252 T00640027 52008 IEM_DS3505
ZBYN,1990-11-12 13:00,ZBYN 121300Z AUTO 09006KT 5SM 03/00 A3024 RMK T00300000 IEM_DS3505
ZBYN,1990-11-12 14:00,ZBYN 121400Z AUTO 10006KT 5SM 04/M01 A3024 RMK T00401010 IEM_DS3505
ZBYN,1990-11-12 15:00,ZBYN 121500Z AUTO 00000KT 7SM 02/01 A3021 RMK SLP250 T00200007 52008 IEM_DS3505
ZBYN,1990-11-12 16:00,ZBYN 121600Z AUTO 09006KT 7SM 03/M01 A3024 RMK T00301010 IEM_DS3505
ZBYN,1990-11-12 17:00,ZBYN 121700Z AUTO 10006KT 7SM 02/M01 A3024 RMK T00201010 IEM_DS3505
ZBYN,1990-11-12 18:00,ZBYN 121800Z AUTO 00000KT 6SM M00/M01 A3024 RMK SLP245 T10011010 40156//// 52001 IEM_DS3505
ZBYN,1990-11-12 19:00,ZBYN 121900Z AUTO 00000KT 3SM M01/M02 A3024 RMK T10101020 IEM_DS3505
ZBYN,1990-11-12 20:00,ZBYN 122000Z AUTO 00000KT 3SM M01/M02 A3024 RMK T10101020 IEM_DS3505
ZBYN,1990-11-12 21:00,ZBYN 122100Z AUTO 34002KT 3SM M02/M02 A3024 RMK SLP255 T10171019 52005 IEM_DS3505
ZBYN,1990-11-12 22:00,ZBYN 122200Z AUTO 10004KT 3SM M04/M05 A3024 RMK T10401050 IEM_DS3505
ZBYN,1990-11-12 23:00,ZBYN 122300Z AUTO 32004KT 2SM M03/M05 A3024 RMK T10301050 IEM_DS3505
ZBYN,1990-11-13 00:00,ZBYN 130000Z AUTO 34004KT 3/8SM M02/M02 A3027 RMK SLP273 T10201023 52005 IEM_DS3505
ZBYN,1990-11-13 01:00,ZBYN 130100Z AUTO 00000KT 1SM 02/02 A3027 RMK T00200020 IEM_DS3505
ZBYN,1990-11-13 02:00,ZBYN 130200Z AUTO 14004KT 2SM 06/01 A3027 RMK T00600010 IEM_DS3505
ZBYN,1990-11-13 03:00,ZBYN 130300Z AUTO 14004KT 3SM 08/02 A3024 RMK SLP265 T00760017 52001 IEM_DS3505
ZBYN,1990-11-13 04:00,ZBYN 130400Z AUTO 00000KT 4SM 12/02 A3024 RMK T01200020 IEM_DS3505
ZBYN,1990-11-13 05:00,ZBYN 130500Z AUTO 20006KT 7SM 14/01 A3024 RMK T01400010 IEM_DS3505
ZBYN,1990-11-13 06:00,ZBYN 130600Z AUTO 14008KT 6SM 15/M00 A3021 RMK SLP238 T01491001 4////1024 57016 IEM_DS3505
ZBYN,1990-11-13 07:00,ZBYN 130700Z AUTO 00000KT 7SM 17/04 A3021 RMK T01700040 IEM_DS3505
ZBYN,1990-11-13 08:00,ZBYN 130800Z AUTO 14004KT 7SM 17/05 A3018 RMK T01700050 IEM_DS3505
ZBYN,1990-11-13 09:00,ZBYN 130900Z AUTO 11006KT 6SM 14/02 A3021 RMK SLP240 T01370024 57003 IEM_DS3505
ZBYN,1990-11-13 10:00,ZBYN 131000Z AUTO 11004KT 4SM 12/04 A3021 RMK T01200040 IEM_DS3505
ZBYN,1990-11-13 11:00,ZBYN 131100Z AUTO 00000KT 4SM 06/03 A3024 RMK T00600030 IEM_DS3505
ZBYN,1990-11-13 12:00,ZBYN 131200Z AUTO 00000KT 6SM 06/02 A3027 RMK SLP269 T00550022 52013 IEM_DS3505
ZBYN,1990-11-13 13:00,ZBYN 131300Z AUTO 10004KT 7SM 05/01 A3027 RMK T00500010 IEM_DS3505
ZBYN,1990-11-13 15:00,ZBYN 131500Z AUTO 00000KT 6SM 02/01 A3026 RMK SLP265 T00210008 52006 IEM_DS3505
ZBYN,1990-11-13 17:00,ZBYN 131700Z AUTO 09008KT 7SM 03/M01 A3027 RMK T00301010 IEM_DS3505
ZBYN,1990-11-13 18:00,ZBYN 131800Z AUTO 00000KT 6SM 01/M01 A3027 RMK SLP251 T00061010 40168//// 57003 IEM_DS3505
ZBYN,1990-11-13 19:00,ZBYN 131900Z AUTO 01004KT 7SM M01/M02 A3027 RMK T10101020 IEM_DS3505
ZBYN,1990-11-13 20:00,ZBYN 132000Z AUTO 00000KT 4SM 00/M01 A3027 RMK T00001010 IEM_DS3505
ZBYN,1990-11-13 21:00,ZBYN 132100Z AUTO 36002KT 3SM M00/M02 A3024 RMK SLP255 T10011015 54000 IEM_DS3505
ZBYN,1990-11-13 22:00,ZBYN 132200Z AUTO 09004KT 5SM M01/M02 A3027 RMK T10101020 IEM_DS3505
ZBYN,1990-11-13 23:00,ZBYN 132300Z AUTO 00000KT 3SM M02/M03 A3027 RMK T10201030 IEM_DS3505
ZBYN,1990-11-14 00:00,ZBYN 140000Z AUTO 00000KT 1SM M01/M02 A3027 RMK SLP278 T10121018 52006 IEM_DS3505
ZBYN,1990-11-14 01:00,ZBYN 140100Z AUTO 00000KT 2SM 03/M02 A3027 RMK T00301020 IEM_DS3505
ZBYN,1990-11-14 02:00,ZBYN 140200Z AUTO 00000KT 2SM 07/01 A3027 RMK T00700010 IEM_DS3505
ZBYN,1990-11-14 03:00,ZBYN 140300Z AUTO 00000KT 4SM 10/M01 A3027 RMK SLP262 T01001010 57002 IEM_DS3505
ZBYN,1990-11-14 04:00,ZBYN 140400Z AUTO 14008KT 4SM 13/M01 A3024 RMK T01301010 IEM_DS3505
ZBYN,1990-11-14 05:00,ZBYN 140500Z AUTO 18006KT 7SM 15/00 A3018 RMK T01500000 IEM_DS3505
ZBYN,1990-11-14 06:00,ZBYN 140600Z AUTO 20008KT 5SM 16/01 A3015 RMK SLP219 T01640014 4////1021 57031 IEM_DS3505
ZBYN,1990-11-14 07:00,ZBYN 140700Z AUTO 17004KT 7SM 18/00 A3015 RMK T01800000 IEM_DS3505
ZBYN,1990-11-14 08:00,ZBYN 140800Z AUTO 12004KT 7SM 18/02 A3015 RMK T01800020 IEM_DS3505
ZBYN,1990-11-14 09:00,ZBYN 140900Z AUTO 14002KT 4SM 15/04 A3015 RMK SLP220 T01490038 57003 IEM_DS3505
ZBYN,1990-11-14 10:00,ZBYN 141000Z AUTO 10004KT 2 1/2SM 13/02 A3015 RMK T01300020 IEM_DS3505
ZBYN,1990-11-14 12:00,ZBYN 141200Z AUTO 32004KT 4SM 07/03 A3021 RMK SLP251 T00730027 52015 IEM_DS3505
ZBYN,1990-11-14 13:00,ZBYN 141300Z AUTO 07006KT 4SM 06/01 A3021 RMK T00600010 IEM_DS3505
ZBYN,1990-11-14 14:00,ZBYN 141400Z AUTO 09010KT 7SM 05/01 A3024 RMK T00500010 IEM_DS3505
ZBYN,1990-11-14 15:00,ZBYN 141500Z AUTO 00000KT 4SM 04/02 A3024 RMK SLP246 T00410017 52008 IEM_DS3505
ZBYN,1990-11-14 16:00,ZBYN 141600Z AUTO 09008KT 7SM 05/00 A3024 RMK T00500000 IEM_DS3505
ZBYN,1990-11-14 17:00,ZBYN 141700Z AUTO 09008KT 7SM 05/00 A3024 RMK T00500000 IEM_DS3505
ZBYN,1990-11-14 18:00,ZBYN 141800Z AUTO 00000KT 3SM 03/00 A3024 RMK SLP240 T00270004 40177//// 52002 IEM_DS3505
ZBYN,1990-11-14 19:00,ZBYN 141900Z AUTO 00000KT 3SM 04/00 A3024 RMK T00400000 IEM_DS3505
ZBYN,1990-11-14 20:00,ZBYN 142000Z AUTO 12006KT 3SM 02/00 A3024 RMK T00200000 IEM_DS3505
ZBYN,1990-11-14 21:00,ZBYN 142100Z AUTO 11002KT 3SM 01/M01 A3021 RMK SLP245 T00061008 57001 IEM_DS3505
ZBYN,1990-11-14 22:00,ZBYN 142200Z AUTO 00000KT 3SM 00/M01 A3024 RMK T00001010 IEM_DS3505
ZBYN,1990-11-14 23:00,ZBYN 142300Z AUTO 00000KT 2SM M01/M02 A3024 RMK T10101020 IEM_DS3505
ZBYN,1990-11-15 00:00,ZBYN 150000Z AUTO 11004KT 3/8SM M01/M01 A3025 RMK T10081011 52007 IEM_DS3505
ZBYN,1990-11-15 01:00,ZBYN 150100Z AUTO 00000KT 1SM 02/00 A3027 RMK T00200000 IEM_DS3505
ZBYN,1990-11-15 02:00,ZBYN 150200Z AUTO 00000KT 1SM 05/02 A3027 RMK T00500020 IEM_DS3505
ZBYN,1990-11-15 03:00,ZBYN 150300Z AUTO 32002KT 4SM 09/03 A3024 RMK SLP250 T00900027 57006 IEM_DS3505
ZBYN,1990-11-15 04:00,ZBYN 150400Z AUTO 29004KT 2SM 11/01 A3021 RMK T01100010 IEM_DS3505
ZBYN,1990-11-15 05:00,ZBYN 150500Z AUTO 00000KT 3SM 14/02 A3015 RMK T01400020 IEM_DS3505
ZBYN,1990-11-15 06:00,ZBYN 150600Z AUTO 18002KT 5SM 14/04 A3012 RMK SLP204 T01450035 4////1010 57036 IEM_DS3505
ZBYN,1990-11-15 07:00,ZBYN 150700Z AUTO 00000KT 7SM 16/05 A3009 RMK T01600050 IEM_DS3505
ZBYN,1990-11-15 08:00,ZBYN 150800Z AUTO 00000KT 7SM 16/04 A3006 RMK T01600040 IEM_DS3505
ZBYN,1990-11-15 09:00,ZBYN 150900Z AUTO 18004KT 5SM 13/06 A3006 RMK SLP196 T01280061 57013 IEM_DS3505
ZBYN,1990-11-15 10:00,ZBYN 151000Z AUTO 00000KT 4SM 10/05 A3006 RMK T01000050 IEM_DS3505
ZBYN,1990-11-15 11:00,ZBYN 151100Z AUTO 00000KT 5SM 07/05 A3009 RMK T00700050 IEM_DS3505
ZBYN,1990-11-15 12:00,ZBYN 151200Z AUTO 00000KT 1 1/4SM 06/04 A3009 RMK SLP216 T00560043 52005 IEM_DS3505
ZBYN,1990-11-15 13:00,ZBYN 151300Z AUTO 00000KT 5SM 04/03 A3009 RMK T00400030 IEM_DS3505
ZBYN,1990-11-15 14:00,ZBYN 151400Z AUTO 00000KT 5SM 03/02 A3012 RMK T00300020 IEM_DS3505
ZBYN,1990-11-15 15:00,ZBYN 151500Z AUTO 34004KT 6SM 07/03 A3012 RMK SLP204 T00680027 52006 IEM_DS3505
ZBYN,1990-11-15 17:00,ZBYN 151700Z AUTO 12004KT 5SM 03/02 A3015 RMK T00300020 IEM_DS3505
ZBYN,1990-11-15 18:00,ZBYN 151800Z AUTO 34002KT 6SM 03/01 A3012 RMK SLP201 T00330011 40158//// 52001 IEM_DS3505
ZBYN,1990-11-15 19:00,ZBYN 151900Z AUTO 00000KT 5SM 00/M01 A3012 RMK T00001010 IEM_DS3505
ZBYN,1990-11-15 20:00,ZBYN 152000Z AUTO 00000KT 5SM 01/00 A3009 RMK T00100000 IEM_DS3505
ZBYN,1990-11-15 21:00,ZBYN 152100Z AUTO 32004KT 6SM 04/01 A3009 RMK SLP201 T00380008 57002 IEM_DS3505
ZBYN,1990-11-15 23:00,ZBYN 152300Z AUTO 00000KT 2SM M01/M02 A3009 RMK T10101020 IEM_DS3505
ZBYN,1990-11-16 00:00,ZBYN 160000Z AUTO 32004KT 4SM 04/00 A3012 RMK SLP218 T00410003 52004 IEM_DS3505
ZBYN,1990-11-16 01:00,ZBYN 160100Z AUTO 00000KT 2 1/2SM 04/03 A3015 RMK T00400030 IEM_DS3505
ZBYN,1990-11-16 02:00,ZBYN 160200Z AUTO 32004KT 1SM 09/03 A3015 RMK T00900030 IEM_DS3505
ZBYN,1990-11-16 03:00,ZBYN 160300Z AUTO 34004KT 6SM 11/02 A3012 RMK SLP201 T01100023 57002 IEM_DS3505
ZBYN,1990-11-16 04:00,ZBYN 160400Z AUTO 33006KT 4SM 15/01 A3012 RMK T01500010 IEM_DS3505
ZBYN,1990-11-16 05:00,ZBYN 160500Z AUTO 34006KT 6SM 17/02 A3006 RMK T01700020 IEM_DS3505
ZBYN,1990-11-16 06:00,ZBYN 160600Z AUTO 32004KT 9SM 16/03 A3006 RMK SLP178 T01630031 4////0020 57019 IEM_DS3505
ZBYN,1990-11-16 08:00,ZBYN 160800Z AUTO 27004KT 5SM 17/03 A3003 RMK T01700030 IEM_DS3505
ZBYN,1990-11-16 09:00,ZBYN 160900Z AUTO 00000KT 12SM 14/05 A3003 RMK SLP175 T01430054 57005 IEM_DS3505
ZBYN,1990-11-16 10:00,ZBYN 161000Z AUTO 04004KT 2SM 12/04 A3003 RMK T01200040 IEM_DS3505
ZBYN,1990-11-16 11:00,ZBYN 161100Z AUTO 08014KT 5SM 13/01 A3006 RMK T01300010 IEM_DS3505
ZBYN,1990-11-16 12:00,ZBYN 161200Z AUTO 14002KT 6SM 09/04 A3009 RMK SLP203 T00870036 52018 IEM_DS3505
ZBYN,1990-11-16 13:00,ZBYN 161300Z AUTO 07014G23KT 7SM 08/03 A3012 RMK T00800030 IEM_DS3505
ZBYN,1990-11-16 14:00,ZBYN 161400Z AUTO 07014KT 7SM 07/03 A3018 RMK T00700030 IEM_DS3505
ZBYN,1990-11-16 15:00,ZBYN 161500Z AUTO 00000KT 6SM 05/03 RMK SLP241 T00500029 52039 IEM_DS3505
ZBYN,1990-11-16 17:00,ZBYN 161700Z AUTO 06012KT 7SM 07/03 A3024 RMK T00700030 IEM_DS3505
ZBYN,1990-11-16 18:00,ZBYN 161800Z AUTO 36004KT 6SM 06/03 A3024 RMK SLP237 T00590031 40174//// 52006 IEM_DS3505
ZBYN,1990-11-16 19:00,ZBYN 161900Z AUTO 05004KT 4SM 06/03 A3024 RMK T00600030 IEM_DS3505
ZBYN,1990-11-16 20:00,ZBYN 162000Z AUTO 04004KT 3SM 06/03 A3024 RMK T00600030 IEM_DS3505
ZBYN,1990-11-16 21:00,ZBYN 162100Z AUTO 00000KT 5SM 04/03 A3025 RMK SLP248 T00400026 52004 IEM_DS3505
ZBYN,1990-11-16 22:00,ZBYN 162200Z AUTO 00000KT 2 1/2SM 03/02 A3027 RMK T00300020 IEM_DS3505
ZBYN,1990-11-16 23:00,ZBYN 162300Z AUTO 00000KT 2SM 02/01 A3027 RMK T00200010 IEM_DS3505
ZBYN,1990-11-17 00:00,ZBYN 170000Z AUTO 00000KT 4SM 02/02 A3027 RMK SLP264 T00190017 52003 IEM_DS3505
ZBYN,1990-11-17 01:00,ZBYN 170100Z AUTO 00000KT 1 1/2SM 05/04 A3027 RMK T00500040 IEM_DS3505
ZBYN,1990-11-17 02:00,ZBYN 170200Z AUTO 00000KT 4SM 08/04 A3027 RMK T00800040 IEM_DS3505
ZBYN,1990-11-17 03:00,ZBYN 170300Z AUTO 00000KT 4SM 09/04 A3027 RMK SLP261 T00870038 52002 IEM_DS3505
ZBYN,1990-11-17 04:00,ZBYN 170400Z AUTO 34004KT 6SM 11/04 A3024 RMK T01100040 IEM_DS3505
ZBYN,1990-11-17 05:00,ZBYN 170500Z AUTO 00000KT 6SM 11/04 A3021 RMK T01100040 IEM_DS3505
ZBYN,1990-11-17 06:00,ZBYN 170600Z AUTO 11004KT 5SM 12/04 A3018 RMK SLP226 T01160044 4////0014 57026 IEM_DS3505
ZBYN,1990-11-17 07:00,ZBYN 170700Z AUTO 00000KT 6SM 12/05 A3018 RMK T01200050 IEM_DS3505
ZBYN,1990-11-17 08:00,ZBYN 170800Z AUTO 00000KT 6SM 12/05 A3015 RMK T01200050 IEM_DS3505
ZBYN,1990-11-17 09:00,ZBYN 170900Z AUTO 00000KT 5SM 10/06 A3018 RMK SLP229 T00990057 57003 IEM_DS3505
ZBYN,1990-11-17 10:00,ZBYN 171000Z AUTO 00000KT 4SM 08/05 A3018 RMK T00800050 IEM_DS3505
ZBYN,1990-11-17 11:00,ZBYN 171100Z AUTO 00000KT 4SM 05/04 A3018 RMK T00500040 IEM_DS3505
ZBYN,1990-11-17 12:00,ZBYN 171200Z AUTO 00000KT 4SM 06/04 A3021 RMK SLP243 T00600040 52003 IEM_DS3505
ZBYN,1990-11-17 13:00,ZBYN 171300Z AUTO 00000KT 3SM 03/02 A3021 RMK T00300020 IEM_DS3505
ZBYN,1990-11-17 14:00,ZBYN 171400Z AUTO 00000KT 3SM 04/03 A3021 RMK T00400030 IEM_DS3505
ZBYN,1990-11-17 15:00,ZBYN 171500Z AUTO 36004KT 4SM 06/03 A3021 RMK SLP232 T00640034 52002 IEM_DS3505
ZBYN,1990-11-17 16:00,ZBYN 171600Z AUTO 00000KT 3SM 03/03 A3021 RMK T00300030 IEM_DS3505
ZBYN,1990-11-17 17:00,ZBYN 171700Z AUTO 00000KT 3SM 04/03 A3021 RMK T00400030 IEM_DS3505
ZBYN,1990-11-17 18:00,ZBYN 171800Z AUTO 36002KT 4SM 06/04 A3019 RMK SLP227 T00620035 40121//// 57001 IEM_DS3505
ZBYN,1990-11-17 19:00,ZBYN 171900Z AUTO 18004KT 3SM 05/04 A3018 RMK T00500040 IEM_DS3505
ZBYN,1990-11-17 20:00,ZBYN 172000Z AUTO 00000KT 2 1/2SM 05/04 A3018 RMK T00500040 IEM_DS3505
ZBYN,1990-11-17 21:00,ZBYN 172100Z AUTO 00000KT 2 1/2SM 05/04 A3018 RMK SLP224 T00520043 57007 IEM_DS3505
ZBYN,1990-11-17 22:00,ZBYN 172200Z AUTO 00000KT 1 1/4SM 05/05 A3018 RMK T00500050 IEM_DS3505
ZBYN,1990-11-17 23:00,ZBYN 172300Z AUTO 01002KT 1SM 05/05 A3018 RMK T00500050 IEM_DS3505
ZBYN,1990-11-18 00:00,ZBYN 180000Z AUTO 32004KT 4SM 06/04 A3018 RMK 60000 SLP232 T00620040 52003 IEM_DS3505
ZBYN,1990-11-18 01:00,ZBYN 180100Z AUTO 34008KT 1SM 07/05 A3018 RMK T00700050 IEM_DS3505
ZBYN,1990-11-18 02:00,ZBYN 180200Z AUTO 00000KT 3SM 07/05 A3021 RMK T00700050 IEM_DS3505
ZBYN,1990-11-18 03:00,ZBYN 180300Z AUTO 34004KT 4SM 08/04 A3021 RMK SLP239 T00800043 52010 IEM_DS3505
ZBYN,1990-11-18 04:00,ZBYN 180400Z AUTO 00000KT 4SM 10/05 A3021 RMK T01000050 IEM_DS3505
ZBYN,1990-11-18 06:00,ZBYN 180600Z AUTO 36002KT 7SM 12/05 A3012 RMK 60000 SLP210 T01210050 51020 IEM_DS3505
ZBYN,1990-11-18 07:00,ZBYN 180700Z AUTO 33006KT 6SM 13/05 A3012 RMK T01300050 IEM_DS3505
ZBYN,1990-11-18 08:00,ZBYN 180800Z AUTO 32004KT 4SM 13/05 A3012 RMK T01300050 IEM_DS3505
ZBYN,1990-11-18 09:00,ZBYN 180900Z AUTO 36002KT 7SM 12/06 A3012 RMK SLP181 T01180059 57029 IEM_DS3505
ZBYN,1990-11-18 10:00,ZBYN 181000Z AUTO 12006KT 7SM 11/05 A3012 RMK T01100050 IEM_DS3505
ZBYN,1990-11-18 11:00,ZBYN 181100Z AUTO 07004KT 6SM 10/05 A3012 RMK T01000050 IEM_DS3505
ZBYN,1990-11-18 12:00,ZBYN 181200Z AUTO 00000KT 7SM 09/05 A3015 RMK SLP221 T00860049 52003 IEM_DS3505
ZBYN,1990-11-18 15:00,ZBYN 181500Z AUTO 18002KT 7SM 08/06 A3021 RMK SLP237 T00760055 52016 IEM_DS3505
ZBYN,1990-11-18 16:00,ZBYN 181600Z AUTO 10004KT 6SM 08/05 A3021 RMK T00800050 IEM_DS3505
ZBYN,1990-11-18 17:00,ZBYN 181700Z AUTO 00000KT 6SM 08/05 A3018 RMK T00800050 IEM_DS3505
ZBYN,1990-11-18 18:00,ZBYN 181800Z AUTO 18002KT 6SM 07/05 A3018 RMK T00700052 40129//// 57005 IEM_DS3505
ZBYN,1990-11-18 19:00,ZBYN 181900Z AUTO 14004KT 7SM 08/04 A3018 RMK T00800040 IEM_DS3505
ZBYN,1990-11-18 20:00,ZBYN 182000Z AUTO 13004KT 4SM 07/05 A3015 RMK T00700050 IEM_DS3505
ZBYN,1990-11-18 21:00,ZBYN 182100Z AUTO 00000KT 6SM 06/05 A3018 RMK SLP219 T00640046 57007 IEM_DS3505
ZBYN,1990-11-18 22:00,ZBYN 182200Z AUTO 00000KT 2 1/2SM 06/05 A3018 RMK T00600050 IEM_DS3505
ZBYN,1990-11-18 23:00,ZBYN 182300Z AUTO 00000KT 2 1/2SM 06/05 A3018 RMK T00600050 IEM_DS3505
ZBYN,1990-11-19 00:00,ZBYN 190000Z AUTO 00000KT 4SM 06/05 A3018 RMK SLP236 T00570046 52009 IEM_DS3505
ZBYN,1990-11-19 01:00,ZBYN 190100Z AUTO 00000KT 3SM 06/05 A3024 RMK T00600050 IEM_DS3505
ZBYN,1990-11-19 03:00,ZBYN 190300Z AUTO 00000KT 2SM 10/06 A3027 RMK SLP247 T00970060 52015 IEM_DS3505
ZBYN,1990-11-19 04:00,ZBYN 190400Z AUTO 00000KT 4SM 12/05 A3024 RMK T01200050 IEM_DS3505
ZBYN,1990-11-19 05:00,ZBYN 190500Z AUTO 23004KT 4SM 12/05 A3021 RMK T01200050 IEM_DS3505
ZBYN,1990-11-19 06:00,ZBYN 190600Z AUTO 25006KT 3SM 13/06 A3018 RMK SLP225 T01260059 4////0051 57016 IEM_DS3505
ZBYN,1990-11-19 07:00,ZBYN 190700Z AUTO 00000KT 2SM 13/06 A3021 RMK T01300060 IEM_DS3505
ZBYN,1990-11-19 08:00,ZBYN 190800Z AUTO 33006KT 6SM 14/01 A3024 RMK T01400010 IEM_DS3505
ZBYN,1990-11-19 09:00,ZBYN 190900Z AUTO 04004KT 3SM 13/M01 A3024 RMK SLP243 T01281009 52015 IEM_DS3505
ZBYN,1990-11-19 10:00,ZBYN 191000Z AUTO 01008KT 6SM 12/M03 A3027 RMK T01201030 IEM_DS3505
ZBYN,1990-11-19 11:00,ZBYN 191100Z AUTO 36017KT 6SM 11/M04 A3033 RMK T01101040 IEM_DS3505
ZBYN,1990-11-19 12:00,ZBYN 191200Z AUTO 02004KT 4SM 08/M06 A3039 RMK SLP309 T00841063 52052 IEM_DS3505
ZBYN,1990-11-19 13:00,ZBYN 191300Z AUTO 36017G27KT 6SM 07/M09 A3039 RMK T00701090 IEM_DS3505
ZBYN,1990-11-19 14:00,ZBYN 191400Z AUTO 35016G25KT 6SM 05/M12 A3042 RMK T00501120 IEM_DS3505
ZBYN,1990-11-19 15:00,ZBYN 191500Z AUTO 36012KT 6SM 04/M15 A3049 RMK SLP337 T00401148 52025 IEM_DS3505
ZBYN,1990-11-19 17:00,ZBYN 191700Z AUTO 36010KT 6SM 01/M17 A3050 RMK T00101170 IEM_DS3505
ZBYN,1990-11-19 18:00,ZBYN 191800Z AUTO 02010KT 9SM M01/M14 A3053 RMK SLP359 T10081137 40133//// 52017 IEM_DS3505
ZBYN,1990-11-19 19:00,ZBYN 191900Z AUTO 36012KT 6SM M02/ A3056 RMK IEM_DS3505
ZBYN,1990-11-19 20:00,ZBYN 192000Z AUTO 01016KT 6SM M03/M19 A3062 RMK T10301190 IEM_DS3505
ZBYN,1990-11-19 21:00,ZBYN 192100Z AUTO 34012KT 12SM M04/M15 A3059 RMK SLP387 T10361152 52021 IEM_DS3505
ZBYN,1990-11-19 22:00,ZBYN 192200Z AUTO 35012KT 7SM M04/M19 A3062 RMK T10401190 IEM_DS3505
ZBYN,1990-11-19 23:00,ZBYN 192300Z AUTO 01006KT 7SM M05/M18 A3068 RMK T10501180 IEM_DS3505
ZBYN,1990-11-20 00:00,ZBYN 200000Z AUTO 04010KT 12SM M05/M15 A3070 RMK SLP427 T10521149 52027 IEM_DS3505
ZBYN,1990-11-20 01:00,ZBYN 200100Z AUTO 01016KT 7SM M04/M24 A3071 RMK T10401240 IEM_DS3505
ZBYN,1990-11-20 02:00,ZBYN 200200Z AUTO 01016KT 7SM M03/M25 A3074 RMK T10301250 IEM_DS3505
ZBYN,1990-11-20 03:00,ZBYN 200300Z AUTO 02012KT 12SM M02/M17 A3071 RMK SLP432 T10211170 52002 IEM_DS3505
ZBYN,1990-11-20 04:00,ZBYN 200400Z AUTO 03012KT 7SM 00/M20 A3071 RMK T00001200 IEM_DS3505
ZBYN,1990-11-20 05:00,ZBYN 200500Z AUTO 03010KT 7SM 01/M12 A3065 RMK T00101120 IEM_DS3505
ZBYN,1990-11-20 06:00,ZBYN 200600Z AUTO 36008KT 12SM 01/M13 A3065 RMK SLP420 T00091128 4////1052 57014 IEM_DS3505
ZBYN,1990-11-20 07:00,ZBYN 200700Z AUTO 35010KT 7SM 03/M25 A3062 RMK T00301250 IEM_DS3505
ZBYN,1990-11-20 08:00,ZBYN 200800Z AUTO 32012KT 7SM 02/M23 A3062 RMK T00201230 IEM_DS3505
ZBYN,1990-11-20 09:00,ZBYN 200900Z AUTO 36006KT 12SM 00/M15 A3064 RMK SLP420 T00041153 57005 IEM_DS3505
ZBYN,1990-11-20 10:00,ZBYN 201000Z AUTO 33010KT 7SM M01/ A3065 RMK IEM_DS3505
ZBYN,1990-11-20 11:00,ZBYN 201100Z AUTO 34012KT 7SM M02/M15 A3065 RMK T10201150 IEM_DS3505
ZBYN,1990-11-20 12:00,ZBYN 201200Z AUTO 32004KT 9SM M03/M20 A3068 RMK SLP442 T10271195 52012 IEM_DS3505
ZBYN,1990-11-20 13:00,ZBYN 201300Z AUTO 36008KT 7SM M03/M22 A3068 RMK T10301220 IEM_DS3505
ZBYN,1990-11-20 15:00,ZBYN 201500Z AUTO 32004KT 7SM M04/M19 A3068 RMK SLP440 T10401193 52001 IEM_DS3505
ZBYN,1990-11-20 16:00,ZBYN 201600Z AUTO 03004KT 7SM M05/M17 A3068 RMK T10501170 IEM_DS3505
ZBYN,1990-11-20 17:00,ZBYN 201700Z AUTO 00000KT 7SM M08/M14 A3068 RMK T10801140 IEM_DS3505
ZBYN,1990-11-20 18:00,ZBYN 201800Z AUTO 32004KT 7SM M05/M16 A3068 RMK SLP433 T10531165 40085//// 57003 IEM_DS3505
ZBYN,1990-11-20 20:00,ZBYN 202000Z AUTO 00000KT 7SM M09/M14 A3065 RMK T10901140 IEM_DS3505
ZBYN,1990-11-20 21:00,ZBYN 202100Z AUTO 29004KT 7SM M07/M14 A3065 RMK SLP425 T10731135 57008 IEM_DS3505
ZBYN,1990-11-20 22:00,ZBYN 202200Z AUTO 00000KT 7SM M08/M15 A3065 RMK T10801150 IEM_DS3505
ZBYN,1990-11-20 23:00,ZBYN 202300Z AUTO 10004KT 7SM M10/M14 A3065 RMK T11001140 IEM_DS3505
ZBYN,1990-11-21 00:00,ZBYN 210000Z AUTO 00000KT 6SM M07/M13 A3065 RMK SLP429 T10711132 57001 IEM_DS3505
ZBYN,1990-11-21 01:00,ZBYN 210100Z AUTO 00000KT 7SM M06/M12 A3065 RMK T10601120 IEM_DS3505
ZBYN,1990-11-21 02:00,ZBYN 210200Z AUTO 00000KT 5SM M03/M15 A3065 RMK T10301150 IEM_DS3505
ZBYN,1990-11-21 03:00,ZBYN 210300Z AUTO 00000KT 6SM 00/M17 A3060 RMK SLP408 T00021166 57009 IEM_DS3505
ZBYN,1990-11-21 04:00,ZBYN 210400Z AUTO 22006KT 7SM 01/M14 A3056 RMK T00101140 IEM_DS3505
ZBYN,1990-11-21 05:00,ZBYN 210500Z AUTO 22006KT 6SM 02/M12 A3053 RMK T00201120 IEM_DS3505
ZBYN,1990-11-21 06:00,ZBYN 210600Z AUTO 20006KT 6SM 03/M19 A3050 RMK SLP369 T00301190 57033 IEM_DS3505
ZBYN,1990-11-21 07:00,ZBYN 210700Z AUTO 25008KT 7SM 03/M07 A3047 RMK T00301070 IEM_DS3505
ZBYN,1990-11-21 08:00,ZBYN 210800Z AUTO 19004KT 7SM 04/M14 A3045 RMK T00401140 IEM_DS3505
ZBYN,1990-11-21 09:00,ZBYN 210900Z AUTO 00000KT 6SM 01/M10 A3045 RMK T00141105 57016 IEM_DS3505
ZBYN,1990-11-21 10:00,ZBYN 211000Z AUTO 00000KT 7SM M01/M10 A3045 RMK T10101100 IEM_DS3505
ZBYN,1990-11-21 11:00,ZBYN 211100Z AUTO 00000KT 6SM M04/M12 A3045 RMK T10401120 IEM_DS3505
ZBYN,1990-11-21 12:00,ZBYN 211200Z AUTO 00000KT 6SM M03/M08 A3045 RMK SLP366 T10301078 54000 IEM_DS3505
ZBYN,1990-11-21 13:00,ZBYN 211300Z AUTO 10004KT 6SM M05/M13 A3045 RMK T10501130 IEM_DS3505
ZBYN,1990-11-21 15:00,ZBYN 211500Z AUTO 14002KT 5SM M06/M09 A3047 RMK SLP360 T10551090 52003 IEM_DS3505
ZBYN,1990-11-21 16:00,ZBYN 211600Z AUTO 00000KT 7SM M08/M12 A3045 RMK T10801120 IEM_DS3505
ZBYN,1990-11-21 17:00,ZBYN 211700Z AUTO 00000KT 7SM M08/M14 A3047 RMK T10801140 IEM_DS3505
ZBYN,1990-11-21 18:00,ZBYN 211800Z AUTO 14004KT 5SM M06/M08 A3045 RMK SLP354 T10651081 40034//// 57003 IEM_DS3505
ZBYN,1990-11-21 19:00,ZBYN 211900Z AUTO 08004KT 7SM M09/M13 A3047 RMK T10901130 IEM_DS3505
ZBYN,1990-11-21 20:00,ZBYN 212000Z AUTO 00000KT 4SM M10/M12 A3045 RMK T11001120 IEM_DS3505
ZBYN,1990-11-21 21:00,ZBYN 212100Z AUTO 36004KT 5SM M06/M10 A3045 RMK SLP353 T10631100 57003 IEM_DS3505
ZBYN,1990-11-21 22:00,ZBYN 212200Z AUTO 00000KT 7SM M09/M13 A3045 RMK T10901130 IEM_DS3505
ZBYN,1990-11-21 23:00,ZBYN 212300Z AUTO 25006KT 4SM M10/M14 A3045 RMK T11001140 IEM_DS3505
ZBYN,1990-11-22 00:00,ZBYN 220000Z AUTO 34004KT 6SM M07/M10 A3047 RMK SLP377 T10741100 52013 IEM_DS3505
ZBYN,1990-11-22 01:00,ZBYN 220100Z AUTO 00000KT 1 1/4SM M06/M12 A3050 RMK T10601120 IEM_DS3505
ZBYN,1990-11-22 02:00,ZBYN 220200Z AUTO 00000KT 1 1/4SM M03/M11 A3050 RMK T10301110 IEM_DS3505
ZBYN,1990-11-22 03:00,ZBYN 220300Z AUTO 25004KT 6SM 02/M14 A3050 RMK SLP362 T00201140 57002 IEM_DS3505
ZBYN,1990-11-22 04:00,ZBYN 220400Z AUTO 25004KT 3SM RMK IEM_DS3505
ZBYN,1990-11-22 05:00,ZBYN 220500Z AUTO 00000KT 3SM 05/M15 A3042 RMK T00501150 IEM_DS3505
ZBYN,1990-11-22 06:00,ZBYN 220600Z AUTO 20008KT 7SM 05/M13 A3039 RMK SLP324 T00501129 4////1080 57031 IEM_DS3505
ZBYN,1990-11-22 07:00,ZBYN 220700Z AUTO 24008KT 4SM 06/M14 A3039 RMK T00601140 IEM_DS3505
ZBYN,1990-11-22 08:00,ZBYN 220800Z AUTO 20004KT 5SM 05/M14 A3039 RMK T00501140 IEM_DS3505
ZBYN,1990-11-22 09:00,ZBYN 220900Z AUTO 14004KT 7SM 03/M08 A3039 RMK SLP329 T00301079 52001 IEM_DS3505
ZBYN,1990-11-22 10:00,ZBYN 221000Z AUTO 06004KT 4SM 01/M08 A3039 RMK T00101080 IEM_DS3505
ZBYN,1990-11-22 11:00,ZBYN 221100Z AUTO 07004KT 5SM M01/M10 A3042 RMK T10101100 IEM_DS3505
ZBYN,1990-11-22 12:00,ZBYN 221200Z AUTO 14002KT 7SM M02/M05 A3042 RMK SLP355 T10201049 52013 IEM_DS3505
ZBYN,1990-11-22 13:00,ZBYN 221300Z AUTO 11004KT 5SM M03/M08 A3045 RMK T10301080 IEM_DS3505
ZBYN,1990-11-22 14:00,ZBYN 221400Z AUTO 09004KT 5SM M03/M09 A3045 RMK T10301090 IEM_DS3505
ZBYN,1990-11-22 15:00,ZBYN 221500Z AUTO 00000KT 7SM M03/M06 A3047 RMK SLP349 T10261057 52010 IEM_DS3505
ZBYN,1990-11-22 16:00,ZBYN 221600Z AUTO 06004KT 7SM M04/M10 A3047 RMK T10401100 IEM_DS3505
ZBYN,1990-11-22 17:00,ZBYN 221700Z AUTO 10004KT 7SM M04/M09 A3047 RMK T10401090 IEM_DS3505
ZBYN,1990-11-22 18:00,ZBYN 221800Z AUTO 00000KT 7SM M03/M06 A3045 RMK SLP337 T10261061 40065//// 57006 IEM_DS3505
ZBYN,1990-11-22 19:00,ZBYN 221900Z AUTO 00000KT 4SM M04/M08 A3045 RMK T10401080 IEM_DS3505
ZBYN,1990-11-22 20:00,ZBYN 222000Z AUTO 00000KT 5SM M04/M09 A3045 RMK T10401090 IEM_DS3505
ZBYN,1990-11-22 21:00,ZBYN 222100Z AUTO 00000KT 7SM M03/M06 A3042 RMK SLP338 T10301062 57002 IEM_DS3505
ZBYN,1990-11-22 23:00,ZBYN 222300Z AUTO 00000KT 6SM M04/M09 A3045 RMK T10401090 IEM_DS3505
ZBYN,1990-11-23 00:00,ZBYN 230000Z AUTO 00000KT 7SM M02/M04 A3045 RMK SLP353 T10241040 52006 IEM_DS3505
ZBYN,1990-11-23 01:00,ZBYN 230100Z AUTO 00000KT 2SM M02/M08 A3045 RMK T10201080 IEM_DS3505
ZBYN,1990-11-23 02:00,ZBYN 230200Z AUTO 00000KT 2 1/2SM 00/M09 A3045 RMK T00001090 IEM_DS3505
ZBYN,1990-11-23 03:00,ZBYN 230300Z AUTO 14002KT 6SM 01/M08 A3045 RMK SLP346 T00101078 57002 IEM_DS3505
ZBYN,1990-11-23 04:00,ZBYN 230400Z AUTO 00000KT 1 1/2SM 03/M02 A3042 RMK T00301020 IEM_DS3505
ZBYN,1990-11-23 05:00,ZBYN 230500Z AUTO 00000KT 2SM 03/M06 A3036 RMK T00301060 IEM_DS3505
ZBYN,1990-11-23 06:00,ZBYN 230600Z AUTO 20002KT 6SM 03/M07 A3037 RMK SLP321 T00261068 4////1042 57020 IEM_DS3505
ZBYN,1990-11-23 07:00,ZBYN 230700Z AUTO 12006KT 2 1/2SM 04/M07 A3033 RMK T00401070 IEM_DS3505
ZBYN,1990-11-23 08:00,ZBYN 230800Z AUTO 00000KT 2 1/2SM 04/M06 A3033 RMK T00401060 IEM_DS3505
ZBYN,1990-11-23 09:00,ZBYN 230900Z AUTO 00000KT 6SM 02/M05 A3033 RMK SLP311 T00241047 57010 IEM_DS3505
ZBYN,1990-11-23 10:00,ZBYN 231000Z AUTO 00000KT 2 1/2SM 02/M04 A3033 RMK T00201040 IEM_DS3505
ZBYN,1990-11-23 11:00,ZBYN 231100Z AUTO 00000KT 3SM 02/M04 A3036 RMK T00201040 IEM_DS3505
ZBYN,1990-11-23 12:00,ZBYN 231200Z AUTO 18004KT 6SM 02/M06 A3036 RMK SLP314 T00201061 52003 IEM_DS3505
ZBYN,1990-11-23 13:00,ZBYN 231300Z AUTO 00000KT 5SM 02/M04 A3036 RMK T00201040 IEM_DS3505
ZBYN,1990-11-23 15:00,ZBYN 231500Z AUTO 09002KT 6SM 00/M06 A3036 RMK SLP311 T00021057 54000 IEM_DS3505
ZBYN,1990-11-23 16:00,ZBYN 231600Z AUTO 00000KT 4SM 00/M04 A3036 RMK T00001040 IEM_DS3505
ZBYN,1990-11-23 17:00,ZBYN 231700Z AUTO 00000KT 4SM 00/M04 A3033 RMK T00001040 IEM_DS3505
ZBYN,1990-11-23 18:00,ZBYN 231800Z AUTO 11004KT 7SM M00/M06 A3033 RMK SLP302 T10041057 40035//// 57006 IEM_DS3505
ZBYN,1990-11-23 19:00,ZBYN 231900Z AUTO 10004KT 5SM M03/M06 A3033 RMK T10301060 IEM_DS3505
ZBYN,1990-11-23 20:00,ZBYN 232000Z AUTO 11006KT 3SM M03/M09 A3033 RMK T10301090 IEM_DS3505
ZBYN,1990-11-23 21:00,ZBYN 232100Z AUTO 00000KT 2 1/2SM 03/M05 A3033 RMK T00301050 IEM_DS3505
ZBYN,1990-11-23 22:00,ZBYN 232200Z AUTO 00000KT 2SM M05/M09 A3033 RMK T10501090 IEM_DS3505
ZBYN,1990-11-23 23:00,ZBYN 232300Z AUTO 00000KT 1 1/2SM M06/M09 A3033 RMK T10601090 IEM_DS3505
ZBYN,1990-11-24 00:00,ZBYN 240000Z AUTO 00000KT 5SM M04/M06 A3036 RMK SLP307 T10421062 52002 IEM_DS3505
ZBYN,1990-11-24 01:00,ZBYN 240100Z AUTO 00000KT 1SM M03/M07 A3033 RMK T10301070 IEM_DS3505
ZBYN,1990-11-24 02:00,ZBYN 240200Z AUTO 00000KT 1SM 01/M06 A3033 RMK T00101060 IEM_DS3505
ZBYN,1990-11-24 03:00,ZBYN 240300Z AUTO 11002KT 5SM 03/M06 A3033 RMK SLP298 T00301057 52001 IEM_DS3505
ZBYN,1990-11-24 04:00,ZBYN 240400Z AUTO 00000KT 1SM 06/M04 A3030 RMK T00601040 IEM_DS3505
ZBYN,1990-11-24 05:00,ZBYN 240500Z AUTO 22010KT 1 1/2SM 09/M03 A3027 RMK T00901030 IEM_DS3505
ZBYN,1990-11-24 06:00,ZBYN 240600Z AUTO 00000KT 5SM 09/M02 A3024 RMK SLP260 T00901018 4////1044 57026 IEM_DS3505
ZBYN,1990-11-24 07:00,ZBYN 240700Z AUTO 23004KT 4SM 11/M01 A3024 RMK T01101010 IEM_DS3505
ZBYN,1990-11-24 08:00,ZBYN 240800Z AUTO 17004KT 4SM 11/M01 A3024 RMK T01101010 IEM_DS3505
ZBYN,1990-11-24 09:00,ZBYN 240900Z AUTO 36004KT 7SM 09/M05 A3024 RMK SLP271 T00901052 52006 IEM_DS3505
ZBYN,1990-11-24 10:00,ZBYN 241000Z AUTO 31008KT 3SM 03/M01 A3027 RMK T00301010 IEM_DS3505
ZBYN,1990-11-24 11:00,ZBYN 241100Z AUTO 31004KT 7SM 01/M03 A3030 RMK T00101030 IEM_DS3505
ZBYN,1990-11-24 12:00,ZBYN 241200Z AUTO 34004KT 6SM 01/M04 A3033 RMK SLP305 T00081043 52015 IEM_DS3505
ZBYN,1990-11-24 13:00,ZBYN 241300Z AUTO 09006KT 3SM M01/M05 A3033 RMK T10101050 IEM_DS3505
ZBYN,1990-11-24 14:00,ZBYN 241400Z AUTO 11004KT 4SM M02/M06 A3036 RMK T10201060 IEM_DS3505
ZBYN,1990-11-24 15:00,ZBYN 241500Z AUTO 00000KT 6SM M01/M05 A3036 RMK SLP312 T10091050 52016 IEM_DS3505
ZBYN,1990-11-24 17:00,ZBYN 241700Z AUTO 12006KT 4SM M02/M07 A3039 RMK T10201070 IEM_DS3505
ZBYN,1990-11-24 18:00,ZBYN 241800Z AUTO 14004KT 5SM M02/M07 A3039 RMK SLP305 T10241066 40126//// 52001 IEM_DS3505
ZBYN,1990-11-24 19:00,ZBYN 241900Z AUTO 08004KT 3SM M04/M08 A3039 RMK T10401080 IEM_DS3505
ZBYN,1990-11-24 20:00,ZBYN 242000Z AUTO 00000KT 4SM M05/M08 A3039 RMK T10501080 IEM_DS3505
ZBYN,1990-11-24 21:00,ZBYN 242100Z AUTO 00000KT 2 1/2SM M03/M06 A3038 RMK SLP314 T10331062 52006 IEM_DS3505
ZBYN,1990-11-25 00:00,ZBYN 250000Z AUTO 00000KT 11SM M05/M06 A3039 RMK T10481065 52004 IEM_DS3505
ZBYN,1990-11-25 01:00,ZBYN 250100Z AUTO 00000KT 2 1/2SM M02/M07 A3039 RMK T10201070 IEM_DS3505
ZBYN,1990-11-25 02:00,ZBYN 250200Z AUTO 00000KT 6SM 04/M08 A3039 RMK T00401080 IEM_DS3505
ZBYN,1990-11-25 03:00,ZBYN 250300Z AUTO 14004KT 7SM 05/M01 A3042 RMK SLP320 T00491013 57001 IEM_DS3505
ZBYN,1990-11-25 04:00,ZBYN 250400Z AUTO 18006KT 6SM 07/M05 A3039 RMK T00701050 IEM_DS3505
ZBYN,1990-11-25 05:00,ZBYN 250500Z AUTO 18008KT 6SM 10/M04 A3036 RMK T01001040 IEM_DS3505
ZBYN,1990-11-25 06:00,ZBYN 250600Z AUTO 16006KT 7SM 10/M00 A3030 RMK SLP285 T00991005 4////1054 57026 IEM_DS3505
ZBYN,1990-11-25 07:00,ZBYN 250700Z AUTO 20008KT 6SM 10/M06 A3030 RMK T01001060 IEM_DS3505
ZBYN,1990-11-25 08:00,ZBYN 250800Z AUTO 21006KT 6SM 09/M04 A3030 RMK T00901040 IEM_DS3505
ZBYN,1990-11-25 09:00,ZBYN 250900Z AUTO 00000KT 7SM 08/M02 A3031 RMK SLP291 T00791025 52001 IEM_DS3505
ZBYN,1990-11-25 10:00,ZBYN 251000Z AUTO 00000KT 6SM 07/M04 A3033 RMK T00701040 IEM_DS3505
ZBYN,1990-11-25 11:00,ZBYN 251100Z AUTO 17006KT 7SM 06/M02 A3033 RMK T00601020 IEM_DS3505
ZBYN,1990-11-25 12:00,ZBYN 251200Z AUTO 00000KT 7SM 05/M03 A3031 RMK SLP300 T00501029 52001 IEM_DS3505
ZBYN,1990-11-25 13:00,ZBYN 251300Z AUTO 11004KT 6SM 04/M05 A3030 RMK T00401050 IEM_DS3505
ZBYN,1990-11-25 15:00,ZBYN 251500Z AUTO 04002KT 7SM 01/M04 A3033 RMK SLP292 T00111042 52002 IEM_DS3505
ZBYN,1990-11-25 16:00,ZBYN 251600Z AUTO 08006KT 7SM 00/M05 A3033 RMK T00001050 IEM_DS3505
ZBYN,1990-11-25 17:00,ZBYN 251700Z AUTO 09008KT 7SM 00/M06 A3033 RMK T00001060 IEM_DS3505
ZBYN,1990-11-25 18:00,ZBYN 251800Z AUTO 16002KT 7SM M01/M05 A3033 RMK SLP285 T10071051 57001 IEM_DS3505
ZBYN,1990-11-25 19:00,ZBYN 251900Z AUTO 12006KT 6SM 00/M05 A3030 RMK T00001050 IEM_DS3505
ZBYN,1990-11-25 20:00,ZBYN 252000Z AUTO 09006KT 6SM M01/M05 A3030 RMK T10101050 IEM_DS3505
ZBYN,1990-11-25 21:00,ZBYN 252100Z AUTO 00000KT 7SM M02/M05 A3030 RMK SLP285 T10181047 57005 IEM_DS3505
ZBYN,1990-11-25 22:00,ZBYN 252200Z AUTO 07004KT 7SM M02/M06 A3030 RMK T10201060 IEM_DS3505
ZBYN,1990-11-25 23:00,ZBYN 252300Z AUTO 00000KT 4SM M03/M06 A3030 RMK T10301060 IEM_DS3505
ZBYN,1990-11-26 00:00,ZBYN 260000Z AUTO 00000KT 5SM M03/M05 A3030 RMK SLP296 T10271047 52003 IEM_DS3505
ZBYN,1990-11-26 01:00,ZBYN 260100Z AUTO 09004KT 3SM M01/M06 A3033 RMK T10101060 IEM_DS3505
ZBYN,1990-11-26 02:00,ZBYN 260200Z AUTO 11004KT 4SM 05/M05 A3033 RMK T00501050 IEM_DS3505
ZBYN,1990-11-26 03:00,ZBYN 260300Z AUTO 16004KT 4SM 06/M04 A3033 RMK SLP288 T00621043 52001 IEM_DS3505
ZBYN,1990-11-26 04:00,ZBYN 260400Z AUTO 24006KT 5SM 08/M06 A3030 RMK T00801060 IEM_DS3505
ZBYN,1990-11-26 05:00,ZBYN 260500Z AUTO 21008KT 7SM 10/M05 A3027 RMK T01001050 IEM_DS3505
ZBYN,1990-11-26 06:00,ZBYN 260600Z AUTO 20008KT 6SM 10/M04 A3024 RMK SLP256 T01041043 4////1032 57025 IEM_DS3505
ZBYN,1990-11-26 07:00,ZBYN 260700Z AUTO 20008KT 7SM 11/M05 A3021 RMK T01101050 IEM_DS3505
ZBYN,1990-11-26 08:00,ZBYN 260800Z AUTO 22006KT 7SM 12/M06 A3021 RMK T01201060 IEM_DS3505
ZBYN,1990-11-26 09:00,ZBYN 260900Z AUTO 14004KT 9SM 08/M02 A3021 RMK SLP252 T00841024 57009 IEM_DS3505
ZBYN,1990-11-26 11:00,ZBYN 261100Z AUTO 09008KT 7SM 03/M05 A3024 RMK T00301050 IEM_DS3505
ZBYN,1990-11-26 12:00,ZBYN 261200Z AUTO 14002KT 9SM 03/M03 A3024 RMK SLP273 T00271026 52009 IEM_DS3505
ZBYN,1990-11-26 14:00,ZBYN 261400Z AUTO 12004KT 7SM M01/M05 A3027 RMK T10101050 IEM_DS3505
ZBYN,1990-11-26 15:00,ZBYN 261500Z AUTO 12004KT 7SM M01/M05 A3027 RMK T10101050 IEM_DS3505
ZBYN,1990-11-26 16:00,ZBYN 261600Z AUTO 07006KT 7SM M02/M06 A3027 RMK T10201060 IEM_DS3505
ZBYN,1990-11-26 17:00,ZBYN 261700Z AUTO 12004KT 7SM M03/M06 A3027 RMK T10301060 IEM_DS3505
ZBYN,1990-11-26 18:00,ZBYN 261800Z AUTO 00000KT 7SM M03/M05 A3024 RMK SLP260 T10301050 57003 IEM_DS3505
ZBYN,1990-11-26 19:00,ZBYN 261900Z AUTO 00000KT 7SM M05/M08 A3024 RMK T10501080 IEM_DS3505
ZBYN,1990-11-26 20:00,ZBYN 262000Z AUTO 00000KT 7SM M04/M06 A3024 RMK T10401060 IEM_DS3505
ZBYN,1990-11-26 21:00,ZBYN 262100Z AUTO 00000KT 7SM M02/M04 A3024 RMK SLP259 T10221041 57004 IEM_DS3505
ZBYN,1990-11-26 22:00,ZBYN 262200Z AUTO 00000KT 7SM M05/M07 A3024 RMK T10501070 IEM_DS3505
ZBYN,1990-11-26 23:00,ZBYN 262300Z AUTO 00000KT 4SM M05/M08 A3024 RMK T10501080 IEM_DS3505
ZBYN,1990-11-27 00:00,ZBYN 270000Z AUTO 34004KT 4SM M02/M05 A3024 RMK SLP272 T10181047 52003 IEM_DS3505
ZBYN,1990-11-27 01:00,ZBYN 270100Z AUTO 00000KT 2SM M03/M05 A3027 RMK T10301050 IEM_DS3505
ZBYN,1990-11-27 02:00,ZBYN 270200Z AUTO 00000KT 2 1/2SM 03/M04 A3027 RMK T00301040 IEM_DS3505
ZBYN,1990-11-27 03:00,ZBYN 270300Z AUTO 00000KT 5SM 05/M05 A3027 RMK SLP269 T00541048 52004 IEM_DS3505
ZBYN,1990-11-27 04:00,ZBYN 270400Z AUTO 18004KT 7SM 08/M03 A3024 RMK T00801030 IEM_DS3505
ZBYN,1990-11-27 05:00,ZBYN 270500Z AUTO 00000KT 7SM 10/M03 A3018 RMK T01001030 IEM_DS3505
ZBYN,1990-11-27 06:00,ZBYN 270600Z AUTO 18002KT 11SM 11/M02 A3015 RMK SLP236 T01081024 4////1035 57024 IEM_DS3505
ZBYN,1990-11-27 07:00,ZBYN 270700Z AUTO 00000KT 7SM 13/M03 A3015 RMK T01301030 IEM_DS3505
ZBYN,1990-11-27 08:00,ZBYN 270800Z AUTO 00000KT 7SM 13/M03 A3015 RMK T01301030 IEM_DS3505
ZBYN,1990-11-27 09:00,ZBYN 270900Z AUTO 00000KT 6SM 09/M00 A3015 RMK SLP234 T00881005 57005 IEM_DS3505
ZBYN,1990-11-27 10:00,ZBYN 271000Z AUTO 32004KT 7SM 05/M01 A3015 RMK T00501010 IEM_DS3505
ZBYN,1990-11-27 11:00,ZBYN 271100Z AUTO 33004KT 7SM 02/M02 A3018 RMK T00201020 IEM_DS3505
ZBYN,1990-11-27 12:00,ZBYN 271200Z AUTO 36004KT 6SM 04/M03 A3018 RMK SLP251 T00401028 52008 IEM_DS3505
ZBYN,1990-11-27 13:00,ZBYN 271300Z AUTO 00000KT 4SM 00/M04 A3021 RMK T00001040 IEM_DS3505
ZBYN,1990-11-27 14:00,ZBYN 271400Z AUTO 00000KT 4SM M02/M05 A3021 RMK T10201050 IEM_DS3505
ZBYN,1990-11-27 15:00,ZBYN 271500Z AUTO 36002KT 6SM 02/M03 A3021 RMK SLP251 T00161033 52008 IEM_DS3505
ZBYN,1990-11-27 16:00,ZBYN 271600Z AUTO 00000KT 4SM A3021 RMK IEM_DS3505
ZBYN,1990-11-27 18:00,ZBYN 271800Z AUTO 00000KT 4SM M01/M04 A3021 RMK SLP251 T10141038 40118//// 52004 IEM_DS3505
ZBYN,1990-11-27 19:00,ZBYN 271900Z AUTO 00000KT 4SM M05/M08 A3021 RMK T10501080 IEM_DS3505
ZBYN,1990-11-27 21:00,ZBYN 272100Z AUTO 34004KT 4SM M01/M06 A3021 RMK SLP249 T10061060 57004 IEM_DS3505
ZBYN,1990-11-27 23:00,ZBYN 272300Z AUTO 00000KT 4SM M05/M07 A3021 RMK T10501070 IEM_DS3505
ZBYN,1990-11-28 00:00,ZBYN 280000Z AUTO 32004KT 6SM M00/M06 A3024 RMK SLP264 T10051063 52006 IEM_DS3505
ZBYN,1990-11-28 01:00,ZBYN 280100Z AUTO 00000KT 2SM M02/M04 A3027 RMK T10201040 IEM_DS3505
ZBYN,1990-11-28 02:00,ZBYN 280200Z AUTO 00000KT 2SM 03/M06 A3027 RMK T00301060 IEM_DS3505
ZBYN,1990-11-28 03:00,ZBYN 280300Z AUTO 36004KT 6SM 08/M03 A3024 RMK SLP250 T00751034 57003 IEM_DS3505
ZBYN,1990-11-28 04:00,ZBYN 280400Z AUTO 36004KT 1 1/2SM 10/M05 A3021 RMK T01001050 IEM_DS3505
ZBYN,1990-11-28 05:00,ZBYN 280500Z AUTO 31004KT 3SM 12/M01 A3015 RMK T01201010 IEM_DS3505
ZBYN,1990-11-28 06:00,ZBYN 280600Z AUTO 00000KT 6SM 14/M03 A3012 RMK SLP213 T01441032 4////1027 57028 IEM_DS3505
ZBYN,1990-11-28 07:00,ZBYN 280700Z AUTO 17008KT 7SM 17/M08 A3009 RMK T01701080 IEM_DS3505
ZBYN,1990-11-28 08:00,ZBYN 280800Z AUTO 16006KT 6SM 17/M12 A3009 RMK T01701120 IEM_DS3505
ZBYN,1990-11-28 09:00,ZBYN 280900Z AUTO 16004KT 7SM 14/M07 A3012 RMK SLP210 T01401070 57003 IEM_DS3505
ZBYN,1990-11-28 10:00,ZBYN 281000Z AUTO 08014KT 6SM 10/M05 A3012 RMK T01001050 IEM_DS3505
ZBYN,1990-11-28 11:00,ZBYN 281100Z AUTO 09010KT 6SM 09/M05 A3018 RMK T00901050 IEM_DS3505
ZBYN,1990-11-28 12:00,ZBYN 281200Z AUTO 18002KT 7SM 06/M01 A3021 RMK SLP244 T00651014 52020 IEM_DS3505
ZBYN,1990-11-28 13:00,ZBYN 281300Z AUTO 09010KT 6SM 07/M04 A3021 RMK T00701040 IEM_DS3505
ZBYN,1990-11-28 14:00,ZBYN 281400Z AUTO 09008KT 6SM 07/M03 A3024 RMK T00701030 IEM_DS3505
ZBYN,1990-11-28 15:00,ZBYN 281500Z AUTO 00000KT 6SM 04/M02 A3026 RMK SLP262 T00411021 52025 IEM_DS3505
ZBYN,1990-11-28 18:00,ZBYN 281800Z AUTO 32004KT 5SM 02/M02 A3028 RMK SLP259 T00241017 40164//// 52006 IEM_DS3505
ZBYN,1990-11-28 19:00,ZBYN 281900Z AUTO 00000KT 6SM 04/M01 A3030 RMK T00401010 IEM_DS3505
ZBYN,1990-11-28 20:00,ZBYN 282000Z AUTO 00000KT 2 1/2SM 02/M02 A3027 RMK T00201020 IEM_DS3505
ZBYN,1990-11-28 21:00,ZBYN 282100Z AUTO 36004KT 5SM A3027 RMK SLP260 IEM_DS3505
ZBYN,1990-11-28 23:00,ZBYN 282300Z AUTO 00000KT 1 1/2SM 03/M01 A3030 RMK T00301010 IEM_DS3505
ZBYN,1990-11-29 00:00,ZBYN 290000Z AUTO 36004KT 4SM 02/00 A3033 RMK SLP294 T00250002 52020 IEM_DS3505
ZBYN,1990-11-29 01:00,ZBYN 290100Z AUTO 00000KT 2SM 03/01 A3036 RMK T00300010 IEM_DS3505
ZBYN,1990-11-29 02:00,ZBYN 290200Z AUTO 00000KT 1 1/4SM 03/01 A3036 RMK T00300010 IEM_DS3505
ZBYN,1990-11-29 03:00,ZBYN 290300Z AUTO 36002KT 2 1/2SM 02/02 A3039 RMK SLP308 T00240017 52009 IEM_DS3505
ZBYN,1990-11-29 04:00,ZBYN 290400Z AUTO 00000KT 1SM 02/01 A3039 RMK T00200010 IEM_DS3505
ZBYN,1990-11-29 05:00,ZBYN 290500Z AUTO 31017KT 4SM 02/M02 A3039 RMK 60004 SLP324 T00201018 4////0014 52011 IEM_DS3505
ZBYN,1990-11-29 06:00,ZBYN 290600Z AUTO 32010KT 4SM 02/M02 A3042 RMK 60004 SLP324 T00201018 4////0014 52011 IEM_DS3505
ZBYN,1990-11-29 07:00,ZBYN 290700Z AUTO 32014KT 1 1/4SM 00/M01 A3045 RMK T00001010 IEM_DS3505
ZBYN,1990-11-29 08:00,ZBYN 290800Z AUTO 33012KT 1 1/4SM A3047 RMK IEM_DS3505
ZBYN,1990-11-29 09:00,ZBYN 290900Z AUTO 34006KT 12SM 02/M04 A3050 RMK SLP350 T00161037 52024 IEM_DS3505
ZBYN,1990-11-29 10:00,ZBYN 291000Z AUTO 22006KT 7SM 00/M02 A3050 RMK T00001020 IEM_DS3505
ZBYN,1990-11-29 11:00,ZBYN 291100Z AUTO 30016KT 7SM 00/M05 A3053 RMK T00001050 IEM_DS3505
ZBYN,1990-11-29 12:00,ZBYN 291200Z AUTO 32010KT 12SM 01/M08 A3053 RMK 60000 SLP373 T00061080 52019 IEM_DS3505
ZBYN,1990-11-29 13:00,ZBYN 291300Z AUTO 30021KT 3SM M01/M10 A3056 RMK T10101100 IEM_DS3505
ZBYN,1990-11-29 14:00,ZBYN 291400Z AUTO 29021KT 5SM M02/M13 A3059 RMK T10201130 IEM_DS3505
ZBYN,1990-11-29 15:00,ZBYN 291500Z AUTO 32014KT 9SM M03/M11 A3062 RMK SLP403 T10321114 52020 IEM_DS3505
ZBYN,1990-11-29 16:00,ZBYN 291600Z AUTO 29017KT 4SM M04/M16 A3062 RMK T10401160 IEM_DS3505
ZBYN,1990-11-29 17:00,ZBYN 291700Z AUTO 30023KT 4SM M06/M18 A3065 RMK T10601180 IEM_DS3505
ZBYN,1990-11-29 18:00,ZBYN 291800Z AUTO 32014KT 6SM M07/M22 A3065 RMK SLP426 T10681217 40041//// 52015 IEM_DS3505
ZBYN,1990-11-29 19:00,ZBYN 291900Z AUTO 30017KT 7SM M08/M22 A3068 RMK T10801220 IEM_DS3505
ZBYN,1990-11-29 20:00,ZBYN 292000Z AUTO 31019KT 7SM M08/M23 A3065 RMK T10801230 IEM_DS3505
ZBYN,1990-11-29 21:00,ZBYN 292100Z AUTO 32014KT 9SM M09/M23 A3065 RMK SLP426 T10871233 57004 IEM_DS3505
ZBYN,1990-11-29 23:00,ZBYN 292300Z AUTO 30016KT 7SM M10/M25 A3065 RMK T11001250 IEM_DS3505
ZBYN,1990-11-30 00:00,ZBYN 300000Z AUTO 32010KT 9SM M10/M20 A3068 RMK 70008 SLP438 T11001199 52007 IEM_DS3505
ZBYN,1990-11-30 01:00,ZBYN 300100Z AUTO 30021KT 7SM M10/M26 A3068 RMK T11001260 IEM_DS3505
ZBYN,1990-11-30 02:00,ZBYN 300200Z AUTO 30025KT 7SM M09/M24 A3065 RMK T10901240 IEM_DS3505
ZBYN,1990-11-30 03:00,ZBYN 300300Z AUTO 32019KT 12SM M08/M24 A3065 RMK SLP427 T10851240 57014 IEM_DS3505
ZBYN,1990-11-30 04:00,ZBYN 300400Z AUTO 30025KT 7SM M07/M21 A3059 RMK T10701210 IEM_DS3505
ZBYN,1990-11-30 05:00,ZBYN 300500Z AUTO 30025KT 7SM M07/M24 A3056 RMK T10701240 IEM_DS3505
ZBYN,1990-11-30 06:00,ZBYN 300600Z AUTO 32021KT 12SM M07/M21 A3053 RMK SLP397 T10731208 4////1101 57032 IEM_DS3505
ZBYN,1990-11-30 07:00,ZBYN 300700Z AUTO 30025G39KT 7SM M07/M23 A3050 RMK T10701230 IEM_DS3505
ZBYN,1990-11-30 08:00,ZBYN 300800Z AUTO 30025KT 7SM M07/M25 A3053 RMK T10701250 IEM_DS3505
ZBYN,1990-11-30 09:00,ZBYN 300900Z AUTO 32016KT 12SM M08/M22 A3053 RMK SLP403 T10801215 52001 IEM_DS3505
ZBYN,1990-11-30 10:00,ZBYN 301000Z AUTO 31016KT 7SM M08/M24 A3053 RMK T10801240 IEM_DS3505
ZBYN,1990-11-30 12:00,ZBYN 301200Z AUTO 34012KT 12SM M09/M24 A3052 RMK SLP409 T10871245 52002 IEM_DS3505
ZBYN,1990-11-30 15:00,ZBYN 301500Z AUTO 32008KT 12SM M09/M26 A3051 RMK SLP402 T10931262 57005 IEM_DS3505
ZBYN,1990-11-30 16:00,ZBYN 301600Z AUTO 30014KT 7SM M10/M25 A3050 RMK T11001250 IEM_DS3505
ZBYN,1990-11-30 17:00,ZBYN 301700Z AUTO 29010KT 7SM M10/M25 A3047 RMK T11001250 IEM_DS3505
ZBYN,1990-11-30 18:00,ZBYN 301800Z AUTO 29006KT 12SM M10/M19 A3047 RMK SLP388 T11021191 41065//// 57012 IEM_DS3505
ZBYN,1990-11-30 19:00,ZBYN 301900Z AUTO 28008KT 7SM M11/M24 A3047 RMK T11101240 IEM_DS3505
ZBYN,1990-11-30 21:00,ZBYN 302100Z AUTO 29006KT 16SM M10/M19 A3045 RMK SLP371 T11011193 57016 IEM_DS3505
ZBYN,1990-11-30 22:00,ZBYN 302200Z AUTO 30006KT 7SM M12/M24 A3045 RMK T11201240 IEM_DS3505
ZBYN,1990-12-01 00:00,ZBYN 010000Z AUTO 09004KT 19SM M11/M19 A3047 RMK SLP385 T11131192 52009 IEM_DS3505
ZBYN,1990-12-01 01:00,ZBYN 010100Z AUTO 13006KT 7SM M13/M24 A3047 RMK T11301240 IEM_DS3505
ZBYN,1990-12-01 03:00,ZBYN 010300Z AUTO 04002KT 12SM M06/M15 A3050 RMK SLP386 T10591148 52009 IEM_DS3505
ZBYN,1990-12-01 04:00,ZBYN 010400Z AUTO 21006KT 7SM M05/M23 A3047 RMK T10501230 IEM_DS3505
ZBYN,1990-12-01 05:00,ZBYN 010500Z AUTO 24004KT 7SM M04/M20 A3045 RMK T10401200 IEM_DS3505
ZBYN,1990-12-01 06:00,ZBYN 010600Z AUTO 09002KT 9SM M03/M14 A3042 RMK SLP362 T10291137 4////1115 57018 IEM_DS3505
ZBYN,1990-12-01 07:00,ZBYN 010700Z AUTO 35006KT 7SM M03/M19 A3042 RMK T10301190 IEM_DS3505
ZBYN,1990-12-01 08:00,ZBYN 010800Z AUTO 36006KT 7SM M03/M17 A3045 RMK T10301170 IEM_DS3505
ZBYN,1990-12-01 09:00,ZBYN 010900Z AUTO 36002KT 9SM M04/M13 A3043 RMK SLP367 T10391131 52003 IEM_DS3505
ZBYN,1990-12-01 10:00,ZBYN 011000Z AUTO 32004KT 7SM M06/M16 A3047 RMK T10601160 IEM_DS3505
ZBYN,1990-12-01 11:00,ZBYN 011100Z AUTO 00000KT 7SM M07/M16 A3047 RMK T10701160 IEM_DS3505
ZBYN,1990-12-01 12:00,ZBYN 011200Z AUTO 29008KT 9SM M05/M14 A3050 RMK T10521142 52018 IEM_DS3505
ZBYN,1990-12-01 14:00,ZBYN 011400Z AUTO 08004KT 7SM M08/M15 A3053 RMK T10801150 IEM_DS3505
ZBYN,1990-12-01 15:00,ZBYN 011500Z AUTO 32004KT 9SM M06/M16 A3053 RMK SLP396 T10571165 52013 IEM_DS3505
ZBYN,1990-12-01 16:00,ZBYN 011600Z AUTO 00000KT 7SM M10/M15 A3056 RMK T11001150 IEM_DS3505
ZBYN,1990-12-01 17:00,ZBYN 011700Z AUTO 00000KT 7SM M11/M15 A3056 RMK T11101150 IEM_DS3505
ZBYN,1990-12-01 18:00,ZBYN 011800Z AUTO 11002KT 7SM M10/M13 A3056 RMK SLP400 T11031131 41024//// 52001 IEM_DS3505
ZBYN,1990-12-01 19:00,ZBYN 011900Z AUTO 00000KT 7SM M12/M15 A3056 RMK T11201150 IEM_DS3505
ZBYN,1990-12-01 20:00,ZBYN 012000Z AUTO 00000KT 7SM M14/M17 A3056 RMK T11401170 IEM_DS3505
ZBYN,1990-12-01 21:00,ZBYN 012100Z AUTO 00000KT 7SM M12/M13 A3056 RMK SLP410 T11241127 52003 IEM_DS3505
ZBYN,1990-12-01 22:00,ZBYN 012200Z AUTO 11004KT 7SM M13/M15 A3056 RMK T11301150 IEM_DS3505
ZBYN,1990-12-01 23:00,ZBYN 012300Z AUTO 00000KT 7SM M14/M16 A3059 RMK T11401160 IEM_DS3505
ZBYN,1990-12-02 00:00,ZBYN 020000Z AUTO 16002KT 6SM M13/M13 A3059 RMK SLP435 T11291129 52020 IEM_DS3505
ZBYN,1990-12-02 01:00,ZBYN 020100Z AUTO 00000KT 4SM M10/M15 A3062 RMK T11001150 IEM_DS3505
ZBYN,1990-12-02 02:00,ZBYN 020200Z AUTO 22004KT 5SM M06/M15 A3062 RMK T10601150 IEM_DS3505
ZBYN,1990-12-02 03:00,ZBYN 020300Z AUTO 00000KT 6SM M03/M16 A3062 RMK SLP421 T10341162 52003 IEM_DS3505
ZBYN,1990-12-02 04:00,ZBYN 020400Z AUTO 26004KT 7SM M02/M18 A3059 RMK T10201180 IEM_DS3505
ZBYN,1990-12-02 05:00,ZBYN 020500Z AUTO 00000KT 7SM M02/M15 A3056 RMK T10201150 IEM_DS3505
ZBYN,1990-12-02 06:00,ZBYN 020600Z AUTO 14004KT 7SM M00/M13 A3056 RMK SLP398 T10051130 4////1129 IEM_DS3505
ZBYN,1990-12-02 07:00,ZBYN 020700Z AUTO 24004KT 7SM 00/M14 A3053 RMK T00001140 IEM_DS3505
ZBYN,1990-12-02 09:00,ZBYN 020900Z AUTO 16006KT 12SM M01/M12 A3053 RMK SLP397 T10141121 57006 IEM_DS3505
ZBYN,1990-12-02 10:00,ZBYN 021000Z AUTO 00000KT 7SM M04/M12 A3053 RMK T10401120 IEM_DS3505
ZBYN,1990-12-02 12:00,ZBYN 021200Z AUTO 00000KT 12SM M05/M11 A3056 RMK T10461110 52007 IEM_DS3505
ZBYN,1990-12-02 13:00,ZBYN 021300Z AUTO 00000KT 7SM M08/M11 A3056 RMK T10801110 IEM_DS3505
ZBYN,1990-12-02 14:00,ZBYN 021400Z AUTO 00000KT 5SM M09/M11 A3056 RMK T10901110 IEM_DS3505
ZBYN,1990-12-02 15:00,ZBYN 021500Z AUTO 36002KT 9SM M06/M11 A3059 RMK SLP402 T10581113 52005 IEM_DS3505
ZBYN,1990-12-02 16:00,ZBYN 021600Z AUTO 00000KT 4SM M09/M13 A3056 RMK T10901130 IEM_DS3505
ZBYN,1990-12-02 17:00,ZBYN 021700Z AUTO 00000KT 4SM M10/M13 A3059 RMK T11001130 IEM_DS3505
ZBYN,1990-12-02 18:00,ZBYN 021800Z AUTO 00000KT 7SM M09/M11 A3056 RMK SLP400 T10921113 40005//// 57002 IEM_DS3505
ZBYN,1990-12-02 19:00,ZBYN 021900Z AUTO 00000KT 5SM M11/M13 A3056 RMK T11101130 IEM_DS3505
ZBYN,1990-12-02 20:00,ZBYN 022000Z AUTO 00000KT 5SM M11/M13 A3056 RMK T11101130 IEM_DS3505
ZBYN,1990-12-02 21:00,ZBYN 022100Z AUTO 00000KT 7SM M10/M10 A3055 RMK SLP403 T11051105 57001 IEM_DS3505
ZBYN,1990-12-02 22:00,ZBYN 022200Z AUTO 00000KT 3SM M11/M13 A3056 RMK T11101130 IEM_DS3505
ZBYN,1990-12-02 23:00,ZBYN 022300Z AUTO 00000KT 3SM M12/M14 A3056 RMK T11201140 IEM_DS3505
ZBYN,1990-12-03 00:00,ZBYN 030000Z AUTO 00000KT 6SM M11/M11 A3056 RMK SLP412 T11071107 52002 IEM_DS3505
ZBYN,1990-12-03 01:00,ZBYN 030100Z AUTO 00000KT 3SM M09/M14 A3059 RMK T10901140 IEM_DS3505
ZBYN,1990-12-03 02:00,ZBYN 030200Z AUTO 11004KT 6SM M04/M12 A3059 RMK T10401120 IEM_DS3505
ZBYN,1990-12-03 03:00,ZBYN 030300Z AUTO 11004KT 5SM M02/M10 A3056 RMK SLP396 T10181101 57001 IEM_DS3505
ZBYN,1990-12-03 04:00,ZBYN 030400Z AUTO 00000KT 7SM 00/M11 A3053 RMK T00001110 IEM_DS3505
ZBYN,1990-12-03 05:00,ZBYN 030500Z AUTO 23004KT 7SM 02/M12 A3050 RMK T00201120 IEM_DS3505
ZBYN,1990-12-03 06:00,ZBYN 030600Z AUTO 18006KT 6SM 03/M12 A3047 RMK SLP363 T00271125 4////1109 57028 IEM_DS3505
ZBYN,1990-12-03 07:00,ZBYN 030700Z AUTO 18006KT 7SM 04/M14 A3045 RMK T00401140 IEM_DS3505
ZBYN,1990-12-03 08:00,ZBYN 030800Z AUTO 20006KT 7SM 04/M12 A3045 RMK T00401120 IEM_DS3505
ZBYN,1990-12-03 09:00,ZBYN 030900Z AUTO 14004KT 6SM 01/M10 A3045 RMK SLP362 T00101097 57006 IEM_DS3505
ZBYN,1990-12-03 10:00,ZBYN 031000Z AUTO 10006KT 7SM M01/M10 A3045 RMK T10101100 IEM_DS3505
ZBYN,1990-12-03 11:00,ZBYN 031100Z AUTO 00000KT 7SM M04/M09 A3047 RMK SLP379 T10401090 52006 IEM_DS3505
ZBYN,1990-12-03 12:00,ZBYN 031200Z AUTO 00000KT 7SM M05/M09 A3047 RMK SLP379 T10501090 52006 IEM_DS3505
ZBYN,1990-12-03 13:00,ZBYN 031300Z AUTO 10006KT 7SM M05/M10 A3047 RMK T10501100 IEM_DS3505
ZBYN,1990-12-03 14:00,ZBYN 031400Z AUTO 11006KT 7SM M06/M11 A3047 RMK T10601110 IEM_DS3505
ZBYN,1990-12-03 15:00,ZBYN 031500Z AUTO 00000KT 7SM M06/M08 A3047 RMK SLP371 T10651085 52004 IEM_DS3505
ZBYN,1990-12-03 16:00,ZBYN 031600Z AUTO 10006KT 7SM M06/M11 A3047 RMK T10601110 IEM_DS3505
ZBYN,1990-12-03 17:00,ZBYN 031700Z AUTO 09006KT 7SM M07/M11 A3047 RMK T10701110 IEM_DS3505
ZBYN,1990-12-03 18:00,ZBYN 031800Z AUTO 00000KT 7SM M08/M09 A3047 RMK SLP358 T10771091 40035//// 57006 IEM_DS3505
ZBYN,1990-12-03 19:00,ZBYN 031900Z AUTO 09008KT 7SM M08/M12 A3047 RMK T10801120 IEM_DS3505
ZBYN,1990-12-03 20:00,ZBYN 032000Z AUTO 10004KT 7SM M08/M12 A3045 RMK T10801120 IEM_DS3505
ZBYN,1990-12-03 21:00,ZBYN 032100Z AUTO 00000KT 2 1/2SM M09/M10 A3042 RMK SLP357 T10861097 57006 IEM_DS3505
ZBYN,1990-12-03 22:00,ZBYN 032200Z AUTO 00000KT 7SM M10/M12 A3042 RMK T11001120 IEM_DS3505
ZBYN,1990-12-03 23:00,ZBYN 032300Z AUTO 00000KT 4SM M11/M13 A3042 RMK T11101130 IEM_DS3505
ZBYN,1990-12-04 00:00,ZBYN 040000Z AUTO 11004KT 1/2SM M10/M11 A3042 RMK SLP366 T10971109 57002 IEM_DS3505
ZBYN,1990-12-04 01:00,ZBYN 040100Z AUTO 00000KT 2SM M09/M11 A3045 RMK T10901110 IEM_DS3505
ZBYN,1990-12-04 02:00,ZBYN 040200Z AUTO 00000KT 1 1/4SM M05/M10 A3045 RMK T10501100 IEM_DS3505
ZBYN,1990-12-04 03:00,ZBYN 040300Z AUTO 09002KT 4SM M01/M09 A3045 RMK SLP356 T10141094 52001 IEM_DS3505
ZBYN,1990-12-04 04:00,ZBYN 040400Z AUTO 15006KT 5SM 01/M09 A3042 RMK T00101090 IEM_DS3505
ZBYN,1990-12-04 05:00,ZBYN 040500Z AUTO 17004KT 6SM 03/M09 A3039 RMK T00301090 IEM_DS3505
ZBYN,1990-12-04 06:00,ZBYN 040600Z AUTO 18006KT 4SM 04/M10 A3036 RMK SLP327 T00421095 4////1101 57028 IEM_DS3505
ZBYN,1990-12-04 07:00,ZBYN 040700Z AUTO 19006KT 7SM 05/M10 A3033 RMK T00501100 IEM_DS3505
ZBYN,1990-12-04 08:00,ZBYN 040800Z AUTO 18004KT 7SM 05/M08 A3030 RMK T00501080 IEM_DS3505
ZBYN,1990-12-04 09:00,ZBYN 040900Z AUTO 14004KT 5SM 02/M07 A3030 RMK SLP310 T00251068 57011 IEM_DS3505
ZBYN,1990-12-04 10:00,ZBYN 041000Z AUTO 09006KT 7SM M01/M07 A3030 RMK T10101070 IEM_DS3505
ZBYN,1990-12-04 11:00,ZBYN 041100Z AUTO 04004KT 7SM M04/M09 A3033 RMK T10401090 IEM_DS3505
ZBYN,1990-12-04 12:00,ZBYN 041200Z AUTO 36002KT 5SM M01/M08 A3033 RMK SLP325 T10081076 52006 IEM_DS3505
ZBYN,1990-12-04 13:00,ZBYN 041300Z AUTO 00000KT 7SM M05/M10 A3036 RMK T10501100 IEM_DS3505
ZBYN,1990-12-04 14:00,ZBYN 041400Z AUTO 09006KT 7SM M05/M10 A3033 RMK T10501100 IEM_DS3505
ZBYN,1990-12-04 15:00,ZBYN 041500Z AUTO 00000KT 4SM M06/M08 A3033 RMK SLP316 T10561079 57002 IEM_DS3505
ZBYN,1990-12-04 16:00,ZBYN 041600Z AUTO 05004KT 7SM M05/M11 A3030 RMK T10501110 IEM_DS3505
ZBYN,1990-12-04 17:00,ZBYN 041700Z AUTO 00000KT 7SM M07/M10 A3030 RMK T10701100 IEM_DS3505
ZBYN,1990-12-04 18:00,ZBYN 041800Z AUTO 00000KT 2 1/2SM M07/M09 A3030 RMK SLP305 T10731086 40055//// 57003 IEM_DS3505
ZBYN,1990-12-04 19:00,ZBYN 041900Z AUTO 00000KT 4SM M09/M12 A3030 RMK T10901120 IEM_DS3505
ZBYN,1990-12-04 20:00,ZBYN 042000Z AUTO 00000KT 4SM M10/M11 A3030 RMK T11001110 IEM_DS3505
ZBYN,1990-12-04 21:00,ZBYN 042100Z AUTO 00000KT 3/8SM M04/M10 A3030 RMK SLP303 T10371098 57007 IEM_DS3505
ZBYN,1990-12-04 22:00,ZBYN 042200Z AUTO 13004KT 7SM M10/M12 A3030 RMK T11001120 IEM_DS3505
ZBYN,1990-12-04 23:00,ZBYN 042300Z AUTO 00000KT 7SM M11/M13 A3030 RMK T11101130 IEM_DS3505
ZBYN,1990-12-05 00:00,ZBYN 050000Z AUTO 34004KT 3/8SM M10/M11 A3030 RMK SLP315 T10951107 52004 IEM_DS3505
ZBYN,1990-12-05 01:00,ZBYN 050100Z AUTO 00000KT 1 1/2SM M08/M11 A3033 RMK T10801110 IEM_DS3505
ZBYN,1990-12-05 02:00,ZBYN 050200Z AUTO 00000KT 1 1/4SM M03/M08 A3033 RMK T10301080 IEM_DS3505
ZBYN,1990-12-05 03:00,ZBYN 050300Z AUTO 14002KT 4SM M00/M10 A3030 RMK SLP304 T10041102 57003 IEM_DS3505
ZBYN,1990-12-05 04:00,ZBYN 050400Z AUTO 15004KT 3SM 03/M10 A3027 RMK T00301100 IEM_DS3505
ZBYN,1990-12-05 05:00,ZBYN 050500Z AUTO 21008KT 7SM 05/M12 A3024 RMK T00501120 IEM_DS3505
ZBYN,1990-12-05 06:00,ZBYN 050600Z AUTO 14010KT 12SM 06/M11 A3021 RMK SLP265 T00561108 4////1095 57028 IEM_DS3505
ZBYN,1990-12-05 07:00,ZBYN 050700Z AUTO 19008KT 7SM 07/M13 A3018 RMK T00701130 IEM_DS3505
ZBYN,1990-12-05 08:00,ZBYN 050800Z AUTO 16006KT 7SM 07/M09 A3018 RMK T00701090 IEM_DS3505
ZBYN,1990-12-05 09:00,ZBYN 050900Z AUTO 00000KT 6SM 04/M10 A3018 RMK SLP256 T00391095 57014 IEM_DS3505
ZBYN,1990-12-05 11:00,ZBYN 051100Z AUTO 00000KT 2 1/2SM M02/M08 A3018 RMK T10201080 IEM_DS3505
ZBYN,1990-12-05 12:00,ZBYN 051200Z AUTO 00000KT 6SM M02/M08 A3018 RMK SLP271 T10191077 52003 IEM_DS3505
ZBYN,1990-12-05 13:00,ZBYN 051300Z AUTO 00000KT 2 1/2SM M04/M09 A3018 RMK T10401090 IEM_DS3505
ZBYN,1990-12-05 14:00,ZBYN 051400Z AUTO 00000KT 2 1/2SM M06/M09 A3018 RMK T10601090 IEM_DS3505
ZBYN,1990-12-05 15:00,ZBYN 051500Z AUTO 10004KT 2 1/2SM M06/M10 A3018 RMK T10601100 IEM_DS3505
ZBYN,1990-12-05 17:00,ZBYN 051700Z AUTO 00000KT 2SM M07/M10 A3018 RMK T10701100 IEM_DS3505
ZBYN,1990-12-05 18:00,ZBYN 051800Z AUTO 34002KT 6SM M05/M08 A3015 RMK SLP260 T10491078 40072//// 52007 IEM_DS3505
ZBYN,1990-12-05 20:00,ZBYN 052000Z AUTO 00000KT 2SM M08/M11 A3015 RMK T10801110 IEM_DS3505
ZBYN,1990-12-05 21:00,ZBYN 052100Z AUTO 36002KT 6SM M06/M09 A3015 RMK SLP254 T10611093 57010 IEM_DS3505
ZBYN,1990-12-05 22:00,ZBYN 052200Z AUTO 00000KT 2SM M09/M11 A3015 RMK T10901110 IEM_DS3505
ZBYN,1990-12-05 23:00,ZBYN 052300Z AUTO 00000KT 2SM M09/M12 A3018 RMK T10901120 IEM_DS3505
ZBYN,1990-12-06 00:00,ZBYN 060000Z AUTO 00000KT 4SM M08/M10 A3018 RMK SLP274 T10811095 52005 IEM_DS3505
ZBYN,1990-12-06 01:00,ZBYN 060100Z AUTO 00000KT 1SM M07/M10 A3021 RMK T10701100 IEM_DS3505
ZBYN,1990-12-06 02:00,ZBYN 060200Z AUTO 00000KT 1SM M02/M08 A3021 RMK T10201080 IEM_DS3505
ZBYN,1990-12-06 03:00,ZBYN 060300Z AUTO 14004KT 3SM M00/M08 A3021 RMK SLP270 T10021075 52006 IEM_DS3505
ZBYN,1990-12-06 04:00,ZBYN 060400Z AUTO 14008KT 4SM 04/M10 A3021 RMK T00401100 IEM_DS3505
ZBYN,1990-12-06 05:00,ZBYN 060500Z AUTO 18004KT 5SM 07/M08 A3018 RMK SLP237 T00661078 4////1087 57020 IEM_DS3505
ZBYN,1990-12-06 06:00,ZBYN 060600Z AUTO 18004KT 5SM 07/M08 A3015 RMK SLP237 T00661078 4////1087 57020 IEM_DS3505
ZBYN,1990-12-06 07:00,ZBYN 060700Z AUTO 18002KT 5SM 09/M06 A3012 RMK T00901060 IEM_DS3505
ZBYN,1990-12-06 08:00,ZBYN 060800Z AUTO 00000KT 4SM 09/M03 A3012 RMK T00901030 IEM_DS3505
ZBYN,1990-12-06 09:00,ZBYN 060900Z AUTO 32004KT 5SM 05/M05 A3015 RMK SLP241 T00541048 54000 IEM_DS3505
ZBYN,1990-12-06 10:00,ZBYN 061000Z AUTO 00000KT 1SM 02/M03 A3015 RMK T00201030 IEM_DS3505
ZBYN,1990-12-06 11:00,ZBYN 061100Z AUTO 00000KT 1 1/4SM M01/M04 A3021 RMK T10101040 IEM_DS3505
ZBYN,1990-12-06 12:00,ZBYN 061200Z AUTO 11006KT 3SM M01/M07 A3021 RMK T10101070 IEM_DS3505
ZBYN,1990-12-06 13:00,ZBYN 061300Z AUTO 08006KT 4SM M01/M06 A3024 RMK T10101060 IEM_DS3505
ZBYN,1990-12-06 14:00,ZBYN 061400Z AUTO 00000KT 4SM M03/M07 A3024 RMK T10301070 IEM_DS3505
ZBYN,1990-12-06 15:00,ZBYN 061500Z AUTO 00000KT 6SM M02/M06 A3027 RMK SLP287 T10181064 52015 IEM_DS3505
ZBYN,1990-12-06 16:00,ZBYN 061600Z AUTO 07006KT 7SM M03/M08 A3027 RMK T10301080 IEM_DS3505
ZBYN,1990-12-06 17:00,ZBYN 061700Z AUTO 10006KT 7SM M03/M09 A3027 RMK T10301090 IEM_DS3505
ZBYN,1990-12-06 18:00,ZBYN 061800Z AUTO 36006KT 5SM M01/M09 A3027 RMK SLP271 T10121086 40093//// 57002 IEM_DS3505
ZBYN,1990-12-06 19:00,ZBYN 061900Z AUTO 00000KT 7SM M06/M09 A3027 RMK T10601090 IEM_DS3505
ZBYN,1990-12-06 20:00,ZBYN 062000Z AUTO 11004KT 4SM M06/M09 A3024 RMK T10601090 IEM_DS3505
ZBYN,1990-12-06 21:00,ZBYN 062100Z AUTO 02004KT 5SM M06/M08 A3024 RMK SLP276 T10571076 57005 IEM_DS3505
ZBYN,1990-12-06 22:00,ZBYN 062200Z AUTO 00000KT 4SM M08/M11 A3024 RMK T10801110 IEM_DS3505
ZBYN,1990-12-06 23:00,ZBYN 062300Z AUTO 00000KT 3SM M08/M11 A3027 RMK T10801110 IEM_DS3505
ZBYN,1990-12-07 00:00,ZBYN 070000Z AUTO 00000KT 4SM M07/M09 A3027 RMK T10731090 IEM_DS3505
ZBYN,1990-12-07 01:00,ZBYN 070100Z AUTO 00000KT 2 1/2SM M06/M08 A3030 RMK T10601080 IEM_DS3505
ZBYN,1990-12-07 02:00,ZBYN 070200Z AUTO 00000KT 2 1/2SM M01/M08 A3030 RMK T10101080 IEM_DS3505
ZBYN,1990-12-07 03:00,ZBYN 070300Z AUTO 00000KT 5SM 03/M08 A3030 RMK SLP290 T00341085 52006 IEM_DS3505
ZBYN,1990-12-07 04:00,ZBYN 070400Z AUTO 00000KT 4SM 06/M08 A3027 RMK T00601080 IEM_DS3505
ZBYN,1990-12-07 05:00,ZBYN 070500Z AUTO 00000KT 5SM 08/M10 A3024 RMK T00801100 IEM_DS3505
ZBYN,1990-12-07 06:00,ZBYN 070600Z AUTO 18006KT 5SM 08/M07 A3021 RMK SLP257 T00831074 4////1076 57021 IEM_DS3505
ZBYN,1990-12-07 07:00,ZBYN 070700Z AUTO 00000KT 7SM 09/M08 A3021 RMK T00901080 IEM_DS3505
ZBYN,1990-12-07 08:00,ZBYN 070800Z AUTO 00000KT 7SM 09/M06 A3021 RMK T00901060 IEM_DS3505
ZBYN,1990-12-07 09:00,ZBYN 070900Z AUTO 18004KT 5SM 05/M03 A3021 RMK SLP266 T00541033 57004 IEM_DS3505
ZBYN,1990-12-07 10:00,ZBYN 071000Z AUTO 02006KT 4SM 03/M06 A3021 RMK T00301060 IEM_DS3505
ZBYN,1990-12-07 11:00,ZBYN 071100Z AUTO 00000KT 7SM M01/M06 A3024 RMK T10101060 IEM_DS3505
ZBYN,1990-12-07 12:00,ZBYN 071200Z AUTO 36004KT 5SM 01/M06 A3024 RMK SLP283 T00091063 52005 IEM_DS3505
ZBYN,1990-12-07 13:00,ZBYN 071300Z AUTO 00000KT 7SM M03/M08 A3021 RMK T10301080 IEM_DS3505
ZBYN,1990-12-07 14:00,ZBYN 071400Z AUTO 00000KT 7SM M05/M09 A3027 RMK T10501090 IEM_DS3505
ZBYN,1990-12-07 15:00,ZBYN 071500Z AUTO 00000KT 5SM M04/M08 A3027 RMK SLP280 T10371075 52008 IEM_DS3505
ZBYN,1990-12-07 17:00,ZBYN 071700Z AUTO 00000KT 5SM M05/M10 A3027 RMK T10501100 IEM_DS3505
ZBYN,1990-12-07 18:00,ZBYN 071800Z AUTO 00000KT 4SM M04/M09 A3024 RMK SLP270 T10441088 40090//// 57003 IEM_DS3505
ZBYN,1990-12-07 19:00,ZBYN 071900Z AUTO 07004KT 6SM M07/M10 A3024 RMK T10701100 IEM_DS3505
ZBYN,1990-12-07 20:00,ZBYN 072000Z AUTO 36004KT 6SM M05/M08 A3024 RMK T10501080 IEM_DS3505
ZBYN,1990-12-07 21:00,ZBYN 072100Z AUTO 36004KT 4SM M02/M06 A3021 RMK SLP260 T10181065 57009 IEM_DS3505
ZBYN,1990-12-07 22:00,ZBYN 072200Z AUTO 11004KT 3SM M04/M07 A3021 RMK T10401070 IEM_DS3505
ZBYN,1990-12-07 23:00,ZBYN 072300Z AUTO 10004KT 3SM M05/M08 A3021 RMK T10501080 IEM_DS3505
ZBYN,1990-12-08 00:00,ZBYN 080000Z AUTO 00000KT 2 1/2SM M03/M06 A3021 RMK T10331058 54000 IEM_DS3505
ZBYN,1990-12-08 03:00,ZBYN 080300Z AUTO 00000KT 2SM 04/M07 A3021 RMK SLP262 T00361072 57004 IEM_DS3505
ZBYN,1990-12-08 04:00,ZBYN 080400Z AUTO 00000KT 6SM 06/M07 A3018 RMK T00601070 IEM_DS3505
ZBYN,1990-12-08 05:00,ZBYN 080500Z AUTO 20004KT 5SM 09/M07 A3009 RMK T00901070 IEM_DS3505
ZBYN,1990-12-08 06:00,ZBYN 080600Z AUTO 14004KT 4SM 09/M07 A3009 RMK SLP219 T00861067 4////1052 57032 IEM_DS3505
ZBYN,1990-12-08 07:00,ZBYN 080700Z AUTO 23002KT 6SM 09/M07 A3006 RMK T00901070 IEM_DS3505
ZBYN,1990-12-08 08:00,ZBYN 080800Z AUTO 00000KT 6SM 09/M05 A3006 RMK T00901050 IEM_DS3505
ZBYN,1990-12-08 09:00,ZBYN 080900Z AUTO 00000KT 4SM 05/M05 A3006 RMK SLP207 T00541047 57012 IEM_DS3505
ZBYN,1990-12-08 10:00,ZBYN 081000Z AUTO 00000KT 5SM A3008 RMK SLP227 52004 IEM_DS3505
ZBYN,1990-12-08 11:00,ZBYN 081100Z AUTO 00000KT 2 1/2SM M01/M05 A3006 RMK T10101050 IEM_DS3505
ZBYN,1990-12-08 12:00,ZBYN 081200Z AUTO 00000KT 5SM M02/M05 A3009 RMK SLP227 T10181053 52004 IEM_DS3505
ZBYN,1990-12-08 13:00,ZBYN 081300Z AUTO 10006KT 2 1/2SM M03/M07 A3009 RMK T10301070 IEM_DS3505
ZBYN,1990-12-08 14:00,ZBYN 081400Z AUTO 08006KT 2 1/2SM M03/M07 A3009 RMK T10301070 IEM_DS3505
ZBYN,1990-12-08 15:00,ZBYN 081500Z AUTO 00000KT 5SM M04/M06 A3009 RMK SLP226 T10361059 52007 IEM_DS3505
ZBYN,1990-12-08 16:00,ZBYN 081600Z AUTO 09008KT 2 1/2SM M03/M08 A3009 RMK T10301080 IEM_DS3505
ZBYN,1990-12-08 17:00,ZBYN 081700Z AUTO 10006KT 2 1/2SM M03/M08 A3006 RMK T10301080 IEM_DS3505
ZBYN,1990-12-08 18:00,ZBYN 081800Z AUTO 00000KT 4SM M05/M06 A3006 RMK SLP209 T10511058 40096//// 57010 IEM_DS3505
ZBYN,1990-12-08 19:00,ZBYN 081900Z AUTO 09004KT 2 1/2SM M06/M10 A3006 RMK T10601100 IEM_DS3505
ZBYN,1990-12-08 20:00,ZBYN 082000Z AUTO 11004KT 2 1/2SM M07/M09 A3003 RMK T10701090 IEM_DS3505
ZBYN,1990-12-08 21:00,ZBYN 082100Z AUTO 36002KT 4SM M06/M07 A3000 RMK SLP206 T10651069 57010 IEM_DS3505
ZBYN,1990-12-08 23:00,ZBYN 082300Z AUTO 00000KT 2 1/2SM M08/M10 A3003 RMK T10801100 IEM_DS3505
ZBYN,1990-12-09 00:00,ZBYN 090000Z AUTO 00000KT 4SM M07/M08 A3003 RMK SLP221 T10691078 52001 IEM_DS3505
ZBYN,1990-12-09 01:00,ZBYN 090100Z AUTO 00000KT 1 1/4SM M06/M08 A3006 RMK T10601080 IEM_DS3505
ZBYN,1990-12-09 02:00,ZBYN 090200Z AUTO 00000KT 1SM M02/M06 A3006 RMK T10201060 IEM_DS3505
ZBYN,1990-12-09 03:00,ZBYN 090300Z AUTO 14002KT 5SM 03/M06 A3006 RMK SLP211 T00291058 52004 IEM_DS3505
ZBYN,1990-12-09 04:00,ZBYN 090400Z AUTO 14006KT 2 1/2SM 05/M06 A3003 RMK T00501060 IEM_DS3505
ZBYN,1990-12-09 05:00,ZBYN 090500Z AUTO 16006KT 2 1/2SM 06/M05 A3000 RMK T00601050 IEM_DS3505
ZBYN,1990-12-09 06:00,ZBYN 090600Z AUTO 16006KT 5SM 09/M06 A2994 RMK SLP176 T00901060 4////1074 57025 IEM_DS3505
ZBYN,1990-12-09 07:00,ZBYN 090700Z AUTO 17006KT 4SM 10/M05 A2994 RMK T01001050 IEM_DS3505
ZBYN,1990-12-09 08:00,ZBYN 090800Z AUTO 14004KT 4SM A2994 RMK IEM_DS3505
ZBYN,1990-12-09 09:00,ZBYN 090900Z AUTO 14002KT 6SM 06/M06 A2997 RMK SLP182 T00631056 54000 IEM_DS3505
ZBYN,1990-12-09 10:00,ZBYN 091000Z AUTO 09004KT 2 1/2SM 04/M05 A2997 RMK T00401050 IEM_DS3505
ZBYN,1990-12-09 11:00,ZBYN 091100Z AUTO 03004KT 2 1/2SM M01/M05 A3000 RMK T10101050 IEM_DS3505
ZBYN,1990-12-09 12:00,ZBYN 091200Z AUTO 32004KT 7SM M00/M05 A3003 RMK SLP215 T10021051 52018 IEM_DS3505
ZBYN,1990-12-09 13:00,ZBYN 091300Z AUTO 09008KT 4SM M01/M06 A3003 RMK T10101060 IEM_DS3505
ZBYN,1990-12-09 14:00,ZBYN 091400Z AUTO 08008KT 4SM M01/M06 A3006 RMK T10101060 IEM_DS3505
ZBYN,1990-12-09 15:00,ZBYN 091500Z AUTO 36002KT 7SM M01/M06 A3006 RMK SLP208 T10121056 52009 IEM_DS3505
ZBYN,1990-12-09 16:00,ZBYN 091600Z AUTO 00000KT 4SM M03/M06 A3006 RMK T10301060 IEM_DS3505
ZBYN,1990-12-09 21:00,ZBYN 092100Z AUTO 36002KT 6SM M04/M07 A3015 RMK SLP239 T10441072 52018 IEM_DS3505
ZBYN,1990-12-10 00:00,ZBYN 100000Z AUTO 00000KT 6SM 01/M08 A3021 RMK SLP269 T00121078 52026 IEM_DS3505
ZBYN,1990-12-10 01:00,ZBYN 100100Z AUTO 33010KT 6SM 02/M08 A3027 RMK T00201080 IEM_DS3505
ZBYN,1990-12-10 02:00,ZBYN 100200Z AUTO 36014KT 6SM 01/M08 A3033 RMK T00101080 IEM_DS3505
ZBYN,1990-12-10 03:00,ZBYN 100300Z AUTO 36014KT 5SM M02/M13 A3036 RMK SLP330 T10151128 52049 IEM_DS3505
ZBYN,1990-12-10 04:00,ZBYN 100400Z AUTO 01023KT 6SM 00/M09 A3039 RMK T00001090 IEM_DS3505
ZBYN,1990-12-10 05:00,ZBYN 100500Z AUTO 36021KT 6SM 00/M07 A3039 RMK T00001070 IEM_DS3505
ZBYN,1990-12-10 06:00,ZBYN 100600Z AUTO 36016KT 7SM M02/M15 A3039 RMK SLP335 T10181147 52004 IEM_DS3505
ZBYN,1990-12-10 07:00,ZBYN 100700Z AUTO 35023KT 7SM M01/M09 A3039 RMK T10101090 IEM_DS3505
ZBYN,1990-12-10 08:00,ZBYN 100800Z AUTO 35023KT 7SM M02/M09 A3042 RMK T10201090 IEM_DS3505
ZBYN,1990-12-10 09:00,ZBYN 100900Z AUTO 36014KT 9SM M04/M18 A3045 RMK SLP371 T10401183 52024 IEM_DS3505
ZBYN,1990-12-10 10:00,ZBYN 101000Z AUTO 03006KT 7SM M05/M18 A3050 RMK T10501180 IEM_DS3505
ZBYN,1990-12-10 11:00,ZBYN 101100Z AUTO 34010KT 9SM M06/M17 A3053 RMK SLP409 T10601170 40024//// 57005 IEM_DS3505
ZBYN,1990-12-10 12:00,ZBYN 101200Z AUTO 34010KT 9SM M06/M19 A3053 RMK SLP381 T10591194 52015 IEM_DS3505
ZBYN,1990-12-10 13:00,ZBYN 101300Z AUTO 31006KT 7SM M07/M20 A3056 RMK T10701200 IEM_DS3505
ZBYN,1990-12-10 14:00,ZBYN 101400Z AUTO 31008KT 7SM M08/M21 A3056 RMK T10801210 IEM_DS3505
ZBYN,1990-12-10 15:00,ZBYN 101500Z AUTO 34008KT 9SM M08/M21 A3059 RMK SLP411 T10761206 52020 IEM_DS3505
ZBYN,1990-12-10 16:00,ZBYN 101600Z AUTO 35008KT 7SM M09/M20 A3059 RMK T10901200 IEM_DS3505
ZBYN,1990-12-10 17:00,ZBYN 101700Z AUTO 35010KT 7SM M10/M20 A3059 RMK T11001200 IEM_DS3505
ZBYN,1990-12-10 18:00,ZBYN 101800Z AUTO 34010KT 9SM M09/M19 A3056 RMK SLP409 T10871193 40024//// 57005 IEM_DS3505
ZBYN,1990-12-10 19:00,ZBYN 101900Z AUTO 00000KT 7SM M12/M18 A3059 RMK T11201180 IEM_DS3505
ZBYN,1990-12-10 20:00,ZBYN 102000Z AUTO 01002KT 7SM M14/M19 A3059 RMK T11401190 IEM_DS3505
ZBYN,1990-12-10 21:00,ZBYN 102100Z AUTO 32004KT 9SM M13/M17 A3056 RMK SLP415 T11301170 57002 IEM_DS3505
ZBYN,1990-12-10 22:00,ZBYN 102200Z AUTO 07004KT 7SM M14/M17 A3056 RMK T11401170 IEM_DS3505
ZBYN,1990-12-10 23:00,ZBYN 102300Z AUTO 06004KT 7SM M14/M17 A3056 RMK T11401170 IEM_DS3505
ZBYN,1990-12-11 00:00,ZBYN 110000Z AUTO 32002KT 5SM M15/M18 A3059 RMK SLP427 T11501180 52012 IEM_DS3505
ZBYN,1990-12-11 02:00,ZBYN 110200Z AUTO 00000KT 6SM M08/M18 A3056 RMK T10801180 IEM_DS3505
ZBYN,1990-12-11 03:00,ZBYN 110300Z AUTO 32006KT 5SM M06/M18 A3056 RMK SLP407 T10601179 57011 IEM_DS3505
ZBYN,1990-12-11 04:00,ZBYN 110400Z AUTO 00000KT 6SM M04/M19 A3050 RMK T10401190 IEM_DS3505
ZBYN,1990-12-11 05:00,ZBYN 110500Z AUTO 20006KT 6SM M03/M18 A3047 RMK T10301180 IEM_DS3505
ZBYN,1990-12-11 06:00,ZBYN 110600Z AUTO 14002KT 6SM M02/M18 A3042 RMK SLP362 T10251179 4////1122 57036 IEM_DS3505
ZBYN,1990-12-11 07:00,ZBYN 110700Z AUTO 20006KT 6SM M02/M14 A3042 RMK T10201140 IEM_DS3505
ZBYN,1990-12-11 08:00,ZBYN 110800Z AUTO 21008KT 6SM M02/M13 A3042 RMK T10201130 IEM_DS3505
ZBYN,1990-12-11 09:00,ZBYN 110900Z AUTO 18004KT 6SM M04/M16 A3042 RMK SLP359 T10351163 57009 IEM_DS3505
ZBYN,1990-12-11 10:00,ZBYN 111000Z AUTO 00000KT 6SM M04/M13 A3042 RMK T10401130 IEM_DS3505
ZBYN,1990-12-11 11:00,ZBYN 111100Z AUTO 00000KT 6SM M06/M13 A3042 RMK T10601130 IEM_DS3505
ZBYN,1990-12-11 12:00,ZBYN 111200Z AUTO 00000KT 6SM M06/M12 A3042 RMK SLP363 T10561125 57001 IEM_DS3505
ZBYN,1990-12-11 13:00,ZBYN 111300Z AUTO 00000KT 6SM M07/M13 A3042 RMK T10701130 IEM_DS3505
ZBYN,1990-12-11 14:00,ZBYN 111400Z AUTO 00000KT 6SM M07/M13 A3042 RMK T10701130 IEM_DS3505
ZBYN,1990-12-11 15:00,ZBYN 111500Z AUTO 00000KT 6SM M07/M12 A3042 RMK SLP355 T10681117 52001 IEM_DS3505
ZBYN,1990-12-11 16:00,ZBYN 111600Z AUTO 08004KT 6SM M08/M14 A3042 RMK T10801140 IEM_DS3505
ZBYN,1990-12-11 17:00,ZBYN 111700Z AUTO 00000KT 7SM M10/M14 A3039 RMK T11001140 IEM_DS3505
ZBYN,1990-12-11 18:00,ZBYN 111800Z AUTO 32002KT 6SM M08/M14 A3039 RMK SLP346 T10771135 41016//// 57004 IEM_DS3505
ZBYN,1990-12-11 19:00,ZBYN 111900Z AUTO 00000KT 4SM M10/M13 A3039 RMK T11001130 IEM_DS3505
ZBYN,1990-12-11 20:00,ZBYN 112000Z AUTO 00000KT 4SM M11/M14 A3039 RMK T11101140 IEM_DS3505
ZBYN,1990-12-11 21:00,ZBYN 112100Z AUTO 00000KT 6SM M09/M14 A3036 RMK SLP344 T10911143 57006 IEM_DS3505
ZBYN,1990-12-11 22:00,ZBYN 112200Z AUTO 07004KT 3SM M12/M14 A3036 RMK T11201140 IEM_DS3505
ZBYN,1990-12-11 23:00,ZBYN 112300Z AUTO 00000KT 3SM M12/M15 A3036 RMK T11201150 IEM_DS3505
ZBYN,1990-12-12 00:00,ZBYN 120000Z AUTO 00000KT 5SM M10/M14 A3036 RMK SLP350 T11041137 57001 IEM_DS3505
ZBYN,1990-12-12 01:00,ZBYN 120100Z AUTO 00000KT 2 1/2SM M11/ RMK IEM_DS3505
ZBYN,1990-12-12 03:00,ZBYN 120300Z AUTO 00000KT 5SM M03/M14 A3039 RMK SLP336 T10321137 57002 IEM_DS3505
ZBYN,1990-12-12 04:00,ZBYN 120400Z AUTO 22002KT 4SM M01/M12 A3033 RMK T10101120 IEM_DS3505
ZBYN,1990-12-12 05:00,ZBYN 120500Z AUTO 21004KT 3SM 01/M13 A3030 RMK T00101130 IEM_DS3505
ZBYN,1990-12-12 06:00,ZBYN 120600Z AUTO 18004KT 6SM 02/M12 A3027 RMK SLP292 T00211124 4////1113 57032 IEM_DS3505
ZBYN,1990-12-12 07:00,ZBYN 120700Z AUTO 20006KT 4SM 02/M13 A3024 RMK T00201130 IEM_DS3505
ZBYN,1990-12-12 08:00,ZBYN 120800Z AUTO 00000KT 4SM 02/M09 A3021 RMK T00201090 IEM_DS3505
ZBYN,1990-12-12 09:00,ZBYN 120900Z AUTO 00000KT 4SM M00/M09 A3021 RMK SLP285 T10021092 57013 IEM_DS3505
ZBYN,1990-12-12 10:00,ZBYN 121000Z AUTO 00000KT 2 1/2SM M02/M08 A3021 RMK T10201080 IEM_DS3505
ZBYN,1990-12-12 11:00,ZBYN 121100Z AUTO 08004KT 2SM M04/M08 A3021 RMK T10401080 IEM_DS3505
ZBYN,1990-12-12 12:00,ZBYN 121200Z AUTO 00000KT 3SM M05/M19 A3024 RMK SLP300 T10531187 IEM_DS3505
ZBYN,1990-12-12 14:00,ZBYN 121400Z AUTO 10004KT 2 1/2SM M08/M13 A3024 RMK T10801130 IEM_DS3505
ZBYN,1990-12-12 15:00,ZBYN 121500Z AUTO 00000KT 3SM M07/M11 A3024 RMK SLP289 T10671110 54000 IEM_DS3505
ZBYN,1990-12-12 16:00,ZBYN 121600Z AUTO 00000KT 3SM M07/M13 A3021 RMK T10701130 IEM_DS3505
ZBYN,1990-12-12 17:00,ZBYN 121700Z AUTO 11006KT 3SM M08/M15 A3021 RMK T10801150 IEM_DS3505
ZBYN,1990-12-12 18:00,ZBYN 121800Z AUTO 11002KT 3SM M08/M11 A3018 RMK SLP271 T10801108 40030//// 57010 IEM_DS3505
ZBYN,1990-12-12 19:00,ZBYN 121900Z AUTO 10002KT 5SM M08/M11 A3018 RMK T10801110 IEM_DS3505
ZBYN,1990-12-12 20:00,ZBYN 122000Z AUTO 10006KT 5SM M09/M12 A3018 RMK T10901120 IEM_DS3505
ZBYN,1990-12-12 21:00,ZBYN 122100Z AUTO 00000KT 3SM M08/M09 A3018 RMK SLP267 T10761094 57007 IEM_DS3505
ZBYN,1990-12-12 22:00,ZBYN 122200Z AUTO 08004KT 5SM M09/M11 A3018 RMK T10901110 IEM_DS3505
ZBYN,1990-12-12 23:00,ZBYN 122300Z AUTO 09002KT 4SM M09/M11 A3018 RMK T10901110 IEM_DS3505
ZBYN,1990-12-13 00:00,ZBYN 130000Z AUTO 00000KT 1 1/4SM M08/M08 A3021 RMK SLP281 T10791085 52004 IEM_DS3505
ZBYN,1990-12-13 01:00,ZBYN 130100Z AUTO 00000KT 1SM M09/M12 A3024 RMK T10901120 IEM_DS3505
ZBYN,1990-12-13 02:00,ZBYN 130200Z AUTO 00000KT 1SM M03/M06 A3021 RMK T10301060 IEM_DS3505
ZBYN,1990-12-13 03:00,ZBYN 130300Z AUTO 00000KT 3SM M03/M05 A3030 RMK SLP287 T10281048 52012 IEM_DS3505
ZBYN,1990-12-13 04:00,ZBYN 130400Z AUTO 17004KT 1 1/4SM M01/M05 A3021 RMK T10101050 IEM_DS3505
ZBYN,1990-12-13 05:00,ZBYN 130500Z AUTO 00000KT 2SM 02/M06 A3018 RMK T00201060 IEM_DS3505
ZBYN,1990-12-13 06:00,ZBYN 130600Z AUTO 00000KT 6SM 02/M05 A3015 RMK SLP261 T00251053 4////1089 57017 IEM_DS3505
ZBYN,1990-12-13 07:00,ZBYN 130700Z AUTO 00000KT 2SM 03/M05 A3015 RMK T00301050 IEM_DS3505
ZBYN,1990-12-13 08:00,ZBYN 130800Z AUTO 00000KT 2SM 03/M05 A3018 RMK T00301050 IEM_DS3505
ZBYN,1990-12-13 09:00,ZBYN 130900Z AUTO 36002KT 5SM 00/M08 A3021 RMK SLP274 T00051077 52009 IEM_DS3505
ZBYN,1990-12-13 10:00,ZBYN 131000Z AUTO 33006KT 2 1/2SM M01/M08 A3021 RMK T10101080 IEM_DS3505
ZBYN,1990-12-13 11:00,ZBYN 131100Z AUTO 34004KT 6SM M01/M10 A3027 RMK T10101100 IEM_DS3505
ZBYN,1990-12-13 12:00,ZBYN 131200Z AUTO 32004KT 5SM M00/M13 A3030 RMK SLP308 T10031128 52029 IEM_DS3505
ZBYN,1990-12-13 13:00,ZBYN 131300Z AUTO 33004KT 6SM 00/M16 A3036 RMK T00001160 IEM_DS3505
ZBYN,1990-12-13 15:00,ZBYN 131500Z AUTO 34006KT 6SM M01/M23 A3039 RMK SLP327 T10061233 52025 IEM_DS3505
ZBYN,1990-12-13 16:00,ZBYN 131600Z AUTO 30006KT 6SM M02/M16 A3039 RMK T10201160 IEM_DS3505
ZBYN,1990-12-13 17:00,ZBYN 131700Z AUTO 31010KT 7SM M03/M16 A3042 RMK T10301160 IEM_DS3505
ZBYN,1990-12-13 18:00,ZBYN 131800Z AUTO 32010KT 7SM M02/M17 A3040 RMK SLP328 T10161172 40038//// 52008 IEM_DS3505
ZBYN,1990-12-13 19:00,ZBYN 131900Z AUTO 35004KT 7SM M03/M17 A3045 RMK T10301170 IEM_DS3505
ZBYN,1990-12-13 20:00,ZBYN 132000Z AUTO 33008KT 7SM M04/M19 A3045 RMK T10401190 IEM_DS3505
ZBYN,1990-12-13 21:00,ZBYN 132100Z AUTO 36006KT 7SM M04/M17 A3045 RMK SLP348 T10411169 52011 IEM_DS3505
ZBYN,1990-12-13 23:00,ZBYN 132300Z AUTO 35006KT 7SM M10/M17 RMK T11001170 IEM_DS3505
ZBYN,1990-12-14 00:00,ZBYN 140000Z AUTO 36004KT 12SM M05/M18 A3045 RMK SLP365 T10511175 52012 IEM_DS3505
ZBYN,1990-12-14 01:00,ZBYN 140100Z AUTO 00000KT 7SM M07/M17 A3045 RMK T10701170 IEM_DS3505
ZBYN,1990-12-14 02:00,ZBYN 140200Z AUTO 00000KT 7SM M02/M16 A3047 RMK T10201160 IEM_DS3505
ZBYN,1990-12-14 03:00,ZBYN 140300Z AUTO 02002KT 6SM M02/M18 A3047 RMK SLP369 T10161181 52009 IEM_DS3505
ZBYN,1990-12-14 04:00,ZBYN 140400Z AUTO 27006KT 7SM 00/M18 A3045 RMK T00001180 IEM_DS3505
ZBYN,1990-12-14 05:00,ZBYN 140500Z AUTO 30006KT 7SM 01/M21 A3045 RMK T00101210 IEM_DS3505
ZBYN,1990-12-14 06:00,ZBYN 140600Z AUTO 11002KT 6SM 01/M17 A3045 RMK SLP339 T00131167 4////1066 57024 IEM_DS3505
ZBYN,1990-12-14 08:00,ZBYN 140800Z AUTO 00000KT 6SM 00/M16 A3039 RMK T00001160 IEM_DS3505
ZBYN,1990-12-14 09:00,ZBYN 140900Z AUTO 00000KT 7SM M01/M16 A3040 RMK SLP340 T10101157 57007 IEM_DS3505
ZBYN,1990-12-14 12:00,ZBYN 141200Z AUTO 14002KT 7SM M05/M15 A3042 RMK T10531150 52001 IEM_DS3505
ZBYN,1990-12-14 13:00,ZBYN 141300Z AUTO 00000KT 6SM M06/M15 A3042 RMK T10601150 IEM_DS3505
ZBYN,1990-12-14 14:00,ZBYN 141400Z AUTO 00000KT 6SM M07/M14 A3042 RMK T10701140 IEM_DS3505
ZBYN,1990-12-14 15:00,ZBYN 141500Z AUTO 34004KT 7SM M05/M16 A3042 RMK SLP344 T10461165 52001 IEM_DS3505
ZBYN,1990-12-14 16:00,ZBYN 141600Z AUTO 00000KT 6SM M07/M16 A3042 RMK T10701160 IEM_DS3505
ZBYN,1990-12-14 18:00,ZBYN 141800Z AUTO 34002KT 7SM M07/M16 A3039 RMK SLP339 T10711163 40020//// IEM_DS3505
ZBYN,1990-12-14 19:00,ZBYN 141900Z AUTO 00000KT 7SM M11/M15 A3039 RMK T11101150 IEM_DS3505
ZBYN,1990-12-14 20:00,ZBYN 142000Z AUTO 09006KT 7SM M10/M17 A3042 RMK T11001170 IEM_DS3505
ZBYN,1990-12-14 21:00,ZBYN 142100Z AUTO 36002KT 7SM M10/M15 A3039 RMK SLP347 T11011151 57002 IEM_DS3505
ZBYN,1990-12-14 22:00,ZBYN 142200Z AUTO 00000KT 7SM M11/M15 A3039 RMK T11101150 IEM_DS3505
ZBYN,1990-12-14 23:00,ZBYN 142300Z AUTO 00000KT 7SM M12/M15 A3039 RMK T11201150 IEM_DS3505
ZBYN,1990-12-15 00:00,ZBYN 150000Z AUTO 00000KT 6SM M11/M15 A3039 RMK SLP356 T11061147 IEM_DS3505
ZBYN,1990-12-15 01:00,ZBYN 150100Z AUTO 14002KT 6SM A3039 RMK SLP307 4////1107 57023 IEM_DS3505
ZBYN,1990-12-15 02:00,ZBYN 150200Z AUTO 00000KT 2 1/2SM M05/M12 A3039 RMK T10501120 IEM_DS3505
ZBYN,1990-12-15 03:00,ZBYN 150300Z AUTO 00000KT 7SM M02/M16 A3039 RMK T10201160 IEM_DS3505
ZBYN,1990-12-15 04:00,ZBYN 150400Z AUTO 00000KT 7SM 01/M16 A3036 RMK T00101160 IEM_DS3505
ZBYN,1990-12-15 05:00,ZBYN 150500Z AUTO 24006KT 7SM 03/M17 A3030 RMK T00301170 IEM_DS3505
ZBYN,1990-12-15 06:00,ZBYN 150600Z AUTO 14002KT 6SM 03/M15 A3030 RMK SLP307 T00301149 4////1107 57029 IEM_DS3505
ZBYN,1990-12-15 07:00,ZBYN 150700Z AUTO 19004KT 7SM 04/M18 A3030 RMK T00401180 IEM_DS3505
ZBYN,1990-12-15 08:00,ZBYN 150800Z AUTO 00000KT 7SM 03/M14 A3030 RMK T00301140 IEM_DS3505
ZBYN,1990-12-15 09:00,ZBYN 150900Z AUTO 00000KT 5SM 01/M14 A3030 RMK SLP316 T00101144 54000 IEM_DS3505
ZBYN,1990-12-15 10:00,ZBYN 151000Z AUTO 00000KT 4SM M02/M10 A3033 RMK T10201100 IEM_DS3505
ZBYN,1990-12-15 11:00,ZBYN 151100Z AUTO 00000KT 6SM M04/M12 A3033 RMK T10401120 IEM_DS3505
ZBYN,1990-12-15 12:00,ZBYN 151200Z AUTO 32006KT 6SM M03/M15 A3036 RMK T10321149 52006 IEM_DS3505
ZBYN,1990-12-15 13:00,ZBYN 151300Z AUTO 00000KT 7SM M07/M16 A3036 RMK T10701160 IEM_DS3505
ZBYN,1990-12-15 14:00,ZBYN 151400Z AUTO 00000KT 7SM M08/M14 A3039 RMK T10801140 IEM_DS3505
ZBYN,1990-12-15 15:00,ZBYN 151500Z AUTO 32006KT 7SM M05/M15 A3037 RMK SLP331 T10471152 52011 IEM_DS3505
ZBYN,1990-12-15 16:00,ZBYN 151600Z AUTO 00000KT 7SM M09/M15 A3039 RMK T10901150 IEM_DS3505
ZBYN,1990-12-15 17:00,ZBYN 151700Z AUTO 00000KT 7SM M09/M15 A3039 RMK T10901150 IEM_DS3505
ZBYN,1990-12-15 18:00,ZBYN 151800Z AUTO 36006KT 9SM M05/M16 A3039 RMK SLP324 T10511160 40035//// 52002 IEM_DS3505
ZBYN,1990-12-15 19:00,ZBYN 151900Z AUTO 00000KT 7SM M10/M15 A3039 RMK T11001150 IEM_DS3505
ZBYN,1990-12-15 20:00,ZBYN 152000Z AUTO 00000KT 7SM M10/M14 A3039 RMK T11001140 IEM_DS3505
ZBYN,1990-12-15 21:00,ZBYN 152100Z AUTO 36006KT 9SM M07/M14 A3036 RMK SLP324 T10711143 57007 IEM_DS3505
ZBYN,1990-12-15 22:00,ZBYN 152200Z AUTO 00000KT 7SM M11/M14 A3036 RMK T11101140 IEM_DS3505
ZBYN,1990-12-15 23:00,ZBYN 152300Z AUTO 08002KT 7SM M11/M14 A3036 RMK T11101140 IEM_DS3505
ZBYN,1990-12-16 00:00,ZBYN 160000Z AUTO 32006KT 6SM M07/M15 A3033 RMK SLP333 T10681151 52001 IEM_DS3505
ZBYN,1990-12-16 01:00,ZBYN 160100Z AUTO 34004KT 3SM RMK IEM_DS3505
ZBYN,1990-12-16 02:00,ZBYN 160200Z AUTO 00000KT 4SM M06/M14 A3039 RMK T10601140 IEM_DS3505
ZBYN,1990-12-16 03:00,ZBYN 160300Z AUTO 34006KT 6SM M01/M15 A3039 RMK SLP336 T10131150 52010 IEM_DS3505
ZBYN,1990-12-16 04:00,ZBYN 160400Z AUTO 34006KT 4SM 00/M13 A3039 RMK T00001130 IEM_DS3505
ZBYN,1990-12-16 05:00,ZBYN 160500Z AUTO 34004KT 5SM 01/M11 A3033 RMK T00101110 IEM_DS3505
ZBYN,1990-12-16 06:00,ZBYN 160600Z AUTO 18010KT 4SM M00/M15 A3033 RMK SLP316 T10031154 4////1088 57017 IEM_DS3505
ZBYN,1990-12-16 07:00,ZBYN 160700Z AUTO 21010KT 4SM M01/M12 A3033 RMK T10101120 IEM_DS3505
ZBYN,1990-12-16 08:00,ZBYN 160800Z AUTO 18010KT 2 1/2SM M02/M09 A3033 RMK T10201090 IEM_DS3505
ZBYN,1990-12-16 09:00,ZBYN 160900Z AUTO 14027KT 6SM M03/M07 A3033 RMK SLP323 T10271074 57001 IEM_DS3505
ZBYN,1990-12-16 10:00,ZBYN 161000Z AUTO 17008KT 1 1/4SM M03/M05 A3033 RMK T10301050 IEM_DS3505
ZBYN,1990-12-16 11:00,ZBYN 161100Z AUTO 00000KT 1 1/4SM M04/M05 A3033 RMK T10401050 IEM_DS3505
ZBYN,1990-12-16 12:00,ZBYN 161200Z AUTO 14004KT 5SM M04/M05 A3033 RMK SLP328 T10351053 52003 IEM_DS3505
ZBYN,1990-12-16 13:00,ZBYN 161300Z AUTO 08004KT 1 1/4SM M05/M07 A3033 RMK T10501070 IEM_DS3505
ZBYN,1990-12-16 14:00,ZBYN 161400Z AUTO 00000KT 1 1/4SM M05/M06 A3036 RMK T10501060 IEM_DS3505
ZBYN,1990-12-16 15:00,ZBYN 161500Z AUTO 00000KT 5SM M05/M06 A3033 RMK SLP322 T10461059 52002 IEM_DS3505
ZBYN,1990-12-16 16:00,ZBYN 161600Z AUTO 00000KT 1SM M05/M06 A3036 RMK T10501060 IEM_DS3505
ZBYN,1990-12-16 17:00,ZBYN 161700Z AUTO 00000KT 1/2SM M06/M06 A3036 RMK T10601060 IEM_DS3505
ZBYN,1990-12-16 18:00,ZBYN 161800Z AUTO 00000KT 6SM M02/M12 A3033 RMK T10191120 40014//// IEM_DS3505
ZBYN,1990-12-16 19:00,ZBYN 161900Z AUTO 00000KT 2SM M09/M12 A3036 RMK T10901120 IEM_DS3505
ZBYN,1990-12-16 20:00,ZBYN 162000Z AUTO 26006KT 7SM M09/M12 A3036 RMK T10901120 IEM_DS3505
ZBYN,1990-12-16 21:00,ZBYN 162100Z AUTO 34002KT 9SM M08/M14 A3034 RMK SLP327 T10811135 57004 IEM_DS3505
ZBYN,1990-12-16 22:00,ZBYN 162200Z AUTO 08006KT 7SM M12/M14 A3036 RMK T11201140 IEM_DS3505
ZBYN,1990-12-17 00:00,ZBYN 170000Z AUTO 11006KT 7SM M12/M14 A3039 RMK SLP350 T11231139 52013 IEM_DS3505
ZBYN,1990-12-17 01:00,ZBYN 170100Z AUTO 16006KT 7SM M10/M14 A3039 RMK T11001140 IEM_DS3505
ZBYN,1990-12-17 03:00,ZBYN 170300Z AUTO 16004KT 6SM M04/M11 A3039 RMK SLP346 T10431111 52007 IEM_DS3505
ZBYN,1990-12-17 04:00,ZBYN 170400Z AUTO 16006KT 7SM M03/M12 A3036 RMK T10301120 IEM_DS3505
ZBYN,1990-12-17 05:00,ZBYN 170500Z AUTO 16008KT 7SM M01/M13 A3033 RMK T10101130 IEM_DS3505
ZBYN,1990-12-17 06:00,ZBYN 170600Z AUTO 16008KT 7SM 01/M10 A3030 RMK T00091103 4////1124 57036 IEM_DS3505
ZBYN,1990-12-17 07:00,ZBYN 170700Z AUTO 19006KT 7SM 01/M10 A3027 RMK T00101100 IEM_DS3505
ZBYN,1990-12-17 08:00,ZBYN 170800Z AUTO 19006KT 7SM 02/M10 A3027 RMK T00201100 IEM_DS3505
ZBYN,1990-12-17 09:00,ZBYN 170900Z AUTO 14006KT 12SM 00/M14 A3027 RMK SLP297 T00001144 57007 IEM_DS3505
ZBYN,1990-12-17 10:00,ZBYN 171000Z AUTO 12004KT 7SM M03/M12 A3030 RMK T10301120 IEM_DS3505
ZBYN,1990-12-17 11:00,ZBYN 171100Z AUTO 09004KT 7SM M06/M14 A3030 RMK T10601140 IEM_DS3505
ZBYN,1990-12-17 12:00,ZBYN 171200Z AUTO 00000KT 7SM M06/M14 A3030 RMK SLP324 T10601137 52007 IEM_DS3505
ZBYN,1990-12-17 13:00,ZBYN 171300Z AUTO 00000KT 7SM M08/M14 A3030 RMK T10801140 IEM_DS3505
ZBYN,1990-12-17 14:00,ZBYN 171400Z AUTO 00000KT 7SM M09/M15 A3030 RMK T10901150 IEM_DS3505
ZBYN,1990-12-17 15:00,ZBYN 171500Z AUTO 00000KT 7SM M10/M14 A3033 RMK T11001140 IEM_DS3505
ZBYN,1990-12-17 16:00,ZBYN 171600Z AUTO 00000KT 7SM M10/M15 A3033 RMK T11001150 IEM_DS3505
ZBYN,1990-12-17 18:00,ZBYN 171800Z AUTO 34004KT 6SM M08/M12 A3032 RMK SLP315 T10811124 40019//// 52004 IEM_DS3505
ZBYN,1990-12-17 20:00,ZBYN 172000Z AUTO 17004KT 7SM M13/M15 A3033 RMK T11301150 IEM_DS3505
ZBYN,1990-12-17 21:00,ZBYN 172100Z AUTO 00000KT 6SM M11/M14 A3033 RMK SLP322 T11091145 54000 IEM_DS3505
ZBYN,1990-12-17 22:00,ZBYN 172200Z AUTO 00000KT 7SM M13/M16 A3033 RMK T11301160 IEM_DS3505
ZBYN,1990-12-17 23:00,ZBYN 172300Z AUTO 02004KT 7SM M13/M16 A3036 RMK T11301160 IEM_DS3505
ZBYN,1990-12-18 00:00,ZBYN 180000Z AUTO 18002KT 6SM M12/M14 A3036 RMK SLP348 T11211138 52011 IEM_DS3505
ZBYN,1990-12-18 01:00,ZBYN 180100Z AUTO 16004KT 2 1/2SM M11/M14 A3036 RMK T11101140 IEM_DS3505
ZBYN,1990-12-18 02:00,ZBYN 180200Z AUTO 00000KT 4SM M07/M14 A3036 RMK T10701140 IEM_DS3505
ZBYN,1990-12-18 03:00,ZBYN 180300Z AUTO 34004KT 6SM M02/M16 A3033 RMK SLP334 T10201158 54000 IEM_DS3505
ZBYN,1990-12-18 04:00,ZBYN 180400Z AUTO 32004KT 6SM 00/M16 A3030 RMK T00001160 IEM_DS3505
ZBYN,1990-12-18 05:00,ZBYN 180500Z AUTO 00000KT 6SM 01/M16 A3027 RMK T00101160 IEM_DS3505
ZBYN,1990-12-18 06:00,ZBYN 180600Z AUTO 00000KT 7SM 03/M14 A3024 RMK SLP282 T00331140 4////1127 57037 IEM_DS3505
ZBYN,1990-12-18 07:00,ZBYN 180700Z AUTO 00000KT 6SM 05/M13 A3018 RMK T00501130 IEM_DS3505
ZBYN,1990-12-18 08:00,ZBYN 180800Z AUTO 00000KT 6SM 04/M11 A3018 RMK T00401110 IEM_DS3505
ZBYN,1990-12-18 09:00,ZBYN 180900Z AUTO 34004KT 11SM 02/M14 A3015 RMK SLP269 T00161135 57019 IEM_DS3505
ZBYN,1990-12-18 10:00,ZBYN 181000Z AUTO 00000KT 6SM M01/M10 A3018 RMK T10101100 IEM_DS3505
ZBYN,1990-12-18 11:00,ZBYN 181100Z AUTO 00000KT 7SM M04/M14 A3021 RMK T10401140 IEM_DS3505
ZBYN,1990-12-18 12:00,ZBYN 181200Z AUTO 32002KT 12SM M03/M12 A3024 RMK SLP296 T10331120 52014 IEM_DS3505
ZBYN,1990-12-18 13:00,ZBYN 181300Z AUTO 03004KT 7SM M09/M16 A3024 RMK T10901160 IEM_DS3505
ZBYN,1990-12-18 14:00,ZBYN 181400Z AUTO 12002KT 7SM M08/M15 A3027 RMK T10801150 IEM_DS3505
ZBYN,1990-12-18 15:00,ZBYN 181500Z AUTO 00000KT 12SM M06/M12 A3027 RMK SLP291 T10611122 52008 IEM_DS3505
ZBYN,1990-12-18 16:00,ZBYN 181600Z AUTO 11006KT 7SM M07/M16 A3024 RMK T10701160 IEM_DS3505
ZBYN,1990-12-18 18:00,ZBYN 181800Z AUTO 36002KT 12SM M06/M12 A3021 RMK SLP274 T10651122 40058//// 57008 IEM_DS3505
ZBYN,1990-12-18 21:00,ZBYN 182100Z AUTO 00000KT 9SM M06/M10 A3017 RMK SLP258 T10651098 57016 IEM_DS3505
ZBYN,1990-12-18 23:00,ZBYN 182300Z AUTO 00000KT 6SM M06/M11 A3018 RMK T10601110 IEM_DS3505
ZBYN,1990-12-19 00:00,ZBYN 190000Z AUTO 00000KT 6SM M05/M10 A3018 RMK SLP262 T10511098 57002 IEM_DS3505
ZBYN,1990-12-19 01:00,ZBYN 190100Z AUTO 00000KT 2 1/2SM M04/M11 A3012 RMK T10401110 IEM_DS3505
ZBYN,1990-12-19 02:00,ZBYN 190200Z AUTO 00000KT 2 1/2SM M04/M10 A3015 RMK T10401100 IEM_DS3505
ZBYN,1990-12-19 03:00,ZBYN 190300Z AUTO 16004KT 3SM M01/M07 A3015 RMK SLP255 T10101070 57004 IEM_DS3505
ZBYN,1990-12-19 04:00,ZBYN 190400Z AUTO 15004KT 4SM 00/M11 A3009 RMK T00001110 IEM_DS3505
ZBYN,1990-12-19 05:00,ZBYN 190500Z AUTO 17006KT 4SM 02/M12 A3009 RMK T00201120 IEM_DS3505
ZBYN,1990-12-19 06:00,ZBYN 190600Z AUTO 22008KT 6SM 04/M09 A3006 RMK SLP223 T00401087 4////1080 57022 IEM_DS3505
ZBYN,1990-12-19 07:00,ZBYN 190700Z AUTO 23008KT 4SM 06/M12 A3006 RMK T00601120 IEM_DS3505
ZBYN,1990-12-19 08:00,ZBYN 190800Z AUTO 20008KT 6SM 05/M12 A3006 RMK T00501120 IEM_DS3505
ZBYN,1990-12-19 09:00,ZBYN 190900Z AUTO 29008KT 12SM 05/M13 A3006 RMK SLP213 T00501127 57007 IEM_DS3505
ZBYN,1990-12-19 10:00,ZBYN 191000Z AUTO 29014KT 7SM 03/M13 A3009 RMK T00301130 IEM_DS3505
ZBYN,1990-12-19 11:00,ZBYN 191100Z AUTO 25004KT 7SM 03/M12 A3009 RMK T00301120 IEM_DS3505
ZBYN,1990-12-19 12:00,ZBYN 191200Z AUTO 27004KT 11SM M02/M12 A3012 RMK SLP243 T10241116 52017 IEM_DS3505
ZBYN,1990-12-19 13:00,ZBYN 191300Z AUTO 26008KT 7SM M02/M12 A3012 RMK T10201120 IEM_DS3505
ZBYN,1990-12-19 14:00,ZBYN 191400Z AUTO 18004KT 7SM M03/M10 A3012 RMK T10301100 IEM_DS3505
ZBYN,1990-12-19 15:00,ZBYN 191500Z AUTO 18002KT 11SM M04/M12 A3012 RMK SLP244 T10431121 52005 IEM_DS3505
ZBYN,1990-12-19 16:00,ZBYN 191600Z AUTO 00000KT 7SM M05/M13 A3012 RMK T10501130 IEM_DS3505
ZBYN,1990-12-19 17:00,ZBYN 191700Z AUTO 11006KT 7SM M07/M13 A3009 RMK T10701130 IEM_DS3505
ZBYN,1990-12-19 18:00,ZBYN 191800Z AUTO 09002KT 7SM M06/M12 A3009 RMK SLP232 T10611117 40068//// 57006 IEM_DS3505
ZBYN,1990-12-19 19:00,ZBYN 191900Z AUTO 09008KT 7SM M07/M14 A3009 RMK T10701140 IEM_DS3505
ZBYN,1990-12-19 20:00,ZBYN 192000Z AUTO 08006KT 7SM M08/M14 A3009 RMK T10801140 IEM_DS3505
ZBYN,1990-12-19 21:00,ZBYN 192100Z AUTO 00000KT 7SM M08/M12 A3006 RMK SLP221 T10801122 57011 IEM_DS3505
ZBYN,1990-12-19 23:00,ZBYN 192300Z AUTO 09004KT 7SM M08/M14 A3006 RMK T10801140 IEM_DS3505
ZBYN,1990-12-20 00:00,ZBYN 200000Z AUTO 14004KT 6SM M09/M13 A3006 RMK SLP237 T10911126 54000 IEM_DS3505
ZBYN,1990-12-20 01:00,ZBYN 200100Z AUTO 10004KT 7SM M06/M13 A3009 RMK T10601130 IEM_DS3505
ZBYN,1990-12-20 02:00,ZBYN 200200Z AUTO 09004KT 7SM M01/M11 A3006 RMK T10101110 IEM_DS3505
ZBYN,1990-12-20 03:00,ZBYN 200300Z AUTO 14006KT 6SM 02/M09 A3006 RMK SLP218 T00181091 57002 IEM_DS3505
ZBYN,1990-12-20 04:00,ZBYN 200400Z AUTO 24012KT 7SM 05/M13 A3003 RMK T00501130 IEM_DS3505
ZBYN,1990-12-20 05:00,ZBYN 200500Z AUTO 22008KT 7SM 07/M14 A3000 RMK T00701140 IEM_DS3505
ZBYN,1990-12-20 07:00,ZBYN 200700Z AUTO 19006KT 7SM 10/M14 A2991 RMK T01001140 IEM_DS3505
ZBYN,1990-12-20 08:00,ZBYN 200800Z AUTO 33006KT 7SM 11/M07 A2991 RMK T01101070 IEM_DS3505
ZBYN,1990-12-20 09:00,ZBYN 200900Z AUTO 32004KT 12SM 09/M15 A2991 RMK SLP165 T00861147 57011 IEM_DS3505
ZBYN,1990-12-20 10:00,ZBYN 201000Z AUTO 17006KT 7SM 05/M12 A2994 RMK T00501120 IEM_DS3505
ZBYN,1990-12-20 11:00,ZBYN 201100Z AUTO 20008KT 7SM 03/M14 A2994 RMK T00301140 IEM_DS3505
ZBYN,1990-12-20 12:00,ZBYN 201200Z AUTO 16002KT 12SM 00/M13 A2994 RMK SLP185 T00051132 52003 IEM_DS3505
ZBYN,1990-12-20 13:00,ZBYN 201300Z AUTO 09004KT 7SM M02/M12 A2994 RMK T10201120 IEM_DS3505
ZBYN,1990-12-20 15:00,ZBYN 201500Z AUTO 14006KT 12SM M03/M12 A2994 RMK SLP168 T10291118 57003 IEM_DS3505
ZBYN,1990-12-20 16:00,ZBYN 201600Z AUTO 10006KT 7SM M02/M12 A2994 RMK T10201120 IEM_DS3505
ZBYN,1990-12-20 17:00,ZBYN 201700Z AUTO 12006KT 6SM M02/M11 A2997 RMK T10201110 IEM_DS3505
ZBYN,1990-12-20 18:00,ZBYN 201800Z AUTO 14006KT 12SM M01/M10 A3000 RMK SLP179 T10141098 40118//// 52023 IEM_DS3505
ZBYN,1990-12-20 19:00,ZBYN 201900Z AUTO 29027KT 1 1/4SM 03/M07 A3006 RMK T00301070 IEM_DS3505
ZBYN,1990-12-20 20:00,ZBYN 202000Z AUTO 30016KT 1 1/4SM 03/M06 A3012 RMK T00301060 IEM_DS3505
ZBYN,1990-12-20 21:00,ZBYN 202100Z AUTO 29010KT 12SM 01/M10 A3015 RMK T00121102 52046 IEM_DS3505
ZBYN,1990-12-20 23:00,ZBYN 202300Z AUTO 27012KT 7SM M01/M15 A3018 RMK T10101150 IEM_DS3505
ZBYN,1990-12-21 00:00,ZBYN 210000Z AUTO 09002KT 6SM M01/M15 A3021 RMK SLP258 T10061154 52014 IEM_DS3505
ZBYN,1990-12-21 01:00,ZBYN 210100Z AUTO 25004KT 7SM M01/M17 RMK T10101170 IEM_DS3505
ZBYN,1990-12-21 02:00,ZBYN 210200Z AUTO 25010KT 7SM A3024 RMK IEM_DS3505
ZBYN,1990-12-21 03:00,ZBYN 210300Z AUTO 16010KT 5SM 02/M15 A3024 RMK SLP270 T00171147 52009 IEM_DS3505
ZBYN,1990-12-21 04:00,ZBYN 210400Z AUTO 28008KT 7SM 03/M15 A3021 RMK T00301150 IEM_DS3505
ZBYN,1990-12-21 05:00,ZBYN 210500Z AUTO 25006KT 7SM 04/M15 A3015 RMK T00401150 IEM_DS3505
ZBYN,1990-12-21 06:00,ZBYN 210600Z AUTO 29012KT 6SM 05/M13 A3012 RMK SLP228 T00511132 4////1034 57030 IEM_DS3505
ZBYN,1990-12-21 07:00,ZBYN 210700Z AUTO 28016KT 7SM 05/M14 A3012 RMK T00501140 IEM_DS3505
ZBYN,1990-12-21 08:00,ZBYN 210800Z AUTO 29012KT 7SM 05/M18 A3012 RMK T00501180 IEM_DS3505
ZBYN,1990-12-21 09:00,ZBYN 210900Z AUTO 29012KT 6SM 04/M20 A3012 RMK SLP224 T00401200 57001 IEM_DS3505
ZBYN,1990-12-21 10:00,ZBYN 211000Z AUTO 32008KT 7SM 03/M16 A3012 RMK T00301160 IEM_DS3505
ZBYN,1990-12-21 11:00,ZBYN 211100Z AUTO 27012KT 7SM 03/M23 A3012 RMK T00301230 IEM_DS3505
ZBYN,1990-12-21 12:00,ZBYN 211200Z AUTO 29012KT 7SM 04/M21 A3018 RMK SLP244 T00451206 52016 IEM_DS3505
ZBYN,1990-12-21 14:00,ZBYN 211400Z AUTO 31023KT 7SM 03/M13 A3027 RMK T00301130 IEM_DS3505
ZBYN,1990-12-21 15:00,ZBYN 211500Z AUTO 32008KT 7SM 02/M13 A3030 RMK SLP286 T00231132 52038 IEM_DS3505
ZBYN,1990-12-21 16:00,ZBYN 211600Z AUTO 32014KT 7SM 01/M17 A3033 RMK T00101170 IEM_DS3505
ZBYN,1990-12-21 17:00,ZBYN 211700Z AUTO 31010KT 7SM 01/M15 A3036 RMK T00101150 IEM_DS3505
ZBYN,1990-12-21 18:00,ZBYN 211800Z AUTO 32006KT 9SM 00/M19 A3036 RMK SLP300 T00041194 40056//// 52015 IEM_DS3505
ZBYN,1990-12-21 20:00,ZBYN 212000Z AUTO 28010KT 7SM M03/M11 A3033 RMK T10301110 IEM_DS3505
ZBYN,1990-12-21 21:00,ZBYN 212100Z AUTO 32010KT 9SM M02/ A3033 RMK SLP301 57003 IEM_DS3505
ZBYN,1990-12-21 22:00,ZBYN 212200Z AUTO 30012KT 7SM M03/M08 A3036 RMK T10301080 IEM_DS3505
ZBYN,1990-12-21 23:00,ZBYN 212300Z AUTO 30010KT 7SM M05/M19 A3036 RMK T10501190 IEM_DS3505
ZBYN,1990-12-22 00:00,ZBYN 220000Z AUTO 00000KT 12SM M03/M15 A3039 RMK SLP326 T10261150 52021 IEM_DS3505
ZBYN,1990-12-22 01:00,ZBYN 220100Z AUTO 30004KT 7SM M03/M19 A3042 RMK T10301190 IEM_DS3505
ZBYN,1990-12-22 02:00,ZBYN 220200Z AUTO 32010KT 7SM 00/M16 A3045 RMK T00001160 IEM_DS3505
ZBYN,1990-12-22 03:00,ZBYN 220300Z AUTO 32010KT 12SM 02/M15 A3045 RMK SLP335 T00151153 52011 IEM_DS3505
ZBYN,1990-12-22 04:00,ZBYN 220400Z AUTO 32014KT 7SM 03/M09 A3042 RMK T00301090 IEM_DS3505
ZBYN,1990-12-22 05:00,ZBYN 220500Z AUTO 28012KT 7SM 03/M22 A3039 RMK T00301220 IEM_DS3505
ZBYN,1990-12-22 06:00,ZBYN 220600Z AUTO 29010KT 12SM 04/M17 A3039 RMK SLP314 T00441171 4////1038 57017 IEM_DS3505
ZBYN,1990-12-22 07:00,ZBYN 220700Z AUTO 21008KT 7SM 04/M19 A3036 RMK T00401190 IEM_DS3505
ZBYN,1990-12-22 09:00,ZBYN 220900Z AUTO 29008KT 12SM 04/M21 A3036 RMK SLP318 T00371211 IEM_DS3505
ZBYN,1990-12-22 10:00,ZBYN 221000Z AUTO 27008KT 7SM 00/M17 A3039 RMK T00001170 IEM_DS3505
ZBYN,1990-12-22 11:00,ZBYN 221100Z AUTO 08004KT 7SM M02/M13 A3039 RMK T10201130 IEM_DS3505
ZBYN,1990-12-22 12:00,ZBYN 221200Z AUTO 36002KT 11SM M00/M16 A3039 RMK SLP330 T10011165 52004 IEM_DS3505
ZBYN,1990-12-22 13:00,ZBYN 221300Z AUTO 00000KT 7SM M05/M18 A3039 RMK T10501180 IEM_DS3505
ZBYN,1990-12-22 15:00,ZBYN 221500Z AUTO 09004KT 11SM M05/M15 A3042 RMK SLP335 T10511153 52003 IEM_DS3505
ZBYN,1990-12-22 16:00,ZBYN 221600Z AUTO 09004KT 7SM M08/M19 A3042 RMK T10801190 IEM_DS3505
ZBYN,1990-12-22 17:00,ZBYN 221700Z AUTO 09006KT 7SM M08/M18 A3042 RMK T10801180 IEM_DS3505
ZBYN,1990-12-22 18:00,ZBYN 221800Z AUTO 14002KT 9SM M08/M16 A3039 RMK SLP332 T10761158 40051//// 57002 IEM_DS3505
ZBYN,1990-12-22 20:00,ZBYN 222000Z AUTO 10004KT 7SM M09/M18 A3036 RMK T10901180 IEM_DS3505
ZBYN,1990-12-22 21:00,ZBYN 222100Z AUTO 00000KT 9SM M10/M13 A3036 RMK SLP326 T10991131 57010 IEM_DS3505
ZBYN,1990-12-22 23:00,ZBYN 222300Z AUTO 00000KT 7SM M12/M16 A3036 RMK T11201160 IEM_DS3505
ZBYN,1990-12-23 00:00,ZBYN 230000Z AUTO 00000KT 9SM M10/M13 A3039 RMK SLP336 T11021131 52002 IEM_DS3505
ZBYN,1990-12-23 02:00,ZBYN 230200Z AUTO 00000KT 7SM M03/M17 A3039 RMK T10301170 IEM_DS3505
ZBYN,1990-12-23 03:00,ZBYN 230300Z AUTO 00000KT 7SM 00/M15 A3039 RMK SLP328 T00001147 52001 IEM_DS3505
ZBYN,1990-12-23 04:00,ZBYN 230400Z AUTO 00000KT 7SM 02/M16 A3036 RMK T00201160 IEM_DS3505
ZBYN,1990-12-23 05:00,ZBYN 230500Z AUTO 21006KT 7SM 03/M19 A3030 RMK T00301190 IEM_DS3505
ZBYN,1990-12-23 06:00,ZBYN 230600Z AUTO 16006KT 9SM 04/M13 A3027 RMK SLP289 T00451129 4////1113 57032 IEM_DS3505
ZBYN,1990-12-23 07:00,ZBYN 230700Z AUTO 18006KT 7SM 05/M13 A3024 RMK T00501130 IEM_DS3505
ZBYN,1990-12-23 08:00,ZBYN 230800Z AUTO 20008KT 7SM 05/M15 A3024 RMK T00501150 IEM_DS3505
ZBYN,1990-12-23 09:00,ZBYN 230900Z AUTO 11006KT 12SM 02/M15 A3021 RMK SLP279 T00221148 57017 IEM_DS3505
ZBYN,1990-12-23 10:00,ZBYN 231000Z AUTO 09004KT 7SM M01/M11 A3021 RMK T10101110 IEM_DS3505
ZBYN,1990-12-23 11:00,ZBYN 231100Z AUTO 10006KT 7SM M04/M17 A3021 RMK T10401170 IEM_DS3505
ZBYN,1990-12-23 12:00,ZBYN 231200Z AUTO 32002KT 7SM M03/M12 A3021 RMK SLP293 T10341117 52003 IEM_DS3505
ZBYN,1990-12-23 13:00,ZBYN 231300Z AUTO 00000KT 7SM M08/M15 A3021 RMK T10801150 IEM_DS3505
ZBYN,1990-12-23 14:00,ZBYN 231400Z AUTO 12004KT 7SM M07/M16 A3021 RMK T10701160 IEM_DS3505
ZBYN,1990-12-23 15:00,ZBYN 231500Z AUTO 00000KT 6SM M06/M12 A3021 RMK SLP276 T10581117 57002 IEM_DS3505
ZBYN,1990-12-23 16:00,ZBYN 231600Z AUTO 00000KT 7SM M10/M18 A3021 RMK T11001180 IEM_DS3505
ZBYN,1990-12-23 17:00,ZBYN 231700Z AUTO 07006KT 7SM M09/M16 A3021 RMK T10901160 IEM_DS3505
ZBYN,1990-12-23 18:00,ZBYN 231800Z AUTO 00000KT 6SM M09/M13 RMK SLP267 T10911132 40053//// 57006 IEM_DS3505
ZBYN,1990-12-23 19:00,ZBYN 231900Z AUTO 00000KT 7SM M11/M16 A3018 RMK T11101160 IEM_DS3505
ZBYN,1990-12-23 20:00,ZBYN 232000Z AUTO 00000KT 7SM M12/M16 A3015 RMK T11201160 IEM_DS3505
ZBYN,1990-12-23 21:00,ZBYN 232100Z AUTO 34002KT 7SM M12/M16 A3015 RMK SLP256 T11201160 57013 IEM_DS3505
ZBYN,1990-12-23 22:00,ZBYN 232200Z AUTO 00000KT 7SM M12/M16 A3015 RMK T11201160 IEM_DS3505
ZBYN,1990-12-23 23:00,ZBYN 232300Z AUTO 11002KT 7SM M12/M15 A3015 RMK T11201150 IEM_DS3505
ZBYN,1990-12-24 00:00,ZBYN 240000Z AUTO 34002KT 6SM M10/M13 A3015 RMK SLP268 T10971134 57001 IEM_DS3505
ZBYN,1990-12-24 01:00,ZBYN 240100Z AUTO 00000KT 4SM M11/M14 A3012 RMK T11101140 IEM_DS3505
ZBYN,1990-12-24 02:00,ZBYN 240200Z AUTO 00000KT 4SM M05/M16 A3012 RMK T10501160 IEM_DS3505
ZBYN,1990-12-24 03:00,ZBYN 240300Z AUTO 00000KT 5SM M01/M14 A3009 RMK SLP251 T10141144 57005 IEM_DS3505
ZBYN,1990-12-24 04:00,ZBYN 240400Z AUTO 00000KT 5SM 00/M12 A3006 RMK T00001120 IEM_DS3505
ZBYN,1990-12-24 06:00,ZBYN 240600Z AUTO 18004KT 5SM 02/M11 A3003 RMK SLP216 T00201110 4////1103 57031 IEM_DS3505
ZBYN,1990-12-24 07:00,ZBYN 240700Z AUTO 00000KT 6SM 03/M11 A3000 RMK T00301110 IEM_DS3505
ZBYN,1990-12-24 08:00,ZBYN 240800Z AUTO 16004KT 5SM 03/M11 A3000 RMK T00301110 IEM_DS3505
ZBYN,1990-12-24 09:00,ZBYN 240900Z AUTO 11004KT 5SM 00/M13 A3000 RMK SLP211 T00041130 57007 IEM_DS3505
ZBYN,1990-12-24 10:00,ZBYN 241000Z AUTO 00000KT 4SM M01/M09 A3000 RMK T10101090 IEM_DS3505
ZBYN,1990-12-24 11:00,ZBYN 241100Z AUTO 00000KT 3SM M04/M14 A3006 RMK T10401140 IEM_DS3505
ZBYN,1990-12-24 12:00,ZBYN 241200Z AUTO 34002KT 5SM M06/M12 A3006 RMK T10591124 52018 IEM_DS3505
ZBYN,1990-12-24 13:00,ZBYN 241300Z AUTO 28004KT 4SM M08/M15 A3009 RMK T10801150 IEM_DS3505
ZBYN,1990-12-24 15:00,ZBYN 241500Z AUTO 29002KT 5SM M06/M12 A3014 RMK SLP252 T10591124 52021 IEM_DS3505
ZBYN,1990-12-24 17:00,ZBYN 241700Z AUTO 34012KT 7SM M07/M16 A3015 RMK T10701160 IEM_DS3505
ZBYN,1990-12-24 18:00,ZBYN 241800Z AUTO 34006KT 9SM M02/M16 A3019 RMK SLP255 T10171158 40030//// 52015 IEM_DS3505
ZBYN,1990-12-24 19:00,ZBYN 241900Z AUTO 33010KT 7SM M04/M08 A3021 RMK T10401080 IEM_DS3505
ZBYN,1990-12-24 20:00,ZBYN 242000Z AUTO 33010KT 7SM M04/M10 A3021 RMK T10401100 IEM_DS3505
ZBYN,1990-12-24 21:00,ZBYN 242100Z AUTO 36006KT 12SM M00/M16 A3024 RMK SLP283 T10051160 52017 IEM_DS3505
ZBYN,1990-12-24 22:00,ZBYN 242200Z AUTO 35008KT 7SM M07/M20 A3027 RMK T10701200 IEM_DS3505
ZBYN,1990-12-24 23:00,ZBYN 242300Z AUTO 33006KT 7SM M10/M19 A3030 RMK T11001190 IEM_DS3505
ZBYN,1990-12-25 00:00,ZBYN 250000Z AUTO 36004KT 9SM M08/M18 A3033 RMK SLP332 T10791185 52029 IEM_DS3505
ZBYN,1990-12-25 01:00,ZBYN 250100Z AUTO 36008KT 7SM M08/ RMK IEM_DS3505
ZBYN,1990-12-25 02:00,ZBYN 250200Z AUTO 34008KT 7SM M05/M21 A3033 RMK T10501210 IEM_DS3505
ZBYN,1990-12-25 03:00,ZBYN 250300Z AUTO 36004KT 6SM M04/M15 A3036 RMK SLP333 T10411154 52007 IEM_DS3505
ZBYN,1990-12-25 04:00,ZBYN 250400Z AUTO 23010KT 7SM M03/M22 A3033 RMK T10301220 IEM_DS3505
ZBYN,1990-12-25 05:00,ZBYN 250500Z AUTO 23006KT 7SM M02/M18 A3033 RMK T10201180 IEM_DS3505
ZBYN,1990-12-25 06:00,ZBYN 250600Z AUTO 20002KT 6SM M00/M17 A3030 RMK SLP297 T10051167 57019 IEM_DS3505
ZBYN,1990-12-25 07:00,ZBYN 250700Z AUTO 23008KT 7SM 01/M16 A3027 RMK T00101160 IEM_DS3505
ZBYN,1990-12-25 08:00,ZBYN 250800Z AUTO 31010KT 7SM 01/M15 A3027 RMK T00101150 IEM_DS3505
ZBYN,1990-12-25 09:00,ZBYN 250900Z AUTO 34004KT 6SM M03/M17 A3030 RMK SLP311 T10261172 52003 IEM_DS3505
ZBYN,1990-12-25 11:00,ZBYN 251100Z AUTO 32008KT 7SM M08/M22 A3036 RMK T10801220 IEM_DS3505
ZBYN,1990-12-25 12:00,ZBYN 251200Z AUTO 34002KT 6SM M07/M18 A3039 RMK SLP353 T10671177 52027 IEM_DS3505
ZBYN,1990-12-25 14:00,ZBYN 251400Z AUTO 00000KT 7SM M09/M23 A3042 RMK T10901230 IEM_DS3505
ZBYN,1990-12-25 15:00,ZBYN 251500Z AUTO 00000KT 7SM M06/M24 A3042 RMK SLP352 T10651241 52006 IEM_DS3505
ZBYN,1990-12-25 16:00,ZBYN 251600Z AUTO 32006KT 7SM M10/M21 A3045 RMK T11001210 IEM_DS3505
ZBYN,1990-12-25 17:00,ZBYN 251700Z AUTO 00000KT 7SM M12/M21 A3039 RMK T11201210 IEM_DS3505
ZBYN,1990-12-25 18:00,ZBYN 251800Z AUTO 22004KT 7SM M07/M20 A3039 RMK SLP347 T10721196 40013//// 54000 IEM_DS3505
ZBYN,1990-12-25 19:00,ZBYN 251900Z AUTO 11004KT 7SM M13/M21 A3042 RMK T11301210 IEM_DS3505
ZBYN,1990-12-25 20:00,ZBYN 252000Z AUTO 09006KT 7SM M13/M22 A3042 RMK T11301220 IEM_DS3505
ZBYN,1990-12-25 21:00,ZBYN 252100Z AUTO 08002KT 7SM M14/M22 A3042 RMK SLP370 T11401220 52023 IEM_DS3505
ZBYN,1990-12-25 22:00,ZBYN 252200Z AUTO 00000KT 7SM M16/M22 A3042 RMK T11601220 IEM_DS3505
ZBYN,1990-12-25 23:00,ZBYN 252300Z AUTO 00000KT 7SM M15/M21 A3045 RMK T11501210 IEM_DS3505
ZBYN,1990-12-26 00:00,ZBYN 260000Z AUTO 36004KT 6SM M12/M18 A3045 RMK SLP386 T11191177 52010 IEM_DS3505
ZBYN,1990-12-26 01:00,ZBYN 260100Z AUTO 16004KT 3SM M13/M19 A3045 RMK T11301190 IEM_DS3505
ZBYN,1990-12-26 02:00,ZBYN 260200Z AUTO 33006KT 5SM M06/M16 A3047 RMK T10601160 IEM_DS3505
ZBYN,1990-12-26 03:00,ZBYN 260300Z AUTO 34006KT 12SM M04/M22 A3045 RMK SLP368 T10421217 57002 IEM_DS3505
ZBYN,1990-12-26 04:00,ZBYN 260400Z AUTO 00000KT 7SM M02/M22 A3045 RMK T10201220 IEM_DS3505
ZBYN,1990-12-26 05:00,ZBYN 260500Z AUTO 02004KT 7SM M01/M26 A3042 RMK T10101260 IEM_DS3505
ZBYN,1990-12-26 06:00,ZBYN 260600Z AUTO 36006KT 12SM 00/M23 A3039 RMK SLP336 T00011228 4////1156 57023 IEM_DS3505
ZBYN,1990-12-26 07:00,ZBYN 260700Z AUTO 36006KT 7SM 01/M19 A3036 RMK T00101190 IEM_DS3505
ZBYN,1990-12-26 08:00,ZBYN 260800Z AUTO 30006KT 7SM 01/M14 A3036 RMK T00101140 IEM_DS3505
ZBYN,1990-12-26 09:00,ZBYN 260900Z AUTO 36008KT 9SM M00/M24 A3036 RMK SLP343 T10031245 57005 IEM_DS3505
ZBYN,1990-12-26 10:00,ZBYN 261000Z AUTO 36006KT 7SM M05/M24 A3036 RMK T10501240 IEM_DS3505
ZBYN,1990-12-26 12:00,ZBYN 261200Z AUTO 34006KT 9SM M05/M31 A3039 RMK SLP356 T10531306 52006 IEM_DS3505
ZBYN,1990-12-26 14:00,ZBYN 261400Z AUTO 00000KT 6SM M08/M25 A3042 RMK T10801250 IEM_DS3505
ZBYN,1990-12-26 15:00,ZBYN 261500Z AUTO 34004KT 9SM M07/M25 A3039 RMK SLP347 T10711247 52002 IEM_DS3505
ZBYN,1990-12-26 16:00,ZBYN 261600Z AUTO 00000KT 6SM M10/M23 A3039 RMK T11001230 IEM_DS3505
ZBYN,1990-12-26 17:00,ZBYN 261700Z AUTO 00000KT 6SM M09/M21 A3036 RMK T10901210 IEM_DS3505
ZBYN,1990-12-26 18:00,ZBYN 261800Z AUTO 34004KT 7SM M06/M21 A3036 RMK SLP329 T10591212 40014//// 57007 IEM_DS3505
ZBYN,1990-12-26 19:00,ZBYN 261900Z AUTO 00000KT 6SM M07/M19 A3039 RMK T10701190 IEM_DS3505
ZBYN,1990-12-26 20:00,ZBYN 262000Z AUTO 00000KT 6SM M06/M20 A3036 RMK T10601200 IEM_DS3505
ZBYN,1990-12-26 21:00,ZBYN 262100Z AUTO 32002KT 6SM M05/M20 A3033 RMK SLP320 T10521203 57008 IEM_DS3505
ZBYN,1990-12-26 22:00,ZBYN 262200Z AUTO 00000KT 6SM M06/M16 A3036 RMK T10601160 IEM_DS3505
ZBYN,1990-12-27 00:00,ZBYN 270000Z AUTO 00000KT 6SM M05/M19 A3033 RMK SLP326 T10491187 57002 IEM_DS3505
ZBYN,1990-12-27 01:00,ZBYN 270100Z AUTO 00000KT 2 1/2SM M05/M17 A3036 RMK T10501170 IEM_DS3505
ZBYN,1990-12-27 02:00,ZBYN 270200Z AUTO 15004KT 4SM M05/M18 A3036 RMK T10501180 IEM_DS3505
ZBYN,1990-12-27 03:00,ZBYN 270300Z AUTO 14008KT 6SM M03/M17 A3033 RMK SLP322 T10331166 57004 IEM_DS3505
ZBYN,1990-12-27 04:00,ZBYN 270400Z AUTO 23006KT 5SM M02/M15 A3030 RMK T10201150 IEM_DS3505
ZBYN,1990-12-27 05:00,ZBYN 270500Z AUTO 18006KT 6SM M02/M14 A3024 RMK T10201140 IEM_DS3505
ZBYN,1990-12-27 06:00,ZBYN 270600Z AUTO 16008KT 6SM M01/M13 A3021 RMK SLP279 T10141126 4////1080 57034 IEM_DS3505
ZBYN,1990-12-27 08:00,ZBYN 270800Z AUTO 17006KT 6SM M01/M11 A3021 RMK T10101110 IEM_DS3505
ZBYN,1990-12-27 09:00,ZBYN 270900Z AUTO 14006KT 6SM M02/M12 A3021 RMK SLP274 T10231119 57005 IEM_DS3505
ZBYN,1990-12-27 10:00,ZBYN 271000Z AUTO 10004KT 7SM M04/M11 A3018 RMK T10401110 IEM_DS3505
ZBYN,1990-12-27 11:00,ZBYN 271100Z AUTO 10006KT 7SM M06/M12 A3024 RMK T10601120 IEM_DS3505
ZBYN,1990-12-27 12:00,ZBYN 271200Z AUTO 00000KT 7SM M07/M10 A3018 RMK SLP274 T10671105 57007 IEM_DS3505
ZBYN,1990-12-27 13:00,ZBYN 271300Z AUTO 11004KT 7SM M07/M13 A3021 RMK T10701130 IEM_DS3505
ZBYN,1990-12-27 14:00,ZBYN 271400Z AUTO 10004KT 7SM M08/M13 A3021 RMK T10801130 IEM_DS3505
ZBYN,1990-12-27 15:00,ZBYN 271500Z AUTO 09004KT 7SM M08/M13 A3018 RMK T10801130 IEM_DS3505
ZBYN,1990-12-27 16:00,ZBYN 271600Z AUTO 00000KT 7SM M08/M14 A3018 RMK T10801140 IEM_DS3505
ZBYN,1990-12-27 17:00,ZBYN 271700Z AUTO 00000KT 6SM M10/M13 A3015 RMK T11001130 IEM_DS3505
ZBYN,1990-12-27 18:00,ZBYN 271800Z AUTO 36002KT 6SM M09/M13 A3015 RMK SLP262 T10891134 41006//// 57007 IEM_DS3505
ZBYN,1990-12-27 19:00,ZBYN 271900Z AUTO 00000KT 6SM M12/M14 A3015 RMK T11201140 IEM_DS3505
ZBYN,1990-12-27 20:00,ZBYN 272000Z AUTO 00000KT 6SM M13/M15 A3012 RMK T11301150 IEM_DS3505
ZBYN,1990-12-27 21:00,ZBYN 272100Z AUTO 00000KT 6SM M09/M14 A3015 RMK SLP263 T10911137 57001 IEM_DS3505
ZBYN,1990-12-27 22:00,ZBYN 272200Z AUTO 33004KT 6SM M12/M14 A3015 RMK T11201140 IEM_DS3505
ZBYN,1990-12-28 00:00,ZBYN 280000Z AUTO 07002KT 4SM M09/M13 A3020 RMK SLP288 T10881128 52015 IEM_DS3505
ZBYN,1990-12-28 03:00,ZBYN 280300Z AUTO 00000KT 6SM M03/M13 A3022 RMK SLP288 T10341128 52006 IEM_DS3505
ZBYN,1990-12-28 04:00,ZBYN 280400Z AUTO 00000KT 7SM M02/M14 A3021 RMK T10201140 IEM_DS3505
ZBYN,1990-12-28 05:00,ZBYN 280500Z AUTO 00000KT 7SM M01/M14 A3018 RMK T10101140 IEM_DS3505
ZBYN,1990-12-28 06:00,ZBYN 280600Z AUTO 00000KT 6SM 01/M12 A3015 RMK SLP268 T00111115 4////1106 57011 IEM_DS3505
ZBYN,1990-12-28 07:00,ZBYN 280700Z AUTO 00000KT 7SM 03/M11 A3015 RMK T00301110 IEM_DS3505
ZBYN,1990-12-28 08:00,ZBYN 280800Z AUTO 00000KT 7SM 02/M08 A3015 RMK T00201080 IEM_DS3505
ZBYN,1990-12-28 09:00,ZBYN 280900Z AUTO 00000KT 6SM 00/M12 A3018 RMK SLP268 T00051121 57001 IEM_DS3505
ZBYN,1990-12-28 10:00,ZBYN 281000Z AUTO 01004KT 3SM M03/M07 A3018 RMK T10301070 IEM_DS3505
ZBYN,1990-12-28 11:00,ZBYN 281100Z AUTO 00000KT 3SM M05/M09 A3021 RMK T10501090 IEM_DS3505
ZBYN,1990-12-28 12:00,ZBYN 281200Z AUTO 34004KT 6SM M03/M13 A3024 RMK SLP287 T10301126 52012 IEM_DS3505
ZBYN,1990-12-28 13:00,ZBYN 281300Z AUTO 23004KT 4SM M08/M16 A3024 RMK T10801160 IEM_DS3505
ZBYN,1990-12-28 14:00,ZBYN 281400Z AUTO 00000KT 4SM M06/M15 A3027 RMK T10601150 IEM_DS3505
ZBYN,1990-12-28 15:00,ZBYN 281500Z AUTO 34004KT 6SM M04/M12 A3030 RMK SLP303 T10451124 52021 IEM_DS3505
ZBYN,1990-12-28 16:00,ZBYN 281600Z AUTO 00000KT 2SM M07/M14 A3030 RMK T10701140 IEM_DS3505
ZBYN,1990-12-28 17:00,ZBYN 281700Z AUTO 36004KT 2SM M07/M16 A3030 RMK T10701160 IEM_DS3505
ZBYN,1990-12-28 18:00,ZBYN 281800Z AUTO 34006KT 5SM M06/M12 A3030 RMK SLP298 T10551118 40024//// 52001 IEM_DS3505
ZBYN,1990-12-28 19:00,ZBYN 281900Z AUTO 00000KT 2SM M07/M14 A3033 RMK T10701140 IEM_DS3505
ZBYN,1990-12-28 20:00,ZBYN 282000Z AUTO 03004KT 4SM M11/M15 A3030 RMK T11101150 IEM_DS3505
ZBYN,1990-12-28 21:00,ZBYN 282100Z AUTO 34004KT 5SM M07/M14 A3030 RMK SLP308 T10671137 52006 IEM_DS3505
ZBYN,1990-12-28 22:00,ZBYN 282200Z AUTO 00000KT 2SM M11/M14 A3033 RMK T11101140 IEM_DS3505
ZBYN,1990-12-28 23:00,ZBYN 282300Z AUTO 00000KT 3SM M10/M13 A3033 RMK T11001130 IEM_DS3505
ZBYN,1990-12-29 00:00,ZBYN 290000Z AUTO 34004KT 5SM M08/M13 A3033 RMK SLP327 T10751133 52010 IEM_DS3505
ZBYN,1990-12-29 01:00,ZBYN 290100Z AUTO 00000KT 1 1/4SM M11/M13 A3036 RMK T11101130 IEM_DS3505
ZBYN,1990-12-29 02:00,ZBYN 290200Z AUTO 00000KT 1SM M05/M14 A3033 RMK T10501140 IEM_DS3505
ZBYN,1990-12-29 03:00,ZBYN 290300Z AUTO 36006KT 5SM M02/M14 A3033 RMK SLP315 T10221136 57004 IEM_DS3505
ZBYN,1990-12-29 04:00,ZBYN 290400Z AUTO 26004KT 1 1/4SM 00/M12 A3027 RMK T00001120 IEM_DS3505
ZBYN,1990-12-29 05:00,ZBYN 290500Z AUTO 00000KT 4SM 02/M13 A3024 RMK T00201130 IEM_DS3505
ZBYN,1990-12-29 06:00,ZBYN 290600Z AUTO 18004KT 6SM 04/M12 A3018 RMK SLP258 T00361119 4////1085 57004 IEM_DS3505
ZBYN,1990-12-29 07:00,ZBYN 290700Z AUTO 18008KT 7SM 04/M11 A3018 RMK T00401110 IEM_DS3505
ZBYN,1990-12-29 08:00,ZBYN 290800Z AUTO 15008KT 6SM 03/M11 A3018 RMK T00301110 IEM_DS3505
ZBYN,1990-12-29 09:00,ZBYN 290900Z AUTO 20006KT 6SM 02/M12 A3021 RMK SLP271 T00241118 52008 IEM_DS3505
ZBYN,1990-12-29 10:00,ZBYN 291000Z AUTO 19006KT 6SM 00/M11 A3018 RMK T00001110 IEM_DS3505
ZBYN,1990-12-29 11:00,ZBYN 291100Z AUTO 20004KT 6SM 00/M11 A3021 RMK T00001110 IEM_DS3505
ZBYN,1990-12-29 12:00,ZBYN 291200Z AUTO 11006KT 6SM M00/M09 A3021 RMK SLP276 T10041087 57002 IEM_DS3505
ZBYN,1990-12-29 13:00,ZBYN 291300Z AUTO 12006KT 6SM M01/M10 A3024 RMK T10101100 IEM_DS3505
ZBYN,1990-12-29 14:00,ZBYN 291400Z AUTO 10008KT 6SM M01/M12 A3024 RMK T10101120 IEM_DS3505
ZBYN,1990-12-29 15:00,ZBYN 291500Z AUTO 14002KT 6SM M01/M12 A3021 RMK SLP270 T10101118 52003 IEM_DS3505
ZBYN,1990-12-29 16:00,ZBYN 291600Z AUTO 00000KT 6SM M01/M11 A3021 RMK T10101110 IEM_DS3505
ZBYN,1990-12-29 17:00,ZBYN 291700Z AUTO 10004KT 6SM M01/M10 A3018 RMK T10101100 IEM_DS3505
ZBYN,1990-12-29 18:00,ZBYN 291800Z AUTO 14004KT 6SM M01/M10 A3018 RMK SLP253 T10121100 40047//// 57006 IEM_DS3505
ZBYN,1990-12-29 19:00,ZBYN 291900Z AUTO 14006KT 6SM M02/M10 A3018 RMK T10201100 IEM_DS3505
ZBYN,1990-12-29 20:00,ZBYN 292000Z AUTO 00000KT 6SM 02/M09 A3015 RMK T00201090 IEM_DS3505
ZBYN,1990-12-29 21:00,ZBYN 292100Z AUTO 11002KT 6SM M02/M10 A3015 RMK SLP250 T10211105 57007 IEM_DS3505
ZBYN,1990-12-29 22:00,ZBYN 292200Z AUTO 19004KT 6SM M02/M10 A3015 RMK T10201100 IEM_DS3505
ZBYN,1990-12-30 00:00,ZBYN 300000Z AUTO 00000KT 6SM M02/M10 A3018 RMK SLP258 T10241105 52003 IEM_DS3505
ZBYN,1990-12-30 01:00,ZBYN 300100Z AUTO 17004KT 3SM M02/M05 A3021 RMK T10201050 IEM_DS3505
ZBYN,1990-12-30 02:00,ZBYN 300200Z AUTO 20004KT 3SM M02/M06 A3021 RMK T10201060 IEM_DS3505
ZBYN,1990-12-30 03:00,ZBYN 300300Z AUTO 14004KT 5SM M02/M06 A3021 RMK SLP265 T10211065 52005 IEM_DS3505
ZBYN,1990-12-30 04:00,ZBYN 300400Z AUTO 00000KT 2SM M02/M05 A3018 RMK T10201050 IEM_DS3505
ZBYN,1990-12-30 05:00,ZBYN 300500Z AUTO 20006KT 2SM M01/M07 A3015 RMK T10101070 IEM_DS3505
ZBYN,1990-12-30 06:00,ZBYN 300600Z AUTO 16006KT 5SM M01/M08 A3012 RMK SLP239 T10061076 4////1027 57021 IEM_DS3505
ZBYN,1990-12-30 07:00,ZBYN 300700Z AUTO 17006KT 2SM 00/M09 A3012 RMK T00001090 IEM_DS3505
ZBYN,1990-12-30 08:00,ZBYN 300800Z AUTO 20006KT 2SM 00/M07 A3009 RMK T00001070 IEM_DS3505
ZBYN,1990-12-30 09:00,ZBYN 300900Z AUTO 16004KT 5SM M00/M07 A3009 RMK SLP226 T10041073 57013 IEM_DS3505
ZBYN,1990-12-30 10:00,ZBYN 301000Z AUTO 00000KT 2SM M01/M06 A3009 RMK T10101060 IEM_DS3505
ZBYN,1990-12-30 11:00,ZBYN 301100Z AUTO 17002KT 3SM M01/M05 A3012 RMK T10101050 IEM_DS3505
ZBYN,1990-12-30 12:00,ZBYN 301200Z AUTO 11002KT 6SM M01/M06 A3015 RMK SLP243 T10101062 52014 IEM_DS3505
ZBYN,1990-12-30 13:00,ZBYN 301300Z AUTO 09006KT 3SM M01/M06 A3015 RMK T10101060 IEM_DS3505
ZBYN,1990-12-30 14:00,ZBYN 301400Z AUTO 00000KT 3SM M01/M05 A3015 RMK T10101050 IEM_DS3505
ZBYN,1990-12-30 15:00,ZBYN 301500Z AUTO 32006KT 6SM M01/M06 A3015 RMK SLP248 T10081059 52005 IEM_DS3505
ZBYN,1990-12-30 16:00,ZBYN 301600Z AUTO 25006KT 2SM M03/M06 A3018 RMK T10301060 IEM_DS3505
ZBYN,1990-12-30 17:00,ZBYN 301700Z AUTO 29008KT 9SM M01/ A3015 RMK SLP244 40010//// 57001 IEM_DS3505
ZBYN,1990-12-30 18:00,ZBYN 301800Z AUTO 29008KT 9SM M01/M16 A3015 RMK SLP244 T10081158 40010//// 57001 IEM_DS3505
ZBYN,1990-12-30 19:00,ZBYN 301900Z AUTO 32010KT 6SM M02/M09 A3015 RMK T10201090 IEM_DS3505
ZBYN,1990-12-30 20:00,ZBYN 302000Z AUTO 34012KT 6SM M02/M14 A3012 RMK T10201140 IEM_DS3505
ZBYN,1990-12-30 21:00,ZBYN 302100Z AUTO 29006KT 9SM M04/M16 A3012 RMK T10401158 57007 IEM_DS3505
ZBYN,1990-12-30 22:00,ZBYN 302200Z AUTO 32006KT 6SM M01/M16 A3012 RMK T10101160 IEM_DS3505
ZBYN,1990-12-30 23:00,ZBYN 302300Z AUTO 19004KT 6SM M05/M16 A3012 RMK T10501160 IEM_DS3505
