station,valid,metar
ZGDY,2025-01-27 00:00,ZGDY 270000Z 24001MPS 0800 R08/0750 FG NSC 01/01 Q1029 NOSIG
ZGDY,2025-02-28 08:00,ZGDY 280800Z VRB01MPS 9999 OVC050 19/11 Q1010 NOSIG
