station,valid,metar
ZGDY,2016-04-11 06:00,ZGDY 110600Z 08003MPS 050V110 9999 BKN070 27/13 Q1010 NOSIG
ZGDY,2016-06-07 12:00,ZGDY 071200Z 31002MPS 9999 -RA SCT010 BKN060 21/20 Q1010 NOSIG
