station,valid,metar
ZGDY,2018-08-24 08:00,ZGDY 240800Z 09005MPS 040V120 9999 SCT040 34/19 Q1004 NOSIG
ZGDY,2018-12-21 08:00,ZGDY 210800Z 07003MPS 3500 BR SCT009 OVC033 11/09 Q1018 NOSIG
