station,valid,metar
ZGDY,2009-01-04 14:30,ZGDY 041430Z AUTO 06008KT 3SM 04/M04 A3033 RMK T00401040 IEM_DS3505
ZGDY,2009-05-26 01:00,ZGDY 260100Z AUTO 07008KT 3SM 19/15 A2991 RMK T01900150 IEM_DS3505
ZGDY,2009-07-20 11:00,ZGDY 201100Z AUTO 22008KT 6SM 34/19 A2968 RMK T03400190 IEM_DS3505
ZGDY,2009-10-12 14:00,ZGDY 121400Z AUTO 05004KT 2 1/2SM 16/15 A3018 RMK T01600150 IEM_DS3505
