station,valid,metar
ZGDY,2007-10-10 04:00,ZGDY 100400Z AUTO 05006KT 4SM 21/08 A3015 RMK T02100080 IEM_DS3505
ZGDY,2007-11-10 00:00,ZGDY 100000Z AUTO 28002KT 1/4SM 07/07 A3027 RMK T00700070 IEM_DS3505
ZGDY,2007-12-12 11:00,ZGDY 121100Z AUTO 07004KT 2 1/2SM 08/04 A3021 RMK T00800040 IEM_DS3505
