station,valid,metar
ZGDY,2011-01-31 04:30,ZGDY 310430Z AUTO VRB01MPS 7000 BR NSC 03/M06 Q1032 NOSIG
ZGDY,2011-02-20 23:00,ZGDY 202300Z AUTO 28002MPS 4800 BR NCD 07/04 Q1023 NOSIG
ZGDY,2011-04-13 04:00,ZGDY 130400Z AUTO VRB01MPS 3000 BR 1219  Q1017
ZGDY,2011-05-24 01:00,ZGDY 240100Z AUTO 00000MPS 2500 // 1016  Q1016
ZGDY,2011-10-06 10:00,ZGDY 061000Z 12002MPS 9999 NSC 23/15 Q1017 NOSIG
