station,valid,metar
ZGDY,2014-08-15 04:00,ZGDY 150400Z 05002MPS 330V090 CAVOK 30/17 Q1010 NOSIG
ZGDY,2014-08-31 16:00,ZGDY 311600Z 03006MPS 9999 OVC033 24/19 Q1011 NOSIG
