station,valid,metar
ZGDY,2010-01-02 06:00,ZGDY 020600Z AUTO 6SM 16/01 A3006 RMK T01600010 IEM_DS3505
ZGDY,2010-05-21 03:00,ZGDY 210300Z AUTO 27004KT 4SM 16/16 A2980 RMK T01600160 IEM_DS3505
ZGDY,2010-06-19 02:00,ZGDY 190200Z AUTO 09008KT 1SM 25/25 A2959 RMK T02500250 IEM_DS3505
ZGDY,2010-07-27 00:00,ZGDY 270000Z AUTO 2SM 27/25 A2977 RMK T02700250 IEM_DS3505
ZGDY,2010-10-20 05:00,ZGDY 200500Z AUTO 08010KT 4SM 24/12 A3009 RMK T02400120 IEM_DS3505
