station,valid,metar
ZGDY,2020-01-17 08:00,ZGDY 170800Z 00000MPS 7000 OVC050 07/01 Q1026 NOSIG
ZGDY,2020-07-16 23:00,ZGDY 162300Z 00000MPS 9999 FEW015 OVC033 24/23 Q1003 NOSIG
ZGDY,2020-08-13 21:00,ZGDY 132100Z VRB01MPS 9999 SCT060 25/25 Q1006 NOSIG
