station,valid,metar
ZBDT,2017-06-27 03:00,ZBDT 270300Z 22003MPS 110V260 CAVOK 27/12 Q1011 NOSIG
