station,valid,metar
ZGSZ,2003-01-01 00:00,ZGSZ 010000Z 02004MPS CAVOK 12/06 Q1023 NOSIG
ZGSZ,2003-01-01 01:00,ZGSZ 010100Z 36004MPS 8000 OVC040 12/05 Q1024 NOSIG
ZGSZ,2003-01-01 02:00,ZGSZ 010200Z 02004MPS 8000 OVC036 12/06 Q1025 NOSIG
ZGSZ,2003-01-01 03:00,ZGSZ 010300Z 02004MPS 8000 OVC040 13/06 Q1024 NOSIG
ZGSZ,2003-01-01 04:00,ZGSZ 010400Z 01004MPS 6000 OVC040 13/06 Q1023 NOSIG
ZGSZ,2003-01-01 05:00,ZGSZ 010500Z 36005MPS 6000 FEW028 BKN050 13/07 Q1022 NOSIG
ZGSZ,2003-01-01 06:00,ZGSZ 010600Z 01005MPS 6000 BKN043 14/07 Q1022 NOSIG
ZGSZ,2003-01-01 07:00,ZGSZ 010700Z 01005MPS 5000 NSC 14/07 Q1022 NOSIG
ZGSZ,2003-01-01 08:00,ZGSZ 010800Z 01005MPS 5000 NSC 14/07 Q1022 NOSIG
ZGSZ,2003-01-01 09:00,ZGSZ 010900Z 02004MPS 6000 NSC 14/07 Q1022 NOSIG
ZGSZ,2003-01-01 10:00,ZGSZ 011000Z 02004MPS 6000 NSC 13/07 Q1022 NOSIG
ZGSZ,2003-01-01 11:00,ZGSZ 011100Z 02004MPS 6000 NSC 13/07 Q1022 NOSIG
ZGSZ,2003-01-01 12:00,ZGSZ 011200Z 02002MPS 6000 BKN046 13/07 Q1023 NOSIG
ZGSZ,2003-01-01 13:00,ZGSZ 011300Z 02003MPS 6000 BKN046 13/07 Q1023 NOSIG
ZGSZ,2003-01-01 14:00,ZGSZ 011400Z 02002MPS 6000 BKN043 13/07 Q1023 NOSIG
ZGSZ,2003-01-01 15:00,ZGSZ 011500Z 02001MPS 6000 BKN043 13/08 Q1024 NOSIG
ZGSZ,2003-01-01 16:00,ZGSZ 011600Z 05002MPS 3000 BR BKN043 13/08 Q1024 NOSIG
ZGSZ,2003-01-01 17:00,ZGSZ 011700Z 05001MPS 3000 BR BKN043 14/08 Q1024 NOSIG
ZGSZ,2003-01-01 18:00,ZGSZ 011800Z 09002MPS 3000 BR BKN043 14/08 Q1023 NOSIG
ZGSZ,2003-01-01 19:00,ZGSZ 011900Z 08002MPS 6000 BKN043 14/09 Q1023 NOSIG
ZGSZ,2003-01-01 20:00,ZGSZ 012000Z 09002MPS 6000 BKN043 14/09 Q1022 NOSIG
ZGSZ,2003-01-01 21:00,ZGSZ 012100Z 12003MPS 6000 BKN043 15/09 Q1022 NOSIG
ZGSZ,2003-01-01 22:00,ZGSZ 012200Z 11006MPS 6000 BKN043 15/09 Q1021 NOSIG
ZGSZ,2003-01-01 23:00,ZGSZ 012300Z 11002MPS 6000 SKC 14/09 Q1022 NOSIG
ZGSZ,2003-01-02 00:00,ZGSZ 020000Z 01003MPS 3000 BR NSC 14/09 Q1023 NOSIG
ZGSZ,2003-01-02 01:00,ZGSZ 020100Z 03003MPS 3000 BR SCT015 14/09 Q1024 NOSIG
ZGSZ,2003-01-02 02:00,ZGSZ 020200Z 07002MPS 3500 HZ FEW016 17/10 Q1024 NOSIG
ZGSZ,2003-01-02 03:00,ZGSZ 020300Z 07003MPS 4000 HZ FEW016 BKN050 17/10 Q1024 NOSIG
ZGSZ,2003-01-02 04:00,ZGSZ 020400Z 09003MPS 4000 HZ FEW016 BKN050 18/10 Q1022 NOSIG
ZGSZ,2003-01-02 05:00,ZGSZ 020500Z 36001MPS 4500 HZ FEW016 BKN050 18/10 Q1022 NOSIG
ZGSZ,2003-01-02 06:00,ZGSZ 020600Z 32003MPS 4000 HZ FEW020 BKN060 18/10 Q1021 NOSIG
ZGSZ,2003-01-02 07:00,ZGSZ 020700Z 28002MPS 3500 HZ FEW020 OVC060 18/11 Q1021 NOSIG
ZGSZ,2003-01-02 08:00,ZGSZ 020800Z 26002MPS 2300 BR SCT015 OVC050 17/11 Q1021 NOSIG
ZGSZ,2003-01-02 09:00,ZGSZ 020900Z 34002MPS 2600 BR OVC040 17/11 Q1021 NOSIG
ZGSZ,2003-01-02 10:00,ZGSZ 021000Z 34003MPS 2100 BR OVC033 16/11 Q1022 NOSIG
ZGSZ,2003-01-02 11:00,ZGSZ 021100Z 35004MPS 2300 HZ OVC033 16/10 Q1022 NOSIG
ZGSZ,2003-01-02 12:00,ZGSZ 021200Z 36004MPS 3000 HZ OVC040 16/09 Q1023 NOSIG
ZGSZ,2003-01-02 13:00,ZGSZ 021300Z 01004MPS 3300 HZ OVC036 16/09 Q1023 NOSIG
ZGSZ,2003-01-02 14:00,ZGSZ 021400Z 36005MPS 3500 HZ OVC040 15/09 Q1024 NOSIG
ZGSZ,2003-01-02 15:00,ZGSZ 021500Z 01005MPS 3000 BR OVC036 15/10 Q1025 NOSIG
ZGSZ,2003-01-02 16:00,ZGSZ 021600Z 36005MPS 3300 BR OVC036 14/09 Q1025 NOSIG
ZGSZ,2003-01-02 17:00,ZGSZ 021700Z 36004MPS 2300 -RA BR OVC033 13/10 Q1025 NOSIG
ZGSZ,2003-01-02 18:00,ZGSZ 021800Z 35004MPS 2500 -RA BR OVC030 12/09 Q1025 NOSIG
ZGSZ,2003-01-02 19:00,ZGSZ 021900Z 01007MPS 4000 BR OVC033 12/09 Q1025 NOSIG
ZGSZ,2003-01-02 20:00,ZGSZ 022000Z 02004MPS 5000 BR OVC036 11/09 Q1025 NOSIG
ZGSZ,2003-01-02 21:00,ZGSZ 022100Z 01006MPS 7000 OVC040 11/08 Q1025 NOSIG
ZGSZ,2003-01-02 22:00,ZGSZ 022200Z 36007MPS 9999 OVC040 10/07 Q1026 NOSIG
ZGSZ,2003-01-02 23:00,ZGSZ 022300Z 02006MPS 9999 SCT014 OVC036 10/07 Q1026 NOSIG
ZGSZ,2003-01-03 00:00,ZGSZ 030000Z 02005MPS 9999 BKN043 10/06 Q1026 NOSIG
ZGSZ,2003-01-03 01:00,ZGSZ 030100Z 03006MPS 9999 FEW021 BKN043 10/05 Q1027 NOSIG
ZGSZ,2003-01-03 02:00,ZGSZ 030200Z 03006MPS 9999 FEW043 BKN100 11/05 Q1027 NOSIG
ZGSZ,2003-01-03 03:00,ZGSZ 030300Z 02006MPS CAVOK 13/05 Q1026 NOSIG
ZGSZ,2003-01-03 04:00,ZGSZ 030400Z 02007MPS CAVOK 15/05 Q1025 NOSIG
ZGSZ,2003-01-03 05:00,ZGSZ 030500Z 01006MPS CAVOK 15/04 Q1023 NOSIG
ZGSZ,2003-01-03 06:00,ZGSZ 030600Z 36005MPS CAVOK 17/04 Q1022 NOSIG
ZGSZ,2003-01-03 07:00,ZGSZ 030700Z 01006MPS CAVOK 18/03 Q1021 NOSIG
ZGSZ,2003-01-03 08:00,ZGSZ 030800Z 01005MPS CAVOK 18/04 Q1021 NOSIG
ZGSZ,2003-01-03 09:00,ZGSZ 030900Z 02005MPS CAVOK 17/03 Q1022 NOSIG
ZGSZ,2003-01-03 10:00,ZGSZ 031000Z 02005MPS CAVOK 16/03 Q1022 NOSIG
ZGSZ,2003-01-03 11:00,ZGSZ 031100Z 02004MPS CAVOK 15/02 Q1023 NOSIG
ZGSZ,2003-01-03 12:00,ZGSZ 031200Z 04004MPS CAVOK 14/03 Q1023 NOSIG
ZGSZ,2003-01-03 13:00,ZGSZ 031300Z 06002MPS CAVOK 13/03 Q1024 NOSIG
ZGSZ,2003-01-03 14:00,ZGSZ 031400Z 05002MPS CAVOK 13/03 Q1024 NOSIG
ZGSZ,2003-01-03 15:00,ZGSZ 031500Z 06004MPS CAVOK 12/03 Q1024 NOSIG
ZGSZ,2003-01-03 16:00,ZGSZ 031600Z 06006MPS CAVOK 11/02 Q1024 NOSIG
ZGSZ,2003-01-03 17:00,ZGSZ 031700Z 02002MPS CAVOK 10/02 Q1024 NOSIG
ZGSZ,2003-01-03 18:00,ZGSZ 031800Z 33002MPS CAVOK 09/02 Q1024 NOSIG
ZGSZ,2003-01-03 19:00,ZGSZ 031900Z 36004MPS CAVOK 09/02 Q1024 NOSIG
ZGSZ,2003-01-03 20:00,ZGSZ 032000Z 36003MPS CAVOK 08/02 Q1024 NOSIG
ZGSZ,2003-01-03 21:00,ZGSZ 032100Z 36002MPS CAVOK 08/02 Q1024 NOSIG
ZGSZ,2003-01-03 22:00,ZGSZ 032200Z 00000MPS CAVOK 07/02 Q1025 NOSIG
ZGSZ,2003-01-03 23:00,ZGSZ 032300Z 00000MPS CAVOK 08/02 Q1025 NOSIG
ZGSZ,2003-01-04 00:00,ZGSZ 040000Z 36002MPS CAVOK 08/02 Q1026 NOSIG
ZGSZ,2003-01-04 01:00,ZGSZ 040100Z 01003MPS 6000 SKC 10/01 Q1027 NOSIG
ZGSZ,2003-01-04 02:00,ZGSZ 040200Z 03003MPS 6000 SKC 12/02 Q1027 NOSIG
ZGSZ,2003-01-04 03:00,ZGSZ 040300Z 06004MPS 7000 SKC 14/03 Q1026 NOSIG
ZGSZ,2003-01-04 04:00,ZGSZ 040400Z 06003MPS 7000 SKC 16/02 Q1025 NOSIG
ZGSZ,2003-01-04 05:00,ZGSZ 040500Z 02004MPS 7000 SKC 18/03 Q1023 NOSIG
ZGSZ,2003-01-04 06:00,ZGSZ 040600Z 06003MPS CAVOK 18/04 Q1022 NOSIG
ZGSZ,2003-01-04 07:00,ZGSZ 040700Z 01003MPS CAVOK 19/03 Q1022 NOSIG
ZGSZ,2003-01-04 08:00,ZGSZ 040800Z 36004MPS CAVOK 19/04 Q1022 NOSIG
ZGSZ,2003-01-04 09:00,ZGSZ 040900Z 36005MPS CAVOK 17/04 Q1023 NOSIG
ZGSZ,2003-01-04 10:00,ZGSZ 041000Z 02004MPS 8000 NSC 17/04 Q1023 NOSIG
ZGSZ,2003-01-04 11:00,ZGSZ 041100Z 09005MPS 6000 NSC 17/05 Q1023 NOSIG
ZGSZ,2003-01-04 12:00,ZGSZ 041200Z 02002MPS 6000 NSC 16/05 Q1024 NOSIG
ZGSZ,2003-01-04 13:00,ZGSZ 041300Z 01002MPS 5000 HZ NSC 16/05 Q1024 NOSIG
ZGSZ,2003-01-04 14:00,ZGSZ 041400Z 03002MPS 5000 HZ NSC 15/07 Q1025 NOSIG
ZGSZ,2003-01-04 15:00,ZGSZ 041500Z 08001MPS 5000 HZ NSC 15/07 Q1025 NOSIG
ZGSZ,2003-01-04 16:00,ZGSZ 041600Z 01002MPS 4000 HZ NSC 15/05 Q1025 NOSIG
ZGSZ,2003-01-04 17:00,ZGSZ 041700Z 03004MPS 4000 HZ NSC 15/04 Q1025 NOSIG
ZGSZ,2003-01-04 18:00,ZGSZ 041800Z 02003MPS 5000 HZ NSC 15/03 Q1025 NOSIG
ZGSZ,2003-01-04 19:00,ZGSZ 041900Z 02004MPS 5000 HZ NSC 14/04 Q1026 NOSIG
ZGSZ,2003-01-04 20:00,ZGSZ 042000Z 03003MPS 5000 HZ NSC 14/03 Q1026 NOSIG
ZGSZ,2003-01-04 21:00,ZGSZ 042100Z 08002MPS 6000 NSC 13/03 Q1026 NOSIG
ZGSZ,2003-01-04 22:00,ZGSZ 042200Z 04003MPS 6000 NSC 13/03 Q1026 NOSIG
ZGSZ,2003-01-04 23:00,ZGSZ 042300Z 03005MPS 6000 NSC 12/01 Q1027 NOSIG
ZGSZ,2003-01-05 00:00,ZGSZ 050000Z 04006MPS 8000 NSC 12/02 Q1028 NOSIG
ZGSZ,2003-01-05 01:00,ZGSZ 050100Z 02006MPS 7000 BKN046 12/02 Q1028 NOSIG
ZGSZ,2003-01-05 02:00,ZGSZ 050200Z 04005MPS 7000 NSC 13/02 Q1028 NOSIG
ZGSZ,2003-01-05 03:00,ZGSZ 050300Z 02004MPS 5000 HZ NSC 14/02 Q1028 NOSIG
ZGSZ,2003-01-05 04:00,ZGSZ 050400Z 02004MPS 5000 HZ BKN046 15/02 Q1027 NOSIG
ZGSZ,2003-01-05 05:00,ZGSZ 050500Z 02004MPS 6000 NSC 16/02 Q1026 NOSIG
ZGSZ,2003-01-05 06:00,ZGSZ 050600Z 01004MPS 6000 NSC 17/02 Q1024 NOSIG
ZGSZ,2003-01-05 07:00,ZGSZ 050700Z 03004MPS 7000 NSC 17/03 Q1024 NOSIG
ZGSZ,2003-01-05 08:00,ZGSZ 050800Z 04004MPS 6000 BKN046 17/03 Q1024 NOSIG
ZGSZ,2003-01-05 09:00,ZGSZ 050900Z 04004MPS 6000 NSC 17/03 Q1024 NOSIG
ZGSZ,2003-01-05 10:00,ZGSZ 051000Z 02003MPS 5000 NSC 15/03 Q1025 NOSIG
ZGSZ,2003-01-05 11:00,ZGSZ 051100Z 05002MPS 4500 HZ NSC 14/04 Q1025 NOSIG
ZGSZ,2003-01-05 12:00,ZGSZ 051200Z 07003MPS 4500 HZ NSC 13/03 Q1026 NOSIG
ZGSZ,2003-01-05 13:00,ZGSZ 051300Z 02003MPS 3500 HZ NSC 14/04 Q1027 NOSIG
ZGSZ,2003-01-05 14:00,ZGSZ 051400Z 06003MPS 3200 HZ BKN043 14/04 Q1027 NOSIG
ZGSZ,2003-01-05 15:00,ZGSZ 051500Z 02003MPS 3200 HZ BKN043 14/04 Q1027 NOSIG
ZGSZ,2003-01-05 16:00,ZGSZ 051600Z 03006MPS 4200 HZ NSC 13/03 Q1026 NOSIG
ZGSZ,2003-01-05 17:00,ZGSZ 051700Z 03003MPS 4200 HZ NSC 13/03 Q1026 NOSIG
ZGSZ,2003-01-05 18:00,ZGSZ 051800Z 05003MPS 5000 NSC 12/02 Q1024 NOSIG
ZGSZ,2003-01-05 19:00,ZGSZ 051900Z 02004MPS 5000 HZ NSC 12/02 Q1024 NOSIG
ZGSZ,2003-01-05 20:00,ZGSZ 052000Z 02004MPS 5000 HZ NSC 12/02 Q1023 NOSIG
ZGSZ,2003-01-05 21:00,ZGSZ 052100Z 03005MPS 5000 NSC 12/01 Q1023 NOSIG
ZGSZ,2003-01-05 22:00,ZGSZ 052200Z 02006MPS 5000 NSC 11/01 Q1022 NOSIG
ZGSZ,2003-01-05 23:00,ZGSZ 052300Z 02006MPS 6000 NSC 10/01 Q1023 NOSIG
ZGSZ,2003-01-06 00:00,ZGSZ 060000Z 02006MPS 7000 NSC 09/02 Q1023 NOSIG
ZGSZ,2003-01-06 01:00,ZGSZ 060100Z 02005MPS 7000 SCT026 BKN060 09/01 Q1023 NOSIG
ZGSZ,2003-01-06 02:00,ZGSZ 060200Z 02004MPS 5000 NSC 10/01 Q1023 NOSIG
ZGSZ,2003-01-06 03:00,ZGSZ 060300Z 01005MPS 4000 -RA HZ OVC043 09/03 Q1023 NOSIG
ZGSZ,2003-01-06 04:00,ZGSZ 060400Z 02006MPS 2800 -RA BR OVC036 07/04 Q1022 NOSIG
ZGSZ,2003-01-06 05:00,ZGSZ 060500Z 35007MPS 3500 BR BKN023 OVC043 07/04 Q1023 NOSIG
ZGSZ,2003-01-06 06:00,ZGSZ 060600Z 35008MPS 2100 R33/0550N -RA BR BKN006 SCT010 OVC030 06/04 Q1023 NOSIG
ZGSZ,2003-01-06 07:00,ZGSZ 060700Z 35008MPS 3800 -RA BR BKN010 OVC033 06/03 Q1023 NOSIG
ZGSZ,2003-01-06 08:00,ZGSZ 060800Z 36006MPS 6000 FEW010 OVC033 06/03 Q1022 NOSIG
ZGSZ,2003-01-06 09:00,ZGSZ 060900Z 02006MPS 6000 -RA SCT010 OVC033 06/03 Q1023 NOSIG
ZGSZ,2003-01-06 10:00,ZGSZ 061000Z 02003MPS 4500 -RA BR SCT010 OVC033 06/04 Q1023 NOSIG
ZGSZ,2003-01-06 11:00,ZGSZ 061100Z 03002MPS 4000 -RA BR SCT010 OVC033 07/04 Q1023 NOSIG
ZGSZ,2003-01-06 12:00,ZGSZ 061200Z 06005MPS 4000 -RA BR SCT008 OVC033 07/05 Q1023 NOSIG
ZGSZ,2003-01-06 13:00,ZGSZ 061300Z 06005G10MPS 5000 -RA BR SCT008 OVC033 08/05 Q1023 NOSIG
ZGSZ,2003-01-06 14:00,ZGSZ 061400Z 35006MPS 6000 -RA SCT012 OVC040 08/05 Q1023 NOSIG
ZGSZ,2003-01-06 15:00,ZGSZ 061500Z 01006MPS 6000 -RA SCT012 OVC040 07/05 Q1023 NOSIG
ZGSZ,2003-01-06 16:00,ZGSZ 061600Z 01007MPS 6000 -RA SCT012 OVC040 07/05 Q1023 NOSIG
ZGSZ,2003-01-06 17:00,ZGSZ 061700Z 35007MPS 5000 -RA BR SCT012 OVC040 07/04 Q1023 NOSIG
ZGSZ,2003-01-06 18:00,ZGSZ 061800Z 35005MPS 4000 BR SCT013 OVC040 06/04 Q1023 NOSIG
ZGSZ,2003-01-06 19:00,ZGSZ 061900Z 35005MPS 4000 BR SCT013 OVC040 07/04 Q1023 NOSIG
ZGSZ,2003-01-06 20:00,ZGSZ 062000Z 35005MPS 4000 BR SCT013 OVC040 07/04 Q1023 NOSIG
ZGSZ,2003-01-06 21:00,ZGSZ 062100Z 35004MPS 4000 BR SCT013 OVC040 07/04 Q1023 NOSIG
ZGSZ,2003-01-06 22:00,ZGSZ 062200Z 35004MPS 9999 FEW015 OVC043 07/04 Q1023 NOSIG
ZGSZ,2003-01-06 23:00,ZGSZ 062300Z 35004MPS 9999 SCT013 OVC043 07/04 Q1024 NOSIG
ZGSZ,2003-01-07 00:00,ZGSZ 070000Z 01003MPS 9999 FEW016 OVC050 07/04 Q1024 NOSIG
ZGSZ,2003-01-07 01:00,ZGSZ 070100Z 01005MPS 9999 BKN030 BKN050 08/04 Q1025 NOSIG
ZGSZ,2003-01-07 02:00,ZGSZ 070200Z 01005MPS 9999 BKN030 SCT120 09/04 Q1025 NOSIG
ZGSZ,2003-01-07 03:00,ZGSZ 070300Z 02006MPS 9999 BKN030 09/04 Q1025 NOSIG
ZGSZ,2003-01-07 04:00,ZGSZ 070400Z 01006MPS 9999 FEW020 SCT030 11/04 Q1024 NOSIG
ZGSZ,2003-01-07 05:00,ZGSZ 070500Z 01007MPS 9999 SCT030 11/03 Q1023 NOSIG
ZGSZ,2003-01-07 06:00,ZGSZ 070600Z 36008MPS 9999 FEW030 12/03 Q1022 NOSIG
ZGSZ,2003-01-07 07:00,ZGSZ 070700Z 36007MPS CAVOK 12/03 Q1021 NOSIG
ZGSZ,2003-01-07 08:00,ZGSZ 070800Z 01007MPS CAVOK 12/03 Q1022 NOSIG
ZGSZ,2003-01-07 09:00,ZGSZ 070900Z 01006MPS CAVOK 12/03 Q1022 NOSIG
ZGSZ,2003-01-07 10:00,ZGSZ 071000Z 36005MPS CAVOK 11/03 Q1023 NOSIG
ZGSZ,2003-01-07 11:00,ZGSZ 071100Z 03003MPS CAVOK 10/03 Q1024 NOSIG
ZGSZ,2003-01-07 12:00,ZGSZ 071200Z 02003MPS 9000 SKC 10/03 Q1024 NOSIG
ZGSZ,2003-01-07 13:00,ZGSZ 071300Z 04003MPS 8000 SKC 09/02 Q1025 NOSIG
ZGSZ,2003-01-07 14:00,ZGSZ 071400Z 03006MPS 9000 SKC 08/02 Q1025 NOSIG
ZGSZ,2003-01-07 15:00,ZGSZ 071500Z 02006MPS CAVOK 07/01 Q1025 NOSIG
ZGSZ,2003-01-07 16:00,ZGSZ 071600Z 04004MPS 9999 FEW023 SCT060 07/02 Q1025 NOSIG
ZGSZ,2003-01-07 17:00,ZGSZ 071700Z 06004MPS 9999 FEW023 SCT043 06/02 Q1024 NOSIG
ZGSZ,2003-01-07 18:00,ZGSZ 071800Z 36003MPS 9999 FEW023 SCT043 06/02 Q1025 NOSIG
ZGSZ,2003-01-07 19:00,ZGSZ 071900Z 02004MPS 9999 FEW023 SCT043 07/02 Q1025 NOSIG
ZGSZ,2003-01-07 20:00,ZGSZ 072000Z 01004MPS 9999 FEW023 SCT043 06/02 Q1025 NOSIG
ZGSZ,2003-01-07 21:00,ZGSZ 072100Z AUTO 04008KT 5SM 06/03 RMK SLP255 T00620028 52003 IEM_DS3505
ZGSZ,2003-01-08 00:00,ZGSZ 080000Z 02004MPS 9999 BKN043 07/02 Q1026 NOSIG
ZGSZ,2003-01-08 01:00,ZGSZ 080100Z 02004MPS 7000 NSC 07/02 Q1026 NOSIG
ZGSZ,2003-01-08 02:00,ZGSZ 080200Z 02004MPS CAVOK 08/02 Q1026 NOSIG
ZGSZ,2003-01-08 03:00,ZGSZ 080300Z AUTO 04008KT 6SM 09/04 RMK SLP263 T00930035 57006 IEM_DS3505
ZGSZ,2003-01-08 04:00,ZGSZ 080400Z 36004MPS 8000 NSC 12/03 Q1025 NOSIG
ZGSZ,2003-01-08 05:00,ZGSZ 080500Z 01005MPS 8000 NSC 13/04 Q1023 NOSIG
ZGSZ,2003-01-08 07:00,ZGSZ 080700Z 05004MPS CAVOK 15/05 Q1021 NOSIG
ZGSZ,2003-01-08 08:00,ZGSZ 080800Z 07003MPS CAVOK 15/04 Q1021 NOSIG
ZGSZ,2003-01-08 09:00,ZGSZ 080900Z 01005MPS CAVOK 14/05 Q1021 NOSIG
ZGSZ,2003-01-08 10:00,ZGSZ 081000Z 02004MPS 6000 SKC 12/04 Q1021 NOSIG
ZGSZ,2003-01-08 11:00,ZGSZ 081100Z 06003MPS 6000 NSC 11/04 Q1022 NOSIG
ZGSZ,2003-01-08 12:00,ZGSZ 081200Z 03002MPS 5000 HZ NSC 10/04 Q1022 NOSIG
ZGSZ,2003-01-08 13:00,ZGSZ 081300Z 00000MPS 4000 BR NSC 09/04 Q1022 NOSIG
ZGSZ,2003-01-08 14:00,ZGSZ 081400Z 00000MPS 4500 HZ SKC 09/04 Q1022 NOSIG
ZGSZ,2003-01-08 15:00,ZGSZ 081500Z 33001MPS 6000 NSC 09/04 Q1022 NOSIG
ZGSZ,2003-01-08 16:00,ZGSZ 081600Z 01004MPS 6000 NSC 10/05 Q1022 NOSIG
ZGSZ,2003-01-08 17:00,ZGSZ 081700Z 36003MPS 5000 BR NSC 10/05 Q1023 NOSIG
ZGSZ,2003-01-08 18:00,ZGSZ 081800Z 02003MPS 5000 HZ NSC 10/04 Q1023 NOSIG
ZGSZ,2003-01-08 19:00,ZGSZ 081900Z 02003MPS 6000 NSC 09/04 Q1022 NOSIG
ZGSZ,2003-01-08 20:00,ZGSZ 082000Z 04003MPS 6000 NSC 09/04 Q1022 NOSIG
ZGSZ,2003-01-08 21:00,ZGSZ 082100Z 00000MPS 6000 NSC 09/04 Q1022 NOSIG
ZGSZ,2003-01-08 22:00,ZGSZ 082200Z 01004MPS CAVOK 08/04 Q1022 NOSIG
ZGSZ,2003-01-08 23:00,ZGSZ 082300Z 36002MPS CAVOK 08/04 Q1023 NOSIG
ZGSZ,2003-01-09 00:00,ZGSZ 090000Z 04001MPS 7000 NSC 09/04 Q1023 NOSIG
ZGSZ,2003-01-09 01:00,ZGSZ 090100Z 36001MPS 6000 NSC 10/04 Q1023 NOSIG
ZGSZ,2003-01-09 02:00,ZGSZ 090200Z 36003MPS 6000 SKC 12/04 Q1023 NOSIG
ZGSZ,2003-01-09 03:00,ZGSZ 090300Z 36004MPS 7000 SKC 14/05 Q1023 NOSIG
ZGSZ,2003-01-09 04:00,ZGSZ 090400Z 35004MPS 7000 SKC 16/06 Q1022 NOSIG
ZGSZ,2003-01-09 05:00,ZGSZ 090500Z 30004MPS 7000 SKC 16/08 Q1020 NOSIG
ZGSZ,2003-01-09 06:00,ZGSZ 090600Z 31005MPS 7000 SKC 16/08 Q1019 NOSIG
ZGSZ,2003-01-09 07:00,ZGSZ 090700Z 31005MPS CAVOK 17/08 Q1019 NOSIG
ZGSZ,2003-01-09 08:00,ZGSZ 090800Z 31003MPS CAVOK 17/08 Q1019 NOSIG
ZGSZ,2003-01-09 09:00,ZGSZ 090900Z 30003MPS 6000 SKC 16/08 Q1019 NOSIG
ZGSZ,2003-01-09 10:00,ZGSZ 091000Z 31005MPS 3500 HZ SKC 15/09 Q1019 NOSIG
ZGSZ,2003-01-09 11:00,ZGSZ 091100Z 34004MPS 3500 HZ SKC 14/08 Q1020 NOSIG
ZGSZ,2003-01-09 12:00,ZGSZ 091200Z 35003MPS 2800 HZ SKC 13/07 Q1020 NOSIG
ZGSZ,2003-01-09 13:00,ZGSZ 091300Z 36002MPS 2500 HZ SKC 13/07 Q1021 NOSIG
ZGSZ,2003-01-09 14:00,ZGSZ 091400Z 36002MPS 2800 BR SKC 12/07 Q1021 NOSIG
ZGSZ,2003-01-09 15:00,ZGSZ 091500Z 36002MPS 3000 BR SKC 12/07 Q1021 NOSIG
ZGSZ,2003-01-09 16:00,ZGSZ 091600Z 35004MPS 2800 HZ SKC 12/06 Q1021 NOSIG
ZGSZ,2003-01-09 17:00,ZGSZ 091700Z 34005MPS 3000 BR SKC 12/06 Q1021 NOSIG
ZGSZ,2003-01-09 18:00,ZGSZ 091800Z 34006MPS 3000 HZ SKC 11/06 Q1021 NOSIG
ZGSZ,2003-01-09 19:00,ZGSZ 091900Z 36003MPS 3000 BR SKC 11/06 Q1021 NOSIG
ZGSZ,2003-01-09 20:00,ZGSZ 092000Z 36003MPS 3000 BR SKC 10/05 Q1021 NOSIG
ZGSZ,2003-01-09 21:00,ZGSZ 092100Z 36003MPS 4000 HZ SKC 10/05 Q1021 NOSIG
ZGSZ,2003-01-09 22:00,ZGSZ 092200Z 02001MPS 3500 BR SKC 10/05 Q1021 NOSIG
ZGSZ,2003-01-09 23:00,ZGSZ 092300Z 00000MPS 2800 BR SKC 09/05 Q1022 NOSIG
ZGSZ,2003-01-10 00:00,ZGSZ 100000Z 36002MPS 3000 BR SKC 09/06 Q1022 NOSIG
ZGSZ,2003-01-10 01:00,ZGSZ 100100Z 03002MPS 5000 HZ SKC 11/06 Q1022 NOSIG
ZGSZ,2003-01-10 02:00,ZGSZ 100200Z 02004MPS 5000 HZ SKC 13/05 Q1023 NOSIG
ZGSZ,2003-01-10 03:00,ZGSZ 100300Z 36004MPS 5000 HZ SKC 14/05 Q1022 NOSIG
ZGSZ,2003-01-10 04:00,ZGSZ 100400Z 36004MPS 5000 HZ SKC 15/05 Q1021 NOSIG
ZGSZ,2003-01-10 05:00,ZGSZ 100500Z 01004MPS 7000 SKC 16/05 Q1020 NOSIG
ZGSZ,2003-01-10 06:00,ZGSZ 100600Z 01004MPS 7000 SKC 17/05 Q1019 NOSIG
ZGSZ,2003-01-10 07:00,ZGSZ 100700Z 32006MPS 7000 SKC 16/07 Q1018 NOSIG
ZGSZ,2003-01-10 08:00,ZGSZ 100800Z 33005MPS 8000 SKC 18/05 Q1018 NOSIG
ZGSZ,2003-01-10 09:00,ZGSZ 100900Z 01005MPS 8000 SKC 17/05 Q1019 NOSIG
ZGSZ,2003-01-10 10:00,ZGSZ 101000Z 02004MPS 8000 NSC 16/05 Q1019 NOSIG
ZGSZ,2003-01-10 11:00,ZGSZ 101100Z 35003MPS 4500 HZ SKC 14/06 Q1020 NOSIG
ZGSZ,2003-01-10 12:00,ZGSZ 101200Z 35004MPS 2000 HZ SKC 14/08 Q1020 NOSIG
ZGSZ,2003-01-10 13:00,ZGSZ 101300Z 34003MPS 2000 BR SKC 12/07 Q1021 NOSIG
ZGSZ,2003-01-10 14:00,ZGSZ 101400Z 02003MPS 2500 HZ SKC 12/05 Q1021 NOSIG
ZGSZ,2003-01-10 15:00,ZGSZ 101500Z 02004MPS 6000 SKC 12/05 Q1021 NOSIG
ZGSZ,2003-01-10 16:00,ZGSZ 101600Z 02004MPS 8000 SKC 11/05 Q1022 NOSIG
ZGSZ,2003-01-10 17:00,ZGSZ 101700Z 02004MPS 8000 SKC 11/03 Q1022 NOSIG
ZGSZ,2003-01-10 18:00,ZGSZ 101800Z 03004MPS 8000 SKC 11/01 Q1022 NOSIG
ZGSZ,2003-01-10 19:00,ZGSZ 101900Z 02004MPS 8000 SKC 10/01 Q1022 NOSIG
ZGSZ,2003-01-10 20:00,ZGSZ 102000Z 03003MPS 8000 SKC 10/01 Q1022 NOSIG
ZGSZ,2003-01-10 21:00,ZGSZ 102100Z 02004MPS CAVOK 09/01 Q1022 NOSIG
ZGSZ,2003-01-10 22:00,ZGSZ 102200Z 06004MPS CAVOK 08/01 Q1023 NOSIG
ZGSZ,2003-01-10 23:00,ZGSZ 102300Z 08004MPS CAVOK 09/01 Q1023 NOSIG
ZGSZ,2003-01-11 00:00,ZGSZ 110000Z 07003MPS CAVOK 09/01 Q1024 NOSIG
ZGSZ,2003-01-11 01:00,ZGSZ 110100Z 04004MPS 6000 NSC 11/01 Q1024 NOSIG
ZGSZ,2003-01-11 02:00,ZGSZ 110200Z 02004MPS 7000 NSC 13/00 Q1025 NOSIG
ZGSZ,2003-01-11 03:00,ZGSZ 110300Z 01005MPS 6000 NSC 15/01 Q1024 NOSIG
ZGSZ,2003-01-11 04:00,ZGSZ 110400Z 36005MPS 6000 NSC 15/02 Q1023 NOSIG
ZGSZ,2003-01-11 05:00,ZGSZ 110500Z 36005MPS 5000 HZ NSC 16/01 Q1022 NOSIG
ZGSZ,2003-01-11 06:00,ZGSZ 110600Z 36005MPS 6000 NSC 17/02 Q1021 NOSIG
ZGSZ,2003-01-11 07:00,ZGSZ 110700Z 01004MPS 7000 NSC 18/01 Q1020 NOSIG
ZGSZ,2003-01-11 08:00,ZGSZ 110800Z 30003MPS 8000 NSC 17/05 Q1020 NOSIG
ZGSZ,2003-01-11 09:00,ZGSZ 110900Z 31004MPS 8000 NSC 16/07 Q1020 NOSIG
ZGSZ,2003-01-11 10:00,ZGSZ 111000Z 34002MPS 4800 HZ NSC 14/08 Q1021 NOSIG
ZGSZ,2003-01-11 11:00,ZGSZ 111100Z 02001MPS 3200 HZ NSC 14/05 Q1021 NOSIG
ZGSZ,2003-01-11 12:00,ZGSZ 111200Z 07001MPS 2800 HZ SKC 13/04 Q1022 NOSIG
ZGSZ,2003-01-11 13:00,ZGSZ 111300Z 08002MPS 2500 HZ SKC 11/04 Q1022 NOSIG
ZGSZ,2003-01-11 14:00,ZGSZ 111400Z 10002MPS 2300 HZ SKC 11/04 Q1022 NOSIG
ZGSZ,2003-01-11 15:00,ZGSZ 111500Z 08001MPS 2200 BR SKC 10/07 Q1022 NOSIG
ZGSZ,2003-01-11 16:00,ZGSZ 111600Z 05001MPS 2500 HZ SKC 10/03 Q1022 NOSIG
ZGSZ,2003-01-11 17:00,ZGSZ 111700Z 01001MPS 3000 HZ SKC 11/04 Q1023 NOSIG
ZGSZ,2003-01-11 18:00,ZGSZ 111800Z 04002MPS 4800 HZ SKC 09/03 Q1022 NOSIG
ZGSZ,2003-01-11 19:00,ZGSZ 111900Z 01002MPS 4800 HZ SKC 09/03 Q1022 NOSIG
ZGSZ,2003-01-11 20:00,ZGSZ 112000Z 02001MPS 4500 HZ SKC 10/01 Q1022 NOSIG
ZGSZ,2003-01-11 21:00,ZGSZ 112100Z 26001MPS 6000 SKC 10/00 Q1022 NOSIG
ZGSZ,2003-01-11 22:00,ZGSZ 112200Z 36002MPS 6000 SKC 09/02 Q1022 NOSIG
ZGSZ,2003-01-11 23:00,ZGSZ 112300Z 00000MPS 6000 NSC 09/02 Q1023 NOSIG
ZGSZ,2003-01-12 00:00,ZGSZ 120000Z 00000MPS 5000 HZ NSC 09/02 Q1023 NOSIG
ZGSZ,2003-01-12 01:00,ZGSZ 120100Z 02002MPS 4000 HZ SKC 12/01 Q1024 NOSIG
ZGSZ,2003-01-12 02:00,ZGSZ 120200Z 02002MPS 5000 HZ SKC 14/M00 Q1024 NOSIG
ZGSZ,2003-01-12 03:00,ZGSZ 120300Z 00000MPS 5000 HZ SKC 16/01 Q1024 NOSIG
ZGSZ,2003-01-12 04:00,ZGSZ 120400Z 23002MPS 5000 HZ SKC 17/01 Q1023 NOSIG
ZGSZ,2003-01-12 05:00,ZGSZ 120500Z 30004MPS 6000 SKC 18/01 Q1022 NOSIG
ZGSZ,2003-01-12 06:00,ZGSZ 120600Z 29005MPS 5000 HZ SKC 17/05 Q1020 NOSIG
ZGSZ,2003-01-12 07:00,ZGSZ 120700Z 29004MPS 6000 SKC 18/05 Q1020 NOSIG
ZGSZ,2003-01-12 08:00,ZGSZ 120800Z 31004MPS 6000 NSC 18/04 Q1019 NOSIG
ZGSZ,2003-01-12 09:00,ZGSZ 120900Z 32002MPS 6000 SKC 17/05 Q1020 NOSIG
ZGSZ,2003-01-12 10:00,ZGSZ 121000Z 33002MPS 8000 SKC 16/05 Q1020 NOSIG
ZGSZ,2003-01-12 11:00,ZGSZ 121100Z 34003MPS 7000 SKC 15/06 Q1020 NOSIG
ZGSZ,2003-01-12 12:00,ZGSZ 121200Z 35002MPS 6000 SKC 13/05 Q1021 NOSIG
ZGSZ,2003-01-12 13:00,ZGSZ 121300Z 12002MPS 3000 HZ SKC 12/05 Q1021 NOSIG
ZGSZ,2003-01-12 14:00,ZGSZ 121400Z 10001MPS 2000 HZ SKC 12/04 Q1021 NOSIG
ZGSZ,2003-01-12 15:00,ZGSZ 121500Z 11001MPS 2000 HZ SKC 11/05 Q1021 NOSIG
ZGSZ,2003-01-12 16:00,ZGSZ 121600Z 11002MPS 1900 HZ SKC 11/04 Q1021 NOSIG
ZGSZ,2003-01-12 17:00,ZGSZ 121700Z 11002MPS 1800 BR SKC 09/05 Q1021 NOSIG
ZGSZ,2003-01-12 18:00,ZGSZ 121800Z 09002MPS 2300 BR SKC 09/04 Q1021 NOSIG
ZGSZ,2003-01-12 19:00,ZGSZ 121900Z 08001MPS 2100 BR SKC 09/04 Q1020 NOSIG
ZGSZ,2003-01-12 20:00,ZGSZ 122000Z 00000MPS 2100 BR SKC 09/04 Q1020 NOSIG
ZGSZ,2003-01-12 21:00,ZGSZ 122100Z 07001MPS 2100 BR SKC 09/05 Q1020 NOSIG
ZGSZ,2003-01-12 22:00,ZGSZ 122200Z 00000MPS 2100 BR SKC 08/04 Q1020 NOSIG
ZGSZ,2003-01-12 23:00,ZGSZ 122300Z 10001MPS 2000 BR SKC 08/05 Q1021 NOSIG
ZGSZ,2003-01-13 00:00,ZGSZ 130000Z 00000MPS 1700 BR SKC 10/07 Q1021 NOSIG
ZGSZ,2003-01-13 01:00,ZGSZ 130100Z 01002MPS 1700 BR SKC 12/07 Q1022 NOSIG
ZGSZ,2003-01-13 02:00,ZGSZ 130200Z 01002MPS 1900 HZ SKC 14/07 Q1022 NOSIG
ZGSZ,2003-01-13 03:00,ZGSZ 130300Z 36002MPS 2000 HZ SKC 17/06 Q1021 NOSIG
ZGSZ,2003-01-13 04:00,ZGSZ 130400Z 35002MPS 2400 HZ SKC 19/04 Q1020 NOSIG
ZGSZ,2003-01-13 05:00,ZGSZ 130500Z 31004MPS 2200 HZ SKC 20/08 Q1019 NOSIG
ZGSZ,2003-01-13 06:00,ZGSZ 130600Z 28005MPS 2400 HZ SKC 19/08 Q1018 NOSIG
ZGSZ,2003-01-13 07:00,ZGSZ 130700Z 28004MPS 2600 HZ SKC 19/07 Q1017 NOSIG
ZGSZ,2003-01-13 08:00,ZGSZ 130800Z 28004MPS 2800 HZ SKC 19/06 Q1017 NOSIG
ZGSZ,2003-01-13 09:00,ZGSZ 130900Z 29003MPS 6000 NSC 19/06 Q1017 NOSIG
ZGSZ,2003-01-13 10:00,ZGSZ 131000Z 31001MPS 5000 HZ NSC 17/06 Q1018 NOSIG
ZGSZ,2003-01-13 11:00,ZGSZ 131100Z 36001MPS 3000 HZ SKC 16/05 Q1018 NOSIG
ZGSZ,2003-01-13 12:00,ZGSZ 131200Z 00000MPS 2000 HZ SKC 14/05 Q1019 NOSIG
ZGSZ,2003-01-13 13:00,ZGSZ 131300Z 14002MPS 1300 R15/P1500N BR SKC 12/08 Q1020 NOSIG
ZGSZ,2003-01-13 14:00,ZGSZ 131400Z 13002MPS 2000 HZ SKC 14/07 Q1020 NOSIG
ZGSZ,2003-01-13 15:00,ZGSZ 131500Z 13001MPS 2600 HZ SKC 13/07 Q1019 NOSIG
ZGSZ,2003-01-13 16:00,ZGSZ 131600Z 11001MPS 2200 HZ SKC 13/06 Q1019 NOSIG
ZGSZ,2003-01-13 17:00,ZGSZ 131700Z 04002MPS 2000 BR SKC 11/06 Q1020 NOSIG
ZGSZ,2003-01-13 18:00,ZGSZ 131800Z 36002MPS 2000 HZ SKC 11/05 Q1020 NOSIG
ZGSZ,2003-01-13 19:00,ZGSZ 131900Z 13001MPS 2000 HZ SKC 11/05 Q1019 NOSIG
ZGSZ,2003-01-13 20:00,ZGSZ 132000Z 31001MPS 2000 BR SKC 11/07 Q1020 NOSIG
ZGSZ,2003-01-13 21:00,ZGSZ 132100Z 11001MPS 2000 BR SKC 10/05 Q1020 NOSIG
ZGSZ,2003-01-13 22:00,ZGSZ 132200Z 01001MPS 2000 BR SKC 10/06 Q1020 NOSIG
ZGSZ,2003-01-13 23:00,ZGSZ 132300Z 00000MPS 1800 BR SKC 09/05 Q1021 NOSIG
ZGSZ,2003-01-14 00:00,ZGSZ 140000Z 12001MPS 1700 BR NSC 10/06 Q1022 NOSIG
ZGSZ,2003-01-14 01:00,ZGSZ 140100Z 00000MPS 1600 R15/1400N BR NSC 13/08 Q1022 NOSIG
ZGSZ,2003-01-14 02:00,ZGSZ 140200Z 27002MPS 1600 HZ NSC 16/08 Q1022 NOSIG
ZGSZ,2003-01-14 03:00,ZGSZ 140300Z 36004MPS 1900 HZ SKC 19/05 Q1022 NOSIG
ZGSZ,2003-01-14 04:00,ZGSZ 140400Z 36003MPS 4500 HZ NSC 20/05 Q1021 NOSIG
ZGSZ,2003-01-14 05:00,ZGSZ 140500Z 32001MPS 7000 NSC 22/05 Q1019 NOSIG
ZGSZ,2003-01-14 06:00,ZGSZ 140600Z 28004MPS 5000 NSC 21/05 Q1019 NOSIG
ZGSZ,2003-01-14 07:00,ZGSZ 140700Z 27003MPS 6000 NSC 20/08 Q1019 NOSIG
ZGSZ,2003-01-14 08:00,ZGSZ 140800Z 26002MPS 6000 SKC 19/09 Q1019 NOSIG
ZGSZ,2003-01-14 09:00,ZGSZ 140900Z 29001MPS 5000 HZ SKC 19/07 Q1019 NOSIG
ZGSZ,2003-01-14 10:00,ZGSZ 141000Z 03001MPS 4000 HZ NSC 19/05 Q1020 NOSIG
ZGSZ,2003-01-14 11:00,ZGSZ 141100Z 15002MPS 3500 HZ NSC 16/06 Q1020 NOSIG
ZGSZ,2003-01-14 12:00,ZGSZ 141200Z 14002MPS 2300 HZ SKC 15/05 Q1021 NOSIG
ZGSZ,2003-01-14 13:00,ZGSZ 141300Z 13002MPS 2000 HZ SKC 15/05 Q1021 NOSIG
ZGSZ,2003-01-14 14:00,ZGSZ 141400Z 12002MPS 2000 HZ SKC 14/06 Q1022 NOSIG
ZGSZ,2003-01-14 15:00,ZGSZ 141500Z 13003MPS 2600 HZ SKC 14/05 Q1022 NOSIG
ZGSZ,2003-01-14 16:00,ZGSZ 141600Z 11002MPS 3300 HZ SKC 15/04 Q1022 NOSIG
ZGSZ,2003-01-14 17:00,ZGSZ 141700Z 01001MPS 3000 HZ SKC 14/05 Q1022 NOSIG
ZGSZ,2003-01-14 18:00,ZGSZ 141800Z 15001MPS 3000 HZ SKC 13/05 Q1022 NOSIG
ZGSZ,2003-01-14 19:00,ZGSZ 141900Z 01001MPS 2100 HZ SKC 11/06 Q1022 NOSIG
ZGSZ,2003-01-14 20:00,ZGSZ 142000Z 00000MPS 2100 BR SKC 11/06 Q1022 NOSIG
ZGSZ,2003-01-14 21:00,ZGSZ 142100Z 00000MPS 2300 BR SKC 10/06 Q1022 NOSIG
ZGSZ,2003-01-14 22:00,ZGSZ 142200Z 00000MPS 2300 BR SKC 10/06 Q1022 NOSIG
ZGSZ,2003-01-14 23:00,ZGSZ 142300Z 00000MPS 2200 BR SKC 10/06 Q1023 NOSIG
ZGSZ,2003-01-15 00:00,ZGSZ 150000Z 36001MPS 2100 BR SKC 11/08 Q1024 NOSIG
ZGSZ,2003-01-15 01:00,ZGSZ 150100Z 05002MPS 2400 HZ SKC 15/06 Q1024 NOSIG
ZGSZ,2003-01-15 02:00,ZGSZ 150200Z 13003MPS 2400 HZ SKC 17/06 Q1025 NOSIG
ZGSZ,2003-01-15 03:00,ZGSZ 150300Z 09002MPS 4000 HZ SKC 18/03 Q1025 NOSIG
ZGSZ,2003-01-15 04:00,ZGSZ 150400Z 22003MPS 5000 HZ SKC 19/06 Q1023 NOSIG
ZGSZ,2003-01-15 05:00,ZGSZ 150500Z 27004MPS 6000 SKC 18/08 Q1023 NOSIG
ZGSZ,2003-01-15 06:00,ZGSZ 150600Z 30003MPS 7000 SKC 19/09 Q1022 NOSIG
ZGSZ,2003-01-15 07:00,ZGSZ 150700Z 24003MPS 7000 SKC 20/07 Q1022 NOSIG
ZGSZ,2003-01-15 08:00,ZGSZ 150800Z 20003MPS CAVOK 19/07 Q1021 NOSIG
ZGSZ,2003-01-15 09:00,ZGSZ 150900Z 18003MPS CAVOK 18/09 Q1022 NOSIG
ZGSZ,2003-01-15 10:00,ZGSZ 151000Z 18003MPS CAVOK 16/10 Q1022 NOSIG
ZGSZ,2003-01-15 11:00,ZGSZ 151100Z 15001MPS CAVOK 15/10 Q1022 NOSIG
ZGSZ,2003-01-15 12:00,ZGSZ 151200Z 12002MPS CAVOK 14/10 Q1023 NOSIG
ZGSZ,2003-01-15 13:00,ZGSZ 151300Z 11003MPS 6000 SKC 15/09 Q1023 NOSIG
ZGSZ,2003-01-15 14:00,ZGSZ 151400Z 11003MPS 2800 BR SKC 15/09 Q1023 NOSIG
ZGSZ,2003-01-15 15:00,ZGSZ 151500Z 11003MPS 4000 BR NSC 14/09 Q1023 NOSIG
ZGSZ,2003-01-15 16:00,ZGSZ 151600Z 13003MPS 3000 BR SKC 13/09 Q1024 NOSIG
ZGSZ,2003-01-15 17:00,ZGSZ 151700Z 11002MPS 2500 BR NSC 13/10 Q1024 NOSIG
ZGSZ,2003-01-15 18:00,ZGSZ 151800Z 11003MPS 2500 BR NSC 13/10 Q1023 NOSIG
ZGSZ,2003-01-15 19:00,ZGSZ 151900Z 10002MPS 2500 BR NSC 13/09 Q1023 NOSIG
ZGSZ,2003-01-15 20:00,ZGSZ 152000Z 10002MPS 2500 BR NSC 13/10 Q1023 NOSIG
ZGSZ,2003-01-15 21:00,ZGSZ 152100Z 11003MPS 2000 BR NSC 13/10 Q1022 NOSIG
ZGSZ,2003-01-15 22:00,ZGSZ 152200Z 10002MPS 2200 BR NSC 12/09 Q1023 NOSIG
ZGSZ,2003-01-15 23:00,ZGSZ 152300Z 34002MPS 2500 BR NSC 12/09 Q1023 NOSIG
ZGSZ,2003-01-16 00:00,ZGSZ 160000Z 00000MPS 2400 BR NSC 13/10 Q1024 NOSIG
ZGSZ,2003-01-16 01:00,ZGSZ 160100Z 16001MPS 2500 BR NSC 14/10 Q1024 NOSIG
ZGSZ,2003-01-16 02:00,ZGSZ 160200Z 21002MPS 3000 HZ NSC 16/09 Q1025 NOSIG
ZGSZ,2003-01-16 03:00,ZGSZ 160300Z 29003MPS 2700 HZ NSC 17/10 Q1024 NOSIG
ZGSZ,2003-01-16 04:00,ZGSZ 160400Z 28002MPS 3000 HZ NSC 17/10 Q1023 NOSIG
ZGSZ,2003-01-16 05:00,ZGSZ 160500Z 26002MPS 2800 HZ NSC 18/10 Q1022 NOSIG
ZGSZ,2003-01-16 06:00,ZGSZ 160600Z 24003MPS 4000 HZ NSC 18/10 Q1021 NOSIG
ZGSZ,2003-01-16 07:00,ZGSZ 160700Z 21003MPS 5000 HZ SKC 18/10 Q1020 NOSIG
ZGSZ,2003-01-16 08:00,ZGSZ 160800Z 20002MPS 6000 NSC 18/11 Q1021 NOSIG
ZGSZ,2003-01-16 09:00,ZGSZ 160900Z 20002MPS 6000 NSC 17/12 Q1020 NOSIG
ZGSZ,2003-01-16 10:00,ZGSZ 161000Z 17002MPS 7000 NSC 16/11 Q1021 NOSIG
ZGSZ,2003-01-16 11:00,ZGSZ 161100Z 15002MPS 7000 NSC 15/11 Q1021 NOSIG
ZGSZ,2003-01-16 12:00,ZGSZ 161200Z 15003MPS 7000 SKC 15/10 Q1021 NOSIG
ZGSZ,2003-01-16 13:00,ZGSZ 161300Z 14002MPS 3000 BR SKC 16/10 Q1022 NOSIG
ZGSZ,2003-01-16 14:00,ZGSZ 161400Z 19001MPS 2700 BR SKC 14/11 Q1022 NOSIG
ZGSZ,2003-01-16 15:00,ZGSZ 161500Z 14001MPS 2500 BR SKC 13/10 Q1022 NOSIG
ZGSZ,2003-01-16 18:00,ZGSZ 161800Z 14001MPS 2500 BR SKC 12/09 Q1022 NOSIG
ZGSZ,2003-01-16 19:00,ZGSZ 161900Z 00000MPS 2500 BR SKC 12/09 Q1021 NOSIG
ZGSZ,2003-01-16 20:00,ZGSZ 162000Z 36002MPS 2500 BR SKC 13/10 Q1021 NOSIG
ZGSZ,2003-01-16 21:00,ZGSZ 162100Z 00000MPS 2500 BR SKC 12/09 Q1021 NOSIG
ZGSZ,2003-01-16 22:00,ZGSZ 162200Z 36001MPS 2500 BR SKC 11/09 Q1021 NOSIG
ZGSZ,2003-01-16 23:00,ZGSZ 162300Z 00000MPS 2000 BR SKC 11/09 Q1022 NOSIG
ZGSZ,2003-01-17 00:00,ZGSZ 170000Z 00000MPS 1600 BR SKC 11/09 Q1022 NOSIG
ZGSZ,2003-01-17 01:00,ZGSZ 170100Z 00000MPS 1800 BR SKC 15/11 Q1023 NOSIG
ZGSZ,2003-01-17 02:00,ZGSZ 170200Z 35001MPS 2000 HZ SKC 18/10 Q1024 NOSIG
ZGSZ,2003-01-17 03:00,ZGSZ 170300Z 23002MPS 1400 R15/1200N HZ SKC 18/12 Q1023 NOSIG
ZGSZ,2003-01-17 04:00,ZGSZ 170400Z 23003MPS 1600 R15/1400N HZ SKC 19/13 Q1022 NOSIG
ZGSZ,2003-01-17 05:00,ZGSZ 170500Z 25004MPS 1600 R15/1400N HZ SKC 20/13 Q1022 NOSIG
ZGSZ,2003-01-17 06:00,ZGSZ 170600Z 23002MPS 2600 HZ SKC 20/11 Q1021 NOSIG
ZGSZ,2003-01-17 07:00,ZGSZ 170700Z 24002MPS 2500 HZ SKC 21/11 Q1020 NOSIG
ZGSZ,2003-01-17 08:00,ZGSZ 170800Z 20002MPS 3000 HZ SKC 20/14 Q1020 NOSIG
ZGSZ,2003-01-17 09:00,ZGSZ 170900Z 18002MPS 28?0 HZ SKC 20/11 Q1020 NOSIG
ZGSZ,2003-01-17 10:00,ZGSZ 171000Z 17002MPS 2200 HZ SKC 18/12 Q1020 NOSIG
ZGSZ,2003-01-17 11:00,ZGSZ 171100Z 14002MPS 2200 BR NSC 16/11 Q1021 NOSIG
ZGSZ,2003-01-17 12:00,ZGSZ 171200Z 10001MPS 2200 BR SKC 16/11 Q1021 NOSIG
ZGSZ,2003-01-17 13:00,ZGSZ 171300Z 00000MPS 2000 BR SKC 16/12 Q1021 NOSIG
ZGSZ,2003-01-17 14:00,ZGSZ 171400Z 00000MPS 2000 BR SKC 16/12 Q1022 NOSIG
ZGSZ,2003-01-17 15:00,ZGSZ 171500Z 35001MPS 1800 BR SKC 15/11 Q1022 NOSIG
ZGSZ,2003-01-17 16:00,ZGSZ 171600Z 00000MPS 1800 HZ SKC 15/09 Q1022 NOSIG
ZGSZ,2003-01-17 17:00,ZGSZ 171700Z 00000MPS 1800 BR SKC 14/09 Q1022 NOSIG
ZGSZ,2003-01-17 18:00,ZGSZ 171800Z 06001MPS 1800 HZ SKC 14/08 Q1022 NOSIG
ZGSZ,2003-01-17 19:00,ZGSZ 171900Z 11001MPS 1800 BR SKC 13/08 Q1022 NOSIG
ZGSZ,2003-01-17 20:00,ZGSZ 172000Z 36002MPS 1800 BR SKC 12/09 Q1021 NOSIG
ZGSZ,2003-01-17 21:00,ZGSZ 172100Z 01001MPS 2000 BR NSC 13/08 Q1021 NOSIG
ZGSZ,2003-01-17 22:00,ZGSZ 172200Z 04003MPS 2500 BR SKC 13/07 Q1021 NOSIG
ZGSZ,2003-01-17 23:00,ZGSZ 172300Z 11001MPS 3000 BR SKC 12/07 Q1022 NOSIG
ZGSZ,2003-01-18 00:00,ZGSZ 180000Z 27001MPS 2500 BR NSC 13/09 Q1023 NOSIG
ZGSZ,2003-01-18 01:00,ZGSZ 180100Z 35001MPS 1800 HZ NSC 16/09 Q1023 NOSIG
ZGSZ,2003-01-18 02:00,ZGSZ 180200Z 34001MPS 1800 HZ NSC 19/09 Q1023 NOSIG
ZGSZ,2003-01-18 03:00,ZGSZ 180300Z 26002MPS 1600 R15/0900N HZ NSC 19/13 Q1023 NOSIG
ZGSZ,2003-01-18 04:00,ZGSZ 180400Z 29003MPS 1300 R33/P1500N HZ SKC 20/11 Q1022 NOSIG
ZGSZ,2003-01-18 05:00,ZGSZ 180500Z 26003MPS 2600 HZ SKC 21/10 Q1021 NOSIG
ZGSZ,2003-01-18 06:00,ZGSZ 180600Z 22002MPS 5000 HZ SKC 22/10 Q1019 NOSIG
ZGSZ,2003-01-18 07:00,ZGSZ 180700Z 21003MPS 6000 SKC 21/10 Q1019 NOSIG
ZGSZ,2003-01-18 08:00,ZGSZ 180800Z 20002MPS 6000 SKC 21/12 Q1019 NOSIG
ZGSZ,2003-01-18 09:00,ZGSZ 180900Z 19002MPS 6000 SKC 20/12 Q1020 NOSIG
ZGSZ,2003-01-18 10:00,ZGSZ 181000Z 20001MPS 7000 SKC 18/12 Q1020 NOSIG
ZGSZ,2003-01-18 11:00,ZGSZ 181100Z 22001MPS 5000 BR SKC 17/13 Q1021 NOSIG
ZGSZ,2003-01-18 12:00,ZGSZ 181200Z 19002MPS 6000 SKC 17/13 Q1021 NOSIG
ZGSZ,2003-01-18 13:00,ZGSZ 181300Z 16002MPS 5000 SKC 15/12 Q1022 NOSIG
ZGSZ,2003-01-18 14:00,ZGSZ 181400Z 11002MPS 3800 BR SKC 15/13 Q1022 NOSIG
ZGSZ,2003-01-18 15:00,ZGSZ 181500Z 10002MPS 3200 BR SKC 15/12 Q1022 NOSIG
ZGSZ,2003-01-18 16:00,ZGSZ 181600Z 09002MPS 5000 BR SKC 15/11 Q1022 NOSIG
ZGSZ,2003-01-18 17:00,ZGSZ 181700Z 10001MPS 2800 BR SKC 13/11 Q1022 NOSIG
ZGSZ,2003-01-18 18:00,ZGSZ 181800Z 12001MPS 2800 BR SKC 13/11 Q1021 NOSIG
ZGSZ,2003-01-18 19:00,ZGSZ 181900Z 09001MPS 2800 BR SKC 13/10 Q1020 NOSIG
ZGSZ,2003-01-18 20:00,ZGSZ 182000Z 09002MPS 2800 BR SKC 12/10 Q1020 NOSIG
ZGSZ,2003-01-18 21:00,ZGSZ 182100Z 11001MPS 2800 BR SKC 12/10 Q1020 NOSIG
ZGSZ,2003-01-18 22:00,ZGSZ 182200Z 03001MPS 3000 BR SKC 12/10 Q1020 NOSIG
ZGSZ,2003-01-18 23:00,ZGSZ 182300Z 12001MPS 2000 BR SKC 12/10 Q1020 NOSIG
ZGSZ,2003-01-19 00:00,ZGSZ 190000Z 00000MPS 1800 BR NSC 13/10 Q1021 NOSIG
ZGSZ,2003-01-19 01:00,ZGSZ 190100Z 00000MPS 1600 BR SKC 16/13 Q1021 NOSIG
ZGSZ,2003-01-19 02:00,ZGSZ 190200Z 27001MPS 1500 R33/1400N BR SKC 18/12 Q1022 NOSIG
ZGSZ,2003-01-19 03:00,ZGSZ 190300Z 35003MPS 1700 HZ SKC 20/12 Q1021 NOSIG
ZGSZ,2003-01-19 04:00,ZGSZ 190400Z 36004MPS 2200 HZ SKC 22/11 Q1020 NOSIG
ZGSZ,2003-01-19 05:00,ZGSZ 190500Z 31004MPS 1300 R33/1300N HZ SKC 22/12 Q1019 TEMPO 0900 HZ
ZGSZ,2003-01-19 06:00,ZGSZ 190600Z 32004MPS 1800 HZ SKC 22/12 Q1017 TEMPO 0900 HZ
ZGSZ,2003-01-19 07:00,ZGSZ 190700Z 32004MPS 5000 HZ SKC 23/12 Q1017 NOSIG
ZGSZ,2003-01-19 08:00,ZGSZ 190800Z 33003MPS 6000 SKC 23/11 Q1016 NOSIG
ZGSZ,2003-01-19 09:00,ZGSZ 190900Z 34003MPS 8000 SKC 22/11 Q1016 NOSIG
ZGSZ,2003-01-19 10:00,ZGSZ 191000Z 33003MPS 8000 SKC 20/11 Q1016 NOSIG
ZGSZ,2003-01-19 11:00,ZGSZ 191100Z 34002MPS 2500 HZ SKC 19/11 Q1016 NOSIG
ZGSZ,2003-01-19 12:00,ZGSZ 191200Z 03001MPS 2000 HZ SKC 19/10 Q1017 NOSIG
ZGSZ,2003-01-19 13:00,ZGSZ 191300Z 10001MPS 2000 HZ SKC 17/11 Q1017 NOSIG
ZGSZ,2003-01-19 14:00,ZGSZ 191400Z 09002MPS 2100 BR SKC 15/11 Q1017 NOSIG
ZGSZ,2003-01-19 15:00,ZGSZ 191500Z 00000MPS 2000 BR SKC 16/11 Q1017 NOSIG
ZGSZ,2003-01-19 16:00,ZGSZ 191600Z 00000MPS 2000 BR SKC 16/12 Q1017 NOSIG
ZGSZ,2003-01-19 17:00,ZGSZ 191700Z 00000MPS 2000 BR SKC 15/11 Q1017 NOSIG
ZGSZ,2003-01-19 18:00,ZGSZ 191800Z 36003MPS 1900 HZ SKC 17/09 Q1017 NOSIG
ZGSZ,2003-01-19 19:00,ZGSZ 191900Z 00000MPS 2200 BR SKC 14/09 Q1017 NOSIG
ZGSZ,2003-01-19 20:00,ZGSZ 192000Z 14001MPS 2200 BR SKC 15/09 Q1017 NOSIG
ZGSZ,2003-01-19 21:00,ZGSZ 192100Z 00000MPS 2200 HZ SKC 15/09 Q1017 NOSIG
ZGSZ,2003-01-19 22:00,ZGSZ 192200Z 10001MPS 2200 HZ SKC 15/09 Q1018 NOSIG
ZGSZ,2003-01-19 23:00,ZGSZ 192300Z 02002MPS 2200 HZ SKC 16/08 Q1018 NOSIG
ZGSZ,2003-01-20 00:00,ZGSZ 200000Z 03002MPS 3500 HZ NSC 16/08 Q1019 NOSIG
ZGSZ,2003-01-20 01:00,ZGSZ 200100Z 02001MPS 3500 HZ NSC 18/09 Q1019 NOSIG
ZGSZ,2003-01-20 02:00,ZGSZ 200200Z 02002MPS 3500 HZ NSC 19/09 Q1020 NOSIG
ZGSZ,2003-01-20 03:00,ZGSZ 200300Z 00000MPS 3000 HZ NSC 21/09 Q1020 NOSIG
ZGSZ,2003-01-20 04:00,ZGSZ 200400Z 23002MPS 3000 HZ NSC 20/10 Q1019 NOSIG
ZGSZ,2003-01-20 05:00,ZGSZ 200500Z 23003MPS 2800 HZ NSC 20/12 Q1018 NOSIG
ZGSZ,2003-01-20 06:00,ZGSZ 200600Z 19004MPS 2500 HZ NSC 20/13 Q1017 NOSIG
ZGSZ,2003-01-20 07:00,ZGSZ 200700Z 18003MPS 3000 HZ NSC 19/13 Q1016 NOSIG
ZGSZ,2003-01-20 08:00,ZGSZ 200800Z 18003MPS 3000 BR SKC 19/14 Q1016 NOSIG
ZGSZ,2003-01-20 09:00,ZGSZ 200900Z 20002MPS 2600 BR SKC 18/14 Q1016 NOSIG
ZGSZ,2003-01-20 10:00,ZGSZ 201000Z 15001MPS 2500 BR SKC 17/13 Q1016 NOSIG
ZGSZ,2003-01-20 11:00,ZGSZ 201100Z 14002MPS 2100 BR SKC 16/13 Q1017 NOSIG
ZGSZ,2003-01-20 12:00,ZGSZ 201200Z 13001MPS 2300 BR NSC 17/13 Q1017 NOSIG
ZGSZ,2003-01-20 13:00,ZGSZ 201300Z 09001MPS 2400 BR SKC 17/12 Q1018 NOSIG
ZGSZ,2003-01-20 14:00,ZGSZ 201400Z 13002MPS 2100 BR SKC 15/11 Q1018 NOSIG
ZGSZ,2003-01-20 15:00,ZGSZ 201500Z 15001MPS 2100 BR SKC 15/11 Q1018 NOSIG
ZGSZ,2003-01-20 16:00,ZGSZ 201600Z 14001MPS 1900 BR SKC 14/11 Q1017 NOSIG
ZGSZ,2003-01-20 17:00,ZGSZ 201700Z 11001MPS 2000 BR SKC 14/10 Q1017 NOSIG
ZGSZ,2003-01-20 18:00,ZGSZ 201800Z 00000MPS 2000 BR SKC 14/11 Q1017 NOSIG
ZGSZ,2003-01-20 19:00,ZGSZ 201900Z 00000MPS 1800 BR SKC 13/10 Q1016 NOSIG
ZGSZ,2003-01-20 20:00,ZGSZ 202000Z 09001MPS 1800 BR SKC 13/10 Q1016 NOSIG
ZGSZ,2003-01-20 21:00,ZGSZ 202100Z 07001MPS 2000 BR NSC 13/10 Q1016 NOSIG
ZGSZ,2003-01-20 22:00,ZGSZ 202200Z 14002MPS 2000 BR NSC 12/09 Q1017 NOSIG
ZGSZ,2003-01-20 23:00,ZGSZ 202300Z 00000MPS 1900 BR SKC 13/10 Q1017 NOSIG
ZGSZ,2003-01-21 00:00,ZGSZ 210000Z 14001MPS 1700 BR SKC 13/10 Q1018 NOSIG
ZGSZ,2003-01-21 01:00,ZGSZ 210100Z 12003MPS 1700 BR SKC 16/11 Q1018 NOSIG
ZGSZ,2003-01-21 02:00,ZGSZ 210200Z 12004MPS 2000 HZ SKC 17/11 Q1018 NOSIG
ZGSZ,2003-01-21 03:00,ZGSZ 210300Z 12003MPS 2000 HZ SKC 19/10 Q1018 NOSIG
ZGSZ,2003-01-21 04:00,ZGSZ 210400Z 11004MPS 3000 HZ SKC 21/07 Q1017 NOSIG
ZGSZ,2003-01-21 05:00,ZGSZ 210500Z 13004MPS 4000 HZ SKC 22/08 Q1016 NOSIG
ZGSZ,2003-01-21 06:00,ZGSZ 210600Z 21004MPS 2800 HZ SKC 19/12 Q1015 NOSIG
ZGSZ,2003-01-21 07:00,ZGSZ 210700Z 21003MPS 2800 HZ SKC 20/12 Q1014 NOSIG
ZGSZ,2003-01-21 08:00,ZGSZ 210800Z 12004MPS 4500 HZ NSC 22/07 Q1013 NOSIG
ZGSZ,2003-01-21 09:00,ZGSZ 210900Z 12005MPS 5000 HZ NSC 21/07 Q1013 NOSIG
ZGSZ,2003-01-21 10:00,ZGSZ 211000Z 13005MPS 7000 NSC 19/06 Q1014 NOSIG
ZGSZ,2003-01-21 11:00,ZGSZ 211100Z 13003MPS 6000 NSC 18/07 Q1013 NOSIG
ZGSZ,2003-01-21 12:00,ZGSZ 211200Z 12004MPS 6000 NSC 17/08 Q1014 NOSIG
ZGSZ,2003-01-21 13:00,ZGSZ 211300Z 12004MPS 6000 NSC 17/09 Q1014 NOSIG
ZGSZ,2003-01-21 14:00,ZGSZ 211400Z 10003MPS 5000 HZ NSC 17/08 Q1015 NOSIG
ZGSZ,2003-01-21 15:00,ZGSZ 211500Z 10003MPS 5000 HZ NSC 17/08 Q1014 NOSIG
ZGSZ,2003-01-21 16:00,ZGSZ 211600Z 08002MPS 4000 HZ NSC 17/07 Q1014 NOSIG
ZGSZ,2003-01-21 17:00,ZGSZ 211700Z 04002MPS 3500 HZ NSC 15/08 Q1014 NOSIG
ZGSZ,2003-01-21 18:00,ZGSZ 211800Z AUTO 09004KT 2 1/2SM 16/12 RMK SLP152 T01570119 57004 IEM_DS3505
ZGSZ,2003-01-21 21:00,ZGSZ 212100Z 11001MPS 2600 BR NSC 13/09 Q1013 NOSIG
ZGSZ,2003-01-21 22:00,ZGSZ 212200Z 09001MPS 2600 BR NSC 13/08 Q1013 NOSIG
ZGSZ,2003-01-21 23:00,ZGSZ 212300Z 00000MPS 2100 BR SKC 12/09 Q1014 NOSIG
ZGSZ,2003-01-22 00:00,ZGSZ 220000Z 01002MPS 1800 BR SKC 14/10 Q1014 NOSIG
ZGSZ,2003-01-22 01:00,ZGSZ 220100Z 34001MPS 1600 R15/1200N BR SKC 16/10 Q1015 NOSIG
ZGSZ,2003-01-22 02:00,ZGSZ 220200Z 31002MPS 1600 R15/1400N HZ SKC 17/10 Q1015 NOSIG
ZGSZ,2003-01-22 03:00,ZGSZ 220300Z 26003MPS 1700 R15/1400N HZ SKC 18/12 Q1015 NOSIG
ZGSZ,2003-01-22 04:00,ZGSZ 220400Z 24003MPS 1800 HZ SKC 19/12 Q1013 NOSIG
ZGSZ,2003-01-22 05:00,ZGSZ 220500Z 27002MPS 2500 HZ SKC 19/12 Q1012 NOSIG
ZGSZ,2003-01-22 06:00,ZGSZ 220600Z 22001MPS 3200 HZ SKC 21/10 Q1011 NOSIG
ZGSZ,2003-01-22 07:00,ZGSZ 220700Z 23001MPS 3500 HZ SKC 21/10 Q1010 NOSIG
ZGSZ,2003-01-22 08:00,ZGSZ 220800Z 18004MPS 3200 HZ SKC 20/12 Q1010 NOSIG
ZGSZ,2003-01-22 09:00,ZGSZ 220900Z 18003MPS 2600 BR SKC 19/14 Q1011 NOSIG
ZGSZ,2003-01-22 10:00,ZGSZ 221000Z 17002MPS 2500 BR NSC 18/13 Q1011 NOSIG
ZGSZ,2003-01-22 11:00,ZGSZ 221100Z 14003MPS 2500 BR SKC 17/14 Q1012 NOSIG
ZGSZ,2003-01-22 12:00,ZGSZ 221200Z 15003MPS 2500 BR SKC 17/14 Q1013 NOSIG
ZGSZ,2003-01-22 13:00,ZGSZ 221300Z 14003MPS 3000 BR SKC 17/13 Q1013 NOSIG
ZGSZ,2003-01-22 14:00,ZGSZ 221400Z 18001MPS 2600 BR SKC 17/13 Q1014 NOSIG
ZGSZ,2003-01-22 15:00,ZGSZ 221500Z 13002MPS 3000 BR SKC 17/13 Q1014 NOSIG
ZGSZ,2003-01-22 16:00,ZGSZ 221600Z 14002MPS 3500 BR SKC 16/12 Q1014 NOSIG
ZGSZ,2003-01-22 17:00,ZGSZ 221700Z 00000MPS 2600 BR SKC 16/13 Q1014 NOSIG
ZGSZ,2003-01-22 18:00,ZGSZ 221800Z 00000MPS 2000 BR SKC 15/13 Q1014 NOSIG
ZGSZ,2003-01-22 19:00,ZGSZ 221900Z 36001MPS 2000 BR SKC 15/13 Q1014 NOSIG
ZGSZ,2003-01-22 20:00,ZGSZ 222000Z 36002MPS 2000 BR SKC 15/12 Q1014 NOSIG
ZGSZ,2003-01-22 21:00,ZGSZ 222100Z 34001MPS 2000 BR SKC 16/13 Q1014 NOSIG
ZGSZ,2003-01-22 22:00,ZGSZ 222200Z 01004MPS 3000 HZ SKC 15/09 Q1015 NOSIG
ZGSZ,2003-01-22 23:00,ZGSZ 222300Z 03004MPS 3000 HZ SKC 15/07 Q1016 NOSIG
ZGSZ,2003-01-23 00:00,ZGSZ 230000Z 02007MPS 4000 HZ SKC 15/06 Q1016 NOSIG
ZGSZ,2003-01-23 01:00,ZGSZ 230100Z 03005MPS 4000 HZ SKC 15/06 Q1017 NOSIG
ZGSZ,2003-01-23 02:00,ZGSZ 230200Z 01005MPS 4000 HZ SKC 17/05 Q1017 NOSIG
ZGSZ,2003-01-23 03:00,ZGSZ 230300Z 03005MPS 5000 HZ SKC 18/05 Q1016 NOSIG
ZGSZ,2003-01-23 04:00,ZGSZ 230400Z 01004MPS 5000 HZ SKC 19/04 Q1016 NOSIG
ZGSZ,2003-01-23 05:00,ZGSZ 230500Z 01005MPS 7000 SKC 20/02 Q1015 NOSIG
ZGSZ,2003-01-23 06:00,ZGSZ 230600Z 02004MPS CAVOK 20/02 Q1014 NOSIG
ZGSZ,2003-01-23 07:00,ZGSZ 230700Z 36004MPS CAVOK 21/03 Q1013 NOSIG
ZGSZ,2003-01-23 08:00,ZGSZ 230800Z 02003MPS CAVOK 20/02 Q1013 NOSIG
ZGSZ,2003-01-23 09:00,ZGSZ 230900Z 02003MPS 8000 NSC 20/02 Q1013 NOSIG
ZGSZ,2003-01-23 10:00,ZGSZ 231000Z 04003MPS 8000 NSC 19/03 Q1013 NOSIG
ZGSZ,2003-01-23 11:00,ZGSZ 231100Z 05003MPS 7000 FEW033 BKN050 18/03 Q1014 NOSIG
ZGSZ,2003-01-23 12:00,ZGSZ 231200Z 10003MPS 3000 HZ BKN046 18/05 Q1015 NOSIG
ZGSZ,2003-01-23 13:00,ZGSZ 231300Z 11004MPS 3500 HZ BKN043 18/07 Q1015 NOSIG
ZGSZ,2003-01-23 14:00,ZGSZ 231400Z 11005MPS 5000 HZ BKN046 17/09 Q1015 NOSIG
ZGSZ,2003-01-23 15:00,ZGSZ 231500Z 10004MPS 5000 HZ BKN046 17/09 Q1015 NOSIG
ZGSZ,2003-01-23 16:00,ZGSZ 231600Z 09003MPS 6000 BKN043 17/09 Q1015 NOSIG
ZGSZ,2003-01-23 17:00,ZGSZ 231700Z 09003MPS 6000 NSC 17/09 Q1015 NOSIG
ZGSZ,2003-01-23 18:00,ZGSZ 231800Z 08003MPS 6000 NSC 17/10 Q1015 NOSIG
ZGSZ,2003-01-23 19:00,ZGSZ 231900Z 09004MPS 4000 HZ NSC 17/10 Q1014 NOSIG
ZGSZ,2003-01-23 20:00,ZGSZ 232000Z 10004MPS 4000 HZ NSC 16/10 Q1014 NOSIG
ZGSZ,2003-01-23 21:00,ZGSZ 232100Z 10005MPS 4000 HZ NSC 16/10 Q1014 NOSIG
ZGSZ,2003-01-23 22:00,ZGSZ 232200Z 10005MPS 4000 HZ NSC 16/10 Q1015 NOSIG
ZGSZ,2003-01-23 23:00,ZGSZ 232300Z 09007MPS 4000 HZ NSC 16/09 Q1014 NOSIG
ZGSZ,2003-01-24 00:00,ZGSZ 240000Z 09007MPS 7000 BKN046 16/09 Q1014 NOSIG
ZGSZ,2003-01-24 01:00,ZGSZ 240100Z 09005MPS CAVOK 17/10 Q1015 NOSIG
ZGSZ,2003-01-24 02:00,ZGSZ 240200Z 09007MPS CAVOK 18/10 Q1016 NOSIG
ZGSZ,2003-01-24 03:00,ZGSZ 240300Z 11005MPS CAVOK 19/10 Q1016 NOSIG
ZGSZ,2003-01-24 04:00,ZGSZ 240400Z 09006MPS CAVOK 19/11 Q1015 NOSIG
ZGSZ,2003-01-24 05:00,ZGSZ 240500Z 10007MPS CAVOK 19/11 Q1014 NOSIG
ZGSZ,2003-01-24 06:00,ZGSZ 240600Z 09006MPS 9999 -RA NSC 18/11 Q1013 NOSIG
ZGSZ,2003-01-24 07:00,ZGSZ 240700Z 10006MPS CAVOK 19/11 Q1013 NOSIG
ZGSZ,2003-01-24 08:00,ZGSZ 240800Z 11006MPS CAVOK 19/11 Q1013 NOSIG
ZGSZ,2003-01-24 09:00,ZGSZ 240900Z 09006MPS 7000 NSC 19/11 Q1013 NOSIG
ZGSZ,2003-01-24 10:00,ZGSZ 241000Z 10006MPS 6000 BKN046 18/12 Q1014 NOSIG
ZGSZ,2003-01-24 11:00,ZGSZ 241100Z 12004MPS 5000 HZ BKN046 17/12 Q1015 NOSIG
ZGSZ,2003-01-24 12:00,ZGSZ 241200Z 10006MPS 6000 NSC 17/12 Q1014 NOSIG
ZGSZ,2003-01-24 13:00,ZGSZ 241300Z 10006MPS 6000 NSC 17/12 Q1014 NOSIG
ZGSZ,2003-01-24 14:00,ZGSZ 241400Z 11006MPS 7000 NSC 17/12 Q1015 NOSIG
ZGSZ,2003-01-24 15:00,ZGSZ 241500Z 10006MPS 6000 NSC 17/12 Q1015 NOSIG
ZGSZ,2003-01-24 16:00,ZGSZ 241600Z 11005MPS 5000 BR BKN046 18/13 Q1015 NOSIG
ZGSZ,2003-01-24 17:00,ZGSZ 241700Z 12005MPS 5000 BR BKN043 17/13 Q1015 NOSIG
ZGSZ,2003-01-24 18:00,ZGSZ 241800Z 11005MPS 4500 BR BKN043 18/13 Q1014 NOSIG
ZGSZ,2003-01-24 19:00,ZGSZ 241900Z 10005MPS 5000 BR NSC 18/13 Q1013 NOSIG
ZGSZ,2003-01-24 20:00,ZGSZ 242000Z 10005MPS 5000 BR NSC 18/13 Q1013 NOSIG
ZGSZ,2003-01-24 21:00,ZGSZ 242100Z 10005MPS 4800 BR NSC 18/13 Q1013 NOSIG
ZGSZ,2003-01-24 22:00,ZGSZ 242200Z 11004MPS 4500 BR SKC 17/13 Q1013 NOSIG
ZGSZ,2003-01-24 23:00,ZGSZ 242300Z 11003MPS 4500 BR NSC 17/14 Q1014 NOSIG
ZGSZ,2003-01-25 00:00,ZGSZ 250000Z 12004MPS 4000 BR NSC 18/14 Q1014 NOSIG
ZGSZ,2003-01-25 01:00,ZGSZ 250100Z 11005MPS 5000 BR NSC 19/14 Q1015 NOSIG
ZGSZ,2003-01-25 02:00,ZGSZ 250200Z 10005MPS 7000 NSC 20/14 Q1015 NOSIG
ZGSZ,2003-01-25 03:00,ZGSZ 250300Z 10005MPS 7000 NSC 21/15 Q1015 NOSIG
ZGSZ,2003-01-25 04:00,ZGSZ 250400Z 11005MPS 8000 NSC 23/16 Q1014 NOSIG
ZGSZ,2003-01-25 05:00,ZGSZ 250500Z 14008MPS 8000 NSC 23/16 Q1012 NOSIG
ZGSZ,2003-01-25 06:00,ZGSZ 250600Z 14008MPS 9999 FEW020 BKN120 24/16 Q1011 NOSIG
ZGSZ,2003-01-25 07:00,ZGSZ 250700Z 16007MPS 9999 SCT023 BKN130 24/17 Q1011 NOSIG
ZGSZ,2003-01-25 08:00,ZGSZ 250800Z 15007MPS 9999 SCT023 BKN110 23/17 Q1011 NOSIG
ZGSZ,2003-01-25 09:00,ZGSZ 250900Z 15005MPS 8000 FEW026 BKN120 23/17 Q1011 NOSIG
ZGSZ,2003-01-25 10:00,ZGSZ 251000Z 12004MPS 7000 NSC 22/16 Q1012 NOSIG
ZGSZ,2003-01-25 11:00,ZGSZ 251100Z 12004MPS 5000 BR NSC 21/16 Q1012 NOSIG
ZGSZ,2003-01-25 12:00,ZGSZ 251200Z 12005MPS 5000 NSC 21/16 Q1012 NOSIG
ZGSZ,2003-01-25 13:00,ZGSZ 251300Z 12006MPS 5000 BR NSC 20/16 Q1013 NOSIG
ZGSZ,2003-01-25 14:00,ZGSZ 251400Z 12005MPS 4200 BR NSC 20/16 Q1013 NOSIG
ZGSZ,2003-01-25 15:00,ZGSZ 251500Z 12004MPS 4500 BR NSC 20/16 Q1013 NOSIG
ZGSZ,2003-01-25 16:00,ZGSZ 251600Z 12004MPS 5000 BR NSC 20/16 Q1013 NOSIG
ZGSZ,2003-01-25 17:00,ZGSZ 251700Z 11004MPS 5000 BR NSC 19/16 Q1013 NOSIG
ZGSZ,2003-01-25 18:00,ZGSZ 251800Z 11004MPS 5000 NSC 20/16 Q1013 NOSIG
ZGSZ,2003-01-25 19:00,ZGSZ 251900Z 11004MPS 5000 BR NSC 20/16 Q1012 NOSIG
ZGSZ,2003-01-25 20:00,ZGSZ 252000Z 13003MPS 5000 NSC 19/16 Q1012 NOSIG
ZGSZ,2003-01-25 21:00,ZGSZ 252100Z 13002MPS 4500 BR NSC 19/16 Q1012 NOSIG
ZGSZ,2003-01-25 22:00,ZGSZ 252200Z 12003MPS 4000 BR SKC 19/16 Q1012 NOSIG
ZGSZ,2003-01-25 23:00,ZGSZ 252300Z 14002MPS 3500 BR NSC 18/15 Q1013 NOSIG
ZGSZ,2003-01-26 00:00,ZGSZ 260000Z 13002MPS 2800 BR NSC 19/16 Q1013 NOSIG
ZGSZ,2003-01-26 01:00,ZGSZ 260100Z 27002MPS 2800 BR NSC 19/16 Q1014 NOSIG
ZGSZ,2003-01-26 02:00,ZGSZ 260200Z 26001MPS 3200 BR NSC 19/16 Q1014 NOSIG
ZGSZ,2003-01-26 03:00,ZGSZ 260300Z 22002MPS 2600 BR SCT030 BKN050 20/17 Q1014 NOSIG
ZGSZ,2003-01-26 04:00,ZGSZ 260400Z 21003MPS 3500 BR FEW030 BKN060 21/17 Q1013 NOSIG
ZGSZ,2003-01-26 05:00,ZGSZ 260500Z 21002MPS 2800 BR FEW020 SCT030 BKN060 22/17 Q1012 NOSIG
ZGSZ,2003-01-26 06:00,ZGSZ 260600Z 22002MPS 4000 BR FEW020 BKN060 22/17 Q1011 NOSIG
ZGSZ,2003-01-26 07:00,ZGSZ 260700Z 17005MPS CAVOK 23/18 Q1011 NOSIG
ZGSZ,2003-01-26 08:00,ZGSZ 260800Z 16004MPS CAVOK 23/18 Q1010 NOSIG
ZGSZ,2003-01-26 09:00,ZGSZ 260900Z 16004MPS CAVOK 22/18 Q1011 NOSIG
ZGSZ,2003-01-26 10:00,ZGSZ 261000Z 14004MPS CAVOK 21/18 Q1011 NOSIG
ZGSZ,2003-01-26 11:00,ZGSZ 261100Z 14004MPS CAVOK 21/18 Q1012 NOSIG
ZGSZ,2003-01-26 12:00,ZGSZ 261200Z 14003MPS CAVOK 20/17 Q1012 NOSIG
ZGSZ,2003-01-26 13:00,ZGSZ 261300Z 16003MPS CAVOK 20/17 Q1013 NOSIG
ZGSZ,2003-01-26 14:00,ZGSZ 261400Z 15002MPS 7000 NSC 19/17 Q1014 NOSIG
ZGSZ,2003-01-26 15:00,ZGSZ 261500Z 00000MPS 2000 BR SCT010 BKN050 19/17 Q1014 NOSIG
ZGSZ,2003-01-26 16:00,ZGSZ 261600Z 30003MPS 1200 R33/1200N BR SCT010 BKN020 OVC036 19/17 Q1015 NOSIG
ZGSZ,2003-01-26 17:00,ZGSZ 261700Z 33007MPS 4000 BR SCT020 OVC036 18/14 Q1015 NOSIG
ZGSZ,2003-01-26 18:00,ZGSZ 261800Z 34007MPS 5000 BR FEW020 OVC033 16/12 Q1016 NOSIG
ZGSZ,2003-01-26 19:00,ZGSZ 261900Z 35008MPS 5000 R33/0800N BR FEW020 OVC033 14/11 Q1017 NOSIG
ZGSZ,2003-01-26 20:00,ZGSZ 262000Z 01007MPS 9999 FEW026 OVC040 14/10 Q1018 NOSIG
ZGSZ,2003-01-26 21:00,ZGSZ 262100Z 02008MPS 9999 OVC040 14/09 Q1019 NOSIG
ZGSZ,2003-01-26 22:00,ZGSZ 262200Z 02008MPS CAVOK 13/08 Q1020 NOSIG
ZGSZ,2003-01-26 23:00,ZGSZ 262300Z 02007MPS CAVOK 13/06 Q1021 NOSIG
ZGSZ,2003-01-27 00:00,ZGSZ 270000Z 02008MPS 9999 SCT030 BKN060 13/05 Q1022 NOSIG
ZGSZ,2003-01-27 01:00,ZGSZ 270100Z 02010G15MPS 9999 FEW023 BKN046 13/04 Q1022 NOSIG
ZGSZ,2003-01-27 02:00,ZGSZ 270200Z 02010MPS 9999 SCT023 15/04 Q1023 NOSIG
ZGSZ,2003-01-27 03:00,ZGSZ 270300Z 02008MPS 9999 SCT023 15/04 Q1023 NOSIG
ZGSZ,2003-01-27 04:00,ZGSZ 270400Z 02008MPS 9999 SCT023 16/04 Q1022 NOSIG
ZGSZ,2003-01-27 05:00,ZGSZ 270500Z 03008MPS CAVOK 16/04 Q1021 NOSIG
ZGSZ,2003-01-27 06:00,ZGSZ 270600Z 02007MPS CAVOK 17/04 Q1021 NOSIG
ZGSZ,2003-01-27 07:00,ZGSZ 270700Z 03008MPS CAVOK 17/03 Q1020 NOSIG
ZGSZ,2003-01-27 08:00,ZGSZ 270800Z 02007MPS CAVOK 17/03 Q1020 NOSIG
ZGSZ,2003-01-27 09:00,ZGSZ 270900Z 04006MPS CAVOK 16/03 Q1020 NOSIG
ZGSZ,2003-01-27 10:00,ZGSZ 271000Z 03006MPS CAVOK 14/02 Q1021 NOSIG
ZGSZ,2003-01-27 11:00,ZGSZ 271100Z 03006MPS CAVOK 13/02 Q1022 NOSIG
ZGSZ,2003-01-27 12:00,ZGSZ 271200Z 03007MPS CAVOK 12/02 Q1022 NOSIG
ZGSZ,2003-01-27 13:00,ZGSZ 271300Z 03006MPS CAVOK 11/02 Q1023 NOSIG
ZGSZ,2003-01-27 14:00,ZGSZ 271400Z 03006MPS CAVOK 11/01 Q1024 NOSIG
ZGSZ,2003-01-27 15:00,ZGSZ 271500Z 02005MPS CAVOK 10/01 Q1024 NOSIG
ZGSZ,2003-01-27 16:00,ZGSZ 271600Z 03005MPS CAVOK 09/00 Q1024 NOSIG
ZGSZ,2003-01-27 17:00,ZGSZ 271700Z 03006MPS CAVOK 10/00 Q1024 NOSIG
ZGSZ,2003-01-27 18:00,ZGSZ 271800Z 02006MPS CAVOK 09/M00 Q1025 NOSIG
ZGSZ,2003-01-27 19:00,ZGSZ 271900Z 02006MPS CAVOK 09/M00 Q1024 NOSIG
ZGSZ,2003-01-27 20:00,ZGSZ 272000Z 02006MPS CAVOK 09/M00 Q1024 NOSIG
ZGSZ,2003-01-27 21:00,ZGSZ 272100Z 02007MPS CAVOK 09/M01 Q1024 NOSIG
ZGSZ,2003-01-27 22:00,ZGSZ 272200Z 02006MPS CAVOK 09/M01 Q1024 NOSIG
ZGSZ,2003-01-27 23:00,ZGSZ 272300Z 02006MPS CAVOK 09/M02 Q1025 NOSIG
ZGSZ,2003-01-28 00:00,ZGSZ 280000Z 02006MPS CAVOK 09/M02 Q1026 NOSIG
ZGSZ,2003-01-28 01:00,ZGSZ 280100Z 02006MPS CAVOK 10/M02 Q1026 NOSIG
ZGSZ,2003-01-28 02:00,ZGSZ 280200Z 03004MPS CAVOK 12/M02 Q1026 NOSIG
ZGSZ,2003-01-28 03:00,ZGSZ 280300Z 02004MPS CAVOK 13/M02 Q1026 NOSIG
ZGSZ,2003-01-28 04:00,ZGSZ 280400Z 02004MPS 8000 SKC 14/M02 Q1025 NOSIG
ZGSZ,2003-01-28 05:00,ZGSZ 280500Z 36004MPS 8000 SKC 16/M01 Q1024 NOSIG
ZGSZ,2003-01-28 06:00,ZGSZ 280600Z 35004MPS CAVOK 16/M01 Q1023 NOSIG
ZGSZ,2003-01-28 07:00,ZGSZ 280700Z 35004MPS CAVOK 17/M00 Q1022 NOSIG
ZGSZ,2003-01-28 08:00,ZGSZ 280800Z 32006MPS CAVOK 16/02 Q1022 NOSIG
ZGSZ,2003-01-28 09:00,ZGSZ 280900Z 36004MPS CAVOK 17/00 Q1022 NOSIG
ZGSZ,2003-01-28 10:00,ZGSZ 281000Z 02003MPS CAVOK 16/M00 Q1022 NOSIG
ZGSZ,2003-01-28 11:00,ZGSZ 281100Z 03002MPS CAVOK 14/00 Q1022 NOSIG
ZGSZ,2003-01-28 12:00,ZGSZ 281200Z 03002MPS CAVOK 14/00 Q1023 NOSIG
ZGSZ,2003-01-28 13:00,ZGSZ 281300Z 00000MPS CAVOK 13/00 Q1023 NOSIG
ZGSZ,2003-01-28 14:00,ZGSZ 281400Z 12002MPS CAVOK 13/M01 Q1023 NOSIG
ZGSZ,2003-01-28 15:00,ZGSZ 281500Z 10001MPS CAVOK 12/01 Q1024 NOSIG
ZGSZ,2003-01-28 16:00,ZGSZ 281600Z 11001MPS CAVOK 12/01 Q1024 NOSIG
ZGSZ,2003-01-28 17:00,ZGSZ 281700Z 09001MPS CAVOK 13/00 Q1024 NOSIG
ZGSZ,2003-01-28 18:00,ZGSZ 281800Z 07001MPS CAVOK 12/01 Q1024 NOSIG
ZGSZ,2003-01-28 19:00,ZGSZ 281900Z 12002MPS CAVOK 12/M01 Q1023 NOSIG
ZGSZ,2003-01-28 20:00,ZGSZ 282000Z 11002MPS CAVOK 10/01 Q1023 NOSIG
ZGSZ,2003-01-28 21:00,ZGSZ 282100Z 00000MPS CAVOK 10/03 Q1023 NOSIG
ZGSZ,2003-01-28 22:00,ZGSZ 282200Z 08003MPS CAVOK 11/01 Q1023 NOSIG
ZGSZ,2003-01-28 23:00,ZGSZ 282300Z 01001MPS CAVOK 11/01 Q1024 NOSIG
ZGSZ,2003-01-29 00:00,ZGSZ 290000Z 16001MPS CAVOK 11/00 Q1025 NOSIG
ZGSZ,2003-01-29 01:00,ZGSZ 290100Z 09001MPS CAVOK 14/00 Q1025 NOSIG
ZGSZ,2003-01-29 02:00,ZGSZ 290200Z 09002MPS CAVOK 16/00 Q1025 NOSIG
ZGSZ,2003-01-29 03:00,ZGSZ 290300Z 11002MPS CAVOK 16/02 Q1025 NOSIG
ZGSZ,2003-01-29 04:00,ZGSZ 290400Z 28003MPS CAVOK 17/04 Q1024 NOSIG
ZGSZ,2003-01-29 05:00,ZGSZ 290500Z 28003MPS CAVOK 17/04 Q1023 NOSIG
ZGSZ,2003-01-29 06:00,ZGSZ 290600Z 27003MPS CAVOK 18/05 Q1021 NOSIG
ZGSZ,2003-01-29 07:00,ZGSZ 290700Z 26003MPS CAVOK 18/05 Q1021 NOSIG
ZGSZ,2003-01-29 08:00,ZGSZ 290800Z 27003MPS CAVOK 18/05 Q1021 NOSIG
ZGSZ,2003-01-29 09:00,ZGSZ 290900Z 23002MPS CAVOK 18/06 Q1021 NOSIG
ZGSZ,2003-01-29 10:00,ZGSZ 291000Z 18003MPS CAVOK 16/07 Q1021 NOSIG
ZGSZ,2003-01-29 11:00,ZGSZ 291100Z 11004MPS CAVOK 16/07 Q1021 NOSIG
ZGSZ,2003-01-29 12:00,ZGSZ 291200Z 07003MPS CAVOK 16/07 Q1022 NOSIG
ZGSZ,2003-01-29 13:00,ZGSZ 291300Z 10004MPS CAVOK 16/06 Q1022 NOSIG
ZGSZ,2003-01-29 14:00,ZGSZ 291400Z 12004MPS 9999 BKN026 15/06 Q1022 NOSIG
ZGSZ,2003-01-29 15:00,ZGSZ 291500Z 09002MPS 9999 BKN026 15/06 Q1023 NOSIG
ZGSZ,2003-01-29 16:00,ZGSZ 291600Z 11002MPS 9999 FEW026 15/06 Q1022 NOSIG
ZGSZ,2003-01-29 17:00,ZGSZ 291700Z 26001MPS CAVOK 14/07 Q1022 NOSIG
ZGSZ,2003-01-29 18:00,ZGSZ 291800Z 08001MPS CAVOK 14/06 Q1022 NOSIG
ZGSZ,2003-01-29 19:00,ZGSZ 291900Z 05001MPS CAVOK 12/06 Q1022 NOSIG
ZGSZ,2003-01-29 20:00,ZGSZ 292000Z 04002MPS CAVOK 13/07 Q1021 NOSIG
ZGSZ,2003-01-29 21:00,ZGSZ 292100Z 01001MPS CAVOK 14/07 Q1021 NOSIG
ZGSZ,2003-01-29 22:00,ZGSZ 292200Z 02001MPS CAVOK 14/06 Q1022 NOSIG
ZGSZ,2003-01-29 23:00,ZGSZ 292300Z 01002MPS CAVOK 14/06 Q1022 NOSIG
ZGSZ,2003-01-30 00:00,ZGSZ 300000Z 03002MPS 9999 BKN043 15/05 Q1023 NOSIG
ZGSZ,2003-01-30 01:00,ZGSZ 300100Z 21001MPS CAVOK 15/07 Q1023 NOSIG
ZGSZ,2003-01-30 02:00,ZGSZ 300200Z 10002MPS CAVOK 17/06 Q1024 NOSIG
ZGSZ,2003-01-30 03:00,ZGSZ 300300Z 11004MPS CAVOK 18/08 Q1024 NOSIG
ZGSZ,2003-01-30 04:00,ZGSZ 300400Z 10006MPS CAVOK 20/09 Q1023 NOSIG
ZGSZ,2003-01-30 05:00,ZGSZ 300500Z 09005MPS CAVOK 20/10 Q1022 NOSIG
ZGSZ,2003-01-30 06:00,ZGSZ 300600Z 10007MPS CAVOK 21/10 Q1020 NOSIG
ZGSZ,2003-01-30 07:00,ZGSZ 300700Z 09006MPS 9999 FEW020 BKN100 20/11 Q1020 NOSIG
ZGSZ,2003-01-30 08:00,ZGSZ 300800Z 10005MPS 9999 FEW016 BKN070 19/11 Q1019 NOSIG
ZGSZ,2003-01-30 09:00,ZGSZ 300900Z 11006MPS 9999 FEW023 BKN070 19/11 Q1019 NOSIG
ZGSZ,2003-01-30 10:00,ZGSZ 301000Z 10006MPS 9999 SCT033 SCT070 18/11 Q1019 NOSIG
ZGSZ,2003-01-30 11:00,ZGSZ 301100Z 11005MPS 9999 SCT023 BKN100 18/11 Q1020 NOSIG
ZGSZ,2003-01-30 12:00,ZGSZ 301200Z 11003MPS 9999 SCT023 BKN100 18/12 Q1020 NOSIG
ZGSZ,2003-01-30 13:00,ZGSZ 301300Z 09004MPS 9999 SCT023 SCT060 18/12 Q1021 NOSIG
ZGSZ,2003-01-30 14:00,ZGSZ 301400Z 09003MPS 9999 FEW023 SCT053 18/12 Q1020 NOSIG
ZGSZ,2003-01-30 15:00,ZGSZ 301500Z 10004MPS 9999 BKN023 18/13 Q1020 NOSIG
ZGSZ,2003-01-30 16:00,ZGSZ 301600Z 13002MPS 9999 BKN023 17/13 Q1020 NOSIG
ZGSZ,2003-01-30 17:00,ZGSZ 301700Z 09003MPS 9999 BKN023 18/13 Q1020 NOSIG
ZGSZ,2003-01-30 18:00,ZGSZ 301800Z 10003MPS 9999 BKN023 18/13 Q1020 NOSIG
ZGSZ,2003-01-30 19:00,ZGSZ 301900Z 10001MPS 9999 FEW023 BKN053 17/13 Q1019 NOSIG
ZGSZ,2003-01-30 20:00,ZGSZ 302000Z 36001MPS CAVOK 16/13 Q1019 NOSIG
ZGSZ,2003-01-30 21:00,ZGSZ 302100Z 02002MPS CAVOK 16/13 Q1019 NOSIG
ZGSZ,2003-01-30 22:00,ZGSZ 302200Z 36001MPS CAVOK 16/13 Q1019 NOSIG
ZGSZ,2003-01-30 23:00,ZGSZ 302300Z 01001MPS 9000 FEW023 BKN053 16/13 Q1019 NOSIG
ZGSZ,2003-01-31 00:00,ZGSZ 310000Z 01001MPS 7000 FEW023 BKN043 17/13 Q1020 NOSIG
ZGSZ,2003-01-31 01:00,ZGSZ 310100Z 05001MPS 6000 SCT020 BKN043 18/13 Q1021 NOSIG
ZGSZ,2003-01-31 02:00,ZGSZ 310200Z 08002MPS 7000 SCT023 BKN060 19/14 Q1021 NOSIG
ZGSZ,2003-01-31 03:00,ZGSZ 310300Z 26001MPS 7000 SCT025 BKN046 20/14 Q1021 NOSIG
ZGSZ,2003-01-31 04:00,ZGSZ 310400Z 29002MPS 5000 HZ FEW026 SCT070 21/15 Q1020 NOSIG
ZGSZ,2003-01-31 05:00,ZGSZ 310500Z 30003MPS 5000 HZ FEW028 21/14 Q1019 NOSIG
ZGSZ,2003-01-31 06:00,ZGSZ 310600Z 28003MPS 5000 HZ FEW030 21/15 Q1018 NOSIG
ZGSZ,2003-01-31 07:00,ZGSZ 310700Z 25002MPS 6000 FEW026 21/15 Q1017 NOSIG
ZGSZ,2003-01-31 08:00,ZGSZ 310800Z 23002MPS 6000 FEW025 21/15 Q1017 NOSIG
ZGSZ,2003-01-31 09:00,ZGSZ 310900Z 19002MPS 7000 FEW023 21/15 Q1017 NOSIG
ZGSZ,2003-01-31 10:00,ZGSZ 311000Z 21002MPS 5000 BR NSC 19/16 Q1017 NOSIG
ZGSZ,2003-01-31 11:00,ZGSZ 311100Z 17002MPS 3000 BR SKC 18/15 Q1018 NOSIG
ZGSZ,2003-01-31 12:00,ZGSZ 311200Z 16002MPS 2800 BR SKC 17/15 Q1018 NOSIG
ZGSZ,2003-01-31 13:00,ZGSZ 311300Z 14002MPS 2800 BR SKC 17/15 Q1018 NOSIG
ZGSZ,2003-01-31 14:00,ZGSZ 311400Z 03001MPS 2000 BR SKC 17/15 Q1018 NOSIG
ZGSZ,2003-01-31 15:00,ZGSZ 311500Z 00000MPS 2000 BR SKC 17/15 Q1018 NOSIG
ZGSZ,2003-01-31 16:00,ZGSZ 311600Z 16001MPS 1800 BR SKC 16/14 Q1018 NOSIG
ZGSZ,2003-01-31 17:00,ZGSZ 311700Z AUTO 12001MPS //// // ////// 16/13 Q1018 NOSIG
ZGSZ,2003-01-31 18:00,ZGSZ 311800Z AUTO 34001MPS //// // ////// 16/14 Q1018 NOSIG
ZGSZ,2003-01-31 19:00,ZGSZ 311900Z AUTO 34001MPS //// // ////// 16/14 Q1018 NOSIG
ZGSZ,2003-01-31 20:00,ZGSZ 312000Z AUTO 36001MPS //// // ////// 15/13 Q1018 NOSIG
ZGSZ,2003-01-31 21:00,ZGSZ 312100Z 36001MPS 1200 R15/1000N BR SKC 15/13 Q1018 NOSIG
ZGSZ,2003-01-31 22:00,ZGSZ 312200Z 03002MPS 1200 R15/1400N BR SKC 15/13 Q1018 NOSIG
ZGSZ,2003-01-31 23:00,ZGSZ 312300Z 36002MPS 1400 R15/P1500N BR SKC 15/13 Q1019 NOSIG
ZGSZ,2003-02-01 00:00,ZGSZ 010000Z 15002MPS 1300 R15/1400N BR NSC 17/15 Q1019 NOSIG
ZGSZ,2003-02-01 01:00,ZGSZ 010100Z 02003MPS 2000 BR SCT020 SCT050 19/16 Q1020 NOSIG
ZGSZ,2003-02-01 02:00,ZGSZ 010200Z 36002MPS 2000 BR SCT026 20/16 Q1020 NOSIG
ZGSZ,2003-02-01 03:00,ZGSZ 010300Z 28003MPS 1000 R33/P1500N BR SKC 19/15 Q1021 NOSIG
ZGSZ,2003-02-01 04:00,ZGSZ 010400Z 29003MPS 1200 R33/P1500N BR SKC 21/16 Q1020 NOSIG
ZGSZ,2003-02-01 05:00,ZGSZ 010500Z 29004MPS 1300 R33/P1500N BR NSC 21/16 Q1019 NOSIG
ZGSZ,2003-02-01 06:00,ZGSZ 010600Z 33007MPS 3000 HZ NSC 22/14 Q1018 NOSIG
ZGSZ,2003-02-01 07:00,ZGSZ 010700Z 02007MPS 9999 SCT030 BKN060 22/14 Q1018 NOSIG
ZGSZ,2003-02-01 08:00,ZGSZ 010800Z 02008MPS 9999 SCT026 BKN060 21/12 Q1018 NOSIG
ZGSZ,2003-02-01 09:00,ZGSZ 010900Z 02007MPS 9999 BKN030 20/12 Q1018 NOSIG
ZGSZ,2003-02-01 10:00,ZGSZ 011000Z 03005MPS 9999 FEW021 BKN031 19/11 Q1020 NOSIG
ZGSZ,2003-02-01 11:00,ZGSZ 011100Z 02005MPS 9999 BKN043 18/10 Q1020 NOSIG
ZGSZ,2003-02-01 12:00,ZGSZ 011200Z 02004MPS 9999 BKN040 17/09 Q1021 NOSIG
ZGSZ,2003-02-01 13:00,ZGSZ 011300Z 02004MPS 9999 BKN043 16/08 Q1022 NOSIG
ZGSZ,2003-02-01 14:00,ZGSZ 011400Z 02004MPS CAVOK 16/08 Q1022 NOSIG
ZGSZ,2003-02-01 15:00,ZGSZ 011500Z 02004MPS CAVOK 16/07 Q1022 NOSIG
ZGSZ,2003-02-01 16:00,ZGSZ 011600Z 02005MPS CAVOK 15/06 Q1023 NOSIG
ZGSZ,2003-02-01 18:00,ZGSZ 011800Z AUTO 05004MPS //// // ////// 13/06 Q1022 NOSIG
ZGSZ,2003-02-01 19:00,ZGSZ 011900Z AUTO 01005MPS //// // ////// 13/06 Q1022 NOSIG
ZGSZ,2003-02-01 20:00,ZGSZ 012000Z AUTO 01005MPS //// // ////// 13/05 Q1023 NOSIG
ZGSZ,2003-02-01 21:00,ZGSZ 012100Z 03005MPS CAVOK 12/05 Q1023 NOSIG
ZGSZ,2003-02-01 22:00,ZGSZ 012200Z 03005MPS CAVOK 12/05 Q1023 NOSIG
ZGSZ,2003-02-01 23:00,ZGSZ 012300Z 04002MPS 9999 BKN043 12/05 Q1024 NOSIG
ZGSZ,2003-02-02 00:00,ZGSZ 020000Z 02002MPS CAVOK 12/05 Q1024 NOSIG
ZGSZ,2003-02-02 01:00,ZGSZ 020100Z 02005MPS CAVOK 13/04 Q1024 NOSIG
ZGSZ,2003-02-02 02:00,ZGSZ 020200Z 03004MPS 9999 FEW026 OVC050 13/04 Q1025 NOSIG
ZGSZ,2003-02-02 03:00,ZGSZ 020300Z 02004MPS CAVOK 13/05 Q1025 NOSIG
ZGSZ,2003-02-02 04:00,ZGSZ 020400Z 02003MPS 9999 SCT026 BKN053 14/05 Q1024 NOSIG
ZGSZ,2003-02-02 05:00,ZGSZ 020500Z 36004MPS 9999 SCT026 OVC050 15/05 Q1023 NOSIG
ZGSZ,2003-02-02 06:00,ZGSZ 020600Z 36005MPS 9999 SCT026 OVC050 15/06 Q1022 NOSIG
ZGSZ,2003-02-02 07:00,ZGSZ 020700Z 01005MPS 9999 FEW026 OVC050 15/06 Q1021 NOSIG
ZGSZ,2003-02-02 08:00,ZGSZ 020800Z 01004MPS 9999 BKN026 OVC050 16/06 Q1021 NOSIG
ZGSZ,2003-02-02 09:00,ZGSZ 020900Z 03003MPS 9999 SCT020 OVC050 15/06 Q1021 NOSIG
ZGSZ,2003-02-02 10:00,ZGSZ 021000Z 02003MPS CAVOK 15/06 Q1022 NOSIG
ZGSZ,2003-02-02 11:00,ZGSZ 021100Z 02003MPS 9999 OVC043 15/06 Q1022 NOSIG
ZGSZ,2003-02-02 12:00,ZGSZ 021200Z 02003MPS 9999 SCT040 OVC050 15/06 Q1023 NOSIG
ZGSZ,2003-02-02 13:00,ZGSZ 021300Z 07003MPS CAVOK 15/07 Q1023 NOSIG
ZGSZ,2003-02-02 14:00,ZGSZ 021400Z 03002MPS CAVOK 15/07 Q1023 NOSIG
ZGSZ,2003-02-02 15:00,ZGSZ 021500Z 05002MPS 9999 OVC040 15/07 Q1023 NOSIG
ZGSZ,2003-02-02 16:00,ZGSZ 021600Z 02002MPS 9999 OVC043 15/07 Q1023 NOSIG
ZGSZ,2003-02-02 17:00,ZGSZ 021700Z 02003MPS 9999 SCT040 OVC050 15/07 Q1023 NOSIG
ZGSZ,2003-02-02 18:00,ZGSZ 021800Z 03002MPS 9999 SCT033 OVC050 14/07 Q1023 NOSIG
ZGSZ,2003-02-02 19:00,ZGSZ 021900Z 04002MPS 9999 SCT033 OVC050 14/07 Q1023 NOSIG
ZGSZ,2003-02-02 20:00,ZGSZ 022000Z 04002MPS 9999 SCT033 OVC050 14/08 Q1022 NOSIG
ZGSZ,2003-02-02 21:00,ZGSZ 022100Z 03003MPS 9999 SCT033 OVC050 14/09 Q1022 NOSIG
ZGSZ,2003-02-02 22:00,ZGSZ 022200Z 02003MPS 7000 OVC043 14/08 Q1023 NOSIG
ZGSZ,2003-02-02 23:00,ZGSZ 022300Z 02003MPS 9999 OVC043 14/07 Q1024 NOSIG
ZGSZ,2003-02-03 00:00,ZGSZ 030000Z 02004MPS 9999 FEW016 OVC043 13/07 Q1024 NOSIG
ZGSZ,2003-02-03 01:00,ZGSZ 030100Z 02004MPS 9999 OVC046 13/07 Q1025 NOSIG
ZGSZ,2003-02-03 02:00,ZGSZ 030200Z 03003MPS 9999 OVC043 14/07 Q1025 NOSIG
ZGSZ,2003-02-03 03:00,ZGSZ 030300Z 06002MPS 9999 OVC043 14/07 Q1025 NOSIG
ZGSZ,2003-02-03 04:00,ZGSZ 030400Z 32002MPS 9999 OVC043 15/07 Q1024 NOSIG
ZGSZ,2003-02-03 05:00,ZGSZ 030500Z 35004MPS 9000 OVC043 16/07 Q1023 NOSIG
ZGSZ,2003-02-03 06:00,ZGSZ 030600Z 36004MPS 9000 OVC046 15/08 Q1022 NOSIG
ZGSZ,2003-02-03 07:00,ZGSZ 030700Z 01004MPS 9000 OVC046 16/07 Q1021 NOSIG
ZGSZ,2003-02-03 08:00,ZGSZ 030800Z 36004MPS 9999 OVC046 15/07 Q1021 NOSIG
ZGSZ,2003-02-03 09:00,ZGSZ 030900Z 36003MPS 9999 OVC040 15/07 Q1022 NOSIG
ZGSZ,2003-02-03 10:00,ZGSZ 031000Z 36004MPS 9999 OVC040 15/08 Q1022 NOSIG
ZGSZ,2003-02-03 11:00,ZGSZ 031100Z 36004MPS 7000 OVC036 14/08 Q1023 NOSIG
ZGSZ,2003-02-03 12:00,ZGSZ 031200Z 35005MPS 6000 OVC033 13/07 Q1023 NOSIG
ZGSZ,2003-02-03 13:00,ZGSZ 031300Z 01004MPS 7000 FEW016 OVC033 13/07 Q1023 NOSIG
ZGSZ,2003-02-03 14:00,ZGSZ 031400Z 36004MPS 9999 OVC033 13/07 Q1024 NOSIG
ZGSZ,2003-02-03 15:00,ZGSZ 031500Z 36003MPS 9999 OVC030 13/07 Q1024 NOSIG
ZGSZ,2003-02-03 16:00,ZGSZ 031600Z 01003MPS 9999 OVC033 13/07 Q1024 NOSIG
ZGSZ,2003-02-03 17:00,ZGSZ 031700Z 01004MPS 9999 OVC030 12/08 Q1024 NOSIG
ZGSZ,2003-02-03 18:00,ZGSZ 031800Z 36004MPS 9999 OVC030 12/08 Q1024 NOSIG
ZGSZ,2003-02-03 19:00,ZGSZ 031900Z 02005MPS 9999 OVC033 12/07 Q1024 NOSIG
ZGSZ,2003-02-03 20:00,ZGSZ 032000Z 03004MPS 9999 OVC033 12/07 Q1023 NOSIG
ZGSZ,2003-02-03 21:00,ZGSZ 032100Z 02005MPS 9999 OVC036 12/07 Q1023 NOSIG
ZGSZ,2003-02-03 22:00,ZGSZ 032200Z 02003MPS 9999 FEW015 OVC040 12/07 Q1024 NOSIG
ZGSZ,2003-02-03 23:00,ZGSZ 032300Z 03004MPS 9999 OVC043 11/06 Q1024 NOSIG
ZGSZ,2003-02-04 00:00,ZGSZ 040000Z 02004MPS 9999 BKN046 12/06 Q1025 NOSIG
ZGSZ,2003-02-04 01:00,ZGSZ 040100Z 02006MPS 9999 FEW020 BKN060 12/06 Q1025 NOSIG
ZGSZ,2003-02-04 02:00,ZGSZ 040200Z 03006MPS 9999 FEW020 BKN070 13/05 Q1026 NOSIG
ZGSZ,2003-02-04 03:00,ZGSZ 040300Z 02006MPS CAVOK 15/04 Q1026 NOSIG
ZGSZ,2003-02-04 04:00,ZGSZ 040400Z 03006MPS 9999 FEW020 BKN120 16/05 Q1025 NOSIG
ZGSZ,2003-02-04 05:00,ZGSZ 040500Z 36006MPS CAVOK 16/05 Q1024 NOSIG
ZGSZ,2003-02-04 06:00,ZGSZ 040600Z 01007MPS CAVOK 17/04 Q1023 NOSIG
ZGSZ,2003-02-04 07:00,ZGSZ 040700Z 03005MPS CAVOK 17/04 Q1022 NOSIG
ZGSZ,2003-02-04 08:00,ZGSZ 040800Z 36006MPS CAVOK 17/04 Q1022 NOSIG
ZGSZ,2003-02-04 09:00,ZGSZ 040900Z AUTO 04010KT 17SM 17/06 RMK SLP229 T01680056 57005 IEM_DS3505
ZGSZ,2003-02-04 10:00,ZGSZ 041000Z 01007MPS CAVOK 16/04 Q1023 NOSIG
ZGSZ,2003-02-04 11:00,ZGSZ 041100Z 05004MPS CAVOK 15/04 Q1024 NOSIG
ZGSZ,2003-02-04 12:00,ZGSZ 041200Z 03004MPS CAVOK 14/04 Q1025 NOSIG
ZGSZ,2003-02-04 13:00,ZGSZ 041300Z 07004MPS CAVOK 14/04 Q1025 NOSIG
ZGSZ,2003-02-04 14:00,ZGSZ 041400Z 06002MPS CAVOK 13/04 Q1025 NOSIG
ZGSZ,2003-02-04 15:00,ZGSZ 041500Z 04003MPS CAVOK 12/04 Q1025 NOSIG
ZGSZ,2003-02-04 16:00,ZGSZ 041600Z 03005MPS CAVOK 12/04 Q1025 NOSIG
ZGSZ,2003-02-04 17:00,ZGSZ 041700Z 02005MPS CAVOK 12/04 Q1025 NOSIG
ZGSZ,2003-02-04 18:00,ZGSZ 041800Z 02004MPS CAVOK 11/03 Q1025 NOSIG
ZGSZ,2003-02-04 19:00,ZGSZ 041900Z 01005MPS CAVOK 11/04 Q1025 NOSIG
ZGSZ,2003-02-04 20:00,ZGSZ 042000Z 02004MPS CAVOK 11/03 Q1025 NOSIG
ZGSZ,2003-02-04 21:00,ZGSZ 042100Z 02004MPS CAVOK 11/02 Q1025 NOSIG
ZGSZ,2003-02-04 22:00,ZGSZ 042200Z 02006MPS CAVOK 10/02 Q1026 NOSIG
ZGSZ,2003-02-04 23:00,ZGSZ 042300Z 03005MPS CAVOK 10/02 Q1026 NOSIG
ZGSZ,2003-02-05 00:00,ZGSZ 050000Z 04005MPS CAVOK 10/00 Q1026 NOSIG
ZGSZ,2003-02-05 01:00,ZGSZ 050100Z 03005MPS CAVOK 12/M02 Q1027 NOSIG
ZGSZ,2003-02-05 02:00,ZGSZ 050200Z 04005MPS CAVOK 14/M02 Q1028 NOSIG
ZGSZ,2003-02-05 03:00,ZGSZ 050300Z 01005MPS CAVOK 15/M01 Q1028 NOSIG
ZGSZ,2003-02-05 04:00,ZGSZ 050400Z 01004MPS CAVOK 17/00 Q1027 NOSIG
ZGSZ,2003-02-05 05:00,ZGSZ 050500Z 03004G09MPS CAVOK 17/00 Q1026 NOSIG
ZGSZ,2003-02-05 06:00,ZGSZ 050600Z 36004MPS CAVOK 18/01 Q1024 NOSIG
ZGSZ,2003-02-05 07:00,ZGSZ 050700Z 36005MPS CAVOK 18/02 Q1023 NOSIG
ZGSZ,2003-02-05 08:00,ZGSZ 050800Z 03003MPS CAVOK 19/02 Q1023 NOSIG
ZGSZ,2003-02-05 09:00,ZGSZ 050900Z 04003MPS CAVOK 18/02 Q1023 NOSIG
ZGSZ,2003-02-05 10:00,ZGSZ 051000Z 05003MPS CAVOK 17/02 Q1023 NOSIG
ZGSZ,2003-02-05 11:00,ZGSZ 051100Z 02004MPS CAVOK 16/02 Q1024 NOSIG
ZGSZ,2003-02-05 12:00,ZGSZ 051200Z 04003MPS CAVOK 15/02 Q1024 NOSIG
ZGSZ,2003-02-05 13:00,ZGSZ 051300Z 03002MPS CAVOK 14/02 Q1025 NOSIG
ZGSZ,2003-02-05 14:00,ZGSZ 051400Z 00000MPS CAVOK 13/03 Q1025 NOSIG
ZGSZ,2003-02-05 15:00,ZGSZ 051500Z 10002MPS CAVOK 13/02 Q1025 NOSIG
ZGSZ,2003-02-05 16:00,ZGSZ 051600Z 07002MPS CAVOK 13/03 Q1025 NOSIG
ZGSZ,2003-02-05 17:00,ZGSZ 051700Z 02001MPS CAVOK 12/02 Q1025 NOSIG
ZGSZ,2003-02-05 18:00,ZGSZ 051800Z 00000MPS CAVOK 12/02 Q1024 NOSIG
ZGSZ,2003-02-05 19:00,ZGSZ 051900Z 07001MPS CAVOK 11/02 Q1025 NOSIG
ZGSZ,2003-02-05 20:00,ZGSZ 052000Z 07003MPS CAVOK 12/01 Q1024 NOSIG
ZGSZ,2003-02-05 21:00,ZGSZ 052100Z 07002MPS CAVOK 11/00 Q1024 NOSIG
ZGSZ,2003-02-05 22:00,ZGSZ 052200Z 11002MPS CAVOK 10/00 Q1024 NOSIG
ZGSZ,2003-02-05 23:00,ZGSZ 052300Z 13001MPS CAVOK 10/02 Q1025 NOSIG
ZGSZ,2003-02-06 00:00,ZGSZ 060000Z 11002MPS CAVOK 11/02 Q1026 NOSIG
ZGSZ,2003-02-06 01:00,ZGSZ 060100Z 13002MPS CAVOK 13/01 Q1026 NOSIG
ZGSZ,2003-02-06 02:00,ZGSZ 060200Z 10003MPS CAVOK 15/01 Q1026 NOSIG
ZGSZ,2003-02-06 03:00,ZGSZ 060300Z 10002MPS CAVOK 17/02 Q1025 NOSIG
ZGSZ,2003-02-06 04:00,ZGSZ 060400Z 09001MPS CAVOK 18/03 Q1024 NOSIG
ZGSZ,2003-02-06 05:00,ZGSZ 060500Z 26003MPS CAVOK 17/03 Q1023 NOSIG
ZGSZ,2003-02-06 06:00,ZGSZ 060600Z 27003MPS CAVOK 18/04 Q1022 NOSIG
ZGSZ,2003-02-06 07:00,ZGSZ 060700Z 25003MPS CAVOK 18/05 Q1021 NOSIG
ZGSZ,2003-02-06 08:00,ZGSZ 060800Z 24003MPS CAVOK 18/06 Q1021 NOSIG
ZGSZ,2003-02-06 09:00,ZGSZ 060900Z 20003MPS 8000 NSC 17/06 Q1021 NOSIG
ZGSZ,2003-02-06 10:00,ZGSZ 061000Z 18004MPS 7000 NSC 16/08 Q1021 NOSIG
ZGSZ,2003-02-06 11:00,ZGSZ 061100Z 18004MPS 7000 NSC 16/08 Q1021 NOSIG
ZGSZ,2003-02-06 12:00,ZGSZ 061200Z 12003MPS 7000 FEW036 BKN060 17/06 Q1021 NOSIG
ZGSZ,2003-02-06 13:00,ZGSZ 061300Z 12004MPS 8000 NSC 16/06 Q1021 NOSIG
ZGSZ,2003-02-06 14:00,ZGSZ 061400Z 12003MPS 9000 NSC 15/05 Q1021 NOSIG
ZGSZ,2003-02-06 15:00,ZGSZ 061500Z 11003MPS 9000 FEW036 SCT060 16/06 Q1021 NOSIG
ZGSZ,2003-02-06 16:00,ZGSZ 061600Z 13003MPS 9000 NSC 16/07 Q1020 NOSIG
ZGSZ,2003-02-06 17:00,ZGSZ 061700Z 12002MPS 9000 NSC 15/07 Q1020 NOSIG
ZGSZ,2003-02-06 18:00,ZGSZ 061800Z 11002MPS 8000 NSC 15/08 Q1020 NOSIG
ZGSZ,2003-02-06 19:00,ZGSZ 061900Z 04002MPS 8000 NSC 15/08 Q1019 NOSIG
ZGSZ,2003-02-06 20:00,ZGSZ 062000Z 13003MPS 8000 NSC 15/07 Q1018 NOSIG
ZGSZ,2003-02-06 21:00,ZGSZ 062100Z 09003MPS 7000 BKN046 15/08 Q1018 NOSIG
ZGSZ,2003-02-06 22:00,ZGSZ 062200Z 05002MPS 8000 BKN046 15/08 Q1018 NOSIG
ZGSZ,2003-02-06 23:00,ZGSZ 062300Z 02002MPS 7000 BKN046 15/08 Q1019 NOSIG
ZGSZ,2003-02-07 00:00,ZGSZ 070000Z 02003MPS 7000 OVC043 14/09 Q1019 NOSIG
ZGSZ,2003-02-07 01:00,ZGSZ 070100Z 01003MPS 6000 OVC040 15/09 Q1019 NOSIG
ZGSZ,2003-02-07 02:00,ZGSZ 070200Z 02004MPS 3500 HZ OVC040 15/09 Q1019 NOSIG
ZGSZ,2003-02-07 03:00,ZGSZ 070300Z 07002MPS 4000 HZ OVC040 16/09 Q1019 NOSIG
ZGSZ,2003-02-07 04:00,ZGSZ 070400Z 03002MPS 4500 HZ OVC036 17/08 Q1018 NOSIG
ZGSZ,2003-02-07 05:00,ZGSZ 070500Z 07001MPS 4500 HZ OVC033 17/08 Q1017 NOSIG
ZGSZ,2003-02-07 06:00,ZGSZ 070600Z 07002MPS 4500 HZ OVC033 17/08 Q1016 NOSIG
ZGSZ,2003-02-07 07:00,ZGSZ 070700Z 08001MPS 3500 HZ OVC030 17/09 Q1016 NOSIG
ZGSZ,2003-02-07 08:00,ZGSZ 070800Z 08002MPS 3800 HZ OVC033 17/09 Q1015 NOSIG
ZGSZ,2003-02-07 09:00,ZGSZ 070900Z 06002MPS 2800 HZ SCT018 BKN033 17/09 Q1015 NOSIG
ZGSZ,2003-02-07 10:00,ZGSZ 071000Z 12002MPS 2500 HZ SCT018 BKN033 17/09 Q1014 NOSIG
ZGSZ,2003-02-07 11:00,ZGSZ 071100Z 11002MPS 3000 HZ SCT018 BKN033 17/10 Q1015 NOSIG
ZGSZ,2003-02-07 12:00,ZGSZ 071200Z 00000MPS 3000 BR SCT018 BKN033 16/11 Q1015 NOSIG
ZGSZ,2003-02-07 13:00,ZGSZ 071300Z 35002MPS 2500 HZ SCT016 BKN033 16/10 Q1016 NOSIG
ZGSZ,2003-02-07 14:00,ZGSZ 071400Z 00000MPS 2500 HZ SCT016 BKN033 16/10 Q1015 NOSIG
ZGSZ,2003-02-07 15:00,ZGSZ 071500Z 34001MPS 2200 BR SCT016 BKN033 15/11 Q1016 NOSIG
ZGSZ,2003-02-07 16:00,ZGSZ 071600Z 03002MPS 2200 BR SCT016 BKN033 15/11 Q1015 NOSIG
ZGSZ,2003-02-07 17:00,ZGSZ 071700Z 09002MPS 2200 BR SCT016 BKN030 15/11 Q1015 NOSIG
ZGSZ,2003-02-07 18:00,ZGSZ 071800Z 02002MPS 2500 BR SCT016 BKN030 15/11 Q1014 NOSIG
ZGSZ,2003-02-07 19:00,ZGSZ 071900Z 36002MPS 2000 BR SCT016 BKN030 14/12 Q1014 NOSIG
ZGSZ,2003-02-07 20:00,ZGSZ 072000Z 35002MPS 2000 BR SCT016 BKN030 14/12 Q1013 NOSIG
ZGSZ,2003-02-07 21:00,ZGSZ 072100Z 35003MPS 2200 BR SCT016 BKN030 15/12 Q1013 NOSIG
ZGSZ,2003-02-07 22:00,ZGSZ 072200Z 01003MPS 1800 -RA BR SCT016 BKN030 15/12 Q1014 NOSIG
ZGSZ,2003-02-07 23:00,ZGSZ 072300Z 01002MPS 1800 BR BKN013 BKN030 15/12 Q1014 NOSIG
ZGSZ,2003-02-08 00:00,ZGSZ 080000Z 29002MPS 2000 BR BKN013 BKN033 15/12 Q1014 NOSIG
ZGSZ,2003-02-08 01:00,ZGSZ 080100Z 00000MPS 1900 BR SCT016 16/13 Q1014 NOSIG
ZGSZ,2003-02-08 02:00,ZGSZ 080200Z 35003MPS 2300 BR SCT016 OVC050 17/14 Q1015 NOSIG
ZGSZ,2003-02-08 03:00,ZGSZ 080300Z 32004MPS 1400 R33/P1500N BR SCT016 OVC050 17/13 Q1015 NOSIG
ZGSZ,2003-02-08 04:00,ZGSZ 080400Z 32004MPS 1100 R33/P1500N BR SCT010 OVC033 17/14 Q1015 NOSIG
ZGSZ,2003-02-08 05:00,ZGSZ 080500Z 29003MPS 1000 R33/1300N BR SCT010 BKN033 18/14 Q1014 NOSIG
ZGSZ,2003-02-08 06:00,ZGSZ 080600Z 30003MPS 1100 R33/P1500N BR SCT010 BKN033 18/14 Q1013 NOSIG
ZGSZ,2003-02-08 07:00,ZGSZ 080700Z 29002MPS 1300 R33/P1500N BR SCT007 OVC033 19/15 Q1012 NOSIG
ZGSZ,2003-02-08 08:00,ZGSZ 080800Z 29002MPS 1400 R33/P1500N BR SCT012 BKN040 19/15 Q1012 NOSIG
ZGSZ,2003-02-08 09:00,ZGSZ 080900Z 29001MPS 1600 BR FEW043 20/15 Q1012 NOSIG
ZGSZ,2003-02-08 10:00,ZGSZ 081000Z 00000MPS 1400 R33/P1500N BR SKC 18/15 Q1012 NOSIG
ZGSZ,2003-02-08 11:00,ZGSZ 081100Z 11001MPS 1600 BR SKC 19/15 Q1013 NOSIG
ZGSZ,2003-02-08 12:00,ZGSZ 081200Z 12002MPS 2000 BR SKC 18/14 Q1013 NOSIG
ZGSZ,2003-02-08 13:00,ZGSZ 081300Z 12002MPS 2000 BR SKC 17/14 Q1013 NOSIG
ZGSZ,2003-02-08 14:00,ZGSZ 081400Z 13003MPS 2000 BR SKC 18/15 Q1013 NOSIG
ZGSZ,2003-02-08 15:00,ZGSZ 081500Z 12003MPS 2000 BR SKC 17/14 Q1014 NOSIG
ZGSZ,2003-02-08 16:00,ZGSZ 081600Z 13003MPS 2000 BR SKC 16/14 Q1014 NOSIG
ZGSZ,2003-02-08 17:00,ZGSZ 081700Z 13003MPS 2000 BR SKC 16/14 Q1014 NOSIG
ZGSZ,2003-02-08 18:00,ZGSZ 081800Z 15002MPS 4000 BR BKN026 16/14 Q1014 NOSIG
ZGSZ,2003-02-08 19:00,ZGSZ 081900Z 31001MPS 3000 BR BKN026 16/14 Q1014 NOSIG
ZGSZ,2003-02-08 20:00,ZGSZ 082000Z 00000MPS 3000 BR BKN026 16/14 Q1013 NOSIG
ZGSZ,2003-02-08 21:00,ZGSZ 082100Z 00000MPS 5000 BR BKN023 16/14 Q1013 NOSIG
ZGSZ,2003-02-08 22:00,ZGSZ 082200Z 10002MPS 7000 BKN020 17/15 Q1013 NOSIG
ZGSZ,2003-02-08 23:00,ZGSZ 082300Z 11001MPS 7000 BKN020 BKN040 16/14 Q1014 NOSIG
ZGSZ,2003-02-09 00:00,ZGSZ 090000Z 07001MPS 8000 FEW016 BKN043 17/15 Q1015 NOSIG
ZGSZ,2003-02-09 01:00,ZGSZ 090100Z 01002MPS 7000 SCT023 BKN040 19/16 Q1016 NOSIG
ZGSZ,2003-02-09 02:00,ZGSZ 090200Z 12004MPS CAVOK 21/16 Q1016 NOSIG
ZGSZ,2003-02-09 03:00,ZGSZ 090300Z 19003MPS 9999 FEW023 21/16 Q1016 NOSIG
ZGSZ,2003-02-09 04:00,ZGSZ 090400Z 22004MPS 6000 FEW023 SCT100 20/16 Q1016 NOSIG
ZGSZ,2003-02-09 05:00,ZGSZ 090500Z 22003MPS 5000 SKC 21/16 Q1015 NOSIG
ZGSZ,2003-02-09 06:00,ZGSZ 090600Z 21003MPS 6000 SKC 21/16 Q1014 NOSIG
ZGSZ,2003-02-09 07:00,ZGSZ 090700Z 20003MPS CAVOK 21/17 Q1013 NOSIG
ZGSZ,2003-02-09 08:00,ZGSZ 090800Z 17005MPS CAVOK 22/16 Q1013 NOSIG
ZGSZ,2003-02-09 09:00,ZGSZ 090900Z 16005MPS CAVOK 22/16 Q1012 NOSIG
ZGSZ,2003-02-09 10:00,ZGSZ 091000Z 17003MPS CAVOK 21/17 Q1013 NOSIG
ZGSZ,2003-02-09 11:00,ZGSZ 091100Z 17003MPS CAVOK 20/17 Q1013 NOSIG
ZGSZ,2003-02-09 12:00,ZGSZ 091200Z 16003MPS CAVOK 20/16 Q1014 NOSIG
ZGSZ,2003-02-09 13:00,ZGSZ 091300Z 13004MPS CAVOK 20/16 Q1014 NOSIG
ZGSZ,2003-02-09 14:00,ZGSZ 091400Z 13004MPS CAVOK 19/15 Q1014 NOSIG
ZGSZ,2003-02-09 15:00,ZGSZ 091500Z 13004MPS CAVOK 19/15 Q1015 NOSIG
ZGSZ,2003-02-09 16:00,ZGSZ 091600Z 13003MPS CAVOK 18/15 Q1014 NOSIG
ZGSZ,2003-02-09 17:00,ZGSZ 091700Z 00000MPS CAVOK 18/14 Q1014 NOSIG
ZGSZ,2003-02-09 18:00,ZGSZ 091800Z 13002MPS CAVOK 17/14 Q1014 NOSIG
ZGSZ,2003-02-09 19:00,ZGSZ 091900Z 13001MPS CAVOK 16/14 Q1014 NOSIG
ZGSZ,2003-02-09 20:00,ZGSZ 092000Z 36001MPS CAVOK 16/14 Q1014 NOSIG
ZGSZ,2003-02-09 21:00,ZGSZ 092100Z 36001MPS CAVOK 16/14 Q1015 NOSIG
ZGSZ,2003-02-09 22:00,ZGSZ 092200Z 05002MPS CAVOK 17/15 Q1015 NOSIG
ZGSZ,2003-02-09 23:00,ZGSZ 092300Z 22001MPS 9999 FEW013 OVC050 17/15 Q1016 NOSIG
ZGSZ,2003-02-10 00:00,ZGSZ 100000Z 02001MPS 3000 BR NSC 18/15 Q1017 NOSIG
ZGSZ,2003-02-10 01:00,ZGSZ 100100Z 09002MPS 7000 NSC 21/16 Q1017 NOSIG
ZGSZ,2003-02-10 02:00,ZGSZ 100200Z 13004MPS 6000 NSC 22/16 Q1017 NOSIG
ZGSZ,2003-02-10 03:00,ZGSZ 100300Z 13002MPS 7000 FEW023 24/15 Q1017 NOSIG
ZGSZ,2003-02-10 04:00,ZGSZ 100400Z 25002MPS 9999 FEW023 22/17 Q1017 NOSIG
ZGSZ,2003-02-10 05:00,ZGSZ 100500Z 25003MPS 3000 BR NSC 22/17 Q1016 NOSIG
ZGSZ,2003-02-10 06:00,ZGSZ 100600Z 22002MPS 6000 NSC 22/16 Q1015 NOSIG
ZGSZ,2003-02-10 07:00,ZGSZ 100700Z 22002MPS 9999 FEW023 BKN043 21/17 Q1015 NOSIG
ZGSZ,2003-02-10 08:00,ZGSZ 100800Z 18004MPS 9999 SCT023 SCT043 20/17 Q1014 NOSIG
ZGSZ,2003-02-10 09:00,ZGSZ 100900Z 18004MPS CAVOK 21/17 Q1014 NOSIG
ZGSZ,2003-02-10 10:00,ZGSZ 101000Z 17003MPS CAVOK 20/16 Q1014 NOSIG
ZGSZ,2003-02-10 11:00,ZGSZ 101100Z 18004MPS CAVOK 19/16 Q1014 NOSIG
ZGSZ,2003-02-10 12:00,ZGSZ 101200Z 14002MPS 7000 SKC 18/16 Q1015 NOSIG
ZGSZ,2003-02-10 13:00,ZGSZ 101300Z 18003MPS 7000 SKC 19/16 Q1015 NOSIG
ZGSZ,2003-02-10 14:00,ZGSZ 101400Z 17002MPS 3000 BR SKC 18/16 Q1016 NOSIG
ZGSZ,2003-02-10 15:00,ZGSZ 101500Z 20002MPS 2800 BR SKC 18/16 Q1016 NOSIG
ZGSZ,2003-02-10 16:00,ZGSZ 101600Z 17002MPS 2800 BR SKC 18/16 Q1016 NOSIG
ZGSZ,2003-02-10 17:00,ZGSZ 101700Z 00000MPS 3000 BR SKC 17/15 Q1016 NOSIG
ZGSZ,2003-02-10 18:00,ZGSZ 101800Z 00000MPS 2000 BR SKC 17/15 Q1016 NOSIG
ZGSZ,2003-02-10 19:00,ZGSZ 101900Z 36001MPS 1300 R15/1400N BR SKC 17/15 Q1015 NOSIG
ZGSZ,2003-02-10 20:00,ZGSZ 102000Z 32001MPS 1300 R15/1300N BR SKC 17/15 Q1015 NOSIG
ZGSZ,2003-02-10 21:00,ZGSZ 102100Z 00000MPS 0600 R33/0275N FG SKC 17/15 Q1015 NOSIG
ZGSZ,2003-02-10 22:00,ZGSZ 102200Z 02001MPS 0600 R33/0550N FG SKC 17/15 Q1016 NOSIG
ZGSZ,2003-02-10 23:00,ZGSZ 102300Z 02002MPS 0400 R33/0450N FG SKC 17/15 Q1017 NOSIG
ZGSZ,2003-02-11 00:00,ZGSZ 110000Z 35001MPS 0800 R33/1100N FG VV005 17/15 Q1018 NOSIG
ZGSZ,2003-02-11 01:00,ZGSZ 110100Z 36002MPS 1400 R33/P1500N BR FEW018 OVC040 17/16 Q1019 NOSIG
ZGSZ,2003-02-11 02:00,ZGSZ 110200Z 33002MPS 1800 BR FEW018 BKN050 19/17 Q1019 NOSIG
ZGSZ,2003-02-11 03:00,ZGSZ 110300Z 27001MPS 2000 BR NSC 22/17 Q1018 NOSIG
ZGSZ,2003-02-11 04:00,ZGSZ 110400Z 27003MPS 2500 BR NSC 20/16 Q1018 NOSIG
ZGSZ,2003-02-11 05:00,ZGSZ 110500Z 28002MPS 2500 BR NSC 22/17 Q1017 NOSIG
ZGSZ,2003-02-11 06:00,ZGSZ 110600Z 28003MPS 2700 HZ SKC 23/17 Q1015 NOSIG
ZGSZ,2003-02-11 07:00,ZGSZ 110700Z 29002MPS 2300 HZ SKC 23/17 Q1014 NOSIG
ZGSZ,2003-02-11 08:00,ZGSZ 110800Z 29002MPS 3000 HZ SKC 23/17 Q1014 NOSIG
ZGSZ,2003-02-11 09:00,ZGSZ 110900Z 30001MPS CAVOK 24/16 Q1014 NOSIG
ZGSZ,2003-02-11 10:00,ZGSZ 111000Z 18003MPS 5000 BR SKC 22/17 Q1015 NOSIG
ZGSZ,2003-02-11 11:00,ZGSZ 111100Z 14003MPS 4000 BR SKC 21/16 Q1015 NOSIG
ZGSZ,2003-02-11 12:00,ZGSZ 111200Z 14002MPS 2200 BR SKC 21/15 Q1016 NOSIG
ZGSZ,2003-02-11 13:00,ZGSZ 111300Z 13005MPS 3000 BR SKC 21/16 Q1017 NOSIG
ZGSZ,2003-02-11 14:00,ZGSZ 111400Z 09004MPS 3500 BR NSC 20/15 Q1018 NOSIG
ZGSZ,2003-02-11 15:00,ZGSZ 111500Z 09005MPS 5000 BR SCT026 BKN060 19/14 Q1018 NOSIG
ZGSZ,2003-02-11 16:00,ZGSZ 111600Z 10005MPS 8000 SCT030 BKN050 19/14 Q1019 NOSIG
ZGSZ,2003-02-11 17:00,ZGSZ 111700Z 10003MPS 9999 FEW030 BKN050 19/14 Q1019 NOSIG
ZGSZ,2003-02-11 18:00,ZGSZ 111800Z 10004MPS 5000 BR SCT030 BKN050 18/14 Q1018 NOSIG
ZGSZ,2003-02-11 19:00,ZGSZ 111900Z 10003MPS 5000 BR SCT030 BKN050 18/14 Q1018 NOSIG
ZGSZ,2003-02-11 20:00,ZGSZ 112000Z 05003MPS 5000 BR SCT030 BKN050 17/14 Q1018 NOSIG
ZGSZ,2003-02-11 21:00,ZGSZ 112100Z 05001MPS 2500 BR NSC 17/14 Q1018 NOSIG
ZGSZ,2003-02-11 22:00,ZGSZ 112200Z 03003MPS 2000 -RA BR SCT014 OVC040 15/13 Q1019 NOSIG
ZGSZ,2003-02-11 23:00,ZGSZ 112300Z 36003MPS 4000 BR BKN020 OVC040 15/13 Q1020 NOSIG
ZGSZ,2003-02-12 00:00,ZGSZ 120000Z 01003MPS 9999 BKN020 OVC033 15/13 Q1020 NOSIG
ZGSZ,2003-02-12 01:00,ZGSZ 120100Z 01004MPS 3000 BR BKN013 OVC033 15/13 Q1021 NOSIG
ZGSZ,2003-02-12 02:00,ZGSZ 120200Z 01004MPS 4000 BR SCT016 OVC036 15/12 Q1022 NOSIG
ZGSZ,2003-02-12 03:00,ZGSZ 120300Z 36005MPS 4200 BR FEW016 OVC036 15/10 Q1022 NOSIG
ZGSZ,2003-02-12 04:00,ZGSZ 120400Z 02006MPS 5000 BR BKN033 OVC050 14/10 Q1021 NOSIG
ZGSZ,2003-02-12 05:00,ZGSZ 120500Z 36006MPS 3800 -DZ BR SCT012 OVC033 14/10 Q1021 NOSIG
ZGSZ,2003-02-12 06:00,ZGSZ 120600Z 36006MPS 4500 BR OVC036 14/09 Q1020 NOSIG
ZGSZ,2003-02-12 07:00,ZGSZ 120700Z 02005MPS 5000 BR BKN017 OVC036 14/09 Q1020 NOSIG
ZGSZ,2003-02-12 08:00,ZGSZ 120800Z 01006MPS 5000 BKN020 OVC036 14/09 Q1019 NOSIG
ZGSZ,2003-02-12 09:00,ZGSZ 120900Z 36006MPS 6000 SCT016 OVC030 14/08 Q1020 NOSIG
ZGSZ,2003-02-12 10:00,ZGSZ 121000Z 03005MPS 6000 SCT015 OVC030 13/07 Q1020 NOSIG
ZGSZ,2003-02-12 11:00,ZGSZ 121100Z 36005MPS 7000 SCT014 OVC026 13/07 Q1021 NOSIG
ZGSZ,2003-02-12 12:00,ZGSZ 121200Z 36006MPS 7000 SCT013 OVC030 13/06 Q1022 NOSIG
ZGSZ,2003-02-12 13:00,ZGSZ 121300Z 02007MPS 9999 SCT012 OVC030 12/06 Q1022 NOSIG
ZGSZ,2003-02-12 14:00,ZGSZ 121400Z 36005MPS 9999 SCT013 OVC026 12/06 Q1022 NOSIG
ZGSZ,2003-02-12 15:00,ZGSZ 121500Z 36003MPS 9999 SCT013 OVC033 12/06 Q1023 NOSIG
ZGSZ,2003-02-12 16:00,ZGSZ 121600Z 36004MPS 9999 OVC030 12/05 Q1022 NOSIG
ZGSZ,2003-02-12 17:00,ZGSZ 121700Z 36005MPS 9999 OVC030 12/05 Q1022 NOSIG
ZGSZ,2003-02-12 18:00,ZGSZ 121800Z 36005MPS 9999 OVC033 11/05 Q1021 NOSIG
ZGSZ,2003-02-12 19:00,ZGSZ 121900Z 01004MPS 9999 OVC033 11/05 Q1021 NOSIG
ZGSZ,2003-02-12 20:00,ZGSZ 122000Z 03005MPS 9999 OVC030 11/05 Q1021 NOSIG
ZGSZ,2003-02-12 21:00,ZGSZ 122100Z 36005MPS 9999 OVC033 11/05 Q1021 NOSIG
ZGSZ,2003-02-12 22:00,ZGSZ 122200Z 03004MPS 9999 OVC033 11/05 Q1020 NOSIG
ZGSZ,2003-02-12 23:00,ZGSZ 122300Z 02001MPS 9999 OVC030 12/06 Q1020 NOSIG
ZGSZ,2003-02-13 00:00,ZGSZ 130000Z 31002MPS 9999 FEW030 BKN043 12/06 Q1021 NOSIG
ZGSZ,2003-02-13 01:00,ZGSZ 130100Z 04003MPS CAVOK 13/06 Q1022 NOSIG
ZGSZ,2003-02-13 02:00,ZGSZ 130200Z 01004MPS CAVOK 14/06 Q1023 NOSIG
ZGSZ,2003-02-13 03:00,ZGSZ 130300Z 36005MPS CAVOK 14/06 Q1023 NOSIG
ZGSZ,2003-02-13 04:00,ZGSZ 130400Z 01004MPS CAVOK 16/07 Q1022 NOSIG
ZGSZ,2003-02-13 05:00,ZGSZ 130500Z 10002MPS CAVOK 17/07 Q1020 NOSIG
ZGSZ,2003-02-13 06:00,ZGSZ 130600Z 07002MPS CAVOK 17/08 Q1019 NOSIG
ZGSZ,2003-02-13 07:00,ZGSZ 130700Z 11003MPS CAVOK 18/09 Q1019 NOSIG
ZGSZ,2003-02-13 08:00,ZGSZ 130800Z 11002MPS CAVOK 17/09 Q1018 NOSIG
ZGSZ,2003-02-13 09:00,ZGSZ 130900Z 08002MPS 6000 BKN046 18/10 Q1018 NOSIG
ZGSZ,2003-02-13 10:00,ZGSZ 131000Z 11001MPS 6000 BKN046 17/10 Q1019 NOSIG
ZGSZ,2003-02-13 11:00,ZGSZ 131100Z 19001MPS 6000 NSC 16/10 Q1020 NOSIG
ZGSZ,2003-02-13 12:00,ZGSZ 131200Z 17001MPS 6000 NSC 16/11 Q1020 NOSIG
ZGSZ,2003-02-13 13:00,ZGSZ 131300Z 08001MPS 3000 BR NSC 16/12 Q1021 NOSIG
ZGSZ,2003-02-13 14:00,ZGSZ 131400Z 12002MPS 5000 HZ NSC 16/10 Q1021 NOSIG
ZGSZ,2003-02-13 15:00,ZGSZ 131500Z 10002MPS 3000 HZ NSC 16/10 Q1020 NOSIG
ZGSZ,2003-02-13 16:00,ZGSZ 131600Z 00000MPS 3000 BR NSC 15/10 Q1021 NOSIG
ZGSZ,2003-02-13 17:00,ZGSZ 131700Z 00000MPS 3000 BR NSC 15/11 Q1020 NOSIG
ZGSZ,2003-02-13 18:00,ZGSZ 131800Z 09003MPS 3000 BR NSC 16/11 Q1019 NOSIG
ZGSZ,2003-02-13 19:00,ZGSZ 131900Z 02002MPS 3000 BR NSC 15/11 Q1019 NOSIG
ZGSZ,2003-02-13 20:00,ZGSZ 132000Z 01001MPS 3000 BR NSC 15/11 Q1018 NOSIG
ZGSZ,2003-02-13 21:00,ZGSZ 132100Z 01001MPS 3000 BR NSC 15/11 Q1018 NOSIG
ZGSZ,2003-02-13 22:00,ZGSZ 132200Z 07002MPS 3000 BR NSC 15/11 Q1018 NOSIG
ZGSZ,2003-02-13 23:00,ZGSZ 132300Z 09002MPS 4000 BR NSC 15/11 Q1019 NOSIG
ZGSZ,2003-02-14 00:00,ZGSZ 140000Z 15001MPS 3000 BR OVC046 16/11 Q1019 NOSIG
ZGSZ,2003-02-14 01:00,ZGSZ 140100Z 11002MPS 3000 BR OVC033 17/12 Q1020 NOSIG
ZGSZ,2003-02-14 02:00,ZGSZ 140200Z 09002MPS 2800 BR OVC030 17/12 Q1020 NOSIG
ZGSZ,2003-02-14 03:00,ZGSZ 140300Z 10002MPS 3000 BR OVC030 17/12 Q1020 NOSIG
ZGSZ,2003-02-14 04:00,ZGSZ 140400Z 07002MPS 3000 BR OVC026 18/13 Q1020 NOSIG
ZGSZ,2003-02-14 05:00,ZGSZ 140500Z 11001MPS 3000 BR OVC033 18/13 Q1019 NOSIG
ZGSZ,2003-02-14 06:00,ZGSZ 140600Z 10003MPS 3000 BR OVC036 19/14 Q1018 NOSIG
ZGSZ,2003-02-14 07:00,ZGSZ 140700Z 11004MPS 3100 HZ BKN046 20/14 Q1017 NOSIG
ZGSZ,2003-02-14 08:00,ZGSZ 140800Z 13004MPS 3500 HZ BKN046 21/14 Q1016 NOSIG
ZGSZ,2003-02-14 09:00,ZGSZ 140900Z 11003MPS 3000 HZ FEW020 BKN043 21/14 Q1016 NOSIG
ZGSZ,2003-02-14 10:00,ZGSZ 141000Z 11003MPS 2500 HZ FEW018 BKN040 20/14 Q1016 NOSIG
ZGSZ,2003-02-14 11:00,ZGSZ 141100Z 10003MPS 2500 BR FEW018 BKN040 20/14 Q1016 NOSIG
ZGSZ,2003-02-14 12:00,ZGSZ 141200Z 12003MPS 2800 BR FEW018 BKN040 20/15 Q1017 NOSIG
ZGSZ,2003-02-14 13:00,ZGSZ 141300Z 13001MPS 3000 BR SCT018 BKN040 20/15 Q1017 NOSIG
ZGSZ,2003-02-14 14:00,ZGSZ 141400Z 31002MPS 2800 BR SCT018 BKN040 18/15 Q1018 NOSIG
ZGSZ,2003-02-14 15:00,ZGSZ 141500Z 29001MPS 2200 BR SCT018 BKN040 18/15 Q1017 NOSIG
ZGSZ,2003-02-14 16:00,ZGSZ 141600Z 22001MPS 2500 BR SCT017 BKN040 18/15 Q1017 NOSIG
ZGSZ,2003-02-14 17:00,ZGSZ 141700Z 34001MPS 2500 BR SCT017 BKN040 18/15 Q1017 NOSIG
ZGSZ,2003-02-14 18:00,ZGSZ 141800Z 11001MPS 2500 BR SCT017 BKN040 19/15 Q1016 NOSIG
ZGSZ,2003-02-14 19:00,ZGSZ 141900Z 10003MPS 2500 BR SCT017 BKN040 19/15 Q1016 NOSIG
ZGSZ,2003-02-14 20:00,ZGSZ 142000Z 13003MPS 2500 BR SCT017 BKN040 19/15 Q1016 NOSIG
ZGSZ,2003-02-14 21:00,ZGSZ 142100Z 12002MPS 3000 BR FEW018 BKN043 19/15 Q1015 NOSIG
ZGSZ,2003-02-14 22:00,ZGSZ 142200Z 13002MPS 3000 BR SCT018 BKN043 18/15 Q1015 NOSIG
ZGSZ,2003-02-14 23:00,ZGSZ 142300Z 15001MPS 2800 BR SCT018 BKN040 18/15 Q1016 NOSIG
ZGSZ,2003-02-15 00:00,ZGSZ 150000Z 31001MPS 2500 BR SCT018 BKN040 18/15 Q1016 NOSIG
ZGSZ,2003-02-15 01:00,ZGSZ 150100Z 33002MPS 2600 BR SCT015 OVC040 18/15 Q1017 NOSIG
ZGSZ,2003-02-15 02:00,ZGSZ 150200Z 27001MPS 2600 BR SCT013 OVC040 19/15 Q1017 NOSIG
ZGSZ,2003-02-15 03:00,ZGSZ 150300Z 20003MPS 3000 BR SCT014 BKN040 20/16 Q1017 NOSIG
ZGSZ,2003-02-15 04:00,ZGSZ 150400Z 21004MPS 3500 BR FEW016 BKN100 20/16 Q1016 NOSIG
ZGSZ,2003-02-15 05:00,ZGSZ 150500Z 21002MPS 5000 BR FEW016 BKN110 22/17 Q1015 NOSIG
ZGSZ,2003-02-15 06:00,ZGSZ 150600Z 21003MPS 6000 FEW020 BKN120 21/17 Q1013 NOSIG
ZGSZ,2003-02-15 07:00,ZGSZ 150700Z 25004MPS 6000 NSC 21/17 Q1013 NOSIG
ZGSZ,2003-02-15 08:00,ZGSZ 150800Z 25003MPS 8000 NSC 21/17 Q1013 NOSIG
ZGSZ,2003-02-15 09:00,ZGSZ 150900Z 22004MPS 8000 NSC 21/17 Q1013 NOSIG
ZGSZ,2003-02-15 10:00,ZGSZ 151000Z 20004MPS 6000 NSC 20/17 Q1013 NOSIG
ZGSZ,2003-02-15 11:00,ZGSZ 151100Z 19006MPS 9999 FEW026 BKN076 20/18 Q1013 NOSIG
ZGSZ,2003-02-15 12:00,ZGSZ 151200Z 17005MPS 6000 NSC 20/17 Q1014 NOSIG
ZGSZ,2003-02-15 13:00,ZGSZ 151300Z 17002MPS 3800 BR NSC 20/17 Q1014 NOSIG
ZGSZ,2003-02-15 14:00,ZGSZ 151400Z 16002MPS 4200 BR FEW018 BKN110 20/17 Q1014 NOSIG
ZGSZ,2003-02-15 15:00,ZGSZ 151500Z 18001MPS 5000 BR BKN043 20/17 Q1015 NOSIG
ZGSZ,2003-02-15 16:00,ZGSZ 151600Z 11002MPS 6000 BKN043 19/17 Q1014 NOSIG
ZGSZ,2003-02-15 18:00,ZGSZ 151800Z 30002MPS 5000 -RA BR BKN043 19/17 Q1014 NOSIG
ZGSZ,2003-02-15 19:00,ZGSZ 151900Z 00000MPS 5000 BR BKN043 19/17 Q1013 NOSIG
ZGSZ,2003-02-15 20:00,ZGSZ 152000Z 00000MPS 3800 BR BKN043 19/17 Q1013 NOSIG
ZGSZ,2003-02-15 21:00,ZGSZ 152100Z 00000MPS 4500 BR NSC 19/17 Q1013 NOSIG
ZGSZ,2003-02-15 22:00,ZGSZ 152200Z 00000MPS 4000 BR NSC 19/17 Q1013 NOSIG
ZGSZ,2003-02-15 23:00,ZGSZ 152300Z 16004MPS 5000 NSC 20/18 Q1013 NOSIG
ZGSZ,2003-02-16 00:00,ZGSZ 160000Z 13001MPS 4500 BR NSC 21/18 Q1014 NOSIG
ZGSZ,2003-02-16 01:00,ZGSZ 160100Z 14001MPS 3500 BR NSC 22/18 Q1015 NOSIG
ZGSZ,2003-02-16 02:00,ZGSZ 160200Z 21001MPS 5000 BR FEW020 BKN050 21/17 Q1016 NOSIG
ZGSZ,2003-02-16 03:00,ZGSZ 160300Z 30001MPS 2800 BR NSC 21/18 Q1016 NOSIG
ZGSZ,2003-02-16 04:00,ZGSZ 160400Z 20002MPS 5000 BR FEW020 BKN050 22/18 Q1015 NOSIG
ZGSZ,2003-02-16 05:00,ZGSZ 160500Z 21003MPS 9999 FEW020 BKN230 23/19 Q1014 NOSIG
ZGSZ,2003-02-16 06:00,ZGSZ 160600Z 21002MPS 9999 SCT020 BKN230 22/19 Q1013 NOSIG
ZGSZ,2003-02-16 07:00,ZGSZ 160700Z 21003MPS 9999 FEW020 SCT250 23/19 Q1012 NOSIG
ZGSZ,2003-02-16 08:00,ZGSZ 160800Z 21003MPS CAVOK 23/19 Q1012 NOSIG
ZGSZ,2003-02-16 09:00,ZGSZ 160900Z 21004MPS CAVOK 22/19 Q1012 NOSIG
ZGSZ,2003-02-16 10:00,ZGSZ 161000Z 20003MPS CAVOK 21/18 Q1013 NOSIG
ZGSZ,2003-02-16 11:00,ZGSZ 161100Z 18002MPS CAVOK 21/18 Q1013 NOSIG
ZGSZ,2003-02-16 12:00,ZGSZ 161200Z 18003MPS 7000 NSC 20/18 Q1014 NOSIG
ZGSZ,2003-02-16 13:00,ZGSZ 161300Z 19002MPS 2800 BR FEW003 SCT010 BKN110 20/18 Q1015 NOSIG
ZGSZ,2003-02-16 14:00,ZGSZ 161400Z 18003MPS 0700 R15/0550N FG FEW003 SCT008 BKN100 19/17 Q1015 TEMPO 0600 FG SCT006 BKN040
ZGSZ,2003-02-16 15:00,ZGSZ 161500Z 14002MPS 1800 BR FEW005 SCT009 BKN060 19/18 Q1016 TEMPO 0500 FG
ZGSZ,2003-02-16 16:00,ZGSZ 161600Z 16002MPS 3000 BR SCT007 OVC043 20/18 Q1016 NOSIG
ZGSZ,2003-02-16 17:00,ZGSZ 161700Z 15001MPS 2800 BR FEW005 SCT010 OVC040 20/18 Q1016 NOSIG
ZGSZ,2003-02-16 18:00,ZGSZ 161800Z 00000MPS 2900 BR FEW005 SCT009 OVC033 20/18 Q1016 NOSIG
ZGSZ,2003-02-16 19:00,ZGSZ 161900Z 32001MPS 1200 R15/0750N BR FEW003 SCT006 OVC030 20/18 Q1015 NOSIG
ZGSZ,2003-02-16 20:00,ZGSZ 162000Z 36002MPS 2000 BR SCT006 BKN040 20/18 Q1015 NOSIG
ZGSZ,2003-02-16 21:00,ZGSZ 162100Z 00000MPS 1900 BR SCT008 BKN040 20/18 Q1015 NOSIG
ZGSZ,2003-02-16 22:00,ZGSZ 162200Z 28003MPS 2000 BR SCT008 OVC040 19/16 Q1016 NOSIG
ZGSZ,2003-02-16 23:00,ZGSZ 162300Z 33002MPS 2100 BR SCT008 OVC040 19/15 Q1017 NOSIG
ZGSZ,2003-02-17 00:00,ZGSZ 170000Z 11004MPS 9999 SCT016 OVC043 20/16 Q1017 NOSIG
ZGSZ,2003-02-17 01:00,ZGSZ 170100Z 11004MPS 9999 FEW015 OVC040 19/16 Q1018 NOSIG
ZGSZ,2003-02-17 02:00,ZGSZ 170200Z 10003MPS 9999 SCT010 OVC036 19/15 Q1019 NOSIG
ZGSZ,2003-02-17 03:00,ZGSZ 170300Z 08003MPS 9999 FEW013 OVC040 19/15 Q1019 NOSIG
ZGSZ,2003-02-17 04:00,ZGSZ 170400Z 11003MPS 8000 OVC040 19/15 Q1019 NOSIG
ZGSZ,2003-02-17 05:00,ZGSZ 170500Z 07002MPS 9999 OVC040 20/15 Q1018 NOSIG
ZGSZ,2003-02-17 06:00,ZGSZ 170600Z 13003MPS 9999 OVC040 20/15 Q1017 NOSIG
ZGSZ,2003-02-17 07:00,ZGSZ 170700Z 10002MPS 9999 OVC036 20/15 Q1017 NOSIG
ZGSZ,2003-02-17 08:00,ZGSZ 170800Z 11005MPS 9999 OVC036 21/15 Q1016 NOSIG
ZGSZ,2003-02-17 09:00,ZGSZ 170900Z 12005MPS 9999 OVC033 20/14 Q1016 NOSIG
ZGSZ,2003-02-17 10:00,ZGSZ 171000Z 09004MPS 6000 OVC030 20/14 Q1017 NOSIG
ZGSZ,2003-02-17 11:00,ZGSZ 171100Z 10004MPS 7000 OVC033 20/14 Q1017 NOSIG
ZGSZ,2003-02-17 12:00,ZGSZ 171200Z 09005MPS 9999 OVC036 19/14 Q1017 NOSIG
ZGSZ,2003-02-17 13:00,ZGSZ 171300Z 10004MPS 6000 OVC030 19/14 Q1018 NOSIG
ZGSZ,2003-02-17 14:00,ZGSZ 171400Z 10005MPS 6000 BKN036 19/14 Q1018 NOSIG
ZGSZ,2003-02-17 15:00,ZGSZ 171500Z 12003MPS 5000 BR SCT016 BKN040 19/14 Q1018 NOSIG
ZGSZ,2003-02-17 17:00,ZGSZ 171700Z 11002MPS 5000 BR FEW015 OVC033 19/14 Q1017 NOSIG
ZGSZ,2003-02-17 18:00,ZGSZ 171800Z 09002MPS 6000 OVC033 19/13 Q1017 NOSIG
ZGSZ,2003-02-17 19:00,ZGSZ 171900Z 02002MPS 6000 OVC030 18/14 Q1016 NOSIG
ZGSZ,2003-02-17 20:00,ZGSZ 172000Z 36002MPS 5000 BR OVC030 18/14 Q1016 NOSIG
ZGSZ,2003-02-17 21:00,ZGSZ 172100Z 04002MPS 5000 BR OVC030 18/14 Q1016 NOSIG
ZGSZ,2003-02-17 22:00,ZGSZ 172200Z 16001MPS 4000 BR OVC033 18/14 Q1017 NOSIG
ZGSZ,2003-02-17 23:00,ZGSZ 172300Z 13004MPS 3500 BR BKN040 SCT070 18/14 Q1017 NOSIG
ZGSZ,2003-02-18 00:00,ZGSZ 180000Z 06002MPS 3800 BR NSC 18/14 Q1018 NOSIG
ZGSZ,2003-02-18 01:00,ZGSZ 180100Z 03003MPS 3300 BR NSC 19/14 Q1018 NOSIG
ZGSZ,2003-02-18 02:00,ZGSZ 180200Z 24002MPS 3000 HZ FEW020 SCT070 21/15 Q1019 NOSIG
ZGSZ,2003-02-18 03:00,ZGSZ 180300Z 30004MPS 2500 BR FEW020 BKN070 21/15 Q1019 NOSIG
ZGSZ,2003-02-18 04:00,ZGSZ 180400Z 30003MPS 2000 BR SCT020 BKN053 20/16 Q1018 NOSIG
ZGSZ,2003-02-18 05:00,ZGSZ 180500Z 29002MPS 2400 HZ FEW020 BKN053 22/16 Q1017 NOSIG
ZGSZ,2003-02-18 06:00,ZGSZ 180600Z 24002MPS 2200 BR FEW020 BKN053 22/17 Q1016 NOSIG
ZGSZ,2003-02-18 07:00,ZGSZ 180700Z 22002MPS 2400 BR NSC 22/16 Q1015 NOSIG
ZGSZ,2003-02-18 08:00,ZGSZ 180800Z 23004MPS 2400 BR FEW020 SCT053 22/17 Q1015 NOSIG
ZGSZ,2003-02-18 09:00,ZGSZ 180900Z 23002MPS 2500 BR SCT026 BKN040 21/17 Q1015 NOSIG
ZGSZ,2003-02-18 10:00,ZGSZ 181000Z 20002MPS 5000 BR FEW026 BKN046 20/17 Q1015 NOSIG
ZGSZ,2003-02-18 11:00,ZGSZ 181100Z 18001MPS 5000 BR NSC 20/16 Q1015 NOSIG
ZGSZ,2003-02-18 12:00,ZGSZ 181200Z 18002MPS 5000 BR NSC 19/16 Q1015 NOSIG
ZGSZ,2003-02-18 13:00,ZGSZ 181300Z 14002MPS 4000 BR NSC 19/16 Q1016 NOSIG
ZGSZ,2003-02-18 14:00,ZGSZ 181400Z 15002MPS 4000 BR NSC 19/16 Q1016 NOSIG
ZGSZ,2003-02-18 15:00,ZGSZ 181500Z 14002MPS 3000 BR NSC 19/16 Q1016 NOSIG
ZGSZ,2003-02-18 16:00,ZGSZ 181600Z 18003MPS 2200 BR FEW020 SCT100 18/16 Q1016 NOSIG
ZGSZ,2003-02-18 17:00,ZGSZ 181700Z 18002MPS 2200 BR NSC 18/16 Q1015 NOSIG
ZGSZ,2003-02-18 18:00,ZGSZ 181800Z 18002MPS 2500 BR NSC 18/16 Q1015 NOSIG
ZGSZ,2003-02-18 19:00,ZGSZ 181900Z 30001MPS 2500 BR NSC 19/16 Q1015 NOSIG
ZGSZ,2003-02-18 20:00,ZGSZ 182000Z 29002MPS 2500 BR NSC 19/16 Q1015 NOSIG
ZGSZ,2003-02-18 21:00,ZGSZ 182100Z 29001MPS 2000 BR NSC 19/16 Q1015 NOSIG
ZGSZ,2003-02-18 22:00,ZGSZ 182200Z 31002MPS 1800 BR NSC 19/16 Q1015 NOSIG
ZGSZ,2003-02-18 23:00,ZGSZ 182300Z 31001MPS 2000 BR NSC 19/16 Q1016 NOSIG
ZGSZ,2003-02-19 00:00,ZGSZ 190000Z 14002MPS 2800 BR SCT026 BKN043 19/16 Q1016 NOSIG
ZGSZ,2003-02-19 01:00,ZGSZ 190100Z 16002MPS 2500 BR FEW026 BKN043 20/16 Q1017 NOSIG
ZGSZ,2003-02-19 02:00,ZGSZ 190200Z 14002MPS 3300 BR FEW026 BKN050 21/16 Q1018 NOSIG
ZGSZ,2003-02-19 03:00,ZGSZ 190300Z 18003MPS 7000 SCT026 22/16 Q1017 NOSIG
ZGSZ,2003-02-19 04:00,ZGSZ 190400Z 20003MPS 9999 FEW026 22/16 Q1017 NOSIG
ZGSZ,2003-02-19 05:00,ZGSZ 190500Z 19002MPS 9999 FEW023 BKN060 23/16 Q1016 NOSIG
ZGSZ,2003-02-19 06:00,ZGSZ 190600Z 17003MPS 9999 FEW020 SCT060 24/16 Q1015 NOSIG
ZGSZ,2003-02-19 07:00,ZGSZ 190700Z 18003MPS 9999 FEW023 BKN060 23/16 Q1015 NOSIG
ZGSZ,2003-02-19 08:00,ZGSZ 190800Z 20002MPS CAVOK 24/16 Q1014 NOSIG
ZGSZ,2003-02-19 09:00,ZGSZ 190900Z 19002MPS CAVOK 24/17 Q1014 NOSIG
ZGSZ,2003-02-19 10:00,ZGSZ 191000Z 21002MPS CAVOK 22/17 Q1015 NOSIG
ZGSZ,2003-02-19 11:00,ZGSZ 191100Z 15002MPS CAVOK 21/16 Q1015 NOSIG
ZGSZ,2003-02-19 12:00,ZGSZ 191200Z 08001MPS 7000 NSC 22/15 Q1015 NOSIG
ZGSZ,2003-02-19 13:00,ZGSZ 191300Z 23002MPS 7000 NSC 20/17 Q1016 NOSIG
ZGSZ,2003-02-19 14:00,ZGSZ 191400Z 17001MPS 5000 BR NSC 20/17 Q1016 NOSIG
ZGSZ,2003-02-19 15:00,ZGSZ 191500Z 14001MPS 4000 BR NSC 20/17 Q1016 NOSIG
ZGSZ,2003-02-19 16:00,ZGSZ 191600Z 00000MPS 3000 BR NSC 20/17 Q1016 NOSIG
ZGSZ,2003-02-19 17:00,ZGSZ 191700Z 09003MPS 3500 BR NSC 21/16 Q1016 NOSIG
ZGSZ,2003-02-19 18:00,ZGSZ 191800Z 12003MPS 3800 BR NSC 20/16 Q1016 NOSIG
ZGSZ,2003-02-19 19:00,ZGSZ 191900Z 10004MPS 4500 BR NSC 20/16 Q1016 NOSIG
ZGSZ,2003-02-19 20:00,ZGSZ 192000Z 10004MPS 4500 BR NSC 19/15 Q1016 NOSIG
ZGSZ,2003-02-19 21:00,ZGSZ 192100Z 10004MPS 4200 BR BKN043 BKN060 18/15 Q1016 NOSIG
ZGSZ,2003-02-19 22:00,ZGSZ 192200Z 09004MPS 4200 BR OVC033 18/14 Q1017 NOSIG
ZGSZ,2003-02-19 23:00,ZGSZ 192300Z 09004MPS 6000 BKN026 BKN050 18/14 Q1017 NOSIG
ZGSZ,2003-02-20 00:00,ZGSZ 200000Z 09005MPS 9999 BKN016 BKN040 18/13 Q1018 NOSIG
ZGSZ,2003-02-20 01:00,ZGSZ 200100Z 09006MPS 9999 FEW014 OVC050 18/12 Q1019 NOSIG
ZGSZ,2003-02-20 02:00,ZGSZ 200200Z 09007MPS 9999 FEW016 OVC040 18/10 Q1019 NOSIG
ZGSZ,2003-02-20 03:00,ZGSZ 200300Z 11007MPS CAVOK 20/10 Q1019 NOSIG
ZGSZ,2003-02-20 04:00,ZGSZ 200400Z 11009MPS CAVOK 21/09 Q1019 TEMPO 10010MPS 51////
ZGSZ,2003-02-20 05:00,ZGSZ 200500Z 09008MPS CAVOK 21/08 Q1018 TEMPO 10010MPS
ZGSZ,2003-02-20 06:00,ZGSZ 200600Z 10007MPS CAVOK 21/08 Q1017 TEMPO 10010MPS
ZGSZ,2003-02-20 07:00,ZGSZ 200700Z 11007MPS CAVOK 22/08 Q1016 TEMPO 10010MPS
ZGSZ,2003-02-20 08:00,ZGSZ 200800Z 10007MPS CAVOK 21/07 Q1016 TEMPO 11009MPS
ZGSZ,2003-02-20 09:00,ZGSZ 200900Z 11007MPS 9999 FEW026 SCT130 21/06 Q1016 NOSIG
ZGSZ,2003-02-20 10:00,ZGSZ 201000Z 10006MPS 9999 FEW020 BKN050 20/06 Q1017 NOSIG
ZGSZ,2003-02-20 11:00,ZGSZ 201100Z 11006MPS 9999 BKN043 19/06 Q1017 NOSIG
ZGSZ,2003-02-20 12:00,ZGSZ 201200Z 10008MPS 9999 BKN046 19/06 Q1017 NOSIG
ZGSZ,2003-02-20 13:00,ZGSZ 201300Z 09004MPS 9999 FEW036 BKN100 18/06 Q1018 NOSIG
ZGSZ,2003-02-20 14:00,ZGSZ 201400Z 10004MPS 9999 SCT036 BKN100 18/05 Q1018 NOSIG
ZGSZ,2003-02-20 15:00,ZGSZ 201500Z 10005MPS 9999 BKN040 18/08 Q1018 NOSIG
ZGSZ,2003-02-20 16:00,ZGSZ 201600Z 10004MPS 9999 FEW036 BKN053 18/11 Q1018 NOSIG
ZGSZ,2003-02-20 17:00,ZGSZ 201700Z 10004MPS 9999 BKN046 18/11 Q1018 NOSIG
ZGSZ,2003-02-20 18:00,ZGSZ 201800Z 10004MPS 9999 BKN046 18/12 Q1017 NOSIG
ZGSZ,2003-02-20 19:00,ZGSZ 201900Z 09002MPS 9999 BKN046 18/12 Q1017 NOSIG
ZGSZ,2003-02-20 20:00,ZGSZ 202000Z 09003MPS 9999 BKN046 18/12 Q1017 NOSIG
ZGSZ,2003-02-20 21:00,ZGSZ 202100Z 11004MPS CAVOK 18/12 Q1017 NOSIG
ZGSZ,2003-02-20 22:00,ZGSZ 202200Z 09004MPS CAVOK 18/12 Q1017 NOSIG
ZGSZ,2003-02-20 23:00,ZGSZ 202300Z 12004MPS 6000 NSC 18/13 Q1017 NOSIG
ZGSZ,2003-02-21 00:00,ZGSZ 210000Z 12005MPS 5000 BR BKN043 19/13 Q1018 NOSIG
ZGSZ,2003-02-21 01:00,ZGSZ 210100Z 12006MPS 6000 SCT040 BKN070 20/14 Q1018 NOSIG
ZGSZ,2003-02-21 02:00,ZGSZ 210200Z 12004MPS 4800 HZ NSC 21/14 Q1019 NOSIG
ZGSZ,2003-02-21 03:00,ZGSZ 210300Z 10005MPS 5000 HZ NSC 23/15 Q1019 NOSIG
ZGSZ,2003-02-21 04:00,ZGSZ 210400Z 13005MPS 4500 HZ NSC 23/14 Q1018 NOSIG
ZGSZ,2003-02-21 05:00,ZGSZ 210500Z 17003MPS 5000 HZ FEW020 BKN050 23/15 Q1017 NOSIG
ZGSZ,2003-02-21 06:00,ZGSZ 210600Z 15005MPS 6000 BKN025 24/15 Q1017 NOSIG
ZGSZ,2003-02-21 07:00,ZGSZ 210700Z 14007MPS 6000 BKN025 SCT060 23/15 Q1016 NOSIG
ZGSZ,2003-02-21 08:00,ZGSZ 210800Z 15005MPS 7000 FEW020 BKN053 23/15 Q1016 NOSIG
ZGSZ,2003-02-21 09:00,ZGSZ 210900Z 13005MPS 5000 FEW020 SCT053 23/15 Q1015 NOSIG
ZGSZ,2003-02-21 10:00,ZGSZ 211000Z 12005MPS 6000 SKC 22/15 Q1015 NOSIG
ZGSZ,2003-02-21 11:00,ZGSZ 211100Z 10004MPS 5000 HZ SKC 21/15 Q1016 NOSIG
ZGSZ,2003-02-21 12:00,ZGSZ 211200Z 09004MPS 5000 BR SKC 21/15 Q1016 NOSIG
ZGSZ,2003-02-21 13:00,ZGSZ 211300Z 12004MPS 4500 BR NSC 20/15 Q1017 NOSIG
ZGSZ,2003-02-21 14:00,ZGSZ 211400Z 10004MPS 4000 BR NSC 20/15 Q1017 NOSIG
ZGSZ,2003-02-21 15:00,ZGSZ 211500Z 13004MPS 4000 BR SKC 19/15 Q1017 NOSIG
ZGSZ,2003-02-21 16:00,ZGSZ 211600Z 10004MPS 4000 BR SKC 19/16 Q1016 NOSIG
ZGSZ,2003-02-21 17:00,ZGSZ 211700Z 12005MPS 4500 BR SKC 19/16 Q1016 NOSIG
ZGSZ,2003-02-21 18:00,ZGSZ 211800Z 12004MPS 4000 BR SKC 19/16 Q1015 NOSIG
ZGSZ,2003-02-21 19:00,ZGSZ 211900Z 12003MPS 4000 BR SKC 19/16 Q1015 NOSIG
ZGSZ,2003-02-21 20:00,ZGSZ 212000Z 10003MPS 3500 BR SKC 19/16 Q1014 NOSIG
ZGSZ,2003-02-21 21:00,ZGSZ 212100Z 11002MPS 3500 BR SKC 18/16 Q1015 NOSIG
ZGSZ,2003-02-21 22:00,ZGSZ 212200Z 03001MPS 4500 BR SKC 18/15 Q1015 NOSIG
ZGSZ,2003-02-21 23:00,ZGSZ 212300Z 04003MPS 6000 FEW018 SCT043 19/16 Q1016 NOSIG
ZGSZ,2003-02-22 00:00,ZGSZ 220000Z 06001MPS 9999 SCT018 BKN043 20/16 Q1017 NOSIG
ZGSZ,2003-02-22 01:00,ZGSZ 220100Z 31002MPS 7000 SCT020 BKN043 20/16 Q1017 NOSIG
ZGSZ,2003-02-22 02:00,ZGSZ 220200Z 13003MPS 5000 BKN046 21/16 Q1017 NOSIG
ZGSZ,2003-02-22 03:00,ZGSZ 220300Z 14004MPS 8000 NSC 23/17 Q1017 NOSIG
ZGSZ,2003-02-22 04:00,ZGSZ 220400Z 21003MPS CAVOK 23/18 Q1016 NOSIG
ZGSZ,2003-02-22 05:00,ZGSZ 220500Z 21003MPS CAVOK 23/17 Q1015 NOSIG
ZGSZ,2003-02-22 06:00,ZGSZ 220600Z 20003MPS CAVOK 23/17 Q1014 NOSIG
ZGSZ,2003-02-22 07:00,ZGSZ 220700Z 18005MPS CAVOK 23/18 Q1013 NOSIG
ZGSZ,2003-02-22 08:00,ZGSZ 220800Z 18006MPS CAVOK 23/18 Q1013 NOSIG
ZGSZ,2003-02-22 09:00,ZGSZ 220900Z 18005MPS CAVOK 22/18 Q1013 NOSIG
ZGSZ,2003-02-22 10:00,ZGSZ 221000Z 17003MPS CAVOK 22/18 Q1013 NOSIG
ZGSZ,2003-02-22 11:00,ZGSZ 221100Z 17002MPS CAVOK 21/17 Q1013 NOSIG
ZGSZ,2003-02-22 12:00,ZGSZ 221200Z 18003MPS CAVOK 21/17 Q1013 NOSIG
ZGSZ,2003-02-22 13:00,ZGSZ 221300Z 18004MPS CAVOK 20/17 Q1014 NOSIG
ZGSZ,2003-02-22 14:00,ZGSZ 221400Z 15003MPS CAVOK 20/17 Q1014 NOSIG
ZGSZ,2003-02-22 15:00,ZGSZ 221500Z 13004MPS CAVOK 20/17 Q1014 NOSIG
ZGSZ,2003-02-22 16:00,ZGSZ 221600Z 14002MPS CAVOK 19/16 Q1014 NOSIG
ZGSZ,2003-02-22 17:00,ZGSZ 221700Z 15002MPS 8000 SKC 19/16 Q1013 NOSIG
ZGSZ,2003-02-22 18:00,ZGSZ 221800Z 14002MPS 7000 SKC 19/16 Q1013 NOSIG
ZGSZ,2003-02-22 19:00,ZGSZ 221900Z 23001MPS 5000 BR SKC 19/17 Q1013 NOSIG
ZGSZ,2003-02-22 20:00,ZGSZ 222000Z 18004MPS 2800 BR SKC 19/17 Q1012 NOSIG
ZGSZ,2003-02-22 21:00,ZGSZ 222100Z 17002MPS 3000 BR NSC 19/17 Q1013 NOSIG
ZGSZ,2003-02-22 22:00,ZGSZ 222200Z 17003MPS 3000 BR BKN043 20/17 Q1013 NOSIG
ZGSZ,2003-02-22 23:00,ZGSZ 222300Z 21001MPS 4000 BR FEW013 OVC040 20/17 Q1013 NOSIG
ZGSZ,2003-02-23 00:00,ZGSZ 230000Z 00000MPS 9999 SCT015 OVC040 20/17 Q1014 NOSIG
ZGSZ,2003-02-23 01:00,ZGSZ 230100Z 00000MPS 7000 SCT020 OVC040 21/18 Q1015 NOSIG
ZGSZ,2003-02-23 02:00,ZGSZ 230200Z 27002MPS 9999 SCT020 OVC040 21/18 Q1015 NOSIG
ZGSZ,2003-02-23 03:00,ZGSZ 230300Z 29001MPS 9999 SCT020 OVC040 22/17 Q1015 NOSIG
ZGSZ,2003-02-23 04:00,ZGSZ 230400Z 18001MPS 9999 BKN026 OVC040 23/17 Q1015 NOSIG
ZGSZ,2003-02-23 05:00,ZGSZ 230500Z 19003MPS 9999 FEW026 BKN050 23/17 Q1013 NOSIG
ZGSZ,2003-02-23 06:00,ZGSZ 230600Z 18003MPS CAVOK 23/17 Q1013 NOSIG
ZGSZ,2003-02-23 07:00,ZGSZ 230700Z 18004MPS CAVOK 23/17 Q1012 NOSIG
ZGSZ,2003-02-23 08:00,ZGSZ 230800Z 17003MPS CAVOK 24/17 Q1011 NOSIG
ZGSZ,2003-02-23 09:00,ZGSZ 230900Z 17005MPS CAVOK 23/18 Q1011 NOSIG
ZGSZ,2003-02-23 10:00,ZGSZ 231000Z 15004MPS CAVOK 22/17 Q1011 NOSIG
ZGSZ,2003-02-23 11:00,ZGSZ 231100Z 16003MPS CAVOK 22/16 Q1011 NOSIG
ZGSZ,2003-02-23 12:00,ZGSZ 231200Z 14003MPS CAVOK 21/16 Q1012 NOSIG
ZGSZ,2003-02-23 13:00,ZGSZ 231300Z 14003MPS CAVOK 20/16 Q1012 NOSIG
ZGSZ,2003-02-23 14:00,ZGSZ 231400Z 15002MPS CAVOK 20/17 Q1013 NOSIG
ZGSZ,2003-02-23 15:00,ZGSZ 231500Z 13002MPS CAVOK 20/16 Q1013 NOSIG
ZGSZ,2003-02-23 16:00,ZGSZ 231600Z 14002MPS 9000 SKC 20/16 Q1013 NOSIG
ZGSZ,2003-02-23 17:00,ZGSZ 231700Z 13002MPS 9000 SKC 20/16 Q1013 NOSIG
ZGSZ,2003-02-23 18:00,ZGSZ 231800Z 13001MPS 9000 SKC 20/16 Q1012 NOSIG
ZGSZ,2003-02-23 19:00,ZGSZ 231900Z 13002MPS 9000 SKC 21/17 Q1012 NOSIG
ZGSZ,2003-02-23 20:00,ZGSZ 232000Z 00000MPS 9000 SKC 20/16 Q1012 NOSIG
ZGSZ,2003-02-23 21:00,ZGSZ 232100Z 28001MPS 9999 FEW023 20/17 Q1012 NOSIG
ZGSZ,2003-02-23 22:00,ZGSZ 232200Z 00000MPS CAVOK 19/17 Q1012 NOSIG
ZGSZ,2003-02-23 23:00,ZGSZ 232300Z 36001MPS 3000 BR SCT043 20/17 Q1013 NOSIG
ZGSZ,2003-02-24 00:00,ZGSZ 240000Z 35001MPS 2200 BR FEW023 20/17 Q1013 NOSIG
ZGSZ,2003-02-24 01:00,ZGSZ 240100Z 26001MPS 3000 BR SKC 22/18 Q1014 NOSIG
ZGSZ,2003-02-24 02:00,ZGSZ 240200Z 26002MPS 3000 BR SKC 22/18 Q1014 NOSIG
ZGSZ,2003-02-24 03:00,ZGSZ 240300Z 23003MPS 3200 BR NSC 22/18 Q1014 NOSIG
ZGSZ,2003-02-24 04:00,ZGSZ 240400Z 20003MPS 2800 BR SKC 21/18 Q1014 NOSIG
ZGSZ,2003-02-24 05:00,ZGSZ 240500Z 18003MPS 3000 BR SKC 23/19 Q1013 NOSIG
ZGSZ,2003-02-24 06:00,ZGSZ 240600Z 18003MPS 7000 FEW020 SCT060 23/18 Q1012 NOSIG
ZGSZ,2003-02-24 07:00,ZGSZ 240700Z 15005MPS 6000 NSC 25/18 Q1011 NOSIG
ZGSZ,2003-02-24 08:00,ZGSZ 240800Z 17006MPS 7000 SKC 24/19 Q1011 NOSIG
ZGSZ,2003-02-24 09:00,ZGSZ 240900Z 11006MPS CAVOK 25/17 Q1011 NOSIG
ZGSZ,2003-02-24 10:00,ZGSZ 241000Z 13007MPS CAVOK 22/17 Q1012 NOSIG
ZGSZ,2003-02-24 11:00,ZGSZ 241100Z 13006MPS 9999 SCT026 BKN060 21/16 Q1013 NOSIG
ZGSZ,2003-02-24 12:00,ZGSZ 241200Z 11006MPS 9999 BKN026 BKN060 21/16 Q1014 NOSIG
ZGSZ,2003-02-24 13:00,ZGSZ 241300Z 10005MPS 9999 BKN030 BKN050 21/16 Q1015 NOSIG
ZGSZ,2003-02-24 14:00,ZGSZ 241400Z 11004MPS 6000 BKN026 BKN050 20/16 Q1015 NOSIG
ZGSZ,2003-02-24 15:00,ZGSZ 241500Z 10006MPS 7000 SCT020 SCT100 20/16 Q1015 NOSIG
ZGSZ,2003-02-24 16:00,ZGSZ 241600Z 10005MPS CAVOK 19/16 Q1015 NOSIG
ZGSZ,2003-02-24 17:00,ZGSZ 241700Z 09006MPS CAVOK 19/15 Q1014 NOSIG
ZGSZ,2003-02-24 18:00,ZGSZ 241800Z 10007MPS 7000 NSC 19/15 Q1014 NOSIG
ZGSZ,2003-02-24 19:00,ZGSZ 241900Z 09006MPS 7000 NSC 19/15 Q1014 NOSIG
ZGSZ,2003-02-24 20:00,ZGSZ 242000Z 08004MPS 7000 NSC 19/15 Q1014 NOSIG
ZGSZ,2003-02-24 21:00,ZGSZ 242100Z 11004MPS CAVOK 19/15 Q1014 NOSIG
ZGSZ,2003-02-24 22:00,ZGSZ 242200Z 10005MPS CAVOK 19/14 Q1014 NOSIG
ZGSZ,2003-02-24 23:00,ZGSZ 242300Z 09004MPS 9999 FEW030 BKN043 19/14 Q1015 NOSIG
ZGSZ,2003-02-25 00:00,ZGSZ 250000Z 10004MPS 9999 SCT030 BKN040 19/14 Q1016 NOSIG
ZGSZ,2003-02-25 01:00,ZGSZ 250100Z 11006MPS 9999 SCT020 BKN100 20/14 Q1017 NOSIG
ZGSZ,2003-02-25 02:00,ZGSZ 250200Z 13007MPS 7000 FEW020 BKN120 21/14 Q1017 NOSIG
ZGSZ,2003-02-25 03:00,ZGSZ 250300Z 13006MPS 6000 FEW020 BKN120 23/15 Q1017 NOSIG
ZGSZ,2003-02-25 04:00,ZGSZ 250400Z 11005MPS CAVOK 24/15 Q1016 NOSIG
ZGSZ,2003-02-25 05:00,ZGSZ 250500Z 11005MPS CAVOK 24/15 Q1015 NOSIG
ZGSZ,2003-02-25 06:00,ZGSZ 250600Z 10005MPS CAVOK 24/15 Q1015 NOSIG
ZGSZ,2003-02-25 07:00,ZGSZ 250700Z 14004MPS CAVOK 24/15 Q1014 NOSIG
ZGSZ,2003-02-25 08:00,ZGSZ 250800Z 18004MPS CAVOK 23/17 Q1014 NOSIG
ZGSZ,2003-02-25 09:00,ZGSZ 250900Z 11004MPS CAVOK 24/15 Q1014 NOSIG
ZGSZ,2003-02-25 10:00,ZGSZ 251000Z 09004MPS CAVOK 23/15 Q1014 NOSIG
ZGSZ,2003-02-25 11:00,ZGSZ 251100Z 09005MPS 8000 BKN046 22/14 Q1015 NOSIG
ZGSZ,2003-02-25 12:00,ZGSZ 251200Z 10004MPS 6000 BKN046 21/15 Q1015 NOSIG
ZGSZ,2003-02-25 13:00,ZGSZ 251300Z 12005MPS 6000 SCT026 21/15 Q1016 NOSIG
ZGSZ,2003-02-25 14:00,ZGSZ 251400Z 13004MPS 6000 SCT026 20/15 Q1016 NOSIG
ZGSZ,2003-02-25 15:00,ZGSZ 251500Z 11003MPS 5000 BR BKN026 20/15 Q1016 NOSIG
ZGSZ,2003-02-25 16:00,ZGSZ 251600Z 10005MPS 5000 BR FEW026 20/16 Q1016 NOSIG
ZGSZ,2003-02-25 17:00,ZGSZ 251700Z 09003MPS 5000 BR FEW026 20/16 Q1015 NOSIG
ZGSZ,2003-02-25 18:00,ZGSZ 251800Z 09003MPS 5000 BR BKN026 20/16 Q1015 NOSIG
ZGSZ,2003-02-25 19:00,ZGSZ 251900Z 08002MPS 5000 BR BKN033 20/16 Q1015 NOSIG
ZGSZ,2003-02-25 20:00,ZGSZ 252000Z 09002MPS 5000 BR BKN033 20/16 Q1015 NOSIG
ZGSZ,2003-02-25 21:00,ZGSZ 252100Z 09002MPS 5000 BR BKN046 20/16 Q1015 NOSIG
ZGSZ,2003-02-25 22:00,ZGSZ 252200Z 08002MPS 5000 BR NSC 20/16 Q1015 NOSIG
ZGSZ,2003-02-25 23:00,ZGSZ 252300Z 11003MPS 4000 BR NSC 20/16 Q1016 NOSIG
ZGSZ,2003-02-26 00:00,ZGSZ 260000Z 09001MPS 5000 BR NSC 21/16 Q1016 NOSIG
ZGSZ,2003-02-26 01:00,ZGSZ 260100Z 12002MPS 6000 BKN043 21/15 Q1017 NOSIG
ZGSZ,2003-02-26 02:00,ZGSZ 260200Z 12003MPS 5000 HZ BKN040 22/15 Q1018 NOSIG
ZGSZ,2003-02-26 03:00,ZGSZ 260300Z 21002MPS 6000 BKN040 22/16 Q1018 NOSIG
ZGSZ,2003-02-26 04:00,ZGSZ 260400Z 21003MPS 6000 FEW023 SCT150 23/16 Q1017 NOSIG
ZGSZ,2003-02-26 05:00,ZGSZ 260500Z 20004MPS 6000 FEW023 BKN130 24/17 Q1016 NOSIG
ZGSZ,2003-02-26 06:00,ZGSZ 260600Z 19003MPS 5000 HZ FEW023 BKN100 24/17 Q1015 NOSIG
ZGSZ,2003-02-26 07:00,ZGSZ 260700Z 19003MPS 5000 HZ BKN043 23/17 Q1014 NOSIG
ZGSZ,2003-02-26 08:00,ZGSZ 260800Z 22002MPS 8000 BKN043 22/18 Q1014 NOSIG
ZGSZ,2003-02-26 09:00,ZGSZ 260900Z 18002MPS 9999 BKN046 22/17 Q1014 NOSIG
ZGSZ,2003-02-26 10:00,ZGSZ 261000Z 14002MPS 9999 BKN046 22/18 Q1014 NOSIG
ZGSZ,2003-02-26 11:00,ZGSZ 261100Z 14004MPS CAVOK 22/17 Q1014 NOSIG
ZGSZ,2003-02-26 12:00,ZGSZ 261200Z 17003MPS 6000 NSC 22/17 Q1014 NOSIG
ZGSZ,2003-02-26 13:00,ZGSZ 261300Z 10002MPS 6000 NSC 23/15 Q1015 NOSIG
ZGSZ,2003-02-26 14:00,ZGSZ 261400Z 13002MPS 5000 HZ NSC 23/15 Q1015 NOSIG
ZGSZ,2003-02-26 15:00,ZGSZ 261500Z 21002MPS 3500 BR NSC 21/17 Q1015 NOSIG
ZGSZ,2003-02-26 16:00,ZGSZ 261600Z 18001MPS 3000 BR NSC 20/17 Q1015 NOSIG
ZGSZ,2003-02-26 17:00,ZGSZ 261700Z 28001MPS 2200 BR NSC 20/18 Q1015 NOSIG
ZGSZ,2003-02-26 18:00,ZGSZ 261800Z 00000MPS 2200 BR NSC 20/17 Q1015 NOSIG
ZGSZ,2003-02-26 19:00,ZGSZ 261900Z 00000MPS 2400 BR NSC 19/17 Q1015 NOSIG
ZGSZ,2003-02-26 20:00,ZGSZ 262000Z 00000MPS 2200 BR NSC 19/16 Q1014 NOSIG
ZGSZ,2003-02-26 21:00,ZGSZ 262100Z 00000MPS 2200 BR NSC 18/16 Q1014 NOSIG
ZGSZ,2003-02-26 22:00,ZGSZ 262200Z 00000MPS 2400 BR NSC 18/16 Q1015 NOSIG
ZGSZ,2003-02-26 23:00,ZGSZ 262300Z 00000MPS 1700 BR SKC 18/16 Q1015 NOSIG
ZGSZ,2003-02-27 00:00,ZGSZ 270000Z 00000MPS 1800 BR SKC 19/17 Q1016 NOSIG
ZGSZ,2003-02-27 01:00,ZGSZ 270100Z 00000MPS 1800 HZ NSC 22/16 Q1017 NOSIG
ZGSZ,2003-02-27 02:00,ZGSZ 270200Z 22002MPS 2300 HZ NSC 23/16 Q1017 NOSIG
ZGSZ,2003-02-27 03:00,ZGSZ 270300Z 23003MPS 4000 HZ NSC 24/17 Q1017 NOSIG
ZGSZ,2003-02-27 04:00,ZGSZ 270400Z 27003MPS 4000 HZ NSC 24/17 Q1017 NOSIG
ZGSZ,2003-02-27 05:00,ZGSZ 270500Z 27003MPS CAVOK 25/17 Q1016 NOSIG
ZGSZ,2003-02-27 06:00,ZGSZ 270600Z 24003MPS CAVOK 25/18 Q1015 NOSIG
ZGSZ,2003-02-27 07:00,ZGSZ 270700Z 19003MPS CAVOK 25/18 Q1014 NOSIG
ZGSZ,2003-02-27 08:00,ZGSZ 270800Z 19003MPS CAVOK 25/19 Q1013 NOSIG
ZGSZ,2003-02-27 09:00,ZGSZ 270900Z 18005MPS CAVOK 24/18 Q1013 NOSIG
ZGSZ,2003-02-27 10:00,ZGSZ 271000Z 18004MPS CAVOK 23/18 Q1013 NOSIG
ZGSZ,2003-02-27 11:00,ZGSZ 271100Z 18004MPS CAVOK 22/19 Q1014 NOSIG
ZGSZ,2003-02-27 12:00,ZGSZ 271200Z 18004MPS CAVOK 22/19 Q1014 NOSIG
ZGSZ,2003-02-27 13:00,ZGSZ 271300Z 11004MPS CAVOK 23/17 Q1015 NOSIG
ZGSZ,2003-02-27 14:00,ZGSZ 271400Z 10005MPS CAVOK 23/17 Q1015 NOSIG
ZGSZ,2003-02-27 15:00,ZGSZ 271500Z 11005MPS CAVOK 22/17 Q1016 NOSIG
ZGSZ,2003-02-27 16:00,ZGSZ 271600Z 10004MPS CAVOK 21/17 Q1016 NOSIG
ZGSZ,2003-02-27 17:00,ZGSZ 271700Z 10003MPS CAVOK 21/17 Q1015 NOSIG
ZGSZ,2003-02-27 18:00,ZGSZ 271800Z 12003MPS 7000 SKC 21/17 Q1015 NOSIG
ZGSZ,2003-02-27 19:00,ZGSZ 271900Z 10003MPS 6000 NSC 21/17 Q1015 NOSIG
ZGSZ,2003-02-27 20:00,ZGSZ 272000Z 08003MPS 6000 NSC 21/17 Q1015 NOSIG
ZGSZ,2003-02-27 21:00,ZGSZ 272100Z 09004MPS 4500 BR NSC 20/17 Q1015 NOSIG
ZGSZ,2003-02-27 22:00,ZGSZ 272200Z 09005MPS 4500 BR NSC 20/16 Q1015 NOSIG
ZGSZ,2003-02-27 23:00,ZGSZ 272300Z 09004MPS 6000 NSC 20/16 Q1015 NOSIG
ZGSZ,2003-02-28 00:00,ZGSZ 280000Z 13003MPS CAVOK 20/16 Q1016 NOSIG
ZGSZ,2003-02-28 01:00,ZGSZ 280100Z 09004MPS 9999 FEW026 BKN046 21/16 Q1016 NOSIG
ZGSZ,2003-02-28 02:00,ZGSZ 280200Z 11006MPS 9999 FEW020 BKN050 23/16 Q1016 NOSIG
ZGSZ,2003-02-28 03:00,ZGSZ 280300Z 13003MPS 9999 FEW020 BKN050 24/17 Q1016 NOSIG
ZGSZ,2003-02-28 04:00,ZGSZ 280400Z 24003MPS 9999 SCT023 BKN046 23/17 Q1016 NOSIG
ZGSZ,2003-02-28 05:00,ZGSZ 280500Z 26002MPS 9999 FEW020 BKN046 24/17 Q1014 NOSIG
ZGSZ,2003-02-28 06:00,ZGSZ 280600Z 17005MPS 9999 FEW020 BKN070 26/17 Q1013 NOSIG
ZGSZ,2003-02-28 07:00,ZGSZ 280700Z 19005MPS 8000 FEW020 BKN070 23/18 Q1012 NOSIG
ZGSZ,2003-02-28 08:00,ZGSZ 280800Z 22004MPS 9000 FEW026 BKN050 23/18 Q1012 NOSIG
ZGSZ,2003-02-28 09:00,ZGSZ 280900Z 21002MPS 9999 BKN043 23/18 Q1012 NOSIG
ZGSZ,2003-02-28 10:00,ZGSZ 281000Z 18004MPS 9999 BKN043 22/18 Q1012 NOSIG
ZGSZ,2003-02-28 11:00,ZGSZ 281100Z 10004MPS 9999 BKN043 24/17 Q1012 NOSIG
ZGSZ,2003-02-28 12:00,ZGSZ 281200Z 09005MPS 9999 FEW046 23/17 Q1012 NOSIG
ZGSZ,2003-02-28 13:00,ZGSZ 281300Z 11005MPS CAVOK 22/17 Q1012 NOSIG
ZGSZ,2003-02-28 14:00,ZGSZ 281400Z 11004MPS CAVOK 22/17 Q1012 NOSIG
ZGSZ,2003-02-28 15:00,ZGSZ 281500Z 09002MPS CAVOK 21/17 Q1013 NOSIG
ZGSZ,2003-02-28 16:00,ZGSZ 281600Z 09003MPS CAVOK 21/17 Q1013 NOSIG
ZGSZ,2003-02-28 17:00,ZGSZ 281700Z 11006MPS CAVOK 21/17 Q1013 NOSIG
ZGSZ,2003-02-28 18:00,ZGSZ 281800Z 09002MPS CAVOK 21/17 Q1012 NOSIG
ZGSZ,2003-02-28 19:00,ZGSZ 281900Z 00000MPS CAVOK 20/17 Q1012 NOSIG
ZGSZ,2003-02-28 20:00,ZGSZ 282000Z 03002MPS CAVOK 20/17 Q1012 NOSIG
ZGSZ,2003-02-28 21:00,ZGSZ 282100Z 36003MPS 3000 BR BKN043 20/17 Q1012 NOSIG
ZGSZ,2003-02-28 22:00,ZGSZ 282200Z 08001MPS 3000 BR BKN043 20/17 Q1012 NOSIG
ZGSZ,2003-02-28 23:00,ZGSZ 282300Z 09001MPS 3000 BR SKC 19/16 Q1012 NOSIG
ZGSZ,2003-03-01 00:00,ZGSZ 010000Z 13003MPS 3000 BR SKC 21/17 Q1012 NOSIG
ZGSZ,2003-03-01 01:00,ZGSZ 010100Z 10002MPS 3000 BR SKC 23/18 Q1013 NOSIG
ZGSZ,2003-03-01 02:00,ZGSZ 010200Z 23002MPS 3500 BR SCT020 23/17 Q1013 NOSIG
ZGSZ,2003-03-01 03:00,ZGSZ 010300Z 26003MPS 2800 BR SCT020 BKN043 23/18 Q1014 NOSIG
ZGSZ,2003-03-01 04:00,ZGSZ 010400Z 24003MPS 2500 BR SCT020 SCT043 24/18 Q1013 NOSIG
ZGSZ,2003-03-01 05:00,ZGSZ 010500Z 21003MPS 3000 BR SCT020 BKN043 24/18 Q1012 NOSIG
ZGSZ,2003-03-01 06:00,ZGSZ 010600Z 18004MPS 5000 BR FEW020 24/19 Q1010 NOSIG
ZGSZ,2003-03-01 07:00,ZGSZ 010700Z 18005MPS 5000 BR SCT022 24/20 Q1010 NOSIG
ZGSZ,2003-03-01 08:00,ZGSZ 010800Z 18006MPS 5000 FEW020 23/19 Q1009 NOSIG
ZGSZ,2003-03-01 09:00,ZGSZ 010900Z 18004MPS CAVOK 23/19 Q1009 NOSIG
ZGSZ,2003-03-01 10:00,ZGSZ 011000Z 18004MPS CAVOK 22/19 Q1009 NOSIG
ZGSZ,2003-03-01 11:00,ZGSZ 011100Z 17004MPS CAVOK 22/19 Q1009 NOSIG
ZGSZ,2003-03-01 12:00,ZGSZ 011200Z 18004MPS CAVOK 22/19 Q1010 NOSIG
ZGSZ,2003-03-01 13:00,ZGSZ 011300Z 15003MPS CAVOK 21/18 Q1011 NOSIG
ZGSZ,2003-03-01 14:00,ZGSZ 011400Z 14003MPS CAVOK 21/18 Q1011 NOSIG
ZGSZ,2003-03-01 15:00,ZGSZ 011500Z 13002MPS CAVOK 21/18 Q1011 NOSIG
ZGSZ,2003-03-01 16:00,ZGSZ 011600Z 13002MPS CAVOK 21/17 Q1011 NOSIG
ZGSZ,2003-03-01 17:00,ZGSZ 011700Z 12003MPS CAVOK 21/17 Q1011 NOSIG
ZGSZ,2003-03-01 18:00,ZGSZ 011800Z 12003MPS CAVOK 21/17 Q1011 NOSIG
ZGSZ,2003-03-01 19:00,ZGSZ 011900Z 13003MPS CAVOK 20/17 Q1010 NOSIG
ZGSZ,2003-03-01 20:00,ZGSZ 012000Z 13002MPS CAVOK 20/17 Q1010 NOSIG
ZGSZ,2003-03-01 21:00,ZGSZ 012100Z 13001MPS 6000 NSC 20/17 Q1010 NOSIG
ZGSZ,2003-03-01 22:00,ZGSZ 012200Z 09001MPS 5000 BR NSC 20/17 Q1011 NOSIG
ZGSZ,2003-03-01 23:00,ZGSZ 012300Z 10003MPS 7000 BKN040 21/17 Q1011 NOSIG
ZGSZ,2003-03-02 00:00,ZGSZ 020000Z 12004MPS 7000 SCT030 SCT050 21/18 Q1012 NOSIG
ZGSZ,2003-03-02 01:00,ZGSZ 020100Z 13003MPS 5000 BR SCT020 BKN050 23/18 Q1012 NOSIG
ZGSZ,2003-03-02 02:00,ZGSZ 020200Z 13005MPS 9999 FEW026 BKN120 25/18 Q1012 NOSIG
ZGSZ,2003-03-02 03:00,ZGSZ 020300Z 13004MPS 9999 BKN026 26/18 Q1012 NOSIG
ZGSZ,2003-03-02 04:00,ZGSZ 020400Z 18007MPS 9999 BKN026 25/19 Q1011 NOSIG
ZGSZ,2003-03-02 05:00,ZGSZ 020500Z 18006MPS 9999 BKN030 26/19 Q1011 NOSIG
ZGSZ,2003-03-02 06:00,ZGSZ 020600Z 16007MPS 9999 BKN026 27/18 Q1010 NOSIG
ZGSZ,2003-03-02 07:00,ZGSZ 020700Z 17007MPS 9999 SCT023 BKN110 26/17 Q1009 NOSIG
ZGSZ,2003-03-02 08:00,ZGSZ 020800Z 17005MPS 9999 SCT020 BKN100 25/18 Q1009 NOSIG
ZGSZ,2003-03-02 09:00,ZGSZ 020900Z 14006MPS 9999 BKN018 BKN060 25/17 Q1008 NOSIG
ZGSZ,2003-03-02 10:00,ZGSZ 021000Z 13006MPS 9999 BKN020 BKN060 24/17 Q1009 NOSIG
ZGSZ,2003-03-02 11:00,ZGSZ 021100Z 13005MPS 9999 SCT016 BKN026 23/17 Q1009 NOSIG
ZGSZ,2003-03-02 12:00,ZGSZ 021200Z 10004MPS 6000 BKN016 22/17 Q1009 NOSIG
ZGSZ,2003-03-02 13:00,ZGSZ 021300Z 11005MPS 6000 SKC 22/17 Q1009 NOSIG
ZGSZ,2003-03-02 14:00,ZGSZ 021400Z 10004MPS 6000 FEW020 21/17 Q1010 NOSIG
ZGSZ,2003-03-02 15:00,ZGSZ 021500Z 09004MPS 7000 BKN020 21/17 Q1010 NOSIG
ZGSZ,2003-03-02 16:00,ZGSZ 021600Z 10002MPS 8000 BKN020 22/17 Q1010 NOSIG
ZGSZ,2003-03-02 17:00,ZGSZ 021700Z 09004MPS 8000 BKN020 21/17 Q1010 NOSIG
ZGSZ,2003-03-02 18:00,ZGSZ 021800Z 09002MPS 8000 BKN020 21/17 Q1009 NOSIG
ZGSZ,2003-03-02 21:00,ZGSZ 022100Z 36001MPS 6000 SCT023 20/17 Q1009 NOSIG
ZGSZ,2003-03-02 22:00,ZGSZ 022200Z 09002MPS 6000 FEW023 21/17 Q1009 NOSIG
ZGSZ,2003-03-02 23:00,ZGSZ 022300Z 09002MPS 6000 BKN020 21/17 Q1010 NOSIG
ZGSZ,2003-03-03 00:00,ZGSZ 030000Z 09003MPS 6000 BKN020 BKN050 22/17 Q1010 NOSIG
ZGSZ,2003-03-03 01:00,ZGSZ 030100Z 11004MPS 6000 BKN040 23/17 Q1010 NOSIG
ZGSZ,2003-03-03 02:00,ZGSZ 030200Z 11004MPS 9999 FEW020 BKN043 23/18 Q1010 NOSIG
ZGSZ,2003-03-03 03:00,ZGSZ 030300Z 12003MPS 9999 BKN020 SCT043 24/18 Q1010 NOSIG
ZGSZ,2003-03-03 04:00,ZGSZ 030400Z 14005MPS 9999 SCT013 BKN040 25/18 Q1009 NOSIG
ZGSZ,2003-03-03 05:00,ZGSZ 030500Z 19002MPS 9999 SCT015 BKN043 24/19 Q1008 NOSIG
ZGSZ,2003-03-03 06:00,ZGSZ 030600Z 17004MPS 9999 FEW016 BKN043 24/19 Q1007 NOSIG
ZGSZ,2003-03-03 07:00,ZGSZ 030700Z 15004MPS 9999 FEW016 BKN043 24/18 Q1006 NOSIG
ZGSZ,2003-03-03 08:00,ZGSZ 030800Z 14005MPS 9999 FEW013 BKN043 24/18 Q1005 NOSIG
ZGSZ,2003-03-03 09:00,ZGSZ 030900Z 15004MPS 9999 SCT016 BKN043 24/18 Q1005 NOSIG
ZGSZ,2003-03-03 10:00,ZGSZ 031000Z 13005MPS 9999 FEW016 BKN040 24/18 Q1005 NOSIG
ZGSZ,2003-03-03 11:00,ZGSZ 031100Z 13006MPS 9999 FEW016 BKN040 23/18 Q1006 NOSIG
ZGSZ,2003-03-03 12:00,ZGSZ 031200Z 13006MPS 9999 FEW016 BKN040 23/19 Q1006 NOSIG
ZGSZ,2003-03-03 13:00,ZGSZ 031300Z 14006MPS CAVOK 23/19 Q1006 NOSIG
ZGSZ,2003-03-03 14:00,ZGSZ 031400Z 13006MPS CAVOK 23/19 Q1007 NOSIG
ZGSZ,2003-03-03 15:00,ZGSZ 031500Z 13005MPS CAVOK 23/19 Q1007 NOSIG
ZGSZ,2003-03-03 16:00,ZGSZ 031600Z 11003MPS CAVOK 23/19 Q1008 NOSIG
ZGSZ,2003-03-03 17:00,ZGSZ 031700Z 10004MPS CAVOK 23/19 Q1007 NOSIG
ZGSZ,2003-03-03 18:00,ZGSZ 031800Z 12005MPS 9999 SCT040 23/19 Q1007 NOSIG
ZGSZ,2003-03-03 19:00,ZGSZ 031900Z 12005MPS 9999 SCT040 22/19 Q1006 NOSIG
ZGSZ,2003-03-03 20:00,ZGSZ 032000Z 13006MPS 9999 SCT043 23/20 Q1006 NOSIG
ZGSZ,2003-03-03 21:00,ZGSZ 032100Z 13006MPS 9999 FEW043 23/20 Q1005 NOSIG
ZGSZ,2003-03-03 22:00,ZGSZ 032200Z 13007MPS 9999 BKN043 23/20 Q1006 NOSIG
ZGSZ,2003-03-03 23:00,ZGSZ 032300Z 13005MPS 9999 FEW017 BKN040 24/20 Q1007 NOSIG
ZGSZ,2003-03-04 00:00,ZGSZ 040000Z 10010MPS 9999 SCT017 FEW025TCU BKN040 21/18 Q1007 TEMPO VRB08MPS 2500 -TSRA FEW030CB
ZGSZ,2003-03-04 00:30,ZGSZ 040030Z 11010MPS 9999 SCT018 BKN043 21/18 Q1008 TEMPO VRB08MPS 2500 -TSRA FEW030CB
ZGSZ,2003-03-04 01:00,ZGSZ 040100Z 11010MPS 9999 BKN026 BKN050 21/17 Q1008 NOSIG
ZGSZ,2003-03-04 02:00,ZGSZ 040200Z 10010MPS 9999 SCT026 21/16 Q1009 NOSIG
ZGSZ,2003-03-04 03:00,ZGSZ 040300Z 09011MPS 9999 SCT040 21/16 Q1008 NOSIG
ZGSZ,2003-03-04 04:00,ZGSZ 040400Z 10010MPS 9999 SCT030 22/16 Q1008 NOSIG
ZGSZ,2003-03-04 05:00,ZGSZ 040500Z 10009G14MPS 9999 SCT030 22/15 Q1007 NOSIG
ZGSZ,2003-03-04 06:00,ZGSZ 040600Z 11011MPS 9999 SCT030 BKN050 21/15 Q1006 NOSIG
ZGSZ,2003-03-04 07:00,ZGSZ 040700Z 09011MPS 9999 -RA BKN020 BKN050 19/15 Q1005 NOSIG
ZGSZ,2003-03-04 08:00,ZGSZ 040800Z 10009MPS 9999 -RA BKN020 BKN040 19/15 Q1005 NOSIG
ZGSZ,2003-03-04 09:00,ZGSZ 040900Z 09007MPS 9999 -RA BKN016 BKN050 19/15 Q1005 NOSIG
ZGSZ,2003-03-04 10:00,ZGSZ 041000Z 09008MPS 9999 SCT016 BKN060 19/15 Q1005 NOSIG
ZGSZ,2003-03-04 11:00,ZGSZ 041100Z 09012MPS 9999 SCT016 OVC060 18/15 Q1005 NOSIG
ZGSZ,2003-03-04 12:00,ZGSZ 041200Z 09006MPS 9999 -RA SCT016 OVC050 18/15 Q1007 NOSIG
ZGSZ,2003-03-04 13:00,ZGSZ 041300Z 09008MPS 7000 -RA SCT013 OVC040 18/15 Q1007 NOSIG
ZGSZ,2003-03-04 14:00,ZGSZ 041400Z 09007MPS 9999 FEW016 BKN100 18/15 Q1007 NOSIG
ZGSZ,2003-03-04 15:00,ZGSZ 041500Z 09009MPS CAVOK 18/15 Q1007 NOSIG
ZGSZ,2003-03-04 16:00,ZGSZ 041600Z 09010MPS 9999 -RA SCT015 OVC050 18/15 Q1007 NOSIG
ZGSZ,2003-03-04 17:00,ZGSZ 041700Z 09005MPS 9999 SCT016 OVC040 18/15 Q1008 NOSIG
ZGSZ,2003-03-04 18:00,ZGSZ 041800Z 09004MPS 9999 SCT016 OVC040 18/15 Q1007 NOSIG
ZGSZ,2003-03-04 19:00,ZGSZ 041900Z 08005MPS 9999 SCT016 OVC040 18/15 Q1007 NOSIG
ZGSZ,2003-03-04 21:00,ZGSZ 042100Z AUTO 14008KT 3SM 18/16 RMK 70023 SLP089 T01750162 52002 IEM_DS3505
ZGSZ,2003-03-04 22:00,ZGSZ 042200Z 10006MPS 9999 SCT016 OVC050 19/16 Q1007 NOSIG
ZGSZ,2003-03-04 23:00,ZGSZ 042300Z 09007MPS 9999 SCT016 OVC050 19/16 Q1007 NOSIG
ZGSZ,2003-03-05 00:00,ZGSZ 050000Z 11007MPS 9999 SCT015 OVC040 19/16 Q1008 NOSIG
ZGSZ,2003-03-05 01:00,ZGSZ 050100Z 10007MPS 9999 BKN016 OVC050 20/16 Q1008 NOSIG
ZGSZ,2003-03-05 02:00,ZGSZ 050200Z 09007MPS 9999 -RA FEW010 BKN020 OVC050 20/17 Q1008 NOSIG
ZGSZ,2003-03-05 03:00,ZGSZ 050300Z 08004MPS 9999 -RA FEW010 BKN016 BKN050 19/17 Q1009 RERA NOSIG
ZGSZ,2003-03-05 04:00,ZGSZ 050400Z 09005MPS 9999 SCT020 OVC046 21/17 Q1008 NOSIG
ZGSZ,2003-03-05 05:00,ZGSZ 050500Z 09006MPS 9999 FEW010 BKN016 OVC046 21/17 Q1008 NOSIG
ZGSZ,2003-03-05 06:00,ZGSZ 050600Z 10007MPS 9999 -RA BKN018 OVC046 21/18 Q1006 NOSIG
ZGSZ,2003-03-05 07:00,ZGSZ 050700Z 09003MPS 6000 -RA BKN016 OVC043 21/18 Q1006 NOSIG
ZGSZ,2003-03-05 08:00,ZGSZ 050800Z 11004MPS 9999 BKN018 OVC043 21/18 Q1006 NOSIG
ZGSZ,2003-03-05 09:00,ZGSZ 050900Z 13003MPS 8000 SCT012 OVC040 22/19 Q1006 NOSIG
ZGSZ,2003-03-05 10:00,ZGSZ 051000Z 12006MPS 7000 -RA SCT010 BKN040 22/19 Q1005 NOSIG
ZGSZ,2003-03-05 11:00,ZGSZ 051100Z 12005MPS 9999 -RA SCT015 FEW033CB BKN040 22/19 Q1006 NOSIG
ZGSZ,2003-03-05 12:00,ZGSZ 051200Z 12005MPS 9999 -RA SCT011 SCT018 22/19 Q1006 NOSIG
ZGSZ,2003-03-05 13:00,ZGSZ 051300Z AUTO 12010KT 7SM 22/19 A2974 RMK T02200190 IEM_DS3505
ZGSZ,2003-03-05 14:00,ZGSZ 051400Z 11005MPS 9999 FEW012 BKN020 22/19 Q1008 NOSIG
ZGSZ,2003-03-05 15:00,ZGSZ 051500Z 11005MPS 9999 FEW012 BKN018 22/19 Q1008 NOSIG
ZGSZ,2003-03-05 16:00,ZGSZ 051600Z 15001MPS 9999 FEW012 SCT040 22/19 Q1008 NOSIG
ZGSZ,2003-03-05 17:00,ZGSZ 051700Z 11005MPS 9999 SCT015 SCT040 22/19 Q1008 NOSIG
ZGSZ,2003-03-05 18:00,ZGSZ 051800Z 24003MPS 8000 -RA SCT015 BKN040 22/19 Q1008 NOSIG
ZGSZ,2003-03-05 19:00,ZGSZ 051900Z 36002MPS 8000 -RA SCT015 BKN040 21/19 Q1008 NOSIG
ZGSZ,2003-03-05 20:00,ZGSZ 052000Z 31006MPS 8000 -RA SCT015 BKN040 18/16 Q1009 NOSIG
ZGSZ,2003-03-05 21:00,ZGSZ 052100Z 33004MPS 1700 BR FEW015 BKN040 17/15 Q1009 NOSIG
ZGSZ,2003-03-05 22:00,ZGSZ 052200Z 35005MPS 2600 BR FEW015 BKN040 17/15 Q1010 NOSIG
ZGSZ,2003-03-05 23:00,ZGSZ 052300Z AUTO 36012KT 1SM 16/14 A2985 RMK T01600140 IEM_DS3505
ZGSZ,2003-03-06 00:00,ZGSZ 060000Z 36005MPS 2000 BR FEW015 BKN040 15/13 Q1012 NOSIG
ZGSZ,2003-03-06 01:00,ZGSZ 060100Z 01005MPS 1800 BR FEW015 BKN040 14/12 Q1014 NOSIG
ZGSZ,2003-03-06 02:00,ZGSZ 060200Z 01005MPS 1700 BR SCT013 OVC040 14/11 Q1014 NOSIG
ZGSZ,2003-03-06 03:00,ZGSZ 060300Z 36007MPS 9999 SCT016 OVC040 14/11 Q1015 NOSIG
ZGSZ,2003-03-06 04:00,ZGSZ 060400Z 01007MPS 2800 BR SCT016 OVC040 14/11 Q1014 NOSIG
ZGSZ,2003-03-06 05:00,ZGSZ 060500Z 36006MPS 6000 SCT016 OVC050 14/10 Q1014 NOSIG
ZGSZ,2003-03-06 06:00,ZGSZ 060600Z 01005MPS 9999 SCT020 OVC050 13/09 Q1013 NOSIG
ZGSZ,2003-03-06 07:00,ZGSZ 060700Z 35007MPS 6000 BKN016 OVC040 13/10 Q1013 NOSIG
ZGSZ,2003-03-06 08:00,ZGSZ 060800Z 35007MPS 6000 BKN016 OVC040 12/08 Q1013 NOSIG
ZGSZ,2003-03-06 09:00,ZGSZ 060900Z 35007MPS 9999 SCT020 OVC033 12/07 Q1014 NOSIG
ZGSZ,2003-03-06 10:00,ZGSZ 061000Z 35007MPS 9999 BKN026 OVC033 11/07 Q1015 NOSIG
ZGSZ,2003-03-06 11:00,ZGSZ 061100Z 35006MPS 9999 SCT026 OVC033 11/07 Q1015 NOSIG
ZGSZ,2003-03-06 12:00,ZGSZ 061200Z 01007MPS 9999 BKN020 OVC033 11/08 Q1015 NOSIG
ZGSZ,2003-03-06 13:00,ZGSZ 061300Z 01008MPS 9999 BKN026 OVC033 11/06 Q1016 NOSIG
ZGSZ,2003-03-06 14:00,ZGSZ 061400Z 01006MPS 9999 BKN023 OVC033 11/06 Q1017 NOSIG
ZGSZ,2003-03-06 15:00,ZGSZ 061500Z 01008MPS 9999 SCT020 OVC033 11/06 Q1017 NOSIG
ZGSZ,2003-03-06 16:00,ZGSZ 061600Z 01007MPS 9999 BKN020 OVC033 11/05 Q1018 NOSIG
ZGSZ,2003-03-06 17:00,ZGSZ 061700Z 36007MPS CAVOK 10/05 Q1017 NOSIG
ZGSZ,2003-03-06 18:00,ZGSZ 061800Z 01007MPS CAVOK 10/03 Q1017 NOSIG
ZGSZ,2003-03-06 19:00,ZGSZ 061900Z 01006MPS CAVOK 09/03 Q1017 NOSIG
ZGSZ,2003-03-06 20:00,ZGSZ 062000Z 01007MPS CAVOK 09/03 Q1017 NOSIG
ZGSZ,2003-03-06 21:00,ZGSZ 062100Z 01007MPS CAVOK 09/03 Q1017 NOSIG
ZGSZ,2003-03-06 22:00,ZGSZ 062200Z 02007MPS CAVOK 09/03 Q1018 NOSIG
ZGSZ,2003-03-06 23:00,ZGSZ 062300Z 01006MPS CAVOK 08/03 Q1019 NOSIG
ZGSZ,2003-03-07 00:00,ZGSZ 070000Z 02006MPS CAVOK 09/03 Q1020 NOSIG
ZGSZ,2003-03-07 01:00,ZGSZ 070100Z 02007MPS CAVOK 09/03 Q1020 NOSIG
ZGSZ,2003-03-07 02:00,ZGSZ 070200Z 02007MPS CAVOK 10/03 Q1020 NOSIG
ZGSZ,2003-03-07 03:00,ZGSZ 070300Z 01007MPS CAVOK 12/04 Q1020 NOSIG
ZGSZ,2003-03-07 04:00,ZGSZ 070400Z 02007MPS CAVOK 13/04 Q1020 NOSIG
ZGSZ,2003-03-07 05:00,ZGSZ 070500Z 01006MPS 9999 FEW020 BKN053 12/04 Q1019 NOSIG
ZGSZ,2003-03-07 06:00,ZGSZ 070600Z 04006MPS 9999 SCT020 BKN046 14/04 Q1018 NOSIG
ZGSZ,2003-03-07 07:00,ZGSZ 070700Z 01005MPS CAVOK 15/04 Q1017 NOSIG
ZGSZ,2003-03-07 08:00,ZGSZ 070800Z 03005MPS CAVOK 16/05 Q1017 NOSIG
ZGSZ,2003-03-07 09:00,ZGSZ 070900Z 02006MPS CAVOK 16/05 Q1017 NOSIG
ZGSZ,2003-03-07 10:00,ZGSZ 071000Z 05004MPS CAVOK 15/05 Q1017 NOSIG
ZGSZ,2003-03-07 11:00,ZGSZ 071100Z 05003MPS CAVOK 14/05 Q1018 NOSIG
ZGSZ,2003-03-07 12:00,ZGSZ 071200Z 04003MPS CAVOK 13/05 Q1019 NOSIG
ZGSZ,2003-03-07 13:00,ZGSZ 071300Z 06002MPS CAVOK 13/05 Q1019 NOSIG
ZGSZ,2003-03-07 14:00,ZGSZ 071400Z 05005MPS CAVOK 13/04 Q1020 NOSIG
ZGSZ,2003-03-07 15:00,ZGSZ 071500Z 03005MPS CAVOK 12/03 Q1020 NOSIG
ZGSZ,2003-03-07 16:00,ZGSZ 071600Z 02006MPS CAVOK 11/03 Q1020 NOSIG
ZGSZ,2003-03-07 17:00,ZGSZ 071700Z 03005MPS CAVOK 11/02 Q1020 NOSIG
ZGSZ,2003-03-07 18:00,ZGSZ 071800Z 02006MPS CAVOK 11/02 Q1020 NOSIG
ZGSZ,2003-03-07 19:00,ZGSZ 071900Z 03005MPS CAVOK 11/02 Q1020 NOSIG
ZGSZ,2003-03-07 20:00,ZGSZ 072000Z 02005MPS CAVOK 10/02 Q1020 NOSIG
ZGSZ,2003-03-07 21:00,ZGSZ 072100Z 02006MPS CAVOK 10/ Q1020 NOSIG
ZGSZ,2003-03-07 22:00,ZGSZ 072200Z 03006MPS CAVOK 11/01 Q1021 NOSIG
ZGSZ,2003-03-07 23:00,ZGSZ 072300Z 03006MPS CAVOK 10/03 Q1022 NOSIG
ZGSZ,2003-03-08 00:00,ZGSZ 080000Z 04005MPS CAVOK 10/02 Q1023 NOSIG
ZGSZ,2003-03-08 01:00,ZGSZ 080100Z 02006MPS CAVOK 11/02 Q1024 NOSIG
ZGSZ,2003-03-08 02:00,ZGSZ 080200Z 05005MPS 9999 OVC043 11/02 Q1024 NOSIG
ZGSZ,2003-03-08 03:00,ZGSZ 080300Z 02004MPS 9999 OVC043 11/03 Q1024 NOSIG
ZGSZ,2003-03-08 04:00,ZGSZ 080400Z 02004MPS 9999 OVC043 12/03 Q1023 NOSIG
ZGSZ,2003-03-08 05:00,ZGSZ 080500Z 01004MPS 9999 OVC043 13/04 Q1022 NOSIG
ZGSZ,2003-03-08 06:00,ZGSZ 080600Z 36004MPS 9999 BKN043 15/05 Q1021 NOSIG
ZGSZ,2003-03-08 07:00,ZGSZ 080700Z 01004MPS 9999 BKN043 16/05 Q1020 NOSIG
ZGSZ,2003-03-08 08:00,ZGSZ 080800Z 01005MPS 8000 NSC 16/05 Q1020 NOSIG
ZGSZ,2003-03-08 09:00,ZGSZ 080900Z 36005MPS 6000 BKN040 15/05 Q1020 NOSIG
ZGSZ,2003-03-08 10:00,ZGSZ 081000Z 02004MPS 5000 HZ BKN033 15/05 Q1020 NOSIG
ZGSZ,2003-03-08 11:00,ZGSZ 081100Z 02005MPS 4500 HZ FEW018 BKN033 15/05 Q1021 NOSIG
ZGSZ,2003-03-08 12:00,ZGSZ 081200Z 04004MPS 4500 HZ FEW018 BKN033 15/05 Q1022 NOSIG
ZGSZ,2003-03-08 13:00,ZGSZ 081300Z 04003MPS 4500 HZ FEW018 BKN033 14/05 Q1022 NOSIG
ZGSZ,2003-03-08 14:00,ZGSZ 081400Z 07004MPS 5000 HZ FEW018 BKN033 14/05 Q1022 NOSIG
ZGSZ,2003-03-08 15:00,ZGSZ 081500Z 07002MPS 5000 HZ FEW018 BKN033 14/05 Q1022 NOSIG
ZGSZ,2003-03-08 16:00,ZGSZ 081600Z 02002MPS 5000 BKN033 14/06 Q1023 NOSIG
ZGSZ,2003-03-08 17:00,ZGSZ 081700Z 10003MPS 4500 HZ FEW017 BKN033 14/05 Q1021 NOSIG
ZGSZ,2003-03-08 18:00,ZGSZ 081800Z 05001MPS 4500 HZ FEW017 BKN033 14/06 Q1021 NOSIG
ZGSZ,2003-03-08 19:00,ZGSZ 081900Z 08003MPS 5000 HZ FEW017 BKN033 13/06 Q1020 NOSIG
ZGSZ,2003-03-08 20:00,ZGSZ 082000Z 03002MPS 5000 HZ FEW017 BKN033 14/06 Q1021 NOSIG
ZGSZ,2003-03-08 21:00,ZGSZ 082100Z 02003MPS 4000 -RA BR SCT016 BKN033 13/08 Q1022 NOSIG
ZGSZ,2003-03-08 22:00,ZGSZ 082200Z 04001MPS 4000 BR SCT016 BKN033 13/08 Q1023 NOSIG
ZGSZ,2003-03-08 23:00,ZGSZ 082300Z 04003MPS 5000 BR BKN033 13/08 Q1023 NOSIG
ZGSZ,2003-03-09 00:00,ZGSZ 090000Z 03004MPS 5000 BR BKN040 12/07 Q1024 NOSIG
ZGSZ,2003-03-09 01:00,ZGSZ 090100Z 03003MPS 3000 -RA BR SCT020 BKN030 BKN050 12/08 Q1025 NOSIG
ZGSZ,2003-03-09 02:00,ZGSZ 090200Z 07004MPS 9999 BKN030 BKN050 14/06 Q1024 NOSIG
ZGSZ,2003-03-09 03:00,ZGSZ 090300Z 07003MPS CAVOK 16/07 Q1024 NOSIG
ZGSZ,2003-03-09 04:00,ZGSZ 090400Z 01005MPS CAVOK 16/07 Q1023 NOSIG
ZGSZ,2003-03-09 05:00,ZGSZ 090500Z 07002MPS CAVOK 16/07 Q1022 NOSIG
ZGSZ,2003-03-09 06:00,ZGSZ 090600Z 04002MPS CAVOK 17/06 Q1021 NOSIG
ZGSZ,2003-03-09 07:00,ZGSZ 090700Z 03004MPS CAVOK 16/06 Q1021 NOSIG
ZGSZ,2003-03-09 08:00,ZGSZ 090800Z 03004MPS 9999 OVC043 16/07 Q1021 NOSIG
ZGSZ,2003-03-09 09:00,ZGSZ 090900Z 02004MPS 7000 OVC040 16/06 Q1021 NOSIG
ZGSZ,2003-03-09 10:00,ZGSZ 091000Z 02004MPS 8000 OVC040 15/07 Q1022 NOSIG
ZGSZ,2003-03-09 11:00,ZGSZ 091100Z 02004MPS 3000 -RA SCT016 OVC040 14/08 Q1022 NOSIG
ZGSZ,2003-03-09 12:00,ZGSZ 091200Z 12002MPS 4000 BR SCT016 OVC040 13/08 Q1022 NOSIG
ZGSZ,2003-03-09 13:00,ZGSZ 091300Z 04001MPS 4000 BR SCT015 OVC040 13/09 Q1023 NOSIG
ZGSZ,2003-03-09 14:00,ZGSZ 091400Z 35002MPS 2600 BR SCT013 OVC033 14/09 Q1024 NOSIG
ZGSZ,2003-03-09 15:00,ZGSZ 091500Z 35002MPS 2100 BR SCT012 OVC033 13/10 Q1024 NOSIG
ZGSZ,2003-03-09 16:00,ZGSZ 091600Z 02003MPS 2100 BR SCT010 OVC033 13/10 Q1024 NOSIG
ZGSZ,2003-03-09 17:00,ZGSZ 091700Z 35003MPS 1900 -RA BR FEW005 SCT010 OVC030 13/10 Q1024 NOSIG
ZGSZ,2003-03-09 18:00,ZGSZ 091800Z 01004MPS 2700 BR FEW006 SCT010 OVC030 13/09 Q1023 NOSIG
ZGSZ,2003-03-09 19:00,ZGSZ 091900Z 02005MPS 2800 BR FEW006 SCT011 OVC030 12/09 Q1023 NOSIG
ZGSZ,2003-03-09 20:00,ZGSZ 092000Z 02003MPS 2800 BR FEW006 SCT011 OVC030 12/09 Q1023 NOSIG
ZGSZ,2003-03-09 21:00,ZGSZ 092100Z 04003MPS 2800 BR FEW006 SCT011 OVC030 12/09 Q1022 NOSIG
ZGSZ,2003-03-09 22:00,ZGSZ 092200Z 36003MPS 3000 BR SCT010 OVC030 12/09 Q1023 NOSIG
ZGSZ,2003-03-09 23:00,ZGSZ 092300Z 03003MPS 3000 BR SCT010 OVC030 12/09 Q1023 NOSIG
ZGSZ,2003-03-10 00:00,ZGSZ 100000Z 03002MPS 2700 BR SCT013 OVC033 12/09 Q1024 NOSIG
ZGSZ,2003-03-10 01:00,ZGSZ 100100Z 06004MPS 4000 BR FEW015 OVC046 13/09 Q1024 NOSIG
ZGSZ,2003-03-10 02:00,ZGSZ 100200Z 03003MPS 6000 BKN046 14/09 Q1024 NOSIG
ZGSZ,2003-03-10 03:00,ZGSZ 100300Z 05002MPS 7000 BKN020 BKN046 15/09 Q1024 NOSIG
ZGSZ,2003-03-10 04:00,ZGSZ 100400Z 03003MPS 6000 NSC 16/10 Q1023 NOSIG
ZGSZ,2003-03-10 05:00,ZGSZ 100500Z 07003MPS 7000 NSC 17/09 Q1022 NOSIG
ZGSZ,2003-03-10 06:00,ZGSZ 100600Z 04002MPS 7000 NSC 18/09 Q1021 NOSIG
ZGSZ,2003-03-10 07:00,ZGSZ 100700Z 05003MPS 7000 NSC 18/09 Q1021 NOSIG
ZGSZ,2003-03-10 08:00,ZGSZ 100800Z 07003MPS 7000 BKN046 18/09 Q1020 NOSIG
ZGSZ,2003-03-10 09:00,ZGSZ 100900Z 09003MPS 7000 SCT040 SCT053 18/09 Q1020 NOSIG
ZGSZ,2003-03-10 10:00,ZGSZ 101000Z 12003MPS 7000 BKN046 18/10 Q1020 NOSIG
ZGSZ,2003-03-10 11:00,ZGSZ 101100Z 09003MPS 7000 FEW043 BKN053 17/10 Q1021 NOSIG
ZGSZ,2003-03-10 12:00,ZGSZ 101200Z 09004MPS 8000 FEW040 BKN060 17/10 Q1021 NOSIG
ZGSZ,2003-03-10 13:00,ZGSZ 101300Z 09004MPS 8000 SKC 16/10 Q1022 NOSIG
ZGSZ,2003-03-10 14:00,ZGSZ 101400Z 11003MPS 7000 FEW043 BKN060 15/10 Q1023 NOSIG
ZGSZ,2003-03-10 15:00,ZGSZ 101500Z 09003MPS 7000 FEW043 BKN060 15/10 Q1023 NOSIG
ZGSZ,2003-03-10 16:00,ZGSZ 101600Z 12003MPS 7000 NSC 15/10 Q1022 NOSIG
ZGSZ,2003-03-10 17:00,ZGSZ 101700Z 11002MPS 8000 NSC 14/10 Q1022 NOSIG
ZGSZ,2003-03-10 18:00,ZGSZ 101800Z 07002MPS 8000 NSC 14/09 Q1021 NOSIG
ZGSZ,2003-03-10 19:00,ZGSZ 101900Z 05001MPS 8000 NSC 14/08 Q1021 NOSIG
ZGSZ,2003-03-10 20:00,ZGSZ 102000Z 07002MPS 8000 NSC 14/07 Q1021 NOSIG
ZGSZ,2003-03-10 21:00,ZGSZ 102100Z 09004MPS 8000 NSC 14/05 Q1020 NOSIG
ZGSZ,2003-03-10 22:00,ZGSZ 102200Z 09003MPS 8000 NSC 14/04 Q1021 NOSIG
ZGSZ,2003-03-10 23:00,ZGSZ 102300Z 08002MPS CAVOK 13/04 Q1021 NOSIG
ZGSZ,2003-03-11 00:00,ZGSZ 110000Z 09002MPS CAVOK 15/04 Q1023 NOSIG
ZGSZ,2003-03-11 01:00,ZGSZ 110100Z 07002MPS CAVOK 17/04 Q1023 NOSIG
ZGSZ,2003-03-11 02:00,ZGSZ 110200Z 10003MPS CAVOK 18/04 Q1023 NOSIG
ZGSZ,2003-03-11 03:00,ZGSZ 110300Z 12003MPS CAVOK 20/03 Q1023 NOSIG
ZGSZ,2003-03-11 04:00,ZGSZ 110400Z 26003MPS CAVOK 19/06 Q1022 NOSIG
ZGSZ,2003-03-11 05:00,ZGSZ 110500Z 24004MPS CAVOK 19/08 Q1021 NOSIG
ZGSZ,2003-03-11 06:00,ZGSZ 110600Z 14006MPS CAVOK 22/05 Q1020 NOSIG
ZGSZ,2003-03-11 07:00,ZGSZ 110700Z 13005MPS CAVOK 22/05 Q1020 NOSIG
ZGSZ,2003-03-11 08:00,ZGSZ 110800Z 10004MPS CAVOK 22/05 Q1020 NOSIG
ZGSZ,2003-03-11 09:00,ZGSZ 110900Z 10005MPS CAVOK 21/06 Q1020 NOSIG
ZGSZ,2003-03-11 10:00,ZGSZ 111000Z 09005MPS CAVOK 20/07 Q1020 NOSIG
ZGSZ,2003-03-11 11:00,ZGSZ 111100Z 12005MPS CAVOK 19/07 Q1021 NOSIG
ZGSZ,2003-03-11 12:00,ZGSZ 111200Z 12003MPS CAVOK 19/06 Q1022 NOSIG
ZGSZ,2003-03-11 13:00,ZGSZ 111300Z 11004MPS CAVOK 18/08 Q1022 NOSIG
ZGSZ,2003-03-11 14:00,ZGSZ 111400Z 13005MPS CAVOK 18/09 Q1022 NOSIG
ZGSZ,2003-03-11 15:00,ZGSZ 111500Z 10005MPS CAVOK 17/10 Q1022 NOSIG
ZGSZ,2003-03-11 16:00,ZGSZ 111600Z 08002MPS CAVOK 17/09 Q1022 NOSIG
ZGSZ,2003-03-11 17:00,ZGSZ 111700Z 08002MPS CAVOK 17/08 Q1022 NOSIG
ZGSZ,2003-03-11 18:00,ZGSZ 111800Z 10003MPS CAVOK 17/08 Q1021 NOSIG
ZGSZ,2003-03-11 19:00,ZGSZ 111900Z 10003MPS CAVOK 17/09 Q1020 NOSIG
ZGSZ,2003-03-11 20:00,ZGSZ 112000Z 12002MPS CAVOK 16/09 Q1020 NOSIG
ZGSZ,2003-03-11 21:00,ZGSZ 112100Z 36003MPS CAVOK 15/10 Q1021 NOSIG
ZGSZ,2003-03-11 22:00,ZGSZ 112200Z 05002MPS CAVOK 15/09 Q1022 NOSIG
ZGSZ,2003-03-11 23:00,ZGSZ 112300Z 04002MPS CAVOK 15/10 Q1023 NOSIG
ZGSZ,2003-03-12 00:00,ZGSZ 120000Z 10003MPS CAVOK 17/11 Q1023 NOSIG
ZGSZ,2003-03-12 01:00,ZGSZ 120100Z 08004MPS CAVOK 19/11 Q1023 NOSIG
ZGSZ,2003-03-12 02:00,ZGSZ 120200Z 09004MPS CAVOK 19/12 Q1023 NOSIG
ZGSZ,2003-03-12 03:00,ZGSZ 120300Z 10003MPS 9999 FEW026 BKN120 22/13 Q1023 NOSIG
ZGSZ,2003-03-12 04:00,ZGSZ 120400Z 28004MPS 9999 FEW026 BKN120 21/14 Q1023 NOSIG
ZGSZ,2003-03-12 05:00,ZGSZ 120500Z 29003MPS 9999 SCT040 BKN100 20/14 Q1023 NOSIG
ZGSZ,2003-03-12 06:00,ZGSZ 120600Z 27002MPS CAVOK 20/14 Q1021 NOSIG
ZGSZ,2003-03-12 07:00,ZGSZ 120700Z 24001MPS 8000 NSC 20/13 Q1020 NOSIG
ZGSZ,2003-03-12 08:00,ZGSZ 120800Z 26002MPS CAVOK 21/14 Q1020 NOSIG
ZGSZ,2003-03-12 09:00,ZGSZ 120900Z 22002MPS CAVOK 21/15 Q1021 NOSIG
ZGSZ,2003-03-12 10:00,ZGSZ 121000Z 21002MPS CAVOK 20/14 Q1021 NOSIG
ZGSZ,2003-03-12 11:00,ZGSZ 121100Z 23001MPS CAVOK 18/14 Q1021 NOSIG
ZGSZ,2003-03-12 12:00,ZGSZ 121200Z 15001MPS 5000 BR SKC 18/14 Q1021 NOSIG
ZGSZ,2003-03-12 13:00,ZGSZ 121300Z 10001MPS 4000 BR SKC 17/14 Q1022 NOSIG
ZGSZ,2003-03-12 14:00,ZGSZ 121400Z 08001MPS 4000 BR SKC 18/15 Q1022 NOSIG
ZGSZ,2003-03-12 15:00,ZGSZ 121500Z 13001MPS 3000 BR NSC 17/15 Q1023 NOSIG
ZGSZ,2003-03-12 16:00,ZGSZ 121600Z 11002MPS 4000 BR NSC 18/15 Q1023 NOSIG
ZGSZ,2003-03-12 17:00,ZGSZ 121700Z 14002MPS 4000 BR NSC 17/14 Q1022 NOSIG
ZGSZ,2003-03-12 18:00,ZGSZ 121800Z 15001MPS 4000 BR NSC 17/14 Q1022 NOSIG
ZGSZ,2003-03-12 19:00,ZGSZ 121900Z 35001MPS 3500 BR NSC 17/14 Q1022 NOSIG
ZGSZ,2003-03-12 20:00,ZGSZ 122000Z 14001MPS 3500 BR NSC 18/14 Q1022 NOSIG
ZGSZ,2003-03-12 21:00,ZGSZ 122100Z 14001MPS 4000 BR NSC 17/14 Q1022 NOSIG
ZGSZ,2003-03-12 22:00,ZGSZ 122200Z 10002MPS 4000 BR NSC 16/13 Q1022 NOSIG
ZGSZ,2003-03-12 23:00,ZGSZ 122300Z 03001MPS 2800 BR NSC 16/13 Q1023 NOSIG
ZGSZ,2003-03-13 00:00,ZGSZ 130000Z 04001MPS 2600 BR SKC 18/15 Q1023 NOSIG
ZGSZ,2003-03-13 01:00,ZGSZ 130100Z 16001MPS 3000 HZ SKC 21/14 Q1024 NOSIG
ZGSZ,2003-03-13 02:00,ZGSZ 130200Z 11004MPS 6000 SKC 23/14 Q1024 NOSIG
ZGSZ,2003-03-13 03:00,ZGSZ 130300Z 26003MPS 2800 BR FEW023 22/16 Q1024 NOSIG
ZGSZ,2003-03-13 04:00,ZGSZ 130400Z 20004MPS 9999 FEW023 23/16 Q1023 NOSIG
ZGSZ,2003-03-13 05:00,ZGSZ 130500Z 23004MPS 8000 FEW023 23/16 Q1022 NOSIG
ZGSZ,2003-03-13 06:00,ZGSZ 130600Z 22004MPS 9999 FEW023 23/16 Q1021 NOSIG
ZGSZ,2003-03-13 07:00,ZGSZ 130700Z 22004MPS 9999 FEW023 23/16 Q1020 NOSIG
ZGSZ,2003-03-13 08:00,ZGSZ 130800Z 21004MPS 9999 FEW023 23/17 Q1020 NOSIG
ZGSZ,2003-03-13 09:00,ZGSZ 130900Z 20007MPS 9999 FEW020 22/16 Q1020 NOSIG
ZGSZ,2003-03-13 10:00,ZGSZ 131000Z 19004MPS CAVOK 21/16 Q1020 NOSIG
ZGSZ,2003-03-13 11:00,ZGSZ 131100Z 16004MPS CAVOK 22/14 Q1020 NOSIG
ZGSZ,2003-03-13 12:00,ZGSZ 131200Z 12003MPS CAVOK 21/13 Q1021 NOSIG
ZGSZ,2003-03-13 13:00,ZGSZ 131300Z 11004MPS CAVOK 20/13 Q1021 NOSIG
ZGSZ,2003-03-13 14:00,ZGSZ 131400Z 14002MPS CAVOK 19/13 Q1022 NOSIG
ZGSZ,2003-03-13 15:00,ZGSZ 131500Z 12005MPS CAVOK 19/13 Q1022 NOSIG
ZGSZ,2003-03-13 16:00,ZGSZ 131600Z 11004MPS CAVOK 18/13 Q1022 NOSIG
ZGSZ,2003-03-13 17:00,ZGSZ 131700Z 13005MPS CAVOK 18/13 Q1021 NOSIG
ZGSZ,2003-03-13 18:00,ZGSZ 131800Z 15006MPS CAVOK 17/12 Q1021 NOSIG
ZGSZ,2003-03-13 19:00,ZGSZ 131900Z 12005MPS CAVOK 17/12 Q1021 NOSIG
ZGSZ,2003-03-13 20:00,ZGSZ 132000Z 11005MPS CAVOK 16/12 Q1020 NOSIG
ZGSZ,2003-03-13 21:00,ZGSZ 132100Z 12003MPS CAVOK 16/12 Q1020 NOSIG
ZGSZ,2003-03-13 22:00,ZGSZ 132200Z AUTO 12008KT 6SM 16/11 A3015 RMK T01600110 IEM_DS3505
ZGSZ,2003-03-13 23:00,ZGSZ 132300Z 12004MPS CAVOK 16/12 Q1021 NOSIG
ZGSZ,2003-03-14 00:00,ZGSZ 140000Z 11004MPS CAVOK 17/12 Q1021 NOSIG
ZGSZ,2003-03-14 01:00,ZGSZ 140100Z 12005MPS 9999 SCT030 BKN100 19/12 Q1022 NOSIG
ZGSZ,2003-03-14 02:00,ZGSZ 140200Z 11004MPS 9999 SCT030 BKN100 20/12 Q1022 NOSIG
ZGSZ,2003-03-14 03:00,ZGSZ 140300Z 11005MPS CAVOK 21/12 Q1022 NOSIG
ZGSZ,2003-03-14 04:00,ZGSZ 140400Z 11004MPS CAVOK 22/13 Q1021 NOSIG
ZGSZ,2003-03-14 05:00,ZGSZ 140500Z 14003MPS CAVOK 23/13 Q1020 NOSIG
ZGSZ,2003-03-14 06:00,ZGSZ 140600Z 21003MPS CAVOK 22/14 Q1019 NOSIG
ZGSZ,2003-03-14 07:00,ZGSZ 140700Z 15003MPS 9999 FEW030 BKN100 23/14 Q1018 NOSIG
ZGSZ,2003-03-14 08:00,ZGSZ 140800Z 15005MPS 9999 BKN033 BKN100 21/15 Q1017 NOSIG
ZGSZ,2003-03-14 09:00,ZGSZ 140900Z 14004MPS 9999 SCT026 BKN100 23/14 Q1017 NOSIG
ZGSZ,2003-03-14 10:00,ZGSZ 141000Z 11005MPS CAVOK 22/14 Q1016 NOSIG
ZGSZ,2003-03-14 11:00,ZGSZ 141100Z 12004MPS CAVOK 21/14 Q1017 NOSIG
ZGSZ,2003-03-14 12:00,ZGSZ 141200Z 11003MPS CAVOK 20/14 Q1017 NOSIG
ZGSZ,2003-03-14 13:00,ZGSZ 141300Z 10003MPS CAVOK 20/14 Q1018 NOSIG
ZGSZ,2003-03-14 14:00,ZGSZ 141400Z 11002MPS CAVOK 20/14 Q1018 NOSIG
ZGSZ,2003-03-14 15:00,ZGSZ 141500Z 11002MPS CAVOK 20/14 Q1018 NOSIG
ZGSZ,2003-03-14 16:00,ZGSZ 141600Z 12002MPS CAVOK 20/14 Q1018 NOSIG
ZGSZ,2003-03-14 17:00,ZGSZ 141700Z 12003MPS CAVOK 19/14 Q1016 NOSIG
ZGSZ,2003-03-14 18:00,ZGSZ 141800Z 10003MPS CAVOK 19/14 Q1015 NOSIG
ZGSZ,2003-03-14 19:00,ZGSZ 141900Z 10002MPS CAVOK 19/14 Q1015 NOSIG
ZGSZ,2003-03-14 20:00,ZGSZ 142000Z 11002MPS CAVOK 18/14 Q1014 NOSIG
ZGSZ,2003-03-14 21:00,ZGSZ 142100Z 11002MPS CAVOK 19/14 Q1014 NOSIG
ZGSZ,2003-03-14 22:00,ZGSZ 142200Z 11001MPS CAVOK 19/14 Q1014 NOSIG
ZGSZ,2003-03-14 23:00,ZGSZ 142300Z 14002MPS CAVOK 20/15 Q1015 NOSIG
ZGSZ,2003-03-15 00:00,ZGSZ 150000Z 11003MPS CAVOK 21/15 Q1015 NOSIG
ZGSZ,2003-03-15 01:00,ZGSZ 150100Z 12003MPS 6000 NSC 22/16 Q1016 NOSIG
ZGSZ,2003-03-15 02:00,ZGSZ 150200Z 13003MPS 7000 NSC 22/16 Q1016 NOSIG
ZGSZ,2003-03-15 03:00,ZGSZ 150300Z 14003MPS CAVOK 24/16 Q1016 NOSIG
ZGSZ,2003-03-15 04:00,ZGSZ 150400Z 29003MPS 7000 FEW025 BKN090 22/17 Q1016 NOSIG
ZGSZ,2003-03-15 05:00,ZGSZ 150500Z 26002MPS 6000 NSC 22/17 Q1015 NOSIG
ZGSZ,2003-03-15 06:00,ZGSZ 150600Z 24002MPS 8000 FEW025 BKN070 22/17 Q1014 NOSIG
ZGSZ,2003-03-15 07:00,ZGSZ 150700Z 19003MPS 9999 FEW023 BKN046 23/18 Q1012 NOSIG
ZGSZ,2003-03-15 08:00,ZGSZ 150800Z 15003MPS 9999 FEW022 BKN050 24/17 Q1012 NOSIG
ZGSZ,2003-03-15 09:00,ZGSZ 150900Z 13004MPS CAVOK 24/17 Q1011 NOSIG
ZGSZ,2003-03-15 10:00,ZGSZ 151000Z 12003MPS 9999 FEW021 SCT160 24/17 Q1012 NOSIG
ZGSZ,2003-03-15 11:00,ZGSZ 151100Z 18003MPS CAVOK 21/18 Q1012 NOSIG
ZGSZ,2003-03-15 12:00,ZGSZ 151200Z 19002MPS 9999 BKN023 21/18 Q1013 NOSIG
ZGSZ,2003-03-15 13:00,ZGSZ 151300Z 18003MPS 5000 BKN023 21/18 Q1014 NOSIG
ZGSZ,2003-03-15 14:00,ZGSZ 151400Z 13003MPS 5000 NSC 21/17 Q1013 NOSIG
ZGSZ,2003-03-15 15:00,ZGSZ 151500Z 10003MPS 5000 NSC 21/17 Q1013 NOSIG
ZGSZ,2003-03-15 16:00,ZGSZ 151600Z 13004MPS 4000 BR NSC 20/17 Q1012 NOSIG
ZGSZ,2003-03-15 17:00,ZGSZ 151700Z 11002MPS 4200 BR SCT021 20/17 Q1013 NOSIG
ZGSZ,2003-03-15 18:00,ZGSZ 151800Z 11002MPS 5000 BKN021 21/17 Q1013 NOSIG
ZGSZ,2003-03-15 19:00,ZGSZ 151900Z 11002MPS 6000 FEW021 20/17 Q1012 NOSIG
ZGSZ,2003-03-15 20:00,ZGSZ 152000Z 05001MPS 6000 SCT021 20/17 Q1013 NOSIG
ZGSZ,2003-03-15 21:00,ZGSZ 152100Z 00000MPS 5000 BR BKN021 20/17 Q1013 NOSIG
ZGSZ,2003-03-15 22:00,ZGSZ 152200Z 04002MPS 5000 BR BKN023 20/17 Q1014 NOSIG
ZGSZ,2003-03-15 23:00,ZGSZ 152300Z 04001MPS 4500 BR BKN046 20/17 Q1014 NOSIG
ZGSZ,2003-03-16 00:00,ZGSZ 160000Z 20001MPS 4000 BR BKN046 21/18 Q1015 NOSIG
ZGSZ,2003-03-16 01:00,ZGSZ 160100Z 13003MPS 3000 BR SCT021 BKN036 22/18 Q1016 NOSIG
ZGSZ,2003-03-16 02:00,ZGSZ 160200Z 13004MPS 6000 SKC 25/18 Q1016 NOSIG
ZGSZ,2003-03-16 03:00,ZGSZ 160300Z 18003MPS 9999 FEW021 25/18 Q1016 NOSIG
ZGSZ,2003-03-16 04:00,ZGSZ 160400Z 19004MPS 9999 FEW021 25/19 Q1015 NOSIG
ZGSZ,2003-03-16 05:00,ZGSZ 160500Z 19003MPS 9999 FEW021 25/19 Q1015 NOSIG
ZGSZ,2003-03-16 06:00,ZGSZ 160600Z 22004MPS 9999 FEW021 BKN050 24/19 Q1014 NOSIG
ZGSZ,2003-03-16 07:00,ZGSZ 160700Z 18004MPS 9999 FEW021 BKN036 25/19 Q1013 NOSIG
ZGSZ,2003-03-16 08:00,ZGSZ 160800Z 18005MPS 9999 FEW021 BKN036 25/20 Q1012 NOSIG
ZGSZ,2003-03-16 09:00,ZGSZ 160900Z 18004MPS 9999 FEW023 25/19 Q1012 NOSIG
ZGSZ,2003-03-16 10:00,ZGSZ 161000Z 19004MPS CAVOK 24/19 Q1012 NOSIG
ZGSZ,2003-03-16 11:00,ZGSZ 161100Z 18004MPS 9999 SCT023 23/19 Q1013 NOSIG
ZGSZ,2003-03-16 12:00,ZGSZ 161200Z 14004MPS 9999 FEW023 SCT050 23/18 Q1013 NOSIG
ZGSZ,2003-03-16 13:00,ZGSZ 161300Z 14005MPS 9999 BKN046 23/17 Q1014 NOSIG
ZGSZ,2003-03-16 14:00,ZGSZ 161400Z 13006MPS CAVOK 23/18 Q1014 NOSIG
ZGSZ,2003-03-16 15:00,ZGSZ 161500Z 13005MPS 9999 FEW023 22/17 Q1014 NOSIG
ZGSZ,2003-03-16 16:00,ZGSZ 161600Z 11002MPS CAVOK 22/17 Q1015 NOSIG
ZGSZ,2003-03-16 17:00,ZGSZ 161700Z 11002MPS CAVOK 22/17 Q1015 NOSIG
ZGSZ,2003-03-16 18:00,ZGSZ 161800Z 06001MPS CAVOK 22/17 Q1014 NOSIG
ZGSZ,2003-03-16 19:00,ZGSZ 161900Z 06002MPS CAVOK 22/17 Q1014 NOSIG
ZGSZ,2003-03-16 20:00,ZGSZ 162000Z 04001MPS CAVOK 22/17 Q1014 NOSIG
ZGSZ,2003-03-16 21:00,ZGSZ 162100Z 06001MPS 9999 FEW023 SCT050 21/17 Q1014 NOSIG
ZGSZ,2003-03-16 22:00,ZGSZ 162200Z 11002MPS 9999 FEW023 BKN046 22/18 Q1014 NOSIG
ZGSZ,2003-03-16 23:00,ZGSZ 162300Z 12004MPS 9999 SCT033 22/18 Q1015 NOSIG
ZGSZ,2003-03-17 00:00,ZGSZ 170000Z 12004MPS 9999 FEW023 23/18 Q1015 NOSIG
ZGSZ,2003-03-17 01:00,ZGSZ 170100Z 11005MPS 4000 BR SKC 24/19 Q1016 NOSIG
ZGSZ,2003-03-17 02:00,ZGSZ 170200Z 14006MPS 6000 SKC 26/19 Q1016 NOSIG
ZGSZ,2003-03-17 03:00,ZGSZ 170300Z 18004MPS 9999 SCT022 26/19 Q1016 NOSIG
ZGSZ,2003-03-17 04:00,ZGSZ 170400Z 18004MPS 9999 FEW022 25/20 Q1016 NOSIG
ZGSZ,2003-03-17 05:00,ZGSZ 170500Z 20004MPS 9999 FEW022 25/20 Q1015 NOSIG
ZGSZ,2003-03-17 06:00,ZGSZ 170600Z 18005MPS 9999 FEW022 25/20 Q1014 NOSIG
ZGSZ,2003-03-17 07:00,ZGSZ 170700Z 18005MPS CAVOK 25/20 Q1014 NOSIG
ZGSZ,2003-03-17 08:00,ZGSZ 170800Z 17005MPS CAVOK 25/20 Q1013 NOSIG
ZGSZ,2003-03-17 09:00,ZGSZ 170900Z 18005MPS CAVOK 25/19 Q1013 NOSIG
ZGSZ,2003-03-17 10:00,ZGSZ 171000Z 17005MPS CAVOK 24/20 Q1013 NOSIG
ZGSZ,2003-03-17 11:00,ZGSZ 171100Z 17004MPS CAVOK 24/20 Q1013 NOSIG
ZGSZ,2003-03-17 12:00,ZGSZ 171200Z 16004MPS CAVOK 23/20 Q1014 NOSIG
ZGSZ,2003-03-17 13:00,ZGSZ 171300Z 16003MPS CAVOK 23/19 Q1015 NOSIG
ZGSZ,2003-03-17 14:00,ZGSZ 171400Z 14003MPS CAVOK 22/19 Q1015 NOSIG
ZGSZ,2003-03-17 15:00,ZGSZ 171500Z 19002MPS CAVOK 22/19 Q1016 NOSIG
ZGSZ,2003-03-17 16:00,ZGSZ 171600Z 24001MPS CAVOK 21/19 Q1016 NOSIG
ZGSZ,2003-03-17 17:00,ZGSZ 171700Z 24002MPS CAVOK 21/19 Q1016 NOSIG
ZGSZ,2003-03-17 18:00,ZGSZ 171800Z AUTO 16002KT 5SM 22/20 RMK SLP164 T02220202 57001 IEM_DS3505
ZGSZ,2003-03-17 21:00,ZGSZ 172100Z 10002MPS 9999 SCT020 BKN050 22/19 Q1015 NOSIG
ZGSZ,2003-03-17 22:00,ZGSZ 172200Z 13003MPS 6000 FEW020 BKN050 22/19 Q1015 NOSIG
ZGSZ,2003-03-17 23:00,ZGSZ 172300Z 13004MPS 2800 BR NSC 22/19 Q1016 NOSIG
ZGSZ,2003-03-18 00:00,ZGSZ 180000Z 32005MPS 1800 BR BKN030 BKN050 21/18 Q1017 NOSIG
ZGSZ,2003-03-18 01:00,ZGSZ 180100Z 32003MPS 2300 BR BKN016 OVC040 21/17 Q1018 NOSIG
ZGSZ,2003-03-18 02:00,ZGSZ 180200Z 35004MPS 2800 BR FEW010 SCT015 OVC040 20/16 Q1018 NOSIG
ZGSZ,2003-03-18 03:00,ZGSZ 180300Z 36004MPS 3500 BR SCT013 OVC040 20/16 Q1018 NOSIG
ZGSZ,2003-03-18 04:00,ZGSZ 180400Z 36005MPS 4000 BR SCT015 OVC040 20/15 Q1018 NOSIG
ZGSZ,2003-03-18 05:00,ZGSZ 180500Z 36005MPS 4000 HZ SCT015 OVC040 19/13 Q1018 NOSIG
ZGSZ,2003-03-18 06:00,ZGSZ 180600Z 36004MPS 9999 FEW020 OVC050 19/13 Q1017 NOSIG
ZGSZ,2003-03-18 07:00,ZGSZ 180700Z 36006MPS 7000 OVC040 18/13 Q1017 NOSIG
ZGSZ,2003-03-18 08:00,ZGSZ 180800Z 36005MPS 8000 OVC043 18/13 Q1017 NOSIG
ZGSZ,2003-03-18 09:00,ZGSZ 180900Z 01004MPS 4500 BR SCT017 OVC036 17/13 Q1017 NOSIG
ZGSZ,2003-03-18 10:00,ZGSZ 181000Z 02004MPS 4800 BR FEW015 OVC030 17/13 Q1017 NOSIG
ZGSZ,2003-03-18 11:00,ZGSZ 181100Z 04003MPS 3500 BR SCT010 OVC030 17/14 Q1017 NOSIG
ZGSZ,2003-03-18 12:00,ZGSZ 181200Z 01005MPS 3300 BR SCT007 OVC026 17/13 Q1018 NOSIG
ZGSZ,2003-03-18 13:00,ZGSZ 181300Z 02005MPS 3000 -RA BR SCT006 OVC026 16/13 Q1019 NOSIG
ZGSZ,2003-03-18 14:00,ZGSZ 181400Z 06002MPS 3800 BR SCT007 OVC030 15/13 Q1019 NOSIG
ZGSZ,2003-03-18 15:00,ZGSZ 181500Z 01004MPS 3500 BR SCT005 SCT008 OVC030 16/13 Q1019 NOSIG
ZGSZ,2003-03-18 16:00,ZGSZ 181600Z 04002MPS 3300 BR SCT006 OVC026 15/13 Q1019 NOSIG
ZGSZ,2003-03-18 17:00,ZGSZ 181700Z 02005MPS 3500 BR SCT005 OVC025 15/13 Q1019 NOSIG
ZGSZ,2003-03-18 18:00,ZGSZ 181800Z 02005MPS 3000 BR SCT007 OVC030 15/12 Q1019 NOSIG
ZGSZ,2003-03-18 19:00,ZGSZ 181900Z 02004MPS 3000 BR SCT007 OVC030 14/12 Q1019 NOSIG
ZGSZ,2003-03-18 20:00,ZGSZ 182000Z 02004MPS 3000 BR SCT007 OVC030 14/12 Q1018 NOSIG
ZGSZ,2003-03-18 21:00,ZGSZ 182100Z 01005MPS 3000 -RA BR SCT006 OVC026 14/11 Q1018 NOSIG
ZGSZ,2003-03-18 22:00,ZGSZ 182200Z 01004MPS 2800 -RA BR SCT005 OVC026 13/11 Q1019 NOSIG
ZGSZ,2003-03-18 23:00,ZGSZ 182300Z 02005MPS 3500 -RA BR SCT006 OVC023 13/11 Q1019 NOSIG
ZGSZ,2003-03-19 00:00,ZGSZ 190000Z 02005MPS 6000 SCT010 OVC030 13/10 Q1020 NOSIG
ZGSZ,2003-03-19 01:00,ZGSZ 190100Z 02005MPS 6000 SCT011 OVC033 13/10 Q1021 NOSIG
ZGSZ,2003-03-19 02:00,ZGSZ 190200Z 03003MPS 8000 FEW010 SCT014 OVC033 14/10 Q1021 NOSIG
ZGSZ,2003-03-19 03:00,ZGSZ 190300Z 02005MPS 6000 SCT016 OVC036 14/10 Q1020 NOSIG
ZGSZ,2003-03-19 04:00,ZGSZ 190400Z 02004MPS 8000 SCT018 OVC040 15/10 Q1020 NOSIG
ZGSZ,2003-03-19 05:00,ZGSZ 190500Z 02004MPS 9000 FEW020 OVC040 15/09 Q1019 NOSIG
ZGSZ,2003-03-19 06:00,ZGSZ 190600Z 04004MPS 9000 SCT020 OVC043 15/10 Q1018 NOSIG
ZGSZ,2003-03-19 07:00,ZGSZ 190700Z 03004MPS 9999 FEW020 OVC040 15/09 Q1017 NOSIG
ZGSZ,2003-03-19 08:00,ZGSZ 190800Z 02004MPS 9999 FEW020 OVC036 15/09 Q1017 NOSIG
ZGSZ,2003-03-19 09:00,ZGSZ 190900Z 03003MPS 8000 FEW021 OVC036 15/09 Q1016 NOSIG
ZGSZ,2003-03-19 10:00,ZGSZ 191000Z 03004MPS 7000 FEW021 OVC036 15/09 Q1017 NOSIG
ZGSZ,2003-03-19 11:00,ZGSZ 191100Z 03003MPS 7000 SCT022 OVC036 15/09 Q1017 NOSIG
ZGSZ,2003-03-19 12:00,ZGSZ 191200Z 04004MPS 7000 OVC030 15/09 Q1018 NOSIG
ZGSZ,2003-03-19 13:00,ZGSZ 191300Z 03004MPS 6000 OVC028 14/09 Q1018 NOSIG
ZGSZ,2003-03-19 14:00,ZGSZ 191400Z 03004MPS 6000 OVC026 14/09 Q1018 NOSIG
ZGSZ,2003-03-19 15:00,ZGSZ 191500Z 03003MPS 6000 OVC028 14/09 Q1018 NOSIG
ZGSZ,2003-03-19 16:00,ZGSZ 191600Z 04004MPS 5000 OVC030 14/09 Q1018 NOSIG
ZGSZ,2003-03-19 17:00,ZGSZ 191700Z 03004MPS 5000 OVC030 14/09 Q1018 NOSIG
ZGSZ,2003-03-19 18:00,ZGSZ 191800Z 02003MPS 6000 OVC030 13/09 Q1017 NOSIG
ZGSZ,2003-03-19 20:00,ZGSZ 192000Z 02003MPS 6000 OVC030 13/09 Q1017 NOSIG
ZGSZ,2003-03-19 21:00,ZGSZ 192100Z 06002MPS 3500 BR OVC030 12/09 Q1016 NOSIG
ZGSZ,2003-03-19 22:00,ZGSZ 192200Z 02004MPS 4000 BR FEW020 OVC033 12/09 Q1017 NOSIG
ZGSZ,2003-03-19 23:00,ZGSZ 192300Z 36003MPS 4800 BR SCT018 OVC036 12/10 Q1017 NOSIG
ZGSZ,2003-03-20 00:00,ZGSZ 200000Z 05002MPS 4500 BR FEW013 OVC033 12/10 Q1018 NOSIG
ZGSZ,2003-03-20 01:00,ZGSZ 200100Z 01005MPS 5000 BR FEW015 OVC036 12/10 Q1019 NOSIG
ZGSZ,2003-03-20 02:00,ZGSZ 200200Z 03005MPS 2800 BR FEW015 OVC036 12/10 Q1019 NOSIG
ZGSZ,2003-03-20 03:00,ZGSZ 200300Z 02004MPS 3000 -DZ BR SCT015 OVC036 12/10 Q1019 NOSIG
ZGSZ,2003-03-20 04:00,ZGSZ 200400Z AUTO 01008KT 2 1/2SM 12/10 A3009 RMK T01200100 IEM_DS3505
ZGSZ,2003-03-20 05:00,ZGSZ 200500Z 02004MPS 4000 -RA BR SCT015 OVC036 12/10 Q1018 NOSIG
ZGSZ,2003-03-20 06:00,ZGSZ 200600Z 03005MPS 3000 -RA BR SCT014 OVC036 12/10 Q1018 NOSIG
ZGSZ,2003-03-20 07:00,ZGSZ 200700Z 02004MPS 3000 BR SCT013 OVC036 13/10 Q1017 NOSIG
ZGSZ,2003-03-20 08:00,ZGSZ 200800Z 04003MPS 7000 FEW012 OVC036 13/10 Q1016 NOSIG
ZGSZ,2003-03-20 09:00,ZGSZ 200900Z 02005MPS 5000 BR SCT011 OVC033 13/10 Q1016 NOSIG
ZGSZ,2003-03-20 10:00,ZGSZ 201000Z 03003MPS 4500 BR SCT013 OVC033 13/10 Q1017 NOSIG
ZGSZ,2003-03-20 11:00,ZGSZ 201100Z 01004MPS 2800 -RA BR BKN010 OVC033 12/10 Q1017 NOSIG
ZGSZ,2003-03-20 12:00,ZGSZ 201200Z 01004MPS 3000 BR BKN012 OVC033 13/10 Q1018 NOSIG
ZGSZ,2003-03-20 13:00,ZGSZ 201300Z 02004MPS 3000 BR BKN012 OVC033 13/10 Q1018 NOSIG
ZGSZ,2003-03-20 14:00,ZGSZ 201400Z 02003MPS 3500 BR BKN012 OVC033 13/10 Q1018 NOSIG
ZGSZ,2003-03-20 15:00,ZGSZ 201500Z 02004MPS 5000 BR BKN012 OVC033 13/10 Q1019 NOSIG
ZGSZ,2003-03-20 16:00,ZGSZ 201600Z AUTO 02006KT 4SM 13/10 A3009 RMK T01300100 IEM_DS3505
ZGSZ,2003-03-20 17:00,ZGSZ 201700Z 03002MPS 4500 BR BKN013 OVC033 13/10 Q1018 NOSIG
ZGSZ,2003-03-20 18:00,ZGSZ 201800Z 36001MPS 4500 BR BKN013 OVC033 13/10 Q1018 NOSIG
ZGSZ,2003-03-20 19:00,ZGSZ 201900Z 02002MPS 4500 BR BKN013 OVC033 13/10 Q1018 NOSIG
ZGSZ,2003-03-20 20:00,ZGSZ 202000Z 01003MPS 4500 BR BKN013 OVC033 12/10 Q1018 NOSIG
ZGSZ,2003-03-20 21:00,ZGSZ 202100Z 02002MPS 4500 BR BKN013 OVC033 12/10 Q1018 NOSIG
ZGSZ,2003-03-20 22:00,ZGSZ 202200Z 02002MPS 5000 BR SCT015 OVC033 12/10 Q1018 NOSIG
ZGSZ,2003-03-20 23:00,ZGSZ 202300Z 03002MPS 6000 SCT015 OVC033 12/10 Q1019 NOSIG
ZGSZ,2003-03-21 00:00,ZGSZ 210000Z 02004MPS 4500 BR SCT016 OVC033 13/10 Q1020 NOSIG
ZGSZ,2003-03-21 01:00,ZGSZ 210100Z 02004MPS 7000 BKN020 OVC040 14/10 Q1021 NOSIG
ZGSZ,2003-03-21 02:00,ZGSZ 210200Z 04003MPS 9999 BKN026 BKN050 15/10 Q1021 NOSIG
ZGSZ,2003-03-21 03:00,ZGSZ 210300Z 06003MPS 9999 BKN030 BKN050 15/10 Q1021 NOSIG
ZGSZ,2003-03-21 04:00,ZGSZ 210400Z 03002MPS 9999 SCT030 BKN050 17/11 Q1021 NOSIG
ZGSZ,2003-03-21 05:00,ZGSZ 210500Z 01003MPS CAVOK 19/11 Q1020 NOSIG
ZGSZ,2003-03-21 06:00,ZGSZ 210600Z 36004MPS CAVOK 18/11 Q1019 NOSIG
ZGSZ,2003-03-21 07:00,ZGSZ 210700Z 01004MPS CAVOK 19/10 Q1018 NOSIG
ZGSZ,2003-03-21 08:00,ZGSZ 210800Z 02005MPS CAVOK 19/11 Q1018 NOSIG
ZGSZ,2003-03-21 09:00,ZGSZ 210900Z 03003MPS CAVOK 19/11 Q1018 NOSIG
ZGSZ,2003-03-21 10:00,ZGSZ 211000Z 02003MPS CAVOK 18/11 Q1019 NOSIG
ZGSZ,2003-03-21 11:00,ZGSZ 211100Z 02005MPS CAVOK 18/11 Q1019 NOSIG
ZGSZ,2003-03-21 12:00,ZGSZ 211200Z 06002MPS CAVOK 18/11 Q1019 NOSIG
ZGSZ,2003-03-21 13:00,ZGSZ 211300Z 09003MPS CAVOK 17/11 Q1020 NOSIG
ZGSZ,2003-03-21 14:00,ZGSZ 211400Z 04001MPS CAVOK 16/11 Q1021 NOSIG
ZGSZ,2003-03-21 15:00,ZGSZ 211500Z 11001MPS 8000 NSC 16/10 Q1021 NOSIG
ZGSZ,2003-03-21 16:00,ZGSZ 211600Z 08001MPS 8000 NSC 16/11 Q1021 NOSIG
ZGSZ,2003-03-21 17:00,ZGSZ 211700Z 05002MPS 7000 NSC 16/11 Q1021 NOSIG
ZGSZ,2003-03-21 18:00,ZGSZ 211800Z 06002MPS 7000 NSC 16/11 Q1020 NOSIG
ZGSZ,2003-03-21 19:00,ZGSZ 211900Z 07002MPS 8000 NSC 16/12 Q1019 NOSIG
ZGSZ,2003-03-21 20:00,ZGSZ 212000Z 07001MPS CAVOK 15/11 Q1019 NOSIG
ZGSZ,2003-03-21 21:00,ZGSZ 212100Z 13001MPS CAVOK 15/12 Q1019 NOSIG
ZGSZ,2003-03-21 22:00,ZGSZ 212200Z 10002MPS CAVOK 15/11 Q1020 NOSIG
ZGSZ,2003-03-21 23:00,ZGSZ 212300Z 11002MPS 9999 SCT016 OVC050 15/11 Q1020 NOSIG
ZGSZ,2003-03-22 00:00,ZGSZ 220000Z 09002MPS 6000 -RA FEW016 OVC050 15/11 Q1021 NOSIG
ZGSZ,2003-03-22 01:00,ZGSZ 220100Z 08002MPS 8000 NSC 16/11 Q1021 NOSIG
ZGSZ,2003-03-22 02:00,ZGSZ 220200Z 03002MPS 9000 NSC 17/12 Q1022 NOSIG
ZGSZ,2003-03-22 03:00,ZGSZ 220300Z 11002MPS 9000 FEW020 BKN050 19/12 Q1021 NOSIG
ZGSZ,2003-03-22 04:00,ZGSZ 220400Z 12005MPS 9000 FEW020 BKN050 20/11 Q1021 NOSIG
ZGSZ,2003-03-22 05:00,ZGSZ 220500Z 15003MPS 9999 SCT030 OVC050 19/12 Q1020 NOSIG
ZGSZ,2003-03-22 06:00,ZGSZ 220600Z 12002MPS 9999 FEW030 OVC046 21/09 Q1019 NOSIG
ZGSZ,2003-03-22 07:00,ZGSZ 220700Z 09003MPS 9999 FEW030 OVC043 21/09 Q1018 NOSIG
ZGSZ,2003-03-22 08:00,ZGSZ 220800Z 26002MPS 9999 SCT030 BKN043 20/12 Q1018 NOSIG
ZGSZ,2003-03-22 09:00,ZGSZ 220900Z 11002MPS 9999 BKN046 21/09 Q1018 NOSIG
ZGSZ,2003-03-22 10:00,ZGSZ 221000Z 10002MPS 9999 BKN046 20/08 Q1019 NOSIG
ZGSZ,2003-03-22 11:00,ZGSZ 221100Z 12002MPS 3000 HZ FEW023 BKN050 20/08 Q1019 NOSIG
ZGSZ,2003-03-22 12:00,ZGSZ 221200Z 15001MPS 3000 HZ BKN046 18/09 Q1020 NOSIG
ZGSZ,2003-03-22 13:00,ZGSZ 221300Z 13002MPS 3000 HZ BKN043 19/09 Q1021 NOSIG
ZGSZ,2003-03-22 14:00,ZGSZ 221400Z 10003MPS 3000 HZ BKN043 19/09 Q1022 NOSIG
ZGSZ,2003-03-22 15:00,ZGSZ 221500Z 12003MPS 3500 HZ BKN043 18/10 Q1022 NOSIG
ZGSZ,2003-03-22 16:00,ZGSZ 221600Z 11003MPS 3500 HZ BKN043 18/10 Q1021 NOSIG
ZGSZ,2003-03-22 17:00,ZGSZ 221700Z 10001MPS 4500 HZ BKN046 18/11 Q1021 NOSIG
ZGSZ,2003-03-22 18:00,ZGSZ 221800Z 36001MPS 6000 BKN046 17/11 Q1020 NOSIG
ZGSZ,2003-03-22 19:00,ZGSZ 221900Z 03002MPS 6000 BKN046 17/11 Q1020 NOSIG
ZGSZ,2003-03-22 20:00,ZGSZ 222000Z 04002MPS 6000 BKN046 17/12 Q1019 NOSIG
ZGSZ,2003-03-22 21:00,ZGSZ 222100Z 01002MPS 6000 BKN046 17/12 Q1019 NOSIG
ZGSZ,2003-03-22 22:00,ZGSZ 222200Z 05002MPS 6000 BKN046 17/12 Q1019 NOSIG
ZGSZ,2003-03-22 23:00,ZGSZ 222300Z 02002MPS 3000 BR BKN043 17/13 Q1020 NOSIG
ZGSZ,2003-03-23 00:00,ZGSZ 230000Z 02002MPS 3000 BR BKN043 17/13 Q1020 NOSIG
ZGSZ,2003-03-23 01:00,ZGSZ 230100Z 08002MPS 2500 HZ FEW017 OVC033 18/12 Q1021 NOSIG
ZGSZ,2003-03-23 02:00,ZGSZ 230200Z 04001MPS 2200 HZ FEW017 OVC033 18/12 Q1021 NOSIG
ZGSZ,2003-03-23 03:00,ZGSZ 230300Z 10001MPS 2200 HZ SCT017 OVC033 18/12 Q1021 NOSIG
ZGSZ,2003-03-23 04:00,ZGSZ 230400Z 07002MPS 2200 HZ SCT017 OVC033 19/11 Q1020 NOSIG
ZGSZ,2003-03-23 05:00,ZGSZ 230500Z 01002MPS 2500 HZ SCT017 OVC033 19/12 Q1019 NOSIG
ZGSZ,2003-03-23 06:00,ZGSZ 230600Z 03003MPS 3000 HZ SCT017 OVC033 19/12 Q1019 NOSIG
ZGSZ,2003-03-23 08:00,ZGSZ 230800Z 03003MPS 2800 HZ SCT017 OVC033 19/13 Q1017 NOSIG
ZGSZ,2003-03-23 09:00,ZGSZ 230900Z 03003MPS 2500 HZ SCT020 OVC033 18/13 Q1017 NOSIG
ZGSZ,2003-03-23 10:00,ZGSZ 231000Z 02003MPS 3000 BR OVC030 18/13 Q1018 NOSIG
ZGSZ,2003-03-23 11:00,ZGSZ 231100Z 02003MPS 2600 BR OVC030 17/14 Q1018 NOSIG
ZGSZ,2003-03-23 12:00,ZGSZ 231200Z 09002MPS 2600 BR OVC030 17/14 Q1018 NOSIG
ZGSZ,2003-03-23 13:00,ZGSZ 231300Z 31001MPS 2000 BR OVC026 17/14 Q1020 NOSIG
ZGSZ,2003-03-23 14:00,ZGSZ 231400Z 36002MPS 2000 -RA BR SCT010 OVC026 16/14 Q1020 NOSIG
ZGSZ,2003-03-23 15:00,ZGSZ 231500Z 01003MPS 2000 -RA BR SCT015 OVC026 16/14 Q1020 NOSIG
ZGSZ,2003-03-23 16:00,ZGSZ 231600Z 03002MPS 2200 BR OVC026 16/14 Q1020 NOSIG
ZGSZ,2003-03-23 17:00,ZGSZ 231700Z 09003MPS 3000 BR SCT020 OVC030 16/14 Q1019 NOSIG
ZGSZ,2003-03-23 18:00,ZGSZ 231800Z 07002MPS 2600 -RA BR SCT017 OVC030 16/14 Q1019 NOSIG
ZGSZ,2003-03-23 19:00,ZGSZ 231900Z 15002MPS 2000 -RA BR BKN017 OVC030 16/14 Q1018 NOSIG
ZGSZ,2003-03-23 20:00,ZGSZ 232000Z 01002MPS 2200 -RA BR SCT017 OVC030 16/14 Q1017 NOSIG
ZGSZ,2003-03-23 21:00,ZGSZ 232100Z 14001MPS 2200 -RA BR SCT017 OVC030 16/14 Q1017 NOSIG
ZGSZ,2003-03-23 22:00,ZGSZ 232200Z 33003MPS 2000 -RA BR SCT020 OVC026 16/14 Q1018 NOSIG
ZGSZ,2003-03-23 23:00,ZGSZ 232300Z 35002MPS 2000 -RA BR SCT020 OVC026 16/14 Q1018 NOSIG
ZGSZ,2003-03-24 00:00,ZGSZ 240000Z 06002MPS 4000 BR SCT020 OVC026 17/14 Q1019 NOSIG
ZGSZ,2003-03-24 01:00,ZGSZ 240100Z 00000MPS 5000 BR SCT016 OVC030 17/15 Q1020 NOSIG
ZGSZ,2003-03-24 02:00,ZGSZ 240200Z 02003MPS 4000 BR SCT020 OVC030 18/15 Q1020 NOSIG
ZGSZ,2003-03-24 03:00,ZGSZ 240300Z 02001MPS 4000 BR SCT020 OVC033 19/15 Q1019 NOSIG
ZGSZ,2003-03-24 04:00,ZGSZ 240400Z 09001MPS 5000 BR SCT016 OVC040 20/15 Q1019 NOSIG
ZGSZ,2003-03-24 05:00,ZGSZ 240500Z 24001MPS 2900 BR SCT013 OVC040 20/16 Q1017 NOSIG
ZGSZ,2003-03-24 06:00,ZGSZ 240600Z 26002MPS 3000 BR FEW020 BKN070 21/16 Q1017 NOSIG
ZGSZ,2003-03-24 07:00,ZGSZ 240700Z 27003MPS 3000 BR FEW020 BKN060 21/16 Q1016 NOSIG
ZGSZ,2003-03-24 08:00,ZGSZ 240800Z 27001MPS 2800 BR SCT020 BKN060 21/16 Q1016 NOSIG
ZGSZ,2003-03-24 09:00,ZGSZ 240900Z 23001MPS 3200 BR FEW026 OVC060 21/15 Q1016 NOSIG
ZGSZ,2003-03-24 10:00,ZGSZ 241000Z 18001MPS 3000 BR FEW023 OVC053 21/16 Q1016 NOSIG
ZGSZ,2003-03-24 11:00,ZGSZ 241100Z 00000MPS 2800 BR NSC 20/16 Q1017 NOSIG
ZGSZ,2003-03-24 12:00,ZGSZ 241200Z 10002MPS 2800 BR SKC 20/16 Q1017 NOSIG
ZGSZ,2003-03-24 13:00,ZGSZ 241300Z 09003MPS 2200 BR NSC 20/16 Q1018 NOSIG
ZGSZ,2003-03-24 14:00,ZGSZ 241400Z 09002MPS 2600 BR SKC 20/16 Q1018 NOSIG
ZGSZ,2003-03-24 15:00,ZGSZ 241500Z 08001MPS 2500 BR SKC 19/16 Q1018 NOSIG
ZGSZ,2003-03-24 16:00,ZGSZ 241600Z 09002MPS 2800 BR SKC 19/15 Q1018 NOSIG
ZGSZ,2003-03-24 17:00,ZGSZ 241700Z 34001MPS 2800 BR SKC 18/15 Q1018 NOSIG
ZGSZ,2003-03-24 18:00,ZGSZ 241800Z 36002MPS 5000 BR SKC 18/15 Q1018 NOSIG
ZGSZ,2003-03-24 19:00,ZGSZ 241900Z 03001MPS CAVOK 18/15 Q1017 NOSIG
ZGSZ,2003-03-24 20:00,ZGSZ 242000Z 05002MPS CAVOK 17/15 Q1017 NOSIG
ZGSZ,2003-03-24 21:00,ZGSZ 242100Z 01001MPS CAVOK 17/15 Q1017 NOSIG
ZGSZ,2003-03-24 22:00,ZGSZ 242200Z 00000MPS 5000 BR NSC 17/15 Q1018 NOSIG
ZGSZ,2003-03-24 23:00,ZGSZ 242300Z 00000MPS 4000 BR SCT015 SCT053 17/14 Q1019 NOSIG
ZGSZ,2003-03-25 00:00,ZGSZ 250000Z 26001MPS 4000 BR BKN017 BKN060 18/16 Q1020 NOSIG
ZGSZ,2003-03-25 01:00,ZGSZ 250100Z 17001MPS 6000 FEW020 BKN050 20/16 Q1020 NOSIG
ZGSZ,2003-03-25 03:00,ZGSZ 250300Z 18004MPS 4000 BR SCT023 22/17 Q1020 NOSIG
ZGSZ,2003-03-25 04:00,ZGSZ 250400Z 22004MPS 5000 BR SCT023 22/17 Q1019 NOSIG
ZGSZ,2003-03-25 05:00,ZGSZ 250500Z 22003MPS 8000 SKC 23/17 Q1018 NOSIG
ZGSZ,2003-03-25 06:00,ZGSZ 250600Z 23003MPS 8000 SKC 23/17 Q1017 NOSIG
ZGSZ,2003-03-25 07:00,ZGSZ 250700Z 21003MPS CAVOK 24/17 Q1016 NOSIG
ZGSZ,2003-03-25 08:00,ZGSZ 250800Z 19004MPS 8000 SCT043 SCT060 22/18 Q1016 NOSIG
ZGSZ,2003-03-25 09:00,ZGSZ 250900Z 18003MPS 7000 FEW020 BKN050 22/18 Q1016 NOSIG
ZGSZ,2003-03-25 10:00,ZGSZ 251000Z 18003MPS 6000 FEW020 BKN053 21/17 Q1016 NOSIG
ZGSZ,2003-03-25 11:00,ZGSZ 251100Z 14001MPS 6000 FEW020 BKN053 21/18 Q1016 NOSIG
ZGSZ,2003-03-25 12:00,ZGSZ 251200Z 11003MPS 6000 NSC 22/14 Q1017 NOSIG
ZGSZ,2003-03-25 13:00,ZGSZ 251300Z 10002MPS 7000 NSC 21/14 Q1018 NOSIG
ZGSZ,2003-03-25 14:00,ZGSZ 251400Z 09003MPS 7000 NSC 21/14 Q1018 NOSIG
ZGSZ,2003-03-25 15:00,ZGSZ 251500Z 12004MPS 7000 NSC 20/14 Q1018 NOSIG
ZGSZ,2003-03-25 16:00,ZGSZ 251600Z 13004MPS 7000 NSC 20/14 Q1018 NOSIG
ZGSZ,2003-03-25 17:00,ZGSZ 251700Z 13003MPS 7000 NSC 20/14 Q1017 NOSIG
ZGSZ,2003-03-25 18:00,ZGSZ 251800Z 14002MPS 6000 NSC 19/14 Q1017 NOSIG
ZGSZ,2003-03-25 19:00,ZGSZ 251900Z 36001MPS 6000 NSC 18/14 Q1017 NOSIG
ZGSZ,2003-03-25 20:00,ZGSZ 252000Z 00000MPS 4000 BR NSC 18/14 Q1016 NOSIG
ZGSZ,2003-03-25 21:00,ZGSZ 252100Z 36001MPS 3000 BR NSC 18/14 Q1017 NOSIG
ZGSZ,2003-03-25 22:00,ZGSZ 252200Z 35001MPS 3000 BR BKN043 17/14 Q1017 NOSIG
ZGSZ,2003-03-25 23:00,ZGSZ 252300Z 36002MPS 4500 BR NSC 17/14 Q1018 NOSIG
ZGSZ,2003-03-26 00:00,ZGSZ 260000Z 03002MPS 3000 BR NSC 19/13 Q1018 NOSIG
ZGSZ,2003-03-26 01:00,ZGSZ 260100Z 04001MPS CAVOK 22/11 Q1019 NOSIG
ZGSZ,2003-03-26 02:00,ZGSZ 260200Z 09002MPS CAVOK 24/11 Q1019 NOSIG
ZGSZ,2003-03-26 03:00,ZGSZ 260300Z 26003MPS CAVOK 24/12 Q1019 NOSIG
ZGSZ,2003-03-26 04:00,ZGSZ 260400Z 27003MPS CAVOK 24/14 Q1018 NOSIG
ZGSZ,2003-03-26 05:00,ZGSZ 260500Z 25003MPS CAVOK 23/13 Q1017 NOSIG
ZGSZ,2003-03-26 06:00,ZGSZ 260600Z 23003MPS CAVOK 24/14 Q1016 NOSIG
ZGSZ,2003-03-26 07:00,ZGSZ 260700Z 22003MPS CAVOK 24/16 Q1015 NOSIG
ZGSZ,2003-03-26 08:00,ZGSZ 260800Z 20003MPS CAVOK 24/16 Q1015 NOSIG
ZGSZ,2003-03-26 09:00,ZGSZ 260900Z 19003MPS 9999 FEW030 BKN160 23/17 Q1014 NOSIG
ZGSZ,2003-03-26 10:00,ZGSZ 261000Z 18003MPS CAVOK 23/17 Q1015 NOSIG
ZGSZ,2003-03-26 11:00,ZGSZ 261100Z 17002MPS 8000 NSC 22/17 Q1015 NOSIG
ZGSZ,2003-03-26 12:00,ZGSZ 261200Z 17002MPS 6000 NSC 21/18 Q1015 NOSIG
ZGSZ,2003-03-26 13:00,ZGSZ 261300Z 18002MPS 5000 BR NSC 21/18 Q1016 NOSIG
ZGSZ,2003-03-26 14:00,ZGSZ 261400Z 18002MPS 5000 BR NSC 21/18 Q1016 NOSIG
ZGSZ,2003-03-26 15:00,ZGSZ 261500Z 18001MPS 2800 BR NSC 20/17 Q1016 NOSIG
ZGSZ,2003-03-26 16:00,ZGSZ 261600Z 05001MPS 2800 BR NSC 21/17 Q1016 NOSIG
ZGSZ,2003-03-26 17:00,ZGSZ 261700Z 00000MPS 5000 BR NSC 20/17 Q1016 NOSIG
ZGSZ,2003-03-26 18:00,ZGSZ 261800Z 02001MPS 4000 BR NSC 21/18 Q1015 NOSIG
ZGSZ,2003-03-26 19:00,ZGSZ 261900Z 13001MPS 4000 BR NSC 20/17 Q1014 NOSIG
ZGSZ,2003-03-26 20:00,ZGSZ 262000Z 14002MPS 4000 BR NSC 20/17 Q1014 NOSIG
ZGSZ,2003-03-26 21:00,ZGSZ 262100Z AUTO 36002KT 4SM 21/19 A2994 RMK SLP148 T02130186 57012 IEM_DS3505
ZGSZ,2003-03-26 22:00,ZGSZ 262200Z AUTO 36004KT 2 1/2SM 20/17 A2997 RMK T02000170 IEM_DS3505
ZGSZ,2003-03-26 23:00,ZGSZ 262300Z AUTO 36004KT 2SM 21/18 A2997 RMK T02100180 IEM_DS3505
ZGSZ,2003-03-27 00:00,ZGSZ 270000Z AUTO 07004KT 4SM 22/19 A3000 RMK SLP171 T02150188 52023 IEM_DS3505
ZGSZ,2003-03-27 01:00,ZGSZ 270100Z 15002MPS 3000 BR FEW020 BKN046 23/19 Q1016 NOSIG
ZGSZ,2003-03-27 02:00,ZGSZ 270200Z 28002MPS 2600 BR FEW020 BKN043 23/18 Q1016 NOSIG
ZGSZ,2003-03-27 03:00,ZGSZ 270300Z 26002MPS 2600 BR FEW021 24/19 Q1016 NOSIG
ZGSZ,2003-03-27 04:00,ZGSZ 270400Z 25003MPS 4500 BR FEW016 BKN023 24/19 Q1015 NOSIG
ZGSZ,2003-03-27 05:00,ZGSZ 270500Z 24002MPS 9999 FEW016 25/19 Q1014 NOSIG
ZGSZ,2003-03-27 06:00,ZGSZ 270600Z 22002MPS 9999 BKN036 25/19 Q1013 NOSIG
ZGSZ,2003-03-27 07:00,ZGSZ 270700Z 24002MPS 9999 FEW043 26/19 Q1012 NOSIG
ZGSZ,2003-03-27 08:00,ZGSZ 270800Z 18003MPS 9999 BKN043 25/20 Q1012 NOSIG
ZGSZ,2003-03-27 09:00,ZGSZ 270900Z 18004MPS 9999 BKN040 24/20 Q1012 NOSIG
ZGSZ,2003-03-27 10:00,ZGSZ 271000Z 18003MPS 9999 FEW023 BKN060 23/20 Q1012 NOSIG
ZGSZ,2003-03-27 11:00,ZGSZ 271100Z 17003MPS 5000 BR FEW033 BKN060 23/20 Q1012 NOSIG
ZGSZ,2003-03-27 12:00,ZGSZ 271200Z 15003MPS 5000 BR FEW033 BKN060 22/20 Q1012 NOSIG
ZGSZ,2003-03-27 13:00,ZGSZ 271300Z 16003MPS 3000 BR FEW011 BKN046 22/20 Q1013 NOSIG
ZGSZ,2003-03-27 14:00,ZGSZ 271400Z 16002MPS 3000 BR FEW011 BKN060 22/20 Q1013 NOSIG
ZGSZ,2003-03-27 15:00,ZGSZ 271500Z 16002MPS 5000 BR NSC 22/19 Q1013 NOSIG
ZGSZ,2003-03-27 16:00,ZGSZ 271600Z 14002MPS 5000 BR NSC 21/19 Q1013 NOSIG
ZGSZ,2003-03-27 17:00,ZGSZ 271700Z 11002MPS 4000 BR NSC 22/19 Q1012 NOSIG
ZGSZ,2003-03-27 18:00,ZGSZ 271800Z 18001MPS 3000 BR NSC 21/19 Q1012 NOSIG
ZGSZ,2003-03-27 19:00,ZGSZ 271900Z AUTO 00000KT 2SM 21/18 A2985 RMK T02100180 IEM_DS3505
ZGSZ,2003-03-27 20:00,ZGSZ 272000Z 14001MPS 3000 BR NSC 21/19 Q1011 NOSIG
ZGSZ,2003-03-27 21:00,ZGSZ 272100Z 14002MPS 3000 BR NSC 21/19 Q1012 NOSIG
ZGSZ,2003-03-27 22:00,ZGSZ 272200Z 14001MPS 3000 BR NSC 21/19 Q1012 NOSIG
ZGSZ,2003-03-27 23:00,ZGSZ 272300Z 00000MPS 2600 BR BKN046 21/19 Q1013 NOSIG
ZGSZ,2003-03-28 00:00,ZGSZ 280000Z 14001MPS 2800 BR BKN043 23/20 Q1013 NOSIG
ZGSZ,2003-03-28 01:00,ZGSZ 280100Z AUTO 19006KT 2SM 22/19 A2994 RMK T02200190 IEM_DS3505
ZGSZ,2003-03-28 02:00,ZGSZ 280200Z AUTO 18006KT 2SM 22/19 A2994 RMK T02200190 IEM_DS3505
ZGSZ,2003-03-28 03:00,ZGSZ 280300Z AUTO 09006KT 3SM 20/18 A2994 RMK SLP155 T02040178 52014 IEM_DS3505
ZGSZ,2003-03-28 04:00,ZGSZ 280400Z AUTO 19010KT 2SM 23/20 A2991 RMK T02300200 IEM_DS3505
ZGSZ,2003-03-28 05:00,ZGSZ 280500Z AUTO 18010KT 2 1/2SM 25/19 A2988 RMK T02500190 IEM_DS3505
ZGSZ,2003-03-28 06:00,ZGSZ 280600Z AUTO 09010KT 6SM 23/18 A2988 RMK SLP128 T02280175 57027 IEM_DS3505
ZGSZ,2003-03-28 07:00,ZGSZ 280700Z AUTO 18010KT 3SM 24/19 A2985 RMK T02400190 IEM_DS3505
ZGSZ,2003-03-28 08:00,ZGSZ 280800Z 18005MPS 5000 FEW018 SCT050 24/19 Q1010 NOSIG
ZGSZ,2003-03-28 09:00,ZGSZ 280900Z 17005MPS CAVOK 23/19 Q1010 NOSIG
ZGSZ,2003-03-28 10:00,ZGSZ 281000Z 17005MPS CAVOK 23/18 Q1010 NOSIG
ZGSZ,2003-03-28 11:00,ZGSZ 281100Z 13005MPS CAVOK 23/17 Q1010 NOSIG
ZGSZ,2003-03-28 12:00,ZGSZ 281200Z 11004MPS CAVOK 22/16 Q1011 NOSIG
ZGSZ,2003-03-28 13:00,ZGSZ 281300Z 12005MPS 6000 FEW030 BKN120 21/16 Q1011 NOSIG
ZGSZ,2003-03-28 14:00,ZGSZ 281400Z 11004MPS 6000 NSC 21/16 Q1012 NOSIG
ZGSZ,2003-03-28 15:00,ZGSZ 281500Z 10002MPS CAVOK 21/16 Q1012 NOSIG
ZGSZ,2003-03-28 16:00,ZGSZ 281600Z 04001MPS CAVOK 21/16 Q1012 NOSIG
ZGSZ,2003-03-28 17:00,ZGSZ 281700Z 12003MPS CAVOK 21/16 Q1012 NOSIG
ZGSZ,2003-03-28 18:00,ZGSZ 281800Z 11003MPS CAVOK 21/16 Q1012 NOSIG
ZGSZ,2003-03-28 19:00,ZGSZ 281900Z 11002MPS CAVOK 21/16 Q1011 NOSIG
ZGSZ,2003-03-28 20:00,ZGSZ 282000Z 13003MPS CAVOK 20/16 Q1011 NOSIG
ZGSZ,2003-03-28 21:00,ZGSZ 282100Z 13003MPS CAVOK 20/16 Q1010 NOSIG
ZGSZ,2003-03-28 22:00,ZGSZ 282200Z 11002MPS CAVOK 21/16 Q1011 NOSIG
ZGSZ,2003-03-28 23:00,ZGSZ 282300Z 00000MPS 6000 NSC 21/16 Q1011 NOSIG
ZGSZ,2003-03-29 00:00,ZGSZ 290000Z 14002MPS 6000 NSC 21/16 Q1012 NOSIG
ZGSZ,2003-03-29 01:00,ZGSZ 290100Z 12003MPS 6000 NSC 21/16 Q1013 NOSIG
ZGSZ,2003-03-29 02:00,ZGSZ 290200Z 10002MPS 6000 NSC 23/17 Q1013 NOSIG
ZGSZ,2003-03-29 03:00,ZGSZ 290300Z 22003MPS 7000 SCT016 BKN050 22/17 Q1013 NOSIG
ZGSZ,2003-03-29 04:00,ZGSZ 290400Z 22002MPS 7000 FEW016 OVC040 22/17 Q1013 NOSIG
ZGSZ,2003-03-29 05:00,ZGSZ 290500Z 23003MPS 8000 FEW020 OVC050 22/17 Q1012 NOSIG
ZGSZ,2003-03-29 06:00,ZGSZ 290600Z 25002MPS 8000 SCT033 OVC050 22/18 Q1011 NOSIG
ZGSZ,2003-03-29 07:00,ZGSZ 290700Z 19002MPS 9999 SCT033 OVC050 22/18 Q1011 NOSIG
ZGSZ,2003-03-29 08:00,ZGSZ 290800Z 16002MPS 6000 OVC040 22/18 Q1010 NOSIG
ZGSZ,2003-03-29 09:00,ZGSZ 290900Z 19002MPS 7000 SCT020 OVC040 23/18 Q1011 NOSIG
ZGSZ,2003-03-29 10:00,ZGSZ 291000Z 13003MPS 6000 SCT023 OVC040 23/17 Q1011 NOSIG
ZGSZ,2003-03-29 11:00,ZGSZ 291100Z 10003MPS 6000 BKN023 OVC040 23/17 Q1011 NOSIG
ZGSZ,2003-03-29 12:00,ZGSZ 291200Z 13004MPS 6000 FEW023 OVC040 22/17 Q1011 NOSIG
ZGSZ,2003-03-29 13:00,ZGSZ 291300Z 12004MPS 6000 FEW020 OVC040 21/17 Q1012 NOSIG
ZGSZ,2003-03-29 14:00,ZGSZ 291400Z 10002MPS 6000 OVC040 21/17 Q1012 NOSIG
ZGSZ,2003-03-29 15:00,ZGSZ 291500Z 11004MPS 6000 BKN020 OVC040 21/16 Q1012 NOSIG
ZGSZ,2003-03-29 16:00,ZGSZ 291600Z 12004MPS 7000 BKN020 21/16 Q1012 NOSIG
ZGSZ,2003-03-29 17:00,ZGSZ 291700Z 12004MPS 7000 BKN023 21/17 Q1012 NOSIG
ZGSZ,2003-03-29 18:00,ZGSZ 291800Z 13004MPS 6000 BKN026 21/17 Q1011 NOSIG
ZGSZ,2003-03-29 19:00,ZGSZ 291900Z 10003MPS 6000 BKN026 21/17 Q1011 NOSIG
ZGSZ,2003-03-29 20:00,ZGSZ 292000Z 09004MPS 6000 BKN026 21/17 Q1010 NOSIG
ZGSZ,2003-03-29 21:00,ZGSZ 292100Z 10006MPS 6000 BKN023 21/17 Q1010 NOSIG
ZGSZ,2003-03-29 22:00,ZGSZ 292200Z 10005MPS 6000 BKN020 21/17 Q1011 NOSIG
ZGSZ,2003-03-29 23:00,ZGSZ 292300Z 10004MPS 6000 FEW020 OVC040 21/17 Q1012 NOSIG
ZGSZ,2003-03-30 00:00,ZGSZ 300000Z 12004MPS 7000 SCT020 OVC040 22/17 Q1012 NOSIG
ZGSZ,2003-03-30 01:00,ZGSZ 300100Z 12004MPS 6000 SCT020 OVC040 22/17 Q1013 NOSIG
ZGSZ,2003-03-30 02:00,ZGSZ 300200Z 11004MPS 7000 SCT020 OVC043 23/18 Q1014 NOSIG
ZGSZ,2003-03-30 03:00,ZGSZ 300300Z 12004MPS 7000 SCT020 OVC043 23/18 Q1014 NOSIG
ZGSZ,2003-03-30 04:00,ZGSZ 300400Z 13004MPS 8000 SCT016 OVC043 23/18 Q1013 NOSIG
ZGSZ,2003-03-30 05:00,ZGSZ 300500Z 13004MPS 8000 SCT016 OVC043 24/18 Q1013 NOSIG
ZGSZ,2003-03-30 06:00,ZGSZ 300600Z 13004MPS 9999 FEW020 BKN060 25/18 Q1012 NOSIG
ZGSZ,2003-03-30 07:00,ZGSZ 300700Z 14004MPS CAVOK 26/18 Q1011 NOSIG
ZGSZ,2003-03-30 08:00,ZGSZ 300800Z 18003MPS CAVOK 25/19 Q1010 NOSIG
ZGSZ,2003-03-30 09:00,ZGSZ 300900Z 18003MPS 9999 SCT020 BKN050 23/19 Q1011 NOSIG
ZGSZ,2003-03-30 10:00,ZGSZ 301000Z 16004MPS 9999 SCT020 BKN050 23/19 Q1011 NOSIG
ZGSZ,2003-03-30 11:00,ZGSZ 301100Z 14003MPS 4500 BR NSC 24/19 Q1011 NOSIG
ZGSZ,2003-03-30 12:00,ZGSZ 301200Z 11003MPS 4000 BR NSC 24/18 Q1011 NOSIG
ZGSZ,2003-03-30 13:00,ZGSZ 301300Z 13005MPS 4000 BR NSC 23/18 Q1011 NOSIG
ZGSZ,2003-03-30 14:00,ZGSZ 301400Z 13005MPS 4000 BR NSC 23/18 Q1012 NOSIG
ZGSZ,2003-03-30 15:00,ZGSZ 301500Z 10002MPS 4500 BR NSC 22/18 Q1012 NOSIG
ZGSZ,2003-03-30 16:00,ZGSZ 301600Z 13003MPS 6000 NSC 22/18 Q1011 NOSIG
ZGSZ,2003-03-30 17:00,ZGSZ 301700Z 13003MPS 6000 NSC 22/18 Q1010 NOSIG
ZGSZ,2003-03-30 18:00,ZGSZ 301800Z 13004MPS 6000 NSC 22/19 Q1010 NOSIG
ZGSZ,2003-03-30 19:00,ZGSZ 301900Z 13006MPS 3000 BR FEW018 BKN043 23/19 Q1009 NOSIG
ZGSZ,2003-03-30 20:00,ZGSZ 302000Z 12004MPS 3000 BR FEW018 BKN043 23/19 Q1009 NOSIG
ZGSZ,2003-03-30 21:00,ZGSZ 302100Z 12003MPS 3000 BR FEW018 BKN043 23/19 Q1009 NOSIG
ZGSZ,2003-03-30 22:00,ZGSZ 302200Z 13002MPS 3000 BR FEW018 BKN043 23/19 Q1010 NOSIG
ZGSZ,2003-03-30 23:00,ZGSZ 302300Z 13003MPS 3000 BR SCT017 BKN043 23/19 Q1011 NOSIG
ZGSZ,2003-03-31 00:00,ZGSZ 310000Z 14003MPS 4500 BR SCT017 BKN040 23/20 Q1011 NOSIG
ZGSZ,2003-03-31 01:00,ZGSZ 310100Z 17003MPS 7000 BKN020 OVC043 24/20 Q1012 NOSIG
ZGSZ,2003-03-31 02:00,ZGSZ 310200Z 16004MPS 9999 BKN020 OVC050 24/20 Q1012 NOSIG
ZGSZ,2003-03-31 03:00,ZGSZ 310300Z 17004MPS 9999 FEW020 OVC050 24/20 Q1012 NOSIG
ZGSZ,2003-03-31 04:00,ZGSZ 310400Z 16005MPS 9999 SCT020 OVC050 24/20 Q1011 NOSIG
ZGSZ,2003-03-31 05:00,ZGSZ 310500Z 16005MPS 9999 SCT026 BKN060 26/21 Q1010 NOSIG
ZGSZ,2003-03-31 06:00,ZGSZ 310600Z 16005MPS 9999 FEW020 BKN060 24/20 Q1009 NOSIG
ZGSZ,2003-03-31 07:00,ZGSZ 310700Z 16005MPS CAVOK 24/20 Q1008 NOSIG
ZGSZ,2003-03-31 08:00,ZGSZ 310800Z 17005MPS CAVOK 25/20 Q1008 NOSIG
ZGSZ,2003-03-31 09:00,ZGSZ 310900Z 16005MPS 9999 FEW023 BKN060 24/21 Q1008 NOSIG
ZGSZ,2003-03-31 10:00,ZGSZ 311000Z 16005MPS 9999 FEW023 OVC050 24/20 Q1008 NOSIG
ZGSZ,2003-03-31 11:00,ZGSZ 311100Z 14004MPS 9999 SCT040 OVC050 24/20 Q1008 NOSIG
ZGSZ,2003-03-31 12:00,ZGSZ 311200Z 13008MPS CAVOK 24/20 Q1007 NOSIG
ZGSZ,2003-03-31 13:00,ZGSZ 311300Z 17003MPS CAVOK 24/20 Q1008 NOSIG
ZGSZ,2003-03-31 14:00,ZGSZ 311400Z 15004MPS CAVOK 24/21 Q1009 NOSIG
ZGSZ,2003-03-31 15:00,ZGSZ 311500Z 15005MPS CAVOK 24/21 Q1008 NOSIG
ZGSZ,2003-03-31 16:00,ZGSZ 311600Z 14006MPS CAVOK 24/21 Q1008 NOSIG
ZGSZ,2003-03-31 17:00,ZGSZ 311700Z 16004MPS CAVOK 24/21 Q1008 NOSIG
ZGSZ,2003-03-31 18:00,ZGSZ 311800Z 15005MPS CAVOK 24/21 Q1007 NOSIG
ZGSZ,2003-03-31 19:00,ZGSZ 311900Z 16003MPS CAVOK 23/21 Q1007 NOSIG
ZGSZ,2003-03-31 20:00,ZGSZ 312000Z 15004MPS CAVOK 23/21 Q1007 NOSIG
ZGSZ,2003-03-31 21:00,ZGSZ 312100Z 15004MPS 7000 NSC 23/21 Q1007 NOSIG
ZGSZ,2003-03-31 22:00,ZGSZ 312200Z 16005MPS 7000 NSC 23/21 Q1007 NOSIG
ZGSZ,2003-03-31 23:00,ZGSZ 312300Z 15005MPS 7000 NSC 23/21 Q1008 NOSIG
ZGSZ,2003-04-01 00:00,ZGSZ 010000Z AUTO 18002KT 4SM 25/22 A2977 RMK 70000 SLP096 T02480224 52016 IEM_DS3505
ZGSZ,2003-04-01 01:00,ZGSZ 010100Z 16004MPS 9999 FEW011 BKN020 OVC036 23/21 Q1009 NOSIG
ZGSZ,2003-04-01 02:00,ZGSZ 010200Z 16006MPS 9999 FEW011 SCT020 OVC036 25/22 Q1008 NOSIG
ZGSZ,2003-04-01 03:00,ZGSZ 010300Z 16005MPS 9999 FEW010 BKN016 OVC036 24/21 Q1009 NOSIG
ZGSZ,2003-04-01 04:00,ZGSZ 010400Z 16006MPS 9999 SCT011 SCT016 OVC036 25/22 Q1008 NOSIG
ZGSZ,2003-04-01 05:00,ZGSZ 010500Z 15007MPS 9999 SCT012 BKN043 26/22 Q1007 NOSIG
ZGSZ,2003-04-01 06:00,ZGSZ 010600Z 15006MPS 9999 SCT012 SCT016 OVC040 25/22 Q1006 NOSIG
ZGSZ,2003-04-01 07:00,ZGSZ 010700Z 15006MPS 9999 SCT016 OVC040 25/22 Q1005 NOSIG
ZGSZ,2003-04-01 08:00,ZGSZ 010800Z 15006MPS 9999 FEW010 SCT017 OVC040 25/22 Q1004 NOSIG
ZGSZ,2003-04-01 09:00,ZGSZ 010900Z 15006MPS 9999 SCT010 OVC040 24/21 Q1004 NOSIG
ZGSZ,2003-04-01 10:00,ZGSZ 011000Z 15005MPS 9999 SCT010 OVC040 24/22 Q1004 NOSIG
ZGSZ,2003-04-01 11:00,ZGSZ 011100Z 16007MPS 9999 SCT010 BKN070 24/21 Q1004 NOSIG
ZGSZ,2003-04-01 12:00,ZGSZ 011200Z 16006MPS 9999 SCT010 BKN040 24/21 Q1004 NOSIG
ZGSZ,2003-04-01 13:00,ZGSZ 011300Z 16007MPS 9999 SCT010 24/22 Q1005 NOSIG
ZGSZ,2003-04-01 14:00,ZGSZ 011400Z 17006MPS 9999 SCT010 SCT018 24/21 Q1005 NOSIG
ZGSZ,2003-04-01 15:00,ZGSZ 011500Z 17006MPS 9999 FEW010 BKN040 24/21 Q1006 NOSIG
ZGSZ,2003-04-01 16:00,ZGSZ 011600Z 16006MPS 9999 FEW010 BKN016 24/21 Q1005 NOSIG
ZGSZ,2003-04-01 17:00,ZGSZ 011700Z 14005MPS 9999 FEW010 BKN016 24/21 Q1005 NOSIG
ZGSZ,2003-04-01 18:00,ZGSZ 011800Z 14004MPS 9999 FEW010 BKN016 24/21 Q1005 NOSIG
ZGSZ,2003-04-01 19:00,ZGSZ 011900Z 15006MPS 9999 FEW010 BKN016 24/22 Q1004 NOSIG
ZGSZ,2003-04-01 20:00,ZGSZ 012000Z 14005MPS 9999 FEW010 BKN016 24/21 Q1004 NOSIG
ZGSZ,2003-04-01 21:00,ZGSZ 012100Z 14004MPS 8000 FEW010 BKN040 24/22 Q1004 NOSIG
ZGSZ,2003-04-01 22:00,ZGSZ 012200Z 14004MPS 8000 FEW010 BKN040 24/22 Q1005 NOSIG
ZGSZ,2003-04-01 23:00,ZGSZ 012300Z 14004MPS 3000 BR FEW010 BKN040 24/22 Q1005 NOSIG
ZGSZ,2003-04-02 00:00,ZGSZ 020000Z 14005MPS 8000 BKN040 25/22 Q1006 NOSIG
ZGSZ,2003-04-02 01:00,ZGSZ 020100Z 14005MPS 6000 FEW016 BKN040 25/22 Q1007 NOSIG
ZGSZ,2003-04-02 02:00,ZGSZ 020200Z 14005MPS 8000 SCT017 BKN040 26/22 Q1007 NOSIG
ZGSZ,2003-04-02 03:00,ZGSZ 020300Z 14005MPS 5000 BR SCT016 BKN040 26/23 Q1007 NOSIG
ZGSZ,2003-04-02 05:00,ZGSZ 020500Z 15005MPS 4500 BR SCT013 BKN033 25/22 Q1006 NOSIG
ZGSZ,2003-04-02 06:00,ZGSZ 020600Z 16004MPS 3000 BR SCT012 BKN033 25/23 Q1005 NOSIG
ZGSZ,2003-04-02 07:00,ZGSZ 020700Z 16006MPS 7000 SCT015 BKN040 26/23 Q1004 NOSIG
ZGSZ,2003-04-02 08:00,ZGSZ 020800Z 15006MPS 9999 FEW016 BKN043 26/23 Q1004 NOSIG
ZGSZ,2003-04-02 09:00,ZGSZ 020900Z 15006MPS CAVOK 26/23 Q1003 NOSIG
ZGSZ,2003-04-02 10:00,ZGSZ 021000Z 14006MPS CAVOK 25/22 Q1004 NOSIG
ZGSZ,2003-04-02 11:00,ZGSZ 021100Z 14006MPS CAVOK 25/22 Q1004 NOSIG
ZGSZ,2003-04-02 12:00,ZGSZ 021200Z 14006MPS CAVOK 25/22 Q1005 NOSIG
ZGSZ,2003-04-02 13:00,ZGSZ 021300Z 14006MPS CAVOK 25/22 Q1005 NOSIG
ZGSZ,2003-04-02 14:00,ZGSZ 021400Z 14005MPS CAVOK 25/22 Q1006 NOSIG
ZGSZ,2003-04-02 15:00,ZGSZ 021500Z 14004MPS 9999 BKN026 BKN100 25/22 Q1006 NOSIG
ZGSZ,2003-04-02 16:00,ZGSZ 021600Z 14004MPS 9999 BKN026 BKN100 25/22 Q1006 NOSIG
ZGSZ,2003-04-02 17:00,ZGSZ 021700Z 14004MPS 9999 SCT026 BKN100 25/22 Q1006 NOSIG
ZGSZ,2003-04-02 18:00,ZGSZ 021800Z 14003MPS 9999 BKN030 BKN100 25/22 Q1005 NOSIG
ZGSZ,2003-04-02 19:00,ZGSZ 021900Z 14003MPS 9999 BKN030 BKN100 25/22 Q1005 NOSIG
ZGSZ,2003-04-02 20:00,ZGSZ 022000Z 14003MPS 9999 BKN030 BKN100 25/22 Q1005 NOSIG
ZGSZ,2003-04-02 21:00,ZGSZ 022100Z 14002MPS 5000 BR SCT030 BKN050 25/22 Q1005 NOSIG
ZGSZ,2003-04-02 22:00,ZGSZ 022200Z 14003MPS 5000 BR BKN030 BKN050 25/22 Q1005 NOSIG
ZGSZ,2003-04-02 23:00,ZGSZ 022300Z 14003MPS 9999 SCT030 BKN060 25/22 Q1006 NOSIG
ZGSZ,2003-04-03 00:00,ZGSZ 030000Z 16003MPS 9999 BKN030 BKN070 25/23 Q1007 NOSIG
ZGSZ,2003-04-03 01:00,ZGSZ 030100Z 16006MPS 9999 FEW020 BKN060 26/23 Q1007 NOSIG
ZGSZ,2003-04-03 02:00,ZGSZ 030200Z 16005MPS 9999 SCT020 OVC060 26/23 Q1007 NOSIG
ZGSZ,2003-04-03 03:00,ZGSZ 030300Z 16006MPS 9999 SCT020 OVC060 26/23 Q1007 NOSIG
ZGSZ,2003-04-03 04:00,ZGSZ 030400Z 18004MPS 9999 FEW023 OVC060 26/23 Q1007 NOSIG
ZGSZ,2003-04-03 05:00,ZGSZ 030500Z 16006MPS 9999 FEW023 BKN070 26/23 Q1006 NOSIG
ZGSZ,2003-04-03 06:00,ZGSZ 030600Z 17004MPS 9999 FEW023 BKN070 26/23 Q1005 NOSIG
ZGSZ,2003-04-03 07:00,ZGSZ 030700Z 16006MPS CAVOK 27/23 Q1005 NOSIG
ZGSZ,2003-04-03 08:00,ZGSZ 030800Z 16006MPS CAVOK 27/23 Q1004 NOSIG
ZGSZ,2003-04-03 09:00,ZGSZ 030900Z 15005MPS 9999 FEW010 BKN016 BKN050 26/23 Q1004 NOSIG
ZGSZ,2003-04-03 10:00,ZGSZ 031000Z 15005MPS 9999 SCT009 BKN017 26/23 Q1004 NOSIG
ZGSZ,2003-04-03 11:00,ZGSZ 031100Z 14006MPS 9999 SCT011 SCT050 25/23 Q1005 NOSIG
ZGSZ,2003-04-03 12:00,ZGSZ 031200Z 17006MPS 9999 BKN012 25/23 Q1005 NOSIG
ZGSZ,2003-04-03 13:00,ZGSZ 031300Z 15005MPS 9999 BKN012 25/23 Q1006 NOSIG
ZGSZ,2003-04-03 14:00,ZGSZ 031400Z 15004MPS 9999 BKN012 25/23 Q1006 NOSIG
ZGSZ,2003-04-03 15:00,ZGSZ 031500Z 16004MPS 9999 BKN012 25/23 Q1007 NOSIG
ZGSZ,2003-04-03 16:00,ZGSZ 031600Z 18003MPS 9999 SCT011 BKN016 25/22 Q1007 NOSIG
ZGSZ,2003-04-03 17:00,ZGSZ 031700Z 13003MPS 9999 FEW010 BKN017 24/22 Q1006 NOSIG
ZGSZ,2003-04-03 18:00,ZGSZ 031800Z 15003MPS 9999 FEW010 BKN060 25/22 Q1006 NOSIG
ZGSZ,2003-04-03 19:00,ZGSZ 031900Z 14004MPS 3000 BR NSC 25/23 Q1005 NOSIG
ZGSZ,2003-04-03 20:00,ZGSZ 032000Z 15003MPS 9999 FEW010 BKN026 25/23 Q1005 NOSIG
ZGSZ,2003-04-03 21:00,ZGSZ 032100Z 18003MPS 9999 FEW010 BKN023 25/22 Q1006 NOSIG
ZGSZ,2003-04-03 22:00,ZGSZ 032200Z 18002MPS 6000 FEW010 BKN023 25/22 Q1006 NOSIG
ZGSZ,2003-04-03 23:00,ZGSZ 032300Z 20002MPS 9999 SCT016 BKN050 24/22 Q1007 NOSIG
ZGSZ,2003-04-04 00:00,ZGSZ 040000Z 23004MPS 1400 BR FEW009 BKN016 OVC043 24/22 Q1008 NOSIG
ZGSZ,2003-04-04 01:00,ZGSZ 040100Z 30004MPS 1600 BR OVC033 23/20 Q1009 TEMPO 33004MPS 1000 RA BKN010 FEW025CB OVC033
ZGSZ,2003-04-04 02:00,ZGSZ 040200Z 34007MPS 1400 R33/P1500N -RA BR SCT010 OVC033 22/20 Q1009 TEMPO 33004MPS 1000 RA BKN010 FEW025CB OVC033
ZGSZ,2003-04-04 03:00,ZGSZ 040300Z 35006MPS 2000 BR FEW013 OVC036 22/19 Q1010 TEMPO 33004MPS 1000 RA BKN010 FEW025CB OVC033
ZGSZ,2003-04-04 04:00,ZGSZ 040400Z 02006MPS 4000 BR FEW013 OVC036 22/18 Q1010 TEMPO 33004MPS 1000 RA BKN010 FEW025CB OVC033
ZGSZ,2003-04-04 05:00,ZGSZ 040500Z 01004MPS 9999 OVC040 23/18 Q1009 NOISG
ZGSZ,2003-04-04 06:00,ZGSZ 040600Z 02005MPS 9999 OVC040 24/18 Q1008 NOISG
ZGSZ,2003-04-04 07:00,ZGSZ 040700Z 02005MPS 9999 OVC040 24/17 Q1008 NOISG
ZGSZ,2003-04-04 08:00,ZGSZ 040800Z 01006MPS 9999 OVC036 24/17 Q1008 NOISG
ZGSZ,2003-04-04 09:00,ZGSZ 040900Z 02004MPS 4500 BR FEW016 BKN040 23/18 Q1008 NOISG
ZGSZ,2003-04-04 10:00,ZGSZ 041000Z 03005MPS 9999 FEW017 BKN040 23/17 Q1008 NOISG
ZGSZ,2003-04-04 11:00,ZGSZ 041100Z 02005MPS 9999 SCT016 BKN040 22/17 Q1009 NOISG
ZGSZ,2003-04-04 12:00,ZGSZ 041200Z 04004MPS 9999 FEW017 BKN040 22/16 Q1010 NOISG
ZGSZ,2003-04-04 13:00,ZGSZ 041300Z 03005MPS 9999 FEW017 BKN040 21/15 Q1011 NOISG
ZGSZ,2003-04-04 14:00,ZGSZ 041400Z 03007MPS 9999 FEW017 BKN040 20/14 Q1012 NOISG
ZGSZ,2003-04-04 15:00,ZGSZ 041500Z 04004MPS 9999 FEW017 BKN040 20/14 Q1012 NOISG
ZGSZ,2003-04-04 16:00,ZGSZ 041600Z 04005MPS 9999 FEW017 BKN040 19/13 Q1013 NOISG
ZGSZ,2003-04-04 17:00,ZGSZ 041700Z 02005MPS 9999 FEW017 BKN043 19/12 Q1013 NOISG
ZGSZ,2003-04-04 18:00,ZGSZ 041800Z 02007MPS 9999 FEW017 BKN043 19/12 Q1013 NOISG
ZGSZ,2003-04-04 19:00,ZGSZ 041900Z 02004MPS 9999 FEW017 BKN043 18/12 Q1013 NOISG
ZGSZ,2003-04-04 20:00,ZGSZ 042000Z 02005MPS 9999 FEW017 BKN043 18/11 Q1013 NOISG
ZGSZ,2003-04-04 21:00,ZGSZ 042100Z 03004MPS 9999 BKN043 18/11 Q1013 NOISG
ZGSZ,2003-04-04 22:00,ZGSZ 042200Z 02005MPS 9999 BKN043 18/11 Q1013 NOISG
ZGSZ,2003-04-04 23:00,ZGSZ 042300Z 02005MPS 9999 BKN043 18/11 Q1014 NOISG
ZGSZ,2003-04-05 00:00,ZGSZ 050000Z 03004MPS 9999 BKN043 18/11 Q1015 NOISG
ZGSZ,2003-04-05 01:00,ZGSZ 050100Z 05004MPS CAVOK 19/11 Q1015 NOISG
ZGSZ,2003-04-05 02:00,ZGSZ 050200Z 03004MPS CAVOK 20/10 Q1016 NOISG
ZGSZ,2003-04-05 03:00,ZGSZ 050300Z 02004MPS CAVOK 20/10 Q1016 N0SIG
ZGSZ,2003-04-05 04:00,ZGSZ 050400Z 02004MPS CAVOK 21/10 Q1016 N0SIG
ZGSZ,2003-04-05 05:00,ZGSZ 050500Z 02003MPS CAVOK 21/11 Q1015 N0SIG
ZGSZ,2003-04-05 06:00,ZGSZ 050600Z 05003MPS CAVOK 22/11 Q1014 N0SIG
ZGSZ,2003-04-05 07:00,ZGSZ 050700Z 08003MPS CAVOK 23/12 Q1013 N0SIG
ZGSZ,2003-04-05 08:00,ZGSZ 050800Z 08003MPS CAVOK 23/12 Q1013 N0SIG
ZGSZ,2003-04-05 09:00,ZGSZ 050900Z 10003MPS CAVOK 22/12 Q1013 N0SIG
ZGSZ,2003-04-05 10:00,ZGSZ 051000Z 10003MPS CAVOK 22/12 Q1013 N0SIG
ZGSZ,2003-04-05 11:00,ZGSZ 051100Z 09003MPS CAVOK 22/12 Q1014 N0SIG
ZGSZ,2003-04-05 12:00,ZGSZ 051200Z 10004MPS CAVOK 21/13 Q1014 N0SIG
ZGSZ,2003-04-05 13:00,ZGSZ 051300Z 09004MPS CAVOK 21/13 Q1015 N0SIG
ZGSZ,2003-04-05 14:00,ZGSZ 051400Z 10003MPS CAVOK 20/14 Q1016 N0SIG
ZGSZ,2003-04-05 15:00,ZGSZ 051500Z 09004MPS 8000 SCT015 OVC053 20/14 Q1015 N0SIG
ZGSZ,2003-04-05 16:00,ZGSZ 051600Z 09002MPS 7000 SCT015 OVC050 20/14 Q1016 N0SIG
ZGSZ,2003-04-05 17:00,ZGSZ 051700Z 11003MPS 7000 SCT015 OVC050 20/14 Q1015 N0SIG
ZGSZ,2003-04-05 18:00,ZGSZ 051800Z 11001MPS 7000 SCT015 OVC050 20/14 Q1014 N0SIG
ZGSZ,2003-04-05 19:00,ZGSZ 051900Z 09002MPS 7000 SCT015 OVC050 20/14 Q1014 N0SIG
ZGSZ,2003-04-05 20:00,ZGSZ 052000Z 08003MPS 7000 SCT015 OVC050 19/14 Q1013 N0SIG
ZGSZ,2003-04-05 21:00,ZGSZ 052100Z 08003MPS 7000 SCT015 OVC050 19/14 Q1013 N0SIG
ZGSZ,2003-04-05 22:00,ZGSZ 052200Z 11002MPS 7000 SCT015 OVC050 19/14 Q1014 N0SIG
ZGSZ,2003-04-05 23:00,ZGSZ 052300Z 08002MPS 6000 SCT016 OVC050 19/14 Q1014 N0SIG
ZGSZ,2003-04-06 00:00,ZGSZ 060000Z 02002MPS 1800 -RA BR SCT012 OVC040 18/15 Q1015 N0SIG
ZGSZ,2003-04-06 01:00,ZGSZ 060100Z 09001MPS 3000 -RA BR SCT012 BKN040 18/15 Q1015 N0SIG
ZGSZ,2003-04-06 02:00,ZGSZ 060200Z 10004MPS 4200 BR BKN043 19/14 Q1015 N0SIG
ZGSZ,2003-04-06 03:00,ZGSZ 060300Z 09005MPS 7000 BKN046 20/14 Q1015 N0SIG
ZGSZ,2003-04-06 04:00,ZGSZ 060400Z 09004MPS 9999 BKN043 20/13 Q1015 N0SIG
ZGSZ,2003-04-06 05:00,ZGSZ 060500Z 08004MPS 9999 BKN043 21/12 Q1014 N0SIG
ZGSZ,2003-04-06 06:00,ZGSZ 060600Z 08004MPS 9999 FEW026TCU BKN040 20/12 Q1013 N0SIG
ZGSZ,2003-04-06 07:00,ZGSZ 060700Z 09006MPS 9999 BKN043 20/12 Q1012 N0SIG
ZGSZ,2003-04-06 08:00,ZGSZ 060800Z 09005MPS 9999 FEW028 OVC043 20/12 Q1011 N0SIG
ZGSZ,2003-04-06 09:00,ZGSZ 060900Z 09005MPS 6000 OVC033 20/13 Q1011 N0SIG
ZGSZ,2003-04-06 10:00,ZGSZ 061000Z 09006MPS 6000 OVC030 20/13 Q1011 N0SIG
ZGSZ,2003-04-06 11:00,ZGSZ 061100Z 09004MPS 6000 OVC030 20/14 Q1012 N0SIG
ZGSZ,2003-04-06 12:00,ZGSZ 061200Z 10005MPS 6000 OVC033 20/14 Q1013 N0SIG
ZGSZ,2003-04-06 13:00,ZGSZ 061300Z 11006MPS 6000 FEW015 OVC033 19/15 Q1012 N0SIG
ZGSZ,2003-04-06 14:00,ZGSZ 061400Z 07002MPS 5000 BR SCT014 OVC036 20/15 Q1013 N0SIG
ZGSZ,2003-04-06 15:00,ZGSZ 061500Z 04002MPS 5000 BR SCT012 OVC033 19/15 Q1014 N0SIG
ZGSZ,2003-04-06 16:00,ZGSZ 061600Z 11004MPS 5000 BR OVC036 20/16 Q1013 N0SIG
ZGSZ,2003-04-06 17:00,ZGSZ 061700Z 09003MPS 4500 BR OVC033 20/17 Q1012 N0SIG
ZGSZ,2003-04-06 18:00,ZGSZ 061800Z 35001MPS 4800 BR OVC036 20/17 Q1011 N0SIG
ZGSZ,2003-04-06 19:00,ZGSZ 061900Z 00000MPS 3000 BR OVC033 20/17 Q1011 NOSIG
ZGSZ,2003-04-06 20:00,ZGSZ 062000Z 36001MPS 2500 BR OVC033 20/17 Q1011 NOSIG
ZGSZ,2003-04-06 21:00,ZGSZ 062100Z 15002MPS 2100 -SHRA BR FEW010 FEW030CB BKN030 20/17 Q1010 NOSIG
ZGSZ,2003-04-06 22:00,ZGSZ 062200Z 21003MPS 2300 BR SCT012 OVC033 20/18 Q1011 NOSIG
ZGSZ,2003-04-06 23:00,ZGSZ 062300Z 01002MPS 1600 R15/1400N BR FEW011 OVC030 20/17 Q1011 NOSIG
ZGSZ,2003-04-07 00:00,ZGSZ 070000Z 02002MPS 1400 BR OVC026 20/17 Q1012 NOSIG
ZGSZ,2003-04-07 01:00,ZGSZ 070100Z 13003MPS 2000 -RA BR SCT011 OVC026 21/19 Q1012 NOSIG
ZGSZ,2003-04-07 02:00,ZGSZ 070200Z 13002MPS 1800 -RA BR SCT011 OVC030 22/19 Q1012 NOSIG
ZGSZ,2003-04-07 03:00,ZGSZ 070300Z 19002MPS 1200 R15/1400N -SHRA BR BKN008 FEW026TCU BKN030 22/19 Q1012 NOSIG
ZGSZ,2003-04-07 04:00,ZGSZ 070400Z 26002MPS 1400 R15/1400N -RA BR BKN008 BKN030 21/19 Q1011 NOSIG
ZGSZ,2003-04-07 05:00,ZGSZ 070500Z 00000MPS 1300 R15/1300N -RA BR BKN008 BKN030 21/19 Q1010 NOSIG
ZGSZ,2003-04-07 06:00,ZGSZ 070600Z 07001MPS 1400 R15/1400N BR BKN008 BKN030 22/20 Q1009 NOSIG
ZGSZ,2003-04-07 07:00,ZGSZ 070700Z 17001MPS 1300 R15/1400N BR BKN008 BKN030 22/20 Q1009 NOSIG
ZGSZ,2003-04-07 08:00,ZGSZ 070800Z 18001MPS 1800 BR BKN008 BKN030 22/20 Q1008 NOSIG
ZGSZ,2003-04-07 09:00,ZGSZ 070900Z 00000MPS 1800 BR BKN012 OVC033 22/20 Q1008 NOSIG
ZGSZ,2003-04-07 10:00,ZGSZ 071000Z 33001MPS 0600 R15/0800N -RA FG BKN010 OVC033 22/20 Q1009 NOSIG
ZGSZ,2003-04-07 11:00,ZGSZ 071100Z 34002MPS 0700 R33/0750N -RA FG BKN012 OVC026 21/19 Q1009 NOSIG
ZGSZ,2003-04-07 12:00,ZGSZ 071200Z 33001MPS 0600 R33/0550N FG BKN012 OVC026 22/20 Q1009 NOSIG
ZGSZ,2003-04-07 13:00,ZGSZ 071300Z 00000MPS 0900 R33/0800N FG BKN010 OVC026 22/20 Q1010 NOSIG
ZGSZ,2003-04-07 14:00,ZGSZ 071400Z 32002MPS 0900 R15/1100N -RA FG BKN010 OVC026 22/20 Q1011 NOSIG
ZGSZ,2003-04-07 15:00,ZGSZ 071500Z 35001MPS 1200 R15/1000N BR BKN012 OVC026 22/20 Q1011 NOSIG
ZGSZ,2003-04-07 16:00,ZGSZ 071600Z 33003MPS 0900 R33/1400N FG BKN012 OVC026 21/19 Q1011 NOSIG
ZGSZ,2003-04-07 17:00,ZGSZ 071700Z 34003MPS 1200 R33/1200N BR BKN012 OVC026 21/19 Q1011 NOSIG
ZGSZ,2003-04-07 18:00,ZGSZ 071800Z 02004MPS 1000 R33/P1500N BR BKN012 OVC026 21/19 Q1011 NOSIG
ZGSZ,2003-04-07 19:00,ZGSZ 071900Z 36002MPS 2500 BR SCT012 OVC030 20/19 Q1010 NOSIG
ZGSZ,2003-04-07 20:00,ZGSZ 072000Z 18001MPS 5000 BR SCT012 OVC033 21/19 Q1010 NOSIG
ZGSZ,2003-04-07 21:00,ZGSZ 072100Z 31002MPS 5000 BR SCT012 OVC033 21/19 Q1010 NOSIG
ZGSZ,2003-04-07 22:00,ZGSZ 072200Z 02003MPS 2200 BR SCT015 OVC033 21/19 Q1011 NOSIG
ZGSZ,2003-04-07 23:00,ZGSZ 072300Z 01003MPS 2500 BR BKN017 OVC030 21/19 Q1011 NOSIG
ZGSZ,2003-04-08 00:00,ZGSZ 080000Z 00000MPS 5000 BR FEW010 BKN020 BKN050 22/19 Q1012 NOSIG
ZGSZ,2003-04-08 01:00,ZGSZ 080100Z 04002MPS 4000 BR SCT012 OVC040 22/19 Q1012 NOSIG
ZGSZ,2003-04-08 02:00,ZGSZ 080200Z 26002MPS 6000 SCT016 BKN050 24/20 Q1012 NOSIG
ZGSZ,2003-04-08 03:00,ZGSZ 080300Z 07002MPS 6000 SCT016 BKN050 25/20 Q1012 NOSIG
ZGSZ,2003-04-08 04:00,ZGSZ 080400Z 07002MPS 7000 FEW020 BKN110 27/21 Q1011 NOSIG
ZGSZ,2003-04-08 05:00,ZGSZ 080500Z 07001MPS 8000 SCT020 OVC060 27/21 Q1011 NOSIG
ZGSZ,2003-04-08 06:00,ZGSZ 080600Z 19002MPS 8000 SCT020 OVC060 26/21 Q1010 NOSIG
ZGSZ,2003-04-08 07:00,ZGSZ 080700Z 16003MPS 7000 SCT020 OVC053 25/21 Q1009 NOSIG
ZGSZ,2003-04-08 08:00,ZGSZ 080800Z 13005MPS 9999 SCT016 OVC043 25/20 Q1009 NOSIG
ZGSZ,2003-04-08 09:00,ZGSZ 080900Z 10006MPS 9999 BKN016 FEW023CB BKN040 24/19 Q1010 NOSIG
ZGSZ,2003-04-08 10:00,ZGSZ 081000Z 08002MPS 9999 -SHRA SCT010 SCT021CB BKN040 23/19 Q1010 NOSIG
ZGSZ,2003-04-08 11:00,ZGSZ 081100Z 09004MPS 8000 -TSRA FEW009 FEW023CB BKN033 21/18 Q1011 RETSRA TEMPO VRB08MPS 1200 TSRA BKN007 SCT025CB OVC030
ZGSZ,2003-04-08 12:00,ZGSZ 081200Z 12003MPS 9999 -RA NSC 21/18 Q1012 NOSIG
ZGSZ,2003-04-08 13:00,ZGSZ 081300Z 08004MPS 9999 -RA OVC036 21/18 Q1012 NOSIG
ZGSZ,2003-04-08 14:00,ZGSZ 081400Z 09005MPS CAVOK 21/18 Q1013 NOSIG
ZGSZ,2003-04-08 15:00,ZGSZ 081500Z 09007MPS 9999 BKN046 21/16 Q1013 NOSIG
ZGSZ,2003-04-08 16:00,ZGSZ 081600Z 10007MPS 9999 -RA BKN040 20/16 Q1012 NOSIG
ZGSZ,2003-04-08 17:00,ZGSZ 081700Z 10006MPS 9999 BKN040 20/16 Q1012 NOSIG
ZGSZ,2003-04-08 18:00,ZGSZ 081800Z 12008MPS 9999 BKN036 20/16 Q1011 NOSIG
ZGSZ,2003-04-08 19:00,ZGSZ 081900Z 12005MPS 9999 BKN036 20/15 Q1012 NOSIG
ZGSZ,2003-04-08 20:00,ZGSZ 082000Z 07003MPS 9999 BKN036 21/15 Q1012 NOSIG
ZGSZ,2003-04-08 21:00,ZGSZ 082100Z 36005MPS 3000 -RA BR FEW009 FEW020TCU OVC033 19/16 Q1014 NOSIG
ZGSZ,2003-04-08 22:00,ZGSZ 082200Z 07002G07MPS 5000 BR BKN016 OVC033 19/16 Q1014 NOSIG
ZGSZ,2003-04-08 23:00,ZGSZ 082300Z 09002MPS 5000 NSC 19/15 Q1014 NOSIG
ZGSZ,2003-04-09 00:00,ZGSZ 090000Z 07002MPS 9999 BKN033 BKN053 20/15 Q1014 NOSIG
ZGSZ,2003-04-09 01:00,ZGSZ 090100Z 08002MPS 9999 SCT014 OVC033 21/16 Q1015 NOSIG
ZGSZ,2003-04-09 02:00,ZGSZ 090200Z 04002MPS 8000 BKN040 20/16 Q1015 NOSIG
ZGSZ,2003-04-09 03:00,ZGSZ 090300Z 07002MPS 6000 FEW017 OVC036 21/16 Q1015 NOSIG
ZGSZ,2003-04-09 04:00,ZGSZ 090400Z 09004MPS 6000 FEW018 OVC040 22/16 Q1014 NOSIG
ZGSZ,2003-04-09 05:00,ZGSZ 090500Z 09005MPS 7000 FEW019 BKN043 23/17 Q1013 NOSIG
ZGSZ,2003-04-09 06:00,ZGSZ 090600Z 10005MPS 7000 FEW020 BKN050 24/17 Q1012 NOSIG
ZGSZ,2003-04-09 07:00,ZGSZ 090700Z 09005MPS 8000 FEW018 BKN043 23/17 Q1011 NOSIG
ZGSZ,2003-04-09 08:00,ZGSZ 090800Z 09006MPS 9999 FEW017 FEW040CB BKN040 22/16 Q1012 NOSIG
ZGSZ,2003-04-09 09:00,ZGSZ 090900Z 09005MPS 9999 SCT017 BKN040 21/16 Q1012 NOSIG
ZGSZ,2003-04-09 10:00,ZGSZ 091000Z AUTO 09010KT 5SM 20/15 A2988 RMK T02000150 IEM_DS3505
ZGSZ,2003-04-09 11:00,ZGSZ 091100Z 09006MPS 7000 FEW017 OVC040 20/15 Q1013 NOSIG
ZGSZ,2003-04-09 12:00,ZGSZ 091200Z 09005MPS 7000 FEW017 OVC040 20/15 Q1014 NOSIG
ZGSZ,2003-04-09 13:00,ZGSZ 091300Z 09006MPS 7000 FEW017 OVC040 20/15 Q1014 NOSIG
ZGSZ,2003-04-09 14:00,ZGSZ 091400Z 09005MPS 8000 FEW017 OVC040 20/15 Q1015 NOSIG
ZGSZ,2003-04-09 15:00,ZGSZ 091500Z 10005MPS 9999 FEW017 OVC040 20/15 Q1015 NOSIG
ZGSZ,2003-04-09 16:00,ZGSZ 091600Z 09005MPS 9999 FEW017 OVC040 20/15 Q1014 NOSIG
ZGSZ,2003-04-09 17:00,ZGSZ 091700Z 09005MPS 9999 SCT017 OVC040 19/15 Q1014 NOSIG
ZGSZ,2003-04-09 18:00,ZGSZ 091800Z 09005MPS 9999 SCT017 OVC040 19/16 Q1014 NOSIG
ZGSZ,2003-04-09 19:00,ZGSZ 091900Z 10004MPS 9999 SCT017 OVC040 19/16 Q1014 NOSIG
ZGSZ,2003-04-09 20:00,ZGSZ 092000Z 09004MPS 9999 SCT017 OVC040 19/15 Q1014 NOSIG
ZGSZ,2003-04-09 21:00,ZGSZ 092100Z 09005MPS 9999 FEW017 BKN040 19/15 Q1013 NOSIG
ZGSZ,2003-04-09 23:00,ZGSZ 092300Z AUTO 09010KT 7SM 19/16 A2997 RMK T01900160 IEM_DS3505
ZGSZ,2003-04-10 00:00,ZGSZ 100000Z 11005MPS 9999 FEW017 OVC040 19/16 Q1015 NOSIG
ZGSZ,2003-04-10 01:00,ZGSZ 100100Z 10005MPS CAVOK 21/16 Q1015 NOSIG
ZGSZ,2003-04-10 02:00,ZGSZ 100200Z 10005MPS CAVOK 22/17 Q1015 NOSIG
ZGSZ,2003-04-10 03:00,ZGSZ 100300Z 10005MPS 9999 SCT020 BKN050 22/17 Q1015 NOSIG
ZGSZ,2003-04-10 04:00,ZGSZ 100400Z 09004MPS 6000 -RA SCT015 OVC033 21/17 Q1015 NOSIG
ZGSZ,2003-04-10 05:00,ZGSZ 100500Z 07002MPS 2000 -RA BR FEW010 BKN020 OVC033 20/17 Q1014 NOSIG
ZGSZ,2003-04-10 06:00,ZGSZ 100600Z 01001MPS 1800 -RA BR FEW010 BKN020 OVC030 20/18 Q1014 NOSIG
ZGSZ,2003-04-10 07:00,ZGSZ 100700Z 07002MPS 3000 -RA BR FEW010 BKN020 OVC030 20/18 Q1012 NOSIG
ZGSZ,2003-04-10 08:00,ZGSZ 100800Z 10002MPS 3000 -RA BR SCT010 OVC030 20/18 Q1012 NOSIG
ZGSZ,2003-04-10 09:00,ZGSZ 100900Z AUTO 09004KT 5SM 19/18 A2988 RMK SLP130 T01930182 57013 IEM_DS3505
ZGSZ,2003-04-10 10:00,ZGSZ 101000Z 10004MPS 5000 BR SCT012 OVC033 21/18 Q1011 NOSIG
ZGSZ,2003-04-10 11:00,ZGSZ 101100Z 28001MPS 8000 SCT014 OVC033 21/18 Q1012 NOSIG
ZGSZ,2003-04-10 12:00,ZGSZ 101200Z 05001MPS 8000 SCT014 OVC040 21/18 Q1013 NOSIG
ZGSZ,2003-04-10 13:00,ZGSZ 101300Z 12005MPS 3000 BR SCT013 OVC033 21/18 Q1013 NOSIG
ZGSZ,2003-04-10 14:00,ZGSZ 101400Z AUTO 14002KT 2 1/2SM 21/18 A2991 RMK T02100180 IEM_DS3505
ZGSZ,2003-04-10 15:00,ZGSZ 101500Z AUTO 12008KT 2 1/2SM 22/19 A2991 RMK T02200190 IEM_DS3505
ZGSZ,2003-04-10 16:00,ZGSZ 101600Z AUTO 11006KT 2SM 22/19 A2988 RMK T02200190 IEM_DS3505
ZGSZ,2003-04-10 17:00,ZGSZ 101700Z 28003MPS 2500 BR SCT015 OVC043 21/19 Q1013 NOSIG
ZGSZ,2003-04-10 18:00,ZGSZ 101800Z 00000MPS 2500 BR SCT015 OVC043 21/19 Q1011 NOSIG
ZGSZ,2003-04-10 19:00,ZGSZ 101900Z 17002MPS 2500 BR SCT015 OVC043 21/19 Q1011 NOSIG
ZGSZ,2003-04-10 20:00,ZGSZ 102000Z 30001MPS 1800 R15/1200N -RA BR SCT013 OVC033 21/19 Q1011 NOSIG
ZGSZ,2003-04-10 21:00,ZGSZ 102100Z 22002MPS 2100 R15/0900N -RA BR SCT012 OVC033 21/19 Q1011 NOSIG
ZGSZ,2003-04-10 22:00,ZGSZ 102200Z 33001MPS 2100 R15/0800N -RA BR SCT012 OVC033 21/19 Q1012 NOSIG
ZGSZ,2003-04-10 23:00,ZGSZ 102300Z 36001MPS 1000 R15/1000N -RA BR SCT006 OVC030 21/20 Q1012 NOSIG
ZGSZ,2003-04-11 00:00,ZGSZ 110000Z 10002MPS 1600 -RA BR SCT006 OVC030 22/20 Q1013 NOSIG
ZGSZ,2003-04-11 01:00,ZGSZ 110100Z 13006MPS 2800 BR BKN036 23/21 Q1013 NOSIG
ZGSZ,2003-04-11 02:00,ZGSZ 110200Z 13006MPS 3200 BR BKN036 24/21 Q1013 NOSIG
ZGSZ,2003-04-11 03:00,ZGSZ 110300Z 13005MPS 3800 BR BKN016 OVC036 25/21 Q1013 NOSIG
ZGSZ,2003-04-11 04:00,ZGSZ 110400Z 13005MPS 4500 -RA BR BKN010 FEW023CB BKN036 25/22 Q1012 NOSIG
ZGSZ,2003-04-11 05:00,ZGSZ 110500Z 15003MPS 4200 BR BKN012 BKN036 25/22 Q1011 NOSIG
ZGSZ,2003-04-11 06:00,ZGSZ 110600Z 16004MPS 4500 BR BKN014 BKN040 25/22 Q1010 NOSIG
ZGSZ,2003-04-11 07:00,ZGSZ 110700Z 16005MPS 8000 BKN019 SCT053 26/23 Q1010 NOSIG
ZGSZ,2003-04-11 08:00,ZGSZ 110800Z 15005MPS 9999 BKN020 26/22 Q1009 NOSIG
ZGSZ,2003-04-11 09:00,ZGSZ 110900Z 16005MPS 9999 SCT019 SCT070 25/22 Q1009 NOSIG
ZGSZ,2003-04-11 10:00,ZGSZ 111000Z 14005MPS 9999 FEW018 25/22 Q1010 NOSIG
ZGSZ,2003-04-11 11:00,ZGSZ 111100Z 15004MPS 7000 SCT017 24/21 Q1010 NOSIG
ZGSZ,2003-04-11 12:00,ZGSZ 111200Z 14004MPS 6000 FEW017 25/21 Q1010 NOSIG
ZGSZ,2003-04-11 13:00,ZGSZ 111300Z 13005MPS 5000 BR SCT015 25/22 Q1010 NOSIG
ZGSZ,2003-04-11 14:00,ZGSZ 111400Z 14004MPS 6000 BKN016 25/21 Q1011 NOSIG
ZGSZ,2003-04-11 15:00,ZGSZ 111500Z 13005MPS 6000 SCT015 25/21 Q1011 NOSIG
ZGSZ,2003-04-11 16:00,ZGSZ 111600Z 14005MPS 6000 SCT014 24/21 Q1011 NOSIG
ZGSZ,2003-04-11 17:00,ZGSZ 111700Z 13004MPS 6000 FEW015 24/21 Q1010 NOSIG
ZGSZ,2003-04-11 18:00,ZGSZ 111800Z 14005MPS 7000 NSC 24/21 Q1010 NOSIG
ZGSZ,2003-04-11 19:00,ZGSZ 111900Z 13005MPS 7000 BKN016 25/21 Q1009 NOSIG
ZGSZ,2003-04-11 20:00,ZGSZ 112000Z 14006MPS 7000 SCT016 25/21 Q1009 NOSIG
ZGSZ,2003-04-11 21:00,ZGSZ 112100Z 14005MPS 9999 SCT017 25/21 Q1009 NOSIG
ZGSZ,2003-04-11 22:00,ZGSZ 112200Z 14004MPS 9999 BKN016 24/21 Q1010 NOSIG
ZGSZ,2003-04-11 23:00,ZGSZ 112300Z 14004MPS 9999 SCT018 SCT070 25/22 Q1010 NOSIG
ZGSZ,2003-04-12 00:00,ZGSZ 120000Z 14003MPS 9999 SCT015 SCT020 FEW020TCU 25/22 Q1011 NOSIG
ZGSZ,2003-04-12 01:00,ZGSZ 120100Z 14004MPS 9999 SCT016 FEW026TCU BKN043 25/22 Q1011 NOSIG
ZGSZ,2003-04-12 02:00,ZGSZ 120200Z 17004MPS 9999 FEW016 FEW026TCU BKN040 24/21 Q1011 NOSIG
ZGSZ,2003-04-12 03:00,ZGSZ 120300Z 15005MPS 9999 FEW016 BKN043 25/22 Q1011 NOSIG
ZGSZ,2003-04-12 04:00,ZGSZ 120400Z 15005MPS 9999 FEW017 BKN043 26/22 Q1010 NOSIG
ZGSZ,2003-04-12 05:00,ZGSZ 120500Z 14007MPS 9999 FEW017 BKN043 26/22 Q1009 NOSIG
ZGSZ,2003-04-12 06:00,ZGSZ 120600Z 16007MPS 9999 FEW017 BKN043 25/22 Q1008 NOSIG
ZGSZ,2003-04-12 07:00,ZGSZ 120700Z 18006MPS 9999 SCT017 FEW026TCU BKN040 25/22 Q1008 NOSIG
ZGSZ,2003-04-12 08:00,ZGSZ 120800Z 17006MPS 9999 SCT016 FEW026TCU BKN040 25/22 Q1007 NOSIG
ZGSZ,2003-04-12 09:00,ZGSZ 120900Z 16008MPS 9999 BKN020 BKN050 26/22 Q1006 NOSIG
ZGSZ,2003-04-12 10:00,ZGSZ 121000Z AUTO 15014KT 7SM 25/22 A2974 RMK T02500220 IEM_DS3505
ZGSZ,2003-04-12 11:00,ZGSZ 121100Z AUTO 15012KT 7SM 25/22 A2977 RMK T02500220 IEM_DS3505
ZGSZ,2003-04-12 12:00,ZGSZ 121200Z 14005MPS 9999 BKN017 BKN060 25/22 Q1008 NOSIG
ZGSZ,2003-04-12 13:00,ZGSZ 121300Z AUTO 14014KT 7SM 25/22 A2977 RMK T02500220 IEM_DS3505
ZGSZ,2003-04-12 14:00,ZGSZ 121400Z AUTO 15012KT 7SM 25/22 A2980 RMK T02500220 IEM_DS3505
ZGSZ,2003-04-12 15:00,ZGSZ 121500Z 16007MPS 9999 BKN023 BKN100 25/22 Q1009 NOSIG
ZGSZ,2003-04-12 16:00,ZGSZ 121600Z 15006MPS 9999 BKN023 BKN100 25/22 Q1009 NOSIG
ZGSZ,2003-04-12 17:00,ZGSZ 121700Z AUTO 15010KT 7SM 25/22 A2977 RMK T02500220 IEM_DS3505
ZGSZ,2003-04-12 18:00,ZGSZ 121800Z 14005MPS 9999 SCT010 SCT020 BKN100 25/22 Q1007 NOSIG
ZGSZ,2003-04-12 19:00,ZGSZ 121900Z 16005MPS 9999 SCT010 SCT020 BKN100 25/22 Q1007 NOSIG
ZGSZ,2003-04-12 20:00,ZGSZ 122000Z 15004MPS 9999 SCT010 SCT020 BKN100 24/21 Q1007 NOSIG
ZGSZ,2003-04-12 21:00,ZGSZ 122100Z 14004MPS 9999 BKN017 BKN100 24/21 Q1007 NOSIG
ZGSZ,2003-04-12 22:00,ZGSZ 122200Z 14005MPS 9999 SCT026 BKN100 24/21 Q1007 NOSIG
ZGSZ,2003-04-12 23:00,ZGSZ 122300Z 14005MPS 9999 FEW020 BKN100 24/21 Q1007 NOSIG
ZGSZ,2003-04-13 00:00,ZGSZ 130000Z AUTO 18004KT 12SM 26/22 RMK 70003 SLP089 T02580220 52009 IEM_DS3505
ZGSZ,2003-04-13 01:00,ZGSZ 130100Z 16007MPS 9999 SCT020 BKN100 26/22 Q1008 NOSIG
ZGSZ,2003-04-13 02:00,ZGSZ 130200Z AUTO 15012KT 7SM 25/22 A2980 RMK T02500220 IEM_DS3505
ZGSZ,2003-04-13 03:00,ZGSZ 130300Z 14007MPS 9999 SCT023 BKN070 26/22 Q1008 NOSIG
ZGSZ,2003-04-13 05:00,ZGSZ 130500Z AUTO 16014KT 7SM 26/22 A2974 RMK T02600220 IEM_DS3505
ZGSZ,2003-04-13 06:00,ZGSZ 130600Z 16008MPS 9999 FEW023 OVC050 26/22 Q1006 NOSIG
ZGSZ,2003-04-13 07:00,ZGSZ 130700Z 15007MPS 9999 SCT020 OVC050 26/23 Q1005 NOSIG
ZGSZ,2003-04-13 09:00,ZGSZ 130900Z 14007MPS 9999 SCT016 27/23 Q1005 NOSIG
ZGSZ,2003-04-13 10:00,ZGSZ 131000Z 14006MPS 9999 FEW016 SCT043 26/22 Q1005 NOSIG
ZGSZ,2003-04-13 11:00,ZGSZ 131100Z 15007MPS 9999 FEW016 BKN043 26/22 Q1006 NOSIG
ZGSZ,2003-04-13 12:00,ZGSZ 131200Z 15004MPS 9999 BKN020 25/22 Q1007 NOSIG
ZGSZ,2003-04-13 13:00,ZGSZ 131300Z 16006MPS 9999 FEW020 BKN050 25/22 Q1008 NOSIG
ZGSZ,2003-04-13 14:00,ZGSZ 131400Z 14005MPS 9999 OVC043 25/23 Q1009 NOSIG
ZGSZ,2003-04-13 15:00,ZGSZ 131500Z 17004MPS 9999 OVC043 25/22 Q1009 NOSIG
ZGSZ,2003-04-13 16:00,ZGSZ 131600Z 31005MPS 3000 BR BKN008 OVC023 23/21 Q1009 NOSIG
ZGSZ,2003-04-13 17:00,ZGSZ 131700Z 34007MPS 6000 BKN011 OVC026 22/19 Q1009 NOSIG
ZGSZ,2003-04-13 18:00,ZGSZ 131800Z 34004MPS 4500 BR OVC026 22/19 Q1009 NOSIG
ZGSZ,2003-04-13 19:00,ZGSZ 131900Z 34005MPS 3500 BR OVC026 21/18 Q1009 NOSIG
ZGSZ,2003-04-13 20:00,ZGSZ 132000Z 34004MPS 3500 BR OVC026 21/18 Q1009 NOSIG
ZGSZ,2003-04-13 21:00,ZGSZ 132100Z 34006MPS 3200 BR OVC026 21/17 Q1010 NOSIG
ZGSZ,2003-04-13 22:00,ZGSZ 132200Z 35005MPS 5000 BR OVC033 20/17 Q1011 NOSIG
ZGSZ,2003-04-13 23:00,ZGSZ 132300Z 01005MPS 8000 BKN020 OVC036 20/17 Q1012 NOSIG
ZGSZ,2003-04-14 00:00,ZGSZ 140000Z 36005MPS 9999 BKN020 OVC043 20/16 Q1013 NOSIG
ZGSZ,2003-04-14 01:00,ZGSZ 140100Z 02007MPS 9999 FEW018 OVC040 20/15 Q1014 NOSIG
ZGSZ,2003-04-14 02:00,ZGSZ 140200Z 36006MPS 9999 FEW019 BKN043 21/15 Q1014 NOSIG
ZGSZ,2003-04-14 03:00,ZGSZ 140300Z 02006MPS 9999 SCT020 SCT060 23/15 Q1014 NOSIG
ZGSZ,2003-04-14 04:00,ZGSZ 140400Z 02006MPS CAVOK 24/15 Q1013 NOSIG
ZGSZ,2003-04-14 05:00,ZGSZ 140500Z 36006MPS 9999 FEW023 SCT070 24/15 Q1012 NOSIG
ZGSZ,2003-04-14 06:00,ZGSZ 140600Z 36005MPS 9999 SCT026 SCT060 24/15 Q1011 NOSIG
ZGSZ,2003-04-14 07:00,ZGSZ 140700Z 04005MPS CAVOK 24/15 Q1011 NOSIG
ZGSZ,2003-04-14 08:00,ZGSZ 140800Z 02005MPS 9999 FEW023 BKN043 24/14 Q1011 NOSIG
ZGSZ,2003-04-14 09:00,ZGSZ 140900Z 02005MPS 9999 SCT020 OVC043 24/15 Q1010 NOSIG
ZGSZ,2003-04-14 10:00,ZGSZ 141000Z 04004MPS 9999 SCT033 OVC050 24/15 Q1011 NOSIG
ZGSZ,2003-04-14 11:00,ZGSZ 141100Z AUTO 04008KT 7SM 23/14 A2988 RMK T02300140 IEM_DS3505
ZGSZ,2003-04-14 12:00,ZGSZ 141200Z 03005MPS 9999 OVC043 23/14 Q1012 NOSIG
ZGSZ,2003-04-14 13:00,ZGSZ 141300Z 03004MPS 9999 OVC040 22/14 Q1013 NOSIG
ZGSZ,2003-04-14 14:00,ZGSZ 141400Z 03005MPS 9999 OVC040 21/13 Q1014 NOSIG
ZGSZ,2003-04-14 15:00,ZGSZ 141500Z 02004MPS 9999 FEW016 OVC040 21/13 Q1014 NOSIG
ZGSZ,2003-04-14 16:00,ZGSZ 141600Z 04001MPS 9999 SCT015 OVC040 20/12 Q1014 NOSIG
ZGSZ,2003-04-14 17:00,ZGSZ 141700Z 02002MPS 9999 SCT015 OVC040 20/13 Q1014 NOSIG
ZGSZ,2003-04-14 18:00,ZGSZ 141800Z 10001MPS 9999 SCT015 OVC040 19/14 Q1013 NOSIG
ZGSZ,2003-04-14 19:00,ZGSZ 141900Z 05001MPS 9999 SCT015 OVC040 19/14 Q1012 NOSIG
ZGSZ,2003-04-14 20:00,ZGSZ 142000Z 05003MPS 9999 SCT015 OVC040 19/14 Q1012 NOSIG
ZGSZ,2003-04-14 21:00,ZGSZ 142100Z 05003MPS 9999 SCT013 OVC040 19/13 Q1013 NOSIG
ZGSZ,2003-04-14 22:00,ZGSZ 142200Z 09002MPS 9999 SCT013 OVC040 19/13 Q1013 NOSIG
ZGSZ,2003-04-14 23:00,ZGSZ 142300Z 08003MPS 7000 SCT014 OVC040 19/14 Q1014 NOSIG
ZGSZ,2003-04-15 00:00,ZGSZ 150000Z 02002MPS 7000 SCT014 OVC033 19/14 Q1015 NOSIG
ZGSZ,2003-04-15 01:00,ZGSZ 150100Z 06002MPS 6000 SCT020 OVC033 19/14 Q1016 NOSIG
ZGSZ,2003-04-15 02:00,ZGSZ 150200Z 07002MPS 8000 SCT026 OVC040 20/14 Q1016 NOSIG
ZGSZ,2003-04-15 03:00,ZGSZ 150300Z 06002MPS 8000 BKN030 BKN050 21/15 Q1016 NOSIG
ZGSZ,2003-04-15 04:00,ZGSZ 150400Z 04002MPS 6000 BKN030 BKN050 21/15 Q1016 NOSIG
ZGSZ,2003-04-15 05:00,ZGSZ 150500Z 06002MPS 6000 SCT030 BKN060 23/16 Q1015 NOSIG
ZGSZ,2003-04-15 06:00,ZGSZ 150600Z 04001MPS 7000 BKN030 BKN060 23/16 Q1015 NOSIG
ZGSZ,2003-04-15 07:00,ZGSZ 150700Z 08002MPS 5000 HZ BKN026 BKN050 23/15 Q1014 NOSIG
ZGSZ,2003-04-15 08:00,ZGSZ 150800Z AUTO 06004KT 2 1/2SM 23/16 A2994 RMK T02300160 IEM_DS3505
ZGSZ,2003-04-15 09:00,ZGSZ 150900Z AUTO 14004KT 8SM 22/17 A2994 RMK SLP146 T02240169 57012 IEM_DS3505
ZGSZ,2003-04-15 10:00,ZGSZ 151000Z AUTO 11004KT 3SM 23/16 A2994 RMK T02300160 IEM_DS3505
ZGSZ,2003-04-15 11:00,ZGSZ 151100Z AUTO 11006KT 22/16 A2994 RMK T02200160 IEM_DS3505
ZGSZ,2003-04-15 12:00,ZGSZ 151200Z AUTO 14004KT 5SM 22/17 A2997 RMK SLP158 T02160174 52012 IEM_DS3505
ZGSZ,2003-04-15 13:00,ZGSZ 151300Z AUTO 09006KT 22/16 A2997 RMK T02200160 IEM_DS3505
ZGSZ,2003-04-15 14:00,ZGSZ 151400Z AUTO 09006KT 22/16 A3000 RMK T02200160 IEM_DS3505
ZGSZ,2003-04-15 15:00,ZGSZ 151500Z AUTO 10004KT 22/16 A3000 RMK T02200160 IEM_DS3505
ZGSZ,2003-04-15 16:00,ZGSZ 151600Z AUTO 12006KT 22/16 A3000 RMK T02200160 IEM_DS3505
ZGSZ,2003-04-15 17:00,ZGSZ 151700Z AUTO 11004KT 4SM 22/17 A3000 RMK T02200170 IEM_DS3505
ZGSZ,2003-04-15 18:00,ZGSZ 151800Z AUTO 20004KT 11SM 21/17 A2997 RMK SLP163 T02140168 57007 IEM_DS3505
ZGSZ,2003-04-15 19:00,ZGSZ 151900Z AUTO 05002KT 3SM 21/17 A2997 RMK T02100170 IEM_DS3505
ZGSZ,2003-04-15 20:00,ZGSZ 152000Z AUTO 10004KT 3SM 21/16 A2997 RMK T02100160 IEM_DS3505
ZGSZ,2003-04-15 21:00,ZGSZ 152100Z 13004MPS 6000 BKN043 21/16 Q1015 NOSIG
ZGSZ,2003-04-15 22:00,ZGSZ 152200Z AUTO 13006KT 5SM 21/16 A2997 RMK T02100160 IEM_DS3505
ZGSZ,2003-04-16 00:00,ZGSZ 160000Z AUTO 09006KT 9SM 21/17 A3000 RMK SLP177 T02140167 52018 IEM_DS3505
ZGSZ,2003-04-16 01:00,ZGSZ 160100Z AUTO 11010KT 6SM 23/17 A3003 RMK T02300170 IEM_DS3505
ZGSZ,2003-04-16 02:00,ZGSZ 160200Z AUTO 09010KT 6SM 24/17 A3003 RMK T02400170 IEM_DS3505
ZGSZ,2003-04-16 03:00,ZGSZ 160300Z AUTO 11006KT 5SM 23/18 A3003 RMK SLP175 T02260178 57002 IEM_DS3505
ZGSZ,2003-04-16 04:00,ZGSZ 160400Z AUTO 11006KT 7SM 26/19 A3000 RMK T02600190 IEM_DS3505
ZGSZ,2003-04-16 05:00,ZGSZ 160500Z AUTO 09008KT 7SM 26/19 A2997 RMK T02600190 IEM_DS3505
ZGSZ,2003-04-16 06:00,ZGSZ 160600Z AUTO 09006KT 5SM 24/18 A2997 RMK SLP158 T02440183 57017 IEM_DS3505
ZGSZ,2003-04-16 07:00,ZGSZ 160700Z 17003MPS 9999 SCT033 BKN060 26/20 Q1014 NOSIG
ZGSZ,2003-04-16 08:00,ZGSZ 160800Z AUTO 15006KT 6SM 26/19 A2994 RMK T02600190 IEM_DS3505
ZGSZ,2003-04-16 09:00,ZGSZ 160900Z AUTO 09006KT 5SM 23/18 A2991 RMK SLP149 T02310177 57009 IEM_DS3505
ZGSZ,2003-04-16 10:00,ZGSZ 161000Z AUTO 09008KT 6SM 25/18 A2991 RMK T02500180 IEM_DS3505
ZGSZ,2003-04-16 11:00,ZGSZ 161100Z AUTO 10008KT 6SM 24/18 A2994 RMK T02400180 IEM_DS3505
ZGSZ,2003-04-16 12:00,ZGSZ 161200Z AUTO 14004KT 9SM 22/17 A2997 RMK SLP162 T02220172 52013 IEM_DS3505
ZGSZ,2003-04-16 13:00,ZGSZ 161300Z AUTO 11008KT 6SM 23/18 A3000 RMK T02300180 IEM_DS3505
ZGSZ,2003-04-16 14:00,ZGSZ 161400Z 11003MPS CAVOK 23/18 Q1016 NOSIG
ZGSZ,2003-04-16 15:00,ZGSZ 161500Z 10002MPS CAVOK 23/18 Q1016 NOSIG
ZGSZ,2003-04-16 16:00,ZGSZ 161600Z 12005MPS CAVOK 22/18 Q1015 NOSIG QTB
ZGSZ,2003-04-16 17:00,ZGSZ 161700Z 13005MPS CAVOK 22/18 Q1014 NOSIG
ZGSZ,2003-04-16 18:00,ZGSZ 161800Z 09002MPS CAVOK 22/18 Q1014 NOSIG
ZGSZ,2003-04-16 19:00,ZGSZ 161900Z 12003MPS CAVOK 22/18 Q1013 NOSIG
ZGSZ,2003-04-16 20:00,ZGSZ 162000Z 13002MPS CAVOK 22/18 Q1013 NOSIG
ZGSZ,2003-04-16 21:00,ZGSZ 162100Z 11004MPS CAVOK 22/19 Q1013 NOSIG
ZGSZ,2003-04-16 22:00,ZGSZ 162200Z 14001MPS CAVOK 22/19 Q1014 NOSIG
ZGSZ,2003-04-16 23:00,ZGSZ 162300Z 10004MPS 6000 NSC 22/19 Q1014 NOSIG
ZGSZ,2003-04-17 00:00,ZGSZ 170000Z 08001MPS 6000 SCT026 BKN060 23/19 Q1015 NOSIG
ZGSZ,2003-04-17 01:00,ZGSZ 170100Z 10004MPS 8000 FEW026 BKN053 25/20 Q1015 NOSIG
ZGSZ,2003-04-17 02:00,ZGSZ 170200Z 09004MPS 8000 FEW023 OVC053 25/20 Q1015 NOSIG
ZGSZ,2003-04-17 03:00,ZGSZ 170300Z 11004MPS CAVOK 27/20 Q1015 NOSIG
ZGSZ,2003-04-17 04:00,ZGSZ 170400Z 13005MPS CAVOK 29/20 Q1014 NOSIG
ZGSZ,2003-04-17 05:00,ZGSZ 170500Z 17005MPS 9999 SCT023 BKN230 29/21 Q1013 NOSIG
ZGSZ,2003-04-17 06:00,ZGSZ 170600Z 23005MPS 9999 SCT025 27/21 Q1013 NOSIG
ZGSZ,2003-04-17 07:00,ZGSZ 170700Z 18005MPS 9999 FEW028 SCT300 27/22 Q1012 NOSIG
ZGSZ,2003-04-17 09:00,ZGSZ 170900Z 18004MPS CAVOK 26/22 Q1010 NOSIG
ZGSZ,2003-04-17 10:00,ZGSZ 171000Z 18005MPS CAVOK 26/22 Q1011 NOSIG
ZGSZ,2003-04-17 11:00,ZGSZ 171100Z 17005MPS CAVOK 26/21 Q1011 NOSIG
ZGSZ,2003-04-17 12:00,ZGSZ 171200Z 15003MPS CAVOK 25/21 Q1012 NOSIG
ZGSZ,2003-04-17 13:00,ZGSZ 171300Z 10004MPS CAVOK 25/20 Q1012 NOSIG
ZGSZ,2003-04-17 14:00,ZGSZ 171400Z 10004MPS CAVOK 24/20 Q1013 NOSIG
ZGSZ,2003-04-17 15:00,ZGSZ 171500Z 13005MPS CAVOK 24/20 Q1012 NOSIG
ZGSZ,2003-04-17 16:00,ZGSZ 171600Z 13004MPS CAVOK 24/20 Q1012 NOSIG
ZGSZ,2003-04-17 17:00,ZGSZ 171700Z 11003MPS CAVOK 24/20 Q1012 NOSIG
ZGSZ,2003-04-17 18:00,ZGSZ 171800Z 12002MPS CAVOK 23/20 Q1011 NOSIG
ZGSZ,2003-04-17 19:00,ZGSZ 171900Z 13002MPS CAVOK 22/19 Q1011 NOSIG
ZGSZ,2003-04-17 20:00,ZGSZ 172000Z 10001MPS 6000 SKC 23/20 Q1011 NOSIG
ZGSZ,2003-04-17 21:00,ZGSZ 172100Z 09002MPS 6000 SKC 23/20 Q1011 NOSIG
ZGSZ,2003-04-17 22:00,ZGSZ 172200Z 00000MPS CAVOK 22/20 Q1011 NOSIG
ZGSZ,2003-04-17 23:00,ZGSZ 172300Z 06001MPS CAVOK 24/21 Q1012 NOSIG
ZGSZ,2003-04-18 00:00,ZGSZ 180000Z 03001MPS CAVOK 25/21 Q1013 NOSIG
ZGSZ,2003-04-18 01:00,ZGSZ 180100Z 09002MPS 6000 SCT022 27/21 Q1013 NOSIG
ZGSZ,2003-04-18 02:00,ZGSZ 180200Z 16002MPS 9999 BKN022 28/21 Q1013 NOSIG
ZGSZ,2003-04-18 03:00,ZGSZ 180300Z 21003MPS 9999 SCT023 28/21 Q1013 NOSIG
ZGSZ,2003-04-18 04:00,ZGSZ 180400Z 21003MPS 9999 FEW025 28/22 Q1013 NOSIG
ZGSZ,2003-04-18 05:00,ZGSZ 180500Z 20004MPS 9999 FEW026 28/22 Q1012 NOSIG
ZGSZ,2003-04-18 06:00,ZGSZ 180600Z 18006MPS 9999 FEW030 28/22 Q1011 NOSIG
ZGSZ,2003-04-18 07:00,ZGSZ 180700Z 18006MPS 9999 FEW030 SCT260 28/23 Q1010 NOSIG
ZGSZ,2003-04-18 08:00,ZGSZ 180800Z 18006MPS CAVOK 28/22 Q1009 NOSIG
ZGSZ,2003-04-18 09:00,ZGSZ 180900Z 18005MPS CAVOK 27/22 Q1009 NOSIG
ZGSZ,2003-04-18 10:00,ZGSZ 181000Z 19004MPS CAVOK 26/22 Q1009 NOSIG
ZGSZ,2003-04-18 11:00,ZGSZ 181100Z 18004MPS CAVOK 25/22 Q1009 NOSIG
ZGSZ,2003-04-18 12:00,ZGSZ 181200Z 17005MPS CAVOK 26/22 Q1009 NOSIG
ZGSZ,2003-04-18 13:00,ZGSZ 181300Z 17003MPS CAVOK 25/22 Q1010 NOSIG
ZGSZ,2003-04-18 14:00,ZGSZ 181400Z 11002MPS CAVOK 25/21 Q1010 NOSIG
ZGSZ,2003-04-18 15:00,ZGSZ 181500Z 09003MPS CAVOK 25/21 Q1010 NOSIG
ZGSZ,2003-04-18 16:00,ZGSZ 181600Z 10003MPS CAVOK 25/21 Q1010 NOSIG
ZGSZ,2003-04-18 17:00,ZGSZ 181700Z 11004MPS CAVOK 24/20 Q1009 NOSIG
ZGSZ,2003-04-18 18:00,ZGSZ 181800Z 09003MPS CAVOK 24/20 Q1009 NOSIG
ZGSZ,2003-04-18 19:00,ZGSZ 181900Z 09002MPS CAVOK 24/20 Q1008 NOSIG
ZGSZ,2003-04-18 20:00,ZGSZ 182000Z 11001MPS 7000 SKC 24/20 Q1008 NOSIG
ZGSZ,2003-04-18 21:00,ZGSZ 182100Z 09002MPS CAVOK 24/20 Q1008 NOSIG
ZGSZ,2003-04-18 22:00,ZGSZ 182200Z 09002MPS 9999 FEW025 24/20 Q1008 NOSIG
ZGSZ,2003-04-18 23:00,ZGSZ 182300Z 08002MPS 9999 SCT023 24/21 Q1009 NOSIG
ZGSZ,2003-04-19 00:00,ZGSZ 190000Z 09004MPS CAVOK 26/21 Q1009 NOSIG
ZGSZ,2003-04-19 01:00,ZGSZ 190100Z 11004MPS 9999 FEW026 27/21 Q1009 NOSIG
ZGSZ,2003-04-19 02:00,ZGSZ 190200Z 15004MPS 9999 SCT026 29/20 Q1010 NOSIG
ZGSZ,2003-04-19 03:00,ZGSZ 190300Z AUTO 14004KT 16SM 28/22 A2980 RMK SLP105 T02820217 52005 IEM_DS3505
ZGSZ,2003-04-19 04:00,ZGSZ 190400Z AUTO 18010KT 7SM 28/21 A2980 RMK T02800210 IEM_DS3505
ZGSZ,2003-04-19 05:00,ZGSZ 190500Z AUTO 18010KT 6SM 28/22 A2977 RMK T02800220 IEM_DS3505
ZGSZ,2003-04-19 06:00,ZGSZ 190600Z AUTO 09004KT 19SM 29/21 A2974 RMK SLP083 T02940208 57022 IEM_DS3505
ZGSZ,2003-04-19 07:00,ZGSZ 190700Z 18006MPS CAVOK 28/22 Q1007 NOSIG
ZGSZ,2003-04-19 08:00,ZGSZ 190800Z 18005MPS CAVOK 28/22 Q1006 NOSIG
ZGSZ,2003-04-19 09:00,ZGSZ 190900Z 18006MPS CAVOK 27/22 Q1006 NOSIG
ZGSZ,2003-04-19 10:00,ZGSZ 191000Z 18005MPS CAVOK 26/21 Q1007 NOSIG
ZGSZ,2003-04-19 11:00,ZGSZ 191100Z 18004MPS CAVOK 25/21 Q1007 NOSIG
ZGSZ,2003-04-19 12:00,ZGSZ 191200Z 16005MPS CAVOK 25/21 Q1008 NOSIG
ZGSZ,2003-04-19 13:00,ZGSZ 191300Z 13005MPS CAVOK 26/20 Q1008 NOSIG
ZGSZ,2003-04-19 14:00,ZGSZ 191400Z 11004MPS CAVOK 25/20 Q1009 NOSIG
ZGSZ,2003-04-19 15:00,ZGSZ 191500Z 08002MPS CAVOK 25/20 Q1009 NOSIG
ZGSZ,2003-04-19 16:00,ZGSZ 191600Z 09001MPS CAVOK 24/20 Q1009 NOSIG
ZGSZ,2003-04-19 17:00,ZGSZ 191700Z 08002MPS CAVOK 24/20 Q1009 NOSIG
ZGSZ,2003-04-19 18:00,ZGSZ 191800Z 07002MPS CAVOK 24/20 Q1009 NOSIG
ZGSZ,2003-04-19 19:00,ZGSZ 191900Z 10003MPS 7000 NSC 24/20 Q1009 NOSIG
ZGSZ,2003-04-19 20:00,ZGSZ 192000Z 09004MPS 6000 NSC 24/20 Q1008 NOSIG
ZGSZ,2003-04-19 21:00,ZGSZ 192100Z 09003MPS 6000 SKC 24/20 Q1009 NOSIG
ZGSZ,2003-04-19 22:00,ZGSZ 192200Z 08003MPS 6000 NSC 23/20 Q1009 NOSIG
ZGSZ,2003-04-19 23:00,ZGSZ 192300Z 10002MPS 7000 SKC 24/20 Q1009 NOSIG
ZGSZ,2003-04-20 00:00,ZGSZ 200000Z 09003MPS 9999 FEW021 SCT260 25/20 Q1010 NOSIG
ZGSZ,2003-04-20 01:00,ZGSZ 200100Z 15002MPS 9999 SCT021 27/20 Q1011 NOSIG
ZGSZ,2003-04-20 02:00,ZGSZ 200200Z 23003MPS 9999 BKN021 26/21 Q1012 NOSIG
ZGSZ,2003-04-20 03:00,ZGSZ 200300Z 24003MPS 9999 BKN020 27/22 Q1012 NOSIG
ZGSZ,2003-04-20 04:00,ZGSZ 200400Z 23003MPS 9999 FEW021 28/21 Q1012 NOSIG
ZGSZ,2003-04-20 05:00,ZGSZ 200500Z 23004MPS 9999 FEW021 27/22 Q1011 NOSIG
ZGSZ,2003-04-20 06:00,ZGSZ 200600Z 21004MPS CAVOK 28/21 Q1011 NOSIG
ZGSZ,2003-04-20 07:00,ZGSZ 200700Z 19005MPS CAVOK 28/22 Q1010 NOSIG
ZGSZ,2003-04-20 08:00,ZGSZ 200800Z 21004MPS CAVOK 28/22 Q1010 NOSIG
ZGSZ,2003-04-20 09:00,ZGSZ 200900Z 19006MPS CAVOK 27/22 Q1010 NOSIG
ZGSZ,2003-04-20 10:00,ZGSZ 201000Z 18005MPS CAVOK 26/21 Q1011 NOSIG
ZGSZ,2003-04-20 11:00,ZGSZ 201100Z 16004MPS CAVOK 26/21 Q1010 NOSIG
ZGSZ,2003-04-20 12:00,ZGSZ 201200Z 18003MPS CAVOK 25/21 Q1011 NOSIG
ZGSZ,2003-04-20 13:00,ZGSZ 201300Z 17003MPS CAVOK 25/22 Q1012 NOSIG
ZGSZ,2003-04-20 14:00,ZGSZ 201400Z 19002MPS CAVOK 25/21 Q1012 NOSIG
ZGSZ,2003-04-20 15:00,ZGSZ 201500Z 10003MPS CAVOK 26/20 Q1012 NOSIG
ZGSZ,2003-04-20 16:00,ZGSZ 201600Z 09002MPS CAVOK 25/19 Q1013 NOSIG
ZGSZ,2003-04-20 17:00,ZGSZ 201700Z 09003MPS CAVOK 25/19 Q1012 NOSIG
ZGSZ,2003-04-20 18:00,ZGSZ 201800Z 00000MPS CAVOK 24/19 Q1012 NOSIG
ZGSZ,2003-04-20 19:00,ZGSZ 201900Z 03002MPS CAVOK 23/20 Q1012 NOSIG
ZGSZ,2003-04-20 20:00,ZGSZ 202000Z 36002MPS CAVOK 23/20 Q1012 NOSIG
ZGSZ,2003-04-20 21:00,ZGSZ 202100Z 04002MPS CAVOK 23/19 Q1012 NOSIG
ZGSZ,2003-04-20 22:00,ZGSZ 202200Z 00000MPS CAVOK 24/20 Q1013 NOSIG
ZGSZ,2003-04-20 23:00,ZGSZ 202300Z 04002MPS CAVOK 24/21 Q1014 NOSIG
ZGSZ,2003-04-21 00:00,ZGSZ 210000Z 03002MPS CAVOK 26/21 Q1014 NOSIG
ZGSZ,2003-04-21 01:00,ZGSZ 210100Z 11003MPS 9999 FEW026 27/21 Q1014 NOSIG
ZGSZ,2003-04-21 02:00,ZGSZ 210200Z 14003MPS 9999 FEW026 28/21 Q1014 NOSIG
ZGSZ,2003-04-21 03:00,ZGSZ 210300Z 25003MPS 9999 BKN020 28/22 Q1014 NOSIG
ZGSZ,2003-04-21 04:00,ZGSZ 210400Z 23004MPS 9999 SCT020 28/23 Q1014 NOSIG
ZGSZ,2003-04-21 05:00,ZGSZ 210500Z 22004MPS 9999 FEW023 BKN120 28/22 Q1013 NOSIG
ZGSZ,2003-04-21 06:00,ZGSZ 210600Z 20005MPS 9999 FEW023 BKN120 29/22 Q1012 NOSIG
ZGSZ,2003-04-21 07:00,ZGSZ 210700Z 18006MPS CAVOK 28/22 Q1012 NOSIG
ZGSZ,2003-04-21 08:00,ZGSZ 210800Z 18006MPS CAVOK 28/22 Q1011 NOSIG
ZGSZ,2003-04-21 09:00,ZGSZ 210900Z 18006MPS 9999 FEW020 28/22 Q1011 NOSIG
ZGSZ,2003-04-21 10:00,ZGSZ 211000Z 13006MPS CAVOK 29/20 Q1011 NOSIG
ZGSZ,2003-04-21 11:00,ZGSZ 211100Z 11006MPS CAVOK 27/19 Q1012 NOSIG
ZGSZ,2003-04-21 12:00,ZGSZ 211200Z 13006MPS CAVOK 26/19 Q1012 NOSIG
ZGSZ,2003-04-21 13:00,ZGSZ 211300Z 10005MPS CAVOK 25/19 Q1013 NOSIG
ZGSZ,2003-04-21 14:00,ZGSZ 211400Z 11005MPS CAVOK 24/19 Q1014 NOSIG
ZGSZ,2003-04-21 15:00,ZGSZ 211500Z 11006MPS CAVOK 24/19 Q1014 NOSIG
ZGSZ,2003-04-21 16:00,ZGSZ 211600Z 10004MPS CAVOK 24/19 Q1014 NOSIG
ZGSZ,2003-04-21 17:00,ZGSZ 211700Z 11004MPS CAVOK 24/19 Q1013 NOSIG
ZGSZ,2003-04-21 18:00,ZGSZ 211800Z 10003MPS CAVOK 23/18 Q1013 NOSIG
ZGSZ,2003-04-21 19:00,ZGSZ 211900Z 08002MPS CAVOK 23/18 Q1013 NOSIG
ZGSZ,2003-04-21 20:00,ZGSZ 212000Z 08001MPS CAVOK 22/18 Q1013 NOSIG
ZGSZ,2003-04-21 21:00,ZGSZ 212100Z 09003MPS 7000 BKN021 SCT050 23/18 Q1013 NOSIG
ZGSZ,2003-04-21 22:00,ZGSZ 212200Z 09004MPS 7000 BKN021 23/18 Q1014 NOSIG
ZGSZ,2003-04-21 23:00,ZGSZ 212300Z 09004MPS 9999 BKN020 BKN046 23/18 Q1015 NOSIG
ZGSZ,2003-04-22 00:00,ZGSZ 220000Z 09004MPS 9999 BKN020 BKN040 23/18 Q1015 NOSIG
ZGSZ,2003-04-22 01:00,ZGSZ 220100Z 09005MPS 9999 SCT020 BKN043 24/18 Q1016 NOSIG
ZGSZ,2003-04-22 02:00,ZGSZ 220200Z 10001MPS 9999 FEW022 BKN043 25/18 Q1016 NOSIG
ZGSZ,2003-04-22 03:00,ZGSZ 220300Z 15003MPS 9999 SCT023 BKN040 26/19 Q1016 NOSIG
ZGSZ,2003-04-22 04:00,ZGSZ 220400Z 22002MPS 9999 FEW023 BKN046 27/19 Q1015 NOSIG
ZGSZ,2003-04-22 05:00,ZGSZ 220500Z 21003MPS 9999 FEW025 BKN050 27/20 Q1014 NOSIG
ZGSZ,2003-04-22 06:00,ZGSZ 220600Z 22004MPS CAVOK 27/20 Q1013 NOSIG
ZGSZ,2003-04-22 07:00,ZGSZ 220700Z 22003MPS CAVOK 27/21 Q1013 NOSIG
ZGSZ,2003-04-22 08:00,ZGSZ 220800Z 21003MPS CAVOK 27/21 Q1012 NOSIG
ZGSZ,2003-04-22 09:00,ZGSZ 220900Z 19003MPS CAVOK 27/20 Q1011 NOSIG
ZGSZ,2003-04-22 10:00,ZGSZ 221000Z 18004MPS CAVOK 26/21 Q1011 NOSIG
ZGSZ,2003-04-22 11:00,ZGSZ 221100Z 17004MPS CAVOK 25/20 Q1011 NOSIG
ZGSZ,2003-04-22 12:00,ZGSZ 221200Z 18004MPS CAVOK 25/21 Q1012 NOSIG
ZGSZ,2003-04-22 13:00,ZGSZ 221300Z 18004MPS CAVOK 24/21 Q1012 NOSIG
ZGSZ,2003-04-22 14:00,ZGSZ 221400Z AUTO 18008KT 6SM 24/21 A2991 RMK T02400210 IEM_DS3505
ZGSZ,2003-04-22 15:00,ZGSZ 221500Z 18003MPS CAVOK 24/21 Q1013 NOSIG
ZGSZ,2003-04-22 16:00,ZGSZ 221600Z 18004MPS CAVOK 24/20 Q1013 NOSIG
ZGSZ,2003-04-22 17:00,ZGSZ 221700Z 18005MPS CAVOK 24/21 Q1012 NOSIG
ZGSZ,2003-04-22 18:00,ZGSZ 221800Z 16003MPS CAVOK 23/21 Q1012 NOSIG
ZGSZ,2003-04-22 19:00,ZGSZ 221900Z 10002MPS 6000 SCT017 24/19 Q1011 NOSIG
ZGSZ,2003-04-22 20:00,ZGSZ 222000Z 13001MPS 6000 SCT017 22/19 Q1011 NOSIG
ZGSZ,2003-04-22 21:00,ZGSZ 222100Z 04001MPS 4500 BR SCT018 23/20 Q1012 NOSIG
ZGSZ,2003-04-22 22:00,ZGSZ 222200Z 01001MPS 3000 BR SCT016 BKN033 24/20 Q1012 NOSIG
ZGSZ,2003-04-22 23:00,ZGSZ 222300Z 25001MPS 3000 BR SCT016 BKN033 24/20 Q1012 NOSIG
ZGSZ,2003-04-23 00:00,ZGSZ 230000Z 32001MPS 4500 BR SCT018 BKN040 24/20 Q1013 NOSIG
ZGSZ,2003-04-23 01:00,ZGSZ 230100Z 27002MPS CAVOK 25/20 Q1013 NOSIG
ZGSZ,2003-04-23 02:00,ZGSZ 230200Z 27002MPS CAVOK 26/20 Q1013 NOSIG
ZGSZ,2003-04-23 03:00,ZGSZ 230300Z 25002MPS CAVOK 27/20 Q1012 NOSIG
ZGSZ,2003-04-23 04:00,ZGSZ 230400Z 23003MPS CAVOK 27/19 Q1012 NOSIG
ZGSZ,2003-04-23 05:00,ZGSZ 230500Z 21003MPS CAVOK 28/20 Q1011 NOSIG
ZGSZ,2003-04-23 06:00,ZGSZ 230600Z 21003MPS CAVOK 29/20 Q1010 NOSIG
ZGSZ,2003-04-23 07:00,ZGSZ 230700Z 21003MPS CAVOK 29/20 Q1009 NOSIG
ZGSZ,2003-04-23 08:00,ZGSZ 230800Z 20003MPS CAVOK 29/20 Q1009 NOSIG
ZGSZ,2003-04-23 09:00,ZGSZ 230900Z 18005MPS CAVOK 28/21 Q1008 NOSIG
ZGSZ,2003-04-23 10:00,ZGSZ 231000Z 18005MPS CAVOK 27/22 Q1008 NOSIG
ZGSZ,2003-04-23 11:00,ZGSZ 231100Z 18006MPS CAVOK 26/21 Q1008 NOSIG
ZGSZ,2003-04-23 12:00,ZGSZ 231200Z 17005MPS CAVOK 26/22 Q1009 NOSIG
ZGSZ,2003-04-23 13:00,ZGSZ 231300Z 17005MPS CAVOK 25/22 Q1009 NOSIG
ZGSZ,2003-04-23 14:00,ZGSZ 231400Z 17005MPS CAVOK 25/22 Q1010 NOSIG
ZGSZ,2003-04-23 15:00,ZGSZ 231500Z 17004MPS CAVOK 25/22 Q1010 NOSIG
ZGSZ,2003-04-23 16:00,ZGSZ 231600Z 17003MPS CAVOK 25/22 Q1010 NOSIG
ZGSZ,2003-04-23 17:00,ZGSZ 231700Z 17003MPS CAVOK 24/22 Q1009 NOSIG
ZGSZ,2003-04-23 18:00,ZGSZ 231800Z 17003MPS 6000 NSC 24/22 Q1009 NOSIG
ZGSZ,2003-04-23 19:00,ZGSZ 231900Z 14003MPS 6000 NSC 24/21 Q1008 NOSIG
ZGSZ,2003-04-23 20:00,ZGSZ 232000Z 17003MPS 6000 NSC 24/22 Q1008 NOSIG
ZGSZ,2003-04-23 21:00,ZGSZ 232100Z 18002MPS 6000 NSC 24/22 Q1009 NOSIG
ZGSZ,2003-04-23 22:00,ZGSZ 232200Z 18002MPS 6000 NSC 24/21 Q1009 NOSIG
ZGSZ,2003-04-23 23:00,ZGSZ 232300Z 13002MPS 7000 NSC 25/22 Q1009 NOSIG
ZGSZ,2003-04-24 00:00,ZGSZ 240000Z 18002MPS CAVOK 26/21 Q1010 NOSIG
ZGSZ,2003-04-24 01:00,ZGSZ 240100Z 19002MPS CAVOK 26/22 Q1010 NOSIG
ZGSZ,2003-04-24 02:00,ZGSZ 240200Z 19003MPS CAVOK 27/22 Q1010 NOSIG
ZGSZ,2003-04-24 03:00,ZGSZ 240300Z 19003MPS CAVOK 27/22 Q1010 NOSIG
ZGSZ,2003-04-24 04:00,ZGSZ 240400Z 18004MPS CAVOK 27/22 Q1009 NOSIG
ZGSZ,2003-04-24 05:00,ZGSZ 240500Z 18004MPS CAVOK 28/22 Q1008 NOSIG
ZGSZ,2003-04-24 06:00,ZGSZ 240600Z 18005MPS CAVOK 28/24 Q1008 NOSIG
ZGSZ,2003-04-24 07:00,ZGSZ 240700Z 17007MPS CAVOK 29/23 Q1007 NOSIG
ZGSZ,2003-04-24 08:00,ZGSZ 240800Z 17007MPS CAVOK 28/23 Q1006 NOSIG
ZGSZ,2003-04-24 09:00,ZGSZ 240900Z 17008MPS CAVOK 27/23 Q1006 NOSIG
ZGSZ,2003-04-24 10:00,ZGSZ 241000Z 17008MPS CAVOK 27/23 Q1006 NOSIG
ZGSZ,2003-04-24 11:00,ZGSZ 241100Z 17007MPS CAVOK 26/23 Q1007 NOSIG
ZGSZ,2003-04-24 12:00,ZGSZ 241200Z 17006MPS CAVOK 26/23 Q1007 NOSIG
ZGSZ,2003-04-24 13:00,ZGSZ 241300Z 17004MPS CAVOK 26/23 Q1008 NOSIG
ZGSZ,2003-04-24 14:00,ZGSZ 241400Z 18004MPS CAVOK 26/23 Q1009 NOSIG
ZGSZ,2003-04-24 15:00,ZGSZ 241500Z 17003MPS CAVOK 26/23 Q1009 NOSIG
ZGSZ,2003-04-24 16:00,ZGSZ 241600Z 18003MPS CAVOK 26/23 Q1009 NOSIG
ZGSZ,2003-04-24 17:00,ZGSZ 241700Z 19002MPS CAVOK 26/23 Q1009 NOSIG
ZGSZ,2003-04-24 18:00,ZGSZ 241800Z 22002MPS CAVOK 25/23 Q1008 NOSIG
ZGSZ,2003-04-24 19:00,ZGSZ 241900Z 20002MPS CAVOK 25/22 Q1008 NOSIG
ZGSZ,2003-04-24 20:00,ZGSZ 242000Z 24001MPS CAVOK 25/22 Q1008 NOSIG
ZGSZ,2003-04-24 21:00,ZGSZ 242100Z 24002MPS CAVOK 25/22 Q1008 NOSIG
ZGSZ,2003-04-24 22:00,ZGSZ 242200Z 27002MPS 8000 BKN043 25/22 Q1009 NOSIG
ZGSZ,2003-04-24 23:00,ZGSZ 242300Z 33003MPS 8000 BKN043 25/21 Q1009 NOSIG
ZGSZ,2003-04-25 00:00,ZGSZ 250000Z 35004MPS 5000 BR BKN043 25/21 Q1010 NOSIG
ZGSZ,2003-04-25 01:00,ZGSZ 250100Z 34004MPS 8000 SKC 26/20 Q1010 NOSIG
ZGSZ,2003-04-25 02:00,ZGSZ 250200Z 34005MPS 6000 NSC 27/20 Q1011 NOSIG
ZGSZ,2003-04-25 03:00,ZGSZ 250300Z 31007MPS 8000 SKC 27/19 Q1011 NOSIG
ZGSZ,2003-04-25 04:00,ZGSZ 250400Z 30007MPS 8000 SKC 28/19 Q1011 NOSIG
ZGSZ,2003-04-25 05:00,ZGSZ 250500Z 31005MPS CAVOK 28/19 Q1010 NOSIG
ZGSZ,2003-04-25 06:00,ZGSZ 250600Z 31005MPS CAVOK 29/19 Q1009 NOSIG
ZGSZ,2003-04-25 07:00,ZGSZ 250700Z 33004MPS 7000 SKC 29/19 Q1009 NOSIG
ZGSZ,2003-04-25 08:00,ZGSZ 250800Z 31004MPS 7000 SKC 30/19 Q1008 NOSIG
ZGSZ,2003-04-25 09:00,ZGSZ 250900Z 30003MPS 7000 SKC 29/19 Q1008 NOSIG
ZGSZ,2003-04-25 10:00,ZGSZ 251000Z 32003MPS 6000 SKC 29/19 Q1008 NOSIG
ZGSZ,2003-04-25 11:00,ZGSZ 251100Z 31003MPS 8000 NSC 28/20 Q1008 NOSIG
ZGSZ,2003-04-25 12:00,ZGSZ 251200Z 33002MPS 8000 NSC 27/20 Q1009 NOSIG
ZGSZ,2003-04-25 13:00,ZGSZ 251300Z 30002MPS 7000 SKC 27/21 Q1009 NOSIG
ZGSZ,2003-04-25 14:00,ZGSZ 251400Z 35001MPS 7000 SKC 26/20 Q1010 NOSIG
ZGSZ,2003-04-25 15:00,ZGSZ 251500Z 19002MPS 4800 BR SKC 25/21 Q1010 NOSIG
ZGSZ,2003-04-25 16:00,ZGSZ 251600Z 20002MPS 3000 BR SKC 25/22 Q1010 NOSIG
ZGSZ,2003-04-25 17:00,ZGSZ 251700Z 16001MPS 2300 BR SKC 25/21 Q1010 NOSIG
ZGSZ,2003-04-25 18:00,ZGSZ 251800Z 10001MPS 2000 BR SKC 25/22 Q1010 NOSIG
ZGSZ,2003-04-25 19:00,ZGSZ 251900Z 08002MPS 2000 BR SKC 25/21 Q1009 NOSIG
ZGSZ,2003-04-25 20:00,ZGSZ 252000Z 08001MPS 2100 BR SKC 24/21 Q1009 NOSIG
ZGSZ,2003-04-25 21:00,ZGSZ 252100Z 07001MPS 2000 BR SKC 24/21 Q1010 NOSIG
ZGSZ,2003-04-25 22:00,ZGSZ 252200Z 00000MPS 1800 BR NSC 24/20 Q1010 NOSIG
ZGSZ,2003-04-25 23:00,ZGSZ 252300Z 00000MPS 3000 BR NSC 24/18 Q1011 NOSIG
ZGSZ,2003-04-26 00:00,ZGSZ 260000Z 03003MPS 3000 HZ NSC 25/18 Q1012 NOSIG
ZGSZ,2003-04-26 01:00,ZGSZ 260100Z 03001MPS 2200 HZ NSC 28/19 Q1012 NOSIG
ZGSZ,2003-04-26 02:00,ZGSZ 260200Z 22002MPS 2000 HZ FEW020 29/20 Q1012 NOSIG
ZGSZ,2003-04-26 03:00,ZGSZ 260300Z 23002MPS 2400 HZ NSC 29/19 Q1012 NOSIG
ZGSZ,2003-04-26 04:00,ZGSZ 260400Z 27003MPS 2500 HZ NSC 29/20 Q1012 NOSIG
ZGSZ,2003-04-26 05:00,ZGSZ 260500Z 23003MPS 3000 HZ NSC 30/20 Q1011 NOSIG
ZGSZ,2003-04-26 06:00,ZGSZ 260600Z 22003MPS 3000 HZ NSC 30/21 Q1010 NOSIG
ZGSZ,2003-04-26 07:00,ZGSZ 260700Z 18005MPS 3000 HZ NSC 29/22 Q1010 NOSIG
ZGSZ,2003-04-26 08:00,ZGSZ 260800Z 16004MPS 3200 HZ NSC 29/21 Q1009 NOSIG
ZGSZ,2003-04-26 09:00,ZGSZ 260900Z 18003MPS 5000 BR NSC 28/22 Q1009 NOSIG
ZGSZ,2003-04-26 10:00,ZGSZ 261000Z 12006MPS 6000 NSC 29/20 Q1009 NOSIG
ZGSZ,2003-04-26 11:00,ZGSZ 261100Z 11005MPS 5000 HZ NSC 27/20 Q1010 NOSIG
ZGSZ,2003-04-26 12:00,ZGSZ 261200Z 11005MPS 5000 HZ NSC 26/20 Q1011 NOSIG
ZGSZ,2003-04-26 13:00,ZGSZ 261300Z 11005MPS 5000 BR NSC 26/20 Q1011 NOSIG
ZGSZ,2003-04-26 14:00,ZGSZ 261400Z 11005MPS 6000 NSC 26/20 Q1012 NOSIG
ZGSZ,2003-04-26 15:00,ZGSZ 261500Z 11005MPS 6000 NSC 25/20 Q1012 NOSIG
ZGSZ,2003-04-26 16:00,ZGSZ 261600Z 10004MPS 6000 NSC 25/20 Q1012 NOSIG
ZGSZ,2003-04-26 17:00,ZGSZ 261700Z 11004MPS 7000 NSC 25/20 Q1012 NOSIG
ZGSZ,2003-04-26 18:00,ZGSZ 261800Z 09004MPS 5000 BR NSC 25/20 Q1011 NOSIG
ZGSZ,2003-04-26 19:00,ZGSZ 261900Z 10003MPS 5000 BR NSC 25/20 Q1011 NOSIG
ZGSZ,2003-04-26 20:00,ZGSZ 262000Z 09004MPS 5000 BR NSC 24/20 Q1011 NOSIG
ZGSZ,2003-04-26 21:00,ZGSZ 262100Z 08003MPS 4000 BR NSC 24/20 Q1011 NOSIG
ZGSZ,2003-04-26 22:00,ZGSZ 262200Z 09003MPS 4000 BR NSC 24/20 Q1012 NOSIG
ZGSZ,2003-04-26 23:00,ZGSZ 262300Z 09004MPS 8000 NSC 25/20 Q1013 NOSIG
ZGSZ,2003-04-27 00:00,ZGSZ 270000Z 07004MPS CAVOK 25/19 Q1014 NOSIG
ZGSZ,2003-04-27 01:00,ZGSZ 270100Z 10004MPS 9999 FEW016 BKN060 26/19 Q1014 NOSIG
ZGSZ,2003-04-27 02:00,ZGSZ 270200Z 08004MPS 9999 FEW020 BKN070 28/19 Q1015 NOSIG
ZGSZ,2003-04-27 03:00,ZGSZ 270300Z 11003MPS 9999 FEW020 BKN100 28/19 Q1014 NOSIG
ZGSZ,2003-04-27 04:00,ZGSZ 270400Z 13002MPS 9999 BKN026 30/19 Q1014 NOSIG
ZGSZ,2003-04-27 05:00,ZGSZ 270500Z 23003MPS 9999 BKN026 29/21 Q1013 NOSIG
ZGSZ,2003-04-27 06:00,ZGSZ 270600Z 20003MPS CAVOK 28/21 Q1012 NOSIG
ZGSZ,2003-04-27 07:00,ZGSZ 270700Z 19004MPS CAVOK 28/22 Q1011 NOSIG
ZGSZ,2003-04-27 08:00,ZGSZ 270800Z 18004MPS CAVOK 28/21 Q1011 NOSIG
ZGSZ,2003-04-27 09:00,ZGSZ 270900Z 19004MPS CAVOK 28/22 Q1010 NOSIG
ZGSZ,2003-04-27 10:00,ZGSZ 271000Z 18005MPS CAVOK 28/22 Q1010 NOSIG
ZGSZ,2003-04-27 11:00,ZGSZ 271100Z 13005MPS CAVOK 28/18 Q1010 NOSIG
ZGSZ,2003-04-27 12:00,ZGSZ 271200Z 12004MPS CAVOK 27/18 Q1011 NOSIG
ZGSZ,2003-04-27 13:00,ZGSZ 271300Z 12006MPS CAVOK 26/18 Q1012 NOSIG
ZGSZ,2003-04-27 14:00,ZGSZ 271400Z 11004MPS CAVOK 26/18 Q1012 NOSIG
ZGSZ,2003-04-27 15:00,ZGSZ 271500Z 09004MPS CAVOK 26/18 Q1013 NOSIG
ZGSZ,2003-04-27 16:00,ZGSZ 271600Z 11004MPS 9999 FEW020 25/19 Q1013 NOSIG
ZGSZ,2003-04-27 17:00,ZGSZ 271700Z 10003MPS 9999 BKN020 25/20 Q1013 NOSIG
ZGSZ,2003-04-27 18:00,ZGSZ 271800Z 13003MPS 9999 BKN020 25/20 Q1012 NOSIG
ZGSZ,2003-04-27 19:00,ZGSZ 271900Z 09003MPS 9999 BKN020 24/20 Q1012 NOSIG
ZGSZ,2003-04-27 20:00,ZGSZ 272000Z 10002MPS CAVOK 24/20 Q1012 NOSIG
ZGSZ,2003-04-27 21:00,ZGSZ 272100Z 09002MPS 9999 FEW020 SCT060 24/19 Q1012 NOSIG
ZGSZ,2003-04-27 22:00,ZGSZ 272200Z 09003MPS CAVOK 24/19 Q1013 NOSIG
ZGSZ,2003-04-27 23:00,ZGSZ 272300Z 10003MPS CAVOK 24/19 Q1013 NOSIG
ZGSZ,2003-04-28 00:00,ZGSZ 280000Z 09003MPS CAVOK 25/19 Q1014 NOSIG
ZGSZ,2003-04-28 01:00,ZGSZ 280100Z 11002MPS 8000 FEW023 27/19 Q1014 NOSIG
ZGSZ,2003-04-28 02:00,ZGSZ 280200Z 15003MPS 9999 BKN023 28/19 Q1014 NOSIG
ZGSZ,2003-04-28 03:00,ZGSZ 280300Z 23002MPS 9999 BKN023 28/20 Q1014 NOSIG
ZGSZ,2003-04-28 04:00,ZGSZ 280400Z 14004MPS 9999 SCT023 FEW030TCU 29/19 Q1014 NOSIG
ZGSZ,2003-04-28 05:00,ZGSZ 280500Z 19005MPS 9999 SCT023 FEW030TCU 28/21 Q1013 NOSIG
ZGSZ,2003-04-28 06:00,ZGSZ 280600Z 20005MPS 9999 SCT023 FEW030TCU 29/21 Q1012 NOSIG
ZGSZ,2003-04-28 07:00,ZGSZ 280700Z 19006MPS 9999 BKN023 29/22 Q1011 NOSIG
ZGSZ,2003-04-28 08:00,ZGSZ 280800Z 18006MPS 9999 BKN023 29/22 Q1011 NOSIG
ZGSZ,2003-04-28 09:00,ZGSZ 280900Z 16005MPS 9999 FEW022 29/22 Q1010 NOSIG
ZGSZ,2003-04-28 10:00,ZGSZ 281000Z 13007MPS 9999 SCT022 29/19 Q1011 NOSIG
ZGSZ,2003-04-28 11:00,ZGSZ 281100Z 10006MPS CAVOK 28/19 Q1011 NOSIG
ZGSZ,2003-04-28 12:00,ZGSZ 281200Z 10005MPS CAVOK 27/19 Q1012 NOSIG
ZGSZ,2003-04-28 13:00,ZGSZ 281300Z 10004MPS CAVOK 26/19 Q1013 NOSIG
ZGSZ,2003-04-28 14:00,ZGSZ 281400Z 09003MPS CAVOK 26/19 Q1013 NOSIG
ZGSZ,2003-04-28 15:00,ZGSZ 281500Z 10004MPS CAVOK 25/20 Q1013 NOSIG
ZGSZ,2003-04-28 16:00,ZGSZ 281600Z 10003MPS CAVOK 25/20 Q1013 NOSIG
ZGSZ,2003-04-28 17:00,ZGSZ 281700Z 12003MPS CAVOK 25/20 Q1013 NOSIG
ZGSZ,2003-04-28 18:00,ZGSZ 281800Z 10003MPS CAVOK 24/20 Q1012 NOSIG
ZGSZ,2003-04-28 19:00,ZGSZ 281900Z 12002MPS 9999 BKN043 25/20 Q1012 NOSIG
ZGSZ,2003-04-28 20:00,ZGSZ 282000Z 09002MPS CAVOK 24/20 Q1012 NOSIG
ZGSZ,2003-04-28 21:00,ZGSZ 282100Z 02002MPS 8000 NSC 24/20 Q1012 NOSIG
ZGSZ,2003-04-28 22:00,ZGSZ 282200Z 00000MPS 6000 SKC 23/19 Q1012 NOSIG
ZGSZ,2003-04-28 23:00,ZGSZ 282300Z 06001MPS 8000 SKC 25/20 Q1013 NOSIG
ZGSZ,2003-04-29 00:00,ZGSZ 290000Z 04001MPS 8000 BKN023 26/20 Q1014 NOSIG
ZGSZ,2003-04-29 03:00,ZGSZ 290300Z 27003MPS 9999 BKN026 BKN050 28/21 Q1014 NOSIG
ZGSZ,2003-04-29 04:00,ZGSZ 290400Z 26003MPS 9999 BKN026 29/22 Q1014 NOSIG
ZGSZ,2003-04-29 05:00,ZGSZ 290500Z 23003MPS 9999 FEW026 29/21 Q1013 NOSIG
ZGSZ,2003-04-29 06:00,ZGSZ 290600Z 22004MPS CAVOK 29/22 Q1012 NOSIG
ZGSZ,2003-04-29 07:00,ZGSZ 290700Z 20004MPS CAVOK 29/22 Q1011 NOSIG
ZGSZ,2003-04-29 08:00,ZGSZ 290800Z 19006MPS CAVOK 28/23 Q1011 NOSIG
ZGSZ,2003-04-29 09:00,ZGSZ 290900Z 19005MPS CAVOK 28/23 Q1010 NOSIG
ZGSZ,2003-04-29 10:00,ZGSZ 291000Z 18004MPS CAVOK 27/23 Q1010 NOSIG
ZGSZ,2003-04-29 11:00,ZGSZ 291100Z 18005MPS 9999 FEW020 26/22 Q1011 NOSIG
ZGSZ,2003-04-29 12:00,ZGSZ 291200Z 18004MPS CAVOK 26/22 Q1011 NOSIG
ZGSZ,2003-04-29 13:00,ZGSZ 291300Z 18004MPS CAVOK 26/22 Q1012 NOSIG
ZGSZ,2003-04-29 14:00,ZGSZ 291400Z 18003MPS CAVOK 26/22 Q1013 NOSIG
ZGSZ,2003-04-29 15:00,ZGSZ 291500Z 18003MPS CAVOK 26/22 Q1013 NOSIG
ZGSZ,2003-04-29 16:00,ZGSZ 291600Z 19002MPS CAVOK 26/22 Q1013 NOSIG
ZGSZ,2003-04-29 17:00,ZGSZ 291700Z 25003MPS 9999 FEW020 SCT050 26/22 Q1013 NOSIG
ZGSZ,2003-04-29 18:00,ZGSZ 291800Z 25002MPS 9999 FEW020 SCT050 25/22 Q1012 NOSIG
ZGSZ,2003-04-29 19:00,ZGSZ 291900Z 01005MPS 6000 -RA SCT018 BKN043 24/21 Q1012 NOSIG
ZGSZ,2003-04-29 20:00,ZGSZ 292000Z 36002MPS 5000 BR SCT017 BKN043 24/20 Q1012 NOSIG
ZGSZ,2003-04-29 21:00,ZGSZ 292100Z 36005MPS 6000 SCT017 BKN043 24/17 Q1013 NOSIG
ZGSZ,2003-04-29 22:00,ZGSZ 292200Z 36005MPS 9999 FEW018 BKN043 24/15 Q1013 NOSIG
ZGSZ,2003-04-29 23:00,ZGSZ 292300Z 36006MPS 9999 FEW018 BKN043 24/14 Q1014 NOSIG
ZGSZ,2003-04-30 00:00,ZGSZ 300000Z 36007MPS 9999 FEW018 BKN043 24/14 Q1015 NOSIG
ZGSZ,2003-04-30 01:00,ZGSZ 300100Z 36007MPS CAVOK 25/14 Q1016 NOSIG
ZGSZ,2003-04-30 02:00,ZGSZ 300200Z 01007MPS CAVOK 26/15 Q1015 NOSIG
ZGSZ,2003-04-30 03:00,ZGSZ 300300Z 36007MPS 8000 SKC 28/15 Q1015 NOSIG
ZGSZ,2003-04-30 04:00,ZGSZ 300400Z 03007MPS 9999 BKN046 28/15 Q1015 NOSIG
ZGSZ,2003-04-30 05:00,ZGSZ 300500Z 02006MPS 9999 BKN043 28/15 Q1014 NOSIG
ZGSZ,2003-04-30 06:00,ZGSZ 300600Z 03005MPS 9999 FEW026 BKN043 29/15 Q1013 NOSIG
ZGSZ,2003-04-30 07:00,ZGSZ 300700Z 07004MPS 8000 BKN043 28/16 Q1012 NOSIG
ZGSZ,2003-04-30 08:00,ZGSZ 300800Z 06004MPS 9999 FEW025 BKN040 28/15 Q1012 NOSIG
ZGSZ,2003-04-30 09:00,ZGSZ 300900Z 06004MPS 9999 BKN043 27/15 Q1012 NOSIG
ZGSZ,2003-04-30 10:00,ZGSZ 301000Z 08004MPS CAVOK 27/15 Q1012 NOSIG
ZGSZ,2003-04-30 11:00,ZGSZ 301100Z 08003MPS CAVOK 26/15 Q1012 NOSIG
ZGSZ,2003-04-30 12:00,ZGSZ 301200Z 09003MPS CAVOK 26/15 Q1013 NOSIG
ZGSZ,2003-04-30 13:00,ZGSZ 301300Z 07003MPS CAVOK 25/15 Q1014 NOSIG
ZGSZ,2003-04-30 14:00,ZGSZ 301400Z 09004MPS CAVOK 25/14 Q1014 NOSIG
ZGSZ,2003-04-30 15:00,ZGSZ 301500Z 09004MPS CAVOK 25/13 Q1014 NOSIG
ZGSZ,2003-04-30 16:00,ZGSZ 301600Z 07002MPS CAVOK 25/13 Q1013 NOSIG
ZGSZ,2003-04-30 17:00,ZGSZ 301700Z 10001MPS CAVOK 24/13 Q1013 NOSIG
ZGSZ,2003-04-30 18:00,ZGSZ 301800Z 06001MPS CAVOK 24/13 Q1013 NOSIG
ZGSZ,2003-04-30 19:00,ZGSZ 301900Z 09002MPS CAVOK 24/13 Q1012 NOSIG
ZGSZ,2003-04-30 20:00,ZGSZ 302000Z 09002MPS CAVOK 23/14 Q1012 NOSIG
ZGSZ,2003-04-30 21:00,ZGSZ 302100Z 07002MPS CAVOK 23/14 Q1012 NOSIG
ZGSZ,2003-04-30 22:00,ZGSZ 302200Z 08002MPS CAVOK 22/15 Q1012 NOSIG
ZGSZ,2003-04-30 23:00,ZGSZ 302300Z 05002MPS CAVOK 22/15 Q1013 NOSIG
ZGSZ,2003-05-01 00:00,ZGSZ 010000Z 07002MPS 9999 SCT016 BKN110 23/16 Q1014 NOSIG
ZGSZ,2003-05-01 01:00,ZGSZ 010100Z 09003MPS 7000 NSC 25/17 Q1014 NOSIG
ZGSZ,2003-05-01 02:00,ZGSZ 010200Z 08004MPS 8000 NSC 25/15 Q1014 NOSIG
ZGSZ,2003-05-01 03:00,ZGSZ 010300Z 09002MPS 9999 SCT023 BKN060 25/16 Q1014 NOSIG
ZGSZ,2003-05-01 04:00,ZGSZ 010400Z 11003MPS 9999 FEW023 BKN120 26/17 Q1013 NOSIG
ZGSZ,2003-05-01 05:00,ZGSZ 010500Z 21004MPS 9999 FEW023 BKN110 27/18 Q1012 NOSIG
ZGSZ,2003-05-01 06:00,ZGSZ 010600Z 20005MPS 9999 FEW023 27/17 Q1011 NOSIG
ZGSZ,2003-05-01 07:00,ZGSZ 010700Z 19004MPS CAVOK 27/18 Q1011 NOSIG
ZGSZ,2003-05-01 08:00,ZGSZ 010800Z 18004MPS CAVOK 26/18 Q1010 NOSIG
ZGSZ,2003-05-01 09:00,ZGSZ 010900Z 18006MPS CAVOK 26/17 Q1010 NOSIG
ZGSZ,2003-05-01 10:00,ZGSZ 011000Z 18005MPS CAVOK 25/17 Q1010 NOSIG
ZGSZ,2003-05-01 11:00,ZGSZ 011100Z 16005MPS CAVOK 25/16 Q1010 NOSIG
ZGSZ,2003-05-01 12:00,ZGSZ 011200Z 12005MPS CAVOK 24/14 Q1011 NOSIG
ZGSZ,2003-05-01 13:00,ZGSZ 011300Z 13005MPS CAVOK 24/14 Q1011 NOSIG
ZGSZ,2003-05-01 14:00,ZGSZ 011400Z 12004MPS CAVOK 23/14 Q1012 NOSIG
ZGSZ,2003-05-01 15:00,ZGSZ 011500Z 11004MPS CAVOK 23/15 Q1012 NOSIG
ZGSZ,2003-05-01 16:00,ZGSZ 011600Z 12003MPS CAVOK 22/15 Q1011 NOSIG
ZGSZ,2003-05-01 17:00,ZGSZ 011700Z 12004MPS CAVOK 23/16 Q1011 NOSIG
ZGSZ,2003-05-01 18:00,ZGSZ 011800Z 12004MPS CAVOK 23/16 Q1010 NOSIG
ZGSZ,2003-05-01 19:00,ZGSZ 011900Z 09002MPS CAVOK 22/16 Q1010 NOSIG
ZGSZ,2003-05-01 20:00,ZGSZ 012000Z 09003MPS CAVOK 22/17 Q1009 NOSIG
ZGSZ,2003-05-01 21:00,ZGSZ 012100Z 09002MPS CAVOK 22/17 Q1010 NOSIG
ZGSZ,2003-05-01 22:00,ZGSZ 012200Z 05002MPS CAVOK 22/17 Q1010 NOSIG
ZGSZ,2003-05-01 23:00,ZGSZ 012300Z 04002MPS CAVOK 22/17 Q1011 NOSIG
ZGSZ,2003-05-02 00:00,ZGSZ 020000Z 02001MPS 9999 FEW033 BKN050 24/18 Q1011 NOSIG
ZGSZ,2003-05-02 01:00,ZGSZ 020100Z 09003MPS 8000 NSC 24/18 Q1012 NOSIG
ZGSZ,2003-05-02 02:00,ZGSZ 020200Z 08002MPS 8000 SCT025 BKN100 25/19 Q1012 NOSIG
ZGSZ,2003-05-02 03:00,ZGSZ 020300Z 10004MPS 9999 BKN023 27/19 Q1011 NOSIG
ZGSZ,2003-05-02 04:00,ZGSZ 020400Z 13003MPS 9999 BKN023 28/19 Q1010 NOSIG
ZGSZ,2003-05-02 05:00,ZGSZ 020500Z 18004MPS 9999 SCT021 27/20 Q1010 NOSIG
ZGSZ,2003-05-02 06:00,ZGSZ 020600Z 18005MPS 9999 BKN021 27/20 Q1009 NOSIG
ZGSZ,2003-05-02 07:00,ZGSZ 020700Z 18005MPS 9999 BKN021 28/20 Q1008 NOSIG
ZGSZ,2003-05-02 08:00,ZGSZ 020800Z 18005MPS 9999 SCT021 SCT100 27/20 Q1007 NOSIG
ZGSZ,2003-05-02 09:00,ZGSZ 020900Z 17005MPS 9999 FEW020 BKN060 27/20 Q1007 NOSIG
ZGSZ,2003-05-02 10:00,ZGSZ 021000Z 17004MPS 9999 SCT020 SCT230 26/20 Q1007 NOSIG
ZGSZ,2003-05-02 11:00,ZGSZ 021100Z 13004MPS 9999 SCT019 26/19 Q1008 NOSIG
ZGSZ,2003-05-02 12:00,ZGSZ 021200Z 14005MPS CAVOK 25/19 Q1008 NOSIG
ZGSZ,2003-05-02 13:00,ZGSZ 021300Z 11004MPS CAVOK 25/19 Q1008 NOSIG
ZGSZ,2003-05-02 14:00,ZGSZ 021400Z 10004MPS 7000 NSC 24/19 Q1008 NOSIG
ZGSZ,2003-05-02 15:00,ZGSZ 021500Z 12003MPS 6000 NSC 24/19 Q1008 NOSIG
ZGSZ,2003-05-02 16:00,ZGSZ 021600Z 13003MPS 6000 NSC 24/20 Q1008 NOSIG
ZGSZ,2003-05-02 17:00,ZGSZ 021700Z 12003MPS 5000 BR NSC 24/20 Q1008 NOSIG
ZGSZ,2003-05-02 18:00,ZGSZ 021800Z 11002MPS 5000 BR NSC 24/20 Q1007 NOSIG
ZGSZ,2003-05-02 19:00,ZGSZ 021900Z 13001MPS 5000 BR NSC 24/20 Q1007 NOSIG
ZGSZ,2003-05-02 20:00,ZGSZ 022000Z 12003MPS 5000 BR NSC 24/20 Q1007 NOSIG
ZGSZ,2003-05-02 21:00,ZGSZ 022100Z 11004MPS 6000 NSC 24/20 Q1007 NOSIG
ZGSZ,2003-05-02 22:00,ZGSZ 022200Z 11002MPS 6000 BKN046 24/20 Q1008 NOSIG
ZGSZ,2003-05-02 23:00,ZGSZ 022300Z 09003MPS 7000 FEW043 OVC060 24/21 Q1008 NOSIG
ZGSZ,2003-05-03 00:00,ZGSZ 030000Z 10003MPS 7000 SCT040 BKN070 25/21 Q1009 NOSIG
ZGSZ,2003-05-03 01:00,ZGSZ 030100Z 11003MPS 8000 SCT040 BKN060 26/21 Q1009 NOSIG
ZGSZ,2003-05-03 02:00,ZGSZ 030200Z 13004MPS 8000 FEW020 BKN053 27/21 Q1009 NOSIG
ZGSZ,2003-05-03 03:00,ZGSZ 030300Z 12004MPS 6000 FEW020 OVC043 27/21 Q1009 NOSIG
ZGSZ,2003-05-03 04:00,ZGSZ 030400Z 09003MPS 4000 -SHRA BR SCT016 FEW030TCU BKN033 25/22 Q1008 TEMPO 1800 -TSRA SCT016 FEW025CB OVC030
ZGSZ,2003-05-03 05:00,ZGSZ 030500Z 11003MPS 2500 -SHRA BR SCT012 FEW030TCU BKN033 24/22 Q1008 TEMPO 1800 -TSRA SCT016 FEW025CB OVC030
ZGSZ,2003-05-03 06:00,ZGSZ 030600Z 10003MPS 2500 -SHRA BR SCT010 FEW026TCU BKN033 24/22 Q1007 TEMPO 1800 -TSRA SCT016 FEW025CB BKN030
ZGSZ,2003-05-03 07:00,ZGSZ 030700Z 13007MPS 2500 -TSRA BR SCT010 FEW030CB BKN033 22/20 Q1006 TEMPO 1800 -TSRA SCT016 FEW025CB BKN030
ZGSZ,2003-05-03 08:00,ZGSZ 030800Z 09004MPS 1700 SHRA BR SCT010 FEW030CB BKN033 22/20 Q1006 RETS RETS
ZGSZ,2003-05-03 09:00,ZGSZ 030900Z 08004MPS 9999 -SHRA SCT012 FEW030CB BKN033 22/20 Q1006 RERA RERA
ZGSZ,2003-05-03 10:00,ZGSZ 031000Z 11004MPS 9999 -SHRA SCT010 SCT017 FEW033CB KN043 23/20 Q1006 NOSIG
ZGSZ,2003-05-03 11:00,ZGSZ 031100Z 09005MPS 9999 FEW010 BKN017 BKN043 23/20 Q1006 NOSIG
ZGSZ,2003-05-03 12:00,ZGSZ 031200Z 09003MPS 6000 -SHRA BKN016 FEW030CB BKN040 23/20 Q1007 TEMPO VRB07MPS 1500 TSRA SCT010 SCT030CB OVC040
ZGSZ,2003-05-03 13:00,ZGSZ 031300Z 09003MPS 4000 -SHRA BKN017 FEW030CB BKN033 23/20 Q1008 TEMPO VRB07MPS 1500 TSRA SCT010 SCT030CB OVC040
ZGSZ,2003-05-03 14:00,ZGSZ 031400Z 09005MPS 9999 SCT010 FEW030CB BKN040 23/21 Q1007 NOSIG
ZGSZ,2003-05-03 15:00,ZGSZ 031500Z 11006MPS 9999 BKN020 BKN043 23/20 Q1007 NOSIG
ZGSZ,2003-05-03 16:00,ZGSZ 031600Z 12004MPS 9999 BKN023 BKN043 24/21 Q1007 NOSIG
ZGSZ,2003-05-03 17:00,ZGSZ 031700Z 12004MPS 9999 BKN020 BKN040 24/21 Q1006 NOSIG
ZGSZ,2003-05-03 18:00,ZGSZ 031800Z 11006MPS 9999 -SHRA BKN017 FEW030CB BKN040 24/21 Q1006 NOSIG
ZGSZ,2003-05-03 19:00,ZGSZ 031900Z 09005MPS 6000 -TSRA SCT020 FEW030CB BKN036 24/21 Q1005 NOSIG
ZGSZ,2003-05-03 20:00,ZGSZ 032000Z 35003MPS 1300 R15/1300N TSRA BKN016 SCT026CB KN033 23/21 Q1006 NOSIG
ZGSZ,2003-05-03 21:00,ZGSZ 032100Z 02004MPS 5000 -TSRA SCT010 SCT017 FEW030CB KN036 23/21 Q1005 NOSIG
ZGSZ,2003-05-03 22:00,ZGSZ 032200Z 08001MPS 5000 -TSRA SCT010 BKN017 FEW030CB KN036 23/21 Q1006 NOSIG
ZGSZ,2003-05-03 23:00,ZGSZ 032300Z 06003MPS 9999 SCT010 BKN020 FEW033CB BKN043 23/21 Q1006 NOSIG
ZGSZ,2003-05-04 00:00,ZGSZ 040000Z 05001MPS 9999 SCT020 FEW033CB BKN040 24/22 Q1006 NOSIG
ZGSZ,2003-05-04 01:00,ZGSZ 040100Z 10002MPS 9999 SCT016 BKN070 25/22 Q1006 NOSIG
ZGSZ,2003-05-04 02:00,ZGSZ 040200Z 31002MPS 1400 R15/1300N TSRA SCT010 SCT026CB OVC040 24/22 Q1007 TEMPO VRB07MPS 1200 TSRA BKN007 SCT025CB OVC033
ZGSZ,2003-05-04 03:00,ZGSZ 040300Z 01003MPS 9999 SCT013 OVC040 24/22 Q1007 RETS TEMPO VRB07MPS 1200 TSRA BKN007 SCT025CB OVC033
ZGSZ,2003-05-04 04:00,ZGSZ 040400Z 10004MPS 7000 SCT015 BKN043 24/22 Q1006 TEMPO VRB07MPS 1200 TSRA BKN007 SCT025CB OVC033
ZGSZ,2003-05-04 05:00,ZGSZ 040500Z 32001MPS 9999 BKN016 OVC040 25/22 Q1006 NOSIG
ZGSZ,2003-05-04 06:00,ZGSZ 040600Z 00000MPS 9999 -RA SCT016 OVC043 25/22 Q1005 NOSIG
ZGSZ,2003-05-04 07:00,ZGSZ 040700Z 14005MPS 9999 SCT016 BKN100 27/23 Q1004 NOSIG
ZGSZ,2003-05-04 08:00,ZGSZ 040800Z 15006MPS 9999 SCT016 BKN100 26/23 Q1004 NOSIG
ZGSZ,2003-05-04 09:00,ZGSZ 040900Z 14003MPS 9999 BKN016 FEW026CB BKN053 26/22 Q1004 TEMPO VRB09MPS 1000 TSRA BKN008 SCT025CB BKN040
ZGSZ,2003-05-04 10:00,ZGSZ 041000Z 36003MPS 9999 BKN016 BKN046 24/20 Q1005 TEMPO VRB09MPS 1000 TSRA BKN008 SCT025CB BKN040
ZGSZ,2003-05-04 11:00,ZGSZ 041100Z 12005MPS 9999 -TSRA BKN016 FEW023CB BKN040 23/21 Q1004 TEMPO VRB09MPS 1000 TSRA BKN008 SCT025CB BKN040
ZGSZ,2003-05-04 12:00,ZGSZ 041200Z 14004MPS 9999 BKN020 23/20 Q1005 RETS NOSIG
ZGSZ,2003-05-04 13:00,ZGSZ 041300Z 10004MPS 9999 BKN020 23/20 Q1006 NOSIG
ZGSZ,2003-05-04 14:00,ZGSZ 041400Z 12003MPS 9999 -RA BKN020 BKN043 23/20 Q1006 NOSIG
ZGSZ,2003-05-04 15:00,ZGSZ 041500Z 10002MPS 9999 -TSRA BKN016 FEW026CB OVC040 23/20 Q1006 NOSIG
ZGSZ,2003-05-04 16:00,ZGSZ 041600Z 15008MPS 9999 -TSRA BKN016 FEW023CB OVC040 23/21 Q1005 NOSIG
ZGSZ,2003-05-04 17:00,ZGSZ 041700Z 12002MPS 6000 -TSRA BKN016 FEW023CB OVC040 22/20 Q1006 RETSRA NOSIG
ZGSZ,2003-05-04 18:00,ZGSZ 041800Z 11003MPS 2000 TSRA BKN016 FEW023CB OVC040 21/19 Q1006 NOSIG
ZGSZ,2003-05-04 19:00,ZGSZ 041900Z 10005MPS 2000 TSRA BKN016 FEW023CB OVC040 22/20 Q1005 NOSIG
ZGSZ,2003-05-04 20:00,ZGSZ 042000Z 08004MPS 9999 -RA BKN016 OVC040 22/20 Q1004 NOSIG
ZGSZ,2003-05-04 21:00,ZGSZ 042100Z 07004MPS 9999 -SHRA BKN016 FEW023CB OVC040 22/20 Q1004 NOSIG
ZGSZ,2003-05-04 22:00,ZGSZ 042200Z 36001MPS 9999 -RA BKN016 OVC040 22/20 Q1005 NOSIG
ZGSZ,2003-05-04 23:00,ZGSZ 042300Z 04002MPS 9999 -RA SCT020 OVC040 23/21 Q1005 NOSIG
ZGSZ,2003-05-05 00:00,ZGSZ 050000Z 00000MPS 9999 -RA FEW010 BKN016 OVC040 23/21 Q1005 NOSIG
ZGSZ,2003-05-05 01:00,ZGSZ 050100Z 10004MPS 9999 -SHRA FEW010 FEW030CB BKN040 24/22 Q1006 TEMPO VRB08G13MPS 1000 TSRA SCT030CB
ZGSZ,2003-05-05 02:00,ZGSZ 050200Z 11005MPS 9999 -SHRA SCT009 FEW033CB BKN046 24/22 Q1006 TEMPO VRB08G13MPS 1000 TSRA SCT030CB
ZGSZ,2003-05-05 03:00,ZGSZ 050300Z 14004MPS 9999 SCT012 BKN046 25/22 Q1006 NOSIG
ZGSZ,2003-05-05 04:00,ZGSZ 050400Z 17006MPS 9999 FEW016 SCT040 BKN060 26/22 Q1006 NOSIG
ZGSZ,2003-05-05 05:00,ZGSZ 050500Z 18005MPS 9999 SCT020 BKN050 26/23 Q1005 NOSIG
ZGSZ,2003-05-05 06:00,ZGSZ 050600Z 18005MPS 9999 FEW023 BKN060 26/21 Q1004 NOSIG
ZGSZ,2003-05-05 07:00,ZGSZ 050700Z 18005MPS CAVOK 27/22 Q1004 NOSIG
ZGSZ,2003-05-05 08:00,ZGSZ 050800Z 18004MPS CAVOK 27/21 Q1003 NOSIG
ZGSZ,2003-05-05 09:00,ZGSZ 050900Z 18004MPS CAVOK 27/22 Q1003 NOSIG
ZGSZ,2003-05-05 10:00,ZGSZ 051000Z 18003MPS 9999 FEW026CB BKN043 26/22 Q1003 NOSIG
ZGSZ,2003-05-05 11:00,ZGSZ 051100Z 17003MPS 9999 -SHRA FEW026CB BKN040 25/23 Q1003 NOSIG
ZGSZ,2003-05-05 12:00,ZGSZ 051200Z 12004MPS CAVOK 27/22 Q1003 NOSIG
ZGSZ,2003-05-05 13:00,ZGSZ 051300Z 12005MPS 9999 SCT021 BKN070 26/23 Q1003 NOSIG
ZGSZ,2003-05-05 14:00,ZGSZ 051400Z 12004MPS 9999 BKN020 26/23 Q1004 NOSIG
ZGSZ,2003-05-05 15:00,ZGSZ 051500Z 11004MPS 9999 BKN021 26/23 Q1004 NOSIG
ZGSZ,2003-05-05 16:00,ZGSZ 051600Z 15003MPS 9999 BKN021 26/23 Q1004 NOSIG
ZGSZ,2003-05-05 17:00,ZGSZ 051700Z 16004MPS 9999 SCT021 BKN070 26/23 Q1004 NOSIG
ZGSZ,2003-05-05 18:00,ZGSZ 051800Z 17005MPS 9999 SCT021 SCT070 27/24 Q1004 NOSIG
ZGSZ,2003-05-05 19:00,ZGSZ 051900Z 18006MPS 9999 FEW021 BKN070 26/24 Q1003 NOSIG
ZGSZ,2003-05-05 20:00,ZGSZ 052000Z 17005MPS 9999 FEW021 BKN070 26/24 Q1003 NOSIG
ZGSZ,2003-05-05 21:00,ZGSZ 052100Z 17005MPS 8000 FEW021 BKN070 26/24 Q1003 NOSIG
ZGSZ,2003-05-05 22:00,ZGSZ 052200Z 18005MPS 9999 BKN020 FEW026TCU 26/24 Q1004 NOSIG
ZGSZ,2003-05-05 23:00,ZGSZ 052300Z 18005MPS 9999 BKN013 BKN020 FEW023TCU 27/24 Q1004 NOSIG
ZGSZ,2003-05-06 00:00,ZGSZ 060000Z 18005MPS 9999 FEW020 BKN076 27/24 Q1005 NOSIG
ZGSZ,2003-05-06 01:00,ZGSZ 060100Z 18006MPS 9999 SCT020 SCT076 28/25 Q1005 NOSIG
ZGSZ,2003-05-06 02:00,ZGSZ 060200Z 18006MPS 9999 BKN020 28/25 Q1005 NOSIG
ZGSZ,2003-05-06 03:00,ZGSZ 060300Z 18007MPS 9999 FEW012 BKN020 29/25 Q1005 NOSIG
ZGSZ,2003-05-06 04:00,ZGSZ 060400Z 18008MPS 9999 SCT020 SCT043 29/25 Q1004 NOSIG
ZGSZ,2003-05-06 05:00,ZGSZ 060500Z 17007MPS 9999 SCT020 SCT043 29/25 Q1004 NOSIG
ZGSZ,2003-05-06 06:00,ZGSZ 060600Z 18007MPS 9999 FEW016 SCT020 BKN043 28/25 Q1003 NOSIG
ZGSZ,2003-05-06 07:00,ZGSZ 060700Z 18007MPS 9999 SCT016 BKN040 29/25 Q1003 NOSIG
ZGSZ,2003-05-06 08:00,ZGSZ 060800Z 18008MPS 9999 FEW013 BKN043 29/25 Q1002 NOSIG
ZGSZ,2003-05-06 09:00,ZGSZ 060900Z 18007MPS 9999 FEW018 BKN040 28/25 Q1002 NOSIG
ZGSZ,2003-05-06 10:00,ZGSZ 061000Z 18007MPS 9999 FEW018 BKN040 28/25 Q1002 NOSIG
ZGSZ,2003-05-06 11:00,ZGSZ 061100Z 17007MPS 9999 SCT017 28/25 Q1002 NOSIG
ZGSZ,2003-05-06 12:00,ZGSZ 061200Z 18007MPS 9999 BKN017 28/24 Q1003 NOSIG
ZGSZ,2003-05-06 13:00,ZGSZ 061300Z 18007MPS 9999 FEW017 SCT040 28/24 Q1003 NOSIG
ZGSZ,2003-05-06 14:00,ZGSZ 061400Z 17007MPS 9999 FEW017 SCT040 28/24 Q1004 NOSIG
ZGSZ,2003-05-06 15:00,ZGSZ 061500Z 17007MPS 9999 FEW017 BKN043 28/24 Q1004 NOSIG
ZGSZ,2003-05-06 16:00,ZGSZ 061600Z 18006MPS 9999 SCT018 BKN043 28/24 Q1005 NOSIG
ZGSZ,2003-05-06 17:00,ZGSZ 061700Z 18007MPS 9999 SCT018 BKN043 27/25 Q1004 NOSIG
ZGSZ,2003-05-06 18:00,ZGSZ 061800Z 18006MPS 9999 SCT018 BKN043 27/25 Q1004 NOSIG
ZGSZ,2003-05-06 19:00,ZGSZ 061900Z 18005MPS 9999 SCT018 BKN043 27/24 Q1004 NOSIG
ZGSZ,2003-05-06 20:00,ZGSZ 062000Z 18005MPS 9999 SCT018 BKN043 27/25 Q1004 NOSIG
ZGSZ,2003-05-06 21:00,ZGSZ 062100Z 17006MPS 9999 SCT043 27/24 Q1004 NOSIG
ZGSZ,2003-05-06 22:00,ZGSZ 062200Z 18006MPS 9999 SCT017 BKN040 27/24 Q1005 NOSIG
ZGSZ,2003-05-06 23:00,ZGSZ 062300Z 18006MPS 9999 SCT017 BKN040 27/24 Q1005 NOSIG
ZGSZ,2003-05-07 00:00,ZGSZ 070000Z 18006MPS 9999 SCT017 BKN040 28/25 Q1006 NOSIG
ZGSZ,2003-05-07 01:00,ZGSZ 070100Z 18006MPS 9999 SCT020 BKN043 28/25 Q1006 NOSIG
ZGSZ,2003-05-07 02:00,ZGSZ 070200Z 18006MPS 9999 BKN020 BKN050 28/25 Q1007 NOSIG
ZGSZ,2003-05-07 03:00,ZGSZ 070300Z 18007MPS 9999 SCT012 BKN020 BKN050 28/25 Q1007 NOSIG
ZGSZ,2003-05-07 04:00,ZGSZ 070400Z 18007MPS 9999 BKN016 BKN046 28/25 Q1007 NOSIG
ZGSZ,2003-05-07 05:00,ZGSZ 070500Z 18007MPS 9999 FEW010 SCT020 BKN050 29/25 Q1006 NOSIG
ZGSZ,2003-05-07 06:00,ZGSZ 070600Z 18007MPS 9999 BKN016 BKN050 29/25 Q1005 NOSIG
ZGSZ,2003-05-07 07:00,ZGSZ 070700Z 18006MPS 9999 FEW012 BKN030 BKN050 29/26 Q1005 NOSIG
ZGSZ,2003-05-07 08:00,ZGSZ 070800Z 18007MPS 9999 FEW012 BKN020 BKN050 29/25 Q1005 NOSIG
ZGSZ,2003-05-07 09:00,ZGSZ 070900Z 18006MPS 9999 SCT016 OVC050 28/25 Q1004 NOSIG
ZGSZ,2003-05-07 10:00,ZGSZ 071000Z 18006MPS 9999 SCT016 OVC043 28/25 Q1005 NOSIG
ZGSZ,2003-05-07 11:00,ZGSZ 071100Z 18005MPS 9999 FEW016 OVC050 28/25 Q1005 NOSIG
ZGSZ,2003-05-07 12:00,ZGSZ 071200Z 17004MPS CAVOK 28/25 Q1006 NOSIG
ZGSZ,2003-05-07 13:00,ZGSZ 071300Z 17005MPS CAVOK 28/25 Q1007 NOSIG
ZGSZ,2003-05-07 14:00,ZGSZ 071400Z 18004MPS CAVOK 27/25 Q1008 NOSIG
ZGSZ,2003-05-07 15:00,ZGSZ 071500Z 18004MPS CAVOK 27/25 Q1008 NOSIG
ZGSZ,2003-05-07 16:00,ZGSZ 071600Z 18004MPS CAVOK 27/25 Q1008 NOSIG
ZGSZ,2003-05-07 17:00,ZGSZ 071700Z 18004MPS CAVOK 27/25 Q1007 NOSIG
ZGSZ,2003-05-07 18:00,ZGSZ 071800Z 18003MPS CAVOK 27/25 Q1008 NOSIG
ZGSZ,2003-05-07 19:00,ZGSZ 071900Z 18003MPS CAVOK 27/25 Q1008 NOSIG
ZGSZ,2003-05-07 20:00,ZGSZ 072000Z 18003MPS CAVOK 27/25 Q1008 NOSIG
ZGSZ,2003-05-07 21:00,ZGSZ 072100Z 17003MPS CAVOK 27/24 Q1008 NOSIG
ZGSZ,2003-05-07 22:00,ZGSZ 072200Z 18004MPS CAVOK 27/24 Q1008 NOSIG
ZGSZ,2003-05-07 23:00,ZGSZ 072300Z 16002MPS CAVOK 27/25 Q1009 NOSIG
ZGSZ,2003-05-08 00:00,ZGSZ 080000Z 17002MPS 9999 FEW020 BKN120 29/25 Q1011 NOSIG
ZGSZ,2003-05-08 01:00,ZGSZ 080100Z 18003MPS 9999 FEW016 BKN040 29/25 Q1011 NOSIG
ZGSZ,2003-05-08 02:00,ZGSZ 080200Z 28003MPS 9999 -TS SCT016 FEW023CB OVC040 28/23 Q1011 TEMPO VRB10MPS 1200 TSRA BKN012 SCT025CB BKN040
ZGSZ,2003-05-08 03:00,ZGSZ 080300Z 31003MPS 9999 FEW018 OVC040 28/22 Q1011 RETS NOSIG
ZGSZ,2003-05-08 04:00,ZGSZ 080400Z 34005MPS 9999 BKN020 BKN040 28/23 Q1011 NOSIG
ZGSZ,2003-05-08 05:00,ZGSZ 080500Z 32003MPS 9999 SCT020 BKN050 29/23 Q1010 NOSIG
ZGSZ,2003-05-08 06:00,ZGSZ 080600Z 29003MPS 9999 BKN046 29/24 Q1009 NOSIG
ZGSZ,2003-05-08 07:00,ZGSZ 080700Z 27003MPS 7000 FEW023 SCT053 29/24 Q1010 NOSIG
ZGSZ,2003-05-08 08:00,ZGSZ 080800Z 28002MPS 6000 FEW023 30/23 Q1009 NOSIG
ZGSZ,2003-05-08 09:00,ZGSZ 080900Z 30003MPS 7000 FEW023 SCT053 29/24 Q1009 NOSIG
ZGSZ,2003-05-08 10:00,ZGSZ 081000Z 31004MPS 8000 BKN043 29/24 Q1010 NOSIG
ZGSZ,2003-05-08 11:00,ZGSZ 081100Z 32003MPS 9000 NSC 28/23 Q1010 NOSIG
ZGSZ,2003-05-08 12:00,ZGSZ 081200Z 33002MPS CAVOK 27/23 Q1010 NOSIG
ZGSZ,2003-05-08 13:00,ZGSZ 081300Z 32003MPS CAVOK 28/24 Q1011 NOSIG
ZGSZ,2003-05-08 14:00,ZGSZ 081400Z 31002MPS 2400 BR SCT023 28/24 Q1012 NOSIG
ZGSZ,2003-05-08 15:00,ZGSZ 081500Z 36001MPS 3500 BR NSC 28/24 Q1012 NOSIG
ZGSZ,2003-05-08 16:00,ZGSZ 081600Z 03002MPS 3500 BR FEW026 28/23 Q1011 NOSIG
ZGSZ,2003-05-08 17:00,ZGSZ 081700Z 08002MPS 3500 BR NSC 27/23 Q1011 NOSIG
ZGSZ,2003-05-08 18:00,ZGSZ 081800Z 10003MPS 3500 BR NSC 27/22 Q1011 NOSIG
ZGSZ,2003-05-08 19:00,ZGSZ 081900Z 11006MPS 3500 BR SCT043 27/23 Q1011 NOSIG
ZGSZ,2003-05-08 20:00,ZGSZ 082000Z 11004MPS 3500 BR SCT043 26/22 Q1012 NOSIG
ZGSZ,2003-05-08 21:00,ZGSZ 082100Z 11004MPS 8000 SCT023 SCT050 26/21 Q1012 NOSIG
ZGSZ,2003-05-08 22:00,ZGSZ 082200Z 11004MPS 8000 FEW023 SCT050 25/21 Q1013 NOSIG
ZGSZ,2003-05-08 23:00,ZGSZ 082300Z 11003MPS CAVOK 25/21 Q1013 NOSIG
ZGSZ,2003-05-09 00:00,ZGSZ 090000Z 10004MPS 9999 FEW033 BKN043 26/21 Q1014 NOSIG
ZGSZ,2003-05-09 01:00,ZGSZ 090100Z 09003MPS 9999 BKN019 FEW023CB BKN040 26/21 Q1015 NOSIG
ZGSZ,2003-05-09 02:00,ZGSZ 090200Z 10004MPS 8000 BKN019 BKN036 26/21 Q1015 NOSIG
ZGSZ,2003-05-09 03:00,ZGSZ 090300Z 11004MPS 8000 BKN020 BKN046 27/21 Q1015 NOSIG
ZGSZ,2003-05-09 04:00,ZGSZ 090400Z 09002MPS 8000 SCT021 BKN070 29/21 Q1014 NOSIG
ZGSZ,2003-05-09 05:00,ZGSZ 090500Z 15003MPS 9999 SCT021 BKN076 29/21 Q1014 NOSIG
ZGSZ,2003-05-09 06:00,ZGSZ 090600Z 11002MPS 8000 BKN021 BKN070 29/20 Q1013 NOSIG
ZGSZ,2003-05-09 07:00,ZGSZ 090700Z 23003MPS 8000 BKN021 FEW021TCU 27/21 Q1012 NOSIG
ZGSZ,2003-05-09 08:00,ZGSZ 090800Z 21004MPS 8000 BKN023 BKN050 27/22 Q1013 NOSIG
ZGSZ,2003-05-09 09:00,ZGSZ 090900Z 18005MPS 7000 SCT020 BKN040 27/22 Q1012 NOSIG
ZGSZ,2003-05-09 10:00,ZGSZ 091000Z 14004MPS 7000 SCT019 OVC040 27/21 Q1012 NOSIG
ZGSZ,2003-05-09 11:00,ZGSZ 091100Z 13004MPS 6000 SCT018 OVC040 27/20 Q1013 NOSIG
ZGSZ,2003-05-09 12:00,ZGSZ 091200Z 12003MPS 6000 FEW016 OVC036 27/20 Q1013 NOSIG
ZGSZ,2003-05-09 13:00,ZGSZ 091300Z 13004MPS 6000 SCT043 SCT070 26/20 Q1014 NOSIG
ZGSZ,2003-05-09 14:00,ZGSZ 091400Z 11004MPS 5000 BR BKN046 25/20 Q1015 NOSIG
ZGSZ,2003-05-09 15:00,ZGSZ 091500Z 10004MPS 5000 BR FEW018 25/20 Q1015 NOSIG
ZGSZ,2003-05-09 16:00,ZGSZ 091600Z 12004MPS 5000 BR SCT017 25/20 Q1015 NOSIG
ZGSZ,2003-05-09 17:00,ZGSZ 091700Z 12003MPS 4800 BR BKN040 25/20 Q1015 NOSIG
ZGSZ,2003-05-09 18:00,ZGSZ 091800Z 13004MPS 5000 BR BKN043 25/20 Q1014 NOSIG
ZGSZ,2003-05-09 19:00,ZGSZ 091900Z 12004MPS 5000 BR BKN043 25/20 Q1014 NOSIG
ZGSZ,2003-05-09 20:00,ZGSZ 092000Z 13006MPS 6000 BKN040 25/20 Q1013 NOSIG
ZGSZ,2003-05-09 21:00,ZGSZ 092100Z 11003MPS 5000 BR FEW016 BKN043 25/20 Q1014 NOSIG
ZGSZ,2003-05-09 22:00,ZGSZ 092200Z 09003MPS 4500 BR FEW016 BKN040 24/20 Q1014 NOSIG
ZGSZ,2003-05-09 23:00,ZGSZ 092300Z 10004MPS 5000 BR SCT017 BKN043 25/20 Q1014 NOSIG
ZGSZ,2003-05-10 00:00,ZGSZ 100000Z 09002MPS 4500 BR SCT018 BKN040 25/20 Q1015 NOSIG
ZGSZ,2003-05-10 01:00,ZGSZ 100100Z 13003MPS 4000 BR SCT017 BKN040 25/20 Q1015 NOSIG
ZGSZ,2003-05-10 02:00,ZGSZ 100200Z 13002MPS 4000 HZ SCT017 BKN040 27/20 Q1015 NOSIG
ZGSZ,2003-05-10 03:00,ZGSZ 100300Z 19003MPS 4000 BR SCT018 BKN043 27/21 Q1014 NOSIG
ZGSZ,2003-05-10 04:00,ZGSZ 100400Z 21003MPS 5000 SCT018 BKN043 27/21 Q1014 NOSIG
ZGSZ,2003-05-10 05:00,ZGSZ 100500Z 23004MPS 4500 HZ SCT018 BKN043 28/21 Q1013 NOSIG
ZGSZ,2003-05-10 06:00,ZGSZ 100600Z 21004MPS 5000 HZ SCT018 28/21 Q1012 NOSIG
ZGSZ,2003-05-10 07:00,ZGSZ 100700Z 21003MPS 6000 FEW020 28/21 Q1012 NOSIG
ZGSZ,2003-05-10 08:00,ZGSZ 100800Z 20003MPS 6000 SKC 28/21 Q1011 NOSIG
ZGSZ,2003-05-10 09:00,ZGSZ 100900Z 19003MPS CAVOK 28/21 Q1011 NOSIG
ZGSZ,2003-05-10 10:00,ZGSZ 101000Z 18004MPS CAVOK 27/22 Q1011 NOSIG
ZGSZ,2003-05-10 11:00,ZGSZ 101100Z 18004MPS 6000 SKC 26/21 Q1012 NOSIG
ZGSZ,2003-05-10 12:00,ZGSZ 101200Z 17004MPS 6000 NSC 26/21 Q1012 NOSIG
ZGSZ,2003-05-10 13:00,ZGSZ 101300Z 14004MPS 7000 NSC 26/20 Q1013 NOSIG
ZGSZ,2003-05-10 14:00,ZGSZ 101400Z 13004MPS CAVOK 25/20 Q1014 NOSIG
ZGSZ,2003-05-10 15:00,ZGSZ 101500Z 11005MPS CAVOK 25/19 Q1014 NOSIG
ZGSZ,2003-05-10 16:00,ZGSZ 101600Z 11004MPS CAVOK 24/19 Q1013 NOSIG
ZGSZ,2003-05-10 17:00,ZGSZ 101700Z 12004MPS CAVOK 24/19 Q1012 NOSIG
ZGSZ,2003-05-10 18:00,ZGSZ 101800Z 12003MPS CAVOK 24/19 Q1012 NOSIG
ZGSZ,2003-05-10 19:00,ZGSZ 101900Z 09003MPS CAVOK 24/19 Q1012 NOSIG
ZGSZ,2003-05-10 20:00,ZGSZ 102000Z 08003MPS CAVOK 24/19 Q1012 NOSIG
ZGSZ,2003-05-10 21:00,ZGSZ 102100Z 07001MPS CAVOK 24/19 Q1012 NOSIG
ZGSZ,2003-05-10 22:00,ZGSZ 102200Z 05002MPS CAVOK 23/19 Q1013 NOSIG
ZGSZ,2003-05-10 23:00,ZGSZ 102300Z 05001MPS CAVOK 25/19 Q1013 NOSIG
ZGSZ,2003-05-11 00:00,ZGSZ 110000Z 07003MPS CAVOK 26/20 Q1014 NOSIG
ZGSZ,2003-05-11 01:00,ZGSZ 110100Z 09002MPS 9999 FEW026 27/20 Q1014 NOSIG
ZGSZ,2003-05-11 02:00,ZGSZ 110200Z 10003MPS 9999 FEW026 28/20 Q1014 NOSIG
ZGSZ,2003-05-11 03:00,ZGSZ 110300Z 08003MPS 9999 SCT026 29/19 Q1014 NOSIG
ZGSZ,2003-05-11 04:00,ZGSZ 110400Z 20003MPS 9999 BKN026 29/21 Q1013 NOSIG
ZGSZ,2003-05-11 05:00,ZGSZ 110500Z 22003MPS 9999 SCT026 29/21 Q1012 NOSIG
ZGSZ,2003-05-11 06:00,ZGSZ 110600Z 23003MPS 9999 SCT026 29/21 Q1011 NOSIG
ZGSZ,2003-05-11 07:00,ZGSZ 110700Z 21003MPS CAVOK 29/22 Q1011 NOSIG
ZGSZ,2003-05-11 08:00,ZGSZ 110800Z 18004MPS CAVOK 29/22 Q1010 NOSIG
ZGSZ,2003-05-11 09:00,ZGSZ 110900Z 18005MPS 9999 FEW026 28/22 Q1010 NOSIG
ZGSZ,2003-05-11 10:00,ZGSZ 111000Z 18005MPS CAVOK 28/22 Q1010 NOSIG
ZGSZ,2003-05-11 11:00,ZGSZ 111100Z 16005MPS CAVOK 28/21 Q1011 NOSIG
ZGSZ,2003-05-11 12:00,ZGSZ 111200Z 14005MPS CAVOK 27/20 Q1011 NOSIG
ZGSZ,2003-05-11 13:00,ZGSZ 111300Z 10004MPS CAVOK 27/20 Q1012 NOSIG
ZGSZ,2003-05-11 14:00,ZGSZ 111400Z 11004MPS CAVOK 26/20 Q1012 NOSIG
ZGSZ,2003-05-11 15:00,ZGSZ 111500Z 12003MPS CAVOK 26/20 Q1013 NOSIG
ZGSZ,2003-05-11 16:00,ZGSZ 111600Z 09003MPS CAVOK 26/20 Q1013 NOSIG
ZGSZ,2003-05-11 17:00,ZGSZ 111700Z 13004MPS CAVOK 25/21 Q1012 NOSIG
ZGSZ,2003-05-11 18:00,ZGSZ 111800Z 10003MPS CAVOK 25/21 Q1012 NOSIG
ZGSZ,2003-05-11 19:00,ZGSZ 111900Z 13003MPS CAVOK 25/21 Q1012 NOSIG
ZGSZ,2003-05-11 20:00,ZGSZ 112000Z 09002MPS CAVOK 25/21 Q1011 NOSIG
ZGSZ,2003-05-11 21:00,ZGSZ 112100Z 09001MPS CAVOK 25/21 Q1012 NOSIG
ZGSZ,2003-05-11 22:00,ZGSZ 112200Z 09002MPS 9999 BKN022 25/21 Q1012 NOSIG
ZGSZ,2003-05-11 23:00,ZGSZ 112300Z 08003MPS 9999 FEW025 SCT100 26/21 Q1012 NOSIG
ZGSZ,2003-05-12 00:00,ZGSZ 120000Z 12003MPS 9999 SCT023 SCT076 27/22 Q1013 NOSIG
ZGSZ,2003-05-12 01:00,ZGSZ 120100Z 17002MPS 9999 BKN021 27/22 Q1013 NOSIG
ZGSZ,2003-05-12 02:00,ZGSZ 120200Z 16003MPS 9999 BKN021 28/22 Q1013 NOSIG
ZGSZ,2003-05-12 03:00,ZGSZ 120300Z 22003MPS 9999 BKN021 28/23 Q1013 NOSIG
ZGSZ,2003-05-12 04:00,ZGSZ 120400Z 20003MPS 9999 SCT023 SCT100 29/23 Q1012 NOSIG
ZGSZ,2003-05-12 05:00,ZGSZ 120500Z 20004MPS 9999 SCT021 SCT100 30/23 Q1011 NOSIG
ZGSZ,2003-05-12 06:00,ZGSZ 120600Z 18006MPS 9999 SCT021 SCT100 30/23 Q1011 NOSIG
ZGSZ,2003-05-12 07:00,ZGSZ 120700Z 18006MPS 9999 FEW021 SCT100 30/24 Q1010 NOSIG
ZGSZ,2003-05-12 08:00,ZGSZ 120800Z 18006MPS 9999 FEW023 BKN120 30/22 Q1010 NOSIG
ZGSZ,2003-05-12 09:00,ZGSZ 120900Z 18006MPS 9999 FEW022 SCT070 29/23 Q1009 NOSIG
ZGSZ,2003-05-12 10:00,ZGSZ 121000Z 14005MPS 9999 FEW022 SCT120 29/21 Q1009 NOSIG
ZGSZ,2003-05-12 11:00,ZGSZ 121100Z 10005MPS CAVOK 28/22 Q1010 NOSIG
ZGSZ,2003-05-12 12:00,ZGSZ 121200Z 10005MPS CAVOK 27/22 Q1010 NOSIG
ZGSZ,2003-05-12 13:00,ZGSZ 121300Z 10005MPS CAVOK 27/22 Q1011 NOSIG
ZGSZ,2003-05-12 14:00,ZGSZ 121400Z 10005MPS CAVOK 27/22 Q1011 NOSIG
ZGSZ,2003-05-12 15:00,ZGSZ 121500Z 11003MPS CAVOK 26/22 Q1012 NOSIG
ZGSZ,2003-05-12 16:00,ZGSZ 121600Z 10003MPS CAVOK 26/22 Q1011 NOSIG
ZGSZ,2003-05-12 17:00,ZGSZ 121700Z 11002MPS CAVOK 26/22 Q1011 NOSIG
ZGSZ,2003-05-12 18:00,ZGSZ 121800Z 11003MPS CAVOK 26/22 Q1011 NOSIG
ZGSZ,2003-05-12 19:00,ZGSZ 121900Z 11002MPS CAVOK 26/22 Q1010 NOSIG
ZGSZ,2003-05-12 20:00,ZGSZ 122000Z 08002MPS CAVOK 26/22 Q1010 NOSIG
ZGSZ,2003-05-12 21:00,ZGSZ 122100Z 08001MPS CAVOK 25/22 Q1011 NOSIG
ZGSZ,2003-05-12 22:00,ZGSZ 122200Z 05001MPS CAVOK 25/22 Q1011 NOSIG
ZGSZ,2003-05-12 23:00,ZGSZ 122300Z 03001MPS CAVOK 26/22 Q1011 NOSIG
ZGSZ,2003-05-13 00:00,ZGSZ 130000Z 12003MPS CAVOK 27/22 Q1011 NOSIG
ZGSZ,2003-05-13 01:00,ZGSZ 130100Z 13003MPS CAVOK 28/23 Q1012 NOSIG
ZGSZ,2003-05-13 02:00,ZGSZ 130200Z 18003MPS 9999 FEW026 BKN120 28/23 Q1012 NOSIG
ZGSZ,2003-05-13 03:00,ZGSZ 130300Z 22004MPS 9999 FEW026 BKN120 29/23 Q1012 NOSIG
ZGSZ,2003-05-13 04:00,ZGSZ 130400Z 21005MPS CAVOK 29/23 Q1012 NOSIG
ZGSZ,2003-05-13 05:00,ZGSZ 130500Z 21004MPS CAVOK 30/24 Q1011 NOSIG
ZGSZ,2003-05-13 06:00,ZGSZ 130600Z 19005MPS CAVOK 29/24 Q1010 NOSIG
ZGSZ,2003-05-13 07:00,ZGSZ 130700Z 18006MPS CAVOK 29/24 Q1009 NOSIG
ZGSZ,2003-05-13 08:00,ZGSZ 130800Z 19005MPS CAVOK 30/25 Q1008 NOSIG
ZGSZ,2003-05-13 09:00,ZGSZ 130900Z 18006MPS CAVOK 29/25 Q1008 NOSIG
ZGSZ,2003-05-13 10:00,ZGSZ 131000Z 18005MPS CAVOK 28/24 Q1008 NOSIG
ZGSZ,2003-05-13 11:00,ZGSZ 131100Z 18005MPS CAVOK 28/24 Q1008 NOSIG
ZGSZ,2003-05-13 12:00,ZGSZ 131200Z 17004MPS CAVOK 28/23 Q1009 NOSIG
ZGSZ,2003-05-13 13:00,ZGSZ 131300Z 17004MPS CAVOK 28/23 Q1009 NOSIG
ZGSZ,2003-05-13 14:00,ZGSZ 131400Z 14004MPS CAVOK 27/22 Q1009 NOSIG
ZGSZ,2003-05-13 15:00,ZGSZ 131500Z 14003MPS CAVOK 27/22 Q1010 NOSIG
ZGSZ,2003-05-13 16:00,ZGSZ 131600Z 15002MPS CAVOK 27/23 Q1010 NOSIG
ZGSZ,2003-05-13 17:00,ZGSZ 131700Z 12002MPS CAVOK 27/22 Q1009 NOSIG
ZGSZ,2003-05-13 18:00,ZGSZ 131800Z 10002MPS CAVOK 27/22 Q1008 NOSIG
ZGSZ,2003-05-13 19:00,ZGSZ 131900Z 13002MPS CAVOK 26/22 Q1008 NOSIG
ZGSZ,2003-05-13 20:00,ZGSZ 132000Z 12002MPS CAVOK 26/22 Q1008 NOSIG
ZGSZ,2003-05-13 21:00,ZGSZ 132100Z 16001MPS CAVOK 26/23 Q1008 NOSIG
ZGSZ,2003-05-13 22:00,ZGSZ 132200Z 18003MPS CAVOK 26/23 Q1008 NOSIG
ZGSZ,2003-05-13 23:00,ZGSZ 132300Z 16003MPS CAVOK 27/23 Q1008 NOSIG
ZGSZ,2003-05-14 00:00,ZGSZ 140000Z 17003MPS 9999 FEW020 BKN120 28/24 Q1009 NOSIG
ZGSZ,2003-05-14 01:00,ZGSZ 140100Z 17003MPS 9999 BKN021 29/24 Q1009 NOSIG
ZGSZ,2003-05-14 02:00,ZGSZ 140200Z 17003MPS 9999 FEW021 BKN100 28/24 Q1009 NOSIG
ZGSZ,2003-05-14 03:00,ZGSZ 140300Z 17004MPS CAVOK 29/24 Q1009 NOSIG
ZGSZ,2003-05-14 04:00,ZGSZ 140400Z 17005MPS CAVOK 29/24 Q1008 NOSIG
ZGSZ,2003-05-14 05:00,ZGSZ 140500Z 17004MPS 9999 FEW028 BKN120 30/25 Q1007 NOSIG
ZGSZ,2003-05-14 06:00,ZGSZ 140600Z 16004MPS 9999 FEW021 FEW026TCU BKN100 28/24 Q1007 NOSIG
ZGSZ,2003-05-14 07:00,ZGSZ 140700Z 17005MPS 9999 FEW026TCU SCT076 29/25 Q1005 NOSIG
ZGSZ,2003-05-14 08:00,ZGSZ 140800Z 16005MPS 9999 FEW020 FEW023TCU BKN120 28/25 Q1005 NOSIG
ZGSZ,2003-05-14 09:00,ZGSZ 140900Z 15006MPS 9999 FEW020 BKN036 28/24 Q1005 NOSIG
ZGSZ,2003-05-14 10:00,ZGSZ 141000Z 16007MPS 9999 BKN040 28/24 Q1005 NOSIG
ZGSZ,2003-05-14 11:00,ZGSZ 141100Z 17006MPS 9999 FEW016 FEW033CB BKN060 28/24 Q1006 TEMPO VRB09MPS 2000 TSRA SCT015 SCT025CB OVC040
ZGSZ,2003-05-14 12:00,ZGSZ 141200Z 16006MPS 9999 -TS FEW016 FEW033CB BKN060 28/24 Q1007 TEMPO VRB09MPS 2000 TSRA SCT015 SCT025CB OVC040
ZGSZ,2003-05-14 13:00,ZGSZ 141300Z 17005MPS 9999 -TSRA SCT016 FEW030CB BKN050 27/24 Q1007 BECMG 1330 NSW
ZGSZ,2003-05-14 14:00,ZGSZ 141400Z 27002MPS 9999 -SHRA SCT015 FEW033CB BKN043 26/23 Q1008 RETS TEMPO TL1500 3000 TSRA SCT016 SCT030CB BKN040
ZGSZ,2003-05-14 15:00,ZGSZ 141500Z 36002MPS 9999 -SHRA SCT015 FEW033CB BKN040 26/23 Q1008 NOSIG
ZGSZ,2003-05-14 16:00,ZGSZ 141600Z 00000MPS 9999 FEW015 BKN053 26/24 Q1007 NOSIG
ZGSZ,2003-05-14 18:00,ZGSZ 141800Z 18003MPS 9999 FEW020 SCT100 27/24 Q1006 NOSIG
ZGSZ,2003-05-14 19:00,ZGSZ 141900Z 20004MPS 9999 SCT020 SCT100 27/24 Q1006 NOSIG
ZGSZ,2003-05-14 20:00,ZGSZ 142000Z 18002MPS 9999 SCT020 SCT100 27/24 Q1006 NOSIG
ZGSZ,2003-05-14 21:00,ZGSZ 142100Z 18002MPS 9999 SCT016 27/24 Q1006 NOSIG
ZGSZ,2003-05-14 22:00,ZGSZ 142200Z 18004MPS 9999 SCT016 SCT060 27/24 Q1006 NOSIG
ZGSZ,2003-05-14 23:00,ZGSZ 142300Z 18004MPS 9999 SCT016 BKN100 27/24 Q1007 NOSIG
ZGSZ,2003-05-15 00:00,ZGSZ 150000Z 17004MPS 9999 FEW016 BKN046 27/24 Q1007 NOSIG
ZGSZ,2003-05-15 01:00,ZGSZ 150100Z 17004MPS 9999 FEW017 OVC040 28/25 Q1008 NOSIG
ZGSZ,2003-05-15 02:00,ZGSZ 150200Z 17004MPS 9999 FEW018 BKN050 28/25 Q1008 NOSIG
ZGSZ,2003-05-15 03:00,ZGSZ 150300Z 17005MPS 9999 FEW018 BKN050 29/25 Q1008 NOSIG
ZGSZ,2003-05-15 04:00,ZGSZ 150400Z 17005MPS 9999 FEW018 BKN060 29/25 Q1008 NOSIG
ZGSZ,2003-05-15 05:00,ZGSZ 150500Z 17006MPS 9999 FEW020 BKN060 29/25 Q1007 NOSIG
ZGSZ,2003-05-15 06:00,ZGSZ 150600Z 17007MPS 9999 FEW020 SCT060 30/26 Q1006 NOSIG
ZGSZ,2003-05-15 07:00,ZGSZ 150700Z 17007MPS 9999 FEW020 SCT120 30/25 Q1006 NOSIG
ZGSZ,2003-05-15 08:00,ZGSZ 150800Z 17007MPS CAVOK 31/26 Q1005 NOSIG
ZGSZ,2003-05-15 09:00,ZGSZ 150900Z 17007MPS CAVOK 30/25 Q1004 NOSIG
ZGSZ,2003-05-15 10:00,ZGSZ 151000Z 17006MPS CAVOK 29/24 Q1005 NOSIG
ZGSZ,2003-05-15 11:00,ZGSZ 151100Z 16006MPS CAVOK 29/25 Q1006 NOSIG
ZGSZ,2003-05-15 12:00,ZGSZ 151200Z 16007MPS CAVOK 28/25 Q1006 NOSIG
ZGSZ,2003-05-15 13:00,ZGSZ 151300Z 16006MPS CAVOK 28/24 Q1007 NOSIG
ZGSZ,2003-05-15 14:00,ZGSZ 151400Z 17006MPS CAVOK 28/24 Q1007 NOSIG
ZGSZ,2003-05-15 15:00,ZGSZ 151500Z 17006MPS CAVOK 28/25 Q1007 NOSIG
ZGSZ,2003-05-15 16:00,ZGSZ 151600Z 17005MPS CAVOK 28/25 Q1007 NOSIG
ZGSZ,2003-05-15 17:00,ZGSZ 151700Z 17006MPS CAVOK 28/25 Q1006 NOSIG
ZGSZ,2003-05-15 18:00,ZGSZ 151800Z 18006MPS 9999 FEW020 BKN120 28/25 Q1006 NOSIG
ZGSZ,2003-05-15 19:00,ZGSZ 151900Z 17006MPS 9999 FEW020 BKN120 28/24 Q1006 NOSIG
ZGSZ,2003-05-15 20:00,ZGSZ 152000Z 17005MPS 9999 FEW020 BKN120 28/25 Q1006 NOSIG
ZGSZ,2003-05-15 21:00,ZGSZ 152100Z 17005MPS 9999 -SHRA SCT012 FEW030TCU BKN050 28/25 Q1006 NOSIG
ZGSZ,2003-05-15 22:00,ZGSZ 152200Z 18006MPS 9999 SCT020 FEW030TCU BKN070 28/25 Q1006 NOSIG
ZGSZ,2003-05-15 23:00,ZGSZ 152300Z 18007MPS 9999 FEW020 BKN260 28/25 Q1006 NOSIG
ZGSZ,2003-05-16 00:00,ZGSZ 160000Z 18006MPS 9999 FEW026 SCT120 BKN260 29/25 Q1007 NOSIG
ZGSZ,2003-05-16 01:00,ZGSZ 160100Z 18007MPS 9999 FEW023 BKN230 29/25 Q1007 NOSIG
ZGSZ,2003-05-16 02:00,ZGSZ 160200Z 18007MPS 9999 BKN020 SCT053 28/25 Q1008 NOSIG
ZGSZ,2003-05-16 03:00,ZGSZ 160300Z 18008MPS 9999 FEW020 BKN043 29/25 Q1007 NOSIG
ZGSZ,2003-05-16 04:00,ZGSZ 160400Z 18008MPS 9999 FEW020 BKN050 30/25 Q1007 NOSIG
ZGSZ,2003-05-16 05:00,ZGSZ 160500Z 17009MPS 9999 SCT020 BKN050 30/25 Q1006 NOSIG
ZGSZ,2003-05-16 06:00,ZGSZ 160600Z 17008MPS 9999 SCT020 BKN050 30/25 Q1005 NOSIG
ZGSZ,2003-05-16 07:00,ZGSZ 160700Z 17008MPS 9999 FEW020 BKN043 29/25 Q1004 NOSIG
ZGSZ,2003-05-16 07:30,ZGSZ 160730Z 17008MPS 9999 FEW020 BKN043 30/25 Q1004 NOSIG
ZGSZ,2003-05-16 08:00,ZGSZ 160800Z 17008MPS 9999 FEW020 BKN043 29/25 Q1003 NOSIG
ZGSZ,2003-05-16 08:30,ZGSZ 160830Z 17008MPS 9999 FEW021 BKN210 29/25 Q1003 NOSIG
ZGSZ,2003-05-16 09:00,ZGSZ 160900Z AUTO 20008KT 14SM 30/24 RMK SLP038 T03020242 57024 IEM_DS3505
ZGSZ,2003-05-16 09:30,ZGSZ 160930Z 18008MPS 9999 FEW022 BKN210 29/25 Q1003 NOSIG
ZGSZ,2003-05-16 10:00,ZGSZ 161000Z 18008MPS 9999 FEW022 BKN220 29/25 Q1003 NOSIG
ZGSZ,2003-05-16 11:00,ZGSZ 161100Z 17007MPS CAVOK 28/25 Q1003 NOSIG
ZGSZ,2003-05-16 12:00,ZGSZ 161200Z 18007MPS 9999 SCT021 BKN150 28/25 Q1004 NOSIG
ZGSZ,2003-05-16 13:00,ZGSZ 161300Z 17006MPS CAVOK 28/25 Q1004 NOSIG
ZGSZ,2003-05-16 14:00,ZGSZ 161400Z 18006MPS 9999 BKN018 28/25 Q1004 NOSIG
ZGSZ,2003-05-16 15:00,ZGSZ 161500Z 18007MPS CAVOK 28/25 Q1005 NOSIG DUPE
ZGSZ,2003-05-16 16:00,ZGSZ 161600Z 18006MPS CAVOK 28/25 Q1004 NOSIG
ZGSZ,2003-05-16 17:00,ZGSZ 161700Z 18006MPS 9999 SCT016 BKN120 28/25 Q1004 NOSIG
ZGSZ,2003-05-16 18:00,ZGSZ 161800Z 18007MPS 9999 BKN016 SCT120 28/25 Q1004 NOSIG
ZGSZ,2003-05-16 19:00,ZGSZ 161900Z 18005MPS 9999 FEW016 BKN100 28/25 Q1003 NOSIG
ZGSZ,2003-05-16 20:00,ZGSZ 162000Z 18004MPS 9999 FEW016 BKN050 28/25 Q1003 NOSIG
ZGSZ,2003-05-16 21:00,ZGSZ 162100Z 18006MPS 9999 FEW016 BKN043 28/25 Q1002 NOSIG
ZGSZ,2003-05-16 22:00,ZGSZ 162200Z 18005MPS 9999 FEW017 BKN110 28/25 Q1002 NOSIG
ZGSZ,2003-05-16 23:00,ZGSZ 162300Z 18006MPS 9999 BKN016 28/25 Q1003 NOSIG
ZGSZ,2003-05-17 00:00,ZGSZ 170000Z 18004MPS 9999 BKN016 SCT070 28/25 Q1004 NOSIG
ZGSZ,2003-05-17 01:00,ZGSZ 170100Z 17004MPS 9999 BKN016 BKN070 29/25 Q1005 NOSIG
ZGSZ,2003-05-17 02:00,ZGSZ 170200Z 17005MPS 9999 SCT020 BKN100 30/26 Q1004 NOSIG
ZGSZ,2003-05-17 03:00,ZGSZ 170300Z 17007MPS 9999 SCT020 BKN070 29/26 Q1004 NOSIG
ZGSZ,2003-05-17 04:00,ZGSZ 170400Z 17008MPS 9999 SCT020 BKN070 30/26 Q1003 NOSIG
ZGSZ,2003-05-17 05:00,ZGSZ 170500Z 18008MPS 9999 FEW026 BKN110 30/26 Q1003 NOSIG
ZGSZ,2003-05-17 06:00,ZGSZ 170600Z 18006MPS 9999 FEW026 BKN100 30/26 Q1003 NOSIG
ZGSZ,2003-05-17 07:00,ZGSZ 170700Z 18007MPS CAVOK 29/26 Q1002 NOSIG
ZGSZ,2003-05-17 08:00,ZGSZ 170800Z 18006MPS 9999 FEW030 BKN100 29/26 Q1001 NOSIG
ZGSZ,2003-05-17 09:00,ZGSZ 170900Z 18007MPS 9999 FEW022 BKN060 29/26 Q1001 NOSIG
ZGSZ,2003-05-17 10:00,ZGSZ 171000Z 17006MPS 9999 FEW020 BKN060 29/25 Q1001 NOSIG
ZGSZ,2003-05-17 11:00,ZGSZ 171100Z 18005MPS 9999 FEW020 BKN060 28/25 Q1002 NOSIG
ZGSZ,2003-05-17 12:00,ZGSZ 171200Z 17005MPS 9999 FEW020 FEW030CB BKN053 28/26 Q1003 NOSIG
ZGSZ,2003-05-17 13:00,ZGSZ 171300Z 17005MPS 9999 FEW020 FEW030CB BKN053 28/26 Q1004 NOSIG
ZGSZ,2003-05-17 14:00,ZGSZ 171400Z 18005MPS 9999 FEW020 BKN053 28/26 Q1004 NOSIG
ZGSZ,2003-05-17 15:00,ZGSZ 171500Z 22003MPS 9999 FEW020 BKN053 28/25 Q1005 NOSIG
ZGSZ,2003-05-17 16:00,ZGSZ 171600Z 27003MPS 9999 FEW018 BKN043 27/24 Q1004 NOSIG
ZGSZ,2003-05-17 17:00,ZGSZ 171700Z 27002MPS 9999 FEW018 BKN043 27/24 Q1004 NOSIG
ZGSZ,2003-05-17 18:00,ZGSZ 171800Z 30002MPS 9999 SCT018 BKN043 27/24 Q1004 NOSIG
ZGSZ,2003-05-17 19:00,ZGSZ 171900Z 30001MPS 9999 SCT018 BKN043 27/24 Q1003 NOSIG
ZGSZ,2003-05-17 20:00,ZGSZ 172000Z 34002MPS 9999 SCT018 BKN043 27/24 Q1003 NOSIG
ZGSZ,2003-05-17 21:00,ZGSZ 172100Z 32003MPS 5000 BR SCT017 BKN040 27/24 Q1003 NOSIG
ZGSZ,2003-05-17 22:00,ZGSZ 172200Z 35003MPS 4000 BR SCT017 BKN040 27/24 Q1004 NOSIG
ZGSZ,2003-05-17 23:00,ZGSZ 172300Z 01003MPS 4500 BR FEW018 BKN043 27/23 Q1004 NOSIG
ZGSZ,2003-05-18 00:00,ZGSZ 180000Z 36004MPS 3500 BR FEW018 BKN043 27/23 Q1005 NOSIG
ZGSZ,2003-05-18 01:00,ZGSZ 180100Z 02003MPS 5000 BR BKN026 BKN050 27/23 Q1005 NOSIG
ZGSZ,2003-05-18 02:00,ZGSZ 180200Z 34003MPS 4000 BR FEW012 BKN026 FEW033CB BKN043 26/23 Q1006 NOSIG
ZGSZ,2003-05-18 03:00,ZGSZ 180300Z 36005MPS 4000 BR FEW012 BKN026 BKN043 26/23 Q1006 NOSIG
ZGSZ,2003-05-18 04:00,ZGSZ 180400Z 36004MPS 5000 BR BKN020 OVC040 27/22 Q1007 NOSIG
ZGSZ,2003-05-18 05:00,ZGSZ 180500Z 36004MPS 7000 FEW012 BKN020 OVC043 26/22 Q1006 NOSIG
ZGSZ,2003-05-18 06:00,ZGSZ 180600Z 36006MPS 9999 FEW012 BKN020 BKN050 26/22 Q1006 NOSIG
ZGSZ,2003-05-18 07:00,ZGSZ 180700Z 36007MPS 9999 FEW012 BKN020 BKN050 27/21 Q1005 NOSIG
ZGSZ,2003-05-18 08:00,ZGSZ 180800Z 36006MPS 9999 FEW012 SCT020 BKN050 26/21 Q1005 NOSIG
ZGSZ,2003-05-18 09:00,ZGSZ 180900Z 03005MPS 9999 SCT020 OVC050 26/20 Q1005 NOSIG
ZGSZ,2003-05-18 10:00,ZGSZ 181000Z 01004MPS 9999 FEW020 BKN060 26/20 Q1005 NOSIG
ZGSZ,2003-05-18 11:00,ZGSZ 181100Z 03004MPS CAVOK 25/19 Q1005 NOSIG
ZGSZ,2003-05-18 12:00,ZGSZ 181200Z 02003MPS CAVOK 25/19 Q1006 NOSIG
ZGSZ,2003-05-18 13:00,ZGSZ 181300Z 36004MPS CAVOK 25/19 Q1007 NOSIG
ZGSZ,2003-05-18 14:00,ZGSZ 181400Z 36004MPS CAVOK 25/20 Q1008 NOSIG
ZGSZ,2003-05-18 15:00,ZGSZ 181500Z 01004MPS CAVOK 25/20 Q1008 NOSIG
ZGSZ,2003-05-18 16:00,ZGSZ 181600Z 02004MPS CAVOK 25/19 Q1008 NOSIG
ZGSZ,2003-05-18 17:00,ZGSZ 181700Z 03003MPS CAVOK 25/19 Q1008 NOSIG
ZGSZ,2003-05-18 18:00,ZGSZ 181800Z 35003MPS CAVOK 25/19 Q1008 NOSIG
ZGSZ,2003-05-18 19:00,ZGSZ 181900Z 36005MPS CAVOK 25/19 Q1008 NOSIG
ZGSZ,2003-05-18 20:00,ZGSZ 182000Z 05002MPS CAVOK 24/19 Q1009 NOSIG
ZGSZ,2003-05-18 21:00,ZGSZ 182100Z 03003MPS CAVOK 24/19 Q1009 NOSIG
ZGSZ,2003-05-18 22:00,ZGSZ 182200Z 03002MPS CAVOK 24/19 Q1009 NOSIG
ZGSZ,2003-05-18 23:00,ZGSZ 182300Z 02003MPS CAVOK 24/19 Q1010 NOSIG
ZGSZ,2003-05-19 00:00,ZGSZ 190000Z 05002MPS CAVOK 25/19 Q1010 NOSIG
ZGSZ,2003-05-19 01:00,ZGSZ 190100Z 03001MPS CAVOK 26/18 Q1011 NOSIG
ZGSZ,2003-05-19 02:00,ZGSZ 190200Z 07001MPS CAVOK 27/18 Q1011 NOSIG
ZGSZ,2003-05-19 03:00,ZGSZ 190300Z 18002MPS 7000 NSC 27/20 Q1011 NOSIG
ZGSZ,2003-05-19 04:00,ZGSZ 190400Z 23003MPS CAVOK 27/20 Q1011 NOSIG
ZGSZ,2003-05-19 05:00,ZGSZ 190500Z 23002MPS 9999 BKN040 SCT070 27/19 Q1011 NOSIG
ZGSZ,2003-05-19 06:00,ZGSZ 190600Z 20002MPS CAVOK 27/21 Q1010 NOSIG
ZGSZ,2003-05-19 07:00,ZGSZ 190700Z 21003MPS CAVOK 28/21 Q1009 NOSIG
ZGSZ,2003-05-19 08:00,ZGSZ 190800Z 20003MPS CAVOK 28/22 Q1009 NOSIG
ZGSZ,2003-05-19 09:00,ZGSZ 190900Z 19003MPS CAVOK 28/21 Q1009 NOSIG
ZGSZ,2003-05-19 10:00,ZGSZ 191000Z 18003MPS CAVOK 27/22 Q1009 NOSIG
ZGSZ,2003-05-19 11:00,ZGSZ 191100Z 18003MPS 9999 BKN046 27/22 Q1010 NOSIG
ZGSZ,2003-05-19 12:00,ZGSZ 191200Z 14003MPS CAVOK 26/22 Q1010 NOSIG
ZGSZ,2003-05-19 13:00,ZGSZ 191300Z 17002MPS CAVOK 26/22 Q1011 NOSIG
ZGSZ,2003-05-19 14:00,ZGSZ 191400Z 15001MPS CAVOK 26/22 Q1011 NOSIG
ZGSZ,2003-05-19 15:00,ZGSZ 191500Z 11003MPS CAVOK 27/21 Q1012 NOSIG
ZGSZ,2003-05-19 16:00,ZGSZ 191600Z 12003MPS CAVOK 27/22 Q1012 NOSIG
ZGSZ,2003-05-19 17:00,ZGSZ 191700Z 11003MPS CAVOK 26/21 Q1012 NOSIG
ZGSZ,2003-05-19 18:00,ZGSZ 191800Z 12003MPS CAVOK 26/21 Q1011 NOSIG
ZGSZ,2003-05-19 19:00,ZGSZ 191900Z 12003MPS CAVOK 26/21 Q1011 NOSIG
ZGSZ,2003-05-19 20:00,ZGSZ 192000Z 07002MPS CAVOK 26/21 Q1011 NOSIG
ZGSZ,2003-05-19 21:00,ZGSZ 192100Z 10002MPS 9000 BKN046 26/21 Q1011 NOSIG
ZGSZ,2003-05-19 22:00,ZGSZ 192200Z 05001MPS 8000 NSC 25/21 Q1011 NOSIG
ZGSZ,2003-05-19 23:00,ZGSZ 192300Z 03001MPS 6000 NSC 26/22 Q1012 NOSIG
ZGSZ,2003-05-20 00:00,ZGSZ 200000Z 09002MPS 5000 BR SKC 27/22 Q1012 NOSIG
ZGSZ,2003-05-20 01:00,ZGSZ 200100Z 02002MPS 4500 HZ FEW020 29/22 Q1013 NOSIG
ZGSZ,2003-05-20 02:00,ZGSZ 200200Z 01002MPS 5000 SCT020 SCT070 29/21 Q1013 NOSIG
ZGSZ,2003-05-20 03:00,ZGSZ 200300Z 24003MPS 4000 BR BKN020 28/22 Q1012 NOSIG
ZGSZ,2003-05-20 04:00,ZGSZ 200400Z 22003MPS 3000 BR BKN020 SCT060 29/23 Q1012 NOSIG
ZGSZ,2003-05-20 05:00,ZGSZ 200500Z 20002MPS 3000 BR BKN020 29/23 Q1011 NOSIG
ZGSZ,2003-05-20 06:00,ZGSZ 200600Z 18003MPS 3000 HZ SCT022 30/23 Q1010 NOSIG
ZGSZ,2003-05-20 07:00,ZGSZ 200700Z 21003MPS 3500 HZ BKN022 30/22 Q1010 NOSIG
ZGSZ,2003-05-20 08:00,ZGSZ 200800Z 20004MPS 4000 HZ SCT022 SCT053 29/23 Q1009 NOSIG
ZGSZ,2003-05-20 09:00,ZGSZ 200900Z 18004MPS 7000 BKN026 BKN060 29/23 Q1009 NOSIG
ZGSZ,2003-05-20 10:00,ZGSZ 201000Z 18004MPS 8000 FEW026 BKN050 28/23 Q1010 NOSIG
ZGSZ,2003-05-20 11:00,ZGSZ 201100Z 18004MPS CAVOK 28/23 Q1010 NOSIG
ZGSZ,2003-05-20 12:00,ZGSZ 201200Z 13005MPS CAVOK 28/22 Q1010 NOSIG
ZGSZ,2003-05-20 13:00,ZGSZ 201300Z 12005MPS CAVOK 28/21 Q1012 NOSIG
ZGSZ,2003-05-20 14:00,ZGSZ 201400Z 11005MPS CAVOK 27/21 Q1012 NOSIG
ZGSZ,2003-05-20 15:00,ZGSZ 201500Z 12003MPS CAVOK 27/21 Q1013 NOSIG
ZGSZ,2003-05-20 16:00,ZGSZ 201600Z 12005MPS CAVOK 27/20 Q1012 NOSIG
ZGSZ,2003-05-20 17:00,ZGSZ 201700Z 10003MPS CAVOK 27/20 Q1012 NOSIG
ZGSZ,2003-05-20 18:00,ZGSZ 201800Z 09002MPS CAVOK 27/19 Q1012 NOSIG
ZGSZ,2003-05-20 19:00,ZGSZ 201900Z 10002MPS CAVOK 27/19 Q1011 NOSIG
ZGSZ,2003-05-20 20:00,ZGSZ 202000Z 09001MPS CAVOK 27/19 Q1011 NOSIG
ZGSZ,2003-05-20 21:00,ZGSZ 202100Z 10002MPS CAVOK 27/17 Q1011 NOSIG
ZGSZ,2003-05-20 22:00,ZGSZ 202200Z 10002MPS CAVOK 26/16 Q1011 NOSIG
ZGSZ,2003-05-20 23:00,ZGSZ 202300Z 00000MPS CAVOK 26/18 Q1011 NOSIG
ZGSZ,2003-05-21 00:00,ZGSZ 210000Z 11003MPS CAVOK 28/18 Q1012 NOSIG
ZGSZ,2003-05-21 01:00,ZGSZ 210100Z 09003MPS CAVOK 29/18 Q1012 NOSIG
ZGSZ,2003-05-21 02:00,ZGSZ 210200Z 23002MPS CAVOK 29/19 Q1012 NOSIG
ZGSZ,2003-05-21 03:00,ZGSZ 210300Z 24002MPS CAVOK 30/19 Q1011 NOSIG
ZGSZ,2003-05-21 04:00,ZGSZ 210400Z 23003MPS CAVOK 30/20 Q1011 NOSIG
ZGSZ,2003-05-21 05:00,ZGSZ 210500Z 21004MPS CAVOK 31/21 Q1010 NOSIG
ZGSZ,2003-05-21 06:00,ZGSZ 210600Z 20004MPS CAVOK 31/21 Q1010 NOSIG
ZGSZ,2003-05-21 07:00,ZGSZ 210700Z 20005MPS CAVOK 30/22 Q1009 NOSIG
ZGSZ,2003-05-21 08:00,ZGSZ 210800Z 19006MPS CAVOK 30/21 Q1009 NOSIG
ZGSZ,2003-05-21 09:00,ZGSZ 210900Z 18006MPS CAVOK 30/21 Q1008 NOSIG
ZGSZ,2003-05-21 10:00,ZGSZ 211000Z 18006MPS CAVOK 29/20 Q1008 NOSIG
ZGSZ,2003-05-21 11:00,ZGSZ 211100Z 13006MPS 8000 NSC 29/18 Q1008 NOSIG
ZGSZ,2003-05-21 12:00,ZGSZ 211200Z 12007MPS 5000 SKC 28/17 Q1008 NOSIG
ZGSZ,2003-05-21 13:00,ZGSZ 211300Z 12005MPS 5000 HZ SKC 27/17 Q1009 NOSIG
ZGSZ,2003-05-21 14:00,ZGSZ 211400Z 10005MPS 6000 SKC 27/17 Q1010 NOSIG
ZGSZ,2003-05-21 15:00,ZGSZ 211500Z 10003MPS 5000 SKC 26/17 Q1011 NOSIG
ZGSZ,2003-05-21 16:00,ZGSZ 211600Z 12005MPS 6000 SKC 26/18 Q1011 NOSIG
ZGSZ,2003-05-21 17:00,ZGSZ 211700Z 11005MPS 5000 SKC 26/20 Q1010 NOSIG
ZGSZ,2003-05-21 18:00,ZGSZ 211800Z 13005MPS 4500 BR SKC 26/20 Q1010 NOSIG
ZGSZ,2003-05-21 19:00,ZGSZ 211900Z 11002MPS 5000 BR SKC 26/20 Q1010 NOSIG
ZGSZ,2003-05-21 20:00,ZGSZ 212000Z 09002MPS 4000 BR SKC 25/20 Q1009 NOSIG
ZGSZ,2003-05-21 21:00,ZGSZ 212100Z 07002MPS 4500 BR SKC 25/21 Q1009 NOSIG
ZGSZ,2003-05-21 22:00,ZGSZ 212200Z 05002MPS 4500 BR SCT020 25/21 Q1009 NOSIG
ZGSZ,2003-05-21 23:00,ZGSZ 212300Z 09003MPS 4000 BR NSC 26/21 Q1009 NOSIG
ZGSZ,2003-05-22 00:00,ZGSZ 220000Z 11003MPS 4000 BR SKC 27/22 Q1009 NOSIG
ZGSZ,2003-05-22 01:00,ZGSZ 220100Z 11002MPS 4500 BR FEW020 SCT120 28/22 Q1009 NOSIG
ZGSZ,2003-05-22 02:00,ZGSZ 220200Z 16004MPS 9999 SCT020 30/22 Q1009 NOSIG
ZGSZ,2003-05-22 03:00,ZGSZ 220300Z 22004MPS 9999 SCT020 30/23 Q1009 NOSIG
ZGSZ,2003-05-22 04:00,ZGSZ 220400Z 22005MPS 9999 SCT020 30/22 Q1009 NOSIG
ZGSZ,2003-05-22 05:00,ZGSZ 220500Z 22003MPS 9999 FEW026 30/23 Q1008 NOSIG
ZGSZ,2003-05-22 06:00,ZGSZ 220600Z 18004MPS 9999 FEW026 30/23 Q1008 NOSIG
ZGSZ,2003-05-22 07:00,ZGSZ 220700Z 18004MPS CAVOK 30/23 Q1007 NOSIG
ZGSZ,2003-05-22 08:00,ZGSZ 220800Z 18004MPS CAVOK 30/23 Q1007 NOSIG
ZGSZ,2003-05-22 09:00,ZGSZ 220900Z 18004MPS 9999 FEW022 30/23 Q1006 NOSIG
ZGSZ,2003-05-22 10:00,ZGSZ 221000Z 18005MPS 9999 FEW022 29/23 Q1006 NOSIG
ZGSZ,2003-05-22 11:00,ZGSZ 221100Z 16005MPS CAVOK 29/23 Q1007 NOSIG
ZGSZ,2003-05-22 12:00,ZGSZ 221200Z 16005MPS CAVOK 29/23 Q1007 NOSIG
ZGSZ,2003-05-22 13:00,ZGSZ 221300Z 13004MPS CAVOK 28/22 Q1008 NOSIG
ZGSZ,2003-05-22 14:00,ZGSZ 221400Z 09003MPS CAVOK 28/22 Q1008 NOSIG
ZGSZ,2003-05-22 15:00,ZGSZ 221500Z 10004MPS 6000 SKC 28/23 Q1009 NOSIG
ZGSZ,2003-05-22 16:00,ZGSZ 221600Z 09003MPS 5000 BR SKC 27/23 Q1008 NOSIG
ZGSZ,2003-05-22 17:00,ZGSZ 221700Z 10003MPS 5000 BR SKC 27/22 Q1008 NOSIG
ZGSZ,2003-05-22 18:00,ZGSZ 221800Z 09003MPS 4000 BR SKC 27/23 Q1008 NOSIG
ZGSZ,2003-05-22 19:00,ZGSZ 221900Z 13003MPS 4000 BR SKC 27/22 Q1007 NOSIG
ZGSZ,2003-05-22 20:00,ZGSZ 222000Z 10003MPS 4000 BR SKC 27/22 Q1007 NOSIG
ZGSZ,2003-05-22 21:00,ZGSZ 222100Z 09002MPS 4000 BR SKC 26/22 Q1007 NOSIG
ZGSZ,2003-05-22 22:00,ZGSZ 222200Z 08002MPS CAVOK 26/22 Q1007 NOSIG
ZGSZ,2003-05-22 23:00,ZGSZ 222300Z 11003MPS CAVOK 27/22 Q1008 NOSIG
ZGSZ,2003-05-23 00:00,ZGSZ 230000Z 11003MPS CAVOK 28/23 Q1008 NOSIG
ZGSZ,2003-05-23 01:00,ZGSZ 230100Z 18003MPS 9999 SCT020 28/23 Q1008 NOSIG
ZGSZ,2003-05-23 02:00,ZGSZ 230200Z 20004MPS 9999 SCT020 30/23 Q1009 NOSIG
ZGSZ,2003-05-23 03:00,ZGSZ 230300Z 21004MPS 9999 FEW020 30/24 Q1009 NOSIG
ZGSZ,2003-05-23 04:00,ZGSZ 230400Z 19004MPS 9999 FEW020 31/23 Q1008 NOSIG
ZGSZ,2003-05-23 05:00,ZGSZ 230500Z 20004MPS CAVOK 31/24 Q1007 NOSIG
ZGSZ,2003-05-23 06:00,ZGSZ 230600Z 20005MPS CAVOK 30/24 Q1006 NOSIG
ZGSZ,2003-05-23 07:00,ZGSZ 230700Z 20005MPS CAVOK 31/24 Q1006 NOSIG
ZGSZ,2003-05-23 08:00,ZGSZ 230800Z 19006MPS CAVOK 29/23 Q1005 NOSIG
ZGSZ,2003-05-23 09:00,ZGSZ 230900Z 19006MPS 9999 FEW030 BKN100 29/23 Q1006 NOSIG
ZGSZ,2003-05-23 10:00,ZGSZ 231000Z 18007MPS 9999 FEW033 BKN100 28/24 Q1005 NOSIG
ZGSZ,2003-05-23 11:00,ZGSZ 231100Z 18005MPS 9999 FEW043 BKN100 28/23 Q1005 NOSIG
ZGSZ,2003-05-23 12:00,ZGSZ 231200Z 14003MPS CAVOK 28/23 Q1005 NOSIG
ZGSZ,2003-05-23 13:00,ZGSZ 231300Z 14004MPS 9999 FEW040 BKN100 28/22 Q1006 NOSIG
ZGSZ,2003-05-23 14:00,ZGSZ 231400Z 13004MPS CAVOK 28/22 Q1007 NOSIG
ZGSZ,2003-05-23 15:00,ZGSZ 231500Z 09003MPS 9999 BKN043 28/22 Q1007 NOSIG
ZGSZ,2003-05-23 16:00,ZGSZ 231600Z 09003MPS 9999 BKN040 28/22 Q1007 NOSIG
ZGSZ,2003-05-23 17:00,ZGSZ 231700Z 13003MPS 9999 BKN040 28/22 Q1006 NOSIG
ZGSZ,2003-05-23 18:00,ZGSZ 231800Z 14005MPS 9999 BKN040 28/22 Q1006 NOSIG
ZGSZ,2003-05-23 19:00,ZGSZ 231900Z 14003MPS 9999 BKN040 27/22 Q1005 NOSIG
ZGSZ,2003-05-23 20:00,ZGSZ 232000Z 14003MPS 9999 BKN040 27/23 Q1005 NOSIG
ZGSZ,2003-05-23 21:00,ZGSZ 232100Z 14003MPS 9999 BKN040 27/23 Q1006 NOSIG
ZGSZ,2003-05-23 22:00,ZGSZ 232200Z 14002MPS 9999 BKN040 27/23 Q1006 NOSIG
ZGSZ,2003-05-23 23:00,ZGSZ 232300Z 13002MPS 9999 FEW023 BKN040 28/22 Q1006 NOSIG
ZGSZ,2003-05-24 00:00,ZGSZ 240000Z 14002MPS 9999 FEW023 29/23 Q1006 NOSIG
ZGSZ,2003-05-24 01:00,ZGSZ 240100Z 18003MPS 9999 FEW020 BKN060 29/23 Q1006 NOSIG
ZGSZ,2003-05-24 02:00,ZGSZ 240200Z 20003MPS 9999 FEW020TCU BKN076 29/24 Q1007 NOSIG
ZGSZ,2003-05-24 03:00,ZGSZ 240300Z 22003MPS 9999 FEW021TCU SCT110 30/24 Q1007 NOSIG
ZGSZ,2003-05-24 04:00,ZGSZ 240400Z 20004MPS 9999 FEW023TCU 30/24 Q1006 NOSIG
ZGSZ,2003-05-24 05:00,ZGSZ 240500Z 18004MPS 9999 FEW023TCU 30/24 Q1005 NOSIG
ZGSZ,2003-05-24 06:00,ZGSZ 240600Z 18005MPS 9999 FEW021 FEW026CB 31/25 Q1005 NOSIG
ZGSZ,2003-05-24 07:00,ZGSZ 240700Z 18006MPS 9999 -SHRA FEW021 FEW026CB 29/25 Q1004 NOSIG
ZGSZ,2003-05-24 08:00,ZGSZ 240800Z 18005MPS 9999 FEW020 BKN110 29/25 Q1004 NOSIG
ZGSZ,2003-05-24 09:00,ZGSZ 240900Z 18006MPS CAVOK 29/25 Q1003 NOSIG
ZGSZ,2003-05-24 10:00,ZGSZ 241000Z 18004MPS CAVOK 29/24 Q1004 NOSIG
ZGSZ,2003-05-24 11:00,ZGSZ 241100Z 18003MPS CAVOK 28/25 Q1004 NOSIG
ZGSZ,2003-05-24 12:00,ZGSZ 241200Z 18002MPS CAVOK 28/25 Q1005 NOSIG
ZGSZ,2003-05-24 13:00,ZGSZ 241300Z 17003MPS 9999 SCT016 BKN050 28/25 Q1006 TEMPO 5000 -TSRA SCT020 SCT030CB BKN040
ZGSZ,2003-05-24 14:00,ZGSZ 241400Z 17003MPS 9999 SCT016 BKN050 28/25 Q1006 NOSIG
ZGSZ,2003-05-24 15:00,ZGSZ 241500Z 14004MPS 9999 SCT016 BKN050 28/24 Q1006 NOSIG
ZGSZ,2003-05-24 16:00,ZGSZ 241600Z 06003MPS 6000 -SHRA SCT016 OVC040 28/23 Q1006 NOSIG
ZGSZ,2003-05-24 17:00,ZGSZ 241700Z 04003MPS 1400 R33/1300N -TSRA SCT007 FEW026CB OVC033 25/23 Q1006 NOSIG
ZGSZ,2003-05-24 18:00,ZGSZ 241800Z 09002MPS 1400 R33/P1500N -TSRA SCT007 FEW026CB OVC033 25/23 Q1005 NOSIG
ZGSZ,2003-05-24 19:00,ZGSZ 241900Z 07001MPS 4000 BR SCT015 OVC033 26/23 Q1005 NOSIG
ZGSZ,2003-05-24 20:00,ZGSZ 242000Z 09002MPS 4000 BR SCT015 OVC033 26/23 Q1005 NOSIG
ZGSZ,2003-05-24 21:00,ZGSZ 242100Z 02002MPS 4000 BR SCT015 OVC033 26/23 Q1005 NOSIG
ZGSZ,2003-05-24 22:00,ZGSZ 242200Z 02001MPS 3500 BR SCT015 OVC033 26/23 Q1005 NOSIG
ZGSZ,2003-05-24 23:00,ZGSZ 242300Z 02002MPS 4000 BR SCT015 OVC040 26/22 Q1006 NOSIG
ZGSZ,2003-05-25 00:00,ZGSZ 250000Z 06001MPS 5000 BR SCT016 BKN050 27/23 Q1006 NOSIG
ZGSZ,2003-05-25 01:00,ZGSZ 250100Z 10001MPS 5000 BR FEW020 SCT070 28/23 Q1006 NOSIG
ZGSZ,2003-05-25 02:00,ZGSZ 250200Z 09002MPS 6000 FEW022 BKN070 29/22 Q1006 NOSIG
ZGSZ,2003-05-25 03:00,ZGSZ 250300Z 01002MPS 6000 NSC 30/22 Q1006 NOSIG
ZGSZ,2003-05-25 04:00,ZGSZ 250400Z 01004MPS 7000 FEW023 BKN060 31/22 Q1005 NOSIG
ZGSZ,2003-05-25 05:00,ZGSZ 250500Z 01004MPS 7000 FEW025 BKN070 31/22 Q1005 NOSIG
ZGSZ,2003-05-25 06:00,ZGSZ 250600Z 04003MPS 8000 NSC 31/22 Q1004 NOSIG
ZGSZ,2003-05-25 07:00,ZGSZ 250700Z 34003MPS 9999 FEW026 32/22 Q1003 NOSIG
ZGSZ,2003-05-25 08:00,ZGSZ 250800Z 30005MPS CAVOK 31/23 Q1003 NOSIG
ZGSZ,2003-05-25 09:00,ZGSZ 250900Z 31004MPS CAVOK 31/23 Q1003 NOSIG
ZGSZ,2003-05-25 10:00,ZGSZ 251000Z 02003MPS CAVOK 31/22 Q1003 NOSIG
ZGSZ,2003-05-25 11:00,ZGSZ 251100Z 07001MPS 9999 SCT030 BKN120 31/21 Q1004 NOSIG
ZGSZ,2003-05-25 12:00,ZGSZ 251200Z 01003MPS 9999 SCT030 BKN100 29/23 Q1004 NOSIG
ZGSZ,2003-05-25 13:00,ZGSZ 251300Z 13003MPS 9999 BKN030 BKN100 29/23 Q1005 NOSIG
ZGSZ,2003-05-25 14:00,ZGSZ 251400Z 17001MPS 6000 -SHRA SCT020 FEW040CB BKN050 27/23 Q1005 NOSIG
ZGSZ,2003-05-25 15:00,ZGSZ 251500Z 09002MPS 9999 SCT026 BKN050 28/23 Q1005 NOSIG
ZGSZ,2003-05-25 16:00,ZGSZ 251600Z 10003MPS 9999 FEW026 BKN060 27/24 Q1005 NOSIG
ZGSZ,2003-05-25 17:00,ZGSZ 251700Z 09003MPS CAVOK 27/23 Q1005 NOSIG
ZGSZ,2003-05-25 18:00,ZGSZ 251800Z 09003MPS CAVOK 27/23 Q1004 NOSIG
ZGSZ,2003-05-25 19:00,ZGSZ 251900Z 02001MPS CAVOK 27/23 Q1004 NOSIG
ZGSZ,2003-05-25 20:00,ZGSZ 252000Z 09001MPS CAVOK 27/23 Q1004 NOSIG
ZGSZ,2003-05-25 21:00,ZGSZ 252100Z 07002MPS CAVOK 26/23 Q1004 NOSIG
ZGSZ,2003-05-25 22:00,ZGSZ 252200Z 09003MPS CAVOK 26/22 Q1005 NOSIG
ZGSZ,2003-05-25 23:00,ZGSZ 252300Z 08003MPS CAVOK 26/22 Q1005 NOSIG
ZGSZ,2003-05-26 00:00,ZGSZ 260000Z 08002MPS CAVOK 27/22 Q1005 NOSIG
ZGSZ,2003-05-26 01:00,ZGSZ 260100Z 10003MPS CAVOK 28/21 Q1006 NOSIG
ZGSZ,2003-05-26 02:00,ZGSZ 260200Z 15004MPS CAVOK 30/20 Q1006 NOSIG
ZGSZ,2003-05-26 03:00,ZGSZ 260300Z 15004MPS 9999 SCT016 BKN100 30/20 Q1005 NOSIG
ZGSZ,2003-05-26 04:00,ZGSZ 260400Z 15003MPS 9999 SCT020 BKN100 31/20 Q1005 NOSIG
ZGSZ,2003-05-26 05:00,ZGSZ 260500Z 24004MPS 9999 FEW023 BKN100 30/22 Q1004 NOSIG
ZGSZ,2003-05-26 06:00,ZGSZ 260600Z 20004MPS 9999 FEW025 BKN120 30/22 Q1003 NOSIG
ZGSZ,2003-05-26 07:00,ZGSZ 260700Z 20005MPS CAVOK 30/22 Q1003 NOSIG
ZGSZ,2003-05-26 08:00,ZGSZ 260800Z 13004MPS CAVOK 31/20 Q1001 NOSIG
ZGSZ,2003-05-26 09:00,ZGSZ 260900Z 13005MPS CAVOK 31/17 Q1001 NOSIG
ZGSZ,2003-05-26 10:00,ZGSZ 261000Z 12004MPS 9999 FEW026TCU SCT070 30/16 Q1001 NOSIG
ZGSZ,2003-05-26 11:00,ZGSZ 261100Z 11005MPS CAVOK 29/15 Q1002 NOSIG
ZGSZ,2003-05-26 12:00,ZGSZ 261200Z 13003MPS 8000 NSC 28/16 Q1003 NOSIG
ZGSZ,2003-05-26 13:00,ZGSZ 261300Z 12005MPS 8000 NSC 28/17 Q1003 NOSIG
ZGSZ,2003-05-26 14:00,ZGSZ 261400Z 12004MPS 8000 NSC 27/17 Q1004 NOSIG
ZGSZ,2003-05-26 15:00,ZGSZ 261500Z 12004MPS 6000 NSC 27/18 Q1004 NOSIG
ZGSZ,2003-05-26 16:00,ZGSZ 261600Z 11004MPS 6000 SKC 27/19 Q1003 NOSIG
ZGSZ,2003-05-26 17:00,ZGSZ 261700Z 12004MPS 5000 HZ SKC 26/20 Q1003 NOSIG
ZGSZ,2003-05-26 18:00,ZGSZ 261800Z 11003MPS 5000 BR SKC 26/20 Q1002 NOSIG
ZGSZ,2003-05-26 19:00,ZGSZ 261900Z 12004MPS 4000 BR SKC 26/20 Q1001 NOSIG
ZGSZ,2003-05-26 20:00,ZGSZ 262000Z 12004MPS 4000 BR SKC 26/20 Q1001 NOSIG
ZGSZ,2003-05-26 21:00,ZGSZ 262100Z 13003MPS 4500 BR SKC 26/20 Q1001 NOSIG
ZGSZ,2003-05-26 22:00,ZGSZ 262200Z 14003MPS 6000 BKN043 26/20 Q1002 NOSIG
ZGSZ,2003-05-26 23:00,ZGSZ 262300Z 11004MPS 8000 NSC 26/19 Q1002 NOSIG
ZGSZ,2003-05-27 00:00,ZGSZ 270000Z 12003MPS 8000 NSC 26/19 Q1003 NOSIG
ZGSZ,2003-05-27 01:00,ZGSZ 270100Z 11004MPS 9999 BKN046 27/19 Q1003 NOSIG
ZGSZ,2003-05-27 02:00,ZGSZ 270200Z 15004MPS 9999 BKN046 27/19 Q1003 NOSIG
ZGSZ,2003-05-27 03:00,ZGSZ 270300Z 13005MPS 9000 BKN046 29/20 Q1003 NOSIG
ZGSZ,2003-05-27 04:00,ZGSZ 270400Z 15003MPS CAVOK 29/19 Q1003 NOSIG
ZGSZ,2003-05-27 05:00,ZGSZ 270500Z 19004MPS 9000 NSC 29/20 Q1002 NOSIG
ZGSZ,2003-05-27 06:00,ZGSZ 270600Z 24004MPS 9999 BKN023 29/21 Q1002 NOSIG
ZGSZ,2003-05-27 07:00,ZGSZ 270700Z 21004MPS 8000 FEW023 BKN053 29/22 Q1001 NOSIG
ZGSZ,2003-05-27 08:00,ZGSZ 270800Z 18005MPS 8000 FEW023 BKN046 29/21 Q1000 NOSIG
ZGSZ,2003-05-27 09:00,ZGSZ 270900Z 15004MPS 8000 FEW020 BKN050 29/19 Q1000 NOSIG
ZGSZ,2003-05-27 10:00,ZGSZ 271000Z 15003MPS 7000 NSC 28/20 Q1000 NOSIG
ZGSZ,2003-05-27 11:00,ZGSZ 271100Z 11003MPS 6000 NSC 27/20 Q1000 NOSIG
ZGSZ,2003-05-27 12:00,ZGSZ 271200Z 12004MPS 6000 NSC 27/20 Q1001 NOSIG
ZGSZ,2003-05-27 13:00,ZGSZ 271300Z 11003MPS 5000 HZ NSC 26/20 Q1002 NOSIG
ZGSZ,2003-05-27 14:00,ZGSZ 271400Z 12004MPS 4800 HZ NSC 26/20 Q1002 NOSIG
ZGSZ,2003-05-27 15:00,ZGSZ 271500Z 12004MPS 5000 BR NSC 26/20 Q1002 NOSIG
ZGSZ,2003-05-27 16:00,ZGSZ 271600Z 12004MPS 5000 BR NSC 26/20 Q1002 NOSIG
ZGSZ,2003-05-27 17:00,ZGSZ 271700Z 11003MPS 4500 BR NSC 25/20 Q1002 NOSIG
ZGSZ,2003-05-27 18:00,ZGSZ 271800Z 10003MPS 4800 BR NSC 26/20 Q1001 NOSIG
ZGSZ,2003-05-27 19:00,ZGSZ 271900Z 10003MPS 5000 BR BKN046 26/20 Q1001 NOSIG
ZGSZ,2003-05-27 20:00,ZGSZ 272000Z 11003MPS 5000 BR BKN046 26/20 Q1001 NOSIG
ZGSZ,2003-05-27 21:00,ZGSZ 272100Z 11003MPS 5000 BR BKN046 26/20 Q1001 NOSIG
ZGSZ,2003-05-27 22:00,ZGSZ 272200Z 09002MPS 6000 BKN043 26/20 Q1001 NOSIG
ZGSZ,2003-05-27 23:00,ZGSZ 272300Z 09003MPS 6000 BKN043 26/20 Q1001 NOSIG
ZGSZ,2003-05-28 00:00,ZGSZ 280000Z 11003MPS 6000 BKN040 26/21 Q1002 NOSIG
ZGSZ,2003-05-28 01:00,ZGSZ 280100Z 09003MPS 9999 BKN023 OVC040 26/21 Q1002 NOSIG
ZGSZ,2003-05-28 02:00,ZGSZ 280200Z 09001MPS 9999 OVC040 27/21 Q1003 NOSIG
ZGSZ,2003-05-28 03:00,ZGSZ 280300Z 20002MPS 9999 SCT020 BKN043 28/21 Q1002 NOSIG
ZGSZ,2003-05-28 04:00,ZGSZ 280400Z 20003MPS 9999 SCT020 BKN043 28/21 Q1002 NOSIG
ZGSZ,2003-05-28 05:00,ZGSZ 280500Z 19002MPS 9999 BKN040 28/22 Q1002 NOSIG
ZGSZ,2003-05-28 06:00,ZGSZ 280600Z 18002MPS 9999 BKN046 28/21 Q1001 NOSIG
ZGSZ,2003-05-28 07:00,ZGSZ 280700Z 18003MPS 9999 OVC040 27/22 Q1001 NOSIG
ZGSZ,2003-05-28 08:00,ZGSZ 280800Z 18003MPS 9999 BKN040 28/22 Q1000 NOSIG
ZGSZ,2003-05-28 09:00,ZGSZ 280900Z 18003MPS CAVOK 28/22 Q1000 NOSIG
ZGSZ,2003-05-28 10:00,ZGSZ 281000Z 18004MPS CAVOK 27/22 Q1000 NOSIG
ZGSZ,2003-05-28 11:00,ZGSZ 281100Z 15003MPS 6000 SKC 27/21 Q1001 NOSIG
ZGSZ,2003-05-28 12:00,ZGSZ 281200Z 15003MPS 5000 BR SKC 26/21 Q1002 NOSIG
ZGSZ,2003-05-28 13:00,ZGSZ 281300Z 14004MPS 5000 BR SKC 26/21 Q1002 NOSIG
ZGSZ,2003-05-28 14:00,ZGSZ 281400Z 09003MPS 4500 BR NSC 26/21 Q1003 NOSIG
ZGSZ,2003-05-28 15:00,ZGSZ 281500Z 12003MPS 4500 BR OVC043 26/21 Q1003 NOSIG
ZGSZ,2003-05-28 16:00,ZGSZ 281600Z 11003MPS 5000 BR NSC 26/21 Q1003 NOSIG
ZGSZ,2003-05-28 17:00,ZGSZ 281700Z 12003MPS 6000 NSC 25/21 Q1002 NOSIG
ZGSZ,2003-05-28 18:00,ZGSZ 281800Z 12002MPS 6000 NSC 25/21 Q1002 NOSIG
ZGSZ,2003-05-28 19:00,ZGSZ 281900Z 11002MPS 6000 NSC 25/21 Q1002 NOSIG
ZGSZ,2003-05-28 20:00,ZGSZ 282000Z 09001MPS 6000 NSC 25/21 Q1002 NOSIG
ZGSZ,2003-05-28 21:00,ZGSZ 282100Z 13001MPS 6000 NSC 25/21 Q1002 NOSIG
ZGSZ,2003-05-28 22:00,ZGSZ 282200Z 10002MPS 3500 BR FEW013 OVC040 26/21 Q1003 NOSIG
ZGSZ,2003-05-28 23:00,ZGSZ 282300Z 10001MPS 4000 BR SCT013 OVC040 26/21 Q1003 NOSIG
ZGSZ,2003-05-29 00:00,ZGSZ 290000Z 00000MPS 4000 BR SCT015 OVC043 26/21 Q1004 NOSIG
ZGSZ,2003-05-29 01:00,ZGSZ 290100Z 21001MPS 3500 BR FEW020 SCT060 27/22 Q1004 NOSIG
ZGSZ,2003-05-29 02:00,ZGSZ 290200Z 21002MPS 3800 BR SCT020 SCT070 28/22 Q1004 NOSIG
ZGSZ,2003-05-29 03:00,ZGSZ 290300Z 22002MPS 3500 BR SCT021 SCT060 28/22 Q1004 NOSIG
ZGSZ,2003-05-29 04:00,ZGSZ 290400Z 22002MPS 4300 BR FEW020 BKN050 28/22 Q1004 NOSIG
ZGSZ,2003-05-29 05:00,ZGSZ 290500Z 20002MPS 4000 BR FEW020 BKN046 28/23 Q1004 NOSIG
ZGSZ,2003-05-29 06:00,ZGSZ 290600Z 21002MPS 4500 BR NSC 28/23 Q1003 NOSIG
ZGSZ,2003-05-29 07:00,ZGSZ 290700Z 18003MPS 4500 BR NSC 28/23 Q1002 NOSIG
ZGSZ,2003-05-29 08:00,ZGSZ 290800Z 18003MPS 4800 BR NSC 28/24 Q1002 NOSIG
ZGSZ,2003-05-29 09:00,ZGSZ 290900Z 18003MPS 4000 BR FEW020 BKN060 28/23 Q1002 TEMPO VRB08MPS 1500 TSRA SCT015 SCT030CB BKN040
ZGSZ,2003-05-29 10:00,ZGSZ 291000Z 09002MPS 3500 BR FEW016 BKN046 25/22 Q1002 RETSRA TEMPO VRB08MPS 1500 TSRA SCT015 SCT030CB BKN040
ZGSZ,2003-05-29 11:00,ZGSZ 291100Z 19002MPS 5000 BR FEW020 BKN050 26/23 Q1002 NOSIG
ZGSZ,2003-05-29 12:00,ZGSZ 291200Z 00000MPS 5000 BR FEW033 BKN060 26/23 Q1003 NOSIG
ZGSZ,2003-05-29 13:00,ZGSZ 291300Z 00000MPS 2800 BR NSC 27/23 Q1004 NOSIG
ZGSZ,2003-05-29 14:00,ZGSZ 291400Z 19002MPS 3000 BR FEW020 OVC060 26/23 Q1004 NOSIG
ZGSZ,2003-05-29 15:00,ZGSZ 291500Z 21002MPS 3000 BR FEW016 OVC050 27/24 Q1005 NOSIG
ZGSZ,2003-05-29 16:00,ZGSZ 291600Z 22001MPS 3000 BR FEW016 OVC050 27/24 Q1005 NOSIG
ZGSZ,2003-05-29 17:00,ZGSZ 291700Z 32001MPS 3000 BR FEW016 OVC046 27/24 Q1004 NOSIG
ZGSZ,2003-05-29 18:00,ZGSZ 291800Z 33002MPS 2000 BR FEW016 OVC046 27/24 Q1004 NOSIG
ZGSZ,2003-05-29 19:00,ZGSZ 291900Z 36001MPS 2000 BR FEW016 OVC046 26/23 Q1003 NOSIG
ZGSZ,2003-05-29 20:00,ZGSZ 292000Z 36003MPS 2000 BR FEW016 OVC046 26/23 Q1003 NOSIG
ZGSZ,2003-05-29 21:00,ZGSZ 292100Z 36003MPS 2000 BR FEW016 OVC046 26/23 Q1003 NOSIG
ZGSZ,2003-05-29 22:00,ZGSZ 292200Z 36004MPS 2600 BR FEW016 BKN050 25/21 Q1003 NOSIG
ZGSZ,2003-05-29 23:00,ZGSZ 292300Z 36004MPS 3500 BR NSC 26/21 Q1004 NOSIG
ZGSZ,2003-05-30 00:00,ZGSZ 300000Z 36004MPS 3000 HZ SKC 27/21 Q1004 NOSIG
ZGSZ,2003-05-30 01:00,ZGSZ 300100Z 02005MPS 3800 HZ SKC 28/20 Q1005 NOSIG
ZGSZ,2003-05-30 02:00,ZGSZ 300200Z 02005MPS 3800 HZ SKC 29/20 Q1005 NOSIG
ZGSZ,2003-05-30 03:00,ZGSZ 300300Z 04003MPS 3800 HZ SKC 30/21 Q1005 NOSIG
ZGSZ,2003-05-30 04:00,ZGSZ 300400Z 02004MPS 3700 HZ SKC 31/21 Q1004 NOSIG
ZGSZ,2003-05-30 05:00,ZGSZ 300500Z 02004MPS 4500 HZ FEW021 32/21 Q1004 NOSIG
ZGSZ,2003-05-30 06:00,ZGSZ 300600Z 01004MPS 4800 HZ SCT021 33/21 Q1003 NOSIG
ZGSZ,2003-05-30 07:00,ZGSZ 300700Z 01003MPS 5000 SCT021 33/21 Q1003 NOSIG
ZGSZ,2003-05-30 08:00,ZGSZ 300800Z 01003MPS 5000 HZ FEW021 33/20 Q1002 NOSIG
ZGSZ,2003-05-30 09:00,ZGSZ 300900Z 30002MPS 3500 HZ BKN021 32/22 Q1002 NOSIG
ZGSZ,2003-05-30 10:00,ZGSZ 301000Z 20001MPS 5000 HZ SCT021 32/21 Q1002 NOSIG
ZGSZ,2003-05-30 11:00,ZGSZ 301100Z 14004MPS 3000 BR FEW023 29/23 Q1003 NOSIG
ZGSZ,2003-05-30 12:00,ZGSZ 301200Z 17003MPS 3500 BR FEW023 28/24 Q1004 NOSIG
ZGSZ,2003-05-30 13:00,ZGSZ 301300Z 18003MPS 3000 BR SKC 28/24 Q1004 NOSIG
ZGSZ,2003-05-30 14:00,ZGSZ 301400Z 19002MPS 2800 BR SKC 28/25 Q1005 NOSIG
ZGSZ,2003-05-30 15:00,ZGSZ 301500Z 12002MPS 3000 BR SCT020 28/23 Q1006 NOSIG
ZGSZ,2003-05-30 16:00,ZGSZ 301600Z 13003MPS 3000 BR FEW020 28/23 Q1006 NOSIG
ZGSZ,2003-05-30 17:00,ZGSZ 301700Z 10002MPS 3000 BR FEW023 28/23 Q1005 NOSIG
ZGSZ,2003-05-30 18:00,ZGSZ 301800Z 13002MPS 3000 BR FEW023 27/23 Q1005 NOSIG
ZGSZ,2003-05-30 19:00,ZGSZ 301900Z 12002MPS 3000 BR FEW023 27/22 Q1005 NOSIG
ZGSZ,2003-05-30 20:00,ZGSZ 302000Z 01001MPS 3000 BR SKC 26/22 Q1005 NOSIG
ZGSZ,2003-05-30 21:00,ZGSZ 302100Z 36002MPS 3000 BR SKC 26/22 Q1005 NOSIG
ZGSZ,2003-05-30 22:00,ZGSZ 302200Z 36004MPS 2800 BR SKC 26/23 Q1006 NOSIG
ZGSZ,2003-05-30 23:00,ZGSZ 302300Z 01003MPS 2800 BR SKC 26/23 Q1006 NOSIG
ZGSZ,2003-05-31 00:00,ZGSZ 310000Z 04002MPS 2600 BR SKC 28/23 Q1007 NOSIG
ZGSZ,2003-05-31 01:00,ZGSZ 310100Z 36003MPS 3000 HZ SKC 29/23 Q1007 NOSIG
ZGSZ,2003-05-31 02:00,ZGSZ 310200Z 04002MPS 3000 HZ SKC 30/22 Q1007 NOSIG
ZGSZ,2003-05-31 03:00,ZGSZ 310300Z 03002MPS 4000 HZ SCT020 32/20 Q1007 NOSIG
ZGSZ,2003-05-31 04:00,ZGSZ 310400Z 23003MPS 4000 HZ SCT020 BKN100 31/23 Q1006 NOSIG
ZGSZ,2003-05-31 05:00,ZGSZ 310500Z 22002MPS 4500 HZ SCT020 BKN100 32/21 Q1006 NOSIG
ZGSZ,2003-05-31 06:00,ZGSZ 310600Z 20003MPS 4500 HZ SCT016 BKN070 31/22 Q1005 NOSIG
ZGSZ,2003-05-31 07:00,ZGSZ 310700Z 18003MPS 5000 HZ SCT015 OVC053 30/23 Q1005 NOSIG
ZGSZ,2003-05-31 08:00,ZGSZ 310800Z 15005MPS 7000 SCT016 OVC050 31/22 Q1004 NOSIG
ZGSZ,2003-05-31 09:00,ZGSZ 310900Z 16005MPS CAVOK 30/20 Q1004 NOSIG
ZGSZ,2003-05-31 10:00,ZGSZ 311000Z 12006MPS CAVOK 31/15 Q1004 NOSIG
ZGSZ,2003-05-31 11:00,ZGSZ 311100Z 12005MPS CAVOK 30/14 Q1005 NOSIG
ZGSZ,2003-05-31 12:00,ZGSZ 311200Z 11005MPS 8000 NSC 28/15 Q1005 NOSIG
ZGSZ,2003-05-31 13:00,ZGSZ 311300Z 09006MPS 8000 NSC 28/16 Q1006 NOSIG
ZGSZ,2003-05-31 14:00,ZGSZ 311400Z 09005MPS 7000 NSC 28/16 Q1006 NOSIG
ZGSZ,2003-05-31 15:00,ZGSZ 311500Z 09005MPS 7000 NSC 27/16 Q1007 NOSIG
ZGSZ,2003-05-31 16:00,ZGSZ 311600Z 12002MPS 7000 NSC 27/16 Q1007 NOSIG
ZGSZ,2003-05-31 17:00,ZGSZ 311700Z 15001MPS 7000 NSC 25/18 Q1007 NOSIG
ZGSZ,2003-05-31 18:00,ZGSZ 311800Z 28001MPS 5000 NSC 26/18 Q1006 NOSIG
ZGSZ,2003-05-31 19:00,ZGSZ 311900Z 04002MPS 5000 NSC 25/19 Q1006 NOSIG
ZGSZ,2003-05-31 20:00,ZGSZ 312000Z 03002MPS 4200 BR NSC 24/19 Q1006 NOSIG
ZGSZ,2003-05-31 21:00,ZGSZ 312100Z 00000MPS 3800 BR NSC 24/19 Q1006 NOSIG
ZGSZ,2003-05-31 22:00,ZGSZ 312200Z 35001MPS 4200 BR NSC 25/19 Q1006 NOSIG
ZGSZ,2003-05-31 23:00,ZGSZ 312300Z 02002MPS 4200 BR SKC 25/19 Q1007 NOSIG
ZGSZ,2003-06-01 00:00,ZGSZ 010000Z 03002MPS 5000 SKC 27/19 Q1007 NOSIG
ZGSZ,2003-06-01 01:00,ZGSZ 010100Z 12001MPS 6000 SKC 28/19 Q1007 NOSIG
ZGSZ,2003-06-01 02:00,ZGSZ 010200Z 27002MPS 7000 SKC 28/18 Q1007 NOSIG
ZGSZ,2003-06-01 03:00,ZGSZ 010300Z 24002MPS 8000 SKC 29/18 Q1007 NOSIG
ZGSZ,2003-06-01 04:00,ZGSZ 010400Z 23003MPS CAVOK 29/18 Q1007 NOSIG
ZGSZ,2003-06-01 05:00,ZGSZ 010500Z 23003MPS CAVOK 30/19 Q1006 NOSIG
ZGSZ,2003-06-01 06:00,ZGSZ 010600Z 22003MPS CAVOK 30/20 Q1005 NOSIG
ZGSZ,2003-06-01 07:00,ZGSZ 010700Z 19004MPS CAVOK 30/20 Q1005 NOSIG
ZGSZ,2003-06-01 08:00,ZGSZ 010800Z 18005MPS CAVOK 29/20 Q1004 NOSIG
ZGSZ,2003-06-01 09:00,ZGSZ 010900Z 18005MPS CAVOK 29/20 Q1004 NOSIG
ZGSZ,2003-06-01 10:00,ZGSZ 011000Z 17005MPS CAVOK 29/18 Q1004 NOSIG
ZGSZ,2003-06-01 11:00,ZGSZ 011100Z 14005MPS CAVOK 28/18 Q1004 NOSIG
ZGSZ,2003-06-01 12:00,ZGSZ 011200Z 14004MPS CAVOK 27/17 Q1005 NOSIG
ZGSZ,2003-06-01 13:00,ZGSZ 011300Z 13004MPS CAVOK 27/16 Q1005 NOSIG
ZGSZ,2003-06-01 14:00,ZGSZ 011400Z 12005MPS CAVOK 27/16 Q1006 NOSIG
ZGSZ,2003-06-01 15:00,ZGSZ 011500Z 11004MPS CAVOK 26/16 Q1006 NOSIG
ZGSZ,2003-06-01 16:00,ZGSZ 011600Z 12002MPS CAVOK 26/16 Q1006 NOSIG
ZGSZ,2003-06-01 17:00,ZGSZ 011700Z 11001MPS 6000 NSC 25/17 Q1006 NOSIG
ZGSZ,2003-06-01 18:00,ZGSZ 011800Z 11001MPS 6000 NSC 25/17 Q1006 NOSIG
ZGSZ,2003-06-01 19:00,ZGSZ 011900Z 12001MPS 5000 HZ NSC 24/18 Q1005 NOSIG
ZGSZ,2003-06-01 20:00,ZGSZ 012000Z 10001MPS 5000 HZ NSC 24/18 Q1005 NOSIG
ZGSZ,2003-06-01 21:00,ZGSZ 012100Z 08001MPS 5000 HZ NSC 25/18 Q1005 NOSIG
ZGSZ,2003-06-01 22:00,ZGSZ 012200Z 11001MPS 6000 NSC 24/18 Q1006 NOSIG
ZGSZ,2003-06-01 23:00,ZGSZ 012300Z 00000MPS 6000 NSC 25/19 Q1006 NOSIG
ZGSZ,2003-06-02 00:00,ZGSZ 020000Z 00000MPS 5000 HZ NSC 26/19 Q1006 NOSIG
ZGSZ,2003-06-02 01:00,ZGSZ 020100Z 24001MPS 9000 NSC 27/19 Q1006 NOSIG
ZGSZ,2003-06-02 02:00,ZGSZ 020200Z 26002MPS 9000 SKC 28/20 Q1006 NOSIG
ZGSZ,2003-06-02 03:00,ZGSZ 020300Z 26002MPS 9000 NSC 28/20 Q1006 NOSIG
ZGSZ,2003-06-02 04:00,ZGSZ 020400Z 21002MPS CAVOK 29/19 Q1006 NOSIG
ZGSZ,2003-06-02 05:00,ZGSZ 020500Z 17003MPS CAVOK 29/19 Q1005 NOSIG
ZGSZ,2003-06-02 06:00,ZGSZ 020600Z 18004MPS CAVOK 30/19 Q1004 NOSIG
ZGSZ,2003-06-02 07:00,ZGSZ 020700Z 18004MPS CAVOK 30/20 Q1004 NOSIG
ZGSZ,2003-06-02 08:00,ZGSZ 020800Z 18005MPS CAVOK 29/20 Q1003 NOSIG
ZGSZ,2003-06-02 09:00,ZGSZ 020900Z 18005MPS CAVOK 29/20 Q1003 NOSIG
ZGSZ,2003-06-02 10:00,ZGSZ 021000Z 18006MPS CAVOK 28/20 Q1003 NOSIG
ZGSZ,2003-06-02 11:00,ZGSZ 021100Z 17006MPS CAVOK 27/20 Q1003 NOSIG
ZGSZ,2003-06-02 12:00,ZGSZ 021200Z 17006MPS CAVOK 27/19 Q1004 NOSIG
ZGSZ,2003-06-02 13:00,ZGSZ 021300Z 18006MPS CAVOK 27/19 Q1005 NOSIG
ZGSZ,2003-06-02 14:00,ZGSZ 021400Z 17005MPS CAVOK 27/20 Q1006 NOSIG
ZGSZ,2003-06-02 15:00,ZGSZ 021500Z 17005MPS CAVOK 27/19 Q1006 NOSIG
ZGSZ,2003-06-02 16:00,ZGSZ 021600Z 18005MPS CAVOK 27/19 Q1006 NOSIG
ZGSZ,2003-06-02 17:00,ZGSZ 021700Z 17004MPS CAVOK 26/20 Q1006 NOSIG
ZGSZ,2003-06-02 18:00,ZGSZ 021800Z 18003MPS CAVOK 26/19 Q1006 NOSIG
ZGSZ,2003-06-02 19:00,ZGSZ 021900Z 15004MPS CAVOK 26/19 Q1005 NOSIG
ZGSZ,2003-06-02 20:00,ZGSZ 022000Z 14003MPS CAVOK 25/19 Q1005 NOSIG
ZGSZ,2003-06-02 21:00,ZGSZ 022100Z 13002MPS CAVOK 25/19 Q1005 NOSIG
ZGSZ,2003-06-02 22:00,ZGSZ 022200Z 10001MPS CAVOK 25/19 Q1006 NOSIG
ZGSZ,2003-06-02 23:00,ZGSZ 022300Z 11003MPS CAVOK 26/19 Q1006 NOSIG
ZGSZ,2003-06-03 00:00,ZGSZ 030000Z 13002MPS 8000 NSC 27/19 Q1007 NOSIG
ZGSZ,2003-06-03 01:00,ZGSZ 030100Z 15003MPS CAVOK 28/19 Q1007 NOSIG
ZGSZ,2003-06-03 02:00,ZGSZ 030200Z 16003MPS CAVOK 28/19 Q1008 NOSIG
ZGSZ,2003-06-03 03:00,ZGSZ 030300Z 17003MPS 9999 BKN043 SCT070 27/19 Q1008 NOSIG
ZGSZ,2003-06-03 04:00,ZGSZ 030400Z 16003MPS CAVOK 27/18 Q1008 NOSIG
ZGSZ,2003-06-03 05:00,ZGSZ 030500Z 16003MPS CAVOK 28/18 Q1008 NOSIG
ZGSZ,2003-06-03 06:00,ZGSZ 030600Z 17002MPS CAVOK 28/19 Q1007 NOSIG
ZGSZ,2003-06-03 07:00,ZGSZ 030700Z 18002MPS CAVOK 28/19 Q1007 NOSIG
ZGSZ,2003-06-03 08:00,ZGSZ 030800Z 18002MPS CAVOK 28/20 Q1006 NOSIG
ZGSZ,2003-06-03 09:00,ZGSZ 030900Z 18004MPS 9999 BKN046 28/20 Q1006 NOSIG
ZGSZ,2003-06-03 10:00,ZGSZ 031000Z 18004MPS 9999 BKN043 27/21 Q1006 NOSIG
ZGSZ,2003-06-03 11:00,ZGSZ 031100Z 18005MPS 9999 BKN043 27/21 Q1006 NOSIG
ZGSZ,2003-06-03 12:00,ZGSZ 031200Z 17003MPS CAVOK 27/21 Q1007 NOSIG
ZGSZ,2003-06-03 13:00,ZGSZ 031300Z 14003MPS CAVOK 26/21 Q1007 NOSIG
ZGSZ,2003-06-03 14:00,ZGSZ 031400Z 10002MPS CAVOK 27/20 Q1008 NOSIG
ZGSZ,2003-06-03 15:00,ZGSZ 031500Z 13003MPS 9000 NSC 27/19 Q1008 NOSIG
ZGSZ,2003-06-03 16:00,ZGSZ 031600Z 11002MPS 8000 NSC 26/20 Q1008 NOSIG
ZGSZ,2003-06-03 17:00,ZGSZ 031700Z 08002MPS 9000 NSC 26/19 Q1008 NOSIG
ZGSZ,2003-06-03 18:00,ZGSZ 031800Z 09001MPS 9000 NSC 25/19 Q1008 NOSIG
ZGSZ,2003-06-03 19:00,ZGSZ 031900Z 08001MPS 9000 NSC 26/19 Q1008 NOSIG
ZGSZ,2003-06-03 20:00,ZGSZ 032000Z 00000MPS 9000 NSC 26/19 Q1008 NOSIG
ZGSZ,2003-06-03 21:00,ZGSZ 032100Z 10002MPS 9000 NSC 26/20 Q1009 NOSIG
ZGSZ,2003-06-03 22:00,ZGSZ 032200Z 09002MPS 7000 NSC 26/20 Q1009 NOSIG
ZGSZ,2003-06-03 23:00,ZGSZ 032300Z 10002MPS 7000 NSC 26/20 Q1009 NOSIG
ZGSZ,2003-06-04 00:00,ZGSZ 040000Z 12003MPS 6000 NSC 27/20 Q1010 NOSIG
ZGSZ,2003-06-04 01:00,ZGSZ 040100Z 11003MPS 6000 NSC 28/21 Q1010 NOSIG
ZGSZ,2003-06-04 02:00,ZGSZ 040200Z 18002MPS 6000 NSC 29/21 Q1010 NOSIG
ZGSZ,2003-06-04 03:00,ZGSZ 040300Z 21003MPS 8000 FEW025 29/21 Q1010 NOSIG
ZGSZ,2003-06-04 04:00,ZGSZ 040400Z 22003MPS 8000 SKC 29/21 Q1010 NOSIG
ZGSZ,2003-06-04 05:00,ZGSZ 040500Z 21003MPS CAVOK 30/19 Q1009 NOSIG
ZGSZ,2003-06-04 06:00,ZGSZ 040600Z 21004MPS CAVOK 30/20 Q1008 NOSIG
ZGSZ,2003-06-04 07:00,ZGSZ 040700Z 19003MPS CAVOK 30/21 Q1007 NOSIG
ZGSZ,2003-06-04 08:00,ZGSZ 040800Z 18005MPS CAVOK 30/21 Q1007 NOSIG
ZGSZ,2003-06-04 09:00,ZGSZ 040900Z 18006MPS CAVOK 29/22 Q1007 NOSIG
ZGSZ,2003-06-04 10:00,ZGSZ 041000Z 18006MPS CAVOK 28/22 Q1007 NOSIG
ZGSZ,2003-06-04 11:00,ZGSZ 041100Z 18005MPS CAVOK 27/22 Q1007 NOSIG
ZGSZ,2003-06-04 12:00,ZGSZ 041200Z 18005MPS CAVOK 27/22 Q1008 NOSIG
ZGSZ,2003-06-04 13:00,ZGSZ 041300Z 16005MPS CAVOK 28/22 Q1009 NOSIG
ZGSZ,2003-06-04 14:00,ZGSZ 041400Z 17003MPS CAVOK 27/22 Q1009 NOSIG
ZGSZ,2003-06-04 15:00,ZGSZ 041500Z 18003MPS CAVOK 27/22 Q1010 NOSIG
ZGSZ,2003-06-04 16:00,ZGSZ 041600Z 18003MPS CAVOK 27/22 Q1009 NOSIG
ZGSZ,2003-06-04 17:00,ZGSZ 041700Z 16003MPS CAVOK 26/21 Q1009 NOSIG
ZGSZ,2003-06-04 18:00,ZGSZ 041800Z 17002MPS CAVOK 26/21 Q1008 NOSIG
ZGSZ,2003-06-04 19:00,ZGSZ 041900Z 09001MPS CAVOK 26/21 Q1008 NOSIG
ZGSZ,2003-06-04 20:00,ZGSZ 042000Z 09002MPS CAVOK 26/21 Q1008 NOSIG DUPE
ZGSZ,2003-06-04 21:00,ZGSZ 042100Z 09002MPS CAVOK 25/20 Q1008 NOSIG
ZGSZ,2003-06-04 22:00,ZGSZ 042200Z 09002MPS 7000 SKC 25/21 Q1008 NOSIG
ZGSZ,2003-06-04 23:00,ZGSZ 042300Z 08002MPS 6000 NSC 26/21 Q1009 NOSIG
ZGSZ,2003-06-05 00:00,ZGSZ 050000Z 11002MPS 6000 NSC 27/21 Q1009 NOSIG
ZGSZ,2003-06-05 01:00,ZGSZ 050100Z 20002MPS 8000 NSC 28/22 Q1010 NOSIG
ZGSZ,2003-06-05 02:00,ZGSZ 050200Z 21003MPS CAVOK 28/22 Q1010 NOSIG
ZGSZ,2003-06-05 03:00,ZGSZ 050300Z 20003MPS CAVOK 28/22 Q1009 NOSIG
ZGSZ,2003-06-05 04:00,ZGSZ 050400Z 21004MPS CAVOK 29/23 Q1008 NOSIG
ZGSZ,2003-06-05 05:00,ZGSZ 050500Z 22003MPS CAVOK 29/22 Q1008 NOSIG
ZGSZ,2003-06-05 06:00,ZGSZ 050600Z 21004MPS CAVOK 30/23 Q1007 NOSIG
ZGSZ,2003-06-05 07:00,ZGSZ 050700Z 20005MPS CAVOK 30/23 Q1006 NOSIG
ZGSZ,2003-06-05 08:00,ZGSZ 050800Z 19005MPS CAVOK 30/23 Q1006 NOSIG
ZGSZ,2003-06-05 09:00,ZGSZ 050900Z 18005MPS CAVOK 30/22 Q1006 NOSIG
ZGSZ,2003-06-05 10:00,ZGSZ 051000Z 18006MPS CAVOK 29/22 Q1006 NOSIG
ZGSZ,2003-06-05 11:00,ZGSZ 051100Z 16006MPS CAVOK 29/21 Q1006 NOSIG
ZGSZ,2003-06-05 12:00,ZGSZ 051200Z 14006MPS 8000 SKC 28/20 Q1006 NOSIG
ZGSZ,2003-06-05 13:00,ZGSZ 051300Z 12005MPS 8000 NSC 28/20 Q1007 NOSIG
ZGSZ,2003-06-05 14:00,ZGSZ 051400Z 09004MPS 6000 NSC 27/21 Q1007 NOSIG
ZGSZ,2003-06-05 15:00,ZGSZ 051500Z 10004MPS 6000 NSC 27/21 Q1007 NOSIG
ZGSZ,2003-06-05 16:00,ZGSZ 051600Z 13004MPS 5000 NSC 27/21 Q1006 NOSIG
ZGSZ,2003-06-05 17:00,ZGSZ 051700Z 13004MPS 5000 NSC 27/21 Q1006 NOSIG
ZGSZ,2003-06-05 18:00,ZGSZ 051800Z 12004MPS 3800 BR NSC 27/21 Q1005 NOSIG
ZGSZ,2003-06-05 19:00,ZGSZ 051900Z 10003MPS 3800 BR NSC 27/21 Q1005 NOSIG
ZGSZ,2003-06-05 20:00,ZGSZ 052000Z 09003MPS 3500 BR NSC 27/22 Q1004 NOSIG
ZGSZ,2003-06-05 21:00,ZGSZ 052100Z 12003MPS 3800 BR NSC 27/21 Q1004 NOSIG
ZGSZ,2003-06-05 22:00,ZGSZ 052200Z 10003MPS 7000 SCT040 BKN090 27/21 Q1004 NOSIG
ZGSZ,2003-06-05 23:00,ZGSZ 052300Z 11004MPS 8000 -SHRA SCT020 FEW023TCU SCT050 27/22 Q1004 NOSIG
ZGSZ,2003-06-06 00:00,ZGSZ 060000Z 21005MPS 8000 -SHRA SCT010 FEW026CB 26/23 Q1004 RERA NOSIG
ZGSZ,2003-06-06 01:00,ZGSZ 060100Z 14003MPS 6000 FEW011 BKN046 27/24 Q1004 NOSIG
ZGSZ,2003-06-06 02:00,ZGSZ 060200Z 15003MPS 9999 SCT020 FEW026TCU BKN050 28/24 Q1004 NOSIG
ZGSZ,2003-06-06 03:00,ZGSZ 060300Z 18004MPS 9999 FEW011 BKN020 BKN053 27/24 Q1004 NOSIG
ZGSZ,2003-06-06 04:00,ZGSZ 060400Z 17005MPS 9999 FEW020 BKN046 28/25 Q1003 NOSIG
ZGSZ,2003-06-06 05:00,ZGSZ 060500Z 16004MPS 9999 FEW011 BKN046 28/24 Q1002 NOSIG
ZGSZ,2003-06-06 06:00,ZGSZ 060600Z 17004MPS 9999 FEW011 BKN046 29/24 Q1001 NOSIG
ZGSZ,2003-06-06 07:00,ZGSZ 060700Z 15005MPS 9999 SCT023 BKN050 29/25 Q1000 NOSIG
ZGSZ,2003-06-06 08:00,ZGSZ 060800Z 15007MPS 9999 SCT023 SCT100 29/25 Q0999 NOSIG
ZGSZ,2003-06-06 09:00,ZGSZ 060900Z 23008G15MPS 1200 R15/P1500N TSRA BKN007 SCT030CB KN040 23/21 Q1001 TEMPO 1000 TSRA SCT010 SCT030CB BKN040
ZGSZ,2003-06-06 10:00,ZGSZ 061000Z 15001MPS 9999 FEW015 FEW033CB BKN046 25/23 Q1000 RETSRA TEMPO 1000 TSRA SCT010 SCT030CB BKN040
ZGSZ,2003-06-06 11:00,ZGSZ 061100Z 14002MPS 8000 -SHRA SCT010 FEW040CB BKN040 26/24 Q1000 NOSIG
ZGSZ,2003-06-06 12:00,ZGSZ 061200Z 18003MPS 6000 -RA FEW009 OVC036 27/25 Q1001 NOSIG
ZGSZ,2003-06-06 13:00,ZGSZ 061300Z 18004MPS 7000 -RA FEW010 OVC040 27/25 Q1001 NOSIG
ZGSZ,2003-06-06 14:00,ZGSZ 061400Z 14003MPS 9999 FEW012 BKN043 27/25 Q1001 NOSIG
ZGSZ,2003-06-06 15:00,ZGSZ 061500Z 18003MPS 9999 -RA FEW014 OVC040 28/25 Q1002 NOSIG
ZGSZ,2003-06-06 16:00,ZGSZ 061600Z 16002MPS 9999 -RA OVC040 27/25 Q1001 NOSIG
ZGSZ,2003-06-06 17:00,ZGSZ 061700Z 17002MPS 6000 -RA OVC040 27/25 Q1000 NOSIG
ZGSZ,2003-06-06 18:00,ZGSZ 061800Z 18003MPS 6000 -RA OVC036 27/25 Q1000 NOSIG
ZGSZ,2003-06-06 19:00,ZGSZ 061900Z 19003MPS 7000 -RA SCT011 OVC036 27/25 Q0999 NOSIG
ZGSZ,2003-06-06 20:00,ZGSZ 062000Z 18003MPS 7000 -RA SCT010 OVC036 27/25 Q0999 NOSIG
ZGSZ,2003-06-06 21:00,ZGSZ 062100Z 18002MPS 7000 BKN043 27/25 Q0999 NOSIG
ZGSZ,2003-06-06 22:00,ZGSZ 062200Z 18002MPS 9999 FEW014 OVC040 27/25 Q1000 NOSIG
ZGSZ,2003-06-06 23:00,ZGSZ 062300Z 22007MPS 2000 SHRA SCT010 FEW030CB BKN040 26/24 Q1001 NOSIG
ZGSZ,2003-06-07 00:00,ZGSZ 070000Z 27004MPS 9999 FEW012 FEW026CB BKN040 27/24 Q1001 NOSIG
ZGSZ,2003-06-07 01:00,ZGSZ 070100Z 30004MPS 9999 -SHRA FEW013 FEW026CB BKN050 25/22 Q1002 TEMPO VRB08MPS 1500 TSRA SCT010 SCT026CB 0VC040
ZGSZ,2003-06-07 02:00,ZGSZ 070200Z 29002MPS 9999 -RA FEW013 BKN050 25/22 Q1002 TEMPO VRB08MPS 1500 TSRA SCT010 SCT026CB 0VC040
ZGSZ,2003-06-07 03:00,ZGSZ 070300Z 29003MPS 7000 -RA FEW015 BKN040 BKN060 25/23 Q1002 NOSIG
ZGSZ,2003-06-07 04:00,ZGSZ 070400Z 33003MPS 7000 FEW016 BKN021 BKN050 26/23 Q1001 NOSIG
ZGSZ,2003-06-07 05:00,ZGSZ 070500Z 34003MPS 6000 NSC 27/24 Q1000 NOSIG
ZGSZ,2003-06-07 06:00,ZGSZ 070600Z 31003MPS 5000 FEW021 BKN060 29/24 Q1000 NOSIG
ZGSZ,2003-06-07 07:00,ZGSZ 070700Z 27003MPS 2800 -SHRA BR SCT018 FEW018TCU BKN033 28/24 Q1000 NOSIG
ZGSZ,2003-06-07 08:00,ZGSZ 070800Z 30003MPS 8000 NSC 28/23 Q1000 NOSIG
ZGSZ,2003-06-07 09:00,ZGSZ 070900Z 27002MPS 8000 NSC 28/24 Q1000 NOSIG
ZGSZ,2003-06-07 10:00,ZGSZ 071000Z 21002MPS 8000 NSC 28/24 Q1000 NOSIG
ZGSZ,2003-06-07 11:00,ZGSZ 071100Z 24002MPS 6000 NSC 27/24 Q1001 NOSIG
ZGSZ,2003-06-07 12:00,ZGSZ 071200Z 24003MPS 6000 NSC 27/24 Q1002 NOSIG
ZGSZ,2003-06-07 13:00,ZGSZ 071300Z 25003MPS 4500 BR BKN040 BKN060 27/23 Q1002 NOSIG
ZGSZ,2003-06-07 14:00,ZGSZ 071400Z 35003MPS 4000 BR BKN040 BKN060 27/23 Q1002 NOSIG
ZGSZ,2003-06-07 15:00,ZGSZ 071500Z 33001MPS 4000 BR BKN040 OVC050 27/23 Q1003 NOSIG
ZGSZ,2003-06-07 16:00,ZGSZ 071600Z 34002MPS 4000 BR SCT040 BKN053 26/23 Q1002 NOSIG
ZGSZ,2003-06-07 17:00,ZGSZ 071700Z 32002MPS 2300 BR OVC043 26/23 Q1001 NOSIG
ZGSZ,2003-06-07 18:00,ZGSZ 071800Z 30003MPS 2000 BR OVC040 26/23 Q1001 NOSIG
ZGSZ,2003-06-07 19:00,ZGSZ 071900Z 31003MPS 2100 BR SCT015 OVC040 26/23 Q1001 NOSIG
ZGSZ,2003-06-07 20:00,ZGSZ 072000Z 30003MPS 2100 BR SCT015 OVC040 26/23 Q1002 NOSIG
ZGSZ,2003-06-07 21:00,ZGSZ 072100Z 34002MPS 2100 BR SCT015 OVC040 26/23 Q1002 NOSIG
ZGSZ,2003-06-07 22:00,ZGSZ 072200Z 35003MPS 2100 BR SCT015 OVC040 26/22 Q1003 NOSIG
ZGSZ,2003-06-07 23:00,ZGSZ 072300Z 35001MPS 2700 BR SCT016 OVC040 26/23 Q1003 NOSIG
ZGSZ,2003-06-08 00:00,ZGSZ 080000Z 03002MPS 5000 BR FEW020 BKN070 27/22 Q1003 NOSIG
ZGSZ,2003-06-08 01:00,ZGSZ 080100Z 02002MPS 4500 BR FEW020 BKN100 28/22 Q1003 NOSIG
ZGSZ,2003-06-08 02:00,ZGSZ 080200Z 30002MPS 4500 BR SCT020 BKN050 28/23 Q1004 NOSIG
ZGSZ,2003-06-08 03:00,ZGSZ 080300Z 32003MPS 4000 HZ SCT020 BKN050 29/23 Q1003 NOSIG
ZGSZ,2003-06-08 04:00,ZGSZ 080400Z 29003MPS 4000 HZ FEW020 SCT053 30/23 Q1003 NOSIG
ZGSZ,2003-06-08 05:00,ZGSZ 080500Z 25003MPS 6000 FEW020 SCT053 30/22 Q1002 NOSIG
ZGSZ,2003-06-08 06:00,ZGSZ 080600Z 25002MPS 8000 FEW020 SCT053 31/22 Q1002 NOSIG
ZGSZ,2003-06-08 07:00,ZGSZ 080700Z 20003MPS 8000 FEW020 SCT053 30/22 Q1002 NOSIG
ZGSZ,2003-06-08 08:00,ZGSZ 080800Z 17005MPS 3000 BR FEW020 SCT053 30/25 Q1002 NOSIG
ZGSZ,2003-06-08 09:00,ZGSZ 080900Z 18006MPS 9000 BKN020 30/24 Q1002 NOSIG
ZGSZ,2003-06-08 10:00,ZGSZ 081000Z 09006MPS 9999 BKN020 29/23 Q1002 NOSIG
ZGSZ,2003-06-08 11:00,ZGSZ 081100Z 12006MPS CAVOK 28/23 Q1003 NOSIG
ZGSZ,2003-06-08 12:00,ZGSZ 081200Z 12005MPS CAVOK 27/23 Q1003 NOSIG
ZGSZ,2003-06-08 13:00,ZGSZ 081300Z 10005MPS CAVOK 27/23 Q1004 NOSIG
ZGSZ,2003-06-08 14:00,ZGSZ 081400Z 10004MPS CAVOK 27/23 Q1004 NOSIG
ZGSZ,2003-06-08 15:00,ZGSZ 081500Z 11004MPS 9999 FEW020 BKN050 27/23 Q1004 NOSIG
ZGSZ,2003-06-08 16:00,ZGSZ 081600Z 11004MPS CAVOK 27/23 Q1003 NOSIG
ZGSZ,2003-06-08 17:00,ZGSZ 081700Z 09004MPS CAVOK 27/23 Q1003 NOSIG
ZGSZ,2003-06-08 18:00,ZGSZ 081800Z AUTO 09010KT 5SM 26/24 RMK SLP034 T02640240 57015 IEM_DS3505
ZGSZ,2003-06-08 21:00,ZGSZ 082100Z AUTO 11004KT 9SM 25/23 RMK 70019 SLP034 T02530234 54000 IEM_DS3505
ZGSZ,2003-06-08 22:00,ZGSZ 082200Z 09005MPS 9999 FEW020 BKN043 26/22 Q1002 NOSIG
ZGSZ,2003-06-08 23:00,ZGSZ 082300Z 09006MPS 9999 BKN020 BKN060 26/22 Q1002 NOSIG
ZGSZ,2003-06-09 00:00,ZGSZ 090000Z 09007MPS 9999 FEW011 SCT020 BKN060 27/22 Q1002 NOSIG
ZGSZ,2003-06-09 01:00,ZGSZ 090100Z 09007MPS 9999 SCT018 FEW030CB BKN050 28/22 Q1003 TEMPO VRB08MPS 1800 TSRA SCT030CB
ZGSZ,2003-06-09 02:00,ZGSZ 090200Z 12006MPS 9999 -SHRA SCT010 FEW030CB BKN043 27/23 Q1003 TEMPO VRB08MPS 1800 TSRA SCT030CB
ZGSZ,2003-06-09 03:00,ZGSZ 090300Z 09006MPS 9999 -SHRA SCT008 SCT011 FEW030CB KN040 26/22 Q1003 TEMPO VRB08MPS 1800 TSRA SCT030CB
ZGSZ,2003-06-09 04:00,ZGSZ 090400Z 09003MPS 7000 -SHRA SCT009 FEW033CB BKN043 26/23 Q1003 NOSIG
ZGSZ,2003-06-09 05:00,ZGSZ 090500Z 11004MPS 9999 -SHRA SCT008 FEW030CB BKN040 26/23 Q1002 NOSIG
ZGSZ,2003-06-09 06:00,ZGSZ 090600Z 13004MPS 1600 TSRA BKN006 SCT030CB BKN030 25/23 Q1003 NOSIG
ZGSZ,2003-06-09 07:00,ZGSZ 090700Z 12005MPS 5000 -SHRA SCT007 FEW033CB BKN033 25/23 Q1002 NOSIG
ZGSZ,2003-06-09 08:00,ZGSZ 090800Z 13003MPS 9999 -SHRA SCT009 FEW040CB BKN050 26/23 Q1002 NOSIG
ZGSZ,2003-06-09 09:00,ZGSZ 090900Z 11003MPS 9999 FEW016 SCT040 BKN120 26/23 Q1001 NOSIG
ZGSZ,2003-06-09 10:00,ZGSZ 091000Z 09004MPS CAVOK 26/23 Q1001 NOSIG
ZGSZ,2003-06-09 11:00,ZGSZ 091100Z 14003MPS CAVOK 26/23 Q1002 NOSIG
ZGSZ,2003-06-09 12:00,ZGSZ 091200Z 11005MPS CAVOK 26/23 Q1002 NOSIG
ZGSZ,2003-06-09 13:00,ZGSZ 091300Z 09003MPS CAVOK 26/23 Q1002 NOSIG
ZGSZ,2003-06-09 14:00,ZGSZ 091400Z 08002MPS 9999 FEW026TCU FEW120 SCT260 26/23 Q1003 NOSIG
ZGSZ,2003-06-09 15:00,ZGSZ 091500Z 09004MPS 9999 FEW026TCU BKN060 26/23 Q1003 NOSIG
ZGSZ,2003-06-09 16:00,ZGSZ 091600Z 09002MPS 9999 FEW026TCU BKN050 26/23 Q1003 NOSIG
ZGSZ,2003-06-09 17:00,ZGSZ 091700Z 09003MPS 9999 FEW020TCU FEW023TCU BKN050 26/23 Q1002 NOSIG
ZGSZ,2003-06-09 18:00,ZGSZ 091800Z 09002MPS 9999 SCT020 FEW023TCU SCT050 26/23 Q1001 NOSIG
ZGSZ,2003-06-09 19:00,ZGSZ 091900Z 12003MPS 9999 SCT020 FEW023TCU BKN050 26/23 Q1001 NOSIG
ZGSZ,2003-06-09 20:00,ZGSZ 092000Z 14004MPS 9999 SCT021 BKN050 26/23 Q1001 NOSIG
ZGSZ,2003-06-09 21:00,ZGSZ 092100Z 12002MPS 9999 BKN021 FEW026CB 26/23 Q1001 NOSIG
ZGSZ,2003-06-09 22:00,ZGSZ 092200Z 01004MPS 9999 -TSRA BKN018 FEW026CB 25/22 Q1002 NOSIG
ZGSZ,2003-06-09 23:00,ZGSZ 092300Z 10004MPS 9999 SCT016 BKN033 25/22 Q1002 NOSIG
ZGSZ,2003-06-10 00:00,ZGSZ 100000Z 10004MPS 9999 FEW019 BKN040 26/23 Q1002 NOSIG
ZGSZ,2003-06-10 01:00,ZGSZ 100100Z 13004MPS 9999 -TS FEW026CB BKN050 OVC100 27/23 Q1002 NOSIG
ZGSZ,2003-06-10 02:00,ZGSZ 100200Z 14006MPS 9999 -RA SCT015 OVC043 25/22 Q1003 RETS RETS TEMPO VRB10MPS 1200 TSRA BKN007 SCT025CB OVC033
ZGSZ,2003-06-10 03:00,ZGSZ 100300Z 14005MPS 9999 FEW016 BKN060 26/23 Q1003 NOSIG
ZGSZ,2003-06-10 04:00,ZGSZ 100400Z 15004MPS 9999 SCT020 BKN100 26/23 Q1002 NOSIG
ZGSZ,2003-06-10 05:00,ZGSZ 100500Z 15004MPS 9999 SCT020 BKN060 27/23 Q1002 NOSIG
ZGSZ,2003-06-10 06:00,ZGSZ 100600Z 18005MPS 9999 SCT020 BKN060 27/24 Q1001 NOSIG
ZGSZ,2003-06-10 07:00,ZGSZ 100700Z 17005MPS 9999 SCT020 BKN050 28/24 Q1001 NOSIG
ZGSZ,2003-06-10 08:00,ZGSZ 100800Z 14005MPS 9999 SCT023 BKN053 29/24 Q1000 NOSIG
ZGSZ,2003-06-10 09:00,ZGSZ 100900Z 12004MPS 9999 SCT020 BKN043 28/24 Q1000 NOSIG
ZGSZ,2003-06-10 10:00,ZGSZ 101000Z 11005MPS 9999 SCT018 FEW030TCU BKN043 28/24 Q1000 TEMPO VRB08MPS 1500 TSRA SCT010 SCT025CB OVC033
ZGSZ,2003-06-10 11:00,ZGSZ 101100Z 13005MPS 9999 SCT017 FEW030CB BKN043 28/24 Q1001 TEMPO VRB08MPS 1500 TSRA SCT010 SCT025CB OVC033
ZGSZ,2003-06-10 12:00,ZGSZ 101200Z 18008G14MPS 1200 R15/P1500N +TSRA BKN007 SCT030CB BKN040 24/22 Q1002 TEMPO 0600 +TSRA BKN008 BKN025CB OVC033
ZGSZ,2003-06-10 13:00,ZGSZ 101300Z 17006MPS 6000 -TSRA SCT010 FEW030CB BKN040 25/22 Q1 002 NOSIG
ZGSZ,2003-06-10 14:00,ZGSZ 101400Z 12004MPS 8000 -SHRA SCT011 FEW030CB BKN040 24/22 Q1 002 RETS NOSIG
ZGSZ,2003-06-10 15:00,ZGSZ 101500Z 12002MPS 9999 SCT015 FEW030CB BKN040 24/22 Q1002 NO SIG
ZGSZ,2003-06-10 16:00,ZGSZ 101600Z 12005MPS 5000 -SHRA SCT013 FEW030CB BKN040 25/22 Q1 002 NOSIG
ZGSZ,2003-06-10 17:00,ZGSZ 101700Z 14003MPS 9999 SCT015 FEW033CB BKN040 25/23 Q1001 NO SIG
ZGSZ,2003-06-10 18:00,ZGSZ 101800Z 17006MPS 9999 SCT017 BKN043 25/23 Q1001 NOSIG
ZGSZ,2003-06-10 19:00,ZGSZ 101900Z 15007MPS 4500 -SHRA SCT010 FEW030CB BKN040 25/23 Q1 000 NOSIG
ZGSZ,2003-06-10 20:00,ZGSZ 102000Z 18004MPS 9999 SCT012 FEW030CB BKN040 26/24 Q1000 NO SIG
ZGSZ,2003-06-10 21:00,ZGSZ 102100Z 17005MPS 9999 SCT017 BKN050 26/24 Q1000 NOSIG
ZGSZ,2003-06-10 22:00,ZGSZ 102200Z 15004MPS 9999 SCT018 BKN050 26/23 Q1001 NOSIG
ZGSZ,2003-06-10 23:00,ZGSZ 102300Z 18005MPS 9999 SCT017 BKN050 26/24 Q1001 NOSIG
ZGSZ,2003-06-11 00:00,ZGSZ 110000Z 18005MPS 9999 FEW017 BKN053 27/24 Q1001 NOSIG
ZGSZ,2003-06-11 01:00,ZGSZ 110100Z 18005MPS 9999 BKN020 BKN050 27/24 Q1001 NOSIG
ZGSZ,2003-06-11 02:00,ZGSZ 110200Z 18005MPS 9999 FEW010 BKN020 BKN060 27/24 Q1002 NOSIG
ZGSZ,2003-06-11 03:00,ZGSZ 110300Z 18006MPS 9999 BKN020 FEW030TCU BKN060 27/24 Q1002 NOSIG
ZGSZ,2003-06-11 04:00,ZGSZ 110400Z 18005MPS 9999 BKN020 FEW030CB BKN060 27/24 Q1002 NOSIG
ZGSZ,2003-06-11 05:00,ZGSZ 110500Z 18006MPS 9999 SCT010 BKN020 FEW026CB BKN050 26/23 Q1002 NOSIG
ZGSZ,2003-06-11 06:00,ZGSZ 110600Z 18005MPS 9999 -SHRA BKN012 FEW026CB BKN040 25/23 Q1002 RETS TEMPO 1300 TSRA BKN015 SCT026CB BKN030
ZGSZ,2003-06-11 07:00,ZGSZ 110700Z 17005MPS 9999 -SHRA SCT010 SCT017 FEW030CB KN040 25/23 Q1002 RETS TEMPO 1300 TSRA BKN015 SCT026CB BKN030
ZGSZ,2003-06-11 08:00,ZGSZ 110800Z 18005MPS 9999 -SHRA SCT010 SCT017 FEW030CB KN043 25/23 Q1001 TEMPO 1300 TSRA BKN015 SCT026CB BKN030
ZGSZ,2003-06-11 09:00,ZGSZ 110900Z 16005MPS 9999 SCT012 BKN046 25/23 Q1000 TEMPO 1300 TSRA BKN015 SCT026CB BKN030
ZGSZ,2003-06-11 10:00,ZGSZ 111000Z 15004MPS 9999 FEW015 BKN060 26/23 Q1001 NOSIG
ZGSZ,2003-06-11 11:00,ZGSZ 111100Z 18006MPS 9999 SCT015 BKN060 26/23 Q1002 NOSIG
ZGSZ,2003-06-11 12:00,ZGSZ 111200Z 18004MPS CAVOK 26/22 Q1002 NOSIG
ZGSZ,2003-06-11 13:00,ZGSZ 111300Z 16004MPS CAVOK 26/22 Q1002 NOSIG
ZGSZ,2003-06-11 14:00,ZGSZ 111400Z 16003MPS 9999 BKN018 26/23 Q1002 NOSIG
ZGSZ,2003-06-11 15:00,ZGSZ 111500Z 13002MPS 9999 BKN017 25/23 Q1003 NOSIG
ZGSZ,2003-06-11 16:00,ZGSZ 111600Z 13002MPS 9999 SCT016 25/23 Q1003 NOSIG
ZGSZ,2003-06-11 17:00,ZGSZ 111700Z 00000MPS 6000 BKN016 26/23 Q1003 NOSIG
ZGSZ,2003-06-11 18:00,ZGSZ 111800Z 36001MPS 6000 FEW017 BKN040 25/23 Q1002 NOSIG
ZGSZ,2003-06-11 19:00,ZGSZ 111900Z 12002MPS 7000 BKN040 25/22 Q1002 NOSIG
ZGSZ,2003-06-11 20:00,ZGSZ 112000Z 10001MPS 7000 BKN040 25/22 Q1002 NOSIG
ZGSZ,2003-06-11 21:00,ZGSZ 112100Z 09001MPS 6000 NSC 25/22 Q1002 NOSIG
ZGSZ,2003-06-11 22:00,ZGSZ 112200Z 12001MPS 4500 BR SCT046 BKN070 25/22 Q1002 NOSIG
ZGSZ,2003-06-11 23:00,ZGSZ 112300Z 12001MPS 4000 BR SCT043 BKN060 25/23 Q1003 NOSIG
ZGSZ,2003-06-12 00:00,ZGSZ 120000Z 00000MPS 4500 BR FEW020 BKN060 27/23 Q1003 NOSIG
ZGSZ,2003-06-12 01:00,ZGSZ 120100Z 17002MPS 4500 BR FEW020 BKN033 BKN046 26/23 Q1004 NOSIG
ZGSZ,2003-06-12 02:00,ZGSZ 120200Z 15002MPS 9999 FEW020 BKN033 BKN110 26/23 Q1004 NOSIG
ZGSZ,2003-06-12 03:00,ZGSZ 120300Z 19001MPS 9999 BKN040 27/23 Q1004 NOSIG
ZGSZ,2003-06-12 04:00,ZGSZ 120400Z 17003MPS 9999 FEW020 BKN040 BKN110 27/23 Q1005 NOSIG
ZGSZ,2003-06-12 05:00,ZGSZ 120500Z 23001MPS 9999 FEW023 BKN050 28/23 Q1004 NOSIG
ZGSZ,2003-06-12 06:00,ZGSZ 120600Z 23001MPS CAVOK 28/23 Q1003 NOSIG
ZGSZ,2003-06-12 07:00,ZGSZ 120700Z 21004G10MPS 1200 R15/1000N TSRA BKN012 SCT020CB 25/22 Q1004 TEMPO VRB06MPS 1800 TSRA SCT030CB
ZGSZ,2003-06-12 08:00,ZGSZ 120800Z 17003MPS 9999 BKN018 FEW023CB 26/24 Q1003 RETS NOSIG
ZGSZ,2003-06-12 09:00,ZGSZ 120900Z 14005MPS 9999 FEW020 OVC060 27/24 Q1003 NOSIG
ZGSZ,2003-06-12 10:00,ZGSZ 121000Z 17004MPS 9999 FEW023 BKN070 27/24 Q1002 NOSIG
ZGSZ,2003-06-12 11:00,ZGSZ 121100Z 18003MPS 9999 SCT026 BKN100 26/24 Q1002 NOSIG
ZGSZ,2003-06-12 12:00,ZGSZ 121200Z 18004MPS 9999 SCT040 BKN060 26/24 Q1004 NOSIG
ZGSZ,2003-06-12 13:00,ZGSZ 121300Z 17004MPS 9999 SCT043 BKN070 27/24 Q1005 NOSIG
ZGSZ,2003-06-12 14:00,ZGSZ 121400Z 17005MPS CAVOK 26/23 Q1005 NOSIG
ZGSZ,2003-06-12 15:00,ZGSZ 121500Z 17003MPS 9999 FEW020 BKN110 26/24 Q1005 NOSIG
ZGSZ,2003-06-12 16:00,ZGSZ 121600Z 18004MPS CAVOK 26/23 Q1005 NOSIG
ZGSZ,2003-06-12 17:00,ZGSZ 121700Z 18005MPS CAVOK 27/23 Q1005 NOSIG
ZGSZ,2003-06-12 18:00,ZGSZ 121800Z 18004MPS CAVOK 27/23 Q1005 NOSIG
ZGSZ,2003-06-12 19:00,ZGSZ 121900Z 17003MPS CAVOK 27/24 Q1004 NOSIG
ZGSZ,2003-06-12 20:00,ZGSZ 122000Z 17003MPS CAVOK 26/24 Q1004 NOSIG
ZGSZ,2003-06-12 21:00,ZGSZ 122100Z 15003MPS CAVOK 26/24 Q1004 NOSIG
ZGSZ,2003-06-12 22:00,ZGSZ 122200Z 15003MPS CAVOK 27/24 Q1004 NOSIG
ZGSZ,2003-06-12 23:00,ZGSZ 122300Z 17004MPS 9999 FEW023 BKN120 27/24 Q1004 NOSIG
ZGSZ,2003-06-13 00:00,ZGSZ 130000Z 17003MPS 9999 FEW026 BKN150 28/24 Q1005 NOSIG
ZGSZ,2003-06-13 01:00,ZGSZ 130100Z 16003MPS 9999 FEW018 BKN043 27/24 Q1005 NOSIG
ZGSZ,2003-06-13 02:00,ZGSZ 130200Z 18006MPS 9999 FEW017 BKN050 BKN130 27/24 Q1005 NOSIG
ZGSZ,2003-06-13 03:00,ZGSZ 130300Z 18006MPS 9999 SCT016 BKN050 BKN130 27/24 Q1006 NOSIG
ZGSZ,2003-06-13 04:00,ZGSZ 130400Z 18005MPS 9999 SCT017 BKN053 27/24 Q1005 NOSIG
ZGSZ,2003-06-13 05:00,ZGSZ 130500Z 16003MPS 9999 -SHRA SCT015 FEW030TCU BKN046 26/24 Q1006 NOSIG
ZGSZ,2003-06-13 06:00,ZGSZ 130600Z 17004MPS 9999 -RA SCT016 BKN046 27/24 Q1005 NOSIG
ZGSZ,2003-06-13 07:00,ZGSZ 130700Z 16003MPS 9999 FEW016 FEW030CB BKN043 27/24 Q1005 TEMPO VRB10MPS 0600 +TSRA SCT007 BKN030CB OVC040
ZGSZ,2003-06-13 08:00,ZGSZ 130800Z 14001MPS 4000 -TSRA SCT008 FEW030CB BKN043 23/21 Q1005 RETSRA TEMPO VRB10MPS 0600 +TSRA SCT007 BKN030CB OVC040
ZGSZ,2003-06-13 09:00,ZGSZ 130900Z 14003MPS 9999 -TSRA SCT010 FEW040CB BKN040 24/22 Q1005 NOSIG
ZGSZ,2003-06-13 10:00,ZGSZ 131000Z 13003MPS 5000 -SHRA SCT010 FEW040CB BKN043 25/22 Q1005 NOSIG
ZGSZ,2003-06-13 11:00,ZGSZ 131100Z 11003MPS 9999 SCT010 FEW040CB BKN046 25/22 Q1005 NOSIG
ZGSZ,2003-06-13 12:00,ZGSZ 131200Z 13004MPS 6000 FEW010 BKN050 25/22 Q1005 NOSIG
ZGSZ,2003-06-13 13:00,ZGSZ 131300Z 13004MPS CAVOK 25/22 Q1006 NOSIG
ZGSZ,2003-06-13 14:00,ZGSZ 131400Z 12004MPS CAVOK 25/22 Q1006 NOSIG
ZGSZ,2003-06-13 15:00,ZGSZ 131500Z 11003MPS 9999 FEW050CB BKN060 25/23 Q1006 NOSIG
ZGSZ,2003-06-13 16:00,ZGSZ 131600Z 12002MPS CAVOK 25/23 Q1006 NOSIG
ZGSZ,2003-06-13 17:00,ZGSZ 131700Z 10002MPS CAVOK 26/23 Q1005 NOSIG
ZGSZ,2003-06-13 18:00,ZGSZ 131800Z 13002MPS 9999 SCT026 BKN060 26/23 Q1005 NOSIG
ZGSZ,2003-06-13 19:00,ZGSZ 131900Z 11001MPS 9999 BKN026 BKN060 26/23 Q1005 NOSIG
ZGSZ,2003-06-13 20:00,ZGSZ 132000Z 13002MPS 9999 BKN026 BKN060 26/23 Q1004 NOSIG
ZGSZ,2003-06-13 21:00,ZGSZ 132100Z 02001MPS 9999 -TSRA BKN020 FEW033CB BKN050 26/23 Q1004 NOSIG
ZGSZ,2003-06-13 22:00,ZGSZ 132200Z 03001MPS 4000 -TSRA FEW010 SCT017 FEW043CB KN050 25/23 Q1005 NOSIG
ZGSZ,2003-06-13 23:00,ZGSZ 132300Z 09001MPS 9999 FEW010 SCT020 BKN060 26/24 Q1005 NOSIG
ZGSZ,2003-06-14 00:00,ZGSZ 140000Z 36002MPS 3000 BR FEW010 BKN026 BKN050 26/24 Q1005 NOSIG
ZGSZ,2003-06-14 01:00,ZGSZ 140100Z 35003MPS 3000 BR SCT018 FEW033CB BKN046 27/24 Q1006 NOSIG
ZGSZ,2003-06-14 02:00,ZGSZ 140200Z 12001MPS 6000 SCT016 FEW030CB BKN050 27/24 Q1005 NOSIG
ZGSZ,2003-06-14 03:00,ZGSZ 140300Z 08002MPS 5000 BR SCT017 SCT070 27/24 Q1005 RERA NOSIG
ZGSZ,2003-06-14 04:00,ZGSZ 140400Z 14004MPS 9999 SCT018 FEW033CB BKN050 28/24 Q1006 NOSIG
ZGSZ,2003-06-14 05:00,ZGSZ 140500Z 17004MPS 9999 SCT017 FEW033CB BKN050 28/25 Q1004 NOSIG
ZGSZ,2003-06-14 06:00,ZGSZ 140600Z 17004MPS 9999 FEW017 FEW040CB BKN040 27/24 Q1004 NOSIG
ZGSZ,2003-06-14 07:00,ZGSZ 140700Z 17003MPS 9999 -SHRA SCT018 FEW030CB BKN046 27/24 Q1004 NOSIG
ZGSZ,2003-06-14 08:00,ZGSZ 140800Z 18002MPS 2500 -TSRA SCT012 FEW030CB BKN040 27/24 Q1004 TEMPO VRB07MPS 1200 TSRA SCT030CB
ZGSZ,2003-06-14 09:00,ZGSZ 140900Z 30009MPS 8000 -TSRA SCT010 FEW026CB BKN033 24/22 Q1004 TEMPO VRB07MPS 1200 TSRA SCT030CB
ZGSZ,2003-06-14 10:00,ZGSZ 141000Z 01002MPS 9999 -TSRA FEW010 FEW030CB BKN030 24/22 Q1004 TEMPO VRB07MPS 1200 TSRA SCT030CB
ZGSZ,2003-06-14 11:00,ZGSZ 141100Z 08001MPS 8000 -RA FEW010 OVC050 24/22 Q1004 NOSIG
ZGSZ,2003-06-14 12:00,ZGSZ 141200Z 06001MPS 7000 NSC 24/22 Q1005 NOSIG
ZGSZ,2003-06-14 13:00,ZGSZ 141300Z 10001MPS 7000 NSC 24/22 Q1005 NOSIG
ZGSZ,2003-06-14 14:00,ZGSZ 141400Z 11003MPS 7000 NSC 25/22 Q1005 NOSIG
ZGSZ,2003-06-14 15:00,ZGSZ 141500Z 11003MPS 6000 NSC 25/22 Q1005 NOSIG
ZGSZ,2003-06-14 16:00,ZGSZ 141600Z 12002MPS 7000 BKN046 25/22 Q1005 NOSIG
ZGSZ,2003-06-14 17:00,ZGSZ 141700Z 36001MPS 7000 NSC 25/22 Q1004 NOSIG
ZGSZ,2003-06-14 18:00,ZGSZ 141800Z 36001MPS 7000 NSC 24/22 Q1004 NOSIG
ZGSZ,2003-06-14 19:00,ZGSZ 141900Z 02002MPS 7000 NSC 24/22 Q1004 NOSIG
ZGSZ,2003-06-14 20:00,ZGSZ 142000Z 08002MPS 7000 NSC 24/22 Q1004 NOSIG
ZGSZ,2003-06-14 21:00,ZGSZ 142100Z 01003MPS 6000 NSC 24/22 Q1004 NOSIG
ZGSZ,2003-06-14 22:00,ZGSZ 142200Z 03003MPS 4500 BR NSC 24/21 Q1004 NOSIG
ZGSZ,2003-06-14 23:00,ZGSZ 142300Z 02001MPS 5000 BKN018 BKN043 24/21 Q1004 NOSIG
ZGSZ,2003-06-15 00:00,ZGSZ 150000Z 01002MPS 5000 BKN028 24/22 Q1005 NOSIG
ZGSZ,2003-06-15 01:00,ZGSZ 150100Z 36003MPS 7000 BKN033 BKN050 25/22 Q1005 NOSIG
ZGSZ,2003-06-15 02:00,ZGSZ 150200Z 05003MPS 7000 SCT016 OVC043 26/23 Q1005 NOSIG
ZGSZ,2003-06-15 03:00,ZGSZ 150300Z 02003MPS 7000 SCT016 OVC043 26/22 Q1005 NOSIG
ZGSZ,2003-06-15 04:00,ZGSZ 150400Z 01004MPS 6000 BKN016 OVC040 25/22 Q1005 NOSIG
ZGSZ,2003-06-15 05:00,ZGSZ 150500Z 01004MPS 8000 SCT020 OVC050 25/22 Q1004 NOSIG
ZGSZ,2003-06-15 06:00,ZGSZ 150600Z 02004MPS 9999 FEW020 OVC050 27/22 Q1004 NOSIG
ZGSZ,2003-06-15 07:00,ZGSZ 150700Z 01003MPS 9999 SCT033 OVC050 27/22 Q1003 NOSIG
ZGSZ,2003-06-15 08:00,ZGSZ 150800Z 02004MPS 9999 OVC040 27/23 Q1003 NOSIG
ZGSZ,2003-06-15 09:00,ZGSZ 150900Z 01003MPS 8000 FEW018 BKN040 27/22 Q1003 NOSIG
ZGSZ,2003-06-15 10:00,ZGSZ 151000Z 01003MPS 5000 BR FEW018 BKN046 28/22 Q1002 NOSIG
ZGSZ,2003-06-15 11:00,ZGSZ 151100Z 02004MPS 5000 BR FEW018 BKN046 27/22 Q1003 NOSIG
ZGSZ,2003-06-15 12:00,ZGSZ 151200Z 03003MPS 6000 SCT017 BKN040 26/22 Q1003 NOSIG
ZGSZ,2003-06-15 13:00,ZGSZ 151300Z 02001MPS 6000 SCT017 BKN040 26/22 Q1004 NOSIG
ZGSZ,2003-06-15 14:00,ZGSZ 151400Z 07001MPS 6000 SCT017 BKN040 26/22 Q1004 NOSIG
ZGSZ,2003-06-15 15:00,ZGSZ 151500Z 34001MPS 6000 SCT017 BKN040 26/22 Q1004 NOSIG
ZGSZ,2003-06-15 16:00,ZGSZ 151600Z 03001MPS 6000 SCT017 BKN040 26/22 Q1004 NOSIG
ZGSZ,2003-06-15 17:00,ZGSZ 151700Z 02001MPS 8000 SCT017 BKN040 26/22 Q1004 NOSIG
ZGSZ,2003-06-15 18:00,ZGSZ 151800Z 04002MPS 8000 SCT017 BKN040 26/22 Q1003 NOSIG
ZGSZ,2003-06-15 19:00,ZGSZ 151900Z 36002MPS 8000 SCT017 BKN040 25/22 Q1003 NOSIG
ZGSZ,2003-06-15 20:00,ZGSZ 152000Z 04002MPS 6000 SCT017 BKN040 25/22 Q1003 NOSIG
ZGSZ,2003-06-15 21:00,ZGSZ 152100Z 02003MPS 6000 SCT017 BKN040 25/22 Q1003 NOSIG
ZGSZ,2003-06-15 22:00,ZGSZ 152200Z 03003MPS 8000 SCT017 BKN040 25/22 Q1004 NOSIG
ZGSZ,2003-06-15 23:00,ZGSZ 152300Z 03003MPS 9999 SCT017 BKN043 25/22 Q1004 NOSIG
ZGSZ,2003-06-16 00:00,ZGSZ 160000Z 36003MPS 9999 FEW018 OVC040 26/22 Q1004 NOSIG
ZGSZ,2003-06-16 01:00,ZGSZ 160100Z 04001MPS 9999 BKN026 BKN050 26/23 Q1005 NOSIG
ZGSZ,2003-06-16 02:00,ZGSZ 160200Z 04002MPS 9999 BKN020 BKN050 28/23 Q1005 NOSIG
ZGSZ,2003-06-16 03:00,ZGSZ 160300Z 09004MPS 9999 BKN020 BKN060 28/23 Q1005 NOSIG
ZGSZ,2003-06-16 04:00,ZGSZ 160400Z 08003MPS 9999 BKN026 BKN050 29/23 Q1005 NOSIG
ZGSZ,2003-06-16 05:00,ZGSZ 160500Z 13005MPS 9999 BKN020 FEW030TCU 29/23 Q1004 NOSIG
ZGSZ,2003-06-16 06:00,ZGSZ 160600Z 07002MPS 9999 BKN020 FEW030TCU 30/23 Q1004 NOSIG
ZGSZ,2003-06-16 07:00,ZGSZ 160700Z 06002MPS 9999 -SHRA BKN020 FEW030CB BKN050 27/23 Q1004 NOSIG
ZGSZ,2003-06-16 08:00,ZGSZ 160800Z 10005MPS 9999 BKN020 FEW040CB BKN050 27/23 Q1003 RETS NOSIG
ZGSZ,2003-06-16 09:00,ZGSZ 160900Z 07002MPS 9999 SCT020 BKN070 28/23 Q1003 NOSIG
ZGSZ,2003-06-16 10:00,ZGSZ 161000Z 07003MPS 9999 FEW018 BKN060 28/22 Q1004 NOSIG
ZGSZ,2003-06-16 11:00,ZGSZ 161100Z 09003MPS 9999 SCT017 SCT050 27/22 Q1004 NOSIG
ZGSZ,2003-06-16 12:00,ZGSZ 161200Z 10002MPS 6000 SCT016 BKN046 27/22 Q1005 NOSIG
ZGSZ,2003-06-16 13:00,ZGSZ 161300Z 06003MPS 5000 BR SCT017 BKN050 26/22 Q1006 NOSIG
ZGSZ,2003-06-16 14:00,ZGSZ 161400Z 08004MPS 6000 SCT016 BKN053 26/22 Q1006 NOSIG
ZGSZ,2003-06-16 15:00,ZGSZ 161500Z 06005MPS 7000 SCT016 BKN050 25/22 Q1006 NOSIG
ZGSZ,2003-06-16 16:00,ZGSZ 161600Z 08002MPS 6000 SCT015 SCT060 25/22 Q1007 NOSIG
ZGSZ,2003-06-16 17:00,ZGSZ 161700Z 10002MPS 6000 FEW015 BKN060 24/21 Q1007 NOSIG
ZGSZ,2003-06-16 18:00,ZGSZ 161800Z 13003MPS 4800 BR NSC 24/21 Q1006 NOSIG
ZGSZ,2003-06-16 19:00,ZGSZ 161900Z 08001MPS 4500 BR NSC 25/21 Q1006 NOSIG
ZGSZ,2003-06-16 20:00,ZGSZ 162000Z 02002MPS 4500 BR NSC 25/21 Q1006 NOSIG
ZGSZ,2003-06-16 21:00,ZGSZ 162100Z 36002MPS 5000 BR NSC 25/21 Q1006 NOSIG
ZGSZ,2003-06-16 22:00,ZGSZ 162200Z 36002MPS 7000 NSC 25/21 Q1006 NOSIG
ZGSZ,2003-06-16 23:00,ZGSZ 162300Z 04001MPS 8000 BKN046 25/21 Q1006 NOSIG
ZGSZ,2003-06-17 00:00,ZGSZ 170000Z 02002MPS 7000 BKN043 26/22 Q1007 NOSIG
ZGSZ,2003-06-17 01:00,ZGSZ 170100Z 02001MPS 9000 BKN043 27/21 Q1007 NOSIG
ZGSZ,2003-06-17 02:00,ZGSZ 170200Z 27002MPS 9999 FEW025 BKN043 27/22 Q1006 NOSIG
ZGSZ,2003-06-17 03:00,ZGSZ 170300Z 26003MPS 9999 BKN046 28/21 Q1006 NOSIG
ZGSZ,2003-06-17 04:00,ZGSZ 170400Z 25003MPS CAVOK 28/21 Q1006 NOSIG
ZGSZ,2003-06-17 05:00,ZGSZ 170500Z 23003MPS CAVOK 29/19 Q1005 NOSIG
ZGSZ,2003-06-17 06:00,ZGSZ 170600Z 23003MPS CAVOK 30/21 Q1005 NOSIG
ZGSZ,2003-06-17 07:00,ZGSZ 170700Z 22002MPS CAVOK 30/21 Q1004 NOSIG
ZGSZ,2003-06-17 08:00,ZGSZ 170800Z 20002MPS CAVOK 30/20 Q1004 NOSIG
ZGSZ,2003-06-17 09:00,ZGSZ 170900Z 18002MPS CAVOK 30/18 Q1004 NOSIG
ZGSZ,2003-06-17 10:00,ZGSZ 171000Z 19002MPS CAVOK 29/21 Q1004 NOSIG
ZGSZ,2003-06-17 11:00,ZGSZ 171100Z 18003MPS CAVOK 28/21 Q1004 NOSIG
ZGSZ,2003-06-17 12:00,ZGSZ 171200Z 17003MPS CAVOK 27/22 Q1005 NOSIG
ZGSZ,2003-06-17 13:00,ZGSZ 171300Z 17003MPS CAVOK 27/23 Q1005 NOSIG
ZGSZ,2003-06-17 14:00,ZGSZ 171400Z 19004MPS CAVOK 27/24 Q1006 NOSIG
ZGSZ,2003-06-17 15:00,ZGSZ 171500Z 21003MPS 8000 NSC 27/24 Q1006 NOSIG
ZGSZ,2003-06-17 16:00,ZGSZ 171600Z 20003MPS 7000 NSC 27/24 Q1006 NOSIG
ZGSZ,2003-06-17 17:00,ZGSZ 171700Z 23002MPS 7000 NSC 27/24 Q1006 NOSIG
ZGSZ,2003-06-17 18:00,ZGSZ 171800Z 22002MPS 5000 BR NSC 27/24 Q1006 NOSIG
ZGSZ,2003-06-17 19:00,ZGSZ 171900Z 18002MPS 5000 BR NSC 26/23 Q1005 NOSIG
ZGSZ,2003-06-17 20:00,ZGSZ 172000Z 18002MPS 5000 BR NSC 26/23 Q1005 NOSIG
ZGSZ,2003-06-17 21:00,ZGSZ 172100Z 11001MPS 6000 NSC 26/22 Q1005 NOSIG
ZGSZ,2003-06-17 22:00,ZGSZ 172200Z 00000MPS 3000 BR SCT043 BKN050 25/22 Q1005 NOSIG
ZGSZ,2003-06-17 23:00,ZGSZ 172300Z 32001MPS 4000 BR SCT040 BKN050 26/23 Q1006 NOSIG
ZGSZ,2003-06-18 00:00,ZGSZ 180000Z 28002MPS 4000 BR NSC 27/23 Q1006 NOSIG
ZGSZ,2003-06-18 01:00,ZGSZ 180100Z 28002MPS 2500 BR SKC 28/23 Q1006 NOSIG
ZGSZ,2003-06-18 02:00,ZGSZ 180200Z 25003MPS 2200 BR SKC 28/23 Q1005 NOSIG
ZGSZ,2003-06-18 03:00,ZGSZ 180300Z 26002MPS 2000 BR SKC 29/23 Q1005 NOSIG
ZGSZ,2003-06-18 04:00,ZGSZ 180400Z 22002MPS 2000 BR SKC 30/24 Q1004 NOSIG
ZGSZ,2003-06-18 05:00,ZGSZ 180500Z 23002MPS 3000 HZ SKC 31/23 Q1003 NOSIG
ZGSZ,2003-06-18 06:00,ZGSZ 180600Z 27004MPS 4000 HZ SKC 31/23 Q1002 NOSIG
ZGSZ,2003-06-18 07:00,ZGSZ 180700Z 27003MPS 4000 HZ FEW020 32/23 Q1002 NOSIG
ZGSZ,2003-06-18 08:00,ZGSZ 180800Z 26002MPS 3500 HZ FEW020 32/25 Q1001 NOSIG
ZGSZ,2003-06-18 09:00,ZGSZ 180900Z 22003MPS 5000 BR SKC 30/26 Q1001 NOSIG
ZGSZ,2003-06-18 10:00,ZGSZ 181000Z 14003MPS 5000 BR SKC 30/25 Q1001 NOSIG
ZGSZ,2003-06-18 11:00,ZGSZ 181100Z 14002MPS 3000 BR SKC 29/25 Q1001 NOSIG
ZGSZ,2003-06-18 12:00,ZGSZ 181200Z 14003MPS 4000 BR SKC 28/25 Q1002 NOSIG
ZGSZ,2003-06-18 13:00,ZGSZ 181300Z 14003MPS 4000 BR SKC 28/24 Q1002 NOSIG
ZGSZ,2003-06-18 14:00,ZGSZ 181400Z 14004MPS 6000 SKC 28/24 Q1003 NOSIG
ZGSZ,2003-06-18 15:00,ZGSZ 181500Z 14003MPS 8000 SKC 27/24 Q1003 NOSIG
ZGSZ,2003-06-18 16:00,ZGSZ 181600Z 14003MPS 8000 SKC 27/23 Q1003 NOSIG
ZGSZ,2003-06-18 17:00,ZGSZ 181700Z 14003MPS CAVOK 27/23 Q1003 NOSIG
ZGSZ,2003-06-18 18:00,ZGSZ 181800Z 14003MPS CAVOK 26/23 Q1003 NOSIG
ZGSZ,2003-06-18 19:00,ZGSZ 181900Z 14003MPS CAVOK 27/23 Q1002 NOSIG
ZGSZ,2003-06-18 20:00,ZGSZ 182000Z 14003MPS 5000 BR SKC 26/23 Q1002 NOSIG
ZGSZ,2003-06-18 21:00,ZGSZ 182100Z 12002MPS 2500 BR SKC 26/23 Q1002 NOSIG
ZGSZ,2003-06-18 22:00,ZGSZ 182200Z 11002MPS 1700 BR SKC 26/23 Q1003 NOSIG
ZGSZ,2003-06-18 23:00,ZGSZ 182300Z 13002MPS 3000 BR SKC 27/24 Q1003 NOSIG
ZGSZ,2003-06-19 00:00,ZGSZ 190000Z 14003MPS 5000 BR SKC 28/24 Q1003 NOSIG
ZGSZ,2003-06-19 01:00,ZGSZ 190100Z 18002MPS 5000 BR SKC 29/24 Q1003 NOSIG
ZGSZ,2003-06-19 02:00,ZGSZ 190200Z 17002MPS 6000 SKC 30/24 Q1003 NOSIG
ZGSZ,2003-06-19 03:00,ZGSZ 190300Z 20002MPS 7000 SKC 30/23 Q1003 NOSIG
ZGSZ,2003-06-19 04:00,ZGSZ 190400Z 22001MPS 6000 SKC 31/23 Q1003 NOSIG
ZGSZ,2003-06-19 05:00,ZGSZ 190500Z 23001MPS 6000 SKC 31/24 Q1002 NOSIG
ZGSZ,2003-06-19 06:00,ZGSZ 190600Z 21002MPS 7000 SKC 32/25 Q1002 NOSIG
ZGSZ,2003-06-19 07:00,ZGSZ 190700Z 19003MPS 8000 SKC 33/22 Q1001 NOSIG
ZGSZ,2003-06-19 08:00,ZGSZ 190800Z 21002MPS CAVOK 33/23 Q1001 NOSIG
ZGSZ,2003-06-19 09:00,ZGSZ 190900Z 18005MPS CAVOK 31/26 Q1001 NOSIG
ZGSZ,2003-06-19 10:00,ZGSZ 191000Z 18004MPS CAVOK 30/26 Q1001 NOSIG
ZGSZ,2003-06-19 11:00,ZGSZ 191100Z 18004MPS CAVOK 29/25 Q1001 NOSIG
ZGSZ,2003-06-19 12:00,ZGSZ 191200Z 18004MPS CAVOK 28/25 Q1002 NOSIG
ZGSZ,2003-06-19 13:00,ZGSZ 191300Z 18005MPS CAVOK 28/25 Q1002 NOSIG
ZGSZ,2003-06-19 14:00,ZGSZ 191400Z 17005MPS CAVOK 28/25 Q1003 NOSIG
ZGSZ,2003-06-19 15:00,ZGSZ 191500Z 17005MPS CAVOK 28/25 Q1003 NOSIG
ZGSZ,2003-06-19 16:00,ZGSZ 191600Z 14004MPS CAVOK 28/24 Q1003 NOSIG
ZGSZ,2003-06-19 17:00,ZGSZ 191700Z 14003MPS CAVOK 27/24 Q1002 NOSIG
ZGSZ,2003-06-19 18:00,ZGSZ 191800Z 09001MPS CAVOK 27/24 Q1002 NOSIG
ZGSZ,2003-06-19 19:00,ZGSZ 191900Z 09002MPS CAVOK 27/24 Q1003 NOSIG
ZGSZ,2003-06-19 20:00,ZGSZ 192000Z 09003MPS CAVOK 27/24 Q1002 NOSIG
ZGSZ,2003-06-19 21:00,ZGSZ 192100Z 09003MPS CAVOK 27/23 Q1003 NOSIG
ZGSZ,2003-06-19 22:00,ZGSZ 192200Z 09003MPS 9999 FEW020 SCT060 27/23 Q1003 NOSIG
ZGSZ,2003-06-19 23:00,ZGSZ 192300Z 09003MPS 6000 NSC 28/23 Q1003 NOSIG
ZGSZ,2003-06-20 00:00,ZGSZ 200000Z 08003MPS 7000 FEW020 BKN060 29/23 Q1003 NOSIG
ZGSZ,2003-06-20 01:00,ZGSZ 200100Z 11004MPS 9999 SCT026 SCT060 30/24 Q1004 NOSIG
ZGSZ,2003-06-20 02:00,ZGSZ 200200Z 22004MPS 9999 BKN026 FEW030TCU 29/24 Q1004 NOSIG
ZGSZ,2003-06-20 03:00,ZGSZ 200300Z 17003MPS 9999 FEW030 BKN120 29/24 Q1004 NOSIG
ZGSZ,2003-06-20 04:00,ZGSZ 200400Z 17004MPS CAVOK 30/24 Q1004 NOSIG
ZGSZ,2003-06-20 05:00,ZGSZ 200500Z 18004MPS CAVOK 31/25 Q1003 NOSIG
ZGSZ,2003-06-20 06:00,ZGSZ 200600Z 19004MPS 9999 FEW026 BKN100 31/24 Q1002 NOSIG
ZGSZ,2003-06-20 07:00,ZGSZ 200700Z 16005MPS 9999 BKN026 BKN100 31/24 Q1002 NOSIG
ZGSZ,2003-06-20 08:00,ZGSZ 200800Z 13004MPS 9999 BKN030 BKN200 33/23 Q1002 NOSIG
ZGSZ,2003-06-20 09:00,ZGSZ 200900Z 09006MPS 9999 SCT020 BKN060 31/24 Q1001 NOSIG
ZGSZ,2003-06-20 10:00,ZGSZ 201000Z 10005MPS 9999 SCT020 BKN060 30/24 Q1002 NOSIG
ZGSZ,2003-06-20 11:00,ZGSZ 201100Z 10006MPS 9999 SCT020 BKN060 29/23 Q1003 NOSIG
ZGSZ,2003-06-20 12:00,ZGSZ 201200Z 11007MPS 9999 FEW020 BKN060 29/23 Q1003 NOSIG
ZGSZ,2003-06-20 13:00,ZGSZ 201300Z 12005MPS 9999 FEW020 BKN060 29/23 Q1003 NOSIG
ZGSZ,2003-06-20 14:00,ZGSZ 201400Z 12004MPS 9999 FEW020 BKN060 28/23 Q1004 NOSIG
ZGSZ,2003-06-20 15:00,ZGSZ 201500Z 09003MPS 9999 FEW020 BKN060 28/23 Q1004 NOSIG
ZGSZ,2003-06-20 16:00,ZGSZ 201600Z 09004MPS CAVOK 28/23 Q1004 NOSIG
ZGSZ,2003-06-20 17:00,ZGSZ 201700Z 09003MPS CAVOK 28/23 Q1004 NOSIG
ZGSZ,2003-06-20 18:00,ZGSZ 201800Z 11003MPS CAVOK 28/23 Q1003 NOSIG
ZGSZ,2003-06-20 19:00,ZGSZ 201900Z 14007MPS 3000 -SHRA SCT015 FEW030TCU BKN043 26/23 Q1003 NOSIG
ZGSZ,2003-06-20 20:00,ZGSZ 202000Z 13004MPS 9999 SCT017 BKN040 26/23 Q1003 NOSIG
ZGSZ,2003-06-20 21:00,ZGSZ 202100Z 13003MPS 9999 SCT017 BKN040 26/23 Q1003 NOSIG
ZGSZ,2003-06-20 22:00,ZGSZ 202200Z 09004MPS 9999 SCT016 BKN040 26/23 Q1003 NOSIG
ZGSZ,2003-06-20 23:00,ZGSZ 202300Z 13007MPS 3000 -SHRA SCT013 FEW030TCU BKN040 26/23 Q1004 NOSIG
ZGSZ,2003-06-21 00:00,ZGSZ 210000Z 12006MPS 9999 -RA SCT013 BKN040 26/23 Q1004 NOSIG
ZGSZ,2003-06-21 01:00,ZGSZ 210100Z 13005MPS 9999 SCT016 OVC040 26/23 Q1005 NOSIG
ZGSZ,2003-06-21 02:00,ZGSZ 210200Z 10005MPS 8000 -RA SCT013 OVC033 26/23 Q1006 NOSIG
ZGSZ,2003-06-21 03:00,ZGSZ 210300Z 17005MPS 6000 -SHRA SCT012 FEW026TCU OVC033 25/23 Q1006 NOSIG
ZGSZ,2003-06-21 04:00,ZGSZ 210400Z 13005MPS 9999 -RA SCT012 OVC040 26/23 Q1005 NOSIG
ZGSZ,2003-06-21 05:00,ZGSZ 210500Z 10005MPS 9999 SCT015 BKN050 28/24 Q1004 NOSIG
ZGSZ,2003-06-21 06:00,ZGSZ 210600Z 12006MPS 9999 FEW016 BKN053 29/23 Q1004 NOSIG
ZGSZ,2003-06-21 07:00,ZGSZ 210700Z 13006MPS 9999 FEW020 BKN060 30/24 Q1004 NOSIG
ZGSZ,2003-06-21 08:00,ZGSZ 210800Z 13006MPS 9999 SCT020 OVC053 30/24 Q1003 NOSIG
ZGSZ,2003-06-21 09:00,ZGSZ 210900Z 11004MPS 9999 SCT015 FEW030TCU BKN050 28/24 Q1004 NOSIG
ZGSZ,2003-06-21 10:00,ZGSZ 211000Z 15007MPS 6000 -SHRA SCT011 FEW030CB BKN043 26/23 Q1004 NOSIG
ZGSZ,2003-06-21 11:00,ZGSZ 211100Z 09004MPS 6000 -SHRA SCT012 FEW030CB BKN050 27/24 Q1004 NOSIG
ZGSZ,2003-06-21 12:00,ZGSZ 211200Z 13004MPS 9999 -SHRA SCT012 FEW030CB BKN050 25/23 Q1005 NOSIG
ZGSZ,2003-06-21 13:00,ZGSZ 211300Z 10004MPS 9999 FEW016 BKN070 26/23 Q1006 NOSIG
ZGSZ,2003-06-21 14:00,ZGSZ 211400Z 10004MPS 9999 -SHRA FEW011 FEW030CB BKN050 25/23 Q1006 RETSRA NOSIG
ZGSZ,2003-06-21 15:00,ZGSZ 211500Z 11003MPS 9999 -SHRA SCT014 FEW033CB BKN050 26/23 Q1007 NOSIG
ZGSZ,2003-06-21 16:00,ZGSZ 211600Z 14004MPS 9999 -SHRA FEW010 FEW030CB BKN050 25/23 Q1007 RERA NOSIG
ZGSZ,2003-06-21 17:00,ZGSZ 211700Z 12004MPS 9999 FEW014 BKN070 25/23 Q1006 NOSIG
ZGSZ,2003-06-21 18:00,ZGSZ 211800Z 13005MPS CAVOK 26/23 Q1006 NOSIG
ZGSZ,2003-06-21 19:00,ZGSZ 211900Z 13005MPS CAVOK 26/23 Q1005 NOSIG
ZGSZ,2003-06-21 20:00,ZGSZ 212000Z 13004MPS CAVOK 26/23 Q1006 NOSIG
ZGSZ,2003-06-21 21:00,ZGSZ 212100Z 13005MPS 9999 FEW016 SCT070 26/23 Q1006 NOSIG
ZGSZ,2003-06-21 22:00,ZGSZ 212200Z 13004MPS 9999 FEW018 SCT230 26/23 Q1006 NOSIG
ZGSZ,2003-06-21 23:00,ZGSZ 212300Z 13004MPS 9999 FEW019 SCT260 27/24 Q1006 NOSIG
ZGSZ,2003-06-22 00:00,ZGSZ 220000Z 16006MPS 9999 SCT020 SCT260 28/25 Q1007 NOSIG
ZGSZ,2003-06-22 01:00,ZGSZ 220100Z 15006MPS 9999 -SHRA SCT020 FEW023TCU 29/25 Q1008 NOSIG
ZGSZ,2003-06-22 02:00,ZGSZ 220200Z 16007MPS 9999 FEW020 FEW023TCU SCT260 30/25 Q1008 NOSIG
ZGSZ,2003-06-22 03:00,ZGSZ 220300Z 16007MPS 9999 FEW020 FEW023TCU SCT260 30/25 Q1008 NOSIG
ZGSZ,2003-06-22 04:00,ZGSZ 220400Z 17007MPS 9999 FEW020 FEW023TCU SCT150 30/25 Q1008 NOSIG
ZGSZ,2003-06-22 05:00,ZGSZ 220500Z 18006MPS 9999 BKN019 FEW021TCU 28/25 Q1008 NOSIG
ZGSZ,2003-06-22 06:00,ZGSZ 220600Z 15008MPS 9999 SCT018 FEW060CB SCT060 29/25 Q1007 NOSIG
ZGSZ,2003-06-22 07:00,ZGSZ 220700Z 15007MPS 9999 FEW026CB SCT026 BKN130 28/24 Q1008 NOSIG
ZGSZ,2003-06-22 08:00,ZGSZ 220800Z 13005MPS 9999 FEW016 FEW023TCU BKN060 29/24 Q1008 NOSIG
ZGSZ,2003-06-22 09:00,ZGSZ 220900Z 17006MPS 9999 FEW015 SCT021 28/24 Q1008 NOSIG
ZGSZ,2003-06-22 10:00,ZGSZ 221000Z 16005MPS 9999 BKN021 FEW023TCU 29/25 Q1007 NOSIG
ZGSZ,2003-06-22 11:00,ZGSZ 221100Z 14004MPS 9999 BKN021 FEW023TCU 29/24 Q1008 NOSIG
ZGSZ,2003-06-22 12:00,ZGSZ 221200Z 14006MPS 9999 FEW023 BKN076 28/24 Q1008 NOSIG
ZGSZ,2003-06-22 13:00,ZGSZ 221300Z 14003MPS 9999 SCT043 27/24 Q1009 NOSIG
ZGSZ,2003-06-22 14:00,ZGSZ 221400Z 14003MPS 9999 SCT043 27/24 Q1009 NOSIG
ZGSZ,2003-06-22 15:00,ZGSZ 221500Z 13003MPS 9999 SCT043 27/24 Q1009 NOSIG
ZGSZ,2003-06-22 16:00,ZGSZ 221600Z 13004MPS CAVOK 27/24 Q1008 NOSIG
ZGSZ,2003-06-22 17:00,ZGSZ 221700Z 13004MPS CAVOK 27/24 Q1008 NOSIG
ZGSZ,2003-06-22 18:00,ZGSZ 221800Z 14004MPS CAVOK 27/24 Q1007 NOSIG
ZGSZ,2003-06-22 19:00,ZGSZ 221900Z 14003MPS CAVOK 27/24 Q1007 NOSIG
ZGSZ,2003-06-22 20:00,ZGSZ 222000Z 14005MPS CAVOK 27/24 Q1007 NOSIG
ZGSZ,2003-06-22 21:00,ZGSZ 222100Z 15004MPS CAVOK 28/24 Q1008 NOSIG
ZGSZ,2003-06-22 22:00,ZGSZ 222200Z 14004MPS CAVOK 27/24 Q1008 NOSIG
ZGSZ,2003-06-22 23:00,ZGSZ 222300Z 13003MPS 9999 SCT020 28/24 Q1009 NOSIG
ZGSZ,2003-06-23 00:00,ZGSZ 230000Z 16004MPS 9999 BKN021 SCT100 29/25 Q1009 NOSIG
ZGSZ,2003-06-23 01:00,ZGSZ 230100Z 16005MPS 9999 BKN020 FEW020TCU 29/25 Q1010 NOSIG
ZGSZ,2003-06-23 02:00,ZGSZ 230200Z 17003MPS 9999 SCT018 29/26 Q1010 NOSIG
ZGSZ,2003-06-23 03:00,ZGSZ 230300Z 17005MPS 9999 SCT018 SCT070 30/26 Q1010 NOSIG
ZGSZ,2003-06-23 04:00,ZGSZ 230400Z 16006MPS 9999 SCT018 SCT200 30/25 Q1009 NOSIG
ZGSZ,2003-06-23 05:00,ZGSZ 230500Z 16008MPS 9999 SCT020 BKN210 30/25 Q1009 NOSIG
ZGSZ,2003-06-23 06:00,ZGSZ 230600Z 16008MPS 9999 FEW020 BKN210 30/25 Q1008 NOSIG
ZGSZ,2003-06-23 07:00,ZGSZ 230700Z 18008MPS 9999 FEW020 BKN200 30/25 Q1008 NOSIG
ZGSZ,2003-06-23 08:00,ZGSZ 230800Z 17006MPS 9999 FEW020 BKN200 30/25 Q1008 NOSIG
ZGSZ,2003-06-23 09:00,ZGSZ 230900Z 17006MPS CAVOK 30/24 Q1008 NOSIG
ZGSZ,2003-06-23 10:00,ZGSZ 231000Z 17006MPS CAVOK 29/25 Q1007 NOSIG
ZGSZ,2003-06-23 11:00,ZGSZ 231100Z 17005MPS CAVOK 29/25 Q1007 NOSIG
ZGSZ,2003-06-23 12:00,ZGSZ 231200Z 17007MPS CAVOK 28/25 Q1008 NOSIG
ZGSZ,2003-06-23 13:00,ZGSZ 231300Z 17006MPS CAVOK 28/25 Q1008 NOSIG
ZGSZ,2003-06-23 14:00,ZGSZ 231400Z 17006MPS 9999 SCT020 BKN200 28/25 Q1009 NOSIG
ZGSZ,2003-06-23 15:00,ZGSZ 231500Z 17006MPS 9999 SCT020 BKN260 28/25 Q1009 NOSIG
ZGSZ,2003-06-23 16:00,ZGSZ 231600Z 17005MPS 9999 SCT020 SCT300 28/25 Q1008 NOSIG
ZGSZ,2003-06-23 17:00,ZGSZ 231700Z 18004MPS 9999 SCT020 BKN120 28/25 Q1007 NOSIG
ZGSZ,2003-06-23 18:00,ZGSZ 231800Z 18005MPS 9999 SCT020 BKN120 28/25 Q1007 NOSIG
ZGSZ,2003-06-23 19:00,ZGSZ 231900Z 21002MPS 9999 SCT020 BKN120 27/24 Q1007 NOSIG
ZGSZ,2003-06-23 20:00,ZGSZ 232000Z 19001MPS 9999 SCT020 BKN120 27/24 Q1006 NOSIG
ZGSZ,2003-06-23 21:00,ZGSZ 232100Z 18006MPS CAVOK 28/24 Q1006 NOSIG
ZGSZ,2003-06-23 22:00,ZGSZ 232200Z 18004MPS CAVOK 28/24 Q1007 NOSIG
ZGSZ,2003-06-23 23:00,ZGSZ 232300Z 18005MPS 9999 FEW020 SCT300 28/25 Q1007 NOSIG
ZGSZ,2003-06-24 00:00,ZGSZ 240000Z 18005MPS 9999 SCT020 29/25 Q1007 NOSIG
ZGSZ,2003-06-24 01:00,ZGSZ 240100Z 18006MPS 9999 FEW022 30/25 Q1008 NOSIG
ZGSZ,2003-06-24 02:00,ZGSZ 240200Z 18005MPS 9999 BKN022 30/25 Q1008 NOSIG
ZGSZ,2003-06-24 03:00,ZGSZ 240300Z 18006MPS 9999 SCT022 SCT300 30/25 Q1007 NOSIG
ZGSZ,2003-06-24 04:00,ZGSZ 240400Z 18006MPS 9999 FEW022 BKN300 30/25 Q1007 NOSIG
ZGSZ,2003-06-24 05:00,ZGSZ 240500Z 17007MPS 9999 FEW022 BKN300 31/25 Q1006 NOSIG
ZGSZ,2003-06-24 06:00,ZGSZ 240600Z 17008MPS 9999 FEW023 BKN300 30/25 Q1005 NOSIG
ZGSZ,2003-06-24 07:00,ZGSZ 240700Z 17008MPS 9999 FEW023 BKN300 31/25 Q1005 NOSIG
ZGSZ,2003-06-24 08:00,ZGSZ 240800Z 18009MPS 9999 FEW023 BKN300 30/25 Q1004 NOSIG
ZGSZ,2003-06-24 09:00,ZGSZ 240900Z/ZGKL 240900Z 17005MPS 9999 BKN043 BKN100 30/27 Q1001 NOS IG
ZGSZ,2003-06-24 10:00,ZGSZ 241000Z 18008MPS CAVOK 30/24 Q1004 NOSIG
ZGSZ,2003-06-24 11:00,ZGSZ 241100Z 18008MPS CAVOK 29/24 Q1004 NOSIG
ZGSZ,2003-06-24 12:00,ZGSZ 241200Z 18007MPS 9999 FEW020 SCT150 29/25 Q1004 NOSIG
ZGSZ,2003-06-24 13:00,ZGSZ 241300Z 18007MPS 9999 FEW019 SCT150 29/24 Q1004 NOSIG
ZGSZ,2003-06-24 14:00,ZGSZ 241400Z 18006MPS 9999 SCT018 28/24 Q1004 NOSIG
ZGSZ,2003-06-24 15:00,ZGSZ 241500Z 18007MPS 9999 BKN018 29/25 Q1005 NOSIG
ZGSZ,2003-06-24 16:00,ZGSZ 241600Z 18007MPS 9999 FEW017 28/25 Q1005 NOSIG
ZGSZ,2003-06-24 17:00,ZGSZ 241700Z 18007MPS 9999 SCT017 28/24 Q1004 NOSIG
ZGSZ,2003-06-24 18:00,ZGSZ 241800Z 18007MPS 9999 BKN017 28/24 Q1004 NOSIG
ZGSZ,2003-06-24 19:00,ZGSZ 241900Z 18007MPS 9999 SCT018 28/24 Q1003 NOSIG
ZGSZ,2003-06-24 20:00,ZGSZ 242000Z 18008MPS 9999 SCT018 28/24 Q1003 NOSIG
ZGSZ,2003-06-24 21:00,ZGSZ 242100Z 18007MPS 9999 SCT018 28/24 Q1003 NOSIG
ZGSZ,2003-06-24 22:00,ZGSZ 242200Z 18006MPS 9999 FEW018 SCT260 28/24 Q1003 NOSIG
ZGSZ,2003-06-24 23:00,ZGSZ 242300Z 18007MPS 9999 FEW019 BKN260 28/24 Q1004 NOSIG
ZGSZ,2003-06-25 00:00,ZGSZ 250000Z 17006MPS 9999 FEW020 BKN260 29/24 Q1004 NOSIG
ZGSZ,2003-06-25 01:00,ZGSZ 250100Z 17006MPS 9999 FEW020 BKN230 30/25 Q1004 NOSIG
ZGSZ,2003-06-25 02:00,ZGSZ 250200Z 17007MPS 9999 FEW020 BKN250 30/25 Q1004 NOSIG
ZGSZ,2003-06-25 03:00,ZGSZ 250300Z 17006MPS 9999 FEW020 BKN210 30/25 Q1004 NOSIG
ZGSZ,2003-06-25 04:00,ZGSZ 250400Z 17007MPS 9999 SCT021 BKN210 30/25 Q1003 NOSIG
ZGSZ,2003-06-25 05:00,ZGSZ 250500Z 17006MPS 9999 FEW016 SCT023 30/27 Q1002 NOSIG
ZGSZ,2003-06-25 06:00,ZGSZ 250600Z 17007MPS 9999 SCT023 SCT150 31/25 Q1001 NOSIG
ZGSZ,2003-06-25 07:00,ZGSZ 250700Z 17008MPS 9999 SCT023 SCT150 30/26 Q1001 NOSIG
ZGSZ,2003-06-25 08:00,ZGSZ 250800Z 17008MPS 9999 SCT021 BKN120 30/26 Q1001 NOSIG
ZGSZ,2003-06-25 09:00,ZGSZ 250900Z 18008MPS 9999 FEW020 BKN060 30/26 Q1001 NOSIG
ZGSZ,2003-06-25 10:00,ZGSZ 251000Z 18008MPS 9999 FEW020 BKN060 29/25 Q1001 NOSIG
ZGSZ,2003-06-25 11:00,ZGSZ 251100Z 18008MPS 9999 FEW020 BKN060 29/25 Q1002 NOSIG
ZGSZ,2003-06-25 12:00,ZGSZ 251200Z 17008MPS 9999 FEW020 BKN060 29/25 Q1002 NOSIG
ZGSZ,2003-06-25 13:00,ZGSZ 251300Z 18007MPS 9999 SCT020 29/25 Q1003 NOSIG
ZGSZ,2003-06-25 14:00,ZGSZ 251400Z 18007MPS 9999 SCT020 29/26 Q1003 NOSIG
ZGSZ,2003-06-25 15:00,ZGSZ 251500Z 17007MPS 9999 BKN020 29/25 Q1003 NOSIG
ZGSZ,2003-06-25 16:00,ZGSZ 251600Z 18007MPS 9999 BKN020 29/25 Q1003 NOSIG
ZGSZ,2003-06-25 17:00,ZGSZ 251700Z 18007MPS 9999 FEW020 29/26 Q1003 NOSIG
ZGSZ,2003-06-25 18:00,ZGSZ 251800Z 18007MPS 9999 SCT020 29/25 Q1003 NOSIG
ZGSZ,2003-06-25 19:00,ZGSZ 251900Z 17007MPS 9999 SCT020 29/25 Q1003 NOSIG
ZGSZ,2003-06-25 20:00,ZGSZ 252000Z 17008MPS 9999 SCT020 29/25 Q1002 NOSIG
ZGSZ,2003-06-25 21:00,ZGSZ 252100Z 17007MPS 9999 FEW020 BKN050 29/25 Q1002 NOSIG
ZGSZ,2003-06-25 22:00,ZGSZ 252200Z 18006MPS 9999 BKN020 BKN050 28/25 Q1003 NOSIG
ZGSZ,2003-06-25 23:00,ZGSZ 252300Z 17006MPS 9999 -SHRA FEW020TCU BKN020 BKN050 28/24 Q1004 NOSIG
ZGSZ,2003-06-26 00:00,ZGSZ 260000Z 18007MPS 9999 BKN020 FEW021TCU SCT050 28/25 Q1004 NOSIG
ZGSZ,2003-06-26 01:00,ZGSZ 260100Z 18009MPS 9999 SHRA BKN020 FEW030CB BKN043 28/25 Q1004 NOSIG
ZGSZ,2003-06-26 02:00,ZGSZ 260200Z 21004MPS 9999 BKN016 SCT030CB BKN040 27/24 Q1005 RETS NOSIG
ZGSZ,2003-06-26 03:00,ZGSZ 260300Z 18008MPS 9999 -SHRA BKN016 FEW040CB BKN050 29/25 Q1005 NOSIG
ZGSZ,2003-06-26 04:00,ZGSZ 260400Z 18009MPS 9999 -SHRA BKN017 FEW033CB BKN060 29/26 Q1004 NOSIG
ZGSZ,2003-06-26 05:00,ZGSZ 260500Z 18007MPS 9999 BKN020 BKN060 29/26 Q1004 NOSIG
ZGSZ,2003-06-26 06:00,ZGSZ 260600Z 18008MPS 9999 FEW012 SCT020 BKN060 29/25 Q1003 NOSIG
ZGSZ,2003-06-26 07:00,ZGSZ 260700Z 17008MPS 9999 FEW012 SCT020 BKN100 30/26 Q1003 NOSIG
ZGSZ,2003-06-26 08:00,ZGSZ 260800Z 17007MPS 9999 FEW020 BKN120 30/26 Q1002 NOSIG
ZGSZ,2003-06-26 09:00,ZGSZ 260900Z 18007MPS 9999 FEW020 BKN120 30/26 Q1002 NOSIG
ZGSZ,2003-06-26 10:00,ZGSZ 261000Z 17007MPS 9999 FEW020 BKN110 29/26 Q1002 NOSIG
ZGSZ,2003-06-26 11:00,ZGSZ 261100Z 16007MPS 9999 SCT020 BKN110 29/26 Q1003 NOSIG
ZGSZ,2003-06-26 12:00,ZGSZ 261200Z 16007MPS 9999 SCT020 SCT110 29/26 Q1003 NOSIG
ZGSZ,2003-06-26 13:00,ZGSZ 261300Z 16008MPS 9999 BKN020 29/26 Q1004 NOSIG
ZGSZ,2003-06-26 14:00,ZGSZ 261400Z 16008MPS 9999 BKN020 29/26 Q1005 NOSIG
ZGSZ,2003-06-26 15:00,ZGSZ 261500Z 16008MPS 9999 SCT020 29/26 Q1004 NOSIG
ZGSZ,2003-06-26 16:00,ZGSZ 261600Z 17007MPS 9999 SCT020 29/26 Q1004 NOSIG
ZGSZ,2003-06-26 17:00,ZGSZ 261700Z 17007MPS 9999 SCT020 29/25 Q1004 NOSIG
ZGSZ,2003-06-26 18:00,ZGSZ 261800Z 18008MPS 9999 FEW020 29/25 Q1004 NOSIG
ZGSZ,2003-06-26 19:00,ZGSZ 261900Z 18008MPS 9999 FEW020 29/25 Q1004 NOSIG
ZGSZ,2003-06-26 20:00,ZGSZ 262000Z 18008MPS 9999 FEW020 29/25 Q1003 NOSIG
ZGSZ,2003-06-26 21:00,ZGSZ 262100Z 18010MPS 9999 SCT020 29/25 Q1003 NOSIG
ZGSZ,2003-06-26 22:00,ZGSZ 262200Z 18009MPS 9999 SCT020 BKN043 29/25 Q1004 NOSIG
ZGSZ,2003-06-26 23:00,ZGSZ 262300Z 18009MPS 9999 BKN017 BKN043 28/25 Q1004 NOSIG
ZGSZ,2003-06-27 00:00,ZGSZ 270000Z 18009MPS 9999 BKN018 BKN050 29/25 Q1005 NOSIG
ZGSZ,2003-06-27 01:00,ZGSZ 270100Z 18007MPS 9999 BKN018 FEW025TCU 29/26 Q1005 NOSIG
ZGSZ,2003-06-27 02:00,ZGSZ 270200Z 18009MPS 9999 SCT021 BKN050 29/26 Q1006 NOSIG
ZGSZ,2003-06-27 03:00,ZGSZ 270300Z 18009MPS 9999 BKN020 BKN060 30/26 Q1005 NOSIG
ZGSZ,2003-06-27 04:00,ZGSZ 270400Z 18010MPS 9999 SCT018 FEW026TCU BKN046 30/26 Q1005 NOSIG
ZGSZ,2003-06-27 06:00,ZGSZ 270600Z 18010MPS 9999 FEW022 BKN070 30/26 Q1004 NOSIG
ZGSZ,2003-06-27 07:00,ZGSZ 270700Z 18009MPS 9999 SCT023 SCT230 30/26 Q1004 NOSIG
ZGSZ,2003-06-27 08:00,ZGSZ 270800Z 18009MPS 9999 SCT020 BKN230 29/25 Q1004 NOSIG
ZGSZ,2003-06-27 09:00,ZGSZ 270900Z 18009MPS 9999 SCT020 BKN230 29/25 Q1004 NOSIG
ZGSZ,2003-06-27 10:00,ZGSZ 271000Z 18008MPS 9999 FEW020 SCT076 BKN230 29/25 Q1004 NOSIG
ZGSZ,2003-06-27 11:00,ZGSZ 271100Z 18008MPS 9999 SCT020 BKN160 29/25 Q1004 NOSIG
ZGSZ,2003-06-27 12:00,ZGSZ 271200Z 17006MPS 9999 BKN020 BKN150 29/25 Q1005 NOSIG
ZGSZ,2003-06-27 13:00,ZGSZ 271300Z 18008MPS 5000 SHRA SCT012 FEW026CB BKN040 27/25 Q1005 NOSIG
ZGSZ,2003-06-27 14:00,ZGSZ 271400Z 18007MPS 9999 BKN020 BKN150 28/25 Q1006 NOSIG
ZGSZ,2003-06-27 15:00,ZGSZ 271500Z 17007MPS 9999 BKN018 BKN160 28/26 Q1006 NOSIG
ZGSZ,2003-06-27 16:00,ZGSZ 271600Z 26011G17MPS 2200 TSRA BKN011 FEW023CB 23/21 Q1007 NOSIG
ZGSZ,2003-06-27 17:00,ZGSZ 271700Z 13005MPS 9999 FEW026TCU BKN060 25/22 Q1006 NOSIG
ZGSZ,2003-06-27 18:00,ZGSZ 271800Z 18006MPS 9999 -SHRA FEW028CB BKN028 25/23 Q1006 RETS NOSIG
ZGSZ,2003-06-27 19:00,ZGSZ 271900Z 13003MPS 9999 -SHRA FEW028CB BKN028 25/22 Q1005 NOSIG
ZGSZ,2003-06-27 20:00,ZGSZ 272000Z 13003MPS CAVOK 25/22 Q1005 NOSIG
ZGSZ,2003-06-27 21:00,ZGSZ 272100Z 12003MPS 9999 BKN017 OVC040 26/23 Q1005 NOSIG
ZGSZ,2003-06-27 22:00,ZGSZ 272200Z 11004MPS 9999 -SHRA SCT011 SCT023TCU 27/24 Q1005 NOSIG
ZGSZ,2003-06-27 23:00,ZGSZ 272300Z 16008MPS 9999 BKN016 SCT021TCU 28/25 Q1006 NOSIG
ZGSZ,2003-06-28 00:00,ZGSZ 280000Z 18008MPS 9999 BKN016 FEW020TCU SCT160 28/25 Q1007 NOSIG
ZGSZ,2003-06-28 01:00,ZGSZ 280100Z 17007MPS 9999 SCT016 BKN070 29/25 Q1007 NOSIG
ZGSZ,2003-06-28 02:00,ZGSZ 280200Z 17006MPS 9999 BKN016 BKN070 29/25 Q1007 NOSIG
ZGSZ,2003-06-28 03:00,ZGSZ 280300Z 18008MPS 9999 BKN016 BKN070 29/26 Q1008 NOSIG
ZGSZ,2003-06-28 04:00,ZGSZ 280400Z 18008MPS 9999 SCT016 FEW018TCU BKN070 30/26 Q1008 NOSIG
ZGSZ,2003-06-28 05:00,ZGSZ 280500Z 18008MPS 9999 FEW016 FEW020TCU BKN070 30/26 Q1007 NOSIG
ZGSZ,2003-06-28 06:00,ZGSZ 280600Z 18009MPS 9999 FEW018 BKN070 30/26 Q1006 NOSIG
ZGSZ,2003-06-28 07:00,ZGSZ 280700Z 18009MPS 9999 FEW020 BKN070 30/26 Q1006 NOSIG
ZGSZ,2003-06-28 08:00,ZGSZ 280800Z 18010MPS 9999 FEW020 SCT070 30/26 Q1006 NOSIG
ZGSZ,2003-06-28 09:00,ZGSZ 280900Z AUTO 18006KT 16SM 30/26 RMK SLP066 T02970255 57008 IEM_DS3505
ZGSZ,2003-06-28 11:00,ZGSZ 281100Z 18008MPS 9999 SCT020 FEW030TCU BKN260 29/25 Q1006
ZGSZ,2003-06-28 12:00,ZGSZ 281200Z AUTO 20006KT 13SM 29/25 RMK SLP080 T02910250 52014 IEM_DS3505
ZGSZ,2003-06-28 13:00,ZGSZ 281300Z 18007MPS 9999 SCT020 29/25 Q1008
ZGSZ,2003-06-28 14:00,ZGSZ 281400Z 17006MPS 9999 SCT020 FEW060 28/25 Q1009 NOSIG
ZGSZ,2003-06-28 16:00,ZGSZ 281600Z 16006MPS 9999 BKN020 28/25 Q1008 NOSIG
ZGSZ,2003-06-28 17:00,ZGSZ 281700Z 18007MPS 9999 BKN020 28/25 Q1008 NOSIG
ZGSZ,2003-06-28 18:00,ZGSZ 281800Z 17006MPS 9999 SCT020 28/24 Q1008 NOSIG
ZGSZ,2003-06-28 19:00,ZGSZ 281900Z 18006MPS 9999 SCT018 28/25 Q1007 NOSIG
ZGSZ,2003-06-28 20:00,ZGSZ 282000Z 17006MPS 9999 SCT018 28/25 Q1007 NOSIG
ZGSZ,2003-06-28 21:00,ZGSZ 282100Z 16007MPS 9999 SCT018 28/24 Q1007 NOSIG
ZGSZ,2003-06-28 22:00,ZGSZ 282200Z 17006MPS 9999 SCT018 28/25 Q1007 NOSIG
ZGSZ,2003-06-28 23:00,ZGSZ 282300Z 15006MPS 9999 FEW018 28/24 Q1008 NOSIG
ZGSZ,2003-06-29 00:00,ZGSZ 290000Z 17006MPS 9999 FEW018 29/25 Q1008 NOSIG
ZGSZ,2003-06-29 01:00,ZGSZ 290100Z 17005MPS 9999 FEW020 FEW023TCU 30/25 Q1008 NOSIG
ZGSZ,2003-06-29 02:00,ZGSZ 290200Z 17006MPS 9999 FEW020 FEW023TCU 30/25 Q1009 NOSIG
ZGSZ,2003-06-29 03:00,ZGSZ 290300Z 17007MPS 9999 FEW021 30/25 Q1009 NOSIG
ZGSZ,2003-06-29 04:00,ZGSZ 290400Z 18007MPS 9999 FEW020 FEW023TCU 31/25 Q1009 NOSIG
ZGSZ,2003-06-29 05:00,ZGSZ 290500Z 18007MPS 9999 FEW020 FEW020TCU 31/25 Q1008 NOSIG
ZGSZ,2003-06-29 06:00,ZGSZ 290600Z 17007MPS 9999 FEW020 FEW023CB 31/25 Q1008 NOSIG
ZGSZ,2003-06-29 07:00,ZGSZ 290700Z 17008MPS 9999 FEW020 FEW023CB 31/25 Q1007 NOSIG
ZGSZ,2003-06-29 08:00,ZGSZ 290800Z 17008MPS 9999 FEW020 31/25 Q1007 NOSIG
ZGSZ,2003-06-29 09:00,ZGSZ 290900Z 17006MPS 9999 FEW020 30/25 Q1007 NOSIG
ZGSZ,2003-06-29 10:00,ZGSZ 291000Z 17007MPS 9999 FEW020 30/24 Q1007 NOSIG
ZGSZ,2003-06-29 11:00,ZGSZ 291100Z 18007MPS 9999 FEW020 29/24 Q1007 NOSIG
ZGSZ,2003-06-29 12:00,ZGSZ 291200Z 17006MPS 9999 FEW020 29/24 Q1008 NOSIG
ZGSZ,2003-06-29 13:00,ZGSZ 291300Z 18005MPS 9999 SCT020 29/24 Q1009 NOSIG
ZGSZ,2003-06-29 14:00,ZGSZ 291400Z 17007MPS 9999 SCT020 27/22 Q1009 NOSIG
ZGSZ,2003-06-29 15:00,ZGSZ 291500Z 18005MPS CAVOK 28/24 Q1010 NOSIG
ZGSZ,2003-06-29 16:00,ZGSZ 291600Z 13004MPS CAVOK 27/24 Q1009 NOSIG
ZGSZ,2003-06-29 17:00,ZGSZ 291700Z 14003MPS CAVOK 27/24 Q1009 NOSIG
ZGSZ,2003-06-29 19:00,ZGSZ 291900Z 15005MPS CAVOK 28/24 Q1008 NOSIG
ZGSZ,2003-06-29 20:00,ZGSZ 292000Z 14004MPS CAVOK 27/24 Q1008 NOSIG
ZGSZ,2003-06-29 21:00,ZGSZ 292100Z 14003MPS CAVOK 27/24 Q1008 NOSIG
ZGSZ,2003-06-29 22:00,ZGSZ 292200Z 17005MPS CAVOK 28/25 Q1008 NOSIG
ZGSZ,2003-06-29 23:00,ZGSZ 292300Z 16005MPS 9999 SCT020 29/25 Q1008 NOSIG
ZGSZ,2003-06-30 00:00,ZGSZ 300000Z 17007MPS 9999 -SHRA BKN020 FEW030TCU 27/23 Q1009 NOSIG
ZGSZ,2003-06-30 01:00,ZGSZ 300100Z 18005MPS 9999 SCT020 29/25 Q1009 NOSIG
ZGSZ,2003-06-30 02:00,ZGSZ 300200Z 17005MPS 9999 BKN020 30/25 Q1009 NOSIG
ZGSZ,2003-06-30 03:00,ZGSZ 300300Z 21004MPS 9999 SCT020 30/25 Q1009 NOSIG
ZGSZ,2003-06-30 04:00,ZGSZ 300400Z 18006MPS 9999 SCT022 30/25 Q1009 NOSIG
ZGSZ,2003-06-30 05:00,ZGSZ 300500Z 18005MPS 9999 SCT022 31/25 Q1009 NOSIG
ZGSZ,2003-06-30 06:00,ZGSZ 300600Z 16008MPS 9999 FEW022 SCT300 30/24 Q1008 NOSIG
ZGSZ,2003-06-30 07:00,ZGSZ 300700Z 17007MPS 9999 FEW022 BKN300 30/25 Q1008 NOSIG
ZGSZ,2003-06-30 08:00,ZGSZ 300800Z 17006MPS 9999 FEW022 SCT300 30/25 Q1007 NOSIG
ZGSZ,2003-06-30 09:00,ZGSZ 300900Z 18006MPS 9999 FEW025 30/25 Q1007 NOSIG
ZGSZ,2003-06-30 10:00,ZGSZ 301000Z 18006MPS 9999 FEW023 30/25 Q1007 NOSIG
ZGSZ,2003-06-30 11:00,ZGSZ 301100Z 17006MPS 9999 FEW022 29/24 Q1007 NOSIG
ZGSZ,2003-06-30 12:00,ZGSZ 301200Z 18007MPS 9999 SCT020 29/24 Q1008 NOSIG
ZGSZ,2003-06-30 13:00,ZGSZ 301300Z 18005MPS 9999 FEW019 28/24 Q1009 NOSIG
ZGSZ,2003-06-30 14:00,ZGSZ 301400Z 17005MPS CAVOK 28/24 Q1010 NOSIG
ZGSZ,2003-06-30 15:00,ZGSZ 301500Z 17006MPS 9999 SCT017 28/24 Q1010 NOSIG
ZGSZ,2003-06-30 16:00,ZGSZ 301600Z 16005MPS 9999 FEW017 28/24 Q1010 NOSIG
ZGSZ,2003-06-30 17:00,ZGSZ 301700Z 17005MPS CAVOK 28/23 Q1010 NOSIG
ZGSZ,2003-06-30 18:00,ZGSZ 301800Z 17005MPS CAVOK 28/24 Q1009 NOSIG
ZGSZ,2003-06-30 19:00,ZGSZ 301900Z 18004MPS 9999 FEW018 28/24 Q1009 NOSIG
ZGSZ,2003-06-30 20:00,ZGSZ 302000Z 18004MPS 9999 FEW018 28/24 Q1009 NOSIG
ZGSZ,2003-06-30 21:00,ZGSZ 302100Z 16004MPS 9999 FEW018 28/24 Q1009 NOSIG
ZGSZ,2003-06-30 22:00,ZGSZ 302200Z 22003MPS 9999 SCT017 FEW022TCU 27/24 Q1009 NOSIG
ZGSZ,2003-06-30 23:00,ZGSZ 302300Z 00000MPS 9999 SCT018 FEW023TCU 27/24 Q1010 NOSIG
ZGSZ,2003-07-01 00:00,ZGSZ 010000Z 33001MPS 9999 FEW020 28/25 Q1010 NOSIG
ZGSZ,2003-07-01 01:00,ZGSZ 010100Z 00000MPS 9999 SCT020 29/24 Q1011 NOSIG
ZGSZ,2003-07-01 02:00,ZGSZ 010200Z 23001MPS 9999 FEW020 30/24 Q1011 NOSIG
ZGSZ,2003-07-01 03:00,ZGSZ 010300Z 22002MPS 9999 SCT021 30/24 Q1011 NOSIG
ZGSZ,2003-07-01 04:00,ZGSZ 010400Z 18003MPS 9999 FEW021 30/24 Q1011 NOSIG
ZGSZ,2003-07-01 05:00,ZGSZ 010500Z 18004MPS 9999 FEW021 31/24 Q1010 NOSIG
ZGSZ,2003-07-01 06:00,ZGSZ 010600Z 18005MPS 9999 FEW021 31/25 Q1010 NOSIG
ZGSZ,2003-07-01 07:00,ZGSZ 010700Z 18006MPS 9999 FEW021 31/25 Q1009 NOSIG
ZGSZ,2003-07-01 08:00,ZGSZ 010800Z 18006MPS 9999 FEW021 31/25 Q1008 NOSIG
ZGSZ,2003-07-01 09:00,ZGSZ 010900Z AUTO 20006KT 19SM 32/23 RMK SLP089 T03200234 57012 IEM_DS3505
ZGSZ,2003-07-01 10:00,ZGSZ 011000Z 18007MPS 9999 FEW021 30/25 Q1008 NOSIG
ZGSZ,2003-07-01 11:00,ZGSZ 011100Z 18006MPS 9999 FEW020 29/24 Q1009 NOSIG
ZGSZ,2003-07-01 12:00,ZGSZ 011200Z 17005MPS CAVOK 29/24 Q1009 NOSIG
ZGSZ,2003-07-01 13:00,ZGSZ 011300Z 16004MPS 9999 FEW020 29/24 Q1010 NOSIG
ZGSZ,2003-07-01 14:00,ZGSZ 011400Z 17004MPS 9999 SCT020 29/25 Q1010 NOSIG
ZGSZ,2003-07-01 15:00,ZGSZ 011500Z 17004MPS CAVOK 28/24 Q1011 NOSIG
ZGSZ,2003-07-01 16:00,ZGSZ 011600Z 15004MPS CAVOK 28/24 Q1011 NOSIG
ZGSZ,2003-07-01 17:00,ZGSZ 011700Z 17005MPS 9999 FEW020 28/24 Q1010 NOSIG
ZGSZ,2003-07-01 18:00,ZGSZ 011800Z 17004MPS 9999 FEW020 28/24 Q1010 NOSIG
ZGSZ,2003-07-01 19:00,ZGSZ 011900Z 18003MPS 9999 FEW020 28/24 Q1010 NOSIG
ZGSZ,2003-07-01 20:00,ZGSZ 012000Z 18004MPS 9999 BKN020 28/24 Q1010 NOSIG
ZGSZ,2003-07-01 21:00,ZGSZ 012100Z 23002MPS 9999 SCT020 28/24 Q1010 NOSIG
ZGSZ,2003-07-01 22:00,ZGSZ 012200Z 23003MPS 9999 FEW020 27/24 Q1010 NOSIG
ZGSZ,2003-07-01 23:00,ZGSZ 012300Z 23002MPS 9999 FEW021 28/24 Q1011 NOSIG
ZGSZ,2003-07-02 00:00,ZGSZ 020000Z 23001MPS 9999 FEW021 29/24 Q1011 NOSIG
ZGSZ,2003-07-02 01:00,ZGSZ 020100Z 22001MPS 9999 FEW020 29/24 Q1012 NOSIG
ZGSZ,2003-07-02 02:00,ZGSZ 020200Z 21002MPS 9999 FEW020 30/25 Q1012 NOSIG
ZGSZ,2003-07-02 03:00,ZGSZ 020300Z 18003MPS 9999 FEW020 30/24 Q1013 NOSIG
ZGSZ,2003-07-02 04:00,ZGSZ 020400Z 18004MPS 9999 FEW020 31/24 Q1012 NOSIG
ZGSZ,2003-07-02 05:00,ZGSZ 020500Z 18004MPS CAVOK 31/24 Q1012 NOSIG
ZGSZ,2003-07-02 06:00,ZGSZ 020600Z 18005MPS CAVOK 31/24 Q1011 NOSIG
ZGSZ,2003-07-02 07:00,ZGSZ 020700Z 18005MPS CAVOK 32/25 Q1011 NOSIG
ZGSZ,2003-07-02 08:00,ZGSZ 020800Z 18006MPS CAVOK 31/24 Q1010 NOSIG
ZGSZ,2003-07-02 09:00,ZGSZ 020900Z 18006MPS CAVOK 31/25 Q1010 NOSIG
ZGSZ,2003-07-02 10:00,ZGSZ 021000Z 17005MPS CAVOK 30/24 Q1010 NOSIG
ZGSZ,2003-07-02 11:00,ZGSZ 021100Z 17005MPS CAVOK 29/24 Q1010 NOSIG
ZGSZ,2003-07-02 12:00,ZGSZ 021200Z 18006MPS CAVOK 29/23 Q1010 NOSIG
ZGSZ,2003-07-02 13:00,ZGSZ 021300Z 17004MPS CAVOK 29/24 Q1011 NOSIG
ZGSZ,2003-07-02 14:00,ZGSZ 021400Z 15005MPS CAVOK 29/24 Q1011 NOSIG
ZGSZ,2003-07-02 15:00,ZGSZ 021500Z 18004MPS CAVOK 28/24 Q1011 NOSIG
ZGSZ,2003-07-02 16:00,ZGSZ 021600Z 18004MPS CAVOK 28/24 Q1011 NOSIG
ZGSZ,2003-07-02 17:00,ZGSZ 021700Z 17004MPS CAVOK 28/24 Q1011 NOSIG
ZGSZ,2003-07-02 18:00,ZGSZ 021800Z 18003MPS CAVOK 28/23 Q1011 NOSIG
ZGSZ,2003-07-02 19:00,ZGSZ 021900Z 18003MPS CAVOK 28/24 Q1011 NOSIG
ZGSZ,2003-07-02 20:00,ZGSZ 022000Z 23002MPS 9999 FEW021 27/23 Q1011 NOSIG DUPE
ZGSZ,2003-07-02 21:00,ZGSZ 022100Z 21002MPS CAVOK 27/23 Q1011 NOSIG
ZGSZ,2003-07-02 22:00,ZGSZ 022200Z 21002MPS CAVOK 27/23 Q1011 NOSIG
ZGSZ,2003-07-02 23:00,ZGSZ 022300Z 21001MPS CAVOK 28/24 Q1011 NOSIG
ZGSZ,2003-07-03 00:00,ZGSZ 030000Z 18001MPS 9999 FEW020 29/24 Q1011 NOSIG
ZGSZ,2003-07-03 01:00,ZGSZ 030100Z 20001MPS 9999 FEW022 30/24 Q1012 NOSIG
ZGSZ,2003-07-03 02:00,ZGSZ 030200Z 20001MPS 9999 FEW023 30/24 Q1012 NOSIG
ZGSZ,2003-07-03 03:00,ZGSZ 030300Z 18002MPS CAVOK 30/24 Q1012 NOSIG
ZGSZ,2003-07-03 04:00,ZGSZ 030400Z 20002MPS CAVOK 31/23 Q1011 NOSIG
ZGSZ,2003-07-03 05:00,ZGSZ 030500Z 18003MPS CAVOK 31/23 Q1010 NOSIG
ZGSZ,2003-07-03 06:00,ZGSZ 030600Z 18003MPS CAVOK 32/23 Q1010 NOSIG
ZGSZ,2003-07-03 07:00,ZGSZ 030700Z 18004MPS CAVOK 32/24 Q1009 NOSIG
ZGSZ,2003-07-03 08:00,ZGSZ 030800Z 18005MPS CAVOK 32/24 Q1008 NOSIG
ZGSZ,2003-07-03 09:00,ZGSZ 030900Z 18006MPS CAVOK 31/24 Q1008 NOSIG
ZGSZ,2003-07-03 10:00,ZGSZ 031000Z 18006MPS CAVOK 30/25 Q1008 NOSIG
ZGSZ,2003-07-03 11:00,ZGSZ 031100Z 18006MPS CAVOK 30/24 Q1008 NOSIG
ZGSZ,2003-07-03 12:00,ZGSZ 031200Z 17005MPS CAVOK 29/25 Q1008 NOSIG
ZGSZ,2003-07-03 13:00,ZGSZ 031300Z 17005MPS CAVOK 29/25 Q1008 NOSIG
ZGSZ,2003-07-03 14:00,ZGSZ 031400Z 17006MPS CAVOK 29/24 Q1009 NOSIG
ZGSZ,2003-07-03 15:00,ZGSZ 031500Z 18005MPS CAVOK 29/24 Q1009 NOSIG
ZGSZ,2003-07-03 16:00,ZGSZ 031600Z 18005MPS CAVOK 29/24 Q1009 NOSIG
ZGSZ,2003-07-03 17:00,ZGSZ 031700Z 17005MPS CAVOK 29/24 Q1009 NOSIG
ZGSZ,2003-07-03 18:00,ZGSZ 031800Z 16004MPS CAVOK 28/24 Q1009 NOSIG
ZGSZ,2003-07-03 19:00,ZGSZ 031900Z 15003MPS CAVOK 28/23 Q1009 NOSIG
ZGSZ,2003-07-03 20:00,ZGSZ 032000Z 13003MPS CAVOK 28/24 Q1009 NOSIG
ZGSZ,2003-07-03 21:00,ZGSZ 032100Z 09002MPS CAVOK 27/23 Q1009 NOSIG
ZGSZ,2003-07-03 22:00,ZGSZ 032200Z 00000MPS CAVOK 27/23 Q1009 NOSIG
ZGSZ,2003-07-03 23:00,ZGSZ 032300Z 10001MPS CAVOK 29/23 Q1010 NOSIG
ZGSZ,2003-07-04 00:00,ZGSZ 040000Z 19002MPS 9999 FEW020 29/24 Q1010 NOSIG
ZGSZ,2003-07-04 01:00,ZGSZ 040100Z 18002MPS 9999 FEW020 SCT300 30/24 Q1010 NOSIG
ZGSZ,2003-07-04 02:00,ZGSZ 040200Z 21001MPS 9999 FEW010 SCT300 30/24 Q1010 NOSIG
ZGSZ,2003-07-04 03:00,ZGSZ 040300Z 19002MPS 9999 FEW010 BKN300 31/23 Q1009 NOSIG
ZGSZ,2003-07-04 04:00,ZGSZ 040400Z 18003MPS CAVOK 31/22 Q1009 NOSIG
ZGSZ,2003-07-04 05:00,ZGSZ 040500Z 18003MPS CAVOK 32/22 Q1008 NOSIG
ZGSZ,2003-07-04 06:00,ZGSZ 040600Z 19003MPS CAVOK 32/23 Q1007 NOSIG
ZGSZ,2003-07-04 07:00,ZGSZ 040700Z 20004MPS CAVOK 32/24 Q1007 NOSIG
ZGSZ,2003-07-04 08:00,ZGSZ 040800Z 18005MPS CAVOK 32/24 Q1006 NOSIG
ZGSZ,2003-07-04 09:00,ZGSZ 040900Z 19006MPS CAVOK 31/25 Q1006 NOSIG
ZGSZ,2003-07-04 10:00,ZGSZ 041000Z 18006MPS CAVOK 30/24 Q1006 NOSIG
ZGSZ,2003-07-04 11:00,ZGSZ 041100Z 18006MPS CAVOK 30/24 Q1006 NOSIG
ZGSZ,2003-07-04 12:00,ZGSZ 041200Z 17006MPS CAVOK 29/23 Q1007 NOSIG
ZGSZ,2003-07-04 13:00,ZGSZ 041300Z 17006MPS CAVOK 29/23 Q1007 NOSIG
ZGSZ,2003-07-04 14:00,ZGSZ 041400Z 18006MPS CAVOK 29/24 Q1008 NOSIG
ZGSZ,2003-07-04 15:00,ZGSZ 041500Z 17005MPS CAVOK 29/24 Q1008 NOSIG
ZGSZ,2003-07-04 16:00,ZGSZ 041600Z 18005MPS CAVOK 29/24 Q1008 NOSIG
ZGSZ,2003-07-04 17:00,ZGSZ 041700Z 18004MPS 9999 FEW016 28/23 Q1008 NOSIG
ZGSZ,2003-07-04 18:00,ZGSZ 041800Z 18004MPS 9999 FEW016 28/24 Q1007 NOSIG
ZGSZ,2003-07-04 19:00,ZGSZ 041900Z 18004MPS 9999 FEW016 28/24 Q1007 NOSIG
ZGSZ,2003-07-04 20:00,ZGSZ 042000Z 17004MPS 9999 FEW016 28/23 Q1007 NOSIG
ZGSZ,2003-07-04 21:00,ZGSZ 042100Z 17004MPS 9999 FEW016 28/24 Q1007 NOSIG
ZGSZ,2003-07-04 22:00,ZGSZ 042200Z 17003MPS 9999 FEW016 SCT260 28/24 Q1008 NOSIG
ZGSZ,2003-07-04 23:00,ZGSZ 042300Z 22003MPS 9999 FEW016 SCT260 28/24 Q1009 NOSIG
ZGSZ,2003-07-05 00:00,ZGSZ 050000Z 21003MPS 9999 FEW020 29/24 Q1009 NOSIG
ZGSZ,2003-07-05 01:00,ZGSZ 050100Z 21002MPS 9999 FEW020 30/24 Q1009 NOSIG
ZGSZ,2003-07-05 02:00,ZGSZ 050200Z 21002MPS 9999 FEW020 30/24 Q1010 NOSIG
ZGSZ,2003-07-05 03:00,ZGSZ 050300Z 18003MPS 9999 FEW020 SCT300 31/24 Q1009 NOSIG
ZGSZ,2003-07-05 04:00,ZGSZ 050400Z 18004MPS CAVOK 31/24 Q1009 NOSIG
ZGSZ,2003-07-05 05:00,ZGSZ 050500Z 18004MPS CAVOK 31/24 Q1008 NOSIG
ZGSZ,2003-07-05 06:00,ZGSZ 050600Z 18005MPS CAVOK 32/23 Q1007 NOSIG
ZGSZ,2003-07-05 07:00,ZGSZ 050700Z 18006MPS CAVOK 32/24 Q1007 NOSIG
ZGSZ,2003-07-05 08:00,ZGSZ 050800Z 18006MPS CAVOK 31/24 Q1006 NOSIG
ZGSZ,2003-07-05 09:00,ZGSZ 050900Z 17005MPS CAVOK 31/24 Q1005 NOSIG
ZGSZ,2003-07-05 10:00,ZGSZ 051000Z 18006MPS CAVOK 30/21 Q1006 NOSIG
ZGSZ,2003-07-05 11:00,ZGSZ 051100Z 18007MPS CAVOK 30/24 Q1006 NOSIG
ZGSZ,2003-07-05 12:00,ZGSZ 051200Z 18007MPS CAVOK 29/24 Q1007 NOSIG
ZGSZ,2003-07-05 13:00,ZGSZ 051300Z 18007MPS CAVOK 29/24 Q1007 NOSIG
ZGSZ,2003-07-05 14:00,ZGSZ 051400Z 17006MPS CAVOK 29/24 Q1008 NOSIG
ZGSZ,2003-07-05 15:00,ZGSZ 051500Z 18006MPS CAVOK 29/24 Q1008 NOSIG
ZGSZ,2003-07-05 16:00,ZGSZ 051600Z 18006MPS 9999 SCT030 29/24 Q1008 NOSIG
ZGSZ,2003-07-05 17:00,ZGSZ 051700Z 17006MPS CAVOK 29/24 Q1008 NOSIG
ZGSZ,2003-07-05 18:00,ZGSZ 051800Z 18006MPS CAVOK 28/24 Q1008 NOSIG
ZGSZ,2003-07-05 19:00,ZGSZ 051900Z 18005MPS CAVOK 28/24 Q1008 NOSIG
ZGSZ,2003-07-05 20:00,ZGSZ 052000Z 18005MPS CAVOK 28/24 Q1008 NOSIG
ZGSZ,2003-07-05 21:00,ZGSZ 052100Z 18005MPS 9999 SCT020 28/24 Q1008 NOSIG
ZGSZ,2003-07-05 22:00,ZGSZ 052200Z 20003MPS 9999 SCT020 28/24 Q1008 NOSIG
ZGSZ,2003-07-05 23:00,ZGSZ 052300Z 19002MPS 9999 BKN020 29/25 Q1008 NOSIG
ZGSZ,2003-07-06 00:00,ZGSZ 060000Z 18004MPS 9999 SCT020 29/24 Q1008 NOSIG
ZGSZ,2003-07-06 01:00,ZGSZ 060100Z 18003MPS 9999 FEW022 30/24 Q1008 NOSIG
ZGSZ,2003-07-06 02:00,ZGSZ 060200Z 18003MPS 9999 FEW022 30/25 Q1008 NOSIG
ZGSZ,2003-07-06 03:00,ZGSZ 060300Z 17005MPS 9999 FEW022 31/25 Q1008 NOSIG
ZGSZ,2003-07-06 04:00,ZGSZ 060400Z 17006MPS 9999 FEW023 31/25 Q1008 NOSIG
ZGSZ,2003-07-06 05:00,ZGSZ 060500Z 17006MPS 9999 FEW023 32/25 Q1008 NOSIG
ZGSZ,2003-07-06 06:00,ZGSZ 060600Z 18007MPS 9999 FEW023 32/25 Q1007 NOSIG
ZGSZ,2003-07-06 07:00,ZGSZ 060700Z 17007MPS 9999 FEW023 32/25 Q1006 NOSIG
ZGSZ,2003-07-06 08:00,ZGSZ 060800Z 17007MPS 9999 FEW023 32/25 Q1006 NOSIG
ZGSZ,2003-07-06 09:00,ZGSZ 060900Z 17007MPS 9999 FEW026 31/25 Q1006 NOSIG
ZGSZ,2003-07-06 10:00,ZGSZ 061000Z 17007MPS 9999 FEW026 30/25 Q1006 NOSIG
ZGSZ,2003-07-06 11:00,ZGSZ 061100Z 17007MPS CAVOK 30/24 Q1006 NOSIG
ZGSZ,2003-07-06 12:00,ZGSZ 061200Z 17007MPS CAVOK 29/25 Q1006 NOSIG
ZGSZ,2003-07-06 13:00,ZGSZ 061300Z 18006MPS CAVOK 29/25 Q1007 NOSIG
ZGSZ,2003-07-06 14:00,ZGSZ 061400Z 18007MPS CAVOK 29/25 Q1008 NOSIG
ZGSZ,2003-07-06 15:00,ZGSZ 061500Z 18007MPS CAVOK 29/24 Q1008 NOSIG
ZGSZ,2003-07-06 16:00,ZGSZ 061600Z 18005MPS 9999 SCT020 29/24 Q1009 NOSIG
ZGSZ,2003-07-06 17:00,ZGSZ 061700Z 18005MPS 9999 FEW026 SCT150 29/25 Q1008 NOSIG
ZGSZ,2003-07-06 18:00,ZGSZ 061800Z 18005MPS 9999 FEW026 SCT150 29/24 Q1008 NOSIG
ZGSZ,2003-07-06 19:00,ZGSZ 061900Z 18004MPS 9999 FEW026 SCT150 28/24 Q1007 NOSIG
ZGSZ,2003-07-06 20:00,ZGSZ 062000Z 19004MPS 9999 FEW026 SCT150 28/25 Q1007 NOSIG
ZGSZ,2003-07-06 21:00,ZGSZ 062100Z 18003MPS 9999 FEW026 SCT150 28/24 Q1007 NOSIG
ZGSZ,2003-07-06 22:00,ZGSZ 062200Z 20003MPS 9999 SCT020 28/24 Q1007 NOSIG
ZGSZ,2003-07-06 23:00,ZGSZ 062300Z 22003MPS 9999 SCT020 28/24 Q1008 NOSIG
ZGSZ,2003-07-07 00:00,ZGSZ 070000Z 22002MPS 9999 FEW023 30/25 Q1008 NOSIG
ZGSZ,2003-07-07 01:00,ZGSZ 070100Z 18002MPS 9999 SCT020 30/24 Q1008 NOSIG
ZGSZ,2003-07-07 02:00,ZGSZ 070200Z 18003MPS 9999 SCT020 30/24 Q1008 NOSIG
ZGSZ,2003-07-07 03:00,ZGSZ 070300Z 17003MPS 9999 SCT020 31/24 Q1008 NOSIG
ZGSZ,2003-07-07 04:00,ZGSZ 070400Z 16005MPS 9999 SCT020 31/25 Q1008 NOSIG
ZGSZ,2003-07-07 05:00,ZGSZ 070500Z 17006MPS 9999 SCT020 32/25 Q1007 NOSIG
ZGSZ,2003-07-07 06:00,ZGSZ 070600Z 17006MPS 9999 SCT020 32/25 Q1007 NOSIG
ZGSZ,2003-07-07 07:00,ZGSZ 070700Z 18007MPS 9999 FEW020 FEW030CB 32/24 Q1006 NOSIG
ZGSZ,2003-07-07 08:00,ZGSZ 070800Z 17007MPS 9999 SCT020 FEW030TCU 32/25 Q1006 NOSIG
ZGSZ,2003-07-07 09:00,ZGSZ 070900Z 17008MPS 9999 FEW023 31/24 Q1006 NOSIG
ZGSZ,2003-07-07 10:00,ZGSZ 071000Z 17007MPS CAVOK 30/24 Q1006 NOSIG
ZGSZ,2003-07-07 11:00,ZGSZ 071100Z 18008MPS CAVOK 30/24 Q1006 NOSIG
ZGSZ,2003-07-07 12:00,ZGSZ 071200Z 18007MPS CAVOK 29/24 Q1007 NOSIG
ZGSZ,2003-07-07 13:00,ZGSZ 071300Z 18006MPS CAVOK 29/24 Q1007 NOSIG
ZGSZ,2003-07-07 14:00,ZGSZ 071400Z 18006MPS 9999 SCT020 29/24 Q1008 NOSIG
ZGSZ,2003-07-07 15:00,ZGSZ 071500Z 18005MPS 9999 SCT019 29/25 Q1008 NOSIG
ZGSZ,2003-07-07 16:00,ZGSZ 071600Z 18005MPS 9999 SCT018 29/24 Q1008 NOSIG
ZGSZ,2003-07-07 17:00,ZGSZ 071700Z 18005MPS 9999 SCT017 29/24 Q1008 NOSIG
ZGSZ,2003-07-07 18:00,ZGSZ 071800Z 18003MPS 9999 BKN017 28/24 Q1008 NOSIG
ZGSZ,2003-07-07 19:00,ZGSZ 071900Z 18004MPS 9999 SCT018 29/24 Q1007 NOSIG
ZGSZ,2003-07-07 20:00,ZGSZ 072000Z 21004MPS 9999 SCT018 29/25 Q1007 NOSIG
ZGSZ,2003-07-07 21:00,ZGSZ 072100Z 22003MPS 9999 FEW017 28/24 Q1007 NOSIG
ZGSZ,2003-07-07 22:00,ZGSZ 072200Z 22002MPS 9999 FEW018 SCT260 28/24 Q1007 NOSIG
ZGSZ,2003-07-07 23:00,ZGSZ 072300Z 22003MPS 9999 SCT019 BKN260 28/24 Q1008 NOSIG
ZGSZ,2003-07-08 00:00,ZGSZ 080000Z 18002MPS 9999 FEW020 BKN260 29/25 Q1008 NOSIG
ZGSZ,2003-07-08 01:00,ZGSZ 080100Z 18003MPS 9999 FEW020 BKN300 30/24 Q1008 NOSIG
ZGSZ,2003-07-08 02:00,ZGSZ 080200Z 19002MPS 9999 FEW020 BKN300 31/25 Q1008 NOSIG
ZGSZ,2003-07-08 03:00,ZGSZ 080300Z 17004MPS CAVOK 31/24 Q1008 NOSIG
ZGSZ,2003-07-08 04:00,ZGSZ 080400Z 16004MPS 9999 FEW020 BKN300 31/25 Q1007 NOSIG
ZGSZ,2003-07-08 05:00,ZGSZ 080500Z 16005MPS 9999 FEW020 BKN280 32/25 Q1007 NOSIG
ZGSZ,2003-07-08 06:00,ZGSZ 080600Z 16006MPS CAVOK 32/24 Q1006 NOSIG
ZGSZ,2003-07-08 07:00,ZGSZ 080700Z 17005MPS CAVOK 31/24 Q1006 NOSIG
ZGSZ,2003-07-08 08:00,ZGSZ 080800Z 18006MPS CAVOK 32/24 Q1006 NOSIG
ZGSZ,2003-07-08 09:00,ZGSZ 080900Z 18007MPS 9999 FEW021 BKN260 31/24 Q1005 NOSIG
ZGSZ,2003-07-08 10:00,ZGSZ 081000Z 18008MPS 9999 FEW021 BKN260 31/24 Q1005 NOSIG
ZGSZ,2003-07-08 11:00,ZGSZ 081100Z 17006MPS CAVOK 30/24 Q1005 NOSIG
ZGSZ,2003-07-08 12:00,ZGSZ 081200Z 16006MPS CAVOK 30/24 Q1006 NOSIG
ZGSZ,2003-07-08 13:00,ZGSZ 081300Z 17007MPS CAVOK 30/23 Q1007 NOSIG
ZGSZ,2003-07-08 14:00,ZGSZ 081400Z 17006MPS CAVOK 29/24 Q1008 NOSIG
ZGSZ,2003-07-08 15:00,ZGSZ 081500Z 17004MPS CAVOK 29/23 Q1008 NOSIG
ZGSZ,2003-07-08 16:00,ZGSZ 081600Z 14002MPS CAVOK 28/23 Q1008 NOSIG
ZGSZ,2003-07-08 17:00,ZGSZ 081700Z 17003MPS CAVOK 29/24 Q1007 NOSIG
ZGSZ,2003-07-08 18:00,ZGSZ 081800Z 14003MPS 9999 SCT023 BKN230 28/24 Q1007 NOSIG
ZGSZ,2003-07-08 19:00,ZGSZ 081900Z 14003MPS 9999 SCT023 BKN230 28/24 Q1007 NOSIG
ZGSZ,2003-07-08 20:00,ZGSZ 082000Z 15003MPS 9999 BKN023 28/24 Q1007 NOSIG
ZGSZ,2003-07-08 21:00,ZGSZ 082100Z 13003MPS 9999 BKN023 29/24 Q1007 NOSIG
ZGSZ,2003-07-08 22:00,ZGSZ 082200Z 16003MPS 9999 FEW020 SCT230 28/24 Q1007 NOSIG
ZGSZ,2003-07-08 23:00,ZGSZ 082300Z 15003MPS 9999 SCT020 BKN230 29/24 Q1008 NOSIG
ZGSZ,2003-07-09 00:00,ZGSZ 090000Z 16004MPS 9999 SCT020 BKN230 30/24 Q1008 NOSIG
ZGSZ,2003-07-09 01:00,ZGSZ 090100Z 18004MPS 9999 SCT020 BKN120 30/24 Q1008 NOSIG
ZGSZ,2003-07-09 02:00,ZGSZ 090200Z 18004MPS 9999 FEW023 BKN120 30/24 Q1008 NOSIG
ZGSZ,2003-07-09 03:00,ZGSZ 090300Z 19005MPS 9999 FEW026 SCT150 31/25 Q1008 NOSIG
ZGSZ,2003-07-09 04:00,ZGSZ 090400Z 19006MPS 9999 FEW026 SCT160 31/25 Q1008 NOSIG
ZGSZ,2003-07-09 05:00,ZGSZ 090500Z 20006MPS 9999 FEW026 32/25 Q1008 NOSIG
ZGSZ,2003-07-09 06:00,ZGSZ 090600Z 18007MPS 9999 FEW026 32/25 Q1007 NOSIG
ZGSZ,2003-07-09 07:00,ZGSZ 090700Z 18006MPS 9999 FEW026 32/24 Q1006 NOSIG
ZGSZ,2003-07-09 08:00,ZGSZ 090800Z 18006MPS 9999 FEW026 31/24 Q1005 NOSIG
ZGSZ,2003-07-09 09:00,ZGSZ 090900Z 18006MPS CAVOK 31/25 Q1005 NOSIG
ZGSZ,2003-07-09 10:00,ZGSZ 091000Z 18007MPS CAVOK 31/24 Q1006 NOSIG
ZGSZ,2003-07-09 11:00,ZGSZ 091100Z 18007MPS CAVOK 30/24 Q1006 NOSIG
ZGSZ,2003-07-09 12:00,ZGSZ 091200Z 17005MPS CAVOK 30/24 Q1006 NOSIG
ZGSZ,2003-07-09 13:00,ZGSZ 091300Z 17005MPS CAVOK 29/24 Q1007 NOSIG
ZGSZ,2003-07-09 14:00,ZGSZ 091400Z 17004MPS CAVOK 29/24 Q1007 NOSIG
ZGSZ,2003-07-09 15:00,ZGSZ 091500Z 16003MPS CAVOK 29/24 Q1007 NOSIG
ZGSZ,2003-07-09 16:00,ZGSZ 091600Z 14003MPS CAVOK 28/24 Q1007 NOSIG
ZGSZ,2003-07-09 17:00,ZGSZ 091700Z 14003MPS CAVOK 28/23 Q1006 NOSIG
ZGSZ,2003-07-09 18:00,ZGSZ 091800Z 09001MPS CAVOK 28/23 Q1006 NOSIG
ZGSZ,2003-07-09 19:00,ZGSZ 091900Z 09002MPS CAVOK 28/23 Q1006 NOSIG
ZGSZ,2003-07-09 20:00,ZGSZ 092000Z 09002MPS CAVOK 28/23 Q1005 NOSIG
ZGSZ,2003-07-09 21:00,ZGSZ 092100Z 09001MPS CAVOK 28/23 Q1006 NOSIG
ZGSZ,2003-07-09 22:00,ZGSZ 092200Z 07001MPS 9999 FEW020 28/23 Q1006 NOSIG
ZGSZ,2003-07-09 23:00,ZGSZ 092300Z 00000MPS 9999 SCT020 SCT260 29/24 Q1006 NOSIG
ZGSZ,2003-07-10 00:00,ZGSZ 100000Z 22004MPS 9999 SCT020 SCT260 28/24 Q1007 NOSIG
ZGSZ,2003-07-10 01:00,ZGSZ 100100Z 16001MPS 9999 -SHRA BKN021 FEW021TCU 28/25 Q1007 NOSIG
ZGSZ,2003-07-10 02:00,ZGSZ 100200Z 27002MPS 9999 BKN021 30/24 Q1007 NOSIG
ZGSZ,2003-07-10 03:00,ZGSZ 100300Z 24002MPS 9999 BKN023 31/24 Q1007 NOSIG
ZGSZ,2003-07-10 04:00,ZGSZ 100400Z 17003MPS 9999 SCT025 FEW025TCU 31/24 Q1007 NOSIG
ZGSZ,2003-07-10 05:00,ZGSZ 100500Z 17005MPS 9999 BKN025 SCT060 30/24 Q1006 NOSIG
ZGSZ,2003-07-10 06:00,ZGSZ 100600Z 14005MPS 9999 FEW026 BKN050 31/23 Q1006 NOSIG
ZGSZ,2003-07-10 07:00,ZGSZ 100700Z 17005MPS 9999 FEW028 SCT260 32/24 Q1005 NOSIG
ZGSZ,2003-07-10 08:00,ZGSZ 100800Z 17005MPS 9999 FEW026 SCT260 32/24 Q1004 NOSIG
ZGSZ,2003-07-10 09:00,ZGSZ 100900Z 17005MPS 9999 FEW026 SCT260 32/25 Q1004 NOSIG
ZGSZ,2003-07-10 10:00,ZGSZ 101000Z 17006MPS 9999 FEW026 SCT250 31/24 Q1004 NOSIG
ZGSZ,2003-07-10 11:00,ZGSZ 101100Z 17006MPS 9999 FEW026 SCT250 30/24 Q1005 NOSIG
ZGSZ,2003-07-10 12:00,ZGSZ 101200Z 14006MPS 9999 FEW023 SCT260 30/23 Q1005 NOSIG
ZGSZ,2003-07-10 13:00,ZGSZ 101300Z 13006MPS 9999 FEW020 SCT230 30/23 Q1006 NOSIG
ZGSZ,2003-07-10 14:00,ZGSZ 101400Z 13006MPS 9999 FEW020 SCT120 29/23 Q1007 NOSIG
ZGSZ,2003-07-10 15:00,ZGSZ 101500Z 13006MPS CAVOK 29/23 Q1007 NOSIG
ZGSZ,2003-07-10 16:00,ZGSZ 101600Z 13005MPS CAVOK 29/24 Q1007 NOSIG
ZGSZ,2003-07-10 17:00,ZGSZ 101700Z 13004MPS CAVOK 29/23 Q1006 NOSIG
ZGSZ,2003-07-10 18:00,ZGSZ 101800Z 13003MPS CAVOK 28/23 Q1005 NOSIG
ZGSZ,2003-07-10 19:00,ZGSZ 101900Z 09002MPS CAVOK 28/23 Q1005 NOSIG
ZGSZ,2003-07-10 20:00,ZGSZ 102000Z 09002MPS CAVOK 28/23 Q1006 NOSIG
ZGSZ,2003-07-10 21:00,ZGSZ 102100Z 09003MPS 9999 FEW016 28/23 Q1005 NOSIG
ZGSZ,2003-07-10 22:00,ZGSZ 102200Z 11007G12MPS 9999 -SHRA FEW011 FEW026CB SCT040 26/22 Q1006 NOSIG
ZGSZ,2003-07-10 23:00,ZGSZ 102300Z 12002MPS 9999 FEW010 SCT020 FEW023TCU 27/24 Q1007 NOSIG
ZGSZ,2003-07-11 00:00,ZGSZ 110000Z 10003MPS 9999 FEW020 SCT100 30/24 Q1007 NOSIG
ZGSZ,2003-07-11 01:00,ZGSZ 110100Z 14005MPS 9999 SCT020 FEW023TCU 30/23 Q1007 NOSIG
ZGSZ,2003-07-11 02:00,ZGSZ 110200Z 15005MPS 9999 SCT020 FEW023TCU 32/24 Q1007 NOSIG
ZGSZ,2003-07-11 03:00,ZGSZ 110300Z 16005MPS 9999 FEW020 FEW023TCU 31/23 Q1007 NOSIG
ZGSZ,2003-07-11 04:00,ZGSZ 110400Z 16007MPS 9999 FEW020 FEW023TCU 33/23 Q1006 NOSIG
ZGSZ,2003-07-11 05:00,ZGSZ 110500Z 17007MPS 9999 FEW020 FEW023TCU 33/24 Q1006 NOSIG
ZGSZ,2003-07-11 06:00,ZGSZ 110600Z 18009G14MPS 9999 FEW020 SCT023TCU 31/25 Q1006 NOSIG
ZGSZ,2003-07-11 07:00,ZGSZ 110700Z 16008MPS 9999 FEW020 FEW023TCU SCT250 31/25 Q1005 RERA NOSIG
ZGSZ,2003-07-11 08:00,ZGSZ 110800Z 16008MPS 9999 FEW020 FEW023TCU BKN076 32/24 Q1005 NOSIG
ZGSZ,2003-07-11 09:00,ZGSZ 110900Z 13007MPS 9999 FEW010 SCT030 FEW033CB BKN200 29/23 Q1006 NOSIG
ZGSZ,2003-07-11 10:00,ZGSZ 111000Z 12004MPS 9999 -SHRA FEW010 SCT020 FEW033TCU KN120 28/24 Q1006 NOSIG
ZGSZ,2003-07-11 11:00,ZGSZ 111100Z 09004MPS 9999 FEW010 BKN120 28/24 Q1006 NOSIG
ZGSZ,2003-07-11 12:00,ZGSZ 111200Z 09004MPS 9999 -TS FEW010 FEW033CB SCT060 BKN120 29/24 Q1007 NOSIG
ZGSZ,2003-07-11 13:00,ZGSZ 111300Z 10004MPS 9999 FEW010 SCT050 BKN100 29/24 Q1007 NOSIG
ZGSZ,2003-07-11 14:00,ZGSZ 111400Z 09004MPS CAVOK 28/24 Q1008 NOSIG
ZGSZ,2003-07-11 15:00,ZGSZ 111500Z 09004MPS CAVOK 28/24 Q1008 NOSIG
ZGSZ,2003-07-11 16:00,ZGSZ 111600Z 09003MPS CAVOK 28/23 Q1008 NOSIG
ZGSZ,2003-07-11 17:00,ZGSZ 111700Z 10003MPS CAVOK 28/24 Q1007 NOSIG
ZGSZ,2003-07-11 18:00,ZGSZ 111800Z 09002MPS CAVOK 28/24 Q1007 NOSIG
ZGSZ,2003-07-11 19:00,ZGSZ 111900Z 09002MPS CAVOK 28/24 Q1007 NOSIG
ZGSZ,2003-07-11 20:00,ZGSZ 112000Z 10002MPS CAVOK 28/24 Q1007 NOSIG
ZGSZ,2003-07-11 21:00,ZGSZ 112100Z 10003MPS 9999 SCT020 SCT300 28/24 Q1007 NOSIG
ZGSZ,2003-07-11 22:00,ZGSZ 112200Z 11002MPS 9999 SCT020 28/24 Q1007 NOSIG
ZGSZ,2003-07-11 23:00,ZGSZ 112300Z 12003MPS 9999 BKN020 28/24 Q1008 NOSIG
ZGSZ,2003-07-12 00:00,ZGSZ 120000Z 13003MPS 9999 SCT020 30/25 Q1009 NOSIG
ZGSZ,2003-07-12 01:00,ZGSZ 120100Z 12003MPS 9999 FEW020 FEW020TCU 31/25 Q1009 NOSIG
ZGSZ,2003-07-12 02:00,ZGSZ 120200Z 16004MPS 9999 FEW020 FEW020TCU BKN050 30/24 Q1009 NOSIG
ZGSZ,2003-07-12 03:00,ZGSZ 120300Z 17004MPS 9999 FEW020 BKN066 32/25 Q1009 NOSIG
ZGSZ,2003-07-12 04:00,ZGSZ 120400Z 17005MPS 9999 FEW020 BKN260 32/25 Q1009 NOSIG
ZGSZ,2003-07-12 05:00,ZGSZ 120500Z 18004MPS 9999 FEW020 BKN260 31/25 Q1008 NOSIG
ZGSZ,2003-07-12 06:00,ZGSZ 120600Z 19005MPS 9999 FEW020 FEW020TCU 32/25 Q1008 NOSIG
ZGSZ,2003-07-12 07:00,ZGSZ 120700Z 18005MPS 9999 FEW020 FEW020TCU 32/25 Q1008 NOSIG
ZGSZ,2003-07-12 08:00,ZGSZ 120800Z 18005MPS 9999 FEW020TCU 32/25 Q1007 NOSIG
ZGSZ,2003-07-12 09:00,ZGSZ 120900Z 18006MPS 9999 FEW030 32/25 Q1007 NOSIG
ZGSZ,2003-07-12 10:00,ZGSZ 121000Z 18005MPS 9999 FEW030 31/25 Q1007 NOSIG
ZGSZ,2003-07-12 11:00,ZGSZ 121100Z 18005MPS CAVOK 30/25 Q1008 NOSIG
ZGSZ,2003-07-12 12:00,ZGSZ 121200Z 17005MPS CAVOK 30/24 Q1008 NOSIG
ZGSZ,2003-07-12 13:00,ZGSZ 121300Z 16005MPS CAVOK 30/24 Q1008 NOSIG
ZGSZ,2003-07-12 14:00,ZGSZ 121400Z 14005MPS CAVOK 29/24 Q1009 NOSIG
ZGSZ,2003-07-12 15:00,ZGSZ 121500Z 14004MPS CAVOK 29/24 Q1009 NOSIG
ZGSZ,2003-07-12 16:00,ZGSZ 121600Z 14003MPS CAVOK 29/24 Q1009 NOSIG
ZGSZ,2003-07-12 17:00,ZGSZ 121700Z 14004MPS CAVOK 29/25 Q1008 NOSIG
ZGSZ,2003-07-12 18:00,ZGSZ 121800Z 14003MPS CAVOK 28/24 Q1008 NOSIG
ZGSZ,2003-07-12 19:00,ZGSZ 121900Z 14003MPS CAVOK 28/25 Q1008 NOSIG
ZGSZ,2003-07-12 20:00,ZGSZ 122000Z 13002MPS CAVOK 28/24 Q1008 NOSIG
ZGSZ,2003-07-12 21:00,ZGSZ 122100Z 11002MPS CAVOK 29/24 Q1008 NOSIG
ZGSZ,2003-07-12 22:00,ZGSZ 122200Z 16004MPS 9999 SCT020 29/25 Q1008 NOSIG
ZGSZ,2003-07-12 23:00,ZGSZ 122300Z 17004MPS 9999 SCT020 29/25 Q1009 NOSIG
ZGSZ,2003-07-13 00:00,ZGSZ 130000Z 17004MPS 9999 BKN023 30/26 Q1010 NOSIG
ZGSZ,2003-07-13 01:00,ZGSZ 130100Z 19003MPS 9999 FEW023 30/25 Q1010 NOSIG
ZGSZ,2003-07-13 02:00,ZGSZ 130200Z 18003MPS 9999 FEW023 31/24 Q1010 NOSIG
ZGSZ,2003-07-13 03:00,ZGSZ 130300Z 17003MPS 9999 FEW025 32/24 Q1010 NOSIG
ZGSZ,2003-07-13 04:00,ZGSZ 130400Z 18003MPS 9999 FEW025 32/24 Q1010 NOSIG
ZGSZ,2003-07-13 05:00,ZGSZ 130500Z 18004MPS CAVOK 32/23 Q1009 NOSIG
ZGSZ,2003-07-13 06:00,ZGSZ 130600Z 18004MPS CAVOK 32/24 Q1009 NOSIG
ZGSZ,2003-07-13 07:00,ZGSZ 130700Z 18004MPS CAVOK 32/25 Q1008 NOSIG
ZGSZ,2003-07-13 08:00,ZGSZ 130800Z 17005MPS CAVOK 32/25 Q1008 NOSIG
ZGSZ,2003-07-13 09:00,ZGSZ 130900Z 18005MPS CAVOK 31/25 Q1008 NOSIG
ZGSZ,2003-07-13 10:00,ZGSZ 131000Z 17005MPS CAVOK 31/24 Q1007 NOSIG
ZGSZ,2003-07-13 11:00,ZGSZ 131100Z 16004MPS CAVOK 30/25 Q1007 NOSIG
ZGSZ,2003-07-13 12:00,ZGSZ 131200Z 17005MPS CAVOK 30/25 Q1007 NOSIG
ZGSZ,2003-07-13 13:00,ZGSZ 131300Z 18006MPS CAVOK 30/25 Q1008 NOSIG
ZGSZ,2003-07-13 14:00,ZGSZ 131400Z 18005MPS CAVOK 30/26 Q1008 NOSIG
ZGSZ,2003-07-13 15:00,ZGSZ 131500Z 18006MPS 9999 SCT020 29/25 Q1008 NOSIG
ZGSZ,2003-07-13 16:00,ZGSZ 131600Z 18005MPS 9999 SCT020 29/26 Q1008 NOSIG
ZGSZ,2003-07-13 17:00,ZGSZ 131700Z 18005MPS CAVOK 29/26 Q1008 NOSIG
ZGSZ,2003-07-13 18:00,ZGSZ 131800Z 18004MPS 9999 SCT020 29/25 Q1008 NOSIG
ZGSZ,2003-07-13 19:00,ZGSZ 131900Z 18003MPS 9999 FEW020 29/25 Q1007 NOSIG
ZGSZ,2003-07-13 20:00,ZGSZ 132000Z 18003MPS 9999 FEW020 29/25 Q1008 NOSIG
ZGSZ,2003-07-13 21:00,ZGSZ 132100Z 22003MPS 9999 SCT020 29/25 Q1008 NOSIG
ZGSZ,2003-07-13 22:00,ZGSZ 132200Z 25003MPS 9999 FEW020 28/25 Q1008 NOSIG
ZGSZ,2003-07-14 00:00,ZGSZ 140000Z 26002MPS 9999 BKN020 FEW020TCU 29/25 Q1009 NOSIG
ZGSZ,2003-07-14 01:00,ZGSZ 140100Z 28002MPS 9999 SCT020 30/25 Q1009 NOSIG
ZGSZ,2003-07-14 02:00,ZGSZ 140200Z 26002MPS 9999 FEW020 31/25 Q1009 NOSIG
ZGSZ,2003-07-14 03:00,ZGSZ 140300Z 25002MPS 9999 SCT023 32/25 Q1009 NOSIG
ZGSZ,2003-07-14 04:00,ZGSZ 140400Z 24001MPS 9999 SCT023 33/25 Q1008 NOSIG
ZGSZ,2003-07-14 05:00,ZGSZ 140500Z 23002MPS 9999 SCT023 32/24 Q1008 NOSIG
ZGSZ,2003-07-14 06:00,ZGSZ 140600Z 19003MPS 9999 SCT023 33/25 Q1007 NOSIG
ZGSZ,2003-07-14 07:00,ZGSZ 140700Z 18005MPS 9999 FEW023 33/25 Q1006 NOSIG
ZGSZ,2003-07-14 08:00,ZGSZ 140800Z 18005MPS 9999 FEW023 33/26 Q1006 NOSIG
ZGSZ,2003-07-14 09:00,ZGSZ 140900Z 17005MPS 9999 FEW023 32/25 Q1005 NOSIG
ZGSZ,2003-07-14 10:00,ZGSZ 141000Z 16005MPS CAVOK 32/25 Q1005 NOSIG
ZGSZ,2003-07-14 11:00,ZGSZ 141100Z 17005MPS CAVOK 31/26 Q1005 NOSIG
ZGSZ,2003-07-14 12:00,ZGSZ 141200Z 15005MPS CAVOK 30/26 Q1005 NOSIG
ZGSZ,2003-07-14 13:00,ZGSZ 141300Z 16005MPS CAVOK 30/26 Q1006 NOSIG
ZGSZ,2003-07-14 14:00,ZGSZ 141400Z 15005MPS CAVOK 30/26 Q1007 NOSIG
ZGSZ,2003-07-14 15:00,ZGSZ 141500Z 17005MPS CAVOK 30/26 Q1007 NOSIG
ZGSZ,2003-07-14 16:00,ZGSZ 141600Z 17004MPS CAVOK 30/26 Q1007 NOSIG
ZGSZ,2003-07-14 17:00,ZGSZ 141700Z 19004MPS CAVOK 29/24 Q1007 NOSIG
ZGSZ,2003-07-14 18:00,ZGSZ 141800Z 18004MPS CAVOK 29/23 Q1007 NOSIG
ZGSZ,2003-07-14 19:00,ZGSZ 141900Z 18003MPS CAVOK 29/24 Q1007 NOSIG
ZGSZ,2003-07-14 20:00,ZGSZ 142000Z 18004MPS CAVOK 29/24 Q1007 NOSIG
ZGSZ,2003-07-14 21:00,ZGSZ 142100Z 20004MPS CAVOK 28/24 Q1007 NOSIG
ZGSZ,2003-07-14 22:00,ZGSZ 142200Z 20003MPS CAVOK 28/24 Q1007 NOSIG
ZGSZ,2003-07-14 23:00,ZGSZ 142300Z 22002MPS CAVOK 29/25 Q1008 NOSIG
ZGSZ,2003-07-15 00:00,ZGSZ 150000Z 22001MPS CAVOK 30/24 Q1008 NOSIG
ZGSZ,2003-07-15 01:00,ZGSZ 150100Z 22002MPS 9999 FEW020 30/24 Q1008 NOSIG
ZGSZ,2003-07-15 02:00,ZGSZ 150200Z 20002MPS CAVOK 31/24 Q1008 NOSIG
ZGSZ,2003-07-15 03:00,ZGSZ 150300Z 17002MPS CAVOK 31/24 Q1008 NOSIG
ZGSZ,2003-07-15 04:00,ZGSZ 150400Z 18003MPS CAVOK 32/25 Q1007 NOSIG
ZGSZ,2003-07-15 05:00,ZGSZ 150500Z 18003MPS CAVOK 32/25 Q1007 NOSIG
ZGSZ,2003-07-15 06:00,ZGSZ 150600Z 18004MPS CAVOK 33/26 Q1006 NOSIG
ZGSZ,2003-07-15 07:00,ZGSZ 150700Z 17005MPS CAVOK 33/26 Q1006 NOSIG
ZGSZ,2003-07-15 08:00,ZGSZ 150800Z 18006MPS CAVOK 33/26 Q1005 NOSIG
ZGSZ,2003-07-15 09:00,ZGSZ 150900Z 18006MPS CAVOK 32/27 Q1005 NOSIG
ZGSZ,2003-07-15 10:00,ZGSZ 151000Z 18007MPS CAVOK 31/26 Q1005 NOSIG
ZGSZ,2003-07-15 11:00,ZGSZ 151100Z 17007MPS CAVOK 30/26 Q1005 NOSIG
ZGSZ,2003-07-15 12:00,ZGSZ 151200Z 17006MPS CAVOK 30/26 Q1005 NOSIG
ZGSZ,2003-07-15 13:00,ZGSZ 151300Z 16006MPS CAVOK 30/26 Q1006 NOSIG
ZGSZ,2003-07-15 14:00,ZGSZ 151400Z 17006MPS CAVOK 29/26 Q1006 NOSIG
ZGSZ,2003-07-15 15:00,ZGSZ 151500Z 16006MPS CAVOK 29/26 Q1007 NOSIG
ZGSZ,2003-07-15 16:00,ZGSZ 151600Z 16007MPS CAVOK 29/25 Q1007 NOSIG
ZGSZ,2003-07-15 17:00,ZGSZ 151700Z 17005MPS 9999 FEW026 29/25 Q1007 NOSIG
ZGSZ,2003-07-15 18:00,ZGSZ 151800Z 17005MPS 9999 SCT020 29/25 Q1007 NOSIG
ZGSZ,2003-07-15 19:00,ZGSZ 151900Z 18004MPS 9999 SCT020 29/25 Q1007 NOSIG
ZGSZ,2003-07-15 20:00,ZGSZ 152000Z 18005MPS 9999 SCT020 29/24 Q1006 NOSIG
ZGSZ,2003-07-15 21:00,ZGSZ 152100Z 21004MPS 9999 BKN020 28/24 Q1007 NOSIG
ZGSZ,2003-07-15 22:00,ZGSZ 152200Z 19004MPS 9999 SCT018 28/24 Q1007 NOSIG
ZGSZ,2003-07-15 23:00,ZGSZ 152300Z 21003MPS 9999 SCT018 28/25 Q1008 NOSIG
ZGSZ,2003-07-16 00:00,ZGSZ 160000Z 20002MPS 9999 BKN018 29/25 Q1008 NOSIG
ZGSZ,2003-07-16 01:00,ZGSZ 160100Z 20002MPS 9999 SCT020 30/25 Q1009 NOSIG
ZGSZ,2003-07-16 02:00,ZGSZ 160200Z 20002MPS 9999 FEW023 31/25 Q1009 NOSIG
ZGSZ,2003-07-16 03:00,ZGSZ 160300Z 21002MPS 9999 FEW026 31/24 Q1008 NOSIG
ZGSZ,2003-07-16 04:00,ZGSZ 160400Z 18003MPS CAVOK 32/25 Q1008 NOSIG
ZGSZ,2003-07-16 05:00,ZGSZ 160500Z 18004MPS CAVOK 32/25 Q1007 NOSIG
ZGSZ,2003-07-16 06:00,ZGSZ 160600Z 18004MPS CAVOK 33/26 Q1007 NOSIG
ZGSZ,2003-07-16 07:00,ZGSZ 160700Z 18006MPS CAVOK 32/26 Q1006 NOSIG
ZGSZ,2003-07-16 08:00,ZGSZ 160800Z 18005MPS CAVOK 32/26 Q1006 NOSIG
ZGSZ,2003-07-16 09:00,ZGSZ 160900Z 18006MPS CAVOK 32/26 Q1006 NOSIG
ZGSZ,2003-07-16 10:00,ZGSZ 161000Z 18008MPS CAVOK 31/25 Q1006 NOSIG
ZGSZ,2003-07-16 11:00,ZGSZ 161100Z 17007MPS CAVOK 30/25 Q1006 NOSIG
ZGSZ,2003-07-16 12:00,ZGSZ 161200Z 17007MPS CAVOK 30/25 Q1006 NOSIG
ZGSZ,2003-07-16 13:00,ZGSZ 161300Z 16007MPS CAVOK 29/25 Q1007 NOSIG
ZGSZ,2003-07-16 14:00,ZGSZ 161400Z 17006MPS CAVOK 29/25 Q1007 NOSIG
ZGSZ,2003-07-16 15:00,ZGSZ 161500Z 17006MPS CAVOK 29/25 Q1007 NOSIG
ZGSZ,2003-07-16 16:00,ZGSZ 161600Z 17007MPS 9999 FEW020 29/25 Q1007 NOSIG
ZGSZ,2003-07-16 17:00,ZGSZ 161700Z 18006MPS 9999 SCT020 29/25 Q1007 NOSIG
ZGSZ,2003-07-16 18:00,ZGSZ 161800Z 18005MPS 9999 SCT020 28/25 Q1007 NOSIG
ZGSZ,2003-07-16 19:00,ZGSZ 161900Z 18005MPS 9999 SCT020 28/25 Q1007 NOSIG
ZGSZ,2003-07-16 20:00,ZGSZ 162000Z 18004MPS 9999 SCT020 28/24 Q1007 NOSIG
ZGSZ,2003-07-16 21:00,ZGSZ 162100Z 18003MPS 9999 SCT020 28/24 Q1007 NOSIG
ZGSZ,2003-07-16 22:00,ZGSZ 162200Z 20003MPS 9999 FEW020 28/24 Q1007 NOSIG
ZGSZ,2003-07-16 23:00,ZGSZ 162300Z 19002MPS 9999 FEW020 29/24 Q1008 NOSIG
ZGSZ,2003-07-17 00:00,ZGSZ 170000Z 20003MPS 9999 SCT020 29/24 Q1008 NOSIG
ZGSZ,2003-07-17 01:00,ZGSZ 170100Z 21002MPS 9999 SCT020 30/24 Q1009 NOSIG
ZGSZ,2003-07-17 02:00,ZGSZ 170200Z 20002MPS 9999 SCT020 30/24 Q1009 NOSIG
ZGSZ,2003-07-17 03:00,ZGSZ 170300Z 19002MPS 9999 FEW020 SCT300 31/22 Q1009 NOSIG
ZGSZ,2003-07-17 04:00,ZGSZ 170400Z 19003MPS 9999 FEW020 SCT300 32/23 Q1009 NOSIG
ZGSZ,2003-07-17 05:00,ZGSZ 170500Z 18004MPS CAVOK 32/25 Q1008 NOSIG
ZGSZ,2003-07-17 06:00,ZGSZ 170600Z 17004MPS CAVOK 32/24 Q1007 NOSIG
ZGSZ,2003-07-17 07:00,ZGSZ 170700Z 17005MPS CAVOK 32/25 Q1007 NOSIG
ZGSZ,2003-07-17 08:00,ZGSZ 170800Z 17006MPS CAVOK 32/25 Q1006 NOSIG
ZGSZ,2003-07-17 09:00,ZGSZ 170900Z 18006MPS CAVOK 32/25 Q1006 NOSIG
ZGSZ,2003-07-17 10:00,ZGSZ 171000Z 18007MPS CAVOK 31/25 Q1005 NOSIG
ZGSZ,2003-07-17 11:00,ZGSZ 171100Z 18007MPS CAVOK 30/24 Q1005 NOSIG
ZGSZ,2003-07-17 12:00,ZGSZ 171200Z 17006MPS CAVOK 29/24 Q1005 NOSIG
ZGSZ,2003-07-17 13:00,ZGSZ 171300Z 17006MPS CAVOK 29/24 Q1006 NOSIG
ZGSZ,2003-07-17 14:00,ZGSZ 171400Z 17005MPS 9999 FEW020 SCT300 29/25 Q1006 NOSIG
ZGSZ,2003-07-17 15:00,ZGSZ 171500Z 17005MPS 9999 FEW020 29/24 Q1006 NOSIG
ZGSZ,2003-07-17 16:00,ZGSZ 171600Z 17006MPS 9999 FEW020 28/24 Q1006 NOSIG
ZGSZ,2003-07-17 17:00,ZGSZ 171700Z 18006MPS 9999 FEW020 28/24 Q1006 NOSIG
ZGSZ,2003-07-17 18:00,ZGSZ 171800Z 18006MPS 9999 FEW020 28/24 Q1006 NOSIG
ZGSZ,2003-07-17 19:00,ZGSZ 171900Z 20005MPS 9999 FEW020 28/23 Q1005 NOSIG
ZGSZ,2003-07-17 20:00,ZGSZ 172000Z 18004MPS 9999 FEW020 28/23 Q1005 NOSIG
ZGSZ,2003-07-17 21:00,ZGSZ 172100Z 18004MPS 9999 SCT020 28/23 Q1005 NOSIG
ZGSZ,2003-07-17 22:00,ZGSZ 172200Z 19003MPS 9999 SCT020 28/23 Q1006 NOSIG
ZGSZ,2003-07-17 23:00,ZGSZ 172300Z 18004MPS 9999 SCT020 BKN200 29/24 Q1006 NOSIG
ZGSZ,2003-07-18 00:00,ZGSZ 180000Z 17004MPS 9999 SCT020 FEW026TCU SCT230 29/24 Q1006 NOSIG
ZGSZ,2003-07-18 01:00,ZGSZ 180100Z 18004MPS 9999 BKN022 30/25 Q1006 NOSIG
ZGSZ,2003-07-18 02:00,ZGSZ 180200Z 18004MPS 9999 SCT023 SCT260 31/25 Q1006 NOSIG
ZGSZ,2003-07-18 03:00,ZGSZ 180300Z 18004MPS 9999 SCT025 BKN260 31/25 Q1006 NOSIG
ZGSZ,2003-07-18 04:00,ZGSZ 180400Z 18004MPS 9999 FEW025 SCT260 31/24 Q1006 NOSIG
ZGSZ,2003-07-18 05:00,ZGSZ 180500Z 18004MPS CAVOK 32/25 Q1005 NOSIG
ZGSZ,2003-07-18 06:00,ZGSZ 180600Z 18005MPS CAVOK 32/25 Q1004 NOSIG
ZGSZ,2003-07-18 07:00,ZGSZ 180700Z 18004MPS CAVOK 32/25 Q1004 NOSIG
ZGSZ,2003-07-18 08:00,ZGSZ 180800Z 18005MPS CAVOK 32/25 Q1003 NOSIG
ZGSZ,2003-07-18 09:00,ZGSZ 180900Z 18006MPS CAVOK 31/25 Q1003 NOSIG
ZGSZ,2003-07-18 10:00,ZGSZ 181000Z 18007MPS CAVOK 30/25 Q1003 NOSIG
ZGSZ,2003-07-18 11:00,ZGSZ 181100Z 18006MPS CAVOK 30/25 Q1003 NOSIG
ZGSZ,2003-07-18 12:00,ZGSZ 181200Z 17006MPS CAVOK 30/25 Q1003 NOSIG
ZGSZ,2003-07-18 13:00,ZGSZ 181300Z 17005MPS CAVOK 29/25 Q1004 NOSIG
ZGSZ,2003-07-18 14:00,ZGSZ 181400Z 17005MPS CAVOK 29/24 Q1004 NOSIG
ZGSZ,2003-07-18 15:00,ZGSZ 181500Z 17006MPS CAVOK 29/24 Q1005 NOSIG
ZGSZ,2003-07-18 16:00,ZGSZ 181600Z 16005MPS CAVOK 29/24 Q1005 NOSIG
ZGSZ,2003-07-18 17:00,ZGSZ 181700Z 14003MPS CAVOK 28/24 Q1005 NOSIG
ZGSZ,2003-07-18 18:00,ZGSZ 181800Z 14003MPS CAVOK 27/23 Q1004 NOSIG
ZGSZ,2003-07-18 19:00,ZGSZ 181900Z 14002MPS CAVOK 27/23 Q1004 NOSIG
ZGSZ,2003-07-18 20:00,ZGSZ 182000Z 08002MPS CAVOK 27/23 Q1004 NOSIG
ZGSZ,2003-07-18 21:00,ZGSZ 182100Z 08002MPS CAVOK 27/23 Q1004 NOSIG
ZGSZ,2003-07-18 22:00,ZGSZ 182200Z 09002MPS CAVOK 27/23 Q1004 NOSIG
ZGSZ,2003-07-18 23:00,ZGSZ 182300Z 05001MPS CAVOK 29/24 Q1005 NOSIG
ZGSZ,2003-07-19 00:00,ZGSZ 190000Z 13002MPS CAVOK 29/23 Q1005 NOSIG
ZGSZ,2003-07-19 01:00,ZGSZ 190100Z 17001MPS 9999 FEW020 30/22 Q1005 NOSIG
ZGSZ,2003-07-19 02:00,ZGSZ 190200Z 24002MPS 9999 FEW020 FEW020TCU SCT300 31/23 Q1005 NOSIG
ZGSZ,2003-07-19 03:00,ZGSZ 190300Z 22003MPS 9999 FEW020 32/23 Q1005 NOSIG
ZGSZ,2003-07-19 04:00,ZGSZ 190400Z 22003MPS 9999 FEW020 SCT300 32/23 Q1004 NOSIG
ZGSZ,2003-07-19 05:00,ZGSZ 190500Z 21003MPS 9999 FEW020 SCT300 33/22 Q1004 NOSIG
ZGSZ,2003-07-19 06:00,ZGSZ 190600Z 19003MPS CAVOK 33/23 Q1004 NOSIG
ZGSZ,2003-07-19 07:00,ZGSZ 190700Z 19004MPS 9999 FEW021 FEW021TCU SCT300 32/24 Q1003 NOSIG
ZGSZ,2003-07-19 08:00,ZGSZ 190800Z 19004MPS CAVOK 32/25 Q1003 NOSIG
ZGSZ,2003-07-19 09:00,ZGSZ 190900Z 20004MPS CAVOK 32/24 Q1002 NOSIG
ZGSZ,2003-07-19 10:00,ZGSZ 191000Z 18005MPS CAVOK 31/24 Q1003 NOSIG
ZGSZ,2003-07-19 11:00,ZGSZ 191100Z 18003MPS CAVOK 31/24 Q1003 NOSIG
ZGSZ,2003-07-19 12:00,ZGSZ 191200Z 18002MPS CAVOK 30/25 Q1003 NOSIG
ZGSZ,2003-07-19 13:00,ZGSZ 191300Z 09003MPS CAVOK 31/21 Q1003 NOSIG
ZGSZ,2003-07-19 14:00,ZGSZ 191400Z 09004MPS CAVOK 30/23 Q1003 NOSIG
ZGSZ,2003-07-19 15:00,ZGSZ 191500Z 09005MPS CAVOK 30/24 Q1003 NOSIG
ZGSZ,2003-07-19 16:00,ZGSZ 191600Z 10004MPS CAVOK 30/24 Q1003 NOSIG
ZGSZ,2003-07-19 17:00,ZGSZ 191700Z 08002MPS 9999 SCT019 30/24 Q1004 NOSIG
ZGSZ,2003-07-19 18:00,ZGSZ 191800Z 06001MPS 9999 SCT018 30/24 Q1004 NOSIG
ZGSZ,2003-07-19 19:00,ZGSZ 191900Z 03002MPS 9999 SCT018 29/25 Q1004 NOSIG
ZGSZ,2003-07-19 20:00,ZGSZ 192000Z 03002MPS 9999 SCT018 29/25 Q1003 NOSIG
ZGSZ,2003-07-19 21:00,ZGSZ 192100Z 08002MPS 9999 BKN017 29/25 Q1003 NOSIG
ZGSZ,2003-07-19 22:00,ZGSZ 192200Z 08001MPS 9999 SCT018 SCT260 29/25 Q1004 NOSIG
ZGSZ,2003-07-19 23:00,ZGSZ 192300Z 09002MPS 9999 SCT019 29/25 Q1004 NOSIG
ZGSZ,2003-07-20 00:00,ZGSZ 200000Z 09004MPS 9999 FEW020 SCT260 31/25 Q1004 NOSIG
ZGSZ,2003-07-20 01:00,ZGSZ 200100Z 11005MPS 9999 SCT020 FEW026TCU SCT300 32/24 Q1005 NOSIG
ZGSZ,2003-07-20 02:00,ZGSZ 200200Z 11004MPS 9999 SCT020 FEW026TCU 33/24 Q1005 NOSIG
ZGSZ,2003-07-20 03:00,ZGSZ 200300Z 17005MPS 9999 SCT020 FEW026TCU 32/25 Q1004 NOSIG
ZGSZ,2003-07-20 04:00,ZGSZ 200400Z 20002MPS 9999 SCT020 FEW026TCU FEW033CB 32/25 Q1004 NOSIG
ZGSZ,2003-07-20 05:00,ZGSZ 200500Z 21004MPS 9999 SCT020 FEW026TCU 33/26 Q1004 NOSIG
ZGSZ,2003-07-20 06:00,ZGSZ 200600Z 11005MPS 9999 BKN020 FEW026TCU 34/22 Q1003 NOSIG
ZGSZ,2003-07-20 07:00,ZGSZ 200700Z 10007MPS 9999 BKN020 FEW026TCU 34/24 Q1002 NOSIG
ZGSZ,2003-07-20 08:00,ZGSZ 200800Z 10007MPS 9999 FEW023 BKN100 34/23 Q1002 NOSIG
ZGSZ,2003-07-20 09:00,ZGSZ 200900Z 10006MPS 9999 FEW025 FEW025TCU SCT110 32/22 Q1003 NOSIG
ZGSZ,2003-07-20 10:00,ZGSZ 201000Z 09006MPS 9999 FEW025 BKN260 32/23 Q1003 NOSIG
ZGSZ,2003-07-20 11:00,ZGSZ 201100Z 09006MPS 9999 FEW021 BKN260 31/23 Q1003 NOSIG
ZGSZ,2003-07-20 12:00,ZGSZ 201200Z 09004MPS CAVOK 31/23 Q1004 NOSIG
ZGSZ,2003-07-20 13:00,ZGSZ 201300Z 09004MPS 9999 FEW021 BKN260 30/23 Q1004 NOSIG
ZGSZ,2003-07-20 14:00,ZGSZ 201400Z 08005MPS CAVOK 30/23 Q1004 NOSIG
ZGSZ,2003-07-20 15:00,ZGSZ 201500Z 09005MPS CAVOK 30/23 Q1005 NOSIG
ZGSZ,2003-07-20 16:00,ZGSZ 201600Z 06004MPS CAVOK 29/23 Q1004 NOSIG
ZGSZ,2003-07-20 17:00,ZGSZ 201700Z 06003MPS 9999 BKN020 29/24 Q1004 NOSIG
ZGSZ,2003-07-20 18:00,ZGSZ 201800Z 06004MPS CAVOK 29/24 Q1003 NOSIG
ZGSZ,2003-07-20 19:00,ZGSZ 201900Z 05004MPS CAVOK 29/24 Q1003 NOSIG
ZGSZ,2003-07-20 20:00,ZGSZ 202000Z 09004MPS 9999 BKN021 SCT060 29/24 Q1003 NOSIG
ZGSZ,2003-07-20 21:00,ZGSZ 202100Z 09004MPS CAVOK 29/23 Q1003 NOSIG
ZGSZ,2003-07-20 22:00,ZGSZ 202200Z 09005MPS 7000 -SHRA BKN016 FEW021TCU 28/24 Q1003 NOSIG
ZGSZ,2003-07-20 23:00,ZGSZ 202300Z 09004MPS 9999 FEW018 BKN040 27/23 Q1003 NOSIG
ZGSZ,2003-07-21 00:00,ZGSZ 210000Z 04002MPS 9999 FEW020TCU SCT150 28/24 Q1004 NOSIG
ZGSZ,2003-07-21 01:00,ZGSZ 210100Z 09005MPS 9999 FEW020 BKN100 29/25 Q1004 NOSIG
ZGSZ,2003-07-21 02:00,ZGSZ 210200Z 07003MPS 9999 FEW010 BKN200 29/24 Q1004 NOSIG
ZGSZ,2003-07-21 03:00,ZGSZ 210300Z 10005MPS 9999 FEW010 SCT200 33/25 Q1004 NOSIG
ZGSZ,2003-07-21 04:00,ZGSZ 210400Z 09008MPS 9999 BKN020 FEW030CB 32/24 Q1004 NOSIG
ZGSZ,2003-07-21 05:00,ZGSZ 210500Z 09007MPS 9999 BKN020 FEW030TCU 32/23 Q1004 NOSIG
ZGSZ,2003-07-21 06:00,ZGSZ 210600Z 12007MPS 9999 -SHRA BKN020 FEW030TCU 29/24 Q1004 NOSIG
ZGSZ,2003-07-21 07:00,ZGSZ 210700Z 08006MPS 9999 FEW020 FEW030TCU BKN200 30/24 Q1004 NOSIG
ZGSZ,2003-07-21 08:00,ZGSZ 210800Z 09006MPS 9999 SCT020 FEW030TCU BKN100 31/24 Q1003 NOSIG
ZGSZ,2003-07-21 09:00,ZGSZ 210900Z 09006MPS 9999 SCT025 32/22 Q1003 NOSIG
ZGSZ,2003-07-21 10:00,ZGSZ 211000Z 09005MPS 9999 SCT023 FEW023TCU 31/24 Q1003 NOSIG
ZGSZ,2003-07-21 11:00,ZGSZ 211100Z 09003MPS 9999 SCT016 FEW020TCU SCT060 30/24 Q1004 NOSIG
ZGSZ,2003-07-21 12:00,ZGSZ 211200Z 12004MPS 6000 -SHRA SCT013 FEW026CB BKN043 29/24 Q1005 NOSIG
ZGSZ,2003-07-21 13:00,ZGSZ 211300Z 09004MPS 5000 -SHRA SCT010 FEW030CB BKN043 25/23 Q1006 NOSIG
ZGSZ,2003-07-21 14:00,ZGSZ 211400Z 09006MPS 9999 -SHRA FEW012 FEW033CB BKN050 26/23 Q1007 NOSIG
ZGSZ,2003-07-21 15:00,ZGSZ 211500Z 08004MPS 9999 FEW014 FEW040CB BKN060 27/23 Q1006 NOSIG
ZGSZ,2003-07-21 16:00,ZGSZ 211600Z 08003MPS 9999 FEW016 27/23 Q1006 NOSIG
ZGSZ,2003-07-21 17:00,ZGSZ 211700Z 09003MPS CAVOK 27/24 Q1006 NOSIG
ZGSZ,2003-07-21 18:00,ZGSZ 211800Z 06003MPS CAVOK 27/24 Q1005 NOSIG
ZGSZ,2003-07-21 19:00,ZGSZ 211900Z 36003MPS CAVOK 26/23 Q1005 NOSIG
ZGSZ,2003-07-21 20:00,ZGSZ 212000Z 36002MPS CAVOK 27/24 Q1005 NOSIG
ZGSZ,2003-07-21 21:00,ZGSZ 212100Z 05003MPS CAVOK 27/24 Q1005 NOSIG
ZGSZ,2003-07-21 22:00,ZGSZ 212200Z 05002MPS 9999 FEW018 27/24 Q1005 NOSIG
ZGSZ,2003-07-21 23:00,ZGSZ 212300Z 05003MPS 9999 FEW019 28/24 Q1006 NOSIG
ZGSZ,2003-07-22 00:00,ZGSZ 220000Z 06004MPS 9999 FEW020 29/25 Q1006 NOSIG
ZGSZ,2003-07-22 01:00,ZGSZ 220100Z 06003MPS 9999 SCT020 31/25 Q1007 NOSIG
ZGSZ,2003-07-22 02:00,ZGSZ 220200Z 09005MPS 9999 SCT023 32/24 Q1006 NOSIG
ZGSZ,2003-07-22 03:00,ZGSZ 220300Z 09005MPS 9999 FEW026 33/23 Q1006 NOSIG
ZGSZ,2003-07-22 04:00,ZGSZ 220400Z 09005MPS 9999 FEW026 34/23 Q1006 NOSIG
ZGSZ,2003-07-22 05:00,ZGSZ 220500Z 09004MPS 9999 FEW026 35/24 Q1005 NOSIG
ZGSZ,2003-07-22 06:00,ZGSZ 220600Z 08004MPS 9999 SCT026 34/22 Q1005 NOSIG
ZGSZ,2003-07-22 07:00,ZGSZ 220700Z 21003MPS 9999 SCT023 33/24 Q1004 NOSIG
ZGSZ,2003-07-22 08:00,ZGSZ 220800Z 20003MPS 9999 FEW030 33/24 Q1004 NOSIG
ZGSZ,2003-07-22 09:00,ZGSZ 220900Z 22004MPS CAVOK 33/25 Q1003 NOSIG
ZGSZ,2003-07-22 11:00,ZGSZ 221100Z 22002MPS CAVOK 31/25 Q1003 NOSIG
ZGSZ,2003-07-22 12:00,ZGSZ 221200Z 24002MPS CAVOK 31/24 Q1003 NOSIG
ZGSZ,2003-07-22 13:00,ZGSZ 221300Z 00000MPS CAVOK 30/25 Q1003 NOSIG
ZGSZ,2003-07-22 14:00,ZGSZ 221400Z 00000MPS CAVOK 31/25 Q1003 NOSIG
ZGSZ,2003-07-22 15:00,ZGSZ 221500Z 34001MPS CAVOK 30/24 Q1004 NOSIG
ZGSZ,2003-07-22 16:00,ZGSZ 221600Z 00000MPS CAVOK 30/24 Q1004 NOSIG
ZGSZ,2003-07-22 17:00,ZGSZ 221700Z 32002MPS 8000 SKC 30/25 Q1003 NOSIG
ZGSZ,2003-07-22 18:00,ZGSZ 221800Z 35002MPS 6000 SKC 30/24 Q1002 NOSIG
ZGSZ,2003-07-22 19:00,ZGSZ 221900Z 32003MPS 6000 SKC 30/24 Q1001 NOSIG
ZGSZ,2003-07-22 20:00,ZGSZ 222000Z 12003MPS 6000 NSC 29/24 Q1001 NOSIG
ZGSZ,2003-07-22 21:00,ZGSZ 222100Z 09002MPS 6000 NSC 29/24 Q1002 NOSIG
ZGSZ,2003-07-22 22:00,ZGSZ 222200Z 13003MPS CAVOK 28/24 Q1002 NOSIG
ZGSZ,2003-07-22 23:00,ZGSZ 222300Z 12002MPS CAVOK 29/24 Q1002 NOSIG
ZGSZ,2003-07-23 00:00,ZGSZ 230000Z 11001MPS CAVOK 31/25 Q1002 NOSIG
ZGSZ,2003-07-23 01:00,ZGSZ 230100Z 26002MPS CAVOK 31/25 Q1002 NOSIG
ZGSZ,2003-07-23 02:00,ZGSZ 230200Z 08004MPS 9999 FEW020 BKN150 34/23 Q1002 NOSIG
ZGSZ,2003-07-23 03:00,ZGSZ 230300Z 06005G10MPS CAVOK 35/24 Q1001 NOSIG
ZGSZ,2003-07-23 04:00,ZGSZ 230400Z 04004MPS 9999 BKN020 FEW020TCU 34/24 Q1001 NOSIG
ZGSZ,2003-07-23 05:00,ZGSZ 230500Z 07006MPS 9999 SCT020 BKN110 36/23 Q1000 NOSIG
ZGSZ,2003-07-23 06:00,ZGSZ 230600Z 06006MPS 1800 TSRA SCT015 FEW020TCU FEW026CB 35/22 Q0999 NOSIG
ZGSZ,2003-07-23 07:00,ZGSZ 230700Z 05006MPS 9999 BKN020 FEW020TCU BKN110 34/24 Q0999 NOSIG
ZGSZ,2003-07-23 08:00,ZGSZ 230800Z 05007MPS 9999 SCT021 FEW021TCU BKN160 33/23 Q0998 NOSIG
ZGSZ,2003-07-23 09:00,ZGSZ 230900Z 08010MPS 9999 FEW021 FEW021TCU BKN050 29/23 Q0998 NOSIG
ZGSZ,2003-07-23 10:00,ZGSZ 231000Z 08009MPS 9999 -SHRA SCT018 FEW026TCU BKN040 30/23 Q0998 NOSIG
ZGSZ,2003-07-23 11:00,ZGSZ 231100Z 05008MPS 9999 FEW015 SCT021 BKN053 29/23 Q0998 NOSIG
ZGSZ,2003-07-23 12:00,ZGSZ 231200Z 04009G15MPS 8000 -SHRA SCT013 FEW023TCU BKN043 28/23 Q0999 NOSIG
ZGSZ,2003-07-23 13:00,ZGSZ 231300Z 05010G15MPS 9999 FEW020 BKN060 29/23 Q0999 NOSIG
ZGSZ,2003-07-23 14:00,ZGSZ 231400Z 04008G13MPS 9999 FEW013 BKN043 27/23 Q0999 NOSIG
ZGSZ,2003-07-23 15:00,ZGSZ 231500Z 06005MPS 9999 SCT015 BKN060 27/23 Q0999 NOSIG
ZGSZ,2003-07-23 16:00,ZGSZ 231600Z 06006MPS 9999 -SHRA FEW015 FEW030TCU BKN060 27/23 Q0998 NOSIG
ZGSZ,2003-07-23 17:00,ZGSZ 231700Z 09007MPS 9999 -SHRA FEW015 FEW030TCU BKN060 26/23 Q0998 NOSIG
ZGSZ,2003-07-23 18:00,ZGSZ 231800Z 09012G17MPS 9999 -SHRA FEW015 FEW030TCU BKN060 29/22 Q0997 NOSIG
ZGSZ,2003-07-23 19:00,ZGSZ 231900Z 08015G22MPS 9999 -SHRA FEW015 FEW030TCU BKN060 29/22 Q0996 NOSIG
ZGSZ,2003-07-23 20:00,ZGSZ 232000Z 09012G17MPS 9999 SCT016 BKN060 27/23 Q0996 NOSIG
ZGSZ,2003-07-23 21:00,ZGSZ 232100Z 09013G19MPS 9999 -SHRA SCT016 FEW026TCU BKN060 28/23 Q0996 NOSIG
ZGSZ,2003-07-23 22:00,ZGSZ 232200Z 10012G22MPS 9999 -SHRA SCT016 FEW026TCU BKN060 28/23 Q0997 NOSIG
ZGSZ,2003-07-23 23:00,ZGSZ 232300Z 09011MPS 9999 BKN020 FEW023TCU SCT050 28/23 Q0997 NOSIG
ZGSZ,2003-07-24 00:00,ZGSZ 240000Z 09011MPS 9999 BKN020 FEW023TCU SCT053 29/22 Q0998 NOSIG
ZGSZ,2003-07-24 01:00,ZGSZ 240100Z 11010G17MPS 9999 BKN016 FEW023TCU BKN043 29/22 Q0999 WS RWY33 NOSIG
ZGSZ,2003-07-24 02:00,ZGSZ 240200Z 12012G17MPS 9999 BKN017 BKN050 30/22 Q0999 WS RWY15 NOSIG
ZGSZ,2003-07-24 03:00,ZGSZ 240300Z 12013G19MPS 9999 SCT016 FEW023TCU BKN046 30/22 Q1000 NOSIG
ZGSZ,2003-07-24 04:00,ZGSZ 240400Z 13013G18MPS 9999 BKN016 FEW025TCU BKN050 30/23 Q1001 NOSIG
ZGSZ,2003-07-24 05:00,ZGSZ 240500Z 13013MPS 9999 SCT018 BKN050 30/23 Q1001 NOSIG
ZGSZ,2003-07-24 06:00,ZGSZ 240600Z 12012G18MPS 9999 SCT020 BKN060 31/23 Q1001 NOSIG
ZGSZ,2003-07-24 07:00,ZGSZ 240700Z 13013MPS 9999 SCT020 BKN070 31/23 Q1002 NOSIG
ZGSZ,2003-07-24 08:00,ZGSZ 240800Z 13012MPS 9999 SCT019 BKN150 30/23 Q1002 NOSIG
ZGSZ,2003-07-24 09:00,ZGSZ 240900Z 13012MPS 9999 BKN020 BKN120 30/23 Q1002 NOSIG
ZGSZ,2003-07-24 10:00,ZGSZ 241000Z 13008MPS 9999 SCT020 BKN120 30/24 Q1003 NOSIG
ZGSZ,2003-07-24 11:00,ZGSZ 241100Z 13007MPS 9999 BKN020 BKN120 29/23 Q1004 NOSIG
ZGSZ,2003-07-24 12:00,ZGSZ 241200Z 13009MPS 9999 BKN023 BKN100 29/23 Q1004 NOSIG
ZGSZ,2003-07-24 13:00,ZGSZ 241300Z 13008MPS 9999 BKN020 BKN100 29/23 Q1005 NOSIG
ZGSZ,2003-07-24 14:00,ZGSZ 241400Z 13008MPS 9999 BKN026 BKN100 29/23 Q1006 NOSIG
ZGSZ,2003-07-24 15:00,ZGSZ 241500Z 13009MPS 9999 SCT026 BKN120 28/23 Q1006 NOSIG
ZGSZ,2003-07-24 16:00,ZGSZ 241600Z 14007MPS 9999 -SHRA BKN020 FEW030TCU BKN120 27/24 Q1007 NOSIG
ZGSZ,2003-07-24 17:00,ZGSZ 241700Z 14005MPS 9999 BKN020 FEW030TCU BKN120 26/24 Q1007 NOSIG
ZGSZ,2003-07-24 18:00,ZGSZ 241800Z 13005MPS 9999 FEW020 27/24 Q1006 NOSIG
ZGSZ,2003-07-24 19:00,ZGSZ 241900Z 15003MPS 9999 FEW020 27/24 Q1006 NOSIG
ZGSZ,2003-07-24 20:00,ZGSZ 242000Z 13004MPS 9999 FEW020 27/24 Q1005 NOSIG
ZGSZ,2003-07-24 21:00,ZGSZ 242100Z 13004MPS 9999 -RA SCT020 BKN100 27/24 Q1006 NOSIG
ZGSZ,2003-07-24 22:00,ZGSZ 242200Z 12004MPS 9999 BKN020 BKN200 26/24 Q1006 NOSIG
ZGSZ,2003-07-24 23:00,ZGSZ 242300Z 13004MPS 9999 BKN020 27/24 Q1007 NOSIG
ZGSZ,2003-07-25 00:00,ZGSZ 250000Z 13004MPS 9999 BKN020 28/25 Q1007 NOSIG
ZGSZ,2003-07-25 01:00,ZGSZ 250100Z 14005MPS 9999 BKN016 BKN040 29/24 Q1008 NOSIG
ZGSZ,2003-07-25 02:00,ZGSZ 250200Z 15007MPS 9999 FEW018 BKN026 29/25 Q1008 NOSIG
ZGSZ,2003-07-25 03:00,ZGSZ 250300Z 15006MPS 9999 BKN020 30/25 Q1008 NOSIG
ZGSZ,2003-07-25 04:00,ZGSZ 250400Z 15008MPS 9999 BKN020 FEW020TCU 30/25 Q1008 NOSIG
ZGSZ,2003-07-25 05:00,ZGSZ 250500Z 15007MPS 9999 SCT020 FEW020TCU 30/24 Q1008 NOSIG
ZGSZ,2003-07-25 06:00,ZGSZ 250600Z 16007MPS 9999 SCT021 FEW021TCU SCT060 30/24 Q1008 NOSIG
ZGSZ,2003-07-25 07:00,ZGSZ 250700Z 15007MPS 9999 FEW021 FEW021TCU BKN076 30/25 Q1008 NOSIG
ZGSZ,2003-07-25 08:00,ZGSZ 250800Z 15008MPS 9999 SCT021 FEW021TCU SCT070 30/24 Q1007 NOSIG
ZGSZ,2003-07-25 09:00,ZGSZ 250900Z 15007MPS 9999 BKN020 FEW030TCU 30/24 Q1008 NOSIG
ZGSZ,2003-07-25 10:00,ZGSZ 251000Z 14005MPS 9999 BKN020 30/24 Q1008 NOSIG
ZGSZ,2003-07-25 11:00,ZGSZ 251100Z 15005MPS 9999 BKN026 29/24 Q1008 NOSIG
ZGSZ,2003-07-25 12:00,ZGSZ 251200Z 14005MPS 9999 BKN030 29/24 Q1009 NOSIG
ZGSZ,2003-07-25 13:00,ZGSZ 251300Z 09004MPS 9999 BKN026 29/24 Q1010 NOSIG
ZGSZ,2003-07-25 14:00,ZGSZ 251400Z 11004MPS 9999 SCT020 BKN100 28/24 Q1010 NOSIG
ZGSZ,2003-07-25 15:00,ZGSZ 251500Z 12004MPS 9999 SCT020 28/24 Q1011 NOSIG
ZGSZ,2003-07-25 16:00,ZGSZ 251600Z 10004MPS CAVOK 28/24 Q1010 NOSIG
ZGSZ,2003-07-25 17:00,ZGSZ 251700Z 11004MPS CAVOK 28/23 Q1010 NOSIG
ZGSZ,2003-07-25 18:00,ZGSZ 251800Z 11004MPS 9999 BKN026 27/24 Q1010 NOSIG
ZGSZ,2003-07-25 19:00,ZGSZ 251900Z 11003MPS 9999 BKN030 27/23 Q1010 NOSIG
ZGSZ,2003-07-25 20:00,ZGSZ 252000Z 11002MPS 9999 BKN030 28/24 Q1010 NOSIG
ZGSZ,2003-07-25 21:00,ZGSZ 252100Z 12002MPS 9999 BKN030 27/23 Q1010 NOSIG
ZGSZ,2003-07-25 22:00,ZGSZ 252200Z 09001MPS 9999 BKN030 27/24 Q1010 NOSIG
ZGSZ,2003-07-25 23:00,ZGSZ 252300Z 11002MPS 9999 BKN022 28/24 Q1011 NOSIG
ZGSZ,2003-07-26 00:00,ZGSZ 260000Z 14003MPS 9999 SCT020 FEW030TCU 29/24 Q1011 NOSIG
ZGSZ,2003-07-26 01:00,ZGSZ 260100Z 17003MPS 9999 SCT020 FEW026TCU 29/24 Q1012 NOSIG
ZGSZ,2003-07-26 02:00,ZGSZ 260200Z 18003MPS 9999 FEW020 FEW026TCU 29/25 Q1012 NOSIG
ZGSZ,2003-07-26 03:00,ZGSZ 260300Z 19003MPS 9999 FEW020 30/25 Q1011 NOSIG
ZGSZ,2003-07-26 04:00,ZGSZ 260400Z 19003MPS 9999 FEW020 SCT230 30/25 Q1011 NOSIG
ZGSZ,2003-07-26 05:00,ZGSZ 260500Z 18003MPS 9999 FEW020 BKN230 31/25 Q1010 NOSIG
ZGSZ,2003-07-26 06:00,ZGSZ 260600Z 19004MPS 9999 FEW020 BKN230 31/25 Q1010 NOSIG
ZGSZ,2003-07-26 07:00,ZGSZ 260700Z 19005MPS 9999 FEW020 BKN260 31/25 Q1009 NOSIG
ZGSZ,2003-07-26 08:00,ZGSZ 260800Z 18005MPS 9999 FEW023 BKN260 31/25 Q1009 NOSIG
ZGSZ,2003-07-26 09:00,ZGSZ 260900Z 18005MPS CAVOK 31/24 Q1008 NOSIG
ZGSZ,2003-07-26 10:00,ZGSZ 261000Z 18006MPS CAVOK 30/24 Q1008 NOSIG
ZGSZ,2003-07-26 11:00,ZGSZ 261100Z 18006MPS CAVOK 29/24 Q1009 NOSIG
ZGSZ,2003-07-26 12:00,ZGSZ 261200Z 18005MPS CAVOK 29/24 Q1009 NOSIG
ZGSZ,2003-07-26 13:00,ZGSZ 261300Z 18005MPS CAVOK 28/25 Q1010 NOSIG
ZGSZ,2003-07-26 14:00,ZGSZ 261400Z 18005MPS CAVOK 28/25 Q1010 NOSIG
ZGSZ,2003-07-26 15:00,ZGSZ 261500Z 17005MPS CAVOK 28/24 Q1011 NOSIG
ZGSZ,2003-07-26 16:00,ZGSZ 261600Z 18004MPS CAVOK 28/24 Q1011 NOSIG
ZGSZ,2003-07-26 17:00,ZGSZ 261700Z 18004MPS 9999 FEW021 28/24 Q1011 NOSIG
ZGSZ,2003-07-26 18:00,ZGSZ 261800Z 18004MPS 9999 FEW021 28/24 Q1010 NOSIG
ZGSZ,2003-07-26 21:00,ZGSZ 262100Z 22002MPS 9999 FEW021 27/24 Q1009 NOSIG
ZGSZ,2003-07-26 22:00,ZGSZ 262200Z 27001MPS 9999 SCT023 27/24 Q1009 NOSIG
ZGSZ,2003-07-26 23:00,ZGSZ 262300Z 30001MPS 9999 SCT020 27/24 Q1010 NOSIG
ZGSZ,2003-07-27 00:00,ZGSZ 270000Z 28002MPS 9999 FEW020 28/24 Q1009 NOSIG
ZGSZ,2003-07-27 01:00,ZGSZ 270100Z 26002MPS 9999 FEW020 SCT260 29/24 Q1010 NOSIG
ZGSZ,2003-07-27 02:00,ZGSZ 270200Z 25002MPS 9999 FEW021 29/24 Q1010 NOSIG
ZGSZ,2003-07-27 03:00,ZGSZ 270300Z AUTO 18004KT 8SM 32/23 RMK SLP108 T03220233 52010 IEM_DS3505
ZGSZ,2003-07-27 04:00,ZGSZ 270400Z 23002MPS CAVOK 30/24 Q1010 NOSIG
ZGSZ,2003-07-27 05:00,ZGSZ 270500Z 21002MPS CAVOK 31/24 Q1010 NOSIG
ZGSZ,2003-07-27 06:00,ZGSZ 270600Z 19003MPS CAVOK 31/25 Q1009 NOSIG
ZGSZ,2003-07-27 07:00,ZGSZ 270700Z 18004MPS CAVOK 31/24 Q1009 NOSIG
ZGSZ,2003-07-27 08:00,ZGSZ 270800Z 18005MPS CAVOK 31/26 Q1008 NOSIG
ZGSZ,2003-07-27 09:00,ZGSZ 270900Z 18006MPS CAVOK 30/26 Q1007 NOSIG
ZGSZ,2003-07-27 10:00,ZGSZ 271000Z 16005MPS CAVOK 30/25 Q1007 NOSIG
ZGSZ,2003-07-27 11:00,ZGSZ 271100Z 14004MPS CAVOK 29/25 Q1007 NOSIG
ZGSZ,2003-07-27 12:00,ZGSZ 271200Z 14004MPS CAVOK 29/25 Q1008 NOSIG
ZGSZ,2003-07-27 13:00,ZGSZ 271300Z 17005MPS CAVOK 29/25 Q1008 NOSIG
ZGSZ,2003-07-27 14:00,ZGSZ 271400Z 18004MPS CAVOK 29/25 Q1008 NOSIG
ZGSZ,2003-07-27 15:00,ZGSZ 271500Z 17004MPS CAVOK 28/25 Q1010 NOSIG
ZGSZ,2003-07-27 16:00,ZGSZ 271600Z 17004MPS CAVOK 28/25 Q1009 NOSIG
ZGSZ,2003-07-27 17:00,ZGSZ 271700Z 18005MPS CAVOK 28/25 Q1009 NOSIG
ZGSZ,2003-07-27 18:00,ZGSZ 271800Z 18005MPS CAVOK 28/25 Q1008 NOSIG
ZGSZ,2003-07-27 19:00,ZGSZ 271900Z 18007MPS 9999 FEW018 BKN230 28/24 Q1008 NOSIG
ZGSZ,2003-07-27 20:00,ZGSZ 272000Z 17006MPS 9999 FEW018 BKN230 28/24 Q1008 NOSIG
ZGSZ,2003-07-27 21:00,ZGSZ 272100Z 18005MPS 9999 FEW019 SCT260 28/24 Q1008 NOSIG
ZGSZ,2003-07-27 22:00,ZGSZ 272200Z 18004MPS 9999 SCT018 BKN120 28/23 Q1008 NOSIG
ZGSZ,2003-07-27 23:00,ZGSZ 272300Z 22003MPS 9999 SCT019 BKN150 28/24 Q1009 NOSIG
ZGSZ,2003-07-28 00:00,ZGSZ 280000Z 21003MPS 9999 FEW020 SCT070 BKN150 28/23 Q1009 NOSIG
ZGSZ,2003-07-28 01:00,ZGSZ 280100Z 20003MPS 9999 FEW020 BKN150 29/23 Q1010 NOSIG
ZGSZ,2003-07-28 02:00,ZGSZ 280200Z 21003MPS 9999 FEW023 BKN150 30/24 Q1010 NOSIG
ZGSZ,2003-07-28 03:00,ZGSZ 280300Z 23002MPS 9999 FEW023 BKN150 29/23 Q1009 NOSIG
ZGSZ,2003-07-28 04:00,ZGSZ 280400Z 23002MPS CAVOK 31/23 Q1009 NOSIG
ZGSZ,2003-07-28 05:00,ZGSZ 280500Z 22002MPS CAVOK 30/24 Q1009 NOSIG
ZGSZ,2003-07-28 06:00,ZGSZ 280600Z 18004MPS CAVOK 31/23 Q1008 NOSIG
ZGSZ,2003-07-28 07:00,ZGSZ 280700Z 18005MPS CAVOK 31/24 Q1007 NOSIG
ZGSZ,2003-07-28 08:00,ZGSZ 280800Z 18007MPS CAVOK 30/23 Q1007 NOSIG
ZGSZ,2003-07-28 09:00,ZGSZ 280900Z 18007MPS CAVOK 30/23 Q1007 NOSIG
ZGSZ,2003-07-28 10:00,ZGSZ 281000Z 18007MPS CAVOK 30/24 Q1007 NOSIG
ZGSZ,2003-07-28 11:00,ZGSZ 281100Z 18005MPS CAVOK 29/24 Q1007 NOSIG
ZGSZ,2003-07-28 12:00,ZGSZ 281200Z 17006MPS CAVOK 28/24 Q1007 NOSIG
ZGSZ,2003-07-28 13:00,ZGSZ 281300Z 17005MPS CAVOK 28/23 Q1008 NOSIG
ZGSZ,2003-07-28 14:00,ZGSZ 281400Z 17005MPS CAVOK 28/23 Q1008 NOSIG
ZGSZ,2003-07-28 15:00,ZGSZ 281500Z 17005MPS CAVOK 28/23 Q1009 NOSIG
ZGSZ,2003-07-28 16:00,ZGSZ 281600Z 18006MPS CAVOK 28/23 Q1008 NOSIG
ZGSZ,2003-07-28 17:00,ZGSZ 281700Z 18005MPS CAVOK 28/24 Q1008 NOSIG
ZGSZ,2003-07-28 18:00,ZGSZ 281800Z 18005MPS CAVOK 28/24 Q1008 NOSIG
ZGSZ,2003-07-28 19:00,ZGSZ 281900Z 21003MPS 9999 SCT021 28/24 Q1008 NOSIG
ZGSZ,2003-07-28 20:00,ZGSZ 282000Z 20003MPS 9999 SCT021 28/23 Q1008 NOSIG
ZGSZ,2003-07-28 21:00,ZGSZ 282100Z 18003MPS 9999 SCT021 27/23 Q1008 NOSIG
ZGSZ,2003-07-28 22:00,ZGSZ 282200Z 20001MPS 9999 SCT021 27/23 Q1008 NOSIG
ZGSZ,2003-07-28 23:00,ZGSZ 282300Z 08001MPS 9999 BKN021 28/23 Q1008 NOSIG
ZGSZ,2003-07-29 00:00,ZGSZ 290000Z 17001MPS 9999 BKN021 29/23 Q1008 NOSIG
ZGSZ,2003-07-29 01:00,ZGSZ 290100Z 18003MPS 9999 SCT020 30/23 Q1009 NOSIG
ZGSZ,2003-07-29 02:00,ZGSZ 290200Z 19003MPS 9999 FEW020 30/23 Q1009 NOSIG
ZGSZ,2003-07-29 03:00,ZGSZ 290300Z 22003MPS CAVOK 30/22 Q1009 NOSIG
ZGSZ,2003-07-29 04:00,ZGSZ 290400Z 21003MPS CAVOK 31/22 Q1008 NOSIG
ZGSZ,2003-07-29 05:00,ZGSZ 290500Z 22003MPS CAVOK 32/21 Q1007 NOSIG
ZGSZ,2003-07-29 06:00,ZGSZ 290600Z 20004MPS CAVOK 32/22 Q1006 NOSIG
ZGSZ,2003-07-29 07:00,ZGSZ 290700Z 19003MPS CAVOK 32/23 Q1006 NOSIG
ZGSZ,2003-07-29 08:00,ZGSZ 290800Z 18004MPS CAVOK 32/23 Q1005 NOSIG
ZGSZ,2003-07-29 09:00,ZGSZ 290900Z 18005MPS CAVOK 31/25 Q1005 NOSIG
ZGSZ,2003-07-29 10:00,ZGSZ 291000Z 18006MPS CAVOK 30/24 Q1005 NOSIG
ZGSZ,2003-07-29 11:00,ZGSZ 291100Z 18006MPS CAVOK 29/24 Q1005 NOSIG
ZGSZ,2003-07-29 12:00,ZGSZ 291200Z 18006MPS CAVOK 29/24 Q1006 NOSIG
ZGSZ,2003-07-29 13:00,ZGSZ 291300Z 18005MPS CAVOK 29/24 Q1007 NOSIG
ZGSZ,2003-07-29 14:00,ZGSZ 291400Z 17005MPS CAVOK 29/24 Q1007 NOSIG
ZGSZ,2003-07-29 15:00,ZGSZ 291500Z 17004MPS CAVOK 28/23 Q1007 NOSIG
ZGSZ,2003-07-29 16:00,ZGSZ 291600Z 17003MPS CAVOK 28/24 Q1007 NOSIG
ZGSZ,2003-07-29 17:00,ZGSZ 291700Z 18003MPS CAVOK 28/24 Q1006 NOSIG
ZGSZ,2003-07-29 18:00,ZGSZ 291800Z 18003MPS CAVOK 28/24 Q1006 NOSIG
ZGSZ,2003-07-29 19:00,ZGSZ 291900Z 16002MPS CAVOK 28/24 Q1006 NOSIG
ZGSZ,2003-07-29 20:00,ZGSZ 292000Z 14002MPS CAVOK 27/24 Q1006 NOSIG
ZGSZ,2003-07-29 21:00,ZGSZ 292100Z 08001MPS 9999 FEW016 28/24 Q1006 NOSIG
ZGSZ,2003-07-29 22:00,ZGSZ 292200Z 16001MPS 9999 SCT020 27/24 Q1005 NOSIG
ZGSZ,2003-07-29 23:00,ZGSZ 292300Z 09002MPS 9999 FEW020 28/24 Q1006 NOSIG
ZGSZ,2003-07-30 00:00,ZGSZ 300000Z 19002MPS 9999 SCT020 29/24 Q1006 NOSIG
ZGSZ,2003-07-30 01:00,ZGSZ 300100Z 24002MPS 9999 SCT020 30/24 Q1006 NOSIG
ZGSZ,2003-07-30 02:00,ZGSZ 300200Z 23002MPS 9999 FEW023 SCT260 30/24 Q1006 NOSIG
ZGSZ,2003-07-30 03:00,ZGSZ 300300Z 24003MPS 9999 FEW025 SCT260 31/24 Q1006 NOSIG
ZGSZ,2003-07-30 04:00,ZGSZ 300400Z 25002MPS CAVOK 31/24 Q1006 NOSIG
ZGSZ,2003-07-30 05:00,ZGSZ 300500Z 23002MPS CAVOK 32/25 Q1005 NOSIG
ZGSZ,2003-07-30 06:00,ZGSZ 300600Z 22002MPS CAVOK 32/25 Q1004 NOSIG
ZGSZ,2003-07-30 07:00,ZGSZ 300700Z 19003MPS 9999 SCT026 SCT300 32/24 Q1004 NOSIG
ZGSZ,2003-07-30 08:00,ZGSZ 300800Z 18004MPS 9999 FEW025 31/24 Q1003 NOSIG
ZGSZ,2003-07-30 09:00,ZGSZ 300900Z 17005MPS CAVOK 31/24 Q1003 NOSIG
ZGSZ,2003-07-30 10:00,ZGSZ 301000Z 18006MPS CAVOK 30/25 Q1003 NOSIG
ZGSZ,2003-07-30 11:00,ZGSZ 301100Z 18006MPS CAVOK 30/25 Q1003 NOSIG
ZGSZ,2003-07-30 12:00,ZGSZ 301200Z 17006MPS CAVOK 29/25 Q1004 NOSIG
ZGSZ,2003-07-30 13:00,ZGSZ 301300Z 17006MPS CAVOK 29/25 Q1004 NOSIG
ZGSZ,2003-07-30 14:00,ZGSZ 301400Z 17006MPS CAVOK 29/25 Q1005 NOSIG
ZGSZ,2003-07-30 15:00,ZGSZ 301500Z 17005MPS 9999 FEW026 29/25 Q1005 NOSIG
ZGSZ,2003-07-30 16:00,ZGSZ 301600Z 17005MPS 9999 SCT020 29/25 Q1005 NOSIG
ZGSZ,2003-07-30 17:00,ZGSZ 301700Z 17005MPS 9999 SCT030 29/25 Q1004 NOSIG
ZGSZ,2003-07-30 18:00,ZGSZ 301800Z 18004MPS 9999 SCT030 29/25 Q1004 NOSIG
ZGSZ,2003-07-30 19:00,ZGSZ 301900Z 21003MPS 9999 SCT030 29/25 Q1004 NOSIG
ZGSZ,2003-07-30 20:00,ZGSZ 302000Z 22003MPS 9999 SCT030 28/24 Q1004 NOSIG
ZGSZ,2003-07-30 21:00,ZGSZ 302100Z 20003MPS 9999 SCT020 SCT260 28/24 Q1004 NOSIG
ZGSZ,2003-07-30 22:00,ZGSZ 302200Z 22002MPS 9999 FEW020 SCT260 28/24 Q1004 NOSIG
ZGSZ,2003-07-30 23:00,ZGSZ 302300Z 19002MPS CAVOK 29/24 Q1005 NOSIG
ZGSZ,2003-07-31 00:00,ZGSZ 310000Z 23002MPS 9999 SCT020 29/25 Q1005 NOSIG
ZGSZ,2003-07-31 01:00,ZGSZ 310100Z 22002MPS 9999 FEW020 30/25 Q1005 NOSIG
ZGSZ,2003-07-31 02:00,ZGSZ 310200Z 21002MPS 9999 FEW020 31/24 Q1005 NOSIG
ZGSZ,2003-07-31 03:00,ZGSZ 310300Z 21003MPS 9999 FEW020 31/24 Q1005 NOSIG
ZGSZ,2003-07-31 04:00,ZGSZ 310400Z 21003MPS 9999 FEW020 31/24 Q1005 NOSIG
ZGSZ,2003-07-31 05:00,ZGSZ 310500Z 19004MPS 9999 FEW020 32/23 Q1004 NOSIG
ZGSZ,2003-07-31 06:00,ZGSZ 310600Z 19004MPS 9999 FEW021 33/24 Q1003 NOSIG
ZGSZ,2003-07-31 07:00,ZGSZ 310700Z 19004MPS 9999 FEW023 33/23 Q1003 NOSIG
ZGSZ,2003-07-31 08:00,ZGSZ 310800Z 18005MPS CAVOK 32/25 Q1002 NOSIG
ZGSZ,2003-07-31 09:00,ZGSZ 310900Z 18006MPS CAVOK 32/24 Q1002 NOSIG
ZGSZ,2003-07-31 10:00,ZGSZ 311000Z 18007MPS CAVOK 31/25 Q1002 NOSIG
ZGSZ,2003-07-31 11:00,ZGSZ 311100Z 18007MPS CAVOK 30/25 Q1002 NOSIG
ZGSZ,2003-07-31 12:00,ZGSZ 311200Z 18007MPS CAVOK 30/24 Q1003 NOSIG
ZGSZ,2003-07-31 13:00,ZGSZ 311300Z 18007MPS CAVOK 29/24 Q1004 NOSIG
ZGSZ,2003-07-31 14:00,ZGSZ 311400Z 17005MPS CAVOK 29/24 Q1004 NOSIG
ZGSZ,2003-07-31 15:00,ZGSZ 311500Z 17005MPS CAVOK 29/24 Q1005 NOSIG
ZGSZ,2003-07-31 16:00,ZGSZ 311600Z 16006MPS CAVOK 29/24 Q1004 NOSIG
ZGSZ,2003-07-31 17:00,ZGSZ 311700Z 14004MPS CAVOK 28/24 Q1004 NOSIG
ZGSZ,2003-07-31 18:00,ZGSZ 311800Z 17004MPS CAVOK 29/25 Q1003 NOSIG
ZGSZ,2003-07-31 19:00,ZGSZ 311900Z 17003MPS CAVOK 28/24 Q1003 NOSIG
ZGSZ,2003-07-31 20:00,ZGSZ 312000Z 15004MPS CAVOK 28/24 Q1003 NOSIG
ZGSZ,2003-07-31 21:00,ZGSZ 312100Z 13003MPS CAVOK 28/24 Q1003 NOSIG
ZGSZ,2003-07-31 22:00,ZGSZ 312200Z 12003MPS CAVOK 28/24 Q1004 NOSIG
ZGSZ,2003-07-31 23:00,ZGSZ 312300Z 13003MPS 9999 FEW023 29/24 Q1004 NOSIG
ZGSZ,2003-08-01 00:00,ZGSZ 010000Z 13003MPS 9999 SCT020 30/25 Q1004 NOSIG
ZGSZ,2003-08-01 01:00,ZGSZ 010100Z 16003MPS 9999 BKN020 FEW023TCU 30/24 Q1005 NOSIG
ZGSZ,2003-08-01 02:00,ZGSZ 010200Z 23002MPS 9999 BKN020 FEW023TCU 29/24 Q1005 NOSIG
ZGSZ,2003-08-01 03:00,ZGSZ 010300Z 21002MPS 9999 SCT023 SCT043 30/25 Q1005 NOSIG
ZGSZ,2003-08-01 04:00,ZGSZ 010400Z 19003MPS 9999 SCT023 32/25 Q1004 NOSIG
ZGSZ,2003-08-01 05:00,ZGSZ 010500Z 18004MPS 9999 SCT023 32/24 Q1004 NOSIG
ZGSZ,2003-08-01 06:00,ZGSZ 010600Z 18004MPS 9999 FEW023 32/24 Q1003 NOSIG
ZGSZ,2003-08-01 07:00,ZGSZ 010700Z 19004MPS CAVOK 33/25 Q1002 NOSIG
ZGSZ,2003-08-01 08:00,ZGSZ 010800Z 18004MPS CAVOK 32/25 Q1002 NOSIG
ZGSZ,2003-08-01 09:00,ZGSZ 010900Z 18004MPS CAVOK 32/25 Q1001 NOSIG
ZGSZ,2003-08-01 10:00,ZGSZ 011000Z 18005MPS CAVOK 31/25 Q1001 NOSIG
ZGSZ,2003-08-01 11:00,ZGSZ 011100Z 18006MPS CAVOK 30/25 Q1001 NOSIG
ZGSZ,2003-08-01 12:00,ZGSZ 011200Z 18005MPS CAVOK 30/25 Q1002 NOSIG
ZGSZ,2003-08-01 13:00,ZGSZ 011300Z 17004MPS CAVOK 30/25 Q1002 NOSIG
ZGSZ,2003-08-01 14:00,ZGSZ 011400Z 18004MPS CAVOK 29/25 Q1003 NOSIG
ZGSZ,2003-08-01 15:00,ZGSZ 011500Z 15003MPS CAVOK 29/25 Q1003 NOSIG
ZGSZ,2003-08-01 16:00,ZGSZ 011600Z 14004MPS CAVOK 29/25 Q1003 NOSIG
ZGSZ,2003-08-01 17:00,ZGSZ 011700Z 14004MPS CAVOK 29/24 Q1003 NOSIG
ZGSZ,2003-08-01 18:00,ZGSZ 011800Z 16004MPS CAVOK 29/24 Q1003 NOSIG
ZGSZ,2003-08-01 19:00,ZGSZ 011900Z 18005MPS 9999 BKN023 29/24 Q1003 NOSIG
ZGSZ,2003-08-01 20:00,ZGSZ 012000Z 18003MPS 9999 SCT023 BKN150 29/24 Q1003 NOSIG
ZGSZ,2003-08-01 21:00,ZGSZ 012100Z 18002MPS 9999 BKN040 29/24 Q1003 NOSIG
ZGSZ,2003-08-01 22:00,ZGSZ 012200Z 23002MPS 9999 SCT016 BKN018 29/25 Q1003 NOSIG
ZGSZ,2003-08-01 23:00,ZGSZ 012300Z 25003MPS 9999 SCT016 SCT020 FEW020TCU 29/25 Q1003 NOSIG
ZGSZ,2003-08-02 00:00,ZGSZ 020000Z 27003MPS 9999 BKN020 FEW020TCU 29/25 Q1004 NOSIG
ZGSZ,2003-08-02 01:00,ZGSZ 020100Z 28002MPS 9999 BKN020 30/25 Q1004 NOSIG
ZGSZ,2003-08-02 02:00,ZGSZ 020200Z 27003MPS 9999 BKN020 30/25 Q1004 NOSIG
ZGSZ,2003-08-02 03:00,ZGSZ 020300Z 24002MPS 9999 SCT023 SCT130 31/25 Q1004 NOSIG
ZGSZ,2003-08-02 04:00,ZGSZ 020400Z 21002MPS 9999 FEW026 SCT150 32/23 Q1004 NOSIG
ZGSZ,2003-08-02 05:00,ZGSZ 020500Z 20003MPS CAVOK 32/23 Q1003 NOSIG
ZGSZ,2003-08-02 06:00,ZGSZ 020600Z 19003MPS CAVOK 33/24 Q1003 NOSIG
ZGSZ,2003-08-02 07:00,ZGSZ 020700Z 19004MPS CAVOK 32/24 Q1002 NOSIG
ZGSZ,2003-08-02 08:00,ZGSZ 020800Z 18005MPS CAVOK 32/24 Q1002 NOSIG
ZGSZ,2003-08-02 09:00,ZGSZ 020900Z 18005MPS CAVOK 32/24 Q1001 NOSIG
ZGSZ,2003-08-02 10:00,ZGSZ 021000Z 18005MPS 9999 FEW022 31/25 Q1002 NOSIG
ZGSZ,2003-08-02 11:00,ZGSZ 021100Z 18005MPS CAVOK 31/25 Q1002 NOSIG
ZGSZ,2003-08-02 12:00,ZGSZ 021200Z 18005MPS CAVOK 30/25 Q1003 NOSIG
ZGSZ,2003-08-02 13:00,ZGSZ 021300Z 18004MPS CAVOK 30/25 Q1003 NOSIG
ZGSZ,2003-08-02 14:00,ZGSZ 021400Z 17004MPS CAVOK 30/25 Q1004 NOSIG
ZGSZ,2003-08-02 15:00,ZGSZ 021500Z 18004MPS CAVOK 30/25 Q1004 NOSIG
ZGSZ,2003-08-02 16:00,ZGSZ 021600Z 14003MPS CAVOK 29/25 Q1004 NOSIG
ZGSZ,2003-08-02 17:00,ZGSZ 021700Z 14004MPS CAVOK 29/24 Q1004 NOSIG
ZGSZ,2003-08-02 18:00,ZGSZ 021800Z 17004MPS CAVOK 29/24 Q1004 NOSIG
ZGSZ,2003-08-02 19:00,ZGSZ 021900Z 15002MPS CAVOK 28/24 Q1004 NOSIG
ZGSZ,2003-08-02 20:00,ZGSZ 022000Z 14002MPS 9999 SCT017 28/24 Q1003 NOSIG
ZGSZ,2003-08-02 21:00,ZGSZ 022100Z 00000MPS 9999 SCT018 28/24 Q1003 NOSIG
ZGSZ,2003-08-02 22:00,ZGSZ 022200Z 04001MPS 9999 FEW018 28/24 Q1003 NOSIG
ZGSZ,2003-08-02 23:00,ZGSZ 022300Z 05001MPS 9999 FEW019 29/25 Q1004 NOSIG
ZGSZ,2003-08-03 00:00,ZGSZ 030000Z 15001MPS 9999 FEW020 30/24 Q1004 NOSIG
ZGSZ,2003-08-03 01:00,ZGSZ 030100Z 20002MPS 9999 FEW020 30/24 Q1005 NOSIG
ZGSZ,2003-08-03 02:00,ZGSZ 030200Z 21003MPS 9999 FEW020 30/24 Q1004 NOSIG
ZGSZ,2003-08-03 03:00,ZGSZ 030300Z 22003MPS CAVOK 32/25 Q1004 NOSIG
ZGSZ,2003-08-03 04:00,ZGSZ 030400Z 23003MPS CAVOK 32/25 Q1004 NOSIG
ZGSZ,2003-08-03 05:00,ZGSZ 030500Z 22003MPS CAVOK 32/25 Q1003 NOSIG
ZGSZ,2003-08-03 06:00,ZGSZ 030600Z 22004MPS CAVOK 33/23 Q1003 NOSIG
ZGSZ,2003-08-03 07:00,ZGSZ 030700Z 18004MPS 9999 FEW030 32/24 Q1002 NOSIG
ZGSZ,2003-08-03 08:00,ZGSZ 030800Z 18005MPS CAVOK 32/24 Q1001 NOSIG
ZGSZ,2003-08-03 09:00,ZGSZ 030900Z 18006MPS CAVOK 32/25 Q1001 NOSIG
ZGSZ,2003-08-03 10:00,ZGSZ 031000Z 18006MPS 9999 FEW030 31/25 Q1001 NOSIG
ZGSZ,2003-08-03 11:00,ZGSZ 031100Z 18006MPS CAVOK 31/25 Q1001 NOSIG
ZGSZ,2003-08-03 12:00,ZGSZ 031200Z 17004MPS CAVOK 30/25 Q1001 NOSIG
ZGSZ,2003-08-03 13:00,ZGSZ 031300Z 18004MPS CAVOK 30/25 Q1002 NOSIG
ZGSZ,2003-08-03 14:00,ZGSZ 031400Z 17005MPS 9999 FEW026 30/25 Q1003 NOSIG
ZGSZ,2003-08-03 15:00,ZGSZ 031500Z 17005MPS 9999 SCT026 30/25 Q1004 NOSIG
ZGSZ,2003-08-03 16:00,ZGSZ 031600Z 18005MPS CAVOK 30/25 Q1003 NOSIG
ZGSZ,2003-08-03 17:00,ZGSZ 031700Z 18004MPS CAVOK 30/25 Q1003 NOSIG
ZGSZ,2003-08-03 18:00,ZGSZ 031800Z 21003MPS CAVOK 29/25 Q1002 NOSIG
ZGSZ,2003-08-03 19:00,ZGSZ 031900Z 18003MPS CAVOK 29/25 Q1002 NOSIG
ZGSZ,2003-08-03 20:00,ZGSZ 032000Z 19004MPS CAVOK 29/25 Q1002 NOSIG
ZGSZ,2003-08-03 21:00,ZGSZ 032100Z 20004MPS CAVOK 29/25 Q1002 NOSIG
ZGSZ,2003-08-03 22:00,ZGSZ 032200Z 20001MPS CAVOK 29/25 Q1002 NOSIG
ZGSZ,2003-08-03 23:00,ZGSZ 032300Z 21002MPS CAVOK 29/25 Q1003 NOSIG
ZGSZ,2003-08-04 00:00,ZGSZ 040000Z 18002MPS CAVOK 30/25 Q1003 NOSIG
ZGSZ,2003-08-04 01:00,ZGSZ 040100Z 18003MPS 9999 FEW020 31/26 Q1003 NOSIG
ZGSZ,2003-08-04 02:00,ZGSZ 040200Z 20003MPS CAVOK 31/26 Q1003 NOSIG
ZGSZ,2003-08-04 03:00,ZGSZ 040300Z 22003MPS 9999 FEW021 31/26 Q1002 NOSIG
ZGSZ,2003-08-04 04:00,ZGSZ 040400Z 22002MPS CAVOK 32/26 Q1002 NOSIG
ZGSZ,2003-08-04 05:00,ZGSZ 040500Z 17003MPS CAVOK 32/26 Q1001 NOSIG
ZGSZ,2003-08-04 06:00,ZGSZ 040600Z 18004MPS CAVOK 33/27 Q1001 NOSIG
ZGSZ,2003-08-04 07:00,ZGSZ 040700Z 18005MPS CAVOK 33/27 Q1000 NOSIG
ZGSZ,2003-08-04 08:00,ZGSZ 040800Z 18006MPS CAVOK 32/27 Q0999 NOSIG
ZGSZ,2003-08-04 09:00,ZGSZ 040900Z 17006MPS CAVOK 32/27 Q0999 NOSIG
ZGSZ,2003-08-04 10:00,ZGSZ 041000Z 17007MPS CAVOK 31/27 Q0999 NOSIG
ZGSZ,2003-08-04 11:00,ZGSZ 041100Z 17007MPS CAVOK 31/27 Q0999 NOSIG
ZGSZ,2003-08-04 12:00,ZGSZ 041200Z 12008MPS 9999 FEW020 FEW033CB BKN053 30/23 Q1000 TEMPO VRB12MPS 1500 TSRA SCT015 CST025CB BKN040
ZGSZ,2003-08-04 13:00,ZGSZ 041300Z 19002MPS 9999 -TSRA SCT016 FEW030CB BKN036 25/22 Q1000 RETSRA NOSIG
ZGSZ,2003-08-04 14:00,ZGSZ 041400Z 08009G14MPS 9999 -TSRA SCT016 FEW033CB BKN040 26/22 Q1002 TEMPO VRB13MPS 2000 TSRA SCT015 SCT025CB BKN040
ZGSZ,2003-08-04 15:00,ZGSZ 041500Z 32005MPS 9999 -SHRA SCT016 FEW033CB BKN043 25/22 Q1004 TEMPO VRB13MPS 2000 TSRA SCT015 SCT025CB BKN040
ZGSZ,2003-08-04 16:00,ZGSZ 041600Z 28002MPS 9999 -TSRA FEW016 FEW033CB BKN043 25/23 Q1004 NOSIG
ZGSZ,2003-08-04 17:00,ZGSZ 041700Z 13003MPS 9999 -TSRA FEW016 FEW033CB BKN043 25/23 Q1002 NOSIG
ZGSZ,2003-08-04 18:00,ZGSZ 041800Z 13003MPS 9999 -SHRA FEW016 FEW033CB BKN043 25/23 Q1001 NOSIG
ZGSZ,2003-08-04 19:00,ZGSZ 041900Z 17001MPS 9999 -SHRA FEW016 FEW030TCU BKN043 25/23 Q1000 NOSIG
ZGSZ,2003-08-04 20:00,ZGSZ 042000Z 25004MPS 9999 -RA FEW016 BKN043 26/24 Q1000 NOSIG
ZGSZ,2003-08-04 21:00,ZGSZ 042100Z 31003MPS 9999 -RA FEW016 BKN043 26/24 Q1000 NOSIG
ZGSZ,2003-08-04 22:00,ZGSZ 042200Z 32003MPS 9999 FEW016 SCT060 26/23 Q1000 NOSIG
ZGSZ,2003-08-04 23:00,ZGSZ 042300Z 32002MPS 9999 FEW016 SCT070 26/23 Q1001 NOSIG
ZGSZ,2003-08-05 00:00,ZGSZ 050000Z 35001MPS 8000 NSC 27/24 Q1001 NOSIG
ZGSZ,2003-08-05 01:00,ZGSZ 050100Z 03002MPS 4500 BR FEW015 OVC046 28/24 Q1002 NOSIG
ZGSZ,2003-08-05 02:00,ZGSZ 050200Z 35001MPS 3000 BR SCT046 BKN070 28/24 Q1002 NOSIG
ZGSZ,2003-08-05 03:00,ZGSZ 050300Z 27002MPS 3000 BR FEW019 BKN050 29/24 Q1001 NOSIG
ZGSZ,2003-08-05 04:00,ZGSZ 050400Z 26002MPS 3000 BR FEW020 BKN046 30/24 Q1001 NOSIG
ZGSZ,2003-08-05 05:00,ZGSZ 050500Z 25003MPS 3500 BR NSC 30/24 Q1000 NOSIG
ZGSZ,2003-08-05 06:00,ZGSZ 050600Z 24003MPS 4000 HZ NSC 31/24 Q0999 NOSIG
ZGSZ,2003-08-05 07:00,ZGSZ 050700Z 20003MPS 4200 BR NSC 31/25 Q0999 NOSIG
ZGSZ,2003-08-05 08:00,ZGSZ 050800Z 19002MPS 4000 HZ NSC 31/25 Q0997 NOSIG
ZGSZ,2003-08-05 09:00,ZGSZ 050900Z 18004MPS 6000 NSC 31/25 Q0997 NOSIG
ZGSZ,2003-08-05 10:00,ZGSZ 051000Z 18005MPS CAVOK 30/25 Q0998 NOSIG
ZGSZ,2003-08-05 11:00,ZGSZ 051100Z 16005MPS CAVOK 29/25 Q0998 NOSIG
ZGSZ,2003-08-05 12:00,ZGSZ 051200Z 13004MPS 9999 SCT020 FEW033CB BKN100 29/24 Q0999 NOSIG
ZGSZ,2003-08-05 13:00,ZGSZ 051300Z 18005MPS 9999 BKN020 FEW033CB BKN100 29/25 Q0999 NOSIG
ZGSZ,2003-08-05 14:00,ZGSZ 051400Z 17004MPS 9999 BKN020 BKN100 28/24 Q0999 NOSIG
ZGSZ,2003-08-05 15:00,ZGSZ 051500Z 24003MPS 9999 BKN026 BKN100 28/24 Q1000 NOSIG
ZGSZ,2003-08-05 16:00,ZGSZ 051600Z 22003MPS 9999 SCT030 BKN100 27/23 Q1000 NOSIG
ZGSZ,2003-08-05 17:00,ZGSZ 051700Z 18003MPS CAVOK 27/23 Q0999 NOSIG
ZGSZ,2003-08-05 18:00,ZGSZ 051800Z 21002MPS CAVOK 27/24 Q0999 NOSIG
ZGSZ,2003-08-05 19:00,ZGSZ 051900Z 26002MPS CAVOK 27/24 Q0999 NOSIG
ZGSZ,2003-08-05 20:00,ZGSZ 052000Z 27002MPS CAVOK 27/23 Q0999 NOSIG
ZGSZ,2003-08-05 21:00,ZGSZ 052100Z 26001MPS 6000 BKN026 BKN100 27/23 Q0999 NOSIG
ZGSZ,2003-08-05 22:00,ZGSZ 052200Z 00000MPS 5000 BR BKN020 BKN100 27/24 Q0999 NOSIG
ZGSZ,2003-08-05 23:00,ZGSZ 052300Z 06001MPS 6000 SCT020 BKN100 27/24 Q0999 NOSIG
ZGSZ,2003-08-06 00:00,ZGSZ 060000Z 10002MPS 7000 SCT026 FEW033CB BKN060 28/24 Q0999 NOSIG
ZGSZ,2003-08-06 01:00,ZGSZ 060100Z 09003MPS 9999 FEW026 FEW033CB OVC060 28/23 Q1000 NOSIG
ZGSZ,2003-08-06 02:00,ZGSZ 060200Z 17003MPS 9999 SCT023 FEW033CB OVC053 28/24 Q1000 NOSIG
ZGSZ,2003-08-06 03:00,ZGSZ 060300Z 25004MPS 6000 SCT020 FEW033CB OVC053 26/23 Q1000 NOSIG
ZGSZ,2003-08-06 04:00,ZGSZ 060400Z 26001MPS 6000 FEW023 BKN053 27/24 Q1000 NOSIG
ZGSZ,2003-08-06 05:00,ZGSZ 060500Z 25003MPS 6000 NSC 29/25 Q0999 NOSI
ZGSZ,2003-08-06 06:00,ZGSZ 060600Z 23003MPS 4000 BR SCT026 FEW033CB BKN060 28/24 Q0999 NOSIG
ZGSZ,2003-08-06 07:00,ZGSZ 060700Z 22005MPS 8000 FEW026 FEW033CB OVC053 27/24 Q0999 NOSIG
ZGSZ,2003-08-06 08:00,ZGSZ 060800Z 23002MPS 9999 SCT020 OVC050 27/24 Q0999 NOSIG
ZGSZ,2003-08-06 09:00,ZGSZ 060900Z 16002MPS 9999 SCT018 OVC050 27/24 Q0999 NOSIG
ZGSZ,2003-08-06 10:00,ZGSZ 061000Z 16002MPS 7000 NSC 27/24 Q0999 NOSIG
ZGSZ,2003-08-06 11:00,ZGSZ 061100Z 14002MPS 7000 NSC 27/23 Q0999 NOSIG
ZGSZ,2003-08-06 12:00,ZGSZ 061200Z 13002MPS 3500 BR NSC 27/24 Q1000 NOSIG
ZGSZ,2003-08-06 13:00,ZGSZ 061300Z 09003MPS 5000 FEW012 BKN016 28/24 Q1001 NOSIG
ZGSZ,2003-08-06 14:00,ZGSZ 061400Z 15003MPS 9999 FEW014 28/24 Q1002 NOSIG
ZGSZ,2003-08-06 15:00,ZGSZ 061500Z 14003MPS 8000 BKN016 28/24 Q1002 NOSIG
ZGSZ,2003-08-06 16:00,ZGSZ 061600Z 10003MPS 5000 BR BKN016 28/24 Q1002 NOSIG
ZGSZ,2003-08-06 17:00,ZGSZ 061700Z 21004MPS 7000 BKN016 27/24 Q1002 NOSIG
ZGSZ,2003-08-06 18:00,ZGSZ 061800Z 11003MPS 3800 BR BKN016 27/24 Q1001 NOSIG
ZGSZ,2003-08-06 19:00,ZGSZ 061900Z 11004MPS 5000 SCT016 SCT050 27/24 Q1001 NOSIG
ZGSZ,2003-08-06 20:00,ZGSZ 062000Z AUTO 10006KT 2 1/2SM 27/24 A2956 RMK T02700240 IEM_DS3505
ZGSZ,2003-08-06 21:00,ZGSZ 062100Z 14004MPS 9999 FEW015 SCT120 27/24 Q1001 NOSIG
ZGSZ,2003-08-06 22:00,ZGSZ 062200Z 09002MPS CAVOK 27/24 Q1001 NOSIG
ZGSZ,2003-08-06 23:00,ZGSZ 062300Z 12003MPS 8000 FEW021TCU BKN076 28/24 Q1002 NOSIG
ZGSZ,2003-08-07 00:00,ZGSZ 070000Z 09004MPS 8000 FEW021 FEW021TCU SCT076 28/24 Q1002 NOSIG
ZGSZ,2003-08-07 01:00,ZGSZ 070100Z 10004MPS 9999 SCT021 30/25 Q1002 NOSIG
ZGSZ,2003-08-07 02:00,ZGSZ 070200Z 18003MPS 9999 SCT021 FEW021TCU SCT100 30/25 Q1003 NOSIG
ZGSZ,2003-08-07 03:00,ZGSZ 070300Z 23006MPS 9999 SCT023 FEW030CB SCT043 26/21 Q1004 TEMPO VRB10G15MPS 2000 TSRA SCT015 SCT025CB BKN040
ZGSZ,2003-08-07 04:00,ZGSZ 070400Z 20002MPS 9999 SCT023 BKN043 28/24 Q1003 NOSIG
ZGSZ,2003-08-07 05:00,ZGSZ 070500Z 23002MPS 9999 FEW023 SCT043 29/23 Q1003 NOSIG
ZGSZ,2003-08-07 06:00,ZGSZ 070600Z 19002MPS 9999 FEW023 SCT046 29/24 Q1002 NOSIG
ZGSZ,2003-08-07 07:00,ZGSZ 070700Z 18003MPS 9999 FEW023 SCT110 30/25 Q1002 NOSIG
ZGSZ,2003-08-07 08:00,ZGSZ 070800Z 18003MPS 9999 FEW023 BKN060 30/26 Q1002 NOSIG
ZGSZ,2003-08-07 09:00,ZGSZ 070900Z 18004MPS 9999 SCT023 BKN100 30/25 Q1001 NOSIG QFE1001
ZGSZ,2003-08-07 10:00,ZGSZ 071000Z 18004MPS 9999 FEW026 BKN230 30/25 Q1002 NOSIG
ZGSZ,2003-08-07 11:00,ZGSZ 071100Z 18005MPS 9999 FEW026 BKN230 29/25 Q1002 NOSIG
ZGSZ,2003-08-07 12:00,ZGSZ 071200Z 17004MPS CAVOK 29/25 Q1003 NOSIG
ZGSZ,2003-08-07 13:00,ZGSZ 071300Z 17004MPS CAVOK 29/25 Q1004 NOSIG
ZGSZ,2003-08-07 14:00,ZGSZ 071400Z 17004MPS CAVOK 29/25 Q1004 NOSIG
ZGSZ,2003-08-07 15:00,ZGSZ 071500Z 18004MPS CAVOK 28/25 Q1004 NOSIG
ZGSZ,2003-08-07 16:00,ZGSZ 071600Z 14003MPS CAVOK 28/25 Q1003 NOSIG
ZGSZ,2003-08-07 17:00,ZGSZ 071700Z 15003MPS 9999 FEW023 SCT120 28/25 Q1003 NOSIG
ZGSZ,2003-08-07 18:00,ZGSZ 071800Z AUTO 00000KT 7SM 28/26 RMK SLP034 T02820258 57010 IEM_DS3505
ZGSZ,2003-08-07 21:00,ZGSZ 072100Z 21005MPS 1400 R15/P1500N TSRA SCT010 SCT033CB OVC040 25/23 Q1002 NOSIG
ZGSZ,2003-08-07 22:00,ZGSZ 072200Z 05001MPS 9999 -TSRA SCT010 FEW033CB OVC040 26/24 Q1003 NOSIG
ZGSZ,2003-08-07 23:00,ZGSZ 072300Z 13001MPS 9999 SCT016 BKN050 27/25 Q1003 NOSIG
ZGSZ,2003-08-08 00:00,ZGSZ 080000Z 13001MPS 9999 SCT020 BKN060 29/26 Q1003 NOSIG
ZGSZ,2003-08-08 01:00,ZGSZ 080100Z 13001MPS 9999 -TSRA BKN017 FEW030CB BKN060 27/24 Q1004 NOSIG
ZGSZ,2003-08-08 02:00,ZGSZ 080200Z 13001MPS 9999 SCT020 SCT030 BKN060 28/24 Q1004 NOSIG
ZGSZ,2003-08-08 03:00,ZGSZ 080300Z 13001MPS 9999 BKN020 FEW033CB BKN100 29/25 Q1004 NOSIG
ZGSZ,2003-08-08 04:00,ZGSZ 080400Z 13001MPS 9999 FEW010 BKN030 28/25 Q1003 NOSIG
ZGSZ,2003-08-08 05:00,ZGSZ 080500Z 13001MPS 9999 FEW010 BKN043 31/25 Q1002 NOSIG
ZGSZ,2003-08-08 06:00,ZGSZ 080600Z 13001MPS 9999 SCT020 BKN050 30/25 Q1002 NOSIG
ZGSZ,2003-08-08 07:00,ZGSZ 080700Z 13001MPS 9999 FEW020 BKN060 30/25 Q1001 NOSIG
ZGSZ,2003-08-08 08:00,ZGSZ 080800Z 13001MPS 9999 FEW020 BKN200 30/26 Q1001 NOSIG
ZGSZ,2003-08-08 09:00,ZGSZ 080900Z 13001MPS CAVOK 31/25 Q1000 NOSIG
ZGSZ,2003-08-08 10:00,ZGSZ 081000Z 13001MPS CAVOK 30/25 Q1000 NOSIG
ZGSZ,2003-08-08 11:00,ZGSZ 081100Z 16005MPS CAVOK 30/25 Q1000 NOSIG
ZGSZ,2003-08-08 12:00,ZGSZ 081200Z 18006MPS CAVOK 29/25 Q1001 NOSIG
ZGSZ,2003-08-08 13:00,ZGSZ 081300Z 17005MPS CAVOK 29/25 Q1002 NOSIG
ZGSZ,2003-08-08 14:00,ZGSZ 081400Z 17006MPS 9999 FEW018 29/25 Q1002 NOSIG
ZGSZ,2003-08-08 15:00,ZGSZ 081500Z 18005MPS 9999 BKN018 29/25 Q1003 NOSIG
ZGSZ,2003-08-08 16:00,ZGSZ 081600Z 16004MPS 9999 SCT017 29/25 Q1002 NOSIG
ZGSZ,2003-08-08 17:00,ZGSZ 081700Z 17004MPS 9999 BKN016 29/26 Q1002 NOSIG
ZGSZ,2003-08-08 18:00,ZGSZ 081800Z 18004MPS 9999 BKN016 29/25 Q1001 NOSIG
ZGSZ,2003-08-08 19:00,ZGSZ 081900Z 21004MPS 9999 BKN017 29/25 Q1001 NOSIG
ZGSZ,2003-08-08 20:00,ZGSZ 082000Z 20003MPS 9999 SCT017 28/25 Q1001 NOSIG
ZGSZ,2003-08-08 21:00,ZGSZ 082100Z 19003MPS 9999 FEW018 28/25 Q1001 NOSIG
ZGSZ,2003-08-08 22:00,ZGSZ 082200Z 19002MPS 9999 FEW018 SCT260 28/25 Q1001 NOSIG
ZGSZ,2003-08-08 23:00,ZGSZ 082300Z 17001MPS CAVOK 28/25 Q1001 NOSIG
ZGSZ,2003-08-09 00:00,ZGSZ 090000Z 15001MPS 9999 FEW020 SCT300 29/25 Q1002 NOSIG
ZGSZ,2003-08-09 01:00,ZGSZ 090100Z 20002MPS 9999 FEW020 30/25 Q1002 NOSIG
ZGSZ,2003-08-09 02:00,ZGSZ 090200Z 20002MPS 9999 SCT023 30/25 Q1002 NOSIG
ZGSZ,2003-08-09 03:00,ZGSZ 090300Z 21003MPS 9999 FEW026 31/26 Q1002 NOSIG
ZGSZ,2003-08-09 04:00,ZGSZ 090400Z 21003MPS 9999 FEW030 31/25 Q1002 NOSIG
ZGSZ,2003-08-09 05:00,ZGSZ 090500Z 20003MPS CAVOK 32/25 Q1001 NOSIG
ZGSZ,2003-08-09 06:00,ZGSZ 090600Z 18003MPS CAVOK 32/25 Q1000 NOSIG
ZGSZ,2003-08-09 07:00,ZGSZ 090700Z 18003MPS 9999 FEW030 32/26 Q0999 NOSIG
ZGSZ,2003-08-09 08:00,ZGSZ 090800Z 18004MPS 9999 FEW030 32/27 Q0999 NOSIG
ZGSZ,2003-08-09 09:00,ZGSZ 090900Z 18007MPS 9999 FEW030 31/25 Q0999 NOSIG
ZGSZ,2003-08-09 10:00,ZGSZ 091000Z 18006MPS CAVOK 31/26 Q0999 NOSIG
ZGSZ,2003-08-09 11:00,ZGSZ 091100Z 17005MPS CAVOK 30/26 Q0999 NOSIG
ZGSZ,2003-08-09 12:00,ZGSZ 091200Z 16005MPS CAVOK 30/26 Q1000 NOSIG
ZGSZ,2003-08-09 13:00,ZGSZ 091300Z 18005MPS CAVOK 30/26 Q1001 NOSIG
ZGSZ,2003-08-09 14:00,ZGSZ 091400Z 17005MPS 9999 FEW023 30/26 Q1002 NOSIG
ZGSZ,2003-08-09 15:00,ZGSZ 091500Z 18005MPS 9999 SCT023 30/26 Q1002 NOSIG
ZGSZ,2003-08-09 16:00,ZGSZ 091600Z 15004MPS 9999 FEW023 29/26 Q1002 NOSIG
ZGSZ,2003-08-09 17:00,ZGSZ 091700Z 16003MPS 9999 SCT023 29/26 Q1002 NOSIG
ZGSZ,2003-08-09 18:00,ZGSZ 091800Z 18004MPS 9999 SCT023 29/26 Q1002 NOSIG
ZGSZ,2003-08-09 19:00,ZGSZ 091900Z 19004MPS 9999 SCT023 29/25 Q1001 NOSIG
ZGSZ,2003-08-09 20:00,ZGSZ 092000Z 19004MPS 9999 SCT023 29/25 Q1002 NOSIG
ZGSZ,2003-08-09 21:00,ZGSZ 092100Z 21004MPS 9999 SCT023 BKN060 29/26 Q1001 NOSIG
ZGSZ,2003-08-09 22:00,ZGSZ 092200Z 22003MPS 9999 SCT023 SCT060 29/25 Q1002 NOSIG
ZGSZ,2003-08-09 23:00,ZGSZ 092300Z 17001MPS 9999 FEW021 BKN060 29/26 Q1002 NOSIG
ZGSZ,2003-08-10 00:00,ZGSZ 100000Z 20001MPS CAVOK 30/26 Q1002 NOSIG
ZGSZ,2003-08-10 01:00,ZGSZ 100100Z 21002MPS 9999 FEW020 BKN230 31/25 Q1002 NOSIG
ZGSZ,2003-08-10 02:00,ZGSZ 100200Z 21002MPS 9999 FEW020 BKN260 31/26 Q1002 NOSIG
ZGSZ,2003-08-10 03:00,ZGSZ 100300Z 21003MPS 9999 FEW020 BKN260 32/25 Q1002 NOSIG
ZGSZ,2003-08-10 04:00,ZGSZ 100400Z 19003MPS 9999 FEW021 BKN280 32/26 Q1002 NOSIG
ZGSZ,2003-08-10 05:00,ZGSZ 100500Z 18003MPS CAVOK 32/26 Q1001 NOSIG
ZGSZ,2003-08-10 06:00,ZGSZ 100600Z 18003MPS CAVOK 33/27 Q1001 NOSIG
ZGSZ,2003-08-10 07:00,ZGSZ 100700Z 18004MPS CAVOK 32/26 Q1000 NOSIG
ZGSZ,2003-08-10 08:00,ZGSZ 100800Z 18004MPS CAVOK 32/27 Q1000 NOSIG
ZGSZ,2003-08-10 09:00,ZGSZ 100900Z 18006MPS CAVOK 32/27 Q0999 NOSIG
ZGSZ,2003-08-10 10:00,ZGSZ 101000Z 18006MPS CAVOK 31/26 Q0999 NOSIG
ZGSZ,2003-08-10 11:00,ZGSZ 101100Z 17005MPS CAVOK 30/26 Q1000 NOSIG
ZGSZ,2003-08-10 12:00,ZGSZ 101200Z 18006MPS CAVOK 30/26 Q1000 NOSIG
ZGSZ,2003-08-10 13:00,ZGSZ 101300Z 17005MPS CAVOK 30/26 Q1001 NOSIG
ZGSZ,2003-08-10 14:00,ZGSZ 101400Z 16004MPS CAVOK 30/26 Q1002 NOSIG
ZGSZ,2003-08-10 15:00,ZGSZ 101500Z 18005MPS CAVOK 30/26 Q1002 NOSIG
ZGSZ,2003-08-10 16:00,ZGSZ 101600Z 17004MPS CAVOK 30/26 Q1002 NOSIG
ZGSZ,2003-08-10 17:00,ZGSZ 101700Z 17004MPS CAVOK 29/26 Q1002 NOSIG
ZGSZ,2003-08-10 18:00,ZGSZ 101800Z 17004MPS CAVOK 29/26 Q1002 NOSIG
ZGSZ,2003-08-10 19:00,ZGSZ 101900Z 17003MPS CAVOK 29/26 Q1002 NOSIG
ZGSZ,2003-08-10 20:00,ZGSZ 102000Z 14003MPS CAVOK 29/26 Q1001 NOSIG
ZGSZ,2003-08-10 21:00,ZGSZ 102100Z 14002MPS CAVOK 29/26 Q1001 NOSIG
ZGSZ,2003-08-10 22:00,ZGSZ 102200Z 13002MPS CAVOK 29/26 Q1002 NOSIG
ZGSZ,2003-08-10 23:00,ZGSZ 102300Z 10003MPS 9999 FEW023 SCT230 29/25 Q1002 NOSIG
ZGSZ,2003-08-11 00:00,ZGSZ 110000Z 16001MPS 9999 FEW023 BKN210 30/25 Q1003 NOSIG
ZGSZ,2003-08-11 01:00,ZGSZ 110100Z 18002MPS 9999 SCT021 FEW021TCU BKN230 30/25 Q1003 NOSIG
ZGSZ,2003-08-11 02:00,ZGSZ 110200Z 21003MPS 9999 SCT021 FEW021TCU BKN230 31/25 Q1003 NOSIG
ZGSZ,2003-08-11 03:00,ZGSZ 110300Z 21002MPS 9999 SCT023 FEW023TCU SCT260 31/26 Q1004 NOSIG
ZGSZ,2003-08-11 04:00,ZGSZ 110400Z 24002MPS 9999 FEW025 SCT070 32/26 Q1003 NOSIG
ZGSZ,2003-08-11 05:00,ZGSZ 110500Z 21001MPS 9999 FEW025 BKN060 31/25 Q1003 NOSIG
ZGSZ,2003-08-11 06:00,ZGSZ 110600Z 09002MPS 9999 -TSRA SCT020 FEW030CB BKN050 29/25 Q1003 TEMPO VRB07MPS 3000 TSRA SCT015 SCT025CB BKN040
ZGSZ,2003-08-11 07:00,ZGSZ 110700Z 06001MPS 9999 SCT025 FEW040CB SCT260 32/25 Q1002 NOSIG
ZGSZ,2003-08-11 08:00,ZGSZ 110800Z 02002MPS 7000 FEW026 31/24 Q1001 NOSIG
ZGSZ,2003-08-11 09:00,ZGSZ 110900Z 19002MPS 8000 SCT030 32/26 Q1001 NOSIG
ZGSZ,2003-08-11 10:00,ZGSZ 111000Z 19003MPS CAVOK 31/26 Q1001 NOSIG
ZGSZ,2003-08-11 11:00,ZGSZ 111100Z 21002MPS CAVOK 30/26 Q1002 NOSIG
ZGSZ,2003-08-11 12:00,ZGSZ 111200Z 15001MPS CAVOK 30/26 Q1002 NOSIG
ZGSZ,2003-08-11 13:00,ZGSZ 111300Z 10003MPS CAVOK 30/25 Q1004 NOSIG
ZGSZ,2003-08-11 14:00,ZGSZ 111400Z 11005MPS CAVOK 30/24 Q1004 NOSIG
ZGSZ,2003-08-11 15:00,ZGSZ 111500Z 10005MPS CAVOK 29/24 Q1004 NOSIG
ZGSZ,2003-08-11 16:00,ZGSZ 111600Z 11001MPS CAVOK 29/24 Q1005 NOSIG
ZGSZ,2003-08-11 17:00,ZGSZ 111700Z 10004MPS CAVOK 29/25 Q1004 NOSIG
ZGSZ,2003-08-11 18:00,ZGSZ 111800Z 10001MPS CAVOK 29/24 Q1004 NOSIG
ZGSZ,2003-08-11 19:00,ZGSZ 111900Z 10002MPS CAVOK 29/25 Q1003 NOSIG
ZGSZ,2003-08-11 20:00,ZGSZ 112000Z 10003MPS CAVOK 29/24 Q1003 NOSIG
ZGSZ,2003-08-11 21:00,ZGSZ 112100Z 08002MPS CAVOK 28/24 Q1003 NOSIG
ZGSZ,2003-08-11 22:00,ZGSZ 112200Z 07003MPS CAVOK 28/25 Q1003 NOSIG
ZGSZ,2003-08-11 23:00,ZGSZ 112300Z 07004MPS 9999 -SHRA BKN020 FEW033CB BKN100 28/24 Q1004 NOSIG
ZGSZ,2003-08-12 00:00,ZGSZ 120000Z 09002MPS 9999 FEW010 BKN030 BKN100 28/24 Q1004 NOSIG
ZGSZ,2003-08-12 01:00,ZGSZ 120100Z 09004MPS 9999 SCT020 BKN060 29/24 Q1004 NOSIG
ZGSZ,2003-08-12 02:00,ZGSZ 120200Z 09003MPS 9999 SCT020 BKN070 29/25 Q1005 NOSIG
ZGSZ,2003-08-12 03:00,ZGSZ 120300Z 10004MPS 9999 BKN020 SCT070 31/25 Q1004 NOSIG
ZGSZ,2003-08-12 04:00,ZGSZ 120400Z 09004MPS 9999 SCT020 FEW020TCU BKN230 32/25 Q1004 NOSIG
ZGSZ,2003-08-12 05:00,ZGSZ 120500Z 11005MPS 9999 BKN021 FEW023TCU 32/23 Q1004 NOSIG
ZGSZ,2003-08-12 06:00,ZGSZ 120600Z 16006MPS 9999 BKN021 FEW023TCU 32/23 Q1003 NOSIG
ZGSZ,2003-08-12 07:00,ZGSZ 120700Z 17004MPS 9999 SCT021 FEW026CB BKN070 31/24 Q1003 NOSIG
ZGSZ,2003-08-12 08:00,ZGSZ 120800Z 16003MPS 9999 FEW023 FEW030CB BKN070 29/25 Q1002 NOSIG
ZGSZ,2003-08-12 09:00,ZGSZ 120900Z 17004MPS 9999 SCT020 BKN110 31/24 Q1002 NOSIG
ZGSZ,2003-08-12 10:00,ZGSZ 121000Z 10003MPS 9999 SCT020 BKN070 30/24 Q1003 NOSIG
ZGSZ,2003-08-12 11:00,ZGSZ 121100Z 11004MPS 9999 SCT023 BKN070 28/24 Q1003 NOSIG
ZGSZ,2003-08-12 12:00,ZGSZ 121200Z 10004MPS CAVOK 29/24 Q1003 NOSIG
ZGSZ,2003-08-12 13:00,ZGSZ 121300Z 11004MPS CAVOK 29/24 Q1004 NOSIG
ZGSZ,2003-08-12 14:00,ZGSZ 121400Z 10002MPS 9999 SCT012 OVC043 28/24 Q1005 NOSIG
ZGSZ,2003-08-12 15:00,ZGSZ 121500Z 17003MPS 9999 -RA FEW010 SCT013 OVC040 27/25 Q1005 NOSIG
ZGSZ,2003-08-12 16:00,ZGSZ 121600Z 15004MPS 9999 -RA FEW010 SCT013 OVC040 27/25 Q1005 NOSIG
ZGSZ,2003-08-12 17:00,ZGSZ 121700Z 15004MPS 9999 SCT015 BKN050 27/25 Q1005 NOSIG
ZGSZ,2003-08-12 18:00,ZGSZ 121800Z 16005MPS 6000 -RA SCT015 OVC040 27/25 Q1005 NOSIG
ZGSZ,2003-08-12 19:00,ZGSZ 121900Z 14001MPS 5000 -RA BR SCT013 OVC033 27/25 Q1005 NOSIG
ZGSZ,2003-08-12 20:00,ZGSZ 122000Z 18008MPS 9999 SCT016 OVC040 28/25 Q1005 NOSIG
ZGSZ,2003-08-12 21:00,ZGSZ 122100Z 18007MPS 9999 SCT015 OVC040 28/25 Q1005 NOSIG
ZGSZ,2003-08-12 22:00,ZGSZ 122200Z 18005MPS 6000 -SHRA SCT015 FEW030CB OVC040 27/25 Q1005 NOSIG
ZGSZ,2003-08-12 23:00,ZGSZ 122300Z 18006MPS 6000 -SHRA SCT015 FEW030CB OVC040 28/25 Q1005 NOSIG
ZGSZ,2003-08-13 00:00,ZGSZ 130000Z 18006MPS 9999 SCT016 BKN050 29/25 Q1006 NOSIG
ZGSZ,2003-08-13 01:00,ZGSZ 130100Z 21004MPS 9999 BKN020 28/25 Q1006 NOSIG
ZGSZ,2003-08-13 02:00,ZGSZ 130200Z 19007MPS 9999 SCT020 FEW026TCU 30/26 Q1006 NOSIG
ZGSZ,2003-08-13 03:00,ZGSZ 130300Z 19005MPS 9999 SCT020 SCT120 30/25 Q1007 NOSIG
ZGSZ,2003-08-13 04:00,ZGSZ 130400Z 19006MPS 9999 SCT021 SCT230 31/26 Q1006 NOSIG
ZGSZ,2003-08-13 05:00,ZGSZ 130500Z 19005MPS 9999 SCT021 BKN230 31/27 Q1006 NOSIG
ZGSZ,2003-08-13 06:00,ZGSZ 130600Z 19005MPS 9999 FEW023 BKN230 31/26 Q1005 NOSIG
ZGSZ,2003-08-13 07:00,ZGSZ 130700Z 18006MPS 9999 FEW023 BKN100 31/26 Q1005 NOSIG
ZGSZ,2003-08-13 08:00,ZGSZ 130800Z 18007MPS 9999 SCT023 BKN100 30/26 Q1004 NOSIG
ZGSZ,2003-08-13 09:00,ZGSZ 130900Z 19006MPS 9999 FEW023 BKN260 31/26 Q1004 NOSIG
ZGSZ,2003-08-13 10:00,ZGSZ 131000Z 19006MPS 9999 FEW023 FEW026TCU BKN270 30/26 Q1004 NOSIG
ZGSZ,2003-08-13 11:00,ZGSZ 131100Z 18005MPS 9999 FEW023 BKN270 30/25 Q1004 NOSIG
ZGSZ,2003-08-13 12:00,ZGSZ 131200Z 18005MPS CAVOK 29/26 Q1005 NOSIG
ZGSZ,2003-08-13 13:00,ZGSZ 131300Z 17005MPS CAVOK 29/26 Q1005 NOSIG
ZGSZ,2003-08-13 14:00,ZGSZ 131400Z 18005MPS CAVOK 29/25 Q1006 NOSIG
ZGSZ,2003-08-13 15:00,ZGSZ 131500Z 19006MPS 9999 FEW020 BKN280 29/25 Q1007 NOSIG
ZGSZ,2003-08-13 16:00,ZGSZ 131600Z 19005MPS 9999 FEW020 SCT280 29/25 Q1007 NOSIG
ZGSZ,2003-08-13 17:00,ZGSZ 131700Z 18004MPS 9999 FEW020 29/25 Q1006 NOSIG
ZGSZ,2003-08-13 18:00,ZGSZ 131800Z 19005MPS 9999 SCT020 29/25 Q1006 NOSIG
ZGSZ,2003-08-13 19:00,ZGSZ 131900Z 19004MPS 9999 BKN020 29/25 Q1005 NOSIG
ZGSZ,2003-08-13 20:00,ZGSZ 132000Z 19005MPS 9999 BKN020 29/25 Q1005 NOSIG
ZGSZ,2003-08-13 21:00,ZGSZ 132100Z 19004MPS 9999 BKN020 FEW020TCU 29/25 Q1005 NOSIG
ZGSZ,2003-08-13 22:00,ZGSZ 132200Z 25004MPS 9999 SCT018 29/24 Q1005 NOSIG
ZGSZ,2003-08-13 23:00,ZGSZ 132300Z 24004MPS 9999 FEW018 SCT280 29/25 Q1005 NOSIG
ZGSZ,2003-08-14 00:00,ZGSZ 140000Z 23003MPS 9999 FEW020 SCT110 30/25 Q1006 NOSIG
ZGSZ,2003-08-14 01:00,ZGSZ 140100Z 24004MPS 9999 BKN026 FEW033TCU 30/25 Q1006 NOSIG
ZGSZ,2003-08-14 02:00,ZGSZ 140200Z 19004MPS 9999 SCT020 BKN200 28/25 Q1006 NOSIG
ZGSZ,2003-08-14 03:00,ZGSZ 140300Z 20004MPS 9999 FEW010 BKN030 29/25 Q1006 NOSIG
ZGSZ,2003-08-14 04:00,ZGSZ 140400Z 19004MPS 9999 FEW010 BKN033 30/25 Q1005 NOSIG
ZGSZ,2003-08-14 05:00,ZGSZ 140500Z 19006MPS 9999 FEW010 BKN033 BKN100 29/25 Q1005 NOSIG
ZGSZ,2003-08-14 06:00,ZGSZ 140600Z 17005MPS 9999 BKN030 BKN100 29/25 Q1005 NOSIG
ZGSZ,2003-08-14 07:00,ZGSZ 140700Z 18004MPS 9999 BKN026 BKN100 30/25 Q1004 NOSIG
ZGSZ,2003-08-14 08:00,ZGSZ 140800Z 18005MPS CAVOK 31/25 Q1003 NOSIG
ZGSZ,2003-08-14 09:00,ZGSZ 140900Z 18005MPS 9999 FEW023 BKN220 30/25 Q1003 NOSIG
ZGSZ,2003-08-14 10:00,ZGSZ 141000Z 18005MPS 9999 SCT020 BKN230 30/25 Q1003 NOSIG
ZGSZ,2003-08-14 11:00,ZGSZ 141100Z 17004MPS CAVOK 29/25 Q1003 NOSIG
ZGSZ,2003-08-14 12:00,ZGSZ 141200Z 16004MPS 9999 FEW019 SCT090 BKN230 29/25 Q1003 NOSIG
ZGSZ,2003-08-14 13:00,ZGSZ 141300Z 14004MPS CAVOK 29/25 Q1004 NOSIG
ZGSZ,2003-08-14 14:00,ZGSZ 141400Z 17005MPS 9999 SCT018 BKN260 29/25 Q1005 NOSIG
ZGSZ,2003-08-14 15:00,ZGSZ 141500Z 17004MPS 9999 SCT017 SCT260 29/26 Q1005 NOSIG
ZGSZ,2003-08-14 16:00,ZGSZ 141600Z 17003MPS 9999 BKN016 29/26 Q1005 NOSIG
ZGSZ,2003-08-14 17:00,ZGSZ 141700Z 17003MPS 9999 SCT017 SCT260 29/26 Q1004 NOSIG
ZGSZ,2003-08-14 18:00,ZGSZ 141800Z 18003MPS 9999 BKN017 SCT230 29/26 Q1004 NOSIG
ZGSZ,2003-08-14 19:00,ZGSZ 141900Z 19004MPS 9999 SCT018 BKN230 29/26 Q1004 NOSIG
ZGSZ,2003-08-14 20:00,ZGSZ 142000Z 21004MPS 9999 SCT018 BKN260 29/25 Q1004 NOSIG
ZGSZ,2003-08-14 21:00,ZGSZ 142100Z 21003MPS 9999 SCT018 BKN260 29/26 Q1004 NOSIG
ZGSZ,2003-08-14 22:00,ZGSZ 142200Z 22003MPS 9999 SCT017 SCT100 29/26 Q1004 NOSIG
ZGSZ,2003-08-14 23:00,ZGSZ 142300Z 23001MPS 9999 FEW018 SCT070 29/25 Q1004 NOSIG
ZGSZ,2003-08-15 00:00,ZGSZ 150000Z 20001MPS 9999 FEW019 SCT070 BKN110 30/26 Q1004 NOSIG
ZGSZ,2003-08-15 01:00,ZGSZ 150100Z 22002MPS 9999 FEW020 SCT120 30/26 Q1005 NOSIG
ZGSZ,2003-08-15 03:00,ZGSZ 150300Z 18002MPS 9999 FEW023 31/26 Q1004 NOSIG
ZGSZ,2003-08-15 04:00,ZGSZ 150400Z 19002MPS 9999 FEW026 32/26 Q1004 NOSIG
ZGSZ,2003-08-15 05:00,ZGSZ 150500Z 18003MPS 9999 FEW026 BKN120 31/26 Q1003 NOSIG
ZGSZ,2003-08-15 06:00,ZGSZ 150600Z 17005MPS 9999 FEW026 BKN100 30/26 Q1003 NOSIG
ZGSZ,2003-08-15 07:00,ZGSZ 150700Z 18007MPS 9999 FEW020 BKN070 29/25 Q1002 NOSIG
ZGSZ,2003-08-15 08:00,ZGSZ 150800Z 24006MPS 9999 FEW016 FEW026TCU OVC050 29/25 Q1002 TEMPO VRB09MPS 1200 TSRA SCT015 SCT025CB BKN050
ZGSZ,2003-08-15 09:00,ZGSZ 150900Z 19003MPS 9999 -SHRA FEW026 FEW033CB OVC050 27/24 Q1002 RETS TEMPO VRB09MPS 1200 TSRA SCT015 SCT025CB BKN050
ZGSZ,2003-08-15 10:00,ZGSZ 151000Z 14002MPS 9999 FEW026 BKN050 28/25 Q1002 TEMPO VRB09MPS 1200 TSRA SCT015 SCT025CB BKN050
ZGSZ,2003-08-15 11:00,ZGSZ 151100Z 12003MPS 9999 SCT030 BKN053 29/25 Q1002 NOSIG
ZGSZ,2003-08-15 12:00,ZGSZ 151200Z 11003MPS CAVOK 29/26 Q1003 NOSIG
ZGSZ,2003-08-15 13:00,ZGSZ 151300Z 11003MPS 9999 SCT020 BKN053 29/26 Q1004 NOSIG
ZGSZ,2003-08-15 14:00,ZGSZ 151400Z 13003MPS 9999 -SHRA FEW023TCU OVC050 29/26 Q1004 NOSIG
ZGSZ,2003-08-15 15:00,ZGSZ 151500Z 13002MPS 9999 FEW010 SCT020 OVC050 28/26 Q1004 NOSIG
ZGSZ,2003-08-15 16:00,ZGSZ 151600Z 10003MPS 9999 FEW010 SCT020 OVC050 29/26 Q1004 NOSIG
ZGSZ,2003-08-15 17:00,ZGSZ 151700Z 13004MPS 9999 -SHRA FEW010 FEW030CB OVC050 28/26 Q1004 NOSIG
ZGSZ,2003-08-15 18:00,ZGSZ 151800Z 13003MPS 9999 -SHRA SCT020 FEW026CB OVC050 27/25 Q1004 RETS NOSIG
ZGSZ,2003-08-15 19:00,ZGSZ 151900Z 11002MPS 9999 SCT023 OVC050 28/25 Q1003 NOSIG
ZGSZ,2003-08-15 20:00,ZGSZ 152000Z 14002MPS 9999 SCT020 OVC050 28/26 Q1003 NOSIG
ZGSZ,2003-08-15 21:00,ZGSZ 152100Z 18003MPS 9999 SCT020 OVC050 29/26 Q1003 NOSIG
ZGSZ,2003-08-15 22:00,ZGSZ 152200Z 36003MPS 9999 BKN023 OVC053 28/25 Q1004 NOSIG
ZGSZ,2003-08-15 23:00,ZGSZ 152300Z 28002MPS 5000 BR SCT020 FEW026CB OVC050 27/24 Q1004 NOSIG
ZGSZ,2003-08-16 00:00,ZGSZ 160000Z 20002MPS 9999 FEW010 FEW023CB OVC050 26/24 Q1005 RETS NOSIG
ZGSZ,2003-08-16 01:00,ZGSZ 160100Z 12002MPS CAVOK 28/25 Q1005 NOSIG
ZGSZ,2003-08-16 02:00,ZGSZ 160200Z 29003MPS 9999 FEW023 SCT050 29/24 Q1005 NOSIG
ZGSZ,2003-08-16 03:00,ZGSZ 160300Z 28003MPS 9999 FEW023 BKN120 30/25 Q1005 NOSIG
ZGSZ,2003-08-16 04:00,ZGSZ 160400Z 26004MPS 9999 SCT020 FEW020TCU 29/25 Q1005 NOSIG
ZGSZ,2003-08-16 05:00,ZGSZ 160500Z 23005MPS 9999 FEW009 FEW020TCU SCT040 27/24 Q1005 NOSIG
ZGSZ,2003-08-16 06:00,ZGSZ 160600Z 27002MPS 9999 FEW022TCU BKN046 27/24 Q1004 NOSIG
ZGSZ,2003-08-16 07:00,ZGSZ 160700Z 18001MPS 9999 BKN046 28/24 Q1004 NOSIG
ZGSZ,2003-08-16 08:00,ZGSZ 160800Z 13002MPS 8000 NSC 28/24 Q1003 NOSIG
ZGSZ,2003-08-16 09:00,ZGSZ 160900Z 11002MPS 9999 SCT036 SCT100 29/24 Q1003 NOSIG
ZGSZ,2003-08-16 10:00,ZGSZ 161000Z 18002MPS 9000 FEW040 BKN130 28/24 Q1003 NOSIG
ZGSZ,2003-08-16 11:00,ZGSZ 161100Z 08002MPS 8000 FEW040 BKN120 28/24 Q1004 NOSIG
ZGSZ,2003-08-16 12:00,ZGSZ 161200Z 10002MPS 6000 FEW036 BKN100 28/24 Q1005 NOSIG
ZGSZ,2003-08-16 13:00,ZGSZ 161300Z 11002MPS 5000 BR FEW036 BKN100 28/24 Q1005 NOSIG
ZGSZ,2003-08-16 14:00,ZGSZ 161400Z 09002MPS 5000 BR FEW033 BKN093 28/24 Q1006 NOSIG
ZGSZ,2003-08-16 15:00,ZGSZ 161500Z 06002MPS 5000 BR FEW033 BKN053 28/23 Q1006 NOSIG
ZGSZ,2003-08-16 16:00,ZGSZ 161600Z 10002MPS 7000 NSC 28/23 Q1006 NOSIG
ZGSZ,2003-08-16 17:00,ZGSZ 161700Z 14001MPS 9000 NSC 27/24 Q1006 NOSIG
ZGSZ,2003-08-16 18:00,ZGSZ 161800Z 05001MPS 9000 NSC 27/24 Q1005 NOSIG
ZGSZ,2003-08-16 19:00,ZGSZ 161900Z 04002MPS 6000 BKN046 27/24 Q1005 NOSIG
ZGSZ,2003-08-16 20:00,ZGSZ 162000Z 36001MPS 6000 BKN046 27/24 Q1005 NOSIG
ZGSZ,2003-08-16 21:00,ZGSZ 162100Z 03002MPS 6000 BKN046 27/24 Q1005 NOSIG
ZGSZ,2003-08-16 22:00,ZGSZ 162200Z 04003MPS 5000 BR FEW020 BKN046 27/24 Q1005
ZGSZ,2003-08-17 00:00,ZGSZ 170000Z 04003MPS 5000 BR FEW023 BKN040 28/24 Q1006 NOSIG
ZGSZ,2003-08-17 01:00,ZGSZ 170100Z 04002MPS 5000 BR NSC 29/25 Q1006 NOSIG
ZGSZ,2003-08-17 02:00,ZGSZ 170200Z 07002MPS 6000 SCT018 BKN050 29/24 Q1006 NOSIG
ZGSZ,2003-08-17 03:00,ZGSZ 170300Z 05002MPS 7000 SCT020 BKN050 30/25 Q1006 NOSIG
ZGSZ,2003-08-17 04:00,ZGSZ 170400Z 13003MPS 9999 SCT023 FEW023TCU SCT060 31/25 Q1006 NOSIG
ZGSZ,2003-08-17 05:00,ZGSZ 170500Z 10003MPS 9999 SCT025 SCT060 31/25 Q1005 NOSIG
ZGSZ,2003-08-17 06:00,ZGSZ 170600Z 15003MPS 9999 SCT026 FEW026TCU 32/26 Q1005 NOSIG
ZGSZ,2003-08-17 07:00,ZGSZ 170700Z 18004MPS 9999 SCT028 30/26 Q1004 NOSIG
ZGSZ,2003-08-17 08:00,ZGSZ 170800Z 18006MPS 9999 SCT028 FEW028TCU 30/26 Q1004 NOSIG
ZGSZ,2003-08-17 09:00,ZGSZ 170900Z 18006MPS 9999 BKN026 FEW033TCU 31/26 Q1004 NOSIG
ZGSZ,2003-08-17 10:00,ZGSZ 171000Z 17006MPS 9999 SCT026 FEW033TCU SCT300 30/25 Q1005 NOSIG
ZGSZ,2003-08-17 11:00,ZGSZ 171100Z 14004MPS 9999 BKN026 28/25 Q1006 NOSIG
ZGSZ,2003-08-17 12:00,ZGSZ 171200Z 13003MPS 9999 BKN030 29/24 Q1006 NOSIG
ZGSZ,2003-08-17 13:00,ZGSZ 171300Z 11002MPS 9999 FEW026 29/24 Q1007 NOSIG
ZGSZ,2003-08-17 14:00,ZGSZ 171400Z 21001MPS 9999 FEW030 28/24 Q1007 NOSIG
ZGSZ,2003-08-17 15:00,ZGSZ 171500Z 04002MPS CAVOK 29/25 Q1007 NOSIG
ZGSZ,2003-08-17 16:00,ZGSZ 171600Z 04003MPS 5000 BR NSC 28/25 Q1007 NOSIG
ZGSZ,2003-08-17 17:00,ZGSZ 171700Z 03002MPS 6000 NSC 28/25 Q1006 NOSIG
ZGSZ,2003-08-17 18:00,ZGSZ 171800Z 03003MPS 6000 NSC 27/24 Q1006 NOSIG
ZGSZ,2003-08-17 19:00,ZGSZ 171900Z 02003MPS 6000 NSC 27/24 Q1005 NOSIG
ZGSZ,2003-08-17 20:00,ZGSZ 172000Z 36001MPS 6000 NSC 27/24 Q1005 NOSIG
ZGSZ,2003-08-17 21:00,ZGSZ 172100Z 01002MPS 3000 BR NSC 27/24 Q1005 NOSIG
ZGSZ,2003-08-17 22:00,ZGSZ 172200Z 01003MPS 3000 BR NSC 27/24 Q1006 NOSIG
ZGSZ,2003-08-17 23:00,ZGSZ 172300Z 04002MPS 5000 BR NSC 27/25 Q1005 NOSIG
ZGSZ,2003-08-18 00:00,ZGSZ 180000Z 01002MPS 5000 BR NSC 29/25 Q1006 NOSIG
ZGSZ,2003-08-18 01:00,ZGSZ 180100Z 36002MPS 7000 BKN020 30/25 Q1006 NOSIG
ZGSZ,2003-08-18 02:00,ZGSZ 180200Z 36003MPS 4800 BR SCT020 SCT020TCU 30/25 Q1006 NOSIG
ZGSZ,2003-08-18 03:00,ZGSZ 180300Z 02002MPS 8000 SCT020 SCT023TCU 31/24 Q1006 NOSIG
ZGSZ,2003-08-18 04:00,ZGSZ 180400Z 28003MPS 8000 FEW020 SCT023TCU 31/25 Q1006 NOSIG
ZGSZ,2003-08-18 05:00,ZGSZ 180500Z 28003MPS 4000 BR FEW020 SCT023TCU 31/26 Q1005 NOSIG
ZGSZ,2003-08-18 06:00,ZGSZ 180600Z 28004MPS 4200 BR FEW023TCU BKN150 31/25 Q1004 NOSIG
ZGSZ,2003-08-18 07:00,ZGSZ 180700Z 28004MPS 5000 FEW023TCU BKN160 32/25 Q1004 NOSIG
ZGSZ,2003-08-18 08:00,ZGSZ 180800Z 28003MPS 5000 FEW020TCU SCT160 31/25 Q1003 NOSIG
ZGSZ,2003-08-18 09:00,ZGSZ 180900Z 01007MPS 6000 -TSRA SCT013 FEW030CB BKN053 27/23 Q1003 TEMPO VRB08MPS 2000 TSRA SCT015 BKN050
ZGSZ,2003-08-18 10:00,ZGSZ 181000Z 08002MPS 5000 BR SCT012 OVC043 28/25 Q1003 RETS NOSIC
ZGSZ,2003-08-18 11:00,ZGSZ 181100Z 12003MPS 6000 SCT015 OVC043 28/24 Q1003 NOSIC
ZGSZ,2003-08-18 12:00,ZGSZ 181200Z 13003MPS 2300 BR SCT010 OVC040 28/24 Q1004 NOSIC
ZGSZ,2003-08-18 13:00,ZGSZ 181300Z 17002MPS 3000 BR SCT010 OVC043 28/25 Q1004 NOSIC
ZGSZ,2003-08-18 14:00,ZGSZ 181400Z 16001MPS 2800 BR SCT010 OVC040 28/25 Q1004 NOSIC
ZGSZ,2003-08-18 15:00,ZGSZ 181500Z 11001MPS 2200 BR SCT008 OVC040 28/25 Q1004 NOSIC
ZGSZ,2003-08-18 16:00,ZGSZ 181600Z 00000MPS 2100 BR SCT008 OVC040 28/25 Q1004 NOSIC
ZGSZ,2003-08-18 17:00,ZGSZ 181700Z 05001MPS 2500 BR SCT012 OVC040 28/25 Q1003 NOSIC
ZGSZ,2003-08-18 18:00,ZGSZ 181800Z 06001MPS 2500 BR SCT012 OVC040 28/25 Q1003 NOSIC
ZGSZ,2003-08-18 19:00,ZGSZ 181900Z 33001MPS 2500 BR SCT012 OVC040 28/25 Q1002 NOSIC
ZGSZ,2003-08-18 20:00,ZGSZ 182000Z 04001MPS 2500 BR SCT012 OVC040 27/24 Q1002 NOSIC
ZGSZ,2003-08-18 21:00,ZGSZ 182100Z 04002MPS 3000 BR SCT015 OVC043 27/25 Q1002 NOSIC
ZGSZ,2003-08-18 22:00,ZGSZ 182200Z 36003MPS 3000 BR SCT015 OVC043 27/25 Q1002 NOSIC
ZGSZ,2003-08-18 23:00,ZGSZ 182300Z 36002MPS 6000 BR NSC 28/25 Q1002 NOSIC
ZGSZ,2003-08-19 00:00,ZGSZ 190000Z 02003MPS 7000 FEW016 BKN053 28/25 Q1003 NOSIC
ZGSZ,2003-08-19 01:00,ZGSZ 190100Z 03004MPS 6000 NSC 30/25 Q1002 NOSIC
ZGSZ,2003-08-19 02:00,ZGSZ 190200Z 03002MPS 7000 SCT020 SCT300 31/24 Q1002 NOSIC
ZGSZ,2003-08-19 03:00,ZGSZ 190300Z 13003MPS 8000 BKN020 32/25 Q1002 NOSIC
ZGSZ,2003-08-19 04:00,ZGSZ 190400Z 21002MPS 5000 BR BKN022 32/26 Q1002 NOSIC
ZGSZ,2003-08-19 05:00,ZGSZ 190500Z 22003MPS 9999 BKN022 SCT050 32/25 Q1001 NOSIC
ZGSZ,2003-08-19 06:00,ZGSZ 190600Z 20003MPS 9999 BKN022 SCT050 33/26 Q1000 NOSIC
ZGSZ,2003-08-19 07:00,ZGSZ 190700Z 20004MPS 9999 SCT022 32/24 Q0999 NOSIC
ZGSZ,2003-08-19 08:00,ZGSZ 190800Z 20005MPS 9999 FEW022 BKN060 31/25 Q1000 NOSIC
ZGSZ,2003-08-19 09:00,ZGSZ 190900Z 30003MPS 9999 SCT017 FEW030CB BKN050 29/25 Q1000 TEMPO VRB10MPS 1000 +TSRA SCT010 BKN030CB OVC040
ZGSZ,2003-08-19 10:00,ZGSZ 191000Z 31005G10MPS 5000 +TSRA SCT012 BKN023CB 24/22 Q1003 NOSIG
ZGSZ,2003-08-19 11:00,ZGSZ 191100Z 29001G07MPS 9999 -TS FEW023CB BKN050 25/23 Q1002 NOSIG
ZGSZ,2003-08-19 12:00,ZGSZ 191200Z 11002MPS 9999 BKN043 26/23 Q1002 RETS NOSIG
ZGSZ,2003-08-19 13:00,ZGSZ 191300Z 00000MPS 8000 BKN016 26/23 Q1002 NOSIG
ZGSZ,2003-08-19 14:00,ZGSZ 191400Z 36003MPS 8000 BKN020 26/22 Q1003 NOSIG
ZGSZ,2003-08-19 15:00,ZGSZ 191500Z 01002G07MPS 9999 BKN020 26/22 Q1003 NOSIG
ZGSZ,2003-08-19 16:00,ZGSZ 191600Z 04001MPS 9999 BKN026 26/22 Q1002 NOSIG
ZGSZ,2003-08-19 17:00,ZGSZ 191700Z 01003MPS 4500 -RA OVC026 26/22 Q1002 NOSIG
ZGSZ,2003-08-19 18:00,ZGSZ 191800Z 35003MPS 4000 BR OVC026 24/22 Q1002 NOSIG
ZGSZ,2003-08-19 19:00,ZGSZ 191900Z 01002MPS 3800 BR OVC026 25/23 Q1001 NOSIG
ZGSZ,2003-08-19 20:00,ZGSZ 192000Z 36002G07MPS 4000 BR BKN033 25/23 Q1000 NOSIG
ZGSZ,2003-08-19 21:00,ZGSZ 192100Z 36003G09MPS 7000 NSC 25/23 Q1000 NOSIG
ZGSZ,2003-08-19 22:00,ZGSZ 192200Z 02001MPS CAVOK 25/23 Q1000 NOSIG
ZGSZ,2003-08-19 23:00,ZGSZ 192300Z 01003MPS CAVOK 26/23 Q1001 NOSIG
ZGSZ,2003-08-20 00:00,ZGSZ 200000Z 01003MPS CAVOK 27/23 Q1001 NOSIG
ZGSZ,2003-08-20 01:00,ZGSZ 200100Z 01004MPS CAVOK 28/24 Q1001 NOSIG
ZGSZ,2003-08-20 02:00,ZGSZ 200200Z 36004MPS 8000 SKC 29/24 Q1001 NOSIG
ZGSZ,2003-08-20 03:00,ZGSZ 200300Z 36004MPS 7000 SKC 31/24 Q1000 NOSIG
ZGSZ,2003-08-20 04:00,ZGSZ 200400Z 35003MPS 9000 FEW023 32/24 Q1000 NOSIG
ZGSZ,2003-08-20 05:00,ZGSZ 200500Z 02005MPS 9999 FEW023 33/23 Q1000 NOSIG
ZGSZ,2003-08-20 06:00,ZGSZ 200600Z 02004MPS 9999 SCT023 33/23 Q0999 NOSIG
ZGSZ,2003-08-20 07:00,ZGSZ 200700Z 32003MPS 9999 SCT023 FEW023TCU 33/24 Q0998 NOSIG
ZGSZ,2003-08-20 08:00,ZGSZ 200800Z 29004MPS 9999 SCT023 FEW030TCU 32/25 Q0997 NOSIG
ZGSZ,2003-08-20 09:00,ZGSZ 200900Z 34005MPS 9999 -TSRA SCT012 FEW030CB BKN046 27/23 Q0997 TEMPO VRB10MPS 1200 TSRA SCT008 SCT025CB OVC033
ZGSZ,2003-08-20 10:00,ZGSZ 201000Z 31001MPS 9999 -TS FEW015 FEW030CB BKN050 26/23 Q0998 NOSIG
ZGSZ,2003-08-20 11:00,ZGSZ 201100Z 00000MPS 9999 FEW020 FEW040CB BKN060 26/24 Q0999 NOSIG
ZGSZ,2003-08-20 12:00,ZGSZ 201200Z 02002MPS 8000 NSC 27/24 Q1000 NOSIG
ZGSZ,2003-08-20 13:00,ZGSZ 201300Z 01001MPS 7000 NSC 27/24 Q1001 NOSIG
ZGSZ,2003-08-20 14:00,ZGSZ 201400Z 35002MPS 6000 SCT020 BKN260 27/24 Q1001 NOSIG
ZGSZ,2003-08-20 15:00,ZGSZ 201500Z 31003MPS 7000 SCT017 SCT070 27/24 Q1002 NOSIG
ZGSZ,2003-08-20 16:00,ZGSZ 201600Z 35002MPS 5000 BR FEW016 BKN050 27/24 Q1002 NOSIG
ZGSZ,2003-08-20 17:00,ZGSZ 201700Z 35003MPS 5000 BR FEW017 BKN050 27/24 Q1001 NOSIG
ZGSZ,2003-08-20 18:00,ZGSZ 201800Z 34003MPS 4500 BR FEW017 SCT060 27/24 Q1001 NOSIG
ZGSZ,2003-08-20 19:00,ZGSZ 201900Z 35003MPS 4000 BR FEW018 BKN050 27/24 Q1000 NOSIG
ZGSZ,2003-08-20 20:00,ZGSZ 202000Z 34003MPS 4200 BR SCT016 BKN050 27/24 Q1000 NOSIG
ZGSZ,2003-08-20 21:00,ZGSZ 202100Z 35003MPS 4500 BR FEW015 FEW020TCU BKN046 27/24 Q1000 NOSIG
ZGSZ,2003-08-20 22:00,ZGSZ 202200Z 36002MPS 3800 BR BKN040 27/24 Q1000 NOSIG
ZGSZ,2003-08-20 23:00,ZGSZ 202300Z 36002MPS 3500 BR NSC 27/24 Q1001 NOSIG
ZGSZ,2003-08-21 00:00,ZGSZ 210000Z 01002MPS 3000 BR FEW018 BKN050 27/24 Q1002 NOSIG
ZGSZ,2003-08-21 01:00,ZGSZ 210100Z 07001MPS 2600 BR SCT020 BKN043 27/24 Q1003 NOSIG
ZGSZ,2003-08-21 02:00,ZGSZ 210200Z 16001MPS 1800 -RA BR BKN017 BKN043 26/24 Q1003 NOSIG
ZGSZ,2003-08-21 03:00,ZGSZ 210300Z 27001MPS 2300 BR BKN020 BKN050 27/25 Q1003 NOSIG
ZGSZ,2003-08-21 04:00,ZGSZ 210400Z 25002MPS 5000 BR SCT026 BKN060 29/25 Q1003 NOSIG
ZGSZ,2003-08-21 05:00,ZGSZ 210500Z 26003MPS 7000 SCT026 SCT120 BKN200 30/25 Q1002 NOSIG
ZGSZ,2003-08-21 06:00,ZGSZ 210600Z 11006MPS 9999 SCT026 FEW033CB BKN200 28/23 Q1002 TEMPO VRB08MPS 1600 TSRA SCT025CB
ZGSZ,2003-08-21 07:00,ZGSZ 210700Z 09005MPS 9999 -TS BKN026 FEW033CB BKN100 28/23 Q1001 TEMPO VRB08MPS 1600 TSRA SCT025CB
ZGSZ,2003-08-21 08:00,ZGSZ 210800Z 14005MPS 6000 -TSRA BKN017 FEW033CB BKN043 26/23 Q1002 TEMPO VRB08MPS 1600 TSRA SCT025CB
ZGSZ,2003-08-21 09:00,ZGSZ 210900Z 18003MPS 9999 -RA FEW010 OVC043 26/23 Q1002 RETS TEMPO VRB08MPS 1600 TSRA SCT025CB
ZGSZ,2003-08-21 10:00,ZGSZ 211000Z 36001MPS 9999 BKN043 26/24 Q1003 NOSIG
ZGSZ,2003-08-21 11:00,ZGSZ 211100Z 06001MPS 5000 BR BKN046 27/24 Q1003 NOSIG
ZGSZ,2003-08-21 12:00,ZGSZ 211200Z 11003MPS 6000 SCT046 27/24 Q1004 NOSIG
ZGSZ,2003-08-21 13:00,ZGSZ 211300Z 10003MPS 5000 BR NSC 27/24 Q1005 NOSIG
ZGSZ,2003-08-21 14:00,ZGSZ 211400Z 09003MPS 5000 -TS BR BKN023 FEW033CB BKN046 27/24 Q1006 NOSIG
ZGSZ,2003-08-21 15:00,ZGSZ 211500Z 36002MPS 5000 -TS BR BKN023 FEW033CB BKN046 27/23 Q1006 TEMPO VRB08MPS 1500 TSRA BKN012 SCT025CB BKN040
ZGSZ,2003-08-21 16:00,ZGSZ 211600Z 27002MPS 9999 FEW010 FEW026CB BKN046 25/23 Q1006 RETS TEMPO VRB08MPS 1500 TSRA BKN012 SCT025CB BKN040
ZGSZ,2003-08-21 17:00,ZGSZ 211700Z 00000MPS 9999 FEW020 FEW033CB BKN046 25/23 Q1006 TEMPO VRB08MPS 1500 TSRA BKN012 SCT025CB BKN040
ZGSZ,2003-08-21 18:00,ZGSZ 211800Z 19003MPS 9999 -SHRA FEW020 FEW026TCU OVC046 25/23 Q1006 NOSIG
ZGSZ,2003-08-21 19:00,ZGSZ 211900Z 17002MPS 9999 -SHRA FEW020 FEW033CB OVC043 25/23 Q1006 NOSIG
ZGSZ,2003-08-21 20:00,ZGSZ 212000Z 16003MPS 5000 -RA SCT017 OVC040 25/23 Q1006 NOSIG
ZGSZ,2003-08-21 21:00,ZGSZ 212100Z 16002MPS 5000 -RA SCT020 OVC040 25/23 Q1006 NOSIG
ZGSZ,2003-08-21 22:00,ZGSZ 212200Z 11002MPS 5000 BR BKN023 OVC040 25/23 Q1007 NOSIG
ZGSZ,2003-08-21 23:00,ZGSZ 212300Z 10003MPS 9999 FEW020 BKN030 BKN046 26/24 Q1007 NOSIG
ZGSZ,2003-08-22 00:00,ZGSZ 220000Z 10003MPS 9999 FEW023 BKN046 28/25 Q1008 NOSIG
ZGSZ,2003-08-22 01:00,ZGSZ 220100Z 10003MPS 9999 FEW023 BKN120 29/24 Q1008 NOSIG
ZGSZ,2003-08-22 02:00,ZGSZ 220200Z 12002MPS 9999 FEW023 BKN100 29/24 Q1009 NOSIG
ZGSZ,2003-08-22 03:00,ZGSZ 220300Z 10003MPS 9999 FEW020 BKN100 29/24 Q1009 NOSIG
ZGSZ,2003-08-22 04:00,ZGSZ 220400Z 10004MPS 9999 FEW020 BKN110 29/24 Q1008 NOSIG
ZGSZ,2003-08-22 05:00,ZGSZ 220500Z 11003MPS 5000 -RA BR SCT015 BKN060 28/24 Q1008 NOSIG
ZGSZ,2003-08-22 06:00,ZGSZ 220600Z 12002MPS 6000 SCT020 BKN060 29/24 Q1007 NOSIG
ZGSZ,2003-08-22 07:00,ZGSZ 220700Z 11002MPS 6000 FEW026 BKN110 31/24 Q1006 NOSIG
ZGSZ,2003-08-22 08:00,ZGSZ 220800Z 19004MPS 8000 FEW026 BKN070 29/25 Q1006 NOSIG
ZGSZ,2003-08-22 09:00,ZGSZ 220900Z 17006MPS 9999 FEW023 FEW030TCU BKN053 28/24 Q1006 NOSIG
ZGSZ,2003-08-22 09:30,ZGSZ 220930Z 13003MPS 9999 FEW023 FEW030TCU BKN053 28/24 Q1006 NOSIG
ZGSZ,2003-08-22 10:00,ZGSZ 221000Z 11003MPS 9999 FEW026 FEW033TCU BKN060 29/24 Q1006 NOSIG
ZGSZ,2003-08-22 11:00,ZGSZ 221100Z 10004MPS 9999 SCT026 SCT070 29/24 Q1006 NOSIG
ZGSZ,2003-08-22 12:00,ZGSZ 221200Z 10005MPS 9999 FEW030 SCT060 28/24 Q1007 NOSIG
ZGSZ,2003-08-22 13:00,ZGSZ 221300Z 10003MPS 9999 FEW030 SCT060 28/24 Q1008 NOSIG
ZGSZ,2003-08-22 14:00,ZGSZ 221400Z 10003MPS 9999 FEW030 28/24 Q1008 NOSIG
ZGSZ,2003-08-22 15:00,ZGSZ 221500Z 09004MPS 9999 FEW023 SCT043 28/23 Q1009 NOSIG
ZGSZ,2003-08-22 16:00,ZGSZ 221600Z 09003MPS 9999 FEW023 27/23 Q1008 NOSIG
ZGSZ,2003-08-22 17:00,ZGSZ 221700Z 09003MPS 9999 FEW023 BKN043 28/24 Q1008 NOSIG
ZGSZ,2003-08-22 18:00,ZGSZ 221800Z 10003MPS 9999 FEW023 BKN043 27/24 Q1007 NOSIG
ZGSZ,2003-08-22 19:00,ZGSZ 221900Z 10001MPS 9999 FEW023 BKN043 27/23 Q1007 NOSIG
ZGSZ,2003-08-22 20:00,ZGSZ 222000Z 07001MPS CAVOK 26/23 Q1007 NOSIG
ZGSZ,2003-08-22 21:00,ZGSZ 222100Z 10002MPS CAVOK 26/23 Q1007 NOSIG
ZGSZ,2003-08-22 22:00,ZGSZ 222200Z 07002MPS 9999 FEW023 SCT050 27/24 Q1007 NOSIG
ZGSZ,2003-08-22 23:00,ZGSZ 222300Z 06002MPS 9999 FEW023 SCT050 27/24 Q1007 NOSIG
ZGSZ,2003-08-23 00:00,ZGSZ 230000Z 09002MPS CAVOK 28/25 Q1008 NOSIG
ZGSZ,2003-08-23 01:00,ZGSZ 230100Z 07003MPS 9999 BKN023 30/24 Q1008 NOSIG
ZGSZ,2003-08-23 02:00,ZGSZ 230200Z 04003MPS 9999 SCT021 31/24 Q1008 NOSIG
ZGSZ,2003-08-23 03:00,ZGSZ 230300Z 09003MPS 9999 BKN020 32/23 Q1007 NOSIG
ZGSZ,2003-08-23 04:00,ZGSZ 230400Z 30001MPS 9999 BKN020 FEW020TCU 31/24 Q1007 NOSIG
ZGSZ,2003-08-23 05:00,ZGSZ 230500Z 29003MPS 9999 BKN020 FEW020TCU 32/24 Q1006 NOSIG
ZGSZ,2003-08-23 06:00,ZGSZ 230600Z 29003MPS 9999 SCT020 FEW020TCU 32/25 Q1005 NOSIG
ZGSZ,2003-08-23 07:00,ZGSZ 230700Z 29004MPS 9999 SCT020 FEW020TCU 33/25 Q1004 NOSIG
ZGSZ,2003-08-23 08:00,ZGSZ 230800Z 05003MPS 9999 SCT020 35/23 Q1003 NOSIG
ZGSZ,2003-08-23 09:00,ZGSZ 230900Z 07003MPS 9999 SCT020 34/22 Q1003 NOSIG
ZGSZ,2003-08-23 10:00,ZGSZ 231000Z 15006MPS 4500 BR BKN020 FEW030TCU 31/25 Q1003 NOSIG
ZGSZ,2003-08-23 11:00,ZGSZ 231100Z 12007MPS 9999 SCT020 FEW030TCU SCT050 31/24 Q1003 NOSIG
ZGSZ,2003-08-23 12:00,ZGSZ 231200Z 07005MPS 9999 -SHRA SCT018 FEW030TCU BKN043 29/24 Q1005 NOSIG
ZGSZ,2003-08-23 13:00,ZGSZ 231300Z 09003MPS 9999 FEW018 FEW030TCU SCT050 30/24 Q1005 NOSIG
ZGSZ,2003-08-23 14:00,ZGSZ 231400Z 09006MPS 9999 FEW018 FEW033CB 30/23 Q1005 NOSIG
ZGSZ,2003-08-23 15:00,ZGSZ 231500Z 07003MPS 9999 FEW018 29/22 Q1006 NOSIG
ZGSZ,2003-08-23 16:00,ZGSZ 231600Z 10004MPS CAVOK 30/21 Q1005 NOSIG
ZGSZ,2003-08-23 17:00,ZGSZ 231700Z 06003MPS CAVOK 29/22 Q1005 NOSIG
ZGSZ,2003-08-23 18:00,ZGSZ 231800Z 05004MPS CAVOK 29/22 Q1004 NOSIG
ZGSZ,2003-08-23 19:00,ZGSZ 231900Z 06005MPS CAVOK 28/22 Q1003 NOSIG
ZGSZ,2003-08-23 20:00,ZGSZ 232000Z 04004MPS 9999 SCT020 28/21 Q1003 NOSIG
ZGSZ,2003-08-23 21:00,ZGSZ 232100Z 04005MPS 9999 BKN020 28/21 Q1004 NOSIG
ZGSZ,2003-08-23 22:00,ZGSZ 232200Z 05006MPS 9999 SCT018 FEW025TCU SCT040 27/22 Q1004 NOSIG
ZGSZ,2003-08-23 23:00,ZGSZ 232300Z 05006MPS 9999 SCT018 FEW025TCU SCT040 28/22 Q1004 NOSIG
ZGSZ,2003-08-24 00:00,ZGSZ 240000Z 05006MPS 9999 -SHRA SCT017 FEW026TCU BKN040 27/22 Q1004 NOSIG
ZGSZ,2003-08-24 01:00,ZGSZ 240100Z 05008MPS 9999 SCT020 29/23 Q1004 NOSIG
ZGSZ,2003-08-24 02:00,ZGSZ 240200Z 06007G12MPS 9999 SCT020 30/23 Q1003 NOSIC
ZGSZ,2003-08-24 03:00,ZGSZ 240300Z 06008MPS 9999 BKN023 31/22 Q1003 NOSIC
ZGSZ,2003-08-24 04:00,ZGSZ 240400Z 05009G15MPS 9999 BKN023 BKN100 31/22 Q1003 NOSIC
ZGSZ,2003-08-24 05:00,ZGSZ 240500Z 07009G16MPS 9999 SCT020 BKN100 32/22 Q1002 NOSIC
ZGSZ,2003-08-24 06:00,ZGSZ 240600Z 06009G17MPS 9999 BKN020 BKN060 32/21 Q1002 NOSIC
ZGSZ,2003-08-24 07:00,ZGSZ 240700Z 05008G14MPS 9999 BKN016 OVC050 31/21 Q1001 NOSIC
ZGSZ,2003-08-24 08:00,ZGSZ 240800Z 06009MPS 5000 -RA BR BKN015 OVC040 28/22 Q1002 NOSIC
ZGSZ,2003-08-24 09:00,ZGSZ 240900Z 05009MPS 9999 -TSRA BKN017 FEW033CB BKN050 26/23 Q1001 NOSIC
ZGSZ,2003-08-24 10:00,ZGSZ 241000Z 05008G13MPS 9999 BKN016 FEW040CB BKN060 27/23 Q1001 NOSIC
ZGSZ,2003-08-24 11:00,ZGSZ 241100Z 06005G11MPS 9999 BKN016 FEW040CB BKN100 27/23 Q1002 NOSIC
ZGSZ,2003-08-24 12:00,ZGSZ 241200Z 08007MPS 9999 -SHRA SCT010 BKN017 FEW040CB KN060 26/22 Q1003 NOSIC
ZGSZ,2003-08-24 13:00,ZGSZ 241300Z 07010MPS 9999 FEW010 BKN017 FEW030CB BKN043 26/22 Q1003 TEMPO 08009G14MPS 1500 -TSRA BKN010 FEW030CB BKN043
ZGSZ,2003-08-24 14:00,ZGSZ 241400Z 05005MPS 9999 BKN016 FEW033CB BKN043 26/22 Q1004 TEMPO 08009G14MPS 1500 -TSRA BKN010 FEW030CB BKN043
ZGSZ,2003-08-24 15:00,ZGSZ 241500Z 07006MPS 7000 -SHRA FEW010 BKN020 FEW033CB KN040 26/23 Q1003 TEMPO 08009G14MPS 1500 -TSRA BKN010 FEW030CB KN043
ZGSZ,2003-08-24 16:00,ZGSZ 241600Z 09009MPS 9999 -SHRA FEW010 BKN017 FEW033CB KN040 26/23 Q1004 TEMPO 08009G14MPS 1500 -TSRA BKN010 FEW030CB KN043
ZGSZ,2003-08-24 17:00,ZGSZ 241700Z 09007MPS 9999 -SHRA BKN016 FEW033CB BKN043 26/23 Q1003 TEMPO 09012MPS 1500 SHRA BKN010 FEW030CB 0VC040
ZGSZ,2003-08-24 18:00,ZGSZ 241800Z 09009MPS 9999 BKN015 FEW030CB OVC040 27/23 Q1003 TEMPO 09012MPS 1500 SHRA BKN010 FEW030CB 0VC040
ZGSZ,2003-08-24 19:00,ZGSZ 241900Z 09008MPS 9999 FEW010 BKN017 FEW033CB OVC040 27/23 Q1002 TEMPO 09012MPS 1500 SHRA BKN010 FEW030CB 0VC040
ZGSZ,2003-08-24 20:00,ZGSZ 242000Z 09008MPS 9999 BKN015 FEW033CB OVC040 27/23 Q1002 TEMPO 09012MPS 1500 SHRA BKN010 FEW030CB 0VC040
ZGSZ,2003-08-24 21:00,ZGSZ 242100Z 09007MPS 9999 BKN016 FEW033CB OVC040 27/23 Q1002 TEMPO 09012MPS 1500 SHRA BKN010 FEW030CB 0VC040
ZGSZ,2003-08-24 22:00,ZGSZ 242200Z 11007MPS 5000 -SHRA BKN016 FEW033CB OVC036 27/23 Q1003 TEMPO 09012MPS 1500 SHRA BKN010 FEW030CB 0VC040
ZGSZ,2003-08-24 23:00,ZGSZ 242300Z 10004MPS 9999 BKN016 FEW033CB BKN050 26/23 Q1003 TEMPO 09012MPS 1500 SHRA BKN010 FEW030CB 0VC040
ZGSZ,2003-08-25 00:00,ZGSZ 250000Z 13005MPS 9999 -SHRA SCT010 BKN017 FEW030CB KN043 26/23 Q1004 TEMPO 12011MPS 2000 SHRA -TSRA BKN012 SCT025CB KN033
ZGSZ,2003-08-25 00:30,ZGSZ 250030Z 18007MPS 5000 SHRA BKN012 FEW030CB BKN036 26/23 Q1005 TEMPO 12011MPS 2000 SHRA -TSRA BKN012 SCT025CB BKN033
ZGSZ,2003-08-25 01:00,ZGSZ 250100Z 11006MPS 9999 BKN015 FEW026CB SCT130 26/24 Q1005 TEMPO 12011MPS 2000 SHRA -TSRA BKN012 SCT025CB BKN033
ZGSZ,2003-08-25 01:30,ZGSZ 250130Z 11007MPS 9999 -SHRA BKN015 FEW026CB SCT130 27/23 Q1005 NOSIG
ZGSZ,2003-08-25 02:00,ZGSZ 250200Z 13008MPS 9999 BKN016 FEW026CB 27/23 Q1005 NOSIG
ZGSZ,2003-08-25 03:00,ZGSZ 250300Z 10007MPS 9999 BKN016 FEW026CB BKN130 26/23 Q1006 NOSIG
ZGSZ,2003-08-25 04:00,ZGSZ 250400Z 13008MPS 9999 FEW021 BKN140 26/23 Q1006 NOSIG
ZGSZ,2003-08-25 05:00,ZGSZ 250500Z 12005MPS 9999 FEW011 BKN015 27/24 Q1005 NOSIG
ZGSZ,2003-08-25 06:00,ZGSZ 250600Z 13007MPS 9999 SCT016 BKN130 28/24 Q1005 NOSIG
ZGSZ,2003-08-25 07:00,ZGSZ 250700Z 13006MPS 9999 -SHRA SCT015 BKN036 27/24 Q1005 NOSIG
ZGSZ,2003-08-25 08:00,ZGSZ 250800Z 11005MPS 9999 BKN020 28/24 Q1005 NOSIG
ZGSZ,2003-08-25 09:00,ZGSZ 250900Z 09006MPS 9999 SCT016 FEW030CB BKN046 28/23 Q1005 NOSIG
ZGSZ,2003-08-25 10:00,ZGSZ 251000Z 09005MPS 9999 SCT015 FEW026CB BKN043 27/23 Q1004 NOSIG
ZGSZ,2003-08-25 11:00,ZGSZ 251100Z 17004MPS 9999 BKN011 FEW026CB BKN043 26/23 Q1006 NOSIG
ZGSZ,2003-08-25 12:00,ZGSZ 251200Z 13004MPS 9999 SCT013 FEW030CB BKN050 28/24 Q1006 NOSIG
ZGSZ,2003-08-25 13:00,ZGSZ 251300Z 12007MPS 9999 FEW016 BKN060 28/23 Q1007 NOSIG
ZGSZ,2003-08-25 14:00,ZGSZ 251400Z 17005MPS 9999 -SHRA SCT011 FEW030CB BKN050 27/24 Q1008 NOSIG
ZGSZ,2003-08-25 15:00,ZGSZ 251500Z 16007G13MPS 2500 TSRA SCT007 SCT030CB BKN040 24/23 Q1009 NOSIG
ZGSZ,2003-08-25 16:00,ZGSZ 251600Z 12004MPS 9999 SCT012 FEW040CB BKN050 26/24 Q1008 NOSIG
ZGSZ,2003-08-25 17:00,ZGSZ 251700Z 13005MPS 9999 FEW015 BKN070 27/24 Q1008 NOSIG
ZGSZ,2003-08-25 18:00,ZGSZ 251800Z 10003MPS 9999 BKN016 27/24 Q1008 NOSIG
ZGSZ,2003-08-25 19:00,ZGSZ 251900Z 11004MPS 9999 SCT016 27/24 Q1007 NOSIG
ZGSZ,2003-08-25 20:00,ZGSZ 252000Z 13005MPS 9999 -SHRA SCT015 FEW023TCU BKN050 27/24 Q1007 NOSIG
ZGSZ,2003-08-25 21:00,ZGSZ 252100Z 13005MPS 9999 FEW016 SCT070 27/24 Q1007 NOSIG
ZGSZ,2003-08-25 22:00,ZGSZ 252200Z 13005MPS 9999 FEW017 SCT100 27/24 Q1007 NOSIG
ZGSZ,2003-08-25 23:00,ZGSZ 252300Z 13004MPS 9999 SCT019 SCT260 27/24 Q1008 NOSIG
ZGSZ,2003-08-26 00:00,ZGSZ 260000Z 14005MPS 9999 SCT020 SCT300 28/24 Q1008 NOSIG
ZGSZ,2003-08-26 01:00,ZGSZ 260100Z 14007MPS 9999 SCT020 BKN300 29/24 Q1009 NOSIG
ZGSZ,2003-08-26 02:00,ZGSZ 260200Z 14007MPS 9999 BKN020 FEW030TCU BKN300 29/24 Q1009 NOSIG
ZGSZ,2003-08-26 03:00,ZGSZ 260300Z 16007MPS 9999 BKN020 BKN300 30/25 Q1009 NOSIG
ZGSZ,2003-08-26 04:00,ZGSZ 260400Z 16007MPS 9999 SCT020 BKN300 30/25 Q1009 NOSIG
ZGSZ,2003-08-26 05:00,ZGSZ 260500Z 15007MPS 9999 BKN020 FEW030TCU BKN300 30/25 Q1009 NOSIG
ZGSZ,2003-08-26 06:00,ZGSZ 260600Z 16006MPS 9999 SCT020 BKN300 30/25 Q1008 NOSIG
ZGSZ,2003-08-26 07:00,ZGSZ 260700Z 15008MPS 9999 BKN020 BKN300 31/25 Q1008 NOSIG
ZGSZ,2003-08-26 08:00,ZGSZ 260800Z 16006MPS 9999 BKN020 BKN300 31/25 Q1008 NOSIG
ZGSZ,2003-08-26 09:00,ZGSZ 260900Z 14007MPS 9999 BKN020 BKN260 29/24 Q1008 NOSIG
ZGSZ,2003-08-26 10:00,ZGSZ 261000Z 14006MPS 9999 SCT018 BKN260 29/24 Q1008 NOSIG
ZGSZ,2003-08-26 11:00,ZGSZ 261100Z 14006MPS 9999 SCT017 BKN260 28/24 Q1009 NOSIG
ZGSZ,2003-08-26 12:00,ZGSZ 261200Z 13006MPS 9999 SCT017 BKN260 28/24 Q1009 NOSIG
ZGSZ,2003-08-26 13:00,ZGSZ 261300Z 13004MPS 9999 FEW017 BKN260 28/24 Q1010 NOSIG
ZGSZ,2003-08-26 14:00,ZGSZ 261400Z 13004MPS 9999 FEW017 BKN260 28/24 Q1010 NOSIG
ZGSZ,2003-08-26 15:00,ZGSZ 261500Z 13004MPS CAVOK 27/24 Q1011 NOSIG
ZGSZ,2003-08-26 16:00,ZGSZ 261600Z 13003MPS 9999 FEW018 27/24 Q1010 NOSIG
ZGSZ,2003-08-26 17:00,ZGSZ 261700Z 09003MPS 9999 FEW018 27/24 Q1010 NOSIG
ZGSZ,2003-08-26 18:00,ZGSZ 261800Z 09003MPS 9999 FEW018 27/24 Q1010 NOSIG
ZGSZ,2003-08-26 19:00,ZGSZ 261900Z 12002MPS 9999 FEW018 27/23 Q1009 NOSIG
ZGSZ,2003-08-26 20:00,ZGSZ 262000Z 13003MPS 9999 FEW018 27/23 Q1009 NOSIG
ZGSZ,2003-08-26 21:00,ZGSZ 262100Z 09001MPS 9999 FEW018 27/24 Q1009 NOSIG
ZGSZ,2003-08-26 22:00,ZGSZ 262200Z 10001MPS 6000 FEW018 SCT050 26/23 Q1009 NOSIG
ZGSZ,2003-08-26 23:00,ZGSZ 262300Z 09002MPS 8000 FEW018 SCT120 27/24 Q1009 NOSIG
ZGSZ,2003-08-27 00:00,ZGSZ 270000Z 11003MPS 8000 FEW018 SCT300 28/24 Q1010 NOSIG
ZGSZ,2003-08-27 01:00,ZGSZ 270100Z 14003MPS 9999 FEW020 BKN150 29/24 Q1010 NOSIG
ZGSZ,2003-08-27 02:00,ZGSZ 270200Z 18003MPS 9999 FEW023 SCT150 30/25 Q1010 NOSIG
ZGSZ,2003-08-27 03:00,ZGSZ 270300Z 20003MPS 9999 FEW023 SCT150 30/25 Q1010 NOSIG
ZGSZ,2003-08-27 04:00,ZGSZ 270400Z 20003MPS 9999 FEW026 BKN150 30/25 Q1010 NOSIG
ZGSZ,2003-08-27 05:00,ZGSZ 270500Z 19004MPS 9999 FEW026 31/25 Q1009 NOSIG
ZGSZ,2003-08-27 06:00,ZGSZ 270600Z 19005MPS 9999 FEW026 30/25 Q1008 NOSIG
ZGSZ,2003-08-27 07:00,ZGSZ 270700Z 18005MPS 9999 FEW026 31/25 Q1008 NOSIG
ZGSZ,2003-08-27 08:00,ZGSZ 270800Z 18006MPS 9999 FEW023 30/25 Q1007 NOSIG
ZGSZ,2003-08-27 09:00,ZGSZ 270900Z 18007MPS 9999 FEW023 30/25 Q1007 NOSIG
ZGSZ,2003-08-27 10:00,ZGSZ 271000Z 18006MPS CAVOK 29/25 Q1007 NOSIG
ZGSZ,2003-08-27 11:00,ZGSZ 271100Z 18005MPS CAVOK 28/25 Q1007 NOSIG
ZGSZ,2003-08-27 12:00,ZGSZ 271200Z 18005MPS CAVOK 28/25 Q1008 NOSIG
ZGSZ,2003-08-27 13:00,ZGSZ 271300Z 17006MPS CAVOK 28/24 Q1009 NOSIG
ZGSZ,2003-08-27 14:00,ZGSZ 271400Z 17005MPS CAVOK 28/24 Q1009 NOSIG
ZGSZ,2003-08-27 15:00,ZGSZ 271500Z 15004MPS CAVOK 28/23 Q1009 NOSIG
ZGSZ,2003-08-27 16:00,ZGSZ 271600Z 14002MPS CAVOK 27/23 Q1009 NOSIG
ZGSZ,2003-08-27 17:00,ZGSZ 271700Z 18003MPS CAVOK 28/24 Q1009 NOSIG
ZGSZ,2003-08-27 18:00,ZGSZ 271800Z AUTO 00000KT 8SM 27/24 RMK SLP095 T02710242 57006 IEM_DS3505
ZGSZ,2003-08-27 19:00,ZGSZ 271900Z 18004MPS 9999 BKN020 27/24 Q1009 NOSIG
ZGSZ,2003-08-27 20:00,ZGSZ 272000Z 18004MPS 7000 BKN020 27/24 Q1008 NOSIG
ZGSZ,2003-08-27 21:00,ZGSZ 272100Z 18003MPS 7000 BKN020 27/24 Q1008 NOSIG
ZGSZ,2003-08-27 22:00,ZGSZ 272200Z 18002MPS 7000 BKN020 27/23 Q1008 NOSIG
ZGSZ,2003-08-27 23:00,ZGSZ 272300Z 25002MPS 9999 SCT023 28/24 Q1009 NOSIG
ZGSZ,2003-08-28 00:00,ZGSZ 280000Z 25001MPS 9999 SCT023 28/24 Q1009 NOSIG
ZGSZ,2003-08-28 01:00,ZGSZ 280100Z 24002MPS 9999 SCT020 29/24 Q1009 NOSIG
ZGSZ,2003-08-28 02:00,ZGSZ 280200Z 25001MPS 9999 FEW022 30/24 Q1009 NOSIG
ZGSZ,2003-08-28 03:00,ZGSZ 280300Z 24002MPS 9999 FEW023 30/24 Q1009 NOSIG
ZGSZ,2003-08-28 04:00,ZGSZ 280400Z 20003MPS 9999 FEW025 30/24 Q1009 NOSIG
ZGSZ,2003-08-28 05:00,ZGSZ 280500Z 21003MPS 9999 FEW025 31/23 Q1008 NOSIG
ZGSZ,2003-08-28 06:00,ZGSZ 280600Z 21003MPS 9999 FEW026 32/22 Q1008 NOSIG
ZGSZ,2003-08-28 07:00,ZGSZ 280700Z 19004MPS CAVOK 32/25 Q1008 NOSIG
ZGSZ,2003-08-28 08:00,ZGSZ 280800Z 18005MPS CAVOK 31/25 Q1007 NOSIG
ZGSZ,2003-08-28 09:00,ZGSZ 280900Z 18006MPS CAVOK 30/24 Q1007 NOSIG
ZGSZ,2003-08-28 10:00,ZGSZ 281000Z 18007MPS CAVOK 29/24 Q1007 NOSIG
ZGSZ,2003-08-28 11:00,ZGSZ 281100Z 18006MPS CAVOK 29/24 Q1007 NOSIG
ZGSZ,2003-08-28 12:00,ZGSZ 281200Z 18005MPS CAVOK 28/24 Q1008 NOSIG
ZGSZ,2003-08-28 13:00,ZGSZ 281300Z 18005MPS CAVOK 28/24 Q1008 NOSIG
ZGSZ,2003-08-28 14:00,ZGSZ 281400Z 17004MPS CAVOK 28/24 Q1009 NOSIG
ZGSZ,2003-08-28 15:00,ZGSZ 281500Z 18005MPS CAVOK 28/24 Q1009 NOSIG
ZGSZ,2003-08-28 16:00,ZGSZ 281600Z 15004MPS 9999 FEW019 28/24 Q1009 NOSIG
ZGSZ,2003-08-28 17:00,ZGSZ 281700Z 18003MPS 9999 SCT018 28/24 Q1009 NOSIG
ZGSZ,2003-08-28 18:00,ZGSZ 281800Z 18004MPS 9999 SCT017 28/24 Q1009 NOSIG
ZGSZ,2003-08-28 19:00,ZGSZ 281900Z 18004MPS 9999 SCT016 27/23 Q1009 NOSIG
ZGSZ,2003-08-28 20:00,ZGSZ 282000Z 18003MPS 9999 SCT016 27/23 Q1009 NOSIG
ZGSZ,2003-08-28 21:00,ZGSZ 282100Z 18003MPS 9999 FEW017 27/23 Q1009 NOSIG
ZGSZ,2003-08-28 22:00,ZGSZ 282200Z 13003MPS 9999 FEW018 27/23 Q1009 NOSIG
ZGSZ,2003-08-28 23:00,ZGSZ 282300Z 10002MPS 7000 SCT020 27/23 Q1010 NOSIG
ZGSZ,2003-08-29 00:00,ZGSZ 290000Z 10003MPS 8000 SCT020 29/24 Q1010 NOSIG
ZGSZ,2003-08-29 01:00,ZGSZ 290100Z 18002MPS 9999 SCT020 29/23 Q1011 NOSIG
ZGSZ,2003-08-29 02:00,ZGSZ 290200Z 25002MPS 9999 SCT022 29/24 Q1011 NOSIG
ZGSZ,2003-08-29 03:00,ZGSZ 290300Z 22002MPS 9999 FEW022 30/24 Q1011 NOSIG
ZGSZ,2003-08-29 04:00,ZGSZ 290400Z 24003MPS 9999 FEW022 30/23 Q1011 NOSIG
ZGSZ,2003-08-29 05:00,ZGSZ 290500Z 23003MPS 9999 FEW022 31/22 Q1010 NOSIG
ZGSZ,2003-08-29 06:00,ZGSZ 290600Z 21003MPS 9999 FEW022 32/22 Q1009 NOSIG
ZGSZ,2003-08-29 07:00,ZGSZ 290700Z 21004MPS CAVOK 32/22 Q1009 NOSIG
ZGSZ,2003-08-29 08:00,ZGSZ 290800Z 21003MPS CAVOK 32/23 Q1008 NOSIG
ZGSZ,2003-08-29 09:00,ZGSZ 290900Z 18004MPS CAVOK 31/23 Q1008 NOSIG
ZGSZ,2003-08-29 10:00,ZGSZ 291000Z 18004MPS CAVOK 30/24 Q1008 NOSIG
ZGSZ,2003-08-29 11:00,ZGSZ 291100Z 18004MPS CAVOK 29/24 Q1008 NOSIG
ZGSZ,2003-08-29 12:00,ZGSZ 291200Z 18004MPS CAVOK 29/24 Q1008 NOSIG
ZGSZ,2003-08-29 13:00,ZGSZ 291300Z 18005MPS CAVOK 29/24 Q1008 NOSIG
ZGSZ,2003-08-29 14:00,ZGSZ 291400Z 17005MPS CAVOK 29/24 Q1009 NOSIG
ZGSZ,2003-08-29 15:00,ZGSZ 291500Z 18004MPS CAVOK 29/24 Q1009 NOSIG
ZGSZ,2003-08-29 16:00,ZGSZ 291600Z 17004MPS CAVOK 28/24 Q1009 NOSIG
ZGSZ,2003-08-29 17:00,ZGSZ 291700Z 17004MPS CAVOK 28/24 Q1009 NOSIG
ZGSZ,2003-08-29 18:00,ZGSZ 291800Z 17003MPS CAVOK 28/24 Q1008 NOSIG
ZGSZ,2003-08-29 19:00,ZGSZ 291900Z 16002MPS CAVOK 28/24 Q1008 NOSIG
ZGSZ,2003-08-29 20:00,ZGSZ 292000Z 18003MPS CAVOK 28/24 Q1008 NOSIG
ZGSZ,2003-08-29 21:00,ZGSZ 292100Z 18003MPS CAVOK 27/24 Q1009 NOSIG
ZGSZ,2003-08-29 22:00,ZGSZ 292200Z 18002MPS 9999 FEW020 27/23 Q1009 NOSIG
ZGSZ,2003-08-29 23:00,ZGSZ 292300Z 21003MPS 9999 SCT020 28/24 Q1009 NOSIG
ZGSZ,2003-08-30 00:00,ZGSZ 300000Z 23002MPS 9999 SCT020 28/24 Q1009 NOSIG
ZGSZ,2003-08-30 01:00,ZGSZ 300100Z 25003MPS 9999 SCT020 29/25 Q1010 NOSIG
ZGSZ,2003-08-30 02:00,ZGSZ 300200Z 27002MPS 9999 SCT020 30/24 Q1010 NOSIG
ZGSZ,2003-08-30 03:00,ZGSZ 300300Z 30002MPS 9999 SCT020 30/24 Q1010 NOSIG
ZGSZ,2003-08-30 04:00,ZGSZ 300400Z 24002MPS 9999 SCT020 31/24 Q1009 NOSIG
ZGSZ,2003-08-30 05:00,ZGSZ 300500Z 24002MPS 9999 FEW023 31/24 Q1009 NOSIG
ZGSZ,2003-08-30 06:00,ZGSZ 300600Z 23002MPS 9999 FEW026 32/24 Q1008 NOSIG
ZGSZ,2003-08-30 07:00,ZGSZ 300700Z 21003MPS 9999 FEW026 SCT150 32/25 Q1008 NOSIG
ZGSZ,2003-08-30 08:00,ZGSZ 300800Z 20003MPS CAVOK 32/24 Q1007 NOSIG
ZGSZ,2003-08-30 09:00,ZGSZ 300900Z 18004MPS CAVOK 31/25 Q1006 NOSIG
ZGSZ,2003-08-30 10:00,ZGSZ 301000Z 17004MPS CAVOK 30/25 Q1006 NOSIG
ZGSZ,2003-08-30 11:00,ZGSZ 301100Z 18004MPS CAVOK 30/24 Q1006 NOSIG
ZGSZ,2003-08-30 12:00,ZGSZ 301200Z 17004MPS CAVOK 29/25 Q1006 NOSIG
ZGSZ,2003-08-30 13:00,ZGSZ 301300Z 17005MPS CAVOK 29/25 Q1007 NOSIG
ZGSZ,2003-08-30 14:00,ZGSZ 301400Z 18004MPS CAVOK 29/25 Q1008 NOSIG
ZGSZ,2003-08-30 15:00,ZGSZ 301500Z 18005MPS CAVOK 29/24 Q1008 NOSIG
ZGSZ,2003-08-30 16:00,ZGSZ 301600Z 18005MPS CAVOK 29/25 Q1008 NOSIG
ZGSZ,2003-08-30 17:00,ZGSZ 301700Z 18004MPS CAVOK 29/25 Q1007 NOSIG
ZGSZ,2003-08-30 18:00,ZGSZ 301800Z 18004MPS CAVOK 28/24 Q1007 NOSIG
ZGSZ,2003-08-30 19:00,ZGSZ 301900Z 20003MPS CAVOK 28/24 Q1007 NOSIG
ZGSZ,2003-08-30 20:00,ZGSZ 302000Z 22002MPS CAVOK 28/24 Q1007 NOSIG
ZGSZ,2003-08-30 21:00,ZGSZ 302100Z 26002MPS CAVOK 28/24 Q1007 NOSIG
ZGSZ,2003-08-30 22:00,ZGSZ 302200Z 27002MPS CAVOK 27/24 Q1007 NOSIG
ZGSZ,2003-08-30 23:00,ZGSZ 302300Z 25002MPS CAVOK 28/24 Q1007 NOSIG
ZGSZ,2003-08-31 00:00,ZGSZ 310000Z 26002MPS 9999 SCT023 28/25 Q1008 NOSIG
ZGSZ,2003-08-31 01:00,ZGSZ 310100Z 26002MPS 9999 SCT020 29/25 Q1008 NOSIG
ZGSZ,2003-08-31 02:00,ZGSZ 310200Z 27003MPS 9999 FEW020 30/25 Q1008 NOSIG
ZGSZ,2003-08-31 03:00,ZGSZ 310300Z 26003MPS CAVOK 30/24 Q1008 NOSIG
ZGSZ,2003-08-31 04:00,ZGSZ 310400Z 25003MPS CAVOK 31/24 Q1008 NOSIG
ZGSZ,2003-08-31 05:00,ZGSZ 310500Z 25003MPS CAVOK 32/25 Q1007 NOSIG
ZGSZ,2003-08-31 06:00,ZGSZ 310600Z 23002MPS CAVOK 32/25 Q1006 NOSIG
ZGSZ,2003-08-31 07:00,ZGSZ 310700Z 21003MPS CAVOK 32/24 Q1005 NOSIG
ZGSZ,2003-08-31 08:00,ZGSZ 310800Z 20003MPS CAVOK 33/25 Q1004 NOSIG
ZGSZ,2003-08-31 09:00,ZGSZ 310900Z 18004MPS CAVOK 32/25 Q1004 NOSIG
ZGSZ,2003-08-31 10:00,ZGSZ 311000Z 18004MPS CAVOK 31/26 Q1004 NOSIG
ZGSZ,2003-08-31 11:00,ZGSZ 311100Z 17004MPS CAVOK 30/26 Q1004 NOSIG
ZGSZ,2003-08-31 12:00,ZGSZ 311200Z 17004MPS CAVOK 30/25 Q1005 NOSIG
ZGSZ,2003-08-31 13:00,ZGSZ 311300Z 18004MPS CAVOK 30/26 Q1006 NOSIG
ZGSZ,2003-08-31 14:00,ZGSZ 311400Z 18004MPS CAVOK 30/26 Q1006 NOSIG
ZGSZ,2003-08-31 15:00,ZGSZ 311500Z 18004MPS CAVOK 30/25 Q1006 NOSIG
ZGSZ,2003-08-31 16:00,ZGSZ 311600Z 18004MPS CAVOK 30/25 Q1006 NOSIG
ZGSZ,2003-08-31 17:00,ZGSZ 311700Z 14003MPS CAVOK 29/25 Q1006 NOSIG
ZGSZ,2003-08-31 18:00,ZGSZ 311800Z AUTO 09004KT 7SM 28/22 RMK 60004 SLP067 T02780222 57006 IEM_DS3505
ZGSZ,2003-08-31 21:00,ZGSZ 312100Z 09003MPS 9999 FEW020 SCT060 28/21 Q1005 NOSIG
ZGSZ,2003-08-31 22:00,ZGSZ 312200Z 00000MPS CAVOK 28/22 Q1006 NOSIG
ZGSZ,2003-08-31 23:00,ZGSZ 312300Z 00000MPS CAVOK 28/22 Q1006 NOSIG
ZGSZ,2003-09-01 00:00,ZGSZ 010000Z 00000MPS 9999 FEW026 30/22 Q1006 NOSIG
ZGSZ,2003-09-01 01:00,ZGSZ 010100Z 27002MPS 8000 NSC 30/23 Q1006 NOSIG
ZGSZ,2003-09-01 02:00,ZGSZ 010200Z 26002MPS 9999 FEW046 31/22 Q1006 NOSIG
ZGSZ,2003-09-01 03:00,ZGSZ 010300Z 25002MPS CAVOK 32/23 Q1006 NOSIG
ZGSZ,2003-09-01 04:00,ZGSZ 010400Z 24002MPS 8000 NSC 32/23 Q1005 NOSIG
ZGSZ,2003-09-01 05:00,ZGSZ 010500Z 23003MPS 7000 NSC 32/24 Q1004 NOSIG
ZGSZ,2003-09-01 06:00,ZGSZ 010600Z 22003MPS 7000 NSC 34/24 Q1003 NOSIG
ZGSZ,2003-09-01 07:00,ZGSZ 010700Z 23003MPS 6000 FEW023 33/24 Q1003 NOSIG
ZGSZ,2003-09-01 08:00,ZGSZ 010800Z 22002MPS 3000 HZ NSC 33/24 Q1002 NOSIG
ZGSZ,2003-09-01 09:00,ZGSZ 010900Z 23002MPS 3000 HZ FEW022 SCT120 33/24 Q1001 NOSIG
ZGSZ,2003-09-01 10:00,ZGSZ 011000Z 19004MPS 6000 NSC 31/26 Q1001 NOSIG
ZGSZ,2003-09-01 11:00,ZGSZ 011100Z 18004MPS 6000 FEW020 SCT070 30/25 Q1002 NOSIG
ZGSZ,2003-09-01 12:00,ZGSZ 011200Z 27004MPS 6000 -TS SCT020 FEW033CB BKN040 30/21 Q1002 NOSIG
ZGSZ,2003-09-01 13:00,ZGSZ 011300Z 36005MPS 6000 -TSRA SCT017 FEW033CB BKN040 26/23 Q1003 NOSIG
ZGSZ,2003-09-01 14:00,ZGSZ 011400Z 03002MPS 5000 BR FEW018 SCT040 27/22 Q1002 NOSIG
ZGSZ,2003-09-01 15:00,ZGSZ 011500Z 33002MPS 5000 BR FEW018 28/24 Q1001 NOSIG
ZGSZ,2003-09-01 16:00,ZGSZ 011600Z 32004MPS 4000 BR SKC 28/24 Q1001 NOSIG
ZGSZ,2003-09-01 17:00,ZGSZ 011700Z 31005MPS 4000 BR SKC 28/22 Q1000 NOSIG
ZGSZ,2003-09-01 18:00,ZGSZ 011800Z 33003MPS 4000 BR SKC 27/22 Q1000 NOSIG
ZGSZ,2003-09-01 19:00,ZGSZ 011900Z 31006MPS 4000 BR SKC 28/22 Q0999 NOSIG
ZGSZ,2003-09-01 20:00,ZGSZ 012000Z 32006MPS 4000 BR SKC 28/22 Q0998 NOSIG
ZGSZ,2003-09-01 21:00,ZGSZ 012100Z 31008MPS 6000 SKC 28/22 Q0998 NOSIG
ZGSZ,2003-09-01 22:00,ZGSZ 012200Z 32007MPS 6000 SKC 27/22 Q0998 NOSIG
ZGSZ,2003-09-01 23:00,ZGSZ 012300Z 32008MPS 8000 NSC 28/22 Q0998 NOSIG
ZGSZ,2003-09-02 00:00,ZGSZ 020000Z 32006MPS 7000 NSC 28/22 Q0999 NOSIG
ZGSZ,2003-09-02 01:00,ZGSZ 020100Z 31004MPS 7000 NSC 28/22 Q1000 NOSIG
ZGSZ,2003-09-02 02:00,ZGSZ 020200Z 32007MPS 7000 NSC 30/22 Q0999 NOSIG
ZGSZ,2003-09-02 03:00,ZGSZ 020300Z 32008MPS 8000 NSC 31/22 Q0998 NOSIG
ZGSZ,2003-09-02 04:00,ZGSZ 020400Z 32008MPS 7000 NSC 31/23 Q0997 NOSIG
ZGSZ,2003-09-02 05:00,ZGSZ 020500Z 32005MPS 7000 -SHRA FEW026 BKN060 30/22 Q0997 NOSIG
ZGSZ,2003-09-02 06:00,ZGSZ 020600Z 34004MPS 5000 -RA OVC046 28/23 Q0997 NOSIG
ZGSZ,2003-09-02 07:00,ZGSZ 020700Z 32004MPS 5000 -RA FEW018 OVC043 27/24 Q0996 NOSIG
ZGSZ,2003-09-02 08:00,ZGSZ 020800Z 31008MPS 5000 -RA FEW018 OVC043 27/24 Q0994 NOSIG
ZGSZ,2003-09-02 09:00,ZGSZ 020900Z 32011MPS 6000 FEW018 OVC043 27/23 Q0993 NOSIG
ZGSZ,2003-09-02 10:00,ZGSZ 021000Z 31013MPS 6000 FEW018 OVC043 27/23 Q0991 NOSIG
ZGSZ,2003-09-02 11:00,ZGSZ 021100Z 31017G23MPS 2000 -RA SCT020 OVC043 26/22 Q0989 NOSIG
ZGSZ,2003-09-02 12:00,ZGSZ 021200Z 31016G22MPS 2800 -SHRA FEW016 FEW026TCU BKN043 26/22 Q0985 NOSIG
ZGSZ,2003-09-02 13:00,ZGSZ 021300Z 31020G27MPS 0800 R15/0600N -SHRA FEW016 FEW026TCU BKN043 23/22 Q0980 NOSIG
ZGSZ,2003-09-02 14:00,ZGSZ 021400Z 35020G36MPS 0500 R15/0800N +SHRA SCT016 FEW026TCU BKN043 24/23 Q0976 NOSIG
ZGSZ,2003-09-02 15:00,ZGSZ 021500Z 08018G26MPS 1200 R15/P1500N SHRA SCT016 FEW026TCU BKN043 26/23 Q0981 RERA NOSIG
ZGSZ,2003-09-02 16:00,ZGSZ 021600Z AUTO 09012G17MPS //// // ////// 25/23 Q0988 NOSIG
ZGSZ,2003-09-02 17:00,ZGSZ 021700Z AUTO 14008KT 2 1/2SM 25/24 RMK SLP947 T02520238 52134 IEM_DS3505
ZGSZ,2003-09-02 18:00,ZGSZ 021800Z AUTO 14006KT 8SM 25/23 RMK 60280 SLP961 T02520233 40306//// 52073 IEM_DS3505
ZGSZ,2003-09-02 19:00,ZGSZ 021900Z AUTO 22006KT 5SM 25/24 RMK SLP972 T02500236 52049 IEM_DS3505
ZGSZ,2003-09-02 20:00,ZGSZ 022000Z 11008MPS 1500 -SHRA SCT018 OVC043 25/23 Q0993 NOSIG
ZGSZ,2003-09-02 21:00,ZGSZ 022100Z 12008MPS 1500 -SHRA SCT016 OVC040 25/23 Q0998 NOSIG
ZGSZ,2003-09-02 22:00,ZGSZ 022200Z 14003MPS 1700 -SHRA SCT011 OVC040 24/23 Q0999 NOSIG
ZGSZ,2003-09-02 23:00,ZGSZ 022300Z 09005MPS 8000 R15/1400N SCT015 BKN043 26/24 Q0999 NOSIG
ZGSZ,2003-09-03 00:00,ZGSZ 030000Z 10007MPS 9999 FEW018 BKN043 28/23 Q1000 NOSIG
ZGSZ,2003-09-03 01:00,ZGSZ 030100Z AUTO 13016KT 7SM 28/23 A2959 RMK T02800230 IEM_DS3505
ZGSZ,2003-09-03 02:00,ZGSZ 030200Z AUTO 13019KT 4SM 27/23 A2962 RMK T02700230 IEM_DS3505
ZGSZ,2003-09-03 03:00,ZGSZ 030300Z 13008MPS 9999 -RA OVC040 25/22 Q1004 NOSIG
ZGSZ,2003-09-03 04:00,ZGSZ 030400Z 11008MPS 9999 -RA FEW018 OVC040 25/22 Q1004 NOSIG
ZGSZ,2003-09-03 05:00,ZGSZ 030500Z 12008MPS 9999 FEW016 SCT030 BKN043 27/23 Q1004 NOSIG
ZGSZ,2003-09-03 06:00,ZGSZ 030600Z 10007MPS 9999 BKN046 28/23 Q1003 NOSIG
ZGSZ,2003-09-03 07:00,ZGSZ 030700Z 11005MPS CAVOK 29/23 Q1004 NOSIG
ZGSZ,2003-09-03 08:00,ZGSZ 030800Z 09005MPS CAVOK 29/23 Q1004 NOSIG
ZGSZ,2003-09-03 09:00,ZGSZ 030900Z 09006MPS CAVOK 29/23 Q1004 NOSIG
ZGSZ,2003-09-03 10:00,ZGSZ 031000Z 10005MPS CAVOK 29/23 Q1004 NOSIG
ZGSZ,2003-09-03 11:00,ZGSZ 031100Z 09005MPS CAVOK 28/23 Q1005 NOSIG
ZGSZ,2003-09-03 12:00,ZGSZ 031200Z 09005MPS CAVOK 27/23 Q1006 NOSIG
ZGSZ,2003-09-03 13:00,ZGSZ 031300Z 09005MPS CAVOK 27/23 Q1007 NOSIG
ZGSZ,2003-09-03 14:00,ZGSZ 031400Z 08003MPS CAVOK 27/23 Q1008 NOSIG
ZGSZ,2003-09-03 15:00,ZGSZ 031500Z 10005MPS CAVOK 27/23 Q1008 NOSIG
ZGSZ,2003-09-03 16:00,ZGSZ 031600Z 09006MPS CAVOK 27/22 Q1008 NOSIG
ZGSZ,2003-09-03 17:00,ZGSZ 031700Z 09006MPS CAVOK 27/22 Q1008 NOSIG
ZGSZ,2003-09-03 18:00,ZGSZ 031800Z 09005MPS CAVOK 26/22 Q1007 NOSIG
ZGSZ,2003-09-03 19:00,ZGSZ 031900Z 06002MPS CAVOK 26/22 Q1007 NOSIG
ZGSZ,2003-09-03 20:00,ZGSZ 032000Z 09002MPS CAVOK 26/22 Q1007 NOSIG
ZGSZ,2003-09-03 21:00,ZGSZ 032100Z 08003MPS CAVOK 26/22 Q1008 NOSIG
ZGSZ,2003-09-03 22:00,ZGSZ 032200Z 02003MPS CAVOK 25/22 Q1008 NOSIG
ZGSZ,2003-09-03 23:00,ZGSZ 032300Z 07001MPS CAVOK 26/22 Q1009 NOSIG
ZGSZ,2003-09-04 00:00,ZGSZ 040000Z 10002MPS CAVOK 27/22 Q1009 NOSIG
ZGSZ,2003-09-04 01:00,ZGSZ 040100Z 05002MPS 9999 SCT018 BKN120 28/22 Q1009 NOSIG
ZGSZ,2003-09-04 02:00,ZGSZ 040200Z 09004MPS 9999 SCT018 BKN070 29/23 Q1010 NOSIG
ZGSZ,2003-09-04 03:00,ZGSZ 040300Z 08003MPS 3000 -SHRA SCT016 FEW030TCU BKN050 27/23 Q1010 NOSIG
ZGSZ,2003-09-04 04:00,ZGSZ 040400Z 07001MPS 9999 SCT018 BKN050 28/23 Q1009 NOSIG
ZGSZ,2003-09-04 05:00,ZGSZ 040500Z 08003MPS 9999 SCT017 BKN043 28/23 Q1009 NOSIG
ZGSZ,2003-09-04 06:00,ZGSZ 040600Z 09003MPS 9999 FEW018 BKN050 28/23 Q1008 NOSIG
ZGSZ,2003-09-04 07:00,ZGSZ 040700Z 08002MPS 9999 SCT018 BKN050 29/23 Q1007 NOSIG
ZGSZ,2003-09-04 08:00,ZGSZ 040800Z 12004MPS 9999 SCT018 BKN050 29/23 Q1007 NOSIG
ZGSZ,2003-09-04 09:00,ZGSZ 040900Z 08004MPS 9999 BKN020 BKN060 28/23 Q1007 NOSIG
ZGSZ,2003-09-04 10:00,ZGSZ 041000Z 09004MPS 9999 BKN030 BKN100 28/22 Q1008 NOSIG
ZGSZ,2003-09-04 11:00,ZGSZ 041100Z 10004MPS 9999 SCT030 BKN100 28/22 Q1008 NOSIG
ZGSZ,2003-09-04 12:00,ZGSZ 041200Z 08004MPS 9999 SCT030 BKN120 28/22 Q1009 NOSIG
ZGSZ,2003-09-04 13:00,ZGSZ 041300Z 09003MPS 9999 FEW030 SCT120 27/22 Q1010 NOSIG
ZGSZ,2003-09-04 14:00,ZGSZ 041400Z 08001MPS CAVOK 27/22 Q1010 NOSIG
ZGSZ,2003-09-04 15:00,ZGSZ 041500Z 08002MPS CAVOK 27/22 Q1010 NOSIG
ZGSZ,2003-09-04 16:00,ZGSZ 041600Z 10002MPS CAVOK 26/22 Q1010 NOSIG
ZGSZ,2003-09-04 17:00,ZGSZ 041700Z 04001MPS CAVOK 26/22 Q1010 NOSIG
ZGSZ,2003-09-04 18:00,ZGSZ 041800Z 03001MPS CAVOK 26/23 Q1009 NOSIG
ZGSZ,2003-09-04 19:00,ZGSZ 041900Z 04003MPS CAVOK 26/23 Q1008 NOSIG
ZGSZ,2003-09-04 20:00,ZGSZ 042000Z 07006MPS CAVOK 26/22 Q1008 NOSIG
ZGSZ,2003-09-04 21:00,ZGSZ 042100Z 06005MPS CAVOK 26/22 Q1008 NOSIG
ZGSZ,2003-09-04 22:00,ZGSZ 042200Z 07004MPS 9999 BKN026 26/22 Q1009 NOSIG
ZGSZ,2003-09-04 23:00,ZGSZ 042300Z 07005MPS 9999 SCT026 SCT100 27/22 Q1008 NOSIG
ZGSZ,2003-09-05 00:00,ZGSZ 050000Z 06005MPS CAVOK 28/22 Q1009 NOSIG
ZGSZ,2003-09-05 01:00,ZGSZ 050100Z 06003MPS 9999 BKN023 29/23 Q1009 NOSIG
ZGSZ,2003-09-05 02:00,ZGSZ 050200Z 09004MPS 9999 BKN023 29/23 Q1009 NOSIG
ZGSZ,2003-09-05 03:00,ZGSZ 050300Z 09007MPS 9999 BKN023 FEW026TCU 31/22 Q1009 NOSIG
ZGSZ,2003-09-05 04:00,ZGSZ 050400Z 09005MPS 9999 SCT023 FEW030TCU 31/23 Q1009 NOSIG
ZGSZ,2003-09-05 05:00,ZGSZ 050500Z 08005MPS 9999 SCT023 FEW030TCU 31/23 Q1008 NOSIG
ZGSZ,2003-09-05 06:00,ZGSZ 050600Z 08006MPS 9999 SCT023 FEW030TCU 31/22 Q1007 NOSIG
ZGSZ,2003-09-05 07:00,ZGSZ 050700Z 11006MPS 9999 SCT023 FEW030TCU 32/23 Q1007 NOSIG
ZGSZ,2003-09-05 08:00,ZGSZ 050800Z 11006MPS 9999 SCT023 FEW030TCU 31/23 Q1006 NOSIG
ZGSZ,2003-09-05 09:00,ZGSZ 050900Z 11005MPS 9999 FEW026TCU SCT280 31/22 Q1007 NOSIG
ZGSZ,2003-09-05 10:00,ZGSZ 051000Z 13005MPS 9999 FEW021 SCT053 30/22 Q1007 NOSIG
ZGSZ,2003-09-05 11:00,ZGSZ 051100Z 09005MPS 9999 FEW021 SCT053 29/22 Q1008 NOSIG
ZGSZ,2003-09-05 12:00,ZGSZ 051200Z 10004MPS 9999 BKN023 29/23 Q1008 NOSIG
ZGSZ,2003-09-05 13:00,ZGSZ 051300Z 13003MPS 7000 NSC 28/24 Q1009 NOSIG
ZGSZ,2003-09-05 14:00,ZGSZ 051400Z 05002MPS 6000 NSC 28/23 Q1009 NOSIG
ZGSZ,2003-09-05 15:00,ZGSZ 051500Z 06001MPS 6000 NSC 28/23 Q1009 NOSIG
ZGSZ,2003-09-05 16:00,ZGSZ 051600Z 06002MPS 6000 NSC 28/23 Q1009 NOSIG
ZGSZ,2003-09-05 17:00,ZGSZ 051700Z 01002MPS 5000 NSC 27/23 Q1009 NOSIG
ZGSZ,2003-09-05 18:00,ZGSZ 051800Z 04001MPS 4000 BR NSC 26/23 Q1008 NOSIG
ZGSZ,2003-09-05 19:00,ZGSZ 051900Z 36001MPS 4000 BR NSC 26/23 Q1007 NOSIG
ZGSZ,2003-09-05 20:00,ZGSZ 052000Z 36002MPS 4000 BR NSC 26/23 Q1007 NOSIG
ZGSZ,2003-09-05 21:00,ZGSZ 052100Z 01002MPS 7000 NSC 26/23 Q1007 NOSIG
ZGSZ,2003-09-05 22:00,ZGSZ 052200Z 03002MPS 6000 NSC 26/23 Q1007 NOSIG
ZGSZ,2003-09-05 23:00,ZGSZ 052300Z 02002MPS 5000 BR SCT019 SCT120 26/23 Q1008 NOSIG
ZGSZ,2003-09-06 00:00,ZGSZ 060000Z 01003MPS 4800 BR NSC 26/23 Q1008 NOSIG
ZGSZ,2003-09-06 01:00,ZGSZ 060100Z 06003MPS CAVOK 27/23 Q1008 NOSIG
ZGSZ,2003-09-06 02:00,ZGSZ 060200Z 05003MPS CAVOK 28/23 Q1008 NOSIG
ZGSZ,2003-09-06 03:00,ZGSZ 060300Z 05004MPS 9999 SCT020 OVC060 29/22 Q1008 NOSIG
ZGSZ,2003-09-06 04:00,ZGSZ 060400Z 04004MPS 9999 FEW020 OVC060 30/23 Q1007 NOSIG
ZGSZ,2003-09-06 05:00,ZGSZ 060500Z 09004MPS 9999 FEW020 OVC050 30/23 Q1007 NOSIG
ZGSZ,2003-09-06 06:00,ZGSZ 060600Z 09004MPS 8000 -RA SCT013 OVC040 28/23 Q1007 NOSIG
ZGSZ,2003-09-06 07:00,ZGSZ 060700Z 09006MPS 9999 -RA SCT015 OVC040 27/22 Q1006 NOSIG
ZGSZ,2003-09-06 08:00,ZGSZ 060800Z 09006MPS 9999 SCT016 OVC040 28/22 Q1006 NOSIG
ZGSZ,2003-09-06 09:00,ZGSZ 060900Z 08004MPS 9999 -RA FEW014 OVC040 28/22 Q1006 NOSIG
ZGSZ,2003-09-06 10:00,ZGSZ 061000Z 09006MPS 9999 FEW016 BKN046 27/22 Q1006 NOSIG
ZGSZ,2003-09-06 11:00,ZGSZ 061100Z 08005MPS 7000 -SHRA FEW012 FEW026CB BKN040 27/22 Q1006 TEMPO 10008MPS 1500 SHRA SCT015 FEW025CB BKN040
ZGSZ,2003-09-06 12:00,ZGSZ 061200Z 08004MPS 9999 BKN046 27/22 Q1006 NOSIG
ZGSZ,2003-09-06 13:00,ZGSZ 061300Z 09004MPS CAVOK 27/22 Q1007 NOSIG
ZGSZ,2003-09-06 15:00,ZGSZ 061500Z 08004MPS 9999 FEW015 SCT070 27/22 Q1007 NOSIG
ZGSZ,2003-09-06 16:00,ZGSZ 061600Z 05002MPS 9999 FEW015 BKN060 26/22 Q1007 NOSIG
ZGSZ,2003-09-06 17:00,ZGSZ 061700Z 05003MPS CAVOK 26/22 Q1007 NOSIG
ZGSZ,2003-09-06 18:00,ZGSZ 061800Z 04005MPS 9999 FEW016 SCT070 26/23 Q1006 NOSIG
ZGSZ,2003-09-06 19:00,ZGSZ 061900Z 05005MPS 9999 SCT015 26/22 Q1006 NOSIG
ZGSZ,2003-09-06 20:00,ZGSZ 062000Z 05004MPS 9999 SCT015 26/22 Q1005 NOSIG
ZGSZ,2003-09-06 21:00,ZGSZ 062100Z 05002MPS 9999 SCT015 25/23 Q1006 NOSIG
ZGSZ,2003-09-06 22:00,ZGSZ 062200Z 09004MPS 9999 -RA SCT014 BKN050 26/23 Q1006 NOSIG
ZGSZ,2003-09-06 23:00,ZGSZ 062300Z 06004MPS 9999 FEW015 SCT050 26/22 Q1006 NOSIG
ZGSZ,2003-09-07 00:00,ZGSZ 070000Z 05002MPS 9999 FEW017 BKN060 27/23 Q1007 NOSIG
ZGSZ,2003-09-07 01:00,ZGSZ 070100Z 09006G11MPS 9999 -RA FEW016 FEW033CB BKN060 27/23 Q1007 NOSIG
ZGSZ,2003-09-07 02:00,ZGSZ 070200Z 09005MPS 9999 FEW023 BKN130 28/23 Q1007 NOSIG
ZGSZ,2003-09-07 03:00,ZGSZ 070300Z 09007MPS 9999 FEW021 BKN150 30/23 Q1007 NOSIG
ZGSZ,2003-09-07 04:00,ZGSZ 070400Z 09008MPS 9999 BKN020 SCT150 31/22 Q1006 NOSIG
ZGSZ,2003-09-07 05:00,ZGSZ 070500Z 09007G12MPS 9999 BKN020 31/23 Q1006 NOSIG
ZGSZ,2003-09-07 06:00,ZGSZ 070600Z 10008MPS 9999 SCT020 FEW020TCU BKN160 31/23 Q1005 NOSIG
ZGSZ,2003-09-07 07:00,ZGSZ 070700Z 10007MPS 9999 SCT020 FEW020TCU SCT160 30/22 Q1004 NOSIG
ZGSZ,2003-09-07 08:00,ZGSZ 070800Z 09006MPS 9999 FEW020 FEW026TCU BKN060 30/23 Q1004 NOSIG
ZGSZ,2003-09-07 09:00,ZGSZ 070900Z 09007MPS 9999 SCT020 FEW026TCU BKN060 30/22 Q1004 NOSIG
ZGSZ,2003-09-07 10:00,ZGSZ 071000Z 09007MPS 9999 -SHRA SCT018 FEW026TCU BKN060 28/22 Q1004 NOSIG
ZGSZ,2003-09-07 11:00,ZGSZ 071100Z 12004MPS 9999 BKN023 BKN060 28/23 Q1005 NOSIG
ZGSZ,2003-09-07 12:00,ZGSZ 071200Z 10004MPS 9999 FEW020 BKN060 26/23 Q1006 NOSIG
ZGSZ,2003-09-07 13:00,ZGSZ 071300Z 06004MPS 9999 FEW023 BKN060 26/23 Q1007 NOSIG
ZGSZ,2003-09-07 14:00,ZGSZ 071400Z 08004MPS 9999 FEW020 SCT026 BKN053 26/23 Q1007 NOSIG
ZGSZ,2003-09-07 15:00,ZGSZ 071500Z 09003MPS 9999 SCT021 BKN053 26/23 Q1008 NOSIG
ZGSZ,2003-09-07 16:00,ZGSZ 071600Z 11001MPS 9999 -SHRA FEW021 FEW026TCU OVC053 26/23 Q1008 NOSIG
ZGSZ,2003-09-07 17:00,ZGSZ 071700Z 16001MPS 9999 -RA FEW021 OVC046 26/23 Q1007 NOSIG
ZGSZ,2003-09-07 18:00,ZGSZ 071800Z 08002MPS 9999 BKN046 26/23 Q1007 NOSIG
ZGSZ,2003-09-07 19:00,ZGSZ 071900Z 07002MPS CAVOK 26/23 Q1006 NOSIG
ZGSZ,2003-09-07 20:00,ZGSZ 072000Z 07003MPS CAVOK 26/23 Q1006 NOSIG
ZGSZ,2003-09-07 21:00,ZGSZ 072100Z 07003MPS CAVOK 26/23 Q1006 NOSIG
ZGSZ,2003-09-07 22:00,ZGSZ 072200Z 08003MPS 9999 SCT023 SCT060 26/23 Q1006 NOSIG
ZGSZ,2003-09-07 23:00,ZGSZ 072300Z 06002MPS 9999 FEW020 SCT260 26/23 Q1006 NOSIG
ZGSZ,2003-09-08 00:00,ZGSZ 080000Z 08002MPS 9999 FEW020 SCT260 28/23 Q1006 NOSIG
ZGSZ,2003-09-08 01:00,ZGSZ 080100Z 09005MPS 9999 SCT020 29/24 Q1007 NOSIG
ZGSZ,2003-09-08 02:00,ZGSZ 080200Z 10006MPS 9999 SCT022 30/23 Q1008 NOSIG
ZGSZ,2003-09-08 03:00,ZGSZ 080300Z 09006MPS 9999 BKN022 31/23 Q1008 NOSIG
ZGSZ,2003-09-08 04:00,ZGSZ 080400Z 11004MPS 9999 SCT020 SCT050 31/23 Q1007 NOSIG
ZGSZ,2003-09-08 05:00,ZGSZ 080500Z 12004MPS 9999 SCT020 FEW030TCU BKN043 28/24 Q1007 NOSIG
ZGSZ,2003-09-08 06:00,ZGSZ 080600Z 10004MPS 9999 SCT020 SCT050 31/24 Q1007 NOSIG
ZGSZ,2003-09-08 07:00,ZGSZ 080700Z 10005MPS 9999 SCT020 SCT060 31/23 Q1006 NOSIG
ZGSZ,2003-09-08 08:00,ZGSZ 080800Z 09005MPS 9999 FEW022 BKN260 31/23 Q1005 NOSIG
ZGSZ,2003-09-08 09:00,ZGSZ 080900Z 09006MPS 9999 SCT020 BKN250 30/22 Q1005 NOSIG
ZGSZ,2003-09-08 10:00,ZGSZ 081000Z 09006MPS 9999 SCT023 BKN260 29/22 Q1006 NOSIG
ZGSZ,2003-09-08 11:00,ZGSZ 081100Z 09004MPS 9999 FEW026 SCT260 28/23 Q1007 NOSIG
ZGSZ,2003-09-08 12:00,ZGSZ 081200Z 09003MPS CAVOK 28/23 Q1007 NOSIG
ZGSZ,2003-09-08 13:00,ZGSZ 081300Z 13002MPS CAVOK 27/23 Q1008 NOSIG
ZGSZ,2003-09-08 14:00,ZGSZ 081400Z 11003MPS CAVOK 27/23 Q1009 NOSIG
ZGSZ,2003-09-08 15:00,ZGSZ 081500Z 09003MPS CAVOK 27/23 Q1009 NOSIG
ZGSZ,2003-09-08 16:00,ZGSZ 081600Z 36002MPS CAVOK 26/23 Q1009 NOSIG
ZGSZ,2003-09-08 17:00,ZGSZ 081700Z 36002MPS 6000 BKN023 26/23 Q1008 NOSIG
ZGSZ,2003-09-08 18:00,ZGSZ 081800Z 04003MPS 6000 BKN023 26/23 Q1008 NOSIG
ZGSZ,2003-09-08 19:00,ZGSZ 081900Z 02002MPS 6000 FEW023 SCT100 26/23 Q1007 NOSIG
ZGSZ,2003-09-08 20:00,ZGSZ 082000Z 02002MPS 6000 NSC 26/23 Q1007 NOSIG
ZGSZ,2003-09-08 21:00,ZGSZ 082100Z 36003MPS 6000 NSC 26/23 Q1007 NOSIG
ZGSZ,2003-09-08 22:00,ZGSZ 082200Z 03003MPS 8000 NSC 25/23 Q1007 NOSIG
ZGSZ,2003-09-08 23:00,ZGSZ 082300Z 03004MPS 9000 SKC 26/23 Q1008 NOSIG
ZGSZ,2003-09-09 00:00,ZGSZ 090000Z 02004MPS CAVOK 27/23 Q1008 NOSIG
ZGSZ,2003-09-09 01:00,ZGSZ 090100Z 03003MPS 9999 SCT020 29/23 Q1009 NOSIG
ZGSZ,2003-09-09 02:00,ZGSZ 090200Z 04001MPS 9999 BKN026 30/23 Q1009 NOSIG
ZGSZ,2003-09-09 03:00,ZGSZ 090300Z 04002MPS 9999 SCT026 31/23 Q1009 NOSIG
ZGSZ,2003-09-09 04:00,ZGSZ 090400Z 09003MPS 9999 BKN020 32/23 Q1008 NOSIG
ZGSZ,2003-09-09 05:00,ZGSZ 090500Z 24003MPS 9999 SCT026 31/24 Q1008 NOSIG
ZGSZ,2003-09-09 06:00,ZGSZ 090600Z 21004MPS 9999 SCT030 31/24 Q1007 NOSIG
ZGSZ,2003-09-09 07:00,ZGSZ 090700Z 21003MPS 9999 FEW026 31/24 Q1006 NOSIG
ZGSZ,2003-09-09 08:00,ZGSZ 090800Z 21004MPS CAVOK 31/25 Q1006 NOSIG
ZGSZ,2003-09-09 09:00,ZGSZ 090900Z 22003MPS CAVOK 30/24 Q1005 NOSIG
ZGSZ,2003-09-09 10:00,ZGSZ 091000Z 22003MPS CAVOK 29/24 Q1006 NOSIG
ZGSZ,2003-09-09 11:00,ZGSZ 091100Z 22002MPS CAVOK 29/24 Q1006 NOSIG
ZGSZ,2003-09-09 12:00,ZGSZ 091200Z 19003MPS CAVOK 28/25 Q1006 NOSIG
ZGSZ,2003-09-09 13:00,ZGSZ 091300Z 17004MPS CAVOK 29/24 Q1008 NOSIG
ZGSZ,2003-09-09 14:00,ZGSZ 091400Z 18004MPS CAVOK 28/24 Q1008 NOSIG
ZGSZ,2003-09-09 15:00,ZGSZ 091500Z 17004MPS CAVOK 28/24 Q1008 NOSIG
ZGSZ,2003-09-09 16:00,ZGSZ 091600Z 18003MPS CAVOK 27/24 Q1008 NOSIG
ZGSZ,2003-09-09 17:00,ZGSZ 091700Z 18002MPS CAVOK 27/24 Q1007 NOSIG
ZGSZ,2003-09-09 18:00,ZGSZ 091800Z 18001MPS 4000 BR SKC 27/24 Q1007 NOSIG
ZGSZ,2003-09-09 19:00,ZGSZ 091900Z 00000MPS 3000 BR SKC 27/24 Q1006 NOSIG
ZGSZ,2003-09-09 20:00,ZGSZ 092000Z 05001MPS 3000 BR SKC 27/24 Q1006 NOSIG
ZGSZ,2003-09-09 21:00,ZGSZ 092100Z 36001MPS 3000 BR SKC 26/23 Q1006 NOSIG
ZGSZ,2003-09-09 22:00,ZGSZ 092200Z 02002MPS 3000 BR SKC 26/23 Q1006 NOSIG
ZGSZ,2003-09-09 23:00,ZGSZ 092300Z 04001MPS 2200 BR FEW016 BKN050 26/24 Q1007 NOSIG
ZGSZ,2003-09-10 00:00,ZGSZ 100000Z 31002MPS 3000 BR FEW015 BKN050 28/25 Q1008 NOSIG
ZGSZ,2003-09-10 01:00,ZGSZ 100100Z 30002MPS 4000 BR SCT015 BKN050 28/25 Q1008 NOSIG
ZGSZ,2003-09-10 02:00,ZGSZ 100200Z 27003MPS 6000 SCT019 29/24 Q1008 NOSIG
ZGSZ,2003-09-10 03:00,ZGSZ 100300Z 27003MPS 6000 FEW020 30/24 Q1008 NOSIG
ZGSZ,2003-09-10 04:00,ZGSZ 100400Z 27003MPS 6000 FEW022 31/24 Q1007 NOSIG
ZGSZ,2003-09-10 05:00,ZGSZ 100500Z 25003MPS 5000 HZ SCT023 32/25 Q1006 NOSIG
ZGSZ,2003-09-10 06:00,ZGSZ 100600Z 22003MPS 5000 HZ SCT025 32/26 Q1005 NOSIG
ZGSZ,2003-09-10 07:00,ZGSZ 100700Z 23002MPS 4500 BR FEW026 32/26 Q1004 NOSIG
ZGSZ,2003-09-10 08:00,ZGSZ 100800Z 23002MPS 3000 BR SKC 32/27 Q1004 NOSIG
ZGSZ,2003-09-10 09:00,ZGSZ 100900Z 22002MPS 3000 BR SKC 31/26 Q1004 NOSIG
ZGSZ,2003-09-10 10:00,ZGSZ 101000Z 17004MPS 2800 BR SKC 30/27 Q1004 NOSIG
ZGSZ,2003-09-10 11:00,ZGSZ 101100Z 17004MPS 4000 BR SCT020 29/26 Q1004 NOSIG
ZGSZ,2003-09-10 12:00,ZGSZ 101200Z 17002MPS 4000 BR BKN026 29/26 Q1005 NOSIG
ZGSZ,2003-09-10 13:00,ZGSZ 101300Z 14002MPS 5000 BR SCT030 SCT100 29/25 Q1006 NOSIG
ZGSZ,2003-09-10 14:00,ZGSZ 101400Z 16003MPS 4000 BR BKN026 29/25 Q1007 NOSIG
ZGSZ,2003-09-10 15:00,ZGSZ 101500Z 09003MPS 4000 BR BKN026 28/23 Q1007 NOSIG
ZGSZ,2003-09-10 16:00,ZGSZ 101600Z 32001MPS 5000 BR NSC 28/23 Q1006 NOSIG
ZGSZ,2003-09-10 17:00,ZGSZ 101700Z 03001MPS 5000 BR NSC 28/22 Q1006 NOSIG
ZGSZ,2003-09-10 18:00,ZGSZ 101800Z 02002MPS 5000 BR NSC 27/22 Q1005 NOSIG
ZGSZ,2003-09-10 19:00,ZGSZ 101900Z 04002MPS 5000 BR NSC 27/23 Q1005 NOSIG
ZGSZ,2003-09-10 20:00,ZGSZ 102000Z 04002MPS 5000 BR NSC 27/23 Q1005 NOSIG
ZGSZ,2003-09-10 21:00,ZGSZ 102100Z 02002MPS 6000 NSC 27/22 Q1005 NOSIG
ZGSZ,2003-09-10 22:00,ZGSZ 102200Z 04002MPS 6000 SKC 26/22 Q1005 NOSIG
ZGSZ,2003-09-10 23:00,ZGSZ 102300Z 36003MPS CAVOK 26/22 Q1006 NOSIG
ZGSZ,2003-09-11 00:00,ZGSZ 110000Z 36004MPS CAVOK 27/21 Q1007 NOSIG
ZGSZ,2003-09-11 01:00,ZGSZ 110100Z 03004MPS CAVOK 28/21 Q1007 NOSIG
ZGSZ,2003-09-11 02:00,ZGSZ 110200Z 03004MPS CAVOK 30/21 Q1007 NOSIG
ZGSZ,2003-09-11 03:00,ZGSZ 110300Z 03004MPS CAVOK 30/21 Q1007 NOSIG
ZGSZ,2003-09-11 04:00,ZGSZ 110400Z 35004MPS CAVOK 31/21 Q1007 NOSIG
ZGSZ,2003-09-11 05:00,ZGSZ 110500Z 01004MPS CAVOK 32/21 Q1006 NOSIG
ZGSZ,2003-09-11 06:00,ZGSZ 110600Z 36004MPS CAVOK 33/20 Q1005 NOSIG
ZGSZ,2003-09-11 07:00,ZGSZ 110700Z 28004MPS CAVOK 32/23 Q1004 NOSIG
ZGSZ,2003-09-11 08:00,ZGSZ 110800Z 29004MPS CAVOK 32/23 Q1004 NOSIG
ZGSZ,2003-09-11 09:00,ZGSZ 110900Z 31004MPS 9999 SCT023 32/21 Q1003 NOSIG
ZGSZ,2003-09-11 10:00,ZGSZ 111000Z 04002MPS 9999 BKN020 32/21 Q1004 NOSIG
ZGSZ,2003-09-11 11:00,ZGSZ 111100Z 35003MPS 7000 FEW020 31/20 Q1004 NOSIG
ZGSZ,2003-09-11 12:00,ZGSZ 111200Z 35003MPS 6000 NSC 30/20 Q1005 NOSIG
ZGSZ,2003-09-11 13:00,ZGSZ 111300Z 35002MPS 6000 SKC 30/21 Q1006 NOSIG
ZGSZ,2003-09-11 14:00,ZGSZ 111400Z 02002MPS 6000 SKC 29/21 Q1006 NOSIG
ZGSZ,2003-09-11 15:00,ZGSZ 111500Z 01003MPS 5000 HZ SKC 28/21 Q1006 NOSIG
ZGSZ,2003-09-11 16:00,ZGSZ 111600Z 03004MPS 6000 SKC 28/21 Q1006 NOSIG
ZGSZ,2003-09-11 17:00,ZGSZ 111700Z 04004MPS 7000 SKC 27/20 Q1006 NOSIG
ZGSZ,2003-09-11 18:00,ZGSZ 111800Z 08001MPS 6000 FEW018 27/20 Q1006 NOSIG
ZGSZ,2003-09-11 19:00,ZGSZ 111900Z 00000MPS 6000 FEW017 27/21 Q1006 NOSIG
ZGSZ,2003-09-11 20:00,ZGSZ 112000Z 36003MPS 6000 FEW017 26/19 Q1006 NOSIG
ZGSZ,2003-09-11 21:00,ZGSZ 112100Z 00000MPS 6000 FEW017 25/19 Q1006 NOSIG
ZGSZ,2003-09-11 22:00,ZGSZ 112200Z 35001MPS 7000 SCT017 BKN060 26/19 Q1006 NOSIG
ZGSZ,2003-09-11 23:00,ZGSZ 112300Z 03002MPS 6000 FEW018 26/20 Q1007 NOSIG
ZGSZ,2003-09-12 00:00,ZGSZ 120000Z 03002MPS 7000 SCT019 27/19 Q1008 NOSIG
ZGSZ,2003-09-12 01:00,ZGSZ 120100Z 01003MPS 7000 FEW019 29/19 Q1008 NOSIG
ZGSZ,2003-09-12 02:00,ZGSZ 120200Z 01004MPS 8000 SKC 30/18 Q1008 NOSIG
ZGSZ,2003-09-12 03:00,ZGSZ 120300Z 04003MPS 8000 SKC 32/19 Q1008 NOSIG
ZGSZ,2003-09-12 04:00,ZGSZ 120400Z 05001MPS 8000 SKC 32/19 Q1008 NOSIG
ZGSZ,2003-09-12 05:00,ZGSZ 120500Z 28004MPS 8000 SKC 32/20 Q1007 NOSIG
ZGSZ,2003-09-12 06:00,ZGSZ 120600Z 27004MPS 8000 SKC 32/22 Q1006 NOSIG
ZGSZ,2003-09-12 07:00,ZGSZ 120700Z 27005MPS 8000 SKC 32/22 Q1006 NOSIG
ZGSZ,2003-09-12 08:00,ZGSZ 120800Z 27004MPS 8000 SKC 32/21 Q1005 NOSIG
ZGSZ,2003-09-12 09:00,ZGSZ 120900Z 27004MPS CAVOK 32/21 Q1005 NOSIG
ZGSZ,2003-09-12 10:00,ZGSZ 121000Z 36004MPS CAVOK 32/19 Q1005 NOSIG
ZGSZ,2003-09-12 11:00,ZGSZ 121100Z 04003MPS CAVOK 30/19 Q1006 NOSIG
ZGSZ,2003-09-12 12:00,ZGSZ 121200Z 12002MPS 6000 SKC 29/22 Q1007 NOSIG
ZGSZ,2003-09-12 13:00,ZGSZ 121300Z 15002MPS 5000 BR SKC 28/23 Q1008 NOSIG
ZGSZ,2003-09-12 14:00,ZGSZ 121400Z 14001MPS 4000 BR SKC 28/24 Q1008 NOSIG
ZGSZ,2003-09-12 15:00,ZGSZ 121500Z 09001MPS 4000 BR SKC 28/23 Q1008 NOSIG
ZGSZ,2003-09-12 16:00,ZGSZ 121600Z 09003MPS 5000 HZ SKC 28/22 Q1008 NOSIG
ZGSZ,2003-09-12 17:00,ZGSZ 121700Z 11003MPS 5000 HZ SKC 28/22 Q1008 NOSIG
ZGSZ,2003-09-12 18:00,ZGSZ 121800Z AUTO 11004KT 4SM 28/24 RMK SLP087 T02760242 57007 IEM_DS3505
ZGSZ,2003-09-12 21:00,ZGSZ 122100Z 01001MPS CAVOK 26/22 Q1008 NOSIG
ZGSZ,2003-09-12 22:00,ZGSZ 122200Z 03002MPS 5000 BR SKC 26/22 Q1008 NOSIG
ZGSZ,2003-09-12 23:00,ZGSZ 122300Z 05002MPS 4500 BR SKC 26/23 Q1008 NOSIG
ZGSZ,2003-09-13 00:00,ZGSZ 130000Z 04002MPS 4500 BR SKC 28/23 Q1009 NOSIG
ZGSZ,2003-09-13 01:00,ZGSZ 130100Z 36003MPS 5000 BR FEW020 29/24 Q1009 NOSIG
ZGSZ,2003-09-13 02:00,ZGSZ 130200Z 05002MPS 5000 HZ FEW020 BKN110 31/24 Q1009 NOSIG
ZGSZ,2003-09-13 03:00,ZGSZ 130300Z 06003MPS 6000 SCT020 31/23 Q1009 NOSIG
ZGSZ,2003-09-13 04:00,ZGSZ 130400Z 23003MPS 9999 SCT020 31/24 Q1009 NOSIG
ZGSZ,2003-09-13 05:00,ZGSZ 130500Z 22003MPS 9999 BKN020 32/25 Q1008 NOSIG
ZGSZ,2003-09-13 06:00,ZGSZ 130600Z 20004MPS 9999 BKN023 32/24 Q1008 NOSIG
ZGSZ,2003-09-13 07:00,ZGSZ 130700Z 18004MPS 9999 SCT023 32/24 Q1007 NOSIG
ZGSZ,2003-09-13 08:00,ZGSZ 130800Z 18004MPS 9999 FEW026 32/24 Q1007 NOSIG
ZGSZ,2003-09-13 09:00,ZGSZ 130900Z 20004MPS 9999 FEW023 31/25 Q1006 NOSIG
ZGSZ,2003-09-13 10:00,ZGSZ 131000Z 09004MPS 9999 FEW023 SCT300 32/21 Q1007 NOSIG
ZGSZ,2003-09-13 11:00,ZGSZ 131100Z 11004MPS 9999 FEW022 SCT300 31/22 Q1007 NOSIG
ZGSZ,2003-09-13 12:00,ZGSZ 131200Z 10004MPS CAVOK 30/22 Q1008 NOSIG
ZGSZ,2003-09-13 13:00,ZGSZ 131300Z 10004MPS CAVOK 29/22 Q1009 NOSIG
ZGSZ,2003-09-13 14:00,ZGSZ 131400Z 11003MPS CAVOK 29/23 Q1010 NOSIG
ZGSZ,2003-09-13 15:00,ZGSZ 131500Z 10004MPS CAVOK 28/23 Q1009 NOSIG
ZGSZ,2003-09-13 16:00,ZGSZ 131600Z 09003MPS CAVOK 28/23 Q1009 NOSIG
ZGSZ,2003-09-13 17:00,ZGSZ 131700Z 05001MPS CAVOK 28/23 Q1009 NOSIG
ZGSZ,2003-09-13 18:00,ZGSZ 131800Z 05001MPS CAVOK 27/23 Q1009 NOSIG
ZGSZ,2003-09-13 19:00,ZGSZ 131900Z 07002MPS CAVOK 27/23 Q1008 NOSIG
ZGSZ,2003-09-13 20:00,ZGSZ 132000Z 32002MPS CAVOK 27/23 Q1007 NOSIG
ZGSZ,2003-09-13 21:00,ZGSZ 132100Z 00000MPS CAVOK 27/22 Q1008 NOSIG
ZGSZ,2003-09-13 22:00,ZGSZ 132200Z 00000MPS CAVOK 26/22 Q1008 NOSIG
ZGSZ,2003-09-13 23:00,ZGSZ 132300Z 08004MPS CAVOK 27/22 Q1008 NOSIG
ZGSZ,2003-09-14 00:00,ZGSZ 140000Z 03003MPS CAVOK 28/23 Q1008 NOSIG
ZGSZ,2003-09-14 01:00,ZGSZ 140100Z 04004MPS CAVOK 29/22 Q1009 NOSIG
ZGSZ,2003-09-14 02:00,ZGSZ 140200Z 03003MPS CAVOK 29/22 Q1008 NOSIG
ZGSZ,2003-09-14 03:00,ZGSZ 140300Z 03004MPS 9999 SCT026 BKN050 30/22 Q1008 NOSIG
ZGSZ,2003-09-14 04:00,ZGSZ 140400Z 07006MPS 9999 -SHRA BKN020 FEW040CB BKN050 27/23 Q1008 NOSIG
ZGSZ,2003-09-14 05:00,ZGSZ 140500Z 07004MPS 9999 BKN026 BKN050 28/23 Q1007 NOSIG
ZGSZ,2003-09-14 06:00,ZGSZ 140600Z 09004MPS 9999 FEW010 SCT020 BKN050 27/23 Q1007 NOSIG
ZGSZ,2003-09-14 07:00,ZGSZ 140700Z 07002MPS 9999 BKN020 BKN050 29/24 Q1006 NOSIG
ZGSZ,2003-09-14 08:00,ZGSZ 140800Z 08004MPS 9999 SCT020 BKN060 30/22 Q1005 NOSIG
ZGSZ,2003-09-14 09:00,ZGSZ 140900Z 05006G11MPS 9999 BKN020 FEW020TCU 29/22 Q1005 NOSIG
ZGSZ,2003-09-14 10:00,ZGSZ 141000Z 09007MPS 9999 -SHRA BKN015 FEW020TCU BKN033 25/23 Q1006 NOSIG
ZGSZ,2003-09-14 11:00,ZGSZ 141100Z 07006MPS 2500 SHRA SCT015 SCT020TCU BKN030 25/22 Q1006 NOSIG
ZGSZ,2003-09-14 12:00,ZGSZ 141200Z 06004MPS 9999 SCT016 BKN050 25/22 Q1007 NOSIG
ZGSZ,2003-09-14 13:00,ZGSZ 141300Z 07005MPS 6000 -SHRA BKN015 FEW021TCU SCT050 25/22 Q1007 NOSIG
ZGSZ,2003-09-14 14:00,ZGSZ 141400Z 06004MPS 9999 -SHRA SCT015 FEW021TCU BKN050 25/22 Q1007 NOSIG
ZGSZ,2003-09-14 15:00,ZGSZ 141500Z 07006MPS 5000 SHRA FEW015 FEW026CB BKN040 25/22 Q1008 NOSIG
ZGSZ,2003-09-14 16:00,ZGSZ 141600Z 08006MPS 4000 SHRA SCT011 FEW026CB BKN040 25/22 Q1008 NOSIG
ZGSZ,2003-09-14 17:00,ZGSZ 141700Z 08005MPS 5000 SHRA SCT011 FEW026CB BKN040 25/22 Q1007 NOSIG
ZGSZ,2003-09-14 18:00,ZGSZ 141800Z 08005MPS 9999 -SHRA FEW011 FEW026CB BKN050 25/22 Q1006 RERA NOSIG
ZGSZ,2003-09-14 19:00,ZGSZ 141900Z 09005MPS 9999 FEW021 BKN050 25/22 Q1006 NOSIG
ZGSZ,2003-09-14 20:00,ZGSZ 142000Z 09004MPS CAVOK 25/22 Q1006 NOSIG
ZGSZ,2003-09-14 21:00,ZGSZ 142100Z 08004MPS CAVOK 25/22 Q1006 NOSIG
ZGSZ,2003-09-14 22:00,ZGSZ 142200Z 07002MPS 9999 -SHRA FEW021TCU BKN050 25/22 Q1006 NOSIG
ZGSZ,2003-09-14 23:00,ZGSZ 142300Z 05004MPS 3800 -SHRA SCT013 FEW021TCU BKN026 25/22 Q1006 NOSIG
ZGSZ,2003-09-15 00:00,ZGSZ 150000Z 09005MPS 9999 SCT017 FEW021TCU BKN060 25/22 Q1007 NOSIG
ZGSZ,2003-09-15 01:00,ZGSZ 150100Z 12004MPS 1800 SHRA BKN013 FEW030TCU BKN040 26/23 Q1008 RERA
ZGSZ,2003-09-15 02:00,ZGSZ 150200Z 12003MPS 1400 R15/P1500N SHRA SCT013 FEW030TCU KN040 26/23 Q1008 RERA
ZGSZ,2003-09-15 03:00,ZGSZ 150300Z 17003MPS 3000 SHRA BKN010 FEW030TCU BKN040 24/23 Q1008 NOSIG
ZGSZ,2003-09-15 04:00,ZGSZ 150400Z 12002MPS 9999 SCT016 FEW030TCU BKN040 26/24 Q1008 NOSIG
ZGSZ,2003-09-15 05:00,ZGSZ 150500Z 07002MPS 1400 R15/1400N SHRA BKN010 FEW030TCU KN040 25/23 Q1007 TEMPO VRB07MPS 1500 SHRA BKN010 FEW030CB BKN040
ZGSZ,2003-09-15 06:00,ZGSZ 150600Z 07004MPS 9999 SCT016 BKN040 25/23 Q1007 NOSIG
ZGSZ,2003-09-15 07:00,ZGSZ 150700Z 09004MPS 3000 -SHRA SCT013 FEW030TCU BKN040 25/23 Q1007 TEMPO VRB07MPS 1500 SHRA BKN010 FEW030CB BKN040
ZGSZ,2003-09-15 08:00,ZGSZ 150800Z 09004MPS 2500 -SHRA SCT013 FEW030TCU BKN040 26/23 Q1007 NOSIG
ZGSZ,2003-09-15 09:00,ZGSZ 150900Z 09004MPS 9999 SCT013 BKN040 26/23 Q1006 NOSIG
ZGSZ,2003-09-15 10:00,ZGSZ 151000Z 09003MPS 9999 -RA SCT013 BKN043 26/23 Q1006 NOSIG
ZGSZ,2003-09-15 11:00,ZGSZ 151100Z 08003MPS 9999 SCT016 BKN043 26/23 Q1006 NOSIG
ZGSZ,2003-09-15 12:00,ZGSZ 151200Z 09003MPS 9999 SCT016 BKN043 26/23 Q1007 NOSIG
ZGSZ,2003-09-15 13:00,ZGSZ 151300Z 09003MPS 9999 -RA SCT016 BKN043 26/23 Q1008 NOSIG
ZGSZ,2003-09-15 14:00,ZGSZ 151400Z 10005MPS 9999 -RA SCT016 BKN043 26/23 Q1008 NOSIG
ZGSZ,2003-09-15 15:00,ZGSZ 151500Z 09003MPS 9999 -RA SCT016 BKN043 26/23 Q1009 NOSIG
ZGSZ,2003-09-15 16:00,ZGSZ 151600Z 09004MPS 9999 -RA SCT016 BKN043 25/23 Q1008 NOSIG
ZGSZ,2003-09-15 17:00,ZGSZ 151700Z 09004MPS 9999 FEW016 BKN043 26/22 Q1008 NOSIG
ZGSZ,2003-09-15 18:00,ZGSZ 151800Z 09004MPS 9999 FEW020 BKN046 26/23 Q1008 NOSIG
ZGSZ,2003-09-15 19:00,ZGSZ 151900Z 09004MPS 9999 FEW020 SCT046 26/23 Q1007 NOSIG
ZGSZ,2003-09-15 20:00,ZGSZ 152000Z 09004MPS 9999 FEW020 BKN046 26/23 Q1007 NOSIG
ZGSZ,2003-09-15 21:00,ZGSZ 152100Z 09004MPS 9999 FEW020 BKN046 26/23 Q1007 NOSIG
ZGSZ,2003-09-15 22:00,ZGSZ 152200Z 09004MPS 9999 FEW020 BKN046 27/23 Q1007 NOSIG
ZGSZ,2003-09-15 23:00,ZGSZ 152300Z 09004MPS 9999 FEW020 BKN043 27/23 Q1007 NOSIG
ZGSZ,2003-09-16 00:00,ZGSZ 160000Z 09004MPS 9999 FEW013 SCT020 28/24 Q1008 NOSIG
ZGSZ,2003-09-16 01:00,ZGSZ 160100Z 13006MPS 9999 BKN020 FEW020TCU 28/24 Q1009 NOSIG
ZGSZ,2003-09-16 02:00,ZGSZ 160200Z 13009MPS 9999 -SHRA FEW021 FEW021TCU BKN110 29/23 Q1009 NOSIG
ZGSZ,2003-09-16 03:00,ZGSZ 160300Z 12007MPS 9999 SCT023 FEW023TCU BKN100 30/24 Q1009 NOSIG
ZGSZ,2003-09-16 04:00,ZGSZ 160400Z 13008MPS 9999 BKN020 FEW020TCU SCT120 29/24 Q1009 RERA NOSIG
ZGSZ,2003-09-16 05:00,ZGSZ 160500Z 14007MPS 9999 -SHRA BKN017 FEW020TCU 28/24 Q1009 NOSIG
ZGSZ,2003-09-16 06:00,ZGSZ 160600Z 14005MPS 9999 BKN020 FEW020TCU 28/24 Q1008 NOSIG
ZGSZ,2003-09-16 07:00,ZGSZ 160700Z 14006MPS 9999 SCT020 FEW020TCU SCT120 29/24 Q1008 NOSIG
ZGSZ,2003-09-16 08:00,ZGSZ 160800Z 13005MPS 9999 -SHRA SCT019 FEW021TCU SCT120 29/23 Q1008 NOSIG
ZGSZ,2003-09-16 09:00,ZGSZ 160900Z 15004MPS 2800 -TSRA SCT010 FEW033CB OVC050 26/24 Q1008 NOSIG
ZGSZ,2003-09-16 10:00,ZGSZ 161000Z 13004MPS 8000 -RA SCT015 OVC050 26/24 Q1009 NOSIG
ZGSZ,2003-09-16 11:00,ZGSZ 161100Z 09004MPS 9999 SCT020 OVC050 27/23 Q1009 NOSIG
ZGSZ,2003-09-16 12:00,ZGSZ 161200Z 12003MPS 9999 FEW020 OVC060 26/23 Q1009 NOSIG
ZGSZ,2003-09-16 13:00,ZGSZ 161300Z 12004MPS 9999 FEW020 OVC060 27/23 Q1010 NOSIG
ZGSZ,2003-09-16 14:00,ZGSZ 161400Z 09003MPS 9999 FEW020 OVC060 27/23 Q1010 NOSIG
ZGSZ,2003-09-16 15:00,ZGSZ 161500Z 09004MPS 9999 FEW023 BKN100 27/23 Q1010 NOSIG
ZGSZ,2003-09-16 16:00,ZGSZ 161600Z 10003MPS 9999 FEW023 BKN100 27/23 Q1010 NOSIG
ZGSZ,2003-09-16 17:00,ZGSZ 161700Z 11003MPS 9999 FEW023 BKN100 26/23 Q1010 NOSIG
ZGSZ,2003-09-16 18:00,ZGSZ 161800Z 09002MPS 9999 FEW023 BKN100 26/23 Q1009 NOSIG
ZGSZ,2003-09-16 19:00,ZGSZ 161900Z 10002MPS 9999 FEW023 BKN100 26/23 Q1009 NOSIG
ZGSZ,2003-09-16 20:00,ZGSZ 162000Z 11001MPS 9999 FEW023 BKN100 25/23 Q1009 NOSIG
ZGSZ,2003-09-16 21:00,ZGSZ 162100Z 13001MPS 9999 FEW023 BKN100 25/23 Q1009 NOSIG
ZGSZ,2003-09-16 22:00,ZGSZ 162200Z 13001MPS CAVOK 25/22 Q1009 NOSIG
ZGSZ,2003-09-16 23:00,ZGSZ 162300Z 11002MPS CAVOK 26/24 Q1009 NOSIG
ZGSZ,2003-09-17 00:00,ZGSZ 170000Z 11002MPS 9999 FEW026 BKN130 28/24 Q1010 NOSIG
ZGSZ,2003-09-17 01:00,ZGSZ 170100Z 10002MPS 9999 FEW022 SCT130 28/24 Q1011 NOSIG
ZGSZ,2003-09-17 02:00,ZGSZ 170200Z 18002MPS 9999 SCT022 BKN230 29/25 Q1011 NOSIG
ZGSZ,2003-09-17 03:00,ZGSZ 170300Z 18003MPS 9999 SCT023 BKN230 30/25 Q1011 NOSIG
ZGSZ,2003-09-17 04:00,ZGSZ 170400Z 18004MPS 9999 SCT025 SCT260 31/24 Q1011 NOSIG
ZGSZ,2003-09-17 05:00,ZGSZ 170500Z 18006MPS 9999 SCT026 FEW026TCU SCT260 31/25 Q1010 NOSIG
ZGSZ,2003-09-17 06:00,ZGSZ 170600Z 18005MPS 9999 SCT028 SCT260 31/25 Q1009 NOSIG
ZGSZ,2003-09-17 07:00,ZGSZ 170700Z 18005MPS 9999 FEW030 SCT260 31/25 Q1009 NOSIG
ZGSZ,2003-09-17 08:00,ZGSZ 170800Z 17005MPS CAVOK 32/22 Q1009 NOSIG
ZGSZ,2003-09-17 09:00,ZGSZ 170900Z 18005MPS CAVOK 30/23 Q1009 NOSIG
ZGSZ,2003-09-17 10:00,ZGSZ 171000Z 18005MPS CAVOK 29/24 Q1009 NOSIG
ZGSZ,2003-09-17 11:00,ZGSZ 171100Z 18003MPS CAVOK 29/23 Q1009 NOSIG
ZGSZ,2003-09-17 12:00,ZGSZ 171200Z 14003MPS CAVOK 28/23 Q1009 NOSIG
ZGSZ,2003-09-17 13:00,ZGSZ 171300Z 11002MPS CAVOK 28/22 Q1010 NOSIG
ZGSZ,2003-09-17 14:00,ZGSZ 171400Z 08002MPS CAVOK 28/22 Q1010 NOSIG
ZGSZ,2003-09-17 15:00,ZGSZ 171500Z 12002MPS CAVOK 27/22 Q1010 NOSIG
ZGSZ,2003-09-17 16:00,ZGSZ 171600Z 10002MPS CAVOK 27/22 Q1010 NOSIG
ZGSZ,2003-09-17 17:00,ZGSZ 171700Z 00000MPS CAVOK 26/22 Q1010 NOSIG
ZGSZ,2003-09-17 18:00,ZGSZ 171800Z 07001MPS CAVOK 26/23 Q1010 NOSIG
ZGSZ,2003-09-17 19:00,ZGSZ 171900Z 04002MPS CAVOK 26/23 Q1009 NOSIG
ZGSZ,2003-09-17 20:00,ZGSZ 172000Z 36002MPS CAVOK 26/23 Q1010 NOSIG
ZGSZ,2003-09-17 21:00,ZGSZ 172100Z 36001MPS CAVOK 26/23 Q1010 NOSIG
ZGSZ,2003-09-17 22:00,ZGSZ 172200Z 36001MPS CAVOK 26/23 Q1010 NOSIG
ZGSZ,2003-09-17 23:00,ZGSZ 172300Z 36002MPS CAVOK 26/23 Q1010 NOSIG
ZGSZ,2003-09-18 00:00,ZGSZ 180000Z 03002MPS CAVOK 28/23 Q1010 NOSIG
ZGSZ,2003-09-18 01:00,ZGSZ 180100Z 34003MPS 5000 BR FEW023 BKN250 29/23 Q1011 NOSIG
ZGSZ,2003-09-18 02:00,ZGSZ 180200Z 30003MPS 9999 FEW023 BKN250 30/24 Q1011 NOSIG
ZGSZ,2003-09-18 03:00,ZGSZ 180300Z 27004MPS 9999 FEW023 BKN250 30/24 Q1011 NOSIG
ZGSZ,2003-09-18 04:00,ZGSZ 180400Z 27003MPS 9999 FEW023 BKN250 31/24 Q1010 NOSIG
ZGSZ,2003-09-18 05:00,ZGSZ 180500Z 27003MPS 9999 FEW023 BKN250 31/24 Q1009 NOSIG
ZGSZ,2003-09-18 06:00,ZGSZ 180600Z 27003MPS 9999 FEW023 BKN260 32/23 Q1008 NOSIG
ZGSZ,2003-09-18 07:00,ZGSZ 180700Z 26003MPS CAVOK 32/23 Q1007 NOSIG
ZGSZ,2003-09-18 08:00,ZGSZ 180800Z 26002MPS CAVOK 32/22 Q1007 NOSIG
ZGSZ,2003-09-18 09:00,ZGSZ 180900Z 24002MPS CAVOK 32/23 Q1006 NOSIG
ZGSZ,2003-09-18 10:00,ZGSZ 181000Z 22002MPS CAVOK 30/23 Q1006 NOSIG
ZGSZ,2003-09-18 11:00,ZGSZ 181100Z 19002MPS CAVOK 29/24 Q1006 NOSIG
ZGSZ,2003-09-18 12:00,ZGSZ 181200Z 22003MPS CAVOK 29/25 Q1007 NOSIG
ZGSZ,2003-09-18 13:00,ZGSZ 181300Z 20004MPS CAVOK 29/25 Q1007 NOSIG
ZGSZ,2003-09-18 14:00,ZGSZ 181400Z 20004MPS CAVOK 29/25 Q1008 NOSIG
ZGSZ,2003-09-18 15:00,ZGSZ 181500Z 21002MPS CAVOK 28/25 Q1008 NOSIG
ZGSZ,2003-09-18 16:00,ZGSZ 181600Z 22001MPS CAVOK 28/25 Q1007 NOSIG
ZGSZ,2003-09-18 17:00,ZGSZ 181700Z 23001MPS CAVOK 28/24 Q1007 NOSIG
ZGSZ,2003-09-18 18:00,ZGSZ 181800Z 31002MPS 6000 SKC 27/24 Q1007 NOSIG
ZGSZ,2003-09-18 19:00,ZGSZ 181900Z 27002MPS 6000 SKC 27/24 Q1007 NOSIG
ZGSZ,2003-09-18 20:00,ZGSZ 182000Z 28003MPS 6000 SKC 27/24 Q1007 NOSIG
ZGSZ,2003-09-18 21:00,ZGSZ 182100Z 27002MPS 4500 BR FEW018 27/24 Q1007 NOSIG
ZGSZ,2003-09-18 22:00,ZGSZ 182200Z 27003MPS 4500 BR FEW018 27/24 Q1007 NOSIG
ZGSZ,2003-09-18 23:00,ZGSZ 182300Z 27004MPS 6000 SCT018 SCT260 27/24 Q1007 NOSIG
ZGSZ,2003-09-19 00:00,ZGSZ 190000Z 30003MPS 9999 FEW018 SCT260 27/24 Q1008 NOSIG
ZGSZ,2003-09-19 01:00,ZGSZ 190100Z 29003MPS 9999 SCT021 28/24 Q1009 NOSIG
ZGSZ,2003-09-19 02:00,ZGSZ 190200Z 30002MPS 9999 FEW023 29/25 Q1008 NOSIG
ZGSZ,2003-09-19 03:00,ZGSZ 190300Z 31002MPS 7000 FEW023 30/25 Q1008 NOSIG
ZGSZ,2003-09-19 04:00,ZGSZ 190400Z 26002MPS 6000 SKC 31/25 Q1008 NOSIG
ZGSZ,2003-09-19 05:00,ZGSZ 190500Z 26002MPS 6000 SKC 32/25 Q1007 NOSIG
ZGSZ,2003-09-19 06:00,ZGSZ 190600Z 24003MPS 8000 SKC 33/25 Q1007 NOSIG
ZGSZ,2003-09-19 07:00,ZGSZ 190700Z 23002MPS 8000 SKC 33/25 Q1006 NOSIG
ZGSZ,2003-09-19 08:00,ZGSZ 190800Z 18005MPS 9999 FEW026 32/26 Q1005 NOSIG
ZGSZ,2003-09-19 09:00,ZGSZ 190900Z 18005MPS CAVOK 31/26 Q1005 NOSIG
ZGSZ,2003-09-19 10:00,ZGSZ 191000Z 18005MPS CAVOK 30/26 Q1006 NOSIG
ZGSZ,2003-09-19 11:00,ZGSZ 191100Z 18004MPS CAVOK 30/26 Q1006 NOSIG
ZGSZ,2003-09-19 12:00,ZGSZ 191200Z 18003MPS CAVOK 30/26 Q1007 NOSIG
ZGSZ,2003-09-19 13:00,ZGSZ 191300Z 18003MPS CAVOK 30/26 Q1007 NOSIG
ZGSZ,2003-09-19 14:00,ZGSZ 191400Z 17003MPS CAVOK 29/26 Q1008 NOSIG
ZGSZ,2003-09-19 15:00,ZGSZ 191500Z 18003MPS CAVOK 29/25 Q1008 NOSIG
ZGSZ,2003-09-19 16:00,ZGSZ 191600Z 18003MPS CAVOK 29/25 Q1007 NOSIG
ZGSZ,2003-09-19 17:00,ZGSZ 191700Z 15002MPS CAVOK 28/25 Q1008 NOSIG
ZGSZ,2003-09-19 18:00,ZGSZ 191800Z 18002MPS CAVOK 28/25 Q1007 NOSIG
ZGSZ,2003-09-19 19:00,ZGSZ 191900Z 18002MPS CAVOK 28/25 Q1007 NOSIG
ZGSZ,2003-09-19 20:00,ZGSZ 192000Z 18002MPS CAVOK 28/25 Q1007 NOSIG
ZGSZ,2003-09-19 21:00,ZGSZ 192100Z 18001MPS CAVOK 28/25 Q1007 NOSIG
ZGSZ,2003-09-19 22:00,ZGSZ 192200Z 18002MPS CAVOK 28/25 Q1007 NOSIG
ZGSZ,2003-09-19 23:00,ZGSZ 192300Z 21003MPS CAVOK 28/25 Q1008 NOSIG
ZGSZ,2003-09-20 00:00,ZGSZ 200000Z 32002MPS CAVOK 29/25 Q1008 NOSIG
ZGSZ,2003-09-20 01:00,ZGSZ 200100Z 27002MPS CAVOK 30/25 Q1009 NOSIG
ZGSZ,2003-09-20 02:00,ZGSZ 200200Z 26002MPS 6000 SKC 30/26 Q1009 NOSIG
ZGSZ,2003-09-20 03:00,ZGSZ 200300Z 26002MPS 6000 SKC 31/25 Q1009 NOSIG
ZGSZ,2003-09-20 04:00,ZGSZ 200400Z 25002MPS 6000 FEW020 32/26 Q1009 NOSIG
ZGSZ,2003-09-20 05:00,ZGSZ 200500Z 23002MPS 7000 FEW020 SCT120 33/26 Q1007 NOSIG
ZGSZ,2003-09-20 06:00,ZGSZ 200600Z 20003MPS 7000 FEW020 SCT120 33/27 Q1006 NOSIG
ZGSZ,2003-09-20 07:00,ZGSZ 200700Z 18005MPS 8000 NSC 32/27 Q1006 NOSIG
ZGSZ,2003-09-20 08:00,ZGSZ 200800Z 18005MPS CAVOK 32/27 Q1005 NOSIG
ZGSZ,2003-09-20 09:00,ZGSZ 200900Z 18004MPS CAVOK 31/27 Q1006 NOSIG
ZGSZ,2003-09-20 10:00,ZGSZ 201000Z 21003MPS 9999 SCT020 FEW030TCU 31/27 Q1006 NOSIG
ZGSZ,2003-09-20 11:00,ZGSZ 201100Z 04005MPS 4000 HZ SCT020 BKN040 30/23 Q1007 NOSIG
ZGSZ,2003-09-20 12:00,ZGSZ 201200Z 03002MPS 6000 SCT020 FEW033CB BKN040 30/21 Q1008 NOSIG
ZGSZ,2003-09-20 13:00,ZGSZ 201300Z 30001MPS 6000 SCT020 FEW033CB BKN040 29/21 Q1009 NOSIG
ZGSZ,2003-09-20 14:00,ZGSZ 201400Z 35002MPS 2800 HZ SCT018 FEW030TCU BKN040 29/22 Q1009 NOSIG
ZGSZ,2003-09-20 15:00,ZGSZ 201500Z 04002MPS 2500 BR SCT018 BKN040 28/23 Q1009 NOSIG
ZGSZ,2003-09-20 16:00,ZGSZ 201600Z 33002MPS 2000 BR SCT018 BKN040 28/23 Q1010 NOSIG
ZGSZ,2003-09-20 17:00,ZGSZ 201700Z 04003MPS 2000 BR SCT018 27/23 Q1010 NOSIG
ZGSZ,2003-09-20 18:00,ZGSZ 201800Z 36003MPS 2000 BR SCT018 27/23 Q1009 NOSIG
ZGSZ,2003-09-20 19:00,ZGSZ 201900Z 04003MPS 2000 BR SCT018 27/22 Q1009 NOSIG
ZGSZ,2003-09-20 20:00,ZGSZ 202000Z 02003MPS 2000 BR SCT018 27/22 Q1008 NOSIG
ZGSZ,2003-09-20 21:00,ZGSZ 202100Z 36004MPS 3000 BR FEW018 SCT050 27/22 Q1009 NOSIG
ZGSZ,2003-09-20 22:00,ZGSZ 202200Z 02003MPS 8000 FEW018 SCT060 26/22 Q1009 NOSIG
ZGSZ,2003-09-20 23:00,ZGSZ 202300Z 02002MPS 8000 FEW018 SCT060 26/22 Q1010 NOSIG
ZGSZ,2003-09-21 00:00,ZGSZ 210000Z 02003MPS 9999 FEW018 BKN053 27/22 Q1010 NOSIG
ZGSZ,2003-09-21 01:00,ZGSZ 210100Z 03004MPS 9999 FEW019 SCT053 28/22 Q1011 NOSIG
ZGSZ,2003-09-21 02:00,ZGSZ 210200Z 02005MPS CAVOK 30/22 Q1011 NOSIG
ZGSZ,2003-09-21 03:00,ZGSZ 210300Z 01004MPS 9999 FEW021 BKN120 30/23 Q1010 NOSIG
ZGSZ,2003-09-21 04:00,ZGSZ 210400Z 36002MPS 9999 BKN020 30/22 Q1010 NOSIG
ZGSZ,2003-09-21 05:00,ZGSZ 210500Z 34005MPS 6000 FEW020 BKN120 31/22 Q1009 NOSIG
ZGSZ,2003-09-21 06:00,ZGSZ 210600Z 35006MPS 7000 BKN021 FEW021TCU 31/22 Q1009 NOSIG
ZGSZ,2003-09-21 07:00,ZGSZ 210700Z 34006MPS 8000 BKN021 FEW021TCU 31/22 Q1008 NOSIG
ZGSZ,2003-09-21 08:00,ZGSZ 210800Z 36004MPS 9999 FEW021 FEW021TCU SCT110 30/22 Q1008 NOSIG
ZGSZ,2003-09-21 09:00,ZGSZ 210900Z 36004MPS 9999 SCT023 BKN060 29/22 Q1008 NOSIG
ZGSZ,2003-09-21 10:00,ZGSZ 211000Z 36004MPS 9999 FEW023 BKN060 29/22 Q1008 NOSIG
ZGSZ,2003-09-21 11:00,ZGSZ 211100Z 01006MPS CAVOK 28/21 Q1009 NOSIG
ZGSZ,2003-09-21 12:00,ZGSZ 211200Z 03005MPS CAVOK 28/21 Q1010 NOSIG
ZGSZ,2003-09-21 13:00,ZGSZ 211300Z 01006MPS 9999 SCT026 SCT053 27/21 Q1010 NOSIG
ZGSZ,2003-09-21 14:00,ZGSZ 211400Z 03005MPS CAVOK 26/21 Q1011 NOSIG
ZGSZ,2003-09-21 15:00,ZGSZ 211500Z 03004MPS CAVOK 26/20 Q1011 NOSIG
ZGSZ,2003-09-21 16:00,ZGSZ 211600Z 02003MPS CAVOK 25/20 Q1011 NOSIG
ZGSZ,2003-09-21 17:00,ZGSZ 211700Z 01005MPS CAVOK 25/19 Q1011 NOSIG
ZGSZ,2003-09-21 18:00,ZGSZ 211800Z 02005MPS CAVOK 24/19 Q1010 NOSIG
ZGSZ,2003-09-21 19:00,ZGSZ 211900Z 01005MPS CAVOK 24/19 Q1010 NOSIG
ZGSZ,2003-09-21 20:00,ZGSZ 212000Z 03004MPS CAVOK 24/18 Q1010 NOSIG
ZGSZ,2003-09-21 21:00,ZGSZ 212100Z 02003MPS CAVOK 23/18 Q1010 NOSIG
ZGSZ,2003-09-21 22:00,ZGSZ 212200Z 01002MPS 9999 SCT023 BKN053 23/18 Q1010 NOSIG
ZGSZ,2003-09-21 23:00,ZGSZ 212300Z 01003MPS CAVOK 23/18 Q1010 NOSIG
ZGSZ,2003-09-22 00:00,ZGSZ 220000Z 02003MPS 9999 SCT026 BKN050 24/18 Q1011 NOSIG
ZGSZ,2003-09-22 01:00,ZGSZ 220100Z 02003MPS 9999 BKN040 25/19 Q1011 NOSIG
ZGSZ,2003-09-22 02:00,ZGSZ 220200Z 01005MPS 7000 OVC033 25/19 Q1012 NOSIG
ZGSZ,2003-09-22 03:00,ZGSZ 220300Z 02004MPS 7000 OVC030 24/18 Q1012 NOSIG
ZGSZ,2003-09-22 04:00,ZGSZ 220400Z 03004MPS 6000 OVC030 24/19 Q1012 NOSIG
ZGSZ,2003-09-22 05:00,ZGSZ 220500Z 02005MPS 5000 BR OVC026 23/19 Q1011 NOSIG
ZGSZ,2003-09-22 06:00,ZGSZ 220600Z 04005MPS 5000 BR OVC033 24/19 Q1010 NOSIG
ZGSZ,2003-09-22 07:00,ZGSZ 220700Z 02005MPS 5000 -RA BR OVC030 23/20 Q1009 NOSIG
ZGSZ,2003-09-22 08:00,ZGSZ 220800Z 02003MPS 4000 BR FEW015 OVC030 24/19 Q1009 NOSIG
ZGSZ,2003-09-22 09:00,ZGSZ 220900Z 06003MPS 2800 BR FEW015 OVC030 23/20 Q1010 NOSIG
ZGSZ,2003-09-22 10:00,ZGSZ 221000Z 05003MPS 2200 BR FEW015 OVC030 23/20 Q1010 NOSIG
ZGSZ,2003-09-22 11:00,ZGSZ 221100Z 07003MPS 2000 BR FEW015 OVC030 23/20 Q1011 NOSIG
ZGSZ,2003-09-22 12:00,ZGSZ 221200Z 09003MPS 2800 BR FEW014 OVC030 24/20 Q1011 NOSIG
ZGSZ,2003-09-22 13:00,ZGSZ 221300Z 02003MPS 3000 BR FEW014 OVC030 24/19 Q1012 NOSIG
ZGSZ,2003-09-22 14:00,ZGSZ 221400Z 05001MPS 3000 BR FEW014 OVC030 24/19 Q1012 NOSIG
ZGSZ,2003-09-22 15:00,ZGSZ 221500Z 07002MPS 3000 BR FEW014 OVC030 24/19 Q1012 NOSIG
ZGSZ,2003-09-22 16:00,ZGSZ 221600Z 03002MPS 3000 BR FEW015 OVC030 24/19 Q1011 NOSIG
ZGSZ,2003-09-22 17:00,ZGSZ 221700Z 03003MPS 3000 BR FEW015 OVC033 24/18 Q1011 NOSIG
ZGSZ,2003-09-22 18:00,ZGSZ 221800Z 01003MPS 3000 HZ FEW015 OVC033 24/17 Q1011 NOSIG
ZGSZ,2003-09-22 19:00,ZGSZ 221900Z 03003MPS 3000 HZ FEW015 OVC033 23/18 Q1010 NOSIG
ZGSZ,2003-09-22 20:00,ZGSZ 222000Z 01003MPS 3000 HZ FEW015 OVC033 23/17 Q1010 NOSIG
ZGSZ,2003-09-22 21:00,ZGSZ 222100Z 02004MPS 3000 HZ FEW015 OVC033 23/17 Q1010 NOSIG
ZGSZ,2003-09-22 22:00,ZGSZ 222200Z 02003MPS 3000 BR FEW015 OVC033 23/17 Q1010 NOSIG
ZGSZ,2003-09-22 23:00,ZGSZ 222300Z 02003MPS 5000 HZ OVC036 23/17 Q1011 NOSIG
ZGSZ,2003-09-23 00:00,ZGSZ 230000Z 01005MPS 5000 HZ BKN040 24/18 Q1011 NOSIG
ZGSZ,2003-09-23 01:00,ZGSZ 230100Z 02003MPS 7000 SCT040 BKN050 25/18 Q1012 NOSIG
ZGSZ,2003-09-23 02:00,ZGSZ 230200Z 05003MPS 9999 SCT040 BKN050 25/18 Q1012 NOSIG
ZGSZ,2003-09-23 03:00,ZGSZ 230300Z 01004MPS 9999 BKN036 BKN050 26/18 Q1012 NOSIG
ZGSZ,2003-09-23 04:00,ZGSZ 230400Z 01004MPS 9999 SCT040 BKN060 27/19 Q1012 NOSIG
ZGSZ,2003-09-23 05:00,ZGSZ 230500Z 01005MPS 9999 BKN040 BKN060 27/18 Q1011 NOSIG
ZGSZ,2003-09-23 06:00,ZGSZ 230600Z 03004MPS 9999 FEW040 BKN060 27/19 Q1010 NOSIG
ZGSZ,2003-09-23 07:00,ZGSZ 230700Z 02004MPS 9999 FEW040 BKN060 28/19 Q1010 NOSIG
ZGSZ,2003-09-23 08:00,ZGSZ 230800Z 02004MPS CAVOK 28/19 Q1009 NOSIG
ZGSZ,2003-09-23 09:00,ZGSZ 230900Z 02003MPS CAVOK 28/19 Q1010 NOSIG
ZGSZ,2003-09-23 10:00,ZGSZ 231000Z 01004MPS CAVOK 27/19 Q1010 NOSIG
ZGSZ,2003-09-23 11:00,ZGSZ 231100Z 04003MPS CAVOK 26/19 Q1010 NOSIG
ZGSZ,2003-09-23 12:00,ZGSZ 231200Z 05002MPS CAVOK 25/19 Q1011 NOSIG
ZGSZ,2003-09-23 13:00,ZGSZ 231300Z 08003MPS 6000 NSC 25/19 Q1011 NOSIG
ZGSZ,2003-09-23 14:00,ZGSZ 231400Z 07003MPS 6000 NSC 24/19 Q1012 NOSIG
ZGSZ,2003-09-23 15:00,ZGSZ 231500Z 04002MPS 6000 NSC 24/19 Q1012 NOSIG
ZGSZ,2003-09-23 16:00,ZGSZ 231600Z 03002MPS 6000 NSC 24/19 Q1012 NOSIG
ZGSZ,2003-09-23 17:00,ZGSZ 231700Z 01002MPS 6000 NSC 23/19 Q1012 NOSIG
ZGSZ,2003-09-23 18:00,ZGSZ 231800Z 02002MPS 6000 NSC 23/19 Q1012 NOSIG
ZGSZ,2003-09-23 19:00,ZGSZ 231900Z 06001MPS 6000 NSC 24/19 Q1011 NOSIG
ZGSZ,2003-09-23 20:00,ZGSZ 232000Z 02002MPS 6000 NSC 23/19 Q1011 NOSIG
ZGSZ,2003-09-23 21:00,ZGSZ 232100Z 33002MPS 7000 NSC 23/19 Q1011 NOSIG
ZGSZ,2003-09-23 22:00,ZGSZ 232200Z 01002MPS 2900 BR SCT043 BKN100 23/19 Q1011 NOSIG
ZGSZ,2003-09-23 23:00,ZGSZ 232300Z 01004MPS 2800 BR NSC 23/19 Q1012 NOSIG
ZGSZ,2003-09-24 00:00,ZGSZ 240000Z 04001MPS CAVOK 24/19 Q1013 NOSIG
ZGSZ,2003-09-24 01:00,ZGSZ 240100Z 03002MPS 6000 NSC 26/19 Q1013 NOSIG
ZGSZ,2003-09-24 02:00,ZGSZ 240200Z 02003MPS 5000 HZ SKC 27/20 Q1013 NOSIG
ZGSZ,2003-09-24 03:00,ZGSZ 240300Z 07002MPS 5000 HZ FEW023 29/20 Q1013 NOSIG
ZGSZ,2003-09-24 04:00,ZGSZ 240400Z 01002MPS 6000 SCT025 29/21 Q1012 NOSIG
ZGSZ,2003-09-24 05:00,ZGSZ 240500Z 05003MPS 7000 SCT026 30/19 Q1012 NOSIG
ZGSZ,2003-09-24 06:00,ZGSZ 240600Z 07002MPS 8000 BKN026 FEW026TCU 30/20 Q1011 NOSIG
ZGSZ,2003-09-24 07:00,ZGSZ 240700Z 09004MPS 7000 BKN025 30/20 Q1010 NOSIG
ZGSZ,2003-09-24 08:00,ZGSZ 240800Z 11003MPS 8000 SCT023 BKN050 30/20 Q1010 NOSIG
ZGSZ,2003-09-24 09:00,ZGSZ 240900Z 07002MPS CAVOK 30/20 Q1010 NOSIG
ZGSZ,2003-09-24 10:00,ZGSZ 241000Z 05002MPS CAVOK 29/19 Q1010 NOSIG
ZGSZ,2003-09-24 11:00,ZGSZ 241100Z 06002MPS CAVOK 28/20 Q1011 NOSIG
ZGSZ,2003-09-24 12:00,ZGSZ 241200Z 14003MPS 5000 BR NSC 27/22 Q1011 NOSIG
ZGSZ,2003-09-24 13:00,ZGSZ 241300Z 10003MPS 4000 BR NSC 27/21 Q1012 NOSIG
ZGSZ,2003-09-24 14:00,ZGSZ 241400Z 11004MPS 5000 BR NSC 27/21 Q1013 NOSIG
ZGSZ,2003-09-24 15:00,ZGSZ 241500Z 11003MPS CAVOK 26/21 Q1013 NOSIG
ZGSZ,2003-09-24 16:00,ZGSZ 241600Z 11001MPS CAVOK 26/22 Q1013 NOSIG
ZGSZ,2003-09-24 18:00,ZGSZ 241800Z AUTO 07004KT 9SM 26/23 RMK SLP127 T02620228 57008 IEM_DS3505
ZGSZ,2003-09-24 21:00,ZGSZ 242100Z 04001MPS 9999 SCT026 25/21 Q1012 NOSIG
ZGSZ,2003-09-24 22:00,ZGSZ 242200Z 06002MPS CAVOK 25/20 Q1012 NOSIG
ZGSZ,2003-09-24 23:00,ZGSZ 242300Z 36002MPS CAVOK 25/21 Q1013 NOSIG
ZGSZ,2003-09-25 00:00,ZGSZ 250000Z 01003MPS CAVOK 26/21 Q1013 NOSIG
ZGSZ,2003-09-25 01:00,ZGSZ 250100Z 03003MPS 9999 FEW023 27/21 Q1014 NOSIG
ZGSZ,2003-09-25 02:00,ZGSZ 250200Z 02004MPS 9999 FEW023 29/20 Q1014 NOSIG
ZGSZ,2003-09-25 03:00,ZGSZ 250300Z 03005MPS 9999 SCT023 30/19 Q1013 NOSIG
ZGSZ,2003-09-25 04:00,ZGSZ 250400Z 06002MPS 9999 SCT021 31/18 Q1012 NOSIG
ZGSZ,2003-09-25 05:00,ZGSZ 250500Z 04003MPS 9999 BKN021 31/17 Q1012 NOSIG
ZGSZ,2003-09-25 06:00,ZGSZ 250600Z 08002MPS 9999 BKN021 32/17 Q1011 NOSIG
ZGSZ,2003-09-25 07:00,ZGSZ 250700Z 05002MPS 9999 BKN021 32/18 Q1010 NOSIG
ZGSZ,2003-09-25 08:00,ZGSZ 250800Z 20003MPS 9999 BKN023 30/21 Q1009 NOSIG
ZGSZ,2003-09-25 09:00,ZGSZ 250900Z 18003MPS 9999 SCT020 30/21 Q1010 NOSIG
ZGSZ,2003-09-25 10:00,ZGSZ 251000Z 17003MPS 9999 BKN020 28/20 Q1010 NOSIG
ZGSZ,2003-09-25 11:00,ZGSZ 251100Z 18003MPS 9999 FEW020 27/21 Q1010 NOSIG
ZGSZ,2003-09-25 12:00,ZGSZ 251200Z 11004MPS CAVOK 28/19 Q1011 NOSIG
ZGSZ,2003-09-25 13:00,ZGSZ 251300Z 10004MPS CAVOK 27/19 Q1012 NOSIG
ZGSZ,2003-09-25 14:00,ZGSZ 251400Z 11004MPS CAVOK 27/19 Q1012 NOSIG
ZGSZ,2003-09-25 15:00,ZGSZ 251500Z 13004MPS CAVOK 27/20 Q1012 NOSIG
ZGSZ,2003-09-25 16:00,ZGSZ 251600Z 11004MPS CAVOK 27/20 Q1012 NOSIG
ZGSZ,2003-09-25 17:00,ZGSZ 251700Z 10003MPS CAVOK 26/20 Q1011 NOSIG
ZGSZ,2003-09-25 18:00,ZGSZ 251800Z 04001MPS CAVOK 26/20 Q1011 NOSIG
ZGSZ,2003-09-25 19:00,ZGSZ 251900Z 07003MPS CAVOK 26/20 Q1010 NOSIG
ZGSZ,2003-09-25 20:00,ZGSZ 252000Z 07002MPS CAVOK 26/20 Q1010 NOSIG
ZGSZ,2003-09-25 21:00,ZGSZ 252100Z 02001MPS CAVOK 25/20 Q1010 NOSIG
ZGSZ,2003-09-25 22:00,ZGSZ 252200Z 02003MPS 4500 BR NSC 24/20 Q1011 NOSIG
ZGSZ,2003-09-25 23:00,ZGSZ 252300Z 04003MPS 3000 BR NSC 25/21 Q1011 NOSIG
ZGSZ,2003-09-26 00:00,ZGSZ 260000Z 03004MPS 3000 BR SKC 26/21 Q1012 NOSIG
ZGSZ,2003-09-26 01:00,ZGSZ 260100Z 08004MPS 8000 NSC 28/20 Q1012 NOSIG
ZGSZ,2003-09-26 02:00,ZGSZ 260200Z 02003MPS CAVOK 29/19 Q1012 NOSIG
ZGSZ,2003-09-26 03:00,ZGSZ 260300Z 02002MPS 9999 FEW023 30/19 Q1012 NOSIG
ZGSZ,2003-09-26 04:00,ZGSZ 260400Z 03003MPS 9999 SCT023 31/20 Q1011 NOSIG
ZGSZ,2003-09-26 05:00,ZGSZ 260500Z 03003MPS 9999 BKN023 FEW026TCU 31/19 Q1011 NOSIG
ZGSZ,2003-09-26 06:00,ZGSZ 260600Z 06003MPS 9999 BKN023 FEW026TCU SCT040 31/19 Q1009 NOSIG
ZGSZ,2003-09-26 07:00,ZGSZ 260700Z 05003MPS 9999 BKN023 FEW026TCU 32/19 Q1009 NOSIG
ZGSZ,2003-09-26 08:00,ZGSZ 260800Z 18003MPS 9999 BKN023 FEW026TCU 29/23 Q1009 NOSIG
ZGSZ,2003-09-26 09:00,ZGSZ 260900Z 18004MPS 9999 FEW025 BKN120 29/22 Q1009 NOSIG
ZGSZ,2003-09-26 10:00,ZGSZ 261000Z 18003MPS CAVOK 28/22 Q1009 NOSIG
ZGSZ,2003-09-26 11:00,ZGSZ 261100Z 18003MPS CAVOK 28/23 Q1009 NOSIG
ZGSZ,2003-09-26 12:00,ZGSZ 261200Z 18003MPS 7000 NSC 28/23 Q1010 NOSIG
ZGSZ,2003-09-26 13:00,ZGSZ 261300Z 12005MPS 7000 NSC 28/21 Q1010 NOSIG
ZGSZ,2003-09-26 14:00,ZGSZ 261400Z 10004MPS 8000 NSC 28/22 Q1011 NOSIG
ZGSZ,2003-09-26 15:00,ZGSZ 261500Z 10004MPS 8000 NSC 27/22 Q1011 NOSIG
ZGSZ,2003-09-26 16:00,ZGSZ 261600Z 10004MPS CAVOK 27/22 Q1010 NOSIG
ZGSZ,2003-09-26 17:00,ZGSZ 261700Z 09005MPS CAVOK 27/22 Q1009 NOSIG
ZGSZ,2003-09-26 18:00,ZGSZ 261800Z 08003MPS 7000 SKC 26/22 Q1009 NOSIG
ZGSZ,2003-09-26 19:00,ZGSZ 261900Z 08002MPS 6000 SKC 26/21 Q1008 NOSIG
ZGSZ,2003-09-26 20:00,ZGSZ 262000Z 08001MPS 7000 SKC 26/21 Q1009 NOSIG
ZGSZ,2003-09-26 21:00,ZGSZ 262100Z 00000MPS 6000 SKC 25/21 Q1009 NOSIG
ZGSZ,2003-09-26 22:00,ZGSZ 262200Z 04001MPS 6000 SKC 26/21 Q1009 NOSIG
ZGSZ,2003-09-26 23:00,ZGSZ 262300Z 04002MPS 8000 NSC 25/22 Q1010 NOSIG
ZGSZ,2003-09-27 00:00,ZGSZ 270000Z 03002MPS 8000 NSC 26/22 Q1010 NOSIG
ZGSZ,2003-09-27 01:00,ZGSZ 270100Z 35001MPS 8000 NSC 28/21 Q1011 NOSIG
ZGSZ,2003-09-27 02:00,ZGSZ 270200Z 12002MPS CAVOK 30/20 Q1011 NOSIG
ZGSZ,2003-09-27 03:00,ZGSZ 270300Z 06002MPS CAVOK 31/21 Q1010 NOSIG
ZGSZ,2003-09-27 04:00,ZGSZ 270400Z 19004MPS 9999 FEW020 BKN100 30/22 Q1010 NOSIG
ZGSZ,2003-09-27 05:00,ZGSZ 270500Z 22003MPS 9999 FEW020 BKN100 30/22 Q1009 NOSIG
ZGSZ,2003-09-27 06:00,ZGSZ 270600Z 21005MPS 9999 FEW020 BKN100 30/23 Q1008 NOSIG
ZGSZ,2003-09-27 07:00,ZGSZ 270700Z 20004MPS CAVOK 31/23 Q1008 NOSIG
ZGSZ,2003-09-27 08:00,ZGSZ 270800Z 21004MPS CAVOK 30/23 Q1007 NOSIG
ZGSZ,2003-09-27 09:00,ZGSZ 270900Z 21003MPS 9999 FEW026 29/23 Q1007 NOSIG
ZGSZ,2003-09-27 10:00,ZGSZ 271000Z 24001MPS CAVOK 29/24 Q1007 NOSIG
ZGSZ,2003-09-27 11:00,ZGSZ 271100Z 09003MPS 7000 NSC 30/21 Q1007 NOSIG
ZGSZ,2003-09-27 12:00,ZGSZ 271200Z 09003MPS 6000 NSC 29/21 Q1008 NOSIG
ZGSZ,2003-09-27 13:00,ZGSZ 271300Z 11004MPS 5000 HZ NSC 28/21 Q1008 NOSIG
ZGSZ,2003-09-27 14:00,ZGSZ 271400Z 07002MPS 6000 NSC 28/21 Q1009 NOSIG
ZGSZ,2003-09-27 15:00,ZGSZ 271500Z 09002MPS 6000 NSC 27/21 Q1009 NOSIG
ZGSZ,2003-09-27 16:00,ZGSZ 271600Z 10003MPS 5000 BR NSC 27/22 Q1009 NOSIG
ZGSZ,2003-09-27 17:00,ZGSZ 271700Z 10002MPS 4500 BR NSC 27/22 Q1008 NOSIG
ZGSZ,2003-09-27 18:00,ZGSZ 271800Z 11002MPS 4000 BR NSC 27/22 Q1008 NOSIG
ZGSZ,2003-09-27 19:00,ZGSZ 271900Z 09002MPS 4500 BR NSC 26/22 Q1008 NOSIG
ZGSZ,2003-09-27 20:00,ZGSZ 272000Z 07002MPS 4500 BR NSC 26/22 Q1008 NOSIG
ZGSZ,2003-09-27 21:00,ZGSZ 272100Z 36001MPS 3500 BR NSC 26/22 Q1008 NOSIG
ZGSZ,2003-09-27 22:00,ZGSZ 272200Z 35001MPS 3000 BR NSC 26/22 Q1008 NOSIG
ZGSZ,2003-09-27 23:00,ZGSZ 272300Z 08001MPS 3500 BR NSC 26/23 Q1009 NOSIG
ZGSZ,2003-09-28 00:00,ZGSZ 280000Z 04001MPS 3500 BR SKC 27/22 Q1009 NOSIG
ZGSZ,2003-09-28 01:00,ZGSZ 280100Z 05001MPS 7000 NSC 29/22 Q1010 NOSIG
ZGSZ,2003-09-28 02:00,ZGSZ 280200Z 25002MPS 9999 SCT026 29/23 Q1010 NOSIG
ZGSZ,2003-09-28 03:00,ZGSZ 280300Z 26003MPS 9999 SCT020 FEW030TCU 30/24 Q1009 NOSIG
ZGSZ,2003-09-28 04:00,ZGSZ 280400Z 24003MPS 5000 HZ SCT020 FEW030TCU 30/24 Q1009 NOSIG
ZGSZ,2003-09-28 05:00,ZGSZ 280500Z 23003MPS 7000 FEW020 BKN120 31/24 Q1008 NOSIG
ZGSZ,2003-09-28 06:00,ZGSZ 280600Z 20003MPS 7000 NSC 31/24 Q1007 NOSIG
ZGSZ,2003-09-28 07:00,ZGSZ 280700Z 20003MPS CAVOK 31/24 Q1007 NOSIG
ZGSZ,2003-09-28 08:00,ZGSZ 280800Z 18003MPS 9999 SCT026 BKN120 30/24 Q1006 NOSIG
ZGSZ,2003-09-28 09:00,ZGSZ 280900Z 12004MPS 6000 SCT023 FEW026TCU BKN070 29/22 Q1007 NOSIG
ZGSZ,2003-09-28 10:00,ZGSZ 281000Z 13003MPS 9999 FEW023 BKN060 29/21 Q1007 NOSIG
ZGSZ,2003-09-28 11:00,ZGSZ 281100Z 13002MPS 6000 NSC 29/23 Q1007 NOSIG
ZGSZ,2003-09-28 12:00,ZGSZ 281200Z 12002MPS 6000 NSC 29/22 Q1008 NOSIG
ZGSZ,2003-09-28 13:00,ZGSZ 281300Z 09003MPS CAVOK 28/22 Q1008 NOSIG
ZGSZ,2003-09-28 14:00,ZGSZ 281400Z 04001MPS CAVOK 28/22 Q1009 NOSIG
ZGSZ,2003-09-28 15:00,ZGSZ 281500Z 13003MPS 6000 SKC 28/22 Q1009 NOSIG
ZGSZ,2003-09-28 16:00,ZGSZ 281600Z 14002MPS 7000 SKC 26/22 Q1009 NOSIG
ZGSZ,2003-09-28 17:00,ZGSZ 281700Z 09002MPS 7000 SKC 27/22 Q1009 NOSIG
ZGSZ,2003-09-28 18:00,ZGSZ 281800Z 09001MPS 8000 SKC 26/22 Q1009 NOSIG
ZGSZ,2003-09-28 19:00,ZGSZ 281900Z 12001MPS 8000 SKC 26/23 Q1009 NOSIG
ZGSZ,2003-09-28 20:00,ZGSZ 282000Z 13001MPS 8000 NSC 26/22 Q1009 NOSIG
ZGSZ,2003-09-28 21:00,ZGSZ 282100Z 05001MPS 8000 NSC 26/23 Q1009 NOSIG
ZGSZ,2003-09-28 22:00,ZGSZ 282200Z 05001MPS 6000 NSC 26/22 Q1010 NOSIG
ZGSZ,2003-09-28 23:00,ZGSZ 282300Z 09001MPS 4500 BR NSC 26/23 Q1010 NOSIG
ZGSZ,2003-09-29 00:00,ZGSZ 290000Z 00000MPS 5000 BR NSC 27/23 Q1010 NOSIG
ZGSZ,2003-09-29 01:00,ZGSZ 290100Z 16001MPS 3500 BR SKC 28/23 Q1011 NOSIG
ZGSZ,2003-09-29 02:00,ZGSZ 290200Z 12002MPS 4000 HZ SKC 29/23 Q1011 NOSIG
ZGSZ,2003-09-29 03:00,ZGSZ 290300Z 14002MPS 4000 HZ SCT022 31/21 Q1010 NOSIG
ZGSZ,2003-09-29 04:00,ZGSZ 290400Z 22003MPS 3000 HZ SCT022 30/24 Q1010 NOSIG
ZGSZ,2003-09-29 05:00,ZGSZ 290500Z 22003MPS 4500 HZ SCT022 31/24 Q1009 NOSIG
ZGSZ,2003-09-29 06:00,ZGSZ 290600Z 22004MPS 5000 HZ FEW022 31/24 Q1008 NOSIG
ZGSZ,2003-09-29 07:00,ZGSZ 290700Z 20003MPS 8000 SKC 31/22 Q1008 NOSIG
ZGSZ,2003-09-29 08:00,ZGSZ 290800Z 18004MPS CAVOK 30/24 Q1007 NOSIG
ZGSZ,2003-09-29 09:00,ZGSZ 290900Z 18005MPS 9999 FEW030 SCT060 29/22 Q1008 NOSIG
ZGSZ,2003-09-29 10:00,ZGSZ 291000Z 17004MPS 9999 FEW026 SCT046 29/22 Q1008 NOSIG
ZGSZ,2003-09-29 11:00,ZGSZ 291100Z 18003MPS 9999 FEW026 BKN046 28/23 Q1008 NOSIG
ZGSZ,2003-09-29 12:00,ZGSZ 291200Z 17003MPS 9999 FEW026 BKN046 28/23 Q1009 NOSIG
ZGSZ,2003-09-29 13:00,ZGSZ 291300Z 11004MPS 9999 BKN046 29/21 Q1010 NOSIG
ZGSZ,2003-09-29 14:00,ZGSZ 291400Z 13003MPS 8000 BKN046 28/21 Q1010 NOSIG
ZGSZ,2003-09-29 15:00,ZGSZ 291500Z 12004MPS 8000 NSC 28/22 Q1010 NOSIG
ZGSZ,2003-09-29 16:00,ZGSZ 291600Z 09003MPS 8000 NSC 27/22 Q1010 NOSIG
ZGSZ,2003-09-29 17:00,ZGSZ 291700Z 09003MPS 8000 NSC 27/21 Q1010 NOSIG
ZGSZ,2003-09-29 18:00,ZGSZ 291800Z 09004MPS 8000 NSC 27/21 Q1010 NOSIG
ZGSZ,2003-09-29 19:00,ZGSZ 291900Z 10003MPS 8000 NSC 27/22 Q1009 NOSIG
ZGSZ,2003-09-29 20:00,ZGSZ 292000Z 09004MPS 8000 NSC 27/22 Q1010 NOSIG
ZGSZ,2003-09-29 21:00,ZGSZ 292100Z 09002MPS 8000 NSC 27/22 Q1010 NOSIG
ZGSZ,2003-09-29 22:00,ZGSZ 292200Z 10002MPS 8000 FEW013 BKN043 26/22 Q1011 NOSIG
ZGSZ,2003-09-29 23:00,ZGSZ 292300Z 10004MPS 6000 FEW013 BKN043 25/22 Q1011 NOSIG
ZGSZ,2003-09-30 00:00,ZGSZ 300000Z 09003MPS 5000 BR FEW020 BKN043 26/22 Q1012 NOSIG
ZGSZ,2003-09-30 01:00,ZGSZ 300100Z 09003MPS 4500 BR NSC 28/22 Q1012 NOSIG
ZGSZ,2003-09-30 02:00,ZGSZ 300200Z 09004MPS CAVOK 29/21 Q1012 NOSIG
ZGSZ,2003-09-30 03:00,ZGSZ 300300Z 10003MPS CAVOK 30/20 Q1012 NOSIG
ZGSZ,2003-09-30 04:00,ZGSZ 300400Z 11003MPS 9999 BKN021 31/20 Q1011 NOSIG
ZGSZ,2003-09-30 05:00,ZGSZ 300500Z 23003MPS 9999 BKN020 29/22 Q1010 NOSIG
ZGSZ,2003-09-30 06:00,ZGSZ 300600Z 18003MPS 9999 BKN021 31/21 Q1009 NOSIG
ZGSZ,2003-09-30 07:00,ZGSZ 300700Z 18005MPS 9999 BKN022 30/21 Q1009 NOSIG
ZGSZ,2003-09-30 08:00,ZGSZ 300800Z 14003MPS 9999 FEW023 SCT100 31/19 Q1009 NOSIG
ZGSZ,2003-09-30 09:00,ZGSZ 300900Z 18005MPS CAVOK 29/23 Q1008 NOSIG
ZGSZ,2003-09-30 10:00,ZGSZ 301000Z 17004MPS CAVOK 29/22 Q1009 NOSIG
ZGSZ,2003-09-30 11:00,ZGSZ 301100Z 11004MPS CAVOK 29/20 Q1009 NOSIG
ZGSZ,2003-09-30 12:00,ZGSZ 301200Z 11004MPS CAVOK 28/20 Q1010 NOSIG
ZGSZ,2003-09-30 13:00,ZGSZ 301300Z 13003MPS CAVOK 27/21 Q1011 NOSIG
ZGSZ,2003-09-30 14:00,ZGSZ 301400Z 11003MPS CAVOK 27/21 Q1011 NOSIG
ZGSZ,2003-09-30 15:00,ZGSZ 301500Z 13003MPS CAVOK 27/21 Q1011 NOSIG
ZGSZ,2003-09-30 16:00,ZGSZ 301600Z 11003MPS CAVOK 27/21 Q1010 NOSIG
ZGSZ,2003-09-30 17:00,ZGSZ 301700Z 09002MPS CAVOK 26/21 Q1010 NOSIG
ZGSZ,2003-09-30 18:00,ZGSZ 301800Z 11002MPS CAVOK 26/21 Q1011 NOSIG
ZGSZ,2003-09-30 19:00,ZGSZ 301900Z 09002MPS CAVOK 26/21 Q1010 NOSIG
ZGSZ,2003-09-30 20:00,ZGSZ 302000Z 00000MPS CAVOK 25/21 Q1011 NOSIG
ZGSZ,2003-09-30 21:00,ZGSZ 302100Z 01002MPS CAVOK 25/21 Q1011 NOSIG
ZGSZ,2003-09-30 22:00,ZGSZ 302200Z 02002MPS CAVOK 25/21 Q1012 NOSIG
ZGSZ,2003-09-30 23:00,ZGSZ 302300Z 03003MPS CAVOK 25/22 Q1012 NOSIG
ZGSZ,2003-10-01 00:00,ZGSZ 010000Z 04002MPS CAVOK 26/22 Q1013 NOSIG
ZGSZ,2003-10-01 01:00,ZGSZ 010100Z 09002MPS 6000 SKC 28/22 Q1013 NOSIG
ZGSZ,2003-10-01 02:00,ZGSZ 010200Z 11003MPS 7000 SKC 29/20 Q1013 NOSIG
ZGSZ,2003-10-01 03:00,ZGSZ 010300Z 12003MPS 7000 FEW025 30/20 Q1013 NOSIG
ZGSZ,2003-10-01 04:00,ZGSZ 010400Z 13003MPS 9999 SCT026 31/20 Q1012 NOSIG
ZGSZ,2003-10-01 05:00,ZGSZ 010500Z 22003MPS 9999 BKN026 31/22 Q1012 NOSIG
ZGSZ,2003-10-01 06:00,ZGSZ 010600Z 23003MPS 9999 SCT028 FEW028TCU 30/22 Q1011 NOSIG
ZGSZ,2003-10-01 07:00,ZGSZ 010700Z 22003MPS 9999 SCT030 30/21 Q1010 NOSIG
ZGSZ,2003-10-01 08:00,ZGSZ 010800Z 21002MPS 9999 SCT028 29/21 Q1010 NOSIG
ZGSZ,2003-10-01 09:00,ZGSZ 010900Z 18003MPS CAVOK 29/22 Q1010 NOSIG
ZGSZ,2003-10-01 10:00,ZGSZ 011000Z 18003MPS CAVOK 28/22 Q1010 NOSIG
ZGSZ,2003-10-01 11:00,ZGSZ 011100Z 18003MPS CAVOK 28/22 Q1010 NOSIG
ZGSZ,2003-10-01 12:00,ZGSZ 011200Z 17004MPS CAVOK 28/22 Q1011 NOSIG
ZGSZ,2003-10-01 13:00,ZGSZ 011300Z 14003MPS CAVOK 27/22 Q1011 NOSIG
ZGSZ,2003-10-01 14:00,ZGSZ 011400Z 12004MPS CAVOK 27/21 Q1012 NOSIG
ZGSZ,2003-10-01 15:00,ZGSZ 011500Z 11002MPS CAVOK 27/21 Q1012 NOSIG
ZGSZ,2003-10-01 16:00,ZGSZ 011600Z 11003MPS CAVOK 27/21 Q1012 NOSIG
ZGSZ,2003-10-01 17:00,ZGSZ 011700Z 12003MPS CAVOK 26/21 Q1012 NOSIG
ZGSZ,2003-10-01 18:00,ZGSZ 011800Z 12003MPS CAVOK 26/21 Q1012 NOSIG
ZGSZ,2003-10-01 19:00,ZGSZ 011900Z 12003MPS CAVOK 25/21 Q1012 NOSIG
ZGSZ,2003-10-01 20:00,ZGSZ 012000Z 12003MPS CAVOK 25/22 Q1012 NOSIG
ZGSZ,2003-10-01 21:00,ZGSZ 012100Z 04001MPS 5000 BR NSC 25/22 Q1012 NOSIG
ZGSZ,2003-10-01 22:00,ZGSZ 012200Z 04002MPS 6000 NSC 25/21 Q1012 NOSIG
ZGSZ,2003-10-01 23:00,ZGSZ 012300Z 02001MPS 6000 NSC 25/22 Q1013 NOSIG
ZGSZ,2003-10-02 00:00,ZGSZ 020000Z 04001MPS 5000 BR NSC 27/22 Q1013 NOSIG
ZGSZ,2003-10-02 01:00,ZGSZ 020100Z 00000MPS 6000 SKC 28/22 Q1014 NOSIG
ZGSZ,2003-10-02 02:00,ZGSZ 020200Z 27002MPS 8000 FEW021 29/22 Q1014 NOSIG
ZGSZ,2003-10-02 03:00,ZGSZ 020300Z 27003MPS 8000 BKN026 28/22 Q1014 NOSIG
ZGSZ,2003-10-02 04:00,ZGSZ 020400Z 24003MPS 6000 BKN026 BKN260 29/22 Q1013 NOSIG
ZGSZ,2003-10-02 05:00,ZGSZ 020500Z 22003MPS 6000 BKN026 BKN260 30/23 Q1012 NOSIG
ZGSZ,2003-10-02 06:00,ZGSZ 020600Z 18003MPS 6000 BKN026 BKN260 30/23 Q1011 NOSIG
ZGSZ,2003-10-02 07:00,ZGSZ 020700Z 19003MPS CAVOK 30/24 Q1011 NOSIG
ZGSZ,2003-10-02 08:00,ZGSZ 020800Z 18004MPS 9999 FEW026 BKN280 30/23 Q1011 NOSIG
ZGSZ,2003-10-02 09:00,ZGSZ 020900Z 18004MPS 9999 SCT023 SCT060 29/23 Q1011 NOSIG
ZGSZ,2003-10-02 10:00,ZGSZ 021000Z 18004MPS 9999 SCT020 BKN060 29/23 Q1011 NOSIG
ZGSZ,2003-10-02 11:00,ZGSZ 021100Z 18003MPS 9999 FEW020 SCT060 28/23 Q1012 NOSIG
ZGSZ,2003-10-02 12:00,ZGSZ 021200Z 14002MPS CAVOK 28/23 Q1012 NOSIG
ZGSZ,2003-10-02 13:00,ZGSZ 021300Z 12002MPS CAVOK 28/19 Q1013 NOSIG
ZGSZ,2003-10-02 14:00,ZGSZ 021400Z 34001MPS CAVOK 28/19 Q1014 NOSIG
ZGSZ,2003-10-02 15:00,ZGSZ 021500Z 09004MPS CAVOK 27/20 Q1014 NOSIG
ZGSZ,2003-10-02 16:00,ZGSZ 021600Z 12003MPS CAVOK 27/21 Q1014 NOSIG
ZGSZ,2003-10-02 17:01,ZGSZ 021701Z 10004MPS CAVOK 27/21 Q1014 NOSIG
ZGSZ,2003-10-02 18:00,ZGSZ 021800Z 09002MPS 6000 SKC 26/22 Q1014 NOSIG
ZGSZ,2003-10-02 19:00,ZGSZ 021900Z 35001MPS 4500 BR SKC 26/21 Q1014 NOSIG
ZGSZ,2003-10-02 20:00,ZGSZ 022000Z 32001MPS 4500 BR SKC 26/22 Q1014 NOSIG
ZGSZ,2003-10-02 21:00,ZGSZ 022100Z 00000MPS 4000 BR SKC 26/22 Q1014 NOSIG
ZGSZ,2003-10-02 23:00,ZGSZ 022300Z 08002MPS 3500 BR NSC 26/20 Q1015 NOSIG
ZGSZ,2003-10-03 00:00,ZGSZ 030000Z 07002MPS 4000 HZ NSC 27/21 Q1016 NOSIG
ZGSZ,2003-10-03 01:00,ZGSZ 030100Z 05003MPS 4000 HZ NSC 29/20 Q1017 NOSIG
ZGSZ,2003-10-03 02:00,ZGSZ 030200Z 07004MPS 4000 HZ SCT046 29/20 Q1017 NOSIG
ZGSZ,2003-10-03 03:00,ZGSZ 030300Z 01001MPS 6000 BKN043 30/20 Q1016 NOSIG
ZGSZ,2003-10-03 04:00,ZGSZ 030400Z 34002MPS 6000 BKN043 30/20 Q1015 NOSIG
ZGSZ,2003-10-03 05:00,ZGSZ 030500Z 27003MPS 4000 HZ SCT023 SCT050 30/22 Q1014 NOSIG
ZGSZ,2003-10-03 06:00,ZGSZ 030600Z 26003MPS 4000 HZ SCT023 SCT050 31/22 Q1013 NOSIG
ZGSZ,2003-10-03 07:00,ZGSZ 030700Z 24003MPS 3000 HZ SCT026 FEW030TCU 30/23 Q1013 NOSIG
ZGSZ,2003-10-03 08:00,ZGSZ 030800Z 34004MPS 3000 HZ FEW026 30/23 Q1012 NOSIG
ZGSZ,2003-10-03 09:00,ZGSZ 030900Z 30005MPS 3800 HZ FEW025 SCT120 31/22 Q1012 NOSIG
ZGSZ,2003-10-03 10:00,ZGSZ 031000Z 25001MPS 4000 HZ SCT020 FEW020TCU SCT060 29/22 Q1012 NOSIG
ZGSZ,2003-10-03 11:00,ZGSZ 031100Z 18005MPS 4000 -SHRA BR BKN018 FEW025CB SCT060 27/23 Q1013 RETSRA TEMPO 01008MPS 2000 TSRA SCT015 SCT025CB BKN040
ZGSZ,2003-10-03 12:00,ZGSZ 031200Z 11002MPS 5000 HZ FEW026TCU BKN050 28/21 Q1014 NOSIG
ZGSZ,2003-10-03 13:00,ZGSZ 031300Z 23002MPS 4500 BR SCT021 FEW021TCU 27/23 Q1015 NOSIG
ZGSZ,2003-10-03 14:00,ZGSZ 031400Z 00000MPS 5000 BKN021 FEW021TCU 26/23 Q1015 NOSIG
ZGSZ,2003-10-03 15:00,ZGSZ 031500Z 30001MPS 5000 FEW021 FEW021TCU BKN053 26/23 Q1015 NOSIG
ZGSZ,2003-10-03 16:00,ZGSZ 031600Z 35003MPS 2500 BR FEW021 FEW021TCU BKN050 26/23 Q1015 NOSIG
ZGSZ,2003-10-03 17:00,ZGSZ 031700Z 36003MPS 2800 -SHRA BR FEW015 FEW026CB BKN050 23/21 Q1015 RERA NOSIG
ZGSZ,2003-10-03 18:00,ZGSZ 031800Z 01004MPS 2800 BR FEW018 FEW026CB BKN043 24/21 Q1015 NOSIG
ZGSZ,2003-10-03 19:00,ZGSZ 031900Z 01005MPS 3200 BR BKN043 24/20 Q1015 NOSIG
ZGSZ,2003-10-03 20:00,ZGSZ 032000Z 02004MPS 3200 BR BKN043 23/20 Q1014 NOSIG
ZGSZ,2003-10-03 21:00,ZGSZ 032100Z 01005MPS 3800 BR NSC 23/19 Q1015 NOSIG
ZGSZ,2003-10-03 22:00,ZGSZ 032200Z 02004MPS 4800 BR NSC 23/19 Q1015 NOSIG
ZGSZ,2003-10-03 23:00,ZGSZ 032300Z 01005MPS 4800 BR NSC 23/19 Q1016 NOSIG
ZGSZ,2003-10-04 00:00,ZGSZ 040000Z 01006MPS 5000 NSC 24/19 Q1017 NOSIG
ZGSZ,2003-10-04 01:00,ZGSZ 040100Z 02006MPS 4500 BR SKC 24/19 Q1017 NOSIG
ZGSZ,2003-10-04 02:00,ZGSZ 040200Z 02005MPS 5000 BR NSC 25/19 Q1017 NOSIG
ZGSZ,2003-10-04 03:00,ZGSZ 040300Z 03005MPS 5000 SKC 26/19 Q1017 NOSIG
ZGSZ,2003-10-04 04:00,ZGSZ 040400Z 01005MPS 6000 FEW022 27/20 Q1016 NOSIG
ZGSZ,2003-10-04 05:00,ZGSZ 040500Z 02005MPS 6000 FEW022 28/19 Q1015 NOSIG
ZGSZ,2003-10-04 06:00,ZGSZ 040600Z 02004MPS 6000 SCT022 29/19 Q1014 NOSIG
ZGSZ,2003-10-04 07:00,ZGSZ 040700Z 04005MPS 8000 SCT022 29/19 Q1013 NOSIG
ZGSZ,2003-10-04 08:00,ZGSZ 040800Z 02005MPS 9999 SCT020 29/20 Q1013 NOSIG
ZGSZ,2003-10-04 09:00,ZGSZ 040900Z 03004MPS CAVOK 29/20 Q1013 NOSIG
ZGSZ,2003-10-04 10:00,ZGSZ 041000Z 01005MPS CAVOK 27/19 Q1014 NOSIG
ZGSZ,2003-10-04 11:00,ZGSZ 041100Z 07004MPS 5000 HZ NSC 27/20 Q1014 NOSIG
ZGSZ,2003-10-04 12:00,ZGSZ 041200Z 03004MPS 5000 HZ NSC 27/19 Q1015 NOSIG
ZGSZ,2003-10-04 13:00,ZGSZ 041300Z 04004MPS 6000 SKC 26/19 Q1015 NOSIG
ZGSZ,2003-10-04 14:00,ZGSZ 041400Z 04004MPS 6000 FEW020 SCT070 25/19 Q1016 NOSIG
ZGSZ,2003-10-04 15:00,ZGSZ 041500Z 02003MPS 7000 SCT019 SCT050 25/19 Q1015 NOSIG
ZGSZ,2003-10-04 15:30,ZGSZ 041530Z 01003MPS 7000 FEW018 BKN043 25/19 Q1015 NOSIG
ZGSZ,2003-10-04 16:00,ZGSZ 041600Z 02003MPS 7000 BKN043 25/19 Q1015 NOSIG
ZGSZ,2003-10-04 17:00,ZGSZ 041700Z 01004MPS 7000 BKN046 25/18 Q1014 NOSIG
ZGSZ,2003-10-04 18:00,ZGSZ 041800Z 01004MPS 7000 BKN046 24/18 Q1014 NOSIG
ZGSZ,2003-10-04 19:00,ZGSZ 041900Z 02004MPS 7000 BKN046 24/18 Q1014 NOSIG
ZGSZ,2003-10-04 20:00,ZGSZ 042000Z 02006MPS 7000 BKN043 24/18 Q1014 NOSIG
ZGSZ,2003-10-04 21:00,ZGSZ 042100Z 01005MPS 6000 BKN040 24/18 Q1014 NOSIG
ZGSZ,2003-10-04 22:00,ZGSZ 042200Z 02004MPS 6000 BKN040 23/18 Q1015 NOSIG
ZGSZ,2003-10-04 23:00,ZGSZ 042300Z 02004MPS 7000 NSC 23/18 Q1015 NOSIG
ZGSZ,2003-10-05 00:00,ZGSZ 050000Z 02005MPS 6000 SKC 23/18 Q1015 NOSIG
ZGSZ,2003-10-05 01:00,ZGSZ 050100Z 01006MPS CAVOK 24/18 Q1016 NOSIG
ZGSZ,2003-10-05 02:00,ZGSZ 050200Z 02005MPS CAVOK 26/18 Q1015 NOSIG
ZGSZ,2003-10-05 03:00,ZGSZ 050300Z 03005MPS 9999 FEW026 27/19 Q1015 NOSIG
ZGSZ,2003-10-05 04:00,ZGSZ 050400Z 03005MPS 9999 FEW026 28/18 Q1014 NOSIG
ZGSZ,2003-10-05 05:00,ZGSZ 050500Z 03005MPS 9999 SCT025 28/19 Q1013 NOSIG
ZGSZ,2003-10-05 06:00,ZGSZ 050600Z 02006MPS 9999 SCT025 29/19 Q1012 NOSIG
ZGSZ,2003-10-05 07:00,ZGSZ 050700Z 03005MPS 9999 SCT025 29/18 Q1011 NOSIG
ZGSZ,2003-10-05 08:00,ZGSZ 050800Z 05005MPS 9999 FEW026 30/18 Q1011 NOSIG
ZGSZ,2003-10-05 09:00,ZGSZ 050900Z 06005MPS 9999 SCT023 29/18 Q1012 NOSIG
ZGSZ,2003-10-05 10:00,ZGSZ 051000Z 06004MPS CAVOK 28/18 Q1012 NOSIG
ZGSZ,2003-10-05 11:00,ZGSZ 051100Z 07003MPS CAVOK 27/17 Q1012 NOSIG
ZGSZ,2003-10-05 12:00,ZGSZ 051200Z 04003MPS CAVOK 26/18 Q1013 NOSIG
ZGSZ,2003-10-05 13:00,ZGSZ 051300Z 01003MPS CAVOK 26/18 Q1014 NOSIG
ZGSZ,2003-10-05 14:00,ZGSZ 051400Z 01004MPS CAVOK 26/18 Q1014 NOSIG
ZGSZ,2003-10-05 15:00,ZGSZ 051500Z 01004MPS CAVOK 26/18 Q1014 NOSIG
ZGSZ,2003-10-05 16:00,ZGSZ 051600Z 02004MPS CAVOK 25/16 Q1014 NOSIG
ZGSZ,2003-10-05 17:00,ZGSZ 051700Z 02005MPS CAVOK 24/16 Q1013 NOSIG
ZGSZ,2003-10-05 18:00,ZGSZ 051800Z 03004MPS CAVOK 24/16 Q1013 NOSIG
ZGSZ,2003-10-05 19:00,ZGSZ 051900Z 01004MPS CAVOK 24/16 Q1013 NOSIG
ZGSZ,2003-10-05 20:00,ZGSZ 052000Z 36005MPS CAVOK 23/17 Q1013 NOSIG
ZGSZ,2003-10-05 21:00,ZGSZ 052100Z 01003MPS CAVOK 23/17 Q1013 NOSIG
ZGSZ,2003-10-05 22:00,ZGSZ 052200Z 01004MPS CAVOK 23/17 Q1014 NOSIG
ZGSZ,2003-10-05 23:00,ZGSZ 052300Z 02004MPS CAVOK 23/17 Q1014 NOSIG
ZGSZ,2003-10-06 00:00,ZGSZ 060000Z 01005MPS CAVOK 23/17 Q1014 NOSIG
ZGSZ,2003-10-06 01:00,ZGSZ 060100Z 01005MPS CAVOK 24/17 Q1015 NOSIG
ZGSZ,2003-10-06 02:00,ZGSZ 060200Z 02005MPS CAVOK 26/18 Q1014 NOSIG
ZGSZ,2003-10-06 03:00,ZGSZ 060300Z 01003MPS CAVOK 27/17 Q1014 NOSIG
ZGSZ,2003-10-06 04:00,ZGSZ 060400Z 03004MPS CAVOK 28/18 Q1013 NOSIG
ZGSZ,2003-10-06 05:00,ZGSZ 060500Z 36003MPS CAVOK 29/18 Q1012 NOSIG
ZGSZ,2003-10-06 06:00,ZGSZ 060600Z 01005MPS CAVOK 29/18 Q1011 NOSIG
ZGSZ,2003-10-06 07:00,ZGSZ 060700Z 03005MPS CAVOK 29/18 Q1010 NOSIG
ZGSZ,2003-10-06 08:00,ZGSZ 060800Z 02005MPS 9999 SCT023 BKN110 29/17 Q1010 NOSIG
ZGSZ,2003-10-06 09:00,ZGSZ 060900Z 01005MPS 9999 FEW026 FEW033TCU 28/17 Q1011 NOSIG
ZGSZ,2003-10-06 10:00,ZGSZ 061000Z 03005MPS 9999 SCT026 27/17 Q1011 NOSIG
ZGSZ,2003-10-06 11:00,ZGSZ 061100Z 01005MPS 9999 SCT023 27/17 Q1012 NOSIG
ZGSZ,2003-10-06 12:00,ZGSZ 061200Z 02006MPS CAVOK 26/17 Q1013 NOSIG
ZGSZ,2003-10-06 13:00,ZGSZ 061300Z 02005MPS CAVOK 25/16 Q1013 NOSIG
ZGSZ,2003-10-06 14:00,ZGSZ 061400Z 02005MPS CAVOK 24/16 Q1014 NOSIG
ZGSZ,2003-10-06 15:00,ZGSZ 061500Z 05003MPS CAVOK 24/16 Q1014 NOSIG
ZGSZ,2003-10-06 16:00,ZGSZ 061600Z 02005MPS CAVOK 23/15 Q1014 NOSIG
ZGSZ,2003-10-06 17:00,ZGSZ 061700Z 02004MPS CAVOK 22/15 Q1013 NOSIG
ZGSZ,2003-10-06 18:00,ZGSZ 061800Z 02004MPS CAVOK 22/15 Q1013 NOSIG
ZGSZ,2003-10-06 19:00,ZGSZ 061900Z 01004MPS 8000 SKC 22/15 Q1012 NOSIG
ZGSZ,2003-10-06 20:00,ZGSZ 062000Z 03004MPS 8000 SKC 21/15 Q1012 NOSIG
ZGSZ,2003-10-06 21:00,ZGSZ 062100Z 04003MPS CAVOK 21/15 Q1012 NOSIG
ZGSZ,2003-10-06 22:00,ZGSZ 062200Z 01004MPS CAVOK 21/15 Q1012 NOSIG
ZGSZ,2003-10-06 23:00,ZGSZ 062300Z 01004MPS 8000 SKC 21/15 Q1013 NOSIG
ZGSZ,2003-10-07 00:00,ZGSZ 070000Z 01005MPS 6000 SKC 22/16 Q1014 NOSIG
ZGSZ,2003-10-07 01:00,ZGSZ 070100Z 02004MPS CAVOK 23/16 Q1014 NOSIG
ZGSZ,2003-10-07 02:00,ZGSZ 070200Z 05003MPS CAVOK 24/16 Q1014 NOSIG
ZGSZ,2003-10-07 03:00,ZGSZ 070300Z 01004MPS CAVOK 26/17 Q1014 NOSIG
ZGSZ,2003-10-07 04:00,ZGSZ 070400Z 35004MPS CAVOK 27/17 Q1013 NOSIG
ZGSZ,2003-10-07 05:00,ZGSZ 070500Z 36003MPS CAVOK 27/17 Q1012 NOSIG
ZGSZ,2003-10-07 06:00,ZGSZ 070600Z 30005MPS CAVOK 28/17 Q1011 NOSIG
ZGSZ,2003-10-07 07:00,ZGSZ 070700Z 34004MPS CAVOK 28/17 Q1010 NOSIG
ZGSZ,2003-10-07 08:00,ZGSZ 070800Z 34004MPS CAVOK 28/18 Q1010 NOSIG
ZGSZ,2003-10-07 09:00,ZGSZ 070900Z 31004MPS CAVOK 28/18 Q1010 NOSIG
ZGSZ,2003-10-07 10:00,ZGSZ 071000Z 33003MPS CAVOK 27/19 Q1010 NOSIG
ZGSZ,2003-10-07 11:00,ZGSZ 071100Z 01002MPS CAVOK 27/17 Q1010 NOSIG
ZGSZ,2003-10-07 12:00,ZGSZ 071200Z 35003MPS CAVOK 25/18 Q1011 NOSIG
ZGSZ,2003-10-07 13:00,ZGSZ 071300Z 01004MPS CAVOK 25/18 Q1011 NOSIG
ZGSZ,2003-10-07 14:00,ZGSZ 071400Z 36004MPS 5000 HZ SKC 25/17 Q1012 NOSIG
ZGSZ,2003-10-07 15:00,ZGSZ 071500Z 02003MPS 5000 HZ SKC 24/17 Q1012 NOSIG
ZGSZ,2003-10-07 16:00,ZGSZ 071600Z 01002MPS 6000 SKC 23/18 Q1012 NOSIG
ZGSZ,2003-10-07 17:00,ZGSZ 071700Z 01001MPS 7000 SKC 23/18 Q1011 NOSIG
ZGSZ,2003-10-07 18:00,ZGSZ 071800Z 01001MPS 7000 SKC 23/18 Q1011 NOSIG
ZGSZ,2003-10-07 19:00,ZGSZ 071900Z 01004MPS 7000 SKC 23/18 Q1011 NOSIG
ZGSZ,2003-10-07 20:00,ZGSZ 072000Z 02004MPS 7000 SKC 22/17 Q1011 NOSIG
ZGSZ,2003-10-07 21:00,ZGSZ 072100Z 02004MPS 7000 SKC 22/17 Q1011 NOSIG
ZGSZ,2003-10-07 22:00,ZGSZ 072200Z 01003MPS 6000 SKC 22/17 Q1012 NOSIG
ZGSZ,2003-10-07 23:00,ZGSZ 072300Z 02004MPS 7000 SKC 22/17 Q1012 NOSIG
ZGSZ,2003-10-08 00:00,ZGSZ 080000Z 01002MPS 7000 SKC 23/17 Q1013 NOSIG
ZGSZ,2003-10-08 01:00,ZGSZ 080100Z 01002MPS 4500 BR NSC 23/18 Q1014 NOSIG
ZGSZ,2003-10-08 02:00,ZGSZ 080200Z 01003MPS 4000 HZ NSC 25/18 Q1014 NOSIG
ZGSZ,2003-10-08 03:00,ZGSZ 080300Z 36002MPS 5000 HZ NSC 26/18 Q1013 NOSIG
ZGSZ,2003-10-08 04:00,ZGSZ 080400Z 10001MPS 5000 HZ FEW030 BKN250 28/18 Q1012 NOSIG
ZGSZ,2003-10-08 05:00,ZGSZ 080500Z 01001MPS 6000 NSC 29/20 Q1011 NOSIG
ZGSZ,2003-10-08 06:00,ZGSZ 080600Z 31004MPS 6000 FEW026 BKN053 29/19 Q1010 NOSIG
ZGSZ,2003-10-08 07:00,ZGSZ 080700Z 30005MPS 5000 HZ BKN026 BKN260 29/20 Q1009 NOSIG
ZGSZ,2003-10-08 08:00,ZGSZ 080800Z 29003MPS 6000 NSC 28/20 Q1009 NOSIG
ZGSZ,2003-10-08 09:00,ZGSZ 080900Z 26002MPS 6000 BKN026 FEW033TCU BKN100 28/21 Q1009 NOSIG
ZGSZ,2003-10-08 10:00,ZGSZ 081000Z 19002MPS 7000 BKN030 BKN100 27/21 Q1009 NOSIG
ZGSZ,2003-10-08 11:00,ZGSZ 081100Z 20002MPS 6000 SCT030 BKN100 27/21 Q1010 NOSIG
ZGSZ,2003-10-08 12:00,ZGSZ 081200Z 16002MPS 6000 FEW030 BKN100 27/21 Q1010 NOSIG
ZGSZ,2003-10-08 13:00,ZGSZ 081300Z 10003MPS 5000 HZ NSC 27/20 Q1011 NOSIG
ZGSZ,2003-10-08 14:00,ZGSZ 081400Z 09002MPS CAVOK 26/21 Q1011 NOSIG
ZGSZ,2003-10-08 15:00,ZGSZ 081500Z 09003MPS CAVOK 26/21 Q1011 NOSIG
ZGSZ,2003-10-08 16:00,ZGSZ 081600Z 09002MPS CAVOK 26/21 Q1011 NOSIG
ZGSZ,2003-10-08 17:00,ZGSZ 081700Z 04001MPS CAVOK 25/21 Q1010 NOSIG
ZGSZ,2003-10-08 18:00,ZGSZ 081800Z 02001MPS CAVOK 24/21 Q1010 NOSIG
ZGSZ,2003-10-08 19:00,ZGSZ 081900Z 36003MPS CAVOK 25/21 Q1010 NOSIG
ZGSZ,2003-10-08 20:00,ZGSZ 082000Z 36002MPS CAVOK 25/21 Q1010 NOSIG
ZGSZ,2003-10-08 21:00,ZGSZ 082100Z 36003MPS CAVOK 25/21 Q1011 NOSIG
ZGSZ,2003-10-08 22:00,ZGSZ 082200Z 36003MPS CAVOK 25/21 Q1011 NOSIG
ZGSZ,2003-10-08 23:00,ZGSZ 082300Z 01003MPS CAVOK 25/21 Q1011 NOSIG
ZGSZ,2003-10-09 00:00,ZGSZ 090000Z 08003MPS CAVOK 26/21 Q1012 NOSIG
ZGSZ,2003-10-09 01:00,ZGSZ 090100Z 02004MPS 5000 BR SKC 27/22 Q1012 NOSIG
ZGSZ,2003-10-09 02:00,ZGSZ 090200Z 05002MPS 6000 SCT023 29/21 Q1012 NOSIG
ZGSZ,2003-10-09 03:00,ZGSZ 090300Z 11003MPS 9999 SCT023 30/21 Q1011 NOSIG
ZGSZ,2003-10-09 04:00,ZGSZ 090400Z 07003MPS 9999 SCT023 FEW030TCU 30/20 Q1011 NOSIG
ZGSZ,2003-10-09 05:00,ZGSZ 090500Z 21002MPS 9999 FEW030TCU BKN070 31/23 Q1010 NOSIG
ZGSZ,2003-10-09 06:00,ZGSZ 090600Z 25002MPS 9999 FEW023 BKN060 30/22 Q1009 NOSIG
ZGSZ,2003-10-09 07:00,ZGSZ 090700Z 22004MPS 9999 BKN023 FEW030TCU 29/23 Q1009 NOSIG
ZGSZ,2003-10-09 08:00,ZGSZ 090800Z 17005MPS 9999 SCT023 FEW033TCU 30/21 Q1009 NOSIG
ZGSZ,2003-10-09 09:00,ZGSZ 090900Z 11004MPS 9999 FEW030 SCT100 30/21 Q1008 NOSIG
ZGSZ,2003-10-09 10:00,ZGSZ 091000Z 11005MPS CAVOK 29/21 Q1009 NOSIG
ZGSZ,2003-10-09 11:00,ZGSZ 091100Z 11004G09MPS CAVOK 28/21 Q1009 NOSIG
ZGSZ,2003-10-09 12:00,ZGSZ 091200Z 10003MPS CAVOK 28/21 Q1010 NOSIG
ZGSZ,2003-10-09 13:00,ZGSZ 091300Z 10003MPS CAVOK 28/21 Q1011 NOSIG
ZGSZ,2003-10-09 14:00,ZGSZ 091400Z 16001MPS CAVOK 28/21 Q1011 NOSIG
ZGSZ,2003-10-09 15:00,ZGSZ 091500Z 11002MPS 9999 FEW026 27/21 Q1011 NOSIG
ZGSZ,2003-10-09 16:00,ZGSZ 091600Z 10002MPS 9999 FEW026 BKN130 27/21 Q1011 NOSIG
ZGSZ,2003-10-09 18:00,ZGSZ 091800Z 00000MPS CAVOK 27/21 Q1010 NOSIG
ZGSZ,2003-10-09 19:00,ZGSZ 091900Z 01002MPS CAVOK 26/21 Q1009 NOSIG
ZGSZ,2003-10-09 20:00,ZGSZ 092000Z 07003MPS CAVOK 25/21 Q1009 NOSIG
ZGSZ,2003-10-09 21:00,ZGSZ 092100Z 08002MPS CAVOK 25/21 Q1009 NOSIG
ZGSZ,2003-10-09 22:00,ZGSZ 092200Z 03001MPS CAVOK 26/21 Q1010 NOSIG
ZGSZ,2003-10-09 23:00,ZGSZ 092300Z 07003MPS CAVOK 26/21 Q1010 NOSIG
ZGSZ,2003-10-10 00:00,ZGSZ 100000Z 12001MPS 9999 FEW030 BKN130 27/21 Q1011 NOSIG
ZGSZ,2003-10-10 01:00,ZGSZ 100100Z 10004MPS 9999 FEW026 SCT150 28/21 Q1011 NOSIG
ZGSZ,2003-10-10 02:00,ZGSZ 100200Z 10004MPS 9999 FEW023 BKN150 29/22 Q1011 NOSIG
ZGSZ,2003-10-10 03:00,ZGSZ 100300Z 10005MPS CAVOK 29/21 Q1011 NOSIG
ZGSZ,2003-10-10 04:00,ZGSZ 100400Z 10006MPS CAVOK 30/22 Q1010 NOSIG
ZGSZ,2003-10-10 05:00,ZGSZ 100500Z 13006MPS 9999 FEW020 BKN110 30/22 Q1009 NOSIG
ZGSZ,2003-10-10 06:00,ZGSZ 100600Z 11007MPS 9999 FEW023 BKN100 30/22 Q1008 NOSIG
ZGSZ,2003-10-10 07:00,ZGSZ 100700Z 10007MPS 9999 FEW023 BKN100 30/22 Q1008 NOSIG
ZGSZ,2003-10-10 08:00,ZGSZ 100800Z 12004MPS 9999 FEW023 BKN100 29/21 Q1008 NOSIG
ZGSZ,2003-10-10 09:00,ZGSZ 100900Z 10004MPS 9999 SCT020 BKN060 29/21 Q1008 NOSIG
ZGSZ,2003-10-10 10:00,ZGSZ 101000Z 11004MPS 9999 FEW020 BKN053 29/21 Q1008 NOSIG
ZGSZ,2003-10-10 11:00,ZGSZ 101100Z 11005MPS 9999 FEW020 BKN053 28/21 Q1008 NOSIG
ZGSZ,2003-10-10 12:00,ZGSZ 101200Z 11004MPS CAVOK 28/21 Q1008 NOSIG
ZGSZ,2003-10-10 13:00,ZGSZ 101300Z 11004MPS 9999 FEW020 BKN070 28/22 Q1009 NOSIG
ZGSZ,2003-10-10 14:00,ZGSZ 101400Z 09003MPS 9999 SCT020 BKN060 28/22 Q1010 NOSIG
ZGSZ,2003-10-10 15:00,ZGSZ 101500Z 10004MPS 9999 SCT020 BKN060 28/22 Q1009 NOSIG
ZGSZ,2003-10-10 16:00,ZGSZ 101600Z 11005MPS 9999 SCT020 BKN053 27/22 Q1009 NOSIG
ZGSZ,2003-10-10 17:00,ZGSZ 101700Z 17003MPS 9999 SCT020 BKN053 28/22 Q1009 NOSIG
ZGSZ,2003-10-10 18:00,ZGSZ 101800Z 12003MPS 9999 SCT020 BKN053 27/22 Q1008 NOSIG
ZGSZ,2003-10-10 19:00,ZGSZ 101900Z 10004MPS 9999 SCT018 BKN043 27/23 Q1008 NOSIG
ZGSZ,2003-10-10 20:00,ZGSZ 102000Z 10003MPS 9999 SCT018 BKN043 26/23 Q1008 NOSIG
ZGSZ,2003-10-10 21:00,ZGSZ 102100Z 10004MPS 9999 SCT018 BKN043 26/23 Q1008 NOSIG
ZGSZ,2003-10-10 22:00,ZGSZ 102200Z 10004MPS 9999 SCT018 BKN043 26/23 Q1008 NOSIG
ZGSZ,2003-10-10 23:00,ZGSZ 102300Z 10004MPS 9999 FEW018 BKN050 26/23 Q1008 NOSIG
ZGSZ,2003-10-11 00:00,ZGSZ 110000Z 10005MPS 9999 FEW018 BKN053 27/23 Q1009 NOSIG
ZGSZ,2003-10-11 01:00,ZGSZ 110100Z 11005MPS 9999 BKN026 28/23 Q1009 NOSIG
ZGSZ,2003-10-11 02:00,ZGSZ 110200Z 10006MPS 9999 SCT026 SCT260 29/24 Q1009 NOSIG
ZGSZ,2003-10-11 03:00,ZGSZ 110300Z 10005MPS 6000 -TSRA BKN020 FEW033CB 28/24 Q1009 NOSIG
ZGSZ,2003-10-11 04:00,ZGSZ 110400Z 12004MPS 9999 -TSRA BKN017 FEW040CB BKN050 26/24 Q1008 NOSIG
ZGSZ,2003-10-11 05:00,ZGSZ 110500Z 16004MPS 9999 -TSRA FEW010 BKN017 FEW036CB KN050 27/25 Q1008 NOSIG
ZGSZ,2003-10-11 06:00,ZGSZ 110600Z 14005MPS 9999 FEW010 BKN016 FEW036CB BKN050 26/24 Q1007 RETS NOSIG
ZGSZ,2003-10-11 07:00,ZGSZ 110700Z 18005MPS 9999 -TS FEW012 BKN020 FEW043CB BKN050 27/24 Q1006 NOSIG
ZGSZ,2003-10-11 08:00,ZGSZ 110800Z 16006MPS 9999 FEW010 BKN020 FEW043CB BKN050 27/25 Q1006 RETS NOSIG
ZGSZ,2003-10-11 09:00,ZGSZ 110900Z 17004MPS 9999 BKN016 BKN100 27/25 Q1006 NOSIG
ZGSZ,2003-10-11 10:00,ZGSZ 111000Z 17004MPS 9999 FEW010 SCT026 BKN100 27/24 Q1006 NOSIG
ZGSZ,2003-10-11 11:00,ZGSZ 111100Z 17004MPS 9999 FEW010 BKN020 BKN100 27/24 Q1007 NOSIG
ZGSZ,2003-10-11 12:00,ZGSZ 111200Z 14005MPS 9999 BKN023 BKN100 27/24 Q1007 NOSIG
ZGSZ,2003-10-11 13:00,ZGSZ 111300Z 14003MPS 9999 FEW026 BKN100 27/24 Q1008 NOSIG
ZGSZ,2003-10-11 14:00,ZGSZ 111400Z 17005MPS CAVOK 27/24 Q1008 NOSIG
ZGSZ,2003-10-11 15:00,ZGSZ 111500Z 14003MPS CAVOK 26/24 Q1008 NOSIG
ZGSZ,2003-10-11 16:00,ZGSZ 111600Z 14002MPS CAVOK 26/24 Q1008 NOSIG
ZGSZ,2003-10-11 17:00,ZGSZ 111700Z 14003MPS CAVOK 26/24 Q1008 NOSIG
ZGSZ,2003-10-11 18:00,ZGSZ 111800Z 15004MPS CAVOK 27/24 Q1008 NOSIG
ZGSZ,2003-10-11 19:00,ZGSZ 111900Z 17003MPS CAVOK 26/23 Q1008 NOSIG
ZGSZ,2003-10-11 20:00,ZGSZ 112000Z 00000MPS CAVOK 26/23 Q1007 NOSIG
ZGSZ,2003-10-11 21:00,ZGSZ 112100Z 09002MPS 6000 SCT020 26/23 Q1008 NOSIG
ZGSZ,2003-10-11 22:00,ZGSZ 112200Z 13002MPS 9999 SCT020 BKN120 26/23 Q1008 NOSIG
ZGSZ,2003-10-11 23:00,ZGSZ 112300Z 12002MPS 9999 FEW020 SCT120 26/23 Q1009 NOSIG
ZGSZ,2003-10-12 00:00,ZGSZ 120000Z 11002MPS 9999 FEW020 27/24 Q1009 NOSIG
ZGSZ,2003-10-12 01:00,ZGSZ 120100Z 16003MPS 9999 SCT020 28/24 Q1010 NOSIG
ZGSZ,2003-10-12 02:00,ZGSZ 120200Z 17003MPS 9999 FEW022 28/24 Q1010 NOSIG
ZGSZ,2003-10-12 03:00,ZGSZ 120300Z 18003MPS 9999 FEW022 29/24 Q1010 NOSIG
ZGSZ,2003-10-12 04:00,ZGSZ 120400Z 20004MPS 9999 FEW022 29/25 Q1009 NOSIG
ZGSZ,2003-10-12 05:00,ZGSZ 120500Z 18005MPS 9999 FEW022 29/25 Q1009 NOSIG
ZGSZ,2003-10-12 06:00,ZGSZ 120600Z 18006MPS 9999 FEW023 29/25 Q1008 NOSIG
ZGSZ,2003-10-12 07:00,ZGSZ 120700Z 18006MPS CAVOK 29/24 Q1007 NOSIG
ZGSZ,2003-10-12 08:00,ZGSZ 120800Z 18006MPS CAVOK 29/24 Q1007 NOSIG
ZGSZ,2003-10-12 09:00,ZGSZ 120900Z 18005MPS 9999 FEW030 28/24 Q1008 NOSIG
ZGSZ,2003-10-12 10:00,ZGSZ 121000Z 18005MPS CAVOK 28/23 Q1008 NOSIG
ZGSZ,2003-10-12 11:00,ZGSZ 121100Z 17005MPS CAVOK 27/23 Q1008 NOSIG
ZGSZ,2003-10-12 12:00,ZGSZ 121200Z 14005MPS CAVOK 27/23 Q1009 NOSIG
ZGSZ,2003-10-12 13:00,ZGSZ 121300Z 15004MPS CAVOK 27/24 Q1010 NOSIG
ZGSZ,2003-10-12 14:00,ZGSZ 121400Z 14003MPS CAVOK 27/23 Q1010 NOSIG
ZGSZ,2003-10-12 15:00,ZGSZ 121500Z 14003MPS CAVOK 27/23 Q1010 NOSIG
ZGSZ,2003-10-12 16:00,ZGSZ 121600Z 13002MPS CAVOK 27/23 Q1010 NOSIG
ZGSZ,2003-10-12 17:00,ZGSZ 121700Z 13002MPS CAVOK 26/23 Q1010 NOSIG
ZGSZ,2003-10-12 18:00,ZGSZ 121800Z 14002MPS CAVOK 26/23 Q1010 NOSIG
ZGSZ,2003-10-12 19:00,ZGSZ 121900Z 13002MPS CAVOK 27/23 Q1010 NOSIG
ZGSZ,2003-10-12 20:00,ZGSZ 122000Z 00000MPS CAVOK 26/23 Q1010 NOSIG
ZGSZ,2003-10-12 21:00,ZGSZ 122100Z 00000MPS CAVOK 26/23 Q1010 NOSIG
ZGSZ,2003-10-12 22:00,ZGSZ 122200Z 14001MPS CAVOK 25/23 Q1011 NOSIG
ZGSZ,2003-10-12 23:00,ZGSZ 122300Z 09001MPS 6000 NSC 26/23 Q1011 NOSIG
ZGSZ,2003-10-13 00:00,ZGSZ 130000Z 08001MPS 7000 NSC 28/24 Q1012 NOSIG
ZGSZ,2003-10-13 01:00,ZGSZ 130100Z 22001MPS 9999 SCT023 28/24 Q1012 NOSIG
ZGSZ,2003-10-13 02:00,ZGSZ 130200Z 23002MPS 9999 FEW020 FEW026TCU BKN030 29/24 Q1013 NOSIG
ZGSZ,2003-10-13 03:00,ZGSZ 130300Z 26001MPS 9999 FEW021 BKN050 28/23 Q1013 NOSIG
ZGSZ,2003-10-13 04:00,ZGSZ 130400Z 24002MPS 9999 FEW023 BKN050 29/24 Q1012 NOSIG
ZGSZ,2003-10-13 05:00,ZGSZ 130500Z 24002MPS 9999 FEW023 BKN060 30/24 Q1011 NOSIG
ZGSZ,2003-10-13 06:00,ZGSZ 130600Z 35007MPS 4500 BR FEW023 BKN053 28/24 Q1010 NOSIG
ZGSZ,2003-10-13 07:00,ZGSZ 130700Z 35005MPS 4000 BR NSC 28/22 Q1010 NOSIG
ZGSZ,2003-10-13 08:00,ZGSZ 130800Z 34007MPS 6000 NSC 28/21 Q1010 NOSIG
ZGSZ,2003-10-13 09:00,ZGSZ 130900Z 35005MPS 6000 NSC 27/21 Q1011 NOSIG
ZGSZ,2003-10-13 10:00,ZGSZ 131000Z 01006MPS 9999 BKN030 BKN100 26/20 Q1011 NOSIG
ZGSZ,2003-10-13 11:00,ZGSZ 131100Z 02006MPS 9999 BKN026 BKN100 25/19 Q1012 NOSIG
ZGSZ,2003-10-13 12:00,ZGSZ 131200Z 03004MPS 9999 SCT026 BKN060 24/19 Q1013 NOSIG
ZGSZ,2003-10-13 13:00,ZGSZ 131300Z 01005MPS CAVOK 24/18 Q1014 NOSIG
ZGSZ,2003-10-13 14:00,ZGSZ 131400Z 02005MPS CAVOK 23/17 Q1015 NOSIG
ZGSZ,2003-10-13 15:00,ZGSZ 131500Z 02005MPS CAVOK 22/16 Q1015 NOSIG
ZGSZ,2003-10-13 16:00,ZGSZ 131600Z 02005MPS CAVOK 22/16 Q1015 NOSIG
ZGSZ,2003-10-13 17:00,ZGSZ 131700Z 01006MPS CAVOK 21/15 Q1015 NOSIG
ZGSZ,2003-10-13 18:00,ZGSZ 131800Z 03005MPS CAVOK 21/15 Q1015 NOSIG
ZGSZ,2003-10-13 19:00,ZGSZ 131900Z 01007MPS CAVOK 20/14 Q1015 NOSIG
ZGSZ,2003-10-13 20:00,ZGSZ 132000Z 01005MPS CAVOK 20/14 Q1015 NOSIG
ZGSZ,2003-10-13 21:00,ZGSZ 132100Z 01007MPS CAVOK 20/14 Q1015 NOSIG
ZGSZ,2003-10-13 22:00,ZGSZ 132200Z 03006MPS CAVOK 20/13 Q1016 NOSIG
ZGSZ,2003-10-13 23:00,ZGSZ 132300Z 02007MPS CAVOK 20/12 Q1016 NOSIG
ZGSZ,2003-10-14 00:00,ZGSZ 140000Z 02006MPS CAVOK 20/12 Q1017 NOSIG
ZGSZ,2003-10-14 01:00,ZGSZ 140100Z 01006MPS 9999 FEW023 SCT040 20/13 Q1018 NOSIG
ZGSZ,2003-10-14 02:00,ZGSZ 140200Z 01007MPS 9999 FEW040 SCT120 22/14 Q1018 NOSIG
ZGSZ,2003-10-14 03:00,ZGSZ 140300Z 01007MPS 9999 FEW030 BKN050 22/14 Q1017 NOSIG
ZGSZ,2003-10-14 04:00,ZGSZ 140400Z 01007MPS 9999 BKN040 22/14 Q1017 NOSIG
ZGSZ,2003-10-14 05:00,ZGSZ 140500Z 02006MPS 9999 BKN040 22/13 Q1016 NOSIG
ZGSZ,2003-10-14 06:00,ZGSZ 140600Z 03007MPS 9999 BKN040 22/14 Q1016 NOSIG
ZGSZ,2003-10-14 07:00,ZGSZ 140700Z 03006MPS 9999 BKN040 22/13 Q1016 NOSIG
ZGSZ,2003-10-14 08:00,ZGSZ 140800Z 03006MPS 9999 BKN040 22/13 Q1016 NOSIG
ZGSZ,2003-10-14 09:00,ZGSZ 140900Z 02006MPS 9999 FEW018 BKN033 21/13 Q1016 NOSIG
ZGSZ,2003-10-14 10:00,ZGSZ 141000Z 02007MPS 9999 FEW018 BKN033 21/13 Q1016 NOSIG
ZGSZ,2003-10-14 11:00,ZGSZ 141100Z 03005MPS 9999 FEW018 BKN033 21/13 Q1017 NOSIG
ZGSZ,2003-10-14 12:00,ZGSZ 141200Z 03006MPS 9999 FEW018 BKN033 20/13 Q1018 NOSIG
ZGSZ,2003-10-14 13:00,ZGSZ 141300Z 02006MPS 9999 FEW018 BKN033 20/12 Q1018 NOSIG
ZGSZ,2003-10-14 14:00,ZGSZ 141400Z 02006MPS 9999 FEW018 BKN033 20/12 Q1019 NOSIG
ZGSZ,2003-10-14 15:00,ZGSZ 141500Z 02005MPS 9999 FEW018 BKN033 20/12 Q1019 NOSIG
ZGSZ,2003-10-14 16:00,ZGSZ 141600Z 03005MPS 9999 FEW018 BKN033 19/12 Q1019 NOSIG
ZGSZ,2003-10-14 17:00,ZGSZ 141700Z 01007MPS 9999 SCT017 BKN036 19/12 Q1019 NOSIG
ZGSZ,2003-10-14 18:00,ZGSZ 141800Z 01007MPS 9999 SCT017 BKN036 19/12 Q1018 NOSIG
ZGSZ,2003-10-14 19:00,ZGSZ 141900Z 02006MPS 9999 SCT017 BKN036 19/12 Q1018 NOSIG
ZGSZ,2003-10-14 20:00,ZGSZ 142000Z 02007MPS 9999 SCT017 BKN036 18/12 Q1017 NOSIG
ZGSZ,2003-10-14 21:00,ZGSZ 142100Z 02005MPS 9999 SCT017 BKN036 18/11 Q1018 NOSIG
ZGSZ,2003-10-14 22:00,ZGSZ 142200Z 02006MPS 9999 SCT017 BKN040 18/11 Q1018 NOSIG
ZGSZ,2003-10-14 23:00,ZGSZ 142300Z 02005MPS 9999 FEW018 BKN040 18/11 Q1019 NOSIG
ZGSZ,2003-10-15 00:00,ZGSZ 150000Z 01005MPS 9999 FEW018 BKN040 18/11 Q1020 NOSIG
ZGSZ,2003-10-15 01:00,ZGSZ 150100Z 02005MPS 9999 FEW018 BKN050 19/12 Q1020 NOSIG
ZGSZ,2003-10-15 02:00,ZGSZ 150200Z 03004MPS 9999 FEW020 BKN050 19/12 Q1021 NOSIG
ZGSZ,2003-10-15 03:00,ZGSZ 150300Z 04005MPS 9999 FEW020 OVC050 20/12 Q1020 NOSIG
ZGSZ,2003-10-15 04:00,ZGSZ 150400Z 05005MPS 9999 FEW016 OVC043 21/12 Q1019 NOSIG
ZGSZ,2003-10-15 05:00,ZGSZ 150500Z 03006MPS 9999 FEW016 OVC043 22/13 Q1018 NOSIG
ZGSZ,2003-10-15 06:00,ZGSZ 150600Z 04004MPS 9999 FEW016 OVC043 22/13 Q1017 NOSIG
ZGSZ,2003-10-15 07:00,ZGSZ 150700Z 03005MPS 9999 FEW026 BKN110 23/14 Q1016 NOSIG
ZGSZ,2003-10-15 08:00,ZGSZ 150800Z 04006MPS 9999 SCT040 BKN110 23/14 Q1016 NOSIG
ZGSZ,2003-10-15 09:00,ZGSZ 150900Z 03004MPS 9999 FEW033 BKN046 23/14 Q1016 NOSIG
ZGSZ,2003-10-15 10:00,ZGSZ 151000Z 04004MPS 9999 BKN046 22/14 Q1016 NOSIG
ZGSZ,2003-10-15 11:00,ZGSZ 151100Z 05003MPS 9999 OVC043 22/14 Q1016 NOSIG
ZGSZ,2003-10-15 12:00,ZGSZ 151200Z 05004MPS 9999 OVC043 22/14 Q1017 NOSIG
ZGSZ,2003-10-15 13:00,ZGSZ 151300Z 03003MPS 9999 OVC043 22/14 Q1017 NOSIG
ZGSZ,2003-10-15 14:00,ZGSZ 151400Z 02002MPS 9999 OVC043 22/14 Q1018 NOSIG
ZGSZ,2003-10-15 15:00,ZGSZ 151500Z 02002MPS 9999 OVC046 22/15 Q1018 NOSIG
ZGSZ,2003-10-15 16:00,ZGSZ 151600Z 01001MPS CAVOK 21/14 Q1018 NOSIG
ZGSZ,2003-10-15 17:00,ZGSZ 151700Z 02002MPS CAVOK 21/14 Q1017 NOSIG
ZGSZ,2003-10-15 18:00,ZGSZ 151800Z 36003MPS CAVOK 22/12 Q1017 NOSIG
ZGSZ,2003-10-15 19:00,ZGSZ 151900Z 01003MPS CAVOK 21/12 Q1017 NOSIG
ZGSZ,2003-10-15 20:00,ZGSZ 152000Z 01005MPS CAVOK 21/12 Q1016 NOSIG
ZGSZ,2003-10-15 21:00,ZGSZ 152100Z 01005MPS CAVOK 21/12 Q1017 NOSIG
ZGSZ,2003-10-15 22:00,ZGSZ 152200Z 01004MPS CAVOK 20/12 Q1017 NOSIG
ZGSZ,2003-10-15 23:00,ZGSZ 152300Z 01003MPS CAVOK 20/12 Q1018 NOSIG
ZGSZ,2003-10-16 00:00,ZGSZ 160000Z 02004MPS CAVOK 21/12 Q1019 NOSIG
ZGSZ,2003-10-16 01:00,ZGSZ 160100Z 01004MPS CAVOK 21/11 Q1019 NOSIG
ZGSZ,2003-10-16 02:00,ZGSZ 160200Z 02003MPS CAVOK 23/11 Q1019 NOSIG
ZGSZ,2003-10-16 03:00,ZGSZ 160300Z 02005MPS CAVOK 24/11 Q1018 NOSIG
ZGSZ,2003-10-16 04:00,ZGSZ 160400Z 01003MPS CAVOK 26/11 Q1017 NOSIG
ZGSZ,2003-10-16 05:00,ZGSZ 160500Z 01004MPS CAVOK 26/12 Q1016 NOSIG
ZGSZ,2003-10-16 06:00,ZGSZ 160600Z 05002MPS CAVOK 27/13 Q1015 NOSIG
ZGSZ,2003-10-16 07:00,ZGSZ 160700Z 35003MPS CAVOK 27/12 Q1014 NOSIG
ZGSZ,2003-10-16 08:00,ZGSZ 160800Z 04004MPS CAVOK 27/12 Q1014 NOSIG
ZGSZ,2003-10-16 09:00,ZGSZ 160900Z 01004MPS CAVOK 27/13 Q1013 NOSIG
ZGSZ,2003-10-16 10:00,ZGSZ 161000Z 03004MPS CAVOK 26/13 Q1014 NOSIG
ZGSZ,2003-10-16 11:00,ZGSZ 161100Z 04003MPS CAVOK 25/13 Q1014 NOSIG
ZGSZ,2003-10-16 12:00,ZGSZ 161200Z 07003MPS CAVOK 24/13 Q1015 NOSIG
ZGSZ,2003-10-16 13:00,ZGSZ 161300Z 04002MPS CAVOK 23/12 Q1016 NOSIG
ZGSZ,2003-10-16 14:00,ZGSZ 161400Z 19001MPS CAVOK 22/13 Q1016 NOSIG
ZGSZ,2003-10-16 15:00,ZGSZ 161500Z 36001MPS CAVOK 23/12 Q1016 NOSIG
ZGSZ,2003-10-16 16:00,ZGSZ 161600Z 36002MPS CAVOK 23/12 Q1016 NOSIG
ZGSZ,2003-10-16 17:00,ZGSZ 161700Z 03002MPS CAVOK 21/13 Q1015 NOSIG
ZGSZ,2003-10-16 18:00,ZGSZ 161800Z 01002MPS CAVOK 21/13 Q1015 NOSIG
ZGSZ,2003-10-16 19:00,ZGSZ 161900Z 01002MPS CAVOK 21/12 Q1015 NOSIG
ZGSZ,2003-10-16 20:00,ZGSZ 162000Z 02003MPS CAVOK 20/12 Q1015 NOSIG
ZGSZ,2003-10-16 21:00,ZGSZ 162100Z 02004MPS CAVOK 21/10 Q1015 NOSIG
ZGSZ,2003-10-16 22:00,ZGSZ 162200Z 03004MPS CAVOK 20/10 Q1016 NOSIG
ZGSZ,2003-10-16 23:00,ZGSZ 162300Z 02004MPS CAVOK 20/09 Q1016 NOSIG
ZGSZ,2003-10-17 00:00,ZGSZ 170000Z 01004MPS CAVOK 22/09 Q1017 NOSIG
ZGSZ,2003-10-17 01:00,ZGSZ 170100Z 03005MPS CAVOK 23/09 Q1017 NOSIG
ZGSZ,2003-10-17 02:00,ZGSZ 170200Z 04004MPS CAVOK 24/09 Q1017 NOSIG
ZGSZ,2003-10-17 03:00,ZGSZ 170300Z 36004MPS CAVOK 26/10 Q1017 NOSIG
ZGSZ,2003-10-17 04:00,ZGSZ 170400Z 02004MPS CAVOK 26/10 Q1016 NOSIG
ZGSZ,2003-10-17 05:00,ZGSZ 170500Z 01003MPS CAVOK 27/10 Q1015 NOSIG
ZGSZ,2003-10-17 06:00,ZGSZ 170600Z 02002MPS CAVOK 28/10 Q1014 NOSIG
ZGSZ,2003-10-17 07:00,ZGSZ 170700Z 33002MPS CAVOK 28/10 Q1013 NOSIG
ZGSZ,2003-10-17 08:00,ZGSZ 170800Z 34002MPS CAVOK 28/12 Q1013 NOSIG
ZGSZ,2003-10-17 09:00,ZGSZ 170900Z 31003MPS CAVOK 27/13 Q1013 NOSIG
ZGSZ,2003-10-17 10:00,ZGSZ 171000Z 36003MPS CAVOK 26/12 Q1013 NOSIG
ZGSZ,2003-10-17 11:00,ZGSZ 171100Z 04003MPS CAVOK 25/12 Q1014 NOSIG
ZGSZ,2003-10-17 12:00,ZGSZ 171200Z 04003MPS CAVOK 24/12 Q1014 NOSIG
ZGSZ,2003-10-17 13:00,ZGSZ 171300Z 03002MPS CAVOK 24/12 Q1015 NOSIG
ZGSZ,2003-10-17 14:00,ZGSZ 171400Z 18001MPS CAVOK 23/14 Q1016 NOSIG
ZGSZ,2003-10-17 15:00,ZGSZ 171500Z 00000MPS CAVOK 22/14 Q1016 NOSIG
ZGSZ,2003-10-17 16:00,ZGSZ 171600Z 06001MPS 5000 HZ SKC 24/13 Q1016 NOSIG
ZGSZ,2003-10-17 17:00,ZGSZ 171700Z 06001MPS 4000 HZ SKC 24/13 Q1016 NOSIG
ZGSZ,2003-10-17 18:00,ZGSZ 171800Z 06001MPS 4000 HZ SKC 24/13 Q1016 NOSIG
ZGSZ,2003-10-17 19:00,ZGSZ 171900Z 10002MPS 3500 HZ SKC 22/15 Q1015 NOSIG
ZGSZ,2003-10-17 20:00,ZGSZ 172000Z 04003MPS 4500 HZ SKC 21/14 Q1015 NOSIG
ZGSZ,2003-10-17 21:00,ZGSZ 172100Z 02003MPS 4500 HZ SKC 21/12 Q1015 NOSIG
ZGSZ,2003-10-17 22:00,ZGSZ 172200Z 03003MPS 6000 SKC 20/10 Q1016 NOSIG
ZGSZ,2003-10-17 23:00,ZGSZ 172300Z 01004MPS CAVOK 21/10 Q1016 NOSIG
ZGSZ,2003-10-18 00:00,ZGSZ 180000Z 04004MPS CAVOK 22/09 Q1017 NOSIG
ZGSZ,2003-10-18 01:00,ZGSZ 180100Z 03004MPS CAVOK 23/10 Q1017 NOSIG
ZGSZ,2003-10-18 02:00,ZGSZ 180200Z 04005MPS CAVOK 24/10 Q1017 NOSIG
ZGSZ,2003-10-18 03:00,ZGSZ 180300Z 02005MPS CAVOK 25/09 Q1017 NOSIG
ZGSZ,2003-10-18 04:00,ZGSZ 180400Z 02003MPS CAVOK 27/09 Q1015 NOSIG
ZGSZ,2003-10-18 05:00,ZGSZ 180500Z 02004MPS CAVOK 28/10 Q1014 NOSIG
ZGSZ,2003-10-18 06:00,ZGSZ 180600Z 01003MPS CAVOK 28/08 Q1013 NOSIG
ZGSZ,2003-10-18 07:00,ZGSZ 180700Z 36003MPS CAVOK 28/09 Q1013 NOSIG
ZGSZ,2003-10-18 08:00,ZGSZ 180800Z 05003MPS CAVOK 28/09 Q1013 NOSIG
ZGSZ,2003-10-18 09:00,ZGSZ 180900Z 02003MPS CAVOK 28/10 Q1013 NOSIG
ZGSZ,2003-10-18 10:00,ZGSZ 181000Z 04003MPS CAVOK 26/12 Q1014 NOSIG
ZGSZ,2003-10-18 11:00,ZGSZ 181100Z 09002MPS CAVOK 26/11 Q1014 NOSIG
ZGSZ,2003-10-18 12:00,ZGSZ 181200Z 10003MPS CAVOK 25/13 Q1015 NOSIG
ZGSZ,2003-10-18 13:00,ZGSZ 181300Z 13003MPS 6000 SKC 24/15 Q1016 NOSIG
ZGSZ,2003-10-18 14:00,ZGSZ 181400Z 00000MPS 6000 SKC 23/16 Q1016 NOSIG
ZGSZ,2003-10-18 15:00,ZGSZ 181500Z 00000MPS CAVOK 22/16 Q1016 NOSIG
ZGSZ,2003-10-18 16:00,ZGSZ 181600Z 03001MPS CAVOK 23/16 Q1017 NOSIG
ZGSZ,2003-10-18 17:00,ZGSZ 181700Z 03001MPS CAVOK 22/16 Q1016 NOSIG
ZGSZ,2003-10-18 18:00,ZGSZ 181800Z 01002MPS CAVOK 22/17 Q1016 NOSIG
ZGSZ,2003-10-18 19:00,ZGSZ 181900Z 36003MPS CAVOK 22/17 Q1016 NOSIG
ZGSZ,2003-10-18 20:00,ZGSZ 182000Z 01003MPS CAVOK 22/17 Q1016 NOSIG
ZGSZ,2003-10-18 21:00,ZGSZ 182100Z 05003MPS CAVOK 22/15 Q1016 NOSIG
ZGSZ,2003-10-18 22:00,ZGSZ 182200Z 36002MPS CAVOK 21/16 Q1016 NOSIG
ZGSZ,2003-10-18 23:00,ZGSZ 182300Z 01003MPS CAVOK 21/15 Q1017 NOSIG
ZGSZ,2003-10-19 00:00,ZGSZ 190000Z 04003MPS CAVOK 22/12 Q1017 NOSIG
ZGSZ,2003-10-19 01:00,ZGSZ 190100Z 04004MPS CAVOK 23/11 Q1017 NOSIG
ZGSZ,2003-10-19 02:00,ZGSZ 190200Z 02004MPS 7000 SKC 24/11 Q1017 NOSIG
ZGSZ,2003-10-19 03:00,ZGSZ 190300Z 02002MPS 7000 SKC 25/12 Q1017 NOSIG
ZGSZ,2003-10-19 04:00,ZGSZ 190400Z 36003MPS 7000 SKC 26/12 Q1015 NOSIG
ZGSZ,2003-10-19 05:00,ZGSZ 190500Z 03003MPS 7000 SKC 27/12 Q1014 NOSIG
ZGSZ,2003-10-19 06:00,ZGSZ 190600Z 01003MPS 7000 SKC 28/13 Q1013 NOSIG
ZGSZ,2003-10-19 07:00,ZGSZ 190700Z 01002MPS 7000 SKC 28/13 Q1013 NOSIG
ZGSZ,2003-10-19 08:00,ZGSZ 190800Z 04003MPS 7000 SKC 28/12 Q1012 NOSIG
ZGSZ,2003-10-19 09:00,ZGSZ 190900Z 04003MPS 7000 SKC 27/10 Q1013 NOSIG
ZGSZ,2003-10-19 10:00,ZGSZ 191000Z 06003MPS 4500 HZ SKC 26/11 Q1013 NOSIG
ZGSZ,2003-10-19 11:00,ZGSZ 191100Z 15003MPS 3500 HZ SKC 24/16 Q1014 NOSIG
ZGSZ,2003-10-19 12:00,ZGSZ 191200Z 12004MPS 3000 HZ SKC 24/14 Q1015 NOSIG
ZGSZ,2003-10-19 13:00,ZGSZ 191300Z 11004MPS 4000 HZ SKC 24/15 Q1016 NOSIG
ZGSZ,2003-10-19 14:00,ZGSZ 191400Z 10003MPS 3000 HZ SKC 23/15 Q1016 NOSIG
ZGSZ,2003-10-19 15:00,ZGSZ 191500Z 14001MPS 3000 HZ SKC 22/16 Q1016 NOSIG
ZGSZ,2003-10-19 16:00,ZGSZ 191600Z 09002MPS 3500 HZ SKC 23/16 Q1016 NOSIG
ZGSZ,2003-10-19 17:00,ZGSZ 191700Z 03001MPS 3000 BR SKC 22/16 Q1015 NOSIG
ZGSZ,2003-10-19 18:00,ZGSZ 191800Z 36003MPS 3000 HZ SKC 21/15 Q1015 NOSIG
ZGSZ,2003-10-19 19:00,ZGSZ 191900Z 01002MPS 3000 BR SKC 21/16 Q1015 NOSIG
ZGSZ,2003-10-19 20:00,ZGSZ 192000Z 36003MPS 3000 BR SKC 21/16 Q1015 NOSIG
ZGSZ,2003-10-19 21:00,ZGSZ 192100Z 36003MPS 2000 BR SKC 21/16 Q1015 NOSIG
ZGSZ,2003-10-19 22:00,ZGSZ 192200Z 36003MPS 2000 BR SKC 21/15 Q1015 NOSIG
ZGSZ,2003-10-19 23:00,ZGSZ 192300Z 36005MPS 2000 BR SKC 21/15 Q1016 NOSIG
ZGSZ,2003-10-20 00:00,ZGSZ 200000Z 36003MPS 1800 BR SKC 21/16 Q1016 NOSIG
ZGSZ,2003-10-20 01:00,ZGSZ 200100Z 02004MPS 2200 HZ SKC 23/16 Q1016 NOSIG
ZGSZ,2003-10-20 02:00,ZGSZ 200200Z 02003MPS 2500 HZ SKC 24/14 Q1017 NOSIG
ZGSZ,2003-10-20 03:00,ZGSZ 200300Z 34003MPS 4000 HZ SKC 25/13 Q1016 NOSIG
ZGSZ,2003-10-20 04:00,ZGSZ 200400Z 35003MPS 5000 HZ SKC 26/13 Q1014 NOSIG
ZGSZ,2003-10-20 05:00,ZGSZ 200500Z 36003MPS 6000 SKC 27/13 Q1013 NOSIG
ZGSZ,2003-10-20 06:00,ZGSZ 200600Z 36004MPS 7000 SKC 28/12 Q1012 NOSIG
ZGSZ,2003-10-20 07:00,ZGSZ 200700Z 03003MPS 8000 SKC 28/10 Q1011 NOSIG
ZGSZ,2003-10-20 08:00,ZGSZ 200800Z 01002MPS CAVOK 28/11 Q1011 NOSIG
ZGSZ,2003-10-20 09:00,ZGSZ 200900Z 01003MPS CAVOK 27/11 Q1011 NOSIG
ZGSZ,2003-10-20 10:00,ZGSZ 201000Z 04002MPS CAVOK 26/12 Q1012 NOSIG
ZGSZ,2003-10-20 11:00,ZGSZ 201100Z 05002MPS 5000 HZ SKC 25/12 Q1012 NOSIG
ZGSZ,2003-10-20 12:00,ZGSZ 201200Z 05002MPS 5000 HZ SKC 24/13 Q1013 NOSIG
ZGSZ,2003-10-20 13:00,ZGSZ 201300Z 04001MPS 5000 HZ SKC 25/12 Q1013 NOSIG
ZGSZ,2003-10-20 14:00,ZGSZ 201400Z 14002MPS 2500 HZ SKC 22/16 Q1014 NOSIG
ZGSZ,2003-10-20 15:00,ZGSZ 201500Z 13003MPS 3000 HZ SKC 23/15 Q1014 NOSIG
ZGSZ,2003-10-20 16:00,ZGSZ 201600Z 12003MPS 5000 HZ SKC 23/15 Q1014 NOSIG
ZGSZ,2003-10-20 17:00,ZGSZ 201700Z 12002MPS 6000 SKC 22/15 Q1014 NOSIG
ZGSZ,2003-10-20 18:00,ZGSZ 201800Z 07001MPS 6000 SKC 22/15 Q1013 NOSIG
ZGSZ,2003-10-20 19:00,ZGSZ 201900Z 09002MPS 6000 SKC 22/16 Q1013 NOSIG
ZGSZ,2003-10-20 20:00,ZGSZ 202000Z 33001MPS 6000 SKC 21/17 Q1013 NOSIG
ZGSZ,2003-10-20 21:00,ZGSZ 202100Z 36003MPS 6000 SKC 21/16 Q1014 NOSIG
ZGSZ,2003-10-20 22:00,ZGSZ 202200Z 01003MPS 6000 SKC 21/16 Q1014 NOSIG
ZGSZ,2003-10-20 23:00,ZGSZ 202300Z 01003MPS 4000 BR SKC 21/16 Q1015 NOSIG
ZGSZ,2003-10-21 00:00,ZGSZ 210000Z 07002MPS 4000 BR SKC 21/16 Q1015 NOSIG
ZGSZ,2003-10-21 01:00,ZGSZ 210100Z 01004MPS 5000 HZ SKC 23/16 Q1016 NOSIG
ZGSZ,2003-10-21 02:00,ZGSZ 210200Z 03003MPS 5000 HZ SKC 25/14 Q1016 NOSIG
ZGSZ,2003-10-21 03:00,ZGSZ 210300Z 01004MPS 5000 HZ SKC 26/14 Q1015 NOSIG
ZGSZ,2003-10-21 04:00,ZGSZ 210400Z 05004MPS 6000 SKC 27/13 Q1014 NOSIG
ZGSZ,2003-10-21 05:00,ZGSZ 210500Z 02003MPS CAVOK 28/12 Q1013 NOSIG
ZGSZ,2003-10-21 06:00,ZGSZ 210600Z 03003MPS CAVOK 28/13 Q1012 NOSIG
ZGSZ,2003-10-21 07:00,ZGSZ 210700Z 02003MPS CAVOK 29/12 Q1011 NOSIG
ZGSZ,2003-10-21 08:00,ZGSZ 210800Z 06004MPS CAVOK 29/12 Q1011 NOSIG
ZGSZ,2003-10-21 09:00,ZGSZ 210900Z 04003MPS 7000 SKC 28/12 Q1011 NOSIG
ZGSZ,2003-10-21 10:00,ZGSZ 211000Z 03003MPS 5000 NSC 26/13 Q1012 NOSIG
ZGSZ,2003-10-21 11:00,ZGSZ 211100Z 08002MPS 3800 HZ NSC 25/13 Q1012 NOSIG
ZGSZ,2003-10-21 12:00,ZGSZ 211200Z 10002MPS 3800 HZ SKC 24/13 Q1013 NOSIG
ZGSZ,2003-10-21 13:00,ZGSZ 211300Z 10002MPS 3500 HZ SKC 25/13 Q1014 NOSIG
ZGSZ,2003-10-21 14:00,ZGSZ 211400Z 10002MPS 3200 HZ SKC 24/15 Q1014 NOSIG
ZGSZ,2003-10-21 15:00,ZGSZ 211500Z 13001MPS 3800 HZ SKC 23/16 Q1014 NOSIG
ZGSZ,2003-10-21 16:00,ZGSZ 211600Z 13002MPS 2800 HZ SKC 22/16 Q1014 NOSIG
ZGSZ,2003-10-21 17:00,ZGSZ 211700Z 11002MPS 2500 BR SKC 22/16 Q1014 NOSIG
ZGSZ,2003-10-21 18:00,ZGSZ 211800Z 10002MPS 2500 HZ SKC 22/16 Q1014 NOSIG
ZGSZ,2003-10-21 19:00,ZGSZ 211900Z 13001MPS 2800 BR SKC 21/16 Q1014 NOSIG
ZGSZ,2003-10-21 20:00,ZGSZ 212000Z 00000MPS 2600 BR SKC 21/16 Q1014 NOSIG
ZGSZ,2003-10-21 21:00,ZGSZ 212100Z 10001MPS 2800 BR SKC 21/17 Q1014 NOSIG
ZGSZ,2003-10-21 22:00,ZGSZ 212200Z 11001MPS 3000 BR SKC 21/17 Q1015 NOSIG
ZGSZ,2003-10-21 23:00,ZGSZ 212300Z 01002MPS 3000 BR SKC 21/17 Q1016 NOSIG
ZGSZ,2003-10-22 00:00,ZGSZ 220000Z 06002MPS 3200 BR SKC 22/17 Q1016 NOSIG
ZGSZ,2003-10-22 01:00,ZGSZ 220100Z 07003MPS 2500 HZ SKC 23/17 Q1017 NOSIG
ZGSZ,2003-10-22 02:00,ZGSZ 220200Z 05003MPS 3000 HZ SKC 25/15 Q1017 NOSIG
ZGSZ,2003-10-22 03:00,ZGSZ 220300Z 05002MPS 3500 HZ SKC 26/12 Q1016 NOSIG
ZGSZ,2003-10-22 04:00,ZGSZ 220400Z 01003MPS 3500 HZ SKC 27/11 Q1015 NOSIG
ZGSZ,2003-10-22 05:00,ZGSZ 220500Z 01003MPS 4000 HZ SKC 28/11 Q1014 NOSIG
ZGSZ,2003-10-22 06:00,ZGSZ 220600Z 02002MPS 4000 HZ SKC 28/12 Q1013 NOSIG
ZGSZ,2003-10-22 07:00,ZGSZ 220700Z 02004MPS 4500 HZ SKC 29/11 Q1012 NOSIG
ZGSZ,2003-10-22 08:00,ZGSZ 220800Z 04004MPS 5000 HZ SKC 29/12 Q1012 NOSIG
ZGSZ,2003-10-22 09:00,ZGSZ 220900Z 05004MPS 6000 SKC 28/12 Q1012 NOSIG
ZGSZ,2003-10-22 10:00,ZGSZ 221000Z 04003MPS 6000 SKC 27/12 Q1013 NOSIG
ZGSZ,2003-10-22 11:00,ZGSZ 221100Z 05001MPS 6000 SKC 25/13 Q1014 NOSIG
ZGSZ,2003-10-22 12:00,ZGSZ 221200Z 07001MPS 3000 HZ SKC 24/14 Q1015 NOSIG
ZGSZ,2003-10-22 13:00,ZGSZ 221300Z 02003MPS 4000 HZ SKC 24/13 Q1016 NOSIG
ZGSZ,2003-10-22 14:00,ZGSZ 221400Z 36001MPS 3000 HZ SKC 23/16 Q1016 NOSIG
ZGSZ,2003-10-22 15:00,ZGSZ 221500Z 04001MPS 3000 HZ SKC 23/15 Q1016 NOSIG
ZGSZ,2003-10-22 16:00,ZGSZ 221600Z 09001MPS 4000 HZ SKC 23/13 Q1016 NOSIG
ZGSZ,2003-10-22 17:00,ZGSZ 221700Z 00000MPS 4000 HZ SKC 22/14 Q1016 NOSIG
ZGSZ,2003-10-22 18:00,ZGSZ 221800Z 00000MPS 4000 HZ SKC 22/14 Q1016 NOSIG
ZGSZ,2003-10-22 19:00,ZGSZ 221900Z 02002MPS 4000 HZ SKC 20/13 Q1016 NOSIG
ZGSZ,2003-10-22 20:00,ZGSZ 222000Z 01002MPS 4000 HZ SKC 21/12 Q1016 NOSIG
ZGSZ,2003-10-22 21:00,ZGSZ 222100Z 01002MPS 4000 HZ SKC 21/11 Q1016 NOSIG
ZGSZ,2003-10-22 22:00,ZGSZ 222200Z 00000MPS 6000 HZ SKC 20/11 Q1017 NOSIG
ZGSZ,2003-10-22 23:00,ZGSZ 222300Z 09001MPS 8000 SKC 20/10 Q1017 NOSIG
ZGSZ,2003-10-23 00:00,ZGSZ 230000Z 07001MPS 7000 SKC 22/10 Q1018 NOSIG
ZGSZ,2003-10-23 01:00,ZGSZ 230100Z 00000MPS 8000 SKC 24/11 Q1018 NOSIG
ZGSZ,2003-10-23 02:00,ZGSZ 230200Z 06003MPS CAVOK 25/09 Q1019 NOSIG
ZGSZ,2003-10-23 03:00,ZGSZ 230300Z 06003MPS CAVOK 26/09 Q1018 NOSIG
ZGSZ,2003-10-23 04:00,ZGSZ 230400Z 10003MPS CAVOK 27/08 Q1017 NOSIG
ZGSZ,2003-10-23 05:00,ZGSZ 230500Z 05003MPS CAVOK 28/09 Q1016 NOSIG
ZGSZ,2003-10-23 06:00,ZGSZ 230600Z 04004MPS CAVOK 29/10 Q1015 NOSIG
ZGSZ,2003-10-23 07:00,ZGSZ 230700Z 09003MPS CAVOK 29/08 Q1014 NOSIG
ZGSZ,2003-10-23 08:00,ZGSZ 230800Z 02003MPS CAVOK 29/09 Q1014 NOSIG
ZGSZ,2003-10-23 09:00,ZGSZ 230900Z 03004MPS 8000 SKC 28/08 Q1014 NOSIG
ZGSZ,2003-10-23 10:00,ZGSZ 231000Z 04004MPS 7000 SKC 26/10 Q1014 NOSIG
ZGSZ,2003-10-23 11:00,ZGSZ 231100Z 07003MPS 8000 SKC 24/10 Q1015 NOSIG
ZGSZ,2003-10-23 12:00,ZGSZ 231200Z 09002MPS 8000 SKC 25/09 Q1015 NOSIG
ZGSZ,2003-10-23 13:00,ZGSZ 231300Z 03002MPS 8000 SKC 24/10 Q1016 NOSIG
ZGSZ,2003-10-23 14:00,ZGSZ 231400Z 08002MPS 8000 SKC 22/12 Q1016 NOSIG
ZGSZ,2003-10-23 15:00,ZGSZ 231500Z 13003MPS 2600 HZ SKC 22/14 Q1016 NOSIG
ZGSZ,2003-10-23 16:00,ZGSZ 231600Z 16001MPS 2800 HZ SKC 22/15 Q1016 NOSIG
ZGSZ,2003-10-23 17:00,ZGSZ 231700Z 10002MPS 2800 HZ SKC 22/15 Q1016 NOSIG
ZGSZ,2003-10-23 18:00,ZGSZ 231800Z 10001MPS 2800 HZ SKC 22/15 Q1016 NOSIG
ZGSZ,2003-10-23 19:00,ZGSZ 231900Z 11001MPS 2800 HZ SKC 21/15 Q1015 NOSIG
ZGSZ,2003-10-23 20:00,ZGSZ 232000Z 00000MPS 2800 BR SKC 20/15 Q1015 NOSIG
ZGSZ,2003-10-23 21:00,ZGSZ 232100Z 09001MPS 2800 BR SKC 20/16 Q1015 NOSIG
ZGSZ,2003-10-23 22:00,ZGSZ 232200Z 09001MPS 2800 BR SKC 20/16 Q1016 NOSIG
ZGSZ,2003-10-23 23:00,ZGSZ 232300Z 00000MPS 2300 BR SKC 20/15 Q1016 NOSIG
ZGSZ,2003-10-24 00:00,ZGSZ 240000Z 10001MPS 2000 BR SKC 21/16 Q1016 NOSIG
ZGSZ,2003-10-24 01:00,ZGSZ 240100Z 10003MPS 3000 HZ SKC 23/17 Q1017 NOSIG
ZGSZ,2003-10-24 02:00,ZGSZ 240200Z 10001MPS 3500 HZ SCT022 24/17 Q1017 NOSIG
ZGSZ,2003-10-24 03:00,ZGSZ 240300Z 28002MPS 5000 HZ BKN023 25/17 Q1016 NOSIG
ZGSZ,2003-10-24 04:00,ZGSZ 240400Z 28003MPS 3500 HZ BKN023 26/16 Q1015 NOSIG
ZGSZ,2003-10-24 05:00,ZGSZ 240500Z 28004MPS 4000 HZ FEW025 27/13 Q1014 NOSIG
ZGSZ,2003-10-24 06:00,ZGSZ 240600Z 01004MPS CAVOK 28/09 Q1013 NOSIG
ZGSZ,2003-10-24 07:00,ZGSZ 240700Z 29003MPS 7000 SKC 27/15 Q1012 NOSIG
ZGSZ,2003-10-24 08:00,ZGSZ 240800Z 28002MPS 6000 SKC 27/14 Q1012 NOSIG
ZGSZ,2003-10-24 09:00,ZGSZ 240900Z 34002MPS CAVOK 27/12 Q1012 NOSIG
ZGSZ,2003-10-24 10:00,ZGSZ 241000Z 05001MPS CAVOK 26/11 Q1012 NOSIG
ZGSZ,2003-10-24 11:00,ZGSZ 241100Z 09001MPS CAVOK 24/09 Q1013 NOSIG
ZGSZ,2003-10-24 12:00,ZGSZ 241200Z 11002MPS 3000 HZ SKC 24/09 Q1013 NOSIG
ZGSZ,2003-10-24 13:00,ZGSZ 241300Z 10003MPS 2500 HZ SKC 24/16 Q1014 NOSIG
ZGSZ,2003-10-24 14:00,ZGSZ 241400Z 11002MPS 2400 HZ SKC 23/17 Q1015 NOSIG
ZGSZ,2003-10-24 15:00,ZGSZ 241500Z 11003MPS 2400 HZ SKC 23/16 Q1015 NOSIG
ZGSZ,2003-10-24 16:00,ZGSZ 241600Z 10003MPS 3000 HZ SKC 23/16 Q1015 NOSIG
ZGSZ,2003-10-24 17:00,ZGSZ 241700Z 09002MPS 3000 HZ SKC 23/15 Q1014 NOSIG
ZGSZ,2003-10-24 18:00,ZGSZ 241800Z 05001MPS CAVOK 22/15 Q1014 NOSIG
ZGSZ,2003-10-24 19:00,ZGSZ 241900Z 35001MPS CAVOK 21/17 Q1014 NOSIG
ZGSZ,2003-10-24 20:00,ZGSZ 242000Z 03002MPS CAVOK 20/16 Q1014 NOSIG
ZGSZ,2003-10-24 21:00,ZGSZ 242100Z 01003MPS 5000 BR SKC 20/16 Q1014 NOSIG
ZGSZ,2003-10-24 22:00,ZGSZ 242200Z 01003MPS 5000 BR SKC 20/16 Q1015 NOSIG
ZGSZ,2003-10-24 23:00,ZGSZ 242300Z 36003MPS 2500 BR SKC 20/15 Q1015 NOSIG
ZGSZ,2003-10-25 00:00,ZGSZ 250000Z 00000MPS 3000 BR SKC 21/16 Q1016 NOSIG
ZGSZ,2003-10-25 00:30,ZGSZ 250030Z 04002MPS 3500 HZ SKC 22/16 Q1016 NOSIG
ZGSZ,2003-10-25 01:00,ZGSZ 250100Z 04002MPS 3500 HZ SKC 23/16 Q1016 NOSIG
ZGSZ,2003-10-25 01:30,ZGSZ 250130Z 01004MPS 3800 HZ SKC 24/16 Q1017 NOSIG
ZGSZ,2003-10-25 02:00,ZGSZ 250200Z 01004MPS 4500 HZ SKC 25/12 Q1017 NOSIG
ZGSZ,2003-10-25 02:46,ZGSZ 250246Z 07003MPS 7000 NSC 26/09 Q1016 NOSIG
ZGSZ,2003-10-25 03:00,ZGSZ 250300Z 07002MPS 8000 SKC 26/10 Q1016 NOSIG
ZGSZ,2003-10-25 04:00,ZGSZ 250400Z 06003MPS CAVOK 28/08 Q1015 NOSIG
ZGSZ,2003-10-25 05:00,ZGSZ 250500Z 07003MPS CAVOK 29/07 Q1014 NOSIG
ZGSZ,2003-10-25 06:00,ZGSZ 250600Z 09004MPS CAVOK 29/04 Q1013 NOSIG
ZGSZ,2003-10-25 07:00,ZGSZ 250700Z 10004MPS CAVOK 29/03 Q1012 NOSIG
ZGSZ,2003-10-25 08:00,ZGSZ 250800Z 08003MPS CAVOK 30/04 Q1012 NOSIG
ZGSZ,2003-10-25 09:00,ZGSZ 250900Z 36001MPS CAVOK 28/06 Q1013 NOSIG
ZGSZ,2003-10-25 10:00,ZGSZ 251000Z 17004MPS CAVOK 28/16 Q1013 NOSIG
ZGSZ,2003-10-25 11:00,ZGSZ 251100Z 17004MPS CAVOK 24/17 Q1014 NOSIG
ZGSZ,2003-10-25 12:00,ZGSZ 251200Z 16003MPS CAVOK 24/16 Q1015 NOSIG
ZGSZ,2003-10-25 13:00,ZGSZ 251300Z 11004MPS CAVOK 24/11 Q1015 NOSIG
ZGSZ,2003-10-25 14:00,ZGSZ 251400Z 12004MPS CAVOK 23/12 Q1016 NOSIG
ZGSZ,2003-10-25 15:00,ZGSZ 251500Z 12004MPS CAVOK 23/13 Q1016 NOSIG
ZGSZ,2003-10-25 16:00,ZGSZ 251600Z 13004MPS CAVOK 23/14 Q1016 NOSIG
ZGSZ,2003-10-25 17:00,ZGSZ 251700Z 07002MPS 7000 SKC 22/14 Q1016 NOSIG
ZGSZ,2003-10-25 18:00,ZGSZ 251800Z 04002MPS 7000 SKC 21/15 Q1016 NOSIG
ZGSZ,2003-10-25 19:00,ZGSZ 251900Z 29001MPS 7000 SKC 20/15 Q1016 NOSIG
ZGSZ,2003-10-25 20:00,ZGSZ 252000Z 36001MPS 7000 SKC 20/15 Q1015 NOSIG
ZGSZ,2003-10-25 21:00,ZGSZ 252100Z 04003MPS 7000 SKC 19/15 Q1016 NOSIG
ZGSZ,2003-10-25 22:00,ZGSZ 252200Z 04002MPS 3000 BR SKC 19/15 Q1016 NOSIG
ZGSZ,2003-10-25 23:00,ZGSZ 252300Z 04002MPS 3000 BR SKC 20/15 Q1017 NOSIG
ZGSZ,2003-10-26 00:00,ZGSZ 260000Z 03001MPS 3000 HZ SKC 22/15 Q1017 NOSIG
ZGSZ,2003-10-26 01:00,ZGSZ 260100Z 01002MPS 3500 HZ SKC 23/15 Q1017 NOSIG
ZGSZ,2003-10-26 02:00,ZGSZ 260200Z 02002MPS 4000 HZ SKC 25/14 Q1017 NOSIG
ZGSZ,2003-10-26 03:00,ZGSZ 260300Z 25002MPS 4000 HZ SKC 26/14 Q1017 NOSIG
ZGSZ,2003-10-26 04:00,ZGSZ 260400Z 26002MPS 5000 HZ SKC 27/15 Q1016 NOSIG
ZGSZ,2003-10-26 05:00,ZGSZ 260500Z 26003MPS 3000 HZ SKC 27/15 Q1015 NOSIG
ZGSZ,2003-10-26 06:00,ZGSZ 260600Z 24003MPS 3000 HZ SKC 27/15 Q1014 NOSIG
ZGSZ,2003-10-26 07:00,ZGSZ 260700Z 25002MPS 7000 SKC 27/14 Q1014 NOSIG
ZGSZ,2003-10-26 08:00,ZGSZ 260800Z 22002MPS 7000 SKC 27/14 Q1014 NOSIG
ZGSZ,2003-10-26 09:00,ZGSZ 260900Z 19003MPS CAVOK 26/16 Q1014 NOSIG
ZGSZ,2003-10-26 10:00,ZGSZ 261000Z 18004MPS CAVOK 25/17 Q1014 NOSIG
ZGSZ,2003-10-26 11:00,ZGSZ 261100Z 15003MPS 8000 SKC 24/13 Q1015 NOSIG
ZGSZ,2003-10-26 12:00,ZGSZ 261200Z 10003MPS 8000 SKC 24/11 Q1016 NOSIG
ZGSZ,2003-10-26 13:00,ZGSZ 261300Z 11003MPS 8000 SKC 24/11 Q1016 NOSIG
ZGSZ,2003-10-26 14:00,ZGSZ 261400Z 11003MPS 7000 SKC 23/13 Q1017 NOSIG
ZGSZ,2003-10-26 15:00,ZGSZ 261500Z 12003MPS 8000 SKC 23/14 Q1017 NOSIG
ZGSZ,2003-10-26 16:00,ZGSZ 261600Z 13003MPS CAVOK 22/15 Q1017 NOSIG
ZGSZ,2003-10-26 17:00,ZGSZ 261700Z 11001MPS CAVOK 22/15 Q1017 NOSIG
ZGSZ,2003-10-26 18:00,ZGSZ 261800Z 13002MPS CAVOK 20/15 Q1017 NOSIG
ZGSZ,2003-10-26 19:00,ZGSZ 261900Z 00000MPS CAVOK 20/16 Q1016 NOSIG
ZGSZ,2003-10-26 20:00,ZGSZ 262000Z 03001MPS CAVOK 20/16 Q1016 NOSIG
ZGSZ,2003-10-26 21:00,ZGSZ 262100Z 03001MPS 7000 SKC 20/16 Q1016 NOSIG
ZGSZ,2003-10-26 22:00,ZGSZ 262200Z 11002MPS 7000 SKC 21/17 Q1017 NOSIG
ZGSZ,2003-10-26 23:00,ZGSZ 262300Z 00000MPS 4500 BR SKC 20/17 Q1017 NOSIG
ZGSZ,2003-10-27 00:00,ZGSZ 270000Z 36002MPS 4000 BR SKC 22/17 Q1018 NOSIG
ZGSZ,2003-10-27 01:00,ZGSZ 270100Z 09002MPS 6000 NSC 24/17 Q1019 NOSIG
ZGSZ,2003-10-27 02:00,ZGSZ 270200Z 08002MPS 6000 NSC 25/16 Q1019 NOSIG
ZGSZ,2003-10-27 03:00,ZGSZ 270300Z 10002MPS 6000 NSC 26/16 Q1019 NOSIG
ZGSZ,2003-10-27 04:00,ZGSZ 270400Z 28002MPS 6000 NSC 26/18 Q1018 NOSIG
ZGSZ,2003-10-27 05:00,ZGSZ 270500Z 29002MPS 8000 NSC 25/18 Q1017 NOSIG
ZGSZ,2003-10-27 06:00,ZGSZ 270600Z 30003MPS 6000 NSC 26/17 Q1017 NOSIG
ZGSZ,2003-10-27 07:00,ZGSZ 270700Z 30003MPS 5000 HZ NSC 26/18 Q1016 NOSIG
ZGSZ,2003-10-27 08:00,ZGSZ 270800Z 30004MPS 4000 HZ SKC 26/18 Q1016 NOSIG
ZGSZ,2003-10-27 09:00,ZGSZ 270900Z 35004MPS 2600 HZ NSC 26/19 Q1017 NOSIG
ZGSZ,2003-10-27 10:00,ZGSZ 271000Z 34003MPS 2000 HZ NSC 26/17 Q1017 NOSIG
ZGSZ,2003-10-27 11:00,ZGSZ 271100Z 01003MPS 3500 HZ NSC 26/13 Q1017 NOSIG
ZGSZ,2003-10-27 12:00,ZGSZ 271200Z 05002MPS 3000 HZ NSC 25/14 Q1018 NOSIG
ZGSZ,2003-10-27 13:00,ZGSZ 271300Z 06001MPS 2400 HZ NSC 25/15 Q1018 NOSIG
ZGSZ,2003-10-27 14:00,ZGSZ 271400Z 03001MPS 2400 HZ SKC 24/16 Q1018 NOSIG
ZGSZ,2003-10-27 15:00,ZGSZ 271500Z 10002MPS 2000 HZ SKC 22/15 Q1019 NOSIG
ZGSZ,2003-10-27 16:00,ZGSZ 271600Z 09001MPS 2000 HZ SKC 23/14 Q1018 NOSIG
ZGSZ,2003-10-27 17:00,ZGSZ 271700Z 13001MPS 2500 HZ SKC 22/15 Q1018 NOSIG
ZGSZ,2003-10-27 18:00,ZGSZ 271800Z 07001MPS 2500 HZ SKC 21/15 Q1018 NOSIG
ZGSZ,2003-10-27 19:00,ZGSZ 271900Z 00000MPS 2500 HZ SKC 22/15 Q1018 NOSIG
ZGSZ,2003-10-27 20:00,ZGSZ 272000Z 00000MPS 2500 BR SKC 21/15 Q1018 NOSIG
ZGSZ,2003-10-27 21:00,ZGSZ 272100Z 01002MPS 2200 BR SKC 21/15 Q1018 NOSIG
ZGSZ,2003-10-27 22:00,ZGSZ 272200Z 01002MPS 2000 BR SKC 21/16 Q1019 NOSIG
ZGSZ,2003-10-27 23:00,ZGSZ 272300Z 00000MPS 2000 BR SKC 21/15 Q1019 NOSIG
ZGSZ,2003-10-28 00:00,ZGSZ 280000Z 00000MPS 2800 HZ SKC 22/15 Q1020 NOSIG
ZGSZ,2003-10-28 01:00,ZGSZ 280100Z 01003MPS 2500 HZ SKC 24/14 Q1020 NOSIG
ZGSZ,2003-10-28 02:00,ZGSZ 280200Z 03003MPS 2800 HZ SKC 26/14 Q1020 NOSIG
ZGSZ,2003-10-28 03:00,ZGSZ 280300Z 03003MPS 3000 HZ SKC 27/14 Q1019 NOSIG
ZGSZ,2003-10-28 04:00,ZGSZ 280400Z 04003MPS 3000 HZ SKC 28/14 Q1018 NOSIG
ZGSZ,2003-10-28 05:00,ZGSZ 280500Z 03002MPS 3000 HZ SKC 29/13 Q1017 NOSIG
ZGSZ,2003-10-28 06:00,ZGSZ 280600Z 04003MPS 4000 HZ SKC 30/13 Q1017 NOSIG
ZGSZ,2003-10-28 07:00,ZGSZ 280700Z 03003MPS 6000 SKC 30/14 Q1016 NOSIG
ZGSZ,2003-10-28 08:00,ZGSZ 280800Z 05003MPS 6000 SKC 30/14 Q1016 NOSIG
ZGSZ,2003-10-28 09:00,ZGSZ 280900Z 20002MPS CAVOK 28/15 Q1016 NOSIG
ZGSZ,2003-10-28 10:00,ZGSZ 281000Z 12003MPS CAVOK 28/14 Q1017 NOSIG
ZGSZ,2003-10-28 11:00,ZGSZ 281100Z 09003MPS 4000 HZ SKC 27/14 Q1017 NOSIG
ZGSZ,2003-10-28 12:00,ZGSZ 281200Z 10003MPS 5000 HZ SKC 26/14 Q1018 NOSIG
ZGSZ,2003-10-28 13:00,ZGSZ 281300Z 11004MPS 6000 SKC 26/14 Q1018 NOSIG
ZGSZ,2003-10-28 14:00,ZGSZ 281400Z 13004MPS 6000 SKC 25/14 Q1019 NOSIG
ZGSZ,2003-10-28 15:00,ZGSZ 281500Z 10004MPS 7000 SKC 25/14 Q1019 NOSIG
ZGSZ,2003-10-28 16:00,ZGSZ 281600Z 12005MPS 6000 SKC 24/14 Q1018 NOSIG
ZGSZ,2003-10-28 17:00,ZGSZ 281700Z 09005MPS 6000 SKC 25/13 Q1018 NOSIG
ZGSZ,2003-10-28 18:00,ZGSZ 281800Z 10005MPS 6000 SKC 24/13 Q1018 NOSIG
ZGSZ,2003-10-28 19:00,ZGSZ 281900Z 08004MPS 6000 SKC 24/12 Q1018 NOSIG
ZGSZ,2003-10-28 20:00,ZGSZ 282000Z 07002MPS 6000 SKC 23/12 Q1018 NOSIG
ZGSZ,2003-10-28 21:00,ZGSZ 282100Z 07002MPS 6000 SKC 22/12 Q1018 NOSIG
ZGSZ,2003-10-28 22:00,ZGSZ 282200Z 08002MPS 6000 SKC 22/12 Q1018 NOSIG
ZGSZ,2003-10-28 23:00,ZGSZ 282300Z 36003MPS 7000 SKC 21/13 Q1019 NOSIG
ZGSZ,2003-10-29 00:00,ZGSZ 290000Z 05003MPS 7000 SKC 23/12 Q1019 NOSIG
ZGSZ,2003-10-29 01:00,ZGSZ 290100Z 06004MPS 6000 SKC 25/12 Q1019 NOSIG
ZGSZ,2003-10-29 02:00,ZGSZ 290200Z 05005MPS 8000 SKC 26/11 Q1020 NOSIG
ZGSZ,2003-10-29 03:00,ZGSZ 290300Z 07004MPS 8000 SKC 27/10 Q1019 NOSIG
ZGSZ,2003-10-29 04:00,ZGSZ 290400Z 07004MPS 9000 SKC 28/09 Q1018 NOSIG
ZGSZ,2003-10-29 05:00,ZGSZ 290500Z 05004MPS 9000 SKC 29/09 Q1017 NOSIG
ZGSZ,2003-10-29 06:00,ZGSZ 290600Z 06003MPS CAVOK 29/09 Q1016 NOSIG
ZGSZ,2003-10-29 07:00,ZGSZ 290700Z 23002MPS CAVOK 29/15 Q1015 NOSIG
ZGSZ,2003-10-29 08:00,ZGSZ 290800Z 24003MPS CAVOK 27/17 Q1015 NOSIG
ZGSZ,2003-10-29 09:00,ZGSZ 290900Z 22003MPS CAVOK 26/17 Q1015 NOSIG
ZGSZ,2003-10-29 10:00,ZGSZ 291000Z 19003MPS CAVOK 25/18 Q1015 NOSIG
ZGSZ,2003-10-29 11:00,ZGSZ 291100Z 13004MPS CAVOK 25/14 Q1016 NOSIG
ZGSZ,2003-10-29 12:00,ZGSZ 291200Z 09005MPS CAVOK 25/16 Q1017 NOSIG
ZGSZ,2003-10-29 13:00,ZGSZ 291300Z 09006MPS CAVOK 24/17 Q1017 NOSIG
ZGSZ,2003-10-29 14:00,ZGSZ 291400Z 10006MPS CAVOK 24/17 Q1017 NOSIG
ZGSZ,2003-10-29 15:00,ZGSZ 291500Z 10005MPS CAVOK 24/17 Q1017 NOSIG
ZGSZ,2003-10-29 16:00,ZGSZ 291600Z 10004MPS CAVOK 23/17 Q1017 NOSIG
ZGSZ,2003-10-29 17:00,ZGSZ 291700Z 10004MPS CAVOK 23/16 Q1017 NOSIG
ZGSZ,2003-10-29 18:00,ZGSZ 291800Z 33001MPS CAVOK 22/16 Q1016 NOSIG
ZGSZ,2003-10-29 19:00,ZGSZ 291900Z 00000MPS CAVOK 22/16 Q1016 NOSIG
ZGSZ,2003-10-29 20:00,ZGSZ 292000Z 02001MPS CAVOK 21/16 Q1016 NOSIG
ZGSZ,2003-10-29 21:00,ZGSZ 292100Z 02001MPS CAVOK 21/16 Q1016 NOSIG
ZGSZ,2003-10-29 22:00,ZGSZ 292200Z 06001MPS CAVOK 19/15 Q1016 NOSIG
ZGSZ,2003-10-29 23:00,ZGSZ 292300Z 03001MPS CAVOK 20/15 Q1016 NOSIG
ZGSZ,2003-10-30 00:00,ZGSZ 300000Z 00000MPS CAVOK 22/15 Q1017 NOSIG
ZGSZ,2003-10-30 01:00,ZGSZ 300100Z 03002MPS CAVOK 24/14 Q1017 NOSIG
ZGSZ,2003-10-30 02:00,ZGSZ 300200Z 35001MPS CAVOK 25/13 Q1017 NOSIG
ZGSZ,2003-10-30 03:00,ZGSZ 300300Z 27002MPS CAVOK 26/14 Q1016 NOSIG
ZGSZ,2003-10-30 04:00,ZGSZ 300400Z 23003MPS 7000 SKC 26/16 Q1015 NOSIG
ZGSZ,2003-10-30 05:00,ZGSZ 300500Z 27003MPS 7000 SKC 26/15 Q1014 NOSIG
ZGSZ,2003-10-30 06:00,ZGSZ 300600Z 25003MPS 7000 SKC 27/16 Q1013 NOSIG
ZGSZ,2003-10-30 07:00,ZGSZ 300700Z 21003MPS 7000 SKC 26/17 Q1012 NOSIG
ZGSZ,2003-10-30 08:00,ZGSZ 300800Z 18003MPS 7000 SKC 26/16 Q1012 NOSIG
ZGSZ,2003-10-30 09:00,ZGSZ 300900Z 18003MPS CAVOK 25/16 Q1012 NOSIG
ZGSZ,2003-10-30 10:00,ZGSZ 301000Z 17003MPS CAVOK 24/16 Q1012 NOSIG
ZGSZ,2003-10-30 11:00,ZGSZ 301100Z 15003MPS CAVOK 24/16 Q1013 NOSIG
ZGSZ,2003-10-30 12:00,ZGSZ 301200Z 14004MPS CAVOK 23/16 Q1014 NOSIG
ZGSZ,2003-10-30 13:00,ZGSZ 301300Z 11004MPS CAVOK 24/14 Q1014 NOSIG
ZGSZ,2003-10-30 14:00,ZGSZ 301400Z 12005MPS CAVOK 23/15 Q1015 NOSIG
ZGSZ,2003-10-30 15:00,ZGSZ 301500Z 11004MPS CAVOK 23/15 Q1015 NOSIG
ZGSZ,2003-10-30 16:00,ZGSZ 301600Z 10004MPS CAVOK 23/16 Q1015 NOSIG
ZGSZ,2003-10-30 17:00,ZGSZ 301700Z 11003MPS CAVOK 22/16 Q1014 NOSIG
ZGSZ,2003-10-30 18:00,ZGSZ 301800Z 10003MPS CAVOK 22/16 Q1014 NOSIG
ZGSZ,2003-10-30 19:00,ZGSZ 301900Z 08002MPS CAVOK 22/16 Q1013 NOSIG
ZGSZ,2003-10-30 20:00,ZGSZ 302000Z 07001MPS CAVOK 21/16 Q1013 NOSIG
ZGSZ,2003-10-30 21:00,ZGSZ 302100Z 03001MPS CAVOK 21/16 Q1013 NOSIG
ZGSZ,2003-10-30 22:00,ZGSZ 302200Z 36002MPS CAVOK 20/17 Q1014 NOSIG
ZGSZ,2003-10-30 23:00,ZGSZ 302300Z 04002MPS 8000 SKC 20/17 Q1015 NOSIG
ZGSZ,2003-10-31 00:00,ZGSZ 310000Z 01001MPS 4000 BR SKC 21/17 Q1015 NOSIG
ZGSZ,2003-10-31 01:00,ZGSZ 310100Z 07001MPS 4500 BR SKC 23/17 Q1016 NOSIG
ZGSZ,2003-10-31 02:00,ZGSZ 310200Z 26001MPS 5000 HZ SKC 24/17 Q1015 NOSIG
ZGSZ,2003-10-31 03:00,ZGSZ 310300Z 14002MPS 6000 SKC 25/17 Q1015 NOSIG
ZGSZ,2003-10-31 04:00,ZGSZ 310400Z 23003MPS 5000 HZ NSC 26/17 Q1014 NOSIG
ZGSZ,2003-10-31 05:00,ZGSZ 310500Z 26003MPS 6000 NSC 26/18 Q1013 NOSIG
ZGSZ,2003-10-31 06:00,ZGSZ 310600Z 24003MPS 7000 SKC 26/18 Q1012 NOSIG
ZGSZ,2003-10-31 07:00,ZGSZ 310700Z 24002MPS 8000 SKC 26/18 Q1011 NOSIG
ZGSZ,2003-10-31 08:00,ZGSZ 310800Z 21002MPS 5000 HZ SKC 26/18 Q1011 NOSIG
ZGSZ,2003-10-31 09:00,ZGSZ 310900Z 18002MPS 3500 HZ SKC 25/19 Q1012 NOSIG
ZGSZ,2003-10-31 10:00,ZGSZ 311000Z 18003MPS 3500 BR SKC 24/20 Q1012 NOSIG
ZGSZ,2003-10-31 11:00,ZGSZ 311100Z 18003MPS 3000 BR SKC 24/20 Q1012 NOSIG
ZGSZ,2003-10-31 12:00,ZGSZ 311200Z 18003MPS 3000 BR SKC 24/19 Q1013 NOSIG
ZGSZ,2003-10-31 13:00,ZGSZ 311300Z 17002MPS 3000 BR SKC 24/19 Q1013 NOSIG
ZGSZ,2003-10-31 14:00,ZGSZ 311400Z 16002MPS 3000 BR SKC 23/19 Q1014 NOSIG
ZGSZ,2003-10-31 15:00,ZGSZ 311500Z 10002MPS 2200 BR SKC 24/19 Q1014 NOSIG
ZGSZ,2003-10-31 16:00,ZGSZ 311600Z 09002MPS 2600 BR SKC 23/18 Q1014 NOSIG
ZGSZ,2003-10-31 17:00,ZGSZ 311700Z 11002MPS 2600 BR SKC 23/18 Q1013 NOSIG
ZGSZ,2003-10-31 18:00,ZGSZ 311800Z 13001MPS 2600 BR SKC 21/17 Q1013 NOSIG
ZGSZ,2003-10-31 19:00,ZGSZ 311900Z 00000MPS 2600 BR SKC 21/18 Q1013 NOSIG
ZGSZ,2003-10-31 20:00,ZGSZ 312000Z 13002MPS 2000 BR SKC 20/17 Q1012 NOSIG
ZGSZ,2003-10-31 21:00,ZGSZ 312100Z 00000MPS 2000 BR SKC 20/17 Q1013 NOSIG
ZGSZ,2003-10-31 22:00,ZGSZ 312200Z 08001MPS 2000 BR SKC 21/18 Q1013 NOSIG
ZGSZ,2003-10-31 23:00,ZGSZ 312300Z 00000MPS 2000 BR SKC 21/18 Q1014 NOSIG
ZGSZ,2003-11-01 00:00,ZGSZ 010000Z 03003MPS 1600 BR SKC 22/18 Q1015 NOSIG
ZGSZ,2003-11-01 01:00,ZGSZ 010100Z 04003MPS 1600 BR SKC 24/18 Q1015 NOSIG
ZGSZ,2003-11-01 02:00,ZGSZ 010200Z 36002MPS 1200 R15/1300N HZ SKC 24/18 Q1015 NOSIG
ZGSZ,2003-11-01 03:00,ZGSZ 010300Z 34002MPS 1600 HZ SKC 26/18 Q1014 NOSIG
ZGSZ,2003-11-01 04:00,ZGSZ 010400Z 27003MPS 1800 HZ SKC 27/19 Q1014 NOSIG
ZGSZ,2003-11-01 05:00,ZGSZ 010500Z 27004MPS 1700 HZ SKC 27/20 Q1012 NOSIG
ZGSZ,2003-11-01 06:00,ZGSZ 010600Z 27004MPS 1700 HZ SKC 27/20 Q1011 NOSIG
ZGSZ,2003-11-01 07:00,ZGSZ 010700Z 27003MPS 1400 R15/P1500N HZ SKC 28/21 Q1011 NOSIG
ZGSZ,2003-11-01 08:00,ZGSZ 010800Z 22001MPS 1300 R15/1400N BR SKC 27/22 Q1011 NOSIG
ZGSZ,2003-11-01 09:00,ZGSZ 010900Z 18003MPS 2000 BR SKC 26/22 Q1011 NOSIG
ZGSZ,2003-11-01 10:00,ZGSZ 011000Z 17004MPS 4000 BR SKC 25/21 Q1012 NOSIG
ZGSZ,2003-11-01 11:00,ZGSZ 011100Z 18004MPS 4500 BR SKC 25/21 Q1012 NOSIG
ZGSZ,2003-11-01 12:00,ZGSZ 011200Z 18003MPS 4500 BR SKC 24/21 Q1013 NOSIG
ZGSZ,2003-11-01 13:00,ZGSZ 011300Z 18004MPS 4500 BR SKC 24/21 Q1013 NOSIG
ZGSZ,2003-11-01 14:00,ZGSZ 011400Z 18004MPS 4500 BR SKC 24/21 Q1014 NOSIG
ZGSZ,2003-11-01 15:00,ZGSZ 011500Z 18003MPS 5000 BR SKC 24/21 Q1014 NOSIG
ZGSZ,2003-11-01 16:00,ZGSZ 011600Z 18002MPS 5000 SKC 23/20 Q1013 NOSIG
ZGSZ,2003-11-01 17:00,ZGSZ 011700Z 21002MPS 4000 BR SKC 23/20 Q1013 NOSIG
ZGSZ,2003-11-01 18:00,ZGSZ 011800Z 00000MPS 2800 BR SKC 22/20 Q1012 NOSIG
ZGSZ,2003-11-01 19:00,ZGSZ 011900Z 00000MPS 2300 BR SKC 22/20 Q1012 NOSIG
ZGSZ,2003-11-01 20:00,ZGSZ 012000Z 00000MPS 2200 BR SKC 22/20 Q1012 NOSIG
ZGSZ,2003-11-01 21:00,ZGSZ 012100Z 00000MPS 2000 BR SKC 21/19 Q1012 NOSIG
ZGSZ,2003-11-01 22:00,ZGSZ 012200Z 08001MPS 2100 BR SKC 22/20 Q1013 NOSIG
ZGSZ,2003-11-01 23:00,ZGSZ 012300Z 00000MPS 1400 R15/1100N BR SKC 21/19 Q1014 NOSIG
ZGSZ,2003-11-02 00:00,ZGSZ 020000Z 36001MPS 1300 R15/1200N BR SKC 22/20 Q1014 NOSIG
ZGSZ,2003-11-02 01:00,ZGSZ 020100Z 01001MPS 1200 R15/1100N BR SKC 24/20 Q1014 NOSIG
ZGSZ,2003-11-02 02:00,ZGSZ 020200Z 31003MPS 1100 R15/1100N BR SKC 25/21 Q1014 TEMPO 0800 FG
ZGSZ,2003-11-02 03:00,ZGSZ 020300Z 27003MPS 1300 R15/1200N BR SKC 25/21 Q1014 TEMPO 0800 FG
ZGSZ,2003-11-02 04:00,ZGSZ 020400Z 28004MPS 1200 R15/1100N BR SKC 26/22 Q1013 TEMPO 0800 FG
ZGSZ,2003-11-02 05:00,ZGSZ 020500Z 27003MPS 1300 R15/1200N BR SKC 27/22 Q1012 NOSIG
ZGSZ,2003-11-02 06:00,ZGSZ 020600Z 26001MPS 1300 R15/1200N BR SKC 27/22 Q1011 NOSIG
ZGSZ,2003-11-02 07:00,ZGSZ 020700Z 27003MPS 2000 HZ SKC 29/18 Q1011 NOSIG
ZGSZ,2003-11-02 08:00,ZGSZ 020800Z 28003MPS 2500 HZ SKC 28/20 Q1011 NOSIG
ZGSZ,2003-11-02 09:00,ZGSZ 020900Z 30002MPS 2400 HZ SKC 28/18 Q1011 NOSIG
ZGSZ,2003-11-02 10:00,ZGSZ 021000Z 29001MPS 2000 HZ SKC 27/18 Q1012 NOSIG
ZGSZ,2003-11-02 11:00,ZGSZ 021100Z 00000MPS 2000 HZ SKC 25/18 Q1012 NOSIG
ZGSZ,2003-11-02 12:00,ZGSZ 021200Z 00000MPS 1800 HZ SKC 25/18 Q1013 NOSIG
ZGSZ,2003-11-02 13:00,ZGSZ 021300Z 00000MPS 2000 HZ SKC 25/17 Q1014 NOSIG
ZGSZ,2003-11-02 14:00,ZGSZ 021400Z 13002MPS 1500 HZ SKC 25/18 Q1014 NOSIG
ZGSZ,2003-11-02 15:00,ZGSZ 021500Z 13001MPS 1500 BR SKC 24/19 Q1014 NOSIG
ZGSZ,2003-11-02 16:00,ZGSZ 021600Z 00000MPS 1500 BR SKC 22/19 Q1013 NOSIG
ZGSZ,2003-11-02 17:00,ZGSZ 021700Z 36002MPS 1500 R15/1200N BR SKC 23/20 Q1013 NOSIG
ZGSZ,2003-11-02 18:00,ZGSZ 021800Z 33001MPS 1500 R15/1400N BR SKC 22/19 Q1013 NOSIG
ZGSZ,2003-11-02 19:00,ZGSZ 021900Z 36002MPS 1500 R15/1400N BR SKC 22/19 Q1012 NOSIG
ZGSZ,2003-11-02 20:00,ZGSZ 022000Z 36002MPS 1500 R15/1400N BR SKC 22/18 Q1013 NOSIG
ZGSZ,2003-11-02 21:00,ZGSZ 022100Z 36002MPS 1500 R15/1300N BR SKC 21/18 Q1013 NOSIG
ZGSZ,2003-11-02 22:00,ZGSZ 022200Z 34001MPS 1500 R15/1400N BR SKC 22/18 Q1013 NOSIG
ZGSZ,2003-11-02 23:00,ZGSZ 022300Z 36002MPS 1000 R15/0500N BR SKC 22/18 Q1014 NOSIG
ZGSZ,2003-11-03 00:00,ZGSZ 030000Z 36002MPS 1400 R15/1300N BR SKC 23/18 Q1015 NOSIG
ZGSZ,2003-11-03 01:00,ZGSZ 030100Z 35002MPS 1200 R15/1200N HZ SKC 25/17 Q1015 NOSIG
ZGSZ,2003-11-03 02:00,ZGSZ 030200Z 01003MPS 1800 HZ SKC 28/16 Q1015 NOSIG
ZGSZ,2003-11-03 03:00,ZGSZ 030300Z 01005MPS 3000 HZ SKC 29/13 Q1014 NOSIG
ZGSZ,2003-11-03 04:00,ZGSZ 030400Z 02005MPS 5000 HZ SKC 31/12 Q1014 NOSIG
ZGSZ,2003-11-03 05:00,ZGSZ 030500Z 02007G12MPS 6000 SKC 31/11 Q1012 NOSIG
ZGSZ,2003-11-03 06:00,ZGSZ 030600Z 03006MPS CAVOK 32/10 Q1011 NOSIG
ZGSZ,2003-11-03 07:00,ZGSZ 030700Z 03004MPS CAVOK 32/08 Q1011 NOSIG
ZGSZ,2003-11-03 08:00,ZGSZ 030800Z 01005MPS CAVOK 32/07 Q1010 NOSIG
ZGSZ,2003-11-03 09:00,ZGSZ 030900Z 06003MPS CAVOK 31/08 Q1011 NOSIG
ZGSZ,2003-11-03 10:00,ZGSZ 031000Z 05003MPS CAVOK 28/10 Q1011 NOSIG
ZGSZ,2003-11-03 11:00,ZGSZ 031100Z 08002MPS CAVOK 27/10 Q1012 NOSIG
ZGSZ,2003-11-03 12:00,ZGSZ 031200Z 10003MPS CAVOK 27/10 Q1012 NOSIG
ZGSZ,2003-11-03 13:00,ZGSZ 031300Z 06003MPS CAVOK 28/07 Q1013 NOSIG
ZGSZ,2003-11-03 14:00,ZGSZ 031400Z 09005MPS CAVOK 27/10 Q1014 NOSIG
ZGSZ,2003-11-03 15:00,ZGSZ 031500Z 11005MPS CAVOK 25/15 Q1014 NOSIG
ZGSZ,2003-11-03 16:00,ZGSZ 031600Z 09002MPS CAVOK 24/18 Q1014 NOSIG
ZGSZ,2003-11-03 17:00,ZGSZ 031700Z 09003MPS CAVOK 24/18 Q1014 NOSIG
ZGSZ,2003-11-03 18:00,ZGSZ 031800Z 13003MPS CAVOK 23/18 Q1014 NOSIG
ZGSZ,2003-11-03 19:00,ZGSZ 031900Z 11002MPS CAVOK 23/17 Q1014 NOSIG
ZGSZ,2003-11-03 20:00,ZGSZ 032000Z 00000MPS CAVOK 21/17 Q1014 NOSIG
ZGSZ,2003-11-03 21:00,ZGSZ 032100Z 06001MPS CAVOK 22/17 Q1014 NOSIG
ZGSZ,2003-11-03 22:00,ZGSZ 032200Z 04002MPS 6000 SKC 21/17 Q1015 NOSIG
ZGSZ,2003-11-03 23:00,ZGSZ 032300Z 03002MPS 6000 SKC 21/18 Q1016 NOSIG
ZGSZ,2003-11-04 00:00,ZGSZ 040000Z 01003MPS 7000 SKC 23/18 Q1016 NOSIG
ZGSZ,2003-11-04 01:00,ZGSZ 040100Z 03002MPS 8000 SKC 24/18 Q1017 NOSIG
ZGSZ,2003-11-04 02:00,ZGSZ 040200Z 02003MPS 6000 SKC 25/18 Q1017 NOSIG
ZGSZ,2003-11-04 03:00,ZGSZ 040300Z 35002MPS 5000 SKC 27/17 Q1016 NOSIG
ZGSZ,2003-11-04 04:00,ZGSZ 040400Z 36003MPS 7000 FEW026 27/15 Q1015 NOSIG
ZGSZ,2003-11-04 05:00,ZGSZ 040500Z 27004MPS 6000 SKC 27/19 Q1014 NOSIG
ZGSZ,2003-11-04 06:00,ZGSZ 040600Z 27004MPS 6000 SKC 28/18 Q1012 NOSIG
ZGSZ,2003-11-04 07:00,ZGSZ 040700Z 27004MPS 5000 SKC 28/18 Q1012 NOSIG
ZGSZ,2003-11-04 08:00,ZGSZ 040800Z 27003MPS 5000 SKC 27/18 Q1012 NOSIG
ZGSZ,2003-11-04 09:00,ZGSZ 040900Z 18003MPS 3000 BR SKC 26/20 Q1012 NOSIG
ZGSZ,2003-11-04 10:00,ZGSZ 041000Z 15003MPS 3000 HZ SKC 25/18 Q1012 NOSIG
ZGSZ,2003-11-04 11:00,ZGSZ 041100Z 13003MPS 3000 HZ SKC 25/17 Q1013 NOSIG
ZGSZ,2003-11-04 12:00,ZGSZ 041200Z 12005MPS 3500 HZ SKC 25/17 Q1013 NOSIG
ZGSZ,2003-11-04 13:00,ZGSZ 041300Z 11004MPS 3500 HZ SKC 24/17 Q1014 NOSIG
ZGSZ,2003-11-04 14:00,ZGSZ 041400Z 10005MPS 3000 HZ SKC 24/17 Q1014 NOSIG
ZGSZ,2003-11-04 15:00,ZGSZ 041500Z 11005MPS 3000 BR SKC 23/18 Q1015 NOSIG
ZGSZ,2003-11-04 16:00,ZGSZ 041600Z 13004MPS 3000 BR SKC 23/18 Q1014 NOSIG
ZGSZ,2003-11-04 17:00,ZGSZ 041700Z 12002MPS 2800 BR SKC 23/19 Q1014 NOSIG
ZGSZ,2003-11-04 18:00,ZGSZ 041800Z 09001MPS 2800 BR SKC 23/19 Q1014 NOSIG
ZGSZ,2003-11-04 19:00,ZGSZ 041900Z 02001MPS 2800 BR SKC 22/18 Q1014 NOSIG
ZGSZ,2003-11-04 20:00,ZGSZ 042000Z 36002MPS 2800 BR SKC 21/18 Q1013 NOSIG
ZGSZ,2003-11-04 21:00,ZGSZ 042100Z 04002MPS 2000 BR SKC 21/18 Q1014 NOSIG
ZGSZ,2003-11-04 22:00,ZGSZ 042200Z 01002MPS 2000 BR SKC 21/18 Q1014 NOSIG
ZGSZ,2003-11-04 23:00,ZGSZ 042300Z 36001MPS 1800 BR SKC 21/18 Q1015 NOSIG
ZGSZ,2003-11-05 00:00,ZGSZ 050000Z 02002MPS 1800 BR SKC 22/19 Q1016 NOSIG
ZGSZ,2003-11-05 01:00,ZGSZ 050100Z 36003MPS 3000 BR SKC 24/19 Q1016 NOSIG
ZGSZ,2003-11-05 02:00,ZGSZ 050200Z 36002MPS 4000 HZ SKC 25/19 Q1016 NOSIG
ZGSZ,2003-11-05 03:00,ZGSZ 050300Z 29002MPS 4000 HZ FEW023 26/18 Q1016 NOSIG
ZGSZ,2003-11-05 04:00,ZGSZ 050400Z 27004MPS 2800 HZ FEW023 26/19 Q1015 NOSIG
ZGSZ,2003-11-05 05:00,ZGSZ 050500Z 25003MPS 3000 HZ SKC 27/19 Q1014 NOSIG
ZGSZ,2003-11-05 06:00,ZGSZ 050600Z 23003MPS 6000 SKC 27/19 Q1013 NOSIG
ZGSZ,2003-11-05 07:00,ZGSZ 050700Z 22002MPS 8000 SKC 27/18 Q1012 NOSIG
ZGSZ,2003-11-05 08:00,ZGSZ 050800Z 18003MPS CAVOK 26/18 Q1012 NOSIG
ZGSZ,2003-11-05 09:00,ZGSZ 050900Z 18004MPS CAVOK 25/19 Q1012 NOSIG
ZGSZ,2003-11-05 10:00,ZGSZ 051000Z 18004MPS CAVOK 25/20 Q1012 NOSIG
ZGSZ,2003-11-05 11:00,ZGSZ 051100Z 18004MPS CAVOK 25/20 Q1012 NOSIG
ZGSZ,2003-11-05 12:00,ZGSZ 051200Z 17003MPS CAVOK 24/20 Q1013 NOSIG
ZGSZ,2003-11-05 13:00,ZGSZ 051300Z 18003MPS CAVOK 24/20 Q1013 NOSIG
ZGSZ,2003-11-05 14:00,ZGSZ 051400Z 17002MPS 5000 BR SKC 24/20 Q1014 NOSIG
ZGSZ,2003-11-05 15:00,ZGSZ 051500Z 09002MPS 3000 BR SKC 24/19 Q1014 NOSIG
ZGSZ,2003-11-05 16:00,ZGSZ 051600Z 09002MPS 3500 BR SKC 23/19 Q1014 NOSIG
ZGSZ,2003-11-05 17:00,ZGSZ 051700Z 09002MPS 3000 BR SKC 23/19 Q1013 NOSIG
ZGSZ,2003-11-05 18:00,ZGSZ 051800Z 09002MPS 3000 BR SKC 23/19 Q1013 NOSIG
ZGSZ,2003-11-05 19:00,ZGSZ 051900Z 09002MPS 3000 BR SKC 23/19 Q1012 NOSIG
ZGSZ,2003-11-05 20:00,ZGSZ 052000Z 09001MPS 3000 BR SKC 22/18 Q1012 NOSIG
ZGSZ,2003-11-05 21:00,ZGSZ 052100Z 00000MPS 2500 BR SKC 21/18 Q1012 NOSIG
ZGSZ,2003-11-05 22:00,ZGSZ 052200Z 04002MPS 2300 BR SKC 21/18 Q1013 NOSIG
ZGSZ,2003-11-05 23:00,ZGSZ 052300Z 00000MPS 2300 R15/1300N BR SKC 21/18 Q1014 NOSIG
ZGSZ,2003-11-06 00:00,ZGSZ 060000Z 09002MPS 2000 BR SKC 23/19 Q1014 NOSIG
ZGSZ,2003-11-06 01:00,ZGSZ 060100Z 10002MPS 3000 BR SKC 24/19 Q1015 NOSIG
ZGSZ,2003-11-06 02:00,ZGSZ 060200Z 11003MPS 3500 HZ SKC 25/18 Q1015 NOSIG
ZGSZ,2003-11-06 03:00,ZGSZ 060300Z 22003MPS 5000 HZ SCT016 BKN100 25/18 Q1015 NOSIG
ZGSZ,2003-11-06 04:00,ZGSZ 060400Z 22003MPS 5000 HZ BKN020 26/20 Q1014 NOSIG
ZGSZ,2003-11-06 05:00,ZGSZ 060500Z 24003MPS 7000 SCT023 26/19 Q1013 NOSIG
ZGSZ,2003-11-06 06:00,ZGSZ 060600Z 23003MPS 8000 FEW026 27/19 Q1012 NOSIG
ZGSZ,2003-11-06 07:00,ZGSZ 060700Z 22003MPS 8000 FEW026 27/19 Q1012 NOSIG
ZGSZ,2003-11-06 08:00,ZGSZ 060800Z 21003MPS CAVOK 27/19 Q1011 NOSIG
ZGSZ,2003-11-06 09:00,ZGSZ 060900Z 20003MPS CAVOK 26/19 Q1011 NOSIG
ZGSZ,2003-11-06 10:00,ZGSZ 061000Z 19003MPS 6000 SKC 25/19 Q1011 NOSIG
ZGSZ,2003-11-06 11:00,ZGSZ 061100Z 19003MPS 4000 BR SKC 24/20 Q1012 NOSIG
ZGSZ,2003-11-06 12:00,ZGSZ 061200Z 18003MPS 4000 BR NSC 25/20 Q1012 NOSIG
ZGSZ,2003-11-06 13:00,ZGSZ 061300Z 11003MPS 4000 HZ SKC 25/18 Q1013 NOSIG
ZGSZ,2003-11-06 14:00,ZGSZ 061400Z 10003MPS 4000 BR SKC 24/18 Q1013 NOSIG
ZGSZ,2003-11-06 15:00,ZGSZ 061500Z 12003MPS 4000 BR SKC 24/18 Q1013 NOSIG
ZGSZ,2003-11-06 16:00,ZGSZ 061600Z 12003MPS 4500 BR NSC 23/18 Q1013 NOSIG
ZGSZ,2003-11-06 17:00,ZGSZ 061700Z 12003MPS 4500 BR NSC 23/18 Q1013 NOSIG
ZGSZ,2003-11-06 18:00,ZGSZ 061800Z 12003MPS 4500 BR NSC 23/19 Q1013 NOSIG
ZGSZ,2003-11-06 19:00,ZGSZ 061900Z 12003MPS 4500 BR NSC 22/19 Q1012 NOSIG
ZGSZ,2003-11-06 20:00,ZGSZ 062000Z 12003MPS 3000 BR NSC 22/19 Q1012 NOSIG
ZGSZ,2003-11-06 21:00,ZGSZ 062100Z 12003MPS 3000 BR NSC 22/19 Q1012 NOSIG
ZGSZ,2003-11-06 22:00,ZGSZ 062200Z 12003MPS 2500 BR NSC 22/19 Q1012 NOSIG
ZGSZ,2003-11-06 23:00,ZGSZ 062300Z 03003MPS 2500 BR NSC 22/19 Q1013 NOSIG
ZGSZ,2003-11-07 00:00,ZGSZ 070000Z 36003MPS 3000 BR SKC 23/20 Q1013 NOSIG
ZGSZ,2003-11-07 01:00,ZGSZ 070100Z 35002MPS 3000 BR SKC 25/20 Q1013 NOSIG
ZGSZ,2003-11-07 02:00,ZGSZ 070200Z 11003MPS 3000 HZ SCT023 27/20 Q1014 NOSIG
ZGSZ,2003-11-07 03:00,ZGSZ 070300Z 23003MPS 7000 SCT023 28/21 Q1013 NOSIG
ZGSZ,2003-11-07 04:00,ZGSZ 070400Z 26003MPS 5000 HZ FEW023 FEW030TCU 27/21 Q1012 NOSIG
ZGSZ,2003-11-07 05:00,ZGSZ 070500Z 23003MPS 4000 HZ FEW023 28/21 Q1011 NOSIG
ZGSZ,2003-11-07 06:00,ZGSZ 070600Z 22003MPS 6000 FEW023 28/21 Q1010 NOSIG
ZGSZ,2003-11-07 07:00,ZGSZ 070700Z 23003MPS 6000 FEW023 28/22 Q1010 NOSIG
ZGSZ,2003-11-07 08:00,ZGSZ 070800Z 19004MPS 9999 FEW023 28/22 Q1010 NOSIG
ZGSZ,2003-11-07 09:00,ZGSZ 070900Z 09004MPS CAVOK 28/20 Q1010 NOSIG
ZGSZ,2003-11-07 10:00,ZGSZ 071000Z 09005MPS 9999 FEW033 BKN110 27/20 Q1010 NOSIG
ZGSZ,2003-11-07 11:00,ZGSZ 071100Z 10005MPS 9999 FEW026 BKN110 26/20 Q1011 NOSIG
ZGSZ,2003-11-07 12:00,ZGSZ 071200Z 10003MPS CAVOK 26/20 Q1012 NOSIG
ZGSZ,2003-11-07 13:00,ZGSZ 071300Z 09003MPS CAVOK 25/20 Q1012 NOSIG
ZGSZ,2003-11-07 14:00,ZGSZ 071400Z 10002MPS CAVOK 25/20 Q1012 NOSIG
ZGSZ,2003-11-07 15:00,ZGSZ 071500Z 36001MPS CAVOK 25/21 Q1013 NOSIG
ZGSZ,2003-11-07 16:00,ZGSZ 071600Z 01002MPS CAVOK 25/21 Q1012 NOSIG
ZGSZ,2003-11-07 17:00,ZGSZ 071700Z 36002MPS CAVOK 24/21 Q1012 NOSIG
ZGSZ,2003-11-07 18:00,ZGSZ 071800Z 02003MPS CAVOK 24/21 Q1012 NOSIG
ZGSZ,2003-11-07 19:00,ZGSZ 071900Z 03003MPS CAVOK 24/20 Q1011 NOSIG
ZGSZ,2003-11-07 20:00,ZGSZ 072000Z 01003MPS CAVOK 24/20 Q1011 NOSIG
ZGSZ,2003-11-07 21:00,ZGSZ 072100Z 36003MPS CAVOK 24/20 Q1011 NOSIG
ZGSZ,2003-11-07 22:00,ZGSZ 072200Z 02003MPS CAVOK 24/21 Q1011 NOSIG
ZGSZ,2003-11-07 23:00,ZGSZ 072300Z 04004MPS 6000 SCT023 BKN053 24/21 Q1012 NOSIG
ZGSZ,2003-11-08 00:00,ZGSZ 080000Z 02004MPS 9000 BKN043 24/21 Q1012 NOSIG
ZGSZ,2003-11-08 01:00,ZGSZ 080100Z 02003MPS CAVOK 25/21 Q1013 NOSIG
ZGSZ,2003-11-08 02:00,ZGSZ 080200Z 02003MPS 8000 SCT030 BKN060 27/22 Q1013 NOSIG
ZGSZ,2003-11-08 03:00,ZGSZ 080300Z 04004MPS 9999 BKN026 BKN050 27/22 Q1012 NOSIG
ZGSZ,2003-11-08 04:00,ZGSZ 080400Z 01003MPS 6000 -SHRA BKN026 FEW033TCU BKN050 26/22 Q1012 NOSIG
ZGSZ,2003-11-08 05:00,ZGSZ 080500Z 36002MPS 2000 -SHRA BR BKN020 FEW033TCU BKN050 25/22 Q1011 NOSIG
ZGSZ,2003-11-08 06:00,ZGSZ 080600Z 03003MPS 5000 BR BKN026 BKN050 25/22 Q1010 NOSIG
ZGSZ,2003-11-08 07:00,ZGSZ 080700Z 08002MPS 4000 BR SCT012 BKN026 BKN050 25/22 Q1010 NOSIG
ZGSZ,2003-11-08 08:00,ZGSZ 080800Z 00000MPS 5000 -RA BR BKN016 BKN043 25/22 Q1010 NOSIG
ZGSZ,2003-11-08 09:00,ZGSZ 080900Z 23002MPS 5000 SCT016 BKN043 25/23 Q1010 NOSIG
ZGSZ,2003-11-08 10:00,ZGSZ 081000Z 00000MPS 6000 BKN017 FEW026TCU BKN043 25/23 Q1011 NOSIG
ZGSZ,2003-11-08 11:00,ZGSZ 081100Z 04001MPS 5000 BR BKN017 SCT043 25/22 Q1011 NOSIG
ZGSZ,2003-11-08 12:00,ZGSZ 081200Z 05002MPS 5000 BR BKN019 25/22 Q1012 NOSIG
ZGSZ,2003-11-08 13:00,ZGSZ 081300Z 09002MPS 6000 NSC 25/22 Q1012 NOSIG
ZGSZ,2003-11-08 14:00,ZGSZ 081400Z 09002MPS 6000 NSC 26/22 Q1012 NOSIG
ZGSZ,2003-11-08 15:00,ZGSZ 081500Z 09003MPS CAVOK 26/22 Q1013 NOSIG
ZGSZ,2003-11-08 16:00,ZGSZ 081600Z 09004MPS CAVOK 25/22 Q1013 NOSIG
ZGSZ,2003-11-08 17:00,ZGSZ 081700Z 10004MPS CAVOK 25/21 Q1013 NOSIG
ZGSZ,2003-11-08 18:00,ZGSZ 081800Z 09003MPS 8000 NSC 25/20 Q1012 NOSIG
ZGSZ,2003-11-08 19:00,ZGSZ 081900Z 36004MPS 8000 NSC 24/21 Q1012 NOSIG
ZGSZ,2003-11-08 20:00,ZGSZ 082000Z 01003MPS 6000 NSC 24/20 Q1012 NOSIG
ZGSZ,2003-11-08 21:00,ZGSZ 082100Z 36003MPS 5000 BR NSC 24/21 Q1012 NOSIG
ZGSZ,2003-11-08 22:00,ZGSZ 082200Z 02004MPS 5000 BKN043 24/20 Q1012 NOSIG
ZGSZ,2003-11-08 23:00,ZGSZ 082300Z 36005MPS 7000 BKN043 23/20 Q1013 NOSIG
ZGSZ,2003-11-09 00:00,ZGSZ 090000Z 01005MPS 7000 FEW020 OVC043 23/20 Q1014 NOSIG
ZGSZ,2003-11-09 01:00,ZGSZ 090100Z 36005MPS 6000 FEW020 OVC043 22/19 Q1014 NOSIG
ZGSZ,2003-11-09 02:00,ZGSZ 090200Z 36005MPS 4000 BR FEW020 OVC043 22/18 Q1015 NOSIG
ZGSZ,2003-11-09 03:00,ZGSZ 090300Z 01005MPS 4500 BR FEW020 OVC043 21/18 Q1015 NOSIG
ZGSZ,2003-11-09 04:00,ZGSZ 090400Z 01005MPS 4500 BR -RA FEW020 OVC043 21/18 Q1014 NOSIG
ZGSZ,2003-11-09 05:00,ZGSZ 090500Z 01005MPS 5000 BR FEW020 OVC043 21/17 Q1013 NOSIG
ZGSZ,2003-11-09 06:00,ZGSZ 090600Z 04004MPS 5000 FEW020 OVC043 22/17 Q1012 NOSIG
ZGSZ,2003-11-09 07:00,ZGSZ 090700Z 04005MPS 9999 FEW020 OVC040 21/16 Q1012 NOSIG
ZGSZ,2003-11-09 08:00,ZGSZ 090800Z 02004MPS 9999 FEW020 OVC040 21/16 Q1012 NOSIG
ZGSZ,2003-11-09 09:00,ZGSZ 090900Z 02004MPS 9999 FEW020 OVC040 21/16 Q1012 NOSIG
ZGSZ,2003-11-09 10:00,ZGSZ 091000Z 02005MPS 9999 SCT020 OVC040 21/16 Q1012 NOSIG
ZGSZ,2003-11-09 11:00,ZGSZ 091100Z 01005MPS 9999 SCT020 OVC040 21/15 Q1013 NOSIG
ZGSZ,2003-11-09 12:00,ZGSZ 091200Z 01004MPS 9999 SCT020 OVC050 21/16 Q1014 NOSIG
ZGSZ,2003-11-09 13:00,ZGSZ 091300Z 01005MPS 9999 FEW020 OVC050 20/15 Q1014 NOSIG
ZGSZ,2003-11-09 14:00,ZGSZ 091400Z 01004MPS 9999 SCT016 OVC050 20/15 Q1015 NOSIG
ZGSZ,2003-11-09 15:00,ZGSZ 091500Z 01004MPS 9999 SCT016 OVC040 20/15 Q1015 NOSIG
ZGSZ,2003-11-09 16:00,ZGSZ 091600Z 02004MPS 9999 SCT016 OVC040 19/15 Q1015 NOSIG
ZGSZ,2003-11-09 17:00,ZGSZ 091700Z 01005MPS 9999 SCT016 OVC040 19/15 Q1015 NOSIG
ZGSZ,2003-11-09 18:00,ZGSZ 091800Z 01005MPS 9999 SCT016 OVC040 19/14 Q1015 NOSIG
ZGSZ,2003-11-09 19:00,ZGSZ 091900Z 02005MPS 9999 SCT016 OVC040 18/14 Q1015 NOSIG
ZGSZ,2003-11-09 20:00,ZGSZ 092000Z 01005MPS 9999 SCT016 OVC040 18/14 Q1015 NOSIG
ZGSZ,2003-11-09 21:00,ZGSZ 092100Z 01007MPS 9999 SCT016 OVC040 18/14 Q1015 NOSIG
ZGSZ,2003-11-09 22:00,ZGSZ 092200Z 01006MPS 9999 SCT016 OVC040 17/14 Q1016 NOSIG
ZGSZ,2003-11-09 23:00,ZGSZ 092300Z 01005MPS 6000 SCT016 OVC040 17/14 Q1017 NOSIG
ZGSZ,2003-11-10 00:00,ZGSZ 100000Z 01006MPS 7000 SCT016 OVC040 16/14 Q1018 NOSIG
ZGSZ,2003-11-10 01:00,ZGSZ 100100Z 01005MPS 9999 BKN016 OVC040 16/14 Q1019 NOSIG
ZGSZ,2003-11-10 02:00,ZGSZ 100200Z 01005MPS 9999 SCT016 OVC040 17/14 Q1019 NOSIG
ZGSZ,2003-11-10 03:00,ZGSZ 100300Z 01005MPS 9999 BKN016 OVC040 18/14 Q1019 NOSIG
ZGSZ,2003-11-10 04:00,ZGSZ 100400Z 01005MPS 9999 BKN016 OVC040 18/13 Q1019 NOSIG
ZGSZ,2003-11-10 05:00,ZGSZ 100500Z 36006MPS 9999 BKN017 OVC040 17/13 Q1018 NOSIG
ZGSZ,2003-11-10 06:00,ZGSZ 100600Z 01007MPS 9999 SCT017 OVC040 17/13 Q1017 NOSIG
ZGSZ,2003-11-10 07:00,ZGSZ 100700Z 01006MPS 9999 FEW017 OVC040 17/13 Q1017 NOSIG
ZGSZ,2003-11-10 08:00,ZGSZ 100800Z 36006MPS 9999 SCT017 OVC040 17/12 Q1017 NOSIG
ZGSZ,2003-11-10 09:00,ZGSZ 100900Z 36006MPS 9999 SCT016 OVC040 17/12 Q1017 NOSIG
ZGSZ,2003-11-10 10:00,ZGSZ 101000Z 01007MPS 9999 BKN016 OVC040 17/13 Q1018 NOSIG
ZGSZ,2003-11-10 11:00,ZGSZ 101100Z 01006MPS 9999 SCT016 OVC040 16/12 Q1019 NOSIG
ZGSZ,2003-11-10 12:00,ZGSZ 101200Z 02005MPS 9999 SCT016 OVC040 16/11 Q1019 NOSIG
ZGSZ,2003-11-10 13:00,ZGSZ 101300Z 02007MPS 9999 SCT016 OVC040 16/11 Q1020 NOSIG
ZGSZ,2003-11-10 14:00,ZGSZ 101400Z 02007MPS 9999 SCT016 OVC043 16/10 Q1020 NOSIG
ZGSZ,2003-11-10 15:00,ZGSZ 101500Z 01006MPS 9999 FEW016 OVC043 15/10 Q1021 NOSIG
ZGSZ,2003-11-10 16:00,ZGSZ 101600Z 02006MPS 9999 FEW016 BKN043 15/10 Q1021 NOSIG
ZGSZ,2003-11-10 17:00,ZGSZ 101700Z 01005MPS 9999 FEW016 BKN043 15/09 Q1021 NOSIG
ZGSZ,2003-11-10 18:00,ZGSZ 101800Z 02007MPS 9999 FEW016 BKN043 15/09 Q1021 NOSIG
ZGSZ,2003-11-10 19:00,ZGSZ 101900Z 02005MPS 9999 FEW016 BKN043 15/09 Q1020 NOSIG
ZGSZ,2003-11-10 20:00,ZGSZ 102000Z 02005MPS 9999 FEW016 BKN043 15/08 Q1021 NOSIG
ZGSZ,2003-11-10 21:00,ZGSZ 102100Z 03006MPS 9999 FEW016 BKN043 14/08 Q1020 NOSIG
ZGSZ,2003-11-10 22:00,ZGSZ 102200Z 02006MPS 9999 BKN043 14/08 Q1021 NOSIG
ZGSZ,2003-11-10 23:00,ZGSZ 102300Z 02005MPS 9999 BKN043 14/08 Q1022 NOSIG
ZGSZ,2003-11-11 00:00,ZGSZ 110000Z 01007MPS 9999 BKN043 14/08 Q1022 NOSIG
ZGSZ,2003-11-11 01:00,ZGSZ 110100Z 01006MPS CAVOK 15/08 Q1023 NOSIG
ZGSZ,2003-11-11 02:00,ZGSZ 110200Z 02006MPS CAVOK 16/09 Q1023 NOSIG
ZGSZ,2003-11-11 03:00,ZGSZ 110300Z 36006MPS CAVOK 17/09 Q1023 NOSIG
ZGSZ,2003-11-11 04:00,ZGSZ 110400Z 01008MPS CAVOK 18/09 Q1022 NOSIG
ZGSZ,2003-11-11 05:00,ZGSZ 110500Z 01007MPS CAVOK 19/10 Q1021 NOSIG
ZGSZ,2003-11-11 06:00,ZGSZ 110600Z 01007MPS CAVOK 20/10 Q1020 NOSIG
ZGSZ,2003-11-11 07:00,ZGSZ 110700Z 01007MPS CAVOK 21/10 Q1020 NOSIG
ZGSZ,2003-11-11 08:00,ZGSZ 110800Z 01007MPS CAVOK 20/10 Q1020 NOSIG
ZGSZ,2003-11-11 09:00,ZGSZ 110900Z 02007MPS CAVOK 20/10 Q1020 NOSIG
ZGSZ,2003-11-11 10:00,ZGSZ 111000Z 01006MPS CAVOK 18/10 Q1021 NOSIG
ZGSZ,2003-11-11 11:00,ZGSZ 111100Z 02005MPS CAVOK 17/09 Q1022 NOSIG
ZGSZ,2003-11-11 12:00,ZGSZ 111200Z 04005MPS CAVOK 16/09 Q1023 NOSIG
ZGSZ,2003-11-11 13:00,ZGSZ 111300Z 05004MPS CAVOK 16/09 Q1024 NOSIG
ZGSZ,2003-11-11 14:00,ZGSZ 111400Z 04006MPS CAVOK 15/08 Q1025 NOSIG
ZGSZ,2003-11-11 15:00,ZGSZ 111500Z 01006MPS CAVOK 15/07 Q1025 NOSIG
ZGSZ,2003-11-11 16:00,ZGSZ 111600Z 02008MPS CAVOK 15/07 Q1025 NOSIG
ZGSZ,2003-11-11 17:00,ZGSZ 111700Z 04005MPS CAVOK 14/07 Q1025 NOSIG
ZGSZ,2003-11-11 18:00,ZGSZ 111800Z 01006MPS CAVOK 14/07 Q1024 NOSIG
ZGSZ,2003-11-11 19:00,ZGSZ 111900Z 01007MPS CAVOK 14/07 Q1024 NOSIG
ZGSZ,2003-11-11 20:00,ZGSZ 112000Z 01007MPS CAVOK 13/06 Q1023 NOSIG
ZGSZ,2003-11-11 21:00,ZGSZ 112100Z 02007MPS CAVOK 13/06 Q1023 NOSIG
ZGSZ,2003-11-11 22:00,ZGSZ 112200Z 02007MPS CAVOK 12/06 Q1024 NOSIG
ZGSZ,2003-11-11 23:00,ZGSZ 112300Z 01005MPS CAVOK 12/06 Q1024 NOSIG
ZGSZ,2003-11-12 00:00,ZGSZ 120000Z 01007MPS CAVOK 13/06 Q1025 NOSIG
ZGSZ,2003-11-12 01:00,ZGSZ 120100Z 02006MPS CAVOK 14/06 Q1025 NOSIG
ZGSZ,2003-11-12 02:00,ZGSZ 120200Z 02006MPS CAVOK 15/06 Q1025 NOSIG
ZGSZ,2003-11-12 03:00,ZGSZ 120300Z 02006MPS CAVOK 16/07 Q1024 NOSIG
ZGSZ,2003-11-12 04:00,ZGSZ 120400Z 02006MPS CAVOK 18/07 Q1023 NOSIG
ZGSZ,2003-11-12 05:00,ZGSZ 120500Z 36007MPS CAVOK 18/07 Q1022 NOSIG
ZGSZ,2003-11-12 06:00,ZGSZ 120600Z 04006MPS CAVOK 19/07 Q1021 NOSIG
ZGSZ,2003-11-12 07:00,ZGSZ 120700Z 36006MPS CAVOK 19/07 Q1020 NOSIG
ZGSZ,2003-11-12 08:00,ZGSZ 120800Z 03005MPS CAVOK 19/07 Q1020 NOSIG
ZGSZ,2003-11-12 09:00,ZGSZ 120900Z 02006MPS CAVOK 19/07 Q1020 NOSIG
ZGSZ,2003-11-12 10:00,ZGSZ 121000Z 02006MPS CAVOK 18/07 Q1021 NOSIG
ZGSZ,2003-11-12 11:00,ZGSZ 121100Z 02006MPS CAVOK 17/06 Q1021 NOSIG
ZGSZ,2003-11-12 12:00,ZGSZ 121200Z 04006MPS CAVOK 17/06 Q1022 NOSIG
ZGSZ,2003-11-12 13:00,ZGSZ 121300Z 02006MPS CAVOK 16/06 Q1022 NOSIG
ZGSZ,2003-11-12 14:00,ZGSZ 121400Z 02004MPS CAVOK 16/05 Q1022 NOSIG
ZGSZ,2003-11-12 15:00,ZGSZ 121500Z 03004MPS CAVOK 15/05 Q1022 NOSIG
ZGSZ,2003-11-12 16:00,ZGSZ 121600Z 02005MPS CAVOK 15/04 Q1022 NOSIG
ZGSZ,2003-11-12 17:00,ZGSZ 121700Z 05004MPS CAVOK 15/04 Q1021 NOSIG
ZGSZ,2003-11-12 18:00,ZGSZ 121800Z 03004MPS CAVOK 14/04 Q1021 NOSIG
ZGSZ,2003-11-12 19:00,ZGSZ 121900Z 01003MPS CAVOK 14/03 Q1021 NOSIG
ZGSZ,2003-11-12 20:00,ZGSZ 122000Z 02006MPS CAVOK 14/03 Q1020 NOSIG
ZGSZ,2003-11-12 21:00,ZGSZ 122100Z 01004MPS CAVOK 13/04 Q1020 NOSIG
ZGSZ,2003-11-12 22:00,ZGSZ 122200Z 01005MPS CAVOK 13/04 Q1021 NOSIG
ZGSZ,2003-11-12 23:00,ZGSZ 122300Z 01004MPS CAVOK 13/04 Q1022 NOSIG
ZGSZ,2003-11-13 00:00,ZGSZ 130000Z 02004MPS CAVOK 14/04 Q1022 NOSIG
ZGSZ,2003-11-13 01:00,ZGSZ 130100Z 02004MPS 8000 NSC 16/04 Q1022 NOSIG
ZGSZ,2003-11-13 02:00,ZGSZ 130200Z 01005MPS 8000 SKC 17/04 Q1023 NOSIG
ZGSZ,2003-11-13 03:00,ZGSZ 130300Z 02004MPS 8000 SKC 19/06 Q1022 NOSIG
ZGSZ,2003-11-13 04:00,ZGSZ 130400Z 06003MPS 8000 SKC 20/07 Q1021 NOSIG
ZGSZ,2003-11-13 05:00,ZGSZ 130500Z 36005MPS 8000 SKC 22/08 Q1020 NOSIG
ZGSZ,2003-11-13 06:00,ZGSZ 130600Z 36005MPS 7000 SKC 22/08 Q1019 NOSIG
ZGSZ,2003-11-13 07:00,ZGSZ 130700Z 04003MPS 8000 SKC 23/09 Q1018 NOSIG
ZGSZ,2003-11-13 08:00,ZGSZ 130800Z 35002MPS 8000 SKC 23/10 Q1018 NOSIG
ZGSZ,2003-11-13 09:00,ZGSZ 130900Z 36003MPS 8000 SKC 22/10 Q1018 NOSIG
ZGSZ,2003-11-13 10:00,ZGSZ 131000Z 36003MPS 6000 SKC 21/10 Q1018 NOSIG
ZGSZ,2003-11-13 11:00,ZGSZ 131100Z 02002MPS 4000 HZ SKC 20/11 Q1019 NOSIG
ZGSZ,2003-11-13 12:00,ZGSZ 131200Z 07001MPS 4500 HZ SKC 19/11 Q1020 NOSIG
ZGSZ,2003-11-13 13:00,ZGSZ 131300Z 10002MPS 4500 HZ SKC 20/12 Q1020 NOSIG
ZGSZ,2003-11-13 14:00,ZGSZ 131400Z 00000MPS 3800 HZ OVC040 19/13 Q1020 NOSIG
ZGSZ,2003-11-13 15:00,ZGSZ 131500Z 00000MPS 3500 HZ BKN040 20/14 Q1021 NOSIG
ZGSZ,2003-11-13 16:00,ZGSZ 131600Z 01001MPS 3500 HZ OVC043 20/13 Q1020 NOSIG
ZGSZ,2003-11-13 17:00,ZGSZ 131700Z 36001MPS 3500 HZ OVC043 20/13 Q1020 NOSIG
ZGSZ,2003-11-13 18:00,ZGSZ 131800Z 04002MPS 3800 HZ OVC043 19/13 Q1019 NOSIG
ZGSZ,2003-11-13 19:00,ZGSZ 131900Z 00000MPS 4000 HZ OVC043 19/13 Q1019 NOSIG
ZGSZ,2003-11-13 20:00,ZGSZ 132000Z 04002MPS 4500 HZ OVC043 19/13 Q1018 NOSIG
ZGSZ,2003-11-13 21:00,ZGSZ 132100Z 01002MPS 4500 HZ NSC 19/12 Q1018 NOSIG
ZGSZ,2003-11-13 22:00,ZGSZ 132200Z 36003MPS 4500 HZ NSC 19/12 Q1019 NOSIG
ZGSZ,2003-11-13 23:00,ZGSZ 132300Z 36005MPS 3500 HZ NSC 19/13 Q1019 NOSIG
ZGSZ,2003-11-14 00:00,ZGSZ 140000Z 03002MPS 3200 HZ NSC 19/13 Q1019 NOSIG
ZGSZ,2003-11-14 01:00,ZGSZ 140100Z 08005MPS 5000 HZ SKC 22/13 Q1020 NOSIG
ZGSZ,2003-11-14 02:00,ZGSZ 140200Z 07004MPS 4000 HZ NSC 22/13 Q1020 NOSIG
ZGSZ,2003-11-14 03:00,ZGSZ 140300Z 09002MPS 6000 SKC 24/13 Q1019 NOSIG
ZGSZ,2003-11-14 04:00,ZGSZ 140400Z 12003MPS CAVOK 25/13 Q1019 NOSIG
ZGSZ,2003-11-14 05:00,ZGSZ 140500Z 11003MPS CAVOK 26/13 Q1017 NOSIG
ZGSZ,2003-11-14 06:00,ZGSZ 140600Z 36002MPS CAVOK 26/14 Q1016 NOSIG
ZGSZ,2003-11-14 07:00,ZGSZ 140700Z 28003MPS CAVOK 26/15 Q1016 NOSIG
ZGSZ,2003-11-14 08:00,ZGSZ 140800Z 29003MPS CAVOK 25/16 Q1015 NOSIG
ZGSZ,2003-11-14 09:00,ZGSZ 140900Z 34003MPS 4200 HZ SKC 24/15 Q1015 NOSIG
ZGSZ,2003-11-14 10:00,ZGSZ 141000Z 34003MPS 3200 HZ SKC 24/14 Q1016 NOSIG
ZGSZ,2003-11-14 11:00,ZGSZ 141100Z 07002MPS 4000 HZ SKC 23/14 Q1016 NOSIG
ZGSZ,2003-11-14 12:00,ZGSZ 141200Z 09002MPS 3500 HZ SKC 23/14 Q1017 NOSIG
ZGSZ,2003-11-14 13:00,ZGSZ 141300Z 11002MPS 3000 HZ SKC 23/15 Q1017 NOSIG
ZGSZ,2003-11-14 14:00,ZGSZ 141400Z 14002MPS 2000 BR SKC 21/15 Q1017 NOSIG
ZGSZ,2003-11-14 15:00,ZGSZ 141500Z 08001MPS 2500 HZ SKC 22/15 Q1017 NOSIG
ZGSZ,2003-11-14 16:00,ZGSZ 141600Z 11001MPS 4000 BR SKC 21/15 Q1017 NOSIG
ZGSZ,2003-11-14 17:00,ZGSZ 141700Z 00000MPS 3000 BR SKC 20/15 Q1017 NOSIG
ZGSZ,2003-11-14 18:00,ZGSZ 141800Z 36001MPS 3000 BR SKC 19/15 Q1016 NOSIG
ZGSZ,2003-11-14 19:00,ZGSZ 141900Z 02001MPS 3000 BR SKC 19/15 Q1016 NOSIG
ZGSZ,2003-11-14 20:00,ZGSZ 142000Z 02002MPS 3000 BR SKC 19/16 Q1016 NOSIG
ZGSZ,2003-11-14 21:00,ZGSZ 142100Z 01002MPS 3500 BR SKC 19/15 Q1016 NOSIG
ZGSZ,2003-11-14 22:00,ZGSZ 142200Z 04002MPS 3200 BR SKC 18/15 Q1017 NOSIG
ZGSZ,2003-11-14 23:00,ZGSZ 142300Z 36001MPS 2300 BR NSC 19/16 Q1017 NOSIG
ZGSZ,2003-11-15 00:00,ZGSZ 150000Z 36002MPS 2400 BR NSC 20/16 Q1017 NOSIG
ZGSZ,2003-11-15 01:00,ZGSZ 150100Z 36001MPS 1800 BR SKC 22/17 Q1017 NOSIG
ZGSZ,2003-11-15 02:00,ZGSZ 150200Z 26001MPS 2800 HZ SKC 23/16 Q1017 NOSIG
ZGSZ,2003-11-15 03:00,ZGSZ 150300Z 20002MPS 3000 HZ SKC 25/16 Q1017 NOSIG
ZGSZ,2003-11-15 04:00,ZGSZ 150400Z 02004MPS 3000 HZ SKC 27/15 Q1016 NOSIG
ZGSZ,2003-11-15 05:00,ZGSZ 150500Z 01005MPS 4000 HZ SKC 28/14 Q1014 NOSIG
ZGSZ,2003-11-15 06:00,ZGSZ 150600Z 02006MPS 6000 SKC 29/15 Q1013 NOSIG
ZGSZ,2003-11-15 07:00,ZGSZ 150700Z 04006MPS CAVOK 29/15 Q1013 NOSIG
ZGSZ,2003-11-15 08:00,ZGSZ 150800Z 06004MPS CAVOK 28/14 Q1012 NOSIG
ZGSZ,2003-11-15 09:00,ZGSZ 150900Z 05006MPS CAVOK 28/12 Q1013 NOSIG
ZGSZ,2003-11-15 10:00,ZGSZ 151000Z 04004MPS CAVOK 26/13 Q1013 NOSIG
ZGSZ,2003-11-15 11:00,ZGSZ 151100Z 01003MPS CAVOK 24/13 Q1013 NOSIG
ZGSZ,2003-11-15 12:00,ZGSZ 151200Z 36004MPS CAVOK 24/14 Q1013 NOSIG
ZGSZ,2003-11-15 13:00,ZGSZ 151300Z 02003MPS CAVOK 23/14 Q1014 NOSIG
ZGSZ,2003-11-15 14:00,ZGSZ 151400Z 35003MPS CAVOK 22/14 Q1013 NOSIG
ZGSZ,2003-11-15 15:00,ZGSZ 151500Z 36003MPS CAVOK 22/14 Q1013 NOSIG
ZGSZ,2003-11-15 16:00,ZGSZ 151600Z 01003MPS CAVOK 21/14 Q1013 NOSIG
ZGSZ,2003-11-15 17:00,ZGSZ 151700Z 02001MPS CAVOK 21/14 Q1013 NOSIG
ZGSZ,2003-11-15 18:00,ZGSZ 151800Z 18001MPS CAVOK 21/14 Q1013 NOSIG
ZGSZ,2003-11-15 19:00,ZGSZ 151900Z 00000MPS CAVOK 21/15 Q1013 NOSIG
ZGSZ,2003-11-15 20:00,ZGSZ 152000Z 00000MPS CAVOK 21/14 Q1013 NOSIG
ZGSZ,2003-11-15 21:00,ZGSZ 152100Z 35001MPS CAVOK 21/14 Q1013 NOSIG
ZGSZ,2003-11-15 22:00,ZGSZ 152200Z 01001MPS CAVOK 21/15 Q1014 NOSIG
ZGSZ,2003-11-15 23:00,ZGSZ 152300Z 01003MPS CAVOK 22/14 Q1014 NOSIG
ZGSZ,2003-11-16 00:00,ZGSZ 160000Z 01003MPS CAVOK 22/13 Q1015 NOSIG
ZGSZ,2003-11-16 01:00,ZGSZ 160100Z 02004MPS CAVOK 23/13 Q1015 NOSIG
ZGSZ,2003-11-16 02:00,ZGSZ 160200Z 01004MPS CAVOK 24/13 Q1015 NOSIG
ZGSZ,2003-11-16 03:00,ZGSZ 160300Z 02005MPS CAVOK 25/13 Q1015 NOSIG
ZGSZ,2003-11-16 04:00,ZGSZ 160400Z 05004MPS CAVOK 25/13 Q1015 NOSIG
ZGSZ,2003-11-16 05:00,ZGSZ 160500Z 04004MPS CAVOK 25/13 Q1014 NOSIG
ZGSZ,2003-11-16 06:00,ZGSZ 160600Z 06003MPS CAVOK 26/13 Q1013 NOSIG
ZGSZ,2003-11-16 07:00,ZGSZ 160700Z 07002MPS CAVOK 26/14 Q1013 NOSIG
ZGSZ,2003-11-16 08:00,ZGSZ 160800Z 07003MPS CAVOK 26/14 Q1013 NOSIG
ZGSZ,2003-11-16 09:00,ZGSZ 160900Z 08003MPS CAVOK 25/14 Q1013 NOSIG
ZGSZ,2003-11-16 10:00,ZGSZ 161000Z 08003MPS CAVOK 25/14 Q1013 NOSIG
ZGSZ,2003-11-16 11:00,ZGSZ 161100Z 10002MPS CAVOK 25/14 Q1013 NOSIG
ZGSZ,2003-11-16 12:00,ZGSZ 161200Z 05003MPS CAVOK 25/15 Q1014 NOSIG
ZGSZ,2003-11-16 13:00,ZGSZ 161300Z 10002MPS CAVOK 25/15 Q1014 NOSIG
ZGSZ,2003-11-16 14:00,ZGSZ 161400Z 15002MPS CAVOK 24/16 Q1015 NOSIG
ZGSZ,2003-11-16 15:00,ZGSZ 161500Z 11003MPS CAVOK 24/16 Q1015 NOSIG
ZGSZ,2003-11-16 16:00,ZGSZ 161600Z 11001MPS CAVOK 24/16 Q1014 NOSIG
ZGSZ,2003-11-16 17:00,ZGSZ 161700Z 12001MPS CAVOK 23/17 Q1014 NOSIG
ZGSZ,2003-11-16 18:00,ZGSZ 161800Z 17001MPS CAVOK 24/17 Q1014 NOSIG
ZGSZ,2003-11-16 19:00,ZGSZ 161900Z 00000MPS CAVOK 23/17 Q1014 NOSIG
ZGSZ,2003-11-16 20:00,ZGSZ 162000Z 09002MPS CAVOK 23/17 Q1014 NOSIG
ZGSZ,2003-11-16 21:00,ZGSZ 162100Z 00000MPS CAVOK 23/17 Q1014 NOSIG
ZGSZ,2003-11-16 22:00,ZGSZ 162200Z 00000MPS CAVOK 22/17 Q1015 NOSIG
ZGSZ,2003-11-16 23:00,ZGSZ 162300Z 09002MPS 5000 BR NSC 22/17 Q1015 NOSIG
ZGSZ,2003-11-17 00:00,ZGSZ 170000Z 19001MPS 4000 BR NSC 22/17 Q1016 NOSIG
ZGSZ,2003-11-17 01:00,ZGSZ 170100Z 00000MPS 4000 BR NSC 22/18 Q1016 NOSIG
ZGSZ,2003-11-17 02:00,ZGSZ 170200Z 11002MPS 2400 -RA BR SCT023 OVC050 21/18 Q1017 NOSIG
ZGSZ,2003-11-17 03:00,ZGSZ 170300Z 14001MPS 2800 BR NSC 21/18 Q1017 NOSIG
ZGSZ,2003-11-17 04:00,ZGSZ 170400Z 00000MPS 2600 BR FEW023 OVC046 21/18 Q1016 NOSIG
ZGSZ,2003-11-17 05:00,ZGSZ 170500Z 00000MPS 1200 R33/1300N -RA BR SCT023 OVC043 21/18 Q1015 TEMPO 1100 RA
ZGSZ,2003-11-17 06:00,ZGSZ 170600Z 11002MPS 2400 -RA BR SCT021 OVC043 20/18 Q1015 TEMPO 1100 RA
ZGSZ,2003-11-17 07:00,ZGSZ 170700Z 05002MPS 2800 BR SCT020 OVC043 21/18 Q1014 NOSIG
ZGSZ,2003-11-17 08:00,ZGSZ 170800Z 02003MPS 2800 BR SCT018 OVC043 21/18 Q1014 NOSIG
ZGSZ,2003-11-17 09:00,ZGSZ 170900Z 02004MPS 1900 BR FEW016 OVC043 21/18 Q1014 NOSIG
ZGSZ,2003-11-17 10:00,ZGSZ 171000Z 01003MPS 2000 BR FEW016 OVC040 21/18 Q1014 NOSIG
ZGSZ,2003-11-17 11:00,ZGSZ 171100Z 02002MPS 2000 BR FEW016 OVC043 21/18 Q1015 NOSIG
ZGSZ,2003-11-17 12:00,ZGSZ 171200Z 01003MPS 2000 BR FEW016 OVC043 21/18 Q1015 NOSIG
ZGSZ,2003-11-17 13:00,ZGSZ 171300Z 01002MPS 2000 BR FEW016 OVC043 21/18 Q1015 NOSIG
ZGSZ,2003-11-17 14:00,ZGSZ 171400Z 32001MPS 2000 -RA BR SCT016 OVC043 20/18 Q1016 NOSIG
ZGSZ,2003-11-17 15:00,ZGSZ 171500Z 35002MPS 1900 BR SCT016 OVC043 20/18 Q1016 NOSIG
ZGSZ,2003-11-17 16:00,ZGSZ 171600Z 35003MPS 2000 BR SCT016 OVC040 20/18 Q1015 NOSIG
ZGSZ,2003-11-17 17:00,ZGSZ 171700Z 00000MPS 2000 BR SCT016 OVC040 21/18 Q1015 NOSIG
ZGSZ,2003-11-17 18:00,ZGSZ 171800Z 07001MPS 2000 BR SCT016 OVC040 21/18 Q1014 NOSIG
ZGSZ,2003-11-17 19:00,ZGSZ 171900Z 00000MPS 2000 BR SCT016 OVC040 21/18 Q1014 NOSIG
ZGSZ,2003-11-17 20:00,ZGSZ 172000Z 11002MPS 2000 BR SCT016 OVC040 21/17 Q1014 NOSIG
ZGSZ,2003-11-17 21:00,ZGSZ 172100Z 11003MPS 3500 BR FEW020 BKN043 21/17 Q1014 NOSIG
ZGSZ,2003-11-17 22:00,ZGSZ 172200Z 15002MPS 3500 BR FEW020 BKN043 21/17 Q1014 NOSIG
ZGSZ,2003-11-17 23:00,ZGSZ 172300Z 10004MPS 9999 FEW020 BKN043 21/17 Q1014 NOSIG
ZGSZ,2003-11-18 00:00,ZGSZ 180000Z 06002MPS 9999 FEW020 BKN043 22/17 Q1015 NOSIG
ZGSZ,2003-11-18 01:00,ZGSZ 180100Z 09003MPS 9999 FEW016 BKN043 22/17 Q1015 NOSIG
ZGSZ,2003-11-18 02:00,ZGSZ 180200Z 08002MPS 9999 FEW016 OVC043 23/17 Q1015 NOSIG
ZGSZ,2003-11-18 03:00,ZGSZ 180300Z 09003MPS 9999 FEW016 BKN100 24/18 Q1015 NOSIG
ZGSZ,2003-11-18 04:00,ZGSZ 180400Z 09002MPS CAVOK 25/18 Q1014 NOSIG
ZGSZ,2003-11-18 05:00,ZGSZ 180500Z 28002MPS CAVOK 25/18 Q1013 NOSIG
ZGSZ,2003-11-18 06:00,ZGSZ 180600Z 25002MPS 9999 FEW015 OVC070 25/19 Q1012 NOSIG
ZGSZ,2003-11-18 07:00,ZGSZ 180700Z 27002MPS 9999 FEW020 BKN100 25/19 Q1011 NOSIG
ZGSZ,2003-11-18 08:00,ZGSZ 180800Z 23002MPS 9999 FEW016 BKN070 24/19 Q1011 NOSIG
ZGSZ,2003-11-18 09:00,ZGSZ 180900Z 25003MPS 8000 SCT017 BKN053 24/19 Q1012 NOSIG
ZGSZ,2003-11-18 10:00,ZGSZ 181000Z 11005MPS 9999 SCT017 BKN053 25/19 Q1012 NOSIG
ZGSZ,2003-11-18 11:00,ZGSZ 181100Z 10004MPS 9999 SCT017 BKN053 24/19 Q1012 NOSIG
ZGSZ,2003-11-18 12:00,ZGSZ 181200Z 09003MPS 9999 FEW018 SCT053 24/19 Q1013 NOSIG
ZGSZ,2003-11-18 13:00,ZGSZ 181300Z 10005MPS 9999 FEW017 BKN050 24/19 Q1013 NOSIG
ZGSZ,2003-11-18 14:00,ZGSZ 181400Z 10006MPS 9999 FEW017 BKN050 24/19 Q1013 NOSIG
ZGSZ,2003-11-18 15:00,ZGSZ 181500Z 11005MPS 9999 FEW017 SCT050 24/19 Q1013 NOSIG
ZGSZ,2003-11-18 16:00,ZGSZ 181600Z 09005MPS CAVOK 24/19 Q1012 NOSIG
ZGSZ,2003-11-18 17:00,ZGSZ 181700Z 09006MPS 9999 FEW017 SCT050 24/19 Q1012 NOSIG
ZGSZ,2003-11-18 18:00,ZGSZ 181800Z 09003MPS 9999 FEW017 BKN050 24/19 Q1012 NOSIG
ZGSZ,2003-11-18 19:00,ZGSZ 181900Z 09003MPS 9999 FEW017 BKN050 23/19 Q1012 NOSIG
ZGSZ,2003-11-18 20:00,ZGSZ 182000Z 07001MPS 9999 FEW017 BKN050 23/19 Q1012 NOSIG
ZGSZ,2003-11-18 21:00,ZGSZ 182100Z 00000MPS 9999 FEW017 BKN050 23/19 Q1012 NOSIG
ZGSZ,2003-11-18 22:00,ZGSZ 182200Z 08002MPS 9999 FEW017 BKN050 23/20 Q1012 NOSIG
ZGSZ,2003-11-18 23:00,ZGSZ 182300Z 10001MPS 9999 FEW017 BKN043 23/20 Q1012 NOSIG
ZGSZ,2003-11-19 00:00,ZGSZ 190000Z 09003MPS 9999 SCT017 BKN043 24/20 Q1013 NOSIG
ZGSZ,2003-11-19 01:00,ZGSZ 190100Z 09004MPS CAVOK 25/20 Q1014 NOSIG
ZGSZ,2003-11-19 02:00,ZGSZ 190200Z 10005MPS 9999 SCT030 26/21 Q1014 NOSIG
ZGSZ,2003-11-19 03:00,ZGSZ 190300Z 12004MPS 9999 SCT026 27/20 Q1013 NOSIG
ZGSZ,2003-11-19 04:00,ZGSZ 190400Z 10005MPS 9999 SCT030 27/20 Q1012 NOSIG
ZGSZ,2003-11-19 05:00,ZGSZ 190500Z 13005MPS 9999 FEW026 28/20 Q1011 NOSIG
ZGSZ,2003-11-19 06:00,ZGSZ 190600Z 22004MPS 9999 SCT020 27/21 Q1010 NOSIG
ZGSZ,2003-11-19 07:00,ZGSZ 190700Z 23003MPS 9999 BKN026 27/22 Q1009 NOSIG
ZGSZ,2003-11-19 08:00,ZGSZ 190800Z 18004MPS 9999 BKN030 27/22 Q1009 NOSIG
ZGSZ,2003-11-19 09:00,ZGSZ 190900Z 09004MPS 9999 SCT023 27/20 Q1010 NOSIG
ZGSZ,2003-11-19 10:00,ZGSZ 191000Z 10004MPS 9999 BKN023 26/20 Q1010 NOSIG
ZGSZ,2003-11-19 11:00,ZGSZ 191100Z 11005MPS 9999 BKN025 25/20 Q1011 NOSIG
ZGSZ,2003-11-19 12:00,ZGSZ 191200Z 10005MPS 9999 BKN025 25/20 Q1011 NOSIG
ZGSZ,2003-11-19 13:00,ZGSZ 191300Z 09004MPS 9999 BKN026 25/20 Q1012 NOSIG
ZGSZ,2003-11-19 14:00,ZGSZ 191400Z 10003MPS 9999 BKN026 25/20 Q1012 NOSIG
ZGSZ,2003-11-19 15:00,ZGSZ 191500Z 10004MPS 9999 BKN026 24/20 Q1012 NOSIG
ZGSZ,2003-11-19 16:00,ZGSZ 191600Z 13004MPS 9999 SCT030 24/20 Q1011 NOSIG
ZGSZ,2003-11-19 17:00,ZGSZ 191700Z 13003MPS CAVOK 24/21 Q1011 NOSIG
ZGSZ,2003-11-19 18:00,ZGSZ 191800Z 10005MPS CAVOK 24/21 Q1010 NOSIG
ZGSZ,2003-11-19 19:00,ZGSZ 191900Z 08002MPS CAVOK 24/21 Q1010 NOSIG
ZGSZ,2003-11-19 20:00,ZGSZ 192000Z 09002MPS 9999 BKN030 24/21 Q1010 NOSIG
ZGSZ,2003-11-19 21:00,ZGSZ 192100Z 10002MPS 9999 BKN030 24/20 Q1010 NOSIG
ZGSZ,2003-11-19 22:00,ZGSZ 192200Z 09004MPS 9999 BKN030 24/21 Q1010 NOSIG
ZGSZ,2003-11-19 23:00,ZGSZ 192300Z 09004MPS CAVOK 24/21 Q1010 NOSIG
ZGSZ,2003-11-20 00:00,ZGSZ 200000Z 12003MPS CAVOK 24/21 Q1011 NOSIG
ZGSZ,2003-11-20 01:00,ZGSZ 200100Z 11003MPS 9999 FEW023 SCT120 26/21 Q1012 NOSIG
ZGSZ,2003-11-20 02:00,ZGSZ 200200Z 13004MPS 8000 BKN023 28/21 Q1012 NOSIG
ZGSZ,2003-11-20 03:00,ZGSZ 200300Z 18004MPS 9999 SCT023 SCT120 27/22 Q1012 NOSIG
ZGSZ,2003-11-20 04:00,ZGSZ 200400Z 19003MPS 9999 SCT023 BKN050 27/22 Q1011 NOSIG
ZGSZ,2003-11-20 05:00,ZGSZ 200500Z 19004MPS 9999 SCT023 BKN050 26/22 Q1010 NOSIG
ZGSZ,2003-11-20 06:00,ZGSZ 200600Z 18004MPS 9999 SCT023 BKN050 26/22 Q1009 NOSIG
ZGSZ,2003-11-20 07:00,ZGSZ 200700Z 17005MPS 9999 FEW023 BKN050 26/22 Q1009 NOSIG
ZGSZ,2003-11-20 08:00,ZGSZ 200800Z 16005MPS 9999 FEW023 SCT043 27/22 Q1009 NOSIG
ZGSZ,2003-11-20 09:00,ZGSZ 200900Z 16004MPS 9999 FEW026 BKN093 26/22 Q1009 NOSIG
ZGSZ,2003-11-20 10:00,ZGSZ 201000Z 17003MPS 9999 FEW025 BKN060 25/22 Q1010 NOSIG
ZGSZ,2003-11-20 11:00,ZGSZ 201100Z 17003MPS CAVOK 25/22 Q1011 NOSIG
ZGSZ,2003-11-20 12:00,ZGSZ 201200Z 14002MPS 8000 SKC 24/22 Q1011 NOSIG
ZGSZ,2003-11-20 13:00,ZGSZ 201300Z 18002MPS 4500 BR NSC 24/22 Q1012 NOSIG
ZGSZ,2003-11-20 14:00,ZGSZ 201400Z 14002MPS 7000 NSC 24/21 Q1012 NOSIG
ZGSZ,2003-11-20 15:00,ZGSZ 201500Z 15001MPS CAVOK 24/21 Q1012 NOSIG
ZGSZ,2003-11-20 16:00,ZGSZ 201600Z 00000MPS 8000 SKC 23/21 Q1012 NOSIG
ZGSZ,2003-11-20 17:00,ZGSZ 201700Z 31001MPS 5000 BR SKC 23/20 Q1013 NOSIG
ZGSZ,2003-11-20 18:00,ZGSZ 201800Z 34001MPS 5000 BR NSC 23/21 Q1012 NOSIG
ZGSZ,2003-11-20 19:00,ZGSZ 201900Z 32006MPS 2100 BR BKN040 23/21 Q1012 NOSIG
ZGSZ,2003-11-20 20:00,ZGSZ 202000Z 35004MPS 4800 BR BKN040 22/19 Q1013 NOSIG
ZGSZ,2003-11-20 21:00,ZGSZ 202100Z 35003MPS 5000 BR NSC 22/19 Q1013 NOSIG
ZGSZ,2003-11-20 22:00,ZGSZ 202200Z 36004MPS 5000 NSC 22/18 Q1014 NOSIG
ZGSZ,2003-11-20 23:00,ZGSZ 202300Z 01005MPS 9999 FEW020 SCT050 21/17 Q1015 NOSIG
ZGSZ,2003-11-21 00:00,ZGSZ 210000Z 02004MPS 9999 BKN030 21/16 Q1016 NOSIG
ZGSZ,2003-11-21 01:00,ZGSZ 210100Z 01005MPS 9999 BKN030 BKN050 22/16 Q1017 NOSIG
ZGSZ,2003-11-21 02:00,ZGSZ 210200Z 04005MPS 9999 BKN033 BKN050 22/16 Q1017 NOSIG
ZGSZ,2003-11-21 03:00,ZGSZ 210300Z 01006MPS 9999 SCT030 24/15 Q1017 NOSIG
ZGSZ,2003-11-21 04:00,ZGSZ 210400Z 03008MPS 9999 FEW026 25/15 Q1016 NOSIG
ZGSZ,2003-11-21 05:00,ZGSZ 210500Z 01006MPS CAVOK 25/15 Q1016 NOSIG
ZGSZ,2003-11-21 06:00,ZGSZ 210600Z 35007MPS CAVOK 26/15 Q1015 NOSIG
ZGSZ,2003-11-21 07:00,ZGSZ 210700Z 01007MPS CAVOK 25/15 Q1014 NOSIG
ZGSZ,2003-11-21 08:00,ZGSZ 210800Z 01008MPS CAVOK 25/14 Q1015 NOSIG
ZGSZ,2003-11-21 09:00,ZGSZ 210900Z 04007MPS CAVOK 23/13 Q1015 NOSIG
ZGSZ,2003-11-21 10:00,ZGSZ 211000Z 04006MPS CAVOK 22/13 Q1016 NOSIG
ZGSZ,2003-11-21 11:00,ZGSZ 211100Z 02007MPS CAVOK 20/12 Q1018 NOSIG
ZGSZ,2003-11-21 12:00,ZGSZ 211200Z 01007MPS CAVOK 20/12 Q1019 NOSIG
ZGSZ,2003-11-21 13:00,ZGSZ 211300Z 01006MPS CAVOK 19/12 Q1020 NOSIG
ZGSZ,2003-11-21 14:00,ZGSZ 211400Z 02004MPS CAVOK 18/11 Q1020 NOSIG
ZGSZ,2003-11-21 15:00,ZGSZ 211500Z 03005MPS CAVOK 18/11 Q1021 NOSIG
ZGSZ,2003-11-21 16:00,ZGSZ 211600Z 04006MPS CAVOK 18/11 Q1021 NOSIG
ZGSZ,2003-11-21 17:00,ZGSZ 211700Z 02006MPS CAVOK 18/10 Q1021 NOSIG
ZGSZ,2003-11-21 18:00,ZGSZ 211800Z 03006MPS CAVOK 17/10 Q1021 NOSIG
ZGSZ,2003-11-21 19:00,ZGSZ 211900Z 04006MPS CAVOK 17/10 Q1021 NOSIG
ZGSZ,2003-11-21 20:00,ZGSZ 212000Z 03006MPS CAVOK 17/09 Q1021 NOSIG
ZGSZ,2003-11-21 21:00,ZGSZ 212100Z 04005MPS CAVOK 16/09 Q1021 NOSIG
ZGSZ,2003-11-21 22:00,ZGSZ 212200Z 02006MPS CAVOK 16/08 Q1021 NOSIG
ZGSZ,2003-11-21 23:00,ZGSZ 212300Z 03005MPS CAVOK 16/08 Q1022 NOSIG
ZGSZ,2003-11-22 00:00,ZGSZ 220000Z 03005MPS CAVOK 16/08 Q1022 NOSIG
ZGSZ,2003-11-22 01:00,ZGSZ 220100Z 01005MPS CAVOK 16/08 Q1023 NOSIG
ZGSZ,2003-11-22 02:00,ZGSZ 220200Z 02005MPS CAVOK 18/09 Q1023 NOSIG
ZGSZ,2003-11-22 03:00,ZGSZ 220300Z 02005MPS CAVOK 18/09 Q1023 NOSIG
ZGSZ,2003-11-22 04:00,ZGSZ 220400Z 02005MPS 9999 BKN030 BKN050 19/09 Q1022 NOSIG
ZGSZ,2003-11-22 05:00,ZGSZ 220500Z 01005MPS 9999 SCT033 BKN050 19/09 Q1020 NOSIG
ZGSZ,2003-11-22 06:00,ZGSZ 220600Z 03003MPS 9999 SCT033 BKN050 20/10 Q1019 NOSIG
ZGSZ,2003-11-22 07:00,ZGSZ 220700Z 03003MPS 8000 SCT033 BKN050 21/10 Q1019 NOSIG
ZGSZ,2003-11-22 08:00,ZGSZ 220800Z 07003MPS 7000 OVC046 21/10 Q1019 NOSIG
ZGSZ,2003-11-22 09:00,ZGSZ 220900Z 03003MPS 7000 FEW018 OVC040 20/10 Q1019 NOSIG
ZGSZ,2003-11-22 10:00,ZGSZ 221000Z 07003MPS 4000 HZ FEW018 OVC033 20/10 Q1020 NOSIG
ZGSZ,2003-11-22 11:00,ZGSZ 221100Z 10002MPS 4000 HZ FEW017 OVC033 20/10 Q1020 NOSIG
ZGSZ,2003-11-22 12:00,ZGSZ 221200Z 12002MPS 4000 HZ FEW017 OVC033 20/11 Q1021 NOSIG
ZGSZ,2003-11-22 13:00,ZGSZ 221300Z 07002MPS 3500 HZ FEW017 OVC033 20/11 Q1022 NOSIG
ZGSZ,2003-11-22 14:00,ZGSZ 221400Z 07003MPS 3500 HZ FEW017 OVC033 20/11 Q1022 NOSIG
ZGSZ,2003-11-22 15:00,ZGSZ 221500Z 07003MPS 3000 HZ FEW017 OVC033 20/11 Q1022 NOSIG
ZGSZ,2003-11-22 16:00,ZGSZ 221600Z 09003MPS 3000 HZ FEW017 OVC033 20/12 Q1022 NOSIG
ZGSZ,2003-11-22 17:00,ZGSZ 221700Z 09004MPS 3000 HZ FEW017 OVC033 20/12 Q1022 NOSIG
ZGSZ,2003-11-22 18:00,ZGSZ 221800Z 08004MPS 3200 HZ FEW017 OVC033 20/12 Q1021 NOSIG
ZGSZ,2003-11-22 19:00,ZGSZ 221900Z 04002MPS 3200 HZ FEW017 OVC033 19/11 Q1022 NOSIG
ZGSZ,2003-11-22 20:00,ZGSZ 222000Z 07003MPS 3200 HZ FEW017 OVC033 19/12 Q1022 NOSIG
ZGSZ,2003-11-22 21:00,ZGSZ 222100Z 07003MPS 3200 HZ FEW017 OVC033 17/11 Q1022 NOSIG
ZGSZ,2003-11-22 22:00,ZGSZ 222200Z 07002MPS 4000 HZ SKC 17/11 Q1023 NOSIG
ZGSZ,2003-11-22 23:00,ZGSZ 222300Z 08003MPS 6000 SKC 17/11 Q1023 NOSIG
ZGSZ,2003-11-23 00:00,ZGSZ 230000Z 09003MPS 4500 HZ SKC 18/11 Q1024 NOSIG
ZGSZ,2003-11-23 01:00,ZGSZ 230100Z 10003MPS 7000 NSC 19/11 Q1024 NOSIG
ZGSZ,2003-11-23 02:00,ZGSZ 230200Z 09003MPS CAVOK 20/11 Q1024 NOSIG
ZGSZ,2003-11-23 03:00,ZGSZ 230300Z 07004MPS CAVOK 22/11 Q1023 NOSIG
ZGSZ,2003-11-23 04:00,ZGSZ 230400Z 08003MPS CAVOK 23/11 Q1022 NOSIG
ZGSZ,2003-11-23 05:00,ZGSZ 230500Z 10003MPS CAVOK 23/11 Q1021 NOSIG
ZGSZ,2003-11-23 06:00,ZGSZ 230600Z 28003MPS CAVOK 24/11 Q1020 NOSIG
ZGSZ,2003-11-23 07:00,ZGSZ 230700Z 29003MPS 8000 SKC 23/13 Q1019 NOSIG
ZGSZ,2003-11-23 08:00,ZGSZ 230800Z 28003MPS CAVOK 23/13 Q1019 NOSIG
ZGSZ,2003-11-23 09:00,ZGSZ 230900Z 30002MPS 7000 SKC 22/13 Q1019 NOSIG
ZGSZ,2003-11-23 10:00,ZGSZ 231000Z 31001MPS 6000 SKC 21/13 Q1019 NOSIG
ZGSZ,2003-11-23 11:00,ZGSZ 231100Z 33001MPS 8000 SKC 21/14 Q1020 NOSIG
ZGSZ,2003-11-23 12:00,ZGSZ 231200Z 12002MPS 3000 HZ SKC 21/13 Q1020 NOSIG
ZGSZ,2003-11-23 13:00,ZGSZ 231300Z 11003MPS 8000 SKC 20/13 Q1021 NOSIG
ZGSZ,2003-11-23 14:00,ZGSZ 231400Z 09003MPS 6000 SKC 20/13 Q1021 NOSIG
ZGSZ,2003-11-23 15:00,ZGSZ 231500Z 16002MPS 8000 SKC 20/13 Q1021 NOSIG
ZGSZ,2003-11-23 16:00,ZGSZ 231600Z 00000MPS 8000 SKC 19/13 Q1021 NOSIG
ZGSZ,2003-11-23 17:00,ZGSZ 231700Z 36002MPS 8000 SKC 18/14 Q1021 NOSIG
ZGSZ,2003-11-23 18:00,ZGSZ 231800Z 00000MPS 8000 SKC 18/14 Q1021 NOSIG
ZGSZ,2003-11-23 19:00,ZGSZ 231900Z 07002MPS 8000 SKC 18/13 Q1020 NOSIG
ZGSZ,2003-11-23 20:00,ZGSZ 232000Z 36003MPS 8000 SKC 18/14 Q1020 NOSIG
ZGSZ,2003-11-23 21:00,ZGSZ 232100Z 02001MPS 8000 SKC 17/14 Q1020 NOSIG
ZGSZ,2003-11-23 22:00,ZGSZ 232200Z 36003MPS 8000 SKC 17/13 Q1021 NOSIG
ZGSZ,2003-11-23 23:00,ZGSZ 232300Z 35002MPS 3000 SKC 17/13 Q1021 NOSIG
ZGSZ,2003-11-24 00:00,ZGSZ 240000Z 00000MPS 2000 BR SKC 18/14 Q1022 NOSIG
ZGSZ,2003-11-24 01:00,ZGSZ 240100Z 02002MPS 2500 HZ NSC 20/14 Q1022 NOSIG
ZGSZ,2003-11-24 02:00,ZGSZ 240200Z 07001MPS 2600 HZ SKC 21/15 Q1022 NOSIG
ZGSZ,2003-11-24 03:00,ZGSZ 240300Z 27003MPS 3000 HZ SKC 23/15 Q1021 NOSIG
ZGSZ,2003-11-24 04:00,ZGSZ 240400Z 28002MPS 5000 HZ SKC 25/14 Q1020 NOSIG
ZGSZ,2003-11-24 05:00,ZGSZ 240500Z 28003MPS 6000 SKC 25/16 Q1018 NOSIG
ZGSZ,2003-11-24 06:00,ZGSZ 240600Z 29005MPS 5000 HZ SKC 25/15 Q1018 NOSIG
ZGSZ,2003-11-24 07:00,ZGSZ 240700Z 31006MPS 2800 HZ SKC 25/16 Q1017 NOSIG
ZGSZ,2003-11-24 08:00,ZGSZ 240800Z 30006MPS 4000 HZ SKC 25/17 Q1017 NOSIG
ZGSZ,2003-11-24 09:00,ZGSZ 240900Z 03002G07MPS 6000 SKC 25/14 Q1017 NOSIG
ZGSZ,2003-11-24 10:00,ZGSZ 241000Z 05002MPS 6000 SKC 24/14 Q1017 NOSIG
ZGSZ,2003-11-24 11:00,ZGSZ 241100Z 18002MPS 6000 SKC 23/15 Q1018 NOSIG
ZGSZ,2003-11-24 12:00,ZGSZ 241200Z 16002MPS 6000 SKC 21/17 Q1019 NOSIG
ZGSZ,2003-11-24 13:00,ZGSZ 241300Z 15002MPS 3000 BR SKC 20/17 Q1019 NOSIG
ZGSZ,2003-11-24 14:00,ZGSZ 241400Z 10002MPS 3000 HZ SKC 22/15 Q1020 NOSIG
ZGSZ,2003-11-24 15:00,ZGSZ 241500Z 09001MPS 4000 HZ SKC 21/15 Q1020 NOSIG
ZGSZ,2003-11-24 16:00,ZGSZ 241600Z 08002MPS 2000 BR SKC 21/15 Q1020 NOSIG
ZGSZ,2003-11-24 17:00,ZGSZ 241700Z 00000MPS 2500 BR SKC 19/15 Q1020 NOSIG
ZGSZ,2003-11-24 18:00,ZGSZ 241800Z 00000MPS 2500 BR SKC 19/15 Q1020 NOSIG
ZGSZ,2003-11-24 19:00,ZGSZ 241900Z 36003MPS 2500 BR SKC 19/15 Q1019 NOSIG
ZGSZ,2003-11-24 20:00,ZGSZ 242000Z 35003MPS 2500 BR SKC 19/16 Q1019 NOSIG
ZGSZ,2003-11-24 21:00,ZGSZ 242100Z 01003MPS 2500 BR SKC 18/15 Q1020 NOSIG
ZGSZ,2003-11-24 22:00,ZGSZ 242200Z 00000MPS 2500 BR SKC 18/15 Q1020 NOSIG
ZGSZ,2003-11-24 23:00,ZGSZ 242300Z 00000MPS 2500 BR SKC 18/14 Q1021 NOSIG
ZGSZ,2003-11-25 00:00,ZGSZ 250000Z 00000MPS 3500 HZ SKC 20/14 Q1021 NOSIG
ZGSZ,2003-11-25 01:00,ZGSZ 250100Z 08002MPS 4000 HZ SKC 21/14 Q1022 NOSIG
ZGSZ,2003-11-25 02:00,ZGSZ 250200Z 08003MPS 4500 HZ SKC 23/13 Q1021 NOSIG
ZGSZ,2003-11-25 03:00,ZGSZ 250300Z 07003MPS 6000 SKC 24/13 Q1021 NOSIG
ZGSZ,2003-11-25 04:00,ZGSZ 250400Z 09004MPS 6000 SKC 26/13 Q1020 NOSIG
ZGSZ,2003-11-25 05:00,ZGSZ 250500Z 24003MPS 6000 SKC 27/13 Q1018 NOSIG
ZGSZ,2003-11-25 06:00,ZGSZ 250600Z 27003MPS 7000 SKC 27/13 Q1017 NOSIG
ZGSZ,2003-11-25 07:00,ZGSZ 250700Z 28004MPS 7000 SKC 27/14 Q1016 NOSIG
ZGSZ,2003-11-25 08:00,ZGSZ 250800Z 29003MPS 6000 SKC 27/15 Q1016 NOSIG
ZGSZ,2003-11-25 09:00,ZGSZ 250900Z 00000MPS 6000 SKC 26/13 Q1016 NOSIG
ZGSZ,2003-11-25 10:00,ZGSZ 251000Z 06002MPS 3500 HZ SKC 25/13 Q1016 NOSIG
ZGSZ,2003-11-25 11:00,ZGSZ 251100Z 14003MPS 3000 BR SKC 22/17 Q1017 NOSIG
ZGSZ,2003-11-25 12:00,ZGSZ 251200Z 16003MPS 3000 BR SKC 22/18 Q1017 NOSIG
ZGSZ,2003-11-25 13:00,ZGSZ 251300Z 12003MPS 2500 HZ SKC 23/15 Q1018 NOSIG
ZGSZ,2003-11-25 14:00,ZGSZ 251400Z 11003MPS 3000 HZ SKC 22/16 Q1019 NOSIG
ZGSZ,2003-11-25 15:00,ZGSZ 251500Z 13004MPS 3000 BR SKC 21/16 Q1019 NOSIG
ZGSZ,2003-11-25 16:00,ZGSZ 251600Z 10002MPS 4000 BR SKC 21/16 Q1019 NOSIG
ZGSZ,2003-11-25 17:00,ZGSZ 251700Z 05001MPS 6000 SKC 20/16 Q1019 NOSIG
ZGSZ,2003-11-25 18:00,ZGSZ 251800Z 04002MPS 4500 BR SKC 20/16 Q1019 NOSIG
ZGSZ,2003-11-25 19:00,ZGSZ 251900Z 04002MPS 4500 BR SKC 19/16 Q1019 NOSIG
ZGSZ,2003-11-25 20:00,ZGSZ 252000Z 04002MPS 3000 BR SKC 19/16 Q1019 NOSIG
ZGSZ,2003-11-25 21:00,ZGSZ 252100Z 02002MPS 3000 BR SKC 19/15 Q1019 NOSIG
ZGSZ,2003-11-25 22:00,ZGSZ 252200Z 36003MPS 3000 BR SKC 19/16 Q1019 NOSIG
ZGSZ,2003-11-25 23:00,ZGSZ 252300Z 04002MPS 2800 BR SKC 18/15 Q1020 NOSIG
ZGSZ,2003-11-26 00:00,ZGSZ 260000Z 03002MPS 5000 SKC 20/13 Q1020 NOSIG
ZGSZ,2003-11-26 01:00,ZGSZ 260100Z 02003MPS 6000 SKC 21/13 Q1021 NOSIG
ZGSZ,2003-11-26 02:00,ZGSZ 260200Z 10001MPS CAVOK 23/13 Q1020 NOSIG
ZGSZ,2003-11-26 03:00,ZGSZ 260300Z 28003MPS CAVOK 24/13 Q1020 NOSIG
ZGSZ,2003-11-26 04:00,ZGSZ 260400Z 35004MPS CAVOK 25/13 Q1019 NOSIG
ZGSZ,2003-11-26 05:00,ZGSZ 260500Z 32005MPS CAVOK 25/15 Q1018 NOSIG
ZGSZ,2003-11-26 06:00,ZGSZ 260600Z 36004MPS 6000 SKC 26/13 Q1017 NOSIG
ZGSZ,2003-11-26 07:00,ZGSZ 260700Z 35003MPS 8000 SKC 26/15 Q1016 NOSIG
ZGSZ,2003-11-26 08:00,ZGSZ 260800Z 01004MPS CAVOK 26/13 Q1016 NOSIG
ZGSZ,2003-11-26 09:00,ZGSZ 260900Z 30004MPS 7000 SKC 25/14 Q1016 NOSIG
ZGSZ,2003-11-26 10:00,ZGSZ 261000Z 34004MPS 5000 SKC 24/14 Q1017 NOSIG
ZGSZ,2003-11-26 11:00,ZGSZ 261100Z 35003MPS 5000 SKC 23/13 Q1017 NOSIG
ZGSZ,2003-11-26 12:00,ZGSZ 261200Z 36003MPS 5000 SKC 22/13 Q1018 NOSIG
ZGSZ,2003-11-26 13:00,ZGSZ 261300Z 36004MPS 5000 SKC 22/13 Q1018 NOSIG
ZGSZ,2003-11-26 14:00,ZGSZ 261400Z 34005MPS 5000 HZ SKC 21/14 Q1018 NOSIG
ZGSZ,2003-11-26 15:00,ZGSZ 261500Z 05002MPS 4000 HZ SKC 20/14 Q1018 NOSIG
ZGSZ,2003-11-26 16:00,ZGSZ 261600Z 06003MPS 4200 HZ SKC 20/13 Q1018 NOSIG
ZGSZ,2003-11-26 17:00,ZGSZ 261700Z 01004MPS 4000 HZ SKC 20/13 Q1019 NOSIG
ZGSZ,2003-11-26 18:00,ZGSZ 261800Z 02004MPS 4000 HZ SKC 19/13 Q1018 NOSIG
ZGSZ,2003-11-26 19:00,ZGSZ 261900Z 02003MPS 4500 HZ SKC 19/13 Q1018 NOSIG
ZGSZ,2003-11-26 20:00,ZGSZ 262000Z 01003MPS 4500 BR SKC 18/13 Q1018 NOSIG
ZGSZ,2003-11-26 22:00,ZGSZ 262200Z 03004MPS 5000 BR SKC 17/12 Q1018 NOSIG
ZGSZ,2003-11-26 23:00,ZGSZ 262300Z 03003MPS 3800 HZ SKC 17/11 Q1019 NOSIG
ZGSZ,2003-11-27 00:00,ZGSZ 270000Z 01006MPS 4000 HZ SKC 17/11 Q1019 NOSIG
ZGSZ,2003-11-27 01:00,ZGSZ 270100Z 01006MPS 4000 HZ SKC 18/10 Q1019 NOSIG
ZGSZ,2003-11-27 02:00,ZGSZ 270200Z 02006MPS 4000 HZ SKC 19/10 Q1020 NOSIG
ZGSZ,2003-11-27 03:00,ZGSZ 270300Z 01006MPS 4000 HZ SKC 20/10 Q1019 NOSIG
ZGSZ,2003-11-27 04:00,ZGSZ 270400Z 03005MPS 4000 HZ SKC 21/11 Q1018 NOSIG
ZGSZ,2003-11-27 05:00,ZGSZ 270500Z 01005MPS 3500 HZ SKC 23/11 Q1017 NOSIG
ZGSZ,2003-11-27 06:00,ZGSZ 270600Z 36006MPS 3500 HZ SKC 23/11 Q1016 NOSIG
ZGSZ,2003-11-27 07:00,ZGSZ 270700Z 02006MPS 5000 HZ SKC 23/11 Q1016 NOSIG
ZGSZ,2003-11-27 08:00,ZGSZ 270800Z 01005MPS 5000 HZ SKC 23/11 Q1015 NOSIG
ZGSZ,2003-11-27 09:00,ZGSZ 270900Z 01005MPS 6000 SKC 22/11 Q1016 NOSIG
ZGSZ,2003-11-27 10:00,ZGSZ 271000Z 04004MPS 6000 SKC 22/11 Q1016 NOSIG
ZGSZ,2003-11-27 11:00,ZGSZ 271100Z 05004MPS 6000 SKC 21/11 Q1016 NOSIG
ZGSZ,2003-11-27 12:00,ZGSZ 271200Z 01007MPS 6000 SKC 20/10 Q1017 NOSIG
ZGSZ,2003-11-27 13:00,ZGSZ 271300Z 01005MPS 6000 SKC 19/09 Q1018 NOSIG
ZGSZ,2003-11-27 14:00,ZGSZ 271400Z 01006MPS 5000 HZ SKC 17/09 Q1018 NOSIG
ZGSZ,2003-11-27 15:00,ZGSZ 271500Z 02006MPS 7000 SKC 17/09 Q1018 NOSIG
ZGSZ,2003-11-27 16:00,ZGSZ 271600Z 01004MPS 7000 SKC 16/09 Q1019 NOSIG
ZGSZ,2003-11-27 17:00,ZGSZ 271700Z 01005MPS 7000 SKC 16/09 Q1019 NOSIG
ZGSZ,2003-11-27 18:00,ZGSZ 271800Z 01006MPS 7000 SKC 16/09 Q1019 NOSIG
ZGSZ,2003-11-27 19:00,ZGSZ 271900Z 01005MPS 7000 SKC 15/09 Q1019 NOSIG
ZGSZ,2003-11-27 20:00,ZGSZ 272000Z 02004MPS 8000 SKC 15/08 Q1019 NOSIG
ZGSZ,2003-11-27 21:00,ZGSZ 272100Z 02003MPS CAVOK 15/08 Q1019 NOSIG
ZGSZ,2003-11-27 22:00,ZGSZ 272200Z 02004MPS CAVOK 15/08 Q1019 NOSIG
ZGSZ,2003-11-27 23:00,ZGSZ 272300Z 02004MPS CAVOK 14/08 Q1020 NOSIG
ZGSZ,2003-11-28 00:00,ZGSZ 280000Z 02005MPS CAVOK 15/08 Q1020 NOSIG
ZGSZ,2003-11-28 01:00,ZGSZ 280100Z 02004MPS 4000 HZ SKC 16/09 Q1021 NOSIG
ZGSZ,2003-11-28 02:00,ZGSZ 280200Z 02004MPS 4000 HZ SKC 17/09 Q1021 NOSIG
ZGSZ,2003-11-28 03:00,ZGSZ 280300Z 36005MPS 4500 HZ SKC 19/09 Q1020 NOSIG
ZGSZ,2003-11-28 04:00,ZGSZ 280400Z 36005MPS 4500 HZ SKC 20/09 Q1019 NOSIG
ZGSZ,2003-11-28 05:00,ZGSZ 280500Z 01005MPS 4500 HZ SKC 21/09 Q1018 NOSIG
ZGSZ,2003-11-28 06:00,ZGSZ 280600Z 02005MPS 6000 SKC 22/10 Q1017 NOSIG
ZGSZ,2003-11-28 07:00,ZGSZ 280700Z 35005MPS 4500 HZ SKC 22/10 Q1017 NOSIG
ZGSZ,2003-11-28 08:00,ZGSZ 280800Z 34006MPS 6000 SKC 22/10 Q1017 NOSIG
ZGSZ,2003-11-28 09:00,ZGSZ 280900Z 01006MPS CAVOK 21/10 Q1017 NOSIG
ZGSZ,2003-11-28 10:00,ZGSZ 281000Z 35005MPS CAVOK 20/10 Q1018 NOSIG
ZGSZ,2003-11-28 11:00,ZGSZ 281100Z 01007MPS CAVOK 20/10 Q1018 NOSIG
ZGSZ,2003-11-28 12:00,ZGSZ 281200Z 03005MPS CAVOK 18/09 Q1020 NOSIG DUPE
ZGSZ,2003-11-28 13:00,ZGSZ 281300Z 01007MPS CAVOK 18/08 Q1020 NOSIG
ZGSZ,2003-11-28 14:00,ZGSZ 281400Z 04006MPS CAVOK 17/08 Q1021 NOSIG
ZGSZ,2003-11-28 15:00,ZGSZ 281500Z 02005MPS CAVOK 16/08 Q1021 NOSIG
ZGSZ,2003-11-28 16:00,ZGSZ 281600Z 03005MPS CAVOK 16/07 Q1021 NOSIG
ZGSZ,2003-11-28 17:00,ZGSZ 281700Z 02006MPS CAVOK 15/07 Q1021 NOSIG
ZGSZ,2003-11-28 18:00,ZGSZ 281800Z 02005MPS CAVOK 15/06 Q1021 NOSIG
ZGSZ,2003-11-28 19:00,ZGSZ 281900Z 01007MPS CAVOK 14/06 Q1021 NOSIG
ZGSZ,2003-11-28 20:00,ZGSZ 282000Z 03005MPS CAVOK 14/06 Q1021 NOSIG
ZGSZ,2003-11-28 21:00,ZGSZ 282100Z 03004MPS CAVOK 14/06 Q1021 NOSIG
ZGSZ,2003-11-28 22:00,ZGSZ 282200Z 01004MPS CAVOK 14/06 Q1021 NOSIG
ZGSZ,2003-11-28 23:00,ZGSZ 282300Z 01006MPS CAVOK 13/06 Q1021 NOSIG
ZGSZ,2003-11-29 00:00,ZGSZ 290000Z 01005MPS CAVOK 14/06 Q1021 NOSIG
ZGSZ,2003-11-29 01:00,ZGSZ 290100Z 03006MPS CAVOK 14/06 Q1021 NOSIG
ZGSZ,2003-11-29 02:00,ZGSZ 290200Z 02006MPS CAVOK 16/06 Q1022 NOSIG
ZGSZ,2003-11-29 03:00,ZGSZ 290300Z 01008MPS CAVOK 17/06 Q1021 NOSIG
ZGSZ,2003-11-29 04:00,ZGSZ 290400Z 01007MPS CAVOK 18/06 Q1020 NOSIG
ZGSZ,2003-11-29 05:00,ZGSZ 290500Z 36006MPS CAVOK 19/07 Q1019 NOSIG
ZGSZ,2003-11-29 06:00,ZGSZ 290600Z 36007MPS CAVOK 20/06 Q1018 NOSIG
ZGSZ,2003-11-29 07:00,ZGSZ 290700Z 01005MPS CAVOK 20/06 Q1017 NOSIG
ZGSZ,2003-11-29 08:00,ZGSZ 290800Z 01005MPS CAVOK 20/07 Q1017 NOSIG
ZGSZ,2003-11-29 09:00,ZGSZ 290900Z 02004MPS CAVOK 19/07 Q1017 NOSIG
ZGSZ,2003-11-29 10:00,ZGSZ 291000Z 35007MPS CAVOK 18/07 Q1017 NOSIG
ZGSZ,2003-11-29 11:00,ZGSZ 291100Z 35005MPS 6000 SKC 16/07 Q1018 NOSIG
ZGSZ,2003-11-29 12:00,ZGSZ 291200Z 35005MPS 6000 SKC 16/06 Q1019 NOSIG
ZGSZ,2003-11-29 13:00,ZGSZ 291300Z 01004MPS 5000 HZ SKC 16/06 Q1019 NOSIG
ZGSZ,2003-11-29 14:00,ZGSZ 291400Z 02007MPS 6000 SKC 15/05 Q1019 NOSIG
ZGSZ,2003-11-29 15:00,ZGSZ 291500Z 03006MPS 6000 SKC 14/04 Q1019 NOSIG
ZGSZ,2003-11-29 16:00,ZGSZ 291600Z 05005MPS 6000 SKC 13/04 Q1019 NOSIG
ZGSZ,2003-11-29 17:00,ZGSZ 291700Z 02006MPS 7000 SKC 13/04 Q1019 NOSIG
ZGSZ,2003-11-29 18:00,ZGSZ 291800Z 01005MPS 7000 SKC 12/04 Q1019 NOSIG
ZGSZ,2003-11-29 19:00,ZGSZ 291900Z 04003MPS 6000 SKC 12/04 Q1019 NOSIG
ZGSZ,2003-11-29 20:00,ZGSZ 292000Z 01004MPS 6000 SKC 12/04 Q1019 NOSIG
ZGSZ,2003-11-29 21:00,ZGSZ 292100Z 01005MPS 7000 SKC 11/04 Q1019 NOSIG
ZGSZ,2003-11-29 22:00,ZGSZ 292200Z 01005MPS 7000 SKC 11/04 Q1019 NOSIG
ZGSZ,2003-11-29 23:00,ZGSZ 292300Z 01004MPS 6000 SKC 11/04 Q1019 NOSIG
ZGSZ,2003-11-30 00:00,ZGSZ 300000Z 01004MPS 5000 HZ SKC 11/04 Q1020 NOSIG
ZGSZ,2003-11-30 01:00,ZGSZ 300100Z 02006MPS 7000 SKC 13/03 Q1020 NOSIG
ZGSZ,2003-11-30 02:00,ZGSZ 300200Z 01004MPS 8000 SKC 14/03 Q1021 NOSIG
ZGSZ,2003-11-30 03:00,ZGSZ 300300Z 36004MPS 7000 SKC 15/03 Q1020 NOSIG
ZGSZ,2003-11-30 04:00,ZGSZ 300400Z 36004MPS 6000 SKC 16/03 Q1019 NOSIG
ZGSZ,2003-11-30 05:00,ZGSZ 300500Z 35003MPS 6000 SKC 18/04 Q1018 NOSIG
ZGSZ,2003-11-30 06:00,ZGSZ 300600Z 34005MPS 6000 SKC 18/04 Q1017 NOSIG
ZGSZ,2003-11-30 07:00,ZGSZ 300700Z 30005MPS 5000 SKC 18/06 Q1016 NOSIG
ZGSZ,2003-11-30 08:00,ZGSZ 300800Z 29004MPS 5000 SKC 19/07 Q1016 NOSIG
ZGSZ,2003-11-30 09:00,ZGSZ 300900Z 34003MPS 6000 SKC 18/07 Q1016 NOSIG
ZGSZ,2003-11-30 10:00,ZGSZ 301000Z 03003MPS 5000 HZ SKC 17/05 Q1017 NOSIG
ZGSZ,2003-11-30 11:00,ZGSZ 301100Z 07001MPS 5000 HZ SKC 16/06 Q1017 NOSIG
ZGSZ,2003-11-30 12:00,ZGSZ 301200Z 09002MPS 3000 HZ SKC 17/05 Q1018 NOSIG
ZGSZ,2003-11-30 13:00,ZGSZ 301300Z 10003MPS 3000 HZ SKC 17/07 Q1018 NOSIG
ZGSZ,2003-11-30 14:00,ZGSZ 301400Z 10003MPS 2800 HZ SKC 16/08 Q1018 NOSIG
ZGSZ,2003-11-30 15:00,ZGSZ 301500Z 11003MPS 2800 HZ SKC 15/08 Q1019 NOSIG
ZGSZ,2003-11-30 16:00,ZGSZ 301600Z 00000MPS 2800 HZ SKC 15/08 Q1019 NOSIG
ZGSZ,2003-11-30 17:00,ZGSZ 301700Z 17002MPS 2800 HZ SKC 15/07 Q1018 NOSIG
ZGSZ,2003-11-30 18:00,ZGSZ 301800Z 00000MPS 2600 HZ SKC 14/07 Q1018 NOSIG
ZGSZ,2003-11-30 19:00,ZGSZ 301900Z 36002MPS 2600 HZ SKC 13/07 Q1018 NOSIG
ZGSZ,2003-11-30 20:00,ZGSZ 302000Z 10001MPS 2600 HZ SKC 13/06 Q1018 NOSIG
ZGSZ,2003-11-30 21:00,ZGSZ 302100Z 00000MPS 2600 HZ SKC 13/05 Q1018 NOSIG
ZGSZ,2003-11-30 22:00,ZGSZ 302200Z 32001MPS 2600 HZ SKC 13/06 Q1019 NOSIG
ZGSZ,2003-11-30 23:00,ZGSZ 302300Z 36002MPS 4000 HZ SKC 13/06 Q1019 NOSIG
ZGSZ,2003-12-01 00:00,ZGSZ 010000Z 33001MPS 5000 HZ SKC 14/06 Q1020 NOSIG
ZGSZ,2003-12-01 01:00,ZGSZ 010100Z 04002MPS 3000 HZ SKC 15/07 Q1020 NOSIG
ZGSZ,2003-12-01 02:00,ZGSZ 010200Z 01004MPS 3000 HZ SKC 17/07 Q1021 NOSIG
ZGSZ,2003-12-01 03:00,ZGSZ 010300Z 03004MPS 3000 HZ SKC 19/07 Q1021 NOSIG
ZGSZ,2003-12-01 04:00,ZGSZ 010400Z 36003MPS 3000 HZ SKC 20/07 Q1020 NOSIG
ZGSZ,2003-12-01 05:00,ZGSZ 010500Z 34003MPS 3000 HZ SKC 21/08 Q1019 NOSIG
ZGSZ,2003-12-01 06:00,ZGSZ 010600Z 30003MPS 4000 HZ SKC 21/09 Q1018 NOSIG
ZGSZ,2003-12-01 07:00,ZGSZ 010700Z 28002MPS 4000 HZ SKC 21/10 Q1017 NOSIG
ZGSZ,2003-12-01 08:00,ZGSZ 010800Z 27002MPS 3000 HZ SKC 21/10 Q1017 NOSIG
ZGSZ,2003-12-01 09:00,ZGSZ 010900Z 28002MPS 3500 HZ SKC 20/10 Q1017 NOSIG
ZGSZ,2003-12-01 10:00,ZGSZ 011000Z 04001MPS 3000 HZ SKC 18/06 Q1018 NOSIG
ZGSZ,2003-12-01 11:00,ZGSZ 011100Z 04002MPS 3000 HZ SKC 17/06 Q1018 NOSIG
ZGSZ,2003-12-01 12:00,ZGSZ 011200Z 04002MPS 4000 HZ SKC 17/06 Q1019 NOSIG
ZGSZ,2003-12-01 13:00,ZGSZ 011300Z 01002MPS 3000 HZ SKC 15/07 Q1019 NOSIG
ZGSZ,2003-12-01 14:00,ZGSZ 011400Z 04001MPS 3000 HZ SKC 17/06 Q1019 NOSIG
ZGSZ,2003-12-01 15:00,ZGSZ 011500Z 01002MPS 3000 HZ SKC 15/07 Q1020 NOSIG
ZGSZ,2003-12-01 16:00,ZGSZ 011600Z 02002MPS 2500 HZ SKC 15/07 Q1019 NOSIG
ZGSZ,2003-12-01 17:00,ZGSZ 011700Z 36002MPS 2500 HZ SKC 13/07 Q1019 NOSIG
ZGSZ,2003-12-01 18:00,ZGSZ 011800Z 04003MPS 2500 HZ SKC 14/06 Q1019 NOSIG
ZGSZ,2003-12-01 19:00,ZGSZ 011900Z 01003MPS 2500 HZ SKC 14/05 Q1019 NOSIG
ZGSZ,2003-12-01 20:00,ZGSZ 012000Z 04001MPS 2500 HZ SKC 13/05 Q1019 NOSIG
ZGSZ,2003-12-01 21:00,ZGSZ 012100Z 02001MPS 5000 HZ SKC 14/04 Q1019 NOSIG
ZGSZ,2003-12-01 22:00,ZGSZ 012200Z 04002MPS 5000 HZ SKC 13/04 Q1020 NOSIG
ZGSZ,2003-12-01 23:00,ZGSZ 012300Z 32001MPS 3000 HZ SKC 13/05 Q1021 NOSIG
ZGSZ,2003-12-02 00:00,ZGSZ 020000Z 05002MPS 3000 HZ SKC 15/04 Q1021 NOSIG
ZGSZ,2003-12-02 01:00,ZGSZ 020100Z 03002MPS 4000 HZ SKC 16/06 Q1022 NOSIG
ZGSZ,2003-12-02 02:00,ZGSZ 020200Z 03003MPS 4200 HZ SKC 18/07 Q1022 NOSIG
ZGSZ,2003-12-02 03:00,ZGSZ 020300Z 08003MPS 4200 HZ SKC 20/08 Q1021 NOSIG
ZGSZ,2003-12-02 04:00,ZGSZ 020400Z 36002MPS 5000 HZ SKC 21/07 Q1020 NOSIG
ZGSZ,2003-12-02 05:00,ZGSZ 020500Z 36003MPS 5000 HZ SKC 22/05 Q1019 NOSIG
ZGSZ,2003-12-02 06:00,ZGSZ 020600Z 35003MPS 6000 SKC 22/05 Q1017 NOSIG
ZGSZ,2003-12-02 07:00,ZGSZ 020700Z 35003MPS 6000 SKC 23/04 Q1017 NOSIG
ZGSZ,2003-12-02 08:00,ZGSZ 020800Z 36003MPS 7000 SKC 22/03 Q1016 NOSIG
ZGSZ,2003-12-02 09:00,ZGSZ 020900Z 35003MPS 5000 HZ SKC 21/04 Q1017 NOSIG
ZGSZ,2003-12-02 10:00,ZGSZ 021000Z 36003MPS 4000 HZ SKC 20/04 Q1017 NOSIG
ZGSZ,2003-12-02 11:00,ZGSZ 021100Z 36002MPS 2200 HZ SKC 18/05 Q1017 NOSIG
ZGSZ,2003-12-02 12:00,ZGSZ 021200Z 04002G07MPS 2500 HZ SKC 19/05 Q1018 NOSIG
ZGSZ,2003-12-02 13:00,ZGSZ 021300Z 04002MPS 2300 HZ SKC 16/06 Q1018 NOSIG
ZGSZ,2003-12-02 14:00,ZGSZ 021400Z 22001MPS 2000 HZ SKC 16/06 Q1018 NOSIG
ZGSZ,2003-12-02 15:00,ZGSZ 021500Z 12001MPS 2000 HZ SKC 15/05 Q1019 NOSIG
ZGSZ,2003-12-02 16:00,ZGSZ 021600Z 05002MPS 2000 HZ SKC 17/04 Q1019 NOSIG
ZGSZ,2003-12-02 17:00,ZGSZ 021700Z 00000MPS 2200 HZ SKC 14/07 Q1019 NOSIG
ZGSZ,2003-12-02 18:00,ZGSZ 021800Z 36002MPS 2200 HZ SKC 14/06 Q1019 NOSIG
ZGSZ,2003-12-02 19:00,ZGSZ 021900Z 36002MPS 2200 HZ SKC 14/07 Q1019 NOSIG
ZGSZ,2003-12-02 20:00,ZGSZ 022000Z 04002MPS 2200 HZ SKC 14/07 Q1019 NOSIG
ZGSZ,2003-12-02 21:00,ZGSZ 022100Z 02002MPS 2800 HZ SKC 15/09 Q1019 NOSIG
ZGSZ,2003-12-02 22:00,ZGSZ 022200Z 02002MPS 3000 BR SKC 14/09 Q1019 NOSIG
ZGSZ,2003-12-02 23:00,ZGSZ 022300Z 36003MPS 4000 BR SKC 15/10 Q1020 NOSIG
ZGSZ,2003-12-03 00:00,ZGSZ 030000Z 03002MPS 4000 HZ SKC 16/10 Q1020 NOSIG
ZGSZ,2003-12-03 01:00,ZGSZ 030100Z 36002MPS 5000 HZ SKC 17/08 Q1021 NOSIG
ZGSZ,2003-12-03 02:00,ZGSZ 030200Z 01003MPS 6000 SKC 19/08 Q1021 NOSIG
ZGSZ,2003-12-03 03:00,ZGSZ 030300Z 02003MPS 6000 SKC 20/08 Q1020 NOSIG
ZGSZ,2003-12-03 04:00,ZGSZ 030400Z 01003MPS 7000 SKC 21/06 Q1019 NOSIG
ZGSZ,2003-12-03 05:00,ZGSZ 030500Z 36003MPS CAVOK 22/06 Q1017 NOSIG
ZGSZ,2003-12-03 06:00,ZGSZ 030600Z 36004MPS CAVOK 23/06 Q1016 NOSIG
ZGSZ,2003-12-03 07:00,ZGSZ 030700Z 35003MPS CAVOK 23/05 Q1015 NOSIG
ZGSZ,2003-12-03 08:00,ZGSZ 030800Z 00000MPS CAVOK 23/05 Q1015 NOSIG
ZGSZ,2003-12-03 09:00,ZGSZ 030900Z 00000MPS 7000 SKC 22/06 Q1015 NOSIG
ZGSZ,2003-12-03 10:00,ZGSZ 031000Z 00000MPS 4500 HZ SKC 20/05 Q1016 NOSIG
ZGSZ,2003-12-03 11:00,ZGSZ 031100Z 18002MPS 3800 HZ SKC 18/11 Q1016 NOSIG
ZGSZ,2003-12-03 12:00,ZGSZ 031200Z 00000MPS 3500 BR SKC 17/12 Q1017 NOSIG
ZGSZ,2003-12-03 13:00,ZGSZ 031300Z 12003MPS 3800 HZ SKC 18/09 Q1017 NOSIG
ZGSZ,2003-12-03 14:00,ZGSZ 031400Z 09004MPS 5000 HZ SKC 18/09 Q1018 NOSIG
ZGSZ,2003-12-03 15:00,ZGSZ 031500Z 09004MPS 6000 SKC 18/10 Q1018 NOSIG
ZGSZ,2003-12-03 16:00,ZGSZ 031600Z 10003MPS 6000 SKC 17/11 Q1018 NOSIG
ZGSZ,2003-12-03 17:00,ZGSZ 031700Z 09003MPS 5000 SKC 18/11 Q1017 NOSIG
ZGSZ,2003-12-03 18:00,ZGSZ 031800Z 10003MPS 5000 SKC 16/11 Q1017 NOSIG
ZGSZ,2003-12-03 19:00,ZGSZ 031900Z 07002MPS 5000 BR SKC 16/12 Q1017 NOSIG
ZGSZ,2003-12-03 20:00,ZGSZ 032000Z 08003MPS 5000 BR SKC 15/12 Q1017 NOSIG
ZGSZ,2003-12-03 21:00,ZGSZ 032100Z 05002MPS 5000 BR SKC 15/12 Q1017 NOSIG
ZGSZ,2003-12-03 22:00,ZGSZ 032200Z 09003MPS 5000 BR SKC 15/12 Q1018 NOSIG
ZGSZ,2003-12-03 23:00,ZGSZ 032300Z 07003MPS 5000 SKC 15/11 Q1018 NOSIG
ZGSZ,2003-12-04 00:00,ZGSZ 040000Z 08002MPS 8000 SKC 16/12 Q1019 NOSIG
ZGSZ,2003-12-04 01:00,ZGSZ 040100Z 06004MPS 5000 HZ SKC 18/11 Q1019 NOSIG
ZGSZ,2003-12-04 02:00,ZGSZ 040200Z 06005MPS 5000 HZ SKC 20/11 Q1020 NOSIG
ZGSZ,2003-12-04 03:00,ZGSZ 040300Z 08004MPS 6000 SKC 21/11 Q1019 NOSIG
ZGSZ,2003-12-04 04:00,ZGSZ 040400Z 11003MPS 6000 SKC 22/11 Q1018 NOSIG
ZGSZ,2003-12-04 05:00,ZGSZ 040500Z 07002MPS 8000 SKC 23/13 Q1017 NOSIG
ZGSZ,2003-12-04 06:00,ZGSZ 040600Z 30005MPS 8000 SKC 22/13 Q1016 NOSIG
ZGSZ,2003-12-04 07:00,ZGSZ 040700Z 27005MPS 7000 SKC 23/13 Q1016 NOSIG
ZGSZ,2003-12-04 08:00,ZGSZ 040800Z 29004MPS 5000 HZ NSC 22/13 Q1016 NOSIG
ZGSZ,2003-12-04 09:00,ZGSZ 040900Z 29005MPS 5000 HZ NSC 22/13 Q1016 NOSIG
ZGSZ,2003-12-04 10:00,ZGSZ 041000Z 31003MPS 5000 HZ SKC 21/13 Q1016 NOSIG
ZGSZ,2003-12-04 11:00,ZGSZ 041100Z 00000MPS 3500 HZ SKC 20/12 Q1017 NOSIG
ZGSZ,2003-12-04 12:00,ZGSZ 041200Z 17001MPS 2500 HZ SKC 20/11 Q1017 NOSIG
ZGSZ,2003-12-04 13:00,ZGSZ 041300Z 12001MPS 1800 HZ SKC 20/13 Q1017 NOSIG
ZGSZ,2003-12-04 14:00,ZGSZ 041400Z 12003MPS 3500 BR SKC 19/13 Q1017 NOSIG
ZGSZ,2003-12-04 15:00,ZGSZ 041500Z 10002MPS 6000 SKC 18/13 Q1018 NOSIG
ZGSZ,2003-12-04 16:00,ZGSZ 041600Z 13001MPS 6000 SKC 19/14 Q1018 NOSIG
ZGSZ,2003-12-04 17:00,ZGSZ 041700Z 09003MPS 6000 SKC 17/13 Q1018 NOSIG
ZGSZ,2003-12-04 18:00,ZGSZ 041800Z 00000MPS 7000 SKC 17/13 Q1017 NOSIG
ZGSZ,2003-12-04 19:00,ZGSZ 041900Z 00000MPS 6000 SKC 17/13 Q1017 NOSIG
ZGSZ,2003-12-04 20:00,ZGSZ 042000Z 00000MPS 6000 SKC 16/13 Q1017 NOSIG
ZGSZ,2003-12-04 21:00,ZGSZ 042100Z 00000MPS 6000 SKC 16/13 Q1018 NOSIG
ZGSZ,2003-12-04 22:00,ZGSZ 042200Z 16002MPS 6000 SKC 15/13 Q1018 NOSIG
ZGSZ,2003-12-04 23:00,ZGSZ 042300Z 09002MPS 2400 BR NSC 16/13 Q1018 NOSIG
ZGSZ,2003-12-05 00:00,ZGSZ 050000Z 12003MPS 3500 BR NSC 17/14 Q1019 NOSIG
ZGSZ,2003-12-05 01:00,ZGSZ 050100Z 00000MPS 3000 BR NSC 19/14 Q1020 NOSIG
ZGSZ,2003-12-05 02:00,ZGSZ 050200Z 29003MPS 2000 HZ NSC 20/14 Q1020 NOSIG
ZGSZ,2003-12-05 03:00,ZGSZ 050300Z 29002MPS 2000 HZ SKC 21/14 Q1020 NOSIG
ZGSZ,2003-12-05 04:00,ZGSZ 050400Z 30005MPS 1800 HZ SKC 22/15 Q1019 NOSIG
ZGSZ,2003-12-05 05:00,ZGSZ 050500Z 29005MPS 2000 HZ SKC 23/15 Q1017 NOSIG
ZGSZ,2003-12-05 06:00,ZGSZ 050600Z 30004MPS 2000 HZ SKC 23/16 Q1016 NOSIG
ZGSZ,2003-12-05 07:00,ZGSZ 050700Z 28003MPS 2000 HZ NSC 24/16 Q1016 NOSIG
ZGSZ,2003-12-05 08:00,ZGSZ 050800Z 29003MPS 1800 HZ SKC 23/17 Q1015 NOSIG
ZGSZ,2003-12-05 09:00,ZGSZ 050900Z 19003MPS 2000 HZ SKC 22/16 Q1016 NOSIG
ZGSZ,2003-12-05 10:00,ZGSZ 051000Z 19002MPS 2000 BR SKC 20/17 Q1016 NOSIG
ZGSZ,2003-12-05 11:00,ZGSZ 051100Z 00000MPS 1800 BR SKC 20/17 Q1017 NOSIG
ZGSZ,2003-12-05 12:00,ZGSZ 051200Z 00000MPS 1700 BR SKC 20/16 Q1017 NOSIG
ZGSZ,2003-12-05 13:00,ZGSZ 051300Z 00000MPS 1400 BR SKC 19/15 Q1018 NOSIG
ZGSZ,2003-12-05 14:00,ZGSZ 051400Z 00000MPS 1300 BR NSC 19/15 Q1018 NOSIG
ZGSZ,2003-12-05 15:00,ZGSZ 051500Z 00000MPS 2500 BR NSC 20/16 Q1018 NOSIG
ZGSZ,2003-12-05 16:00,ZGSZ 051600Z 00000MPS 2000 BR NSC 20/17 Q1018 NOSIG
ZGSZ,2003-12-05 17:00,ZGSZ 051700Z 00000MPS 2000 BR NSC 19/16 Q1018 NOSIG
ZGSZ,2003-12-05 18:00,ZGSZ 051800Z 00000MPS 2000 BR NSC 19/16 Q1018 NOSIG
ZGSZ,2003-12-05 19:00,ZGSZ 051900Z 00000MPS 3000 BR NSC 19/16 Q1018 NOSIG
ZGSZ,2003-12-05 20:00,ZGSZ 052000Z 00000MPS 3500 BR NSC 19/16 Q1017 NOSIG
ZGSZ,2003-12-05 21:00,ZGSZ 052100Z 00000MPS 3000 BR NSC 19/16 Q1017 NOSIG
ZGSZ,2003-12-05 22:00,ZGSZ 052200Z 00000MPS 2000 BR NSC 19/16 Q1018 NOSIG
ZGSZ,2003-12-05 23:00,ZGSZ 052300Z 00000MPS 1800 BR NSC 20/15 Q1018 NOSIG
ZGSZ,2003-12-06 00:00,ZGSZ 060000Z 00000MPS 1800 BR NSC 20/16 Q1018 NOSIG
ZGSZ,2003-12-06 01:00,ZGSZ 060100Z 36002MPS 2000 HZ NSC 21/15 Q1019 NOSIG
ZGSZ,2003-12-06 02:00,ZGSZ 060200Z 07003MPS 2000 HZ NSC 23/15 Q1019 NOSIG
ZGSZ,2003-12-06 03:00,ZGSZ 060300Z 36003MPS 2600 HZ NSC 25/14 Q1019 NOSIG
ZGSZ,2003-12-06 04:00,ZGSZ 060400Z 05004MPS 6000 SKC 27/13 Q1018 NOSIG
ZGSZ,2003-12-06 05:00,ZGSZ 060500Z 06004MPS 8000 SKC 27/12 Q1016 NOSIG
ZGSZ,2003-12-06 06:00,ZGSZ 060600Z 06003MPS CAVOK 28/12 Q1015 NOSIG
ZGSZ,2003-12-06 07:00,ZGSZ 060700Z 07002MPS CAVOK 28/12 Q1015 NOSIG
ZGSZ,2003-12-06 08:00,ZGSZ 060800Z 36003MPS CAVOK 28/12 Q1015 NOSIG
ZGSZ,2003-12-06 09:00,ZGSZ 060900Z 36003MPS 7000 NSC 26/12 Q1015 NOSIG
ZGSZ,2003-12-06 10:00,ZGSZ 061000Z 03003MPS 6000 NSC 25/11 Q1016 NOSIG
ZGSZ,2003-12-06 11:00,ZGSZ 061100Z 05001MPS 4500 HZ SKC 23/12 Q1017 NOSIG
ZGSZ,2003-12-06 12:00,ZGSZ 061200Z 08002MPS 3500 HZ NSC 23/11 Q1018 NOSIG
ZGSZ,2003-12-06 13:00,ZGSZ 061300Z 06002MPS 2400 HZ SKC 22/15 Q1019 NOSIG
ZGSZ,2003-12-06 14:00,ZGSZ 061400Z 00000MPS 2200 HZ SKC 21/15 Q1019 NOSIG
ZGSZ,2003-12-06 15:00,ZGSZ 061500Z 05004MPS 2500 HZ SKC 21/13 Q1020 NOSIG
ZGSZ,2003-12-06 16:00,ZGSZ 061600Z 04003MPS 2800 HZ SKC 19/11 Q1020 NOSIG
ZGSZ,2003-12-06 17:00,ZGSZ 061700Z 03004MPS 3000 HZ SKC 19/10 Q1020 NOSIG
ZGSZ,2003-12-06 18:00,ZGSZ 061800Z 02005MPS 3300 HZ NSC 19/10 Q1020 NOSIG
ZGSZ,2003-12-06 19:00,ZGSZ 061900Z 04003MPS 3500 HZ NSC 18/09 Q1020 NOSIG
ZGSZ,2003-12-06 20:00,ZGSZ 062000Z 02004MPS 2800 HZ SKC 17/08 Q1020 NOSIG
ZGSZ,2003-12-06 21:00,ZGSZ 062100Z 03006MPS 3000 HZ SKC 16/08 Q1020 NOSIG
ZGSZ,2003-12-06 22:00,ZGSZ 062200Z 03004MPS 3000 HZ SKC 16/08 Q1021 NOSIG
ZGSZ,2003-12-06 23:00,ZGSZ 062300Z 03004MPS 2300 HZ SKC 15/07 Q1022 NOSIG
ZGSZ,2003-12-07 00:00,ZGSZ 070000Z 36004MPS 2500 HZ SKC 15/07 Q1022 NOSIG
ZGSZ,2003-12-07 01:00,ZGSZ 070100Z 02004MPS 3200 HZ SKC 16/07 Q1023 NOSIG
ZGSZ,2003-12-07 02:00,ZGSZ 070200Z 36003MPS 3500 HZ SKC 16/07 Q1024 NOSIG
ZGSZ,2003-12-07 03:00,ZGSZ 070300Z 03003MPS 3800 HZ SKC 18/08 Q1023 NOSIG
ZGSZ,2003-12-07 04:00,ZGSZ 070400Z 03004MPS 3800 HZ SKC 19/08 Q1022 NOSIG
ZGSZ,2003-12-07 05:00,ZGSZ 070500Z 36003MPS 4000 HZ SKC 20/09 Q1021 NOSIG
ZGSZ,2003-12-07 06:00,ZGSZ 070600Z 36003MPS 5000 HZ SKC 21/09 Q1020 NOSIG
ZGSZ,2003-12-07 07:00,ZGSZ 070700Z 02003MPS 5000 HZ SKC 21/09 Q1020 NOSIG
ZGSZ,2003-12-07 08:00,ZGSZ 070800Z 02003MPS 4800 HZ SKC 21/09 Q1020 NOSIG
ZGSZ,2003-12-07 09:00,ZGSZ 070900Z 02004MPS 6000 SKC 20/09 Q1020 NOSIG
ZGSZ,2003-12-07 10:00,ZGSZ 071000Z 03005MPS 6000 SKC 20/09 Q1021 NOSIG
ZGSZ,2003-12-07 11:00,ZGSZ 071100Z 04006MPS 4000 HZ SKC 19/09 Q1021 NOSIG
ZGSZ,2003-12-07 12:00,ZGSZ 071200Z 05005MPS 4500 HZ SKC 18/09 Q1022 NOSIG
ZGSZ,2003-12-07 13:00,ZGSZ 071300Z 06002MPS 3500 HZ SKC 18/10 Q1023 NOSIG
ZGSZ,2003-12-07 14:00,ZGSZ 071400Z 06003MPS 3000 HZ NSC 18/10 Q1023 NOSIG
ZGSZ,2003-12-07 15:00,ZGSZ 071500Z 06003MPS 4500 HZ NSC 17/09 Q1023 NOSIG
ZGSZ,2003-12-07 16:00,ZGSZ 071600Z 05003MPS 5000 HZ NSC 17/09 Q1023 NOSIG
ZGSZ,2003-12-07 17:00,ZGSZ 071700Z 03002MPS 5000 HZ NSC 17/09 Q1023 NOSIG
ZGSZ,2003-12-07 18:00,ZGSZ 071800Z 03003MPS 4500 HZ NSC 16/09 Q1023 NOSIG
ZGSZ,2003-12-07 19:00,ZGSZ 071900Z MPS 4500 HZ NSC 16/09 Q1023 NOSIG
ZGSZ,2003-12-07 20:00,ZGSZ 072000Z MPS 4500 HZ NSC 15/09 Q1022 NOSIG
ZGSZ,2003-12-07 21:00,ZGSZ 072100Z 00000MPS 3500 BR NSC 15/10 Q1022 NOSIG
ZGSZ,2003-12-07 22:00,ZGSZ 072200Z 06003MPS 3500 BR NSC 15/10 Q1023 NOSIG
ZGSZ,2003-12-07 23:00,ZGSZ 072300Z 03002MPS 2800 -RA BR SCT012 OVC040 13/10 Q1023 NOSIG
ZGSZ,2003-12-08 00:00,ZGSZ 080000Z 00000MPS 2900 -RA BR SCT012 OVC040 13/10 Q1023 NOSIG
ZGSZ,2003-12-08 01:00,ZGSZ 080100Z 36002MPS 2000 -RA BR SCT012 SCT020 OVC043 13/10 Q1024 NOSIG
ZGSZ,2003-12-08 02:00,ZGSZ 080200Z 36004MPS 2000 BR FEW010 BKN026 OVC040 14/11 Q1025 NOSIG
ZGSZ,2003-12-08 03:00,ZGSZ 080300Z 02003MPS 1800 BR BKN020 BKN060 15/11 Q1024 NOSIG
ZGSZ,2003-12-08 04:00,ZGSZ 080400Z 36004MPS 2000 BR SCT020 BKN050 15/11 Q1023 NOSIG
ZGSZ,2003-12-08 05:00,ZGSZ 080500Z 35003MPS 2000 HZ NSC 17/11 Q1022 NOSIG
ZGSZ,2003-12-08 06:00,ZGSZ 080600Z 36003MPS 2500 HZ NSC 18/11 Q1021 NOSIG
ZGSZ,2003-12-08 07:00,ZGSZ 080700Z 36003MPS 3000 HZ SKC 19/11 Q1020 NOSIG
ZGSZ,2003-12-08 08:00,ZGSZ 080800Z 35004MPS 4000 HZ NSC 19/11 Q1020 NOSIG
ZGSZ,2003-12-08 09:00,ZGSZ 080900Z 03002MPS 3000 HZ SKC 18/12 Q1020 NOSIG
ZGSZ,2003-12-08 10:00,ZGSZ 081000Z 03002MPS 3000 HZ NSC 18/11 Q1021 NOSIG
ZGSZ,2003-12-08 11:00,ZGSZ 081100Z 08002MPS 3000 HZ NSC 18/11 Q1021 NOSIG
ZGSZ,2003-12-08 12:00,ZGSZ 081200Z 30002MPS 3000 HZ NSC 17/12 Q1022 NOSIG
ZGSZ,2003-12-08 13:00,ZGSZ 081300Z 03003MPS 3000 BR NSC 17/12 Q1022 NOSIG
ZGSZ,2003-12-08 14:00,ZGSZ 081400Z 00000MPS 3000 BR NSC 17/11 Q1023 NOSIG
ZGSZ,2003-12-08 15:00,ZGSZ 081500Z 05005MPS 3000 HZ NSC 17/11 Q1023 NOSIG
ZGSZ,2003-12-08 16:00,ZGSZ 081600Z 00000MPS 3000 HZ NSC 17/11 Q1023 NOSIG
ZGSZ,2003-12-08 17:00,ZGSZ 081700Z 03002MPS 3000 HZ NSC 17/11 Q1022 NOSIG
ZGSZ,2003-12-08 18:00,ZGSZ 081800Z 36002MPS 3000 HZ NSC 17/11 Q1022 NOSIG
ZGSZ,2003-12-08 19:00,ZGSZ 081900Z 36002MPS 3000 HZ NSC 17/11 Q1022 NOSIG
ZGSZ,2003-12-08 20:00,ZGSZ 082000Z 02003MPS 3000 HZ NSC 17/11 Q1022 NOSIG
ZGSZ,2003-12-08 21:00,ZGSZ 082100Z 36003MPS 3000 HZ NSC 16/11 Q1022 NOSIG
ZGSZ,2003-12-08 22:00,ZGSZ 082200Z 04002MPS 3000 HZ NSC 16/10 Q1022 NOSIG
ZGSZ,2003-12-08 23:00,ZGSZ 082300Z 00000MPS 3000 HZ NSC 16/10 Q1023 NOSIG
ZGSZ,2003-12-09 00:00,ZGSZ 090000Z 00000MPS 3500 BR NSC 15/11 Q1023 NOSIG
ZGSZ,2003-12-09 01:00,ZGSZ 090100Z 05003MPS 3500 -RA BR SCT015 OVC033 15/11 Q1024 NOSIG
ZGSZ,2003-12-09 02:00,ZGSZ 090200Z 03003MPS 3300 -RA BR SCT016 OVC036 16/11 Q1025 NOSIG
ZGSZ,2003-12-09 03:00,ZGSZ 090300Z 01003MPS 4000 -RA BR OVC040 15/12 Q1024 NOSIG
ZGSZ,2003-12-09 04:00,ZGSZ 090400Z 35003MPS 3000 BR BKN043 15/12 Q1024 NOSIG
ZGSZ,2003-12-09 05:00,ZGSZ 090500Z 35005MPS 3000 BR BKN046 17/12 Q1022 NOSIG
ZGSZ,2003-12-09 06:00,ZGSZ 090600Z 34005MPS 3500 HZ BKN043 18/11 Q1021 NOSIG
ZGSZ,2003-12-09 07:00,ZGSZ 090700Z 01005MPS 5000 HZ BKN046 19/12 Q1021 NOSIG
ZGSZ,2003-12-09 08:00,ZGSZ 090800Z 03004MPS 6000 NSC 19/11 Q1021 NOSIG
ZGSZ,2003-12-09 09:00,ZGSZ 090900Z 03006MPS 6000 NSC 18/11 Q1021 NOSIG
ZGSZ,2003-12-09 10:00,ZGSZ 091000Z 02002MPS 5000 SCT043 BKN053 17/11 Q1022 NOSIG
ZGSZ,2003-12-09 11:00,ZGSZ 091100Z 10003MPS 5000 HZ BKN043 17/10 Q1022 NOSIG
ZGSZ,2003-12-09 12:00,ZGSZ 091200Z 02003MPS 4500 HZ NSC 16/10 Q1022 NOSIG
ZGSZ,2003-12-09 13:00,ZGSZ 091300Z 02004MPS 4000 HZ SKC 16/10 Q1022 NOSIG
ZGSZ,2003-12-09 14:00,ZGSZ 091400Z 01002MPS 3500 BR SKC 15/10 Q1023 NOSIG
ZGSZ,2003-12-09 15:00,ZGSZ 091500Z 03004MPS 3000 HZ SKC 15/09 Q1023 NOSIG
ZGSZ,2003-12-09 16:00,ZGSZ 091600Z 03004MPS 4500 HZ SKC 14/09 Q1023 NOSIG
ZGSZ,2003-12-09 17:00,ZGSZ 091700Z 36002MPS 4500 BR SKC 14/08 Q1023 NOSIG
ZGSZ,2003-12-09 18:00,ZGSZ 091800Z 03003MPS 4500 BR SKC 13/08 Q1023 NOSIG
ZGSZ,2003-12-09 19:00,ZGSZ 091900Z 04004MPS 4500 BR NSC 13/08 Q1023 NOSIG
ZGSZ,2003-12-09 20:00,ZGSZ 092000Z 03004MPS 4000 BR SKC 13/07 Q1023 NOSIG
ZGSZ,2003-12-09 21:00,ZGSZ 092100Z 03003MPS 3500 BR SKC 12/07 Q1023 NOSIG
ZGSZ,2003-12-09 22:00,ZGSZ 092200Z 04004MPS 3500 BR NSC 12/07 Q1023 NOSIG
ZGSZ,2003-12-09 23:00,ZGSZ 092300Z 06004MPS 4500 BR SCT018 BKN050 12/07 Q1023 NOSIG
ZGSZ,2003-12-10 00:00,ZGSZ 100000Z 07004MPS 9999 FEW018 BKN050 12/07 Q1023 NOSIG
ZGSZ,2003-12-10 01:00,ZGSZ 100100Z 03004MPS 5000 HZ NSC 13/07 Q1024 NOSIG
ZGSZ,2003-12-10 02:00,ZGSZ 100200Z 36004MPS 6000 NSC 15/08 Q1024 NOSIG
ZGSZ,2003-12-10 03:00,ZGSZ 100300Z 02003MPS 5000 HZ SKC 15/08 Q1024 NOSIG
ZGSZ,2003-12-10 04:00,ZGSZ 100400Z 36005MPS 4500 HZ SKC 16/09 Q1023 NOSIG
ZGSZ,2003-12-10 05:00,ZGSZ 100500Z 36004MPS 5000 HZ SKC 18/09 Q1021 NOSIG
ZGSZ,2003-12-10 06:00,ZGSZ 100600Z 36003MPS 5000 HZ SKC 18/09 Q1020 NOSIG
ZGSZ,2003-12-10 07:00,ZGSZ 100700Z 35006MPS 7000 SKC 18/09 Q1020 NOSIG
ZGSZ,2003-12-10 08:00,ZGSZ 100800Z 34005MPS CAVOK 18/09 Q1020 NOSIG
ZGSZ,2003-12-10 09:00,ZGSZ 100900Z 01003MPS 7000 SKC 17/10 Q1020 NOSIG
ZGSZ,2003-12-10 10:00,ZGSZ 101000Z 04004MPS 7000 NSC 17/10 Q1021 NOSIG
ZGSZ,2003-12-10 11:00,ZGSZ 101100Z 36001MPS 6000 NSC 16/10 Q1021 NOSIG
ZGSZ,2003-12-10 12:00,ZGSZ 101200Z 36004MPS 5000 HZ SKC 16/10 Q1022 NOSIG
ZGSZ,2003-12-10 13:00,ZGSZ 101300Z 02004MPS 5000 HZ NSC 16/09 Q1022 NOSIG
ZGSZ,2003-12-10 14:00,ZGSZ 101400Z 35005MPS 5000 HZ NSC 15/09 Q1022 NOSIG
ZGSZ,2003-12-10 15:00,ZGSZ 101500Z 03005MPS 6000 NSC 15/09 Q1022 NOSIG
ZGSZ,2003-12-10 16:00,ZGSZ 101600Z 36004MPS 6000 SKC 14/09 Q1022 NOSIG
ZGSZ,2003-12-10 18:00,ZGSZ 101800Z AUTO 32006KT 4SM 15/09 RMK SLP223 T01460093 57001 IEM_DS3505
ZGSZ,2003-12-10 20:00,ZGSZ 102000Z 34005MPS 5000 NSC 13/07 Q1021 NOSIG
ZGSZ,2003-12-10 21:00,ZGSZ 102100Z 03003MPS 5000 NSC 13/08 Q1021 NOSIG
ZGSZ,2003-12-10 22:00,ZGSZ 102200Z 01006MPS 7000 NSC 13/07 Q1021 NOSIG
ZGSZ,2003-12-10 23:00,ZGSZ 102300Z 36002MPS CAVOK 13/07 Q1021 NOSIG
ZGSZ,2003-12-11 00:00,ZGSZ 110000Z 03003MPS CAVOK 13/07 Q1021 NOSIG
ZGSZ,2003-12-11 01:00,ZGSZ 110100Z 35005MPS 7000 NSC 13/07 Q1022 NOSIG
ZGSZ,2003-12-11 02:00,ZGSZ 110200Z 03006MPS 6000 NSC 14/07 Q1023 NOSIG
ZGSZ,2003-12-11 03:00,ZGSZ 110300Z 03007MPS 8000 NSC 15/07 Q1022 NOSIG
ZGSZ,2003-12-11 04:00,ZGSZ 110400Z 03004MPS CAVOK 16/07 Q1021 NOSIG
ZGSZ,2003-12-11 05:00,ZGSZ 110500Z 34004MPS 8000 NSC 18/08 Q1020 NOSIG
ZGSZ,2003-12-11 06:00,ZGSZ 110600Z 35004MPS 8000 NSC 19/08 Q1019 NOSIG
ZGSZ,2003-12-11 07:00,ZGSZ 110700Z 33004MPS CAVOK 19/08 Q1018 NOSIG
ZGSZ,2003-12-11 08:00,ZGSZ 110800Z 35004MPS CAVOK 20/08 Q1018 NOSIG
ZGSZ,2003-12-11 09:00,ZGSZ 110900Z 36004MPS CAVOK 19/09 Q1018 NOSIG
ZGSZ,2003-12-11 10:00,ZGSZ 111000Z 02004MPS CAVOK 18/08 Q1019 NOSIG
ZGSZ,2003-12-11 11:00,ZGSZ 111100Z 36005MPS CAVOK 17/08 Q1020 NOSIG
ZGSZ,2003-12-11 12:00,ZGSZ 111200Z 02004MPS CAVOK 17/07 Q1021 NOSIG
ZGSZ,2003-12-11 13:00,ZGSZ 111300Z 03005MPS CAVOK 15/06 Q1021 NOSIG
ZGSZ,2003-12-11 14:00,ZGSZ 111400Z 03006MPS CAVOK 14/06 Q1022 NOSIG
ZGSZ,2003-12-11 15:00,ZGSZ 111500Z 34005MPS CAVOK 13/06 Q1023 NOSIG
ZGSZ,2003-12-11 16:00,ZGSZ 111600Z 36002MPS CAVOK 12/05 Q1023 NOSIG
ZGSZ,2003-12-11 17:00,ZGSZ 111700Z 36004MPS CAVOK 12/04 Q1023 NOSIG
ZGSZ,2003-12-11 18:00,ZGSZ 111800Z 03005MPS CAVOK 12/04 Q1023 NOSIG
ZGSZ,2003-12-11 19:00,ZGSZ 111900Z 03003MPS CAVOK 11/03 Q1023 NOSIG
ZGSZ,2003-12-11 20:00,ZGSZ 112000Z 03004MPS CAVOK 11/03 Q1023 NOSIG
ZGSZ,2003-12-11 21:00,ZGSZ 112100Z 04004MPS CAVOK 11/03 Q1023 NOSIG
ZGSZ,2003-12-11 22:00,ZGSZ 112200Z 36003MPS CAVOK 11/02 Q1023 NOSIG
ZGSZ,2003-12-11 23:00,ZGSZ 112300Z 02004MPS CAVOK 11/01 Q1023 NOSIG
ZGSZ,2003-12-12 00:00,ZGSZ 120000Z 36006MPS CAVOK 11/01 Q1024 NOSIG
ZGSZ,2003-12-12 01:00,ZGSZ 120100Z 02005MPS CAVOK 12/00 Q1024 NOSIG
ZGSZ,2003-12-12 02:00,ZGSZ 120200Z 01006MPS CAVOK 13/M00 Q1025 NOSIG
ZGSZ,2003-12-12 03:00,ZGSZ 120300Z 03006MPS CAVOK 14/00 Q1024 NOSIG
ZGSZ,2003-12-12 04:00,ZGSZ 120400Z 36005MPS CAVOK 16/00 Q1023 NOSIG
ZGSZ,2003-12-12 05:00,ZGSZ 120500Z 03005MPS CAVOK 16/00 Q1022 NOSIG
ZGSZ,2003-12-12 06:00,ZGSZ 120600Z 01005MPS CAVOK 17/M00 Q1021 NOSIG
ZGSZ,2003-12-12 07:00,ZGSZ 120700Z 03006MPS CAVOK 18/M01 Q1020 NOSIG
ZGSZ,2003-12-12 08:00,ZGSZ 120800Z 01004MPS CAVOK 18/M00 Q1020 NOSIG
ZGSZ,2003-12-12 09:00,ZGSZ 120900Z 36003MPS CAVOK 18/M00 Q1020 NOSIG
ZGSZ,2003-12-12 10:00,ZGSZ 121000Z 03003MPS CAVOK 17/00 Q1021 NOSIG
ZGSZ,2003-12-12 11:00,ZGSZ 121100Z 05004MPS CAVOK 16/00 Q1021 NOSIG
ZGSZ,2003-12-12 12:00,ZGSZ 121200Z 06005MPS CAVOK 15/01 Q1022 NOSIG
ZGSZ,2003-12-12 13:00,ZGSZ 121300Z 05005MPS CAVOK 15/01 Q1022 NOSIG
ZGSZ,2003-12-12 14:00,ZGSZ 121400Z 03002MPS CAVOK 14/01 Q1023 NOSIG
ZGSZ,2003-12-12 15:00,ZGSZ 121500Z 03003MPS CAVOK 13/01 Q1023 NOSIG
ZGSZ,2003-12-12 16:00,ZGSZ 121600Z 00000MPS CAVOK 13/00 Q1023 NOSIG
ZGSZ,2003-12-12 17:00,ZGSZ 121700Z 03003MPS CAVOK 12/01 Q1023 NOSIG
ZGSZ,2003-12-12 18:00,ZGSZ 121800Z 03004MPS CAVOK 12/01 Q1023 NOSIG
ZGSZ,2003-12-12 19:00,ZGSZ 121900Z 33002MPS CAVOK 11/01 Q1023 NOSIG
ZGSZ,2003-12-12 20:00,ZGSZ 122000Z 04004MPS CAVOK 11/00 Q1023 NOSIG
ZGSZ,2003-12-12 21:00,ZGSZ 122100Z 01003MPS CAVOK 10/00 Q1023 NOSIG
ZGSZ,2003-12-12 22:00,ZGSZ 122200Z 00000MPS CAVOK 10/00 Q1024 NOSIG
ZGSZ,2003-12-12 23:00,ZGSZ 122300Z 00000MPS CAVOK 10/00 Q1024 NOSIG
ZGSZ,2003-12-13 00:00,ZGSZ 130000Z 34002MPS CAVOK 10/00 Q1025 NOSIG
ZGSZ,2003-12-13 01:00,ZGSZ 130100Z 35002MPS CAVOK 11/01 Q1025 NOSIG
ZGSZ,2003-12-13 02:00,ZGSZ 130200Z 03005MPS CAVOK 13/01 Q1025 NOSIG
ZGSZ,2003-12-13 03:00,ZGSZ 130300Z 35003MPS CAVOK 14/01 Q1025 NOSIG
ZGSZ,2003-12-13 04:00,ZGSZ 130400Z 36003MPS CAVOK 16/00 Q1024 NOSIG
ZGSZ,2003-12-13 05:00,ZGSZ 130500Z 36003MPS CAVOK 16/02 Q1022 NOSIG
ZGSZ,2003-12-13 06:00,ZGSZ 130600Z 34003MPS CAVOK 17/02 Q1021 NOSIG
ZGSZ,2003-12-13 07:00,ZGSZ 130700Z 36003MPS CAVOK 18/02 Q1021 NOSIG
ZGSZ,2003-12-13 08:00,ZGSZ 130800Z 01005MPS CAVOK 18/02 Q1020 NOSIG
ZGSZ,2003-12-13 09:00,ZGSZ 130900Z 03004MPS 7000 SKC 17/02 Q1021 NOSIG
ZGSZ,2003-12-13 10:00,ZGSZ 131000Z 04002MPS 6000 SKC 16/02 Q1021 NOSIG
ZGSZ,2003-12-13 11:00,ZGSZ 131100Z 00000MPS 4000 HZ SKC 14/03 Q1021 NOSIG
ZGSZ,2003-12-13 12:00,ZGSZ 131200Z 04002MPS 3500 HZ SKC 14/03 Q1022 NOSIG
ZGSZ,2003-12-13 13:00,ZGSZ 131300Z 02002MPS 3200 HZ SKC 15/02 Q1023 NOSIG
ZGSZ,2003-12-13 14:00,ZGSZ 131400Z 00000MPS 3000 HZ SKC 13/03 Q1023 NOSIG
ZGSZ,2003-12-13 15:00,ZGSZ 131500Z 08003MPS 4000 HZ SKC 12/02 Q1023 NOSIG
ZGSZ,2003-12-13 16:00,ZGSZ 131600Z 07003MPS 4500 HZ SKC 13/01 Q1023 NOSIG
ZGSZ,2003-12-13 17:00,ZGSZ 131700Z 04002MPS 4000 HZ SKC 12/02 Q1023 NOSIG
ZGSZ,2003-12-13 18:00,ZGSZ 131800Z 04002MPS 4000 HZ SKC 11/01 Q1022 NOSIG
ZGSZ,2003-12-13 19:00,ZGSZ 131900Z 04002MPS 4000 HZ SKC 11/01 Q1022 NOSIG
ZGSZ,2003-12-13 20:00,ZGSZ 132000Z 03005MPS 5000 HZ SKC 11/00 Q1023 NOSIG
ZGSZ,2003-12-13 21:00,ZGSZ 132100Z 03005MPS 5000 HZ SKC 11/M00 Q1022 NOSIG
ZGSZ,2003-12-13 22:00,ZGSZ 132200Z 03005MPS 6000 SKC 10/M00 Q1023 NOSIG
ZGSZ,2003-12-13 23:00,ZGSZ 132300Z 05005MPS 6000 SKC 10/M01 Q1023 NOSIG
ZGSZ,2003-12-14 00:00,ZGSZ 140000Z 03003MPS 6000 SKC 11/M01 Q1024 NOSIG
ZGSZ,2003-12-14 01:00,ZGSZ 140100Z 06004MPS 8000 SKC 12/M01 Q1024 NOSIG
ZGSZ,2003-12-14 02:00,ZGSZ 140200Z 06002MPS CAVOK 14/M00 Q1025 NOSIG
ZGSZ,2003-12-14 03:00,ZGSZ 140300Z 00000MPS CAVOK 15/M01 Q1024 NOSIG
ZGSZ,2003-12-14 04:00,ZGSZ 140400Z 36004MPS CAVOK 17/M00 Q1023 NOSIG
ZGSZ,2003-12-14 05:00,ZGSZ 140500Z 36002MPS CAVOK 18/00 Q1021 NOSIG
ZGSZ,2003-12-14 06:00,ZGSZ 140600Z 33005MPS 8000 SKC 18/M00 Q1020 NOSIG
ZGSZ,2003-12-14 07:00,ZGSZ 140700Z 33004MPS 7000 SKC 19/M01 Q1020 NOSIG
ZGSZ,2003-12-14 08:00,ZGSZ 140800Z 34003MPS CAVOK 19/M01 Q1019 NOSIG
ZGSZ,2003-12-14 09:00,ZGSZ 140900Z 02003MPS CAVOK 18/01 Q1020 NOSIG
ZGSZ,2003-12-14 10:00,ZGSZ 141000Z 01002MPS 6000 SKC 17/01 Q1020 NOSIG
ZGSZ,2003-12-14 11:00,ZGSZ 141100Z 00000MPS 6000 SKC 15/03 Q1020 NOSIG
ZGSZ,2003-12-14 12:00,ZGSZ 141200Z 00000MPS 5000 HZ SKC 14/03 Q1021 NOSIG
ZGSZ,2003-12-14 13:00,ZGSZ 141300Z 00000MPS 4000 HZ SKC 14/02 Q1021 NOSIG
ZGSZ,2003-12-14 14:00,ZGSZ 141400Z 08002MPS 3000 HZ SKC 13/02 Q1022 NOSIG
ZGSZ,2003-12-14 15:00,ZGSZ 141500Z 00000MPS 2800 HZ SKC 12/02 Q1022 NOSIG
ZGSZ,2003-12-14 16:00,ZGSZ 141600Z 04003MPS 2800 HZ SKC 12/02 Q1022 NOSIG
ZGSZ,2003-12-14 17:00,ZGSZ 141700Z 00000MPS 2500 HZ SKC 12/01 Q1021 NOSIG
ZGSZ,2003-12-14 18:00,ZGSZ 141800Z 04002MPS 2500 HZ SKC 12/01 Q1021 NOSIG
ZGSZ,2003-12-14 19:00,ZGSZ 141900Z MPS 2500 HZ SKC 10/00 Q1021 NOSIG
ZGSZ,2003-12-14 20:00,ZGSZ 142000Z MPS 2600 HZ SKC 11/M01 Q1021 NOSIG
ZGSZ,2003-12-14 21:00,ZGSZ 142100Z MPS 2600 HZ SKC 10/M00 Q1021 NOSIG
ZGSZ,2003-12-14 22:00,ZGSZ 142200Z 05002MPS 2800 HZ SKC 10/M01 Q1022 NOSIG
ZGSZ,2003-12-14 23:00,ZGSZ 142300Z 00000MPS 4500 HZ SKC 10/M01 Q1022 NOSIG
ZGSZ,2003-12-15 00:00,ZGSZ 150000Z 30002MPS CAVOK 11/M00 Q1023 NOSIG
ZGSZ,2003-12-15 01:00,ZGSZ 150100Z 04003MPS 6000 SKC 12/M01 Q1023 NOSIG
ZGSZ,2003-12-15 02:00,ZGSZ 150200Z 05003MPS 6000 SKC 14/M01 Q1023 NOSIG
ZGSZ,2003-12-15 03:00,ZGSZ 150300Z 08002MPS 7000 SKC 16/M01 Q1023 NOSIG
ZGSZ,2003-12-15 04:00,ZGSZ 150400Z 09003MPS 8000 SKC 17/M00 Q1022 NOSIG
ZGSZ,2003-12-15 05:00,ZGSZ 150500Z 04003MPS 8000 SKC 18/01 Q1020 NOSIG
ZGSZ,2003-12-15 06:00,ZGSZ 150600Z 33004MPS CAVOK 19/00 Q1019 NOSIG
ZGSZ,2003-12-15 07:00,ZGSZ 150700Z 34002MPS CAVOK 19/01 Q1019 NOSIG
ZGSZ,2003-12-15 08:00,ZGSZ 150800Z 34003MPS CAVOK 19/01 Q1019 NOSIG
ZGSZ,2003-12-15 09:00,ZGSZ 150900Z 36002MPS 7000 SKC 18/02 Q1019 NOSIG
ZGSZ,2003-12-15 10:00,ZGSZ 151000Z 02002MPS 7000 SKC 16/02 Q1019 NOSIG
ZGSZ,2003-12-15 11:00,ZGSZ 151100Z 05001MPS 5000 HZ SKC 16/02 Q1020 NOSIG
ZGSZ,2003-12-15 12:00,ZGSZ 151200Z 09002MPS 3500 HZ SKC 16/04 Q1021 NOSIG
ZGSZ,2003-12-15 13:00,ZGSZ 151300Z 11002MPS 3500 HZ SKC 15/05 Q1021 NOSIG
ZGSZ,2003-12-15 14:00,ZGSZ 151400Z 13002MPS 3500 HZ SKC 14/06 Q1021 NOSIG
ZGSZ,2003-12-15 15:00,ZGSZ 151500Z 08002MPS 5000 HZ SKC 15/07 Q1021 NOSIG
ZGSZ,2003-12-15 16:00,ZGSZ 151600Z 10002MPS 4500 HZ SKC 15/08 Q1022 NOSIG
ZGSZ,2003-12-15 17:00,ZGSZ 151700Z 00000MPS 4500 BR SKC 12/07 Q1021 NOSIG
ZGSZ,2003-12-15 18:00,ZGSZ 151800Z 00000MPS 4500 BR SKC 12/07 Q1021 NOSIG
ZGSZ,2003-12-15 19:00,ZGSZ 151900Z 00000MPS 4500 BR SKC 12/07 Q1021 NOSIG
ZGSZ,2003-12-15 20:00,ZGSZ 152000Z 00000MPS 4500 BR SKC 12/07 Q1021 NOSIG
ZGSZ,2003-12-15 21:00,ZGSZ 152100Z 07003MPS 4500 BR SKC 12/07 Q1021 NOSIG
ZGSZ,2003-12-15 22:00,ZGSZ 152200Z 06004MPS 4500 HZ SKC 13/06 Q1021 NOSIG
ZGSZ,2003-12-15 23:00,ZGSZ 152300Z 07005MPS 4500 HZ SKC 12/06 Q1022 NOSIG
ZGSZ,2003-12-16 00:00,ZGSZ 160000Z 08003MPS 3500 BR SKC 11/06 Q1023 NOSIG
ZGSZ,2003-12-16 01:00,ZGSZ 160100Z 00000MPS 3300 HZ SKC 14/05 Q1023 NOSIG
ZGSZ,2003-12-16 02:00,ZGSZ 160200Z 04003MPS 3500 HZ SKC 15/03 Q1023 NOSIG
ZGSZ,2003-12-16 03:00,ZGSZ 160300Z 02002MPS 3300 HZ SKC 16/03 Q1023 NOSIG
ZGSZ,2003-12-16 04:00,ZGSZ 160400Z 33002MPS 3500 HZ SKC 17/02 Q1022 NOSIG
ZGSZ,2003-12-16 05:00,ZGSZ 160500Z 02002MPS 3800 HZ SKC 19/02 Q1020 NOSIG
ZGSZ,2003-12-16 06:00,ZGSZ 160600Z 35003MPS 5000 HZ SKC 19/02 Q1019 NOSIG
ZGSZ,2003-12-16 07:00,ZGSZ 160700Z 30005MPS 5000 SKC 19/06 Q1018 NOSIG
ZGSZ,2003-12-16 08:00,ZGSZ 160800Z 33002MPS 5000 HZ SKC 20/03 Q1017 NOSIG
ZGSZ,2003-12-16 09:00,ZGSZ 160900Z 35003MPS 4000 HZ SKC 19/03 Q1017 NOSIG
ZGSZ,2003-12-16 10:00,ZGSZ 161000Z 03003MPS 3000 HZ NSC 17/03 Q1018 NOSIG
ZGSZ,2003-12-16 11:00,ZGSZ 161100Z 00000MPS 3000 HZ SKC 16/04 Q1018 NOSIG
ZGSZ,2003-12-16 12:00,ZGSZ 161200Z 00000MPS 2500 HZ SKC 14/05 Q1018 NOSIG
ZGSZ,2003-12-16 13:00,ZGSZ 161300Z 00000MPS 2800 HZ SKC 15/04 Q1019 NOSIG
ZGSZ,2003-12-16 14:00,ZGSZ 161400Z 00000MPS 2800 HZ SKC 14/07 Q1019 NOSIG
ZGSZ,2003-12-16 15:00,ZGSZ 161500Z 00000MPS 2500 HZ SKC 14/05 Q1019 NOSIG
ZGSZ,2003-12-16 16:00,ZGSZ 161600Z 00000MPS 2500 HZ SCT043 15/05 Q1019 NOSIG
ZGSZ,2003-12-16 17:00,ZGSZ 161700Z 00000MPS 2500 HZ BKN043 14/05 Q1019 NOSIG
ZGSZ,2003-12-16 18:00,ZGSZ 161800Z 00000MPS 2200 HZ SCT043 13/06 Q1019 NOSIG
ZGSZ,2003-12-16 19:00,ZGSZ 161900Z 00000MPS 2200 BR SKC 13/08 Q1019 NOSIG
ZGSZ,2003-12-16 20:00,ZGSZ 162000Z 00000MPS 2500 HZ SKC 12/05 Q1018 NOSIG
ZGSZ,2003-12-16 21:00,ZGSZ 162100Z 03002MPS 2500 HZ SKC 12/05 Q1019 NOSIG
ZGSZ,2003-12-16 22:00,ZGSZ 162200Z 00000MPS 2500 HZ SKC 12/05 Q1019 NOSIG
ZGSZ,2003-12-16 23:00,ZGSZ 162300Z 00000MPS 4500 HZ SKC 12/05 Q1019 NOSIG
ZGSZ,2003-12-17 00:00,ZGSZ 170000Z 34002MPS 4500 HZ SKC 12/05 Q1020 NOSIG
ZGSZ,2003-12-17 01:00,ZGSZ 170100Z 04003MPS 4000 HZ SKC 14/03 Q1020 NOSIG
ZGSZ,2003-12-17 02:00,ZGSZ 170200Z 00000MPS 4000 HZ SKC 16/04 Q1020 NOSIG
ZGSZ,2003-12-17 03:00,ZGSZ 170300Z 10003MPS 5000 HZ SKC 18/03 Q1020 NOSIG
ZGSZ,2003-12-17 04:00,ZGSZ 170400Z 35004MPS 6000 SKC 19/03 Q1019 NOSIG
ZGSZ,2003-12-17 05:00,ZGSZ 170500Z 34004MPS 6000 SKC 20/03 Q1018 NOSIG
ZGSZ,2003-12-17 06:00,ZGSZ 170600Z 13004MPS 6000 SKC 21/03 Q1016 NOSIG
ZGSZ,2003-12-17 07:00,ZGSZ 170700Z 29005MPS 7000 SKC 21/03 Q1016 NOSIG
ZGSZ,2003-12-17 08:00,ZGSZ 170800Z 34003MPS 7000 SKC 22/03 Q1016 NOSIG
ZGSZ,2003-12-17 09:00,ZGSZ 170900Z 30003MPS 5000 HZ SKC 19/08 Q1016 NOSIG
ZGSZ,2003-12-17 10:00,ZGSZ 171000Z 00000MPS 3800 HZ SKC 18/04 Q1016 NOSIG
ZGSZ,2003-12-17 11:00,ZGSZ 171100Z 18004MPS 3200 HZ SKC 18/08 Q1017 NOSIG
ZGSZ,2003-12-17 12:00,ZGSZ 171200Z 00000MPS 3500 BR SKC 16/10 Q1018 NOSIG
ZGSZ,2003-12-17 13:00,ZGSZ 171300Z 00000MPS 3800 HZ SKC 16/08 Q1018 NOSIG
ZGSZ,2003-12-17 14:00,ZGSZ 171400Z 10003MPS 3800 HZ SKC 17/07 Q1019 NOSIG
ZGSZ,2003-12-17 15:00,ZGSZ 171500Z 11003MPS 5000 HZ SKC 17/08 Q1019 NOSIG
ZGSZ,2003-12-17 16:00,ZGSZ 171600Z 10003MPS 4800 HZ SKC 15/09 Q1019 NOSIG
ZGSZ,2003-12-17 17:00,ZGSZ 171700Z 00000MPS 4500 BR SKC 14/09 Q1019 NOSIG
ZGSZ,2003-12-17 18:00,ZGSZ 171800Z AUTO 04004KT 3SM 16/12 RMK SLP200 T01580116 52001 IEM_DS3505
ZGSZ,2003-12-17 19:00,ZGSZ 171900Z 00000MPS 4800 HZ NSC 15/09 Q1019 NOSIG
ZGSZ,2003-12-17 20:00,ZGSZ 172000Z 00000MPS 4800 HZ NSC 16/09 Q1019 NOSIG
ZGSZ,2003-12-17 21:00,ZGSZ 172100Z 00000MPS 4500 HZ NSC 15/08 Q1019 NOSIG
ZGSZ,2003-12-17 22:00,ZGSZ 172200Z 06002MPS 4500 HZ NSC 15/08 Q1019 NOSIG
ZGSZ,2003-12-17 23:00,ZGSZ 172300Z 02001MPS 4500 HZ NSC 14/08 Q1020 NOSIG
ZGSZ,2003-12-18 00:00,ZGSZ 180000Z 00000MPS 2800 HZ NSC 14/09 Q1021 NOSIG
ZGSZ,2003-12-18 01:00,ZGSZ 180100Z 35002MPS 3000 HZ NSC 15/06 Q1022 NOSIG
ZGSZ,2003-12-18 02:00,ZGSZ 180200Z 03004MPS 3000 HZ NSC 17/05 Q1022 NOSIG
ZGSZ,2003-12-18 03:00,ZGSZ 180300Z 00000MPS 3000 HZ NSC 18/04 Q1022 NOSIG
ZGSZ,2003-12-18 04:00,ZGSZ 180400Z 00000MPS 3000 HZ SKC 20/05 Q1021 NOSIG
ZGSZ,2003-12-18 05:00,ZGSZ 180500Z 34003MPS 3000 HZ SKC 21/04 Q1020 NOSIG
ZGSZ,2003-12-18 06:00,ZGSZ 180600Z 35004MPS 3000 HZ SKC 22/03 Q1019 NOSIG
ZGSZ,2003-12-18 07:00,ZGSZ 180700Z 35002MPS 3500 HZ SKC 22/04 Q1019 NOSIG
ZGSZ,2003-12-18 08:00,ZGSZ 180800Z AUTO 00000KT 2 1/2SM 21/04 A3009 RMK T02100040 IEM_DS3505
ZGSZ,2003-12-18 09:00,ZGSZ 180900Z AUTO 32006KT 4SM 21/05 A3009 RMK SLP204 T02090051 52005 IEM_DS3505
ZGSZ,2003-12-18 10:00,ZGSZ 181000Z AUTO 00000KT 2 1/2SM 19/05 A3012 RMK T01900050 IEM_DS3505
ZGSZ,2003-12-18 11:00,ZGSZ 181100Z AUTO 35006KT 3SM 18/04 A3015 RMK T01800040 IEM_DS3505
ZGSZ,2003-12-18 12:00,ZGSZ 181200Z AUTO 07004KT 2 1/2SM 19/07 A3018 RMK SLP229 T01880069 52025 IEM_DS3505
ZGSZ,2003-12-18 13:00,ZGSZ 181300Z AUTO 02008KT 3SM 17/04 A3021 RMK T01700040 IEM_DS3505
ZGSZ,2003-12-18 14:00,ZGSZ 181400Z 03007MPS 5000 HZ SKC 17/04 Q1024 NOSIG
ZGSZ,2003-12-18 15:00,ZGSZ 181500Z 02006MPS 8000 SKC 16/02 Q1025 NOSIG
ZGSZ,2003-12-18 16:00,ZGSZ 181600Z 03006MPS 8000 SKC 15/M01 Q1025 NOSIG
ZGSZ,2003-12-18 17:00,ZGSZ 181700Z 03006MPS CAVOK 15/M03 Q1026 NOSIG
ZGSZ,2003-12-18 18:00,ZGSZ 181800Z 03006MPS CAVOK 14/M03 Q1026 NOSIG
ZGSZ,2003-12-18 19:00,ZGSZ 181900Z 03006MPS CAVOK 14/M03 Q1026 NOSIG
ZGSZ,2003-12-18 20:00,ZGSZ 182000Z 06006MPS CAVOK 13/M04 Q1026 NOSIG
ZGSZ,2003-12-18 21:00,ZGSZ 182100Z 03006MPS CAVOK 12/M03 Q1026 NOSIG
ZGSZ,2003-12-18 22:00,ZGSZ 182200Z 36004MPS CAVOK 12/M02 Q1027 NOSIG
ZGSZ,2003-12-18 23:00,ZGSZ 182300Z 36005MPS 6000 SKC 12/M02 Q1027 NOSIG
ZGSZ,2003-12-19 00:00,ZGSZ 190000Z 04010MPS 6000 SKC 12/M03 Q1028 NOSIG
ZGSZ,2003-12-19 01:00,ZGSZ 190100Z 36003MPS 5000 HZ SKC 12/M04 Q1029 NOSIG
ZGSZ,2003-12-19 02:00,ZGSZ 190200Z 03009MPS 5000 HZ SKC 12/M06 Q1029 NOSIG
ZGSZ,2003-12-19 03:00,ZGSZ 190300Z 02006MPS 6000 SKC 13/M07 Q1029 NOSIG
ZGSZ,2003-12-19 04:00,ZGSZ 190400Z 02007MPS 6000 SKC 15/M07 Q1028 NOSIG
ZGSZ,2003-12-19 05:00,ZGSZ 190500Z 02008MPS 8000 SKC 15/M08 Q1027 NOSIG
ZGSZ,2003-12-19 06:00,ZGSZ 190600Z 02008MPS CAVOK 16/M07 Q1025 NOSIG
ZGSZ,2003-12-19 07:00,ZGSZ 190700Z 03007MPS CAVOK 16/M07 Q1025 NOSIG
ZGSZ,2003-12-19 08:00,ZGSZ 190800Z 02007MPS CAVOK 16/M07 Q1024 NOSIG
ZGSZ,2003-12-19 09:00,ZGSZ 190900Z 03007MPS CAVOK 16/M07 Q1025 NOSIG
ZGSZ,2003-12-19 10:00,ZGSZ 191000Z 03005MPS CAVOK 15/M07 Q1025 NOSIG
ZGSZ,2003-12-19 11:00,ZGSZ 191100Z 02007MPS CAVOK 14/M07 Q1026 NOSIG
ZGSZ,2003-12-19 12:00,ZGSZ 191200Z 03006MPS CAVOK 14/M07 Q1026 NOSIG
ZGSZ,2003-12-19 13:00,ZGSZ 191300Z 04005MPS CAVOK 13/M07 Q1027 NOSIG
ZGSZ,2003-12-19 14:00,ZGSZ 191400Z 03008MPS CAVOK 12/M06 Q1028 NOSIG
ZGSZ,2003-12-19 15:00,ZGSZ 191500Z 03006MPS CAVOK 11/M06 Q1028 NOSIG
ZGSZ,2003-12-19 16:00,ZGSZ 191600Z 02009MPS CAVOK 11/M07 Q1028 NOSIG
ZGSZ,2003-12-19 17:00,ZGSZ 191700Z 03005MPS CAVOK 10/M07 Q1029 NOSIG
ZGSZ,2003-12-19 18:00,ZGSZ 191800Z 05002MPS CAVOK 09/M07 Q1028 NOSIG
ZGSZ,2003-12-19 19:00,ZGSZ 191900Z 03003MPS CAVOK 09/M06 Q1028 NOSIG
ZGSZ,2003-12-19 20:00,ZGSZ 192000Z 02003MPS CAVOK 08/M07 Q1028 NOSIG
ZGSZ,2003-12-19 21:00,ZGSZ 192100Z 07002MPS CAVOK 08/M07 Q1028 NOSIG
ZGSZ,2003-12-19 22:00,ZGSZ 192200Z 03004MPS CAVOK 08/M07 Q1028 NOSIG
ZGSZ,2003-12-19 23:00,ZGSZ 192300Z 02003MPS CAVOK 08/M08 Q1028 NOSIG
ZGSZ,2003-12-20 00:00,ZGSZ 200000Z 06003MPS CAVOK 08/M09 Q1029 NOSIG
ZGSZ,2003-12-20 01:00,ZGSZ 200100Z 04005MPS CAVOK 09/M10 Q1029 NOSIG
ZGSZ,2003-12-20 02:00,ZGSZ 200200Z 04004MPS CAVOK 10/M11 Q1030 NOSIG
ZGSZ,2003-12-20 03:00,ZGSZ 200300Z 03005MPS CAVOK 11/M11 Q1030 NOSIG
ZGSZ,2003-12-20 04:00,ZGSZ 200400Z 36006MPS CAVOK 13/M10 Q1029 NOSIG
ZGSZ,2003-12-20 05:00,ZGSZ 200500Z 33003MPS CAVOK 13/M09 Q1027 NOSIG
ZGSZ,2003-12-20 06:00,ZGSZ 200600Z 36004MPS CAVOK 14/M09 Q1026 NOSIG
ZGSZ,2003-12-20 07:00,ZGSZ 200700Z 34004MPS CAVOK 15/M09 Q1025 NOSIG
ZGSZ,2003-12-20 08:00,ZGSZ 200800Z 35002MPS CAVOK 15/M09 Q1025 NOSIG
ZGSZ,2003-12-20 09:00,ZGSZ 200900Z 01003MPS 7000 SKC 15/M07 Q1025 NOSIG
ZGSZ,2003-12-20 10:00,ZGSZ 201000Z 03002MPS 5000 HZ SKC 13/M06 Q1026 NOSIG
ZGSZ,2003-12-20 11:00,ZGSZ 201100Z 03002MPS 5000 HZ SKC 12/M04 Q1026 NOSIG
ZGSZ,2003-12-20 12:00,ZGSZ 201200Z 04002MPS 6000 SKC 12/M04 Q1026 NOSIG
ZGSZ,2003-12-20 13:00,ZGSZ 201300Z 00000MPS 5000 HZ SKC 11/M04 Q1027 NOSIG
ZGSZ,2003-12-20 14:00,ZGSZ 201400Z 00000MPS 4000 HZ SKC 11/M03 Q1027 NOSIG
ZGSZ,2003-12-20 15:00,ZGSZ 201500Z 00000MPS 4000 HZ SKC 10/M02 Q1027 NOSIG
ZGSZ,2003-12-20 16:00,ZGSZ 201600Z 00000MPS 4300 HZ SKC 10/M04 Q1027 NOSIG
ZGSZ,2003-12-20 17:00,ZGSZ 201700Z 02001MPS 4500 HZ SKC 10/M05 Q1027 NOSIG
ZGSZ,2003-12-20 18:00,ZGSZ 201800Z 01001MPS 5000 HZ SKC 10/M06 Q1027 NOSIG
ZGSZ,2003-12-20 19:00,ZGSZ 201900Z 05003MPS 5000 HZ SKC 10/M06 Q1027 NOSIG
ZGSZ,2003-12-20 20:00,ZGSZ 202000Z 07003MPS 6000 SKC 09/M05 Q1027 NOSIG
ZGSZ,2003-12-20 21:00,ZGSZ 202100Z 03001MPS 6000 SKC 10/M06 Q1027 NOSIG
ZGSZ,2003-12-20 22:00,ZGSZ 202200Z 00000MPS 7000 SKC 09/M06 Q1027 NOSIG
ZGSZ,2003-12-20 23:00,ZGSZ 202300Z 06003MPS 7000 NSC 08/M06 Q1028 NOSIG
ZGSZ,2003-12-21 00:00,ZGSZ 210000Z 04003MPS 7000 SKC 09/M06 Q1028 NOSIG
ZGSZ,2003-12-21 01:00,ZGSZ 210100Z 03004MPS 7000 SKC 11/M07 Q1029 NOSIG
ZGSZ,2003-12-21 02:00,ZGSZ 210200Z 35003MPS 8000 SKC 12/M07 Q1029 NOSIG
ZGSZ,2003-12-21 03:00,ZGSZ 210300Z 05002MPS CAVOK 14/M06 Q1028 NOSIG
ZGSZ,2003-12-21 04:00,ZGSZ 210400Z 04003MPS CAVOK 15/M05 Q1026 NOSIG
ZGSZ,2003-12-21 05:00,ZGSZ 210500Z 03003MPS CAVOK 16/M03 Q1025 NOSIG
ZGSZ,2003-12-21 06:00,ZGSZ 210600Z 05004MPS 7000 SKC 17/M02 Q1024 NOSIG
ZGSZ,2003-12-21 07:00,ZGSZ 210700Z 36004MPS 7000 SKC 18/M02 Q1023 NOSIG
ZGSZ,2003-12-21 08:00,ZGSZ 210800Z 36003MPS 7000 SKC 18/M02 Q1022 NOSIG
ZGSZ,2003-12-21 09:00,ZGSZ 210900Z 36002MPS 8000 SKC 17/M00 Q1023 NOSIG
ZGSZ,2003-12-21 10:00,ZGSZ 211000Z 03002MPS 6000 SKC 15/00 Q1023 NOSIG
ZGSZ,2003-12-21 11:00,ZGSZ 211100Z 00000MPS 5000 HZ SKC 14/01 Q1024 NOSIG
ZGSZ,2003-12-21 12:00,ZGSZ 211200Z 00000MPS 5000 HZ SKC 13/01 Q1024 NOSIG
ZGSZ,2003-12-21 13:00,ZGSZ 211300Z 00000MPS 4500 HZ SKC 14/M00 Q1025 NOSIG
ZGSZ,2003-12-21 14:00,ZGSZ 211400Z 00000MPS 4000 HZ SKC 13/00 Q1025 NOSIG
ZGSZ,2003-12-21 15:00,ZGSZ 211500Z 00000MPS 3500 HZ SKC 11/03 Q1025 NOSIG
ZGSZ,2003-12-21 16:00,ZGSZ 211600Z 00000MPS 4000 HZ SKC 12/04 Q1025 NOSIG
ZGSZ,2003-12-21 17:00,ZGSZ 211700Z 00000MPS 4000 HZ SKC 11/05 Q1025 NOSIG
ZGSZ,2003-12-21 18:00,ZGSZ 211800Z MPS 4000 HZ SKC 11/03 Q1024 NOSIG
ZGSZ,2003-12-21 19:00,ZGSZ 211900Z 02001MPS 3000 HZ SKC 11/02 Q1023 NOSIG
ZGSZ,2003-12-21 20:00,ZGSZ 212000Z 00000MPS 3000 HZ SKC 10/02 Q1023 NOSIG
ZGSZ,2003-12-21 21:00,ZGSZ 212100Z 03001MPS 3000 HZ SKC 11/01 Q1023 NOSIG
ZGSZ,2003-12-21 22:00,ZGSZ 212200Z 00000MPS 3500 HZ SKC 10/03 Q1023 NOSIG
ZGSZ,2003-12-21 23:00,ZGSZ 212300Z 00000MPS 4000 HZ SKC 10/02 Q1024 NOSIG
ZGSZ,2003-12-22 00:00,ZGSZ 220000Z 00000MPS 5000 HZ SKC 11/02 Q1024 NOSIG
ZGSZ,2003-12-22 01:00,ZGSZ 220100Z 00000MPS 4000 HZ SKC 13/01 Q1025 NOSIG
ZGSZ,2003-12-22 02:00,ZGSZ 220200Z 00000MPS 4500 HZ SKC 16/01 Q1025 NOSIG
ZGSZ,2003-12-22 03:00,ZGSZ 220300Z 26003MPS 4500 HZ SKC 17/02 Q1024 NOSIG
ZGSZ,2003-12-22 04:00,ZGSZ 220400Z 00000MPS 4000 HZ SKC 19/02 Q1023 NOSIG
ZGSZ,2003-12-22 05:00,ZGSZ 220500Z 34004MPS 5000 HZ SKC 20/01 Q1022 NOSIG
ZGSZ,2003-12-22 06:00,ZGSZ 220600Z 29005MPS 6000 SKC 19/07 Q1021 NOSIG
ZGSZ,2003-12-22 07:00,ZGSZ 220700Z 30005MPS 7000 SKC 19/06 Q1020 NOSIG
ZGSZ,2003-12-22 08:00,ZGSZ 220800Z 30006MPS 6000 SKC 19/07 Q1020 NOSIG
ZGSZ,2003-12-22 09:00,ZGSZ 220900Z 31004MPS 4500 HZ SKC 18/08 Q1020 NOSIG
ZGSZ,2003-12-22 10:00,ZGSZ 221000Z 32002MPS 4500 HZ SKC 17/08 Q1020 NOSIG
ZGSZ,2003-12-22 11:00,ZGSZ 221100Z 00000MPS 4500 HZ SKC 16/07 Q1020 NOSIG
ZGSZ,2003-12-22 12:00,ZGSZ 221200Z 00000MPS 3000 HZ SKC 14/07 Q1020 NOSIG
ZGSZ,2003-12-22 13:00,ZGSZ 221300Z 11003MPS 3000 HZ SKC 14/08 Q1020 NOSIG
ZGSZ,2003-12-22 14:00,ZGSZ 221400Z 00000MPS 3000 HZ SKC 15/08 Q1021 NOSIG
ZGSZ,2003-12-22 15:00,ZGSZ 221500Z 09002MPS 3500 HZ SKC 16/08 Q1021 NOSIG
ZGSZ,2003-12-22 16:00,ZGSZ 221600Z 09002MPS 6000 SKC 16/08 Q1020 NOSIG
ZGSZ,2003-12-22 17:00,ZGSZ 221700Z 00000MPS 6000 SKC 13/09 Q1020 NOSIG
ZGSZ,2003-12-22 18:00,ZGSZ 221800Z 00000MPS 4500 BR SKC 13/08 Q1020 NOSIG
ZGSZ,2003-12-22 19:00,ZGSZ 221900Z 00000MPS 4500 BR SKC 13/09 Q1020 NOSIG
ZGSZ,2003-12-22 21:00,ZGSZ 222100Z 00000MPS 3500 BR SKC 13/09 Q1020 NOSIG
ZGSZ,2003-12-22 22:00,ZGSZ 222200Z 00000MPS 3000 BR SKC 12/09 Q1020 NOSIG
ZGSZ,2003-12-22 23:00,ZGSZ 222300Z 00000MPS 3000 BR SKC 12/09 Q1020 NOSIG
ZGSZ,2003-12-23 00:00,ZGSZ 230000Z 00000MPS 2000 BR SKC 13/10 Q1021 NOSIG
ZGSZ,2003-12-23 01:00,ZGSZ 230100Z 00000MPS 2500 BR SKC 15/10 Q1021 NOSIG
ZGSZ,2003-12-23 02:00,ZGSZ 230200Z 00000MPS 2300 HZ SKC 17/10 Q1021 NOSIG
ZGSZ,2003-12-23 03:00,ZGSZ 230300Z 23003MPS 2500 HZ SKC 18/10 Q1021 NOSIG
ZGSZ,2003-12-23 04:00,ZGSZ 230400Z 25003MPS 2100 HZ SKC 18/11 Q1020 NOSIG
ZGSZ,2003-12-23 05:00,ZGSZ 230500Z 26003MPS 1800 BR SKC 19/13 Q1019 NOSIG
ZGSZ,2003-12-23 06:00,ZGSZ 230600Z 25004MPS 2500 HZ SKC 19/12 Q1018 NOSIG
ZGSZ,2003-12-23 07:00,ZGSZ 230700Z 23003MPS 3500 HZ SKC 19/12 Q1017 NOSIG
ZGSZ,2003-12-23 08:00,ZGSZ 230800Z 21003MPS 4500 BR SKC 19/14 Q1017 NOSIG
ZGSZ,2003-12-23 09:00,ZGSZ 230900Z 18002MPS 4000 BR SKC 18/13 Q1018 NOSIG
ZGSZ,2003-12-23 10:00,ZGSZ 231000Z 00000MPS 4500 BR NSC 17/12 Q1017 NOSIG
ZGSZ,2003-12-23 11:00,ZGSZ 231100Z 00000MPS 4500 BR SKC 16/11 Q1018 NOSIG
ZGSZ,2003-12-23 12:00,ZGSZ 231200Z 00000MPS 4000 BR SKC 16/11 Q1018 NOSIG
ZGSZ,2003-12-23 13:00,ZGSZ 231300Z 00000MPS 3500 BR SKC 15/11 Q1018 NOSIG
ZGSZ,2003-12-23 14:00,ZGSZ 231400Z 00000MPS 2200 BR SKC 14/11 Q1018 NOSIG
ZGSZ,2003-12-23 15:00,ZGSZ 231500Z 00000MPS 2000 BR SKC 16/12 Q1018 NOSIG
ZGSZ,2003-12-23 16:00,ZGSZ 231600Z 00000MPS 2000 BR SKC 14/11 Q1018 NOSIG
ZGSZ,2003-12-23 17:00,ZGSZ 231700Z 00000MPS 1800 BR SKC 14/11 Q1018 NOSIG
ZGSZ,2003-12-23 18:00,ZGSZ 231800Z 00000MPS 1800 BR SKC 13/10 Q1018 NOSIG
ZGSZ,2003-12-23 19:00,ZGSZ 231900Z 00000MPS 2000 BR SKC 13/10 Q1017 NOSIG
ZGSZ,2003-12-23 20:00,ZGSZ 232000Z 00000MPS 2500 BR SKC 12/10 Q1018 NOSIG
ZGSZ,2003-12-23 21:00,ZGSZ 232100Z 00000MPS 2000 BR SKC 12/09 Q1018 NOSIG
ZGSZ,2003-12-23 22:00,ZGSZ 232200Z 00000MPS 1800 BR SKC 12/09 Q1018 NOSIG
ZGSZ,2003-12-23 23:00,ZGSZ 232300Z 00000MPS 1600 BR SKC 12/10 Q1018 NOSIG
ZGSZ,2003-12-24 00:00,ZGSZ 240000Z 00000MPS 1000 BR SKC 12/10 Q1019 NOSIG
ZGSZ,2003-12-24 01:00,ZGSZ 240100Z 00000MPS 1000 BR SKC 16/12 Q1019 NOSIG
ZGSZ,2003-12-24 02:00,ZGSZ 240200Z 00000MPS 1700 HZ SKC 18/12 Q1020 NOSIG
ZGSZ,2003-12-24 03:00,ZGSZ 240300Z 29003MPS 2000 HZ SKC 20/10 Q1019 NOSIG
ZGSZ,2003-12-24 04:00,ZGSZ 240400Z 28005MPS 3500 HZ SKC 20/12 Q1017 NOSIG
ZGSZ,2003-12-24 05:00,ZGSZ 240500Z 28004MPS 3500 HZ SKC 20/12 Q1016 NOSIG
ZGSZ,2003-12-24 06:00,ZGSZ 240600Z 27004MPS 4500 HZ SKC 21/11 Q1015 NOSIG
ZGSZ,2003-12-24 07:00,ZGSZ 240700Z 23004MPS 5000 HZ SKC 21/13 Q1015 NOSIG
ZGSZ,2003-12-24 08:00,ZGSZ 240800Z 23002MPS 5000 HZ SKC 21/14 Q1015 NOSIG
ZGSZ,2003-12-24 09:00,ZGSZ 240900Z 19003MPS 6000 SKC 20/12 Q1015 NOSIG
ZGSZ,2003-12-24 10:00,ZGSZ 241000Z 00000MPS 4000 BR SKC 18/13 Q1016 NOSIG
ZGSZ,2003-12-24 11:00,ZGSZ 241100Z 00000MPS 4000 BR SKC 18/13 Q1016 NOSIG
ZGSZ,2003-12-24 12:00,ZGSZ 241200Z 00000MPS 3000 BR SKC 17/13 Q1017 NOSIG
ZGSZ,2003-12-24 13:00,ZGSZ 241300Z 00000MPS 1800 BR SKC 16/13 Q1017 NOSIG
ZGSZ,2003-12-24 14:00,ZGSZ 241400Z 00000MPS 1700 BR SKC 16/14 Q1017 NOSIG
ZGSZ,2003-12-24 15:00,ZGSZ 241500Z 00000MPS 1700 BR SKC 16/14 Q1017 NOSIG
ZGSZ,2003-12-24 16:00,ZGSZ 241600Z 00000MPS 1800 BR SKC 14/12 Q1017 NOSIG
ZGSZ,2003-12-24 17:00,ZGSZ 241700Z 00000MPS 1800 BR SKC 14/12 Q1017 NOSIG
ZGSZ,2003-12-24 18:00,ZGSZ 241800Z 00000MPS 1800 BR SKC 13/11 Q1017 NOSIG
ZGSZ,2003-12-24 19:00,ZGSZ 241900Z 00000MPS 1900 BR SKC 14/12 Q1017 NOSIG
ZGSZ,2003-12-24 20:00,ZGSZ 242000Z 00000MPS 2300 BR SKC 15/12 Q1017 NOSIG
ZGSZ,2003-12-24 21:00,ZGSZ 242100Z 00000MPS 3000 BR SKC 14/10 Q1017 NOSIG
ZGSZ,2003-12-24 22:00,ZGSZ 242200Z 00000MPS 3000 BR SKC 13/10 Q1017 NOSIG
ZGSZ,2003-12-24 23:00,ZGSZ 242300Z 00000MPS 2000 BR SKC 13/10 Q1018 NOSIG
ZGSZ,2003-12-25 00:00,ZGSZ 250000Z 00000MPS 2000 BR SKC 15/10 Q1018 NOSIG
ZGSZ,2003-12-25 01:00,ZGSZ 250100Z 00000MPS 2000 HZ SKC 17/11 Q1019 NOSIG
ZGSZ,2003-12-25 02:00,ZGSZ 250200Z 00000MPS 2500 HZ SKC 19/11 Q1019 NOSIG
ZGSZ,2003-12-25 03:00,ZGSZ 250300Z 27003MPS 1400 HZ SKC 20/12 Q1019 NOSIG
ZGSZ,2003-12-25 04:00,ZGSZ 250400Z 26003MPS 1300 HZ SKC 20/14 Q1017 NOSIG
ZGSZ,2003-12-25 06:00,ZGSZ 250600Z AUTO 04004KT 4SM 25/11 RMK SLP159 T02520113 57031 IEM_DS3505
ZGSZ,2003-12-25 07:00,ZGSZ 250700Z 18001MPS 1300 HZ SKC 23/13 Q1015 NOSIG
ZGSZ,2003-12-25 08:00,ZGSZ 250800Z 18002MPS 1400 HZ SKC 21/14 Q1015 NOSIG
ZGSZ,2003-12-25 09:00,ZGSZ 250900Z 18002MPS 2300 HZ SKC 20/13 Q1015 NOSIG
ZGSZ,2003-12-25 10:00,ZGSZ 251000Z 00000MPS 3300 BR SKC 18/13 Q1016 NOSIG
ZGSZ,2003-12-25 11:00,ZGSZ 251100Z 00000MPS 3800 BR SKC 17/13 Q1016 NOSIG
ZGSZ,2003-12-25 12:00,ZGSZ 251200Z 00000MPS 4800 BR SKC 17/13 Q1017 NOSIG
ZGSZ,2003-12-25 13:00,ZGSZ 251300Z 00000MPS 4500 BR NSC 17/13 Q1017 NOSIG
ZGSZ,2003-12-25 14:00,ZGSZ 251400Z 00000MPS 3800 BR NSC 16/12 Q1017 NOSIG
ZGSZ,2003-12-25 15:00,ZGSZ 251500Z 00000MPS 4000 BR NSC 17/13 Q1017 NOSIG
ZGSZ,2003-12-25 16:00,ZGSZ 251600Z 00000MPS 6000 NSC 18/12 Q1017 NOSIG
ZGSZ,2003-12-25 17:00,ZGSZ 251700Z 00000MPS 5000 NSC 17/12 Q1017 NOSIG
ZGSZ,2003-12-25 18:00,ZGSZ 251800Z 00000MPS 2500 BR NSC 16/11 Q1017 NOSIG
ZGSZ,2003-12-25 19:00,ZGSZ 251900Z 00000MPS 2500 BR NSC 17/12 Q1018 NOSIG
ZGSZ,2003-12-25 20:00,ZGSZ 252000Z 00000MPS 2500 BR NSC 16/11 Q1018 NOSIG
ZGSZ,2003-12-25 21:00,ZGSZ 252100Z 05004MPS 3000 HZ SKC 16/10 Q1018 NOSIG
ZGSZ,2003-12-25 22:00,ZGSZ 252200Z 04002MPS 3800 HZ SKC 17/06 Q1019 NOSIG
ZGSZ,2003-12-25 23:00,ZGSZ 252300Z 01003MPS 3500 HZ NSC 17/05 Q1020 NOSIG
ZGSZ,2003-12-26 00:00,ZGSZ 260000Z 03005MPS 3500 HZ NSC 17/05 Q1021 NOSIG
ZGSZ,2003-12-26 01:00,ZGSZ 260100Z 02006MPS 3500 HZ NSC 17/05 Q1022 NOSIG
ZGSZ,2003-12-26 02:00,ZGSZ 260200Z 03008MPS 3500 HZ NSC 17/03 Q1022 NOSIG
ZGSZ,2003-12-26 03:00,ZGSZ 260300Z 01005MPS 3000 HZ SKC 19/03 Q1022 NOSIG
ZGSZ,2003-12-26 04:00,ZGSZ 260400Z 01005MPS 3000 HZ SKC 20/02 Q1021 NOSIG
ZGSZ,2003-12-26 05:00,ZGSZ 260500Z 36006MPS 4000 HZ SKC 20/02 Q1020 NOSIG
ZGSZ,2003-12-26 06:00,ZGSZ 260600Z 02005MPS 4000 HZ SKC 21/02 Q1019 NOSIG
ZGSZ,2003-12-26 07:00,ZGSZ 260700Z 01005MPS 4500 HZ SKC 21/01 Q1019 NOSIG
ZGSZ,2003-12-26 08:00,ZGSZ 260800Z 03005MPS 4500 HZ SKC 21/02 Q1019 NOSIG
ZGSZ,2003-12-26 09:00,ZGSZ 260900Z 05005MPS 7000 SKC 20/01 Q1020 NOSIG
ZGSZ,2003-12-26 10:00,ZGSZ 261000Z 04006MPS 6000 SKC 19/01 Q1021 NOSIG
ZGSZ,2003-12-26 11:00,ZGSZ 261100Z 05008MPS 6000 SKC 17/01 Q1022 NOSIG
ZGSZ,2003-12-26 12:00,ZGSZ 261200Z 05009MPS 5000 HZ SKC 17/M00 Q1023 NOSIG
ZGSZ,2003-12-26 13:00,ZGSZ 261300Z 03006MPS 4000 HZ SKC 16/00 Q1023 NOSIG
ZGSZ,2003-12-26 15:00,ZGSZ 261500Z 36004MPS 5000 HZ SKC 15/M01 Q1024 NOSIG
ZGSZ,2003-12-26 16:00,ZGSZ 261600Z 03006MPS 7000 SKC 15/M03 Q1023 NOSIG
ZGSZ,2003-12-26 17:00,ZGSZ 261700Z 02005MPS 7000 SKC 14/M04 Q1024 NOSIG
ZGSZ,2003-12-26 18:00,ZGSZ 261800Z 03003MPS CAVOK 13/M05 Q1024 NOSIG
ZGSZ,2003-12-26 19:00,ZGSZ 261900Z 04006MPS CAVOK 13/M05 Q1024 NOSIG
ZGSZ,2003-12-26 20:00,ZGSZ 262000Z 01006MPS CAVOK 12/M03 Q1024 NOSIG
ZGSZ,2003-12-26 21:00,ZGSZ 262100Z 12001MPS 7000 SKC 11/M03 Q1024 NOSIG
ZGSZ,2003-12-26 22:00,ZGSZ 262200Z 36003MPS 8000 SKC 11/M05 Q1025 NOSIG
ZGSZ,2003-12-26 23:00,ZGSZ 262300Z 02003MPS CAVOK 11/M07 Q1026 NOSIG
ZGSZ,2003-12-27 00:00,ZGSZ 270000Z 03003MPS CAVOK 11/M08 Q1027 NOSIG
ZGSZ,2003-12-27 01:00,ZGSZ 270100Z 05004MPS CAVOK 12/M10 Q1027 NOSIG
ZGSZ,2003-12-27 02:00,ZGSZ 270200Z 05003MPS CAVOK 13/M10 Q1028 NOSIG
ZGSZ,2003-12-27 03:00,ZGSZ 270300Z 05002MPS CAVOK 14/M10 Q1027 NOSIG
ZGSZ,2003-12-27 04:00,ZGSZ 270400Z 05003MPS CAVOK 15/M09 Q1026 NOSIG
ZGSZ,2003-12-27 05:00,ZGSZ 270500Z 05003MPS 9000 SKC 16/M08 Q1025 NOSIG
ZGSZ,2003-12-27 06:00,ZGSZ 270600Z 36002MPS 8000 SKC 17/M07 Q1024 NOSIG
ZGSZ,2003-12-27 07:00,ZGSZ 270700Z 00000MPS 8000 SKC 18/M07 Q1023 NOSIG
ZGSZ,2003-12-27 08:00,ZGSZ 270800Z 00000MPS 7000 SKC 18/M05 Q1023 NOSIG
ZGSZ,2003-12-27 09:00,ZGSZ 270900Z 05002MPS 5000 HZ SKC 17/M05 Q1024 NOSIG
ZGSZ,2003-12-27 10:00,ZGSZ 271000Z 03003MPS 3500 HZ SKC 15/M03 Q1024 NOSIG
ZGSZ,2003-12-27 11:00,ZGSZ 271100Z 11003MPS 5000 HZ SKC 15/M02 Q1025 NOSIG
ZGSZ,2003-12-27 12:00,ZGSZ 271200Z 10004MPS 5000 HZ SKC 15/01 Q1025 NOSIG
ZGSZ,2003-12-27 13:00,ZGSZ 271300Z 09002MPS 4500 HZ SKC 14/03 Q1026 NOSIG
ZGSZ,2003-12-27 14:00,ZGSZ 271400Z 10003MPS 4500 HZ SKC 14/05 Q1026 NOSIG
ZGSZ,2003-12-27 15:00,ZGSZ 271500Z 09003MPS 5000 HZ SKC 13/05 Q1026 NOSIG
ZGSZ,2003-12-27 16:00,ZGSZ 271600Z 09003MPS 5000 HZ SKC 13/05 Q1026 NOSIG
ZGSZ,2003-12-27 17:00,ZGSZ 271700Z 07002MPS 4500 HZ SKC 12/06 Q1025 NOSIG
ZGSZ,2003-12-27 18:00,ZGSZ 271800Z 06002MPS 4500 HZ SKC 11/06 Q1026 NOSIG
ZGSZ,2003-12-27 19:00,ZGSZ 271900Z 08003MPS 5000 BR SKC 10/05 Q1025 NOSIG
ZGSZ,2003-12-27 20:00,ZGSZ 272000Z 08001MPS 4200 BR SKC 10/05 Q1025 NOSIG
ZGSZ,2003-12-27 21:00,ZGSZ 272100Z 07002MPS 4500 HZ SKC 11/04 Q1025 NOSIG
ZGSZ,2003-12-27 22:00,ZGSZ 272200Z 09004MPS 6000 SKC 10/04 Q1026 NOSIG
ZGSZ,2003-12-27 23:00,ZGSZ 272300Z 05003MPS 6000 SKC 09/04 Q1027 NOSIG
ZGSZ,2003-12-28 00:00,ZGSZ 280000Z 01002MPS 5000 BR SKC 10/04 Q1027 NOSIG
ZGSZ,2003-12-28 01:00,ZGSZ 280100Z 09003MPS 4800 HZ SKC 12/04 Q1028 NOSIG
ZGSZ,2003-12-28 02:00,ZGSZ 280200Z 08004MPS 5000 SKC 14/03 Q1028 NOSIG
ZGSZ,2003-12-28 03:00,ZGSZ 280300Z 07004MPS 5000 SKC 16/04 Q1027 NOSIG
ZGSZ,2003-12-28 04:00,ZGSZ 280400Z 11003MPS 6000 SKC 18/03 Q1026 NOSIG
ZGSZ,2003-12-28 05:00,ZGSZ 280500Z 24002MPS 5000 SKC 19/05 Q1025 NOSIG
ZGSZ,2003-12-28 06:00,ZGSZ 280600Z 27004MPS 4500 HZ SKC 19/07 Q1024 NOSIG
ZGSZ,2003-12-28 07:00,ZGSZ 280700Z 29005MPS 4000 HZ SKC 19/07 Q1023 NOSIG
ZGSZ,2003-12-28 08:00,ZGSZ 280800Z 27003MPS 3800 HZ SKC 19/08 Q1023 NOSIG
ZGSZ,2003-12-28 09:00,ZGSZ 280900Z 33003MPS 4000 HZ SKC 18/08 Q1023 NOSIG
ZGSZ,2003-12-28 10:00,ZGSZ 281000Z 34002MPS 4500 HZ SKC 17/07 Q1023 NOSIG
ZGSZ,2003-12-28 11:00,ZGSZ 281100Z 00000MPS 4000 HZ SKC 16/07 Q1024 NOSIG
ZGSZ,2003-12-28 12:00,ZGSZ 281200Z 00000MPS 3000 HZ SKC 17/07 Q1024 NOSIG
ZGSZ,2003-12-28 13:00,ZGSZ 281300Z 00000MPS 2800 HZ SKC 15/07 Q1024 NOSIG
ZGSZ,2003-12-28 14:00,ZGSZ 281400Z 00000MPS 2600 HZ SKC 14/07 Q1024 NOSIG
ZGSZ,2003-12-28 15:00,ZGSZ 281500Z 00000MPS 2700 HZ SKC 13/07 Q1024 NOSIG
ZGSZ,2003-12-28 16:00,ZGSZ 281600Z 00000MPS 2600 BR SKC 12/07 Q1024 NOSIG
ZGSZ,2003-12-28 17:00,ZGSZ 281700Z MPS 2600 BR SKC 12/08 Q1024 NOSIG
ZGSZ,2003-12-28 18:00,ZGSZ 281800Z 00000MPS 2600 HZ SKC 14/08 Q1024 NOSIG
ZGSZ,2003-12-28 19:00,ZGSZ 281900Z 00000MPS 2500 BR SKC 12/08 Q1023 NOSIG
ZGSZ,2003-12-28 21:00,ZGSZ 282100Z AUTO 04006KT 2SM 14/12 RMK SLP246 T01440118 52002 IEM_DS3505
ZGSZ,2003-12-28 22:00,ZGSZ 282200Z 00000MPS 2800 BR SKC 13/09 Q1024 NOSIG
ZGSZ,2003-12-28 23:00,ZGSZ 282300Z 00000MPS 3000 BR SKC 12/09 Q1025 NOSIG
ZGSZ,2003-12-29 00:00,ZGSZ 290000Z 24002MPS 3500 BR NSC 13/10 Q1026 NOSIG
ZGSZ,2003-12-29 01:00,ZGSZ 290100Z 00000MPS 2500 BR NSC 15/10 Q1026 NOSIG
ZGSZ,2003-12-29 02:00,ZGSZ 290200Z 00000MPS 3300 HZ NSC 17/10 Q1026 NOSIG
ZGSZ,2003-12-29 03:00,ZGSZ 290300Z 03003MPS 3000 HZ SKC 19/09 Q1026 NOSIG
ZGSZ,2003-12-29 04:00,ZGSZ 290400Z 07002MPS 4000 HZ SKC 21/10 Q1024 NOSIG
ZGSZ,2003-12-29 05:00,ZGSZ 290500Z 00000MPS 5000 HZ SKC 23/10 Q1022 NOSIG
ZGSZ,2003-12-29 06:00,ZGSZ 290600Z 23004MPS 6000 SKC 23/10 Q1021 NOSIG
ZGSZ,2003-12-29 07:00,ZGSZ 290700Z 27004MPS 4500 HZ SKC 21/13 Q1021 NOSIG
ZGSZ,2003-12-29 08:00,ZGSZ 290800Z 28004MPS 5000 HZ SKC 21/12 Q1021 NOSIG
ZGSZ,2003-12-29 09:00,ZGSZ 290900Z 20004MPS 2000 HZ SKC 19/13 Q1021 NOSIG
ZGSZ,2003-12-29 10:00,ZGSZ 291000Z 18002MPS 3000 BR SKC 17/13 Q1022 NOSIG
ZGSZ,2003-12-29 11:00,ZGSZ 291100Z 00000MPS 3000 BR SKC 16/13 Q1022 NOSIG
ZGSZ,2003-12-29 12:00,ZGSZ 291200Z 00000MPS 4500 BR SKC 16/13 Q1023 NOSIG
ZGSZ,2003-12-29 13:00,ZGSZ 291300Z 00000MPS 3500 BR SKC 15/12 Q1023 NOSIG
ZGSZ,2003-12-29 14:00,ZGSZ 291400Z 00000MPS 3000 BR SKC 16/14 Q1023 NOSIG
ZGSZ,2003-12-29 15:00,ZGSZ 291500Z 00000MPS 2500 BR SKC 16/13 Q1023 NOSIG
ZGSZ,2003-12-29 16:00,ZGSZ 291600Z 00000MPS 1800 BR SKC 16/13 Q1022 NOSIG
ZGSZ,2003-12-29 17:00,ZGSZ 291700Z 00000MPS 1800 BR SKC 15/12 Q1022 NOSIG
ZGSZ,2003-12-29 18:00,ZGSZ 291800Z 00000MPS 1800 BR SKC 14/12 Q1022 NOSIG
ZGSZ,2003-12-29 19:00,ZGSZ 291900Z 00000MPS 1800 BR SKC 15/12 Q1022 NOSIG
ZGSZ,2003-12-29 20:00,ZGSZ 292000Z 00000MPS 2000 BR SKC 14/11 Q1021 NOSIG
ZGSZ,2003-12-29 21:00,ZGSZ 292100Z 00000MPS 2000 BR SKC 12/09 Q1021 NOSIG
ZGSZ,2003-12-29 22:00,ZGSZ 292200Z 00000MPS 2800 BR SKC 12/10 Q1021 NOSIG
ZGSZ,2003-12-29 23:00,ZGSZ 292300Z 00000MPS 1700 BR SKC 14/11 Q1022 NOSIG
ZGSZ,2003-12-30 00:00,ZGSZ 300000Z 00000MPS 1400 BR SKC 14/10 Q1022 NOSIG
ZGSZ,2003-12-30 01:00,ZGSZ 300100Z 00000MPS 1800 HZ SKC 17/11 Q1023 NOSIG
ZGSZ,2003-12-30 02:00,ZGSZ 300200Z 00000MPS 2800 HZ SKC 20/10 Q1023 NOSIG
ZGSZ,2003-12-30 03:00,ZGSZ 300300Z 29003MPS 2600 HZ SKC 20/11 Q1022 NOSIG
ZGSZ,2003-12-30 04:00,ZGSZ 300400Z 28004MPS 2300 HZ SKC 21/12 Q1021 NOSIG
ZGSZ,2003-12-30 05:00,ZGSZ 300500Z 30005MPS 2800 HZ SKC 21/11 Q1020 NOSIG
ZGSZ,2003-12-30 06:00,ZGSZ 300600Z 30005MPS 2600 HZ SKC 22/12 Q1019 NOSIG
ZGSZ,2003-12-30 07:00,ZGSZ 300700Z 30004MPS 3500 HZ SKC 22/12 Q1018 NOSIG
ZGSZ,2003-12-30 08:00,ZGSZ 300800Z 29003MPS 5000 HZ SKC 22/11 Q1018 NOSIG
ZGSZ,2003-12-30 09:00,ZGSZ 300900Z 29003MPS 5000 SKC 21/13 Q1019 NOSIG
ZGSZ,2003-12-30 10:00,ZGSZ 301000Z 00000MPS 6000 NSC 20/12 Q1019 NOSIG
ZGSZ,2003-12-30 11:00,ZGSZ 301100Z 20003MPS 5000 BR SKC 17/13 Q1020 NOSIG
ZGSZ,2003-12-30 12:00,ZGSZ 301200Z 00000MPS 4500 BR SKC 17/14 Q1021 NOSIG
ZGSZ,2003-12-30 13:00,ZGSZ 301300Z 00000MPS 4000 HZ SKC 19/11 Q1021 NOSIG
ZGSZ,2003-12-30 14:00,ZGSZ 301400Z 00000MPS 3500 BR SKC 17/12 Q1021 NOSIG
ZGSZ,2003-12-30 15:00,ZGSZ 301500Z 00000MPS 3000 BR SKC 16/13 Q1020 NOSIG
ZGSZ,2003-12-30 16:00,ZGSZ 301600Z 00000MPS 2500 BR SKC 15/13 Q1020 NOSIG
ZGSZ,2003-12-30 17:00,ZGSZ 301700Z 00000MPS 2500 BR SKC 15/12 Q1019 NOSIG
ZGSZ,2003-12-30 18:00,ZGSZ 301800Z 00000MPS 2500 BR SKC 15/12 Q1020 NOSIG
ZGSZ,2003-12-30 19:00,ZGSZ 301900Z 00000MPS 2000 BR SKC 16/13 Q1019 NOSIG
ZGSZ,2003-12-30 20:00,ZGSZ 302000Z 00000MPS 2000 BR SKC 15/13 Q1020 NOSIG
ZGSZ,2003-12-30 21:00,ZGSZ 302100Z 06002MPS 1800 BR SKC 15/11 Q1020 NOSIG
ZGSZ,2003-12-30 22:00,ZGSZ 302200Z 00000MPS 1800 BR SKC 14/11 Q1020 NOSIG
ZGSZ,2003-12-30 23:00,ZGSZ 302300Z 00000MPS 1400 BR NSC 14/12 Q1021 NOSIG
