station,valid,metar
ZGSZ,2025-01-01 00:00,ZGSZ 010000Z 04004MPS CAVOK 18/05 Q1019 NOSIG
ZGSZ,2025-01-01 01:00,ZGSZ 010100Z 04003MPS CAVOK 18/07 Q1020 NOSIG
ZGSZ,2025-01-01 02:00,ZGSZ 010200Z 05003MPS 020V080 8000 NSC 19/08 Q1020 NOSIG
ZGSZ,2025-01-01 03:00,ZGSZ 010300Z 04002MPS 340V070 8000 NSC 20/10 Q1020 NOSIG
ZGSZ,2025-01-01 04:00,ZGSZ 010400Z 04002MPS 320V090 9000 NSC 21/10 Q1019 NOSIG
ZGSZ,2025-01-01 05:00,ZGSZ 010500Z 29003MPS 260V020 9000 NSC 21/11 Q1018 NOSIG
ZGSZ,2025-01-01 06:00,ZGSZ 010600Z 20004MPS 9000 NSC 20/11 Q1016 NOSIG
ZGSZ,2025-01-01 07:00,ZGSZ 010700Z 22003MPS 9000 NSC 20/11 Q1016 NOSIG
ZGSZ,2025-01-01 08:00,ZGSZ 010800Z 18004MPS 8000 NSC 19/11 Q1016 NOSIG
ZGSZ,2025-01-01 09:00,ZGSZ 010900Z 18004MPS CAVOK 19/13 Q1016 NOSIG
ZGSZ,2025-01-01 10:00,ZGSZ 011000Z 18003MPS CAVOK 19/13 Q1017 NOSIG
ZGSZ,2025-01-01 11:00,ZGSZ 011100Z 17003MPS CAVOK 19/13 Q1017 NOSIG
ZGSZ,2025-01-01 12:00,ZGSZ 011200Z 10003MPS 050V140 CAVOK 19/11 Q1017 NOSIG
ZGSZ,2025-01-01 13:00,ZGSZ 011300Z 11002MPS CAVOK 19/11 Q1018 NOSIG
ZGSZ,2025-01-01 14:00,ZGSZ 011400Z 11003MPS 080V140 CAVOK 19/12 Q1018 NOSIG
ZGSZ,2025-01-01 15:00,ZGSZ 011500Z 10003MPS 060V130 CAVOK 18/12 Q1018 NOSIG
ZGSZ,2025-01-01 16:00,ZGSZ 011600Z 09002MPS 070V130 CAVOK 18/12 Q1018 NOSIG
ZGSZ,2025-01-01 17:00,ZGSZ 011700Z 09002MPS 9000 NSC 18/12 Q1018 NOSIG
ZGSZ,2025-01-01 18:00,ZGSZ 011800Z 07002MPS 030V160 8000 NSC 18/12 Q1018 NOSIG
ZGSZ,2025-01-01 19:00,ZGSZ 011900Z 03003MPS 8000 NSC 18/12 Q1018 NOSIG
ZGSZ,2025-01-01 20:00,ZGSZ 012000Z 05002MPS 030V180 8000 NSC 18/12 Q1018 NOSIG
ZGSZ,2025-01-01 21:00,ZGSZ 012100Z 02003MPS 360V120 8000 NSC 18/11 Q1018 NOSIG
ZGSZ,2025-01-01 22:00,ZGSZ 012200Z 04003G08MPS 020V090 8000 NSC 18/11 Q1018 NOSIG
ZGSZ,2025-01-01 23:00,ZGSZ 012300Z 03002MPS 8000 NSC 18/11 Q1018 NOSIG
ZGSZ,2025-01-02 00:00,ZGSZ 020000Z 04002MPS 020V090 7000 NSC 18/11 Q1019 NOSIG
ZGSZ,2025-01-02 01:00,ZGSZ 020100Z 03003MPS 010V070 8000 NSC 19/10 Q1020 NOSIG
ZGSZ,2025-01-02 02:00,ZGSZ 020200Z VRB01MPS 8000 NSC 20/10 Q1020 NOSIG
ZGSZ,2025-01-02 03:00,ZGSZ 020300Z 04003MPS 350V060 8000 NSC 21/08 Q1020 NOSIG
ZGSZ,2025-01-02 04:00,ZGSZ 020400Z 36004MPS CAVOK 23/06 Q1019 NOSIG
ZGSZ,2025-01-02 05:00,ZGSZ 020500Z 01005MPS 340V060 CAVOK 23/06 Q1017 BECMG AT0640 30005MPS
ZGSZ,2025-01-02 06:00,ZGSZ 020600Z 01005G11MPS 290V040 CAVOK 23/07 Q1017 BECMG AT0640 27005MPS
ZGSZ,2025-01-02 07:00,ZGSZ 020700Z 01004MPS 320V020 CAVOK 24/07 Q1016 BECMG AT0750 27005MPS
ZGSZ,2025-01-02 08:00,ZGSZ 020800Z 29005MPS 260V010 CAVOK 22/09 Q1016 NOSIG
ZGSZ,2025-01-02 09:00,ZGSZ 020900Z 28005MPS CAVOK 22/09 Q1017 BECMG AT1020 02005MPS
ZGSZ,2025-01-02 10:00,ZGSZ 021000Z 29002MPS CAVOK 21/11 Q1017 NOSIG
ZGSZ,2025-01-02 11:00,ZGSZ 021100Z 33002MPS 310V030 CAVOK 21/09 Q1018 NOSIG
ZGSZ,2025-01-02 12:00,ZGSZ 021200Z 35002MPS 9000 NSC 21/09 Q1018 NOSIG
ZGSZ,2025-01-02 13:00,ZGSZ 021300Z 34003MPS 320V040 CAVOK 22/08 Q1018 NOSIG
ZGSZ,2025-01-02 14:00,ZGSZ 021400Z 01003MPS CAVOK 21/08 Q1019 NOSIG
ZGSZ,2025-01-02 15:00,ZGSZ 021500Z 02003MPS CAVOK 21/07 Q1019 NOSIG
ZGSZ,2025-01-02 16:00,ZGSZ 021600Z 04005MPS CAVOK 21/06 Q1019 NOSIG
ZGSZ,2025-01-02 17:00,ZGSZ 021700Z 03005MPS CAVOK 19/05 Q1019 NOSIG
ZGSZ,2025-01-02 18:00,ZGSZ 021800Z 03005MPS CAVOK 19/04 Q1020 NOSIG
ZGSZ,2025-01-02 19:00,ZGSZ 021900Z 03006MPS CAVOK 18/04 Q1019 NOSIG
ZGSZ,2025-01-02 20:00,ZGSZ 022000Z 36005MPS CAVOK 17/04 Q1019 NOSIG
ZGSZ,2025-01-02 21:00,ZGSZ 022100Z 01005MPS CAVOK 17/02 Q1020 NOSIG
ZGSZ,2025-01-02 22:00,ZGSZ 022200Z 02003MPS CAVOK 16/02 Q1020 NOSIG
ZGSZ,2025-01-02 23:00,ZGSZ 022300Z 02004G10MPS 320V050 CAVOK 16/01 Q1021 NOSIG
ZGSZ,2025-01-03 00:00,ZGSZ 030000Z 02006MPS 340V040 CAVOK 17/M01 Q1022 NOSIG
ZGSZ,2025-01-03 01:00,ZGSZ 030100Z 01007MPS CAVOK 18/M02 Q1022 NOSIG
ZGSZ,2025-01-03 02:00,ZGSZ 030200Z 03007MPS CAVOK 19/M03 Q1022 NOSIG
ZGSZ,2025-01-03 03:00,ZGSZ 030300Z 02007MPS CAVOK 20/M04 Q1022 NOSIG
ZGSZ,2025-01-03 04:00,ZGSZ 030400Z 04007MPS CAVOK 21/M04 Q1021 NOSIG
ZGSZ,2025-01-03 05:00,ZGSZ 030500Z 02006MPS CAVOK 21/M02 Q1020 NOSIG
ZGSZ,2025-01-03 06:00,ZGSZ 030600Z 36005MPS CAVOK 22/M01 Q1018 NOSIG
ZGSZ,2025-01-03 07:00,ZGSZ 030700Z 02005MPS 330V040 CAVOK 22/M02 Q1018 NOSIG
ZGSZ,2025-01-03 08:00,ZGSZ 030800Z 36005MPS 320V040 CAVOK 22/M01 Q1018 NOSIG
ZGSZ,2025-01-03 09:00,ZGSZ 030900Z 02005MPS CAVOK 21/M01 Q1017 NOSIG
ZGSZ,2025-01-03 10:00,ZGSZ 031000Z 04004MPS CAVOK 20/M01 Q1018 NOSIG
ZGSZ,2025-01-03 11:00,ZGSZ 031100Z VRB01MPS CAVOK 20/01 Q1019 NOSIG
ZGSZ,2025-01-03 12:00,ZGSZ 031200Z 04001MPS CAVOK 19/02 Q1020 NOSIG
ZGSZ,2025-01-03 13:00,ZGSZ 031300Z 09002MPS CAVOK 18/02 Q1020 NOSIG
ZGSZ,2025-01-03 14:00,ZGSZ 031400Z 09002MPS CAVOK 17/03 Q1020 NOSIG
ZGSZ,2025-01-03 15:00,ZGSZ 031500Z 07002MPS CAVOK 18/02 Q1020 NOSIG
ZGSZ,2025-01-03 16:00,ZGSZ 031600Z 07003MPS CAVOK 17/02 Q1020 NOSIG
ZGSZ,2025-01-03 17:00,ZGSZ 031700Z 08002MPS 040V100 CAVOK 17/04 Q1020 NOSIG
ZGSZ,2025-01-03 18:00,ZGSZ 031800Z 11003G08MPS 080V180 CAVOK 16/10 Q1020 NOSIG
ZGSZ,2025-01-03 19:00,ZGSZ 031900Z VRB01MPS CAVOK 15/09 Q1020 NOSIG
ZGSZ,2025-01-03 20:00,ZGSZ 032000Z 05001MPS CAVOK 13/08 Q1020 NOSIG
ZGSZ,2025-01-03 21:00,ZGSZ 032100Z 05002MPS CAVOK 15/07 Q1020 NOSIG
ZGSZ,2025-01-03 22:00,ZGSZ 032200Z VRB02G09MPS CAVOK 15/02 Q1021 NOSIG
ZGSZ,2025-01-03 23:00,ZGSZ 032300Z 02001MPS CAVOK 14/02 Q1021 NOSIG
ZGSZ,2025-01-04 00:00,ZGSZ 040000Z VRB01MPS CAVOK 15/03 Q1022 NOSIG
ZGSZ,2025-01-04 01:00,ZGSZ 040100Z 05004MPS CAVOK 16/02 Q1022 NOSIG
ZGSZ,2025-01-04 02:00,ZGSZ 040200Z 06004MPS CAVOK 18/02 Q1022 NOSIG
ZGSZ,2025-01-04 03:00,ZGSZ 040300Z 05005MPS 010V080 CAVOK 19/02 Q1022 BECMG AT0450 32005MPS
ZGSZ,2025-01-04 04:00,ZGSZ 040400Z 08003MPS 040V110 CAVOK 20/02 Q1021 BECMG AT0520 30005MPS
ZGSZ,2025-01-04 05:00,ZGSZ 040500Z 05003MPS 020V090 CAVOK 21/02 Q1019 BECMG AT0550 30005MPS
ZGSZ,2025-01-04 06:00,ZGSZ 040600Z 24005MPS CAVOK 20/07 Q1018 BECMG AT0750 18005MPS
ZGSZ,2025-01-04 07:00,ZGSZ 040700Z 23003MPS CAVOK 21/06 Q1017 BECMG AT0750 17005MPS
ZGSZ,2025-01-04 08:00,ZGSZ 040800Z 17005MPS CAVOK 20/07 Q1017 NOSIG
ZGSZ,2025-01-04 09:00,ZGSZ 040900Z 19004MPS 9999 BKN050 19/07 Q1017 NOSIG
ZGSZ,2025-01-04 10:00,ZGSZ 041000Z 22003MPS 9999 BKN050 18/10 Q1018 NOSIG
ZGSZ,2025-01-04 11:00,ZGSZ 041100Z 21002MPS 9999 BKN050 18/11 Q1019 NOSIG
ZGSZ,2025-01-04 12:00,ZGSZ 041200Z 20002MPS 9999 BKN050 18/11 Q1020 NOSIG
ZGSZ,2025-01-04 13:00,ZGSZ 041300Z 17002MPS 9999 BKN050 18/12 Q1021 NOSIG
ZGSZ,2025-01-04 14:00,ZGSZ 041400Z 16003MPS 9999 BKN050 18/10 Q1021 NOSIG
ZGSZ,2025-01-04 15:00,ZGSZ 041500Z 18003MPS CAVOK 18/11 Q1022 NOSIG
ZGSZ,2025-01-04 16:00,ZGSZ 041600Z VRB01MPS 9999 BKN053 18/10 Q1022 NOSIG
ZGSZ,2025-01-04 17:00,ZGSZ 041700Z VRB01MPS 9999 BKN053 18/11 Q1022 NOSIG
ZGSZ,2025-01-04 18:00,ZGSZ 041800Z 21002MPS 9999 BKN053 18/11 Q1022 NOSIG
ZGSZ,2025-01-04 19:00,ZGSZ 041900Z 22001MPS 9999 BKN053 18/11 Q1021 NOSIG
ZGSZ,2025-01-04 20:00,ZGSZ 042000Z 03002MPS 340V080 9999 BKN053 18/10 Q1020 NOSIG
ZGSZ,2025-01-04 21:00,ZGSZ 042100Z 26002MPS CAVOK 18/12 Q1020 NOSIG
ZGSZ,2025-01-04 22:00,ZGSZ 042200Z 36003MPS CAVOK 17/12 Q1019 NOSIG
ZGSZ,2025-01-04 23:00,ZGSZ 042300Z 32003MPS 8000 NSC 17/10 Q1020 NOSIG
ZGSZ,2025-01-05 00:00,ZGSZ 050000Z 35003MPS 8000 NSC 17/09 Q1020 NOSIG
ZGSZ,2025-01-05 01:00,ZGSZ 050100Z 01004MPS 9000 NSC 19/06 Q1021 NOSIG
ZGSZ,2025-01-05 02:00,ZGSZ 050200Z 33005MPS CAVOK 19/06 Q1022 NOSIG
ZGSZ,2025-01-05 03:00,ZGSZ 050300Z 04005MPS CAVOK 21/05 Q1021 NOSIG
ZGSZ,2025-01-05 04:00,ZGSZ 050400Z 36004MPS 320V030 CAVOK 22/05 Q1020 NOSIG
ZGSZ,2025-01-05 05:00,ZGSZ 050500Z 01004MPS 340V060 CAVOK 23/03 Q1019 NOSIG
ZGSZ,2025-01-05 06:00,ZGSZ 050600Z 32003MPS 280V050 CAVOK 22/08 Q1017 NOSIG
ZGSZ,2025-01-05 07:00,ZGSZ 050700Z 27004MPS 240V300 CAVOK 22/06 Q1016 NOSIG
ZGSZ,2025-01-05 08:00,ZGSZ 050800Z 29004MPS CAVOK 22/06 Q1016 NOSIG
ZGSZ,2025-01-05 09:00,ZGSZ 050900Z 31004MPS CAVOK 21/08 Q1017 NOSIG
ZGSZ,2025-01-05 10:00,ZGSZ 051000Z 32004MPS CAVOK 20/07 Q1017 NOSIG
ZGSZ,2025-01-05 11:00,ZGSZ 051100Z 35003MPS CAVOK 19/05 Q1018 NOSIG
ZGSZ,2025-01-05 12:00,ZGSZ 051200Z 32003MPS CAVOK 18/07 Q1018 NOSIG
ZGSZ,2025-01-05 13:00,ZGSZ 051300Z 34003MPS CAVOK 18/05 Q1019 NOSIG
ZGSZ,2025-01-05 14:00,ZGSZ 051400Z 35002MPS CAVOK 16/06 Q1019 NOSIG
ZGSZ,2025-01-05 15:00,ZGSZ 051500Z VRB01MPS CAVOK 17/06 Q1019 NOSIG
ZGSZ,2025-01-05 16:00,ZGSZ 051600Z VRB01MPS CAVOK 17/06 Q1020 NOSIG
ZGSZ,2025-01-05 17:00,ZGSZ 051700Z 04002MPS CAVOK 17/05 Q1019 NOSIG
ZGSZ,2025-01-05 18:00,ZGSZ 051800Z 03005MPS CAVOK 17/03 Q1019 NOSIG
ZGSZ,2025-01-05 19:00,ZGSZ 051900Z 03004MPS 360V060 CAVOK 17/03 Q1019 NOSIG
ZGSZ,2025-01-05 20:00,ZGSZ 052000Z 04004MPS CAVOK 16/03 Q1018 NOSIG
ZGSZ,2025-01-05 21:00,ZGSZ 052100Z 04004MPS 010V110 CAVOK 16/04 Q1019 NOSIG
ZGSZ,2025-01-05 22:00,ZGSZ 052200Z 03003MPS CAVOK 15/04 Q1019 NOSIG
ZGSZ,2025-01-05 23:00,ZGSZ 052300Z 03004MPS CAVOK 15/03 Q1019 NOSIG
ZGSZ,2025-01-06 00:00,ZGSZ 060000Z 03004MPS 9000 NSC 15/03 Q1021 NOSIG
ZGSZ,2025-01-06 01:00,ZGSZ 060100Z 03005MPS 8000 NSC 16/03 Q1021 NOSIG
ZGSZ,2025-01-06 02:00,ZGSZ 060200Z 04004MPS 8000 NSC 18/03 Q1021 NOSIG
ZGSZ,2025-01-06 03:00,ZGSZ 060300Z 04004MPS 010V070 9000 NSC 19/03 Q1020 NOSIG
ZGSZ,2025-01-06 04:00,ZGSZ 060400Z 02004MPS 300V060 CAVOK 21/03 Q1019 BECMG AT0530 29005MPS
ZGSZ,2025-01-06 05:00,ZGSZ 060500Z 35004MPS 320V030 CAVOK 22/03 Q1018 BECMG AT0620 28005MPS
ZGSZ,2025-01-06 06:00,ZGSZ 060600Z 02005MPS 320V060 CAVOK 22/04 Q1017 BECMG AT0730 29005MPS
ZGSZ,2025-01-06 07:00,ZGSZ 060700Z VRB03MPS 8000 NSC 21/08 Q1016 NOSIG
ZGSZ,2025-01-06 08:00,ZGSZ 060800Z 30005MPS 8000 NSC 21/08 Q1016 NOSIG
ZGSZ,2025-01-06 09:00,ZGSZ 060900Z 30005MPS 8000 NSC 20/08 Q1017 BECMG AT1050 04005MPS
ZGSZ,2025-01-06 10:00,ZGSZ 061000Z 31005MPS 8000 NSC 19/07 Q1017 BECMG AT1130 10005MPS
ZGSZ,2025-01-06 11:00,ZGSZ 061100Z 24002MPS 8000 NSC 18/08 Q1018 NOSIG
ZGSZ,2025-01-06 12:00,ZGSZ 061200Z 16003MPS 8000 NSC 18/12 Q1019 NOSIG
ZGSZ,2025-01-06 13:00,ZGSZ 061300Z 17001MPS 7000 NSC 17/12 Q1019 NOSIG
ZGSZ,2025-01-06 14:00,ZGSZ 061400Z 20001MPS 7000 NSC 16/12 Q1020 NOSIG
ZGSZ,2025-01-06 15:00,ZGSZ 061500Z 14002MPS 7000 NSC 16/10 Q1019 NOSIG
ZGSZ,2025-01-06 16:00,ZGSZ 061600Z 10003MPS 070V130 8000 NSC 17/08 Q1019 NOSIG
ZGSZ,2025-01-06 17:00,ZGSZ 061700Z 10003MPS 080V150 8000 NSC 16/08 Q1019 NOSIG
ZGSZ,2025-01-06 18:00,ZGSZ 061800Z 12002MPS 080V160 CAVOK 16/09 Q1019 NOSIG
ZGSZ,2025-01-06 19:00,ZGSZ 061900Z VRB01MPS 9000 NSC 16/09 Q1019 NOSIG
ZGSZ,2025-01-06 20:00,ZGSZ 062000Z 09002MPS 050V130 8000 NSC 16/09 Q1019 NOSIG
ZGSZ,2025-01-06 21:00,ZGSZ 062100Z 09002MPS 060V150 8000 NSC 15/09 Q1019 NOSIG
ZGSZ,2025-01-06 22:00,ZGSZ 062200Z 10003MPS 060V140 8000 NSC 15/10 Q1020 NOSIG
ZGSZ,2025-01-06 23:00,ZGSZ 062300Z 04001MPS 6000 NSC 14/10 Q1020 NOSIG
ZGSZ,2025-01-07 00:00,ZGSZ 070000Z 01002MPS 6000 NSC 14/11 Q1021 NOSIG
ZGSZ,2025-01-07 01:00,ZGSZ 070100Z 03003MPS 6000 NSC 16/11 Q1022 NOSIG
ZGSZ,2025-01-07 02:00,ZGSZ 070200Z 36004MPS 8000 NSC 18/10 Q1022 NOSIG
ZGSZ,2025-01-07 03:00,ZGSZ 070300Z 03005MPS 360V060 8000 NSC 19/09 Q1021 BECMG AT0430 32005MPS
ZGSZ,2025-01-07 04:00,ZGSZ 070400Z 01003MPS 300V040 8000 NSC 21/09 Q1020 BECMG AT0430 30005MPS
ZGSZ,2025-01-07 05:00,ZGSZ 070500Z VRB03MPS 8000 NSC 21/10 Q1019 BECMG AT0530 24005MPS
ZGSZ,2025-01-07 06:00,ZGSZ 070600Z 24005MPS 220V280 7000 NSC 20/10 Q1018 NOSIG
ZGSZ,2025-01-07 07:00,ZGSZ 070700Z 22004MPS 7000 NSC 20/11 Q1017 NOSIG
ZGSZ,2025-01-07 08:00,ZGSZ 070800Z 18004MPS 7000 NSC 20/11 Q1017 NOSIG
ZGSZ,2025-01-07 09:00,ZGSZ 070900Z 18005MPS 8000 NSC 19/12 Q1017 NOSIG
ZGSZ,2025-01-07 10:00,ZGSZ 071000Z 18005MPS CAVOK 18/11 Q1018 BECMG AT1150 11005MPS
ZGSZ,2025-01-07 11:00,ZGSZ 071100Z 17005MPS CAVOK 18/11 Q1018 BECMG AT1240 10005MPS
ZGSZ,2025-01-07 12:00,ZGSZ 071200Z 17005MPS CAVOK 18/12 Q1019 BECMG AT1240 10005MPS
ZGSZ,2025-01-07 13:00,ZGSZ 071300Z 11003MPS CAVOK 18/09 Q1019 NOSIG
ZGSZ,2025-01-07 14:00,ZGSZ 071400Z 10002MPS 080V140 CAVOK 18/09 Q1019 NOSIG
ZGSZ,2025-01-07 15:00,ZGSZ 071500Z 10003MPS 070V140 CAVOK 17/10 Q1019 NOSIG
ZGSZ,2025-01-07 16:00,ZGSZ 071600Z 09002MPS 060V120 CAVOK 17/10 Q1019 NOSIG
ZGSZ,2025-01-07 17:00,ZGSZ 071700Z VRB01MPS CAVOK 17/10 Q1019 NOSIG
ZGSZ,2025-01-07 18:00,ZGSZ 071800Z 06002MPS 020V140 CAVOK 17/10 Q1019 NOSIG
ZGSZ,2025-01-07 19:00,ZGSZ 071900Z 04002MPS CAVOK 17/10 Q1019 NOSIG
ZGSZ,2025-01-07 20:00,ZGSZ 072000Z 05003MPS CAVOK 17/11 Q1019 NOSIG
ZGSZ,2025-01-07 21:00,ZGSZ 072100Z 04003MPS CAVOK 16/10 Q1019 NOSIG
ZGSZ,2025-01-07 22:00,ZGSZ 072200Z 04003MPS CAVOK 17/10 Q1019 NOSIG
ZGSZ,2025-01-07 23:00,ZGSZ 072300Z 06003MPS CAVOK 16/10 Q1020 NOSIG
ZGSZ,2025-01-08 00:00,ZGSZ 080000Z 05002MPS CAVOK 17/10 Q1020 NOSIG
ZGSZ,2025-01-08 01:00,ZGSZ 080100Z 05002MPS CAVOK 17/09 Q1021 NOSIG
ZGSZ,2025-01-08 02:00,ZGSZ 080200Z VRB02MPS CAVOK 18/08 Q1021 NOSIG
ZGSZ,2025-01-08 03:00,ZGSZ 080300Z VRB02MPS CAVOK 20/08 Q1021 NOSIG
ZGSZ,2025-01-08 04:00,ZGSZ 080400Z 26004MPS 8000 NSC 20/10 Q1020 NOSIG
ZGSZ,2025-01-08 05:00,ZGSZ 080500Z 27004MPS 7000 NSC 20/09 Q1019 NOSIG
ZGSZ,2025-01-08 06:00,ZGSZ 080600Z 27004MPS 7000 NSC 21/10 Q1018 NOSIG
ZGSZ,2025-01-08 07:00,ZGSZ 080700Z 21003MPS 6000 NSC 21/11 Q1017 NOSIG
ZGSZ,2025-01-08 08:00,ZGSZ 080800Z 20003MPS 6000 NSC 21/12 Q1017 NOSIG
ZGSZ,2025-01-08 09:00,ZGSZ 080900Z 18004MPS 6000 NSC 20/11 Q1018 NOSIG
ZGSZ,2025-01-08 10:00,ZGSZ 081000Z 17004MPS 7000 NSC 18/12 Q1018 NOSIG
ZGSZ,2025-01-08 11:00,ZGSZ 081100Z 18003MPS CAVOK 18/13 Q1019 NOSIG
ZGSZ,2025-01-08 12:00,ZGSZ 081200Z 21002MPS CAVOK 18/13 Q1019 NOSIG
ZGSZ,2025-01-08 13:00,ZGSZ 081300Z 18003MPS CAVOK 18/13 Q1020 NOSIG
ZGSZ,2025-01-08 14:00,ZGSZ 081400Z 20002MPS CAVOK 17/13 Q1021 NOSIG
ZGSZ,2025-01-08 15:00,ZGSZ 081500Z 00000MPS CAVOK 17/15 Q1021 NOSIG
ZGSZ,2025-01-08 16:00,ZGSZ 081600Z 00000MPS CAVOK 17/14 Q1021 NOSIG
ZGSZ,2025-01-08 17:00,ZGSZ 081700Z VRB01MPS CAVOK 17/14 Q1021 NOSIG
ZGSZ,2025-01-08 18:00,ZGSZ 081800Z 33001MPS 7000 NSC 16/14 Q1021 NOSIG
ZGSZ,2025-01-08 19:00,ZGSZ 081900Z 04003MPS 7000 NSC 17/09 Q1021 NOSIG
ZGSZ,2025-01-08 20:00,ZGSZ 082000Z 03003MPS 7000 NSC 16/08 Q1020 NOSIG
ZGSZ,2025-01-08 21:00,ZGSZ 082100Z 04004MPS 8000 NSC 16/06 Q1020 NOSIG
ZGSZ,2025-01-08 22:00,ZGSZ 082200Z 05004MPS CAVOK 16/05 Q1021 NOSIG
ZGSZ,2025-01-08 23:00,ZGSZ 082300Z 04004MPS CAVOK 15/05 Q1021 NOSIG
ZGSZ,2025-01-09 00:00,ZGSZ 090000Z 03005MPS CAVOK 16/06 Q1022 NOSIG
ZGSZ,2025-01-09 01:00,ZGSZ 090100Z 03005MPS CAVOK 17/06 Q1022 NOSIG
ZGSZ,2025-01-09 02:00,ZGSZ 090200Z 02004MPS CAVOK 19/05 Q1023 NOSIG
ZGSZ,2025-01-09 03:00,ZGSZ 090300Z 01004MPS 340V070 CAVOK 20/05 Q1023 NOSIG
ZGSZ,2025-01-09 04:00,ZGSZ 090400Z 34005MPS CAVOK 20/05 Q1022 NOSIG
ZGSZ,2025-01-09 05:00,ZGSZ 090500Z 36005MPS 330V030 CAVOK 21/04 Q1021 NOSIG
ZGSZ,2025-01-09 06:00,ZGSZ 090600Z 36007MPS 330V030 CAVOK 22/04 Q1020 NOSIG
ZGSZ,2025-01-09 07:00,ZGSZ 090700Z 02006MPS CAVOK 21/04 Q1020 NOSIG
ZGSZ,2025-01-09 08:00,ZGSZ 090800Z 36005MPS CAVOK 22/04 Q1020 NOSIG
ZGSZ,2025-01-09 09:00,ZGSZ 090900Z 01005MPS CAVOK 21/04 Q1021 NOSIG
ZGSZ,2025-01-09 10:00,ZGSZ 091000Z 02005MPS CAVOK 20/03 Q1021 NOSIG
ZGSZ,2025-01-09 11:00,ZGSZ 091100Z 02005MPS CAVOK 19/04 Q1023 NOSIG
ZGSZ,2025-01-09 12:00,ZGSZ 091200Z 03004MPS CAVOK 19/04 Q1023 NOSIG
ZGSZ,2025-01-09 13:00,ZGSZ 091300Z 02006MPS CAVOK 18/03 Q1025 NOSIG
ZGSZ,2025-01-09 14:00,ZGSZ 091400Z 03005MPS CAVOK 18/03 Q1025 NOSIG
ZGSZ,2025-01-09 15:00,ZGSZ 091500Z 01005MPS CAVOK 17/03 Q1026 NOSIG
ZGSZ,2025-01-09 16:00,ZGSZ 091600Z 02006MPS CAVOK 16/02 Q1027 NOSIG
ZGSZ,2025-01-09 17:00,ZGSZ 091700Z 01008MPS CAVOK 15/01 Q1027 NOSIG
ZGSZ,2025-01-09 18:00,ZGSZ 091800Z 01006MPS CAVOK 14/01 Q1027 NOSIG
ZGSZ,2025-01-09 19:00,ZGSZ 091900Z 02005MPS CAVOK 14/00 Q1027 NOSIG
ZGSZ,2025-01-09 20:00,ZGSZ 092000Z 02005MPS CAVOK 13/M00 Q1027 NOSIG
ZGSZ,2025-01-09 21:00,ZGSZ 092100Z 01007MPS CAVOK 12/M00 Q1028 NOSIG
ZGSZ,2025-01-09 22:00,ZGSZ 092200Z 01006MPS CAVOK 12/M01 Q1028 NOSIG
ZGSZ,2025-01-09 23:00,ZGSZ 092300Z 01007MPS CAVOK 11/M02 Q1029 NOSIG
ZGSZ,2025-01-10 00:00,ZGSZ 100000Z 36007MPS CAVOK 12/M02 Q1030 NOSIG
ZGSZ,2025-01-10 01:00,ZGSZ 100100Z 01007MPS CAVOK 12/M02 Q1030 NOSIG
ZGSZ,2025-01-10 02:00,ZGSZ 100200Z 01006MPS CAVOK 14/M01 Q1030 NOSIG
ZGSZ,2025-01-10 03:00,ZGSZ 100300Z 36006MPS 340V040 CAVOK 14/M00 Q1030 NOSIG
ZGSZ,2025-01-10 04:00,ZGSZ 100400Z 02006MPS 340V060 CAVOK 16/M00 Q1029 NOSIG
ZGSZ,2025-01-10 05:00,ZGSZ 100500Z 02007MPS CAVOK 17/M00 Q1028 NOSIG
ZGSZ,2025-01-10 06:00,ZGSZ 100600Z 02006MPS 350V070 CAVOK 17/M00 Q1027 NOSIG
ZGSZ,2025-01-10 07:00,ZGSZ 100700Z 02005MPS 320V050 CAVOK 18/00 Q1026 NOSIG
ZGSZ,2025-01-10 08:00,ZGSZ 100800Z 02005MPS 360V060 CAVOK 17/00 Q1026 NOSIG
ZGSZ,2025-01-10 09:00,ZGSZ 100900Z 03005MPS 360V070 CAVOK 17/M00 Q1026 NOSIG
ZGSZ,2025-01-10 10:00,ZGSZ 101000Z 04005MPS CAVOK 16/M00 Q1027 NOSIG
ZGSZ,2025-01-10 11:00,ZGSZ 101100Z 07003MPS CAVOK 15/00 Q1028 NOSIG
ZGSZ,2025-01-10 12:00,ZGSZ 101200Z 06004MPS CAVOK 15/M00 Q1028 NOSIG
ZGSZ,2025-01-10 13:00,ZGSZ 101300Z 03003MPS CAVOK 15/M01 Q1029 NOSIG
ZGSZ,2025-01-10 14:00,ZGSZ 101400Z 03005MPS CAVOK 14/M02 Q1029 NOSIG
ZGSZ,2025-01-10 15:00,ZGSZ 101500Z 04006MPS CAVOK 14/M02 Q1029 NOSIG
ZGSZ,2025-01-10 16:00,ZGSZ 101600Z 03006MPS CAVOK 13/M03 Q1030 NOSIG
ZGSZ,2025-01-10 17:00,ZGSZ 101700Z 04006MPS CAVOK 13/M03 Q1030 NOSIG
ZGSZ,2025-01-10 18:00,ZGSZ 101800Z 03006MPS CAVOK 12/M03 Q1029 NOSIG
ZGSZ,2025-01-10 19:00,ZGSZ 101900Z 03005MPS CAVOK 11/M03 Q1029 NOSIG
ZGSZ,2025-01-10 20:00,ZGSZ 102000Z 03006MPS 9999 FEW043 11/M03 Q1029 NOSIG
ZGSZ,2025-01-10 21:00,ZGSZ 102100Z 01006MPS 9999 FEW043 11/M04 Q1029 NOSIG
ZGSZ,2025-01-10 22:00,ZGSZ 102200Z 02007MPS 9999 FEW043 10/M05 Q1030 NOSIG
ZGSZ,2025-01-10 23:00,ZGSZ 102300Z 01006MPS CAVOK 10/M05 Q1030 NOSIG
ZGSZ,2025-01-11 00:00,ZGSZ 110000Z 02005MPS CAVOK 10/M05 Q1031 NOSIG
ZGSZ,2025-01-11 01:00,ZGSZ 110100Z 01006MPS CAVOK 12/M05 Q1032 NOSIG
ZGSZ,2025-01-11 02:00,ZGSZ 110200Z 02005G10MPS 320V040 CAVOK 13/M04 Q1033 NOSIG
ZGSZ,2025-01-11 03:00,ZGSZ 110300Z 02006MPS CAVOK 14/M04 Q1032 NOSIG
ZGSZ,2025-01-11 04:00,ZGSZ 110400Z 02006MPS CAVOK 15/M05 Q1031 NOSIG
ZGSZ,2025-01-11 05:00,ZGSZ 110500Z 02006MPS 350V050 CAVOK 15/M04 Q1030 NOSIG
ZGSZ,2025-01-11 06:00,ZGSZ 110600Z 36004G09MPS 310V050 CAVOK 16/M03 Q1029 NOSIG
ZGSZ,2025-01-11 07:00,ZGSZ 110700Z 01005MPS 330V040 CAVOK 17/M03 Q1028 NOSIG
ZGSZ,2025-01-11 08:00,ZGSZ 110800Z 01007MPS CAVOK 17/M03 Q1027 NOSIG
ZGSZ,2025-01-11 09:00,ZGSZ 110900Z 36007MPS CAVOK 16/M03 Q1028 NOSIG
ZGSZ,2025-01-11 10:00,ZGSZ 111000Z 35007MPS CAVOK 15/M05 Q1028 NOSIG
ZGSZ,2025-01-11 11:00,ZGSZ 111100Z 34006MPS CAVOK 14/M08 Q1028 NOSIG
ZGSZ,2025-01-11 12:00,ZGSZ 111200Z 35005MPS CAVOK 13/M08 Q1029 NOSIG
ZGSZ,2025-01-11 13:00,ZGSZ 111300Z 36005MPS CAVOK 13/M09 Q1029 NOSIG
ZGSZ,2025-01-11 14:00,ZGSZ 111400Z 02004MPS CAVOK 13/M09 Q1029 NOSIG
ZGSZ,2025-01-11 15:00,ZGSZ 111500Z 02005MPS 350V050 CAVOK 13/M11 Q1029 NOSIG
ZGSZ,2025-01-11 16:00,ZGSZ 111600Z 03004MPS CAVOK 13/M12 Q1029 NOSIG
ZGSZ,2025-01-11 17:00,ZGSZ 111700Z 02002MPS CAVOK 11/M10 Q1029 NOSIG
ZGSZ,2025-01-11 18:00,ZGSZ 111800Z 01002MPS CAVOK 10/M09 Q1028 NOSIG
ZGSZ,2025-01-11 19:00,ZGSZ 111900Z 01004MPS CAVOK 10/M08 Q1028 NOSIG
ZGSZ,2025-01-11 20:00,ZGSZ 112000Z 04005MPS CAVOK 11/M09 Q1028 NOSIG
ZGSZ,2025-01-11 21:00,ZGSZ 112100Z 03003MPS CAVOK 10/M08 Q1028 NOSIG
ZGSZ,2025-01-11 22:00,ZGSZ 112200Z 05003MPS CAVOK 10/M08 Q1028 NOSIG
ZGSZ,2025-01-11 23:00,ZGSZ 112300Z 04002MPS 360V140 CAVOK 10/M07 Q1028 NOSIG
ZGSZ,2025-01-12 00:00,ZGSZ 120000Z 03002MPS 350V130 CAVOK 11/M07 Q1028 NOSIG
ZGSZ,2025-01-12 01:00,ZGSZ 120100Z 04004MPS CAVOK 12/M09 Q1029 NOSIG
ZGSZ,2025-01-12 02:00,ZGSZ 120200Z 03004MPS 360V070 CAVOK 14/M09 Q1029 NOSIG
ZGSZ,2025-01-12 03:00,ZGSZ 120300Z 03006MPS CAVOK 15/M10 Q1028 NOSIG
ZGSZ,2025-01-12 04:00,ZGSZ 120400Z 01006MPS CAVOK 18/M09 Q1027 NOSIG
ZGSZ,2025-01-12 05:00,ZGSZ 120500Z 02005MPS 350V050 CAVOK 18/M09 Q1026 BECMG AT0620 32005MPS
ZGSZ,2025-01-12 06:00,ZGSZ 120600Z 02004MPS 340V070 CAVOK 20/M11 Q1024 NOSIG
ZGSZ,2025-01-12 07:00,ZGSZ 120700Z 03005MPS 350V080 CAVOK 21/M11 Q1023 NOSIG
ZGSZ,2025-01-12 08:00,ZGSZ 120800Z 01005MPS CAVOK 20/M10 Q1023 NOSIG
ZGSZ,2025-01-12 09:00,ZGSZ 120900Z 02004MPS CAVOK 19/M08 Q1023 NOSIG
ZGSZ,2025-01-12 10:00,ZGSZ 121000Z 01004MPS CAVOK 17/M07 Q1023 NOSIG
ZGSZ,2025-01-12 11:00,ZGSZ 121100Z 36002MPS CAVOK 16/M05 Q1023 NOSIG
ZGSZ,2025-01-12 12:00,ZGSZ 121200Z 09001MPS CAVOK 15/M05 Q1024 NOSIG
ZGSZ,2025-01-12 13:00,ZGSZ 121300Z 14002MPS 100V170 CAVOK 14/M05 Q1024 NOSIG
ZGSZ,2025-01-12 14:00,ZGSZ 121400Z VRB01MPS CAVOK 13/M01 Q1025 NOSIG
ZGSZ,2025-01-12 15:00,ZGSZ 121500Z 10002MPS 060V120 CAVOK 14/M03 Q1025 NOSIG
ZGSZ,2025-01-12 16:00,ZGSZ 121600Z 11002MPS 080V140 CAVOK 14/M04 Q1025 NOSIG
ZGSZ,2025-01-12 17:00,ZGSZ 121700Z VRB01MPS CAVOK 13/M03 Q1025 NOSIG
ZGSZ,2025-01-12 18:00,ZGSZ 121800Z 04002MPS 360V070 CAVOK 13/M01 Q1024 NOSIG
ZGSZ,2025-01-12 19:00,ZGSZ 121900Z 05002MPS CAVOK 12/M02 Q1024 NOSIG
ZGSZ,2025-01-12 20:00,ZGSZ 122000Z 06002MPS CAVOK 11/01 Q1024 NOSIG
ZGSZ,2025-01-12 21:00,ZGSZ 122100Z 03003MPS CAVOK 11/02 Q1023 NOSIG
ZGSZ,2025-01-12 22:00,ZGSZ 122200Z 02003MPS CAVOK 10/01 Q1023 NOSIG
ZGSZ,2025-01-12 23:00,ZGSZ 122300Z 03003MPS CAVOK 12/01 Q1024 NOSIG
ZGSZ,2025-01-13 00:00,ZGSZ 130000Z 04003MPS 360V090 CAVOK 12/00 Q1024 NOSIG
ZGSZ,2025-01-13 01:00,ZGSZ 130100Z 02003MPS CAVOK 14/M01 Q1025 NOSIG
ZGSZ,2025-01-13 02:00,ZGSZ 130200Z 03003MPS 360V060 CAVOK 16/M00 Q1025 NOSIG
ZGSZ,2025-01-13 03:00,ZGSZ 130300Z 04003MPS 340V140 CAVOK 18/M00 Q1025 NOSIG
ZGSZ,2025-01-13 04:00,ZGSZ 130400Z 24004MPS CAVOK 18/03 Q1024 NOSIG
ZGSZ,2025-01-13 05:00,ZGSZ 130500Z 26004MPS CAVOK 18/02 Q1022 NOSIG
ZGSZ,2025-01-13 06:00,ZGSZ 130600Z 27004MPS CAVOK 19/02 Q1022 NOSIG
ZGSZ,2025-01-13 07:00,ZGSZ 130700Z 24003MPS 210V270 CAVOK 20/03 Q1021 NOSIG
ZGSZ,2025-01-13 08:00,ZGSZ 130800Z 21002MPS CAVOK 20/05 Q1020 NOSIG
ZGSZ,2025-01-13 09:00,ZGSZ 130900Z 19003MPS 9999 FEW050 19/04 Q1020 NOSIG
ZGSZ,2025-01-13 10:00,ZGSZ 131000Z 18003MPS 9999 BKN050 18/07 Q1020 NOSIG
ZGSZ,2025-01-13 11:00,ZGSZ 131100Z 18003MPS CAVOK 17/07 Q1021 NOSIG
ZGSZ,2025-01-13 12:00,ZGSZ 131200Z 16003MPS CAVOK 15/07 Q1021 NOSIG
ZGSZ,2025-01-13 13:00,ZGSZ 131300Z 19001MPS CAVOK 16/08 Q1022 NOSIG
ZGSZ,2025-01-13 14:00,ZGSZ 131400Z 11002MPS 070V140 CAVOK 17/07 Q1022 NOSIG
ZGSZ,2025-01-13 15:00,ZGSZ 131500Z 11004MPS 080V140 9999 FEW049 16/07 Q1022 NOSIG
ZGSZ,2025-01-13 16:00,ZGSZ 131600Z 07002MPS 040V110 CAVOK 16/08 Q1022 NOSIG
ZGSZ,2025-01-13 17:00,ZGSZ 131700Z VRB02MPS CAVOK 16/08 Q1022 NOSIG
ZGSZ,2025-01-13 18:00,ZGSZ 131800Z 05002MPS CAVOK 16/08 Q1021 NOSIG
ZGSZ,2025-01-13 19:00,ZGSZ 131900Z 04003MPS CAVOK 16/08 Q1021 NOSIG
ZGSZ,2025-01-13 20:00,ZGSZ 132000Z 05004MPS CAVOK 16/07 Q1021 NOSIG
ZGSZ,2025-01-13 21:00,ZGSZ 132100Z 05004MPS CAVOK 16/07 Q1021 NOSIG
ZGSZ,2025-01-13 22:00,ZGSZ 132200Z 08002MPS CAVOK 17/05 Q1022 NOSIG
ZGSZ,2025-01-13 23:00,ZGSZ 132300Z 13002MPS 060V230 CAVOK 17/04 Q1021 NOSIG
ZGSZ,2025-01-14 00:00,ZGSZ 140000Z 08002MPS CAVOK 17/04 Q1022 NOSIG
ZGSZ,2025-01-14 01:00,ZGSZ 140100Z 02004MPS CAVOK 18/05 Q1023 NOSIG
ZGSZ,2025-01-14 02:00,ZGSZ 140200Z 05004MPS 340V070 CAVOK 19/05 Q1023 NOSIG
ZGSZ,2025-01-14 03:00,ZGSZ 140300Z 03003MPS 010V070 CAVOK 20/05 Q1024 NOSIG
ZGSZ,2025-01-14 04:00,ZGSZ 140400Z 08003MPS 010V130 CAVOK 21/04 Q1023 NOSIG
ZGSZ,2025-01-14 05:00,ZGSZ 140500Z 23002MPS CAVOK 20/08 Q1022 NOSIG
ZGSZ,2025-01-14 06:00,ZGSZ 140600Z 24003MPS CAVOK 20/10 Q1021 NOSIG
ZGSZ,2025-01-14 07:00,ZGSZ 140700Z 25002MPS 220V280 CAVOK 21/07 Q1020 NOSIG
ZGSZ,2025-01-14 08:00,ZGSZ 140800Z 26002MPS CAVOK 20/08 Q1020 NOSIG
ZGSZ,2025-01-14 09:00,ZGSZ 140900Z 30002MPS 270V340 9999 FEW033 21/08 Q1020 NOSIG
ZGSZ,2025-01-14 10:00,ZGSZ 141000Z 01002MPS 330V090 CAVOK 21/07 Q1020 NOSIG
ZGSZ,2025-01-14 11:00,ZGSZ 141100Z 32002MPS CAVOK 20/09 Q1021 NOSIG
ZGSZ,2025-01-14 12:00,ZGSZ 141200Z 32002MPS CAVOK 20/10 Q1022 NOSIG
ZGSZ,2025-01-14 13:00,ZGSZ 141300Z 01002MPS 320V120 CAVOK 21/09 Q1022 NOSIG
ZGSZ,2025-01-14 14:00,ZGSZ 141400Z VRB01MPS CAVOK 19/12 Q1022 NOSIG
ZGSZ,2025-01-14 15:00,ZGSZ 141500Z 32002MPS 8000 NSC 19/12 Q1022 NOSIG
ZGSZ,2025-01-14 16:00,ZGSZ 141600Z 31001MPS 8000 -RA NSC 19/12 Q1022 NOSIG
ZGSZ,2025-01-14 17:00,ZGSZ 141700Z VRB01MPS 8000 NSC 19/11 Q1022 NOSIG
ZGSZ,2025-01-14 18:00,ZGSZ 141800Z VRB02MPS CAVOK 20/11 Q1022 NOSIG
ZGSZ,2025-01-14 19:00,ZGSZ 141900Z 34004MPS CAVOK 19/09 Q1022 NOSIG
ZGSZ,2025-01-14 20:00,ZGSZ 142000Z 02002MPS CAVOK 18/09 Q1021 NOSIG
ZGSZ,2025-01-14 21:00,ZGSZ 142100Z 02003MPS CAVOK 18/09 Q1022 NOSIG
ZGSZ,2025-01-14 22:00,ZGSZ 142200Z 01004MPS CAVOK 17/08 Q1023 NOSIG
ZGSZ,2025-01-14 23:00,ZGSZ 142300Z 03004MPS CAVOK 18/07 Q1023 NOSIG
ZGSZ,2025-01-15 00:00,ZGSZ 150000Z 02006MPS CAVOK 19/06 Q1024 NOSIG
ZGSZ,2025-01-15 01:00,ZGSZ 150100Z 03007MPS CAVOK 20/05 Q1025 NOSIG
ZGSZ,2025-01-15 02:00,ZGSZ 150200Z 04007MPS CAVOK 20/04 Q1026 NOSIG
ZGSZ,2025-01-15 03:00,ZGSZ 150300Z 03007MPS CAVOK 22/01 Q1025 NOSIG
ZGSZ,2025-01-15 04:00,ZGSZ 150400Z 04007MPS CAVOK 22/01 Q1025 NOSIG
ZGSZ,2025-01-15 05:00,ZGSZ 150500Z 01007MPS CAVOK 23/00 Q1024 NOSIG
ZGSZ,2025-01-15 06:00,ZGSZ 150600Z 01008MPS CAVOK 23/M00 Q1023 NOSIG
ZGSZ,2025-01-15 07:00,ZGSZ 150700Z 01006G11MPS 340V050 CAVOK 23/01 Q1022 NOSIG
ZGSZ,2025-01-15 08:00,ZGSZ 150800Z 36006MPS CAVOK 23/01 Q1022 NOSIG
ZGSZ,2025-01-15 09:00,ZGSZ 150900Z 02006MPS CAVOK 22/M00 Q1023 NOSIG
ZGSZ,2025-01-15 10:00,ZGSZ 151000Z 04006MPS CAVOK 21/00 Q1023 NOSIG
ZGSZ,2025-01-15 11:00,ZGSZ 151100Z 03005MPS CAVOK 20/01 Q1024 NOSIG
ZGSZ,2025-01-15 12:00,ZGSZ 151200Z 03005MPS CAVOK 20/02 Q1024 NOSIG
ZGSZ,2025-01-15 13:00,ZGSZ 151300Z 03006MPS CAVOK 19/02 Q1025 NOSIG
ZGSZ,2025-01-15 14:00,ZGSZ 151400Z 03006MPS CAVOK 18/02 Q1025 NOSIG
ZGSZ,2025-01-15 15:00,ZGSZ 151500Z 03006MPS CAVOK 17/02 Q1026 NOSIG
ZGSZ,2025-01-15 16:00,ZGSZ 151600Z 03005MPS CAVOK 17/02 Q1026 NOSIG
ZGSZ,2025-01-15 17:00,ZGSZ 151700Z 03005MPS CAVOK 16/02 Q1026 NOSIG
ZGSZ,2025-01-15 18:00,ZGSZ 151800Z 03006MPS CAVOK 15/02 Q1026 NOSIG
ZGSZ,2025-01-15 19:00,ZGSZ 151900Z 02006MPS CAVOK 15/02 Q1025 NOSIG
ZGSZ,2025-01-15 20:00,ZGSZ 152000Z 03005MPS CAVOK 14/02 Q1025 NOSIG
ZGSZ,2025-01-15 21:00,ZGSZ 152100Z 04005MPS CAVOK 14/01 Q1025 NOSIG
ZGSZ,2025-01-15 22:00,ZGSZ 152200Z 02004MPS CAVOK 13/01 Q1026 NOSIG
ZGSZ,2025-01-15 23:00,ZGSZ 152300Z 02005MPS CAVOK 13/01 Q1026 NOSIG
ZGSZ,2025-01-16 00:00,ZGSZ 160000Z 36005MPS CAVOK 13/00 Q1027 NOSIG
ZGSZ,2025-01-16 01:00,ZGSZ 160100Z 01005MPS CAVOK 14/M00 Q1028 NOSIG
ZGSZ,2025-01-16 02:00,ZGSZ 160200Z 36006MPS CAVOK 16/00 Q1028 NOSIG
ZGSZ,2025-01-16 03:00,ZGSZ 160300Z 36006MPS CAVOK 17/00 Q1027 NOSIG
ZGSZ,2025-01-16 04:00,ZGSZ 160400Z 35004MPS 310V020 CAVOK 18/M00 Q1026 NOSIG
ZGSZ,2025-01-16 05:00,ZGSZ 160500Z 02004MPS CAVOK 19/00 Q1025 NOSIG
ZGSZ,2025-01-16 06:00,ZGSZ 160600Z 34005MPS CAVOK 19/00 Q1023 NOSIG
ZGSZ,2025-01-16 07:00,ZGSZ 160700Z 02004MPS 350V050 CAVOK 19/01 Q1023 NOSIG
ZGSZ,2025-01-16 08:00,ZGSZ 160800Z 02004MPS 320V050 CAVOK 20/01 Q1022 NOSIG
ZGSZ,2025-01-16 09:00,ZGSZ 160900Z 04004MPS 360V070 CAVOK 19/00 Q1023 NOSIG
ZGSZ,2025-01-16 10:00,ZGSZ 161000Z 04004MPS CAVOK 18/01 Q1023 NOSIG
ZGSZ,2025-01-16 11:00,ZGSZ 161100Z 05002MPS CAVOK 17/02 Q1024 NOSIG
ZGSZ,2025-01-16 12:00,ZGSZ 161200Z 04002MPS CAVOK 17/01 Q1024 NOSIG
ZGSZ,2025-01-16 13:00,ZGSZ 161300Z 03003MPS CAVOK 16/01 Q1025 NOSIG
ZGSZ,2025-01-16 14:00,ZGSZ 161400Z 05003MPS CAVOK 16/M00 Q1025 NOSIG
ZGSZ,2025-01-16 15:00,ZGSZ 161500Z 05003MPS CAVOK 15/M02 Q1025 NOSIG
ZGSZ,2025-01-16 16:00,ZGSZ 161600Z 04004MPS CAVOK 15/M03 Q1025 NOSIG
ZGSZ,2025-01-16 17:00,ZGSZ 161700Z 04004MPS CAVOK 15/M03 Q1025 NOSIG
ZGSZ,2025-01-16 18:00,ZGSZ 161800Z 03005MPS 340V050 CAVOK 14/M04 Q1025 NOSIG
ZGSZ,2025-01-16 19:00,ZGSZ 161900Z 04005MPS CAVOK 14/M05 Q1025 NOSIG
ZGSZ,2025-01-16 20:00,ZGSZ 162000Z 04004MPS CAVOK 14/M05 Q1025 NOSIG
ZGSZ,2025-01-16 21:00,ZGSZ 162100Z 04004MPS CAVOK 13/M04 Q1024 NOSIG
ZGSZ,2025-01-16 22:00,ZGSZ 162200Z 03004MPS CAVOK 12/M04 Q1024 NOSIG
ZGSZ,2025-01-16 23:00,ZGSZ 162300Z 03003MPS CAVOK 12/M05 Q1025 NOSIG
ZGSZ,2025-01-17 00:00,ZGSZ 170000Z 04004MPS CAVOK 13/M05 Q1025 NOSIG
ZGSZ,2025-01-17 01:00,ZGSZ 170100Z 04005MPS CAVOK 14/M06 Q1025 NOSIG
ZGSZ,2025-01-17 02:00,ZGSZ 170200Z 03003MPS 360V060 CAVOK 15/M06 Q1025 NOSIG
ZGSZ,2025-01-17 03:00,ZGSZ 170300Z 36004MPS 330V030 CAVOK 17/M05 Q1025 BECMG AT0440 27005MPS
ZGSZ,2025-01-17 04:00,ZGSZ 170400Z 36004MPS 330V070 CAVOK 18/M05 Q1024 BECMG AT0540 27005MPS
ZGSZ,2025-01-17 05:00,ZGSZ 170500Z 30005MPS 270V360 CAVOK 18/M03 Q1022 BECMG AT0650 24005MPS
ZGSZ,2025-01-17 06:00,ZGSZ 170600Z 28005MPS CAVOK 18/00 Q1021 BECMG AT0740 21005MPS
ZGSZ,2025-01-17 07:00,ZGSZ 170700Z 29005MPS CAVOK 18/00 Q1020 BECMG AT0840 20005MPS
ZGSZ,2025-01-17 08:00,ZGSZ 170800Z 28004MPS CAVOK 18/M00 Q1020 NOSIG
ZGSZ,2025-01-17 09:00,ZGSZ 170900Z 29003MPS CAVOK 18/00 Q1020 BECMG AT1040 10005MPS
ZGSZ,2025-01-17 10:00,ZGSZ 171000Z 19003MPS CAVOK 17/05 Q1020 NOSIG
ZGSZ,2025-01-17 11:00,ZGSZ 171100Z 18005MPS CAVOK 16/05 Q1020 BECMG AT1240 10005MPS
ZGSZ,2025-01-17 12:00,ZGSZ 171200Z 16004MPS CAVOK 15/05 Q1020 NOSIG
ZGSZ,2025-01-17 13:00,ZGSZ 171300Z 12004MPS CAVOK 15/04 Q1021 NOSIG
ZGSZ,2025-01-17 14:00,ZGSZ 171400Z 11005MPS CAVOK 14/06 Q1021 NOSIG
ZGSZ,2025-01-17 15:00,ZGSZ 171500Z 10004MPS CAVOK 14/06 Q1021 NOSIG
ZGSZ,2025-01-17 16:00,ZGSZ 171600Z 05003MPS 360V110 CAVOK 14/06 Q1021 NOSIG
ZGSZ,2025-01-17 17:00,ZGSZ 171700Z 03003MPS 330V050 CAVOK 14/06 Q1021 NOSIG
ZGSZ,2025-01-17 18:00,ZGSZ 171800Z 04002MPS 360V090 CAVOK 14/06 Q1021 NOSIG
ZGSZ,2025-01-17 19:00,ZGSZ 171900Z 05002MPS CAVOK 13/06 Q1020 NOSIG
ZGSZ,2025-01-17 20:00,ZGSZ 172000Z 07002MPS CAVOK 13/06 Q1020 NOSIG
ZGSZ,2025-01-17 21:00,ZGSZ 172100Z 03003MPS CAVOK 12/06 Q1020 NOSIG
ZGSZ,2025-01-17 22:00,ZGSZ 172200Z 03002MPS 260V060 CAVOK 12/06 Q1020 NOSIG
ZGSZ,2025-01-17 23:00,ZGSZ 172300Z 03002MPS CAVOK 12/06 Q1021 NOSIG
ZGSZ,2025-01-18 00:00,ZGSZ 180000Z 02003MPS 320V050 8000 NSC 13/07 Q1021 NOSIG
ZGSZ,2025-01-18 01:00,ZGSZ 180100Z VRB01MPS CAVOK 15/06 Q1022 NOSIG
ZGSZ,2025-01-18 02:00,ZGSZ 180200Z 04003MPS 360V060 CAVOK 16/06 Q1022 NOSIG
ZGSZ,2025-01-18 03:00,ZGSZ 180300Z 04005MPS 010V070 CAVOK 18/02 Q1021 BECMG AT0450 30005MPS
ZGSZ,2025-01-18 04:00,ZGSZ 180400Z 01005MPS 330V070 CAVOK 19/01 Q1020 BECMG AT0530 29005MPS
ZGSZ,2025-01-18 05:00,ZGSZ 180500Z 31004MPS 270V010 CAVOK 19/05 Q1019 NOSIG
ZGSZ,2025-01-18 06:00,ZGSZ 180600Z 28005MPS 9000 NSC 19/07 Q1018 NOSIG
ZGSZ,2025-01-18 07:00,ZGSZ 180700Z 29004MPS 9000 NSC 20/05 Q1017 NOSIG
ZGSZ,2025-01-18 08:00,ZGSZ 180800Z 30005MPS CAVOK 20/03 Q1016 NOSIG
ZGSZ,2025-01-18 09:00,ZGSZ 180900Z 29005MPS CAVOK 20/04 Q1017 BECMG AT1050 20005MPS
ZGSZ,2025-01-18 10:00,ZGSZ 181000Z 30005MPS CAVOK 18/06 Q1017 BECMG AT1130 16005MPS
ZGSZ,2025-01-18 11:00,ZGSZ 181100Z 33002MPS 320V020 CAVOK 17/05 Q1017 NOSIG
ZGSZ,2025-01-18 12:00,ZGSZ 181200Z VRB01MPS CAVOK 17/03 Q1018 NOSIG
ZGSZ,2025-01-18 13:00,ZGSZ 181300Z 18003MPS CAVOK 16/11 Q1018 NOSIG
ZGSZ,2025-01-18 14:00,ZGSZ 181400Z 17002MPS CAVOK 16/10 Q1018 NOSIG
ZGSZ,2025-01-18 15:00,ZGSZ 181500Z 17002MPS 9000 NSC 15/11 Q1018 NOSIG
ZGSZ,2025-01-18 16:00,ZGSZ 181600Z 12002MPS 080V140 9000 NSC 15/08 Q1018 NOSIG
ZGSZ,2025-01-18 17:00,ZGSZ 181700Z 11003MPS CAVOK 15/07 Q1018 NOSIG
ZGSZ,2025-01-18 18:00,ZGSZ 181800Z 09002MPS CAVOK 15/07 Q1018 NOSIG
ZGSZ,2025-01-18 19:00,ZGSZ 181900Z VRB01MPS CAVOK 15/08 Q1018 NOSIG
ZGSZ,2025-01-18 20:00,ZGSZ 182000Z 05002MPS 020V110 8000 NSC 14/08 Q1017 NOSIG
ZGSZ,2025-01-18 21:00,ZGSZ 182100Z 03002MPS 010V070 9000 NSC 14/07 Q1017 NOSIG
ZGSZ,2025-01-18 22:00,ZGSZ 182200Z VRB02MPS CAVOK 14/08 Q1018 NOSIG
ZGSZ,2025-01-18 23:00,ZGSZ 182300Z VRB02MPS 8000 NSC 14/08 Q1018 NOSIG
ZGSZ,2025-01-19 00:00,ZGSZ 190000Z VRB01MPS 7000 NSC 15/08 Q1018 NOSIG
ZGSZ,2025-01-19 01:00,ZGSZ 190100Z 01002MPS 7000 NSC 16/08 Q1018 NOSIG
ZGSZ,2025-01-19 02:00,ZGSZ 190200Z 04003MPS 340V120 7000 NSC 18/03 Q1019 NOSIG
ZGSZ,2025-01-19 03:00,ZGSZ 190300Z 03004MPS 350V090 CAVOK 20/02 Q1018 BECMG AT0450 30005MPS
ZGSZ,2025-01-19 04:00,ZGSZ 190400Z 02002MPS 330V070 CAVOK 21/03 Q1017 BECMG AT0540 30005MPS
ZGSZ,2025-01-19 05:00,ZGSZ 190500Z 28004MPS CAVOK 20/08 Q1016 NOSIG
ZGSZ,2025-01-19 06:00,ZGSZ 190600Z 28004MPS CAVOK 21/05 Q1015 NOSIG
ZGSZ,2025-01-19 07:00,ZGSZ 190700Z 29004MPS CAVOK 21/04 Q1014 NOSIG
ZGSZ,2025-01-19 08:00,ZGSZ 190800Z 29004MPS CAVOK 21/03 Q1014 NOSIG
ZGSZ,2025-01-19 09:00,ZGSZ 190900Z 28003MPS CAVOK 21/05 Q1014 NOSIG
ZGSZ,2025-01-19 10:00,ZGSZ 191000Z 30003MPS CAVOK 19/07 Q1014 NOSIG
ZGSZ,2025-01-19 11:00,ZGSZ 191100Z VRB01MPS CAVOK 19/06 Q1014 NOSIG
ZGSZ,2025-01-19 12:00,ZGSZ 191200Z VRB01MPS CAVOK 19/05 Q1015 NOSIG
ZGSZ,2025-01-19 13:00,ZGSZ 191300Z 10002MPS 070V140 CAVOK 19/03 Q1015 NOSIG
ZGSZ,2025-01-19 14:00,ZGSZ 191400Z 17003MPS CAVOK 16/12 Q1015 NOSIG
ZGSZ,2025-01-19 15:00,ZGSZ 191500Z 18003MPS CAVOK 16/12 Q1015 NOSIG
ZGSZ,2025-01-19 16:00,ZGSZ 191600Z 16002MPS CAVOK 16/12 Q1015 NOSIG
ZGSZ,2025-01-19 17:00,ZGSZ 191700Z VRB01MPS CAVOK 16/11 Q1015 NOSIG
ZGSZ,2025-01-19 18:00,ZGSZ 191800Z 00000MPS CAVOK 14/09 Q1016 NOSIG
ZGSZ,2025-01-19 19:00,ZGSZ 191900Z 06001MPS CAVOK 15/07 Q1016 NOSIG
ZGSZ,2025-01-19 20:00,ZGSZ 192000Z 08001MPS CAVOK 14/06 Q1016 NOSIG
ZGSZ,2025-01-19 21:00,ZGSZ 192100Z 11001MPS CAVOK 13/06 Q1015 NOSIG
ZGSZ,2025-01-19 22:00,ZGSZ 192200Z 05001MPS CAVOK 13/07 Q1016 NOSIG
ZGSZ,2025-01-19 23:00,ZGSZ 192300Z 04002MPS 020V110 9000 NSC 14/07 Q1016 NOSIG
ZGSZ,2025-01-20 00:00,ZGSZ 200000Z VRB01MPS 9000 NSC 15/08 Q1017 NOSIG
ZGSZ,2025-01-20 01:00,ZGSZ 200100Z 03002MPS 010V070 9000 NSC 17/09 Q1017 NOSIG
ZGSZ,2025-01-20 02:00,ZGSZ 200200Z VRB01MPS 9000 NSC 19/08 Q1018 NOSIG
ZGSZ,2025-01-20 03:00,ZGSZ 200300Z 26003MPS 9000 NSC 19/09 Q1017 NOSIG
ZGSZ,2025-01-20 04:00,ZGSZ 200400Z 26004MPS CAVOK 19/08 Q1017 NOSIG
ZGSZ,2025-01-20 05:00,ZGSZ 200500Z 26004MPS CAVOK 20/08 Q1016 NOSIG
ZGSZ,2025-01-20 06:00,ZGSZ 200600Z 27004MPS CAVOK 21/08 Q1015 NOSIG
ZGSZ,2025-01-20 07:00,ZGSZ 200700Z 24003MPS CAVOK 21/08 Q1014 NOSIG
ZGSZ,2025-01-20 08:00,ZGSZ 200800Z 21003MPS CAVOK 20/11 Q1014 NOSIG
ZGSZ,2025-01-20 09:00,ZGSZ 200900Z 17004MPS CAVOK 20/10 Q1014 NOSIG
ZGSZ,2025-01-20 10:00,ZGSZ 201000Z 17002MPS CAVOK 18/09 Q1014 NOSIG
ZGSZ,2025-01-20 11:00,ZGSZ 201100Z 18002MPS CAVOK 18/09 Q1015 NOSIG
ZGSZ,2025-01-20 12:00,ZGSZ 201200Z 17002MPS 9000 NSC 17/13 Q1015 NOSIG
ZGSZ,2025-01-20 13:00,ZGSZ 201300Z 16003MPS 9000 NSC 16/12 Q1016 NOSIG
ZGSZ,2025-01-20 14:00,ZGSZ 201400Z 16003MPS 9000 NSC 16/12 Q1016 BECMG AT1540 10005MPS
ZGSZ,2025-01-20 15:00,ZGSZ 201500Z 16002MPS CAVOK 16/12 Q1016 BECMG AT1540 10005MPS
ZGSZ,2025-01-20 16:00,ZGSZ 201600Z 10005MPS CAVOK 15/11 Q1016 NOSIG
ZGSZ,2025-01-20 17:00,ZGSZ 201700Z 12004MPS CAVOK 16/07 Q1017 NOSIG
ZGSZ,2025-01-20 18:00,ZGSZ 201800Z 10002MPS 060V140 CAVOK 17/06 Q1017 NOSIG
ZGSZ,2025-01-20 19:00,ZGSZ 201900Z 13003MPS CAVOK 16/06 Q1017 NOSIG
ZGSZ,2025-01-20 20:00,ZGSZ 202000Z 11002MPS 060V150 CAVOK 16/06 Q1016 NOSIG
ZGSZ,2025-01-20 21:00,ZGSZ 202100Z VRB01MPS CAVOK 16/07 Q1016 NOSIG
ZGSZ,2025-01-20 22:00,ZGSZ 202200Z VRB01MPS CAVOK 16/07 Q1017 NOSIG
ZGSZ,2025-01-20 23:00,ZGSZ 202300Z 05002MPS 340V100 CAVOK 15/08 Q1017 NOSIG
ZGSZ,2025-01-21 00:00,ZGSZ 210000Z VRB01MPS CAVOK 14/08 Q1018 NOSIG
ZGSZ,2025-01-21 01:00,ZGSZ 210100Z VRB01MPS CAVOK 17/08 Q1018 NOSIG
ZGSZ,2025-01-21 02:00,ZGSZ 210200Z VRB01MPS CAVOK 19/06 Q1018 NOSIG
ZGSZ,2025-01-21 03:00,ZGSZ 210300Z 25003MPS 230V300 CAVOK 19/07 Q1018 NOSIG
ZGSZ,2025-01-21 04:00,ZGSZ 210400Z 28004MPS CAVOK 19/09 Q1017 NOSIG
ZGSZ,2025-01-21 05:00,ZGSZ 210500Z 26003MPS CAVOK 21/08 Q1016 NOSIG
ZGSZ,2025-01-21 06:00,ZGSZ 210600Z 25003MPS CAVOK 21/08 Q1015 NOSIG
ZGSZ,2025-01-21 07:00,ZGSZ 210700Z 20003MPS CAVOK 20/10 Q1015 NOSIG
ZGSZ,2025-01-21 08:00,ZGSZ 210800Z 20003MPS CAVOK 19/10 Q1015 NOSIG
ZGSZ,2025-01-21 09:00,ZGSZ 210900Z 18004MPS CAVOK 20/09 Q1015 NOSIG
ZGSZ,2025-01-21 10:00,ZGSZ 211000Z 16003MPS CAVOK 18/08 Q1015 NOSIG
ZGSZ,2025-01-21 11:00,ZGSZ 211100Z 18004MPS CAVOK 18/11 Q1015 NOSIG
ZGSZ,2025-01-21 12:00,ZGSZ 211200Z 19003MPS CAVOK 18/11 Q1016 NOSIG
ZGSZ,2025-01-21 13:00,ZGSZ 211300Z 12003MPS CAVOK 19/06 Q1016 NOSIG
ZGSZ,2025-01-21 14:00,ZGSZ 211400Z 11004MPS 9999 BKN043 18/09 Q1017 NOSIG
ZGSZ,2025-01-21 15:00,ZGSZ 211500Z 10003MPS 070V140 9000 -RA BKN043 16/11 Q1018 NOSIG
ZGSZ,2025-01-21 16:00,ZGSZ 211600Z 05003MPS 020V100 9999 -RA BKN043 16/11 Q1018 NOSIG
ZGSZ,2025-01-21 17:00,ZGSZ 211700Z 35003MPS 330V080 9000 -RA BKN036 15/12 Q1018 NOSIG
ZGSZ,2025-01-21 18:00,ZGSZ 211800Z 04004MPS 010V090 9000 -RA BKN040 15/11 Q1018 NOSIG
ZGSZ,2025-01-21 19:00,ZGSZ 211900Z 02004MPS 340V050 9000 -RA FEW013 BKN039 15/11 Q1017 NOSIG
ZGSZ,2025-01-21 20:00,ZGSZ 212000Z 06002MPS 9000 RA FEW013 BKN050 15/11 Q1017 BECMG AT2030 -RA
ZGSZ,2025-01-21 21:00,ZGSZ 212100Z VRB01MPS 7000 -RA BKN050 15/12 Q1018 NOSIG
ZGSZ,2025-01-21 22:00,ZGSZ 212200Z 04002MPS 9999 -RA BKN053 15/12 Q1017 NOSIG
ZGSZ,2025-01-21 23:00,ZGSZ 212300Z 00000MPS 9999 SCT053 15/11 Q1017 NOSIG
ZGSZ,2025-01-22 00:00,ZGSZ 220000Z 01004MPS 340V080 9999 SCT053 16/12 Q1018 NOSIG
ZGSZ,2025-01-22 01:00,ZGSZ 220100Z 02003MPS 8000 BKN036 16/12 Q1019 NOSIG
ZGSZ,2025-01-22 02:00,ZGSZ 220200Z 03004MPS 9999 BKN036 17/12 Q1019 NOSIG
ZGSZ,2025-01-22 03:00,ZGSZ 220300Z 02003MPS 300V040 9999 BKN036 17/12 Q1019 NOSIG
ZGSZ,2025-01-22 04:00,ZGSZ 220400Z 05003MPS 9999 BKN036 18/12 Q1019 NOSIG
ZGSZ,2025-01-22 05:00,ZGSZ 220500Z 06003MPS 9999 -RA BKN036 19/12 Q1017 NOSIG
ZGSZ,2025-01-22 06:00,ZGSZ 220600Z 04004MPS 260V060 9999 BKN040 20/12 Q1016 NOSIG
ZGSZ,2025-01-22 07:00,ZGSZ 220700Z 04003MPS 9999 BKN050 20/12 Q1016 NOSIG
ZGSZ,2025-01-22 08:00,ZGSZ 220800Z VRB02MPS 8000 -RA BKN050 17/14 Q1015 NOSIG
ZGSZ,2025-01-22 09:00,ZGSZ 220900Z 09003MPS 6000 RA BKN040 18/14 Q1016 BECMG AT0930 -RA
ZGSZ,2025-01-22 10:00,ZGSZ 221000Z VRB03G08MPS 8000 RA SCT020 BKN033 17/15 Q1016 BECMG AT1040 -RA
ZGSZ,2025-01-22 11:00,ZGSZ 221100Z 05002MPS 9999 -RA BKN030 17/15 Q1016 NOSIG
ZGSZ,2025-01-22 12:00,ZGSZ 221200Z 04004MPS 9999 -RA BKN030 17/15 Q1016 NOSIG
ZGSZ,2025-01-22 13:00,ZGSZ 221300Z VRB02G07MPS 8000 -RA BKN030 17/15 Q1017 NOSIG
ZGSZ,2025-01-22 14:00,ZGSZ 221400Z 01002MPS 330V030 9000 -RA BKN030 17/15 Q1017 NOSIG
ZGSZ,2025-01-22 15:00,ZGSZ 221500Z 03004MPS 9000 BKN040 17/16 Q1017 NOSIG
ZGSZ,2025-01-22 16:00,ZGSZ 221600Z 05002MPS 010V070 8000 -RA BKN040 17/16 Q1018 NOSIG
ZGSZ,2025-01-22 17:00,ZGSZ 221700Z VRB01MPS 7000 -RA BKN040 17/16 Q1018 NOSIG
ZGSZ,2025-01-22 18:00,ZGSZ 221800Z 11004MPS 070V170 9999 -RA BKN046 18/16 Q1017 NOSIG
ZGSZ,2025-01-22 19:00,ZGSZ 221900Z VRB01MPS 9999 BKN053 17/16 Q1017 NOSIG
ZGSZ,2025-01-22 20:00,ZGSZ 222000Z VRB01MPS 8000 -RA SCT053 17/16 Q1016 NOSIG
ZGSZ,2025-01-22 21:00,ZGSZ 222100Z VRB01MPS 9999 -RA FEW053 18/16 Q1016 NOSIG
ZGSZ,2025-01-22 22:00,ZGSZ 222200Z 03002G08MPS 320V060 9000 NSC 18/16 Q1016 NOSIG
ZGSZ,2025-01-22 23:00,ZGSZ 222300Z 01002MPS 6000 NSC 17/15 Q1017 NOSIG
ZGSZ,2025-01-23 00:00,ZGSZ 230000Z VRB01MPS 7000 NSC 18/16 Q1017 NOSIG
ZGSZ,2025-01-23 01:00,ZGSZ 230100Z 36002G07MPS 290V060 8000 NSC 18/16 Q1018 NOSIG
ZGSZ,2025-01-23 02:00,ZGSZ 230200Z VRB01MPS 8000 NSC 19/16 Q1018 NOSIG
ZGSZ,2025-01-23 03:00,ZGSZ 230300Z 28002MPS 8000 NSC 19/16 Q1018 NOSIG
ZGSZ,2025-01-23 04:00,ZGSZ 230400Z 28003MPS 8000 SCT050 20/17 Q1017 NOSIG
ZGSZ,2025-01-23 05:00,ZGSZ 230500Z 28003MPS 8000 SCT050 20/17 Q1015 NOSIG
ZGSZ,2025-01-23 06:00,ZGSZ 230600Z 28003MPS 8000 SCT050 20/16 Q1015 NOSIG
ZGSZ,2025-01-23 07:00,ZGSZ 230700Z 29002MPS 6000 -RA BKN040 20/17 Q1014 NOSIG
ZGSZ,2025-01-23 08:00,ZGSZ 230800Z 32003MPS 4000 -RA BR BKN040 19/17 Q1013 NOSIG
ZGSZ,2025-01-23 09:00,ZGSZ 230900Z 35003MPS 320V020 4000 -RA BR OVC040 19/17 Q1014 NOSIG
ZGSZ,2025-01-23 10:00,ZGSZ 231000Z VRB01MPS 5000 BR BKN046 19/17 Q1014 NOSIG
ZGSZ,2025-01-23 11:00,ZGSZ 231100Z VRB01MPS 6000 FEW010 BKN036 19/17 Q1014 NOSIG
ZGSZ,2025-01-23 12:00,ZGSZ 231200Z VRB01MPS 3500 BR BKN046 19/17 Q1014 BECMG AT1330 12005MPS
ZGSZ,2025-01-23 13:00,ZGSZ 231300Z VRB01MPS 3500 BR SCT014 BKN046 18/17 Q1015 BECMG AT1440 12005MPS
ZGSZ,2025-01-23 14:00,ZGSZ 231400Z VRB01MPS 3200 BR SCT014 BKN046 18/17 Q1015 BECMG AT1440 12005MPS
ZGSZ,2025-01-23 15:00,ZGSZ 231500Z 16003MPS 3100 BR FEW012 BKN050 18/17 Q1015 BECMG AT1520 10005MPS
ZGSZ,2025-01-23 16:00,ZGSZ 231600Z 12005MPS 080V170 8000 NSC 19/15 Q1015 NOSIG
ZGSZ,2025-01-23 17:00,ZGSZ 231700Z 11003MPS 080V140 CAVOK 19/14 Q1015 NOSIG
ZGSZ,2025-01-23 18:00,ZGSZ 231800Z 08002MPS 060V130 CAVOK 19/13 Q1015 NOSIG
ZGSZ,2025-01-23 19:00,ZGSZ 231900Z VRB01MPS CAVOK 18/14 Q1015 NOSIG
ZGSZ,2025-01-23 20:00,ZGSZ 232000Z 04002MPS CAVOK 18/13 Q1014 NOSIG
ZGSZ,2025-01-23 21:00,ZGSZ 232100Z 07001MPS CAVOK 18/12 Q1014 NOSIG
ZGSZ,2025-01-23 22:00,ZGSZ 232200Z 10002MPS CAVOK 18/11 Q1014 NOSIG
ZGSZ,2025-01-23 23:00,ZGSZ 232300Z 10003MPS 080V140 CAVOK 18/10 Q1015 NOSIG
ZGSZ,2025-01-24 00:00,ZGSZ 240000Z VRB01MPS CAVOK 18/11 Q1015 NOSIG
ZGSZ,2025-01-24 01:00,ZGSZ 240100Z 23001MPS CAVOK 19/12 Q1016 NOSIG
ZGSZ,2025-01-24 02:00,ZGSZ 240200Z 24002MPS CAVOK 20/11 Q1016 NOSIG
ZGSZ,2025-01-24 03:00,ZGSZ 240300Z 27003MPS CAVOK 20/12 Q1016 NOSIG
ZGSZ,2025-01-24 04:00,ZGSZ 240400Z 24004MPS CAVOK 21/14 Q1015 NOSIG
ZGSZ,2025-01-24 05:00,ZGSZ 240500Z 21004MPS CAVOK 21/14 Q1014 NOSIG
ZGSZ,2025-01-24 06:00,ZGSZ 240600Z 20005MPS CAVOK 22/15 Q1013 NOSIG
ZGSZ,2025-01-24 07:00,ZGSZ 240700Z 18006MPS CAVOK 21/15 Q1012 NOSIG
ZGSZ,2025-01-24 08:00,ZGSZ 240800Z 18005MPS CAVOK 21/15 Q1012 NOSIG
ZGSZ,2025-01-24 09:00,ZGSZ 240900Z 19005MPS CAVOK 20/15 Q1012 NOSIG
ZGSZ,2025-01-24 10:00,ZGSZ 241000Z 20005MPS CAVOK 19/15 Q1013 NOSIG
ZGSZ,2025-01-24 11:00,ZGSZ 241100Z 12004MPS 090V150 CAVOK 20/12 Q1014 NOSIG
ZGSZ,2025-01-24 12:00,ZGSZ 241200Z 15006MPS CAVOK 19/12 Q1014 BECMG AT1240 09004MPS
ZGSZ,2025-01-24 13:00,ZGSZ 241300Z 12007MPS CAVOK 18/13 Q1015 NOSIG
ZGSZ,2025-01-24 14:00,ZGSZ 241400Z 11006MPS CAVOK 18/13 Q1015 NOSIG
ZGSZ,2025-01-24 15:00,ZGSZ 241500Z 12006MPS CAVOK 18/13 Q1015 NOSIG
ZGSZ,2025-01-24 16:00,ZGSZ 241600Z 13005MPS CAVOK 18/13 Q1015 NOSIG
ZGSZ,2025-01-24 17:00,ZGSZ 241700Z 12004MPS 090V150 CAVOK 18/13 Q1015 NOSIG
ZGSZ,2025-01-24 18:00,ZGSZ 241800Z 11004MPS CAVOK 17/13 Q1015 NOSIG
ZGSZ,2025-01-24 19:00,ZGSZ 241900Z 12005MPS 090V150 9999 SCT023 17/13 Q1016 NOSIG
ZGSZ,2025-01-24 20:00,ZGSZ 242000Z 11005MPS 9999 FEW023 17/13 Q1016 NOSIG
ZGSZ,2025-01-24 21:00,ZGSZ 242100Z 12005MPS CAVOK 17/13 Q1016 NOSIG
ZGSZ,2025-01-24 22:00,ZGSZ 242200Z 12005MPS CAVOK 17/12 Q1016 NOSIG
ZGSZ,2025-01-24 23:00,ZGSZ 242300Z 11005MPS 080V140 CAVOK 17/13 Q1016 NOSIG
ZGSZ,2025-01-25 00:00,ZGSZ 250000Z 11005MPS CAVOK 18/13 Q1017 NOSIG
ZGSZ,2025-01-25 01:00,ZGSZ 250100Z 10005MPS CAVOK 19/13 Q1017 NOSIG
ZGSZ,2025-01-25 02:00,ZGSZ 250200Z 09005MPS 060V120 CAVOK 20/13 Q1017 NOSIG
ZGSZ,2025-01-25 03:00,ZGSZ 250300Z 12004MPS 090V150 CAVOK 22/13 Q1017 NOSIG
ZGSZ,2025-01-25 04:00,ZGSZ 250400Z 13005MPS 100V160 CAVOK 22/13 Q1016 NOSIG
ZGSZ,2025-01-25 05:00,ZGSZ 250500Z 10005MPS 060V140 CAVOK 22/13 Q1015 BECMG AT0630 19005MPS
ZGSZ,2025-01-25 06:00,ZGSZ 250600Z 12003MPS 090V170 CAVOK 23/13 Q1014 BECMG AT0740 19005MPS
ZGSZ,2025-01-25 07:00,ZGSZ 250700Z 22004MPS CAVOK 22/15 Q1014 NOSIG
ZGSZ,2025-01-25 08:00,ZGSZ 250800Z 22005MPS CAVOK 21/15 Q1014 NOSIG
ZGSZ,2025-01-25 09:00,ZGSZ 250900Z 20004MPS CAVOK 20/16 Q1014 BECMG AT1040 10005MPS
ZGSZ,2025-01-25 10:00,ZGSZ 251000Z VRB03MPS CAVOK 21/13 Q1015 BECMG AT1050 10005MPS
ZGSZ,2025-01-25 11:00,ZGSZ 251100Z 11005MPS CAVOK 20/13 Q1015 NOSIG
ZGSZ,2025-01-25 12:00,ZGSZ 251200Z 11005MPS CAVOK 19/12 Q1016 NOSIG
ZGSZ,2025-01-25 13:00,ZGSZ 251300Z 10004MPS CAVOK 18/13 Q1016 NOSIG
ZGSZ,2025-01-25 14:00,ZGSZ 251400Z 11004MPS CAVOK 18/12 Q1017 NOSIG
ZGSZ,2025-01-25 15:00,ZGSZ 251500Z 12006MPS CAVOK 18/13 Q1017 NOSIG
ZGSZ,2025-01-25 16:00,ZGSZ 251600Z 12005MPS CAVOK 17/13 Q1017 NOSIG
ZGSZ,2025-01-25 17:00,ZGSZ 251700Z 11005MPS CAVOK 17/13 Q1018 NOSIG
ZGSZ,2025-01-25 18:00,ZGSZ 251800Z 10003MPS 070V140 CAVOK 17/12 Q1017 NOSIG
ZGSZ,2025-01-25 19:00,ZGSZ 251900Z 01002MPS 320V070 CAVOK 17/12 Q1018 NOSIG
ZGSZ,2025-01-25 20:00,ZGSZ 252000Z 01003MPS CAVOK 16/13 Q1018 NOSIG
ZGSZ,2025-01-25 21:00,ZGSZ 252100Z VRB02MPS 9999 SCT046 17/13 Q1018 BECMG AT2230 36006MPS
ZGSZ,2025-01-25 22:00,ZGSZ 252200Z VRB03G09MPS 9999 BKN043 17/12 Q1019 BECMG AT2330 01006MPS
ZGSZ,2025-01-25 23:00,ZGSZ 252300Z 02005MPS 9999 -RA OVC023 17/13 Q1020 NOSIG
ZGSZ,2025-01-26 00:00,ZGSZ 260000Z 33005MPS 2800 -RA BR SCT010 OVC020 15/12 Q1021 BECMG AT0050 3500
ZGSZ,2025-01-26 01:00,ZGSZ 260100Z 33007MPS 5000 -RA BR BKN013 OVC020 13/11 Q1023 BECMG AT0230 SCT016 OVC030
ZGSZ,2025-01-26 02:00,ZGSZ 260200Z 33005MPS 8000 -RA BKN013 OVC020 13/11 Q1023 BECMG AT0230 SCT016 BKN030
ZGSZ,2025-01-26 03:00,ZGSZ 260300Z 33006MPS 9999 BKN013 OVC020 13/10 Q1024 BECMG AT0430 SCT016 BKN030
ZGSZ,2025-01-26 04:00,ZGSZ 260400Z 34007MPS 9999 BKN013 OVC020 13/09 Q1023 BECMG AT0430 SCT016 BKN030
ZGSZ,2025-01-26 05:00,ZGSZ 260500Z 34008MPS 9999 OVC020 13/09 Q1022 NOSIG
ZGSZ,2025-01-26 06:00,ZGSZ 260600Z 34008MPS 9999 OVC020 13/08 Q1022 NOSIG
ZGSZ,2025-01-26 07:00,ZGSZ 260700Z 35008MPS 9999 OVC026 13/07 Q1021 NOSIG
ZGSZ,2025-01-26 08:00,ZGSZ 260800Z 35008MPS 9999 SCT026 BKN043 13/06 Q1021 NOSIG
ZGSZ,2025-01-26 09:00,ZGSZ 260900Z 35008MPS 9999 SCT026 BKN043 12/06 Q1022 NOSIG
ZGSZ,2025-01-26 10:00,ZGSZ 261000Z 34008MPS 9999 SCT036 12/05 Q1023 NOSIG
ZGSZ,2025-01-26 11:00,ZGSZ 261100Z 35008MPS CAVOK 12/05 Q1023 NOSIG
ZGSZ,2025-01-26 12:00,ZGSZ 261200Z 36007MPS 9999 FEW050 12/04 Q1024 NOSIG
ZGSZ,2025-01-26 13:00,ZGSZ 261300Z 35008MPS CAVOK 11/04 Q1024 NOSIG
ZGSZ,2025-01-26 14:00,ZGSZ 261400Z 34007MPS CAVOK 11/04 Q1025 NOSIG
ZGSZ,2025-01-26 15:00,ZGSZ 261500Z 36008MPS 9999 -RA NSC 10/04 Q1024 NOSIG
ZGSZ,2025-01-26 16:00,ZGSZ 261600Z 36007MPS CAVOK 10/03 Q1024 NOSIG
ZGSZ,2025-01-26 17:00,ZGSZ 261700Z 36006MPS 320V020 CAVOK 11/02 Q1024 NOSIG
ZGSZ,2025-01-26 18:00,ZGSZ 261800Z 02007MPS CAVOK 11/01 Q1024 NOSIG
ZGSZ,2025-01-26 19:00,ZGSZ 261900Z 01008MPS CAVOK 11/01 Q1024 NOSIG
ZGSZ,2025-01-26 20:00,ZGSZ 262000Z 02008MPS 9999 -RA FEW050 11/01 Q1023 NOSIG
ZGSZ,2025-01-26 21:00,ZGSZ 262100Z 01007MPS CAVOK 10/01 Q1023 NOSIG
ZGSZ,2025-01-26 22:00,ZGSZ 262200Z 01007MPS CAVOK 10/01 Q1023 NOSIG
ZGSZ,2025-01-26 23:00,ZGSZ 262300Z 01007MPS CAVOK 10/00 Q1024 NOSIG
ZGSZ,2025-01-27 00:00,ZGSZ 270000Z 01007MPS CAVOK 10/00 Q1024 NOSIG
ZGSZ,2025-01-27 01:00,ZGSZ 270100Z 02007MPS 360V060 CAVOK 11/M00 Q1025 NOSIG
ZGSZ,2025-01-27 02:00,ZGSZ 270200Z 02007MPS CAVOK 13/M01 Q1025 NOSIG
ZGSZ,2025-01-27 03:00,ZGSZ 270300Z 01006MPS CAVOK 14/M01 Q1024 NOSIG
ZGSZ,2025-01-27 04:00,ZGSZ 270400Z 01007MPS CAVOK 15/M02 Q1023 NOSIG
ZGSZ,2025-01-27 05:00,ZGSZ 270500Z 03008MPS CAVOK 16/M04 Q1022 NOSIG
ZGSZ,2025-01-27 06:00,ZGSZ 270600Z 02005MPS CAVOK 18/M04 Q1021 NOSIG
ZGSZ,2025-01-27 07:00,ZGSZ 270700Z 02006MPS 350V060 CAVOK 18/M04 Q1020 NOSIG
ZGSZ,2025-01-27 08:00,ZGSZ 270800Z 04003MPS 360V090 CAVOK 18/M03 Q1020 NOSIG
ZGSZ,2025-01-27 09:00,ZGSZ 270900Z 01004MPS 330V050 CAVOK 17/M04 Q1020 NOSIG
ZGSZ,2025-01-27 10:00,ZGSZ 271000Z 02004MPS CAVOK 16/M04 Q1020 NOSIG
ZGSZ,2025-01-27 11:00,ZGSZ 271100Z 04004MPS CAVOK 16/M04 Q1021 NOSIG
ZGSZ,2025-01-27 12:00,ZGSZ 271200Z 04004MPS CAVOK 16/M04 Q1022 NOSIG
ZGSZ,2025-01-27 13:00,ZGSZ 271300Z 04004MPS CAVOK 16/M04 Q1022 NOSIG
ZGSZ,2025-01-27 14:00,ZGSZ 271400Z 03006MPS CAVOK 15/M04 Q1023 NOSIG
ZGSZ,2025-01-27 15:00,ZGSZ 271500Z 03005MPS CAVOK 15/M04 Q1023 NOSIG
ZGSZ,2025-01-27 16:00,ZGSZ 271600Z 04007MPS CAVOK 14/M03 Q1024 NOSIG
ZGSZ,2025-01-27 17:00,ZGSZ 271700Z 03007MPS CAVOK 14/M02 Q1024 NOSIG
ZGSZ,2025-01-27 18:00,ZGSZ 271800Z 04005MPS CAVOK 13/M02 Q1024 NOSIG
ZGSZ,2025-01-27 19:00,ZGSZ 271900Z 03005MPS 360V060 CAVOK 13/M03 Q1024 NOSIG
ZGSZ,2025-01-27 20:00,ZGSZ 272000Z 02007MPS CAVOK 12/M03 Q1024 NOSIG
ZGSZ,2025-01-27 21:00,ZGSZ 272100Z 03005MPS 360V060 CAVOK 12/M03 Q1024 NOSIG
ZGSZ,2025-01-27 22:00,ZGSZ 272200Z 03004MPS 360V080 CAVOK 12/M03 Q1024 NOSIG
ZGSZ,2025-01-27 23:00,ZGSZ 272300Z 04004MPS 010V070 CAVOK 11/M03 Q1025 NOSIG
ZGSZ,2025-01-28 00:00,ZGSZ 280000Z 03004MPS 010V070 CAVOK 12/M03 Q1025 NOSIG
ZGSZ,2025-01-28 01:00,ZGSZ 280100Z 05005MPS CAVOK 13/M04 Q1026 NOSIG
ZGSZ,2025-01-28 02:00,ZGSZ 280200Z 04005MPS CAVOK 15/M06 Q1026 NOSIG
ZGSZ,2025-01-28 03:00,ZGSZ 280300Z 03005MPS CAVOK 16/M06 Q1026 NOSIG
ZGSZ,2025-01-28 04:00,ZGSZ 280400Z 01004MPS 330V040 CAVOK 18/M07 Q1025 NOSIG
ZGSZ,2025-01-28 05:00,ZGSZ 280500Z 03004MPS 340V080 CAVOK 19/M06 Q1024 NOSIG
ZGSZ,2025-01-28 06:00,ZGSZ 280600Z 34005MPS 310V020 CAVOK 19/M06 Q1023 NOSIG
ZGSZ,2025-01-28 07:00,ZGSZ 280700Z 01004MPS 330V040 CAVOK 20/M05 Q1022 NOSIG
ZGSZ,2025-01-28 08:00,ZGSZ 280800Z 01004MPS 330V040 CAVOK 20/M06 Q1022 NOSIG
ZGSZ,2025-01-28 09:00,ZGSZ 280900Z 01004MPS 340V040 CAVOK 19/M05 Q1023 NOSIG
ZGSZ,2025-01-28 10:00,ZGSZ 281000Z 01004MPS CAVOK 18/M05 Q1023 NOSIG
ZGSZ,2025-01-28 11:00,ZGSZ 281100Z 04002MPS 010V070 CAVOK 17/M03 Q1024 NOSIG
ZGSZ,2025-01-28 12:00,ZGSZ 281200Z 05003MPS CAVOK 16/M01 Q1024 NOSIG
ZGSZ,2025-01-28 13:00,ZGSZ 281300Z 04003MPS 300V060 CAVOK 16/M02 Q1025 NOSIG
ZGSZ,2025-01-28 14:00,ZGSZ 281400Z 04003MPS CAVOK 15/M02 Q1025 NOSIG
ZGSZ,2025-01-28 15:00,ZGSZ 281500Z 03003MPS CAVOK 15/M01 Q1025 NOSIG
ZGSZ,2025-01-28 16:00,ZGSZ 281600Z 01002MPS CAVOK 15/M01 Q1026 NOSIG
ZGSZ,2025-01-28 17:00,ZGSZ 281700Z 03002MPS CAVOK 15/M02 Q1026 NOSIG
ZGSZ,2025-01-28 18:00,ZGSZ 281800Z 05002MPS CAVOK 15/M02 Q1025 NOSIG
ZGSZ,2025-01-28 19:00,ZGSZ 281900Z 05002MPS CAVOK 15/M02 Q1025 NOSIG
ZGSZ,2025-01-28 20:00,ZGSZ 282000Z 02002MPS CAVOK 14/M02 Q1025 NOSIG
ZGSZ,2025-01-28 21:00,ZGSZ 282100Z 04002MPS 360V070 CAVOK 14/M01 Q1025 NOSIG
ZGSZ,2025-01-28 22:00,ZGSZ 282200Z 06003MPS CAVOK 14/M01 Q1025 NOSIG
ZGSZ,2025-01-28 23:00,ZGSZ 282300Z 02002MPS 350V050 CAVOK 13/M01 Q1025 NOSIG
ZGSZ,2025-01-29 00:00,ZGSZ 290000Z 35003MPS 300V360 CAVOK 14/M01 Q1026 NOSIG
ZGSZ,2025-01-29 01:00,ZGSZ 290100Z 03003MPS CAVOK 16/M01 Q1026 NOSIG
ZGSZ,2025-01-29 02:00,ZGSZ 290200Z 03003MPS CAVOK 16/M03 Q1027 NOSIG
ZGSZ,2025-01-29 03:00,ZGSZ 290300Z 03003MPS 340V080 CAVOK 17/M03 Q1026 NOSIG
ZGSZ,2025-01-29 04:00,ZGSZ 290400Z 02003MPS 340V050 CAVOK 19/M02 Q1025 BECMG AT0540 27005MPS
ZGSZ,2025-01-29 05:00,ZGSZ 290500Z 27004MPS CAVOK 18/00 Q1024 NOSIG
ZGSZ,2025-01-29 06:00,ZGSZ 290600Z 25005MPS CAVOK 19/01 Q1023 NOSIG
ZGSZ,2025-01-29 07:00,ZGSZ 290700Z 23003MPS CAVOK 19/02 Q1022 NOSIG
ZGSZ,2025-01-29 08:00,ZGSZ 290800Z 21004MPS CAVOK 18/03 Q1021 NOSIG
ZGSZ,2025-01-29 09:00,ZGSZ 290900Z 21003MPS CAVOK 18/03 Q1021 BECMG AT1050 11005MPS
ZGSZ,2025-01-29 10:00,ZGSZ 291000Z 21003MPS CAVOK 17/04 Q1021 BECMG AT1130 11005MPS
ZGSZ,2025-01-29 11:00,ZGSZ 291100Z 21002MPS CAVOK 17/05 Q1021 NOSIG
ZGSZ,2025-01-29 12:00,ZGSZ 291200Z 19003MPS CAVOK 17/05 Q1021 BECMG AT1330 11005MPS
ZGSZ,2025-01-29 13:00,ZGSZ 291300Z 11005MPS CAVOK 16/03 Q1022 NOSIG
ZGSZ,2025-01-29 14:00,ZGSZ 291400Z 10004MPS CAVOK 15/05 Q1022 NOSIG
ZGSZ,2025-01-29 15:00,ZGSZ 291500Z 12003MPS CAVOK 14/07 Q1023 NOSIG
ZGSZ,2025-01-29 16:00,ZGSZ 291600Z 11004MPS 080V140 CAVOK 15/06 Q1023 NOSIG
ZGSZ,2025-01-29 17:00,ZGSZ 291700Z 09002MPS 060V140 CAVOK 14/06 Q1022 NOSIG
ZGSZ,2025-01-29 18:00,ZGSZ 291800Z 02002MPS 360V160 CAVOK 14/06 Q1022 NOSIG
ZGSZ,2025-01-29 19:00,ZGSZ 291900Z 03003MPS 010V090 CAVOK 14/06 Q1021 NOSIG
ZGSZ,2025-01-29 20:00,ZGSZ 292000Z 04003MPS 020V090 CAVOK 14/05 Q1021 NOSIG
ZGSZ,2025-01-29 21:00,ZGSZ 292100Z 06002MPS CAVOK 13/05 Q1021 NOSIG
ZGSZ,2025-01-29 22:00,ZGSZ 292200Z 07002MPS 060V120 CAVOK 13/06 Q1021 NOSIG
ZGSZ,2025-01-29 23:00,ZGSZ 292300Z 34001MPS CAVOK 13/05 Q1021 NOSIG
ZGSZ,2025-01-30 00:00,ZGSZ 300000Z 11002MPS 080V140 9999 BKN053 15/05 Q1021 NOSIG
ZGSZ,2025-01-30 01:00,ZGSZ 300100Z VRB02MPS 9999 BKN053 16/04 Q1022 NOSIG
ZGSZ,2025-01-30 02:00,ZGSZ 300200Z 10004MPS 070V140 9999 BKN053 17/05 Q1022 NOSIG
ZGSZ,2025-01-30 03:00,ZGSZ 300300Z 11004MPS 080V140 9999 FEW053 20/06 Q1021 NOSIG
ZGSZ,2025-01-30 04:00,ZGSZ 300400Z 10005MPS 060V120 CAVOK 20/07 Q1020 BECMG AT0530 20005MPS
ZGSZ,2025-01-30 05:00,ZGSZ 300500Z 11004MPS 070V150 CAVOK 21/09 Q1019 BECMG AT0620 20005MPS
ZGSZ,2025-01-30 06:00,ZGSZ 300600Z VRB03MPS CAVOK 22/10 Q1017 BECMG AT0640 20005MPS
ZGSZ,2025-01-30 07:00,ZGSZ 300700Z 22005MPS CAVOK 20/12 Q1016 NOSIG
ZGSZ,2025-01-30 08:00,ZGSZ 300800Z 21004MPS CAVOK 19/12 Q1016 NOSIG
ZGSZ,2025-01-30 09:00,ZGSZ 300900Z 18005MPS CAVOK 19/14 Q1016 BECMG AT1050 12005MPS
ZGSZ,2025-01-30 10:00,ZGSZ 301000Z 12007MPS CAVOK 20/09 Q1016 NOSIG
ZGSZ,2025-01-30 11:00,ZGSZ 301100Z 11005MPS 080V140 CAVOK 18/07 Q1017 NOSIG
ZGSZ,2025-01-30 12:00,ZGSZ 301200Z 10005MPS 9999 SCT043 18/06 Q1017 NOSIG
ZGSZ,2025-01-30 13:00,ZGSZ 301300Z 08005MPS 030V110 9999 FEW043 18/08 Q1018 NOSIG
ZGSZ,2025-01-30 14:00,ZGSZ 301400Z 11002MPS 060V150 9999 SCT033 18/08 Q1018 NOSIG
ZGSZ,2025-01-30 15:00,ZGSZ 301500Z 03002MPS 350V060 9999 SCT030 17/08 Q1018 NOSIG
ZGSZ,2025-01-30 16:00,ZGSZ 301600Z 03002MPS 360V080 CAVOK 17/08 Q1018 NOSIG
ZGSZ,2025-01-30 17:00,ZGSZ 301700Z 08002MPS 040V140 9999 BKN030 17/09 Q1018 NOSIG
ZGSZ,2025-01-30 18:00,ZGSZ 301800Z 06003MPS 9999 BKN030 17/10 Q1017 NOSIG
ZGSZ,2025-01-30 19:00,ZGSZ 301900Z 05004MPS 9999 FEW040 17/10 Q1016 NOSIG
ZGSZ,2025-01-30 20:00,ZGSZ 302000Z VRB01MPS 9999 FEW040 16/10 Q1016 NOSIG
ZGSZ,2025-01-30 21:00,ZGSZ 302100Z 03003MPS 9999 SCT033 17/09 Q1016 NOSIG
ZGSZ,2025-01-30 22:00,ZGSZ 302200Z 05002MPS CAVOK 16/08 Q1016 NOSIG
ZGSZ,2025-01-30 23:00,ZGSZ 302300Z VRB01MPS CAVOK 16/09 Q1016 NOSIG
ZGSZ,2025-01-31 00:00,ZGSZ 310000Z 14003MPS CAVOK 17/09 Q1016 NOSIG
ZGSZ,2025-01-31 01:00,ZGSZ 310100Z 13004MPS CAVOK 19/09 Q1017 NOSIG
ZGSZ,2025-01-31 02:00,ZGSZ 310200Z 12003MPS 090V180 CAVOK 21/10 Q1017 NOSIG
ZGSZ,2025-01-31 03:00,ZGSZ 310300Z 28004MPS CAVOK 20/10 Q1017 NOSIG
ZGSZ,2025-01-31 04:00,ZGSZ 310400Z 29004MPS CAVOK 21/11 Q1016 NOSIG
ZGSZ,2025-01-31 05:00,ZGSZ 310500Z 25003MPS 9999 BKN040 21/12 Q1015 NOSIG
ZGSZ,2025-01-31 06:00,ZGSZ 310600Z 21003MPS 9999 BKN040 20/12 Q1014 NOSIG
ZGSZ,2025-01-31 07:00,ZGSZ 310700Z 23003MPS 9999 BKN040 21/14 Q1013 NOSIG
ZGSZ,2025-01-31 08:00,ZGSZ 310800Z 25003MPS 9999 BKN040 20/13 Q1013 NOSIG
ZGSZ,2025-01-31 09:00,ZGSZ 310900Z VRB01MPS 9999 BKN033 21/13 Q1013 NOSIG
ZGSZ,2025-01-31 10:00,ZGSZ 311000Z 10005MPS 9999 BKN033 22/15 Q1013 NOSIG
ZGSZ,2025-01-31 11:00,ZGSZ 311100Z 11005MPS 9999 BKN030 21/15 Q1013 NOSIG
ZGSZ,2025-01-31 12:00,ZGSZ 311200Z 11004MPS 9999 BKN030 20/15 Q1014 NOSIG
ZGSZ,2025-01-31 13:00,ZGSZ 311300Z 03002MPS 340V120 9999 BKN030 20/15 Q1014 NOSIG
ZGSZ,2025-01-31 14:00,ZGSZ 311400Z 05004MPS 020V100 8000 -RA BKN024 19/16 Q1014 NOSIG
ZGSZ,2025-01-31 15:00,ZGSZ 311500Z VRB03MPS 9999 BKN024 19/16 Q1015 NOSIG
ZGSZ,2025-01-31 16:00,ZGSZ 311600Z 06003MPS 040V130 9999 BKN040 19/16 Q1015 NOSIG
ZGSZ,2025-01-31 17:00,ZGSZ 311700Z 06003MPS 020V100 9999 BKN040 19/16 Q1014 NOSIG
ZGSZ,2025-01-31 18:00,ZGSZ 311800Z 05003MPS 030V120 9999 BKN030 19/16 Q1014 NOSIG
ZGSZ,2025-01-31 19:00,ZGSZ 311900Z 11001MPS 9999 BKN030 19/16 Q1013 NOSIG
ZGSZ,2025-01-31 20:00,ZGSZ 312000Z 27002MPS 9999 BKN030 18/16 Q1013 NOSIG
ZGSZ,2025-01-31 21:00,ZGSZ 312100Z 17001MPS 9999 BKN030 18/16 Q1012 NOSIG
ZGSZ,2025-01-31 22:00,ZGSZ 312200Z 12002MPS 9999 BKN025 19/16 Q1013 NOSIG
ZGSZ,2025-01-31 23:00,ZGSZ 312300Z 31002MPS 9999 FEW030 17/16 Q1013 NOSIG
ZGSZ,2025-02-01 00:00,ZGSZ 010000Z 30002MPS 9999 BKN025 18/17 Q1014 NOSIG
ZGSZ,2025-02-01 01:00,ZGSZ 010100Z 30002MPS 8000 OVC020 19/17 Q1014 BECMG AT0220 BKN014
ZGSZ,2025-02-01 02:00,ZGSZ 010200Z 02002MPS 350V070 8000 BKN020 21/17 Q1015 BECMG AT0220 BKN014
ZGSZ,2025-02-01 03:00,ZGSZ 010300Z 08002MPS 020V120 9999 BKN014 BKN020 21/17 Q1014 BECMG AT0320 BKN020
ZGSZ,2025-02-01 04:00,ZGSZ 010400Z VRB02MPS 9999 BKN020 22/17 Q1014 NOSIG
ZGSZ,2025-02-01 05:00,ZGSZ 010500Z 21004MPS 9999 BKN020 22/17 Q1013 NOSIG
ZGSZ,2025-02-01 06:00,ZGSZ 010600Z 24003MPS 9999 BKN022 21/17 Q1011 NOSIG
ZGSZ,2025-02-01 07:00,ZGSZ 010700Z 22003MPS 9999 BKN022 22/17 Q1011 NOSIG
ZGSZ,2025-02-01 08:00,ZGSZ 010800Z 22003MPS 9999 BKN033 21/17 Q1010 NOSIG
ZGSZ,2025-02-01 09:00,ZGSZ 010900Z 23001MPS 9999 BKN033 21/17 Q1010 NOSIG
ZGSZ,2025-02-01 10:00,ZGSZ 011000Z 18002MPS 9999 BKN033 21/17 Q1011 NOSIG
ZGSZ,2025-02-01 11:00,ZGSZ 011100Z 18004MPS 9999 BKN033 20/17 Q1011 NOSIG
ZGSZ,2025-02-01 12:00,ZGSZ 011200Z 20003MPS 9999 BKN049 19/17 Q1011 NOSIG
ZGSZ,2025-02-01 13:00,ZGSZ 011300Z 18002MPS 9999 BKN048 19/17 Q1012 NOSIG
ZGSZ,2025-02-01 14:00,ZGSZ 011400Z 21001MPS 9999 BKN053 19/17 Q1013 NOSIG
ZGSZ,2025-02-01 15:00,ZGSZ 011500Z 18001MPS 9999 BKN054 19/17 Q1013 NOSIG
ZGSZ,2025-02-01 16:00,ZGSZ 011600Z 20002MPS 180V240 CAVOK 19/17 Q1013 NOSIG
ZGSZ,2025-02-01 17:00,ZGSZ 011700Z 20001MPS CAVOK 18/17 Q1013 NOSIG
ZGSZ,2025-02-01 18:00,ZGSZ 011800Z 19001MPS CAVOK 19/17 Q1013 NOSIG
ZGSZ,2025-02-01 19:00,ZGSZ 011900Z 14003MPS 100V160 CAVOK 19/17 Q1013 NOSIG
ZGSZ,2025-02-01 20:00,ZGSZ 012000Z VRB01MPS CAVOK 18/16 Q1013 NOSIG
ZGSZ,2025-02-01 21:00,ZGSZ 012100Z VRB01MPS 9999 SCT016 19/17 Q1013 NOSIG
ZGSZ,2025-02-01 22:00,ZGSZ 012200Z 10002MPS 060V140 9999 SCT020 20/17 Q1013 NOSIG
ZGSZ,2025-02-01 23:00,ZGSZ 012300Z 12005MPS 9999 SCT020 20/16 Q1013 NOSIG
ZGSZ,2025-02-02 00:00,ZGSZ 020000Z 11005MPS 9999 SCT016 20/16 Q1014 NOSIG
ZGSZ,2025-02-02 01:00,ZGSZ 020100Z 11005MPS 9999 SCT013 20/16 Q1014 BECMG AT0130 BKN013 OVC040
ZGSZ,2025-02-02 02:00,ZGSZ 020200Z 09002MPS 360V160 9999 BKN014 20/16 Q1015 BECMG AT0330 SCT016 BKN040
ZGSZ,2025-02-02 03:00,ZGSZ 020300Z 12003MPS 9999 BKN016 21/16 Q1015 NOSIG
ZGSZ,2025-02-02 04:00,ZGSZ 020400Z VRB01MPS 9999 SCT020 BKN050 21/16 Q1014 NOSIG
ZGSZ,2025-02-02 05:00,ZGSZ 020500Z 25003MPS 9999 BKN022 BKN043 21/16 Q1014 NOSIG
ZGSZ,2025-02-02 06:00,ZGSZ 020600Z 22003MPS 9999 BKN036 21/16 Q1013 NOSIG
ZGSZ,2025-02-02 07:00,ZGSZ 020700Z 23002MPS 9999 BKN036 20/16 Q1012 NOSIG
ZGSZ,2025-02-02 08:00,ZGSZ 020800Z 22003MPS 9999 SCT050 21/16 Q1012 NOSIG
ZGSZ,2025-02-02 09:00,ZGSZ 020900Z 19003MPS 9999 SCT033 20/16 Q1012 NOSIG
ZGSZ,2025-02-02 10:00,ZGSZ 021000Z 19002MPS 9999 BKN050 19/17 Q1013 NOSIG
ZGSZ,2025-02-02 11:00,ZGSZ 021100Z 25002MPS 220V280 9999 BKN026 19/17 Q1013 BECMG AT1230 34005MPS
ZGSZ,2025-02-02 12:00,ZGSZ 021200Z 27006MPS 9999 BKN020 19/16 Q1014 BECMG AT1330 35005MPS
ZGSZ,2025-02-02 13:00,ZGSZ 021300Z 31004MPS 9999 SCT013 BKN020 19/16 Q1015 NOSIG
ZGSZ,2025-02-02 14:00,ZGSZ 021400Z 36003MPS 310V060 6000 -RA SCT013 BKN020 19/16 Q1015 BECMG AT1530 BKN012 BKN020
ZGSZ,2025-02-02 15:00,ZGSZ 021500Z 05002MPS 8000 -RA SCT014 BKN020 18/16 Q1016 BECMG AT1530 BKN012 BKN020
ZGSZ,2025-02-02 16:00,ZGSZ 021600Z 32002MPS 290V350 3800 -RA BR FEW006 BKN010 OVC020 17/16 Q1016 BECMG AT1730 SCT010 BKN020
ZGSZ,2025-02-02 17:00,ZGSZ 021700Z 34004MPS 3500 -RA BR FEW006 BKN010 OVC020 16/16 Q1016 BECMG AT1730 SCT010 BKN020
ZGSZ,2025-02-02 18:00,ZGSZ 021800Z 36005MPS 7000 -RA SCT010 OVC020 16/15 Q1017 BECMG AT1930 BKN010 BKN020
ZGSZ,2025-02-02 19:00,ZGSZ 021900Z 36006MPS 6000 -RA SCT010 OVC020 15/14 Q1017 BECMG AT1930 BKN010 BKN020
ZGSZ,2025-02-02 20:00,ZGSZ 022000Z 02004MPS 6000 -RA BKN012 OVC020 15/13 Q1017 BECMG AT2130 BKN015 BKN020
ZGSZ,2025-02-02 21:00,ZGSZ 022100Z 36005MPS 6000 -RA BKN010 OVC020 14/13 Q1018 BECMG AT2130 SCT010 BKN020
ZGSZ,2025-02-02 22:00,ZGSZ 022200Z 36005MPS 8000 BKN015 BKN020 14/12 Q1018 NOSIG
ZGSZ,2025-02-02 23:00,ZGSZ 022300Z 01006MPS 8000 BKN014 BKN020 14/11 Q1019 BECMG AT2340 BKN018 BKN025
ZGSZ,2025-02-03 00:00,ZGSZ 030000Z 02006MPS 9000 -RA BKN015 BKN020 14/11 Q1020 BECMG AT0030 BKN012 BKN020
ZGSZ,2025-02-03 01:00,ZGSZ 030100Z 01005MPS 340V040 7000 -RA BKN014 BKN022 13/11 Q1021 BECMG AT0240 SCT016 BKN030
ZGSZ,2025-02-03 02:00,ZGSZ 030200Z 36007MPS 8000 -RA BKN014 BKN023 13/11 Q1022 BECMG AT0230 SCT016 BKN030
ZGSZ,2025-02-03 03:00,ZGSZ 030300Z 03005MPS 9999 SCT016 BKN040 14/10 Q1022 NOSIG
ZGSZ,2025-02-03 04:00,ZGSZ 030400Z 01004MPS 9999 SCT023 BKN036 14/11 Q1021 NOSIG
ZGSZ,2025-02-03 05:00,ZGSZ 030500Z 01007MPS 9999 BKN036 16/10 Q1020 NOSIG
ZGSZ,2025-02-03 06:00,ZGSZ 030600Z 35007MPS 9999 BKN030 16/09 Q1020 NOSIG
ZGSZ,2025-02-03 07:00,ZGSZ 030700Z 35007MPS 9999 BKN030 16/09 Q1019 NOSIG
ZGSZ,2025-02-03 08:00,ZGSZ 030800Z 36007MPS 9999 BKN030 16/08 Q1019 NOSIG
ZGSZ,2025-02-03 09:00,ZGSZ 030900Z 35006MPS 9999 BKN030 15/08 Q1020 NOSIG
ZGSZ,2025-02-03 10:00,ZGSZ 031000Z 35007MPS 9999 BKN030 15/07 Q1021 NOSIG
ZGSZ,2025-02-03 11:00,ZGSZ 031100Z 02006MPS 9999 BKN050 15/06 Q1021 NOSIG
ZGSZ,2025-02-03 12:00,ZGSZ 031200Z 01007MPS CAVOK 14/06 Q1022 NOSIG
ZGSZ,2025-02-03 13:00,ZGSZ 031300Z 02008MPS CAVOK 13/06 Q1023 NOSIG
ZGSZ,2025-02-03 14:00,ZGSZ 031400Z 03007MPS CAVOK 13/05 Q1023 NOSIG
ZGSZ,2025-02-03 15:00,ZGSZ 031500Z 36008MPS CAVOK 12/05 Q1024 NOSIG
ZGSZ,2025-02-03 16:00,ZGSZ 031600Z 01008MPS 9999 SCT046 12/05 Q1024 NOSIG
ZGSZ,2025-02-03 17:00,ZGSZ 031700Z 02008MPS CAVOK 12/05 Q1024 NOSIG
ZGSZ,2025-02-03 18:00,ZGSZ 031800Z 03007MPS CAVOK 12/04 Q1024 NOSIG
ZGSZ,2025-02-03 19:00,ZGSZ 031900Z 02007MPS 9999 SCT043 12/04 Q1024 NOSIG
ZGSZ,2025-02-03 20:00,ZGSZ 032000Z 02006MPS 9999 FEW033 12/04 Q1024 NOSIG
ZGSZ,2025-02-03 21:00,ZGSZ 032100Z 03006MPS CAVOK 11/04 Q1024 NOSIG
ZGSZ,2025-02-03 22:00,ZGSZ 032200Z 02006MPS CAVOK 11/04 Q1024 NOSIG
ZGSZ,2025-02-03 23:00,ZGSZ 032300Z 02007MPS CAVOK 11/03 Q1024 NOSIG
ZGSZ,2025-02-04 00:00,ZGSZ 040000Z 03008MPS 9999 BKN040 11/04 Q1025 NOSIG
ZGSZ,2025-02-04 01:00,ZGSZ 040100Z 03007MPS 9999 BKN040 12/04 Q1025 NOSIG
ZGSZ,2025-02-04 02:00,ZGSZ 040200Z 03007MPS CAVOK 13/04 Q1025 NOSIG
ZGSZ,2025-02-04 03:00,ZGSZ 040300Z 03006MPS CAVOK 15/05 Q1025 NOSIG
ZGSZ,2025-02-04 04:00,ZGSZ 040400Z 03005MPS 360V060 CAVOK 16/05 Q1024 BECMG AT0550 30004MPS
ZGSZ,2025-02-04 05:00,ZGSZ 040500Z 36005MPS CAVOK 17/05 Q1023 BECMG AT0640 30005MPS
ZGSZ,2025-02-04 06:00,ZGSZ 040600Z 36005MPS 330V050 CAVOK 18/05 Q1021 BECMG AT0720 30005MPS
ZGSZ,2025-02-04 07:00,ZGSZ 040700Z VRB03MPS CAVOK 18/04 Q1020 NOSIG
ZGSZ,2025-02-04 08:00,ZGSZ 040800Z 01003MPS 340V050 CAVOK 19/04 Q1019 NOSIG
ZGSZ,2025-02-04 09:00,ZGSZ 040900Z 36003MPS 340V040 CAVOK 18/04 Q1019 NOSIG
ZGSZ,2025-02-04 10:00,ZGSZ 041000Z 04003MPS CAVOK 17/03 Q1019 NOSIG
ZGSZ,2025-02-04 11:00,ZGSZ 041100Z 03002MPS CAVOK 17/03 Q1019 NOSIG
ZGSZ,2025-02-04 12:00,ZGSZ 041200Z 04002MPS 9999 SCT053 17/03 Q1020 NOSIG
ZGSZ,2025-02-04 13:00,ZGSZ 041300Z 04002MPS 9999 FEW053 16/04 Q1020 NOSIG
ZGSZ,2025-02-04 14:00,ZGSZ 041400Z 03003MPS 9999 FEW053 15/04 Q1021 NOSIG
ZGSZ,2025-02-04 15:00,ZGSZ 041500Z 07002MPS 9999 FEW053 15/04 Q1021 NOSIG
ZGSZ,2025-02-04 16:00,ZGSZ 041600Z 12004MPS 9999 FEW053 15/03 Q1021 NOSIG
ZGSZ,2025-02-04 17:00,ZGSZ 041700Z 10002MPS 060V140 CAVOK 14/03 Q1021 NOSIG
ZGSZ,2025-02-04 18:00,ZGSZ 041800Z 06002MPS CAVOK 14/04 Q1020 NOSIG
ZGSZ,2025-02-04 19:00,ZGSZ 041900Z 06001MPS CAVOK 13/04 Q1020 NOSIG
ZGSZ,2025-02-04 20:00,ZGSZ 042000Z 04003MPS CAVOK 13/05 Q1020 NOSIG
ZGSZ,2025-02-04 21:00,ZGSZ 042100Z 05004MPS CAVOK 13/06 Q1020 NOSIG
ZGSZ,2025-02-04 22:00,ZGSZ 042200Z 05004MPS CAVOK 12/07 Q1020 NOSIG
ZGSZ,2025-02-04 23:00,ZGSZ 042300Z 05004MPS CAVOK 12/07 Q1020 NOSIG
ZGSZ,2025-02-05 00:00,ZGSZ 050000Z 04003MPS CAVOK 13/07 Q1020 NOSIG
ZGSZ,2025-02-05 01:00,ZGSZ 050100Z 05003MPS 020V080 CAVOK 14/06 Q1021 NOSIG
ZGSZ,2025-02-05 02:00,ZGSZ 050200Z 06003MPS 010V090 CAVOK 16/07 Q1021 NOSIG
ZGSZ,2025-02-05 03:00,ZGSZ 050300Z 04003MPS CAVOK 17/05 Q1021 BECMG AT0450 30005MPS
ZGSZ,2025-02-05 04:00,ZGSZ 050400Z 20003MPS 140V240 CAVOK 18/06 Q1020 BECMG AT0520 28005MPS
ZGSZ,2025-02-05 05:00,ZGSZ 050500Z 27005MPS CAVOK 18/06 Q1019 NOSIG
ZGSZ,2025-02-05 06:00,ZGSZ 050600Z 26003MPS 230V290 CAVOK 18/06 Q1018 NOSIG
ZGSZ,2025-02-05 07:00,ZGSZ 050700Z 26002MPS 230V290 CAVOK 18/07 Q1017 NOSIG
ZGSZ,2025-02-05 08:00,ZGSZ 050800Z 28003MPS CAVOK 18/06 Q1017 NOSIG
ZGSZ,2025-02-05 09:00,ZGSZ 050900Z 30003MPS CAVOK 18/06 Q1017 NOSIG
ZGSZ,2025-02-05 10:00,ZGSZ 051000Z 32002MPS CAVOK 18/06 Q1017 NOSIG
ZGSZ,2025-02-05 11:00,ZGSZ 051100Z 32002MPS CAVOK 17/06 Q1018 NOSIG
ZGSZ,2025-02-05 12:00,ZGSZ 051200Z 18003MPS CAVOK 18/07 Q1018 NOSIG
ZGSZ,2025-02-05 13:00,ZGSZ 051300Z VRB01MPS CAVOK 17/09 Q1019 NOSIG
ZGSZ,2025-02-05 14:00,ZGSZ 051400Z VRB01MPS CAVOK 18/07 Q1018 NOSIG
ZGSZ,2025-02-05 15:00,ZGSZ 051500Z 05002MPS 350V100 9999 BKN053 17/06 Q1018 NOSIG
ZGSZ,2025-02-05 16:00,ZGSZ 051600Z 05002MPS 030V100 CAVOK 17/05 Q1018 NOSIG
ZGSZ,2025-02-05 17:00,ZGSZ 051700Z 03002MPS 350V080 CAVOK 17/05 Q1018 NOSIG
ZGSZ,2025-02-05 18:00,ZGSZ 051800Z 05002MPS 360V140 CAVOK 17/05 Q1018 NOSIG
ZGSZ,2025-02-05 19:00,ZGSZ 051900Z VRB01MPS CAVOK 17/06 Q1018 NOSIG
ZGSZ,2025-02-05 20:00,ZGSZ 052000Z 03002MPS CAVOK 16/07 Q1018 NOSIG
ZGSZ,2025-02-05 21:00,ZGSZ 052100Z 04002MPS 010V080 CAVOK 16/07 Q1018 NOSIG
ZGSZ,2025-02-05 22:00,ZGSZ 052200Z 05003MPS 030V100 CAVOK 17/08 Q1018 NOSIG
ZGSZ,2025-02-05 23:00,ZGSZ 052300Z 07003MPS CAVOK 16/08 Q1018 NOSIG
ZGSZ,2025-02-06 00:00,ZGSZ 060000Z 06002MPS 9999 BKN050 16/08 Q1019 NOSIG
ZGSZ,2025-02-06 01:00,ZGSZ 060100Z 06002MPS 030V140 9999 BKN046 17/08 Q1019 NOSIG
ZGSZ,2025-02-06 02:00,ZGSZ 060200Z VRB02MPS 9999 BKN035 17/08 Q1019 NOSIG
ZGSZ,2025-02-06 03:00,ZGSZ 060300Z 03002MPS 340V100 9999 BKN033 18/08 Q1019 NOSIG
ZGSZ,2025-02-06 04:00,ZGSZ 060400Z VRB02MPS 9999 BKN033 18/07 Q1018 NOSIG
ZGSZ,2025-02-06 05:00,ZGSZ 060500Z 02003MPS 350V090 9999 BKN033 18/08 Q1017 NOSIG
ZGSZ,2025-02-06 06:00,ZGSZ 060600Z 02003MPS 320V110 9999 BKN033 19/08 Q1016 NOSIG
ZGSZ,2025-02-06 07:00,ZGSZ 060700Z 36003MPS 320V030 9999 BKN036 19/08 Q1015 NOSIG
ZGSZ,2025-02-06 08:00,ZGSZ 060800Z 36003MPS 320V030 9999 BKN036 19/08 Q1015 NOSIG
ZGSZ,2025-02-06 09:00,ZGSZ 060900Z 01004MPS 9999 BKN036 19/08 Q1015 NOSIG
ZGSZ,2025-02-06 10:00,ZGSZ 061000Z 02004MPS 9999 BKN043 19/08 Q1016 NOSIG
ZGSZ,2025-02-06 11:00,ZGSZ 061100Z 02004MPS 9999 BKN036 18/08 Q1017 NOSIG
ZGSZ,2025-02-06 12:00,ZGSZ 061200Z 04005MPS 9999 BKN033 18/07 Q1017 NOSIG
ZGSZ,2025-02-06 13:00,ZGSZ 061300Z 04005MPS 9999 BKN033 18/07 Q1018 NOSIG
ZGSZ,2025-02-06 14:00,ZGSZ 061400Z 03005MPS 9999 BKN033 17/07 Q1018 NOSIG
ZGSZ,2025-02-06 15:00,ZGSZ 061500Z 03005MPS 9999 BKN033 17/07 Q1019 NOSIG
ZGSZ,2025-02-06 16:00,ZGSZ 061600Z 02005MPS 9999 BKN036 16/07 Q1019 NOSIG
ZGSZ,2025-02-06 17:00,ZGSZ 061700Z 02006MPS 9999 BKN036 16/07 Q1020 NOSIG
ZGSZ,2025-02-06 18:00,ZGSZ 061800Z 04007MPS 9999 BKN036 15/07 Q1020 NOSIG
ZGSZ,2025-02-06 19:00,ZGSZ 061900Z 01007MPS 9999 BKN040 15/07 Q1020 NOSIG
ZGSZ,2025-02-06 20:00,ZGSZ 062000Z 02006MPS 9999 BKN040 14/08 Q1020 NOSIG
ZGSZ,2025-02-06 21:00,ZGSZ 062100Z 02007MPS 9999 BKN040 13/08 Q1020 NOSIG
ZGSZ,2025-02-06 22:00,ZGSZ 062200Z 01006MPS 9999 BKN040 13/08 Q1021 NOSIG
ZGSZ,2025-02-06 23:00,ZGSZ 062300Z 02006MPS 9999 BKN036 13/08 Q1021 NOSIG
ZGSZ,2025-02-07 00:00,ZGSZ 070000Z 02006MPS 9999 BKN036 13/08 Q1022 NOSIG
ZGSZ,2025-02-07 01:00,ZGSZ 070100Z 01007MPS 9999 OVC036 13/07 Q1023 NOSIG
ZGSZ,2025-02-07 02:00,ZGSZ 070200Z 36007MPS 9999 OVC036 14/07 Q1023 NOSIG
ZGSZ,2025-02-07 03:00,ZGSZ 070300Z 01006MPS 340V040 9999 OVC033 15/07 Q1023 NOSIG
ZGSZ,2025-02-07 04:00,ZGSZ 070400Z 02006MPS 9999 OVC033 15/07 Q1023 NOSIG
ZGSZ,2025-02-07 05:00,ZGSZ 070500Z 02007MPS 9999 OVC033 15/07 Q1022 NOSIG
ZGSZ,2025-02-07 06:00,ZGSZ 070600Z 03006MPS 350V050 9999 OVC033 15/07 Q1022 NOSIG
ZGSZ,2025-02-07 07:00,ZGSZ 070700Z 01008MPS 9999 OVC040 16/07 Q1021 NOSIG
ZGSZ,2025-02-07 08:00,ZGSZ 070800Z 36008MPS 9999 BKN040 15/06 Q1021 NOSIG
ZGSZ,2025-02-07 09:00,ZGSZ 070900Z 02008MPS 9999 BKN040 14/06 Q1022 NOSIG
ZGSZ,2025-02-07 10:00,ZGSZ 071000Z 01009MPS 9999 BKN040 13/06 Q1023 NOSIG
ZGSZ,2025-02-07 11:00,ZGSZ 071100Z 01009MPS CAVOK 13/05 Q1023 NOSIG
ZGSZ,2025-02-07 12:00,ZGSZ 071200Z 01009MPS CAVOK 12/05 Q1024 NOSIG
ZGSZ,2025-02-07 13:00,ZGSZ 071300Z 03006MPS 9999 FEW040 12/04 Q1025 NOSIG
ZGSZ,2025-02-07 14:00,ZGSZ 071400Z 04007MPS CAVOK 12/04 Q1026 NOSIG
ZGSZ,2025-02-07 15:00,ZGSZ 071500Z 03008MPS CAVOK 12/03 Q1026 NOSIG
ZGSZ,2025-02-07 16:00,ZGSZ 071600Z 03005MPS CAVOK 12/02 Q1026 NOSIG
ZGSZ,2025-02-07 17:00,ZGSZ 071700Z 02007MPS 9999 SCT050 12/01 Q1026 NOSIG
ZGSZ,2025-02-07 18:00,ZGSZ 071800Z 02006MPS 9999 SCT050 11/00 Q1025 NOSIG
ZGSZ,2025-02-07 19:00,ZGSZ 071900Z 03006MPS 9999 SCT053 11/M00 Q1025 NOSIG
ZGSZ,2025-02-07 20:00,ZGSZ 072000Z 01007MPS 9999 FEW053 11/M01 Q1025 NOSIG
ZGSZ,2025-02-07 21:00,ZGSZ 072100Z 01006MPS CAVOK 11/M02 Q1025 NOSIG
ZGSZ,2025-02-07 22:00,ZGSZ 072200Z 02005G10MPS 340V040 CAVOK 11/M03 Q1026 NOSIG
ZGSZ,2025-02-07 23:00,ZGSZ 072300Z 03007MPS CAVOK 11/M04 Q1026 NOSIG
ZGSZ,2025-02-08 00:00,ZGSZ 080000Z 04005MPS CAVOK 11/M05 Q1027 NOSIG
ZGSZ,2025-02-08 01:00,ZGSZ 080100Z 01007MPS CAVOK 12/M05 Q1027 NOSIG
ZGSZ,2025-02-08 02:00,ZGSZ 080200Z 03008MPS CAVOK 12/M05 Q1027 NOSIG
ZGSZ,2025-02-08 03:00,ZGSZ 080300Z 04008MPS CAVOK 13/M05 Q1027 NOSIG
ZGSZ,2025-02-08 04:00,ZGSZ 080400Z 36006MPS CAVOK 15/M04 Q1026 NOSIG
ZGSZ,2025-02-08 05:00,ZGSZ 080500Z 02006MPS 320V040 CAVOK 15/M04 Q1025 NOSIG
ZGSZ,2025-02-08 06:00,ZGSZ 080600Z 02006MPS 360V060 CAVOK 16/M04 Q1024 NOSIG
ZGSZ,2025-02-08 07:00,ZGSZ 080700Z 03004MPS CAVOK 16/M04 Q1023 NOSIG
ZGSZ,2025-02-08 08:00,ZGSZ 080800Z 03005MPS CAVOK 16/M03 Q1023 NOSIG
ZGSZ,2025-02-08 09:00,ZGSZ 080900Z 01005MPS CAVOK 16/M03 Q1023 NOSIG
ZGSZ,2025-02-08 10:00,ZGSZ 081000Z 01006MPS CAVOK 15/M02 Q1024 NOSIG
ZGSZ,2025-02-08 11:00,ZGSZ 081100Z 03005MPS CAVOK 15/M03 Q1024 NOSIG
ZGSZ,2025-02-08 12:00,ZGSZ 081200Z 03006MPS CAVOK 15/M03 Q1025 NOSIG
ZGSZ,2025-02-08 13:00,ZGSZ 081300Z 01004MPS CAVOK 15/M03 Q1025 NOSIG
ZGSZ,2025-02-08 14:00,ZGSZ 081400Z 02005MPS CAVOK 15/M04 Q1026 NOSIG
ZGSZ,2025-02-08 15:00,ZGSZ 081500Z 03004MPS CAVOK 15/M03 Q1026 NOSIG
ZGSZ,2025-02-08 16:00,ZGSZ 081600Z 01006MPS CAVOK 14/M03 Q1026 NOSIG
ZGSZ,2025-02-08 17:00,ZGSZ 081700Z 04005MPS CAVOK 14/M04 Q1026 NOSIG
ZGSZ,2025-02-08 18:00,ZGSZ 081800Z 03005MPS CAVOK 13/M04 Q1026 NOSIG
ZGSZ,2025-02-08 19:00,ZGSZ 081900Z 01005MPS CAVOK 13/M04 Q1025 NOSIG
ZGSZ,2025-02-08 20:00,ZGSZ 082000Z 01004MPS CAVOK 12/M04 Q1025 NOSIG
ZGSZ,2025-02-08 21:00,ZGSZ 082100Z 01006MPS CAVOK 11/M04 Q1025 NOSIG
ZGSZ,2025-02-08 22:00,ZGSZ 082200Z 01004MPS CAVOK 10/M04 Q1026 NOSIG
ZGSZ,2025-02-08 23:00,ZGSZ 082300Z 03005MPS CAVOK 10/M05 Q1026 NOSIG
ZGSZ,2025-02-09 00:00,ZGSZ 090000Z 04006MPS CAVOK 10/M06 Q1026 NOSIG
ZGSZ,2025-02-09 01:00,ZGSZ 090100Z 01005MPS CAVOK 12/M05 Q1026 NOSIG
ZGSZ,2025-02-09 02:00,ZGSZ 090200Z 03005MPS CAVOK 12/M06 Q1027 NOSIG
ZGSZ,2025-02-09 03:00,ZGSZ 090300Z 05005MPS 010V070 CAVOK 13/M07 Q1026 BECMG AT0450 33005MPS
ZGSZ,2025-02-09 04:00,ZGSZ 090400Z 06005MPS 020V080 CAVOK 15/M05 Q1025 BECMG AT0520 33005MPS
ZGSZ,2025-02-09 05:00,ZGSZ 090500Z 35004MPS CAVOK 16/M05 Q1023 NOSIG
ZGSZ,2025-02-09 06:00,ZGSZ 090600Z 36004MPS 240V030 CAVOK 17/M05 Q1021 NOSIG
ZGSZ,2025-02-09 07:00,ZGSZ 090700Z 30004MPS 270V330 CAVOK 16/M01 Q1020 NOSIG
ZGSZ,2025-02-09 08:00,ZGSZ 090800Z 30005MPS CAVOK 17/M02 Q1020 BECMG AT0950 24005MPS
ZGSZ,2025-02-09 09:00,ZGSZ 090900Z 28004MPS CAVOK 17/M01 Q1020 NOSIG
ZGSZ,2025-02-09 10:00,ZGSZ 091000Z 31003MPS CAVOK 16/M00 Q1021 NOSIG
ZGSZ,2025-02-09 11:00,ZGSZ 091100Z 33002MPS CAVOK 15/00 Q1021 NOSIG
ZGSZ,2025-02-09 12:00,ZGSZ 091200Z 12004MPS CAVOK 15/00 Q1022 NOSIG
ZGSZ,2025-02-09 13:00,ZGSZ 091300Z 12003MPS 090V150 CAVOK 15/01 Q1022 NOSIG
ZGSZ,2025-02-09 14:00,ZGSZ 091400Z 11005MPS CAVOK 14/03 Q1023 NOSIG
ZGSZ,2025-02-09 15:00,ZGSZ 091500Z 11004MPS CAVOK 13/04 Q1024 NOSIG
ZGSZ,2025-02-09 16:00,ZGSZ 091600Z 10003MPS 070V130 CAVOK 13/06 Q1024 NOSIG
ZGSZ,2025-02-09 17:00,ZGSZ 091700Z 07002MPS 010V110 CAVOK 13/06 Q1024 NOSIG
ZGSZ,2025-02-09 18:00,ZGSZ 091800Z 06003MPS CAVOK 12/07 Q1023 NOSIG
ZGSZ,2025-02-09 19:00,ZGSZ 091900Z VRB01MPS CAVOK 12/07 Q1023 NOSIG
ZGSZ,2025-02-09 20:00,ZGSZ 092000Z 06003MPS CAVOK 12/07 Q1022 NOSIG
ZGSZ,2025-02-09 21:00,ZGSZ 092100Z 06003MPS CAVOK 11/07 Q1022 NOSIG
ZGSZ,2025-02-09 22:00,ZGSZ 092200Z 05002MPS 020V080 CAVOK 11/06 Q1022 NOSIG
ZGSZ,2025-02-09 23:00,ZGSZ 092300Z 03004MPS CAVOK 12/06 Q1023 NOSIG
ZGSZ,2025-02-10 00:00,ZGSZ 100000Z 03003MPS CAVOK 12/05 Q1023 NOSIG
ZGSZ,2025-02-10 01:00,ZGSZ 100100Z 05003MPS CAVOK 14/05 Q1024 NOSIG
ZGSZ,2025-02-10 02:00,ZGSZ 100200Z 01005MPS 340V060 CAVOK 16/06 Q1024 BECMG AT0350 30005MPS
ZGSZ,2025-02-10 03:00,ZGSZ 100300Z 36005MPS CAVOK 17/05 Q1024 BECMG AT0450 30005MPS
ZGSZ,2025-02-10 04:00,ZGSZ 100400Z VRB02MPS CAVOK 19/04 Q1022 BECMG AT0520 30005MPS
ZGSZ,2025-02-10 05:00,ZGSZ 100500Z 29005MPS CAVOK 18/07 Q1021 NOSIG
ZGSZ,2025-02-10 06:00,ZGSZ 100600Z 28005MPS CAVOK 18/06 Q1019 NOSIG
ZGSZ,2025-02-10 07:00,ZGSZ 100700Z 27005MPS CAVOK 19/06 Q1019 BECMG AT0840 20004MPS
ZGSZ,2025-02-10 08:00,ZGSZ 100800Z 21003MPS CAVOK 19/07 Q1018 NOSIG
ZGSZ,2025-02-10 09:00,ZGSZ 100900Z 18004MPS CAVOK 17/09 Q1018 NOSIG
ZGSZ,2025-02-10 10:00,ZGSZ 101000Z 18005MPS CAVOK 16/09 Q1019 NOSIG
ZGSZ,2025-02-10 11:00,ZGSZ 101100Z 17003MPS CAVOK 16/10 Q1019 NOSIG
ZGSZ,2025-02-10 12:00,ZGSZ 101200Z 18002MPS CAVOK 16/10 Q1020 NOSIG
ZGSZ,2025-02-10 13:00,ZGSZ 101300Z 17002MPS CAVOK 16/10 Q1020 NOSIG
ZGSZ,2025-02-10 14:00,ZGSZ 101400Z 12003MPS CAVOK 16/09 Q1021 NOSIG
ZGSZ,2025-02-10 15:00,ZGSZ 101500Z 10002MPS 080V140 CAVOK 16/09 Q1021 NOSIG
ZGSZ,2025-02-10 16:00,ZGSZ 101600Z 08002MPS 050V130 CAVOK 16/12 Q1020 NOSIG
ZGSZ,2025-02-10 17:00,ZGSZ 101700Z 03003MPS 360V080 CAVOK 16/10 Q1020 NOSIG
ZGSZ,2025-02-10 18:00,ZGSZ 101800Z VRB02MPS CAVOK 15/11 Q1020 NOSIG
ZGSZ,2025-02-10 19:00,ZGSZ 101900Z 02003MPS 010V080 9999 SCT050 15/11 Q1019 NOSIG
ZGSZ,2025-02-10 20:00,ZGSZ 102000Z VRB01MPS 9999 BKN048 15/11 Q1019 NOSIG
ZGSZ,2025-02-10 21:00,ZGSZ 102100Z 07001MPS 9999 OVC045 16/11 Q1019 NOSIG
ZGSZ,2025-02-10 22:00,ZGSZ 102200Z 03003MPS 360V140 9999 OVC045 16/10 Q1019 NOSIG
ZGSZ,2025-02-10 23:00,ZGSZ 102300Z 06001MPS 9999 OVC048 15/10 Q1020 NOSIG
ZGSZ,2025-02-11 00:00,ZGSZ 110000Z 04002MPS 9999 BKN050 16/11 Q1020 NOSIG
ZGSZ,2025-02-11 01:00,ZGSZ 110100Z 04003MPS 010V070 9999 BKN050 17/11 Q1021 NOSIG
ZGSZ,2025-02-11 02:00,ZGSZ 110200Z 02004MPS CAVOK 20/10 Q1020 NOSIG
ZGSZ,2025-02-11 03:00,ZGSZ 110300Z 03002MPS 350V070 CAVOK 21/11 Q1020 NOSIG
ZGSZ,2025-02-11 04:00,ZGSZ 110400Z 24004MPS CAVOK 20/13 Q1019 NOSIG
ZGSZ,2025-02-11 05:00,ZGSZ 110500Z 23003MPS 9999 BKN050 20/12 Q1018 NOSIG
ZGSZ,2025-02-11 06:00,ZGSZ 110600Z 22003MPS 9999 BKN043 20/12 Q1017 NOSIG
ZGSZ,2025-02-11 07:00,ZGSZ 110700Z 18004MPS 9999 BKN043 19/12 Q1017 NOSIG
ZGSZ,2025-02-11 08:00,ZGSZ 110800Z 19002MPS 9999 BKN043 18/14 Q1016 NOSIG
ZGSZ,2025-02-11 09:00,ZGSZ 110900Z 18003MPS 9999 BKN043 18/13 Q1016 NOSIG
ZGSZ,2025-02-11 10:00,ZGSZ 111000Z 19004MPS 9999 BKN033 18/14 Q1017 NOSIG
ZGSZ,2025-02-11 11:00,ZGSZ 111100Z 19002MPS 9999 BKN033 18/15 Q1017 NOSIG
ZGSZ,2025-02-11 12:00,ZGSZ 111200Z 19002MPS 9999 BKN033 18/15 Q1017 NOSIG
ZGSZ,2025-02-11 13:00,ZGSZ 111300Z 18001MPS 9999 BKN033 18/15 Q1018 NOSIG
ZGSZ,2025-02-11 14:00,ZGSZ 111400Z 20001MPS 9999 BKN050 18/15 Q1018 NOSIG
ZGSZ,2025-02-11 15:00,ZGSZ 111500Z 20002MPS 9999 BKN050 18/15 Q1018 NOSIG
ZGSZ,2025-02-11 16:00,ZGSZ 111600Z VRB01MPS 9999 BKN040 17/15 Q1018 NOSIG
ZGSZ,2025-02-11 17:00,ZGSZ 111700Z VRB01MPS 9999 -RA BKN030 17/16 Q1018 NOSIG
ZGSZ,2025-02-11 18:00,ZGSZ 111800Z 35002MPS 330V040 9999 -RA OVC023 17/16 Q1018 NOSIG
ZGSZ,2025-02-11 19:00,ZGSZ 111900Z 33002MPS 6000 -RA OVC023 17/16 Q1017 NOSIG
ZGSZ,2025-02-11 20:00,ZGSZ 112000Z VRB01MPS 7000 -RA OVC023 18/16 Q1017 NOSIG
ZGSZ,2025-02-11 21:00,ZGSZ 112100Z 02003MPS 5000 -RA BR FEW012 OVC027 18/17 Q1016 NOSIG
ZGSZ,2025-02-11 22:00,ZGSZ 112200Z 04002MPS 6000 -RA SCT013 OVC027 18/17 Q1017 BECMG AT2240 BKN013 OVC030
ZGSZ,2025-02-11 23:00,ZGSZ 112300Z 01001MPS 5000 -RA BR BKN013 OVC024 18/17 Q1017 BECMG AT0020 SCT016 OVC030
ZGSZ,2025-02-12 00:00,ZGSZ 120000Z 02003MPS 2500 -RA BR BKN013 OVC024 18/17 Q1018 BECMG AT0040 3500 SCT016 OVC030
ZGSZ,2025-02-12 01:00,ZGSZ 120100Z 36002MPS 2800 -RA BR SCT013 OVC024 18/17 Q1018 BECMG AT0230 3500
ZGSZ,2025-02-12 02:00,ZGSZ 120200Z 01002MPS 2800 -RA BR SCT013 OVC024 19/18 Q1019 BECMG AT0230 3500
ZGSZ,2025-02-12 03:00,ZGSZ 120300Z 02003MPS 340V050 3200 -RA BR SCT013 OVC024 19/18 Q1019 NOSIG
ZGSZ,2025-02-12 04:00,ZGSZ 120400Z 35004MPS 6000 -RA SCT008 OVC024 20/18 Q1018 NOSIG
ZGSZ,2025-02-12 05:00,ZGSZ 120500Z 02003MPS 7000 SCT010 OVC026 21/19 Q1017 NOSIG
ZGSZ,2025-02-12 06:00,ZGSZ 120600Z 05003MPS 020V080 9999 SCT015 OVC030 22/18 Q1016 NOSIG
ZGSZ,2025-02-12 07:00,ZGSZ 120700Z 13003MPS 090V160 9999 SCT015 OVC040 23/19 Q1015 NOSIG
ZGSZ,2025-02-12 08:00,ZGSZ 120800Z 19003MPS 6000 SCT040 20/18 Q1015 NOSIG
ZGSZ,2025-02-12 09:00,ZGSZ 120900Z 23003MPS 6000 SCT040 20/18 Q1015 NOSIG
ZGSZ,2025-02-12 10:00,ZGSZ 121000Z 22002MPS 6000 SCT040 19/18 Q1016 NOSIG
ZGSZ,2025-02-12 11:00,ZGSZ 121100Z 18002MPS 6000 SCT040 19/18 Q1016 NOSIG
ZGSZ,2025-02-12 12:00,ZGSZ 121200Z 17002MPS 6000 NSC 19/18 Q1016 NOSIG
ZGSZ,2025-02-12 13:00,ZGSZ 121300Z 17002MPS 6000 NSC 19/18 Q1016 NOSIG
ZGSZ,2025-02-12 14:00,ZGSZ 121400Z 20002MPS 5000 BR NSC 19/17 Q1017 BECMG AT1520 36005MPS
ZGSZ,2025-02-12 15:00,ZGSZ 121500Z 19002MPS 4500 BR NSC 18/17 Q1017 BECMG AT1620 36005MPS
ZGSZ,2025-02-12 16:00,ZGSZ 121600Z 31001MPS 6000 NSC 18/17 Q1018 BECMG AT1650 01005MPS
ZGSZ,2025-02-12 17:00,ZGSZ 121700Z 32001MPS 7000 FEW040 18/17 Q1018 NOSIG
ZGSZ,2025-02-12 18:00,ZGSZ 121800Z 29002MPS 7000 SCT040 19/18 Q1018 NOSIG
ZGSZ,2025-02-12 19:00,ZGSZ 121900Z 33004MPS 4500 -RA BR FEW012 SCT040 18/17 Q1017 NOSIG
ZGSZ,2025-02-12 20:00,ZGSZ 122000Z 35004MPS 9999 FEW012 SCT040 19/15 Q1018 NOSIG
ZGSZ,2025-02-12 21:00,ZGSZ 122100Z 01005MPS 9999 FEW012 SCT040 19/12 Q1018 NOSIG
ZGSZ,2025-02-12 22:00,ZGSZ 122200Z 03006MPS 9999 BKN040 18/11 Q1018 NOSIG
ZGSZ,2025-02-12 23:00,ZGSZ 122300Z 02007MPS 9999 BKN040 17/10 Q1019 NOSIG
ZGSZ,2025-02-13 00:00,ZGSZ 130000Z 03006MPS CAVOK 17/10 Q1020 NOSIG
ZGSZ,2025-02-13 01:00,ZGSZ 130100Z 03006MPS 9999 BKN036 17/09 Q1021 NOSIG
ZGSZ,2025-02-13 02:00,ZGSZ 130200Z 02005MPS 9999 BKN036 18/09 Q1021 NOSIG
ZGSZ,2025-02-13 03:00,ZGSZ 130300Z 04005MPS 9999 BKN036 19/09 Q1021 NOSIG
ZGSZ,2025-02-13 04:00,ZGSZ 130400Z 01004MPS 9999 BKN040 20/09 Q1020 NOSIG
ZGSZ,2025-02-13 05:00,ZGSZ 130500Z 36004MPS 320V030 9999 BKN036 21/09 Q1019 NOSIG
ZGSZ,2025-02-13 06:00,ZGSZ 130600Z 07002MPS 020V140 9999 BKN043 22/10 Q1018 NOSIG
ZGSZ,2025-02-13 07:00,ZGSZ 130700Z 19003MPS 9999 BKN043 20/11 Q1018 NOSIG
ZGSZ,2025-02-13 08:00,ZGSZ 130800Z 22003MPS 9999 BKN043 20/12 Q1017 NOSIG
ZGSZ,2025-02-13 09:00,ZGSZ 130900Z 21003MPS 9999 BKN043 19/12 Q1017 NOSIG
ZGSZ,2025-02-13 10:00,ZGSZ 131000Z 23002MPS 9999 SCT043 19/12 Q1017 NOSIG
ZGSZ,2025-02-13 11:00,ZGSZ 131100Z 17002MPS CAVOK 18/12 Q1018 BECMG AT1240 10005MPS
ZGSZ,2025-02-13 12:00,ZGSZ 131200Z 18003MPS CAVOK 18/15 Q1019 BECMG AT1240 12005MPS
ZGSZ,2025-02-13 13:00,ZGSZ 131300Z 18002MPS 9999 BKN036 18/15 Q1019 BECMG AT1320 12005MPS
ZGSZ,2025-02-13 14:00,ZGSZ 131400Z VRB01MPS 9999 FEW040 19/12 Q1019 NOSIG
ZGSZ,2025-02-13 15:00,ZGSZ 131500Z 00000MPS CAVOK 17/14 Q1020 NOSIG
ZGSZ,2025-02-13 16:00,ZGSZ 131600Z VRB01MPS CAVOK 16/14 Q1020 NOSIG
ZGSZ,2025-02-13 17:00,ZGSZ 131700Z 11003MPS CAVOK 17/13 Q1020 NOSIG
ZGSZ,2025-02-13 18:00,ZGSZ 131800Z 11004MPS CAVOK 16/13 Q1019 NOSIG
ZGSZ,2025-02-13 19:00,ZGSZ 131900Z 11002MPS 9999 SCT040 16/13 Q1018 NOSIG
ZGSZ,2025-02-13 20:00,ZGSZ 132000Z 04002MPS 020V090 9999 BKN040 17/13 Q1018 NOSIG
ZGSZ,2025-02-13 21:00,ZGSZ 132100Z 07002MPS 9999 BKN033 17/13 Q1018 NOSIG
ZGSZ,2025-02-13 22:00,ZGSZ 132200Z 10002MPS 9999 BKN033 17/13 Q1018 NOSIG
ZGSZ,2025-02-13 23:00,ZGSZ 132300Z 12003MPS 090V180 9999 BKN033 17/13 Q1018 NOSIG
ZGSZ,2025-02-14 00:00,ZGSZ 140000Z 10003MPS 9999 BKN050 17/13 Q1019 NOSIG
ZGSZ,2025-02-14 01:00,ZGSZ 140100Z VRB01MPS 9999 BKN040 18/13 Q1019 NOSIG
ZGSZ,2025-02-14 02:00,ZGSZ 140200Z 26002MPS 210V300 9999 BKN036 19/14 Q1019 NOSIG
ZGSZ,2025-02-14 03:00,ZGSZ 140300Z 23003MPS 200V260 CAVOK 20/14 Q1019 NOSIG
ZGSZ,2025-02-14 04:00,ZGSZ 140400Z 25004MPS 8000 SCT026 19/15 Q1019 NOSIG
ZGSZ,2025-02-14 05:00,ZGSZ 140500Z 20003MPS 7000 SCT026 19/15 Q1017 NOSIG
ZGSZ,2025-02-14 06:00,ZGSZ 140600Z 20005MPS 9000 NSC 20/14 Q1016 NOSIG
ZGSZ,2025-02-14 07:00,ZGSZ 140700Z 22005MPS CAVOK 18/15 Q1016 NOSIG
ZGSZ,2025-02-14 08:00,ZGSZ 140800Z 20004MPS 7000 BKN033 18/15 Q1015 NOSIG
ZGSZ,2025-02-14 09:00,ZGSZ 140900Z 19004MPS 7000 FEW010 BKN033 18/15 Q1015 NOSIG
ZGSZ,2025-02-14 10:00,ZGSZ 141000Z 18004MPS 7000 FEW010 BKN030 17/15 Q1015 BECMG AT1140 10005MPS
ZGSZ,2025-02-14 11:00,ZGSZ 141100Z 17005MPS 7000 BKN030 18/15 Q1015 BECMG AT1230 10005MPS
ZGSZ,2025-02-14 12:00,ZGSZ 141200Z 19005MPS 7000 BKN030 18/15 Q1015 BECMG AT1310 10005MPS
ZGSZ,2025-02-14 13:00,ZGSZ 141300Z 18003MPS 9000 BKN026 18/16 Q1016 NOSIG
ZGSZ,2025-02-14 14:00,ZGSZ 141400Z 12004MPS CAVOK 19/15 Q1016 NOSIG
ZGSZ,2025-02-14 15:00,ZGSZ 141500Z 10003MPS 060V150 CAVOK 18/15 Q1016 NOSIG
ZGSZ,2025-02-14 16:00,ZGSZ 141600Z 11004MPS CAVOK 18/14 Q1016 NOSIG
ZGSZ,2025-02-14 17:00,ZGSZ 141700Z 12003MPS 9999 FEW025 18/14 Q1016 NOSIG
ZGSZ,2025-02-14 18:00,ZGSZ 141800Z 09002MPS 050V150 9999 BKN033 18/14 Q1016 NOSIG
ZGSZ,2025-02-14 19:00,ZGSZ 141900Z 10002MPS 8000 -RA FEW026 BKN033 18/15 Q1016 NOSIG
ZGSZ,2025-02-14 20:00,ZGSZ 142000Z 07002MPS 040V130 8000 -RA SCT036 SCT053 18/15 Q1015 NOSIG
ZGSZ,2025-02-14 21:00,ZGSZ 142100Z VRB01MPS 8000 FEW036 18/15 Q1015 NOSIG
ZGSZ,2025-02-14 22:00,ZGSZ 142200Z VRB01MPS 8000 SCT033 17/15 Q1015 NOSIG
ZGSZ,2025-02-14 23:00,ZGSZ 142300Z 16003MPS 6000 SCT033 16/14 Q1016 NOSIG
ZGSZ,2025-02-15 00:00,ZGSZ 150000Z 21002MPS 8000 SCT014 BKN033 18/15 Q1017 NOSIG
ZGSZ,2025-02-15 01:00,ZGSZ 150100Z 19003MPS 9000 SCT015 BKN040 18/15 Q1017 NOSIG
ZGSZ,2025-02-15 02:00,ZGSZ 150200Z 14003MPS 9999 SCT017 BKN050 19/15 Q1017 NOSIG
ZGSZ,2025-02-15 03:00,ZGSZ 150300Z 22002MPS 9999 OVC020 19/15 Q1017 NOSIG
ZGSZ,2025-02-15 04:00,ZGSZ 150400Z 25002MPS 9999 OVC020 20/15 Q1016 NOSIG
ZGSZ,2025-02-15 05:00,ZGSZ 150500Z 27003MPS 9999 BKN023 20/15 Q1015 NOSIG
ZGSZ,2025-02-15 06:00,ZGSZ 150600Z 22002MPS 180V250 CAVOK 22/15 Q1014 NOSIG
ZGSZ,2025-02-15 07:00,ZGSZ 150700Z 25003MPS CAVOK 22/15 Q1013 NOSIG
ZGSZ,2025-02-15 08:00,ZGSZ 150800Z 24003MPS 9999 FEW020 23/16 Q1012 NOSIG
ZGSZ,2025-02-15 09:00,ZGSZ 150900Z 27002MPS 210V290 9999 BKN040 21/16 Q1012 NOSIG
ZGSZ,2025-02-15 10:00,ZGSZ 151000Z 22001MPS 9999 BKN040 21/15 Q1013 NOSIG
ZGSZ,2025-02-15 11:00,ZGSZ 151100Z 20002MPS 9999 BKN040 20/17 Q1013 NOSIG
ZGSZ,2025-02-15 12:00,ZGSZ 151200Z 17003MPS 9999 BKN040 20/17 Q1013 NOSIG
ZGSZ,2025-02-15 13:00,ZGSZ 151300Z 15002MPS 9000 BKN040 19/17 Q1014 NOSIG
ZGSZ,2025-02-15 14:00,ZGSZ 151400Z 18003MPS 9000 BKN040 19/17 Q1015 NOSIG
ZGSZ,2025-02-15 15:00,ZGSZ 151500Z 20002MPS 9000 BKN040 19/17 Q1016 NOSIG
ZGSZ,2025-02-15 16:00,ZGSZ 151600Z 19004MPS 8000 BKN043 18/17 Q1015 NOSIG
ZGSZ,2025-02-15 17:00,ZGSZ 151700Z VRB01MPS 9000 BKN050 18/17 Q1016 NOSIG
ZGSZ,2025-02-15 18:00,ZGSZ 151800Z 18002MPS 7000 SCT050 18/17 Q1016 NOSIG
ZGSZ,2025-02-15 19:00,ZGSZ 151900Z 15002MPS 8000 SCT050 18/16 Q1015 NOSIG
ZGSZ,2025-02-15 20:00,ZGSZ 152000Z VRB01MPS 9000 SCT050 18/17 Q1015 NOSIG
ZGSZ,2025-02-15 21:00,ZGSZ 152100Z 16001MPS 7000 SCT033 18/17 Q1016 NOSIG
ZGSZ,2025-02-15 22:00,ZGSZ 152200Z 17002MPS 8000 SCT033 19/17 Q1016 NOSIG
ZGSZ,2025-02-15 23:00,ZGSZ 152300Z 22001MPS 8000 BKN040 19/17 Q1017 NOSIG
ZGSZ,2025-02-16 00:00,ZGSZ 160000Z 20002MPS 9000 BKN030 19/17 Q1018 NOSIG
ZGSZ,2025-02-16 01:00,ZGSZ 160100Z 17002MPS 9999 BKN040 20/17 Q1018 NOSIG
ZGSZ,2025-02-16 02:00,ZGSZ 160200Z 22002MPS 9999 BKN040 21/17 Q1018 NOSIG
ZGSZ,2025-02-16 03:00,ZGSZ 160300Z 27003MPS CAVOK 22/17 Q1018 NOSIG
ZGSZ,2025-02-16 04:00,ZGSZ 160400Z 29004MPS 7000 NSC 23/17 Q1018 NOSIG
ZGSZ,2025-02-16 05:00,ZGSZ 160500Z 30005MPS 4500 HZ NSC 24/18 Q1017 NOSIG
ZGSZ,2025-02-16 06:00,ZGSZ 160600Z 30007MPS 3200 HZ NSC 24/18 Q1016 NOSIG
ZGSZ,2025-02-16 07:00,ZGSZ 160700Z 30006MPS 3200 HZ NSC 24/17 Q1015 NOSIG
ZGSZ,2025-02-16 08:00,ZGSZ 160800Z 30005MPS 3200 HZ NSC 24/17 Q1015 NOSIG
ZGSZ,2025-02-16 09:00,ZGSZ 160900Z 30004MPS 4000 HZ NSC 24/17 Q1015 NOSIG
ZGSZ,2025-02-16 10:00,ZGSZ 161000Z 31004MPS 4000 HZ NSC 23/17 Q1016 NOSIG
ZGSZ,2025-02-16 11:00,ZGSZ 161100Z 32003MPS 4000 HZ NSC 22/17 Q1016 NOSIG
ZGSZ,2025-02-16 12:00,ZGSZ 161200Z 31003MPS 4000 HZ NSC 22/17 Q1017 NOSIG
ZGSZ,2025-02-16 13:00,ZGSZ 161300Z 33004MPS 6000 NSC 22/16 Q1018 NOSIG
ZGSZ,2025-02-16 14:00,ZGSZ 161400Z 33003MPS 7000 NSC 21/15 Q1018 NOSIG
ZGSZ,2025-02-16 15:00,ZGSZ 161500Z 32003MPS 7000 NSC 20/15 Q1019 NOSIG
ZGSZ,2025-02-16 16:00,ZGSZ 161600Z 33003MPS 7000 NSC 19/15 Q1019 NOSIG
ZGSZ,2025-02-16 17:00,ZGSZ 161700Z 01004MPS 7000 NSC 20/14 Q1019 NOSIG
ZGSZ,2025-02-16 18:00,ZGSZ 161800Z 04003MPS 8000 NSC 20/14 Q1020 NOSIG
ZGSZ,2025-02-16 19:00,ZGSZ 161900Z 05001MPS CAVOK 19/14 Q1019 NOSIG
ZGSZ,2025-02-16 20:00,ZGSZ 162000Z 04003MPS CAVOK 19/13 Q1019 NOSIG
ZGSZ,2025-02-16 21:00,ZGSZ 162100Z 04003MPS 9999 BKN026 19/13 Q1019 NOSIG
ZGSZ,2025-02-16 22:00,ZGSZ 162200Z 07003MPS 9999 BKN023 19/14 Q1020 NOSIG
ZGSZ,2025-02-16 23:00,ZGSZ 162300Z 04002MPS 340V100 8000 BKN023 19/13 Q1020 NOSIG
ZGSZ,2025-02-17 00:00,ZGSZ 170000Z 04003MPS 020V080 8000 BKN023 19/13 Q1021 NOSIG
ZGSZ,2025-02-17 01:00,ZGSZ 170100Z 04003MPS 020V130 8000 SCT016 OVC026 18/13 Q1022 NOSIG
ZGSZ,2025-02-17 02:00,ZGSZ 170200Z 03004MPS 360V070 9999 SCT016 OVC026 18/13 Q1022 NOSIG
ZGSZ,2025-02-17 03:00,ZGSZ 170300Z 03003MPS 8000 SCT016 OVC026 18/13 Q1022 NOSIG
ZGSZ,2025-02-17 04:00,ZGSZ 170400Z 06002MPS 6000 SCT014 OVC026 18/14 Q1021 BECMG AT0520 BKN014
ZGSZ,2025-02-17 05:00,ZGSZ 170500Z 26002MPS 6000 SCT014 OVC026 19/14 Q1020 BECMG AT0520 BKN014
ZGSZ,2025-02-17 06:00,ZGSZ 170600Z 20004MPS 6000 BKN026 20/15 Q1018 BECMG AT0740 14005MPS
ZGSZ,2025-02-17 07:00,ZGSZ 170700Z 27004MPS 5000 BR BKN030 19/15 Q1018 BECMG AT0840 15005MPS
ZGSZ,2025-02-17 08:00,ZGSZ 170800Z 29002MPS 6000 BKN033 20/15 Q1018 BECMG AT0940 15005MPS
ZGSZ,2025-02-17 09:00,ZGSZ 170900Z 31001MPS 7000 BKN033 20/13 Q1018 NOSIG
ZGSZ,2025-02-17 10:00,ZGSZ 171000Z 01002MPS 330V040 7000 BKN040 21/14 Q1019 NOSIG
ZGSZ,2025-02-17 11:00,ZGSZ 171100Z 36002MPS 320V050 8000 BKN026 20/14 Q1020 BECMG AT1240 10005MPS
ZGSZ,2025-02-17 12:00,ZGSZ 171200Z 07002MPS 010V120 8000 BKN030 21/14 Q1020 NOSIG
ZGSZ,2025-02-17 13:00,ZGSZ 171300Z 08002MPS 050V140 8000 BKN030 20/14 Q1021 NOSIG
ZGSZ,2025-02-17 14:00,ZGSZ 171400Z 36002MPS 320V070 8000 BKN030 20/14 Q1022 NOSIG
ZGSZ,2025-02-17 15:00,ZGSZ 171500Z 10002MPS 040V130 8000 BKN040 20/12 Q1022 NOSIG
ZGSZ,2025-02-17 16:00,ZGSZ 171600Z 12004MPS 9999 BKN050 19/11 Q1021 NOSIG
ZGSZ,2025-02-17 17:00,ZGSZ 171700Z 13003MPS 9999 BKN050 19/11 Q1021 NOSIG
ZGSZ,2025-02-17 18:00,ZGSZ 171800Z 11004MPS 9999 BKN050 19/11 Q1021 NOSIG
ZGSZ,2025-02-17 19:00,ZGSZ 171900Z 12003MPS 9999 BKN026 18/11 Q1021 NOSIG
ZGSZ,2025-02-17 20:00,ZGSZ 172000Z 12004MPS 9999 BKN026 18/11 Q1021 NOSIG
ZGSZ,2025-02-17 21:00,ZGSZ 172100Z 10003MPS 9999 BKN026 18/12 Q1021 NOSIG
ZGSZ,2025-02-17 22:00,ZGSZ 172200Z 11003MPS 9999 BKN028 18/12 Q1021 NOSIG
ZGSZ,2025-02-17 23:00,ZGSZ 172300Z 10003MPS 070V130 9999 BKN027 18/12 Q1022 NOSIG
ZGSZ,2025-02-18 00:00,ZGSZ 180000Z 02002MPS 360V060 9999 BKN026 19/12 Q1022 NOSIG
ZGSZ,2025-02-18 01:00,ZGSZ 180100Z 05004MPS 9999 BKN028 19/12 Q1022 NOSIG
ZGSZ,2025-02-18 02:00,ZGSZ 180200Z 07003MPS 040V110 9999 BKN028 20/12 Q1023 NOSIG
ZGSZ,2025-02-18 03:00,ZGSZ 180300Z 02004MPS 340V060 8000 BKN028 20/13 Q1022 NOSIG
ZGSZ,2025-02-18 04:00,ZGSZ 180400Z 36004MPS 6000 BKN028 21/13 Q1022 BECMG AT0530 27005MPS
ZGSZ,2025-02-18 05:00,ZGSZ 180500Z 01003MPS 330V080 6000 BKN033 23/13 Q1021 BECMG AT0640 27005MPS
ZGSZ,2025-02-18 06:00,ZGSZ 180600Z VRB04G10MPS 6000 BKN033 23/12 Q1019 BECMG AT0740 31005MPS
ZGSZ,2025-02-18 07:00,ZGSZ 180700Z 35003MPS 300V050 8000 BKN033 24/13 Q1019 BECMG AT0820 27005MPS
ZGSZ,2025-02-18 08:00,ZGSZ 180800Z 29005MPS 7000 BKN040 22/13 Q1018 BECMG AT0940 20005MPS
ZGSZ,2025-02-18 09:00,ZGSZ 180900Z 18004MPS 7000 BKN040 19/14 Q1019 NOSIG
ZGSZ,2025-02-18 10:00,ZGSZ 181000Z 18004MPS 6000 BKN040 19/14 Q1019 BECMG AT1140 11005MPS
ZGSZ,2025-02-18 11:00,ZGSZ 181100Z 18003MPS 9999 BKN040 19/14 Q1020 BECMG AT1240 10005MPS
ZGSZ,2025-02-18 12:00,ZGSZ 181200Z 09004MPS 9999 BKN033 20/13 Q1020 NOSIG
ZGSZ,2025-02-18 13:00,ZGSZ 181300Z 11005MPS 9999 BKN033 19/12 Q1021 NOSIG
ZGSZ,2025-02-18 14:00,ZGSZ 181400Z 11004MPS 070V140 9999 BKN033 18/13 Q1022 NOSIG
ZGSZ,2025-02-18 15:00,ZGSZ 181500Z 10004MPS 080V140 9999 BKN033 18/13 Q1022 NOSIG
ZGSZ,2025-02-18 16:00,ZGSZ 181600Z 11004MPS 9999 SCT023 BKN040 18/13 Q1022 NOSIG
ZGSZ,2025-02-18 17:00,ZGSZ 181700Z 10003MPS 9999 BKN040 18/13 Q1022 NOSIG
ZGSZ,2025-02-18 18:00,ZGSZ 181800Z 12003MPS 9999 BKN036 17/12 Q1022 NOSIG
ZGSZ,2025-02-18 19:00,ZGSZ 181900Z 11003MPS 9999 BKN036 17/12 Q1021 NOSIG
ZGSZ,2025-02-18 20:00,ZGSZ 182000Z 10004MPS 9999 BKN036 17/12 Q1021 NOSIG
ZGSZ,2025-02-18 21:00,ZGSZ 182100Z 11004MPS 9999 BKN036 17/12 Q1021 NOSIG
ZGSZ,2025-02-18 22:00,ZGSZ 182200Z 10003MPS 9999 BKN036 17/12 Q1022 NOSIG
ZGSZ,2025-02-18 23:00,ZGSZ 182300Z 13003MPS 9999 BKN040 17/12 Q1022 NOSIG
ZGSZ,2025-02-19 00:00,ZGSZ 190000Z 12003MPS 080V150 9999 BKN046 17/12 Q1023 NOSIG
ZGSZ,2025-02-19 01:00,ZGSZ 190100Z 12004MPS 9999 BKN046 18/12 Q1023 NOSIG
ZGSZ,2025-02-19 02:00,ZGSZ 190200Z 14002MPS 080V200 9999 FEW023 19/12 Q1024 NOSIG
ZGSZ,2025-02-19 03:00,ZGSZ 190300Z 19004MPS 9999 FEW023 19/12 Q1023 NOSIG
ZGSZ,2025-02-19 04:00,ZGSZ 190400Z 21004MPS 9999 SCT050 20/13 Q1022 NOSIG
ZGSZ,2025-02-19 05:00,ZGSZ 190500Z 25003MPS 210V300 9999 BKN050 20/12 Q1021 NOSIG
ZGSZ,2025-02-19 06:00,ZGSZ 190600Z 21004MPS 9999 SCT050 19/13 Q1020 NOSIG
ZGSZ,2025-02-19 07:00,ZGSZ 190700Z 20005MPS 9999 FEW050 20/13 Q1019 NOSIG
ZGSZ,2025-02-19 08:00,ZGSZ 190800Z 19004MPS CAVOK 20/14 Q1018 NOSIG
ZGSZ,2025-02-19 09:00,ZGSZ 190900Z 10005MPS CAVOK 22/11 Q1018 NOSIG
ZGSZ,2025-02-19 10:00,ZGSZ 191000Z 11005MPS CAVOK 21/11 Q1019 NOSIG
ZGSZ,2025-02-19 11:00,ZGSZ 191100Z 11005MPS CAVOK 20/11 Q1019 NOSIG
ZGSZ,2025-02-19 12:00,ZGSZ 191200Z 11005MPS CAVOK 20/11 Q1020 NOSIG
ZGSZ,2025-02-19 13:00,ZGSZ 191300Z 11004MPS 080V140 CAVOK 20/11 Q1021 NOSIG
ZGSZ,2025-02-19 14:00,ZGSZ 191400Z 10004MPS 070V130 CAVOK 19/12 Q1021 NOSIG
ZGSZ,2025-02-19 15:00,ZGSZ 191500Z 11005MPS 080V140 CAVOK 19/12 Q1021 NOSIG
ZGSZ,2025-02-19 16:00,ZGSZ 191600Z 12004MPS 9999 SCT050 18/12 Q1021 NOSIG
ZGSZ,2025-02-19 17:00,ZGSZ 191700Z 11005MPS 9999 SCT050 18/12 Q1021 NOSIG
ZGSZ,2025-02-19 18:00,ZGSZ 191800Z 10004MPS 9999 BKN050 18/12 Q1021 NOSIG
ZGSZ,2025-02-19 19:00,ZGSZ 191900Z 12003MPS 9999 BKN050 18/12 Q1020 NOSIG
ZGSZ,2025-02-19 20:00,ZGSZ 192000Z 11002MPS 070V140 9999 BKN050 18/12 Q1020 NOSIG
ZGSZ,2025-02-19 21:00,ZGSZ 192100Z 10002MPS 060V210 9999 BKN050 18/12 Q1020 NOSIG
ZGSZ,2025-02-19 22:00,ZGSZ 192200Z VRB01MPS 9999 BKN050 18/12 Q1021 NOSIG
ZGSZ,2025-02-19 23:00,ZGSZ 192300Z 09003MPS 9999 BKN050 18/12 Q1021 NOSIG
ZGSZ,2025-02-20 00:00,ZGSZ 200000Z 11003MPS 9999 BKN050 19/12 Q1022 NOSIG
ZGSZ,2025-02-20 01:00,ZGSZ 200100Z 11003MPS CAVOK 19/12 Q1022 NOSIG
ZGSZ,2025-02-20 02:00,ZGSZ 200200Z 13004MPS 100V160 CAVOK 20/13 Q1022 NOSIG
ZGSZ,2025-02-20 03:00,ZGSZ 200300Z 23003MPS CAVOK 20/14 Q1022 NOSIG
ZGSZ,2025-02-20 04:00,ZGSZ 200400Z 23004MPS CAVOK 21/14 Q1021 NOSIG
ZGSZ,2025-02-20 05:00,ZGSZ 200500Z 22004MPS CAVOK 21/14 Q1020 NOSIG
ZGSZ,2025-02-20 06:00,ZGSZ 200600Z 22005MPS CAVOK 21/15 Q1019 NOSIG
ZGSZ,2025-02-20 07:00,ZGSZ 200700Z 20004MPS CAVOK 22/15 Q1018 BECMG AT0850 13005MPS
ZGSZ,2025-02-20 08:00,ZGSZ 200800Z 21005MPS CAVOK 21/16 Q1018 BECMG AT0920 12005MPS
ZGSZ,2025-02-20 09:00,ZGSZ 200900Z 20005MPS CAVOK 21/16 Q1018 BECMG AT1020 12005MPS
ZGSZ,2025-02-20 10:00,ZGSZ 201000Z 11004MPS 080V140 CAVOK 22/14 Q1018 NOSIG
ZGSZ,2025-02-20 11:00,ZGSZ 201100Z 11006MPS CAVOK 20/13 Q1019 NOSIG
ZGSZ,2025-02-20 12:00,ZGSZ 201200Z 11006MPS 080V140 CAVOK 19/13 Q1020 NOSIG
ZGSZ,2025-02-20 13:00,ZGSZ 201300Z 12005MPS CAVOK 19/13 Q1021 NOSIG
ZGSZ,2025-02-20 14:00,ZGSZ 201400Z 12006MPS CAVOK 18/13 Q1021 NOSIG
ZGSZ,2025-02-20 15:00,ZGSZ 201500Z 12005MPS CAVOK 18/14 Q1021 NOSIG
ZGSZ,2025-02-20 16:00,ZGSZ 201600Z 10004MPS CAVOK 18/14 Q1021 NOSIG
ZGSZ,2025-02-20 17:00,ZGSZ 201700Z 10003MPS 070V140 CAVOK 17/14 Q1022 NOSIG
ZGSZ,2025-02-20 18:00,ZGSZ 201800Z 10004MPS CAVOK 17/13 Q1021 NOSIG
ZGSZ,2025-02-20 19:00,ZGSZ 201900Z 09002MPS 050V110 CAVOK 17/13 Q1021 NOSIG
ZGSZ,2025-02-20 20:00,ZGSZ 202000Z VRB01MPS CAVOK 16/13 Q1021 NOSIG
ZGSZ,2025-02-20 21:00,ZGSZ 202100Z 05003MPS CAVOK 17/14 Q1021 NOSIG
ZGSZ,2025-02-20 22:00,ZGSZ 202200Z 08003MPS 9999 BKN040 17/14 Q1021 NOSIG
ZGSZ,2025-02-20 23:00,ZGSZ 202300Z 06003MPS 040V110 9999 BKN040 18/13 Q1022 NOSIG
ZGSZ,2025-02-21 00:00,ZGSZ 210000Z 04004MPS 020V080 9999 BKN040 18/13 Q1023 NOSIG
ZGSZ,2025-02-21 01:00,ZGSZ 210100Z 06003MPS 350V100 9000 SCT014 BKN026 18/14 Q1023 BECMG AT0220 BKN014
ZGSZ,2025-02-21 02:00,ZGSZ 210200Z 02004MPS 340V050 9000 SCT014 BKN026 19/13 Q1024 BECMG AT0220 BKN014
ZGSZ,2025-02-21 03:00,ZGSZ 210300Z 03004MPS 9999 BKN014 BKN026 19/13 Q1023 BECMG AT0340 BKN030
ZGSZ,2025-02-21 04:00,ZGSZ 210400Z 04002MPS 330V070 9999 SCT025 BKN033 19/13 Q1023 NOSIG
ZGSZ,2025-02-21 05:00,ZGSZ 210500Z 02002MPS 290V060 9999 SCT025 BKN033 20/13 Q1022 NOSIG
ZGSZ,2025-02-21 06:00,ZGSZ 210600Z 01003MPS 310V060 9999 BKN030 21/13 Q1021 NOSIG
ZGSZ,2025-02-21 07:00,ZGSZ 210700Z 23003MPS 9999 BKN030 21/13 Q1020 NOSIG
ZGSZ,2025-02-21 08:00,ZGSZ 210800Z VRB03MPS 9999 BKN033 22/13 Q1020 NOSIG
ZGSZ,2025-02-21 09:00,ZGSZ 210900Z 30004MPS 9999 BKN033 20/13 Q1020 NOSIG
ZGSZ,2025-02-21 10:00,ZGSZ 211000Z 30004MPS 9999 BKN040 20/14 Q1020 NOSIG
ZGSZ,2025-02-21 11:00,ZGSZ 211100Z 01004MPS 9999 BKN040 21/12 Q1021 NOSIG
ZGSZ,2025-02-21 12:00,ZGSZ 211200Z 03003MPS 360V060 9999 BKN040 21/12 Q1022 NOSIG
ZGSZ,2025-02-21 13:00,ZGSZ 211300Z 19003MPS 8000 BKN040 19/16 Q1023 NOSIG
ZGSZ,2025-02-21 14:00,ZGSZ 211400Z VRB01MPS 9000 SCT020 BKN033 18/15 Q1023 NOSIG
ZGSZ,2025-02-21 15:00,ZGSZ 211500Z 11005MPS 9999 SCT020 BKN033 18/13 Q1024 NOSIG
ZGSZ,2025-02-21 16:00,ZGSZ 211600Z 10005MPS 070V130 9999 BKN033 17/13 Q1024 NOSIG
ZGSZ,2025-02-21 17:00,ZGSZ 211700Z 10004MPS 9999 BKN050 17/13 Q1024 NOSIG
ZGSZ,2025-02-21 18:00,ZGSZ 211800Z 09004MPS 9999 BKN020 17/13 Q1023 NOSIG
ZGSZ,2025-02-21 19:00,ZGSZ 211900Z 09002MPS 070V130 9999 SCT015 BKN026 17/13 Q1023 BECMG AT2040 BKN014
ZGSZ,2025-02-21 20:00,ZGSZ 212000Z 09002MPS 060V140 9999 SCT014 BKN050 17/13 Q1022 BECMG AT2040 BKN014
ZGSZ,2025-02-21 21:00,ZGSZ 212100Z 11003MPS 080V140 9999 BKN014 BKN030 17/13 Q1022 BECMG AT2140 SCT014 BKN030
ZGSZ,2025-02-21 22:00,ZGSZ 212200Z 12003MPS 9999 SCT014 BKN030 17/13 Q1022 BECMG AT2340 BKN014 BKN030
ZGSZ,2025-02-21 23:00,ZGSZ 212300Z 07002MPS 050V110 9999 SCT014 BKN026 17/13 Q1023 BECMG AT2340 BKN014
ZGSZ,2025-02-22 00:00,ZGSZ 220000Z 09003MPS 050V150 9999 BKN014 OVC026 17/13 Q1024 BECMG AT0040 SCT014 BKN030
ZGSZ,2025-02-22 01:00,ZGSZ 220100Z 10003MPS 080V140 9999 SCT017 OVC026 17/13 Q1024 NOSIG
ZGSZ,2025-02-22 02:00,ZGSZ 220200Z VRB03MPS 9999 FEW020 OVC033 18/13 Q1025 BECMG AT0340 07005MPS
ZGSZ,2025-02-22 03:00,ZGSZ 220300Z 02003MPS 350V090 9999 FEW020 OVC033 18/13 Q1024 NOSIG
ZGSZ,2025-02-22 04:00,ZGSZ 220400Z 04002MPS 300V090 9999 OVC025 19/13 Q1024 NOSIG
ZGSZ,2025-02-22 05:00,ZGSZ 220500Z 05003MPS 360V090 9999 OVC025 19/13 Q1023 NOSIG
ZGSZ,2025-02-22 06:00,ZGSZ 220600Z 01003MPS 320V100 9999 OVC026 20/13 Q1022 NOSIG
ZGSZ,2025-02-22 07:00,ZGSZ 220700Z 06002MPS 360V130 9999 OVC026 20/13 Q1021 NOSIG
ZGSZ,2025-02-22 08:00,ZGSZ 220800Z 21003MPS 8000 OVC030 20/14 Q1020 NOSIG
ZGSZ,2025-02-22 09:00,ZGSZ 220900Z 22003MPS 8000 OVC030 19/13 Q1021 NOSIG
ZGSZ,2025-02-22 10:00,ZGSZ 221000Z 24003MPS 7000 -RA OVC030 18/14 Q1022 NOSIG
ZGSZ,2025-02-22 11:00,ZGSZ 221100Z 27002MPS 6000 -RA OVC026 17/15 Q1022 NOSIG
ZGSZ,2025-02-22 12:00,ZGSZ 221200Z 30001MPS 4500 -RA BR SCT010 OVC025 17/15 Q1023 BECMG AT1330 BKN012 OVC030
ZGSZ,2025-02-22 13:00,ZGSZ 221300Z 03003MPS 5000 -RA BR SCT012 OVC022 17/15 Q1024 BECMG AT1330 BKN012 OVC030
ZGSZ,2025-02-22 14:00,ZGSZ 221400Z 04004MPS 8000 -RA BKN014 OVC028 17/15 Q1024 BECMG AT1510 BKN018
ZGSZ,2025-02-22 15:00,ZGSZ 221500Z 03003MPS 8000 BKN014 BKN028 17/14 Q1024 BECMG AT1530 BKN018
ZGSZ,2025-02-22 16:00,ZGSZ 221600Z 02004MPS 6000 -RA FEW018 BKN030 17/15 Q1025 NOSIG
ZGSZ,2025-02-22 17:00,ZGSZ 221700Z 03003MPS 6000 -RA FEW016 BKN030 16/15 Q1024 NOSIG
ZGSZ,2025-02-22 18:00,ZGSZ 221800Z 01003MPS 8000 SCT011 OVC030 16/15 Q1024 NOSIG
ZGSZ,2025-02-22 19:00,ZGSZ 221900Z 02004MPS 9999 SCT014 OVC030 16/14 Q1024 NOSIG
ZGSZ,2025-02-22 20:00,ZGSZ 222000Z 02004MPS 9999 SCT010 OVC030 16/14 Q1024 NOSIG
ZGSZ,2025-02-22 21:00,ZGSZ 222100Z 01005MPS 9999 SCT010 OVC020 16/13 Q1024 NOSIG
ZGSZ,2025-02-22 22:00,ZGSZ 222200Z VRB05G12MPS 9999 SCT010 OVC020 15/13 Q1025 BECMG AT2330 04005MPS BKN010 OVC020
ZGSZ,2025-02-22 23:00,ZGSZ 222300Z 03005MPS 9999 SCT010 OVC020 15/13 Q1026 BECMG AT2330 BKN010 OVC020
ZGSZ,2025-02-23 00:00,ZGSZ 230000Z 01005MPS 9999 BKN010 OVC020 15/12 Q1027 BECMG AT0140 SCT010 OVC020
ZGSZ,2025-02-23 01:00,ZGSZ 230100Z 02008MPS 9999 BKN014 OVC026 14/11 Q1028 NOSIG
ZGSZ,2025-02-23 02:00,ZGSZ 230200Z 02006MPS 9999 OVC023 15/11 Q1028 NOSIG
ZGSZ,2025-02-23 03:00,ZGSZ 230300Z 01007MPS 9999 OVC023 16/10 Q1028 NOSIG
ZGSZ,2025-02-23 04:00,ZGSZ 230400Z 01006MPS 9999 BKN040 17/11 Q1027 NOSIG
ZGSZ,2025-02-23 05:00,ZGSZ 230500Z 36007MPS 9999 BKN040 18/10 Q1026 NOSIG
ZGSZ,2025-02-23 06:00,ZGSZ 230600Z 36007MPS 9999 BKN040 18/10 Q1026 NOSIG
ZGSZ,2025-02-23 07:00,ZGSZ 230700Z 02007MPS 9999 BKN040 19/09 Q1025 NOSIG
ZGSZ,2025-02-23 08:00,ZGSZ 230800Z 36007MPS 9999 BKN040 18/09 Q1025 NOSIG
ZGSZ,2025-02-23 09:00,ZGSZ 230900Z 36008MPS 9999 BKN040 17/09 Q1026 NOSIG
ZGSZ,2025-02-23 10:00,ZGSZ 231000Z 02007MPS 9999 BKN040 17/08 Q1026 NOSIG
ZGSZ,2025-02-23 11:00,ZGSZ 231100Z 01007MPS 9999 BKN040 16/08 Q1027 NOSIG
ZGSZ,2025-02-23 12:00,ZGSZ 231200Z 01007MPS 9999 BKN040 16/07 Q1028 NOSIG
ZGSZ,2025-02-23 13:00,ZGSZ 231300Z 02007MPS 9999 BKN040 15/07 Q1029 NOSIG
ZGSZ,2025-02-23 14:00,ZGSZ 231400Z 02006MPS 9999 BKN040 15/07 Q1029 NOSIG
ZGSZ,2025-02-23 15:00,ZGSZ 231500Z 02006MPS 9999 BKN040 15/07 Q1029 NOSIG
ZGSZ,2025-02-23 16:00,ZGSZ 231600Z 01006MPS 9999 BKN040 14/06 Q1029 NOSIG
ZGSZ,2025-02-23 17:00,ZGSZ 231700Z 01007MPS 9999 BKN040 13/05 Q1029 NOSIG
ZGSZ,2025-02-23 18:00,ZGSZ 231800Z 02006MPS 9999 BKN040 12/05 Q1029 NOSIG
ZGSZ,2025-02-23 19:00,ZGSZ 231900Z 02007MPS 9999 BKN050 12/05 Q1029 NOSIG
ZGSZ,2025-02-23 20:00,ZGSZ 232000Z 03007MPS 9999 BKN050 12/05 Q1029 NOSIG
ZGSZ,2025-02-23 21:00,ZGSZ 232100Z 02005MPS 9999 BKN050 12/05 Q1028 NOSIG
ZGSZ,2025-02-23 22:00,ZGSZ 232200Z 03006MPS CAVOK 11/05 Q1029 NOSIG
ZGSZ,2025-02-23 23:00,ZGSZ 232300Z 01006MPS 9999 SCT040 11/05 Q1030 NOSIG
ZGSZ,2025-02-24 00:00,ZGSZ 240000Z 36006MPS 9999 BKN040 12/05 Q1031 NOSIG
ZGSZ,2025-02-24 01:00,ZGSZ 240100Z 01006MPS 9999 BKN040 13/05 Q1031 NOSIG
ZGSZ,2025-02-24 02:00,ZGSZ 240200Z 03006MPS 9999 BKN040 13/05 Q1031 NOSIG
ZGSZ,2025-02-24 03:00,ZGSZ 240300Z 02005MPS 9999 BKN040 15/06 Q1031 NOSIG
ZGSZ,2025-02-24 04:00,ZGSZ 240400Z 01004MPS CAVOK 17/06 Q1029 NOSIG
ZGSZ,2025-02-24 05:00,ZGSZ 240500Z 36003MPS 300V060 CAVOK 19/07 Q1028 NOSIG
ZGSZ,2025-02-24 06:00,ZGSZ 240600Z 02003MPS 300V100 CAVOK 19/08 Q1026 NOSIG
ZGSZ,2025-02-24 07:00,ZGSZ 240700Z 30002MPS 260V360 CAVOK 20/08 Q1025 NOSIG
ZGSZ,2025-02-24 08:00,ZGSZ 240800Z 27004MPS CAVOK 19/09 Q1025 NOSIG
ZGSZ,2025-02-24 09:00,ZGSZ 240900Z 27004MPS CAVOK 19/09 Q1025 NOSIG
ZGSZ,2025-02-24 10:00,ZGSZ 241000Z 29003MPS 9999 SCT046 18/09 Q1025 NOSIG
ZGSZ,2025-02-24 11:00,ZGSZ 241100Z 24003MPS 160V290 9999 SCT046 17/10 Q1026 NOSIG
ZGSZ,2025-02-24 12:00,ZGSZ 241200Z 18005MPS 9999 SCT046 17/11 Q1027 BECMG AT1350 11005MPS
ZGSZ,2025-02-24 13:00,ZGSZ 241300Z 17005MPS 9999 SCT046 16/11 Q1027 BECMG AT1350 11005MPS
ZGSZ,2025-02-24 14:00,ZGSZ 241400Z 11005MPS CAVOK 16/10 Q1028 NOSIG
ZGSZ,2025-02-24 15:00,ZGSZ 241500Z 11004MPS CAVOK 15/10 Q1028 NOSIG
ZGSZ,2025-02-24 16:00,ZGSZ 241600Z 12004MPS CAVOK 15/10 Q1028 NOSIG
ZGSZ,2025-02-24 17:00,ZGSZ 241700Z 11004MPS CAVOK 15/10 Q1027 NOSIG
ZGSZ,2025-02-24 18:00,ZGSZ 241800Z 11004MPS CAVOK 15/10 Q1027 NOSIG
ZGSZ,2025-02-24 19:00,ZGSZ 241900Z 12004MPS CAVOK 15/10 Q1026 NOSIG
ZGSZ,2025-02-24 20:00,ZGSZ 242000Z 10004MPS CAVOK 15/10 Q1025 NOSIG
ZGSZ,2025-02-24 21:00,ZGSZ 242100Z 11004MPS CAVOK 15/10 Q1025 NOSIG
ZGSZ,2025-02-24 22:00,ZGSZ 242200Z 11004MPS CAVOK 15/10 Q1026 NOSIG
ZGSZ,2025-02-24 23:00,ZGSZ 242300Z 01003MPS 9999 SCT040 15/10 Q1027 NOSIG
ZGSZ,2025-02-25 00:00,ZGSZ 250000Z 04004MPS 9999 BKN040 15/10 Q1027 NOSIG
ZGSZ,2025-02-25 01:00,ZGSZ 250100Z 05003MPS 9999 OVC040 15/10 Q1028 NOSIG
ZGSZ,2025-02-25 02:00,ZGSZ 250200Z 06003MPS 9999 OVC036 16/10 Q1028 NOSIG
ZGSZ,2025-02-25 03:00,ZGSZ 250300Z 02002MPS 330V110 8000 OVC036 17/11 Q1028 NOSIG
ZGSZ,2025-02-25 04:00,ZGSZ 250400Z 35003MPS 330V040 8000 OVC036 18/11 Q1028 NOSIG
ZGSZ,2025-02-25 05:00,ZGSZ 250500Z 04004MPS 8000 BKN050 18/11 Q1026 NOSIG
ZGSZ,2025-02-25 06:00,ZGSZ 250600Z 01004MPS 300V050 8000 BKN050 19/10 Q1025 NOSIG
ZGSZ,2025-02-25 07:00,ZGSZ 250700Z 04005MPS 8000 SCT050 20/10 Q1024 NOSIG
ZGSZ,2025-02-25 08:00,ZGSZ 250800Z 04003MPS 360V060 8000 FEW050 19/10 Q1024 NOSIG
ZGSZ,2025-02-25 09:00,ZGSZ 250900Z 02004MPS 8000 FEW050 19/10 Q1024 NOSIG
ZGSZ,2025-02-25 10:00,ZGSZ 251000Z 36005MPS 9999 FEW050 18/10 Q1024 NOSIG
ZGSZ,2025-02-25 11:00,ZGSZ 251100Z 36004MPS 9000 -SHRA FEW050 17/10 Q1024 NOSIG
ZGSZ,2025-02-25 12:00,ZGSZ 251200Z 33003MPS 9999 FEW050 16/12 Q1025 NOSIG
ZGSZ,2025-02-25 13:00,ZGSZ 251300Z 34003MPS 8000 -RA FEW050 16/12 Q1026 NOSIG
ZGSZ,2025-02-25 14:00,ZGSZ 251400Z 34003MPS CAVOK 16/12 Q1026 NOSIG
ZGSZ,2025-02-25 15:00,ZGSZ 251500Z 35003MPS 9000 -RA SCT050 15/13 Q1026 NOSIG
ZGSZ,2025-02-25 16:00,ZGSZ 251600Z 03003MPS 9000 -RA SCT050 16/13 Q1026 NOSIG
ZGSZ,2025-02-25 17:00,ZGSZ 251700Z 36004MPS 6000 -RA SCT050 15/13 Q1025 NOSIG
ZGSZ,2025-02-25 18:00,ZGSZ 251800Z 35004MPS 6000 -RA SCT014 BKN050 15/13 Q1025 BECMG AT1920 BKN014
ZGSZ,2025-02-25 19:00,ZGSZ 251900Z 02003MPS 6000 -RA FEW014 BKN040 15/14 Q1024 BECMG AT1920 BKN014
ZGSZ,2025-02-25 20:00,ZGSZ 252000Z 03002MPS 6000 -RA BKN014 BKN040 15/13 Q1024 BECMG AT2030 BKN040
ZGSZ,2025-02-25 21:00,ZGSZ 252100Z 35003MPS 6000 -RA SCT014 BKN040 15/13 Q1024 BECMG AT2220 BKN014
ZGSZ,2025-02-25 22:00,ZGSZ 252200Z 08002MPS 8000 -RA SCT014 15/13 Q1024 BECMG AT2220 BKN014
ZGSZ,2025-02-25 23:00,ZGSZ 252300Z 01004MPS 5000 -RA BKN014 BKN046 15/13 Q1024 BECMG AT2330 BKN040
ZGSZ,2025-02-26 00:00,ZGSZ 260000Z 01003MPS 350V050 5000 -RA BKN014 BKN046 15/13 Q1025 BECMG AT0040 BKN040
ZGSZ,2025-02-26 01:00,ZGSZ 260100Z 03003MPS 5000 BR SCT033 BKN046 16/13 Q1025 NOSIG
ZGSZ,2025-02-26 02:00,ZGSZ 260200Z 02005MPS 6000 SCT033 16/13 Q1025 NOSIG
ZGSZ,2025-02-26 03:00,ZGSZ 260300Z 04002MPS 020V080 7000 NSC 17/13 Q1024 NOSIG
ZGSZ,2025-02-26 04:00,ZGSZ 260400Z 36004MPS 320V030 8000 FEW043 18/13 Q1024 NOSIG
ZGSZ,2025-02-26 05:00,ZGSZ 260500Z 08003MPS 060V120 9000 NSC 18/13 Q1022 NOSIG
ZGSZ,2025-02-26 06:00,ZGSZ 260600Z 35003MPS 220V030 8000 NSC 18/13 Q1021 NOSIG
ZGSZ,2025-02-26 07:00,ZGSZ 260700Z 36002MPS 310V080 8000 NSC 19/13 Q1021 NOSIG
ZGSZ,2025-02-26 08:00,ZGSZ 260800Z 33003MPS 8000 NSC 18/14 Q1020 NOSIG
ZGSZ,2025-02-26 09:00,ZGSZ 260900Z 36003MPS 320V030 8000 SCT026 19/13 Q1021 NOSIG
ZGSZ,2025-02-26 10:00,ZGSZ 261000Z 32002MPS 300V020 7000 BKN026 18/14 Q1020 NOSIG
ZGSZ,2025-02-26 11:00,ZGSZ 261100Z VRB01MPS 7000 SCT022 BKN040 18/14 Q1021 NOSIG
ZGSZ,2025-02-26 12:00,ZGSZ 261200Z 28001MPS 7000 SCT026 18/14 Q1021 NOSIG
ZGSZ,2025-02-26 13:00,ZGSZ 261300Z 26002MPS 7000 BKN020 18/14 Q1022 NOSIG
ZGSZ,2025-02-26 14:00,ZGSZ 261400Z 19001MPS 6000 BKN020 18/14 Q1022 NOSIG
ZGSZ,2025-02-26 15:00,ZGSZ 261500Z 12004MPS CAVOK 17/12 Q1021 NOSIG
ZGSZ,2025-02-26 16:00,ZGSZ 261600Z 10003MPS 070V140 CAVOK 17/11 Q1021 NOSIG
ZGSZ,2025-02-26 17:00,ZGSZ 261700Z 11004MPS CAVOK 17/11 Q1020 NOSIG
ZGSZ,2025-02-26 18:00,ZGSZ 261800Z 09003MPS 070V140 CAVOK 17/10 Q1020 NOSIG
ZGSZ,2025-02-26 19:00,ZGSZ 261900Z 10005MPS CAVOK 17/10 Q1019 NOSIG
ZGSZ,2025-02-26 20:00,ZGSZ 262000Z 09003MPS 040V130 CAVOK 17/11 Q1019 NOSIG
ZGSZ,2025-02-26 21:00,ZGSZ 262100Z 03002MPS 340V060 CAVOK 16/11 Q1019 NOSIG
ZGSZ,2025-02-26 22:00,ZGSZ 262200Z 04002MPS CAVOK 16/11 Q1019 NOSIG
ZGSZ,2025-02-26 23:00,ZGSZ 262300Z 33001MPS CAVOK 16/12 Q1019 NOSIG
ZGSZ,2025-02-27 00:00,ZGSZ 270000Z 04003MPS CAVOK 17/12 Q1021 NOSIG
ZGSZ,2025-02-27 01:00,ZGSZ 270100Z VRB01MPS CAVOK 19/12 Q1021 NOSIG
ZGSZ,2025-02-27 02:00,ZGSZ 270200Z 27002MPS CAVOK 19/13 Q1021 NOSIG
ZGSZ,2025-02-27 03:00,ZGSZ 270300Z 24003MPS CAVOK 19/13 Q1021 NOSIG
ZGSZ,2025-02-27 04:00,ZGSZ 270400Z 24003MPS CAVOK 19/14 Q1020 NOSIG
ZGSZ,2025-02-27 05:00,ZGSZ 270500Z 24004MPS CAVOK 21/14 Q1019 NOSIG
ZGSZ,2025-02-27 06:00,ZGSZ 270600Z 23003MPS 200V260 CAVOK 21/14 Q1017 NOSIG
ZGSZ,2025-02-27 07:00,ZGSZ 270700Z 21003MPS 170V230 CAVOK 21/15 Q1017 NOSIG
ZGSZ,2025-02-27 08:00,ZGSZ 270800Z 20005MPS CAVOK 21/15 Q1016 NOSIG
ZGSZ,2025-02-27 09:00,ZGSZ 270900Z 20004MPS CAVOK 20/16 Q1016 NOSIG
ZGSZ,2025-02-27 10:00,ZGSZ 271000Z 17004MPS CAVOK 19/16 Q1016 NOSIG
ZGSZ,2025-02-27 11:00,ZGSZ 271100Z 17003MPS CAVOK 19/16 Q1016 NOSIG
ZGSZ,2025-02-27 12:00,ZGSZ 271200Z 17003MPS CAVOK 19/17 Q1017 NOSIG
ZGSZ,2025-02-27 13:00,ZGSZ 271300Z 20004MPS 8000 NSC 19/17 Q1018 NOSIG
ZGSZ,2025-02-27 14:00,ZGSZ 271400Z 20003MPS 8000 NSC 18/17 Q1018 NOSIG
ZGSZ,2025-02-27 15:00,ZGSZ 271500Z 20004MPS 8000 NSC 18/17 Q1018 NOSIG
ZGSZ,2025-02-27 16:00,ZGSZ 271600Z 19002MPS 7000 NSC 18/16 Q1018 NOSIG
ZGSZ,2025-02-27 17:00,ZGSZ 271700Z 13003MPS CAVOK 18/14 Q1017 NOSIG
ZGSZ,2025-02-27 18:00,ZGSZ 271800Z 11003MPS CAVOK 17/14 Q1017 NOSIG
ZGSZ,2025-02-27 19:00,ZGSZ 271900Z 12002MPS CAVOK 17/14 Q1017 NOSIG
ZGSZ,2025-02-27 20:00,ZGSZ 272000Z 11003MPS CAVOK 17/15 Q1017 NOSIG
ZGSZ,2025-02-27 21:00,ZGSZ 272100Z 02002MPS 8000 NSC 16/14 Q1017 NOSIG
ZGSZ,2025-02-27 22:00,ZGSZ 272200Z 03002MPS 8000 NSC 17/15 Q1017 NOSIG
ZGSZ,2025-02-27 23:00,ZGSZ 272300Z 02002MPS 340V090 5000 BR BKN026 17/15 Q1018 NOSIG
ZGSZ,2025-02-28 00:00,ZGSZ 280000Z 02001MPS 5000 BR SCT033 18/16 Q1019 NOSIG
ZGSZ,2025-02-28 01:00,ZGSZ 280100Z 01002MPS 330V040 5000 HZ FEW033 20/16 Q1019 NOSIG
ZGSZ,2025-02-28 02:00,ZGSZ 280200Z 33001MPS 7000 FEW033 23/16 Q1019 NOSIG
ZGSZ,2025-02-28 03:00,ZGSZ 280300Z 27003MPS 7000 NSC 22/17 Q1019 NOSIG
ZGSZ,2025-02-28 04:00,ZGSZ 280400Z 28003MPS 7000 NSC 23/16 Q1018 NOSIG
ZGSZ,2025-02-28 05:00,ZGSZ 280500Z 29004MPS 7000 NSC 24/16 Q1017 NOSIG
ZGSZ,2025-02-28 06:00,ZGSZ 280600Z 24003MPS CAVOK 24/16 Q1016 NOSIG
ZGSZ,2025-02-28 07:00,ZGSZ 280700Z 21004MPS CAVOK 25/16 Q1015 NOSIG
ZGSZ,2025-02-28 08:00,ZGSZ 280800Z 18006MPS CAVOK 25/16 Q1015 NOSIG
ZGSZ,2025-02-28 09:00,ZGSZ 280900Z 19005MPS CAVOK 23/17 Q1015 NOSIG
ZGSZ,2025-02-28 10:00,ZGSZ 281000Z 19003MPS CAVOK 22/17 Q1015 NOSIG
ZGSZ,2025-02-28 11:00,ZGSZ 281100Z 20004MPS CAVOK 21/18 Q1015 NOSIG
ZGSZ,2025-02-28 12:00,ZGSZ 281200Z 15004MPS CAVOK 20/18 Q1016 NOSIG
ZGSZ,2025-02-28 13:00,ZGSZ 281300Z 17003MPS CAVOK 20/18 Q1016 NOSIG
ZGSZ,2025-02-28 14:00,ZGSZ 281400Z 17004MPS CAVOK 20/18 Q1017 NOSIG
ZGSZ,2025-02-28 15:00,ZGSZ 281500Z 17003MPS CAVOK 20/18 Q1017 NOSIG
ZGSZ,2025-02-28 16:00,ZGSZ 281600Z 15004MPS CAVOK 20/17 Q1016 NOSIG
ZGSZ,2025-02-28 17:00,ZGSZ 281700Z 07004MPS 050V110 CAVOK 21/16 Q1015 NOSIG
ZGSZ,2025-02-28 18:00,ZGSZ 281800Z 08002MPS 050V140 CAVOK 21/17 Q1015 NOSIG
ZGSZ,2025-02-28 19:00,ZGSZ 281900Z 12003MPS CAVOK 21/17 Q1014 NOSIG
ZGSZ,2025-02-28 20:00,ZGSZ 282000Z 13002MPS 100V170 9999 SCT030 21/17 Q1014 NOSIG
ZGSZ,2025-02-28 21:00,ZGSZ 282100Z 01002MPS 340V060 9999 BKN026 21/17 Q1015 NOSIG
ZGSZ,2025-02-28 22:00,ZGSZ 282200Z 06003MPS 360V120 9999 BKN026 20/17 Q1015 NOSIG
ZGSZ,2025-02-28 23:00,ZGSZ 282300Z VRB01MPS 9000 BKN030 21/17 Q1016 NOSIG
ZGSZ,2025-03-01 00:00,ZGSZ 010000Z VRB02MPS 9000 SCT020 BKN040 21/18 Q1016 NOSIG
ZGSZ,2025-03-01 01:00,ZGSZ 010100Z 04002MPS 360V080 9000 NSC 22/18 Q1016 NOSIG
ZGSZ,2025-03-01 02:00,ZGSZ 010200Z 06002MPS 020V120 CAVOK 24/19 Q1017 NOSIG
ZGSZ,2025-03-01 03:00,ZGSZ 010300Z 25002MPS 200V320 8000 SCT025 23/19 Q1016 NOSIG
ZGSZ,2025-03-01 04:00,ZGSZ 010400Z 27003MPS 7000 SCT025 24/19 Q1015 NOSIG
ZGSZ,2025-03-01 05:00,ZGSZ 010500Z 25003MPS 8000 SCT025 25/19 Q1014 NOSIG
ZGSZ,2025-03-01 06:00,ZGSZ 010600Z 22003MPS 7000 FEW025 24/19 Q1013 NOSIG
ZGSZ,2025-03-01 07:00,ZGSZ 010700Z 20003MPS 8000 FEW025 24/19 Q1013 NOSIG
ZGSZ,2025-03-01 08:00,ZGSZ 010800Z 20004MPS 9999 SCT030 23/19 Q1012 NOSIG
ZGSZ,2025-03-01 09:00,ZGSZ 010900Z 17002MPS 140V210 8000 FEW030 22/19 Q1012 NOSIG
ZGSZ,2025-03-01 10:00,ZGSZ 011000Z 18005MPS 8000 FEW030 22/19 Q1012 BECMG AT1140 12005MPS
ZGSZ,2025-03-01 11:00,ZGSZ 011100Z 18003MPS CAVOK 22/19 Q1012 BECMG AT1220 12005MPS
ZGSZ,2025-03-01 12:00,ZGSZ 011200Z VRB01MPS CAVOK 21/19 Q1012 BECMG AT1220 12005MPS
ZGSZ,2025-03-01 13:00,ZGSZ 011300Z 16003MPS 9999 FEW022 21/19 Q1013 NOSIG
ZGSZ,2025-03-01 14:00,ZGSZ 011400Z 17004MPS 9999 BKN026 22/20 Q1013 NOSIG
ZGSZ,2025-03-01 15:00,ZGSZ 011500Z 16002MPS 120V200 9999 BKN033 22/20 Q1013 NOSIG
ZGSZ,2025-03-01 16:00,ZGSZ 011600Z VRB01MPS 9999 BKN030 21/19 Q1013 NOSIG
ZGSZ,2025-03-01 17:00,ZGSZ 011700Z 12002MPS 080V160 9999 BKN030 22/20 Q1013 NOSIG
ZGSZ,2025-03-01 18:00,ZGSZ 011800Z 26002MPS 9999 BKN033 21/19 Q1013 NOSIG
ZGSZ,2025-03-01 19:00,ZGSZ 011900Z VRB01MPS 9999 BKN033 20/19 Q1012 NOSIG
ZGSZ,2025-03-01 20:00,ZGSZ 012000Z 17002MPS 8000 NSC 21/19 Q1012 NOSIG
ZGSZ,2025-03-01 21:00,ZGSZ 012100Z VRB01MPS 8000 NSC 20/19 Q1012 NOSIG
ZGSZ,2025-03-01 22:00,ZGSZ 012200Z VRB01MPS 9000 FEW018 21/19 Q1012 BECMG AT2340 BKN014
ZGSZ,2025-03-01 23:00,ZGSZ 012300Z VRB01MPS 8000 SCT016 20/19 Q1012 BECMG AT2340 BKN014
ZGSZ,2025-03-02 00:00,ZGSZ 020000Z 30002MPS 6000 BKN014 21/20 Q1013 BECMG AT0020 SCT016 BKN030
ZGSZ,2025-03-02 01:00,ZGSZ 020100Z 32002MPS 8000 SCT020 BKN040 23/20 Q1014 NOSIG
ZGSZ,2025-03-02 02:00,ZGSZ 020200Z VRB01MPS 8000 FEW026 BKN040 23/20 Q1014 NOSIG
ZGSZ,2025-03-02 03:00,ZGSZ 020300Z 24003MPS 9000 FEW026 BKN040 23/20 Q1014 NOSIG
ZGSZ,2025-03-02 04:00,ZGSZ 020400Z 22003MPS 9999 FEW020 SCT040 24/20 Q1013 NOSIG
ZGSZ,2025-03-02 05:00,ZGSZ 020500Z 19003MPS 9999 FEW020 BKN040 25/20 Q1012 NOSIG
ZGSZ,2025-03-02 06:00,ZGSZ 020600Z 18004MPS 9999 BKN040 26/21 Q1011 NOSIG
ZGSZ,2025-03-02 07:00,ZGSZ 020700Z 17006MPS 9999 SCT040 26/20 Q1010 NOSIG
ZGSZ,2025-03-02 08:00,ZGSZ 020800Z 16005MPS CAVOK 26/20 Q1010 NOSIG
ZGSZ,2025-03-02 09:00,ZGSZ 020900Z 16006MPS 9999 FEW030 25/20 Q1009 NOSIG
ZGSZ,2025-03-02 10:00,ZGSZ 021000Z 17005MPS CAVOK 24/19 Q1010 NOSIG
ZGSZ,2025-03-02 11:00,ZGSZ 021100Z 17005MPS CAVOK 23/19 Q1010 NOSIG
ZGSZ,2025-03-02 12:00,ZGSZ 021200Z 17005MPS CAVOK 23/20 Q1010 NOSIG
ZGSZ,2025-03-02 13:00,ZGSZ 021300Z 16004MPS CAVOK 22/20 Q1011 NOSIG
ZGSZ,2025-03-02 14:00,ZGSZ 021400Z 17004MPS CAVOK 22/20 Q1011 NOSIG
ZGSZ,2025-03-02 15:00,ZGSZ 021500Z 18003MPS CAVOK 21/19 Q1011 NOSIG
ZGSZ,2025-03-02 16:00,ZGSZ 021600Z 18002MPS 130V210 CAVOK 20/19 Q1011 NOSIG
ZGSZ,2025-03-02 17:00,ZGSZ 021700Z 22002MPS 8000 NSC 20/19 Q1011 NOSIG
ZGSZ,2025-03-02 18:00,ZGSZ 021800Z 24003MPS 0800 R15/P2000 R16/1300N FG BKN010 20/19 Q1011 NOSIG
ZGSZ,2025-03-02 19:00,ZGSZ 021900Z VRB01MPS 0900 R15/P2000 R16/P2000 FG OVC003 20/19 Q1010 BECMG AT1950 1500 BR
ZGSZ,2025-03-02 20:00,ZGSZ 022000Z VRB01MPS 1100 R15/P2000 R16/0550N BR OVC004 20/20 Q1010 BECMG AT2140 1500
ZGSZ,2025-03-02 21:00,ZGSZ 022100Z 21002MPS 0700 R15/1600N R16/0600N FG OVC002 20/20 Q1010 BECMG AT2130 0900
ZGSZ,2025-03-02 22:00,ZGSZ 022200Z VRB01MPS 0800 R15/P2000 R16/1300D FG OVC002 20/19 Q1010 BECMG AT2230 0700
ZGSZ,2025-03-02 23:00,ZGSZ 022300Z VRB01MPS 0600 R15/P2000 R16/0700N FG OVC002 20/19 Q1011 BECMG AT2350 0900
ZGSZ,2025-03-03 00:00,ZGSZ 030000Z VRB01MPS 0500 R15/P2000 R16/0450N FG BKN002 20/20 Q1011 BECMG AT0130 1500 BR SCT003 BKN020
ZGSZ,2025-03-03 01:00,ZGSZ 030100Z 26002MPS 5000 BR SCT004 BKN040 20/19 Q1012 NOSIG
ZGSZ,2025-03-03 02:00,ZGSZ 030200Z 26002MPS 220V300 8000 BKN030 22/20 Q1013 NOSIG
ZGSZ,2025-03-03 03:00,ZGSZ 030300Z 22003MPS 9999 BKN026 23/20 Q1012 NOSIG
ZGSZ,2025-03-03 04:00,ZGSZ 030400Z 19003MPS 9999 BKN024 23/20 Q1011 NOSIG
ZGSZ,2025-03-03 05:00,ZGSZ 030500Z 17002MPS 140V200 9999 SCT018 OVC030 23/20 Q1011 NOSIG
ZGSZ,2025-03-03 06:00,ZGSZ 030600Z 16006MPS 9999 FEW050 26/20 Q1009 NOSIG
ZGSZ,2025-03-03 07:00,ZGSZ 030700Z 18005MPS 9999 SCT043 25/20 Q1009 NOSIG
ZGSZ,2025-03-03 08:00,ZGSZ 030800Z 16005MPS 9999 BKN043 26/21 Q1008 NOSIG
ZGSZ,2025-03-03 09:00,ZGSZ 030900Z 16006MPS 9999 BKN043 25/21 Q1009 NOSIG
ZGSZ,2025-03-03 10:00,ZGSZ 031000Z 16005MPS 9999 BKN040 24/21 Q1009 NOSIG
ZGSZ,2025-03-03 11:00,ZGSZ 031100Z 15005MPS 9999 SCT040 24/21 Q1009 NOSIG
ZGSZ,2025-03-03 12:00,ZGSZ 031200Z 16005MPS CAVOK 24/21 Q1009 NOSIG
ZGSZ,2025-03-03 13:00,ZGSZ 031300Z 17003MPS CAVOK 24/21 Q1010 NOSIG
ZGSZ,2025-03-03 14:00,ZGSZ 031400Z 18003MPS 9999 FEW043 23/20 Q1011 NOSIG
ZGSZ,2025-03-03 15:00,ZGSZ 031500Z 18003MPS 9999 FEW043 22/20 Q1010 NOSIG
ZGSZ,2025-03-03 16:00,ZGSZ 031600Z VRB01MPS 9999 -SHRA SCT040 22/20 Q1011 NOSIG
ZGSZ,2025-03-03 17:00,ZGSZ 031700Z 22003MPS 9999 SCT026 BKN043 22/20 Q1011 NOSIG
ZGSZ,2025-03-03 18:00,ZGSZ 031800Z 20003MPS 9999 BKN043 22/20 Q1011 NOSIG
ZGSZ,2025-03-03 19:00,ZGSZ 031900Z VRB01MPS 9999 BKN043 22/20 Q1010 NOSIG
ZGSZ,2025-03-03 20:00,ZGSZ 032000Z 31001MPS 9999 BKN043 22/20 Q1010 NOSIG
ZGSZ,2025-03-03 21:00,ZGSZ 032100Z VRB01MPS 9999 -SHRA BKN043 22/20 Q1009 NOSIG
ZGSZ,2025-03-03 22:00,ZGSZ 032200Z 17002MPS 130V200 7000 BKN040 22/20 Q1009 NOSIG
ZGSZ,2025-03-03 23:00,ZGSZ 032300Z 18003MPS 8000 BKN040 21/20 Q1009 NOSIG
ZGSZ,2025-03-04 00:00,ZGSZ 040000Z 20003MPS 8000 OVC050 22/20 Q1010 NOSIG
ZGSZ,2025-03-04 01:00,ZGSZ 040100Z 20003MPS 9999 OVC036 22/21 Q1010 NOSIG
ZGSZ,2025-03-04 02:00,ZGSZ 040200Z 22005MPS 7000 OVC033 23/21 Q1011 NOSIG
ZGSZ,2025-03-04 03:00,ZGSZ 040300Z 24002MPS 210V280 9000 OVC033 23/21 Q1011 NOSIG
ZGSZ,2025-03-04 04:00,ZGSZ 040400Z 19002MPS 140V230 9000 OVC040 24/21 Q1011 NOSIG
ZGSZ,2025-03-04 05:00,ZGSZ 040500Z 17004MPS 9000 OVC040 25/21 Q1010 BECMG AT0610 2500 TSRA
ZGSZ,2025-03-04 06:00,ZGSZ 040600Z 17005MPS 9000 -RA SCT026 OVC040 24/21 Q1009 BECMG AT0620 2500 TSRA
ZGSZ,2025-03-04 07:00,ZGSZ 040700Z VRB05MPS 8000 TSRA SCT008 FEW030CB BKN046 23/21 Q1009 BECMG AT0720 33005MPS -SHRA
ZGSZ,2025-03-04 08:00,ZGSZ 040800Z VRB01MPS 9000 -SHRA SCT008 BKN020 23/21 Q1008 NOSIG
ZGSZ,2025-03-04 09:00,ZGSZ 040900Z VRB01MPS 7000 -SHRA SCT015 BKN046 23/22 Q1008 NOSIG
ZGSZ,2025-03-04 10:00,ZGSZ 041000Z 01002G07MPS 320V070 9999 FEW015 BKN036 23/21 Q1009 NOSIG
ZGSZ,2025-03-04 11:00,ZGSZ 041100Z VRB03MPS 9999 SCT010 BKN030 23/21 Q1009 NOSIG
ZGSZ,2025-03-04 12:00,ZGSZ 041200Z 04004MPS 9999 SCT010 BKN020 22/21 Q1009 BECMG AT1230 BKN010 OVC030
ZGSZ,2025-03-04 13:00,ZGSZ 041300Z 03003MPS 9999 SCT010 BKN020 22/20 Q1010 BECMG AT1330 BKN010 OVC030
ZGSZ,2025-03-04 14:00,ZGSZ 041400Z 02003MPS 9999 BKN010 BKN030 22/20 Q1010 BECMG AT1530 SCT010 BKN030
ZGSZ,2025-03-04 15:00,ZGSZ 041500Z 35003MPS 9999 BKN010 BKN030 21/20 Q1011 BECMG AT1530 SCT010 BKN030
ZGSZ,2025-03-04 16:00,ZGSZ 041600Z 36004MPS 9999 SCT010 BKN030 21/19 Q1011 BECMG AT1730 BKN010 OVC030
ZGSZ,2025-03-04 17:00,ZGSZ 041700Z 36005MPS 9999 SCT010 BKN030 20/18 Q1012 BECMG AT1730 BKN010 OVC030
ZGSZ,2025-03-04 18:00,ZGSZ 041800Z 01005MPS 9999 BKN010 BKN030 20/18 Q1012 NOSIG
ZGSZ,2025-03-04 19:00,ZGSZ 041900Z 36005MPS 9999 BKN010 19/17 Q1012 NOSIG
ZGSZ,2025-03-04 20:00,ZGSZ 042000Z 02005MPS 9999 BKN010 BKN026 19/16 Q1011 BECMG AT2140 SCT010 BKN030
ZGSZ,2025-03-04 21:00,ZGSZ 042100Z 03005MPS 9999 BKN010 BKN026 18/16 Q1012 BECMG AT2220 SCT010 BKN030
ZGSZ,2025-03-04 22:00,ZGSZ 042200Z 04005MPS 9999 SCT010 BKN026 18/16 Q1012 NOSIG
ZGSZ,2025-03-04 23:00,ZGSZ 042300Z 02004MPS 9999 SCT010 BKN026 18/16 Q1013 BECMG AT0010 BKN012 BKN030
ZGSZ,2025-03-05 00:00,ZGSZ 050000Z 36004MPS 9999 SCT010 BKN026 18/15 Q1013 BECMG AT0020 BKN012 BKN030
ZGSZ,2025-03-05 01:00,ZGSZ 050100Z 02005MPS 9999 BKN012 BKN026 17/14 Q1014 BECMG AT0120 BKN020
ZGSZ,2025-03-05 02:00,ZGSZ 050200Z 02006MPS 9999 -RA SCT012 BKN033 17/14 Q1015 BECMG AT0320 BKN012
ZGSZ,2025-03-05 03:00,ZGSZ 050300Z 03005MPS 9999 -RA SCT012 BKN033 17/15 Q1015 BECMG AT0320 BKN014
ZGSZ,2025-03-05 04:00,ZGSZ 050400Z 04005MPS 9999 BKN011 OVC033 17/14 Q1014 BECMG AT0520 SCT011 BKN030
ZGSZ,2025-03-05 05:00,ZGSZ 050500Z 03004MPS 9999 BKN011 OVC033 17/14 Q1013 BECMG AT0520 SCT011 BKN020
ZGSZ,2025-03-05 06:00,ZGSZ 050600Z 03004MPS 360V060 9999 SCT012 OVC033 18/15 Q1012 BECMG AT0720 BKN012
ZGSZ,2025-03-05 07:00,ZGSZ 050700Z 03004MPS 9999 SCT012 OVC033 18/15 Q1012 BECMG AT0720 BKN012
ZGSZ,2025-03-05 08:00,ZGSZ 050800Z 03004MPS 9999 BKN011 OVC033 17/15 Q1012 BECMG AT0920 BKN020
ZGSZ,2025-03-05 09:00,ZGSZ 050900Z 34004MPS 9999 -RA BKN011 OVC033 17/14 Q1012 BECMG AT0920 SCT012 BKN030
ZGSZ,2025-03-05 10:00,ZGSZ 051000Z 03005MPS 5000 -RA BR SCT009 OVC026 16/14 Q1013 BECMG AT1120 BKN011
ZGSZ,2025-03-05 11:00,ZGSZ 051100Z 03005MPS 8000 SCT010 OVC026 16/14 Q1014 BECMG AT1120 BKN011
ZGSZ,2025-03-05 12:00,ZGSZ 051200Z 04005MPS 8000 BKN008 OVC026 16/14 Q1014 NOSIG
ZGSZ,2025-03-05 13:00,ZGSZ 051300Z 02004G12MPS 300V050 9999 BKN009 OVC026 16/14 Q1016 BECMG AT1440 BKN010 OVC030
ZGSZ,2025-03-05 14:00,ZGSZ 051400Z 02004MPS 350V050 9999 BKN009 OVC026 15/14 Q1016 BECMG AT1440 BKN010
ZGSZ,2025-03-05 15:00,ZGSZ 051500Z 36005MPS 9999 BKN010 OVC026 15/14 Q1017 BECMG AT1640 SCT012 OVC020
ZGSZ,2025-03-05 16:00,ZGSZ 051600Z 01006MPS 9999 BKN011 OVC026 15/13 Q1017 BECMG AT1640 SCT012 OVC025
ZGSZ,2025-03-05 17:00,ZGSZ 051700Z 02007MPS 9999 SCT010 OVC026 15/13 Q1018 BECMG AT1840 BKN011 OVC025
ZGSZ,2025-03-05 18:00,ZGSZ 051800Z 01006MPS 9999 SCT010 OVC026 14/12 Q1017 BECMG AT1840 BKN011 OVC025
ZGSZ,2025-03-05 19:00,ZGSZ 051900Z 01007MPS 9999 BKN011 OVC026 14/11 Q1018 BECMG AT2020 SCT012 BKN030
ZGSZ,2025-03-05 20:00,ZGSZ 052000Z 02007MPS 9999 SCT012 BKN030 14/11 Q1018 NOSIG
ZGSZ,2025-03-05 21:00,ZGSZ 052100Z 01006MPS 9999 -RA SCT015 BKN030 14/10 Q1018 NOSIG
ZGSZ,2025-03-05 22:00,ZGSZ 052200Z 01008MPS 8000 -RA SCT015 BKN023 12/10 Q1019 NOSIG
ZGSZ,2025-03-05 23:00,ZGSZ 052300Z 02006MPS 6000 -RA SCT010 BKN020 12/10 Q1020 NOSIG
ZGSZ,2025-03-06 00:00,ZGSZ 060000Z 02006MPS 5000 -RA SCT007 OVC020 11/10 Q1021 NOSIG
ZGSZ,2025-03-06 01:00,ZGSZ 060100Z 01004MPS 5000 RA BR SCT009 OVC020 11/10 Q1022 BECMG AT0140 -RA
ZGSZ,2025-03-06 02:00,ZGSZ 060200Z 01006MPS 9999 SCT014 OVC020 12/10 Q1023 NOSIG
ZGSZ,2025-03-06 03:00,ZGSZ 060300Z 01008MPS 9999 OVC033 13/09 Q1023 NOSIG
ZGSZ,2025-03-06 04:00,ZGSZ 060400Z 02007MPS 9999 OVC036 14/08 Q1022 NOSIG
ZGSZ,2025-03-06 05:00,ZGSZ 060500Z 01007MPS 9999 OVC040 13/08 Q1021 NOSIG
ZGSZ,2025-03-06 06:00,ZGSZ 060600Z 01007MPS 9999 -RA OVC040 14/07 Q1021 NOSIG
ZGSZ,2025-03-06 07:00,ZGSZ 060700Z 02007MPS 9999 -RA OVC040 14/07 Q1020 NOSIG
ZGSZ,2025-03-06 08:00,ZGSZ 060800Z 01005MPS 9999 -RA OVC036 14/09 Q1020 NOSIG
ZGSZ,2025-03-06 09:00,ZGSZ 060900Z 02005MPS 9999 OVC036 14/08 Q1020 NOSIG
ZGSZ,2025-03-06 10:00,ZGSZ 061000Z 03005MPS 9999 OVC040 14/08 Q1020 NOSIG
ZGSZ,2025-03-06 11:00,ZGSZ 061100Z 03005MPS 9999 OVC040 14/08 Q1021 NOSIG
ZGSZ,2025-03-06 12:00,ZGSZ 061200Z 03007MPS 9999 -RA OVC040 14/08 Q1021 NOSIG
ZGSZ,2025-03-06 13:00,ZGSZ 061300Z 03006MPS 9999 -RA OVC040 13/09 Q1022 NOSIG
ZGSZ,2025-03-06 14:00,ZGSZ 061400Z 02007MPS 9999 -RA OVC040 12/09 Q1023 BECMG AT1530 RA
ZGSZ,2025-03-06 15:00,ZGSZ 061500Z 01005MPS 340V040 8000 -RA FEW020 OVC040 12/08 Q1023 BECMG AT1630 RA
ZGSZ,2025-03-06 16:00,ZGSZ 061600Z 03005MPS 9999 -RA FEW020 OVC033 12/08 Q1024 RERA NOSIG
ZGSZ,2025-03-06 17:00,ZGSZ 061700Z 02004MPS 9999 -RA FEW020 OVC033 11/08 Q1023 NOSIG
ZGSZ,2025-03-06 18:00,ZGSZ 061800Z 04006MPS 9999 BKN040 11/08 Q1022 NOSIG
ZGSZ,2025-03-06 19:00,ZGSZ 061900Z 02004MPS 9999 FEW016 BKN030 11/08 Q1022 NOSIG
ZGSZ,2025-03-06 20:00,ZGSZ 062000Z 02005MPS 8000 -RA FEW016 OVC026 11/08 Q1022 NOSIG
ZGSZ,2025-03-06 21:00,ZGSZ 062100Z 04005MPS 7000 -RA OVC026 11/08 Q1021 NOSIG
ZGSZ,2025-03-06 22:00,ZGSZ 062200Z 03005MPS 7000 -RA OVC026 10/08 Q1021 NOSIG
ZGSZ,2025-03-06 23:00,ZGSZ 062300Z 02003MPS 350V050 7000 -RA FEW013 OVC020 11/09 Q1022 BECMG AT0030 RA
ZGSZ,2025-03-07 00:00,ZGSZ 070000Z 36005MPS 7000 -RA FEW013 OVC023 11/09 Q1023 BECMG AT0040 RA
ZGSZ,2025-03-07 01:00,ZGSZ 070100Z 36004MPS 9999 -RA FEW013 OVC023 11/09 Q1024 NOSIG
ZGSZ,2025-03-07 02:00,ZGSZ 070200Z 36005MPS 7000 -RA FEW013 OVC023 11/10 Q1024 NOSIG
ZGSZ,2025-03-07 03:00,ZGSZ 070300Z 36006MPS 9999 -RA FEW013 OVC023 11/09 Q1024 NOSIG
ZGSZ,2025-03-07 04:00,ZGSZ 070400Z 02006MPS 9999 -RA FEW013 OVC030 12/09 Q1023 NOSIG
ZGSZ,2025-03-07 05:00,ZGSZ 070500Z 02006MPS 350V050 9999 FEW013 OVC040 13/09 Q1022 NOSIG
ZGSZ,2025-03-07 06:00,ZGSZ 070600Z 02006MPS 9999 FEW013 OVC040 13/09 Q1021 NOSIG
ZGSZ,2025-03-07 07:00,ZGSZ 070700Z 03006MPS 9999 FEW013 OVC040 13/09 Q1020 NOSIG
ZGSZ,2025-03-07 08:00,ZGSZ 070800Z 03005MPS 9999 FEW020 OVC040 14/09 Q1020 NOSIG
ZGSZ,2025-03-07 09:00,ZGSZ 070900Z 01005MPS 9999 OVC040 14/09 Q1020 NOSIG
ZGSZ,2025-03-07 10:00,ZGSZ 071000Z 01006MPS 9999 OVC040 13/09 Q1020 NOSIG
ZGSZ,2025-03-07 11:00,ZGSZ 071100Z 03004MPS 9999 OVC030 13/09 Q1021 NOSIG
ZGSZ,2025-03-07 12:00,ZGSZ 071200Z 03005MPS 9999 BKN040 13/09 Q1021 NOSIG
ZGSZ,2025-03-07 13:00,ZGSZ 071300Z 02003MPS 9999 BKN040 13/09 Q1022 NOSIG
ZGSZ,2025-03-07 14:00,ZGSZ 071400Z 03005MPS 9999 BKN040 13/08 Q1022 NOSIG
ZGSZ,2025-03-07 15:00,ZGSZ 071500Z 02004MPS 340V070 9999 BKN040 13/08 Q1022 NOSIG
ZGSZ,2025-03-07 16:00,ZGSZ 071600Z 02004MPS 9999 BKN040 13/08 Q1022 NOSIG
ZGSZ,2025-03-07 17:00,ZGSZ 071700Z 01004MPS 9999 BKN040 13/08 Q1022 NOSIG
ZGSZ,2025-03-07 18:00,ZGSZ 071800Z 01004MPS 9999 BKN040 13/08 Q1022 NOSIG
ZGSZ,2025-03-07 19:00,ZGSZ 071900Z 03005MPS 9999 BKN040 13/08 Q1021 NOSIG
ZGSZ,2025-03-07 20:00,ZGSZ 072000Z 01004MPS 9999 BKN040 13/08 Q1021 NOSIG
ZGSZ,2025-03-07 21:00,ZGSZ 072100Z 03005MPS 9999 BKN040 13/08 Q1021 NOSIG
ZGSZ,2025-03-07 22:00,ZGSZ 072200Z 04004MPS 320V060 9999 BKN033 13/08 Q1021 NOSIG
ZGSZ,2025-03-07 23:00,ZGSZ 072300Z 02004MPS 9999 BKN033 13/08 Q1021 NOSIG
ZGSZ,2025-03-08 00:00,ZGSZ 080000Z 02004MPS 360V060 9999 BKN036 13/08 Q1021 NOSIG
ZGSZ,2025-03-08 01:00,ZGSZ 080100Z 04004MPS 9999 BKN036 14/08 Q1021 NOSIG
ZGSZ,2025-03-08 02:00,ZGSZ 080200Z 36005MPS 9999 BKN036 14/08 Q1023 NOSIG
ZGSZ,2025-03-08 03:00,ZGSZ 080300Z 03004MPS 360V060 9999 BKN036 16/09 Q1022 NOSIG
ZGSZ,2025-03-08 04:00,ZGSZ 080400Z 35003MPS 9999 BKN036 17/09 Q1022 NOSIG
ZGSZ,2025-03-08 05:00,ZGSZ 080500Z 01004MPS 9999 BKN036 19/09 Q1021 NOSIG
ZGSZ,2025-03-08 06:00,ZGSZ 080600Z 02004MPS 340V060 9999 BKN050 19/09 Q1020 NOSIG
ZGSZ,2025-03-08 07:00,ZGSZ 080700Z 36004G09MPS 280V040 9999 BKN050 19/10 Q1019 NOSIG
ZGSZ,2025-03-08 08:00,ZGSZ 080800Z 30004MPS 9999 BKN050 18/11 Q1019 NOSIG
ZGSZ,2025-03-08 09:00,ZGSZ 080900Z 31006MPS 9999 BKN050 17/11 Q1019 NOSIG
ZGSZ,2025-03-08 10:00,ZGSZ 081000Z 31005MPS 9999 BKN050 17/12 Q1019 NOSIG
ZGSZ,2025-03-08 11:00,ZGSZ 081100Z 35003MPS 9999 BKN050 18/11 Q1019 NOSIG
ZGSZ,2025-03-08 12:00,ZGSZ 081200Z 33003MPS 9999 BKN050 17/11 Q1020 NOSIG
ZGSZ,2025-03-08 13:00,ZGSZ 081300Z 34003MPS 9999 BKN050 17/11 Q1021 NOSIG
ZGSZ,2025-03-08 14:00,ZGSZ 081400Z 32002MPS 9999 BKN043 17/11 Q1021 NOSIG
ZGSZ,2025-03-08 15:00,ZGSZ 081500Z 32003MPS 9999 BKN043 17/12 Q1022 NOSIG
ZGSZ,2025-03-08 16:00,ZGSZ 081600Z 32002MPS 9999 BKN046 17/12 Q1022 NOSIG
ZGSZ,2025-03-08 17:00,ZGSZ 081700Z 31003MPS 9999 BKN046 17/12 Q1022 NOSIG
ZGSZ,2025-03-08 18:00,ZGSZ 081800Z 34002MPS 320V020 9999 BKN046 17/12 Q1022 NOSIG
ZGSZ,2025-03-08 19:00,ZGSZ 081900Z 34002MPS 9999 BKN046 16/12 Q1021 NOSIG
ZGSZ,2025-03-08 20:00,ZGSZ 082000Z VRB01MPS 9999 BKN050 17/13 Q1021 NOSIG
ZGSZ,2025-03-08 21:00,ZGSZ 082100Z 10003MPS 080V210 9999 BKN050 17/12 Q1021 NOSIG
ZGSZ,2025-03-08 22:00,ZGSZ 082200Z 11002MPS 090V160 9999 BKN050 17/12 Q1021 NOSIG
ZGSZ,2025-03-08 23:00,ZGSZ 082300Z 09002MPS 050V120 9999 BKN050 17/13 Q1021 NOSIG
ZGSZ,2025-03-09 00:00,ZGSZ 090000Z 11002MPS 080V140 9999 FEW040 18/13 Q1022 NOSIG
ZGSZ,2025-03-09 01:00,ZGSZ 090100Z 36003MPS 320V040 9999 FEW040 18/12 Q1023 NOSIG
ZGSZ,2025-03-09 02:00,ZGSZ 090200Z VRB02MPS 9999 FEW040 19/12 Q1023 NOSIG
ZGSZ,2025-03-09 03:00,ZGSZ 090300Z 27004MPS CAVOK 20/13 Q1023 NOSIG
ZGSZ,2025-03-09 04:00,ZGSZ 090400Z 26003MPS CAVOK 21/14 Q1022 NOSIG
ZGSZ,2025-03-09 05:00,ZGSZ 090500Z 25004MPS CAVOK 21/14 Q1021 NOSIG
ZGSZ,2025-03-09 06:00,ZGSZ 090600Z 23004MPS 9000 NSC 21/14 Q1020 NOSIG
ZGSZ,2025-03-09 07:00,ZGSZ 090700Z 20004MPS 8000 NSC 21/14 Q1020 NOSIG
ZGSZ,2025-03-09 08:00,ZGSZ 090800Z 19004MPS 8000 NSC 21/13 Q1019 NOSIG
ZGSZ,2025-03-09 09:00,ZGSZ 090900Z 19004MPS CAVOK 20/14 Q1020 NOSIG
ZGSZ,2025-03-09 10:00,ZGSZ 091000Z 17003MPS CAVOK 20/14 Q1020 NOSIG
ZGSZ,2025-03-09 11:00,ZGSZ 091100Z 18003MPS CAVOK 19/14 Q1020 NOSIG
ZGSZ,2025-03-09 12:00,ZGSZ 091200Z 18003MPS CAVOK 19/14 Q1021 NOSIG
ZGSZ,2025-03-09 13:00,ZGSZ 091300Z 17003MPS 9999 BKN040 19/15 Q1022 NOSIG
ZGSZ,2025-03-09 14:00,ZGSZ 091400Z 20002MPS 9999 BKN040 19/15 Q1023 NOSIG
ZGSZ,2025-03-09 15:00,ZGSZ 091500Z 23002MPS 9999 BKN040 19/16 Q1023 NOSIG
ZGSZ,2025-03-09 16:00,ZGSZ 091600Z 19002MPS 9999 BKN040 19/16 Q1023 NOSIG
ZGSZ,2025-03-09 17:00,ZGSZ 091700Z 14001MPS 9999 BKN050 19/15 Q1022 NOSIG
ZGSZ,2025-03-09 18:00,ZGSZ 091800Z 04001MPS 9999 BKN050 19/15 Q1021 NOSIG
ZGSZ,2025-03-09 19:00,ZGSZ 091900Z 02002MPS 330V030 9999 BKN050 20/14 Q1021 NOSIG
ZGSZ,2025-03-09 20:00,ZGSZ 092000Z 06002MPS 9999 BKN050 19/14 Q1020 NOSIG
ZGSZ,2025-03-09 21:00,ZGSZ 092100Z 05002MPS 9999 BKN050 19/13 Q1020 NOSIG
ZGSZ,2025-03-09 22:00,ZGSZ 092200Z 10002MPS 070V130 9999 BKN050 19/13 Q1020 NOSIG
ZGSZ,2025-03-09 23:00,ZGSZ 092300Z 08002MPS 010V150 CAVOK 19/13 Q1020 NOSIG
ZGSZ,2025-03-10 00:00,ZGSZ 100000Z 14002MPS CAVOK 21/13 Q1021 NOSIG
ZGSZ,2025-03-10 01:00,ZGSZ 100100Z 11003MPS CAVOK 21/14 Q1022 NOSIG
ZGSZ,2025-03-10 02:00,ZGSZ 100200Z 09003MPS 040V160 9999 BKN050 23/15 Q1022 NOSIG
ZGSZ,2025-03-10 03:00,ZGSZ 100300Z VRB02MPS 9999 BKN050 24/15 Q1022 NOSIG
ZGSZ,2025-03-10 04:00,ZGSZ 100400Z 27004MPS 9999 FEW050 23/16 Q1021 NOSIG
ZGSZ,2025-03-10 05:00,ZGSZ 100500Z 27003MPS 9000 NSC 24/16 Q1020 NOSIG
ZGSZ,2025-03-10 06:00,ZGSZ 100600Z 26003MPS 9000 NSC 25/16 Q1019 NOSIG
ZGSZ,2025-03-10 07:00,ZGSZ 100700Z 22004MPS CAVOK 24/17 Q1018 NOSIG
ZGSZ,2025-03-10 08:00,ZGSZ 100800Z 22003MPS CAVOK 25/17 Q1017 NOSIG
ZGSZ,2025-03-10 09:00,ZGSZ 100900Z 18004MPS CAVOK 23/17 Q1017 NOSIG
ZGSZ,2025-03-10 10:00,ZGSZ 101000Z 18004MPS CAVOK 21/18 Q1018 NOSIG
ZGSZ,2025-03-10 11:00,ZGSZ 101100Z 16003MPS CAVOK 20/17 Q1018 NOSIG
ZGSZ,2025-03-10 12:00,ZGSZ 101200Z 17003MPS CAVOK 21/18 Q1018 NOSIG
ZGSZ,2025-03-10 13:00,ZGSZ 101300Z 17002MPS CAVOK 20/18 Q1018 NOSIG
ZGSZ,2025-03-10 14:00,ZGSZ 101400Z 10003MPS CAVOK 22/16 Q1019 NOSIG
ZGSZ,2025-03-10 15:00,ZGSZ 101500Z 01002MPS 320V120 CAVOK 22/16 Q1019 NOSIG
ZGSZ,2025-03-10 16:00,ZGSZ 101600Z 11002MPS 080V140 CAVOK 22/15 Q1018 NOSIG
ZGSZ,2025-03-10 17:00,ZGSZ 101700Z 10003MPS CAVOK 21/15 Q1018 NOSIG
ZGSZ,2025-03-10 18:00,ZGSZ 101800Z 11002MPS 080V150 CAVOK 21/15 Q1017 NOSIG
ZGSZ,2025-03-10 19:00,ZGSZ 101900Z 32002MPS CAVOK 19/18 Q1017 NOSIG
ZGSZ,2025-03-10 20:00,ZGSZ 102000Z VRB01MPS CAVOK 20/17 Q1016 NOSIG
ZGSZ,2025-03-10 21:00,ZGSZ 102100Z VRB02G07MPS CAVOK 21/16 Q1016 NOSIG
ZGSZ,2025-03-10 22:00,ZGSZ 102200Z 06001MPS CAVOK 20/17 Q1017 NOSIG
ZGSZ,2025-03-10 23:00,ZGSZ 102300Z 04001MPS 9999 FEW040 19/16 Q1017 NOSIG
ZGSZ,2025-03-11 00:00,ZGSZ 110000Z VRB01MPS 9999 FEW040 21/17 Q1018 NOSIG
ZGSZ,2025-03-11 01:00,ZGSZ 110100Z 07002MPS 030V120 9999 SCT040 23/17 Q1018 NOSIG
ZGSZ,2025-03-11 02:00,ZGSZ 110200Z 23002MPS 180V250 9999 SCT040 23/18 Q1018 NOSIG
ZGSZ,2025-03-11 03:00,ZGSZ 110300Z 23003MPS 8000 NSC 23/18 Q1018 NOSIG
ZGSZ,2025-03-11 04:00,ZGSZ 110400Z 23004MPS 8000 FEW030 24/18 Q1017 NOSIG
ZGSZ,2025-03-11 05:00,ZGSZ 110500Z 22005MPS 8000 FEW030 25/18 Q1016 NOSIG
ZGSZ,2025-03-11 06:00,ZGSZ 110600Z 21004MPS 9999 FEW030 25/18 Q1015 NOSIG
ZGSZ,2025-03-11 07:00,ZGSZ 110700Z 20005MPS 9999 BKN053 24/18 Q1014 NOSIG
ZGSZ,2025-03-11 08:00,ZGSZ 110800Z 20005MPS 9999 BKN053 23/19 Q1014 NOSIG
ZGSZ,2025-03-11 09:00,ZGSZ 110900Z 20003MPS 9999 BKN053 23/19 Q1014 NOSIG
ZGSZ,2025-03-11 10:00,ZGSZ 111000Z 20004MPS 9999 BKN053 22/19 Q1014 NOSIG
ZGSZ,2025-03-11 11:00,ZGSZ 111100Z 15003MPS 9999 BKN053 22/19 Q1014 NOSIG
ZGSZ,2025-03-11 12:00,ZGSZ 111200Z 19002MPS 9999 BKN053 22/19 Q1015 NOSIG
ZGSZ,2025-03-11 13:00,ZGSZ 111300Z 11002MPS 9999 BKN053 24/18 Q1015 NOSIG
ZGSZ,2025-03-11 14:00,ZGSZ 111400Z 12004MPS 080V140 9999 BKN053 24/17 Q1015 NOSIG
ZGSZ,2025-03-11 15:00,ZGSZ 111500Z 12003MPS 080V140 9999 BKN053 24/17 Q1015 NOSIG
ZGSZ,2025-03-11 16:00,ZGSZ 111600Z 32001MPS 9999 BKN053 24/17 Q1014 NOSIG
ZGSZ,2025-03-11 17:00,ZGSZ 111700Z 29002MPS 9999 BKN053 22/19 Q1014 NOSIG
ZGSZ,2025-03-11 18:00,ZGSZ 111800Z 31002MPS 9999 BKN053 22/19 Q1014 NOSIG
ZGSZ,2025-03-11 19:00,ZGSZ 111900Z 33002MPS 9999 BKN050 22/19 Q1014 NOSIG
ZGSZ,2025-03-11 20:00,ZGSZ 112000Z 33002MPS 9999 BKN046 22/19 Q1013 NOSIG
ZGSZ,2025-03-11 21:00,ZGSZ 112100Z 33001MPS 9999 BKN046 22/18 Q1014 NOSIG
ZGSZ,2025-03-11 22:00,ZGSZ 112200Z 33001MPS 9999 BKN046 22/19 Q1014 NOSIG
ZGSZ,2025-03-11 23:00,ZGSZ 112300Z VRB01MPS 9999 BKN046 22/19 Q1015 NOSIG
ZGSZ,2025-03-12 00:00,ZGSZ 120000Z 30001MPS 9999 BKN046 23/19 Q1015 NOSIG
ZGSZ,2025-03-12 01:00,ZGSZ 120100Z 21002MPS 9999 BKN046 22/19 Q1016 NOSIG
ZGSZ,2025-03-12 02:00,ZGSZ 120200Z 20004MPS 9999 BKN046 22/19 Q1016 NOSIG
ZGSZ,2025-03-12 03:00,ZGSZ 120300Z 21003MPS 9999 BKN046 23/19 Q1016 NOSIG
ZGSZ,2025-03-12 04:00,ZGSZ 120400Z 18002MPS 8000 -RA OVC046 24/19 Q1015 NOSIG
ZGSZ,2025-03-12 05:00,ZGSZ 120500Z 21004MPS 9999 OVC046 23/19 Q1014 NOSIG
ZGSZ,2025-03-12 06:00,ZGSZ 120600Z 19004MPS 8000 BKN046 24/19 Q1013 NOSIG
ZGSZ,2025-03-12 07:00,ZGSZ 120700Z 20003MPS 9999 SCT046 25/19 Q1012 NOSIG
ZGSZ,2025-03-12 08:00,ZGSZ 120800Z 18005MPS 9999 SCT046 24/20 Q1011 NOSIG
ZGSZ,2025-03-12 09:00,ZGSZ 120900Z 18004MPS 9999 FEW050 23/20 Q1011 NOSIG
ZGSZ,2025-03-12 10:00,ZGSZ 121000Z 18005MPS 9999 FEW050 23/21 Q1011 NOSIG
ZGSZ,2025-03-12 11:00,ZGSZ 121100Z 18006MPS 9999 FEW050 23/21 Q1012 NOSIG
ZGSZ,2025-03-12 12:00,ZGSZ 121200Z 19004MPS CAVOK 22/20 Q1012 NOSIG
ZGSZ,2025-03-12 13:00,ZGSZ 121300Z 18003MPS CAVOK 22/20 Q1013 NOSIG
ZGSZ,2025-03-12 14:00,ZGSZ 121400Z 17005MPS CAVOK 22/20 Q1013 NOSIG
ZGSZ,2025-03-12 15:00,ZGSZ 121500Z 17003MPS CAVOK 22/20 Q1014 NOSIG
ZGSZ,2025-03-12 16:00,ZGSZ 121600Z 16002MPS CAVOK 21/20 Q1014 NOSIG
ZGSZ,2025-03-12 17:00,ZGSZ 121700Z 11002MPS 060V160 CAVOK 23/20 Q1014 NOSIG
ZGSZ,2025-03-12 18:00,ZGSZ 121800Z 21002MPS CAVOK 21/20 Q1013 NOSIG
ZGSZ,2025-03-12 19:00,ZGSZ 121900Z 27001MPS CAVOK 21/20 Q1013 NOSIG
ZGSZ,2025-03-12 20:00,ZGSZ 122000Z 31002MPS 290V020 9999 BKN033 21/20 Q1012 NOSIG
ZGSZ,2025-03-12 21:00,ZGSZ 122100Z VRB01MPS 9999 BKN030 22/20 Q1013 NOSIG
ZGSZ,2025-03-12 22:00,ZGSZ 122200Z VRB01MPS 9999 BKN030 23/20 Q1013 NOSIG
ZGSZ,2025-03-12 23:00,ZGSZ 122300Z 04002MPS 360V110 9999 BKN030 23/20 Q1014 NOSIG
ZGSZ,2025-03-13 00:00,ZGSZ 130000Z 07002MPS 020V100 9999 BKN030 24/20 Q1014 NOSIG
ZGSZ,2025-03-13 01:00,ZGSZ 130100Z VRB01MPS CAVOK 27/21 Q1015 NOSIG
ZGSZ,2025-03-13 02:00,ZGSZ 130200Z 20003MPS CAVOK 26/21 Q1015 NOSIG
ZGSZ,2025-03-13 03:00,ZGSZ 130300Z 21004MPS 9999 FEW026 24/20 Q1015 NOSIG
ZGSZ,2025-03-13 04:00,ZGSZ 130400Z 21003MPS CAVOK 26/20 Q1014 NOSIG
ZGSZ,2025-03-13 05:00,ZGSZ 130500Z 21004MPS CAVOK 26/20 Q1013 NOSIG
ZGSZ,2025-03-13 06:00,ZGSZ 130600Z 20003MPS CAVOK 27/20 Q1012 NOSIG
ZGSZ,2025-03-13 07:00,ZGSZ 130700Z 19003MPS CAVOK 26/21 Q1012 NOSIG
ZGSZ,2025-03-13 08:00,ZGSZ 130800Z 19005MPS CAVOK 24/21 Q1011 NOSIG
ZGSZ,2025-03-13 09:00,ZGSZ 130900Z 17004MPS CAVOK 25/21 Q1011 NOSIG
ZGSZ,2025-03-13 10:00,ZGSZ 131000Z 18006MPS CAVOK 24/21 Q1011 NOSIG
ZGSZ,2025-03-13 11:00,ZGSZ 131100Z 16006MPS CAVOK 23/21 Q1011 NOSIG
ZGSZ,2025-03-13 12:00,ZGSZ 131200Z 17004MPS CAVOK 24/21 Q1012 NOSIG
ZGSZ,2025-03-13 13:00,ZGSZ 131300Z 18004MPS CAVOK 23/21 Q1012 NOSIG
ZGSZ,2025-03-13 14:00,ZGSZ 131400Z 21003MPS CAVOK 22/20 Q1013 NOSIG
ZGSZ,2025-03-13 15:00,ZGSZ 131500Z VRB02MPS 7000 NSC 22/20 Q1013 NOSIG
ZGSZ,2025-03-13 16:00,ZGSZ 131600Z 18002MPS 7000 FEW010 22/20 Q1014 NOSIG
ZGSZ,2025-03-13 17:00,ZGSZ 131700Z 15003MPS 5000 BR SCT008 22/20 Q1013 NOSIG
ZGSZ,2025-03-13 18:00,ZGSZ 131800Z 17003MPS 0500 R15/P2000 R16/1000D FG BKN004 22/21 Q1013 BECMG AT1950 0800 BKN005
ZGSZ,2025-03-13 19:00,ZGSZ 131900Z 20002MPS 170V230 2500 R15/P2000 R16/0900N BR FEW003 SCT005 21/20 Q1012 BECMG AT2050 4000
ZGSZ,2025-03-13 20:00,ZGSZ 132000Z 00000MPS 0600 R15/P2000 R16/0900N FG BKN004 21/20 Q1013 BECMG AT2050 4000
ZGSZ,2025-03-13 21:00,ZGSZ 132100Z 16002MPS 0900 R15/P2000 R16/0800U FG FEW002 BKN004 21/20 Q1012 BECMG AT2220 2000 BR SCT004
ZGSZ,2025-03-13 22:00,ZGSZ 132200Z 17003MPS 0500 R15/P2000 R16/0900D FG FEW002 BKN004 21/20 Q1013 BECMG AT2240 2000 BR SCT004
ZGSZ,2025-03-13 23:00,ZGSZ 132300Z 16002MPS 5000 BR FEW002 BKN005 21/21 Q1014 BECMG AT2340 BKN011
ZGSZ,2025-03-14 00:00,ZGSZ 140000Z 17002MPS 5000 BR BKN011 BKN020 22/21 Q1015 BECMG AT0040 SCT010 BKN030
ZGSZ,2025-03-14 01:00,ZGSZ 140100Z 20003MPS 5000 BR SCT013 BKN030 22/21 Q1015 NOSIG
ZGSZ,2025-03-14 02:00,ZGSZ 140200Z 21003MPS 6000 SCT015 BKN030 23/21 Q1015 NOSIG
ZGSZ,2025-03-14 03:00,ZGSZ 140300Z 21003MPS 170V230 7000 BKN023 24/21 Q1016 NOSIG
ZGSZ,2025-03-14 04:00,ZGSZ 140400Z 23004MPS 8000 BKN033 24/21 Q1015 NOSIG
ZGSZ,2025-03-14 05:00,ZGSZ 140500Z 20004MPS CAVOK 26/21 Q1014 NOSIG
ZGSZ,2025-03-14 06:00,ZGSZ 140600Z 22005MPS 9999 BKN033 25/21 Q1013 NOSIG
ZGSZ,2025-03-14 07:00,ZGSZ 140700Z 22004MPS 9999 SCT040 25/21 Q1012 NOSIG
ZGSZ,2025-03-14 08:00,ZGSZ 140800Z 18004MPS 9999 FEW033 26/21 Q1011 NOSIG
ZGSZ,2025-03-14 09:00,ZGSZ 140900Z 20004MPS 180V240 9999 SCT040 25/21 Q1012 NOSIG
ZGSZ,2025-03-14 10:00,ZGSZ 141000Z 19004MPS 9999 BKN050 24/21 Q1012 NOSIG
ZGSZ,2025-03-14 11:00,ZGSZ 141100Z 17005MPS 9999 BKN050 24/21 Q1012 NOSIG
ZGSZ,2025-03-14 12:00,ZGSZ 141200Z 15005MPS 9999 BKN050 24/20 Q1013 NOSIG
ZGSZ,2025-03-14 13:00,ZGSZ 141300Z 13005MPS CAVOK 24/20 Q1013 NOSIG
ZGSZ,2025-03-14 14:00,ZGSZ 141400Z 12004MPS CAVOK 24/20 Q1014 NOSIG
ZGSZ,2025-03-14 15:00,ZGSZ 141500Z 12004MPS CAVOK 23/20 Q1013 NOSIG
ZGSZ,2025-03-14 16:00,ZGSZ 141600Z 12004MPS 100V160 CAVOK 23/19 Q1013 NOSIG
ZGSZ,2025-03-14 17:00,ZGSZ 141700Z 11002MPS 070V130 9999 BKN020 23/20 Q1013 NOSIG
ZGSZ,2025-03-14 18:00,ZGSZ 141800Z 13002MPS 070V160 9999 BKN020 23/20 Q1013 NOSIG
ZGSZ,2025-03-14 19:00,ZGSZ 141900Z VRB01MPS 9999 BKN020 22/20 Q1012 NOSIG
ZGSZ,2025-03-14 20:00,ZGSZ 142000Z 29002MPS 9999 BKN020 22/20 Q1013 NOSIG
ZGSZ,2025-03-14 21:00,ZGSZ 142100Z 29002MPS 260V320 9999 BKN020 22/20 Q1013 NOSIG
ZGSZ,2025-03-14 22:00,ZGSZ 142200Z 12004MPS CAVOK 23/20 Q1013 NOSIG
ZGSZ,2025-03-14 23:00,ZGSZ 142300Z 14003MPS CAVOK 23/20 Q1013 NOSIG
ZGSZ,2025-03-15 00:00,ZGSZ 150000Z VRB01MPS CAVOK 23/20 Q1014 NOSIG
ZGSZ,2025-03-15 01:00,ZGSZ 150100Z 27003MPS 9999 SCT016 23/21 Q1015 NOSIG
ZGSZ,2025-03-15 02:00,ZGSZ 150200Z 29002MPS 9999 SCT016 24/21 Q1015 NOSIG
ZGSZ,2025-03-15 03:00,ZGSZ 150300Z 24003MPS 9999 BKN046 25/21 Q1014 NOSIG
ZGSZ,2025-03-15 04:00,ZGSZ 150400Z 28003MPS 9999 BKN040 26/21 Q1014 NOSIG
ZGSZ,2025-03-15 05:00,ZGSZ 150500Z 24002MPS 9999 BKN050 26/21 Q1013 BECMG AT0650 33006MPS TSRA SCT015 FEW020CB BKN040
ZGSZ,2025-03-15 06:00,ZGSZ 150600Z 24002MPS 9999 OVC050 25/21 Q1012 BECMG AT0640 33006G18MPS 2500 +TSRA SCT015 FEW020CB BKN040
ZGSZ,2025-03-15 07:00,ZGSZ 150700Z 33012G17MPS 2000 +TSRA SCT015 FEW023CB BKN033 20/19 Q1012 BECMG AT0800 33005MPS 5000 -TSRA
ZGSZ,2025-03-15 08:00,ZGSZ 150800Z 04005MPS 9999 -TSRA FEW016 FEW030CB 21/19 Q1011 RESHRA BECMG AT0830 NSW
ZGSZ,2025-03-15 09:00,ZGSZ 150900Z 29006MPS 9999 -SHRA FEW016 BKN040 21/19 Q1013 NOSIG
ZGSZ,2025-03-15 10:00,ZGSZ 151000Z 32007MPS 9999 SCT016 BKN040 20/18 Q1013 NOSIG
ZGSZ,2025-03-15 11:00,ZGSZ 151100Z 31007MPS 9999 SCT016 BKN030 20/18 Q1014 NOSIG
ZGSZ,2025-03-15 12:00,ZGSZ 151200Z 34007MPS 9999 SCT016 BKN030 19/17 Q1016 NOSIG
ZGSZ,2025-03-15 13:00,ZGSZ 151300Z 35007MPS 9999 SCT016 BKN030 19/16 Q1017 NOSIG
ZGSZ,2025-03-15 14:00,ZGSZ 151400Z 35007MPS 9999 FEW016 BKN030 19/16 Q1017 NOSIG
ZGSZ,2025-03-15 15:00,ZGSZ 151500Z 34007MPS 9999 BKN026 18/14 Q1018 NOSIG
ZGSZ,2025-03-15 16:00,ZGSZ 151600Z 35006MPS 9999 BKN030 18/14 Q1018 NOSIG
ZGSZ,2025-03-15 17:00,ZGSZ 151700Z 35008MPS 9999 BKN026 17/12 Q1018 NOSIG
ZGSZ,2025-03-15 18:00,ZGSZ 151800Z 01007MPS 9999 BKN030 17/11 Q1018 NOSIG
ZGSZ,2025-03-15 19:00,ZGSZ 151900Z 02009MPS 9999 BKN030 17/09 Q1018 NOSIG
ZGSZ,2025-03-15 20:00,ZGSZ 152000Z 02008G13MPS 9999 BKN030 17/08 Q1018 NOSIG
ZGSZ,2025-03-15 21:00,ZGSZ 152100Z 02007MPS 9999 BKN030 16/08 Q1019 NOSIG
ZGSZ,2025-03-15 22:00,ZGSZ 152200Z 02008MPS 9999 BKN030 16/08 Q1019 NOSIG
ZGSZ,2025-03-15 23:00,ZGSZ 152300Z 02009MPS 9999 BKN050 15/07 Q1021 NOSIG
ZGSZ,2025-03-16 00:00,ZGSZ 160000Z 02008MPS 9999 SCT023 16/07 Q1021 NOSIG
ZGSZ,2025-03-16 01:00,ZGSZ 160100Z 01009MPS 9999 SCT036 16/08 Q1022 NOSIG
ZGSZ,2025-03-16 02:00,ZGSZ 160200Z 01009G14MPS 9999 SCT046 17/07 Q1022 NOSIG
ZGSZ,2025-03-16 03:00,ZGSZ 160300Z 03010MPS CAVOK 17/07 Q1021 NOSIG
ZGSZ,2025-03-16 04:00,ZGSZ 160400Z 01009MPS CAVOK 18/07 Q1021 NOSIG
ZGSZ,2025-03-16 05:00,ZGSZ 160500Z 35007MPS CAVOK 20/07 Q1020 NOSIG
ZGSZ,2025-03-16 06:00,ZGSZ 160600Z 01008MPS CAVOK 20/07 Q1019 NOSIG
ZGSZ,2025-03-16 07:00,ZGSZ 160700Z 36007MPS 330V030 CAVOK 21/07 Q1018 NOSIG
ZGSZ,2025-03-16 08:00,ZGSZ 160800Z 02008G13MPS 350V050 CAVOK 21/07 Q1018 NOSIG
ZGSZ,2025-03-16 09:00,ZGSZ 160900Z 02007MPS CAVOK 20/06 Q1018 NOSIG
ZGSZ,2025-03-16 10:00,ZGSZ 161000Z 36008MPS CAVOK 19/06 Q1019 NOSIG
ZGSZ,2025-03-16 11:00,ZGSZ 161100Z 03007MPS CAVOK 18/06 Q1020 NOSIG
ZGSZ,2025-03-16 12:00,ZGSZ 161200Z 02009MPS CAVOK 17/06 Q1020 NOSIG
ZGSZ,2025-03-16 13:00,ZGSZ 161300Z 05008MPS CAVOK 17/05 Q1021 NOSIG
ZGSZ,2025-03-16 14:00,ZGSZ 161400Z 04008MPS CAVOK 16/04 Q1021 NOSIG
ZGSZ,2025-03-16 15:00,ZGSZ 161500Z 02006MPS CAVOK 16/05 Q1022 NOSIG
ZGSZ,2025-03-16 16:00,ZGSZ 161600Z 03007MPS CAVOK 16/04 Q1022 NOSIG
ZGSZ,2025-03-16 17:00,ZGSZ 161700Z 04008MPS CAVOK 15/04 Q1022 NOSIG
ZGSZ,2025-03-16 18:00,ZGSZ 161800Z 04006MPS 360V060 CAVOK 15/04 Q1021 NOSIG
ZGSZ,2025-03-16 19:00,ZGSZ 161900Z 03007MPS CAVOK 15/04 Q1021 NOSIG
ZGSZ,2025-03-16 20:00,ZGSZ 162000Z 02007MPS CAVOK 15/04 Q1021 NOSIG
ZGSZ,2025-03-16 21:00,ZGSZ 162100Z 03006MPS CAVOK 14/04 Q1021 NOSIG
ZGSZ,2025-03-16 22:00,ZGSZ 162200Z 03006MPS CAVOK 15/03 Q1022 NOSIG
ZGSZ,2025-03-16 23:00,ZGSZ 162300Z 03006MPS CAVOK 15/04 Q1023 NOSIG
ZGSZ,2025-03-17 00:00,ZGSZ 170000Z 04007MPS CAVOK 15/04 Q1023 NOSIG
ZGSZ,2025-03-17 01:00,ZGSZ 170100Z 02005MPS CAVOK 15/04 Q1024 NOSIG
ZGSZ,2025-03-17 02:00,ZGSZ 170200Z 03007MPS CAVOK 16/02 Q1023 NOSIG
ZGSZ,2025-03-17 03:00,ZGSZ 170300Z 03006MPS 010V070 CAVOK 16/02 Q1023 NOSIG
ZGSZ,2025-03-17 04:00,ZGSZ 170400Z 03006MPS CAVOK 17/03 Q1022 NOSIG
ZGSZ,2025-03-17 05:00,ZGSZ 170500Z 03005MPS 360V060 CAVOK 18/03 Q1021 NOSIG
ZGSZ,2025-03-17 06:00,ZGSZ 170600Z 02005MPS 350V050 CAVOK 18/03 Q1020 NOSIG
ZGSZ,2025-03-17 07:00,ZGSZ 170700Z 01005MPS 340V040 CAVOK 17/03 Q1019 NOSIG
ZGSZ,2025-03-17 08:00,ZGSZ 170800Z 03004MPS 360V070 CAVOK 17/03 Q1019 NOSIG
ZGSZ,2025-03-17 09:00,ZGSZ 170900Z 02005MPS CAVOK 16/02 Q1019 NOSIG
ZGSZ,2025-03-17 10:00,ZGSZ 171000Z 05005MPS CAVOK 16/03 Q1019 NOSIG
ZGSZ,2025-03-17 11:00,ZGSZ 171100Z 05003MPS CAVOK 16/03 Q1020 NOSIG
ZGSZ,2025-03-17 12:00,ZGSZ 171200Z 04004MPS CAVOK 16/03 Q1020 NOSIG
ZGSZ,2025-03-17 13:00,ZGSZ 171300Z 05003MPS CAVOK 16/04 Q1021 NOSIG
ZGSZ,2025-03-17 14:00,ZGSZ 171400Z 01003MPS CAVOK 16/05 Q1022 NOSIG
ZGSZ,2025-03-17 15:00,ZGSZ 171500Z 03003MPS CAVOK 16/04 Q1022 NOSIG
ZGSZ,2025-03-17 16:00,ZGSZ 171600Z 36003MPS CAVOK 16/05 Q1023 NOSIG
ZGSZ,2025-03-17 17:00,ZGSZ 171700Z 03002MPS 360V060 CAVOK 16/05 Q1022 NOSIG
ZGSZ,2025-03-17 18:00,ZGSZ 171800Z 35003MPS CAVOK 15/06 Q1022 NOSIG
ZGSZ,2025-03-17 19:00,ZGSZ 171900Z 01004MPS 9000 -RA NSC 16/07 Q1022 NOSIG
ZGSZ,2025-03-17 20:00,ZGSZ 172000Z 01005MPS 9000 -RA NSC 14/08 Q1022 NOSIG
ZGSZ,2025-03-17 21:00,ZGSZ 172100Z 36003MPS 8000 -RA NSC 13/10 Q1022 RERA NOSIG
ZGSZ,2025-03-17 22:00,ZGSZ 172200Z 02007MPS CAVOK 14/09 Q1022 NOSIG
ZGSZ,2025-03-17 23:00,ZGSZ 172300Z 03007MPS CAVOK 14/09 Q1023 NOSIG
ZGSZ,2025-03-18 00:00,ZGSZ 180000Z 03004MPS CAVOK 14/09 Q1024 NOSIG
ZGSZ,2025-03-18 01:00,ZGSZ 180100Z 03005MPS CAVOK 14/07 Q1024 NOSIG
ZGSZ,2025-03-18 02:00,ZGSZ 180200Z 03005MPS 360V070 CAVOK 15/07 Q1024 NOSIG
ZGSZ,2025-03-18 03:00,ZGSZ 180300Z 01006MPS CAVOK 16/08 Q1024 NOSIG
ZGSZ,2025-03-18 04:00,ZGSZ 180400Z 02006MPS CAVOK 17/06 Q1023 NOSIG
ZGSZ,2025-03-18 05:00,ZGSZ 180500Z 02006MPS CAVOK 18/06 Q1022 NOSIG
ZGSZ,2025-03-18 06:00,ZGSZ 180600Z 36006MPS CAVOK 19/05 Q1021 NOSIG
ZGSZ,2025-03-18 07:00,ZGSZ 180700Z 02005MPS 350V050 CAVOK 19/03 Q1021 NOSIG
ZGSZ,2025-03-18 08:00,ZGSZ 180800Z 02004MPS 350V050 CAVOK 19/03 Q1021 NOSIG
ZGSZ,2025-03-18 09:00,ZGSZ 180900Z 04004MPS CAVOK 19/02 Q1021 NOSIG
ZGSZ,2025-03-18 10:00,ZGSZ 181000Z 04003MPS CAVOK 18/03 Q1021 NOSIG
ZGSZ,2025-03-18 11:00,ZGSZ 181100Z VRB02MPS CAVOK 18/03 Q1021 NOSIG
ZGSZ,2025-03-18 12:00,ZGSZ 181200Z 08002MPS 060V210 CAVOK 17/05 Q1022 NOSIG
ZGSZ,2025-03-18 13:00,ZGSZ 181300Z 06001MPS CAVOK 17/05 Q1023 NOSIG
ZGSZ,2025-03-18 14:00,ZGSZ 181400Z 00000MPS CAVOK 16/06 Q1024 NOSIG
ZGSZ,2025-03-18 15:00,ZGSZ 181500Z 08002MPS 060V120 CAVOK 17/06 Q1024 NOSIG
ZGSZ,2025-03-18 16:00,ZGSZ 181600Z 05002MPS 030V090 CAVOK 17/05 Q1024 NOSIG
ZGSZ,2025-03-18 17:00,ZGSZ 181700Z 08002MPS CAVOK 16/05 Q1024 NOSIG
ZGSZ,2025-03-18 18:00,ZGSZ 181800Z 04002MPS 340V120 CAVOK 16/05 Q1024 NOSIG
ZGSZ,2025-03-18 19:00,ZGSZ 181900Z 04002MPS CAVOK 15/07 Q1024 NOSIG
ZGSZ,2025-03-18 20:00,ZGSZ 182000Z 03003MPS CAVOK 15/07 Q1023 NOSIG
ZGSZ,2025-03-18 21:00,ZGSZ 182100Z 03003MPS CAVOK 15/07 Q1023 NOSIG
ZGSZ,2025-03-18 22:00,ZGSZ 182200Z 01003MPS CAVOK 14/08 Q1024 NOSIG
ZGSZ,2025-03-18 23:00,ZGSZ 182300Z 02002MPS CAVOK 14/08 Q1025 NOSIG
ZGSZ,2025-03-19 00:00,ZGSZ 190000Z 01002MPS 320V110 CAVOK 17/07 Q1026 NOSIG
ZGSZ,2025-03-19 01:00,ZGSZ 190100Z 02004MPS CAVOK 18/04 Q1026 NOSIG
ZGSZ,2025-03-19 02:00,ZGSZ 190200Z 03005MPS CAVOK 19/02 Q1027 NOSIG
ZGSZ,2025-03-19 03:00,ZGSZ 190300Z 04004MPS 010V070 CAVOK 20/01 Q1026 NOSIG
ZGSZ,2025-03-19 04:00,ZGSZ 190400Z 02003MPS 290V070 CAVOK 22/01 Q1026 BECMG AT0540 30005MPS
ZGSZ,2025-03-19 05:00,ZGSZ 190500Z 03004MPS 350V070 CAVOK 23/00 Q1024 BECMG AT0630 30005MPS
ZGSZ,2025-03-19 06:00,ZGSZ 190600Z 06004MPS 010V110 CAVOK 23/M01 Q1023 BECMG AT0640 30005MPS
ZGSZ,2025-03-19 07:00,ZGSZ 190700Z 08004MPS 020V180 CAVOK 24/01 Q1022 BECMG AT0740 30005MPS
ZGSZ,2025-03-19 08:00,ZGSZ 190800Z 33004MPS 260V040 CAVOK 24/03 Q1022 NOSIG
ZGSZ,2025-03-19 09:00,ZGSZ 190900Z 29004MPS CAVOK 22/02 Q1022 BECMG AT1040 21005MPS
ZGSZ,2025-03-19 10:00,ZGSZ 191000Z 30003MPS CAVOK 22/03 Q1022 BECMG AT1100 21005MPS
ZGSZ,2025-03-19 11:00,ZGSZ 191100Z 18005MPS CAVOK 19/11 Q1022 NOSIG
ZGSZ,2025-03-19 12:00,ZGSZ 191200Z 17003MPS CAVOK 19/10 Q1023 NOSIG
ZGSZ,2025-03-19 13:00,ZGSZ 191300Z 18003MPS CAVOK 19/11 Q1024 NOSIG
ZGSZ,2025-03-19 14:00,ZGSZ 191400Z 17002MPS CAVOK 18/11 Q1024 NOSIG
ZGSZ,2025-03-19 15:00,ZGSZ 191500Z 12004MPS CAVOK 18/08 Q1024 NOSIG
ZGSZ,2025-03-19 16:00,ZGSZ 191600Z 13003MPS CAVOK 18/07 Q1024 NOSIG
ZGSZ,2025-03-19 17:00,ZGSZ 191700Z 11002MPS 080V140 CAVOK 18/07 Q1025 NOSIG
ZGSZ,2025-03-19 18:00,ZGSZ 191800Z 08002MPS CAVOK 18/09 Q1025 NOSIG
ZGSZ,2025-03-19 19:00,ZGSZ 191900Z VRB01MPS CAVOK 17/09 Q1025 NOSIG
ZGSZ,2025-03-19 20:00,ZGSZ 192000Z 04003MPS 360V100 CAVOK 17/09 Q1024 NOSIG
ZGSZ,2025-03-19 21:00,ZGSZ 192100Z 04003MPS 010V110 CAVOK 16/10 Q1024 NOSIG
ZGSZ,2025-03-19 22:00,ZGSZ 192200Z 04003G08MPS 350V070 CAVOK 17/09 Q1025 NOSIG
ZGSZ,2025-03-19 23:00,ZGSZ 192300Z VRB01MPS CAVOK 15/10 Q1025 NOSIG
ZGSZ,2025-03-20 00:00,ZGSZ 200000Z 04003MPS CAVOK 17/10 Q1026 NOSIG
ZGSZ,2025-03-20 01:00,ZGSZ 200100Z 04003MPS CAVOK 19/09 Q1026 NOSIG
ZGSZ,2025-03-20 02:00,ZGSZ 200200Z 03005MPS CAVOK 21/06 Q1026 NOSIG
ZGSZ,2025-03-20 03:00,ZGSZ 200300Z 04004MPS 010V070 CAVOK 23/02 Q1026 NOSIG
ZGSZ,2025-03-20 04:00,ZGSZ 200400Z 04005MPS 010V070 CAVOK 24/00 Q1025 BECMG AT0530 30005MPS
ZGSZ,2025-03-20 05:00,ZGSZ 200500Z 03005MPS 360V060 CAVOK 25/02 Q1023 BECMG AT0530 30005MPS
ZGSZ,2025-03-20 06:00,ZGSZ 200600Z 33004MPS CAVOK 25/02 Q1022 NOSIG
ZGSZ,2025-03-20 07:00,ZGSZ 200700Z 28004MPS CAVOK 24/06 Q1021 NOSIG
ZGSZ,2025-03-20 08:00,ZGSZ 200800Z 28005MPS CAVOK 24/06 Q1020 BECMG AT0940 19005MPS
ZGSZ,2025-03-20 09:00,ZGSZ 200900Z 27004MPS CAVOK 24/06 Q1020 BECMG AT0940 19005MPS
ZGSZ,2025-03-20 10:00,ZGSZ 201000Z 31002MPS 260V010 CAVOK 23/05 Q1020 BECMG AT1030 18005MPS
ZGSZ,2025-03-20 11:00,ZGSZ 201100Z 17005MPS CAVOK 20/11 Q1021 NOSIG
ZGSZ,2025-03-20 12:00,ZGSZ 201200Z 16003MPS CAVOK 19/11 Q1021 NOSIG
ZGSZ,2025-03-20 13:00,ZGSZ 201300Z 11005MPS CAVOK 20/10 Q1022 NOSIG
ZGSZ,2025-03-20 14:00,ZGSZ 201400Z 11004MPS CAVOK 19/11 Q1023 NOSIG
ZGSZ,2025-03-20 15:00,ZGSZ 201500Z 11004MPS CAVOK 19/10 Q1023 NOSIG
ZGSZ,2025-03-20 16:00,ZGSZ 201600Z 13004MPS CAVOK 18/10 Q1024 NOSIG
ZGSZ,2025-03-20 17:00,ZGSZ 201700Z 11003MPS CAVOK 18/11 Q1024 NOSIG
ZGSZ,2025-03-20 18:00,ZGSZ 201800Z 08002MPS CAVOK 18/12 Q1024 NOSIG
ZGSZ,2025-03-20 19:00,ZGSZ 201900Z 05002MPS CAVOK 17/12 Q1023 NOSIG
ZGSZ,2025-03-20 20:00,ZGSZ 202000Z 01002MPS CAVOK 16/11 Q1023 NOSIG
ZGSZ,2025-03-20 21:00,ZGSZ 202100Z 04002MPS CAVOK 17/12 Q1023 NOSIG
ZGSZ,2025-03-20 22:00,ZGSZ 202200Z 06002MPS 030V090 CAVOK 16/11 Q1024 NOSIG
ZGSZ,2025-03-20 23:00,ZGSZ 202300Z 05002MPS CAVOK 16/12 Q1024 NOSIG
ZGSZ,2025-03-21 00:00,ZGSZ 210000Z 06003MPS CAVOK 18/12 Q1025 NOSIG
ZGSZ,2025-03-21 01:00,ZGSZ 210100Z 04003MPS CAVOK 20/11 Q1024 NOSIG
ZGSZ,2025-03-21 02:00,ZGSZ 210200Z 04003MPS 360V090 CAVOK 22/09 Q1025 NOSIG
ZGSZ,2025-03-21 03:00,ZGSZ 210300Z VRB03MPS CAVOK 24/08 Q1024 BECMG AT0440 34005MPS
ZGSZ,2025-03-21 04:00,ZGSZ 210400Z 24004MPS CAVOK 22/12 Q1023 NOSIG
ZGSZ,2025-03-21 05:00,ZGSZ 210500Z 24004MPS 8000 NSC 23/12 Q1022 NOSIG
ZGSZ,2025-03-21 06:00,ZGSZ 210600Z 22004MPS 8000 NSC 24/13 Q1021 NOSIG
ZGSZ,2025-03-21 07:00,ZGSZ 210700Z 21004MPS 8000 NSC 24/12 Q1020 NOSIG
ZGSZ,2025-03-21 08:00,ZGSZ 210800Z 20004MPS 8000 NSC 24/12 Q1019 NOSIG
ZGSZ,2025-03-21 09:00,ZGSZ 210900Z 18005MPS CAVOK 23/15 Q1019 NOSIG
ZGSZ,2025-03-21 10:00,ZGSZ 211000Z 18005MPS CAVOK 21/13 Q1019 NOSIG
ZGSZ,2025-03-21 11:00,ZGSZ 211100Z 17004MPS CAVOK 20/13 Q1020 NOSIG
ZGSZ,2025-03-21 12:00,ZGSZ 211200Z 16004MPS CAVOK 20/13 Q1020 NOSIG
ZGSZ,2025-03-21 13:00,ZGSZ 211300Z 12004MPS CAVOK 21/08 Q1021 NOSIG
ZGSZ,2025-03-21 14:00,ZGSZ 211400Z 11004MPS CAVOK 20/08 Q1022 NOSIG
ZGSZ,2025-03-21 15:00,ZGSZ 211500Z 11004MPS 080V140 CAVOK 20/10 Q1021 NOSIG
ZGSZ,2025-03-21 16:00,ZGSZ 211600Z 12004MPS CAVOK 19/11 Q1021 NOSIG
ZGSZ,2025-03-21 17:00,ZGSZ 211700Z 11002MPS CAVOK 19/11 Q1022 NOSIG
ZGSZ,2025-03-21 18:00,ZGSZ 211800Z 08002MPS 060V120 CAVOK 19/11 Q1021 NOSIG
ZGSZ,2025-03-21 19:00,ZGSZ 211900Z VRB01MPS CAVOK 19/11 Q1021 NOSIG
ZGSZ,2025-03-21 20:00,ZGSZ 212000Z 05002MPS 020V110 CAVOK 19/11 Q1021 NOSIG
ZGSZ,2025-03-21 21:00,ZGSZ 212100Z 04002MPS 280V090 CAVOK 18/12 Q1021 NOSIG
ZGSZ,2025-03-21 22:00,ZGSZ 212200Z 05002MPS 020V110 CAVOK 18/12 Q1021 NOSIG
ZGSZ,2025-03-21 23:00,ZGSZ 212300Z VRB01MPS CAVOK 18/12 Q1022 NOSIG
ZGSZ,2025-03-22 00:00,ZGSZ 220000Z VRB02MPS CAVOK 19/11 Q1022 NOSIG
ZGSZ,2025-03-22 01:00,ZGSZ 220100Z VRB01MPS CAVOK 21/10 Q1022 NOSIG
ZGSZ,2025-03-22 02:00,ZGSZ 220200Z VRB02MPS CAVOK 23/11 Q1022 NOSIG
ZGSZ,2025-03-22 03:00,ZGSZ 220300Z 27004MPS 8000 NSC 22/13 Q1022 NOSIG
ZGSZ,2025-03-22 04:00,ZGSZ 220400Z 26004MPS 8000 NSC 23/11 Q1021 NOSIG
ZGSZ,2025-03-22 05:00,ZGSZ 220500Z 24004MPS CAVOK 24/11 Q1020 NOSIG
ZGSZ,2025-03-22 06:00,ZGSZ 220600Z 22004MPS CAVOK 25/10 Q1019 NOSIG
ZGSZ,2025-03-22 07:00,ZGSZ 220700Z 21004MPS CAVOK 24/11 Q1018 NOSIG
ZGSZ,2025-03-22 08:00,ZGSZ 220800Z 18004MPS CAVOK 23/13 Q1018 NOSIG
ZGSZ,2025-03-22 09:00,ZGSZ 220900Z 18006MPS CAVOK 22/16 Q1017 NOSIG
ZGSZ,2025-03-22 10:00,ZGSZ 221000Z 18006MPS CAVOK 21/16 Q1018 NOSIG
ZGSZ,2025-03-22 11:00,ZGSZ 221100Z 18005MPS CAVOK 21/16 Q1018 NOSIG
ZGSZ,2025-03-22 12:00,ZGSZ 221200Z 17005MPS CAVOK 21/15 Q1018 NOSIG
ZGSZ,2025-03-22 13:00,ZGSZ 221300Z 19004MPS CAVOK 21/15 Q1019 NOSIG
ZGSZ,2025-03-22 14:00,ZGSZ 221400Z 19004MPS CAVOK 20/16 Q1019 NOSIG
ZGSZ,2025-03-22 15:00,ZGSZ 221500Z 19005MPS CAVOK 20/15 Q1019 NOSIG
ZGSZ,2025-03-22 16:00,ZGSZ 221600Z 17004MPS CAVOK 20/15 Q1019 NOSIG
ZGSZ,2025-03-22 17:00,ZGSZ 221700Z 18002MPS CAVOK 19/16 Q1019 NOSIG
ZGSZ,2025-03-22 18:00,ZGSZ 221800Z 17002MPS CAVOK 19/16 Q1019 NOSIG
ZGSZ,2025-03-22 19:00,ZGSZ 221900Z VRB01MPS CAVOK 19/15 Q1018 NOSIG
ZGSZ,2025-03-22 20:00,ZGSZ 222000Z VRB01MPS CAVOK 19/12 Q1018 NOSIG
ZGSZ,2025-03-22 21:00,ZGSZ 222100Z 00000MPS CAVOK 18/14 Q1018 NOSIG
ZGSZ,2025-03-22 22:00,ZGSZ 222200Z VRB01MPS CAVOK 18/14 Q1018 NOSIG
ZGSZ,2025-03-22 23:00,ZGSZ 222300Z VRB01MPS CAVOK 18/12 Q1019 NOSIG
ZGSZ,2025-03-23 00:00,ZGSZ 230000Z VRB01MPS CAVOK 20/12 Q1019 NOSIG
ZGSZ,2025-03-23 01:00,ZGSZ 230100Z 26002MPS 230V290 8000 NSC 21/15 Q1019 NOSIG
ZGSZ,2025-03-23 02:00,ZGSZ 230200Z 26002MPS 230V290 8000 NSC 21/16 Q1019 NOSIG
ZGSZ,2025-03-23 03:00,ZGSZ 230300Z 24002MPS 8000 NSC 23/13 Q1019 NOSIG
ZGSZ,2025-03-23 04:00,ZGSZ 230400Z 23003MPS CAVOK 23/10 Q1018 NOSIG
ZGSZ,2025-03-23 05:00,ZGSZ 230500Z 23003MPS CAVOK 24/03 Q1017 NOSIG
ZGSZ,2025-03-23 06:00,ZGSZ 230600Z 22003MPS CAVOK 25/08 Q1016 NOSIG
ZGSZ,2025-03-23 07:00,ZGSZ 230700Z 19005MPS CAVOK 24/10 Q1015 NOSIG
ZGSZ,2025-03-23 08:00,ZGSZ 230800Z 19005MPS CAVOK 24/13 Q1015 NOSIG
ZGSZ,2025-03-23 09:00,ZGSZ 230900Z 18005MPS CAVOK 23/13 Q1014 NOSIG
ZGSZ,2025-03-23 10:00,ZGSZ 231000Z 18006MPS CAVOK 22/13 Q1015 NOSIG
ZGSZ,2025-03-23 11:00,ZGSZ 231100Z 18006MPS CAVOK 22/13 Q1015 NOSIG
ZGSZ,2025-03-23 12:00,ZGSZ 231200Z 18005MPS CAVOK 21/16 Q1015 NOSIG
ZGSZ,2025-03-23 13:00,ZGSZ 231300Z 18005MPS CAVOK 21/16 Q1016 NOSIG
ZGSZ,2025-03-23 14:00,ZGSZ 231400Z 17004MPS CAVOK 21/16 Q1017 NOSIG
ZGSZ,2025-03-23 15:00,ZGSZ 231500Z 18005MPS CAVOK 21/17 Q1017 NOSIG
ZGSZ,2025-03-23 16:00,ZGSZ 231600Z 17004MPS CAVOK 20/18 Q1016 NOSIG
ZGSZ,2025-03-23 17:00,ZGSZ 231700Z 17004MPS CAVOK 20/17 Q1016 NOSIG
ZGSZ,2025-03-23 18:00,ZGSZ 231800Z 17003MPS CAVOK 20/18 Q1015 NOSIG
ZGSZ,2025-03-23 19:00,ZGSZ 231900Z 17004MPS CAVOK 20/18 Q1014 NOSIG
ZGSZ,2025-03-23 20:00,ZGSZ 232000Z 16002MPS 8000 NSC 19/17 Q1014 NOSIG
ZGSZ,2025-03-23 21:00,ZGSZ 232100Z 16002MPS 8000 NSC 19/18 Q1014 NOSIG
ZGSZ,2025-03-23 22:00,ZGSZ 232200Z 15002MPS 8000 NSC 19/17 Q1014 NOSIG
ZGSZ,2025-03-23 23:00,ZGSZ 232300Z 14002MPS 5000 BR NSC 19/16 Q1014 NOSIG
ZGSZ,2025-03-24 00:00,ZGSZ 240000Z 16002MPS 7000 NSC 21/16 Q1015 NOSIG
ZGSZ,2025-03-24 01:00,ZGSZ 240100Z 20003MPS CAVOK 22/17 Q1015 NOSIG
ZGSZ,2025-03-24 02:00,ZGSZ 240200Z 20003MPS CAVOK 22/16 Q1015 NOSIG
ZGSZ,2025-03-24 03:00,ZGSZ 240300Z 21003MPS CAVOK 22/17 Q1015 NOSIG
ZGSZ,2025-03-24 04:00,ZGSZ 240400Z 21003MPS CAVOK 23/15 Q1014 NOSIG
ZGSZ,2025-03-24 05:00,ZGSZ 240500Z 20003MPS CAVOK 25/11 Q1013 NOSIG
ZGSZ,2025-03-24 06:00,ZGSZ 240600Z 19004MPS CAVOK 25/11 Q1012 NOSIG
ZGSZ,2025-03-24 07:00,ZGSZ 240700Z 19005MPS CAVOK 24/16 Q1011 NOSIG
ZGSZ,2025-03-24 08:00,ZGSZ 240800Z 19006MPS CAVOK 24/16 Q1010 NOSIG
ZGSZ,2025-03-24 09:00,ZGSZ 240900Z 18007MPS CAVOK 23/18 Q1010 NOSIG
ZGSZ,2025-03-24 10:00,ZGSZ 241000Z 18006MPS CAVOK 22/17 Q1010 NOSIG
ZGSZ,2025-03-24 11:00,ZGSZ 241100Z 17006MPS CAVOK 22/17 Q1010 NOSIG
ZGSZ,2025-03-24 12:00,ZGSZ 241200Z 17006MPS CAVOK 22/18 Q1011 NOSIG
ZGSZ,2025-03-24 13:00,ZGSZ 241300Z 16005MPS CAVOK 21/17 Q1012 NOSIG
ZGSZ,2025-03-24 14:00,ZGSZ 241400Z 16005MPS CAVOK 21/17 Q1012 NOSIG
ZGSZ,2025-03-24 15:00,ZGSZ 241500Z 15005MPS CAVOK 21/17 Q1012 NOSIG
ZGSZ,2025-03-24 16:00,ZGSZ 241600Z 15005MPS CAVOK 20/16 Q1011 NOSIG
ZGSZ,2025-03-24 17:00,ZGSZ 241700Z 16005MPS CAVOK 20/16 Q1011 NOSIG
ZGSZ,2025-03-24 18:00,ZGSZ 241800Z 16004MPS CAVOK 21/17 Q1010 NOSIG
ZGSZ,2025-03-24 19:00,ZGSZ 241900Z 16004MPS CAVOK 20/17 Q1010 NOSIG
ZGSZ,2025-03-24 20:00,ZGSZ 242000Z 16004MPS CAVOK 20/17 Q1010 NOSIG
ZGSZ,2025-03-24 21:00,ZGSZ 242100Z 16004MPS CAVOK 20/17 Q1010 NOSIG
ZGSZ,2025-03-24 22:00,ZGSZ 242200Z 15004MPS CAVOK 20/17 Q1010 NOSIG
ZGSZ,2025-03-24 23:00,ZGSZ 242300Z 16003MPS CAVOK 20/17 Q1010 NOSIG
ZGSZ,2025-03-25 00:00,ZGSZ 250000Z 17003MPS CAVOK 22/18 Q1011 NOSIG
ZGSZ,2025-03-25 01:00,ZGSZ 250100Z 20002MPS CAVOK 23/17 Q1011 NOSIG
ZGSZ,2025-03-25 02:00,ZGSZ 250200Z 20003MPS CAVOK 23/18 Q1011 NOSIG
ZGSZ,2025-03-25 03:00,ZGSZ 250300Z 20003MPS CAVOK 24/16 Q1010 NOSIG
ZGSZ,2025-03-25 04:00,ZGSZ 250400Z 20003MPS CAVOK 25/15 Q1009 NOSIG
ZGSZ,2025-03-25 05:00,ZGSZ 250500Z 20003MPS CAVOK 26/13 Q1009 NOSIG
ZGSZ,2025-03-25 06:00,ZGSZ 250600Z 19005MPS CAVOK 25/17 Q1008 NOSIG
ZGSZ,2025-03-25 07:00,ZGSZ 250700Z 19005MPS CAVOK 25/17 Q1007 NOSIG
ZGSZ,2025-03-25 08:00,ZGSZ 250800Z 18005MPS CAVOK 25/18 Q1006 NOSIG
ZGSZ,2025-03-25 09:00,ZGSZ 250900Z 18005MPS CAVOK 25/19 Q1006 NOSIG
ZGSZ,2025-03-25 10:00,ZGSZ 251000Z 17007MPS CAVOK 24/17 Q1006 NOSIG
ZGSZ,2025-03-25 11:00,ZGSZ 251100Z 17008MPS CAVOK 23/17 Q1006 NOSIG
ZGSZ,2025-03-25 12:00,ZGSZ 251200Z 17008MPS CAVOK 23/17 Q1007 NOSIG
ZGSZ,2025-03-25 13:00,ZGSZ 251300Z 15006MPS CAVOK 22/17 Q1008 NOSIG
ZGSZ,2025-03-25 14:00,ZGSZ 251400Z 16006MPS CAVOK 22/17 Q1008 NOSIG
ZGSZ,2025-03-25 15:00,ZGSZ 251500Z 17005MPS CAVOK 22/17 Q1009 NOSIG
ZGSZ,2025-03-25 16:00,ZGSZ 251600Z 17006MPS CAVOK 22/18 Q1008 NOSIG
ZGSZ,2025-03-25 17:00,ZGSZ 251700Z 17006MPS CAVOK 22/20 Q1008 NOSIG
ZGSZ,2025-03-25 18:00,ZGSZ 251800Z 17006MPS CAVOK 22/20 Q1008 NOSIG
ZGSZ,2025-03-25 19:00,ZGSZ 251900Z 17005MPS CAVOK 22/20 Q1007 NOSIG
ZGSZ,2025-03-25 20:00,ZGSZ 252000Z 16005MPS CAVOK 22/20 Q1007 NOSIG
ZGSZ,2025-03-25 21:00,ZGSZ 252100Z 16003MPS 9999 BKN017 22/20 Q1007 NOSIG
ZGSZ,2025-03-25 22:00,ZGSZ 252200Z 16005MPS 9999 BKN016 22/20 Q1007 NOSIG
ZGSZ,2025-03-25 23:00,ZGSZ 252300Z 16004MPS 9999 FEW016 SCT040 22/20 Q1008 NOSIG
ZGSZ,2025-03-26 00:00,ZGSZ 260000Z 17005MPS 9999 SCT016 23/20 Q1009 NOSIG
ZGSZ,2025-03-26 01:00,ZGSZ 260100Z 16005MPS 9999 FEW016 24/20 Q1009 NOSIG
ZGSZ,2025-03-26 02:00,ZGSZ 260200Z 17006MPS 9999 FEW020 25/19 Q1010 NOSIG
ZGSZ,2025-03-26 03:00,ZGSZ 260300Z 16006MPS 9999 FEW020 25/20 Q1009 NOSIG
ZGSZ,2025-03-26 04:00,ZGSZ 260400Z 18007MPS 9999 FEW020 25/19 Q1009 NOSIG
ZGSZ,2025-03-26 05:00,ZGSZ 260500Z 17009MPS CAVOK 25/20 Q1007 NOSIG
ZGSZ,2025-03-26 06:00,ZGSZ 260600Z 18008MPS CAVOK 26/19 Q1007 NOSIG
ZGSZ,2025-03-26 07:00,ZGSZ 260700Z 17007MPS CAVOK 26/20 Q1005 NOSIG
ZGSZ,2025-03-26 08:00,ZGSZ 260800Z 16008MPS CAVOK 25/20 Q1005 NOSIG
ZGSZ,2025-03-26 09:00,ZGSZ 260900Z 16009MPS CAVOK 24/20 Q1005 NOSIG
ZGSZ,2025-03-26 10:00,ZGSZ 261000Z 16009MPS CAVOK 24/20 Q1005 NOSIG
ZGSZ,2025-03-26 11:00,ZGSZ 261100Z 17006MPS CAVOK 23/21 Q1005 NOSIG
ZGSZ,2025-03-26 12:00,ZGSZ 261200Z 16006MPS CAVOK 23/20 Q1006 NOSIG
ZGSZ,2025-03-26 13:00,ZGSZ 261300Z 16007MPS 9999 FEW020 23/20 Q1006 NOSIG
ZGSZ,2025-03-26 14:00,ZGSZ 261400Z 16006MPS CAVOK 23/20 Q1007 NOSIG
ZGSZ,2025-03-26 15:00,ZGSZ 261500Z 16005MPS 9999 BKN023 23/20 Q1007 NOSIG
ZGSZ,2025-03-26 16:00,ZGSZ 261600Z 16005MPS 9999 SCT023 22/20 Q1007 NOSIG
ZGSZ,2025-03-26 17:00,ZGSZ 261700Z 17005MPS 9999 SCT026 23/20 Q1007 NOSIG
ZGSZ,2025-03-26 18:00,ZGSZ 261800Z 16004MPS 9999 SCT026 23/20 Q1007 NOSIG
ZGSZ,2025-03-26 19:00,ZGSZ 261900Z 16004MPS 9999 SCT026 22/20 Q1006 NOSIG
ZGSZ,2025-03-26 20:00,ZGSZ 262000Z 16003MPS 9999 BKN026 23/20 Q1006 NOSIG
ZGSZ,2025-03-26 21:00,ZGSZ 262100Z 16005MPS 9999 BKN026 23/19 Q1006 NOSIG
ZGSZ,2025-03-26 22:00,ZGSZ 262200Z 16004MPS 9999 SCT026 22/20 Q1006 NOSIG
ZGSZ,2025-03-26 23:00,ZGSZ 262300Z 15004MPS 9999 FEW026 22/20 Q1006 NOSIG
ZGSZ,2025-03-27 00:00,ZGSZ 270000Z 16005MPS 9999 FEW026 25/20 Q1007 NOSIG
ZGSZ,2025-03-27 01:00,ZGSZ 270100Z 16006MPS 9999 FEW020 BKN033 25/20 Q1008 NOSIG
ZGSZ,2025-03-27 02:00,ZGSZ 270200Z 17005MPS 9999 BKN033 25/20 Q1008 NOSIG
ZGSZ,2025-03-27 03:00,ZGSZ 270300Z 16006MPS 9999 BKN033 27/21 Q1008 NOSIG
ZGSZ,2025-03-27 04:00,ZGSZ 270400Z 16007MPS 9999 BKN040 27/21 Q1007 NOSIG
ZGSZ,2025-03-27 05:00,ZGSZ 270500Z 16007MPS 9999 FEW030 BKN043 27/22 Q1007 NOSIG
ZGSZ,2025-03-27 06:00,ZGSZ 270600Z 16008MPS 9999 FEW026 BKN040 27/22 Q1006 NOSIG
ZGSZ,2025-03-27 07:00,ZGSZ 270700Z 16008MPS 9999 SCT050 28/22 Q1005 NOSIG
ZGSZ,2025-03-27 08:00,ZGSZ 270800Z 17008MPS 9999 SCT050 27/22 Q1004 NOSIG
ZGSZ,2025-03-27 09:00,ZGSZ 270900Z 16008MPS 9999 BKN050 26/22 Q1005 NOSIG
ZGSZ,2025-03-27 10:00,ZGSZ 271000Z 16007MPS 9999 BKN050 25/23 Q1005 NOSIG
ZGSZ,2025-03-27 11:00,ZGSZ 271100Z 16006MPS 9999 BKN050 25/22 Q1005 NOSIG
ZGSZ,2025-03-27 12:00,ZGSZ 271200Z 16005MPS 9999 FEW016 BKN050 24/23 Q1006 NOSIG
ZGSZ,2025-03-27 13:00,ZGSZ 271300Z 16005MPS 9999 SCT014 BKN040 25/23 Q1007 NOSIG
ZGSZ,2025-03-27 14:00,ZGSZ 271400Z 16004MPS 9999 FEW020 BKN040 25/23 Q1007 NOSIG
ZGSZ,2025-03-27 15:00,ZGSZ 271500Z 18003MPS 9999 BKN033 24/22 Q1008 NOSIG
ZGSZ,2025-03-27 16:00,ZGSZ 271600Z 17003MPS 9999 BKN033 25/22 Q1008 NOSIG
ZGSZ,2025-03-27 17:00,ZGSZ 271700Z 20002MPS 9999 FEW016 BKN040 24/22 Q1008 NOSIG
ZGSZ,2025-03-27 18:00,ZGSZ 271800Z VRB01MPS 9999 BKN040 24/22 Q1008 NOSIG
ZGSZ,2025-03-27 19:00,ZGSZ 271900Z 19002MPS 9999 BKN040 24/22 Q1008 NOSIG
ZGSZ,2025-03-27 20:00,ZGSZ 272000Z 16003MPS 9999 FEW016 BKN040 24/23 Q1008 NOSIG
ZGSZ,2025-03-27 21:00,ZGSZ 272100Z 18002MPS 9999 BKN040 24/23 Q1008 NOSIG
ZGSZ,2025-03-27 22:00,ZGSZ 272200Z VRB01MPS 9999 SCT023 BKN040 24/22 Q1009 NOSIG
ZGSZ,2025-03-27 23:00,ZGSZ 272300Z 26002MPS 9999 SCT016 BKN033 24/22 Q1009 NOSIG
ZGSZ,2025-03-28 00:00,ZGSZ 280000Z 30001MPS 8000 FEW016 BKN033 24/23 Q1010 NOSIG
ZGSZ,2025-03-28 01:00,ZGSZ 280100Z 31001MPS 9999 BKN020 BKN040 26/23 Q1011 NOSIG
ZGSZ,2025-03-28 02:00,ZGSZ 280200Z 26002MPS 9999 BKN020 BKN040 25/23 Q1011 NOSIG
ZGSZ,2025-03-28 03:00,ZGSZ 280300Z 22002MPS 9999 SCT020 BKN040 25/23 Q1012 NOSIG
ZGSZ,2025-03-28 04:00,ZGSZ 280400Z 22002MPS 9999 SCT020 BKN036 25/23 Q1011 NOSIG
ZGSZ,2025-03-28 05:00,ZGSZ 280500Z 29002MPS 9999 SCT020 BKN036 25/23 Q1010 NOSIG
ZGSZ,2025-03-28 06:00,ZGSZ 280600Z 25002MPS 9999 FEW020 BKN036 26/23 Q1009 NOSIG
ZGSZ,2025-03-28 07:00,ZGSZ 280700Z 21002MPS 9999 FEW026 BKN050 27/23 Q1008 NOSIG
ZGSZ,2025-03-28 08:00,ZGSZ 280800Z 20002MPS 170V230 9999 FEW026TCU SCT050 26/23 Q1008 NOSIG
ZGSZ,2025-03-28 09:00,ZGSZ 280900Z 19004MPS 9999 SCT033 25/23 Q1008 BECMG AT1050 35005MPS
ZGSZ,2025-03-28 10:00,ZGSZ 281000Z 18003MPS 9999 SCT030 SCT050 25/23 Q1009 BECMG AT1050 35005MPS
ZGSZ,2025-03-28 11:00,ZGSZ 281100Z 20005MPS 9999 SCT023 BKN036 24/23 Q1010 BECMG AT1150 35005MPS
ZGSZ,2025-03-28 12:00,ZGSZ 281200Z 32006MPS 6000 -SHRA SCT010 BKN023 23/20 Q1011 NOSIG
ZGSZ,2025-03-28 13:00,ZGSZ 281300Z 36006G11MPS 270V030 5000 SHRA BKN010 FEW020CB SCT026 20/19 Q1013 BECMG AT1350 -SHRA
ZGSZ,2025-03-28 14:00,ZGSZ 281400Z 02006MPS 7000 -SHRA BKN010 FEW020CB BKN026 19/17 Q1014 BECMG AT1420 SCT020
ZGSZ,2025-03-28 15:00,ZGSZ 281500Z 04007MPS 7000 -SHRA SCT010 FEW020CB BKN026 18/16 Q1015 NOSIG
ZGSZ,2025-03-28 16:00,ZGSZ 281600Z 04005MPS 7000 -SHRA SCT010 FEW020CB BKN026 17/15 Q1016 NOSIG
ZGSZ,2025-03-28 17:00,ZGSZ 281700Z 04008MPS 9999 SCT010 BKN026 16/14 Q1016 NOSIG
ZGSZ,2025-03-28 18:00,ZGSZ 281800Z 03008MPS 9000 -RA FEW013 BKN026 15/13 Q1016 NOSIG
ZGSZ,2025-03-28 19:00,ZGSZ 281900Z 04008MPS 9999 SCT013 BKN026 15/13 Q1016 NOSIG
ZGSZ,2025-03-28 20:00,ZGSZ 282000Z 04008MPS 9999 SCT013 SCT026 15/12 Q1016 NOSIG
ZGSZ,2025-03-28 21:00,ZGSZ 282100Z 04007MPS 9999 SCT015 SCT026 15/12 Q1016 NOSIG
ZGSZ,2025-03-28 22:00,ZGSZ 282200Z 04007MPS 9999 SCT015 SCT026 14/11 Q1017 NOSIG
ZGSZ,2025-03-28 23:00,ZGSZ 282300Z 03006MPS 9999 SCT015 SCT026 14/10 Q1017 NOSIG
ZGSZ,2025-03-29 00:00,ZGSZ 290000Z 03006MPS 9999 BKN014 BKN026 15/09 Q1018 BECMG AT0020 SCT020
ZGSZ,2025-03-29 01:00,ZGSZ 290100Z 03006MPS 9999 BKN025 15/09 Q1019 NOSIG
ZGSZ,2025-03-29 02:00,ZGSZ 290200Z 01006MPS 9999 -RA BKN025 15/10 Q1019 NOSIG
ZGSZ,2025-03-29 03:00,ZGSZ 290300Z 01006MPS 9999 BKN022 15/10 Q1020 NOSIG
ZGSZ,2025-03-29 04:00,ZGSZ 290400Z 03005MPS 9999 BKN022 16/10 Q1019 NOSIG
ZGSZ,2025-03-29 05:00,ZGSZ 290500Z 01006MPS 9999 BKN020 15/10 Q1018 NOSIG
ZGSZ,2025-03-29 06:00,ZGSZ 290600Z 01007MPS 9999 BKN020 15/10 Q1018 NOSIG
ZGSZ,2025-03-29 07:00,ZGSZ 290700Z 01005MPS 9999 OVC020 15/10 Q1018 NOSIG
ZGSZ,2025-03-29 08:00,ZGSZ 290800Z 36006MPS 9999 SCT016 OVC022 15/10 Q1017 NOSIG
ZGSZ,2025-03-29 09:00,ZGSZ 290900Z 02006MPS 9999 SCT015 OVC026 14/11 Q1017 NOSIG
ZGSZ,2025-03-29 10:00,ZGSZ 291000Z 01007MPS 9999 -RA SCT015 OVC026 14/10 Q1018 BECMG AT1130 BKN012
ZGSZ,2025-03-29 11:00,ZGSZ 291100Z 01007MPS 7000 -RA SCT014 OVC026 13/11 Q1019 BECMG AT1130 BKN012
ZGSZ,2025-03-29 12:00,ZGSZ 291200Z 36005MPS 7000 -RA BKN012 OVC026 13/11 Q1020 BECMG AT1330 SCT012 BKN030
ZGSZ,2025-03-29 13:00,ZGSZ 291300Z 03007MPS 8000 -RA BKN012 OVC026 13/10 Q1020 BECMG AT1330 SCT012 BKN030
ZGSZ,2025-03-29 14:00,ZGSZ 291400Z 01006MPS 9999 -RA SCT012 OVC026 12/10 Q1021 BECMG AT1530 BKN013
ZGSZ,2025-03-29 15:00,ZGSZ 291500Z 02006MPS 360V070 9000 -RA SCT012 OVC026 12/10 Q1022 BECMG AT1530 BKN013
ZGSZ,2025-03-29 16:00,ZGSZ 291600Z 01006MPS 9999 -RA BKN012 OVC026 12/10 Q1022 BECMG AT1720 SCT012 BKN030
ZGSZ,2025-03-29 17:00,ZGSZ 291700Z 03006MPS 9999 BKN030 12/09 Q1021 NOSIG
ZGSZ,2025-03-29 18:00,ZGSZ 291800Z 03005MPS 9999 FEW015 BKN030 12/09 Q1021 NOSIG
ZGSZ,2025-03-29 19:00,ZGSZ 291900Z 03005MPS 360V060 9999 FEW015 BKN030 12/09 Q1021 NOSIG
ZGSZ,2025-03-29 20:00,ZGSZ 292000Z 36005MPS 9999 -RA FEW017 BKN030 11/09 Q1020 NOSIG
ZGSZ,2025-03-29 21:00,ZGSZ 292100Z 02005MPS 9999 SCT015 BKN030 11/09 Q1021 BECMG AT2240 BKN014
ZGSZ,2025-03-29 22:00,ZGSZ 292200Z 01006MPS 310V030 9000 -RA SCT015 BKN030 11/08 Q1021 BECMG AT2240 BKN014
ZGSZ,2025-03-29 23:00,ZGSZ 292300Z 36006MPS 8000 -RA BKN014 BKN030 11/09 Q1022 BECMG AT0020 SCT012 BKN030
ZGSZ,2025-03-30 00:00,ZGSZ 300000Z 02004MPS 9999 -RA BKN014 BKN030 11/09 Q1022 BECMG AT0020 SCT014 BKN030
ZGSZ,2025-03-30 01:00,ZGSZ 300100Z 36006MPS 9999 SCT013 BKN030 11/09 Q1023 BECMG AT0220 BKN013 BKN030
ZGSZ,2025-03-30 02:00,ZGSZ 300200Z 36006MPS 9999 BKN013 BKN030 12/09 Q1024 BECMG AT0320 BKN016 BKN030
ZGSZ,2025-03-30 03:00,ZGSZ 300300Z 01005MPS 9999 -RA BKN013 BKN030 12/10 Q1024 BECMG AT0320 BKN016 BKN030
ZGSZ,2025-03-30 04:00,ZGSZ 300400Z 01006MPS 9999 BKN014 BKN030 12/09 Q1023 BECMG AT0530 BKN015 BKN030
ZGSZ,2025-03-30 05:00,ZGSZ 300500Z 02006MPS 9999 BKN014 BKN030 12/09 Q1022 BECMG AT0530 BKN015 BKN030
ZGSZ,2025-03-30 06:00,ZGSZ 300600Z 01007MPS 9999 BKN014 BKN030 12/08 Q1022 BECMG AT0730 BKN015 BKN030
ZGSZ,2025-03-30 07:00,ZGSZ 300700Z 01006MPS 9999 BKN014 BKN030 12/08 Q1021 BECMG AT0730 BKN015 BKN030
ZGSZ,2025-03-30 08:00,ZGSZ 300800Z 04006MPS 9999 FEW020 BKN030 11/08 Q1020 NOSIG
ZGSZ,2025-03-30 09:00,ZGSZ 300900Z 01006MPS 8000 SCT012 BKN030 11/09 Q1020 BECMG AT1040 BKN014 BKN030
ZGSZ,2025-03-30 10:00,ZGSZ 301000Z 01003MPS 9000 -RA SCT012 BKN030 11/09 Q1020 BECMG AT1030 BKN012 BKN030
ZGSZ,2025-03-30 11:00,ZGSZ 301100Z 01004MPS 9000 -RA BKN011 BKN030 11/09 Q1020 BECMG AT1230 BKN009 BKN030
ZGSZ,2025-03-30 12:00,ZGSZ 301200Z 36005MPS 8000 -RA BKN010 BKN025 11/10 Q1021 BECMG AT1230 BKN009 BKN030
ZGSZ,2025-03-30 13:00,ZGSZ 301300Z 36005MPS 7000 -RA BKN009 BKN025 11/09 Q1021 BECMG AT1430 BKN011 BKN030
ZGSZ,2025-03-30 14:00,ZGSZ 301400Z 36005MPS 9000 -RA BKN009 BKN025 11/10 Q1022 BECMG AT1530 BKN011 BKN030
ZGSZ,2025-03-30 15:00,ZGSZ 301500Z 02005MPS 8000 -RA BKN009 BKN025 11/09 Q1022 BECMG AT1530 BKN011 BKN030
ZGSZ,2025-03-30 16:00,ZGSZ 301600Z 36005MPS 9999 -RA BKN014 BKN025 11/09 Q1022 BECMG AT1730 SCT014 BKN030
ZGSZ,2025-03-30 17:00,ZGSZ 301700Z 36005MPS 9999 -RA BKN014 BKN025 11/09 Q1022 BECMG AT1730 SCT014 BKN030
ZGSZ,2025-03-30 18:00,ZGSZ 301800Z 01005MPS 9999 -RA BKN011 BKN023 11/09 Q1022 BECMG AT1930 BKN009 BKN020
ZGSZ,2025-03-30 19:00,ZGSZ 301900Z 01006MPS 9999 BKN011 BKN023 11/09 Q1021 BECMG AT1930 BKN009 BKN020
ZGSZ,2025-03-30 20:00,ZGSZ 302000Z 36006MPS 340V040 9999 BKN009 BKN023 11/09 Q1020 BECMG AT2130 BKN012 BKN030
ZGSZ,2025-03-30 21:00,ZGSZ 302100Z 36004MPS 9999 BKN009 BKN023 11/09 Q1020 BECMG AT2130 BKN012 BKN030
ZGSZ,2025-03-30 22:00,ZGSZ 302200Z 01006MPS 9999 BKN012 BKN023 11/09 Q1021 BECMG AT2330 SCT013 BKN030
ZGSZ,2025-03-30 23:00,ZGSZ 302300Z 01005MPS 9999 BKN012 BKN023 11/09 Q1021 BECMG AT2330 SCT013 BKN030
ZGSZ,2025-03-31 00:00,ZGSZ 310000Z 36005MPS 9999 SCT012 BKN023 11/09 Q1021 BECMG AT0030 BKN013 BKN030
ZGSZ,2025-03-31 01:00,ZGSZ 310100Z 36006MPS 9999 BKN014 BKN023 11/09 Q1022 BECMG AT0130 SCT015 OVC020
ZGSZ,2025-03-31 02:00,ZGSZ 310200Z 35004MPS 8000 -RA SCT014 BKN023 11/09 Q1022 NOSIG
ZGSZ,2025-03-31 03:00,ZGSZ 310300Z 36005MPS 8000 -RA SCT014 BKN023 11/10 Q1022 NOSIG
ZGSZ,2025-03-31 04:00,ZGSZ 310400Z 01006MPS 9999 -RA SCT014 BKN023 12/09 Q1021 NOSIG
ZGSZ,2025-03-31 05:00,ZGSZ 310500Z 02004MPS 6000 -RA SCT014 BKN023 11/10 Q1020 NOSIG
ZGSZ,2025-03-31 06:00,ZGSZ 310600Z 02004MPS 8000 -RA SCT014 BKN023 11/10 Q1019 NOSIG
ZGSZ,2025-03-31 07:00,ZGSZ 310700Z 01005MPS 9999 SCT014 BKN023 12/10 Q1018 NOSIG
ZGSZ,2025-03-31 08:00,ZGSZ 310800Z 36005MPS 9999 SCT014 BKN023 12/09 Q1018 NOSIG
ZGSZ,2025-03-31 09:00,ZGSZ 310900Z 36006MPS 9999 SCT014 BKN023 12/09 Q1018 NOSIG
ZGSZ,2025-03-31 10:00,ZGSZ 311000Z 36005MPS 9999 SCT014 BKN023 12/09 Q1018 NOSIG
ZGSZ,2025-03-31 11:00,ZGSZ 311100Z 01005MPS 9999 SCT014 BKN023 12/09 Q1019 NOSIG
ZGSZ,2025-03-31 12:00,ZGSZ 311200Z 02005MPS 9999 SCT014 BKN030 11/09 Q1020 NOSIG
ZGSZ,2025-03-31 13:00,ZGSZ 311300Z 36005MPS 9999 SCT016 BKN030 12/09 Q1020 NOSIG
ZGSZ,2025-03-31 14:00,ZGSZ 311400Z 01007MPS 9999 SCT016 BKN030 11/09 Q1021 NOSIG
ZGSZ,2025-03-31 15:00,ZGSZ 311500Z 01005MPS 9999 SCT016 BKN030 12/09 Q1021 NOSIG
ZGSZ,2025-03-31 16:00,ZGSZ 311600Z 01005MPS 9999 SCT016 BKN030 12/08 Q1021 NOSIG
ZGSZ,2025-03-31 17:00,ZGSZ 311700Z 36006MPS 9999 FEW016 BKN030 12/08 Q1021 NOSIG
ZGSZ,2025-03-31 18:00,ZGSZ 311800Z 01005MPS 9999 FEW020 SCT050 12/08 Q1021 NOSIG
ZGSZ,2025-03-31 19:00,ZGSZ 311900Z 01006MPS 9999 FEW020 SCT050 12/08 Q1020 NOSIG
ZGSZ,2025-03-31 20:00,ZGSZ 312000Z 01004MPS 9999 -RA BKN040 12/08 Q1019 NOSIG
ZGSZ,2025-03-31 21:00,ZGSZ 312100Z 02004MPS 9999 -RA SCT040 11/08 Q1019 NOSIG
ZGSZ,2025-03-31 22:00,ZGSZ 312200Z 01004MPS 320V050 9999 -RA SCT026 12/09 Q1019 NOSIG
ZGSZ,2025-03-31 23:00,ZGSZ 312300Z 01005MPS 9999 -RA SCT016 11/08 Q1020 NOSIG
ZGSZ,2025-04-01 00:00,ZGSZ 010000Z 01004MPS 9999 FEW020 12/09 Q1020 NOSIG
ZGSZ,2025-04-01 01:00,ZGSZ 010100Z 03004MPS 360V060 CAVOK 13/08 Q1020 NOSIG
ZGSZ,2025-04-01 02:00,ZGSZ 010200Z 02005MPS CAVOK 15/08 Q1020 NOSIG
ZGSZ,2025-04-01 03:00,ZGSZ 010300Z 02005MPS 9999 FEW030 16/08 Q1020 NOSIG
ZGSZ,2025-04-01 04:00,ZGSZ 010400Z 36006MPS 330V030 CAVOK 17/09 Q1019 NOSIG
ZGSZ,2025-04-01 05:00,ZGSZ 010500Z 02005MPS 340V040 CAVOK 18/09 Q1018 NOSIG
ZGSZ,2025-04-01 06:00,ZGSZ 010600Z 02005MPS 9999 OVC053 18/08 Q1017 NOSIG
ZGSZ,2025-04-01 07:00,ZGSZ 010700Z 02005MPS 9999 OVC053 19/09 Q1016 NOSIG
ZGSZ,2025-04-01 08:00,ZGSZ 010800Z 02005MPS 340V060 CAVOK 19/08 Q1016 NOSIG
ZGSZ,2025-04-01 09:00,ZGSZ 010900Z 03004MPS 360V090 CAVOK 20/09 Q1016 NOSIG
ZGSZ,2025-04-01 10:00,ZGSZ 011000Z 03004MPS CAVOK 19/09 Q1016 NOSIG
ZGSZ,2025-04-01 11:00,ZGSZ 011100Z 06002MPS CAVOK 18/09 Q1016 NOSIG
ZGSZ,2025-04-01 12:00,ZGSZ 011200Z VRB02G07MPS CAVOK 17/10 Q1017 NOSIG
ZGSZ,2025-04-01 13:00,ZGSZ 011300Z 06003MPS CAVOK 16/10 Q1018 NOSIG
ZGSZ,2025-04-01 14:00,ZGSZ 011400Z 06002MPS CAVOK 16/10 Q1019 NOSIG
ZGSZ,2025-04-01 15:00,ZGSZ 011500Z 08003MPS CAVOK 16/09 Q1019 NOSIG
ZGSZ,2025-04-01 16:00,ZGSZ 011600Z 04002MPS CAVOK 15/09 Q1020 NOSIG
ZGSZ,2025-04-01 17:00,ZGSZ 011700Z 04003MPS CAVOK 15/09 Q1020 NOSIG
ZGSZ,2025-04-01 18:00,ZGSZ 011800Z 06002MPS CAVOK 14/09 Q1019 NOSIG
ZGSZ,2025-04-01 19:00,ZGSZ 011900Z 04002MPS CAVOK 14/09 Q1019 NOSIG
ZGSZ,2025-04-01 20:00,ZGSZ 012000Z 02003MPS CAVOK 14/09 Q1019 NOSIG
ZGSZ,2025-04-01 21:00,ZGSZ 012100Z 01002MPS CAVOK 13/09 Q1019 NOSIG
ZGSZ,2025-04-01 22:00,ZGSZ 012200Z 02004MPS CAVOK 13/09 Q1020 NOSIG
ZGSZ,2025-04-01 23:00,ZGSZ 012300Z 03003MPS CAVOK 14/09 Q1020 NOSIG
ZGSZ,2025-04-02 00:00,ZGSZ 020000Z 04003MPS CAVOK 16/09 Q1021 NOSIG
ZGSZ,2025-04-02 01:00,ZGSZ 020100Z 03006MPS CAVOK 17/09 Q1021 NOSIG
ZGSZ,2025-04-02 02:00,ZGSZ 020200Z 03005MPS CAVOK 19/09 Q1021 NOSIG
ZGSZ,2025-04-02 03:00,ZGSZ 020300Z 02004MPS 340V080 CAVOK 21/09 Q1021 NOSIG
ZGSZ,2025-04-02 04:00,ZGSZ 020400Z 01004MPS 320V050 CAVOK 21/08 Q1020 BECMG AT0540 30005MPS
ZGSZ,2025-04-02 05:00,ZGSZ 020500Z 35004MPS 300V040 CAVOK 22/09 Q1018 BECMG AT0640 29005MPS
ZGSZ,2025-04-02 06:00,ZGSZ 020600Z 02003MPS 350V070 CAVOK 23/08 Q1018 BECMG AT0740 30005MPS
ZGSZ,2025-04-02 07:00,ZGSZ 020700Z 04004MPS 340V100 CAVOK 24/09 Q1017 BECMG AT0750 28005MPS
ZGSZ,2025-04-02 08:00,ZGSZ 020800Z 30004MPS 270V340 CAVOK 23/11 Q1016 NOSIG
ZGSZ,2025-04-02 09:00,ZGSZ 020900Z 36004MPS 330V040 CAVOK 24/08 Q1016 NOSIG
ZGSZ,2025-04-02 10:00,ZGSZ 021000Z 04003MPS CAVOK 23/07 Q1016 NOSIG
ZGSZ,2025-04-02 11:00,ZGSZ 021100Z 03003MPS CAVOK 22/08 Q1017 BECMG AT1220 16005MPS
ZGSZ,2025-04-02 12:00,ZGSZ 021200Z 16005MPS CAVOK 19/13 Q1018 NOSIG
ZGSZ,2025-04-02 13:00,ZGSZ 021300Z 17003MPS CAVOK 19/13 Q1019 NOSIG
ZGSZ,2025-04-02 14:00,ZGSZ 021400Z 14004MPS CAVOK 19/11 Q1019 NOSIG
ZGSZ,2025-04-02 15:00,ZGSZ 021500Z 12003MPS CAVOK 19/12 Q1019 NOSIG
ZGSZ,2025-04-02 16:00,ZGSZ 021600Z 10003MPS 080V140 CAVOK 18/10 Q1019 NOSIG
ZGSZ,2025-04-02 17:00,ZGSZ 021700Z 10003MPS CAVOK 18/11 Q1020 NOSIG
ZGSZ,2025-04-02 18:00,ZGSZ 021800Z 10003MPS 070V130 CAVOK 18/11 Q1019 NOSIG
ZGSZ,2025-04-02 19:00,ZGSZ 021900Z VRB01MPS CAVOK 17/12 Q1019 NOSIG
ZGSZ,2025-04-02 20:00,ZGSZ 022000Z VRB01MPS CAVOK 16/11 Q1019 NOSIG
ZGSZ,2025-04-02 21:00,ZGSZ 022100Z 03003MPS 330V140 CAVOK 17/12 Q1019 NOSIG
ZGSZ,2025-04-02 22:00,ZGSZ 022200Z 02003MPS CAVOK 16/12 Q1020 NOSIG
ZGSZ,2025-04-02 23:00,ZGSZ 022300Z 03002MPS CAVOK 16/12 Q1020 NOSIG
ZGSZ,2025-04-03 00:00,ZGSZ 030000Z 05002MPS CAVOK 18/12 Q1020 NOSIG
ZGSZ,2025-04-03 01:00,ZGSZ 030100Z VRB01MPS CAVOK 20/12 Q1020 NOSIG
ZGSZ,2025-04-03 02:00,ZGSZ 030200Z 34002MPS 250V030 CAVOK 21/12 Q1020 NOSIG
ZGSZ,2025-04-03 03:00,ZGSZ 030300Z 27003MPS CAVOK 21/12 Q1020 NOSIG
ZGSZ,2025-04-03 04:00,ZGSZ 030400Z 28004MPS CAVOK 22/13 Q1019 NOSIG
ZGSZ,2025-04-03 05:00,ZGSZ 030500Z 28004MPS 8000 NSC 23/14 Q1018 NOSIG
ZGSZ,2025-04-03 06:00,ZGSZ 030600Z 23003MPS 8000 NSC 23/15 Q1017 NOSIG
ZGSZ,2025-04-03 07:00,ZGSZ 030700Z 22003MPS 8000 NSC 24/13 Q1016 NOSIG
ZGSZ,2025-04-03 08:00,ZGSZ 030800Z 21004MPS 8000 NSC 24/12 Q1015 NOSIG
ZGSZ,2025-04-03 09:00,ZGSZ 030900Z 18005MPS 8000 NSC 23/12 Q1015 NOSIG
ZGSZ,2025-04-03 10:00,ZGSZ 031000Z 18005MPS CAVOK 21/13 Q1015 NOSIG
ZGSZ,2025-04-03 11:00,ZGSZ 031100Z 18004MPS CAVOK 21/15 Q1016 NOSIG
ZGSZ,2025-04-03 12:00,ZGSZ 031200Z 19003MPS CAVOK 20/13 Q1016 NOSIG
ZGSZ,2025-04-03 13:00,ZGSZ 031300Z 17004MPS CAVOK 20/13 Q1017 NOSIG
ZGSZ,2025-04-03 14:00,ZGSZ 031400Z 12004MPS CAVOK 20/09 Q1017 NOSIG
ZGSZ,2025-04-03 15:00,ZGSZ 031500Z 11004MPS 080V140 CAVOK 20/06 Q1018 NOSIG
ZGSZ,2025-04-03 16:00,ZGSZ 031600Z 12005MPS CAVOK 20/07 Q1017 NOSIG
ZGSZ,2025-04-03 17:00,ZGSZ 031700Z 11003MPS CAVOK 19/08 Q1017 NOSIG
ZGSZ,2025-04-03 18:00,ZGSZ 031800Z 14002MPS CAVOK 19/07 Q1017 NOSIG
ZGSZ,2025-04-03 19:00,ZGSZ 031900Z 10002MPS CAVOK 19/07 Q1017 NOSIG
ZGSZ,2025-04-03 20:00,ZGSZ 032000Z 05001MPS CAVOK 18/07 Q1017 NOSIG
ZGSZ,2025-04-03 21:00,ZGSZ 032100Z VRB01MPS CAVOK 17/10 Q1017 NOSIG
ZGSZ,2025-04-03 22:00,ZGSZ 032200Z VRB01MPS CAVOK 16/09 Q1017 NOSIG
ZGSZ,2025-04-03 23:00,ZGSZ 032300Z 06002MPS 050V120 CAVOK 18/09 Q1017 NOSIG
ZGSZ,2025-04-04 00:00,ZGSZ 040000Z 11002MPS 080V140 CAVOK 20/08 Q1017 NOSIG
ZGSZ,2025-04-04 01:00,ZGSZ 040100Z 13003MPS 070V150 9999 BKN053 21/09 Q1017 NOSIG
ZGSZ,2025-04-04 02:00,ZGSZ 040200Z 12004MPS 9999 SCT040 22/11 Q1017 NOSIG
ZGSZ,2025-04-04 03:00,ZGSZ 040300Z 27003MPS 9999 BKN030 22/11 Q1017 NOSIG
ZGSZ,2025-04-04 04:00,ZGSZ 040400Z 27003MPS 9999 BKN043 22/12 Q1016 NOSIG
ZGSZ,2025-04-04 05:00,ZGSZ 040500Z 26003MPS 9999 BKN043 22/13 Q1015 NOSIG
ZGSZ,2025-04-04 06:00,ZGSZ 040600Z 23003MPS 9999 BKN033 22/13 Q1014 NOSIG
ZGSZ,2025-04-04 07:00,ZGSZ 040700Z 21003MPS 9999 SCT033 22/15 Q1014 NOSIG
ZGSZ,2025-04-04 08:00,ZGSZ 040800Z 20003MPS 9999 BKN026 22/15 Q1013 NOSIG
ZGSZ,2025-04-04 09:00,ZGSZ 040900Z 19003MPS 9999 BKN023 21/16 Q1013 NOSIG
ZGSZ,2025-04-04 10:00,ZGSZ 041000Z 22003MPS 9999 OVC026 21/16 Q1013 NOSIG
ZGSZ,2025-04-04 11:00,ZGSZ 041100Z 10003MPS 060V130 9999 BKN026 22/16 Q1013 NOSIG
ZGSZ,2025-04-04 12:00,ZGSZ 041200Z 10003MPS 070V140 9999 -RA OVC023 21/16 Q1014 NOSIG
ZGSZ,2025-04-04 13:00,ZGSZ 041300Z 09004MPS 060V140 9999 BKN023 21/16 Q1015 NOSIG
ZGSZ,2025-04-04 14:00,ZGSZ 041400Z 08002MPS 030V150 9999 BKN036 21/16 Q1015 NOSIG
ZGSZ,2025-04-04 15:00,ZGSZ 041500Z 35002MPS 320V030 6000 -RA BKN023 19/17 Q1016 NOSIG
ZGSZ,2025-04-04 16:00,ZGSZ 041600Z 03003MPS 340V060 6000 -RA BKN023 19/17 Q1016 NOSIG
ZGSZ,2025-04-04 17:00,ZGSZ 041700Z 02004MPS 6000 -RA BKN023 19/17 Q1015 NOSIG
ZGSZ,2025-04-04 18:00,ZGSZ 041800Z 35003MPS 3200 -RA BR SCT011 BKN023 19/17 Q1015 BECMG AT1930 BKN012 BKN030
ZGSZ,2025-04-04 19:00,ZGSZ 041900Z 02004MPS 4000 -RA BR BKN010 BKN023 19/18 Q1015 BECMG AT2020 SCT012 BKN025
ZGSZ,2025-04-04 20:00,ZGSZ 042000Z 02004MPS 5000 -RA BR BKN010 BKN023 19/17 Q1015 BECMG AT2050 SCT010 BKN020
ZGSZ,2025-04-04 21:00,ZGSZ 042100Z 02004MPS 310V040 6000 -RA SCT010 BKN020 18/17 Q1015 NOSIG
ZGSZ,2025-04-04 22:00,ZGSZ 042200Z 04003MPS 9999 -RA FEW016 BKN030 18/17 Q1015 NOSIG
ZGSZ,2025-04-04 23:00,ZGSZ 042300Z 03004MPS 4000 -RA BR FEW010 BKN020 18/17 Q1016 NOSIG
ZGSZ,2025-04-05 00:00,ZGSZ 050000Z 06003MPS 5000 -RA BR FEW010 BKN020 18/17 Q1016 NOSIG
ZGSZ,2025-04-05 01:00,ZGSZ 050100Z 36003MPS 5000 -RA BR BKN007 OVC020 18/17 Q1017 NOSIG
ZGSZ,2025-04-05 02:00,ZGSZ 050200Z 01004MPS 3200 -RA BR BKN007 OVC020 18/17 Q1017 BECMG AT0220 2500
ZGSZ,2025-04-05 03:00,ZGSZ 050300Z 04004MPS 010V070 2800 -RA BR BKN010 OVC020 18/17 Q1017 BECMG AT0420 4000 SCT010 BKN030
ZGSZ,2025-04-05 04:00,ZGSZ 050400Z 02004MPS 2900 -RA BR BKN007 OVC020 18/17 Q1016 BECMG AT0420 4000 SCT010 BKN030
ZGSZ,2025-04-05 05:00,ZGSZ 050500Z 04003MPS 6000 -RA SCT010 OVC030 19/17 Q1016 NOSIG
ZGSZ,2025-04-05 06:00,ZGSZ 050600Z 03003MPS 6000 -RA SCT010 OVC030 19/17 Q1015 NOSIG
ZGSZ,2025-04-05 07:00,ZGSZ 050700Z 02004MPS 350V060 6000 -RA FEW010 OVC030 19/17 Q1014 NOSIG
ZGSZ,2025-04-05 08:00,ZGSZ 050800Z 03004MPS 9999 FEW010 OVC036 19/16 Q1014 NOSIG
ZGSZ,2025-04-05 09:00,ZGSZ 050900Z 03005MPS 9999 FEW010 OVC050 19/16 Q1014 NOSIG
ZGSZ,2025-04-05 10:00,ZGSZ 051000Z 02003MPS 9999 OVC050 19/16 Q1014 NOSIG
ZGSZ,2025-04-05 11:00,ZGSZ 051100Z 01002MPS 9999 OVC050 19/16 Q1014 NOSIG
ZGSZ,2025-04-05 12:00,ZGSZ 051200Z VRB01MPS 9999 OVC050 19/16 Q1015 NOSIG
ZGSZ,2025-04-05 13:00,ZGSZ 051300Z 04002MPS CAVOK 19/15 Q1015 NOSIG
ZGSZ,2025-04-05 14:00,ZGSZ 051400Z 03002MPS CAVOK 19/16 Q1016 NOSIG
ZGSZ,2025-04-05 15:00,ZGSZ 051500Z VRB01MPS CAVOK 19/16 Q1016 NOSIG
ZGSZ,2025-04-05 16:00,ZGSZ 051600Z 03002MPS CAVOK 19/15 Q1016 NOSIG
ZGSZ,2025-04-05 17:00,ZGSZ 051700Z VRB03G10MPS CAVOK 19/16 Q1015 NOSIG
ZGSZ,2025-04-05 18:00,ZGSZ 051800Z 04002MPS CAVOK 19/15 Q1015 NOSIG
ZGSZ,2025-04-05 19:00,ZGSZ 051900Z VRB02MPS CAVOK 19/15 Q1014 NOSIG
ZGSZ,2025-04-05 20:00,ZGSZ 052000Z 01003MPS CAVOK 19/15 Q1014 NOSIG
ZGSZ,2025-04-05 21:00,ZGSZ 052100Z 36002MPS CAVOK 18/15 Q1015 NOSIG
ZGSZ,2025-04-05 22:00,ZGSZ 052200Z 36002MPS 320V050 CAVOK 18/15 Q1015 NOSIG
ZGSZ,2025-04-05 23:00,ZGSZ 052300Z 01001MPS CAVOK 18/16 Q1016 NOSIG
ZGSZ,2025-04-06 00:00,ZGSZ 060000Z VRB02MPS CAVOK 19/15 Q1017 NOSIG
ZGSZ,2025-04-06 01:00,ZGSZ 060100Z 04002MPS 010V070 CAVOK 20/14 Q1017 NOSIG
ZGSZ,2025-04-06 02:00,ZGSZ 060200Z 03003MPS CAVOK 22/14 Q1017 NOSIG
ZGSZ,2025-04-06 03:00,ZGSZ 060300Z 05003MPS CAVOK 22/14 Q1017 NOSIG
ZGSZ,2025-04-06 04:00,ZGSZ 060400Z 01003MPS CAVOK 23/14 Q1016 NOSIG
ZGSZ,2025-04-06 05:00,ZGSZ 060500Z 36003MPS CAVOK 22/14 Q1015 NOSIG
ZGSZ,2025-04-06 06:00,ZGSZ 060600Z 01002MPS 310V050 CAVOK 23/14 Q1015 NOSIG
ZGSZ,2025-04-06 07:00,ZGSZ 060700Z 29003MPS CAVOK 21/16 Q1014 NOSIG
ZGSZ,2025-04-06 08:00,ZGSZ 060800Z 32002MPS 7000 NSC 21/16 Q1014 NOSIG
ZGSZ,2025-04-06 09:00,ZGSZ 060900Z 32002MPS 8000 -RA NSC 21/17 Q1014 NOSIG
ZGSZ,2025-04-06 10:00,ZGSZ 061000Z 34002MPS 230V020 8000 NSC 21/16 Q1015 NOSIG
ZGSZ,2025-04-06 11:00,ZGSZ 061100Z 34001MPS CAVOK 21/16 Q1015 NOSIG
ZGSZ,2025-04-06 12:00,ZGSZ 061200Z VRB01MPS CAVOK 20/17 Q1016 NOSIG
ZGSZ,2025-04-06 13:00,ZGSZ 061300Z 16003MPS 120V180 CAVOK 20/17 Q1016 NOSIG
ZGSZ,2025-04-06 14:00,ZGSZ 061400Z 17002MPS 8000 NSC 19/17 Q1017 NOSIG
ZGSZ,2025-04-06 15:00,ZGSZ 061500Z 15004MPS 8000 NSC 19/16 Q1017 NOSIG
ZGSZ,2025-04-06 16:00,ZGSZ 061600Z 16002MPS 8000 NSC 19/16 Q1017 NOSIG
ZGSZ,2025-04-06 17:00,ZGSZ 061700Z VRB01MPS 8000 NSC 20/16 Q1017 NOSIG
ZGSZ,2025-04-06 18:00,ZGSZ 061800Z 02002MPS 8000 NSC 18/16 Q1016 NOSIG
ZGSZ,2025-04-06 19:00,ZGSZ 061900Z 04002MPS CAVOK 19/15 Q1016 NOSIG
ZGSZ,2025-04-06 20:00,ZGSZ 062000Z 04002MPS CAVOK 18/15 Q1016 NOSIG
ZGSZ,2025-04-06 21:00,ZGSZ 062100Z 02001MPS CAVOK 18/15 Q1016 NOSIG
ZGSZ,2025-04-06 22:00,ZGSZ 062200Z 36002MPS CAVOK 18/15 Q1017 NOSIG
ZGSZ,2025-04-06 23:00,ZGSZ 062300Z 01001MPS 8000 NSC 18/15 Q1017 NOSIG
ZGSZ,2025-04-07 00:00,ZGSZ 070000Z VRB01MPS 8000 NSC 20/16 Q1018 NOSIG
ZGSZ,2025-04-07 01:00,ZGSZ 070100Z VRB01MPS 8000 NSC 21/15 Q1018 NOSIG
ZGSZ,2025-04-07 02:00,ZGSZ 070200Z 28002MPS 5000 HZ NSC 21/17 Q1019 NOSIG
ZGSZ,2025-04-07 03:00,ZGSZ 070300Z 29003MPS 5000 HZ NSC 23/16 Q1018 NOSIG
ZGSZ,2025-04-07 04:00,ZGSZ 070400Z 29004MPS 8000 NSC 24/15 Q1017 NOSIG
ZGSZ,2025-04-07 05:00,ZGSZ 070500Z 27004MPS 8000 NSC 25/14 Q1016 NOSIG
ZGSZ,2025-04-07 06:00,ZGSZ 070600Z 25003MPS CAVOK 26/14 Q1016 NOSIG
ZGSZ,2025-04-07 07:00,ZGSZ 070700Z 20004MPS CAVOK 25/15 Q1015 NOSIG
ZGSZ,2025-04-07 08:00,ZGSZ 070800Z 20004MPS CAVOK 24/17 Q1014 NOSIG
ZGSZ,2025-04-07 09:00,ZGSZ 070900Z 20004MPS CAVOK 24/16 Q1014 NOSIG
ZGSZ,2025-04-07 10:00,ZGSZ 071000Z 20003MPS CAVOK 23/17 Q1015 NOSIG
ZGSZ,2025-04-07 11:00,ZGSZ 071100Z 19004MPS CAVOK 22/16 Q1015 NOSIG
ZGSZ,2025-04-07 12:00,ZGSZ 071200Z 18004MPS CAVOK 22/17 Q1016 NOSIG
ZGSZ,2025-04-07 13:00,ZGSZ 071300Z 19004MPS CAVOK 22/16 Q1017 NOSIG
ZGSZ,2025-04-07 14:00,ZGSZ 071400Z VRB01MPS CAVOK 21/10 Q1017 NOSIG
ZGSZ,2025-04-07 15:00,ZGSZ 071500Z 09003MPS CAVOK 22/11 Q1018 NOSIG
ZGSZ,2025-04-07 16:00,ZGSZ 071600Z 11003MPS 080V140 CAVOK 22/11 Q1017 NOSIG
ZGSZ,2025-04-07 17:00,ZGSZ 071700Z 10002MPS CAVOK 22/13 Q1017 NOSIG
ZGSZ,2025-04-07 18:00,ZGSZ 071800Z 10002MPS CAVOK 22/14 Q1017 NOSIG
ZGSZ,2025-04-07 19:00,ZGSZ 071900Z VRB01MPS CAVOK 21/18 Q1016 NOSIG
ZGSZ,2025-04-07 20:00,ZGSZ 072000Z 00000MPS 8000 NSC 21/18 Q1016 NOSIG
ZGSZ,2025-04-07 21:00,ZGSZ 072100Z 04002MPS 350V140 CAVOK 22/14 Q1016 NOSIG
ZGSZ,2025-04-07 22:00,ZGSZ 072200Z 12003MPS 080V150 CAVOK 22/15 Q1016 NOSIG
ZGSZ,2025-04-07 23:00,ZGSZ 072300Z 13002MPS 080V170 CAVOK 22/15 Q1016 NOSIG
ZGSZ,2025-04-08 00:00,ZGSZ 080000Z VRB01MPS CAVOK 22/17 Q1017 NOSIG
ZGSZ,2025-04-08 01:00,ZGSZ 080100Z 30002MPS CAVOK 23/17 Q1018 NOSIG
ZGSZ,2025-04-08 02:00,ZGSZ 080200Z 30003MPS CAVOK 23/16 Q1018 NOSIG
ZGSZ,2025-04-08 03:00,ZGSZ 080300Z 28003MPS CAVOK 24/17 Q1018 NOSIG
ZGSZ,2025-04-08 04:00,ZGSZ 080400Z 24003MPS CAVOK 25/18 Q1017 NOSIG
ZGSZ,2025-04-08 05:00,ZGSZ 080500Z 24003MPS CAVOK 25/18 Q1016 NOSIG
ZGSZ,2025-04-08 06:00,ZGSZ 080600Z 24003MPS CAVOK 26/18 Q1015 NOSIG
ZGSZ,2025-04-08 07:00,ZGSZ 080700Z 20003MPS CAVOK 26/19 Q1014 NOSIG
ZGSZ,2025-04-08 08:00,ZGSZ 080800Z 18004MPS CAVOK 26/19 Q1013 NOSIG
ZGSZ,2025-04-08 09:00,ZGSZ 080900Z 20003MPS CAVOK 24/20 Q1013 NOSIG
ZGSZ,2025-04-08 10:00,ZGSZ 081000Z 19004MPS CAVOK 23/20 Q1013 NOSIG
ZGSZ,2025-04-08 11:00,ZGSZ 081100Z 20004MPS CAVOK 23/20 Q1014 NOSIG
ZGSZ,2025-04-08 12:00,ZGSZ 081200Z 20004MPS CAVOK 22/20 Q1015 NOSIG
ZGSZ,2025-04-08 13:00,ZGSZ 081300Z 17005MPS CAVOK 23/20 Q1015 NOSIG
ZGSZ,2025-04-08 14:00,ZGSZ 081400Z 20003MPS CAVOK 22/20 Q1015 NOSIG
ZGSZ,2025-04-08 15:00,ZGSZ 081500Z 20004MPS CAVOK 22/20 Q1015 NOSIG
ZGSZ,2025-04-08 16:00,ZGSZ 081600Z 21003MPS CAVOK 22/20 Q1015 NOSIG
ZGSZ,2025-04-08 17:00,ZGSZ 081700Z VRB01MPS CAVOK 22/20 Q1014 NOSIG
ZGSZ,2025-04-08 18:00,ZGSZ 081800Z 22002MPS CAVOK 21/19 Q1014 NOSIG
ZGSZ,2025-04-08 19:00,ZGSZ 081900Z 25002MPS 8000 BKN023 21/19 Q1013 NOSIG
ZGSZ,2025-04-08 20:00,ZGSZ 082000Z 26001MPS 8000 BKN023 21/19 Q1013 NOSIG
ZGSZ,2025-04-08 21:00,ZGSZ 082100Z 18002MPS 9999 BKN023 21/19 Q1013 NOSIG
ZGSZ,2025-04-08 22:00,ZGSZ 082200Z 15002MPS 8000 BKN033 21/19 Q1013 NOSIG
ZGSZ,2025-04-08 23:00,ZGSZ 082300Z 21002MPS 6000 BKN050 22/20 Q1014 NOSIG
ZGSZ,2025-04-09 00:00,ZGSZ 090000Z 21002MPS 7000 BKN040 22/19 Q1014 NOSIG
ZGSZ,2025-04-09 01:00,ZGSZ 090100Z 22002MPS 7000 BKN030 23/20 Q1014 NOSIG
ZGSZ,2025-04-09 02:00,ZGSZ 090200Z 22002MPS 190V250 9999 FEW030 24/19 Q1014 NOSIG
ZGSZ,2025-04-09 03:00,ZGSZ 090300Z 24003MPS CAVOK 24/19 Q1014 NOSIG
ZGSZ,2025-04-09 04:00,ZGSZ 090400Z 20004MPS CAVOK 24/20 Q1014 NOSIG
ZGSZ,2025-04-09 05:00,ZGSZ 090500Z 18004MPS CAVOK 26/20 Q1012 NOSIG
ZGSZ,2025-04-09 06:00,ZGSZ 090600Z 18005MPS CAVOK 26/20 Q1011 NOSIG
ZGSZ,2025-04-09 07:00,ZGSZ 090700Z 18006MPS 9999 FEW026 26/20 Q1010 NOSIG
ZGSZ,2025-04-09 08:00,ZGSZ 090800Z 18007MPS 9999 FEW026 26/20 Q1010 NOSIG
ZGSZ,2025-04-09 09:00,ZGSZ 090900Z 17007MPS CAVOK 25/21 Q1009 NOSIG
ZGSZ,2025-04-09 10:00,ZGSZ 091000Z 16006MPS CAVOK 24/21 Q1009 NOSIG
ZGSZ,2025-04-09 11:00,ZGSZ 091100Z 17006MPS CAVOK 24/21 Q1009 NOSIG
ZGSZ,2025-04-09 12:00,ZGSZ 091200Z 16006MPS CAVOK 23/21 Q1010 NOSIG
ZGSZ,2025-04-09 13:00,ZGSZ 091300Z 16005MPS CAVOK 23/20 Q1010 NOSIG
ZGSZ,2025-04-09 14:00,ZGSZ 091400Z 17004MPS CAVOK 23/21 Q1011 NOSIG
ZGSZ,2025-04-09 15:00,ZGSZ 091500Z 16003MPS CAVOK 23/20 Q1011 NOSIG
ZGSZ,2025-04-09 16:00,ZGSZ 091600Z 19003MPS CAVOK 22/21 Q1010 NOSIG
ZGSZ,2025-04-09 17:00,ZGSZ 091700Z 16001MPS CAVOK 22/21 Q1010 NOSIG
ZGSZ,2025-04-09 18:00,ZGSZ 091800Z 24002MPS 9999 SCT018 22/21 Q1009 NOSIG
ZGSZ,2025-04-09 19:00,ZGSZ 091900Z 18003MPS 8000 SCT020 22/21 Q1008 NOSIG
ZGSZ,2025-04-09 20:00,ZGSZ 092000Z 16003MPS 8000 FEW013 22/21 Q1008 NOSIG
ZGSZ,2025-04-09 21:00,ZGSZ 092100Z 15003MPS 9999 FEW016 22/21 Q1008 NOSIG
ZGSZ,2025-04-09 22:00,ZGSZ 092200Z 17002MPS 9999 BKN020 23/21 Q1009 NOSIG
ZGSZ,2025-04-09 23:00,ZGSZ 092300Z 16004MPS 9999 SCT050 23/21 Q1009 NOSIG
ZGSZ,2025-04-10 00:00,ZGSZ 100000Z 17004MPS 9999 SCT030 24/21 Q1010 NOSIG
ZGSZ,2025-04-10 01:00,ZGSZ 100100Z 18004MPS 9999 FEW030 24/21 Q1011 NOSIG
ZGSZ,2025-04-10 02:00,ZGSZ 100200Z 18004MPS 9999 FEW030 26/21 Q1011 NOSIG
ZGSZ,2025-04-10 03:00,ZGSZ 100300Z 17004MPS 9999 FEW030 26/21 Q1010 NOSIG
ZGSZ,2025-04-10 04:00,ZGSZ 100400Z 19006MPS CAVOK 25/22 Q1010 NOSIG
ZGSZ,2025-04-10 05:00,ZGSZ 100500Z 17006MPS CAVOK 26/21 Q1009 NOSIG
ZGSZ,2025-04-10 06:00,ZGSZ 100600Z 18006MPS CAVOK 26/21 Q1008 NOSIG
ZGSZ,2025-04-10 07:00,ZGSZ 100700Z 17007MPS CAVOK 26/21 Q1007 NOSIG
ZGSZ,2025-04-10 08:00,ZGSZ 100800Z 17008MPS CAVOK 26/21 Q1007 NOSIG
ZGSZ,2025-04-10 09:00,ZGSZ 100900Z 16008MPS CAVOK 25/21 Q1007 NOSIG
ZGSZ,2025-04-10 10:00,ZGSZ 101000Z 17007MPS CAVOK 25/21 Q1007 NOSIG
ZGSZ,2025-04-10 11:00,ZGSZ 101100Z 16006MPS CAVOK 24/21 Q1007 NOSIG
ZGSZ,2025-04-10 12:00,ZGSZ 101200Z 16005MPS CAVOK 24/21 Q1008 NOSIG
ZGSZ,2025-04-10 13:00,ZGSZ 101300Z 16005MPS CAVOK 24/21 Q1008 NOSIG
ZGSZ,2025-04-10 14:00,ZGSZ 101400Z 17004MPS CAVOK 24/22 Q1009 NOSIG
ZGSZ,2025-04-10 15:00,ZGSZ 101500Z 17004MPS CAVOK 23/21 Q1009 NOSIG
ZGSZ,2025-04-10 16:00,ZGSZ 101600Z 17004MPS CAVOK 23/22 Q1009 NOSIG
ZGSZ,2025-04-10 17:00,ZGSZ 101700Z 18004MPS 9999 FEW010 23/21 Q1008 NOSIG
ZGSZ,2025-04-10 18:00,ZGSZ 101800Z 17003MPS 9999 FEW010 23/22 Q1008 NOSIG
ZGSZ,2025-04-10 19:00,ZGSZ 101900Z 15003MPS 9999 FEW010 23/22 Q1007 NOSIG
ZGSZ,2025-04-10 20:00,ZGSZ 102000Z 16003MPS 9999 FEW010 23/22 Q1006 NOSIG
ZGSZ,2025-04-10 21:00,ZGSZ 102100Z 17002MPS CAVOK 23/22 Q1007 NOSIG
ZGSZ,2025-04-10 22:00,ZGSZ 102200Z 21003MPS 8000 NSC 23/22 Q1007 NOSIG
ZGSZ,2025-04-10 23:00,ZGSZ 102300Z 18003MPS 7000 BKN020 23/22 Q1008 NOSIG
ZGSZ,2025-04-11 00:00,ZGSZ 110000Z 18004MPS 7000 BKN023 23/22 Q1009 NOSIG
ZGSZ,2025-04-11 01:00,ZGSZ 110100Z 19003MPS 7000 BKN025 24/22 Q1010 NOSIG
ZGSZ,2025-04-11 02:00,ZGSZ 110200Z 18003MPS 9999 FEW014 BKN025 24/22 Q1010 NOSIG
ZGSZ,2025-04-11 03:00,ZGSZ 110300Z 17005MPS 9999 BKN040 26/22 Q1010 NOSIG
ZGSZ,2025-04-11 04:00,ZGSZ 110400Z 16006MPS 9999 SCT040 27/23 Q1009 NOSIG
ZGSZ,2025-04-11 05:00,ZGSZ 110500Z 17007MPS CAVOK 28/23 Q1008 NOSIG
ZGSZ,2025-04-11 06:00,ZGSZ 110600Z 16008MPS 9999 FEW026 SCT050 28/23 Q1008 NOSIG
ZGSZ,2025-04-11 07:00,ZGSZ 110700Z 17007MPS 9999 FEW026 SCT050 27/23 Q1007 NOSIG
ZGSZ,2025-04-11 08:00,ZGSZ 110800Z 16008MPS 9999 SCT050 27/23 Q1007 NOSIG
ZGSZ,2025-04-11 09:00,ZGSZ 110900Z 16008MPS 9999 SCT050 26/23 Q1006 NOSIG
ZGSZ,2025-04-11 10:00,ZGSZ 111000Z 17007MPS 9999 SCT040 25/23 Q1007 NOSIG
ZGSZ,2025-04-11 11:00,ZGSZ 111100Z 16007MPS 9999 BKN030 25/23 Q1007 NOSIG
ZGSZ,2025-04-11 12:00,ZGSZ 111200Z 16006MPS 9999 BKN030 24/22 Q1008 NOSIG
ZGSZ,2025-04-11 13:00,ZGSZ 111300Z 17005MPS 9999 SCT033 24/22 Q1008 NOSIG
ZGSZ,2025-04-11 14:00,ZGSZ 111400Z 17005MPS 9999 SCT026 24/22 Q1008 NOSIG
ZGSZ,2025-04-11 15:00,ZGSZ 111500Z 17004MPS 9999 BKN020 24/22 Q1008 NOSIG
ZGSZ,2025-04-11 16:00,ZGSZ 111600Z 16005MPS 9999 SCT013 BKN020 24/23 Q1008 BECMG AT1730 BKN013 BKN020
ZGSZ,2025-04-11 17:00,ZGSZ 111700Z 17005MPS 9999 SCT012 BKN020 24/23 Q1007 BECMG AT1730 BKN013 BKN020
ZGSZ,2025-04-11 18:00,ZGSZ 111800Z 17006MPS 9999 BKN010 BKN020 24/23 Q1007 NOSIG
ZGSZ,2025-04-11 19:00,ZGSZ 111900Z 17006MPS 9999 BKN010 BKN020 24/23 Q1006 NOSIG
ZGSZ,2025-04-11 20:00,ZGSZ 112000Z 17007MPS 9000 BKN010 BKN030 24/23 Q1006 NOSIG
ZGSZ,2025-04-11 21:00,ZGSZ 112100Z 16005MPS 8000 BKN010 BKN030 24/23 Q1007 NOSIG
ZGSZ,2025-04-11 22:00,ZGSZ 112200Z 16005MPS 8000 BKN012 BKN030 24/23 Q1007 BECMG AT2330 BKN015 BKN033
ZGSZ,2025-04-11 23:00,ZGSZ 112300Z 17005MPS 4000 -RA BR BKN012 BKN030 24/23 Q1007 BECMG AT2330 BKN016 BKN033
ZGSZ,2025-04-12 00:00,ZGSZ 120000Z 17006MPS 8000 BKN018 OVC030 24/23 Q1008 NOSIG
ZGSZ,2025-04-12 01:00,ZGSZ 120100Z 17008MPS 8000 OVC030 24/23 Q1008 NOSIG
ZGSZ,2025-04-12 02:00,ZGSZ 120200Z 16006MPS 8000 OVC030 25/23 Q1009 NOSIG
ZGSZ,2025-04-12 03:00,ZGSZ 120300Z 16008MPS 9999 BKN050 25/24 Q1008 NOSIG
ZGSZ,2025-04-12 04:00,ZGSZ 120400Z 16007MPS 9999 SCT020 BKN040 25/23 Q1008 NOSIG
ZGSZ,2025-04-12 05:00,ZGSZ 120500Z 17007MPS 9999 SCT020 BKN040 25/23 Q1008 NOSIG
ZGSZ,2025-04-12 06:00,ZGSZ 120600Z 18005MPS 8000 -SHRA FEW020 BKN046 24/23 Q1007 BECMG AT0750 36010G20MPS 2000 +TSRA SCT015 FEW025CB BKN030
ZGSZ,2025-04-12 07:00,ZGSZ 120700Z 16005MPS 8000 FEW020 BKN046 24/23 Q1007 BECMG AT0800 36010G20MPS 2000 +TSRA SCT015 FEW025CB BKN030
ZGSZ,2025-04-12 08:00,ZGSZ 120800Z 16006MPS 8000 FEW020 BKN046 25/23 Q1006 BECMG AT0830 36010G20MPS 2000 +TSRA SCT015 FEW025CB BKN030
ZGSZ,2025-04-12 09:00,ZGSZ 120900Z 35008MPS 7000 SHRA FEW020 FEW030CB BKN046 21/20 Q1008 BECMG AT0920 NSW BKN040
ZGSZ,2025-04-12 10:00,ZGSZ 121000Z 36007MPS 9999 SCT020 BKN046 22/20 Q1010 NOSIG
ZGSZ,2025-04-12 11:00,ZGSZ 121100Z 36009MPS 9999 OVC040 22/19 Q1011 NOSIG
ZGSZ,2025-04-12 12:00,ZGSZ 121200Z 01009MPS 9999 BKN040 21/16 Q1012 NOSIG
ZGSZ,2025-04-12 13:00,ZGSZ 121300Z 02007MPS 350V050 9999 BKN040 21/14 Q1014 NOSIG
ZGSZ,2025-04-12 14:00,ZGSZ 121400Z 02010MPS CAVOK 21/11 Q1015 NOSIG
ZGSZ,2025-04-12 15:00,ZGSZ 121500Z 02006MPS CAVOK 20/10 Q1015 NOSIG
ZGSZ,2025-04-12 16:00,ZGSZ 121600Z 01008MPS CAVOK 20/10 Q1015 NOSIG
ZGSZ,2025-04-12 17:00,ZGSZ 121700Z 01005MPS 8000 NSC 20/09 Q1015 NOSIG
ZGSZ,2025-04-12 18:00,ZGSZ 121800Z 01007MPS 8000 NSC 20/08 Q1014 NOSIG
ZGSZ,2025-04-12 19:00,ZGSZ 121900Z 01008MPS 8000 NSC 20/06 Q1014 NOSIG
ZGSZ,2025-04-12 20:00,ZGSZ 122000Z 01007MPS 8000 NSC 20/05 Q1014 NOSIG
ZGSZ,2025-04-12 21:00,ZGSZ 122100Z 02005MPS 300V050 8000 NSC 20/04 Q1015 NOSIG
ZGSZ,2025-04-12 22:00,ZGSZ 122200Z 02005MPS 8000 NSC 20/04 Q1016 NOSIG
ZGSZ,2025-04-12 23:00,ZGSZ 122300Z 02005MPS 6000 NSC 19/05 Q1017 NOSIG
ZGSZ,2025-04-13 00:00,ZGSZ 130000Z 02007MPS 8000 NSC 19/03 Q1018 NOSIG
ZGSZ,2025-04-13 01:00,ZGSZ 130100Z 03007MPS 8000 NSC 21/02 Q1018 NOSIG
ZGSZ,2025-04-13 02:00,ZGSZ 130200Z 36006MPS 8000 NSC 22/02 Q1018 NOSIG
ZGSZ,2025-04-13 03:00,ZGSZ 130300Z 01007MPS 8000 FEW030 24/03 Q1018 NOSIG
ZGSZ,2025-04-13 04:00,ZGSZ 130400Z 02006MPS 8000 FEW030 23/02 Q1017 NOSIG
ZGSZ,2025-04-13 05:00,ZGSZ 130500Z 36005MPS 8000 SCT030 24/04 Q1016 NOSIG
ZGSZ,2025-04-13 06:00,ZGSZ 130600Z 01005MPS 340V040 8000 SCT030 24/04 Q1015 NOSIG
ZGSZ,2025-04-13 07:00,ZGSZ 130700Z 01006MPS 8000 SCT030 23/03 Q1015 NOSIG
ZGSZ,2025-04-13 08:00,ZGSZ 130800Z 03005MPS 8000 SCT030 23/03 Q1014 NOSIG
ZGSZ,2025-04-13 09:00,ZGSZ 130900Z 01003MPS 350V050 8000 SCT030 23/03 Q1014 NOSIG
ZGSZ,2025-04-13 10:00,ZGSZ 131000Z 03002MPS 340V060 8000 SCT030 22/04 Q1014 NOSIG
ZGSZ,2025-04-13 11:00,ZGSZ 131100Z 02002MPS 8000 SCT030 22/04 Q1014 NOSIG
ZGSZ,2025-04-13 12:00,ZGSZ 131200Z 01003MPS 8000 SCT030 21/05 Q1014 NOSIG
ZGSZ,2025-04-13 13:00,ZGSZ 131300Z 34003MPS 310V020 9000 NSC 22/05 Q1014 NOSIG
ZGSZ,2025-04-13 14:00,ZGSZ 131400Z 33002MPS 8000 NSC 20/09 Q1015 NOSIG
ZGSZ,2025-04-13 15:00,ZGSZ 131500Z 32001MPS 8000 NSC 20/08 Q1015 NOSIG
ZGSZ,2025-04-13 16:00,ZGSZ 131600Z 30002MPS 8000 NSC 20/11 Q1014 NOSIG
ZGSZ,2025-04-13 17:00,ZGSZ 131700Z 29003MPS 7000 NSC 20/09 Q1014 NOSIG
ZGSZ,2025-04-13 18:00,ZGSZ 131800Z 30003MPS 7000 NSC 20/11 Q1013 NOSIG
ZGSZ,2025-04-13 19:00,ZGSZ 131900Z 32003MPS 7000 NSC 19/10 Q1013 NOSIG
ZGSZ,2025-04-13 20:00,ZGSZ 132000Z 33002MPS 7000 NSC 18/11 Q1013 NOSIG
ZGSZ,2025-04-13 21:00,ZGSZ 132100Z 35002MPS 7000 NSC 17/11 Q1013 NOSIG
ZGSZ,2025-04-13 22:00,ZGSZ 132200Z 34002MPS 7000 NSC 18/11 Q1013 NOSIG
ZGSZ,2025-04-13 23:00,ZGSZ 132300Z 32002MPS 8000 NSC 19/12 Q1014 NOSIG
ZGSZ,2025-04-14 00:00,ZGSZ 140000Z 34002MPS 7000 NSC 21/11 Q1015 NOSIG
ZGSZ,2025-04-14 01:00,ZGSZ 140100Z 30003MPS 7000 NSC 22/12 Q1015 NOSIG
ZGSZ,2025-04-14 02:00,ZGSZ 140200Z 27003MPS 7000 NSC 22/12 Q1015 NOSIG
ZGSZ,2025-04-14 03:00,ZGSZ 140300Z 27003MPS 7000 NSC 24/11 Q1015 NOSIG
ZGSZ,2025-04-14 04:00,ZGSZ 140400Z 28003MPS 6000 NSC 25/10 Q1014 NOSIG
ZGSZ,2025-04-14 05:00,ZGSZ 140500Z 28003MPS 6000 NSC 25/09 Q1013 NOSIG
ZGSZ,2025-04-14 06:00,ZGSZ 140600Z 28004MPS 7000 NSC 27/10 Q1012 NOSIG
ZGSZ,2025-04-14 07:00,ZGSZ 140700Z 24003MPS 180V280 7000 NSC 27/13 Q1011 NOSIG
ZGSZ,2025-04-14 08:00,ZGSZ 140800Z 21003MPS 7000 NSC 27/12 Q1010 NOSIG
ZGSZ,2025-04-14 09:00,ZGSZ 140900Z 19004MPS 7000 NSC 25/16 Q1010 NOSIG
ZGSZ,2025-04-14 10:00,ZGSZ 141000Z 17004MPS 7000 NSC 23/17 Q1010 NOSIG
ZGSZ,2025-04-14 11:00,ZGSZ 141100Z 16004MPS 7000 NSC 22/18 Q1011 NOSIG
ZGSZ,2025-04-14 12:00,ZGSZ 141200Z 16003MPS 9000 NSC 21/17 Q1011 NOSIG
ZGSZ,2025-04-14 13:00,ZGSZ 141300Z 16004MPS 9000 NSC 21/16 Q1012 NOSIG
ZGSZ,2025-04-14 14:00,ZGSZ 141400Z 17003MPS 9000 NSC 21/18 Q1012 NOSIG
ZGSZ,2025-04-14 15:00,ZGSZ 141500Z 16003MPS 9000 NSC 21/16 Q1012 NOSIG
ZGSZ,2025-04-14 16:00,ZGSZ 141600Z 18001MPS 8000 NSC 21/18 Q1012 NOSIG
ZGSZ,2025-04-14 17:00,ZGSZ 141700Z 08002MPS 040V140 8000 NSC 22/13 Q1012 NOSIG
ZGSZ,2025-04-14 18:00,ZGSZ 141800Z 20001MPS 8000 NSC 20/16 Q1012 NOSIG
ZGSZ,2025-04-14 19:00,ZGSZ 141900Z 00000MPS 8000 NSC 20/16 Q1012 NOSIG
ZGSZ,2025-04-14 20:00,ZGSZ 142000Z VRB01MPS 7000 NSC 20/17 Q1012 NOSIG
ZGSZ,2025-04-14 21:00,ZGSZ 142100Z 33002MPS 300V360 7000 NSC 20/17 Q1012 NOSIG
ZGSZ,2025-04-14 22:00,ZGSZ 142200Z VRB02MPS 7000 NSC 22/14 Q1012 NOSIG
ZGSZ,2025-04-14 23:00,ZGSZ 142300Z 29001MPS 7000 NSC 20/18 Q1013 NOSIG
ZGSZ,2025-04-15 00:00,ZGSZ 150000Z VRB01MPS 7000 NSC 23/17 Q1014 NOSIG
ZGSZ,2025-04-15 01:00,ZGSZ 150100Z 27002MPS 6000 NSC 23/18 Q1014 NOSIG
ZGSZ,2025-04-15 02:00,ZGSZ 150200Z 28003MPS 6000 NSC 25/17 Q1014 NOSIG
ZGSZ,2025-04-15 03:00,ZGSZ 150300Z 31003MPS 270V040 6000 NSC 29/14 Q1014 NOSIG
ZGSZ,2025-04-15 04:00,ZGSZ 150400Z 03006MPS 360V070 CAVOK 32/06 Q1013 BECMG AT0530 30005MPS
ZGSZ,2025-04-15 05:00,ZGSZ 150500Z 05005MPS 020V090 CAVOK 33/06 Q1012 BECMG AT0630 27005MPS
ZGSZ,2025-04-15 06:00,ZGSZ 150600Z 02006MPS CAVOK 34/04 Q1011 BECMG AT0730 27005MPS
ZGSZ,2025-04-15 07:00,ZGSZ 150700Z 05004MPS 340V100 CAVOK 33/00 Q1010 BECMG AT0830 27005MPS
ZGSZ,2025-04-15 08:00,ZGSZ 150800Z 05004MPS 010V080 CAVOK 33/02 Q1010 BECMG AT0840 27005MPS
ZGSZ,2025-04-15 09:00,ZGSZ 150900Z 17007MPS CAVOK 28/15 Q1010 NOSIG
ZGSZ,2025-04-15 10:00,ZGSZ 151000Z 17006MPS CAVOK 27/15 Q1010 NOSIG
ZGSZ,2025-04-15 11:00,ZGSZ 151100Z 17005MPS CAVOK 25/16 Q1011 NOSIG
ZGSZ,2025-04-15 12:00,ZGSZ 151200Z 16005MPS CAVOK 26/10 Q1012 NOSIG
ZGSZ,2025-04-15 13:00,ZGSZ 151300Z 11005MPS CAVOK 27/08 Q1012 NOSIG
ZGSZ,2025-04-15 14:00,ZGSZ 151400Z 12005MPS CAVOK 26/09 Q1013 NOSIG
ZGSZ,2025-04-15 15:00,ZGSZ 151500Z 12004MPS CAVOK 25/09 Q1013 NOSIG
ZGSZ,2025-04-15 16:00,ZGSZ 151600Z 12004MPS CAVOK 24/10 Q1012 NOSIG
ZGSZ,2025-04-15 17:00,ZGSZ 151700Z 11003MPS CAVOK 23/11 Q1012 NOSIG
ZGSZ,2025-04-15 18:00,ZGSZ 151800Z 11003MPS CAVOK 23/12 Q1012 NOSIG
ZGSZ,2025-04-15 19:00,ZGSZ 151900Z 09002MPS CAVOK 22/12 Q1012 NOSIG
ZGSZ,2025-04-15 20:00,ZGSZ 152000Z 06001MPS CAVOK 22/13 Q1012 NOSIG
ZGSZ,2025-04-15 21:00,ZGSZ 152100Z 00000MPS CAVOK 20/14 Q1012 NOSIG
ZGSZ,2025-04-15 22:00,ZGSZ 152200Z 01002MPS 330V030 CAVOK 22/13 Q1012 NOSIG
ZGSZ,2025-04-15 23:00,ZGSZ 152300Z VRB01MPS CAVOK 22/14 Q1012 NOSIG
ZGSZ,2025-04-16 00:00,ZGSZ 160000Z 10003MPS 070V140 CAVOK 24/16 Q1013 NOSIG
ZGSZ,2025-04-16 01:00,ZGSZ 160100Z 10003MPS 080V150 CAVOK 25/16 Q1013 NOSIG
ZGSZ,2025-04-16 02:00,ZGSZ 160200Z 22003MPS CAVOK 25/18 Q1014 NOSIG
ZGSZ,2025-04-16 03:00,ZGSZ 160300Z 23004MPS CAVOK 25/17 Q1013 NOSIG
ZGSZ,2025-04-16 04:00,ZGSZ 160400Z 22004MPS CAVOK 25/19 Q1013 NOSIG
ZGSZ,2025-04-16 05:00,ZGSZ 160500Z 22005MPS CAVOK 26/20 Q1012 NOSIG
ZGSZ,2025-04-16 06:00,ZGSZ 160600Z 21006MPS CAVOK 26/21 Q1011 NOSIG
ZGSZ,2025-04-16 07:00,ZGSZ 160700Z 21006MPS CAVOK 26/20 Q1010 NOSIG
ZGSZ,2025-04-16 08:00,ZGSZ 160800Z 20007MPS CAVOK 25/20 Q1010 NOSIG
ZGSZ,2025-04-16 09:00,ZGSZ 160900Z 20007MPS CAVOK 25/21 Q1010 NOSIG
ZGSZ,2025-04-16 10:00,ZGSZ 161000Z 20006MPS CAVOK 24/21 Q1010 NOSIG
ZGSZ,2025-04-16 11:00,ZGSZ 161100Z 19005MPS CAVOK 24/21 Q1010 NOSIG
ZGSZ,2025-04-16 12:00,ZGSZ 161200Z 17005MPS CAVOK 23/20 Q1010 BECMG AT1340 10005MPS
ZGSZ,2025-04-16 13:00,ZGSZ 161300Z 16005MPS CAVOK 24/19 Q1011 BECMG AT1340 10005MPS
ZGSZ,2025-04-16 14:00,ZGSZ 161400Z 18004MPS CAVOK 23/19 Q1011 NOSIG
ZGSZ,2025-04-16 15:00,ZGSZ 161500Z 12003MPS CAVOK 23/18 Q1011 NOSIG
ZGSZ,2025-04-16 16:00,ZGSZ 161600Z 11003MPS CAVOK 23/19 Q1011 NOSIG
ZGSZ,2025-04-16 17:00,ZGSZ 161700Z 16002MPS CAVOK 22/19 Q1011 NOSIG
ZGSZ,2025-04-16 18:00,ZGSZ 161800Z 16003MPS CAVOK 22/19 Q1010 NOSIG
ZGSZ,2025-04-16 19:00,ZGSZ 161900Z 16003MPS 9999 FEW026 22/19 Q1010 NOSIG
ZGSZ,2025-04-16 20:00,ZGSZ 162000Z 16002MPS 9999 FEW040 22/19 Q1010 NOSIG
ZGSZ,2025-04-16 21:00,ZGSZ 162100Z 08003MPS 050V120 9999 SCT026 22/19 Q1010 NOSIG
ZGSZ,2025-04-16 22:00,ZGSZ 162200Z 08002MPS 060V130 9999 SCT033 22/19 Q1011 NOSIG
ZGSZ,2025-04-16 23:00,ZGSZ 162300Z 08002MPS 060V120 9999 FEW033 23/19 Q1011 NOSIG
ZGSZ,2025-04-17 00:00,ZGSZ 170000Z 12004MPS 9999 FEW033 24/19 Q1012 NOSIG
ZGSZ,2025-04-17 01:00,ZGSZ 170100Z 13004MPS 100V180 9999 FEW033 25/19 Q1011 NOSIG
ZGSZ,2025-04-17 02:00,ZGSZ 170200Z 18004MPS 9999 FEW033 25/19 Q1011 NOSIG
ZGSZ,2025-04-17 03:00,ZGSZ 170300Z 19004MPS 9999 SCT023 26/20 Q1011 NOSIG
ZGSZ,2025-04-17 04:00,ZGSZ 170400Z 19005MPS CAVOK 26/20 Q1011 NOSIG
ZGSZ,2025-04-17 05:00,ZGSZ 170500Z 19004MPS CAVOK 26/21 Q1009 NOSIG
ZGSZ,2025-04-17 06:00,ZGSZ 170600Z 22005MPS CAVOK 26/21 Q1009 NOSIG
ZGSZ,2025-04-17 07:00,ZGSZ 170700Z 18005MPS 9999 FEW026 26/21 Q1008 NOSIG
ZGSZ,2025-04-17 08:00,ZGSZ 170800Z 18006MPS CAVOK 25/21 Q1008 NOSIG
ZGSZ,2025-04-17 09:00,ZGSZ 170900Z 18006MPS CAVOK 25/20 Q1007 NOSIG
ZGSZ,2025-04-17 10:00,ZGSZ 171000Z 17006MPS CAVOK 25/21 Q1008 NOSIG
ZGSZ,2025-04-17 11:00,ZGSZ 171100Z 16006MPS CAVOK 24/21 Q1007 NOSIG
ZGSZ,2025-04-17 12:00,ZGSZ 171200Z 16006MPS CAVOK 24/21 Q1007 NOSIG
ZGSZ,2025-04-17 13:00,ZGSZ 171300Z 17006MPS CAVOK 24/21 Q1008 NOSIG
ZGSZ,2025-04-17 14:00,ZGSZ 171400Z 17004MPS CAVOK 24/21 Q1009 NOSIG
ZGSZ,2025-04-17 15:00,ZGSZ 171500Z 16004MPS 9999 SCT033 24/21 Q1009 NOSIG
ZGSZ,2025-04-17 16:00,ZGSZ 171600Z 17003MPS 9999 SCT033 24/21 Q1009 NOSIG
ZGSZ,2025-04-17 17:00,ZGSZ 171700Z 16003MPS 9999 BKN033 24/21 Q1009 NOSIG
ZGSZ,2025-04-17 18:00,ZGSZ 171800Z 22001MPS 9999 BKN020 24/21 Q1008 NOSIG
ZGSZ,2025-04-17 19:00,ZGSZ 171900Z 18001MPS 9999 BKN023 24/21 Q1008 NOSIG
ZGSZ,2025-04-17 20:00,ZGSZ 172000Z 08002MPS 050V110 9999 BKN023 24/21 Q1008 NOSIG
ZGSZ,2025-04-17 21:00,ZGSZ 172100Z 12003MPS 9999 BKN023 24/21 Q1008 NOSIG
ZGSZ,2025-04-17 22:00,ZGSZ 172200Z 11004MPS 9999 SCT023 SCT040 24/22 Q1009 NOSIG
ZGSZ,2025-04-17 23:00,ZGSZ 172300Z VRB02MPS 9999 SCT016 SCT030 25/22 Q1009 NOSIG
ZGSZ,2025-04-18 00:00,ZGSZ 180000Z 12003MPS 9999 SCT013 BKN023 24/22 Q1010 NOSIG
ZGSZ,2025-04-18 01:00,ZGSZ 180100Z 14004MPS 9999 SCT013 BKN023 26/23 Q1010 NOSIG
ZGSZ,2025-04-18 02:00,ZGSZ 180200Z 16005MPS 9999 SCT013 BKN026 26/23 Q1011 NOSIG
ZGSZ,2025-04-18 03:00,ZGSZ 180300Z 19003MPS 9999 SCT015 BKN026 26/23 Q1011 NOSIG
ZGSZ,2025-04-18 04:00,ZGSZ 180400Z 17004MPS 9999 SCT015 BKN020 26/23 Q1010 NOSIG
ZGSZ,2025-04-18 05:00,ZGSZ 180500Z 16006MPS 9999 OVC026 28/24 Q1009 NOSIG
ZGSZ,2025-04-18 06:00,ZGSZ 180600Z 16006MPS 9999 OVC020 26/24 Q1008 NOSIG
ZGSZ,2025-04-18 07:00,ZGSZ 180700Z 18004MPS 8000 SCT015 OVC020 26/24 Q1008 NOSIG
ZGSZ,2025-04-18 08:00,ZGSZ 180800Z 16006MPS 8000 SCT015 OVC020 26/24 Q1007 NOSIG
ZGSZ,2025-04-18 09:00,ZGSZ 180900Z 16006MPS 9999 OVC023 26/24 Q1007 NOSIG
ZGSZ,2025-04-18 10:00,ZGSZ 181000Z 16006MPS 9999 OVC023 26/24 Q1007 NOSIG
ZGSZ,2025-04-18 11:00,ZGSZ 181100Z 16004MPS 9999 OVC023 26/24 Q1007 NOSIG
ZGSZ,2025-04-18 12:00,ZGSZ 181200Z 15006MPS 9000 -RA SCT013 OVC023 26/24 Q1008 NOSIG
ZGSZ,2025-04-18 13:00,ZGSZ 181300Z 16005MPS 9999 SCT013 OVC020 26/24 Q1008 BECMG AT1420 BKN012
ZGSZ,2025-04-18 14:00,ZGSZ 181400Z 19005MPS 6000 -RA SCT013 OVC020 25/24 Q1009 BECMG AT1420 BKN012
ZGSZ,2025-04-18 15:00,ZGSZ 181500Z 18004MPS 7000 -RA BKN011 OVC020 25/24 Q1010 BECMG AT1620 SCT012
ZGSZ,2025-04-18 16:00,ZGSZ 181600Z 17004MPS 8000 -RA BKN011 OVC020 24/24 Q1009 BECMG AT1620 SCT012
ZGSZ,2025-04-18 17:00,ZGSZ 181700Z 18003MPS 8000 -RA SCT012 OVC020 24/24 Q1009 BECMG AT1720 BKN012
ZGSZ,2025-04-18 18:00,ZGSZ 181800Z 18004MPS 8000 -RA BKN012 OVC020 24/24 Q1008 BECMG AT1930 SCT012
ZGSZ,2025-04-18 19:00,ZGSZ 181900Z 17004MPS 9999 BKN012 OVC020 25/24 Q1008 BECMG AT1930 SCT012
ZGSZ,2025-04-18 20:00,ZGSZ 182000Z 17004MPS 9999 SCT012 OVC020 25/24 Q1008 NOSIG
ZGSZ,2025-04-18 21:00,ZGSZ 182100Z 17005MPS 9999 SCT012 OVC020 25/24 Q1008 NOSIG
ZGSZ,2025-04-18 22:00,ZGSZ 182200Z 17006MPS 7000 SCT005 OVC020 25/24 Q1008 BECMG AT2240 BKN006 OVC020
ZGSZ,2025-04-18 23:00,ZGSZ 182300Z 16006MPS 7000 BKN006 OVC020 25/24 Q1009 BECMG AT2330 BKN012 OVC020
ZGSZ,2025-04-19 00:00,ZGSZ 190000Z 16006MPS 7000 BKN010 OVC020 25/24 Q1010 BECMG AT0100 SCT015 OVC020
ZGSZ,2025-04-19 01:00,ZGSZ 190100Z 17005MPS 6000 -SHRA BKN004 OVC020 25/24 Q1010 NOSIG
ZGSZ,2025-04-19 02:00,ZGSZ 190200Z 16006MPS 9999 BKN014 OVC020 25/24 Q1010 BECMG AT0310 BKN020
ZGSZ,2025-04-19 03:00,ZGSZ 190300Z 16006MPS 9999 BKN014 OVC030 27/24 Q1010 BECMG AT0310 BKN030
ZGSZ,2025-04-19 04:00,ZGSZ 190400Z 16006MPS 9999 OVC030 26/24 Q1010 NOSIG
ZGSZ,2025-04-19 05:00,ZGSZ 190500Z 17007MPS 9999 BKN036 27/24 Q1010 NOSIG
ZGSZ,2025-04-19 06:00,ZGSZ 190600Z 16007MPS 9999 BKN030 26/24 Q1008 NOSIG
ZGSZ,2025-04-19 07:00,ZGSZ 190700Z 16007MPS 9999 FEW020 OVC030 27/24 Q1008 NOSIG
ZGSZ,2025-04-19 08:00,ZGSZ 190800Z 16006MPS 9999 SCT020 OVC030 27/24 Q1007 NOSIG
ZGSZ,2025-04-19 09:00,ZGSZ 190900Z 16007MPS 9999 BKN040 26/24 Q1007 NOSIG
ZGSZ,2025-04-19 10:00,ZGSZ 191000Z 16007MPS 9999 BKN040 26/24 Q1008 NOSIG
ZGSZ,2025-04-19 11:00,ZGSZ 191100Z 17007MPS CAVOK 26/24 Q1008 NOSIG
ZGSZ,2025-04-19 12:00,ZGSZ 191200Z 16005MPS CAVOK 26/24 Q1008 NOSIG
ZGSZ,2025-04-19 13:00,ZGSZ 191300Z 16005MPS 9999 BKN030 26/24 Q1009 NOSIG
ZGSZ,2025-04-19 14:00,ZGSZ 191400Z 16006MPS 9999 SCT030 26/24 Q1009 NOSIG
ZGSZ,2025-04-19 15:00,ZGSZ 191500Z 16005MPS 9999 BKN030 26/24 Q1010 NOSIG
ZGSZ,2025-04-19 16:00,ZGSZ 191600Z 17004MPS 9999 BKN023 26/24 Q1009 NOSIG
ZGSZ,2025-04-19 17:00,ZGSZ 191700Z 17004MPS 9999 BKN018 25/24 Q1009 BECMG AT1830 BKN014
ZGSZ,2025-04-19 18:00,ZGSZ 191800Z 17005MPS 8000 SCT010 OVC020 25/24 Q1009 NOSIG
ZGSZ,2025-04-19 19:00,ZGSZ 191900Z 17005MPS 9999 BKN014 OVC030 25/24 Q1008 BECMG AT1930 SCT015 BKN030
ZGSZ,2025-04-19 20:00,ZGSZ 192000Z 16004MPS 9999 BKN020 25/24 Q1008 NOSIG
ZGSZ,2025-04-19 21:00,ZGSZ 192100Z 16004MPS 9999 BKN030 25/23 Q1009 NOSIG
ZGSZ,2025-04-19 22:00,ZGSZ 192200Z 17005MPS 9999 BKN030 25/24 Q1009 NOSIG
ZGSZ,2025-04-19 23:00,ZGSZ 192300Z 17004MPS 8000 FEW010 BKN030 25/24 Q1010 NOSIG
ZGSZ,2025-04-20 00:00,ZGSZ 200000Z 17004MPS 8000 FEW015 BKN030 25/24 Q1011 NOSIG
ZGSZ,2025-04-20 01:00,ZGSZ 200100Z 17006MPS 9999 FEW033 26/24 Q1012 NOSIG
ZGSZ,2025-04-20 02:00,ZGSZ 200200Z 17005MPS 9999 FEW033 27/24 Q1012 NOSIG
ZGSZ,2025-04-20 03:00,ZGSZ 200300Z 17007MPS 9999 FEW033 28/24 Q1012 NOSIG
ZGSZ,2025-04-20 04:00,ZGSZ 200400Z 16007MPS 9999 FEW026 28/23 Q1012 NOSIG
ZGSZ,2025-04-20 05:00,ZGSZ 200500Z 17008MPS 9999 FEW026 29/23 Q1011 NOSIG
ZGSZ,2025-04-20 06:00,ZGSZ 200600Z 16008MPS 9999 FEW026 29/23 Q1010 NOSIG
ZGSZ,2025-04-20 07:00,ZGSZ 200700Z 17008MPS CAVOK 28/23 Q1010 NOSIG
ZGSZ,2025-04-20 08:00,ZGSZ 200800Z 16007MPS CAVOK 28/24 Q1009 NOSIG
ZGSZ,2025-04-20 09:00,ZGSZ 200900Z 16008MPS CAVOK 28/24 Q1009 NOSIG
ZGSZ,2025-04-20 10:00,ZGSZ 201000Z 16007MPS CAVOK 27/23 Q1010 NOSIG
ZGSZ,2025-04-20 11:00,ZGSZ 201100Z 16006MPS CAVOK 26/23 Q1010 NOSIG
ZGSZ,2025-04-20 12:00,ZGSZ 201200Z 15006MPS 9999 FEW020 26/23 Q1010 NOSIG
ZGSZ,2025-04-20 13:00,ZGSZ 201300Z 17005MPS 9999 FEW026 26/23 Q1011 NOSIG
ZGSZ,2025-04-20 14:00,ZGSZ 201400Z 16004MPS 9999 FEW016 26/23 Q1012 NOSIG
ZGSZ,2025-04-20 15:00,ZGSZ 201500Z 16004MPS 9999 FEW016 25/23 Q1012 NOSIG
ZGSZ,2025-04-20 16:00,ZGSZ 201600Z 18004MPS 9999 FEW024 25/23 Q1012 NOSIG
ZGSZ,2025-04-20 17:00,ZGSZ 201700Z 17005MPS 9999 FEW024 25/23 Q1012 NOSIG
ZGSZ,2025-04-20 18:00,ZGSZ 201800Z 17003MPS 9999 SCT030 25/23 Q1011 NOSIG
ZGSZ,2025-04-20 19:00,ZGSZ 201900Z 18003MPS 9999 SCT030 25/23 Q1011 NOSIG
ZGSZ,2025-04-20 20:00,ZGSZ 202000Z 17004MPS 9999 FEW030 25/23 Q1011 NOSIG
ZGSZ,2025-04-20 21:00,ZGSZ 202100Z 17004MPS 9999 BKN030 25/23 Q1011 NOSIG
ZGSZ,2025-04-20 22:00,ZGSZ 202200Z 16004MPS 9999 BKN030 25/23 Q1011 NOSIG
ZGSZ,2025-04-20 23:00,ZGSZ 202300Z 17004MPS 9999 BKN030 26/23 Q1012 NOSIG
ZGSZ,2025-04-21 00:00,ZGSZ 210000Z 17004MPS 9999 BKN030 26/23 Q1013 NOSIG
ZGSZ,2025-04-21 01:00,ZGSZ 210100Z 17006MPS 9999 BKN033 27/23 Q1013 NOSIG
ZGSZ,2025-04-21 02:00,ZGSZ 210200Z 17005MPS 9999 BKN033 27/23 Q1013 NOSIG
ZGSZ,2025-04-21 03:00,ZGSZ 210300Z 17007MPS 9999 BKN036 29/24 Q1013 NOSIG
ZGSZ,2025-04-21 04:00,ZGSZ 210400Z 16008MPS 9999 FEW020 BKN036 29/24 Q1012 NOSIG
ZGSZ,2025-04-21 05:00,ZGSZ 210500Z 16008MPS 9999 FEW020 SCT036 29/24 Q1012 NOSIG
ZGSZ,2025-04-21 06:00,ZGSZ 210600Z 16009MPS 9999 FEW026 29/24 Q1011 NOSIG
ZGSZ,2025-04-21 07:00,ZGSZ 210700Z 16009MPS 9999 FEW020 29/24 Q1010 NOSIG
ZGSZ,2025-04-21 08:00,ZGSZ 210800Z 16009MPS 9999 FEW020 28/24 Q1009 NOSIG
ZGSZ,2025-04-21 09:00,ZGSZ 210900Z 16008MPS 9999 FEW020 28/24 Q1009 NOSIG
ZGSZ,2025-04-21 10:00,ZGSZ 211000Z 16009MPS 9999 FEW020 27/24 Q1009 NOSIG
ZGSZ,2025-04-21 11:00,ZGSZ 211100Z 16007MPS CAVOK 26/24 Q1009 NOSIG
ZGSZ,2025-04-21 12:00,ZGSZ 211200Z 16006MPS CAVOK 26/24 Q1010 NOSIG
ZGSZ,2025-04-21 13:00,ZGSZ 211300Z 17007MPS CAVOK 26/24 Q1011 NOSIG
ZGSZ,2025-04-21 14:00,ZGSZ 211400Z 16006MPS 9999 FEW025 26/24 Q1011 NOSIG
ZGSZ,2025-04-21 15:00,ZGSZ 211500Z 17007MPS CAVOK 26/24 Q1011 NOSIG
ZGSZ,2025-04-21 16:00,ZGSZ 211600Z 17006MPS CAVOK 26/24 Q1011 NOSIG
ZGSZ,2025-04-21 17:00,ZGSZ 211700Z 17006MPS 9999 BKN026 26/24 Q1011 NOSIG
ZGSZ,2025-04-21 18:00,ZGSZ 211800Z 16006MPS 9999 BKN030 26/24 Q1010 NOSIG
ZGSZ,2025-04-21 19:00,ZGSZ 211900Z 16006MPS 9999 BKN030 25/24 Q1009 NOSIG
ZGSZ,2025-04-21 20:00,ZGSZ 212000Z 16005MPS 9999 BKN030 26/24 Q1009 NOSIG
ZGSZ,2025-04-21 21:00,ZGSZ 212100Z 16005MPS 9999 SCT030 25/23 Q1009 NOSIG
ZGSZ,2025-04-21 22:00,ZGSZ 212200Z 16005MPS 9999 SCT030 25/23 Q1010 NOSIG
ZGSZ,2025-04-21 23:00,ZGSZ 212300Z 16005MPS 9999 SCT030 26/24 Q1011 NOSIG
ZGSZ,2025-04-22 00:00,ZGSZ 220000Z 16004MPS 9999 BKN020 26/24 Q1012 NOSIG
ZGSZ,2025-04-22 01:00,ZGSZ 220100Z 16006MPS 9999 BKN040 27/24 Q1012 NOSIG
ZGSZ,2025-04-22 02:00,ZGSZ 220200Z 16007MPS 9999 FEW040 28/24 Q1012 NOSIG
ZGSZ,2025-04-22 03:00,ZGSZ 220300Z 16008MPS 9999 FEW040 29/24 Q1012 NOSIG
ZGSZ,2025-04-22 04:00,ZGSZ 220400Z 16009MPS CAVOK 29/24 Q1011 NOSIG
ZGSZ,2025-04-22 05:00,ZGSZ 220500Z 16009MPS 9999 FEW040 29/24 Q1010 NOSIG
ZGSZ,2025-04-22 06:00,ZGSZ 220600Z 16010MPS 9999 FEW040 29/25 Q1009 NOSIG
ZGSZ,2025-04-22 07:00,ZGSZ 220700Z 17009MPS 9999 FEW040 29/24 Q1008 NOSIG
ZGSZ,2025-04-22 08:00,ZGSZ 220800Z 17009MPS 9999 FEW033 29/24 Q1007 NOSIG
ZGSZ,2025-04-22 09:00,ZGSZ 220900Z 16009MPS 9999 FEW033 28/25 Q1007 NOSIG
ZGSZ,2025-04-22 10:00,ZGSZ 221000Z 16008MPS 9999 FEW033 27/24 Q1008 NOSIG
ZGSZ,2025-04-22 11:00,ZGSZ 221100Z 17008MPS 9999 FEW033 27/24 Q1008 NOSIG
ZGSZ,2025-04-22 12:00,ZGSZ 221200Z 15006MPS 9999 SCT027 27/24 Q1008 NOSIG
ZGSZ,2025-04-22 13:00,ZGSZ 221300Z 16007MPS 9999 BKN030 27/25 Q1009 NOSIG
ZGSZ,2025-04-22 14:00,ZGSZ 221400Z 16007MPS 9999 BKN030 27/25 Q1010 NOSIG
ZGSZ,2025-04-22 15:00,ZGSZ 221500Z 16006MPS 9999 BKN030 26/24 Q1010 NOSIG
ZGSZ,2025-04-22 16:00,ZGSZ 221600Z 16006MPS 9999 BKN030 26/24 Q1010 NOSIG
ZGSZ,2025-04-22 17:00,ZGSZ 221700Z 17006MPS 9999 BKN030 26/24 Q1009 NOSIG
ZGSZ,2025-04-22 18:00,ZGSZ 221800Z 17005MPS 9999 BKN030 26/24 Q1009 NOSIG
ZGSZ,2025-04-22 19:00,ZGSZ 221900Z 17005MPS 9999 BKN030 26/24 Q1008 NOSIG
ZGSZ,2025-04-22 20:00,ZGSZ 222000Z 16005MPS 9999 BKN030 26/24 Q1008 NOSIG
ZGSZ,2025-04-22 21:00,ZGSZ 222100Z 16004MPS 9999 SCT030 26/24 Q1008 NOSIG
ZGSZ,2025-04-22 22:00,ZGSZ 222200Z 16004MPS 9999 SCT026 26/24 Q1009 NOSIG
ZGSZ,2025-04-22 23:00,ZGSZ 222300Z 17005MPS 9999 SCT030 26/24 Q1010 NOSIG
ZGSZ,2025-04-23 00:00,ZGSZ 230000Z 17005MPS 9999 BKN033 27/24 Q1010 NOSIG
ZGSZ,2025-04-23 01:00,ZGSZ 230100Z 17006MPS 9999 BKN033 28/25 Q1010 NOSIG
ZGSZ,2025-04-23 02:00,ZGSZ 230200Z 19005MPS 9999 BKN033 28/25 Q1011 NOSIG
ZGSZ,2025-04-23 03:00,ZGSZ 230300Z 18006MPS 9999 BKN033 29/24 Q1010 NOSIG
ZGSZ,2025-04-23 04:00,ZGSZ 230400Z 18006MPS 9999 BKN033 29/24 Q1010 NOSIG
ZGSZ,2025-04-23 05:00,ZGSZ 230500Z 18007MPS 9999 BKN033 29/24 Q1009 NOSIG
ZGSZ,2025-04-23 06:00,ZGSZ 230600Z 18007MPS 9999 BKN033 29/24 Q1008 NOSIG
ZGSZ,2025-04-23 07:00,ZGSZ 230700Z 17007MPS CAVOK 30/25 Q1007 NOSIG
ZGSZ,2025-04-23 08:00,ZGSZ 230800Z 17008MPS CAVOK 29/24 Q1006 NOSIG
ZGSZ,2025-04-23 09:00,ZGSZ 230900Z 17009MPS CAVOK 28/25 Q1006 NOSIG
ZGSZ,2025-04-23 10:00,ZGSZ 231000Z 17008MPS CAVOK 27/25 Q1006 NOSIG
ZGSZ,2025-04-23 11:00,ZGSZ 231100Z 16007MPS 9999 FEW033 27/25 Q1007 NOSIG
ZGSZ,2025-04-23 12:00,ZGSZ 231200Z 17007MPS CAVOK 27/25 Q1008 NOSIG
ZGSZ,2025-04-23 13:00,ZGSZ 231300Z 17006MPS CAVOK 27/25 Q1009 NOSIG
ZGSZ,2025-04-23 14:00,ZGSZ 231400Z 16005MPS 9999 FEW050 27/25 Q1009 NOSIG
ZGSZ,2025-04-23 15:00,ZGSZ 231500Z 18006MPS 9999 SCT050 27/25 Q1009 NOSIG
ZGSZ,2025-04-23 16:00,ZGSZ 231600Z 17005MPS 9999 SCT040 27/25 Q1009 NOSIG
ZGSZ,2025-04-23 17:00,ZGSZ 231700Z 16005MPS CAVOK 26/24 Q1009 NOSIG
ZGSZ,2025-04-23 18:00,ZGSZ 231800Z 16004MPS 9999 BKN050 26/24 Q1008 NOSIG
ZGSZ,2025-04-23 19:00,ZGSZ 231900Z 16005MPS CAVOK 26/24 Q1008 NOSIG
ZGSZ,2025-04-23 20:00,ZGSZ 232000Z 16005MPS CAVOK 26/24 Q1008 NOSIG
ZGSZ,2025-04-23 21:00,ZGSZ 232100Z 17005MPS 9999 FEW033 26/24 Q1008 NOSIG
ZGSZ,2025-04-23 22:00,ZGSZ 232200Z 16006MPS 9999 FEW033 26/24 Q1008 NOSIG
ZGSZ,2025-04-23 23:00,ZGSZ 232300Z 17005MPS 9999 FEW033 26/24 Q1009 NOSIG
ZGSZ,2025-04-24 00:00,ZGSZ 240000Z 17007MPS 9999 FEW030 27/24 Q1009 NOSIG
ZGSZ,2025-04-24 01:00,ZGSZ 240100Z 17007MPS 9999 FEW040 28/24 Q1010 NOSIG
ZGSZ,2025-04-24 02:00,ZGSZ 240200Z 17007MPS 9999 FEW040 29/24 Q1010 NOSIG
ZGSZ,2025-04-24 03:00,ZGSZ 240300Z 16008MPS 9999 FEW040 29/24 Q1010 NOSIG
ZGSZ,2025-04-24 04:00,ZGSZ 240400Z 17008MPS 9999 BKN040 29/24 Q1009 NOSIG
ZGSZ,2025-04-24 05:00,ZGSZ 240500Z 16009MPS 9999 BKN040 29/25 Q1008 NOSIG
ZGSZ,2025-04-24 06:00,ZGSZ 240600Z 16008MPS CAVOK 29/24 Q1007 NOSIG
ZGSZ,2025-04-24 07:00,ZGSZ 240700Z 17009MPS 9999 FEW030 29/24 Q1006 NOSIG
ZGSZ,2025-04-24 08:00,ZGSZ 240800Z 16008MPS 9999 FEW030 29/24 Q1006 NOSIG
ZGSZ,2025-04-24 09:00,ZGSZ 240900Z 16009MPS 9999 FEW030 28/24 Q1006 BECMG FM1030 30010G18MPS 1200 +TSRA SCT012 FEW025CB BKN030
ZGSZ,2025-04-24 10:00,ZGSZ 241000Z 16008MPS 9999 FEW030 27/25 Q1007 BECMG AT1100 30010G20MPS 1200 +TSRA SCT010 FEW025CB BKN030
ZGSZ,2025-04-24 11:00,ZGSZ 241100Z 18007MPS 8000 TSRA FEW015 FEW030CB BKN050 27/24 Q1008 BECMG AT1120 30010G20MPS 1200 +TSRA
ZGSZ,2025-04-24 12:00,ZGSZ 241200Z 28005MPS 8000 -TSRA SCT010 FEW030CB BKN050 24/22 Q1009 RESHRA BECMG AT1230 19005MPS NSW
ZGSZ,2025-04-24 13:00,ZGSZ 241300Z 33002MPS 300V360 9999 -SHRA FEW010 FEW030CB 24/22 Q1010 RETSRA NOSIG
ZGSZ,2025-04-24 14:00,ZGSZ 241400Z 10001MPS 9999 BKN043 24/22 Q1010 NOSIG
ZGSZ,2025-04-24 15:00,ZGSZ 241500Z VRB01MPS 7000 SHRA FEW016 FEW026CB BKN043 25/22 Q1011 BECMG AT1530 -SHRA
ZGSZ,2025-04-24 16:00,ZGSZ 241600Z VRB01MPS 9999 FEW020 BKN043 24/23 Q1011 NOSIG
ZGSZ,2025-04-24 17:00,ZGSZ 241700Z 07001MPS 9999 -SHRA FEW020 BKN043 24/23 Q1010 BECMG AT1815 2000 +TSRA SCT015 FEW025CB BKN030
ZGSZ,2025-04-24 18:00,ZGSZ 241800Z 06003MPS 8000 TSRA FEW015 FEW030CB BKN043 25/23 Q1010 BECMG AT1950 SHRA
ZGSZ,2025-04-24 19:00,ZGSZ 241900Z 12002MPS 080V160 7000 TSRA SCT010 FEW030CB BKN043 24/23 Q1009 BECMG AT2030 NSW BKN030
ZGSZ,2025-04-24 20:00,ZGSZ 242000Z VRB02MPS 8000 -TSRA FEW010 FEW030CB BKN043 24/22 Q1009 RESHRA BECMG AT2030 NSW BKN030
ZGSZ,2025-04-24 21:00,ZGSZ 242100Z VRB01MPS 9999 SCT010 BKN033 24/22 Q1009 BECMG AT2250 SHRA FEW025CB BKN030
ZGSZ,2025-04-24 22:00,ZGSZ 242200Z 13002MPS 9999 SCT020 BKN050 24/23 Q1010 BECMG AT2355 TSRA
ZGSZ,2025-04-24 23:00,ZGSZ 242300Z 15001MPS 9999 FEW013 BKN023 25/22 Q1011 BECMG AT0010 SHRA
ZGSZ,2025-04-25 00:00,ZGSZ 250000Z VRB01MPS 9999 FEW016 FEW026TCU BKN040 26/23 Q1011 BECMG AT0010 SHRA
ZGSZ,2025-04-25 01:00,ZGSZ 250100Z 16004MPS 8000 +SHRA FEW016 FEW026CB BKN040 25/23 Q1012 BECMG AT0130 -SHRA
ZGSZ,2025-04-25 02:00,ZGSZ 250200Z 21003MPS 8000 -SHRA FEW016 FEW026CB BKN040 25/23 Q1013 NOSIG
ZGSZ,2025-04-25 03:00,ZGSZ 250300Z 23002MPS 200V260 8000 -SHRA FEW016 FEW026CB BKN040 25/23 Q1013 BECMG AT0420 32005G10MPS TSRA
ZGSZ,2025-04-25 04:00,ZGSZ 250400Z 26003MPS 220V280 8000 -SHRA FEW016 FEW026CB BKN040 25/23 Q1013 BECMG AT0500 TSRA
ZGSZ,2025-04-25 05:00,ZGSZ 250500Z 26002MPS 8000 SHRA FEW013 FEW026CB BKN040 25/23 Q1013 NOSIG
ZGSZ,2025-04-25 06:00,ZGSZ 250600Z VRB01MPS 9999 FEW013 SCT033 26/23 Q1011 NOSIG
ZGSZ,2025-04-25 07:00,ZGSZ 250700Z 24002MPS 9999 FEW013 SCT033 26/23 Q1011 NOSIG
ZGSZ,2025-04-25 08:00,ZGSZ 250800Z 25002MPS 220V280 9999 FEW013 SCT033 26/23 Q1011 NOSIG
ZGSZ,2025-04-25 09:00,ZGSZ 250900Z 32004MPS 9999 FEW013 SCT033 26/23 Q1010 NOSIG
ZGSZ,2025-04-25 10:00,ZGSZ 251000Z 04002MPS 8000 -SHRA FEW010 SCT033 26/23 Q1009 NOSIG
ZGSZ,2025-04-25 11:00,ZGSZ 251100Z 02004MPS 8000 -SHRA FEW010 SCT033 25/22 Q1010 NOSIG
ZGSZ,2025-04-25 12:00,ZGSZ 251200Z 01004MPS 9999 FEW010 BKN030 25/22 Q1011 NOSIG
ZGSZ,2025-04-25 13:00,ZGSZ 251300Z 36004MPS 9999 BKN030 24/22 Q1012 NOSIG
ZGSZ,2025-04-25 14:00,ZGSZ 251400Z 03005MPS 9999 BKN030 24/20 Q1013 NOSIG
ZGSZ,2025-04-25 15:00,ZGSZ 251500Z 02005MPS 9999 BKN020 24/20 Q1013 NOSIG
ZGSZ,2025-04-25 16:00,ZGSZ 251600Z 04005MPS 8000 -SHRA FEW010 BKN020 23/20 Q1013 NOSIG
ZGSZ,2025-04-25 17:00,ZGSZ 251700Z 03004MPS 9999 SCT013 BKN020 23/20 Q1013 NOSIG
ZGSZ,2025-04-25 18:00,ZGSZ 251800Z 04004MPS 9999 SCT013 BKN020 23/20 Q1013 NOSIG
ZGSZ,2025-04-25 19:00,ZGSZ 251900Z 02004MPS 9999 SCT013 BKN020 22/20 Q1012 NOSIG
ZGSZ,2025-04-25 20:00,ZGSZ 252000Z 03003MPS 290V060 9999 BKN023 22/20 Q1012 NOSIG
ZGSZ,2025-04-25 21:00,ZGSZ 252100Z VRB02MPS 9999 BKN023 23/20 Q1013 NOSIG
ZGSZ,2025-04-25 22:00,ZGSZ 252200Z 11004MPS 9999 OVC026 23/20 Q1013 NOSIG
ZGSZ,2025-04-25 23:00,ZGSZ 252300Z 12004MPS 9999 SCT030 23/20 Q1014 NOSIG
ZGSZ,2025-04-26 00:00,ZGSZ 260000Z 10005MPS 9999 SCT030 23/20 Q1015 NOSIG
ZGSZ,2025-04-26 01:00,ZGSZ 260100Z 11004MPS 070V140 9999 SCT030 24/20 Q1016 NOSIG
ZGSZ,2025-04-26 02:00,ZGSZ 260200Z 12002MPS 050V150 9999 BKN026 25/20 Q1016 NOSIG
ZGSZ,2025-04-26 03:00,ZGSZ 260300Z 11003MPS 060V140 9999 BKN020 26/20 Q1015 NOSIG
ZGSZ,2025-04-26 04:00,ZGSZ 260400Z 16002MPS 090V230 9999 BKN020 27/21 Q1015 NOSIG
ZGSZ,2025-04-26 05:00,ZGSZ 260500Z 12003MPS 070V190 CAVOK 27/21 Q1014 NOSIG
ZGSZ,2025-04-26 06:00,ZGSZ 260600Z 21003MPS 150V240 9999 SCT030 27/21 Q1013 NOSIG
ZGSZ,2025-04-26 07:00,ZGSZ 260700Z 23003MPS 9999 SCT030 27/22 Q1012 NOSIG
ZGSZ,2025-04-26 08:00,ZGSZ 260800Z 25003MPS 220V280 9999 BKN030 26/22 Q1012 NOSIG
ZGSZ,2025-04-26 09:00,ZGSZ 260900Z 27002MPS 240V320 9999 BKN026 26/22 Q1012 BECMG AT0950 12005MPS
ZGSZ,2025-04-26 10:00,ZGSZ 261000Z 10006MPS 9999 BKN026 25/20 Q1012 NOSIG
ZGSZ,2025-04-26 11:00,ZGSZ 261100Z 10006MPS 9999 BKN026 24/20 Q1013 NOSIG
ZGSZ,2025-04-26 12:00,ZGSZ 261200Z 10006MPS 9999 BKN026 24/20 Q1013 NOSIG
ZGSZ,2025-04-26 13:00,ZGSZ 261300Z 10005MPS 9999 BKN026 24/20 Q1014 NOSIG
ZGSZ,2025-04-26 14:00,ZGSZ 261400Z 10005MPS 9999 BKN026 24/20 Q1015 NOSIG
ZGSZ,2025-04-26 15:00,ZGSZ 261500Z 11005MPS 9999 BKN026 23/20 Q1015 NOSIG
ZGSZ,2025-04-26 16:00,ZGSZ 261600Z 09004MPS 9999 SCT040 23/20 Q1015 NOSIG
ZGSZ,2025-04-26 17:00,ZGSZ 261700Z 10004MPS 9999 SCT040 23/20 Q1014 NOSIG
ZGSZ,2025-04-26 18:00,ZGSZ 261800Z 11006MPS 9999 BKN053 23/19 Q1014 NOSIG
ZGSZ,2025-04-26 19:00,ZGSZ 261900Z 10004MPS 070V130 9999 BKN053 23/19 Q1013 NOSIG
ZGSZ,2025-04-26 20:00,ZGSZ 262000Z 10004MPS 9999 BKN053 23/19 Q1013 NOSIG
ZGSZ,2025-04-26 21:00,ZGSZ 262100Z 11006MPS 9999 BKN053 23/20 Q1013 NOSIG
ZGSZ,2025-04-26 22:00,ZGSZ 262200Z 10004MPS 080V150 9999 SCT026 23/20 Q1013 NOSIG
ZGSZ,2025-04-26 23:00,ZGSZ 262300Z 10005MPS 9999 SCT016 BKN030 23/20 Q1014 NOSIG
ZGSZ,2025-04-27 00:00,ZGSZ 270000Z 10005MPS 9999 SCT016 BKN030 23/20 Q1014 NOSIG
ZGSZ,2025-04-27 01:00,ZGSZ 270100Z 11005MPS 9999 SCT016 BKN030 24/20 Q1014 NOSIG
ZGSZ,2025-04-27 02:00,ZGSZ 270200Z 11003MPS 070V140 9999 SCT020 BKN033 24/20 Q1014 NOSIG
ZGSZ,2025-04-27 03:00,ZGSZ 270300Z 13001MPS 9999 SCT020 BKN033 25/21 Q1014 NOSIG
ZGSZ,2025-04-27 04:00,ZGSZ 270400Z 28003MPS 9999 SCT020 BKN033 25/21 Q1013 NOSIG
ZGSZ,2025-04-27 05:00,ZGSZ 270500Z 21002MPS 9999 SCT020 BKN033 26/22 Q1012 NOSIG
ZGSZ,2025-04-27 06:00,ZGSZ 270600Z 18003MPS 140V220 9999 SCT020 BKN033 26/23 Q1011 NOSIG
ZGSZ,2025-04-27 07:00,ZGSZ 270700Z 18003MPS 9999 SCT020 BKN033 27/23 Q1010 NOSIG
ZGSZ,2025-04-27 08:00,ZGSZ 270800Z 23003MPS 190V260 9999 SCT020 BKN033 26/23 Q1010 NOSIG
ZGSZ,2025-04-27 09:00,ZGSZ 270900Z 21002MPS 9999 FEW026 26/23 Q1010 NOSIG
ZGSZ,2025-04-27 10:00,ZGSZ 271000Z 19003MPS 9999 FEW026 BKN050 26/23 Q1010 NOSIG
ZGSZ,2025-04-27 11:00,ZGSZ 271100Z 18003MPS 9999 FEW026 SCT050 26/23 Q1010 NOSIG
ZGSZ,2025-04-27 12:00,ZGSZ 271200Z 17003MPS 9999 FEW050 26/23 Q1011 BECMG AT1350 30007G12MPS TSRA
ZGSZ,2025-04-27 13:00,ZGSZ 271300Z 12003MPS 9999 FEW020 SCT050 26/22 Q1012 BECMG AT1410 30005MPS TSRA
ZGSZ,2025-04-27 14:00,ZGSZ 271400Z 13004MPS 100V160 9999 FEW020 25/22 Q1012 NOSIG
ZGSZ,2025-04-27 15:00,ZGSZ 271500Z 18003MPS 9999 -SHRA FEW020 25/22 Q1012 NOSIG
ZGSZ,2025-04-27 16:00,ZGSZ 271600Z 18002MPS 9999 FEW015 BKN033 25/22 Q1012 NOSIG
ZGSZ,2025-04-27 17:00,ZGSZ 271700Z 19002MPS 9999 SCT012 BKN033 25/22 Q1011 NOSIG
ZGSZ,2025-04-27 18:00,ZGSZ 271800Z 19001MPS 9999 SCT012 BKN033 25/23 Q1011 BECMG AT1930 BKN014 BKN033
ZGSZ,2025-04-27 19:00,ZGSZ 271900Z 20003MPS 9999 SCT012 BKN033 25/23 Q1011 BECMG AT1930 BKN014 BKN033
ZGSZ,2025-04-27 20:00,ZGSZ 272000Z 21002MPS 9999 BKN014 BKN033 25/23 Q1011 BECMG AT2120 SCT014 BKN033
ZGSZ,2025-04-27 21:00,ZGSZ 272100Z 18002MPS 9999 BKN012 BKN033 25/22 Q1011 BECMG AT2120 SCT012 BKN033
ZGSZ,2025-04-27 22:00,ZGSZ 272200Z 18002MPS 8000 -RA SCT011 BKN033 25/23 Q1011 BECMG AT2220 35005MPS 2800 RA BKN012 BKN033
ZGSZ,2025-04-27 23:00,ZGSZ 272300Z VRB01MPS 2800 SHRA BKN011 FEW026TCU BKN033 24/23 Q1012 BECMG AT2330 01005MPS 3500 -RA FEW012 BKN033
ZGSZ,2025-04-28 00:00,ZGSZ 280000Z 05002MPS 020V080 3000 SHRA FEW005 BKN010 FEW026TCU BKN033 24/23 Q1013 BECMG AT0130 -RA SCT012 BKN030
ZGSZ,2025-04-28 01:00,ZGSZ 280100Z 07002MPS 040V120 9999 FEW014 BKN050 25/23 Q1013 NOSIG
ZGSZ,2025-04-28 02:00,ZGSZ 280200Z VRB01MPS 9999 SCT010 BKN016 27/24 Q1013 NOSIG
ZGSZ,2025-04-28 03:00,ZGSZ 280300Z 24003MPS 8000 SCT010 BKN020 27/24 Q1013 NOSIG
ZGSZ,2025-04-28 04:00,ZGSZ 280400Z 24003MPS 9999 BKN030 27/24 Q1012 NOSIG
ZGSZ,2025-04-28 05:00,ZGSZ 280500Z 26003MPS 220V280 7000 BKN030 28/24 Q1012 NOSIG
ZGSZ,2025-04-28 06:00,ZGSZ 280600Z 28004MPS 7000 NSC 29/23 Q1011 NOSIG
ZGSZ,2025-04-28 07:00,ZGSZ 280700Z 29005MPS 9000 SCT040 29/23 Q1010 NOSIG
ZGSZ,2025-04-28 08:00,ZGSZ 280800Z 30005MPS 9999 FEW020 SCT040 30/23 Q1010 NOSIG
ZGSZ,2025-04-28 09:00,ZGSZ 280900Z 30005MPS 9999 BKN040 30/22 Q1009 NOSIG
ZGSZ,2025-04-28 10:00,ZGSZ 281000Z 04005MPS 9999 FEW026TCU BKN040 29/22 Q1010 NOSIG
ZGSZ,2025-04-28 11:00,ZGSZ 281100Z 02004MPS 360V060 9999 -SHRA BKN040 29/21 Q1011 NOSIG
ZGSZ,2025-04-28 12:00,ZGSZ 281200Z 03003MPS CAVOK 29/20 Q1011 NOSIG
ZGSZ,2025-04-28 13:00,ZGSZ 281300Z 02003MPS CAVOK 28/21 Q1011 NOSIG
ZGSZ,2025-04-28 14:00,ZGSZ 281400Z 04003MPS 270V070 CAVOK 28/20 Q1012 NOSIG
ZGSZ,2025-04-28 15:00,ZGSZ 281500Z 06003MPS CAVOK 27/20 Q1012 NOSIG
ZGSZ,2025-04-28 16:00,ZGSZ 281600Z 03002MPS 010V070 CAVOK 27/20 Q1012 NOSIG
ZGSZ,2025-04-28 17:00,ZGSZ 281700Z 02003MPS CAVOK 26/18 Q1012 NOSIG
ZGSZ,2025-04-28 18:00,ZGSZ 281800Z 03003MPS 290V050 CAVOK 26/18 Q1012 NOSIG
ZGSZ,2025-04-28 19:00,ZGSZ 281900Z 07002MPS 9999 SCT053 25/17 Q1012 NOSIG
ZGSZ,2025-04-28 20:00,ZGSZ 282000Z 06003MPS CAVOK 25/18 Q1012 NOSIG
ZGSZ,2025-04-28 21:00,ZGSZ 282100Z 09003MPS 060V150 CAVOK 25/18 Q1012 NOSIG
ZGSZ,2025-04-28 22:00,ZGSZ 282200Z 12002MPS 080V160 CAVOK 24/19 Q1013 NOSIG
ZGSZ,2025-04-28 23:00,ZGSZ 282300Z 11002MPS 9999 BKN050 25/20 Q1013 NOSIG
ZGSZ,2025-04-29 00:00,ZGSZ 290000Z 09002MPS 050V130 9999 FEW050 26/19 Q1014 NOSIG
ZGSZ,2025-04-29 01:00,ZGSZ 290100Z 30002MPS 260V050 9999 FEW050 27/20 Q1014 NOSIG
ZGSZ,2025-04-29 02:00,ZGSZ 290200Z VRB01MPS 9999 SCT036 28/20 Q1014 NOSIG
ZGSZ,2025-04-29 03:00,ZGSZ 290300Z 12005MPS 080V150 9999 FEW036 29/18 Q1014 NOSIG
ZGSZ,2025-04-29 04:00,ZGSZ 290400Z 24004MPS 9999 FEW036 28/20 Q1014 NOSIG
ZGSZ,2025-04-29 05:00,ZGSZ 290500Z 22004MPS 9999 FEW036 29/19 Q1013 NOSIG
ZGSZ,2025-04-29 06:00,ZGSZ 290600Z 21006MPS 9999 FEW036 29/17 Q1012 NOSIG
ZGSZ,2025-04-29 07:00,ZGSZ 290700Z 20005MPS 9999 FEW036 29/18 Q1012 NOSIG
ZGSZ,2025-04-29 08:00,ZGSZ 290800Z 19006MPS CAVOK 28/19 Q1011 NOSIG
ZGSZ,2025-04-29 09:00,ZGSZ 290900Z 16005MPS CAVOK 30/14 Q1011 BECMG AT1050 10005MPS
ZGSZ,2025-04-29 10:00,ZGSZ 291000Z 13005MPS CAVOK 29/12 Q1011 NOSIG
ZGSZ,2025-04-29 11:00,ZGSZ 291100Z 12005MPS CAVOK 28/13 Q1012 NOSIG
ZGSZ,2025-04-29 12:00,ZGSZ 291200Z 11004MPS 080V140 CAVOK 27/13 Q1013 NOSIG
ZGSZ,2025-04-29 13:00,ZGSZ 291300Z 11005MPS CAVOK 26/14 Q1013 NOSIG
ZGSZ,2025-04-29 14:00,ZGSZ 291400Z 12005MPS CAVOK 26/13 Q1014 NOSIG
ZGSZ,2025-04-29 15:00,ZGSZ 291500Z 11005MPS CAVOK 25/14 Q1014 NOSIG
ZGSZ,2025-04-29 16:00,ZGSZ 291600Z 11004MPS CAVOK 24/14 Q1014 NOSIG
ZGSZ,2025-04-29 17:00,ZGSZ 291700Z 10003MPS CAVOK 24/16 Q1013 NOSIG
ZGSZ,2025-04-29 18:00,ZGSZ 291800Z 08002MPS CAVOK 24/16 Q1013 NOSIG
ZGSZ,2025-04-29 19:00,ZGSZ 291900Z 08002MPS CAVOK 23/17 Q1013 NOSIG
ZGSZ,2025-04-29 20:00,ZGSZ 292000Z 09003MPS CAVOK 23/17 Q1013 NOSIG
ZGSZ,2025-04-29 21:00,ZGSZ 292100Z 08002MPS CAVOK 23/18 Q1013 NOSIG
ZGSZ,2025-04-29 22:00,ZGSZ 292200Z 08002MPS CAVOK 23/18 Q1013 NOSIG
ZGSZ,2025-04-29 23:00,ZGSZ 292300Z VRB01MPS CAVOK 24/19 Q1014 NOSIG
ZGSZ,2025-04-30 00:00,ZGSZ 300000Z 13002MPS 100V190 CAVOK 25/19 Q1014 NOSIG
ZGSZ,2025-04-30 01:00,ZGSZ 300100Z 14003MPS 100V200 9999 FEW026 26/19 Q1014 NOSIG
ZGSZ,2025-04-30 02:00,ZGSZ 300200Z 22003MPS 9999 FEW026 26/20 Q1014 NOSIG
ZGSZ,2025-04-30 03:00,ZGSZ 300300Z 22004MPS 9999 FEW026 27/20 Q1014 NOSIG
ZGSZ,2025-04-30 04:00,ZGSZ 300400Z 22005MPS 9999 FEW026 27/21 Q1014 NOSIG
ZGSZ,2025-04-30 05:00,ZGSZ 300500Z 21004MPS CAVOK 28/21 Q1013 NOSIG
ZGSZ,2025-04-30 06:00,ZGSZ 300600Z 20004MPS CAVOK 28/22 Q1012 NOSIG
ZGSZ,2025-04-30 07:00,ZGSZ 300700Z 21005MPS 9999 FEW026 28/22 Q1011 NOSIG
ZGSZ,2025-04-30 08:00,ZGSZ 300800Z 19005MPS 9999 FEW026 28/22 Q1011 NOSIG
ZGSZ,2025-04-30 09:00,ZGSZ 300900Z 19005MPS CAVOK 27/22 Q1010 NOSIG
ZGSZ,2025-04-30 10:00,ZGSZ 301000Z 19005MPS CAVOK 27/22 Q1010 NOSIG
ZGSZ,2025-04-30 11:00,ZGSZ 301100Z 18005MPS CAVOK 26/22 Q1010 NOSIG
ZGSZ,2025-04-30 12:00,ZGSZ 301200Z 19004MPS CAVOK 26/22 Q1011 NOSIG
ZGSZ,2025-04-30 13:00,ZGSZ 301300Z 19004MPS CAVOK 26/23 Q1012 NOSIG
ZGSZ,2025-04-30 14:00,ZGSZ 301400Z 18005MPS CAVOK 26/22 Q1013 NOSIG
ZGSZ,2025-04-30 15:00,ZGSZ 301500Z 19005MPS CAVOK 26/21 Q1013 NOSIG
ZGSZ,2025-04-30 16:00,ZGSZ 301600Z 19004MPS CAVOK 26/22 Q1013 NOSIG
ZGSZ,2025-04-30 17:00,ZGSZ 301700Z 21004MPS CAVOK 25/23 Q1013 NOSIG
ZGSZ,2025-04-30 18:00,ZGSZ 301800Z 21005MPS 9999 BKN050 25/22 Q1013 NOSIG
ZGSZ,2025-04-30 19:00,ZGSZ 301900Z 20003MPS 9999 BKN050 25/22 Q1013 NOSIG
ZGSZ,2025-04-30 20:00,ZGSZ 302000Z 20002MPS 9999 BKN026 25/22 Q1012 NOSIG
ZGSZ,2025-04-30 21:00,ZGSZ 302100Z 21001MPS 9999 BKN022 25/22 Q1012 NOSIG
ZGSZ,2025-04-30 22:00,ZGSZ 302200Z 19002MPS 9999 SCT022 25/22 Q1012 NOSIG
ZGSZ,2025-04-30 23:00,ZGSZ 302300Z 19001MPS 9999 SCT022 25/22 Q1013 NOSIG
ZGSZ,2025-05-01 00:00,ZGSZ 010000Z 21002MPS 180V240 9999 SCT022 BKN053 26/22 Q1013 NOSIG
ZGSZ,2025-05-01 01:00,ZGSZ 010100Z 22002MPS 180V240 9999 BKN033 26/22 Q1014 NOSIG
ZGSZ,2025-05-01 02:00,ZGSZ 010200Z 22002MPS 180V250 9999 BKN050 26/22 Q1014 NOSIG
ZGSZ,2025-05-01 03:00,ZGSZ 010300Z 20002MPS 170V230 9999 SCT020 BKN050 26/23 Q1014 NOSIG
ZGSZ,2025-05-01 04:00,ZGSZ 010400Z 18003MPS 9999 BKN033 27/23 Q1013 NOSIG
ZGSZ,2025-05-01 05:00,ZGSZ 010500Z 20003MPS 9999 SCT033 27/23 Q1013 NOSIG
ZGSZ,2025-05-01 06:00,ZGSZ 010600Z 19003MPS 160V220 9999 FEW040 28/23 Q1012 NOSIG
ZGSZ,2025-05-01 07:00,ZGSZ 010700Z 20003MPS 9999 SCT040 28/24 Q1011 NOSIG
ZGSZ,2025-05-01 08:00,ZGSZ 010800Z 20004MPS 9999 SCT033 27/24 Q1011 NOSIG
ZGSZ,2025-05-01 09:00,ZGSZ 010900Z 19004MPS 9999 FEW033 27/24 Q1011 NOSIG
ZGSZ,2025-05-01 10:00,ZGSZ 011000Z 18003MPS 9999 FEW040 26/24 Q1011 NOSIG
ZGSZ,2025-05-01 11:00,ZGSZ 011100Z 18004MPS 9999 FEW050 26/24 Q1011 NOSIG
ZGSZ,2025-05-01 12:00,ZGSZ 011200Z 18003MPS 9999 FEW050 26/24 Q1012 NOSIG
ZGSZ,2025-05-01 13:00,ZGSZ 011300Z 17003MPS 9999 FEW050 26/24 Q1012 NOSIG
ZGSZ,2025-05-01 14:00,ZGSZ 011400Z 19004MPS CAVOK 26/24 Q1013 NOSIG
ZGSZ,2025-05-01 15:00,ZGSZ 011500Z 16002MPS CAVOK 25/24 Q1013 NOSIG
ZGSZ,2025-05-01 16:00,ZGSZ 011600Z 18002MPS 8000 SCT006 25/24 Q1013 NOSIG
ZGSZ,2025-05-01 17:00,ZGSZ 011700Z 18002MPS 6000 SCT006 25/24 Q1012 NOSIG
ZGSZ,2025-05-01 18:00,ZGSZ 011800Z 18002MPS 5000 BR SCT008 BKN020 25/24 Q1012 BECMG AT1920 BKN008 BKN016
ZGSZ,2025-05-01 19:00,ZGSZ 011900Z 18002MPS 5000 BR SCT009 BKN020 25/24 Q1011 BECMG AT1930 BKN009 BKN016
ZGSZ,2025-05-01 20:00,ZGSZ 012000Z 19001MPS 6000 BKN008 BKN020 25/23 Q1011 BECMG AT2040 SCT008 BKN030
ZGSZ,2025-05-01 21:00,ZGSZ 012100Z 22001MPS 6000 SCT009 BKN024 25/24 Q1011 NOSIG
ZGSZ,2025-05-01 22:00,ZGSZ 012200Z 00000MPS 5000 BR SCT009 BKN024 25/24 Q1011 NOSIG
ZGSZ,2025-05-01 23:00,ZGSZ 012300Z VRB01MPS 4500 BR FEW020 BKN040 26/24 Q1012 NOSIG
ZGSZ,2025-05-02 00:00,ZGSZ 020000Z 26002MPS 5000 BR FEW012 BKN040 27/24 Q1012 NOSIG
ZGSZ,2025-05-02 01:00,ZGSZ 020100Z 27002MPS 240V330 6000 FEW020 BKN040 27/25 Q1012 NOSIG
ZGSZ,2025-05-02 02:00,ZGSZ 020200Z 23003MPS 6000 SCT020 28/25 Q1012 NOSIG
ZGSZ,2025-05-02 03:00,ZGSZ 020300Z 26004MPS 5000 BR SCT033 28/25 Q1012 NOSIG
ZGSZ,2025-05-02 04:00,ZGSZ 020400Z 26004MPS 6000 FEW043 30/23 Q1011 NOSIG
ZGSZ,2025-05-02 05:00,ZGSZ 020500Z 24004MPS 7000 FEW046 31/24 Q1010 NOSIG
ZGSZ,2025-05-02 06:00,ZGSZ 020600Z 20004MPS 9000 FEW046 31/23 Q1010 NOSIG
ZGSZ,2025-05-02 07:00,ZGSZ 020700Z 19006MPS 8000 NSC 30/24 Q1009 NOSIG
ZGSZ,2025-05-02 08:00,ZGSZ 020800Z 20006MPS CAVOK 30/23 Q1009 NOSIG
ZGSZ,2025-05-02 09:00,ZGSZ 020900Z 20007MPS CAVOK 29/22 Q1009 NOSIG
ZGSZ,2025-05-02 10:00,ZGSZ 021000Z 18007MPS CAVOK 29/21 Q1009 NOSIG
ZGSZ,2025-05-02 11:00,ZGSZ 021100Z 17005MPS CAVOK 28/22 Q1009 NOSIG
ZGSZ,2025-05-02 12:00,ZGSZ 021200Z 19006MPS CAVOK 28/22 Q1010 BECMG AT1250 12005MPS
ZGSZ,2025-05-02 13:00,ZGSZ 021300Z 18005MPS CAVOK 27/23 Q1010 BECMG AT1440 12005MPS
ZGSZ,2025-05-02 14:00,ZGSZ 021400Z 16005MPS CAVOK 27/21 Q1010 NOSIG
ZGSZ,2025-05-02 15:00,ZGSZ 021500Z 15004MPS CAVOK 27/20 Q1011 NOSIG
ZGSZ,2025-05-02 16:00,ZGSZ 021600Z 11003MPS 080V140 CAVOK 27/21 Q1010 NOSIG
ZGSZ,2025-05-02 17:00,ZGSZ 021700Z 14003MPS 110V170 CAVOK 26/21 Q1010 NOSIG
ZGSZ,2025-05-02 18:00,ZGSZ 021800Z 16004MPS CAVOK 26/21 Q1010 NOSIG
ZGSZ,2025-05-02 19:00,ZGSZ 021900Z 16003MPS CAVOK 25/21 Q1010 NOSIG
ZGSZ,2025-05-02 20:00,ZGSZ 022000Z 12002MPS 060V190 9999 FEW023 26/21 Q1010 NOSIG
ZGSZ,2025-05-02 21:00,ZGSZ 022100Z 09003MPS 060V150 8000 NSC 26/22 Q1010 NOSIG
ZGSZ,2025-05-02 22:00,ZGSZ 022200Z 08002MPS 040V140 8000 NSC 25/21 Q1010 NOSIG
ZGSZ,2025-05-02 23:00,ZGSZ 022300Z 10003MPS 070V150 8000 NSC 26/22 Q1010 NOSIG
ZGSZ,2025-05-03 00:00,ZGSZ 030000Z 11003MPS 080V140 8000 BKN050 27/22 Q1011 NOSIG
ZGSZ,2025-05-03 01:00,ZGSZ 030100Z 14003MPS 100V210 8000 BKN026 28/22 Q1011 NOSIG
ZGSZ,2025-05-03 02:00,ZGSZ 030200Z 20002MPS 140V240 8000 SCT030 28/22 Q1011 NOSIG
ZGSZ,2025-05-03 03:00,ZGSZ 030300Z 20004MPS 8000 FEW030 28/23 Q1011 NOSIG
ZGSZ,2025-05-03 04:00,ZGSZ 030400Z 19004MPS 9999 SCT030 26/23 Q1011 NOSIG
ZGSZ,2025-05-03 05:00,ZGSZ 030500Z 19004MPS CAVOK 28/23 Q1010 NOSIG
ZGSZ,2025-05-03 06:00,ZGSZ 030600Z 20006MPS 9999 -SHRA FEW020 FEW026TCU BKN053 27/24 Q1009 NOSIG
ZGSZ,2025-05-03 07:00,ZGSZ 030700Z 18006MPS 9999 -SHRA FEW026TCU BKN053 26/23 Q1009 NOSIG
ZGSZ,2025-05-03 08:00,ZGSZ 030800Z 18004MPS 9999 FEW026 28/23 Q1008 NOSIG
ZGSZ,2025-05-03 09:00,ZGSZ 030900Z 18004MPS 9999 FEW033 27/23 Q1008 NOSIG
ZGSZ,2025-05-03 10:00,ZGSZ 031000Z 17005MPS CAVOK 27/24 Q1008 NOSIG
ZGSZ,2025-05-03 11:00,ZGSZ 031100Z 17005MPS 9999 FEW040 27/23 Q1008 NOSIG
ZGSZ,2025-05-03 12:00,ZGSZ 031200Z 17003MPS 9999 -SHRA FEW040TCU BKN053 27/24 Q1009 NOSIG
ZGSZ,2025-05-03 13:00,ZGSZ 031300Z 18003MPS CAVOK 27/23 Q1009 NOSIG
ZGSZ,2025-05-03 14:00,ZGSZ 031400Z 16003MPS CAVOK 27/23 Q1010 NOSIG
ZGSZ,2025-05-03 15:00,ZGSZ 031500Z 19003MPS CAVOK 27/23 Q1010 NOSIG
ZGSZ,2025-05-03 16:00,ZGSZ 031600Z 16003MPS CAVOK 27/24 Q1009 NOSIG
ZGSZ,2025-05-03 17:00,ZGSZ 031700Z 19003MPS 9999 FEW050 27/23 Q1009 NOSIG
ZGSZ,2025-05-03 18:00,ZGSZ 031800Z 17002MPS 9999 FEW030 26/23 Q1009 NOSIG
ZGSZ,2025-05-03 19:00,ZGSZ 031900Z 16002MPS CAVOK 26/23 Q1008 NOSIG
ZGSZ,2025-05-03 20:00,ZGSZ 032000Z 09002MPS 050V120 9999 FEW030 26/23 Q1008 NOSIG
ZGSZ,2025-05-03 21:00,ZGSZ 032100Z 11002MPS 080V140 9999 FEW030 26/23 Q1008 NOSIG
ZGSZ,2025-05-03 22:00,ZGSZ 032200Z 10002MPS 080V140 9999 FEW030 26/23 Q1008 NOSIG
ZGSZ,2025-05-03 23:00,ZGSZ 032300Z 17002MPS 9999 FEW030 27/24 Q1008 NOSIG
ZGSZ,2025-05-04 00:00,ZGSZ 040000Z 16004MPS 9999 FEW030 28/24 Q1009 NOSIG
ZGSZ,2025-05-04 01:00,ZGSZ 040100Z 18003MPS 9999 SCT020 BKN053 28/24 Q1009 NOSIG
ZGSZ,2025-05-04 02:00,ZGSZ 040200Z 18004MPS 9999 FEW020 29/24 Q1009 NOSIG
ZGSZ,2025-05-04 03:00,ZGSZ 040300Z 18005MPS 9999 FEW020 29/24 Q1009 NOSIG
ZGSZ,2025-05-04 04:00,ZGSZ 040400Z 18006MPS 9999 FEW020 30/24 Q1008 NOSIG
ZGSZ,2025-05-04 05:00,ZGSZ 040500Z 18008MPS 9999 FEW026 30/24 Q1007 NOSIG
ZGSZ,2025-05-04 06:00,ZGSZ 040600Z 18007MPS 9999 FEW026 30/24 Q1007 NOSIG
ZGSZ,2025-05-04 07:00,ZGSZ 040700Z 18007MPS 9999 SCT026 30/24 Q1006 NOSIG
ZGSZ,2025-05-04 08:00,ZGSZ 040800Z 18009MPS 9999 FEW026 FEW030TCU 29/24 Q1006 NOSIG
ZGSZ,2025-05-04 09:00,ZGSZ 040900Z 17007MPS 9999 FEW026 28/25 Q1006 NOSIG
ZGSZ,2025-05-04 10:00,ZGSZ 041000Z 16008MPS 9999 FEW026 28/24 Q1006 NOSIG
ZGSZ,2025-05-04 11:00,ZGSZ 041100Z 16006MPS 9999 FEW026 28/24 Q1007 NOSIG
ZGSZ,2025-05-04 12:00,ZGSZ 041200Z 17004MPS 9999 FEW026 27/24 Q1008 NOSIG
ZGSZ,2025-05-04 13:00,ZGSZ 041300Z 16005MPS 9999 FEW026 27/23 Q1009 NOSIG
ZGSZ,2025-05-04 14:00,ZGSZ 041400Z 16006MPS 9999 FEW026 27/23 Q1009 NOSIG
ZGSZ,2025-05-04 15:00,ZGSZ 041500Z 15006MPS 9999 FEW026 27/23 Q1010 NOSIG
ZGSZ,2025-05-04 16:00,ZGSZ 041600Z 13006MPS 9999 SCT026 27/23 Q1009 NOSIG
ZGSZ,2025-05-04 17:00,ZGSZ 041700Z 16006MPS 9999 FEW026 27/23 Q1009 NOSIG
ZGSZ,2025-05-04 18:00,ZGSZ 041800Z 15005MPS 9999 FEW020 26/23 Q1009 NOSIG
ZGSZ,2025-05-04 19:00,ZGSZ 041900Z 15005MPS 9999 FEW020 26/22 Q1008 NOSIG
ZGSZ,2025-05-04 20:00,ZGSZ 042000Z 14005MPS 9999 SCT043 27/22 Q1008 NOSIG
ZGSZ,2025-05-04 21:00,ZGSZ 042100Z 15005MPS 9999 SCT050 27/22 Q1008 NOSIG
ZGSZ,2025-05-04 22:00,ZGSZ 042200Z 14005MPS CAVOK 27/22 Q1008 NOSIG
ZGSZ,2025-05-04 23:00,ZGSZ 042300Z 15005MPS CAVOK 27/22 Q1008 NOSIG
ZGSZ,2025-05-05 00:00,ZGSZ 050000Z 16005MPS CAVOK 28/23 Q1008 NOSIG
ZGSZ,2025-05-05 01:00,ZGSZ 050100Z 17005MPS 9999 BKN036 28/23 Q1009 NOSIG
ZGSZ,2025-05-05 02:00,ZGSZ 050200Z 17004MPS 9999 OVC040 28/23 Q1009 NOSIG
ZGSZ,2025-05-05 03:00,ZGSZ 050300Z 17007MPS CAVOK 30/23 Q1008 NOSIG
ZGSZ,2025-05-05 04:00,ZGSZ 050400Z 16006MPS CAVOK 30/24 Q1008 NOSIG
ZGSZ,2025-05-05 05:00,ZGSZ 050500Z 17007MPS 9999 FEW030 30/24 Q1007 NOSIG
ZGSZ,2025-05-05 06:00,ZGSZ 050600Z 18006MPS 9999 FEW030 30/24 Q1007 NOSIG
ZGSZ,2025-05-05 07:00,ZGSZ 050700Z 18008MPS 9999 FEW030 30/24 Q1005 NOSIG
ZGSZ,2025-05-05 08:00,ZGSZ 050800Z 18008MPS CAVOK 28/24 Q1006 NOSIG
ZGSZ,2025-05-05 09:00,ZGSZ 050900Z 16008MPS CAVOK 28/24 Q1005 NOSIG
ZGSZ,2025-05-05 10:00,ZGSZ 051000Z 17007MPS 9999 FEW050 28/24 Q1006 NOSIG
ZGSZ,2025-05-05 11:00,ZGSZ 051100Z 16007MPS 9999 -SHRA FEW025CB BKN033 28/24 Q1006 BECMG AT1130 TSRA
ZGSZ,2025-05-05 12:00,ZGSZ 051200Z 17006MPS 9999 -TSRA FEW020CB BKN033 27/25 Q1007 BECMG AT1340 -SHRA
ZGSZ,2025-05-05 13:00,ZGSZ 051300Z 17005MPS 9999 -TSRA SCT015 FEW020CB BKN040 27/25 Q1008 BECMG AT1420 -SHRA
ZGSZ,2025-05-05 14:00,ZGSZ 051400Z 17008MPS 3000 +TSRA SCT004 FEW020CB BKN050 26/25 Q1009 BECMG AT1420 -TSRA
ZGSZ,2025-05-05 15:00,ZGSZ 051500Z 15005MPS 9999 SCT040 26/25 Q1009 NOSIG
ZGSZ,2025-05-05 16:00,ZGSZ 051600Z 17005MPS 9999 SCT020 BKN050 27/25 Q1008 NOSIG
ZGSZ,2025-05-05 17:00,ZGSZ 051700Z 16003MPS 9999 SCT020 BKN050 27/25 Q1008 NOSIG
ZGSZ,2025-05-05 18:00,ZGSZ 051800Z 17004MPS 9999 SCT025 BKN050 27/25 Q1007 NOSIG
ZGSZ,2025-05-05 19:00,ZGSZ 051900Z 18003MPS 9999 FEW025 27/25 Q1007 NOSIG
ZGSZ,2025-05-05 20:00,ZGSZ 052000Z 17004MPS 9999 SCT026 27/25 Q1007 NOSIG
ZGSZ,2025-05-05 21:00,ZGSZ 052100Z 16003MPS 9999 SCT032 27/25 Q1007 NOSIG
ZGSZ,2025-05-05 22:00,ZGSZ 052200Z 16003MPS 9999 SCT027 BKN040 27/25 Q1008 NOSIG
ZGSZ,2025-05-05 23:00,ZGSZ 052300Z 17004MPS 9999 SCT017 BKN040 27/25 Q1008 NOSIG
ZGSZ,2025-05-06 00:00,ZGSZ 060000Z 16005MPS 9999 FEW020 SCT050 28/26 Q1008 NOSIG
ZGSZ,2025-05-06 01:00,ZGSZ 060100Z 17005MPS 9999 FEW040 28/26 Q1009 NOSIG
ZGSZ,2025-05-06 02:00,ZGSZ 060200Z 18005MPS 9999 SCT023 28/26 Q1009 BECMG AT0350 25005MPS
ZGSZ,2025-05-06 03:00,ZGSZ 060300Z 18006MPS 9999 SCT023 FEW030TCU 29/26 Q1009 BECMG AT0350 25005MPS SHRA
ZGSZ,2025-05-06 04:00,ZGSZ 060400Z 18006MPS 6000 -SHRA SCT016 FEW030TCU 28/26 Q1008 RESHRA BECMG AT0430 25005MPS 2000 +SHRA
ZGSZ,2025-05-06 05:00,ZGSZ 060500Z 18006MPS 1800 R15/1300D R16/1400U +SHRA SCT010 FEW020CB BKN040 27/26 Q1008 BECMG AT0550 3500 -SHRA
ZGSZ,2025-05-06 06:00,ZGSZ 060600Z 12004MPS 080V160 4000 +TSRA SCT010 FEW020CB BKN033 26/24 Q1006 BECMG AT0620 21005MPS -TSRA
ZGSZ,2025-05-06 07:00,ZGSZ 060700Z 18006MPS 5000 TSRA SCT010 FEW020CB BKN033 25/23 Q1006 BECMG AT0830 SHRA
ZGSZ,2025-05-06 08:00,ZGSZ 060800Z 14004MPS 9999 -SHRA SCT015 FEW020CB BKN050 25/23 Q1005 RETSRA BECMG AT0900 TSRA
ZGSZ,2025-05-06 09:00,ZGSZ 060900Z 14003MPS 9999 -TSRA SCT015 FEW020CB BKN050 26/24 Q1006 BECMG AT1000 NSW BKN020
ZGSZ,2025-05-06 10:00,ZGSZ 061000Z 15004MPS 9999 -SHRA SCT015 FEW020CB BKN050 26/25 Q1006 RETS BECMG AT1100 TSRA
ZGSZ,2025-05-06 11:00,ZGSZ 061100Z 09002MPS 040V150 9999 -SHRA FEW015 FEW030CB BKN050 27/25 Q1007 BECMG AT1120 TSRA
ZGSZ,2025-05-06 12:00,ZGSZ 061200Z 08003MPS 060V140 6000 +SHRA FEW015 FEW030CB BKN050 27/25 Q1008 BECMG AT1300 NSW
ZGSZ,2025-05-06 13:00,ZGSZ 061300Z 15004MPS 3500 +TSRA SCT009 FEW030CB BKN050 25/25 Q1008 BECMG AT1340 -SHRA
ZGSZ,2025-05-06 14:00,ZGSZ 061400Z 14003MPS 9999 FEW040 27/25 Q1008 NOSIG
ZGSZ,2025-05-06 15:00,ZGSZ 061500Z 16003MPS 9999 SCT012 27/25 Q1009 BECMG AT1530 BKN012
ZGSZ,2025-05-06 16:00,ZGSZ 061600Z 16003MPS 9999 BKN014 27/25 Q1008 BECMG AT1630 SCT016
ZGSZ,2025-05-06 17:00,ZGSZ 061700Z 17006MPS 3000 R15/1400D R16/P2000 +SHRA FEW013 FEW026CB BKN040 25/24 Q1008 BECMG AT1740 NSW
ZGSZ,2025-05-06 18:00,ZGSZ 061800Z VRB02MPS 8000 SHRA FEW013 FEW026CB BKN040 26/25 Q1007 BECMG AT1840 18005MPS NSW
ZGSZ,2025-05-06 19:00,ZGSZ 061900Z 17004MPS 9999 -SHRA FEW015 BKN050 27/26 Q1006 BECMG AT2000 SHRA SCT010 FEW025CB BKN030
ZGSZ,2025-05-06 20:00,ZGSZ 062000Z 17005MPS 5000 TSRA SCT015 FEW023CB BKN040 26/25 Q1006 BECMG AT2040 -SHRA
ZGSZ,2025-05-06 21:00,ZGSZ 062100Z 13002MPS 100V170 5000 SHRA SCT015 FEW023CB BKN040 25/23 Q1006 BECMG AT2230 -SHRA
ZGSZ,2025-05-06 22:00,ZGSZ 062200Z VRB02MPS 1200 R15/1700D R16/P2000 +SHRA SCT015 FEW023CB BKN040 25/24 Q1007 BECMG AT2230 18005MPS 3200
ZGSZ,2025-05-06 23:00,ZGSZ 062300Z 05002MPS 8000 -SHRA FEW015 FEW020CB SCT026 25/24 Q1007 BECMG AT2330 1800 +SHRA
ZGSZ,2025-05-07 00:00,ZGSZ 070000Z 24002MPS 8000 SHRA SCT013 FEW020CB BKN026 26/24 Q1008 RETS BECMG AT0030 -SHRA
ZGSZ,2025-05-07 01:00,ZGSZ 070100Z VRB01MPS 8000 -SHRA SCT013 FEW020CB BKN026 25/23 Q1009 RESHRA BECMG AT0140 SHRA
ZGSZ,2025-05-07 02:00,ZGSZ 070200Z 19002MPS 160V220 8000 -SHRA SCT013 FEW020CB BKN050 26/24 Q1009 RESHRA NOSIG
ZGSZ,2025-05-07 03:00,ZGSZ 070300Z 17004MPS 9999 FEW014 SCT050 27/25 Q1009 NOSIG
ZGSZ,2025-05-07 04:00,ZGSZ 070400Z 15004MPS 7000 SHRA FEW015 FEW030CB BKN050 25/24 Q1008 BECMG AT0410 -SHRA BECMG AT0440 2500 +SHRA
ZGSZ,2025-05-07 05:00,ZGSZ 070500Z 11002MPS 070V140 9000 SHRA SCT011 FEW030CB BKN050 26/23 Q1008 BECMG AT0510 -SHRA
ZGSZ,2025-05-07 06:00,ZGSZ 070600Z 17004MPS 8000 -SHRA SCT010 FEW030CB BKN050 26/24 Q1007 BECMG AT0640 SHRA
ZGSZ,2025-05-07 07:00,ZGSZ 070700Z 14005MPS 8000 -SHRA SCT010 FEW030CB BKN050 27/24 Q1006 NOSIG
ZGSZ,2025-05-07 08:00,ZGSZ 070800Z 11005MPS 9999 BKN050 27/24 Q1006 NOSIG
ZGSZ,2025-05-07 09:00,ZGSZ 070900Z 15003MPS 9999 -SHRA FEW030 BKN050 27/24 Q1006 NOSIG
ZGSZ,2025-05-07 10:00,ZGSZ 071000Z 12004MPS 9999 -SHRA FEW013 BKN050 27/25 Q1006 NOSIG
ZGSZ,2025-05-07 11:00,ZGSZ 071100Z 12003MPS 090V150 9999 -SHRA FEW013 BKN050 26/24 Q1007 NOSIG
ZGSZ,2025-05-07 12:00,ZGSZ 071200Z 11005MPS 9999 -SHRA FEW013 26/25 Q1006 NOSIG
ZGSZ,2025-05-07 13:00,ZGSZ 071300Z 10005MPS 9999 -SHRA FEW013 BKN046 26/24 Q1008 NOSIG
ZGSZ,2025-05-07 14:00,ZGSZ 071400Z 12006MPS 9999 FEW013 26/24 Q1008 NOSIG
ZGSZ,2025-05-07 15:00,ZGSZ 071500Z 12005MPS 9999 SCT026 26/23 Q1009 NOSIG
ZGSZ,2025-05-07 16:00,ZGSZ 071600Z 12005MPS 9999 SCT033 26/23 Q1008 NOSIG
ZGSZ,2025-05-07 17:00,ZGSZ 071700Z 12006MPS 9999 FEW016 SCT033 26/23 Q1008 NOSIG
ZGSZ,2025-05-07 18:00,ZGSZ 071800Z 12006MPS 9999 BKN030 25/23 Q1007 NOSIG
ZGSZ,2025-05-07 19:00,ZGSZ 071900Z 10004MPS 9999 BKN030 25/23 Q1007 NOSIG
ZGSZ,2025-05-07 20:00,ZGSZ 072000Z 11005MPS 9999 BKN030 25/23 Q1007 NOSIG
ZGSZ,2025-05-07 21:00,ZGSZ 072100Z 12005MPS 9999 SCT030 25/23 Q1007 NOSIG
ZGSZ,2025-05-07 22:00,ZGSZ 072200Z 12004MPS 9999 FEW030 SCT053 25/23 Q1008 NOSIG
ZGSZ,2025-05-07 23:00,ZGSZ 072300Z 12005MPS 9999 BKN040 26/23 Q1008 NOSIG
ZGSZ,2025-05-08 00:00,ZGSZ 080000Z 13005MPS 9999 BKN040 27/23 Q1008 NOSIG
ZGSZ,2025-05-08 01:00,ZGSZ 080100Z 14006MPS 9999 FEW020 BKN033 28/23 Q1009 NOSIG
ZGSZ,2025-05-08 02:00,ZGSZ 080200Z 15006MPS 9999 FEW020 SCT033 29/23 Q1009 NOSIG
ZGSZ,2025-05-08 03:00,ZGSZ 080300Z 14007MPS 9999 FEW020 SCT033 30/24 Q1008 NOSIG
ZGSZ,2025-05-08 04:00,ZGSZ 080400Z 17006MPS 9999 SCT033 31/24 Q1008 NOSIG
ZGSZ,2025-05-08 05:00,ZGSZ 080500Z 18007MPS 9999 BKN040 30/24 Q1007 NOSIG
ZGSZ,2025-05-08 06:00,ZGSZ 080600Z 18007MPS 9999 OVC040 30/24 Q1006 NOSIG
ZGSZ,2025-05-08 07:00,ZGSZ 080700Z 17008MPS 9999 SCT040 30/24 Q1005 NOSIG
ZGSZ,2025-05-08 08:00,ZGSZ 080800Z 16007MPS 9999 SCT040 30/24 Q1005 NOSIG
ZGSZ,2025-05-08 09:00,ZGSZ 080900Z 16007MPS CAVOK 30/24 Q1005 NOSIG
ZGSZ,2025-05-08 10:00,ZGSZ 081000Z 15008MPS CAVOK 29/24 Q1004 NOSIG
ZGSZ,2025-05-08 11:00,ZGSZ 081100Z 16007MPS CAVOK 29/24 Q1005 NOSIG
ZGSZ,2025-05-08 12:00,ZGSZ 081200Z 16007MPS CAVOK 28/24 Q1005 NOSIG
ZGSZ,2025-05-08 13:00,ZGSZ 081300Z 13004MPS 9999 BKN033 29/24 Q1007 NOSIG
ZGSZ,2025-05-08 14:00,ZGSZ 081400Z 10004MPS 9999 BKN033 28/24 Q1007 NOSIG
ZGSZ,2025-05-08 15:00,ZGSZ 081500Z 10004MPS 080V150 9999 SCT033 28/24 Q1007 NOSIG
ZGSZ,2025-05-08 16:00,ZGSZ 081600Z 12003MPS 080V140 9999 SCT030 28/25 Q1007 NOSIG
ZGSZ,2025-05-08 17:00,ZGSZ 081700Z 10004MPS 9999 SCT040 28/25 Q1007 NOSIG
ZGSZ,2025-05-08 18:00,ZGSZ 081800Z 15003MPS CAVOK 28/25 Q1006 NOSIG
ZGSZ,2025-05-08 19:00,ZGSZ 081900Z 13002MPS CAVOK 27/25 Q1006 NOSIG
ZGSZ,2025-05-08 20:00,ZGSZ 082000Z 15004MPS CAVOK 27/25 Q1006 NOSIG
ZGSZ,2025-05-08 21:00,ZGSZ 082100Z 10004MPS CAVOK 28/25 Q1006 NOSIG
ZGSZ,2025-05-08 22:00,ZGSZ 082200Z 12003MPS 9999 FEW050 27/25 Q1006 NOSIG
ZGSZ,2025-05-08 23:00,ZGSZ 082300Z 06002MPS 040V140 CAVOK 28/25 Q1006 NOSIG
ZGSZ,2025-05-09 00:00,ZGSZ 090000Z VRB01MPS 9999 SCT033 29/25 Q1007 BECMG AT0140 30008G16MPS 2800 +TSRA SCT010 FEW020CB BKN025
ZGSZ,2025-05-09 01:00,ZGSZ 090100Z 26002MPS 9999 FEW026 29/25 Q1008 BECMG AT0220 30008G16MPS 1200 +TSRA
ZGSZ,2025-05-09 02:00,ZGSZ 090200Z 33011G18MPS 9999 -SHRA FEW015 FEW020CB 25/22 Q1010 BECMG AT0220 1200 +TSRA
ZGSZ,2025-05-09 03:00,ZGSZ 090300Z 34005MPS 1500 +TSRA FEW005 FEW020CB BKN050 23/22 Q1010 BECMG AT0420 5000 -SHRA
ZGSZ,2025-05-09 04:00,ZGSZ 090400Z VRB01MPS 9999 FEW015 FEW020CB 25/22 Q1009 NOSIG
ZGSZ,2025-05-09 05:00,ZGSZ 090500Z 02003MPS 360V060 9999 SCT020 27/22 Q1008 NOSIG
ZGSZ,2025-05-09 06:00,ZGSZ 090600Z 29002MPS 9999 SCT020 26/23 Q1007 NOSIG
ZGSZ,2025-05-09 07:00,ZGSZ 090700Z 30004MPS 9999 FEW020 26/23 Q1007 NOSIG
ZGSZ,2025-05-09 08:00,ZGSZ 090800Z 32004MPS 9999 FEW020 26/23 Q1007 NOSIG
ZGSZ,2025-05-09 09:00,ZGSZ 090900Z 31001MPS 9999 FEW046 26/23 Q1006 NOSIG
ZGSZ,2025-05-09 10:00,ZGSZ 091000Z 30003MPS CAVOK 26/23 Q1007 NOSIG
ZGSZ,2025-05-09 11:00,ZGSZ 091100Z 30004MPS 9999 FEW043 26/23 Q1008 NOSIG
ZGSZ,2025-05-09 12:00,ZGSZ 091200Z 31004MPS 9999 FEW020 BKN043 26/23 Q1009 NOSIG
ZGSZ,2025-05-09 13:00,ZGSZ 091300Z 32003MPS 9999 BKN050 26/23 Q1009 NOSIG
ZGSZ,2025-05-09 14:00,ZGSZ 091400Z 33003MPS CAVOK 25/22 Q1010 NOSIG
ZGSZ,2025-05-09 15:00,ZGSZ 091500Z 36002MPS 9999 FEW020 25/23 Q1010 NOSIG
ZGSZ,2025-05-09 16:00,ZGSZ 091600Z 03002MPS 360V060 CAVOK 25/22 Q1010 NOSIG
ZGSZ,2025-05-09 17:00,ZGSZ 091700Z VRB01MPS CAVOK 25/22 Q1009 NOSIG
ZGSZ,2025-05-09 18:00,ZGSZ 091800Z 02002MPS 360V060 CAVOK 25/22 Q1009 NOSIG
ZGSZ,2025-05-09 19:00,ZGSZ 091900Z VRB01MPS CAVOK 25/22 Q1009 NOSIG
ZGSZ,2025-05-09 20:00,ZGSZ 092000Z 35002MPS CAVOK 25/22 Q1008 NOSIG
ZGSZ,2025-05-09 21:00,ZGSZ 092100Z 35004MPS 260V040 CAVOK 25/22 Q1008 NOSIG
ZGSZ,2025-05-09 22:00,ZGSZ 092200Z 36004G10MPS 320V040 CAVOK 25/22 Q1009 NOSIG
ZGSZ,2025-05-09 23:00,ZGSZ 092300Z 36002MPS CAVOK 26/22 Q1009 NOSIG
ZGSZ,2025-05-10 00:00,ZGSZ 100000Z 04003MPS 9999 FEW050 26/22 Q1009 NOSIG
ZGSZ,2025-05-10 01:00,ZGSZ 100100Z 36003MPS 9999 FEW050 28/22 Q1010 NOSIG
ZGSZ,2025-05-10 02:00,ZGSZ 100200Z 01002MPS 340V040 CAVOK 28/22 Q1010 NOSIG
ZGSZ,2025-05-10 03:00,ZGSZ 100300Z VRB03MPS 9999 FEW026 29/23 Q1010 NOSIG
ZGSZ,2025-05-10 04:00,ZGSZ 100400Z 36003MPS 280V040 9999 -SHRA BKN040 30/22 Q1009 NOSIG
ZGSZ,2025-05-10 05:00,ZGSZ 100500Z VRB02MPS 9999 BKN040 30/22 Q1009 NOSIG
ZGSZ,2025-05-10 06:00,ZGSZ 100600Z 06002MPS 020V090 9999 BKN050 30/22 Q1008 NOSIG
ZGSZ,2025-05-10 07:00,ZGSZ 100700Z 26003MPS 9999 FEW033 29/24 Q1008 NOSIG
ZGSZ,2025-05-10 08:00,ZGSZ 100800Z 01004MPS 9999 SCT030 BKN053 30/22 Q1007 BECMG AT0950 TSRA
ZGSZ,2025-05-10 09:00,ZGSZ 100900Z 01005MPS 9999 -SHRA FEW020 FEW023CB BKN040 29/22 Q1007 BECMG AT1010 2000 +SHRA
ZGSZ,2025-05-10 10:00,ZGSZ 101000Z 10005MPS 050V120 8000 SHRA SCT020 FEW023CB BKN040 27/23 Q1008 BECMG AT1020 33005G12MPS 2000 +TSRA
ZGSZ,2025-05-10 11:00,ZGSZ 101100Z 02005MPS 7000 SHRA SCT015 FEW023CB BKN033 25/23 Q1009 BECMG AT1140 -SHRA
ZGSZ,2025-05-10 12:00,ZGSZ 101200Z 02005MPS 9000 -SHRA FEW016 BKN050 25/23 Q1010 NOSIG
ZGSZ,2025-05-10 13:00,ZGSZ 101300Z 02006MPS 9999 -SHRA FEW016 BKN050 24/22 Q1011 NOSIG
ZGSZ,2025-05-10 14:00,ZGSZ 101400Z 04006MPS 9999 -SHRA BKN050 24/21 Q1011 NOSIG
ZGSZ,2025-05-10 15:00,ZGSZ 101500Z 06004MPS 9999 BKN050 24/20 Q1011 NOSIG
ZGSZ,2025-05-10 16:00,ZGSZ 101600Z 03005MPS 9999 BKN050 23/19 Q1011 NOSIG
ZGSZ,2025-05-10 17:00,ZGSZ 101700Z 01005MPS 9999 -SHRA BKN050 22/19 Q1011 NOSIG
ZGSZ,2025-05-10 18:00,ZGSZ 101800Z 01005MPS 300V040 9999 -RA BKN053 22/19 Q1010 BECMG AT1950 RA
ZGSZ,2025-05-10 19:00,ZGSZ 101900Z 01006MPS 9999 -RA BKN053 22/19 Q1010 NOSIG
ZGSZ,2025-05-10 20:00,ZGSZ 102000Z 34003MPS 9999 -RA SCT053 22/19 Q1010 NOSIG
ZGSZ,2025-05-10 21:00,ZGSZ 102100Z 34003MPS 9999 -RA NSC 22/20 Q1010 NOSIG
ZGSZ,2025-05-10 22:00,ZGSZ 102200Z 36005MPS 270V030 9999 -RA NSC 21/18 Q1010 NOSIG
ZGSZ,2025-05-10 23:00,ZGSZ 102300Z 03006MPS 360V060 CAVOK 21/16 Q1010 NOSIG
ZGSZ,2025-05-11 00:00,ZGSZ 110000Z 03006MPS CAVOK 21/15 Q1011 NOSIG
ZGSZ,2025-05-11 01:00,ZGSZ 110100Z 03006MPS 360V060 CAVOK 23/14 Q1011 NOSIG
ZGSZ,2025-05-11 02:00,ZGSZ 110200Z 01006MPS 330V060 CAVOK 24/15 Q1012 NOSIG
ZGSZ,2025-05-11 03:00,ZGSZ 110300Z 01006MPS CAVOK 24/15 Q1012 NOSIG
ZGSZ,2025-05-11 04:00,ZGSZ 110400Z 01005MPS CAVOK 25/15 Q1011 NOSIG
ZGSZ,2025-05-11 05:00,ZGSZ 110500Z 02004MPS 340V050 CAVOK 27/15 Q1011 NOSIG
ZGSZ,2025-05-11 06:00,ZGSZ 110600Z 01005MPS CAVOK 27/13 Q1010 NOSIG
ZGSZ,2025-05-11 07:00,ZGSZ 110700Z 02005MPS 360V060 CAVOK 27/12 Q1010 NOSIG
ZGSZ,2025-05-11 08:00,ZGSZ 110800Z 02003MPS 350V060 CAVOK 26/13 Q1009 NOSIG
ZGSZ,2025-05-11 09:00,ZGSZ 110900Z 01006MPS CAVOK 27/11 Q1009 NOSIG
ZGSZ,2025-05-11 10:00,ZGSZ 111000Z 05003MPS CAVOK 26/12 Q1010 NOSIG
ZGSZ,2025-05-11 11:00,ZGSZ 111100Z 06003MPS CAVOK 25/13 Q1010 NOSIG
ZGSZ,2025-05-11 12:00,ZGSZ 111200Z 05002MPS 350V070 CAVOK 24/14 Q1010 NOSIG
ZGSZ,2025-05-11 13:00,ZGSZ 111300Z 04003MPS CAVOK 25/14 Q1010 NOSIG
ZGSZ,2025-05-11 14:00,ZGSZ 111400Z 07001MPS CAVOK 24/14 Q1011 NOSIG
ZGSZ,2025-05-11 15:00,ZGSZ 111500Z 07001MPS CAVOK 24/15 Q1011 NOSIG
ZGSZ,2025-05-11 16:00,ZGSZ 111600Z 04001MPS CAVOK 23/14 Q1011 NOSIG
ZGSZ,2025-05-11 17:00,ZGSZ 111700Z 06001MPS CAVOK 23/14 Q1010 NOSIG
ZGSZ,2025-05-11 18:00,ZGSZ 111800Z VRB01MPS CAVOK 23/15 Q1010 NOSIG
ZGSZ,2025-05-11 19:00,ZGSZ 111900Z 04001MPS CAVOK 22/14 Q1010 NOSIG
ZGSZ,2025-05-11 20:00,ZGSZ 112000Z 04002MPS CAVOK 22/14 Q1010 NOSIG
ZGSZ,2025-05-11 21:00,ZGSZ 112100Z 06001MPS CAVOK 21/15 Q1011 NOSIG
ZGSZ,2025-05-11 22:00,ZGSZ 112200Z 06002MPS CAVOK 21/15 Q1011 NOSIG
ZGSZ,2025-05-11 23:00,ZGSZ 112300Z 03002MPS CAVOK 22/15 Q1012 NOSIG
ZGSZ,2025-05-12 00:00,ZGSZ 120000Z 02003MPS CAVOK 24/15 Q1012 NOSIG
ZGSZ,2025-05-12 01:00,ZGSZ 120100Z 02004MPS CAVOK 26/13 Q1012 NOSIG
ZGSZ,2025-05-12 02:00,ZGSZ 120200Z 04002MPS 340V080 CAVOK 27/10 Q1012 NOSIG
ZGSZ,2025-05-12 03:00,ZGSZ 120300Z VRB02MPS CAVOK 28/11 Q1012 NOSIG
ZGSZ,2025-05-12 04:00,ZGSZ 120400Z 25004MPS 200V280 CAVOK 28/14 Q1011 NOSIG
ZGSZ,2025-05-12 05:00,ZGSZ 120500Z 27004MPS CAVOK 29/13 Q1011 NOSIG
ZGSZ,2025-05-12 06:00,ZGSZ 120600Z 26005MPS CAVOK 29/11 Q1010 NOSIG
ZGSZ,2025-05-12 07:00,ZGSZ 120700Z 27004MPS CAVOK 30/11 Q1009 NOSIG
ZGSZ,2025-05-12 08:00,ZGSZ 120800Z 24003MPS CAVOK 30/12 Q1009 NOSIG
ZGSZ,2025-05-12 09:00,ZGSZ 120900Z 19004MPS CAVOK 29/15 Q1008 NOSIG
ZGSZ,2025-05-12 10:00,ZGSZ 121000Z 19006MPS CAVOK 27/17 Q1008 BECMG AT1150 12004MPS
ZGSZ,2025-05-12 11:00,ZGSZ 121100Z 17005MPS CAVOK 26/17 Q1009 BECMG AT1250 11004MPS
ZGSZ,2025-05-12 12:00,ZGSZ 121200Z 17006MPS CAVOK 26/16 Q1010 BECMG AT1350 10004MPS
ZGSZ,2025-05-12 13:00,ZGSZ 121300Z 11005MPS CAVOK 25/13 Q1011 NOSIG
ZGSZ,2025-05-12 14:00,ZGSZ 121400Z 11004MPS CAVOK 25/14 Q1011 NOSIG
ZGSZ,2025-05-12 15:00,ZGSZ 121500Z 12005MPS CAVOK 24/15 Q1012 NOSIG
ZGSZ,2025-05-12 16:00,ZGSZ 121600Z 12004MPS CAVOK 24/17 Q1012 NOSIG
ZGSZ,2025-05-12 17:00,ZGSZ 121700Z 10003MPS 070V160 CAVOK 24/17 Q1011 NOSIG
ZGSZ,2025-05-12 18:00,ZGSZ 121800Z 10003MPS 060V150 CAVOK 24/17 Q1011 NOSIG
ZGSZ,2025-05-12 19:00,ZGSZ 121900Z VRB01MPS CAVOK 23/16 Q1011 NOSIG
ZGSZ,2025-05-12 20:00,ZGSZ 122000Z 08002MPS 040V140 CAVOK 22/17 Q1011 NOSIG
ZGSZ,2025-05-12 21:00,ZGSZ 122100Z 08002MPS 040V150 CAVOK 23/17 Q1012 NOSIG
ZGSZ,2025-05-12 22:00,ZGSZ 122200Z 06003MPS 350V120 CAVOK 23/18 Q1012 NOSIG
ZGSZ,2025-05-12 23:00,ZGSZ 122300Z 07002MPS 030V120 CAVOK 24/19 Q1013 NOSIG
ZGSZ,2025-05-13 00:00,ZGSZ 130000Z 08003MPS 050V120 CAVOK 25/18 Q1013 NOSIG
ZGSZ,2025-05-13 01:00,ZGSZ 130100Z VRB02MPS 9999 BKN029 26/19 Q1013 NOSIG
ZGSZ,2025-05-13 02:00,ZGSZ 130200Z VRB01MPS 9999 BKN031 27/19 Q1013 NOSIG
ZGSZ,2025-05-13 03:00,ZGSZ 130300Z 28003MPS 9999 BKN033 27/20 Q1013 NOSIG
ZGSZ,2025-05-13 04:00,ZGSZ 130400Z 27004MPS 9999 FEW030 28/20 Q1013 NOSIG
ZGSZ,2025-05-13 05:00,ZGSZ 130500Z 23003MPS 200V260 9999 FEW030 28/20 Q1013 NOSIG
ZGSZ,2025-05-13 06:00,ZGSZ 130600Z 22004MPS 9999 FEW030 SCT050 28/21 Q1012 NOSIG
ZGSZ,2025-05-13 07:00,ZGSZ 130700Z 20005MPS 9999 FEW024 29/22 Q1012 NOSIG
ZGSZ,2025-05-13 08:00,ZGSZ 130800Z 20005MPS 9999 FEW030 28/22 Q1011 NOSIG
ZGSZ,2025-05-13 09:00,ZGSZ 130900Z 21003MPS 180V240 9999 FEW030 28/22 Q1011 NOSIG
ZGSZ,2025-05-13 10:00,ZGSZ 131000Z 21004MPS 9999 FEW030 27/23 Q1010 NOSIG
ZGSZ,2025-05-13 11:00,ZGSZ 131100Z 19005MPS 9999 FEW020 27/23 Q1010 NOSIG
ZGSZ,2025-05-13 12:00,ZGSZ 131200Z 14005MPS 110V170 CAVOK 28/21 Q1011 NOSIG
ZGSZ,2025-05-13 13:00,ZGSZ 131300Z 16004MPS CAVOK 26/22 Q1011 NOSIG
ZGSZ,2025-05-13 14:00,ZGSZ 131400Z 10004MPS 070V130 CAVOK 26/20 Q1012 NOSIG
ZGSZ,2025-05-13 15:00,ZGSZ 131500Z 11004MPS CAVOK 26/20 Q1012 NOSIG
ZGSZ,2025-05-13 16:00,ZGSZ 131600Z 10004MPS CAVOK 25/20 Q1012 NOSIG
ZGSZ,2025-05-13 17:00,ZGSZ 131700Z 10003MPS 080V140 CAVOK 25/21 Q1011 NOSIG
ZGSZ,2025-05-13 18:00,ZGSZ 131800Z 10003MPS 9999 SCT020 25/21 Q1012 NOSIG
ZGSZ,2025-05-13 19:00,ZGSZ 131900Z 08002MPS 9999 SCT021 25/21 Q1012 NOSIG
ZGSZ,2025-05-13 20:00,ZGSZ 132000Z 08002MPS 9999 SCT030 25/22 Q1012 NOSIG
ZGSZ,2025-05-13 21:00,ZGSZ 132100Z 08002MPS 050V110 9999 SCT050 25/22 Q1012 NOSIG
ZGSZ,2025-05-13 22:00,ZGSZ 132200Z 09002MPS CAVOK 25/22 Q1012 NOSIG
ZGSZ,2025-05-13 23:00,ZGSZ 132300Z 09003MPS 050V110 CAVOK 26/22 Q1013 NOSIG
ZGSZ,2025-05-14 00:00,ZGSZ 140000Z 09004MPS CAVOK 27/23 Q1013 NOSIG
ZGSZ,2025-05-14 01:00,ZGSZ 140100Z 10003MPS 040V150 9999 BKN027 28/23 Q1014 NOSIG
ZGSZ,2025-05-14 02:00,ZGSZ 140200Z 23003MPS 9999 BKN027 28/23 Q1014 NOSIG
ZGSZ,2025-05-14 03:00,ZGSZ 140300Z 25003MPS 9999 SCT033 29/24 Q1014 NOSIG
ZGSZ,2025-05-14 04:00,ZGSZ 140400Z 24004MPS 9999 SCT033 29/24 Q1014 NOSIG
ZGSZ,2025-05-14 05:00,ZGSZ 140500Z 22004MPS 9999 SCT033 29/24 Q1013 NOSIG
ZGSZ,2025-05-14 06:00,ZGSZ 140600Z 20005MPS 9999 FEW030TCU FEW030 29/24 Q1012 NOSIG
ZGSZ,2025-05-14 07:00,ZGSZ 140700Z 21005MPS 9999 FEW030 30/24 Q1011 NOSIG
ZGSZ,2025-05-14 08:00,ZGSZ 140800Z 20005MPS 9999 FEW030 30/25 Q1011 NOSIG
ZGSZ,2025-05-14 09:00,ZGSZ 140900Z 20005MPS 9999 FEW026TCU SCT040 30/24 Q1010 NOSIG
ZGSZ,2025-05-14 10:00,ZGSZ 141000Z 18005MPS 9999 SCT050 29/24 Q1010 NOSIG
ZGSZ,2025-05-14 11:00,ZGSZ 141100Z 14003MPS 070V170 9999 FEW050 29/23 Q1010 NOSIG
ZGSZ,2025-05-14 12:00,ZGSZ 141200Z 11005MPS 9999 FEW050 29/22 Q1011 NOSIG
ZGSZ,2025-05-14 13:00,ZGSZ 141300Z 10004MPS 9999 FEW050 28/22 Q1012 NOSIG
ZGSZ,2025-05-14 14:00,ZGSZ 141400Z 11003MPS 080V140 9999 FEW050 28/21 Q1012 NOSIG
ZGSZ,2025-05-14 15:00,ZGSZ 141500Z 11004MPS 090V150 CAVOK 27/22 Q1012 NOSIG
ZGSZ,2025-05-14 16:00,ZGSZ 141600Z 10003MPS CAVOK 27/22 Q1012 NOSIG
ZGSZ,2025-05-14 17:00,ZGSZ 141700Z 09002MPS CAVOK 27/22 Q1012 NOSIG
ZGSZ,2025-05-14 18:00,ZGSZ 141800Z 10003MPS 080V140 CAVOK 27/22 Q1012 NOSIG
ZGSZ,2025-05-14 19:00,ZGSZ 141900Z 09002MPS 9999 BKN033 26/23 Q1012 NOSIG
ZGSZ,2025-05-14 20:00,ZGSZ 142000Z VRB01MPS 9999 BKN033 27/23 Q1012 NOSIG
ZGSZ,2025-05-14 21:00,ZGSZ 142100Z 09002MPS 050V120 9999 SCT033 26/23 Q1012 NOSIG
ZGSZ,2025-05-14 22:00,ZGSZ 142200Z 06002MPS 040V110 9999 SCT033 26/23 Q1012 NOSIG
ZGSZ,2025-05-14 23:00,ZGSZ 142300Z 06002MPS 040V120 9999 SCT033 27/23 Q1012 NOSIG
ZGSZ,2025-05-15 00:00,ZGSZ 150000Z 12003MPS 080V150 9999 FEW026 SCT033 29/23 Q1013 NOSIG
ZGSZ,2025-05-15 01:00,ZGSZ 150100Z 22002MPS 9999 SCT020 28/24 Q1013 NOSIG
ZGSZ,2025-05-15 02:00,ZGSZ 150200Z 23003MPS 9999 SCT033 28/24 Q1013 NOSIG
ZGSZ,2025-05-15 03:00,ZGSZ 150300Z 23003MPS 9999 FEW025 29/24 Q1013 NOSIG
ZGSZ,2025-05-15 04:00,ZGSZ 150400Z 23004MPS 9999 FEW025 29/24 Q1013 NOSIG
ZGSZ,2025-05-15 05:00,ZGSZ 150500Z 22004MPS 9999 FEW025 30/25 Q1012 NOSIG
ZGSZ,2025-05-15 06:00,ZGSZ 150600Z 21004MPS 9999 FEW025 30/25 Q1011 NOSIG
ZGSZ,2025-05-15 07:00,ZGSZ 150700Z 21005MPS 9999 FEW025 30/25 Q1011 NOSIG
ZGSZ,2025-05-15 08:00,ZGSZ 150800Z 20006MPS 9999 FEW025 FEW030TCU 30/25 Q1010 NOSIG
ZGSZ,2025-05-15 09:00,ZGSZ 150900Z 20006MPS 9999 FEW026 30/24 Q1009 NOSIG
ZGSZ,2025-05-15 10:00,ZGSZ 151000Z 20007MPS 9999 FEW026 29/25 Q1009 NOSIG
ZGSZ,2025-05-15 11:00,ZGSZ 151100Z 19005MPS 9999 FEW026 28/25 Q1010 NOSIG
ZGSZ,2025-05-15 12:00,ZGSZ 151200Z 17006MPS CAVOK 28/24 Q1011 NOSIG
ZGSZ,2025-05-15 13:00,ZGSZ 151300Z 17005MPS CAVOK 28/24 Q1011 NOSIG
ZGSZ,2025-05-15 14:00,ZGSZ 151400Z 16004MPS CAVOK 28/24 Q1012 NOSIG
ZGSZ,2025-05-15 15:00,ZGSZ 151500Z 11004MPS CAVOK 28/23 Q1013 NOSIG
ZGSZ,2025-05-15 16:00,ZGSZ 151600Z 10003MPS 070V150 CAVOK 28/23 Q1012 NOSIG
ZGSZ,2025-05-15 17:00,ZGSZ 151700Z 18003MPS 9999 FEW024 27/24 Q1012 NOSIG
ZGSZ,2025-05-15 18:00,ZGSZ 151800Z 16003MPS 9999 FEW023 27/23 Q1011 NOSIG
ZGSZ,2025-05-15 19:00,ZGSZ 151900Z 16003MPS 9999 FEW023 27/24 Q1011 NOSIG
ZGSZ,2025-05-15 20:00,ZGSZ 152000Z 15003MPS 9999 FEW023 26/23 Q1011 NOSIG
ZGSZ,2025-05-15 21:00,ZGSZ 152100Z 15003MPS 9999 FEW023 26/23 Q1011 NOSIG
ZGSZ,2025-05-15 22:00,ZGSZ 152200Z 08002MPS CAVOK 26/23 Q1011 NOSIG
ZGSZ,2025-05-15 23:00,ZGSZ 152300Z 08002MPS 050V130 CAVOK 28/23 Q1011 NOSIG
ZGSZ,2025-05-16 00:00,ZGSZ 160000Z 12003MPS 080V170 9999 FEW024 29/23 Q1012 NOSIG
ZGSZ,2025-05-16 01:00,ZGSZ 160100Z 16005MPS 9999 SCT026 30/24 Q1012 NOSIG
ZGSZ,2025-05-16 02:00,ZGSZ 160200Z 20004MPS 9999 FEW025TCU SCT027 29/24 Q1012 NOSIG
ZGSZ,2025-05-16 03:00,ZGSZ 160300Z 19005MPS 9999 FEW025TCU SCT027 30/25 Q1012 NOSIG
ZGSZ,2025-05-16 04:00,ZGSZ 160400Z 19006MPS 9999 FEW025TCU SCT027 30/25 Q1011 NOSIG
ZGSZ,2025-05-16 05:00,ZGSZ 160500Z 20005MPS 9999 FEW025TCU SCT027 29/25 Q1011 NOSIG
ZGSZ,2025-05-16 06:00,ZGSZ 160600Z 20005MPS 9999 FEW025TCU SCT027 29/25 Q1010 NOSIG
ZGSZ,2025-05-16 07:00,ZGSZ 160700Z 18004MPS 9999 -SHRA FEW025TCU SCT030 29/25 Q1009 NOSIG
ZGSZ,2025-05-16 08:00,ZGSZ 160800Z 19004MPS 9999 -SHRA FEW025TCU 28/25 Q1009 NOSIG
ZGSZ,2025-05-16 09:00,ZGSZ 160900Z 19004MPS 9999 -SHRA FEW025TCU BKN053 28/25 Q1009 NOSIG
ZGSZ,2025-05-16 10:00,ZGSZ 161000Z 19003MPS 9999 -SHRA FEW030TCU SCT053 28/25 Q1009 NOSIG
ZGSZ,2025-05-16 11:00,ZGSZ 161100Z 21003MPS 9999 -SHRA FEW030TCU BKN053 28/25 Q1009 NOSIG
ZGSZ,2025-05-16 12:00,ZGSZ 161200Z 20004MPS 9999 BKN053 28/25 Q1010 NOSIG
ZGSZ,2025-05-16 13:00,ZGSZ 161300Z 17003MPS CAVOK 28/25 Q1010 NOSIG
ZGSZ,2025-05-16 14:00,ZGSZ 161400Z 18004MPS CAVOK 28/25 Q1011 NOSIG
ZGSZ,2025-05-16 15:00,ZGSZ 161500Z 16003MPS CAVOK 27/24 Q1011 NOSIG
ZGSZ,2025-05-16 16:00,ZGSZ 161600Z 18002MPS CAVOK 28/24 Q1011 NOSIG
ZGSZ,2025-05-16 17:00,ZGSZ 161700Z 17002MPS CAVOK 27/25 Q1010 NOSIG
ZGSZ,2025-05-16 18:00,ZGSZ 161800Z 19003MPS 9999 SCT026 27/25 Q1010 NOSIG
ZGSZ,2025-05-16 19:00,ZGSZ 161900Z 17004MPS CAVOK 27/25 Q1010 NOSIG
ZGSZ,2025-05-16 20:00,ZGSZ 162000Z 17004MPS CAVOK 27/25 Q1010 NOSIG
ZGSZ,2025-05-16 21:00,ZGSZ 162100Z 16003MPS CAVOK 27/25 Q1010 NOSIG
ZGSZ,2025-05-16 22:00,ZGSZ 162200Z 17003MPS CAVOK 27/24 Q1010 NOSIG
ZGSZ,2025-05-16 23:00,ZGSZ 162300Z 15003MPS CAVOK 27/24 Q1011 NOSIG
ZGSZ,2025-05-17 00:00,ZGSZ 170000Z 17003MPS 9999 FEW033 28/24 Q1011 NOSIG
ZGSZ,2025-05-17 01:00,ZGSZ 170100Z 18003MPS 150V220 9999 FEW020 29/25 Q1012 NOSIG
ZGSZ,2025-05-17 02:00,ZGSZ 170200Z 18004MPS 9999 SCT020 30/25 Q1012 NOSIG
ZGSZ,2025-05-17 03:00,ZGSZ 170300Z 19004MPS 150V210 9999 SCT020 29/25 Q1012 NOSIG
ZGSZ,2025-05-17 04:00,ZGSZ 170400Z 18005MPS 9999 SCT020 FEW025TCU 30/25 Q1011 NOSIG
ZGSZ,2025-05-17 05:00,ZGSZ 170500Z 19005MPS 9999 FEW020 FEW025TCU 31/25 Q1011 NOSIG
ZGSZ,2025-05-17 06:00,ZGSZ 170600Z 18005MPS 9999 FEW020 FEW025CB 29/25 Q1010 NOSIG
ZGSZ,2025-05-17 07:00,ZGSZ 170700Z 19005MPS 9999 FEW020 FEW025CB 29/25 Q1010 NOSIG
ZGSZ,2025-05-17 08:00,ZGSZ 170800Z 18005MPS 9999 FEW020 BKN053 29/25 Q1009 NOSIG
ZGSZ,2025-05-17 09:00,ZGSZ 170900Z 19004MPS 9999 FEW020 BKN053 28/25 Q1009 NOSIG
ZGSZ,2025-05-17 10:00,ZGSZ 171000Z 20003MPS 9999 SCT040 28/25 Q1009 NOSIG
ZGSZ,2025-05-17 11:00,ZGSZ 171100Z 18004MPS 9999 SCT040 28/25 Q1009 NOSIG
ZGSZ,2025-05-17 12:00,ZGSZ 171200Z 17004MPS CAVOK 28/25 Q1009 NOSIG
ZGSZ,2025-05-17 13:00,ZGSZ 171300Z 16004MPS 9999 FEW030 28/25 Q1010 NOSIG
ZGSZ,2025-05-17 14:00,ZGSZ 171400Z 17004MPS 9999 FEW030 28/25 Q1010 NOSIG
ZGSZ,2025-05-17 15:00,ZGSZ 171500Z 17003MPS 9999 SCT030 28/25 Q1011 NOSIG
ZGSZ,2025-05-17 16:00,ZGSZ 171600Z 17005MPS 9999 SCT033 28/25 Q1011 NOSIG
ZGSZ,2025-05-17 17:00,ZGSZ 171700Z 16003MPS 9999 SCT030 28/25 Q1011 NOSIG
ZGSZ,2025-05-17 18:00,ZGSZ 171800Z 17004MPS CAVOK 28/25 Q1011 NOSIG
ZGSZ,2025-05-17 19:00,ZGSZ 171900Z 16004MPS 9999 -SHRA FEW050 27/25 Q1010 NOSIG
ZGSZ,2025-05-17 20:00,ZGSZ 172000Z 16004MPS 9999 -SHRA FEW050 27/25 Q1010 NOSIG
ZGSZ,2025-05-17 21:00,ZGSZ 172100Z 16004MPS CAVOK 27/25 Q1010 NOSIG
ZGSZ,2025-05-17 22:00,ZGSZ 172200Z 16003MPS CAVOK 27/25 Q1010 NOSIG
ZGSZ,2025-05-17 23:00,ZGSZ 172300Z 16004MPS CAVOK 28/25 Q1010 NOSIG
ZGSZ,2025-05-18 00:00,ZGSZ 180000Z 17005MPS 9999 FEW020 SCT050 28/25 Q1011 NOSIG
ZGSZ,2025-05-18 01:00,ZGSZ 180100Z 17005MPS 9999 SCT030 29/25 Q1011 NOSIG
ZGSZ,2025-05-18 02:00,ZGSZ 180200Z 17004MPS 9999 SCT030 29/26 Q1012 NOSIG
ZGSZ,2025-05-18 03:00,ZGSZ 180300Z 17005MPS 9999 SCT030 30/26 Q1011 NOSIG
ZGSZ,2025-05-18 04:00,ZGSZ 180400Z 17005MPS 9999 SCT030 30/26 Q1011 NOSIG
ZGSZ,2025-05-18 05:00,ZGSZ 180500Z 18006MPS 9999 SCT030 30/26 Q1010 NOSIG
ZGSZ,2025-05-18 06:00,ZGSZ 180600Z 17007MPS 9999 -SHRA FEW026 FEW033TCU 30/26 Q1009 BECMG AT0755 SHRA
ZGSZ,2025-05-18 07:00,ZGSZ 180700Z 18007MPS 9999 FEW026 FEW033TCU 30/26 Q1008 BECMG AT0740 SHRA
ZGSZ,2025-05-18 08:00,ZGSZ 180800Z 18007MPS 9999 -SHRA FEW026 FEW033TCU 29/26 Q1009 NOSIG
ZGSZ,2025-05-18 09:00,ZGSZ 180900Z 18006MPS 9999 -SHRA SCT026 FEW033CB 29/26 Q1008 BECMG AT0920 SHRA
ZGSZ,2025-05-18 10:00,ZGSZ 181000Z VRB01MPS 9999 SCT013 FEW033CB 28/25 Q1008 RESHRA BECMG AT1130 18005MPS
ZGSZ,2025-05-18 11:00,ZGSZ 181100Z 18002MPS 140V220 9999 SCT023 28/26 Q1008 NOSIG
ZGSZ,2025-05-18 12:00,ZGSZ 181200Z 17003MPS CAVOK 28/26 Q1009 NOSIG
ZGSZ,2025-05-18 13:00,ZGSZ 181300Z 17004MPS CAVOK 28/26 Q1009 NOSIG
ZGSZ,2025-05-18 14:00,ZGSZ 181400Z 17004MPS 9999 FEW025 28/26 Q1010 NOSIG
ZGSZ,2025-05-18 15:00,ZGSZ 181500Z 18005MPS 9999 FEW040 28/26 Q1010 NOSIG
ZGSZ,2025-05-18 16:00,ZGSZ 181600Z 19005MPS 9999 FEW023 28/26 Q1010 NOSIG
ZGSZ,2025-05-18 17:00,ZGSZ 181700Z 18004MPS 9999 FEW040 28/26 Q1009 NOSIG
ZGSZ,2025-05-18 18:00,ZGSZ 181800Z 17004MPS CAVOK 28/26 Q1008 NOSIG
ZGSZ,2025-05-18 19:00,ZGSZ 181900Z 17004MPS 9999 FEW020 28/26 Q1008 NOSIG
ZGSZ,2025-05-18 20:00,ZGSZ 182000Z 18004MPS 9999 FEW020 28/26 Q1008 NOSIG
ZGSZ,2025-05-18 21:00,ZGSZ 182100Z 17003MPS 9999 FEW020 27/26 Q1008 NOSIG
ZGSZ,2025-05-18 22:00,ZGSZ 182200Z 17004MPS 9999 FEW012 BKN040 28/26 Q1008 NOSIG
ZGSZ,2025-05-18 23:00,ZGSZ 182300Z 17005MPS 9999 FEW016 28/26 Q1009 NOSIG
ZGSZ,2025-05-19 00:00,ZGSZ 190000Z 18004MPS 9999 FEW020 28/26 Q1009 NOSIG
ZGSZ,2025-05-19 01:00,ZGSZ 190100Z 17004MPS 9999 BKN030 28/27 Q1010 NOSIG
ZGSZ,2025-05-19 02:00,ZGSZ 190200Z 17005MPS 9999 SCT030 29/27 Q1010 NOSIG
ZGSZ,2025-05-19 03:00,ZGSZ 190300Z 18005MPS 9999 FEW030 29/26 Q1010 NOSIG
ZGSZ,2025-05-19 04:00,ZGSZ 190400Z 17006MPS 9999 FEW020 29/26 Q1009 NOSIG
ZGSZ,2025-05-19 05:00,ZGSZ 190500Z 18006MPS 9999 FEW020 30/27 Q1009 BECMG AT0630 SHRA
ZGSZ,2025-05-19 06:00,ZGSZ 190600Z 18007MPS 9999 FEW020 FEW026CB 30/26 Q1008 BECMG AT0620 TSRA
ZGSZ,2025-05-19 07:00,ZGSZ 190700Z 17007MPS 9999 -SHRA FEW020 FEW026CB 29/26 Q1007 NOSIG
ZGSZ,2025-05-19 08:00,ZGSZ 190800Z 18005MPS 9999 -SHRA FEW020 FEW026CB 28/26 Q1007 NOSIG
ZGSZ,2025-05-19 09:00,ZGSZ 190900Z 17004MPS 9999 SCT040 28/27 Q1007 NOSIG
ZGSZ,2025-05-19 10:00,ZGSZ 191000Z 17005MPS 9999 SCT040 28/26 Q1007 NOSIG
ZGSZ,2025-05-19 11:00,ZGSZ 191100Z 15004MPS 9999 SCT040 28/25 Q1007 NOSIG
ZGSZ,2025-05-19 12:00,ZGSZ 191200Z 16004MPS 9999 SCT040 28/25 Q1008 NOSIG
ZGSZ,2025-05-19 13:00,ZGSZ 191300Z 16004MPS CAVOK 28/25 Q1008 NOSIG
ZGSZ,2025-05-19 14:00,ZGSZ 191400Z 16004MPS CAVOK 28/26 Q1009 NOSIG
ZGSZ,2025-05-19 15:00,ZGSZ 191500Z 16004MPS CAVOK 28/26 Q1009 NOSIG
ZGSZ,2025-05-19 16:00,ZGSZ 191600Z 17004MPS 9999 SCT050 28/26 Q1009 NOSIG
ZGSZ,2025-05-19 17:00,ZGSZ 191700Z 17004MPS 9999 FEW020 BKN040 28/26 Q1009 NOSIG
ZGSZ,2025-05-19 18:00,ZGSZ 191800Z 16004MPS 9999 FEW020 BKN040 28/26 Q1008 NOSIG
ZGSZ,2025-05-19 19:00,ZGSZ 191900Z 17004MPS CAVOK 28/27 Q1008 NOSIG
ZGSZ,2025-05-19 20:00,ZGSZ 192000Z 17004MPS CAVOK 28/26 Q1008 NOSIG
ZGSZ,2025-05-19 21:00,ZGSZ 192100Z 17005MPS 9999 FEW020 BKN050 28/26 Q1008 NOSIG
ZGSZ,2025-05-19 22:00,ZGSZ 192200Z 16005MPS 9999 SCT020 28/26 Q1008 NOSIG
ZGSZ,2025-05-19 23:00,ZGSZ 192300Z 17005MPS 9999 SCT020 28/26 Q1009 NOSIG
ZGSZ,2025-05-20 00:00,ZGSZ 200000Z 16005MPS 9999 FEW020 29/26 Q1009 NOSIG
ZGSZ,2025-05-20 01:00,ZGSZ 200100Z 17007MPS 9999 FEW020 29/26 Q1010 NOSIG
ZGSZ,2025-05-20 02:00,ZGSZ 200200Z 17006MPS 9999 SCT020 30/26 Q1010 NOSIG
ZGSZ,2025-05-20 03:00,ZGSZ 200300Z 18006MPS 9999 SCT020 FEW026TCU 30/27 Q1010 NOSIG
ZGSZ,2025-05-20 04:00,ZGSZ 200400Z 18007MPS 9999 SCT020 30/27 Q1009 NOSIG
ZGSZ,2025-05-20 05:00,ZGSZ 200500Z 18007MPS 9999 SCT020 29/27 Q1009 NOSIG
ZGSZ,2025-05-20 06:00,ZGSZ 200600Z 17006MPS 9999 -RA SCT020 29/26 Q1008 NOSIG
ZGSZ,2025-05-20 07:00,ZGSZ 200700Z 17006MPS 9999 SCT020 30/26 Q1008 NOSIG
ZGSZ,2025-05-20 08:00,ZGSZ 200800Z 17005MPS 9999 SCT020 30/26 Q1008 NOSIG
ZGSZ,2025-05-20 09:00,ZGSZ 200900Z 16006MPS 9999 FEW020 30/26 Q1007 NOSIG
ZGSZ,2025-05-20 10:00,ZGSZ 201000Z 16006MPS 9999 FEW020 29/26 Q1008 NOSIG
ZGSZ,2025-05-20 11:00,ZGSZ 201100Z 17006MPS 9999 FEW020 29/26 Q1008 NOSIG
ZGSZ,2025-05-20 12:00,ZGSZ 201200Z 18005MPS CAVOK 29/26 Q1008 NOSIG
ZGSZ,2025-05-20 13:00,ZGSZ 201300Z 17006MPS CAVOK 29/26 Q1009 NOSIG
ZGSZ,2025-05-20 14:00,ZGSZ 201400Z 17005MPS CAVOK 29/27 Q1009 NOSIG
ZGSZ,2025-05-20 15:00,ZGSZ 201500Z 17005MPS CAVOK 28/27 Q1009 NOSIG
ZGSZ,2025-05-20 16:00,ZGSZ 201600Z 17006MPS CAVOK 28/26 Q1009 NOSIG
ZGSZ,2025-05-20 17:00,ZGSZ 201700Z 18005MPS CAVOK 28/26 Q1009 NOSIG
ZGSZ,2025-05-20 18:00,ZGSZ 201800Z 18004MPS CAVOK 28/26 Q1008 NOSIG
ZGSZ,2025-05-20 19:00,ZGSZ 201900Z 17004MPS CAVOK 28/27 Q1008 NOSIG
ZGSZ,2025-05-20 20:00,ZGSZ 202000Z 17004MPS CAVOK 28/26 Q1008 NOSIG
ZGSZ,2025-05-20 21:00,ZGSZ 202100Z 17004MPS CAVOK 28/26 Q1008 NOSIG
ZGSZ,2025-05-20 22:00,ZGSZ 202200Z 15004MPS 9999 SCT033 28/26 Q1009 NOSIG
ZGSZ,2025-05-20 23:00,ZGSZ 202300Z 16004MPS 9999 FEW030 28/26 Q1009 NOSIG
ZGSZ,2025-05-21 00:00,ZGSZ 210000Z 16005MPS 9999 FEW030 29/26 Q1010 NOSIG
ZGSZ,2025-05-21 01:00,ZGSZ 210100Z 16005MPS 9999 FEW030 30/26 Q1011 NOSIG
ZGSZ,2025-05-21 02:00,ZGSZ 210200Z 17005MPS 9999 FEW030 31/26 Q1011 NOSIG
ZGSZ,2025-05-21 03:00,ZGSZ 210300Z 18007MPS 9999 FEW030 31/26 Q1010 NOSIG
ZGSZ,2025-05-21 04:00,ZGSZ 210400Z 18006MPS 9999 FEW020 31/26 Q1010 NOSIG
ZGSZ,2025-05-21 05:00,ZGSZ 210500Z 17007MPS 9999 FEW020 32/27 Q1009 NOSIG
ZGSZ,2025-05-21 06:00,ZGSZ 210600Z 17007MPS 9999 FEW020 32/27 Q1008 NOSIG
ZGSZ,2025-05-21 07:00,ZGSZ 210700Z 17008MPS 9999 FEW020 31/26 Q1007 NOSIG
ZGSZ,2025-05-21 08:00,ZGSZ 210800Z 17008MPS 9999 FEW020 30/27 Q1007 NOSIG
ZGSZ,2025-05-21 09:00,ZGSZ 210900Z 16007MPS 9999 FEW020 30/26 Q1007 NOSIG
ZGSZ,2025-05-21 10:00,ZGSZ 211000Z 16007MPS 9999 FEW020 30/26 Q1008 NOSIG
ZGSZ,2025-05-21 11:00,ZGSZ 211100Z 17006MPS 9999 FEW020 29/27 Q1008 NOSIG
ZGSZ,2025-05-21 12:00,ZGSZ 211200Z 16005MPS 9999 FEW020 29/26 Q1008 NOSIG
ZGSZ,2025-05-21 13:00,ZGSZ 211300Z 17006MPS CAVOK 29/26 Q1008 NOSIG
ZGSZ,2025-05-21 14:00,ZGSZ 211400Z 17005MPS CAVOK 29/27 Q1008 NOSIG
ZGSZ,2025-05-21 15:00,ZGSZ 211500Z 18004MPS 9999 FEW020 29/27 Q1009 NOSIG
ZGSZ,2025-05-21 16:00,ZGSZ 211600Z 17003MPS 9999 FEW020 29/27 Q1009 NOSIG
ZGSZ,2025-05-21 17:00,ZGSZ 211700Z 17004MPS 9999 FEW020 29/27 Q1008 NOSIG
ZGSZ,2025-05-21 18:00,ZGSZ 211800Z 18003MPS 9999 FEW020 29/27 Q1008 NOSIG
ZGSZ,2025-05-21 19:00,ZGSZ 211900Z 18003MPS 9999 FEW020 28/26 Q1008 NOSIG
ZGSZ,2025-05-21 20:00,ZGSZ 212000Z 17003MPS 9999 FEW020 28/27 Q1007 NOSIG
ZGSZ,2025-05-21 21:00,ZGSZ 212100Z 17004MPS 9999 SCT050 28/26 Q1007 NOSIG
ZGSZ,2025-05-21 22:00,ZGSZ 212200Z 17004MPS 9999 FEW040 28/27 Q1008 NOSIG
ZGSZ,2025-05-21 23:00,ZGSZ 212300Z 16005MPS 9999 FEW030 29/26 Q1008 NOSIG
ZGSZ,2025-05-22 00:00,ZGSZ 220000Z 17005MPS 9999 SCT030 29/26 Q1009 NOSIG
ZGSZ,2025-05-22 01:00,ZGSZ 220100Z 18004MPS 9999 FEW030 30/27 Q1009 NOSIG
ZGSZ,2025-05-22 02:00,ZGSZ 220200Z 17005MPS 9999 FEW030 31/26 Q1009 NOSIG
ZGSZ,2025-05-22 03:00,ZGSZ 220300Z 17006MPS 9999 FEW030 31/26 Q1008 NOSIG
ZGSZ,2025-05-22 04:00,ZGSZ 220400Z 18006MPS 9999 SCT030 31/26 Q1008 NOSIG
ZGSZ,2025-05-22 05:00,ZGSZ 220500Z 17007MPS 9999 SCT030 32/26 Q1007 NOSIG
ZGSZ,2025-05-22 06:00,ZGSZ 220600Z 18008MPS 9999 FEW030 31/26 Q1006 NOSIG
ZGSZ,2025-05-22 07:00,ZGSZ 220700Z 17007MPS 9999 FEW030 31/26 Q1005 NOSIG
ZGSZ,2025-05-22 08:00,ZGSZ 220800Z 17007MPS 9999 FEW030 31/26 Q1005 NOSIG
ZGSZ,2025-05-22 09:00,ZGSZ 220900Z 17007MPS 9999 FEW026 30/26 Q1004 NOSIG
ZGSZ,2025-05-22 10:00,ZGSZ 221000Z 17008MPS CAVOK 30/26 Q1004 NOSIG
ZGSZ,2025-05-22 11:00,ZGSZ 221100Z 18007MPS CAVOK 30/26 Q1005 NOSIG
ZGSZ,2025-05-22 12:00,ZGSZ 221200Z 18006MPS CAVOK 29/26 Q1006 NOSIG
ZGSZ,2025-05-22 13:00,ZGSZ 221300Z 18006MPS CAVOK 29/26 Q1006 NOSIG
ZGSZ,2025-05-22 14:00,ZGSZ 221400Z 18005MPS CAVOK 29/27 Q1007 NOSIG
ZGSZ,2025-05-22 15:00,ZGSZ 221500Z 18006MPS CAVOK 29/27 Q1007 NOSIG
ZGSZ,2025-05-22 16:00,ZGSZ 221600Z 18004MPS CAVOK 29/27 Q1006 NOSIG
ZGSZ,2025-05-22 17:00,ZGSZ 221700Z 18006MPS CAVOK 29/27 Q1006 NOSIG
ZGSZ,2025-05-22 18:00,ZGSZ 221800Z 18006MPS CAVOK 29/27 Q1005 NOSIG
ZGSZ,2025-05-22 19:00,ZGSZ 221900Z 18005MPS CAVOK 29/27 Q1005 NOSIG
ZGSZ,2025-05-22 20:00,ZGSZ 222000Z 18005MPS 9999 FEW026 28/27 Q1005 NOSIG
ZGSZ,2025-05-22 21:00,ZGSZ 222100Z 19003MPS CAVOK 28/27 Q1005 NOSIG
ZGSZ,2025-05-22 22:00,ZGSZ 222200Z 18003MPS 9999 FEW023 28/27 Q1006 NOSIG
ZGSZ,2025-05-22 23:00,ZGSZ 222300Z 18004MPS 9999 FEW023 29/27 Q1006 NOSIG
ZGSZ,2025-05-23 00:00,ZGSZ 230000Z 18005MPS 9999 FEW020 30/27 Q1007 NOSIG
ZGSZ,2025-05-23 01:00,ZGSZ 230100Z 18005MPS 9999 FEW020 FEW023TCU 30/27 Q1007 NOSIG
ZGSZ,2025-05-23 02:00,ZGSZ 230200Z 18006MPS 9999 FEW020 FEW023TCU 30/27 Q1008 NOSIG
ZGSZ,2025-05-23 03:00,ZGSZ 230300Z 18006MPS 9999 FEW020 FEW023TCU 31/27 Q1007 NOSIG
ZGSZ,2025-05-23 04:00,ZGSZ 230400Z 18007MPS 9999 FEW020 FEW023CB 32/26 Q1007 NOSIG
ZGSZ,2025-05-23 05:00,ZGSZ 230500Z 18006MPS 9999 FEW020 FEW023CB 32/27 Q1005 NOSIG
ZGSZ,2025-05-23 06:00,ZGSZ 230600Z 27004MPS 9999 FEW020 FEW023CB 30/26 Q1005 NOSIG
ZGSZ,2025-05-23 07:00,ZGSZ 230700Z 19005MPS 9999 FEW020 30/27 Q1005 NOSIG
ZGSZ,2025-05-23 08:00,ZGSZ 230800Z 25002MPS 220V280 9999 FEW020 30/26 Q1005 NOSIG
ZGSZ,2025-05-23 09:00,ZGSZ 230900Z VRB01MPS 9999 FEW020 31/26 Q1005 NOSIG
ZGSZ,2025-05-23 10:00,ZGSZ 231000Z 19003MPS 9999 FEW020 FEW026CB SCT033 30/26 Q1005 BECMG AT1020 35005MPS TSRA
ZGSZ,2025-05-23 11:00,ZGSZ 231100Z 23007MPS 4000 -TSRA SCT015 FEW020CB BKN033 27/24 Q1007 RESHRA BECMG AT1230 SHRA
ZGSZ,2025-05-23 12:00,ZGSZ 231200Z VRB01MPS 9999 -TSRA FEW026CB 26/24 Q1008 BECMG AT1230 -SHRA
ZGSZ,2025-05-23 13:00,ZGSZ 231300Z 18002MPS 9999 -SHRA FEW026CB 26/25 Q1008 NOSIG
ZGSZ,2025-05-23 14:00,ZGSZ 231400Z 17001MPS 9999 -SHRA FEW026CB 26/25 Q1008 NOSIG
ZGSZ,2025-05-23 15:00,ZGSZ 231500Z 20002MPS CAVOK 27/25 Q1009 NOSIG
ZGSZ,2025-05-23 16:00,ZGSZ 231600Z 27002MPS CAVOK 27/25 Q1009 NOSIG
ZGSZ,2025-05-23 17:00,ZGSZ 231700Z 32002MPS 9999 FEW030 27/25 Q1008 NOSIG
ZGSZ,2025-05-23 18:00,ZGSZ 231800Z 34003MPS 9999 -SHRA FEW016 SCT026 27/24 Q1008 NOSIG
ZGSZ,2025-05-23 19:00,ZGSZ 231900Z 01002MPS 9999 -SHRA BKN036 27/24 Q1008 NOSIG
ZGSZ,2025-05-23 20:00,ZGSZ 232000Z 33003MPS 9999 BKN040 26/24 Q1008 NOSIG
ZGSZ,2025-05-23 21:00,ZGSZ 232100Z 35003MPS 9999 BKN040 27/24 Q1008 NOSIG
ZGSZ,2025-05-23 22:00,ZGSZ 232200Z 01002MPS 260V040 9999 BKN040 27/24 Q1008 NOSIG
ZGSZ,2025-05-23 23:00,ZGSZ 232300Z 01004MPS 9999 SCT030 28/24 Q1009 NOSIG
ZGSZ,2025-05-24 00:00,ZGSZ 240000Z 04005MPS 9999 FEW030 SCT040 29/23 Q1010 NOSIG
ZGSZ,2025-05-24 01:00,ZGSZ 240100Z 02004MPS 340V060 9999 SCT020 BKN050 29/23 Q1010 NOSIG
ZGSZ,2025-05-24 02:00,ZGSZ 240200Z 01005MPS 9999 FEW020 BKN040 29/23 Q1010 NOSIG
ZGSZ,2025-05-24 03:00,ZGSZ 240300Z 04005MPS 360V060 9999 FEW020 BKN040 30/23 Q1010 NOSIG
ZGSZ,2025-05-24 04:00,ZGSZ 240400Z 01006MPS 9999 FEW020 BKN040 30/23 Q1010 NOSIG
ZGSZ,2025-05-24 05:00,ZGSZ 240500Z 36005MPS 340V040 9999 FEW020 BKN040 30/23 Q1010 NOSIG
ZGSZ,2025-05-24 06:00,ZGSZ 240600Z 01006MPS 9999 FEW020 BKN036 29/22 Q1009 NOSIG
ZGSZ,2025-05-24 07:00,ZGSZ 240700Z 34007MPS 8000 -SHRA BKN040 25/23 Q1010 NOSIG
ZGSZ,2025-05-24 08:00,ZGSZ 240800Z 01007MPS 9999 BKN040 25/23 Q1009 NOSIG
ZGSZ,2025-05-24 09:00,ZGSZ 240900Z 02005MPS 9999 BKN040 26/23 Q1010 NOSIG
ZGSZ,2025-05-24 10:00,ZGSZ 241000Z 34005MPS 310V010 9999 -SHRA FEW020 BKN046 26/22 Q1010 NOSIG
ZGSZ,2025-05-24 11:00,ZGSZ 241100Z 35003MPS 9999 -SHRA FEW020 BKN046 25/23 Q1011 NOSIG
ZGSZ,2025-05-24 12:00,ZGSZ 241200Z 04004MPS 9999 BKN050 26/23 Q1011 NOSIG
ZGSZ,2025-05-24 13:00,ZGSZ 241300Z 01003MPS CAVOK 26/22 Q1012 NOSIG
ZGSZ,2025-05-24 14:00,ZGSZ 241400Z 02006MPS CAVOK 26/19 Q1013 NOSIG
ZGSZ,2025-05-24 15:00,ZGSZ 241500Z 02004MPS CAVOK 26/19 Q1013 NOSIG
ZGSZ,2025-05-24 16:00,ZGSZ 241600Z 04005MPS CAVOK 25/19 Q1013 NOSIG
ZGSZ,2025-05-24 17:00,ZGSZ 241700Z 04005MPS CAVOK 25/19 Q1013 NOSIG
ZGSZ,2025-05-24 18:00,ZGSZ 241800Z 02004MPS 330V040 CAVOK 24/18 Q1012 NOSIG
ZGSZ,2025-05-24 19:00,ZGSZ 241900Z 04004MPS 9999 FEW043 25/18 Q1012 NOSIG
ZGSZ,2025-05-24 20:00,ZGSZ 242000Z 02004MPS 9999 BKN043 25/18 Q1012 NOSIG
ZGSZ,2025-05-24 21:00,ZGSZ 242100Z 04004MPS 9999 BKN053 24/17 Q1012 NOSIG
ZGSZ,2025-05-24 22:00,ZGSZ 242200Z 03005G10MPS 290V060 9999 BKN040 25/16 Q1013 NOSIG
ZGSZ,2025-05-24 23:00,ZGSZ 242300Z 03004MPS 9999 BKN040 25/16 Q1013 NOSIG
ZGSZ,2025-05-25 00:00,ZGSZ 250000Z 03005MPS 9999 BKN033 25/17 Q1014 NOSIG
ZGSZ,2025-05-25 01:00,ZGSZ 250100Z 03005MPS 9999 OVC033 25/17 Q1014 NOSIG
ZGSZ,2025-05-25 02:00,ZGSZ 250200Z 03005MPS 9999 OVC033 26/17 Q1015 NOSIG
ZGSZ,2025-05-25 03:00,ZGSZ 250300Z 02006MPS 9999 OVC040 25/17 Q1015 NOSIG
ZGSZ,2025-05-25 04:00,ZGSZ 250400Z 04005MPS 9999 -SHRA OVC033 25/17 Q1015 NOSIG
ZGSZ,2025-05-25 05:00,ZGSZ 250500Z 05005MPS 9999 OVC040 26/17 Q1014 NOSIG
ZGSZ,2025-05-25 06:00,ZGSZ 250600Z 04005MPS 9999 OVC043 26/16 Q1014 NOSIG
ZGSZ,2025-05-25 07:00,ZGSZ 250700Z 04004MPS 9999 OVC040 26/16 Q1014 NOSIG
ZGSZ,2025-05-25 08:00,ZGSZ 250800Z 04004MPS 9999 OVC040 26/16 Q1014 NOSIG
ZGSZ,2025-05-25 09:00,ZGSZ 250900Z 04004MPS 9999 OVC050 26/17 Q1013 NOSIG
ZGSZ,2025-05-25 10:00,ZGSZ 251000Z 04005MPS 9999 OVC050 25/17 Q1014 NOSIG
ZGSZ,2025-05-25 11:00,ZGSZ 251100Z 04005MPS 9999 OVC050 25/16 Q1014 NOSIG
ZGSZ,2025-05-25 12:00,ZGSZ 251200Z 02009MPS 9999 OVC046 24/15 Q1015 NOSIG
ZGSZ,2025-05-25 13:00,ZGSZ 251300Z 05006MPS 9999 OVC050 24/16 Q1015 NOSIG
ZGSZ,2025-05-25 14:00,ZGSZ 251400Z 08003MPS 050V110 9999 OVC050 24/16 Q1016 NOSIG
ZGSZ,2025-05-25 15:00,ZGSZ 251500Z 03004MPS 350V060 9999 OVC050 24/16 Q1016 NOSIG
ZGSZ,2025-05-25 16:00,ZGSZ 251600Z 04004MPS 360V100 9999 OVC050 24/16 Q1016 NOSIG
ZGSZ,2025-05-25 17:00,ZGSZ 251700Z 03003MPS 300V060 CAVOK 24/16 Q1015 NOSIG
ZGSZ,2025-05-25 18:00,ZGSZ 251800Z 03003MPS 9999 BKN050 24/16 Q1015 NOSIG
ZGSZ,2025-05-25 19:00,ZGSZ 251900Z 06002MPS 9999 BKN050 24/16 Q1014 NOSIG
ZGSZ,2025-05-25 20:00,ZGSZ 252000Z 02002MPS 9999 SCT050 24/16 Q1014 NOSIG
ZGSZ,2025-05-25 21:00,ZGSZ 252100Z 02003MPS 9999 BKN050 23/16 Q1014 NOSIG
ZGSZ,2025-05-25 22:00,ZGSZ 252200Z 03004MPS 9999 OVC050 23/16 Q1014 NOSIG
ZGSZ,2025-05-25 23:00,ZGSZ 252300Z 03004MPS 9999 BKN050 24/16 Q1015 NOSIG
ZGSZ,2025-05-26 00:00,ZGSZ 260000Z 04005MPS 9999 BKN053 24/17 Q1016 NOSIG
ZGSZ,2025-05-26 01:00,ZGSZ 260100Z 03004MPS 9999 BKN040 25/17 Q1016 NOSIG
ZGSZ,2025-05-26 02:00,ZGSZ 260200Z 09003MPS 050V120 9999 BKN040 26/18 Q1016 NOSIG
ZGSZ,2025-05-26 03:00,ZGSZ 260300Z VRB03G08MPS CAVOK 27/18 Q1016 NOSIG
ZGSZ,2025-05-26 04:00,ZGSZ 260400Z 10004MPS 060V150 CAVOK 28/18 Q1016 NOSIG
ZGSZ,2025-05-26 05:00,ZGSZ 260500Z 29004MPS 9999 SCT040 27/19 Q1015 NOSIG
ZGSZ,2025-05-26 06:00,ZGSZ 260600Z 26003MPS 9999 SCT040 27/18 Q1014 NOSIG
ZGSZ,2025-05-26 07:00,ZGSZ 260700Z 28003MPS 9999 BKN043 27/19 Q1013 NOSIG
ZGSZ,2025-05-26 08:00,ZGSZ 260800Z 26003MPS 9999 BKN043 27/19 Q1013 NOSIG
ZGSZ,2025-05-26 09:00,ZGSZ 260900Z 06002MPS 010V110 9999 BKN043 27/19 Q1013 NOSIG
ZGSZ,2025-05-26 10:00,ZGSZ 261000Z 07003MPS 9999 BKN040 27/19 Q1013 NOSIG
ZGSZ,2025-05-26 11:00,ZGSZ 261100Z VRB03MPS 9999 BKN040 26/19 Q1014 NOSIG
ZGSZ,2025-05-26 12:00,ZGSZ 261200Z 11003MPS 070V140 9999 BKN040 26/19 Q1014 NOSIG
ZGSZ,2025-05-26 13:00,ZGSZ 261300Z 08002MPS 050V120 9999 BKN040 26/19 Q1014 NOSIG
ZGSZ,2025-05-26 14:00,ZGSZ 261400Z 06002MPS 030V120 9999 FEW040 26/19 Q1014 NOSIG
ZGSZ,2025-05-26 15:00,ZGSZ 261500Z 07002MPS 050V110 CAVOK 25/19 Q1015 NOSIG
ZGSZ,2025-05-26 16:00,ZGSZ 261600Z 10003MPS CAVOK 25/19 Q1014 NOSIG
ZGSZ,2025-05-26 17:00,ZGSZ 261700Z 09003MPS 040V150 CAVOK 25/19 Q1014 NOSIG
ZGSZ,2025-05-26 18:00,ZGSZ 261800Z 09002MPS 060V150 CAVOK 24/19 Q1014 NOSIG
ZGSZ,2025-05-26 19:00,ZGSZ 261900Z 10002MPS CAVOK 24/19 Q1013 NOSIG
ZGSZ,2025-05-26 20:00,ZGSZ 262000Z VRB01MPS CAVOK 24/19 Q1013 NOSIG
ZGSZ,2025-05-26 21:00,ZGSZ 262100Z 08002MPS 050V150 CAVOK 24/20 Q1013 NOSIG
ZGSZ,2025-05-26 22:00,ZGSZ 262200Z 05003MPS 010V150 CAVOK 24/20 Q1014 NOSIG
ZGSZ,2025-05-26 23:00,ZGSZ 262300Z 06003MPS 030V100 CAVOK 25/20 Q1014 NOSIG
ZGSZ,2025-05-27 00:00,ZGSZ 270000Z 07003MPS 040V120 CAVOK 25/20 Q1014 NOSIG
ZGSZ,2025-05-27 01:00,ZGSZ 270100Z 07002MPS 020V120 CAVOK 26/19 Q1014 NOSIG
ZGSZ,2025-05-27 02:00,ZGSZ 270200Z 12003MPS 030V170 9999 BKN050 28/19 Q1014 NOSIG
ZGSZ,2025-05-27 03:00,ZGSZ 270300Z 10003MPS 020V160 CAVOK 28/18 Q1014 NOSIG
ZGSZ,2025-05-27 04:00,ZGSZ 270400Z 22004MPS CAVOK 28/20 Q1014 NOSIG
ZGSZ,2025-05-27 05:00,ZGSZ 270500Z 23004MPS CAVOK 29/20 Q1013 NOSIG
ZGSZ,2025-05-27 06:00,ZGSZ 270600Z 24003MPS 210V270 CAVOK 28/20 Q1012 NOSIG
ZGSZ,2025-05-27 07:00,ZGSZ 270700Z 20005MPS 9999 FEW050 29/21 Q1012 NOSIG
ZGSZ,2025-05-27 08:00,ZGSZ 270800Z 22003MPS 9999 FEW050 29/20 Q1011 NOSIG
ZGSZ,2025-05-27 09:00,ZGSZ 270900Z 20004MPS 9999 BKN050 28/21 Q1011 NOSIG
ZGSZ,2025-05-27 10:00,ZGSZ 271000Z 22003MPS CAVOK 28/22 Q1011 NOSIG
ZGSZ,2025-05-27 11:00,ZGSZ 271100Z 10004MPS 080V160 9999 SCT053 28/18 Q1012 NOSIG
ZGSZ,2025-05-27 12:00,ZGSZ 271200Z 10004MPS 9999 BKN053 28/18 Q1012 NOSIG
ZGSZ,2025-05-27 13:00,ZGSZ 271300Z 10004MPS 080V140 9999 BKN053 28/19 Q1013 NOSIG
ZGSZ,2025-05-27 14:00,ZGSZ 271400Z 11004MPS 9999 BKN053 27/19 Q1013 NOSIG
ZGSZ,2025-05-27 15:00,ZGSZ 271500Z 12005MPS 9999 BKN040 27/20 Q1013 NOSIG
ZGSZ,2025-05-27 16:00,ZGSZ 271600Z 12003MPS 9999 BKN040 27/20 Q1012 NOSIG
ZGSZ,2025-05-27 17:00,ZGSZ 271700Z 10003MPS 060V140 9999 BKN040 26/20 Q1011 NOSIG
ZGSZ,2025-05-27 18:00,ZGSZ 271800Z 10004MPS 080V140 9999 BKN050 26/20 Q1011 NOSIG
ZGSZ,2025-05-27 19:00,ZGSZ 271900Z 12004MPS 9999 BKN050 26/20 Q1010 NOSIG
ZGSZ,2025-05-27 20:00,ZGSZ 272000Z 11003MPS 9999 BKN050 26/21 Q1010 NOSIG
ZGSZ,2025-05-27 21:00,ZGSZ 272100Z 09003MPS 9999 BKN040 26/20 Q1010 NOSIG
ZGSZ,2025-05-27 22:00,ZGSZ 272200Z 11004MPS 9999 BKN040 26/20 Q1010 NOSIG
ZGSZ,2025-05-27 23:00,ZGSZ 272300Z 10004MPS 9999 SCT040 26/20 Q1010 NOSIG
ZGSZ,2025-05-28 00:00,ZGSZ 280000Z 11004MPS 080V140 9999 SCT040 27/21 Q1011 NOSIG
ZGSZ,2025-05-28 01:00,ZGSZ 280100Z 10006MPS 9999 BKN050 27/21 Q1011 NOSIG
ZGSZ,2025-05-28 02:00,ZGSZ 280200Z 10005MPS 9999 BKN043 28/21 Q1011 NOSIG
ZGSZ,2025-05-28 03:00,ZGSZ 280300Z 10005MPS 070V140 9999 BKN030 28/22 Q1010 NOSIG
ZGSZ,2025-05-28 04:00,ZGSZ 280400Z 11005MPS 080V140 9999 SCT030 BKN053 29/23 Q1010 NOSIG
ZGSZ,2025-05-28 05:00,ZGSZ 280500Z 10005MPS 070V130 9999 SCT026 BKN046 29/23 Q1009 NOSIG
ZGSZ,2025-05-28 06:00,ZGSZ 280600Z 10006MPS 080V140 9999 SCT026 29/23 Q1009 NOSIG
ZGSZ,2025-05-28 07:00,ZGSZ 280700Z 10004MPS 9999 -SHRA FEW020 BKN043 29/23 Q1008 NOSIG
ZGSZ,2025-05-28 08:00,ZGSZ 280800Z 09004MPS 9999 BKN050 29/23 Q1007 NOSIG
ZGSZ,2025-05-28 09:00,ZGSZ 280900Z 10004MPS 9999 FEW026 BKN040 28/23 Q1007 NOSIG
ZGSZ,2025-05-28 10:00,ZGSZ 281000Z VRB01MPS 9999 -SHRA FEW016 BKN026 26/24 Q1008 RESHRA NOSIG
ZGSZ,2025-05-28 11:00,ZGSZ 281100Z 08004MPS 9999 -SHRA FEW016 BKN030 27/23 Q1008 BECMG AT1115 SHRA
ZGSZ,2025-05-28 12:00,ZGSZ 281200Z 07003MPS 050V130 9999 -SHRA SCT023 BKN033 25/24 Q1009 RESHRA NOSIG
ZGSZ,2025-05-28 13:00,ZGSZ 281300Z 05002MPS 010V100 9999 -SHRA BKN036 25/24 Q1009 NOSIG
ZGSZ,2025-05-28 14:00,ZGSZ 281400Z 10003MPS 060V150 9999 -SHRA BKN040 26/24 Q1010 NOSIG
ZGSZ,2025-05-28 15:00,ZGSZ 281500Z 10003MPS 9999 -SHRA BKN050 26/24 Q1010 BECMG AT1540 SHRA
ZGSZ,2025-05-28 16:00,ZGSZ 281600Z 10003MPS 080V140 9999 SCT026 BKN046 26/24 Q1010 NOSIG
ZGSZ,2025-05-28 17:00,ZGSZ 281700Z 11002MPS 9999 SCT036 26/24 Q1009 NOSIG
ZGSZ,2025-05-28 18:00,ZGSZ 281800Z VRB01MPS 8000 SCT030 26/24 Q1008 NOSIG
ZGSZ,2025-05-28 19:00,ZGSZ 281900Z 29001MPS 8000 BKN023 26/24 Q1008 NOSIG
ZGSZ,2025-05-28 20:00,ZGSZ 282000Z VRB01MPS 8000 BKN015 BKN030 26/24 Q1007 BECMG AT2010 BKN011
ZGSZ,2025-05-28 21:00,ZGSZ 282100Z 10002MPS 050V160 9999 SCT020 26/24 Q1007 NOSIG
ZGSZ,2025-05-28 22:00,ZGSZ 282200Z 08002MPS 9999 SCT015 26/24 Q1007 NOSIG
ZGSZ,2025-05-28 23:00,ZGSZ 282300Z VRB01MPS 9999 BKN033 26/24 Q1008 NOSIG
ZGSZ,2025-05-29 00:00,ZGSZ 290000Z 06002MPS 020V110 9999 BKN033 27/24 Q1008 NOSIG
ZGSZ,2025-05-29 01:00,ZGSZ 290100Z VRB01MPS 9999 BKN033 28/24 Q1009 NOSIG
ZGSZ,2025-05-29 02:00,ZGSZ 290200Z 27002MPS 9999 FEW020 BKN040 28/24 Q1009 NOSIG
ZGSZ,2025-05-29 03:00,ZGSZ 290300Z 25002MPS 8000 BKN050 28/25 Q1009 NOSIG
ZGSZ,2025-05-29 04:00,ZGSZ 290400Z 26002MPS 220V300 6000 -RA FEW020 28/25 Q1009 BECMG AT0540 SHRA
ZGSZ,2025-05-29 05:00,ZGSZ 290500Z VRB01MPS 9999 -SHRA FEW020 FEW025TCU BKN050 28/25 Q1008 BECMG AT0540 SHRA
ZGSZ,2025-05-29 06:00,ZGSZ 290600Z 33002MPS 300V360 8000 SHRA FEW020 FEW030CB BKN050 27/25 Q1008 BECMG AT0740 -SHRA
ZGSZ,2025-05-29 07:00,ZGSZ 290700Z VRB01MPS 6000 SHRA SCT020 FEW030CB BKN050 26/25 Q1008 RETS BECMG AT0740 -SHRA
ZGSZ,2025-05-29 08:00,ZGSZ 290800Z 03005MPS 9999 SCT026 BKN050 27/24 Q1008 NOSIG
ZGSZ,2025-05-29 09:00,ZGSZ 290900Z 03005MPS CAVOK 27/23 Q1008 NOSIG
ZGSZ,2025-05-29 10:00,ZGSZ 291000Z 08002MPS 050V120 9999 SCT015 27/24 Q1008 NOSIG
ZGSZ,2025-05-29 11:00,ZGSZ 291100Z 04003MPS 9999 FEW020 27/24 Q1009 NOSIG
ZGSZ,2025-05-29 12:00,ZGSZ 291200Z 04003MPS 340V090 9999 SCT030 27/23 Q1009 NOSIG
ZGSZ,2025-05-29 13:00,ZGSZ 291300Z 09003MPS 050V120 9999 SCT015 BKN030 27/23 Q1009 NOSIG
ZGSZ,2025-05-29 14:00,ZGSZ 291400Z 09004MPS 070V130 9999 SCT011 BKN030 26/24 Q1009 BECMG AT1540 BKN012 BKN030
ZGSZ,2025-05-29 15:00,ZGSZ 291500Z 09004MPS 050V130 9999 SCT012 BKN030 26/23 Q1009 BECMG AT1540 BKN012 BKN030
ZGSZ,2025-05-29 16:00,ZGSZ 291600Z 11004MPS 9999 BKN014 BKN030 26/23 Q1009 BECMG AT1720 SCT016 BKN030
ZGSZ,2025-05-29 17:00,ZGSZ 291700Z 11005MPS 9999 BKN014 BKN030 26/23 Q1009 BECMG AT1740 SCT016 BKN030
ZGSZ,2025-05-29 18:00,ZGSZ 291800Z 10004MPS 070V130 9999 FEW020 BKN040 25/22 Q1008 NOSIG
ZGSZ,2025-05-29 19:00,ZGSZ 291900Z 07002MPS 9999 FEW020 BKN040 25/22 Q1008 NOSIG
ZGSZ,2025-05-29 20:00,ZGSZ 292000Z 08002MPS 040V110 9999 FEW020 BKN040 25/22 Q1008 NOSIG
ZGSZ,2025-05-29 21:00,ZGSZ 292100Z 06003MPS 9999 FEW020 BKN040 25/22 Q1008 NOSIG
ZGSZ,2025-05-29 22:00,ZGSZ 292200Z 05002MPS 9999 FEW020 BKN040 25/22 Q1009 NOSIG
ZGSZ,2025-05-29 23:00,ZGSZ 292300Z 05003MPS 020V080 9999 FEW016 BKN040 25/22 Q1009 NOSIG
ZGSZ,2025-05-30 00:00,ZGSZ 300000Z 06004MPS 9999 SCT016 BKN040 25/22 Q1009 NOSIG
ZGSZ,2025-05-30 01:00,ZGSZ 300100Z 06003MPS 020V120 9999 SCT020 BKN040 26/22 Q1009 NOSIG
ZGSZ,2025-05-30 02:00,ZGSZ 300200Z 06003MPS 020V120 9999 SCT020 BKN040 26/22 Q1010 NOSIG
ZGSZ,2025-05-30 03:00,ZGSZ 300300Z 10003MPS 060V130 9999 SCT020 BKN040 26/22 Q1010 NOSIG
ZGSZ,2025-05-30 04:00,ZGSZ 300400Z 11004MPS 9999 BKN026 27/22 Q1010 NOSIG
ZGSZ,2025-05-30 05:00,ZGSZ 300500Z 10004MPS 050V140 9999 BKN026 27/22 Q1009 NOSIG
ZGSZ,2025-05-30 06:00,ZGSZ 300600Z 11003MPS 080V150 9999 BKN043 28/22 Q1009 NOSIG
ZGSZ,2025-05-30 07:00,ZGSZ 300700Z 13005MPS 100V160 9999 BKN040 28/22 Q1008 NOSIG
ZGSZ,2025-05-30 08:00,ZGSZ 300800Z 11004MPS 080V140 9999 BKN040 28/22 Q1008 NOSIG
ZGSZ,2025-05-30 09:00,ZGSZ 300900Z 10006MPS 9999 BKN040 27/22 Q1007 NOSIG
ZGSZ,2025-05-30 10:00,ZGSZ 301000Z 10004MPS 9999 BKN040 26/22 Q1008 NOSIG
ZGSZ,2025-05-30 11:00,ZGSZ 301100Z 12004MPS 9999 BKN040 26/21 Q1008 NOSIG
ZGSZ,2025-05-30 12:00,ZGSZ 301200Z 11005MPS 080V140 9999 BKN040 26/21 Q1009 NOSIG
ZGSZ,2025-05-30 13:00,ZGSZ 301300Z 12004MPS 9999 BKN050 26/21 Q1009 NOSIG
ZGSZ,2025-05-30 14:00,ZGSZ 301400Z 11003MPS 070V140 9999 BKN050 26/20 Q1010 NOSIG
ZGSZ,2025-05-30 15:00,ZGSZ 301500Z 09002MPS 060V130 9999 BKN033 26/19 Q1010 NOSIG
ZGSZ,2025-05-30 16:00,ZGSZ 301600Z 09004MPS 060V120 9999 BKN050 26/19 Q1009 NOSIG
ZGSZ,2025-05-30 17:00,ZGSZ 301700Z 10003MPS 080V140 9999 BKN050 26/19 Q1009 NOSIG
ZGSZ,2025-05-30 18:00,ZGSZ 301800Z 11002MPS 070V150 9999 SCT040 26/19 Q1008 NOSIG
ZGSZ,2025-05-30 19:00,ZGSZ 301900Z 08002MPS 040V120 CAVOK 26/19 Q1008 NOSIG
ZGSZ,2025-05-30 20:00,ZGSZ 302000Z 06002MPS 020V130 CAVOK 25/19 Q1008 NOSIG
ZGSZ,2025-05-30 21:00,ZGSZ 302100Z 04003MPS 350V140 CAVOK 26/19 Q1008 NOSIG
ZGSZ,2025-05-30 22:00,ZGSZ 302200Z 05003MPS 030V130 9999 BKN033 25/19 Q1008 NOSIG
ZGSZ,2025-05-30 23:00,ZGSZ 302300Z 06004MPS 040V120 9999 BKN030 26/18 Q1008 NOSIG
ZGSZ,2025-05-31 00:00,ZGSZ 310000Z 06003MPS 040V100 9999 BKN043 27/18 Q1008 NOSIG
ZGSZ,2025-05-31 01:00,ZGSZ 310100Z 09004MPS 030V140 9999 FEW043 29/21 Q1008 NOSIG
ZGSZ,2025-05-31 02:00,ZGSZ 310200Z 07003MPS 020V120 9999 SCT043 29/22 Q1008 NOSIG
ZGSZ,2025-05-31 03:00,ZGSZ 310300Z 08003MPS 010V150 9999 SCT043 30/22 Q1007 NOSIG
ZGSZ,2025-05-31 04:00,ZGSZ 310400Z 12006MPS 080V140 9999 BKN036 30/23 Q1006 NOSIG
ZGSZ,2025-05-31 05:00,ZGSZ 310500Z 10006MPS 9999 BKN030 30/23 Q1006 NOSIG
ZGSZ,2025-05-31 06:00,ZGSZ 310600Z 11006MPS 080V140 9999 FEW020 SCT030 31/23 Q1005 NOSIG
ZGSZ,2025-05-31 07:00,ZGSZ 310700Z 10005MPS 060V140 9999 FEW020 SCT030 30/23 Q1004 NOSIG
ZGSZ,2025-05-31 08:00,ZGSZ 310800Z 10006MPS 9999 BKN030 30/23 Q1004 NOSIG
ZGSZ,2025-05-31 09:00,ZGSZ 310900Z 10005MPS 070V130 9999 BKN040 29/22 Q1004 NOSIG
ZGSZ,2025-05-31 10:00,ZGSZ 311000Z 10005MPS 9999 BKN033 28/22 Q1004 NOSIG
ZGSZ,2025-05-31 11:00,ZGSZ 311100Z 12005MPS 9999 BKN033 27/22 Q1005 NOSIG
ZGSZ,2025-05-31 12:00,ZGSZ 311200Z 11004MPS 9999 BKN033 28/22 Q1005 NOSIG
ZGSZ,2025-05-31 13:00,ZGSZ 311300Z 09003MPS 040V120 9999 BKN033 27/22 Q1006 NOSIG
ZGSZ,2025-05-31 14:00,ZGSZ 311400Z 11002MPS 070V160 9999 BKN033 27/22 Q1006 NOSIG
ZGSZ,2025-05-31 15:00,ZGSZ 311500Z 11002MPS 080V140 9999 BKN030 27/22 Q1006 NOSIG
ZGSZ,2025-05-31 16:00,ZGSZ 311600Z 07002MPS 030V120 9999 BKN030 27/22 Q1005 NOSIG
ZGSZ,2025-05-31 17:00,ZGSZ 311700Z 10002MPS 060V130 9999 BKN030 26/23 Q1004 NOSIG
ZGSZ,2025-05-31 18:00,ZGSZ 311800Z 05002MPS 350V120 9999 BKN033 26/23 Q1004 NOSIG
ZGSZ,2025-05-31 19:00,ZGSZ 311900Z 24002MPS 9999 BKN033 26/23 Q1004 NOSIG
ZGSZ,2025-05-31 20:00,ZGSZ 312000Z 19002MPS 9999 BKN033 26/24 Q1003 NOSIG
ZGSZ,2025-05-31 21:00,ZGSZ 312100Z 22003MPS 9999 BKN033 26/24 Q1004 NOSIG
ZGSZ,2025-05-31 22:00,ZGSZ 312200Z 22002MPS 9999 OVC023 26/24 Q1004 NOSIG
ZGSZ,2025-05-31 23:00,ZGSZ 312300Z 23002MPS 9999 OVC023 26/24 Q1005 NOSIG
ZGSZ,2025-06-01 00:00,ZGSZ 010000Z 17003MPS 8000 FEW020 BKN040 26/24 Q1005 NOSIG
ZGSZ,2025-06-01 01:00,ZGSZ 010100Z 12003MPS 100V170 9999 FEW050 29/24 Q1004 NOSIG
ZGSZ,2025-06-01 02:00,ZGSZ 010200Z 21004MPS 9999 SCT040 28/25 Q1004 NOSIG
ZGSZ,2025-06-01 03:00,ZGSZ 010300Z 19004MPS CAVOK 28/25 Q1004 NOSIG
ZGSZ,2025-06-01 04:00,ZGSZ 010400Z 21004MPS 9999 FEW050 29/25 Q1004 NOSIG
ZGSZ,2025-06-01 05:00,ZGSZ 010500Z 18006MPS CAVOK 29/25 Q1003 NOSIG
ZGSZ,2025-06-01 06:00,ZGSZ 010600Z 18005MPS CAVOK 29/26 Q1002 NOSIG
ZGSZ,2025-06-01 07:00,ZGSZ 010700Z 19005MPS CAVOK 30/26 Q1002 NOSIG
ZGSZ,2025-06-01 08:00,ZGSZ 010800Z 18007MPS CAVOK 29/25 Q1001 NOSIG
ZGSZ,2025-06-01 09:00,ZGSZ 010900Z 18006MPS CAVOK 29/25 Q1001 NOSIG
ZGSZ,2025-06-01 10:00,ZGSZ 011000Z 18006MPS 9999 BKN050 29/26 Q1002 NOSIG
ZGSZ,2025-06-01 11:00,ZGSZ 011100Z 17006MPS 9999 BKN050 29/25 Q1002 NOSIG
ZGSZ,2025-06-01 12:00,ZGSZ 011200Z 17004MPS 9999 SCT033 29/25 Q1003 NOSIG
ZGSZ,2025-06-01 13:00,ZGSZ 011300Z 17004MPS 9999 BKN026 29/25 Q1003 NOSIG
ZGSZ,2025-06-01 14:00,ZGSZ 011400Z 16005MPS 9999 FEW030 28/25 Q1003 NOSIG
ZGSZ,2025-06-01 15:00,ZGSZ 011500Z 16005MPS 9999 FEW030 28/26 Q1003 NOSIG
ZGSZ,2025-06-01 16:00,ZGSZ 011600Z 16005MPS 9999 FEW040 28/26 Q1003 NOSIG
ZGSZ,2025-06-01 17:00,ZGSZ 011700Z 16005MPS 9999 SCT050 28/26 Q1002 NOSIG
ZGSZ,2025-06-01 18:00,ZGSZ 011800Z 16005MPS 9999 SCT012 SCT050 28/27 Q1001 NOSIG
ZGSZ,2025-06-01 19:00,ZGSZ 011900Z 17006MPS 9999 SCT030 28/27 Q1001 NOSIG
ZGSZ,2025-06-01 20:00,ZGSZ 012000Z 16005MPS 9999 FEW050 28/27 Q1001 NOSIG
ZGSZ,2025-06-01 21:00,ZGSZ 012100Z 16005MPS 9999 FEW030 28/27 Q1002 NOSIG
ZGSZ,2025-06-01 22:00,ZGSZ 012200Z 16005MPS 9999 FEW012 28/27 Q1002 NOSIG
ZGSZ,2025-06-01 23:00,ZGSZ 012300Z 16004MPS 9999 FEW023 BKN053 29/27 Q1002 NOSIG
ZGSZ,2025-06-02 00:00,ZGSZ 020000Z 16005MPS 9999 FEW023 BKN053 29/27 Q1003 NOSIG
ZGSZ,2025-06-02 01:00,ZGSZ 020100Z 16005MPS 9999 BKN050 29/27 Q1003 NOSIG
ZGSZ,2025-06-02 02:00,ZGSZ 020200Z 16006MPS 9999 BKN050 30/27 Q1003 NOSIG
ZGSZ,2025-06-02 03:00,ZGSZ 020300Z 16007MPS 9999 FEW013 BKN033 30/27 Q1002 NOSIG
ZGSZ,2025-06-02 04:00,ZGSZ 020400Z 16007MPS 9999 FEW026 BKN053 31/28 Q1002 NOSIG
ZGSZ,2025-06-02 05:00,ZGSZ 020500Z 17007MPS 9999 FEW026 BKN053 31/27 Q1001 NOSIG
ZGSZ,2025-06-02 06:00,ZGSZ 020600Z 16007MPS 9999 FEW026 30/27 Q1000 NOSIG
ZGSZ,2025-06-02 07:00,ZGSZ 020700Z 16007MPS 9999 FEW026 FEW030CB 30/27 Q1000 NOSIG
ZGSZ,2025-06-02 08:00,ZGSZ 020800Z 16006MPS 9999 FEW026 30/27 Q1000 NOSIG
ZGSZ,2025-06-02 09:00,ZGSZ 020900Z 16006MPS 9999 FEW026 30/27 Q0999 NOSIG
ZGSZ,2025-06-02 10:00,ZGSZ 021000Z 16007MPS 9999 FEW043 30/27 Q1000 NOSIG
ZGSZ,2025-06-02 11:00,ZGSZ 021100Z 16007MPS 9999 FEW043 29/27 Q1000 NOSIG
ZGSZ,2025-06-02 12:00,ZGSZ 021200Z 16006MPS 9999 FEW043 29/27 Q1001 NOSIG
ZGSZ,2025-06-02 13:00,ZGSZ 021300Z 16006MPS 9999 FEW043 29/27 Q1002 NOSIG
ZGSZ,2025-06-02 14:00,ZGSZ 021400Z 16006MPS 9999 FEW050 29/27 Q1002 NOSIG
ZGSZ,2025-06-02 15:00,ZGSZ 021500Z 16005MPS 9999 FEW050 29/27 Q1002 NOSIG
ZGSZ,2025-06-02 16:00,ZGSZ 021600Z 16004MPS 9999 FEW008 SCT050 28/27 Q1001 NOSIG
ZGSZ,2025-06-02 17:00,ZGSZ 021700Z 15004MPS 9999 FEW050 28/27 Q1001 NOSIG
ZGSZ,2025-06-02 18:00,ZGSZ 021800Z 16005MPS 9999 FEW043 28/27 Q1001 NOSIG
ZGSZ,2025-06-02 19:00,ZGSZ 021900Z 16005MPS 9999 FEW010 28/27 Q1001 NOSIG
ZGSZ,2025-06-02 20:00,ZGSZ 022000Z 17004MPS 9999 SCT050 28/27 Q1001 NOSIG
ZGSZ,2025-06-02 21:00,ZGSZ 022100Z 18003MPS 9999 FEW010 SCT033 28/27 Q1001 NOSIG
ZGSZ,2025-06-02 22:00,ZGSZ 022200Z 31008MPS 7000 -SHRA BKN007 OVC030 26/25 Q1002 BECMG AT2310 SCT012 BKN020
ZGSZ,2025-06-02 23:00,ZGSZ 022300Z 34003MPS 9999 BKN033 26/25 Q1003 NOSIG
ZGSZ,2025-06-03 00:00,ZGSZ 030000Z 34004MPS 9999 SCT015 BKN033 26/24 Q1004 NOSIG
ZGSZ,2025-06-03 01:00,ZGSZ 030100Z 36004MPS 9999 SCT013 BKN033 27/24 Q1004 NOSIG
ZGSZ,2025-06-03 02:00,ZGSZ 030200Z 04003MPS 010V080 9999 SCT040 27/24 Q1004 NOSIG
ZGSZ,2025-06-03 03:00,ZGSZ 030300Z 35002MPS 310V030 9999 SCT043 28/24 Q1004 NOSIG
ZGSZ,2025-06-03 04:00,ZGSZ 030400Z 31007MPS 9999 FEW016 BKN043 27/24 Q1003 NOSIG
ZGSZ,2025-06-03 05:00,ZGSZ 030500Z 30006MPS 9999 FEW016 BKN043 26/24 Q1003 NOSIG
ZGSZ,2025-06-03 06:00,ZGSZ 030600Z 32005MPS 9999 BKN043 28/25 Q1003 NOSIG
ZGSZ,2025-06-03 07:00,ZGSZ 030700Z 31005MPS 290V350 7000 FEW040 28/25 Q1002 NOSIG
ZGSZ,2025-06-03 08:00,ZGSZ 030800Z 34004MPS 9999 SCT033 30/24 Q1002 NOSIG
ZGSZ,2025-06-03 09:00,ZGSZ 030900Z 34005MPS 9999 SCT023 29/24 Q1002 NOSIG
ZGSZ,2025-06-03 10:00,ZGSZ 031000Z 33004MPS 9999 SCT023 29/24 Q1003 NOSIG
ZGSZ,2025-06-03 11:00,ZGSZ 031100Z 33003MPS 9999 BKN030 28/23 Q1004 NOSIG
ZGSZ,2025-06-03 12:00,ZGSZ 031200Z 32004MPS 9999 BKN030 28/24 Q1005 NOSIG
ZGSZ,2025-06-03 13:00,ZGSZ 031300Z 32004MPS 9999 BKN030 28/23 Q1005 NOSIG
ZGSZ,2025-06-03 14:00,ZGSZ 031400Z 36004MPS 9999 BKN030 28/23 Q1005 NOSIG
ZGSZ,2025-06-03 15:00,ZGSZ 031500Z 01003MPS 9999 BKN040 28/24 Q1006 NOSIG
ZGSZ,2025-06-03 16:00,ZGSZ 031600Z 01004MPS 9999 BKN040 28/23 Q1006 NOSIG
ZGSZ,2025-06-03 17:00,ZGSZ 031700Z 03003MPS 9999 BKN040 28/23 Q1005 NOSIG
ZGSZ,2025-06-03 18:00,ZGSZ 031800Z 01003MPS 340V050 9999 BKN033 27/23 Q1005 NOSIG
ZGSZ,2025-06-03 19:00,ZGSZ 031900Z 02003MPS 9999 BKN036 27/22 Q1004 NOSIG
ZGSZ,2025-06-03 20:00,ZGSZ 032000Z 03003MPS 9999 BKN036 27/22 Q1004 NOSIG
ZGSZ,2025-06-03 21:00,ZGSZ 032100Z 03003MPS 9999 FEW021 BKN036 27/22 Q1005 NOSIG
ZGSZ,2025-06-03 22:00,ZGSZ 032200Z 05002MPS 9999 BKN026 27/23 Q1006 NOSIG
ZGSZ,2025-06-03 23:00,ZGSZ 032300Z 36004MPS 9999 BKN026 26/23 Q1006 NOSIG
ZGSZ,2025-06-04 00:00,ZGSZ 040000Z 36005MPS 9999 -RA FEW020 BKN026 25/23 Q1007 NOSIG
ZGSZ,2025-06-04 01:00,ZGSZ 040100Z 02004MPS 4000 -RA FEW013 OVC026 25/23 Q1008 NOSIG
ZGSZ,2025-06-04 02:00,ZGSZ 040200Z 03004MPS 6000 -RA SCT012 OVC026 25/23 Q1008 NOSIG
ZGSZ,2025-06-04 03:00,ZGSZ 040300Z 04003MPS 8000 -RA SCT015 OVC026 25/24 Q1008 NOSIG
ZGSZ,2025-06-04 04:00,ZGSZ 040400Z 03004MPS 8000 -RA SCT015 OVC026 26/24 Q1008 NOSIG
ZGSZ,2025-06-04 05:00,ZGSZ 040500Z 04003MPS 5000 -RA SCT013 OVC020 26/24 Q1008 NOSIG
ZGSZ,2025-06-04 06:00,ZGSZ 040600Z 03003MPS 360V060 6000 -RA SCT012 OVC020 26/24 Q1007 NOSIG
ZGSZ,2025-06-04 07:00,ZGSZ 040700Z 02003MPS 6000 -RA SCT012 OVC020 26/24 Q1007 NOSIG
ZGSZ,2025-06-04 08:00,ZGSZ 040800Z 05003MPS 9999 SCT012 OVC020 26/24 Q1007 BECMG AT0930 BKN012 OVC020
ZGSZ,2025-06-04 09:00,ZGSZ 040900Z 03003MPS 9999 SCT012 OVC020 26/24 Q1007 BECMG AT0930 BKN012 OVC020
ZGSZ,2025-06-04 10:00,ZGSZ 041000Z 06002MPS 9999 BKN013 OVC020 26/24 Q1007 BECMG AT1130 SCT012 OVC020
ZGSZ,2025-06-04 11:00,ZGSZ 041100Z 08002MPS 030V180 9999 BKN013 OVC020 27/23 Q1008 BECMG AT1130 SCT012 OVC020
ZGSZ,2025-06-04 12:00,ZGSZ 041200Z 06002MPS 020V120 9999 FEW014 BKN020 27/24 Q1008 NOSIG
ZGSZ,2025-06-04 13:00,ZGSZ 041300Z 05003MPS 020V110 9999 SCT026 26/24 Q1009 NOSIG
ZGSZ,2025-06-04 14:00,ZGSZ 041400Z 07003MPS 050V120 9999 FEW015 SCT033 27/24 Q1009 NOSIG
ZGSZ,2025-06-04 15:00,ZGSZ 041500Z 14002MPS 100V160 9999 SCT020 26/24 Q1009 NOSIG
ZGSZ,2025-06-04 16:00,ZGSZ 041600Z 11004MPS 9999 SCT016 26/23 Q1009 NOSIG
ZGSZ,2025-06-04 17:00,ZGSZ 041700Z 12003MPS 9999 -RA SCT016 26/23 Q1009 NOSIG
ZGSZ,2025-06-04 18:00,ZGSZ 041800Z 12003MPS 080V150 8000 -RA SCT015 OVC026 25/23 Q1008 NOSIG
ZGSZ,2025-06-04 19:00,ZGSZ 041900Z 10004MPS 070V130 8000 -RA SCT015 OVC026 25/22 Q1008 NOSIG
ZGSZ,2025-06-04 20:00,ZGSZ 042000Z 10002MPS 060V150 8000 -RA SCT015 OVC026 26/22 Q1008 NOSIG
ZGSZ,2025-06-04 21:00,ZGSZ 042100Z 11003MPS 9999 OVC036 26/22 Q1008 NOSIG
ZGSZ,2025-06-04 22:00,ZGSZ 042200Z 09003MPS 060V130 9999 OVC036 26/22 Q1009 NOSIG
ZGSZ,2025-06-04 23:00,ZGSZ 042300Z 05002MPS 020V120 9999 OVC043 26/23 Q1009 NOSIG
ZGSZ,2025-06-05 00:00,ZGSZ 050000Z 04002MPS 360V120 9999 OVC040 26/22 Q1010 NOSIG
ZGSZ,2025-06-05 01:00,ZGSZ 050100Z 05002MPS 360V100 9999 OVC040 27/22 Q1010 NOSIG
ZGSZ,2025-06-05 02:00,ZGSZ 050200Z VRB02MPS 9999 OVC040 27/21 Q1010 NOSIG
ZGSZ,2025-06-05 03:00,ZGSZ 050300Z VRB02MPS 9999 BKN043 28/22 Q1010 NOSIG
ZGSZ,2025-06-05 04:00,ZGSZ 050400Z 26003MPS 9999 SCT040 28/23 Q1010 NOSIG
ZGSZ,2025-06-05 05:00,ZGSZ 050500Z 26003MPS 240V300 9999 FEW046 29/22 Q1009 NOSIG
ZGSZ,2025-06-05 06:00,ZGSZ 050600Z 24003MPS 9999 FEW046 30/23 Q1008 NOSIG
ZGSZ,2025-06-05 07:00,ZGSZ 050700Z 22004MPS 9999 FEW046 30/23 Q1008 NOSIG
ZGSZ,2025-06-05 08:00,ZGSZ 050800Z 21004MPS 9999 BKN046 29/23 Q1007 NOSIG
ZGSZ,2025-06-05 09:00,ZGSZ 050900Z 18004MPS 9999 SCT043 28/23 Q1007 NOSIG
ZGSZ,2025-06-05 10:00,ZGSZ 051000Z 18004MPS 9999 FEW043 28/24 Q1007 NOSIG
ZGSZ,2025-06-05 11:00,ZGSZ 051100Z 18004MPS CAVOK 28/24 Q1007 NOSIG
ZGSZ,2025-06-05 12:00,ZGSZ 051200Z 20003MPS CAVOK 28/25 Q1007 NOSIG
ZGSZ,2025-06-05 13:00,ZGSZ 051300Z 12004MPS CAVOK 28/22 Q1008 NOSIG
ZGSZ,2025-06-05 14:00,ZGSZ 051400Z 15003MPS 100V190 CAVOK 27/22 Q1009 NOSIG
ZGSZ,2025-06-05 15:00,ZGSZ 051500Z 11004MPS CAVOK 27/22 Q1009 NOSIG
ZGSZ,2025-06-05 16:00,ZGSZ 051600Z 10004MPS 070V130 CAVOK 27/22 Q1009 NOSIG
ZGSZ,2025-06-05 17:00,ZGSZ 051700Z 10003MPS CAVOK 27/22 Q1008 NOSIG
ZGSZ,2025-06-05 18:00,ZGSZ 051800Z 10004MPS CAVOK 27/22 Q1008 NOSIG
ZGSZ,2025-06-05 19:00,ZGSZ 051900Z 11003MPS 9999 BKN033 26/22 Q1008 NOSIG
ZGSZ,2025-06-05 20:00,ZGSZ 052000Z 20002MPS 9999 BKN033 27/22 Q1008 NOSIG
ZGSZ,2025-06-05 21:00,ZGSZ 052100Z 18001MPS CAVOK 26/22 Q1009 NOSIG
ZGSZ,2025-06-05 22:00,ZGSZ 052200Z 06002MPS 020V100 9999 SCT030 26/23 Q1009 NOSIG
ZGSZ,2025-06-05 23:00,ZGSZ 052300Z 07002MPS 040V100 CAVOK 27/23 Q1009 NOSIG
ZGSZ,2025-06-06 00:00,ZGSZ 060000Z VRB01MPS 9999 BKN033 28/23 Q1009 NOSIG
ZGSZ,2025-06-06 01:00,ZGSZ 060100Z VRB01MPS 9999 FEW020 29/24 Q1009 NOSIG
ZGSZ,2025-06-06 02:00,ZGSZ 060200Z 24003MPS 9999 FEW020 SCT040 29/24 Q1009 NOSIG
ZGSZ,2025-06-06 03:00,ZGSZ 060300Z 23004MPS 9999 FEW030 SCT040 29/25 Q1009 NOSIG
ZGSZ,2025-06-06 04:00,ZGSZ 060400Z 21004MPS 9999 FEW030 SCT040 30/24 Q1009 NOSIG
ZGSZ,2025-06-06 05:00,ZGSZ 060500Z 21004MPS 9999 FEW030 BKN043 30/24 Q1008 NOSIG
ZGSZ,2025-06-06 06:00,ZGSZ 060600Z 20005MPS 9999 FEW043 30/25 Q1007 NOSIG
ZGSZ,2025-06-06 07:00,ZGSZ 060700Z 20006MPS 9999 FEW030 30/25 Q1007 NOSIG
ZGSZ,2025-06-06 08:00,ZGSZ 060800Z 20005MPS 9999 FEW030 30/25 Q1006 NOSIG
ZGSZ,2025-06-06 09:00,ZGSZ 060900Z 19005MPS CAVOK 29/24 Q1006 NOSIG
ZGSZ,2025-06-06 10:00,ZGSZ 061000Z 18005MPS CAVOK 29/25 Q1006 NOSIG
ZGSZ,2025-06-06 11:00,ZGSZ 061100Z 19005MPS CAVOK 28/25 Q1006 NOSIG
ZGSZ,2025-06-06 12:00,ZGSZ 061200Z 18005MPS CAVOK 28/25 Q1006 NOSIG
ZGSZ,2025-06-06 13:00,ZGSZ 061300Z 18005MPS CAVOK 28/25 Q1007 NOSIG
ZGSZ,2025-06-06 14:00,ZGSZ 061400Z 18006MPS CAVOK 28/25 Q1007 NOSIG
ZGSZ,2025-06-06 15:00,ZGSZ 061500Z 17004MPS CAVOK 28/25 Q1008 NOSIG
ZGSZ,2025-06-06 16:00,ZGSZ 061600Z 19005MPS CAVOK 27/25 Q1008 NOSIG
ZGSZ,2025-06-06 17:00,ZGSZ 061700Z 19004MPS CAVOK 27/25 Q1007 NOSIG
ZGSZ,2025-06-06 18:00,ZGSZ 061800Z 17004MPS 9999 FEW015 27/25 Q1007 NOSIG
ZGSZ,2025-06-06 19:00,ZGSZ 061900Z 16004MPS 9999 FEW020 27/25 Q1007 NOSIG
ZGSZ,2025-06-06 20:00,ZGSZ 062000Z 16003MPS 9999 FEW018 27/25 Q1007 NOSIG
ZGSZ,2025-06-06 21:00,ZGSZ 062100Z 18003MPS 9999 FEW030 27/25 Q1007 NOSIG
ZGSZ,2025-06-06 22:00,ZGSZ 062200Z 17003MPS 9999 BKN030 27/25 Q1008 NOSIG
ZGSZ,2025-06-06 23:00,ZGSZ 062300Z 17003MPS 9999 FEW026 28/25 Q1008 NOSIG
ZGSZ,2025-06-07 00:00,ZGSZ 070000Z 17004MPS 9999 FEW026 28/25 Q1008 NOSIG
ZGSZ,2025-06-07 01:00,ZGSZ 070100Z 18003MPS 9999 FEW026 29/25 Q1008 NOSIG
ZGSZ,2025-06-07 02:00,ZGSZ 070200Z 20003MPS 9999 FEW026 30/26 Q1008 NOSIG
ZGSZ,2025-06-07 03:00,ZGSZ 070300Z 20003MPS 9999 FEW026 31/24 Q1008 NOSIG
ZGSZ,2025-06-07 04:00,ZGSZ 070400Z 20003MPS 9999 FEW026 32/25 Q1007 NOSIG
ZGSZ,2025-06-07 05:00,ZGSZ 070500Z 19004MPS 9999 FEW026 32/24 Q1007 NOSIG
ZGSZ,2025-06-07 06:00,ZGSZ 070600Z 20005MPS 9999 FEW026 32/26 Q1006 NOSIG
ZGSZ,2025-06-07 07:00,ZGSZ 070700Z 20006MPS CAVOK 32/25 Q1005 NOSIG
ZGSZ,2025-06-07 08:00,ZGSZ 070800Z 19007MPS CAVOK 31/26 Q1005 NOSIG
ZGSZ,2025-06-07 09:00,ZGSZ 070900Z 18006MPS CAVOK 31/26 Q1005 NOSIG
ZGSZ,2025-06-07 10:00,ZGSZ 071000Z 19008MPS CAVOK 30/25 Q1004 NOSIG
ZGSZ,2025-06-07 11:00,ZGSZ 071100Z 18007MPS CAVOK 29/26 Q1005 NOSIG
ZGSZ,2025-06-07 12:00,ZGSZ 071200Z 18006MPS CAVOK 29/26 Q1005 NOSIG
ZGSZ,2025-06-07 13:00,ZGSZ 071300Z 17006MPS CAVOK 29/26 Q1006 NOSIG
ZGSZ,2025-06-07 14:00,ZGSZ 071400Z 18005MPS CAVOK 29/26 Q1006 NOSIG
ZGSZ,2025-06-07 15:00,ZGSZ 071500Z 18005MPS 9999 FEW026 29/26 Q1007 NOSIG
ZGSZ,2025-06-07 16:00,ZGSZ 071600Z 18005MPS 9999 FEW020 29/26 Q1007 NOSIG
ZGSZ,2025-06-07 17:00,ZGSZ 071700Z 17004MPS 9999 SCT020 28/27 Q1007 NOSIG
ZGSZ,2025-06-07 18:00,ZGSZ 071800Z 17004MPS 9999 SCT020 28/26 Q1006 NOSIG
ZGSZ,2025-06-07 19:00,ZGSZ 071900Z 17004MPS 9999 FEW026 28/26 Q1006 NOSIG
ZGSZ,2025-06-07 20:00,ZGSZ 072000Z 17004MPS 9999 FEW026 28/26 Q1006 NOSIG
ZGSZ,2025-06-07 21:00,ZGSZ 072100Z 17004MPS CAVOK 28/26 Q1006 NOSIG
ZGSZ,2025-06-07 22:00,ZGSZ 072200Z 17003MPS CAVOK 28/26 Q1006 NOSIG
ZGSZ,2025-06-07 23:00,ZGSZ 072300Z 16004MPS 9999 FEW030 29/26 Q1006 NOSIG
ZGSZ,2025-06-08 00:00,ZGSZ 080000Z 17003MPS 9999 BKN016 29/26 Q1007 NOSIG
ZGSZ,2025-06-08 01:00,ZGSZ 080100Z 18003MPS 140V200 9999 FEW016 30/27 Q1007 NOSIG
ZGSZ,2025-06-08 02:00,ZGSZ 080200Z 20002MPS 160V230 9999 FEW016 30/26 Q1007 NOSIG
ZGSZ,2025-06-08 03:00,ZGSZ 080300Z 18004MPS 9999 FEW020 31/26 Q1007 NOSIG
ZGSZ,2025-06-08 04:00,ZGSZ 080400Z 19004MPS 9999 FEW026 32/26 Q1006 NOSIG
ZGSZ,2025-06-08 05:00,ZGSZ 080500Z 20005MPS 9999 FEW026 31/27 Q1005 NOSIG
ZGSZ,2025-06-08 06:00,ZGSZ 080600Z 19005MPS 9999 FEW026 32/27 Q1004 NOSIG
ZGSZ,2025-06-08 07:00,ZGSZ 080700Z 19005MPS CAVOK 32/26 Q1004 NOSIG
ZGSZ,2025-06-08 08:00,ZGSZ 080800Z 18006MPS CAVOK 32/26 Q1003 NOSIG
ZGSZ,2025-06-08 09:00,ZGSZ 080900Z 18006MPS CAVOK 31/27 Q1003 NOSIG
ZGSZ,2025-06-08 10:00,ZGSZ 081000Z 18006MPS CAVOK 31/27 Q1004 NOSIG
ZGSZ,2025-06-08 11:00,ZGSZ 081100Z 18006MPS 9999 FEW020 30/27 Q1004 NOSIG
ZGSZ,2025-06-08 12:00,ZGSZ 081200Z 17006MPS 9999 FEW020 30/27 Q1004 NOSIG
ZGSZ,2025-06-08 13:00,ZGSZ 081300Z 17005MPS 9999 FEW020 30/27 Q1005 NOSIG
ZGSZ,2025-06-08 14:00,ZGSZ 081400Z 17005MPS 9999 FEW020 29/27 Q1006 NOSIG
ZGSZ,2025-06-08 15:00,ZGSZ 081500Z 17006MPS CAVOK 29/27 Q1006 NOSIG
ZGSZ,2025-06-08 16:00,ZGSZ 081600Z 17006MPS CAVOK 29/27 Q1006 NOSIG
ZGSZ,2025-06-08 17:00,ZGSZ 081700Z 17005MPS CAVOK 29/27 Q1005 NOSIG
ZGSZ,2025-06-08 18:00,ZGSZ 081800Z 17004MPS CAVOK 29/27 Q1005 NOSIG
ZGSZ,2025-06-08 19:00,ZGSZ 081900Z 16004MPS CAVOK 29/27 Q1004 NOSIG
ZGSZ,2025-06-08 20:00,ZGSZ 082000Z 16003MPS 9999 FEW033 28/26 Q1004 NOSIG
ZGSZ,2025-06-08 21:00,ZGSZ 082100Z 17003MPS 9999 SCT020 28/26 Q1004 NOSIG
ZGSZ,2025-06-08 22:00,ZGSZ 082200Z 18002MPS 9999 SCT020 28/26 Q1005 NOSIG
ZGSZ,2025-06-08 23:00,ZGSZ 082300Z 19002MPS 9999 FEW026 29/27 Q1006 NOSIG
ZGSZ,2025-06-09 00:00,ZGSZ 090000Z 19002MPS 9999 FEW026 30/26 Q1006 NOSIG
ZGSZ,2025-06-09 01:00,ZGSZ 090100Z 21002MPS 180V240 9999 FEW026 30/26 Q1006 NOSIG
ZGSZ,2025-06-09 02:00,ZGSZ 090200Z 20003MPS 150V220 9999 FEW026 31/26 Q1006 NOSIG
ZGSZ,2025-06-09 03:00,ZGSZ 090300Z 19003MPS 160V220 9999 FEW026 32/26 Q1006 NOSIG
ZGSZ,2025-06-09 04:00,ZGSZ 090400Z 21003MPS 9999 FEW026 32/25 Q1005 NOSIG
ZGSZ,2025-06-09 05:00,ZGSZ 090500Z 19005MPS 9999 FEW026 33/26 Q1005 NOSIG
ZGSZ,2025-06-09 06:00,ZGSZ 090600Z 19005MPS 9999 FEW026 FEW030TCU 32/26 Q1004 NOSIG
ZGSZ,2025-06-09 07:00,ZGSZ 090700Z 19006MPS 9999 FEW026 32/27 Q1002 NOSIG
ZGSZ,2025-06-09 08:00,ZGSZ 090800Z 18006MPS CAVOK 32/27 Q1001 NOSIG
ZGSZ,2025-06-09 09:00,ZGSZ 090900Z 20005MPS CAVOK 32/27 Q1001 NOSIG
ZGSZ,2025-06-09 10:00,ZGSZ 091000Z 19005MPS CAVOK 31/27 Q1002 NOSIG
ZGSZ,2025-06-09 11:00,ZGSZ 091100Z 18006MPS CAVOK 30/27 Q1002 NOSIG
ZGSZ,2025-06-09 12:00,ZGSZ 091200Z 18006MPS CAVOK 30/27 Q1003 NOSIG
ZGSZ,2025-06-09 13:00,ZGSZ 091300Z 18005MPS CAVOK 30/27 Q1003 NOSIG
ZGSZ,2025-06-09 14:00,ZGSZ 091400Z 18004MPS CAVOK 30/27 Q1004 NOSIG
ZGSZ,2025-06-09 15:00,ZGSZ 091500Z 17004MPS CAVOK 29/27 Q1004 NOSIG
ZGSZ,2025-06-09 16:00,ZGSZ 091600Z 21002MPS CAVOK 30/27 Q1004 NOSIG
ZGSZ,2025-06-09 17:00,ZGSZ 091700Z 21003MPS CAVOK 29/27 Q1004 NOSIG
ZGSZ,2025-06-09 18:00,ZGSZ 091800Z 22003MPS CAVOK 29/27 Q1004 NOSIG
ZGSZ,2025-06-09 19:00,ZGSZ 091900Z 22002MPS 9999 FEW050 29/27 Q1003 NOSIG
ZGSZ,2025-06-09 20:00,ZGSZ 092000Z 23003MPS CAVOK 29/26 Q1003 NOSIG
ZGSZ,2025-06-09 21:00,ZGSZ 092100Z 20002MPS 9999 SCT050 29/26 Q1003 NOSIG
ZGSZ,2025-06-09 22:00,ZGSZ 092200Z 18001MPS 9999 FEW026 29/26 Q1004 NOSIG
ZGSZ,2025-06-09 23:00,ZGSZ 092300Z 18002MPS 9999 SCT050 29/26 Q1005 NOSIG
ZGSZ,2025-06-10 00:00,ZGSZ 100000Z 23002MPS 9999 SCT050 30/26 Q1005 NOSIG
ZGSZ,2025-06-10 01:00,ZGSZ 100100Z 24003MPS 9999 FEW033 30/26 Q1005 NOSIG
ZGSZ,2025-06-10 02:00,ZGSZ 100200Z 24003MPS 9999 FEW033 31/26 Q1005 NOSIG
ZGSZ,2025-06-10 03:00,ZGSZ 100300Z 24003MPS 9999 SCT050 32/26 Q1005 NOSIG
ZGSZ,2025-06-10 04:00,ZGSZ 100400Z 22004MPS 9999 FEW020 33/26 Q1004 NOSIG
ZGSZ,2025-06-10 05:00,ZGSZ 100500Z 22004MPS 9999 FEW020 34/24 Q1003 NOSIG
ZGSZ,2025-06-10 06:00,ZGSZ 100600Z 22004MPS 9999 SCT020 34/25 Q1002 NOSIG
ZGSZ,2025-06-10 07:00,ZGSZ 100700Z 20005MPS 9999 SCT033 34/25 Q1002 NOSIG
ZGSZ,2025-06-10 08:00,ZGSZ 100800Z 20006MPS 9999 SCT050 33/26 Q1002 NOSIG
ZGSZ,2025-06-10 09:00,ZGSZ 100900Z 21004MPS 9999 SCT050 32/27 Q1001 NOSIG
ZGSZ,2025-06-10 10:00,ZGSZ 101000Z 12006MPS 9999 SCT023 34/25 Q1002 NOSIG
ZGSZ,2025-06-10 11:00,ZGSZ 101100Z 12006MPS 080V150 CAVOK 33/25 Q1003 NOSIG
ZGSZ,2025-06-10 12:00,ZGSZ 101200Z 12005MPS CAVOK 32/24 Q1004 NOSIG
ZGSZ,2025-06-10 13:00,ZGSZ 101300Z 10004MPS 060V130 CAVOK 31/25 Q1004 NOSIG
ZGSZ,2025-06-10 14:00,ZGSZ 101400Z 12005MPS 080V140 CAVOK 31/25 Q1004 NOSIG
ZGSZ,2025-06-10 15:00,ZGSZ 101500Z 10004MPS 080V160 CAVOK 31/25 Q1005 NOSIG
ZGSZ,2025-06-10 16:00,ZGSZ 101600Z 08002MPS 030V130 9999 BKN050 31/24 Q1005 NOSIG
ZGSZ,2025-06-10 17:00,ZGSZ 101700Z 07002MPS 040V120 9999 BKN046 30/24 Q1005 NOSIG
ZGSZ,2025-06-10 18:00,ZGSZ 101800Z 08004MPS 020V100 9999 BKN033 31/24 Q1004 NOSIG
ZGSZ,2025-06-10 19:00,ZGSZ 101900Z 10004MPS 8000 SHRA FEW010 BKN033 31/25 Q1004 BECMG AT1930 -SHRA
ZGSZ,2025-06-10 20:00,ZGSZ 102000Z 12001MPS 9999 BKN033 28/26 Q1003 NOSIG
ZGSZ,2025-06-10 21:00,ZGSZ 102100Z 05003MPS 9999 FEW033 29/25 Q1003 NOSIG
ZGSZ,2025-06-10 22:00,ZGSZ 102200Z 05004MPS 9999 BKN033 29/25 Q1004 NOSIG
ZGSZ,2025-06-10 23:00,ZGSZ 102300Z 06004MPS 9999 FEW033 30/25 Q1004 NOSIG
ZGSZ,2025-06-11 00:00,ZGSZ 110000Z 06004MPS 9999 BKN040 31/25 Q1004 NOSIG
ZGSZ,2025-06-11 01:00,ZGSZ 110100Z 08004MPS 030V120 9999 FEW020 32/25 Q1004 NOSIG
ZGSZ,2025-06-11 02:00,ZGSZ 110200Z 10005MPS 070V130 9999 FEW020 SCT040 32/26 Q1005 NOSIG
ZGSZ,2025-06-11 03:00,ZGSZ 110300Z 09006MPS 060V120 9999 FEW020 SCT040 33/25 Q1005 NOSIG
ZGSZ,2025-06-11 04:00,ZGSZ 110400Z 07005MPS 040V120 9999 FEW020CB 33/25 Q1004 NOSIG
ZGSZ,2025-06-11 05:00,ZGSZ 110500Z 06005G10MPS 040V120 9999 FEW020CB SCT040 34/25 Q1004 NOSIG
ZGSZ,2025-06-11 06:00,ZGSZ 110600Z 12008MPS 080V140 9000 -SHRA FEW020CB SCT026 35/25 Q1003 BECMG AT0630 SHRA
ZGSZ,2025-06-11 07:00,ZGSZ 110700Z 06003MPS 010V110 9000 -TSRA FEW015 FEW030CB SCT040 30/26 Q1003 RESHRA BECMG AT0710 12006MPS NSW
ZGSZ,2025-06-11 08:00,ZGSZ 110800Z 12008MPS 9000 -SHRA FEW030CB SCT040 29/26 Q1003 RESHRA NOSIG
ZGSZ,2025-06-11 09:00,ZGSZ 110900Z 11006MPS 9999 FEW030CB SCT040 30/26 Q1002 NOSIG
ZGSZ,2025-06-11 10:00,ZGSZ 111000Z 11007MPS 9999 FEW040 30/25 Q1003 NOSIG
ZGSZ,2025-06-11 11:00,ZGSZ 111100Z 10006MPS 9999 FEW040 30/25 Q1003 NOSIG
ZGSZ,2025-06-11 12:00,ZGSZ 111200Z 10005MPS 060V130 CAVOK 30/25 Q1004 NOSIG
ZGSZ,2025-06-11 13:00,ZGSZ 111300Z 11005MPS 9999 -SHRA FEW026 29/25 Q1005 NOSIG
ZGSZ,2025-06-11 14:00,ZGSZ 111400Z 10006MPS 070V140 9999 FEW033 30/24 Q1005 NOSIG
ZGSZ,2025-06-11 15:00,ZGSZ 111500Z 09005MPS 060V120 9999 SCT033 29/24 Q1005 RESHRA NOSIG
ZGSZ,2025-06-11 16:00,ZGSZ 111600Z 07006MPS 050V110 9999 -SHRA FEW026TCU 29/24 Q1005 BECMG AT1620 SHRA
ZGSZ,2025-06-11 17:00,ZGSZ 111700Z 07005MPS 040V100 9999 -SHRA FEW011 BKN033 27/25 Q1005 RESHRA BECMG AT1740 2000 +SHRA SCT015 FEW025CB BKN030
ZGSZ,2025-06-11 18:00,ZGSZ 111800Z 08005G11MPS 060V120 9999 SHRA FEW011 FEW030CB BKN040 28/25 Q1005 BECMG AT1920 NSW SCT015 BKN030
ZGSZ,2025-06-11 19:00,ZGSZ 111900Z 06007MPS 040V100 7000 SHRA FEW011 FEW030CB BKN040 27/25 Q1004 BECMG AT1910 NSW FEW015 BKN030
ZGSZ,2025-06-11 20:00,ZGSZ 112000Z 08005MPS 040V110 CAVOK 27/24 Q1004 NOSIG
ZGSZ,2025-06-11 21:00,ZGSZ 112100Z 08005MPS 050V120 9999 FEW020 28/24 Q1004 NOSIG
ZGSZ,2025-06-11 22:00,ZGSZ 112200Z 08003MPS 040V140 9999 -SHRA SCT020 BKN040 28/24 Q1004 NOSIG
ZGSZ,2025-06-11 23:00,ZGSZ 112300Z 06005MPS 040V110 9999 SCT020 28/24 Q1004 NOSIG
ZGSZ,2025-06-12 00:00,ZGSZ 120000Z 06005MPS 9999 BKN026 29/24 Q1005 NOSIG
ZGSZ,2025-06-12 01:00,ZGSZ 120100Z 07006MPS 040V120 9999 FEW020 BKN040 30/25 Q1005 NOSIG
ZGSZ,2025-06-12 02:00,ZGSZ 120200Z 07004MPS 040V110 9999 SCT020 BKN040 31/24 Q1005 NOSIG
ZGSZ,2025-06-12 03:00,ZGSZ 120300Z 10005MPS 070V130 9999 SCT020 BKN040 32/24 Q1005 NOSIG
ZGSZ,2025-06-12 04:00,ZGSZ 120400Z 09005MPS 060V120 9999 SCT020 33/25 Q1004 NOSIG
ZGSZ,2025-06-12 05:00,ZGSZ 120500Z 07006MPS 050V120 9999 FEW020 SCT040 33/24 Q1004 NOSIG
ZGSZ,2025-06-12 06:00,ZGSZ 120600Z 05005MPS 010V090 9000 SHRA FEW016 FEW026CB SCT046 32/24 Q1003 BECMG AT0615 NSW
ZGSZ,2025-06-12 07:00,ZGSZ 120700Z 10006MPS 9999 FEW023 SCT040 33/24 Q1003 NOSIG
ZGSZ,2025-06-12 08:00,ZGSZ 120800Z 10009MPS 9999 FEW023 SCT050 34/24 Q1002 NOSIG
ZGSZ,2025-06-12 09:00,ZGSZ 120900Z 11008MPS 080V140 9999 SCT023 33/24 Q1002 NOSIG
ZGSZ,2025-06-12 10:00,ZGSZ 121000Z 12007MPS 9999 SCT023 31/24 Q1003 NOSIG
ZGSZ,2025-06-12 11:00,ZGSZ 121100Z 10006MPS 9999 SCT020 BKN050 30/24 Q1004 NOSIG
ZGSZ,2025-06-12 12:00,ZGSZ 121200Z 09004MPS 060V120 9999 FEW020 SCT050 30/25 Q1004 BECMG AT1350 SHRA
ZGSZ,2025-06-12 13:00,ZGSZ 121300Z 06004MPS 030V090 9000 SHRA FEW016 FEW026CB BKN040 29/25 Q1006 BECMG AT1430 -SHRA
ZGSZ,2025-06-12 14:00,ZGSZ 121400Z 06003MPS 9000 SHRA FEW016 FEW026CB BKN050 28/25 Q1006 BECMG AT1440 -SHRA
ZGSZ,2025-06-12 15:00,ZGSZ 121500Z VRB02MPS 6000 SHRA FEW010 FEW023CB BKN040 27/25 Q1007 BECMG AT1530 -SHRA
ZGSZ,2025-06-12 16:00,ZGSZ 121600Z 05003MPS 9999 -SHRA FEW013 FEW023CB BKN040 26/25 Q1006 RESHRA NOSIG
ZGSZ,2025-06-12 17:00,ZGSZ 121700Z 09003MPS CAVOK 27/24 Q1005 NOSIG
ZGSZ,2025-06-12 18:00,ZGSZ 121800Z 08002MPS 030V120 CAVOK 27/24 Q1005 NOSIG
ZGSZ,2025-06-12 19:00,ZGSZ 121900Z VRB02MPS CAVOK 27/24 Q1004 NOSIG
ZGSZ,2025-06-12 20:00,ZGSZ 122000Z 03002MPS CAVOK 27/24 Q1005 NOSIG
ZGSZ,2025-06-12 21:00,ZGSZ 122100Z 06002MPS CAVOK 27/24 Q1004 NOSIG
ZGSZ,2025-06-12 22:00,ZGSZ 122200Z 03002MPS 9999 FEW026 27/25 Q1005 NOSIG
ZGSZ,2025-06-12 23:00,ZGSZ 122300Z 07002MPS 340V110 9999 FEW026 28/25 Q1005 NOSIG
ZGSZ,2025-06-13 00:00,ZGSZ 130000Z 06002MPS 010V110 9999 FEW026 29/25 Q1006 NOSIG
ZGSZ,2025-06-13 01:00,ZGSZ 130100Z 10004MPS 050V140 9999 FEW020 SCT040 31/25 Q1006 NOSIG
ZGSZ,2025-06-13 02:00,ZGSZ 130200Z 22006MPS 8000 SHRA SCT015 FEW027CB BKN033 27/25 Q1007 BECMG AT0240 12005MPS -SHRA
ZGSZ,2025-06-13 03:00,ZGSZ 130300Z 07005MPS 040V120 8000 -SHRA FEW015 FEW040CB 26/24 Q1006 RETSRA BECMG AT0420 20005MPS TSRA
ZGSZ,2025-06-13 04:00,ZGSZ 130400Z 07003MPS 030V120 9999 FEW040CB SCT040 28/25 Q1006 BECMG AT0440 SHRA
ZGSZ,2025-06-13 05:00,ZGSZ 130500Z 16003MPS 100V210 8000 SHRA FEW026CB BKN040 31/25 Q1005 BECMG AT0540 -SHRA
ZGSZ,2025-06-13 06:00,ZGSZ 130600Z 09003MPS 060V130 9999 -SHRA FEW026CB SCT040 29/24 Q1005 RETSRA NOSIG
ZGSZ,2025-06-13 07:00,ZGSZ 130700Z 12003MPS 090V150 9999 FEW026TCU SCT040 30/25 Q1004 BECMG AT0740 19005MPS +TSRA FEW020CB BKN033
ZGSZ,2025-06-13 08:00,ZGSZ 130800Z 17008MPS 6000 SHRA FEW014 FEW026CB SCT040 27/24 Q1004 BECMG AT0840 -SHRA
ZGSZ,2025-06-13 09:00,ZGSZ 130900Z 12004MPS 080V140 9999 FEW050 28/25 Q1004 NOSIG
ZGSZ,2025-06-13 10:00,ZGSZ 131000Z 11004MPS 9999 FEW026 BKN050 28/25 Q1004 BECMG AT1140 18006MPS SHRA
ZGSZ,2025-06-13 11:00,ZGSZ 131100Z 10004MPS 060V140 9999 BKN040 28/25 Q1004 BECMG AT1140 18006MPS SHRA
ZGSZ,2025-06-13 12:00,ZGSZ 131200Z 11004MPS 9999 BKN050 28/24 Q1005 BECMG AT1230 18006MPS SHRA FEW020CB BKN033
ZGSZ,2025-06-13 13:00,ZGSZ 131300Z 12004MPS 8000 -SHRA SCT020 FEW030CB BKN040 27/25 Q1006 RESHRA BECMG AT1330 SHRA
ZGSZ,2025-06-13 14:00,ZGSZ 131400Z 13003MPS 9999 SCT020 BKN030 27/25 Q1006 RESHRA NOSIG
ZGSZ,2025-06-13 15:00,ZGSZ 131500Z 13004MPS 080V150 9999 SCT020 BKN030 27/25 Q1007 NOSIG
ZGSZ,2025-06-13 16:00,ZGSZ 131600Z 17003MPS 9000 SHRA SCT020 FEW026CB BKN040 27/25 Q1006 BECMG AT1620 -SHRA
ZGSZ,2025-06-13 17:00,ZGSZ 131700Z 11002MPS 070V150 8000 -SHRA SCT020 FEW026CB BKN040 27/25 Q1006 RETSRA NOSIG
ZGSZ,2025-06-13 18:00,ZGSZ 131800Z 09003MPS 060V140 9999 FEW013 BKN027 27/25 Q1005 BECMG AT1840 17006MPS SHRA
ZGSZ,2025-06-13 19:00,ZGSZ 131900Z 16003MPS 120V180 9000 SHRA SCT014 FEW025CB BKN025 27/26 Q1005 BECMG AT1940 -SHRA
ZGSZ,2025-06-13 20:00,ZGSZ 132000Z 15005MPS 9999 SCT020 BKN050 27/25 Q1004 BECMG AT2140 SHRA
ZGSZ,2025-06-13 21:00,ZGSZ 132100Z 16006MPS 9999 SCT020 BKN033 28/26 Q1004 BECMG AT2130 SHRA
ZGSZ,2025-06-13 22:00,ZGSZ 132200Z 17009MPS 9999 SCT020 BKN050 28/26 Q1005 RESHRA NOSIG
ZGSZ,2025-06-13 23:00,ZGSZ 132300Z 17008MPS 8000 SHRA SCT014 FEW025CB BKN033 29/26 Q1005 BECMG AT2320 -SHRA
ZGSZ,2025-06-14 00:00,ZGSZ 140000Z 16009MPS 9000 SHRA SCT017 FEW025CB BKN033 29/26 Q1005 BECMG AT0020 -SHRA
ZGSZ,2025-06-14 01:00,ZGSZ 140100Z 17010MPS 9999 FEW020 BKN033 30/27 Q1005 NOSIG
ZGSZ,2025-06-14 02:00,ZGSZ 140200Z 16009MPS 9999 FEW020 BKN033 31/27 Q1006 BECMG AT0320 SHRA
ZGSZ,2025-06-14 03:00,ZGSZ 140300Z 16011MPS 9999 FEW020 FEW026CB BKN040 30/26 Q1005 BECMG AT0320 SHRA
ZGSZ,2025-06-14 04:00,ZGSZ 140400Z 18007MPS 7000 SHRA FEW020 FEW026CB BKN040 26/26 Q1005 BECMG AT0420 -SHRA
ZGSZ,2025-06-14 05:00,ZGSZ 140500Z 16009MPS 9999 SCT040 31/26 Q1004 NOSIG
ZGSZ,2025-06-14 06:00,ZGSZ 140600Z 16011MPS 9999 FEW020 SCT040 30/26 Q1003 BECMG AT0720 2500 +SHRA
ZGSZ,2025-06-14 07:00,ZGSZ 140700Z 17005G12MPS 110V210 8000 R15/P2000 R16/1200U SHRA FEW020 FEW026CB BKN040 28/27 Q1003 WS R16 BECMG AT0740 -SHRA
ZGSZ,2025-06-14 08:00,ZGSZ 140800Z 17010MPS 9999 FEW020 BKN040 29/27 Q1003 RESHRA NOSIG
ZGSZ,2025-06-14 09:00,ZGSZ 140900Z 16011MPS 9999 FEW020 BKN040 30/26 Q1003 NOSIG
ZGSZ,2025-06-14 10:00,ZGSZ 141000Z 16011MPS 9999 BKN040 30/26 Q1003 NOSIG
ZGSZ,2025-06-14 11:00,ZGSZ 141100Z 16010MPS 9999 SCT030 30/26 Q1003 NOSIG
ZGSZ,2025-06-14 12:00,ZGSZ 141200Z 16011MPS 9999 FEW026 BKN050 29/26 Q1004 NOSIG
ZGSZ,2025-06-14 13:00,ZGSZ 141300Z 16010MPS 9999 FEW026 29/25 Q1004 NOSIG
ZGSZ,2025-06-14 14:00,ZGSZ 141400Z 16009MPS 9999 BKN033 29/25 Q1004 NOSIG
ZGSZ,2025-06-14 15:00,ZGSZ 141500Z 16010MPS 9999 SCT033 29/26 Q1005 BECMG AT1540 SHRA
ZGSZ,2025-06-14 16:00,ZGSZ 141600Z 16012MPS 9999 -SHRA FEW020 FEW026CB BKN033 29/26 Q1004 NOSIG
ZGSZ,2025-06-14 17:00,ZGSZ 141700Z 16011MPS 9999 FEW020 BKN033 29/26 Q1003 NOSIG
ZGSZ,2025-06-14 18:00,ZGSZ 141800Z 16012MPS 9999 FEW020 29/26 Q1003 BECMG AT1840 SHRA
ZGSZ,2025-06-14 19:00,ZGSZ 141900Z 17011MPS 9999 -SHRA FEW020 FEW030CB 29/26 Q1003 NOSIG
ZGSZ,2025-06-14 20:00,ZGSZ 142000Z 17012MPS 9999 -SHRA FEW020 FEW030CB 29/26 Q1002 NOSIG
ZGSZ,2025-06-14 21:00,ZGSZ 142100Z 17011G16MPS 9999 BKN025 29/26 Q1002 NOSIG
ZGSZ,2025-06-14 22:00,ZGSZ 142200Z 17010MPS 9999 -SHRA BKN022 29/26 Q1003 NOSIG
ZGSZ,2025-06-14 23:00,ZGSZ 142300Z 18011G16MPS 9999 -SHRA SCT020 OVC033 29/26 Q1004 NOSIG
ZGSZ,2025-06-15 00:00,ZGSZ 150000Z 18010MPS 9999 -SHRA FEW016 OVC033 29/26 Q1004 NOSIG
ZGSZ,2025-06-15 01:00,ZGSZ 150100Z 18011MPS 9999 -SHRA SCT015 FEW020TCU BKN033 29/26 Q1004 NOSIG
ZGSZ,2025-06-15 02:00,ZGSZ 150200Z 18010MPS 9999 FEW016 BKN026 29/27 Q1004 NOSIG
ZGSZ,2025-06-15 03:00,ZGSZ 150300Z 19010MPS 9999 BKN026 29/27 Q1005 NOSIG
ZGSZ,2025-06-15 04:00,ZGSZ 150400Z 18009MPS 9999 SCT040 30/27 Q1004 NOSIG
ZGSZ,2025-06-15 05:00,ZGSZ 150500Z 18009MPS CAVOK 30/27 Q1004 NOSIG
ZGSZ,2025-06-15 06:00,ZGSZ 150600Z 18008MPS 9999 FEW040 30/27 Q1003 NOSIG
ZGSZ,2025-06-15 07:00,ZGSZ 150700Z 18009MPS 9999 FEW040 30/27 Q1003 NOSIG
ZGSZ,2025-06-15 08:00,ZGSZ 150800Z 18007MPS 9999 SCT026 30/27 Q1003 NOSIG
ZGSZ,2025-06-15 09:00,ZGSZ 150900Z 18008MPS 9999 BKN033 30/27 Q1003 NOSIG
ZGSZ,2025-06-15 10:00,ZGSZ 151000Z 17007MPS 9999 BKN033 29/27 Q1003 NOSIG
ZGSZ,2025-06-15 11:00,ZGSZ 151100Z 18007MPS 9999 FEW033 29/27 Q1004 NOSIG
ZGSZ,2025-06-15 12:00,ZGSZ 151200Z 18006MPS 9999 FEW050 29/27 Q1005 NOSIG
ZGSZ,2025-06-15 13:00,ZGSZ 151300Z 17006MPS 9999 FEW050 29/27 Q1005 NOSIG
ZGSZ,2025-06-15 14:00,ZGSZ 151400Z 17006MPS 9999 FEW050 29/27 Q1007 NOSIG
ZGSZ,2025-06-15 15:00,ZGSZ 151500Z 17006MPS 9999 SCT050 29/27 Q1007 NOSIG
ZGSZ,2025-06-15 16:00,ZGSZ 151600Z 17006MPS 9999 SCT050 29/27 Q1007 NOSIG
ZGSZ,2025-06-15 17:00,ZGSZ 151700Z 18005MPS 9999 SCT020 SCT050 29/27 Q1006 NOSIG
ZGSZ,2025-06-15 18:00,ZGSZ 151800Z 17006MPS 9999 FEW015 SCT033 28/27 Q1006 NOSIG
ZGSZ,2025-06-15 19:00,ZGSZ 151900Z 18006MPS 9999 FEW023 28/27 Q1006 NOSIG
ZGSZ,2025-06-15 20:00,ZGSZ 152000Z 18006MPS 9999 FEW013 SCT023 28/27 Q1006 NOSIG
ZGSZ,2025-06-15 21:00,ZGSZ 152100Z 18006MPS 9999 FEW013 SCT023 28/27 Q1006 NOSIG
ZGSZ,2025-06-15 22:00,ZGSZ 152200Z 17005MPS 9999 BKN033 28/27 Q1007 NOSIG
ZGSZ,2025-06-15 23:00,ZGSZ 152300Z 17006MPS 9999 SCT030 29/27 Q1007 NOSIG
ZGSZ,2025-06-16 00:00,ZGSZ 160000Z 18007MPS 9999 SCT030 29/27 Q1008 NOSIG
ZGSZ,2025-06-16 01:00,ZGSZ 160100Z 18007MPS 9999 SCT040 30/27 Q1008 NOSIG
ZGSZ,2025-06-16 02:00,ZGSZ 160200Z 18008MPS 9999 SCT040 30/27 Q1008 NOSIG
ZGSZ,2025-06-16 03:00,ZGSZ 160300Z 17010MPS 9999 FEW030 SCT050 30/27 Q1007 NOSIG
ZGSZ,2025-06-16 04:00,ZGSZ 160400Z 18008MPS 9999 FEW023 SCT050 31/27 Q1007 NOSIG
ZGSZ,2025-06-16 05:00,ZGSZ 160500Z 17009MPS 9999 FEW026TCU SCT050 30/27 Q1007 NOSIG
ZGSZ,2025-06-16 06:00,ZGSZ 160600Z 17008MPS 9999 FEW020 FEW023TCU BKN040 30/26 Q1006 NOSIG
ZGSZ,2025-06-16 07:00,ZGSZ 160700Z 17007MPS 9999 SCT020 FEW030TCU BKN040 30/27 Q1006 NOSIG
ZGSZ,2025-06-16 08:00,ZGSZ 160800Z 17006MPS 9999 SCT020 BKN043 30/27 Q1006 BECMG AT0840 TSRA FEW026CB BKN033
ZGSZ,2025-06-16 09:00,ZGSZ 160900Z 18006MPS 9999 -TSRA FEW020 FEW030CB BKN043 29/27 Q1006 BECMG AT0940 NSW
ZGSZ,2025-06-16 10:00,ZGSZ 161000Z 31003MPS 9999 FEW020 FEW030CB BKN043 28/25 Q1006 NOSIG
ZGSZ,2025-06-16 11:00,ZGSZ 161100Z 35003MPS 9999 -TSRA SCT013 FEW030CB BKN043 28/25 Q1007 BECMG AT1240 -SHRA
ZGSZ,2025-06-16 12:00,ZGSZ 161200Z 04002MPS 340V080 8000 -TSRA SCT013 FEW030CB BKN050 27/25 Q1008 RESHRA BECMG AT1330 -SHRA
ZGSZ,2025-06-16 13:00,ZGSZ 161300Z 09002MPS 050V140 9999 -TSRA FEW020 FEW030CB BKN050 27/26 Q1008 BECMG AT1330 NSW
ZGSZ,2025-06-16 14:00,ZGSZ 161400Z 11003MPS 080V140 9999 FEW020 BKN050 27/25 Q1009 NOSIG
ZGSZ,2025-06-16 15:00,ZGSZ 161500Z 10003MPS 070V130 9999 SCT023 28/25 Q1009 NOSIG
ZGSZ,2025-06-16 16:00,ZGSZ 161600Z 10003MPS 9999 SCT023 28/25 Q1009 BECMG AT1630 SHRA
ZGSZ,2025-06-16 17:00,ZGSZ 161700Z 07002MPS 360V120 9999 -SHRA FEW020 BKN050 27/25 Q1008 RESHRA BECMG AT1800 SHRA
ZGSZ,2025-06-16 18:00,ZGSZ 161800Z 10004MPS 8000 -TSRA FEW016 FEW026CB BKN050 27/26 Q1008 BECMG AT1840 -SHRA
ZGSZ,2025-06-16 19:00,ZGSZ 161900Z 36003MPS 320V070 8000 TSRA SCT014 FEW026CB BKN050 27/26 Q1008 BECMG AT1930 -SHRA
ZGSZ,2025-06-16 20:00,ZGSZ 162000Z 34003MPS 6000 TSRA SCT010 FEW026CB BKN033 26/25 Q1008 BECMG AT2100 +TSRA
ZGSZ,2025-06-16 21:00,ZGSZ 162100Z 20004G09MPS 2800 TSRA SCT005 FEW026CB BKN033 25/24 Q1009 BECMG AT2130 4000 -TSRA
ZGSZ,2025-06-16 22:00,ZGSZ 162200Z 18006MPS 8000 -SHRA FEW013 FEW026CB BKN043 26/24 Q1009 RETSRA BECMG AT2220 2000 +TSRA
ZGSZ,2025-06-16 23:00,ZGSZ 162300Z 27002MPS 240V300 5000 TSRA SCT010 FEW020CB BKN043 26/25 Q1009 BECMG AT0010 -SHRA
ZGSZ,2025-06-17 00:00,ZGSZ 170000Z 19008MPS 4000 SHRA SCT015 FEW020CB BKN043 25/24 Q1010 RETS BECMG AT0040 -SHRA
ZGSZ,2025-06-17 01:00,ZGSZ 170100Z 14006MPS 8000 -SHRA FEW015 SCT033 24/23 Q1010 RETSRA NOSIG
ZGSZ,2025-06-17 02:00,ZGSZ 170200Z 15007MPS 7000 SHRA FEW020 SCT033 26/24 Q1010 BECMG AT0220 -SHRA
ZGSZ,2025-06-17 03:00,ZGSZ 170300Z 16005MPS 9999 -SHRA SCT040 26/24 Q1010 NOSIG
ZGSZ,2025-06-17 04:00,ZGSZ 170400Z 13005MPS 9999 SCT040 27/25 Q1009 NOSIG
ZGSZ,2025-06-17 05:00,ZGSZ 170500Z 14005MPS 9999 FEW026 SCT050 28/25 Q1009 NOSIG
ZGSZ,2025-06-17 06:00,ZGSZ 170600Z 15005MPS 2500 +SHRA SCT015 FEW026CB BKN050 27/25 Q1009 BECMG AT0740 3500 -SHRA
ZGSZ,2025-06-17 07:00,ZGSZ 170700Z 06005MPS 040V100 7000 SHRA SCT010 FEW026CB BKN050 26/25 Q1008 BECMG AT0740 14005MPS -SHRA
ZGSZ,2025-06-17 08:00,ZGSZ 170800Z 14007MPS 9999 -SHRA FEW010 SCT030 27/25 Q1008 RESHRA NOSIG
ZGSZ,2025-06-17 09:00,ZGSZ 170900Z 12005MPS 9999 FEW020 SCT040 28/25 Q1008 BECMG AT0915 19005MPS SHRA
ZGSZ,2025-06-17 10:00,ZGSZ 171000Z 15005MPS 7000 -SHRA FEW020 FEW026CB SCT040 27/25 Q1009 RESHRA NOSIG
ZGSZ,2025-06-17 11:00,ZGSZ 171100Z 10005MPS 9999 -SHRA FEW020 SCT040 27/25 Q1009 NOSIG
ZGSZ,2025-06-17 12:00,ZGSZ 171200Z 11004MPS 080V140 9999 -SHRA FEW020 SCT040 27/25 Q1009 NOSIG
ZGSZ,2025-06-17 13:00,ZGSZ 171300Z 11004MPS 9999 SCT040 27/25 Q1010 NOSIG
ZGSZ,2025-06-17 14:00,ZGSZ 171400Z 11004MPS 9999 FEW040 27/25 Q1010 NOSIG
ZGSZ,2025-06-17 15:00,ZGSZ 171500Z 11003MPS 9999 SCT040 27/25 Q1010 NOSIG
ZGSZ,2025-06-17 16:00,ZGSZ 171600Z 11003MPS CAVOK 27/25 Q1010 NOSIG
ZGSZ,2025-06-17 17:00,ZGSZ 171700Z 11003MPS 080V140 CAVOK 27/25 Q1009 NOSIG
ZGSZ,2025-06-17 18:00,ZGSZ 171800Z 12003MPS 9999 SCT040 27/25 Q1009 NOSIG
ZGSZ,2025-06-17 19:00,ZGSZ 171900Z 14004MPS 9999 -SHRA FEW020 SCT040 28/25 Q1009 NOSIG
ZGSZ,2025-06-17 20:00,ZGSZ 172000Z 15005MPS 9999 SCT050 28/25 Q1009 NOSIG
ZGSZ,2025-06-17 21:00,ZGSZ 172100Z 16006MPS 9999 FEW050 28/26 Q1009 NOSIG
ZGSZ,2025-06-17 22:00,ZGSZ 172200Z 16006MPS 9999 FEW020CB BKN050 28/26 Q1009 NOSIG
ZGSZ,2025-06-17 23:00,ZGSZ 172300Z 16006MPS 9999 FEW020 29/26 Q1009 NOSIG
ZGSZ,2025-06-18 00:00,ZGSZ 180000Z 16007MPS 9999 FEW040 29/26 Q1009 NOSIG
ZGSZ,2025-06-18 01:00,ZGSZ 180100Z 17007MPS 9999 FEW040 29/26 Q1009 NOSIG
ZGSZ,2025-06-18 02:00,ZGSZ 180200Z 17007MPS 9999 SCT040 30/26 Q1010 NOSIG
ZGSZ,2025-06-18 03:00,ZGSZ 180300Z 17007MPS 9999 FEW040 30/26 Q1010 NOSIG
ZGSZ,2025-06-18 04:00,ZGSZ 180400Z 17007MPS 9999 FEW040 30/26 Q1010 NOSIG
ZGSZ,2025-06-18 05:00,ZGSZ 180500Z 17008MPS 9999 FEW020 FEW026CB SCT050 30/26 Q1009 NOSIG
ZGSZ,2025-06-18 06:00,ZGSZ 180600Z 17008MPS 9999 FEW020 FEW026CB SCT050 30/26 Q1009 NOSIG
ZGSZ,2025-06-18 07:00,ZGSZ 180700Z 17007MPS 9999 -SHRA FEW026TCU SCT050 30/26 Q1008 NOSIG
ZGSZ,2025-06-18 08:00,ZGSZ 180800Z 18006MPS 9999 SCT050 30/26 Q1008 NOSIG
ZGSZ,2025-06-18 09:00,ZGSZ 180900Z 17008MPS CAVOK 30/25 Q1008 NOSIG
ZGSZ,2025-06-18 10:00,ZGSZ 181000Z 17007MPS 9999 FEW026 29/26 Q1008 NOSIG
ZGSZ,2025-06-18 11:00,ZGSZ 181100Z 17006MPS 9999 FEW033 29/26 Q1008 NOSIG
ZGSZ,2025-06-18 12:00,ZGSZ 181200Z 15005MPS CAVOK 29/24 Q1008 NOSIG
ZGSZ,2025-06-18 13:00,ZGSZ 181300Z 15005MPS CAVOK 29/25 Q1008 NOSIG
ZGSZ,2025-06-18 14:00,ZGSZ 181400Z 15005MPS CAVOK 29/25 Q1009 NOSIG
ZGSZ,2025-06-18 15:00,ZGSZ 181500Z 16005MPS CAVOK 29/25 Q1010 NOSIG
ZGSZ,2025-06-18 16:00,ZGSZ 181600Z 15005MPS CAVOK 28/25 Q1009 NOSIG
ZGSZ,2025-06-18 17:00,ZGSZ 181700Z 16004MPS CAVOK 28/25 Q1009 NOSIG
ZGSZ,2025-06-18 18:00,ZGSZ 181800Z 15003MPS CAVOK 28/25 Q1008 NOSIG
ZGSZ,2025-06-18 19:00,ZGSZ 181900Z 17003MPS 9999 -SHRA SCT020 BKN046 28/26 Q1008 NOSIG
ZGSZ,2025-06-18 20:00,ZGSZ 182000Z 16003MPS 9999 SCT030 28/25 Q1008 NOSIG
ZGSZ,2025-06-18 21:00,ZGSZ 182100Z 14003MPS 9999 FEW040 28/25 Q1008 NOSIG
ZGSZ,2025-06-18 22:00,ZGSZ 182200Z 14003MPS 9999 SCT040 27/25 Q1008 NOSIG
ZGSZ,2025-06-18 23:00,ZGSZ 182300Z 13003MPS 110V170 9999 FEW040 29/25 Q1008 NOSIG
ZGSZ,2025-06-19 00:00,ZGSZ 190000Z 16004MPS 9999 FEW040 30/25 Q1008 NOSIG
ZGSZ,2025-06-19 01:00,ZGSZ 190100Z 17004MPS 9999 SCT029 30/25 Q1009 NOSIG
ZGSZ,2025-06-19 02:00,ZGSZ 190200Z 18005MPS 9999 FEW029 30/26 Q1009 NOSIG
ZGSZ,2025-06-19 03:00,ZGSZ 190300Z 19005MPS 9999 SCT029 31/26 Q1009 NOSIG
ZGSZ,2025-06-19 04:00,ZGSZ 190400Z 18005MPS 9999 SCT026 30/25 Q1009 NOSIG
ZGSZ,2025-06-19 05:00,ZGSZ 190500Z 18006MPS 9999 SCT026 31/26 Q1009 NOSIG
ZGSZ,2025-06-19 06:00,ZGSZ 190600Z 18007MPS 9999 SCT026 31/26 Q1008 NOSIG
ZGSZ,2025-06-19 07:00,ZGSZ 190700Z 18006MPS 9999 SCT026 31/26 Q1007 NOSIG
ZGSZ,2025-06-19 08:00,ZGSZ 190800Z 18008MPS 9999 FEW026 30/26 Q1007 NOSIG
ZGSZ,2025-06-19 09:00,ZGSZ 190900Z 19006MPS 9999 FEW026 FEW033TCU 29/25 Q1007 NOSIG
ZGSZ,2025-06-19 10:00,ZGSZ 191000Z 18005MPS 9999 FEW026 SCT040 29/26 Q1007 NOSIG
ZGSZ,2025-06-19 11:00,ZGSZ 191100Z 16006MPS 9999 SCT033 30/24 Q1008 NOSIG
ZGSZ,2025-06-19 12:00,ZGSZ 191200Z 14006MPS CAVOK 29/23 Q1008 NOSIG
ZGSZ,2025-06-19 13:00,ZGSZ 191300Z 10004MPS 060V130 9999 SCT026 29/24 Q1009 NOSIG
ZGSZ,2025-06-19 14:00,ZGSZ 191400Z 11004MPS 080V150 9999 BKN026 29/24 Q1009 NOSIG
ZGSZ,2025-06-19 15:00,ZGSZ 191500Z 16005MPS 9999 BKN033 28/25 Q1009 NOSIG
ZGSZ,2025-06-19 16:00,ZGSZ 191600Z 21006MPS 8000 SHRA FEW016 FEW020CB BKN033 26/25 Q1009 BECMG AT1620 -SHRA
ZGSZ,2025-06-19 17:00,ZGSZ 191700Z 15004MPS 9999 -SHRA FEW020 SCT043 27/25 Q1008 NOSIG
ZGSZ,2025-06-19 18:00,ZGSZ 191800Z 14004MPS 9999 -SHRA FEW020 BKN043 27/25 Q1008 NOSIG
ZGSZ,2025-06-19 19:00,ZGSZ 191900Z 13003MPS 9999 FEW020 BKN043 27/25 Q1007 NOSIG
ZGSZ,2025-06-19 20:00,ZGSZ 192000Z 11003MPS 9999 FEW016 BKN050 27/25 Q1007 NOSIG
ZGSZ,2025-06-19 21:00,ZGSZ 192100Z 12003MPS 9999 FEW016 FEW030TCU BKN050 27/25 Q1007 NOSIG
ZGSZ,2025-06-19 22:00,ZGSZ 192200Z 12003MPS 9999 -SHRA FEW016 FEW030CB BKN050 27/25 Q1008 RESHRA NOSIG
ZGSZ,2025-06-19 23:00,ZGSZ 192300Z 13003MPS 090V160 9999 BKN050 28/25 Q1008 NOSIG
ZGSZ,2025-06-20 00:00,ZGSZ 200000Z 16003MPS 9999 SCT026 29/25 Q1009 NOSIG
ZGSZ,2025-06-20 01:00,ZGSZ 200100Z 16004MPS 9999 SCT026 29/25 Q1009 NOSIG
ZGSZ,2025-06-20 02:00,ZGSZ 200200Z 18005MPS 9999 FEW026 30/26 Q1009 NOSIG
ZGSZ,2025-06-20 03:00,ZGSZ 200300Z 18006MPS 9999 FEW020 FEW026TCU 31/26 Q1009 NOSIG
ZGSZ,2025-06-20 04:00,ZGSZ 200400Z 20006MPS 9999 FEW026 SCT050 30/26 Q1009 NOSIG
ZGSZ,2025-06-20 05:00,ZGSZ 200500Z 18007MPS 9999 FEW026 SCT050 30/26 Q1008 NOSIG
ZGSZ,2025-06-20 06:00,ZGSZ 200600Z 18008MPS 9999 FEW026 30/26 Q1007 NOSIG
ZGSZ,2025-06-20 07:00,ZGSZ 200700Z 17008MPS 9999 FEW026 30/26 Q1007 NOSIG
ZGSZ,2025-06-20 08:00,ZGSZ 200800Z 17009MPS 9999 FEW026 29/26 Q1007 NOSIG
ZGSZ,2025-06-20 09:00,ZGSZ 200900Z 16008MPS 9999 FEW026 30/25 Q1006 NOSIG
ZGSZ,2025-06-20 10:00,ZGSZ 201000Z 16007MPS 9999 FEW026 29/24 Q1007 NOSIG
ZGSZ,2025-06-20 11:00,ZGSZ 201100Z 17007MPS CAVOK 29/25 Q1007 NOSIG
ZGSZ,2025-06-20 12:00,ZGSZ 201200Z 16006MPS 9999 FEW020 29/25 Q1008 NOSIG
ZGSZ,2025-06-20 13:00,ZGSZ 201300Z 16007MPS 9999 FEW020 29/26 Q1009 NOSIG
ZGSZ,2025-06-20 14:00,ZGSZ 201400Z 17005MPS 9999 FEW020 29/26 Q1009 NOSIG
ZGSZ,2025-06-20 15:00,ZGSZ 201500Z 17005MPS 9999 FEW020 29/25 Q1010 NOSIG
ZGSZ,2025-06-20 16:00,ZGSZ 201600Z 16004MPS CAVOK 28/25 Q1009 NOSIG
ZGSZ,2025-06-20 17:00,ZGSZ 201700Z 16003MPS 9999 FEW020 28/25 Q1009 NOSIG
ZGSZ,2025-06-20 18:00,ZGSZ 201800Z 16004MPS 9999 FEW020 28/26 Q1008 NOSIG
ZGSZ,2025-06-20 19:00,ZGSZ 201900Z 16005MPS CAVOK 28/25 Q1008 NOSIG
ZGSZ,2025-06-20 20:00,ZGSZ 202000Z 16005MPS CAVOK 28/26 Q1008 NOSIG
ZGSZ,2025-06-20 21:00,ZGSZ 202100Z 17005MPS CAVOK 28/25 Q1008 NOSIG
ZGSZ,2025-06-20 22:00,ZGSZ 202200Z 14005MPS 9999 FEW020 BKN040 29/24 Q1008 NOSIG
ZGSZ,2025-06-20 23:00,ZGSZ 202300Z 16004MPS 9999 FEW020 FEW030CB BKN040 28/26 Q1009 NOSIG
ZGSZ,2025-06-21 00:00,ZGSZ 210000Z 15005MPS 9999 FEW020 FEW030CB BKN040 30/26 Q1009 NOSIG
ZGSZ,2025-06-21 01:00,ZGSZ 210100Z 16006MPS 9999 FEW020 FEW030CB BKN040 30/25 Q1009 BECMG AT0130 SHRA
ZGSZ,2025-06-21 02:00,ZGSZ 210200Z 16007MPS 9999 FEW020 BKN050 27/24 Q1009 RESHRA NOSIG
ZGSZ,2025-06-21 03:00,ZGSZ 210300Z 16006MPS CAVOK 29/26 Q1009 NOSIG
ZGSZ,2025-06-21 04:00,ZGSZ 210400Z 17006MPS 9999 FEW026 FEW033TCU 30/27 Q1009 BECMG AT0430 SHRA FEW025CB BKN040
ZGSZ,2025-06-21 05:00,ZGSZ 210500Z 18006MPS 9999 FEW026 SCT050 31/27 Q1009 NOSIG
ZGSZ,2025-06-21 06:00,ZGSZ 210600Z 18007MPS 9999 SCT026 31/26 Q1008 NOSIG
ZGSZ,2025-06-21 07:00,ZGSZ 210700Z 17007MPS 9999 SCT026 FEW030TCU 31/26 Q1008 NOSIG
ZGSZ,2025-06-21 08:00,ZGSZ 210800Z 27005MPS 250V320 9999 SHRA SCT020 FEW030CB 27/24 Q1008 BECMG AT0910 18005MPS -SHRA
ZGSZ,2025-06-21 09:00,ZGSZ 210900Z 21004MPS 9999 -SHRA SCT020 27/25 Q1007 RESHRA NOSIG
ZGSZ,2025-06-21 10:00,ZGSZ 211000Z 21004MPS 9999 SCT040 28/25 Q1008 RESHRA NOSIG
ZGSZ,2025-06-21 11:00,ZGSZ 211100Z 18003MPS CAVOK 28/26 Q1008 NOSIG
ZGSZ,2025-06-21 12:00,ZGSZ 211200Z 15004MPS CAVOK 28/25 Q1009 NOSIG
ZGSZ,2025-06-21 13:00,ZGSZ 211300Z 16004MPS CAVOK 28/25 Q1009 NOSIG
ZGSZ,2025-06-21 14:00,ZGSZ 211400Z 15004MPS 9999 FEW020 28/26 Q1010 NOSIG
ZGSZ,2025-06-21 15:00,ZGSZ 211500Z 16005MPS 9999 FEW020 28/27 Q1010 NOSIG
ZGSZ,2025-06-21 16:00,ZGSZ 211600Z 17005MPS 9999 FEW020 28/26 Q1009 NOSIG
ZGSZ,2025-06-21 17:00,ZGSZ 211700Z 17005MPS 9999 SCT020 28/26 Q1009 NOSIG
ZGSZ,2025-06-21 18:00,ZGSZ 211800Z 18004MPS 9999 SCT026 28/26 Q1009 NOSIG
ZGSZ,2025-06-21 19:00,ZGSZ 211900Z 18004MPS 9999 SCT026 28/26 Q1008 NOSIG
ZGSZ,2025-06-21 20:00,ZGSZ 212000Z 17004MPS 9999 SCT026 28/26 Q1008 NOSIG
ZGSZ,2025-06-21 21:00,ZGSZ 212100Z 17004MPS 9999 -SHRA SCT026 28/26 Q1008 NOSIG
ZGSZ,2025-06-21 22:00,ZGSZ 212200Z 19003MPS 9999 -SHRA FEW020 FEW025TCU SCT033 28/26 Q1009 NOSIG
ZGSZ,2025-06-21 23:00,ZGSZ 212300Z 18004MPS 9999 FEW020 FEW025TCU SCT040 27/25 Q1009 RESHRA NOSIG
ZGSZ,2025-06-22 00:00,ZGSZ 220000Z 18003MPS 9999 SCT020 29/26 Q1010 NOSIG
ZGSZ,2025-06-22 01:00,ZGSZ 220100Z 17004MPS 9999 FEW020TCU FEW020 SCT053 29/26 Q1010 NOSIG
ZGSZ,2025-06-22 02:00,ZGSZ 220200Z 17005MPS 9999 SCT020 30/27 Q1010 NOSIG
ZGSZ,2025-06-22 03:00,ZGSZ 220300Z 17006MPS 9999 FEW020TCU FEW020 31/26 Q1010 NOSIG
ZGSZ,2025-06-22 04:00,ZGSZ 220400Z 18005MPS 9999 FEW020 FEW023CB 31/27 Q1009 NOSIG
ZGSZ,2025-06-22 05:00,ZGSZ 220500Z 20005MPS 9999 FEW020 FEW023CB 31/27 Q1008 BECMG AT0620 SHRA
ZGSZ,2025-06-22 06:00,ZGSZ 220600Z 23004MPS 7000 SHRA FEW010 FEW030CB 27/25 Q1008 BECMG AT0640 -SHRA
ZGSZ,2025-06-22 07:00,ZGSZ 220700Z 19005MPS 9999 FEW020 29/26 Q1008 NOSIG
ZGSZ,2025-06-22 08:00,ZGSZ 220800Z 18005MPS 9999 FEW020 29/25 Q1007 NOSIG
ZGSZ,2025-06-22 09:00,ZGSZ 220900Z 17005MPS 9999 FEW020 29/26 Q1007 NOSIG
ZGSZ,2025-06-22 10:00,ZGSZ 221000Z 17006MPS 9999 FEW020 29/27 Q1006 NOSIG
ZGSZ,2025-06-22 11:00,ZGSZ 221100Z 16006MPS 9999 FEW020 29/26 Q1007 NOSIG
ZGSZ,2025-06-22 12:00,ZGSZ 221200Z 16005MPS 9999 FEW020 29/26 Q1008 NOSIG
ZGSZ,2025-06-22 13:00,ZGSZ 221300Z 17005MPS 9999 FEW020 29/26 Q1008 NOSIG
ZGSZ,2025-06-22 14:00,ZGSZ 221400Z 17005MPS CAVOK 29/26 Q1009 NOSIG
ZGSZ,2025-06-22 15:00,ZGSZ 221500Z 17004MPS CAVOK 28/26 Q1009 NOSIG
ZGSZ,2025-06-22 16:00,ZGSZ 221600Z 17004MPS CAVOK 28/26 Q1008 NOSIG
ZGSZ,2025-06-22 17:00,ZGSZ 221700Z 17003MPS CAVOK 28/26 Q1008 NOSIG
ZGSZ,2025-06-22 18:00,ZGSZ 221800Z 18003MPS 9999 FEW020 28/26 Q1008 NOSIG
ZGSZ,2025-06-22 19:00,ZGSZ 221900Z 19003MPS 9999 FEW020 SCT030 28/26 Q1007 NOSIG
ZGSZ,2025-06-22 20:00,ZGSZ 222000Z 20003MPS 9999 SCT030 28/26 Q1007 NOSIG
ZGSZ,2025-06-22 21:00,ZGSZ 222100Z 19002MPS CAVOK 28/26 Q1007 NOSIG
ZGSZ,2025-06-22 22:00,ZGSZ 222200Z 19002MPS 9999 FEW026 28/25 Q1007 NOSIG
ZGSZ,2025-06-22 23:00,ZGSZ 222300Z 20002MPS 9999 FEW026 FEW030TCU BKN050 28/26 Q1008 NOSIG
ZGSZ,2025-06-23 00:00,ZGSZ 230000Z 18002MPS 9999 SCT030 29/26 Q1008 NOSIG
ZGSZ,2025-06-23 01:00,ZGSZ 230100Z 17004MPS 9999 FEW030 30/26 Q1008 NOSIG
ZGSZ,2025-06-23 02:00,ZGSZ 230200Z 19004MPS 9999 FEW030 30/27 Q1008 NOSIG
ZGSZ,2025-06-23 03:00,ZGSZ 230300Z 18005MPS 9999 FEW030TCU FEW030 31/26 Q1008 BECMG AT0330 SHRA
ZGSZ,2025-06-23 04:00,ZGSZ 230400Z 19005MPS 9999 -SHRA FEW030CB BKN040 30/26 Q1008 NOSIG
ZGSZ,2025-06-23 05:00,ZGSZ 230500Z 18006MPS 9999 BKN050 30/26 Q1007 NOSIG
ZGSZ,2025-06-23 06:00,ZGSZ 230600Z 17007MPS 9999 FEW020 31/26 Q1006 NOSIG
ZGSZ,2025-06-23 07:00,ZGSZ 230700Z 17006MPS 9999 FEW020 31/26 Q1005 NOSIG
ZGSZ,2025-06-23 08:00,ZGSZ 230800Z 17007MPS 9999 FEW020 31/26 Q1005 NOSIG
ZGSZ,2025-06-23 09:00,ZGSZ 230900Z 17007MPS 9999 FEW030 30/26 Q1004 NOSIG
ZGSZ,2025-06-23 10:00,ZGSZ 231000Z 17007MPS CAVOK 30/26 Q1004 NOSIG
ZGSZ,2025-06-23 11:00,ZGSZ 231100Z 17007MPS CAVOK 29/26 Q1005 NOSIG
ZGSZ,2025-06-23 12:00,ZGSZ 231200Z 17006MPS CAVOK 29/26 Q1005 NOSIG
ZGSZ,2025-06-23 13:00,ZGSZ 231300Z 17005MPS CAVOK 29/26 Q1006 NOSIG
ZGSZ,2025-06-23 14:00,ZGSZ 231400Z 17006MPS 9999 FEW025 29/26 Q1007 NOSIG
ZGSZ,2025-06-23 15:00,ZGSZ 231500Z 17006MPS 9999 FEW026 29/26 Q1007 NOSIG
ZGSZ,2025-06-23 16:00,ZGSZ 231600Z 17005MPS 9999 SCT025 29/26 Q1007 NOSIG
ZGSZ,2025-06-23 17:00,ZGSZ 231700Z 18004MPS 9999 FEW018 SCT030 29/26 Q1007 NOSIG
ZGSZ,2025-06-23 18:00,ZGSZ 231800Z 18005MPS 9999 -RA BKN027 28/26 Q1007 NOSIG
ZGSZ,2025-06-23 19:00,ZGSZ 231900Z 17004MPS 9999 SCT027 28/26 Q1006 NOSIG
ZGSZ,2025-06-23 20:00,ZGSZ 232000Z 18003MPS CAVOK 28/26 Q1006 NOSIG
ZGSZ,2025-06-23 21:00,ZGSZ 232100Z 19003MPS 9999 FEW026 28/26 Q1006 NOSIG
ZGSZ,2025-06-23 22:00,ZGSZ 232200Z 18003MPS 9999 FEW020TCU SCT026 28/26 Q1007 NOSIG
ZGSZ,2025-06-23 23:00,ZGSZ 232300Z 16001MPS 9999 FEW020 29/26 Q1008 NOSIG
ZGSZ,2025-06-24 00:00,ZGSZ 240000Z 16002MPS 9999 FEW020 30/26 Q1008 NOSIG
ZGSZ,2025-06-24 01:00,ZGSZ 240100Z 18003MPS 150V210 9999 FEW020 30/26 Q1008 NOSIG
ZGSZ,2025-06-24 02:00,ZGSZ 240200Z 18003MPS 9999 FEW020 30/26 Q1008 NOSIG
ZGSZ,2025-06-24 03:00,ZGSZ 240300Z 19003MPS 9999 FEW020 31/26 Q1008 NOSIG
ZGSZ,2025-06-24 04:00,ZGSZ 240400Z 19003MPS 160V220 9999 FEW020 31/25 Q1008 NOSIG
ZGSZ,2025-06-24 05:00,ZGSZ 240500Z 19005MPS 9999 FEW020 31/26 Q1007 NOSIG
ZGSZ,2025-06-24 06:00,ZGSZ 240600Z 18005MPS 9999 FEW020 31/26 Q1007 NOSIG
ZGSZ,2025-06-24 07:00,ZGSZ 240700Z 18006MPS 9999 FEW020 31/26 Q1007 NOSIG
ZGSZ,2025-06-24 08:00,ZGSZ 240800Z 18006MPS 9999 FEW020 31/26 Q1006 NOSIG
ZGSZ,2025-06-24 09:00,ZGSZ 240900Z 19006MPS 9999 FEW020 31/26 Q1006 NOSIG
ZGSZ,2025-06-24 10:00,ZGSZ 241000Z 18005MPS 9999 FEW020 30/26 Q1006 NOSIG
ZGSZ,2025-06-24 11:00,ZGSZ 241100Z 16006MPS 9999 FEW020 29/26 Q1006 NOSIG
ZGSZ,2025-06-24 12:00,ZGSZ 241200Z 17006MPS 9999 FEW020 29/26 Q1007 NOSIG
ZGSZ,2025-06-24 13:00,ZGSZ 241300Z 17006MPS 9999 FEW020 29/26 Q1008 NOSIG
ZGSZ,2025-06-24 14:00,ZGSZ 241400Z 18005MPS CAVOK 29/26 Q1009 NOSIG
ZGSZ,2025-06-24 15:00,ZGSZ 241500Z 18004MPS CAVOK 29/26 Q1009 NOSIG
ZGSZ,2025-06-24 16:00,ZGSZ 241600Z 19002MPS CAVOK 29/25 Q1009 NOSIG
ZGSZ,2025-06-24 17:00,ZGSZ 241700Z 18003MPS CAVOK 28/26 Q1009 NOSIG
ZGSZ,2025-06-24 18:00,ZGSZ 241800Z 20002MPS CAVOK 28/26 Q1008 NOSIG
ZGSZ,2025-06-24 19:00,ZGSZ 241900Z 20002MPS CAVOK 28/26 Q1008 NOSIG
ZGSZ,2025-06-24 20:00,ZGSZ 242000Z 20002MPS CAVOK 28/26 Q1008 NOSIG
ZGSZ,2025-06-24 21:00,ZGSZ 242100Z 18002MPS 9999 FEW020 28/26 Q1008 NOSIG
ZGSZ,2025-06-24 22:00,ZGSZ 242200Z VRB01MPS 9999 FEW020 28/26 Q1008 NOSIG
ZGSZ,2025-06-24 23:00,ZGSZ 242300Z VRB01MPS 9999 FEW020 29/25 Q1009 NOSIG
ZGSZ,2025-06-25 00:00,ZGSZ 250000Z 26002MPS 240V300 9999 SCT020 30/26 Q1009 NOSIG
ZGSZ,2025-06-25 01:00,ZGSZ 250100Z 26002MPS 220V290 9999 SCT020 30/26 Q1009 NOSIG
ZGSZ,2025-06-25 02:00,ZGSZ 250200Z 24002MPS 9999 SCT020 30/26 Q1009 NOSIG
ZGSZ,2025-06-25 03:00,ZGSZ 250300Z 24004MPS 9999 SCT026 31/26 Q1009 NOSIG
ZGSZ,2025-06-25 04:00,ZGSZ 250400Z 23004MPS 9999 SCT026 31/25 Q1009 NOSIG
ZGSZ,2025-06-25 05:00,ZGSZ 250500Z 22004MPS 9999 SCT026 32/25 Q1009 NOSIG
ZGSZ,2025-06-25 06:00,ZGSZ 250600Z 22004MPS 9999 SCT026 32/25 Q1008 NOSIG
ZGSZ,2025-06-25 07:00,ZGSZ 250700Z 20004MPS 9999 SCT026 31/26 Q1007 NOSIG
ZGSZ,2025-06-25 08:00,ZGSZ 250800Z 20005MPS 9999 SCT026 31/26 Q1007 NOSIG
ZGSZ,2025-06-25 09:00,ZGSZ 250900Z 20004MPS 9999 FEW026 31/26 Q1006 NOSIG
ZGSZ,2025-06-25 10:00,ZGSZ 251000Z 19005MPS 9999 FEW026 31/25 Q1007 NOSIG
ZGSZ,2025-06-25 11:00,ZGSZ 251100Z 18005MPS 9999 FEW026 31/24 Q1007 BECMG AT1140 12005MPS
ZGSZ,2025-06-25 12:00,ZGSZ 251200Z 10006MPS 9999 FEW026 32/21 Q1007 NOSIG
ZGSZ,2025-06-25 13:00,ZGSZ 251300Z 11005MPS CAVOK 31/22 Q1007 NOSIG
ZGSZ,2025-06-25 14:00,ZGSZ 251400Z 11005MPS CAVOK 31/24 Q1008 NOSIG
ZGSZ,2025-06-25 15:00,ZGSZ 251500Z 11005MPS 080V140 CAVOK 30/24 Q1009 NOSIG
ZGSZ,2025-06-25 16:00,ZGSZ 251600Z 11005MPS 070V140 9999 FEW033 30/25 Q1009 NOSIG
ZGSZ,2025-06-25 17:00,ZGSZ 251700Z 11005MPS 9999 FEW033 30/24 Q1008 NOSIG
ZGSZ,2025-06-25 18:00,ZGSZ 251800Z 10004MPS 9999 FEW033 30/25 Q1008 NOSIG
ZGSZ,2025-06-25 19:00,ZGSZ 251900Z 10003MPS 9999 FEW030 29/24 Q1007 NOSIG
ZGSZ,2025-06-25 20:00,ZGSZ 252000Z 09003MPS 060V120 9999 BKN033 29/24 Q1007 NOSIG
ZGSZ,2025-06-25 21:00,ZGSZ 252100Z 08003MPS 060V130 9999 FEW030 30/25 Q1007 NOSIG
ZGSZ,2025-06-25 22:00,ZGSZ 252200Z 08004MPS 050V130 9999 FEW020 SCT030 29/25 Q1007 BECMG AT2320 SHRA
ZGSZ,2025-06-25 23:00,ZGSZ 252300Z 10004MPS 9999 FEW020 FEW026CB BKN050 30/25 Q1007 BECMG AT2320 SHRA
ZGSZ,2025-06-26 00:00,ZGSZ 260000Z VRB01MPS 9999 -SHRA FEW016 FEW026CB BKN050 28/25 Q1008 RESHRA BECMG AT0020 SHRA
ZGSZ,2025-06-26 01:00,ZGSZ 260100Z 10003MPS 080V140 9999 FEW016 FEW026CB BKN050 28/25 Q1008 BECMG AT0130 SHRA
ZGSZ,2025-06-26 02:00,ZGSZ 260200Z 15003MPS 6000 SHRA FEW016 FEW026CB BKN050 28/26 Q1009 BECMG AT0215 -SHRA
ZGSZ,2025-06-26 03:00,ZGSZ 260300Z VRB02MPS 9999 -SHRA FEW016 FEW026CB BKN050 28/26 Q1008 NOSIG
ZGSZ,2025-06-26 04:00,ZGSZ 260400Z 09004MPS 060V130 9999 FEW016 BKN050 30/26 Q1008 NOSIG
ZGSZ,2025-06-26 05:00,ZGSZ 260500Z 10004MPS 070V130 9999 FEW016 BKN050 30/26 Q1008 BECMG AT0520 SHRA
ZGSZ,2025-06-26 06:00,ZGSZ 260600Z 16004MPS 9000 -SHRA FEW016 BKN050 29/27 Q1008 RESHRA NOSIG
ZGSZ,2025-06-26 07:00,ZGSZ 260700Z 17003MPS 140V200 9999 -SHRA FEW016 FEW026CB BKN050 31/26 Q1007 NOSIG
ZGSZ,2025-06-26 08:00,ZGSZ 260800Z 19003MPS 9999 FEW016 FEW026CB BKN050 30/26 Q1007 NOSIG
ZGSZ,2025-06-26 09:00,ZGSZ 260900Z 17003MPS 9999 -SHRA FEW016 SCT050 30/25 Q1007 NOSIG
ZGSZ,2025-06-26 10:00,ZGSZ 261000Z 08003MPS 050V130 9999 FEW016 SCT050 30/25 Q1006 NOSIG
ZGSZ,2025-06-26 11:00,ZGSZ 261100Z 11005MPS 070V130 9999 FEW016 SCT050 29/25 Q1007 NOSIG
ZGSZ,2025-06-26 12:00,ZGSZ 261200Z 14004MPS 090V160 9999 SCT050 29/24 Q1007 NOSIG
ZGSZ,2025-06-26 13:00,ZGSZ 261300Z 14005MPS 9999 -SHRA FEW050 29/25 Q1008 NOSIG
ZGSZ,2025-06-26 14:00,ZGSZ 261400Z 12005MPS 9999 FEW033 29/25 Q1008 NOSIG
ZGSZ,2025-06-26 15:00,ZGSZ 261500Z 10003MPS 070V140 9999 FEW033 28/25 Q1009 NOSIG
ZGSZ,2025-06-26 16:00,ZGSZ 261600Z 09004MPS 060V140 CAVOK 29/25 Q1008 NOSIG
ZGSZ,2025-06-26 17:00,ZGSZ 261700Z 11003MPS 060V140 CAVOK 29/25 Q1008 NOSIG
ZGSZ,2025-06-26 18:00,ZGSZ 261800Z 11004MPS 8000 -TSRA FEW016 FEW026CB BKN050 27/24 Q1007 RESHRA BECMG AT1810 2500 +TSRA
ZGSZ,2025-06-26 19:00,ZGSZ 261900Z 13006MPS 8000 -SHRA FEW016 FEW026CB BKN050 27/24 Q1007 RETSRA NOSIG
ZGSZ,2025-06-26 20:00,ZGSZ 262000Z 10003MPS 8000 -SHRA FEW016 FEW026CB BKN050 27/25 Q1007 BECMG AT2050 SHRA
ZGSZ,2025-06-26 21:00,ZGSZ 262100Z 13004MPS 8000 TSRA FEW016 FEW026CB BKN040 27/25 Q1007 BECMG AT2150 -SHRA
ZGSZ,2025-06-26 22:00,ZGSZ 262200Z 16003MPS 120V180 6000 SHRA BKN020 FEW026CB BKN040 26/25 Q1008 RETS BECMG AT2210 -SHRA
ZGSZ,2025-06-26 23:00,ZGSZ 262300Z 10002MPS 030V130 8000 SHRA SCT020 FEW026CB BKN040 27/25 Q1008 RETS BECMG AT2310 -SHRA
ZGSZ,2025-06-27 00:00,ZGSZ 270000Z 13002MPS 090V150 CAVOK 28/25 Q1008 NOSIG
ZGSZ,2025-06-27 01:00,ZGSZ 270100Z VRB02MPS CAVOK 29/25 Q1008 NOSIG
ZGSZ,2025-06-27 02:00,ZGSZ 270200Z 14002MPS 050V200 9999 FEW040 30/26 Q1009 NOSIG
ZGSZ,2025-06-27 03:00,ZGSZ 270300Z 14003MPS 100V180 9999 FEW030 SCT050 31/26 Q1008 NOSIG
ZGSZ,2025-06-27 04:00,ZGSZ 270400Z 20004MPS 9999 SCT020 31/26 Q1008 NOSIG
ZGSZ,2025-06-27 05:00,ZGSZ 270500Z 18004MPS 8000 SHRA FEW020 FEW023CB BKN050 30/25 Q1007 NOSIG
ZGSZ,2025-06-27 06:00,ZGSZ 270600Z 13003MPS 050V170 8000 TSRA FEW020 FEW023CB BKN050 30/25 Q1007 NOSIG
ZGSZ,2025-06-27 07:00,ZGSZ 270700Z VRB01MPS 9999 FEW020 30/25 Q1006 NOSIG
ZGSZ,2025-06-27 08:00,ZGSZ 270800Z 18004MPS 9999 FEW020 30/26 Q1006 NOSIG
ZGSZ,2025-06-27 09:00,ZGSZ 270900Z 20004MPS 9999 SCT023 30/26 Q1006 NOSIG
ZGSZ,2025-06-27 10:00,ZGSZ 271000Z 14004MPS 110V170 9999 SCT023 30/25 Q1006 NOSIG
ZGSZ,2025-06-27 11:00,ZGSZ 271100Z 10004MPS 9999 FEW026 30/25 Q1006 NOSIG
ZGSZ,2025-06-27 12:00,ZGSZ 271200Z 09004MPS 060V130 9999 FEW040 29/24 Q1006 NOSIG
ZGSZ,2025-06-27 13:00,ZGSZ 271300Z 12003MPS 9999 FEW040 29/25 Q1007 NOSIG
ZGSZ,2025-06-27 14:00,ZGSZ 271400Z 11004MPS 080V140 9999 FEW040 29/24 Q1007 NOSIG
ZGSZ,2025-06-27 15:00,ZGSZ 271500Z 10003MPS 080V140 9999 FEW040 29/25 Q1008 NOSIG
ZGSZ,2025-06-27 16:00,ZGSZ 271600Z 07003MPS 030V130 9999 FEW040 29/25 Q1008 BECMG AT1750 SHRA FEW020 FEW025CB BKN030
ZGSZ,2025-06-27 17:00,ZGSZ 271700Z 08002MPS 040V140 9999 FEW020 29/25 Q1007 BECMG AT1750 TSRA
ZGSZ,2025-06-27 18:00,ZGSZ 271800Z 11006MPS 2800 TSRA SCT013 FEW023CB BKN033 25/24 Q1008 BECMG AT1840 5000 -SHRA
ZGSZ,2025-06-27 19:00,ZGSZ 271900Z VRB02MPS 9999 -TSRA FEW023CB SCT040 25/24 Q1007 BECMG AT1920 NSW
ZGSZ,2025-06-27 20:00,ZGSZ 272000Z VRB01MPS 9999 -SHRA NSC 26/24 Q1007 NOSIG
ZGSZ,2025-06-27 21:00,ZGSZ 272100Z 09001MPS CAVOK 27/24 Q1007 NOSIG
ZGSZ,2025-06-27 22:00,ZGSZ 272200Z 01002MPS 9999 BKN040 26/25 Q1007 NOSIG
ZGSZ,2025-06-27 23:00,ZGSZ 272300Z 06002MPS 050V110 9999 FEW020 SCT033 27/25 Q1007 NOSIG
ZGSZ,2025-06-28 00:00,ZGSZ 280000Z 10004MPS 9999 FEW020 SCT033 29/26 Q1007 NOSIG
ZGSZ,2025-06-28 01:00,ZGSZ 280100Z 16003MPS 110V200 9999 SCT020 30/25 Q1007 NOSIG
ZGSZ,2025-06-28 02:00,ZGSZ 280200Z 10002MPS 050V140 6000 TSRA SCT010 FEW020CB BKN040 28/25 Q1007 BECMG AT0230 -SHRA
ZGSZ,2025-06-28 03:00,ZGSZ 280300Z VRB01MPS 9999 SCT013 BKN053 28/26 Q1006 RETS NOSIG
ZGSZ,2025-06-28 04:00,ZGSZ 280400Z VRB01MPS 9999 FEW020 SCT053 30/26 Q1006 NOSIG
ZGSZ,2025-06-28 05:00,ZGSZ 280500Z 16003MPS 070V200 9999 FEW020 SCT053 30/26 Q1006 NOSIG
ZGSZ,2025-06-28 06:00,ZGSZ 280600Z 10003MPS 060V140 9999 FEW020 SCT053 31/25 Q1005 NOSIG
ZGSZ,2025-06-28 07:00,ZGSZ 280700Z 22003MPS 9999 SCT023 BKN053 29/26 Q1004 NOSIG
ZGSZ,2025-06-28 08:00,ZGSZ 280800Z 11004MPS 9999 SCT023 BKN053 31/25 Q1004 NOSIG
ZGSZ,2025-06-28 09:00,ZGSZ 280900Z 11005MPS 9999 SCT023 31/25 Q1004 NOSIG
ZGSZ,2025-06-28 10:00,ZGSZ 281000Z 18006MPS 9999 SCT023 30/26 Q1003 BECMG AT1130 12004MPS
ZGSZ,2025-06-28 11:00,ZGSZ 281100Z 16005MPS 9999 SCT023 29/25 Q1004 BECMG AT1230 10005MPS
ZGSZ,2025-06-28 12:00,ZGSZ 281200Z 13005MPS 9999 SCT023 29/24 Q1005 NOSIG
ZGSZ,2025-06-28 13:00,ZGSZ 281300Z 10003MPS 060V140 9999 SCT023 29/25 Q1005 NOSIG
ZGSZ,2025-06-28 14:00,ZGSZ 281400Z 10004MPS CAVOK 29/25 Q1006 NOSIG
ZGSZ,2025-06-28 15:00,ZGSZ 281500Z 11004MPS CAVOK 29/25 Q1006 NOSIG
ZGSZ,2025-06-28 16:00,ZGSZ 281600Z 10004MPS CAVOK 28/24 Q1006 NOSIG
ZGSZ,2025-06-28 17:00,ZGSZ 281700Z 11003MPS CAVOK 28/25 Q1005 NOSIG
ZGSZ,2025-06-28 18:00,ZGSZ 281800Z 10002MPS 080V140 CAVOK 28/25 Q1004 NOSIG
ZGSZ,2025-06-28 19:00,ZGSZ 281900Z VRB01MPS CAVOK 28/25 Q1004 NOSIG
ZGSZ,2025-06-28 20:00,ZGSZ 282000Z VRB01MPS CAVOK 28/25 Q1004 NOSIG
ZGSZ,2025-06-28 21:00,ZGSZ 282100Z 05002MPS 040V120 9999 SCT026 27/25 Q1004 NOSIG
ZGSZ,2025-06-28 22:00,ZGSZ 282200Z 04002MPS 350V140 9999 FEW026 27/25 Q1004 NOSIG
ZGSZ,2025-06-28 23:00,ZGSZ 282300Z 06002MPS 030V120 9999 FEW026 28/25 Q1005 NOSIG
ZGSZ,2025-06-29 00:00,ZGSZ 290000Z 10003MPS 070V160 9999 FEW026 29/25 Q1005 NOSIG
ZGSZ,2025-06-29 01:00,ZGSZ 290100Z 12003MPS 080V140 9999 FEW026 30/25 Q1006 BECMG AT0240 SHRA FEW015 FEW020CB BKN033
ZGSZ,2025-06-29 02:00,ZGSZ 290200Z 20003MPS 110V230 9999 SCT026 FEW030TCU 31/26 Q1005 BECMG AT0320 SHRA FEW015 FEW020CB BKN033
ZGSZ,2025-06-29 03:00,ZGSZ 290300Z 20004MPS 9999 SCT026 FEW030TCU SCT043 30/26 Q1005 BECMG AT0330 SHRA FEW015 FEW020CB BKN033
ZGSZ,2025-06-29 04:00,ZGSZ 290400Z 17005MPS 9999 -SHRA SCT020 FEW025TCU BKN050 30/25 Q1005 NOSIG
ZGSZ,2025-06-29 05:00,ZGSZ 290500Z 19005MPS 8000 SHRA FEW020 FEW025CB BKN040 30/26 Q1004 BECMG AT0540 -SHRA
ZGSZ,2025-06-29 06:00,ZGSZ 290600Z 11004MPS 080V140 9999 -TSRA SCT020 FEW025CB BKN050 30/25 Q1004 RESHRA BECMG AT0620 19005MPS -SHRA
ZGSZ,2025-06-29 07:00,ZGSZ 290700Z 20003MPS 9999 SCT020 BKN050 30/26 Q1004 NOSIG
ZGSZ,2025-06-29 08:00,ZGSZ 290800Z 17004MPS 140V200 9999 FEW020 SCT033 31/25 Q1003 NOSIG
ZGSZ,2025-06-29 09:00,ZGSZ 290900Z 17005MPS 9999 FEW020 SCT033 31/26 Q1003 NOSIG
ZGSZ,2025-06-29 10:00,ZGSZ 291000Z 18005MPS 9999 FEW020 SCT033 30/25 Q1003 BECMG AT1120 12005MPS
ZGSZ,2025-06-29 11:00,ZGSZ 291100Z 12005MPS 9999 SCT033 31/24 Q1004 NOSIG
ZGSZ,2025-06-29 12:00,ZGSZ 291200Z 13005MPS 9999 SCT033 30/24 Q1004 NOSIG
ZGSZ,2025-06-29 13:00,ZGSZ 291300Z 11004MPS 070V140 9999 FEW030 30/24 Q1005 NOSIG
ZGSZ,2025-06-29 14:00,ZGSZ 291400Z 10004G09MPS 070V140 9999 FEW030 29/24 Q1006 NOSIG
ZGSZ,2025-06-29 15:00,ZGSZ 291500Z 10003MPS 070V130 9999 FEW030 29/24 Q1006 NOSIG
ZGSZ,2025-06-29 16:00,ZGSZ 291600Z 08003MPS 050V110 9999 FEW030 29/24 Q1005 NOSIG
ZGSZ,2025-06-29 17:00,ZGSZ 291700Z 10004MPS 9999 FEW040 28/24 Q1004 NOSIG
ZGSZ,2025-06-29 18:00,ZGSZ 291800Z 10004MPS 080V140 9999 FEW040 28/24 Q1004 NOSIG
ZGSZ,2025-06-29 19:00,ZGSZ 291900Z 09002MPS 9999 FEW040 28/25 Q1004 NOSIG
ZGSZ,2025-06-29 20:00,ZGSZ 292000Z 08002MPS 9999 FEW040 28/25 Q1005 NOSIG
ZGSZ,2025-06-29 21:00,ZGSZ 292100Z 08002MPS 9999 FEW040 28/24 Q1004 NOSIG
ZGSZ,2025-06-29 22:00,ZGSZ 292200Z 05002MPS 9999 FEW040 28/25 Q1005 NOSIG
ZGSZ,2025-06-29 23:00,ZGSZ 292300Z 09002MPS 060V160 9999 FEW050 29/25 Q1005 NOSIG
ZGSZ,2025-06-30 00:00,ZGSZ 300000Z 08003MPS 050V120 9999 SCT030 28/24 Q1006 NOSIG
ZGSZ,2025-06-30 01:00,ZGSZ 300100Z 07003MPS 040V110 9999 SCT030 28/24 Q1006 NOSIG
ZGSZ,2025-06-30 02:00,ZGSZ 300200Z 09003MPS 040V130 9999 SCT040 29/24 Q1006 NOSIG
ZGSZ,2025-06-30 03:00,ZGSZ 300300Z 11005MPS 9999 SCT040 30/25 Q1006 NOSIG
ZGSZ,2025-06-30 04:00,ZGSZ 300400Z 12005MPS 080V150 9999 SCT040 32/25 Q1006 NOSIG
ZGSZ,2025-06-30 05:00,ZGSZ 300500Z 11004MPS 9999 SCT040 30/24 Q1006 NOSIG
ZGSZ,2025-06-30 06:00,ZGSZ 300600Z 20003MPS 160V220 9999 SCT026 FEW030CB 30/25 Q1005 NOSIG
ZGSZ,2025-06-30 07:00,ZGSZ 300700Z 20003MPS 8000 SHRA FEW020CB SCT020 31/25 Q1005 BECMG AT0730 -SHRA
ZGSZ,2025-06-30 08:00,ZGSZ 300800Z 08004MPS 060V130 9999 -SHRA FEW020TCU FEW020 30/25 Q1004 NOSIG
ZGSZ,2025-06-30 09:00,ZGSZ 300900Z 09004MPS 060V120 9999 SCT030 30/25 Q1004 NOSIG
ZGSZ,2025-06-30 10:00,ZGSZ 301000Z 11004MPS 9999 FEW020 SCT030 29/24 Q1004 NOSIG
ZGSZ,2025-06-30 11:00,ZGSZ 301100Z 10004MPS 060V150 9999 SCT026 29/24 Q1005 NOSIG
ZGSZ,2025-06-30 12:00,ZGSZ 301200Z 12004MPS 9999 -SHRA SCT026 FEW030TCU 28/25 Q1006 NOSIG
ZGSZ,2025-06-30 13:00,ZGSZ 301300Z 13002MPS 090V160 9999 SCT026 28/25 Q1006 NOSIG
ZGSZ,2025-06-30 14:00,ZGSZ 301400Z 08002MPS 030V120 9999 FEW026 FEW030CB 29/25 Q1007 NOSIG
ZGSZ,2025-06-30 15:00,ZGSZ 301500Z 09003MPS 070V130 9999 -SHRA SCT026 FEW030CB BKN040 28/25 Q1007 NOSIG
ZGSZ,2025-06-30 16:00,ZGSZ 301600Z 09004MPS 060V130 9999 -SHRA SCT026 FEW030CB BKN040 28/25 Q1007 BECMG AT1750 SHRA
ZGSZ,2025-06-30 17:00,ZGSZ 301700Z 10004MPS 080V140 9999 -SHRA SCT026 FEW030CB BKN040 27/24 Q1007 RESHRA NOSIG
ZGSZ,2025-06-30 18:00,ZGSZ 301800Z 10004MPS 070V130 9999 -SHRA SCT040 26/24 Q1006 NOSIG
ZGSZ,2025-06-30 19:00,ZGSZ 301900Z 08004MPS 050V110 9999 -SHRA SCT040 27/24 Q1006 NOSIG
ZGSZ,2025-06-30 20:00,ZGSZ 302000Z VRB01MPS 9999 SCT040 27/24 Q1006 NOSIG
ZGSZ,2025-06-30 21:00,ZGSZ 302100Z 04002MPS 350V120 9999 -SHRA SCT040 28/25 Q1006 NOSIG
ZGSZ,2025-06-30 22:00,ZGSZ 302200Z 07002MPS 360V140 9999 SCT046 27/25 Q1007 RESHRA NOSIG
ZGSZ,2025-06-30 23:00,ZGSZ 302300Z 06003MPS 9999 FEW026TCU SCT046 28/26 Q1007 NOSIG
ZGSZ,2025-07-01 00:00,ZGSZ 010000Z 09003MPS 050V120 9999 FEW026CB SCT046 29/25 Q1008 NOSIG
ZGSZ,2025-07-01 01:00,ZGSZ 010100Z 17003MPS 9999 -SHRA FEW026CB SCT030 27/25 Q1009 NOSIG
ZGSZ,2025-07-01 02:00,ZGSZ 010200Z 23002MPS 200V260 9999 SCT030 28/25 Q1008 BECMG AT0330 SHRA FEW020CB BKN040
ZGSZ,2025-07-01 03:00,ZGSZ 010300Z VRB01MPS 9999 FEW026 SCT040 29/25 Q1008 NOSIG
ZGSZ,2025-07-01 04:00,ZGSZ 010400Z 28003MPS 9999 FEW026CB SCT040 29/26 Q1008 RESHRA BECMG AT0430 BKN040
ZGSZ,2025-07-01 05:00,ZGSZ 010500Z 22004MPS 9999 -TSRA FEW033CB BKN040 29/26 Q1008 RESHRA BECMG AT0550 NSW
ZGSZ,2025-07-01 06:00,ZGSZ 010600Z 13005G10MPS 080V220 9999 TSRA FEW030CB BKN030 28/26 Q1008 BECMG AT0620 -TSRA
ZGSZ,2025-07-01 07:00,ZGSZ 010700Z 11004MPS 080V140 9999 SCT033 31/25 Q1007 NOSIG
ZGSZ,2025-07-01 08:00,ZGSZ 010800Z 10006MPS 9999 SCT026 31/25 Q1007 BECMG AT0900 2800 TSRA SCT015 FEW025CB BKN030
ZGSZ,2025-07-01 09:00,ZGSZ 010900Z 08005MPS 060V120 9999 SCT030 31/25 Q1007 BECMG AT0950 SHRA FEW020CB BKN040
ZGSZ,2025-07-01 10:00,ZGSZ 011000Z 10006MPS 9999 SHRA FEW026CB SCT030 29/25 Q1007 RETS BECMG AT1030 -SHRA
ZGSZ,2025-07-01 11:00,ZGSZ 011100Z 06002MPS 360V120 9999 BKN033 28/25 Q1007 NOSIG
ZGSZ,2025-07-01 12:00,ZGSZ 011200Z 10002MPS 030V200 9999 FEW040 29/25 Q1008 NOSIG
ZGSZ,2025-07-01 13:00,ZGSZ 011300Z 10002MPS 040V140 9999 FEW026 29/25 Q1009 NOSIG
ZGSZ,2025-07-01 14:00,ZGSZ 011400Z VRB01MPS 9999 SCT026 29/25 Q1010 NOSIG
ZGSZ,2025-07-01 15:00,ZGSZ 011500Z 05002MPS 360V130 9999 FEW026 28/25 Q1010 NOSIG
ZGSZ,2025-07-01 16:00,ZGSZ 011600Z 06003G08MPS 030V100 9999 FEW033 28/25 Q1009 NOSIG
ZGSZ,2025-07-01 17:00,ZGSZ 011700Z 05003MPS 360V100 9999 FEW026 28/25 Q1009 NOSIG
ZGSZ,2025-07-01 18:00,ZGSZ 011800Z 05003MPS 020V080 9999 FEW026 28/25 Q1008 BECMG AT1900 SHRA FEW026CB
ZGSZ,2025-07-01 19:00,ZGSZ 011900Z 04002MPS 9999 SCT033 27/25 Q1008 NOSIG
ZGSZ,2025-07-01 20:00,ZGSZ 012000Z 05003MPS 9999 -SHRA FEW020 SCT033 28/25 Q1007 NOSIG
ZGSZ,2025-07-01 21:00,ZGSZ 012100Z 04002MPS 9999 SCT033 28/25 Q1008 NOSIG
ZGSZ,2025-07-01 22:00,ZGSZ 012200Z 04002MPS 9999 SCT033 28/25 Q1008 NOSIG
ZGSZ,2025-07-01 23:00,ZGSZ 012300Z 05003MPS 020V100 9999 FEW023 29/26 Q1009 NOSIG
ZGSZ,2025-07-02 00:00,ZGSZ 020000Z 08003MPS 040V120 9999 FEW026 30/26 Q1009 NOSIG
ZGSZ,2025-07-02 01:00,ZGSZ 020100Z 11006MPS 9999 SCT030 31/25 Q1009 NOSIG
ZGSZ,2025-07-02 02:00,ZGSZ 020200Z 11005MPS 070V130 9999 BKN030 32/25 Q1009 NOSIG
ZGSZ,2025-07-02 03:00,ZGSZ 020300Z 10006MPS 9999 BKN040 33/25 Q1009 NOSIG
ZGSZ,2025-07-02 04:00,ZGSZ 020400Z 20005MPS 160V220 9999 FEW020 FEW030CB BKN040 31/25 Q1009 NOSIG
ZGSZ,2025-07-02 05:00,ZGSZ 020500Z 10007MPS 9999 -SHRA FEW020 FEW030CB BKN040 32/25 Q1009 RETS NOSIG
ZGSZ,2025-07-02 06:00,ZGSZ 020600Z 10007MPS 070V130 9999 SCT030 33/25 Q1008 NOSIG
ZGSZ,2025-07-02 07:00,ZGSZ 020700Z 11008MPS 9999 SCT030 32/24 Q1008 NOSIG
ZGSZ,2025-07-02 08:00,ZGSZ 020800Z 10005MPS 9999 SCT040 32/24 Q1007 NOSIG
ZGSZ,2025-07-02 09:00,ZGSZ 020900Z 19005MPS 9999 SCT040 32/26 Q1007 NOSIG
ZGSZ,2025-07-02 10:00,ZGSZ 021000Z 17004MPS 9999 SCT040 31/26 Q1007 NOSIG
ZGSZ,2025-07-02 11:00,ZGSZ 021100Z 10005MPS 9999 SCT040 32/24 Q1008 NOSIG
ZGSZ,2025-07-02 12:00,ZGSZ 021200Z 22002MPS 100V270 9999 SCT040 30/26 Q1008 NOSIG
ZGSZ,2025-07-02 13:00,ZGSZ 021300Z 22002MPS 180V250 CAVOK 29/26 Q1009 NOSIG
ZGSZ,2025-07-02 14:00,ZGSZ 021400Z 19002MPS CAVOK 29/26 Q1009 NOSIG
ZGSZ,2025-07-02 15:00,ZGSZ 021500Z 24001MPS CAVOK 29/26 Q1009 NOSIG
ZGSZ,2025-07-02 16:00,ZGSZ 021600Z 27001MPS CAVOK 28/26 Q1009 NOSIG
ZGSZ,2025-07-02 17:00,ZGSZ 021700Z 09002MPS 060V140 CAVOK 29/24 Q1008 NOSIG
ZGSZ,2025-07-02 18:00,ZGSZ 021800Z 12004MPS 080V140 CAVOK 29/25 Q1008 NOSIG
ZGSZ,2025-07-02 19:00,ZGSZ 021900Z VRB02MPS CAVOK 29/24 Q1007 NOSIG
ZGSZ,2025-07-02 20:00,ZGSZ 022000Z 10002MPS 060V130 CAVOK 29/24 Q1008 NOSIG
ZGSZ,2025-07-02 21:00,ZGSZ 022100Z 02002MPS 330V060 CAVOK 29/24 Q1008 NOSIG
ZGSZ,2025-07-02 22:00,ZGSZ 022200Z 02003MPS 340V070 CAVOK 29/24 Q1008 NOSIG
ZGSZ,2025-07-02 23:00,ZGSZ 022300Z 04003MPS 360V090 CAVOK 29/25 Q1008 NOSIG
ZGSZ,2025-07-03 00:00,ZGSZ 030000Z 05004MPS 020V100 CAVOK 29/24 Q1009 NOSIG
ZGSZ,2025-07-03 01:00,ZGSZ 030100Z VRB02MPS CAVOK 30/25 Q1008 NOSIG
ZGSZ,2025-07-03 02:00,ZGSZ 030200Z 05003MPS 340V140 9999 FEW025 32/25 Q1008 NOSIG
ZGSZ,2025-07-03 03:00,ZGSZ 030300Z VRB02MPS 9999 FEW025 SCT040 32/25 Q1008 NOSIG
ZGSZ,2025-07-03 04:00,ZGSZ 030400Z VRB03MPS 9999 SCT025 SCT033 33/25 Q1007 NOSIG
ZGSZ,2025-07-03 05:00,ZGSZ 030500Z 05003MPS 350V120 8000 SCT025 SCT040 33/25 Q1007 NOSIG
ZGSZ,2025-07-03 06:00,ZGSZ 030600Z 23003MPS 9999 SCT026 SCT043 32/26 Q1006 NOSIG
ZGSZ,2025-07-03 07:00,ZGSZ 030700Z 19004MPS 9999 FEW020 SCT043 32/27 Q1006 NOSIG
ZGSZ,2025-07-03 08:00,ZGSZ 030800Z 20004MPS 9999 SCT043 32/26 Q1006 NOSIG
ZGSZ,2025-07-03 09:00,ZGSZ 030900Z 17005MPS 9999 SCT043 31/26 Q1005 NOSIG
ZGSZ,2025-07-03 10:00,ZGSZ 031000Z 18004MPS 9999 SCT043 30/26 Q1005 NOSIG
ZGSZ,2025-07-03 11:00,ZGSZ 031100Z 18004MPS 9999 SCT050 30/26 Q1006 NOSIG
ZGSZ,2025-07-03 12:00,ZGSZ 031200Z 18004MPS 9999 FEW050 30/26 Q1006 NOSIG
ZGSZ,2025-07-03 13:00,ZGSZ 031300Z 18005MPS CAVOK 30/26 Q1007 NOSIG
ZGSZ,2025-07-03 14:00,ZGSZ 031400Z 18004MPS CAVOK 29/27 Q1007 NOSIG
ZGSZ,2025-07-03 15:00,ZGSZ 031500Z 18003MPS CAVOK 29/26 Q1007 NOSIG
ZGSZ,2025-07-03 16:00,ZGSZ 031600Z 19003MPS CAVOK 29/26 Q1007 NOSIG
ZGSZ,2025-07-03 17:00,ZGSZ 031700Z 10002MPS 070V150 CAVOK 29/25 Q1006 NOSIG
ZGSZ,2025-07-03 18:00,ZGSZ 031800Z 10002MPS 9999 BKN046 29/25 Q1006 NOSIG
ZGSZ,2025-07-03 19:00,ZGSZ 031900Z VRB01MPS 9999 BKN046 29/25 Q1006 NOSIG
ZGSZ,2025-07-03 20:00,ZGSZ 032000Z 24002MPS 9999 SCT046 28/26 Q1005 NOSIG
ZGSZ,2025-07-03 21:00,ZGSZ 032100Z 28001MPS CAVOK 28/26 Q1006 NOSIG
ZGSZ,2025-07-03 22:00,ZGSZ 032200Z 33001MPS 9999 FEW026 28/26 Q1006 NOSIG
ZGSZ,2025-07-03 23:00,ZGSZ 032300Z 30001MPS 9999 FEW033 29/26 Q1006 NOSIG
ZGSZ,2025-07-04 00:00,ZGSZ 040000Z 29002MPS 9999 FEW026 29/26 Q1006 NOSIG
ZGSZ,2025-07-04 01:00,ZGSZ 040100Z 29003MPS 9999 FEW026 30/26 Q1006 NOSIG
ZGSZ,2025-07-04 02:00,ZGSZ 040200Z 26003MPS 9999 SCT026 31/26 Q1006 NOSIG
ZGSZ,2025-07-04 03:00,ZGSZ 040300Z 26003MPS 9999 BKN030 31/25 Q1006 NOSIG
ZGSZ,2025-07-04 04:00,ZGSZ 040400Z 22003MPS 9999 BKN036 32/26 Q1006 NOSIG
ZGSZ,2025-07-04 05:00,ZGSZ 040500Z 22004MPS 9999 SCT036 32/25 Q1005 NOSIG
ZGSZ,2025-07-04 06:00,ZGSZ 040600Z 21004MPS 9999 FEW036 33/25 Q1004 NOSIG
ZGSZ,2025-07-04 07:00,ZGSZ 040700Z 19005MPS 9999 SCT033 33/25 Q1004 NOSIG
ZGSZ,2025-07-04 08:00,ZGSZ 040800Z 18005MPS 9999 FEW033 32/26 Q1003 NOSIG
ZGSZ,2025-07-04 09:00,ZGSZ 040900Z 18005MPS 9999 SCT040 31/25 Q1003 NOSIG
ZGSZ,2025-07-04 10:00,ZGSZ 041000Z 19005MPS CAVOK 31/25 Q1003 NOSIG
ZGSZ,2025-07-04 11:00,ZGSZ 041100Z 18005MPS CAVOK 31/26 Q1003 NOSIG
ZGSZ,2025-07-04 12:00,ZGSZ 041200Z 18004MPS CAVOK 30/27 Q1003 NOSIG
ZGSZ,2025-07-04 13:00,ZGSZ 041300Z 17004MPS 090V190 CAVOK 30/25 Q1004 NOSIG
ZGSZ,2025-07-04 14:00,ZGSZ 041400Z 11004MPS CAVOK 31/24 Q1005 NOSIG
ZGSZ,2025-07-04 15:00,ZGSZ 041500Z 11004MPS CAVOK 31/24 Q1005 NOSIG
ZGSZ,2025-07-04 16:00,ZGSZ 041600Z 12003MPS CAVOK 30/24 Q1005 NOSIG
ZGSZ,2025-07-04 17:00,ZGSZ 041700Z VRB01MPS CAVOK 30/25 Q1004 NOSIG
ZGSZ,2025-07-04 18:00,ZGSZ 041800Z VRB01MPS CAVOK 30/25 Q1003 NOSIG
ZGSZ,2025-07-04 19:00,ZGSZ 041900Z 24002MPS 9999 SCT046 29/26 Q1003 NOSIG
ZGSZ,2025-07-04 20:00,ZGSZ 042000Z 27002MPS 9999 FEW046 29/25 Q1003 NOSIG
ZGSZ,2025-07-04 21:00,ZGSZ 042100Z 30002MPS 9999 SCT046 29/26 Q1003 NOSIG
ZGSZ,2025-07-04 22:00,ZGSZ 042200Z 30002MPS 9999 BKN050 29/26 Q1004 NOSIG
ZGSZ,2025-07-04 23:00,ZGSZ 042300Z 34001MPS 9999 BKN050 29/26 Q1004 NOSIG
ZGSZ,2025-07-05 00:00,ZGSZ 050000Z 31003MPS 9999 BKN053 30/26 Q1005 NOSIG
ZGSZ,2025-07-05 01:00,ZGSZ 050100Z 29003MPS 9999 BKN053 31/25 Q1005 NOSIG
ZGSZ,2025-07-05 02:00,ZGSZ 050200Z 28003MPS 230V300 9999 BKN053 31/27 Q1004 NOSIG
ZGSZ,2025-07-05 03:00,ZGSZ 050300Z 29006MPS 9999 BKN053 31/26 Q1004 NOSIG
ZGSZ,2025-07-05 04:00,ZGSZ 050400Z 29005MPS 9999 BKN050 32/26 Q1003 NOSIG
ZGSZ,2025-07-05 05:00,ZGSZ 050500Z 29004MPS 9999 BKN050 32/25 Q1003 NOSIG
ZGSZ,2025-07-05 06:00,ZGSZ 050600Z 27004MPS 9999 FEW030TCU BKN050 33/25 Q1002 BECMG AT0650 03005MPS TSRA FEW020 FEW025CB BKN040
ZGSZ,2025-07-05 07:00,ZGSZ 050700Z 08006MPS 050V120 7000 TSRA FEW020 FEW023CB BKN050 29/26 Q1002 BECMG AT0730 30005MPS NSW BKN030
ZGSZ,2025-07-05 08:00,ZGSZ 050800Z 18003MPS 160V220 9999 FEW020 BKN050 31/25 Q1001 NOSIG
ZGSZ,2025-07-05 09:00,ZGSZ 050900Z 26002MPS 9999 SCT020 31/26 Q1001 BECMG AT1010 06005MPS TSRA FEW020 FEW025CB BKN040
ZGSZ,2025-07-05 10:00,ZGSZ 051000Z 17006MPS 9999 FEW020 31/26 Q1001 BECMG AT1010 SHRA FEW026CB BKN030
ZGSZ,2025-07-05 11:00,ZGSZ 051100Z 13003MPS 9999 FEW020 31/26 Q1002 NOSIG
ZGSZ,2025-07-05 12:00,ZGSZ 051200Z 11006MPS 9999 FEW020 30/25 Q1002 NOSIG
ZGSZ,2025-07-05 13:00,ZGSZ 051300Z 11003MPS 090V150 9999 SCT040 30/25 Q1003 NOSIG
ZGSZ,2025-07-05 14:00,ZGSZ 051400Z 11003MPS 9999 SCT040 30/25 Q1003 NOSIG
ZGSZ,2025-07-05 15:00,ZGSZ 051500Z 09002MPS 040V130 9999 FEW040 30/24 Q1004 NOSIG
ZGSZ,2025-07-05 16:00,ZGSZ 051600Z 11002MPS 080V140 9999 FEW040 30/24 Q1004 NOSIG
ZGSZ,2025-07-05 17:00,ZGSZ 051700Z VRB01MPS 9999 FEW040 30/24 Q1004 NOSIG
ZGSZ,2025-07-05 18:00,ZGSZ 051800Z 20002MPS 9999 FEW040 29/25 Q1003 NOSIG
ZGSZ,2025-07-05 19:00,ZGSZ 051900Z 18002MPS 9999 FEW040 29/25 Q1003 NOSIG
ZGSZ,2025-07-05 20:00,ZGSZ 052000Z 25002MPS 9999 FEW040 29/25 Q1003 NOSIG
ZGSZ,2025-07-05 21:00,ZGSZ 052100Z 35002MPS 300V040 9999 SCT040 28/24 Q1003 NOSIG
ZGSZ,2025-07-05 22:00,ZGSZ 052200Z VRB02MPS 9999 SCT040 29/25 Q1004 NOSIG
ZGSZ,2025-07-05 23:00,ZGSZ 052300Z 31003MPS CAVOK 29/25 Q1004 NOSIG
ZGSZ,2025-07-06 00:00,ZGSZ 060000Z 32003MPS CAVOK 31/25 Q1004 NOSIG
ZGSZ,2025-07-06 01:00,ZGSZ 060100Z 30004MPS 9999 FEW026 31/26 Q1004 NOSIG
ZGSZ,2025-07-06 02:00,ZGSZ 060200Z 28003MPS 9999 FEW026 31/26 Q1004 NOSIG
ZGSZ,2025-07-06 03:00,ZGSZ 060300Z 28004MPS 9999 SCT033 32/26 Q1004 NOSIG
ZGSZ,2025-07-06 04:00,ZGSZ 060400Z 29004MPS 9999 SCT040 33/25 Q1003 NOSIG
ZGSZ,2025-07-06 05:00,ZGSZ 060500Z 28003MPS 9999 SCT040 34/25 Q1002 NOSIG
ZGSZ,2025-07-06 06:00,ZGSZ 060600Z 28003MPS 9999 SCT040 34/24 Q1001 NOSIG
ZGSZ,2025-07-06 07:00,ZGSZ 060700Z 23003MPS 9999 FEW040 34/25 Q1000 NOSIG
ZGSZ,2025-07-06 08:00,ZGSZ 060800Z 20004MPS CAVOK 34/26 Q1000 NOSIG
ZGSZ,2025-07-06 09:00,ZGSZ 060900Z 19007MPS CAVOK 32/27 Q1000 NOSIG
ZGSZ,2025-07-06 10:00,ZGSZ 061000Z 19006MPS CAVOK 32/27 Q1000 NOSIG
ZGSZ,2025-07-06 11:00,ZGSZ 061100Z 18006MPS CAVOK 31/27 Q1001 BECMG AT1240 SHRA FEW015 FEW020CB BKN033
ZGSZ,2025-07-06 12:00,ZGSZ 061200Z 18004MPS CAVOK 31/27 Q1002 NOSIG
ZGSZ,2025-07-06 13:00,ZGSZ 061300Z 19002MPS 160V220 CAVOK 30/27 Q1003 BECMG AT1430 -TSRA
ZGSZ,2025-07-06 14:00,ZGSZ 061400Z 26002MPS CAVOK 30/26 Q1003 NOSIG
ZGSZ,2025-07-06 15:00,ZGSZ 061500Z VRB01MPS CAVOK 30/26 Q1003 NOSIG
ZGSZ,2025-07-06 16:00,ZGSZ 061600Z 19001MPS CAVOK 30/26 Q1003 NOSIG
ZGSZ,2025-07-06 17:00,ZGSZ 061700Z 21003MPS CAVOK 30/26 Q1003 NOSIG
ZGSZ,2025-07-06 18:00,ZGSZ 061800Z 19003MPS CAVOK 29/26 Q1003 NOSIG
ZGSZ,2025-07-06 19:00,ZGSZ 061900Z 23002MPS CAVOK 29/26 Q1003 NOSIG
ZGSZ,2025-07-06 20:00,ZGSZ 062000Z 22003MPS CAVOK 29/26 Q1003 NOSIG
ZGSZ,2025-07-06 21:00,ZGSZ 062100Z 23002MPS CAVOK 29/26 Q1003 NOSIG
ZGSZ,2025-07-06 22:00,ZGSZ 062200Z 20001MPS CAVOK 29/25 Q1003 NOSIG
ZGSZ,2025-07-06 23:00,ZGSZ 062300Z 19002MPS 9999 FEW033 29/26 Q1004 NOSIG
ZGSZ,2025-07-07 00:00,ZGSZ 070000Z 23002MPS CAVOK 30/25 Q1004 NOSIG
ZGSZ,2025-07-07 01:00,ZGSZ 070100Z 21003MPS 180V240 CAVOK 31/26 Q1004 NOSIG
ZGSZ,2025-07-07 02:00,ZGSZ 070200Z 20002MPS 160V250 CAVOK 32/26 Q1003 NOSIG
ZGSZ,2025-07-07 03:00,ZGSZ 070300Z 20002MPS 150V220 CAVOK 32/26 Q1003 NOSIG
ZGSZ,2025-07-07 04:00,ZGSZ 070400Z 22002MPS 200V270 CAVOK 33/26 Q1003 NOSIG
ZGSZ,2025-07-07 05:00,ZGSZ 070500Z 20003MPS CAVOK 34/27 Q1002 NOSIG
ZGSZ,2025-07-07 06:00,ZGSZ 070600Z 19003MPS CAVOK 34/27 Q1001 NOSIG
ZGSZ,2025-07-07 07:00,ZGSZ 070700Z 18006MPS CAVOK 33/28 Q1001 NOSIG
ZGSZ,2025-07-07 08:00,ZGSZ 070800Z 18007MPS CAVOK 33/28 Q1001 NOSIG
ZGSZ,2025-07-07 09:00,ZGSZ 070900Z 18007MPS CAVOK 32/28 Q1000 NOSIG
ZGSZ,2025-07-07 10:00,ZGSZ 071000Z 17008MPS CAVOK 32/28 Q1000 NOSIG
ZGSZ,2025-07-07 11:00,ZGSZ 071100Z 17008MPS CAVOK 31/28 Q1001 NOSIG
ZGSZ,2025-07-07 12:00,ZGSZ 071200Z 17008MPS CAVOK 31/28 Q1002 NOSIG
ZGSZ,2025-07-07 13:00,ZGSZ 071300Z 17007MPS CAVOK 31/28 Q1003 NOSIG
ZGSZ,2025-07-07 14:00,ZGSZ 071400Z 17006MPS CAVOK 30/28 Q1003 NOSIG
ZGSZ,2025-07-07 15:00,ZGSZ 071500Z 17005MPS CAVOK 30/27 Q1003 NOSIG
ZGSZ,2025-07-07 16:00,ZGSZ 071600Z 17004MPS CAVOK 30/27 Q1003 NOSIG
ZGSZ,2025-07-07 17:00,ZGSZ 071700Z 19004MPS CAVOK 30/26 Q1003 NOSIG
ZGSZ,2025-07-07 18:00,ZGSZ 071800Z 19004MPS CAVOK 30/27 Q1003 NOSIG
ZGSZ,2025-07-07 19:00,ZGSZ 071900Z 20003MPS CAVOK 30/27 Q1003 NOSIG
ZGSZ,2025-07-07 20:00,ZGSZ 072000Z 19003MPS CAVOK 30/27 Q1002 NOSIG
ZGSZ,2025-07-07 21:00,ZGSZ 072100Z 19002MPS CAVOK 29/27 Q1002 NOSIG
ZGSZ,2025-07-07 22:00,ZGSZ 072200Z 20002MPS CAVOK 29/27 Q1003 NOSIG
ZGSZ,2025-07-07 23:00,ZGSZ 072300Z 20002MPS 9999 FEW030 30/27 Q1003 NOSIG
ZGSZ,2025-07-08 00:00,ZGSZ 080000Z 20002MPS 9999 FEW030 31/26 Q1004 NOSIG
ZGSZ,2025-07-08 01:00,ZGSZ 080100Z 19003MPS 9999 FEW030 31/27 Q1004 NOSIG
ZGSZ,2025-07-08 02:00,ZGSZ 080200Z 18003MPS 150V210 9999 FEW030 32/27 Q1004 NOSIG
ZGSZ,2025-07-08 03:00,ZGSZ 080300Z 18004MPS 9999 FEW030TCU FEW030 32/27 Q1003 BECMG AT0320 SHRA FEW020CB BKN040
ZGSZ,2025-07-08 04:00,ZGSZ 080400Z 18006MPS 9999 FEW020 FEW023CB 32/25 Q1003 NOSIG
ZGSZ,2025-07-08 05:00,ZGSZ 080500Z 18006MPS 9999 FEW020 FEW023CB 32/26 Q1002 NOSIG
ZGSZ,2025-07-08 06:00,ZGSZ 080600Z 19007MPS 9999 FEW020 FEW023CB 32/26 Q1002 BECMG AT0650 2500 +TSRA
ZGSZ,2025-07-08 07:00,ZGSZ 080700Z 26004MPS 9999 FEW020 FEW023TCU 31/24 Q1001 BECMG AT0830 19005MPS
ZGSZ,2025-07-08 08:00,ZGSZ 080800Z 21003MPS 170V240 9999 SCT020 31/25 Q1001 NOSIG
ZGSZ,2025-07-08 09:00,ZGSZ 080900Z 20004MPS 9999 SCT020 32/25 Q1000 NOSIG
ZGSZ,2025-07-08 10:00,ZGSZ 081000Z 20003MPS 9999 SCT020 31/26 Q1001 NOSIG
ZGSZ,2025-07-08 11:00,ZGSZ 081100Z 18004MPS 9999 FEW020 30/26 Q1001 NOSIG
ZGSZ,2025-07-08 12:00,ZGSZ 081200Z 18003MPS 9999 FEW020 30/26 Q1001 NOSIG
ZGSZ,2025-07-08 13:00,ZGSZ 081300Z 18004MPS 9999 FEW020 30/27 Q1001 NOSIG
ZGSZ,2025-07-08 14:00,ZGSZ 081400Z 18004MPS 9999 FEW020 30/27 Q1002 NOSIG
ZGSZ,2025-07-08 15:00,ZGSZ 081500Z 20003MPS 9999 FEW020 30/27 Q1002 NOSIG
ZGSZ,2025-07-08 16:00,ZGSZ 081600Z 19002MPS 9999 FEW020 30/27 Q1002 NOSIG
ZGSZ,2025-07-08 17:00,ZGSZ 081700Z 19002MPS 9999 FEW020 29/27 Q1002 NOSIG
ZGSZ,2025-07-08 18:00,ZGSZ 081800Z 18002MPS 9999 FEW020 29/26 Q1001 NOSIG
ZGSZ,2025-07-08 19:00,ZGSZ 081900Z 20002MPS CAVOK 29/27 Q1001 NOSIG
ZGSZ,2025-07-08 20:00,ZGSZ 082000Z 19002MPS 160V220 CAVOK 29/27 Q1001 NOSIG
ZGSZ,2025-07-08 21:00,ZGSZ 082100Z 19002MPS 9999 FEW033 29/27 Q1001 NOSIG
ZGSZ,2025-07-08 22:00,ZGSZ 082200Z 20002MPS 9999 FEW033 29/27 Q1001 NOSIG
ZGSZ,2025-07-08 23:00,ZGSZ 082300Z VRB01MPS 9999 FEW033 30/27 Q1001 NOSIG
ZGSZ,2025-07-09 00:00,ZGSZ 090000Z VRB01MPS 9999 FEW033 30/26 Q1001 NOSIG
ZGSZ,2025-07-09 01:00,ZGSZ 090100Z 27002MPS 210V330 9999 FEW030 31/27 Q1002 NOSIG
ZGSZ,2025-07-09 02:00,ZGSZ 090200Z 28002MPS 250V310 9999 FEW030 31/26 Q1001 NOSIG
ZGSZ,2025-07-09 03:00,ZGSZ 090300Z 22002MPS 180V260 9999 FEW030 32/26 Q1001 NOSIG
ZGSZ,2025-07-09 04:00,ZGSZ 090400Z 23002MPS 180V280 9999 FEW030 33/26 Q1001 NOSIG
ZGSZ,2025-07-09 05:00,ZGSZ 090500Z 20004MPS 9999 FEW030 33/27 Q0999 NOSIG
ZGSZ,2025-07-09 06:00,ZGSZ 090600Z 19004MPS 9999 FEW030 33/27 Q0998 NOSIG
ZGSZ,2025-07-09 07:00,ZGSZ 090700Z 18006MPS 9999 FEW030 33/27 Q0998 NOSIG
ZGSZ,2025-07-09 08:00,ZGSZ 090800Z 18007MPS 9999 FEW033 33/28 Q0997 NOSIG
ZGSZ,2025-07-09 09:00,ZGSZ 090900Z 18008MPS CAVOK 32/28 Q0996 NOSIG
ZGSZ,2025-07-09 10:00,ZGSZ 091000Z 17007MPS CAVOK 32/28 Q0996 NOSIG
ZGSZ,2025-07-09 11:00,ZGSZ 091100Z 17007MPS CAVOK 31/28 Q0996 NOSIG
ZGSZ,2025-07-09 12:00,ZGSZ 091200Z 17007MPS CAVOK 31/28 Q0997 NOSIG
ZGSZ,2025-07-09 13:00,ZGSZ 091300Z 20005MPS 9999 SCT046 31/28 Q0997 BECMG AT1400 36010G20MPS 1500 +TSRA FEW025CB BKN030
ZGSZ,2025-07-09 14:00,ZGSZ 091400Z 35010G15MPS 3000 +TSRA SCT020 FEW026CB BKN033 26/24 Q0999 BECMG AT1550 10004MPS NSW BKN030
ZGSZ,2025-07-09 15:00,ZGSZ 091500Z VRB01MPS 9999 -TSRA FEW010 FEW020CB 26/24 Q1000 RESHRA BECMG AT1600 20005MPS NSW BKN030
ZGSZ,2025-07-09 16:00,ZGSZ 091600Z 26006MPS 9999 -TSRA FEW010 FEW020CB 27/23 Q0999 BECMG AT1700 NSW
ZGSZ,2025-07-09 17:00,ZGSZ 091700Z 27002MPS 220V300 9999 -SHRA FEW050 27/24 Q0998 RETS NOSIG
ZGSZ,2025-07-09 18:00,ZGSZ 091800Z 22001MPS 9999 -SHRA SCT040 26/23 Q0997 NOSIG
ZGSZ,2025-07-09 19:00,ZGSZ 091900Z 18003MPS 9999 SCT040 27/24 Q0997 NOSIG
ZGSZ,2025-07-09 20:00,ZGSZ 092000Z 18002MPS 9999 -SHRA SCT040 27/24 Q0997 NOSIG
ZGSZ,2025-07-09 21:00,ZGSZ 092100Z 18004MPS 9999 -SHRA SCT015 BKN040 27/26 Q0996 NOSIG
ZGSZ,2025-07-09 22:00,ZGSZ 092200Z 15003MPS 9999 -SHRA SCT015 27/26 Q0996 NOSIG
ZGSZ,2025-07-09 23:00,ZGSZ 092300Z 15002MPS 110V180 9999 SCT014 BKN030 28/26 Q0996 NOSIG
ZGSZ,2025-07-10 00:00,ZGSZ 100000Z 25002MPS 190V290 8000 +SHRA SCT010 FEW020CB BKN030 27/27 Q0996 BECMG AT0030 NSW BKN030
ZGSZ,2025-07-10 01:00,ZGSZ 100100Z VRB01MPS 9999 FEW010 OVC030 28/27 Q0996 NOSIG
ZGSZ,2025-07-10 02:00,ZGSZ 100200Z 28002MPS 250V310 9999 SCT010 OVC030 29/27 Q0996 NOSIG
ZGSZ,2025-07-10 03:00,ZGSZ 100300Z VRB01MPS 6000 SCT010 OVC030 29/27 Q0997 NOSIG
ZGSZ,2025-07-10 04:00,ZGSZ 100400Z VRB01MPS 5000 -SHRA BR SCT010 FEW026TCU BKN040 29/27 Q0996 NOSIG
ZGSZ,2025-07-10 05:00,ZGSZ 100500Z 14002MPS 100V180 6000 TSRA SCT013 FEW026CB BKN040 29/27 Q0995 TEMPO -TSRA
ZGSZ,2025-07-10 06:00,ZGSZ 100600Z 35002MPS 310V110 2000 R33/1100U R34/1500U +TSRA SCT010 FEW023CB BKN033 26/25 Q0996 BECMG AT0630 3000 -TSRA
ZGSZ,2025-07-10 07:00,ZGSZ 100700Z 15004MPS 9999 -TSRA SCT015 FEW023CB BKN033 26/25 Q0995 BECMG AT0730 -SHRA
ZGSZ,2025-07-10 08:00,ZGSZ 100800Z 16003MPS 9999 -TSRA FEW015 FEW023CB BKN033 26/25 Q0995 BECMG AT0830 -SHRA
ZGSZ,2025-07-10 09:00,ZGSZ 100900Z VRB01MPS 9999 -SHRA SCT013 FEW023CB BKN033 27/26 Q0995 BECMG AT0920 TSRA
ZGSZ,2025-07-10 10:00,ZGSZ 101000Z 36004MPS 1200 R15/P2000 R16/1500U +TSRA SCT010 FEW023CB BKN033 25/25 Q0996 BECMG AT1040 3000 -TSRA
ZGSZ,2025-07-10 11:00,ZGSZ 101100Z 06001MPS 9999 -TSRA FEW015 FEW023CB BKN040 25/24 Q0996 RESHRA BECMG AT1120 NSW
ZGSZ,2025-07-10 12:00,ZGSZ 101200Z 03003G09MPS 9999 FEW020 SCT050 26/24 Q0996 NOSIG
ZGSZ,2025-07-10 13:00,ZGSZ 101300Z 32002MPS CAVOK 26/25 Q0997 NOSIG
ZGSZ,2025-07-10 14:00,ZGSZ 101400Z 02002MPS 330V050 9999 SCT040 27/25 Q0997 NOSIG
ZGSZ,2025-07-10 15:00,ZGSZ 101500Z 28001MPS 9999 BKN040 27/25 Q0997 NOSIG
ZGSZ,2025-07-10 16:00,ZGSZ 101600Z 20002MPS 9999 FEW016 BKN040 27/25 Q0997 NOSIG
ZGSZ,2025-07-10 17:00,ZGSZ 101700Z 30003MPS 280V340 4500 +SHRA SCT010 FEW026CB BKN040 26/25 Q0996 BECMG AT1730 -SHRA
ZGSZ,2025-07-10 18:00,ZGSZ 101800Z 36004MPS 6000 -SHRA SCT011 OVC030 26/25 Q0996 NOSIG
ZGSZ,2025-07-10 19:00,ZGSZ 101900Z 34002MPS 9999 SCT011 OVC030 26/25 Q0996 NOSIG
ZGSZ,2025-07-10 20:00,ZGSZ 102000Z 04002MPS 9999 SCT012 OVC030 26/25 Q0995 BECMG AT2040 SHRA FEW025CB BKN030
ZGSZ,2025-07-10 21:00,ZGSZ 102100Z 32002MPS 9999 -SHRA SCT015 OVC030 26/25 Q0996 NOSIG
ZGSZ,2025-07-10 22:00,ZGSZ 102200Z 36002MPS 9999 SCT015 OVC030 26/25 Q0996 NOSIG
ZGSZ,2025-07-10 23:00,ZGSZ 102300Z 05001MPS 9999 SCT015 OVC030 27/25 Q0997 NOSIG
ZGSZ,2025-07-11 00:00,ZGSZ 110000Z 35002MPS 270V010 9999 VCSH SCT015 FEW023CB BKN040 27/25 Q0997 NOSIG
ZGSZ,2025-07-11 01:00,ZGSZ 110100Z 34002MPS 310V040 9999 SHRA SCT010 FEW023CB BKN040 27/25 Q0998 BECMG AT0230 -SHRA
ZGSZ,2025-07-11 02:00,ZGSZ 110200Z 18003MPS 4000 TSRA SCT010 FEW023CB BKN040 26/25 Q0998 BECMG AT0320 -SHRA
ZGSZ,2025-07-11 03:00,ZGSZ 110300Z VRB01MPS 8000 -SHRA SCT010 FEW023CB BKN040 26/25 Q0998 NOSIG
ZGSZ,2025-07-11 04:00,ZGSZ 110400Z 24002MPS 9999 -SHRA SCT010 BKN030 27/26 Q0999 NOSIG
ZGSZ,2025-07-11 05:00,ZGSZ 110500Z 29003MPS 9999 FEW012 BKN030 28/26 Q0999 NOSIG
ZGSZ,2025-07-11 06:00,ZGSZ 110600Z 32003MPS 9999 -SHRA SCT016 BKN030 28/25 Q0999 NOSIG
ZGSZ,2025-07-11 07:00,ZGSZ 110700Z 29003MPS 9999 BKN040 28/26 Q0999 NOSIG
ZGSZ,2025-07-11 08:00,ZGSZ 110800Z 30004MPS 9999 SCT040 28/25 Q0998 NOSIG
ZGSZ,2025-07-11 09:00,ZGSZ 110900Z 29002MPS 9999 SCT040 29/25 Q0999 NOSIG
ZGSZ,2025-07-11 10:00,ZGSZ 111000Z 27002MPS 9999 SCT040 29/25 Q0999 NOSIG
ZGSZ,2025-07-11 11:00,ZGSZ 111100Z VRB01MPS 9999 SCT040 28/25 Q1000 NOSIG
ZGSZ,2025-07-11 12:00,ZGSZ 111200Z VRB01MPS 9999 SCT040 28/25 Q1001 NOSIG
ZGSZ,2025-07-11 13:00,ZGSZ 111300Z 18001MPS 9999 FEW050 28/25 Q1001 NOSIG
ZGSZ,2025-07-11 14:00,ZGSZ 111400Z 17002MPS 9999 FEW050 28/25 Q1002 NOSIG
ZGSZ,2025-07-11 15:00,ZGSZ 111500Z 19002MPS CAVOK 28/25 Q1002 NOSIG
ZGSZ,2025-07-11 16:00,ZGSZ 111600Z 18002MPS 9999 FEW020 28/26 Q1002 NOSIG
ZGSZ,2025-07-11 17:00,ZGSZ 111700Z 17001MPS CAVOK 28/26 Q1002 NOSIG
ZGSZ,2025-07-11 18:00,ZGSZ 111800Z 16002MPS CAVOK 27/26 Q1002 NOSIG
ZGSZ,2025-07-11 19:00,ZGSZ 111900Z 17002MPS CAVOK 27/26 Q1002 BECMG AT1950 SHRA
ZGSZ,2025-07-11 20:00,ZGSZ 112000Z 11002MPS 080V140 9999 -SHRA FEW030CB 28/25 Q1002 BECMG AT2050 SHRA
ZGSZ,2025-07-11 21:00,ZGSZ 112100Z 10002MPS 050V150 CAVOK 28/25 Q1002 NOSIG
ZGSZ,2025-07-11 22:00,ZGSZ 112200Z 11003MPS 080V140 7000 BKN030 28/25 Q1003 NOSIG
ZGSZ,2025-07-11 23:00,ZGSZ 112300Z 11002MPS 060V140 7000 BKN033 28/25 Q1004 NOSIG
ZGSZ,2025-07-12 00:00,ZGSZ 120000Z 11002MPS 080V140 8000 FEW020 BKN033 29/26 Q1004 BECMG AT0130 SHRA FEW020CB SCT030
ZGSZ,2025-07-12 01:00,ZGSZ 120100Z 16003MPS 9999 SCT020 BKN033 30/26 Q1005 NOSIG
ZGSZ,2025-07-12 02:00,ZGSZ 120200Z 16006MPS 9999 SCT026 BKN040 29/26 Q1005 NOSIG
ZGSZ,2025-07-12 03:00,ZGSZ 120300Z 16005MPS 9999 FEW030TCU BKN030 30/26 Q1005 BECMG AT0420 TSRA FEW020CB BKN040
ZGSZ,2025-07-12 04:00,ZGSZ 120400Z 16003MPS 9999 FEW030TCU BKN050 30/26 Q1005 BECMG AT0420 22006MPS +TSRA FEW020CB BKN030
ZGSZ,2025-07-12 05:00,ZGSZ 120500Z 13004MPS 8000 -TSRA FEW030CB BKN050 27/26 Q1005 RESHRA BECMG AT0540 SHRA
ZGSZ,2025-07-12 06:00,ZGSZ 120600Z 15005MPS 9999 FEW030CB SCT050 29/27 Q1004 NOSIG
ZGSZ,2025-07-12 07:00,ZGSZ 120700Z 18003MPS 9999 SCT023 BKN040 29/27 Q1005 NOSIG
ZGSZ,2025-07-12 08:00,ZGSZ 120800Z 17004MPS 9999 SCT033 29/26 Q1004 NOSIG
ZGSZ,2025-07-12 09:00,ZGSZ 120900Z 16005MPS 9999 SCT033 30/27 Q1004 NOSIG
ZGSZ,2025-07-12 10:00,ZGSZ 121000Z 15006MPS 9999 SCT033 29/26 Q1004 NOSIG
ZGSZ,2025-07-12 11:00,ZGSZ 121100Z 15006MPS 9999 SCT033 29/26 Q1004 NOSIG
ZGSZ,2025-07-12 12:00,ZGSZ 121200Z 15005MPS 9999 SCT033 29/26 Q1005 NOSIG
ZGSZ,2025-07-12 13:00,ZGSZ 121300Z 14004MPS 110V170 9999 FEW020 29/26 Q1005 NOSIG
ZGSZ,2025-07-12 14:00,ZGSZ 121400Z 14004MPS 110V180 8000 -SHRA FEW015 BKN026 29/27 Q1006 NOSIG
ZGSZ,2025-07-12 15:00,ZGSZ 121500Z 12003MPS 9999 SCT026 29/26 Q1006 NOSIG
ZGSZ,2025-07-12 16:00,ZGSZ 121600Z 25002MPS 220V340 9000 -SHRA FEW014 SCT040 28/26 Q1006 NOSIG
ZGSZ,2025-07-12 17:00,ZGSZ 121700Z 12003MPS 090V150 9999 -SHRA FEW016 SCT043 29/26 Q1006 BECMG AT1750 SHRA
ZGSZ,2025-07-12 18:00,ZGSZ 121800Z 16004MPS 9999 -SHRA FEW016 SCT043 28/25 Q1006 BECMG AT1810 SHRA
ZGSZ,2025-07-12 19:00,ZGSZ 121900Z 15004MPS 9999 SHRA FEW016TCU FEW016 BKN043 28/26 Q1005 BECMG AT1920 -SHRA
ZGSZ,2025-07-12 20:00,ZGSZ 122000Z 17003MPS 9999 SHRA FEW020TCU FEW020 BKN053 28/26 Q1005 BECMG AT2020 -SHRA
ZGSZ,2025-07-12 21:00,ZGSZ 122100Z 16005MPS 9999 SHRA FEW020TCU FEW020 BKN053 28/26 Q1006 BECMG AT2120 -SHRA
ZGSZ,2025-07-12 22:00,ZGSZ 122200Z 19004MPS 9999 -SHRA FEW020 SCT040 28/25 Q1006 RESHRA NOSIG
ZGSZ,2025-07-12 23:00,ZGSZ 122300Z 15003MPS 9999 FEW020 28/27 Q1006 NOSIG
ZGSZ,2025-07-13 00:00,ZGSZ 130000Z 16003MPS 9999 FEW020 30/27 Q1007 NOSIG
ZGSZ,2025-07-13 01:00,ZGSZ 130100Z 16004MPS 9999 FEW033 31/27 Q1007 NOSIG
ZGSZ,2025-07-13 02:00,ZGSZ 130200Z 17004MPS 9999 SCT033 30/27 Q1007 NOSIG
ZGSZ,2025-07-13 03:00,ZGSZ 130300Z 18003MPS 9999 FEW050 32/27 Q1007 NOSIG
ZGSZ,2025-07-13 04:00,ZGSZ 130400Z 18005MPS 9999 FEW050 31/27 Q1006 NOSIG
ZGSZ,2025-07-13 05:00,ZGSZ 130500Z 18005MPS 9999 FEW033 32/27 Q1006 NOSIG
ZGSZ,2025-07-13 06:00,ZGSZ 130600Z 19005MPS 9999 FEW033 32/27 Q1005 NOSIG
ZGSZ,2025-07-13 07:00,ZGSZ 130700Z 19007MPS 9999 FEW033 32/27 Q1005 NOSIG
ZGSZ,2025-07-13 08:00,ZGSZ 130800Z 18007MPS 9999 FEW033 31/27 Q1004 NOSIG
ZGSZ,2025-07-13 09:00,ZGSZ 130900Z 18006MPS 9999 SCT033 31/27 Q1004 NOSIG
ZGSZ,2025-07-13 10:00,ZGSZ 131000Z 17007MPS 9999 SCT033 30/27 Q1004 NOSIG
ZGSZ,2025-07-13 11:00,ZGSZ 131100Z 16005MPS 9999 SCT050 30/27 Q1005 NOSIG
ZGSZ,2025-07-13 12:00,ZGSZ 131200Z 16004MPS 9999 SCT050 30/26 Q1005 NOSIG
ZGSZ,2025-07-13 13:00,ZGSZ 131300Z 15004MPS 9999 FEW040 29/26 Q1005 NOSIG
ZGSZ,2025-07-13 14:00,ZGSZ 131400Z 16005MPS 9999 FEW040 30/27 Q1005 NOSIG
ZGSZ,2025-07-13 15:00,ZGSZ 131500Z 17003MPS 9999 FEW050 29/27 Q1006 NOSIG
ZGSZ,2025-07-13 16:00,ZGSZ 131600Z 18003MPS 9999 FEW050 29/27 Q1006 NOSIG
ZGSZ,2025-07-13 17:00,ZGSZ 131700Z 15003MPS 9999 FEW050 29/27 Q1006 NOSIG
ZGSZ,2025-07-13 18:00,ZGSZ 131800Z 16003MPS 9999 FEW050 29/26 Q1005 NOSIG
ZGSZ,2025-07-13 19:00,ZGSZ 131900Z 16002MPS 9999 FEW050 28/27 Q1004 NOSIG
ZGSZ,2025-07-13 20:00,ZGSZ 132000Z 17003MPS 9999 SCT050 29/27 Q1004 NOSIG
ZGSZ,2025-07-13 21:00,ZGSZ 132100Z 19003MPS 9999 FEW040 29/27 Q1004 NOSIG
ZGSZ,2025-07-13 22:00,ZGSZ 132200Z 18002MPS 9999 FEW040 29/27 Q1005 NOSIG
ZGSZ,2025-07-13 23:00,ZGSZ 132300Z VRB01MPS 9999 FEW040 29/27 Q1005 NOSIG
ZGSZ,2025-07-14 00:00,ZGSZ 140000Z 19002MPS 160V220 9999 FEW033 30/26 Q1005 NOSIG
ZGSZ,2025-07-14 01:00,ZGSZ 140100Z VRB01MPS 9999 FEW033 31/27 Q1006 NOSIG
ZGSZ,2025-07-14 02:00,ZGSZ 140200Z 20002MPS 150V240 9999 FEW033 31/27 Q1006 NOSIG
ZGSZ,2025-07-14 03:00,ZGSZ 140300Z 21002MPS 9999 FEW033 31/27 Q1005 NOSIG
ZGSZ,2025-07-14 04:00,ZGSZ 140400Z 20003MPS 9999 FEW033 32/26 Q1005 NOSIG
ZGSZ,2025-07-14 05:00,ZGSZ 140500Z 20004MPS CAVOK 32/27 Q1005 NOSIG
ZGSZ,2025-07-14 06:00,ZGSZ 140600Z 20005MPS 9999 FEW026TCU 32/27 Q1004 NOSIG
ZGSZ,2025-07-14 07:00,ZGSZ 140700Z 18006MPS 9999 FEW026 32/26 Q1003 NOSIG
ZGSZ,2025-07-14 08:00,ZGSZ 140800Z 18007MPS 9999 FEW026 32/27 Q1002 NOSIG
ZGSZ,2025-07-14 09:00,ZGSZ 140900Z 18007MPS 9999 FEW026 32/27 Q1002 NOSIG
ZGSZ,2025-07-14 10:00,ZGSZ 141000Z 17007MPS CAVOK 31/27 Q1001 NOSIG
ZGSZ,2025-07-14 11:00,ZGSZ 141100Z 16007MPS CAVOK 31/27 Q1002 NOSIG
ZGSZ,2025-07-14 12:00,ZGSZ 141200Z 17007MPS CAVOK 30/27 Q1003 NOSIG
ZGSZ,2025-07-14 13:00,ZGSZ 141300Z 18006MPS CAVOK 30/28 Q1003 NOSIG
ZGSZ,2025-07-14 14:00,ZGSZ 141400Z 16005MPS CAVOK 30/27 Q1004 NOSIG
ZGSZ,2025-07-14 15:00,ZGSZ 141500Z 16006MPS CAVOK 30/27 Q1003 NOSIG
ZGSZ,2025-07-14 16:00,ZGSZ 141600Z 18006MPS CAVOK 30/28 Q1003 NOSIG
ZGSZ,2025-07-14 17:00,ZGSZ 141700Z 19004MPS 9999 FEW033 30/27 Q1003 NOSIG
ZGSZ,2025-07-14 18:00,ZGSZ 141800Z 19005MPS CAVOK 30/27 Q1003 NOSIG
ZGSZ,2025-07-14 19:00,ZGSZ 141900Z 19004MPS CAVOK 30/27 Q1003 NOSIG
ZGSZ,2025-07-14 20:00,ZGSZ 142000Z 20004MPS 9999 SCT020 30/27 Q1003 NOSIG
ZGSZ,2025-07-14 21:00,ZGSZ 142100Z 21002MPS 9999 FEW020 29/27 Q1003 NOSIG
ZGSZ,2025-07-14 22:00,ZGSZ 142200Z 22001MPS 9999 FEW020 29/26 Q1003 NOSIG
ZGSZ,2025-07-14 23:00,ZGSZ 142300Z 20002MPS CAVOK 30/26 Q1003 NOSIG
ZGSZ,2025-07-15 00:00,ZGSZ 150000Z 21002MPS 9999 FEW026TCU 30/26 Q1004 NOSIG
ZGSZ,2025-07-15 01:00,ZGSZ 150100Z 21003MPS CAVOK 31/26 Q1004 NOSIG
ZGSZ,2025-07-15 02:00,ZGSZ 150200Z 20002MPS 160V230 CAVOK 31/27 Q1004 NOSIG
ZGSZ,2025-07-15 03:00,ZGSZ 150300Z 18002MPS 140V220 9999 FEW020TCU 32/26 Q1004 NOSIG
ZGSZ,2025-07-15 04:00,ZGSZ 150400Z 18004MPS 9999 FEW020TCU 32/28 Q1004 NOSIG
ZGSZ,2025-07-15 05:00,ZGSZ 150500Z 17006MPS 9999 FEW020TCU 32/27 Q1003 BECMG AT0650 SHRA
ZGSZ,2025-07-15 06:00,ZGSZ 150600Z 18006MPS 9999 FEW020TCU 32/27 Q1003 BECMG AT0710 SHRA
ZGSZ,2025-07-15 07:00,ZGSZ 150700Z 22008MPS 180V250 3000 +TSRA SCT015 FEW020CB BKN050 30/26 Q1003 BECMG AT0730 15004MPS -SHRA
ZGSZ,2025-07-15 08:00,ZGSZ 150800Z 16002MPS 9999 FEW040 29/27 Q1002 NOSIG
ZGSZ,2025-07-15 09:00,ZGSZ 150900Z 17004MPS CAVOK 30/26 Q1001 NOSIG
ZGSZ,2025-07-15 10:00,ZGSZ 151000Z 16004MPS CAVOK 30/26 Q1001 NOSIG
ZGSZ,2025-07-15 11:00,ZGSZ 151100Z 16004MPS CAVOK 30/26 Q1001 NOSIG
ZGSZ,2025-07-15 12:00,ZGSZ 151200Z 17005MPS CAVOK 30/28 Q1002 NOSIG
ZGSZ,2025-07-15 13:00,ZGSZ 151300Z 17006MPS CAVOK 30/27 Q1002 NOSIG
ZGSZ,2025-07-15 14:00,ZGSZ 151400Z 17006MPS CAVOK 30/28 Q1003 NOSIG
ZGSZ,2025-07-15 15:00,ZGSZ 151500Z 18005MPS CAVOK 30/28 Q1004 NOSIG
ZGSZ,2025-07-15 16:00,ZGSZ 151600Z 18005MPS CAVOK 30/28 Q1004 NOSIG
ZGSZ,2025-07-15 17:00,ZGSZ 151700Z 18005MPS 9999 FEW030 30/27 Q1004 NOSIG
ZGSZ,2025-07-15 18:00,ZGSZ 151800Z 19005MPS 9999 FEW030 30/27 Q1003 NOSIG
ZGSZ,2025-07-15 19:00,ZGSZ 151900Z 18004MPS 9999 FEW030 30/27 Q1003 NOSIG
ZGSZ,2025-07-15 20:00,ZGSZ 152000Z 19004MPS 9999 FEW020 30/27 Q1003 NOSIG
ZGSZ,2025-07-15 21:00,ZGSZ 152100Z 19003MPS 9999 FEW020 29/27 Q1003 NOSIG
ZGSZ,2025-07-15 22:00,ZGSZ 152200Z 19003MPS 9999 FEW020 29/27 Q1003 NOSIG
ZGSZ,2025-07-15 23:00,ZGSZ 152300Z 20003MPS 9999 FEW026 30/27 Q1004 NOSIG
ZGSZ,2025-07-16 00:00,ZGSZ 160000Z 19003MPS 9999 SCT026 31/27 Q1005 NOSIG
ZGSZ,2025-07-16 01:00,ZGSZ 160100Z 19003MPS 9999 SCT030 31/27 Q1005 NOSIG
ZGSZ,2025-07-16 02:00,ZGSZ 160200Z 18003MPS 9999 FEW020 32/27 Q1005 NOSIG
ZGSZ,2025-07-16 03:00,ZGSZ 160300Z 18003MPS 140V230 9999 SCT030 32/27 Q1005 NOSIG
ZGSZ,2025-07-16 04:00,ZGSZ 160400Z 18004MPS 9999 SCT030 32/27 Q1005 NOSIG
ZGSZ,2025-07-16 05:00,ZGSZ 160500Z 19005MPS 9999 SCT030 33/28 Q1004 NOSIG
ZGSZ,2025-07-16 06:00,ZGSZ 160600Z 20006MPS 180V240 9999 SCT030 32/28 Q1004 NOSIG
ZGSZ,2025-07-16 07:00,ZGSZ 160700Z 18004MPS 9999 FEW030 32/27 Q1003 NOSIG
ZGSZ,2025-07-16 08:00,ZGSZ 160800Z 18005MPS CAVOK 32/27 Q1002 NOSIG
ZGSZ,2025-07-16 09:00,ZGSZ 160900Z 18006MPS CAVOK 32/27 Q1002 NOSIG
ZGSZ,2025-07-16 10:00,ZGSZ 161000Z 17006MPS CAVOK 32/27 Q1002 NOSIG
ZGSZ,2025-07-16 11:00,ZGSZ 161100Z 17007MPS CAVOK 31/27 Q1002 NOSIG
ZGSZ,2025-07-16 12:00,ZGSZ 161200Z 17007MPS CAVOK 31/27 Q1002 NOSIG
ZGSZ,2025-07-16 13:00,ZGSZ 161300Z 17007MPS CAVOK 31/27 Q1003 NOSIG
ZGSZ,2025-07-16 14:00,ZGSZ 161400Z 18006MPS CAVOK 30/28 Q1003 NOSIG
ZGSZ,2025-07-16 15:00,ZGSZ 161500Z 18006MPS 9999 FEW033 30/28 Q1004 NOSIG
ZGSZ,2025-07-16 16:00,ZGSZ 161600Z 18006MPS 9999 FEW033 30/27 Q1004 NOSIG
ZGSZ,2025-07-16 17:00,ZGSZ 161700Z 18005MPS 9999 FEW033 30/27 Q1004 NOSIG
ZGSZ,2025-07-16 18:00,ZGSZ 161800Z 20004MPS 9999 FEW033 30/27 Q1003 NOSIG
ZGSZ,2025-07-16 19:00,ZGSZ 161900Z 18003MPS 9999 FEW033 30/27 Q1003 NOSIG
ZGSZ,2025-07-16 20:00,ZGSZ 162000Z 20003MPS 9999 SCT020 30/27 Q1003 NOSIG
ZGSZ,2025-07-16 21:00,ZGSZ 162100Z 20003MPS 9999 SCT020 30/27 Q1003 NOSIG
ZGSZ,2025-07-16 22:00,ZGSZ 162200Z 19002MPS 9999 FEW020 29/27 Q1003 NOSIG
ZGSZ,2025-07-16 23:00,ZGSZ 162300Z 20002MPS 9999 FEW020 30/27 Q1004 NOSIG
ZGSZ,2025-07-17 00:00,ZGSZ 170000Z 20002MPS 9999 FEW020 30/27 Q1004 NOSIG
ZGSZ,2025-07-17 01:00,ZGSZ 170100Z 23002MPS 190V260 9999 FEW020 31/27 Q1004 NOSIG
ZGSZ,2025-07-17 02:00,ZGSZ 170200Z VRB01MPS 9999 FEW020 32/27 Q1005 NOSIG
ZGSZ,2025-07-17 03:00,ZGSZ 170300Z VRB01MPS 9999 FEW020 33/27 Q1005 NOSIG
ZGSZ,2025-07-17 04:00,ZGSZ 170400Z 23002MPS 180V280 9999 FEW020 33/27 Q1004 NOSIG
ZGSZ,2025-07-17 05:00,ZGSZ 170500Z 21002MPS 150V250 9999 FEW020 33/27 Q1003 NOSIG
ZGSZ,2025-07-17 06:00,ZGSZ 170600Z 20003MPS 9999 FEW020 33/27 Q1003 NOSIG
ZGSZ,2025-07-17 07:00,ZGSZ 170700Z 19004MPS 160V220 9999 FEW020 34/27 Q1002 NOSIG
ZGSZ,2025-07-17 08:00,ZGSZ 170800Z 19004MPS 9999 FEW020 33/28 Q1001 NOSIG
ZGSZ,2025-07-17 09:00,ZGSZ 170900Z 20004MPS 9999 FEW020 33/28 Q1001 NOSIG
ZGSZ,2025-07-17 10:00,ZGSZ 171000Z 20004MPS CAVOK 32/28 Q1000 NOSIG
ZGSZ,2025-07-17 11:00,ZGSZ 171100Z 18005MPS CAVOK 32/28 Q1001 NOSIG
ZGSZ,2025-07-17 12:00,ZGSZ 171200Z 17004MPS CAVOK 31/29 Q1001 NOSIG
ZGSZ,2025-07-17 13:00,ZGSZ 171300Z 17005MPS CAVOK 31/29 Q1002 NOSIG
ZGSZ,2025-07-17 14:00,ZGSZ 171400Z 18004MPS CAVOK 31/29 Q1002 NOSIG
ZGSZ,2025-07-17 15:00,ZGSZ 171500Z 17004MPS CAVOK 31/29 Q1002 NOSIG
ZGSZ,2025-07-17 16:00,ZGSZ 171600Z 17004MPS CAVOK 31/28 Q1001 NOSIG
ZGSZ,2025-07-17 17:00,ZGSZ 171700Z 16005MPS CAVOK 31/28 Q1001 NOSIG
ZGSZ,2025-07-17 18:00,ZGSZ 171800Z 16005MPS CAVOK 31/29 Q1000 NOSIG
ZGSZ,2025-07-17 19:00,ZGSZ 171900Z 16004MPS CAVOK 30/28 Q1000 NOSIG
ZGSZ,2025-07-17 20:00,ZGSZ 172000Z 15004MPS CAVOK 30/28 Q1000 NOSIG
ZGSZ,2025-07-17 21:00,ZGSZ 172100Z 16003MPS CAVOK 30/29 Q1000 NOSIG
ZGSZ,2025-07-17 22:00,ZGSZ 172200Z 15003MPS CAVOK 30/29 Q1001 NOSIG
ZGSZ,2025-07-17 23:00,ZGSZ 172300Z 16003MPS CAVOK 31/29 Q1001 NOSIG
ZGSZ,2025-07-18 00:00,ZGSZ 180000Z 21003MPS CAVOK 31/29 Q1001 NOSIG
ZGSZ,2025-07-18 01:00,ZGSZ 180100Z 20003MPS CAVOK 32/29 Q1001 NOSIG
ZGSZ,2025-07-18 02:00,ZGSZ 180200Z 23002MPS 190V300 9999 FEW020TCU 33/29 Q1000 BECMG AT0320 03007G12MPS 2800 +TSRA SCT012 FEW025CB BKN033
ZGSZ,2025-07-18 03:00,ZGSZ 180300Z 20003MPS 140V250 5000 +TSRA FEW013 FEW020CB BKN040 31/29 Q1000 BECMG AT0450 -TSRA
ZGSZ,2025-07-18 04:00,ZGSZ 180400Z 34007MPS 310V010 9999 -TSRA SCT013 FEW020CB BKN050 27/24 Q1001 RESHRA BECMG AT0530 NSW
ZGSZ,2025-07-18 05:00,ZGSZ 180500Z 04003MPS 9999 -TSRA FEW013 FEW020CB BKN050 28/25 Q0999 BECMG AT0540 NSW
ZGSZ,2025-07-18 06:00,ZGSZ 180600Z 14002MPS 9999 OVC050 29/25 Q0999 NOSIG
ZGSZ,2025-07-18 07:00,ZGSZ 180700Z 12005MPS CAVOK 28/24 Q0998 NOSIG
ZGSZ,2025-07-18 08:00,ZGSZ 180800Z 17007MPS 9999 SCT050 28/25 Q0998 NOSIG
ZGSZ,2025-07-18 09:00,ZGSZ 180900Z 17006MPS 9999 SCT050 29/26 Q0997 NOSIG
ZGSZ,2025-07-18 10:00,ZGSZ 181000Z 19004MPS 9999 SCT050 29/26 Q0998 NOSIG
ZGSZ,2025-07-18 11:00,ZGSZ 181100Z 26003MPS 220V310 9999 SCT026 29/25 Q0998 NOSIG
ZGSZ,2025-07-18 12:00,ZGSZ 181200Z 30003MPS 9999 SCT050 29/24 Q0998 NOSIG
ZGSZ,2025-07-18 13:00,ZGSZ 181300Z 33003MPS 9999 SCT050 28/24 Q0999 NOSIG
ZGSZ,2025-07-18 14:00,ZGSZ 181400Z 35003MPS 9999 SCT050 28/24 Q0999 NOSIG
ZGSZ,2025-07-18 15:00,ZGSZ 181500Z 32003MPS 9999 SCT050 28/25 Q0999 NOSIG
ZGSZ,2025-07-18 16:00,ZGSZ 181600Z VRB01MPS 9999 FEW033 28/25 Q0998 NOSIG
ZGSZ,2025-07-18 17:00,ZGSZ 181700Z 36003MPS 240V050 9999 FEW033 29/25 Q0997 NOSIG
ZGSZ,2025-07-18 18:00,ZGSZ 181800Z 32003MPS CAVOK 28/26 Q0996 NOSIG
ZGSZ,2025-07-18 19:00,ZGSZ 181900Z 34003MPS 310V080 9999 FEW020 28/26 Q0996 NOSIG
ZGSZ,2025-07-18 20:00,ZGSZ 182000Z 34003MPS 9999 FEW020 28/25 Q0996 NOSIG
ZGSZ,2025-07-18 21:00,ZGSZ 182100Z 33003MPS 9999 FEW020 28/25 Q0996 NOSIG
ZGSZ,2025-07-18 22:00,ZGSZ 182200Z 34004MPS 9999 FEW020 28/25 Q0996 NOSIG
ZGSZ,2025-07-18 23:00,ZGSZ 182300Z 35003MPS 330V050 9999 FEW020 29/25 Q0996 NOSIG
ZGSZ,2025-07-19 00:00,ZGSZ 190000Z 34002MPS 300V360 CAVOK 30/25 Q0995 NOSIG
ZGSZ,2025-07-19 01:00,ZGSZ 190100Z 32003MPS 290V350 CAVOK 30/25 Q0995 NOSIG
ZGSZ,2025-07-19 02:00,ZGSZ 190200Z 33003MPS 250V020 CAVOK 32/25 Q0995 NOSIG
ZGSZ,2025-07-19 03:00,ZGSZ 190300Z 29004MPS 9999 SCT040 31/26 Q0995 NOSIG
ZGSZ,2025-07-19 04:00,ZGSZ 190400Z 01005MPS 9999 BKN040 34/25 Q0994 NOSIG
ZGSZ,2025-07-19 05:00,ZGSZ 190500Z 02005MPS 340V050 CAVOK 34/25 Q0993 NOSIG
ZGSZ,2025-07-19 06:00,ZGSZ 190600Z 36004MPS 330V030 CAVOK 35/26 Q0992 NOSIG
ZGSZ,2025-07-19 07:00,ZGSZ 190700Z 01005MPS 340V040 CAVOK 35/25 Q0992 NOSIG
ZGSZ,2025-07-19 08:00,ZGSZ 190800Z 06006MPS CAVOK 35/25 Q0992 NOSIG
ZGSZ,2025-07-19 09:00,ZGSZ 190900Z 06005MPS CAVOK 34/24 Q0991 NOSIG
ZGSZ,2025-07-19 10:00,ZGSZ 191000Z 07004MPS 030V090 CAVOK 34/25 Q0991 NOSIG
ZGSZ,2025-07-19 11:00,ZGSZ 191100Z 04003MPS 010V080 CAVOK 34/24 Q0992 NOSIG
ZGSZ,2025-07-19 12:00,ZGSZ 191200Z 03004MPS CAVOK 34/24 Q0992 BECMG AT1310 TSRA FEW020 FEW025CB BKN030
ZGSZ,2025-07-19 13:00,ZGSZ 191300Z 12008G13MPS 5000 TSRA FEW033CB BKN040 26/26 Q0994 NOSIG
ZGSZ,2025-07-19 14:00,ZGSZ 191400Z 13004MPS 9999 -SHRA NSC 28/26 Q0994 RETS BECMG AT1520 05006MPS SHRA
ZGSZ,2025-07-19 15:00,ZGSZ 191500Z 20002MPS 9999 -TSRA FEW013 FEW040CB 27/26 Q0994 RESHRA BECMG AT1520 -SHRA
ZGSZ,2025-07-19 16:00,ZGSZ 191600Z 28004MPS 9999 SCT011 SCT043 28/26 Q0993 NOSIG
ZGSZ,2025-07-19 17:00,ZGSZ 191700Z 29004MPS 9999 FEW011 SCT030 28/26 Q0992 BECMG AT1850 SHRA
ZGSZ,2025-07-19 18:00,ZGSZ 191800Z 31006MPS 9999 SCT040 28/26 Q0991 BECMG AT1950 SHRA
ZGSZ,2025-07-19 19:00,ZGSZ 191900Z 31007MPS 9999 -SHRA FEW050 28/26 Q0990 NOSIG
ZGSZ,2025-07-19 20:00,ZGSZ 192000Z 34006MPS 9999 -SHRA FEW040 28/26 Q0990 BECMG AT2030 SHRA
ZGSZ,2025-07-19 21:00,ZGSZ 192100Z 32005MPS 9999 -SHRA FEW033 28/27 Q0989 NOSIG
ZGSZ,2025-07-19 22:00,ZGSZ 192200Z 34006MPS 9999 -SHRA NSC 28/25 Q0989 NOSIG
ZGSZ,2025-07-19 23:00,ZGSZ 192300Z 34006MPS 9999 -SHRA BKN040 28/25 Q0988 NOSIG
ZGSZ,2025-07-20 00:00,ZGSZ 200000Z 36010MPS 6000 SHRA BKN050 27/25 Q0988 BECMG AT0040 -SHRA
ZGSZ,2025-07-20 01:00,ZGSZ 200100Z 01012MPS 9999 -SHRA FEW014 BKN033 27/25 Q0987 BECMG AT0240 SHRA
ZGSZ,2025-07-20 02:00,ZGSZ 200200Z 01014G20MPS 350V050 6000 -SHRA FEW014 BKN033 27/25 Q0986 BECMG AT0240 SHRA
ZGSZ,2025-07-20 03:00,ZGSZ 200300Z 02011G16MPS 4000 SHRA SCT014 BKN033 27/25 Q0985 BECMG AT0330 -SHRA
ZGSZ,2025-07-20 04:00,ZGSZ 200400Z 04013MPS 4000 R33/1900U R34/1400D SHRA SCT013 BKN033 26/25 Q0985 BECMG AT0430 +SHRA
ZGSZ,2025-07-20 05:00,ZGSZ 200500Z 05015G23MPS 8000 -SHRA SCT013 BKN033 28/25 Q0985 RESHRA NOSIG
ZGSZ,2025-07-20 06:00,ZGSZ 200600Z 07014G20MPS 5000 R33/P2000 R34/1200U SHRA SCT013 BKN033 26/25 Q0986 BECMG AT0630 -SHRA
ZGSZ,2025-07-20 07:00,ZGSZ 200700Z 07011G16MPS 8000 SHRA SCT013 BKN033 27/25 Q0987 BECMG AT0730 -SHRA
ZGSZ,2025-07-20 08:00,ZGSZ 200800Z 07011MPS 3000 R15/1400U R16/1200U +SHRA SCT012 BKN033 26/25 Q0988 BECMG AT0910 -SHRA
ZGSZ,2025-07-20 09:00,ZGSZ 200900Z 07008MPS 8000 -SHRA SCT013 BKN033 27/25 Q0989 RESHRA NOSIG
ZGSZ,2025-07-20 10:00,ZGSZ 201000Z 09009MPS 9999 -SHRA SCT016 BKN033 28/25 Q0989 BECMG AT1130 SHRA
ZGSZ,2025-07-20 11:00,ZGSZ 201100Z 09010G15MPS 9999 SCT016 BKN030 28/25 Q0991 NOSIG
ZGSZ,2025-07-20 12:00,ZGSZ 201200Z 10008MPS 9999 SCT020 28/25 Q0992 NOSIG
ZGSZ,2025-07-20 13:00,ZGSZ 201300Z 10006MPS 9999 SCT033 28/25 Q0993 NOSIG
ZGSZ,2025-07-20 14:00,ZGSZ 201400Z 09007MPS 9999 SCT033 28/25 Q0994 NOSIG
ZGSZ,2025-07-20 15:00,ZGSZ 201500Z 10006MPS 9999 FEW033 28/25 Q0994 NOSIG
ZGSZ,2025-07-20 16:00,ZGSZ 201600Z 09005MPS 9999 SCT033 28/25 Q0995 BECMG AT1700 SHRA
ZGSZ,2025-07-20 17:00,ZGSZ 201700Z 09006MPS 9999 SCT020 BKN050 28/26 Q0994 BECMG AT1720 SHRA
ZGSZ,2025-07-20 18:00,ZGSZ 201800Z 14005MPS 100V160 9999 SCT020 BKN050 27/25 Q0994 RESHRA NOSIG
ZGSZ,2025-07-20 19:00,ZGSZ 201900Z 11004MPS 080V140 9999 BKN040 27/25 Q0994 BECMG AT1920 +SHRA
ZGSZ,2025-07-20 20:00,ZGSZ 202000Z 08003MPS 9999 BKN050 27/25 Q0994 NOSIG
ZGSZ,2025-07-20 21:00,ZGSZ 202100Z 10004MPS 9999 BKN050 27/25 Q0994 NOSIG
ZGSZ,2025-07-20 22:00,ZGSZ 202200Z 09004MPS 9999 BKN050 28/25 Q0995 NOSIG
ZGSZ,2025-07-20 23:00,ZGSZ 202300Z 08004MPS 060V120 9999 -SHRA BKN040 28/25 Q0996 NOSIG
ZGSZ,2025-07-21 00:00,ZGSZ 210000Z 08003MPS 060V130 9999 FEW020 SCT030 BKN040 29/25 Q0996 BECMG AT0100 SHRA
ZGSZ,2025-07-21 01:00,ZGSZ 210100Z 09005MPS 9999 BKN033 29/25 Q0996 BECMG AT0110 SHRA
ZGSZ,2025-07-21 02:00,ZGSZ 210200Z 09005MPS 3000 SHRA OVC033 27/26 Q0997 BECMG AT0230 -SHRA
ZGSZ,2025-07-21 03:00,ZGSZ 210300Z 04003MPS 350V090 9999 -SHRA FEW016CB BKN033 28/26 Q0997 BECMG AT0310 +SHRA
ZGSZ,2025-07-21 04:00,ZGSZ 210400Z 11004MPS 090V150 8000 -SHRA FEW016CB FEW016 BKN033 28/26 Q0997 RESHRA BECMG AT0445 SHRA
ZGSZ,2025-07-21 05:00,ZGSZ 210500Z 10004MPS 070V130 8000 SHRA FEW016 FEW023CB BKN033 29/26 Q0996 BECMG AT0540 NSW
ZGSZ,2025-07-21 06:00,ZGSZ 210600Z 13002MPS 040V190 6000 +SHRA FEW016 FEW023CB BKN033 27/26 Q0996 BECMG AT0630 NSW
ZGSZ,2025-07-21 07:00,ZGSZ 210700Z 21002MPS 8000 -SHRA FEW016 FEW026CB BKN033 28/26 Q0996 BECMG AT0850 SHRA
ZGSZ,2025-07-21 08:00,ZGSZ 210800Z 12006MPS 8000 -SHRA FEW016 BKN033 29/26 Q0996 RESHRA BECMG AT0900 SHRA FEW025CB BKN030
ZGSZ,2025-07-21 09:00,ZGSZ 210900Z 13006MPS 6000 SHRA FEW016 FEW026CB BKN033 28/26 Q0996 BECMG AT1040 NSW
ZGSZ,2025-07-21 10:00,ZGSZ 211000Z 13005MPS 8000 -SHRA FEW016 SCT030 27/26 Q0997 RESHRA NOSIG
ZGSZ,2025-07-21 11:00,ZGSZ 211100Z 12006MPS 8000 -SHRA FEW016 BKN030 27/25 Q0997 NOSIG
ZGSZ,2025-07-21 12:00,ZGSZ 211200Z 11005MPS 9999 -SHRA FEW016 BKN030 27/25 Q0998 NOSIG
ZGSZ,2025-07-21 13:00,ZGSZ 211300Z 12006MPS 9999 FEW020 28/26 Q0998 BECMG AT1440 SHRA FEW025CB BKN030
ZGSZ,2025-07-21 14:00,ZGSZ 211400Z 12006MPS 8000 -SHRA BKN033 28/26 Q0999 BECMG AT1510 SHRA FEW025CB BKN030
ZGSZ,2025-07-21 15:00,ZGSZ 211500Z 14007MPS 9000 -SHRA BKN030 28/25 Q0999 RESHRA NOSIG
ZGSZ,2025-07-21 16:00,ZGSZ 211600Z 14006MPS 9999 -SHRA FEW020 BKN033 28/25 Q1000 NOSIG
ZGSZ,2025-07-21 17:00,ZGSZ 211700Z 14007MPS 6000 SHRA FEW020 FEW023CB BKN033 26/25 Q1000 BECMG AT1730 -SHRA FEW020 BKN030
ZGSZ,2025-07-21 18:00,ZGSZ 211800Z 11005MPS 9999 -SHRA FEW020 BKN033 27/25 Q0999 NOSIG
ZGSZ,2025-07-21 19:00,ZGSZ 211900Z 11005MPS 9999 -SHRA FEW020 BKN033 27/25 Q0998 NOSIG
ZGSZ,2025-07-21 20:00,ZGSZ 212000Z 12006MPS 9999 FEW020 BKN033 28/25 Q0998 NOSIG
ZGSZ,2025-07-21 21:00,ZGSZ 212100Z 12006MPS 9999 FEW020 BKN033 28/25 Q0999 NOSIG
ZGSZ,2025-07-21 22:00,ZGSZ 212200Z 12005MPS 9999 FEW020 BKN050 28/25 Q0999 NOSIG
ZGSZ,2025-07-21 23:00,ZGSZ 212300Z 12006MPS 9999 SCT030 29/25 Q1000 NOSIG
ZGSZ,2025-07-22 00:00,ZGSZ 220000Z 13006MPS 9999 SCT033 30/25 Q1000 NOSIG
ZGSZ,2025-07-22 01:00,ZGSZ 220100Z 12007MPS 9999 SCT033 30/25 Q1001 NOSIG
ZGSZ,2025-07-22 02:00,ZGSZ 220200Z 12008MPS 9999 SCT033 32/25 Q1001 NOSIG
ZGSZ,2025-07-22 03:00,ZGSZ 220300Z 14008MPS 9999 FEW020 32/25 Q1002 NOSIG
ZGSZ,2025-07-22 04:00,ZGSZ 220400Z 17008MPS 9999 SCT040 32/26 Q1001 NOSIG
ZGSZ,2025-07-22 05:00,ZGSZ 220500Z 15008MPS 9999 SCT040 33/24 Q1001 NOSIG
ZGSZ,2025-07-22 06:00,ZGSZ 220600Z 12008MPS 9999 SCT040 33/24 Q1001 NOSIG
ZGSZ,2025-07-22 07:00,ZGSZ 220700Z 12006MPS 9999 FEW020 33/25 Q1000 NOSIG
ZGSZ,2025-07-22 08:00,ZGSZ 220800Z 10006MPS 9999 SCT030 32/25 Q1000 NOSIG
ZGSZ,2025-07-22 09:00,ZGSZ 220900Z 14007MPS 100V160 9999 FEW020 31/24 Q1000 NOSIG
ZGSZ,2025-07-22 10:00,ZGSZ 221000Z 11006MPS 080V140 9999 FEW020 31/25 Q1001 NOSIG
ZGSZ,2025-07-22 11:00,ZGSZ 221100Z 10006MPS 9999 FEW020 30/25 Q1002 NOSIG
ZGSZ,2025-07-22 12:00,ZGSZ 221200Z 11007MPS 9999 FEW020 BKN050 29/25 Q1002 BECMG AT1340 SHRA
ZGSZ,2025-07-22 13:00,ZGSZ 221300Z 10006MPS 9999 -SHRA SCT050 28/24 Q1003 NOSIG
ZGSZ,2025-07-22 14:00,ZGSZ 221400Z 09005MPS 050V120 9999 SCT050 28/25 Q1004 NOSIG
ZGSZ,2025-07-22 15:00,ZGSZ 221500Z 09004MPS 070V130 CAVOK 28/24 Q1004 NOSIG
ZGSZ,2025-07-22 16:00,ZGSZ 221600Z 10004G09MPS 080V140 8000 -SHRA FEW020 SCT050 27/25 Q1004 NOSIG
ZGSZ,2025-07-22 17:00,ZGSZ 221700Z 10003G08MPS 070V140 9999 -SHRA NSC 27/25 Q1004 NOSIG
ZGSZ,2025-07-22 18:00,ZGSZ 221800Z 10002MPS 080V140 9999 FEW020 28/25 Q1003 NOSIG
ZGSZ,2025-07-22 19:00,ZGSZ 221900Z 09003MPS 050V140 9999 SCT040 28/26 Q1003 NOSIG
ZGSZ,2025-07-22 20:00,ZGSZ 222000Z 09003MPS 070V130 9999 SCT040 28/25 Q1002 NOSIG
ZGSZ,2025-07-22 21:00,ZGSZ 222100Z 09003G08MPS 070V130 9999 BKN050 28/25 Q1002 NOSIG
ZGSZ,2025-07-22 22:00,ZGSZ 222200Z 10002MPS 070V140 9999 BKN050 28/25 Q1003 NOSIG
ZGSZ,2025-07-22 23:00,ZGSZ 222300Z VRB01MPS 9999 FEW050 28/25 Q1003 NOSIG
ZGSZ,2025-07-23 00:00,ZGSZ 230000Z 07003MPS 050V120 8000 -RA FEW016 BKN050 28/25 Q1004 NOSIG
ZGSZ,2025-07-23 01:00,ZGSZ 230100Z 07003MPS 020V120 8000 -RA FEW016 BKN050 29/25 Q1004 NOSIG
ZGSZ,2025-07-23 02:00,ZGSZ 230200Z 03003MPS 340V090 9999 BKN050 30/26 Q1004 NOSIG
ZGSZ,2025-07-23 03:00,ZGSZ 230300Z VRB01MPS 9999 BKN050 32/26 Q1004 NOSIG
ZGSZ,2025-07-23 04:00,ZGSZ 230400Z 24004MPS 9999 BKN040 30/27 Q1003 NOSIG
ZGSZ,2025-07-23 05:00,ZGSZ 230500Z 24003MPS 210V270 9999 BKN040 31/26 Q1003 NOSIG
ZGSZ,2025-07-23 06:00,ZGSZ 230600Z 22004MPS 9999 BKN050 31/27 Q1002 NOSIG
ZGSZ,2025-07-23 07:00,ZGSZ 230700Z 23003MPS 9999 BKN050 30/26 Q1001 BECMG AT0720 TSRA
ZGSZ,2025-07-23 08:00,ZGSZ 230800Z 24003MPS 9999 BKN050 30/27 Q1001 RESHRA NOSIG
ZGSZ,2025-07-23 09:00,ZGSZ 230900Z 20004MPS 9000 -TSRA FEW030CB 30/26 Q1001 BECMG AT0920 01005MPS +TSRA
ZGSZ,2025-07-23 10:00,ZGSZ 231000Z 10003MPS 3000 TSRA FEW013 FEW030CB BKN036 27/25 Q1002 BECMG AT1020 -SHRA
ZGSZ,2025-07-23 11:00,ZGSZ 231100Z 06002MPS 030V120 9999 BKN036 28/26 Q1002 NOSIG
ZGSZ,2025-07-23 12:00,ZGSZ 231200Z 03004MPS 9999 -SHRA FEW020 BKN050 28/26 Q1003 NOSIG
ZGSZ,2025-07-23 13:00,ZGSZ 231300Z 35002MPS 9999 SCT050 28/26 Q1004 NOSIG
ZGSZ,2025-07-23 14:00,ZGSZ 231400Z VRB01MPS 9999 FEW050 28/26 Q1004 NOSIG
ZGSZ,2025-07-23 15:00,ZGSZ 231500Z 33001MPS 9999 FEW050 28/26 Q1005 NOSIG
ZGSZ,2025-07-23 16:00,ZGSZ 231600Z 34002MPS 270V030 9999 SCT040 28/26 Q1004 NOSIG
ZGSZ,2025-07-23 17:00,ZGSZ 231700Z 34002MPS 270V010 9999 -SHRA SCT033 28/26 Q1004 NOSIG
ZGSZ,2025-07-23 18:00,ZGSZ 231800Z 04002MPS 9999 SCT033 28/26 Q1003 NOSIG
ZGSZ,2025-07-23 19:00,ZGSZ 231900Z 34002MPS 9999 SCT033 27/25 Q1003 NOSIG
ZGSZ,2025-07-23 20:00,ZGSZ 232000Z 33002MPS 9999 SCT033 27/25 Q1002 NOSIG
ZGSZ,2025-07-23 21:00,ZGSZ 232100Z 34002MPS 9999 SCT033 27/25 Q1002 NOSIG
ZGSZ,2025-07-23 22:00,ZGSZ 232200Z 34001MPS CAVOK 27/25 Q1002 NOSIG
ZGSZ,2025-07-23 23:00,ZGSZ 232300Z 32002MPS CAVOK 28/25 Q1003 NOSIG
ZGSZ,2025-07-24 00:00,ZGSZ 240000Z 34003MPS CAVOK 29/26 Q1003 NOSIG
ZGSZ,2025-07-24 01:00,ZGSZ 240100Z 31003MPS 280V340 CAVOK 29/26 Q1003 NOSIG
ZGSZ,2025-07-24 02:00,ZGSZ 240200Z 29004MPS CAVOK 30/26 Q1003 NOSIG
ZGSZ,2025-07-24 03:00,ZGSZ 240300Z 29005MPS 9999 FEW026 31/26 Q1003 NOSIG
ZGSZ,2025-07-24 04:00,ZGSZ 240400Z 29005MPS 9999 FEW026 32/26 Q1002 NOSIG
ZGSZ,2025-07-24 05:00,ZGSZ 240500Z 28004MPS 9999 SCT026 33/26 Q1001 NOSIG
ZGSZ,2025-07-24 06:00,ZGSZ 240600Z 28004MPS 9999 FEW020CB SCT026 33/26 Q1000 BECMG AT0740 20005MPS SCT030
ZGSZ,2025-07-24 07:00,ZGSZ 240700Z 28003MPS 210V300 9999 SCT040 34/26 Q1000 BECMG AT0740 18005MPS
ZGSZ,2025-07-24 08:00,ZGSZ 240800Z 18005MPS 9999 FEW040 32/27 Q0999 NOSIG
ZGSZ,2025-07-24 09:00,ZGSZ 240900Z 17003MPS 9999 FEW040 32/26 Q0999 NOSIG
ZGSZ,2025-07-24 10:00,ZGSZ 241000Z 16005MPS 9999 SCT040 31/26 Q0999 NOSIG
ZGSZ,2025-07-24 11:00,ZGSZ 241100Z 17006MPS 9999 FEW020CB SCT040 31/25 Q1000 NOSIG
ZGSZ,2025-07-24 12:00,ZGSZ 241200Z 18004MPS 9999 BKN040 31/24 Q1001 NOSIG
ZGSZ,2025-07-24 13:00,ZGSZ 241300Z 19004MPS 9999 SCT040 30/25 Q1001 NOSIG
ZGSZ,2025-07-24 14:00,ZGSZ 241400Z 20004MPS CAVOK 29/26 Q1002 NOSIG
ZGSZ,2025-07-24 15:00,ZGSZ 241500Z 20004MPS CAVOK 30/27 Q1002 NOSIG
ZGSZ,2025-07-24 16:00,ZGSZ 241600Z 22002MPS CAVOK 29/26 Q1002 NOSIG
ZGSZ,2025-07-24 17:00,ZGSZ 241700Z 30004MPS CAVOK 29/26 Q1001 NOSIG
ZGSZ,2025-07-24 18:00,ZGSZ 241800Z 29003MPS CAVOK 29/25 Q1001 NOSIG
ZGSZ,2025-07-24 19:00,ZGSZ 241900Z 28003MPS CAVOK 28/25 Q1000 NOSIG
ZGSZ,2025-07-24 20:00,ZGSZ 242000Z 30002MPS CAVOK 28/25 Q1000 NOSIG
ZGSZ,2025-07-24 21:00,ZGSZ 242100Z 34001MPS CAVOK 28/25 Q1000 NOSIG
ZGSZ,2025-07-24 22:00,ZGSZ 242200Z 29003MPS CAVOK 28/25 Q1000 NOSIG
ZGSZ,2025-07-24 23:00,ZGSZ 242300Z 28002MPS CAVOK 29/25 Q1000 NOSIG
ZGSZ,2025-07-25 00:00,ZGSZ 250000Z 30003MPS CAVOK 29/26 Q1000 NOSIG
ZGSZ,2025-07-25 01:00,ZGSZ 250100Z 31004MPS CAVOK 30/26 Q1000 NOSIG
ZGSZ,2025-07-25 02:00,ZGSZ 250200Z 29003MPS CAVOK 31/26 Q1001 NOSIG
ZGSZ,2025-07-25 03:00,ZGSZ 250300Z 26003MPS CAVOK 32/26 Q1001 NOSIG
ZGSZ,2025-07-25 04:00,ZGSZ 250400Z 28004MPS 9999 FEW040 33/27 Q1000 NOSIG
ZGSZ,2025-07-25 05:00,ZGSZ 250500Z 28004MPS 9999 FEW040 34/26 Q1000 NOSIG
ZGSZ,2025-07-25 06:00,ZGSZ 250600Z 27003MPS 9999 FEW040 34/26 Q0999 BECMG AT0640 20005MPS
ZGSZ,2025-07-25 07:00,ZGSZ 250700Z 22003MPS 9999 FEW040 34/26 Q0998 NOSIG
ZGSZ,2025-07-25 08:00,ZGSZ 250800Z 21004MPS 9999 FEW040 33/28 Q0997 NOSIG
ZGSZ,2025-07-25 09:00,ZGSZ 250900Z 19004MPS 9999 FEW030CB 32/28 Q0997 NOSIG
ZGSZ,2025-07-25 10:00,ZGSZ 251000Z VRB01MPS 9999 FEW030TCU 31/26 Q0998 BECMG AT1030 TS SCT012 FEW020CB BKN030
ZGSZ,2025-07-25 11:00,ZGSZ 251100Z 16004MPS 9999 SCT050 31/26 Q0998 NOSIG
ZGSZ,2025-07-25 12:00,ZGSZ 251200Z 15006MPS 9999 SCT050 30/26 Q0999 NOSIG
ZGSZ,2025-07-25 13:00,ZGSZ 251300Z 19005MPS 9999 SCT050 29/25 Q1000 NOSIG
ZGSZ,2025-07-25 14:00,ZGSZ 251400Z 17005MPS CAVOK 28/25 Q1000 NOSIG
ZGSZ,2025-07-25 15:00,ZGSZ 251500Z 23002MPS CAVOK 28/25 Q1000 NOSIG
ZGSZ,2025-07-25 16:00,ZGSZ 251600Z VRB01MPS CAVOK 28/25 Q1001 NOSIG
ZGSZ,2025-07-25 17:00,ZGSZ 251700Z VRB01MPS CAVOK 28/25 Q1000 NOSIG
ZGSZ,2025-07-25 18:00,ZGSZ 251800Z VRB01MPS CAVOK 28/25 Q1000 NOSIG
ZGSZ,2025-07-25 19:00,ZGSZ 251900Z VRB01MPS CAVOK 28/25 Q0999 NOSIG
ZGSZ,2025-07-25 20:00,ZGSZ 252000Z 22002MPS CAVOK 28/25 Q0999 NOSIG
ZGSZ,2025-07-25 21:00,ZGSZ 252100Z VRB01MPS CAVOK 28/25 Q0999 NOSIG
ZGSZ,2025-07-25 22:00,ZGSZ 252200Z 27002MPS CAVOK 29/25 Q0999 NOSIG
ZGSZ,2025-07-25 23:00,ZGSZ 252300Z 30003MPS CAVOK 29/24 Q0999 NOSIG
ZGSZ,2025-07-26 00:00,ZGSZ 260000Z 30003MPS CAVOK 30/25 Q1000 NOSIG
ZGSZ,2025-07-26 01:00,ZGSZ 260100Z 29003MPS CAVOK 30/25 Q1000 NOSIG
ZGSZ,2025-07-26 02:00,ZGSZ 260200Z 28003MPS CAVOK 31/25 Q1000 NOSIG
ZGSZ,2025-07-26 03:00,ZGSZ 260300Z 28003MPS CAVOK 32/25 Q1000 NOSIG
ZGSZ,2025-07-26 04:00,ZGSZ 260400Z 27003MPS 240V300 CAVOK 33/25 Q1000 NOSIG
ZGSZ,2025-07-26 05:00,ZGSZ 260500Z 26003MPS CAVOK 33/25 Q1000 BECMG AT0620 20005MPS
ZGSZ,2025-07-26 06:00,ZGSZ 260600Z 22003MPS CAVOK 34/25 Q0999 NOSIG
ZGSZ,2025-07-26 07:00,ZGSZ 260700Z 20005MPS CAVOK 34/26 Q0999 NOSIG
ZGSZ,2025-07-26 08:00,ZGSZ 260800Z 19005MPS 9999 FEW033 34/27 Q0998 NOSIG
ZGSZ,2025-07-26 09:00,ZGSZ 260900Z 19006MPS CAVOK 33/28 Q0998 NOSIG
ZGSZ,2025-07-26 10:00,ZGSZ 261000Z 18006MPS CAVOK 32/28 Q0998 NOSIG
ZGSZ,2025-07-26 11:00,ZGSZ 261100Z 18007MPS CAVOK 31/27 Q0999 NOSIG
ZGSZ,2025-07-26 12:00,ZGSZ 261200Z 17006MPS CAVOK 31/28 Q0999 NOSIG
ZGSZ,2025-07-26 13:00,ZGSZ 261300Z 18005MPS CAVOK 31/28 Q1000 NOSIG
ZGSZ,2025-07-26 14:00,ZGSZ 261400Z 17004MPS CAVOK 30/27 Q1001 NOSIG
ZGSZ,2025-07-26 15:00,ZGSZ 261500Z 15005MPS CAVOK 29/27 Q1001 NOSIG
ZGSZ,2025-07-26 16:00,ZGSZ 261600Z 17004MPS CAVOK 30/27 Q1001 NOSIG
ZGSZ,2025-07-26 17:00,ZGSZ 261700Z 18004MPS CAVOK 30/28 Q1000 NOSIG
ZGSZ,2025-07-26 18:00,ZGSZ 261800Z 17003MPS CAVOK 29/27 Q1000 NOSIG
ZGSZ,2025-07-26 19:00,ZGSZ 261900Z 18003MPS CAVOK 30/28 Q1000 NOSIG
ZGSZ,2025-07-26 20:00,ZGSZ 262000Z 19003MPS CAVOK 30/26 Q0999 NOSIG
ZGSZ,2025-07-26 21:00,ZGSZ 262100Z 20003MPS CAVOK 29/26 Q0999 NOSIG
ZGSZ,2025-07-26 22:00,ZGSZ 262200Z 17003MPS 9999 FEW040 29/26 Q1000 NOSIG
ZGSZ,2025-07-26 23:00,ZGSZ 262300Z 18004MPS 9999 FEW040 30/27 Q1000 NOSIG
ZGSZ,2025-07-27 00:00,ZGSZ 270000Z 21003MPS CAVOK 30/26 Q1001 NOSIG
ZGSZ,2025-07-27 01:00,ZGSZ 270100Z 19003MPS 160V220 CAVOK 31/27 Q1001 NOSIG
ZGSZ,2025-07-27 02:00,ZGSZ 270200Z 20004MPS 160V220 CAVOK 31/27 Q1001 NOSIG
ZGSZ,2025-07-27 03:00,ZGSZ 270300Z 18004MPS 9999 FEW020 31/28 Q1001 NOSIG
ZGSZ,2025-07-27 04:00,ZGSZ 270400Z 18004MPS CAVOK 32/27 Q1000 NOSIG
ZGSZ,2025-07-27 05:00,ZGSZ 270500Z 18006MPS CAVOK 32/28 Q1000 NOSIG
ZGSZ,2025-07-27 06:00,ZGSZ 270600Z 18007MPS CAVOK 32/28 Q0999 NOSIG
ZGSZ,2025-07-27 07:00,ZGSZ 270700Z 18007MPS CAVOK 32/28 Q0998 NOSIG
ZGSZ,2025-07-27 08:00,ZGSZ 270800Z 17007MPS CAVOK 32/28 Q0997 NOSIG
ZGSZ,2025-07-27 09:00,ZGSZ 270900Z 17008MPS CAVOK 32/27 Q0997 NOSIG
ZGSZ,2025-07-27 10:00,ZGSZ 271000Z 16007MPS CAVOK 31/27 Q0997 NOSIG
ZGSZ,2025-07-27 11:00,ZGSZ 271100Z 16006MPS CAVOK 31/27 Q0998 NOSIG
ZGSZ,2025-07-27 12:00,ZGSZ 271200Z 16006MPS CAVOK 30/27 Q0998 NOSIG
ZGSZ,2025-07-27 13:00,ZGSZ 271300Z 16007MPS CAVOK 30/27 Q0999 NOSIG
ZGSZ,2025-07-27 14:00,ZGSZ 271400Z 16007MPS CAVOK 30/27 Q1000 NOSIG
ZGSZ,2025-07-27 15:00,ZGSZ 271500Z 16007MPS CAVOK 30/27 Q1000 NOSIG
ZGSZ,2025-07-27 16:00,ZGSZ 271600Z 17006MPS CAVOK 30/27 Q1000 NOSIG
ZGSZ,2025-07-27 17:00,ZGSZ 271700Z 17006MPS CAVOK 30/27 Q0999 NOSIG
ZGSZ,2025-07-27 18:00,ZGSZ 271800Z 18005MPS CAVOK 29/27 Q0999 NOSIG
ZGSZ,2025-07-27 19:00,ZGSZ 271900Z 17005MPS CAVOK 29/27 Q0998 NOSIG
ZGSZ,2025-07-27 20:00,ZGSZ 272000Z 17005MPS CAVOK 29/27 Q0998 NOSIG
ZGSZ,2025-07-27 21:00,ZGSZ 272100Z 20003MPS CAVOK 29/26 Q0998 NOSIG
ZGSZ,2025-07-27 22:00,ZGSZ 272200Z 20003MPS 9999 FEW033 29/26 Q0998 NOSIG
ZGSZ,2025-07-27 23:00,ZGSZ 272300Z 18002MPS 9999 FEW033 30/26 Q0998 NOSIG
ZGSZ,2025-07-28 00:00,ZGSZ 280000Z 20003MPS 9999 BKN040 30/26 Q0998 NOSIG
ZGSZ,2025-07-28 01:00,ZGSZ 280100Z 20002MPS 9999 SCT020 BKN050 30/27 Q0999 NOSIG
ZGSZ,2025-07-28 02:00,ZGSZ 280200Z 20003MPS 160V220 9999 FEW030 30/26 Q0999 NOSIG
ZGSZ,2025-07-28 03:00,ZGSZ 280300Z 19003MPS 9999 FEW033 31/27 Q0999 NOSIG
ZGSZ,2025-07-28 04:00,ZGSZ 280400Z 17003MPS 120V200 9999 FEW026 31/27 Q0998 NOSIG
ZGSZ,2025-07-28 05:00,ZGSZ 280500Z 18004MPS 150V210 9999 FEW026 32/27 Q0997 NOSIG
ZGSZ,2025-07-28 06:00,ZGSZ 280600Z 18005MPS 9999 FEW026 32/27 Q0996 BECMG AT0710 30005MPS TSRA FEW020CB BKN030
ZGSZ,2025-07-28 07:00,ZGSZ 280700Z 35005MPS 330V040 8000 -SHRA FEW020 FEW026TCU 30/25 Q0996 BECMG AT0710 07005MPS -TSRA FEW020CB BKN030
ZGSZ,2025-07-28 08:00,ZGSZ 280800Z 15001MPS 9999 -SHRA FEW020 30/25 Q0995 NOSIG
ZGSZ,2025-07-28 09:00,ZGSZ 280900Z 16004MPS 9999 FEW033 31/28 Q0996 NOSIG
ZGSZ,2025-07-28 10:00,ZGSZ 281000Z 18003MPS 9999 FEW033 30/26 Q0996 BECMG AT1050 -TSRA FEW020CB BKN030
ZGSZ,2025-07-28 11:00,ZGSZ 281100Z 28008MPS 7000 +SHRA SCT013 FEW020CB BKN033 29/24 Q0997 BECMG AT1130 1500 +TSRA
ZGSZ,2025-07-28 12:00,ZGSZ 281200Z 07003MPS 030V100 9999 -TSRA FEW020 FEW026CB 26/24 Q0997 RESHRA BECMG AT1230 20005MPS -SHRA BKN020
ZGSZ,2025-07-28 13:00,ZGSZ 281300Z VRB01MPS 9999 -SHRA FEW020 FEW033TCU 27/24 Q0998 RETS NOSIG
ZGSZ,2025-07-28 14:00,ZGSZ 281400Z VRB01MPS 9999 SCT040 27/25 Q0997 NOSIG
ZGSZ,2025-07-28 15:00,ZGSZ 281500Z 18002MPS CAVOK 28/25 Q0998 NOSIG
ZGSZ,2025-07-28 16:00,ZGSZ 281600Z VRB01MPS 9999 SCT026 28/24 Q0997 NOSIG
ZGSZ,2025-07-28 17:00,ZGSZ 281700Z 24001MPS 9999 SCT026 28/25 Q0997 NOSIG
ZGSZ,2025-07-28 18:00,ZGSZ 281800Z 23001MPS 9999 BKN030 28/25 Q0996 NOSIG
ZGSZ,2025-07-28 19:00,ZGSZ 281900Z 23002MPS 9999 SCT030 28/26 Q0996 NOSIG
ZGSZ,2025-07-28 20:00,ZGSZ 282000Z VRB01MPS CAVOK 28/26 Q0996 NOSIG
ZGSZ,2025-07-28 21:00,ZGSZ 282100Z 00000MPS 9999 SCT026 28/26 Q0996 NOSIG
ZGSZ,2025-07-28 22:00,ZGSZ 282200Z VRB01MPS 9999 SCT016 BKN033 28/27 Q0996 NOSIG
ZGSZ,2025-07-28 23:00,ZGSZ 282300Z VRB01MPS 8000 SCT016 BKN033 29/26 Q0996 NOSIG
ZGSZ,2025-07-29 00:00,ZGSZ 290000Z 34002MPS 8000 BKN020 29/27 Q0997 NOSIG
ZGSZ,2025-07-29 01:00,ZGSZ 290100Z 36003MPS 310V020 9999 FEW015 BKN030 30/27 Q0997 NOSIG
ZGSZ,2025-07-29 02:00,ZGSZ 290200Z 30002MPS 260V330 8000 SCT016 BKN033 31/28 Q0997 NOSIG
ZGSZ,2025-07-29 03:00,ZGSZ 290300Z 28002MPS 230V310 8000 FEW016 BKN033 31/27 Q0997 NOSIG
ZGSZ,2025-07-29 04:00,ZGSZ 290400Z 21003MPS 180V260 7000 FEW016 FEW026TCU BKN033 32/28 Q0997 NOSIG
ZGSZ,2025-07-29 05:00,ZGSZ 290500Z 18005MPS 7000 FEW026TCU SCT033 32/27 Q0996 NOSIG
ZGSZ,2025-07-29 06:00,ZGSZ 290600Z 19008MPS 9999 FEW026TCU BKN033 31/26 Q0996 NOSIG
ZGSZ,2025-07-29 07:00,ZGSZ 290700Z 19008MPS 9999 FEW026TCU SCT040 31/26 Q0996 BECMG AT0730 TS FEW025CB BKN030
ZGSZ,2025-07-29 08:00,ZGSZ 290800Z 27009G14MPS 5000 +TSRA SCT016 FEW023CB BKN033 27/25 Q0995 BECMG AT0900 20005MPS NSW BKN030
ZGSZ,2025-07-29 09:00,ZGSZ 290900Z VRB01MPS 9999 -TSRA FEW016 FEW023CB 29/25 Q0994 BECMG AT0915 20005MPS NSW BKN030
ZGSZ,2025-07-29 10:00,ZGSZ 291000Z 20003MPS 9999 FEW033 29/26 Q0994 NOSIG
ZGSZ,2025-07-29 11:00,ZGSZ 291100Z 19005MPS 9999 FEW033 29/26 Q0995 NOSIG
ZGSZ,2025-07-29 12:00,ZGSZ 291200Z 18004MPS 9999 FEW033 29/26 Q0996 NOSIG
ZGSZ,2025-07-29 13:00,ZGSZ 291300Z 18004MPS 9999 SCT050 29/26 Q0997 NOSIG
ZGSZ,2025-07-29 14:00,ZGSZ 291400Z 19005MPS 9999 FEW015 SCT040 29/27 Q0997 NOSIG
ZGSZ,2025-07-29 15:00,ZGSZ 291500Z 20004MPS 9999 SCT040 29/26 Q0997 NOSIG
ZGSZ,2025-07-29 16:00,ZGSZ 291600Z 20003MPS 9999 SCT040 29/27 Q0997 NOSIG
ZGSZ,2025-07-29 17:00,ZGSZ 291700Z 19003MPS 9999 SCT040 29/27 Q0997 NOSIG
ZGSZ,2025-07-29 18:00,ZGSZ 291800Z 19003MPS 9999 SCT040 29/27 Q0997 NOSIG
ZGSZ,2025-07-29 19:00,ZGSZ 291900Z 18004MPS 9999 FEW040 29/27 Q0996 NOSIG
ZGSZ,2025-07-29 20:00,ZGSZ 292000Z 19004MPS 9999 FEW040 29/27 Q0996 NOSIG
ZGSZ,2025-07-29 21:00,ZGSZ 292100Z 20004MPS 9999 SCT030 29/27 Q0996 NOSIG
ZGSZ,2025-07-29 22:00,ZGSZ 292200Z 22003MPS 9999 FEW016 BKN030 29/27 Q0997 BECMG AT2330 33005MPS -TSRA FEW025CB BKN030
ZGSZ,2025-07-29 23:00,ZGSZ 292300Z 24002MPS 9999 FEW016 SCT030 29/27 Q0997 NOSIG
ZGSZ,2025-07-30 00:00,ZGSZ 300000Z 27002MPS 9999 BKN030 29/27 Q0998 NOSIG
ZGSZ,2025-07-30 01:00,ZGSZ 300100Z 26003MPS 9999 SCT030 30/27 Q0998 NOSIG
ZGSZ,2025-07-30 02:00,ZGSZ 300200Z 27002MPS 240V320 7000 FEW015 30/27 Q0998 NOSIG
ZGSZ,2025-07-30 03:00,ZGSZ 300300Z 25002MPS 210V290 7000 SCT020 31/27 Q0998 NOSIG
ZGSZ,2025-07-30 04:00,ZGSZ 300400Z 29002MPS 230V310 8000 SCT025 32/27 Q0997 NOSIG
ZGSZ,2025-07-30 05:00,ZGSZ 300500Z 21002MPS 160V260 8000 FEW025 31/27 Q0997 NOSIG
ZGSZ,2025-07-30 06:00,ZGSZ 300600Z 18002MPS 110V220 8000 NSC 32/27 Q0996 NOSIG
ZGSZ,2025-07-30 07:00,ZGSZ 300700Z 19005MPS CAVOK 32/28 Q0995 NOSIG
ZGSZ,2025-07-30 08:00,ZGSZ 300800Z 17007MPS CAVOK 32/28 Q0995 NOSIG
ZGSZ,2025-07-30 09:00,ZGSZ 300900Z 16007MPS CAVOK 31/28 Q0994 NOSIG
ZGSZ,2025-07-30 10:00,ZGSZ 301000Z 19007MPS 9999 FEW020 31/28 Q0996 BECMG AT1040 TSRA FEW015 FEW020CB BKN033
ZGSZ,2025-07-30 11:00,ZGSZ 301100Z 22006MPS 9999 SCT040 29/26 Q0996 NOSIG
ZGSZ,2025-07-30 12:00,ZGSZ 301200Z 17002MPS 140V200 9999 SCT040 29/26 Q0997 NOSIG
ZGSZ,2025-07-30 13:00,ZGSZ 301300Z 17002MPS CAVOK 30/26 Q0997 NOSIG
ZGSZ,2025-07-30 14:00,ZGSZ 301400Z 16003MPS 9999 FEW011 30/26 Q0998 NOSIG
ZGSZ,2025-07-30 15:00,ZGSZ 301500Z 18005MPS 9999 FEW010 30/27 Q0998 NOSIG
ZGSZ,2025-07-30 16:00,ZGSZ 301600Z 19004MPS 9999 FEW020 30/27 Q0998 NOSIG
ZGSZ,2025-07-30 17:00,ZGSZ 301700Z 20004MPS 9999 SCT017 30/27 Q0998 NOSIG
ZGSZ,2025-07-30 18:00,ZGSZ 301800Z 20004MPS 9999 SCT015 BKN030 30/27 Q0997 NOSIG
ZGSZ,2025-07-30 19:00,ZGSZ 301900Z 22004MPS 9999 -SHRA SCT015 FEW025CB BKN030 30/28 Q0997 BECMG AT1910 TSRA
ZGSZ,2025-07-30 20:00,ZGSZ 302000Z 08004G09MPS 050V120 8000 -TSRA SCT014 FEW025CB BKN030 28/25 Q0997 BECMG AT2040 -SHRA
ZGSZ,2025-07-30 21:00,ZGSZ 302100Z 13006MPS 8000 -TSRA SCT020 FEW025CB BKN030 27/24 Q0997 RESHRA BECMG AT2150 -SHRA
ZGSZ,2025-07-30 22:00,ZGSZ 302200Z 09002MPS 050V150 9999 -TSRA SCT020 FEW025CB BKN040 28/24 Q0997 BECMG AT2250 -SHRA
ZGSZ,2025-07-30 23:00,ZGSZ 302300Z VRB01MPS 9999 BKN020 28/26 Q0998 NOSIG
ZGSZ,2025-07-31 00:00,ZGSZ 310000Z VRB01MPS 9999 BKN016 29/26 Q0999 NOSIG
ZGSZ,2025-07-31 01:00,ZGSZ 310100Z 35002MPS 320V020 9999 BKN016 30/27 Q0999 NOSIG
ZGSZ,2025-07-31 02:00,ZGSZ 310200Z 06003MPS 8000 SHRA SCT013 FEW020CB BKN023 29/27 Q0999 BECMG AT0240 -SHRA
ZGSZ,2025-07-31 03:00,ZGSZ 310300Z 07002MPS 040V120 8000 TSRA SCT013 FEW020CB BKN043 30/27 Q0999 BECMG AT0320 -SHRA
ZGSZ,2025-07-31 04:00,ZGSZ 310400Z 16002MPS 130V190 9999 -TSRA FEW015 FEW026CB BKN053 30/27 Q0999 BECMG AT0420 TSRA
ZGSZ,2025-07-31 05:00,ZGSZ 310500Z 17005MPS 9999 FEW015 FEW027CB BKN050 29/27 Q0999 BECMG AT0550 TSRA
ZGSZ,2025-07-31 06:00,ZGSZ 310600Z 35002MPS 260V030 9999 -TSRA FEW015 FEW040CB BKN053 25/24 Q0998 RESHRA BECMG AT0630 -SHRA
ZGSZ,2025-07-31 07:00,ZGSZ 310700Z 14002MPS 090V160 9999 BKN053 28/25 Q0998 NOSIG
ZGSZ,2025-07-31 08:00,ZGSZ 310800Z 16004MPS 9999 BKN053 28/24 Q0997 NOSIG
ZGSZ,2025-07-31 09:00,ZGSZ 310900Z 16002MPS 9999 FEW053 29/25 Q0997 NOSIG
ZGSZ,2025-07-31 10:00,ZGSZ 311000Z 17003MPS 9999 FEW053 29/26 Q0997 NOSIG
ZGSZ,2025-07-31 11:00,ZGSZ 311100Z 17003MPS 9999 FEW053 29/26 Q0998 NOSIG
ZGSZ,2025-07-31 12:00,ZGSZ 311200Z 18006MPS 9999 FEW053 29/26 Q0998 NOSIG
ZGSZ,2025-07-31 13:00,ZGSZ 311300Z 18005MPS 9999 FEW053 29/25 Q0999 NOSIG
ZGSZ,2025-07-31 14:00,ZGSZ 311400Z 18004MPS CAVOK 29/26 Q1000 NOSIG
ZGSZ,2025-07-31 15:00,ZGSZ 311500Z 19003MPS 9999 FEW018 29/27 Q1000 NOSIG
ZGSZ,2025-07-31 16:00,ZGSZ 311600Z 19002MPS 9999 SCT018 29/27 Q1000 NOSIG
ZGSZ,2025-07-31 17:00,ZGSZ 311700Z 22003MPS 9999 SCT018 BKN033 29/27 Q0999 NOSIG
ZGSZ,2025-07-31 18:00,ZGSZ 311800Z 26002MPS 230V310 9999 SCT018 BKN033 29/26 Q0998 NOSIG
ZGSZ,2025-07-31 19:00,ZGSZ 311900Z 29003MPS 9999 SCT033 28/26 Q0998 NOSIG
ZGSZ,2025-07-31 20:00,ZGSZ 312000Z 28002MPS 9999 SCT033 28/25 Q0998 NOSIG
ZGSZ,2025-07-31 21:00,ZGSZ 312100Z 31002MPS 9999 SCT040 28/25 Q0998 NOSIG
ZGSZ,2025-07-31 22:00,ZGSZ 312200Z 30002MPS 9999 SCT040 28/25 Q0999 NOSIG
ZGSZ,2025-07-31 23:00,ZGSZ 312300Z 30002MPS 9999 SCT040 28/25 Q0999 NOSIG
ZGSZ,2025-08-01 00:00,ZGSZ 010000Z 32002MPS 290V350 9999 FEW018 BKN030 29/25 Q1000 NOSIG
ZGSZ,2025-08-01 01:00,ZGSZ 010100Z VRB01MPS 9999 FEW018 30/25 Q1000 NOSIG
ZGSZ,2025-08-01 02:00,ZGSZ 010200Z 28002MPS 240V300 9999 FEW020 31/25 Q1000 NOSIG
ZGSZ,2025-08-01 03:00,ZGSZ 010300Z 23002MPS 200V290 9999 FEW026 31/26 Q1000 NOSIG
ZGSZ,2025-08-01 04:00,ZGSZ 010400Z 24002MPS 190V280 9999 FEW026 31/26 Q1000 NOSIG
ZGSZ,2025-08-01 05:00,ZGSZ 010500Z 23003MPS 200V260 9999 FEW026 33/27 Q0999 BECMG AT0540 2500 +SHRA FEW020CB BKN030
ZGSZ,2025-08-01 06:00,ZGSZ 010600Z 19006MPS 4500 SHRA FEW020 FEW026CB 29/27 Q1000 BECMG AT0640 -SHRA
ZGSZ,2025-08-01 07:00,ZGSZ 010700Z 18004MPS 9000 -TSRA FEW018 FEW026CB 29/26 Q0999 BECMG AT0740 NSW
ZGSZ,2025-08-01 08:00,ZGSZ 010800Z 18006MPS CAVOK 29/27 Q0999 NOSIG
ZGSZ,2025-08-01 09:00,ZGSZ 010900Z 18004MPS CAVOK 29/26 Q1000 NOSIG
ZGSZ,2025-08-01 10:00,ZGSZ 011000Z 17005MPS CAVOK 29/27 Q1000 NOSIG
ZGSZ,2025-08-01 11:00,ZGSZ 011100Z 17005MPS 9999 SCT026 30/27 Q1001 NOSIG
ZGSZ,2025-08-01 12:00,ZGSZ 011200Z 18006MPS CAVOK 30/26 Q1001 NOSIG
ZGSZ,2025-08-01 13:00,ZGSZ 011300Z 17004MPS CAVOK 30/27 Q1001 NOSIG
ZGSZ,2025-08-01 14:00,ZGSZ 011400Z 18005MPS 9999 FEW013 30/28 Q1002 NOSIG
ZGSZ,2025-08-01 15:00,ZGSZ 011500Z 18005MPS 9999 SCT013 30/27 Q1002 NOSIG
ZGSZ,2025-08-01 16:00,ZGSZ 011600Z 18004MPS 9999 SCT013 30/28 Q1002 NOSIG
ZGSZ,2025-08-01 17:00,ZGSZ 011700Z 18005MPS 9999 -SHRA SCT013 SCT033 30/28 Q1001 NOSIG
ZGSZ,2025-08-01 18:00,ZGSZ 011800Z 20004MPS 9999 SCT013 SCT033 30/28 Q1001 NOSIG
ZGSZ,2025-08-01 19:00,ZGSZ 011900Z 20004MPS 9999 SCT016 30/27 Q1001 NOSIG
ZGSZ,2025-08-01 20:00,ZGSZ 012000Z 19003MPS 9999 SCT013 29/27 Q1001 NOSIG
ZGSZ,2025-08-01 21:00,ZGSZ 012100Z 19003MPS 9999 FEW020 BKN033 30/27 Q1001 NOSIG
ZGSZ,2025-08-01 22:00,ZGSZ 012200Z 20004MPS 9999 FEW020 BKN033 30/27 Q1001 BECMG AT2330 +SHRA FEW015CB BKN030
ZGSZ,2025-08-01 23:00,ZGSZ 012300Z 22003MPS 9999 FEW020 BKN033 30/27 Q1001 BECMG AT2350 +SHRA FEW015CB BKN030
ZGSZ,2025-08-02 00:00,ZGSZ 020000Z 26005MPS 9999 FEW020 FEW026TCU BKN033 29/27 Q1002 BECMG AT0150 +SHRA SCT011 FEW020CB BKN030
ZGSZ,2025-08-02 01:00,ZGSZ 020100Z VRB01MPS 9999 FEW020 BKN050 30/26 Q1002 BECMG AT0230 20005MPS TSRA SCT026CB
ZGSZ,2025-08-02 02:00,ZGSZ 020200Z 19004MPS 9999 FEW020 BKN040 30/26 Q1003 BECMG AT0230 TSRA FEW026CB BKN033
ZGSZ,2025-08-02 03:00,ZGSZ 020300Z 17006MPS 9999 -SHRA FEW020 BKN040 29/27 Q1003 NOSIG
ZGSZ,2025-08-02 04:00,ZGSZ 020400Z 17004MPS 9999 FEW020 BKN040 29/27 Q1003 NOSIG
ZGSZ,2025-08-02 05:00,ZGSZ 020500Z 17006MPS 9999 SCT040 30/27 Q1003 NOSIG
ZGSZ,2025-08-02 06:00,ZGSZ 020600Z 17008MPS 9999 -SHRA SCT016 FEW023CB BKN040 28/26 Q1003 RESHRA BECMG AT0630 +SHRA
ZGSZ,2025-08-02 07:00,ZGSZ 020700Z 24007MPS 8000 SHRA SCT016 FEW023CB BKN040 27/26 Q1003 BECMG AT0740 18005MPS NSW BKN030
ZGSZ,2025-08-02 08:00,ZGSZ 020800Z 16003MPS 9999 -SHRA FEW020 BKN040 28/26 Q1002 NOSIG
ZGSZ,2025-08-02 09:00,ZGSZ 020900Z 15003MPS 9999 BKN053 28/26 Q1002 NOSIG
ZGSZ,2025-08-02 10:00,ZGSZ 021000Z 16003MPS 9999 SCT033 28/26 Q1002 NOSIG
ZGSZ,2025-08-02 11:00,ZGSZ 021100Z 12003MPS 9999 -SHRA FEW020 BKN033 29/27 Q1002 BECMG AT1140 SHRA FEW016 FEW025CB BKN033
ZGSZ,2025-08-02 12:00,ZGSZ 021200Z 21008MPS 2000 +TSRA SCT015 FEW023CB BKN033 27/26 Q1003 BECMG AT1250 4000 -TSRA
ZGSZ,2025-08-02 13:00,ZGSZ 021300Z 19009MPS 9999 -TSRA FEW010 FEW023CB BKN050 28/26 Q1003 BECMG AT1315 2000 +TSRA
ZGSZ,2025-08-02 14:00,ZGSZ 021400Z 15006MPS 9999 -TSRA FEW010 FEW030CB 27/25 Q1003 RESHRA BECMG AT1450 NSW BKN030
ZGSZ,2025-08-02 15:00,ZGSZ 021500Z 17006MPS 9999 -SHRA FEW010 28/27 Q1003 RETS BECMG AT1610 SHRA FEW025CB BKN030
ZGSZ,2025-08-02 16:00,ZGSZ 021600Z 15004MPS 9999 -SHRA NSC 28/27 Q1003 BECMG AT1630 SHRA FEW025CB BKN050
ZGSZ,2025-08-02 17:00,ZGSZ 021700Z 21005MPS 9999 -SHRA FEW013 FEW026CB BKN050 29/28 Q1002 RESHRA NOSIG
ZGSZ,2025-08-02 18:00,ZGSZ 021800Z 23002MPS 9999 -SHRA SCT040 29/27 Q1002 NOSIG
ZGSZ,2025-08-02 19:00,ZGSZ 021900Z 19004MPS 9999 SCT040 29/27 Q1001 NOSIG
ZGSZ,2025-08-02 20:00,ZGSZ 022000Z 20005MPS 9999 SCT040 29/27 Q1001 NOSIG
ZGSZ,2025-08-02 21:00,ZGSZ 022100Z 20005MPS 9999 SCT040 29/27 Q1001 NOSIG
ZGSZ,2025-08-02 22:00,ZGSZ 022200Z 20004MPS 9999 BKN040 29/27 Q1001 NOSIG
ZGSZ,2025-08-02 23:00,ZGSZ 022300Z 20004MPS 9999 BKN040 29/27 Q1002 NOSIG
ZGSZ,2025-08-03 00:00,ZGSZ 030000Z 19004MPS CAVOK 30/28 Q1002 NOSIG
ZGSZ,2025-08-03 01:00,ZGSZ 030100Z 19005MPS CAVOK 30/28 Q1003 NOSIG
ZGSZ,2025-08-03 02:00,ZGSZ 030200Z 17006MPS 9999 FEW011 30/28 Q1003 NOSIG
ZGSZ,2025-08-03 03:00,ZGSZ 030300Z 17007MPS 9999 FEW012 30/28 Q1003 NOSIG
ZGSZ,2025-08-03 04:00,ZGSZ 030400Z 18006MPS 9999 SCT020 FEW025CB 30/28 Q1003 BECMG AT0430 TSRA
ZGSZ,2025-08-03 05:00,ZGSZ 030500Z 18005MPS 9999 -TSRA FEW020 FEW025CB BKN050 28/26 Q1003 RESHRA BECMG AT0520 -SHRA
ZGSZ,2025-08-03 06:00,ZGSZ 030600Z 18005MPS 9999 FEW020 30/28 Q1002 NOSIG
ZGSZ,2025-08-03 07:00,ZGSZ 030700Z 18008MPS 9999 FEW040 31/28 Q1002 NOSIG
ZGSZ,2025-08-03 08:00,ZGSZ 030800Z 18009MPS 9999 FEW030 30/28 Q1001 NOSIG
ZGSZ,2025-08-03 09:00,ZGSZ 030900Z 18009MPS 9999 FEW030 30/28 Q1001 NOSIG
ZGSZ,2025-08-03 10:00,ZGSZ 031000Z 18007MPS 9999 FEW030 30/28 Q1002 NOSIG
ZGSZ,2025-08-03 11:00,ZGSZ 031100Z 18007MPS 9999 FEW030 30/28 Q1002 NOSIG
ZGSZ,2025-08-03 12:00,ZGSZ 031200Z 18006MPS 9999 SCT040 30/28 Q1002 NOSIG
ZGSZ,2025-08-03 13:00,ZGSZ 031300Z 17006MPS 9999 -SHRA FEW015 SCT040 29/28 Q1003 NOSIG
ZGSZ,2025-08-03 14:00,ZGSZ 031400Z 18006MPS 9999 FEW020 SCT050 30/28 Q1003 NOSIG
ZGSZ,2025-08-03 15:00,ZGSZ 031500Z 18006MPS 9999 FEW020 SCT050 30/28 Q1004 NOSIG
ZGSZ,2025-08-03 16:00,ZGSZ 031600Z 18005MPS 8000 SCT020 30/28 Q1003 NOSIG
ZGSZ,2025-08-03 17:00,ZGSZ 031700Z 18006MPS 9999 SCT020 30/28 Q1003 NOSIG
ZGSZ,2025-08-03 18:00,ZGSZ 031800Z 19005MPS 9999 FEW020 30/28 Q1002 NOSIG
ZGSZ,2025-08-03 19:00,ZGSZ 031900Z 19005MPS 9999 FEW020 SCT050 30/28 Q1002 NOSIG
ZGSZ,2025-08-03 20:00,ZGSZ 032000Z 19005MPS 9999 FEW020 BKN050 30/28 Q1002 NOSIG
ZGSZ,2025-08-03 21:00,ZGSZ 032100Z 18005MPS 9999 FEW020 BKN050 30/28 Q1002 NOSIG
ZGSZ,2025-08-03 22:00,ZGSZ 032200Z 18005MPS 9999 FEW020 29/28 Q1001 NOSIG
ZGSZ,2025-08-03 23:00,ZGSZ 032300Z 19004MPS 9000 FEW020 30/28 Q1002 NOSIG
ZGSZ,2025-08-04 00:00,ZGSZ 040000Z 18007MPS 9999 FEW020 SCT050 29/27 Q1003 NOSIG
ZGSZ,2025-08-04 01:00,ZGSZ 040100Z 18007MPS 9999 BKN040 29/27 Q1003 NOSIG
ZGSZ,2025-08-04 02:00,ZGSZ 040200Z 18007MPS 9999 -SHRA FEW020 BKN040 29/27 Q1004 BECMG AT0320 SHRA FEW030CB BKN033
ZGSZ,2025-08-04 03:00,ZGSZ 040300Z 18006MPS 9000 -SHRA FEW020 FEW030CB BKN040 29/28 Q1004 BECMG AT0350 SHRA
ZGSZ,2025-08-04 04:00,ZGSZ 040400Z 19008MPS 8000 SHRA FEW016 FEW030CB BKN040 27/25 Q1004 BECMG AT0440 -SHRA
ZGSZ,2025-08-04 05:00,ZGSZ 040500Z 16005MPS 8000 -SHRA FEW013 BKN033 28/26 Q1004 NOSIG
ZGSZ,2025-08-04 06:00,ZGSZ 040600Z 14003MPS 8000 -SHRA FEW013 BKN033 28/27 Q1003 NOSIG
ZGSZ,2025-08-04 07:00,ZGSZ 040700Z 18004MPS 8000 -SHRA FEW013 BKN033 29/27 Q1002 NOSIG
ZGSZ,2025-08-04 08:00,ZGSZ 040800Z 17004MPS 8000 -SHRA FEW013 BKN033 29/28 Q1002 NOSIG
ZGSZ,2025-08-04 09:00,ZGSZ 040900Z 16004MPS 8000 -SHRA FEW013 BKN033 29/28 Q1002 NOSIG
ZGSZ,2025-08-04 10:00,ZGSZ 041000Z 17006MPS 7000 -SHRA FEW013 BKN033 29/28 Q1002 NOSIG
ZGSZ,2025-08-04 11:00,ZGSZ 041100Z 17005MPS 7000 -SHRA FEW013 BKN033 29/28 Q1003 NOSIG
ZGSZ,2025-08-04 12:00,ZGSZ 041200Z 18005MPS 7000 -SHRA FEW013 BKN033 29/28 Q1004 NOSIG
ZGSZ,2025-08-04 13:00,ZGSZ 041300Z 18004MPS 7000 -SHRA FEW011 SCT046 29/28 Q1004 NOSIG
ZGSZ,2025-08-04 14:00,ZGSZ 041400Z 20005MPS 8000 -SHRA FEW011 SCT046 29/28 Q1004 NOSIG
ZGSZ,2025-08-04 15:00,ZGSZ 041500Z 20003MPS 9999 FEW011 SCT046 29/28 Q1004 NOSIG
ZGSZ,2025-08-04 16:00,ZGSZ 041600Z 19003MPS 9999 FEW011 SCT046 29/28 Q1004 BECMG AT1750 SHRA FEW020 FEW025CB BKN030
ZGSZ,2025-08-04 17:00,ZGSZ 041700Z 18006MPS 9000 -SHRA SCT011 BKN033 29/27 Q1003 BECMG AT1820 TSRA FEW020 FEW025CB BKN030
ZGSZ,2025-08-04 18:00,ZGSZ 041800Z 19005MPS 9000 TSRA SCT011 FEW026CB BKN033 29/28 Q1002 BECMG AT1850 -SHRA
ZGSZ,2025-08-04 19:00,ZGSZ 041900Z 20004MPS 7000 -TSRA SCT011 FEW026CB BKN033 28/27 Q1002 RESHRA BECMG AT1930 -SHRA
ZGSZ,2025-08-04 20:00,ZGSZ 042000Z 24008G14MPS 1200 R15/0800U R16/1800U +TSRA SCT011 FEW026CB BKN033 25/24 Q1003 BECMG AT2140 5000 -SHRA
ZGSZ,2025-08-04 21:00,ZGSZ 042100Z 09002MPS 340V150 2500 +TSRA SCT011 FEW026CB BKN033 25/24 Q1004 BECMG AT2240 -TSRA
ZGSZ,2025-08-04 22:00,ZGSZ 042200Z 14003MPS 9000 -TSRA SCT011 FEW026CB BKN040 25/25 Q1004 RESHRA BECMG AT2310 NSW
ZGSZ,2025-08-04 23:00,ZGSZ 042300Z 13004MPS 9000 -SHRA FEW008 OVC033 26/25 Q1005 NOSIG
ZGSZ,2025-08-05 00:00,ZGSZ 050000Z 14005MPS 9000 -SHRA FEW008 SCT033 26/25 Q1004 NOSIG
ZGSZ,2025-08-05 01:00,ZGSZ 050100Z 13007MPS 9000 SHRA SCT013 FEW020CB BKN033 27/25 Q1005 BECMG AT0220 24006G11MPS 1200 +TSRA
ZGSZ,2025-08-05 02:00,ZGSZ 050200Z 24009MPS 3000 +SHRA SCT013 FEW020CB BKN033 25/24 Q1006 BECMG AT0240 18005MPS -SHRA
ZGSZ,2025-08-05 03:00,ZGSZ 050300Z 18004MPS 7000 TSRA SCT013 FEW020CB BKN033 26/25 Q1006 BECMG AT0340 -SHRA
ZGSZ,2025-08-05 04:00,ZGSZ 050400Z 16003MPS 8000 -TSRA SCT015 FEW026CB BKN033 26/25 Q1006 RESHRA BECMG AT0500 NSW BKN030
ZGSZ,2025-08-05 05:00,ZGSZ 050500Z 16003MPS 9000 -SHRA SCT015 BKN033 27/26 Q1005 RETS NOSIG
ZGSZ,2025-08-05 06:00,ZGSZ 050600Z 11002MPS 080V150 9999 -SHRA OVC050 27/26 Q1005 NOSIG
ZGSZ,2025-08-05 07:00,ZGSZ 050700Z 15003MPS 9999 -SHRA OVC050 27/26 Q1004 BECMG AT0830 SHRA FEW025CB BKN030
ZGSZ,2025-08-05 08:00,ZGSZ 050800Z 15005MPS 9999 -SHRA BKN050 28/27 Q1004 NOSIG
ZGSZ,2025-08-05 09:00,ZGSZ 050900Z 17006MPS 9999 -SHRA SCT026 29/27 Q1004 NOSIG
ZGSZ,2025-08-05 10:00,ZGSZ 051000Z 17006MPS 9999 -SHRA SCT026 BKN043 29/27 Q1004 NOSIG
ZGSZ,2025-08-05 11:00,ZGSZ 051100Z 18006MPS 9999 -SHRA SCT026 BKN043 29/27 Q1004 BECMG AT1130 SHRA
ZGSZ,2025-08-05 12:00,ZGSZ 051200Z 16008MPS 3000 +TSRA FEW016CB SCT016 BKN043 27/26 Q1005 BECMG AT1240 NSW BKN030
ZGSZ,2025-08-05 13:00,ZGSZ 051300Z 16006MPS 8000 -SHRA FEW020 BKN040 29/27 Q1006 RETS BECMG AT1430 24008G15MPS 2500 +TSRA FEW025CB BKN030
ZGSZ,2025-08-05 14:00,ZGSZ 051400Z 16009MPS 9999 FEW020 BKN040 29/27 Q1006 BECMG AT1430 24012G18MPS 2000 +TSRA FEW025CB BKN030
ZGSZ,2025-08-05 15:00,ZGSZ 051500Z 20008MPS 6000 TSRA SCT015 FEW026CB BKN033 26/25 Q1007 BECMG AT1515 14005MPS -TSRA
ZGSZ,2025-08-05 16:00,ZGSZ 051600Z 16004MPS 8000 -SHRA FEW015 FEW026CB 25/24 Q1006 RETS BECMG AT1610 SHRA
ZGSZ,2025-08-05 17:00,ZGSZ 051700Z 16005MPS 9000 -SHRA FEW020 26/25 Q1005 NOSIG
ZGSZ,2025-08-05 18:00,ZGSZ 051800Z 15005MPS 9999 FEW020 26/25 Q1005 BECMG AT1940 SHRA FEW020CB BKN030
ZGSZ,2025-08-05 19:00,ZGSZ 051900Z 12003MPS 9999 SCT020 FEW026TCU 26/24 Q1005 BECMG AT1920 21006MPS TSRA FEW020CB BKN030
ZGSZ,2025-08-05 20:00,ZGSZ 052000Z 13002MPS 110V170 8000 SHRA FEW020CB SCT020 26/24 Q1005 BECMG AT2100 -SHRA
ZGSZ,2025-08-05 21:00,ZGSZ 052100Z 10002MPS 9999 -SHRA FEW020TCU SCT020 26/25 Q1005 RESHRA NOSIG
ZGSZ,2025-08-05 22:00,ZGSZ 052200Z 16003MPS 9999 -SHRA SCT011 BKN050 27/25 Q1005 BECMG AT2300 SHRA
ZGSZ,2025-08-05 23:00,ZGSZ 052300Z 14005MPS 9999 -SHRA SCT013 BKN033 28/27 Q1006 BECMG AT0030 TSRA FEW020CB BKN030
ZGSZ,2025-08-06 00:00,ZGSZ 060000Z 16007MPS 8000 -SHRA SCT013 BKN033 29/27 Q1006 NOSIG
ZGSZ,2025-08-06 01:00,ZGSZ 060100Z 18007MPS 8000 -SHRA SCT013 FEW020CB BKN033 29/27 Q1007 RESHRA NOSIG
ZGSZ,2025-08-06 02:00,ZGSZ 060200Z 16007MPS 8000 SHRA SCT013 FEW020CB BKN033 28/27 Q1008 BECMG AT0220 -SHRA
ZGSZ,2025-08-06 03:00,ZGSZ 060300Z 29006MPS 260V320 4000 +TSRA SCT010 FEW020CB BKN033 26/23 Q1009 BECMG AT0420 -SHRA
ZGSZ,2025-08-06 04:00,ZGSZ 060400Z 29002MPS 230V350 8000 -TSRA FEW013 FEW020CB BKN033 25/24 Q1009 RESHRA BECMG AT0430 -SHRA
ZGSZ,2025-08-06 05:00,ZGSZ 060500Z 12003MPS 9999 -SHRA FEW020 BKN050 25/24 Q1008 NOSIG
ZGSZ,2025-08-06 06:00,ZGSZ 060600Z 12002MPS 9999 FEW020 BKN050 26/24 Q1007 NOSIG
ZGSZ,2025-08-06 07:00,ZGSZ 060700Z 13004MPS 9999 FEW020 BKN050 27/24 Q1007 NOSIG
ZGSZ,2025-08-06 08:00,ZGSZ 060800Z VRB01MPS 9999 FEW020 BKN050 28/24 Q1007 NOSIG
ZGSZ,2025-08-06 09:00,ZGSZ 060900Z 12002MPS 070V140 9999 BKN050 28/24 Q1007 NOSIG
ZGSZ,2025-08-06 10:00,ZGSZ 061000Z 13003MPS 9999 BKN050 28/24 Q1006 NOSIG
ZGSZ,2025-08-06 11:00,ZGSZ 061100Z 12003MPS 080V150 9999 BKN050 28/24 Q1007 NOSIG
ZGSZ,2025-08-06 12:00,ZGSZ 061200Z 13003MPS 090V160 9999 BKN040 28/24 Q1008 NOSIG
ZGSZ,2025-08-06 13:00,ZGSZ 061300Z 10003MPS 060V120 9999 BKN040 28/24 Q1008 NOSIG
ZGSZ,2025-08-06 14:00,ZGSZ 061400Z 10003MPS 060V150 9999 BKN040 28/24 Q1009 NOSIG
ZGSZ,2025-08-06 15:00,ZGSZ 061500Z 12003MPS 9999 BKN040 28/24 Q1009 NOSIG
ZGSZ,2025-08-06 16:00,ZGSZ 061600Z 12004MPS 9999 SCT040 28/25 Q1009 NOSIG
ZGSZ,2025-08-06 17:00,ZGSZ 061700Z 12003MPS 9999 SCT040 28/25 Q1009 NOSIG
ZGSZ,2025-08-06 18:00,ZGSZ 061800Z 11003MPS 080V140 9999 SCT040 28/25 Q1008 NOSIG
ZGSZ,2025-08-06 19:00,ZGSZ 061900Z 12004MPS 9999 SCT040 28/25 Q1008 NOSIG
ZGSZ,2025-08-06 20:00,ZGSZ 062000Z 11003MPS 9999 SCT040 28/25 Q1008 NOSIG
ZGSZ,2025-08-06 21:00,ZGSZ 062100Z 12005MPS 9999 SCT040 28/25 Q1008 NOSIG
ZGSZ,2025-08-06 22:00,ZGSZ 062200Z 12003MPS 090V150 9999 SCT040 28/25 Q1008 NOSIG
ZGSZ,2025-08-06 23:00,ZGSZ 062300Z 13004MPS 9999 SCT050 28/25 Q1008 NOSIG
ZGSZ,2025-08-07 00:00,ZGSZ 070000Z 15003MPS 9999 SCT050 29/26 Q1009 NOSIG
ZGSZ,2025-08-07 01:00,ZGSZ 070100Z 16005MPS 9999 FEW016 29/26 Q1010 NOSIG
ZGSZ,2025-08-07 02:00,ZGSZ 070200Z 16006MPS 9999 FEW020 30/27 Q1010 NOSIG
ZGSZ,2025-08-07 03:00,ZGSZ 070300Z 18006MPS 9999 FEW020 SCT053 30/27 Q1010 NOSIG
ZGSZ,2025-08-07 04:00,ZGSZ 070400Z 17007MPS 9999 FEW020 SCT053 31/27 Q1010 NOSIG
ZGSZ,2025-08-07 05:00,ZGSZ 070500Z 17007MPS 9999 FEW020CB FEW020 SCT053 31/27 Q1009 NOSIG
ZGSZ,2025-08-07 06:00,ZGSZ 070600Z 18007MPS 9999 -SHRA FEW020CB FEW020 SCT053 30/26 Q1009 BECMG AT0630 TSRA
ZGSZ,2025-08-07 07:00,ZGSZ 070700Z 18006MPS 9999 SCT020 31/27 Q1009 RETS NOSIG
ZGSZ,2025-08-07 08:00,ZGSZ 070800Z 18004MPS 9999 FEW020 30/27 Q1009 NOSIG
ZGSZ,2025-08-07 09:00,ZGSZ 070900Z 27002MPS 9999 FEW020 29/26 Q1009 NOSIG
ZGSZ,2025-08-07 10:00,ZGSZ 071000Z 19002MPS 9999 FEW020 29/26 Q1008 NOSIG
ZGSZ,2025-08-07 11:00,ZGSZ 071100Z VRB01MPS CAVOK 29/26 Q1009 NOSIG
ZGSZ,2025-08-07 12:00,ZGSZ 071200Z 17002MPS CAVOK 29/27 Q1009 NOSIG
ZGSZ,2025-08-07 13:00,ZGSZ 071300Z 17003MPS 9999 FEW026 29/27 Q1009 NOSIG
ZGSZ,2025-08-07 14:00,ZGSZ 071400Z 18003MPS CAVOK 28/27 Q1009 NOSIG
ZGSZ,2025-08-07 15:00,ZGSZ 071500Z 18002MPS 9999 BKN026 28/27 Q1009 NOSIG
ZGSZ,2025-08-07 16:00,ZGSZ 071600Z 17003MPS 9999 BKN026 28/27 Q1009 NOSIG
ZGSZ,2025-08-07 17:00,ZGSZ 071700Z 16003MPS CAVOK 28/26 Q1008 NOSIG
ZGSZ,2025-08-07 18:00,ZGSZ 071800Z 17002MPS CAVOK 28/26 Q1008 NOSIG
ZGSZ,2025-08-07 19:00,ZGSZ 071900Z 16002MPS 9999 FEW030 28/26 Q1008 NOSIG
ZGSZ,2025-08-07 20:00,ZGSZ 072000Z 28001MPS 9999 SCT013 28/26 Q1008 NOSIG
ZGSZ,2025-08-07 21:00,ZGSZ 072100Z VRB01MPS 9999 SCT020 28/26 Q1008 NOSIG
ZGSZ,2025-08-07 22:00,ZGSZ 072200Z 01001MPS 9999 SCT020 BKN036 28/25 Q1009 NOSIG
ZGSZ,2025-08-07 23:00,ZGSZ 072300Z VRB01MPS 9999 FEW020 BKN036 28/25 Q1010 NOSIG
ZGSZ,2025-08-08 00:00,ZGSZ 080000Z 30002MPS 9999 FEW026 28/26 Q1010 NOSIG
ZGSZ,2025-08-08 01:00,ZGSZ 080100Z 31003MPS CAVOK 29/26 Q1010 NOSIG
ZGSZ,2025-08-08 02:00,ZGSZ 080200Z 29002MPS 250V320 9999 FEW025 30/25 Q1010 NOSIG
ZGSZ,2025-08-08 03:00,ZGSZ 080300Z 26002MPS 220V310 CAVOK 31/26 Q1010 NOSIG
ZGSZ,2025-08-08 04:00,ZGSZ 080400Z 28002MPS 250V320 CAVOK 31/26 Q1009 NOSIG
ZGSZ,2025-08-08 05:00,ZGSZ 080500Z 28002MPS 240V320 CAVOK 32/25 Q1009 NOSIG
ZGSZ,2025-08-08 06:00,ZGSZ 080600Z 24002MPS 210V280 CAVOK 33/26 Q1008 NOSIG
ZGSZ,2025-08-08 07:00,ZGSZ 080700Z 24003MPS 210V270 CAVOK 33/26 Q1008 NOSIG
ZGSZ,2025-08-08 08:00,ZGSZ 080800Z 21003MPS CAVOK 32/26 Q1007 NOSIG
ZGSZ,2025-08-08 09:00,ZGSZ 080900Z 20004MPS CAVOK 31/27 Q1007 NOSIG
ZGSZ,2025-08-08 10:00,ZGSZ 081000Z 18005MPS CAVOK 30/27 Q1007 NOSIG
ZGSZ,2025-08-08 11:00,ZGSZ 081100Z 18004MPS CAVOK 30/27 Q1007 NOSIG
ZGSZ,2025-08-08 12:00,ZGSZ 081200Z 17005MPS CAVOK 29/27 Q1007 NOSIG
ZGSZ,2025-08-08 13:00,ZGSZ 081300Z 16006MPS CAVOK 29/27 Q1008 NOSIG
ZGSZ,2025-08-08 14:00,ZGSZ 081400Z 16005MPS CAVOK 29/27 Q1008 NOSIG
ZGSZ,2025-08-08 15:00,ZGSZ 081500Z 16004MPS CAVOK 29/27 Q1009 NOSIG
ZGSZ,2025-08-08 16:00,ZGSZ 081600Z 16003MPS CAVOK 28/26 Q1008 NOSIG
ZGSZ,2025-08-08 17:00,ZGSZ 081700Z 15003MPS CAVOK 28/26 Q1008 NOSIG
ZGSZ,2025-08-08 18:00,ZGSZ 081800Z 16003MPS CAVOK 28/26 Q1008 NOSIG
ZGSZ,2025-08-08 19:00,ZGSZ 081900Z 17002MPS CAVOK 28/27 Q1007 NOSIG
ZGSZ,2025-08-08 20:00,ZGSZ 082000Z 17002MPS CAVOK 28/27 Q1007 NOSIG
ZGSZ,2025-08-08 21:00,ZGSZ 082100Z 17002MPS 9999 FEW018 28/27 Q1007 NOSIG
ZGSZ,2025-08-08 22:00,ZGSZ 082200Z 15002MPS 9999 SCT020 28/27 Q1008 NOSIG
ZGSZ,2025-08-08 23:00,ZGSZ 082300Z 17003MPS 9999 FEW015 BKN033 29/27 Q1008 NOSIG
ZGSZ,2025-08-09 00:00,ZGSZ 090000Z 18003MPS 9999 FEW015 SCT033 29/27 Q1009 NOSIG
ZGSZ,2025-08-09 01:00,ZGSZ 090100Z 21003MPS 9999 FEW015 29/27 Q1009 NOSIG
ZGSZ,2025-08-09 02:00,ZGSZ 090200Z 22003MPS 9999 FEW015 30/27 Q1009 NOSIG
ZGSZ,2025-08-09 03:00,ZGSZ 090300Z 21003MPS 9999 FEW015 31/27 Q1009 NOSIG
ZGSZ,2025-08-09 04:00,ZGSZ 090400Z 21004MPS 9999 FEW020 32/27 Q1009 NOSIG
ZGSZ,2025-08-09 05:00,ZGSZ 090500Z 19004MPS 9999 FEW020 32/26 Q1008 NOSIG
ZGSZ,2025-08-09 06:00,ZGSZ 090600Z 19004MPS 9999 FEW020 32/26 Q1007 NOSIG
ZGSZ,2025-08-09 07:00,ZGSZ 090700Z 20004MPS 9999 FEW020 32/27 Q1006 NOSIG
ZGSZ,2025-08-09 08:00,ZGSZ 090800Z 20004MPS 9999 FEW020 32/26 Q1006 NOSIG
ZGSZ,2025-08-09 09:00,ZGSZ 090900Z 18005MPS 9999 FEW020 31/26 Q1005 NOSIG
ZGSZ,2025-08-09 10:00,ZGSZ 091000Z 19005MPS 9999 FEW020 31/27 Q1005 NOSIG
ZGSZ,2025-08-09 11:00,ZGSZ 091100Z 19005MPS CAVOK 30/27 Q1006 NOSIG
ZGSZ,2025-08-09 12:00,ZGSZ 091200Z 19005MPS CAVOK 30/27 Q1006 NOSIG
ZGSZ,2025-08-09 13:00,ZGSZ 091300Z 20005MPS CAVOK 29/27 Q1007 NOSIG
ZGSZ,2025-08-09 14:00,ZGSZ 091400Z 18004MPS CAVOK 29/27 Q1007 NOSIG
ZGSZ,2025-08-09 15:00,ZGSZ 091500Z 18004MPS CAVOK 29/27 Q1007 NOSIG
ZGSZ,2025-08-09 16:00,ZGSZ 091600Z 16004MPS CAVOK 29/26 Q1007 NOSIG
ZGSZ,2025-08-09 17:00,ZGSZ 091700Z 10003MPS 070V130 CAVOK 29/25 Q1007 NOSIG
ZGSZ,2025-08-09 18:00,ZGSZ 091800Z 17003MPS CAVOK 29/26 Q1006 NOSIG
ZGSZ,2025-08-09 19:00,ZGSZ 091900Z 19003MPS CAVOK 29/25 Q1006 NOSIG
ZGSZ,2025-08-09 20:00,ZGSZ 092000Z 20002MPS CAVOK 28/26 Q1006 NOSIG
ZGSZ,2025-08-09 21:00,ZGSZ 092100Z 19002MPS CAVOK 29/26 Q1006 NOSIG
ZGSZ,2025-08-09 22:00,ZGSZ 092200Z 22002MPS 9999 BKN053 29/26 Q1007 NOSIG
ZGSZ,2025-08-09 23:00,ZGSZ 092300Z 28001MPS 9999 FEW020 BKN053 29/26 Q1007 NOSIG
ZGSZ,2025-08-10 00:00,ZGSZ 100000Z 28001MPS 9999 -SHRA FEW020TCU BKN033 29/26 Q1007 NOSIG
ZGSZ,2025-08-10 01:00,ZGSZ 100100Z VRB01MPS 9999 -SHRA SCT020 BKN033 29/26 Q1008 NOSIG
ZGSZ,2025-08-10 02:00,ZGSZ 100200Z 28003MPS 9999 SCT020 BKN050 30/26 Q1008 NOSIG
ZGSZ,2025-08-10 03:00,ZGSZ 100300Z 30002MPS 270V340 9999 SCT020 BKN050 31/26 Q1008 NOSIG
ZGSZ,2025-08-10 04:00,ZGSZ 100400Z 28003MPS 9999 SCT026 32/27 Q1008 NOSIG
ZGSZ,2025-08-10 05:00,ZGSZ 100500Z 26003MPS 9999 SCT026 33/25 Q1007 NOSIG
ZGSZ,2025-08-10 06:00,ZGSZ 100600Z 22003MPS 200V260 9999 SCT033 32/24 Q1007 NOSIG
ZGSZ,2025-08-10 07:00,ZGSZ 100700Z 22004MPS 9999 FEW026 33/26 Q1006 NOSIG
ZGSZ,2025-08-10 08:00,ZGSZ 100800Z 20004MPS 9999 FEW026CB FEW026 32/26 Q1005 NOSIG
ZGSZ,2025-08-10 09:00,ZGSZ 100900Z 18005MPS 9999 FEW030 31/26 Q1005 NOSIG
ZGSZ,2025-08-10 10:00,ZGSZ 101000Z 17006MPS CAVOK 31/26 Q1005 NOSIG
ZGSZ,2025-08-10 11:00,ZGSZ 101100Z 19005MPS CAVOK 30/27 Q1005 NOSIG
ZGSZ,2025-08-10 12:00,ZGSZ 101200Z 18006MPS CAVOK 30/27 Q1005 NOSIG
ZGSZ,2025-08-10 13:00,ZGSZ 101300Z 19005MPS 9999 FEW040 30/27 Q1006 NOSIG
ZGSZ,2025-08-10 14:00,ZGSZ 101400Z 18005MPS 9999 FEW040 29/27 Q1007 NOSIG
ZGSZ,2025-08-10 15:00,ZGSZ 101500Z 17004MPS CAVOK 29/26 Q1007 NOSIG
ZGSZ,2025-08-10 16:00,ZGSZ 101600Z 19003MPS CAVOK 29/26 Q1007 NOSIG
ZGSZ,2025-08-10 17:00,ZGSZ 101700Z 18003MPS CAVOK 29/26 Q1007 NOSIG
ZGSZ,2025-08-10 18:00,ZGSZ 101800Z 20003MPS CAVOK 29/26 Q1006 NOSIG
ZGSZ,2025-08-10 19:00,ZGSZ 101900Z 20003MPS 9999 FEW025 29/26 Q1006 NOSIG
ZGSZ,2025-08-10 20:00,ZGSZ 102000Z 18002MPS 9999 FEW050 29/26 Q1006 NOSIG
ZGSZ,2025-08-10 21:00,ZGSZ 102100Z 18001MPS 9999 FEW050 29/26 Q1006 NOSIG
ZGSZ,2025-08-10 22:00,ZGSZ 102200Z 21002MPS 9999 SCT040 29/26 Q1006 NOSIG
ZGSZ,2025-08-10 23:00,ZGSZ 102300Z 19003MPS 9999 SCT040 29/26 Q1006 NOSIG
ZGSZ,2025-08-11 00:00,ZGSZ 110000Z 17003MPS 9999 SCT040 30/26 Q1007 NOSIG
ZGSZ,2025-08-11 01:00,ZGSZ 110100Z 20002MPS 170V240 9999 FEW026 31/26 Q1007 NOSIG
ZGSZ,2025-08-11 02:00,ZGSZ 110200Z 20003MPS 9999 FEW026 31/26 Q1007 NOSIG
ZGSZ,2025-08-11 03:00,ZGSZ 110300Z 19004MPS 9999 FEW026 31/26 Q1007 NOSIG
ZGSZ,2025-08-11 04:00,ZGSZ 110400Z 18004MPS 9999 FEW023 31/26 Q1006 NOSIG
ZGSZ,2025-08-11 05:00,ZGSZ 110500Z 18005MPS 9999 FEW023 32/26 Q1006 NOSIG
ZGSZ,2025-08-11 06:00,ZGSZ 110600Z 17005MPS CAVOK 31/26 Q1006 NOSIG
ZGSZ,2025-08-11 07:00,ZGSZ 110700Z 18006MPS CAVOK 31/27 Q1005 NOSIG
ZGSZ,2025-08-11 08:00,ZGSZ 110800Z 18006MPS 9999 FEW020 FEW030TCU 31/26 Q1004 NOSIG
ZGSZ,2025-08-11 09:00,ZGSZ 110900Z 17006MPS 9999 FEW026 31/27 Q1004 NOSIG
ZGSZ,2025-08-11 10:00,ZGSZ 111000Z 17006MPS 9999 FEW026 30/27 Q1004 NOSIG
ZGSZ,2025-08-11 11:00,ZGSZ 111100Z 16006MPS CAVOK 30/27 Q1005 NOSIG
ZGSZ,2025-08-11 12:00,ZGSZ 111200Z 16006MPS CAVOK 29/26 Q1005 NOSIG
ZGSZ,2025-08-11 13:00,ZGSZ 111300Z 15005MPS 9999 FEW036 29/26 Q1006 NOSIG
ZGSZ,2025-08-11 14:00,ZGSZ 111400Z 16005MPS 9999 FEW036 29/26 Q1006 NOSIG
ZGSZ,2025-08-11 15:00,ZGSZ 111500Z 16004MPS 9999 FEW036 29/26 Q1007 NOSIG
ZGSZ,2025-08-11 16:00,ZGSZ 111600Z 16005MPS CAVOK 29/26 Q1006 NOSIG
ZGSZ,2025-08-11 17:00,ZGSZ 111700Z 17004MPS 9999 FEW020 29/26 Q1006 NOSIG
ZGSZ,2025-08-11 18:00,ZGSZ 111800Z 16004MPS 9999 FEW020 28/26 Q1006 NOSIG
ZGSZ,2025-08-11 19:00,ZGSZ 111900Z 17004MPS 9999 FEW016 SCT023 29/26 Q1006 NOSIG
ZGSZ,2025-08-11 20:00,ZGSZ 112000Z 15004MPS 9999 FEW016 28/26 Q1006 NOSIG
ZGSZ,2025-08-11 21:00,ZGSZ 112100Z 17003MPS 9999 FEW016 29/26 Q1006 NOSIG
ZGSZ,2025-08-11 22:00,ZGSZ 112200Z 17003MPS 9999 FEW020 FEW026CB BKN033 29/26 Q1006 BECMG AT2230 SHRA
ZGSZ,2025-08-11 23:00,ZGSZ 112300Z 16004MPS 9999 BKN033 27/25 Q1007 RESHRA NOSIG
ZGSZ,2025-08-12 00:00,ZGSZ 120000Z 17002MPS 9999 BKN033 29/26 Q1007 NOSIG
ZGSZ,2025-08-12 01:00,ZGSZ 120100Z 18003MPS 9999 FEW026TCU SCT030 30/26 Q1007 NOSIG
ZGSZ,2025-08-12 02:00,ZGSZ 120200Z 19004MPS 9999 FEW026TCU 30/26 Q1007 NOSIG
ZGSZ,2025-08-12 03:00,ZGSZ 120300Z 19004MPS 9999 SCT030 31/25 Q1007 NOSIG
ZGSZ,2025-08-12 04:00,ZGSZ 120400Z 17004MPS 9999 SCT030 31/25 Q1006 NOSIG
ZGSZ,2025-08-12 05:00,ZGSZ 120500Z 17006MPS 9999 FEW030 32/26 Q1006 NOSIG
ZGSZ,2025-08-12 06:00,ZGSZ 120600Z 18006MPS 9999 FEW030 31/26 Q1006 NOSIG
ZGSZ,2025-08-12 07:00,ZGSZ 120700Z 18006MPS 9999 FEW030 32/27 Q1005 NOSIG
ZGSZ,2025-08-12 08:00,ZGSZ 120800Z 18006MPS 9999 FEW026TCU 31/27 Q1005 NOSIG
ZGSZ,2025-08-12 09:00,ZGSZ 120900Z 17007MPS 9999 FEW030 31/26 Q1005 NOSIG
ZGSZ,2025-08-12 10:00,ZGSZ 121000Z 17007MPS CAVOK 30/26 Q1005 NOSIG
ZGSZ,2025-08-12 11:00,ZGSZ 121100Z 17006MPS CAVOK 30/26 Q1005 NOSIG
ZGSZ,2025-08-12 12:00,ZGSZ 121200Z 16006MPS CAVOK 29/26 Q1006 NOSIG
ZGSZ,2025-08-12 13:00,ZGSZ 121300Z 16005MPS CAVOK 29/27 Q1007 NOSIG
ZGSZ,2025-08-12 14:00,ZGSZ 121400Z 17005MPS CAVOK 29/27 Q1008 NOSIG
ZGSZ,2025-08-12 15:00,ZGSZ 121500Z 16004MPS CAVOK 29/27 Q1008 NOSIG
ZGSZ,2025-08-12 16:00,ZGSZ 121600Z 16004MPS CAVOK 29/27 Q1008 NOSIG
ZGSZ,2025-08-12 17:00,ZGSZ 121700Z 17004MPS CAVOK 29/27 Q1008 NOSIG
ZGSZ,2025-08-12 18:00,ZGSZ 121800Z 18004MPS 9999 FEW016 29/27 Q1007 NOSIG
ZGSZ,2025-08-12 19:00,ZGSZ 121900Z 17003MPS 9999 FEW016 29/27 Q1007 NOSIG
ZGSZ,2025-08-12 20:00,ZGSZ 122000Z 17002MPS 9999 FEW016 29/27 Q1007 NOSIG
ZGSZ,2025-08-12 21:00,ZGSZ 122100Z 15003MPS 9999 FEW016 28/27 Q1007 NOSIG
ZGSZ,2025-08-12 22:00,ZGSZ 122200Z 19002MPS CAVOK 29/26 Q1007 NOSIG
ZGSZ,2025-08-12 23:00,ZGSZ 122300Z 17001MPS CAVOK 29/26 Q1007 NOSIG
ZGSZ,2025-08-13 00:00,ZGSZ 130000Z VRB01MPS 9999 SCT020 30/26 Q1008 NOSIG
ZGSZ,2025-08-13 01:00,ZGSZ 130100Z 24002MPS 210V290 9999 SCT030 30/26 Q1008 NOSIG
ZGSZ,2025-08-13 02:00,ZGSZ 130200Z 24002MPS 200V270 9999 SCT030 31/26 Q1008 NOSIG
ZGSZ,2025-08-13 03:00,ZGSZ 130300Z 27002MPS 230V330 9999 FEW030 31/26 Q1007 NOSIG
ZGSZ,2025-08-13 04:00,ZGSZ 130400Z 25002MPS 210V300 9999 FEW030 32/26 Q1006 NOSIG
ZGSZ,2025-08-13 05:00,ZGSZ 130500Z 24002MPS 210V280 9999 FEW030 33/26 Q1005 NOSIG
ZGSZ,2025-08-13 06:00,ZGSZ 130600Z 21003MPS 170V250 9999 FEW030 33/26 Q1005 NOSIG
ZGSZ,2025-08-13 07:00,ZGSZ 130700Z 20005MPS 9999 FEW026 32/27 Q1004 NOSIG
ZGSZ,2025-08-13 08:00,ZGSZ 130800Z 19005MPS CAVOK 32/27 Q1003 NOSIG
ZGSZ,2025-08-13 09:00,ZGSZ 130900Z 18006MPS CAVOK 32/28 Q1002 NOSIG
ZGSZ,2025-08-13 10:00,ZGSZ 131000Z 18005MPS CAVOK 31/28 Q1002 NOSIG
ZGSZ,2025-08-13 11:00,ZGSZ 131100Z 17005MPS CAVOK 30/28 Q1002 NOSIG
ZGSZ,2025-08-13 12:00,ZGSZ 131200Z 16004MPS CAVOK 31/28 Q1003 NOSIG
ZGSZ,2025-08-13 13:00,ZGSZ 131300Z 20003MPS CAVOK 31/27 Q1003 NOSIG
ZGSZ,2025-08-13 14:00,ZGSZ 131400Z 16004MPS CAVOK 31/27 Q1004 NOSIG
ZGSZ,2025-08-13 15:00,ZGSZ 131500Z 18003MPS CAVOK 30/28 Q1003 NOSIG
ZGSZ,2025-08-13 16:00,ZGSZ 131600Z 17004MPS CAVOK 30/27 Q1003 NOSIG
ZGSZ,2025-08-13 17:00,ZGSZ 131700Z 18003MPS CAVOK 30/28 Q1002 NOSIG
ZGSZ,2025-08-13 18:00,ZGSZ 131800Z 19002MPS CAVOK 30/27 Q1002 NOSIG
ZGSZ,2025-08-13 19:00,ZGSZ 131900Z 20003MPS CAVOK 30/27 Q1001 NOSIG
ZGSZ,2025-08-13 20:00,ZGSZ 132000Z 21004MPS CAVOK 30/27 Q1002 NOSIG
ZGSZ,2025-08-13 21:00,ZGSZ 132100Z 24003MPS 9999 SCT046 30/26 Q1002 BECMG AT2230 TSRA FEW020CB BKN030
ZGSZ,2025-08-13 22:00,ZGSZ 132200Z 27002MPS 240V310 9999 SHRA FEW033TCU BKN046 30/26 Q1002 BECMG AT2230 -SHRA
ZGSZ,2025-08-13 23:00,ZGSZ 132300Z 26002MPS 220V310 9999 FEW033TCU BKN046 30/26 Q1002 BECMG AT0055 SHRA FEW015CB BKN030
ZGSZ,2025-08-14 00:00,ZGSZ 140000Z 21003MPS 170V240 9999 FEW020 FEW026TCU BKN033 30/26 Q1003 BECMG AT0140 18008G13MPS 1300 TSRA FEW015CB BKN030
ZGSZ,2025-08-14 01:00,ZGSZ 140100Z 15005MPS 9999 FEW020 FEW026TCU BKN033 29/23 Q1003 NOSIG
ZGSZ,2025-08-14 02:00,ZGSZ 140200Z 15008MPS 7000 SHRA FEW020 FEW026CB BKN033 27/25 Q1004 BECMG AT0240 NSW
ZGSZ,2025-08-14 03:00,ZGSZ 140300Z 16008MPS 9999 -SHRA FEW020 BKN033 27/25 Q1004 RESHRA BECMG AT0410 SHRA FEW026CB BKN033
ZGSZ,2025-08-14 04:00,ZGSZ 140400Z 15008MPS 8000 -TSRA SCT020 FEW025CB BKN033 26/24 Q1004 RESHRA BECMG AT0440 TSRA
ZGSZ,2025-08-14 05:00,ZGSZ 140500Z 14006MPS 9000 -TSRA SCT020 FEW025CB BKN033 26/24 Q1004 RESHRA TEMPO TSRA
ZGSZ,2025-08-14 06:00,ZGSZ 140600Z 10008MPS 3000 R15/1200U R16/1300U +TSRA SCT010 FEW020CB BKN030 25/24 Q1005 BECMG AT0730 -TSRA
ZGSZ,2025-08-14 07:00,ZGSZ 140700Z 13006MPS 8000 SHRA FEW020 BKN040 26/24 Q1005 RETS BECMG AT0750 NSW
ZGSZ,2025-08-14 08:00,ZGSZ 140800Z 12007MPS 9999 -SHRA FEW020 BKN040 26/24 Q1004 NOSIG
ZGSZ,2025-08-14 09:00,ZGSZ 140900Z 11006MPS 9999 -SHRA FEW020 BKN050 27/24 Q1004 NOSIG
ZGSZ,2025-08-14 10:00,ZGSZ 141000Z 11004MPS 090V150 9999 SCT026 27/24 Q1004 NOSIG
ZGSZ,2025-08-14 11:00,ZGSZ 141100Z 09003MPS 9999 SCT026 27/24 Q1006 NOSIG
ZGSZ,2025-08-14 12:00,ZGSZ 141200Z 10005MPS 9999 -SHRA SCT026 27/25 Q1007 BECMG AT1320 SHRA FEW025CB BKN030
ZGSZ,2025-08-14 13:00,ZGSZ 141300Z 11005MPS 9999 -SHRA FEW015 BKN050 27/25 Q1008 BECMG AT1320 2000 +SHRA FEW025CB BKN030
ZGSZ,2025-08-14 14:00,ZGSZ 141400Z VRB01MPS 9999 -SHRA SCT020 BKN050 26/25 Q1009 RESHRA BECMG AT1515 12005MPS SHRA FEW025CB BKN030
ZGSZ,2025-08-14 15:00,ZGSZ 141500Z 01003MPS 340V080 9999 FEW020 BKN050 26/24 Q1009 BECMG AT1520 15005MPS SHRA FEW025CB BKN030
ZGSZ,2025-08-14 16:00,ZGSZ 141600Z VRB01MPS 3000 +TSRA SCT009 FEW025CB BKN030 25/24 Q1009 BECMG AT1700 -TSRA
ZGSZ,2025-08-14 17:00,ZGSZ 141700Z 06002MPS 020V100 9999 -TSRA SCT015 FEW025CB BKN040 24/23 Q1009 RESHRA BECMG AT1715 NSW
ZGSZ,2025-08-14 18:00,ZGSZ 141800Z 02004MPS 9999 SCT020 25/24 Q1008 NOSIG
ZGSZ,2025-08-14 19:00,ZGSZ 141900Z 03003MPS 350V050 9999 SCT026 25/24 Q1008 NOSIG
ZGSZ,2025-08-14 20:00,ZGSZ 142000Z 02002MPS 350V100 9999 SCT026 26/24 Q1008 NOSIG
ZGSZ,2025-08-14 21:00,ZGSZ 142100Z VRB02MPS 9999 SCT033 26/24 Q1008 NOSIG
ZGSZ,2025-08-14 22:00,ZGSZ 142200Z 02002MPS 340V080 9999 SCT033 27/24 Q1008 NOSIG
ZGSZ,2025-08-14 23:00,ZGSZ 142300Z 08002MPS 030V130 9999 SCT033 28/25 Q1008 NOSIG
ZGSZ,2025-08-15 00:00,ZGSZ 150000Z 12003MPS 080V150 9999 SCT030 29/25 Q1009 NOSIG
ZGSZ,2025-08-15 01:00,ZGSZ 150100Z 11004MPS 080V140 9999 FEW020 SCT050 30/25 Q1009 NOSIG
ZGSZ,2025-08-15 02:00,ZGSZ 150200Z 12005G10MPS 080V160 9999 SHRA FEW020 FEW026CB BKN033 29/25 Q1009 BECMG AT0210 NSW
ZGSZ,2025-08-15 03:00,ZGSZ 150300Z 11006G11MPS 9999 SCT023 31/25 Q1009 NOSIG
ZGSZ,2025-08-15 04:00,ZGSZ 150400Z 11006MPS 080V140 9999 SCT023 BKN040 31/25 Q1009 BECMG AT0510 TSRA FEW015 FEW020CB BKN033
ZGSZ,2025-08-15 05:00,ZGSZ 150500Z 14005MPS 090V170 9999 SCT023 BKN040 31/24 Q1008 BECMG AT0540 SHRA FEW020CB BKN033
ZGSZ,2025-08-15 06:00,ZGSZ 150600Z 10007G12MPS 7000 +SHRA FEW016 FEW030CB BKN040 27/26 Q1009 BECMG AT0630 -SHRA
ZGSZ,2025-08-15 07:00,ZGSZ 150700Z 12004MPS 070V150 9999 SCT016 30/25 Q1008 NOSIG
ZGSZ,2025-08-15 08:00,ZGSZ 150800Z 11006MPS 080V140 9999 SCT020 31/25 Q1007 NOSIG
ZGSZ,2025-08-15 09:00,ZGSZ 150900Z 11003MPS 080V140 9999 SCT030 31/25 Q1007 NOSIG
ZGSZ,2025-08-15 10:00,ZGSZ 151000Z 12006MPS 090V160 9999 SCT030 31/23 Q1007 NOSIG
ZGSZ,2025-08-15 11:00,ZGSZ 151100Z 09004MPS 060V130 9999 FEW030 30/23 Q1008 NOSIG
ZGSZ,2025-08-15 12:00,ZGSZ 151200Z 09002MPS 020V130 9999 FEW030 30/23 Q1009 NOSIG
ZGSZ,2025-08-15 13:00,ZGSZ 151300Z 07003MPS 010V130 CAVOK 30/23 Q1009 NOSIG
ZGSZ,2025-08-15 14:00,ZGSZ 151400Z VRB01MPS CAVOK 29/23 Q1010 NOSIG
ZGSZ,2025-08-15 15:00,ZGSZ 151500Z 12003MPS CAVOK 29/23 Q1010 NOSIG
ZGSZ,2025-08-15 16:00,ZGSZ 151600Z 02002MPS 330V080 9999 BKN050 29/23 Q1010 NOSIG
ZGSZ,2025-08-15 17:00,ZGSZ 151700Z 07003MPS 010V140 9999 FEW050 29/23 Q1009 NOSIG
ZGSZ,2025-08-15 18:00,ZGSZ 151800Z 06002MPS 350V130 9999 SCT050 28/23 Q1009 NOSIG
ZGSZ,2025-08-15 19:00,ZGSZ 151900Z 07002MPS 040V140 9999 SCT050 28/24 Q1009 NOSIG
ZGSZ,2025-08-15 20:00,ZGSZ 152000Z 05003MPS 020V130 9999 SCT033 28/24 Q1009 NOSIG
ZGSZ,2025-08-15 21:00,ZGSZ 152100Z 06002MPS 350V160 9999 SCT033 28/24 Q1008 NOSIG
ZGSZ,2025-08-15 22:00,ZGSZ 152200Z VRB02MPS 9999 BKN033 28/24 Q1008 NOSIG
ZGSZ,2025-08-15 23:00,ZGSZ 152300Z 05003MPS 020V090 9999 BKN050 28/24 Q1008 NOSIG
ZGSZ,2025-08-16 00:00,ZGSZ 160000Z 06004MPS 010V100 9999 BKN050 29/24 Q1009 NOSIG
ZGSZ,2025-08-16 01:00,ZGSZ 160100Z 06004MPS 030V120 9999 BKN050 30/24 Q1009 NOSIG
ZGSZ,2025-08-16 02:00,ZGSZ 160200Z 07003MPS 020V120 9999 FEW030 BKN050 31/24 Q1009 NOSIG
ZGSZ,2025-08-16 03:00,ZGSZ 160300Z 04004MPS 010V110 9999 SCT033 32/24 Q1008 NOSIG
ZGSZ,2025-08-16 04:00,ZGSZ 160400Z 05004G09MPS 030V090 9999 FEW030 32/24 Q1008 NOSIG
ZGSZ,2025-08-16 05:00,ZGSZ 160500Z 08003MPS 020V150 9999 FEW020 SCT026 33/24 Q1008 NOSIG
ZGSZ,2025-08-16 06:00,ZGSZ 160600Z 24004MPS 9999 SCT026 SCT050 33/25 Q1007 NOSIG
ZGSZ,2025-08-16 07:00,ZGSZ 160700Z 25004MPS 9999 SCT040 33/26 Q1007 BECMG AT0740 08005MPS
ZGSZ,2025-08-16 08:00,ZGSZ 160800Z 11006MPS 080V140 9999 FEW030 35/22 Q1006 NOSIG
ZGSZ,2025-08-16 09:00,ZGSZ 160900Z 12006MPS 070V140 9999 FEW030 34/22 Q1006 NOSIG
ZGSZ,2025-08-16 10:00,ZGSZ 161000Z 11005MPS 9999 FEW030 33/21 Q1006 NOSIG
ZGSZ,2025-08-16 11:00,ZGSZ 161100Z 12006MPS 9999 FEW030 32/22 Q1007 NOSIG
ZGSZ,2025-08-16 12:00,ZGSZ 161200Z 10006MPS CAVOK 30/24 Q1008 NOSIG
ZGSZ,2025-08-16 13:00,ZGSZ 161300Z 09004MPS 060V120 CAVOK 29/24 Q1009 NOSIG
ZGSZ,2025-08-16 14:00,ZGSZ 161400Z 11006MPS 080V140 CAVOK 30/24 Q1009 NOSIG
ZGSZ,2025-08-16 15:00,ZGSZ 161500Z 10004MPS 080V140 CAVOK 29/24 Q1009 NOSIG
ZGSZ,2025-08-16 16:00,ZGSZ 161600Z 10006MPS CAVOK 30/23 Q1009 NOSIG
ZGSZ,2025-08-16 17:00,ZGSZ 161700Z 09005MPS CAVOK 29/23 Q1009 NOSIG
ZGSZ,2025-08-16 18:00,ZGSZ 161800Z 08004MPS 030V110 CAVOK 29/23 Q1009 NOSIG
ZGSZ,2025-08-16 19:00,ZGSZ 161900Z 06003MPS 030V110 CAVOK 29/23 Q1008 NOSIG
ZGSZ,2025-08-16 20:00,ZGSZ 162000Z 07003MPS CAVOK 28/23 Q1008 NOSIG
ZGSZ,2025-08-16 21:00,ZGSZ 162100Z 07003MPS 030V120 9999 FEW040 28/23 Q1008 NOSIG
ZGSZ,2025-08-16 22:00,ZGSZ 162200Z 07003MPS 040V120 9999 SCT040 28/23 Q1008 NOSIG
ZGSZ,2025-08-16 23:00,ZGSZ 162300Z 05004MPS 360V080 9999 FEW020 SCT040 28/24 Q1009 NOSIG
ZGSZ,2025-08-17 00:00,ZGSZ 170000Z 05004MPS 9999 FEW020 SCT040 29/23 Q1009 NOSIG
ZGSZ,2025-08-17 01:00,ZGSZ 170100Z 07004MPS 030V120 9999 SCT020 29/24 Q1010 NOSIG
ZGSZ,2025-08-17 02:00,ZGSZ 170200Z 06004MPS 030V110 9999 FEW020 30/24 Q1010 NOSIG
ZGSZ,2025-08-17 03:00,ZGSZ 170300Z 07006MPS 020V120 9999 FEW026 31/24 Q1009 NOSIG
ZGSZ,2025-08-17 04:00,ZGSZ 170400Z 06005G11MPS 9999 FEW026 SCT040 31/24 Q1009 NOSIG
ZGSZ,2025-08-17 05:00,ZGSZ 170500Z 08004MPS 020V130 9999 BKN050 32/23 Q1009 BECMG AT0600 SHRA FEW020CB
ZGSZ,2025-08-17 06:00,ZGSZ 170600Z 09003MPS 050V130 9999 -SHRA BKN050 31/24 Q1008 NOSIG
ZGSZ,2025-08-17 07:00,ZGSZ 170700Z 08004MPS 040V120 9999 -SHRA FEW020 30/24 Q1008 NOSIG
ZGSZ,2025-08-17 08:00,ZGSZ 170800Z 06006MPS 040V100 9999 FEW020 30/23 Q1008 NOSIG
ZGSZ,2025-08-17 09:00,ZGSZ 170900Z 08004MPS 030V130 9999 FEW026 30/24 Q1008 BECMG AT1040 SHRA FEW020CB
ZGSZ,2025-08-17 10:00,ZGSZ 171000Z 08005MPS 040V120 9000 -SHRA FEW026TCU SCT040 29/24 Q1008 BECMG AT1110 SHRA FEW020CB BKN030
ZGSZ,2025-08-17 11:00,ZGSZ 171100Z 10004MPS 070V140 8000 -SHRA FEW016 FEW026CB 27/25 Q1008 RESHRA BECMG AT1210 SHRA
ZGSZ,2025-08-17 12:00,ZGSZ 171200Z 09003MPS 060V130 9000 -SHRA FEW016 FEW026CB 27/25 Q1009 BECMG AT1330 SHRA
ZGSZ,2025-08-17 13:00,ZGSZ 171300Z 08004MPS 9000 -SHRA FEW016 27/24 Q1009 BECMG AT1430 SHRA FEW020CB BKN030
ZGSZ,2025-08-17 14:00,ZGSZ 171400Z 09004MPS 5000 SHRA FEW016 FEW026CB BKN050 27/24 Q1010 BECMG AT1430 -SHRA
ZGSZ,2025-08-17 15:00,ZGSZ 171500Z 10004MPS 060V130 7000 SHRA SCT016 FEW026CB BKN050 27/25 Q1010 BECMG AT1520 -SHRA
ZGSZ,2025-08-17 16:00,ZGSZ 171600Z 09004MPS 060V120 6000 SHRA SCT016 BKN050 26/24 Q1010 BECMG AT1610 -SHRA
ZGSZ,2025-08-17 17:00,ZGSZ 171700Z 08003MPS 8000 -SHRA SCT016 BKN050 27/24 Q1009 BECMG AT1720 SHRA
ZGSZ,2025-08-17 18:00,ZGSZ 171800Z 17006MPS 6000 SHRA SCT010 FEW026CB BKN050 25/24 Q1009 BECMG AT1900 -SHRA
ZGSZ,2025-08-17 19:00,ZGSZ 171900Z 16004MPS 4000 R15/1300U R16/P2000 +SHRA SCT006 FEW026CB BKN050 25/24 Q1009 BECMG AT1920 -SHRA
ZGSZ,2025-08-17 20:00,ZGSZ 172000Z 03002MPS 8000 -SHRA FEW016 FEW026CB BKN050 25/24 Q1009 BECMG AT2010 SHRA
ZGSZ,2025-08-17 21:00,ZGSZ 172100Z 09002MPS 050V120 6000 SHRA SCT013 FEW023CB BKN046 26/24 Q1009 BECMG AT2230 -SHRA
ZGSZ,2025-08-17 22:00,ZGSZ 172200Z 10004MPS 9999 -SHRA FEW015 26/24 Q1009 BECMG AT2330 SHRA
ZGSZ,2025-08-17 23:00,ZGSZ 172300Z 09003MPS 9999 -SHRA FEW010 26/24 Q1010 BECMG AT0020 SHRA FEW020CB
ZGSZ,2025-08-18 00:00,ZGSZ 180000Z 09004MPS 9999 -SHRA SCT020 26/24 Q1010 NOSIG
ZGSZ,2025-08-18 01:00,ZGSZ 180100Z 10004MPS 9999 -SHRA FEW020 BKN053 27/24 Q1011 NOSIG
ZGSZ,2025-08-18 02:00,ZGSZ 180200Z 11004MPS 070V140 9999 -SHRA SCT016 BKN053 28/25 Q1011 BECMG AT0340 SHRA FEW020CB BKN030
ZGSZ,2025-08-18 03:00,ZGSZ 180300Z 11004MPS 9999 BKN020 FEW023TCU 29/26 Q1011 BECMG AT0330 SHRA SCT012 FEW025CB BKN033
ZGSZ,2025-08-18 04:00,ZGSZ 180400Z 16004MPS 8000 SHRA SCT016 FEW023CB BKN050 27/25 Q1011 BECMG AT0420 -SHRA
ZGSZ,2025-08-18 05:00,ZGSZ 180500Z 12004MPS 090V150 9999 SCT040 28/25 Q1010 NOSIG
ZGSZ,2025-08-18 06:00,ZGSZ 180600Z 11004MPS 9999 SCT040 29/25 Q1010 NOSIG
ZGSZ,2025-08-18 07:00,ZGSZ 180700Z 10004MPS 070V130 9999 -SHRA SCT023 29/26 Q1009 NOSIG
ZGSZ,2025-08-18 08:00,ZGSZ 180800Z 10004MPS 070V130 9999 FEW026 29/25 Q1009 NOSIG
ZGSZ,2025-08-18 09:00,ZGSZ 180900Z 09005MPS 070V130 9999 FEW020TCU BKN026 29/25 Q1009 NOSIG
ZGSZ,2025-08-18 10:00,ZGSZ 181000Z 11005MPS 9999 FEW020TCU BKN026 29/25 Q1009 NOSIG
ZGSZ,2025-08-18 11:00,ZGSZ 181100Z 10005MPS 9999 SCT020 28/25 Q1010 BECMG AT1150 SHRA FEW020CB BKN030
ZGSZ,2025-08-18 12:00,ZGSZ 181200Z 11005MPS 9999 -SHRA BKN033 28/25 Q1010 RESHRA NOSIG
ZGSZ,2025-08-18 13:00,ZGSZ 181300Z 08003MPS 040V110 9999 -SHRA BKN033 27/25 Q1011 NOSIG
ZGSZ,2025-08-18 14:00,ZGSZ 181400Z 07003MPS 050V130 9999 -SHRA BKN033 27/25 Q1012 NOSIG
ZGSZ,2025-08-18 15:00,ZGSZ 181500Z 06004MPS 040V120 9999 -SHRA SCT033 27/25 Q1011 NOSIG
ZGSZ,2025-08-18 16:00,ZGSZ 181600Z 12003MPS 080V160 9999 SCT033 27/25 Q1011 NOSIG
ZGSZ,2025-08-18 17:00,ZGSZ 181700Z 11003MPS 9999 SCT040 27/25 Q1010 NOSIG
ZGSZ,2025-08-18 18:00,ZGSZ 181800Z 12003MPS 9999 -SHRA FEW020 SCT046 27/25 Q1009 NOSIG
ZGSZ,2025-08-18 19:00,ZGSZ 181900Z VRB02MPS 9999 BKN046 27/25 Q1009 NOSIG
ZGSZ,2025-08-18 20:00,ZGSZ 182000Z 06002MPS 020V120 8000 -SHRA SCT016 FEW020TCU BKN040 27/25 Q1009 RESHRA BECMG AT2030 SHRA FEW025CB BKN030
ZGSZ,2025-08-18 21:00,ZGSZ 182100Z 09002MPS 030V160 9999 -TSRA SCT016 FEW020CB BKN030 27/25 Q1009 RESHRA BECMG AT2110 NSW FEW015 BKN030
ZGSZ,2025-08-18 22:00,ZGSZ 182200Z 08003MPS 030V140 8000 SHRA SCT015 FEW025CB BKN050 27/25 Q1009 BECMG AT2330 -SHRA
ZGSZ,2025-08-18 23:00,ZGSZ 182300Z 13002MPS 080V160 9999 -TSRA SCT012 FEW025CB BKN040 27/26 Q1010 BECMG AT2330 NSW
ZGSZ,2025-08-19 00:00,ZGSZ 190000Z 09002MPS 040V140 9999 -SHRA SCT020 BKN040 28/26 Q1011 RETS NOSIG
ZGSZ,2025-08-19 01:00,ZGSZ 190100Z 06002MPS 030V120 9999 -SHRA SCT020 BKN050 27/26 Q1011 NOSIG
ZGSZ,2025-08-19 02:00,ZGSZ 190200Z 05003MPS 010V110 9999 -SHRA SCT050 28/26 Q1011 NOSIG
ZGSZ,2025-08-19 03:00,ZGSZ 190300Z 08003MPS 040V130 9999 -SHRA SCT040 28/26 Q1012 BECMG AT0320 SHRA
ZGSZ,2025-08-19 04:00,ZGSZ 190400Z 10003MPS 060V140 9999 -SHRA FEW020 SCT036 28/26 Q1012 NOSIG
ZGSZ,2025-08-19 05:00,ZGSZ 190500Z 11004MPS 9999 FEW020 SCT036 28/25 Q1011 NOSIG
ZGSZ,2025-08-19 06:00,ZGSZ 190600Z 11004MPS 9999 FEW020 SCT036 28/26 Q1010 NOSIG
ZGSZ,2025-08-19 07:00,ZGSZ 190700Z 10004MPS 9999 FEW020 SCT036 28/26 Q1010 NOSIG
ZGSZ,2025-08-19 08:00,ZGSZ 190800Z 11004MPS 070V140 9999 FEW020 SCT040 29/26 Q1010 NOSIG
ZGSZ,2025-08-19 09:00,ZGSZ 190900Z 12004MPS 9999 SCT040 28/26 Q1010 NOSIG
ZGSZ,2025-08-19 10:00,ZGSZ 191000Z 11003MPS CAVOK 28/26 Q1010 NOSIG
ZGSZ,2025-08-19 11:00,ZGSZ 191100Z 11003MPS CAVOK 28/26 Q1010 NOSIG
ZGSZ,2025-08-19 12:00,ZGSZ 191200Z 12004MPS 090V150 CAVOK 29/26 Q1011 NOSIG
ZGSZ,2025-08-19 13:00,ZGSZ 191300Z 11003MPS CAVOK 28/26 Q1011 NOSIG
ZGSZ,2025-08-19 14:00,ZGSZ 191400Z 12004MPS 9999 FEW040 28/26 Q1012 NOSIG
ZGSZ,2025-08-19 15:00,ZGSZ 191500Z 10004MPS 9999 SCT050 28/26 Q1012 NOSIG
ZGSZ,2025-08-19 16:00,ZGSZ 191600Z 10003MPS 9999 SCT050 28/25 Q1011 NOSIG
ZGSZ,2025-08-19 17:00,ZGSZ 191700Z 11003MPS 070V140 9999 SCT036 28/25 Q1010 NOSIG
ZGSZ,2025-08-19 18:00,ZGSZ 191800Z 11004MPS 9999 -SHRA FEW020 SCT036 28/25 Q1010 NOSIG
ZGSZ,2025-08-19 19:00,ZGSZ 191900Z 12003MPS 9999 FEW040 27/26 Q1010 NOSIG
ZGSZ,2025-08-19 20:00,ZGSZ 192000Z 11003MPS CAVOK 27/25 Q1009 NOSIG
ZGSZ,2025-08-19 21:00,ZGSZ 192100Z 12004MPS CAVOK 27/25 Q1009 NOSIG
ZGSZ,2025-08-19 22:00,ZGSZ 192200Z 13003MPS CAVOK 27/25 Q1009 NOSIG
ZGSZ,2025-08-19 23:00,ZGSZ 192300Z 10002MPS CAVOK 28/26 Q1010 NOSIG
ZGSZ,2025-08-20 00:00,ZGSZ 200000Z 13003MPS 9999 FEW030 29/26 Q1010 NOSIG
ZGSZ,2025-08-20 01:00,ZGSZ 200100Z 16004MPS 9999 FEW020 29/26 Q1011 NOSIG
ZGSZ,2025-08-20 02:00,ZGSZ 200200Z 16005MPS 9999 FEW020 30/26 Q1011 NOSIG
ZGSZ,2025-08-20 03:00,ZGSZ 200300Z 16006MPS 9999 FEW020 30/26 Q1011 NOSIG
ZGSZ,2025-08-20 04:00,ZGSZ 200400Z 17006MPS 9999 FEW020 30/26 Q1011 NOSIG
ZGSZ,2025-08-20 05:00,ZGSZ 200500Z 16006MPS 9999 FEW023 30/26 Q1010 NOSIG
ZGSZ,2025-08-20 06:00,ZGSZ 200600Z 16006MPS 9999 FEW023 31/26 Q1010 NOSIG
ZGSZ,2025-08-20 07:00,ZGSZ 200700Z 17007MPS 9999 FEW020 FEW023CB SCT050 31/26 Q1009 BECMG AT0820 SCT040
ZGSZ,2025-08-20 08:00,ZGSZ 200800Z 17006MPS 9999 FEW020 FEW023CB SCT050 30/26 Q1009 BECMG AT0820 FEW040
ZGSZ,2025-08-20 09:00,ZGSZ 200900Z 17007MPS 9999 FEW020 30/26 Q1008 NOSIG
ZGSZ,2025-08-20 10:00,ZGSZ 201000Z 17005MPS 9999 FEW020 29/26 Q1009 NOSIG
ZGSZ,2025-08-20 11:00,ZGSZ 201100Z 16006MPS 9999 FEW020 29/26 Q1009 NOSIG
ZGSZ,2025-08-20 12:00,ZGSZ 201200Z 16004MPS 9999 FEW020 29/25 Q1010 NOSIG
ZGSZ,2025-08-20 13:00,ZGSZ 201300Z 16004MPS CAVOK 29/25 Q1011 NOSIG
ZGSZ,2025-08-20 14:00,ZGSZ 201400Z 16003MPS CAVOK 29/26 Q1012 NOSIG
ZGSZ,2025-08-20 15:00,ZGSZ 201500Z 16003MPS CAVOK 28/26 Q1012 NOSIG
ZGSZ,2025-08-20 16:00,ZGSZ 201600Z 17003MPS CAVOK 28/26 Q1012 NOSIG
ZGSZ,2025-08-20 17:00,ZGSZ 201700Z 16003MPS CAVOK 28/26 Q1011 NOSIG
ZGSZ,2025-08-20 18:00,ZGSZ 201800Z 16003MPS CAVOK 28/26 Q1011 NOSIG
ZGSZ,2025-08-20 19:00,ZGSZ 201900Z 15003MPS CAVOK 28/26 Q1011 NOSIG
ZGSZ,2025-08-20 20:00,ZGSZ 202000Z 16003MPS CAVOK 28/26 Q1011 NOSIG
ZGSZ,2025-08-20 21:00,ZGSZ 202100Z 16004MPS CAVOK 28/25 Q1011 NOSIG
ZGSZ,2025-08-20 22:00,ZGSZ 202200Z 16003MPS CAVOK 28/25 Q1011 NOSIG
ZGSZ,2025-08-20 23:00,ZGSZ 202300Z 16004MPS CAVOK 28/25 Q1011 NOSIG
ZGSZ,2025-08-21 00:00,ZGSZ 210000Z 16004MPS 9999 FEW020 29/26 Q1011 NOSIG
ZGSZ,2025-08-21 01:00,ZGSZ 210100Z 18003MPS 9999 FEW020 30/26 Q1012 NOSIG
ZGSZ,2025-08-21 02:00,ZGSZ 210200Z 19003MPS 9999 FEW020 30/27 Q1012 NOSIG
ZGSZ,2025-08-21 03:00,ZGSZ 210300Z 19003MPS 9999 FEW026 30/26 Q1012 NOSIG
ZGSZ,2025-08-21 04:00,ZGSZ 210400Z 18004MPS 9999 FEW026 31/27 Q1012 NOSIG
ZGSZ,2025-08-21 05:00,ZGSZ 210500Z 18005MPS 9999 FEW026 31/26 Q1011 NOSIG
ZGSZ,2025-08-21 06:00,ZGSZ 210600Z 18005MPS CAVOK 31/26 Q1011 NOSIG
ZGSZ,2025-08-21 07:00,ZGSZ 210700Z 18005MPS 9999 FEW026 31/26 Q1010 NOSIG
ZGSZ,2025-08-21 08:00,ZGSZ 210800Z 18006MPS 9999 FEW026 31/27 Q1009 NOSIG
ZGSZ,2025-08-21 09:00,ZGSZ 210900Z 18006MPS 9999 FEW026 31/26 Q1009 NOSIG
ZGSZ,2025-08-21 10:00,ZGSZ 211000Z 17006MPS 9999 FEW026 30/26 Q1009 NOSIG
ZGSZ,2025-08-21 11:00,ZGSZ 211100Z 17006MPS CAVOK 29/26 Q1010 NOSIG
ZGSZ,2025-08-21 12:00,ZGSZ 211200Z 16005MPS CAVOK 29/26 Q1010 NOSIG
ZGSZ,2025-08-21 13:00,ZGSZ 211300Z 16004MPS CAVOK 29/26 Q1011 NOSIG
ZGSZ,2025-08-21 14:00,ZGSZ 211400Z 16004MPS CAVOK 29/26 Q1011 NOSIG
ZGSZ,2025-08-21 15:00,ZGSZ 211500Z 15004MPS CAVOK 28/26 Q1011 NOSIG
ZGSZ,2025-08-21 16:00,ZGSZ 211600Z 16004MPS CAVOK 28/25 Q1011 NOSIG
ZGSZ,2025-08-21 17:00,ZGSZ 211700Z 19002MPS CAVOK 29/26 Q1010 NOSIG
ZGSZ,2025-08-21 18:00,ZGSZ 211800Z 17003MPS CAVOK 28/25 Q1010 NOSIG
ZGSZ,2025-08-21 19:00,ZGSZ 211900Z 19003MPS 9999 FEW050 28/25 Q1010 NOSIG
ZGSZ,2025-08-21 20:00,ZGSZ 212000Z 18003MPS 9999 FEW050 28/25 Q1009 NOSIG
ZGSZ,2025-08-21 21:00,ZGSZ 212100Z 18005MPS 9999 SCT033 28/26 Q1010 NOSIG
ZGSZ,2025-08-21 22:00,ZGSZ 212200Z 17004MPS 9999 SCT033 28/26 Q1010 NOSIG
ZGSZ,2025-08-21 23:00,ZGSZ 212300Z 16003MPS 9999 FEW020 29/26 Q1010 NOSIG
ZGSZ,2025-08-22 00:00,ZGSZ 220000Z 16002MPS 120V180 9999 FEW033 29/26 Q1011 NOSIG
ZGSZ,2025-08-22 01:00,ZGSZ 220100Z 20002MPS 180V240 9999 FEW033 29/26 Q1011 NOSIG
ZGSZ,2025-08-22 02:00,ZGSZ 220200Z 21002MPS 140V270 9999 FEW030 30/25 Q1011 NOSIG
ZGSZ,2025-08-22 03:00,ZGSZ 220300Z 22003MPS 180V240 9999 FEW030 31/26 Q1011 NOSIG
ZGSZ,2025-08-22 04:00,ZGSZ 220400Z 22002MPS 190V250 9999 FEW025 31/25 Q1011 NOSIG
ZGSZ,2025-08-22 05:00,ZGSZ 220500Z 21002MPS 160V240 9999 FEW025 33/19 Q1011 NOSIG
ZGSZ,2025-08-22 06:00,ZGSZ 220600Z 20002MPS 170V230 9999 FEW025 33/21 Q1010 NOSIG
ZGSZ,2025-08-22 07:00,ZGSZ 220700Z 20003MPS 9999 FEW025 32/22 Q1009 NOSIG
ZGSZ,2025-08-22 08:00,ZGSZ 220800Z 21003MPS 170V230 9999 FEW030 32/24 Q1008 NOSIG
ZGSZ,2025-08-22 09:00,ZGSZ 220900Z 20004MPS 9999 FEW030 31/26 Q1008 NOSIG
ZGSZ,2025-08-22 10:00,ZGSZ 221000Z 18005MPS 9999 FEW030 31/25 Q1008 NOSIG
ZGSZ,2025-08-22 11:00,ZGSZ 221100Z 20003MPS 9999 FEW030 30/26 Q1008 NOSIG
ZGSZ,2025-08-22 12:00,ZGSZ 221200Z 20003MPS CAVOK 30/26 Q1008 NOSIG
ZGSZ,2025-08-22 13:00,ZGSZ 221300Z 17002MPS CAVOK 29/26 Q1009 NOSIG
ZGSZ,2025-08-22 14:00,ZGSZ 221400Z 17002MPS CAVOK 29/26 Q1009 NOSIG
ZGSZ,2025-08-22 15:00,ZGSZ 221500Z 19002MPS CAVOK 29/26 Q1009 NOSIG
ZGSZ,2025-08-22 16:00,ZGSZ 221600Z 18001MPS CAVOK 29/26 Q1009 NOSIG
ZGSZ,2025-08-22 17:00,ZGSZ 221700Z 17002MPS CAVOK 28/25 Q1009 NOSIG
ZGSZ,2025-08-22 18:00,ZGSZ 221800Z 17003MPS CAVOK 29/25 Q1009 NOSIG
ZGSZ,2025-08-22 19:00,ZGSZ 221900Z 18002MPS CAVOK 29/26 Q1009 NOSIG
ZGSZ,2025-08-22 20:00,ZGSZ 222000Z 17002MPS CAVOK 28/25 Q1009 NOSIG
ZGSZ,2025-08-22 21:00,ZGSZ 222100Z 21001MPS CAVOK 28/25 Q1008 NOSIG
ZGSZ,2025-08-22 22:00,ZGSZ 222200Z 31002MPS CAVOK 28/25 Q1008 NOSIG
ZGSZ,2025-08-22 23:00,ZGSZ 222300Z 32002MPS CAVOK 29/26 Q1008 NOSIG
ZGSZ,2025-08-23 00:00,ZGSZ 230000Z 35003MPS 310V050 CAVOK 31/25 Q1008 NOSIG
ZGSZ,2025-08-23 01:00,ZGSZ 230100Z VRB02MPS CAVOK 32/25 Q1009 NOSIG
ZGSZ,2025-08-23 02:00,ZGSZ 230200Z 06004MPS CAVOK 33/24 Q1010 NOSIG
ZGSZ,2025-08-23 03:00,ZGSZ 230300Z 05004MPS 010V080 9999 FEW020 34/24 Q1009 NOSIG
ZGSZ,2025-08-23 04:00,ZGSZ 230400Z 07005MPS 040V100 9999 SCT050 34/23 Q1008 NOSIG
ZGSZ,2025-08-23 05:00,ZGSZ 230500Z 08005MPS 050V130 9999 BKN050 35/23 Q1008 NOSIG
ZGSZ,2025-08-23 06:00,ZGSZ 230600Z 17005MPS 130V200 9999 FEW020TCU BKN050 33/25 Q1007 NOSIG
ZGSZ,2025-08-23 07:00,ZGSZ 230700Z 11007MPS 9999 SCT050 35/24 Q1006 NOSIG
ZGSZ,2025-08-23 08:00,ZGSZ 230800Z 11007MPS 9999 FEW050 34/23 Q1006 NOSIG
ZGSZ,2025-08-23 09:00,ZGSZ 230900Z 11008MPS 9999 FEW050 34/23 Q1006 NOSIG
ZGSZ,2025-08-23 10:00,ZGSZ 231000Z 10008MPS 9999 FEW030 33/23 Q1007 NOSIG
ZGSZ,2025-08-23 11:00,ZGSZ 231100Z 10007MPS CAVOK 32/23 Q1007 NOSIG
ZGSZ,2025-08-23 12:00,ZGSZ 231200Z 09005MPS 060V120 CAVOK 31/23 Q1007 NOSIG
ZGSZ,2025-08-23 13:00,ZGSZ 231300Z 09006MPS 070V130 CAVOK 31/24 Q1008 NOSIG
ZGSZ,2025-08-23 14:00,ZGSZ 231400Z 08003MPS 9999 FEW053 31/24 Q1009 WS R15 NOSIG
ZGSZ,2025-08-23 15:00,ZGSZ 231500Z 10006MPS 9999 -SHRA SCT040 31/24 Q1009 NOSIG
ZGSZ,2025-08-23 16:00,ZGSZ 231600Z 11005MPS 9999 -SHRA SCT040 29/25 Q1009 NOSIG
ZGSZ,2025-08-23 17:00,ZGSZ 231700Z 12006MPS 9999 FEW053 29/24 Q1009 NOSIG
ZGSZ,2025-08-23 18:00,ZGSZ 231800Z 08004MPS 050V140 9999 BKN050 29/24 Q1009 NOSIG
ZGSZ,2025-08-23 19:00,ZGSZ 231900Z 06003MPS 9999 SCT050 29/24 Q1009 NOSIG
ZGSZ,2025-08-23 20:00,ZGSZ 232000Z 06003MPS 030V100 9999 FEW050 29/25 Q1008 NOSIG
ZGSZ,2025-08-23 21:00,ZGSZ 232100Z 06004MPS 040V110 9999 FEW050 29/24 Q1009 NOSIG
ZGSZ,2025-08-23 22:00,ZGSZ 232200Z 06005MPS 020V120 9999 SCT033 29/24 Q1008 NOSIG
ZGSZ,2025-08-23 23:00,ZGSZ 232300Z 06003MPS 040V100 9999 SCT033 29/25 Q1009 NOSIG
ZGSZ,2025-08-24 00:00,ZGSZ 240000Z 07004MPS 040V100 9999 BKN040 30/25 Q1009 NOSIG
ZGSZ,2025-08-24 01:00,ZGSZ 240100Z 05004MPS 010V110 9999 FEW025 SCT033 31/25 Q1010 NOSIG
ZGSZ,2025-08-24 02:00,ZGSZ 240200Z 10005MPS 050V130 9999 FEW025 FEW026TCU SCT040 32/25 Q1010 NOSIG
ZGSZ,2025-08-24 03:00,ZGSZ 240300Z 06005MPS 020V120 9999 SCT020 SCT040 32/25 Q1010 NOSIG
ZGSZ,2025-08-24 04:00,ZGSZ 240400Z 08007MPS 040V100 9999 SCT020 SCT040 33/25 Q1010 RESHRA NOSIG
ZGSZ,2025-08-24 05:00,ZGSZ 240500Z 10010MPS 9999 BKN025 33/24 Q1009 NOSIG
ZGSZ,2025-08-24 06:00,ZGSZ 240600Z 11008MPS 9999 BKN025 33/24 Q1009 NOSIG
ZGSZ,2025-08-24 07:00,ZGSZ 240700Z 10008MPS 9999 FEW025 SCT050 33/24 Q1008 NOSIG
ZGSZ,2025-08-24 08:00,ZGSZ 240800Z 10007MPS 9999 SCT025 32/24 Q1008 NOSIG
ZGSZ,2025-08-24 09:00,ZGSZ 240900Z 09007MPS 9999 FEW025 32/24 Q1008 NOSIG
ZGSZ,2025-08-24 10:00,ZGSZ 241000Z 10008MPS 9999 FEW020 31/24 Q1008 NOSIG
ZGSZ,2025-08-24 11:00,ZGSZ 241100Z 11006MPS 9999 FEW020 30/24 Q1008 NOSIG
ZGSZ,2025-08-24 12:00,ZGSZ 241200Z 10006MPS 9999 FEW020 30/24 Q1009 NOSIG
ZGSZ,2025-08-24 13:00,ZGSZ 241300Z 10006MPS 9999 FEW020 30/24 Q1010 NOSIG
ZGSZ,2025-08-24 14:00,ZGSZ 241400Z 10006MPS 080V140 CAVOK 30/24 Q1010 NOSIG
ZGSZ,2025-08-24 15:00,ZGSZ 241500Z 10005MPS 060V120 9999 FEW020 30/24 Q1011 NOSIG
ZGSZ,2025-08-24 16:00,ZGSZ 241600Z 08004MPS 050V130 9999 FEW020 30/24 Q1011 NOSIG
ZGSZ,2025-08-24 17:00,ZGSZ 241700Z 09003MPS 060V120 9999 FEW020 29/24 Q1010 NOSIG
ZGSZ,2025-08-24 18:00,ZGSZ 241800Z 08003MPS 9999 FEW020 29/24 Q1010 NOSIG
ZGSZ,2025-08-24 19:00,ZGSZ 241900Z 07003MPS 9999 FEW020 29/24 Q1009 NOSIG
ZGSZ,2025-08-24 20:00,ZGSZ 242000Z 06003MPS 9999 SCT030 29/25 Q1009 NOSIG
ZGSZ,2025-08-24 21:00,ZGSZ 242100Z 07003MPS 9999 SCT030 28/25 Q1009 NOSIG
ZGSZ,2025-08-24 22:00,ZGSZ 242200Z 06003MPS 040V100 CAVOK 28/25 Q1009 NOSIG
ZGSZ,2025-08-24 23:00,ZGSZ 242300Z 06003MPS 9999 SCT040 28/25 Q1010 NOSIG
ZGSZ,2025-08-25 00:00,ZGSZ 250000Z 06003MPS 030V100 9999 FEW020 29/25 Q1010 NOSIG
ZGSZ,2025-08-25 01:00,ZGSZ 250100Z 11005MPS 090V150 9999 FEW020 31/24 Q1010 NOSIG
ZGSZ,2025-08-25 02:00,ZGSZ 250200Z 11004MPS 9999 FEW020 32/24 Q1010 NOSIG
ZGSZ,2025-08-25 03:00,ZGSZ 250300Z 06004MPS 030V100 9999 FEW040 32/24 Q1010 NOSIG
ZGSZ,2025-08-25 04:00,ZGSZ 250400Z 11006MPS 080V140 9999 SCT040 33/24 Q1010 NOSIG
ZGSZ,2025-08-25 05:00,ZGSZ 250500Z 10008MPS 9999 SCT030 34/23 Q1010 NOSIG
ZGSZ,2025-08-25 06:00,ZGSZ 250600Z 10007MPS 070V130 9999 FEW030 33/21 Q1009 NOSIG
ZGSZ,2025-08-25 07:00,ZGSZ 250700Z 10007MPS 070V130 9999 FEW030 33/21 Q1009 NOSIG
ZGSZ,2025-08-25 08:00,ZGSZ 250800Z 09005MPS 050V130 9999 FEW030 32/22 Q1009 NOSIG
ZGSZ,2025-08-25 09:00,ZGSZ 250900Z 11006MPS 9999 FEW030 31/23 Q1009 NOSIG
ZGSZ,2025-08-25 10:00,ZGSZ 251000Z 09005MPS 9999 FEW030 31/24 Q1009 NOSIG
ZGSZ,2025-08-25 11:00,ZGSZ 251100Z 10004MPS 060V130 9999 FEW030 31/24 Q1009 NOSIG
ZGSZ,2025-08-25 12:00,ZGSZ 251200Z 10004MPS 060V120 CAVOK 30/24 Q1010 NOSIG
ZGSZ,2025-08-25 13:00,ZGSZ 251300Z 11006MPS 9999 FEW026 30/23 Q1010 NOSIG
ZGSZ,2025-08-25 14:00,ZGSZ 251400Z 12004MPS 080V150 CAVOK 30/23 Q1011 NOSIG
ZGSZ,2025-08-25 15:00,ZGSZ 251500Z 08003MPS 060V120 CAVOK 29/23 Q1011 NOSIG
ZGSZ,2025-08-25 16:00,ZGSZ 251600Z 07003MPS 040V100 CAVOK 29/24 Q1011 NOSIG
ZGSZ,2025-08-25 17:00,ZGSZ 251700Z 05002MPS 020V100 9999 FEW040 29/24 Q1011 NOSIG
ZGSZ,2025-08-25 18:00,ZGSZ 251800Z 07003MPS 030V100 9999 FEW040 29/24 Q1010 NOSIG
ZGSZ,2025-08-25 19:00,ZGSZ 251900Z 06003MPS 9999 FEW040 28/24 Q1010 NOSIG
ZGSZ,2025-08-25 20:00,ZGSZ 252000Z 06003MPS CAVOK 28/24 Q1009 NOSIG
ZGSZ,2025-08-25 21:00,ZGSZ 252100Z 10001MPS CAVOK 28/24 Q1009 NOSIG
ZGSZ,2025-08-25 22:00,ZGSZ 252200Z VRB01MPS CAVOK 28/24 Q1009 NOSIG
ZGSZ,2025-08-25 23:00,ZGSZ 252300Z VRB01MPS CAVOK 28/24 Q1009 NOSIG
ZGSZ,2025-08-26 00:00,ZGSZ 260000Z 01002MPS 340V040 CAVOK 29/24 Q1010 NOSIG
ZGSZ,2025-08-26 01:00,ZGSZ 260100Z 05004MPS 020V100 9999 FEW030 31/24 Q1011 NOSIG
ZGSZ,2025-08-26 02:00,ZGSZ 260200Z VRB03MPS 9999 BKN030 31/24 Q1011 BECMG AT0350 20005MPS
ZGSZ,2025-08-26 03:00,ZGSZ 260300Z VRB02MPS 9999 BKN030 32/23 Q1011 BECMG AT0450 27005MPS
ZGSZ,2025-08-26 04:00,ZGSZ 260400Z 28005MPS 9999 BKN040 31/25 Q1010 BECMG AT0550 20005MPS
ZGSZ,2025-08-26 05:00,ZGSZ 260500Z 27005MPS 9999 FEW030 SCT040 32/25 Q1009 BECMG AT0630 20004MPS
ZGSZ,2025-08-26 06:00,ZGSZ 260600Z 26005MPS 9999 FEW030 SCT040 33/24 Q1009 BECMG AT0720 20005MPS
ZGSZ,2025-08-26 07:00,ZGSZ 260700Z 22003MPS 9999 FEW030 SCT040 33/25 Q1008 NOSIG
ZGSZ,2025-08-26 08:00,ZGSZ 260800Z 20005MPS 9999 FEW026TCU SCT040 33/25 Q1008 NOSIG
ZGSZ,2025-08-26 09:00,ZGSZ 260900Z 20005MPS 9999 FEW026TCU SCT040 32/26 Q1008 NOSIG
ZGSZ,2025-08-26 10:00,ZGSZ 261000Z 19005MPS 9999 SCT030 31/26 Q1008 NOSIG
ZGSZ,2025-08-26 11:00,ZGSZ 261100Z 20004MPS 9999 SCT030 30/26 Q1008 NOSIG
ZGSZ,2025-08-26 12:00,ZGSZ 261200Z 19005MPS 9999 BKN050 30/26 Q1008 NOSIG
ZGSZ,2025-08-26 13:00,ZGSZ 261300Z 19003MPS 9999 BKN050 30/26 Q1009 NOSIG
ZGSZ,2025-08-26 14:00,ZGSZ 261400Z 21002MPS 9999 SCT050 30/26 Q1009 NOSIG
ZGSZ,2025-08-26 15:00,ZGSZ 261500Z 19003MPS 9999 SCT040 29/25 Q1009 NOSIG
ZGSZ,2025-08-26 16:00,ZGSZ 261600Z 20002MPS 9999 FEW040 29/26 Q1009 NOSIG
ZGSZ,2025-08-26 17:00,ZGSZ 261700Z 20002MPS CAVOK 29/25 Q1009 NOSIG
ZGSZ,2025-08-26 18:00,ZGSZ 261800Z 23001MPS CAVOK 29/25 Q1008 NOSIG
ZGSZ,2025-08-26 19:00,ZGSZ 261900Z VRB01MPS CAVOK 29/25 Q1007 NOSIG
ZGSZ,2025-08-26 20:00,ZGSZ 262000Z VRB01MPS CAVOK 29/24 Q1007 NOSIG
ZGSZ,2025-08-26 21:00,ZGSZ 262100Z VRB01MPS 9999 FEW023 29/24 Q1007 NOSIG
ZGSZ,2025-08-26 22:00,ZGSZ 262200Z 14001MPS 9999 FEW026 28/25 Q1008 NOSIG
ZGSZ,2025-08-26 23:00,ZGSZ 262300Z VRB01MPS 9999 FEW020 SCT040 29/24 Q1008 NOSIG
ZGSZ,2025-08-27 00:00,ZGSZ 270000Z VRB01MPS 9999 FEW030 SCT050 30/25 Q1009 NOSIG
ZGSZ,2025-08-27 01:00,ZGSZ 270100Z 28003MPS 9999 FEW020 BKN050 30/25 Q1009 NOSIG
ZGSZ,2025-08-27 02:00,ZGSZ 270200Z 25003MPS 9999 FEW020 BKN050 30/26 Q1009 NOSIG
ZGSZ,2025-08-27 03:00,ZGSZ 270300Z 23003MPS 9999 FEW030 BKN050 30/25 Q1009 NOSIG
ZGSZ,2025-08-27 04:00,ZGSZ 270400Z 25003MPS 9999 SCT030 SCT050 32/25 Q1008 NOSIG
ZGSZ,2025-08-27 05:00,ZGSZ 270500Z 21004MPS 9999 FEW030 SCT050 32/26 Q1008 NOSIG
ZGSZ,2025-08-27 06:00,ZGSZ 270600Z 16009MPS 8000 TSRA FEW016 FEW030CB BKN050 30/23 Q1007 BECMG AT0640 -SHRA
ZGSZ,2025-08-27 07:00,ZGSZ 270700Z 15004MPS 9999 -SHRA FEW016 FEW030CB BKN050 30/23 Q1007 RETSRA NOSIG
ZGSZ,2025-08-27 08:00,ZGSZ 270800Z 15003MPS 120V180 9999 FEW026 FEW030CB 33/22 Q1006 NOSIG
ZGSZ,2025-08-27 09:00,ZGSZ 270900Z 16006MPS 9999 SCT026 FEW030CB 31/25 Q1006 RETS BECMG AT0920 SCT040
ZGSZ,2025-08-27 10:00,ZGSZ 271000Z 27003MPS 9999 FEW026CB SCT026 30/25 Q1007 NOSIG
ZGSZ,2025-08-27 11:00,ZGSZ 271100Z 35002MPS 300V050 9999 FEW030 28/22 Q1007 NOSIG
ZGSZ,2025-08-27 12:00,ZGSZ 271200Z 02003MPS 340V070 9999 FEW040 29/22 Q1008 NOSIG
ZGSZ,2025-08-27 13:00,ZGSZ 271300Z 02002MPS 320V080 CAVOK 30/23 Q1008 NOSIG
ZGSZ,2025-08-27 14:00,ZGSZ 271400Z VRB01MPS 9999 SCT036 29/23 Q1009 NOSIG
ZGSZ,2025-08-27 15:00,ZGSZ 271500Z VRB01MPS 9999 FEW036 29/24 Q1008 NOSIG
ZGSZ,2025-08-27 16:00,ZGSZ 271600Z 31002MPS 9999 SCT036 28/24 Q1008 NOSIG
ZGSZ,2025-08-27 17:00,ZGSZ 271700Z 00000MPS 9999 BKN036 28/24 Q1008 NOSIG
ZGSZ,2025-08-27 18:00,ZGSZ 271800Z 26001MPS 9999 BKN036 29/24 Q1008 BECMG AT1850 TSRA
ZGSZ,2025-08-27 19:00,ZGSZ 271900Z 10004MPS 080V140 9999 SCT030 29/24 Q1008 NOSIG
ZGSZ,2025-08-27 20:00,ZGSZ 272000Z 09002MPS 020V170 9999 FEW040 29/24 Q1007 NOSIG
ZGSZ,2025-08-27 21:00,ZGSZ 272100Z VRB01MPS CAVOK 28/24 Q1008 NOSIG
ZGSZ,2025-08-27 22:00,ZGSZ 272200Z 13001MPS CAVOK 29/24 Q1008 NOSIG
ZGSZ,2025-08-27 23:00,ZGSZ 272300Z 06002MPS 030V090 CAVOK 29/24 Q1008 NOSIG
ZGSZ,2025-08-28 00:00,ZGSZ 280000Z 04003MPS 010V130 CAVOK 29/24 Q1008 NOSIG
ZGSZ,2025-08-28 01:00,ZGSZ 280100Z 02003MPS 330V100 CAVOK 30/24 Q1009 NOSIG
ZGSZ,2025-08-28 02:00,ZGSZ 280200Z 06003MPS 020V110 CAVOK 30/24 Q1009 NOSIG
ZGSZ,2025-08-28 03:00,ZGSZ 280300Z 03003MPS 350V060 CAVOK 30/23 Q1009 NOSIG
ZGSZ,2025-08-28 04:00,ZGSZ 280400Z 05004MPS 350V110 CAVOK 31/23 Q1008 NOSIG
ZGSZ,2025-08-28 05:00,ZGSZ 280500Z 07004MPS 010V100 CAVOK 31/23 Q1008 NOSIG
ZGSZ,2025-08-28 06:00,ZGSZ 280600Z 06002MPS 020V120 9999 FEW040 32/24 Q1008 NOSIG
ZGSZ,2025-08-28 07:00,ZGSZ 280700Z 06002MPS 010V110 9999 FEW040 32/23 Q1007 NOSIG
ZGSZ,2025-08-28 08:00,ZGSZ 280800Z 06003MPS 010V110 CAVOK 32/23 Q1006 NOSIG
ZGSZ,2025-08-28 09:00,ZGSZ 280900Z 09003MPS 070V130 CAVOK 32/24 Q1006 NOSIG
ZGSZ,2025-08-28 10:00,ZGSZ 281000Z 21002MPS CAVOK 31/24 Q1006 NOSIG
ZGSZ,2025-08-28 11:00,ZGSZ 281100Z 10004MPS CAVOK 31/23 Q1007 NOSIG
ZGSZ,2025-08-28 12:00,ZGSZ 281200Z 10003MPS 060V130 9999 FEW040 31/23 Q1007 NOSIG
ZGSZ,2025-08-28 13:00,ZGSZ 281300Z 08003MPS 030V120 9999 FEW040 31/23 Q1008 NOSIG
ZGSZ,2025-08-28 14:00,ZGSZ 281400Z 10005MPS 070V130 9999 FEW026 31/23 Q1009 NOSIG
ZGSZ,2025-08-28 15:00,ZGSZ 281500Z 10005MPS 070V130 CAVOK 30/23 Q1009 NOSIG
ZGSZ,2025-08-28 16:00,ZGSZ 281600Z 08003MPS 060V120 CAVOK 30/23 Q1009 NOSIG
ZGSZ,2025-08-28 17:00,ZGSZ 281700Z 08003MPS 050V120 CAVOK 30/23 Q1009 NOSIG
ZGSZ,2025-08-28 18:00,ZGSZ 281800Z 07003MPS 030V160 CAVOK 30/23 Q1009 NOSIG
ZGSZ,2025-08-28 19:00,ZGSZ 281900Z 07003MPS 040V100 CAVOK 29/23 Q1008 NOSIG
ZGSZ,2025-08-28 20:00,ZGSZ 282000Z 05004MPS CAVOK 29/23 Q1008 NOSIG
ZGSZ,2025-08-28 21:00,ZGSZ 282100Z 05004MPS 020V090 CAVOK 29/23 Q1008 NOSIG
ZGSZ,2025-08-28 22:00,ZGSZ 282200Z 07004MPS 9999 FEW020 29/23 Q1009 NOSIG
ZGSZ,2025-08-28 23:00,ZGSZ 282300Z 05007MPS 9999 FEW020 29/24 Q1009 NOSIG
ZGSZ,2025-08-29 00:00,ZGSZ 290000Z 06006G11MPS 030V110 9999 SCT026 30/24 Q1010 NOSIG
ZGSZ,2025-08-29 01:00,ZGSZ 290100Z 06006G11MPS 040V100 9999 FEW026 32/24 Q1010 NOSIG
ZGSZ,2025-08-29 02:00,ZGSZ 290200Z 06006MPS 030V090 9999 FEW020 33/24 Q1010 NOSIG
ZGSZ,2025-08-29 03:00,ZGSZ 290300Z 06006MPS 040V100 9999 FEW020 34/23 Q1009 NOSIG
ZGSZ,2025-08-29 04:00,ZGSZ 290400Z 09006MPS 060V120 9999 SCT020 35/22 Q1009 NOSIG
ZGSZ,2025-08-29 05:00,ZGSZ 290500Z 11006MPS 9999 FEW020 35/22 Q1008 NOSIG
ZGSZ,2025-08-29 06:00,ZGSZ 290600Z 11007MPS 9999 SCT020 35/22 Q1008 NOSIG
ZGSZ,2025-08-29 07:00,ZGSZ 290700Z 12008MPS 9999 SCT020 35/23 Q1008 NOSIG
ZGSZ,2025-08-29 08:00,ZGSZ 290800Z 12010MPS 9999 FEW020 35/22 Q1008 NOSIG
ZGSZ,2025-08-29 09:00,ZGSZ 290900Z 12009MPS 080V150 9999 FEW033 34/22 Q1008 NOSIG
ZGSZ,2025-08-29 10:00,ZGSZ 291000Z 11008MPS 9999 FEW026 32/23 Q1008 NOSIG
ZGSZ,2025-08-29 11:00,ZGSZ 291100Z 10007MPS 9999 FEW026 31/23 Q1009 NOSIG
ZGSZ,2025-08-29 12:00,ZGSZ 291200Z 11007MPS 9999 FEW033 31/23 Q1010 NOSIG
ZGSZ,2025-08-29 13:00,ZGSZ 291300Z 12005MPS 080V140 9999 FEW033 30/24 Q1011 NOSIG
ZGSZ,2025-08-29 14:00,ZGSZ 291400Z 10004MPS 070V130 CAVOK 30/23 Q1011 NOSIG
ZGSZ,2025-08-29 15:00,ZGSZ 291500Z 06004MPS 030V100 CAVOK 30/23 Q1010 NOSIG
ZGSZ,2025-08-29 16:00,ZGSZ 291600Z 07003MPS 040V110 CAVOK 30/23 Q1010 NOSIG
ZGSZ,2025-08-29 17:00,ZGSZ 291700Z 10004MPS 070V130 CAVOK 30/23 Q1010 NOSIG
ZGSZ,2025-08-29 18:00,ZGSZ 291800Z 07003MPS 050V120 CAVOK 30/23 Q1010 NOSIG
ZGSZ,2025-08-29 19:00,ZGSZ 291900Z 08003MPS 040V130 CAVOK 30/23 Q1010 NOSIG
ZGSZ,2025-08-29 20:00,ZGSZ 292000Z 07003MPS 030V120 CAVOK 29/23 Q1010 NOSIG
ZGSZ,2025-08-29 21:00,ZGSZ 292100Z 07004MPS 030V120 CAVOK 30/23 Q1010 NOSIG
ZGSZ,2025-08-29 22:00,ZGSZ 292200Z 06004MPS 020V120 9999 FEW020 29/24 Q1010 NOSIG
ZGSZ,2025-08-29 23:00,ZGSZ 292300Z 06003MPS 030V110 9999 FEW020 29/24 Q1010 NOSIG
ZGSZ,2025-08-30 00:00,ZGSZ 300000Z 06004MPS 040V110 9999 FEW020 30/24 Q1011 NOSIG
ZGSZ,2025-08-30 01:00,ZGSZ 300100Z 09004MPS 040V140 9999 BKN026 32/23 Q1011 NOSIG
ZGSZ,2025-08-30 02:00,ZGSZ 300200Z 09006MPS 060V120 9999 SCT026 33/23 Q1011 NOSIG
ZGSZ,2025-08-30 03:00,ZGSZ 300300Z 11007MPS 060V140 9999 BKN026 34/23 Q1011 NOSIG
ZGSZ,2025-08-30 04:00,ZGSZ 300400Z 10007MPS 9999 SCT026 34/23 Q1010 NOSIG
ZGSZ,2025-08-30 05:00,ZGSZ 300500Z 11009MPS 070V130 9999 SCT026 34/22 Q1010 NOSIG
ZGSZ,2025-08-30 06:00,ZGSZ 300600Z 11007MPS 9999 SCT026 34/22 Q1009 NOSIG
ZGSZ,2025-08-30 07:00,ZGSZ 300700Z 11005MPS 080V180 9999 SCT033 34/22 Q1009 NOSIG
ZGSZ,2025-08-30 08:00,ZGSZ 300800Z 12008MPS 9999 FEW033 33/23 Q1008 NOSIG
ZGSZ,2025-08-30 09:00,ZGSZ 300900Z 11006MPS 9999 FEW030 33/23 Q1008 NOSIG
ZGSZ,2025-08-30 10:00,ZGSZ 301000Z 10006MPS 9999 FEW030 32/22 Q1008 NOSIG
ZGSZ,2025-08-30 11:00,ZGSZ 301100Z 10006MPS 9999 FEW030 31/22 Q1009 NOSIG
ZGSZ,2025-08-30 12:00,ZGSZ 301200Z 09005MPS 070V130 9999 FEW040 30/23 Q1010 NOSIG
ZGSZ,2025-08-30 13:00,ZGSZ 301300Z 11005MPS 9999 FEW040 30/23 Q1010 NOSIG
ZGSZ,2025-08-30 14:00,ZGSZ 301400Z 11005MPS 9999 FEW040 30/24 Q1010 NOSIG
ZGSZ,2025-08-30 15:00,ZGSZ 301500Z 11005MPS 9999 FEW040 29/23 Q1011 NOSIG
ZGSZ,2025-08-30 16:00,ZGSZ 301600Z 11003MPS 070V130 CAVOK 29/23 Q1011 NOSIG
ZGSZ,2025-08-30 17:00,ZGSZ 301700Z 12005MPS CAVOK 29/24 Q1010 NOSIG
ZGSZ,2025-08-30 18:00,ZGSZ 301800Z 11005MPS 9999 FEW026 29/24 Q1010 NOSIG
ZGSZ,2025-08-30 19:00,ZGSZ 301900Z 10004MPS 9999 FEW033 28/23 Q1010 NOSIG
ZGSZ,2025-08-30 20:00,ZGSZ 302000Z 08002MPS 040V110 9999 FEW033 28/24 Q1010 NOSIG
ZGSZ,2025-08-30 21:00,ZGSZ 302100Z 08002MPS 060V140 9999 FEW033 28/23 Q1010 NOSIG
ZGSZ,2025-08-30 22:00,ZGSZ 302200Z VRB02MPS 9999 FEW033 28/23 Q1010 NOSIG
ZGSZ,2025-08-30 23:00,ZGSZ 302300Z 04003MPS CAVOK 28/24 Q1010 NOSIG
ZGSZ,2025-08-31 00:00,ZGSZ 310000Z 06003MPS 020V090 9999 FEW026 30/24 Q1011 NOSIG
ZGSZ,2025-08-31 01:00,ZGSZ 310100Z 08004MPS 030V130 9999 SCT026 30/24 Q1011 NOSIG
ZGSZ,2025-08-31 02:00,ZGSZ 310200Z 08004MPS 020V140 9999 BKN040 32/24 Q1010 NOSIG
ZGSZ,2025-08-31 03:00,ZGSZ 310300Z 09005MPS 040V140 9999 BKN050 33/24 Q1010 NOSIG
ZGSZ,2025-08-31 04:00,ZGSZ 310400Z 22004MPS 9999 BKN033 31/25 Q1010 NOSIG
ZGSZ,2025-08-31 05:00,ZGSZ 310500Z 23004MPS 9999 BKN040 31/25 Q1009 NOSIG
ZGSZ,2025-08-31 06:00,ZGSZ 310600Z 23004MPS 9999 SCT040 32/25 Q1008 NOSIG
ZGSZ,2025-08-31 07:00,ZGSZ 310700Z 21004MPS 9999 SCT050 32/25 Q1007 NOSIG
ZGSZ,2025-08-31 08:00,ZGSZ 310800Z 18006MPS 9999 FEW050 32/25 Q1007 NOSIG
ZGSZ,2025-08-31 09:00,ZGSZ 310900Z 19006MPS 9999 FEW050 32/25 Q1007 NOSIG
ZGSZ,2025-08-31 10:00,ZGSZ 311000Z 18007MPS 9999 FEW020 FEW025TCU SCT050 31/24 Q1007 NOSIG
ZGSZ,2025-08-31 11:00,ZGSZ 311100Z 18005MPS 9999 SCT050 30/25 Q1007 NOSIG
ZGSZ,2025-08-31 12:00,ZGSZ 311200Z 16005MPS 9999 FEW050 30/25 Q1008 NOSIG
ZGSZ,2025-08-31 13:00,ZGSZ 311300Z 12003MPS 080V160 9999 FEW050 30/23 Q1009 NOSIG
ZGSZ,2025-08-31 14:00,ZGSZ 311400Z 17004MPS 9999 FEW050 29/25 Q1009 NOSIG
ZGSZ,2025-08-31 15:00,ZGSZ 311500Z 18004MPS 9999 FEW050 29/25 Q1009 NOSIG
ZGSZ,2025-08-31 16:00,ZGSZ 311600Z 16004MPS 9999 FEW050 29/24 Q1009 NOSIG
ZGSZ,2025-08-31 17:00,ZGSZ 311700Z 11002MPS 050V200 CAVOK 29/24 Q1008 NOSIG
ZGSZ,2025-08-31 18:00,ZGSZ 311800Z 08002MPS CAVOK 29/24 Q1008 NOSIG
ZGSZ,2025-08-31 19:00,ZGSZ 311900Z 06002MPS CAVOK 28/24 Q1007 NOSIG
ZGSZ,2025-08-31 20:00,ZGSZ 312000Z 10001MPS CAVOK 28/24 Q1007 NOSIG
ZGSZ,2025-08-31 21:00,ZGSZ 312100Z 09001MPS CAVOK 28/24 Q1007 NOSIG
ZGSZ,2025-08-31 22:00,ZGSZ 312200Z VRB01MPS 9999 FEW020 28/24 Q1008 NOSIG
ZGSZ,2025-08-31 23:00,ZGSZ 312300Z 07002MPS 9999 FEW020 29/24 Q1008 NOSIG
ZGSZ,2025-09-01 00:00,ZGSZ 010000Z 06002MPS 010V140 9999 FEW020 30/24 Q1008 NOSIG
ZGSZ,2025-09-01 01:00,ZGSZ 010100Z VRB01MPS 9999 FEW020 31/24 Q1009 NOSIG
ZGSZ,2025-09-01 02:00,ZGSZ 010200Z 28003MPS 240V300 9999 FEW030 31/25 Q1009 NOSIG
ZGSZ,2025-09-01 03:00,ZGSZ 010300Z 26003MPS 9999 SCT030 32/24 Q1009 NOSIG
ZGSZ,2025-09-01 04:00,ZGSZ 010400Z 24004MPS 9999 SCT030 32/24 Q1008 NOSIG
ZGSZ,2025-09-01 05:00,ZGSZ 010500Z 23004MPS 9999 FEW030 33/24 Q1007 NOSIG
ZGSZ,2025-09-01 06:00,ZGSZ 010600Z 21005MPS 9999 FEW030 32/24 Q1007 NOSIG
ZGSZ,2025-09-01 07:00,ZGSZ 010700Z 20005MPS 9999 FEW030 32/25 Q1006 NOSIG
ZGSZ,2025-09-01 08:00,ZGSZ 010800Z 20005MPS 9999 FEW030 32/25 Q1006 NOSIG
ZGSZ,2025-09-01 09:00,ZGSZ 010900Z 20005MPS 9999 FEW030 32/26 Q1005 NOSIG
ZGSZ,2025-09-01 10:00,ZGSZ 011000Z 19005MPS 9999 FEW030 31/25 Q1005 NOSIG
ZGSZ,2025-09-01 11:00,ZGSZ 011100Z 19006MPS CAVOK 30/26 Q1006 NOSIG
ZGSZ,2025-09-01 12:00,ZGSZ 011200Z 17006MPS CAVOK 30/25 Q1007 NOSIG
ZGSZ,2025-09-01 13:00,ZGSZ 011300Z 17004MPS CAVOK 30/25 Q1007 NOSIG
ZGSZ,2025-09-01 14:00,ZGSZ 011400Z 16003MPS CAVOK 29/26 Q1008 NOSIG
ZGSZ,2025-09-01 15:00,ZGSZ 011500Z 11004MPS CAVOK 30/23 Q1008 NOSIG
ZGSZ,2025-09-01 16:00,ZGSZ 011600Z 10004MPS CAVOK 30/23 Q1008 NOSIG
ZGSZ,2025-09-01 17:00,ZGSZ 011700Z 11004MPS CAVOK 29/23 Q1008 NOSIG
ZGSZ,2025-09-01 18:00,ZGSZ 011800Z 12002MPS 080V160 CAVOK 29/23 Q1007 NOSIG
ZGSZ,2025-09-01 19:00,ZGSZ 011900Z 17003MPS CAVOK 29/24 Q1007 NOSIG
ZGSZ,2025-09-01 20:00,ZGSZ 012000Z 18003MPS CAVOK 29/24 Q1007 NOSIG
ZGSZ,2025-09-01 21:00,ZGSZ 012100Z VRB01MPS 9999 FEW030 28/24 Q1007 NOSIG
ZGSZ,2025-09-01 22:00,ZGSZ 012200Z VRB01MPS 9999 FEW030 SCT033 28/24 Q1008 NOSIG
ZGSZ,2025-09-01 23:00,ZGSZ 012300Z VRB01MPS 9999 FEW030 29/24 Q1008 NOSIG
ZGSZ,2025-09-02 00:00,ZGSZ 020000Z 05003MPS 020V110 9999 FEW030 30/24 Q1009 NOSIG
ZGSZ,2025-09-02 01:00,ZGSZ 020100Z 07002MPS 020V150 9999 FEW030 31/24 Q1009 NOSIG
ZGSZ,2025-09-02 02:00,ZGSZ 020200Z 07002MPS 320V130 9999 SCT020 32/24 Q1009 NOSIG
ZGSZ,2025-09-02 03:00,ZGSZ 020300Z 26003MPS 9999 SCT030 31/25 Q1009 NOSIG
ZGSZ,2025-09-02 04:00,ZGSZ 020400Z 25003MPS 9999 SCT030 32/24 Q1009 NOSIG
ZGSZ,2025-09-02 05:00,ZGSZ 020500Z 22004MPS 9999 FEW030 32/25 Q1008 NOSIG
ZGSZ,2025-09-02 06:00,ZGSZ 020600Z 18008MPS 140V200 6000 +TSRA FEW010 FEW026CB 32/24 Q1008 BECMG AT0710 -SHRA
ZGSZ,2025-09-02 07:00,ZGSZ 020700Z 19006MPS 9999 FEW020 FEW030CB 32/26 Q1007 RETS NOSIG
ZGSZ,2025-09-02 08:00,ZGSZ 020800Z 18005MPS 9999 FEW020 FEW030CB 31/26 Q1007 NOSIG
ZGSZ,2025-09-02 09:00,ZGSZ 020900Z 18005MPS 9999 FEW020 FEW030CB 31/25 Q1007 NOSIG
ZGSZ,2025-09-02 10:00,ZGSZ 021000Z 20004MPS 9999 FEW020 30/25 Q1007 NOSIG
ZGSZ,2025-09-02 11:00,ZGSZ 021100Z 19004MPS CAVOK 30/25 Q1007 NOSIG
ZGSZ,2025-09-02 12:00,ZGSZ 021200Z 18003MPS CAVOK 30/25 Q1008 NOSIG
ZGSZ,2025-09-02 13:00,ZGSZ 021300Z 17003MPS CAVOK 30/25 Q1008 NOSIG
ZGSZ,2025-09-02 14:00,ZGSZ 021400Z 13002MPS 090V160 CAVOK 30/24 Q1008 NOSIG
ZGSZ,2025-09-02 15:00,ZGSZ 021500Z 12002MPS 070V170 CAVOK 30/24 Q1008 NOSIG
ZGSZ,2025-09-02 16:00,ZGSZ 021600Z 16003MPS CAVOK 29/25 Q1008 NOSIG
ZGSZ,2025-09-02 17:00,ZGSZ 021700Z 17003MPS CAVOK 29/25 Q1008 NOSIG
ZGSZ,2025-09-02 18:00,ZGSZ 021800Z 17003MPS CAVOK 29/25 Q1008 NOSIG
ZGSZ,2025-09-02 19:00,ZGSZ 021900Z 17003MPS CAVOK 29/25 Q1008 NOSIG
ZGSZ,2025-09-02 20:00,ZGSZ 022000Z 18002MPS CAVOK 28/25 Q1008 NOSIG
ZGSZ,2025-09-02 21:00,ZGSZ 022100Z 16002MPS CAVOK 28/25 Q1008 NOSIG
ZGSZ,2025-09-02 22:00,ZGSZ 022200Z 15003MPS 9999 SCT026 28/25 Q1009 NOSIG
ZGSZ,2025-09-02 23:00,ZGSZ 022300Z 08002MPS 050V130 9999 SCT026 29/25 Q1009 NOSIG
ZGSZ,2025-09-03 00:00,ZGSZ 030000Z 12002MPS 060V150 9999 FEW026 31/24 Q1009 NOSIG
ZGSZ,2025-09-03 01:00,ZGSZ 030100Z 22003MPS 190V250 9999 FEW026 31/25 Q1009 NOSIG
ZGSZ,2025-09-03 02:00,ZGSZ 030200Z 22004MPS 9999 SCT033 31/25 Q1010 NOSIG
ZGSZ,2025-09-03 03:00,ZGSZ 030300Z 23003MPS 9999 SCT033 32/25 Q1009 NOSIG
ZGSZ,2025-09-03 04:00,ZGSZ 030400Z 22004MPS 9999 SCT033 32/25 Q1009 NOSIG
ZGSZ,2025-09-03 05:00,ZGSZ 030500Z 21005MPS 9999 SCT033 33/25 Q1008 NOSIG
ZGSZ,2025-09-03 06:00,ZGSZ 030600Z 22004MPS 190V250 9999 SCT033 33/25 Q1007 NOSIG
ZGSZ,2025-09-03 07:00,ZGSZ 030700Z 20005MPS 9999 TS SCT020 FEW025CB 33/26 Q1006 BECMG AT0740 NSW SCT030
ZGSZ,2025-09-03 08:00,ZGSZ 030800Z 19005MPS 9999 SCT026 32/26 Q1006 NOSIG
ZGSZ,2025-09-03 09:00,ZGSZ 030900Z 19006MPS 9999 FEW030 32/26 Q1006 NOSIG
ZGSZ,2025-09-03 10:00,ZGSZ 031000Z 19005MPS 9999 FEW020 FEW025CB 31/26 Q1006 BECMG AT1040 FEW030
ZGSZ,2025-09-03 11:00,ZGSZ 031100Z 19005MPS 9999 FEW020 31/25 Q1006 NOSIG
ZGSZ,2025-09-03 12:00,ZGSZ 031200Z 19005MPS CAVOK 31/26 Q1007 NOSIG
ZGSZ,2025-09-03 13:00,ZGSZ 031300Z 19005MPS CAVOK 31/26 Q1008 NOSIG
ZGSZ,2025-09-03 14:00,ZGSZ 031400Z 15004MPS 080V180 9999 FEW030 31/25 Q1008 NOSIG
ZGSZ,2025-09-03 15:00,ZGSZ 031500Z 14003MPS 9999 FEW030 30/24 Q1008 NOSIG
ZGSZ,2025-09-03 16:00,ZGSZ 031600Z 18004MPS CAVOK 30/25 Q1008 NOSIG
ZGSZ,2025-09-03 17:00,ZGSZ 031700Z 17005MPS CAVOK 30/24 Q1008 NOSIG
ZGSZ,2025-09-03 18:00,ZGSZ 031800Z 17003MPS CAVOK 30/24 Q1008 NOSIG
ZGSZ,2025-09-03 19:00,ZGSZ 031900Z VRB01MPS CAVOK 29/24 Q1007 NOSIG
ZGSZ,2025-09-03 20:00,ZGSZ 032000Z VRB01MPS CAVOK 29/24 Q1007 NOSIG
ZGSZ,2025-09-03 21:00,ZGSZ 032100Z 18002MPS CAVOK 29/24 Q1008 NOSIG
ZGSZ,2025-09-03 22:00,ZGSZ 032200Z 10002MPS 9999 FEW030 29/24 Q1008 NOSIG
ZGSZ,2025-09-03 23:00,ZGSZ 032300Z VRB01MPS 9999 FEW030 30/24 Q1009 NOSIG
ZGSZ,2025-09-04 00:00,ZGSZ 040000Z 18002MPS 150V220 9999 FEW030 30/24 Q1009 NOSIG
ZGSZ,2025-09-04 01:00,ZGSZ 040100Z 20003MPS 9999 FEW020 30/24 Q1009 NOSIG
ZGSZ,2025-09-04 02:00,ZGSZ 040200Z 21004MPS 9999 FEW020 31/25 Q1009 NOSIG
ZGSZ,2025-09-04 03:00,ZGSZ 040300Z 25003MPS 9999 FEW020 32/25 Q1009 NOSIG
ZGSZ,2025-09-04 04:00,ZGSZ 040400Z 24004MPS 9999 FEW020 32/24 Q1008 NOSIG
ZGSZ,2025-09-04 05:00,ZGSZ 040500Z 22004MPS 9999 FEW020 33/25 Q1008 NOSIG
ZGSZ,2025-09-04 06:00,ZGSZ 040600Z 22005MPS 9999 FEW020 33/24 Q1007 NOSIG
ZGSZ,2025-09-04 07:00,ZGSZ 040700Z 20004MPS 9999 FEW020 33/25 Q1006 NOSIG
ZGSZ,2025-09-04 08:00,ZGSZ 040800Z 20004MPS 9999 FEW020 33/25 Q1006 NOSIG
ZGSZ,2025-09-04 09:00,ZGSZ 040900Z 20005MPS 9999 FEW020 32/25 Q1005 NOSIG
ZGSZ,2025-09-04 10:00,ZGSZ 041000Z 19005MPS CAVOK 31/25 Q1005 NOSIG
ZGSZ,2025-09-04 11:00,ZGSZ 041100Z 19005MPS CAVOK 31/27 Q1006 NOSIG
ZGSZ,2025-09-04 12:00,ZGSZ 041200Z 19006MPS CAVOK 30/27 Q1006 NOSIG
ZGSZ,2025-09-04 13:00,ZGSZ 041300Z 17006MPS CAVOK 31/25 Q1007 NOSIG
ZGSZ,2025-09-04 14:00,ZGSZ 041400Z 16004MPS CAVOK 30/25 Q1007 NOSIG
ZGSZ,2025-09-04 15:00,ZGSZ 041500Z 19004MPS CAVOK 30/25 Q1007 NOSIG
ZGSZ,2025-09-04 16:00,ZGSZ 041600Z 18003MPS CAVOK 30/25 Q1008 NOSIG
ZGSZ,2025-09-04 17:00,ZGSZ 041700Z 17004MPS 9999 FEW033 30/25 Q1007 NOSIG
ZGSZ,2025-09-04 18:00,ZGSZ 041800Z 18003MPS CAVOK 29/26 Q1007 NOSIG
ZGSZ,2025-09-04 19:00,ZGSZ 041900Z 19004MPS 9999 FEW040 29/26 Q1007 NOSIG
ZGSZ,2025-09-04 20:00,ZGSZ 042000Z 18003MPS 9999 FEW020 29/26 Q1007 NOSIG
ZGSZ,2025-09-04 21:00,ZGSZ 042100Z 18003MPS 9999 FEW020 29/25 Q1008 NOSIG
ZGSZ,2025-09-04 22:00,ZGSZ 042200Z 18003MPS 9999 SCT020 29/25 Q1008 NOSIG
ZGSZ,2025-09-04 23:00,ZGSZ 042300Z 18003MPS 9999 SCT020 29/25 Q1009 NOSIG
ZGSZ,2025-09-05 00:00,ZGSZ 050000Z 17002MPS 130V210 9999 SCT020 31/25 Q1009 NOSIG
ZGSZ,2025-09-05 01:00,ZGSZ 050100Z 23002MPS 9999 FEW030 30/25 Q1009 NOSIG
ZGSZ,2025-09-05 02:00,ZGSZ 050200Z 24003MPS 9999 SCT030 31/25 Q1009 NOSIG
ZGSZ,2025-09-05 03:00,ZGSZ 050300Z 23003MPS 9999 SCT030 32/24 Q1009 NOSIG
ZGSZ,2025-09-05 04:00,ZGSZ 050400Z 24004MPS 9999 SCT030 32/23 Q1009 NOSIG
ZGSZ,2025-09-05 05:00,ZGSZ 050500Z 22004MPS 9999 SCT030 33/25 Q1008 NOSIG
ZGSZ,2025-09-05 06:00,ZGSZ 050600Z 21004MPS 9999 SCT030 34/24 Q1007 NOSIG
ZGSZ,2025-09-05 07:00,ZGSZ 050700Z 21005MPS 9999 FEW030 33/24 Q1006 NOSIG
ZGSZ,2025-09-05 08:00,ZGSZ 050800Z 18006MPS 9999 TSRA FEW026CB SCT026 33/25 Q1006 BECMG AT0830 11005MPS NSW
ZGSZ,2025-09-05 09:00,ZGSZ 050900Z 18006MPS 9999 FEW026 32/25 Q1006 NOSIG
ZGSZ,2025-09-05 10:00,ZGSZ 051000Z 19005MPS 9999 SCT050 31/26 Q1006 NOSIG
ZGSZ,2025-09-05 11:00,ZGSZ 051100Z 19005MPS 9999 SCT050 31/26 Q1007 NOSIG
ZGSZ,2025-09-05 12:00,ZGSZ 051200Z 19005MPS CAVOK 30/26 Q1007 NOSIG
ZGSZ,2025-09-05 13:00,ZGSZ 051300Z 18004MPS CAVOK 31/25 Q1008 NOSIG
ZGSZ,2025-09-05 14:00,ZGSZ 051400Z 11004MPS 080V140 CAVOK 31/24 Q1008 NOSIG
ZGSZ,2025-09-05 15:00,ZGSZ 051500Z 11002MPS 080V140 CAVOK 31/24 Q1008 NOSIG
ZGSZ,2025-09-05 16:00,ZGSZ 051600Z 18003MPS CAVOK 30/25 Q1008 NOSIG
ZGSZ,2025-09-05 17:00,ZGSZ 051700Z 09002MPS 060V130 CAVOK 30/23 Q1008 NOSIG
ZGSZ,2025-09-05 18:00,ZGSZ 051800Z 09002MPS 060V140 CAVOK 30/23 Q1008 NOSIG
ZGSZ,2025-09-05 19:00,ZGSZ 051900Z 10002MPS CAVOK 30/23 Q1007 NOSIG
ZGSZ,2025-09-05 20:00,ZGSZ 052000Z 13002MPS 080V170 CAVOK 29/23 Q1007 NOSIG
ZGSZ,2025-09-05 21:00,ZGSZ 052100Z 12003MPS 090V160 CAVOK 29/24 Q1008 NOSIG
ZGSZ,2025-09-05 22:00,ZGSZ 052200Z 10002MPS 060V160 CAVOK 29/24 Q1008 NOSIG
ZGSZ,2025-09-05 23:00,ZGSZ 052300Z VRB01MPS CAVOK 30/24 Q1008 NOSIG
ZGSZ,2025-09-06 00:00,ZGSZ 060000Z 28002MPS 9999 FEW020 30/24 Q1009 NOSIG
ZGSZ,2025-09-06 01:00,ZGSZ 060100Z 26003MPS 9999 FEW020 31/25 Q1009 NOSIG
ZGSZ,2025-09-06 02:00,ZGSZ 060200Z 26002MPS 230V300 9999 SCT020 30/25 Q1010 NOSIG
ZGSZ,2025-09-06 03:00,ZGSZ 060300Z 25003MPS 9999 SCT020 32/26 Q1009 NOSIG
ZGSZ,2025-09-06 04:00,ZGSZ 060400Z 22004MPS 200V260 9999 SCT020 33/25 Q1009 NOSIG
ZGSZ,2025-09-06 05:00,ZGSZ 060500Z 26004MPS 9999 SCT020 34/25 Q1008 NOSIG
ZGSZ,2025-09-06 06:00,ZGSZ 060600Z 27004MPS 9999 SCT020 34/24 Q1007 NOSIG
ZGSZ,2025-09-06 07:00,ZGSZ 060700Z 26003MPS 9999 FEW026 35/23 Q1006 NOSIG
ZGSZ,2025-09-06 08:00,ZGSZ 060800Z 20004MPS 9999 FEW026 35/24 Q1005 NOSIG
ZGSZ,2025-09-06 09:00,ZGSZ 060900Z 22003MPS 9999 FEW026 34/25 Q1005 NOSIG
ZGSZ,2025-09-06 10:00,ZGSZ 061000Z 18004MPS CAVOK 33/25 Q1006 NOSIG
ZGSZ,2025-09-06 11:00,ZGSZ 061100Z 18004MPS CAVOK 31/27 Q1006 NOSIG
ZGSZ,2025-09-06 12:00,ZGSZ 061200Z 18004MPS CAVOK 31/26 Q1006 NOSIG
ZGSZ,2025-09-06 13:00,ZGSZ 061300Z 16004MPS CAVOK 31/27 Q1007 NOSIG
ZGSZ,2025-09-06 14:00,ZGSZ 061400Z 10006MPS CAVOK 32/23 Q1007 NOSIG
ZGSZ,2025-09-06 15:00,ZGSZ 061500Z 10003MPS 070V140 CAVOK 31/24 Q1007 NOSIG
ZGSZ,2025-09-06 16:00,ZGSZ 061600Z 11003MPS 060V150 9999 BKN053 31/25 Q1007 NOSIG
ZGSZ,2025-09-06 17:00,ZGSZ 061700Z 08003MPS 020V120 9999 SCT053 31/25 Q1007 NOSIG
ZGSZ,2025-09-06 18:00,ZGSZ 061800Z 10003G08MPS 070V130 9999 SCT053 31/25 Q1006 NOSIG
ZGSZ,2025-09-06 19:00,ZGSZ 061900Z 09003MPS 060V120 9999 FEW053 30/24 Q1006 NOSIG
ZGSZ,2025-09-06 20:00,ZGSZ 062000Z 07004MPS 030V100 CAVOK 30/24 Q1005 NOSIG
ZGSZ,2025-09-06 21:00,ZGSZ 062100Z 07004MPS 050V110 CAVOK 30/24 Q1005 NOSIG
ZGSZ,2025-09-06 22:00,ZGSZ 062200Z 06004MPS 040V120 9999 BKN040 30/24 Q1006 NOSIG
ZGSZ,2025-09-06 23:00,ZGSZ 062300Z 06003MPS 030V190 9999 SCT033 30/24 Q1006 NOSIG
ZGSZ,2025-09-07 00:00,ZGSZ 070000Z 06005MPS 030V100 9999 FEW020 SCT033 31/24 Q1007 NOSIG
ZGSZ,2025-09-07 01:00,ZGSZ 070100Z 04004MPS 010V080 9999 BKN033 32/24 Q1007 NOSIG
ZGSZ,2025-09-07 02:00,ZGSZ 070200Z 06004MPS 020V100 9999 BKN033 30/25 Q1007 NOSIG
ZGSZ,2025-09-07 03:00,ZGSZ 070300Z 06006MPS 020V090 9999 BKN033 32/24 Q1007 NOSIG
ZGSZ,2025-09-07 04:00,ZGSZ 070400Z 13006MPS 090V150 9999 FEW020CB SCT040 33/26 Q1006 RESHRA BECMG AT0450 06006MPS SHRA
ZGSZ,2025-09-07 05:00,ZGSZ 070500Z 11006MPS 9999 -SHRA FEW020 BKN040 29/26 Q1006 RETSRA BECMG AT0530 SHRA
ZGSZ,2025-09-07 06:00,ZGSZ 070600Z 10008MPS 7000 SHRA FEW020CB BKN040 28/25 Q1005 BECMG AT0620 NSW
ZGSZ,2025-09-07 07:00,ZGSZ 070700Z 10005MPS 070V130 9999 FEW020 SCT050 30/25 Q1005 NOSIG
ZGSZ,2025-09-07 08:00,ZGSZ 070800Z 10005MPS 070V130 9999 SCT020 SCT040 31/24 Q1004 NOSIG
ZGSZ,2025-09-07 09:00,ZGSZ 070900Z 06003MPS 030V090 9999 FEW020 FEW025CB SCT033 28/24 Q1004 RESHRA BECMG AT1030 SHRA
ZGSZ,2025-09-07 10:00,ZGSZ 071000Z 06003MPS 020V120 9999 -SHRA FEW020 FEW025CB SCT033 27/24 Q1005 RESHRA BECMG AT1010 SHRA
ZGSZ,2025-09-07 11:00,ZGSZ 071100Z 09006MPS 9999 SCT020 BKN033 28/24 Q1005 NOSIG
ZGSZ,2025-09-07 12:00,ZGSZ 071200Z 09005MPS 050V120 9999 SCT040 28/23 Q1006 NOSIG
ZGSZ,2025-09-07 13:00,ZGSZ 071300Z 06004MPS 030V090 8000 -SHRA BKN030 28/24 Q1007 BECMG AT1315 SHRA FEW025CB BKN030
ZGSZ,2025-09-07 14:00,ZGSZ 071400Z 08005MPS 9999 SCT030 26/23 Q1007 BECMG AT1520 SHRA FEW025CB BKN030
ZGSZ,2025-09-07 15:00,ZGSZ 071500Z 05005MPS 020V090 9999 BKN050 27/24 Q1007 NOSIG
ZGSZ,2025-09-07 16:00,ZGSZ 071600Z 06005MPS 030V090 9999 BKN050 26/24 Q1006 BECMG AT1700 SHRA FEW020CB
ZGSZ,2025-09-07 17:00,ZGSZ 071700Z 05006MPS 010V090 9999 BKN050 27/24 Q1006 BECMG AT1720 SHRA FEW020CB
ZGSZ,2025-09-07 18:00,ZGSZ 071800Z 05006MPS 8000 SHRA FEW025CB BKN040 26/24 Q1005 BECMG AT1830 NSW
ZGSZ,2025-09-07 19:00,ZGSZ 071900Z 06007MPS 9999 -SHRA FEW015 SCT050 26/24 Q1004 BECMG AT2000 SHRA
ZGSZ,2025-09-07 20:00,ZGSZ 072000Z 05008MPS 9999 -SHRA FEW025 SCT050 26/23 Q1003 BECMG AT2020 SHRA
ZGSZ,2025-09-07 21:00,ZGSZ 072100Z 06008G13MPS 3000 +SHRA SCT010 BKN030 25/24 Q1002 BECMG AT2140 NSW
ZGSZ,2025-09-07 22:00,ZGSZ 072200Z 06006MPS 8000 -SHRA SCT010 FEW020CB BKN030 26/24 Q1002 RESHRA BECMG AT2210 +SHRA
ZGSZ,2025-09-07 23:00,ZGSZ 072300Z 09006MPS 9999 -SHRA SCT015 FEW020CB BKN030 27/24 Q1002 RESHRA BECMG AT2315 +SHRA
ZGSZ,2025-09-08 00:00,ZGSZ 080000Z 11006MPS 4000 +SHRA SCT015 FEW020CB BKN030 26/25 Q1002 BECMG AT0030 SHRA
ZGSZ,2025-09-08 01:00,ZGSZ 080100Z 12009MPS 9000 -SHRA FEW020 BKN030 27/25 Q1003 RESHRA BECMG AT0130 SHRA
ZGSZ,2025-09-08 02:00,ZGSZ 080200Z 12008G13MPS 8000 SHRA FEW020 BKN030 26/25 Q1004 BECMG AT0240 -SHRA
ZGSZ,2025-09-08 03:00,ZGSZ 080300Z 13007MPS 3000 SHRA FEW020 BKN030 26/25 Q1004 BECMG AT0320 -SHRA
ZGSZ,2025-09-08 04:00,ZGSZ 080400Z 14010MPS 9999 -SHRA FEW020 BKN030 28/25 Q1003 NOSIG
ZGSZ,2025-09-08 05:00,ZGSZ 080500Z 17013MPS 9999 -SHRA SCT020 BKN033 27/25 Q1003 RESHRA BECMG AT0540 SHRA
ZGSZ,2025-09-08 06:00,ZGSZ 080600Z 17010MPS 9999 R15/P2000 R16/1100N -SHRA FEW020 BKN033 27/25 Q1004 RESHRA NOSIG
ZGSZ,2025-09-08 07:00,ZGSZ 080700Z 16013MPS 9999 FEW020 BKN033 29/26 Q1003 BECMG AT0730 SHRA FEW015 FEW020CB BKN030
ZGSZ,2025-09-08 08:00,ZGSZ 080800Z 17009MPS 9999 -SHRA FEW020 BKN033 28/25 Q1003 RESHRA NOSIG
ZGSZ,2025-09-08 09:00,ZGSZ 080900Z 15007MPS 9999 -SHRA SCT020 BKN040 26/25 Q1004 NOSIG
ZGSZ,2025-09-08 10:00,ZGSZ 081000Z 15011MPS 9999 -SHRA SCT020 BKN040 28/25 Q1004 RESHRA NOSIG
ZGSZ,2025-09-08 11:00,ZGSZ 081100Z 16012MPS 9999 FEW020 BKN033 28/25 Q1005 NOSIG
ZGSZ,2025-09-08 12:00,ZGSZ 081200Z 17012MPS 9999 FEW020 SCT050 28/25 Q1005 NOSIG
ZGSZ,2025-09-08 13:00,ZGSZ 081300Z 16010MPS 9999 FEW020 SCT050 28/25 Q1007 NOSIG
ZGSZ,2025-09-08 14:00,ZGSZ 081400Z 16010MPS 9999 FEW020 SCT050 28/25 Q1008 NOSIG
ZGSZ,2025-09-08 15:00,ZGSZ 081500Z 16010MPS 9999 FEW020 SCT050 28/25 Q1008 NOSIG
ZGSZ,2025-09-08 16:00,ZGSZ 081600Z 16010MPS 9999 FEW020 SCT050 29/26 Q1008 NOSIG
ZGSZ,2025-09-08 17:00,ZGSZ 081700Z 16009MPS 9999 -SHRA FEW020 BKN040 28/26 Q1008 NOSIG
ZGSZ,2025-09-08 18:00,ZGSZ 081800Z 18008G13MPS 9999 FEW016 BKN040 28/26 Q1008 NOSIG
ZGSZ,2025-09-08 19:00,ZGSZ 081900Z 18009MPS 9999 FEW016 SCT033 29/26 Q1008 NOSIG
ZGSZ,2025-09-08 20:00,ZGSZ 082000Z 17008MPS 9999 -SHRA SCT016 SCT033 28/26 Q1008 NOSIG
ZGSZ,2025-09-08 21:00,ZGSZ 082100Z 17009MPS 9999 SCT020 SCT040 28/26 Q1008 NOSIG
ZGSZ,2025-09-08 22:00,ZGSZ 082200Z 16006MPS 8000 -SHRA SCT020 BKN033 28/25 Q1009 BECMG AT2210 SHRA FEW015 FEW020CB BKN033
ZGSZ,2025-09-08 23:00,ZGSZ 082300Z 19005MPS 6000 SHRA SCT020 FEW026CB BKN033 27/25 Q1009 BECMG AT2310 -SHRA
ZGSZ,2025-09-09 00:00,ZGSZ 090000Z 16007MPS 9999 SCT020 BKN040 29/26 Q1010 NOSIG
ZGSZ,2025-09-09 01:00,ZGSZ 090100Z 18006MPS 9999 -SHRA FEW020 29/26 Q1010 NOSIG
ZGSZ,2025-09-09 02:00,ZGSZ 090200Z 17007MPS 9999 -SHRA FEW020 BKN033 28/25 Q1011 RESHRA BECMG AT0310 SHRA FEW020 FEW030CB BKN040
ZGSZ,2025-09-09 03:00,ZGSZ 090300Z 16006MPS 9999 FEW020 BKN033 30/27 Q1011 NOSIG
ZGSZ,2025-09-09 04:00,ZGSZ 090400Z 16007MPS 9999 -SHRA FEW020 BKN033 29/27 Q1010 BECMG AT0440 SHRA FEW020 FEW025CB BKN040
ZGSZ,2025-09-09 05:00,ZGSZ 090500Z 17007MPS 9999 SHRA FEW020 FEW026CB BKN033 30/26 Q1010 BECMG AT0520 NSW
ZGSZ,2025-09-09 06:00,ZGSZ 090600Z 16007MPS 9999 FEW016 BKN033 30/26 Q1009 NOSIG
ZGSZ,2025-09-09 07:00,ZGSZ 090700Z 16007MPS 9999 FEW020 BKN033 30/26 Q1008 NOSIG
ZGSZ,2025-09-09 08:00,ZGSZ 090800Z 17006MPS 9999 FEW020 BKN033 29/25 Q1008 NOSIG
ZGSZ,2025-09-09 09:00,ZGSZ 090900Z 16006MPS 9999 FEW020 SCT033 29/25 Q1008 NOSIG
ZGSZ,2025-09-09 10:00,ZGSZ 091000Z 16006MPS 9999 FEW030 29/26 Q1009 NOSIG
ZGSZ,2025-09-09 11:00,ZGSZ 091100Z 16006MPS 9999 SCT040 29/26 Q1009 NOSIG
ZGSZ,2025-09-09 12:00,ZGSZ 091200Z 16006MPS 9999 SCT040 29/26 Q1010 NOSIG
ZGSZ,2025-09-09 13:00,ZGSZ 091300Z 16005MPS 9999 SCT040 29/26 Q1011 NOSIG
ZGSZ,2025-09-09 14:00,ZGSZ 091400Z 16005MPS 9999 SCT040 29/26 Q1012 NOSIG
ZGSZ,2025-09-09 15:00,ZGSZ 091500Z 15004MPS 9999 FEW020 29/26 Q1012 NOSIG
ZGSZ,2025-09-09 16:00,ZGSZ 091600Z 10003MPS 080V140 9999 FEW020 28/25 Q1012 NOSIG
ZGSZ,2025-09-09 17:00,ZGSZ 091700Z 12003MPS 070V140 9999 FEW016 28/26 Q1011 NOSIG
ZGSZ,2025-09-09 18:00,ZGSZ 091800Z 12003MPS 090V150 9999 FEW016 28/26 Q1011 NOSIG
ZGSZ,2025-09-09 19:00,ZGSZ 091900Z 15004MPS 9999 SCT040 28/25 Q1010 NOSIG
ZGSZ,2025-09-09 20:00,ZGSZ 092000Z 15004MPS 9999 SCT040 28/25 Q1010 NOSIG
ZGSZ,2025-09-09 21:00,ZGSZ 092100Z 14003MPS 9999 SCT040 28/25 Q1010 NOSIG
ZGSZ,2025-09-09 22:00,ZGSZ 092200Z 15003MPS 9999 FEW016 SCT040 28/25 Q1011 NOSIG
ZGSZ,2025-09-09 23:00,ZGSZ 092300Z 15004MPS 9999 SCT020 28/25 Q1011 NOSIG
ZGSZ,2025-09-10 00:00,ZGSZ 100000Z 17004MPS 9999 FEW020 29/26 Q1011 NOSIG
ZGSZ,2025-09-10 01:00,ZGSZ 100100Z 17004MPS 140V200 9999 FEW020 30/26 Q1011 NOSIG
ZGSZ,2025-09-10 02:00,ZGSZ 100200Z 20004MPS 9999 SCT020 30/26 Q1012 NOSIG
ZGSZ,2025-09-10 03:00,ZGSZ 100300Z 19005MPS 9999 SCT020 31/26 Q1012 NOSIG
ZGSZ,2025-09-10 04:00,ZGSZ 100400Z 20006MPS 9999 SCT026 31/26 Q1011 NOSIG
ZGSZ,2025-09-10 05:00,ZGSZ 100500Z 19006MPS 9999 SCT026 30/26 Q1010 NOSIG
ZGSZ,2025-09-10 06:00,ZGSZ 100600Z 20005MPS 9999 SCT026 31/25 Q1010 NOSIG
ZGSZ,2025-09-10 07:00,ZGSZ 100700Z 18006MPS 9999 SCT026 30/26 Q1010 NOSIG
ZGSZ,2025-09-10 08:00,ZGSZ 100800Z 18006MPS 9999 SCT026 29/26 Q1010 NOSIG
ZGSZ,2025-09-10 09:00,ZGSZ 100900Z 17005MPS 9999 FEW026 29/26 Q1010 NOSIG
ZGSZ,2025-09-10 10:00,ZGSZ 101000Z 30006MPS 8000 TSRA SCT020 FEW026CB 27/23 Q1010 BECMG AT1040 18004MPS -SHRA FEW020 SCT040
ZGSZ,2025-09-10 11:00,ZGSZ 101100Z 34002MPS 9999 SCT026 26/24 Q1010 NOSIG
ZGSZ,2025-09-10 12:00,ZGSZ 101200Z VRB02MPS 9999 SCT026 28/24 Q1010 NOSIG
ZGSZ,2025-09-10 13:00,ZGSZ 101300Z 16003MPS 9999 FEW026 29/25 Q1011 NOSIG
ZGSZ,2025-09-10 14:00,ZGSZ 101400Z 16004MPS 9999 FEW026 29/25 Q1011 NOSIG
ZGSZ,2025-09-10 15:00,ZGSZ 101500Z 16002MPS 080V220 CAVOK 29/25 Q1012 NOSIG
ZGSZ,2025-09-10 16:00,ZGSZ 101600Z 08002MPS 040V140 CAVOK 29/25 Q1012 NOSIG
ZGSZ,2025-09-10 17:00,ZGSZ 101700Z 08002MPS 040V110 9999 FEW020CB 28/25 Q1011 BECMG AT1740 FEW030
ZGSZ,2025-09-10 18:00,ZGSZ 101800Z 08003MPS 050V150 9999 SCT030 28/25 Q1011 NOSIG
ZGSZ,2025-09-10 19:00,ZGSZ 101900Z 08002MPS 050V170 9999 SCT040 28/25 Q1010 NOSIG
ZGSZ,2025-09-10 20:00,ZGSZ 102000Z 10002MPS 080V140 9999 SCT026 28/25 Q1010 NOSIG
ZGSZ,2025-09-10 21:00,ZGSZ 102100Z 13003MPS 100V160 9999 SCT026 28/25 Q1010 NOSIG
ZGSZ,2025-09-10 22:00,ZGSZ 102200Z 13003MPS 090V160 9999 FEW020 28/25 Q1011 NOSIG
ZGSZ,2025-09-10 23:00,ZGSZ 102300Z 13002MPS 050V160 9999 FEW020 FEW026TCU 29/25 Q1011 NOSIG
ZGSZ,2025-09-11 00:00,ZGSZ 110000Z 22001MPS 9999 FEW020 29/25 Q1012 NOSIG
ZGSZ,2025-09-11 01:00,ZGSZ 110100Z 24002MPS 210V280 9999 FEW026 30/25 Q1012 NOSIG
ZGSZ,2025-09-11 02:00,ZGSZ 110200Z 20002MPS 160V230 9999 FEW026 30/26 Q1012 NOSIG
ZGSZ,2025-09-11 03:00,ZGSZ 110300Z 22002MPS 190V280 CAVOK 31/24 Q1012 NOSIG
ZGSZ,2025-09-11 04:00,ZGSZ 110400Z 24003MPS CAVOK 31/24 Q1011 NOSIG
ZGSZ,2025-09-11 05:00,ZGSZ 110500Z 23004MPS CAVOK 31/24 Q1011 NOSIG
ZGSZ,2025-09-11 06:00,ZGSZ 110600Z 22004MPS CAVOK 32/24 Q1010 NOSIG
ZGSZ,2025-09-11 07:00,ZGSZ 110700Z 22004MPS 9999 FEW026 32/25 Q1009 NOSIG
ZGSZ,2025-09-11 08:00,ZGSZ 110800Z 20005MPS 9999 FEW026 32/25 Q1009 NOSIG
ZGSZ,2025-09-11 09:00,ZGSZ 110900Z 20005MPS CAVOK 31/25 Q1008 NOSIG
ZGSZ,2025-09-11 10:00,ZGSZ 111000Z 18007MPS CAVOK 30/25 Q1008 NOSIG
ZGSZ,2025-09-11 11:00,ZGSZ 111100Z 19006MPS CAVOK 30/26 Q1009 NOSIG
ZGSZ,2025-09-11 12:00,ZGSZ 111200Z 18006MPS CAVOK 30/25 Q1010 NOSIG
ZGSZ,2025-09-11 13:00,ZGSZ 111300Z 18005MPS CAVOK 30/26 Q1011 NOSIG
ZGSZ,2025-09-11 14:00,ZGSZ 111400Z 18004MPS CAVOK 29/26 Q1012 NOSIG
ZGSZ,2025-09-11 15:00,ZGSZ 111500Z 17004MPS CAVOK 29/26 Q1012 NOSIG
ZGSZ,2025-09-11 16:00,ZGSZ 111600Z 17004MPS CAVOK 29/25 Q1012 NOSIG
ZGSZ,2025-09-11 17:00,ZGSZ 111700Z 18003MPS 9999 FEW023 29/25 Q1011 NOSIG
ZGSZ,2025-09-11 18:00,ZGSZ 111800Z 17003MPS 9999 FEW023 29/26 Q1011 NOSIG
ZGSZ,2025-09-11 19:00,ZGSZ 111900Z 16003MPS 9999 FEW020 28/25 Q1011 NOSIG
ZGSZ,2025-09-11 20:00,ZGSZ 112000Z 15002MPS 9999 FEW020 28/25 Q1010 NOSIG
ZGSZ,2025-09-11 21:00,ZGSZ 112100Z 09002MPS 9999 FEW020 28/25 Q1010 NOSIG
ZGSZ,2025-09-11 22:00,ZGSZ 112200Z 06002MPS 9999 FEW020 28/25 Q1011 NOSIG
ZGSZ,2025-09-11 23:00,ZGSZ 112300Z VRB01MPS 9999 FEW020 29/25 Q1011 NOSIG
ZGSZ,2025-09-12 00:00,ZGSZ 120000Z 19001MPS 9999 FEW020 31/24 Q1012 NOSIG
ZGSZ,2025-09-12 01:00,ZGSZ 120100Z 18002MPS 9999 FEW020 29/24 Q1012 NOSIG
ZGSZ,2025-09-12 02:00,ZGSZ 120200Z 22002MPS 9999 SCT020 31/24 Q1012 NOSIG
ZGSZ,2025-09-12 03:00,ZGSZ 120300Z 24003MPS 9999 SCT033 30/24 Q1012 NOSIG
ZGSZ,2025-09-12 04:00,ZGSZ 120400Z 24004MPS 9999 SCT033 32/25 Q1012 NOSIG
ZGSZ,2025-09-12 05:00,ZGSZ 120500Z 22004MPS 9999 SCT033 32/24 Q1011 NOSIG
ZGSZ,2025-09-12 06:00,ZGSZ 120600Z 20005MPS 9999 SCT033 32/25 Q1011 NOSIG
ZGSZ,2025-09-12 07:00,ZGSZ 120700Z 19005MPS 9999 SCT033 32/26 Q1010 NOSIG
ZGSZ,2025-09-12 08:00,ZGSZ 120800Z 19006MPS 9999 FEW033 32/24 Q1010 NOSIG
ZGSZ,2025-09-12 09:00,ZGSZ 120900Z 18006MPS 9999 FEW033 31/25 Q1009 NOSIG
ZGSZ,2025-09-12 10:00,ZGSZ 121000Z 18005MPS CAVOK 31/25 Q1009 NOSIG
ZGSZ,2025-09-12 11:00,ZGSZ 121100Z 19005MPS CAVOK 30/24 Q1010 NOSIG
ZGSZ,2025-09-12 12:00,ZGSZ 121200Z 18005MPS CAVOK 30/25 Q1010 NOSIG
ZGSZ,2025-09-12 13:00,ZGSZ 121300Z 19005MPS CAVOK 30/25 Q1011 NOSIG
ZGSZ,2025-09-12 14:00,ZGSZ 121400Z 16005MPS CAVOK 30/23 Q1012 NOSIG
ZGSZ,2025-09-12 15:00,ZGSZ 121500Z 17004MPS CAVOK 29/24 Q1012 NOSIG
ZGSZ,2025-09-12 16:00,ZGSZ 121600Z 16004MPS CAVOK 29/24 Q1011 NOSIG
ZGSZ,2025-09-12 17:00,ZGSZ 121700Z 16003MPS CAVOK 28/24 Q1011 NOSIG
ZGSZ,2025-09-12 18:00,ZGSZ 121800Z 13002MPS 060V180 CAVOK 29/24 Q1011 NOSIG
ZGSZ,2025-09-12 19:00,ZGSZ 121900Z 16004MPS CAVOK 28/24 Q1011 NOSIG
ZGSZ,2025-09-12 20:00,ZGSZ 122000Z 10002MPS 080V140 CAVOK 28/24 Q1011 NOSIG
ZGSZ,2025-09-12 21:00,ZGSZ 122100Z 12003MPS 070V170 CAVOK 28/24 Q1011 NOSIG
ZGSZ,2025-09-12 22:00,ZGSZ 122200Z VRB01MPS CAVOK 28/24 Q1011 NOSIG
ZGSZ,2025-09-12 23:00,ZGSZ 122300Z 07002MPS 050V110 CAVOK 28/24 Q1012 NOSIG
ZGSZ,2025-09-13 00:00,ZGSZ 130000Z VRB01MPS 9999 FEW030 30/25 Q1013 NOSIG
ZGSZ,2025-09-13 01:00,ZGSZ 130100Z 20002MPS 9999 FEW030 30/24 Q1013 NOSIG
ZGSZ,2025-09-13 02:00,ZGSZ 130200Z 22003MPS 200V260 9999 FEW030 31/25 Q1013 NOSIG
ZGSZ,2025-09-13 03:00,ZGSZ 130300Z 22003MPS 9999 FEW030 31/25 Q1012 NOSIG
ZGSZ,2025-09-13 04:00,ZGSZ 130400Z 23005MPS 9999 FEW030 31/24 Q1012 NOSIG
ZGSZ,2025-09-13 05:00,ZGSZ 130500Z 23004MPS 200V260 9999 FEW030 32/25 Q1012 NOSIG
ZGSZ,2025-09-13 06:00,ZGSZ 130600Z 22005MPS 9999 FEW030 32/24 Q1011 NOSIG
ZGSZ,2025-09-13 07:00,ZGSZ 130700Z 20004MPS CAVOK 32/25 Q1010 NOSIG
ZGSZ,2025-09-13 08:00,ZGSZ 130800Z 19004MPS CAVOK 32/24 Q1010 NOSIG
ZGSZ,2025-09-13 09:00,ZGSZ 130900Z 18005MPS CAVOK 31/24 Q1010 NOSIG
ZGSZ,2025-09-13 10:00,ZGSZ 131000Z 18006MPS CAVOK 31/25 Q1010 NOSIG
ZGSZ,2025-09-13 11:00,ZGSZ 131100Z 18005MPS CAVOK 30/24 Q1010 NOSIG
ZGSZ,2025-09-13 12:00,ZGSZ 131200Z 19006MPS CAVOK 30/25 Q1011 NOSIG
ZGSZ,2025-09-13 13:00,ZGSZ 131300Z 18005MPS CAVOK 30/25 Q1011 NOSIG
ZGSZ,2025-09-13 14:00,ZGSZ 131400Z 18005MPS CAVOK 30/25 Q1012 NOSIG
ZGSZ,2025-09-13 15:00,ZGSZ 131500Z 18005MPS CAVOK 29/25 Q1012 NOSIG
ZGSZ,2025-09-13 16:00,ZGSZ 131600Z 19004MPS CAVOK 29/25 Q1012 NOSIG
ZGSZ,2025-09-13 17:00,ZGSZ 131700Z 18004MPS CAVOK 29/24 Q1012 NOSIG
ZGSZ,2025-09-13 18:00,ZGSZ 131800Z 18004MPS CAVOK 29/25 Q1011 NOSIG
ZGSZ,2025-09-13 19:00,ZGSZ 131900Z 18003MPS CAVOK 28/25 Q1011 NOSIG
ZGSZ,2025-09-13 20:00,ZGSZ 132000Z 16001MPS CAVOK 28/24 Q1011 NOSIG
ZGSZ,2025-09-13 21:00,ZGSZ 132100Z 20002MPS 9999 FEW023 28/24 Q1011 NOSIG
ZGSZ,2025-09-13 22:00,ZGSZ 132200Z VRB01MPS 9999 FEW030 28/24 Q1011 NOSIG
ZGSZ,2025-09-13 23:00,ZGSZ 132300Z VRB01MPS 9999 FEW020 29/25 Q1012 NOSIG
ZGSZ,2025-09-14 00:00,ZGSZ 140000Z 24002MPS 210V270 9999 FEW020 29/25 Q1012 NOSIG
ZGSZ,2025-09-14 01:00,ZGSZ 140100Z 22002MPS 9999 FEW020 SCT030 29/25 Q1013 NOSIG
ZGSZ,2025-09-14 02:00,ZGSZ 140200Z 20003MPS 9999 FEW020 30/25 Q1013 NOSIG
ZGSZ,2025-09-14 03:00,ZGSZ 140300Z 22004MPS 190V250 9999 FEW026 31/25 Q1012 NOSIG
ZGSZ,2025-09-14 04:00,ZGSZ 140400Z 22004MPS 9999 FEW026 31/24 Q1012 NOSIG
ZGSZ,2025-09-14 05:00,ZGSZ 140500Z 21004MPS 9999 FEW026 32/23 Q1011 NOSIG
ZGSZ,2025-09-14 06:00,ZGSZ 140600Z 21004MPS 9999 FEW026 32/21 Q1011 NOSIG
ZGSZ,2025-09-14 07:00,ZGSZ 140700Z 20004MPS 9999 FEW026 32/23 Q1010 NOSIG
ZGSZ,2025-09-14 08:00,ZGSZ 140800Z 20004MPS 9999 FEW026 32/24 Q1010 NOSIG
ZGSZ,2025-09-14 09:00,ZGSZ 140900Z 19005MPS 9999 FEW026 31/24 Q1010 NOSIG
ZGSZ,2025-09-14 10:00,ZGSZ 141000Z 19005MPS CAVOK 31/24 Q1010 NOSIG
ZGSZ,2025-09-14 11:00,ZGSZ 141100Z 19006MPS CAVOK 30/24 Q1010 NOSIG
ZGSZ,2025-09-14 12:00,ZGSZ 141200Z 19006MPS CAVOK 30/25 Q1011 NOSIG
ZGSZ,2025-09-14 13:00,ZGSZ 141300Z 19004MPS CAVOK 30/25 Q1012 NOSIG
ZGSZ,2025-09-14 14:00,ZGSZ 141400Z 18004MPS CAVOK 30/25 Q1012 NOSIG
ZGSZ,2025-09-14 15:00,ZGSZ 141500Z 19004MPS CAVOK 29/25 Q1012 NOSIG
ZGSZ,2025-09-14 16:00,ZGSZ 141600Z 17003MPS 9999 FEW025 29/25 Q1012 NOSIG
ZGSZ,2025-09-14 17:00,ZGSZ 141700Z 10002MPS CAVOK 29/24 Q1011 NOSIG
ZGSZ,2025-09-14 18:00,ZGSZ 141800Z 06002MPS CAVOK 28/24 Q1011 NOSIG
ZGSZ,2025-09-14 19:00,ZGSZ 141900Z 08002MPS CAVOK 28/23 Q1011 NOSIG
ZGSZ,2025-09-14 20:00,ZGSZ 142000Z 10003MPS CAVOK 28/23 Q1011 NOSIG
ZGSZ,2025-09-14 21:00,ZGSZ 142100Z 09003MPS CAVOK 28/23 Q1012 NOSIG
ZGSZ,2025-09-14 22:00,ZGSZ 142200Z 10002MPS CAVOK 28/24 Q1012 NOSIG
ZGSZ,2025-09-14 23:00,ZGSZ 142300Z 04002MPS 020V100 9999 FEW026 28/24 Q1013 NOSIG
ZGSZ,2025-09-15 00:00,ZGSZ 150000Z 04002MPS 360V080 9999 FEW026 30/24 Q1013 NOSIG
ZGSZ,2025-09-15 01:00,ZGSZ 150100Z 06002MPS 330V140 9999 FEW026 31/24 Q1014 NOSIG
ZGSZ,2025-09-15 02:00,ZGSZ 150200Z 06001MPS 9999 SCT026 31/24 Q1013 NOSIG
ZGSZ,2025-09-15 03:00,ZGSZ 150300Z 29004MPS 9999 SCT026 31/25 Q1013 NOSIG
ZGSZ,2025-09-15 04:00,ZGSZ 150400Z 29005MPS 9999 SCT040 32/25 Q1012 NOSIG
ZGSZ,2025-09-15 05:00,ZGSZ 150500Z 27004MPS 9999 SCT040 33/25 Q1011 NOSIG
ZGSZ,2025-09-15 06:00,ZGSZ 150600Z 26003MPS 220V280 9999 TS FEW026CB SCT033 33/24 Q1010 BECMG AT0620 20005MPS TSRA
ZGSZ,2025-09-15 07:00,ZGSZ 150700Z 17005MPS 8000 SHRA FEW020 FEW026CB SCT033 29/26 Q1010 BECMG AT0730 NSW BKN030
ZGSZ,2025-09-15 08:00,ZGSZ 150800Z 16004MPS 9999 SCT033 30/25 Q1010 NOSIG
ZGSZ,2025-09-15 09:00,ZGSZ 150900Z 20003MPS 9999 FEW020 30/26 Q1011 NOSIG
ZGSZ,2025-09-15 10:00,ZGSZ 151000Z 20002MPS 160V220 9999 FEW020 30/26 Q1011 NOSIG
ZGSZ,2025-09-15 11:00,ZGSZ 151100Z 16003MPS 100V200 CAVOK 30/23 Q1011 NOSIG
ZGSZ,2025-09-15 12:00,ZGSZ 151200Z 10004MPS CAVOK 31/23 Q1012 NOSIG
ZGSZ,2025-09-15 13:00,ZGSZ 151300Z 10004MPS 070V130 CAVOK 30/24 Q1013 NOSIG
ZGSZ,2025-09-15 14:00,ZGSZ 151400Z 10004MPS 070V140 CAVOK 30/24 Q1013 NOSIG
ZGSZ,2025-09-15 15:00,ZGSZ 151500Z 06002MPS 030V110 CAVOK 30/24 Q1013 NOSIG
ZGSZ,2025-09-15 16:00,ZGSZ 151600Z 10003MPS 070V130 9999 FEW020 30/24 Q1013 NOSIG
ZGSZ,2025-09-15 17:00,ZGSZ 151700Z 10004MPS 080V140 9999 FEW020 SCT040 29/24 Q1012 NOSIG
ZGSZ,2025-09-15 18:00,ZGSZ 151800Z 11003MPS 080V150 9999 FEW040 30/24 Q1012 NOSIG
ZGSZ,2025-09-15 19:00,ZGSZ 151900Z 08002MPS 030V160 9999 FEW040 30/24 Q1012 NOSIG
ZGSZ,2025-09-15 20:00,ZGSZ 152000Z 06002MPS 030V120 9999 FEW020 BKN040 29/25 Q1011 NOSIG
ZGSZ,2025-09-15 21:00,ZGSZ 152100Z VRB03MPS 9999 FEW020 BKN040 29/25 Q1011 NOSIG
ZGSZ,2025-09-15 22:00,ZGSZ 152200Z 04002MPS 010V080 9999 SCT020 28/25 Q1011 NOSIG
ZGSZ,2025-09-15 23:00,ZGSZ 152300Z 05002MPS 020V100 9999 FEW020 29/25 Q1012 NOSIG
ZGSZ,2025-09-16 00:00,ZGSZ 160000Z 06003MPS 020V100 9999 FEW020 30/25 Q1012 NOSIG
ZGSZ,2025-09-16 01:00,ZGSZ 160100Z 06004MPS 020V100 9999 FEW020 31/25 Q1012 NOSIG
ZGSZ,2025-09-16 02:00,ZGSZ 160200Z 08004MPS 040V120 9999 SCT020 32/25 Q1012 NOSIG
ZGSZ,2025-09-16 03:00,ZGSZ 160300Z 10006MPS 060V130 9999 BKN020 33/24 Q1012 NOSIG
ZGSZ,2025-09-16 04:00,ZGSZ 160400Z 11006MPS 080V140 9999 BKN020 34/24 Q1011 NOSIG
ZGSZ,2025-09-16 05:00,ZGSZ 160500Z 10006MPS 070V150 9999 BKN030 34/24 Q1010 NOSIG
ZGSZ,2025-09-16 06:00,ZGSZ 160600Z 10006MPS 070V130 9999 SCT033 33/23 Q1010 NOSIG
ZGSZ,2025-09-16 07:00,ZGSZ 160700Z 10007MPS 9999 FEW033 34/23 Q1009 NOSIG
ZGSZ,2025-09-16 08:00,ZGSZ 160800Z 11006MPS 080V140 9999 FEW033 33/23 Q1009 NOSIG
ZGSZ,2025-09-16 09:00,ZGSZ 160900Z 11005MPS 080V140 9999 FEW033 33/22 Q1009 NOSIG
ZGSZ,2025-09-16 10:00,ZGSZ 161000Z 12004MPS 090V150 CAVOK 32/22 Q1009 NOSIG
ZGSZ,2025-09-16 11:00,ZGSZ 161100Z 12004MPS 090V150 CAVOK 32/22 Q1010 NOSIG
ZGSZ,2025-09-16 12:00,ZGSZ 161200Z 11003MPS 080V150 CAVOK 32/22 Q1011 NOSIG
ZGSZ,2025-09-16 13:00,ZGSZ 161300Z 13003MPS CAVOK 31/22 Q1011 NOSIG
ZGSZ,2025-09-16 14:00,ZGSZ 161400Z 16002MPS 100V200 CAVOK 30/24 Q1012 NOSIG
ZGSZ,2025-09-16 15:00,ZGSZ 161500Z 16002MPS 120V190 CAVOK 30/26 Q1012 NOSIG
ZGSZ,2025-09-16 16:00,ZGSZ 161600Z 11003MPS CAVOK 30/23 Q1011 NOSIG
ZGSZ,2025-09-16 17:00,ZGSZ 161700Z 07002MPS 040V100 CAVOK 30/23 Q1011 NOSIG
ZGSZ,2025-09-16 18:00,ZGSZ 161800Z 04002MPS 270V070 CAVOK 30/23 Q1010 NOSIG
ZGSZ,2025-09-16 19:00,ZGSZ 161900Z VRB01MPS CAVOK 29/23 Q1010 NOSIG
ZGSZ,2025-09-16 20:00,ZGSZ 162000Z 08001MPS CAVOK 29/23 Q1009 NOSIG
ZGSZ,2025-09-16 21:00,ZGSZ 162100Z 06002MPS CAVOK 29/24 Q1009 NOSIG
ZGSZ,2025-09-16 22:00,ZGSZ 162200Z 07002MPS 9999 FEW040 28/24 Q1010 NOSIG
ZGSZ,2025-09-16 23:00,ZGSZ 162300Z 05002MPS 020V110 9999 FEW040 29/24 Q1010 NOSIG
ZGSZ,2025-09-17 00:00,ZGSZ 170000Z 05002MPS 360V100 9999 FEW040 31/24 Q1010 NOSIG
ZGSZ,2025-09-17 01:00,ZGSZ 170100Z VRB02MPS CAVOK 31/24 Q1011 NOSIG
ZGSZ,2025-09-17 02:00,ZGSZ 170200Z 09003MPS 050V160 9999 FEW033 32/25 Q1011 NOSIG
ZGSZ,2025-09-17 03:00,ZGSZ 170300Z 10003MPS 060V140 9999 SCT030 33/25 Q1011 NOSIG
ZGSZ,2025-09-17 04:00,ZGSZ 170400Z 08003MPS 050V120 9999 SCT030 33/24 Q1010 NOSIG
ZGSZ,2025-09-17 05:00,ZGSZ 170500Z 13003G08MPS 060V180 9999 TSRA FEW030CB SCT040 32/24 Q1010 BECMG AT0540 NSW SCT030
ZGSZ,2025-09-17 06:00,ZGSZ 170600Z 01008MPS 340V050 6000 +TSRA FEW040CB SCT050 28/24 Q1009 WS R15 BECMG AT0620 09004MPS NSW FEW020 SCT040
ZGSZ,2025-09-17 07:00,ZGSZ 170700Z 33002MPS 9999 -SHRA BKN050 28/25 Q1008 NOSIG
ZGSZ,2025-09-17 08:00,ZGSZ 170800Z 03001MPS 9999 SCT040 30/25 Q1008 NOSIG
ZGSZ,2025-09-17 09:00,ZGSZ 170900Z 05011MPS 7000 +SHRA FEW013 FEW030CB BKN033 27/22 Q1008 BECMG AT0910 10004MPS +TSRA
ZGSZ,2025-09-17 10:00,ZGSZ 171000Z 02002MPS 320V110 9999 SCT050 26/23 Q1009 NOSIG
ZGSZ,2025-09-17 11:00,ZGSZ 171100Z 02002MPS 9999 SCT050 27/23 Q1009 NOSIG
ZGSZ,2025-09-17 12:00,ZGSZ 171200Z 04003MPS 360V100 9999 -SHRA SCT050 28/23 Q1010 NOSIG
ZGSZ,2025-09-17 13:00,ZGSZ 171300Z 04002MPS 320V100 CAVOK 28/24 Q1010 NOSIG
ZGSZ,2025-09-17 14:00,ZGSZ 171400Z VRB01MPS CAVOK 28/24 Q1011 NOSIG
ZGSZ,2025-09-17 15:00,ZGSZ 171500Z 05002MPS 360V120 CAVOK 28/24 Q1010 NOSIG
ZGSZ,2025-09-17 16:00,ZGSZ 171600Z 04002MPS 350V110 CAVOK 28/24 Q1010 NOSIG
ZGSZ,2025-09-17 17:00,ZGSZ 171700Z 05003MPS 020V110 CAVOK 28/24 Q1010 NOSIG
ZGSZ,2025-09-17 18:00,ZGSZ 171800Z 04004MPS 020V080 9999 FEW033 28/24 Q1009 NOSIG
ZGSZ,2025-09-17 19:00,ZGSZ 171900Z 03004MPS 340V050 9999 FEW050 28/24 Q1009 NOSIG
ZGSZ,2025-09-17 20:00,ZGSZ 172000Z 03003MPS 350V070 CAVOK 27/24 Q1009 NOSIG
ZGSZ,2025-09-17 21:00,ZGSZ 172100Z 03003MPS 360V120 CAVOK 27/24 Q1008 NOSIG
ZGSZ,2025-09-17 22:00,ZGSZ 172200Z 01002MPS 330V060 CAVOK 27/24 Q1009 NOSIG
ZGSZ,2025-09-17 23:00,ZGSZ 172300Z 03003MPS 9999 FEW030 28/24 Q1009 NOSIG
ZGSZ,2025-09-18 00:00,ZGSZ 180000Z 02003MPS 340V070 CAVOK 30/24 Q1010 NOSIG
ZGSZ,2025-09-18 01:00,ZGSZ 180100Z VRB03MPS CAVOK 31/25 Q1010 NOSIG
ZGSZ,2025-09-18 02:00,ZGSZ 180200Z 07003MPS 020V150 9999 FEW036 31/24 Q1010 NOSIG
ZGSZ,2025-09-18 03:00,ZGSZ 180300Z VRB02MPS 9999 FEW026 33/24 Q1010 NOSIG
ZGSZ,2025-09-18 04:00,ZGSZ 180400Z 31003G08MPS 240V020 9999 SCT026 33/25 Q1009 NOSIG
ZGSZ,2025-09-18 05:00,ZGSZ 180500Z 32003MPS 260V060 9999 SCT026 SCT040 34/25 Q1008 NOSIG
ZGSZ,2025-09-18 06:00,ZGSZ 180600Z VRB02MPS 9999 FEW020 FEW026CB SCT040 33/24 Q1007 BECMG AT0630 06005MPS TSRA
ZGSZ,2025-09-18 07:00,ZGSZ 180700Z 20004MPS 7000 TSRA SCT020 FEW026CB BKN040 32/24 Q1007 BECMG AT0810 NSW
ZGSZ,2025-09-18 08:00,ZGSZ 180800Z 06005MPS 040V100 8000 -TSRA SCT020 FEW026CB BKN040 27/25 Q1008 RESHRA BECMG AT0830 NSW
ZGSZ,2025-09-18 09:00,ZGSZ 180900Z 02002MPS 330V070 9999 FEW020 SCT050 28/24 Q1008 NOSIG
ZGSZ,2025-09-18 10:00,ZGSZ 181000Z 07002MPS 030V110 9999 FEW050 29/24 Q1007 NOSIG
ZGSZ,2025-09-18 11:00,ZGSZ 181100Z 06002MPS 360V130 9999 FEW050 29/25 Q1008 NOSIG
ZGSZ,2025-09-18 12:00,ZGSZ 181200Z 09003MPS 060V150 CAVOK 29/24 Q1008 NOSIG
ZGSZ,2025-09-18 13:00,ZGSZ 181300Z 07003MPS 040V120 CAVOK 29/24 Q1009 NOSIG
ZGSZ,2025-09-18 14:00,ZGSZ 181400Z 07003MPS 020V120 CAVOK 29/24 Q1010 NOSIG
ZGSZ,2025-09-18 15:00,ZGSZ 181500Z 05003MPS 360V090 CAVOK 29/24 Q1010 NOSIG
ZGSZ,2025-09-18 16:00,ZGSZ 181600Z 05004MPS 010V090 CAVOK 28/24 Q1009 NOSIG
ZGSZ,2025-09-18 17:00,ZGSZ 181700Z 06004MPS 030V100 CAVOK 28/23 Q1008 NOSIG
ZGSZ,2025-09-18 18:00,ZGSZ 181800Z 36003MPS 340V040 CAVOK 28/24 Q1008 NOSIG
ZGSZ,2025-09-18 19:00,ZGSZ 181900Z 03004MPS CAVOK 27/24 Q1008 NOSIG
ZGSZ,2025-09-18 20:00,ZGSZ 182000Z 01002MPS 340V040 CAVOK 27/24 Q1008 NOSIG
ZGSZ,2025-09-18 21:00,ZGSZ 182100Z 35004MPS CAVOK 27/23 Q1007 NOSIG
ZGSZ,2025-09-18 22:00,ZGSZ 182200Z 34003MPS CAVOK 27/24 Q1007 NOSIG
ZGSZ,2025-09-18 23:00,ZGSZ 182300Z 33004MPS CAVOK 27/23 Q1008 NOSIG
ZGSZ,2025-09-19 00:00,ZGSZ 190000Z 33002MPS 9999 SCT050 28/24 Q1008 NOSIG
ZGSZ,2025-09-19 01:00,ZGSZ 190100Z 33004MPS 9999 FEW020 29/24 Q1008 NOSIG
ZGSZ,2025-09-19 02:00,ZGSZ 190200Z 34005MPS 9999 FEW020 30/23 Q1008 NOSIG
ZGSZ,2025-09-19 03:00,ZGSZ 190300Z 33005MPS 9999 SCT040 31/23 Q1008 NOSIG
ZGSZ,2025-09-19 04:00,ZGSZ 190400Z 34006MPS 9999 SCT040 31/23 Q1007 NOSIG
ZGSZ,2025-09-19 05:00,ZGSZ 190500Z 34007MPS 9999 SCT040 31/23 Q1006 NOSIG
ZGSZ,2025-09-19 06:00,ZGSZ 190600Z 34006MPS 9999 -RA BKN040 31/23 Q1005 NOSIG
ZGSZ,2025-09-19 07:00,ZGSZ 190700Z 35007MPS 9999 -RA BKN040 30/23 Q1004 NOSIG
ZGSZ,2025-09-19 08:00,ZGSZ 190800Z 36005MPS 9999 -RA BKN040 28/24 Q1005 NOSIG
ZGSZ,2025-09-19 09:00,ZGSZ 190900Z 33005MPS 9999 -RA BKN040 27/24 Q1004 NOSIG
ZGSZ,2025-09-19 10:00,ZGSZ 191000Z 32005MPS 9999 -RA BKN040 27/25 Q1004 NOSIG
ZGSZ,2025-09-19 11:00,ZGSZ 191100Z 33005MPS 9999 -RA BKN040 28/24 Q1005 NOSIG
ZGSZ,2025-09-19 12:00,ZGSZ 191200Z 33005MPS 9999 -RA BKN040 28/24 Q1005 NOSIG
ZGSZ,2025-09-19 13:00,ZGSZ 191300Z 32005MPS 9999 -RA NSC 28/25 Q1005 NOSIG
ZGSZ,2025-09-19 14:00,ZGSZ 191400Z 32007MPS CAVOK 28/24 Q1005 NOSIG
ZGSZ,2025-09-19 15:00,ZGSZ 191500Z 32006MPS 9999 SCT046 28/24 Q1005 NOSIG
ZGSZ,2025-09-19 16:00,ZGSZ 191600Z 32007MPS 9999 SCT040 28/24 Q1005 NOSIG
ZGSZ,2025-09-19 17:00,ZGSZ 191700Z 33006MPS 9999 BKN040 27/23 Q1004 NOSIG
ZGSZ,2025-09-19 18:00,ZGSZ 191800Z 32007MPS 9999 BKN040 28/24 Q1004 NOSIG
ZGSZ,2025-09-19 19:00,ZGSZ 191900Z 30007MPS 9999 -RA BKN040 27/24 Q1004 NOSIG
ZGSZ,2025-09-19 20:00,ZGSZ 192000Z 31006MPS 9999 -RA BKN040 26/24 Q1004 NOSIG
ZGSZ,2025-09-19 21:00,ZGSZ 192100Z 30007MPS 6000 SHRA FEW020 FEW023CB BKN040 26/24 Q1004 BECMG AT2130 NSW BKN030
ZGSZ,2025-09-19 22:00,ZGSZ 192200Z 27004MPS 9999 -SHRA FEW013 FEW023CB BKN026 27/24 Q1004 NOSIG
ZGSZ,2025-09-19 23:00,ZGSZ 192300Z 28005MPS 9999 -SHRA SCT020 BKN033 27/24 Q1005 BECMG AT0050 20005MPS
ZGSZ,2025-09-20 00:00,ZGSZ 200000Z 24005MPS 9999 -SHRA BKN020 27/25 Q1005 NOSIG
ZGSZ,2025-09-20 01:00,ZGSZ 200100Z 25006MPS 4000 SHRA FEW016 FEW020CB BKN026 26/24 Q1006 BECMG AT0220 -SHRA
ZGSZ,2025-09-20 02:00,ZGSZ 200200Z 25006MPS 8000 -SHRA FEW013 FEW020CB BKN026 26/25 Q1006 NOSIG
ZGSZ,2025-09-20 03:00,ZGSZ 200300Z 26006MPS 6000 SHRA FEW020 OVC026 26/25 Q1007 BECMG AT0330 -SHRA
ZGSZ,2025-09-20 04:00,ZGSZ 200400Z 27005MPS 9999 -SHRA FEW015 OVC050 26/24 Q1006 NOSIG
ZGSZ,2025-09-20 05:00,ZGSZ 200500Z VRB01MPS 9999 FEW020 OVC050 27/24 Q1005 BECMG AT0620 SHRA
ZGSZ,2025-09-20 06:00,ZGSZ 200600Z 29004MPS 230V320 5000 +SHRA FEW015 FEW020CB BKN050 26/25 Q1005 BECMG AT0640 -SHRA
ZGSZ,2025-09-20 07:00,ZGSZ 200700Z 17002MPS 8000 -SHRA FEW020 OVC050 26/25 Q1004 RESHRA NOSIG
ZGSZ,2025-09-20 08:00,ZGSZ 200800Z 17002MPS 9999 FEW020 OVC050 27/25 Q1004 NOSIG
ZGSZ,2025-09-20 09:00,ZGSZ 200900Z 27002MPS 9999 FEW020 OVC040 27/25 Q1005 NOSIG
ZGSZ,2025-09-20 10:00,ZGSZ 201000Z 17002MPS 140V200 9999 FEW016 OVC040 27/24 Q1005 NOSIG
ZGSZ,2025-09-20 11:00,ZGSZ 201100Z 20004MPS 9999 BKN033 27/24 Q1006 NOSIG
ZGSZ,2025-09-20 12:00,ZGSZ 201200Z 20002MPS 9999 -RA FEW015 OVC023 27/25 Q1006 NOSIG
ZGSZ,2025-09-20 13:00,ZGSZ 201300Z 17001MPS 9999 FEW020 OVC030 26/24 Q1007 NOSIG
ZGSZ,2025-09-20 14:00,ZGSZ 201400Z 12002MPS 9999 -RA FEW020 OVC030 27/25 Q1007 NOSIG
ZGSZ,2025-09-20 15:00,ZGSZ 201500Z 14002MPS 100V160 9999 -RA FEW020 OVC040 27/25 Q1007 NOSIG
ZGSZ,2025-09-20 16:00,ZGSZ 201600Z 12003MPS 9999 OVC040 27/25 Q1007 NOSIG
ZGSZ,2025-09-20 17:00,ZGSZ 201700Z 10002MPS 9999 BKN040 27/25 Q1006 NOSIG
ZGSZ,2025-09-20 18:00,ZGSZ 201800Z 10003MPS 080V140 9999 SCT040 27/25 Q1006 NOSIG
ZGSZ,2025-09-20 19:00,ZGSZ 201900Z 11005MPS 9999 SCT040 27/24 Q1006 BECMG AT1945 SHRA
ZGSZ,2025-09-20 20:00,ZGSZ 202000Z 11005MPS 9999 -SHRA FEW020 SCT040 27/24 Q1006 NOSIG
ZGSZ,2025-09-20 21:00,ZGSZ 202100Z 09004MPS 9999 FEW040 27/24 Q1006 NOSIG
ZGSZ,2025-09-20 22:00,ZGSZ 202200Z 07003MPS 010V110 9999 BKN050 27/24 Q1007 BECMG AT2240 SHRA
ZGSZ,2025-09-20 23:00,ZGSZ 202300Z 11006MPS 6000 SHRA FEW020CB SCT040 26/24 Q1008 BECMG AT0010 -SHRA
ZGSZ,2025-09-21 00:00,ZGSZ 210000Z 11003MPS 9999 -SHRA FEW020 OVC040 26/24 Q1008 RESHRA NOSIG
ZGSZ,2025-09-21 01:00,ZGSZ 210100Z VRB01MPS 9000 -SHRA FEW020 OVC040 26/25 Q1009 NOSIG
ZGSZ,2025-09-21 02:00,ZGSZ 210200Z VRB01MPS 9000 -SHRA FEW020 OVC040 26/25 Q1009 BECMG AT0215 TSRA FEW020 FEW025CB BKN040
ZGSZ,2025-09-21 03:00,ZGSZ 210300Z 09004MPS 9000 -TSRA FEW020 FEW030CB BKN040 26/25 Q1009 RESHRA BECMG AT0320 NSW
ZGSZ,2025-09-21 04:00,ZGSZ 210400Z 12005MPS 9999 -SHRA FEW020 OVC040 26/24 Q1008 NOSIG
ZGSZ,2025-09-21 05:00,ZGSZ 210500Z 11004MPS 9999 -SHRA FEW020 SCT040 27/25 Q1008 NOSIG
ZGSZ,2025-09-21 06:00,ZGSZ 210600Z 09004MPS 050V140 9999 -SHRA FEW020 SCT040 28/25 Q1007 NOSIG
ZGSZ,2025-09-21 07:00,ZGSZ 210700Z 11004MPS 9999 -SHRA FEW020 28/25 Q1007 NOSIG
ZGSZ,2025-09-21 08:00,ZGSZ 210800Z 11003MPS 080V140 9999 -SHRA FEW020 27/25 Q1006 NOSIG
ZGSZ,2025-09-21 09:00,ZGSZ 210900Z 17003MPS 9999 -SHRA FEW020 BKN030 27/25 Q1007 NOSIG
ZGSZ,2025-09-21 10:00,ZGSZ 211000Z 11003MPS 080V140 9999 -SHRA FEW020 BKN030 27/25 Q1007 NOSIG
ZGSZ,2025-09-21 11:00,ZGSZ 211100Z 08003MPS 040V130 9999 -SHRA FEW020 BKN030 27/25 Q1007 NOSIG
ZGSZ,2025-09-21 12:00,ZGSZ 211200Z 12003MPS 9999 FEW040 27/25 Q1008 NOSIG
ZGSZ,2025-09-21 13:00,ZGSZ 211300Z 08002MPS 030V130 9999 FEW040 27/24 Q1009 NOSIG
ZGSZ,2025-09-21 14:00,ZGSZ 211400Z 03003MPS 280V080 9999 FEW026 27/25 Q1009 NOSIG
ZGSZ,2025-09-21 15:00,ZGSZ 211500Z 04002MPS 360V080 9999 FEW026 27/24 Q1009 NOSIG
ZGSZ,2025-09-21 16:00,ZGSZ 211600Z VRB02MPS 9999 FEW026 27/25 Q1009 NOSIG
ZGSZ,2025-09-21 17:00,ZGSZ 211700Z 04002MPS 340V090 CAVOK 27/25 Q1009 NOSIG
ZGSZ,2025-09-21 18:00,ZGSZ 211800Z 04003MPS 360V120 CAVOK 27/25 Q1009 NOSIG
ZGSZ,2025-09-21 19:00,ZGSZ 211900Z 01002MPS CAVOK 26/25 Q1008 NOSIG
ZGSZ,2025-09-21 20:00,ZGSZ 212000Z 03003MPS CAVOK 26/25 Q1008 NOSIG
ZGSZ,2025-09-21 21:00,ZGSZ 212100Z 04002MPS CAVOK 26/25 Q1008 NOSIG
ZGSZ,2025-09-21 22:00,ZGSZ 212200Z 36001MPS CAVOK 26/25 Q1008 NOSIG
ZGSZ,2025-09-21 23:00,ZGSZ 212300Z 03002MPS CAVOK 27/25 Q1008 NOSIG
ZGSZ,2025-09-22 00:00,ZGSZ 220000Z 36003MPS 340V080 CAVOK 28/25 Q1009 NOSIG
ZGSZ,2025-09-22 01:00,ZGSZ 220100Z 36003MPS 310V040 9999 FEW026 30/25 Q1009 NOSIG
ZGSZ,2025-09-22 02:00,ZGSZ 220200Z 02005MPS 340V050 9999 SCT026 31/25 Q1009 NOSIG
ZGSZ,2025-09-22 03:00,ZGSZ 220300Z 01005MPS 9999 SCT026 32/25 Q1008 NOSIG
ZGSZ,2025-09-22 04:00,ZGSZ 220400Z 01005MPS 340V040 9999 SCT026 33/25 Q1007 NOSIG
ZGSZ,2025-09-22 05:00,ZGSZ 220500Z 31004MPS 290V030 9999 BKN036 31/25 Q1006 NOSIG
ZGSZ,2025-09-22 06:00,ZGSZ 220600Z 30004MPS 9999 BKN036 32/26 Q1005 NOSIG
ZGSZ,2025-09-22 07:00,ZGSZ 220700Z 29005MPS 9999 BKN036 32/25 Q1005 NOSIG
ZGSZ,2025-09-22 08:00,ZGSZ 220800Z 33004MPS 290V360 9999 SCT036 32/25 Q1004 NOSIG
ZGSZ,2025-09-22 09:00,ZGSZ 220900Z 01004MPS 9999 FEW026 34/23 Q1004 NOSIG
ZGSZ,2025-09-22 10:00,ZGSZ 221000Z 34004MPS CAVOK 32/23 Q1004 NOSIG
ZGSZ,2025-09-22 11:00,ZGSZ 221100Z 34003MPS CAVOK 30/24 Q1004 NOSIG
ZGSZ,2025-09-22 12:00,ZGSZ 221200Z 34004MPS 320V020 CAVOK 31/24 Q1004 NOSIG
ZGSZ,2025-09-22 13:00,ZGSZ 221300Z 35005MPS CAVOK 30/23 Q1005 NOSIG
ZGSZ,2025-09-22 14:00,ZGSZ 221400Z 35004MPS CAVOK 30/23 Q1005 NOSIG
ZGSZ,2025-09-22 15:00,ZGSZ 221500Z 34004MPS CAVOK 29/23 Q1005 NOSIG
ZGSZ,2025-09-22 16:00,ZGSZ 221600Z 36004MPS CAVOK 29/23 Q1004 NOSIG
ZGSZ,2025-09-22 17:00,ZGSZ 221700Z 01007MPS CAVOK 30/22 Q1004 NOSIG
ZGSZ,2025-09-22 18:00,ZGSZ 221800Z 02005MPS CAVOK 29/22 Q1003 NOSIG
ZGSZ,2025-09-22 19:00,ZGSZ 221900Z 36004MPS CAVOK 28/23 Q1002 NOSIG
ZGSZ,2025-09-22 20:00,ZGSZ 222000Z 02006MPS CAVOK 29/22 Q1002 NOSIG
ZGSZ,2025-09-22 21:00,ZGSZ 222100Z 36005MPS CAVOK 29/23 Q1002 NOSIG
ZGSZ,2025-09-22 22:00,ZGSZ 222200Z 35005MPS CAVOK 28/22 Q1002 NOSIG
ZGSZ,2025-09-22 23:00,ZGSZ 222300Z 35006G13MPS 270V020 CAVOK 28/23 Q1002 NOSIG
ZGSZ,2025-09-23 00:00,ZGSZ 230000Z 35006MPS CAVOK 29/23 Q1003 NOSIG
ZGSZ,2025-09-23 01:00,ZGSZ 230100Z 36005MPS CAVOK 30/23 Q1003 NOSIG
ZGSZ,2025-09-23 02:00,ZGSZ 230200Z 36005MPS 330V030 CAVOK 31/23 Q1003 NOSIG
ZGSZ,2025-09-23 03:00,ZGSZ 230300Z 36007MPS CAVOK 32/23 Q1002 NOSIG
ZGSZ,2025-09-23 04:00,ZGSZ 230400Z 36006MPS 320V020 9999 SCT040 32/23 Q1001 NOSIG
ZGSZ,2025-09-23 05:00,ZGSZ 230500Z 01007MPS 9999 SCT040 33/23 Q1001 NOSIG
ZGSZ,2025-09-23 06:00,ZGSZ 230600Z 36008MPS 9999 SCT040 32/23 Q1000 NOSIG
ZGSZ,2025-09-23 07:00,ZGSZ 230700Z 36008MPS 9999 SCT040 33/23 Q0999 NOSIG
ZGSZ,2025-09-23 08:00,ZGSZ 230800Z 35007MPS 9999 SCT040 32/24 Q0998 NOSIG
ZGSZ,2025-09-23 09:00,ZGSZ 230900Z 36006MPS 9999 BKN050 32/24 Q0998 NOSIG
ZGSZ,2025-09-23 10:00,ZGSZ 231000Z 34007MPS 9999 -RA BKN050 31/24 Q0998 NOSIG
ZGSZ,2025-09-23 11:00,ZGSZ 231100Z 36008MPS 9999 -RA SCT040 30/24 Q0998 NOSIG
ZGSZ,2025-09-23 12:00,ZGSZ 231200Z 36007MPS 9999 -RA SCT040 28/24 Q0998 NOSIG
ZGSZ,2025-09-23 13:00,ZGSZ 231300Z 01008MPS 9999 -RA SCT040 28/24 Q0998 NOSIG
ZGSZ,2025-09-23 14:00,ZGSZ 231400Z 36008MPS 9999 -RA SCT040 27/24 Q0998 NOSIG
ZGSZ,2025-09-23 15:00,ZGSZ 231500Z 36009MPS 9999 SCT040 28/23 Q0997 NOSIG
ZGSZ,2025-09-23 16:00,ZGSZ 231600Z 36011MPS 9999 SCT040 29/23 Q0996 NOSIG
ZGSZ,2025-09-23 17:00,ZGSZ 231700Z 01013G18MPS 9999 SCT040 29/22 Q0994 NOSIG
ZGSZ,2025-09-23 18:00,ZGSZ 231800Z 01015G23MPS 9999 -RA BKN040 29/22 Q0993 NOSIG
ZGSZ,2025-09-23 19:00,ZGSZ 231900Z 01013G18MPS 6000 RA SCT050 27/23 Q0992 BECMG AT1930 -RA
ZGSZ,2025-09-23 20:00,ZGSZ 232000Z 02015G20MPS 9999 -RA FEW026 SCT050 26/23 Q0991 NOSIG
ZGSZ,2025-09-23 21:00,ZGSZ 232100Z 02012G17MPS 9999 -RA SCT040 26/23 Q0990 NOSIG
ZGSZ,2025-09-23 22:00,ZGSZ 232200Z 02014G19MPS 6000 RA FEW020 BKN040 25/23 Q0990 BECMG AT2330 -SHRA
ZGSZ,2025-09-23 23:00,ZGSZ 232300Z 03014G19MPS 6000 RA FEW020 BKN040 25/23 Q0990 BECMG AT0040 -RA
ZGSZ,2025-09-24 00:00,ZGSZ 240000Z 04014G21MPS 5000 RA FEW020 BKN040 26/23 Q0991 BECMG AT0140 -RA
ZGSZ,2025-09-24 01:00,ZGSZ 240100Z 04011G19MPS 5000 RA FEW020 BKN040 26/23 Q0991 BECMG AT0140 -RA
ZGSZ,2025-09-24 02:00,ZGSZ 240200Z 06013G18MPS 4000 RA FEW020 BKN040 26/24 Q0991 BECMG AT0330 -RA
ZGSZ,2025-09-24 05:00,ZGSZ 240500Z 08009G15MPS 050V110 7000 RA FEW020 OVC040 27/24 Q0993 BECMG AT0540 -RA
ZGSZ,2025-09-24 06:00,ZGSZ 240600Z 09012G19MPS 8000 -RA FEW020 OVC040 27/25 Q0993 BECMG AT0720 RA
ZGSZ,2025-09-24 07:00,ZGSZ 240700Z 09012G17MPS 9999 -RA OVC050 27/24 Q0993 BECMG AT0740 RA
ZGSZ,2025-09-24 08:00,ZGSZ 240800Z 10009MPS 8000 RA BKN050 27/24 Q0995 BECMG AT0840 -RA
ZGSZ,2025-09-24 09:00,ZGSZ 240900Z 10009MPS 9999 -RA BKN050 26/24 Q0996 NOSIG
ZGSZ,2025-09-24 10:00,ZGSZ 241000Z 11009MPS 9999 -RA SCT050 26/24 Q0997 BECMG AT1120 RA
ZGSZ,2025-09-24 11:00,ZGSZ 241100Z 10007MPS 6000 RA SCT050 26/24 Q0998 BECMG AT1140 -RA
ZGSZ,2025-09-24 12:00,ZGSZ 241200Z 10008MPS 9999 SCT050 27/24 Q0999 RERA NOSIG
ZGSZ,2025-09-24 13:00,ZGSZ 241300Z 11007MPS 9999 SCT033 27/24 Q1001 NOSIG
ZGSZ,2025-09-24 14:00,ZGSZ 241400Z 10007MPS 9999 SCT050 27/24 Q1002 NOSIG
ZGSZ,2025-09-24 15:00,ZGSZ 241500Z 10006MPS 9999 SCT040 27/24 Q1002 NOSIG
ZGSZ,2025-09-24 16:00,ZGSZ 241600Z 10008MPS 9999 SCT040 28/24 Q1002 BECMG AT1700 RA
ZGSZ,2025-09-24 17:00,ZGSZ 241700Z 10008MPS 9999 -RA SCT036 27/25 Q1002 NOSIG
ZGSZ,2025-09-24 18:00,ZGSZ 241800Z 11005MPS 9999 -RA SCT036 27/25 Q1003 RERA BECMG AT1940 RA
ZGSZ,2025-09-24 19:00,ZGSZ 241900Z 11006MPS 9999 -RA FEW036 27/25 Q1003 BECMG AT2020 RA
ZGSZ,2025-09-24 20:00,ZGSZ 242000Z 12005MPS 9999 -RA FEW036 27/25 Q1003 NOSIG
ZGSZ,2025-09-24 21:00,ZGSZ 242100Z 12004MPS 9999 FEW036 28/24 Q1003 NOSIG
ZGSZ,2025-09-24 22:00,ZGSZ 242200Z 10004MPS CAVOK 28/25 Q1004 NOSIG
ZGSZ,2025-09-24 23:00,ZGSZ 242300Z 10003MPS 9999 FEW026 SCT040 28/25 Q1005 NOSIG
ZGSZ,2025-09-25 00:00,ZGSZ 250000Z 11005MPS 9999 -RA FEW026 SCT040 28/25 Q1006 NOSIG
ZGSZ,2025-09-25 01:00,ZGSZ 250100Z 11005MPS 8000 -SHRA FEW020 BKN050 29/26 Q1007 NOSIG
ZGSZ,2025-09-25 02:00,ZGSZ 250200Z 14004MPS 9999 -SHRA FEW020 BKN050 30/26 Q1008 BECMG AT0220 SHRA
ZGSZ,2025-09-25 03:00,ZGSZ 250300Z 12006MPS 9999 FEW026 BKN050 31/26 Q1008 NOSIG
ZGSZ,2025-09-25 04:00,ZGSZ 250400Z 13008MPS 9999 FEW026 BKN050 31/24 Q1008 NOSIG
ZGSZ,2025-09-25 05:00,ZGSZ 250500Z 11008MPS 9999 -SHRA FEW020 BKN050 29/24 Q1008 NOSIG
ZGSZ,2025-09-25 06:00,ZGSZ 250600Z 11008G13MPS 9999 SHRA FEW020 FEW030CB BKN050 27/25 Q1008 BECMG AT0610 NSW FEW030
ZGSZ,2025-09-25 07:00,ZGSZ 250700Z 10006MPS 9999 FEW026 29/25 Q1008 NOSIG
ZGSZ,2025-09-25 08:00,ZGSZ 250800Z 11006MPS 9999 SCT026 30/25 Q1008 NOSIG
ZGSZ,2025-09-25 09:00,ZGSZ 250900Z 10007MPS 9999 FEW020 29/24 Q1009 NOSIG
ZGSZ,2025-09-25 10:00,ZGSZ 251000Z 11006MPS 9999 FEW020 29/24 Q1009 NOSIG
ZGSZ,2025-09-25 11:00,ZGSZ 251100Z 11005MPS 9999 FEW020 28/24 Q1010 NOSIG
ZGSZ,2025-09-25 12:00,ZGSZ 251200Z 10005MPS 9999 FEW020 28/24 Q1011 NOSIG
ZGSZ,2025-09-25 13:00,ZGSZ 251300Z 10006MPS 9999 FEW040 28/24 Q1012 NOSIG
ZGSZ,2025-09-25 14:00,ZGSZ 251400Z 11006MPS 9999 FEW040 28/24 Q1012 NOSIG
ZGSZ,2025-09-25 15:00,ZGSZ 251500Z 07003MPS 020V120 9999 FEW040 28/24 Q1012 NOSIG
ZGSZ,2025-09-25 16:00,ZGSZ 251600Z 05002MPS 010V110 9999 FEW040 28/24 Q1012 NOSIG
ZGSZ,2025-09-25 17:00,ZGSZ 251700Z 07002MPS 010V140 9999 FEW040 28/24 Q1012 NOSIG
ZGSZ,2025-09-25 18:00,ZGSZ 251800Z VRB02MPS 9999 SCT033 28/23 Q1012 NOSIG
ZGSZ,2025-09-25 19:00,ZGSZ 251900Z 05003MPS 030V090 9999 -SHRA SCT033 26/24 Q1012 NOSIG
ZGSZ,2025-09-25 20:00,ZGSZ 252000Z 03002MPS 020V080 9999 FEW033 26/24 Q1012 NOSIG
ZGSZ,2025-09-25 21:00,ZGSZ 252100Z 05003MPS 9999 BKN053 27/24 Q1012 NOSIG
ZGSZ,2025-09-25 22:00,ZGSZ 252200Z 04003MPS 9999 BKN053 27/24 Q1012 NOSIG
ZGSZ,2025-09-25 23:00,ZGSZ 252300Z 06003MPS 030V150 9999 BKN053 27/24 Q1013 NOSIG
ZGSZ,2025-09-26 00:00,ZGSZ 260000Z 04004MPS 020V080 9999 BKN053 28/24 Q1013 NOSIG
ZGSZ,2025-09-26 01:00,ZGSZ 260100Z 05005MPS 020V080 9999 SCT053 29/24 Q1014 NOSIG
ZGSZ,2025-09-26 02:00,ZGSZ 260200Z 06004MPS 010V110 9999 SCT026 30/24 Q1014 NOSIG
ZGSZ,2025-09-26 03:00,ZGSZ 260300Z 06005MPS 020V100 9999 SCT033 31/24 Q1014 NOSIG
ZGSZ,2025-09-26 04:00,ZGSZ 260400Z 06005MPS 030V090 9999 BKN033 32/25 Q1013 NOSIG
ZGSZ,2025-09-26 05:00,ZGSZ 260500Z 06004MPS 030V110 9999 SCT033 32/24 Q1012 NOSIG
ZGSZ,2025-09-26 06:00,ZGSZ 260600Z 06004G09MPS 030V090 9999 SCT040 33/24 Q1011 NOSIG
ZGSZ,2025-09-26 07:00,ZGSZ 260700Z 09003MPS 050V140 9999 FEW040 33/24 Q1011 NOSIG
ZGSZ,2025-09-26 08:00,ZGSZ 260800Z 06003MPS 010V100 9999 FEW040 34/24 Q1011 NOSIG
ZGSZ,2025-09-26 09:00,ZGSZ 260900Z 07003MPS 020V110 9999 SCT040 33/24 Q1011 NOSIG
ZGSZ,2025-09-26 10:00,ZGSZ 261000Z 14004MPS 060V180 8000 -SHRA FEW030TCU 30/25 Q1011 NOSIG
ZGSZ,2025-09-26 11:00,ZGSZ 261100Z VRB02MPS 8000 SHRA FEW030TCU 29/25 Q1012 BECMG AT1120 -SHRA
ZGSZ,2025-09-26 12:00,ZGSZ 261200Z 07002MPS 040V140 9999 FEW040 31/24 Q1012 NOSIG
ZGSZ,2025-09-26 13:00,ZGSZ 261300Z 14003MPS 090V180 9999 FEW040 30/26 Q1013 NOSIG
ZGSZ,2025-09-26 14:00,ZGSZ 261400Z 27002MPS CAVOK 28/26 Q1013 NOSIG
ZGSZ,2025-09-26 15:00,ZGSZ 261500Z 30001MPS CAVOK 28/26 Q1014 NOSIG
ZGSZ,2025-09-26 16:00,ZGSZ 261600Z VRB01MPS CAVOK 29/25 Q1013 NOSIG
ZGSZ,2025-09-26 17:00,ZGSZ 261700Z 13003MPS 110V170 CAVOK 29/25 Q1013 NOSIG
ZGSZ,2025-09-26 18:00,ZGSZ 261800Z 12004MPS 9999 SCT030 29/25 Q1013 NOSIG
ZGSZ,2025-09-26 19:00,ZGSZ 261900Z 11002MPS 080V140 9999 FEW040 29/25 Q1013 NOSIG
ZGSZ,2025-09-26 20:00,ZGSZ 262000Z 10003MPS 9999 FEW040 29/24 Q1013 NOSIG
ZGSZ,2025-09-26 21:00,ZGSZ 262100Z 07003MPS 030V120 9999 FEW053 29/24 Q1013 NOSIG
ZGSZ,2025-09-26 22:00,ZGSZ 262200Z 05002MPS 020V090 9999 FEW053 29/24 Q1013 NOSIG
ZGSZ,2025-09-26 23:00,ZGSZ 262300Z 07006MPS CAVOK 29/24 Q1013 NOSIG
ZGSZ,2025-09-27 00:00,ZGSZ 270000Z 09006MPS 060V120 CAVOK 30/24 Q1014 NOSIG
ZGSZ,2025-09-27 01:00,ZGSZ 270100Z 06007MPS 040V100 CAVOK 31/23 Q1014 NOSIG
ZGSZ,2025-09-27 02:00,ZGSZ 270200Z 05006MPS CAVOK 32/24 Q1014 NOSIG
ZGSZ,2025-09-27 03:00,ZGSZ 270300Z 05005MPS 030V100 9999 SCT020 33/24 Q1013 NOSIG
ZGSZ,2025-09-27 04:00,ZGSZ 270400Z 04005MPS 010V080 9999 SCT020 33/24 Q1012 NOSIG
ZGSZ,2025-09-27 05:00,ZGSZ 270500Z 06005MPS 030V120 9999 SCT020 34/24 Q1012 NOSIG
ZGSZ,2025-09-27 06:00,ZGSZ 270600Z 06004MPS 030V140 9999 FEW026 34/24 Q1011 NOSIG
ZGSZ,2025-09-27 07:00,ZGSZ 270700Z 10004MPS 070V150 9999 FEW026 35/24 Q1011 NOSIG
ZGSZ,2025-09-27 08:00,ZGSZ 270800Z 11006MPS 080V140 9999 SCT026 34/23 Q1011 NOSIG
ZGSZ,2025-09-27 09:00,ZGSZ 270900Z 11007MPS 080V140 9999 FEW026 34/23 Q1011 NOSIG
ZGSZ,2025-09-27 10:00,ZGSZ 271000Z 12007MPS 9999 FEW020 33/23 Q1011 NOSIG
ZGSZ,2025-09-27 11:00,ZGSZ 271100Z 10005MPS 070V140 9999 FEW020 32/23 Q1012 NOSIG
ZGSZ,2025-09-27 12:00,ZGSZ 271200Z 09006MPS 9999 FEW020 31/23 Q1012 NOSIG
ZGSZ,2025-09-27 13:00,ZGSZ 271300Z 09004MPS 060V120 CAVOK 31/23 Q1013 NOSIG
ZGSZ,2025-09-27 14:00,ZGSZ 271400Z 09003MPS 040V130 CAVOK 30/23 Q1013 NOSIG
ZGSZ,2025-09-27 15:00,ZGSZ 271500Z 08002MPS 360V130 CAVOK 30/23 Q1013 NOSIG
ZGSZ,2025-09-27 16:00,ZGSZ 271600Z 07003MPS 040V140 CAVOK 30/23 Q1013 NOSIG
ZGSZ,2025-09-27 17:00,ZGSZ 271700Z VRB03MPS CAVOK 29/23 Q1012 NOSIG
ZGSZ,2025-09-27 18:00,ZGSZ 271800Z 06004G09MPS 040V120 CAVOK 29/24 Q1011 NOSIG
ZGSZ,2025-09-27 19:00,ZGSZ 271900Z 08002MPS 050V120 CAVOK 28/24 Q1011 NOSIG
ZGSZ,2025-09-27 20:00,ZGSZ 272000Z 06004MPS 030V090 CAVOK 28/24 Q1011 NOSIG
ZGSZ,2025-09-27 21:00,ZGSZ 272100Z 09002MPS 030V150 CAVOK 28/23 Q1012 NOSIG
ZGSZ,2025-09-27 22:00,ZGSZ 272200Z 08002MPS 050V140 9999 FEW040 29/23 Q1012 NOSIG
ZGSZ,2025-09-27 23:00,ZGSZ 272300Z 05002MPS 030V120 9999 SCT040 29/23 Q1012 NOSIG
ZGSZ,2025-09-28 00:00,ZGSZ 280000Z 09003MPS 060V120 9999 SCT020 BKN050 30/23 Q1013 NOSIG
ZGSZ,2025-09-28 01:00,ZGSZ 280100Z 09004MPS 060V150 CAVOK 30/23 Q1014 NOSIG
ZGSZ,2025-09-28 02:00,ZGSZ 280200Z 09005MPS 040V150 9999 FEW026 31/24 Q1014 NOSIG
ZGSZ,2025-09-28 03:00,ZGSZ 280300Z 14005MPS 110V170 9999 FEW020TCU SCT026 BKN050 31/25 Q1014 BECMG AT0350 SHRA FEW020CB BKN030
ZGSZ,2025-09-28 04:00,ZGSZ 280400Z 12006MPS 7000 SHRA FEW016 FEW020CB BKN040 28/25 Q1014 BECMG AT0440 -SHRA BKN033
ZGSZ,2025-09-28 05:00,ZGSZ 280500Z 12004MPS 9999 SCT016 BKN050 30/25 Q1013 NOSIG
ZGSZ,2025-09-28 06:00,ZGSZ 280600Z 08005MPS 040V120 9999 FEW020 SCT040 31/25 Q1012 NOSIG
ZGSZ,2025-09-28 07:00,ZGSZ 280700Z 10006MPS 9999 FEW020 31/24 Q1011 NOSIG
ZGSZ,2025-09-28 08:00,ZGSZ 280800Z 09006MPS 060V120 CAVOK 32/24 Q1012 NOSIG
ZGSZ,2025-09-28 09:00,ZGSZ 280900Z 10006MPS CAVOK 31/23 Q1012 NOSIG
ZGSZ,2025-09-28 10:00,ZGSZ 281000Z 10005MPS CAVOK 30/23 Q1012 NOSIG
ZGSZ,2025-09-28 11:00,ZGSZ 281100Z 10004MPS 080V140 CAVOK 30/23 Q1012 NOSIG
ZGSZ,2025-09-28 12:00,ZGSZ 281200Z 11003MPS 060V140 CAVOK 29/23 Q1013 NOSIG
ZGSZ,2025-09-28 13:00,ZGSZ 281300Z 11003MPS CAVOK 29/24 Q1013 NOSIG
ZGSZ,2025-09-28 14:00,ZGSZ 281400Z 06003MPS 020V100 CAVOK 28/24 Q1013 NOSIG
ZGSZ,2025-09-28 15:00,ZGSZ 281500Z 06003MPS 030V100 CAVOK 29/24 Q1013 NOSIG
ZGSZ,2025-09-28 16:00,ZGSZ 281600Z 07003MPS 020V100 CAVOK 28/24 Q1012 NOSIG
ZGSZ,2025-09-28 17:00,ZGSZ 281700Z 09002MPS 030V150 CAVOK 28/23 Q1012 NOSIG
ZGSZ,2025-09-28 18:00,ZGSZ 281800Z 11004MPS 080V140 CAVOK 28/24 Q1011 NOSIG
ZGSZ,2025-09-28 19:00,ZGSZ 281900Z 14002MPS 110V170 9999 BKN026 27/24 Q1012 NOSIG
ZGSZ,2025-09-28 20:00,ZGSZ 282000Z 12003MPS 9999 BKN026 28/24 Q1011 NOSIG
ZGSZ,2025-09-28 21:00,ZGSZ 282100Z 12003MPS 9999 BKN050 28/24 Q1012 NOSIG
ZGSZ,2025-09-28 22:00,ZGSZ 282200Z 10002MPS CAVOK 27/24 Q1013 NOSIG
ZGSZ,2025-09-28 23:00,ZGSZ 282300Z 10003MPS 9999 FEW030 28/24 Q1014 NOSIG
ZGSZ,2025-09-29 00:00,ZGSZ 290000Z 10004MPS 070V130 9999 FEW030 29/25 Q1014 NOSIG
ZGSZ,2025-09-29 01:00,ZGSZ 290100Z 10004MPS 060V130 9999 FEW023 30/25 Q1015 NOSIG
ZGSZ,2025-09-29 02:00,ZGSZ 290200Z 22002MPS 9999 FEW030 30/25 Q1015 NOSIG
ZGSZ,2025-09-29 03:00,ZGSZ 290300Z 20002MPS 160V240 9999 FEW030 31/25 Q1014 NOSIG
ZGSZ,2025-09-29 04:00,ZGSZ 290400Z 25003MPS 9999 FEW030 31/26 Q1013 NOSIG
ZGSZ,2025-09-29 05:00,ZGSZ 290500Z 22004MPS 9999 FEW030 31/27 Q1013 NOSIG
ZGSZ,2025-09-29 06:00,ZGSZ 290600Z 22004MPS 9999 SCT030 31/26 Q1012 NOSIG
ZGSZ,2025-09-29 07:00,ZGSZ 290700Z 20005MPS 9999 FEW030 31/26 Q1011 NOSIG
ZGSZ,2025-09-29 08:00,ZGSZ 290800Z 20005MPS 9999 FEW030 30/26 Q1011 NOSIG
ZGSZ,2025-09-29 09:00,ZGSZ 290900Z 20005MPS 9999 FEW030 30/26 Q1012 NOSIG
ZGSZ,2025-09-29 10:00,ZGSZ 291000Z 20004MPS 9999 FEW030 29/26 Q1012 NOSIG
ZGSZ,2025-09-29 11:00,ZGSZ 291100Z 20005MPS 9999 FEW030 29/26 Q1012 NOSIG
ZGSZ,2025-09-29 12:00,ZGSZ 291200Z 19004MPS CAVOK 29/26 Q1012 NOSIG
ZGSZ,2025-09-29 13:00,ZGSZ 291300Z 19004MPS CAVOK 29/26 Q1013 NOSIG
ZGSZ,2025-09-29 14:00,ZGSZ 291400Z 18003MPS CAVOK 29/26 Q1013 NOSIG
ZGSZ,2025-09-29 15:00,ZGSZ 291500Z 17002MPS CAVOK 29/26 Q1013 NOSIG
ZGSZ,2025-09-29 16:00,ZGSZ 291600Z 22003MPS 9999 FEW015 29/26 Q1013 NOSIG
ZGSZ,2025-09-29 17:00,ZGSZ 291700Z 20003MPS 9999 FEW025 28/25 Q1013 NOSIG
ZGSZ,2025-09-29 18:00,ZGSZ 291800Z 20003MPS 9999 FEW025 28/26 Q1013 NOSIG
ZGSZ,2025-09-29 19:00,ZGSZ 291900Z 21003MPS 9999 FEW025 28/26 Q1013 NOSIG
ZGSZ,2025-09-29 20:00,ZGSZ 292000Z 21002MPS 9999 SCT014 28/25 Q1012 NOSIG
ZGSZ,2025-09-29 21:00,ZGSZ 292100Z 22002MPS 9999 SCT018 28/25 Q1012 NOSIG
ZGSZ,2025-09-29 22:00,ZGSZ 292200Z 30002MPS 9999 SCT020 27/25 Q1013 NOSIG
ZGSZ,2025-09-29 23:00,ZGSZ 292300Z 31002MPS 9999 SCT020 28/25 Q1013 NOSIG
ZGSZ,2025-09-30 00:00,ZGSZ 300000Z 35002MPS 320V020 9999 SCT020 29/25 Q1014 NOSIG
ZGSZ,2025-09-30 01:00,ZGSZ 300100Z 29003MPS 9999 SCT020 29/26 Q1014 NOSIG
ZGSZ,2025-09-30 02:00,ZGSZ 300200Z 28003MPS 9999 FEW020 30/26 Q1013 NOSIG
ZGSZ,2025-09-30 03:00,ZGSZ 300300Z 25003MPS 220V280 9999 FEW020 31/26 Q1013 NOSIG
ZGSZ,2025-09-30 04:00,ZGSZ 300400Z 24003MPS 9999 FEW020 31/26 Q1012 NOSIG
ZGSZ,2025-09-30 05:00,ZGSZ 300500Z 23003MPS 9999 FEW020 32/26 Q1012 NOSIG
ZGSZ,2025-09-30 06:00,ZGSZ 300600Z 23003MPS CAVOK 32/26 Q1011 NOSIG
ZGSZ,2025-09-30 07:00,ZGSZ 300700Z 20003MPS CAVOK 32/25 Q1010 NOSIG
ZGSZ,2025-09-30 08:00,ZGSZ 300800Z 19004MPS CAVOK 32/24 Q1010 NOSIG
ZGSZ,2025-09-30 09:00,ZGSZ 300900Z 18004MPS CAVOK 31/24 Q1010 NOSIG
ZGSZ,2025-09-30 10:00,ZGSZ 301000Z 18004MPS CAVOK 31/25 Q1010 NOSIG
ZGSZ,2025-09-30 11:00,ZGSZ 301100Z 17004MPS 9999 FEW026 30/25 Q1011 NOSIG
ZGSZ,2025-09-30 12:00,ZGSZ 301200Z 17004MPS 9999 FEW026 30/26 Q1011 NOSIG
ZGSZ,2025-09-30 13:00,ZGSZ 301300Z 17004MPS 9999 FEW026 29/27 Q1012 NOSIG
ZGSZ,2025-09-30 14:00,ZGSZ 301400Z 18004MPS 9999 FEW026 29/26 Q1012 NOSIG
ZGSZ,2025-09-30 15:00,ZGSZ 301500Z 17004MPS 9999 FEW026 29/26 Q1012 NOSIG
ZGSZ,2025-09-30 16:00,ZGSZ 301600Z 16004MPS CAVOK 29/26 Q1012 NOSIG
ZGSZ,2025-09-30 17:00,ZGSZ 301700Z 17004MPS CAVOK 29/26 Q1012 NOSIG
ZGSZ,2025-09-30 18:00,ZGSZ 301800Z 17004MPS CAVOK 29/26 Q1012 NOSIG
ZGSZ,2025-09-30 19:00,ZGSZ 301900Z 18003MPS CAVOK 29/26 Q1012 NOSIG
ZGSZ,2025-09-30 20:00,ZGSZ 302000Z 20004MPS 9999 FEW026TCU SCT040 29/25 Q1011 BECMG AT2010 SHRA
ZGSZ,2025-09-30 21:00,ZGSZ 302100Z VRB01MPS 9999 -SHRA FEW016 26/24 Q1012 RESHRA NOSIG
ZGSZ,2025-09-30 22:00,ZGSZ 302200Z VRB01MPS 9999 FEW053 26/24 Q1012 NOSIG
ZGSZ,2025-09-30 23:00,ZGSZ 302300Z 16003MPS 9999 FEW053 28/25 Q1012 NOSIG
ZGSZ,2025-10-01 00:00,ZGSZ 010000Z 16003MPS 9999 SCT040 29/25 Q1012 NOSIG
ZGSZ,2025-10-01 01:00,ZGSZ 010100Z 17004MPS 9999 FEW043 30/25 Q1012 NOSIG
ZGSZ,2025-10-01 02:00,ZGSZ 010200Z 19004MPS 9999 FEW043 30/25 Q1013 NOSIG
ZGSZ,2025-10-01 03:00,ZGSZ 010300Z 22003MPS 9999 FEW043 31/25 Q1013 NOSIG
ZGSZ,2025-10-01 04:00,ZGSZ 010400Z 21003MPS 9999 FEW040 31/25 Q1012 NOSIG
ZGSZ,2025-10-01 05:00,ZGSZ 010500Z 21004MPS 9999 FEW040 32/24 Q1011 NOSIG
ZGSZ,2025-10-01 06:00,ZGSZ 010600Z 20004MPS 9999 FEW040 32/23 Q1010 NOSIG
ZGSZ,2025-10-01 07:00,ZGSZ 010700Z 19005MPS 9999 FEW040 32/24 Q1010 NOSIG
ZGSZ,2025-10-01 08:00,ZGSZ 010800Z 18006MPS 9999 FEW040 31/24 Q1010 NOSIG
ZGSZ,2025-10-01 09:00,ZGSZ 010900Z 18006MPS 9999 FEW040 31/24 Q1010 NOSIG
ZGSZ,2025-10-01 10:00,ZGSZ 011000Z 18006MPS CAVOK 30/24 Q1011 NOSIG
ZGSZ,2025-10-01 11:00,ZGSZ 011100Z 18006MPS CAVOK 30/24 Q1011 NOSIG
ZGSZ,2025-10-01 12:00,ZGSZ 011200Z 18005MPS CAVOK 29/25 Q1012 NOSIG
ZGSZ,2025-10-01 13:00,ZGSZ 011300Z 16006MPS CAVOK 29/23 Q1013 NOSIG
ZGSZ,2025-10-01 14:00,ZGSZ 011400Z 17003MPS CAVOK 29/23 Q1013 NOSIG
ZGSZ,2025-10-01 15:00,ZGSZ 011500Z 16003MPS CAVOK 28/23 Q1013 NOSIG
ZGSZ,2025-10-01 16:00,ZGSZ 011600Z 08002MPS 040V170 CAVOK 28/23 Q1013 NOSIG
ZGSZ,2025-10-01 17:00,ZGSZ 011700Z 08002MPS 040V130 CAVOK 28/23 Q1013 NOSIG
ZGSZ,2025-10-01 18:00,ZGSZ 011800Z 09002MPS 060V140 CAVOK 28/23 Q1012 NOSIG
ZGSZ,2025-10-01 19:00,ZGSZ 011900Z 07002MPS CAVOK 27/23 Q1012 NOSIG
ZGSZ,2025-10-01 20:00,ZGSZ 012000Z 07002MPS 050V110 CAVOK 27/24 Q1012 NOSIG
ZGSZ,2025-10-01 21:00,ZGSZ 012100Z 09002MPS 040V140 CAVOK 27/24 Q1012 NOSIG
ZGSZ,2025-10-01 22:00,ZGSZ 012200Z 08002MPS 060V140 9999 FEW040 27/24 Q1013 NOSIG
ZGSZ,2025-10-01 23:00,ZGSZ 012300Z VRB01MPS CAVOK 28/24 Q1013 NOSIG
ZGSZ,2025-10-02 00:00,ZGSZ 020000Z 06002MPS 020V160 CAVOK 29/24 Q1014 NOSIG
ZGSZ,2025-10-02 01:00,ZGSZ 020100Z VRB01MPS 9999 SCT020 30/24 Q1014 NOSIG
ZGSZ,2025-10-02 02:00,ZGSZ 020200Z 26002MPS 210V290 9999 BKN023 30/24 Q1014 NOSIG
ZGSZ,2025-10-02 03:00,ZGSZ 020300Z 26003MPS 9999 FEW030 31/25 Q1014 NOSIG
ZGSZ,2025-10-02 04:00,ZGSZ 020400Z 24003MPS 9999 SCT030 31/25 Q1013 NOSIG
ZGSZ,2025-10-02 05:00,ZGSZ 020500Z 23004MPS 200V260 9999 SCT030 31/24 Q1012 NOSIG
ZGSZ,2025-10-02 06:00,ZGSZ 020600Z 22004MPS 9999 FEW030 31/25 Q1012 NOSIG
ZGSZ,2025-10-02 07:00,ZGSZ 020700Z 21005MPS 9999 FEW050 31/25 Q1011 NOSIG
ZGSZ,2025-10-02 08:00,ZGSZ 020800Z 20005MPS 9999 FEW030 31/25 Q1011 NOSIG
ZGSZ,2025-10-02 09:00,ZGSZ 020900Z 19005MPS 9999 FEW030 30/25 Q1011 NOSIG
ZGSZ,2025-10-02 10:00,ZGSZ 021000Z 20005MPS 9999 FEW030 30/25 Q1011 NOSIG
ZGSZ,2025-10-02 11:00,ZGSZ 021100Z 17006MPS 9999 FEW030 30/25 Q1011 NOSIG
ZGSZ,2025-10-02 12:00,ZGSZ 021200Z 17005MPS CAVOK 29/25 Q1012 NOSIG
ZGSZ,2025-10-02 13:00,ZGSZ 021300Z 16004MPS 9999 FEW033 29/24 Q1013 NOSIG
ZGSZ,2025-10-02 14:00,ZGSZ 021400Z 11004MPS CAVOK 29/24 Q1013 NOSIG
ZGSZ,2025-10-02 15:00,ZGSZ 021500Z 10004MPS 080V140 CAVOK 28/24 Q1013 NOSIG
ZGSZ,2025-10-02 16:00,ZGSZ 021600Z 11004MPS CAVOK 28/24 Q1013 NOSIG
ZGSZ,2025-10-02 17:00,ZGSZ 021700Z 10002MPS 070V130 CAVOK 28/24 Q1012 NOSIG
ZGSZ,2025-10-02 18:00,ZGSZ 021800Z 10002MPS CAVOK 28/24 Q1012 NOSIG
ZGSZ,2025-10-02 19:00,ZGSZ 021900Z 07002MPS 9999 FEW025 27/24 Q1011 NOSIG
ZGSZ,2025-10-02 20:00,ZGSZ 022000Z 06002MPS 9999 FEW020 27/24 Q1011 NOSIG
ZGSZ,2025-10-02 21:00,ZGSZ 022100Z 07001MPS 9999 FEW020 27/24 Q1012 NOSIG
ZGSZ,2025-10-02 22:00,ZGSZ 022200Z 08002MPS 9999 FEW020 27/24 Q1012 NOSIG
ZGSZ,2025-10-02 23:00,ZGSZ 022300Z 07002MPS 050V110 CAVOK 28/24 Q1013 NOSIG
ZGSZ,2025-10-03 00:00,ZGSZ 030000Z 08002MPS 030V120 9999 FEW030 29/24 Q1013 NOSIG
ZGSZ,2025-10-03 01:00,ZGSZ 030100Z VRB02MPS 9999 FEW030 30/24 Q1014 NOSIG
ZGSZ,2025-10-03 02:00,ZGSZ 030200Z 32002MPS 9999 FEW030 31/24 Q1014 NOSIG
ZGSZ,2025-10-03 03:00,ZGSZ 030300Z 25003MPS 9999 FEW030 30/24 Q1014 NOSIG
ZGSZ,2025-10-03 04:00,ZGSZ 030400Z 25004MPS 9999 SCT030 31/24 Q1013 NOSIG
ZGSZ,2025-10-03 05:00,ZGSZ 030500Z 24004MPS 9999 SCT030 32/25 Q1012 NOSIG
ZGSZ,2025-10-03 06:00,ZGSZ 030600Z 22005MPS 9999 FEW030 32/25 Q1011 NOSIG
ZGSZ,2025-10-03 07:00,ZGSZ 030700Z 21005MPS 9999 FEW030 31/24 Q1011 NOSIG
ZGSZ,2025-10-03 08:00,ZGSZ 030800Z 18005MPS 9999 FEW030 31/25 Q1010 NOSIG
ZGSZ,2025-10-03 09:00,ZGSZ 030900Z 18005MPS 9999 FEW030 31/25 Q1011 NOSIG
ZGSZ,2025-10-03 10:00,ZGSZ 031000Z 19005MPS 9999 FEW030 30/24 Q1011 NOSIG
ZGSZ,2025-10-03 11:00,ZGSZ 031100Z 19004MPS 9999 FEW030 30/24 Q1012 NOSIG
ZGSZ,2025-10-03 12:00,ZGSZ 031200Z 19003MPS 9999 FEW030 30/24 Q1012 NOSIG
ZGSZ,2025-10-03 13:00,ZGSZ 031300Z 19002MPS CAVOK 29/25 Q1012 NOSIG
ZGSZ,2025-10-03 14:00,ZGSZ 031400Z 22002MPS CAVOK 29/24 Q1013 NOSIG
ZGSZ,2025-10-03 15:00,ZGSZ 031500Z 26001MPS CAVOK 29/25 Q1013 NOSIG
ZGSZ,2025-10-03 16:00,ZGSZ 031600Z 29001MPS CAVOK 29/24 Q1012 NOSIG
ZGSZ,2025-10-03 17:00,ZGSZ 031700Z VRB01MPS CAVOK 29/24 Q1012 NOSIG
ZGSZ,2025-10-03 18:00,ZGSZ 031800Z 34002MPS 310V020 CAVOK 28/23 Q1012 NOSIG
ZGSZ,2025-10-03 19:00,ZGSZ 031900Z 32002MPS CAVOK 28/23 Q1011 NOSIG
ZGSZ,2025-10-03 20:00,ZGSZ 032000Z 34003MPS CAVOK 28/24 Q1011 NOSIG
ZGSZ,2025-10-03 21:00,ZGSZ 032100Z 34003MPS 310V040 CAVOK 28/23 Q1010 NOSIG
ZGSZ,2025-10-03 22:00,ZGSZ 032200Z 36003G08MPS 270V060 CAVOK 29/23 Q1011 NOSIG
ZGSZ,2025-10-03 23:00,ZGSZ 032300Z 06002MPS CAVOK 28/24 Q1012 NOSIG
ZGSZ,2025-10-04 00:00,ZGSZ 040000Z 02005MPS CAVOK 30/24 Q1012 NOSIG
ZGSZ,2025-10-04 01:00,ZGSZ 040100Z 04004MPS 360V060 CAVOK 31/24 Q1012 NOSIG
ZGSZ,2025-10-04 02:00,ZGSZ 040200Z 05004MPS CAVOK 32/24 Q1012 NOSIG
ZGSZ,2025-10-04 03:00,ZGSZ 040300Z 03006MPS 9999 FEW040 33/24 Q1012 NOSIG
ZGSZ,2025-10-04 04:00,ZGSZ 040400Z VRB03G08MPS 9999 SCT040 33/23 Q1011 NOSIG
ZGSZ,2025-10-04 05:00,ZGSZ 040500Z 05005MPS 9999 SCT040 34/22 Q1010 NOSIG
ZGSZ,2025-10-04 06:00,ZGSZ 040600Z 07004MPS 020V130 9999 BKN040 34/22 Q1009 NOSIG
ZGSZ,2025-10-04 07:00,ZGSZ 040700Z 06005MPS 9999 SCT040 35/22 Q1008 NOSIG
ZGSZ,2025-10-04 08:00,ZGSZ 040800Z 04003MPS 010V070 9999 FEW016 FEW020CB BKN040 31/24 Q1008 RESHRA BECMG AT0815 SHRA
ZGSZ,2025-10-04 09:00,ZGSZ 040900Z 08006G12MPS 9000 SHRA FEW016 FEW026CB SCT040 28/24 Q1009 RETS BECMG AT0920 -SHRA FEW020 BKN040
ZGSZ,2025-10-04 10:00,ZGSZ 041000Z 09006MPS 9999 SCT046 29/24 Q1009 NOSIG
ZGSZ,2025-10-04 11:00,ZGSZ 041100Z 08007MPS 9999 SCT043 29/24 Q1010 NOSIG
ZGSZ,2025-10-04 12:00,ZGSZ 041200Z 06006MPS 040V110 9999 -SHRA SCT043 29/24 Q1010 NOSIG
ZGSZ,2025-10-04 13:00,ZGSZ 041300Z 07007MPS 9999 FEW043 29/23 Q1010 NOSIG
ZGSZ,2025-10-04 14:00,ZGSZ 041400Z 07006MPS 040V110 9999 FEW043 29/23 Q1011 NOSIG
ZGSZ,2025-10-04 15:00,ZGSZ 041500Z 06006G12MPS 030V090 9999 FEW040 29/23 Q1010 NOSIG
ZGSZ,2025-10-04 16:00,ZGSZ 041600Z 07006MPS 040V100 9999 FEW040 29/23 Q1010 NOSIG
ZGSZ,2025-10-04 17:00,ZGSZ 041700Z 07008MPS CAVOK 29/23 Q1009 NOSIG
ZGSZ,2025-10-04 18:00,ZGSZ 041800Z 06006MPS CAVOK 28/23 Q1009 BECMG AT1950 SHRA FEW018 FEW020CB
ZGSZ,2025-10-04 19:00,ZGSZ 041900Z 08006MPS 050V120 9000 -SHRA FEW026 SCT040 28/23 Q1009 BECMG AT1930 SHRA FEW018 FEW020CB
ZGSZ,2025-10-04 20:00,ZGSZ 042000Z 09007MPS 9999 SCT050 28/23 Q1008 RESHRA NOSIG
ZGSZ,2025-10-04 21:00,ZGSZ 042100Z 10009MPS 9999 SCT050 28/23 Q1008 NOSIG
ZGSZ,2025-10-04 22:00,ZGSZ 042200Z 10008MPS 9999 -SHRA SCT040 27/24 Q1008 RESHRA BECMG AT2220 SHRA
ZGSZ,2025-10-04 23:00,ZGSZ 042300Z 10008MPS 9999 SCT030 27/24 Q1009 RESHRA NOSIG
ZGSZ,2025-10-05 00:00,ZGSZ 050000Z 10007MPS 9999 SCT030 29/24 Q1010 NOSIG
ZGSZ,2025-10-05 01:00,ZGSZ 050100Z 10009MPS 9999 FEW026TCU SCT033 30/24 Q1010 BECMG AT0120 18010G18MPS 1000 +TSRA FEW012 FEW020CB BKN030
ZGSZ,2025-10-05 02:00,ZGSZ 050200Z 15007MPS 9999 -SHRA FEW020 FEW026CB BKN033 27/24 Q1011 RESHRA BECMG AT0340 SHRA
ZGSZ,2025-10-05 03:00,ZGSZ 050300Z 11010MPS 9999 FEW020 BKN040 30/24 Q1011 BECMG AT0340 SHRA SCT012 FEW020CB BKN030
ZGSZ,2025-10-05 04:00,ZGSZ 050400Z 12007MPS 080V140 9999 SCT026 BKN050 30/24 Q1011 NOSIG
ZGSZ,2025-10-05 05:00,ZGSZ 050500Z 11009MPS 9999 FEW026 31/24 Q1010 NOSIG
ZGSZ,2025-10-05 06:00,ZGSZ 050600Z 12009MPS 9999 SCT033 31/23 Q1010 NOSIG
ZGSZ,2025-10-05 07:00,ZGSZ 050700Z 11008MPS 9999 SCT033 31/23 Q1009 NOSIG
ZGSZ,2025-10-05 08:00,ZGSZ 050800Z 11007MPS 090V150 9999 SCT033 31/24 Q1009 NOSIG
ZGSZ,2025-10-05 09:00,ZGSZ 050900Z 11006MPS 080V140 9999 SCT033 31/24 Q1010 NOSIG
ZGSZ,2025-10-05 10:00,ZGSZ 051000Z 13007MPS 9999 SCT026 30/23 Q1010 NOSIG
ZGSZ,2025-10-05 11:00,ZGSZ 051100Z 11005MPS 9999 FEW033 29/24 Q1011 NOSIG
ZGSZ,2025-10-05 12:00,ZGSZ 051200Z 12005MPS 9999 FEW033 29/23 Q1011 NOSIG
ZGSZ,2025-10-05 13:00,ZGSZ 051300Z 10005MPS 070V130 9999 FEW030 29/24 Q1012 NOSIG
ZGSZ,2025-10-05 14:00,ZGSZ 051400Z 09004MPS 060V130 9999 FEW030 29/24 Q1012 NOSIG
ZGSZ,2025-10-05 15:00,ZGSZ 051500Z 10004MPS 9999 FEW030 28/24 Q1012 NOSIG
ZGSZ,2025-10-05 16:00,ZGSZ 051600Z 10005MPS 9999 FEW030 28/24 Q1012 NOSIG
ZGSZ,2025-10-05 17:00,ZGSZ 051700Z 11005MPS 080V140 9999 FEW030 28/24 Q1011 NOSIG
ZGSZ,2025-10-05 18:00,ZGSZ 051800Z 12004MPS 9999 FEW030 28/24 Q1011 NOSIG
ZGSZ,2025-10-05 19:00,ZGSZ 051900Z 10004MPS 9999 FEW030 28/24 Q1010 NOSIG
ZGSZ,2025-10-05 20:00,ZGSZ 052000Z 12004MPS 9999 FEW040 28/24 Q1010 NOSIG
ZGSZ,2025-10-05 21:00,ZGSZ 052100Z 10003MPS 9999 SCT030 28/24 Q1011 NOSIG
ZGSZ,2025-10-05 22:00,ZGSZ 052200Z 12004MPS 9999 SCT030 28/24 Q1011 NOSIG
ZGSZ,2025-10-05 23:00,ZGSZ 052300Z 10004MPS 9999 FEW020 SCT040 27/24 Q1012 NOSIG
ZGSZ,2025-10-06 00:00,ZGSZ 060000Z 11005MPS 9999 SCT033 29/24 Q1012 NOSIG
ZGSZ,2025-10-06 01:00,ZGSZ 060100Z 10006MPS 070V130 9999 SCT023 SCT040 30/24 Q1013 NOSIG
ZGSZ,2025-10-06 02:00,ZGSZ 060200Z 11005MPS 070V140 9999 SCT026 SCT040 30/24 Q1013 NOSIG
ZGSZ,2025-10-06 03:00,ZGSZ 060300Z 12005MPS 090V150 9999 SCT026 SCT040 31/24 Q1014 NOSIG
ZGSZ,2025-10-06 04:00,ZGSZ 060400Z 19005MPS 9999 BKN030 30/25 Q1013 NOSIG
ZGSZ,2025-10-06 05:00,ZGSZ 060500Z 19006MPS 9999 BKN030 31/25 Q1013 NOSIG
ZGSZ,2025-10-06 06:00,ZGSZ 060600Z 19006MPS 9999 BKN030 30/25 Q1012 NOSIG
ZGSZ,2025-10-06 07:00,ZGSZ 060700Z 18006MPS 9999 SCT033 31/25 Q1011 NOSIG
ZGSZ,2025-10-06 08:00,ZGSZ 060800Z 19006MPS 9999 BKN033 31/25 Q1011 NOSIG
ZGSZ,2025-10-06 09:00,ZGSZ 060900Z 19005MPS 9999 SCT040 30/24 Q1012 NOSIG
ZGSZ,2025-10-06 10:00,ZGSZ 061000Z 19005MPS 9999 SCT040 29/25 Q1012 BECMG AT1130 12005MPS
ZGSZ,2025-10-06 11:00,ZGSZ 061100Z 20005MPS 9999 SCT040 29/26 Q1012 BECMG AT1130 12005MPS
ZGSZ,2025-10-06 12:00,ZGSZ 061200Z 06002MPS 020V100 9999 FEW040 29/23 Q1014 NOSIG
ZGSZ,2025-10-06 13:00,ZGSZ 061300Z VRB01MPS 9999 FEW040 29/23 Q1014 NOSIG
ZGSZ,2025-10-06 14:00,ZGSZ 061400Z 16003MPS 9999 FEW040 28/24 Q1014 NOSIG
ZGSZ,2025-10-06 15:00,ZGSZ 061500Z 12003MPS 9999 FEW040 28/23 Q1014 NOSIG
ZGSZ,2025-10-06 16:00,ZGSZ 061600Z 08002MPS 030V140 CAVOK 28/23 Q1014 NOSIG
ZGSZ,2025-10-06 17:00,ZGSZ 061700Z 11003MPS CAVOK 28/23 Q1014 NOSIG
ZGSZ,2025-10-06 18:00,ZGSZ 061800Z 09001MPS 9999 SCT050 28/23 Q1013 NOSIG
ZGSZ,2025-10-06 19:00,ZGSZ 061900Z VRB01MPS 9999 SCT050 28/23 Q1013 NOSIG
ZGSZ,2025-10-06 20:00,ZGSZ 062000Z 08002MPS 030V130 9999 FEW050 27/23 Q1012 NOSIG
ZGSZ,2025-10-06 21:00,ZGSZ 062100Z VRB01MPS CAVOK 28/23 Q1013 NOSIG
ZGSZ,2025-10-06 22:00,ZGSZ 062200Z 06002MPS 350V130 CAVOK 27/24 Q1013 NOSIG
ZGSZ,2025-10-06 23:00,ZGSZ 062300Z VRB01MPS CAVOK 28/23 Q1013 NOSIG
ZGSZ,2025-10-07 00:00,ZGSZ 070000Z 04003MPS 010V120 CAVOK 29/24 Q1014 NOSIG
ZGSZ,2025-10-07 01:00,ZGSZ 070100Z 28002MPS 250V320 CAVOK 30/24 Q1015 NOSIG
ZGSZ,2025-10-07 02:00,ZGSZ 070200Z 28004MPS CAVOK 30/24 Q1015 NOSIG
ZGSZ,2025-10-07 03:00,ZGSZ 070300Z 28004MPS CAVOK 31/25 Q1014 NOSIG
ZGSZ,2025-10-07 04:00,ZGSZ 070400Z 27004MPS 9999 FEW026 31/24 Q1014 NOSIG
ZGSZ,2025-10-07 05:00,ZGSZ 070500Z 28003MPS 9999 FEW026 32/25 Q1013 NOSIG
ZGSZ,2025-10-07 06:00,ZGSZ 070600Z 26003MPS 9999 FEW026 32/25 Q1012 NOSIG
ZGSZ,2025-10-07 07:00,ZGSZ 070700Z 23003MPS 9999 FEW033 33/24 Q1012 NOSIG
ZGSZ,2025-10-07 08:00,ZGSZ 070800Z 20004MPS 9999 FEW033 32/24 Q1011 NOSIG
ZGSZ,2025-10-07 09:00,ZGSZ 070900Z 18004MPS 9999 SCT050 31/25 Q1011 NOSIG
ZGSZ,2025-10-07 10:00,ZGSZ 071000Z 17005MPS 9999 SCT050 31/25 Q1012 NOSIG
ZGSZ,2025-10-07 11:00,ZGSZ 071100Z 16004MPS 9999 SCT050 30/26 Q1012 NOSIG
ZGSZ,2025-10-07 12:00,ZGSZ 071200Z 18004MPS 9999 FEW050 30/25 Q1013 NOSIG
ZGSZ,2025-10-07 13:00,ZGSZ 071300Z 17004MPS 9999 FEW050 30/24 Q1014 NOSIG
ZGSZ,2025-10-07 14:00,ZGSZ 071400Z 11003MPS 080V140 9999 FEW050 30/23 Q1014 NOSIG
ZGSZ,2025-10-07 15:00,ZGSZ 071500Z 11003MPS 080V140 9999 FEW050 30/23 Q1014 NOSIG
ZGSZ,2025-10-07 16:00,ZGSZ 071600Z 10002MPS 070V140 CAVOK 29/23 Q1014 NOSIG
ZGSZ,2025-10-07 17:00,ZGSZ 071700Z 12002MPS 9999 FEW040 30/22 Q1013 NOSIG
ZGSZ,2025-10-07 18:00,ZGSZ 071800Z 11002MPS 9999 FEW040 29/22 Q1013 NOSIG
ZGSZ,2025-10-07 19:00,ZGSZ 071900Z 10002MPS 9999 FEW040 28/22 Q1013 NOSIG
ZGSZ,2025-10-07 20:00,ZGSZ 072000Z 07002MPS 9999 FEW040 28/23 Q1012 NOSIG
ZGSZ,2025-10-07 21:00,ZGSZ 072100Z 08001MPS CAVOK 28/23 Q1012 NOSIG
ZGSZ,2025-10-07 22:00,ZGSZ 072200Z VRB01MPS CAVOK 28/22 Q1013 NOSIG
ZGSZ,2025-10-07 23:00,ZGSZ 072300Z 03002MPS 340V080 CAVOK 29/23 Q1013 NOSIG
ZGSZ,2025-10-08 00:00,ZGSZ 080000Z 03003MPS 010V090 CAVOK 30/23 Q1014 NOSIG
ZGSZ,2025-10-08 01:00,ZGSZ 080100Z 08003MPS 010V120 CAVOK 31/23 Q1014 NOSIG
ZGSZ,2025-10-08 02:00,ZGSZ 080200Z 09003MPS 060V140 CAVOK 32/24 Q1014 NOSIG
ZGSZ,2025-10-08 03:00,ZGSZ 080300Z 25004MPS 9999 SCT040 31/24 Q1014 NOSIG
ZGSZ,2025-10-08 04:00,ZGSZ 080400Z 26003MPS CAVOK 31/24 Q1013 NOSIG
ZGSZ,2025-10-08 05:00,ZGSZ 080500Z 22004MPS CAVOK 32/25 Q1012 NOSIG
ZGSZ,2025-10-08 06:00,ZGSZ 080600Z 20004MPS 9999 FEW050 32/25 Q1011 NOSIG
ZGSZ,2025-10-08 07:00,ZGSZ 080700Z 18006MPS 9999 FEW050 31/25 Q1011 NOSIG
ZGSZ,2025-10-08 08:00,ZGSZ 080800Z 18005MPS 9999 SCT040 31/25 Q1011 NOSIG
ZGSZ,2025-10-08 09:00,ZGSZ 080900Z 19004MPS 9999 SCT040 31/24 Q1011 NOSIG
ZGSZ,2025-10-08 10:00,ZGSZ 081000Z 19003MPS 9999 SCT050 30/25 Q1011 NOSIG
ZGSZ,2025-10-08 11:00,ZGSZ 081100Z 20002MPS CAVOK 30/25 Q1011 NOSIG
ZGSZ,2025-10-08 12:00,ZGSZ 081200Z 10004MPS CAVOK 30/23 Q1012 NOSIG
ZGSZ,2025-10-08 13:00,ZGSZ 081300Z 10004MPS CAVOK 30/23 Q1012 NOSIG
ZGSZ,2025-10-08 14:00,ZGSZ 081400Z 12003MPS 070V140 CAVOK 30/24 Q1013 NOSIG
ZGSZ,2025-10-08 15:00,ZGSZ 081500Z 07002MPS 040V190 CAVOK 29/24 Q1013 NOSIG
ZGSZ,2025-10-08 16:00,ZGSZ 081600Z 10003MPS 060V140 CAVOK 29/24 Q1013 NOSIG
ZGSZ,2025-10-08 17:00,ZGSZ 081700Z 08002MPS 040V150 CAVOK 29/24 Q1012 NOSIG
ZGSZ,2025-10-08 18:00,ZGSZ 081800Z 09002MPS 060V120 CAVOK 29/24 Q1012 NOSIG
ZGSZ,2025-10-08 19:00,ZGSZ 081900Z VRB01MPS CAVOK 28/23 Q1012 NOSIG
ZGSZ,2025-10-08 20:00,ZGSZ 082000Z VRB01MPS CAVOK 28/24 Q1012 NOSIG
ZGSZ,2025-10-08 21:00,ZGSZ 082100Z 08002MPS 030V150 CAVOK 28/24 Q1012 NOSIG
ZGSZ,2025-10-08 22:00,ZGSZ 082200Z 09002MPS 050V160 CAVOK 28/24 Q1013 NOSIG
ZGSZ,2025-10-08 23:00,ZGSZ 082300Z VRB01MPS CAVOK 29/24 Q1013 NOSIG
ZGSZ,2025-10-09 00:00,ZGSZ 090000Z 06002MPS 010V110 CAVOK 29/24 Q1013 NOSIG
ZGSZ,2025-10-09 01:00,ZGSZ 090100Z 10002MPS 040V140 9999 FEW030 30/24 Q1014 NOSIG
ZGSZ,2025-10-09 02:00,ZGSZ 090200Z 07002MPS 010V120 9999 SCT030 31/24 Q1014 NOSIG
ZGSZ,2025-10-09 03:00,ZGSZ 090300Z 10002MPS 020V160 9999 BKN040 32/24 Q1013 NOSIG
ZGSZ,2025-10-09 04:00,ZGSZ 090400Z 25005MPS 9999 BKN040 31/25 Q1013 BECMG AT0530 18005MPS
ZGSZ,2025-10-09 05:00,ZGSZ 090500Z 26005MPS 9999 SHRA FEW030CB SCT040 31/25 Q1012 BECMG AT0530 18005MPS -SHRA
ZGSZ,2025-10-09 06:00,ZGSZ 090600Z 26003MPS 9999 BKN040 30/25 Q1011 RESHRA BECMG AT0700 18005MPS
ZGSZ,2025-10-09 07:00,ZGSZ 090700Z 22003MPS 9999 BKN040 30/25 Q1011 NOSIG
ZGSZ,2025-10-09 08:00,ZGSZ 090800Z 20005MPS 9999 SCT050 31/25 Q1010 NOSIG
ZGSZ,2025-10-09 09:00,ZGSZ 090900Z 21004MPS 9999 SCT050 31/25 Q1010 NOSIG
ZGSZ,2025-10-09 10:00,ZGSZ 091000Z 21004MPS 9999 FEW050 30/25 Q1011 NOSIG
ZGSZ,2025-10-09 11:00,ZGSZ 091100Z 12005MPS CAVOK 30/23 Q1011 NOSIG
ZGSZ,2025-10-09 12:00,ZGSZ 091200Z 12006MPS CAVOK 30/22 Q1012 NOSIG
ZGSZ,2025-10-09 13:00,ZGSZ 091300Z 12004MPS CAVOK 30/22 Q1012 NOSIG
ZGSZ,2025-10-09 14:00,ZGSZ 091400Z 12004MPS CAVOK 29/22 Q1012 NOSIG
ZGSZ,2025-10-09 15:00,ZGSZ 091500Z 11004MPS CAVOK 29/22 Q1012 NOSIG
ZGSZ,2025-10-09 16:00,ZGSZ 091600Z 11004MPS 080V140 9999 FEW040 29/22 Q1012 NOSIG
ZGSZ,2025-10-09 17:00,ZGSZ 091700Z 10002MPS 050V140 9999 SCT040 28/23 Q1012 NOSIG
ZGSZ,2025-10-09 18:00,ZGSZ 091800Z 10003MPS 9999 SCT046 28/23 Q1012 NOSIG
ZGSZ,2025-10-09 19:00,ZGSZ 091900Z 08002MPS 9999 SCT046 28/23 Q1011 NOSIG
ZGSZ,2025-10-09 20:00,ZGSZ 092000Z 08002MPS 9999 SCT050 28/23 Q1011 NOSIG
ZGSZ,2025-10-09 21:00,ZGSZ 092100Z 10003MPS 9999 SCT040 28/23 Q1012 NOSIG
ZGSZ,2025-10-09 22:00,ZGSZ 092200Z 09003MPS 9999 SCT040 28/23 Q1012 NOSIG
ZGSZ,2025-10-09 23:00,ZGSZ 092300Z 09002MPS 060V150 9999 BKN040 28/24 Q1012 NOSIG
ZGSZ,2025-10-10 00:00,ZGSZ 100000Z VRB02MPS 9999 FEW040 29/23 Q1013 NOSIG
ZGSZ,2025-10-10 01:00,ZGSZ 100100Z VRB02MPS 9999 FEW033 30/23 Q1013 NOSIG
ZGSZ,2025-10-10 02:00,ZGSZ 100200Z VRB01MPS 9999 FEW033 30/24 Q1013 NOSIG
ZGSZ,2025-10-10 03:00,ZGSZ 100300Z 25003MPS 9999 BKN033 30/24 Q1013 NOSIG
ZGSZ,2025-10-10 04:00,ZGSZ 100400Z 25003MPS 9999 BKN033 30/24 Q1012 NOSIG
ZGSZ,2025-10-10 05:00,ZGSZ 100500Z 20004MPS 9999 SCT050 30/24 Q1011 NOSIG
ZGSZ,2025-10-10 06:00,ZGSZ 100600Z 19005MPS 9999 SCT050 31/25 Q1011 NOSIG
ZGSZ,2025-10-10 07:00,ZGSZ 100700Z 20005MPS 9999 SCT050 30/25 Q1010 NOSIG
ZGSZ,2025-10-10 08:00,ZGSZ 100800Z 20005MPS 9999 FEW040 30/25 Q1010 NOSIG
ZGSZ,2025-10-10 09:00,ZGSZ 100900Z 20005MPS 9999 SCT040 30/25 Q1010 NOSIG
ZGSZ,2025-10-10 10:00,ZGSZ 101000Z 19004MPS 9999 SCT040 30/25 Q1010 BECMG AT1150 12005MPS
ZGSZ,2025-10-10 11:00,ZGSZ 101100Z 18005MPS 9999 SCT040 29/24 Q1011 BECMG AT1220 11005MPS
ZGSZ,2025-10-10 12:00,ZGSZ 101200Z 18005MPS 9999 FEW033 29/25 Q1011 BECMG AT1340 11005MPS
ZGSZ,2025-10-10 13:00,ZGSZ 101300Z 11003MPS 9999 SCT053 30/23 Q1012 NOSIG
ZGSZ,2025-10-10 14:00,ZGSZ 101400Z 10003MPS 9999 FEW053 29/23 Q1012 NOSIG
ZGSZ,2025-10-10 15:00,ZGSZ 101500Z 12003MPS 080V140 9999 FEW043 29/22 Q1012 NOSIG
ZGSZ,2025-10-10 16:00,ZGSZ 101600Z 11004MPS 9999 FEW043 29/22 Q1011 NOSIG
ZGSZ,2025-10-10 17:00,ZGSZ 101700Z 09002MPS 050V120 9999 FEW043 29/22 Q1011 NOSIG
ZGSZ,2025-10-10 18:00,ZGSZ 101800Z 10002MPS 040V140 9999 SCT050 29/22 Q1011 NOSIG
ZGSZ,2025-10-10 19:00,ZGSZ 101900Z 11003MPS 060V140 9999 FEW050 28/23 Q1011 NOSIG
ZGSZ,2025-10-10 20:00,ZGSZ 102000Z 10003MPS 9999 FEW050 28/23 Q1011 NOSIG
ZGSZ,2025-10-10 21:00,ZGSZ 102100Z 08001MPS CAVOK 28/23 Q1011 NOSIG
ZGSZ,2025-10-10 22:00,ZGSZ 102200Z 06002MPS 020V080 CAVOK 27/23 Q1011 NOSIG
ZGSZ,2025-10-10 23:00,ZGSZ 102300Z 06002MPS CAVOK 28/24 Q1012 NOSIG
ZGSZ,2025-10-11 00:00,ZGSZ 110000Z 06003G10MPS 010V130 CAVOK 29/24 Q1012 NOSIG
ZGSZ,2025-10-11 01:00,ZGSZ 110100Z 05003MPS 350V100 CAVOK 30/24 Q1013 NOSIG
ZGSZ,2025-10-11 02:00,ZGSZ 110200Z 08004MPS 040V110 9999 FEW030 31/23 Q1013 NOSIG
ZGSZ,2025-10-11 03:00,ZGSZ 110300Z 05003MPS 350V120 9999 FEW030 32/24 Q1012 NOSIG
ZGSZ,2025-10-11 04:00,ZGSZ 110400Z 03003MPS 340V070 9999 SCT036 32/23 Q1011 NOSIG
ZGSZ,2025-10-11 05:00,ZGSZ 110500Z 24003MPS 9999 SCT036 32/24 Q1010 NOSIG
ZGSZ,2025-10-11 06:00,ZGSZ 110600Z 22004MPS 9999 SCT036 32/24 Q1010 NOSIG
ZGSZ,2025-10-11 07:00,ZGSZ 110700Z 20005MPS 9999 SCT036 32/25 Q1009 NOSIG
ZGSZ,2025-10-11 08:00,ZGSZ 110800Z 20005MPS 9999 FEW036 31/25 Q1009 NOSIG
ZGSZ,2025-10-11 09:00,ZGSZ 110900Z 19005MPS 9999 FEW036 30/25 Q1010 NOSIG
ZGSZ,2025-10-11 10:00,ZGSZ 111000Z 19005MPS 9999 SCT036 30/25 Q1010 NOSIG
ZGSZ,2025-10-11 11:00,ZGSZ 111100Z 18004MPS 9999 FEW036 30/25 Q1010 NOSIG
ZGSZ,2025-10-11 12:00,ZGSZ 111200Z 11004MPS 9999 FEW036 30/23 Q1011 NOSIG
ZGSZ,2025-10-11 13:00,ZGSZ 111300Z 11004MPS CAVOK 30/22 Q1011 NOSIG
ZGSZ,2025-10-11 14:00,ZGSZ 111400Z 12005MPS CAVOK 29/23 Q1011 NOSIG
ZGSZ,2025-10-11 15:00,ZGSZ 111500Z 11004MPS CAVOK 29/23 Q1011 NOSIG
ZGSZ,2025-10-11 16:00,ZGSZ 111600Z 11004MPS 080V140 CAVOK 29/23 Q1011 NOSIG
ZGSZ,2025-10-11 17:00,ZGSZ 111700Z 10003MPS CAVOK 28/24 Q1011 NOSIG
ZGSZ,2025-10-11 18:00,ZGSZ 111800Z 10003MPS CAVOK 28/24 Q1011 NOSIG
ZGSZ,2025-10-11 19:00,ZGSZ 111900Z 07002MPS 040V110 9999 SCT033 28/24 Q1011 NOSIG
ZGSZ,2025-10-11 20:00,ZGSZ 112000Z VRB01MPS 9999 BKN040 28/24 Q1011 NOSIG
ZGSZ,2025-10-11 21:00,ZGSZ 112100Z VRB02MPS 9999 BKN040 28/24 Q1011 NOSIG
ZGSZ,2025-10-11 22:00,ZGSZ 112200Z 06004MPS 030V100 9999 BKN040 28/24 Q1011 NOSIG
ZGSZ,2025-10-11 23:00,ZGSZ 112300Z 06003MPS 030V110 9999 FEW030 SCT040 28/24 Q1012 NOSIG
ZGSZ,2025-10-12 00:00,ZGSZ 120000Z VRB02MPS 9999 FEW030 29/24 Q1012 NOSIG
ZGSZ,2025-10-12 01:00,ZGSZ 120100Z 10003MPS 050V150 9999 FEW030 30/25 Q1013 NOSIG
ZGSZ,2025-10-12 02:00,ZGSZ 120200Z 06004MPS 020V100 9999 SCT026 31/25 Q1012 NOSIG
ZGSZ,2025-10-12 03:00,ZGSZ 120300Z 25003MPS 9999 SCT023 29/25 Q1012 BECMG AT0430 SHRA FEW020 FEW020CB
ZGSZ,2025-10-12 04:00,ZGSZ 120400Z 20005MPS 5000 +TSRA FEW023 FEW026CB BKN053 26/25 Q1012 BECMG AT0430 NSW
ZGSZ,2025-10-12 05:00,ZGSZ 120500Z VRB01MPS 9999 FEW023 SCT053 28/25 Q1011 BECMG AT0540 SHRA FEW020 FEW020CB
ZGSZ,2025-10-12 06:00,ZGSZ 120600Z VRB01MPS 8000 SHRA FEW023 FEW030CB SCT040 30/25 Q1010 BECMG AT0630 09005MPS NSW
ZGSZ,2025-10-12 07:00,ZGSZ 120700Z 08006MPS 9999 FEW023 FEW030CB BKN040 29/25 Q1010 BECMG AT0815 21005MPS
ZGSZ,2025-10-12 08:00,ZGSZ 120800Z 09003MPS 050V140 9999 -SHRA FEW013 FEW030CB BKN040 30/25 Q1010 BECMG AT0830 SHRA
ZGSZ,2025-10-12 09:00,ZGSZ 120900Z 18002MPS 9000 -SHRA FEW013 SCT040 28/26 Q1011 NOSIG
ZGSZ,2025-10-12 10:00,ZGSZ 121000Z 32002MPS 9999 FEW013 SCT040 28/26 Q1011 NOSIG
ZGSZ,2025-10-12 11:00,ZGSZ 121100Z 12005MPS CAVOK 29/24 Q1011 NOSIG
ZGSZ,2025-10-12 12:00,ZGSZ 121200Z 12005MPS CAVOK 29/24 Q1012 NOSIG
ZGSZ,2025-10-12 13:00,ZGSZ 121300Z 09003MPS 070V130 CAVOK 28/25 Q1012 NOSIG
ZGSZ,2025-10-12 14:00,ZGSZ 121400Z 10004MPS 080V140 CAVOK 28/25 Q1013 NOSIG
ZGSZ,2025-10-12 15:00,ZGSZ 121500Z 08002MPS 040V120 CAVOK 28/24 Q1013 NOSIG
ZGSZ,2025-10-12 16:00,ZGSZ 121600Z 10002MPS 070V140 CAVOK 28/24 Q1013 NOSIG
ZGSZ,2025-10-12 17:00,ZGSZ 121700Z 10002MPS 060V130 CAVOK 28/24 Q1012 NOSIG
ZGSZ,2025-10-12 18:00,ZGSZ 121800Z 10002MPS 070V140 CAVOK 28/24 Q1012 NOSIG
ZGSZ,2025-10-12 19:00,ZGSZ 121900Z 06002MPS CAVOK 28/25 Q1012 NOSIG
ZGSZ,2025-10-12 20:00,ZGSZ 122000Z 06002MPS CAVOK 27/25 Q1011 NOSIG
ZGSZ,2025-10-12 21:00,ZGSZ 122100Z 06002MPS CAVOK 27/25 Q1012 NOSIG
ZGSZ,2025-10-12 22:00,ZGSZ 122200Z 06002MPS CAVOK 27/25 Q1012 NOSIG
ZGSZ,2025-10-12 23:00,ZGSZ 122300Z 05002MPS 020V080 9999 FEW026 27/25 Q1013 NOSIG
ZGSZ,2025-10-13 00:00,ZGSZ 130000Z 05002MPS 020V080 CAVOK 29/25 Q1013 NOSIG
ZGSZ,2025-10-13 01:00,ZGSZ 130100Z 03002MPS 310V110 9999 SCT020 29/25 Q1014 NOSIG
ZGSZ,2025-10-13 02:00,ZGSZ 130200Z 08002MPS 020V130 9999 SCT020 30/25 Q1014 BECMG AT0230 15006MPS 2000 +SHRA SCT015 FEW025CB BKN030
ZGSZ,2025-10-13 03:00,ZGSZ 130300Z 10006MPS 9999 -SHRA FEW020 BKN040 29/25 Q1014 RESHRA NOSIG
ZGSZ,2025-10-13 04:00,ZGSZ 130400Z 23003MPS 9999 FEW020 BKN040 29/25 Q1014 NOSIG
ZGSZ,2025-10-13 05:00,ZGSZ 130500Z 23002MPS 9999 FEW020TCU FEW020 30/26 Q1012 NOSIG
ZGSZ,2025-10-13 06:00,ZGSZ 130600Z 20003MPS 9999 FEW020TCU FEW020 31/25 Q1011 NOSIG
ZGSZ,2025-10-13 07:00,ZGSZ 130700Z VRB02MPS 9999 SCT020 30/25 Q1011 NOSIG
ZGSZ,2025-10-13 08:00,ZGSZ 130800Z 29002MPS 250V330 9999 SCT020 30/25 Q1011 NOSIG
ZGSZ,2025-10-13 09:00,ZGSZ 130900Z VRB01MPS 7000 SHRA FEW020 FEW023CB BKN040 29/26 Q1011 BECMG AT0910 -SHRA
ZGSZ,2025-10-13 10:00,ZGSZ 131000Z 27002MPS 9999 FEW020 BKN040 28/26 Q1011 NOSIG
ZGSZ,2025-10-13 11:00,ZGSZ 131100Z VRB01MPS 9999 FEW020 BKN040 28/25 Q1012 NOSIG
ZGSZ,2025-10-13 12:00,ZGSZ 131200Z 06002MPS 020V150 9999 FEW020 BKN040 29/26 Q1013 NOSIG
ZGSZ,2025-10-13 13:00,ZGSZ 131300Z 08003MPS 050V120 9999 FEW020 29/25 Q1013 NOSIG
ZGSZ,2025-10-13 14:00,ZGSZ 131400Z 10004MPS 9999 FEW020 29/25 Q1013 NOSIG
ZGSZ,2025-10-13 15:00,ZGSZ 131500Z 10003MPS 070V140 9999 FEW020 29/25 Q1013 NOSIG
ZGSZ,2025-10-13 16:00,ZGSZ 131600Z 09002MPS 060V120 9999 FEW020 28/25 Q1013 NOSIG
ZGSZ,2025-10-13 17:00,ZGSZ 131700Z 10002MPS 070V130 9999 FEW020 28/25 Q1013 NOSIG
ZGSZ,2025-10-13 18:00,ZGSZ 131800Z 06002MPS 020V110 CAVOK 28/25 Q1013 NOSIG
ZGSZ,2025-10-13 19:00,ZGSZ 131900Z 03002MPS 330V110 CAVOK 28/25 Q1013 NOSIG
ZGSZ,2025-10-13 20:00,ZGSZ 132000Z 04003MPS 010V100 CAVOK 28/25 Q1012 NOSIG
ZGSZ,2025-10-13 21:00,ZGSZ 132100Z 06003MPS 360V160 CAVOK 28/25 Q1012 NOSIG
ZGSZ,2025-10-13 22:00,ZGSZ 132200Z 06002MPS 360V130 9999 FEW020 28/25 Q1013 NOSIG
ZGSZ,2025-10-13 23:00,ZGSZ 132300Z VRB02MPS 9999 FEW020 28/25 Q1013 NOSIG
ZGSZ,2025-10-14 00:00,ZGSZ 140000Z 06002MPS 020V080 9999 SCT020 28/25 Q1014 NOSIG
ZGSZ,2025-10-14 01:00,ZGSZ 140100Z 06003MPS 010V100 9999 FEW020 29/25 Q1014 NOSIG
ZGSZ,2025-10-14 02:00,ZGSZ 140200Z 08003MPS 040V130 9999 BKN026 30/24 Q1014 NOSIG
ZGSZ,2025-10-14 03:00,ZGSZ 140300Z 07002MPS 010V120 9999 BKN026 31/24 Q1014 NOSIG
ZGSZ,2025-10-14 04:00,ZGSZ 140400Z 24003MPS 220V280 9999 BKN033 31/26 Q1013 NOSIG
ZGSZ,2025-10-14 05:00,ZGSZ 140500Z 23004MPS 9999 FEW033 31/25 Q1013 NOSIG
ZGSZ,2025-10-14 06:00,ZGSZ 140600Z 22004MPS 9999 FEW033 31/26 Q1012 NOSIG
ZGSZ,2025-10-14 07:00,ZGSZ 140700Z 21005MPS 9999 SCT033 31/26 Q1011 NOSIG
ZGSZ,2025-10-14 08:00,ZGSZ 140800Z 22004MPS 9999 SCT033 31/26 Q1011 NOSIG
ZGSZ,2025-10-14 09:00,ZGSZ 140900Z 22004MPS 9999 SCT033 31/25 Q1012 NOSIG
ZGSZ,2025-10-14 10:00,ZGSZ 141000Z 18003MPS 100V230 9999 FEW033 30/25 Q1012 NOSIG
ZGSZ,2025-10-14 11:00,ZGSZ 141100Z 10004MPS CAVOK 30/23 Q1012 NOSIG
ZGSZ,2025-10-14 12:00,ZGSZ 141200Z 11005MPS CAVOK 30/23 Q1013 NOSIG
ZGSZ,2025-10-14 13:00,ZGSZ 141300Z 09003MPS 060V160 CAVOK 29/23 Q1013 NOSIG
ZGSZ,2025-10-14 14:00,ZGSZ 141400Z 09003MPS 060V140 CAVOK 29/23 Q1014 NOSIG
ZGSZ,2025-10-14 15:00,ZGSZ 141500Z 10003MPS 070V140 CAVOK 29/23 Q1014 NOSIG
ZGSZ,2025-10-14 16:00,ZGSZ 141600Z 09002MPS 050V150 CAVOK 29/23 Q1013 NOSIG
ZGSZ,2025-10-14 17:00,ZGSZ 141700Z 06002MPS 020V100 CAVOK 28/23 Q1013 NOSIG
ZGSZ,2025-10-14 18:00,ZGSZ 141800Z 08002MPS CAVOK 28/23 Q1013 NOSIG
ZGSZ,2025-10-14 19:00,ZGSZ 141900Z 09001MPS CAVOK 28/23 Q1013 NOSIG
ZGSZ,2025-10-14 20:00,ZGSZ 142000Z 07002MPS CAVOK 27/23 Q1012 NOSIG
ZGSZ,2025-10-14 21:00,ZGSZ 142100Z 09002MPS CAVOK 27/23 Q1012 NOSIG
ZGSZ,2025-10-14 22:00,ZGSZ 142200Z 04002MPS CAVOK 27/23 Q1013 NOSIG
ZGSZ,2025-10-14 23:00,ZGSZ 142300Z 06002MPS 020V100 CAVOK 28/23 Q1013 NOSIG
ZGSZ,2025-10-15 00:00,ZGSZ 150000Z 05003MPS 030V090 CAVOK 29/23 Q1014 NOSIG
ZGSZ,2025-10-15 01:00,ZGSZ 150100Z 08003MPS 330V130 CAVOK 31/23 Q1014 NOSIG
ZGSZ,2025-10-15 02:00,ZGSZ 150200Z 11004MPS 070V210 9999 FEW030 31/24 Q1014 NOSIG
ZGSZ,2025-10-15 03:00,ZGSZ 150300Z 26003MPS 9999 FEW030 SCT040 31/24 Q1015 NOSIG
ZGSZ,2025-10-15 04:00,ZGSZ 150400Z 25003MPS 9999 SCT030 31/24 Q1014 NOSIG
ZGSZ,2025-10-15 05:00,ZGSZ 150500Z 24004MPS 9999 FEW030 32/24 Q1013 NOSIG
ZGSZ,2025-10-15 06:00,ZGSZ 150600Z 23003MPS 9999 FEW030 32/24 Q1012 NOSIG
ZGSZ,2025-10-15 07:00,ZGSZ 150700Z 21003MPS 9999 FEW030 32/24 Q1012 NOSIG
ZGSZ,2025-10-15 08:00,ZGSZ 150800Z 19004MPS 9999 FEW030 31/25 Q1012 NOSIG
ZGSZ,2025-10-15 09:00,ZGSZ 150900Z 18004MPS 9999 FEW030 31/25 Q1012 NOSIG
ZGSZ,2025-10-15 10:00,ZGSZ 151000Z 18004MPS 9999 FEW030 30/24 Q1012 BECMG AT1150 11005MPS
ZGSZ,2025-10-15 11:00,ZGSZ 151100Z 18003MPS 9999 FEW030 30/25 Q1012 BECMG AT1150 11005MPS
ZGSZ,2025-10-15 12:00,ZGSZ 151200Z 17003MPS 9999 FEW030 30/25 Q1013 BECMG AT1220 11005MPS
ZGSZ,2025-10-15 13:00,ZGSZ 151300Z 10005MPS 9999 FEW030 30/23 Q1014 NOSIG
ZGSZ,2025-10-15 14:00,ZGSZ 151400Z 10003MPS 9999 FEW030 30/23 Q1014 NOSIG
ZGSZ,2025-10-15 15:00,ZGSZ 151500Z 07002MPS 030V120 CAVOK 29/23 Q1014 NOSIG
ZGSZ,2025-10-15 16:00,ZGSZ 151600Z 11003MPS 070V140 CAVOK 29/23 Q1013 NOSIG
ZGSZ,2025-10-15 17:00,ZGSZ 151700Z 09003MPS 060V130 CAVOK 29/23 Q1013 NOSIG
ZGSZ,2025-10-15 18:00,ZGSZ 151800Z 10003MPS CAVOK 29/23 Q1013 NOSIG
ZGSZ,2025-10-15 19:00,ZGSZ 151900Z 09002MPS 060V140 CAVOK 28/24 Q1013 NOSIG
ZGSZ,2025-10-15 20:00,ZGSZ 152000Z 10002MPS CAVOK 28/23 Q1013 NOSIG
ZGSZ,2025-10-15 21:00,ZGSZ 152100Z 11002MPS 060V160 CAVOK 29/23 Q1013 NOSIG
ZGSZ,2025-10-15 22:00,ZGSZ 152200Z 07002MPS 030V120 9999 BKN043 28/22 Q1013 NOSIG
ZGSZ,2025-10-15 23:00,ZGSZ 152300Z 05002MPS 030V100 9999 SCT050 28/23 Q1014 NOSIG
ZGSZ,2025-10-16 00:00,ZGSZ 160000Z 06002MPS 9999 BKN040 29/23 Q1015 NOSIG
ZGSZ,2025-10-16 01:00,ZGSZ 160100Z 06003MPS 020V110 9999 SCT040 30/23 Q1015 NOSIG
ZGSZ,2025-10-16 02:00,ZGSZ 160200Z 06004MPS 040V110 9999 SCT040 30/24 Q1015 NOSIG
ZGSZ,2025-10-16 03:00,ZGSZ 160300Z 05003MPS 350V120 9999 SCT040 31/24 Q1015 NOSIG
ZGSZ,2025-10-16 04:00,ZGSZ 160400Z 08003MPS 360V140 9999 SCT040 32/24 Q1014 NOSIG
ZGSZ,2025-10-16 05:00,ZGSZ 160500Z 12003MPS 050V200 9999 SCT050 33/24 Q1013 NOSIG
ZGSZ,2025-10-16 06:00,ZGSZ 160600Z 12004MPS 090V170 9999 SCT050 33/23 Q1012 NOSIG
ZGSZ,2025-10-16 07:00,ZGSZ 160700Z 23004MPS 9999 SCT040 32/25 Q1012 NOSIG
ZGSZ,2025-10-16 08:00,ZGSZ 160800Z 21004MPS 9999 FEW033 32/25 Q1012 NOSIG
ZGSZ,2025-10-16 09:00,ZGSZ 160900Z 20005MPS 9999 FEW033 31/25 Q1012 NOSIG
ZGSZ,2025-10-16 10:00,ZGSZ 161000Z 09004MPS 060V120 9999 FEW033 32/24 Q1012 NOSIG
ZGSZ,2025-10-16 11:00,ZGSZ 161100Z 12005MPS CAVOK 31/23 Q1013 NOSIG
ZGSZ,2025-10-16 12:00,ZGSZ 161200Z 11004MPS CAVOK 31/23 Q1014 NOSIG
ZGSZ,2025-10-16 13:00,ZGSZ 161300Z 10002MPS 070V150 CAVOK 30/23 Q1014 NOSIG
ZGSZ,2025-10-16 14:00,ZGSZ 161400Z 09002MPS 040V130 CAVOK 30/23 Q1014 NOSIG
ZGSZ,2025-10-16 15:00,ZGSZ 161500Z 08002MPS 050V110 CAVOK 29/23 Q1014 NOSIG
ZGSZ,2025-10-16 16:00,ZGSZ 161600Z 11003MPS 080V140 CAVOK 29/24 Q1014 NOSIG
ZGSZ,2025-10-16 17:00,ZGSZ 161700Z 06002MPS 020V120 9999 FEW040 29/24 Q1014 NOSIG
ZGSZ,2025-10-16 18:00,ZGSZ 161800Z VRB01MPS 9999 SCT050 29/24 Q1014 NOSIG
ZGSZ,2025-10-16 19:00,ZGSZ 161900Z 12001MPS 9999 SCT050 28/24 Q1014 NOSIG
ZGSZ,2025-10-16 20:00,ZGSZ 162000Z 10002MPS 9999 SCT050 29/23 Q1013 NOSIG
ZGSZ,2025-10-16 21:00,ZGSZ 162100Z VRB01MPS CAVOK 28/23 Q1013 NOSIG
ZGSZ,2025-10-16 22:00,ZGSZ 162200Z 06002MPS 020V100 CAVOK 27/23 Q1014 NOSIG
ZGSZ,2025-10-16 23:00,ZGSZ 162300Z 06002MPS 040V110 CAVOK 28/23 Q1014 NOSIG
ZGSZ,2025-10-17 00:00,ZGSZ 170000Z 08004MPS 060V120 CAVOK 30/22 Q1015 NOSIG
ZGSZ,2025-10-17 01:00,ZGSZ 170100Z 10005MPS 070V130 CAVOK 31/22 Q1015 NOSIG
ZGSZ,2025-10-17 02:00,ZGSZ 170200Z 06004MPS 030V100 CAVOK 32/22 Q1015 NOSIG
ZGSZ,2025-10-17 03:00,ZGSZ 170300Z 08002MPS 360V120 9999 FEW033 32/22 Q1015 NOSIG
ZGSZ,2025-10-17 04:00,ZGSZ 170400Z VRB02MPS 9999 SCT033 32/22 Q1014 NOSIG
ZGSZ,2025-10-17 05:00,ZGSZ 170500Z 24004MPS 9999 SCT033 32/23 Q1013 NOSIG
ZGSZ,2025-10-17 06:00,ZGSZ 170600Z 22004MPS 9999 SCT023 32/23 Q1013 NOSIG
ZGSZ,2025-10-17 07:00,ZGSZ 170700Z 22004MPS 9999 FEW026 32/24 Q1012 NOSIG
ZGSZ,2025-10-17 08:00,ZGSZ 170800Z 20004MPS 9999 FEW040 32/24 Q1012 NOSIG
ZGSZ,2025-10-17 09:00,ZGSZ 170900Z 19004MPS 9999 FEW050 31/24 Q1012 NOSIG
ZGSZ,2025-10-17 10:00,ZGSZ 171000Z 18004MPS CAVOK 30/25 Q1012 NOSIG
ZGSZ,2025-10-17 11:00,ZGSZ 171100Z 18004MPS CAVOK 30/25 Q1012 NOSIG
ZGSZ,2025-10-17 12:00,ZGSZ 171200Z 18004MPS CAVOK 29/25 Q1013 NOSIG
ZGSZ,2025-10-17 13:00,ZGSZ 171300Z 20003MPS CAVOK 29/25 Q1014 NOSIG
ZGSZ,2025-10-17 14:00,ZGSZ 171400Z 09003MPS 070V130 CAVOK 29/24 Q1014 NOSIG
ZGSZ,2025-10-17 15:00,ZGSZ 171500Z 10003MPS 070V130 CAVOK 29/24 Q1014 NOSIG
