station,valid,metar
ZGSZ,2001-01-01 00:00,ZGSZ 010000Z AUTO 04006KT 6SM 12/06 A3009 RMK SLP198 T01150064 52012 IEM_DS3505
ZGSZ,2001-01-01 01:00,ZGSZ 010100Z AUTO 02006KT 3SM 13/09 A3012 RMK T01300090 IEM_DS3505
ZGSZ,2001-01-01 02:00,ZGSZ 010200Z AUTO 36004KT 3SM 15/10 A3012 RMK T01500100 IEM_DS3505
ZGSZ,2001-01-01 03:00,ZGSZ 010300Z AUTO 11008KT 7SM 16/08 A3009 RMK SLP199 T01630080 52001 IEM_DS3505
ZGSZ,2001-01-01 04:00,ZGSZ 010400Z AUTO 12010KT 19/11 A3006 RMK T01900110 IEM_DS3505
ZGSZ,2001-01-01 05:00,ZGSZ 010500Z AUTO 13012KT 6SM 20/12 A3003 RMK T02000120 IEM_DS3505
ZGSZ,2001-01-01 06:00,ZGSZ 010600Z AUTO 09004KT 6SM 19/09 A3000 RMK SLP172 T01890090 57027 IEM_DS3505
ZGSZ,2001-01-01 07:00,ZGSZ 010700Z AUTO 15006KT 6SM 21/11 A3000 RMK T02100110 IEM_DS3505
ZGSZ,2001-01-01 08:00,ZGSZ 010800Z AUTO 13006KT 6SM 21/11 A2997 RMK T02100110 IEM_DS3505
ZGSZ,2001-01-01 09:00,ZGSZ 010900Z AUTO 14006KT 6SM 19/09 A2997 RMK SLP164 T01890093 57008 IEM_DS3505
ZGSZ,2001-01-01 10:00,ZGSZ 011000Z AUTO 12008KT 6SM 18/12 A3000 RMK T01800120 IEM_DS3505
ZGSZ,2001-01-01 11:00,ZGSZ 011100Z AUTO 10008KT 4SM 17/12 A3000 RMK T01700120 IEM_DS3505
ZGSZ,2001-01-01 12:00,ZGSZ 011200Z AUTO 16004KT 5SM 16/10 A3000 RMK SLP164 T01590102 54000 IEM_DS3505
ZGSZ,2001-01-01 13:00,ZGSZ 011300Z AUTO 09006KT 4SM 16/12 A3000 RMK T01600120 IEM_DS3505
ZGSZ,2001-01-01 14:00,ZGSZ 011400Z AUTO 07004KT 3SM 16/12 A3000 RMK T01600120 IEM_DS3505
ZGSZ,2001-01-01 15:00,ZGSZ 011500Z AUTO 00000KT 3SM 15/12 A3000 RMK T01500120 IEM_DS3505
ZGSZ,2001-01-01 16:00,ZGSZ 011600Z AUTO 02004KT 3SM 14/12 A3000 RMK T01400120 IEM_DS3505
ZGSZ,2001-01-01 17:00,ZGSZ 011700Z AUTO 04004KT 13/11 A3000 RMK T01300110 IEM_DS3505
ZGSZ,2001-01-01 18:00,ZGSZ 011800Z AUTO 09004KT 8SM 15/11 A3000 RMK SLP169 T01520113 52003 IEM_DS3505
ZGSZ,2001-01-01 19:00,ZGSZ 011900Z AUTO 01004KT 3SM 13/11 A3000 RMK T01300110 IEM_DS3505
ZGSZ,2001-01-01 20:00,ZGSZ 012000Z AUTO 02004KT 3SM 13/12 A3000 RMK T01300120 IEM_DS3505
ZGSZ,2001-01-01 21:00,ZGSZ 012100Z AUTO 04004KT 4SM 14/10 A3003 RMK SLP175 T01350102 52006 IEM_DS3505
ZGSZ,2001-01-01 22:00,ZGSZ 012200Z AUTO 11002KT 3SM 12/11 A3003 RMK T01200110 IEM_DS3505
ZGSZ,2001-01-01 23:00,ZGSZ 012300Z AUTO 00000KT 3SM 12/11 A3006 RMK T01200110 IEM_DS3505
ZGSZ,2001-01-02 00:00,ZGSZ 020000Z AUTO 07004KT 7SM 14/10 A3006 RMK SLP183 T01370102 52008 IEM_DS3505
ZGSZ,2001-01-02 01:00,ZGSZ 020100Z AUTO 02008KT 3SM 16/12 A3006 RMK T01600120 IEM_DS3505
ZGSZ,2001-01-02 02:00,ZGSZ 020200Z AUTO 36004KT 5SM 19/13 A3006 RMK T01900130 IEM_DS3505
ZGSZ,2001-01-02 03:00,ZGSZ 020300Z AUTO 02006KT 5SM 18/12 A3006 RMK SLP180 T01830118 57003 IEM_DS3505
ZGSZ,2001-01-02 04:00,ZGSZ 020400Z AUTO 27004KT 3SM 22/14 A3003 RMK T02200140 IEM_DS3505
ZGSZ,2001-01-02 05:00,ZGSZ 020500Z AUTO 27004KT 23/15 A3000 RMK T02300150 IEM_DS3505
ZGSZ,2001-01-02 06:00,ZGSZ 020600Z AUTO 09004KT 16SM 22/14 A2997 RMK SLP153 T02160141 57026 IEM_DS3505
ZGSZ,2001-01-02 07:00,ZGSZ 020700Z AUTO 27004KT 22/14 A2994 RMK T02200140 IEM_DS3505
ZGSZ,2001-01-02 08:00,ZGSZ 020800Z AUTO 26004KT 22/16 A2994 RMK T02200160 IEM_DS3505
ZGSZ,2001-01-02 09:00,ZGSZ 020900Z AUTO 14004KT 17SM 21/14 A2994 RMK SLP147 T02110135 57007 IEM_DS3505
ZGSZ,2001-01-02 10:00,ZGSZ 021000Z AUTO 00000KT 2 1/2SM 19/16 A2997 RMK T01900160 IEM_DS3505
ZGSZ,2001-01-02 11:00,ZGSZ 021100Z AUTO 17004KT 2 1/2SM 18/16 A2997 RMK T01800160 IEM_DS3505
ZGSZ,2001-01-02 12:00,ZGSZ 021200Z AUTO 11006KT 12SM 19/14 A2997 RMK SLP163 T01860137 52016 IEM_DS3505
ZGSZ,2001-01-02 13:00,ZGSZ 021300Z AUTO 13006KT 3SM 18/16 A3000 RMK T01800160 IEM_DS3505
ZGSZ,2001-01-02 14:00,ZGSZ 021400Z AUTO 10002KT 4SM 16/15 A3003 RMK T01600150 IEM_DS3505
ZGSZ,2001-01-02 15:00,ZGSZ 021500Z AUTO 15004KT 4SM 17/16 A3003 RMK T01700160 IEM_DS3505
ZGSZ,2001-01-02 16:00,ZGSZ 021600Z AUTO 00000KT 4SM 16/15 A3003 RMK T01600150 IEM_DS3505
ZGSZ,2001-01-02 17:00,ZGSZ 021700Z AUTO 07002KT 18/16 A3000 RMK T01800160 IEM_DS3505
ZGSZ,2001-01-02 18:00,ZGSZ 021800Z AUTO 09004KT 9SM 18/14 A3000 RMK SLP165 T01790143 57005 IEM_DS3505
ZGSZ,2001-01-02 19:00,ZGSZ 021900Z AUTO 02006KT 4SM 17/16 A3000 RMK T01700160 IEM_DS3505
ZGSZ,2001-01-02 20:00,ZGSZ 022000Z AUTO 01002KT 6SM 17/16 A3000 RMK T01700160 IEM_DS3505
ZGSZ,2001-01-02 21:00,ZGSZ 022100Z AUTO 02002KT 4SM 16/14 A3000 RMK SLP166 T01630142 52001 IEM_DS3505
ZGSZ,2001-01-02 22:00,ZGSZ 022200Z AUTO 02002KT 6SM 16/15 A3000 RMK T01600150 IEM_DS3505
ZGSZ,2001-01-02 23:00,ZGSZ 022300Z AUTO 15002KT 5SM 15/15 A3003 RMK T01500150 IEM_DS3505
ZGSZ,2001-01-03 00:00,ZGSZ 030000Z AUTO 04004KT 7SM 16/14 A3006 RMK SLP183 T01590138 52016 IEM_DS3505
ZGSZ,2001-01-03 01:00,ZGSZ 030100Z AUTO 24002KT 4SM 18/16 A3006 RMK T01800160 IEM_DS3505
ZGSZ,2001-01-03 02:00,ZGSZ 030200Z AUTO 24004KT 4SM 20/17 A3009 RMK T02000170 IEM_DS3505
ZGSZ,2001-01-03 03:00,ZGSZ 030300Z AUTO 11006KT 9SM 20/14 A3009 RMK SLP190 T01970144 52007 IEM_DS3505
ZGSZ,2001-01-03 04:00,ZGSZ 030400Z AUTO 29006KT 3SM 22/17 A3006 RMK T02200170 IEM_DS3505
ZGSZ,2001-01-03 05:00,ZGSZ 030500Z AUTO 27006KT 3SM 22/17 A3003 RMK T02200170 IEM_DS3505
ZGSZ,2001-01-03 06:00,ZGSZ 030600Z AUTO 14006KT 7SM 21/14 A3000 RMK SLP167 T02140142 57022 IEM_DS3505
ZGSZ,2001-01-03 07:00,ZGSZ 030700Z AUTO 23004KT 6SM 22/16 A2997 RMK T02200160 IEM_DS3505
ZGSZ,2001-01-03 08:00,ZGSZ 030800Z AUTO 19004KT 6SM 22/18 A2997 RMK T02200180 IEM_DS3505
ZGSZ,2001-01-03 09:00,ZGSZ 030900Z AUTO 11006KT 6SM 21/15 A3000 RMK SLP158 T02120148 57009 IEM_DS3505
ZGSZ,2001-01-03 10:00,ZGSZ 031000Z AUTO 17004KT 6SM 20/17 A3000 RMK T02000170 IEM_DS3505
ZGSZ,2001-01-03 11:00,ZGSZ 031100Z AUTO 18004KT 6SM 19/18 A3003 RMK T01900180 IEM_DS3505
ZGSZ,2001-01-03 12:00,ZGSZ 031200Z AUTO 11004KT 10SM 18/13 A3003 RMK SLP178 T01850126 52019 IEM_DS3505
ZGSZ,2001-01-03 13:00,ZGSZ 031300Z AUTO 12004KT 4SM 18/17 A3003 RMK T01800170 IEM_DS3505
ZGSZ,2001-01-03 14:00,ZGSZ 031400Z AUTO 06004KT 4SM 18/17 A3006 RMK T01800170 IEM_DS3505
ZGSZ,2001-01-03 15:00,ZGSZ 031500Z AUTO 13004KT 3SM 17/16 A3006 RMK T01700160 IEM_DS3505
ZGSZ,2001-01-03 16:00,ZGSZ 031600Z AUTO 12004KT 3SM 18/15 A3006 RMK T01800150 IEM_DS3505
ZGSZ,2001-01-03 17:00,ZGSZ 031700Z AUTO 35002KT 17/15 A3006 RMK T01700150 IEM_DS3505
ZGSZ,2001-01-03 18:00,ZGSZ 031800Z AUTO 04006KT 5SM 18/15 A3006 RMK SLP185 T01810150 57004 IEM_DS3505
ZGSZ,2001-01-03 19:00,ZGSZ 031900Z AUTO 02004KT 6SM 17/16 A3006 RMK T01700160 IEM_DS3505
ZGSZ,2001-01-03 20:00,ZGSZ 032000Z AUTO 09002KT 6SM 18/16 A3006 RMK T01800160 IEM_DS3505
ZGSZ,2001-01-03 21:00,ZGSZ 032100Z AUTO 09006KT 4SM 18/15 A3006 RMK SLP184 T01790152 57001 IEM_DS3505
ZGSZ,2001-01-03 22:00,ZGSZ 032200Z AUTO 34002KT 6SM 17/16 A3009 RMK T01700160 IEM_DS3505
ZGSZ,2001-01-03 23:00,ZGSZ 032300Z AUTO 03004KT 3SM 17/16 A3009 RMK T01700160 IEM_DS3505
ZGSZ,2001-01-04 00:00,ZGSZ 040000Z AUTO 36002KT 2 1/2SM 18/15 A3012 RMK SLP202 T01750153 52017 IEM_DS3505
ZGSZ,2001-01-04 01:00,ZGSZ 040100Z AUTO 02006KT 2 1/2SM 18/17 A3015 RMK T01800170 IEM_DS3505
ZGSZ,2001-01-04 02:00,ZGSZ 040200Z AUTO 01006KT 2 1/2SM 19/16 A3015 RMK T01900160 IEM_DS3505
ZGSZ,2001-01-04 03:00,ZGSZ 040300Z AUTO 04006KT 2 1/2SM 18/15 A3015 RMK SLP216 T01820148 52014 IEM_DS3505
ZGSZ,2001-01-04 04:00,ZGSZ 040400Z AUTO 06006KT 2SM 19/17 A3012 RMK T01900170 IEM_DS3505
ZGSZ,2001-01-04 05:00,ZGSZ 040500Z AUTO 08004KT 2SM 19/17 A3009 RMK T01900170 IEM_DS3505
ZGSZ,2001-01-04 06:00,ZGSZ 040600Z AUTO 02006KT 3SM 19/15 A3006 RMK SLP187 T01880149 57029 IEM_DS3505
ZGSZ,2001-01-04 07:00,ZGSZ 040700Z AUTO 09006KT 2 1/2SM 21/17 A3003 RMK T02100170 IEM_DS3505
ZGSZ,2001-01-04 08:00,ZGSZ 040800Z AUTO 03010KT 2 1/2SM 20/17 A3003 RMK T02000170 IEM_DS3505
ZGSZ,2001-01-04 09:00,ZGSZ 040900Z AUTO 07008KT 3SM 19/15 A3006 RMK SLP184 T01880149 57003 IEM_DS3505
ZGSZ,2001-01-04 10:00,ZGSZ 041000Z AUTO 05006KT 2SM 19/16 A3009 RMK T01900160 IEM_DS3505
ZGSZ,2001-01-04 11:00,ZGSZ 041100Z AUTO 03006KT 2SM 19/16 A3009 RMK T01900160 IEM_DS3505
ZGSZ,2001-01-04 12:00,ZGSZ 041200Z AUTO 09004KT 4SM 18/15 A3009 RMK SLP202 T01820148 52018 IEM_DS3505
ZGSZ,2001-01-04 13:00,ZGSZ 041300Z AUTO 12006KT 2 1/2SM 19/16 A3012 RMK T01900160 IEM_DS3505
ZGSZ,2001-01-04 14:00,ZGSZ 041400Z AUTO 09002KT 2SM 18/16 A3012 RMK T01800160 IEM_DS3505
ZGSZ,2001-01-04 15:00,ZGSZ 041500Z AUTO 09006KT 2SM 17/16 A3012 RMK T01700160 IEM_DS3505
ZGSZ,2001-01-04 16:00,ZGSZ 041600Z AUTO 06004KT 2SM 18/16 A3012 RMK T01800160 IEM_DS3505
ZGSZ,2001-01-04 17:00,ZGSZ 041700Z AUTO 01004KT 18/16 A3012 RMK T01800160 IEM_DS3505
ZGSZ,2001-01-04 18:00,ZGSZ 041800Z AUTO 11002KT 4SM 18/15 A3012 RMK 60003 SLP202 T01800151 57001 IEM_DS3505
ZGSZ,2001-01-04 19:00,ZGSZ 041900Z AUTO 00000KT 2SM 18/16 A3012 RMK T01800160 IEM_DS3505
ZGSZ,2001-01-04 20:00,ZGSZ 042000Z AUTO 09006KT 2SM 18/16 A3009 RMK T01800160 IEM_DS3505
ZGSZ,2001-01-04 21:00,ZGSZ 042100Z AUTO 14008KT 5SM 17/15 A3009 RMK 70000 SLP195 T01740146 57007 IEM_DS3505
ZGSZ,2001-01-04 22:00,ZGSZ 042200Z AUTO 35002KT 2 1/2SM 18/16 A3012 RMK T01800160 IEM_DS3505
ZGSZ,2001-01-04 23:00,ZGSZ 042300Z AUTO 01006KT 2SM 17/16 A3012 RMK T01700160 IEM_DS3505
ZGSZ,2001-01-05 00:00,ZGSZ 050000Z AUTO 09006KT 8SM 18/14 A3015 RMK 60000 SLP219 T01770140 52024 IEM_DS3505
ZGSZ,2001-01-05 01:00,ZGSZ 050100Z AUTO 10006KT 4SM 19/16 A3015 RMK T01900160 IEM_DS3505
ZGSZ,2001-01-05 02:00,ZGSZ 050200Z AUTO 07006KT 4SM 21/16 A3015 RMK T02100160 IEM_DS3505
ZGSZ,2001-01-05 03:00,ZGSZ 050300Z AUTO 11006KT 8SM 19/14 A3015 RMK SLP219 T01930139 54000 IEM_DS3505
ZGSZ,2001-01-05 04:00,ZGSZ 050400Z AUTO 28006KT 5SM 23/16 A3012 RMK T02300160 IEM_DS3505
ZGSZ,2001-01-05 05:00,ZGSZ 050500Z AUTO 27008KT 7SM 22/17 A3009 RMK T02200170 IEM_DS3505
ZGSZ,2001-01-05 06:00,ZGSZ 050600Z AUTO 09004KT 7SM 23/14 A3006 RMK SLP182 T02290141 57036 IEM_DS3505
ZGSZ,2001-01-05 07:00,ZGSZ 050700Z AUTO 22006KT 5SM 22/16 A3003 RMK T02200160 IEM_DS3505
ZGSZ,2001-01-05 08:00,ZGSZ 050800Z AUTO 19004KT 6SM 22/18 A3003 RMK T02200180 IEM_DS3505
ZGSZ,2001-01-05 09:00,ZGSZ 050900Z AUTO 14008KT 11SM 22/15 A3003 RMK SLP170 T02170146 57012 IEM_DS3505
ZGSZ,2001-01-05 10:00,ZGSZ 051000Z AUTO 16006KT 6SM 20/18 A3003 RMK T02000180 IEM_DS3505
ZGSZ,2001-01-05 11:00,ZGSZ 051100Z AUTO 16004KT 6SM 19/18 A3003 RMK T01900180 IEM_DS3505
ZGSZ,2001-01-05 12:00,ZGSZ 051200Z AUTO 14006KT 9SM 18/14 A3006 RMK SLP189 T01830140 52018 IEM_DS3505
ZGSZ,2001-01-05 13:00,ZGSZ 051300Z AUTO 16004KT 3SM 17/16 A3009 RMK T01700160 IEM_DS3505
ZGSZ,2001-01-05 14:00,ZGSZ 051400Z AUTO 12006KT 3SM 18/16 A3009 RMK T01800160 IEM_DS3505
ZGSZ,2001-01-05 15:00,ZGSZ 051500Z AUTO 12006KT 4SM 18/16 A3009 RMK T01800160 IEM_DS3505
ZGSZ,2001-01-05 16:00,ZGSZ 051600Z AUTO 13006KT 4SM 18/16 A3009 RMK T01800160 IEM_DS3505
ZGSZ,2001-01-05 17:00,ZGSZ 051700Z AUTO 11006KT 18/16 A3006 RMK T01800160 IEM_DS3505
ZGSZ,2001-01-05 18:00,ZGSZ 051800Z AUTO 09004KT 12SM 18/16 A3006 RMK SLP187 T01840157 57011 IEM_DS3505
ZGSZ,2001-01-05 19:00,ZGSZ 051900Z AUTO 10008KT 4SM 18/16 A3006 RMK T01800160 IEM_DS3505
ZGSZ,2001-01-05 20:00,ZGSZ 052000Z AUTO 12008KT 4SM 18/17 A3003 RMK T01800170 IEM_DS3505
ZGSZ,2001-01-05 21:00,ZGSZ 052100Z AUTO 18004KT 16SM 18/15 A3003 RMK SLP179 T01850149 57008 IEM_DS3505
ZGSZ,2001-01-05 22:00,ZGSZ 052200Z AUTO 04004KT 4SM 18/17 A3006 RMK T01800170 IEM_DS3505
ZGSZ,2001-01-05 23:00,ZGSZ 052300Z AUTO 09006KT 4SM 19/17 A3006 RMK T01900170 IEM_DS3505
ZGSZ,2001-01-06 00:00,ZGSZ 060000Z AUTO 09006KT 16SM 18/15 A3009 RMK SLP194 T01830151 52014 IEM_DS3505
ZGSZ,2001-01-06 01:00,ZGSZ 060100Z AUTO 10014KT 7SM 19/17 A3009 RMK T01900170 IEM_DS3505
ZGSZ,2001-01-06 02:00,ZGSZ 060200Z AUTO 09014KT 6SM 21/17 A3009 RMK T02100170 IEM_DS3505
ZGSZ,2001-01-06 03:00,ZGSZ 060300Z AUTO 04012KT 19SM 20/15 A3006 RMK SLP193 T02000147 57001 IEM_DS3505
ZGSZ,2001-01-06 04:00,ZGSZ 060400Z AUTO 11010KT 6SM 24/17 A3006 RMK T02400170 IEM_DS3505
ZGSZ,2001-01-06 05:00,ZGSZ 060500Z AUTO 07006KT 7SM 24/17 A3000 RMK T02400170 IEM_DS3505
ZGSZ,2001-01-06 06:00,ZGSZ 060600Z AUTO 09010KT 19SM 23/15 A2997 RMK SLP154 T02280146 57038 IEM_DS3505
ZGSZ,2001-01-06 07:00,ZGSZ 060700Z AUTO 27008KT 7SM 23/17 A2997 RMK T02300170 IEM_DS3505
ZGSZ,2001-01-06 08:00,ZGSZ 060800Z AUTO 27004KT 7SM 23/17 A2994 RMK T02300170 IEM_DS3505
ZGSZ,2001-01-06 09:00,ZGSZ 060900Z AUTO 14006KT 19SM 22/15 A2994 RMK SLP145 T02200146 57009 IEM_DS3505
ZGSZ,2001-01-06 10:00,ZGSZ 061000Z AUTO 19004KT 6SM 21/19 A2994 RMK T02100190 IEM_DS3505
ZGSZ,2001-01-06 11:00,ZGSZ 061100Z AUTO 17004KT 6SM 20/18 A2997 RMK T02000180 IEM_DS3505
ZGSZ,2001-01-06 12:00,ZGSZ 061200Z AUTO 14008KT 16SM 19/15 A2997 RMK SLP159 T01910152 52014 IEM_DS3505
ZGSZ,2001-01-06 13:00,ZGSZ 061300Z AUTO 19006KT 4SM 19/18 A3000 RMK T01900180 IEM_DS3505
ZGSZ,2001-01-06 14:00,ZGSZ 061400Z AUTO 00000KT 3SM 18/18 A3003 RMK T01800180 IEM_DS3505
ZGSZ,2001-01-06 15:00,ZGSZ 061500Z AUTO 04004KT 3SM 19/18 A3003 RMK T01900180 IEM_DS3505
ZGSZ,2001-01-06 16:00,ZGSZ 061600Z AUTO 15004KT 2 1/2SM 18/17 A3000 RMK T01800170 IEM_DS3505
ZGSZ,2001-01-06 17:00,ZGSZ 061700Z AUTO 15002KT 2SM 18/16 A3000 RMK T01800160 IEM_DS3505
ZGSZ,2001-01-06 18:00,ZGSZ 061800Z AUTO 11006KT 11SM 18/16 A2997 RMK SLP150 T01790155 57025 IEM_DS3505
ZGSZ,2001-01-06 19:00,ZGSZ 061900Z AUTO 04004KT 2SM 16/16 A2997 RMK T01600160 IEM_DS3505
ZGSZ,2001-01-06 20:00,ZGSZ 062000Z AUTO 01004KT 2SM 16/16 A2997 RMK T01600160 IEM_DS3505
ZGSZ,2001-01-06 21:00,ZGSZ 062100Z AUTO 07004KT 4SM 17/15 A2997 RMK SLP152 T01720152 52002 IEM_DS3505
ZGSZ,2001-01-06 22:00,ZGSZ 062200Z AUTO 03002KT 1 1/2SM 16/16 A2997 RMK T01600160 IEM_DS3505
ZGSZ,2001-01-06 23:00,ZGSZ 062300Z AUTO 00000KT 2SM 15/15 A3000 RMK T01500150 IEM_DS3505
ZGSZ,2001-01-07 00:00,ZGSZ 070000Z AUTO 07002KT 3SM 17/15 A3000 RMK SLP167 T01690154 52014 IEM_DS3505
ZGSZ,2001-01-07 01:00,ZGSZ 070100Z AUTO 00000KT 2SM 18/17 A3000 RMK T01800170 IEM_DS3505
ZGSZ,2001-01-07 02:00,ZGSZ 070200Z AUTO 36004KT 2 1/2SM 21/18 A3003 RMK T02100180 IEM_DS3505
ZGSZ,2001-01-07 03:00,ZGSZ 070300Z AUTO 32004KT 4SM 20/16 A3000 RMK SLP167 T01990157 52001 IEM_DS3505
ZGSZ,2001-01-07 04:00,ZGSZ 070400Z AUTO 27006KT 1 1/2SM 23/17 A2997 RMK T02300170 IEM_DS3505
ZGSZ,2001-01-07 05:00,ZGSZ 070500Z AUTO 28008KT 2SM 23/18 A2994 RMK T02300180 IEM_DS3505
ZGSZ,2001-01-07 06:00,ZGSZ 070600Z AUTO 09004KT 4SM 26/16 A2991 RMK SLP132 T02550163 57035 IEM_DS3505
ZGSZ,2001-01-07 07:00,ZGSZ 070700Z AUTO 29008KT 2 1/2SM 24/18 A2988 RMK T02400180 IEM_DS3505
ZGSZ,2001-01-07 08:00,ZGSZ 070800Z AUTO 30006KT 2 1/2SM 24/18 A2985 RMK T02400180 IEM_DS3505
ZGSZ,2001-01-07 09:00,ZGSZ 070900Z AUTO 18004KT 4SM 25/17 A2985 RMK SLP119 T02470170 57013 IEM_DS3505
ZGSZ,2001-01-07 10:00,ZGSZ 071000Z AUTO 34002KT 2 1/2SM 22/19 A2988 RMK T02200190 IEM_DS3505
ZGSZ,2001-01-07 11:00,ZGSZ 071100Z AUTO 02002KT 2SM 21/19 A2988 RMK T02100190 IEM_DS3505
ZGSZ,2001-01-07 12:00,ZGSZ 071200Z AUTO 00000KT 2SM 21/17 A2988 RMK SLP131 T02130171 52012 IEM_DS3505
ZGSZ,2001-01-07 13:00,ZGSZ 071300Z AUTO 13002KT 2SM 19/18 A2991 RMK T01900180 IEM_DS3505
ZGSZ,2001-01-07 14:00,ZGSZ 071400Z AUTO 15004KT 1 1/2SM 18/17 A2991 RMK T01800170 IEM_DS3505
ZGSZ,2001-01-07 15:00,ZGSZ 071500Z AUTO 13004KT 1 1/4SM 19/18 A2991 RMK T01900180 IEM_DS3505
ZGSZ,2001-01-07 16:00,ZGSZ 071600Z AUTO 13004KT 1SM 18/17 A2991 RMK T01800170 IEM_DS3505
ZGSZ,2001-01-07 17:00,ZGSZ 071700Z AUTO 12002KT 1SM 18/17 A2991 RMK T01800170 IEM_DS3505
ZGSZ,2001-01-07 18:00,ZGSZ 071800Z AUTO 09004KT 5SM 19/16 A2991 RMK SLP132 T01890162 57007 IEM_DS3505
ZGSZ,2001-01-07 19:00,ZGSZ 071900Z AUTO 02002KT 1SM 16/16 A2991 RMK T01600160 IEM_DS3505
ZGSZ,2001-01-07 20:00,ZGSZ 072000Z AUTO 10002KT 1SM 16/16 A2991 RMK T01600160 IEM_DS3505
ZGSZ,2001-01-07 21:00,ZGSZ 072100Z AUTO 04004KT 3SM 18/16 A2991 RMK SLP129 T01800158 57003 IEM_DS3505
ZGSZ,2001-01-07 22:00,ZGSZ 072200Z AUTO 00000KT 1 1/4SM 15/15 A2991 RMK T01500150 IEM_DS3505
ZGSZ,2001-01-07 23:00,ZGSZ 072300Z AUTO 18002KT 2 1/2SM 15/15 A2991 RMK T01500150 IEM_DS3505
ZGSZ,2001-01-08 00:00,ZGSZ 080000Z AUTO 09010KT 7SM 19/15 A2994 RMK SLP145 T01890146 52016 IEM_DS3505
ZGSZ,2001-01-08 01:00,ZGSZ 080100Z AUTO 12008KT 4SM 21/17 A2994 RMK T02100170 IEM_DS3505
ZGSZ,2001-01-08 02:00,ZGSZ 080200Z AUTO 12012KT 6SM 22/17 A2997 RMK T02200170 IEM_DS3505
ZGSZ,2001-01-08 03:00,ZGSZ 080300Z AUTO 14010KT 16SM 20/14 A2997 RMK SLP156 T02010145 52011 IEM_DS3505
ZGSZ,2001-01-08 04:00,ZGSZ 080400Z AUTO 12012KT 7SM 23/17 A2997 RMK T02300170 IEM_DS3505
ZGSZ,2001-01-08 05:00,ZGSZ 080500Z AUTO 13010KT 7SM 25/18 A2991 RMK T02500180 IEM_DS3505
ZGSZ,2001-01-08 06:00,ZGSZ 080600Z AUTO 07014KT 14SM 23/16 A2988 RMK SLP130 T02310159 57026 IEM_DS3505
ZGSZ,2001-01-08 07:00,ZGSZ 080700Z AUTO 21008KT 7SM 25/17 A2985 RMK T02500170 IEM_DS3505
ZGSZ,2001-01-08 08:00,ZGSZ 080800Z AUTO 19008KT 7SM 24/18 A2988 RMK T02400180 IEM_DS3505
ZGSZ,2001-01-08 09:00,ZGSZ 080900Z AUTO 11006KT 11SM 21/15 A2988 RMK SLP127 T02110152 57003 IEM_DS3505
ZGSZ,2001-01-08 10:00,ZGSZ 081000Z AUTO 10010KT 6SM 22/18 A2988 RMK T02200180 IEM_DS3505
ZGSZ,2001-01-08 11:00,ZGSZ 081100Z AUTO 10010KT 6SM 20/17 A2991 RMK T02000170 IEM_DS3505
ZGSZ,2001-01-08 12:00,ZGSZ 081200Z AUTO 14010KT 9SM 18/16 A2991 RMK SLP134 T01850156 52007 IEM_DS3505
ZGSZ,2001-01-08 13:00,ZGSZ 081300Z AUTO 11010KT 6SM 19/17 A2991 RMK T01900170 IEM_DS3505
ZGSZ,2001-01-08 14:00,ZGSZ 081400Z AUTO 10008KT 6SM 19/17 A2994 RMK T01900170 IEM_DS3505
ZGSZ,2001-01-08 15:00,ZGSZ 081500Z AUTO 07004KT 6SM 18/17 A2997 RMK T01800170 IEM_DS3505
ZGSZ,2001-01-08 16:00,ZGSZ 081600Z AUTO 02004KT 6SM 18/16 A2997 RMK T01800160 IEM_DS3505
ZGSZ,2001-01-08 17:00,ZGSZ 081700Z AUTO 34002KT 17/16 A2997 RMK T01700160 IEM_DS3505
ZGSZ,2001-01-08 18:00,ZGSZ 081800Z AUTO 04004KT 5SM 18/15 A2997 RMK SLP156 T01750153 52002 IEM_DS3505
ZGSZ,2001-01-08 19:00,ZGSZ 081900Z AUTO 14004KT 6SM 15/15 A2997 RMK T01500150 IEM_DS3505
ZGSZ,2001-01-08 20:00,ZGSZ 082000Z AUTO 08002KT 6SM 16/15 A2994 RMK T01600150 IEM_DS3505
ZGSZ,2001-01-08 21:00,ZGSZ 082100Z AUTO 02004KT 3SM 16/15 A2994 RMK SLP145 T01650146 57011 IEM_DS3505
ZGSZ,2001-01-08 22:00,ZGSZ 082200Z AUTO 02004KT 6SM 14/14 A2997 RMK T01400140 IEM_DS3505
ZGSZ,2001-01-08 23:00,ZGSZ 082300Z AUTO 02008KT 3SM 16/16 A2997 RMK T01600160 IEM_DS3505
ZGSZ,2001-01-09 00:00,ZGSZ 090000Z AUTO 04006KT 4SM 16/14 A3000 RMK SLP166 T01610144 52020 IEM_DS3505
ZGSZ,2001-01-09 01:00,ZGSZ 090100Z AUTO 02006KT 4SM 19/17 A3000 RMK T01900170 IEM_DS3505
ZGSZ,2001-01-09 02:00,ZGSZ 090200Z AUTO 36008KT 3SM 19/17 A3003 RMK T01900170 IEM_DS3505
ZGSZ,2001-01-09 03:00,ZGSZ 090300Z AUTO 36004KT 4SM 20/14 A3003 RMK SLP173 T01970144 52008 IEM_DS3505
ZGSZ,2001-01-09 04:00,ZGSZ 090400Z AUTO 32012KT 2 1/2SM 21/17 A3000 RMK T02100170 IEM_DS3505
ZGSZ,2001-01-09 05:00,ZGSZ 090500Z AUTO 36010KT 3SM 22/16 A2997 RMK T02200160 IEM_DS3505
ZGSZ,2001-01-09 06:00,ZGSZ 090600Z AUTO 34008KT 5SM 22/15 A2997 RMK SLP148 T02210149 57025 IEM_DS3505
ZGSZ,2001-01-09 07:00,ZGSZ 090700Z AUTO 35012KT 3SM 20/16 A2994 RMK T02000160 IEM_DS3505
ZGSZ,2001-01-09 08:00,ZGSZ 090800Z AUTO 35010KT 4SM 19/15 A2994 RMK T01900150 IEM_DS3505
ZGSZ,2001-01-09 09:00,ZGSZ 090900Z AUTO 36012KT 4SM 19/13 A2997 RMK SLP145 T01910127 57004 IEM_DS3505
ZGSZ,2001-01-09 10:00,ZGSZ 091000Z AUTO 35014KT 5SM 17/12 A2997 RMK T01700120 IEM_DS3505
ZGSZ,2001-01-09 11:00,ZGSZ 091100Z AUTO 35012KT 4SM 16/11 A3000 RMK T01600110 IEM_DS3505
ZGSZ,2001-01-09 12:00,ZGSZ 091200Z AUTO 04008KT 6SM 16/09 A3003 RMK SLP168 T01550089 52023 IEM_DS3505
ZGSZ,2001-01-09 13:00,ZGSZ 091300Z AUTO 01017KT 6SM 14/10 A3006 RMK T01400100 IEM_DS3505
ZGSZ,2001-01-09 14:00,ZGSZ 091400Z AUTO 36014KT 6SM 13/09 A3006 RMK T01300090 IEM_DS3505
ZGSZ,2001-01-09 15:00,ZGSZ 091500Z AUTO 36010KT 6SM 12/09 A3009 RMK T01200090 IEM_DS3505
ZGSZ,2001-01-09 16:00,ZGSZ 091600Z AUTO 01012KT 6SM 12/08 A3009 RMK T01200080 IEM_DS3505
ZGSZ,2001-01-09 17:00,ZGSZ 091700Z AUTO 02008KT 6SM 11/08 A3009 RMK T01100080 IEM_DS3505
ZGSZ,2001-01-09 18:00,ZGSZ 091800Z AUTO 04006KT 16SM 11/05 A3009 RMK SLP189 T01120051 57001 IEM_DS3505
ZGSZ,2001-01-09 19:00,ZGSZ 091900Z AUTO 02010KT 6SM 10/07 A3006 RMK T01000070 IEM_DS3505
ZGSZ,2001-01-09 20:00,ZGSZ 092000Z AUTO 36010KT 6SM 10/07 A3003 RMK T01000070 IEM_DS3505
ZGSZ,2001-01-09 21:00,ZGSZ 092100Z AUTO 04008KT 16SM 10/05 A3003 RMK SLP173 T01020049 57016 IEM_DS3505
ZGSZ,2001-01-09 22:00,ZGSZ 092200Z AUTO 02012KT 6SM 10/06 A3003 RMK T01000060 IEM_DS3505
ZGSZ,2001-01-10 00:00,ZGSZ 100000Z AUTO 04006KT 16SM 10/05 A3006 RMK SLP184 T01020049 52010 IEM_DS3505
ZGSZ,2001-01-10 01:00,ZGSZ 100100Z AUTO 02008KT 7SM 11/07 A3009 RMK T01100070 IEM_DS3505
ZGSZ,2001-01-10 02:00,ZGSZ 100200Z AUTO 36008KT 7SM 12/07 A3009 RMK T01200070 IEM_DS3505
ZGSZ,2001-01-10 03:00,ZGSZ 100300Z AUTO 07008KT 11SM 12/06 A3009 RMK SLP189 T01240058 52005 IEM_DS3505
ZGSZ,2001-01-10 04:00,ZGSZ 100400Z AUTO 36008KT 5SM 13/07 A3006 RMK T01300070 IEM_DS3505
ZGSZ,2001-01-10 05:00,ZGSZ 100500Z AUTO 35008KT 5SM 13/08 A3000 RMK T01300080 IEM_DS3505
ZGSZ,2001-01-10 06:00,ZGSZ 100600Z AUTO 34006KT 6SM 15/08 A2997 RMK SLP149 T01470077 57039 IEM_DS3505
ZGSZ,2001-01-10 07:00,ZGSZ 100700Z AUTO 36006KT 5SM 14/09 A2997 RMK T01400090 IEM_DS3505
ZGSZ,2001-01-10 08:00,ZGSZ 100800Z AUTO 32008KT 4SM 14/09 A2994 RMK T01400090 IEM_DS3505
ZGSZ,2001-01-10 09:00,ZGSZ 100900Z AUTO 02004KT 5SM 15/08 A2994 RMK SLP141 T01470077 57008 IEM_DS3505
ZGSZ,2001-01-10 10:00,ZGSZ 101000Z AUTO 36006KT 4SM 14/09 A2994 RMK T01400090 IEM_DS3505
ZGSZ,2001-01-10 11:00,ZGSZ 101100Z AUTO 36006KT 4SM 14/09 A2994 RMK T01400090 IEM_DS3505
ZGSZ,2001-01-10 12:00,ZGSZ 101200Z AUTO 00000KT 9SM 15/08 A2997 RMK SLP149 T01470077 52008 IEM_DS3505
ZGSZ,2001-01-10 13:00,ZGSZ 101300Z AUTO 36008KT 4SM 14/09 A2997 RMK T01400090 IEM_DS3505
ZGSZ,2001-01-10 14:00,ZGSZ 101400Z AUTO 01006KT 4SM 14/10 A3000 RMK T01400100 IEM_DS3505
ZGSZ,2001-01-10 15:00,ZGSZ 101500Z AUTO 01004KT 4SM 14/10 A3000 RMK T01400100 IEM_DS3505
ZGSZ,2001-01-10 16:00,ZGSZ 101600Z AUTO 36006KT 14/10 A3000 RMK T01400100 IEM_DS3505
ZGSZ,2001-01-10 17:00,ZGSZ 101700Z AUTO 36006KT 13/11 A3000 RMK T01300110 IEM_DS3505
ZGSZ,2001-01-10 18:00,ZGSZ 101800Z AUTO 02004KT 8SM 14/08 A3000 RMK SLP161 T01390085 57003 IEM_DS3505
ZGSZ,2001-01-10 19:00,ZGSZ 101900Z AUTO 35008KT 4SM 12/12 A3000 RMK T01200120 IEM_DS3505
ZGSZ,2001-01-10 20:00,ZGSZ 102000Z AUTO 36008KT 4SM 12/11 A3000 RMK T01200110 IEM_DS3505
ZGSZ,2001-01-10 21:00,ZGSZ 102100Z AUTO 36006KT 6SM 13/09 A3000 RMK SLP155 T01270094 57006 IEM_DS3505
ZGSZ,2001-01-10 22:00,ZGSZ 102200Z AUTO 02008KT 3SM 12/11 A2997 RMK T01200110 IEM_DS3505
ZGSZ,2001-01-10 23:00,ZGSZ 102300Z AUTO 01006KT 1 1/2SM 12/11 A3000 RMK T01200110 IEM_DS3505
ZGSZ,2001-01-11 00:00,ZGSZ 110000Z AUTO 04006KT 2 1/2SM 12/10 A3000 RMK 60000 SLP157 T01230100 52002 IEM_DS3505
ZGSZ,2001-01-11 01:00,ZGSZ 110100Z AUTO 35004KT 1 1/4SM 12/12 A3003 RMK T01200120 IEM_DS3505
ZGSZ,2001-01-11 02:00,ZGSZ 110200Z AUTO 35006KT 1 1/2SM 12/12 A3006 RMK T01200120 IEM_DS3505
ZGSZ,2001-01-11 03:00,ZGSZ 110300Z AUTO 02002KT 6SM 13/11 A3003 RMK SLP176 T01280109 52019 IEM_DS3505
ZGSZ,2001-01-11 04:00,ZGSZ 110400Z AUTO 33004KT 1 1/2SM 12/12 A3003 RMK T01200120 IEM_DS3505
ZGSZ,2001-01-11 05:00,ZGSZ 110500Z AUTO 33006KT 2 1/2SM 13/13 A3000 RMK T01300130 IEM_DS3505
ZGSZ,2001-01-11 06:00,ZGSZ 110600Z AUTO 02004KT 3SM 13/12 A2997 RMK 60008 SLP154 T01340121 57022 IEM_DS3505
ZGSZ,2001-01-11 07:00,ZGSZ 110700Z AUTO 36006KT 2 1/2SM 14/13 A2994 RMK T01400130 IEM_DS3505
ZGSZ,2001-01-11 08:00,ZGSZ 110800Z AUTO 01008KT 3SM 15/13 A2991 RMK T01500130 IEM_DS3505
ZGSZ,2001-01-11 09:00,ZGSZ 110900Z AUTO 04004KT 4SM 15/12 A2994 RMK SLP143 T01520125 57011 IEM_DS3505
ZGSZ,2001-01-11 10:00,ZGSZ 111000Z AUTO 36004KT 4SM 16/14 A2994 RMK T01600140 IEM_DS3505
ZGSZ,2001-01-11 11:00,ZGSZ 111100Z AUTO 02004KT 4SM 15/13 A2994 RMK T01500130 IEM_DS3505
ZGSZ,2001-01-11 12:00,ZGSZ 111200Z AUTO 34002KT 4SM 16/13 A2997 RMK 60003 SLP157 T01550128 52014 IEM_DS3505
ZGSZ,2001-01-11 13:00,ZGSZ 111300Z AUTO 03004KT 2 1/2SM 15/13 A2997 RMK T01500130 IEM_DS3505
ZGSZ,2001-01-11 14:00,ZGSZ 111400Z AUTO 01002KT 2 1/2SM 15/14 A3000 RMK T01500140 IEM_DS3505
ZGSZ,2001-01-11 16:00,ZGSZ 111600Z AUTO 36004KT 2 1/2SM 15/13 A3003 RMK T01500130 IEM_DS3505
ZGSZ,2001-01-11 17:00,ZGSZ 111700Z AUTO 02006KT 15/13 A3003 RMK T01500130 IEM_DS3505
ZGSZ,2001-01-11 18:00,ZGSZ 111800Z AUTO 04008KT 4SM 15/12 A3000 RMK SLP165 T01520123 52002 IEM_DS3505
ZGSZ,2001-01-11 19:00,ZGSZ 111900Z AUTO 01004KT 3SM 16/14 A2997 RMK T01600140 IEM_DS3505
ZGSZ,2001-01-11 20:00,ZGSZ 112000Z AUTO 32004KT 3SM 16/14 A2997 RMK T01600140 IEM_DS3505
ZGSZ,2001-01-11 21:00,ZGSZ 112100Z AUTO 04008KT 4SM 16/13 A2997 RMK 70010 SLP155 T01560133 57010 IEM_DS3505
ZGSZ,2001-01-11 22:00,ZGSZ 112200Z AUTO 00000KT 3SM 16/15 A2997 RMK T01600150 IEM_DS3505
ZGSZ,2001-01-11 23:00,ZGSZ 112300Z AUTO 30002KT 3SM 16/15 A2997 RMK T01600150 IEM_DS3505
ZGSZ,2001-01-12 00:00,ZGSZ 120000Z AUTO 09008KT 8SM 17/14 A3000 RMK 70009 SLP166 T01710145 52011 IEM_DS3505
ZGSZ,2001-01-12 01:00,ZGSZ 120100Z AUTO 12004KT 2 1/2SM 18/16 A3000 RMK T01800160 IEM_DS3505
ZGSZ,2001-01-12 02:00,ZGSZ 120200Z AUTO 11006KT 3SM 20/17 A3003 RMK T02000170 IEM_DS3505
ZGSZ,2001-01-12 03:00,ZGSZ 120300Z AUTO 09006KT 11SM 18/14 A3003 RMK SLP179 T01830136 52013 IEM_DS3505
ZGSZ,2001-01-12 04:00,ZGSZ 120400Z AUTO 13008KT 7SM 21/17 A3000 RMK T02100170 IEM_DS3505
ZGSZ,2001-01-12 05:00,ZGSZ 120500Z AUTO 11008KT 6SM 20/17 A2997 RMK T02000170 IEM_DS3505
ZGSZ,2001-01-12 06:00,ZGSZ 120600Z AUTO 09006KT 11SM 19/14 A2994 RMK SLP146 T01910139 57033 IEM_DS3505
ZGSZ,2001-01-12 07:00,ZGSZ 120700Z AUTO 12006KT 6SM 22/17 A2994 RMK T02200170 IEM_DS3505
ZGSZ,2001-01-12 08:00,ZGSZ 120800Z AUTO 18004KT 6SM 23/17 A2994 RMK T02300170 IEM_DS3505
ZGSZ,2001-01-12 09:00,ZGSZ 120900Z AUTO 09006KT 12SM 20/14 A2994 RMK SLP144 T02000136 57002 IEM_DS3505
ZGSZ,2001-01-12 10:00,ZGSZ 121000Z AUTO 33002KT 6SM 20/17 A2997 RMK T02000170 IEM_DS3505
ZGSZ,2001-01-12 11:00,ZGSZ 121100Z AUTO 29002KT 4SM 20/17 A2997 RMK T02000170 IEM_DS3505
ZGSZ,2001-01-12 12:00,ZGSZ 121200Z AUTO 14004KT 11SM 18/13 A2997 RMK SLP158 T01850134 52014 IEM_DS3505
ZGSZ,2001-01-12 13:00,ZGSZ 121300Z AUTO 29004KT 1 1/4SM 18/18 A3000 RMK T01800180 IEM_DS3505
ZGSZ,2001-01-12 14:00,ZGSZ 121400Z AUTO 29004KT 1 1/4SM 17/17 A3003 RMK T01700170 IEM_DS3505
ZGSZ,2001-01-12 15:00,ZGSZ 121500Z AUTO 01002KT 1 1/4SM 17/17 A3003 RMK T01700170 IEM_DS3505
ZGSZ,2001-01-12 16:00,ZGSZ 121600Z AUTO 32006KT 1 1/4SM 18/17 A3006 RMK T01800170 IEM_DS3505
ZGSZ,2001-01-12 17:00,ZGSZ 121700Z AUTO 35010KT 1 1/4SM 17/16 A3003 RMK T01700160 IEM_DS3505
ZGSZ,2001-01-12 18:00,ZGSZ 121800Z AUTO 02006KT 6SM 18/15 A3003 RMK SLP178 T01750146 54000 IEM_DS3505
ZGSZ,2001-01-12 19:00,ZGSZ 121900Z AUTO 35008KT 1 1/2SM 16/16 A3006 RMK T01600160 IEM_DS3505
ZGSZ,2001-01-12 20:00,ZGSZ 122000Z AUTO 33012KT 4SM 16/15 A3006 RMK T01600150 IEM_DS3505
ZGSZ,2001-01-12 21:00,ZGSZ 122100Z AUTO 04006KT 8SM 16/14 A3006 RMK 70001 SLP182 T01570136 52004 IEM_DS3505
ZGSZ,2001-01-12 22:00,ZGSZ 122200Z AUTO 36012KT 6SM 14/14 A3006 RMK T01400140 IEM_DS3505
ZGSZ,2001-01-12 23:00,ZGSZ 122300Z AUTO 01010KT 7SM 14/13 A3009 RMK T01400130 IEM_DS3505
ZGSZ,2001-01-13 00:00,ZGSZ 130000Z AUTO 04010KT 19SM 14/08 A3009 RMK 60001 SLP184 T01360082 52002 IEM_DS3505
ZGSZ,2001-01-13 01:00,ZGSZ 130100Z AUTO 36010KT 6SM 14/12 A3009 RMK T01400120 IEM_DS3505
ZGSZ,2001-01-13 02:00,ZGSZ 130200Z AUTO 36008KT 6SM 14/11 A3012 RMK T01400110 IEM_DS3505
ZGSZ,2001-01-13 03:00,ZGSZ 130300Z AUTO 04006KT 17SM 15/07 A3009 RMK SLP194 T01510074 52010 IEM_DS3505
ZGSZ,2001-01-13 04:00,ZGSZ 130400Z AUTO 36010KT 6SM 16/11 A3009 RMK T01600110 IEM_DS3505
ZGSZ,2001-01-13 05:00,ZGSZ 130500Z AUTO 35010KT 6SM 18/11 A3006 RMK T01800110 IEM_DS3505
ZGSZ,2001-01-13 06:00,ZGSZ 130600Z AUTO 04008KT 16SM 18/09 A3000 RMK SLP170 T01830089 57024 IEM_DS3505
ZGSZ,2001-01-13 07:00,ZGSZ 130700Z AUTO 35008KT 6SM 19/11 A3000 RMK T01900110 IEM_DS3505
ZGSZ,2001-01-13 08:00,ZGSZ 130800Z AUTO 36010KT 6SM 19/11 A2997 RMK T01900110 IEM_DS3505
ZGSZ,2001-01-13 09:00,ZGSZ 130900Z AUTO 34004KT 12SM 19/09 A3000 RMK SLP157 T01940094 57013 IEM_DS3505
ZGSZ,2001-01-13 10:00,ZGSZ 131000Z AUTO 36008KT 6SM 18/10 A3000 RMK T01800100 IEM_DS3505
ZGSZ,2001-01-13 11:00,ZGSZ 131100Z AUTO 36006KT 6SM 17/10 A3003 RMK T01700100 IEM_DS3505
ZGSZ,2001-01-13 12:00,ZGSZ 131200Z AUTO 04010KT 11SM 17/07 A3003 RMK SLP176 T01690071 52019 IEM_DS3505
ZGSZ,2001-01-13 14:00,ZGSZ 131400Z AUTO 03006KT 6SM 15/08 A3006 RMK T01500080 IEM_DS3505
ZGSZ,2001-01-13 15:00,ZGSZ 131500Z AUTO 02006KT 6SM 14/09 A3009 RMK T01400090 IEM_DS3505
ZGSZ,2001-01-13 16:00,ZGSZ 131600Z AUTO 02008KT 6SM 15/08 A3009 RMK T01500080 IEM_DS3505
ZGSZ,2001-01-13 17:00,ZGSZ 131700Z AUTO 03008KT 6SM 14/08 A3012 RMK T01400080 IEM_DS3505
ZGSZ,2001-01-13 18:00,ZGSZ 131800Z AUTO 04008KT 12SM 14/06 A3012 RMK SLP206 T01350064 52015 IEM_DS3505
ZGSZ,2001-01-13 19:00,ZGSZ 131900Z AUTO 02006KT 6SM 13/07 A3015 RMK T01300070 IEM_DS3505
ZGSZ,2001-01-13 20:00,ZGSZ 132000Z AUTO 01006KT 6SM 12/07 A3015 RMK T01200070 IEM_DS3505
ZGSZ,2001-01-13 21:00,ZGSZ 132100Z AUTO 07008KT 11SM 12/06 A3015 RMK 70003 SLP214 T01200058 52008 IEM_DS3505
ZGSZ,2001-01-13 22:00,ZGSZ 132200Z AUTO 03012KT 6SM 12/06 A3018 RMK T01200060 IEM_DS3505
ZGSZ,2001-01-13 23:00,ZGSZ 132300Z AUTO 02012KT 6SM 12/06 A3018 RMK T01200060 IEM_DS3505
ZGSZ,2001-01-14 00:00,ZGSZ 140000Z AUTO 04008KT 12SM 12/05 A3021 RMK SLP232 T01150049 52017 IEM_DS3505
ZGSZ,2001-01-14 01:00,ZGSZ 140100Z AUTO 02010KT 6SM 13/06 A3021 RMK T01300060 IEM_DS3505
ZGSZ,2001-01-14 02:00,ZGSZ 140200Z AUTO 02010KT 6SM 14/07 A3024 RMK T01400070 IEM_DS3505
ZGSZ,2001-01-14 03:00,ZGSZ 140300Z AUTO 34006KT 9SM 14/06 A3021 RMK SLP234 T01430059 52003 IEM_DS3505
ZGSZ,2001-01-14 04:00,ZGSZ 140400Z AUTO 35006KT 6SM 18/08 A3021 RMK T01800080 IEM_DS3505
ZGSZ,2001-01-14 05:00,ZGSZ 140500Z AUTO 35010KT 6SM 18/08 A3018 RMK T01800080 IEM_DS3505
ZGSZ,2001-01-14 06:00,ZGSZ 140600Z AUTO 04006KT 9SM 20/09 A3015 RMK SLP206 T01950088 57028 IEM_DS3505
ZGSZ,2001-01-14 07:00,ZGSZ 140700Z AUTO 36010KT 6SM 18/09 A3012 RMK T01800090 IEM_DS3505
ZGSZ,2001-01-14 08:00,ZGSZ 140800Z AUTO 02008KT 6SM 18/08 A3009 RMK T01800080 IEM_DS3505
ZGSZ,2001-01-14 09:00,ZGSZ 140900Z AUTO 04006KT 9SM 19/08 A3012 RMK SLP198 T01870078 57008 IEM_DS3505
ZGSZ,2001-01-14 10:00,ZGSZ 141000Z AUTO 01006KT 6SM 17/09 A3012 RMK T01700090 IEM_DS3505
ZGSZ,2001-01-14 11:00,ZGSZ 141100Z AUTO 02006KT 6SM 17/08 A3015 RMK T01700080 IEM_DS3505
ZGSZ,2001-01-14 12:00,ZGSZ 141200Z AUTO 04006KT 9SM 16/07 A3018 RMK SLP226 T01650070 52027 IEM_DS3505
ZGSZ,2001-01-14 13:00,ZGSZ 141300Z AUTO 04010KT 6SM 17/06 A3021 RMK T01700060 IEM_DS3505
ZGSZ,2001-01-14 14:00,ZGSZ 141400Z AUTO 03004KT 6SM 16/07 A3021 RMK T01600070 IEM_DS3505
ZGSZ,2001-01-14 15:00,ZGSZ 141500Z AUTO 04004KT 6SM 15/06 A3024 RMK T01500060 IEM_DS3505
ZGSZ,2001-01-14 16:00,ZGSZ 141600Z AUTO 02004KT 6SM 15/06 A3024 RMK T01500060 IEM_DS3505
ZGSZ,2001-01-14 17:00,ZGSZ 141700Z AUTO 03006KT 14/06 A3021 RMK T01400060 IEM_DS3505
ZGSZ,2001-01-14 18:00,ZGSZ 141800Z AUTO 04010KT 8SM 14/05 A3021 RMK SLP219 T01350046 57019 IEM_DS3505
ZGSZ,2001-01-14 19:00,ZGSZ 141900Z AUTO 03006KT 12/06 A3021 RMK T01200060 IEM_DS3505
ZGSZ,2001-01-14 20:00,ZGSZ 142000Z AUTO 04008KT 12/05 A3021 RMK T01200050 IEM_DS3505
ZGSZ,2001-01-14 21:00,ZGSZ 142100Z AUTO 04010KT 8SM 11/04 A3021 RMK SLP229 T01140037 52010 IEM_DS3505
ZGSZ,2001-01-14 22:00,ZGSZ 142200Z AUTO 03012KT 6SM 11/05 A3021 RMK T01100050 IEM_DS3505
ZGSZ,2001-01-14 23:00,ZGSZ 142300Z AUTO 02010KT 6SM 11/04 A3024 RMK T01100040 IEM_DS3505
ZGSZ,2001-01-15 00:00,ZGSZ 150000Z AUTO 04010KT 5SM 11/03 A3027 RMK SLP250 T01070031 52020 IEM_DS3505
ZGSZ,2001-01-15 01:00,ZGSZ 150100Z AUTO 03008KT 11/05 A3030 RMK T01100050 IEM_DS3505
ZGSZ,2001-01-15 02:00,ZGSZ 150200Z AUTO 02010KT 5SM 12/04 A3033 RMK T01200040 IEM_DS3505
ZGSZ,2001-01-15 03:00,ZGSZ 150300Z AUTO 04010KT 5SM 13/04 A3030 RMK SLP267 T01310037 52017 IEM_DS3505
ZGSZ,2001-01-15 04:00,ZGSZ 150400Z AUTO 03012KT 5SM 13/04 A3030 RMK T01300040 IEM_DS3505
ZGSZ,2001-01-15 05:00,ZGSZ 150500Z AUTO 02010KT 13/05 A3027 RMK T01300050 IEM_DS3505
ZGSZ,2001-01-15 06:00,ZGSZ 150600Z AUTO 34008KT 5SM 14/04 A3024 RMK SLP250 T01390037 57017 IEM_DS3505
ZGSZ,2001-01-15 07:00,ZGSZ 150700Z AUTO 36012KT 5SM 14/04 A3024 RMK T01400040 IEM_DS3505
ZGSZ,2001-01-15 08:00,ZGSZ 150800Z AUTO 36010KT 5SM 13/05 A3024 RMK T01300050 IEM_DS3505
ZGSZ,2001-01-15 09:00,ZGSZ 150900Z AUTO 04008KT 4SM 14/04 A3024 RMK SLP245 T01360042 57005 IEM_DS3505
ZGSZ,2001-01-15 10:00,ZGSZ 151000Z AUTO 36008KT 2 1/2SM 14/05 A3027 RMK T01400050 IEM_DS3505
ZGSZ,2001-01-15 11:00,ZGSZ 151100Z AUTO 36010KT 2 1/2SM 13/06 A3027 RMK T01300060 IEM_DS3505
ZGSZ,2001-01-15 12:00,ZGSZ 151200Z AUTO 04008KT 10SM 13/04 A3030 RMK 60003 SLP265 T01320036 52020 IEM_DS3505
ZGSZ,2001-01-15 13:00,ZGSZ 151300Z AUTO 02008KT 2SM 13/06 A3030 RMK T01300060 IEM_DS3505
ZGSZ,2001-01-15 14:00,ZGSZ 151400Z AUTO 02004KT 2 1/2SM 13/05 A3033 RMK T01300050 IEM_DS3505
ZGSZ,2001-01-15 15:00,ZGSZ 151500Z AUTO 02004KT 3SM 13/05 A3033 RMK T01300050 IEM_DS3505
ZGSZ,2001-01-15 16:00,ZGSZ 151600Z AUTO 03006KT 3SM 13/05 A3030 RMK T01300050 IEM_DS3505
ZGSZ,2001-01-15 17:00,ZGSZ 151700Z AUTO 36006KT 3SM 13/06 A3033 RMK T01300060 IEM_DS3505
ZGSZ,2001-01-15 18:00,ZGSZ 151800Z AUTO 04006KT 8SM 13/04 A3030 RMK 60003 SLP260 T01280036 57012 IEM_DS3505
ZGSZ,2001-01-15 19:00,ZGSZ 151900Z AUTO 01006KT 3SM 13/05 A3030 RMK T01300050 IEM_DS3505
ZGSZ,2001-01-15 20:00,ZGSZ 152000Z AUTO 36008KT 3SM 12/05 A3030 RMK T01200050 IEM_DS3505
ZGSZ,2001-01-15 21:00,ZGSZ 152100Z AUTO 04008KT 7SM 12/04 A3030 RMK 70003 SLP256 T01210035 57004 IEM_DS3505
ZGSZ,2001-01-15 22:00,ZGSZ 152200Z AUTO 01008KT 4SM 12/04 A3030 RMK T01200040 IEM_DS3505
ZGSZ,2001-01-15 23:00,ZGSZ 152300Z AUTO 03006KT 5SM 12/04 A3030 RMK T01200040 IEM_DS3505
ZGSZ,2001-01-16 00:00,ZGSZ 160000Z AUTO 04006KT 8SM 12/03 A3033 RMK 60003 SLP262 T01170033 52006 IEM_DS3505
ZGSZ,2001-01-16 01:00,ZGSZ 160100Z AUTO 35004KT 6SM 13/04 A3033 RMK T01300040 IEM_DS3505
ZGSZ,2001-01-16 02:00,ZGSZ 160200Z AUTO 36006KT 6SM 13/04 A3036 RMK T01300040 IEM_DS3505
ZGSZ,2001-01-16 03:00,ZGSZ 160300Z AUTO 02004KT 5SM 14/04 A3033 RMK SLP278 T01350040 52016 IEM_DS3505
ZGSZ,2001-01-16 04:00,ZGSZ 160400Z AUTO 35006KT 6SM 16/06 A3033 RMK T01600060 IEM_DS3505
ZGSZ,2001-01-16 05:00,ZGSZ 160500Z AUTO 33006KT 6SM 18/06 A3027 RMK T01800060 IEM_DS3505
ZGSZ,2001-01-16 06:00,ZGSZ 160600Z AUTO 09004KT 8SM 18/06 A3021 RMK SLP240 T01810056 57037 IEM_DS3505
ZGSZ,2001-01-16 07:00,ZGSZ 160700Z AUTO 26008KT 6SM 18/07 A3021 RMK T01800070 IEM_DS3505
ZGSZ,2001-01-16 08:00,ZGSZ 160800Z AUTO 28008KT 6SM 18/08 A3018 RMK T01800080 IEM_DS3505
ZGSZ,2001-01-16 09:00,ZGSZ 160900Z AUTO 09006KT 7SM 18/07 A3021 RMK SLP231 T01800068 57009 IEM_DS3505
ZGSZ,2001-01-16 10:00,ZGSZ 161000Z AUTO 30006KT 3SM 16/09 A3021 RMK T01600090 IEM_DS3505
ZGSZ,2001-01-16 11:00,ZGSZ 161100Z AUTO 08004KT 2 1/2SM 15/10 A3021 RMK T01500100 IEM_DS3505
ZGSZ,2001-01-16 12:00,ZGSZ 161200Z AUTO 14008KT 5SM 15/09 A3024 RMK SLP250 T01490090 52018 IEM_DS3505
ZGSZ,2001-01-16 13:00,ZGSZ 161300Z AUTO 13006KT 2SM 15/11 A3027 RMK T01500110 IEM_DS3505
ZGSZ,2001-01-16 14:00,ZGSZ 161400Z AUTO 10006KT 2 1/2SM 14/11 A3027 RMK T01400110 IEM_DS3505
ZGSZ,2001-01-16 15:00,ZGSZ 161500Z AUTO 10008KT 2 1/2SM 14/11 A3027 RMK T01400110 IEM_DS3505
ZGSZ,2001-01-16 16:00,ZGSZ 161600Z AUTO 10008KT 3SM 14/12 A3027 RMK T01400120 IEM_DS3505
ZGSZ,2001-01-16 17:00,ZGSZ 161700Z AUTO 04002KT 13/11 A3030 RMK T01300110 IEM_DS3505
ZGSZ,2001-01-16 18:00,ZGSZ 161800Z AUTO 07004KT 6SM 15/10 A3027 RMK SLP259 T01480096 57001 IEM_DS3505
ZGSZ,2001-01-16 19:00,ZGSZ 161900Z AUTO 08006KT 2 1/2SM 14/11 A3027 RMK T01400110 IEM_DS3505
ZGSZ,2001-01-16 20:00,ZGSZ 162000Z AUTO 07006KT 3SM 14/11 A3024 RMK T01400110 IEM_DS3505
ZGSZ,2001-01-16 21:00,ZGSZ 162100Z AUTO 07010KT 7SM 14/09 A3024 RMK 70003 SLP244 T01410088 57015 IEM_DS3505
ZGSZ,2001-01-16 22:00,ZGSZ 162200Z AUTO 09008KT 3SM 13/10 A3024 RMK T01300100 IEM_DS3505
ZGSZ,2001-01-16 23:00,ZGSZ 162300Z AUTO 06004KT 4SM 13/10 A3024 RMK T01300100 IEM_DS3505
ZGSZ,2001-01-17 00:00,ZGSZ 170000Z AUTO 04008KT 9SM 14/08 A3027 RMK SLP249 T01390078 52004 IEM_DS3505
ZGSZ,2001-01-17 01:00,ZGSZ 170100Z AUTO 03006KT 6SM 15/10 A3027 RMK T01500100 IEM_DS3505
ZGSZ,2001-01-17 02:00,ZGSZ 170200Z AUTO 05004KT 6SM 17/09 A3027 RMK T01700090 IEM_DS3505
ZGSZ,2001-01-17 03:00,ZGSZ 170300Z AUTO 07008KT 9SM 17/06 A3027 RMK SLP249 T01670065 52001 IEM_DS3505
ZGSZ,2001-01-17 04:00,ZGSZ 170400Z AUTO 24006KT 6SM 19/10 A3024 RMK T01900100 IEM_DS3505
ZGSZ,2001-01-17 05:00,ZGSZ 170500Z AUTO 25006KT 6SM 20/11 A3021 RMK T02000110 IEM_DS3505
ZGSZ,2001-01-17 06:00,ZGSZ 170600Z AUTO 09006KT 12SM 21/05 A3018 RMK SLP222 T02060049 57027 IEM_DS3505
ZGSZ,2001-01-17 07:00,ZGSZ 170700Z AUTO 20008KT 6SM 19/12 A3015 RMK T01900120 IEM_DS3505
ZGSZ,2001-01-17 08:00,ZGSZ 170800Z AUTO 19008KT 6SM 19/14 A3012 RMK T01900140 IEM_DS3505
ZGSZ,2001-01-17 09:00,ZGSZ 170900Z AUTO 11008KT 14SM 20/08 A3012 RMK SLP211 T01980075 57011 IEM_DS3505
ZGSZ,2001-01-17 10:00,ZGSZ 171000Z AUTO 16008KT 6SM 18/13 A3012 RMK T01800130 IEM_DS3505
ZGSZ,2001-01-17 11:00,ZGSZ 171100Z AUTO 10008KT 5SM 18/10 A3012 RMK T01800100 IEM_DS3505
ZGSZ,2001-01-17 12:00,ZGSZ 171200Z AUTO 09008KT 10SM 17/10 A3012 RMK SLP211 T01670099 54000 IEM_DS3505
ZGSZ,2001-01-17 13:00,ZGSZ 171300Z AUTO 12008KT 6SM 17/12 A3015 RMK T01700120 IEM_DS3505
ZGSZ,2001-01-17 14:00,ZGSZ 171400Z AUTO 13008KT 6SM 17/12 A3015 RMK T01700120 IEM_DS3505
ZGSZ,2001-01-17 15:00,ZGSZ 171500Z AUTO 10010KT 6SM 17/11 A3015 RMK T01700110 IEM_DS3505
ZGSZ,2001-01-17 16:00,ZGSZ 171600Z AUTO 08008KT 6SM 17/10 A3015 RMK T01700100 IEM_DS3505
ZGSZ,2001-01-17 17:00,ZGSZ 171700Z AUTO 03002KT 4SM 16/12 A3015 RMK T01600120 IEM_DS3505
ZGSZ,2001-01-17 18:00,ZGSZ 171800Z AUTO 04004KT 11SM 15/10 A3015 RMK SLP216 T01500104 57009 IEM_DS3505
ZGSZ,2001-01-17 19:00,ZGSZ 171900Z AUTO 10002KT 5SM 14/11 A3012 RMK T01400110 IEM_DS3505
ZGSZ,2001-01-17 20:00,ZGSZ 172000Z AUTO 02002KT 5SM 14/11 A3012 RMK T01400110 IEM_DS3505
ZGSZ,2001-01-17 21:00,ZGSZ 172100Z AUTO 02004KT 6SM 15/12 A3012 RMK T01500120 IEM_DS3505
ZGSZ,2001-01-17 22:00,ZGSZ 172200Z AUTO 36002KT 6SM 15/11 A3012 RMK T01500110 IEM_DS3505
ZGSZ,2001-01-17 23:00,ZGSZ 172300Z AUTO 36004KT 6SM 14/12 A3012 RMK T01400120 IEM_DS3505
ZGSZ,2001-01-18 00:00,ZGSZ 180000Z AUTO 04006KT 5SM 14/11 A3015 RMK SLP216 T01380108 52011 IEM_DS3505
ZGSZ,2001-01-18 01:00,ZGSZ 180100Z AUTO 02004KT 18/12 A3015 RMK T01800120 IEM_DS3505
ZGSZ,2001-01-18 02:00,ZGSZ 180200Z AUTO 22004KT 6SM 19/14 A3018 RMK T01900140 IEM_DS3505
ZGSZ,2001-01-18 03:00,ZGSZ 180300Z AUTO 04004KT 5SM 19/12 A3018 RMK SLP227 T01920120 52011 IEM_DS3505
ZGSZ,2001-01-18 04:00,ZGSZ 180400Z AUTO 26004KT 22/15 A3015 RMK T02200150 IEM_DS3505
ZGSZ,2001-01-18 05:00,ZGSZ 180500Z AUTO 26006KT 23/15 A3012 RMK T02300150 IEM_DS3505
ZGSZ,2001-01-18 06:00,ZGSZ 180600Z AUTO 09006KT 19SM 24/14 A3009 RMK SLP191 T02360137 57036 IEM_DS3505
ZGSZ,2001-01-18 07:00,ZGSZ 180700Z AUTO 23004KT 23/15 A3006 RMK T02300150 IEM_DS3505
ZGSZ,2001-01-18 08:00,ZGSZ 180800Z AUTO 23004KT 6SM 23/16 A3006 RMK T02300160 IEM_DS3505
ZGSZ,2001-01-18 09:00,ZGSZ 180900Z AUTO 07006KT 19SM 23/14 A3003 RMK SLP178 T02340143 57013 IEM_DS3505
ZGSZ,2001-01-18 10:00,ZGSZ 181000Z AUTO 16006KT 6SM 22/16 A3006 RMK T02200160 IEM_DS3505
ZGSZ,2001-01-18 11:00,ZGSZ 181100Z AUTO 21006KT 6SM 20/18 A3006 RMK T02000180 IEM_DS3505
ZGSZ,2001-01-18 12:00,ZGSZ 181200Z AUTO 09004KT 11SM 20/14 A3009 RMK SLP199 T01990142 52021 IEM_DS3505
ZGSZ,2001-01-18 13:00,ZGSZ 181300Z AUTO 28002KT 6SM 17/17 A3012 RMK T01700170 IEM_DS3505
ZGSZ,2001-01-18 14:00,ZGSZ 181400Z AUTO 11006KT 6SM 19/16 A3012 RMK T01900160 IEM_DS3505
ZGSZ,2001-01-18 15:00,ZGSZ 181500Z AUTO 08004KT 6SM 20/17 A3012 RMK T02000170 IEM_DS3505
ZGSZ,2001-01-18 16:00,ZGSZ 181600Z AUTO 05004KT 6SM 20/17 A3012 RMK T02000170 IEM_DS3505
ZGSZ,2001-01-18 17:00,ZGSZ 181700Z AUTO 19002KT 6SM 17/16 A3012 RMK T01700160 IEM_DS3505
ZGSZ,2001-01-18 18:00,ZGSZ 181800Z AUTO 09006KT 11SM 18/15 A3012 RMK SLP205 T01850153 57004 IEM_DS3505
ZGSZ,2001-01-18 19:00,ZGSZ 181900Z AUTO 34002KT 6SM 16/16 A3012 RMK T01600160 IEM_DS3505
ZGSZ,2001-01-18 20:00,ZGSZ 182000Z AUTO 12002KT 6SM 15/15 A3009 RMK T01500150 IEM_DS3505
ZGSZ,2001-01-18 21:00,ZGSZ 182100Z AUTO 07004KT 9SM 18/15 A3012 RMK SLP199 T01820151 57006 IEM_DS3505
ZGSZ,2001-01-18 22:00,ZGSZ 182200Z AUTO 35002KT 6SM 16/16 A3012 RMK T01600160 IEM_DS3505
ZGSZ,2001-01-18 23:00,ZGSZ 182300Z AUTO 01002KT 4SM 15/15 A3012 RMK T01500150 IEM_DS3505
ZGSZ,2001-01-19 00:00,ZGSZ 190000Z AUTO 04004KT 8SM 18/15 A3015 RMK SLP211 T01760152 52011 IEM_DS3505
ZGSZ,2001-01-19 01:00,ZGSZ 190100Z AUTO 24002KT 4SM 19/17 A3015 RMK T01900170 IEM_DS3505
ZGSZ,2001-01-19 02:00,ZGSZ 190200Z AUTO 26002KT 3SM 21/18 A3018 RMK T02100180 IEM_DS3505
ZGSZ,2001-01-19 03:00,ZGSZ 190300Z AUTO 14004KT 7SM 21/15 A3015 RMK SLP215 T02110152 52004 IEM_DS3505
ZGSZ,2001-01-19 04:00,ZGSZ 190400Z AUTO 27006KT 4SM 22/18 A3015 RMK T02200180 IEM_DS3505
ZGSZ,2001-01-19 05:00,ZGSZ 190500Z AUTO 27004KT 3SM 23/18 A3009 RMK T02300180 IEM_DS3505
ZGSZ,2001-01-19 06:00,ZGSZ 190600Z AUTO 14006KT 12SM 24/15 A3006 RMK SLP189 T02390149 57025 IEM_DS3505
ZGSZ,2001-01-19 07:00,ZGSZ 190700Z AUTO 25006KT 6SM 25/17 A3003 RMK T02500170 IEM_DS3505
ZGSZ,2001-01-19 08:00,ZGSZ 190800Z AUTO 23004KT 6SM 25/16 A3003 RMK T02500160 IEM_DS3505
ZGSZ,2001-01-19 09:00,ZGSZ 190900Z AUTO 07006KT 16SM 26/22 A3003 RMK SLP176 T02550222 57013 IEM_DS3505
ZGSZ,2001-01-19 10:00,ZGSZ 191000Z AUTO 21002KT 6SM 21/18 A3006 RMK T02100180 IEM_DS3505
ZGSZ,2001-01-19 11:00,ZGSZ 191100Z AUTO 15002KT 3SM 19/18 A3006 RMK T01900180 IEM_DS3505
ZGSZ,2001-01-19 12:00,ZGSZ 191200Z AUTO 09004KT 11SM 21/15 A3009 RMK SLP194 T02070148 52017 IEM_DS3505
ZGSZ,2001-01-19 13:00,ZGSZ 191300Z AUTO 11006KT 2SM 20/17 A3009 RMK T02000170 IEM_DS3505
ZGSZ,2001-01-19 14:00,ZGSZ 191400Z AUTO 11008KT 2SM 20/17 A3009 RMK T02000170 IEM_DS3505
ZGSZ,2001-01-19 15:00,ZGSZ 191500Z AUTO 13006KT 6SM 20/16 A3009 RMK T02000160 IEM_DS3505
ZGSZ,2001-01-19 16:00,ZGSZ 191600Z AUTO 11008KT 6SM 20/16 A3009 RMK T02000160 IEM_DS3505
ZGSZ,2001-01-19 17:00,ZGSZ 191700Z AUTO 09004KT 6SM 20/16 A3009 RMK T02000160 IEM_DS3505
ZGSZ,2001-01-19 18:00,ZGSZ 191800Z AUTO 09004KT 6SM 19/14 A3009 RMK SLP195 T01870140 57002 IEM_DS3505
ZGSZ,2001-01-19 19:00,ZGSZ 191900Z AUTO 03002KT 6SM 17/16 A3009 RMK T01700160 IEM_DS3505
ZGSZ,2001-01-19 20:00,ZGSZ 192000Z AUTO 00000KT 6SM 16/16 A3009 RMK T01600160 IEM_DS3505
ZGSZ,2001-01-19 21:00,ZGSZ 192100Z AUTO 04004KT 4SM 18/15 A3006 RMK SLP188 T01770146 57007 IEM_DS3505
ZGSZ,2001-01-19 22:00,ZGSZ 192200Z AUTO 02002KT 3SM 15/15 A3009 RMK T01500150 IEM_DS3505
ZGSZ,2001-01-19 23:00,ZGSZ 192300Z AUTO 01004KT 3SM 15/15 A3009 RMK T01500150 IEM_DS3505
ZGSZ,2001-01-20 00:00,ZGSZ 200000Z AUTO 04006KT 9SM 17/15 A3009 RMK SLP199 T01720146 52010 IEM_DS3505
ZGSZ,2001-01-20 01:00,ZGSZ 200100Z AUTO 36004KT 4SM 20/17 A3009 RMK T02000170 IEM_DS3505
ZGSZ,2001-01-20 02:00,ZGSZ 200200Z AUTO 05006KT 3SM 23/18 A3012 RMK T02300180 IEM_DS3505
ZGSZ,2001-01-20 03:00,ZGSZ 200300Z AUTO 34002KT 7SM 20/15 A3012 RMK SLP197 T01980154 57001 IEM_DS3505
ZGSZ,2001-01-20 04:00,ZGSZ 200400Z AUTO 26006KT 2SM 24/19 A3009 RMK T02400190 IEM_DS3505
ZGSZ,2001-01-20 05:00,ZGSZ 200500Z AUTO 25006KT 2 1/2SM 24/18 A3003 RMK T02400180 IEM_DS3505
ZGSZ,2001-01-20 06:00,ZGSZ 200600Z AUTO 00000KT 8SM 26/16 A3000 RMK SLP161 T02620156 57036 IEM_DS3505
ZGSZ,2001-01-20 07:00,ZGSZ 200700Z AUTO 20006KT 4SM 24/19 A2997 RMK T02400190 IEM_DS3505
ZGSZ,2001-01-20 09:00,ZGSZ 200900Z AUTO 25008KT 7SM 24/16 A2997 RMK SLP154 T02420157 57007 IEM_DS3505
ZGSZ,2001-01-20 10:00,ZGSZ 201000Z AUTO 17008KT 6SM 21/19 A2997 RMK T02100190 IEM_DS3505
ZGSZ,2001-01-20 11:00,ZGSZ 201100Z AUTO 15006KT 6SM 20/19 A2997 RMK T02000190 IEM_DS3505
ZGSZ,2001-01-20 12:00,ZGSZ 201200Z AUTO 14006KT 11SM 22/16 A3000 RMK SLP164 T02150157 52010 IEM_DS3505
ZGSZ,2001-01-20 13:00,ZGSZ 201300Z AUTO 17004KT 2 1/2SM 18/18 A3000 RMK T01800180 IEM_DS3505
ZGSZ,2001-01-20 14:00,ZGSZ 201400Z AUTO 17004KT 3SM 19/18 A3000 RMK T01900180 IEM_DS3505
ZGSZ,2001-01-20 15:00,ZGSZ 201500Z AUTO 19004KT 2 1/2SM 20/19 A3000 RMK T02000190 IEM_DS3505
ZGSZ,2001-01-20 16:00,ZGSZ 201600Z AUTO 15004KT 2SM 20/19 A3000 RMK T02000190 IEM_DS3505
ZGSZ,2001-01-20 17:00,ZGSZ 201700Z AUTO 16006KT 2SM 19/17 A2997 RMK T01900170 IEM_DS3505
ZGSZ,2001-01-20 18:00,ZGSZ 201800Z AUTO 00000KT 10SM 20/16 A2997 RMK SLP153 T01950162 57015 IEM_DS3505
ZGSZ,2001-01-20 19:00,ZGSZ 201900Z AUTO 33002KT 2SM 17/17 A2997 RMK T01700170 IEM_DS3505
ZGSZ,2001-01-20 20:00,ZGSZ 202000Z AUTO 33004KT 1 1/2SM 17/17 A2997 RMK T01700170 IEM_DS3505
ZGSZ,2001-01-20 21:00,ZGSZ 202100Z AUTO 04004KT 7SM 19/16 A2994 RMK SLP149 T01910163 57004 IEM_DS3505
ZGSZ,2001-01-20 22:00,ZGSZ 202200Z AUTO 03002KT 2SM 18/17 A2997 RMK T01800170 IEM_DS3505
ZGSZ,2001-01-20 23:00,ZGSZ 202300Z AUTO 00000KT 4SM 18/18 A2997 RMK T01800180 IEM_DS3505
ZGSZ,2001-01-21 00:00,ZGSZ 210000Z AUTO 09006KT 5SM 20/16 A3000 RMK SLP163 T01950165 52014 IEM_DS3505
ZGSZ,2001-01-21 01:00,ZGSZ 210100Z AUTO 11008KT 2 1/2SM 20/19 A3003 RMK T02000190 IEM_DS3505
ZGSZ,2001-01-21 02:00,ZGSZ 210200Z AUTO 10012KT 3SM 21/19 A3003 RMK T02100190 IEM_DS3505
ZGSZ,2001-01-21 03:00,ZGSZ 210300Z AUTO 07008KT 4SM 19/16 A3003 RMK SLP184 T01860157 52021 IEM_DS3505
ZGSZ,2001-01-21 04:00,ZGSZ 210400Z AUTO 12010KT 4SM 22/19 A3000 RMK T02200190 IEM_DS3505
ZGSZ,2001-01-21 05:00,ZGSZ 210500Z AUTO 11008KT 4SM 22/18 A3000 RMK T02200180 IEM_DS3505
ZGSZ,2001-01-21 06:00,ZGSZ 210600Z AUTO 09010KT 4SM 19/15 A2997 RMK SLP159 T01880151 57025 IEM_DS3505
ZGSZ,2001-01-21 07:00,ZGSZ 210700Z AUTO 11012KT 6SM 22/18 A2994 RMK T02200180 IEM_DS3505
ZGSZ,2001-01-21 08:00,ZGSZ 210800Z AUTO 11010KT 6SM 22/18 A2991 RMK T02200180 IEM_DS3505
ZGSZ,2001-01-21 09:00,ZGSZ 210900Z AUTO 09008KT 6SM 21/15 A2991 RMK SLP136 T02080151 57023 IEM_DS3505
ZGSZ,2001-01-21 10:00,ZGSZ 211000Z AUTO 13008KT 6SM 21/17 A2991 RMK T02100170 IEM_DS3505
ZGSZ,2001-01-21 11:00,ZGSZ 211100Z AUTO 12008KT 6SM 20/17 A2994 RMK T02000170 IEM_DS3505
ZGSZ,2001-01-21 12:00,ZGSZ 211200Z AUTO 14008KT 4SM 18/15 A2997 RMK SLP154 T01830147 52018 IEM_DS3505
ZGSZ,2001-01-21 13:00,ZGSZ 211300Z AUTO 11010KT 6SM 19/17 A2997 RMK T01900170 IEM_DS3505
ZGSZ,2001-01-21 14:00,ZGSZ 211400Z AUTO 10008KT 6SM 20/17 A2997 RMK T02000170 IEM_DS3505
ZGSZ,2001-01-21 15:00,ZGSZ 211500Z AUTO 08004KT 3SM 20/17 A2997 RMK T02000170 IEM_DS3505
ZGSZ,2001-01-21 16:00,ZGSZ 211600Z AUTO 14002KT 3SM 20/18 A2994 RMK T02000180 IEM_DS3505
ZGSZ,2001-01-21 17:00,ZGSZ 211700Z AUTO 15002KT 3SM 19/18 A2994 RMK T01900180 IEM_DS3505
ZGSZ,2001-01-21 18:00,ZGSZ 211800Z AUTO 09004KT 7SM 18/16 A2994 RMK SLP143 T01850160 57011 IEM_DS3505
ZGSZ,2001-01-21 19:00,ZGSZ 211900Z AUTO 14002KT 2 1/2SM 19/17 A2994 RMK T01900170 IEM_DS3505
ZGSZ,2001-01-21 20:00,ZGSZ 212000Z AUTO 01002KT 2 1/2SM 19/18 A2991 RMK T01900180 IEM_DS3505
ZGSZ,2001-01-21 21:00,ZGSZ 212100Z AUTO 09004KT 7SM 19/17 A2991 RMK SLP138 T01920166 57005 IEM_DS3505
ZGSZ,2001-01-21 22:00,ZGSZ 212200Z AUTO 00000KT 2 1/2SM 19/18 A2991 RMK T01900180 IEM_DS3505
ZGSZ,2001-01-21 23:00,ZGSZ 212300Z AUTO 00000KT 2 1/2SM 19/19 A2994 RMK T01900190 IEM_DS3505
ZGSZ,2001-01-22 00:00,ZGSZ 220000Z AUTO 07004KT 4SM 19/16 A2994 RMK SLP148 T01930163 52010 IEM_DS3505
ZGSZ,2001-01-22 01:00,ZGSZ 220100Z AUTO 11008KT 3SM 21/19 A2997 RMK T02100190 IEM_DS3505
ZGSZ,2001-01-22 02:00,ZGSZ 220200Z AUTO 11008KT 3SM 22/20 A2997 RMK T02200200 IEM_DS3505
ZGSZ,2001-01-22 03:00,ZGSZ 220300Z AUTO 11006KT 6SM 21/17 A2997 RMK SLP149 T02130174 52001 IEM_DS3505
ZGSZ,2001-01-22 04:00,ZGSZ 220400Z AUTO 20006KT 5SM 25/21 A2994 RMK T02500210 IEM_DS3505
ZGSZ,2001-01-22 05:00,ZGSZ 220500Z AUTO 20008KT 6SM 24/21 A2991 RMK T02400210 IEM_DS3505
ZGSZ,2001-01-22 06:00,ZGSZ 220600Z AUTO 09004KT 9SM 24/19 A2988 RMK SLP120 T02450192 57029 IEM_DS3505
ZGSZ,2001-01-22 07:00,ZGSZ 220700Z AUTO 20006KT 7SM 24/21 A2985 RMK T02400210 IEM_DS3505
ZGSZ,2001-01-22 08:00,ZGSZ 220800Z AUTO 20006KT 4SM 24/22 A2983 RMK T02400220 IEM_DS3505
ZGSZ,2001-01-22 09:00,ZGSZ 220900Z AUTO 09006KT 8SM 23/19 A2985 RMK SLP115 T02330189 57005 IEM_DS3505
ZGSZ,2001-01-22 10:00,ZGSZ 221000Z AUTO 18010KT 5SM 22/21 A2985 RMK T02200210 IEM_DS3505
ZGSZ,2001-01-22 11:00,ZGSZ 221100Z AUTO 14008KT 4SM 23/21 A2985 RMK T02300210 IEM_DS3505
ZGSZ,2001-01-22 12:00,ZGSZ 221200Z AUTO 09006KT 4SM 21/18 A2988 RMK SLP124 T02110182 52009 IEM_DS3505
ZGSZ,2001-01-22 13:00,ZGSZ 221300Z AUTO 12006KT 4SM 22/20 A2988 RMK T02200200 IEM_DS3505
ZGSZ,2001-01-22 14:00,ZGSZ 221400Z AUTO 06002KT 5SM 21/20 A2991 RMK T02100200 IEM_DS3505
ZGSZ,2001-01-22 15:00,ZGSZ 221500Z AUTO 06002KT 4SM 22/20 A2991 RMK T02200200 IEM_DS3505
ZGSZ,2001-01-22 16:00,ZGSZ 221600Z AUTO 12006KT 4SM 21/20 A2991 RMK T02100200 IEM_DS3505
ZGSZ,2001-01-22 17:00,ZGSZ 221700Z AUTO 12004KT 3SM 21/20 A2991 RMK T02100200 IEM_DS3505
ZGSZ,2001-01-22 18:00,ZGSZ 221800Z AUTO 11004KT 2 1/2SM 20/19 A2994 RMK SLP138 T02030186 57006 IEM_DS3505
ZGSZ,2001-01-22 19:00,ZGSZ 221900Z AUTO 08004KT 3SM 21/20 A2991 RMK T02100200 IEM_DS3505
ZGSZ,2001-01-22 20:00,ZGSZ 222000Z AUTO 08004KT 3SM 21/20 A2991 RMK T02100200 IEM_DS3505
ZGSZ,2001-01-22 21:00,ZGSZ 222100Z AUTO 04004KT 2 1/2SM 20/18 A2991 RMK SLP137 T01990185 57001 IEM_DS3505
ZGSZ,2001-01-22 22:00,ZGSZ 222200Z AUTO 11006KT 3SM 20/20 A2991 RMK T02000200 IEM_DS3505
ZGSZ,2001-01-22 23:00,ZGSZ 222300Z AUTO 11010KT 2 1/2SM 20/20 A2994 RMK T02000200 IEM_DS3505
ZGSZ,2001-01-23 00:00,ZGSZ 230000Z AUTO 14006KT 5SM 20/18 A2997 RMK SLP156 T01990185 52019 IEM_DS3505
ZGSZ,2001-01-23 01:00,ZGSZ 230100Z AUTO 13006KT 2 1/2SM 23/21 A2997 RMK T02300210 IEM_DS3505
ZGSZ,2001-01-23 02:00,ZGSZ 230200Z AUTO 12008KT 3SM 24/21 A3000 RMK T02400210 IEM_DS3505
ZGSZ,2001-01-23 03:00,ZGSZ 230300Z AUTO 09006KT 7SM 22/19 A3000 RMK SLP168 T02190186 52012 IEM_DS3505
ZGSZ,2001-01-23 04:00,ZGSZ 230400Z AUTO 11008KT 7SM 25/21 A2997 RMK T02500210 IEM_DS3505
ZGSZ,2001-01-23 05:00,ZGSZ 230500Z AUTO 14012KT 7SM 26/21 A2994 RMK T02600210 IEM_DS3505
ZGSZ,2001-01-23 06:00,ZGSZ 230600Z AUTO 11008KT 3SM 19/18 A2991 RMK 60003 SLP148 T01940176 57020 IEM_DS3505
ZGSZ,2001-01-23 07:00,ZGSZ 230700Z AUTO 12012KT 6SM 24/21 A2988 RMK T02400210 IEM_DS3505
ZGSZ,2001-01-23 08:00,ZGSZ 230800Z AUTO 11012KT 6SM 24/20 A2988 RMK T02400200 IEM_DS3505
ZGSZ,2001-01-23 09:00,ZGSZ 230900Z AUTO 11012KT 4SM 19/17 A2988 RMK SLP137 T01900167 57011 IEM_DS3505
ZGSZ,2001-01-23 10:00,ZGSZ 231000Z AUTO 11012KT 6SM 21/19 A2991 RMK T02100190 IEM_DS3505
ZGSZ,2001-01-23 11:00,ZGSZ 231100Z AUTO 11010KT 7SM 20/19 A2991 RMK T02000190 IEM_DS3505
ZGSZ,2001-01-23 12:00,ZGSZ 231200Z AUTO 09006KT 6SM 19/16 A2994 RMK SLP148 T01910165 52011 IEM_DS3505
ZGSZ,2001-01-23 13:00,ZGSZ 231300Z AUTO 12010KT 7SM 20/19 A2994 RMK T02000190 IEM_DS3505
ZGSZ,2001-01-23 14:00,ZGSZ 231400Z AUTO 11010KT 7SM 20/19 A2997 RMK T02000190 IEM_DS3505
ZGSZ,2001-01-23 15:00,ZGSZ 231500Z AUTO 11012KT 7SM 20/19 A2994 RMK T02000190 IEM_DS3505
ZGSZ,2001-01-23 16:00,ZGSZ 231600Z AUTO 10008KT 20/19 A2994 RMK T02000190 IEM_DS3505
ZGSZ,2001-01-23 17:00,ZGSZ 231700Z AUTO 12012KT 20/19 A2994 RMK T02000190 IEM_DS3505
ZGSZ,2001-01-23 18:00,ZGSZ 231800Z AUTO 09008KT 6SM 18/16 A2994 RMK 60003 SLP145 T01840162 57013 IEM_DS3505
ZGSZ,2001-01-23 19:00,ZGSZ 231900Z AUTO 11006KT 7SM 20/19 A2991 RMK T02000190 IEM_DS3505
ZGSZ,2001-01-23 20:00,ZGSZ 232000Z AUTO 11004KT 7SM 20/19 A2991 RMK T02000190 IEM_DS3505
ZGSZ,2001-01-23 21:00,ZGSZ 232100Z AUTO 09006KT 5SM 18/16 A2991 RMK 70003 SLP134 T01820165 57011 IEM_DS3505
ZGSZ,2001-01-23 22:00,ZGSZ 232200Z AUTO 12010KT 7SM 20/19 A2991 RMK T02000190 IEM_DS3505
ZGSZ,2001-01-23 23:00,ZGSZ 232300Z AUTO 11008KT 7SM 20/19 A2991 RMK T02000190 IEM_DS3505
ZGSZ,2001-01-24 00:00,ZGSZ 240000Z AUTO 09006KT 4SM 19/17 A2991 RMK 70003 SLP139 T01870169 52005 IEM_DS3505
ZGSZ,2001-01-24 01:00,ZGSZ 240100Z AUTO 12010KT 7SM 20/19 A2991 RMK T02000190 IEM_DS3505
ZGSZ,2001-01-24 02:00,ZGSZ 240200Z AUTO 12008KT 7SM 22/20 A2991 RMK T02200200 IEM_DS3505
ZGSZ,2001-01-24 03:00,ZGSZ 240300Z AUTO 14008KT 6SM 20/17 A2991 RMK SLP140 T01970173 52001 IEM_DS3505
ZGSZ,2001-01-24 04:00,ZGSZ 240400Z AUTO 13010KT 7SM 24/21 A2988 RMK T02400210 IEM_DS3505
ZGSZ,2001-01-24 05:00,ZGSZ 240500Z AUTO 12008KT 7SM 25/22 A2985 RMK T02500220 IEM_DS3505
ZGSZ,2001-01-24 06:00,ZGSZ 240600Z AUTO 09006KT 4SM 21/18 A2983 RMK SLP114 T02110182 57026 IEM_DS3505
ZGSZ,2001-01-24 07:00,ZGSZ 240700Z AUTO 22004KT 7SM 24/21 A2983 RMK T02400210 IEM_DS3505
ZGSZ,2001-01-24 08:00,ZGSZ 240800Z AUTO 33002KT 7SM 22/21 A2985 RMK T02200210 IEM_DS3505
ZGSZ,2001-01-24 09:00,ZGSZ 240900Z AUTO 09004KT 3SM 21/19 A2985 RMK SLP113 T02100188 57001 IEM_DS3505
ZGSZ,2001-01-24 10:00,ZGSZ 241000Z AUTO 07002KT 7SM 23/21 A2983 RMK T02300210 IEM_DS3505
ZGSZ,2001-01-24 11:00,ZGSZ 241100Z AUTO 12004KT 7SM 22/21 A2983 RMK T02200210 IEM_DS3505
ZGSZ,2001-01-24 12:00,ZGSZ 241200Z AUTO 09004KT 3SM 21/19 A2983 RMK SLP107 T02080192 57006 IEM_DS3505
ZGSZ,2001-01-24 13:00,ZGSZ 241300Z AUTO 15004KT 7SM 22/21 A2985 RMK T02200210 IEM_DS3505
ZGSZ,2001-01-24 14:00,ZGSZ 241400Z AUTO 30002KT 4SM 22/21 A2985 RMK T02200210 IEM_DS3505
ZGSZ,2001-01-24 15:00,ZGSZ 241500Z AUTO 25002KT 2SM 21/21 A2985 RMK T02100210 IEM_DS3505
ZGSZ,2001-01-24 16:00,ZGSZ 241600Z AUTO 07002KT 2 1/2SM 21/21 A2983 RMK T02100210 IEM_DS3505
ZGSZ,2001-01-24 17:00,ZGSZ 241700Z AUTO 09002KT 22/21 A2980 RMK T02200210 IEM_DS3505
ZGSZ,2001-01-24 18:00,ZGSZ 241800Z AUTO 09006KT 4SM 21/20 A2977 RMK SLP091 T02070196 57024 IEM_DS3505
ZGSZ,2001-01-24 19:00,ZGSZ 241900Z AUTO 12008KT 2 1/2SM 21/21 A2974 RMK T02100210 IEM_DS3505
ZGSZ,2001-01-24 20:00,ZGSZ 242000Z AUTO 12004KT 2 1/2SM 22/21 A2974 RMK T02200210 IEM_DS3505
ZGSZ,2001-01-24 21:00,ZGSZ 242100Z AUTO 09004KT 3SM 20/20 A2977 RMK SLP081 T02050196 57010 IEM_DS3505
ZGSZ,2001-01-24 22:00,ZGSZ 242200Z AUTO 10006KT 1 1/2SM 21/21 A2974 RMK T02100210 IEM_DS3505
ZGSZ,2001-01-24 23:00,ZGSZ 242300Z AUTO 00000KT 3SM 21/21 A2977 RMK T02100210 IEM_DS3505
ZGSZ,2001-01-25 00:00,ZGSZ 250000Z AUTO 04004KT 4SM 21/20 A2980 RMK SLP096 T02080197 52015 IEM_DS3505
ZGSZ,2001-01-25 01:00,ZGSZ 250100Z AUTO 12006KT 3SM 21/21 A2980 RMK T02100210 IEM_DS3505
ZGSZ,2001-01-25 02:00,ZGSZ 250200Z AUTO 11006KT 3SM 22/22 A2983 RMK T02200220 IEM_DS3505
ZGSZ,2001-01-25 03:00,ZGSZ 250300Z AUTO 11006KT 4SM 22/20 A2983 RMK SLP105 T02170202 52009 IEM_DS3505
ZGSZ,2001-01-25 04:00,ZGSZ 250400Z AUTO 15010KT 2 1/2SM 22/22 A2980 RMK T02200220 IEM_DS3505
ZGSZ,2001-01-25 05:00,ZGSZ 250500Z AUTO 13006KT 3SM 23/23 A2974 RMK T02300230 IEM_DS3505
ZGSZ,2001-01-25 06:00,ZGSZ 250600Z AUTO 09002KT 7SM 22/20 A2974 RMK 60024 SLP075 T02150204 57030 IEM_DS3505
ZGSZ,2001-01-25 07:00,ZGSZ 250700Z AUTO 13004KT 5SM 23/22 A2971 RMK T02300220 IEM_DS3505
ZGSZ,2001-01-25 08:00,ZGSZ 250800Z AUTO 29014KT 1SM 20/19 A2971 RMK T02000190 IEM_DS3505
ZGSZ,2001-01-25 09:00,ZGSZ 250900Z AUTO 09002KT 7SM 22/20 A2974 RMK SLP064 T02160202 57011 IEM_DS3505
ZGSZ,2001-01-25 10:00,ZGSZ 251000Z AUTO 32010KT 1 1/4SM 17/17 A2977 RMK T01700170 IEM_DS3505
ZGSZ,2001-01-25 11:00,ZGSZ 251100Z AUTO 30012KT 1 1/4SM 16/16 A2977 RMK T01600160 IEM_DS3505
ZGSZ,2001-01-25 12:00,ZGSZ 251200Z AUTO 27002KT 2 1/2SM 18/17 A2983 RMK 60000 SLP092 T01800170 52028 IEM_DS3505
ZGSZ,2001-01-25 13:00,ZGSZ 251300Z AUTO 31012KT 1SM 15/15 A2983 RMK T01500150 IEM_DS3505
ZGSZ,2001-01-25 14:00,ZGSZ 251400Z AUTO 32010KT 1 1/2SM 14/14 A2985 RMK T01400140 IEM_DS3505
ZGSZ,2001-01-25 15:00,ZGSZ 251500Z AUTO 32012KT 1 1/4SM 14/14 A2985 RMK T01400140 IEM_DS3505
ZGSZ,2001-01-25 16:00,ZGSZ 251600Z AUTO 32016KT 1/2SM 14/14 A2988 RMK T01400140 IEM_DS3505
ZGSZ,2001-01-25 17:00,ZGSZ 251700Z AUTO 32014KT 1SM 13/13 A2991 RMK T01300130 IEM_DS3505
ZGSZ,2001-01-25 18:00,ZGSZ 251800Z AUTO 36008KT 4SM 14/13 A2988 RMK 60004 SLP121 T01450132 52011 IEM_DS3505
ZGSZ,2001-01-25 19:00,ZGSZ 251900Z AUTO 35014KT 5SM 13/13 A2988 RMK T01300130 IEM_DS3505
ZGSZ,2001-01-25 20:00,ZGSZ 252000Z AUTO 36012KT 7SM 13/12 A2985 RMK T01300120 IEM_DS3505
ZGSZ,2001-01-25 21:00,ZGSZ 252100Z AUTO 04008KT 12SM 12/10 A2988 RMK 70058 SLP118 T01200099 57004 IEM_DS3505
ZGSZ,2001-01-25 22:00,ZGSZ 252200Z AUTO 36014KT 7SM 12/11 A2991 RMK T01200110 IEM_DS3505
ZGSZ,2001-01-25 23:00,ZGSZ 252300Z AUTO 35012KT 7SM 12/10 A2994 RMK T01200100 IEM_DS3505
ZGSZ,2001-01-26 00:00,ZGSZ 260000Z AUTO 04010KT 17SM 12/07 A2994 RMK 60028 SLP150 T01150074 52032 IEM_DS3505
ZGSZ,2001-01-26 01:00,ZGSZ 260100Z AUTO 34012KT 7SM 10/10 A3000 RMK T01000100 IEM_DS3505
ZGSZ,2001-01-26 02:00,ZGSZ 260200Z AUTO 35010KT 5SM 10/10 A3006 RMK T01000100 IEM_DS3505
ZGSZ,2001-01-26 03:00,ZGSZ 260300Z AUTO 34002KT 16SM 10/08 A3006 RMK SLP175 T01010085 52025 IEM_DS3505
ZGSZ,2001-01-26 04:00,ZGSZ 260400Z AUTO 35010KT 7SM 11/10 A3000 RMK T01100100 IEM_DS3505
ZGSZ,2001-01-26 05:00,ZGSZ 260500Z AUTO 01014KT 7SM 13/10 A2997 RMK T01300100 IEM_DS3505
ZGSZ,2001-01-26 06:00,ZGSZ 260600Z AUTO 36006KT 16SM 12/08 A2994 RMK 60024 SLP146 T01250085 57029 IEM_DS3505
ZGSZ,2001-01-26 07:00,ZGSZ 260700Z AUTO 35014KT 6SM 14/09 A2994 RMK T01400090 IEM_DS3505
ZGSZ,2001-01-26 08:00,ZGSZ 260800Z AUTO 02014KT 7SM 14/08 A2994 RMK T01400080 IEM_DS3505
ZGSZ,2001-01-26 09:00,ZGSZ 260900Z AUTO 04008KT 19SM 14/06 A2994 RMK SLP146 T01380061 54000 IEM_DS3505
ZGSZ,2001-01-26 10:00,ZGSZ 261000Z AUTO 02012KT 6SM 14/07 A2997 RMK T01400070 IEM_DS3505
ZGSZ,2001-01-26 11:00,ZGSZ 261100Z AUTO 02012KT 6SM 13/08 A3000 RMK T01300080 IEM_DS3505
ZGSZ,2001-01-26 12:00,ZGSZ 261200Z AUTO 02010KT 17SM 12/03 A3003 RMK SLP164 T01230033 52017 IEM_DS3505
ZGSZ,2001-01-26 13:00,ZGSZ 261300Z AUTO 02014KT 6SM 12/06 A3003 RMK T01200060 IEM_DS3505
ZGSZ,2001-01-26 14:00,ZGSZ 261400Z AUTO 02012KT 6SM 12/05 A3003 RMK T01200050 IEM_DS3505
ZGSZ,2001-01-26 15:00,ZGSZ 261500Z AUTO 01012KT 6SM 11/04 A3006 RMK T01100040 IEM_DS3505
ZGSZ,2001-01-26 16:00,ZGSZ 261600Z AUTO 02010KT 6SM 11/05 A3006 RMK T01100050 IEM_DS3505
ZGSZ,2001-01-26 17:00,ZGSZ 261700Z AUTO 01010KT 6SM 11/05 A3006 RMK T01100050 IEM_DS3505
ZGSZ,2001-01-26 18:00,ZGSZ 261800Z AUTO 04006KT 16SM 10/03 A3003 RMK SLP172 T01020033 57004 IEM_DS3505
ZGSZ,2001-01-26 19:00,ZGSZ 261900Z AUTO 01010KT 6SM 10/05 A3003 RMK T01000050 IEM_DS3505
ZGSZ,2001-01-26 20:00,ZGSZ 262000Z AUTO 02010KT 6SM 10/05 A3003 RMK T01000050 IEM_DS3505
ZGSZ,2001-01-26 21:00,ZGSZ 262100Z AUTO 04008KT 16SM 10/03 A3003 RMK 70024 SLP173 T00950027 52001 IEM_DS3505
ZGSZ,2001-01-26 22:00,ZGSZ 262200Z AUTO 01006KT 6SM 10/05 A3006 RMK T01000050 IEM_DS3505
ZGSZ,2001-01-26 23:00,ZGSZ 262300Z AUTO 36008KT 6SM 09/05 A3006 RMK T00900050 IEM_DS3505
ZGSZ,2001-01-27 00:00,ZGSZ 270000Z AUTO 36006KT 16SM 09/03 A3009 RMK 70024 SLP197 T00910030 52024 IEM_DS3505
ZGSZ,2001-01-27 01:00,ZGSZ 270100Z AUTO 01010KT 7SM 09/05 A3012 RMK T00900050 IEM_DS3505
ZGSZ,2001-01-27 02:00,ZGSZ 270200Z AUTO 02012KT 7SM 10/05 A3012 RMK T01000050 IEM_DS3505
ZGSZ,2001-01-27 03:00,ZGSZ 270300Z AUTO 04006KT 14SM 10/04 A3012 RMK SLP196 T00990045 57001 IEM_DS3505
ZGSZ,2001-01-27 04:00,ZGSZ 270400Z AUTO 02010KT 7SM 11/05 A3009 RMK T01100050 IEM_DS3505
ZGSZ,2001-01-27 05:00,ZGSZ 270500Z AUTO 36010KT 7SM 11/05 A3006 RMK T01100050 IEM_DS3505
ZGSZ,2001-01-27 06:00,ZGSZ 270600Z AUTO 04006KT 16SM 11/05 A3003 RMK 60002 SLP173 T01130049 57023 IEM_DS3505
ZGSZ,2001-01-27 07:00,ZGSZ 270700Z AUTO 36012KT 7SM 11/06 A3000 RMK T01100060 IEM_DS3505
ZGSZ,2001-01-27 08:00,ZGSZ 270800Z AUTO 02012KT 7SM 11/07 A3000 RMK T01100070 IEM_DS3505
ZGSZ,2001-01-27 09:00,ZGSZ 270900Z AUTO 00000KT 4SM 11/06 A3003 RMK SLP173 T01070064 54000 IEM_DS3505
ZGSZ,2001-01-27 10:00,ZGSZ 271000Z AUTO 35008KT 4SM 09/09 A3006 RMK T00900090 IEM_DS3505
ZGSZ,2001-01-27 11:00,ZGSZ 271100Z AUTO 01008KT 3SM 09/09 A3006 RMK T00900090 IEM_DS3505
ZGSZ,2001-01-27 12:00,ZGSZ 271200Z AUTO 34006KT 5SM 10/06 A3009 RMK 60004 SLP193 T00950065 52020 IEM_DS3505
ZGSZ,2001-01-27 13:00,ZGSZ 271300Z AUTO 35006KT 3SM 09/09 A3009 RMK T00900090 IEM_DS3505
ZGSZ,2001-01-27 14:00,ZGSZ 271400Z AUTO 36008KT 3SM 09/09 A3012 RMK T00900090 IEM_DS3505
ZGSZ,2001-01-27 15:00,ZGSZ 271500Z AUTO 35006KT 4SM 09/09 A3012 RMK T00900090 IEM_DS3505
ZGSZ,2001-01-27 16:00,ZGSZ 271600Z AUTO 36010KT 2 1/2SM 09/09 A3012 RMK T00900090 IEM_DS3505
ZGSZ,2001-01-27 17:00,ZGSZ 271700Z AUTO 01014KT 5SM 09/09 A3012 RMK T00900090 IEM_DS3505
ZGSZ,2001-01-27 18:00,ZGSZ 271800Z AUTO 04004KT 5SM 09/07 A3012 RMK 60024 SLP202 T00880073 52003 IEM_DS3505
ZGSZ,2001-01-27 19:00,ZGSZ 271900Z AUTO 36010KT 09/09 A3015 RMK T00900090 IEM_DS3505
ZGSZ,2001-01-27 20:00,ZGSZ 272000Z AUTO 36010KT 09/09 A3012 RMK T00900090 IEM_DS3505
ZGSZ,2001-01-27 21:00,ZGSZ 272100Z AUTO 04006KT 9SM 09/07 A3012 RMK 70047 SLP204 T00880073 52002 IEM_DS3505
ZGSZ,2001-01-27 22:00,ZGSZ 272200Z AUTO 35008KT 7SM 09/09 A3015 RMK T00900090 IEM_DS3505
ZGSZ,2001-01-27 23:00,ZGSZ 272300Z AUTO 36008KT 7SM 09/09 A3015 RMK T00900090 IEM_DS3505
ZGSZ,2001-01-28 00:00,ZGSZ 280000Z AUTO 36008KT 14SM 09/06 A3015 RMK 60020 SLP211 T00890065 52007 IEM_DS3505
ZGSZ,2001-01-28 01:00,ZGSZ 280100Z AUTO 36010KT 7SM 09/08 A3018 RMK T00900080 IEM_DS3505
ZGSZ,2001-01-28 02:00,ZGSZ 280200Z AUTO 36012KT 7SM 09/09 A3021 RMK T00900090 IEM_DS3505
ZGSZ,2001-01-28 03:00,ZGSZ 280300Z AUTO 04010KT 15SM 10/06 A3021 RMK SLP230 T00950055 52019 IEM_DS3505
ZGSZ,2001-01-28 04:00,ZGSZ 280400Z AUTO 36012KT 2SM 09/09 A3018 RMK T00900090 IEM_DS3505
ZGSZ,2001-01-28 05:00,ZGSZ 280500Z AUTO 01010KT 7SM 09/09 A3015 RMK T00900090 IEM_DS3505
ZGSZ,2001-01-28 06:00,ZGSZ 280600Z AUTO 04006KT 6SM 09/07 A3012 RMK 60012 SLP207 T00910070 57023 IEM_DS3505
ZGSZ,2001-01-28 07:00,ZGSZ 280700Z AUTO 02008KT 7SM 10/09 A3012 RMK T01000090 IEM_DS3505
ZGSZ,2001-01-28 08:00,ZGSZ 280800Z AUTO 01008KT 7SM 11/08 A3012 RMK T01100080 IEM_DS3505
ZGSZ,2001-01-28 09:00,ZGSZ 280900Z AUTO 04008KT 12SM 11/06 A3012 RMK SLP202 T01090062 57005 IEM_DS3505
ZGSZ,2001-01-28 10:00,ZGSZ 281000Z AUTO 35004KT 7SM 11/08 A3012 RMK T01100080 IEM_DS3505
ZGSZ,2001-01-28 11:00,ZGSZ 281100Z AUTO 35004KT 7SM 11/09 A3015 RMK T01100090 IEM_DS3505
ZGSZ,2001-01-28 12:00,ZGSZ 281200Z AUTO 04008KT 7SM 11/07 A3018 RMK 60000 SLP216 T01130066 52014 IEM_DS3505
ZGSZ,2001-01-28 13:00,ZGSZ 281300Z AUTO 35004KT 7SM 12/09 A3018 RMK T01200090 IEM_DS3505
ZGSZ,2001-01-28 14:00,ZGSZ 281400Z AUTO 36004KT 7SM 12/07 A3018 RMK T01200070 IEM_DS3505
ZGSZ,2001-01-28 15:00,ZGSZ 281500Z AUTO 03004KT 7SM 12/08 A3018 RMK T01200080 IEM_DS3505
ZGSZ,2001-01-28 16:00,ZGSZ 281600Z AUTO 01008KT 7SM 12/08 A3021 RMK T01200080 IEM_DS3505
ZGSZ,2001-01-28 17:00,ZGSZ 281700Z AUTO 01008KT 7SM 12/08 A3018 RMK T01200080 IEM_DS3505
ZGSZ,2001-01-28 18:00,ZGSZ 281800Z AUTO 04008KT 7SM 11/05 A3018 RMK SLP226 T01130052 52002 IEM_DS3505
ZGSZ,2001-01-28 19:00,ZGSZ 281900Z AUTO 01010KT 11/06 A3018 RMK T01100060 IEM_DS3505
ZGSZ,2001-01-28 20:00,ZGSZ 282000Z AUTO 01010KT 11/07 A3018 RMK T01100070 IEM_DS3505
ZGSZ,2001-01-28 21:00,ZGSZ 282100Z AUTO 04010KT 7SM 11/04 A3018 RMK 70012 SLP215 T01110039 57011 IEM_DS3505
ZGSZ,2001-01-28 22:00,ZGSZ 282200Z AUTO 36006KT 7SM 11/07 A3018 RMK T01100070 IEM_DS3505
ZGSZ,2001-01-28 23:00,ZGSZ 282300Z AUTO 36006KT 7SM 11/07 A3021 RMK T01100070 IEM_DS3505
ZGSZ,2001-01-29 00:00,ZGSZ 290000Z AUTO 36002KT 7SM 11/04 A3021 RMK 70010 SLP236 T01110041 52021 IEM_DS3505
ZGSZ,2001-01-29 01:00,ZGSZ 290100Z AUTO 36008KT 7SM 12/07 A3024 RMK T01200070 IEM_DS3505
ZGSZ,2001-01-29 02:00,ZGSZ 290200Z AUTO 36010KT 7SM 12/07 A3027 RMK T01200070 IEM_DS3505
ZGSZ,2001-01-29 03:00,ZGSZ 290300Z AUTO 04006KT 6SM 12/05 A3024 RMK SLP245 T01250046 52009 IEM_DS3505
ZGSZ,2001-01-29 04:00,ZGSZ 290400Z AUTO 36008KT 7SM 14/07 A3021 RMK T01400070 IEM_DS3505
ZGSZ,2001-01-29 05:00,ZGSZ 290500Z AUTO 36008KT 7SM 15/07 A3018 RMK T01500070 IEM_DS3505
ZGSZ,2001-01-29 06:00,ZGSZ 290600Z AUTO 04006KT 7SM 14/05 A3015 RMK SLP209 T01450054 57036 IEM_DS3505
ZGSZ,2001-01-29 07:00,ZGSZ 290700Z AUTO 36010KT 7SM 15/07 A3012 RMK T01500070 IEM_DS3505
ZGSZ,2001-01-29 08:00,ZGSZ 290800Z AUTO 36006KT 7SM 15/07 A3012 RMK T01500070 IEM_DS3505
ZGSZ,2001-01-29 09:00,ZGSZ 290900Z AUTO 07006KT 8SM 14/06 A3009 RMK SLP201 T01450062 57008 IEM_DS3505
ZGSZ,2001-01-29 10:00,ZGSZ 291000Z AUTO 02004KT 6SM 14/08 A3012 RMK T01400080 IEM_DS3505
ZGSZ,2001-01-29 12:00,ZGSZ 291200Z AUTO 04004KT 7SM 14/06 A3012 RMK SLP203 T01350057 52002 IEM_DS3505
ZGSZ,2001-01-29 13:00,ZGSZ 291300Z AUTO 04004KT 14/08 A3012 RMK T01400080 IEM_DS3505
ZGSZ,2001-01-29 14:00,ZGSZ 291400Z AUTO 04006KT 2 1/2SM 14/08 A3012 RMK T01400080 IEM_DS3505
ZGSZ,2001-01-29 15:00,ZGSZ 291500Z AUTO 32002KT 2 1/2SM 13/09 A3015 RMK T01300090 IEM_DS3505
ZGSZ,2001-01-29 16:00,ZGSZ 291600Z AUTO 04002KT 3SM 13/09 A3015 RMK T01300090 IEM_DS3505
ZGSZ,2001-01-29 17:00,ZGSZ 291700Z AUTO 03004KT 3SM 13/08 A3015 RMK T01300080 IEM_DS3505
ZGSZ,2001-01-29 18:00,ZGSZ 291800Z AUTO 04004KT 6SM 13/08 A3015 RMK SLP206 T01300077 54000 IEM_DS3505
ZGSZ,2001-01-29 19:00,ZGSZ 291900Z AUTO 04006KT 3SM 13/09 A3012 RMK T01300090 IEM_DS3505
ZGSZ,2001-01-29 20:00,ZGSZ 292000Z AUTO 04006KT 3SM 13/09 A3012 RMK T01300090 IEM_DS3505
ZGSZ,2001-01-29 21:00,ZGSZ 292100Z AUTO 04004KT 6SM 13/08 A3012 RMK SLP201 T01270080 57005 IEM_DS3505
ZGSZ,2001-01-29 23:00,ZGSZ 292300Z AUTO 36004KT 3SM 13/10 A3012 RMK T01300100 IEM_DS3505
ZGSZ,2001-01-30 00:00,ZGSZ 300000Z AUTO 04002KT 8SM 13/08 A3015 RMK SLP210 T01290083 52009 IEM_DS3505
ZGSZ,2001-01-30 01:00,ZGSZ 300100Z AUTO 01006KT 4SM 14/10 A3015 RMK T01400100 IEM_DS3505
ZGSZ,2001-01-30 02:00,ZGSZ 300200Z AUTO 02008KT 5SM 16/10 A3015 RMK T01600100 IEM_DS3505
ZGSZ,2001-01-30 03:00,ZGSZ 300300Z AUTO 36004KT 7SM 16/10 A3012 RMK SLP204 T01590100 57005 IEM_DS3505
ZGSZ,2001-01-30 04:00,ZGSZ 300400Z AUTO 34006KT 18/11 A3009 RMK T01800110 IEM_DS3505
ZGSZ,2001-01-30 05:00,ZGSZ 300500Z AUTO 31006KT 18/11 A3006 RMK T01800110 IEM_DS3505
ZGSZ,2001-01-30 06:00,ZGSZ 300600Z AUTO 07004KT 11SM 19/09 A3000 RMK SLP164 T01910093 57040 IEM_DS3505
ZGSZ,2001-01-30 07:00,ZGSZ 300700Z AUTO 29010KT 3SM 17/12 A3000 RMK T01700120 IEM_DS3505
ZGSZ,2001-01-30 08:00,ZGSZ 300800Z AUTO 29008KT 4SM 17/12 A2997 RMK T01700120 IEM_DS3505
ZGSZ,2001-01-30 09:00,ZGSZ 300900Z AUTO 00000KT 7SM 18/11 A2997 RMK SLP153 T01850112 57011 IEM_DS3505
ZGSZ,2001-01-30 10:00,ZGSZ 301000Z AUTO 32006KT 2SM 17/12 A2997 RMK T01700120 IEM_DS3505
ZGSZ,2001-01-30 11:00,ZGSZ 301100Z AUTO 33006KT 2SM 17/12 A2997 RMK T01700120 IEM_DS3505
ZGSZ,2001-01-30 12:00,ZGSZ 301200Z AUTO 09002KT 9SM 16/11 A3000 RMK SLP163 T01640110 52010 IEM_DS3505
ZGSZ,2001-01-30 13:00,ZGSZ 301300Z AUTO 36002KT 2SM 16/11 A3000 RMK T01600110 IEM_DS3505
ZGSZ,2001-01-30 14:00,ZGSZ 301400Z AUTO 07002KT 1 1/2SM 15/12 A3000 RMK T01500120 IEM_DS3505
ZGSZ,2001-01-30 15:00,ZGSZ 301500Z AUTO 28004KT 1 1/2SM 15/13 A3000 RMK T01500130 IEM_DS3505
ZGSZ,2001-01-30 16:00,ZGSZ 301600Z AUTO 33002KT 1 1/2SM 15/14 A3003 RMK T01500140 IEM_DS3505
ZGSZ,2001-01-30 17:00,ZGSZ 301700Z AUTO 30004KT 1 1/2SM 15/14 A3000 RMK T01500140 IEM_DS3505
ZGSZ,2001-01-30 18:00,ZGSZ 301800Z AUTO 04004KT 7SM 16/13 A3000 RMK SLP163 T01550132 57008 IEM_DS3505
ZGSZ,2001-01-30 19:00,ZGSZ 301900Z AUTO 29002KT 1 1/4SM 15/14 A2997 RMK T01500140 IEM_DS3505
ZGSZ,2001-01-30 20:00,ZGSZ 302000Z AUTO 34002KT 1 1/4SM 15/14 A2997 RMK T01500140 IEM_DS3505
ZGSZ,2001-01-30 21:00,ZGSZ 302100Z AUTO 07008KT 7SM 16/13 A2997 RMK SLP155 T01580127 57008 IEM_DS3505
ZGSZ,2001-01-30 22:00,ZGSZ 302200Z AUTO 29004KT 1 1/4SM 15/14 A3000 RMK T01500140 IEM_DS3505
ZGSZ,2001-01-30 23:00,ZGSZ 302300Z AUTO 04004KT 2SM 15/14 A3000 RMK T01500140 IEM_DS3505
ZGSZ,2001-01-31 00:00,ZGSZ 310000Z AUTO 09006KT 7SM 16/13 A3003 RMK SLP172 T01590127 52017 IEM_DS3505
ZGSZ,2001-01-31 01:00,ZGSZ 310100Z AUTO 21002KT 6SM 16/14 A3003 RMK T01600140 IEM_DS3505
ZGSZ,2001-01-31 02:00,ZGSZ 310200Z AUTO 34002KT 6SM 17/14 A3003 RMK T01700140 IEM_DS3505
ZGSZ,2001-01-31 03:00,ZGSZ 310300Z AUTO 09006KT 8SM 17/12 A3003 RMK SLP172 T01700121 54000 IEM_DS3505
ZGSZ,2001-01-31 04:00,ZGSZ 310400Z AUTO 32002KT 6SM 19/15 A3000 RMK T01900150 IEM_DS3505
ZGSZ,2001-01-31 05:00,ZGSZ 310500Z AUTO 02002KT 6SM 19/15 A2994 RMK T01900150 IEM_DS3505
ZGSZ,2001-01-31 06:00,ZGSZ 310600Z AUTO 04006KT 9SM 19/14 A2991 RMK SLP137 T01860137 57035 IEM_DS3505
ZGSZ,2001-01-31 07:00,ZGSZ 310700Z AUTO 27004KT 6SM 19/16 A2991 RMK T01900160 IEM_DS3505
ZGSZ,2001-01-31 08:00,ZGSZ 310800Z AUTO 29006KT 1 1/2SM 19/16 A2991 RMK T01900160 IEM_DS3505
ZGSZ,2001-01-31 09:00,ZGSZ 310900Z AUTO 07004KT 9SM 19/15 A2991 RMK SLP127 T01890146 57010 IEM_DS3505
ZGSZ,2001-01-31 10:00,ZGSZ 311000Z AUTO 30006KT 1SM 18/16 A2991 RMK T01800160 IEM_DS3505
ZGSZ,2001-01-31 11:00,ZGSZ 311100Z AUTO 32004KT 1 1/4SM 18/16 A2991 RMK T01800160 IEM_DS3505
ZGSZ,2001-01-31 12:00,ZGSZ 311200Z AUTO 14004KT 9SM 18/14 A2994 RMK SLP141 T01750135 52014 IEM_DS3505
ZGSZ,2001-01-31 13:00,ZGSZ 311300Z AUTO 03004KT 1 1/2SM 17/15 A2994 RMK T01700150 IEM_DS3505
ZGSZ,2001-01-31 14:00,ZGSZ 311400Z AUTO 02004KT 1 1/2SM 17/15 A2994 RMK T01700150 IEM_DS3505
ZGSZ,2001-01-31 15:00,ZGSZ 311500Z AUTO 36004KT 1 1/2SM 17/15 A2994 RMK T01700150 IEM_DS3505
ZGSZ,2001-01-31 16:00,ZGSZ 311600Z AUTO 36002KT 1 1/2SM 17/15 A2994 RMK T01700150 IEM_DS3505
ZGSZ,2001-01-31 17:00,ZGSZ 311700Z AUTO 35004KT 1 1/2SM 17/15 A2994 RMK T01700150 IEM_DS3505
ZGSZ,2001-01-31 18:00,ZGSZ 311800Z AUTO 00000KT 6SM 17/13 A2994 RMK SLP139 T01670133 57005 IEM_DS3505
ZGSZ,2001-01-31 19:00,ZGSZ 311900Z AUTO 35004KT 1 1/2SM 16/15 A2991 RMK T01600150 IEM_DS3505
ZGSZ,2001-01-31 20:00,ZGSZ 312000Z AUTO 36004KT 1 1/2SM 16/15 A2991 RMK T01600150 IEM_DS3505
ZGSZ,2001-01-31 21:00,ZGSZ 312100Z AUTO 04004KT 4SM 16/13 A2991 RMK SLP136 T01650131 57003 IEM_DS3505
ZGSZ,2001-01-31 22:00,ZGSZ 312200Z AUTO 31006KT 1 1/2SM 16/15 A2994 RMK T01600150 IEM_DS3505
ZGSZ,2001-01-31 23:00,ZGSZ 312300Z AUTO 32008KT 1 1/2SM 16/15 A2997 RMK T01600150 IEM_DS3505
ZGSZ,2001-02-01 00:00,ZGSZ 010000Z AUTO 04004KT 6SM 16/13 A2997 RMK SLP153 T01630131 52017 IEM_DS3505
ZGSZ,2001-02-01 01:00,ZGSZ 010100Z AUTO 30004KT 1 1/2SM 17/15 A2997 RMK T01700150 IEM_DS3505
ZGSZ,2001-02-01 02:00,ZGSZ 010200Z AUTO 36004KT 2SM 17/15 A3000 RMK T01700150 IEM_DS3505
ZGSZ,2001-02-01 03:00,ZGSZ 010300Z AUTO 04004KT 6SM 17/13 A2997 RMK SLP156 T01710128 52003 IEM_DS3505
ZGSZ,2001-02-01 04:00,ZGSZ 010400Z AUTO 35010KT 7SM 17/14 A2997 RMK T01700140 IEM_DS3505
ZGSZ,2001-02-01 05:00,ZGSZ 010500Z AUTO 35008KT 7SM 17/14 A2994 RMK T01700140 IEM_DS3505
ZGSZ,2001-02-01 06:00,ZGSZ 010600Z AUTO 04004KT 6SM 18/13 A2991 RMK SLP132 T01750127 57024 IEM_DS3505
ZGSZ,2001-02-01 07:00,ZGSZ 010700Z AUTO 35010KT 7SM 16/13 A2991 RMK T01600130 IEM_DS3505
ZGSZ,2001-02-01 08:00,ZGSZ 010800Z AUTO 01012KT 7SM 15/13 A2991 RMK T01500130 IEM_DS3505
ZGSZ,2001-02-01 09:00,ZGSZ 010900Z AUTO 36006KT 12SM 16/10 A2991 RMK SLP137 T01570104 52005 IEM_DS3505
ZGSZ,2001-02-01 10:00,ZGSZ 011000Z AUTO 01010KT 7SM 15/13 A2994 RMK T01500130 IEM_DS3505
ZGSZ,2001-02-01 11:00,ZGSZ 011100Z AUTO 02010KT 7SM 14/12 A2994 RMK T01400120 IEM_DS3505
ZGSZ,2001-02-01 12:00,ZGSZ 011200Z AUTO 36006KT 11SM 14/10 A3000 RMK SLP154 T01400100 52017 IEM_DS3505
ZGSZ,2001-02-01 13:00,ZGSZ 011300Z AUTO 36008KT 4SM 12/12 A3000 RMK T01200120 IEM_DS3505
ZGSZ,2001-02-01 14:00,ZGSZ 011400Z AUTO 01010KT 4SM 12/12 A3000 RMK T01200120 IEM_DS3505
ZGSZ,2001-02-01 15:00,ZGSZ 011500Z AUTO 01010KT 3SM 12/12 A3003 RMK T01200120 IEM_DS3505
ZGSZ,2001-02-01 16:00,ZGSZ 011600Z AUTO 01010KT 3SM 11/11 A3003 RMK T01100110 IEM_DS3505
ZGSZ,2001-02-01 17:00,ZGSZ 011700Z AUTO 02010KT 3SM 11/11 A3000 RMK T01100110 IEM_DS3505
ZGSZ,2001-02-01 18:00,ZGSZ 011800Z AUTO 04004KT 7SM 11/09 A3000 RMK 60004 SLP165 T01110091 57006 IEM_DS3505
ZGSZ,2001-02-01 19:00,ZGSZ 011900Z AUTO 02010KT 3SM 10/10 A3000 RMK T01000100 IEM_DS3505
ZGSZ,2001-02-01 20:00,ZGSZ 012000Z AUTO 02008KT 3SM 10/10 A3000 RMK T01000100 IEM_DS3505
ZGSZ,2001-02-01 21:00,ZGSZ 012100Z AUTO 04008KT 7SM 10/08 A3000 RMK 70004 SLP165 T01050085 54000 IEM_DS3505
ZGSZ,2001-02-01 22:00,ZGSZ 012200Z AUTO 02010KT 3SM 10/10 A3003 RMK T01000100 IEM_DS3505
ZGSZ,2001-02-01 23:00,ZGSZ 012300Z AUTO 03010KT 4SM 10/10 A3006 RMK T01000100 IEM_DS3505
ZGSZ,2001-02-02 00:00,ZGSZ 020000Z AUTO 04006KT 12SM 10/08 A3006 RMK 60003 SLP186 T01010080 52020 IEM_DS3505
ZGSZ,2001-02-02 01:00,ZGSZ 020100Z AUTO 03008KT 7SM 10/10 A3009 RMK T01000100 IEM_DS3505
ZGSZ,2001-02-02 02:00,ZGSZ 020200Z AUTO 03008KT 5SM 10/10 A3006 RMK T01000100 IEM_DS3505
ZGSZ,2001-02-02 03:00,ZGSZ 020300Z AUTO 07006KT 11SM 11/08 A3006 RMK SLP182 T01060079 57004 IEM_DS3505
ZGSZ,2001-02-02 05:00,ZGSZ 020500Z AUTO 36010KT 7SM 11/09 A3000 RMK T01100090 IEM_DS3505
ZGSZ,2001-02-02 06:00,ZGSZ 020600Z AUTO 34004KT 7SM 11/08 A2997 RMK SLP150 T01130082 57032 IEM_DS3505
ZGSZ,2001-02-02 07:00,ZGSZ 020700Z AUTO 01008KT 7SM 11/09 A2994 RMK T01100090 IEM_DS3505
ZGSZ,2001-02-02 08:00,ZGSZ 020800Z AUTO 02008KT 4SM 11/09 A2994 RMK T01100090 IEM_DS3505
ZGSZ,2001-02-02 09:00,ZGSZ 020900Z AUTO 04004KT 6SM 11/08 A2994 RMK SLP146 T01120081 57004 IEM_DS3505
ZGSZ,2001-02-02 10:00,ZGSZ 021000Z AUTO 01008KT 4SM 11/10 A2997 RMK T01100100 IEM_DS3505
ZGSZ,2001-02-02 11:00,ZGSZ 021100Z AUTO 02008KT 5SM 11/10 A2997 RMK T01100100 IEM_DS3505
ZGSZ,2001-02-02 12:00,ZGSZ 021200Z AUTO 04008KT 5SM 11/08 A2997 RMK SLP150 T01090082 52004 IEM_DS3505
ZGSZ,2001-02-02 13:00,ZGSZ 021300Z AUTO 02008KT 7SM 11/09 A3000 RMK T01100090 IEM_DS3505
ZGSZ,2001-02-02 14:00,ZGSZ 021400Z AUTO 02008KT 7SM 10/09 A3000 RMK T01000090 IEM_DS3505
ZGSZ,2001-02-02 15:00,ZGSZ 021500Z AUTO 36008KT 4SM 10/10 A3000 RMK T01000100 IEM_DS3505
ZGSZ,2001-02-02 16:00,ZGSZ 021600Z AUTO 36008KT 4SM 10/10 A3000 RMK T01000100 IEM_DS3505
ZGSZ,2001-02-02 17:00,ZGSZ 021700Z AUTO 02008KT 10/10 A2997 RMK T01000100 IEM_DS3505
ZGSZ,2001-02-02 18:00,ZGSZ 021800Z AUTO 09004KT 3SM 11/10 A2994 RMK 60003 SLP147 T01070095 57011 IEM_DS3505
ZGSZ,2001-02-02 19:00,ZGSZ 021900Z AUTO 35006KT 4SM 10/10 A2994 RMK T01000100 IEM_DS3505
ZGSZ,2001-02-02 20:00,ZGSZ 022000Z AUTO 02008KT 4SM 10/10 A2994 RMK T01000100 IEM_DS3505
ZGSZ,2001-02-02 21:00,ZGSZ 022100Z AUTO 04004KT 2SM 11/10 A2994 RMK 70003 SLP145 T01090099 57002 IEM_DS3505
ZGSZ,2001-02-02 22:00,ZGSZ 022200Z AUTO 02006KT 1 1/2SM 11/11 A2994 RMK T01100110 IEM_DS3505
ZGSZ,2001-02-02 23:00,ZGSZ 022300Z AUTO 01006KT 1 1/4SM 11/11 A2997 RMK T01100110 IEM_DS3505
ZGSZ,2001-02-03 00:00,ZGSZ 030000Z AUTO 36006KT 2 1/2SM 11/10 A2997 RMK 60003 SLP156 T01120104 52011 IEM_DS3505
ZGSZ,2001-02-03 01:00,ZGSZ 030100Z AUTO 02006KT 1 1/2SM 11/11 A3000 RMK T01100110 IEM_DS3505
ZGSZ,2001-02-03 02:00,ZGSZ 030200Z AUTO 36006KT 1SM 12/12 A3000 RMK T01200120 IEM_DS3505
ZGSZ,2001-02-03 03:00,ZGSZ 030300Z AUTO 36002KT 2 1/2SM 13/12 A3000 RMK SLP162 T01320119 52006 IEM_DS3505
ZGSZ,2001-02-03 04:00,ZGSZ 030400Z AUTO 34004KT 1SM 13/13 A2997 RMK T01300130 IEM_DS3505
ZGSZ,2001-02-03 05:00,ZGSZ 030500Z AUTO 34006KT 1SM 13/13 A2994 RMK T01300130 IEM_DS3505
ZGSZ,2001-02-03 06:00,ZGSZ 030600Z AUTO 34004KT 4SM 15/14 A2994 RMK 60003 SLP139 T01540136 57022 IEM_DS3505
ZGSZ,2001-02-03 07:00,ZGSZ 030700Z AUTO 33008KT 1SM 13/13 A2991 RMK T01300130 IEM_DS3505
ZGSZ,2001-02-03 08:00,ZGSZ 030800Z AUTO 34006KT 1SM 13/13 A2991 RMK T01300130 IEM_DS3505
ZGSZ,2001-02-03 09:00,ZGSZ 030900Z AUTO 00000KT 3SM 15/14 A2991 RMK SLP135 T01500138 57004 IEM_DS3505
ZGSZ,2001-02-03 10:00,ZGSZ 031000Z AUTO 32006KT 1SM 13/13 A2994 RMK T01300130 IEM_DS3505
ZGSZ,2001-02-03 11:00,ZGSZ 031100Z AUTO 32008KT 3/8SM 12/12 A2994 RMK T01200120 IEM_DS3505
ZGSZ,2001-02-03 12:00,ZGSZ 031200Z AUTO 00000KT 1SM 14/14 A2997 RMK 60003 SLP152 T01440137 52017 IEM_DS3505
ZGSZ,2001-02-03 13:00,ZGSZ 031300Z AUTO 33006KT 1SM 12/12 A3000 RMK T01200120 IEM_DS3505
ZGSZ,2001-02-03 14:00,ZGSZ 031400Z AUTO 36006KT 1SM 12/12 A3000 RMK T01200120 IEM_DS3505
ZGSZ,2001-02-03 15:00,ZGSZ 031500Z AUTO 32008KT 1SM 12/12 A3000 RMK T01200120 IEM_DS3505
ZGSZ,2001-02-03 16:00,ZGSZ 031600Z AUTO 35004KT 1SM 12/12 A3000 RMK T01200120 IEM_DS3505
ZGSZ,2001-02-03 17:00,ZGSZ 031700Z AUTO 36004KT 1 1/4SM 12/12 A3000 RMK T01200120 IEM_DS3505
ZGSZ,2001-02-03 18:00,ZGSZ 031800Z AUTO 04004KT 2SM 13/12 A3000 RMK 60001 SLP161 T01290122 57002 IEM_DS3505
ZGSZ,2001-02-03 19:00,ZGSZ 031900Z AUTO 35006KT 12/12 A3000 RMK T01200120 IEM_DS3505
ZGSZ,2001-02-03 20:00,ZGSZ 032000Z AUTO 36006KT 12/12 A2997 RMK T01200120 IEM_DS3505
ZGSZ,2001-02-03 21:00,ZGSZ 032100Z AUTO 07002KT 2 1/2SM 13/12 A2997 RMK 70001 SLP155 T01290122 57006 IEM_DS3505
ZGSZ,2001-02-03 22:00,ZGSZ 032200Z AUTO 32008KT 1 1/4SM 12/12 A3000 RMK T01200120 IEM_DS3505
ZGSZ,2001-02-03 23:00,ZGSZ 032300Z AUTO 35006KT 1 1/4SM 12/12 A3003 RMK T01200120 IEM_DS3505
ZGSZ,2001-02-04 00:00,ZGSZ 040000Z AUTO 00000KT 2 1/2SM 13/12 A3006 RMK 60003 SLP178 T01290120 52023 IEM_DS3505
ZGSZ,2001-02-04 01:00,ZGSZ 040100Z AUTO 34008KT 1SM 13/13 A3006 RMK T01300130 IEM_DS3505
ZGSZ,2001-02-04 02:00,ZGSZ 040200Z AUTO 36008KT 1SM 13/13 A3009 RMK T01300130 IEM_DS3505
ZGSZ,2001-02-04 03:00,ZGSZ 040300Z AUTO 04004KT 2SM 14/12 A3009 RMK SLP192 T01350124 52014 IEM_DS3505
ZGSZ,2001-02-04 04:00,ZGSZ 040400Z AUTO 35006KT 1SM 13/13 A3006 RMK T01300130 IEM_DS3505
ZGSZ,2001-02-04 05:00,ZGSZ 040500Z AUTO 35006KT 1SM 14/14 A3003 RMK T01400140 IEM_DS3505
ZGSZ,2001-02-04 06:00,ZGSZ 040600Z AUTO 32002KT 1SM 14/13 A3000 RMK 60003 SLP159 T01440130 57033 IEM_DS3505
ZGSZ,2001-02-04 07:00,ZGSZ 040700Z AUTO 33006KT 1SM 14/14 A2997 RMK T01400140 IEM_DS3505
ZGSZ,2001-02-04 08:00,ZGSZ 040800Z AUTO 35006KT 1 1/4SM 14/13 A2997 RMK T01400130 IEM_DS3505
ZGSZ,2001-02-04 09:00,ZGSZ 040900Z AUTO 36006KT 1 1/4SM 15/13 A2997 RMK SLP151 T01480126 57008 IEM_DS3505
ZGSZ,2001-02-04 10:00,ZGSZ 041000Z AUTO 32006KT 2SM 14/13 A2997 RMK T01400130 IEM_DS3505
ZGSZ,2001-02-04 11:00,ZGSZ 041100Z AUTO 33008KT 1 1/2SM 14/14 A2997 RMK T01400140 IEM_DS3505
ZGSZ,2001-02-04 12:00,ZGSZ 041200Z AUTO 00000KT 2 1/2SM 14/13 A3000 RMK 60003 SLP162 T01430128 52011 IEM_DS3505
ZGSZ,2001-02-04 13:00,ZGSZ 041300Z AUTO 33004KT 1 1/2SM 14/14 A3000 RMK T01400140 IEM_DS3505
ZGSZ,2001-02-04 14:00,ZGSZ 041400Z AUTO 33004KT 1 1/2SM 14/13 A3000 RMK T01400130 IEM_DS3505
ZGSZ,2001-02-04 15:00,ZGSZ 041500Z AUTO 32004KT 1 1/2SM 14/13 A3003 RMK T01400130 IEM_DS3505
ZGSZ,2001-02-04 16:00,ZGSZ 041600Z AUTO 32006KT 1 1/2SM 14/13 A3000 RMK T01400130 IEM_DS3505
ZGSZ,2001-02-04 17:00,ZGSZ 041700Z AUTO 32004KT 1 1/2SM 14/13 A3003 RMK T01400130 IEM_DS3505
ZGSZ,2001-02-04 18:00,ZGSZ 041800Z AUTO 04004KT 7SM 14/12 A3000 RMK 60003 SLP167 T01420118 57002 IEM_DS3505
ZGSZ,2001-02-04 19:00,ZGSZ 041900Z AUTO 32004KT 14/14 A3000 RMK T01400140 IEM_DS3505
ZGSZ,2001-02-04 20:00,ZGSZ 042000Z AUTO 33004KT 14/13 A2997 RMK T01400130 IEM_DS3505
ZGSZ,2001-02-04 21:00,ZGSZ 042100Z AUTO 04004KT 4SM 14/12 A2997 RMK 70003 SLP155 T01420124 57012 IEM_DS3505
ZGSZ,2001-02-04 22:00,ZGSZ 042200Z AUTO 33004KT 2SM 14/13 A3000 RMK T01400130 IEM_DS3505
ZGSZ,2001-02-04 23:00,ZGSZ 042300Z AUTO 31004KT 2SM 14/13 A3000 RMK T01400130 IEM_DS3505
ZGSZ,2001-02-05 00:00,ZGSZ 050000Z AUTO 04006KT 4SM 15/13 A3000 RMK 70003 SLP169 T01470134 52014 IEM_DS3505
ZGSZ,2001-02-05 01:00,ZGSZ 050100Z AUTO 36004KT 1 1/4SM 15/14 A3003 RMK T01500140 IEM_DS3505
ZGSZ,2001-02-05 02:00,ZGSZ 050200Z AUTO 31004KT 1 1/4SM 15/14 A3006 RMK T01500140 IEM_DS3505
ZGSZ,2001-02-05 03:00,ZGSZ 050300Z AUTO 11006KT 11SM 18/15 A3003 RMK SLP175 T01790154 52006 IEM_DS3505
ZGSZ,2001-02-05 04:00,ZGSZ 050400Z AUTO 29008KT 1SM 17/16 A3000 RMK T01700160 IEM_DS3505
ZGSZ,2001-02-05 05:00,ZGSZ 050500Z AUTO 28008KT 1SM 17/16 A2997 RMK T01700160 IEM_DS3505
ZGSZ,2001-02-05 06:00,ZGSZ 050600Z AUTO 07006KT 13SM 20/16 A2994 RMK SLP144 T02050164 57031 IEM_DS3505
ZGSZ,2001-02-05 07:00,ZGSZ 050700Z AUTO 28006KT 1SM 19/16 A2991 RMK T01900160 IEM_DS3505
ZGSZ,2001-02-05 08:00,ZGSZ 050800Z AUTO 29006KT 1SM 19/16 A2991 RMK T01900160 IEM_DS3505
ZGSZ,2001-02-05 09:00,ZGSZ 050900Z AUTO 14006KT 16SM 21/17 A2988 RMK SLP129 T02130166 57014 IEM_DS3505
ZGSZ,2001-02-05 10:00,ZGSZ 051000Z AUTO 31004KT 1SM 18/16 A2991 RMK T01800160 IEM_DS3505
ZGSZ,2001-02-05 11:00,ZGSZ 051100Z AUTO 32004KT 1 1/4SM 17/16 A2991 RMK T01700160 IEM_DS3505
ZGSZ,2001-02-05 12:00,ZGSZ 051200Z AUTO 11006KT 12SM 17/15 A2991 RMK SLP139 T01730151 52009 IEM_DS3505
ZGSZ,2001-02-05 13:00,ZGSZ 051300Z AUTO 27004KT 1SM 16/16 A2994 RMK T01600160 IEM_DS3505
ZGSZ,2001-02-05 14:00,ZGSZ 051400Z AUTO 33004KT 1SM 16/16 A2994 RMK T01600160 IEM_DS3505
ZGSZ,2001-02-05 15:00,ZGSZ 051500Z AUTO 35004KT 1SM 16/16 A2994 RMK T01600160 IEM_DS3505
ZGSZ,2001-02-05 16:00,ZGSZ 051600Z AUTO 04002KT 1SM 17/16 A2991 RMK T01700160 IEM_DS3505
ZGSZ,2001-02-05 17:00,ZGSZ 051700Z AUTO 04002KT 17/17 A2991 RMK T01700170 IEM_DS3505
ZGSZ,2001-02-05 18:00,ZGSZ 051800Z AUTO 04002KT 5SM 17/15 A2991 RMK SLP134 T01730154 57006 IEM_DS3505
ZGSZ,2001-02-05 19:00,ZGSZ 051900Z AUTO 09006KT 1 1/2SM 18/17 A2991 RMK T01800170 IEM_DS3505
ZGSZ,2001-02-05 20:00,ZGSZ 052000Z AUTO 09008KT 1 1/2SM 18/17 A2988 RMK T01800170 IEM_DS3505
ZGSZ,2001-02-05 21:00,ZGSZ 052100Z AUTO 04006KT 3SM 17/16 A2988 RMK SLP131 T01710156 57003 IEM_DS3505
ZGSZ,2001-02-05 22:00,ZGSZ 052200Z AUTO 34004KT 1 1/4SM 17/17 A2991 RMK T01700170 IEM_DS3505
ZGSZ,2001-02-05 23:00,ZGSZ 052300Z AUTO 10002KT 1SM 17/17 A2994 RMK T01700170 IEM_DS3505
ZGSZ,2001-02-06 00:00,ZGSZ 060000Z AUTO 02006KT 3SM 17/16 A2994 RMK SLP149 T01720159 52017 IEM_DS3505
ZGSZ,2001-02-06 01:00,ZGSZ 060100Z AUTO 24002KT 1SM 18/18 A2994 RMK T01800180 IEM_DS3505
ZGSZ,2001-02-06 02:00,ZGSZ 060200Z AUTO 27004KT 1SM 20/18 A2997 RMK T02000180 IEM_DS3505
ZGSZ,2001-02-06 03:00,ZGSZ 060300Z AUTO 04004KT 4SM 22/18 A2997 RMK SLP150 T02160179 52002 IEM_DS3505
ZGSZ,2001-02-06 04:00,ZGSZ 060400Z AUTO 27006KT 1SM 21/19 A2994 RMK T02100190 IEM_DS3505
ZGSZ,2001-02-06 06:00,ZGSZ 060600Z AUTO 11004KT 17SM 24/19 A2988 RMK SLP117 T02440186 57033 IEM_DS3505
ZGSZ,2001-02-06 07:00,ZGSZ 060700Z AUTO 19006KT 2SM 22/20 A2985 RMK T02200200 IEM_DS3505
ZGSZ,2001-02-06 08:00,ZGSZ 060800Z AUTO 21006KT 7SM 23/20 A2983 RMK T02300200 IEM_DS3505
ZGSZ,2001-02-06 09:00,ZGSZ 060900Z AUTO 09006KT 11SM 23/17 A2983 RMK SLP108 T02270174 57009 IEM_DS3505
ZGSZ,2001-02-06 10:00,ZGSZ 061000Z AUTO 20002KT 7SM 21/19 A2983 RMK T02100190 IEM_DS3505
ZGSZ,2001-02-06 11:00,ZGSZ 061100Z AUTO 18002KT 7SM 20/19 A2985 RMK T02000190 IEM_DS3505
ZGSZ,2001-02-06 12:00,ZGSZ 061200Z AUTO 11006KT 6SM 20/18 A2985 RMK SLP118 T01970176 52010 IEM_DS3505
ZGSZ,2001-02-06 13:00,ZGSZ 061300Z AUTO 20002KT 4SM 19/19 A2988 RMK T01900190 IEM_DS3505
ZGSZ,2001-02-06 14:00,ZGSZ 061400Z AUTO 16006KT 2 1/2SM 19/19 A2991 RMK T01900190 IEM_DS3505
ZGSZ,2001-02-06 15:00,ZGSZ 061500Z AUTO 13008KT 2SM 20/19 A2991 RMK T02000190 IEM_DS3505
ZGSZ,2001-02-06 16:00,ZGSZ 061600Z AUTO 12006KT 2 1/2SM 20/19 A2991 RMK T02000190 IEM_DS3505
ZGSZ,2001-02-06 17:00,ZGSZ 061700Z AUTO 00000KT 2 1/2SM 19/19 A2991 RMK T01900190 IEM_DS3505
ZGSZ,2001-02-06 18:00,ZGSZ 061800Z AUTO 07002KT 8SM 19/18 A2991 RMK SLP133 T01920179 57001 IEM_DS3505
ZGSZ,2001-02-06 19:00,ZGSZ 061900Z AUTO 32004KT 3SM 18/18 A2991 RMK T01800180 IEM_DS3505
ZGSZ,2001-02-06 20:00,ZGSZ 062000Z AUTO 36004KT 2SM 19/19 A2991 RMK T01900190 IEM_DS3505
ZGSZ,2001-02-06 21:00,ZGSZ 062100Z AUTO 04002KT 2 1/2SM 19/18 A2991 RMK SLP135 T01860176 52002 IEM_DS3505
ZGSZ,2001-02-06 22:00,ZGSZ 062200Z AUTO 36004KT 2SM 18/18 A2994 RMK T01800180 IEM_DS3505
ZGSZ,2001-02-06 23:00,ZGSZ 062300Z AUTO 04004KT 1 1/4SM 17/17 A2994 RMK T01700170 IEM_DS3505
ZGSZ,2001-02-07 00:00,ZGSZ 070000Z AUTO 04004KT 1 1/4SM 18/18 A2997 RMK SLP158 T01820175 52023 IEM_DS3505
ZGSZ,2001-02-07 01:00,ZGSZ 070100Z AUTO 03008KT 1 1/4SM 21/20 A2997 RMK T02100200 IEM_DS3505
ZGSZ,2001-02-07 02:00,ZGSZ 070200Z AUTO 01008KT 1SM 21/20 A3000 RMK T02100200 IEM_DS3505
ZGSZ,2001-02-07 03:00,ZGSZ 070300Z AUTO 04006KT 3SM 21/18 A3000 RMK SLP160 T02110184 52002 IEM_DS3505
ZGSZ,2001-02-07 04:00,ZGSZ 070400Z AUTO 35008KT 1SM 22/20 A3000 RMK T02200200 IEM_DS3505
ZGSZ,2001-02-07 05:00,ZGSZ 070500Z AUTO 32012KT 1 1/4SM 22/20 A2997 RMK T02200200 IEM_DS3505
ZGSZ,2001-02-07 06:00,ZGSZ 070600Z AUTO 04006KT 4SM 24/17 A2994 RMK SLP143 T02370171 57017 IEM_DS3505
ZGSZ,2001-02-07 07:00,ZGSZ 070700Z AUTO 35012KT 5SM 21/17 A2994 RMK T02100170 IEM_DS3505
ZGSZ,2001-02-07 08:00,ZGSZ 070800Z AUTO 35014KT 5SM 20/17 A2994 RMK T02000170 IEM_DS3505
ZGSZ,2001-02-07 09:00,ZGSZ 070900Z AUTO 07008KT 9SM 20/13 A2997 RMK SLP144 T02050134 52001 IEM_DS3505
ZGSZ,2001-02-07 10:00,ZGSZ 071000Z AUTO 36014KT 6SM 18/14 A2997 RMK T01800140 IEM_DS3505
ZGSZ,2001-02-07 11:00,ZGSZ 071100Z AUTO 01014KT 6SM 17/13 A3000 RMK T01700130 IEM_DS3505
ZGSZ,2001-02-07 12:00,ZGSZ 071200Z AUTO 04010KT 12SM 16/10 A3003 RMK SLP174 T01640097 52029 IEM_DS3505
ZGSZ,2001-02-07 13:00,ZGSZ 071300Z AUTO 01012KT 6SM 16/12 A3006 RMK T01600120 IEM_DS3505
ZGSZ,2001-02-07 14:00,ZGSZ 071400Z AUTO 02010KT 6SM 16/12 A3006 RMK T01600120 IEM_DS3505
ZGSZ,2001-02-07 15:00,ZGSZ 071500Z AUTO 01012KT 6SM 15/11 A3009 RMK T01500110 IEM_DS3505
ZGSZ,2001-02-07 16:00,ZGSZ 071600Z AUTO 02010KT 15/11 A3009 RMK T01500110 IEM_DS3505
ZGSZ,2001-02-07 17:00,ZGSZ 071700Z AUTO 02010KT 14/10 A3009 RMK T01400100 IEM_DS3505
ZGSZ,2001-02-07 18:00,ZGSZ 071800Z AUTO 04010KT 16SM 14/08 A3009 RMK SLP189 T01420080 57004 IEM_DS3505
ZGSZ,2001-02-07 19:00,ZGSZ 071900Z AUTO 36012KT 6SM 14/09 A3009 RMK T01400090 IEM_DS3505
ZGSZ,2001-02-07 20:00,ZGSZ 072000Z AUTO 02010KT 6SM 13/09 A3009 RMK T01300090 IEM_DS3505
ZGSZ,2001-02-07 21:00,ZGSZ 072100Z AUTO 04008KT 16SM 13/07 A3009 RMK SLP193 T01290066 52004 IEM_DS3505
ZGSZ,2001-02-07 22:00,ZGSZ 072200Z AUTO 03010KT 6SM 13/09 A3009 RMK T01300090 IEM_DS3505
ZGSZ,2001-02-07 23:00,ZGSZ 072300Z AUTO 36010KT 6SM 13/09 A3012 RMK T01300090 IEM_DS3505
ZGSZ,2001-02-08 00:00,ZGSZ 080000Z AUTO 04008KT 9SM 13/07 A3015 RMK SLP209 T01260068 52016 IEM_DS3505
ZGSZ,2001-02-08 01:00,ZGSZ 080100Z AUTO 36008KT 7SM 13/09 A3015 RMK T01300090 IEM_DS3505
ZGSZ,2001-02-08 02:00,ZGSZ 080200Z AUTO 02008KT 7SM 14/09 A3018 RMK T01400090 IEM_DS3505
ZGSZ,2001-02-08 03:00,ZGSZ 080300Z AUTO 04004KT 7SM 14/08 A3018 RMK SLP218 T01390076 52009 IEM_DS3505
ZGSZ,2001-02-08 04:00,ZGSZ 080400Z AUTO 36008KT 7SM 15/09 A3015 RMK T01500090 IEM_DS3505
ZGSZ,2001-02-08 05:00,ZGSZ 080500Z AUTO 36008KT 7SM 15/09 A3012 RMK T01500090 IEM_DS3505
ZGSZ,2001-02-08 06:00,ZGSZ 080600Z AUTO 04006KT 7SM 15/09 A3009 RMK SLP194 T01490086 57024 IEM_DS3505
ZGSZ,2001-02-08 07:00,ZGSZ 080700Z AUTO 02008KT 7SM 15/10 A3009 RMK T01500100 IEM_DS3505
ZGSZ,2001-02-08 08:00,ZGSZ 080800Z AUTO 02008KT 7SM 16/10 A3006 RMK T01600100 IEM_DS3505
ZGSZ,2001-02-08 09:00,ZGSZ 080900Z AUTO 04006KT 5SM 15/09 A3006 RMK SLP186 T01510086 57008 IEM_DS3505
ZGSZ,2001-02-08 10:00,ZGSZ 081000Z AUTO 03008KT 2SM 15/10 A3009 RMK T01500100 IEM_DS3505
ZGSZ,2001-02-08 11:00,ZGSZ 081100Z AUTO 01010KT 4SM 14/10 A3009 RMK T01400100 IEM_DS3505
ZGSZ,2001-02-08 12:00,ZGSZ 081200Z AUTO 02008KT 7SM 14/08 A3009 RMK SLP200 T01410081 52013 IEM_DS3505
ZGSZ,2001-02-08 13:00,ZGSZ 081300Z AUTO 04010KT 6SM 14/10 A3012 RMK T01400100 IEM_DS3505
ZGSZ,2001-02-08 14:00,ZGSZ 081400Z AUTO 03008KT 6SM 14/10 A3012 RMK T01400100 IEM_DS3505
ZGSZ,2001-02-08 15:00,ZGSZ 081500Z AUTO 02006KT 6SM 14/10 A3012 RMK T01400100 IEM_DS3505
ZGSZ,2001-02-08 16:00,ZGSZ 081600Z AUTO 01008KT 7SM 14/10 A3012 RMK T01400100 IEM_DS3505
ZGSZ,2001-02-08 17:00,ZGSZ 081700Z AUTO 35008KT 14/10 A3012 RMK T01400100 IEM_DS3505
ZGSZ,2001-02-08 18:00,ZGSZ 081800Z AUTO 04004KT 9SM 13/08 A3012 RMK SLP203 T01280084 57002 IEM_DS3505
ZGSZ,2001-02-08 19:00,ZGSZ 081900Z AUTO 02010KT 7SM 13/10 A3012 RMK T01300100 IEM_DS3505
ZGSZ,2001-02-08 20:00,ZGSZ 082000Z AUTO 02010KT 7SM 13/10 A3012 RMK T01300100 IEM_DS3505
ZGSZ,2001-02-08 21:00,ZGSZ 082100Z AUTO 04004KT 9SM 13/08 A3012 RMK SLP198 T01270080 57005 IEM_DS3505
ZGSZ,2001-02-08 22:00,ZGSZ 082200Z AUTO 03006KT 7SM 13/10 A3009 RMK T01300100 IEM_DS3505
ZGSZ,2001-02-08 23:00,ZGSZ 082300Z AUTO 35004KT 6SM 13/10 A3015 RMK T01300100 IEM_DS3505
ZGSZ,2001-02-09 00:00,ZGSZ 090000Z AUTO 04006KT 7SM 12/08 A3015 RMK SLP214 T01250078 52015 IEM_DS3505
ZGSZ,2001-02-09 01:00,ZGSZ 090100Z AUTO 01010KT 6SM 13/10 A3015 RMK T01300100 IEM_DS3505
ZGSZ,2001-02-09 02:00,ZGSZ 090200Z AUTO 02010KT 6SM 14/10 A3015 RMK T01400100 IEM_DS3505
ZGSZ,2001-02-09 03:00,ZGSZ 090300Z AUTO 04004KT 6SM 15/09 A3015 RMK SLP209 T01470088 57004 IEM_DS3505
ZGSZ,2001-02-09 04:00,ZGSZ 090400Z AUTO 02006KT 4SM 16/11 A3012 RMK T01600110 IEM_DS3505
ZGSZ,2001-02-09 05:00,ZGSZ 090500Z AUTO 34006KT 3SM 17/11 A3009 RMK T01700110 IEM_DS3505
ZGSZ,2001-02-09 06:00,ZGSZ 090600Z AUTO 34006KT 5SM 19/11 A3006 RMK SLP187 T01880107 57022 IEM_DS3505
ZGSZ,2001-02-09 07:00,ZGSZ 090700Z AUTO 01010KT 3SM 16/11 A3006 RMK T01600110 IEM_DS3505
ZGSZ,2001-02-09 08:00,ZGSZ 090800Z AUTO 36012KT 4SM 16/11 A3006 RMK T01600110 IEM_DS3505
ZGSZ,2001-02-09 09:00,ZGSZ 090900Z AUTO 04008KT 7SM 18/10 A3006 RMK SLP179 T01750097 57008 IEM_DS3505
ZGSZ,2001-02-09 10:00,ZGSZ 091000Z AUTO 36010KT 4SM 16/11 A3006 RMK T01600110 IEM_DS3505
ZGSZ,2001-02-09 11:00,ZGSZ 091100Z AUTO 35010KT 4SM 15/11 A3009 RMK T01500110 IEM_DS3505
ZGSZ,2001-02-09 12:00,ZGSZ 091200Z AUTO 02006KT 6SM 16/10 A3009 RMK SLP195 T01580097 52016 IEM_DS3505
ZGSZ,2001-02-09 13:00,ZGSZ 091300Z AUTO 02010KT 5SM 15/11 A3012 RMK T01500110 IEM_DS3505
ZGSZ,2001-02-09 14:00,ZGSZ 091400Z AUTO 36008KT 5SM 14/11 A3012 RMK T01400110 IEM_DS3505
ZGSZ,2001-02-09 15:00,ZGSZ 091500Z AUTO 36008KT 4SM 14/11 A3012 RMK T01400110 IEM_DS3505
ZGSZ,2001-02-09 16:00,ZGSZ 091600Z AUTO 36010KT 5SM 14/11 A3015 RMK T01400110 IEM_DS3505
ZGSZ,2001-02-09 17:00,ZGSZ 091700Z AUTO 33012KT 14/11 A3012 RMK T01400110 IEM_DS3505
ZGSZ,2001-02-09 18:00,ZGSZ 091800Z AUTO 04008KT 11SM 14/08 A3012 RMK SLP202 T01390083 57003 IEM_DS3505
ZGSZ,2001-02-09 19:00,ZGSZ 091900Z AUTO 35006KT 5SM 13/10 A3012 RMK T01300100 IEM_DS3505
ZGSZ,2001-02-09 20:00,ZGSZ 092000Z AUTO 36010KT 5SM 13/10 A3012 RMK T01300100 IEM_DS3505
ZGSZ,2001-02-09 21:00,ZGSZ 092100Z AUTO 36008KT 12SM 13/08 A3012 RMK SLP204 T01310076 52002 IEM_DS3505
ZGSZ,2001-02-09 22:00,ZGSZ 092200Z AUTO 36012KT 6SM 13/10 A3015 RMK T01300100 IEM_DS3505
ZGSZ,2001-02-09 23:00,ZGSZ 092300Z AUTO 36010KT 5SM 12/10 A3015 RMK T01200100 IEM_DS3505
ZGSZ,2001-02-10 00:00,ZGSZ 100000Z AUTO 04008KT 14SM 12/08 A3015 RMK 60003 SLP215 T01250080 52011 IEM_DS3505
ZGSZ,2001-02-10 01:00,ZGSZ 100100Z AUTO 01010KT 7SM 11/10 A3018 RMK T01100100 IEM_DS3505
ZGSZ,2001-02-10 02:00,ZGSZ 100200Z AUTO 36008KT 7SM 12/11 A3018 RMK T01200110 IEM_DS3505
ZGSZ,2001-02-10 03:00,ZGSZ 100300Z AUTO 02004KT 12SM 12/08 A3018 RMK SLP219 T01210085 52003 IEM_DS3505
ZGSZ,2001-02-10 04:00,ZGSZ 100400Z AUTO 03006KT 7SM 14/11 A3012 RMK T01400110 IEM_DS3505
ZGSZ,2001-02-10 05:00,ZGSZ 100500Z AUTO 35006KT 6SM 16/12 A3009 RMK T01600120 IEM_DS3505
ZGSZ,2001-02-10 06:00,ZGSZ 100600Z AUTO 04004KT 7SM 16/10 A3006 RMK 60004 SLP180 T01650101 57038 IEM_DS3505
ZGSZ,2001-02-10 07:00,ZGSZ 100700Z AUTO 35008KT 6SM 17/11 A3003 RMK T01700110 IEM_DS3505
ZGSZ,2001-02-10 08:00,ZGSZ 100800Z AUTO 36006KT 6SM 18/12 A3000 RMK T01800120 IEM_DS3505
ZGSZ,2001-02-10 09:00,ZGSZ 100900Z AUTO 07004KT 7SM 18/11 A3000 RMK SLP164 T01820108 57016 IEM_DS3505
ZGSZ,2001-02-10 10:00,ZGSZ 101000Z AUTO 29010KT 6SM 16/13 A3003 RMK T01600130 IEM_DS3505
ZGSZ,2001-02-10 11:00,ZGSZ 101100Z AUTO 31008KT 6SM 17/12 A3006 RMK T01700120 IEM_DS3505
ZGSZ,2001-02-10 12:00,ZGSZ 101200Z AUTO 00000KT 6SM 16/12 A3006 RMK SLP185 T01650119 52021 IEM_DS3505
ZGSZ,2001-02-10 13:00,ZGSZ 101300Z AUTO 29002KT 4SM 16/12 A3009 RMK T01600120 IEM_DS3505
ZGSZ,2001-02-10 14:00,ZGSZ 101400Z AUTO 29006KT 4SM 15/13 A3009 RMK T01500130 IEM_DS3505
ZGSZ,2001-02-10 15:00,ZGSZ 101500Z AUTO 29004KT 4SM 15/13 A3009 RMK T01500130 IEM_DS3505
ZGSZ,2001-02-10 16:00,ZGSZ 101600Z AUTO 30004KT 4SM 15/13 A3009 RMK T01500130 IEM_DS3505
ZGSZ,2001-02-10 17:00,ZGSZ 101700Z AUTO 29006KT 15/13 A3009 RMK T01500130 IEM_DS3505
ZGSZ,2001-02-10 18:00,ZGSZ 101800Z AUTO 20002KT 4SM 15/12 A3009 RMK SLP193 T01540119 57003 IEM_DS3505
ZGSZ,2001-02-10 19:00,ZGSZ 101900Z AUTO 34004KT 15/12 A3009 RMK T01500120 IEM_DS3505
ZGSZ,2001-02-10 20:00,ZGSZ 102000Z AUTO 33004KT 15/13 A3009 RMK T01500130 IEM_DS3505
ZGSZ,2001-02-10 21:00,ZGSZ 102100Z AUTO 00000KT 3SM 15/12 A3009 RMK 70005 SLP191 T01520123 57002 IEM_DS3505
ZGSZ,2001-02-10 22:00,ZGSZ 102200Z AUTO 03008KT 3SM 15/12 A3009 RMK T01500120 IEM_DS3505
ZGSZ,2001-02-10 23:00,ZGSZ 102300Z AUTO 36006KT 5SM 15/12 A3012 RMK T01500120 IEM_DS3505
ZGSZ,2001-02-11 00:00,ZGSZ 110000Z AUTO 36002KT 7SM 15/11 A3012 RMK 70005 SLP206 T01510114 52015 IEM_DS3505
ZGSZ,2001-02-11 01:00,ZGSZ 110100Z AUTO 02008KT 6SM 17/13 A3012 RMK T01700130 IEM_DS3505
ZGSZ,2001-02-11 02:00,ZGSZ 110200Z AUTO 03008KT 6SM 18/14 A3012 RMK T01800140 IEM_DS3505
ZGSZ,2001-02-11 03:00,ZGSZ 110300Z AUTO 34006KT 8SM 18/12 A3012 RMK SLP200 T01760116 57006 IEM_DS3505
ZGSZ,2001-02-11 04:00,ZGSZ 110400Z AUTO 03006KT 7SM 21/15 A3006 RMK T02100150 IEM_DS3505
ZGSZ,2001-02-11 05:00,ZGSZ 110500Z AUTO 22006KT 7SM 22/14 A3003 RMK T02200140 IEM_DS3505
ZGSZ,2001-02-11 06:00,ZGSZ 110600Z AUTO 00000KT 7SM 20/13 RMK SLP169 T02050128 57031 IEM_DS3505
ZGSZ,2001-02-11 07:00,ZGSZ 110700Z AUTO 24004KT 4SM 20/15 A2997 RMK T02000150 IEM_DS3505
ZGSZ,2001-02-11 08:00,ZGSZ 110800Z AUTO 20004KT 4SM 20/15 A2997 RMK T02000150 IEM_DS3505
ZGSZ,2001-02-11 09:00,ZGSZ 110900Z AUTO 14006KT 7SM 19/13 A2997 RMK SLP158 T01930128 57011 IEM_DS3505
ZGSZ,2001-02-11 10:00,ZGSZ 111000Z AUTO 19004KT 2SM 19/16 A2997 RMK T01900160 IEM_DS3505
ZGSZ,2001-02-11 11:00,ZGSZ 111100Z AUTO 18004KT 2SM 18/16 A3000 RMK T01800160 IEM_DS3505
ZGSZ,2001-02-11 12:00,ZGSZ 111200Z AUTO 11004KT 7SM 18/13 A3003 RMK SLP164 T01790131 52006 IEM_DS3505
ZGSZ,2001-02-11 13:00,ZGSZ 111300Z AUTO 15004KT 2 1/2SM 18/16 A3003 RMK T01800160 IEM_DS3505
ZGSZ,2001-02-11 14:00,ZGSZ 111400Z AUTO 16004KT 2 1/2SM 18/16 A3003 RMK T01800160 IEM_DS3505
ZGSZ,2001-02-11 15:00,ZGSZ 111500Z AUTO 16002KT 2SM 18/16 A3003 RMK T01800160 IEM_DS3505
ZGSZ,2001-02-11 16:00,ZGSZ 111600Z AUTO 20002KT 17/16 A3003 RMK T01700160 IEM_DS3505
ZGSZ,2001-02-11 17:00,ZGSZ 111700Z AUTO 16004KT 17/16 A3003 RMK T01700160 IEM_DS3505
ZGSZ,2001-02-11 18:00,ZGSZ 111800Z AUTO 07004KT 10SM 17/14 A3003 RMK 60000 SLP171 T01740143 57006 IEM_DS3505
ZGSZ,2001-02-11 19:00,ZGSZ 111900Z AUTO 34004KT 17/16 A3003 RMK T01700160 IEM_DS3505
ZGSZ,2001-02-11 20:00,ZGSZ 112000Z AUTO 33004KT 16/16 A3003 RMK T01600160 IEM_DS3505
ZGSZ,2001-02-11 21:00,ZGSZ 112100Z AUTO 09002KT 7SM 17/15 A3003 RMK 70000 SLP170 T01660149 57002 IEM_DS3505
ZGSZ,2001-02-11 22:00,ZGSZ 112200Z AUTO 00000KT 2 1/2SM 16/16 A3003 RMK T01600160 IEM_DS3505
ZGSZ,2001-02-11 23:00,ZGSZ 112300Z AUTO 03002KT 2SM 17/16 A3003 RMK T01700160 IEM_DS3505
ZGSZ,2001-02-12 00:00,ZGSZ 120000Z AUTO 04004KT 7SM 17/15 A3006 RMK 70000 SLP185 T01690150 52015 IEM_DS3505
ZGSZ,2001-02-12 01:00,ZGSZ 120100Z AUTO 21002KT 1 1/2SM 19/17 A3009 RMK T01900170 IEM_DS3505
ZGSZ,2001-02-12 02:00,ZGSZ 120200Z AUTO 23004KT 2SM 21/17 A3009 RMK T02100170 IEM_DS3505
ZGSZ,2001-02-12 03:00,ZGSZ 120300Z AUTO 09002KT 5SM 21/15 A3009 RMK SLP187 T02110154 52003 IEM_DS3505
ZGSZ,2001-02-12 04:00,ZGSZ 120400Z AUTO 25006KT 2SM 22/17 A3006 RMK T02200170 IEM_DS3505
ZGSZ,2001-02-12 05:00,ZGSZ 120500Z AUTO 23006KT 1SM 23/18 A3000 RMK T02300180 IEM_DS3505
ZGSZ,2001-02-12 06:00,ZGSZ 120600Z AUTO 36002KT 6SM 26/17 A2997 RMK SLP150 T02650169 57037 IEM_DS3505
ZGSZ,2001-02-12 07:00,ZGSZ 120700Z AUTO 27006KT 1 1/2SM 25/18 A2994 RMK T02500180 IEM_DS3505
ZGSZ,2001-02-12 08:00,ZGSZ 120800Z AUTO 27004KT 1 1/2SM 24/18 A2994 RMK T02400180 IEM_DS3505
ZGSZ,2001-02-12 09:00,ZGSZ 120900Z AUTO 20004KT 2 1/2SM 24/16 A2994 RMK SLP140 T02420164 57010 IEM_DS3505
ZGSZ,2001-02-12 10:00,ZGSZ 121000Z AUTO 15004KT 2 1/2SM 20/18 A2994 RMK T02000180 IEM_DS3505
ZGSZ,2001-02-12 11:00,ZGSZ 121100Z AUTO 15006KT 3SM 19/18 A2994 RMK T01900180 IEM_DS3505
ZGSZ,2001-02-12 12:00,ZGSZ 121200Z AUTO 14008KT 7SM 21/15 A2994 RMK SLP154 T02060152 52014 IEM_DS3505
ZGSZ,2001-02-12 13:00,ZGSZ 121300Z AUTO 16004KT 2 1/2SM 18/18 A2997 RMK T01800180 IEM_DS3505
ZGSZ,2001-02-12 14:00,ZGSZ 121400Z AUTO 18004KT 2 1/2SM 18/18 A2997 RMK T01800180 IEM_DS3505
ZGSZ,2001-02-12 15:00,ZGSZ 121500Z AUTO 00000KT 1 1/4SM 18/18 A2997 RMK T01800180 IEM_DS3505
ZGSZ,2001-02-12 16:00,ZGSZ 121600Z AUTO 01002KT 17/17 A3000 RMK T01700170 IEM_DS3505
ZGSZ,2001-02-12 17:00,ZGSZ 121700Z AUTO 35002KT 17/17 A3000 RMK T01700170 IEM_DS3505
ZGSZ,2001-02-12 18:00,ZGSZ 121800Z AUTO 09006KT 9SM 18/16 A3000 RMK SLP171 T01790157 52007 IEM_DS3505
ZGSZ,2001-02-12 19:00,ZGSZ 121900Z AUTO 36002KT 1 1/4SM 18/18 A3000 RMK T01800180 IEM_DS3505
ZGSZ,2001-02-12 20:00,ZGSZ 122000Z AUTO 05002KT 1 1/4SM 18/18 A3000 RMK T01800180 IEM_DS3505
ZGSZ,2001-02-12 21:00,ZGSZ 122100Z AUTO 14004KT 5SM 17/16 A3003 RMK SLP170 T01730156 57001 IEM_DS3505
ZGSZ,2001-02-12 22:00,ZGSZ 122200Z AUTO 02002KT 1 1/4SM 18/18 A3003 RMK T01800180 IEM_DS3505
ZGSZ,2001-02-12 23:00,ZGSZ 122300Z AUTO 06004KT 3SM 18/17 A3006 RMK T01800170 IEM_DS3505
ZGSZ,2001-02-13 00:00,ZGSZ 130000Z AUTO 04006KT 7SM 18/14 A3006 RMK SLP187 T01750142 52016 IEM_DS3505
ZGSZ,2001-02-13 01:00,ZGSZ 130100Z AUTO 35008KT 4SM 19/16 A3009 RMK T01900160 IEM_DS3505
ZGSZ,2001-02-13 02:00,ZGSZ 130200Z AUTO 35008KT 5SM 20/15 A3009 RMK T02000150 IEM_DS3505
ZGSZ,2001-02-13 03:00,ZGSZ 130300Z AUTO 04010KT 10SM 19/12 A3009 RMK SLP192 T01910123 52005 IEM_DS3505
ZGSZ,2001-02-13 04:00,ZGSZ 130400Z AUTO 36012KT 5SM 21/14 A3009 RMK T02100140 IEM_DS3505
ZGSZ,2001-02-13 05:00,ZGSZ 130500Z AUTO 36014KT 20/14 A3006 RMK T02000140 IEM_DS3505
ZGSZ,2001-02-13 06:00,ZGSZ 130600Z AUTO 32008KT 5SM 21/13 A3003 RMK SLP172 T02140133 57019 IEM_DS3505
ZGSZ,2001-02-13 07:00,ZGSZ 130700Z AUTO 35010KT 7SM 19/14 A3003 RMK T01900140 IEM_DS3505
ZGSZ,2001-02-13 08:00,ZGSZ 130800Z AUTO 33016KT 7SM 19/13 A3003 RMK T01900130 IEM_DS3505
ZGSZ,2001-02-13 09:00,ZGSZ 130900Z AUTO 32006KT 7SM 19/11 A3006 RMK SLP180 T01900107 52007 IEM_DS3505
ZGSZ,2001-02-13 10:00,ZGSZ 131000Z AUTO 33014KT 7SM 17/11 A3009 RMK T01700110 IEM_DS3505
ZGSZ,2001-02-13 11:00,ZGSZ 131100Z AUTO 33014KT 7SM 15/11 A3012 RMK T01500110 IEM_DS3505
ZGSZ,2001-02-13 12:00,ZGSZ 131200Z AUTO 04010KT 7SM 16/08 A3015 RMK SLP207 T01560081 52027 IEM_DS3505
ZGSZ,2001-02-13 13:00,ZGSZ 131300Z AUTO 36016KT 7SM 15/09 A3018 RMK T01500090 IEM_DS3505
ZGSZ,2001-02-13 14:00,ZGSZ 131400Z AUTO 01014KT 7SM 14/08 A3021 RMK T01400080 IEM_DS3505
ZGSZ,2001-02-13 15:00,ZGSZ 131500Z AUTO 02016KT 7SM 13/08 A3024 RMK T01300080 IEM_DS3505
ZGSZ,2001-02-13 16:00,ZGSZ 131600Z AUTO 36010KT 13/07 A3024 RMK T01300070 IEM_DS3505
ZGSZ,2001-02-13 17:00,ZGSZ 131700Z AUTO 01014KT 12/06 A3024 RMK T01200060 IEM_DS3505
ZGSZ,2001-02-13 18:00,ZGSZ 131800Z AUTO 04008KT 12SM 12/05 A3024 RMK SLP245 T01250051 52009 IEM_DS3505
ZGSZ,2001-02-13 19:00,ZGSZ 131900Z AUTO 36012KT 7SM 11/05 A3024 RMK T01100050 IEM_DS3505
ZGSZ,2001-02-13 20:00,ZGSZ 132000Z AUTO 02014KT 7SM 10/05 A3027 RMK T01000050 IEM_DS3505
ZGSZ,2001-02-13 21:00,ZGSZ 132100Z AUTO 04010KT 16SM 10/03 A3027 RMK SLP248 T01000033 52002 IEM_DS3505
ZGSZ,2001-02-13 22:00,ZGSZ 132200Z AUTO 01012KT 6SM 09/05 A3027 RMK T00900050 IEM_DS3505
ZGSZ,2001-02-13 23:00,ZGSZ 132300Z AUTO 01014KT 6SM 09/05 A3030 RMK T00900050 IEM_DS3505
ZGSZ,2001-02-14 00:00,ZGSZ 140000Z AUTO 04010KT 17SM 09/03 A3030 RMK SLP262 T00930030 52014 IEM_DS3505
ZGSZ,2001-02-14 01:00,ZGSZ 140100Z AUTO 01016KT 6SM 11/05 A3030 RMK T01100050 IEM_DS3505
ZGSZ,2001-02-14 02:00,ZGSZ 140200Z AUTO 03016KT 6SM 12/04 A3030 RMK T01200040 IEM_DS3505
ZGSZ,2001-02-14 03:00,ZGSZ 140300Z AUTO 02008KT 16SM 12/03 A3030 RMK SLP260 T01150030 57002 IEM_DS3505
ZGSZ,2001-02-14 04:00,ZGSZ 140400Z AUTO 03014KT 6SM 14/04 A3027 RMK T01400040 IEM_DS3505
ZGSZ,2001-02-14 05:00,ZGSZ 140500Z AUTO 03012KT 6SM 15/05 A3021 RMK T01500050 IEM_DS3505
ZGSZ,2001-02-14 06:00,ZGSZ 140600Z AUTO 04006KT 17SM 15/05 A3018 RMK SLP221 T01520050 57039 IEM_DS3505
ZGSZ,2001-02-14 07:00,ZGSZ 140700Z AUTO 35010KT 6SM 16/06 A3015 RMK T01600060 IEM_DS3505
ZGSZ,2001-02-14 08:00,ZGSZ 140800Z AUTO 36010KT 6SM 16/06 A3015 RMK T01600060 IEM_DS3505
ZGSZ,2001-02-14 09:00,ZGSZ 140900Z AUTO 04006KT 17SM 16/05 A3015 RMK SLP212 T01550052 57009 IEM_DS3505
ZGSZ,2001-02-14 10:00,ZGSZ 141000Z AUTO 05008KT 6SM 15/06 A3015 RMK T01500060 IEM_DS3505
ZGSZ,2001-02-14 11:00,ZGSZ 141100Z AUTO 05004KT 6SM 14/06 A3018 RMK T01400060 IEM_DS3505
ZGSZ,2001-02-14 12:00,ZGSZ 141200Z AUTO 04006KT 9SM 14/04 A3018 RMK SLP227 T01380042 52015 IEM_DS3505
ZGSZ,2001-02-14 13:00,ZGSZ 141300Z AUTO 08006KT 5SM 13/05 A3021 RMK T01300050 IEM_DS3505
ZGSZ,2001-02-14 14:00,ZGSZ 141400Z AUTO 02004KT 6SM 13/04 A3021 RMK T01300040 IEM_DS3505
ZGSZ,2001-02-14 15:00,ZGSZ 141500Z AUTO 08008KT 6SM 13/04 A3024 RMK T01300040 IEM_DS3505
ZGSZ,2001-02-14 16:00,ZGSZ 141600Z AUTO 06008KT 13/04 A3024 RMK T01300040 IEM_DS3505
ZGSZ,2001-02-14 17:00,ZGSZ 141700Z AUTO 04006KT 12/04 A3024 RMK T01200040 IEM_DS3505
ZGSZ,2001-02-14 18:00,ZGSZ 141800Z AUTO 34004KT 11SM 12/04 A3024 RMK SLP243 T01170041 52004 IEM_DS3505
ZGSZ,2001-02-14 19:00,ZGSZ 141900Z AUTO 03010KT 6SM 12/04 A3024 RMK T01200040 IEM_DS3505
ZGSZ,2001-02-14 20:00,ZGSZ 142000Z AUTO 01006KT 6SM 11/04 A3024 RMK T01100040 IEM_DS3505
ZGSZ,2001-02-14 21:00,ZGSZ 142100Z AUTO 04006KT 11SM 11/03 A3024 RMK SLP243 T01110033 54000 IEM_DS3505
ZGSZ,2001-02-14 22:00,ZGSZ 142200Z AUTO 02010KT 6SM 11/03 A3024 RMK T01100030 IEM_DS3505
ZGSZ,2001-02-14 23:00,ZGSZ 142300Z AUTO 03010KT 6SM 11/03 A3024 RMK T01100030 IEM_DS3505
ZGSZ,2001-02-15 00:00,ZGSZ 150000Z AUTO 04010KT 12SM 11/02 A3027 RMK SLP259 T01080020 52016 IEM_DS3505
ZGSZ,2001-02-15 01:00,ZGSZ 150100Z AUTO 01006KT 6SM 14/05 A3027 RMK T01400050 IEM_DS3505
ZGSZ,2001-02-15 02:00,ZGSZ 150200Z AUTO 04010KT 6SM 16/05 A3030 RMK T01600050 IEM_DS3505
ZGSZ,2001-02-15 03:00,ZGSZ 150300Z AUTO 04006KT 11SM 15/03 A3027 RMK SLP261 T01470031 52002 IEM_DS3505
ZGSZ,2001-02-15 04:00,ZGSZ 150400Z AUTO 03010KT 6SM 18/06 A3024 RMK T01800060 IEM_DS3505
ZGSZ,2001-02-15 05:00,ZGSZ 150500Z AUTO 01008KT 6SM 19/06 A3021 RMK T01900060 IEM_DS3505
ZGSZ,2001-02-15 06:00,ZGSZ 150600Z AUTO 36004KT 9SM 20/06 A3015 RMK SLP215 T01960062 57045 IEM_DS3505
ZGSZ,2001-02-15 07:00,ZGSZ 150700Z AUTO 31008KT 6SM 20/06 A3015 RMK T02000060 IEM_DS3505
ZGSZ,2001-02-15 08:00,ZGSZ 150800Z AUTO 28010KT 6SM 20/09 A3012 RMK T02000090 IEM_DS3505
ZGSZ,2001-02-15 09:00,ZGSZ 150900Z AUTO 34002KT 7SM 20/07 A3012 RMK SLP203 T02020071 57012 IEM_DS3505
ZGSZ,2001-02-15 10:00,ZGSZ 151000Z AUTO 30008KT 6SM 18/08 A3015 RMK T01800080 IEM_DS3505
ZGSZ,2001-02-15 11:00,ZGSZ 151100Z AUTO 32004KT 6SM 16/10 A3015 RMK T01600100 IEM_DS3505
ZGSZ,2001-02-15 12:00,ZGSZ 151200Z AUTO 14004KT 5SM 17/08 A3015 RMK SLP221 T01680084 52017 IEM_DS3505
ZGSZ,2001-02-15 13:00,ZGSZ 151300Z AUTO 33004KT 2 1/2SM 13/08 A3018 RMK T01300080 IEM_DS3505
ZGSZ,2001-02-15 14:00,ZGSZ 151400Z AUTO 32004KT 2SM 13/09 A3018 RMK T01300090 IEM_DS3505
ZGSZ,2001-02-15 15:00,ZGSZ 151500Z AUTO 10002KT 2 1/2SM 13/09 A3021 RMK T01300090 IEM_DS3505
ZGSZ,2001-02-15 16:00,ZGSZ 151600Z AUTO 09002KT 13/09 A3021 RMK T01300090 IEM_DS3505
ZGSZ,2001-02-15 17:00,ZGSZ 151700Z AUTO 11002KT 12/09 A3021 RMK T01200090 IEM_DS3505
ZGSZ,2001-02-15 18:00,ZGSZ 151800Z AUTO 04002KT 4SM 15/10 A3021 RMK SLP235 T01470103 52003 IEM_DS3505
ZGSZ,2001-02-15 19:00,ZGSZ 151900Z AUTO 04002KT 2SM 11/09 A3021 RMK T01100090 IEM_DS3505
ZGSZ,2001-02-15 20:00,ZGSZ 152000Z AUTO 02004KT 2SM 13/09 A3021 RMK T01300090 IEM_DS3505
ZGSZ,2001-02-15 21:00,ZGSZ 152100Z AUTO 04006KT 4SM 14/10 A3021 RMK SLP235 T01440095 54000 IEM_DS3505
ZGSZ,2001-02-15 22:00,ZGSZ 152200Z AUTO 02002KT 2SM 13/10 A3024 RMK T01300100 IEM_DS3505
ZGSZ,2001-02-15 23:00,ZGSZ 152300Z AUTO 02006KT 2 1/2SM 14/08 A3024 RMK T01400080 IEM_DS3505
ZGSZ,2001-02-16 00:00,ZGSZ 160000Z AUTO 04006KT 9SM 14/05 A3027 RMK SLP253 T01430046 52018 IEM_DS3505
ZGSZ,2001-02-16 01:00,ZGSZ 160100Z AUTO 02006KT 16/07 A3027 RMK T01600070 IEM_DS3505
ZGSZ,2001-02-16 03:00,ZGSZ 160300Z AUTO 02006KT 6SM 18/07 A3027 RMK T01800070 IEM_DS3505
ZGSZ,2001-02-16 04:00,ZGSZ 160400Z AUTO 35006KT 6SM 19/08 A3027 RMK T01900080 IEM_DS3505
ZGSZ,2001-02-16 05:00,ZGSZ 160500Z AUTO 30008KT 6SM 20/08 A3024 RMK T02000080 IEM_DS3505
ZGSZ,2001-02-16 06:00,ZGSZ 160600Z AUTO 32002KT 7SM 21/07 A3021 RMK SLP235 T02080069 57021 IEM_DS3505
ZGSZ,2001-02-16 07:00,ZGSZ 160700Z AUTO 27008KT 6SM 22/10 A3018 RMK T02200100 IEM_DS3505
ZGSZ,2001-02-16 08:00,ZGSZ 160800Z AUTO 26006KT 6SM 21/09 A3015 RMK T02100090 IEM_DS3505
ZGSZ,2001-02-16 09:00,ZGSZ 160900Z AUTO 09006KT 9SM 20/10 A3018 RMK SLP224 T01960097 57011 IEM_DS3505
ZGSZ,2001-02-16 10:00,ZGSZ 161000Z AUTO 17008KT 5SM 18/11 A3018 RMK T01800110 IEM_DS3505
ZGSZ,2001-02-16 11:00,ZGSZ 161100Z AUTO 17006KT 3SM 17/13 A3021 RMK T01700130 IEM_DS3505
ZGSZ,2001-02-16 12:00,ZGSZ 161200Z AUTO 09006KT 10SM 16/12 A3021 RMK SLP239 T01650117 52015 IEM_DS3505
ZGSZ,2001-02-16 13:00,ZGSZ 161300Z AUTO 10010KT 4SM 17/13 A3021 RMK T01700130 IEM_DS3505
ZGSZ,2001-02-16 14:00,ZGSZ 161400Z AUTO 11010KT 4SM 16/13 A3021 RMK T01600130 IEM_DS3505
ZGSZ,2001-02-16 15:00,ZGSZ 161500Z AUTO 10010KT 4SM 16/13 A3021 RMK T01600130 IEM_DS3505
ZGSZ,2001-02-16 16:00,ZGSZ 161600Z AUTO 09008KT 3SM 16/12 A3021 RMK T01600120 IEM_DS3505
ZGSZ,2001-02-16 17:00,ZGSZ 161700Z AUTO 10006KT 3SM 15/12 A3021 RMK T01500120 IEM_DS3505
ZGSZ,2001-02-16 18:00,ZGSZ 161800Z AUTO 11008KT 6SM 15/10 A3021 RMK SLP232 T01470101 57010 IEM_DS3505
ZGSZ,2001-02-16 19:00,ZGSZ 161900Z AUTO 08004KT 3SM 14/12 A3018 RMK T01400120 IEM_DS3505
ZGSZ,2001-02-16 20:00,ZGSZ 162000Z AUTO 00000KT 3SM 14/12 A3015 RMK T01400120 IEM_DS3505
ZGSZ,2001-02-16 21:00,ZGSZ 162100Z AUTO 09008KT 6SM 14/10 A3015 RMK SLP218 T01430096 IEM_DS3505
ZGSZ,2001-02-16 22:00,ZGSZ 162200Z AUTO 00000KT 2 1/2SM 12/11 A3015 RMK T01200110 IEM_DS3505
ZGSZ,2001-02-16 23:00,ZGSZ 162300Z AUTO 36002KT 2 1/2SM 11/11 A3018 RMK T01100110 IEM_DS3505
ZGSZ,2001-02-17 00:00,ZGSZ 170000Z AUTO 07004KT 7SM 14/10 A3018 RMK SLP225 T01430096 52007 IEM_DS3505
ZGSZ,2001-02-17 01:00,ZGSZ 170100Z AUTO 04002KT 3SM 16/12 A3018 RMK T01600120 IEM_DS3505
ZGSZ,2001-02-17 02:00,ZGSZ 170200Z AUTO 32004KT 8SM 18/12 A3021 RMK T01800120 IEM_DS3505
ZGSZ,2001-02-17 03:00,ZGSZ 170300Z AUTO 14008KT 8SM 18/09 A3018 RMK SLP228 T01820092 52003 IEM_DS3505
ZGSZ,2001-02-17 04:00,ZGSZ 170400Z AUTO 27008KT 2 1/2SM 20/13 A3018 RMK T02000130 IEM_DS3505
ZGSZ,2001-02-17 05:00,ZGSZ 170500Z AUTO 27008KT 3SM 19/12 A3015 RMK T01900120 IEM_DS3505
ZGSZ,2001-02-17 06:00,ZGSZ 170600Z AUTO 11004KT 7SM 21/10 A3012 RMK SLP204 T02130101 57024 IEM_DS3505
ZGSZ,2001-02-17 07:00,ZGSZ 170700Z AUTO 17004KT 19/12 A3009 RMK T01900120 IEM_DS3505
ZGSZ,2001-02-17 08:00,ZGSZ 170800Z AUTO 19004KT 20/14 A3006 RMK T02000140 IEM_DS3505
ZGSZ,2001-02-17 09:00,ZGSZ 170900Z AUTO 09004KT 7SM 20/11 A3006 RMK SLP190 T02030110 57014 IEM_DS3505
ZGSZ,2001-02-17 10:00,ZGSZ 171000Z AUTO 27002KT 4SM 18/14 A3009 RMK T01800140 IEM_DS3505
ZGSZ,2001-02-17 11:00,ZGSZ 171100Z AUTO 15004KT 3SM 18/15 A3006 RMK T01800150 IEM_DS3505
ZGSZ,2001-02-17 12:00,ZGSZ 171200Z AUTO 09004KT 7SM 18/11 A3009 RMK SLP190 T01750108 54000 IEM_DS3505
ZGSZ,2001-02-17 13:00,ZGSZ 171300Z AUTO 17002KT 3SM 17/13 A3009 RMK T01700130 IEM_DS3505
ZGSZ,2001-02-17 14:00,ZGSZ 171400Z AUTO 07004KT 5SM 16/13 A3009 RMK T01600130 IEM_DS3505
ZGSZ,2001-02-17 15:00,ZGSZ 171500Z AUTO 15006KT 6SM 16/13 A3009 RMK T01600130 IEM_DS3505
ZGSZ,2001-02-17 16:00,ZGSZ 171600Z AUTO 13006KT 17/13 A3009 RMK T01700130 IEM_DS3505
ZGSZ,2001-02-17 17:00,ZGSZ 171700Z AUTO 07002KT 16/13 A3009 RMK T01600130 IEM_DS3505
ZGSZ,2001-02-17 18:00,ZGSZ 171800Z AUTO 04004KT 4SM 16/13 A3009 RMK SLP198 T01590126 57002 IEM_DS3505
ZGSZ,2001-02-17 19:00,ZGSZ 171900Z AUTO 02004KT 16/14 A3009 RMK T01600140 IEM_DS3505
ZGSZ,2001-02-17 20:00,ZGSZ 172000Z AUTO 03004KT 17/14 A3006 RMK T01700140 IEM_DS3505
ZGSZ,2001-02-17 21:00,ZGSZ 172100Z AUTO 04006KT 4SM 16/12 A3006 RMK SLP184 T01580123 57014 IEM_DS3505
ZGSZ,2001-02-17 22:00,ZGSZ 172200Z AUTO 02006KT 4SM 17/15 A3006 RMK T01700150 IEM_DS3505
ZGSZ,2001-02-17 23:00,ZGSZ 172300Z AUTO 02006KT 7SM 17/14 A3006 RMK T01700140 IEM_DS3505
ZGSZ,2001-02-18 00:00,ZGSZ 180000Z AUTO 04004KT 9SM 16/13 A3009 RMK SLP194 T01650127 52010 IEM_DS3505
ZGSZ,2001-02-18 01:00,ZGSZ 180100Z AUTO 03004KT 5SM 20/15 A3009 RMK T02000150 IEM_DS3505
ZGSZ,2001-02-18 02:00,ZGSZ 180200Z AUTO 25004KT 3SM 22/16 A3009 RMK T02200160 IEM_DS3505
ZGSZ,2001-02-18 03:00,ZGSZ 180300Z AUTO 02004KT 9SM 21/14 A3006 RMK SLP186 T02110141 57008 IEM_DS3505
ZGSZ,2001-02-18 04:00,ZGSZ 180400Z AUTO 28006KT 1 1/2SM 23/17 A3006 RMK T02300170 IEM_DS3505
ZGSZ,2001-02-18 05:00,ZGSZ 180500Z AUTO 25006KT 2SM 23/16 A3003 RMK T02300160 IEM_DS3505
ZGSZ,2001-02-18 06:00,ZGSZ 180600Z AUTO 29004KT 8SM 26/15 A2997 RMK SLP155 T02580149 57030 IEM_DS3505
ZGSZ,2001-02-18 07:00,ZGSZ 180700Z AUTO 22006KT 3SM 24/17 A2994 RMK T02400170 IEM_DS3505
ZGSZ,2001-02-18 08:00,ZGSZ 180800Z AUTO 20006KT 24/17 A2994 RMK T02400170 IEM_DS3505
ZGSZ,2001-02-18 09:00,ZGSZ 180900Z AUTO 22004KT 5SM 24/15 A2994 RMK SLP147 T02430148 57008 IEM_DS3505
ZGSZ,2001-02-18 10:00,ZGSZ 181000Z AUTO 15006KT 6SM 21/18 A2997 RMK T02100180 IEM_DS3505
ZGSZ,2001-02-18 11:00,ZGSZ 181100Z AUTO 15006KT 6SM 20/18 A2997 RMK T02000180 IEM_DS3505
ZGSZ,2001-02-18 12:00,ZGSZ 181200Z AUTO 14006KT 7SM 20/15 A2997 RMK SLP159 T02020146 52011 IEM_DS3505
ZGSZ,2001-02-18 13:00,ZGSZ 181300Z AUTO 18002KT 4SM 19/17 A3000 RMK T01900170 IEM_DS3505
ZGSZ,2001-02-18 14:00,ZGSZ 181400Z AUTO 15002KT 6SM 20/17 A3000 RMK T02000170 IEM_DS3505
ZGSZ,2001-02-18 15:00,ZGSZ 181500Z AUTO 20002KT 6SM 17/16 A3000 RMK T01700160 IEM_DS3505
ZGSZ,2001-02-18 16:00,ZGSZ 181600Z AUTO 00000KT 6SM 17/16 A3000 RMK T01700160 IEM_DS3505
ZGSZ,2001-02-18 17:00,ZGSZ 181700Z AUTO 00000KT 16/16 A3000 RMK T01600160 IEM_DS3505
ZGSZ,2001-02-18 18:00,ZGSZ 181800Z AUTO 07002KT 6SM 18/16 A3000 RMK SLP166 T01810156 57001 IEM_DS3505
ZGSZ,2001-02-18 19:00,ZGSZ 181900Z AUTO 01004KT 15/15 A3000 RMK T01500150 IEM_DS3505
ZGSZ,2001-02-18 20:00,ZGSZ 182000Z AUTO 13002KT 15/15 A3000 RMK T01500150 IEM_DS3505
ZGSZ,2001-02-18 21:00,ZGSZ 182100Z AUTO 07004KT 5SM 17/15 A3000 RMK SLP162 T01720150 57004 IEM_DS3505
ZGSZ,2001-02-18 22:00,ZGSZ 182200Z AUTO 35002KT 6SM 15/15 A3003 RMK T01500150 IEM_DS3505
ZGSZ,2001-02-18 23:00,ZGSZ 182300Z AUTO 00000KT 1 1/4SM 14/14 A3003 RMK T01400140 IEM_DS3505
ZGSZ,2001-02-19 00:00,ZGSZ 190000Z AUTO 04004KT 3SM 17/15 A3006 RMK SLP183 T01690148 52020 IEM_DS3505
ZGSZ,2001-02-19 01:00,ZGSZ 190100Z AUTO 29002KT 1 1/2SM 19/17 A3006 RMK T01900170 IEM_DS3505
ZGSZ,2001-02-19 02:00,ZGSZ 190200Z AUTO 26004KT 2SM 22/18 A3006 RMK T02200180 IEM_DS3505
ZGSZ,2001-02-19 03:00,ZGSZ 190300Z AUTO 34004KT 4SM 22/16 A3006 RMK SLP184 T02230162 52002 IEM_DS3505
ZGSZ,2001-02-19 04:00,ZGSZ 190400Z AUTO 31006KT 2SM 24/19 A3003 RMK T02400190 IEM_DS3505
ZGSZ,2001-02-19 05:00,ZGSZ 190500Z AUTO 22006KT 1 1/2SM 24/19 A3000 RMK T02400190 IEM_DS3505
ZGSZ,2001-02-19 06:00,ZGSZ 190600Z AUTO 00000KT 9SM 27/13 A2997 RMK SLP155 T02700129 57029 IEM_DS3505
ZGSZ,2001-02-19 07:00,ZGSZ 190700Z AUTO 23006KT 2SM 27/16 A2994 RMK T02700160 IEM_DS3505
ZGSZ,2001-02-19 08:00,ZGSZ 190800Z AUTO 23006KT 3SM 26/16 A2994 RMK T02600160 IEM_DS3505
ZGSZ,2001-02-19 09:00,ZGSZ 190900Z AUTO 14006KT 5SM 26/15 A2994 RMK SLP145 T02580149 57010 IEM_DS3505
ZGSZ,2001-02-19 10:00,ZGSZ 191000Z AUTO 17008KT 3SM 22/19 A2994 RMK T02200190 IEM_DS3505
ZGSZ,2001-02-19 11:00,ZGSZ 191100Z AUTO 15006KT 5SM 22/18 A2994 RMK T02200180 IEM_DS3505
ZGSZ,2001-02-19 12:00,ZGSZ 191200Z AUTO 09008KT 4SM 20/16 A2997 RMK SLP155 T02050155 52010 IEM_DS3505
ZGSZ,2001-02-19 13:00,ZGSZ 191300Z AUTO 12010KT 6SM 21/16 A2997 RMK T02100160 IEM_DS3505
ZGSZ,2001-02-19 14:00,ZGSZ 191400Z AUTO 12008KT 6SM 20/16 A3000 RMK T02000160 IEM_DS3505
ZGSZ,2001-02-19 15:00,ZGSZ 191500Z AUTO 13006KT 6SM 20/17 A3000 RMK T02000170 IEM_DS3505
ZGSZ,2001-02-19 16:00,ZGSZ 191600Z AUTO 12006KT 20/16 A3000 RMK T02000160 IEM_DS3505
ZGSZ,2001-02-19 17:00,ZGSZ 191700Z AUTO 13004KT 19/16 A3000 RMK T01900160 IEM_DS3505
ZGSZ,2001-02-19 18:00,ZGSZ 191800Z AUTO 11008KT 11SM 19/14 A2997 RMK SLP161 T01870136 57006 IEM_DS3505
ZGSZ,2001-02-19 19:00,ZGSZ 191900Z AUTO 11002KT 6SM 18/15 A2997 RMK T01800150 IEM_DS3505
ZGSZ,2001-02-19 20:00,ZGSZ 192000Z AUTO 31002KT 6SM 16/15 A2997 RMK T01600150 IEM_DS3505
ZGSZ,2001-02-19 21:00,ZGSZ 192100Z AUTO 14004KT 12SM 18/14 A2997 RMK SLP156 T01800140 57005 IEM_DS3505
ZGSZ,2001-02-19 22:00,ZGSZ 192200Z AUTO 18002KT 4SM 15/15 A3000 RMK T01500150 IEM_DS3505
ZGSZ,2001-02-19 23:00,ZGSZ 192300Z AUTO 10002KT 5SM 15/14 A3003 RMK T01500140 IEM_DS3505
ZGSZ,2001-02-20 00:00,ZGSZ 200000Z AUTO 00000KT 7SM 18/14 A3003 RMK SLP173 T01770142 52017 IEM_DS3505
ZGSZ,2001-02-20 01:00,ZGSZ 200100Z AUTO 35002KT 2 1/2SM 21/17 A3006 RMK T02100170 IEM_DS3505
ZGSZ,2001-02-20 02:00,ZGSZ 200200Z AUTO 25004KT 3SM 23/16 A3006 RMK T02300160 IEM_DS3505
ZGSZ,2001-02-20 03:00,ZGSZ 200300Z AUTO 14006KT 9SM 23/13 A3006 RMK SLP179 T02290133 52006 IEM_DS3505
ZGSZ,2001-02-20 04:00,ZGSZ 200400Z AUTO 27006KT 2 1/2SM 23/17 A3003 RMK T02300170 IEM_DS3505
ZGSZ,2001-02-20 05:00,ZGSZ 200500Z AUTO 25006KT 2 1/2SM 24/17 A2997 RMK T02400170 IEM_DS3505
ZGSZ,2001-02-20 06:00,ZGSZ 200600Z AUTO 14006KT 9SM 26/12 A2994 RMK SLP147 T02570120 57032 IEM_DS3505
ZGSZ,2001-02-20 07:00,ZGSZ 200700Z AUTO 20004KT 6SM 23/18 A2991 RMK T02300180 IEM_DS3505
ZGSZ,2001-02-20 08:00,ZGSZ 200800Z AUTO 19006KT 6SM 23/18 A2988 RMK T02300180 IEM_DS3505
ZGSZ,2001-02-20 09:00,ZGSZ 200900Z AUTO 07008KT 11SM 24/15 A2988 RMK SLP131 T02450151 57016 IEM_DS3505
ZGSZ,2001-02-20 10:00,ZGSZ 201000Z AUTO 17004KT 6SM 22/18 A2988 RMK T02200180 IEM_DS3505
ZGSZ,2001-02-20 11:00,ZGSZ 201100Z AUTO 13006KT 5SM 20/19 A2988 RMK T02000190 IEM_DS3505
ZGSZ,2001-02-20 12:00,ZGSZ 201200Z AUTO 09006KT 7SM 20/15 A2991 RMK SLP142 T01960152 52011 IEM_DS3505
ZGSZ,2001-02-20 13:00,ZGSZ 201300Z AUTO 10010KT 6SM 20/17 A2994 RMK T02000170 IEM_DS3505
ZGSZ,2001-02-20 14:00,ZGSZ 201400Z AUTO 11006KT 6SM 20/17 A2994 RMK T02000170 IEM_DS3505
ZGSZ,2001-02-20 15:00,ZGSZ 201500Z AUTO 14008KT 6SM 20/17 A2994 RMK T02000170 IEM_DS3505
ZGSZ,2001-02-20 16:00,ZGSZ 201600Z AUTO 00000KT 19/16 A2994 RMK T01900160 IEM_DS3505
ZGSZ,2001-02-20 17:00,ZGSZ 201700Z AUTO 36004KT 18/17 A2994 RMK T01800170 IEM_DS3505
ZGSZ,2001-02-20 18:00,ZGSZ 201800Z AUTO 09002KT 5SM 19/15 A2994 RMK SLP138 T01880151 57005 IEM_DS3505
ZGSZ,2001-02-20 19:00,ZGSZ 201900Z AUTO 04002KT 6SM 17/16 A2991 RMK T01700160 IEM_DS3505
ZGSZ,2001-02-20 20:00,ZGSZ 202000Z AUTO 04002KT 6SM 17/16 A2991 RMK T01700160 IEM_DS3505
ZGSZ,2001-02-20 21:00,ZGSZ 202100Z AUTO 04004KT 5SM 18/15 A2991 RMK SLP129 T01820148 57009 IEM_DS3505
ZGSZ,2001-02-20 22:00,ZGSZ 202200Z AUTO 00000KT 4SM 18/17 A2991 RMK T01800170 IEM_DS3505
ZGSZ,2001-02-20 23:00,ZGSZ 202300Z AUTO 00000KT 4SM 18/17 A2994 RMK T01800170 IEM_DS3505
ZGSZ,2001-02-21 00:00,ZGSZ 210000Z AUTO 04004KT 4SM 19/15 A2997 RMK SLP153 T01860152 52024 IEM_DS3505
ZGSZ,2001-02-21 01:00,ZGSZ 210100Z AUTO 00000KT 2 1/2SM 20/17 A2997 RMK T02000170 IEM_DS3505
ZGSZ,2001-02-21 02:00,ZGSZ 210200Z AUTO 27004KT 3SM 22/17 A2997 RMK T02200170 IEM_DS3505
ZGSZ,2001-02-21 03:00,ZGSZ 210300Z AUTO 04006KT 6SM 23/16 A2997 RMK SLP155 T02270158 52002 IEM_DS3505
ZGSZ,2001-02-21 04:00,ZGSZ 210400Z AUTO 35004KT 2 1/2SM 24/18 A2994 RMK T02400180 IEM_DS3505
ZGSZ,2001-02-21 05:00,ZGSZ 210500Z AUTO 25004KT 1 1/4SM 25/20 A2991 RMK T02500200 IEM_DS3505
ZGSZ,2001-02-21 06:00,ZGSZ 210600Z AUTO 18002KT 7SM 26/17 A2988 RMK SLP124 T02600173 57031 IEM_DS3505
ZGSZ,2001-02-21 07:00,ZGSZ 210700Z AUTO 26006KT 25/19 A2988 RMK T02500190 IEM_DS3505
ZGSZ,2001-02-21 08:00,ZGSZ 210800Z AUTO 20006KT 6SM 25/20 A2985 RMK T02500200 IEM_DS3505
ZGSZ,2001-02-21 09:00,ZGSZ 210900Z AUTO 22004KT 4SM 25/18 A2985 RMK SLP119 T02470181 57005 IEM_DS3505
ZGSZ,2001-02-21 10:00,ZGSZ 211000Z AUTO 18006KT 4SM 22/20 A2988 RMK T02200200 IEM_DS3505
ZGSZ,2001-02-21 11:00,ZGSZ 211100Z AUTO 15004KT 3SM 21/20 A2988 RMK T02100200 IEM_DS3505
ZGSZ,2001-02-21 12:00,ZGSZ 211200Z AUTO 11008KT 5SM 22/16 A2988 RMK SLP129 T02220159 52010 IEM_DS3505
ZGSZ,2001-02-21 13:00,ZGSZ 211300Z AUTO 16004KT 2SM 20/19 A2991 RMK T02000190 IEM_DS3505
ZGSZ,2001-02-21 14:00,ZGSZ 211400Z AUTO 19004KT 2 1/2SM 20/20 A2991 RMK T02000200 IEM_DS3505
ZGSZ,2001-02-21 15:00,ZGSZ 211500Z AUTO 17004KT 2SM 20/20 A2991 RMK T02000200 IEM_DS3505
ZGSZ,2001-02-21 16:00,ZGSZ 211600Z AUTO 21002KT 19/19 A2991 RMK T01900190 IEM_DS3505
ZGSZ,2001-02-21 17:00,ZGSZ 211700Z AUTO 00000KT 18/18 A2991 RMK T01800180 IEM_DS3505
ZGSZ,2001-02-21 18:00,ZGSZ 211800Z AUTO 07002KT 4SM 20/16 A2991 RMK SLP126 T01980165 57008 IEM_DS3505
ZGSZ,2001-02-21 19:00,ZGSZ 211900Z AUTO 06002KT 2SM 18/18 A2988 RMK T01800180 IEM_DS3505
ZGSZ,2001-02-21 20:00,ZGSZ 212000Z AUTO 02002KT 2SM 18/18 A2988 RMK T01800180 IEM_DS3505
ZGSZ,2001-02-21 21:00,ZGSZ 212100Z AUTO 04004KT 4SM 19/16 A2988 RMK SLP121 T01910165 57005 IEM_DS3505
ZGSZ,2001-02-21 22:00,ZGSZ 212200Z AUTO 10002KT 1 1/2SM 17/17 A2988 RMK T01700170 IEM_DS3505
ZGSZ,2001-02-21 23:00,ZGSZ 212300Z AUTO 13002KT 1SM 17/17 A2991 RMK T01700170 IEM_DS3505
ZGSZ,2001-02-22 00:00,ZGSZ 220000Z AUTO 07002KT 5SM 19/16 A2994 RMK SLP138 T01910165 52017 IEM_DS3505
ZGSZ,2001-02-22 01:00,ZGSZ 220100Z AUTO 00000KT 1 1/4SM 20/20 A2994 RMK T02000200 IEM_DS3505
ZGSZ,2001-02-22 02:00,ZGSZ 220200Z AUTO 27004KT 1SM 23/21 A2994 RMK T02300210 IEM_DS3505
ZGSZ,2001-02-22 03:00,ZGSZ 220300Z AUTO 09004KT 7SM 24/18 A2994 RMK SLP136 T02450175 57002 IEM_DS3505
ZGSZ,2001-02-22 04:00,ZGSZ 220400Z AUTO 28006KT 1 1/4SM 25/21 A2991 RMK T02500210 IEM_DS3505
ZGSZ,2001-02-22 05:00,ZGSZ 220500Z AUTO 28006KT 3SM 26/20 A2988 RMK T02600200 IEM_DS3505
ZGSZ,2001-02-22 06:00,ZGSZ 220600Z AUTO 14006KT 9SM 28/17 A2985 RMK SLP117 T02750174 57018 IEM_DS3505
ZGSZ,2001-02-22 07:00,ZGSZ 220700Z AUTO 18006KT 27/20 A2985 RMK T02700200 IEM_DS3505
ZGSZ,2001-02-22 08:00,ZGSZ 220800Z AUTO 17008KT 4SM 25/21 A2985 RMK T02500210 IEM_DS3505
ZGSZ,2001-02-22 09:00,ZGSZ 220900Z AUTO 14006KT 8SM 25/17 A2985 RMK SLP109 T02480168 57009 IEM_DS3505
ZGSZ,2001-02-22 10:00,ZGSZ 221000Z AUTO 17004KT 6SM 23/19 A2983 RMK T02300190 IEM_DS3505
ZGSZ,2001-02-22 11:00,ZGSZ 221100Z AUTO 17008KT 6SM 22/20 A2983 RMK T02200200 IEM_DS3505
ZGSZ,2001-02-22 12:00,ZGSZ 221200Z AUTO 14006KT 5SM 22/17 A2985 RMK SLP113 T02150170 52004 IEM_DS3505
ZGSZ,2001-02-22 13:00,ZGSZ 221300Z AUTO 12002KT 2 1/2SM 21/20 A2985 RMK T02100200 IEM_DS3505
ZGSZ,2001-02-22 14:00,ZGSZ 221400Z AUTO 12006KT 3SM 22/19 A2985 RMK T02200190 IEM_DS3505
ZGSZ,2001-02-22 15:00,ZGSZ 221500Z AUTO 10006KT 4SM 20/18 A2985 RMK T02000180 IEM_DS3505
ZGSZ,2001-02-22 16:00,ZGSZ 221600Z AUTO 18002KT 4SM 19/18 A2988 RMK T01900180 IEM_DS3505
ZGSZ,2001-02-22 17:00,ZGSZ 221700Z AUTO 14002KT 4SM 19/18 A2988 RMK T01900180 IEM_DS3505
ZGSZ,2001-02-22 18:00,ZGSZ 221800Z AUTO 11006KT 5SM 20/17 A2988 RMK SLP115 T01950171 57006 IEM_DS3505
ZGSZ,2001-02-22 19:00,ZGSZ 221900Z AUTO 11004KT 4SM 18/18 A2985 RMK T01800180 IEM_DS3505
ZGSZ,2001-02-22 20:00,ZGSZ 222000Z AUTO 09004KT 4SM 19/18 A2985 RMK T01900180 IEM_DS3505
ZGSZ,2001-02-22 21:00,ZGSZ 222100Z AUTO 14006KT 5SM 19/16 A2985 RMK SLP112 T01900156 57004 IEM_DS3505
ZGSZ,2001-02-22 22:00,ZGSZ 222200Z AUTO 00000KT 2 1/2SM 17/17 A2985 RMK T01700170 IEM_DS3505
ZGSZ,2001-02-22 23:00,ZGSZ 222300Z AUTO 08002KT 2SM 17/17 A2988 RMK T01700170 IEM_DS3505
ZGSZ,2001-02-23 00:00,ZGSZ 230000Z AUTO 09006KT 3SM 18/16 A2988 RMK SLP131 T01760159 52019 IEM_DS3505
ZGSZ,2001-02-23 01:00,ZGSZ 230100Z AUTO 11004KT 2SM 21/18 A2991 RMK T02100180 IEM_DS3505
ZGSZ,2001-02-23 02:00,ZGSZ 230200Z AUTO 26004KT 2 1/2SM 22/20 A2991 RMK T02200200 IEM_DS3505
ZGSZ,2001-02-23 03:00,ZGSZ 230300Z AUTO 36002KT 5SM 23/16 A2991 RMK SLP125 T02330159 57006 IEM_DS3505
ZGSZ,2001-02-23 04:00,ZGSZ 230400Z AUTO 28006KT 3SM 24/21 A2988 RMK T02400210 IEM_DS3505
ZGSZ,2001-02-23 05:00,ZGSZ 230500Z AUTO 26004KT 25/18 A2983 RMK T02500180 IEM_DS3505
ZGSZ,2001-02-23 06:00,ZGSZ 230600Z AUTO 29004KT 6SM 28/16 A2980 RMK SLP094 T02790162 57030 IEM_DS3505
ZGSZ,2001-02-23 07:00,ZGSZ 230700Z AUTO 20004KT 5SM 26/18 A2977 RMK T02600180 IEM_DS3505
ZGSZ,2001-02-23 08:00,ZGSZ 230800Z AUTO 18006KT 5SM 26/19 A2977 RMK T02600190 IEM_DS3505
ZGSZ,2001-02-23 09:00,ZGSZ 230900Z AUTO 22004KT 7SM 28/17 A2977 RMK SLP083 T02760172 57011 IEM_DS3505
ZGSZ,2001-02-23 10:00,ZGSZ 231000Z AUTO 22002KT 4SM 23/20 A2977 RMK T02300200 IEM_DS3505
ZGSZ,2001-02-23 11:00,ZGSZ 231100Z AUTO 18002KT 3SM 21/20 A2980 RMK T02100200 IEM_DS3505
ZGSZ,2001-02-23 12:00,ZGSZ 231200Z AUTO 18004KT 7SM 24/18 A2980 RMK SLP094 T02410178 52010 IEM_DS3505
ZGSZ,2001-02-23 13:00,ZGSZ 231300Z AUTO 17008KT 4SM 21/19 A2983 RMK T02100190 IEM_DS3505
ZGSZ,2001-02-23 14:00,ZGSZ 231400Z AUTO 15008KT 5SM 21/19 A2983 RMK T02100190 IEM_DS3505
ZGSZ,2001-02-23 15:00,ZGSZ 231500Z AUTO 16010KT 4SM 21/19 A2983 RMK T02100190 IEM_DS3505
ZGSZ,2001-02-23 16:00,ZGSZ 231600Z AUTO 16008KT 4SM 21/20 A2983 RMK T02100200 IEM_DS3505
ZGSZ,2001-02-23 17:00,ZGSZ 231700Z AUTO 16008KT 4SM 20/20 A2983 RMK T02000200 IEM_DS3505
ZGSZ,2001-02-23 18:00,ZGSZ 231800Z AUTO 27004KT 5SM 21/18 A2983 RMK SLP099 T02130179 57004 IEM_DS3505
ZGSZ,2001-02-23 19:00,ZGSZ 231900Z AUTO 14006KT 1 1/2SM 20/20 A2983 RMK T02000200 IEM_DS3505
ZGSZ,2001-02-23 20:00,ZGSZ 232000Z AUTO 15004KT 1 1/2SM 20/20 A2983 RMK T02000200 IEM_DS3505
ZGSZ,2001-02-23 21:00,ZGSZ 232100Z AUTO 27006KT 2 1/2SM 20/19 A2985 RMK SLP110 T02030189 52011 IEM_DS3505
ZGSZ,2001-02-23 23:00,ZGSZ 232300Z AUTO 14004KT 1 1/2SM 20/20 A2988 RMK T02000200 IEM_DS3505
ZGSZ,2001-02-24 00:00,ZGSZ 240000Z AUTO 27002KT 4SM 21/19 RMK SLP130 T02070190 52019 IEM_DS3505
ZGSZ,2001-02-24 01:00,ZGSZ 240100Z AUTO 00000KT 1 1/2SM 20/20 A2991 RMK T02000200 IEM_DS3505
ZGSZ,2001-02-24 02:00,ZGSZ 240200Z AUTO 27006KT 1 1/2SM 22/21 A2991 RMK T02200210 IEM_DS3505
ZGSZ,2001-02-24 03:00,ZGSZ 240300Z AUTO 34004KT 4SM 24/20 A2991 RMK SLP133 T02450197 52003 IEM_DS3505
ZGSZ,2001-02-24 04:00,ZGSZ 240400Z AUTO 29006KT 1 1/4SM 24/22 A2988 RMK T02400220 IEM_DS3505
ZGSZ,2001-02-24 05:00,ZGSZ 240500Z AUTO 29006KT 1SM 24/22 A2988 RMK T02400220 IEM_DS3505
ZGSZ,2001-02-24 06:00,ZGSZ 240600Z AUTO 04006KT 3SM 26/18 A2985 RMK SLP105 T02640185 57027 IEM_DS3505
ZGSZ,2001-02-24 07:00,ZGSZ 240700Z AUTO 01012KT 2 1/2SM 26/19 A2983 RMK T02600190 IEM_DS3505
ZGSZ,2001-02-24 08:00,ZGSZ 240800Z AUTO 03014KT 26/18 A2985 RMK T02600180 IEM_DS3505
ZGSZ,2001-02-24 09:00,ZGSZ 240900Z AUTO 04010KT 7SM 24/14 A2988 RMK SLP121 T02450139 52015 IEM_DS3505
ZGSZ,2001-02-24 10:00,ZGSZ 241000Z AUTO 03012KT 6SM 23/16 A2991 RMK T02300160 IEM_DS3505
ZGSZ,2001-02-24 11:00,ZGSZ 241100Z AUTO 02016KT 6SM 22/15 A2991 RMK T02200150 IEM_DS3505
ZGSZ,2001-02-24 12:00,ZGSZ 241200Z AUTO 04012KT 8SM 22/11 A2994 RMK 60003 SLP146 T02150108 52025 IEM_DS3505
ZGSZ,2001-02-24 13:00,ZGSZ 241300Z AUTO 03014KT 6SM 20/13 A2997 RMK T02000130 IEM_DS3505
ZGSZ,2001-02-24 14:00,ZGSZ 241400Z AUTO 04012KT 6SM 19/12 A3000 RMK T01900120 IEM_DS3505
ZGSZ,2001-02-24 15:00,ZGSZ 241500Z AUTO 01014KT 6SM 19/11 A3000 RMK T01900110 IEM_DS3505
ZGSZ,2001-02-24 16:00,ZGSZ 241600Z AUTO 03012KT 18/10 A3003 RMK T01800100 IEM_DS3505
ZGSZ,2001-02-24 17:00,ZGSZ 241700Z AUTO 36014KT 17/10 A3006 RMK T01700100 IEM_DS3505
ZGSZ,2001-02-24 18:00,ZGSZ 241800Z AUTO 04010KT 12SM 17/08 A3006 RMK 60003 SLP180 T01690078 52013 IEM_DS3505
ZGSZ,2001-02-24 19:00,ZGSZ 241900Z AUTO 36016KT 15/11 A3006 RMK T01500110 IEM_DS3505
ZGSZ,2001-02-24 20:00,ZGSZ 242000Z AUTO 04014KT 15/10 A3006 RMK T01500100 IEM_DS3505
ZGSZ,2001-02-24 21:00,ZGSZ 242100Z AUTO 04014KT 13SM 15/08 A3003 RMK 70003 SLP176 T01470079 57004 IEM_DS3505
ZGSZ,2001-02-24 22:00,ZGSZ 242200Z AUTO 02010KT 6SM 15/11 A3000 RMK T01500110 IEM_DS3505
ZGSZ,2001-02-24 23:00,ZGSZ 242300Z AUTO 02012KT 6SM 14/10 A3003 RMK T01400100 IEM_DS3505
ZGSZ,2001-02-25 00:00,ZGSZ 250000Z AUTO 04010KT 12SM 14/09 A3006 RMK 70003 SLP181 T01410090 52004 IEM_DS3505
ZGSZ,2001-02-25 01:00,ZGSZ 250100Z AUTO 05008KT 7SM 14/11 A3012 RMK T01400110 IEM_DS3505
ZGSZ,2001-02-25 02:00,ZGSZ 250200Z AUTO 35012KT 7SM 13/11 A3015 RMK T01300110 IEM_DS3505
ZGSZ,2001-02-25 03:00,ZGSZ 250300Z AUTO 36006KT 6SM 14/10 A3012 RMK SLP212 T01380101 52031 IEM_DS3505
ZGSZ,2001-02-25 04:00,ZGSZ 250400Z AUTO 02016KT 7SM 12/11 A3012 RMK T01200110 IEM_DS3505
ZGSZ,2001-02-25 05:00,ZGSZ 250500Z AUTO 02010KT 5SM 12/11 A3012 RMK T01200110 IEM_DS3505
ZGSZ,2001-02-25 06:00,ZGSZ 250600Z AUTO 04010KT 6SM 13/10 A3009 RMK 60001 SLP189 T01310100 57023 IEM_DS3505
ZGSZ,2001-02-25 07:00,ZGSZ 250700Z AUTO 04012KT 7SM 12/11 A3006 RMK T01200110 IEM_DS3505
ZGSZ,2001-02-25 08:00,ZGSZ 250800Z AUTO 03006KT 7SM 12/11 A3006 RMK T01200110 IEM_DS3505
ZGSZ,2001-02-25 09:00,ZGSZ 250900Z AUTO 04008KT 7SM 12/09 A3006 RMK SLP187 T01250093 57002 IEM_DS3505
ZGSZ,2001-02-25 10:00,ZGSZ 251000Z AUTO 01008KT 4SM 12/11 A3009 RMK T01200110 IEM_DS3505
ZGSZ,2001-02-25 11:00,ZGSZ 251100Z AUTO 02014KT 5SM 11/11 A3012 RMK T01100110 IEM_DS3505
ZGSZ,2001-02-25 12:00,ZGSZ 251200Z AUTO 04008KT 5SM 12/10 A3012 RMK 60004 SLP208 T01210097 52020 IEM_DS3505
ZGSZ,2001-02-25 13:00,ZGSZ 251300Z AUTO 03010KT 4SM 11/11 A3015 RMK T01100110 IEM_DS3505
ZGSZ,2001-02-25 14:00,ZGSZ 251400Z AUTO 01010KT 3SM 11/11 A3015 RMK T01100110 IEM_DS3505
ZGSZ,2001-02-25 15:00,ZGSZ 251500Z AUTO 01008KT 2SM 11/11 A3015 RMK T01100110 IEM_DS3505
ZGSZ,2001-02-25 16:00,ZGSZ 251600Z AUTO 36006KT 1 1/2SM 11/11 A3018 RMK T01100110 IEM_DS3505
ZGSZ,2001-02-25 17:00,ZGSZ 251700Z AUTO 01010KT 1 1/2SM 11/11 A3012 RMK T01100110 IEM_DS3505
ZGSZ,2001-02-25 18:00,ZGSZ 251800Z AUTO 04006KT 9SM 11/09 A3012 RMK 60067 SLP206 T01080094 57012 IEM_DS3505
ZGSZ,2001-02-25 19:00,ZGSZ 251900Z AUTO 02010KT 11/11 A3012 RMK T01100110 IEM_DS3505
ZGSZ,2001-02-25 21:00,ZGSZ 252100Z AUTO 07006KT 9SM 11/09 A3012 RMK 70072 SLP203 T01080088 57003 IEM_DS3505
ZGSZ,2001-02-25 22:00,ZGSZ 252200Z AUTO 02012KT 7SM 10/10 A3012 RMK T01000100 IEM_DS3505
ZGSZ,2001-02-25 23:00,ZGSZ 252300Z AUTO 03008KT 7SM 10/10 A3015 RMK T01000100 IEM_DS3505
ZGSZ,2001-02-26 00:00,ZGSZ 260000Z AUTO 02006KT 5SM 11/09 A3015 RMK 60000 SLP211 T01080086 52008 IEM_DS3505
ZGSZ,2001-02-26 01:00,ZGSZ 260100Z AUTO 05008KT 7SM 11/11 A3015 RMK T01100110 IEM_DS3505
ZGSZ,2001-02-26 02:00,ZGSZ 260200Z AUTO 03006KT 7SM 12/11 A3015 RMK T01200110 IEM_DS3505
ZGSZ,2001-02-26 03:00,ZGSZ 260300Z AUTO 32004KT 9SM 14/10 A3015 RMK SLP206 T01390103 57005 IEM_DS3505
ZGSZ,2001-02-26 04:00,ZGSZ 260400Z AUTO 01006KT 7SM 14/13 A3012 RMK T01400130 IEM_DS3505
ZGSZ,2001-02-26 05:00,ZGSZ 260500Z AUTO 35006KT 7SM 15/13 A3009 RMK T01500130 IEM_DS3505
ZGSZ,2001-02-26 06:00,ZGSZ 260600Z AUTO 04006KT 9SM 17/11 A3006 RMK SLP185 T01680111 57020 IEM_DS3505
ZGSZ,2001-02-26 07:00,ZGSZ 260700Z AUTO 36008KT 7SM 16/14 A3003 RMK T01600140 IEM_DS3505
ZGSZ,2001-02-26 08:00,ZGSZ 260800Z AUTO 35008KT 5SM 15/13 A3003 RMK T01500130 IEM_DS3505
ZGSZ,2001-02-26 09:00,ZGSZ 260900Z AUTO 11002KT 9SM 16/12 A3003 RMK SLP183 T01650125 57002 IEM_DS3505
ZGSZ,2001-02-26 10:00,ZGSZ 261000Z AUTO 02008KT 4SM 15/13 A3006 RMK T01500130 IEM_DS3505
ZGSZ,2001-02-26 11:00,ZGSZ 261100Z AUTO 36008KT 4SM 15/14 A3006 RMK T01500140 IEM_DS3505
ZGSZ,2001-02-26 12:00,ZGSZ 261200Z AUTO 02004KT 5SM 16/13 A3009 RMK SLP190 T01610129 52007 IEM_DS3505
ZGSZ,2001-02-26 13:00,ZGSZ 261300Z AUTO 03006KT 4SM 15/14 A3009 RMK T01500140 IEM_DS3505
ZGSZ,2001-02-26 14:00,ZGSZ 261400Z AUTO 02006KT 5SM 15/14 A3009 RMK T01500140 IEM_DS3505
ZGSZ,2001-02-26 15:00,ZGSZ 261500Z AUTO 03006KT 7SM 15/14 A3009 RMK T01500140 IEM_DS3505
ZGSZ,2001-02-26 16:00,ZGSZ 261600Z AUTO 02006KT 7SM 15/14 A3009 RMK T01500140 IEM_DS3505
ZGSZ,2001-02-26 17:00,ZGSZ 261700Z AUTO 01004KT 7SM 15/14 A3009 RMK T01500140 IEM_DS3505
ZGSZ,2001-02-26 18:00,ZGSZ 261800Z AUTO 04004KT 4SM 15/13 A3009 RMK SLP189 T01530131 57010 IEM_DS3505
ZGSZ,2001-02-26 19:00,ZGSZ 261900Z AUTO 01006KT 7SM 15/14 A3009 RMK T01500140 IEM_DS3505
ZGSZ,2001-02-26 20:00,ZGSZ 262000Z AUTO 01006KT 7SM 15/14 A3006 RMK T01500140 IEM_DS3505
ZGSZ,2001-02-26 21:00,ZGSZ 262100Z AUTO 04004KT 4SM 15/13 A3009 RMK 70000 SLP191 T01540133 52002 IEM_DS3505
ZGSZ,2001-02-26 22:00,ZGSZ 262200Z AUTO 02004KT 7SM 15/15 A3006 RMK T01500150 IEM_DS3505
ZGSZ,2001-02-26 23:00,ZGSZ 262300Z AUTO 03002KT 4SM 15/15 A3009 RMK T01500150 IEM_DS3505
ZGSZ,2001-02-27 00:00,ZGSZ 270000Z AUTO 36006KT 4SM 16/15 A3009 RMK T01600150 IEM_DS3505
ZGSZ,2001-02-27 01:00,ZGSZ 270100Z AUTO 02008KT 4SM 17/16 A3009 RMK T01700160 IEM_DS3505
ZGSZ,2001-02-27 02:00,ZGSZ 270200Z AUTO 33004KT 4SM 18/16 A3012 RMK T01800160 IEM_DS3505
ZGSZ,2001-02-27 03:00,ZGSZ 270300Z AUTO 14006KT 7SM 20/16 A3012 RMK SLP201 T01960159 52007 IEM_DS3505
ZGSZ,2001-02-27 04:00,ZGSZ 270400Z AUTO 29008KT 2SM 19/16 A3009 RMK T01900160 IEM_DS3505
ZGSZ,2001-02-27 05:00,ZGSZ 270500Z AUTO 29008KT 1 1/2SM 19/17 A3009 RMK T01900170 IEM_DS3505
ZGSZ,2001-02-27 06:00,ZGSZ 270600Z AUTO 18004KT 4SM 20/16 A3006 RMK SLP184 T02040164 57017 IEM_DS3505
ZGSZ,2001-02-27 07:00,ZGSZ 270700Z AUTO 28008KT 2SM 20/17 A3003 RMK T02000170 IEM_DS3505
ZGSZ,2001-02-27 08:00,ZGSZ 270800Z AUTO 30004KT 2SM 20/17 A3003 RMK T02000170 IEM_DS3505
ZGSZ,2001-02-27 09:00,ZGSZ 270900Z AUTO 07004KT 8SM 21/17 A3003 RMK SLP170 T02130167 57014 IEM_DS3505
ZGSZ,2001-02-27 10:00,ZGSZ 271000Z AUTO 32002KT 2SM 19/17 A3003 RMK T01900170 IEM_DS3505
ZGSZ,2001-02-27 11:00,ZGSZ 271100Z AUTO 33004KT 1 1/2SM 19/18 A3003 RMK T01900180 IEM_DS3505
ZGSZ,2001-02-27 12:00,ZGSZ 271200Z AUTO 00000KT 8SM 21/17 A3006 RMK SLP180 T02060170 52010 IEM_DS3505
ZGSZ,2001-02-27 13:00,ZGSZ 271300Z AUTO 30004KT 1 1/4SM 19/17 A3006 RMK T01900170 IEM_DS3505
ZGSZ,2001-02-27 14:00,ZGSZ 271400Z AUTO 32006KT 1 1/4SM 18/17 A3006 RMK T01800170 IEM_DS3505
ZGSZ,2001-02-27 15:00,ZGSZ 271500Z AUTO 32006KT 1 1/4SM 18/18 A3006 RMK T01800180 IEM_DS3505
ZGSZ,2001-02-27 16:00,ZGSZ 271600Z AUTO 32006KT 1 1/4SM 18/17 A3009 RMK T01800170 IEM_DS3505
ZGSZ,2001-02-27 17:00,ZGSZ 271700Z AUTO 31008KT 18/17 A3006 RMK T01800170 IEM_DS3505
ZGSZ,2001-02-27 18:00,ZGSZ 271800Z AUTO 22004KT 2SM 18/17 A3006 RMK 60003 SLP183 T01830168 52001 IEM_DS3505
ZGSZ,2001-02-27 19:00,ZGSZ 271900Z AUTO 32006KT 1 1/4SM 17/17 A3006 RMK T01700170 IEM_DS3505
ZGSZ,2001-02-27 20:00,ZGSZ 272000Z AUTO 33004KT 1 1/4SM 17/17 A3003 RMK T01700170 IEM_DS3505
ZGSZ,2001-02-27 21:00,ZGSZ 272100Z AUTO 00000KT 2SM 18/17 A3003 RMK 70000 SLP176 T01770169 57007 IEM_DS3505
ZGSZ,2001-02-27 22:00,ZGSZ 272200Z AUTO 30004KT 1 1/2SM 17/17 A3006 RMK T01700170 IEM_DS3505
ZGSZ,2001-02-27 23:00,ZGSZ 272300Z AUTO 31008KT 1 1/4SM 17/17 A3006 RMK T01700170 IEM_DS3505
ZGSZ,2001-02-28 00:00,ZGSZ 280000Z AUTO 20002KT 1SM 18/17 A3009 RMK 60000 SLP188 T01790171 52011 IEM_DS3505
ZGSZ,2001-02-28 01:00,ZGSZ 280100Z AUTO 32006KT 1 1/4SM 17/17 A3009 RMK T01700170 IEM_DS3505
ZGSZ,2001-02-28 02:00,ZGSZ 280200Z AUTO 31010KT 1SM 17/17 A3012 RMK T01700170 IEM_DS3505
ZGSZ,2001-02-28 03:00,ZGSZ 280300Z AUTO 32004KT 2 1/2SM 19/16 A3009 RMK SLP189 T01870165 52001 IEM_DS3505
ZGSZ,2001-02-28 04:00,ZGSZ 280400Z AUTO 33008KT 2SM 17/16 A3009 RMK T01700160 IEM_DS3505
ZGSZ,2001-02-28 05:00,ZGSZ 280500Z AUTO 31012KT 2SM 17/16 A3006 RMK T01700160 IEM_DS3505
ZGSZ,2001-02-28 06:00,ZGSZ 280600Z AUTO 29006KT 2SM 19/16 A3003 RMK SLP173 T01870158 57016 IEM_DS3505
ZGSZ,2001-02-28 07:00,ZGSZ 280700Z AUTO 31012KT 3SM 18/16 A3003 RMK T01800160 IEM_DS3505
ZGSZ,2001-02-28 08:00,ZGSZ 280800Z AUTO 32012KT 4SM 18/16 A3000 RMK T01800160 IEM_DS3505
ZGSZ,2001-02-28 09:00,ZGSZ 280900Z AUTO 02008KT 4SM 18/15 A3000 RMK SLP166 T01790148 57007 IEM_DS3505
ZGSZ,2001-02-28 10:00,ZGSZ 281000Z AUTO 35008KT 4SM 18/16 A3003 RMK T01800160 IEM_DS3505
ZGSZ,2001-02-28 11:00,ZGSZ 281100Z AUTO 32012KT 3SM 18/16 A3003 RMK T01800160 IEM_DS3505
ZGSZ,2001-02-28 12:00,ZGSZ 281200Z AUTO 32004KT 4SM 18/15 A3006 RMK 60003 SLP180 T01750147 52014 IEM_DS3505
ZGSZ,2001-02-28 13:00,ZGSZ 281300Z AUTO 34010KT 4SM 16/14 A3009 RMK T01600140 IEM_DS3505
ZGSZ,2001-02-28 14:00,ZGSZ 281400Z AUTO 36006KT 5SM 16/14 A3009 RMK T01600140 IEM_DS3505
ZGSZ,2001-02-28 15:00,ZGSZ 281500Z AUTO 32010KT 7SM 16/14 A3012 RMK T01600140 IEM_DS3505
ZGSZ,2001-02-28 16:00,ZGSZ 281600Z AUTO 33012KT 4SM 16/14 A3012 RMK T01600140 IEM_DS3505
ZGSZ,2001-02-28 17:00,ZGSZ 281700Z AUTO 35010KT 15/12 A3012 RMK T01500120 IEM_DS3505
ZGSZ,2001-02-28 18:00,ZGSZ 281800Z AUTO 04004KT 8SM 15/10 A3012 RMK SLP199 T01470105 52004 IEM_DS3505
ZGSZ,2001-02-28 19:00,ZGSZ 281900Z AUTO 36008KT 4SM 14/11 A3012 RMK T01400110 IEM_DS3505
ZGSZ,2001-02-28 20:00,ZGSZ 282000Z AUTO 35010KT 7SM 14/11 A3012 RMK T01400110 IEM_DS3505
ZGSZ,2001-02-28 21:00,ZGSZ 282100Z AUTO 04002KT 9SM 14/08 A3012 RMK 70003 SLP198 T01360082 57001 IEM_DS3505
ZGSZ,2001-02-28 22:00,ZGSZ 282200Z AUTO 36008KT 7SM 13/10 A3015 RMK T01300100 IEM_DS3505
ZGSZ,2001-02-28 23:00,ZGSZ 282300Z AUTO 36012KT 6SM 12/09 A3015 RMK T01200090 IEM_DS3505
ZGSZ,2001-03-01 00:00,ZGSZ 010000Z AUTO 02008KT 11SM 13/04 A3018 RMK 70003 SLP220 T01310041 52022 IEM_DS3505
ZGSZ,2001-03-01 01:00,ZGSZ 010100Z AUTO 02008KT 6SM 14/08 A3018 RMK T01400080 IEM_DS3505
ZGSZ,2001-03-01 02:00,ZGSZ 010200Z AUTO 01012KT 6SM 16/08 A3018 RMK T01600080 IEM_DS3505
ZGSZ,2001-03-01 03:00,ZGSZ 010300Z AUTO 02008KT 10SM 17/05 A3018 RMK SLP218 T01660051 57002 IEM_DS3505
ZGSZ,2001-03-01 04:00,ZGSZ 010400Z AUTO 36010KT 6SM 19/08 A3015 RMK T01900080 IEM_DS3505
ZGSZ,2001-03-01 05:00,ZGSZ 010500Z AUTO 36010KT 6SM 20/07 A3012 RMK T02000070 IEM_DS3505
ZGSZ,2001-03-01 06:00,ZGSZ 010600Z AUTO 04004KT 16SM 22/06 A3009 RMK SLP190 T02150055 57028 IEM_DS3505
ZGSZ,2001-03-01 07:00,ZGSZ 010700Z AUTO 35010KT 6SM 22/08 A3006 RMK T02200080 IEM_DS3505
ZGSZ,2001-03-01 08:00,ZGSZ 010800Z AUTO 36008KT 6SM 22/08 A3006 RMK T02200080 IEM_DS3505
ZGSZ,2001-03-01 09:00,ZGSZ 010900Z AUTO 04008KT 12SM 22/07 A3006 RMK SLP180 T02210067 57010 IEM_DS3505
ZGSZ,2001-03-01 10:00,ZGSZ 011000Z AUTO 36006KT 6SM 21/08 A3006 RMK T02100080 IEM_DS3505
ZGSZ,2001-03-01 11:00,ZGSZ 011100Z AUTO 01004KT 6SM 20/08 A3006 RMK T02000080 IEM_DS3505
ZGSZ,2001-03-01 12:00,ZGSZ 011200Z AUTO 07006KT 9SM 19/08 A3009 RMK SLP194 T01920077 52014 IEM_DS3505
ZGSZ,2001-03-01 13:00,ZGSZ 011300Z AUTO 20002KT 6SM 18/08 A3009 RMK T01800080 IEM_DS3505
ZGSZ,2001-03-01 14:00,ZGSZ 011400Z AUTO 11006KT 17/08 A3012 RMK T01700080 IEM_DS3505
ZGSZ,2001-03-01 15:00,ZGSZ 011500Z AUTO 11010KT 4SM 17/12 A3012 RMK T01700120 IEM_DS3505
ZGSZ,2001-03-01 16:00,ZGSZ 011600Z AUTO 11006KT 17/12 A3012 RMK T01700120 IEM_DS3505
ZGSZ,2001-03-01 17:00,ZGSZ 011700Z AUTO 11002KT 17/15 A3012 RMK T01700150 IEM_DS3505
ZGSZ,2001-03-01 18:00,ZGSZ 011800Z AUTO 14004KT 9SM 17/12 A3012 RMK SLP200 T01700121 57002 IEM_DS3505
ZGSZ,2001-03-01 19:00,ZGSZ 011900Z AUTO 05004KT 6SM 17/14 A3012 RMK T01700140 IEM_DS3505
ZGSZ,2001-03-01 20:00,ZGSZ 012000Z AUTO 04004KT 6SM 16/13 A3012 RMK T01600130 IEM_DS3505
ZGSZ,2001-03-01 21:00,ZGSZ 012100Z AUTO 00000KT 9SM 16/10 A3012 RMK SLP201 T01590098 52001 IEM_DS3505
ZGSZ,2001-03-01 22:00,ZGSZ 012200Z AUTO 09002KT 6SM 15/12 A3012 RMK T01500120 IEM_DS3505
ZGSZ,2001-03-01 23:00,ZGSZ 012300Z AUTO 04004KT 4SM 15/13 A3015 RMK T01500130 IEM_DS3505
ZGSZ,2001-03-02 00:00,ZGSZ 020000Z AUTO 04004KT 8SM 15/11 A3015 RMK SLP216 T01530112 52015 IEM_DS3505
ZGSZ,2001-03-02 01:00,ZGSZ 020100Z AUTO 11006KT 4SM 17/13 A3018 RMK T01700130 IEM_DS3505
ZGSZ,2001-03-02 02:00,ZGSZ 020200Z AUTO 10008KT 6SM 19/13 A3015 RMK T01900130 IEM_DS3505
ZGSZ,2001-03-02 03:00,ZGSZ 020300Z AUTO 04008KT 9SM 19/09 A3015 RMK SLP216 T01940094 54000 IEM_DS3505
ZGSZ,2001-03-02 05:00,ZGSZ 020500Z AUTO 09008KT 6SM 22/10 A3009 RMK T02200100 IEM_DS3505
ZGSZ,2001-03-02 06:00,ZGSZ 020600Z AUTO 09008KT 8SM 21/08 A3006 RMK SLP190 T02070075 57026 IEM_DS3505
ZGSZ,2001-03-02 07:00,ZGSZ 020700Z AUTO 17006KT 6SM 23/11 A3003 RMK T02300110 IEM_DS3505
ZGSZ,2001-03-02 08:00,ZGSZ 020800Z AUTO 24006KT 7SM 22/12 A3003 RMK T02200120 IEM_DS3505
ZGSZ,2001-03-02 09:00,ZGSZ 020900Z AUTO 09006KT 6SM 20/10 A3000 RMK SLP173 T01980095 57017 IEM_DS3505
ZGSZ,2001-03-02 10:00,ZGSZ 021000Z AUTO 09008KT 6SM 21/13 A3003 RMK T02100130 IEM_DS3505
ZGSZ,2001-03-02 11:00,ZGSZ 021100Z AUTO 10008KT 5SM 20/13 A3003 RMK T02000130 IEM_DS3505
ZGSZ,2001-03-02 12:00,ZGSZ 021200Z AUTO 14004KT 9SM 19/11 A3006 RMK SLP186 T01870110 52013 IEM_DS3505
ZGSZ,2001-03-02 13:00,ZGSZ 021300Z AUTO 12008KT 19/13 A3006 RMK T01900130 IEM_DS3505
ZGSZ,2001-03-02 14:00,ZGSZ 021400Z AUTO 10006KT 5SM 19/13 A3009 RMK T01900130 IEM_DS3505
ZGSZ,2001-03-02 15:00,ZGSZ 021500Z AUTO 11006KT 4SM 19/14 A3009 RMK T01900140 IEM_DS3505
ZGSZ,2001-03-02 16:00,ZGSZ 021600Z AUTO 13004KT 19/14 A3009 RMK T01900140 IEM_DS3505
ZGSZ,2001-03-02 17:00,ZGSZ 021700Z AUTO 00000KT 19/15 A3006 RMK T01900150 IEM_DS3505
ZGSZ,2001-03-02 18:00,ZGSZ 021800Z AUTO 07004KT 6SM 19/12 A3006 RMK SLP185 T01880118 57010 IEM_DS3505
ZGSZ,2001-03-02 19:00,ZGSZ 021900Z AUTO 36004KT 3SM 19/15 A3006 RMK T01900150 IEM_DS3505
ZGSZ,2001-03-02 20:00,ZGSZ 022000Z AUTO 03006KT 3SM 19/15 A3006 RMK T01900150 IEM_DS3505
ZGSZ,2001-03-02 21:00,ZGSZ 022100Z AUTO 04004KT 5SM 18/13 A3006 RMK SLP185 T01850134 57001 IEM_DS3505
ZGSZ,2001-03-02 22:00,ZGSZ 022200Z AUTO 00000KT 4SM 18/15 A3009 RMK T01800150 IEM_DS3505
ZGSZ,2001-03-02 23:00,ZGSZ 022300Z AUTO 11004KT 4SM 18/15 A3009 RMK T01800150 IEM_DS3505
ZGSZ,2001-03-03 00:00,ZGSZ 030000Z AUTO 09004KT 4SM 19/13 A3012 RMK SLP197 T01920134 52012 IEM_DS3505
ZGSZ,2001-03-03 01:00,ZGSZ 030100Z AUTO 04002KT 2 1/2SM 21/17 A3009 RMK T02100170 IEM_DS3505
ZGSZ,2001-03-03 02:00,ZGSZ 030200Z AUTO 34004KT 2 1/2SM 22/17 A3012 RMK T02200170 IEM_DS3505
ZGSZ,2001-03-03 03:00,ZGSZ 030300Z AUTO 09006KT 4SM 23/17 A3012 RMK SLP198 T02300167 52002 IEM_DS3505
ZGSZ,2001-03-03 04:00,ZGSZ 030400Z AUTO 27008KT 2SM 23/18 A3009 RMK T02300180 IEM_DS3505
ZGSZ,2001-03-03 05:00,ZGSZ 030500Z AUTO 28008KT 2 1/2SM 23/18 A3006 RMK T02300180 IEM_DS3505
ZGSZ,2001-03-03 06:00,ZGSZ 030600Z AUTO 22006KT 4SM 24/17 A3003 RMK SLP172 T02380169 57026 IEM_DS3505
ZGSZ,2001-03-03 07:00,ZGSZ 030700Z AUTO 36010KT 2SM 22/18 A3003 RMK T02200180 IEM_DS3505
ZGSZ,2001-03-03 08:00,ZGSZ 030800Z AUTO 33010KT 2 1/2SM 22/17 A3003 RMK T02200170 IEM_DS3505
ZGSZ,2001-03-03 09:00,ZGSZ 030900Z AUTO 36008KT 2SM 22/16 A3003 RMK SLP173 T02150155 52001 IEM_DS3505
ZGSZ,2001-03-03 10:00,ZGSZ 031000Z AUTO 35012KT 1SM 18/18 A3006 RMK T01800180 IEM_DS3505
ZGSZ,2001-03-03 11:00,ZGSZ 031100Z AUTO 01010KT 1SM 18/17 A3009 RMK T01800170 IEM_DS3505
ZGSZ,2001-03-03 12:00,ZGSZ 031200Z AUTO 04014KT 2SM 18/16 A3012 RMK 60003 SLP202 T01750155 52028 IEM_DS3505
ZGSZ,2001-03-03 13:00,ZGSZ 031300Z AUTO 01006KT 1 1/2SM 18/16 A3015 RMK T01800160 IEM_DS3505
ZGSZ,2001-03-03 14:00,ZGSZ 031400Z AUTO 36008KT 1 1/2SM 18/16 A3015 RMK T01800160 IEM_DS3505
ZGSZ,2001-03-03 15:00,ZGSZ 031500Z AUTO 35008KT 1 1/2SM 18/16 A3018 RMK T01800160 IEM_DS3505
ZGSZ,2001-03-03 16:00,ZGSZ 031600Z AUTO 01008KT 18/15 A3018 RMK T01800150 IEM_DS3505
ZGSZ,2001-03-03 17:00,ZGSZ 031700Z AUTO 01006KT 18/14 A3018 RMK T01800140 IEM_DS3505
ZGSZ,2001-03-03 18:00,ZGSZ 031800Z AUTO 04006KT 9SM 18/07 A3018 RMK SLP221 T01800070 52006 IEM_DS3505
ZGSZ,2001-03-03 19:00,ZGSZ 031900Z AUTO 36010KT 17/11 A3018 RMK T01700110 IEM_DS3505
ZGSZ,2001-03-03 20:00,ZGSZ 032000Z AUTO 36010KT 16/10 A3018 RMK T01600100 IEM_DS3505
ZGSZ,2001-03-03 21:00,ZGSZ 032100Z AUTO 04006KT 10SM 16/07 A3018 RMK 70003 SLP221 T01650068 57001 IEM_DS3505
ZGSZ,2001-03-03 22:00,ZGSZ 032200Z AUTO 36010KT 16/09 A3018 RMK T01600090 IEM_DS3505
ZGSZ,2001-03-03 23:00,ZGSZ 032300Z AUTO 35006KT 6SM 15/09 A3021 RMK T01500090 IEM_DS3505
ZGSZ,2001-03-04 00:00,ZGSZ 040000Z AUTO 04008KT 11SM 16/07 A3021 RMK 70003 SLP233 T01600066 52012 IEM_DS3505
ZGSZ,2001-03-04 02:00,ZGSZ 040200Z AUTO 36006KT 20/07 A3021 RMK T02000070 IEM_DS3505
ZGSZ,2001-03-04 03:00,ZGSZ 040300Z AUTO 04012KT 12SM 20/03 A3021 RMK SLP231 T02040033 57002 IEM_DS3505
ZGSZ,2001-03-04 04:00,ZGSZ 040400Z AUTO 02012KT 6SM 23/04 A3018 RMK T02300040 IEM_DS3505
ZGSZ,2001-03-04 05:00,ZGSZ 040500Z AUTO 02012KT 6SM 24/04 A3012 RMK T02400040 IEM_DS3505
ZGSZ,2001-03-04 06:00,ZGSZ 040600Z AUTO 04008KT 6SM 24/04 A3009 RMK SLP199 T02410038 57031 IEM_DS3505
ZGSZ,2001-03-04 07:00,ZGSZ 040700Z AUTO 36010KT 6SM 26/04 A3006 RMK T02600040 IEM_DS3505
ZGSZ,2001-03-04 08:00,ZGSZ 040800Z AUTO 35008KT 6SM 25/02 A3006 RMK T02500020 IEM_DS3505
ZGSZ,2001-03-04 09:00,ZGSZ 040900Z AUTO 22006KT 6SM 24/06 A3003 RMK SLP178 T02450058 57021 IEM_DS3505
ZGSZ,2001-03-04 10:00,ZGSZ 041000Z AUTO 32002KT 6SM 23/10 A3003 RMK T02300100 IEM_DS3505
ZGSZ,2001-03-04 11:00,ZGSZ 041100Z AUTO 17008KT 6SM 20/12 A3006 RMK T02000120 IEM_DS3505
ZGSZ,2001-03-04 12:00,ZGSZ 041200Z AUTO 11004KT 7SM 20/05 A3006 RMK SLP179 T01980048 54000 IEM_DS3505
ZGSZ,2001-03-04 13:00,ZGSZ 041300Z AUTO 11004KT 5SM 18/10 A3006 RMK T01800100 IEM_DS3505
ZGSZ,2001-03-04 14:00,ZGSZ 041400Z AUTO 12006KT 6SM 18/08 A3009 RMK T01800080 IEM_DS3505
ZGSZ,2001-03-04 15:00,ZGSZ 041500Z AUTO 13006KT 6SM 18/07 A3006 RMK T01800070 IEM_DS3505
ZGSZ,2001-03-04 16:00,ZGSZ 041600Z AUTO 00000KT 16/07 A3006 RMK T01600070 IEM_DS3505
ZGSZ,2001-03-04 17:00,ZGSZ 041700Z AUTO 36002KT 14/10 A3006 RMK T01400100 IEM_DS3505
ZGSZ,2001-03-04 18:00,ZGSZ 041800Z AUTO 04004KT 8SM 17/09 A3006 RMK SLP182 T01670090 57003 IEM_DS3505
ZGSZ,2001-03-04 19:00,ZGSZ 041900Z AUTO 11004KT 14/08 A3003 RMK T01400080 IEM_DS3505
ZGSZ,2001-03-04 20:00,ZGSZ 042000Z AUTO 12004KT 14/09 A3003 RMK T01400090 IEM_DS3505
ZGSZ,2001-03-04 21:00,ZGSZ 042100Z AUTO 04006KT 8SM 16/09 A3003 RMK SLP178 T01590091 57004 IEM_DS3505
ZGSZ,2001-03-04 22:00,ZGSZ 042200Z AUTO 33002KT 6SM 15/10 A3006 RMK T01500100 IEM_DS3505
ZGSZ,2001-03-04 23:00,ZGSZ 042300Z AUTO 04004KT 6SM 16/09 A3009 RMK T01600090 IEM_DS3505
ZGSZ,2001-03-05 00:00,ZGSZ 050000Z AUTO 34002KT 7SM 16/09 A3012 RMK SLP205 T01550086 52026 IEM_DS3505
ZGSZ,2001-03-05 01:00,ZGSZ 050100Z AUTO 08004KT 5SM 18/09 A3012 RMK T01800090 IEM_DS3505
ZGSZ,2001-03-05 02:00,ZGSZ 050200Z AUTO 05004KT 5SM 21/10 A3012 RMK T02100100 IEM_DS3505
ZGSZ,2001-03-05 03:00,ZGSZ 050300Z AUTO 04004KT 8SM 21/08 A3009 RMK SLP198 T02100077 57006 IEM_DS3505
ZGSZ,2001-03-05 04:00,ZGSZ 050400Z AUTO 17006KT 6SM 23/11 A3009 RMK T02300110 IEM_DS3505
ZGSZ,2001-03-05 05:00,ZGSZ 050500Z AUTO 13010KT 6SM 25/14 A3003 RMK T02500140 IEM_DS3505
ZGSZ,2001-03-05 06:00,ZGSZ 050600Z AUTO 09006KT 9SM 23/12 A3000 RMK SLP166 T02290116 57032 IEM_DS3505
ZGSZ,2001-03-05 07:00,ZGSZ 050700Z AUTO 23008KT 6SM 23/17 A2997 RMK T02300170 IEM_DS3505
ZGSZ,2001-03-05 08:00,ZGSZ 050800Z AUTO 25004KT 6SM 23/17 A2994 RMK T02300170 IEM_DS3505
ZGSZ,2001-03-05 09:00,ZGSZ 050900Z AUTO 09008KT 7SM 22/13 A2994 RMK SLP153 T02180129 57013 IEM_DS3505
ZGSZ,2001-03-05 10:00,ZGSZ 051000Z AUTO 36002KT 7SM 23/16 A2994 RMK T02300160 IEM_DS3505
ZGSZ,2001-03-05 11:00,ZGSZ 051100Z AUTO 11010KT 7SM 21/15 A2997 RMK T02100150 IEM_DS3505
ZGSZ,2001-03-05 12:00,ZGSZ 051200Z AUTO 11006KT 7SM 19/12 A3000 RMK SLP162 T01930119 52008 IEM_DS3505
ZGSZ,2001-03-05 13:00,ZGSZ 051300Z AUTO 10008KT 6SM 20/16 A3000 RMK T02000160 IEM_DS3505
ZGSZ,2001-03-05 14:00,ZGSZ 051400Z AUTO 11006KT 6SM 20/16 A3000 RMK T02000160 IEM_DS3505
ZGSZ,2001-03-05 15:00,ZGSZ 051500Z AUTO 12006KT 6SM 19/16 A3000 RMK T01900160 IEM_DS3505
ZGSZ,2001-03-05 16:00,ZGSZ 051600Z AUTO 11006KT 6SM 19/16 A3003 RMK T01900160 IEM_DS3505
ZGSZ,2001-03-05 17:00,ZGSZ 051700Z AUTO 09004KT 20/17 A3000 RMK T02000170 IEM_DS3505
ZGSZ,2001-03-05 18:00,ZGSZ 051800Z AUTO 09006KT 6SM 19/14 A3000 RMK SLP162 T01920140 57006 IEM_DS3505
ZGSZ,2001-03-05 19:00,ZGSZ 051900Z AUTO 02002KT 6SM 20/17 A3000 RMK T02000170 IEM_DS3505
ZGSZ,2001-03-05 20:00,ZGSZ 052000Z AUTO 04002KT 6SM 20/17 A3000 RMK T02000170 IEM_DS3505
ZGSZ,2001-03-05 21:00,ZGSZ 052100Z AUTO 00000KT 5SM 19/15 A2997 RMK SLP158 T01930151 57004 IEM_DS3505
ZGSZ,2001-03-06 00:00,ZGSZ 060000Z AUTO 09004KT 6SM 19/16 A3003 RMK SLP173 T01930158 52015 IEM_DS3505
ZGSZ,2001-03-06 01:00,ZGSZ 060100Z AUTO 26002KT 5SM 22/19 A3003 RMK T02200190 IEM_DS3505
ZGSZ,2001-03-06 02:00,ZGSZ 060200Z AUTO 13004KT 5SM 24/19 A3006 RMK T02400190 IEM_DS3505
ZGSZ,2001-03-06 03:00,ZGSZ 060300Z AUTO 07006KT 7SM 23/17 A3006 RMK SLP176 T02310171 52003 IEM_DS3505
ZGSZ,2001-03-06 04:00,ZGSZ 060400Z AUTO 21006KT 7SM 25/21 A3000 RMK T02500210 IEM_DS3505
ZGSZ,2001-03-06 05:00,ZGSZ 060500Z AUTO 22008KT 7SM 25/21 A2997 RMK T02500210 IEM_DS3505
ZGSZ,2001-03-06 06:00,ZGSZ 060600Z AUTO 07006KT 7SM 25/18 A2994 RMK SLP151 T02540176 57025 IEM_DS3505
ZGSZ,2001-03-06 07:00,ZGSZ 060700Z AUTO 21008KT 7SM 25/21 A2991 RMK T02500210 IEM_DS3505
ZGSZ,2001-03-06 08:00,ZGSZ 060800Z AUTO 21008KT 7SM 24/21 A2991 RMK T02400210 IEM_DS3505
ZGSZ,2001-03-06 09:00,ZGSZ 060900Z AUTO 11006KT 9SM 26/17 A2991 RMK SLP143 T02550167 57008 IEM_DS3505
ZGSZ,2001-03-06 10:00,ZGSZ 061000Z AUTO 20006KT 6SM 23/20 A2991 RMK T02300200 IEM_DS3505
ZGSZ,2001-03-06 11:00,ZGSZ 061100Z AUTO 19006KT 6SM 22/20 A2994 RMK T02200200 IEM_DS3505
ZGSZ,2001-03-06 12:00,ZGSZ 061200Z AUTO 09004KT 7SM 22/17 A2997 RMK SLP154 T02200168 52011 IEM_DS3505
ZGSZ,2001-03-06 13:00,ZGSZ 061300Z AUTO 27002KT 3SM 22/19 A2997 RMK T02200190 IEM_DS3505
ZGSZ,2001-03-06 14:00,ZGSZ 061400Z AUTO 16004KT 3SM 22/18 A3000 RMK T02200180 IEM_DS3505
ZGSZ,2001-03-06 15:00,ZGSZ 061500Z AUTO 11006KT 4SM 21/19 A3000 RMK T02100190 IEM_DS3505
ZGSZ,2001-03-06 16:00,ZGSZ 061600Z AUTO 12006KT 21/19 A3000 RMK T02100190 IEM_DS3505
ZGSZ,2001-03-06 17:00,ZGSZ 061700Z AUTO 11004KT 21/19 A2997 RMK T02100190 IEM_DS3505
ZGSZ,2001-03-06 18:00,ZGSZ 061800Z AUTO 09004KT 9SM 21/18 A2997 RMK SLP149 T02080184 57018 IEM_DS3505
ZGSZ,2001-03-06 19:00,ZGSZ 061900Z AUTO 31004KT 3SM 19/18 A2994 RMK T01900180 IEM_DS3505
ZGSZ,2001-03-06 20:00,ZGSZ 062000Z AUTO 35002KT 3SM 18/18 A2991 RMK T01800180 IEM_DS3505
ZGSZ,2001-03-06 21:00,ZGSZ 062100Z AUTO 04004KT 5SM 20/18 A2991 RMK SLP138 T01980175 57011 IEM_DS3505
ZGSZ,2001-03-06 22:00,ZGSZ 062200Z AUTO 03002KT 3SM 18/18 A2994 RMK T01800180 IEM_DS3505
ZGSZ,2001-03-06 23:00,ZGSZ 062300Z AUTO 34004KT 2SM 19/19 A2997 RMK T01900190 IEM_DS3505
ZGSZ,2001-03-07 00:00,ZGSZ 070000Z AUTO 04006KT 3SM 20/18 A3000 RMK SLP164 T01990178 52026 IEM_DS3505
ZGSZ,2001-03-07 01:00,ZGSZ 070100Z AUTO 36004KT 2 1/2SM 21/20 A3003 RMK T02100200 IEM_DS3505
ZGSZ,2001-03-07 02:00,ZGSZ 070200Z AUTO 36004KT 3SM 23/21 A3003 RMK T02300210 IEM_DS3505
ZGSZ,2001-03-07 03:00,ZGSZ 070300Z AUTO 27004KT 1 1/2SM 24/21 A3003 RMK T02400210 IEM_DS3505
ZGSZ,2001-03-07 04:00,ZGSZ 070400Z AUTO 27004KT 1 1/2SM 25/22 A3000 RMK T02500220 IEM_DS3505
ZGSZ,2001-03-07 05:00,ZGSZ 070500Z AUTO 27006KT 1SM 24/21 A2997 RMK T02400210 IEM_DS3505
ZGSZ,2001-03-07 06:00,ZGSZ 070600Z AUTO 36004KT 7SM 26/18 A2994 RMK SLP142 T02630180 57032 IEM_DS3505
ZGSZ,2001-03-07 07:00,ZGSZ 070700Z AUTO 28006KT 7SM 25/21 A2994 RMK T02500210 IEM_DS3505
ZGSZ,2001-03-07 08:00,ZGSZ 070800Z AUTO 29006KT 2SM 25/21 A2991 RMK T02500210 IEM_DS3505
ZGSZ,2001-03-07 09:00,ZGSZ 070900Z AUTO 22002KT 3SM 24/19 RMK SLP142 T02420189 54000 IEM_DS3505
ZGSZ,2001-03-07 11:00,ZGSZ 071100Z AUTO 05004KT 2SM 24/21 A2997 RMK T02400210 IEM_DS3505
ZGSZ,2001-03-07 12:00,ZGSZ 071200Z AUTO 07006KT 2 1/2SM 20/18 A3000 RMK 60003 SLP172 T02010177 52030 IEM_DS3505
ZGSZ,2001-03-07 13:00,ZGSZ 071300Z AUTO 09008KT 1 1/4SM 20/20 A3003 RMK T02000200 IEM_DS3505
ZGSZ,2001-03-07 14:00,ZGSZ 071400Z AUTO 01004KT 1 1/2SM 19/19 A3006 RMK T01900190 IEM_DS3505
ZGSZ,2001-03-07 15:00,ZGSZ 071500Z AUTO 06006KT 2SM 18/18 A3009 RMK T01800180 IEM_DS3505
ZGSZ,2001-03-07 16:00,ZGSZ 071600Z AUTO 04010KT 3SM 17/17 A3009 RMK T01700170 IEM_DS3505
ZGSZ,2001-03-07 17:00,ZGSZ 071700Z AUTO 02010KT 3SM 17/16 A3009 RMK T01700160 IEM_DS3505
ZGSZ,2001-03-07 18:00,ZGSZ 071800Z AUTO 04008KT 5SM 17/15 A3009 RMK 60003 SLP196 T01660149 52002 IEM_DS3505
ZGSZ,2001-03-07 21:00,ZGSZ 072100Z AUTO 04006KT 6SM 15/12 A3012 RMK 70003 SLP204 T01530124 52007 IEM_DS3505
ZGSZ,2001-03-07 22:00,ZGSZ 072200Z AUTO 03010KT 3SM 15/14 A3015 RMK T01500140 IEM_DS3505
ZGSZ,2001-03-07 23:00,ZGSZ 072300Z AUTO 03014KT 4SM 14/14 A3018 RMK T01400140 IEM_DS3505
ZGSZ,2001-03-08 00:00,ZGSZ 080000Z AUTO 04010KT 4SM 14/12 A3021 RMK 60003 SLP239 T01410119 52035 IEM_DS3505
ZGSZ,2001-03-08 01:00,ZGSZ 080100Z AUTO 02012KT 7SM 14/13 A3024 RMK T01400130 IEM_DS3505
ZGSZ,2001-03-08 02:00,ZGSZ 080200Z AUTO 03012KT 7SM 14/13 A3027 RMK T01400130 IEM_DS3505
ZGSZ,2001-03-08 03:00,ZGSZ 080300Z AUTO 07012KT 16SM 15/10 A3027 RMK SLP257 T01470103 52018 IEM_DS3505
ZGSZ,2001-03-08 04:00,ZGSZ 080400Z AUTO 01012KT 7SM 15/13 A3027 RMK T01500130 IEM_DS3505
ZGSZ,2001-03-08 06:00,ZGSZ 080600Z AUTO 04008KT 12SM 16/10 RMK 60003 SLP232 T01570098 57025 IEM_DS3505
ZGSZ,2001-03-08 09:00,ZGSZ 080900Z AUTO 04014KT 19SM 17/09 A3018 RMK SLP218 T01670094 57014 IEM_DS3505
ZGSZ,2001-03-08 10:00,ZGSZ 081000Z AUTO 03010KT 6SM 17/11 A3018 RMK T01700110 IEM_DS3505
ZGSZ,2001-03-08 11:00,ZGSZ 081100Z AUTO 02010KT 6SM 17/10 A3018 RMK T01700100 IEM_DS3505
ZGSZ,2001-03-08 12:00,ZGSZ 081200Z AUTO 04010KT 12SM 16/08 A3021 RMK SLP232 T01590084 52014 IEM_DS3505
ZGSZ,2001-03-08 13:00,ZGSZ 081300Z AUTO 02010KT 6SM 15/08 A3024 RMK T01500080 IEM_DS3505
ZGSZ,2001-03-08 14:00,ZGSZ 081400Z AUTO 03008KT 6SM 14/07 A3024 RMK T01400070 IEM_DS3505
ZGSZ,2001-03-08 15:00,ZGSZ 081500Z AUTO 03010KT 6SM 14/06 A3027 RMK T01400060 IEM_DS3505
ZGSZ,2001-03-08 16:00,ZGSZ 081600Z AUTO 03012KT 6SM 14/06 A3024 RMK T01400060 IEM_DS3505
ZGSZ,2001-03-08 17:00,ZGSZ 081700Z AUTO 02008KT 14/06 A3027 RMK T01400060 IEM_DS3505
ZGSZ,2001-03-08 18:00,ZGSZ 081800Z AUTO 04008KT 8SM 14/05 A3024 RMK SLP235 T01400050 57013 IEM_DS3505
ZGSZ,2001-03-08 19:00,ZGSZ 081900Z AUTO 03008KT 6SM 14/07 A3021 RMK T01400070 IEM_DS3505
ZGSZ,2001-03-08 20:00,ZGSZ 082000Z AUTO 02008KT 6SM 13/07 A3021 RMK T01300070 IEM_DS3505
ZGSZ,2001-03-08 21:00,ZGSZ 082100Z AUTO 04006KT 7SM 14/04 A3021 RMK 70003 SLP227 T01370040 57008 IEM_DS3505
ZGSZ,2001-03-08 22:00,ZGSZ 082200Z AUTO 02006KT 6SM 14/06 A3021 RMK T01400060 IEM_DS3505
ZGSZ,2001-03-08 23:00,ZGSZ 082300Z AUTO 03006KT 6SM 13/06 A3021 RMK T01300060 IEM_DS3505
ZGSZ,2001-03-09 00:00,ZGSZ 090000Z AUTO 04010KT 7SM 14/05 A3021 RMK 70003 SLP241 T01370046 52014 IEM_DS3505
ZGSZ,2001-03-09 01:00,ZGSZ 090100Z AUTO 03006KT 15/06 A3024 RMK T01500060 IEM_DS3505
ZGSZ,2001-03-09 02:00,ZGSZ 090200Z AUTO 03006KT 6SM 16/06 A3024 RMK T01600060 IEM_DS3505
ZGSZ,2001-03-09 03:00,ZGSZ 090300Z AUTO 04008KT 7SM 17/06 A3024 RMK SLP235 T01670055 57006 IEM_DS3505
ZGSZ,2001-03-09 04:00,ZGSZ 090400Z AUTO 03006KT 6SM 19/07 A3021 RMK T01900070 IEM_DS3505
ZGSZ,2001-03-09 05:00,ZGSZ 090500Z AUTO 15004KT 6SM 19/07 A3018 RMK T01900070 IEM_DS3505
ZGSZ,2001-03-09 06:00,ZGSZ 090600Z AUTO 07010KT 9SM 19/05 A3015 RMK SLP217 T01880050 57018 IEM_DS3505
ZGSZ,2001-03-09 07:00,ZGSZ 090700Z AUTO 03004KT 7SM 20/07 A3012 RMK T02000070 IEM_DS3505
ZGSZ,2001-03-09 08:00,ZGSZ 090800Z AUTO 34004KT 7SM 19/08 A3009 RMK T01900080 IEM_DS3505
ZGSZ,2001-03-09 09:00,ZGSZ 090900Z AUTO 11006KT 7SM 18/08 A3012 RMK SLP201 T01790084 57016 IEM_DS3505
ZGSZ,2001-03-09 10:00,ZGSZ 091000Z AUTO 36006KT 18/07 A3012 RMK T01800070 IEM_DS3505
ZGSZ,2001-03-09 11:00,ZGSZ 091100Z AUTO 03006KT 17/08 A3015 RMK T01700080 IEM_DS3505
ZGSZ,2001-03-09 12:00,ZGSZ 091200Z AUTO 11004KT 6SM 18/11 A3015 RMK SLP210 T01750106 52009 IEM_DS3505
ZGSZ,2001-03-09 13:00,ZGSZ 091300Z AUTO 04004KT 3SM 17/08 A3018 RMK T01700080 IEM_DS3505
ZGSZ,2001-03-09 14:00,ZGSZ 091400Z AUTO 04002KT 2 1/2SM 17/09 A3018 RMK T01700090 IEM_DS3505
ZGSZ,2001-03-09 15:00,ZGSZ 091500Z AUTO 35002KT 2SM 17/10 A3018 RMK T01700100 IEM_DS3505
ZGSZ,2001-03-09 16:00,ZGSZ 091600Z AUTO 08002KT 2SM 17/10 A3015 RMK T01700100 IEM_DS3505
ZGSZ,2001-03-09 17:00,ZGSZ 091700Z AUTO 34004KT 17/11 A3015 RMK T01700110 IEM_DS3505
ZGSZ,2001-03-09 18:00,ZGSZ 091800Z AUTO 04002KT 4SM 17/12 A3015 RMK 60000 SLP209 T01690122 57013 IEM_DS3505
ZGSZ,2001-03-09 19:00,ZGSZ 091900Z AUTO 03004KT 2 1/2SM 17/11 A3012 RMK T01700110 IEM_DS3505
ZGSZ,2001-03-09 20:00,ZGSZ 092000Z AUTO 06002KT 2 1/2SM 17/10 A3009 RMK T01700100 IEM_DS3505
ZGSZ,2001-03-09 21:00,ZGSZ 092100Z AUTO 04002KT 4SM 17/12 A3009 RMK 70000 SLP194 T01670124 57015 IEM_DS3505
ZGSZ,2001-03-09 22:00,ZGSZ 092200Z AUTO 04004KT 2 1/2SM 16/12 A3012 RMK T01600120 IEM_DS3505
ZGSZ,2001-03-09 23:00,ZGSZ 092300Z AUTO 13004KT 2SM 16/13 A3009 RMK T01600130 IEM_DS3505
ZGSZ,2001-03-10 00:00,ZGSZ 100000Z AUTO 09004KT 7SM 17/11 A3009 RMK 60003 SLP198 T01670111 52004 IEM_DS3505
ZGSZ,2001-03-10 01:00,ZGSZ 100100Z AUTO 03004KT 3SM 17/13 A3012 RMK T01700130 IEM_DS3505
ZGSZ,2001-03-10 02:00,ZGSZ 100200Z AUTO 33006KT 2 1/2SM 17/13 A3012 RMK T01700130 IEM_DS3505
ZGSZ,2001-03-10 03:00,ZGSZ 100300Z AUTO 04006KT 6SM 18/11 A3015 RMK SLP205 T01760112 52007 IEM_DS3505
ZGSZ,2001-03-10 04:00,ZGSZ 100400Z AUTO 01008KT 1 1/2SM 17/12 A3012 RMK T01700120 IEM_DS3505
ZGSZ,2001-03-10 05:00,ZGSZ 100500Z AUTO 01008KT 1 1/2SM 17/12 A3009 RMK T01700120 IEM_DS3505
ZGSZ,2001-03-10 06:00,ZGSZ 100600Z AUTO 04006KT 4SM 18/11 A3009 RMK 60003 SLP196 T01770113 57009 IEM_DS3505
ZGSZ,2001-03-10 07:00,ZGSZ 100700Z AUTO 01008KT 2 1/2SM 17/12 A3006 RMK T01700120 IEM_DS3505
ZGSZ,2001-03-10 08:00,ZGSZ 100800Z AUTO 01004KT 2 1/2SM 17/13 A3009 RMK T01700130 IEM_DS3505
ZGSZ,2001-03-10 09:00,ZGSZ 100900Z AUTO 04006KT 4SM 18/11 A3009 RMK SLP192 T01770111 57004 IEM_DS3505
ZGSZ,2001-03-10 10:00,ZGSZ 101000Z AUTO 03006KT 2 1/2SM 17/13 A3006 RMK T01700130 IEM_DS3505
ZGSZ,2001-03-10 11:00,ZGSZ 101100Z AUTO 04006KT 2 1/2SM 17/13 A3006 RMK T01700130 IEM_DS3505
ZGSZ,2001-03-10 12:00,ZGSZ 101200Z AUTO 04006KT 7SM 17/12 A3009 RMK 60003 SLP193 T01670116 52001 IEM_DS3505
ZGSZ,2001-03-10 13:00,ZGSZ 101300Z AUTO 36002KT 2 1/2SM 17/13 A3009 RMK T01700130 IEM_DS3505
ZGSZ,2001-03-10 14:00,ZGSZ 101400Z AUTO 03002KT 1 1/2SM 16/13 A3009 RMK T01600130 IEM_DS3505
ZGSZ,2001-03-10 15:00,ZGSZ 101500Z AUTO 04002KT 1 1/2SM 16/13 A3009 RMK T01600130 IEM_DS3505
ZGSZ,2001-03-10 16:00,ZGSZ 101600Z AUTO 36006KT 1 1/4SM 16/14 A3009 RMK T01600140 IEM_DS3505
ZGSZ,2001-03-10 17:00,ZGSZ 101700Z AUTO 36008KT 1 1/2SM 16/14 A3009 RMK T01600140 IEM_DS3505
ZGSZ,2001-03-10 18:00,ZGSZ 101800Z AUTO 36004KT 3SM 16/12 A3009 RMK 60003 SLP191 T01620124 57005 IEM_DS3505
ZGSZ,2001-03-10 19:00,ZGSZ 101900Z AUTO 36008KT 15/14 A3009 RMK T01500140 IEM_DS3505
ZGSZ,2001-03-10 20:00,ZGSZ 102000Z AUTO 03006KT 15/14 A3006 RMK T01500140 IEM_DS3505
ZGSZ,2001-03-10 21:00,ZGSZ 102100Z AUTO 02004KT 2 1/2SM 16/13 A3006 RMK 70002 SLP184 T01560133 57007 IEM_DS3505
ZGSZ,2001-03-10 22:00,ZGSZ 102200Z AUTO 01006KT 1 1/2SM 15/14 A3009 RMK T01500140 IEM_DS3505
ZGSZ,2001-03-10 23:00,ZGSZ 102300Z AUTO 01004KT 1 1/4SM 15/15 A3009 RMK T01500150 IEM_DS3505
ZGSZ,2001-03-11 00:00,ZGSZ 110000Z AUTO 04004KT 2 1/2SM 16/14 A3012 RMK 60003 SLP197 T01570136 52013 IEM_DS3505
ZGSZ,2001-03-11 01:00,ZGSZ 110100Z AUTO 02004KT 1 1/4SM 16/16 A3012 RMK T01600160 IEM_DS3505
ZGSZ,2001-03-11 02:00,ZGSZ 110200Z AUTO 32006KT 1SM 17/16 A3012 RMK T01700160 IEM_DS3505
ZGSZ,2001-03-11 03:00,ZGSZ 110300Z AUTO 02002KT 2SM 18/15 A3012 RMK SLP198 T01770148 52001 IEM_DS3505
ZGSZ,2001-03-11 04:00,ZGSZ 110400Z AUTO 36004KT 1SM 17/17 A3009 RMK T01700170 IEM_DS3505
ZGSZ,2001-03-11 05:00,ZGSZ 110500Z AUTO 35006KT 1SM 17/17 A3009 RMK T01700170 IEM_DS3505
ZGSZ,2001-03-11 06:00,ZGSZ 110600Z AUTO 04002KT 1SM 18/16 A3006 RMK 60002 SLP183 T01840164 57015 IEM_DS3505
ZGSZ,2001-03-11 07:00,ZGSZ 110700Z AUTO 35006KT 1SM 18/18 A3003 RMK T01800180 IEM_DS3505
ZGSZ,2001-03-11 09:00,ZGSZ 110900Z AUTO 32002KT 1SM 19/17 A3003 RMK SLP174 T01880172 57009 IEM_DS3505
ZGSZ,2001-03-11 10:00,ZGSZ 111000Z AUTO 36006KT 1 1/4SM 18/18 A3003 RMK T01800180 IEM_DS3505
ZGSZ,2001-03-11 11:00,ZGSZ 111100Z AUTO 36004KT 1 1/4SM 18/18 A3006 RMK T01800180 IEM_DS3505
ZGSZ,2001-03-11 12:00,ZGSZ 111200Z AUTO 36008KT 1 1/4SM 18/17 A3009 RMK 60004 SLP191 T01820169 52017 IEM_DS3505
ZGSZ,2001-03-11 13:00,ZGSZ 111300Z AUTO 36004KT 1 1/4SM 18/18 A3009 RMK T01800180 IEM_DS3505
ZGSZ,2001-03-11 14:00,ZGSZ 111400Z AUTO 35006KT 1 1/2SM 18/18 A3012 RMK T01800180 IEM_DS3505
ZGSZ,2001-03-11 15:00,ZGSZ 111500Z AUTO 34006KT 1 1/2SM 17/17 A3012 RMK T01700170 IEM_DS3505
ZGSZ,2001-03-11 16:00,ZGSZ 111600Z AUTO 02008KT 1 1/2SM 17/17 A3012 RMK T01700170 IEM_DS3505
ZGSZ,2001-03-11 17:00,ZGSZ 111700Z AUTO 01006KT 1 1/2SM 17/17 A3012 RMK T01700170 IEM_DS3505
ZGSZ,2001-03-11 18:00,ZGSZ 111800Z AUTO 04006KT 16SM 16/13 A3012 RMK 60008 SLP197 T01600131 57009 IEM_DS3505
ZGSZ,2001-03-11 19:00,ZGSZ 111900Z AUTO 36008KT 1 1/2SM 16/16 A3012 RMK T01600160 IEM_DS3505
ZGSZ,2001-03-11 20:00,ZGSZ 112000Z AUTO 03006KT 1 1/2SM 15/15 A3009 RMK T01500150 IEM_DS3505
ZGSZ,2001-03-11 21:00,ZGSZ 112100Z AUTO 04006KT 19SM 15/12 A3009 RMK 70016 SLP198 T01540123 52001 IEM_DS3505
ZGSZ,2001-03-11 22:00,ZGSZ 112200Z AUTO 35006KT 7SM 15/15 A3012 RMK T01500150 IEM_DS3505
ZGSZ,2001-03-11 23:00,ZGSZ 112300Z AUTO 04006KT 7SM 15/14 A3012 RMK T01500140 IEM_DS3505
ZGSZ,2001-03-12 00:00,ZGSZ 120000Z AUTO 04006KT 16SM 15/12 A3015 RMK 60001 SLP214 T01530116 52016 IEM_DS3505
ZGSZ,2001-03-12 01:00,ZGSZ 120100Z AUTO 36010KT 6SM 16/15 A3018 RMK T01600150 IEM_DS3505
ZGSZ,2001-03-12 02:00,ZGSZ 120200Z AUTO 36008KT 6SM 17/14 A3018 RMK T01700140 IEM_DS3505
ZGSZ,2001-03-12 03:00,ZGSZ 120300Z AUTO 36006KT 14SM 16/12 A3018 RMK SLP218 T01650125 52004 IEM_DS3505
ZGSZ,2001-03-12 04:00,ZGSZ 120400Z AUTO 01010KT 6SM 19/14 A3015 RMK T01900140 IEM_DS3505
ZGSZ,2001-03-12 05:00,ZGSZ 120500Z AUTO 01010KT 6SM 20/13 A3012 RMK T02000130 IEM_DS3505
ZGSZ,2001-03-12 06:00,ZGSZ 120600Z AUTO 02004KT 14SM 20/13 A3009 RMK 60003 SLP198 T02010129 57020 IEM_DS3505
ZGSZ,2001-03-12 07:00,ZGSZ 120700Z AUTO 01008KT 6SM 22/12 A3009 RMK T02200120 IEM_DS3505
ZGSZ,2001-03-12 08:00,ZGSZ 120800Z AUTO 02008KT 6SM 21/12 A3006 RMK T02100120 IEM_DS3505
ZGSZ,2001-03-12 09:00,ZGSZ 120900Z AUTO 02004KT 12SM 21/12 A3006 RMK SLP182 T02060125 57016 IEM_DS3505
ZGSZ,2001-03-12 10:00,ZGSZ 121000Z AUTO 35002KT 6SM 21/12 A3006 RMK T02100120 IEM_DS3505
ZGSZ,2001-03-12 11:00,ZGSZ 121100Z AUTO 04004KT 6SM 19/12 A3009 RMK T01900120 IEM_DS3505
ZGSZ,2001-03-12 12:00,ZGSZ 121200Z AUTO 09006KT 12SM 19/13 A3012 RMK SLP201 T01900128 52019 IEM_DS3505
ZGSZ,2001-03-12 13:00,ZGSZ 121300Z AUTO 13006KT 1 1/2SM 18/14 A3012 RMK T01800140 IEM_DS3505
ZGSZ,2001-03-12 14:00,ZGSZ 121400Z AUTO 15006KT 1 1/2SM 18/14 A3012 RMK T01800140 IEM_DS3505
ZGSZ,2001-03-12 15:00,ZGSZ 121500Z AUTO 13006KT 2SM 18/15 A3012 RMK T01800150 IEM_DS3505
ZGSZ,2001-03-12 16:00,ZGSZ 121600Z AUTO 12008KT 2 1/2SM 18/15 A3012 RMK T01800150 IEM_DS3505
ZGSZ,2001-03-12 17:00,ZGSZ 121700Z AUTO 12006KT 3SM 17/15 A3012 RMK T01700150 IEM_DS3505
ZGSZ,2001-03-12 18:00,ZGSZ 121800Z AUTO 07006KT 9SM 17/11 A3009 RMK SLP196 T01710108 57017 IEM_DS3505
ZGSZ,2001-03-12 19:00,ZGSZ 121900Z AUTO 08002KT 4SM 17/14 A3012 RMK T01700140 IEM_DS3505
ZGSZ,2001-03-12 20:00,ZGSZ 122000Z AUTO 14002KT 6SM 14/13 A3009 RMK T01400130 IEM_DS3505
ZGSZ,2001-03-12 21:00,ZGSZ 122100Z AUTO 07006KT 9SM 17/08 A3009 RMK 70003 SLP193 T01670085 57003 IEM_DS3505
ZGSZ,2001-03-12 22:00,ZGSZ 122200Z AUTO 12004KT 6SM 15/12 A3012 RMK T01500120 IEM_DS3505
ZGSZ,2001-03-12 23:00,ZGSZ 122300Z AUTO 09006KT 6SM 16/10 A3012 RMK T01600100 IEM_DS3505
ZGSZ,2001-03-13 00:00,ZGSZ 130000Z AUTO 09006KT 11SM 16/09 A3012 RMK 70003 SLP206 T01640086 52013 IEM_DS3505
ZGSZ,2001-03-13 01:00,ZGSZ 130100Z AUTO 09006KT 6SM 18/09 A3015 RMK T01800090 IEM_DS3505
ZGSZ,2001-03-13 02:00,ZGSZ 130200Z AUTO 11008KT 6SM 20/08 A3012 RMK T02000080 IEM_DS3505
ZGSZ,2001-03-13 03:00,ZGSZ 130300Z AUTO 04010KT 12SM 20/07 A3012 RMK SLP207 T02010072 52001 IEM_DS3505
ZGSZ,2001-03-13 04:00,ZGSZ 130400Z AUTO 29006KT 6SM 22/09 A3012 RMK T02200090 IEM_DS3505
ZGSZ,2001-03-13 05:00,ZGSZ 130500Z AUTO 27004KT 6SM 21/12 A3009 RMK T02100120 IEM_DS3505
ZGSZ,2001-03-13 06:00,ZGSZ 130600Z AUTO 14008KT 12SM 21/08 A3006 RMK SLP192 T02070075 57015 IEM_DS3505
ZGSZ,2001-03-13 07:00,ZGSZ 130700Z AUTO 24008KT 6SM 22/13 A3006 RMK T02200130 IEM_DS3505
ZGSZ,2001-03-13 08:00,ZGSZ 130800Z AUTO 31002KT 6SM 23/10 A3003 RMK T02300100 IEM_DS3505
ZGSZ,2001-03-13 09:00,ZGSZ 130900Z AUTO 07006KT 12SM 22/09 A3003 RMK SLP177 T02150089 57014 IEM_DS3505
ZGSZ,2001-03-13 10:00,ZGSZ 131000Z AUTO 13006KT 6SM 22/09 A3003 RMK T02200090 IEM_DS3505
ZGSZ,2001-03-13 11:00,ZGSZ 131100Z AUTO 12006KT 6SM 21/11 A3003 RMK T02100110 IEM_DS3505
ZGSZ,2001-03-13 12:00,ZGSZ 131200Z AUTO 09006KT 12SM 19/08 A3006 RMK SLP188 T01910083 52010 IEM_DS3505
ZGSZ,2001-03-13 13:00,ZGSZ 131300Z AUTO 10008KT 6SM 20/09 A3006 RMK T02000090 IEM_DS3505
ZGSZ,2001-03-13 14:00,ZGSZ 131400Z AUTO 10008KT 6SM 20/08 A3006 RMK T02000080 IEM_DS3505
ZGSZ,2001-03-13 15:00,ZGSZ 131500Z AUTO 13006KT 6SM 19/12 A3006 RMK T01900120 IEM_DS3505
ZGSZ,2001-03-13 16:00,ZGSZ 131600Z AUTO 13006KT 6SM 19/14 A3003 RMK T01900140 IEM_DS3505
ZGSZ,2001-03-13 17:00,ZGSZ 131700Z AUTO 12008KT 19/15 A3003 RMK T01900150 IEM_DS3505
ZGSZ,2001-03-13 18:00,ZGSZ 131800Z AUTO 09006KT 8SM 18/15 A3003 RMK SLP168 T01820148 57017 IEM_DS3505
ZGSZ,2001-03-13 19:00,ZGSZ 131900Z AUTO 12004KT 6SM 19/17 A3003 RMK T01900170 IEM_DS3505
ZGSZ,2001-03-13 20:00,ZGSZ 132000Z AUTO 30002KT 6SM 19/17 A3003 RMK T01900170 IEM_DS3505
ZGSZ,2001-03-13 21:00,ZGSZ 132100Z AUTO 07006KT 6SM 18/15 A3003 RMK 70003 SLP171 T01850149 52003 IEM_DS3505
ZGSZ,2001-03-13 22:00,ZGSZ 132200Z AUTO 03006KT 3SM 18/16 A3003 RMK T01800160 IEM_DS3505
ZGSZ,2001-03-13 23:00,ZGSZ 132300Z AUTO 3SM RMK IEM_DS3505
ZGSZ,2001-03-14 00:00,ZGSZ 140000Z AUTO 09004KT 4SM 19/16 A3006 RMK 60003 SLP187 T01900156 52015 IEM_DS3505
ZGSZ,2001-03-14 01:00,ZGSZ 140100Z AUTO 11006KT 3SM 21/18 A3006 RMK T02100180 IEM_DS3505
ZGSZ,2001-03-14 02:00,ZGSZ 140200Z AUTO 11008KT 4SM 23/19 A3009 RMK T02300190 IEM_DS3505
ZGSZ,2001-03-14 03:00,ZGSZ 140300Z AUTO 11008KT 7SM 23/17 A3009 RMK SLP193 T02280173 52007 IEM_DS3505
ZGSZ,2001-03-14 04:00,ZGSZ 140400Z AUTO 24006KT 4SM 25/20 A3006 RMK T02500200 IEM_DS3505
ZGSZ,2001-03-14 05:00,ZGSZ 140500Z AUTO 24006KT 2SM 23/20 A3006 RMK T02300200 IEM_DS3505
ZGSZ,2001-03-14 06:00,ZGSZ 140600Z AUTO 14008KT 8SM 24/17 A3003 RMK SLP175 T02450173 57018 IEM_DS3505
ZGSZ,2001-03-14 07:00,ZGSZ 140700Z AUTO 18010KT 7SM 25/20 A3000 RMK T02500200 IEM_DS3505
ZGSZ,2001-03-14 08:00,ZGSZ 140800Z AUTO 20008KT 6SM 24/20 A3000 RMK T02400200 IEM_DS3505
ZGSZ,2001-03-14 09:00,ZGSZ 140900Z AUTO 14006KT 9SM 24/17 A3000 RMK SLP162 T02370166 57013 IEM_DS3505
ZGSZ,2001-03-14 10:00,ZGSZ 141000Z AUTO 17006KT 6SM 24/19 A3000 RMK T02400190 IEM_DS3505
ZGSZ,2001-03-14 11:00,ZGSZ 141100Z AUTO 11006KT 6SM 23/18 A3000 RMK T02300180 IEM_DS3505
ZGSZ,2001-03-14 12:00,ZGSZ 141200Z AUTO 09006KT 11SM 21/17 A3003 RMK SLP179 T02140172 52017 IEM_DS3505
ZGSZ,2001-03-14 13:00,ZGSZ 141300Z AUTO 12004KT 6SM 22/18 A3006 RMK T02200180 IEM_DS3505
ZGSZ,2001-03-14 14:00,ZGSZ 141400Z AUTO 26002KT 4SM 20/19 A3009 RMK T02000190 IEM_DS3505
ZGSZ,2001-03-14 15:00,ZGSZ 141500Z AUTO 00000KT 4SM 19/19 A3009 RMK T01900190 IEM_DS3505
ZGSZ,2001-03-14 16:00,ZGSZ 141600Z AUTO 11006KT 21/18 A3006 RMK T02100180 IEM_DS3505
ZGSZ,2001-03-14 17:00,ZGSZ 141700Z AUTO 11004KT 21/18 A3003 RMK T02100180 IEM_DS3505
ZGSZ,2001-03-14 18:00,ZGSZ 141800Z AUTO 07004KT 9SM 20/17 A3003 RMK SLP169 T02050174 57024 IEM_DS3505
ZGSZ,2001-03-14 19:00,ZGSZ 141900Z AUTO 36002KT 4SM 20/19 A3000 RMK T02000190 IEM_DS3505
ZGSZ,2001-03-14 20:00,ZGSZ 142000Z AUTO 33002KT 4SM 19/19 A3000 RMK T01900190 IEM_DS3505
ZGSZ,2001-03-14 21:00,ZGSZ 142100Z AUTO 00000KT 7SM 20/18 A3000 RMK 70003 SLP165 T02020178 57004 IEM_DS3505
ZGSZ,2001-03-14 22:00,ZGSZ 142200Z AUTO 23002KT 2 1/2SM 19/18 A3000 RMK T01900180 IEM_DS3505
ZGSZ,2001-03-14 23:00,ZGSZ 142300Z AUTO 00000KT 2SM 18/18 A3003 RMK T01800180 IEM_DS3505
ZGSZ,2001-03-15 00:00,ZGSZ 150000Z AUTO 07004KT 4SM 20/18 A3003 RMK SLP174 T02010178 52009 IEM_DS3505
ZGSZ,2001-03-15 01:00,ZGSZ 150100Z AUTO 25002KT 3SM 24/20 A3003 RMK T02400200 IEM_DS3505
ZGSZ,2001-03-15 02:00,ZGSZ 150200Z AUTO 24004KT 6SM 25/20 A3003 RMK T02500200 IEM_DS3505
ZGSZ,2001-03-15 03:00,ZGSZ 150300Z AUTO 09004KT 16SM 26/18 A3003 RMK SLP168 T02580181 57006 IEM_DS3505
ZGSZ,2001-03-15 04:00,ZGSZ 150400Z AUTO 25006KT 3SM 25/21 A3000 RMK T02500210 IEM_DS3505
ZGSZ,2001-03-15 05:00,ZGSZ 150500Z AUTO 22008KT 3SM 25/21 A2997 RMK T02500210 IEM_DS3505
ZGSZ,2001-03-15 06:00,ZGSZ 150600Z AUTO 07008KT 16SM 29/18 A2994 RMK SLP144 T02880181 57023 IEM_DS3505
ZGSZ,2001-03-15 07:00,ZGSZ 150700Z AUTO 19006KT 4SM 25/22 A2991 RMK T02500220 IEM_DS3505
ZGSZ,2001-03-15 08:00,ZGSZ 150800Z AUTO 20006KT 4SM 24/22 A2991 RMK T02400220 IEM_DS3505
ZGSZ,2001-03-15 09:00,ZGSZ 150900Z AUTO 07008KT 16SM 27/16 A2991 RMK SLP132 T02700162 57013 IEM_DS3505
ZGSZ,2001-03-15 10:00,ZGSZ 151000Z AUTO 20008KT 6SM 23/21 A2991 RMK T02300210 IEM_DS3505
ZGSZ,2001-03-15 11:00,ZGSZ 151100Z AUTO 18006KT 6SM 22/21 A2991 RMK T02200210 IEM_DS3505
ZGSZ,2001-03-15 12:00,ZGSZ 151200Z AUTO 11006KT 16SM 24/17 A2991 RMK SLP140 T02360168 52008 IEM_DS3505
ZGSZ,2001-03-15 13:00,ZGSZ 151300Z AUTO 16008KT 6SM 22/21 A2994 RMK T02200210 IEM_DS3505
ZGSZ,2001-03-15 14:00,ZGSZ 151400Z AUTO 16006KT 6SM 22/20 A2994 RMK T02200200 IEM_DS3505
ZGSZ,2001-03-15 15:00,ZGSZ 151500Z AUTO 17004KT 6SM 21/20 A2997 RMK T02100200 IEM_DS3505
ZGSZ,2001-03-15 16:00,ZGSZ 151600Z AUTO 17006KT 6SM 22/20 A2997 RMK T02200200 IEM_DS3505
ZGSZ,2001-03-15 17:00,ZGSZ 151700Z AUTO 15006KT 22/20 A2994 RMK T02200200 IEM_DS3505
ZGSZ,2001-03-15 18:00,ZGSZ 151800Z AUTO 11004KT 11SM 22/19 A2994 RMK SLP140 T02200189 57014 IEM_DS3505
ZGSZ,2001-03-15 19:00,ZGSZ 151900Z AUTO 26002KT 6SM 22/21 A2994 RMK T02200210 IEM_DS3505
ZGSZ,2001-03-15 20:00,ZGSZ 152000Z AUTO 24002KT 6SM 22/21 A2991 RMK T02200210 IEM_DS3505
ZGSZ,2001-03-15 21:00,ZGSZ 152100Z AUTO 09004KT 9SM 22/20 A2991 RMK SLP128 T02220197 57012 IEM_DS3505
ZGSZ,2001-03-15 22:00,ZGSZ 152200Z AUTO 12004KT 7SM 22/21 A2991 RMK T02200210 IEM_DS3505
ZGSZ,2001-03-15 23:00,ZGSZ 152300Z AUTO 26002KT 7SM 22/21 A2991 RMK T02200210 IEM_DS3505
ZGSZ,2001-03-16 00:00,ZGSZ 160000Z AUTO 09004KT 7SM 22/20 A2994 RMK SLP141 T02240198 52012 IEM_DS3505
ZGSZ,2001-03-16 01:00,ZGSZ 160100Z AUTO 21004KT 7SM 25/22 A2994 RMK T02500220 IEM_DS3505
ZGSZ,2001-03-16 02:00,ZGSZ 160200Z AUTO 20006KT 7SM 26/23 A2994 RMK T02600230 IEM_DS3505
ZGSZ,2001-03-16 03:00,ZGSZ 160300Z AUTO 14004KT 9SM 25/20 A2991 RMK SLP135 T02490195 57006 IEM_DS3505
ZGSZ,2001-03-16 04:00,ZGSZ 160400Z AUTO 21008KT 7SM 26/23 A2988 RMK T02600230 IEM_DS3505
ZGSZ,2001-03-16 05:00,ZGSZ 160500Z AUTO 23008KT 7SM 26/23 A2985 RMK T02600230 IEM_DS3505
ZGSZ,2001-03-16 06:00,ZGSZ 160600Z AUTO 11002KT 6SM 26/20 A2983 RMK SLP114 T02550195 57020 IEM_DS3505
ZGSZ,2001-03-16 07:00,ZGSZ 160700Z AUTO 18010KT 7SM 27/23 A2980 RMK T02700230 IEM_DS3505
ZGSZ,2001-03-16 08:00,ZGSZ 160800Z AUTO 17012KT 7SM 27/22 A2980 RMK T02700220 IEM_DS3505
ZGSZ,2001-03-16 09:00,ZGSZ 160900Z AUTO 09006KT 6SM 24/20 A2980 RMK SLP094 T02390196 57020 IEM_DS3505
ZGSZ,2001-03-16 10:00,ZGSZ 161000Z AUTO 16010KT 6SM 26/22 A2977 RMK T02600220 IEM_DS3505
ZGSZ,2001-03-16 11:00,ZGSZ 161100Z AUTO 15012KT 6SM 25/21 A2977 RMK T02500210 IEM_DS3505
ZGSZ,2001-03-16 12:00,ZGSZ 161200Z AUTO 09006KT 4SM 22/19 A2980 RMK SLP098 T02170190 52003 IEM_DS3505
ZGSZ,2001-03-16 13:00,ZGSZ 161300Z AUTO 12010KT 4SM 23/21 A2980 RMK T02300210 IEM_DS3505
ZGSZ,2001-03-16 14:00,ZGSZ 161400Z AUTO 12008KT 4SM 23/21 A2985 RMK T02300210 IEM_DS3505
ZGSZ,2001-03-16 15:00,ZGSZ 161500Z AUTO 11010KT 4SM 22/21 A2985 RMK T02200210 IEM_DS3505
ZGSZ,2001-03-16 16:00,ZGSZ 161600Z AUTO 12010KT 4SM 22/21 A2985 RMK T02200210 IEM_DS3505
ZGSZ,2001-03-16 17:00,ZGSZ 161700Z AUTO 12008KT 4SM 22/21 A2985 RMK T02200210 IEM_DS3505
ZGSZ,2001-03-16 18:00,ZGSZ 161800Z AUTO 09004KT 2 1/2SM 21/19 A2985 RMK SLP116 T02070193 57005 IEM_DS3505
ZGSZ,2001-03-16 19:00,ZGSZ 161900Z AUTO 09004KT 4SM 22/21 A2983 RMK T02200210 IEM_DS3505
ZGSZ,2001-03-16 20:00,ZGSZ 162000Z AUTO 03002KT 4SM 21/21 A2983 RMK T02100210 IEM_DS3505
ZGSZ,2001-03-16 21:00,ZGSZ 162100Z AUTO 09004KT 4SM 21/20 A2983 RMK SLP109 T02090195 57007 IEM_DS3505
ZGSZ,2001-03-16 22:00,ZGSZ 162200Z AUTO 03006KT 2SM 20/20 A2985 RMK T02000200 IEM_DS3505
ZGSZ,2001-03-16 23:00,ZGSZ 162300Z AUTO 03006KT 2SM 21/21 A2988 RMK T02100210 IEM_DS3505
ZGSZ,2001-03-17 00:00,ZGSZ 170000Z AUTO 07004KT 4SM 21/20 A2988 RMK SLP130 T02130197 52021 IEM_DS3505
ZGSZ,2001-03-17 01:00,ZGSZ 170100Z AUTO 13006KT 2 1/2SM 24/22 A2988 RMK T02400220 IEM_DS3505
ZGSZ,2001-03-17 02:00,ZGSZ 170200Z AUTO 18008KT 3SM 26/23 A2991 RMK T02600230 IEM_DS3505
ZGSZ,2001-03-17 03:00,ZGSZ 170300Z AUTO 14004KT 9SM 26/20 A2991 RMK SLP133 T02630202 52003 IEM_DS3505
ZGSZ,2001-03-17 04:00,ZGSZ 170400Z AUTO 20008KT 4SM 26/23 A2991 RMK T02600230 IEM_DS3505
ZGSZ,2001-03-17 05:00,ZGSZ 170500Z AUTO 20008KT 6SM 26/24 A2985 RMK T02600240 IEM_DS3505
ZGSZ,2001-03-17 06:00,ZGSZ 170600Z AUTO 22004KT 7SM 27/21 A2985 RMK SLP105 T02720211 57027 IEM_DS3505
ZGSZ,2001-03-17 07:00,ZGSZ 170700Z AUTO 21008KT 6SM 26/23 A2983 RMK T02600230 IEM_DS3505
ZGSZ,2001-03-17 08:00,ZGSZ 170800Z AUTO 19008KT 6SM 25/23 A2983 RMK T02500230 IEM_DS3505
ZGSZ,2001-03-17 09:00,ZGSZ 170900Z AUTO 25006KT 6SM 27/20 A2983 RMK SLP096 T02720201 57009 IEM_DS3505
ZGSZ,2001-03-17 10:00,ZGSZ 171000Z AUTO 17006KT 6SM 24/23 A2983 RMK T02400230 IEM_DS3505
ZGSZ,2001-03-17 11:00,ZGSZ 171100Z AUTO 15004KT 6SM 24/23 A2983 RMK T02400230 IEM_DS3505
ZGSZ,2001-03-17 12:00,ZGSZ 171200Z AUTO 27004KT 6SM 25/20 A2985 RMK SLP112 T02490202 52015 IEM_DS3505
ZGSZ,2001-03-17 13:00,ZGSZ 171300Z AUTO 16006KT 6SM 24/22 A2988 RMK T02400220 IEM_DS3505
ZGSZ,2001-03-17 14:00,ZGSZ 171400Z AUTO 17004KT 6SM 23/22 A2988 RMK T02300220 IEM_DS3505
ZGSZ,2001-03-17 15:00,ZGSZ 171500Z AUTO 17004KT 6SM 23/22 A2991 RMK T02300220 IEM_DS3505
ZGSZ,2001-03-17 16:00,ZGSZ 171600Z AUTO 19004KT 23/22 A2991 RMK T02300220 IEM_DS3505
ZGSZ,2001-03-17 17:00,ZGSZ 171700Z AUTO 15004KT 23/22 A2991 RMK T02300220 IEM_DS3505
ZGSZ,2001-03-17 18:00,ZGSZ 171800Z AUTO 32002KT 6SM 23/21 A2988 RMK SLP121 T02320206 57005 IEM_DS3505
ZGSZ,2001-03-17 19:00,ZGSZ 171900Z AUTO 30008KT 22/21 A2988 RMK T02200210 IEM_DS3505
ZGSZ,2001-03-17 20:00,ZGSZ 172000Z AUTO 30010KT 21/21 A2988 RMK T02100210 IEM_DS3505
ZGSZ,2001-03-17 21:00,ZGSZ 172100Z AUTO 00000KT 4SM 22/21 A2991 RMK SLP126 T02250210 52005 IEM_DS3505
ZGSZ,2001-03-17 22:00,ZGSZ 172200Z AUTO 33006KT 2SM 22/20 A2991 RMK T02200200 IEM_DS3505
ZGSZ,2001-03-17 23:00,ZGSZ 172300Z AUTO 36008KT 2 1/2SM 21/19 A2994 RMK T02100190 IEM_DS3505
ZGSZ,2001-03-18 00:00,ZGSZ 180000Z AUTO 04002KT 4SM 22/17 A2997 RMK SLP149 T02210171 52022 IEM_DS3505
ZGSZ,2001-03-18 01:00,ZGSZ 180100Z AUTO 01010KT 5SM 22/19 A3000 RMK T02200190 IEM_DS3505
ZGSZ,2001-03-18 02:00,ZGSZ 180200Z AUTO 36010KT 4SM 24/19 A3000 RMK T02400190 IEM_DS3505
ZGSZ,2001-03-18 03:00,ZGSZ 180300Z AUTO 04008KT 4SM 24/18 A3000 RMK SLP164 T02440176 52015 IEM_DS3505
ZGSZ,2001-03-18 04:00,ZGSZ 180400Z AUTO 33006KT 3SM 26/19 A2997 RMK T02600190 IEM_DS3505
ZGSZ,2001-03-18 05:00,ZGSZ 180500Z AUTO 12004KT 27/20 A2994 RMK T02700200 IEM_DS3505
ZGSZ,2001-03-18 06:00,ZGSZ 180600Z AUTO 09008KT 5SM 25/18 A2994 RMK SLP147 T02460185 57017 IEM_DS3505
ZGSZ,2001-03-18 07:00,ZGSZ 180700Z AUTO 23004KT 2 1/2SM 25/20 A2991 RMK T02500200 IEM_DS3505
ZGSZ,2001-03-18 08:00,ZGSZ 180800Z AUTO 18008KT 3SM 24/21 A2991 RMK T02400210 IEM_DS3505
ZGSZ,2001-03-18 09:00,ZGSZ 180900Z AUTO 09006KT 5SM 23/19 A2991 RMK SLP138 T02310189 57009 IEM_DS3505
ZGSZ,2001-03-18 10:00,ZGSZ 181000Z AUTO 12012KT 3SM 25/21 A2991 RMK T02500210 IEM_DS3505
ZGSZ,2001-03-18 11:00,ZGSZ 181100Z AUTO 13010KT 4SM 23/21 A2994 RMK T02300210 IEM_DS3505
ZGSZ,2001-03-18 12:00,ZGSZ 181200Z AUTO 09006KT 7SM 21/18 A2994 RMK SLP152 T02130181 52014 IEM_DS3505
ZGSZ,2001-03-18 13:00,ZGSZ 181300Z AUTO 11008KT 4SM 23/20 A2997 RMK T02300200 IEM_DS3505
ZGSZ,2001-03-18 14:00,ZGSZ 181400Z AUTO 14008KT 4SM 22/20 A2997 RMK T02200200 IEM_DS3505
ZGSZ,2001-03-18 15:00,ZGSZ 181500Z AUTO 13010KT 4SM 22/20 A3000 RMK T02200200 IEM_DS3505
ZGSZ,2001-03-18 16:00,ZGSZ 181600Z AUTO 12008KT 4SM 22/20 A2997 RMK T02200200 IEM_DS3505
ZGSZ,2001-03-18 17:00,ZGSZ 181700Z AUTO 11006KT 22/19 A2997 RMK T02200190 IEM_DS3505
ZGSZ,2001-03-18 18:00,ZGSZ 181800Z AUTO 09008KT 9SM 21/17 A2997 RMK SLP154 T02060170 57011 IEM_DS3505
ZGSZ,2001-03-18 19:00,ZGSZ 181900Z AUTO 08006KT 22/19 A2994 RMK T02200190 IEM_DS3505
ZGSZ,2001-03-18 20:00,ZGSZ 182000Z AUTO 10008KT 22/19 A2994 RMK T02200190 IEM_DS3505
ZGSZ,2001-03-18 21:00,ZGSZ 182100Z AUTO 11008KT 7SM 20/18 A2994 RMK SLP147 T01950177 57007 IEM_DS3505
ZGSZ,2001-03-18 22:00,ZGSZ 182200Z AUTO 10006KT 5SM 21/20 A2994 RMK T02100200 IEM_DS3505
ZGSZ,2001-03-18 23:00,ZGSZ 182300Z AUTO 09002KT 7SM 21/20 A2997 RMK T02100200 IEM_DS3505
ZGSZ,2001-03-19 00:00,ZGSZ 190000Z AUTO 14006KT 6SM 20/17 A2997 RMK SLP157 T01990173 52010 IEM_DS3505
ZGSZ,2001-03-19 01:00,ZGSZ 190100Z AUTO 12006KT 4SM 22/20 A3000 RMK T02200200 IEM_DS3505
ZGSZ,2001-03-19 02:00,ZGSZ 190200Z AUTO 12006KT 4SM 23/20 A3000 RMK T02300200 IEM_DS3505
ZGSZ,2001-03-19 03:00,ZGSZ 190300Z AUTO 11008KT 5SM 21/18 A2997 RMK SLP160 T02140180 52003 IEM_DS3505
ZGSZ,2001-03-19 04:00,ZGSZ 190400Z AUTO 19008KT 5SM 26/22 A2997 RMK T02600220 IEM_DS3505
ZGSZ,2001-03-19 05:00,ZGSZ 190500Z AUTO 22008KT 4SM 26/22 A2994 RMK T02600220 IEM_DS3505
ZGSZ,2001-03-19 06:00,ZGSZ 190600Z AUTO 14006KT 9SM 25/19 A2991 RMK SLP133 T02510191 57027 IEM_DS3505
ZGSZ,2001-03-19 07:00,ZGSZ 190700Z AUTO 24006KT 5SM 25/22 A2988 RMK T02500220 IEM_DS3505
ZGSZ,2001-03-19 08:00,ZGSZ 190800Z AUTO 24006KT 5SM 25/22 A2988 RMK T02500220 IEM_DS3505
ZGSZ,2001-03-19 09:00,ZGSZ 190900Z AUTO 11006KT 12SM 24/18 A2988 RMK SLP121 T02430183 57012 IEM_DS3505
ZGSZ,2001-03-19 10:00,ZGSZ 191000Z AUTO 21006KT 4SM 23/22 A2988 RMK T02300220 IEM_DS3505
ZGSZ,2001-03-19 11:00,ZGSZ 191100Z AUTO 19008KT 4SM 23/22 A2988 RMK T02300220 IEM_DS3505
ZGSZ,2001-03-19 12:00,ZGSZ 191200Z AUTO 14006KT 9SM 22/18 A2991 RMK SLP137 T02180180 52016 IEM_DS3505
ZGSZ,2001-03-19 13:00,ZGSZ 191300Z AUTO 17008KT 4SM 22/22 A2994 RMK T02200220 IEM_DS3505
ZGSZ,2001-03-19 14:00,ZGSZ 191400Z AUTO 18008KT 3SM 22/22 A2994 RMK T02200220 IEM_DS3505
ZGSZ,2001-03-19 15:00,ZGSZ 191500Z AUTO 15006KT 3SM 22/22 A2994 RMK T02200220 IEM_DS3505
ZGSZ,2001-03-19 16:00,ZGSZ 191600Z AUTO 10006KT 23/21 A2994 RMK T02300210 IEM_DS3505
ZGSZ,2001-03-19 17:00,ZGSZ 191700Z AUTO 11004KT 23/21 A2994 RMK T02300210 IEM_DS3505
ZGSZ,2001-03-19 18:00,ZGSZ 191800Z AUTO 14004KT 9SM 21/19 A2991 RMK SLP136 T02130186 57014 IEM_DS3505
ZGSZ,2001-03-19 19:00,ZGSZ 191900Z AUTO 11004KT 3SM 22/21 A2991 RMK T02200210 IEM_DS3505
ZGSZ,2001-03-19 20:00,ZGSZ 192000Z AUTO 12004KT 3SM 22/21 A2988 RMK T02200210 IEM_DS3505
ZGSZ,2001-03-19 21:00,ZGSZ 192100Z AUTO 09002KT 6SM 22/19 A2988 RMK SLP130 T02170194 57006 IEM_DS3505
ZGSZ,2001-03-19 22:00,ZGSZ 192200Z AUTO 13006KT 3SM 22/21 A2988 RMK T02200210 IEM_DS3505
ZGSZ,2001-03-19 23:00,ZGSZ 192300Z AUTO 11004KT 3SM 23/21 A2988 RMK T02300210 IEM_DS3505
ZGSZ,2001-03-20 00:00,ZGSZ 200000Z AUTO 07002KT 6SM 22/20 A2991 RMK SLP132 T02210201 52002 IEM_DS3505
ZGSZ,2001-03-20 01:00,ZGSZ 200100Z AUTO 19004KT 2 1/2SM 24/22 A2991 RMK T02400220 IEM_DS3505
ZGSZ,2001-03-20 02:00,ZGSZ 200200Z AUTO 21004KT 3SM 23/22 A2991 RMK T02300220 IEM_DS3505
ZGSZ,2001-03-20 03:00,ZGSZ 200300Z AUTO 00000KT 5SM 24/21 A2991 RMK SLP130 T02440209 57002 IEM_DS3505
ZGSZ,2001-03-20 04:00,ZGSZ 200400Z AUTO 16008KT 6SM 26/23 A2988 RMK T02600230 IEM_DS3505
ZGSZ,2001-03-20 05:00,ZGSZ 200500Z AUTO 19006KT 6SM 25/23 A2988 RMK T02500230 IEM_DS3505
ZGSZ,2001-03-20 06:00,ZGSZ 200600Z AUTO 27008KT 4SM 27/21 A2985 RMK 60003 SLP115 T02680211 57014 IEM_DS3505
ZGSZ,2001-03-20 07:00,ZGSZ 200700Z AUTO 16008KT 7SM 24/23 A2983 RMK T02400230 IEM_DS3505
ZGSZ,2001-03-20 08:00,ZGSZ 200800Z AUTO 16008KT 7SM 24/23 A2980 RMK T02400230 IEM_DS3505
ZGSZ,2001-03-20 09:00,ZGSZ 200900Z AUTO 25006KT 9SM 26/21 A2980 RMK SLP097 T02590208 57018 IEM_DS3505
ZGSZ,2001-03-20 10:00,ZGSZ 201000Z AUTO 25008KT 7SM 23/23 A2983 RMK T02300230 IEM_DS3505
ZGSZ,2001-03-20 11:00,ZGSZ 201100Z AUTO 32004KT 1 1/2SM 23/23 A2983 RMK T02300230 IEM_DS3505
ZGSZ,2001-03-20 12:00,ZGSZ 201200Z AUTO 29002KT 4SM 24/22 A2985 RMK 60003 SLP110 T02390218 52012 IEM_DS3505
ZGSZ,2001-03-20 13:00,ZGSZ 201300Z AUTO 27004KT 2SM 22/22 A2985 RMK T02200220 IEM_DS3505
ZGSZ,2001-03-20 14:00,ZGSZ 201400Z AUTO 30008KT 2SM 22/22 A2988 RMK T02200220 IEM_DS3505
ZGSZ,2001-03-20 15:00,ZGSZ 201500Z AUTO 31008KT 2 1/2SM 21/21 A2988 RMK T02100210 IEM_DS3505
ZGSZ,2001-03-20 16:00,ZGSZ 201600Z AUTO 34008KT 21/19 A2988 RMK T02100190 IEM_DS3505
ZGSZ,2001-03-20 17:00,ZGSZ 201700Z AUTO 32012KT 20/19 A2988 RMK T02000190 IEM_DS3505
ZGSZ,2001-03-20 18:00,ZGSZ 201800Z AUTO 32006KT 4SM 21/18 A2988 RMK SLP117 T02110181 57002 IEM_DS3505
ZGSZ,2001-03-20 19:00,ZGSZ 201900Z AUTO 33008KT 7SM 19/18 A2985 RMK T01900180 IEM_DS3505
ZGSZ,2001-03-20 20:00,ZGSZ 202000Z AUTO 33006KT 7SM 19/18 A2985 RMK T01900180 IEM_DS3505
ZGSZ,2001-03-20 21:00,ZGSZ 202100Z AUTO 36004KT 3SM 20/18 A2985 RMK 70003 SLP108 T02000177 57010 IEM_DS3505
ZGSZ,2001-03-20 22:00,ZGSZ 202200Z AUTO 35004KT 3SM 19/18 A2985 RMK T01900180 IEM_DS3505
ZGSZ,2001-03-20 23:00,ZGSZ 202300Z AUTO 35004KT 4SM 18/18 A2988 RMK T01800180 IEM_DS3505
ZGSZ,2001-03-21 00:00,ZGSZ 210000Z AUTO 04006KT 7SM 20/17 A2991 RMK 70003 SLP133 T01990168 52025 IEM_DS3505
ZGSZ,2001-03-21 01:00,ZGSZ 210100Z AUTO 36006KT 6SM 21/18 A2994 RMK T02100180 IEM_DS3505
ZGSZ,2001-03-21 02:00,ZGSZ 210200Z AUTO 01008KT 6SM 23/17 A2994 RMK T02300170 IEM_DS3505
ZGSZ,2001-03-21 03:00,ZGSZ 210300Z AUTO 04006KT 11SM 24/14 A2994 RMK SLP140 T02390135 52007 IEM_DS3505
ZGSZ,2001-03-21 04:00,ZGSZ 210400Z AUTO 34008KT 6SM 26/16 A2991 RMK T02600160 IEM_DS3505
ZGSZ,2001-03-21 05:00,ZGSZ 210500Z AUTO 35008KT 6SM 27/14 A2985 RMK T02700140 IEM_DS3505
ZGSZ,2001-03-21 06:00,ZGSZ 210600Z AUTO 07006KT 11SM 28/13 A2983 RMK SLP104 T02800128 57035 IEM_DS3505
ZGSZ,2001-03-21 07:00,ZGSZ 210700Z AUTO 28010KT 6SM 27/16 A2980 RMK T02700160 IEM_DS3505
ZGSZ,2001-03-21 08:00,ZGSZ 210800Z AUTO 28010KT 6SM 27/16 A2980 RMK T02700160 IEM_DS3505
ZGSZ,2001-03-21 09:00,ZGSZ 210900Z AUTO 22006KT 5SM 28/15 A2980 RMK SLP093 T02750147 57011 IEM_DS3505
ZGSZ,2001-03-21 10:00,ZGSZ 211000Z AUTO 30004KT 6SM 26/15 A2980 RMK T02600150 IEM_DS3505
ZGSZ,2001-03-21 11:00,ZGSZ 211100Z AUTO 35002KT 6SM 23/15 A2980 RMK T02300150 IEM_DS3505
ZGSZ,2001-03-21 12:00,ZGSZ 211200Z AUTO 14004KT 5SM 24/14 A2980 RMK SLP099 T02390137 52005 IEM_DS3505
ZGSZ,2001-03-21 13:00,ZGSZ 211300Z AUTO 17008KT 2SM 21/17 A2983 RMK T02100170 IEM_DS3505
ZGSZ,2001-03-21 14:00,ZGSZ 211400Z AUTO 16006KT 2SM 22/19 A2985 RMK T02200190 IEM_DS3505
ZGSZ,2001-03-21 15:00,ZGSZ 211500Z AUTO 16006KT 1 1/2SM 20/18 A2985 RMK T02000180 IEM_DS3505
ZGSZ,2001-03-21 16:00,ZGSZ 211600Z AUTO 12004KT 1 1/4SM 20/18 A2983 RMK T02000180 IEM_DS3505
ZGSZ,2001-03-21 17:00,ZGSZ 211700Z AUTO 12004KT 20/18 A2983 RMK T02000180 IEM_DS3505
ZGSZ,2001-03-21 18:00,ZGSZ 211800Z AUTO 09004KT 9SM 21/16 A2983 RMK SLP099 T02110160 57008 IEM_DS3505
ZGSZ,2001-03-21 19:00,ZGSZ 211900Z AUTO 12004KT 1 1/4SM 20/18 A2980 RMK T02000180 IEM_DS3505
ZGSZ,2001-03-21 20:00,ZGSZ 212000Z AUTO 12008KT 1 1/2SM 21/18 A2980 RMK T02100180 IEM_DS3505
ZGSZ,2001-03-21 21:00,ZGSZ 212100Z AUTO 14006KT 7SM 21/18 A2980 RMK SLP091 T02090179 57008 IEM_DS3505
ZGSZ,2001-03-21 22:00,ZGSZ 212200Z AUTO 15002KT 2 1/2SM 20/18 A2983 RMK T02000180 IEM_DS3505
ZGSZ,2001-03-21 23:00,ZGSZ 212300Z AUTO 35004KT 4SM 20/18 A2985 RMK T02000180 IEM_DS3505
ZGSZ,2001-03-22 00:00,ZGSZ 220000Z AUTO 04006KT 4SM 21/18 A2985 RMK SLP119 T02130178 52027 IEM_DS3505
ZGSZ,2001-03-22 01:00,ZGSZ 220100Z AUTO 05002KT 3SM 24/19 A2988 RMK T02400190 IEM_DS3505
ZGSZ,2001-03-22 02:00,ZGSZ 220200Z AUTO 25004KT 26/19 A2988 RMK T02600190 IEM_DS3505
ZGSZ,2001-03-22 03:00,ZGSZ 220300Z AUTO 04006KT 10SM 26/18 A2988 RMK SLP120 T02590177 52002 IEM_DS3505
ZGSZ,2001-03-22 04:00,ZGSZ 220400Z AUTO 20006KT 27/21 A2985 RMK T02700210 IEM_DS3505
ZGSZ,2001-03-22 05:00,ZGSZ 220500Z AUTO 22006KT 5SM 25/21 A2983 RMK T02500210 IEM_DS3505
ZGSZ,2001-03-22 06:00,ZGSZ 220600Z AUTO 14008KT 6SM 26/19 A2980 RMK SLP095 T02630191 57025 IEM_DS3505
ZGSZ,2001-03-22 07:00,ZGSZ 220700Z AUTO 20006KT 4SM 24/22 A2977 RMK T02400220 IEM_DS3505
ZGSZ,2001-03-22 08:00,ZGSZ 220800Z AUTO 19008KT 5SM 25/22 A2977 RMK T02500220 IEM_DS3505
ZGSZ,2001-03-22 09:00,ZGSZ 220900Z AUTO 09008KT 7SM 25/19 A2977 RMK SLP087 T02470190 57008 IEM_DS3505
ZGSZ,2001-03-22 10:00,ZGSZ 221000Z AUTO 15010KT 4SM 25/22 A2977 RMK T02500220 IEM_DS3505
ZGSZ,2001-03-22 11:00,ZGSZ 221100Z AUTO 15010KT 4SM 24/22 A2977 RMK T02400220 IEM_DS3505
ZGSZ,2001-03-22 12:00,ZGSZ 221200Z AUTO 09004KT 5SM 23/20 A2980 RMK SLP091 T02290201 52003 IEM_DS3505
ZGSZ,2001-03-22 13:00,ZGSZ 221300Z AUTO 13008KT 2 1/2SM 24/22 A2980 RMK T02400220 IEM_DS3505
ZGSZ,2001-03-22 14:00,ZGSZ 221400Z AUTO 12010KT 2 1/2SM 24/22 A2983 RMK T02400220 IEM_DS3505
ZGSZ,2001-03-22 15:00,ZGSZ 221500Z AUTO 13008KT 3SM 23/22 A2983 RMK T02300220 IEM_DS3505
ZGSZ,2001-03-22 16:00,ZGSZ 221600Z AUTO 13006KT 2 1/2SM 23/22 A2983 RMK T02300220 IEM_DS3505
ZGSZ,2001-03-22 17:00,ZGSZ 221700Z AUTO 13006KT 23/22 A2983 RMK T02300220 IEM_DS3505
ZGSZ,2001-03-22 18:00,ZGSZ 221800Z AUTO 04004KT 4SM 23/21 A2980 RMK SLP098 T02290209 57007 IEM_DS3505
ZGSZ,2001-03-22 19:00,ZGSZ 221900Z AUTO 12006KT 2 1/2SM 23/22 A2980 RMK T02300220 IEM_DS3505
ZGSZ,2001-03-22 20:00,ZGSZ 222000Z AUTO 12006KT 2 1/2SM 23/23 A2980 RMK T02300230 IEM_DS3505
ZGSZ,2001-03-22 21:00,ZGSZ 222100Z AUTO 14004KT 4SM 23/21 A2980 RMK SLP093 T02260209 57005 IEM_DS3505
ZGSZ,2001-03-22 22:00,ZGSZ 222200Z AUTO 11004KT 3SM 24/23 A2980 RMK T02400230 IEM_DS3505
ZGSZ,2001-03-22 23:00,ZGSZ 222300Z AUTO 09002KT 2 1/2SM 24/23 A2983 RMK T02400230 IEM_DS3505
ZGSZ,2001-03-23 00:00,ZGSZ 230000Z AUTO 14006KT 4SM 23/21 A2983 RMK SLP110 T02310211 52016 IEM_DS3505
ZGSZ,2001-03-23 01:00,ZGSZ 230100Z AUTO 14008KT 3SM 25/23 A2983 RMK T02500230 IEM_DS3505
ZGSZ,2001-03-23 02:00,ZGSZ 230200Z AUTO 15008KT 4SM 26/24 A2985 RMK T02600240 IEM_DS3505
ZGSZ,2001-03-23 03:00,ZGSZ 230300Z AUTO 14004KT 7SM 26/22 A2985 RMK SLP112 T02580218 52003 IEM_DS3505
ZGSZ,2001-03-23 04:00,ZGSZ 230400Z AUTO 18010KT 7SM 28/24 A2983 RMK T02800240 IEM_DS3505
ZGSZ,2001-03-23 05:00,ZGSZ 230500Z AUTO 17010KT 7SM 27/24 A2983 RMK T02700240 IEM_DS3505
ZGSZ,2001-03-23 06:00,ZGSZ 230600Z AUTO 22004KT 6SM 27/22 A2980 RMK SLP093 T02720216 57019 IEM_DS3505
ZGSZ,2001-03-23 07:00,ZGSZ 230700Z AUTO 18012KT 7SM 26/24 A2977 RMK T02600240 IEM_DS3505
ZGSZ,2001-03-23 08:00,ZGSZ 230800Z AUTO 16010KT 7SM 26/24 A2974 RMK T02600240 IEM_DS3505
ZGSZ,2001-03-23 09:00,ZGSZ 230900Z AUTO 22004KT 14SM 28/22 A2974 RMK SLP077 T02830217 57016 IEM_DS3505
ZGSZ,2001-03-23 10:00,ZGSZ 231000Z AUTO 17012KT 6SM 25/24 A2974 RMK T02500240 IEM_DS3505
ZGSZ,2001-03-23 11:00,ZGSZ 231100Z AUTO 18012KT 7SM 25/24 A2977 RMK T02500240 IEM_DS3505
ZGSZ,2001-03-23 12:00,ZGSZ 231200Z AUTO 18004KT 8SM 25/21 A2977 RMK SLP084 T02520213 52007 IEM_DS3505
ZGSZ,2001-03-23 13:00,ZGSZ 231300Z AUTO 15008KT 7SM 24/24 A2980 RMK T02400240 IEM_DS3505
ZGSZ,2001-03-23 14:00,ZGSZ 231400Z AUTO 16008KT 7SM 24/24 A2980 RMK T02400240 IEM_DS3505
ZGSZ,2001-03-23 15:00,ZGSZ 231500Z AUTO 14010KT 6SM 24/24 A2980 RMK T02400240 IEM_DS3505
ZGSZ,2001-03-23 16:00,ZGSZ 231600Z AUTO 14006KT 6SM 24/23 A2980 RMK T02400230 IEM_DS3505
ZGSZ,2001-03-23 17:00,ZGSZ 231700Z AUTO 17004KT 24/23 A2980 RMK T02400230 IEM_DS3505
ZGSZ,2001-03-23 18:00,ZGSZ 231800Z AUTO 00000KT 7SM 24/22 A2980 RMK SLP092 T02440217 57001 IEM_DS3505
ZGSZ,2001-03-23 19:00,ZGSZ 231900Z AUTO 15006KT 6SM 24/23 A2977 RMK T02400230 IEM_DS3505
ZGSZ,2001-03-23 20:00,ZGSZ 232000Z AUTO 14006KT 6SM 24/23 A2977 RMK T02400230 IEM_DS3505
ZGSZ,2001-03-23 21:00,ZGSZ 232100Z AUTO 07002KT 7SM 24/22 A2977 RMK SLP084 T02360215 57008 IEM_DS3505
ZGSZ,2001-03-23 22:00,ZGSZ 232200Z AUTO 15004KT 7SM 24/23 A2977 RMK T02400230 IEM_DS3505
ZGSZ,2001-03-23 23:00,ZGSZ 232300Z AUTO 13004KT 7SM 24/23 A2980 RMK T02400230 IEM_DS3505
ZGSZ,2001-03-24 00:00,ZGSZ 240000Z AUTO 14002KT 5SM 24/22 A2980 RMK SLP095 T02410216 52011 IEM_DS3505
ZGSZ,2001-03-24 01:00,ZGSZ 240100Z AUTO 16006KT 7SM 26/24 A2980 RMK T02600240 IEM_DS3505
ZGSZ,2001-03-24 02:00,ZGSZ 240200Z AUTO 16010KT 7SM 27/24 A2980 RMK T02700240 IEM_DS3505
ZGSZ,2001-03-24 03:00,ZGSZ 240300Z AUTO 18006KT 11SM 28/21 A2980 RMK SLP098 T02800208 52003 IEM_DS3505
ZGSZ,2001-03-24 04:00,ZGSZ 240400Z AUTO 17010KT 7SM 28/25 A2980 RMK T02800250 IEM_DS3505
ZGSZ,2001-03-24 05:00,ZGSZ 240500Z AUTO 16014KT 7SM 28/25 A2977 RMK T02800250 IEM_DS3505
ZGSZ,2001-03-24 06:00,ZGSZ 240600Z AUTO 25010KT 17SM 28/21 A2974 RMK SLP069 T02850209 57029 IEM_DS3505
ZGSZ,2001-03-24 07:00,ZGSZ 240700Z AUTO 16016KT 7SM 28/25 A2971 RMK T02800250 IEM_DS3505
ZGSZ,2001-03-24 08:00,ZGSZ 240800Z AUTO 16014KT 7SM 27/24 A2968 RMK T02700240 IEM_DS3505
ZGSZ,2001-03-24 09:00,ZGSZ 240900Z AUTO 20004KT 19SM 28/22 A2968 RMK SLP051 T02840215 57018 IEM_DS3505
ZGSZ,2001-03-24 10:00,ZGSZ 241000Z AUTO 16014KT 7SM 26/24 A2968 RMK T02600240 IEM_DS3505
ZGSZ,2001-03-24 11:00,ZGSZ 241100Z AUTO 16012KT 7SM 25/24 A2968 RMK T02500240 IEM_DS3505
ZGSZ,2001-03-24 12:00,ZGSZ 241200Z AUTO 22004KT 16SM 26/22 A2971 RMK SLP070 T02640217 52019 IEM_DS3505
ZGSZ,2001-03-24 13:00,ZGSZ 241300Z AUTO 17010KT 7SM 26/24 A2974 RMK T02600240 IEM_DS3505
ZGSZ,2001-03-24 14:00,ZGSZ 241400Z AUTO 16008KT 7SM 25/24 A2974 RMK T02500240 IEM_DS3505
ZGSZ,2001-03-24 15:00,ZGSZ 241500Z AUTO 17004KT 7SM 25/24 A2977 RMK T02500240 IEM_DS3505
ZGSZ,2001-03-24 16:00,ZGSZ 241600Z AUTO 15008KT 7SM 25/24 A2977 RMK T02500240 IEM_DS3505
ZGSZ,2001-03-24 17:00,ZGSZ 241700Z AUTO 17008KT 25/24 A2974 RMK T02500240 IEM_DS3505
ZGSZ,2001-03-24 18:00,ZGSZ 241800Z AUTO 16002KT 10SM 26/22 A2971 RMK SLP065 T02560222 57018 IEM_DS3505
ZGSZ,2001-03-24 19:00,ZGSZ 241900Z AUTO 15010KT 25/24 A2968 RMK T02500240 IEM_DS3505
ZGSZ,2001-03-24 20:00,ZGSZ 242000Z AUTO 15012KT 25/24 A2965 RMK T02500240 IEM_DS3505
ZGSZ,2001-03-24 21:00,ZGSZ 242100Z AUTO 00000KT 10SM 25/22 A2968 RMK SLP053 T02490222 57012 IEM_DS3505
ZGSZ,2001-03-24 22:00,ZGSZ 242200Z AUTO 15008KT 6SM 25/24 A2968 RMK T02500240 IEM_DS3505
ZGSZ,2001-03-24 23:00,ZGSZ 242300Z AUTO 16008KT 7SM 25/25 A2971 RMK T02500250 IEM_DS3505
ZGSZ,2001-03-25 00:00,ZGSZ 250000Z AUTO 18002KT 11SM 26/23 A2974 RMK SLP071 T02580226 52018 IEM_DS3505
ZGSZ,2001-03-25 01:00,ZGSZ 250100Z AUTO 16012KT 7SM 26/25 A2974 RMK T02600250 IEM_DS3505
ZGSZ,2001-03-25 02:00,ZGSZ 250200Z AUTO 17012KT 7SM 25/25 A2971 RMK T02500250 IEM_DS3505
ZGSZ,2001-03-25 03:00,ZGSZ 250300Z AUTO 20004KT 8SM 26/23 A2971 RMK SLP065 T02650230 57006 IEM_DS3505
ZGSZ,2001-03-25 04:00,ZGSZ 250400Z AUTO 26008KT 1SM 23/23 A2974 RMK T02300230 IEM_DS3505
ZGSZ,2001-03-25 05:00,ZGSZ 250500Z AUTO 04008KT 7SM 21/21 A2971 RMK T02100210 IEM_DS3505
ZGSZ,2001-03-25 06:00,ZGSZ 250600Z AUTO 36002KT 4SM 22/21 A2971 RMK 60118 SLP064 T02170206 57001 IEM_DS3505
ZGSZ,2001-03-25 07:00,ZGSZ 250700Z AUTO 34006KT 7SM 22/22 A2971 RMK T02200220 IEM_DS3505
ZGSZ,2001-03-25 08:00,ZGSZ 250800Z AUTO 35004KT 7SM 24/22 A2965 RMK T02400220 IEM_DS3505
ZGSZ,2001-03-25 09:00,ZGSZ 250900Z AUTO 04006KT 12SM 23/20 A2968 RMK SLP050 T02270196 57014 IEM_DS3505
ZGSZ,2001-03-25 10:00,ZGSZ 251000Z AUTO 01008KT 7SM 23/21 A2968 RMK T02300210 IEM_DS3505
ZGSZ,2001-03-25 11:00,ZGSZ 251100Z AUTO 01008KT 7SM 22/20 A2974 RMK T02200200 IEM_DS3505
ZGSZ,2001-03-25 12:00,ZGSZ 251200Z AUTO 34004KT 5SM 22/18 A2974 RMK 60020 SLP072 T02170184 52022 IEM_DS3505
ZGSZ,2001-03-25 13:00,ZGSZ 251300Z AUTO 01008KT 6SM 21/19 A2977 RMK T02100190 IEM_DS3505
ZGSZ,2001-03-25 14:00,ZGSZ 251400Z AUTO 01008KT 6SM 21/19 A2980 RMK T02100190 IEM_DS3505
ZGSZ,2001-03-25 15:00,ZGSZ 251500Z AUTO 36008KT 6SM 21/18 A2980 RMK T02100180 IEM_DS3505
ZGSZ,2001-03-25 16:00,ZGSZ 251600Z AUTO 01006KT 6SM 20/18 A2980 RMK T02000180 IEM_DS3505
ZGSZ,2001-03-25 17:00,ZGSZ 251700Z AUTO 36008KT 20/18 A2980 RMK T02000180 IEM_DS3505
ZGSZ,2001-03-25 18:00,ZGSZ 251800Z AUTO 04006KT 11SM 20/16 A2977 RMK SLP086 T01950157 57007 IEM_DS3505
ZGSZ,2001-03-25 19:00,ZGSZ 251900Z AUTO 03008KT 19/18 A2977 RMK T01900180 IEM_DS3505
ZGSZ,2001-03-25 20:00,ZGSZ 252000Z AUTO 03008KT 19/17 A2977 RMK T01900170 IEM_DS3505
ZGSZ,2001-03-25 21:00,ZGSZ 252100Z AUTO 04006KT 11SM 19/14 A2977 RMK 70137 SLP084 T01870140 57002 IEM_DS3505
ZGSZ,2001-03-25 22:00,ZGSZ 252200Z AUTO 03008KT 7SM 18/16 A2977 RMK T01800160 IEM_DS3505
ZGSZ,2001-03-25 23:00,ZGSZ 252300Z AUTO 02008KT 6SM 19/16 A2977 RMK T01900160 IEM_DS3505
ZGSZ,2001-03-26 00:00,ZGSZ 260000Z AUTO 04008KT 14SM 19/14 A2980 RMK 70137 SLP096 T01920142 52012 IEM_DS3505
ZGSZ,2001-03-26 01:00,ZGSZ 260100Z AUTO 04008KT 7SM 20/17 A2983 RMK T02000170 IEM_DS3505
ZGSZ,2001-03-26 02:00,ZGSZ 260200Z AUTO 04006KT 7SM 21/17 A2983 RMK T02100170 IEM_DS3505
ZGSZ,2001-03-26 03:00,ZGSZ 260300Z AUTO 04004KT 12SM 21/16 A2983 RMK SLP106 T02060156 52010 IEM_DS3505
ZGSZ,2001-03-26 04:00,ZGSZ 260400Z AUTO 01004KT 7SM 22/18 A2983 RMK T02200180 IEM_DS3505
ZGSZ,2001-03-26 05:00,ZGSZ 260500Z AUTO 09004KT 7SM 22/18 A2980 RMK T02200180 IEM_DS3505
ZGSZ,2001-03-26 06:00,ZGSZ 260600Z AUTO 04004KT 4SM 20/17 A2977 RMK SLP093 T02050167 57013 IEM_DS3505
ZGSZ,2001-03-26 07:00,ZGSZ 260700Z AUTO 10004KT 7SM 21/19 A2977 RMK T02100190 IEM_DS3505
ZGSZ,2001-03-26 08:00,ZGSZ 260800Z AUTO 08004KT 7SM 21/19 A2977 RMK T02100190 IEM_DS3505
ZGSZ,2001-03-26 09:00,ZGSZ 260900Z AUTO 07006KT 4SM 20/17 A2977 RMK SLP082 T02030174 57011 IEM_DS3505
ZGSZ,2001-03-26 10:00,ZGSZ 261000Z AUTO 08004KT 3SM 21/19 A2974 RMK T02100190 IEM_DS3505
ZGSZ,2001-03-26 11:00,ZGSZ 261100Z AUTO 10004KT 2 1/2SM 21/19 A2974 RMK T02100190 IEM_DS3505
ZGSZ,2001-03-26 12:00,ZGSZ 261200Z AUTO 04004KT 4SM 20/17 A2974 RMK SLP071 T02000174 57011 IEM_DS3505
ZGSZ,2001-03-26 13:00,ZGSZ 261300Z AUTO 11004KT 4SM 21/19 A2977 RMK T02100190 IEM_DS3505
ZGSZ,2001-03-26 14:00,ZGSZ 261400Z AUTO 11004KT 4SM 21/19 A2977 RMK T02100190 IEM_DS3505
ZGSZ,2001-03-26 15:00,ZGSZ 261500Z AUTO 10004KT 5SM 21/19 A2980 RMK T02100190 IEM_DS3505
ZGSZ,2001-03-26 16:00,ZGSZ 261600Z AUTO 09004KT 7SM 21/19 A2980 RMK T02100190 IEM_DS3505
ZGSZ,2001-03-26 17:00,ZGSZ 261700Z AUTO 09004KT 21/19 A2977 RMK T02100190 IEM_DS3505
ZGSZ,2001-03-26 18:00,ZGSZ 261800Z AUTO 09002KT 7SM 20/17 A2977 RMK SLP079 T01970169 57008 IEM_DS3505
ZGSZ,2001-03-26 19:00,ZGSZ 261900Z AUTO 06004KT 7SM 20/19 A2974 RMK T02000190 IEM_DS3505
ZGSZ,2001-03-26 20:00,ZGSZ 262000Z AUTO 04004KT 7SM 20/19 A2974 RMK T02000190 IEM_DS3505
ZGSZ,2001-03-26 21:00,ZGSZ 262100Z AUTO 04004KT 2SM 19/17 A2974 RMK 70001 SLP071 T01890174 57008 IEM_DS3505
ZGSZ,2001-03-26 22:00,ZGSZ 262200Z AUTO 03004KT 3SM 19/19 A2974 RMK T01900190 IEM_DS3505
ZGSZ,2001-03-26 23:00,ZGSZ 262300Z AUTO 03004KT 2 1/2SM 19/19 A2974 RMK T01900190 IEM_DS3505
ZGSZ,2001-03-27 00:00,ZGSZ 270000Z AUTO 04004KT 4SM 19/18 A2974 RMK 60004 SLP080 T01910175 52009 IEM_DS3505
ZGSZ,2001-03-27 01:00,ZGSZ 270100Z AUTO 05004KT 4SM 19/19 A2977 RMK T01900190 IEM_DS3505
ZGSZ,2001-03-27 02:00,ZGSZ 270200Z AUTO 13004KT 3SM 20/19 A2977 RMK T02000190 IEM_DS3505
ZGSZ,2001-03-27 03:00,ZGSZ 270300Z AUTO 09006KT 4SM 20/18 A2977 RMK SLP083 T02010180 52003 IEM_DS3505
ZGSZ,2001-03-27 04:00,ZGSZ 270400Z AUTO 01004KT 3SM 21/20 A2974 RMK T02100200 IEM_DS3505
ZGSZ,2001-03-27 05:00,ZGSZ 270500Z AUTO 02004KT 2 1/2SM 21/20 A2974 RMK T02100200 IEM_DS3505
ZGSZ,2001-03-27 06:00,ZGSZ 270600Z AUTO 00000KT 3SM 21/18 A2974 RMK 60003 SLP071 T02070182 57012 IEM_DS3505
ZGSZ,2001-03-27 07:00,ZGSZ 270700Z AUTO 36008KT 2SM 20/20 A2974 RMK T02000200 IEM_DS3505
ZGSZ,2001-03-27 08:00,ZGSZ 270800Z AUTO 01006KT 4SM 20/20 A2974 RMK T02000200 IEM_DS3505
ZGSZ,2001-03-27 09:00,ZGSZ 270900Z AUTO 04010KT 4SM 20/18 A2974 RMK SLP077 T01980185 52006 IEM_DS3505
ZGSZ,2001-03-27 10:00,ZGSZ 271000Z AUTO 03006KT 7SM 20/19 A2974 RMK T02000190 IEM_DS3505
ZGSZ,2001-03-27 11:00,ZGSZ 271100Z AUTO 35004KT 6SM 20/19 A2974 RMK T02000190 IEM_DS3505
ZGSZ,2001-03-27 12:00,ZGSZ 271200Z AUTO 27002KT 16SM 20/16 A2977 RMK 60008 SLP084 T01990163 52007 IEM_DS3505
ZGSZ,2001-03-27 13:00,ZGSZ 271300Z AUTO 03006KT 3SM 20/19 A2980 RMK T02000190 IEM_DS3505
ZGSZ,2001-03-27 14:00,ZGSZ 271400Z AUTO 03006KT 4SM 20/18 A2983 RMK T02000180 IEM_DS3505
ZGSZ,2001-03-27 15:00,ZGSZ 271500Z AUTO 01006KT 7SM 19/18 A2983 RMK T01900180 IEM_DS3505
ZGSZ,2001-03-27 16:00,ZGSZ 271600Z AUTO 02004KT 6SM 18/18 A2985 RMK T01800180 IEM_DS3505
ZGSZ,2001-03-27 17:00,ZGSZ 271700Z AUTO 36002KT 18/18 A2983 RMK T01800180 IEM_DS3505
ZGSZ,2001-03-27 18:00,ZGSZ 271800Z AUTO 04004KT 11SM 19/16 A2983 RMK 60003 SLP100 T01890164 57010 IEM_DS3505
ZGSZ,2001-03-27 19:00,ZGSZ 271900Z AUTO 02002KT 6SM 19/18 A2980 RMK T01900180 IEM_DS3505
ZGSZ,2001-03-27 20:00,ZGSZ 272000Z AUTO 35004KT 6SM 19/18 A2983 RMK T01900180 IEM_DS3505
ZGSZ,2001-03-27 21:00,ZGSZ 272100Z AUTO 34004KT 9SM 19/16 A2983 RMK 70011 SLP100 T01880165 54000 IEM_DS3505
ZGSZ,2001-03-27 22:00,ZGSZ 272200Z AUTO 02004KT 6SM 19/17 A2983 RMK T01900170 IEM_DS3505
ZGSZ,2001-03-27 23:00,ZGSZ 272300Z AUTO 02004KT 7SM 19/17 A2985 RMK T01900170 IEM_DS3505
ZGSZ,2001-03-28 00:00,ZGSZ 280000Z AUTO 34002KT 7SM 19/17 A2985 RMK 70007 SLP116 T01920166 52016 IEM_DS3505
ZGSZ,2001-03-28 01:00,ZGSZ 280100Z AUTO 05004KT 6SM 20/18 A2988 RMK T02000180 IEM_DS3505
ZGSZ,2001-03-28 02:00,ZGSZ 280200Z AUTO 09006KT 5SM 22/18 A2988 RMK T02200180 IEM_DS3505
ZGSZ,2001-03-28 03:00,ZGSZ 280300Z AUTO 34004KT 11SM 22/17 A2988 RMK SLP116 T02210171 54000 IEM_DS3505
ZGSZ,2001-03-28 04:00,ZGSZ 280400Z AUTO 26004KT 4SM 23/19 A2985 RMK T02300190 IEM_DS3505
ZGSZ,2001-03-28 05:00,ZGSZ 280500Z AUTO 08004KT 3SM 23/19 A2983 RMK T02300190 IEM_DS3505
ZGSZ,2001-03-28 06:00,ZGSZ 280600Z AUTO 09006KT 9SM 23/17 A2983 RMK SLP100 T02290166 57016 IEM_DS3505
ZGSZ,2001-03-28 07:00,ZGSZ 280700Z AUTO 27004KT 4SM 23/19 A2980 RMK T02300190 IEM_DS3505
ZGSZ,2001-03-28 08:00,ZGSZ 280800Z AUTO 27004KT 3SM 23/19 A2980 RMK T02300190 IEM_DS3505
ZGSZ,2001-03-28 09:00,ZGSZ 280900Z AUTO 11004KT 9SM 22/16 A2983 RMK SLP101 T02250156 52001 IEM_DS3505
ZGSZ,2001-03-28 10:00,ZGSZ 281000Z AUTO 20002KT 7SM 23/17 A2983 RMK T02300170 IEM_DS3505
ZGSZ,2001-03-28 11:00,ZGSZ 281100Z AUTO 10006KT 7SM 22/17 A2985 RMK T02200170 IEM_DS3505
ZGSZ,2001-03-28 12:00,ZGSZ 281200Z AUTO 09006KT 9SM 21/16 A2985 RMK SLP120 T02110163 52019 IEM_DS3505
ZGSZ,2001-03-28 13:00,ZGSZ 281300Z AUTO 13006KT 7SM 21/18 A2988 RMK T02100180 IEM_DS3505
ZGSZ,2001-03-28 14:00,ZGSZ 281400Z AUTO 08006KT 7SM 20/19 A2991 RMK T02000190 IEM_DS3505
ZGSZ,2001-03-28 15:00,ZGSZ 281500Z AUTO 00000KT 6SM 20/18 A2991 RMK T02000180 IEM_DS3505
ZGSZ,2001-03-28 16:00,ZGSZ 281600Z AUTO 02006KT 7SM 19/18 A2991 RMK T01900180 IEM_DS3505
ZGSZ,2001-03-28 17:00,ZGSZ 281700Z AUTO 02004KT 19/18 A2991 RMK T01900180 IEM_DS3505
ZGSZ,2001-03-28 18:00,ZGSZ 281800Z AUTO 04004KT 7SM 20/17 A2991 RMK 60000 SLP126 T01980172 57007 IEM_DS3505
ZGSZ,2001-03-28 19:00,ZGSZ 281900Z AUTO 34002KT 7SM 19/18 A2991 RMK T01900180 IEM_DS3505
ZGSZ,2001-03-28 20:00,ZGSZ 282000Z AUTO 02014KT 2 1/2SM 17/16 A2994 RMK T01700160 IEM_DS3505
ZGSZ,2001-03-28 21:00,ZGSZ 282100Z AUTO 04012KT 12SM 16/14 A2994 RMK 70013 SLP144 T01650141 52018 IEM_DS3505
ZGSZ,2001-03-28 22:00,ZGSZ 282200Z AUTO 06010KT 7SM 17/14 A2994 RMK T01700140 IEM_DS3505
ZGSZ,2001-03-28 23:00,ZGSZ 282300Z AUTO 36004KT 6SM 17/15 A3000 RMK T01700150 IEM_DS3505
ZGSZ,2001-03-29 00:00,ZGSZ 290000Z AUTO 07010KT 12SM 16/12 A3003 RMK 60012 SLP166 T01650121 52022 IEM_DS3505
ZGSZ,2001-03-29 01:00,ZGSZ 290100Z AUTO 01016KT 6SM 16/14 A3003 RMK T01600140 IEM_DS3505
ZGSZ,2001-03-29 02:00,ZGSZ 290200Z AUTO 05006KT 6SM 17/13 A3000 RMK T01700130 IEM_DS3505
ZGSZ,2001-03-29 03:00,ZGSZ 290300Z AUTO 36006KT 16SM 19/13 A3000 RMK SLP160 T01880126 57006 IEM_DS3505
ZGSZ,2001-03-29 04:00,ZGSZ 290400Z AUTO 02010KT 6SM 21/14 A2997 RMK T02100140 IEM_DS3505
ZGSZ,2001-03-29 05:00,ZGSZ 290500Z AUTO 02010KT 6SM 22/13 A2994 RMK T02200130 IEM_DS3505
ZGSZ,2001-03-29 06:00,ZGSZ 290600Z AUTO 36006KT 7SM 22/13 A2991 RMK 60002 SLP138 T02220130 57022 IEM_DS3505
ZGSZ,2001-03-29 07:00,ZGSZ 290700Z AUTO 02006KT 6SM 24/12 A2988 RMK T02400120 IEM_DS3505
ZGSZ,2001-03-29 08:00,ZGSZ 290800Z AUTO 36006KT 6SM 24/12 A2985 RMK T02400120 IEM_DS3505
ZGSZ,2001-03-29 09:00,ZGSZ 290900Z AUTO 09006KT 12SM 24/13 A2988 RMK SLP122 T02380132 57016 IEM_DS3505
ZGSZ,2001-03-29 10:00,ZGSZ 291000Z AUTO 02008KT 6SM 23/11 A2988 RMK T02300110 IEM_DS3505
ZGSZ,2001-03-29 11:00,ZGSZ 291100Z AUTO 03006KT 6SM 21/10 A2991 RMK T02100100 IEM_DS3505
ZGSZ,2001-03-29 12:00,ZGSZ 291200Z AUTO 11006KT 10SM 20/14 A2991 RMK SLP141 T01950140 52019 IEM_DS3505
ZGSZ,2001-03-29 13:00,ZGSZ 291300Z AUTO 12004KT 2SM 19/16 A2994 RMK T01900160 IEM_DS3505
ZGSZ,2001-03-29 14:00,ZGSZ 291400Z AUTO 12004KT 2SM 18/16 A2994 RMK T01800160 IEM_DS3505
ZGSZ,2001-03-29 15:00,ZGSZ 291500Z AUTO 12006KT 2 1/2SM 18/16 A2997 RMK T01800160 IEM_DS3505
ZGSZ,2001-03-29 16:00,ZGSZ 291600Z AUTO 12006KT 18/16 A2994 RMK T01800160 IEM_DS3505
ZGSZ,2001-03-29 17:00,ZGSZ 291700Z AUTO 10004KT 17/16 A2994 RMK T01700160 IEM_DS3505
ZGSZ,2001-03-29 18:00,ZGSZ 291800Z AUTO 07002KT 9SM 18/16 A2994 RMK SLP148 T01830158 57004 IEM_DS3505
ZGSZ,2001-03-29 19:00,ZGSZ 291900Z AUTO 00000KT 2 1/2SM 16/16 A2994 RMK T01600160 IEM_DS3505
ZGSZ,2001-03-29 20:00,ZGSZ 292000Z AUTO 01004KT 2 1/2SM 16/16 A2994 RMK T01600160 IEM_DS3505
ZGSZ,2001-03-29 21:00,ZGSZ 292100Z AUTO 04004KT 5SM 17/15 A2994 RMK 70002 SLP148 T01730151 54000 IEM_DS3505
ZGSZ,2001-03-29 22:00,ZGSZ 292200Z AUTO 03002KT 2SM 17/16 A2997 RMK T01700160 IEM_DS3505
ZGSZ,2001-03-29 23:00,ZGSZ 292300Z AUTO 06004KT 2SM 17/16 A2997 RMK T01700160 IEM_DS3505
ZGSZ,2001-03-30 00:00,ZGSZ 300000Z AUTO 07002KT 7SM 18/15 A3000 RMK 70002 SLP163 T01790146 52015 IEM_DS3505
ZGSZ,2001-03-30 01:00,ZGSZ 300100Z AUTO 09008KT 4SM 20/17 A3000 RMK T02000170 IEM_DS3505
ZGSZ,2001-03-30 02:00,ZGSZ 300200Z AUTO 11004KT 4SM 22/17 A3003 RMK T02200170 IEM_DS3505
ZGSZ,2001-03-30 03:00,ZGSZ 300300Z AUTO 09004KT 9SM 22/14 A3000 RMK SLP163 T02170136 54000 IEM_DS3505
ZGSZ,2001-03-30 04:00,ZGSZ 300400Z AUTO 25006KT 7SM 23/17 A3000 RMK T02300170 IEM_DS3505
ZGSZ,2001-03-30 05:00,ZGSZ 300500Z AUTO 25006KT 7SM 24/17 A2994 RMK T02400170 IEM_DS3505
ZGSZ,2001-03-30 06:00,ZGSZ 300600Z AUTO 11004KT 12SM 25/15 A2994 RMK SLP147 T02490154 57016 IEM_DS3505
ZGSZ,2001-03-30 07:00,ZGSZ 300700Z AUTO 23006KT 6SM 24/18 A2991 RMK T02400180 IEM_DS3505
ZGSZ,2001-03-30 08:00,ZGSZ 300800Z AUTO 21006KT 6SM 24/17 A2991 RMK T02400170 IEM_DS3505
ZGSZ,2001-03-30 09:00,ZGSZ 300900Z AUTO 09008KT 16SM 24/14 A2991 RMK SLP134 T02380142 57013 IEM_DS3505
ZGSZ,2001-03-30 10:00,ZGSZ 301000Z AUTO 19008KT 6SM 22/19 A2991 RMK T02200190 IEM_DS3505
ZGSZ,2001-03-30 11:00,ZGSZ 301100Z AUTO 18008KT 6SM 22/18 A2994 RMK T02200180 IEM_DS3505
ZGSZ,2001-03-30 12:00,ZGSZ 301200Z AUTO 09008KT 9SM 20/15 A2994 RMK SLP148 T02030151 52014 IEM_DS3505
ZGSZ,2001-03-30 13:00,ZGSZ 301300Z AUTO 12008KT 6SM 21/17 A3000 RMK T02100170 IEM_DS3505
ZGSZ,2001-03-30 14:00,ZGSZ 301400Z AUTO 13004KT 6SM 20/17 A3000 RMK T02000170 IEM_DS3505
ZGSZ,2001-03-30 15:00,ZGSZ 301500Z AUTO 12006KT 6SM 20/17 A3000 RMK T02000170 IEM_DS3505
ZGSZ,2001-03-30 16:00,ZGSZ 301600Z AUTO 11004KT 20/17 A3000 RMK T02000170 IEM_DS3505
ZGSZ,2001-03-30 17:00,ZGSZ 301700Z AUTO 10004KT 20/17 A3000 RMK T02000170 IEM_DS3505
ZGSZ,2001-03-30 18:00,ZGSZ 301800Z AUTO 04004KT 7SM 20/17 A3000 RMK SLP164 T01990168 52003 IEM_DS3505
ZGSZ,2001-03-30 19:00,ZGSZ 301900Z AUTO 08002KT 6SM 19/18 A2997 RMK T01900180 IEM_DS3505
ZGSZ,2001-03-30 20:00,ZGSZ 302000Z AUTO 02002KT 6SM 19/18 A2997 RMK T01900180 IEM_DS3505
ZGSZ,2001-03-30 21:00,ZGSZ 302100Z AUTO 09006KT 5SM 20/17 A2997 RMK SLP154 T01960166 57010 IEM_DS3505
ZGSZ,2001-03-30 22:00,ZGSZ 302200Z AUTO 03006KT 6SM 18/17 A2997 RMK T01800170 IEM_DS3505
ZGSZ,2001-03-30 23:00,ZGSZ 302300Z AUTO 01006KT 3SM 19/18 A3000 RMK T01900180 IEM_DS3505
ZGSZ,2001-03-31 00:00,ZGSZ 310000Z AUTO 04006KT 4SM 19/16 A3003 RMK SLP172 T01940162 52018 IEM_DS3505
ZGSZ,2001-03-31 01:00,ZGSZ 310100Z AUTO 28002KT 3SM 22/19 A3003 RMK T02200190 IEM_DS3505
ZGSZ,2001-03-31 02:00,ZGSZ 310200Z AUTO 34006KT 4SM 24/20 A3003 RMK T02400200 IEM_DS3505
ZGSZ,2001-03-31 03:00,ZGSZ 310300Z AUTO 04006KT 6SM 24/18 A3003 RMK SLP175 T02390177 52003 IEM_DS3505
ZGSZ,2001-03-31 04:00,ZGSZ 310400Z AUTO 24004KT 2 1/2SM 25/20 A3003 RMK T02500200 IEM_DS3505
ZGSZ,2001-03-31 05:00,ZGSZ 310500Z AUTO 28008KT 2SM 26/21 A3000 RMK T02600210 IEM_DS3505
ZGSZ,2001-03-31 06:00,ZGSZ 310600Z AUTO 14004KT 9SM 25/18 A2997 RMK SLP154 T02510182 57021 IEM_DS3505
ZGSZ,2001-03-31 07:00,ZGSZ 310700Z AUTO 23006KT 4SM 24/21 A2997 RMK T02400210 IEM_DS3505
ZGSZ,2001-03-31 08:00,ZGSZ 310800Z AUTO 18004KT 4SM 24/20 A2997 RMK T02400200 IEM_DS3505
ZGSZ,2001-03-31 09:00,ZGSZ 310900Z AUTO 25002KT 7SM 24/19 A2997 RMK SLP154 T02400190 54000 IEM_DS3505
ZGSZ,2001-03-31 10:00,ZGSZ 311000Z AUTO 17004KT 2 1/2SM 23/21 A3000 RMK T02300210 IEM_DS3505
ZGSZ,2001-03-31 11:00,ZGSZ 311100Z AUTO 21002KT 2 1/2SM 23/21 A3000 RMK T02300210 IEM_DS3505
ZGSZ,2001-03-31 12:00,ZGSZ 311200Z AUTO 11004KT 8SM 23/18 A3003 RMK SLP176 T02290185 52022 IEM_DS3505
ZGSZ,2001-03-31 13:00,ZGSZ 311300Z AUTO 29002KT 2 1/2SM 24/21 A3006 RMK T02400210 IEM_DS3505
ZGSZ,2001-03-31 14:00,ZGSZ 311400Z AUTO 15004KT 3SM 23/20 A3006 RMK T02300200 IEM_DS3505
ZGSZ,2001-03-31 15:00,ZGSZ 311500Z AUTO 12006KT 4SM 23/21 A3006 RMK T02300210 IEM_DS3505
ZGSZ,2001-03-31 16:00,ZGSZ 311600Z AUTO 10004KT 23/20 A3006 RMK T02300200 IEM_DS3505
ZGSZ,2001-03-31 18:00,ZGSZ 311800Z AUTO 09004KT 4SM 21/18 A3003 RMK SLP179 T02130181 57012 IEM_DS3505
ZGSZ,2001-03-31 19:00,ZGSZ 311900Z AUTO 11010KT 22/20 A3003 RMK T02200200 IEM_DS3505
ZGSZ,2001-03-31 20:00,ZGSZ 312000Z AUTO 10008KT 21/19 A3000 RMK T02100190 IEM_DS3505
ZGSZ,2001-03-31 21:00,ZGSZ 312100Z AUTO 09006KT 4SM 20/17 A3000 RMK SLP171 T02030170 57008 IEM_DS3505
ZGSZ,2001-03-31 22:00,ZGSZ 312200Z AUTO 10006KT 4SM 21/19 A3003 RMK T02100190 IEM_DS3505
ZGSZ,2001-03-31 23:00,ZGSZ 312300Z AUTO 09004KT 5SM 21/18 A3003 RMK T02100180 IEM_DS3505
ZGSZ,2001-04-01 00:00,ZGSZ 010000Z AUTO 09008KT 8SM 20/14 A3006 RMK SLP177 T01980141 52006 IEM_DS3505
ZGSZ,2001-04-01 01:00,ZGSZ 010100Z AUTO 08006KT 6SM 22/17 A3006 RMK T02200170 IEM_DS3505
ZGSZ,2001-04-01 02:00,ZGSZ 010200Z AUTO 11008KT 6SM 24/18 A3009 RMK T02400180 IEM_DS3505
ZGSZ,2001-04-01 03:00,ZGSZ 010300Z AUTO 14006KT 8SM 22/15 A3009 RMK SLP189 T02170152 52012 IEM_DS3505
ZGSZ,2001-04-01 04:00,ZGSZ 010400Z AUTO 10010KT 6SM 24/19 A3003 RMK T02400190 IEM_DS3505
ZGSZ,2001-04-01 05:00,ZGSZ 010500Z AUTO 20008KT 6SM 25/19 A3000 RMK T02500190 IEM_DS3505
ZGSZ,2001-04-01 06:00,ZGSZ 010600Z AUTO 09008KT 7SM 23/16 A2997 RMK SLP164 T02320162 57025 IEM_DS3505
ZGSZ,2001-04-01 07:00,ZGSZ 010700Z AUTO 23008KT 7SM 24/20 A2997 RMK T02400200 IEM_DS3505
ZGSZ,2001-04-01 08:00,ZGSZ 010800Z AUTO 09008KT 7SM 25/18 A2997 RMK T02500180 IEM_DS3505
ZGSZ,2001-04-01 09:00,ZGSZ 010900Z AUTO 11008KT 6SM 22/16 A2997 RMK SLP152 T02160160 57012 IEM_DS3505
ZGSZ,2001-04-01 11:00,ZGSZ 011100Z AUTO 11010KT 6SM 22/18 A2997 RMK T02200180 IEM_DS3505
ZGSZ,2001-04-01 12:00,ZGSZ 011200Z AUTO 14006KT 4SM 20/17 A3000 RMK SLP164 T02050167 52012 IEM_DS3505
ZGSZ,2001-04-01 13:00,ZGSZ 011300Z AUTO 12008KT 6SM 21/19 A3000 RMK T02100190 IEM_DS3505
ZGSZ,2001-04-01 14:00,ZGSZ 011400Z AUTO 12008KT 6SM 21/19 A3000 RMK T02100190 IEM_DS3505
ZGSZ,2001-04-01 15:00,ZGSZ 011500Z AUTO 10006KT 6SM 21/19 A3003 RMK T02100190 IEM_DS3505
ZGSZ,2001-04-01 16:00,ZGSZ 011600Z AUTO 12006KT 6SM 21/19 A3000 RMK T02100190 IEM_DS3505
ZGSZ,2001-04-01 17:00,ZGSZ 011700Z AUTO 08004KT 6SM 20/19 A2997 RMK T02000190 IEM_DS3505
ZGSZ,2001-04-01 18:00,ZGSZ 011800Z AUTO 07002KT 5SM 21/18 A2994 RMK SLP146 T02060177 57024 IEM_DS3505
ZGSZ,2001-04-01 19:00,ZGSZ 011900Z AUTO 08002KT 6SM 20/19 A2994 RMK T02000190 IEM_DS3505
ZGSZ,2001-04-01 20:00,ZGSZ 012000Z AUTO 11006KT 6SM 21/19 A2991 RMK T02100190 IEM_DS3505
ZGSZ,2001-04-01 21:00,ZGSZ 012100Z AUTO 09006KT 5SM 20/18 A2991 RMK SLP135 T02010177 57011 IEM_DS3505
ZGSZ,2001-04-01 22:00,ZGSZ 012200Z AUTO 05004KT 6SM 20/19 A2991 RMK T02000190 IEM_DS3505
ZGSZ,2001-04-01 23:00,ZGSZ 012300Z AUTO 08002KT 4SM 20/19 A2994 RMK T02000190 IEM_DS3505
ZGSZ,2001-04-02 00:00,ZGSZ 020000Z AUTO 04004KT 4SM 21/18 A2997 RMK SLP146 T02060179 52011 IEM_DS3505
ZGSZ,2001-04-02 01:00,ZGSZ 020100Z AUTO 05002KT 3SM 22/20 A2997 RMK T02200200 IEM_DS3505
ZGSZ,2001-04-02 02:00,ZGSZ 020200Z AUTO 36002KT 3SM 22/20 A2997 RMK T02200200 IEM_DS3505
ZGSZ,2001-04-02 03:00,ZGSZ 020300Z AUTO 07006KT 7SM 23/18 A2997 RMK SLP149 T02300184 52003 IEM_DS3505
ZGSZ,2001-04-02 04:00,ZGSZ 020400Z AUTO 14012KT 3SM 26/22 A2991 RMK T02600220 IEM_DS3505
ZGSZ,2001-04-02 05:00,ZGSZ 020500Z AUTO 16010KT 6SM 27/21 A2988 RMK T02700210 IEM_DS3505
ZGSZ,2001-04-02 06:00,ZGSZ 020600Z AUTO 14006KT 12SM 27/19 A2985 RMK SLP116 T02670190 57032 IEM_DS3505
ZGSZ,2001-04-02 07:00,ZGSZ 020700Z AUTO 23008KT 6SM 26/22 A2983 RMK T02600220 IEM_DS3505
ZGSZ,2001-04-02 08:00,ZGSZ 020800Z AUTO 21010KT 6SM 24/22 A2983 RMK T02400220 IEM_DS3505
ZGSZ,2001-04-02 09:00,ZGSZ 020900Z AUTO 09004KT 11SM 25/19 A2980 RMK SLP098 T02490190 IEM_DS3505
ZGSZ,2001-04-02 10:00,ZGSZ 021000Z AUTO 21008KT 6SM 24/23 A2980 RMK T02400230 IEM_DS3505
ZGSZ,2001-04-02 11:00,ZGSZ 021100Z AUTO 19006KT 6SM 24/23 A2983 RMK T02400230 IEM_DS3505
ZGSZ,2001-04-02 12:00,ZGSZ 021200Z AUTO 11006KT 7SM 23/19 A2983 RMK SLP106 T02290192 52008 IEM_DS3505
ZGSZ,2001-04-02 13:00,ZGSZ 021300Z AUTO 15008KT 6SM 24/21 A2983 RMK T02400210 IEM_DS3505
ZGSZ,2001-04-02 14:00,ZGSZ 021400Z AUTO 18006KT 6SM 23/21 A2985 RMK T02300210 IEM_DS3505
ZGSZ,2001-04-02 15:00,ZGSZ 021500Z AUTO 19008KT 6SM 23/21 A2985 RMK T02300210 IEM_DS3505
ZGSZ,2001-04-02 16:00,ZGSZ 021600Z AUTO 16006KT 6SM 23/21 A2985 RMK T02300210 IEM_DS3505
ZGSZ,2001-04-02 17:00,ZGSZ 021700Z AUTO 13006KT 6SM 23/21 A2985 RMK T02300210 IEM_DS3505
ZGSZ,2001-04-02 18:00,ZGSZ 021800Z AUTO 11004KT 5SM 22/19 A2983 RMK SLP107 T02180193 57013 IEM_DS3505
ZGSZ,2001-04-02 19:00,ZGSZ 021900Z AUTO 12006KT 6SM 22/21 A2983 RMK T02200210 IEM_DS3505
ZGSZ,2001-04-02 20:00,ZGSZ 022000Z AUTO 11006KT 6SM 22/21 A2980 RMK T02200210 IEM_DS3505
ZGSZ,2001-04-02 21:00,ZGSZ 022100Z AUTO 11002KT 4SM 22/20 A2983 RMK SLP101 T02150195 57006 IEM_DS3505
ZGSZ,2001-04-02 22:00,ZGSZ 022200Z AUTO 17002KT 3SM 22/21 A2985 RMK T02200210 IEM_DS3505
ZGSZ,2001-04-02 23:00,ZGSZ 022300Z AUTO 13004KT 2 1/2SM 22/21 A2985 RMK T02200210 IEM_DS3505
ZGSZ,2001-04-03 00:00,ZGSZ 030000Z AUTO 00000KT 4SM 22/20 A2985 RMK SLP118 T02190200 52016 IEM_DS3505
ZGSZ,2001-04-03 01:00,ZGSZ 030100Z AUTO 14012KT 2 1/2SM 24/22 A2985 RMK T02400220 IEM_DS3505
ZGSZ,2001-04-03 02:00,ZGSZ 030200Z AUTO 16010KT 4SM 25/23 A2985 RMK T02500230 IEM_DS3505
ZGSZ,2001-04-03 03:00,ZGSZ 030300Z AUTO 34002KT 8SM 26/20 A2985 RMK SLP112 T02640205 57005 IEM_DS3505
ZGSZ,2001-04-03 04:00,ZGSZ 030400Z AUTO 17008KT 6SM 26/23 A2985 RMK T02600230 IEM_DS3505
ZGSZ,2001-04-03 05:00,ZGSZ 030500Z AUTO 17012KT 6SM 26/24 A2983 RMK T02600240 IEM_DS3505
ZGSZ,2001-04-03 06:00,ZGSZ 030600Z AUTO 25010KT 6SM 28/20 A2980 RMK SLP093 T02800205 57019 IEM_DS3505
ZGSZ,2001-04-03 07:00,ZGSZ 030700Z AUTO 16012KT 7SM 25/23 A2977 RMK T02500230 IEM_DS3505
ZGSZ,2001-04-03 08:00,ZGSZ 030800Z AUTO 16010KT 7SM 26/23 A2977 RMK T02600230 IEM_DS3505
ZGSZ,2001-04-03 09:00,ZGSZ 030900Z AUTO 20006KT 6SM 28/21 A2977 RMK SLP085 T02780211 57008 IEM_DS3505
ZGSZ,2001-04-03 10:00,ZGSZ 031000Z AUTO 16010KT 6SM 25/23 A2977 RMK T02500230 IEM_DS3505
ZGSZ,2001-04-03 11:00,ZGSZ 031100Z AUTO 16012KT 7SM 25/23 A2977 RMK T02500230 IEM_DS3505
ZGSZ,2001-04-03 12:00,ZGSZ 031200Z AUTO 25002KT 11SM 26/21 A2980 RMK SLP099 T02590213 52014 IEM_DS3505
ZGSZ,2001-04-03 13:00,ZGSZ 031300Z AUTO 16008KT 7SM 24/23 A2983 RMK T02400230 IEM_DS3505
ZGSZ,2001-04-03 14:00,ZGSZ 031400Z AUTO 18010KT 7SM 24/24 A2985 RMK T02400240 IEM_DS3505
ZGSZ,2001-04-03 15:00,ZGSZ 031500Z AUTO 17008KT 7SM 24/23 A2988 RMK T02400230 IEM_DS3505
ZGSZ,2001-04-03 16:00,ZGSZ 031600Z AUTO 15006KT 24/23 A2988 RMK T02400230 IEM_DS3505
ZGSZ,2001-04-03 17:00,ZGSZ 031700Z AUTO 16006KT 24/24 A2988 RMK T02400240 IEM_DS3505
ZGSZ,2001-04-03 18:00,ZGSZ 031800Z AUTO 00000KT 7SM 24/22 A2985 RMK SLP111 T02400215 57012 IEM_DS3505
ZGSZ,2001-04-03 19:00,ZGSZ 031900Z AUTO 15006KT 7SM 24/24 A2983 RMK T02400240 IEM_DS3505
ZGSZ,2001-04-03 20:00,ZGSZ 032000Z AUTO 15008KT 7SM 24/24 A2980 RMK T02400240 IEM_DS3505
ZGSZ,2001-04-03 21:00,ZGSZ 032100Z AUTO 09006KT 4SM 24/22 A2980 RMK SLP098 T02350216 57013 IEM_DS3505
ZGSZ,2001-04-03 22:00,ZGSZ 032200Z AUTO 13008KT 2 1/2SM 24/24 A2983 RMK T02400240 IEM_DS3505
ZGSZ,2001-04-03 23:00,ZGSZ 032300Z AUTO 15008KT 2SM 24/24 A2983 RMK T02400240 IEM_DS3505
ZGSZ,2001-04-04 00:00,ZGSZ 040000Z AUTO 09008KT 9SM 21/19 A2985 RMK 60016 SLP129 T02070188 52030 IEM_DS3505
ZGSZ,2001-04-04 01:00,ZGSZ 040100Z AUTO 10019KT 7SM 22/21 A2985 RMK T02200210 IEM_DS3505
ZGSZ,2001-04-04 02:00,ZGSZ 040200Z AUTO 10017KT 7SM 22/20 A2985 RMK T02200200 IEM_DS3505
ZGSZ,2001-04-04 03:00,ZGSZ 040300Z AUTO 07006KT 12SM 20/18 RMK SLP126 T02040182 57003 IEM_DS3505
ZGSZ,2001-04-04 04:00,ZGSZ 040400Z AUTO 02014KT 2SM RMK IEM_DS3505
ZGSZ,2001-04-04 05:00,ZGSZ 040500Z AUTO 03006KT 3SM 21/21 A2991 RMK T02100210 IEM_DS3505
ZGSZ,2001-04-04 06:00,ZGSZ 040600Z AUTO 00000KT 4SM 20/19 A2988 RMK 60118 SLP131 T01990191 52005 IEM_DS3505
ZGSZ,2001-04-04 07:00,ZGSZ 040700Z AUTO 01010KT 7SM 20/20 A2991 RMK T02000200 IEM_DS3505
ZGSZ,2001-04-04 08:00,ZGSZ 040800Z AUTO 05008KT 4SM 20/20 A2988 RMK T02000200 IEM_DS3505
ZGSZ,2001-04-04 09:00,ZGSZ 040900Z AUTO 09002KT 4SM 20/20 A2988 RMK SLP120 T02010196 57011 IEM_DS3505
ZGSZ,2001-04-04 10:00,ZGSZ 041000Z AUTO 07006KT 7SM 21/20 A2985 RMK T02100200 IEM_DS3505
ZGSZ,2001-04-04 11:00,ZGSZ 041100Z AUTO 07004KT 7SM 21/20 A2988 RMK T02100200 IEM_DS3505
ZGSZ,2001-04-04 12:00,ZGSZ 041200Z AUTO 04008KT 16SM 20/18 A2988 RMK 60035 SLP124 T01990181 52004 IEM_DS3505
ZGSZ,2001-04-04 13:00,ZGSZ 041300Z AUTO 11006KT 7SM 21/20 A2991 RMK T02100200 IEM_DS3505
ZGSZ,2001-04-04 14:00,ZGSZ 041400Z AUTO 09004KT 7SM 20/20 A2994 RMK T02000200 IEM_DS3505
ZGSZ,2001-04-04 15:00,ZGSZ 041500Z AUTO 04004KT 7SM 21/20 A2994 RMK T02100200 IEM_DS3505
ZGSZ,2001-04-04 16:00,ZGSZ 041600Z AUTO 36004KT 7SM 21/20 A2994 RMK T02100200 IEM_DS3505
ZGSZ,2001-04-04 17:00,ZGSZ 041700Z AUTO 03006KT 20/20 A2991 RMK T02000200 IEM_DS3505
ZGSZ,2001-04-04 18:00,ZGSZ 041800Z AUTO 02002KT 4SM 19/18 A2991 RMK 60020 SLP136 T01920182 57005 IEM_DS3505
ZGSZ,2001-04-04 19:00,ZGSZ 041900Z AUTO 09002KT 1 1/2SM 19/19 A2991 RMK T01900190 IEM_DS3505
ZGSZ,2001-04-04 20:00,ZGSZ 042000Z AUTO 02002KT 2SM 19/19 A2988 RMK T01900190 IEM_DS3505
ZGSZ,2001-04-04 21:00,ZGSZ 042100Z AUTO 04002KT 3SM 19/18 A2991 RMK 70231 SLP128 T01890183 57008 IEM_DS3505
ZGSZ,2001-04-04 22:00,ZGSZ 042200Z AUTO 10004KT 1 1/2SM 19/19 A2991 RMK T01900190 IEM_DS3505
ZGSZ,2001-04-04 23:00,ZGSZ 042300Z AUTO 00000KT 3SM 19/19 A2994 RMK T01900190 IEM_DS3505
ZGSZ,2001-04-05 00:00,ZGSZ 050000Z AUTO 09002KT 3SM 19/19 A2994 RMK 60079 SLP150 T01930187 52022 IEM_DS3505
ZGSZ,2001-04-05 01:00,ZGSZ 050100Z AUTO 00000KT 7SM 20/20 A2997 RMK T02000200 IEM_DS3505
ZGSZ,2001-04-05 02:00,ZGSZ 050200Z AUTO 10002KT 7SM 21/20 A2997 RMK T02100200 IEM_DS3505
ZGSZ,2001-04-05 03:00,ZGSZ 050300Z AUTO 07006KT 4SM 20/18 A2997 RMK SLP157 T02030181 52007 IEM_DS3505
ZGSZ,2001-04-05 04:00,ZGSZ 050400Z AUTO 36006KT 7SM 22/20 A2997 RMK T02200200 IEM_DS3505
ZGSZ,2001-04-05 05:00,ZGSZ 050500Z AUTO 08002KT 7SM 22/20 A2994 RMK T02200200 IEM_DS3505
ZGSZ,2001-04-05 06:00,ZGSZ 050600Z AUTO 14004KT 9SM 22/18 A2991 RMK 60000 SLP138 T02160183 57019 IEM_DS3505
ZGSZ,2001-04-05 07:00,ZGSZ 050700Z AUTO 36006KT 7SM 23/21 A2988 RMK T02300210 IEM_DS3505
ZGSZ,2001-04-05 08:00,ZGSZ 050800Z AUTO 02006KT 4SM 23/21 A2988 RMK T02300210 IEM_DS3505
ZGSZ,2001-04-05 09:00,ZGSZ 050900Z AUTO 09004KT 12SM 22/18 A2988 RMK SLP127 T02210178 57011 IEM_DS3505
ZGSZ,2001-04-05 10:00,ZGSZ 051000Z AUTO 17002KT 3SM 23/21 A2988 RMK T02300210 IEM_DS3505
ZGSZ,2001-04-05 11:00,ZGSZ 051100Z AUTO 11004KT 4SM 23/21 A2988 RMK T02300210 IEM_DS3505
ZGSZ,2001-04-05 12:00,ZGSZ 051200Z AUTO 09006KT 11SM 21/18 A2991 RMK SLP136 T02120177 52009 IEM_DS3505
ZGSZ,2001-04-05 13:00,ZGSZ 051300Z AUTO 09002KT 7SM 22/20 A2994 RMK T02200200 IEM_DS3505
ZGSZ,2001-04-05 14:00,ZGSZ 051400Z AUTO 11004KT 4SM 22/20 A2997 RMK T02200200 IEM_DS3505
ZGSZ,2001-04-05 15:00,ZGSZ 051500Z AUTO 10006KT 3SM 21/20 A2997 RMK T02100200 IEM_DS3505
ZGSZ,2001-04-05 16:00,ZGSZ 051600Z AUTO 13006KT 21/20 A2994 RMK T02100200 IEM_DS3505
ZGSZ,2001-04-05 17:00,ZGSZ 051700Z AUTO 14008KT 21/20 A2991 RMK T02100200 IEM_DS3505
ZGSZ,2001-04-05 18:00,ZGSZ 051800Z AUTO 09008KT 9SM 20/18 A2991 RMK 60003 SLP125 T02050181 57030 IEM_DS3505
ZGSZ,2001-04-05 19:00,ZGSZ 051900Z AUTO 14006KT 4SM 21/20 A2985 RMK T02100200 IEM_DS3505
ZGSZ,2001-04-05 20:00,ZGSZ 052000Z AUTO 08002KT 4SM 21/20 A2985 RMK T02100200 IEM_DS3505
ZGSZ,2001-04-05 21:00,ZGSZ 052100Z AUTO 09008KT 9SM 21/18 A2985 RMK 70035 SLP116 T02060184 57009 IEM_DS3505
ZGSZ,2001-04-05 22:00,ZGSZ 052200Z AUTO 34004KT 6SM 21/20 A2988 RMK T02100200 IEM_DS3505
ZGSZ,2001-04-05 23:00,ZGSZ 052300Z AUTO 04002KT 7SM 21/20 A2991 RMK T02100200 IEM_DS3505
ZGSZ,2001-04-06 00:00,ZGSZ 060000Z AUTO 11006KT 4SM 21/19 A2994 RMK 70000 SLP135 T02130194 52019 IEM_DS3505
ZGSZ,2001-04-06 01:00,ZGSZ 060100Z AUTO 04006KT 3SM 21/20 A2997 RMK T02100200 IEM_DS3505
ZGSZ,2001-04-06 02:00,ZGSZ 060200Z AUTO 01010KT 1 1/2SM 21/20 A3000 RMK T02100200 IEM_DS3505
ZGSZ,2001-04-06 03:00,ZGSZ 060300Z AUTO 04006KT 2 1/2SM 21/20 A2997 RMK SLP158 T02090200 52023 IEM_DS3505
ZGSZ,2001-04-06 04:00,ZGSZ 060400Z AUTO 08006KT 2SM 21/21 A2997 RMK T02100210 IEM_DS3505
ZGSZ,2001-04-06 05:00,ZGSZ 060500Z AUTO 07006KT 2 1/2SM 21/20 A2994 RMK T02100200 IEM_DS3505
ZGSZ,2001-04-06 06:00,ZGSZ 060600Z AUTO 09004KT 6SM 20/19 A2991 RMK 60008 SLP132 T02050191 57026 IEM_DS3505
ZGSZ,2001-04-06 07:00,ZGSZ 060700Z AUTO 04004KT 2SM 20/20 A2988 RMK T02000200 IEM_DS3505
ZGSZ,2001-04-06 08:00,ZGSZ 060800Z AUTO 07008KT 4SM 21/21 A2988 RMK T02100210 IEM_DS3505
ZGSZ,2001-04-06 09:00,ZGSZ 060900Z AUTO 09004KT 7SM 20/19 A2988 RMK SLP120 T02010188 57012 IEM_DS3505
ZGSZ,2001-04-06 10:00,ZGSZ 061000Z AUTO 07006KT 1 1/2SM 21/20 A2988 RMK T02100200 IEM_DS3505
ZGSZ,2001-04-06 11:00,ZGSZ 061100Z AUTO 09006KT 1 1/4SM 20/20 A2988 RMK T02000200 IEM_DS3505
ZGSZ,2001-04-06 12:00,ZGSZ 061200Z AUTO 11006KT 9SM 20/18 A2991 RMK 60004 SLP134 T01990185 52014 IEM_DS3505
ZGSZ,2001-04-06 13:00,ZGSZ 061300Z AUTO 10006KT 2SM 21/20 A2991 RMK T02100200 IEM_DS3505
ZGSZ,2001-04-06 14:00,ZGSZ 061400Z AUTO 05004KT 2SM 21/20 A2994 RMK T02100200 IEM_DS3505
ZGSZ,2001-04-06 15:00,ZGSZ 061500Z AUTO 08002KT 1 1/2SM 21/20 A2994 RMK T02100200 IEM_DS3505
ZGSZ,2001-04-06 16:00,ZGSZ 061600Z AUTO 36004KT 1 1/2SM 21/20 A2994 RMK T02100200 IEM_DS3505
ZGSZ,2001-04-06 17:00,ZGSZ 061700Z AUTO 02002KT 1 1/4SM 20/20 A2994 RMK T02000200 IEM_DS3505
ZGSZ,2001-04-06 18:00,ZGSZ 061800Z AUTO 07004KT 3SM 20/19 A2991 RMK 60000 SLP134 T01990190 57013 IEM_DS3505
ZGSZ,2001-04-06 19:00,ZGSZ 061900Z AUTO 36004KT 1 1/4SM 20/20 A2988 RMK T02000200 IEM_DS3505
ZGSZ,2001-04-06 20:00,ZGSZ 062000Z AUTO 07002KT 1 1/4SM 20/20 A2988 RMK T02000200 IEM_DS3505
ZGSZ,2001-04-06 21:00,ZGSZ 062100Z AUTO 04004KT 2 1/2SM 20/19 RMK 70012 SLP130 T01990190 57004 IEM_DS3505
ZGSZ,2001-04-06 22:00,ZGSZ 062200Z AUTO 08002KT 1 1/2SM 20/20 A2991 RMK T02000200 IEM_DS3505
ZGSZ,2001-04-06 23:00,ZGSZ 062300Z AUTO 11004KT 1SM 20/20 A2991 RMK T02000200 IEM_DS3505
ZGSZ,2001-04-07 00:00,ZGSZ 070000Z AUTO 04004KT 3SM 20/19 A2994 RMK 60000 SLP142 T02020193 52012 IEM_DS3505
ZGSZ,2001-04-07 01:00,ZGSZ 070100Z AUTO 12004KT 2SM 21/21 A2994 RMK T02100210 IEM_DS3505
ZGSZ,2001-04-07 02:00,ZGSZ 070200Z AUTO 27002KT 1 1/2SM 22/21 A2994 RMK T02200210 IEM_DS3505
ZGSZ,2001-04-07 03:00,ZGSZ 070300Z AUTO 09002KT 7SM 22/20 A2991 RMK SLP138 T02190199 57004 IEM_DS3505
ZGSZ,2001-04-07 04:00,ZGSZ 070400Z AUTO 23004KT 2SM 23/22 A2988 RMK T02300220 IEM_DS3505
ZGSZ,2001-04-07 05:00,ZGSZ 070500Z AUTO 26004KT 2SM 23/22 A2985 RMK T02300220 IEM_DS3505
ZGSZ,2001-04-07 06:00,ZGSZ 070600Z AUTO 11004KT 6SM 23/21 A2985 RMK SLP115 T02300206 57023 IEM_DS3505
ZGSZ,2001-04-07 07:00,ZGSZ 070700Z AUTO 24002KT 2SM 22/22 A2983 RMK T02200220 IEM_DS3505
ZGSZ,2001-04-07 08:00,ZGSZ 070800Z AUTO 18002KT 2SM 22/22 A2980 RMK T02200220 IEM_DS3505
ZGSZ,2001-04-07 09:00,ZGSZ 070900Z AUTO 09006KT 4SM 22/20 A2980 RMK SLP099 T02180201 57016 IEM_DS3505
ZGSZ,2001-04-07 10:00,ZGSZ 071000Z AUTO 00000KT 1 1/4SM 23/22 A2980 RMK T02300220 IEM_DS3505
ZGSZ,2001-04-07 11:00,ZGSZ 071100Z AUTO 11004KT 1 1/4SM 22/22 A2980 RMK T02200220 IEM_DS3505
ZGSZ,2001-04-07 12:00,ZGSZ 071200Z AUTO 09006KT 3SM 21/20 A2983 RMK 60003 SLP102 T02120198 52003 IEM_DS3505
ZGSZ,2001-04-07 13:00,ZGSZ 071300Z AUTO 11008KT 2SM 22/22 A2983 RMK T02200220 IEM_DS3505
ZGSZ,2001-04-07 14:00,ZGSZ 071400Z AUTO 11008KT 3SM 22/22 A2983 RMK T02200220 IEM_DS3505
ZGSZ,2001-04-07 15:00,ZGSZ 071500Z AUTO 12008KT 7SM 23/22 A2983 RMK T02300220 IEM_DS3505
ZGSZ,2001-04-07 16:00,ZGSZ 071600Z AUTO 09008KT 7SM 23/22 A2983 RMK T02300220 IEM_DS3505
ZGSZ,2001-04-07 17:00,ZGSZ 071700Z AUTO 10008KT 7SM 23/22 A2980 RMK T02300220 IEM_DS3505
ZGSZ,2001-04-07 18:00,ZGSZ 071800Z AUTO 07006KT 3SM 22/21 A2977 RMK SLP090 T02170206 57023 IEM_DS3505
ZGSZ,2001-04-07 19:00,ZGSZ 071900Z AUTO 12008KT 23/23 A2974 RMK T02300230 IEM_DS3505
ZGSZ,2001-04-07 20:00,ZGSZ 072000Z AUTO 12008KT 23/23 A2971 RMK T02300230 IEM_DS3505
ZGSZ,2001-04-07 21:00,ZGSZ 072100Z AUTO 09004KT 3SM 22/21 A2971 RMK 70001 SLP070 T02190211 57020 IEM_DS3505
ZGSZ,2001-04-07 22:00,ZGSZ 072200Z AUTO 14008KT 7SM 23/23 A2971 RMK T02300230 IEM_DS3505
ZGSZ,2001-04-07 23:00,ZGSZ 072300Z AUTO 13010KT 7SM 24/24 A2971 RMK T02400240 IEM_DS3505
ZGSZ,2001-04-08 00:00,ZGSZ 080000Z AUTO 09004KT 2 1/2SM 23/22 A2971 RMK 60003 SLP072 T02270218 52002 IEM_DS3505
ZGSZ,2001-04-08 01:00,ZGSZ 080100Z AUTO 16014KT 7SM 25/24 A2971 RMK T02500240 IEM_DS3505
ZGSZ,2001-04-08 02:00,ZGSZ 080200Z AUTO 17014KT 7SM 25/25 A2971 RMK T02500250 IEM_DS3505
ZGSZ,2001-04-08 03:00,ZGSZ 080300Z AUTO 22006KT 8SM 26/23 A2974 RMK SLP071 T02580226 54000 IEM_DS3505
ZGSZ,2001-04-08 04:00,ZGSZ 080400Z AUTO 18012KT 3SM 25/25 A2971 RMK T02500250 IEM_DS3505
ZGSZ,2001-04-08 05:00,ZGSZ 080500Z AUTO 18010KT 7SM 25/25 A2971 RMK T02500250 IEM_DS3505
ZGSZ,2001-04-08 06:00,ZGSZ 080600Z AUTO 22006KT 12SM 26/23 A2965 RMK 60003 SLP050 T02600229 57021 IEM_DS3505
ZGSZ,2001-04-08 07:00,ZGSZ 080700Z AUTO 18010KT 7SM 25/25 A2962 RMK T02500250 IEM_DS3505
ZGSZ,2001-04-08 08:00,ZGSZ 080800Z AUTO 17008KT 7SM 25/25 A2962 RMK T02500250 IEM_DS3505
ZGSZ,2001-04-08 09:00,ZGSZ 080900Z AUTO 20004KT 12SM 26/23 A2962 RMK SLP037 T02600232 57013 IEM_DS3505
ZGSZ,2001-04-08 10:00,ZGSZ 081000Z AUTO 16008KT 7SM 25/25 A2965 RMK T02500250 IEM_DS3505
ZGSZ,2001-04-08 11:00,ZGSZ 081100Z AUTO 15010KT 3SM 25/25 A2965 RMK T02500250 IEM_DS3505
ZGSZ,2001-04-08 12:00,ZGSZ 081200Z AUTO 18002KT 5SM 26/24 A2968 RMK SLP054 T02580236 52017 IEM_DS3505
ZGSZ,2001-04-08 13:00,ZGSZ 081300Z AUTO 14008KT 7SM 25/25 A2971 RMK T02500250 IEM_DS3505
ZGSZ,2001-04-08 14:00,ZGSZ 081400Z AUTO 15008KT 7SM 25/25 A2971 RMK T02500250 IEM_DS3505
ZGSZ,2001-04-08 15:00,ZGSZ 081500Z AUTO 15006KT 7SM 25/25 A2971 RMK T02500250 IEM_DS3505
ZGSZ,2001-04-08 16:00,ZGSZ 081600Z AUTO 15004KT 3SM 25/25 A2971 RMK T02500250 IEM_DS3505
ZGSZ,2001-04-08 17:00,ZGSZ 081700Z AUTO 15004KT 4SM 25/25 A2971 RMK T02500250 IEM_DS3505
ZGSZ,2001-04-08 18:00,ZGSZ 081800Z AUTO 00000KT 2 1/2SM 25/24 A2971 RMK 60008 SLP065 T02460239 57001 IEM_DS3505
ZGSZ,2001-04-08 19:00,ZGSZ 081900Z AUTO 13002KT 25/25 A2971 RMK T02500250 IEM_DS3505
ZGSZ,2001-04-08 20:00,ZGSZ 082000Z AUTO 15004KT 25/25 A2971 RMK T02500250 IEM_DS3505
ZGSZ,2001-04-08 21:00,ZGSZ 082100Z AUTO 07002KT 2SM 24/24 A2971 RMK 70014 SLP064 T02430239 57001 IEM_DS3505
ZGSZ,2001-04-08 22:00,ZGSZ 082200Z AUTO 13002KT 1 1/4SM 25/25 A2974 RMK T02500250 IEM_DS3505
ZGSZ,2001-04-08 23:00,ZGSZ 082300Z AUTO 09004KT 1SM 25/25 A2974 RMK T02500250 IEM_DS3505
ZGSZ,2001-04-09 00:00,ZGSZ 090000Z AUTO 07004KT 2 1/2SM 25/24 A2977 RMK 60008 SLP085 T02470240 52021 IEM_DS3505
ZGSZ,2001-04-09 01:00,ZGSZ 090100Z AUTO 07004KT 1 1/2SM 27/26 A2980 RMK T02700260 IEM_DS3505
ZGSZ,2001-04-09 02:00,ZGSZ 090200Z AUTO 11006KT 2 1/2SM 28/27 A2980 RMK T02800270 IEM_DS3505
ZGSZ,2001-04-09 03:00,ZGSZ 090300Z AUTO 14006KT 5SM 25/23 A2980 RMK SLP096 T02490228 52011 IEM_DS3505
ZGSZ,2001-04-09 04:00,ZGSZ 090400Z AUTO 12008KT 4SM 29/27 A2977 RMK T02900270 IEM_DS3505
ZGSZ,2001-04-09 05:00,ZGSZ 090500Z AUTO 12006KT 4SM 28/26 A2977 RMK T02800260 IEM_DS3505
ZGSZ,2001-04-09 06:00,ZGSZ 090600Z AUTO 14010KT 4SM 24/22 A2977 RMK SLP088 T02360215 57008 IEM_DS3505
ZGSZ,2001-04-09 07:00,ZGSZ 090700Z AUTO 11010KT 7SM 25/24 A2974 RMK T02500240 IEM_DS3505
ZGSZ,2001-04-09 08:00,ZGSZ 090800Z AUTO 09023KT 1/4SM 23/23 A2977 RMK T02300230 IEM_DS3505
ZGSZ,2001-04-09 09:00,ZGSZ 090900Z AUTO 09010KT 2SM 22/22 A2974 RMK SLP085 T02220216 57003 IEM_DS3505
ZGSZ,2001-04-09 10:00,ZGSZ 091000Z AUTO 12006KT 7SM 23/23 A2977 RMK T02300230 IEM_DS3505
ZGSZ,2001-04-09 11:00,ZGSZ 091100Z AUTO 11006KT 7SM 24/24 A2977 RMK T02400240 IEM_DS3505
ZGSZ,2001-04-09 12:00,ZGSZ 091200Z AUTO 11008KT 7SM 22/21 A2980 RMK 60350 SLP109 T02250211 52024 IEM_DS3505
ZGSZ,2001-04-09 13:00,ZGSZ 091300Z AUTO 09012KT 7SM 24/23 A2980 RMK T02400230 IEM_DS3505
ZGSZ,2001-04-09 14:00,ZGSZ 091400Z AUTO 09012KT 7SM 24/23 A2983 RMK T02400230 IEM_DS3505
ZGSZ,2001-04-09 15:00,ZGSZ 091500Z AUTO 10010KT 7SM 24/23 A2985 RMK T02400230 IEM_DS3505
ZGSZ,2001-04-09 16:00,ZGSZ 091600Z AUTO 10010KT 7SM 24/23 A2985 RMK T02400230 IEM_DS3505
ZGSZ,2001-04-09 18:00,ZGSZ 091800Z AUTO 09008KT 12SM 22/20 RMK SLP117 T02170200 57006 IEM_DS3505
ZGSZ,2001-04-09 21:00,ZGSZ 092100Z AUTO 11010KT 14SM 22/20 RMK 70349 SLP110 T02190196 57007 IEM_DS3505
ZGSZ,2001-04-09 23:00,ZGSZ 092300Z AUTO 09014KT 7SM 23/21 A2985 RMK T02300210 IEM_DS3505
ZGSZ,2001-04-10 00:00,ZGSZ 100000Z AUTO 11010KT 12SM 23/17 A2988 RMK 70349 SLP133 T02270169 52023 IEM_DS3505
ZGSZ,2001-04-10 01:00,ZGSZ 100100Z AUTO 12012KT 7SM 24/20 A2991 RMK T02400200 IEM_DS3505
ZGSZ,2001-04-10 02:00,ZGSZ 100200Z AUTO 10010KT 7SM 25/21 A2991 RMK T02500210 IEM_DS3505
ZGSZ,2001-04-10 03:00,ZGSZ 100300Z AUTO 11008KT 10SM 24/19 A2991 RMK SLP136 T02360186 52003 IEM_DS3505
ZGSZ,2001-04-10 04:00,ZGSZ 100400Z AUTO 10010KT 7SM 26/22 A2991 RMK T02600220 IEM_DS3505
ZGSZ,2001-04-10 05:00,ZGSZ 100500Z AUTO 11012KT 6SM 26/22 A2988 RMK T02600220 IEM_DS3505
ZGSZ,2001-04-10 06:00,ZGSZ 100600Z AUTO 09008KT 14SM 24/18 A2985 RMK SLP116 T02390184 57020 IEM_DS3505
ZGSZ,2001-04-10 07:00,ZGSZ 100700Z AUTO 10008KT 7SM 25/22 A2983 RMK T02500220 IEM_DS3505
ZGSZ,2001-04-10 08:00,ZGSZ 100800Z AUTO 09010KT 6SM 24/22 A2983 RMK T02400220 IEM_DS3505
ZGSZ,2001-04-10 09:00,ZGSZ 100900Z AUTO 11006KT 11SM 22/19 RMK SLP110 T02240190 57006 IEM_DS3505
ZGSZ,2001-04-10 10:00,ZGSZ 101000Z AUTO 11010KT 7SM 23/21 A2985 RMK T02300210 IEM_DS3505
ZGSZ,2001-04-10 11:00,ZGSZ 101100Z AUTO 11008KT 7SM 23/21 A2985 RMK T02300210 IEM_DS3505
ZGSZ,2001-04-10 12:00,ZGSZ 101200Z AUTO 14006KT 5SM 22/20 A2988 RMK SLP127 T02210198 52017 IEM_DS3505
ZGSZ,2001-04-10 13:00,ZGSZ 101300Z AUTO 12008KT 7SM 23/22 A2991 RMK T02300220 IEM_DS3505
ZGSZ,2001-04-10 14:00,ZGSZ 101400Z AUTO 10004KT 7SM 23/22 A2991 RMK T02300220 IEM_DS3505
ZGSZ,2001-04-10 15:00,ZGSZ 101500Z AUTO 07002KT 7SM 22/22 A2994 RMK T02200220 IEM_DS3505
ZGSZ,2001-04-10 16:00,ZGSZ 101600Z AUTO 02008KT 1 1/4SM 21/21 A2994 RMK T02100210 IEM_DS3505
ZGSZ,2001-04-10 17:00,ZGSZ 101700Z AUTO 02006KT 21/21 A2994 RMK T02100210 IEM_DS3505
ZGSZ,2001-04-10 18:00,ZGSZ 101800Z AUTO 11002KT 3SM 21/20 A2994 RMK 60008 SLP140 T02080199 57004 IEM_DS3505
ZGSZ,2001-04-10 19:00,ZGSZ 101900Z AUTO 10004KT 1 1/2SM 21/21 A2991 RMK T02100210 IEM_DS3505
ZGSZ,2001-04-10 20:00,ZGSZ 102000Z AUTO 31006KT 2SM 21/21 A2991 RMK T02100210 IEM_DS3505
ZGSZ,2001-04-10 21:00,ZGSZ 102100Z AUTO 00000KT 2 1/2SM 21/20 A2994 RMK 70013 SLP136 T02070201 57004 IEM_DS3505
ZGSZ,2001-04-10 22:00,ZGSZ 102200Z AUTO 31016KT 1 1/2SM 18/18 A2997 RMK T01800180 IEM_DS3505
ZGSZ,2001-04-10 23:00,ZGSZ 102300Z AUTO 32016KT 1 1/4SM 16/16 A3000 RMK T01600160 IEM_DS3505
ZGSZ,2001-04-11 00:00,ZGSZ 110000Z AUTO 32004KT 4SM 18/18 A3003 RMK 60016 SLP168 T01840176 52032 IEM_DS3505
ZGSZ,2001-04-11 01:00,ZGSZ 110100Z AUTO 32017KT 1 1/4SM 15/15 A3006 RMK T01500150 IEM_DS3505
ZGSZ,2001-04-11 02:00,ZGSZ 110200Z AUTO 33016KT 1 1/2SM 14/14 A3009 RMK T01400140 IEM_DS3505
ZGSZ,2001-04-11 03:00,ZGSZ 110300Z AUTO 34004KT 4SM 16/14 A3009 RMK SLP184 T01560142 52015 IEM_DS3505
ZGSZ,2001-04-11 04:00,ZGSZ 110400Z AUTO 35014KT 7SM 16/14 A3006 RMK T01600140 IEM_DS3505
ZGSZ,2001-04-11 05:00,ZGSZ 110500Z AUTO 34010KT 7SM 17/14 A3006 RMK T01700140 IEM_DS3505
ZGSZ,2001-04-11 06:00,ZGSZ 110600Z AUTO 36006KT 7SM 17/13 A3003 RMK 60002 SLP172 T01670126 57012 IEM_DS3505
ZGSZ,2001-04-11 07:00,ZGSZ 110700Z AUTO 34014KT 6SM 16/13 A3000 RMK T01600130 IEM_DS3505
ZGSZ,2001-04-11 08:00,ZGSZ 110800Z AUTO 34012KT 6SM 17/12 A3000 RMK T01700120 IEM_DS3505
ZGSZ,2001-04-11 09:00,ZGSZ 110900Z AUTO 32006KT 16SM 18/12 A3000 RMK SLP159 T01760120 57012 IEM_DS3505
ZGSZ,2001-04-11 10:00,ZGSZ 111000Z AUTO 34012KT 7SM 17/13 A3000 RMK T01700130 IEM_DS3505
ZGSZ,2001-04-11 11:00,ZGSZ 111100Z AUTO 35010KT 7SM 16/13 A3003 RMK T01600130 IEM_DS3505
ZGSZ,2001-04-11 12:00,ZGSZ 111200Z AUTO 04010KT 16SM 15/10 A3003 RMK SLP170 T01540105 52010 IEM_DS3505
ZGSZ,2001-04-11 13:00,ZGSZ 111300Z AUTO 03010KT 7SM 15/12 A3006 RMK T01500120 IEM_DS3505
ZGSZ,2001-04-11 14:00,ZGSZ 111400Z AUTO 36012KT 7SM 15/12 A3006 RMK T01500120 IEM_DS3505
ZGSZ,2001-04-11 15:00,ZGSZ 111500Z AUTO 01014KT 6SM 15/11 A3009 RMK T01500110 IEM_DS3505
ZGSZ,2001-04-11 16:00,ZGSZ 111600Z AUTO 01014KT 14/11 A3009 RMK T01400110 IEM_DS3505
ZGSZ,2001-04-11 17:00,ZGSZ 111700Z AUTO 01012KT 15/10 A3006 RMK T01500100 IEM_DS3505
ZGSZ,2001-04-11 18:00,ZGSZ 111800Z AUTO 04010KT 16SM 14/08 A3003 RMK SLP177 T01430076 57014 IEM_DS3505
ZGSZ,2001-04-11 19:00,ZGSZ 111900Z AUTO 01014KT 6SM 14/10 A3006 RMK T01400100 IEM_DS3505
ZGSZ,2001-04-11 20:00,ZGSZ 112000Z AUTO 36010KT 6SM 14/10 A3003 RMK T01400100 IEM_DS3505
ZGSZ,2001-04-11 21:00,ZGSZ 112100Z AUTO 04012KT 16SM 14/07 A3003 RMK 70011 SLP171 T01390069 57006 IEM_DS3505
ZGSZ,2001-04-11 22:00,ZGSZ 112200Z AUTO 36010KT 6SM 13/10 A3006 RMK T01300100 IEM_DS3505
ZGSZ,2001-04-11 23:00,ZGSZ 112300Z AUTO 01012KT 6SM 13/09 A3006 RMK T01300090 IEM_DS3505
ZGSZ,2001-04-12 00:00,ZGSZ 120000Z AUTO 02012KT 12SM 14/04 A3009 RMK 70002 SLP196 T01360045 52025 IEM_DS3505
ZGSZ,2001-04-12 01:00,ZGSZ 120100Z AUTO 01012KT 6SM 15/08 A3012 RMK T01500080 IEM_DS3505
ZGSZ,2001-04-12 02:00,ZGSZ 120200Z AUTO 01014KT 6SM 17/07 A3009 RMK T01700070 IEM_DS3505
ZGSZ,2001-04-12 03:00,ZGSZ 120300Z AUTO 04006KT 12SM 18/05 A3009 RMK SLP190 T01770047 57006 IEM_DS3505
ZGSZ,2001-04-12 04:00,ZGSZ 120400Z AUTO 01010KT 6SM 19/08 A3006 RMK T01900080 IEM_DS3505
ZGSZ,2001-04-12 05:00,ZGSZ 120500Z AUTO 20004KT 7SM RMK 57010 IEM_DS3505
ZGSZ,2001-04-12 06:00,ZGSZ 120600Z AUTO 04006KT 8SM 22/09 A3000 RMK SLP159 T02170090 57031 IEM_DS3505
ZGSZ,2001-04-12 07:00,ZGSZ 120700Z AUTO 30010KT 6SM 22/10 A2997 RMK T02200100 IEM_DS3505
ZGSZ,2001-04-12 08:00,ZGSZ 120800Z AUTO 28008KT 6SM 22/10 A2994 RMK T02200100 IEM_DS3505
ZGSZ,2001-04-12 09:00,ZGSZ 120900Z AUTO 20004KT 7SM 22/11 A2994 RMK SLP149 T02230108 57010 IEM_DS3505
ZGSZ,2001-04-12 10:00,ZGSZ 121000Z AUTO 31008KT 6SM 21/11 A2997 RMK T02100110 IEM_DS3505
ZGSZ,2001-04-12 11:00,ZGSZ 121100Z AUTO 32004KT 6SM 19/13 A2997 RMK T01900130 IEM_DS3505
ZGSZ,2001-04-12 12:00,ZGSZ 121200Z AUTO 09004KT 6SM 19/11 A3000 RMK SLP162 T01930107 52013 IEM_DS3505
ZGSZ,2001-04-12 13:00,ZGSZ 121300Z AUTO 11004KT 6SM 18/12 A3000 RMK T01800120 IEM_DS3505
ZGSZ,2001-04-12 14:00,ZGSZ 121400Z AUTO 12004KT 3SM 17/13 A3003 RMK T01700130 IEM_DS3505
ZGSZ,2001-04-12 15:00,ZGSZ 121500Z AUTO 12004KT 2 1/2SM 17/14 A3003 RMK T01700140 IEM_DS3505
ZGSZ,2001-04-12 16:00,ZGSZ 121600Z AUTO 10004KT 2 1/2SM 17/14 A3003 RMK T01700140 IEM_DS3505
ZGSZ,2001-04-12 17:00,ZGSZ 121700Z AUTO 10004KT 18/14 A3000 RMK T01800140 IEM_DS3505
ZGSZ,2001-04-12 18:00,ZGSZ 121800Z AUTO 04004KT 7SM 18/14 A3000 RMK SLP161 T01820137 57011 IEM_DS3505
ZGSZ,2001-04-12 19:00,ZGSZ 121900Z AUTO 03004KT 2 1/2SM 18/14 A2997 RMK T01800140 IEM_DS3505
ZGSZ,2001-04-12 20:00,ZGSZ 122000Z AUTO 00000KT 2 1/2SM 17/15 A2997 RMK T01700150 IEM_DS3505
ZGSZ,2001-04-12 21:00,ZGSZ 122100Z AUTO 04004KT 6SM 18/14 A2997 RMK SLP155 T01790141 57006 IEM_DS3505
ZGSZ,2001-04-12 22:00,ZGSZ 122200Z AUTO 01004KT 4SM 18/15 A3000 RMK T01800150 IEM_DS3505
ZGSZ,2001-04-12 23:00,ZGSZ 122300Z AUTO 03004KT 5SM 18/16 A3000 RMK T01800160 IEM_DS3505
ZGSZ,2001-04-13 00:00,ZGSZ 130000Z AUTO 04002KT 7SM 18/15 A3003 RMK SLP173 T01820146 52017 IEM_DS3505
ZGSZ,2001-04-13 01:00,ZGSZ 130100Z AUTO 04004KT 5SM 19/16 A3003 RMK T01900160 IEM_DS3505
ZGSZ,2001-04-13 02:00,ZGSZ 130200Z AUTO 09004KT 7SM 19/17 A3006 RMK T01900170 IEM_DS3505
ZGSZ,2001-04-13 03:00,ZGSZ 130300Z AUTO 11006KT 7SM 19/15 A3003 RMK SLP176 T01930147 52003 IEM_DS3505
ZGSZ,2001-04-13 04:00,ZGSZ 130400Z AUTO 09006KT 7SM 20/17 A3003 RMK T02000170 IEM_DS3505
ZGSZ,2001-04-13 05:00,ZGSZ 130500Z AUTO 08004KT 7SM 21/17 A3000 RMK T02100170 IEM_DS3505
ZGSZ,2001-04-13 06:00,ZGSZ 130600Z AUTO 04008KT 9SM 21/15 A2997 RMK SLP158 T02100147 57017 IEM_DS3505
ZGSZ,2001-04-13 07:00,ZGSZ 130700Z AUTO 36004KT 7SM 21/18 A2997 RMK T02100180 IEM_DS3505
ZGSZ,2001-04-13 08:00,ZGSZ 130800Z AUTO 02006KT 7SM 21/17 A2997 RMK T02100170 IEM_DS3505
ZGSZ,2001-04-13 09:00,ZGSZ 130900Z AUTO 18004KT 7SM 20/14 A2997 RMK SLP153 T02030141 57005 IEM_DS3505
ZGSZ,2001-04-13 10:00,ZGSZ 131000Z AUTO 05006KT 7SM 20/17 A2997 RMK T02000170 IEM_DS3505
ZGSZ,2001-04-13 11:00,ZGSZ 131100Z AUTO 04004KT 7SM 20/16 A3000 RMK T02000160 IEM_DS3505
ZGSZ,2001-04-13 12:00,ZGSZ 131200Z AUTO 07004KT 8SM 20/15 A3000 RMK SLP168 T01990148 52015 IEM_DS3505
ZGSZ,2001-04-13 13:00,ZGSZ 131300Z AUTO 03002KT 7SM 20/16 A3003 RMK T02000160 IEM_DS3505
ZGSZ,2001-04-13 14:00,ZGSZ 131400Z AUTO 04002KT 7SM 20/16 A3003 RMK T02000160 IEM_DS3505
ZGSZ,2001-04-13 15:00,ZGSZ 131500Z AUTO 06002KT 7SM 20/16 A3003 RMK T02000160 IEM_DS3505
ZGSZ,2001-04-13 16:00,ZGSZ 131600Z AUTO 00000KT 6SM 19/17 A3006 RMK T01900170 IEM_DS3505
ZGSZ,2001-04-13 17:00,ZGSZ 131700Z AUTO 01002KT 6SM 19/17 A3003 RMK T01900170 IEM_DS3505
ZGSZ,2001-04-13 18:00,ZGSZ 131800Z AUTO 00000KT 9SM 20/15 A3006 RMK SLP178 T01970148 57004 IEM_DS3505
ZGSZ,2001-04-13 19:00,ZGSZ 131900Z AUTO 03002KT 6SM 19/17 A3006 RMK T01900170 IEM_DS3505
ZGSZ,2001-04-13 20:00,ZGSZ 132000Z AUTO 05002KT 6SM 19/17 A3006 RMK T01900170 IEM_DS3505
ZGSZ,2001-04-13 21:00,ZGSZ 132100Z AUTO 04004KT 7SM 20/15 A3006 RMK 70003 SLP185 T01950149 52007 IEM_DS3505
ZGSZ,2001-04-13 22:00,ZGSZ 132200Z AUTO 32004KT 7SM 19/16 A3006 RMK T01900160 IEM_DS3505
ZGSZ,2001-04-13 23:00,ZGSZ 132300Z AUTO 04004KT 7SM 19/17 A3009 RMK T01900170 IEM_DS3505
ZGSZ,2001-04-14 00:00,ZGSZ 140000Z AUTO 09002KT 9SM 19/12 A3012 RMK 60003 SLP204 T01940123 52018 IEM_DS3505
ZGSZ,2001-04-14 01:00,ZGSZ 140100Z AUTO 02006KT 4SM 20/17 A3012 RMK T02000170 IEM_DS3505
ZGSZ,2001-04-14 02:00,ZGSZ 140200Z AUTO 02008KT 5SM 20/16 A3012 RMK T02000160 IEM_DS3505
ZGSZ,2001-04-14 03:00,ZGSZ 140300Z AUTO 04004KT 6SM 20/15 A3015 RMK SLP201 T02040148 57002 IEM_DS3505
ZGSZ,2001-04-14 04:00,ZGSZ 140400Z AUTO 33008KT 1SM 18/18 A3012 RMK T01800180 IEM_DS3505
ZGSZ,2001-04-14 05:00,ZGSZ 140500Z AUTO 35008KT 1SM 18/18 A3012 RMK T01800180 IEM_DS3505
ZGSZ,2001-04-14 06:00,ZGSZ 140600Z AUTO 34006KT 3SM 21/17 A3009 RMK 60003 SLP189 T02070166 57012 IEM_DS3505
ZGSZ,2001-04-14 07:00,ZGSZ 140700Z AUTO 01006KT 1SM 19/19 A3006 RMK T01900190 IEM_DS3505
ZGSZ,2001-04-14 08:00,ZGSZ 140800Z AUTO 30002KT 2SM 19/19 A3003 RMK T01900190 IEM_DS3505
ZGSZ,2001-04-14 09:00,ZGSZ 140900Z AUTO 04006KT 3SM 21/18 A3003 RMK SLP172 T02070181 57017 IEM_DS3505
ZGSZ,2001-04-14 10:00,ZGSZ 141000Z AUTO 01006KT 1 1/4SM 20/19 A3003 RMK T02000190 IEM_DS3505
ZGSZ,2001-04-14 11:00,ZGSZ 141100Z AUTO 36004KT 1 1/4SM 20/20 A3003 RMK T02000200 IEM_DS3505
ZGSZ,2001-04-14 12:00,ZGSZ 141200Z AUTO 04002KT 4SM 20/18 A3006 RMK 60003 SLP183 T02050178 52011 IEM_DS3505
ZGSZ,2001-04-14 13:00,ZGSZ 141300Z AUTO 32004KT 1 1/4SM 20/20 A3006 RMK T02000200 IEM_DS3505
ZGSZ,2001-04-14 14:00,ZGSZ 141400Z AUTO 05002KT 1 1/4SM 20/20 A3006 RMK T02000200 IEM_DS3505
ZGSZ,2001-04-14 15:00,ZGSZ 141500Z AUTO 29004KT 1SM 20/20 A3009 RMK T02000200 IEM_DS3505
ZGSZ,2001-04-14 16:00,ZGSZ 141600Z AUTO 34002KT 1SM RMK IEM_DS3505
ZGSZ,2001-04-14 17:00,ZGSZ 141700Z AUTO 34002KT 20/20 A3009 RMK T02000200 IEM_DS3505
ZGSZ,2001-04-14 18:00,ZGSZ 141800Z AUTO 07004KT 2 1/2SM 20/18 A3006 RMK SLP181 T02050183 57010 IEM_DS3505
ZGSZ,2001-04-14 19:00,ZGSZ 141900Z AUTO 34004KT 20/20 A3006 RMK T02000200 IEM_DS3505
ZGSZ,2001-04-14 20:00,ZGSZ 142000Z AUTO 00000KT 20/20 A3003 RMK T02000200 IEM_DS3505
ZGSZ,2001-04-14 21:00,ZGSZ 142100Z AUTO 04004KT 2SM 20/18 A3003 RMK 70003 SLP173 T02010183 57008 IEM_DS3505
ZGSZ,2001-04-14 22:00,ZGSZ 142200Z AUTO 00000KT 1 1/4SM 20/20 A3006 RMK T02000200 IEM_DS3505
ZGSZ,2001-04-14 23:00,ZGSZ 142300Z AUTO 31002KT 1/2SM 20/20 A3006 RMK T02000200 IEM_DS3505
ZGSZ,2001-04-15 00:00,ZGSZ 150000Z AUTO 04004KT 2SM 21/19 A3006 RMK 70003 SLP189 T02070186 52016 IEM_DS3505
ZGSZ,2001-04-15 01:00,ZGSZ 150100Z AUTO 05002KT 1 1/2SM 22/20 A3009 RMK T02200200 IEM_DS3505
ZGSZ,2001-04-15 02:00,ZGSZ 150200Z AUTO 09006KT 2 1/2SM 24/17 A3006 RMK T02400170 IEM_DS3505
ZGSZ,2001-04-15 03:00,ZGSZ 150300Z AUTO 14006KT 12SM 25/12 A3006 RMK SLP183 T02470124 57006 IEM_DS3505
ZGSZ,2001-04-15 04:00,ZGSZ 150400Z AUTO 27006KT 2SM 25/20 A3003 RMK T02500200 IEM_DS3505
ZGSZ,2001-04-15 05:00,ZGSZ 150500Z AUTO 23004KT 5SM 26/19 A3000 RMK T02600190 IEM_DS3505
ZGSZ,2001-04-15 06:00,ZGSZ 150600Z AUTO 09004KT 9SM 27/13 A2997 RMK SLP162 T02660126 57021 IEM_DS3505
ZGSZ,2001-04-15 07:00,ZGSZ 150700Z AUTO 24002KT 3SM 26/18 A2997 RMK T02600180 IEM_DS3505
ZGSZ,2001-04-15 08:00,ZGSZ 150800Z AUTO 18006KT 26/20 A2994 RMK T02600200 IEM_DS3505
ZGSZ,2001-04-15 09:00,ZGSZ 150900Z AUTO 11008KT 9SM 25/15 A2991 RMK SLP147 T02520151 57015 IEM_DS3505
ZGSZ,2001-04-15 10:00,ZGSZ 151000Z AUTO 11008KT 6SM 26/17 A2991 RMK T02600170 IEM_DS3505
ZGSZ,2001-04-15 11:00,ZGSZ 151100Z AUTO 13006KT 6SM 24/18 A2994 RMK T02400180 IEM_DS3505
ZGSZ,2001-04-15 12:00,ZGSZ 151200Z AUTO 09006KT 4SM 22/18 A2994 RMK SLP149 T02210180 52002 IEM_DS3505
ZGSZ,2001-04-15 13:00,ZGSZ 151300Z AUTO 10006KT 6SM 23/19 A2997 RMK T02300190 IEM_DS3505
ZGSZ,2001-04-15 14:00,ZGSZ 151400Z AUTO 11008KT 4SM 22/19 A3000 RMK T02200190 IEM_DS3505
ZGSZ,2001-04-15 15:00,ZGSZ 151500Z AUTO 10004KT 3SM 22/19 A3000 RMK T02200190 IEM_DS3505
ZGSZ,2001-04-15 16:00,ZGSZ 151600Z AUTO 12006KT 3SM 22/20 A3000 RMK T02200200 IEM_DS3505
ZGSZ,2001-04-15 17:00,ZGSZ 151700Z AUTO 10006KT 22/20 A2997 RMK T02200200 IEM_DS3505
ZGSZ,2001-04-15 18:00,ZGSZ 151800Z AUTO 09006KT 3SM 21/18 A2997 RMK SLP149 T02130184 57015 IEM_DS3505
ZGSZ,2001-04-15 19:00,ZGSZ 151900Z AUTO 08002KT 22/20 A2997 RMK T02200200 IEM_DS3505
ZGSZ,2001-04-15 20:00,ZGSZ 152000Z AUTO 08004KT 21/20 A2994 RMK T02100200 IEM_DS3505
ZGSZ,2001-04-15 21:00,ZGSZ 152100Z AUTO 00000KT 3SM 21/19 A2994 RMK SLP145 T02100186 57004 IEM_DS3505
ZGSZ,2001-04-15 22:00,ZGSZ 152200Z AUTO 09004KT 2 1/2SM 21/20 A2994 RMK T02100200 IEM_DS3505
ZGSZ,2001-04-15 23:00,ZGSZ 152300Z AUTO 08006KT 2 1/2SM 21/20 A2994 RMK T02100200 IEM_DS3505
ZGSZ,2001-04-16 00:00,ZGSZ 160000Z AUTO 09004KT 4SM 21/18 A2997 RMK SLP147 T02140182 52002 IEM_DS3505
ZGSZ,2001-04-16 01:00,ZGSZ 160100Z AUTO 11004KT 2 1/2SM 24/21 A2997 RMK T02400210 IEM_DS3505
ZGSZ,2001-04-16 02:00,ZGSZ 160200Z AUTO 28004KT 2 1/2SM 24/22 A2997 RMK T02400220 IEM_DS3505
ZGSZ,2001-04-16 03:00,ZGSZ 160300Z AUTO 16004KT 6SM 24/19 A2997 RMK SLP151 T02420191 52004 IEM_DS3505
ZGSZ,2001-04-16 04:00,ZGSZ 160400Z AUTO 26006KT 2 1/2SM 25/22 A2994 RMK T02500220 IEM_DS3505
ZGSZ,2001-04-16 05:00,ZGSZ 160500Z AUTO 22004KT 3SM 26/23 A2991 RMK T02600230 IEM_DS3505
ZGSZ,2001-04-16 06:00,ZGSZ 160600Z AUTO 25004KT 5SM 28/20 A2988 RMK SLP123 T02760204 57027 IEM_DS3505
ZGSZ,2001-04-16 07:00,ZGSZ 160700Z AUTO 18004KT 7SM 27/22 A2985 RMK T02700220 IEM_DS3505
ZGSZ,2001-04-16 08:00,ZGSZ 160800Z AUTO 20004KT 6SM 27/23 A2983 RMK T02700230 IEM_DS3505
ZGSZ,2001-04-16 09:00,ZGSZ 160900Z AUTO 14002KT 5SM 26/20 A2983 RMK SLP107 T02650198 57016 IEM_DS3505
ZGSZ,2001-04-16 10:00,ZGSZ 161000Z AUTO 21004KT 6SM 24/23 A2983 RMK T02400230 IEM_DS3505
ZGSZ,2001-04-16 11:00,ZGSZ 161100Z AUTO 21004KT 6SM 24/23 A2985 RMK T02400230 IEM_DS3505
ZGSZ,2001-04-16 12:00,ZGSZ 161200Z AUTO 11006KT 5SM 24/19 A2985 RMK SLP118 T02350186 52010 IEM_DS3505
ZGSZ,2001-04-16 13:00,ZGSZ 161300Z AUTO 22004KT 6SM 24/23 A2985 RMK T02400230 IEM_DS3505
ZGSZ,2001-04-16 14:00,ZGSZ 161400Z AUTO 23006KT 6SM 24/23 A2988 RMK T02400230 IEM_DS3505
ZGSZ,2001-04-16 15:00,ZGSZ 161500Z AUTO 20004KT 2 1/2SM 23/23 A2988 RMK T02300230 IEM_DS3505
ZGSZ,2001-04-16 16:00,ZGSZ 161600Z AUTO 19004KT 2 1/2SM 23/23 A2985 RMK T02300230 IEM_DS3505
ZGSZ,2001-04-16 17:00,ZGSZ 161700Z AUTO 00000KT 2 1/2SM 23/21 A2985 RMK T02300210 IEM_DS3505
ZGSZ,2001-04-16 18:00,ZGSZ 161800Z AUTO 09004KT 4SM 22/19 A2985 RMK 60003 SLP109 T02240191 57015 IEM_DS3505
ZGSZ,2001-04-16 19:00,ZGSZ 161900Z AUTO 22006KT 2 1/2SM 23/22 A2983 RMK T02300220 IEM_DS3505
ZGSZ,2001-04-16 20:00,ZGSZ 162000Z AUTO 18004KT 2SM 22/22 A2983 RMK T02200220 IEM_DS3505
ZGSZ,2001-04-16 21:00,ZGSZ 162100Z AUTO 00000KT 5SM 22/20 A2983 RMK 70003 SLP106 T02220197 57003 IEM_DS3505
ZGSZ,2001-04-16 22:00,ZGSZ 162200Z AUTO 15004KT 2SM 23/22 A2985 RMK T02300220 IEM_DS3505
ZGSZ,2001-04-16 23:00,ZGSZ 162300Z AUTO 18006KT 2SM 23/22 A2985 RMK T02300220 IEM_DS3505
ZGSZ,2001-04-17 00:00,ZGSZ 170000Z AUTO 14004KT 2 1/2SM 22/20 A2988 RMK 70003 SLP121 T02250202 52014 IEM_DS3505
ZGSZ,2001-04-17 01:00,ZGSZ 170100Z AUTO 18002KT 3SM 24/22 A2988 RMK T02400220 IEM_DS3505
ZGSZ,2001-04-17 02:00,ZGSZ 170200Z AUTO 18004KT 3SM 24/23 A2988 RMK T02400230 IEM_DS3505
ZGSZ,2001-04-17 03:00,ZGSZ 170300Z AUTO 22006KT 4SM 26/21 A2988 RMK SLP120 T02560208 54000 IEM_DS3505
ZGSZ,2001-04-17 04:00,ZGSZ 170400Z AUTO 17006KT 6SM 26/24 A2985 RMK T02600240 IEM_DS3505
ZGSZ,2001-04-17 05:00,ZGSZ 170500Z AUTO 17006KT 6SM 26/24 A2983 RMK T02600240 IEM_DS3505
ZGSZ,2001-04-17 06:00,ZGSZ 170600Z AUTO 20004KT 3SM 27/21 A2980 RMK SLP097 T02670210 57023 IEM_DS3505
ZGSZ,2001-04-17 07:00,ZGSZ 170700Z AUTO 16006KT 7SM 26/24 A2980 RMK T02600240 IEM_DS3505
ZGSZ,2001-04-17 08:00,ZGSZ 170800Z AUTO 17006KT 7SM 26/24 A2977 RMK T02600240 IEM_DS3505
ZGSZ,2001-04-17 09:00,ZGSZ 170900Z AUTO 20002KT 4SM 27/21 A2977 RMK SLP086 T02690212 57011 IEM_DS3505
ZGSZ,2001-04-17 10:00,ZGSZ 171000Z AUTO 16006KT 6SM 25/24 A2977 RMK T02500240 IEM_DS3505
ZGSZ,2001-04-17 11:00,ZGSZ 171100Z AUTO 17006KT 4SM 25/24 A2977 RMK T02500240 IEM_DS3505
ZGSZ,2001-04-17 12:00,ZGSZ 171200Z AUTO 14004KT 4SM 25/21 A2980 RMK SLP096 T02460213 52010 IEM_DS3505
ZGSZ,2001-04-17 13:00,ZGSZ 171300Z AUTO 17002KT 6SM 25/24 A2980 RMK T02500240 IEM_DS3505
ZGSZ,2001-04-17 14:00,ZGSZ 171400Z AUTO 17006KT 3SM 24/24 A2980 RMK T02400240 IEM_DS3505
ZGSZ,2001-04-17 15:00,ZGSZ 171500Z AUTO 19006KT 2 1/2SM 24/24 A2983 RMK T02400240 IEM_DS3505
ZGSZ,2001-04-17 16:00,ZGSZ 171600Z AUTO 16006KT 3SM 24/24 A2980 RMK T02400240 IEM_DS3505
ZGSZ,2001-04-17 17:00,ZGSZ 171700Z AUTO 16002KT 4SM 23/23 A2980 RMK T02300230 IEM_DS3505
ZGSZ,2001-04-17 18:00,ZGSZ 171800Z AUTO 14002KT 3SM 24/22 A2977 RMK SLP086 T02350216 57016 IEM_DS3505
ZGSZ,2001-04-17 19:00,ZGSZ 171900Z AUTO 18004KT 2SM 23/23 A2977 RMK T02300230 IEM_DS3505
ZGSZ,2001-04-17 20:00,ZGSZ 172000Z AUTO 14002KT 2SM 23/23 A2977 RMK T02300230 IEM_DS3505
ZGSZ,2001-04-17 21:00,ZGSZ 172100Z AUTO 09002KT 3SM 23/22 A2977 RMK SLP082 T02330217 57004 IEM_DS3505
ZGSZ,2001-04-17 22:00,ZGSZ 172200Z AUTO 09004KT 2SM 24/23 A2977 RMK T02400230 IEM_DS3505
ZGSZ,2001-04-17 23:00,ZGSZ 172300Z AUTO 12004KT 2 1/2SM 24/23 A2980 RMK T02400230 IEM_DS3505
ZGSZ,2001-04-18 00:00,ZGSZ 180000Z AUTO 09004KT 4SM 24/22 A2980 RMK SLP100 T02420221 52018 IEM_DS3505
ZGSZ,2001-04-18 01:00,ZGSZ 180100Z AUTO 14008KT 4SM 25/24 A2983 RMK T02500240 IEM_DS3505
ZGSZ,2001-04-18 02:00,ZGSZ 180200Z AUTO 17006KT 3SM 26/24 A2983 RMK T02600240 IEM_DS3505
ZGSZ,2001-04-18 03:00,ZGSZ 180300Z AUTO 00000KT 4SM 25/23 A2983 RMK SLP105 T02470228 52005 IEM_DS3505
ZGSZ,2001-04-18 04:00,ZGSZ 180400Z AUTO 16006KT 7SM 27/25 A2983 RMK T02700250 IEM_DS3505
ZGSZ,2001-04-18 05:00,ZGSZ 180500Z AUTO 17006KT 7SM 26/24 A2980 RMK T02600240 IEM_DS3505
ZGSZ,2001-04-18 06:00,ZGSZ 180600Z AUTO 14006KT 7SM 26/22 A2977 RMK 60012 SLP081 T02600222 57024 IEM_DS3505
ZGSZ,2001-04-18 07:00,ZGSZ 180700Z AUTO 16008KT 7SM 27/25 A2974 RMK T02700250 IEM_DS3505
ZGSZ,2001-04-18 08:00,ZGSZ 180800Z AUTO 13010KT 5SM 24/24 A2974 RMK T02400240 IEM_DS3505
ZGSZ,2001-04-18 09:00,ZGSZ 180900Z AUTO 14008KT 5SM 24/21 A2971 RMK SLP073 T02350214 57008 IEM_DS3505
ZGSZ,2001-04-18 10:00,ZGSZ 181000Z AUTO 12008KT 1 1/4SM 24/24 A2974 RMK T02400240 IEM_DS3505
ZGSZ,2001-04-18 11:00,ZGSZ 181100Z AUTO 10008KT 1 1/2SM 24/23 A2974 RMK T02400230 IEM_DS3505
ZGSZ,2001-04-18 12:00,ZGSZ 181200Z AUTO 09008KT 7SM 23/21 A2974 RMK 60000 SLP077 T02330213 52004 IEM_DS3505
ZGSZ,2001-04-18 13:00,ZGSZ 181300Z AUTO 12010KT 7SM 24/23 A2977 RMK T02400230 IEM_DS3505
ZGSZ,2001-04-18 14:00,ZGSZ 181400Z AUTO 12012KT 7SM 24/23 A2977 RMK T02400230 IEM_DS3505
ZGSZ,2001-04-18 15:00,ZGSZ 181500Z AUTO 12014KT 7SM 23/23 A2980 RMK T02300230 IEM_DS3505
ZGSZ,2001-04-18 16:00,ZGSZ 181600Z AUTO 11010KT 7SM 23/23 A2977 RMK T02300230 IEM_DS3505
ZGSZ,2001-04-18 17:00,ZGSZ 181700Z AUTO 11012KT 23/23 A2977 RMK T02300230 IEM_DS3505
ZGSZ,2001-04-18 18:00,ZGSZ 181800Z AUTO 07008KT 7SM 22/21 A2974 RMK 60003 SLP082 T02220207 57017 IEM_DS3505
ZGSZ,2001-04-18 19:00,ZGSZ 181900Z AUTO 12010KT 7SM 23/23 A2974 RMK T02300230 IEM_DS3505
ZGSZ,2001-04-18 20:00,ZGSZ 182000Z AUTO 11008KT 7SM 23/23 A2974 RMK T02300230 IEM_DS3505
ZGSZ,2001-04-18 21:00,ZGSZ 182100Z AUTO 09006KT 4SM 22/21 A2974 RMK 70012 SLP076 T02240209 57006 IEM_DS3505
ZGSZ,2001-04-18 22:00,ZGSZ 182200Z AUTO 13010KT 6SM 23/23 A2974 RMK T02300230 IEM_DS3505
ZGSZ,2001-04-18 23:00,ZGSZ 182300Z AUTO 13008KT 7SM 24/23 A2977 RMK T02400230 IEM_DS3505
ZGSZ,2001-04-19 00:00,ZGSZ 190000Z AUTO 11006KT 6SM 23/21 A2980 RMK 60003 SLP098 T02270210 52022 IEM_DS3505
ZGSZ,2001-04-19 01:00,ZGSZ 190100Z AUTO 14014KT 7SM 26/24 A2980 RMK T02600240 IEM_DS3505
ZGSZ,2001-04-19 02:00,ZGSZ 190200Z AUTO 14014KT 7SM 26/24 A2980 RMK T02600240 IEM_DS3505
ZGSZ,2001-04-19 03:00,ZGSZ 190300Z AUTO 11008KT 6SM 24/22 A2977 RMK SLP099 T02440220 52001 IEM_DS3505
ZGSZ,2001-04-19 04:00,ZGSZ 190400Z AUTO 15016KT 7SM 27/25 A2977 RMK T02700250 IEM_DS3505
ZGSZ,2001-04-19 05:00,ZGSZ 190500Z AUTO 14016KT 7SM 28/25 A2974 RMK T02800250 IEM_DS3505
ZGSZ,2001-04-19 06:00,ZGSZ 190600Z AUTO 11008KT 4SM 26/22 A2971 RMK 60003 SLP075 T02560221 57024 IEM_DS3505
ZGSZ,2001-04-19 07:00,ZGSZ 190700Z AUTO 15016KT 7SM 29/26 A2968 RMK T02900260 IEM_DS3505
ZGSZ,2001-04-19 08:00,ZGSZ 190800Z AUTO 15016KT 7SM 28/25 A2968 RMK T02800250 IEM_DS3505
ZGSZ,2001-04-19 09:00,ZGSZ 190900Z AUTO 11008KT 3SM 25/22 A2968 RMK SLP057 T02460219 57018 IEM_DS3505
ZGSZ,2001-04-19 10:00,ZGSZ 191000Z AUTO 13012KT 7SM 27/25 A2968 RMK T02700250 IEM_DS3505
ZGSZ,2001-04-19 11:00,ZGSZ 191100Z AUTO 13012KT 7SM 27/25 A2968 RMK T02700250 IEM_DS3505
ZGSZ,2001-04-19 12:00,ZGSZ 191200Z AUTO 11006KT 3SM 24/22 A2971 RMK SLP070 T02400224 52013 IEM_DS3505
ZGSZ,2001-04-19 13:00,ZGSZ 191300Z AUTO 14012KT 7SM 26/25 A2971 RMK T02600250 IEM_DS3505
ZGSZ,2001-04-19 14:00,ZGSZ 191400Z AUTO 13008KT 7SM 26/25 A2974 RMK T02600250 IEM_DS3505
ZGSZ,2001-04-19 15:00,ZGSZ 191500Z AUTO 15008KT 7SM 26/25 A2974 RMK T02600250 IEM_DS3505
ZGSZ,2001-04-19 16:00,ZGSZ 191600Z AUTO 14012KT 7SM 25/25 A2974 RMK T02500250 IEM_DS3505
ZGSZ,2001-04-19 17:00,ZGSZ 191700Z AUTO 14010KT 7SM 26/25 A2971 RMK T02600250 IEM_DS3505
ZGSZ,2001-04-19 18:00,ZGSZ 191800Z AUTO 04004KT 3SM 25/23 A2968 RMK 60003 SLP060 T02460231 57016 IEM_DS3505
ZGSZ,2001-04-19 19:00,ZGSZ 191900Z AUTO 14010KT 7SM 26/25 A2968 RMK T02600250 IEM_DS3505
ZGSZ,2001-04-19 20:00,ZGSZ 192000Z AUTO 14012KT 7SM 26/25 A2965 RMK T02600250 IEM_DS3505
ZGSZ,2001-04-19 21:00,ZGSZ 192100Z AUTO 16002KT 7SM 25/23 A2968 RMK 70003 SLP056 T02540228 57004 IEM_DS3505
ZGSZ,2001-04-19 22:00,ZGSZ 192200Z AUTO 14008KT 7SM 26/25 A2968 RMK T02600250 IEM_DS3505
ZGSZ,2001-04-19 23:00,ZGSZ 192300Z AUTO 15012KT 7SM 26/25 A2968 RMK T02600250 IEM_DS3505
ZGSZ,2001-04-20 00:00,ZGSZ 200000Z AUTO 20002KT 12SM 26/23 A2968 RMK 70003 SLP057 T02640229 52001 IEM_DS3505
ZGSZ,2001-04-20 01:00,ZGSZ 200100Z AUTO 16012KT 7SM 27/25 A2971 RMK T02700250 IEM_DS3505
ZGSZ,2001-04-20 02:00,ZGSZ 200200Z AUTO 16012KT 7SM 27/26 A2971 RMK T02700260 IEM_DS3505
ZGSZ,2001-04-20 03:00,ZGSZ 200300Z AUTO 25002KT 11SM 28/23 A2971 RMK SLP061 T02770231 52004 IEM_DS3505
ZGSZ,2001-04-20 04:00,ZGSZ 200400Z AUTO 16014KT 7SM 28/26 A2968 RMK T02800260 IEM_DS3505
ZGSZ,2001-04-20 06:00,ZGSZ 200600Z AUTO 18008KT 11SM 29/23 A2962 RMK 60003 SLP036 T02940231 57025 IEM_DS3505
ZGSZ,2001-04-20 07:00,ZGSZ 200700Z AUTO 17017KT 7SM 28/27 A2959 RMK T02800270 IEM_DS3505
ZGSZ,2001-04-20 08:00,ZGSZ 200800Z AUTO 16016KT 7SM 28/26 A2956 RMK T02800260 IEM_DS3505
ZGSZ,2001-04-20 09:00,ZGSZ 200900Z AUTO 18004KT 12SM 28/23 A2956 RMK SLP020 T02840232 57016 IEM_DS3505
ZGSZ,2001-04-20 10:00,ZGSZ 201000Z AUTO 16016KT 7SM 27/26 A2956 RMK T02700260 IEM_DS3505
ZGSZ,2001-04-20 11:00,ZGSZ 201100Z AUTO 16016KT 7SM 27/26 A2959 RMK T02700260 IEM_DS3505
ZGSZ,2001-04-20 12:00,ZGSZ 201200Z AUTO 18002KT 12SM 27/23 A2959 RMK SLP032 T02710232 52012 IEM_DS3505
ZGSZ,2001-04-20 13:00,ZGSZ 201300Z AUTO 15010KT 7SM 27/26 A2962 RMK T02700260 IEM_DS3505
ZGSZ,2001-04-20 14:00,ZGSZ 201400Z AUTO 15012KT 7SM 27/26 A2965 RMK T02700260 IEM_DS3505
ZGSZ,2001-04-20 15:00,ZGSZ 201500Z AUTO 15012KT 7SM 27/26 A2965 RMK T02700260 IEM_DS3505
ZGSZ,2001-04-20 16:00,ZGSZ 201600Z AUTO 16012KT 7SM 27/26 A2965 RMK T02700260 IEM_DS3505
ZGSZ,2001-04-20 17:00,ZGSZ 201700Z AUTO 17012KT 7SM 27/26 A2962 RMK T02700260 IEM_DS3505
ZGSZ,2001-04-20 18:00,ZGSZ 201800Z AUTO 18004KT 8SM 27/24 A2962 RMK SLP032 T02680242 57012 IEM_DS3505
ZGSZ,2001-04-20 19:00,ZGSZ 201900Z AUTO 16012KT 7SM 26/26 A2959 RMK T02600260 IEM_DS3505
ZGSZ,2001-04-20 20:00,ZGSZ 202000Z AUTO 16010KT 7SM 26/26 A2959 RMK T02600260 IEM_DS3505
ZGSZ,2001-04-20 21:00,ZGSZ 202100Z AUTO 22004KT 6SM 26/24 A2959 RMK 70003 SLP026 T02610245 57007 IEM_DS3505
ZGSZ,2001-04-20 22:00,ZGSZ 202200Z AUTO 16012KT 2SM 26/26 A2959 RMK T02600260 IEM_DS3505
ZGSZ,2001-04-20 23:00,ZGSZ 202300Z AUTO 16010KT 7SM 26/26 A2962 RMK T02600260 IEM_DS3505
ZGSZ,2001-04-21 00:00,ZGSZ 210000Z AUTO 22006KT 6SM 27/24 A2965 RMK 60003 SLP044 T02690240 52018 IEM_DS3505
ZGSZ,2001-04-21 01:00,ZGSZ 210100Z AUTO 16010KT 7SM 26/26 A2968 RMK T02600260 IEM_DS3505
ZGSZ,2001-04-21 02:00,ZGSZ 210200Z AUTO 02017KT 7SM 24/23 A2974 RMK T02400230 IEM_DS3505
ZGSZ,2001-04-21 03:00,ZGSZ 210300Z AUTO 04010KT 4SM 24/22 A2974 RMK SLP073 T02370218 52029 IEM_DS3505
ZGSZ,2001-04-21 04:00,ZGSZ 210400Z AUTO 01006KT 2 1/2SM 23/23 A2974 RMK T02300230 IEM_DS3505
ZGSZ,2001-04-21 05:00,ZGSZ 210500Z AUTO 02004KT 7SM 23/23 A2968 RMK T02300230 IEM_DS3505
ZGSZ,2001-04-21 06:00,ZGSZ 210600Z AUTO 32004KT 2 1/2SM 23/22 A2968 RMK 60039 SLP058 T02340222 57015 IEM_DS3505
ZGSZ,2001-04-21 07:00,ZGSZ 210700Z AUTO 08006KT 7SM 24/24 A2968 RMK T02400240 IEM_DS3505
ZGSZ,2001-04-21 08:00,ZGSZ 210800Z AUTO 08006KT 7SM 25/25 A2965 RMK T02500250 IEM_DS3505
ZGSZ,2001-04-21 09:00,ZGSZ 210900Z AUTO 04006KT 4SM 25/23 A2968 RMK SLP051 T02470226 57007 IEM_DS3505
ZGSZ,2001-04-21 10:00,ZGSZ 211000Z AUTO 03006KT 2 1/2SM 24/24 A2968 RMK T02400240 IEM_DS3505
ZGSZ,2001-04-21 11:00,ZGSZ 211100Z AUTO 03004KT 4SM 24/23 A2971 RMK T02400230 IEM_DS3505
ZGSZ,2001-04-21 12:00,ZGSZ 211200Z AUTO 04006KT 4SM 24/22 A2971 RMK 60012 SLP072 T02350219 52021 IEM_DS3505
ZGSZ,2001-04-21 13:00,ZGSZ 211300Z AUTO 04006KT 2 1/2SM 24/23 A2974 RMK T02400230 IEM_DS3505
ZGSZ,2001-04-21 14:00,ZGSZ 211400Z AUTO 04008KT 2SM 24/23 A2977 RMK T02400230 IEM_DS3505
ZGSZ,2001-04-21 15:00,ZGSZ 211500Z AUTO 03006KT 1 1/2SM 24/23 A2980 RMK T02400230 IEM_DS3505
ZGSZ,2001-04-21 16:00,ZGSZ 211600Z AUTO 02004KT 1 1/2SM 23/23 A2980 RMK T02300230 IEM_DS3505
ZGSZ,2001-04-21 17:00,ZGSZ 211700Z AUTO 36006KT 1 1/4SM 23/23 A2980 RMK T02300230 IEM_DS3505
ZGSZ,2001-04-21 18:00,ZGSZ 211800Z AUTO 09004KT 16SM 24/21 A2980 RMK SLP088 T02350214 57002 IEM_DS3505
ZGSZ,2001-04-21 19:00,ZGSZ 211900Z AUTO 02012KT 21/21 A2977 RMK T02100210 IEM_DS3505
ZGSZ,2001-04-21 20:00,ZGSZ 212000Z AUTO 02012KT 21/21 A2977 RMK T02100210 IEM_DS3505
ZGSZ,2001-04-21 21:00,ZGSZ 212100Z AUTO 02006KT 5SM 22/20 A2977 RMK 70048 SLP088 T02180203 54000 IEM_DS3505
ZGSZ,2001-04-21 22:00,ZGSZ 212200Z AUTO 02010KT 2SM 20/20 A2980 RMK T02000200 IEM_DS3505
ZGSZ,2001-04-21 23:00,ZGSZ 212300Z AUTO 01010KT 2 1/2SM 21/21 A2980 RMK T02100210 IEM_DS3505
ZGSZ,2001-04-22 00:00,ZGSZ 220000Z AUTO 04006KT 4SM 21/18 A2985 RMK 60000 SLP112 T02060184 52023 IEM_DS3505
ZGSZ,2001-04-22 01:00,ZGSZ 220100Z AUTO 02008KT 7SM 20/20 A2988 RMK T02000200 IEM_DS3505
ZGSZ,2001-04-22 02:00,ZGSZ 220200Z AUTO 01010KT 7SM 20/20 A2988 RMK T02000200 IEM_DS3505
ZGSZ,2001-04-22 03:00,ZGSZ 220300Z AUTO 04006KT 5SM 21/18 A2991 RMK SLP126 T02070183 52014 IEM_DS3505
ZGSZ,2001-04-22 04:00,ZGSZ 220400Z AUTO 02010KT 7SM 20/19 A2988 RMK T02000190 IEM_DS3505
ZGSZ,2001-04-22 05:00,ZGSZ 220500Z AUTO 36008KT 4SM 19/19 A2988 RMK T01900190 IEM_DS3505
ZGSZ,2001-04-22 06:00,ZGSZ 220600Z AUTO 04006KT 4SM 20/18 A2985 RMK 60002 SLP118 T02040183 57008 IEM_DS3505
ZGSZ,2001-04-22 07:00,ZGSZ 220700Z AUTO 02012KT 4SM 19/19 A2985 RMK T01900190 IEM_DS3505
ZGSZ,2001-04-22 08:00,ZGSZ 220800Z AUTO 35008KT 1 1/4SM 19/19 A2985 RMK T01900190 IEM_DS3505
ZGSZ,2001-04-22 09:00,ZGSZ 220900Z AUTO 04006KT 3SM 19/18 A2985 RMK SLP120 T01910180 52002 IEM_DS3505
ZGSZ,2001-04-22 10:00,ZGSZ 221000Z AUTO 04008KT 7SM 19/18 A2985 RMK T01900180 IEM_DS3505
ZGSZ,2001-04-22 11:00,ZGSZ 221100Z AUTO 02006KT 7SM 19/19 A2988 RMK T01900190 IEM_DS3505
ZGSZ,2001-04-22 12:00,ZGSZ 221200Z AUTO 04006KT 6SM 19/18 A2988 RMK 60024 SLP126 T01910175 52006 IEM_DS3505
ZGSZ,2001-04-22 13:00,ZGSZ 221300Z AUTO 07006KT 7SM 19/19 A2991 RMK T01900190 IEM_DS3505
ZGSZ,2001-04-22 14:00,ZGSZ 221400Z AUTO 07008KT 7SM 19/19 A2991 RMK T01900190 IEM_DS3505
ZGSZ,2001-04-22 15:00,ZGSZ 221500Z AUTO 06004KT 7SM 19/19 A2991 RMK T01900190 IEM_DS3505
ZGSZ,2001-04-22 16:00,ZGSZ 221600Z AUTO 02002KT 7SM 20/20 A2991 RMK T02000200 IEM_DS3505
ZGSZ,2001-04-22 17:00,ZGSZ 221700Z AUTO 00000KT 20/20 A2991 RMK T02000200 IEM_DS3505
ZGSZ,2001-04-22 18:00,ZGSZ 221800Z AUTO 14004KT 3SM 20/18 A2991 RMK 60000 SLP131 T01990180 57006 IEM_DS3505
ZGSZ,2001-04-22 19:00,ZGSZ 221900Z AUTO 07004KT 20/20 A2988 RMK T02000200 IEM_DS3505
ZGSZ,2001-04-22 20:00,ZGSZ 222000Z AUTO 10004KT 20/20 A2988 RMK T02000200 IEM_DS3505
ZGSZ,2001-04-22 21:00,ZGSZ 222100Z AUTO 11006KT 3SM 20/18 A2988 RMK 70024 SLP120 T02010180 57011 IEM_DS3505
ZGSZ,2001-04-22 22:00,ZGSZ 222200Z AUTO 09004KT 3SM 21/20 A2988 RMK T02100200 IEM_DS3505
ZGSZ,2001-04-22 23:00,ZGSZ 222300Z AUTO 09008KT 4SM 21/20 A2988 RMK T02100200 IEM_DS3505
ZGSZ,2001-04-23 00:00,ZGSZ 230000Z AUTO 09006KT 4SM 20/18 A2991 RMK 60003 SLP134 T02030181 52014 IEM_DS3505
ZGSZ,2001-04-23 01:00,ZGSZ 230100Z AUTO 09012KT 5SM 22/21 A2991 RMK T02200210 IEM_DS3505
ZGSZ,2001-04-23 02:00,ZGSZ 230200Z AUTO 09010KT 7SM 22/21 A2991 RMK T02200210 IEM_DS3505
ZGSZ,2001-04-23 03:00,ZGSZ 230300Z AUTO 09006KT 4SM 21/18 A2991 RMK SLP135 T02130184 52001 IEM_DS3505
ZGSZ,2001-04-23 04:00,ZGSZ 230400Z AUTO 10006KT 7SM 24/22 A2991 RMK T02400220 IEM_DS3505
ZGSZ,2001-04-23 05:00,ZGSZ 230500Z AUTO 10008KT 7SM 26/23 A2988 RMK T02600230 IEM_DS3505
ZGSZ,2001-04-23 06:00,ZGSZ 230600Z AUTO 14006KT 4SM 23/20 A2985 RMK SLP126 T02290197 57009 IEM_DS3505
ZGSZ,2001-04-23 07:00,ZGSZ 230700Z AUTO 20004KT 7SM 25/23 A2985 RMK T02500230 IEM_DS3505
ZGSZ,2001-04-23 08:00,ZGSZ 230800Z AUTO 31006KT 3SM 23/22 A2985 RMK T02300220 IEM_DS3505
ZGSZ,2001-04-23 09:00,ZGSZ 230900Z AUTO 14006KT 5SM 23/20 A2983 RMK SLP114 T02270196 57012 IEM_DS3505
ZGSZ,2001-04-23 10:00,ZGSZ 231000Z AUTO 09004KT 1SM 24/23 A2980 RMK T02400230 IEM_DS3505
ZGSZ,2001-04-23 11:00,ZGSZ 231100Z AUTO 00000KT 3SM 23/22 A2983 RMK T02300220 IEM_DS3505
ZGSZ,2001-04-23 12:00,ZGSZ 231200Z AUTO 09006KT 6SM 22/20 A2985 RMK SLP118 T02180195 52004 IEM_DS3505
ZGSZ,2001-04-23 13:00,ZGSZ 231300Z AUTO 09004KT 3SM 23/22 A2988 RMK T02300220 IEM_DS3505
ZGSZ,2001-04-23 14:00,ZGSZ 231400Z AUTO 00000KT 1 1/4SM 23/22 A2991 RMK T02300220 IEM_DS3505
ZGSZ,2001-04-23 15:00,ZGSZ 231500Z AUTO 07002KT 3SM 23/22 A2991 RMK T02300220 IEM_DS3505
ZGSZ,2001-04-23 16:00,ZGSZ 231600Z AUTO 00000KT 1SM 22/22 A2991 RMK T02200220 IEM_DS3505
ZGSZ,2001-04-23 17:00,ZGSZ 231700Z AUTO 12004KT 3SM 22/22 A2991 RMK T02200220 IEM_DS3505
ZGSZ,2001-04-23 18:00,ZGSZ 231800Z AUTO 09004KT 4SM 22/20 A2988 RMK SLP128 T02190202 57009 IEM_DS3505
ZGSZ,2001-04-23 19:00,ZGSZ 231900Z AUTO 36002KT 3SM 22/22 A2985 RMK T02200220 IEM_DS3505
ZGSZ,2001-04-23 20:00,ZGSZ 232000Z AUTO 17004KT 3SM 22/22 A2985 RMK T02200220 IEM_DS3505
ZGSZ,2001-04-23 21:00,ZGSZ 232100Z AUTO 07002KT 4SM 22/20 A2985 RMK SLP115 T02160204 57013 IEM_DS3505
ZGSZ,2001-04-23 22:00,ZGSZ 232200Z AUTO 31002KT 1SM 22/22 A2988 RMK T02200220 IEM_DS3505
ZGSZ,2001-04-23 23:00,ZGSZ 232300Z AUTO 29004KT 1/2SM 22/22 A2988 RMK T02200220 IEM_DS3505
ZGSZ,2001-04-24 00:00,ZGSZ 240000Z AUTO 07002KT 4SM 22/21 A2991 RMK SLP130 T02210207 52015 IEM_DS3505
ZGSZ,2001-04-24 01:00,ZGSZ 240100Z AUTO 36002KT 1SM 23/23 A2991 RMK T02300230 IEM_DS3505
ZGSZ,2001-04-24 02:00,ZGSZ 240200Z AUTO 04002KT 1 1/2SM 24/23 A2991 RMK T02400230 IEM_DS3505
ZGSZ,2001-04-24 03:00,ZGSZ 240300Z AUTO 04004KT 4SM 24/21 A2991 RMK SLP134 T02400213 52004 IEM_DS3505
ZGSZ,2001-04-24 04:00,ZGSZ 240400Z AUTO 26006KT 1SM 25/24 A2991 RMK T02500240 IEM_DS3505
ZGSZ,2001-04-24 05:00,ZGSZ 240500Z AUTO 31006KT 1SM 25/24 A2988 RMK T02500240 IEM_DS3505
ZGSZ,2001-04-24 06:00,ZGSZ 240600Z AUTO 36004KT 4SM 26/22 A2988 RMK SLP118 T02640221 57015 IEM_DS3505
ZGSZ,2001-04-24 07:00,ZGSZ 240700Z AUTO 30008KT 1SM 26/24 A2985 RMK T02600240 IEM_DS3505
ZGSZ,2001-04-24 08:00,ZGSZ 240800Z AUTO 31010KT 1SM 24/24 A2985 RMK T02400240 IEM_DS3505
ZGSZ,2001-04-24 09:00,ZGSZ 240900Z AUTO 20004KT 2SM 26/23 A2985 RMK SLP110 T02590227 57008 IEM_DS3505
ZGSZ,2001-04-24 10:00,ZGSZ 241000Z AUTO 11004KT 2SM 23/22 A2985 RMK 60004 SLP111 T02270216 54000 IEM_DS3505
ZGSZ,2001-04-24 11:00,ZGSZ 241100Z AUTO 26006KT 1SM 21/21 A2988 RMK T02100210 IEM_DS3505
ZGSZ,2001-04-24 12:00,ZGSZ 241200Z AUTO 11004KT 2SM 23/22 A2985 RMK 60004 SLP111 T02270216 54000 IEM_DS3505
ZGSZ,2001-04-24 13:00,ZGSZ 241300Z AUTO 33010KT 1 1/4SM 21/21 A2991 RMK T02100210 IEM_DS3505
ZGSZ,2001-04-24 14:00,ZGSZ 241400Z AUTO 36008KT 1 1/2SM 22/22 A2991 RMK T02200220 IEM_DS3505
ZGSZ,2001-04-24 15:00,ZGSZ 241500Z AUTO 36008KT 1 1/2SM 21/21 A2994 RMK T02100210 IEM_DS3505
ZGSZ,2001-04-24 16:00,ZGSZ 241600Z AUTO 36006KT 1 1/2SM 21/21 A2994 RMK T02100210 IEM_DS3505
ZGSZ,2001-04-24 17:00,ZGSZ 241700Z AUTO 08008KT 21/21 A2988 RMK T02100210 IEM_DS3505
ZGSZ,2001-04-24 18:00,ZGSZ 241800Z AUTO 02004KT 16SM 22/19 A2991 RMK 60002 SLP126 T02170190 57014 IEM_DS3505
ZGSZ,2001-04-24 19:00,ZGSZ 241900Z AUTO 35010KT 2 1/2SM 21/20 A2988 RMK T02100200 IEM_DS3505
ZGSZ,2001-04-24 20:00,ZGSZ 242000Z AUTO 01008KT 2 1/2SM 20/20 A2991 RMK T02000200 IEM_DS3505
ZGSZ,2001-04-24 21:00,ZGSZ 242100Z AUTO 04006KT 16SM 21/18 A2985 RMK 70007 SLP127 T02070180 54000 IEM_DS3505
ZGSZ,2001-04-24 22:00,ZGSZ 242200Z AUTO 04004KT 7SM 20/20 A2988 RMK T02000200 IEM_DS3505
ZGSZ,2001-04-24 23:00,ZGSZ 242300Z AUTO 35010KT 2 1/2SM 20/19 A2991 RMK T02000190 IEM_DS3505
ZGSZ,2001-04-25 00:00,ZGSZ 250000Z AUTO 04006KT 14SM 20/17 A2991 RMK 70007 SLP135 T02030169 52008 IEM_DS3505
ZGSZ,2001-04-25 01:00,ZGSZ 250100Z AUTO 02006KT 7SM 20/19 A2994 RMK T02000190 IEM_DS3505
ZGSZ,2001-04-25 02:00,ZGSZ 250200Z AUTO 36008KT 7SM 21/19 A2997 RMK T02100190 IEM_DS3505
ZGSZ,2001-04-25 03:00,ZGSZ 250300Z AUTO 04006KT 3SM 20/18 A2997 RMK SLP151 T01980177 52016 IEM_DS3505
ZGSZ,2001-04-25 04:00,ZGSZ 250400Z AUTO 35008KT 2SM 19/19 A2997 RMK T01900190 IEM_DS3505
ZGSZ,2001-04-25 05:00,ZGSZ 250500Z AUTO 36008KT 5SM 19/19 A2997 RMK T01900190 IEM_DS3505
ZGSZ,2001-04-25 06:00,ZGSZ 250600Z AUTO 04006KT 3SM 19/18 A2994 RMK 60002 SLP149 T01940181 57002 IEM_DS3505
ZGSZ,2001-04-25 07:00,ZGSZ 250700Z AUTO 08010KT 7SM 20/19 A2991 RMK T02000190 IEM_DS3505
ZGSZ,2001-04-25 08:00,ZGSZ 250800Z AUTO 05002KT 7SM 20/20 A2991 RMK T02000200 IEM_DS3505
ZGSZ,2001-04-25 09:00,ZGSZ 250900Z AUTO 04002KT 6SM 21/18 A2991 RMK SLP134 T02060179 57015 IEM_DS3505
ZGSZ,2001-04-25 10:00,ZGSZ 251000Z AUTO 01006KT 2SM 19/19 A2994 RMK T01900190 IEM_DS3505
ZGSZ,2001-04-25 11:00,ZGSZ 251100Z AUTO 05004KT 7SM 19/19 A2991 RMK T01900190 IEM_DS3505
ZGSZ,2001-04-25 12:00,ZGSZ 251200Z AUTO 04006KT 5SM 20/18 A2994 RMK 60000 SLP143 T01970176 52009 IEM_DS3505
ZGSZ,2001-04-25 13:00,ZGSZ 251300Z AUTO 33006KT 2SM 19/19 A2997 RMK T01900190 IEM_DS3505
ZGSZ,2001-04-25 14:00,ZGSZ 251400Z AUTO 02004KT 2SM 19/19 A2997 RMK T01900190 IEM_DS3505
ZGSZ,2001-04-25 15:00,ZGSZ 251500Z AUTO 04004KT 2SM 19/19 A2997 RMK T01900190 IEM_DS3505
ZGSZ,2001-04-25 16:00,ZGSZ 251600Z AUTO 09004KT 2SM 20/19 A2997 RMK T02000190 IEM_DS3505
ZGSZ,2001-04-25 17:00,ZGSZ 251700Z AUTO 36002KT 4SM 19/19 A2997 RMK T01900190 IEM_DS3505
ZGSZ,2001-04-25 18:00,ZGSZ 251800Z AUTO 04006KT 2 1/2SM 19/18 A2997 RMK 60003 SLP153 T01920179 57003 IEM_DS3505
ZGSZ,2001-04-25 19:00,ZGSZ 251900Z AUTO 01008KT 2 1/2SM 19/19 A2997 RMK T01900190 IEM_DS3505
ZGSZ,2001-04-25 20:00,ZGSZ 252000Z AUTO 01008KT 2 1/2SM 19/19 A2994 RMK T01900190 IEM_DS3505
ZGSZ,2001-04-25 21:00,ZGSZ 252100Z AUTO 04004KT 3SM 19/18 A2997 RMK 70005 SLP144 T01940180 57009 IEM_DS3505
ZGSZ,2001-04-25 22:00,ZGSZ 252200Z AUTO 02006KT 3SM 19/19 A2997 RMK T01900190 IEM_DS3505
ZGSZ,2001-04-25 23:00,ZGSZ 252300Z AUTO 02006KT 4SM 19/19 A3000 RMK T01900190 IEM_DS3505
ZGSZ,2001-04-26 00:00,ZGSZ 260000Z AUTO 02004KT 3SM 19/18 A3000 RMK 60003 SLP163 T01920177 52019 IEM_DS3505
ZGSZ,2001-04-26 01:00,ZGSZ 260100Z AUTO 01008KT 7SM 20/19 A3000 RMK T02000190 IEM_DS3505
ZGSZ,2001-04-26 02:00,ZGSZ 260200Z AUTO 03008KT 4SM 22/20 A3003 RMK T02200200 IEM_DS3505
ZGSZ,2001-04-26 03:00,ZGSZ 260300Z AUTO 04004KT 4SM 21/18 A3000 RMK SLP169 T02090185 52006 IEM_DS3505
ZGSZ,2001-04-26 04:00,ZGSZ 260400Z AUTO 18002KT 7SM 25/22 A3000 RMK T02500220 IEM_DS3505
ZGSZ,2001-04-26 05:00,ZGSZ 260500Z AUTO 28008KT 7SM 25/22 A2997 RMK T02500220 IEM_DS3505
ZGSZ,2001-04-26 06:00,ZGSZ 260600Z AUTO 11006KT 19SM 25/19 A2994 RMK SLP146 T02540192 57023 IEM_DS3505
ZGSZ,2001-04-26 07:00,ZGSZ 260700Z AUTO 21004KT 3SM 25/22 A2991 RMK T02500220 IEM_DS3505
ZGSZ,2001-04-26 08:00,ZGSZ 260800Z AUTO 25006KT 4SM 25/22 A2988 RMK T02500220 IEM_DS3505
ZGSZ,2001-04-26 09:00,ZGSZ 260900Z AUTO 07006KT 19SM 25/19 A2988 RMK SLP126 T02540189 57020 IEM_DS3505
ZGSZ,2001-04-26 10:00,ZGSZ 261000Z AUTO 19004KT 6SM 23/22 A2988 RMK T02300220 IEM_DS3505
ZGSZ,2001-04-26 11:00,ZGSZ 261100Z AUTO 18004KT 4SM 23/22 A2991 RMK T02300220 IEM_DS3505
ZGSZ,2001-04-26 12:00,ZGSZ 261200Z AUTO 09008KT 12SM 22/18 A2991 RMK SLP140 T02200184 52014 IEM_DS3505
ZGSZ,2001-04-26 13:00,ZGSZ 261300Z AUTO 13006KT 4SM 22/21 A2994 RMK T02200210 IEM_DS3505
ZGSZ,2001-04-26 14:00,ZGSZ 261400Z AUTO 10008KT 6SM 22/20 A2997 RMK T02200200 IEM_DS3505
ZGSZ,2001-04-26 15:00,ZGSZ 261500Z AUTO 08006KT 6SM 22/20 A3000 RMK T02200200 IEM_DS3505
ZGSZ,2001-04-26 16:00,ZGSZ 261600Z AUTO 07004KT 6SM 22/20 A2997 RMK T02200200 IEM_DS3505
ZGSZ,2001-04-26 17:00,ZGSZ 261700Z AUTO 07004KT 6SM 21/20 A2997 RMK T02100200 IEM_DS3505
ZGSZ,2001-04-26 18:00,ZGSZ 261800Z AUTO 11002KT 9SM 22/18 A2994 RMK SLP144 T02150185 57017 IEM_DS3505
ZGSZ,2001-04-26 19:00,ZGSZ 261900Z AUTO 12006KT 6SM 21/20 A2991 RMK T02100200 IEM_DS3505
ZGSZ,2001-04-26 20:00,ZGSZ 262000Z AUTO 13006KT 6SM 21/20 A2991 RMK T02100200 IEM_DS3505
ZGSZ,2001-04-26 21:00,ZGSZ 262100Z AUTO 14002KT 8SM 21/18 A2991 RMK 70003 SLP136 T02070181 57008 IEM_DS3505
ZGSZ,2001-04-26 22:00,ZGSZ 262200Z AUTO 12004KT 4SM 21/20 A2991 RMK T02100200 IEM_DS3505
ZGSZ,2001-04-26 23:00,ZGSZ 262300Z AUTO 10004KT 6SM 21/20 A2994 RMK T02100200 IEM_DS3505
ZGSZ,2001-04-27 00:00,ZGSZ 270000Z AUTO 09006KT 5SM 22/18 A2994 RMK SLP145 T02150182 52009 IEM_DS3505
ZGSZ,2001-04-27 01:00,ZGSZ 270100Z AUTO 14008KT 7SM 23/21 A2994 RMK T02300210 IEM_DS3505
ZGSZ,2001-04-27 02:00,ZGSZ 270200Z AUTO 12008KT 7SM 25/21 A2994 RMK T02500210 IEM_DS3505
ZGSZ,2001-04-27 03:00,ZGSZ 270300Z AUTO 09008KT 7SM 24/19 A2994 RMK SLP139 T02430188 57006 IEM_DS3505
ZGSZ,2001-04-27 04:00,ZGSZ 270400Z AUTO 14004KT 7SM 26/21 A2991 RMK T02600210 IEM_DS3505
ZGSZ,2001-04-27 05:00,ZGSZ 270500Z AUTO 27006KT 7SM 27/22 A2988 RMK T02700220 IEM_DS3505
ZGSZ,2001-04-27 06:00,ZGSZ 270600Z AUTO 07006KT 11SM 27/20 A2985 RMK SLP114 T02660199 57024 IEM_DS3505
ZGSZ,2001-04-27 07:00,ZGSZ 270700Z AUTO 24006KT 7SM 27/23 A2983 RMK T02700230 IEM_DS3505
ZGSZ,2001-04-27 08:00,ZGSZ 270800Z AUTO 23002KT 7SM 26/22 A2983 RMK T02600220 IEM_DS3505
ZGSZ,2001-04-27 09:00,ZGSZ 270900Z AUTO 11006KT 9SM 25/20 A2983 RMK SLP100 T02490198 57015 IEM_DS3505
ZGSZ,2001-04-27 10:00,ZGSZ 271000Z AUTO 19004KT 7SM 25/23 A2980 RMK T02500230 IEM_DS3505
ZGSZ,2001-04-27 11:00,ZGSZ 271100Z AUTO 17002KT 4SM 24/23 A2980 RMK T02400230 IEM_DS3505
ZGSZ,2001-04-27 12:00,ZGSZ 271200Z AUTO 09006KT 9SM 24/19 A2983 RMK SLP105 T02360189 52005 IEM_DS3505
ZGSZ,2001-04-27 14:00,ZGSZ 271400Z AUTO 10008KT 6SM 24/22 A2985 RMK T02400220 IEM_DS3505
ZGSZ,2001-04-27 15:00,ZGSZ 271500Z AUTO 10008KT 7SM 24/22 A2988 RMK T02400220 IEM_DS3505
ZGSZ,2001-04-27 16:00,ZGSZ 271600Z AUTO 11006KT 7SM A2985 RMK IEM_DS3505
ZGSZ,2001-04-27 17:00,ZGSZ 271700Z AUTO 10006KT 24/23 A2985 RMK T02400230 IEM_DS3505
ZGSZ,2001-04-27 18:00,ZGSZ 271800Z AUTO 14004KT 5SM 23/21 A2983 RMK 60003 SLP109 T02340210 57014 IEM_DS3505
ZGSZ,2001-04-27 20:00,ZGSZ 272000Z AUTO 30004KT 2 1/2SM 24/23 A2980 RMK T02400230 IEM_DS3505
ZGSZ,2001-04-27 21:00,ZGSZ 272100Z AUTO 09006KT 4SM 23/21 A2980 RMK 70003 SLP098 T02310214 57011 IEM_DS3505
ZGSZ,2001-04-27 22:00,ZGSZ 272200Z AUTO 17004KT 3SM 24/23 A2980 RMK T02400230 IEM_DS3505
ZGSZ,2001-04-27 23:00,ZGSZ 272300Z AUTO 13006KT 2SM 24/23 A2983 RMK T02400230 IEM_DS3505
ZGSZ,2001-04-28 00:00,ZGSZ 280000Z AUTO 11006KT 4SM 24/22 A2983 RMK 60003 SLP106 T02350220 52008 IEM_DS3505
ZGSZ,2001-04-28 01:00,ZGSZ 280100Z AUTO 16002KT 7SM 27/25 A2985 RMK T02700250 IEM_DS3505
ZGSZ,2001-04-28 02:00,ZGSZ 280200Z AUTO 24002KT 7SM 28/26 A2983 RMK T02800260 IEM_DS3505
ZGSZ,2001-04-28 03:00,ZGSZ 280300Z AUTO 07008KT 8SM 28/23 A2983 RMK SLP105 T02750230 57001 IEM_DS3505
ZGSZ,2001-04-28 04:00,ZGSZ 280400Z AUTO 22006KT 3SM 28/26 A2983 RMK T02800260 IEM_DS3505
ZGSZ,2001-04-28 05:00,ZGSZ 280500Z AUTO 18010KT 7SM 29/26 A2983 RMK T02900260 IEM_DS3505
ZGSZ,2001-04-28 06:00,ZGSZ 280600Z AUTO 16006KT 10SM 28/23 A2980 RMK SLP096 T02830231 57009 IEM_DS3505
ZGSZ,2001-04-28 07:00,ZGSZ 280700Z AUTO 18010KT 7SM 30/27 A2977 RMK T03000270 IEM_DS3505
ZGSZ,2001-04-28 08:00,ZGSZ 280800Z AUTO 18010KT 7SM 29/27 A2974 RMK T02900270 IEM_DS3505
ZGSZ,2001-04-28 09:00,ZGSZ 280900Z AUTO 09006KT 11SM 28/23 A2974 RMK SLP081 T02820233 57015 IEM_DS3505
ZGSZ,2001-04-28 10:00,ZGSZ 281000Z AUTO 17008KT 7SM 28/26 A2977 RMK T02800260 IEM_DS3505
ZGSZ,2001-04-28 11:00,ZGSZ 281100Z AUTO 16008KT 7SM 27/26 A2977 RMK T02700260 IEM_DS3505
ZGSZ,2001-04-28 12:00,ZGSZ 281200Z AUTO 09004KT 7SM 26/23 A2977 RMK SLP089 T02580232 52008 IEM_DS3505
ZGSZ,2001-04-28 13:00,ZGSZ 281300Z AUTO 15008KT 6SM 27/26 A2977 RMK T02700260 IEM_DS3505
ZGSZ,2001-04-28 14:00,ZGSZ 281400Z AUTO 14008KT 6SM 27/26 A2980 RMK T02700260 IEM_DS3505
ZGSZ,2001-04-28 15:00,ZGSZ 281500Z AUTO 11006KT 6SM 27/26 A2980 RMK T02700260 IEM_DS3505
ZGSZ,2001-04-28 16:00,ZGSZ 281600Z AUTO 12006KT 6SM 27/26 A2980 RMK T02700260 IEM_DS3505
ZGSZ,2001-04-28 17:00,ZGSZ 281700Z AUTO 13006KT 6SM 26/25 A2980 RMK T02600250 IEM_DS3505
ZGSZ,2001-04-28 18:00,ZGSZ 281800Z AUTO 09002KT 5SM 26/24 A2977 RMK SLP082 T02550238 57015 IEM_DS3505
ZGSZ,2001-04-28 19:00,ZGSZ 281900Z AUTO 14004KT 26/25 A2977 RMK T02600250 IEM_DS3505
ZGSZ,2001-04-28 20:00,ZGSZ 282000Z AUTO 17004KT 26/25 A2977 RMK T02600250 IEM_DS3505
ZGSZ,2001-04-28 21:00,ZGSZ 282100Z AUTO 09004KT 4SM 25/24 A2980 RMK SLP090 T02520235 52008 IEM_DS3505
ZGSZ,2001-04-28 22:00,ZGSZ 282200Z AUTO 13006KT 3SM 26/25 A2980 RMK T02600250 IEM_DS3505
ZGSZ,2001-04-28 23:00,ZGSZ 282300Z AUTO 09004KT 7SM 26/25 A2980 RMK T02600250 IEM_DS3505
ZGSZ,2001-04-29 00:00,ZGSZ 290000Z AUTO 09002KT 4SM 26/24 A2983 RMK 60000 SLP108 T02560239 52018 IEM_DS3505
ZGSZ,2001-04-29 01:00,ZGSZ 290100Z AUTO 17006KT 7SM 28/26 A2983 RMK T02800260 IEM_DS3505
ZGSZ,2001-04-29 02:00,ZGSZ 290200Z AUTO 18004KT 7SM 28/27 A2985 RMK T02800270 IEM_DS3505
ZGSZ,2001-04-29 03:00,ZGSZ 290300Z AUTO 20004KT 12SM 29/25 A2983 RMK SLP107 T02920247 57001 IEM_DS3505
ZGSZ,2001-04-29 04:00,ZGSZ 290400Z AUTO 16010KT 7SM 29/28 A2983 RMK T02900280 IEM_DS3505
ZGSZ,2001-04-29 05:00,ZGSZ 290500Z AUTO 17012KT 7SM 30/28 A2980 RMK T03000280 IEM_DS3505
ZGSZ,2001-04-29 06:00,ZGSZ 290600Z AUTO 18006KT 12SM 30/23 A2980 RMK SLP094 T03030234 57013 IEM_DS3505
ZGSZ,2001-04-29 07:00,ZGSZ 290700Z AUTO 16014KT 6SM 29/27 A2977 RMK T02900270 IEM_DS3505
ZGSZ,2001-04-29 08:00,ZGSZ 290800Z AUTO 16016KT 6SM 29/27 A2974 RMK T02900270 IEM_DS3505
ZGSZ,2001-04-29 09:00,ZGSZ 290900Z AUTO 18004KT 12SM 29/24 A2977 RMK SLP084 T02910238 57010 IEM_DS3505
ZGSZ,2001-04-29 10:00,ZGSZ 291000Z AUTO 16010KT 6SM 28/27 A2977 RMK T02800270 IEM_DS3505
ZGSZ,2001-04-29 11:00,ZGSZ 291100Z AUTO 16014KT 7SM 28/27 A2977 RMK T02800270 IEM_DS3505
ZGSZ,2001-04-29 12:00,ZGSZ 291200Z AUTO 00000KT 12SM 28/24 A2980 RMK 60003 SLP096 T02790237 52012 IEM_DS3505
ZGSZ,2001-04-29 13:00,ZGSZ 291300Z AUTO 16008KT 7SM 27/26 A2983 RMK T02700260 IEM_DS3505
ZGSZ,2001-04-29 14:00,ZGSZ 291400Z AUTO 16008KT 6SM 27/26 A2983 RMK T02700260 IEM_DS3505
ZGSZ,2001-04-29 15:00,ZGSZ 291500Z AUTO 17006KT 6SM 26/26 A2985 RMK T02600260 IEM_DS3505
ZGSZ,2001-04-29 16:00,ZGSZ 291600Z AUTO 17008KT 6SM 27/26 A2985 RMK T02700260 IEM_DS3505
ZGSZ,2001-04-29 17:00,ZGSZ 291700Z AUTO 16006KT 6SM 26/26 A2985 RMK T02600260 IEM_DS3505
ZGSZ,2001-04-29 18:00,ZGSZ 291800Z AUTO 00000KT 9SM 27/24 A2985 RMK SLP109 T02660243 57008 IEM_DS3505
ZGSZ,2001-04-29 19:00,ZGSZ 291900Z AUTO 17006KT 25/25 A2983 RMK T02500250 IEM_DS3505
ZGSZ,2001-04-29 20:00,ZGSZ 292000Z AUTO 15004KT 25/25 A2983 RMK T02500250 IEM_DS3505
ZGSZ,2001-04-29 21:00,ZGSZ 292100Z AUTO 04002KT 7SM 26/24 A2985 RMK 70001 SLP110 T02600241 52001 IEM_DS3505
ZGSZ,2001-04-29 22:00,ZGSZ 292200Z AUTO 15008KT 2SM 26/26 A2985 RMK T02600260 IEM_DS3505
ZGSZ,2001-04-29 23:00,ZGSZ 292300Z AUTO 14006KT 2 1/2SM 26/26 A2988 RMK T02600260 IEM_DS3505
ZGSZ,2001-04-30 00:00,ZGSZ 300000Z AUTO 14002KT 7SM 27/24 A2988 RMK 70003 SLP128 T02680242 52018 IEM_DS3505
ZGSZ,2001-04-30 01:00,ZGSZ 300100Z AUTO 16008KT 7SM 28/27 A2988 RMK T02800270 IEM_DS3505
ZGSZ,2001-04-30 02:00,ZGSZ 300200Z AUTO 16008KT 7SM 29/27 A2988 RMK T02900270 IEM_DS3505
ZGSZ,2001-04-30 03:00,ZGSZ 300300Z AUTO 22006KT 9SM 30/24 A2988 RMK SLP129 T03010235 52001 IEM_DS3505
ZGSZ,2001-04-30 04:00,ZGSZ 300400Z AUTO 17008KT 7SM 30/27 A2988 RMK T03000270 IEM_DS3505
ZGSZ,2001-04-30 05:00,ZGSZ 300500Z AUTO 17008KT 6SM 31/28 A2985 RMK T03100280 IEM_DS3505
ZGSZ,2001-04-30 06:00,ZGSZ 300600Z AUTO 22008KT 19SM 32/22 A2985 RMK SLP107 T03220218 57022 IEM_DS3505
ZGSZ,2001-04-30 07:00,ZGSZ 300700Z AUTO 17010KT 7SM 30/28 A2980 RMK T03000280 IEM_DS3505
ZGSZ,2001-04-30 08:00,ZGSZ 300800Z AUTO 17012KT 7SM 30/27 A2980 RMK T03000270 IEM_DS3505
ZGSZ,2001-04-30 09:00,ZGSZ 300900Z AUTO 20006KT 19SM 32/23 A2980 RMK SLP089 T03170229 57018 IEM_DS3505
ZGSZ,2001-04-30 10:00,ZGSZ 301000Z AUTO 16012KT 6SM 29/27 A2980 RMK T02900270 IEM_DS3505
ZGSZ,2001-04-30 11:00,ZGSZ 301100Z AUTO 16010KT 6SM 28/27 A2980 RMK T02800270 IEM_DS3505
ZGSZ,2001-04-30 12:00,ZGSZ 301200Z AUTO 20004KT 16SM 28/24 A2980 RMK SLP096 T02840235 52007 IEM_DS3505
ZGSZ,2001-04-30 13:00,ZGSZ 301300Z AUTO 16008KT 6SM 27/26 A2985 RMK T02700260 IEM_DS3505
ZGSZ,2001-04-30 14:00,ZGSZ 301400Z AUTO 16006KT 6SM 27/26 A2985 RMK T02700260 IEM_DS3505
ZGSZ,2001-04-30 15:00,ZGSZ 301500Z AUTO 16006KT 6SM 27/26 A2988 RMK T02700260 IEM_DS3505
ZGSZ,2001-04-30 16:00,ZGSZ 301600Z AUTO 14002KT 6SM 27/26 A2988 RMK T02700260 IEM_DS3505
ZGSZ,2001-04-30 17:00,ZGSZ 301700Z AUTO 17002KT 6SM 27/26 A2988 RMK T02700260 IEM_DS3505
ZGSZ,2001-04-30 18:00,ZGSZ 301800Z AUTO 18004KT 16SM 27/24 A2985 RMK SLP117 T02730240 57004 IEM_DS3505
ZGSZ,2001-04-30 19:00,ZGSZ 301900Z AUTO 17006KT 7SM 26/26 A2985 RMK T02600260 IEM_DS3505
ZGSZ,2001-04-30 20:00,ZGSZ 302000Z AUTO 18004KT 2SM 26/26 A2985 RMK T02600260 IEM_DS3505
ZGSZ,2001-04-30 21:00,ZGSZ 302100Z AUTO 27002KT 16SM 27/24 A2985 RMK 70003 SLP113 T02710242 57004 IEM_DS3505
ZGSZ,2001-04-30 22:00,ZGSZ 302200Z AUTO 20006KT 2 1/2SM 24/24 A2985 RMK T02400240 IEM_DS3505
ZGSZ,2001-04-30 23:00,ZGSZ 302300Z AUTO 29010KT 1SM 24/24 A2988 RMK T02400240 IEM_DS3505
ZGSZ,2001-05-01 00:00,ZGSZ 010000Z AUTO 27006KT 9SM 24/23 RMK 60012 SLP126 T02450229 52013 IEM_DS3505
ZGSZ,2001-05-01 01:00,ZGSZ 010100Z AUTO 30008KT 1 1/2SM 25/25 A2991 RMK T02500250 IEM_DS3505
ZGSZ,2001-05-01 02:00,ZGSZ 010200Z AUTO 27008KT 2 1/2SM 25/25 A2994 RMK T02500250 IEM_DS3505
ZGSZ,2001-05-01 03:00,ZGSZ 010300Z AUTO 18004KT 5SM 26/22 A2991 RMK SLP138 T02610221 52012 IEM_DS3505
ZGSZ,2001-05-01 04:00,ZGSZ 010400Z AUTO 31006KT 3SM 28/25 A2991 RMK T02800250 IEM_DS3505
ZGSZ,2001-05-01 05:00,ZGSZ 010500Z AUTO 30004KT 7SM 27/25 A2988 RMK T02700250 IEM_DS3505
ZGSZ,2001-05-01 06:00,ZGSZ 010600Z AUTO 22006KT 9SM 28/22 A2985 RMK 60000 SLP111 T02800221 57027 IEM_DS3505
ZGSZ,2001-05-01 07:00,ZGSZ 010700Z AUTO 31008KT 2 1/2SM 26/25 A2983 RMK T02600250 IEM_DS3505
ZGSZ,2001-05-01 08:00,ZGSZ 010800Z AUTO 32010KT 2SM 27/25 A2983 RMK T02700250 IEM_DS3505
ZGSZ,2001-05-01 09:00,ZGSZ 010900Z AUTO 29008KT 3SM 27/23 A2980 RMK SLP097 T02720227 57014 IEM_DS3505
ZGSZ,2001-05-01 10:00,ZGSZ 011000Z AUTO 32006KT 2SM 26/24 A2980 RMK T02600240 IEM_DS3505
ZGSZ,2001-05-01 11:00,ZGSZ 011100Z AUTO 29006KT 2SM 26/24 A2983 RMK T02600240 IEM_DS3505
ZGSZ,2001-05-01 12:00,ZGSZ 011200Z AUTO 32006KT 3SM 26/23 A2983 RMK SLP101 T02640226 52004 IEM_DS3505
ZGSZ,2001-05-01 13:00,ZGSZ 011300Z AUTO 32006KT 2SM 26/24 A2983 RMK T02600240 IEM_DS3505
ZGSZ,2001-05-01 14:00,ZGSZ 011400Z AUTO 33006KT 2 1/2SM 25/24 A2985 RMK T02500240 IEM_DS3505
ZGSZ,2001-05-01 15:00,ZGSZ 011500Z AUTO 34006KT 3SM 25/24 A2985 RMK T02500240 IEM_DS3505
ZGSZ,2001-05-01 16:00,ZGSZ 011600Z AUTO 36004KT 5SM 25/23 A2985 RMK T02500230 IEM_DS3505
ZGSZ,2001-05-01 17:00,ZGSZ 011700Z AUTO 35006KT 5SM 24/23 A2983 RMK T02400230 IEM_DS3505
ZGSZ,2001-05-01 18:00,ZGSZ 011800Z AUTO 36004KT 5SM 25/20 A2983 RMK SLP093 T02470203 57017 IEM_DS3505
ZGSZ,2001-05-01 19:00,ZGSZ 011900Z AUTO 35004KT 6SM 24/23 A2980 RMK T02400230 IEM_DS3505
ZGSZ,2001-05-01 20:00,ZGSZ 012000Z AUTO 35004KT 6SM 24/23 A2980 RMK T02400230 IEM_DS3505
ZGSZ,2001-05-01 21:00,ZGSZ 012100Z AUTO 36002KT 6SM 24/20 A2980 RMK 70014 SLP092 T02420196 57001 IEM_DS3505
ZGSZ,2001-05-01 22:00,ZGSZ 012200Z AUTO 01006KT 4SM 24/22 A2983 RMK T02400220 IEM_DS3505
ZGSZ,2001-05-01 23:00,ZGSZ 012300Z AUTO 04004KT 4SM 24/22 A2983 RMK T02400220 IEM_DS3505
ZGSZ,2001-05-02 00:00,ZGSZ 020000Z AUTO 04006KT 5SM 24/20 A2985 RMK 70001 SLP111 T02430199 52019 IEM_DS3505
ZGSZ,2001-05-02 01:00,ZGSZ 020100Z AUTO 35004KT 4SM 25/22 A2985 RMK T02500220 IEM_DS3505
ZGSZ,2001-05-02 02:00,ZGSZ 020200Z AUTO 02002KT 4SM 27/24 A2985 RMK T02700240 IEM_DS3505
ZGSZ,2001-05-02 03:00,ZGSZ 020300Z AUTO 29004KT 4SM 27/21 A2985 RMK SLP116 T02690207 52005 IEM_DS3505
ZGSZ,2001-05-02 04:00,ZGSZ 020400Z AUTO 26004KT 2SM 27/24 A2983 RMK T02700240 IEM_DS3505
ZGSZ,2001-05-02 05:00,ZGSZ 020500Z AUTO 27006KT 2 1/2SM 26/23 A2983 RMK T02600230 IEM_DS3505
ZGSZ,2001-05-02 06:00,ZGSZ 020600Z AUTO 09004KT 4SM 27/22 A2980 RMK SLP100 T02670223 57016 IEM_DS3505
ZGSZ,2001-05-02 07:00,ZGSZ 020700Z AUTO 26002KT 3SM 27/24 A2980 RMK T02700240 IEM_DS3505
ZGSZ,2001-05-02 08:00,ZGSZ 020800Z AUTO 25002KT 3SM 27/24 A2977 RMK T02700240 IEM_DS3505
ZGSZ,2001-05-02 09:00,ZGSZ 020900Z AUTO 14004KT 4SM 26/23 A2977 RMK SLP085 T02610227 57015 IEM_DS3505
ZGSZ,2001-05-02 10:00,ZGSZ 021000Z AUTO 28002KT 3SM 26/24 A2977 RMK T02600240 IEM_DS3505
ZGSZ,2001-05-02 11:00,ZGSZ 021100Z AUTO 27002KT 2 1/2SM 26/24 A2977 RMK T02600240 IEM_DS3505
ZGSZ,2001-05-02 12:00,ZGSZ 021200Z AUTO 14004KT 2 1/2SM 25/23 A2980 RMK 60003 SLP096 T02510226 52011 IEM_DS3505
ZGSZ,2001-05-02 13:00,ZGSZ 021300Z AUTO 15002KT 2SM 25/24 A2980 RMK T02500240 IEM_DS3505
ZGSZ,2001-05-02 14:00,ZGSZ 021400Z AUTO 15004KT 1 1/2SM 26/24 A2983 RMK T02600240 IEM_DS3505
ZGSZ,2001-05-02 15:00,ZGSZ 021500Z AUTO 09006KT 2SM 25/25 A2983 RMK T02500250 IEM_DS3505
ZGSZ,2001-05-02 16:00,ZGSZ 021600Z AUTO 12006KT 2SM 25/24 A2983 RMK T02500240 IEM_DS3505
ZGSZ,2001-05-02 17:00,ZGSZ 021700Z AUTO 12006KT 2 1/2SM 25/24 A2983 RMK T02500240 IEM_DS3505
ZGSZ,2001-05-02 18:00,ZGSZ 021800Z AUTO 09006KT 4SM 24/23 A2980 RMK 60000 SLP096 T02410228 57006 IEM_DS3505
ZGSZ,2001-05-02 19:00,ZGSZ 021900Z AUTO 10002KT 24/24 A2980 RMK T02400240 IEM_DS3505
ZGSZ,2001-05-02 20:00,ZGSZ 022000Z AUTO 12004KT 24/24 A2983 RMK T02400240 IEM_DS3505
ZGSZ,2001-05-02 21:00,ZGSZ 022100Z AUTO 11006KT 4SM 24/23 A2980 RMK 70013 SLP101 T02370227 52005 IEM_DS3505
ZGSZ,2001-05-02 22:00,ZGSZ 022200Z AUTO 13006KT 2 1/2SM 24/24 A2983 RMK T02400240 IEM_DS3505
ZGSZ,2001-05-02 23:00,ZGSZ 022300Z AUTO 12002KT 3SM 24/24 A2983 RMK T02400240 IEM_DS3505
ZGSZ,2001-05-03 00:00,ZGSZ 030000Z AUTO 09004KT 3SM 24/23 A2988 RMK 60016 SLP119 T02430231 52018 IEM_DS3505
ZGSZ,2001-05-03 01:00,ZGSZ 030100Z AUTO 00000KT 7SM 25/25 A2988 RMK T02500250 IEM_DS3505
ZGSZ,2001-05-03 02:00,ZGSZ 030200Z AUTO 13004KT 7SM 27/26 A2988 RMK T02700260 IEM_DS3505
ZGSZ,2001-05-03 03:00,ZGSZ 030300Z AUTO 09004KT 9SM 26/23 A2988 RMK SLP124 T02560228 52005 IEM_DS3505
ZGSZ,2001-05-03 04:00,ZGSZ 030400Z AUTO 27004KT 4SM 27/26 A2988 RMK T02700260 IEM_DS3505
ZGSZ,2001-05-03 05:00,ZGSZ 030500Z AUTO 20002KT 2 1/2SM 26/26 A2988 RMK T02600260 IEM_DS3505
ZGSZ,2001-05-03 06:00,ZGSZ 030600Z AUTO 09008KT 4SM 25/22 A2985 RMK 60003 SLP121 T02490224 57003 IEM_DS3505
ZGSZ,2001-05-03 07:00,ZGSZ 030700Z AUTO 12006KT 7SM 27/25 A2985 RMK T02700250 IEM_DS3505
ZGSZ,2001-05-03 08:00,ZGSZ 030800Z AUTO 13006KT 7SM 26/25 A2983 RMK T02600250 IEM_DS3505
ZGSZ,2001-05-03 09:00,ZGSZ 030900Z AUTO 09006KT 6SM 24/22 A2983 RMK SLP108 T02450215 57013 IEM_DS3505
ZGSZ,2001-05-03 10:00,ZGSZ 031000Z AUTO 12008KT 7SM 26/24 A2985 RMK T02600240 IEM_DS3505
ZGSZ,2001-05-03 11:00,ZGSZ 031100Z AUTO 12004KT 4SM 25/24 A2988 RMK T02500240 IEM_DS3505
ZGSZ,2001-05-03 12:00,ZGSZ 031200Z AUTO 14004KT 4SM 24/21 A2988 RMK 60000 SLP134 T02370211 52025 IEM_DS3505
ZGSZ,2001-05-03 13:00,ZGSZ 031300Z AUTO 11008KT 4SM 24/23 A2991 RMK T02400230 IEM_DS3505
ZGSZ,2001-05-03 14:00,ZGSZ 031400Z AUTO 12006KT 4SM 24/23 A2994 RMK T02400230 IEM_DS3505
ZGSZ,2001-05-03 15:00,ZGSZ 031500Z AUTO 13004KT 4SM 24/23 A2994 RMK T02400230 IEM_DS3505
ZGSZ,2001-05-03 16:00,ZGSZ 031600Z AUTO 13006KT 6SM 24/23 A2991 RMK T02400230 IEM_DS3505
ZGSZ,2001-05-03 17:00,ZGSZ 031700Z AUTO 01002KT 7SM 24/23 A2991 RMK T02400230 IEM_DS3505
ZGSZ,2001-05-03 18:00,ZGSZ 031800Z AUTO 07004KT 4SM 24/21 A2985 RMK 60003 SLP124 T02350211 57014 IEM_DS3505
ZGSZ,2001-05-03 19:00,ZGSZ 031900Z AUTO 12008KT 7SM 23/23 A2985 RMK T02300230 IEM_DS3505
ZGSZ,2001-05-03 20:00,ZGSZ 032000Z AUTO 00000KT 2 1/2SM 23/23 A2985 RMK T02300230 IEM_DS3505
ZGSZ,2001-05-03 21:00,ZGSZ 032100Z AUTO 11006KT 4SM 23/21 A2988 RMK 70002 SLP124 T02330212 54000 IEM_DS3505
ZGSZ,2001-05-03 22:00,ZGSZ 032200Z AUTO 03004KT 2 1/2SM 23/23 A2991 RMK T02300230 IEM_DS3505
ZGSZ,2001-05-03 23:00,ZGSZ 032300Z AUTO 05002KT 2 1/2SM 24/23 A2991 RMK T02400230 IEM_DS3505
ZGSZ,2001-05-04 00:00,ZGSZ 040000Z AUTO 09004KT 4SM 24/22 A2991 RMK 70000 SLP132 T02390215 52007 IEM_DS3505
ZGSZ,2001-05-04 01:00,ZGSZ 040100Z AUTO 11008KT 4SM 26/24 A2994 RMK T02600240 IEM_DS3505
ZGSZ,2001-05-04 02:00,ZGSZ 040200Z AUTO 14006KT 4SM 27/24 A2994 RMK T02700240 IEM_DS3505
ZGSZ,2001-05-04 03:00,ZGSZ 040300Z AUTO 09006KT 4SM 26/22 A2994 RMK SLP142 T02600220 52011 IEM_DS3505
ZGSZ,2001-05-04 04:00,ZGSZ 040400Z AUTO 22004KT 5SM 28/25 A2991 RMK T02800250 IEM_DS3505
ZGSZ,2001-05-04 06:00,ZGSZ 040600Z AUTO 14008KT 4SM 27/23 A2988 RMK SLP122 T02730231 57020 IEM_DS3505
ZGSZ,2001-05-04 07:00,ZGSZ 040700Z AUTO 18010KT 6SM 29/25 A2985 RMK T02900250 IEM_DS3505
ZGSZ,2001-05-04 08:00,ZGSZ 040800Z AUTO 20008KT 6SM 28/25 A2985 RMK T02800250 IEM_DS3505
ZGSZ,2001-05-04 09:00,ZGSZ 040900Z AUTO 09004KT 4SM 27/22 A2985 RMK SLP114 T02660225 57008 IEM_DS3505
ZGSZ,2001-05-04 10:00,ZGSZ 041000Z AUTO 16006KT 5SM 26/25 A2985 RMK T02600250 IEM_DS3505
ZGSZ,2001-05-04 11:00,ZGSZ 041100Z AUTO 15006KT 3SM 26/25 A2985 RMK T02600250 IEM_DS3505
ZGSZ,2001-05-04 12:00,ZGSZ 041200Z AUTO 09006KT 3SM 25/22 A2985 RMK 60003 SLP121 T02540221 52007 IEM_DS3505
ZGSZ,2001-05-04 13:00,ZGSZ 041300Z AUTO 11006KT 2SM 26/24 A2985 RMK T02600240 IEM_DS3505
ZGSZ,2001-05-04 14:00,ZGSZ 041400Z AUTO 12004KT 2 1/2SM 25/24 A2988 RMK T02500240 IEM_DS3505
ZGSZ,2001-05-04 17:00,ZGSZ 041700Z AUTO 00000KT 3SM 25/24 A2988 RMK T02500240 IEM_DS3505
ZGSZ,2001-05-04 18:00,ZGSZ 041800Z AUTO 07004KT 4SM 25/22 A2985 RMK 60003 SLP112 T02460225 57014 IEM_DS3505
ZGSZ,2001-05-04 19:00,ZGSZ 041900Z AUTO 09002KT 4SM 24/24 A2985 RMK T02400240 IEM_DS3505
ZGSZ,2001-05-04 20:00,ZGSZ 042000Z AUTO 01002KT 4SM 23/23 A2985 RMK T02300230 IEM_DS3505
ZGSZ,2001-05-04 21:00,ZGSZ 042100Z AUTO 00000KT 4SM 24/23 A2985 RMK 70003 SLP113 T02440226 52001 IEM_DS3505
ZGSZ,2001-05-04 22:00,ZGSZ 042200Z AUTO 11004KT 1 1/2SM 24/24 A2985 RMK T02400240 IEM_DS3505
ZGSZ,2001-05-04 23:00,ZGSZ 042300Z AUTO 13006KT 1 1/2SM 25/24 A2988 RMK T02500240 IEM_DS3505
ZGSZ,2001-05-05 00:00,ZGSZ 050000Z AUTO 09002KT 2 1/2SM 25/23 A2988 RMK 70003 SLP116 T02540229 52003 IEM_DS3505
ZGSZ,2001-05-05 01:00,ZGSZ 050100Z AUTO 09002KT 2 1/2SM 25/23 A2988 RMK 70003 SLP116 T02540229 52003 IEM_DS3505
ZGSZ,2001-05-05 02:00,ZGSZ 050200Z AUTO 20006KT 4SM 29/26 A2988 RMK T02900260 IEM_DS3505
ZGSZ,2001-05-05 03:00,ZGSZ 050300Z AUTO 22006KT 7SM 30/22 A2988 RMK SLP122 T02980220 52006 IEM_DS3505
ZGSZ,2001-05-05 04:00,ZGSZ 050400Z AUTO 18006KT 7SM 30/26 A2985 RMK T03000260 IEM_DS3505
ZGSZ,2001-05-05 05:00,ZGSZ 050500Z AUTO 18006KT 7SM 30/27 A2985 RMK T03000270 IEM_DS3505
ZGSZ,2001-05-05 06:00,ZGSZ 050600Z AUTO 16006KT 8SM 31/23 A2983 RMK SLP101 T03110230 57021 IEM_DS3505
ZGSZ,2001-05-05 07:00,ZGSZ 050700Z AUTO 19010KT 6SM 29/27 A2980 RMK T02900270 IEM_DS3505
ZGSZ,2001-05-05 08:00,ZGSZ 050800Z AUTO 17012KT 6SM 29/26 A2977 RMK T02900260 IEM_DS3505
ZGSZ,2001-05-05 09:00,ZGSZ 050900Z AUTO 20006KT 12SM 31/22 A2977 RMK SLP082 T03090215 57019 IEM_DS3505
ZGSZ,2001-05-05 10:00,ZGSZ 051000Z AUTO 17012KT 6SM 28/26 A2977 RMK T02800260 IEM_DS3505
ZGSZ,2001-05-05 11:00,ZGSZ 051100Z AUTO 16010KT 6SM 27/26 A2980 RMK T02700260 IEM_DS3505
ZGSZ,2001-05-05 12:00,ZGSZ 051200Z AUTO 22004KT 14SM 28/23 A2980 RMK SLP095 T02800228 52013 IEM_DS3505
ZGSZ,2001-05-05 13:00,ZGSZ 051300Z AUTO 17008KT 6SM 27/26 A2980 RMK T02700260 IEM_DS3505
ZGSZ,2001-05-05 14:00,ZGSZ 051400Z AUTO 16010KT 6SM 27/26 A2983 RMK T02700260 IEM_DS3505
ZGSZ,2001-05-05 15:00,ZGSZ 051500Z AUTO 16008KT 6SM 27/26 A2983 RMK T02700260 IEM_DS3505
ZGSZ,2001-05-05 16:00,ZGSZ 051600Z AUTO 17008KT 6SM 26/26 A2983 RMK T02600260 IEM_DS3505
ZGSZ,2001-05-05 17:00,ZGSZ 051700Z AUTO 17006KT 6SM 26/26 A2983 RMK T02600260 IEM_DS3505
ZGSZ,2001-05-05 18:00,ZGSZ 051800Z AUTO 20004KT 9SM 26/24 A2980 RMK SLP091 T02650238 57016 IEM_DS3505
ZGSZ,2001-05-05 19:00,ZGSZ 051900Z AUTO 16008KT 6SM 26/26 A2980 RMK T02600260 IEM_DS3505
ZGSZ,2001-05-05 20:00,ZGSZ 052000Z AUTO 16008KT 6SM 26/26 A2977 RMK T02600260 IEM_DS3505
ZGSZ,2001-05-05 21:00,ZGSZ 052100Z AUTO 20004KT 6SM 26/24 A2977 RMK SLP087 T02600238 57004 IEM_DS3505
ZGSZ,2001-05-05 22:00,ZGSZ 052200Z AUTO 16006KT 2 1/2SM 26/26 A2980 RMK T02600260 IEM_DS3505
ZGSZ,2001-05-05 23:00,ZGSZ 052300Z AUTO 15006KT 4SM 27/27 A2980 RMK T02700270 IEM_DS3505
ZGSZ,2001-05-06 00:00,ZGSZ 060000Z AUTO 20004KT 5SM 27/24 A2983 RMK SLP104 T02700241 52017 IEM_DS3505
ZGSZ,2001-05-06 01:00,ZGSZ 060100Z AUTO 16008KT 7SM 28/27 A2983 RMK T02800270 IEM_DS3505
ZGSZ,2001-05-06 02:00,ZGSZ 060200Z AUTO 16010KT 7SM 29/28 A2983 RMK T02900280 IEM_DS3505
ZGSZ,2001-05-06 03:00,ZGSZ 060300Z AUTO 27008KT 16SM 30/23 A2983 RMK SLP096 T03020230 57008 IEM_DS3505
ZGSZ,2001-05-06 04:00,ZGSZ 060400Z AUTO 17010KT 7SM 30/28 A2980 RMK T03000280 IEM_DS3505
ZGSZ,2001-05-06 05:00,ZGSZ 060500Z AUTO 17010KT 7SM 30/27 A2977 RMK T03000270 IEM_DS3505
ZGSZ,2001-05-06 06:00,ZGSZ 060600Z AUTO 20006KT 12SM 32/24 A2974 RMK SLP078 T03150235 57017 IEM_DS3505
ZGSZ,2001-05-06 07:00,ZGSZ 060700Z AUTO 17010KT 6SM 30/28 A2974 RMK T03000280 IEM_DS3505
ZGSZ,2001-05-06 08:00,ZGSZ 060800Z AUTO 16012KT 7SM 30/28 A2971 RMK T03000280 IEM_DS3505
ZGSZ,2001-05-06 09:00,ZGSZ 060900Z AUTO 20006KT 12SM 32/25 A2971 RMK SLP062 T03150248 57016 IEM_DS3505
ZGSZ,2001-05-06 10:00,ZGSZ 061000Z AUTO 17014KT 7SM 28/27 A2971 RMK T02800270 IEM_DS3505
ZGSZ,2001-05-06 11:00,ZGSZ 061100Z AUTO 16014KT 7SM 28/27 A2971 RMK T02800270 IEM_DS3505
ZGSZ,2001-05-06 12:00,ZGSZ 061200Z AUTO 20004KT 12SM 29/24 A2971 RMK SLP072 T02860243 52009 IEM_DS3505
ZGSZ,2001-05-06 13:00,ZGSZ 061300Z AUTO 16010KT 6SM 28/27 A2974 RMK T02800270 IEM_DS3505
ZGSZ,2001-05-06 14:00,ZGSZ 061400Z AUTO 15010KT 6SM 28/27 A2974 RMK T02800270 IEM_DS3505
ZGSZ,2001-05-06 15:00,ZGSZ 061500Z AUTO 16012KT 6SM 28/27 A2974 RMK T02800270 IEM_DS3505
ZGSZ,2001-05-06 16:00,ZGSZ 061600Z AUTO 16012KT 6SM 28/27 A2977 RMK T02800270 IEM_DS3505
ZGSZ,2001-05-06 17:00,ZGSZ 061700Z AUTO 16010KT 6SM 27/27 A2977 RMK T02700270 IEM_DS3505
ZGSZ,2001-05-06 18:00,ZGSZ 061800Z AUTO 20002KT 12SM 28/25 A2974 RMK SLP073 T02790248 57008 IEM_DS3505
ZGSZ,2001-05-06 19:00,ZGSZ 061900Z AUTO 16008KT 27/27 A2974 RMK T02700270 IEM_DS3505
ZGSZ,2001-05-06 20:00,ZGSZ 062000Z AUTO 16008KT 27/27 A2971 RMK T02700270 IEM_DS3505
ZGSZ,2001-05-06 21:00,ZGSZ 062100Z AUTO 00000KT 12SM 28/25 A2974 RMK SLP066 T02760248 57007 IEM_DS3505
ZGSZ,2001-05-06 22:00,ZGSZ 062200Z AUTO 16008KT 6SM 27/27 A2974 RMK T02700270 IEM_DS3505
ZGSZ,2001-05-06 23:00,ZGSZ 062300Z AUTO 16006KT 6SM 27/27 A2974 RMK T02700270 IEM_DS3505
ZGSZ,2001-05-07 00:00,ZGSZ 070000Z AUTO 16006KT 11SM 28/25 A2977 RMK SLP087 T02820247 52020 IEM_DS3505
ZGSZ,2001-05-07 01:00,ZGSZ 070100Z AUTO 16008KT 7SM 29/28 A2977 RMK T02900280 IEM_DS3505
ZGSZ,2001-05-07 02:00,ZGSZ 070200Z AUTO 16012KT 7SM 29/28 A2977 RMK T02900280 IEM_DS3505
ZGSZ,2001-05-07 03:00,ZGSZ 070300Z AUTO 20004KT 16SM 31/24 A2977 RMK SLP084 T03080241 57002 IEM_DS3505
ZGSZ,2001-05-07 04:00,ZGSZ 070400Z AUTO 16014KT 6SM 30/28 A2974 RMK T03000280 IEM_DS3505
ZGSZ,2001-05-07 05:00,ZGSZ 070500Z AUTO 17012KT 6SM 31/29 A2974 RMK T03100290 IEM_DS3505
ZGSZ,2001-05-07 06:00,ZGSZ 070600Z AUTO 20006KT 17SM 31/24 A2968 RMK SLP059 T03080240 57025 IEM_DS3505
ZGSZ,2001-05-07 07:00,ZGSZ 070700Z AUTO 17014KT 7SM 31/29 A2968 RMK T03100290 IEM_DS3505
ZGSZ,2001-05-07 08:00,ZGSZ 070800Z AUTO 17014KT 6SM 30/28 A2965 RMK T03000280 IEM_DS3505
ZGSZ,2001-05-07 09:00,ZGSZ 070900Z AUTO 20006KT 12SM 30/25 A2962 RMK SLP032 T03000249 57027 IEM_DS3505
ZGSZ,2001-05-07 10:00,ZGSZ 071000Z AUTO 17012KT 7SM 28/28 A2962 RMK T02800280 IEM_DS3505
ZGSZ,2001-05-07 11:00,ZGSZ 071100Z AUTO 17014KT 7SM 28/28 A2962 RMK T02800280 IEM_DS3505
ZGSZ,2001-05-07 12:00,ZGSZ 071200Z AUTO 20006KT 12SM 29/25 A2965 RMK SLP045 T02880250 52013 IEM_DS3505
ZGSZ,2001-05-07 13:00,ZGSZ 071300Z AUTO 16012KT 6SM 28/28 A2968 RMK T02800280 IEM_DS3505
ZGSZ,2001-05-07 14:00,ZGSZ 071400Z AUTO 16010KT 6SM 28/28 A2968 RMK T02800280 IEM_DS3505
ZGSZ,2001-05-07 15:00,ZGSZ 071500Z AUTO 15008KT 6SM 28/28 A2971 RMK T02800280 IEM_DS3505
ZGSZ,2001-05-07 16:00,ZGSZ 071600Z AUTO 17010KT 6SM 28/28 A2965 RMK T02800280 IEM_DS3505
ZGSZ,2001-05-07 17:00,ZGSZ 071700Z AUTO 16010KT RMK IEM_DS3505
ZGSZ,2001-05-07 18:00,ZGSZ 071800Z AUTO 18004KT 10SM 28/25 RMK SLP044 T02840253 57021 IEM_DS3505
ZGSZ,2001-05-07 19:00,ZGSZ 071900Z AUTO 01006KT 26/25 A2965 RMK T02600250 IEM_DS3505
ZGSZ,2001-05-07 20:00,ZGSZ 072000Z AUTO 02010KT 20SM RMK IEM_DS3505
ZGSZ,2001-05-07 21:00,ZGSZ 072100Z AUTO 04002KT 8SM 25/23 A2968 RMK 70013 SLP050 T02530233 52005 IEM_DS3505
ZGSZ,2001-05-07 22:00,ZGSZ 072200Z AUTO 10002KT 6SM 26/25 A2968 RMK T02600250 IEM_DS3505
ZGSZ,2001-05-07 23:00,ZGSZ 072300Z AUTO 35002KT 6SM RMK IEM_DS3505
ZGSZ,2001-05-08 00:00,ZGSZ 080000Z AUTO 02002KT 6SM 27/24 RMK 60012 SLP062 T02660240 52012 IEM_DS3505
ZGSZ,2001-05-08 01:00,ZGSZ 080100Z AUTO 30002KT 28/27 A2971 RMK T02800270 IEM_DS3505
ZGSZ,2001-05-08 02:00,ZGSZ 080200Z AUTO 04004KT 30/27 A2971 RMK T03000270 IEM_DS3505
ZGSZ,2001-05-08 03:00,ZGSZ 080300Z AUTO 22004KT 5SM 30/25 A2971 RMK SLP061 T03040252 54000 IEM_DS3505
ZGSZ,2001-05-08 04:00,ZGSZ 080400Z AUTO 24004KT 16SM 32/28 A2968 RMK T03200280 IEM_DS3505
ZGSZ,2001-05-08 05:00,ZGSZ 080500Z AUTO 21006KT 6SM 31/28 A2968 RMK T03100280 IEM_DS3505
ZGSZ,2001-05-08 06:00,ZGSZ 080600Z AUTO 20006KT 6SM 32/25 A2965 RMK SLP043 T03230252 57018 IEM_DS3505
ZGSZ,2001-05-08 07:00,ZGSZ 080700Z AUTO 19010KT 6SM 30/29 A2962 RMK T03000290 IEM_DS3505
ZGSZ,2001-05-08 08:00,ZGSZ 080800Z AUTO 11004KT 6SM 27/27 A2962 RMK T02700270 IEM_DS3505
ZGSZ,2001-05-08 09:00,ZGSZ 080900Z AUTO 18004KT 9SM 30/26 A2959 RMK SLP032 T02970255 57012 IEM_DS3505
ZGSZ,2001-05-08 10:00,ZGSZ 081000Z AUTO 19004KT 28/28 A2962 RMK T02800280 IEM_DS3505
ZGSZ,2001-05-08 11:00,ZGSZ 081100Z AUTO 17006KT 6SM 28/28 A2965 RMK T02800280 IEM_DS3505
ZGSZ,2001-05-08 12:00,ZGSZ 081200Z AUTO 18004KT 7SM 29/26 A2962 RMK 60003 SLP042 T02910260 52011 IEM_DS3505
ZGSZ,2001-05-08 13:00,ZGSZ 081300Z AUTO 15004KT 6SM 27/26 A2965 RMK T02700260 IEM_DS3505
ZGSZ,2001-05-08 14:00,ZGSZ 081400Z AUTO 03008KT 6SM 26/26 A2968 RMK T02600260 IEM_DS3505
ZGSZ,2001-05-08 15:00,ZGSZ 081500Z AUTO 03006KT 25SM RMK IEM_DS3505
ZGSZ,2001-05-08 16:00,ZGSZ 081600Z AUTO 6SM 26/26 A2971 RMK T02600260 IEM_DS3505
ZGSZ,2001-05-08 18:00,ZGSZ 081800Z AUTO 07004KT 7SM 26/24 RMK 60012 SLP054 T02550236 57017 IEM_DS3505
ZGSZ,2001-05-08 19:00,ZGSZ 081900Z AUTO 02002KT 6SM 25/25 A2968 RMK T02500250 IEM_DS3505
ZGSZ,2001-05-08 20:00,ZGSZ 082000Z AUTO 05004KT 6SM 25/25 A2965 RMK T02500250 IEM_DS3505
ZGSZ,2001-05-08 21:00,ZGSZ 082100Z AUTO 14004KT 7SM 25/23 A2965 RMK 70010 SLP051 T02540234 57004 IEM_DS3505
ZGSZ,2001-05-08 22:00,ZGSZ 082200Z AUTO 13004KT 26/25 A2965 RMK T02600250 IEM_DS3505
ZGSZ,2001-05-08 23:00,ZGSZ 082300Z AUTO 12006KT 26/26 A2968 RMK T02600260 IEM_DS3505
ZGSZ,2001-05-09 00:00,ZGSZ 090000Z AUTO 14006KT 12SM 26/24 A2968 RMK 60003 SLP051 T02640241 54000 IEM_DS3505
ZGSZ,2001-05-09 01:00,ZGSZ 090100Z AUTO 13006KT 29/27 A2965 RMK T02900270 IEM_DS3505
ZGSZ,2001-05-09 02:00,ZGSZ 090200Z AUTO 17012KT 6SM RMK IEM_DS3505
ZGSZ,2001-05-09 03:00,ZGSZ 090300Z AUTO 18006KT 12SM 30/25 A2965 RMK SLP047 T03030250 57003 IEM_DS3505
ZGSZ,2001-05-09 04:00,ZGSZ 090400Z AUTO 16014KT 29/28 A2968 RMK T02900280 IEM_DS3505
ZGSZ,2001-05-09 05:00,ZGSZ 090500Z AUTO 16012KT 6SM 28/28 A2965 RMK T02800280 IEM_DS3505
ZGSZ,2001-05-09 06:00,ZGSZ 090600Z AUTO 22008KT 14SM 30/25 A2965 RMK 60003 SLP044 T02960253 57004 IEM_DS3505
ZGSZ,2001-05-09 07:00,ZGSZ 090700Z AUTO 19006KT 6SM 23/23 A2968 RMK T02300230 IEM_DS3505
ZGSZ,2001-05-09 08:00,ZGSZ 090800Z AUTO 21004KT 10SM 24/24 A2965 RMK T02400240 IEM_DS3505
ZGSZ,2001-05-09 09:00,ZGSZ 090900Z AUTO 20006KT 6SM 24/22 A2965 RMK SLP043 T02370225 57001 IEM_DS3505
ZGSZ,2001-05-09 10:00,ZGSZ 091000Z AUTO 28004KT 6SM 25/25 A2968 RMK T02500250 IEM_DS3505
ZGSZ,2001-05-09 11:00,ZGSZ 091100Z AUTO 33008KT 6SM 25/25 A2968 RMK T02500250 IEM_DS3505
ZGSZ,2001-05-09 12:00,ZGSZ 091200Z AUTO 32004KT 4SM 25/23 RMK 60146 SLP068 T02490227 52025 IEM_DS3505
ZGSZ,2001-05-09 13:00,ZGSZ 091300Z AUTO 35004KT 6SM 24/24 A2974 RMK T02400240 IEM_DS3505
ZGSZ,2001-05-09 14:00,ZGSZ 091400Z AUTO 01008KT RMK IEM_DS3505
ZGSZ,2001-05-09 15:00,ZGSZ 091500Z AUTO 35004KT RMK IEM_DS3505
ZGSZ,2001-05-09 16:00,ZGSZ 091600Z AUTO 36010KT 24/24 A2977 RMK T02400240 IEM_DS3505
ZGSZ,2001-05-09 17:00,ZGSZ 091700Z AUTO 36010KT RMK IEM_DS3505
ZGSZ,2001-05-09 18:00,ZGSZ 091800Z AUTO 04010KT 16SM 24/20 RMK SLP080 T02360201 57004 IEM_DS3505
ZGSZ,2001-05-09 19:00,ZGSZ 091900Z AUTO 01012KT 15SM RMK IEM_DS3505
ZGSZ,2001-05-09 20:00,ZGSZ 092000Z AUTO 36012KT 6SM 23/21 A2977 RMK T02300210 IEM_DS3505
ZGSZ,2001-05-09 21:00,ZGSZ 092100Z AUTO 04008KT 16SM 23/18 A2980 RMK 70146 SLP084 T02260178 52004 IEM_DS3505
ZGSZ,2001-05-09 22:00,ZGSZ 092200Z AUTO 01008KT 6SM 22/20 A2980 RMK T02200200 IEM_DS3505
ZGSZ,2001-05-09 23:00,ZGSZ 092300Z AUTO 36010KT RMK IEM_DS3505
ZGSZ,2001-05-10 00:00,ZGSZ 100000Z AUTO 04008KT 19SM 23/18 RMK 70146 SLP105 T02290176 52021 IEM_DS3505
ZGSZ,2001-05-10 01:00,ZGSZ 100100Z AUTO 35008KT 24/21 A2985 RMK T02400210 IEM_DS3505
ZGSZ,2001-05-10 02:00,ZGSZ 100200Z AUTO 01010KT 6SM 25/22 A2985 RMK T02500220 IEM_DS3505
ZGSZ,2001-05-10 03:00,ZGSZ 100300Z AUTO 02008KT 16SM 25/18 A2983 RMK SLP104 T02540185 57001 IEM_DS3505
ZGSZ,2001-05-10 04:00,ZGSZ 100400Z AUTO 36008KT RMK IEM_DS3505
ZGSZ,2001-05-10 05:00,ZGSZ 100500Z AUTO 35008KT 6SM RMK IEM_DS3505
ZGSZ,2001-05-10 06:00,ZGSZ 100600Z AUTO 04010KT 16SM 26/20 RMK SLP097 T02610195 57007 IEM_DS3505
ZGSZ,2001-05-10 07:00,ZGSZ 100700Z AUTO 01008KT 6SM RMK IEM_DS3505
ZGSZ,2001-05-10 08:00,ZGSZ 100800Z AUTO 35010KT 6SM 27/22 A2980 RMK T02700220 IEM_DS3505
ZGSZ,2001-05-10 09:00,ZGSZ 100900Z AUTO 09006KT 12SM 25/20 A2980 RMK SLP094 T02490195 57003 IEM_DS3505
ZGSZ,2001-05-10 10:00,ZGSZ 101000Z AUTO 03008KT 6SM 26/21 A2983 RMK T02600210 IEM_DS3505
ZGSZ,2001-05-10 11:00,ZGSZ 101100Z AUTO 04006KT 25/21 A2983 RMK T02500210 IEM_DS3505
ZGSZ,2001-05-10 12:00,ZGSZ 101200Z AUTO 04008KT 12SM 25/19 A2985 RMK 60003 SLP112 T02470193 52018 IEM_DS3505
ZGSZ,2001-05-10 13:00,ZGSZ 101300Z AUTO 03008KT 25/21 A2985 RMK T02500210 IEM_DS3505
ZGSZ,2001-05-10 14:00,ZGSZ 101400Z AUTO 03008KT 6SM 24/21 A2988 RMK T02400210 IEM_DS3505
ZGSZ,2001-05-10 15:00,ZGSZ 101500Z AUTO 03006KT 22SM 24/21 A2991 RMK T02400210 IEM_DS3505
ZGSZ,2001-05-10 18:00,ZGSZ 101800Z AUTO 07006KT 16SM 23/19 RMK 60000 SLP119 T02320192 57015 IEM_DS3505
ZGSZ,2001-05-10 19:00,ZGSZ 101900Z AUTO 36004KT 6SM RMK IEM_DS3505
ZGSZ,2001-05-10 20:00,ZGSZ 102000Z AUTO 03004KT 19SM RMK IEM_DS3505
ZGSZ,2001-05-10 21:00,ZGSZ 102100Z AUTO 04004KT 16SM 23/19 A2985 RMK 70001 SLP115 T02280187 57004 IEM_DS3505
ZGSZ,2001-05-10 22:00,ZGSZ 102200Z AUTO 03006KT 22/21 A2988 RMK T02200210 IEM_DS3505
ZGSZ,2001-05-10 23:00,ZGSZ 102300Z AUTO 01006KT 23/21 A2988 RMK T02300210 IEM_DS3505
ZGSZ,2001-05-11 00:00,ZGSZ 110000Z AUTO 04008KT 7SM 23/18 A2988 RMK 70001 SLP123 T02300184 52008 IEM_DS3505
ZGSZ,2001-05-11 01:00,ZGSZ 110100Z AUTO 04006KT 24/21 A2988 RMK T02400210 IEM_DS3505
ZGSZ,2001-05-11 02:00,ZGSZ 110200Z AUTO 02004KT 16SM RMK IEM_DS3505
ZGSZ,2001-05-11 03:00,ZGSZ 110300Z AUTO 34006KT 7SM 27/19 A2988 RMK SLP119 T02670193 57004 IEM_DS3505
ZGSZ,2001-05-11 04:00,ZGSZ 110400Z AUTO 36002KT 27/22 A2985 RMK T02700220 IEM_DS3505
ZGSZ,2001-05-11 05:00,ZGSZ 110500Z AUTO 28006KT 28/23 A2985 RMK T02800230 IEM_DS3505
ZGSZ,2001-05-11 06:00,ZGSZ 110600Z AUTO 36002KT 7SM 28/20 A2983 RMK SLP105 T02800195 57014 IEM_DS3505
ZGSZ,2001-05-11 07:00,ZGSZ 110700Z AUTO 29010KT 29/23 A2980 RMK T02900230 IEM_DS3505
ZGSZ,2001-05-11 08:00,ZGSZ 110800Z AUTO 29008KT 6SM 29/23 A2980 RMK T02900230 IEM_DS3505
ZGSZ,2001-05-11 09:00,ZGSZ 110900Z AUTO 14004KT 8SM 28/21 A2977 RMK SLP089 T02760207 57016 IEM_DS3505
ZGSZ,2001-05-11 10:00,ZGSZ 111000Z AUTO 29008KT 6SM 28/22 A2980 RMK T02800220 IEM_DS3505
ZGSZ,2001-05-11 11:00,ZGSZ 111100Z AUTO 30006KT 1SM 27/23 A2980 RMK T02700230 IEM_DS3505
ZGSZ,2001-05-11 12:00,ZGSZ 111200Z AUTO 14006KT 5SM 25/21 A2980 RMK 60003 SLP099 T02530213 52010 IEM_DS3505
ZGSZ,2001-05-11 13:00,ZGSZ 111300Z AUTO 03004KT 6SM 26/23 A2983 RMK T02600230 IEM_DS3505
ZGSZ,2001-05-11 14:00,ZGSZ 111400Z AUTO 12008KT 6SM 26/23 A2983 RMK T02600230 IEM_DS3505
ZGSZ,2001-05-11 15:00,ZGSZ 111500Z AUTO 13004KT 6SM 25/23 A2985 RMK T02500230 IEM_DS3505
ZGSZ,2001-05-11 18:00,ZGSZ 111800Z AUTO 14006KT 9SM 24/21 RMK 60003 SLP100 T02380206 57011 IEM_DS3505
ZGSZ,2001-05-11 19:00,ZGSZ 111900Z AUTO 12004KT 6SM RMK IEM_DS3505
ZGSZ,2001-05-11 20:00,ZGSZ 112000Z AUTO 13002KT RMK IEM_DS3505
ZGSZ,2001-05-11 21:00,ZGSZ 112100Z AUTO 00000KT 7SM 23/21 RMK 70003 SLP099 T02330206 57001 IEM_DS3505
ZGSZ,2001-05-11 22:00,ZGSZ 112200Z AUTO 04002KT 6SM 23/22 A2983 RMK T02300220 IEM_DS3505
ZGSZ,2001-05-11 23:00,ZGSZ 112300Z AUTO 04004KT 6SM 24/23 A2980 RMK T02400230 IEM_DS3505
ZGSZ,2001-05-12 00:00,ZGSZ 120000Z AUTO 00000KT 4SM 24/21 A2983 RMK 70003 SLP098 T02400211 57001 IEM_DS3505
ZGSZ,2001-05-12 01:00,ZGSZ 120100Z AUTO 33004KT 6SM 26/24 A2983 RMK T02600240 IEM_DS3505
ZGSZ,2001-05-12 02:00,ZGSZ 120200Z AUTO 28006KT 28/25 A2983 RMK T02800250 IEM_DS3505
ZGSZ,2001-05-12 03:00,ZGSZ 120300Z AUTO 04008KT 7SM 29/20 RMK SLP095 T02880202 57003 IEM_DS3505
ZGSZ,2001-05-12 04:00,ZGSZ 120400Z AUTO 35004KT RMK IEM_DS3505
ZGSZ,2001-05-12 05:00,ZGSZ 120500Z AUTO 29006KT 6SM 31/22 A2977 RMK T03100220 IEM_DS3505
ZGSZ,2001-05-12 06:00,ZGSZ 120600Z AUTO 36006KT 7SM 31/20 A2974 RMK SLP071 T03120198 57024 IEM_DS3505
ZGSZ,2001-05-12 07:00,ZGSZ 120700Z AUTO 29010KT 30/23 A2971 RMK T03000230 IEM_DS3505
ZGSZ,2001-05-12 08:00,ZGSZ 120800Z AUTO 28008KT 6SM RMK IEM_DS3505
ZGSZ,2001-05-12 09:00,ZGSZ 120900Z AUTO 14002KT 6SM 28/21 RMK SLP067 T02810213 57004 IEM_DS3505
ZGSZ,2001-05-12 10:00,ZGSZ 121000Z AUTO 25006KT RMK IEM_DS3505
ZGSZ,2001-05-12 11:00,ZGSZ 121100Z AUTO 16010KT 6SM RMK IEM_DS3505
ZGSZ,2001-05-12 12:00,ZGSZ 121200Z AUTO 14008KT 9SM 26/21 A2974 RMK 60003 SLP081 T02600212 52014 IEM_DS3505
ZGSZ,2001-05-12 13:00,ZGSZ 121300Z AUTO 19010KT 6SM 26/24 A2977 RMK T02600240 IEM_DS3505
ZGSZ,2001-05-12 14:00,ZGSZ 121400Z AUTO 18010KT 6SM 26/24 A2980 RMK T02600240 IEM_DS3505
ZGSZ,2001-05-12 15:00,ZGSZ 121500Z AUTO 18010KT 6SM RMK IEM_DS3505
ZGSZ,2001-05-12 18:00,ZGSZ 121800Z AUTO 00000KT 12SM 24/21 RMK SLP079 T02430208 57018 IEM_DS3505
ZGSZ,2001-05-12 21:00,ZGSZ 122100Z AUTO 00000KT 9SM 24/21 RMK 70003 SLP077 T02390210 57002 IEM_DS3505
ZGSZ,2001-05-12 22:00,ZGSZ 122200Z AUTO 23004KT 6SM RMK IEM_DS3505
ZGSZ,2001-05-12 23:00,ZGSZ 122300Z AUTO 21004KT 13SM 25/24 A2977 RMK T02500240 IEM_DS3505
ZGSZ,2001-05-13 00:00,ZGSZ 130000Z AUTO 00000KT 4SM 25/21 RMK 70003 SLP088 T02470211 52011 IEM_DS3505
ZGSZ,2001-05-13 01:00,ZGSZ 130100Z AUTO 23004KT 9SM 26/24 A2977 RMK T02600240 IEM_DS3505
ZGSZ,2001-05-13 02:00,ZGSZ 130200Z AUTO 22004KT 6SM RMK IEM_DS3505
ZGSZ,2001-05-13 03:00,ZGSZ 130300Z AUTO 20002KT 4SM 28/22 A2977 RMK SLP079 T02800221 57009 IEM_DS3505
ZGSZ,2001-05-13 04:00,ZGSZ 130400Z AUTO 24004KT 6SM 28/25 A2974 RMK T02800250 IEM_DS3505
ZGSZ,2001-05-13 05:00,ZGSZ 130500Z AUTO 21006KT 6SM 29/26 A2974 RMK T02900260 IEM_DS3505
ZGSZ,2001-05-13 06:00,ZGSZ 130600Z AUTO 27006KT 4SM 30/23 A2971 RMK SLP063 T03010227 57016 IEM_DS3505
ZGSZ,2001-05-13 07:00,ZGSZ 130700Z AUTO 20008KT 6SM 29/26 A2968 RMK T02900260 IEM_DS3505
ZGSZ,2001-05-13 08:00,ZGSZ 130800Z AUTO 18010KT 6SM 29/26 A2968 RMK T02900260 IEM_DS3505
ZGSZ,2001-05-13 09:00,ZGSZ 130900Z AUTO 27006KT 4SM 30/22 A2968 RMK SLP054 T03000216 57009 IEM_DS3505
ZGSZ,2001-05-13 10:00,ZGSZ 131000Z AUTO 18008KT 6SM 28/26 A2968 RMK T02800260 IEM_DS3505
ZGSZ,2001-05-13 11:00,ZGSZ 131100Z AUTO 17008KT 6SM 27/26 A2971 RMK T02700260 IEM_DS3505
ZGSZ,2001-05-13 12:00,ZGSZ 131200Z AUTO 27004KT 4SM 28/22 A2971 RMK SLP067 T02780225 52013 IEM_DS3505
ZGSZ,2001-05-13 13:00,ZGSZ 131300Z AUTO 15010KT 6SM 27/26 A2974 RMK T02700260 IEM_DS3505
ZGSZ,2001-05-13 14:00,ZGSZ 131400Z AUTO 16012KT 6SM 27/26 A2977 RMK T02700260 IEM_DS3505
ZGSZ,2001-05-13 15:00,ZGSZ 131500Z AUTO 16008KT 6SM 26/26 A2977 RMK T02600260 IEM_DS3505
ZGSZ,2001-05-13 18:00,ZGSZ 131800Z AUTO 20004KT 4SM 26/23 RMK SLP077 T02590231 57006 IEM_DS3505
ZGSZ,2001-05-14 00:00,ZGSZ 140000Z AUTO 00000KT 3SM 26/22 RMK SLP094 T02600225 52012 IEM_DS3505
ZGSZ,2001-05-14 01:00,ZGSZ 140100Z AUTO 17008KT 6SM RMK IEM_DS3505
ZGSZ,2001-05-14 02:00,ZGSZ 140200Z AUTO 18008KT 6SM 28/26 A2983 RMK T02800260 IEM_DS3505
ZGSZ,2001-05-14 03:00,ZGSZ 140300Z AUTO 22004KT 4SM 29/22 A2983 RMK SLP103 T02930221 52009 IEM_DS3505
ZGSZ,2001-05-14 04:00,ZGSZ 140400Z AUTO 18008KT 6SM 29/25 A2983 RMK T02900250 IEM_DS3505
ZGSZ,2001-05-14 05:00,ZGSZ 140500Z AUTO 18008KT 6SM 30/26 A2980 RMK T03000260 IEM_DS3505
ZGSZ,2001-05-14 06:00,ZGSZ 140600Z AUTO 20006KT 6SM 31/22 A2980 RMK SLP092 T03060221 57011 IEM_DS3505
ZGSZ,2001-05-14 07:00,ZGSZ 140700Z AUTO 19010KT 6SM 29/25 A2977 RMK T02900250 IEM_DS3505
ZGSZ,2001-05-14 08:00,ZGSZ 140800Z AUTO 19012KT 6SM 29/26 A2977 RMK T02900260 IEM_DS3505
ZGSZ,2001-05-14 09:00,ZGSZ 140900Z AUTO 20006KT 5SM 31/22 RMK SLP079 T03060223 57013 IEM_DS3505
ZGSZ,2001-05-14 11:00,ZGSZ 141100Z AUTO 18010KT 6SM 27/25 A2977 RMK T02700250 IEM_DS3505
ZGSZ,2001-05-14 12:00,ZGSZ 141200Z AUTO 11004KT 6SM 28/23 A2977 RMK SLP089 T02800229 52010 IEM_DS3505
ZGSZ,2001-05-14 13:00,ZGSZ 141300Z AUTO 18006KT 6SM 27/25 A2980 RMK T02700250 IEM_DS3505
ZGSZ,2001-05-14 14:00,ZGSZ 141400Z AUTO 18006KT 6SM 27/25 A2983 RMK T02700250 IEM_DS3505
ZGSZ,2001-05-14 15:00,ZGSZ 141500Z AUTO 18006KT 6SM 27/25 A2983 RMK T02700250 IEM_DS3505
ZGSZ,2001-05-14 20:00,ZGSZ 142000Z AUTO 09004KT 6SM 26/25 A2983 RMK T02600250 IEM_DS3505
ZGSZ,2001-05-14 21:00,ZGSZ 142100Z AUTO 09006KT 4SM 26/23 A2983 RMK SLP108 T02550227 57004 IEM_DS3505
ZGSZ,2001-05-14 22:00,ZGSZ 142200Z AUTO 07002KT 6SM 25/24 A2985 RMK T02500240 IEM_DS3505
ZGSZ,2001-05-14 23:00,ZGSZ 142300Z AUTO 09004KT 6SM 26/24 A2985 RMK T02600240 IEM_DS3505
ZGSZ,2001-05-15 00:00,ZGSZ 150000Z AUTO 09006KT 6SM 26/23 A2988 RMK SLP128 T02580227 52020 IEM_DS3505
ZGSZ,2001-05-15 01:00,ZGSZ 150100Z AUTO 12008KT 6SM RMK IEM_DS3505
ZGSZ,2001-05-15 02:00,ZGSZ 150200Z AUTO 10006KT 6SM RMK IEM_DS3505
ZGSZ,2001-05-15 03:00,ZGSZ 150300Z AUTO 04008KT 7SM 28/22 A2988 RMK SLP129 T02840224 52001 IEM_DS3505
ZGSZ,2001-05-15 04:00,ZGSZ 150400Z AUTO 22006KT 30/25 A2988 RMK T03000250 IEM_DS3505
ZGSZ,2001-05-15 05:00,ZGSZ 150500Z AUTO 23004KT 6SM 30/26 A2985 RMK T03000260 IEM_DS3505
ZGSZ,2001-05-15 06:00,ZGSZ 150600Z AUTO 14006KT 7SM 31/22 A2983 RMK SLP106 T03060225 57023 IEM_DS3505
ZGSZ,2001-05-15 07:00,ZGSZ 150700Z AUTO 21006KT 30/26 A2983 RMK T03000260 IEM_DS3505
ZGSZ,2001-05-15 08:00,ZGSZ 150800Z AUTO 19010KT 6SM 29/26 A2983 RMK T02900260 IEM_DS3505
ZGSZ,2001-05-15 09:00,ZGSZ 150900Z AUTO 09008KT 7SM 31/24 A2983 RMK SLP105 T03060239 57001 IEM_DS3505
ZGSZ,2001-05-15 10:00,ZGSZ 151000Z AUTO 19010KT 6SM 28/26 A2983 RMK T02800260 IEM_DS3505
ZGSZ,2001-05-15 11:00,ZGSZ 151100Z AUTO 19006KT 6SM 28/26 A2985 RMK T02800260 IEM_DS3505
ZGSZ,2001-05-15 12:00,ZGSZ 151200Z AUTO 04002KT 6SM 27/23 A2985 RMK 60001 SLP119 T02690233 52014 IEM_DS3505
ZGSZ,2001-05-15 13:00,ZGSZ 151300Z AUTO 11004KT 6SM 28/25 A2988 RMK T02800250 IEM_DS3505
ZGSZ,2001-05-15 14:00,ZGSZ 151400Z AUTO 07004KT 6SM 28/25 A2988 RMK T02800250 IEM_DS3505
ZGSZ,2001-05-15 15:00,ZGSZ 151500Z AUTO 05004KT 27/25 A2988 RMK T02700250 IEM_DS3505
ZGSZ,2001-05-15 20:00,ZGSZ 152000Z AUTO 07002KT 6SM 26/25 A2985 RMK T02600250 IEM_DS3505
ZGSZ,2001-05-15 21:00,ZGSZ 152100Z AUTO 04006KT 12SM 26/22 A2985 RMK 70002 SLP117 T02580223 57003 IEM_DS3505
ZGSZ,2001-05-15 22:00,ZGSZ 152200Z AUTO 03002KT 6SM 26/25 A2988 RMK T02600250 IEM_DS3505
ZGSZ,2001-05-15 23:00,ZGSZ 152300Z AUTO 04006KT 6SM 26/25 A2988 RMK T02600250 IEM_DS3505
ZGSZ,2001-05-16 00:00,ZGSZ 160000Z AUTO 09002KT 7SM 26/22 RMK 60003 SLP133 T02610223 52016 IEM_DS3505
ZGSZ,2001-05-16 01:00,ZGSZ 160100Z AUTO 09006KT 6SM 28/25 A2991 RMK T02800250 IEM_DS3505
ZGSZ,2001-05-16 02:00,ZGSZ 160200Z AUTO 12006KT 6SM 28/25 A2991 RMK T02800250 IEM_DS3505
ZGSZ,2001-05-16 03:00,ZGSZ 160300Z AUTO 04008KT 7SM 28/22 A2991 RMK SLP137 T02780217 52004 IEM_DS3505
ZGSZ,2001-05-16 04:00,ZGSZ 160400Z AUTO 11006KT 12SM 29/26 A2991 RMK T02900260 IEM_DS3505
ZGSZ,2001-05-16 05:00,ZGSZ 160500Z AUTO 12006KT 6SM RMK IEM_DS3505
ZGSZ,2001-05-16 06:00,ZGSZ 160600Z AUTO 09006KT 4SM 27/22 RMK 60001 SLP126 T02660215 57011 IEM_DS3505
ZGSZ,2001-05-16 07:00,ZGSZ 160700Z AUTO 12010KT 26/25 A2985 RMK T02600250 IEM_DS3505
ZGSZ,2001-05-16 08:00,ZGSZ 160800Z AUTO 11012KT 8SM 27/24 A2985 RMK T02700240 IEM_DS3505
ZGSZ,2001-05-16 09:00,ZGSZ 160900Z AUTO 14006KT 7SM 27/22 RMK SLP112 T02710222 57014 IEM_DS3505
ZGSZ,2001-05-16 10:00,ZGSZ 161000Z AUTO 06004KT 6SM 27/25 A2985 RMK T02700250 IEM_DS3505
ZGSZ,2001-05-16 11:00,ZGSZ 161100Z AUTO 09004KT 6SM 27/25 A2988 RMK T02700250 IEM_DS3505
ZGSZ,2001-05-16 12:00,ZGSZ 161200Z AUTO 14006KT 7SM 26/22 A2988 RMK 60000 SLP123 T02600220 52011 IEM_DS3505
ZGSZ,2001-05-16 13:00,ZGSZ 161300Z AUTO 04008KT 6SM 26/25 A2988 RMK T02600250 IEM_DS3505
ZGSZ,2001-05-16 14:00,ZGSZ 161400Z AUTO 07006KT 6SM 26/25 A2991 RMK T02600250 IEM_DS3505
ZGSZ,2001-05-16 15:00,ZGSZ 161500Z AUTO 08004KT 6SM 26/24 A2991 RMK T02600240 IEM_DS3505
ZGSZ,2001-05-16 19:00,ZGSZ 161900Z AUTO 13004KT 6SM 26/24 A2983 RMK T02600240 IEM_DS3505
ZGSZ,2001-05-16 20:00,ZGSZ 162000Z AUTO 10004KT 6SM 26/24 A2983 RMK T02600240 IEM_DS3505
ZGSZ,2001-05-16 21:00,ZGSZ 162100Z AUTO 09006KT 7SM 25/22 A2983 RMK 70002 SLP107 T02520219 57010 IEM_DS3505
ZGSZ,2001-05-16 22:00,ZGSZ 162200Z AUTO 03002KT 6SM 25/23 A2985 RMK T02500230 IEM_DS3505
ZGSZ,2001-05-16 23:00,ZGSZ 162300Z AUTO 10006KT 6SM 26/24 A2985 RMK T02600240 IEM_DS3505
ZGSZ,2001-05-17 00:00,ZGSZ 170000Z AUTO 11008KT 7SM 26/22 RMK 70002 SLP125 T02590216 52018 IEM_DS3505
ZGSZ,2001-05-17 01:00,ZGSZ 170100Z AUTO 10010KT 6SM RMK IEM_DS3505
ZGSZ,2001-05-17 02:00,ZGSZ 170200Z AUTO 12010KT 6SM RMK IEM_DS3505
ZGSZ,2001-05-17 03:00,ZGSZ 170300Z AUTO 14008KT 6SM 26/23 RMK SLP127 T02630229 52002 IEM_DS3505
ZGSZ,2001-05-17 04:00,ZGSZ 170400Z AUTO 10010KT 6SM RMK IEM_DS3505
ZGSZ,2001-05-17 05:00,ZGSZ 170500Z AUTO 10010KT RMK IEM_DS3505
ZGSZ,2001-05-17 06:00,ZGSZ 170600Z AUTO 14006KT 7SM 28/24 RMK 60003 SLP092 T02770238 57035 IEM_DS3505
ZGSZ,2001-05-17 07:00,ZGSZ 170700Z AUTO 11008KT 28/26 A2980 RMK T02800260 IEM_DS3505
ZGSZ,2001-05-17 08:00,ZGSZ 170800Z AUTO 12010KT 6SM RMK IEM_DS3505
ZGSZ,2001-05-17 09:00,ZGSZ 170900Z AUTO 14006KT 7SM 27/24 A2977 RMK SLP088 T02710238 57004 IEM_DS3505
ZGSZ,2001-05-17 10:00,ZGSZ 171000Z AUTO 12010KT 6SM RMK IEM_DS3505
ZGSZ,2001-05-17 11:00,ZGSZ 171100Z AUTO 12010KT 6SM 27/26 A2980 RMK T02700260 IEM_DS3505
ZGSZ,2001-05-17 12:00,ZGSZ 171200Z AUTO 14004KT 5SM 26/24 A2980 RMK 60002 SLP096 T02640241 52008 IEM_DS3505
ZGSZ,2001-05-17 13:00,ZGSZ 171300Z AUTO 11008KT 6SM 27/26 A2980 RMK T02700260 IEM_DS3505
ZGSZ,2001-05-17 14:00,ZGSZ 171400Z AUTO 11008KT 6SM RMK IEM_DS3505
ZGSZ,2001-05-17 15:00,ZGSZ 171500Z AUTO 11010KT 6SM 27/26 A2980 RMK T02700260 IEM_DS3505
ZGSZ,2001-05-17 16:00,ZGSZ 171600Z AUTO 12008KT 6SM 27/26 A2980 RMK T02700260 IEM_DS3505
ZGSZ,2001-05-17 18:00,ZGSZ 171800Z AUTO 00000KT 7SM 26/24 RMK 60016 SLP075 T02620245 57026 IEM_DS3505
ZGSZ,2001-05-17 19:00,ZGSZ 171900Z AUTO 11006KT 6SM 27/27 A2974 RMK T02700270 IEM_DS3505
ZGSZ,2001-05-17 20:00,ZGSZ 172000Z AUTO 11006KT 6SM 27/27 A2971 RMK T02700270 IEM_DS3505
ZGSZ,2001-05-17 21:00,ZGSZ 172100Z AUTO 04004KT 8SM 26/24 A2971 RMK 70018 SLP067 T02600243 57008 IEM_DS3505
ZGSZ,2001-05-17 22:00,ZGSZ 172200Z AUTO 12006KT 6SM 27/27 A2971 RMK T02700270 IEM_DS3505
ZGSZ,2001-05-18 00:00,ZGSZ 180000Z AUTO 22002KT 2 1/2SM 25/24 A2974 RMK 60071 SLP074 T02540245 52007 IEM_DS3505
ZGSZ,2001-05-18 01:00,ZGSZ 180100Z AUTO 19010KT 6SM 26/26 A2974 RMK T02600260 IEM_DS3505
ZGSZ,2001-05-18 02:00,ZGSZ 180200Z AUTO 28004KT 26/26 A2974 RMK T02600260 IEM_DS3505
ZGSZ,2001-05-18 03:00,ZGSZ 180300Z AUTO 00000KT 8SM 27/25 A2974 RMK SLP076 T02700246 52002 IEM_DS3505
ZGSZ,2001-05-18 04:00,ZGSZ 180400Z AUTO 20006KT 6SM 25/25 A2974 RMK T02500250 IEM_DS3505
ZGSZ,2001-05-18 05:00,ZGSZ 180500Z AUTO 23004KT 10SM 26/26 A2971 RMK T02600260 IEM_DS3505
ZGSZ,2001-05-18 06:00,ZGSZ 180600Z AUTO 25008KT 3SM 26/25 A2968 RMK 60106 SLP061 T02600247 57015 IEM_DS3505
ZGSZ,2001-05-18 07:00,ZGSZ 180700Z AUTO 17008KT 6SM 26/26 A2965 RMK T02600260 IEM_DS3505
ZGSZ,2001-05-18 08:00,ZGSZ 180800Z AUTO 17010KT 12SM 27/27 A2965 RMK T02700270 IEM_DS3505
ZGSZ,2001-05-18 09:00,ZGSZ 180900Z AUTO 22004KT 12SM 28/24 A2965 RMK SLP046 T02800244 57015 IEM_DS3505
ZGSZ,2001-05-18 10:00,ZGSZ 181000Z AUTO 15010KT 27/26 A2965 RMK T02700260 IEM_DS3505
ZGSZ,2001-05-18 11:00,ZGSZ 181100Z AUTO 16010KT 6SM 26/26 A2965 RMK T02600260 IEM_DS3505
ZGSZ,2001-05-18 12:00,ZGSZ 181200Z AUTO 00000KT 16SM 27/24 A2968 RMK 60016 SLP054 T02680242 52008 IEM_DS3505
ZGSZ,2001-05-18 13:00,ZGSZ 181300Z AUTO 15008KT 6SM 26/26 A2971 RMK T02600260 IEM_DS3505
ZGSZ,2001-05-18 14:00,ZGSZ 181400Z AUTO 17006KT 6SM 26/26 A2971 RMK T02600260 IEM_DS3505
ZGSZ,2001-05-18 15:00,ZGSZ 181500Z AUTO 17006KT 6SM 26/26 A2968 RMK T02600260 IEM_DS3505
ZGSZ,2001-05-18 18:00,ZGSZ 181800Z AUTO 00000KT 9SM 26/24 RMK 60003 SLP050 T02590243 57008 IEM_DS3505
ZGSZ,2001-05-18 21:00,ZGSZ 182100Z AUTO 00000KT 7SM 26/24 A2962 RMK 70193 SLP039 T02560242 57011 IEM_DS3505
ZGSZ,2001-05-18 22:00,ZGSZ 182200Z AUTO 08002KT 6SM 26/26 A2965 RMK T02600260 IEM_DS3505
ZGSZ,2001-05-18 23:00,ZGSZ 182300Z AUTO 02004KT 6SM 27/26 A2965 RMK T02700260 IEM_DS3505
ZGSZ,2001-05-19 00:00,ZGSZ 190000Z AUTO 00000KT 6SM 27/24 A2968 RMK 70122 SLP052 T02660243 52013 IEM_DS3505
ZGSZ,2001-05-19 01:00,ZGSZ 190100Z AUTO 35002KT 6SM 29/26 A2968 RMK T02900260 IEM_DS3505
ZGSZ,2001-05-19 02:00,ZGSZ 190200Z AUTO 26004KT 29/27 A2968 RMK T02900270 IEM_DS3505
ZGSZ,2001-05-19 03:00,ZGSZ 190300Z AUTO 04008KT 12SM 29/25 RMK SLP050 T02940246 57002 IEM_DS3505
ZGSZ,2001-05-19 04:00,ZGSZ 190400Z AUTO 24004KT 6SM RMK IEM_DS3505
ZGSZ,2001-05-19 05:00,ZGSZ 190500Z AUTO 28008KT 6SM 28/28 A2965 RMK T02800280 IEM_DS3505
ZGSZ,2001-05-19 06:00,ZGSZ 190600Z AUTO 22004KT 7SM 28/25 A2962 RMK 60001 SLP038 T02850253 57012 IEM_DS3505
ZGSZ,2001-05-19 07:00,ZGSZ 190700Z AUTO 29008KT 47SM 28/27 A2962 RMK T02800270 IEM_DS3505
ZGSZ,2001-05-19 08:00,ZGSZ 190800Z AUTO 29008KT 6SM 28/27 A2959 RMK T02800270 IEM_DS3505
ZGSZ,2001-05-19 09:00,ZGSZ 190900Z AUTO 27002KT 2 1/2SM 27/26 A2959 RMK SLP028 T02740256 57010 IEM_DS3505
ZGSZ,2001-05-19 10:00,ZGSZ 191000Z AUTO 19006KT 6SM 27/27 A2962 RMK T02700270 IEM_DS3505
ZGSZ,2001-05-19 11:00,ZGSZ 191100Z AUTO 15006KT 27/27 A2962 RMK T02700270 IEM_DS3505
ZGSZ,2001-05-19 12:00,ZGSZ 191200Z AUTO 25006KT 2 1/2SM 27/25 A2965 RMK 60031 SLP042 T02740249 52014 IEM_DS3505
ZGSZ,2001-05-19 13:00,ZGSZ 191300Z AUTO 15006KT 6SM 27/27 A2965 RMK T02700270 IEM_DS3505
ZGSZ,2001-05-19 14:00,ZGSZ 191400Z AUTO 13006KT 6SM 27/27 A2968 RMK T02700270 IEM_DS3505
ZGSZ,2001-05-19 15:00,ZGSZ 191500Z AUTO 14004KT 6SM 27/27 A2968 RMK T02700270 IEM_DS3505
ZGSZ,2001-05-19 16:00,ZGSZ 191600Z AUTO 15002KT 26/26 A2968 RMK T02600260 IEM_DS3505
ZGSZ,2001-05-19 18:00,ZGSZ 191800Z AUTO 22004KT 2 1/2SM 27/25 RMK SLP041 T02670250 57013 IEM_DS3505
ZGSZ,2001-05-19 21:00,ZGSZ 192100Z AUTO 00000KT 2 1/2SM 26/25 A2962 RMK 70034 SLP037 T02650249 57004 IEM_DS3505
ZGSZ,2001-05-19 22:00,ZGSZ 192200Z AUTO 10002KT 6SM 26/26 A2965 RMK T02600260 IEM_DS3505
ZGSZ,2001-05-19 23:00,ZGSZ 192300Z AUTO 12004KT 6SM 27/27 A2965 RMK T02700270 IEM_DS3505
ZGSZ,2001-05-20 00:00,ZGSZ 200000Z AUTO 00000KT 2 1/2SM 28/26 A2968 RMK 70034 SLP051 T02750255 52014 IEM_DS3505
ZGSZ,2001-05-20 01:00,ZGSZ 200100Z AUTO 18004KT 6SM 29/28 A2968 RMK T02900280 IEM_DS3505
ZGSZ,2001-05-20 02:00,ZGSZ 200200Z AUTO 21006KT 30/28 A2968 RMK T03000280 IEM_DS3505
ZGSZ,2001-05-20 03:00,ZGSZ 200300Z AUTO 18004KT 4SM 31/24 A2968 RMK SLP048 T03070236 57002 IEM_DS3505
ZGSZ,2001-05-20 04:00,ZGSZ 200400Z AUTO 19006KT 6SM 31/27 A2965 RMK T03100270 IEM_DS3505
ZGSZ,2001-05-20 05:00,ZGSZ 200500Z AUTO 19006KT 6SM 31/28 A2962 RMK T03100280 IEM_DS3505
ZGSZ,2001-05-20 06:00,ZGSZ 200600Z AUTO 22004KT 7SM 32/24 A2962 RMK SLP032 T03230241 57016 IEM_DS3505
ZGSZ,2001-05-20 07:00,ZGSZ 200700Z AUTO 18010KT 6SM 31/29 A2959 RMK T03100290 IEM_DS3505
ZGSZ,2001-05-20 08:00,ZGSZ 200800Z AUTO 18012KT 6SM 31/29 A2956 RMK T03100290 IEM_DS3505
ZGSZ,2001-05-20 09:00,ZGSZ 200900Z AUTO 20002KT 4SM 30/25 A2956 RMK SLP015 T03050250 57017 IEM_DS3505
ZGSZ,2001-05-20 10:00,ZGSZ 201000Z AUTO 17014KT 7SM 28/28 A2956 RMK T02800280 IEM_DS3505
ZGSZ,2001-05-20 11:00,ZGSZ 201100Z AUTO 17012KT 28/28 A2959 RMK T02800280 IEM_DS3505
ZGSZ,2001-05-20 12:00,ZGSZ 201200Z AUTO 20006KT 5SM 29/25 A2962 RMK 60003 SLP034 T02860249 52019 IEM_DS3505
ZGSZ,2001-05-20 13:00,ZGSZ 201300Z AUTO 17008KT 6SM RMK IEM_DS3505
ZGSZ,2001-05-20 14:00,ZGSZ 201400Z AUTO 15008KT 28/27 A2962 RMK T02800270 IEM_DS3505
ZGSZ,2001-05-20 15:00,ZGSZ 201500Z AUTO 17010KT 31SM 28/28 A2965 RMK T02800280 IEM_DS3505
ZGSZ,2001-05-20 16:00,ZGSZ 201600Z AUTO 17008KT 6SM 28/28 A2965 RMK T02800280 IEM_DS3505
ZGSZ,2001-05-20 18:00,ZGSZ 201800Z AUTO 20004KT 6SM 27/24 RMK 60003 SLP036 T02720245 57007 IEM_DS3505
ZGSZ,2001-05-20 21:00,ZGSZ 202100Z AUTO 20004KT 6SM 28/25 A2959 RMK 70003 SLP027 T02780247 57009 IEM_DS3505
ZGSZ,2001-05-20 22:00,ZGSZ 202200Z AUTO 16008KT 6SM 27/27 A2959 RMK T02700270 IEM_DS3505
ZGSZ,2001-05-20 23:00,ZGSZ 202300Z AUTO 17010KT 6SM 28/28 A2962 RMK T02800280 IEM_DS3505
ZGSZ,2001-05-21 00:00,ZGSZ 210000Z AUTO 20002KT 9SM 29/25 A2962 RMK 70003 SLP035 T02860248 52008 IEM_DS3505
ZGSZ,2001-05-21 01:00,ZGSZ 210100Z AUTO 18010KT 7SM 27/27 A2965 RMK T02700270 IEM_DS3505
ZGSZ,2001-05-21 02:00,ZGSZ 210200Z AUTO 19004KT 28/28 A2965 RMK T02800280 IEM_DS3505
ZGSZ,2001-05-21 03:00,ZGSZ 210300Z AUTO 20008KT 9SM 29/25 A2965 RMK SLP039 T02920250 52004 IEM_DS3505
ZGSZ,2001-05-21 04:00,ZGSZ 210400Z AUTO 19006KT 30/28 A2962 RMK T03000280 IEM_DS3505
ZGSZ,2001-05-21 05:00,ZGSZ 210500Z AUTO 17008KT 4SM 30/29 A2962 RMK T03000290 IEM_DS3505
ZGSZ,2001-05-21 06:00,ZGSZ 210600Z AUTO 22006KT 17SM 31/25 A2959 RMK 60000 SLP021 T03140251 57018 IEM_DS3505
ZGSZ,2001-05-21 07:00,ZGSZ 210700Z AUTO 16010KT 6SM 30/28 A2956 RMK T03000280 IEM_DS3505
ZGSZ,2001-05-21 08:00,ZGSZ 210800Z AUTO 07012KT 6SM 29/26 A2956 RMK T02900260 IEM_DS3505
ZGSZ,2001-05-21 09:00,ZGSZ 210900Z AUTO 34006KT 9SM 28/23 A2962 RMK SLP019 T02850233 57002 IEM_DS3505
ZGSZ,2001-05-21 10:00,ZGSZ 211000Z AUTO 32002KT 6SM 25/25 A2959 RMK T02500250 IEM_DS3505
ZGSZ,2001-05-21 11:00,ZGSZ 211100Z AUTO 09006KT 24/24 A2959 RMK T02400240 IEM_DS3505
ZGSZ,2001-05-21 12:00,ZGSZ 211200Z AUTO 18006KT 8SM 24/24 A2959 RMK 60193 SLP037 T02450236 52017 IEM_DS3505
ZGSZ,2001-05-21 13:00,ZGSZ 211300Z AUTO 13006KT 6SM 24/24 A2965 RMK T02400240 IEM_DS3505
ZGSZ,2001-05-21 14:00,ZGSZ 211400Z AUTO 13004KT 6SM 25/24 A2965 RMK T02500240 IEM_DS3505
ZGSZ,2001-05-21 15:00,ZGSZ 211500Z AUTO 09006KT 6SM 25/24 A2962 RMK T02500240 IEM_DS3505
ZGSZ,2001-05-21 16:00,ZGSZ 211600Z AUTO 10002KT 6SM 25/25 A2962 RMK T02500250 IEM_DS3505
ZGSZ,2001-05-21 17:00,ZGSZ 211700Z AUTO 09004KT 6SM 25/25 A2962 RMK T02500250 IEM_DS3505
ZGSZ,2001-05-21 18:00,ZGSZ 211800Z AUTO 04002KT 16SM 25/24 A2959 RMK 60008 SLP027 T02510237 57010 IEM_DS3505
ZGSZ,2001-05-21 19:00,ZGSZ 211900Z AUTO 11004KT 6SM 25/24 A2959 RMK T02500240 IEM_DS3505
ZGSZ,2001-05-21 20:00,ZGSZ 212000Z AUTO 10002KT 6SM 25/24 A2956 RMK T02500240 IEM_DS3505
ZGSZ,2001-05-21 21:00,ZGSZ 212100Z AUTO 00000KT 16SM 25/23 A2959 RMK 70200 SLP021 T02490230 57007 IEM_DS3505
ZGSZ,2001-05-21 22:00,ZGSZ 212200Z AUTO 04002KT 30SM RMK IEM_DS3505
ZGSZ,2001-05-21 23:00,ZGSZ 212300Z AUTO 36004KT 26/25 A2959 RMK T02600250 IEM_DS3505
ZGSZ,2001-05-22 00:00,ZGSZ 220000Z AUTO 04004KT 5SM 26/24 A2962 RMK 60000 SLP037 T02560236 52016 IEM_DS3505
ZGSZ,2001-05-22 01:00,ZGSZ 220100Z AUTO 04002KT 12SM 27/26 A2962 RMK T02700260 IEM_DS3505
ZGSZ,2001-05-22 02:00,ZGSZ 220200Z AUTO 28002KT 6SM RMK IEM_DS3505
ZGSZ,2001-05-22 03:00,ZGSZ 220300Z AUTO 00000KT 5SM 28/25 A2965 RMK SLP041 T02850248 52004 IEM_DS3505
ZGSZ,2001-05-22 04:00,ZGSZ 220400Z AUTO 27002KT 6SM 26/25 A2965 RMK T02600250 IEM_DS3505
ZGSZ,2001-05-22 05:00,ZGSZ 220500Z AUTO 26004KT 6SM 27/24 A2962 RMK T02700240 IEM_DS3505
ZGSZ,2001-05-22 06:00,ZGSZ 220600Z AUTO 32002KT 3SM 28/25 A2959 RMK 60020 SLP024 T02850254 57017 IEM_DS3505
ZGSZ,2001-05-22 07:00,ZGSZ 220700Z AUTO 24002KT 6SM 29/23 A2959 RMK T02900230 IEM_DS3505
ZGSZ,2001-05-22 08:00,ZGSZ 220800Z AUTO 23002KT 6SM 29/25 A2956 RMK T02900250 IEM_DS3505
ZGSZ,2001-05-22 09:00,ZGSZ 220900Z AUTO 18002KT 4SM 29/24 A2959 RMK SLP023 T02940244 57001 IEM_DS3505
ZGSZ,2001-05-22 10:00,ZGSZ 221000Z AUTO 21008KT 27/25 A2959 RMK T02700250 IEM_DS3505
ZGSZ,2001-05-22 11:00,ZGSZ 221100Z AUTO 15004KT 27/25 A2959 RMK T02700250 IEM_DS3505
ZGSZ,2001-05-22 12:00,ZGSZ 221200Z AUTO 00000KT 9SM 28/25 A2959 RMK 60000 SLP033 T02770246 52010 IEM_DS3505
ZGSZ,2001-05-22 13:00,ZGSZ 221300Z AUTO 11004KT 6SM 27/24 A2965 RMK T02700240 IEM_DS3505
ZGSZ,2001-05-22 14:00,ZGSZ 221400Z AUTO 14006KT 6SM 27/25 A2965 RMK T02700250 IEM_DS3505
ZGSZ,2001-05-22 15:00,ZGSZ 221500Z AUTO 15004KT 6SM 26/25 A2965 RMK T02600250 IEM_DS3505
ZGSZ,2001-05-22 16:00,ZGSZ 221600Z AUTO 6SM 26/25 A2965 RMK T02600250 IEM_DS3505
ZGSZ,2001-05-22 18:00,ZGSZ 221800Z AUTO 07002KT 5SM 27/25 RMK SLP041 T02690249 57008 IEM_DS3505
ZGSZ,2001-05-22 19:00,ZGSZ 221900Z AUTO 05002KT 6SM 26/25 A2962 RMK T02600250 IEM_DS3505
ZGSZ,2001-05-22 20:00,ZGSZ 222000Z AUTO 06002KT 6SM 26/25 A2965 RMK T02600250 IEM_DS3505
ZGSZ,2001-05-22 21:00,ZGSZ 222100Z AUTO 04004KT 4SM 26/25 A2962 RMK 70020 SLP035 T02630246 57005 IEM_DS3505
ZGSZ,2001-05-22 22:00,ZGSZ 222200Z AUTO 04002KT 7SM 26/24 A2962 RMK T02600240 IEM_DS3505
ZGSZ,2001-05-22 23:00,ZGSZ 222300Z AUTO 02006KT 6SM 26/25 A2965 RMK T02600250 IEM_DS3505
ZGSZ,2001-05-23 00:00,ZGSZ 230000Z AUTO 07004KT 2 1/2SM 27/25 A2965 RMK 70019 SLP042 T02680247 52006 IEM_DS3505
ZGSZ,2001-05-23 01:00,ZGSZ 230100Z AUTO 7SM 28/25 A2965 RMK T02800250 57011 IEM_DS3505
ZGSZ,2001-05-23 02:00,ZGSZ 230200Z AUTO 08008KT 30/26 A2965 RMK T03000260 IEM_DS3505
ZGSZ,2001-05-23 03:00,ZGSZ 230300Z AUTO 07012KT 4SM 30/24 A2965 RMK SLP050 T03000240 52009 IEM_DS3505
ZGSZ,2001-05-23 04:00,ZGSZ 230400Z AUTO 24006KT 31/27 A2965 RMK T03100270 IEM_DS3505
ZGSZ,2001-05-23 05:00,ZGSZ 230500Z AUTO 20010KT 6SM RMK IEM_DS3505
ZGSZ,2001-05-23 06:00,ZGSZ 230600Z AUTO 09006KT 7SM 30/24 RMK SLP038 T02960236 57012 IEM_DS3505
ZGSZ,2001-05-23 07:00,ZGSZ 230700Z AUTO 20010KT RMK IEM_DS3505
ZGSZ,2001-05-23 08:00,ZGSZ 230800Z AUTO 18012KT 31/24 A2959 RMK T03100240 IEM_DS3505
ZGSZ,2001-05-23 09:00,ZGSZ 230900Z AUTO 14008KT 7SM 30/24 A2959 RMK SLP027 T03000239 57011 IEM_DS3505
ZGSZ,2001-05-23 10:00,ZGSZ 231000Z AUTO 17012KT 6SM 30/24 A2959 RMK T03000240 IEM_DS3505
ZGSZ,2001-05-23 12:00,ZGSZ 231200Z AUTO 14004KT 6SM 27/24 A2962 RMK SLP043 T02710236 52015 IEM_DS3505
ZGSZ,2001-05-23 13:00,ZGSZ 231300Z AUTO 11008KT 27/24 A2965 RMK T02700240 IEM_DS3505
ZGSZ,2001-05-23 14:00,ZGSZ 231400Z AUTO 11008KT 6SM 26/23 A2968 RMK T02600230 IEM_DS3505
ZGSZ,2001-05-23 15:00,ZGSZ 231500Z AUTO 12006KT 6SM 26/23 A2968 RMK T02600230 IEM_DS3505
ZGSZ,2001-05-23 18:00,ZGSZ 231800Z AUTO 09004KT 7SM 26/24 RMK SLP051 T02640238 54000 IEM_DS3505
ZGSZ,2001-05-23 21:00,ZGSZ 232100Z AUTO 04004KT 2 1/2SM 26/24 RMK SLP048 T02570237 57003 IEM_DS3505
ZGSZ,2001-05-24 00:00,ZGSZ 240000Z AUTO 04004KT 4SM 27/24 RMK SLP055 T02660239 52007 IEM_DS3505
ZGSZ,2001-05-24 03:00,ZGSZ 240300Z AUTO 18004KT 6SM 31/24 RMK SLP055 T03070239 52001 IEM_DS3505
ZGSZ,2001-05-24 04:00,ZGSZ 240400Z AUTO 23006KT RMK IEM_DS3505
ZGSZ,2001-05-24 05:00,ZGSZ 240500Z AUTO 23006KT 6SM 30/23 A2965 RMK T03000230 IEM_DS3505
ZGSZ,2001-05-24 06:00,ZGSZ 240600Z AUTO 16004KT 9SM 32/24 RMK SLP036 T03200238 57019 IEM_DS3505
ZGSZ,2001-05-24 07:00,ZGSZ 240700Z AUTO 20008KT 6SM 30/24 A2959 RMK T03000240 IEM_DS3505
ZGSZ,2001-05-24 08:00,ZGSZ 240800Z AUTO 21010KT 6SM 30/24 A2959 RMK T03000240 IEM_DS3505
ZGSZ,2001-05-24 09:00,ZGSZ 240900Z AUTO 20006KT 14SM 31/23 A2959 RMK SLP031 T03090230 57005 IEM_DS3505
ZGSZ,2001-05-24 10:00,ZGSZ 241000Z AUTO 17012KT 6SM 29/24 A2962 RMK T02900240 IEM_DS3505
ZGSZ,2001-05-24 11:00,ZGSZ 241100Z AUTO 18010KT 6SM 28/23 A2962 RMK T02800230 IEM_DS3505
ZGSZ,2001-05-24 12:00,ZGSZ 241200Z AUTO 14004KT 7SM 28/24 A2965 RMK SLP048 T02780235 52016 IEM_DS3505
ZGSZ,2001-05-24 13:00,ZGSZ 241300Z AUTO 12010KT 6SM 28/22 A2965 RMK T02800220 IEM_DS3505
ZGSZ,2001-05-24 14:00,ZGSZ 241400Z AUTO 12008KT 6SM 28/23 A2968 RMK T02800230 IEM_DS3505
ZGSZ,2001-05-24 15:00,ZGSZ 241500Z AUTO 14006KT 6SM 27/22 A2968 RMK T02700220 IEM_DS3505
ZGSZ,2001-05-24 18:00,ZGSZ 241800Z AUTO 14004KT 8SM 26/24 RMK SLP047 T02650235 57013 IEM_DS3505
ZGSZ,2001-05-24 19:00,ZGSZ 241900Z AUTO 02002KT 6SM 25/21 A2968 RMK T02500210 IEM_DS3505
ZGSZ,2001-05-24 20:00,ZGSZ 242000Z AUTO 09006KT 6SM 26/21 A2965 RMK T02600210 IEM_DS3505
ZGSZ,2001-05-24 21:00,ZGSZ 242100Z AUTO 09004KT 7SM 26/24 A2965 RMK SLP045 T02610236 57002 IEM_DS3505
ZGSZ,2001-05-24 22:00,ZGSZ 242200Z AUTO 06004KT 6SM 26/23 A2965 RMK T02600230 IEM_DS3505
ZGSZ,2001-05-24 23:00,ZGSZ 242300Z AUTO 03004KT 25/23 A2968 RMK T02500230 IEM_DS3505
ZGSZ,2001-05-25 00:00,ZGSZ 250000Z AUTO 09004KT 7SM 27/24 A2971 RMK SLP064 T02720237 52018 IEM_DS3505
ZGSZ,2001-05-25 01:00,ZGSZ 250100Z AUTO 09008KT 6SM 29/23 A2971 RMK T02900230 IEM_DS3505
ZGSZ,2001-05-25 02:00,ZGSZ 250200Z AUTO 09006KT 6SM 29/23 A2971 RMK T02900230 IEM_DS3505
ZGSZ,2001-05-25 03:00,ZGSZ 250300Z AUTO 11006KT 12SM 30/23 RMK SLP066 T02970231 52002 IEM_DS3505
ZGSZ,2001-05-25 04:00,ZGSZ 250400Z AUTO 10008KT RMK IEM_DS3505
ZGSZ,2001-05-25 05:00,ZGSZ 250500Z AUTO 12006KT RMK IEM_DS3505
ZGSZ,2001-05-25 06:00,ZGSZ 250600Z AUTO 14006KT 8SM 31/23 A2968 RMK SLP057 T03110226 57008 IEM_DS3505
ZGSZ,2001-05-25 07:00,ZGSZ 250700Z AUTO 18010KT 25SM 32/22 A2965 RMK T03200220 IEM_DS3505
ZGSZ,2001-05-25 08:00,ZGSZ 250800Z AUTO 10010KT 6SM RMK IEM_DS3505
ZGSZ,2001-05-25 09:00,ZGSZ 250900Z AUTO 04010KT 9SM 30/23 RMK SLP052 T03000228 57006 IEM_DS3505
ZGSZ,2001-05-25 10:00,ZGSZ 251000Z AUTO 10012KT 6SM 30/20 A2968 RMK T03000200 IEM_DS3505
ZGSZ,2001-05-25 11:00,ZGSZ 251100Z AUTO 10010KT 6SM 29/20 A2968 RMK T02900200 IEM_DS3505
ZGSZ,2001-05-25 12:00,ZGSZ 251200Z AUTO 09004KT 10SM 28/24 A2971 RMK SLP070 T02760239 52018 IEM_DS3505
ZGSZ,2001-05-25 13:00,ZGSZ 251300Z AUTO 09006KT 6SM 28/21 A2974 RMK T02800210 IEM_DS3505
ZGSZ,2001-05-25 14:00,ZGSZ 251400Z AUTO 10004KT 6SM 28/21 A2977 RMK T02800210 IEM_DS3505
ZGSZ,2001-05-25 15:00,ZGSZ 251500Z AUTO 11006KT 6SM 27/21 A2977 RMK T02700210 IEM_DS3505
ZGSZ,2001-05-25 16:00,ZGSZ 251600Z AUTO 10006KT 6SM 27/21 A2977 RMK T02700210 IEM_DS3505
ZGSZ,2001-05-25 18:00,ZGSZ 251800Z AUTO 09006KT 7SM 27/24 RMK SLP073 T02700240 57016 IEM_DS3505
ZGSZ,2001-05-25 19:00,ZGSZ 251900Z AUTO 03004KT 6SM 26/22 A2974 RMK T02600220 IEM_DS3505
ZGSZ,2001-05-25 20:00,ZGSZ 252000Z AUTO 01004KT 6SM 25/22 A2974 RMK T02500220 IEM_DS3505
ZGSZ,2001-05-25 21:00,ZGSZ 252100Z AUTO 09004KT 7SM 27/24 RMK SLP075 T02680238 52001 IEM_DS3505
ZGSZ,2001-05-25 22:00,ZGSZ 252200Z AUTO 02006KT 25/22 A2977 RMK T02500220 IEM_DS3505
ZGSZ,2001-05-25 23:00,ZGSZ 252300Z AUTO 07004KT 6SM 27/21 A2977 RMK T02700210 IEM_DS3505
ZGSZ,2001-05-26 00:00,ZGSZ 260000Z AUTO 07008KT 4SM 28/24 A2977 RMK SLP088 T02750241 52013 IEM_DS3505
ZGSZ,2001-05-26 01:00,ZGSZ 260100Z AUTO 05006KT 29/22 A2977 RMK T02900220 IEM_DS3505
ZGSZ,2001-05-26 02:00,ZGSZ 260200Z AUTO 07004KT RMK IEM_DS3505
ZGSZ,2001-05-26 03:00,ZGSZ 260300Z AUTO 09006KT 9SM 30/23 RMK SLP090 T02960233 52002 IEM_DS3505
ZGSZ,2001-05-26 04:00,ZGSZ 260400Z AUTO 02002KT 31/19 A2977 RMK T03100190 IEM_DS3505
ZGSZ,2001-05-26 05:00,ZGSZ 260500Z AUTO 25008KT RMK IEM_DS3505
ZGSZ,2001-05-26 06:00,ZGSZ 260600Z AUTO 09004KT 9SM 32/22 RMK SLP079 T03210217 57010 IEM_DS3505
ZGSZ,2001-05-26 07:00,ZGSZ 260700Z AUTO 20008KT 6SM 31/23 A2971 RMK T03100230 IEM_DS3505
ZGSZ,2001-05-26 08:00,ZGSZ 260800Z AUTO 21010KT 6SM 30/23 A2971 RMK T03000230 IEM_DS3505
ZGSZ,2001-05-26 09:00,ZGSZ 260900Z AUTO 09008KT 9SM 32/19 A2971 RMK SLP070 T03150189 57009 IEM_DS3505
ZGSZ,2001-05-26 10:00,ZGSZ 261000Z AUTO 17012KT 6SM 30/22 A2974 RMK T03000220 IEM_DS3505
ZGSZ,2001-05-26 11:00,ZGSZ 261100Z AUTO 16008KT 6SM 29/20 A2974 RMK T02900200 IEM_DS3505
ZGSZ,2001-05-26 12:00,ZGSZ 261200Z AUTO 09006KT 9SM 28/22 A2977 RMK SLP086 T02820222 52015 IEM_DS3505
ZGSZ,2001-05-26 13:00,ZGSZ 261300Z AUTO 11006KT 6SM 28/18 A2980 RMK T02800180 IEM_DS3505
ZGSZ,2001-05-26 14:00,ZGSZ 261400Z AUTO 11004KT 6SM 28/19 A2983 RMK T02800190 IEM_DS3505
ZGSZ,2001-05-26 15:00,ZGSZ 261500Z AUTO 07002KT 6SM 27/20 A2983 RMK T02700200 IEM_DS3505
ZGSZ,2001-05-26 18:00,ZGSZ 261800Z AUTO 11002KT 6SM 27/24 RMK SLP083 T02680236 57016 IEM_DS3505
ZGSZ,2001-05-26 21:00,ZGSZ 262100Z AUTO 14004KT 5SM 26/23 A2977 RMK SLP081 T02600231 57003 IEM_DS3505
ZGSZ,2001-05-26 22:00,ZGSZ 262200Z AUTO 03004KT 6SM RMK IEM_DS3505
ZGSZ,2001-05-26 23:00,ZGSZ 262300Z AUTO 03002KT 6SM 26/21 A2977 RMK T02600210 IEM_DS3505
ZGSZ,2001-05-27 00:00,ZGSZ 270000Z AUTO 09002KT 4SM 27/22 RMK SLP090 T02660222 52009 IEM_DS3505
ZGSZ,2001-05-27 01:00,ZGSZ 270100Z AUTO 32002KT 6SM 28/19 A2980 RMK T02800190 IEM_DS3505
ZGSZ,2001-05-27 02:00,ZGSZ 270200Z AUTO 30006KT 6SM 29/21 A2980 RMK T02900210 IEM_DS3505
ZGSZ,2001-05-27 03:00,ZGSZ 270300Z AUTO 14004KT 7SM 31/19 A2980 RMK SLP091 T03120189 52001 IEM_DS3505
ZGSZ,2001-05-27 04:00,ZGSZ 270400Z AUTO 25006KT 6SM 30/19 A2977 RMK T03000190 IEM_DS3505
ZGSZ,2001-05-27 05:00,ZGSZ 270500Z AUTO 24006KT 6SM 31/20 A2974 RMK T03100200 IEM_DS3505
ZGSZ,2001-05-27 06:00,ZGSZ 270600Z AUTO 16004KT 11SM 32/17 A2974 RMK SLP067 T03240166 57023 IEM_DS3505
ZGSZ,2001-05-27 07:00,ZGSZ 270700Z AUTO 21006KT 6SM 31/21 A2971 RMK T03100210 IEM_DS3505
ZGSZ,2001-05-27 08:00,ZGSZ 270800Z AUTO 20008KT 6SM 31/20 A2968 RMK T03100200 IEM_DS3505
ZGSZ,2001-05-27 09:00,ZGSZ 270900Z AUTO 09006KT 12SM 32/20 A2968 RMK SLP051 T03220196 57016 IEM_DS3505
ZGSZ,2001-05-27 10:00,ZGSZ 271000Z AUTO 19008KT 6SM 29/22 A2968 RMK T02900220 IEM_DS3505
ZGSZ,2001-05-27 11:00,ZGSZ 271100Z AUTO 20006KT 6SM 28/22 A2971 RMK T02800220 IEM_DS3505
ZGSZ,2001-05-27 12:00,ZGSZ 271200Z AUTO 11004KT 7SM 29/18 A2974 RMK SLP076 T02920177 52024 IEM_DS3505
ZGSZ,2001-05-27 13:00,ZGSZ 271300Z AUTO 16006KT 29/18 A2974 RMK T02900180 IEM_DS3505
ZGSZ,2001-05-27 14:00,ZGSZ 271400Z AUTO 12008KT 6SM 28/17 A2977 RMK T02800170 IEM_DS3505
ZGSZ,2001-05-27 15:00,ZGSZ 271500Z AUTO 12006KT 6SM 28/19 A2977 RMK T02800190 IEM_DS3505
ZGSZ,2001-05-27 16:00,ZGSZ 271600Z AUTO 11008KT 6SM 27/21 A2977 RMK T02700210 IEM_DS3505
ZGSZ,2001-05-27 18:00,ZGSZ 271800Z AUTO 09004KT 7SM 27/24 RMK SLP069 T02740241 57017 IEM_DS3505
ZGSZ,2001-05-27 21:00,ZGSZ 272100Z AUTO 09004KT 7SM 27/24 A2971 RMK SLP066 T02730240 57003 IEM_DS3505
ZGSZ,2001-05-27 22:00,ZGSZ 272200Z AUTO 02006KT 6SM 25/22 A2974 RMK T02500220 IEM_DS3505
ZGSZ,2001-05-27 23:00,ZGSZ 272300Z AUTO 03004KT 6SM 26/22 A2974 RMK T02600220 IEM_DS3505
ZGSZ,2001-05-28 00:00,ZGSZ 280000Z AUTO 04008KT 6SM 28/23 A2974 RMK SLP072 T02780233 52005 IEM_DS3505
ZGSZ,2001-05-28 01:00,ZGSZ 280100Z AUTO 05004KT 6SM 28/21 A2974 RMK T02800210 IEM_DS3505
ZGSZ,2001-05-28 02:00,ZGSZ 280200Z AUTO 03006KT 30/22 A2974 RMK T03000220 IEM_DS3505
ZGSZ,2001-05-28 03:00,ZGSZ 280300Z AUTO 14008KT 7SM 30/23 A2971 RMK SLP071 T02970229 54000 IEM_DS3505
ZGSZ,2001-05-28 04:00,ZGSZ 280400Z AUTO 12010KT 6SM 30/20 A2971 RMK T03000200 IEM_DS3505
ZGSZ,2001-05-28 05:00,ZGSZ 280500Z AUTO 14010KT 6SM 30/22 RMK SLP040 T03000221 57013 IEM_DS3505
ZGSZ,2001-05-28 06:00,ZGSZ 280600Z AUTO 14006KT 6SM 30/23 A2965 RMK SLP053 T03050230 57018 IEM_DS3505
ZGSZ,2001-05-28 07:00,ZGSZ 280700Z AUTO 17012KT 31/22 A2965 RMK T03100220 IEM_DS3505
ZGSZ,2001-05-28 08:00,ZGSZ 280800Z AUTO 17012KT 6SM 31/22 A2962 RMK T03100220 IEM_DS3505
ZGSZ,2001-05-28 09:00,ZGSZ 280900Z AUTO 14010KT 6SM 30/22 A2962 RMK SLP040 T03000221 57013 IEM_DS3505
ZGSZ,2001-05-28 10:00,ZGSZ 281000Z AUTO 15010KT 6SM 30/20 A2962 RMK T03000200 IEM_DS3505
ZGSZ,2001-05-28 11:00,ZGSZ 281100Z AUTO 12008KT 6SM 29/20 A2965 RMK T02900200 IEM_DS3505
ZGSZ,2001-05-28 12:00,ZGSZ 281200Z AUTO 14006KT 4SM 28/23 A2968 RMK SLP058 T02780229 52017 IEM_DS3505
ZGSZ,2001-05-28 13:00,ZGSZ 281300Z AUTO 12008KT 6SM 28/20 A2968 RMK T02800200 IEM_DS3505
ZGSZ,2001-05-28 14:00,ZGSZ 281400Z AUTO 10006KT 6SM 27/21 A2971 RMK T02700210 IEM_DS3505
ZGSZ,2001-05-28 15:00,ZGSZ 281500Z AUTO 11004KT 6SM 27/21 A2971 RMK T02700210 IEM_DS3505
ZGSZ,2001-05-28 18:00,ZGSZ 281800Z AUTO 09006KT 4SM 27/23 RMK SLP058 T02680232 57009 IEM_DS3505
ZGSZ,2001-05-28 19:00,ZGSZ 281900Z AUTO 08004KT 6SM 26/21 A2968 RMK T02600210 IEM_DS3505
ZGSZ,2001-05-28 20:00,ZGSZ 282000Z AUTO 07004KT 6SM 26/21 A2965 RMK T02600210 IEM_DS3505
ZGSZ,2001-05-28 21:00,ZGSZ 282100Z AUTO 11002KT 4SM 26/23 A2965 RMK SLP049 T02640231 57009 IEM_DS3505
ZGSZ,2001-05-28 22:00,ZGSZ 282200Z AUTO 02002KT 6SM 25/21 A2968 RMK T02500210 IEM_DS3505
ZGSZ,2001-05-28 23:00,ZGSZ 282300Z AUTO 05004KT 6SM 26/21 A2968 RMK T02600210 IEM_DS3505
ZGSZ,2001-05-29 00:00,ZGSZ 290000Z AUTO 09008KT 4SM 27/23 A2968 RMK SLP058 T02700226 52008 IEM_DS3505
ZGSZ,2001-05-29 01:00,ZGSZ 290100Z AUTO 01004KT 28/21 A2971 RMK T02800210 IEM_DS3505
ZGSZ,2001-05-29 02:00,ZGSZ 290200Z AUTO 10004KT RMK IEM_DS3505
ZGSZ,2001-05-29 03:00,ZGSZ 290300Z AUTO 09008KT 5SM 29/23 A2968 RMK SLP060 T02860228 52002 IEM_DS3505
ZGSZ,2001-05-29 04:00,ZGSZ 290400Z AUTO 08004KT 30/23 A2965 RMK T03000230 IEM_DS3505
ZGSZ,2001-05-29 05:00,ZGSZ 290500Z AUTO 12006KT 6SM 31/22 A2965 RMK T03100220 IEM_DS3505
ZGSZ,2001-05-29 06:00,ZGSZ 290600Z AUTO 09008KT 16SM 30/23 A2962 RMK SLP042 T03040229 57017 IEM_DS3505
ZGSZ,2001-05-29 07:00,ZGSZ 290700Z AUTO 13006KT RMK IEM_DS3505
ZGSZ,2001-05-29 08:00,ZGSZ 290800Z AUTO 16006KT 6SM RMK IEM_DS3505
ZGSZ,2001-05-29 09:00,ZGSZ 290900Z AUTO 04006KT 17SM 30/23 A2959 RMK SLP027 T03020230 57015 IEM_DS3505
ZGSZ,2001-05-29 10:00,ZGSZ 291000Z AUTO 19010KT 6SM 29/22 A2962 RMK T02900220 IEM_DS3505
ZGSZ,2001-05-29 11:00,ZGSZ 291100Z AUTO 17010KT 6SM 28/22 A2962 RMK T02800220 IEM_DS3505
ZGSZ,2001-05-29 12:00,ZGSZ 291200Z AUTO 11006KT 8SM 28/23 A2965 RMK SLP043 T02760228 52015 IEM_DS3505
ZGSZ,2001-05-29 13:00,ZGSZ 291300Z AUTO 12006KT 6SM 28/20 A2965 RMK T02800200 IEM_DS3505
ZGSZ,2001-05-29 14:00,ZGSZ 291400Z AUTO 12006KT 6SM 28/20 A2968 RMK T02800200 IEM_DS3505
ZGSZ,2001-05-29 15:00,ZGSZ 291500Z AUTO 12008KT 6SM 27/21 A2968 RMK T02700210 IEM_DS3505
ZGSZ,2001-05-29 18:00,ZGSZ 291800Z AUTO 00000KT 6SM 27/24 RMK SLP042 T02670237 57014 IEM_DS3505
ZGSZ,2001-05-29 19:00,ZGSZ 291900Z AUTO 6SM 26/21 A2962 RMK T02600210 IEM_DS3505
ZGSZ,2001-05-29 20:00,ZGSZ 292000Z AUTO 10002KT 6SM 26/21 A2962 RMK T02600210 IEM_DS3505
ZGSZ,2001-05-29 21:00,ZGSZ 292100Z AUTO 11002KT 5SM 26/24 A2962 RMK SLP035 T02650236 57007 IEM_DS3505
ZGSZ,2001-05-29 22:00,ZGSZ 292200Z AUTO 10004KT 12SM 26/21 A2965 RMK T02600210 IEM_DS3505
ZGSZ,2001-05-29 23:00,ZGSZ 292300Z AUTO 11002KT 27/21 A2965 RMK T02700210 IEM_DS3505
ZGSZ,2001-05-30 00:00,ZGSZ 300000Z AUTO 14002KT 5SM 27/24 A2968 RMK SLP049 T02740238 52013 IEM_DS3505
ZGSZ,2001-05-30 01:00,ZGSZ 300100Z AUTO 32002KT RMK IEM_DS3505
ZGSZ,2001-05-30 02:00,ZGSZ 300200Z AUTO 28004KT 6SM 28/22 A2971 RMK T02800220 IEM_DS3505
ZGSZ,2001-05-30 03:00,ZGSZ 300300Z AUTO 22004KT 6SM 29/24 A2968 RMK SLP056 T02900237 52007 IEM_DS3505
ZGSZ,2001-05-30 04:00,ZGSZ 300400Z AUTO 29006KT 29/22 A2968 RMK T02900220 IEM_DS3505
ZGSZ,2001-05-30 05:00,ZGSZ 300500Z AUTO 30012KT 16SM 27/22 A2968 RMK T02700220 IEM_DS3505
ZGSZ,2001-05-30 06:00,ZGSZ 300600Z AUTO 34002KT 3SM 28/25 A2968 RMK 60002 SLP055 T02790246 57001 IEM_DS3505
ZGSZ,2001-05-30 07:00,ZGSZ 300700Z AUTO 36008KT 6SM 26/22 A2968 RMK T02600220 IEM_DS3505
ZGSZ,2001-05-30 08:00,ZGSZ 300800Z AUTO 02004KT 26/21 A2968 RMK T02600210 IEM_DS3505
ZGSZ,2001-05-30 09:00,ZGSZ 300900Z AUTO 04004KT 4SM 27/24 A2968 RMK SLP057 T02680239 52002 IEM_DS3505
ZGSZ,2001-05-30 10:00,ZGSZ 301000Z AUTO 02006KT 6SM 25/21 A2971 RMK T02500210 IEM_DS3505
ZGSZ,2001-05-30 11:00,ZGSZ 301100Z AUTO 03002KT 6SM 25/21 A2971 RMK T02500210 IEM_DS3505
ZGSZ,2001-05-30 12:00,ZGSZ 301200Z AUTO 00000KT 2 1/2SM 25/24 A2974 RMK 60059 SLP076 T02540240 52019 IEM_DS3505
ZGSZ,2001-05-30 13:00,ZGSZ 301300Z AUTO 08002KT 6SM 25/21 A2974 RMK T02500210 IEM_DS3505
ZGSZ,2001-05-30 14:00,ZGSZ 301400Z AUTO 02004KT 6SM 25/21 A2974 RMK T02500210 IEM_DS3505
ZGSZ,2001-05-30 15:00,ZGSZ 301500Z AUTO 02002KT 6SM 25/21 A2977 RMK T02500210 IEM_DS3505
ZGSZ,2001-05-30 18:00,ZGSZ 301800Z AUTO 32002KT 5SM 25/23 RMK 60000 SLP077 T02520233 57004 IEM_DS3505
ZGSZ,2001-05-30 19:00,ZGSZ 301900Z AUTO 03004KT 6SM 24/21 A2974 RMK T02400210 IEM_DS3505
ZGSZ,2001-05-30 20:00,ZGSZ 302000Z AUTO 01006KT 6SM 24/21 A2974 RMK T02400210 IEM_DS3505
ZGSZ,2001-05-30 21:00,ZGSZ 302100Z AUTO 04004KT 4SM 25/23 A2977 RMK 70062 SLP081 T02480230 52004 IEM_DS3505
ZGSZ,2001-05-30 22:00,ZGSZ 302200Z AUTO 03004KT 6SM 24/21 A2977 RMK T02400210 IEM_DS3505
ZGSZ,2001-05-30 23:00,ZGSZ 302300Z AUTO 04006KT 6SM 25/20 A2980 RMK T02500200 IEM_DS3505
ZGSZ,2001-05-31 00:00,ZGSZ 310000Z AUTO 04008KT 8SM 26/22 A2980 RMK 70062 SLP093 T02570220 52012 IEM_DS3505
ZGSZ,2001-05-31 01:00,ZGSZ 310100Z AUTO 02006KT 6SM 27/19 A2980 RMK T02700190 IEM_DS3505
ZGSZ,2001-05-31 02:00,ZGSZ 310200Z AUTO 01008KT 6SM 28/18 A2983 RMK T02800180 IEM_DS3505
ZGSZ,2001-05-31 03:00,ZGSZ 310300Z AUTO 07006KT 7SM 29/22 A2983 RMK SLP098 T02920220 52005 IEM_DS3505
ZGSZ,2001-05-31 04:00,ZGSZ 310400Z AUTO 01010KT 6SM 30/17 A2980 RMK T03000170 IEM_DS3505
ZGSZ,2001-05-31 05:00,ZGSZ 310500Z AUTO 02008KT 6SM 30/17 A2980 RMK T03000170 IEM_DS3505
ZGSZ,2001-05-31 06:00,ZGSZ 310600Z AUTO 14004KT 19SM 30/22 A2977 RMK SLP089 T03050219 57009 IEM_DS3505
ZGSZ,2001-05-31 07:00,ZGSZ 310700Z AUTO 06004KT 6SM 31/18 A2977 RMK T03100180 IEM_DS3505
ZGSZ,2001-05-31 08:00,ZGSZ 310800Z AUTO 17010KT RMK IEM_DS3505
ZGSZ,2001-05-31 09:00,ZGSZ 310900Z AUTO 09008KT 19SM 29/23 A2974 RMK SLP084 T02870234 57005 IEM_DS3505
ZGSZ,2001-05-31 10:00,ZGSZ 311000Z AUTO 13012KT 6SM RMK IEM_DS3505
ZGSZ,2001-05-31 11:00,ZGSZ 311100Z AUTO 12012KT 6SM RMK IEM_DS3505
ZGSZ,2001-05-31 12:00,ZGSZ 311200Z AUTO 14006KT 14SM 27/22 RMK SLP110 T02670224 52026 IEM_DS3505
ZGSZ,2001-05-31 13:00,ZGSZ 311300Z AUTO 11012KT 3SM RMK IEM_DS3505
ZGSZ,2001-05-31 14:00,ZGSZ 311400Z AUTO 10010KT 6SM 27/20 A2985 RMK T02700200 IEM_DS3505
ZGSZ,2001-05-31 15:00,ZGSZ 311500Z AUTO 11012KT 6SM 26/20 A2985 RMK T02600200 IEM_DS3505
ZGSZ,2001-05-31 18:00,ZGSZ 311800Z AUTO 09006KT 12SM 26/22 RMK SLP106 T02580218 57009 IEM_DS3505
ZGSZ,2001-05-31 19:00,ZGSZ 311900Z AUTO 06004KT 6SM 25/20 A2983 RMK T02500200 IEM_DS3505
ZGSZ,2001-05-31 20:00,ZGSZ 312000Z AUTO 09008KT 6SM 26/17 A2983 RMK T02600170 IEM_DS3505
ZGSZ,2001-05-31 21:00,ZGSZ 312100Z AUTO 00000KT 14SM 26/19 A2983 RMK SLP103 T02560188 57003 IEM_DS3505
ZGSZ,2001-05-31 22:00,ZGSZ 312200Z AUTO 07002KT 26/15 A2983 RMK T02600150 IEM_DS3505
ZGSZ,2001-05-31 23:00,ZGSZ 312300Z AUTO 04002KT 6SM 26/18 A2985 RMK T02600180 IEM_DS3505
ZGSZ,2001-06-01 00:00,ZGSZ 010000Z AUTO 07006KT 9SM 26/19 A2988 RMK SLP124 T02650188 52021 IEM_DS3505
ZGSZ,2001-06-01 01:00,ZGSZ 010100Z AUTO 06004KT 6SM 27/16 A2988 RMK T02700160 IEM_DS3505
ZGSZ,2001-06-01 02:00,ZGSZ 010200Z AUTO 08006KT 6SM 28/16 A2988 RMK T02800160 IEM_DS3505
ZGSZ,2001-06-01 03:00,ZGSZ 010300Z AUTO 04006KT 7SM 28/20 A2988 RMK SLP128 T02820197 52004 IEM_DS3505
ZGSZ,2001-06-01 04:00,ZGSZ 010400Z AUTO 10006KT 6SM 29/16 A2988 RMK T02900160 IEM_DS3505
ZGSZ,2001-06-01 05:00,ZGSZ 010500Z AUTO 09006KT 6SM 29/17 A2985 RMK T02900170 IEM_DS3505
ZGSZ,2001-06-01 06:00,ZGSZ 010600Z AUTO 14008KT 7SM 28/21 A2985 RMK SLP116 T02840206 57012 IEM_DS3505
ZGSZ,2001-06-01 07:00,ZGSZ 010700Z AUTO 12008KT 6SM 29/17 A2983 RMK T02900170 IEM_DS3505
ZGSZ,2001-06-01 08:00,ZGSZ 010800Z AUTO 11010KT 6SM 29/18 A2980 RMK T02900180 IEM_DS3505
ZGSZ,2001-06-01 09:00,ZGSZ 010900Z AUTO 14006KT 6SM 28/21 A2980 RMK SLP102 T02770208 57014 IEM_DS3505
ZGSZ,2001-06-01 10:00,ZGSZ 011000Z AUTO 12010KT 28/17 A2980 RMK T02800170 IEM_DS3505
ZGSZ,2001-06-01 11:00,ZGSZ 011100Z AUTO 10008KT 6SM 27/18 A2983 RMK T02700180 IEM_DS3505
ZGSZ,2001-06-01 12:00,ZGSZ 011200Z AUTO 14006KT 6SM 26/21 A2985 RMK SLP112 T02640207 52010 IEM_DS3505
ZGSZ,2001-06-01 13:00,ZGSZ 011300Z AUTO 11008KT 6SM 27/17 A2985 RMK T02700170 IEM_DS3505
ZGSZ,2001-06-01 14:00,ZGSZ 011400Z AUTO 10008KT 6SM 27/17 A2988 RMK T02700170 IEM_DS3505
ZGSZ,2001-06-01 15:00,ZGSZ 011500Z AUTO 10006KT 6SM 26/18 A2988 RMK T02600180 IEM_DS3505
ZGSZ,2001-06-01 16:00,ZGSZ 011600Z AUTO 13004KT 10SM 26/18 A2988 RMK T02600180 IEM_DS3505
ZGSZ,2001-06-01 17:00,ZGSZ 011700Z AUTO 12002KT 6SM 26/17 A2985 RMK T02600170 IEM_DS3505
ZGSZ,2001-06-01 18:00,ZGSZ 011800Z AUTO 07006KT 9SM 26/20 RMK SLP111 T02600199 57010 IEM_DS3505
ZGSZ,2001-06-01 19:00,ZGSZ 011900Z AUTO 11002KT 6SM 26/16 A2985 RMK T02600160 IEM_DS3505
ZGSZ,2001-06-01 20:00,ZGSZ 012000Z AUTO 08002KT 6SM 25/16 A2983 RMK T02500160 IEM_DS3505
ZGSZ,2001-06-01 21:00,ZGSZ 012100Z AUTO 09004KT 9SM 26/21 A2983 RMK SLP111 T02580212 54000 IEM_DS3505
ZGSZ,2001-06-01 22:00,ZGSZ 012200Z AUTO 05002KT 6SM 25/18 A2985 RMK T02500180 IEM_DS3505
ZGSZ,2001-06-01 23:00,ZGSZ 012300Z AUTO 02004KT 6SM 26/18 A2988 RMK T02600180 IEM_DS3505
ZGSZ,2001-06-02 00:00,ZGSZ 020000Z AUTO 14004KT 6SM 26/22 A2988 RMK SLP126 T02630220 52015 IEM_DS3505
ZGSZ,2001-06-02 01:00,ZGSZ 020100Z AUTO 09006KT 6SM 27/19 A2988 RMK T02700190 IEM_DS3505
ZGSZ,2001-06-02 02:00,ZGSZ 020200Z AUTO 09008KT 6SM 28/20 A2991 RMK T02800200 IEM_DS3505
ZGSZ,2001-06-02 04:00,ZGSZ 020400Z AUTO 09008KT 6SM 29/21 A2988 RMK T02900210 IEM_DS3505
ZGSZ,2001-06-02 05:00,ZGSZ 020500Z AUTO 12008KT 29/20 A2988 RMK T02900200 IEM_DS3505
ZGSZ,2001-06-02 06:00,ZGSZ 020600Z AUTO 11012KT 7SM 29/21 A2985 RMK T02900210 IEM_DS3505
ZGSZ,2001-06-02 07:00,ZGSZ 020700Z AUTO 10010KT 6SM 29/20 A2983 RMK T02900200 IEM_DS3505
ZGSZ,2001-06-02 08:00,ZGSZ 020800Z AUTO 17012KT 6SM 25/22 A2983 RMK T02500220 IEM_DS3505
ZGSZ,2001-06-02 09:00,ZGSZ 020900Z AUTO 11006KT 4SM 26/23 A2983 RMK SLP108 T02630228 57012 IEM_DS3505
ZGSZ,2001-06-02 10:00,ZGSZ 021000Z AUTO 12006KT 26/22 A2983 RMK T02600220 IEM_DS3505
ZGSZ,2001-06-02 11:00,ZGSZ 021100Z AUTO 11006KT 16SM 26/22 A2983 RMK T02600220 IEM_DS3505
ZGSZ,2001-06-02 12:00,ZGSZ 021200Z AUTO 18004KT 4SM 26/23 RMK 60003 SLP110 T02640234 52002 IEM_DS3505
ZGSZ,2001-06-02 13:00,ZGSZ 021300Z AUTO 15004KT 6SM 25/21 A2985 RMK T02500210 IEM_DS3505
ZGSZ,2001-06-02 14:00,ZGSZ 021400Z AUTO 12004KT 6SM 26/21 A2988 RMK T02600210 IEM_DS3505
ZGSZ,2001-06-02 15:00,ZGSZ 021500Z AUTO 10004KT 6SM 26/21 A2988 RMK T02600210 IEM_DS3505
ZGSZ,2001-06-02 18:00,ZGSZ 021800Z AUTO 09004KT 4SM 26/24 RMK SLP118 T02600237 57008 IEM_DS3505
ZGSZ,2001-06-02 21:00,ZGSZ 022100Z AUTO 11004KT 5SM 26/24 A2985 RMK 70000 SLP113 T02580235 57005 IEM_DS3505
ZGSZ,2001-06-02 22:00,ZGSZ 022200Z AUTO 11006KT 6SM 25/22 A2985 RMK T02500220 IEM_DS3505
ZGSZ,2001-06-02 23:00,ZGSZ 022300Z AUTO 12008KT 6SM 25/22 A2985 RMK T02500220 IEM_DS3505
ZGSZ,2001-06-03 00:00,ZGSZ 030000Z AUTO 11004KT 9SM 27/24 A2985 RMK 60003 SLP118 T02670240 52005 IEM_DS3505
ZGSZ,2001-06-03 01:00,ZGSZ 030100Z AUTO 14008KT 6SM 28/21 A2988 RMK T02800210 IEM_DS3505
ZGSZ,2001-06-03 02:00,ZGSZ 030200Z AUTO 16008KT 6SM 29/22 A2988 RMK T02900220 IEM_DS3505
ZGSZ,2001-06-03 03:00,ZGSZ 030300Z AUTO 18002KT 19SM 29/23 A2988 RMK SLP120 T02940234 52002 IEM_DS3505
ZGSZ,2001-06-03 04:00,ZGSZ 030400Z AUTO 18008KT RMK IEM_DS3505
ZGSZ,2001-06-03 05:00,ZGSZ 030500Z AUTO 17010KT RMK IEM_DS3505
ZGSZ,2001-06-03 06:00,ZGSZ 030600Z AUTO 22004KT 19SM 31/22 A2983 RMK SLP104 T03120218 57016 IEM_DS3505
ZGSZ,2001-06-03 07:00,ZGSZ 030700Z AUTO 19006KT 6SM 25/23 A2983 RMK T02500230 IEM_DS3505
ZGSZ,2001-06-03 08:00,ZGSZ 030800Z AUTO 17008KT 6SM RMK IEM_DS3505
ZGSZ,2001-06-03 09:00,ZGSZ 030900Z AUTO 20004KT 19SM 29/23 RMK SLP092 T02920231 57012 IEM_DS3505
ZGSZ,2001-06-03 10:00,ZGSZ 031000Z AUTO 16010KT 6SM 27/23 A2977 RMK T02700230 IEM_DS3505
ZGSZ,2001-06-03 11:00,ZGSZ 031100Z AUTO 16010KT 27/23 A2977 RMK T02700230 IEM_DS3505
ZGSZ,2001-06-03 12:00,ZGSZ 031200Z AUTO 18002KT 11SM 28/24 A2980 RMK SLP090 T02820236 57002 IEM_DS3505
ZGSZ,2001-06-03 13:00,ZGSZ 031300Z AUTO 16006KT 6SM 27/23 A2980 RMK T02700230 IEM_DS3505
ZGSZ,2001-06-03 14:00,ZGSZ 031400Z AUTO 15004KT 6SM RMK IEM_DS3505
ZGSZ,2001-06-03 15:00,ZGSZ 031500Z AUTO 14004KT 9SM 27/23 A2983 RMK T02700230 IEM_DS3505
ZGSZ,2001-06-03 16:00,ZGSZ 031600Z AUTO 17010KT 6SM 26/23 A2980 RMK T02600230 IEM_DS3505
ZGSZ,2001-06-03 18:00,ZGSZ 031800Z AUTO 00000KT 6SM 27/24 RMK 60002 SLP082 T02690243 57020 IEM_DS3505
ZGSZ,2001-06-03 21:00,ZGSZ 032100Z AUTO 00000KT 7SM 27/25 A2971 RMK 70007 SLP069 T02660249 57014 IEM_DS3505
ZGSZ,2001-06-03 22:00,ZGSZ 032200Z AUTO 17012KT 27/24 A2971 RMK T02700240 IEM_DS3505
ZGSZ,2001-06-03 23:00,ZGSZ 032300Z AUTO 17012KT 15SM RMK IEM_DS3505
ZGSZ,2001-06-04 00:00,ZGSZ 040000Z AUTO 22002KT 16SM 28/25 RMK 60003 SLP079 T02810253 52010 IEM_DS3505
ZGSZ,2001-06-04 01:00,ZGSZ 040100Z AUTO 17012KT 19SM RMK IEM_DS3505
ZGSZ,2001-06-04 02:00,ZGSZ 040200Z AUTO 17012KT 6SM 29/24 A2974 RMK T02900240 IEM_DS3505
ZGSZ,2001-06-04 03:00,ZGSZ 040300Z AUTO 22006KT 12SM 31/24 A2974 RMK SLP076 T03060242 57002 IEM_DS3505
ZGSZ,2001-06-04 04:00,ZGSZ 040400Z AUTO 17014KT 6SM 30/24 A2974 RMK T03000240 IEM_DS3505
ZGSZ,2001-06-04 05:00,ZGSZ 040500Z AUTO 17016KT 9SM 30/25 A2971 RMK T03000250 IEM_DS3505
ZGSZ,2001-06-04 06:00,ZGSZ 040600Z AUTO 22008KT 16SM 31/23 A2968 RMK 60003 SLP060 T03140227 57016 IEM_DS3505
ZGSZ,2001-06-04 07:00,ZGSZ 040700Z AUTO 18014KT 16SM 29/24 A2968 RMK T02900240 IEM_DS3505
ZGSZ,2001-06-04 08:00,ZGSZ 040800Z AUTO 18012KT 29/24 A2968 RMK T02900240 IEM_DS3505
ZGSZ,2001-06-04 09:00,ZGSZ 040900Z AUTO 22006KT 16SM 30/24 A2965 RMK SLP047 T02960236 57013 IEM_DS3505
ZGSZ,2001-06-04 10:00,ZGSZ 041000Z AUTO 18010KT RMK IEM_DS3505
ZGSZ,2001-06-04 11:00,ZGSZ 041100Z AUTO 17010KT 6SM RMK IEM_DS3505
ZGSZ,2001-06-04 12:00,ZGSZ 041200Z AUTO 22006KT 14SM 29/25 A2968 RMK SLP052 T02910246 52005 IEM_DS3505
ZGSZ,2001-06-04 13:00,ZGSZ 041300Z AUTO 18008KT 6SM 28/24 A2968 RMK T02800240 IEM_DS3505
ZGSZ,2001-06-04 14:00,ZGSZ 041400Z AUTO 18008KT 6SM 28/25 A2971 RMK T02800250 IEM_DS3505
ZGSZ,2001-06-04 15:00,ZGSZ 041500Z AUTO 17008KT 6SM 28/25 A2971 RMK T02800250 IEM_DS3505
ZGSZ,2001-06-04 16:00,ZGSZ 041600Z AUTO 18006KT 6SM 28/24 A2968 RMK T02800240 IEM_DS3505
ZGSZ,2001-06-04 18:00,ZGSZ 041800Z AUTO 20004KT 12SM 28/25 RMK 60003 SLP051 T02800250 57014 IEM_DS3505
ZGSZ,2001-06-04 19:00,ZGSZ 041900Z AUTO 14008KT 6SM 26/23 A2968 RMK T02600230 IEM_DS3505
ZGSZ,2001-06-04 20:00,ZGSZ 042000Z AUTO 16012KT 12SM 26/22 A2965 RMK T02600220 IEM_DS3505
ZGSZ,2001-06-04 21:00,ZGSZ 042100Z AUTO 00000KT 16SM 26/24 A2965 RMK 70048 SLP050 T02560245 57002 IEM_DS3505
ZGSZ,2001-06-04 22:00,ZGSZ 042200Z AUTO 20010KT 27/23 A2968 RMK T02700230 IEM_DS3505
ZGSZ,2001-06-04 23:00,ZGSZ 042300Z AUTO 21008KT 6SM 26/23 A2968 RMK T02600230 IEM_DS3505
ZGSZ,2001-06-05 00:00,ZGSZ 050000Z AUTO 18004KT 11SM 27/25 RMK 60047 SLP057 T02730246 52007 IEM_DS3505
ZGSZ,2001-06-05 01:00,ZGSZ 050100Z AUTO 22010KT 6SM RMK IEM_DS3505
ZGSZ,2001-06-05 02:00,ZGSZ 050200Z AUTO 20012KT 7SM 27/22 A2971 RMK T02700220 IEM_DS3505
ZGSZ,2001-06-05 03:00,ZGSZ 050300Z AUTO 27006KT 12SM 28/24 RMK SLP069 T02850245 52012 IEM_DS3505
ZGSZ,2001-06-05 04:00,ZGSZ 050400Z AUTO 20010KT RMK IEM_DS3505
ZGSZ,2001-06-05 05:00,ZGSZ 050500Z AUTO 16006KT RMK IEM_DS3505
ZGSZ,2001-06-05 06:00,ZGSZ 050600Z AUTO 22010KT 19SM 30/24 RMK 60003 SLP045 T03010243 57023 IEM_DS3505
ZGSZ,2001-06-05 07:00,ZGSZ 050700Z AUTO 18010KT 26/24 A2965 RMK T02600240 IEM_DS3505
ZGSZ,2001-06-05 08:00,ZGSZ 050800Z AUTO 20008KT 6SM 26/23 A2965 RMK T02600230 IEM_DS3505
ZGSZ,2001-06-05 09:00,ZGSZ 050900Z AUTO 34004KT 6SM 27/25 A2965 RMK SLP040 T02690246 57006 IEM_DS3505
ZGSZ,2001-06-05 10:00,ZGSZ 051000Z AUTO 15002KT RMK IEM_DS3505
ZGSZ,2001-06-05 11:00,ZGSZ 051100Z AUTO 15008KT 6SM 26/22 A2965 RMK T02600220 IEM_DS3505
ZGSZ,2001-06-05 12:00,ZGSZ 051200Z AUTO 18002KT 11SM 26/24 A2965 RMK 60220 SLP050 T02610245 52010 IEM_DS3505
ZGSZ,2001-06-05 13:00,ZGSZ 051300Z AUTO 14006KT 6SM 25/23 A2968 RMK T02500230 IEM_DS3505
ZGSZ,2001-06-05 14:00,ZGSZ 051400Z AUTO 11008KT 6SM RMK IEM_DS3505
ZGSZ,2001-06-05 15:00,ZGSZ 051500Z AUTO 07002KT 6SM RMK IEM_DS3505
ZGSZ,2001-06-05 16:00,ZGSZ 051600Z AUTO 12004KT 10SM RMK IEM_DS3505
ZGSZ,2001-06-05 17:00,ZGSZ 051700Z AUTO 14002KT 6SM 26/22 A2968 RMK T02600220 IEM_DS3505
ZGSZ,2001-06-05 18:00,ZGSZ 051800Z AUTO 07002KT 10SM 26/24 A2968 RMK 60004 SLP052 T02570244 57010 IEM_DS3505
ZGSZ,2001-06-05 19:00,ZGSZ 051900Z AUTO 12006KT 5SM 26/22 A2968 RMK T02600220 IEM_DS3505
ZGSZ,2001-06-05 20:00,ZGSZ 052000Z AUTO 12004KT 2SM 26/23 A2968 RMK T02600230 IEM_DS3505
ZGSZ,2001-06-05 21:00,ZGSZ 052100Z AUTO 00000KT 12SM 26/24 A2965 RMK 70227 SLP050 T02570244 57002 IEM_DS3505
ZGSZ,2001-06-05 22:00,ZGSZ 052200Z AUTO 12006KT RMK IEM_DS3505
ZGSZ,2001-06-05 23:00,ZGSZ 052300Z AUTO 32002KT 6SM 24/22 A2971 RMK T02400220 IEM_DS3505
ZGSZ,2001-06-06 00:00,ZGSZ 060000Z AUTO 00000KT 11SM 27/24 A2971 RMK 60008 SLP072 T02660245 52022 IEM_DS3505
ZGSZ,2001-06-06 01:00,ZGSZ 060100Z AUTO 17006KT RMK IEM_DS3505
ZGSZ,2001-06-06 02:00,ZGSZ 060200Z AUTO 16006KT 6SM RMK IEM_DS3505
ZGSZ,2001-06-06 03:00,ZGSZ 060300Z AUTO 22004KT 9SM 28/25 A2974 RMK SLP078 T02780250 52006 IEM_DS3505
ZGSZ,2001-06-06 04:00,ZGSZ 060400Z AUTO 16008KT 6SM 27/23 A2974 RMK T02700230 IEM_DS3505
ZGSZ,2001-06-06 05:00,ZGSZ 060500Z AUTO 18010KT 6SM 27/22 A2974 RMK T02700220 IEM_DS3505
ZGSZ,2001-06-06 06:00,ZGSZ 060600Z AUTO 25004KT 6SM 28/26 RMK 60075 SLP069 T02790255 57009 IEM_DS3505
ZGSZ,2001-06-06 07:00,ZGSZ 060700Z AUTO 18006KT 12SM RMK IEM_DS3505
ZGSZ,2001-06-06 08:00,ZGSZ 060800Z AUTO 18004KT 6SM 28/22 A2968 RMK T02800220 IEM_DS3505
ZGSZ,2001-06-06 09:00,ZGSZ 060900Z AUTO 00000KT 16SM 28/24 A2968 RMK SLP058 T02850244 57011 IEM_DS3505
ZGSZ,2001-06-06 10:00,ZGSZ 061000Z AUTO 15006KT 7SM 28/22 A2968 RMK T02800220 IEM_DS3505
ZGSZ,2001-06-06 11:00,ZGSZ 061100Z AUTO 17006KT 6SM 26/23 A2971 RMK T02600230 IEM_DS3505
ZGSZ,2001-06-06 12:00,ZGSZ 061200Z AUTO 09008KT 12SM 28/25 A2974 RMK 60003 SLP074 T02760248 52016 IEM_DS3505
ZGSZ,2001-06-06 13:00,ZGSZ 061300Z AUTO 12006KT 6SM 26/23 A2974 RMK T02600230 IEM_DS3505
ZGSZ,2001-06-06 14:00,ZGSZ 061400Z AUTO 12006KT 6SM 26/23 A2974 RMK T02600230 IEM_DS3505
ZGSZ,2001-06-06 15:00,ZGSZ 061500Z AUTO 13006KT 6SM 26/23 A2974 RMK T02600230 IEM_DS3505
ZGSZ,2001-06-06 16:00,ZGSZ 061600Z AUTO 12004KT 6SM 26/23 A2974 RMK T02600230 IEM_DS3505
ZGSZ,2001-06-06 18:00,ZGSZ 061800Z AUTO 11004KT 16SM 26/24 RMK 60004 SLP063 T02640241 57016 IEM_DS3505
ZGSZ,2001-06-06 19:00,ZGSZ 061900Z AUTO 14006KT 25/22 A2971 RMK T02500220 IEM_DS3505
ZGSZ,2001-06-06 20:00,ZGSZ 062000Z AUTO 14004KT 25/23 A2971 RMK T02500230 IEM_DS3505
ZGSZ,2001-06-06 21:00,ZGSZ 062100Z AUTO 36002KT 2 1/2SM 24/24 RMK 70227 SLP063 T02430240 54000 IEM_DS3505
ZGSZ,2001-06-06 22:00,ZGSZ 062200Z AUTO 12008KT 6SM RMK IEM_DS3505
ZGSZ,2001-06-06 23:00,ZGSZ 062300Z AUTO 14008KT RMK IEM_DS3505
ZGSZ,2001-06-07 00:00,ZGSZ 070000Z AUTO 07004KT 7SM 25/24 A2974 RMK 60480 SLP072 T02470243 52009 IEM_DS3505
ZGSZ,2001-06-07 01:00,ZGSZ 070100Z AUTO 14008KT 6SM 25/22 A2974 RMK T02500220 IEM_DS3505
ZGSZ,2001-06-07 02:00,ZGSZ 070200Z AUTO 13008KT 22SM 25/23 A2974 RMK T02500230 IEM_DS3505
ZGSZ,2001-06-07 03:00,ZGSZ 070300Z AUTO 14004KT 5SM 25/24 A2977 RMK SLP087 T02520242 52015 IEM_DS3505
ZGSZ,2001-06-07 04:00,ZGSZ 070400Z AUTO 17002KT 6SM 25/22 A2974 RMK T02500220 IEM_DS3505
ZGSZ,2001-06-07 05:00,ZGSZ 070500Z AUTO 16008KT 25/23 A2974 RMK T02500230 IEM_DS3505
ZGSZ,2001-06-07 06:00,ZGSZ 070600Z AUTO 27004KT 4SM 25/24 A2974 RMK 60173 SLP076 T02460240 57011 IEM_DS3505
ZGSZ,2001-06-07 07:00,ZGSZ 070700Z AUTO 20004KT 6SM 24/22 A2971 RMK T02400220 IEM_DS3505
ZGSZ,2001-06-07 08:00,ZGSZ 070800Z AUTO 15004KT 6SM 25/22 A2971 RMK T02500220 IEM_DS3505
ZGSZ,2001-06-07 09:00,ZGSZ 070900Z AUTO 04004KT 4SM 25/24 A2968 RMK SLP062 T02510242 57014 IEM_DS3505
ZGSZ,2001-06-07 10:00,ZGSZ 071000Z AUTO 15004KT 31SM 25/22 A2971 RMK T02500220 IEM_DS3505
ZGSZ,2001-06-07 11:00,ZGSZ 071100Z AUTO 15008KT 6SM 25/22 A2968 RMK T02500220 IEM_DS3505
ZGSZ,2001-06-07 12:00,ZGSZ 071200Z AUTO 00000KT 9SM 24/24 A2968 RMK 60063 SLP060 T02440237 57002 IEM_DS3505
ZGSZ,2001-06-07 13:00,ZGSZ 071300Z AUTO 13008KT 6SM 25/22 A2971 RMK T02500220 IEM_DS3505
ZGSZ,2001-06-07 14:00,ZGSZ 071400Z AUTO 17008KT 6SM 25/22 A2971 RMK T02500220 IEM_DS3505
ZGSZ,2001-06-07 15:00,ZGSZ 071500Z AUTO 17008KT 10SM 26/22 A2971 RMK T02600220 IEM_DS3505
ZGSZ,2001-06-07 18:00,ZGSZ 071800Z AUTO 09004KT 11SM 25/24 RMK 60001 SLP061 T02520238 57008 IEM_DS3505
ZGSZ,2001-06-07 19:00,ZGSZ 071900Z AUTO 12006KT 6SM 25/21 A2968 RMK T02500210 IEM_DS3505
ZGSZ,2001-06-07 20:00,ZGSZ 072000Z AUTO 14008KT 6SM 24/22 A2968 RMK T02400220 IEM_DS3505
ZGSZ,2001-06-07 21:00,ZGSZ 072100Z AUTO 22002KT 4SM 25/24 A2968 RMK 70582 SLP061 T02470237 54000 IEM_DS3505
ZGSZ,2001-06-07 22:00,ZGSZ 072200Z AUTO 12008KT 6SM 24/22 A2968 RMK T02400220 IEM_DS3505
ZGSZ,2001-06-07 23:00,ZGSZ 072300Z AUTO 14012KT 6SM 25/21 A2971 RMK T02500210 IEM_DS3505
ZGSZ,2001-06-08 00:00,ZGSZ 080000Z AUTO 07002KT 4SM 24/24 A2971 RMK 60055 SLP073 T02430237 52012 IEM_DS3505
ZGSZ,2001-06-08 01:00,ZGSZ 080100Z AUTO 15010KT 6SM 26/23 A2974 RMK T02600230 IEM_DS3505
ZGSZ,2001-06-08 02:00,ZGSZ 080200Z AUTO 18010KT 6SM RMK IEM_DS3505
ZGSZ,2001-06-08 03:00,ZGSZ 080300Z AUTO 20004KT 12SM 27/23 A2974 RMK SLP079 T02710232 52006 IEM_DS3505
ZGSZ,2001-06-08 04:00,ZGSZ 080400Z AUTO 17012KT 6SM 25/23 A2974 RMK T02500230 IEM_DS3505
ZGSZ,2001-06-08 05:00,ZGSZ 080500Z AUTO 16012KT 25/22 A2971 RMK T02500220 IEM_DS3505
ZGSZ,2001-06-08 06:00,ZGSZ 080600Z AUTO 25004KT 9SM 25/24 A2971 RMK 60020 SLP068 T02520238 57011 IEM_DS3505
ZGSZ,2001-06-08 07:00,ZGSZ 080700Z AUTO 15008KT 6SM 25/22 A2971 RMK T02500220 IEM_DS3505
ZGSZ,2001-06-08 08:00,ZGSZ 080800Z AUTO 14006KT 25/22 A2968 RMK T02500220 IEM_DS3505
ZGSZ,2001-06-08 09:00,ZGSZ 080900Z AUTO 14002KT 8SM 26/23 A2968 RMK SLP054 T02640232 57014 IEM_DS3505
ZGSZ,2001-06-08 10:00,ZGSZ 081000Z AUTO 13006KT 26/22 A2968 RMK T02600220 IEM_DS3505
ZGSZ,2001-06-08 11:00,ZGSZ 081100Z AUTO 12008KT 26/22 A2968 RMK T02600220 IEM_DS3505
ZGSZ,2001-06-08 12:00,ZGSZ 081200Z AUTO 09004KT 14SM 26/24 RMK 60008 SLP060 T02600241 52006 IEM_DS3505
ZGSZ,2001-06-08 13:00,ZGSZ 081300Z AUTO 13008KT RMK IEM_DS3505
ZGSZ,2001-06-08 14:00,ZGSZ 081400Z AUTO 12008KT 6SM RMK IEM_DS3505
ZGSZ,2001-06-08 15:00,ZGSZ 081500Z AUTO 12008KT 6SM RMK IEM_DS3505
ZGSZ,2001-06-08 16:00,ZGSZ 081600Z AUTO 12006KT 6SM 26/23 A2971 RMK T02600230 IEM_DS3505
ZGSZ,2001-06-08 17:00,ZGSZ 081700Z AUTO 10004KT 26/23 A2971 RMK T02600230 IEM_DS3505
ZGSZ,2001-06-08 18:00,ZGSZ 081800Z AUTO 32004KT 4SM 26/25 A2968 RMK 60035 SLP053 T02590249 57014 IEM_DS3505
ZGSZ,2001-06-08 19:00,ZGSZ 081900Z AUTO 20006KT 6SM 26/24 A2968 RMK T02600240 IEM_DS3505
ZGSZ,2001-06-08 20:00,ZGSZ 082000Z AUTO 14010KT 6SM 25/22 A2968 RMK T02500220 IEM_DS3505
ZGSZ,2001-06-08 21:00,ZGSZ 082100Z AUTO 09004KT 9SM 25/24 A2965 RMK 70179 SLP051 T02470243 57002 IEM_DS3505
ZGSZ,2001-06-08 22:00,ZGSZ 082200Z AUTO 11010KT 7SM 26/23 A2968 RMK T02600230 IEM_DS3505
ZGSZ,2001-06-08 23:00,ZGSZ 082300Z AUTO 14006KT 6SM 25/23 A2971 RMK T02500230 IEM_DS3505
ZGSZ,2001-06-09 00:00,ZGSZ 090000Z AUTO 09004KT 4SM 25/24 A2971 RMK 60138 SLP073 T02470244 52022 IEM_DS3505
ZGSZ,2001-06-09 03:00,ZGSZ 090300Z AUTO 00000KT 4SM 24/23 A2977 RMK SLP096 T02400233 52023 IEM_DS3505
ZGSZ,2001-06-09 04:00,ZGSZ 090400Z AUTO 11006KT 6SM 24/22 A2977 RMK T02400220 IEM_DS3505
ZGSZ,2001-06-09 05:00,ZGSZ 090500Z AUTO 12010KT 6SM 25/22 A2974 RMK T02500220 IEM_DS3505
ZGSZ,2001-06-09 06:00,ZGSZ 090600Z AUTO 14004KT 9SM 24/23 A2974 RMK 60307 SLP080 T02420233 57016 IEM_DS3505
ZGSZ,2001-06-09 07:00,ZGSZ 090700Z AUTO 12008KT 27/22 A2971 RMK T02700220 IEM_DS3505
ZGSZ,2001-06-09 08:00,ZGSZ 090800Z AUTO 12006KT 6SM 27/23 A2968 RMK T02700230 IEM_DS3505
ZGSZ,2001-06-09 09:00,ZGSZ 090900Z AUTO 16002KT 16SM 26/24 RMK SLP060 T02620240 57020 IEM_DS3505
ZGSZ,2001-06-09 10:00,ZGSZ 091000Z AUTO 12006KT 6SM 27/22 A2968 RMK T02700220 IEM_DS3505
ZGSZ,2001-06-09 11:00,ZGSZ 091100Z AUTO 13008KT 27/22 A2965 RMK T02700220 IEM_DS3505
ZGSZ,2001-06-09 12:00,ZGSZ 091200Z AUTO 11004KT 12SM 26/24 A2968 RMK 60000 SLP062 T02560239 52002 IEM_DS3505
ZGSZ,2001-06-09 13:00,ZGSZ 091300Z AUTO 12006KT 25SM 26/23 A2968 RMK T02600230 IEM_DS3505
ZGSZ,2001-06-09 14:00,ZGSZ 091400Z AUTO 12008KT 6SM 26/23 A2971 RMK T02600230 IEM_DS3505
ZGSZ,2001-06-09 15:00,ZGSZ 091500Z AUTO 12008KT 6SM 27/23 A2971 RMK T02700230 IEM_DS3505
ZGSZ,2001-06-09 16:00,ZGSZ 091600Z AUTO 12006KT 6SM RMK IEM_DS3505
ZGSZ,2001-06-09 18:00,ZGSZ 091800Z AUTO 09004KT 4SM 26/24 RMK 60003 SLP054 T02580245 57010 IEM_DS3505
ZGSZ,2001-06-09 21:00,ZGSZ 092100Z AUTO 20004KT 2 1/2SM 26/25 A2968 RMK 70391 SLP052 T02570248 57002 IEM_DS3505
ZGSZ,2001-06-09 22:00,ZGSZ 092200Z AUTO 22004KT 6SM 25/24 A2968 RMK T02500240 IEM_DS3505
ZGSZ,2001-06-09 23:00,ZGSZ 092300Z AUTO 19010KT 25/23 A2968 RMK T02500230 IEM_DS3505
ZGSZ,2001-06-10 00:00,ZGSZ 100000Z AUTO 20002KT 6SM 26/25 A2971 RMK 60083 SLP062 T02580252 52010 IEM_DS3505
ZGSZ,2001-06-10 01:00,ZGSZ 100100Z AUTO 17004KT 19SM RMK IEM_DS3505
ZGSZ,2001-06-10 02:00,ZGSZ 100200Z AUTO 27/24 A2971 RMK T02700240 IEM_DS3505
ZGSZ,2001-06-10 03:00,ZGSZ 100300Z AUTO 04004KT 6SM 26/24 A2974 RMK SLP073 T02550245 52011 IEM_DS3505
ZGSZ,2001-06-10 04:00,ZGSZ 100400Z AUTO 15010KT 6SM 26/22 A2974 RMK T02600220 IEM_DS3505
ZGSZ,2001-06-10 05:00,ZGSZ 100500Z AUTO 13008KT 10SM RMK IEM_DS3505
ZGSZ,2001-06-10 06:00,ZGSZ 100600Z AUTO 04004KT 6SM 27/25 RMK 60043 SLP060 T02670254 57013 IEM_DS3505
ZGSZ,2001-06-10 07:00,ZGSZ 100700Z AUTO 16010KT 6SM RMK IEM_DS3505
ZGSZ,2001-06-10 08:00,ZGSZ 100800Z AUTO 16012KT RMK IEM_DS3505
ZGSZ,2001-06-10 09:00,ZGSZ 100900Z AUTO 22004KT 19SM 29/25 A2965 RMK SLP051 T02910253 57009 IEM_DS3505
ZGSZ,2001-06-10 10:00,ZGSZ 101000Z AUTO 16008KT 6SM 28/24 A2965 RMK T02800240 IEM_DS3505
ZGSZ,2001-06-10 11:00,ZGSZ 101100Z AUTO 16010KT 27/24 A2965 RMK T02700240 IEM_DS3505
ZGSZ,2001-06-10 12:00,ZGSZ 101200Z AUTO 11004KT 12SM 26/24 A2968 RMK 60000 SLP062 T02560239 52002 IEM_DS3505
ZGSZ,2001-06-10 13:00,ZGSZ 101300Z AUTO 15006KT 6SM 27/24 A2968 RMK T02700240 IEM_DS3505
ZGSZ,2001-06-10 14:00,ZGSZ 101400Z AUTO 15008KT 9SM RMK IEM_DS3505
ZGSZ,2001-06-10 15:00,ZGSZ 101500Z AUTO 15008KT 6SM RMK IEM_DS3505
ZGSZ,2001-06-10 16:00,ZGSZ 101600Z AUTO 16008KT RMK IEM_DS3505
ZGSZ,2001-06-10 17:00,ZGSZ 101700Z AUTO 16008KT 22SM 27/24 A2968 RMK T02700240 IEM_DS3505
ZGSZ,2001-06-10 18:00,ZGSZ 101800Z AUTO 00000KT 12SM 27/25 RMK SLP051 T02670250 57013 IEM_DS3505
ZGSZ,2001-06-10 21:00,ZGSZ 102100Z AUTO 11004KT 11SM 25/24 A2968 RMK 70117 SLP050 T02540237 57001 IEM_DS3505
ZGSZ,2001-06-10 22:00,ZGSZ 102200Z AUTO 14006KT 20SM 25/22 A2968 RMK T02500220 IEM_DS3505
ZGSZ,2001-06-10 23:00,ZGSZ 102300Z AUTO 19012KT 2SM RMK IEM_DS3505
ZGSZ,2001-06-11 00:00,ZGSZ 110000Z AUTO 00000KT 7SM 26/25 A2971 RMK 60031 SLP070 T02580247 52020 IEM_DS3505
ZGSZ,2001-06-11 01:00,ZGSZ 110100Z AUTO 13008KT 6SM RMK IEM_DS3505
ZGSZ,2001-06-11 02:00,ZGSZ 110200Z AUTO 13008KT 27/23 A2971 RMK T02700230 IEM_DS3505
ZGSZ,2001-06-11 03:00,ZGSZ 110300Z AUTO 11004KT 4SM 26/25 A2974 RMK SLP079 T02600247 52009 IEM_DS3505
ZGSZ,2001-06-11 04:00,ZGSZ 110400Z AUTO 19008KT 6SM 25/23 A2974 RMK T02500230 IEM_DS3505
ZGSZ,2001-06-11 06:00,ZGSZ 110600Z AUTO 27002KT 14SM 25/24 A2971 RMK 60079 SLP064 T02490237 57015 IEM_DS3505
ZGSZ,2001-06-11 07:00,ZGSZ 110700Z AUTO 15008KT 6SM RMK IEM_DS3505
ZGSZ,2001-06-11 08:00,ZGSZ 110800Z AUTO 15008KT 6SM 26/23 A2965 RMK T02600230 IEM_DS3505
ZGSZ,2001-06-11 09:00,ZGSZ 110900Z AUTO 27002KT 16SM 26/24 A2968 RMK SLP054 T02640237 57010 IEM_DS3505
ZGSZ,2001-06-11 10:00,ZGSZ 111000Z AUTO 15004KT 5SM 26/23 A2968 RMK T02600230 IEM_DS3505
ZGSZ,2001-06-11 11:00,ZGSZ 111100Z AUTO 19004KT 15SM 26/23 A2971 RMK T02600230 IEM_DS3505
ZGSZ,2001-06-11 12:00,ZGSZ 111200Z AUTO 32002KT 9SM 27/25 A2971 RMK 60002 SLP063 T02680247 52009 IEM_DS3505
ZGSZ,2001-06-11 13:00,ZGSZ 111300Z AUTO 11004KT 6SM RMK IEM_DS3505
ZGSZ,2001-06-11 14:00,ZGSZ 111400Z AUTO 13004KT 6SM 26/23 A2971 RMK T02600230 IEM_DS3505
ZGSZ,2001-06-11 15:00,ZGSZ 111500Z AUTO 10002KT 3SM 26/23 A2974 RMK T02600230 IEM_DS3505
ZGSZ,2001-06-11 16:00,ZGSZ 111600Z AUTO 12004KT 25SM 26/23 A2974 RMK T02600230 IEM_DS3505
ZGSZ,2001-06-11 18:00,ZGSZ 111800Z AUTO 09004KT 11SM 26/24 RMK SLP064 T02550241 57010 IEM_DS3505
ZGSZ,2001-06-11 19:00,ZGSZ 111900Z AUTO 14004KT 6SM 26/23 A2971 RMK T02600230 IEM_DS3505
ZGSZ,2001-06-11 20:00,ZGSZ 112000Z AUTO 19012KT 6SM 25/23 A2971 RMK T02500230 IEM_DS3505
ZGSZ,2001-06-11 21:00,ZGSZ 112100Z AUTO 29002KT 5SM 24/24 A2971 RMK 70174 SLP072 T02450241 52008 IEM_DS3505
ZGSZ,2001-06-11 22:00,ZGSZ 112200Z AUTO 14006KT 6SM 25/22 A2971 RMK T02500220 IEM_DS3505
ZGSZ,2001-06-11 23:00,ZGSZ 112300Z AUTO 13004KT 6SM RMK IEM_DS3505
ZGSZ,2001-06-12 00:00,ZGSZ 120000Z AUTO 11004KT 14SM 25/24 A2971 RMK 60098 SLP068 T02540245 57004 IEM_DS3505
ZGSZ,2001-06-12 01:00,ZGSZ 120100Z AUTO 17006KT RMK IEM_DS3505
ZGSZ,2001-06-12 02:00,ZGSZ 120200Z AUTO 16010KT 6SM 27/22 A2971 RMK T02700220 IEM_DS3505
ZGSZ,2001-06-12 03:00,ZGSZ 120300Z AUTO 04004KT 17SM 26/25 A2971 RMK SLP072 T02600246 52004 IEM_DS3505
ZGSZ,2001-06-12 04:00,ZGSZ 120400Z AUTO 16008KT 6SM 29/24 A2971 RMK T02900240 IEM_DS3505
ZGSZ,2001-06-12 05:00,ZGSZ 120500Z AUTO 16010KT 7SM 28/24 A2968 RMK T02800240 IEM_DS3505
ZGSZ,2001-06-12 06:00,ZGSZ 120600Z AUTO 00000KT 16SM 26/24 A2965 RMK 60106 SLP049 T02640245 57023 IEM_DS3505
ZGSZ,2001-06-12 07:00,ZGSZ 120700Z AUTO 16012KT 6SM 28/24 A2962 RMK T02800240 IEM_DS3505
ZGSZ,2001-06-12 08:00,ZGSZ 120800Z AUTO 16012KT 6SM 28/24 A2962 RMK T02800240 IEM_DS3505
ZGSZ,2001-06-12 09:00,ZGSZ 120900Z AUTO 22006KT 19SM 30/25 A2962 RMK SLP034 T03040246 57015 IEM_DS3505
ZGSZ,2001-06-12 10:00,ZGSZ 121000Z AUTO 16014KT 6SM 28/24 A2962 RMK T02800240 IEM_DS3505
ZGSZ,2001-06-12 11:00,ZGSZ 121100Z AUTO 16012KT 6SM 28/24 A2962 RMK T02800240 IEM_DS3505
ZGSZ,2001-06-12 12:00,ZGSZ 121200Z AUTO 22004KT 12SM 28/25 A2965 RMK 60002 SLP047 T02830251 52013 IEM_DS3505
ZGSZ,2001-06-12 13:00,ZGSZ 121300Z AUTO 17008KT 6SM 27/24 A2965 RMK T02700240 IEM_DS3505
ZGSZ,2001-06-12 14:00,ZGSZ 121400Z AUTO 18004KT 6SM 27/24 A2968 RMK T02700240 IEM_DS3505
ZGSZ,2001-06-12 15:00,ZGSZ 121500Z AUTO 17006KT 6SM 27/25 A2968 RMK T02700250 IEM_DS3505
ZGSZ,2001-06-12 18:00,ZGSZ 121800Z AUTO 20004KT 12SM 28/25 RMK SLP042 T02770252 57013 IEM_DS3505
ZGSZ,2001-06-12 19:00,ZGSZ 121900Z AUTO 18010KT 6SM 27/25 A2962 RMK T02700250 IEM_DS3505
ZGSZ,2001-06-12 20:00,ZGSZ 122000Z AUTO 17010KT 6SM 27/25 A2959 RMK T02700250 IEM_DS3505
ZGSZ,2001-06-12 21:00,ZGSZ 122100Z AUTO 22006KT 14SM 27/25 A2959 RMK 70132 SLP030 T02740250 57011 IEM_DS3505
ZGSZ,2001-06-12 22:00,ZGSZ 122200Z AUTO 19017KT 6SM 24/22 A2962 RMK T02400220 IEM_DS3505
ZGSZ,2001-06-12 23:00,ZGSZ 122300Z AUTO 20014KT 6SM 24/21 A2962 RMK T02400210 IEM_DS3505
ZGSZ,2001-06-13 00:00,ZGSZ 130000Z AUTO 22004KT 16SM 25/22 A2962 RMK 60001 SLP032 T02510223 52001 IEM_DS3505
ZGSZ,2001-06-13 01:00,ZGSZ 130100Z AUTO 20004KT 15SM 25/23 A2962 RMK T02500230 IEM_DS3505
ZGSZ,2001-06-13 02:00,ZGSZ 130200Z AUTO 19010KT 27/24 A2962 RMK T02700240 IEM_DS3505
ZGSZ,2001-06-13 03:00,ZGSZ 130300Z AUTO 22002KT 8SM 28/25 A2959 RMK SLP031 T02790254 54000 IEM_DS3505
ZGSZ,2001-06-13 04:00,ZGSZ 130400Z AUTO 16010KT RMK IEM_DS3505
ZGSZ,2001-06-13 05:00,ZGSZ 130500Z AUTO 17016KT 6SM RMK IEM_DS3505
ZGSZ,2001-06-13 06:00,ZGSZ 130600Z AUTO 22010KT 19SM 30/24 RMK 60004 SLP016 T03040243 57015 IEM_DS3505
ZGSZ,2001-06-13 07:00,ZGSZ 130700Z AUTO 21014KT 6SM 25/23 A2956 RMK T02500230 IEM_DS3505
ZGSZ,2001-06-13 08:00,ZGSZ 130800Z AUTO 17006KT 6SM RMK IEM_DS3505
ZGSZ,2001-06-13 09:00,ZGSZ 130900Z AUTO 22004KT 19SM 30/25 A2950 RMK SLP001 T02980246 57015 IEM_DS3505
ZGSZ,2001-06-13 10:00,ZGSZ 131000Z AUTO 22006KT 25/23 A2953 RMK T02500230 IEM_DS3505
ZGSZ,2001-06-13 11:00,ZGSZ 131100Z AUTO 20006KT 6SM 25/23 A2956 RMK T02500230 IEM_DS3505
ZGSZ,2001-06-13 12:00,ZGSZ 131200Z AUTO 18006KT 9SM 25/24 A2956 RMK 60083 SLP023 T02520236 52021 IEM_DS3505
ZGSZ,2001-06-13 13:00,ZGSZ 131300Z AUTO 21004KT 26/23 A2959 RMK T02600230 IEM_DS3505
ZGSZ,2001-06-13 14:00,ZGSZ 131400Z AUTO 22004KT RMK IEM_DS3505
ZGSZ,2001-06-13 15:00,ZGSZ 131500Z AUTO 24004KT 6SM 26/22 A2962 RMK T02600220 IEM_DS3505
ZGSZ,2001-06-13 16:00,ZGSZ 131600Z AUTO 22004KT 8SM 26/22 A2959 RMK T02600220 IEM_DS3505
ZGSZ,2001-06-13 17:00,ZGSZ 131700Z AUTO 23004KT 6SM 26/23 A2959 RMK T02600230 IEM_DS3505
ZGSZ,2001-06-13 18:00,ZGSZ 131800Z AUTO 00000KT 7SM 26/24 A2959 RMK 60004 SLP016 T02580245 57011 IEM_DS3505
ZGSZ,2001-06-13 19:00,ZGSZ 131900Z AUTO 35004KT 6SM 24/22 A2956 RMK T02400220 IEM_DS3505
ZGSZ,2001-06-13 20:00,ZGSZ 132000Z AUTO 01006KT 24/21 A2956 RMK T02400210 IEM_DS3505
ZGSZ,2001-06-13 21:00,ZGSZ 132100Z AUTO 04004KT 5SM 25/24 A2959 RMK 70105 SLP015 T02460236 57001 IEM_DS3505
ZGSZ,2001-06-13 22:00,ZGSZ 132200Z AUTO 36006KT 6SM 24/21 A2959 RMK T02400210 IEM_DS3505
ZGSZ,2001-06-13 23:00,ZGSZ 132300Z AUTO 02006KT 6SM 24/21 A2962 RMK T02400210 IEM_DS3505
ZGSZ,2001-06-14 00:00,ZGSZ 140000Z AUTO 09004KT 7SM 24/22 A2962 RMK 60012 SLP036 T02450223 52020 IEM_DS3505
ZGSZ,2001-06-14 01:00,ZGSZ 140100Z AUTO 01006KT 25/21 A2962 RMK T02500210 IEM_DS3505
ZGSZ,2001-06-14 02:00,ZGSZ 140200Z AUTO 01004KT 6SM RMK IEM_DS3505
ZGSZ,2001-06-14 03:00,ZGSZ 140300Z AUTO 02006KT 6SM 28/22 RMK SLP036 T02800223 54000 IEM_DS3505
ZGSZ,2001-06-14 04:00,ZGSZ 140400Z AUTO 27006KT 6SM 27/21 A2962 RMK T02700210 IEM_DS3505
ZGSZ,2001-06-14 05:00,ZGSZ 140500Z AUTO 26008KT 3SM 27/22 A2962 RMK T02700220 IEM_DS3505
ZGSZ,2001-06-14 06:00,ZGSZ 140600Z AUTO 14004KT 6SM 30/22 A2962 RMK SLP032 T03050220 57003 IEM_DS3505
ZGSZ,2001-06-14 07:00,ZGSZ 140700Z AUTO 19008KT 6SM 29/22 A2962 RMK T02900220 IEM_DS3505
ZGSZ,2001-06-14 08:00,ZGSZ 140800Z AUTO 21006KT 6SM 29/21 A2962 RMK T02900210 IEM_DS3505
ZGSZ,2001-06-14 09:00,ZGSZ 140900Z AUTO 11008KT 6SM 29/23 A2962 RMK SLP034 T02930228 52001 IEM_DS3505
ZGSZ,2001-06-14 10:00,ZGSZ 141000Z AUTO 19008KT 6SM 27/23 A2962 RMK T02700230 IEM_DS3505
ZGSZ,2001-06-14 11:00,ZGSZ 141100Z AUTO 19006KT 6SM 27/23 A2962 RMK T02700230 IEM_DS3505
ZGSZ,2001-06-14 12:00,ZGSZ 141200Z AUTO 09004KT 9SM 28/24 A2965 RMK SLP041 T02770235 52007 IEM_DS3505
ZGSZ,2001-06-14 13:00,ZGSZ 141300Z AUTO 18004KT 6SM 26/22 A2965 RMK T02600220 IEM_DS3505
ZGSZ,2001-06-14 14:00,ZGSZ 141400Z AUTO 16004KT 26/23 A2965 RMK T02600230 IEM_DS3505
ZGSZ,2001-06-14 15:00,ZGSZ 141500Z AUTO 19006KT 26/23 A2968 RMK T02600230 IEM_DS3505
ZGSZ,2001-06-14 16:00,ZGSZ 141600Z AUTO 14004KT 25/22 A2968 RMK T02500220 IEM_DS3505
ZGSZ,2001-06-14 17:00,ZGSZ 141700Z AUTO 12004KT 10SM 25/22 A2965 RMK T02500220 IEM_DS3505
ZGSZ,2001-06-14 18:00,ZGSZ 141800Z AUTO 09002KT 5SM 26/24 A2965 RMK SLP044 T02620235 57010 IEM_DS3505
ZGSZ,2001-06-14 19:00,ZGSZ 141900Z AUTO 06004KT 6SM 26/22 A2965 RMK T02600220 IEM_DS3505
ZGSZ,2001-06-14 20:00,ZGSZ 142000Z AUTO 02002KT 26/22 A2965 RMK T02600220 IEM_DS3505
ZGSZ,2001-06-14 21:00,ZGSZ 142100Z AUTO 04004KT 4SM 26/23 A2965 RMK 70000 SLP044 T02600234 57001 IEM_DS3505
ZGSZ,2001-06-14 22:00,ZGSZ 142200Z AUTO 02002KT 6SM 25/22 A2965 RMK T02500220 IEM_DS3505
ZGSZ,2001-06-14 23:00,ZGSZ 142300Z AUTO 04004KT 6SM 26/22 A2965 RMK T02600220 IEM_DS3505
ZGSZ,2001-06-15 00:00,ZGSZ 150000Z AUTO 09002KT 6SM 27/24 A2968 RMK SLP056 T02730240 52012 IEM_DS3505
ZGSZ,2001-06-15 01:00,ZGSZ 150100Z AUTO 13006KT 6SM 27/23 A2968 RMK T02700230 IEM_DS3505
ZGSZ,2001-06-15 02:00,ZGSZ 150200Z AUTO 09002KT 27/23 A2968 RMK T02700230 IEM_DS3505
ZGSZ,2001-06-15 03:00,ZGSZ 150300Z AUTO 16002KT 9SM 27/25 RMK SLP059 T02720248 52003 IEM_DS3505
ZGSZ,2001-06-15 04:00,ZGSZ 150400Z AUTO 18006KT 29/23 A2968 RMK T02900230 IEM_DS3505
ZGSZ,2001-06-15 05:00,ZGSZ 150500Z AUTO 18008KT 29/22 A2965 RMK T02900220 IEM_DS3505
ZGSZ,2001-06-15 06:00,ZGSZ 150600Z AUTO 04004KT 12SM 30/24 A2965 RMK 60008 SLP044 T03020244 57014 IEM_DS3505
ZGSZ,2001-06-15 07:00,ZGSZ 150700Z AUTO 17010KT 6SM 30/22 A2962 RMK T03000220 IEM_DS3505
ZGSZ,2001-06-15 08:00,ZGSZ 150800Z AUTO 18010KT 6SM 30/23 A2959 RMK T03000230 IEM_DS3505
ZGSZ,2001-06-15 09:00,ZGSZ 150900Z AUTO 14006KT 12SM 31/25 A2959 RMK SLP028 T03120249 57016 IEM_DS3505
ZGSZ,2001-06-15 10:00,ZGSZ 151000Z AUTO 18010KT 29/23 A2959 RMK T02900230 IEM_DS3505
ZGSZ,2001-06-15 11:00,ZGSZ 151100Z AUTO 17008KT 29/24 A2962 RMK T02900240 IEM_DS3505
ZGSZ,2001-06-15 12:00,ZGSZ 151200Z AUTO 09006KT 19SM 28/24 A2962 RMK 60000 SLP046 T02800244 52017 IEM_DS3505
ZGSZ,2001-06-15 14:00,ZGSZ 151400Z AUTO 12008KT 6SM 28/23 A2965 RMK T02800230 IEM_DS3505
ZGSZ,2001-06-15 15:00,ZGSZ 151500Z AUTO 12008KT 6SM 27/23 A2968 RMK T02700230 IEM_DS3505
ZGSZ,2001-06-15 18:00,ZGSZ 151800Z AUTO 11004KT 16SM 28/25 RMK SLP048 T02780247 57008 IEM_DS3505
ZGSZ,2001-06-15 19:00,ZGSZ 151900Z AUTO 11006KT 6SM 27/23 A2965 RMK T02700230 IEM_DS3505
ZGSZ,2001-06-15 20:00,ZGSZ 152000Z AUTO 10004KT 6SM 27/23 A2965 RMK T02700230 IEM_DS3505
ZGSZ,2001-06-15 21:00,ZGSZ 152100Z AUTO 09004KT 16SM 28/25 RMK 70010 SLP044 T02760248 57004 IEM_DS3505
ZGSZ,2001-06-15 22:00,ZGSZ 152200Z AUTO 11004KT 6SM 27/23 A2965 RMK T02700230 IEM_DS3505
ZGSZ,2001-06-15 23:00,ZGSZ 152300Z AUTO 12004KT 16SM RMK IEM_DS3505
ZGSZ,2001-06-16 00:00,ZGSZ 160000Z AUTO 00000KT 12SM 28/25 A2968 RMK 60003 SLP062 T02820250 52017 IEM_DS3505
ZGSZ,2001-06-16 01:00,ZGSZ 160100Z AUTO 17008KT 6SM 28/24 A2971 RMK T02800240 IEM_DS3505
ZGSZ,2001-06-16 02:00,ZGSZ 160200Z AUTO 18008KT 6SM RMK IEM_DS3505
ZGSZ,2001-06-16 03:00,ZGSZ 160300Z AUTO 22006KT 14SM 30/25 RMK SLP058 T03000251 57003 IEM_DS3505
ZGSZ,2001-06-16 04:00,ZGSZ 160400Z AUTO 18014KT 6SM 28/24 A2968 RMK T02800240 IEM_DS3505
ZGSZ,2001-06-16 05:00,ZGSZ 160500Z AUTO 18006KT 6SM 28/23 A2968 RMK T02800230 IEM_DS3505
ZGSZ,2001-06-16 06:00,ZGSZ 160600Z AUTO 27006KT 5SM 28/26 RMK 60001 SLP049 T02830262 57009 IEM_DS3505
ZGSZ,2001-06-16 07:00,ZGSZ 160700Z AUTO 16010KT 15SM RMK IEM_DS3505
ZGSZ,2001-06-16 08:00,ZGSZ 160800Z AUTO 16010KT 6SM 30/24 A2965 RMK T03000240 IEM_DS3505
ZGSZ,2001-06-16 09:00,ZGSZ 160900Z AUTO 14002KT 19SM 31/24 A2962 RMK SLP039 T03080243 57010 IEM_DS3505
ZGSZ,2001-06-16 10:00,ZGSZ 161000Z AUTO 15012KT 6SM 29/24 A2965 RMK T02900240 IEM_DS3505
ZGSZ,2001-06-16 11:00,ZGSZ 161100Z AUTO 15012KT 6SM 28/23 A2965 RMK T02800230 IEM_DS3505
ZGSZ,2001-06-16 12:00,ZGSZ 161200Z AUTO 09004KT 16SM 29/25 A2965 RMK 60024 SLP051 T02860246 52012 IEM_DS3505
ZGSZ,2001-06-16 14:00,ZGSZ 161400Z AUTO 14008KT 6SM 28/23 A2968 RMK T02800230 IEM_DS3505
ZGSZ,2001-06-16 15:00,ZGSZ 161500Z AUTO 14006KT 6SM 27/23 A2971 RMK T02700230 IEM_DS3505
ZGSZ,2001-06-16 16:00,ZGSZ 161600Z AUTO 13004KT 6SM 27/23 A2971 RMK T02700230 IEM_DS3505
ZGSZ,2001-06-16 17:00,ZGSZ 161700Z AUTO 14006KT 6SM 27/23 A2971 RMK T02700230 IEM_DS3505
ZGSZ,2001-06-16 18:00,ZGSZ 161800Z AUTO 00000KT 11SM 27/25 RMK SLP058 T02740247 57005 IEM_DS3505
ZGSZ,2001-06-16 21:00,ZGSZ 162100Z AUTO 09002KT 16SM 27/24 A2971 RMK 70035 SLP065 T02710245 52008 IEM_DS3505
ZGSZ,2001-06-16 22:00,ZGSZ 162200Z AUTO 12004KT 26/23 A2971 RMK T02600230 IEM_DS3505
ZGSZ,2001-06-16 23:00,ZGSZ 162300Z AUTO 11004KT 6SM 28/23 A2974 RMK T02800230 IEM_DS3505
ZGSZ,2001-06-17 00:00,ZGSZ 170000Z AUTO 04004KT 12SM 28/25 A2974 RMK 70035 SLP075 T02840247 52009 IEM_DS3505
ZGSZ,2001-06-17 01:00,ZGSZ 170100Z AUTO 17006KT 6SM RMK IEM_DS3505
ZGSZ,2001-06-17 02:00,ZGSZ 170200Z AUTO 18006KT 30/23 A2974 RMK T03000230 IEM_DS3505
ZGSZ,2001-06-17 03:00,ZGSZ 170300Z AUTO 22006KT 16SM 30/24 A2974 RMK SLP075 T03040241 52001 IEM_DS3505
ZGSZ,2001-06-17 04:00,ZGSZ 170400Z AUTO 19006KT 30/24 A2974 RMK T03000240 IEM_DS3505
ZGSZ,2001-06-17 05:00,ZGSZ 170500Z AUTO 17008KT 30/24 A2971 RMK T03000240 IEM_DS3505
ZGSZ,2001-06-17 06:00,ZGSZ 170600Z AUTO 22004KT 19SM 31/26 A2971 RMK 60012 SLP058 T03100263 57017 IEM_DS3505
ZGSZ,2001-06-17 07:00,ZGSZ 170700Z AUTO 18010KT 31/24 A2968 RMK T03100240 IEM_DS3505
ZGSZ,2001-06-17 08:00,ZGSZ 170800Z AUTO 19008KT 6SM 30/24 A2968 RMK T03000240 IEM_DS3505
ZGSZ,2001-06-17 09:00,ZGSZ 170900Z AUTO 25006KT 19SM 32/24 A2965 RMK SLP041 T03250237 57017 IEM_DS3505
ZGSZ,2001-06-17 10:00,ZGSZ 171000Z AUTO 18008KT 6SM 30/23 A2965 RMK T03000230 IEM_DS3505
ZGSZ,2001-06-17 11:00,ZGSZ 171100Z AUTO 17008KT 6SM 29/24 A2965 RMK T02900240 IEM_DS3505
ZGSZ,2001-06-17 12:00,ZGSZ 171200Z AUTO 20004KT 16SM 30/24 A2968 RMK SLP049 T02970237 52008 IEM_DS3505
ZGSZ,2001-06-17 13:00,ZGSZ 171300Z AUTO 16008KT 6SM 29/23 A2968 RMK T02900230 IEM_DS3505
ZGSZ,2001-06-17 14:00,ZGSZ 171400Z AUTO 15008KT 6SM 28/23 A2971 RMK T02800230 IEM_DS3505
ZGSZ,2001-06-17 15:00,ZGSZ 171500Z AUTO 15008KT 6SM 28/23 A2971 RMK T02800230 IEM_DS3505
ZGSZ,2001-06-17 16:00,ZGSZ 171600Z AUTO 14006KT 6SM 28/23 A2971 RMK T02800230 IEM_DS3505
ZGSZ,2001-06-17 17:00,ZGSZ 171700Z AUTO 14006KT 6SM 28/23 A2968 RMK T02800230 IEM_DS3505
ZGSZ,2001-06-17 18:00,ZGSZ 171800Z AUTO 09002KT 17SM 28/25 A2968 RMK SLP053 T02800249 57010 IEM_DS3505
ZGSZ,2001-06-17 19:00,ZGSZ 171900Z AUTO 12004KT 6SM 28/23 A2968 RMK T02800230 IEM_DS3505
ZGSZ,2001-06-17 21:00,ZGSZ 172100Z AUTO 14002KT 19SM 27/25 A2965 RMK 70012 SLP051 T02740247 57002 IEM_DS3505
ZGSZ,2001-06-17 22:00,ZGSZ 172200Z AUTO 10002KT 6SM 27/23 A2968 RMK T02700230 IEM_DS3505
ZGSZ,2001-06-17 23:00,ZGSZ 172300Z AUTO 12006KT 6SM 28/23 A2968 RMK T02800230 IEM_DS3505
ZGSZ,2001-06-18 00:00,ZGSZ 180000Z AUTO 14004KT 17SM 28/25 RMK 70012 SLP060 T02810248 52009 IEM_DS3505
ZGSZ,2001-06-18 01:00,ZGSZ 180100Z AUTO 17008KT 6SM 29/23 A2971 RMK T02900230 IEM_DS3505
ZGSZ,2001-06-18 02:00,ZGSZ 180200Z AUTO 17008KT 6SM 30/23 A2971 RMK T03000230 IEM_DS3505
ZGSZ,2001-06-18 03:00,ZGSZ 180300Z AUTO 27006KT 16SM 31/23 A2968 RMK SLP054 T03140231 57006 IEM_DS3505
ZGSZ,2001-06-18 04:00,ZGSZ 180400Z AUTO 17010KT 6SM 30/23 A2968 RMK T03000230 IEM_DS3505
ZGSZ,2001-06-18 06:00,ZGSZ 180600Z AUTO 25006KT 16SM 32/23 A2962 RMK SLP040 T03240233 57014 IEM_DS3505
ZGSZ,2001-06-18 07:00,ZGSZ 180700Z AUTO 17012KT 31/23 A2962 RMK T03100230 IEM_DS3505
ZGSZ,2001-06-18 08:00,ZGSZ 180800Z AUTO 18010KT 30/24 A2959 RMK T03000240 IEM_DS3505
ZGSZ,2001-06-18 09:00,ZGSZ 180900Z AUTO 25008KT 16SM 33/23 A2959 RMK SLP025 T03270233 57015 IEM_DS3505
ZGSZ,2001-06-18 10:00,ZGSZ 181000Z AUTO 17012KT 6SM 29/23 A2959 RMK T02900230 IEM_DS3505
ZGSZ,2001-06-18 11:00,ZGSZ 181100Z AUTO 17012KT 6SM 29/23 A2959 RMK T02900230 IEM_DS3505
ZGSZ,2001-06-18 12:00,ZGSZ 181200Z AUTO 22006KT 19SM 30/23 A2959 RMK SLP027 T02980229 52002 IEM_DS3505
ZGSZ,2001-06-18 13:00,ZGSZ 181300Z AUTO 16010KT 6SM 28/24 A2962 RMK T02800240 IEM_DS3505
ZGSZ,2001-06-18 14:00,ZGSZ 181400Z AUTO 16010KT 6SM 28/23 A2962 RMK T02800230 IEM_DS3505
ZGSZ,2001-06-18 15:00,ZGSZ 181500Z AUTO 17008KT 6SM 28/24 A2962 RMK T02800240 IEM_DS3505
ZGSZ,2001-06-18 16:00,ZGSZ 181600Z AUTO 16008KT 6SM 28/24 A2959 RMK T02800240 IEM_DS3505
ZGSZ,2001-06-18 18:00,ZGSZ 181800Z AUTO 22002KT 16SM 28/24 RMK SLP017 T02810240 57017 IEM_DS3505
ZGSZ,2001-06-18 19:00,ZGSZ 181900Z AUTO 17006KT 27/24 A2956 RMK T02700240 IEM_DS3505
ZGSZ,2001-06-18 20:00,ZGSZ 182000Z AUTO 18006KT 6SM 27/24 A2956 RMK T02700240 IEM_DS3505
ZGSZ,2001-06-18 21:00,ZGSZ 182100Z AUTO 00000KT 16SM 27/24 RMK SLP014 T02740240 57003 IEM_DS3505
ZGSZ,2001-06-18 22:00,ZGSZ 182200Z AUTO 17006KT 6SM 27/24 A2956 RMK T02700240 IEM_DS3505
ZGSZ,2001-06-18 23:00,ZGSZ 182300Z AUTO 18006KT 6SM 28/24 A2959 RMK T02800240 IEM_DS3505
ZGSZ,2001-06-19 00:00,ZGSZ 190000Z AUTO 00000KT 17SM 28/25 A2959 RMK SLP018 T02840246 52004 IEM_DS3505
ZGSZ,2001-06-19 01:00,ZGSZ 190100Z AUTO 18006KT 17SM RMK IEM_DS3505
ZGSZ,2001-06-19 02:00,ZGSZ 190200Z AUTO 18006KT 4SM RMK IEM_DS3505
ZGSZ,2001-06-19 03:00,ZGSZ 190300Z AUTO 25008KT 17SM 31/24 A2959 RMK SLP025 T03080240 52007 IEM_DS3505
ZGSZ,2001-06-19 04:00,ZGSZ 190400Z AUTO 18010KT 6SM 31/23 A2959 RMK T03100230 IEM_DS3505
ZGSZ,2001-06-19 05:00,ZGSZ 190500Z AUTO 17010KT 6SM 31/24 A2956 RMK T03100240 IEM_DS3505
ZGSZ,2001-06-19 06:00,ZGSZ 190600Z AUTO 27008KT 19SM 33/24 A2953 RMK SLP006 T03260237 57019 IEM_DS3505
ZGSZ,2001-06-19 07:00,ZGSZ 190700Z AUTO 17010KT 6SM 31/24 A2950 RMK T03100240 IEM_DS3505
ZGSZ,2001-06-19 08:00,ZGSZ 190800Z AUTO 18010KT 6SM 30/24 A2950 RMK T03000240 IEM_DS3505
ZGSZ,2001-06-19 09:00,ZGSZ 190900Z AUTO 27006KT 19SM 32/24 A2950 RMK SLP996 T03250235 57010 IEM_DS3505
ZGSZ,2001-06-19 10:00,ZGSZ 191000Z AUTO 17012KT 6SM 29/24 A2950 RMK T02900240 IEM_DS3505
ZGSZ,2001-06-19 11:00,ZGSZ 191100Z AUTO 17012KT 6SM 29/25 A2953 RMK T02900250 IEM_DS3505
ZGSZ,2001-06-19 12:00,ZGSZ 191200Z AUTO 22002KT 17SM 30/25 A2953 RMK SLP009 T03020247 52013 IEM_DS3505
ZGSZ,2001-06-19 13:00,ZGSZ 191300Z AUTO 17008KT 6SM 28/25 A2956 RMK T02800250 IEM_DS3505
ZGSZ,2001-06-19 14:00,ZGSZ 191400Z AUTO 17008KT 6SM 28/25 A2956 RMK T02800250 IEM_DS3505
ZGSZ,2001-06-19 15:00,ZGSZ 191500Z AUTO 17008KT 6SM 28/25 A2956 RMK T02800250 IEM_DS3505
ZGSZ,2001-06-19 18:00,ZGSZ 191800Z AUTO 00000KT 19SM 29/25 RMK SLP017 T02870250 57006 IEM_DS3505
ZGSZ,2001-06-19 19:00,ZGSZ 191900Z AUTO 16006KT 17SM 28/25 A2956 RMK T02800250 IEM_DS3505
ZGSZ,2001-06-19 20:00,ZGSZ 192000Z AUTO 17006KT 16SM 28/25 A2956 RMK T02800250 IEM_DS3505
ZGSZ,2001-06-19 21:00,ZGSZ 192100Z AUTO 00000KT 19SM 28/25 A2956 RMK SLP011 T02840252 57006 IEM_DS3505
ZGSZ,2001-06-19 22:00,ZGSZ 192200Z AUTO 23008KT 26/23 A2956 RMK T02600230 IEM_DS3505
ZGSZ,2001-06-19 23:00,ZGSZ 192300Z AUTO 18012KT RMK IEM_DS3505
ZGSZ,2001-06-20 00:00,ZGSZ 200000Z AUTO 32002KT 12SM 29/26 A2959 RMK SLP026 T02900255 52015 IEM_DS3505
ZGSZ,2001-06-20 01:00,ZGSZ 200100Z AUTO 15006KT 6SM 29/24 A2959 RMK T02900240 IEM_DS3505
ZGSZ,2001-06-20 02:00,ZGSZ 200200Z AUTO 16008KT 0SM RMK IEM_DS3505
ZGSZ,2001-06-20 03:00,ZGSZ 200300Z AUTO 25004KT 19SM 32/25 RMK SLP029 T03220254 52003 IEM_DS3505
ZGSZ,2001-06-20 04:00,ZGSZ 200400Z AUTO 17008KT 6SM 31/25 A2959 RMK T03100250 IEM_DS3505
ZGSZ,2001-06-20 05:00,ZGSZ 200500Z AUTO 18010KT 6SM 31/26 A2956 RMK T03100260 IEM_DS3505
ZGSZ,2001-06-20 06:00,ZGSZ 200600Z AUTO 14006KT 6SM 32/25 A2956 RMK SLP018 T03210248 57011 IEM_DS3505
ZGSZ,2001-06-20 07:00,ZGSZ 200700Z AUTO 17012KT 31/25 A2953 RMK T03100250 IEM_DS3505
ZGSZ,2001-06-20 08:00,ZGSZ 200800Z AUTO 17012KT 6SM 30/25 A2953 RMK T03000250 IEM_DS3505
ZGSZ,2001-06-20 09:00,ZGSZ 200900Z AUTO 18006KT 16SM 32/25 A2953 RMK SLP012 T03200249 57006 IEM_DS3505
ZGSZ,2001-06-20 10:00,ZGSZ 201000Z AUTO 16010KT 30/24 A2953 RMK T03000240 IEM_DS3505
ZGSZ,2001-06-20 11:00,ZGSZ 201100Z AUTO 16008KT 6SM 29/25 A2956 RMK T02900250 IEM_DS3505
ZGSZ,2001-06-20 12:00,ZGSZ 201200Z AUTO 14004KT 16SM 30/25 A2959 RMK SLP021 T02990254 52009 IEM_DS3505
ZGSZ,2001-06-20 13:00,ZGSZ 201300Z AUTO 17008KT 6SM 29/25 A2962 RMK T02900250 IEM_DS3505
ZGSZ,2001-06-20 14:00,ZGSZ 201400Z AUTO 16008KT 6SM 29/25 A2962 RMK T02900250 IEM_DS3505
ZGSZ,2001-06-20 15:00,ZGSZ 201500Z AUTO 16006KT 6SM 29/24 A2962 RMK T02900240 IEM_DS3505
ZGSZ,2001-06-20 16:00,ZGSZ 201600Z AUTO 17006KT 6SM 29/24 A2962 RMK T02900240 IEM_DS3505
ZGSZ,2001-06-20 18:00,ZGSZ 201800Z AUTO 14004KT 12SM 29/25 RMK SLP027 T02880254 57012 IEM_DS3505
ZGSZ,2001-06-20 19:00,ZGSZ 201900Z AUTO 11006KT 6SM 28/24 A2959 RMK T02800240 IEM_DS3505
ZGSZ,2001-06-20 20:00,ZGSZ 202000Z AUTO 11006KT 6SM 28/24 A2962 RMK T02800240 IEM_DS3505
ZGSZ,2001-06-20 21:00,ZGSZ 202100Z AUTO 09006KT 12SM 28/26 A2959 RMK SLP026 T02840256 57001 IEM_DS3505
ZGSZ,2001-06-20 22:00,ZGSZ 202200Z AUTO 11004KT 6SM 28/23 A2962 RMK T02800230 IEM_DS3505
ZGSZ,2001-06-20 23:00,ZGSZ 202300Z AUTO 08004KT 6SM 29/23 A2962 RMK T02900230 IEM_DS3505
ZGSZ,2001-06-21 00:00,ZGSZ 210000Z AUTO 09002KT 11SM 29/26 A2962 RMK SLP039 T02920256 52013 IEM_DS3505
ZGSZ,2001-06-21 01:00,ZGSZ 210100Z AUTO 19004KT 6SM RMK IEM_DS3505
ZGSZ,2001-06-21 02:00,ZGSZ 210200Z AUTO 20004KT 6SM RMK IEM_DS3505
ZGSZ,2001-06-21 03:00,ZGSZ 210300Z AUTO 14006KT 19SM 33/25 A2965 RMK SLP040 T03310248 52001 IEM_DS3505
ZGSZ,2001-06-21 04:00,ZGSZ 210400Z AUTO 21008KT 10SM 31/25 A2965 RMK T03100250 IEM_DS3505
ZGSZ,2001-06-21 05:00,ZGSZ 210500Z AUTO 19010KT 6SM RMK IEM_DS3505
ZGSZ,2001-06-21 06:00,ZGSZ 210600Z AUTO 32004KT 16SM 30/25 A2962 RMK 60003 SLP032 T02970252 57008 IEM_DS3505
ZGSZ,2001-06-21 07:00,ZGSZ 210700Z AUTO 30/23 A2959 RMK T03000230 IEM_DS3505
ZGSZ,2001-06-21 08:00,ZGSZ 210800Z AUTO 20006KT 6SM 30/25 A2959 RMK T03000250 IEM_DS3505
ZGSZ,2001-06-21 09:00,ZGSZ 210900Z AUTO 25004KT 19SM 31/24 A2959 RMK SLP023 T03110245 57009 IEM_DS3505
ZGSZ,2001-06-21 10:00,ZGSZ 211000Z AUTO 18006KT 6SM 30/24 A2959 RMK T03000240 IEM_DS3505
ZGSZ,2001-06-21 11:00,ZGSZ 211100Z AUTO 18008KT 6SM 30/24 A2959 RMK T03000240 IEM_DS3505
ZGSZ,2001-06-21 12:00,ZGSZ 211200Z AUTO 11006KT 16SM 30/24 A2962 RMK SLP039 T02980244 52016 IEM_DS3505
ZGSZ,2001-06-21 13:00,ZGSZ 211300Z AUTO 14004KT 6SM 29/23 A2965 RMK T02900230 IEM_DS3505
ZGSZ,2001-06-21 14:00,ZGSZ 211400Z AUTO 10004KT 6SM 29/22 A2968 RMK T02900220 IEM_DS3505
ZGSZ,2001-06-21 15:00,ZGSZ 211500Z AUTO 11004KT 6SM 29/23 A2968 RMK T02900230 IEM_DS3505
ZGSZ,2001-06-21 16:00,ZGSZ 211600Z AUTO 12004KT 6SM 28/23 A2968 RMK T02800230 IEM_DS3505
ZGSZ,2001-06-21 17:00,ZGSZ 211700Z AUTO 10002KT 6SM 28/23 A2965 RMK T02800230 IEM_DS3505
ZGSZ,2001-06-21 18:00,ZGSZ 211800Z AUTO 07004KT 16SM 29/25 A2965 RMK SLP042 T02870250 57013 IEM_DS3505
ZGSZ,2001-06-21 19:00,ZGSZ 211900Z AUTO 02004KT 6SM 27/23 A2962 RMK T02700230 IEM_DS3505
ZGSZ,2001-06-21 20:00,ZGSZ 212000Z AUTO 03004KT 6SM 27/23 A2962 RMK T02700230 IEM_DS3505
ZGSZ,2001-06-21 21:00,ZGSZ 212100Z AUTO 09002KT 16SM 28/25 A2965 RMK 70003 SLP039 T02820252 57003 IEM_DS3505
ZGSZ,2001-06-21 22:00,ZGSZ 212200Z AUTO 03002KT 6SM 27/23 A2965 RMK T02700230 IEM_DS3505
ZGSZ,2001-06-21 23:00,ZGSZ 212300Z AUTO 03006KT 6SM 28/23 A2965 RMK T02800230 IEM_DS3505
ZGSZ,2001-06-22 00:00,ZGSZ 220000Z AUTO 04006KT 16SM 29/25 A2965 RMK 70003 SLP042 T02900252 52003 IEM_DS3505
ZGSZ,2001-06-22 01:00,ZGSZ 220100Z AUTO 03006KT 25SM 30/23 A2965 RMK T03000230 IEM_DS3505
ZGSZ,2001-06-22 02:00,ZGSZ 220200Z AUTO 04006KT 31/23 A2965 RMK T03100230 IEM_DS3505
ZGSZ,2001-06-22 03:00,ZGSZ 220300Z AUTO 07008KT 19SM 32/24 RMK SLP041 T03240241 57001 IEM_DS3505
ZGSZ,2001-06-22 04:00,ZGSZ 220400Z AUTO 27008KT 6SM 31/24 A2965 RMK T03100240 IEM_DS3505
ZGSZ,2001-06-22 05:00,ZGSZ 220500Z AUTO 26006KT 6SM 32/24 A2962 RMK T03200240 IEM_DS3505
ZGSZ,2001-06-22 06:00,ZGSZ 220600Z AUTO 18006KT 19SM 34/24 RMK SLP033 T03370235 57008 IEM_DS3505
ZGSZ,2001-06-22 07:00,ZGSZ 220700Z AUTO 24004KT 6SM 32/22 A2959 RMK T03200220 IEM_DS3505
ZGSZ,2001-06-22 08:00,ZGSZ 220800Z AUTO 21006KT 6SM RMK IEM_DS3505
ZGSZ,2001-06-22 09:00,ZGSZ 220900Z AUTO 11006KT 19SM 33/24 A2956 RMK SLP011 T03340243 57022 IEM_DS3505
ZGSZ,2001-06-22 10:00,ZGSZ 221000Z AUTO 24004KT 6SM 30/25 A2956 RMK T03000250 IEM_DS3505
ZGSZ,2001-06-22 11:00,ZGSZ 221100Z AUTO 21004KT 6SM 29/24 A2956 RMK T02900240 IEM_DS3505
ZGSZ,2001-06-22 12:00,ZGSZ 221200Z AUTO 07004KT 17SM 31/25 A2959 RMK SLP023 T03070254 52012 IEM_DS3505
ZGSZ,2001-06-22 13:00,ZGSZ 221300Z AUTO 18004KT 6SM 29/25 A2962 RMK T02900250 IEM_DS3505
ZGSZ,2001-06-22 14:00,ZGSZ 221400Z AUTO 17008KT 6SM 29/25 A2962 RMK T02900250 IEM_DS3505
ZGSZ,2001-06-22 15:00,ZGSZ 221500Z AUTO 18008KT 6SM 29/25 A2962 RMK T02900250 IEM_DS3505
ZGSZ,2001-06-22 16:00,ZGSZ 221600Z AUTO 20004KT 6SM 28/25 A2962 RMK T02800250 IEM_DS3505
ZGSZ,2001-06-22 17:00,ZGSZ 221700Z AUTO 21006KT 25SM 28/25 A2959 RMK T02800250 IEM_DS3505
ZGSZ,2001-06-22 18:00,ZGSZ 221800Z AUTO 22004KT 16SM 29/25 RMK SLP023 T02900254 57006 IEM_DS3505
ZGSZ,2001-06-22 19:00,ZGSZ 221900Z AUTO 28004KT 6SM 28/24 A2956 RMK T02800240 IEM_DS3505
ZGSZ,2001-06-22 20:00,ZGSZ 222000Z AUTO 29004KT 6SM 28/25 A2956 RMK T02800250 IEM_DS3505
ZGSZ,2001-06-22 21:00,ZGSZ 222100Z AUTO 29004KT 12SM 29/26 RMK SLP014 T02860260 57009 IEM_DS3505
ZGSZ,2001-06-22 22:00,ZGSZ 222200Z AUTO 30004KT 6SM 28/25 A2956 RMK T02800250 IEM_DS3505
ZGSZ,2001-06-23 00:00,ZGSZ 230000Z AUTO 34004KT 6SM 29/26 RMK SLP022 T02930260 52008 IEM_DS3505
ZGSZ,2001-06-23 01:00,ZGSZ 230100Z AUTO 32006KT 6SM 30/24 A2959 RMK T03000240 IEM_DS3505
ZGSZ,2001-06-23 02:00,ZGSZ 230200Z AUTO 26004KT 6SM 30/25 A2959 RMK T03000250 IEM_DS3505
ZGSZ,2001-06-23 03:00,ZGSZ 230300Z AUTO 25006KT 2 1/2SM 33/26 A2959 RMK SLP017 T03270261 57005 IEM_DS3505
ZGSZ,2001-06-23 04:00,ZGSZ 230400Z AUTO 28008KT 6SM 32/25 A2956 RMK T03200250 IEM_DS3505
ZGSZ,2001-06-23 05:00,ZGSZ 230500Z AUTO 28008KT 33/25 A2956 RMK T03300250 IEM_DS3505
ZGSZ,2001-06-23 06:00,ZGSZ 230600Z AUTO 22008KT 2SM 34/26 A2953 RMK SLP004 T03360260 57013 IEM_DS3505
ZGSZ,2001-06-23 07:00,ZGSZ 230700Z AUTO 28008KT 6SM 33/25 A2950 RMK T03300250 IEM_DS3505
ZGSZ,2001-06-23 08:00,ZGSZ 230800Z AUTO 28006KT 6SM 34/25 A2950 RMK T03400250 IEM_DS3505
ZGSZ,2001-06-23 09:00,ZGSZ 230900Z AUTO 27008KT 2SM 33/27 A2950 RMK SLP997 T03260267 57007 IEM_DS3505
ZGSZ,2001-06-23 10:00,ZGSZ 231000Z AUTO 20012KT 30/25 A2953 RMK T03000250 IEM_DS3505
ZGSZ,2001-06-23 11:00,ZGSZ 231100Z AUTO 12004KT 6SM 30/26 A2953 RMK T03000260 IEM_DS3505
ZGSZ,2001-06-23 12:00,ZGSZ 231200Z AUTO 09004KT 2 1/2SM 29/26 A2953 RMK 60012 SLP015 T02860260 52018 IEM_DS3505
ZGSZ,2001-06-23 13:00,ZGSZ 231300Z AUTO 15010KT 6SM 29/24 A2959 RMK T02900240 IEM_DS3505
ZGSZ,2001-06-23 14:00,ZGSZ 231400Z AUTO 14010KT 6SM 29/24 A2962 RMK T02900240 IEM_DS3505
ZGSZ,2001-06-23 15:00,ZGSZ 231500Z AUTO 17014KT 7SM 27/23 A2962 RMK T02700230 IEM_DS3505
ZGSZ,2001-06-23 18:00,ZGSZ 231800Z AUTO 00000KT 4SM 28/25 RMK 60000 SLP037 T02760246 57002 IEM_DS3505
ZGSZ,2001-06-23 21:00,ZGSZ 232100Z AUTO 34004KT 4SM 28/25 A2962 RMK 70017 SLP034 T02750252 57003 IEM_DS3505
ZGSZ,2001-06-23 22:00,ZGSZ 232200Z AUTO 12006KT 6SM 26/24 A2962 RMK T02600240 IEM_DS3505
ZGSZ,2001-06-23 23:00,ZGSZ 232300Z AUTO 14002KT 26/24 A2965 RMK T02600240 IEM_DS3505
ZGSZ,2001-06-24 00:00,ZGSZ 240000Z AUTO 07004KT 6SM 28/25 A2965 RMK 60003 SLP048 T02780250 52014 IEM_DS3505
ZGSZ,2001-06-24 01:00,ZGSZ 240100Z AUTO 10006KT 6SM 28/23 A2968 RMK T02800230 IEM_DS3505
ZGSZ,2001-06-24 02:00,ZGSZ 240200Z AUTO 08006KT 6SM 29/23 A2968 RMK T02900230 IEM_DS3505
ZGSZ,2001-06-24 03:00,ZGSZ 240300Z AUTO 11004KT 7SM 29/25 A2965 RMK SLP051 T02940249 52003 IEM_DS3505
ZGSZ,2001-06-24 04:00,ZGSZ 240400Z AUTO 25004KT 6SM 30/24 A2965 RMK T03000240 IEM_DS3505
ZGSZ,2001-06-24 05:00,ZGSZ 240500Z AUTO 27004KT 6SM 30/23 A2965 RMK T03000230 IEM_DS3505
ZGSZ,2001-06-24 06:00,ZGSZ 240600Z AUTO 14004KT 9SM 32/25 A2965 RMK SLP039 T03220251 57012 IEM_DS3505
ZGSZ,2001-06-24 07:00,ZGSZ 240700Z AUTO 21004KT 30/24 A2962 RMK T03000240 IEM_DS3505
ZGSZ,2001-06-24 08:00,ZGSZ 240800Z AUTO 19008KT 6SM 30/25 A2959 RMK T03000250 IEM_DS3505
ZGSZ,2001-06-24 09:00,ZGSZ 240900Z AUTO 14006KT 12SM 31/25 A2962 RMK SLP035 T03080247 57004 IEM_DS3505
ZGSZ,2001-06-24 10:00,ZGSZ 241000Z AUTO 07004KT 26/23 A2962 RMK T02600230 IEM_DS3505
ZGSZ,2001-06-24 11:00,ZGSZ 241100Z AUTO 11004KT 6SM RMK IEM_DS3505
ZGSZ,2001-06-24 12:00,ZGSZ 241200Z AUTO 22004KT 4SM 28/25 A2968 RMK 60002 SLP049 T02820248 52013 IEM_DS3505
ZGSZ,2001-06-24 13:00,ZGSZ 241300Z AUTO 10006KT 6SM 28/23 A2968 RMK T02800230 IEM_DS3505
ZGSZ,2001-06-24 14:00,ZGSZ 241400Z AUTO 09004KT 5SM 28/23 A2968 RMK T02800230 IEM_DS3505
ZGSZ,2001-06-24 15:00,ZGSZ 241500Z AUTO 07004KT 6SM 27/23 A2971 RMK T02700230 IEM_DS3505
ZGSZ,2001-06-24 16:00,ZGSZ 241600Z AUTO 09004KT 27/23 A2968 RMK T02700230 IEM_DS3505
ZGSZ,2001-06-24 17:00,ZGSZ 241700Z AUTO 06004KT RMK IEM_DS3505
ZGSZ,2001-06-24 18:00,ZGSZ 241800Z AUTO 07006KT 3SM 27/25 RMK 60016 SLP054 T02690249 57008 IEM_DS3505
ZGSZ,2001-06-24 21:00,ZGSZ 242100Z AUTO 07006KT 12SM 26/24 A2965 RMK 70054 SLP041 T02620245 57013 IEM_DS3505
ZGSZ,2001-06-24 22:00,ZGSZ 242200Z AUTO 08004KT 6SM 26/23 A2965 RMK T02600230 IEM_DS3505
ZGSZ,2001-06-24 23:00,ZGSZ 242300Z AUTO 07004KT 27/23 A2965 RMK T02700230 IEM_DS3505
ZGSZ,2001-06-25 00:00,ZGSZ 250000Z AUTO 02004KT 8SM 26/25 A2968 RMK 60106 SLP054 T02600246 52012 IEM_DS3505
ZGSZ,2001-06-25 01:00,ZGSZ 250100Z AUTO 06008KT 9SM RMK IEM_DS3505
ZGSZ,2001-06-25 02:00,ZGSZ 250200Z AUTO 08008KT 6SM RMK IEM_DS3505
ZGSZ,2001-06-25 03:00,ZGSZ 250300Z AUTO 02004KT 3SM 27/25 RMK SLP055 T02720254 52001 IEM_DS3505
ZGSZ,2001-06-25 04:00,ZGSZ 250400Z AUTO 09010KT 6SM RMK IEM_DS3505
ZGSZ,2001-06-25 05:00,ZGSZ 250500Z AUTO 11012KT 6SM RMK IEM_DS3505
ZGSZ,2001-06-25 06:00,ZGSZ 250600Z AUTO 16004KT 4SM 28/26 A2965 RMK 60142 SLP042 T02750257 57013 IEM_DS3505
ZGSZ,2001-06-25 07:00,ZGSZ 250700Z AUTO 10008KT 6SM 28/24 A2962 RMK T02800240 IEM_DS3505
ZGSZ,2001-06-25 08:00,ZGSZ 250800Z AUTO 10012KT 6SM 29/23 A2962 RMK T02900230 IEM_DS3505
ZGSZ,2001-06-25 09:00,ZGSZ 250900Z AUTO 04006KT 2 1/2SM 27/25 RMK SLP028 T02680251 57014 IEM_DS3505
ZGSZ,2001-06-25 10:00,ZGSZ 251000Z AUTO 10010KT 6SM 28/23 A2962 RMK T02800230 IEM_DS3505
ZGSZ,2001-06-25 11:00,ZGSZ 251100Z AUTO 13008KT 6SM 25/23 A2962 RMK T02500230 IEM_DS3505
ZGSZ,2001-06-25 12:00,ZGSZ 251200Z AUTO 00000KT 3SM 25/24 A2965 RMK 60067 SLP045 T02530244 52017 IEM_DS3505
ZGSZ,2001-06-25 13:00,ZGSZ 251300Z AUTO 10008KT 6SM 26/22 A2965 RMK T02600220 IEM_DS3505
ZGSZ,2001-06-25 14:00,ZGSZ 251400Z AUTO 09006KT 6SM 26/22 A2965 RMK T02600220 IEM_DS3505
ZGSZ,2001-06-25 15:00,ZGSZ 251500Z AUTO 09008KT 6SM RMK IEM_DS3505
ZGSZ,2001-06-25 18:00,ZGSZ 251800Z AUTO 14004KT 12SM 26/24 RMK 60035 SLP033 T02630242 57016 IEM_DS3505
ZGSZ,2001-06-25 19:00,ZGSZ 251900Z AUTO 11008KT 6SM 26/22 A2959 RMK T02600220 IEM_DS3505
ZGSZ,2001-06-25 20:00,ZGSZ 252000Z AUTO 08006KT 6SM 27/22 A2959 RMK T02700220 IEM_DS3505
ZGSZ,2001-06-25 21:00,ZGSZ 252100Z AUTO 14006KT 11SM 27/25 A2959 RMK 70321 SLP029 T02680247 57004 IEM_DS3505
ZGSZ,2001-06-25 22:00,ZGSZ 252200Z AUTO 08006KT 6SM 27/23 A2959 RMK T02700230 IEM_DS3505
ZGSZ,2001-06-25 23:00,ZGSZ 252300Z AUTO 08008KT 6SM 27/23 A2962 RMK T02700230 IEM_DS3505
ZGSZ,2001-06-26 00:00,ZGSZ 260000Z AUTO 11004KT 4SM 26/24 RMK 60051 SLP040 T02610245 52011 IEM_DS3505
ZGSZ,2001-06-26 01:00,ZGSZ 260100Z AUTO 12010KT 6SM 27/23 A2962 RMK T02700230 IEM_DS3505
ZGSZ,2001-06-26 02:00,ZGSZ 260200Z AUTO 11010KT 6SM 28/24 A2962 RMK T02800240 IEM_DS3505
ZGSZ,2001-06-26 03:00,ZGSZ 260300Z AUTO 18004KT 9SM 28/25 A2962 RMK SLP038 T02790254 57002 IEM_DS3505
ZGSZ,2001-06-26 04:00,ZGSZ 260400Z AUTO 14008KT 6SM 26/23 A2962 RMK T02600230 IEM_DS3505
ZGSZ,2001-06-26 06:00,ZGSZ 260600Z AUTO 18004KT 16SM 29/25 RMK 60039 SLP032 T02930251 57005 IEM_DS3505
ZGSZ,2001-06-26 07:00,ZGSZ 260700Z AUTO 16012KT 6SM RMK IEM_DS3505
ZGSZ,2001-06-26 08:00,ZGSZ 260800Z AUTO 14010KT 10SM 25/23 A2959 RMK T02500230 IEM_DS3505
ZGSZ,2001-06-26 09:00,ZGSZ 260900Z AUTO 14006KT 7SM 25/24 RMK SLP031 T02490237 57002 IEM_DS3505
ZGSZ,2001-06-26 10:00,ZGSZ 261000Z AUTO 12010KT 6SM 25/22 A2959 RMK T02500220 IEM_DS3505
ZGSZ,2001-06-26 11:00,ZGSZ 261100Z AUTO 11010KT 10SM 26/23 A2962 RMK T02600230 IEM_DS3505
ZGSZ,2001-06-26 12:00,ZGSZ 261200Z AUTO 09004KT 5SM 26/25 A2965 RMK 60102 SLP044 T02590246 52013 IEM_DS3505
ZGSZ,2001-06-26 13:00,ZGSZ 261300Z AUTO 11010KT 6SM 26/23 A2965 RMK T02600230 IEM_DS3505
ZGSZ,2001-06-26 14:00,ZGSZ 261400Z AUTO 11010KT 0SM 26/23 A2968 RMK T02600230 IEM_DS3505
ZGSZ,2001-06-26 15:00,ZGSZ 261500Z AUTO 11008KT 6SM 26/23 A2968 RMK T02600230 IEM_DS3505
ZGSZ,2001-06-26 16:00,ZGSZ 261600Z AUTO 12010KT 26/23 A2968 RMK T02600230 IEM_DS3505
ZGSZ,2001-06-26 17:00,ZGSZ 261700Z AUTO 11006KT 6SM 26/23 A2965 RMK T02600230 IEM_DS3505
ZGSZ,2001-06-26 18:00,ZGSZ 261800Z AUTO 14006KT 10SM 27/25 RMK 60035 SLP043 T02680247 57016 IEM_DS3505
ZGSZ,2001-06-26 19:00,ZGSZ 261900Z AUTO 11006KT 10SM 26/23 A2965 RMK T02600230 IEM_DS3505
ZGSZ,2001-06-26 20:00,ZGSZ 262000Z AUTO 09008KT 6SM 26/23 A2965 RMK T02600230 IEM_DS3505
ZGSZ,2001-06-26 21:00,ZGSZ 262100Z AUTO 07004KT 9SM 26/25 A2965 RMK 70220 SLP041 T02640247 57003 IEM_DS3505
ZGSZ,2001-06-26 22:00,ZGSZ 262200Z AUTO 12004KT 6SM 26/23 A2965 RMK T02600230 IEM_DS3505
ZGSZ,2001-06-26 23:00,ZGSZ 262300Z AUTO 11006KT 6SM 27/23 A2965 RMK T02700230 IEM_DS3505
ZGSZ,2001-06-27 00:00,ZGSZ 270000Z AUTO 09004KT 4SM 26/25 A2968 RMK 60035 SLP055 T02640253 52014 IEM_DS3505
ZGSZ,2001-06-27 01:00,ZGSZ 270100Z AUTO 20010KT 6SM 25/23 A2968 RMK T02500230 IEM_DS3505
ZGSZ,2001-06-27 02:00,ZGSZ 270200Z AUTO 13014KT 25/22 A2968 RMK T02500220 IEM_DS3505
ZGSZ,2001-06-27 03:00,ZGSZ 270300Z AUTO 11008KT 6SM 25/23 A2971 RMK T02500230 IEM_DS3505
ZGSZ,2001-06-27 04:00,ZGSZ 270400Z AUTO 10010KT 6SM 26/23 A2971 RMK T02600230 IEM_DS3505
ZGSZ,2001-06-27 05:00,ZGSZ 270500Z AUTO 11010KT 6SM 26/23 A2971 RMK T02600230 IEM_DS3505
ZGSZ,2001-06-27 06:00,ZGSZ 270600Z AUTO 29006KT 2SM 25/25 A2971 RMK 60425 SLP064 T02530246 54000 IEM_DS3505
ZGSZ,2001-06-27 07:00,ZGSZ 270700Z AUTO 07006KT 24/22 A2971 RMK T02400220 IEM_DS3505
ZGSZ,2001-06-27 08:00,ZGSZ 270800Z AUTO 07006KT 24/22 A2971 RMK T02400220 IEM_DS3505
ZGSZ,2001-06-27 09:00,ZGSZ 270900Z AUTO 00000KT 3SM 24/24 A2971 RMK SLP065 T02430239 52001 IEM_DS3505
ZGSZ,2001-06-27 10:00,ZGSZ 271000Z AUTO 09006KT 6SM 24/21 A2971 RMK T02400210 IEM_DS3505
ZGSZ,2001-06-27 11:00,ZGSZ 271100Z AUTO 11006KT 6SM 24/21 A2971 RMK T02400210 IEM_DS3505
ZGSZ,2001-06-27 12:00,ZGSZ 271200Z AUTO 00000KT 4SM 24/24 A2974 RMK 60323 SLP075 T02440241 52010 IEM_DS3505
ZGSZ,2001-06-27 13:00,ZGSZ 271300Z AUTO 11008KT 6SM 25/22 A2974 RMK T02500220 IEM_DS3505
ZGSZ,2001-06-27 14:00,ZGSZ 271400Z AUTO 09006KT 6SM 25/22 A2971 RMK T02500220 IEM_DS3505
ZGSZ,2001-06-27 15:00,ZGSZ 271500Z AUTO 09006KT 6SM 25/22 A2971 RMK T02500220 IEM_DS3505
ZGSZ,2001-06-27 16:00,ZGSZ 271600Z AUTO 05002KT 4SM RMK IEM_DS3505
ZGSZ,2001-06-27 17:00,ZGSZ 271700Z AUTO 10002KT 6SM 25/22 A2971 RMK T02500220 IEM_DS3505
ZGSZ,2001-06-27 18:00,ZGSZ 271800Z AUTO 14004KT 12SM 26/25 A2971 RMK 60004 SLP061 T02580247 57008 IEM_DS3505
ZGSZ,2001-06-27 19:00,ZGSZ 271900Z AUTO 36004KT 25/22 A2971 RMK T02500220 IEM_DS3505
ZGSZ,2001-06-27 20:00,ZGSZ 272000Z AUTO 09006KT 6SM 26/22 A2968 RMK T02600220 IEM_DS3505
ZGSZ,2001-06-27 21:00,ZGSZ 272100Z AUTO 14004KT 5SM 26/25 A2968 RMK 70805 SLP059 T02650249 57002 IEM_DS3505
ZGSZ,2001-06-27 22:00,ZGSZ 272200Z AUTO 10010KT RMK IEM_DS3505
ZGSZ,2001-06-27 23:00,ZGSZ 272300Z AUTO 11006KT 6SM RMK IEM_DS3505
ZGSZ,2001-06-28 00:00,ZGSZ 280000Z AUTO 11006KT 12SM 28/25 A2974 RMK 60028 SLP072 T02750251 52013 IEM_DS3505
ZGSZ,2001-06-28 01:00,ZGSZ 280100Z AUTO 12012KT 6SM RMK IEM_DS3505
ZGSZ,2001-06-28 02:00,ZGSZ 280200Z AUTO 13014KT 6SM RMK IEM_DS3505
ZGSZ,2001-06-28 03:00,ZGSZ 280300Z AUTO 18006KT 16SM 30/24 RMK SLP082 T03050236 52010 IEM_DS3505
ZGSZ,2001-06-28 04:00,ZGSZ 280400Z AUTO 16010KT 6SM RMK IEM_DS3505
ZGSZ,2001-06-28 05:00,ZGSZ 280500Z AUTO 17012KT 6SM RMK IEM_DS3505
ZGSZ,2001-06-28 06:00,ZGSZ 280600Z AUTO 14008KT 19SM 32/23 RMK 60000 SLP071 T03160231 57010 IEM_DS3505
ZGSZ,2001-06-28 07:00,ZGSZ 280700Z AUTO 17012KT 9SM 32/23 A2971 RMK T03200230 IEM_DS3505
ZGSZ,2001-06-28 08:00,ZGSZ 280800Z AUTO 17012KT 31/23 A2968 RMK T03100230 IEM_DS3505
ZGSZ,2001-06-28 09:00,ZGSZ 280900Z AUTO 16006KT 19SM 31/24 A2968 RMK SLP062 T03120236 57009 IEM_DS3505
ZGSZ,2001-06-28 10:00,ZGSZ 281000Z AUTO 16008KT 6SM RMK IEM_DS3505
ZGSZ,2001-06-28 11:00,ZGSZ 281100Z AUTO 12010KT 6SM 30/21 A2971 RMK T03000210 IEM_DS3505
ZGSZ,2001-06-28 12:00,ZGSZ 281200Z AUTO 11002KT 17SM 29/25 A2974 RMK SLP072 T02880248 52009 IEM_DS3505
ZGSZ,2001-06-28 13:00,ZGSZ 281300Z AUTO 10008KT 6SM 29/22 A2974 RMK T02900220 IEM_DS3505
ZGSZ,2001-06-28 14:00,ZGSZ 281400Z AUTO 11002KT 6SM 28/23 A2977 RMK T02800230 IEM_DS3505
ZGSZ,2001-06-28 15:00,ZGSZ 281500Z AUTO 10004KT 6SM 28/23 A2977 RMK T02800230 IEM_DS3505
ZGSZ,2001-06-28 18:00,ZGSZ 281800Z AUTO 09004KT 19SM 28/25 RMK SLP069 T02800252 57013 IEM_DS3505
ZGSZ,2001-06-28 19:00,ZGSZ 281900Z AUTO 04002KT 6SM 27/23 A2971 RMK T02700230 IEM_DS3505
ZGSZ,2001-06-28 20:00,ZGSZ 282000Z AUTO 03004KT 15SM RMK IEM_DS3505
ZGSZ,2001-06-28 21:00,ZGSZ 282100Z AUTO 07002KT 12SM 28/26 A2971 RMK 70020 SLP062 T02760258 57007 IEM_DS3505
ZGSZ,2001-06-28 22:00,ZGSZ 282200Z AUTO 02006KT RMK IEM_DS3505
ZGSZ,2001-06-28 23:00,ZGSZ 282300Z AUTO 36004KT 6SM 27/24 A2974 RMK T02700240 IEM_DS3505
ZGSZ,2001-06-29 00:00,ZGSZ 290000Z AUTO 09004KT 16SM 28/25 A2974 RMK 60008 SLP074 T02820254 52011 IEM_DS3505
ZGSZ,2001-06-29 01:00,ZGSZ 290100Z AUTO 09008KT 6SM 30/22 A2977 RMK T03000220 IEM_DS3505
ZGSZ,2001-06-29 02:00,ZGSZ 290200Z AUTO 10008KT 6SM 31/22 A2977 RMK T03100220 IEM_DS3505
ZGSZ,2001-06-29 03:00,ZGSZ 290300Z AUTO 11006KT 17SM 30/24 A2974 RMK SLP078 T03050236 52005 IEM_DS3505
ZGSZ,2001-06-29 04:00,ZGSZ 290400Z AUTO 10010KT 6SM 33/21 A2974 RMK T03300210 IEM_DS3505
ZGSZ,2001-06-29 05:00,ZGSZ 290500Z AUTO 21004KT 19SM RMK IEM_DS3505
ZGSZ,2001-06-29 06:00,ZGSZ 290600Z AUTO 07012KT 17SM 32/24 A2974 RMK 60000 SLP070 T03160241 57008 IEM_DS3505
ZGSZ,2001-06-29 07:00,ZGSZ 290700Z AUTO 12014KT 9SM 33/21 A2971 RMK T03300210 IEM_DS3505
ZGSZ,2001-06-29 08:00,ZGSZ 290800Z AUTO 11012KT 6SM 33/21 A2968 RMK T03300210 IEM_DS3505
ZGSZ,2001-06-29 09:00,ZGSZ 290900Z AUTO 09014KT 19SM 31/24 A2968 RMK SLP056 T03140240 57014 IEM_DS3505
ZGSZ,2001-06-29 10:00,ZGSZ 291000Z AUTO 11014KT 6SM 31/21 A2968 RMK T03100210 IEM_DS3505
ZGSZ,2001-06-29 11:00,ZGSZ 291100Z AUTO 12014KT 6SM 30/21 A2968 RMK T03000210 IEM_DS3505
ZGSZ,2001-06-29 12:00,ZGSZ 291200Z AUTO 14008KT 17SM 29/25 A2971 RMK SLP064 T02940246 52008 IEM_DS3505
ZGSZ,2001-06-29 13:00,ZGSZ 291300Z AUTO 10010KT 6SM 29/22 A2974 RMK T02900220 IEM_DS3505
ZGSZ,2001-06-29 14:00,ZGSZ 291400Z AUTO 11006KT 6SM 29/22 A2974 RMK T02900220 IEM_DS3505
ZGSZ,2001-06-29 15:00,ZGSZ 291500Z AUTO 08004KT 28/22 A2974 RMK T02800220 IEM_DS3505
ZGSZ,2001-06-29 16:00,ZGSZ 291600Z AUTO 03004KT 28/23 A2974 RMK T02800230 IEM_DS3505
ZGSZ,2001-06-29 17:00,ZGSZ 291700Z AUTO 02004KT 27/23 A2971 RMK T02700230 IEM_DS3505
ZGSZ,2001-06-29 18:00,ZGSZ 291800Z AUTO 09006KT 12SM 28/25 A2971 RMK 60003 SLP061 T02840252 57012 IEM_DS3505
ZGSZ,2001-06-29 19:00,ZGSZ 291900Z AUTO 01004KT 6SM 27/23 A2968 RMK T02700230 IEM_DS3505
ZGSZ,2001-06-29 20:00,ZGSZ 292000Z AUTO 02004KT 27/23 A2968 RMK T02700230 IEM_DS3505
ZGSZ,2001-06-29 21:00,ZGSZ 292100Z AUTO 04008KT 12SM 28/25 A2968 RMK 70006 SLP059 T02790251 57002 IEM_DS3505
ZGSZ,2001-06-29 22:00,ZGSZ 292200Z AUTO 01006KT 6SM 27/23 A2968 RMK T02700230 IEM_DS3505
ZGSZ,2001-06-29 23:00,ZGSZ 292300Z AUTO 04008KT 6SM RMK IEM_DS3505
ZGSZ,2001-06-30 00:00,ZGSZ 300000Z AUTO 04006KT 7SM 27/25 RMK 60012 SLP063 T02730252 52003 IEM_DS3505
ZGSZ,2001-06-30 01:00,ZGSZ 300100Z AUTO 07006KT 6SM RMK IEM_DS3505
ZGSZ,2001-06-30 02:00,ZGSZ 300200Z AUTO 06008KT 6SM RMK IEM_DS3505
ZGSZ,2001-06-30 03:00,ZGSZ 300300Z AUTO 07006KT 6SM 29/25 RMK SLP052 T02860251 57010 IEM_DS3505
ZGSZ,2001-06-30 04:00,ZGSZ 300400Z AUTO 09008KT RMK IEM_DS3505
ZGSZ,2001-06-30 06:00,ZGSZ 300600Z AUTO 07012KT 14SM 31/25 A2962 RMK 60000 SLP039 T03110249 57013 IEM_DS3505
ZGSZ,2001-06-30 07:00,ZGSZ 300700Z AUTO 09008KT RMK IEM_DS3505
ZGSZ,2001-06-30 08:00,ZGSZ 300800Z AUTO 09012KT 6SM 30/23 A2962 RMK T03000230 IEM_DS3505
ZGSZ,2001-06-30 09:00,ZGSZ 300900Z AUTO 09012KT 12SM 29/26 RMK SLP025 T02900255 57014 IEM_DS3505
ZGSZ,2001-06-30 10:00,ZGSZ 301000Z AUTO 09004KT 6SM 30/22 A2959 RMK T03000220 IEM_DS3505
ZGSZ,2001-06-30 11:00,ZGSZ 301100Z AUTO 09010KT 6SM RMK IEM_DS3505
ZGSZ,2001-06-30 12:00,ZGSZ 301200Z AUTO 07012KT 12SM 29/24 RMK 60004 SLP039 T02860245 52014 IEM_DS3505
ZGSZ,2001-06-30 13:00,ZGSZ 301300Z AUTO 05008KT 6SM RMK IEM_DS3505
ZGSZ,2001-06-30 14:00,ZGSZ 301400Z AUTO 03008KT 16SM RMK IEM_DS3505
ZGSZ,2001-06-30 15:00,ZGSZ 301500Z AUTO 05010KT 6SM 27/22 A2965 RMK T02700220 IEM_DS3505
ZGSZ,2001-06-30 16:00,ZGSZ 301600Z AUTO 06010KT 6SM 27/21 A2962 RMK T02700210 IEM_DS3505
ZGSZ,2001-06-30 17:00,ZGSZ 301700Z AUTO 06012KT 6SM 27/22 A2962 RMK T02700220 IEM_DS3505
ZGSZ,2001-06-30 18:00,ZGSZ 301800Z AUTO 04010KT 12SM 28/24 A2959 RMK 60003 SLP022 T02840240 57020 IEM_DS3505
ZGSZ,2001-06-30 21:00,ZGSZ 302100Z AUTO 09014KT 12SM 28/24 RMK 70011 SLP012 T02840238 57010 IEM_DS3505
ZGSZ,2001-06-30 22:00,ZGSZ 302200Z AUTO 07008KT 6SM 28/22 A2959 RMK T02800220 IEM_DS3505
ZGSZ,2001-06-30 23:00,ZGSZ 302300Z AUTO 06008KT 6SM 27/22 A2959 RMK T02700220 IEM_DS3505
ZGSZ,2001-07-01 00:00,ZGSZ 010000Z AUTO 09010KT 8SM 28/25 A2962 RMK 60012 SLP031 T02800247 52019 IEM_DS3505
ZGSZ,2001-07-01 01:00,ZGSZ 010100Z AUTO 06008KT 6SM 28/22 A2962 RMK T02800220 IEM_DS3505
ZGSZ,2001-07-01 02:00,ZGSZ 010200Z AUTO 06008KT 29/23 A2959 RMK T02900230 IEM_DS3505
ZGSZ,2001-07-01 03:00,ZGSZ 010300Z AUTO 07010KT 16SM 27/24 A2962 RMK SLP033 T02680239 52002 IEM_DS3505
ZGSZ,2001-07-01 04:00,ZGSZ 010400Z AUTO 08014KT 6SM RMK IEM_DS3505
ZGSZ,2001-07-01 05:00,ZGSZ 010500Z AUTO 07010KT 20SM 29/22 A2959 RMK T02900220 IEM_DS3505
ZGSZ,2001-07-01 06:00,ZGSZ 010600Z AUTO 09016KT 12SM 28/24 A2956 RMK 60012 SLP009 T02820244 57024 IEM_DS3505
ZGSZ,2001-07-01 07:00,ZGSZ 010700Z AUTO 09014KT 6SM RMK IEM_DS3505
ZGSZ,2001-07-01 08:00,ZGSZ 010800Z AUTO 10017KT 28/22 A2953 RMK T02800220 IEM_DS3505
ZGSZ,2001-07-01 09:00,ZGSZ 010900Z AUTO 09012KT 4SM 27/25 A2956 RMK SLP009 T02700246 54000 IEM_DS3505
ZGSZ,2001-07-01 10:00,ZGSZ 011000Z AUTO 09014KT 6SM 26/22 A2953 RMK T02600220 IEM_DS3505
ZGSZ,2001-07-01 11:00,ZGSZ 011100Z AUTO 10014KT 27/22 A2956 RMK T02700220 IEM_DS3505
ZGSZ,2001-07-01 12:00,ZGSZ 011200Z AUTO 09008KT 7SM 27/24 A2956 RMK 60102 SLP021 T02730245 52012 IEM_DS3505
ZGSZ,2001-07-01 13:00,ZGSZ 011300Z AUTO 10014KT 6SM 26/22 A2959 RMK T02600220 IEM_DS3505
ZGSZ,2001-07-01 14:00,ZGSZ 011400Z AUTO 11014KT 27/22 A2962 RMK T02700220 IEM_DS3505
ZGSZ,2001-07-01 15:00,ZGSZ 011500Z AUTO 09014KT 27/22 A2962 RMK T02700220 IEM_DS3505
ZGSZ,2001-07-01 16:00,ZGSZ 011600Z AUTO 10014KT 37SM 26/22 A2962 RMK T02600220 IEM_DS3505
ZGSZ,2001-07-01 17:00,ZGSZ 011700Z AUTO 11012KT 26/23 A2959 RMK T02600230 IEM_DS3505
ZGSZ,2001-07-01 18:00,ZGSZ 011800Z AUTO 14008KT 9SM 27/24 A2959 RMK 60020 SLP024 T02660245 57017 IEM_DS3505
ZGSZ,2001-07-01 19:00,ZGSZ 011900Z AUTO 13014KT 25/22 A2959 RMK T02500220 IEM_DS3505
ZGSZ,2001-07-01 20:00,ZGSZ 012000Z AUTO 10014KT 25/22 A2959 RMK T02500220 IEM_DS3505
ZGSZ,2001-07-01 21:00,ZGSZ 012100Z AUTO 14010KT 12SM 27/24 RMK 70270 SLP023 T02720241 57002 IEM_DS3505
ZGSZ,2001-07-01 22:00,ZGSZ 012200Z AUTO 10010KT 6SM 27/22 A2959 RMK T02700220 IEM_DS3505
ZGSZ,2001-07-01 23:00,ZGSZ 012300Z AUTO 10010KT 6SM RMK IEM_DS3505
ZGSZ,2001-07-02 00:00,ZGSZ 020000Z AUTO 07006KT 8SM 27/25 RMK 60138 SLP039 T02680247 52016 IEM_DS3505
ZGSZ,2001-07-02 01:00,ZGSZ 020100Z AUTO 10014KT 6SM RMK IEM_DS3505
ZGSZ,2001-07-02 02:00,ZGSZ 020200Z AUTO 10016KT 6SM RMK IEM_DS3505
ZGSZ,2001-07-02 03:00,ZGSZ 020300Z AUTO 09006KT 3SM 27/24 A2965 RMK SLP058 T02720245 52019 IEM_DS3505
ZGSZ,2001-07-02 04:00,ZGSZ 020400Z AUTO 10014KT 6SM 29/23 A2965 RMK T02900230 IEM_DS3505
ZGSZ,2001-07-02 05:00,ZGSZ 020500Z AUTO 12016KT 6SM RMK IEM_DS3505
ZGSZ,2001-07-02 06:00,ZGSZ 020600Z AUTO 14008KT 16SM 29/24 A2965 RMK 60004 SLP048 T02900240 57010 IEM_DS3505
ZGSZ,2001-07-02 07:00,ZGSZ 020700Z AUTO 12014KT 6SM RMK IEM_DS3505
ZGSZ,2001-07-02 08:00,ZGSZ 020800Z AUTO 10014KT 9SM 29/22 A2962 RMK T02900220 IEM_DS3505
ZGSZ,2001-07-02 09:00,ZGSZ 020900Z AUTO 14004KT 9SM 28/24 RMK SLP044 T02800244 57004 IEM_DS3505
ZGSZ,2001-07-02 10:00,ZGSZ 021000Z AUTO 10012KT 6SM RMK IEM_DS3505
ZGSZ,2001-07-02 11:00,ZGSZ 021100Z AUTO 10010KT 6SM 27/22 A2965 RMK T02700220 IEM_DS3505
ZGSZ,2001-07-02 12:00,ZGSZ 021200Z AUTO 14006KT 11SM 28/25 A2968 RMK 60003 SLP057 T02750247 52013 IEM_DS3505
ZGSZ,2001-07-02 13:00,ZGSZ 021300Z AUTO 09008KT 6SM 27/22 A2968 RMK T02700220 IEM_DS3505
ZGSZ,2001-07-02 14:00,ZGSZ 021400Z AUTO 10008KT 6SM 27/22 A2971 RMK T02700220 IEM_DS3505
ZGSZ,2001-07-02 15:00,ZGSZ 021500Z AUTO 11008KT 6SM 27/23 A2971 RMK T02700230 IEM_DS3505
ZGSZ,2001-07-02 16:00,ZGSZ 021600Z AUTO 12008KT 6SM 27/23 A2971 RMK T02700230 IEM_DS3505
ZGSZ,2001-07-02 17:00,ZGSZ 021700Z AUTO 10010KT 6SM 27/22 A2971 RMK T02700220 IEM_DS3505
ZGSZ,2001-07-02 18:00,ZGSZ 021800Z AUTO 09006KT 11SM 27/25 A2968 RMK 60012 SLP050 T02740246 57019 IEM_DS3505
ZGSZ,2001-07-02 19:00,ZGSZ 021900Z AUTO 10008KT 6SM 26/23 A2968 RMK T02600230 IEM_DS3505
ZGSZ,2001-07-02 20:00,ZGSZ 022000Z AUTO 11008KT 6SM RMK IEM_DS3505
ZGSZ,2001-07-02 21:00,ZGSZ 022100Z AUTO 09004KT 11SM 27/24 RMK 70029 SLP050 T02730242 57001 IEM_DS3505
ZGSZ,2001-07-02 22:00,ZGSZ 022200Z AUTO 10006KT 6SM 27/22 A2968 RMK T02700220 IEM_DS3505
ZGSZ,2001-07-02 23:00,ZGSZ 022300Z AUTO 11006KT 6SM 27/22 A2968 RMK T02700220 IEM_DS3505
ZGSZ,2001-07-03 00:00,ZGSZ 030000Z AUTO 14008KT 11SM 27/24 RMK 60008 SLP059 T02720245 52009 IEM_DS3505
ZGSZ,2001-07-03 01:00,ZGSZ 030100Z AUTO 10010KT 7SM RMK IEM_DS3505
ZGSZ,2001-07-03 02:00,ZGSZ 030200Z AUTO 11010KT RMK IEM_DS3505
ZGSZ,2001-07-03 03:00,ZGSZ 030300Z AUTO 07014KT 12SM 29/24 A2968 RMK SLP060 T02900243 52001 IEM_DS3505
ZGSZ,2001-07-03 04:00,ZGSZ 030400Z AUTO 14012KT 6SM RMK IEM_DS3505
ZGSZ,2001-07-03 05:00,ZGSZ 030500Z AUTO 12014KT 6SM 30/23 A2965 RMK T03000230 IEM_DS3505
ZGSZ,2001-07-03 06:00,ZGSZ 030600Z AUTO 09006KT 19SM 30/24 RMK 60004 SLP046 T03030240 57013 IEM_DS3505
ZGSZ,2001-07-03 07:00,ZGSZ 030700Z AUTO 09014KT RMK IEM_DS3505
ZGSZ,2001-07-03 08:00,ZGSZ 030800Z AUTO 10012KT RMK IEM_DS3505
ZGSZ,2001-07-03 09:00,ZGSZ 030900Z AUTO 09004KT 14SM 30/23 A2962 RMK SLP040 T03000232 57006 IEM_DS3505
ZGSZ,2001-07-03 10:00,ZGSZ 031000Z AUTO 10012KT 7SM 30/21 A2962 RMK T03000210 IEM_DS3505
ZGSZ,2001-07-03 11:00,ZGSZ 031100Z AUTO 11010KT 6SM 29/21 A2965 RMK T02900210 IEM_DS3505
ZGSZ,2001-07-03 12:00,ZGSZ 031200Z AUTO 09004KT 12SM 29/22 A2965 RMK SLP050 T02880224 52009 IEM_DS3505
ZGSZ,2001-07-03 13:00,ZGSZ 031300Z AUTO 09008KT 6SM 28/20 A2968 RMK T02800200 IEM_DS3505
ZGSZ,2001-07-03 14:00,ZGSZ 031400Z AUTO 10006KT 6SM 28/19 A2968 RMK T02800190 IEM_DS3505
ZGSZ,2001-07-03 15:00,ZGSZ 031500Z AUTO 16004KT 6SM 26/20 A2968 RMK T02600200 IEM_DS3505
ZGSZ,2001-07-03 16:00,ZGSZ 031600Z AUTO 16006KT 6SM 26/20 A2968 RMK T02600200 IEM_DS3505
ZGSZ,2001-07-03 17:00,ZGSZ 031700Z AUTO 36004KT 6SM 26/20 A2968 RMK T02600200 IEM_DS3505
ZGSZ,2001-07-03 18:00,ZGSZ 031800Z AUTO 04004KT 7SM 26/23 A2965 RMK SLP043 T02640226 57013 IEM_DS3505
ZGSZ,2001-07-03 19:00,ZGSZ 031900Z AUTO 01002KT 6SM 25/20 A2962 RMK T02500200 IEM_DS3505
ZGSZ,2001-07-03 20:00,ZGSZ 032000Z AUTO 35004KT 6SM 24/21 A2959 RMK T02400210 IEM_DS3505
ZGSZ,2001-07-03 21:00,ZGSZ 032100Z AUTO 04004KT 8SM 25/22 A2959 RMK 70010 SLP028 T02540225 57015 IEM_DS3505
ZGSZ,2001-07-03 22:00,ZGSZ 032200Z AUTO 34004KT 6SM 24/20 A2959 RMK T02400200 IEM_DS3505
ZGSZ,2001-07-03 23:00,ZGSZ 032300Z AUTO 35004KT 6SM 26/21 A2959 RMK T02600210 IEM_DS3505
ZGSZ,2001-07-04 00:00,ZGSZ 040000Z AUTO 27004KT 6SM 26/23 A2959 RMK 70004 SLP027 T02630226 57001 IEM_DS3505
ZGSZ,2001-07-04 01:00,ZGSZ 040100Z AUTO 30008KT 12SM 28/23 A2959 RMK T02800230 IEM_DS3505
ZGSZ,2001-07-04 02:00,ZGSZ 040200Z AUTO 30010KT 6SM 29/23 A2956 RMK T02900230 IEM_DS3505
ZGSZ,2001-07-04 03:00,ZGSZ 040300Z AUTO 32006KT 4SM 32/23 A2956 RMK SLP008 T03150229 57019 IEM_DS3505
ZGSZ,2001-07-04 04:00,ZGSZ 040400Z AUTO 30010KT 6SM 31/22 A2953 RMK T03100220 IEM_DS3505
ZGSZ,2001-07-04 05:00,ZGSZ 040500Z AUTO 30012KT RMK IEM_DS3505
ZGSZ,2001-07-04 06:00,ZGSZ 040600Z AUTO 32010KT 7SM 34/23 A2947 RMK SLP986 T03430232 57022 IEM_DS3505
ZGSZ,2001-07-04 07:00,ZGSZ 040700Z AUTO 29012KT 6SM 33/24 A2944 RMK T03300240 IEM_DS3505
ZGSZ,2001-07-04 08:00,ZGSZ 040800Z AUTO 30014KT 6SM 33/23 A2941 RMK T03300230 IEM_DS3505
ZGSZ,2001-07-04 09:00,ZGSZ 040900Z AUTO 34004KT 14SM 34/23 A2938 RMK SLP954 T03410233 57032 IEM_DS3505
ZGSZ,2001-07-04 10:00,ZGSZ 041000Z AUTO 31010KT 6SM 33/22 A2935 RMK T03300220 IEM_DS3505
ZGSZ,2001-07-04 11:00,ZGSZ 041100Z AUTO 32008KT 6SM 33/21 A2938 RMK T03300210 IEM_DS3505
ZGSZ,2001-07-04 12:00,ZGSZ 041200Z AUTO 32006KT 7SM 33/23 A2938 RMK SLP954 T03290227 54000 IEM_DS3505
ZGSZ,2001-07-04 13:00,ZGSZ 041300Z AUTO 31008KT 6SM 31/23 A2938 RMK T03100230 IEM_DS3505
ZGSZ,2001-07-04 14:00,ZGSZ 041400Z AUTO 33010KT 6SM 31/22 A2938 RMK T03100220 IEM_DS3505
ZGSZ,2001-07-04 15:00,ZGSZ 041500Z AUTO 33008KT 6SM 30/23 A2938 RMK T03000230 IEM_DS3505
ZGSZ,2001-07-04 18:00,ZGSZ 041800Z AUTO 36006KT 11SM 32/23 RMK SLP925 T03150227 57024 IEM_DS3505
ZGSZ,2001-07-04 19:00,ZGSZ 041900Z AUTO 34006KT 6SM RMK IEM_DS3505
ZGSZ,2001-07-04 20:00,ZGSZ 042000Z AUTO 35006KT 16SM RMK IEM_DS3505
ZGSZ,2001-07-04 21:00,ZGSZ 042100Z AUTO 36006KT 11SM 31/22 RMK SLP913 T03080221 57012 IEM_DS3505
ZGSZ,2001-07-04 22:00,ZGSZ 042200Z AUTO 32010KT 6SM 29/21 A2926 RMK T02900210 IEM_DS3505
ZGSZ,2001-07-04 23:00,ZGSZ 042300Z AUTO 34004KT 6SM 29/21 A2926 RMK T02900210 IEM_DS3505
ZGSZ,2001-07-05 00:00,ZGSZ 050000Z AUTO 04006KT 9SM 31/23 A2926 RMK SLP920 T03070234 52007 IEM_DS3505
ZGSZ,2001-07-05 01:00,ZGSZ 050100Z AUTO 32008KT 6SM 31/21 A2926 RMK T03100210 IEM_DS3505
ZGSZ,2001-07-05 02:00,ZGSZ 050200Z AUTO 01014KT 6SM 32/21 A2926 RMK T03200210 IEM_DS3505
ZGSZ,2001-07-05 03:00,ZGSZ 050300Z AUTO 04008KT 11SM 34/23 A2926 RMK SLP914 T03360227 57006 IEM_DS3505
ZGSZ,2001-07-05 04:00,ZGSZ 050400Z AUTO 02008KT 6SM 35/21 A2926 RMK T03500210 IEM_DS3505
ZGSZ,2001-07-05 05:00,ZGSZ 050500Z AUTO 01012KT 6SM 34/21 A2926 RMK T03400210 IEM_DS3505
ZGSZ,2001-07-05 06:00,ZGSZ 050600Z AUTO 36008KT 12SM 34/25 A2923 RMK 60003 SLP906 T03360247 57008 IEM_DS3505
ZGSZ,2001-07-05 07:00,ZGSZ 050700Z AUTO 36008KT 34/21 A2923 RMK T03400210 IEM_DS3505
ZGSZ,2001-07-05 08:00,ZGSZ 050800Z AUTO 34006KT 7SM 33/24 A2921 RMK SLP894 T03340241 57022 IEM_DS3505
ZGSZ,2001-07-05 09:00,ZGSZ 050900Z AUTO 04008KT 8SM 30/25 A2921 RMK SLP899 T02950250 57008 IEM_DS3505
ZGSZ,2001-07-05 10:00,ZGSZ 051000Z AUTO 04008KT 10SM 29/24 A2918 RMK SLP894 T02900243 57008 IEM_DS3505
ZGSZ,2001-07-05 11:00,ZGSZ 051100Z AUTO 04004KT 6SM 31/23 A2921 RMK T03100230 IEM_DS3505
ZGSZ,2001-07-05 12:00,ZGSZ 051200Z AUTO 32006KT 7SM 26/24 A2923 RMK 60055 SLP898 T02640244 57001 IEM_DS3505
ZGSZ,2001-07-05 13:00,ZGSZ 051300Z AUTO 09002KT 10SM 27/24 A2923 RMK SLP897 T02690243 52003 IEM_DS3505
ZGSZ,2001-07-05 14:00,ZGSZ 051400Z AUTO 36006KT 6SM 27/23 A2921 RMK T02700230 IEM_DS3505
ZGSZ,2001-07-05 15:00,ZGSZ 051500Z AUTO 36008KT 6SM 27/23 A2921 RMK T02700230 IEM_DS3505
ZGSZ,2001-07-05 16:00,ZGSZ 051600Z AUTO 34006KT 8SM 28/24 A2918 RMK SLP871 T02790235 57025 IEM_DS3505
ZGSZ,2001-07-05 17:00,ZGSZ 051700Z AUTO 34014KT 6SM 28/23 RMK SLP862 T02770231 57034 IEM_DS3505
ZGSZ,2001-07-05 18:00,ZGSZ 051800Z AUTO 32010KT 7SM 27/23 RMK 60002 SLP849 T02700233 57034 IEM_DS3505
ZGSZ,2001-07-05 20:00,ZGSZ 052000Z AUTO 32010KT 7SM 26/23 RMK SLP829 T02620230 57033 IEM_DS3505
ZGSZ,2001-07-05 21:00,ZGSZ 052100Z AUTO 32021KT 6SM 27/21 A2900 RMK T02700210 IEM_DS3505
ZGSZ,2001-07-05 22:00,ZGSZ 052200Z AUTO 32010KT 14SM 27/22 RMK SLP809 T02740222 57035 IEM_DS3505
ZGSZ,2001-07-05 23:00,ZGSZ 052300Z AUTO 31025KT 6SM RMK IEM_DS3505
ZGSZ,2001-07-06 00:00,ZGSZ 060000Z AUTO 27008KT 3SM 26/23 A2897 RMK 60008 SLP811 T02600233 57004 IEM_DS3505
ZGSZ,2001-07-06 01:00,ZGSZ 060100Z AUTO 25006KT 2SM 25/24 A2894 RMK SLP812 T02540240 52002 IEM_DS3505
ZGSZ,2001-07-06 02:00,ZGSZ 060200Z AUTO 27029G39KT 6SM RMK IEM_DS3505
ZGSZ,2001-07-06 03:00,ZGSZ 060300Z AUTO 20010KT 1 1/2SM 26/24 A2894 RMK SLP822 T02580245 52011 IEM_DS3505
ZGSZ,2001-07-06 04:00,ZGSZ 060400Z AUTO 22012KT 2SM 26/24 A2897 RMK SLP836 T02560245 52024 IEM_DS3505
ZGSZ,2001-07-06 05:00,ZGSZ 060500Z AUTO 18006KT 2 1/2SM 26/25 RMK SLP846 T02600246 52029 IEM_DS3505
ZGSZ,2001-07-06 06:00,ZGSZ 060600Z AUTO 20006KT 2SM 26/24 A2903 RMK 60236 SLP854 T02620245 52032 IEM_DS3505
ZGSZ,2001-07-06 07:00,ZGSZ 060700Z AUTO 18021KT 6SM 26/24 A2906 RMK T02600240 IEM_DS3505
ZGSZ,2001-07-06 08:00,ZGSZ 060800Z AUTO 17017KT 6SM 26/24 A2909 RMK T02600240 IEM_DS3505
ZGSZ,2001-07-06 09:00,ZGSZ 060900Z AUTO 16004KT 2SM 26/25 A2909 RMK SLP871 T02620249 52017 IEM_DS3505
ZGSZ,2001-07-06 10:00,ZGSZ 061000Z AUTO 16019KT 6SM 26/24 A2912 RMK T02600240 IEM_DS3505
ZGSZ,2001-07-06 11:00,ZGSZ 061100Z AUTO 17025G35KT 26/24 A2912 RMK T02600240 IEM_DS3505
ZGSZ,2001-07-06 12:00,ZGSZ 061200Z AUTO 22008KT 2SM 28/25 A2918 RMK 60130 SLP905 T02780253 52034 IEM_DS3505
ZGSZ,2001-07-06 13:00,ZGSZ 061300Z AUTO 17019KT 16SM RMK IEM_DS3505
ZGSZ,2001-07-06 14:00,ZGSZ 061400Z AUTO 17023KT 6SM RMK IEM_DS3505
ZGSZ,2001-07-06 15:00,ZGSZ 061500Z AUTO 16029G39KT 6SM 26/24 A2929 RMK T02600240 IEM_DS3505
ZGSZ,2001-07-06 16:00,ZGSZ 061600Z AUTO 16027KT 2 1/2SM 27/24 A2932 RMK T02700240 IEM_DS3505
ZGSZ,2001-07-06 18:00,ZGSZ 061800Z AUTO 18008KT 4SM 28/25 A2935 RMK 60079 SLP955 T02810251 52006 IEM_DS3505
ZGSZ,2001-07-06 19:00,ZGSZ 061900Z AUTO 16025KT 12SM 27/24 A2935 RMK T02700240 IEM_DS3505
ZGSZ,2001-07-06 20:00,ZGSZ 062000Z AUTO 16027KT 6SM 28/24 A2938 RMK T02800240 IEM_DS3505
ZGSZ,2001-07-06 21:00,ZGSZ 062100Z AUTO 25006KT 7SM 28/24 A2941 RMK 70449 SLP977 T02790240 52022 IEM_DS3505
ZGSZ,2001-07-06 22:00,ZGSZ 062200Z AUTO 16025KT 6SM 28/23 A2941 RMK T02800230 IEM_DS3505
ZGSZ,2001-07-06 23:00,ZGSZ 062300Z AUTO 16025KT 6SM 28/23 A2944 RMK T02800230 IEM_DS3505
ZGSZ,2001-07-07 00:00,ZGSZ 070000Z AUTO 18008KT 7SM 29/24 A2947 RMK 60008 SLP000 T02920239 52023 IEM_DS3505
ZGSZ,2001-07-07 01:00,ZGSZ 070100Z AUTO 15023KT 6SM 29/23 A2953 RMK T02900230 IEM_DS3505
ZGSZ,2001-07-07 02:00,ZGSZ 070200Z AUTO 14019KT 29/23 A2953 RMK T02900230 IEM_DS3505
ZGSZ,2001-07-07 03:00,ZGSZ 070300Z AUTO 22004KT 8SM 29/25 A2956 RMK SLP030 T02940250 52030 IEM_DS3505
ZGSZ,2001-07-07 04:00,ZGSZ 070400Z AUTO 14017KT 6SM 30/24 A2959 RMK T03000240 IEM_DS3505
ZGSZ,2001-07-07 05:00,ZGSZ 070500Z AUTO 14016KT RMK IEM_DS3505
ZGSZ,2001-07-07 06:00,ZGSZ 070600Z AUTO 18006KT 6SM 30/26 RMK 60004 SLP037 T02950260 52007 IEM_DS3505
ZGSZ,2001-07-07 07:00,ZGSZ 070700Z AUTO 15017KT 2 1/2SM RMK IEM_DS3505
ZGSZ,2001-07-07 08:00,ZGSZ 070800Z AUTO 15016KT 6SM RMK IEM_DS3505
ZGSZ,2001-07-07 09:00,ZGSZ 070900Z AUTO 14008KT 7SM 30/25 RMK SLP035 T02980253 57002 IEM_DS3505
ZGSZ,2001-07-07 10:00,ZGSZ 071000Z AUTO 14014KT 47SM RMK IEM_DS3505
ZGSZ,2001-07-07 11:00,ZGSZ 071100Z AUTO 13014KT 6SM RMK IEM_DS3505
ZGSZ,2001-07-07 12:00,ZGSZ 071200Z AUTO 11006KT 8SM 28/25 RMK 60000 SLP052 T02820252 52017 IEM_DS3505
ZGSZ,2001-07-07 13:00,ZGSZ 071300Z AUTO 13006KT 19SM 28/24 A2968 RMK T02800240 IEM_DS3505
ZGSZ,2001-07-07 14:00,ZGSZ 071400Z AUTO 11008KT 14SM 28/23 A2971 RMK T02800230 IEM_DS3505
ZGSZ,2001-07-07 15:00,ZGSZ 071500Z AUTO 11008KT 6SM 28/24 A2974 RMK T02800240 IEM_DS3505
ZGSZ,2001-07-07 18:00,ZGSZ 071800Z AUTO 14004KT 6SM 27/26 RMK 60028 SLP070 T02700255 57005 IEM_DS3505
ZGSZ,2001-07-07 19:00,ZGSZ 071900Z AUTO 15014KT 6SM 26/23 A2974 RMK T02600230 IEM_DS3505
ZGSZ,2001-07-07 20:00,ZGSZ 072000Z AUTO 13008KT 6SM 27/24 A2974 RMK T02700240 IEM_DS3505
ZGSZ,2001-07-07 21:00,ZGSZ 072100Z AUTO 09004KT 8SM 27/25 A2974 RMK 70043 SLP072 T02730250 52002 IEM_DS3505
ZGSZ,2001-07-07 22:00,ZGSZ 072200Z AUTO 08004KT 6SM 27/23 A2974 RMK T02700230 IEM_DS3505
ZGSZ,2001-07-07 23:00,ZGSZ 072300Z AUTO 09004KT 6SM 28/24 A2977 RMK T02800240 IEM_DS3505
ZGSZ,2001-07-08 00:00,ZGSZ 080000Z AUTO 04002KT 6SM 28/25 A2977 RMK 60004 SLP091 T02780254 52019 IEM_DS3505
ZGSZ,2001-07-08 01:00,ZGSZ 080100Z AUTO 12006KT RMK IEM_DS3505
ZGSZ,2001-07-08 02:00,ZGSZ 080200Z AUTO 11006KT 6SM 30/23 A2980 RMK T03000230 IEM_DS3505
ZGSZ,2001-07-08 03:00,ZGSZ 080300Z AUTO 11004KT 7SM 28/26 RMK SLP096 T02840263 52005 IEM_DS3505
ZGSZ,2001-07-08 04:00,ZGSZ 080400Z AUTO 11008KT RMK IEM_DS3505
ZGSZ,2001-07-08 05:00,ZGSZ 080500Z AUTO 20008KT 6SM RMK IEM_DS3505
ZGSZ,2001-07-08 06:00,ZGSZ 080600Z AUTO 09008KT 17SM 31/26 A2977 RMK 60024 SLP087 T03080255 57009 IEM_DS3505
ZGSZ,2001-07-08 07:00,ZGSZ 080700Z AUTO 36008KT 6SM 30/25 A2977 RMK T03000250 IEM_DS3505
ZGSZ,2001-07-08 08:00,ZGSZ 080800Z AUTO 19008KT 6SM 30/25 A2974 RMK T03000250 IEM_DS3505
ZGSZ,2001-07-08 09:00,ZGSZ 080900Z AUTO 14004KT 19SM 31/25 RMK SLP074 T03060254 57012 IEM_DS3505
ZGSZ,2001-07-08 10:00,ZGSZ 081000Z AUTO 14012KT 6SM 30/22 A2974 RMK T03000220 IEM_DS3505
ZGSZ,2001-07-08 11:00,ZGSZ 081100Z AUTO 12010KT 6SM 29/22 A2974 RMK T02900220 IEM_DS3505
ZGSZ,2001-07-08 12:00,ZGSZ 081200Z AUTO 14006KT 12SM 28/25 A2977 RMK SLP086 T02830251 52011 IEM_DS3505
ZGSZ,2001-07-08 13:00,ZGSZ 081300Z AUTO 11008KT 6SM 28/23 A2977 RMK T02800230 IEM_DS3505
ZGSZ,2001-07-08 14:00,ZGSZ 081400Z AUTO 12006KT 6SM 28/23 A2980 RMK T02800230 IEM_DS3505
ZGSZ,2001-07-08 15:00,ZGSZ 081500Z AUTO 12004KT 3SM RMK IEM_DS3505
ZGSZ,2001-07-08 16:00,ZGSZ 081600Z AUTO 14004KT 6SM 27/23 A2980 RMK T02700230 IEM_DS3505
ZGSZ,2001-07-08 18:00,ZGSZ 081800Z AUTO 09006KT 12SM 27/25 RMK SLP082 T02730249 57020 IEM_DS3505
ZGSZ,2001-07-08 21:00,ZGSZ 082100Z AUTO 14002KT 11SM 27/25 RMK 70022 SLP087 T02720248 52004 IEM_DS3505
ZGSZ,2001-07-08 22:00,ZGSZ 082200Z AUTO 10002KT 6SM 27/23 A2980 RMK T02700230 IEM_DS3505
ZGSZ,2001-07-08 23:00,ZGSZ 082300Z AUTO 10002KT 6SM 28/23 A2980 RMK T02800230 IEM_DS3505
ZGSZ,2001-07-09 00:00,ZGSZ 090000Z AUTO 00000KT 6SM 28/25 A2980 RMK 70022 SLP098 T02780250 52011 IEM_DS3505
ZGSZ,2001-07-09 01:00,ZGSZ 090100Z AUTO 17002KT 6SM 29/23 A2983 RMK T02900230 IEM_DS3505
ZGSZ,2001-07-09 02:00,ZGSZ 090200Z AUTO 22004KT 11SM 30/24 A2983 RMK T03000240 IEM_DS3505
ZGSZ,2001-07-09 03:00,ZGSZ 090300Z AUTO 20002KT 11SM 31/24 A2983 RMK SLP105 T03100243 52007 IEM_DS3505
ZGSZ,2001-07-09 04:00,ZGSZ 090400Z AUTO 21006KT 30/24 A2983 RMK T03000240 IEM_DS3505
ZGSZ,2001-07-09 05:00,ZGSZ 090500Z AUTO 21008KT 6SM 30/24 A2980 RMK T03000240 IEM_DS3505
ZGSZ,2001-07-09 06:00,ZGSZ 090600Z AUTO 18002KT 12SM 32/25 A2977 RMK SLP084 T03240253 57020 IEM_DS3505
ZGSZ,2001-07-09 07:00,ZGSZ 090700Z AUTO 21008KT 6SM 30/24 A2977 RMK T03000240 IEM_DS3505
ZGSZ,2001-07-09 08:00,ZGSZ 090800Z AUTO 21008KT 6SM 30/25 A2974 RMK T03000250 IEM_DS3505
ZGSZ,2001-07-09 09:00,ZGSZ 090900Z AUTO 25008KT 12SM 33/26 A2974 RMK SLP069 T03320256 57015 IEM_DS3505
ZGSZ,2001-07-09 10:00,ZGSZ 091000Z AUTO 18008KT 6SM 29/25 A2974 RMK T02900250 IEM_DS3505
ZGSZ,2001-07-09 11:00,ZGSZ 091100Z AUTO 18010KT 6SM 29/25 A2974 RMK T02900250 IEM_DS3505
ZGSZ,2001-07-09 12:00,ZGSZ 091200Z AUTO 22004KT 11SM 30/25 A2974 RMK SLP076 T02990254 52007 IEM_DS3505
ZGSZ,2001-07-09 13:00,ZGSZ 091300Z AUTO 19010KT 6SM 28/25 A2974 RMK T02800250 IEM_DS3505
ZGSZ,2001-07-09 14:00,ZGSZ 091400Z AUTO 18010KT 6SM 28/25 A2977 RMK T02800250 IEM_DS3505
ZGSZ,2001-07-09 15:00,ZGSZ 091500Z AUTO 18010KT 6SM 28/24 A2977 RMK T02800240 IEM_DS3505
ZGSZ,2001-07-09 16:00,ZGSZ 091600Z AUTO 18010KT 6SM 28/24 A2977 RMK T02800240 IEM_DS3505
ZGSZ,2001-07-09 17:00,ZGSZ 091700Z AUTO 19010KT RMK IEM_DS3505
ZGSZ,2001-07-09 18:00,ZGSZ 091800Z AUTO 27006KT 9SM 28/25 RMK SLP073 T02790251 57013 IEM_DS3505
ZGSZ,2001-07-09 19:00,ZGSZ 091900Z AUTO 21004KT 6SM RMK IEM_DS3505
ZGSZ,2001-07-09 20:00,ZGSZ 092000Z AUTO 21002KT 6SM RMK IEM_DS3505
ZGSZ,2001-07-09 21:00,ZGSZ 092100Z AUTO 20004KT 6SM 28/25 RMK SLP069 T02760249 57004 IEM_DS3505
ZGSZ,2001-07-09 23:00,ZGSZ 092300Z AUTO 6SM 28/24 A2974 RMK T02800240 IEM_DS3505
ZGSZ,2001-07-10 00:00,ZGSZ 100000Z AUTO 27006KT 6SM 28/25 A2977 RMK SLP077 T02820247 52008 IEM_DS3505
ZGSZ,2001-07-10 01:00,ZGSZ 100100Z AUTO 23004KT 6SM 28/23 A2977 RMK T02800230 IEM_DS3505
ZGSZ,2001-07-10 02:00,ZGSZ 100200Z AUTO 22004KT 6SM RMK IEM_DS3505
ZGSZ,2001-07-10 03:00,ZGSZ 100300Z AUTO 22006KT 6SM 31/24 A2974 RMK SLP074 T03060245 57003 IEM_DS3505
ZGSZ,2001-07-10 04:00,ZGSZ 100400Z AUTO 19006KT 6SM 30/23 A2974 RMK T03000230 IEM_DS3505
ZGSZ,2001-07-10 06:00,ZGSZ 100600Z AUTO 22004KT 9SM 33/22 A2971 RMK SLP059 T03260220 57015 IEM_DS3505
ZGSZ,2001-07-10 07:00,ZGSZ 100700Z AUTO 18008KT 6SM 31/24 A2971 RMK T03100240 IEM_DS3505
ZGSZ,2001-07-10 08:00,ZGSZ 100800Z AUTO 18010KT 6SM 31/25 A2968 RMK T03100250 IEM_DS3505
ZGSZ,2001-07-10 09:00,ZGSZ 100900Z AUTO 27008KT 8SM 32/24 A2968 RMK SLP047 T03250243 57012 IEM_DS3505
ZGSZ,2001-07-10 10:00,ZGSZ 101000Z AUTO 17012KT 6SM 30/25 A2968 RMK T03000250 IEM_DS3505
ZGSZ,2001-07-10 11:00,ZGSZ 101100Z AUTO 17012KT 6SM 29/25 A2965 RMK T02900250 IEM_DS3505
ZGSZ,2001-07-10 12:00,ZGSZ 101200Z AUTO 22004KT 12SM 31/25 A2968 RMK SLP050 T03060247 52003 IEM_DS3505
ZGSZ,2001-07-10 13:00,ZGSZ 101300Z AUTO 17010KT 6SM 28/25 A2968 RMK T02800250 IEM_DS3505
ZGSZ,2001-07-10 14:00,ZGSZ 101400Z AUTO 16008KT 6SM 28/25 A2971 RMK T02800250 IEM_DS3505
ZGSZ,2001-07-10 15:00,ZGSZ 101500Z AUTO 16008KT 6SM 28/25 A2971 RMK T02800250 IEM_DS3505
ZGSZ,2001-07-10 16:00,ZGSZ 101600Z AUTO 17008KT 6SM 28/25 A2971 RMK T02800250 IEM_DS3505
ZGSZ,2001-07-10 18:00,ZGSZ 101800Z AUTO 22004KT 16SM 29/25 RMK SLP054 T02880247 57013 IEM_DS3505
ZGSZ,2001-07-10 19:00,ZGSZ 101900Z AUTO 21008KT 6SM 27/24 A2968 RMK T02700240 IEM_DS3505
ZGSZ,2001-07-10 20:00,ZGSZ 102000Z AUTO 20004KT 6SM 27/24 A2968 RMK T02700240 IEM_DS3505
ZGSZ,2001-07-10 21:00,ZGSZ 102100Z AUTO 22004KT 12SM 28/25 A2965 RMK SLP048 T02820247 57006 IEM_DS3505
ZGSZ,2001-07-10 22:00,ZGSZ 102200Z AUTO 27002KT 6SM 27/24 A2968 RMK T02700240 IEM_DS3505
ZGSZ,2001-07-10 23:00,ZGSZ 102300Z AUTO 25002KT 6SM 27/24 A2968 RMK T02700240 IEM_DS3505
ZGSZ,2001-07-11 00:00,ZGSZ 110000Z AUTO 27008KT 16SM 28/25 A2968 RMK SLP057 T02840252 52009 IEM_DS3505
ZGSZ,2001-07-11 01:00,ZGSZ 110100Z AUTO 18004KT 6SM 29/23 A2968 RMK T02900230 IEM_DS3505
ZGSZ,2001-07-11 02:00,ZGSZ 110200Z AUTO 17004KT 6SM 29/24 A2968 RMK T02900240 IEM_DS3505
ZGSZ,2001-07-11 03:00,ZGSZ 110300Z AUTO 22004KT 6SM 30/25 A2968 RMK SLP055 T03000249 57002 IEM_DS3505
ZGSZ,2001-07-11 04:00,ZGSZ 110400Z AUTO 18004KT 6SM 30/24 A2965 RMK T03000240 IEM_DS3505
ZGSZ,2001-07-11 05:00,ZGSZ 110500Z AUTO 17006KT 6SM 30/25 A2965 RMK T03000250 IEM_DS3505
ZGSZ,2001-07-11 06:00,ZGSZ 110600Z AUTO 22006KT 6SM 32/26 A2962 RMK SLP037 T03230258 57018 IEM_DS3505
ZGSZ,2001-07-11 07:00,ZGSZ 110700Z AUTO 17010KT 6SM 31/26 A2959 RMK T03100260 IEM_DS3505
ZGSZ,2001-07-11 08:00,ZGSZ 110800Z AUTO 17012KT 6SM 31/26 A2959 RMK T03100260 IEM_DS3505
ZGSZ,2001-07-11 09:00,ZGSZ 110900Z AUTO 27006KT 6SM 33/26 A2959 RMK SLP022 T03280257 57015 IEM_DS3505
ZGSZ,2001-07-11 10:00,ZGSZ 111000Z AUTO 17012KT 6SM 30/26 A2956 RMK T03000260 IEM_DS3505
ZGSZ,2001-07-11 11:00,ZGSZ 111100Z AUTO 17012KT 6SM 29/26 A2959 RMK T02900260 IEM_DS3505
ZGSZ,2001-07-11 12:00,ZGSZ 111200Z AUTO 22006KT 10SM 30/26 A2959 RMK SLP027 T03010259 52005 IEM_DS3505
ZGSZ,2001-07-11 13:00,ZGSZ 111300Z AUTO 16008KT 6SM 29/26 A2959 RMK T02900260 IEM_DS3505
ZGSZ,2001-07-11 14:00,ZGSZ 111400Z AUTO 15008KT 6SM 29/25 A2962 RMK T02900250 IEM_DS3505
ZGSZ,2001-07-11 15:00,ZGSZ 111500Z AUTO 16008KT 6SM 28/25 A2962 RMK T02800250 IEM_DS3505
ZGSZ,2001-07-11 16:00,ZGSZ 111600Z AUTO 16008KT 6SM 28/25 A2959 RMK T02800250 IEM_DS3505
ZGSZ,2001-07-11 18:00,ZGSZ 111800Z AUTO 25006KT 9SM 29/26 RMK SLP020 T02900258 57018 IEM_DS3505
ZGSZ,2001-07-11 19:00,ZGSZ 111900Z AUTO 17004KT 6SM 28/25 A2959 RMK T02800250 IEM_DS3505
ZGSZ,2001-07-11 20:00,ZGSZ 112000Z AUTO 17004KT 6SM 28/25 A2959 RMK T02800250 IEM_DS3505
ZGSZ,2001-07-11 21:00,ZGSZ 112100Z AUTO 20004KT 6SM 29/26 A2959 RMK SLP020 T02860260 54000 IEM_DS3505
ZGSZ,2001-07-11 22:00,ZGSZ 112200Z AUTO 17006KT 6SM 28/25 A2959 RMK T02800250 IEM_DS3505
ZGSZ,2001-07-11 23:00,ZGSZ 112300Z AUTO 19006KT 6SM RMK IEM_DS3505
ZGSZ,2001-07-12 00:00,ZGSZ 120000Z AUTO 22004KT 6SM 29/26 A2959 RMK SLP028 T02930263 52008 IEM_DS3505
ZGSZ,2001-07-12 01:00,ZGSZ 120100Z AUTO 18006KT 29/25 A2962 RMK T02900250 IEM_DS3505
ZGSZ,2001-07-12 02:00,ZGSZ 120200Z AUTO 18006KT 6SM 29/25 A2962 RMK T02900250 IEM_DS3505
ZGSZ,2001-07-12 03:00,ZGSZ 120300Z AUTO 22008KT 7SM 31/26 A2962 RMK SLP031 T03100256 52003 IEM_DS3505
ZGSZ,2001-07-12 04:00,ZGSZ 120400Z AUTO 16008KT 6SM 31/24 A2959 RMK T03100240 IEM_DS3505
ZGSZ,2001-07-12 05:00,ZGSZ 120500Z AUTO 17010KT 6SM 32/26 A2959 RMK T03200260 IEM_DS3505
ZGSZ,2001-07-12 06:00,ZGSZ 120600Z AUTO 22006KT 9SM 31/26 A2956 RMK SLP014 T03140257 57017 IEM_DS3505
ZGSZ,2001-07-12 07:00,ZGSZ 120700Z AUTO 17012KT 30/26 A2953 RMK T03000260 IEM_DS3505
ZGSZ,2001-07-12 08:00,ZGSZ 120800Z AUTO 17012KT 30/26 A2950 RMK T03000260 IEM_DS3505
ZGSZ,2001-07-12 09:00,ZGSZ 120900Z AUTO 22006KT 11SM 31/26 A2950 RMK SLP005 T03120258 57009 IEM_DS3505
ZGSZ,2001-07-12 10:00,ZGSZ 121000Z AUTO 16014KT 6SM 29/25 A2953 RMK T02900250 IEM_DS3505
ZGSZ,2001-07-12 11:00,ZGSZ 121100Z AUTO 16012KT 6SM 29/26 A2953 RMK T02900260 IEM_DS3505
ZGSZ,2001-07-12 12:00,ZGSZ 121200Z AUTO 22006KT 11SM 30/26 A2953 RMK SLP015 T02980256 52010 IEM_DS3505
ZGSZ,2001-07-12 13:00,ZGSZ 121300Z AUTO 16010KT 6SM 29/25 A2956 RMK T02900250 IEM_DS3505
ZGSZ,2001-07-12 15:00,ZGSZ 121500Z AUTO 15010KT 28SM RMK IEM_DS3505
ZGSZ,2001-07-12 16:00,ZGSZ 121600Z AUTO 16010KT RMK IEM_DS3505
ZGSZ,2001-07-12 17:00,ZGSZ 121700Z AUTO 14004KT 6SM 25/22 A2959 RMK T02500220 IEM_DS3505
ZGSZ,2001-07-12 18:00,ZGSZ 121800Z AUTO 09002KT 6SM 25/23 A2959 RMK 60004 SLP029 T02520226 52004 IEM_DS3505
ZGSZ,2001-07-12 19:00,ZGSZ 121900Z AUTO 13006KT 6SM 24/21 A2959 RMK T02400210 IEM_DS3505
ZGSZ,2001-07-12 20:00,ZGSZ 122000Z AUTO 14006KT 6SM 25/21 A2956 RMK T02500210 IEM_DS3505
ZGSZ,2001-07-12 21:00,ZGSZ 122100Z AUTO 27002KT 7SM 26/24 RMK 70008 SLP013 T02580235 57016 IEM_DS3505
ZGSZ,2001-07-12 22:00,ZGSZ 122200Z AUTO 17017KT 6SM RMK IEM_DS3505
ZGSZ,2001-07-12 23:00,ZGSZ 122300Z AUTO 15008KT 15SM RMK IEM_DS3505
ZGSZ,2001-07-13 00:00,ZGSZ 130000Z AUTO 22004KT 10SM 26/23 RMK 60003 SLP041 T02650233 52028 IEM_DS3505
ZGSZ,2001-07-13 01:00,ZGSZ 130100Z AUTO 22004KT 15SM 27/23 A2962 RMK T02700230 IEM_DS3505
ZGSZ,2001-07-13 02:00,ZGSZ 130200Z AUTO 27006KT 6SM RMK IEM_DS3505
ZGSZ,2001-07-13 03:00,ZGSZ 130300Z AUTO 22010KT 11SM 27/23 A2965 RMK SLP043 T02730231 52002 IEM_DS3505
ZGSZ,2001-07-13 04:00,ZGSZ 130400Z AUTO 27004KT 6SM 27/22 A2962 RMK T02700220 IEM_DS3505
ZGSZ,2001-07-13 05:00,ZGSZ 130500Z AUTO 14002KT 6SM 28/23 A2962 RMK T02800230 IEM_DS3505
ZGSZ,2001-07-13 06:00,ZGSZ 130600Z AUTO 22002KT 11SM 28/23 RMK SLP028 T02830233 57016 IEM_DS3505
ZGSZ,2001-07-13 08:00,ZGSZ 130800Z AUTO 17004KT 6SM 27/23 A2962 RMK T02700230 IEM_DS3505
ZGSZ,2001-07-13 09:00,ZGSZ 130900Z AUTO 00000KT 7SM 29/23 RMK SLP036 T02890233 52008 IEM_DS3505
ZGSZ,2001-07-13 10:00,ZGSZ 131000Z AUTO 16006KT 6SM 27/23 A2962 RMK T02700230 IEM_DS3505
ZGSZ,2001-07-13 11:00,ZGSZ 131100Z AUTO 14004KT RMK IEM_DS3505
ZGSZ,2001-07-13 12:00,ZGSZ 131200Z AUTO 09004KT 7SM 28/24 A2962 RMK 60003 SLP040 T02810244 52004 IEM_DS3505
ZGSZ,2001-07-13 13:00,ZGSZ 131300Z AUTO 12006KT 6SM RMK IEM_DS3505
ZGSZ,2001-07-13 14:00,ZGSZ 131400Z AUTO 16008KT RMK IEM_DS3505
ZGSZ,2001-07-13 15:00,ZGSZ 131500Z AUTO 12006KT 6SM 27/22 A2968 RMK T02700220 IEM_DS3505
ZGSZ,2001-07-13 16:00,ZGSZ 131600Z AUTO 12006KT 28SM 27/22 A2968 RMK T02700220 IEM_DS3505
ZGSZ,2001-07-13 17:00,ZGSZ 131700Z AUTO 14008KT 17SM 27/23 A2965 RMK T02700230 IEM_DS3505
ZGSZ,2001-07-13 18:00,ZGSZ 131800Z AUTO 14004KT 12SM 28/24 RMK 60003 SLP045 T02760242 57010 IEM_DS3505
ZGSZ,2001-07-13 19:00,ZGSZ 131900Z AUTO 13006KT 6SM RMK IEM_DS3505
ZGSZ,2001-07-13 20:00,ZGSZ 132000Z AUTO 16010KT 6SM RMK IEM_DS3505
ZGSZ,2001-07-13 21:00,ZGSZ 132100Z AUTO 04002KT 12SM 28/25 A2965 RMK 70003 SLP048 T02760246 52003 IEM_DS3505
ZGSZ,2001-07-13 22:00,ZGSZ 132200Z AUTO 16008KT 13SM 28/24 A2968 RMK T02800240 IEM_DS3505
ZGSZ,2001-07-13 23:00,ZGSZ 132300Z AUTO 16008KT 28/24 A2968 RMK T02800240 IEM_DS3505
ZGSZ,2001-07-14 00:00,ZGSZ 140000Z AUTO 00000KT 10SM 28/26 RMK 70003 SLP059 T02840255 52010 IEM_DS3505
ZGSZ,2001-07-14 01:00,ZGSZ 140100Z AUTO 16010KT 29/25 A2968 RMK T02900250 IEM_DS3505
ZGSZ,2001-07-14 02:00,ZGSZ 140200Z AUTO 17008KT 30/25 A2971 RMK T03000250 IEM_DS3505
ZGSZ,2001-07-14 03:00,ZGSZ 140300Z AUTO 22004KT 9SM 32/25 A2971 RMK SLP062 T03230247 52004 IEM_DS3505
ZGSZ,2001-07-14 04:00,ZGSZ 140400Z AUTO 17012KT 6SM 30/25 A2971 RMK T03000250 IEM_DS3505
ZGSZ,2001-07-14 05:00,ZGSZ 140500Z AUTO 17014KT 6SM 31/25 A2968 RMK T03100250 IEM_DS3505
ZGSZ,2001-07-14 06:00,ZGSZ 140600Z AUTO 18006KT 11SM 32/24 A2968 RMK SLP057 T03240236 57005 IEM_DS3505
ZGSZ,2001-07-14 07:00,ZGSZ 140700Z AUTO 17014KT 9SM 30/25 A2968 RMK T03000250 IEM_DS3505
ZGSZ,2001-07-14 08:00,ZGSZ 140800Z AUTO 18014KT 6SM 30/25 A2968 RMK T03000250 IEM_DS3505
ZGSZ,2001-07-14 09:00,ZGSZ 140900Z AUTO 20004KT 10SM 31/25 A2968 RMK SLP058 T03100247 52001 IEM_DS3505
ZGSZ,2001-07-14 10:00,ZGSZ 141000Z AUTO 18012KT RMK IEM_DS3505
ZGSZ,2001-07-14 11:00,ZGSZ 141100Z AUTO 17010KT 6SM 29/24 A2971 RMK T02900240 IEM_DS3505
ZGSZ,2001-07-14 12:00,ZGSZ 141200Z AUTO 18002KT 9SM 29/25 RMK 60000 SLP072 T02920251 52014 IEM_DS3505
ZGSZ,2001-07-14 13:00,ZGSZ 141300Z AUTO 17008KT 6SM 28/25 A2974 RMK T02800250 IEM_DS3505
ZGSZ,2001-07-14 14:00,ZGSZ 141400Z AUTO 18008KT 6SM 28/25 A2974 RMK T02800250 IEM_DS3505
ZGSZ,2001-07-14 15:00,ZGSZ 141500Z AUTO 18008KT 9SM 28/25 A2977 RMK T02800250 IEM_DS3505
ZGSZ,2001-07-14 16:00,ZGSZ 141600Z AUTO 15006KT RMK IEM_DS3505
ZGSZ,2001-07-14 17:00,ZGSZ 141700Z AUTO 13008KT 34SM 25/23 A2974 RMK T02500230 IEM_DS3505
ZGSZ,2001-07-14 18:00,ZGSZ 141800Z AUTO 18004KT 11SM 28/25 RMK SLP067 T02840247 57019 IEM_DS3505
ZGSZ,2001-07-14 21:00,ZGSZ 142100Z AUTO 11004KT 3SM 27/25 A2971 RMK 70013 SLP066 T02680250 57001 IEM_DS3505
ZGSZ,2001-07-14 22:00,ZGSZ 142200Z AUTO 10004KT 6SM RMK IEM_DS3505
ZGSZ,2001-07-14 23:00,ZGSZ 142300Z AUTO 12004KT 12SM RMK IEM_DS3505
ZGSZ,2001-07-15 00:00,ZGSZ 150000Z AUTO 09004KT 8SM 26/24 A2974 RMK 60020 SLP078 T02650241 52011 IEM_DS3505
ZGSZ,2001-07-15 01:00,ZGSZ 150100Z AUTO 13008KT 6SM 28/23 A2974 RMK T02800230 IEM_DS3505
ZGSZ,2001-07-15 02:00,ZGSZ 150200Z AUTO 12008KT RMK IEM_DS3505
ZGSZ,2001-07-15 03:00,ZGSZ 150300Z AUTO 00000KT 16SM 28/24 RMK SLP079 T02790245 52001 IEM_DS3505
ZGSZ,2001-07-15 04:00,ZGSZ 150400Z AUTO 15010KT 6SM RMK IEM_DS3505
ZGSZ,2001-07-15 05:00,ZGSZ 150500Z AUTO 17006KT RMK IEM_DS3505
ZGSZ,2001-07-15 06:00,ZGSZ 150600Z AUTO 18002KT 16SM 29/25 RMK 60016 SLP064 T02920254 57014 IEM_DS3505
ZGSZ,2001-07-15 07:00,ZGSZ 150700Z AUTO 25010KT 6SM 23/21 A2974 RMK T02300210 IEM_DS3505
ZGSZ,2001-07-15 08:00,ZGSZ 150800Z AUTO 19004KT 6SM 24/22 A2974 RMK T02400220 IEM_DS3505
ZGSZ,2001-07-15 09:00,ZGSZ 150900Z AUTO 18004KT 4SM 25/24 A2974 RMK SLP072 T02540243 52007 IEM_DS3505
ZGSZ,2001-07-15 10:00,ZGSZ 151000Z AUTO 13008KT 25/22 A2974 RMK T02500220 IEM_DS3505
ZGSZ,2001-07-15 11:00,ZGSZ 151100Z AUTO 10006KT 6SM 25/22 A2974 RMK T02500220 IEM_DS3505
ZGSZ,2001-07-15 12:00,ZGSZ 151200Z AUTO 14002KT 13SM 25/24 A2974 RMK 60087 SLP078 T02520238 52006 IEM_DS3505
ZGSZ,2001-07-15 13:00,ZGSZ 151300Z AUTO 13006KT 6SM 25/22 A2974 RMK T02500220 IEM_DS3505
ZGSZ,2001-07-15 14:00,ZGSZ 151400Z AUTO 12006KT 6SM 25/22 A2977 RMK T02500220 IEM_DS3505
ZGSZ,2001-07-15 15:00,ZGSZ 151500Z AUTO 13006KT 6SM 25/22 A2977 RMK T02500220 IEM_DS3505
ZGSZ,2001-07-15 16:00,ZGSZ 151600Z AUTO 12004KT 6SM 25/22 A2974 RMK T02500220 IEM_DS3505
ZGSZ,2001-07-15 17:00,ZGSZ 151700Z AUTO 13004KT 6SM 25/22 A2974 RMK T02500220 IEM_DS3505
ZGSZ,2001-07-15 18:00,ZGSZ 151800Z AUTO 04004KT 12SM 26/24 A2974 RMK 60003 SLP074 T02550238 57015 IEM_DS3505
ZGSZ,2001-07-15 19:00,ZGSZ 151900Z AUTO 07004KT 6SM 25/22 A2971 RMK T02500220 IEM_DS3505
ZGSZ,2001-07-15 20:00,ZGSZ 152000Z AUTO 09002KT 6SM 25/22 A2971 RMK T02500220 IEM_DS3505
ZGSZ,2001-07-15 21:00,ZGSZ 152100Z AUTO 14004KT 16SM 26/24 A2971 RMK 70106 SLP071 T02560237 57003 IEM_DS3505
ZGSZ,2001-07-15 22:00,ZGSZ 152200Z AUTO 12006KT RMK IEM_DS3505
ZGSZ,2001-07-15 23:00,ZGSZ 152300Z AUTO 12004KT 6SM RMK IEM_DS3505
ZGSZ,2001-07-16 00:00,ZGSZ 160000Z AUTO 14002KT 11SM 27/24 RMK 70101 SLP071 T02660243 54000 IEM_DS3505
ZGSZ,2001-07-16 01:00,ZGSZ 160100Z AUTO 16006KT 6SM RMK IEM_DS3505
ZGSZ,2001-07-16 02:00,ZGSZ 160200Z AUTO 18004KT 6SM RMK IEM_DS3505
ZGSZ,2001-07-16 03:00,ZGSZ 160300Z AUTO 20004KT 11SM 29/25 RMK SLP081 T02910246 52010 IEM_DS3505
ZGSZ,2001-07-16 04:00,ZGSZ 160400Z AUTO 16006KT 6SM 29/24 A2974 RMK T02900240 IEM_DS3505
ZGSZ,2001-07-16 05:00,ZGSZ 160500Z AUTO 16006KT 6SM 29/23 A2971 RMK T02900230 IEM_DS3505
ZGSZ,2001-07-16 06:00,ZGSZ 160600Z AUTO 25006KT 17SM 30/25 A2968 RMK 60003 SLP051 T03030248 57030 IEM_DS3505
ZGSZ,2001-07-16 07:00,ZGSZ 160700Z AUTO 17010KT 6SM 27/24 A2965 RMK T02700240 IEM_DS3505
ZGSZ,2001-07-16 08:00,ZGSZ 160800Z AUTO 24017KT 6SM 25/22 A2968 RMK T02500220 IEM_DS3505
ZGSZ,2001-07-16 09:00,ZGSZ 160900Z AUTO 34004KT 9SM 26/24 A2965 RMK SLP048 T02630240 57003 IEM_DS3505
ZGSZ,2001-07-16 10:00,ZGSZ 161000Z AUTO 6SM 25/22 A2968 RMK T02500220 IEM_DS3505
ZGSZ,2001-07-16 11:00,ZGSZ 161100Z AUTO 36004KT 16SM 25/22 A2968 RMK T02500220 IEM_DS3505
ZGSZ,2001-07-16 12:00,ZGSZ 161200Z AUTO 04004KT 2 1/2SM 26/24 A2968 RMK 60024 SLP059 T02610242 52011 IEM_DS3505
ZGSZ,2001-07-16 13:00,ZGSZ 161300Z AUTO 06002KT 6SM RMK IEM_DS3505
ZGSZ,2001-07-16 14:00,ZGSZ 161400Z AUTO 09004KT 37SM RMK IEM_DS3505
ZGSZ,2001-07-16 16:00,ZGSZ 161600Z AUTO 6SM 25/22 A2968 RMK T02500220 IEM_DS3505
ZGSZ,2001-07-16 17:00,ZGSZ 161700Z AUTO 12002KT 6SM 25/22 A2965 RMK T02500220 IEM_DS3505
ZGSZ,2001-07-16 18:00,ZGSZ 161800Z AUTO 04004KT 8SM 26/24 RMK 60000 SLP038 T02620245 57012 IEM_DS3505
ZGSZ,2001-07-16 19:00,ZGSZ 161900Z AUTO 6SM 25/22 A2962 RMK T02500220 IEM_DS3505
ZGSZ,2001-07-16 20:00,ZGSZ 162000Z AUTO 6SM 26/23 A2959 RMK T02600230 IEM_DS3505
ZGSZ,2001-07-16 21:00,ZGSZ 162100Z AUTO 04004KT 7SM 26/25 A2959 RMK 70023 SLP030 T02600246 57009 IEM_DS3505
ZGSZ,2001-07-16 22:00,ZGSZ 162200Z AUTO 13002KT 6SM 26/23 A2962 RMK T02600230 IEM_DS3505
ZGSZ,2001-07-16 23:00,ZGSZ 162300Z AUTO 12004KT 6SM 26/23 A2962 RMK T02600230 IEM_DS3505
ZGSZ,2001-07-17 00:00,ZGSZ 170000Z AUTO 07004KT 6SM 27/25 A2962 RMK 60003 SLP038 T02700249 52008 IEM_DS3505
ZGSZ,2001-07-17 01:00,ZGSZ 170100Z AUTO 11010KT 6SM RMK IEM_DS3505
ZGSZ,2001-07-17 02:00,ZGSZ 170200Z AUTO 06006KT 6SM RMK IEM_DS3505
ZGSZ,2001-07-17 03:00,ZGSZ 170300Z AUTO 18004KT 9SM 27/25 RMK SLP042 T02690249 52004 IEM_DS3505
ZGSZ,2001-07-17 04:00,ZGSZ 170400Z AUTO 19014KT 6SM 26/23 A2962 RMK T02600230 IEM_DS3505
ZGSZ,2001-07-17 05:00,ZGSZ 170500Z AUTO 25008KT 13SM RMK IEM_DS3505
ZGSZ,2001-07-17 06:00,ZGSZ 170600Z AUTO 18004KT 2 1/2SM 25/24 A2962 RMK 60114 SLP032 T02520240 57010 IEM_DS3505
ZGSZ,2001-07-17 07:00,ZGSZ 170700Z AUTO 18008KT 6SM 25/23 A2959 RMK T02500230 IEM_DS3505
ZGSZ,2001-07-17 08:00,ZGSZ 170800Z AUTO 15006KT 12SM 25/23 A2959 RMK T02500230 IEM_DS3505
ZGSZ,2001-07-17 09:00,ZGSZ 170900Z AUTO 11004KT 11SM 24/23 A2956 RMK SLP018 T02440232 57014 IEM_DS3505
ZGSZ,2001-07-17 10:00,ZGSZ 171000Z AUTO 13014KT 25/22 A2956 RMK T02500220 IEM_DS3505
ZGSZ,2001-07-17 11:00,ZGSZ 171100Z AUTO 27008KT 6SM 25/23 A2959 RMK T02500230 IEM_DS3505
ZGSZ,2001-07-17 12:00,ZGSZ 171200Z AUTO 32004KT 7SM 25/24 A2959 RMK 60189 SLP031 T02490236 52013 IEM_DS3505
ZGSZ,2001-07-17 13:00,ZGSZ 171300Z AUTO 15006KT 6SM 25/22 A2959 RMK T02500220 IEM_DS3505
ZGSZ,2001-07-17 14:00,ZGSZ 171400Z AUTO 12008KT 6SM 25/22 A2959 RMK T02500220 IEM_DS3505
ZGSZ,2001-07-17 15:00,ZGSZ 171500Z AUTO 12008KT 6SM 25/22 A2959 RMK T02500220 IEM_DS3505
ZGSZ,2001-07-17 16:00,ZGSZ 171600Z AUTO 12010KT 6SM 25/22 A2959 RMK T02500220 IEM_DS3505
ZGSZ,2001-07-17 17:00,ZGSZ 171700Z AUTO 12008KT RMK IEM_DS3505
ZGSZ,2001-07-17 18:00,ZGSZ 171800Z AUTO 07004KT 12SM 25/24 RMK 60059 SLP010 T02490240 57023 IEM_DS3505
ZGSZ,2001-07-17 19:00,ZGSZ 171900Z AUTO 13008KT 12SM RMK IEM_DS3505
ZGSZ,2001-07-17 20:00,ZGSZ 172000Z AUTO 18012KT 15SM 26/23 A2950 RMK T02600230 IEM_DS3505
ZGSZ,2001-07-17 21:00,ZGSZ 172100Z AUTO 22002KT 4SM 25/24 A2950 RMK 70386 SLP005 T02530244 57005 IEM_DS3505
ZGSZ,2001-07-17 22:00,ZGSZ 172200Z AUTO 18012KT 6SM 25/23 A2953 RMK T02500230 IEM_DS3505
ZGSZ,2001-07-17 23:00,ZGSZ 172300Z AUTO 19012KT 6SM 26/23 A2956 RMK T02600230 IEM_DS3505
ZGSZ,2001-07-18 00:00,ZGSZ 180000Z AUTO 00000KT 4SM 25/24 RMK 60071 SLP022 T02540245 52017 IEM_DS3505
ZGSZ,2001-07-18 01:00,ZGSZ 180100Z AUTO 17006KT 6SM RMK IEM_DS3505
ZGSZ,2001-07-18 02:00,ZGSZ 180200Z AUTO 16006KT RMK IEM_DS3505
ZGSZ,2001-07-18 03:00,ZGSZ 180300Z AUTO 25006KT 7SM 28/26 A2959 RMK SLP026 T02760255 52004 IEM_DS3505
ZGSZ,2001-07-18 04:00,ZGSZ 180400Z AUTO 15010KT 6SM 28/25 A2959 RMK T02800250 IEM_DS3505
ZGSZ,2001-07-18 05:00,ZGSZ 180500Z AUTO 18012KT 26/23 A2959 RMK T02600230 IEM_DS3505
ZGSZ,2001-07-18 06:00,ZGSZ 180600Z AUTO 22010KT 1SM 27/25 RMK 60043 SLP023 T02690249 57003 IEM_DS3505
ZGSZ,2001-07-18 07:00,ZGSZ 180700Z AUTO 17010KT 25/23 A2959 RMK T02500230 IEM_DS3505
ZGSZ,2001-07-18 08:00,ZGSZ 180800Z AUTO 17010KT 6SM RMK IEM_DS3505
ZGSZ,2001-07-18 09:00,ZGSZ 180900Z AUTO 14002KT 12SM 26/25 RMK SLP021 T02580247 57002 IEM_DS3505
ZGSZ,2001-07-18 10:00,ZGSZ 181000Z AUTO 16010KT 6SM RMK IEM_DS3505
ZGSZ,2001-07-18 11:00,ZGSZ 181100Z AUTO 15012KT 6SM RMK IEM_DS3505
ZGSZ,2001-07-18 12:00,ZGSZ 181200Z AUTO 36002KT 9SM 26/24 A2956 RMK 60035 SLP020 T02630244 57001 IEM_DS3505
ZGSZ,2001-07-18 13:00,ZGSZ 181300Z AUTO 12008KT 6SM 26/23 A2959 RMK T02600230 IEM_DS3505
ZGSZ,2001-07-18 14:00,ZGSZ 181400Z AUTO 15010KT 6SM 26/23 A2962 RMK T02600230 IEM_DS3505
ZGSZ,2001-07-18 15:00,ZGSZ 181500Z AUTO 14006KT 6SM 26/23 A2962 RMK T02600230 IEM_DS3505
ZGSZ,2001-07-18 16:00,ZGSZ 181600Z AUTO 12006KT 26/23 A2965 RMK T02600230 IEM_DS3505
ZGSZ,2001-07-18 17:00,ZGSZ 181700Z AUTO 12008KT 6SM 26/23 A2962 RMK T02600230 IEM_DS3505
ZGSZ,2001-07-18 18:00,ZGSZ 181800Z AUTO 12004KT 6SM 26/23 A2962 RMK T02600230 IEM_DS3505
ZGSZ,2001-07-18 20:00,ZGSZ 182000Z AUTO 11004KT 6SM RMK IEM_DS3505
ZGSZ,2001-07-18 21:00,ZGSZ 182100Z AUTO 00000KT 11SM 25/24 RMK 70370 SLP032 T02480242 57005 IEM_DS3505
ZGSZ,2001-07-18 22:00,ZGSZ 182200Z AUTO 12004KT 4SM RMK IEM_DS3505
ZGSZ,2001-07-18 23:00,ZGSZ 182300Z AUTO 14004KT RMK IEM_DS3505
ZGSZ,2001-07-19 00:00,ZGSZ 190000Z AUTO 14002KT 17SM 26/24 RMK 60248 SLP045 T02580244 52013 IEM_DS3505
ZGSZ,2001-07-19 01:00,ZGSZ 190100Z AUTO 17004KT 6SM RMK IEM_DS3505
ZGSZ,2001-07-19 02:00,ZGSZ 190200Z AUTO 16006KT 15SM RMK IEM_DS3505
ZGSZ,2001-07-19 03:00,ZGSZ 190300Z AUTO 09002KT 9SM 28/25 RMK SLP056 T02800249 52011 IEM_DS3505
ZGSZ,2001-07-19 04:00,ZGSZ 190400Z AUTO 17008KT RMK IEM_DS3505
ZGSZ,2001-07-19 05:00,ZGSZ 190500Z AUTO 19006KT RMK IEM_DS3505
ZGSZ,2001-07-19 06:00,ZGSZ 190600Z AUTO 14002KT 14SM 30/25 RMK SLP041 T02980250 57014 IEM_DS3505
ZGSZ,2001-07-19 08:00,ZGSZ 190800Z AUTO 17008KT 6SM RMK IEM_DS3505
ZGSZ,2001-07-19 09:00,ZGSZ 190900Z AUTO 14004KT 17SM 29/25 A2959 RMK SLP031 T02860251 57011 IEM_DS3505
ZGSZ,2001-07-19 10:00,ZGSZ 191000Z AUTO 15008KT 6SM 30/22 A2959 RMK T03000220 IEM_DS3505
ZGSZ,2001-07-19 11:00,ZGSZ 191100Z AUTO 15008KT 6SM 28/23 A2962 RMK T02800230 IEM_DS3505
ZGSZ,2001-07-19 12:00,ZGSZ 191200Z AUTO 09004KT 11SM 27/24 A2965 RMK SLP043 T02740241 52012 IEM_DS3505
ZGSZ,2001-07-19 13:00,ZGSZ 191300Z AUTO 12008KT 6SM 27/23 A2968 RMK T02700230 IEM_DS3505
ZGSZ,2001-07-19 14:00,ZGSZ 191400Z AUTO 11006KT 6SM 27/23 A2971 RMK T02700230 IEM_DS3505
ZGSZ,2001-07-19 15:00,ZGSZ 191500Z AUTO 11004KT 6SM 27/23 A2971 RMK T02700230 IEM_DS3505
ZGSZ,2001-07-19 16:00,ZGSZ 191600Z AUTO 13004KT 6SM 27/22 A2968 RMK T02700220 IEM_DS3505
ZGSZ,2001-07-19 18:00,ZGSZ 191800Z AUTO 07002KT 12SM 27/25 RMK SLP047 T02700252 57012 IEM_DS3505
ZGSZ,2001-07-19 20:00,ZGSZ 192000Z AUTO 6SM 26/23 A2965 RMK T02600230 IEM_DS3505
ZGSZ,2001-07-19 21:00,ZGSZ 192100Z AUTO 09002KT 7SM 27/25 A2965 RMK 70002 SLP044 T02660250 57004 IEM_DS3505
ZGSZ,2001-07-19 22:00,ZGSZ 192200Z AUTO 03004KT 6SM 26/23 A2965 RMK T02600230 IEM_DS3505
ZGSZ,2001-07-19 23:00,ZGSZ 192300Z AUTO 6SM 27/23 A2965 RMK T02700230 IEM_DS3505
ZGSZ,2001-07-20 00:00,ZGSZ 200000Z AUTO 04004KT 6SM 27/25 A2968 RMK SLP051 T02700252 52007 IEM_DS3505
ZGSZ,2001-07-20 01:00,ZGSZ 200100Z AUTO 08006KT 6SM 29/24 A2968 RMK T02900240 IEM_DS3505
ZGSZ,2001-07-20 02:00,ZGSZ 200200Z AUTO 10006KT 6SM 30/23 A2968 RMK T03000230 IEM_DS3505
ZGSZ,2001-07-20 03:00,ZGSZ 200300Z AUTO 18004KT 12SM 29/25 A2968 RMK SLP057 T02880254 52006 IEM_DS3505
ZGSZ,2001-07-20 04:00,ZGSZ 200400Z AUTO 15010KT 6SM 28/24 A2968 RMK T02800240 IEM_DS3505
ZGSZ,2001-07-20 05:00,ZGSZ 200500Z AUTO 16008KT 6SM RMK IEM_DS3505
ZGSZ,2001-07-20 06:00,ZGSZ 200600Z AUTO 09006KT 19SM 31/24 RMK 60000 SLP033 T03110243 57023 IEM_DS3505
ZGSZ,2001-07-20 07:00,ZGSZ 200700Z AUTO 19006KT 6SM 28/24 A2962 RMK T02800240 IEM_DS3505
ZGSZ,2001-07-20 08:00,ZGSZ 200800Z AUTO 19006KT 1 1/2SM 29/24 A2959 RMK T02900240 IEM_DS3505
ZGSZ,2001-07-20 09:00,ZGSZ 200900Z AUTO 14004KT 19SM 31/24 A2959 RMK SLP027 T03080244 57006 IEM_DS3505
ZGSZ,2001-07-20 10:00,ZGSZ 201000Z AUTO 12010KT 6SM 31/21 A2959 RMK T03100210 IEM_DS3505
ZGSZ,2001-07-20 11:00,ZGSZ 201100Z AUTO 12006KT 6SM 29/21 A2959 RMK T02900210 IEM_DS3505
ZGSZ,2001-07-20 12:00,ZGSZ 201200Z AUTO 14004KT 14SM 29/25 A2965 RMK SLP050 T02860249 52022 IEM_DS3505
ZGSZ,2001-07-20 13:00,ZGSZ 201300Z AUTO 11008KT 6SM 29/22 A2968 RMK T02900220 IEM_DS3505
ZGSZ,2001-07-20 14:00,ZGSZ 201400Z AUTO 10004KT 6SM 28/22 A2968 RMK T02800220 IEM_DS3505
ZGSZ,2001-07-20 15:00,ZGSZ 201500Z AUTO 11006KT 6SM 28/23 A2968 RMK T02800230 IEM_DS3505
ZGSZ,2001-07-20 16:00,ZGSZ 201600Z AUTO 12004KT 6SM 27/23 A2968 RMK T02700230 IEM_DS3505
ZGSZ,2001-07-20 17:00,ZGSZ 201700Z AUTO 09004KT 6SM 27/23 A2965 RMK T02700230 IEM_DS3505
ZGSZ,2001-07-20 18:00,ZGSZ 201800Z AUTO 04006KT 12SM 28/25 A2962 RMK 60000 SLP041 T02760248 57012 IEM_DS3505
ZGSZ,2001-07-20 19:00,ZGSZ 201900Z AUTO 08006KT 6SM 27/23 A2962 RMK T02700230 IEM_DS3505
ZGSZ,2001-07-20 20:00,ZGSZ 202000Z AUTO 13006KT 6SM 25/23 A2962 RMK T02500230 IEM_DS3505
ZGSZ,2001-07-20 21:00,ZGSZ 202100Z AUTO 20002KT 4SM 26/25 RMK 70034 SLP042 T02610247 52001 IEM_DS3505
ZGSZ,2001-07-20 22:00,ZGSZ 202200Z AUTO 08004KT 6SM 25/23 A2965 RMK T02500230 IEM_DS3505
ZGSZ,2001-07-20 23:00,ZGSZ 202300Z AUTO 06008KT 6SM RMK IEM_DS3505
ZGSZ,2001-07-21 00:00,ZGSZ 210000Z AUTO 07006KT 5SM 26/25 A2965 RMK 60098 SLP046 T02600246 52003 IEM_DS3505
ZGSZ,2001-07-21 01:00,ZGSZ 210100Z AUTO 03004KT 6SM RMK IEM_DS3505
ZGSZ,2001-07-21 02:00,ZGSZ 210200Z AUTO 04006KT 6SM RMK IEM_DS3505
ZGSZ,2001-07-21 03:00,ZGSZ 210300Z AUTO 00000KT 3SM 26/25 A2968 RMK SLP053 T02630252 52007 IEM_DS3505
ZGSZ,2001-07-21 04:00,ZGSZ 210400Z AUTO 07004KT 6SM RMK IEM_DS3505
ZGSZ,2001-07-21 05:00,ZGSZ 210500Z AUTO 04002KT RMK IEM_DS3505
ZGSZ,2001-07-21 06:00,ZGSZ 210600Z AUTO 00000KT 7SM 27/26 A2968 RMK 60087 SLP055 T02730255 52002 IEM_DS3505
ZGSZ,2001-07-21 07:00,ZGSZ 210700Z 11003MPS 9999 SCT013 FEW033CB BKN050 28/24 Q1004 NOSIG
ZGSZ,2001-07-21 08:00,ZGSZ 210800Z 11003MPS 9999 SCT016 FEW040CB BKN060 28/23 Q1004 NOSIG
ZGSZ,2001-07-21 08:30,ZGSZ 210830Z 09004MPS 9999 FEW018 FEW026TCU BKN100 28/23 Q1004 NOSIG
ZGSZ,2001-07-21 09:00,ZGSZ 210900Z 10004MPS 9999 FEW026TCU FEW060 BKN120 28/23 Q1004 NOSIG
ZGSZ,2001-07-21 09:30,ZGSZ 210930Z 10004MPS 9999 FEW021 FEW026TCU BKN200 28/23 Q1004 NOSIG
ZGSZ,2001-07-21 10:00,ZGSZ 211000Z 10004MPS 9999 BKN020 FEW026TCU 28/23 Q1004 NOSIG
ZGSZ,2001-07-21 11:00,ZGSZ 211100Z 11004MPS 9999 FEW020 SCT043 BKN150 28/23 Q1005 NOSIG
ZGSZ,2001-07-21 12:00,ZGSZ 211200Z 11003MPS 9999 FEW043 BKN250 27/23 Q1005 NOSIG
ZGSZ,2001-07-21 13:00,ZGSZ 211300Z AUTO 10006KT 6SM 27/23 A2971 RMK T02700230 IEM_DS3505
ZGSZ,2001-07-21 14:00,ZGSZ 211400Z AUTO 11006KT 6SM 27/23 A2971 RMK T02700230 IEM_DS3505
ZGSZ,2001-07-21 15:00,ZGSZ 211500Z AUTO 07004KT 6SM 27/23 A2974 RMK T02700230 IEM_DS3505
ZGSZ,2001-07-21 16:00,ZGSZ 211600Z AUTO 09008KT 6SM 27/23 A2974 RMK T02700230 IEM_DS3505
ZGSZ,2001-07-21 17:00,ZGSZ 211700Z AUTO 08006KT 6SM 27/23 A2974 RMK T02700230 IEM_DS3505
ZGSZ,2001-07-21 18:00,ZGSZ 211800Z AUTO 07006KT 11SM 27/25 A2971 RMK 60024 SLP069 T02700252 57007 IEM_DS3505
ZGSZ,2001-07-21 19:00,ZGSZ 211900Z AUTO 11002KT 6SM 26/23 A2971 RMK T02600230 IEM_DS3505
ZGSZ,2001-07-21 21:00,ZGSZ 212100Z AUTO 07004KT 12SM 27/24 A2971 RMK 70201 SLP063 T02730245 57006 IEM_DS3505
ZGSZ,2001-07-21 22:00,ZGSZ 212200Z AUTO 08002KT 6SM 27/23 A2971 RMK T02700230 IEM_DS3505
ZGSZ,2001-07-21 23:00,ZGSZ 212300Z AUTO 09004KT 6SM 27/23 A2971 RMK T02700230 IEM_DS3505
ZGSZ,2001-07-22 00:00,ZGSZ 220000Z AUTO 09004KT 10SM 27/25 A2974 RMK 60004 SLP076 T02720254 52013 IEM_DS3505
ZGSZ,2001-07-22 01:00,ZGSZ 220100Z AUTO 11006KT 14SM 29/23 A2974 RMK T02900230 IEM_DS3505
ZGSZ,2001-07-22 02:00,ZGSZ 220200Z AUTO 12008KT 6SM 31/23 A2977 RMK T03100230 IEM_DS3505
ZGSZ,2001-07-22 03:00,ZGSZ 220300Z AUTO 09006KT 14SM 28/24 A2977 RMK SLP091 T02750245 52015 IEM_DS3505
ZGSZ,2001-07-22 04:00,ZGSZ 220400Z AUTO 10008KT 6SM 29/24 A2977 RMK T02900240 IEM_DS3505
ZGSZ,2001-07-22 05:00,ZGSZ 220500Z AUTO 17008KT 6SM RMK IEM_DS3505
ZGSZ,2001-07-22 06:00,ZGSZ 220600Z AUTO 04004KT 17SM 29/26 RMK 60003 SLP083 T02900259 57008 IEM_DS3505
ZGSZ,2001-07-22 07:00,ZGSZ 220700Z AUTO 16008KT 1SM RMK IEM_DS3505
ZGSZ,2001-07-22 08:00,ZGSZ 220800Z AUTO 21006KT 6SM RMK IEM_DS3505
ZGSZ,2001-07-22 09:00,ZGSZ 220900Z AUTO 14002KT 17SM 31/25 RMK SLP073 T03080250 57009 IEM_DS3505
ZGSZ,2001-07-22 10:00,ZGSZ 221000Z AUTO 18008KT 6SM 29/24 A2974 RMK T02900240 IEM_DS3505
ZGSZ,2001-07-22 11:00,ZGSZ 221100Z AUTO 15004KT 6SM 28/24 A2974 RMK T02800240 IEM_DS3505
ZGSZ,2001-07-22 12:00,ZGSZ 221200Z AUTO 11006KT 16SM 29/25 A2977 RMK 60003 SLP080 T02880251 52006 IEM_DS3505
ZGSZ,2001-07-22 13:00,ZGSZ 221300Z AUTO 17004KT 6SM 27/24 A2977 RMK T02700240 IEM_DS3505
ZGSZ,2001-07-22 14:00,ZGSZ 221400Z AUTO 14004KT 6SM 27/24 A2980 RMK T02700240 IEM_DS3505
ZGSZ,2001-07-22 15:00,ZGSZ 221500Z AUTO 14004KT 6SM 27/23 A2980 RMK T02700230 IEM_DS3505
ZGSZ,2001-07-22 16:00,ZGSZ 221600Z AUTO 09004KT 6SM 27/23 A2980 RMK T02700230 IEM_DS3505
ZGSZ,2001-07-22 17:00,ZGSZ 221700Z AUTO 10004KT 6SM 27/23 A2980 RMK T02700230 IEM_DS3505
ZGSZ,2001-07-22 18:00,ZGSZ 221800Z AUTO 04002KT 16SM 28/25 A2980 RMK SLP093 T02750250 57003 IEM_DS3505
ZGSZ,2001-07-22 21:00,ZGSZ 222100Z AUTO 07004KT 4SM 27/25 A2977 RMK 70006 SLP083 T02680251 57010 IEM_DS3505
ZGSZ,2001-07-22 22:00,ZGSZ 222200Z AUTO 03004KT 6SM 25/23 A2977 RMK T02500230 IEM_DS3505
ZGSZ,2001-07-22 23:00,ZGSZ 222300Z AUTO 02002KT 6SM 27/23 A2977 RMK T02700230 IEM_DS3505
ZGSZ,2001-07-23 00:00,ZGSZ 230000Z AUTO 02002KT 4SM 27/25 A2977 RMK 70003 SLP087 T02730253 52004 IEM_DS3505
ZGSZ,2001-07-23 01:00,ZGSZ 230100Z AUTO 6SM RMK IEM_DS3505
ZGSZ,2001-07-23 03:00,ZGSZ 230300Z AUTO 04004KT 7SM 30/24 RMK SLP077 T03050243 57009 IEM_DS3505
ZGSZ,2001-07-23 04:00,ZGSZ 230400Z AUTO 25004KT 6SM 30/24 A2974 RMK T03000240 IEM_DS3505
ZGSZ,2001-07-23 05:00,ZGSZ 230500Z AUTO 23006KT 6SM 31/22 A2974 RMK T03100220 IEM_DS3505
ZGSZ,2001-07-23 06:00,ZGSZ 230600Z AUTO 25002KT 6SM 33/25 A2971 RMK SLP060 T03270252 57017 IEM_DS3505
ZGSZ,2001-07-23 07:00,ZGSZ 230700Z AUTO 23004KT 31/22 A2968 RMK T03100220 IEM_DS3505
ZGSZ,2001-07-23 08:00,ZGSZ 230800Z AUTO 23004KT 6SM 31/24 A2968 RMK T03100240 IEM_DS3505
ZGSZ,2001-07-23 09:00,ZGSZ 230900Z AUTO 27006KT 6SM 32/24 A2965 RMK SLP043 T03250235 57017 IEM_DS3505
ZGSZ,2001-07-23 10:00,ZGSZ 231000Z AUTO 19004KT 6SM 30/23 A2965 RMK T03000230 IEM_DS3505
ZGSZ,2001-07-23 11:00,ZGSZ 231100Z AUTO 18006KT 6SM 29/25 A2965 RMK T02900250 IEM_DS3505
ZGSZ,2001-07-23 12:00,ZGSZ 231200Z AUTO 27004KT 6SM 30/24 A2965 RMK SLP044 T03040240 52001 IEM_DS3505
ZGSZ,2001-07-23 13:00,ZGSZ 231300Z AUTO 17006KT 6SM 28/24 A2965 RMK T02800240 IEM_DS3505
ZGSZ,2001-07-23 14:00,ZGSZ 231400Z AUTO 18006KT 6SM 28/25 A2965 RMK T02800250 IEM_DS3505
ZGSZ,2001-07-23 15:00,ZGSZ 231500Z AUTO 16006KT 6SM 28/24 A2968 RMK T02800240 IEM_DS3505
ZGSZ,2001-07-23 16:00,ZGSZ 231600Z AUTO 18006KT 6SM 28/24 A2965 RMK T02800240 IEM_DS3505
ZGSZ,2001-07-23 18:00,ZGSZ 231800Z AUTO 27004KT 11SM 28/25 RMK SLP043 T02840252 54000 IEM_DS3505
ZGSZ,2001-07-23 19:00,ZGSZ 231900Z AUTO 6SM 27/24 A2965 RMK T02700240 IEM_DS3505
ZGSZ,2001-07-23 20:00,ZGSZ 232000Z AUTO 30004KT 6SM 27/24 A2965 RMK T02700240 IEM_DS3505
ZGSZ,2001-07-23 21:00,ZGSZ 232100Z AUTO 27002KT 9SM 28/26 RMK SLP043 T02820258 54000 IEM_DS3505
ZGSZ,2001-07-23 22:00,ZGSZ 232200Z AUTO 28004KT 6SM 27/24 A2965 RMK T02700240 IEM_DS3505
ZGSZ,2001-07-23 23:00,ZGSZ 232300Z AUTO 6SM 28/24 A2965 RMK T02800240 IEM_DS3505
ZGSZ,2001-07-24 00:00,ZGSZ 240000Z AUTO 22004KT 4SM 28/25 A2965 RMK SLP044 T02850253 52001 IEM_DS3505
ZGSZ,2001-07-24 01:00,ZGSZ 240100Z AUTO 6SM 28/24 A2965 RMK T02800240 IEM_DS3505
ZGSZ,2001-07-24 02:00,ZGSZ 240200Z AUTO 25004KT 6SM RMK IEM_DS3505
ZGSZ,2001-07-24 03:00,ZGSZ 240300Z AUTO 00000KT 3SM 31/26 RMK SLP038 T03130256 57006 IEM_DS3505
ZGSZ,2001-07-24 04:00,ZGSZ 240400Z AUTO 24004KT 6SM 30/24 A2962 RMK T03000240 IEM_DS3505
ZGSZ,2001-07-24 05:00,ZGSZ 240500Z AUTO 24004KT 6SM 32/25 A2962 RMK T03200250 IEM_DS3505
ZGSZ,2001-07-24 06:00,ZGSZ 240600Z AUTO 09004KT 5SM 34/25 A2959 RMK 60003 SLP022 T03410246 57016 IEM_DS3505
ZGSZ,2001-07-24 07:00,ZGSZ 240700Z AUTO 23006KT 6SM 31/25 A2956 RMK T03100250 IEM_DS3505
ZGSZ,2001-07-24 08:00,ZGSZ 240800Z AUTO 15006KT 6SM A2965 RMK IEM_DS3505
ZGSZ,2001-07-24 09:00,ZGSZ 240900Z AUTO 04006KT 3SM 26/24 A2965 RMK SLP036 T02630244 52013 IEM_DS3505
ZGSZ,2001-07-24 10:00,ZGSZ 241000Z AUTO 36004KT 6SM 25/23 A2965 RMK T02500230 IEM_DS3505
ZGSZ,2001-07-24 11:00,ZGSZ 241100Z AUTO 34006KT 6SM 25/22 A2962 RMK T02500220 IEM_DS3505
ZGSZ,2001-07-24 12:00,ZGSZ 241200Z AUTO 04006KT 4SM 27/25 A2962 RMK 60217 SLP037 T02670246 52001 IEM_DS3505
ZGSZ,2001-07-24 13:00,ZGSZ 241300Z AUTO 04004KT 6SM 25/22 A2965 RMK T02500220 IEM_DS3505
ZGSZ,2001-07-24 14:00,ZGSZ 241400Z AUTO 01006KT 6SM 25/22 A2962 RMK T02500220 IEM_DS3505
ZGSZ,2001-07-24 15:00,ZGSZ 241500Z AUTO 02006KT 6SM 25/22 A2962 RMK T02500220 IEM_DS3505
ZGSZ,2001-07-24 16:00,ZGSZ 241600Z AUTO 35006KT 6SM 25/22 A2962 RMK T02500220 IEM_DS3505
ZGSZ,2001-07-24 17:00,ZGSZ 241700Z AUTO 02006KT 6SM 26/22 A2962 RMK T02600220 IEM_DS3505
ZGSZ,2001-07-24 18:00,ZGSZ 241800Z AUTO 04008KT 7SM 27/24 A2962 RMK SLP024 T02680239 57005 IEM_DS3505
ZGSZ,2001-07-24 19:00,ZGSZ 241900Z AUTO 01010KT 40SM 26/22 A2959 RMK T02600220 IEM_DS3505
ZGSZ,2001-07-24 20:00,ZGSZ 242000Z AUTO 01006KT 6SM RMK IEM_DS3505
ZGSZ,2001-07-24 21:00,ZGSZ 242100Z AUTO 04006KT 4SM 27/24 A2959 RMK 70217 SLP017 T02660237 57008 IEM_DS3505
ZGSZ,2001-07-24 22:00,ZGSZ 242200Z AUTO 07016KT 10SM 27/23 RMK SLP022 T02720231 52001 IEM_DS3505
ZGSZ,2001-07-24 23:00,ZGSZ 242300Z AUTO 03012KT 6SM RMK IEM_DS3505
ZGSZ,2001-07-25 00:00,ZGSZ 250000Z AUTO 07014KT 17SM 28/23 RMK 60004 SLP032 T02800232 52015 IEM_DS3505
ZGSZ,2001-07-25 01:00,ZGSZ 250100Z AUTO 04012KT 9SM 27/24 A2962 RMK SLP035 T02740240 52013 IEM_DS3505
ZGSZ,2001-07-25 02:00,ZGSZ 250200Z AUTO 07016KT 12SM 28/24 RMK SLP026 T02770235 57001 IEM_DS3505
ZGSZ,2001-07-25 03:00,ZGSZ 250300Z AUTO 07010KT 4SM 27/24 A2959 RMK SLP033 T02670243 52001 IEM_DS3505
ZGSZ,2001-07-25 04:00,ZGSZ 250400Z AUTO 08012KT 26/22 A2965 RMK T02600220 IEM_DS3505
ZGSZ,2001-07-25 05:00,ZGSZ 250500Z AUTO 06012KT 6SM 25/22 A2962 RMK T02500220 IEM_DS3505
ZGSZ,2001-07-25 06:00,ZGSZ 250600Z AUTO 07017KT 8SM 26/24 A2962 RMK 60055 SLP030 T02610239 4////0252 57003 IEM_DS3505
ZGSZ,2001-07-25 07:00,ZGSZ 250700Z AUTO 06014KT 6SM 27/22 A2959 RMK T02700220 IEM_DS3505
ZGSZ,2001-07-25 08:00,ZGSZ 250800Z AUTO 07012KT 6SM 26/22 A2959 RMK T02600220 IEM_DS3505
ZGSZ,2001-07-25 09:00,ZGSZ 250900Z AUTO 07010KT 7SM 26/24 A2962 RMK SLP027 T02620242 57003 IEM_DS3505
ZGSZ,2001-07-25 10:00,ZGSZ 251000Z AUTO 08010KT 27/22 A2962 RMK T02700220 IEM_DS3505
ZGSZ,2001-07-25 11:00,ZGSZ 251100Z AUTO 07008KT 6SM 26/22 A2962 RMK T02600220 IEM_DS3505
ZGSZ,2001-07-25 12:00,ZGSZ 251200Z AUTO 09008KT 11SM 27/24 A2962 RMK 60016 SLP034 T02680238 52007 IEM_DS3505
ZGSZ,2001-07-25 13:00,ZGSZ 251300Z AUTO 07010KT 6SM RMK IEM_DS3505
ZGSZ,2001-07-25 14:00,ZGSZ 251400Z AUTO 08012KT 6SM 27/21 A2965 RMK T02700210 IEM_DS3505
ZGSZ,2001-07-25 15:00,ZGSZ 251500Z AUTO 08012KT 1/4SM 26/21 A2968 RMK T02600210 IEM_DS3505
ZGSZ,2001-07-25 16:00,ZGSZ 251600Z AUTO 08010KT 6SM 26/21 A2968 RMK T02600210 IEM_DS3505
ZGSZ,2001-07-25 17:00,ZGSZ 251700Z AUTO 10014KT 6SM 27/22 A2968 RMK T02700220 IEM_DS3505
ZGSZ,2001-07-25 18:00,ZGSZ 251800Z AUTO 09006KT 16SM 27/24 A2968 RMK 60001 SLP053 T02680239 57006 IEM_DS3505
ZGSZ,2001-07-25 19:00,ZGSZ 251900Z AUTO 10012KT 6SM RMK IEM_DS3505
ZGSZ,2001-07-25 20:00,ZGSZ 252000Z AUTO 09012KT 6SM RMK IEM_DS3505
ZGSZ,2001-07-25 21:00,ZGSZ 252100Z AUTO 09010KT 6SM 27/22 A2965 RMK T02700220 IEM_DS3505
ZGSZ,2001-07-25 22:00,ZGSZ 252200Z AUTO 10012KT 6SM 27/22 A2965 RMK T02700220 IEM_DS3505
ZGSZ,2001-07-25 23:00,ZGSZ 252300Z AUTO 12010KT 6SM RMK IEM_DS3505
ZGSZ,2001-07-26 00:00,ZGSZ 260000Z AUTO 14006KT 12SM 28/24 A2968 RMK 60000 SLP062 T02760242 52013 IEM_DS3505
ZGSZ,2001-07-26 01:00,ZGSZ 260100Z AUTO 11014KT 12SM RMK IEM_DS3505
ZGSZ,2001-07-26 02:00,ZGSZ 260200Z AUTO 13012KT 7SM RMK IEM_DS3505
ZGSZ,2001-07-26 03:00,ZGSZ 260300Z AUTO 14004KT 17SM 29/25 A2974 RMK SLP075 T02870246 52013 IEM_DS3505
ZGSZ,2001-07-26 04:00,ZGSZ 260400Z AUTO 14016KT 6SM 29/23 A2971 RMK T02900230 IEM_DS3505
ZGSZ,2001-07-26 05:00,ZGSZ 260500Z AUTO 15014KT 30/23 A2971 RMK T03000230 IEM_DS3505
ZGSZ,2001-07-26 06:00,ZGSZ 260600Z AUTO 20004KT 5SM 29/25 RMK 60002 SLP062 T02920254 57013 IEM_DS3505
ZGSZ,2001-07-26 07:00,ZGSZ 260700Z AUTO 14006KT 6SM 26/22 A2968 RMK T02600220 IEM_DS3505
ZGSZ,2001-07-26 08:00,ZGSZ 260800Z AUTO 12010KT 3SM RMK IEM_DS3505
ZGSZ,2001-07-26 09:00,ZGSZ 260900Z AUTO 07002KT 17SM 27/24 A2968 RMK SLP054 T02690242 57008 IEM_DS3505
ZGSZ,2001-07-26 10:00,ZGSZ 261000Z AUTO 12008KT 6SM 27/23 A2968 RMK T02700230 IEM_DS3505
ZGSZ,2001-07-26 11:00,ZGSZ 261100Z AUTO 11004KT 6SM 27/22 A2968 RMK T02700220 IEM_DS3505
ZGSZ,2001-07-26 12:00,ZGSZ 261200Z AUTO 11004KT 9SM 27/24 A2971 RMK 60035 SLP064 T02680245 52010 IEM_DS3505
ZGSZ,2001-07-26 13:00,ZGSZ 261300Z AUTO 11006KT 6SM 27/23 A2974 RMK T02700230 IEM_DS3505
ZGSZ,2001-07-26 14:00,ZGSZ 261400Z AUTO 12006KT 6SM 27/22 A2974 RMK T02700220 IEM_DS3505
ZGSZ,2001-07-26 15:00,ZGSZ 261500Z AUTO 08006KT 6SM 27/22 A2977 RMK T02700220 IEM_DS3505
ZGSZ,2001-07-26 16:00,ZGSZ 261600Z AUTO 11006KT 6SM 27/22 A2974 RMK T02700220 IEM_DS3505
ZGSZ,2001-07-26 17:00,ZGSZ 261700Z AUTO 11006KT 6SM 26/23 A2974 RMK T02600230 IEM_DS3505
ZGSZ,2001-07-26 18:00,ZGSZ 261800Z AUTO 09006KT 6SM 27/25 A2974 RMK 60016 SLP075 T02660253 57002 IEM_DS3505
ZGSZ,2001-07-26 19:00,ZGSZ 261900Z AUTO 10008KT 6SM 27/23 A2974 RMK T02700230 IEM_DS3505
ZGSZ,2001-07-26 20:00,ZGSZ 262000Z AUTO 14004KT 6SM 26/23 A2971 RMK T02600230 IEM_DS3505
ZGSZ,2001-07-26 21:00,ZGSZ 262100Z AUTO 11004KT 12SM 27/25 A2971 RMK 70065 SLP067 T02660250 57008 IEM_DS3505
ZGSZ,2001-07-26 22:00,ZGSZ 262200Z AUTO 13002KT 6SM 26/23 A2971 RMK T02600230 IEM_DS3505
ZGSZ,2001-07-26 23:00,ZGSZ 262300Z AUTO 08002KT 6SM RMK IEM_DS3505
ZGSZ,2001-07-27 00:00,ZGSZ 270000Z AUTO 07004KT 9SM 27/25 RMK 60012 SLP068 T02730250 52001 IEM_DS3505
ZGSZ,2001-07-27 01:00,ZGSZ 270100Z AUTO 13006KT 6SM 29/24 A2974 RMK T02900240 IEM_DS3505
ZGSZ,2001-07-27 02:00,ZGSZ 270200Z AUTO 16006KT RMK IEM_DS3505
ZGSZ,2001-07-27 03:00,ZGSZ 270300Z AUTO 14004KT 16SM 30/25 RMK SLP067 T03020253 57001 IEM_DS3505
ZGSZ,2001-07-27 04:00,ZGSZ 270400Z AUTO 18010KT 6SM RMK IEM_DS3505
ZGSZ,2001-07-27 05:00,ZGSZ 270500Z AUTO 18010KT 30/25 A2971 RMK T03000250 IEM_DS3505
ZGSZ,2001-07-27 06:00,ZGSZ 270600Z AUTO 14006KT 17SM 31/25 A2971 RMK 60020 SLP060 T03070252 57006 IEM_DS3505
ZGSZ,2001-07-27 07:00,ZGSZ 270700Z AUTO 18010KT 30/25 A2968 RMK T03000250 IEM_DS3505
ZGSZ,2001-07-27 08:00,ZGSZ 270800Z AUTO 18012KT 6SM 30/25 A2968 RMK T03000250 IEM_DS3505
ZGSZ,2001-07-27 09:00,ZGSZ 270900Z AUTO 14004KT 12SM 31/25 A2968 RMK SLP049 T03110251 57011 IEM_DS3505
ZGSZ,2001-07-27 10:00,ZGSZ 271000Z AUTO 18010KT 19SM 29/24 A2968 RMK T02900240 IEM_DS3505
ZGSZ,2001-07-27 11:00,ZGSZ 271100Z AUTO 18008KT 6SM 29/24 A2971 RMK T02900240 IEM_DS3505
ZGSZ,2001-07-27 12:00,ZGSZ 271200Z AUTO 14004KT 9SM 29/25 A2971 RMK SLP062 T02880250 52012 IEM_DS3505
ZGSZ,2001-07-27 13:00,ZGSZ 271300Z AUTO 16008KT 6SM 28/23 A2974 RMK T02800230 IEM_DS3505
ZGSZ,2001-07-27 14:00,ZGSZ 271400Z AUTO 11006KT 6SM 28/23 A2977 RMK T02800230 IEM_DS3505
ZGSZ,2001-07-27 15:00,ZGSZ 271500Z AUTO 12006KT 6SM 28/23 A2974 RMK T02800230 IEM_DS3505
ZGSZ,2001-07-27 16:00,ZGSZ 271600Z AUTO 12006KT 6SM 27/23 A2974 RMK T02700230 IEM_DS3505
ZGSZ,2001-07-27 17:00,ZGSZ 271700Z AUTO 11004KT 6SM 27/23 A2971 RMK T02700230 IEM_DS3505
ZGSZ,2001-07-27 18:00,ZGSZ 271800Z AUTO 00000KT 9SM 27/25 A2971 RMK SLP060 T02740247 57016 IEM_DS3505
ZGSZ,2001-07-27 19:00,ZGSZ 271900Z AUTO 6SM 26/23 RMK T02600230 IEM_DS3505
ZGSZ,2001-07-27 20:00,ZGSZ 272000Z AUTO 6SM 27/23 A2971 RMK T02700230 IEM_DS3505
ZGSZ,2001-07-27 21:00,ZGSZ 272100Z AUTO 00000KT 9SM 27/25 A2971 RMK 70020 SLP056 T02700247 57004 IEM_DS3505
ZGSZ,2001-07-27 22:00,ZGSZ 272200Z AUTO 10004KT 6SM 27/23 A2971 RMK T02700230 IEM_DS3505
ZGSZ,2001-07-27 23:00,ZGSZ 272300Z AUTO 11004KT 6SM 27/23 A2971 RMK T02700230 IEM_DS3505
ZGSZ,2001-07-28 00:00,ZGSZ 280000Z AUTO 04004KT 8SM 28/25 A2974 RMK 70020 SLP069 T02770250 52012 IEM_DS3505
ZGSZ,2001-07-28 01:00,ZGSZ 280100Z AUTO 17004KT 6SM RMK IEM_DS3505
ZGSZ,2001-07-28 02:00,ZGSZ 280200Z AUTO 20006KT 8SM 29/24 A2974 RMK T02900240 IEM_DS3505
ZGSZ,2001-07-28 03:00,ZGSZ 280300Z AUTO 16004KT 9SM 31/23 A2974 RMK SLP064 T03120233 57004 IEM_DS3505
ZGSZ,2001-07-28 04:00,ZGSZ 280400Z AUTO 22006KT 30/23 A2974 RMK T03000230 IEM_DS3505
ZGSZ,2001-07-28 05:00,ZGSZ 280500Z AUTO 22006KT 6SM 30/24 A2971 RMK T03000240 IEM_DS3505
ZGSZ,2001-07-28 06:00,ZGSZ 280600Z AUTO 00000KT 7SM 32/25 A2971 RMK SLP055 T03220254 57009 IEM_DS3505
ZGSZ,2001-07-28 07:00,ZGSZ 280700Z AUTO 20008KT 31/24 A2968 RMK T03100240 IEM_DS3505
ZGSZ,2001-07-28 08:00,ZGSZ 280800Z AUTO 19012KT 6SM 30/25 A2968 RMK T03000250 IEM_DS3505
ZGSZ,2001-07-28 09:00,ZGSZ 280900Z AUTO 20006KT 7SM 32/24 A2965 RMK SLP043 T03210245 57012 IEM_DS3505
ZGSZ,2001-07-28 10:00,ZGSZ 281000Z AUTO 18012KT 6SM 29/24 A2965 RMK T02900240 IEM_DS3505
ZGSZ,2001-07-28 11:00,ZGSZ 281100Z AUTO 18012KT 6SM 29/24 A2965 RMK T02900240 IEM_DS3505
ZGSZ,2001-07-28 12:00,ZGSZ 281200Z AUTO 22004KT 11SM 29/25 A2968 RMK 60000 SLP054 T02940250 52011 IEM_DS3505
ZGSZ,2001-07-28 13:00,ZGSZ 281300Z AUTO 18012KT 6SM 28/24 A2971 RMK T02800240 IEM_DS3505
ZGSZ,2001-07-28 14:00,ZGSZ 281400Z AUTO 18010KT 6SM 28/24 A2971 RMK T02800240 IEM_DS3505
ZGSZ,2001-07-28 15:00,ZGSZ 281500Z AUTO 19008KT 6SM RMK IEM_DS3505
ZGSZ,2001-07-28 16:00,ZGSZ 281600Z AUTO 18006KT 6SM RMK IEM_DS3505
ZGSZ,2001-07-28 17:00,ZGSZ 281700Z AUTO 19006KT 18SM RMK IEM_DS3505
ZGSZ,2001-07-28 18:00,ZGSZ 281800Z AUTO 20004KT 12SM 28/25 RMK SLP055 T02770246 57011 IEM_DS3505
ZGSZ,2001-07-28 21:00,ZGSZ 282100Z AUTO 20004KT 9SM 27/25 RMK 70001 SLP051 T02740249 57004 IEM_DS3505
ZGSZ,2001-07-28 22:00,ZGSZ 282200Z AUTO 6SM 27/23 A2968 RMK T02700230 IEM_DS3505
ZGSZ,2001-07-28 23:00,ZGSZ 282300Z AUTO 6SM 28/23 A2968 RMK T02800230 IEM_DS3505
ZGSZ,2001-07-29 00:00,ZGSZ 290000Z AUTO 18002KT 6SM 28/25 A2971 RMK 70001 SLP064 T02800252 52013 IEM_DS3505
ZGSZ,2001-07-29 01:00,ZGSZ 290100Z AUTO 6SM 31/22 A2971 RMK T03100220 IEM_DS3505
ZGSZ,2001-07-29 02:00,ZGSZ 290200Z AUTO 23006KT 6SM 30/24 A2971 RMK T03000240 IEM_DS3505
ZGSZ,2001-07-29 03:00,ZGSZ 290300Z AUTO 27008KT 6SM 32/24 A2971 RMK SLP064 T03150244 54000 IEM_DS3505
ZGSZ,2001-07-29 04:00,ZGSZ 290400Z AUTO 25006KT 6SM 30/23 A2971 RMK T03000230 IEM_DS3505
ZGSZ,2001-07-29 05:00,ZGSZ 290500Z AUTO 24006KT 6SM 31/23 A2968 RMK T03100230 IEM_DS3505
ZGSZ,2001-07-29 06:00,ZGSZ 290600Z AUTO 25008KT 14SM 33/22 A2968 RMK SLP044 T03330223 57020 IEM_DS3505
ZGSZ,2001-07-29 07:00,ZGSZ 290700Z AUTO 19006KT 6SM 32/23 A2965 RMK T03200230 IEM_DS3505
ZGSZ,2001-07-29 08:00,ZGSZ 290800Z AUTO 19008KT 6SM 31/25 A2965 RMK T03100250 IEM_DS3505
ZGSZ,2001-07-29 09:00,ZGSZ 290900Z AUTO 22006KT 5SM 33/25 A2962 RMK SLP037 T03310247 57007 IEM_DS3505
ZGSZ,2001-07-29 10:00,ZGSZ 291000Z AUTO 18010KT 6SM 30/24 A2962 RMK T03000240 IEM_DS3505
ZGSZ,2001-07-29 11:00,ZGSZ 291100Z AUTO 18012KT 6SM 30/24 A2962 RMK T03000240 IEM_DS3505
ZGSZ,2001-07-29 12:00,ZGSZ 291200Z AUTO 22008KT 8SM 30/24 A2962 RMK SLP043 T03010243 52006 IEM_DS3505
ZGSZ,2001-07-29 13:00,ZGSZ 291300Z AUTO 19012KT 6SM 29/25 A2965 RMK T02900250 IEM_DS3505
ZGSZ,2001-07-29 14:00,ZGSZ 291400Z AUTO 18010KT 6SM 29/24 A2968 RMK T02900240 IEM_DS3505
ZGSZ,2001-07-29 15:00,ZGSZ 291500Z AUTO 20008KT 6SM 29/25 A2968 RMK T02900250 IEM_DS3505
ZGSZ,2001-07-29 16:00,ZGSZ 291600Z AUTO 20008KT 6SM 29/24 A2968 RMK T02900240 IEM_DS3505
ZGSZ,2001-07-29 17:00,ZGSZ 291700Z AUTO 20008KT 6SM 28/24 A2968 RMK T02800240 IEM_DS3505
ZGSZ,2001-07-29 18:00,ZGSZ 291800Z AUTO 20004KT 16SM 29/26 RMK SLP053 T02860258 57005 IEM_DS3505
ZGSZ,2001-07-29 21:00,ZGSZ 292100Z AUTO 25002KT 14SM 28/25 A2968 RMK SLP059 T02830251 52006 IEM_DS3505
ZGSZ,2001-07-29 22:00,ZGSZ 292200Z AUTO 19006KT 6SM 28/23 A2968 RMK T02800230 IEM_DS3505
ZGSZ,2001-07-29 23:00,ZGSZ 292300Z AUTO 19006KT 6SM 28/24 A2968 RMK T02800240 IEM_DS3505
ZGSZ,2001-07-30 00:00,ZGSZ 300000Z AUTO 22006KT 16SM 29/25 A2968 RMK SLP060 T02890250 52001 IEM_DS3505
ZGSZ,2001-07-30 01:00,ZGSZ 300100Z AUTO 21006KT 6SM 30/24 A2971 RMK T03000240 IEM_DS3505
ZGSZ,2001-07-30 02:00,ZGSZ 300200Z AUTO 21006KT 6SM 30/24 A2971 RMK T03000240 IEM_DS3505
ZGSZ,2001-07-30 03:00,ZGSZ 300300Z AUTO 25010KT 12SM 31/24 A2971 RMK SLP064 T03110235 52004 IEM_DS3505
ZGSZ,2001-07-30 04:00,ZGSZ 300400Z AUTO 18006KT 6SM 31/24 A2968 RMK T03100240 IEM_DS3505
ZGSZ,2001-07-30 05:00,ZGSZ 300500Z AUTO 18010KT 6SM RMK IEM_DS3505
ZGSZ,2001-07-30 06:00,ZGSZ 300600Z AUTO 22008KT 12SM 33/25 RMK SLP048 T03270250 57016 IEM_DS3505
ZGSZ,2001-07-30 07:00,ZGSZ 300700Z AUTO 18014KT 6SM 30/26 A2965 RMK T03000260 IEM_DS3505
ZGSZ,2001-07-30 08:00,ZGSZ 300800Z AUTO 18014KT 6SM RMK IEM_DS3505
ZGSZ,2001-07-30 09:00,ZGSZ 300900Z AUTO 22006KT 12SM 33/24 RMK SLP039 T03310239 57009 IEM_DS3505
ZGSZ,2001-07-30 10:00,ZGSZ 301000Z AUTO 17014KT 6SM 30/25 A2962 RMK T03000250 IEM_DS3505
ZGSZ,2001-07-30 11:00,ZGSZ 301100Z AUTO 17014KT 6SM 30/25 A2965 RMK T03000250 IEM_DS3505
ZGSZ,2001-07-30 12:00,ZGSZ 301200Z AUTO 22006KT 12SM 30/26 A2965 RMK SLP045 T03040255 52006 IEM_DS3505
ZGSZ,2001-07-30 13:00,ZGSZ 301300Z AUTO 18014KT 12SM 29/26 A2968 RMK T02900260 IEM_DS3505
ZGSZ,2001-07-30 14:00,ZGSZ 301400Z AUTO 18012KT 7SM 29/25 A2971 RMK T02900250 IEM_DS3505
ZGSZ,2001-07-30 16:00,ZGSZ 301600Z AUTO 18012KT 7SM 29/25 A2971 RMK T02900250 IEM_DS3505
ZGSZ,2001-07-30 18:00,ZGSZ 301800Z AUTO 22004KT 17SM 29/25 RMK SLP052 T02930254 57010 IEM_DS3505
ZGSZ,2001-07-30 19:00,ZGSZ 301900Z AUTO 20008KT 7SM 29/25 A2965 RMK T02900250 IEM_DS3505
ZGSZ,2001-07-30 20:00,ZGSZ 302000Z AUTO 20008KT 7SM 28/25 A2965 RMK T02800250 IEM_DS3505
ZGSZ,2001-07-30 21:00,ZGSZ 302100Z AUTO 20002KT 16SM 29/26 A2965 RMK SLP051 T02900255 57001 IEM_DS3505
ZGSZ,2001-07-30 22:00,ZGSZ 302200Z AUTO 19006KT 7SM 28/24 A2968 RMK T02800240 IEM_DS3505
ZGSZ,2001-07-30 23:00,ZGSZ 302300Z AUTO 19006KT 7SM 29/24 A2971 RMK T02900240 IEM_DS3505
ZGSZ,2001-07-31 00:00,ZGSZ 310000Z AUTO 22004KT 17SM 29/25 A2971 RMK SLP062 T02940253 52011 IEM_DS3505
ZGSZ,2001-07-31 01:00,ZGSZ 310100Z AUTO 19006KT 7SM 30/24 A2971 RMK T03000240 IEM_DS3505
ZGSZ,2001-07-31 02:00,ZGSZ 310200Z AUTO 20006KT 7SM 30/25 A2971 RMK T03000250 IEM_DS3505
ZGSZ,2001-07-31 03:00,ZGSZ 310300Z AUTO 27010KT 8SM 32/25 A2971 RMK SLP060 T03160253 57002 IEM_DS3505
ZGSZ,2001-07-31 04:00,ZGSZ 310400Z AUTO 18008KT 7SM 31/26 A2968 RMK T03100260 IEM_DS3505
ZGSZ,2001-07-31 05:00,ZGSZ 310500Z AUTO 18012KT 7SM 31/26 A2968 RMK T03100260 IEM_DS3505
ZGSZ,2001-07-31 06:00,ZGSZ 310600Z AUTO 27008KT 12SM 33/25 A2965 RMK SLP039 T03340252 57021 IEM_DS3505
ZGSZ,2001-07-31 07:00,ZGSZ 310700Z AUTO 17014KT 7SM 31/26 A2962 RMK T03100260 IEM_DS3505
ZGSZ,2001-07-31 08:00,ZGSZ 310800Z AUTO 17014KT 7SM 31/26 A2959 RMK T03100260 IEM_DS3505
ZGSZ,2001-07-31 09:00,ZGSZ 310900Z AUTO 20006KT 11SM 32/26 A2959 RMK SLP021 T03220257 57018 IEM_DS3505
ZGSZ,2001-07-31 10:00,ZGSZ 311000Z AUTO 18010KT 7SM 30/24 A2959 RMK T03000240 IEM_DS3505
ZGSZ,2001-07-31 11:00,ZGSZ 311100Z AUTO 17010KT 7SM 30/26 A2962 RMK T03000260 IEM_DS3505
ZGSZ,2001-07-31 12:00,ZGSZ 311200Z AUTO 22006KT 7SM 30/25 A2962 RMK SLP032 T03030254 52011 IEM_DS3505
ZGSZ,2001-07-31 13:00,ZGSZ 311300Z AUTO 16012KT 7SM 29/25 A2962 RMK T02900250 IEM_DS3505
ZGSZ,2001-07-31 14:00,ZGSZ 311400Z AUTO 16010KT 7SM 29/25 A2968 RMK T02900250 IEM_DS3505
ZGSZ,2001-07-31 15:00,ZGSZ 311500Z AUTO 17012KT 7SM 29/26 A2968 RMK T02900260 IEM_DS3505
ZGSZ,2001-07-31 16:00,ZGSZ 311600Z AUTO 16012KT 7SM 29/26 A2965 RMK T02900260 IEM_DS3505
ZGSZ,2001-07-31 17:00,ZGSZ 311700Z AUTO 18010KT 6SM 29/25 A2965 RMK T02900250 IEM_DS3505
ZGSZ,2001-07-31 18:00,ZGSZ 311800Z AUTO 20004KT 16SM 29/26 RMK SLP036 T02930260 57015 IEM_DS3505
ZGSZ,2001-07-31 19:00,ZGSZ 311900Z AUTO 19008KT 6SM A2959 RMK IEM_DS3505
ZGSZ,2001-07-31 20:00,ZGSZ 312000Z AUTO 20010KT 6SM 29/24 A2959 RMK T02900240 IEM_DS3505
ZGSZ,2001-07-31 21:00,ZGSZ 312100Z AUTO 00000KT 17SM 29/25 A2959 RMK SLP035 T02880253 57001 IEM_DS3505
ZGSZ,2001-07-31 22:00,ZGSZ 312200Z AUTO 19010KT 7SM 29/24 A2959 RMK T02900240 IEM_DS3505
ZGSZ,2001-08-01 00:00,ZGSZ 010000Z AUTO 22004KT 17SM 29/26 A2962 RMK SLP039 T02940255 52004 IEM_DS3505
ZGSZ,2001-08-01 01:00,ZGSZ 010100Z AUTO 18010KT 7SM 30/25 A2965 RMK T03000250 IEM_DS3505
ZGSZ,2001-08-01 02:00,ZGSZ 010200Z AUTO 17010KT 7SM 30/25 A2968 RMK T03000250 IEM_DS3505
ZGSZ,2001-08-01 03:00,ZGSZ 010300Z AUTO 22006KT 12SM 31/26 A2965 RMK SLP045 T03090262 52006 IEM_DS3505
ZGSZ,2001-08-01 04:00,ZGSZ 010400Z AUTO 17012KT 7SM 30/25 A2965 RMK T03000250 IEM_DS3505
ZGSZ,2001-08-01 05:00,ZGSZ 010500Z AUTO 18012KT 7SM 30/25 A2962 RMK T03000250 IEM_DS3505
ZGSZ,2001-08-01 06:00,ZGSZ 010600Z AUTO 04006KT 12SM 30/26 A2962 RMK 60008 SLP038 T03040258 57007 IEM_DS3505
ZGSZ,2001-08-01 07:00,ZGSZ 010700Z AUTO 24019KT 1SM RMK IEM_DS3505
ZGSZ,2001-08-01 08:00,ZGSZ 010800Z AUTO 06006KT 7SM 24/22 A2959 RMK T02400220 IEM_DS3505
ZGSZ,2001-08-01 09:00,ZGSZ 010900Z AUTO 02004KT 11SM 25/24 A2959 RMK SLP032 T02530240 57007 IEM_DS3505
ZGSZ,2001-08-01 10:00,ZGSZ 011000Z AUTO 06004KT 7SM 25/22 A2962 RMK T02500220 IEM_DS3505
ZGSZ,2001-08-01 11:00,ZGSZ 011100Z AUTO 36002KT 7SM 25/22 A2965 RMK T02500220 IEM_DS3505
ZGSZ,2001-08-01 12:00,ZGSZ 011200Z AUTO 07006KT 4SM 26/24 A2965 RMK 60323 SLP046 T02610242 52014 IEM_DS3505
ZGSZ,2001-08-01 13:00,ZGSZ 011300Z AUTO 03004KT 7SM 25/22 A2968 RMK T02500220 IEM_DS3505
ZGSZ,2001-08-01 14:00,ZGSZ 011400Z AUTO 03002KT 7SM 25/22 A2968 RMK T02500220 IEM_DS3505
ZGSZ,2001-08-01 15:00,ZGSZ 011500Z AUTO 08008KT 7SM 26/21 A2968 RMK T02600210 IEM_DS3505
ZGSZ,2001-08-01 16:00,ZGSZ 011600Z AUTO 04002KT 3SM 25/22 A2968 RMK T02500220 IEM_DS3505
ZGSZ,2001-08-01 17:00,ZGSZ 011700Z AUTO 10002KT 3SM 25/22 A2965 RMK T02500220 IEM_DS3505
ZGSZ,2001-08-01 18:00,ZGSZ 011800Z AUTO 00000KT 5SM 26/24 A2965 RMK 60000 SLP045 T02620243 57016 IEM_DS3505
ZGSZ,2001-08-01 19:00,ZGSZ 011900Z AUTO 09006KT 2 1/2SM 25/22 A2965 RMK T02500220 IEM_DS3505
ZGSZ,2001-08-01 20:00,ZGSZ 012000Z AUTO 01002KT 2 1/2SM 25/22 A2962 RMK T02500220 IEM_DS3505
ZGSZ,2001-08-01 21:00,ZGSZ 012100Z AUTO 04004KT 4SM 26/24 A2965 RMK 70332 SLP045 T02600243 57001 IEM_DS3505
ZGSZ,2001-08-01 22:00,ZGSZ 012200Z AUTO 09002KT 3SM 25/22 A2965 RMK T02500220 IEM_DS3505
ZGSZ,2001-08-01 23:00,ZGSZ 012300Z AUTO 08006KT 4SM 26/22 A2965 RMK T02600220 IEM_DS3505
ZGSZ,2001-08-02 00:00,ZGSZ 020000Z AUTO 02004KT 4SM 27/24 A2968 RMK 70332 SLP051 T02670243 52006 IEM_DS3505
ZGSZ,2001-08-02 01:00,ZGSZ 020100Z AUTO 09006KT 6SM 29/23 A2968 RMK T02900230 IEM_DS3505
ZGSZ,2001-08-02 02:00,ZGSZ 020200Z AUTO 13004KT 7SM 29/23 A2968 RMK T02900230 IEM_DS3505
ZGSZ,2001-08-02 03:00,ZGSZ 020300Z AUTO 11004KT 11SM 30/25 A2971 RMK SLP064 T03010247 52013 IEM_DS3505
ZGSZ,2001-08-02 04:00,ZGSZ 020400Z AUTO 01004KT 7SM 28/24 A2968 RMK T02800240 IEM_DS3505
ZGSZ,2001-08-02 05:00,ZGSZ 020500Z AUTO 34004KT 7SM 30/23 A2968 RMK T03000230 IEM_DS3505
ZGSZ,2001-08-02 06:00,ZGSZ 020600Z AUTO 07004KT 6SM 26/24 RMK 60039 SLP057 T02630244 57007 IEM_DS3505
ZGSZ,2001-08-02 07:00,ZGSZ 020700Z AUTO 07006KT 7SM 26/23 A2968 RMK T02600230 IEM_DS3505
ZGSZ,2001-08-02 08:00,ZGSZ 020800Z AUTO 06004KT 7SM 27/23 A2968 RMK T02700230 IEM_DS3505
ZGSZ,2001-08-02 09:00,ZGSZ 020900Z AUTO 14004KT 9SM 28/25 RMK SLP058 T02790249 52001 IEM_DS3505
ZGSZ,2001-08-02 10:00,ZGSZ 021000Z AUTO 30012KT 3SM 25/22 A2971 RMK T02500220 IEM_DS3505
ZGSZ,2001-08-02 11:00,ZGSZ 021100Z AUTO 33002KT 5SM 25/22 A2971 RMK T02500220 IEM_DS3505
ZGSZ,2001-08-02 12:00,ZGSZ 021200Z AUTO 09004KT 3SM 25/24 A2974 RMK 60091 SLP084 T02470237 52026 IEM_DS3505
ZGSZ,2001-08-02 13:00,ZGSZ 021300Z AUTO 05006KT 7SM 25/22 A2977 RMK T02500220 IEM_DS3505
ZGSZ,2001-08-02 14:00,ZGSZ 021400Z AUTO 08004KT 5SM 24/21 A2980 RMK T02400210 IEM_DS3505
ZGSZ,2001-08-02 15:00,ZGSZ 021500Z AUTO 04004KT 7SM 24/22 A2980 RMK T02400220 IEM_DS3505
ZGSZ,2001-08-02 16:00,ZGSZ 021600Z AUTO 04006KT 7SM 24/22 A2977 RMK T02400220 IEM_DS3505
ZGSZ,2001-08-02 17:00,ZGSZ 021700Z AUTO 03006KT 6SM 24/21 A2977 RMK T02400210 IEM_DS3505
ZGSZ,2001-08-02 18:00,ZGSZ 021800Z AUTO 04002KT 6SM 25/24 A2980 RMK 60031 SLP088 T02470235 57005 IEM_DS3505
ZGSZ,2001-08-02 19:00,ZGSZ 021900Z AUTO 6SM 24/21 A2980 RMK T02400210 IEM_DS3505
ZGSZ,2001-08-02 20:00,ZGSZ 022000Z AUTO 01002KT 6SM 24/21 A2980 RMK T02400210 IEM_DS3505
ZGSZ,2001-08-02 21:00,ZGSZ 022100Z AUTO 00000KT 7SM 25/24 A2977 RMK 70160 SLP085 T02510237 57003 IEM_DS3505
ZGSZ,2001-08-02 22:00,ZGSZ 022200Z AUTO 03006KT 6SM 24/21 A2977 RMK T02400210 IEM_DS3505
ZGSZ,2001-08-02 23:00,ZGSZ 022300Z AUTO 01006KT 7SM 25/22 A2980 RMK T02500220 IEM_DS3505
ZGSZ,2001-08-03 00:00,ZGSZ 030000Z AUTO 04004KT 4SM 26/24 A2980 RMK 70160 SLP097 T02620240 52012 IEM_DS3505
ZGSZ,2001-08-03 01:00,ZGSZ 030100Z AUTO 03006KT 6SM 28/23 A2980 RMK T02800230 IEM_DS3505
ZGSZ,2001-08-03 02:00,ZGSZ 030200Z AUTO 05004KT 7SM 29/23 A2980 RMK T02900230 IEM_DS3505
ZGSZ,2001-08-03 03:00,ZGSZ 030300Z AUTO 07012KT 17SM 30/24 A2983 RMK SLP106 T02970245 52009 IEM_DS3505
ZGSZ,2001-08-03 04:00,ZGSZ 030400Z AUTO 18004KT 7SM 31/22 A2980 RMK T03100220 IEM_DS3505
ZGSZ,2001-08-03 05:00,ZGSZ 030500Z AUTO 25004KT 7SM 30/23 A2980 RMK T03000230 IEM_DS3505
ZGSZ,2001-08-03 06:00,ZGSZ 030600Z AUTO 11004KT 19SM 32/24 A2980 RMK SLP099 T03190243 57007 IEM_DS3505
ZGSZ,2001-08-03 07:00,ZGSZ 030700Z AUTO 29012KT 7SM 27/23 A2980 RMK T02700230 IEM_DS3505
ZGSZ,2001-08-03 08:00,ZGSZ 030800Z AUTO 32006KT 7SM 27/23 A2980 RMK T02700230 IEM_DS3505
ZGSZ,2001-08-03 09:00,ZGSZ 030900Z AUTO 14004KT 19SM 32/24 A2980 RMK SLP098 T03150240 57001 IEM_DS3505
ZGSZ,2001-08-03 10:00,ZGSZ 031000Z AUTO 7SM 28/23 A2983 RMK T02800230 IEM_DS3505
ZGSZ,2001-08-03 11:00,ZGSZ 031100Z AUTO 7SM 28/23 A2983 RMK T02800230 IEM_DS3505
ZGSZ,2001-08-03 12:00,ZGSZ 031200Z AUTO 07006KT 16SM 29/25 A2983 RMK SLP117 T02900246 52019 IEM_DS3505
ZGSZ,2001-08-03 13:00,ZGSZ 031300Z AUTO 03004KT 6SM 27/23 A2985 RMK T02700230 IEM_DS3505
ZGSZ,2001-08-03 14:00,ZGSZ 031400Z AUTO 05002KT 2SM 27/23 A2985 RMK T02700230 IEM_DS3505
ZGSZ,2001-08-03 15:00,ZGSZ 031500Z AUTO 02006KT 1 1/2SM 26/23 A2988 RMK T02600230 IEM_DS3505
ZGSZ,2001-08-03 16:00,ZGSZ 031600Z AUTO 02004KT 2SM 26/23 A2988 RMK T02600230 IEM_DS3505
ZGSZ,2001-08-03 17:00,ZGSZ 031700Z AUTO 03004KT 2 1/2SM 26/23 A2985 RMK T02600230 IEM_DS3505
ZGSZ,2001-08-03 18:00,ZGSZ 031800Z AUTO 04006KT 5SM 28/25 A2983 RMK SLP112 T02760248 57017 IEM_DS3505
ZGSZ,2001-08-03 19:00,ZGSZ 031900Z AUTO 04002KT 2 1/2SM 25/23 A2980 RMK T02500230 IEM_DS3505
ZGSZ,2001-08-03 20:00,ZGSZ 032000Z AUTO 36002KT 2SM 25/23 A2983 RMK T02500230 IEM_DS3505
ZGSZ,2001-08-03 21:00,ZGSZ 032100Z AUTO 04004KT 3SM 27/25 A2983 RMK SLP106 T02690248 57006 IEM_DS3505
ZGSZ,2001-08-03 22:00,ZGSZ 032200Z AUTO 03006KT 1 1/2SM 25/23 A2983 RMK T02500230 IEM_DS3505
ZGSZ,2001-08-03 23:00,ZGSZ 032300Z AUTO 2SM 26/23 A2983 RMK T02600230 IEM_DS3505
ZGSZ,2001-08-04 00:00,ZGSZ 040000Z AUTO 04004KT 4SM 27/24 A2983 RMK SLP119 T02730244 52013 IEM_DS3505
ZGSZ,2001-08-04 01:00,ZGSZ 040100Z AUTO 31004KT 4SM 29/24 A2985 RMK T02900240 IEM_DS3505
ZGSZ,2001-08-04 02:00,ZGSZ 040200Z AUTO 32008KT 2SM 29/24 A2985 RMK T02900240 IEM_DS3505
ZGSZ,2001-08-04 03:00,ZGSZ 040300Z AUTO 00000KT 7SM 32/24 A2985 RMK SLP116 T03190239 57002 IEM_DS3505
ZGSZ,2001-08-04 04:00,ZGSZ 040400Z AUTO 28006KT 2 1/2SM 31/23 A2985 RMK T03100230 IEM_DS3505
ZGSZ,2001-08-04 05:00,ZGSZ 040500Z AUTO 27006KT 31/23 A2983 RMK T03100230 IEM_DS3505
ZGSZ,2001-08-04 06:00,ZGSZ 040600Z AUTO 22002KT 5SM 32/25 A2983 RMK SLP107 T03230247 57009 IEM_DS3505
ZGSZ,2001-08-04 07:00,ZGSZ 040700Z AUTO 23004KT 7SM 32/24 A2983 RMK T03200240 IEM_DS3505
ZGSZ,2001-08-04 08:00,ZGSZ 040800Z AUTO 17006KT 7SM 31/23 A2980 RMK T03100230 IEM_DS3505
ZGSZ,2001-08-04 09:00,ZGSZ 040900Z AUTO 09006KT 12SM 33/25 A2977 RMK SLP096 T03300250 57011 IEM_DS3505
ZGSZ,2001-08-04 10:00,ZGSZ 041000Z AUTO 16006KT 7SM 30/24 A2980 RMK T03000240 IEM_DS3505
ZGSZ,2001-08-04 11:00,ZGSZ 041100Z AUTO 16004KT 7SM 29/25 A2980 RMK T02900250 IEM_DS3505
ZGSZ,2001-08-04 12:00,ZGSZ 041200Z AUTO 09006KT 9SM 30/23 A2980 RMK SLP108 T03000231 52011 IEM_DS3505
ZGSZ,2001-08-04 13:00,ZGSZ 041300Z AUTO 08004KT 29/22 A2983 RMK T02900220 IEM_DS3505
ZGSZ,2001-08-04 14:00,ZGSZ 041400Z AUTO 11006KT 7SM 29/22 A2983 RMK T02900220 IEM_DS3505
ZGSZ,2001-08-04 15:00,ZGSZ 041500Z AUTO 13006KT 7SM 28/22 A2985 RMK T02800220 IEM_DS3505
ZGSZ,2001-08-04 16:00,ZGSZ 041600Z AUTO 13004KT 7SM 28/23 A2983 RMK T02800230 IEM_DS3505
ZGSZ,2001-08-04 18:00,ZGSZ 041800Z AUTO 07006KT 7SM 28/25 RMK SLP106 T02840252 57013 IEM_DS3505
ZGSZ,2001-08-04 21:00,ZGSZ 042100Z AUTO 02004KT 5SM 28/25 A2983 RMK SLP106 T02830248 54000 IEM_DS3505
ZGSZ,2001-08-04 22:00,ZGSZ 042200Z AUTO 01004KT 7SM 26/23 A2983 RMK T02600230 IEM_DS3505
ZGSZ,2001-08-04 23:00,ZGSZ 042300Z AUTO 02004KT 4SM 27/23 A2983 RMK T02700230 IEM_DS3505
ZGSZ,2001-08-05 00:00,ZGSZ 050000Z AUTO 04004KT 4SM 28/25 A2983 RMK SLP115 T02840252 52008 IEM_DS3505
ZGSZ,2001-08-05 01:00,ZGSZ 050100Z AUTO 05006KT 7SM 30/23 A2983 RMK T03000230 IEM_DS3505
ZGSZ,2001-08-05 02:00,ZGSZ 050200Z AUTO 06004KT 7SM 31/23 A2983 RMK T03100230 IEM_DS3505
ZGSZ,2001-08-05 03:00,ZGSZ 050300Z AUTO 07006KT 19SM 31/26 A2983 RMK SLP112 T03120255 57002 IEM_DS3505
ZGSZ,2001-08-05 04:00,ZGSZ 050400Z AUTO 10006KT 7SM 32/23 A2983 RMK T03200230 IEM_DS3505
ZGSZ,2001-08-05 05:00,ZGSZ 050500Z AUTO 12006KT 7SM 33/22 A2980 RMK T03300220 IEM_DS3505
ZGSZ,2001-08-05 06:00,ZGSZ 050600Z AUTO 09006KT 19SM 32/25 A2980 RMK 60000 SLP100 T03250252 57012 IEM_DS3505
ZGSZ,2001-08-05 07:00,ZGSZ 050700Z AUTO 10008KT 7SM 34/22 A2977 RMK T03400220 IEM_DS3505
ZGSZ,2001-08-05 08:00,ZGSZ 050800Z AUTO 12012KT 7SM 34/23 A2974 RMK T03400230 IEM_DS3505
ZGSZ,2001-08-05 09:00,ZGSZ 050900Z AUTO 11006KT 19SM 33/25 A2974 RMK SLP084 T03280248 57016 IEM_DS3505
ZGSZ,2001-08-05 10:00,ZGSZ 051000Z AUTO 12010KT 7SM 32/22 A2974 RMK T03200220 IEM_DS3505
ZGSZ,2001-08-05 11:00,ZGSZ 051100Z AUTO 10012KT 6SM 31/22 A2974 RMK T03100220 IEM_DS3505
ZGSZ,2001-08-05 12:00,ZGSZ 051200Z AUTO 09004KT 16SM 30/25 A2977 RMK SLP094 T02960252 52009 IEM_DS3505
ZGSZ,2001-08-05 13:00,ZGSZ 051300Z AUTO 11010KT 6SM 29/23 A2977 RMK T02900230 IEM_DS3505
ZGSZ,2001-08-05 14:00,ZGSZ 051400Z AUTO 11006KT 6SM 29/23 A2980 RMK T02900230 IEM_DS3505
ZGSZ,2001-08-05 15:00,ZGSZ 051500Z AUTO 12004KT 6SM 29/23 A2983 RMK T02900230 IEM_DS3505
ZGSZ,2001-08-05 16:00,ZGSZ 051600Z AUTO 6SM 28/23 A2983 RMK T02800230 IEM_DS3505
ZGSZ,2001-08-05 17:00,ZGSZ 051700Z AUTO 12002KT 7SM 28/24 A2980 RMK T02800240 IEM_DS3505
ZGSZ,2001-08-05 18:00,ZGSZ 051800Z AUTO 00000KT 17SM 29/25 A2977 RMK SLP098 T02860252 57011 IEM_DS3505
ZGSZ,2001-08-05 19:00,ZGSZ 051900Z AUTO 04002KT 6SM 27/24 A2977 RMK T02700240 IEM_DS3505
ZGSZ,2001-08-05 21:00,ZGSZ 052100Z AUTO 04004KT 17SM 28/26 A2974 RMK 70001 SLP085 T02840255 57013 IEM_DS3505
ZGSZ,2001-08-05 22:00,ZGSZ 052200Z AUTO 36004KT 6SM 27/23 A2974 RMK T02700230 IEM_DS3505
ZGSZ,2001-08-06 00:00,ZGSZ 060000Z AUTO 04006KT 6SM 29/26 RMK 70001 SLP095 T02860258 52009 IEM_DS3505
ZGSZ,2001-08-06 02:00,ZGSZ 060200Z AUTO 27004KT 7SM 30/23 A2980 RMK T03000230 IEM_DS3505
ZGSZ,2001-08-06 03:00,ZGSZ 060300Z AUTO 27004KT 19SM 32/25 A2977 RMK SLP089 T03220254 57005 IEM_DS3505
ZGSZ,2001-08-06 04:00,ZGSZ 060400Z AUTO 24004KT 7SM 31/24 A2977 RMK T03100240 IEM_DS3505
ZGSZ,2001-08-06 05:00,ZGSZ 060500Z AUTO 22006KT 7SM 31/24 A2977 RMK T03100240 IEM_DS3505
ZGSZ,2001-08-06 06:00,ZGSZ 060600Z AUTO 04008KT 9SM 31/26 A2974 RMK 60003 SLP078 T03100257 57011 IEM_DS3505
ZGSZ,2001-08-06 07:00,ZGSZ 060700Z AUTO 19006KT 6SM 31/24 A2971 RMK T03100240 IEM_DS3505
ZGSZ,2001-08-06 08:00,ZGSZ 060800Z AUTO 18008KT 7SM 31/25 A2968 RMK T03100250 IEM_DS3505
ZGSZ,2001-08-06 09:00,ZGSZ 060900Z AUTO 32004KT 11SM 34/24 A2965 RMK SLP056 T03360240 57022 IEM_DS3505
ZGSZ,2001-08-06 10:00,ZGSZ 061000Z AUTO 18010KT 6SM 31/25 A2965 RMK T03100250 IEM_DS3505
ZGSZ,2001-08-06 11:00,ZGSZ 061100Z AUTO 18010KT 6SM 30/25 A2965 RMK T03000250 IEM_DS3505
ZGSZ,2001-08-06 12:00,ZGSZ 061200Z AUTO 09002KT 12SM 31/26 A2965 RMK SLP057 T03060263 52001 IEM_DS3505
ZGSZ,2001-08-06 13:00,ZGSZ 061300Z AUTO 18012KT 6SM 29/25 A2968 RMK T02900250 IEM_DS3505
ZGSZ,2001-08-06 14:00,ZGSZ 061400Z AUTO 17010KT 6SM 29/25 A2968 RMK T02900250 IEM_DS3505
ZGSZ,2001-08-06 15:00,ZGSZ 061500Z AUTO 17012KT 6SM 29/24 A2971 RMK T02900240 IEM_DS3505
ZGSZ,2001-08-06 16:00,ZGSZ 061600Z AUTO 18010KT 6SM 29/25 A2971 RMK T02900250 IEM_DS3505
ZGSZ,2001-08-06 17:00,ZGSZ 061700Z AUTO 17010KT 6SM 29/25 A2968 RMK T02900250 IEM_DS3505
ZGSZ,2001-08-06 18:00,ZGSZ 061800Z AUTO 22004KT 14SM 29/25 A2968 RMK SLP062 T02860254 57010 IEM_DS3505
ZGSZ,2001-08-06 19:00,ZGSZ 061900Z AUTO 22008KT 6SM 28/24 A2968 RMK T02800240 IEM_DS3505
ZGSZ,2001-08-06 21:00,ZGSZ 062100Z AUTO 20004KT 11SM 28/26 A2968 RMK 70003 SLP061 T02840255 57001 IEM_DS3505
ZGSZ,2001-08-06 22:00,ZGSZ 062200Z AUTO 25004KT 7SM 28/24 A2971 RMK T02800240 IEM_DS3505
ZGSZ,2001-08-06 23:00,ZGSZ 062300Z AUTO 25002KT 6SM 28/24 A2971 RMK T02800240 IEM_DS3505
ZGSZ,2001-08-07 00:00,ZGSZ 070000Z AUTO 22008KT 12SM 29/26 A2971 RMK 70003 SLP073 T02900255 52012 IEM_DS3505
ZGSZ,2001-08-07 01:00,ZGSZ 070100Z AUTO 24004KT 7SM 29/24 A2971 RMK T02900240 IEM_DS3505
ZGSZ,2001-08-07 02:00,ZGSZ 070200Z AUTO 25002KT 6SM 30/24 A2971 RMK T03000240 IEM_DS3505
ZGSZ,2001-08-07 03:00,ZGSZ 070300Z AUTO 27006KT 19SM 32/25 A2971 RMK SLP067 T03180246 57006 IEM_DS3505
ZGSZ,2001-08-07 04:00,ZGSZ 070400Z AUTO 20002KT 7SM 31/23 A2968 RMK T03100230 IEM_DS3505
ZGSZ,2001-08-07 05:00,ZGSZ 070500Z AUTO 23002KT 7SM 32/24 A2968 RMK T03200240 IEM_DS3505
ZGSZ,2001-08-07 06:00,ZGSZ 070600Z AUTO 22004KT 11SM 34/25 A2965 RMK SLP046 T03370247 57021 IEM_DS3505
ZGSZ,2001-08-07 07:00,ZGSZ 070700Z AUTO 20006KT 6SM 32/24 A2962 RMK T03200240 IEM_DS3505
ZGSZ,2001-08-07 08:00,ZGSZ 070800Z AUTO 20008KT 6SM 32/25 A2959 RMK T03200250 IEM_DS3505
ZGSZ,2001-08-07 09:00,ZGSZ 070900Z AUTO 20004KT 8SM 34/24 A2959 RMK SLP028 T03440235 57018 IEM_DS3505
ZGSZ,2001-08-07 10:00,ZGSZ 071000Z AUTO 19008KT 6SM 31/26 A2959 RMK T03100260 IEM_DS3505
ZGSZ,2001-08-07 11:00,ZGSZ 071100Z AUTO 19010KT 6SM 30/26 A2959 RMK T03000260 IEM_DS3505
ZGSZ,2001-08-07 12:00,ZGSZ 071200Z AUTO 22004KT 7SM 32/25 A2959 RMK SLP035 T03170254 52007 IEM_DS3505
ZGSZ,2001-08-07 14:00,ZGSZ 071400Z AUTO 17010KT 6SM 29/25 A2965 RMK T02900250 IEM_DS3505
ZGSZ,2001-08-07 15:00,ZGSZ 071500Z AUTO 16010KT 6SM 29/25 A2965 RMK T02900250 IEM_DS3505
ZGSZ,2001-08-07 16:00,ZGSZ 071600Z AUTO 18012KT 6SM 29/25 A2965 RMK T02900250 IEM_DS3505
ZGSZ,2001-08-07 17:00,ZGSZ 071700Z AUTO 18012KT 6SM 29/24 A2965 RMK T02900240 IEM_DS3505
ZGSZ,2001-08-07 18:00,ZGSZ 071800Z AUTO 22004KT 16SM 29/25 RMK SLP052 T02900246 54000 IEM_DS3505
ZGSZ,2001-08-07 19:00,ZGSZ 071900Z AUTO 20008KT 7SM 29/24 A2965 RMK T02900240 IEM_DS3505
ZGSZ,2001-08-07 20:00,ZGSZ 072000Z AUTO 21008KT 7SM 29/24 A2968 RMK T02900240 IEM_DS3505
ZGSZ,2001-08-07 21:00,ZGSZ 072100Z AUTO 20004KT 16SM 29/25 A2968 RMK SLP057 T02870249 52005 IEM_DS3505
ZGSZ,2001-08-07 22:00,ZGSZ 072200Z AUTO 22004KT 6SM 28/24 A2968 RMK T02800240 IEM_DS3505
ZGSZ,2001-08-07 23:00,ZGSZ 072300Z AUTO 26002KT 6SM 29/24 A2968 RMK T02900240 IEM_DS3505
ZGSZ,2001-08-08 00:00,ZGSZ 080000Z AUTO 22004KT 9SM 29/25 A2971 RMK SLP068 T02920253 52011 IEM_DS3505
ZGSZ,2001-08-08 01:00,ZGSZ 080100Z AUTO 22004KT 6SM 30/23 A2971 RMK T03000230 IEM_DS3505
ZGSZ,2001-08-08 02:00,ZGSZ 080200Z AUTO 28002KT 6SM 31/23 A2971 RMK T03100230 IEM_DS3505
ZGSZ,2001-08-08 03:00,ZGSZ 080300Z AUTO 22004KT 19SM 32/23 A2971 RMK SLP072 T03250227 52004 IEM_DS3505
ZGSZ,2001-08-08 04:00,ZGSZ 080400Z AUTO 23006KT 7SM 31/24 A2971 RMK T03100240 IEM_DS3505
ZGSZ,2001-08-08 05:00,ZGSZ 080500Z AUTO 21006KT 6SM 32/23 A2968 RMK T03200230 IEM_DS3505
ZGSZ,2001-08-08 06:00,ZGSZ 080600Z AUTO 22006KT 17SM 34/23 A2965 RMK SLP055 T03420232 57017 IEM_DS3505
ZGSZ,2001-08-08 07:00,ZGSZ 080700Z AUTO 19006KT 6SM 33/23 A2965 RMK T03300230 IEM_DS3505
ZGSZ,2001-08-08 08:00,ZGSZ 080800Z AUTO 19008KT 6SM 32/24 A2962 RMK T03200240 IEM_DS3505
ZGSZ,2001-08-08 09:00,ZGSZ 080900Z AUTO 25006KT 17SM 34/25 A2962 RMK SLP040 T03410246 57015 IEM_DS3505
ZGSZ,2001-08-08 10:00,ZGSZ 081000Z AUTO 18008KT 6SM 31/23 A2962 RMK T03100230 IEM_DS3505
ZGSZ,2001-08-08 11:00,ZGSZ 081100Z AUTO 19008KT 6SM 30/25 A2965 RMK T03000250 IEM_DS3505
ZGSZ,2001-08-08 12:00,ZGSZ 081200Z AUTO 14006KT 16SM 31/26 A2968 RMK SLP062 T03120262 52022 IEM_DS3505
ZGSZ,2001-08-08 13:00,ZGSZ 081300Z AUTO 6SM 30/25 A2971 RMK T03000250 IEM_DS3505
ZGSZ,2001-08-08 14:00,ZGSZ 081400Z AUTO 17004KT 7SM 30/25 A2971 RMK T03000250 IEM_DS3505
ZGSZ,2001-08-08 15:00,ZGSZ 081500Z AUTO 13006KT 6SM 30/24 A2971 RMK T03000240 IEM_DS3505
ZGSZ,2001-08-08 16:00,ZGSZ 081600Z AUTO 12006KT 6SM 30/24 A2971 RMK T03000240 IEM_DS3505
ZGSZ,2001-08-08 17:00,ZGSZ 081700Z AUTO 12006KT 6SM 30/23 A2971 RMK T03000230 IEM_DS3505
ZGSZ,2001-08-08 18:00,ZGSZ 081800Z AUTO 09004KT 19SM 29/26 RMK SLP071 T02910255 57008 IEM_DS3505
ZGSZ,2001-08-08 19:00,ZGSZ 081900Z AUTO 10004KT 6SM 29/23 A2971 RMK T02900230 IEM_DS3505
ZGSZ,2001-08-08 20:00,ZGSZ 082000Z AUTO 11004KT 6SM 29/23 A2971 RMK T02900230 IEM_DS3505
ZGSZ,2001-08-08 21:00,ZGSZ 082100Z AUTO 04004KT 19SM 29/25 A2974 RMK SLP077 T02870249 52006 IEM_DS3505
ZGSZ,2001-08-08 22:00,ZGSZ 082200Z AUTO 07002KT 6SM 27/23 A2974 RMK T02700230 IEM_DS3505
ZGSZ,2001-08-08 23:00,ZGSZ 082300Z AUTO 04004KT 6SM 29/23 A2974 RMK T02900230 IEM_DS3505
ZGSZ,2001-08-09 00:00,ZGSZ 090000Z AUTO 04006KT 11SM 29/24 A2977 RMK SLP088 T02930245 52011 IEM_DS3505
ZGSZ,2001-08-09 01:00,ZGSZ 090100Z AUTO 06006KT 7SM 31/23 A2977 RMK T03100230 IEM_DS3505
ZGSZ,2001-08-09 02:00,ZGSZ 090200Z AUTO 07004KT 7SM 32/23 A2977 RMK T03200230 IEM_DS3505
ZGSZ,2001-08-09 03:00,ZGSZ 090300Z AUTO 09008KT 19SM 32/23 A2974 RMK SLP083 T03250234 57005 IEM_DS3505
ZGSZ,2001-08-09 04:00,ZGSZ 090400Z AUTO 15006KT 7SM 33/23 A2974 RMK T03300230 IEM_DS3505
ZGSZ,2001-08-09 05:00,ZGSZ 090500Z AUTO 20008KT 7SM 32/24 A2971 RMK T03200240 IEM_DS3505
ZGSZ,2001-08-09 06:00,ZGSZ 090600Z AUTO 14006KT 19SM 34/24 A2971 RMK SLP074 T03360241 57009 IEM_DS3505
ZGSZ,2001-08-09 08:00,ZGSZ 090800Z AUTO 12008KT 7SM 34/20 A2965 RMK T03400200 IEM_DS3505
ZGSZ,2001-08-09 09:00,ZGSZ 090900Z AUTO 14006KT 19SM 34/25 RMK SLP056 T03370247 57018 IEM_DS3505
ZGSZ,2001-08-09 10:00,ZGSZ 091000Z AUTO 10010KT 7SM 33/21 A2968 RMK T03300210 IEM_DS3505
ZGSZ,2001-08-09 11:00,ZGSZ 091100Z AUTO 12012KT 7SM 32/22 A2968 RMK T03200220 IEM_DS3505
ZGSZ,2001-08-09 12:00,ZGSZ 091200Z AUTO 09006KT 19SM 30/26 A2971 RMK SLP079 T03020256 52023 IEM_DS3505
ZGSZ,2001-08-09 13:00,ZGSZ 091300Z AUTO 11010KT 7SM 30/23 A2974 RMK T03000230 IEM_DS3505
ZGSZ,2001-08-09 14:00,ZGSZ 091400Z AUTO 09008KT 6SM 30/23 A2974 RMK T03000230 IEM_DS3505
ZGSZ,2001-08-09 15:00,ZGSZ 091500Z AUTO 12008KT 7SM 30/23 A2977 RMK T03000230 IEM_DS3505
ZGSZ,2001-08-09 16:00,ZGSZ 091600Z AUTO 10006KT 6SM 29/23 A2974 RMK T02900230 IEM_DS3505
ZGSZ,2001-08-09 18:00,ZGSZ 091800Z AUTO 11004KT 19SM 29/26 RMK 60003 SLP077 T02930257 57015 IEM_DS3505
ZGSZ,2001-08-09 19:00,ZGSZ 091900Z AUTO 19006KT 6SM 28/23 A2971 RMK T02800230 IEM_DS3505
ZGSZ,2001-08-09 20:00,ZGSZ 092000Z AUTO 09008KT 6SM 29/23 A2971 RMK T02900230 IEM_DS3505
ZGSZ,2001-08-09 21:00,ZGSZ 092100Z AUTO 07004KT 19SM 29/26 A2971 RMK 70003 SLP071 T02900255 57006 IEM_DS3505
ZGSZ,2001-08-09 22:00,ZGSZ 092200Z AUTO 06004KT 7SM 28/23 A2971 RMK T02800230 IEM_DS3505
ZGSZ,2001-08-09 23:00,ZGSZ 092300Z AUTO 03004KT 7SM 29/24 A2971 RMK T02900240 IEM_DS3505
ZGSZ,2001-08-10 00:00,ZGSZ 100000Z AUTO 09004KT 11SM 30/25 A2974 RMK 70003 SLP081 T02960252 52010 IEM_DS3505
ZGSZ,2001-08-10 01:00,ZGSZ 100100Z AUTO 09006KT 7SM 30/23 A2974 RMK T03000230 IEM_DS3505
ZGSZ,2001-08-10 02:00,ZGSZ 100200Z AUTO 09010KT 7SM 31/22 A2974 RMK T03100220 IEM_DS3505
ZGSZ,2001-08-10 03:00,ZGSZ 100300Z AUTO 16006KT 19SM 31/25 A2974 RMK SLP089 T03100250 52008 IEM_DS3505
ZGSZ,2001-08-10 04:00,ZGSZ 100400Z AUTO 11012KT 7SM 34/22 A2974 RMK T03400220 IEM_DS3505
ZGSZ,2001-08-10 05:00,ZGSZ 100500Z AUTO 10014KT 7SM 33/22 A2971 RMK T03300220 IEM_DS3505
ZGSZ,2001-08-10 06:00,ZGSZ 100600Z AUTO 14010KT 19SM 32/25 A2971 RMK 60003 SLP075 T03190246 57014 IEM_DS3505
ZGSZ,2001-08-10 07:00,ZGSZ 100700Z AUTO 11016KT 7SM 32/22 A2971 RMK T03200220 IEM_DS3505
ZGSZ,2001-08-10 08:00,ZGSZ 100800Z AUTO 12012KT 7SM 33/22 A2971 RMK T03300220 IEM_DS3505
ZGSZ,2001-08-10 09:00,ZGSZ 100900Z AUTO 14004KT 19SM 31/26 A2968 RMK SLP069 T03070257 57006 IEM_DS3505
ZGSZ,2001-08-10 10:00,ZGSZ 101000Z AUTO 11012KT 7SM 31/21 A2968 RMK T03100210 IEM_DS3505
ZGSZ,2001-08-10 11:00,ZGSZ 101100Z AUTO 12014KT 7SM 30/22 A2971 RMK T03000220 IEM_DS3505
ZGSZ,2001-08-10 12:00,ZGSZ 101200Z AUTO 04006KT 9SM 28/26 A2974 RMK 60004 SLP081 T02850256 52012 IEM_DS3505
ZGSZ,2001-08-10 13:00,ZGSZ 101300Z AUTO 09008KT 6SM 29/23 A2977 RMK T02900230 IEM_DS3505
ZGSZ,2001-08-10 14:00,ZGSZ 101400Z AUTO 10006KT 6SM 29/23 A2980 RMK T02900230 IEM_DS3505
ZGSZ,2001-08-10 15:00,ZGSZ 101500Z AUTO 10008KT 6SM 29/23 A2980 RMK T02900230 IEM_DS3505
ZGSZ,2001-08-10 16:00,ZGSZ 101600Z AUTO 12004KT 7SM 28/24 A2980 RMK T02800240 IEM_DS3505
ZGSZ,2001-08-10 17:00,ZGSZ 101700Z AUTO 06002KT 7SM 28/24 A2980 RMK T02800240 IEM_DS3505
ZGSZ,2001-08-10 18:00,ZGSZ 101800Z AUTO 14002KT 12SM 28/26 RMK 60004 SLP093 T02840259 57010 IEM_DS3505
ZGSZ,2001-08-10 19:00,ZGSZ 101900Z AUTO 11004KT 7SM 28/24 A2977 RMK T02800240 IEM_DS3505
ZGSZ,2001-08-10 20:00,ZGSZ 102000Z AUTO 10004KT 7SM 28/24 A2977 RMK T02800240 IEM_DS3505
ZGSZ,2001-08-10 21:00,ZGSZ 102100Z AUTO 11004KT 16SM 28/25 A2974 RMK 70009 SLP084 T02830252 57009 IEM_DS3505
ZGSZ,2001-08-10 22:00,ZGSZ 102200Z AUTO 12004KT 7SM 28/23 A2977 RMK T02800230 IEM_DS3505
ZGSZ,2001-08-10 23:00,ZGSZ 102300Z AUTO 11006KT 7SM 28/23 A2977 RMK T02800230 IEM_DS3505
ZGSZ,2001-08-11 00:00,ZGSZ 110000Z AUTO 16002KT 19SM 28/25 A2980 RMK 60004 SLP105 T02850250 52020 IEM_DS3505
ZGSZ,2001-08-11 01:00,ZGSZ 110100Z AUTO 13008KT 7SM 30/23 A2980 RMK T03000230 IEM_DS3505
ZGSZ,2001-08-11 02:00,ZGSZ 110200Z AUTO 17008KT 7SM 31/23 A2980 RMK T03100230 IEM_DS3505
ZGSZ,2001-08-11 03:00,ZGSZ 110300Z AUTO 09004KT 17SM 30/25 A2980 RMK SLP106 T03000248 52001 IEM_DS3505
ZGSZ,2001-08-11 04:00,ZGSZ 110400Z AUTO 19008KT 7SM 31/23 A2980 RMK T03100230 IEM_DS3505
ZGSZ,2001-08-11 05:00,ZGSZ 110500Z AUTO 17010KT 7SM 31/23 A2980 RMK T03100230 IEM_DS3505
ZGSZ,2001-08-11 06:00,ZGSZ 110600Z AUTO 14004KT 19SM 31/25 A2977 RMK 60003 SLP095 T03070251 57010 IEM_DS3505
ZGSZ,2001-08-11 07:00,ZGSZ 110700Z AUTO 18008KT 7SM 30/23 A2977 RMK T03000230 IEM_DS3505
ZGSZ,2001-08-11 12:00,ZGSZ 111200Z AUTO 16002KT 16SM 30/25 A2977 RMK SLP096 T02980247 52018 IEM_DS3505
ZGSZ,2001-08-11 13:00,ZGSZ 111300Z AUTO 15006KT 6SM 29/23 A2980 RMK T02900230 IEM_DS3505
ZGSZ,2001-08-11 15:00,ZGSZ 111500Z AUTO 04002KT 6SM 29/22 A2983 RMK T02900220 IEM_DS3505
ZGSZ,2001-08-11 16:00,ZGSZ 111600Z AUTO 14004KT 6SM 28/23 A2983 RMK T02800230 IEM_DS3505
ZGSZ,2001-08-11 18:00,ZGSZ 111800Z AUTO 00000KT 12SM 28/25 RMK SLP100 T02830249 57008 IEM_DS3505
ZGSZ,2001-08-11 21:00,ZGSZ 112100Z AUTO 00000KT 9SM 28/25 A2977 RMK 70004 SLP081 T02780251 57018 IEM_DS3505
ZGSZ,2001-08-11 22:00,ZGSZ 112200Z AUTO 4SM 27/23 A2977 RMK T02700230 IEM_DS3505
ZGSZ,2001-08-11 23:00,ZGSZ 112300Z AUTO 4SM 27/23 A2977 RMK T02700230 IEM_DS3505
ZGSZ,2001-08-12 00:00,ZGSZ 120000Z AUTO 32002KT 10SM 28/25 A2980 RMK 70003 SLP098 T02820254 52016 IEM_DS3505
ZGSZ,2001-08-12 01:00,ZGSZ 120100Z AUTO 01004KT 3SM 30/24 A2980 RMK T03000240 IEM_DS3505
ZGSZ,2001-08-12 02:00,ZGSZ 120200Z AUTO 33004KT 3SM 30/23 A2980 RMK T03000230 IEM_DS3505
ZGSZ,2001-08-12 03:00,ZGSZ 120300Z AUTO 04006KT 8SM 31/24 A2977 RMK SLP096 T03100243 57001 IEM_DS3505
ZGSZ,2001-08-12 04:00,ZGSZ 120400Z AUTO 08002KT 33/21 A2977 RMK T03300210 IEM_DS3505
ZGSZ,2001-08-12 05:00,ZGSZ 120500Z AUTO 25006KT 7SM 32/24 A2974 RMK T03200240 IEM_DS3505
ZGSZ,2001-08-12 06:00,ZGSZ 120600Z AUTO 14006KT 17SM 33/24 A2971 RMK SLP071 T03340242 57025 IEM_DS3505
ZGSZ,2001-08-12 07:00,ZGSZ 120700Z AUTO 20008KT 7SM 32/25 A2971 RMK T03200250 IEM_DS3505
ZGSZ,2001-08-12 08:00,ZGSZ 120800Z AUTO 19008KT 7SM 30/25 A2968 RMK T03000250 IEM_DS3505
ZGSZ,2001-08-12 09:00,ZGSZ 120900Z AUTO 18006KT 16SM 33/25 A2968 RMK SLP061 T03310252 57010 IEM_DS3505
ZGSZ,2001-08-12 10:00,ZGSZ 121000Z AUTO 19010KT 7SM 30/24 A2971 RMK T03000240 IEM_DS3505
ZGSZ,2001-08-12 11:00,ZGSZ 121100Z AUTO 19008KT 7SM 30/25 A2971 RMK T03000250 IEM_DS3505
ZGSZ,2001-08-12 12:00,ZGSZ 121200Z AUTO 27002KT 11SM 28/24 RMK SLP088 T02780239 52026 IEM_DS3505
ZGSZ,2001-08-12 13:00,ZGSZ 121300Z AUTO 27010KT 7SM 27/20 A2980 RMK T02700200 IEM_DS3505
ZGSZ,2001-08-12 14:00,ZGSZ 121400Z AUTO 7SM 26/22 A2980 RMK T02600220 IEM_DS3505
ZGSZ,2001-08-12 15:00,ZGSZ 121500Z AUTO 27002KT 11SM 28/24 A2980 RMK SLP088 T02780239 52026 IEM_DS3505
ZGSZ,2001-08-12 16:00,ZGSZ 121600Z AUTO 06004KT 6SM 26/22 A2977 RMK T02600220 IEM_DS3505
ZGSZ,2001-08-12 17:00,ZGSZ 121700Z AUTO 03002KT 5SM 26/22 A2977 RMK T02600220 IEM_DS3505
ZGSZ,2001-08-12 18:00,ZGSZ 121800Z AUTO 04006KT 5SM 26/24 A2977 RMK 60051 SLP088 T02620242 57016 IEM_DS3505
ZGSZ,2001-08-12 19:00,ZGSZ 121900Z AUTO 02004KT 4SM 26/22 A2974 RMK T02600220 IEM_DS3505
ZGSZ,2001-08-12 20:00,ZGSZ 122000Z AUTO 03008KT 5SM 26/22 A2974 RMK T02600220 IEM_DS3505
ZGSZ,2001-08-12 21:00,ZGSZ 122100Z AUTO 04006KT 6SM 26/23 A2974 RMK 70052 SLP076 T02600234 57012 IEM_DS3505
ZGSZ,2001-08-12 22:00,ZGSZ 122200Z AUTO 01006KT 6SM 25/22 A2974 RMK T02500220 IEM_DS3505
ZGSZ,2001-08-12 23:00,ZGSZ 122300Z AUTO 03004KT 6SM 26/22 A2977 RMK T02600220 IEM_DS3505
ZGSZ,2001-08-13 00:00,ZGSZ 130000Z AUTO 04004KT 7SM 27/23 A2977 RMK 60000 SLP091 T02670232 52014 IEM_DS3505
ZGSZ,2001-08-13 01:00,ZGSZ 130100Z AUTO 04004KT 3SM 28/23 A2977 RMK T02800230 IEM_DS3505
ZGSZ,2001-08-13 03:00,ZGSZ 130300Z AUTO 04008KT 16SM 31/23 A2980 RMK SLP095 T03140231 52004 IEM_DS3505
ZGSZ,2001-08-13 04:00,ZGSZ 130400Z AUTO 02004KT 6SM 32/21 A2977 RMK T03200210 IEM_DS3505
ZGSZ,2001-08-13 05:00,ZGSZ 130500Z AUTO 04004KT 7SM 34/21 A2974 RMK T03400210 IEM_DS3505
ZGSZ,2001-08-13 06:00,ZGSZ 130600Z AUTO 18004KT 19SM 34/23 A2971 RMK SLP067 T03390232 57027 IEM_DS3505
ZGSZ,2001-08-13 07:00,ZGSZ 130700Z AUTO 27008KT 7SM 33/22 A2968 RMK T03300220 IEM_DS3505
ZGSZ,2001-08-13 08:00,ZGSZ 130800Z AUTO 27006KT 7SM 29/21 A2968 RMK T02900210 IEM_DS3505
ZGSZ,2001-08-13 09:00,ZGSZ 130900Z AUTO 32006KT 12SM 31/23 A2971 RMK SLP065 T03140232 57002 IEM_DS3505
ZGSZ,2001-08-13 10:00,ZGSZ 131000Z AUTO 36008KT 7SM 28/22 A2974 RMK T02800220 IEM_DS3505
ZGSZ,2001-08-13 11:00,ZGSZ 131100Z AUTO 03004KT 7SM 27/23 A2971 RMK T02700230 IEM_DS3505
ZGSZ,2001-08-13 12:00,ZGSZ 131200Z AUTO 04004KT 9SM 29/24 A2974 RMK 60003 SLP083 T02880236 52017 IEM_DS3505
ZGSZ,2001-08-13 13:00,ZGSZ 131300Z AUTO 09002KT 7SM 28/21 A2977 RMK T02800210 IEM_DS3505
ZGSZ,2001-08-13 14:00,ZGSZ 131400Z AUTO 6SM 27/23 A2980 RMK T02700230 IEM_DS3505
ZGSZ,2001-08-13 15:00,ZGSZ 131500Z AUTO 01002KT 6SM 27/23 A2980 RMK T02700230 IEM_DS3505
ZGSZ,2001-08-13 16:00,ZGSZ 131600Z AUTO 01002KT 6SM 27/23 A2980 RMK T02700230 IEM_DS3505
ZGSZ,2001-08-13 17:00,ZGSZ 131700Z AUTO 08002KT 6SM 27/23 A2977 RMK T02700230 IEM_DS3505
ZGSZ,2001-08-13 18:00,ZGSZ 131800Z AUTO 34006KT 10SM 28/24 RMK SLP091 T02770237 57005 IEM_DS3505
ZGSZ,2001-08-13 19:00,ZGSZ 131900Z AUTO 03006KT 6SM 26/22 A2974 RMK T02600220 IEM_DS3505
ZGSZ,2001-08-13 20:00,ZGSZ 132000Z AUTO 02004KT 6SM 26/22 A2974 RMK T02600220 IEM_DS3505
ZGSZ,2001-08-13 21:00,ZGSZ 132100Z AUTO 04002KT 8SM 27/24 A2974 RMK 70003 SLP085 T02740237 57006 IEM_DS3505
ZGSZ,2001-08-13 22:00,ZGSZ 132200Z AUTO 02004KT 6SM 26/22 A2974 RMK T02600220 IEM_DS3505
ZGSZ,2001-08-13 23:00,ZGSZ 132300Z AUTO 6SM 27/21 A2977 RMK T02700210 IEM_DS3505
ZGSZ,2001-08-14 00:00,ZGSZ 140000Z AUTO 09002KT 9SM 28/24 A2977 RMK 70003 SLP093 T02770238 52007 IEM_DS3505
ZGSZ,2001-08-14 01:00,ZGSZ 140100Z AUTO 6SM 30/22 A2980 RMK T03000220 IEM_DS3505
ZGSZ,2001-08-14 03:00,ZGSZ 140300Z AUTO 07006KT 14SM 32/24 A2980 RMK SLP093 T03200236 52001 IEM_DS3505
ZGSZ,2001-08-14 04:00,ZGSZ 140400Z AUTO 25006KT 7SM 31/22 A2977 RMK T03100220 IEM_DS3505
ZGSZ,2001-08-14 05:00,ZGSZ 140500Z AUTO 2 1/2SM 32/22 A2974 RMK T03200220 IEM_DS3505
ZGSZ,2001-08-14 06:00,ZGSZ 140600Z AUTO 22004KT 14SM 32/23 A2974 RMK SLP075 T03210232 57018 IEM_DS3505
ZGSZ,2001-08-14 07:00,ZGSZ 140700Z AUTO 14004KT 7SM 28/23 A2971 RMK T02800230 IEM_DS3505
ZGSZ,2001-08-14 08:00,ZGSZ 140800Z AUTO 16006KT 7SM 29/24 A2968 RMK T02900240 IEM_DS3505
ZGSZ,2001-08-14 09:00,ZGSZ 140900Z AUTO 16004KT 9SM 31/24 A2968 RMK SLP064 T03140245 57011 IEM_DS3505
ZGSZ,2001-08-14 10:00,ZGSZ 141000Z AUTO 20008KT 7SM 30/24 A2968 RMK T03000240 IEM_DS3505
ZGSZ,2001-08-14 11:00,ZGSZ 141100Z AUTO 21006KT 6SM 29/24 A2971 RMK T02900240 IEM_DS3505
ZGSZ,2001-08-14 12:00,ZGSZ 141200Z AUTO 00000KT 7SM 30/25 A2974 RMK 60003 SLP078 T03030253 52014 IEM_DS3505
ZGSZ,2001-08-14 13:00,ZGSZ 141300Z AUTO 21006KT 6SM 29/24 A2974 RMK T02900240 IEM_DS3505
ZGSZ,2001-08-14 15:00,ZGSZ 141500Z AUTO 32002KT 7SM 25/22 A2980 RMK T02500220 IEM_DS3505
ZGSZ,2001-08-14 16:00,ZGSZ 141600Z AUTO 12002KT 7SM 26/22 A2977 RMK T02600220 IEM_DS3505
ZGSZ,2001-08-14 17:00,ZGSZ 141700Z AUTO 04004KT 6SM 26/22 A2974 RMK T02600220 IEM_DS3505
ZGSZ,2001-08-14 18:00,ZGSZ 141800Z AUTO 32004KT 4SM 28/24 A2974 RMK SLP081 T02780245 57014 IEM_DS3505
ZGSZ,2001-08-14 19:00,ZGSZ 141900Z AUTO 4SM 26/23 A2971 RMK T02600230 IEM_DS3505
ZGSZ,2001-08-14 20:00,ZGSZ 142000Z AUTO 26002KT 4SM 26/23 A2971 RMK T02600230 IEM_DS3505
ZGSZ,2001-08-14 21:00,ZGSZ 142100Z AUTO 04004KT 4SM 28/24 A2971 RMK 70003 SLP070 T02760239 57011 IEM_DS3505
ZGSZ,2001-08-14 22:00,ZGSZ 142200Z AUTO 08002KT 2SM 26/23 A2971 RMK T02600230 IEM_DS3505
ZGSZ,2001-08-14 23:00,ZGSZ 142300Z AUTO 3SM 26/23 A2971 RMK T02600230 IEM_DS3505
ZGSZ,2001-08-15 00:00,ZGSZ 150000Z AUTO 09002KT 6SM 28/24 A2971 RMK 70003 SLP075 T02790243 52005 IEM_DS3505
ZGSZ,2001-08-15 01:00,ZGSZ 150100Z AUTO 02006KT 2SM 29/23 A2971 RMK T02900230 IEM_DS3505
ZGSZ,2001-08-15 02:00,ZGSZ 150200Z AUTO 01004KT 4SM 30/ A2974 RMK IEM_DS3505
ZGSZ,2001-08-15 03:00,ZGSZ 150300Z AUTO 18004KT 5SM 32/24 A2971 RMK SLP074 T03190238 57001 IEM_DS3505
ZGSZ,2001-08-15 04:00,ZGSZ 150400Z AUTO 29008KT 2 1/2SM 31/23 A2971 RMK T03100230 IEM_DS3505
ZGSZ,2001-08-15 05:00,ZGSZ 150500Z AUTO 29006KT 32/22 A2968 RMK T03200220 IEM_DS3505
ZGSZ,2001-08-15 06:00,ZGSZ 150600Z AUTO 04006KT 6SM 33/24 A2965 RMK SLP051 T03280242 57023 IEM_DS3505
ZGSZ,2001-08-15 07:00,ZGSZ 150700Z AUTO 26006KT 3SM 32/23 A2962 RMK T03200230 IEM_DS3505
ZGSZ,2001-08-15 08:00,ZGSZ 150800Z AUTO 26004KT 3SM 32/23 A2959 RMK T03200230 IEM_DS3505
ZGSZ,2001-08-15 09:00,ZGSZ 150900Z AUTO 32006KT 4SM 28/24 A2959 RMK SLP044 T02760245 57008 IEM_DS3505
ZGSZ,2001-08-15 10:00,ZGSZ 151000Z AUTO 13004KT 29/21 A2962 RMK T02900210 IEM_DS3505
ZGSZ,2001-08-15 11:00,ZGSZ 151100Z AUTO 09008KT 5SM 28/21 A2962 RMK T02800210 IEM_DS3505
ZGSZ,2001-08-15 12:00,ZGSZ 151200Z AUTO 34004KT 4SM 28/25 A2965 RMK 60043 SLP059 T02780248 52015 IEM_DS3505
ZGSZ,2001-08-15 13:00,ZGSZ 151300Z AUTO 34004KT 4SM 28/21 A2968 RMK 60043 T02800210 52015 IEM_DS3505
ZGSZ,2001-08-15 14:00,ZGSZ 151400Z AUTO 16002KT 7SM 27/22 A2971 RMK T02700220 IEM_DS3505
ZGSZ,2001-08-15 15:00,ZGSZ 151500Z AUTO 17004KT 7SM 27/22 A2971 RMK T02700220 IEM_DS3505
ZGSZ,2001-08-15 16:00,ZGSZ 151600Z AUTO 01004KT 7SM 27/22 A2968 RMK T02700220 IEM_DS3505
ZGSZ,2001-08-15 17:00,ZGSZ 151700Z AUTO 03006KT 7SM 26/22 A2965 RMK T02600220 IEM_DS3505
ZGSZ,2001-08-15 18:00,ZGSZ 151800Z AUTO 34004KT 7SM 27/24 RMK SLP050 T02690239 57017 IEM_DS3505
ZGSZ,2001-08-15 20:00,ZGSZ 152000Z AUTO 02004KT 4SM 26/22 A2962 RMK T02600220 IEM_DS3505
ZGSZ,2001-08-15 21:00,ZGSZ 152100Z AUTO 04006KT 7SM 26/24 A2962 RMK 70050 SLP043 T02600237 57008 IEM_DS3505
ZGSZ,2001-08-15 22:00,ZGSZ 152200Z AUTO 36004KT 4SM 26/22 A2962 RMK T02600220 IEM_DS3505
ZGSZ,2001-08-15 23:00,ZGSZ 152300Z AUTO 02004KT 4SM 26/22 A2962 RMK T02600220 IEM_DS3505
ZGSZ,2001-08-16 00:00,ZGSZ 160000Z AUTO 04006KT 5SM 27/24 A2965 RMK 60008 SLP051 T02680241 52008 IEM_DS3505
ZGSZ,2001-08-16 01:00,ZGSZ 160100Z AUTO 02006KT 4SM 28/23 A2965 RMK T02800230 IEM_DS3505
ZGSZ,2001-08-16 02:00,ZGSZ 160200Z AUTO 03006KT 7SM 30/24 A2965 RMK T03000240 IEM_DS3505
ZGSZ,2001-08-16 03:00,ZGSZ 160300Z AUTO 07004KT 4SM 31/26 A2965 RMK SLP048 T03120262 57002 IEM_DS3505
ZGSZ,2001-08-16 04:00,ZGSZ 160400Z AUTO 30004KT 7SM 32/24 A2962 RMK T03200240 IEM_DS3505
ZGSZ,2001-08-16 05:00,ZGSZ 160500Z AUTO 27006KT 7SM 32/23 A2962 RMK T03200230 IEM_DS3505
ZGSZ,2001-08-16 06:00,ZGSZ 160600Z AUTO 14006KT 8SM 32/24 A2959 RMK SLP028 T03250242 57020 IEM_DS3505
ZGSZ,2001-08-16 07:00,ZGSZ 160700Z AUTO 08017KT 1SM A2959 RMK IEM_DS3505
ZGSZ,2001-08-16 09:00,ZGSZ 160900Z AUTO 22004KT 3SM 30/25 A2953 RMK SLP017 T02950246 57011 IEM_DS3505
ZGSZ,2001-08-16 10:00,ZGSZ 161000Z AUTO 12004KT 2 1/2SM 29/24 A2956 RMK T02900240 IEM_DS3505
ZGSZ,2001-08-16 11:00,ZGSZ 161100Z AUTO 35012KT 4SM 27/22 A2959 RMK T02700220 IEM_DS3505
ZGSZ,2001-08-16 12:00,ZGSZ 161200Z AUTO 18002KT 2 1/2SM 26/24 A2962 RMK 60039 SLP038 T02580239 52020 IEM_DS3505
ZGSZ,2001-08-16 13:00,ZGSZ 161300Z AUTO 32006KT 6SM 26/22 A2962 RMK T02600220 IEM_DS3505
ZGSZ,2001-08-16 14:00,ZGSZ 161400Z AUTO 33004KT 4SM 26/23 A2965 RMK T02600230 IEM_DS3505
ZGSZ,2001-08-16 15:00,ZGSZ 161500Z AUTO 36002KT 4SM 26/22 A2965 RMK T02600220 IEM_DS3505
ZGSZ,2001-08-16 16:00,ZGSZ 161600Z AUTO 05002KT 4SM 26/22 A2962 RMK T02600220 IEM_DS3505
ZGSZ,2001-08-16 17:00,ZGSZ 161700Z AUTO 4SM 26/22 A2962 RMK T02600220 IEM_DS3505
ZGSZ,2001-08-16 18:00,ZGSZ 161800Z AUTO 34004KT 4SM 26/24 A2959 RMK 60008 SLP033 T02640243 57015 IEM_DS3505
ZGSZ,2001-08-16 19:00,ZGSZ 161900Z AUTO 36006KT 4SM 26/23 A2959 RMK T02600230 IEM_DS3505
ZGSZ,2001-08-16 20:00,ZGSZ 162000Z AUTO 02004KT 4SM 26/22 A2959 RMK T02600220 IEM_DS3505
ZGSZ,2001-08-16 21:00,ZGSZ 162100Z AUTO 04004KT 4SM 26/24 A2959 RMK 70048 SLP035 T02620239 52002 IEM_DS3505
ZGSZ,2001-08-16 22:00,ZGSZ 162200Z AUTO 36006KT 2SM 26/22 A2959 RMK T02600220 IEM_DS3505
ZGSZ,2001-08-17 00:00,ZGSZ 170000Z AUTO 04006KT 2 1/2SM 27/24 A2962 RMK 70048 SLP043 T02680242 52007 IEM_DS3505
ZGSZ,2001-08-17 01:00,ZGSZ 170100Z AUTO 03006KT 29/23 A2962 RMK T02900230 IEM_DS3505
ZGSZ,2001-08-17 02:00,ZGSZ 170200Z AUTO 03006KT 7SM 30/23 A2965 RMK T03000230 IEM_DS3505
ZGSZ,2001-08-17 03:00,ZGSZ 170300Z AUTO 07010KT 9SM 31/24 A2962 RMK SLP044 T03130244 52002 IEM_DS3505
ZGSZ,2001-08-17 04:00,ZGSZ 170400Z AUTO 02004KT 7SM 33/22 A2962 RMK T03300220 IEM_DS3505
ZGSZ,2001-08-17 05:00,ZGSZ 170500Z AUTO 01004KT 7SM 33/22 A2959 RMK T03300220 IEM_DS3505
ZGSZ,2001-08-17 06:00,ZGSZ 170600Z AUTO 09006KT 19SM 33/24 A2959 RMK SLP027 T03330237 57017 IEM_DS3505
ZGSZ,2001-08-17 07:00,ZGSZ 170700Z AUTO 27006KT 7SM 31/24 A2956 RMK T03100240 IEM_DS3505
ZGSZ,2001-08-17 08:00,ZGSZ 170800Z AUTO 27006KT 3SM 32/24 A2953 RMK T03200240 IEM_DS3505
ZGSZ,2001-08-17 09:00,ZGSZ 170900Z AUTO 14006KT 19SM 33/24 A2953 RMK SLP014 T03280242 57013 IEM_DS3505
ZGSZ,2001-08-17 10:00,ZGSZ 171000Z AUTO 16008KT 4SM 29/25 A2953 RMK T02900250 IEM_DS3505
ZGSZ,2001-08-17 11:00,ZGSZ 171100Z AUTO 34010KT 1SM 24/21 A2962 RMK T02400210 IEM_DS3505
ZGSZ,2001-08-17 12:00,ZGSZ 171200Z AUTO 14004KT 8SM 30/25 A2962 RMK SLP033 T02960247 52019 IEM_DS3505
ZGSZ,2001-08-17 13:00,ZGSZ 171300Z AUTO 05002KT 5SM 26/22 A2965 RMK T02600220 IEM_DS3505
ZGSZ,2001-08-17 14:00,ZGSZ 171400Z AUTO 09004KT 7SM 27/22 A2965 RMK T02700220 IEM_DS3505
ZGSZ,2001-08-17 15:00,ZGSZ 171500Z AUTO 33002KT 6SM 26/23 A2965 RMK T02600230 IEM_DS3505
ZGSZ,2001-08-17 16:00,ZGSZ 171600Z AUTO 17002KT 5SM 26/23 A2965 RMK T02600230 IEM_DS3505
ZGSZ,2001-08-17 17:00,ZGSZ 171700Z AUTO 36002KT 5SM 27/23 A2962 RMK T02700230 IEM_DS3505
ZGSZ,2001-08-17 18:00,ZGSZ 171800Z AUTO 07002KT 7SM 29/24 A2962 RMK SLP036 T02860245 57015 IEM_DS3505
ZGSZ,2001-08-17 19:00,ZGSZ 171900Z AUTO 32002KT 4SM 26/23 A2959 RMK T02600230 IEM_DS3505
ZGSZ,2001-08-17 20:00,ZGSZ 172000Z AUTO 35004KT 4SM 26/23 A2959 RMK T02600230 IEM_DS3505
ZGSZ,2001-08-17 21:00,ZGSZ 172100Z AUTO 04004KT 5SM 28/25 A2962 RMK SLP030 T02800249 57006 IEM_DS3505
ZGSZ,2001-08-17 22:00,ZGSZ 172200Z AUTO 02004KT 4SM 26/23 A2962 RMK T02600230 IEM_DS3505
ZGSZ,2001-08-17 23:00,ZGSZ 172300Z AUTO 02006KT 5SM 26/22 A2962 RMK T02600220 IEM_DS3505
ZGSZ,2001-08-18 00:00,ZGSZ 180000Z AUTO 34004KT 9SM 28/24 A2962 RMK SLP047 T02770244 52017 IEM_DS3505
ZGSZ,2001-08-18 01:00,ZGSZ 180100Z AUTO 01004KT 6SM 30/23 A2965 RMK T03000230 IEM_DS3505
ZGSZ,2001-08-18 02:00,ZGSZ 180200Z AUTO 03006KT 6SM 30/24 A2965 RMK T03000240 IEM_DS3505
ZGSZ,2001-08-18 03:00,ZGSZ 180300Z AUTO 04006KT 6SM 32/25 RMK SLP050 T03150252 52003 IEM_DS3505
ZGSZ,2001-08-18 04:00,ZGSZ 180400Z AUTO 29006KT 7SM 31/24 A2965 RMK T03100240 IEM_DS3505
ZGSZ,2001-08-18 05:00,ZGSZ 180500Z AUTO 29006KT 7SM 32/23 A2962 RMK T03200230 IEM_DS3505
ZGSZ,2001-08-18 06:00,ZGSZ 180600Z AUTO 32004KT 11SM 34/24 A2959 RMK SLP029 T03370243 57021 IEM_DS3505
ZGSZ,2001-08-18 07:00,ZGSZ 180700Z AUTO 29010KT 7SM 32/23 A2956 RMK T03200230 IEM_DS3505
ZGSZ,2001-08-18 08:00,ZGSZ 180800Z AUTO 29010KT 7SM 32/22 A2953 RMK T03200220 IEM_DS3505
ZGSZ,2001-08-18 09:00,ZGSZ 180900Z AUTO 27004KT 9SM 31/24 A2953 RMK SLP018 T03120244 57011 IEM_DS3505
ZGSZ,2001-08-18 10:00,ZGSZ 181000Z AUTO 15008KT 7SM 27/23 A2956 RMK T02700230 IEM_DS3505
ZGSZ,2001-08-18 11:00,ZGSZ 181100Z AUTO 12010KT 7SM 29/22 A2956 RMK T02900220 IEM_DS3505
ZGSZ,2001-08-18 12:00,ZGSZ 181200Z AUTO 14002KT 7SM 29/24 A2959 RMK SLP035 T02940240 52017 IEM_DS3505
ZGSZ,2001-08-18 13:00,ZGSZ 181300Z AUTO 14004KT 2SM 28/23 A2962 RMK T02800230 IEM_DS3505
ZGSZ,2001-08-18 14:00,ZGSZ 181400Z AUTO 14004KT 2SM 28/23 A2965 RMK T02800230 IEM_DS3505
ZGSZ,2001-08-18 15:00,ZGSZ 181500Z AUTO 14004KT 2SM 28/23 A2965 RMK T02800230 IEM_DS3505
ZGSZ,2001-08-18 16:00,ZGSZ 181600Z AUTO 2 1/2SM 28/23 A2965 RMK T02800230 IEM_DS3505
ZGSZ,2001-08-18 17:00,ZGSZ 181700Z AUTO 2 1/2SM 28/23 A2965 RMK T02800230 IEM_DS3505
ZGSZ,2001-08-18 18:00,ZGSZ 181800Z AUTO 09002KT 12SM 29/24 RMK SLP043 T02900245 57009 IEM_DS3505
ZGSZ,2001-08-18 21:00,ZGSZ 182100Z AUTO 09002KT 9SM 29/24 A2962 RMK SLP038 T02860243 57005 IEM_DS3505
ZGSZ,2001-08-18 22:00,ZGSZ 182200Z AUTO 01002KT 6SM 27/23 A2962 RMK T02700230 IEM_DS3505
ZGSZ,2001-08-18 23:00,ZGSZ 182300Z AUTO 03004KT 2SM 27/24 A2962 RMK T02700240 IEM_DS3505
ZGSZ,2001-08-19 00:00,ZGSZ 190000Z AUTO 34006KT 7SM 29/25 A2965 RMK SLP050 T02880248 52012 IEM_DS3505
ZGSZ,2001-08-19 01:00,ZGSZ 190100Z AUTO 33006KT 2SM 29/24 A2965 RMK T02900240 IEM_DS3505
ZGSZ,2001-08-19 02:00,ZGSZ 190200Z AUTO 34004KT 2 1/2SM 29/23 A2965 RMK T02900230 IEM_DS3505
ZGSZ,2001-08-19 03:00,ZGSZ 190300Z AUTO 04004KT 3SM 30/25 A2965 RMK SLP048 T03040254 57002 IEM_DS3505
ZGSZ,2001-08-19 04:00,ZGSZ 190400Z AUTO 03006KT 2 1/2SM 29/24 A2965 RMK T02900240 IEM_DS3505
ZGSZ,2001-08-19 05:00,ZGSZ 190500Z AUTO 34006KT 2SM 31/23 A2962 RMK T03100230 IEM_DS3505
ZGSZ,2001-08-19 06:00,ZGSZ 190600Z AUTO 04006KT 4SM 31/24 A2962 RMK SLP038 T03100242 57010 IEM_DS3505
ZGSZ,2001-08-19 07:00,ZGSZ 190700Z AUTO 4SM 29/24 A2959 RMK T02900240 IEM_DS3505
ZGSZ,2001-08-19 08:00,ZGSZ 190800Z AUTO 27004KT 31/23 A2959 RMK T03100230 IEM_DS3505
ZGSZ,2001-08-19 09:00,ZGSZ 190900Z AUTO 16002KT 4SM 33/24 A2956 RMK SLP022 T03260241 57016 IEM_DS3505
ZGSZ,2001-08-19 10:00,ZGSZ 191000Z AUTO 00000KT 3SM 30/23 A2956 RMK SLP045 T03000230 52023 IEM_DS3505
ZGSZ,2001-08-19 11:00,ZGSZ 191100Z AUTO 18008KT 7SM 28/22 A2962 RMK T02800220 IEM_DS3505
ZGSZ,2001-08-19 12:00,ZGSZ 191200Z AUTO 00000KT 3SM 29/25 A2962 RMK SLP045 T02900249 52023 IEM_DS3505
ZGSZ,2001-08-19 13:00,ZGSZ 191300Z AUTO 12004KT 1 1/2SM 28/23 A2965 RMK T02800230 IEM_DS3505
ZGSZ,2001-08-19 14:00,ZGSZ 191400Z AUTO 13004KT 1 1/2SM 28/23 A2968 RMK T02800230 IEM_DS3505
ZGSZ,2001-08-19 15:00,ZGSZ 191500Z AUTO 12004KT 2SM 28/23 A2971 RMK T02800230 IEM_DS3505
ZGSZ,2001-08-19 16:00,ZGSZ 191600Z AUTO 13004KT 1 1/2SM 28/24 A2971 RMK T02800240 IEM_DS3505
ZGSZ,2001-08-19 17:00,ZGSZ 191700Z AUTO 12004KT 1 1/2SM 28/22 A2968 RMK T02800220 IEM_DS3505
ZGSZ,2001-08-19 18:00,ZGSZ 191800Z AUTO 00000KT 7SM 29/24 A2968 RMK SLP060 T02870244 57006 IEM_DS3505
ZGSZ,2001-08-19 21:00,ZGSZ 192100Z AUTO 04004KT 4SM 28/24 A2968 RMK SLP062 T02820245 52002 IEM_DS3505
ZGSZ,2001-08-19 22:00,ZGSZ 192200Z AUTO 02004KT 6SM 26/23 A2968 RMK T02600230 IEM_DS3505
ZGSZ,2001-08-19 23:00,ZGSZ 192300Z AUTO 02006KT 3SM 27/23 A2968 RMK T02700230 IEM_DS3505
ZGSZ,2001-08-20 00:00,ZGSZ 200000Z AUTO 32004KT 2SM 28/25 A2968 RMK SLP062 T02840246 54000 IEM_DS3505
ZGSZ,2001-08-20 01:00,ZGSZ 200100Z AUTO 04002KT 30/22 A2968 RMK T03000220 IEM_DS3505
ZGSZ,2001-08-20 02:00,ZGSZ 200200Z AUTO 35002KT 4SM 31/22 A2971 RMK T03100220 IEM_DS3505
ZGSZ,2001-08-20 03:00,ZGSZ 200300Z AUTO 32004KT 4SM 32/25 A2971 RMK SLP067 T03230247 52005 IEM_DS3505
ZGSZ,2001-08-20 04:00,ZGSZ 200400Z AUTO 26006KT 3SM 31/24 A2968 RMK T03100240 IEM_DS3505
ZGSZ,2001-08-20 05:00,ZGSZ 200500Z AUTO 26006KT 2 1/2SM 32/24 A2968 RMK T03200240 IEM_DS3505
ZGSZ,2001-08-20 06:00,ZGSZ 200600Z AUTO 20004KT 2 1/2SM 34/24 A2965 RMK SLP052 T03380241 57015 IEM_DS3505
ZGSZ,2001-08-20 07:00,ZGSZ 200700Z AUTO 25006KT 2 1/2SM 33/23 A2962 RMK T03300230 IEM_DS3505
ZGSZ,2001-08-20 08:00,ZGSZ 200800Z AUTO 20006KT 2 1/2SM 32/25 A2962 RMK T03200250 IEM_DS3505
ZGSZ,2001-08-20 09:00,ZGSZ 200900Z AUTO 22006KT 2 1/2SM 32/24 A2962 RMK SLP039 T03250245 57013 IEM_DS3505
ZGSZ,2001-08-20 10:00,ZGSZ 201000Z AUTO 16006KT 6SM 30/24 A2962 RMK T03000240 IEM_DS3505
ZGSZ,2001-08-20 11:00,ZGSZ 201100Z AUTO 16006KT 30/24 A2965 RMK T03000240 IEM_DS3505
ZGSZ,2001-08-20 12:00,ZGSZ 201200Z AUTO 11002KT 5SM 30/22 A2965 RMK 60003 SLP048 T02980225 52009 IEM_DS3505
ZGSZ,2001-08-20 13:00,ZGSZ 201300Z AUTO 13004KT 6SM 29/22 A2965 RMK T02900220 IEM_DS3505
ZGSZ,2001-08-20 14:00,ZGSZ 201400Z AUTO 16004KT 29/22 A2968 RMK T02900220 IEM_DS3505
ZGSZ,2001-08-20 15:00,ZGSZ 201500Z AUTO 13004KT 2SM 29/22 A2968 RMK T02900220 IEM_DS3505
ZGSZ,2001-08-20 16:00,ZGSZ 201600Z AUTO 14004KT 2SM 28/22 A2968 RMK T02800220 IEM_DS3505
ZGSZ,2001-08-20 18:00,ZGSZ 201800Z AUTO 09004KT 5SM 29/25 RMK SLP062 T02900246 54000 IEM_DS3505
ZGSZ,2001-08-20 19:00,ZGSZ 201900Z AUTO 11004KT 2 1/2SM 28/23 A2968 RMK T02800230 IEM_DS3505
ZGSZ,2001-08-20 20:00,ZGSZ 202000Z AUTO 12004KT 2 1/2SM 28/23 A2968 RMK T02800230 IEM_DS3505
ZGSZ,2001-08-20 21:00,ZGSZ 202100Z AUTO 07002KT 5SM 29/25 A2968 RMK 70003 SLP060 T02870247 57002 IEM_DS3505
ZGSZ,2001-08-20 22:00,ZGSZ 202200Z AUTO 4SM 27/23 A2968 RMK T02700230 IEM_DS3505
ZGSZ,2001-08-20 23:00,ZGSZ 202300Z AUTO 03002KT 4SM 27/23 A2968 RMK T02700230 IEM_DS3505
ZGSZ,2001-08-21 00:00,ZGSZ 210000Z AUTO 04004KT 4SM 29/25 A2968 RMK 70003 SLP064 T02890251 52004 IEM_DS3505
ZGSZ,2001-08-21 01:00,ZGSZ 210100Z AUTO 02002KT 5SM 31/22 A2968 RMK T03100220 IEM_DS3505
ZGSZ,2001-08-21 02:00,ZGSZ 210200Z AUTO 32002KT 5SM 31/23 A2968 RMK T03100230 IEM_DS3505
ZGSZ,2001-08-21 03:00,ZGSZ 210300Z AUTO 07004KT 5SM 33/24 A2968 RMK SLP062 T03260240 57002 IEM_DS3505
ZGSZ,2001-08-21 04:00,ZGSZ 210400Z AUTO 26004KT 5SM 31/24 A2965 RMK T03100240 IEM_DS3505
ZGSZ,2001-08-21 05:00,ZGSZ 210500Z AUTO 27006KT 7SM 32/22 A2965 RMK T03200220 IEM_DS3505
ZGSZ,2001-08-21 06:00,ZGSZ 210600Z AUTO 14004KT 4SM 35/24 A2962 RMK SLP039 T03460245 57023 IEM_DS3505
ZGSZ,2001-08-21 07:00,ZGSZ 210700Z AUTO 26006KT 2 1/2SM 33/25 A2959 RMK T03300250 IEM_DS3505
ZGSZ,2001-08-21 08:00,ZGSZ 210800Z AUTO 23004KT 2SM 33/25 A2959 RMK T03300250 IEM_DS3505
ZGSZ,2001-08-21 09:00,ZGSZ 210900Z AUTO 22004KT 5SM 34/26 RMK SLP023 T03420256 57016 IEM_DS3505
ZGSZ,2001-08-21 10:00,ZGSZ 211000Z AUTO 18008KT 3SM 31/25 A2956 RMK T03100250 IEM_DS3505
ZGSZ,2001-08-21 11:00,ZGSZ 211100Z AUTO 17008KT 4SM 30/25 A2959 RMK T03000250 IEM_DS3505
ZGSZ,2001-08-21 12:00,ZGSZ 211200Z AUTO 14006KT 8SM 31/25 A2959 RMK SLP038 T03080246 52015 IEM_DS3505
ZGSZ,2001-08-21 13:00,ZGSZ 211300Z AUTO 18008KT 3SM 30/24 A2962 RMK T03000240 IEM_DS3505
ZGSZ,2001-08-21 14:00,ZGSZ 211400Z AUTO 17008KT 3SM 29/24 A2962 RMK T02900240 IEM_DS3505
ZGSZ,2001-08-21 15:00,ZGSZ 211500Z AUTO 17004KT 4SM 29/24 A2962 RMK T02900240 IEM_DS3505
ZGSZ,2001-08-21 16:00,ZGSZ 211600Z AUTO 15004KT 4SM 28/24 A2962 RMK T02800240 IEM_DS3505
ZGSZ,2001-08-21 17:00,ZGSZ 211700Z AUTO 14004KT 4SM 28/24 A2962 RMK T02800240 IEM_DS3505
ZGSZ,2001-08-21 18:00,ZGSZ 211800Z AUTO 16002KT 6SM 29/25 A2962 RMK SLP040 T02890254 57008 IEM_DS3505
ZGSZ,2001-08-21 19:00,ZGSZ 211900Z AUTO 19004KT 6SM 28/24 A2962 RMK T02800240 IEM_DS3505
ZGSZ,2001-08-21 20:00,ZGSZ 212000Z AUTO 6SM 28/24 A2962 RMK T02800240 IEM_DS3505
ZGSZ,2001-08-21 21:00,ZGSZ 212100Z AUTO 00000KT 5SM 28/26 A2962 RMK SLP035 T02830255 57005 IEM_DS3505
ZGSZ,2001-08-21 22:00,ZGSZ 212200Z AUTO 07002KT 4SM 27/24 A2962 RMK T02700240 IEM_DS3505
ZGSZ,2001-08-21 23:00,ZGSZ 212300Z AUTO 3SM 28/24 A2962 RMK T02800240 IEM_DS3505
ZGSZ,2001-08-22 00:00,ZGSZ 220000Z AUTO 09004KT 5SM 29/26 RMK SLP046 T02890255 52011 IEM_DS3505
ZGSZ,2001-08-22 01:00,ZGSZ 220100Z AUTO 27004KT 4SM 29/24 A2965 RMK T02900240 IEM_DS3505
ZGSZ,2001-08-22 02:00,ZGSZ 220200Z AUTO 27004KT 5SM 30/25 A2965 RMK T03000250 IEM_DS3505
ZGSZ,2001-08-22 03:00,ZGSZ 220300Z AUTO 32002KT 4SM 33/25 A2962 RMK SLP040 T03280253 57006 IEM_DS3505
ZGSZ,2001-08-22 04:00,ZGSZ 220400Z AUTO 25004KT 6SM 32/24 A2962 RMK T03200240 IEM_DS3505
ZGSZ,2001-08-22 05:00,ZGSZ 220500Z AUTO 25004KT 6SM 33/22 A2959 RMK T03300220 IEM_DS3505
ZGSZ,2001-08-22 06:00,ZGSZ 220600Z AUTO 20004KT 2 1/2SM 34/26 A2956 RMK SLP022 T03350265 57018 IEM_DS3505
ZGSZ,2001-08-22 07:00,ZGSZ 220700Z AUTO 21006KT 6SM 33/24 A2953 RMK T03300240 IEM_DS3505
ZGSZ,2001-08-22 08:00,ZGSZ 220800Z AUTO 23006KT 5SM 33/24 A2953 RMK T03300240 IEM_DS3505
ZGSZ,2001-08-22 09:00,ZGSZ 220900Z AUTO 27006KT 4SM 34/24 A2953 RMK SLP008 T03420236 57014 IEM_DS3505
ZGSZ,2001-08-22 10:00,ZGSZ 221000Z AUTO 18008KT 5SM 31/25 A2953 RMK T03100250 IEM_DS3505
ZGSZ,2001-08-22 11:00,ZGSZ 221100Z AUTO 17010KT 7SM 31/25 A2956 RMK T03100250 IEM_DS3505
ZGSZ,2001-08-22 12:00,ZGSZ 221200Z AUTO 18004KT 3SM 32/26 A2956 RMK SLP024 T03190255 52016 IEM_DS3505
ZGSZ,2001-08-22 13:00,ZGSZ 221300Z AUTO 16010KT 6SM 30/24 A2959 RMK T03000240 IEM_DS3505
ZGSZ,2001-08-22 14:00,ZGSZ 221400Z AUTO 15008KT 6SM 29/25 A2959 RMK T02900250 IEM_DS3505
ZGSZ,2001-08-22 15:00,ZGSZ 221500Z AUTO 15006KT 6SM 29/25 A2959 RMK T02900250 IEM_DS3505
ZGSZ,2001-08-22 16:00,ZGSZ 221600Z AUTO 15006KT 5SM 29/24 A2959 RMK T02900240 IEM_DS3505
ZGSZ,2001-08-22 17:00,ZGSZ 221700Z AUTO 16008KT 6SM 29/24 A2959 RMK T02900240 IEM_DS3505
ZGSZ,2001-08-22 18:00,ZGSZ 221800Z AUTO 20004KT 5SM 30/25 RMK SLP025 T02960251 57001 IEM_DS3505
ZGSZ,2001-08-22 19:00,ZGSZ 221900Z AUTO 17008KT 6SM 29/26 A2959 RMK T02900260 IEM_DS3505
ZGSZ,2001-08-22 20:00,ZGSZ 222000Z AUTO 19006KT 6SM 29/25 A2959 RMK T02900250 IEM_DS3505
ZGSZ,2001-08-22 21:00,ZGSZ 222100Z AUTO 00000KT 4SM 29/26 A2959 RMK SLP030 T02940255 52005 IEM_DS3505
ZGSZ,2001-08-22 22:00,ZGSZ 222200Z AUTO 16002KT 3SM 28/25 A2959 RMK T02800250 IEM_DS3505
ZGSZ,2001-08-22 23:00,ZGSZ 222300Z AUTO 2 1/2SM 29/25 A2959 RMK T02900250 IEM_DS3505
ZGSZ,2001-08-23 00:00,ZGSZ 230000Z AUTO 00000KT 4SM 30/26 RMK SLP034 T03000264 52004 IEM_DS3505
ZGSZ,2001-08-23 01:00,ZGSZ 230100Z AUTO 24002KT 2 1/2SM 31/24 A2959 RMK T03100240 IEM_DS3505
ZGSZ,2001-08-23 02:00,ZGSZ 230200Z AUTO 24002KT 4SM 31/24 A2959 RMK T03100240 IEM_DS3505
ZGSZ,2001-08-23 03:00,ZGSZ 230300Z AUTO 25004KT 3SM 33/27 A2956 RMK SLP025 T03300267 57009 IEM_DS3505
ZGSZ,2001-08-23 04:00,ZGSZ 230400Z AUTO 21004KT 32/25 A2956 RMK T03200250 IEM_DS3505
ZGSZ,2001-08-23 05:00,ZGSZ 230500Z AUTO 20004KT 33/26 A2956 RMK T03300260 IEM_DS3505
ZGSZ,2001-08-23 06:00,ZGSZ 230600Z AUTO 22006KT 3SM 35/24 A2953 RMK SLP012 T03480244 57013 IEM_DS3505
ZGSZ,2001-08-23 07:00,ZGSZ 230700Z AUTO 18008KT 33/25 A2950 RMK T03300250 IEM_DS3505
ZGSZ,2001-08-23 08:00,ZGSZ 230800Z AUTO 18010KT 5SM 33/26 A2950 RMK T03300260 IEM_DS3505
ZGSZ,2001-08-23 09:00,ZGSZ 230900Z AUTO 18006KT 3SM 35/23 A2950 RMK SLP997 T03500232 57015 IEM_DS3505
ZGSZ,2001-08-23 10:00,ZGSZ 231000Z AUTO 18010KT 5SM 31/26 A2950 RMK T03100260 IEM_DS3505
ZGSZ,2001-08-23 11:00,ZGSZ 231100Z AUTO 17010KT 5SM 31/26 A2950 RMK T03100260 IEM_DS3505
ZGSZ,2001-08-23 12:00,ZGSZ 231200Z AUTO 18004KT 2 1/2SM 32/27 A2953 RMK SLP013 T03210268 52016 IEM_DS3505
ZGSZ,2001-08-23 13:00,ZGSZ 231300Z AUTO 16008KT 4SM 31/26 A2956 RMK T03100260 IEM_DS3505
ZGSZ,2001-08-23 14:00,ZGSZ 231400Z AUTO 17008KT 4SM 30/26 A2956 RMK T03000260 IEM_DS3505
ZGSZ,2001-08-23 15:00,ZGSZ 231500Z AUTO 16006KT 3SM 30/26 A2956 RMK T03000260 IEM_DS3505
ZGSZ,2001-08-23 16:00,ZGSZ 231600Z AUTO 17006KT 2 1/2SM 30/26 A2956 RMK T03000260 IEM_DS3505
ZGSZ,2001-08-23 17:00,ZGSZ 231700Z AUTO 18006KT 2 1/2SM 30/26 A2953 RMK T03000260 IEM_DS3505
ZGSZ,2001-08-23 18:00,ZGSZ 231800Z AUTO 22004KT 2 1/2SM 30/26 RMK SLP011 T03020259 57012 IEM_DS3505
ZGSZ,2001-08-23 19:00,ZGSZ 231900Z AUTO 17008KT 2 1/2SM 30/25 A2953 RMK T03000250 IEM_DS3505
ZGSZ,2001-08-23 20:00,ZGSZ 232000Z AUTO 17006KT 2 1/2SM 29/26 A2953 RMK T02900260 IEM_DS3505
ZGSZ,2001-08-23 21:00,ZGSZ 232100Z AUTO 18002KT 2 1/2SM 30/26 A2953 RMK SLP017 T02960260 52006 IEM_DS3505
ZGSZ,2001-08-23 22:00,ZGSZ 232200Z AUTO 17004KT 2 1/2SM 29/25 A2956 RMK T02900250 IEM_DS3505
ZGSZ,2001-08-23 23:00,ZGSZ 232300Z AUTO 17004KT 2 1/2SM 29/26 A2956 RMK T02900260 IEM_DS3505
ZGSZ,2001-08-24 00:00,ZGSZ 240000Z AUTO 22004KT 4SM 30/26 A2956 RMK SLP019 T02980263 52002 IEM_DS3505
ZGSZ,2001-08-24 01:00,ZGSZ 240100Z AUTO 19006KT 3SM 31/26 A2956 RMK T03100260 IEM_DS3505
ZGSZ,2001-08-24 02:00,ZGSZ 240200Z AUTO 18006KT 3SM 31/26 A2959 RMK T03100260 IEM_DS3505
ZGSZ,2001-08-24 03:00,ZGSZ 240300Z AUTO 20006KT 4SM 33/25 A2959 RMK SLP028 T03340247 52009 IEM_DS3505
ZGSZ,2001-08-24 04:00,ZGSZ 240400Z AUTO 18008KT 7SM 33/26 A2956 RMK T03300260 IEM_DS3505
ZGSZ,2001-08-24 05:30,ZGSZ 240530Z AUTO 17008KT 6SM 32/25 A2953 RMK T03200250 IEM_DS3505
ZGSZ,2001-08-24 06:00,ZGSZ 240600Z AUTO 25008KT 6SM 34/26 A2953 RMK SLP007 T03410257 57021 IEM_DS3505
ZGSZ,2001-08-24 07:00,ZGSZ 240700Z AUTO 17010KT 6SM 33/25 A2950 RMK T03300250 IEM_DS3505
ZGSZ,2001-08-24 08:00,ZGSZ 240800Z AUTO 17010KT 6SM 33/24 A2950 RMK T03300240 IEM_DS3505
ZGSZ,2001-08-24 09:00,ZGSZ 240900Z AUTO 22006KT 7SM 35/24 A2950 RMK SLP003 T03460242 57004 IEM_DS3505
ZGSZ,2001-08-24 10:00,ZGSZ 241000Z AUTO 17014KT 6SM 31/24 A2950 RMK T03100240 IEM_DS3505
ZGSZ,2001-08-24 11:00,ZGSZ 241100Z AUTO 18012KT 6SM 31/25 A2953 RMK T03100250 IEM_DS3505
ZGSZ,2001-08-24 12:00,ZGSZ 241200Z AUTO 22004KT 5SM 31/26 A2953 RMK SLP015 T03140259 52012 IEM_DS3505
ZGSZ,2001-08-24 13:00,ZGSZ 241300Z AUTO 17010KT 6SM 30/25 A2956 RMK T03000250 IEM_DS3505
ZGSZ,2001-08-24 14:00,ZGSZ 241400Z AUTO 17008KT 7SM 30/25 A2956 RMK T03000250 IEM_DS3505
ZGSZ,2001-08-24 15:00,ZGSZ 241500Z AUTO 17008KT 7SM 30/25 A2956 RMK T03000250 IEM_DS3505
ZGSZ,2001-08-24 16:00,ZGSZ 241600Z AUTO 19004KT 7SM 30/25 A2956 RMK T03000250 IEM_DS3505
ZGSZ,2001-08-24 17:00,ZGSZ 241700Z AUTO 18006KT 7SM 30/25 A2956 RMK T03000250 IEM_DS3505
ZGSZ,2001-08-24 18:00,ZGSZ 241800Z AUTO 11002KT 5SM 30/26 RMK SLP021 T02980261 57004 IEM_DS3505
ZGSZ,2001-08-24 19:00,ZGSZ 241900Z AUTO 13004KT 7SM 29/25 A2956 RMK T02900250 IEM_DS3505
ZGSZ,2001-08-24 20:00,ZGSZ 242000Z AUTO 11004KT 5SM 29/25 A2956 RMK T02900250 IEM_DS3505
ZGSZ,2001-08-24 21:00,ZGSZ 242100Z AUTO 09002KT 4SM 29/26 A2956 RMK SLP023 T02930263 52002 IEM_DS3505
ZGSZ,2001-08-24 22:00,ZGSZ 242200Z AUTO 12006KT 4SM 29/24 A2956 RMK T02900240 IEM_DS3505
ZGSZ,2001-08-24 23:00,ZGSZ 242300Z AUTO 10004KT 4SM 29/24 A2959 RMK T02900240 IEM_DS3505
ZGSZ,2001-08-25 00:00,ZGSZ 250000Z AUTO 11002KT 5SM 30/26 A2959 RMK SLP021 T02980261 57004 IEM_DS3505
ZGSZ,2001-08-25 01:00,ZGSZ 250100Z AUTO 17006KT 7SM 31/24 A2962 RMK T03100240 IEM_DS3505
ZGSZ,2001-08-25 02:00,ZGSZ 250200Z AUTO 18006KT 7SM 31/25 A2962 RMK T03100250 IEM_DS3505
ZGSZ,2001-08-25 03:00,ZGSZ 250300Z AUTO 29006KT 6SM 32/25 A2962 RMK SLP037 T03240248 57001 IEM_DS3505
ZGSZ,2001-08-25 04:00,ZGSZ 250400Z AUTO 20008KT 7SM 32/24 A2959 RMK T03200240 IEM_DS3505
ZGSZ,2001-08-25 05:00,ZGSZ 250500Z AUTO 19008KT 7SM 32/24 A2959 RMK T03200240 IEM_DS3505
ZGSZ,2001-08-25 06:00,ZGSZ 250600Z AUTO 25004KT 7SM 32/24 A2956 RMK 60000 SLP020 T03240245 57017 IEM_DS3505
ZGSZ,2001-08-25 07:00,ZGSZ 250700Z AUTO 19008KT 6SM 31/24 A2956 RMK T03100240 IEM_DS3505
ZGSZ,2001-08-25 08:00,ZGSZ 250800Z AUTO 20008KT 7SM 31/24 A2953 RMK T03100240 IEM_DS3505
ZGSZ,2001-08-25 09:00,ZGSZ 250900Z AUTO 14004KT 8SM 33/25 A2956 RMK SLP016 T03260246 57004 IEM_DS3505
ZGSZ,2001-08-25 10:00,ZGSZ 251000Z AUTO 19008KT 7SM 31/24 A2956 RMK T03100240 IEM_DS3505
ZGSZ,2001-08-25 11:00,ZGSZ 251100Z AUTO 18006KT 7SM 30/24 A2959 RMK T03000240 IEM_DS3505
ZGSZ,2001-08-25 12:00,ZGSZ 251200Z AUTO 16002KT 6SM 31/24 A2959 RMK 60003 SLP031 T03080237 52015 IEM_DS3505
ZGSZ,2001-08-25 13:00,ZGSZ 251300Z AUTO 15004KT 6SM 30/23 A2962 RMK T03000230 IEM_DS3505
ZGSZ,2001-08-25 14:00,ZGSZ 251400Z AUTO 6SM 30/24 A2962 RMK T03000240 IEM_DS3505
ZGSZ,2001-08-25 15:00,ZGSZ 251500Z AUTO 09004KT 6SM 30/23 A2962 RMK T03000230 IEM_DS3505
ZGSZ,2001-08-25 16:00,ZGSZ 251600Z AUTO 01004KT 4SM 29/24 A2959 RMK T02900240 IEM_DS3505
ZGSZ,2001-08-25 17:00,ZGSZ 251700Z AUTO 01004KT 4SM 29/24 A2959 RMK T02900240 IEM_DS3505
ZGSZ,2001-08-25 18:00,ZGSZ 251800Z AUTO 04004KT 7SM 30/24 RMK SLP029 T02980244 57008 IEM_DS3505
ZGSZ,2001-08-25 21:00,ZGSZ 252100Z AUTO 04002KT 5SM 29/25 A2959 RMK 70001 SLP029 T02930249 54000 IEM_DS3505
ZGSZ,2001-08-25 22:00,ZGSZ 252200Z AUTO 03002KT 2 1/2SM 28/24 A2959 RMK T02800240 IEM_DS3505
ZGSZ,2001-08-25 23:00,ZGSZ 252300Z AUTO 01002KT 4SM 28/24 A2959 RMK T02800240 IEM_DS3505
ZGSZ,2001-08-26 00:00,ZGSZ 260000Z AUTO 34004KT 3SM 29/26 A2962 RMK 70001 SLP037 T02910259 52008 IEM_DS3505
ZGSZ,2001-08-26 01:00,ZGSZ 260100Z AUTO 01004KT 30/24 A2962 RMK T03000240 IEM_DS3505
ZGSZ,2001-08-26 02:00,ZGSZ 260200Z AUTO 36004KT 6SM 32/23 A2962 RMK T03200230 IEM_DS3505
ZGSZ,2001-08-26 03:00,ZGSZ 260300Z AUTO 04006KT 6SM 32/25 A2959 RMK SLP034 T03250248 57003 IEM_DS3505
ZGSZ,2001-08-26 04:00,ZGSZ 260400Z AUTO 35006KT 33/23 A2959 RMK T03300230 IEM_DS3505
ZGSZ,2001-08-26 05:00,ZGSZ 260500Z AUTO 04006KT 34/23 A2956 RMK T03400230 IEM_DS3505
ZGSZ,2001-08-26 06:00,ZGSZ 260600Z AUTO 14006KT 19SM 34/22 A2956 RMK SLP020 T03440223 57014 IEM_DS3505
ZGSZ,2001-08-26 07:00,ZGSZ 260700Z AUTO 10008KT 7SM 29/23 A2953 RMK T02900230 IEM_DS3505
ZGSZ,2001-08-26 08:00,ZGSZ 260800Z AUTO 19004KT 7SM 30/23 A2953 RMK T03000230 IEM_DS3505
ZGSZ,2001-08-26 09:00,ZGSZ 260900Z AUTO 27006KT 6SM 32/25 A2953 RMK SLP012 T03210253 57008 IEM_DS3505
ZGSZ,2001-08-26 10:00,ZGSZ 261000Z AUTO 14004KT 7SM 30/24 A2953 RMK T03000240 IEM_DS3505
ZGSZ,2001-08-26 11:00,ZGSZ 261100Z AUTO 29/23 A2953 RMK T02900230 IEM_DS3505
ZGSZ,2001-08-26 12:00,ZGSZ 261200Z AUTO 09002KT 5SM 31/25 A2959 RMK SLP027 T03100251 52015 IEM_DS3505
ZGSZ,2001-08-26 13:00,ZGSZ 261300Z AUTO 32008KT 2 1/2SM 28/24 A2962 RMK T02800240 IEM_DS3505
ZGSZ,2001-08-26 14:00,ZGSZ 261400Z AUTO 35004KT 2 1/2SM 27/23 A2962 RMK T02700230 IEM_DS3505
ZGSZ,2001-08-26 15:00,ZGSZ 261500Z AUTO 33006KT 3SM 28/22 A2962 RMK T02800220 IEM_DS3505
ZGSZ,2001-08-26 16:00,ZGSZ 261600Z AUTO 35004KT 28/22 A2962 RMK T02800220 IEM_DS3505
ZGSZ,2001-08-26 17:00,ZGSZ 261700Z AUTO 01004KT 4SM 28/23 A2959 RMK T02800230 IEM_DS3505
ZGSZ,2001-08-26 18:00,ZGSZ 261800Z AUTO 36008KT 2 1/2SM 28/25 A2959 RMK SLP028 T02850250 57009 IEM_DS3505
ZGSZ,2001-08-26 19:00,ZGSZ 261900Z AUTO 02008KT 4SM 27/22 A2956 RMK T02700220 IEM_DS3505
ZGSZ,2001-08-26 21:00,ZGSZ 262100Z AUTO 04008KT 7SM 28/24 A2953 RMK SLP015 T02800240 57013 IEM_DS3505
ZGSZ,2001-08-26 22:00,ZGSZ 262200Z AUTO 02008KT 6SM 26/23 A2956 RMK T02600230 IEM_DS3505
ZGSZ,2001-08-26 23:00,ZGSZ 262300Z AUTO 02004KT 6SM 27/22 A2956 RMK T02700220 IEM_DS3505
ZGSZ,2001-08-27 00:00,ZGSZ 270000Z AUTO 04004KT 5SM 28/24 A2956 RMK SLP018 T02820238 52003 IEM_DS3505
ZGSZ,2001-08-27 01:00,ZGSZ 270100Z AUTO 36004KT 7SM 29/22 A2956 RMK T02900220 IEM_DS3505
ZGSZ,2001-08-27 02:00,ZGSZ 270200Z AUTO 35006KT 7SM 29/23 A2956 RMK T02900230 IEM_DS3505
ZGSZ,2001-08-27 03:00,ZGSZ 270300Z AUTO 04008KT 8SM 31/24 A2959 RMK SLP029 T03060242 52011 IEM_DS3505
ZGSZ,2001-08-27 04:00,ZGSZ 270400Z AUTO 02008KT 7SM 31/23 A2959 RMK T03100230 IEM_DS3505
ZGSZ,2001-08-27 05:00,ZGSZ 270500Z AUTO 02008KT 7SM 31/22 A2956 RMK T03100220 IEM_DS3505
ZGSZ,2001-08-27 06:00,ZGSZ 270600Z AUTO 34004KT 9SM 31/24 A2953 RMK 60000 SLP013 T03100244 57016 IEM_DS3505
ZGSZ,2001-08-27 07:00,ZGSZ 270700Z AUTO 36006KT 7SM 33/22 A2950 RMK T03300220 IEM_DS3505
ZGSZ,2001-08-27 08:00,ZGSZ 270800Z AUTO 05006KT 7SM 32/22 A2947 RMK T03200220 IEM_DS3505
ZGSZ,2001-08-27 09:00,ZGSZ 270900Z AUTO 07014KT 6SM 33/24 A2947 RMK SLP000 T03270238 57013 IEM_DS3505
ZGSZ,2001-08-27 10:00,ZGSZ 271000Z AUTO 11012KT 3SM 28/23 A2950 RMK T02800230 IEM_DS3505
ZGSZ,2001-08-27 11:00,ZGSZ 271100Z AUTO 06006KT 7SM 28/22 A2953 RMK T02800220 IEM_DS3505
ZGSZ,2001-08-27 12:00,ZGSZ 271200Z AUTO 07006KT 6SM 28/25 A2953 RMK 60016 SLP016 T02820254 52016 IEM_DS3505
ZGSZ,2001-08-27 13:00,ZGSZ 271300Z AUTO 06010KT 1 1/4SM 28/23 A2956 RMK T02800230 IEM_DS3505
ZGSZ,2001-08-27 14:00,ZGSZ 271400Z AUTO 10006KT 3SM 26/22 A2959 RMK T02600220 IEM_DS3505
ZGSZ,2001-08-27 15:00,ZGSZ 271500Z AUTO 07010KT 7SM 26/22 A2959 RMK T02600220 IEM_DS3505
ZGSZ,2001-08-27 17:00,ZGSZ 271700Z AUTO 02006KT 7SM 26/23 A2956 RMK T02600230 IEM_DS3505
ZGSZ,2001-08-27 18:00,ZGSZ 271800Z AUTO 04004KT 6SM 27/25 RMK 60079 SLP014 T02670246 57017 IEM_DS3505
ZGSZ,2001-08-27 19:00,ZGSZ 271900Z AUTO 01010KT 7SM 26/23 A2953 RMK T02600230 IEM_DS3505
ZGSZ,2001-08-27 20:00,ZGSZ 272000Z AUTO 36010KT 7SM 26/23 A2950 RMK T02600230 IEM_DS3505
ZGSZ,2001-08-27 21:00,ZGSZ 272100Z AUTO 04006KT 6SM 27/24 A2950 RMK 70096 SLP003 T02670244 57011 IEM_DS3505
ZGSZ,2001-08-27 22:00,ZGSZ 272200Z AUTO 01010KT 7SM 26/23 A2950 RMK T02600230 IEM_DS3505
ZGSZ,2001-08-27 23:00,ZGSZ 272300Z AUTO 36008KT 6SM 26/23 A2953 RMK T02600230 IEM_DS3505
ZGSZ,2001-08-28 00:00,ZGSZ 280000Z AUTO 04008KT 5SM 27/24 A2953 RMK 70096 SLP005 T02720239 52002 IEM_DS3505
ZGSZ,2001-08-28 01:00,ZGSZ 280100Z AUTO 02012KT 6SM 28/23 A2953 RMK T02800230 IEM_DS3505
ZGSZ,2001-08-28 02:00,ZGSZ 280200Z AUTO 03012KT 6SM 29/22 A2953 RMK T02900220 IEM_DS3505
ZGSZ,2001-08-28 03:00,ZGSZ 280300Z AUTO 04010KT 6SM 28/24 A2953 RMK SLP014 T02820244 52009 IEM_DS3505
ZGSZ,2001-08-28 04:00,ZGSZ 280400Z AUTO 04014KT 7SM 30/22 A2953 RMK T03000220 IEM_DS3505
ZGSZ,2001-08-28 05:00,ZGSZ 280500Z AUTO 06008KT 7SM 30/22 A2953 RMK T03000220 IEM_DS3505
ZGSZ,2001-08-28 06:00,ZGSZ 280600Z AUTO 04004KT 6SM 28/25 A2950 RMK 60008 SLP999 T02820251 57015 IEM_DS3505
ZGSZ,2001-08-28 07:00,ZGSZ 280700Z AUTO 04008KT 7SM 29/24 A2947 RMK T02900240 IEM_DS3505
ZGSZ,2001-08-28 08:00,ZGSZ 280800Z AUTO 05008KT 7SM 29/24 A2947 RMK T02900240 IEM_DS3505
ZGSZ,2001-08-28 09:00,ZGSZ 280900Z AUTO 07012KT 8SM 29/24 A2947 RMK SLP994 T02880244 57005 IEM_DS3505
ZGSZ,2001-08-28 10:00,ZGSZ 281000Z AUTO 07010KT 7SM 29/23 A2947 RMK T02900230 IEM_DS3505
ZGSZ,2001-08-28 11:00,ZGSZ 281100Z AUTO 06010KT 7SM 28/22 A2947 RMK T02800220 IEM_DS3505
ZGSZ,2001-08-28 12:00,ZGSZ 281200Z AUTO 04012KT 16SM 28/24 A2950 RMK 60002 SLP999 T02840238 52005 IEM_DS3505
ZGSZ,2001-08-28 13:00,ZGSZ 281300Z AUTO 05016KT 7SM 28/22 A2950 RMK T02800220 IEM_DS3505
ZGSZ,2001-08-28 14:00,ZGSZ 281400Z AUTO 06014KT 6SM 28/22 A2953 RMK T02800220 IEM_DS3505
ZGSZ,2001-08-28 15:00,ZGSZ 281500Z AUTO 05012KT 6SM 28/22 A2953 RMK T02800220 IEM_DS3505
ZGSZ,2001-08-28 16:00,ZGSZ 281600Z AUTO 05012KT 6SM 27/22 A2953 RMK T02700220 IEM_DS3505
ZGSZ,2001-08-28 17:00,ZGSZ 281700Z AUTO 05012KT 6SM 27/22 A2950 RMK T02700220 IEM_DS3505
ZGSZ,2001-08-28 18:00,ZGSZ 281800Z AUTO 04008KT 3SM 27/25 A2950 RMK 60008 SLP003 T02680248 57005 IEM_DS3505
ZGSZ,2001-08-28 19:00,ZGSZ 281900Z AUTO 06012KT 3SM 26/22 A2950 RMK T02600220 IEM_DS3505
ZGSZ,2001-08-28 20:00,ZGSZ 282000Z AUTO 04010KT 3SM 25/23 A2950 RMK T02500230 IEM_DS3505
ZGSZ,2001-08-28 21:00,ZGSZ 282100Z AUTO 04006KT 9SM 26/25 A2950 RMK 70066 SLP999 T02600246 57004 IEM_DS3505
ZGSZ,2001-08-28 22:00,ZGSZ 282200Z AUTO 03010KT 7SM 25/22 A2947 RMK T02500220 IEM_DS3505
ZGSZ,2001-08-28 23:00,ZGSZ 282300Z AUTO 03010KT 7SM 26/23 A2950 RMK T02600230 IEM_DS3505
ZGSZ,2001-08-29 00:00,ZGSZ 290000Z AUTO 07008KT 5SM 26/25 RMK 60059 SLP006 T02620246 52007 IEM_DS3505
ZGSZ,2001-08-29 01:30,ZGSZ 290130Z AUTO 05014KT 7SM 28/23 A2950 RMK T02800230 IEM_DS3505
ZGSZ,2001-08-29 02:00,ZGSZ 290200Z AUTO 06016KT 7SM 29/23 A2953 RMK T02900230 IEM_DS3505
ZGSZ,2001-08-29 03:00,ZGSZ 290300Z AUTO 07010KT 17SM 27/25 RMK SLP009 T02680248 52003 IEM_DS3505
ZGSZ,2001-08-29 04:00,ZGSZ 290400Z AUTO 09012KT 7SM 29/22 A2950 RMK T02900220 IEM_DS3505
ZGSZ,2001-08-29 05:00,ZGSZ 290500Z AUTO 09014KT 7SM 31/23 A2947 RMK T03100230 IEM_DS3505
ZGSZ,2001-08-29 06:00,ZGSZ 290600Z AUTO 07004KT 9SM 28/25 A2947 RMK 60043 SLP996 T02840253 57013 IEM_DS3505
ZGSZ,2001-08-29 07:00,ZGSZ 290700Z AUTO 09008KT 7SM 29/23 A2947 RMK T02900230 IEM_DS3505
ZGSZ,2001-08-29 08:00,ZGSZ 290800Z AUTO 07008KT 1SM 28/23 A2947 RMK T02800230 IEM_DS3505
ZGSZ,2001-08-29 09:00,ZGSZ 290900Z AUTO 09004KT 9SM 27/26 A2947 RMK SLP997 T02730255 52001 IEM_DS3505
ZGSZ,2001-08-29 10:00,ZGSZ 291000Z AUTO 09012KT 7SM 27/23 A2947 RMK T02700230 IEM_DS3505
ZGSZ,2001-08-29 11:00,ZGSZ 291100Z AUTO 10012KT 7SM 27/22 A2947 RMK T02700220 IEM_DS3505
ZGSZ,2001-08-29 12:00,ZGSZ 291200Z AUTO 07008KT 9SM 27/25 A2950 RMK 60024 SLP005 T02740251 52008 IEM_DS3505
ZGSZ,2001-08-29 13:00,ZGSZ 291300Z AUTO 08010KT 7SM 27/23 A2953 RMK T02700230 IEM_DS3505
ZGSZ,2001-08-29 14:00,ZGSZ 291400Z AUTO 07006KT 7SM 26/23 A2953 RMK T02600230 IEM_DS3505
ZGSZ,2001-08-29 15:00,ZGSZ 291500Z AUTO 06008KT 7SM 27/23 A2953 RMK T02700230 IEM_DS3505
ZGSZ,2001-08-29 17:00,ZGSZ 291700Z AUTO 06010KT 7SM 27/23 A2953 RMK T02700230 IEM_DS3505
ZGSZ,2001-08-29 18:00,ZGSZ 291800Z AUTO 07004KT 8SM 26/25 A2950 RMK 60075 SLP004 T02610251 57011 IEM_DS3505
ZGSZ,2001-08-29 19:00,ZGSZ 291900Z AUTO 07006KT 7SM 26/23 A2950 RMK T02600230 IEM_DS3505
ZGSZ,2001-08-29 20:00,ZGSZ 292000Z AUTO 04006KT 7SM 26/23 A2950 RMK T02600230 IEM_DS3505
ZGSZ,2001-08-29 21:00,ZGSZ 292100Z AUTO 04006KT 11SM 26/25 A2950 RMK 70189 SLP001 T02580249 57004 IEM_DS3505
ZGSZ,2001-08-29 22:00,ZGSZ 292200Z AUTO 04010KT 7SM 26/23 A2950 RMK T02600230 IEM_DS3505
ZGSZ,2001-08-30 00:00,ZGSZ 300000Z AUTO 04006KT 4SM 26/25 A2953 RMK 60039 SLP017 T02620246 52016 IEM_DS3505
ZGSZ,2001-08-30 01:00,ZGSZ 300100Z AUTO 08012KT 7SM 27/23 A2953 RMK T02700230 IEM_DS3505
ZGSZ,2001-08-30 03:00,ZGSZ 300300Z AUTO 07006KT 4SM 26/25 RMK SLP023 T02640250 52006 IEM_DS3505
ZGSZ,2001-08-30 04:00,ZGSZ 300400Z AUTO 06008KT 7SM 26/23 A2956 RMK T02600230 IEM_DS3505
ZGSZ,2001-08-30 05:00,ZGSZ 300500Z AUTO 07008KT 7SM 26/23 A2953 RMK T02600230 IEM_DS3505
ZGSZ,2001-08-30 06:00,ZGSZ 300600Z AUTO 36002KT 4SM 26/26 A2953 RMK 60118 SLP013 T02650255 57010 IEM_DS3505
ZGSZ,2001-08-30 07:00,ZGSZ 300700Z AUTO 10004KT 3SM 26/23 A2953 RMK T02600230 IEM_DS3505
ZGSZ,2001-08-30 08:00,ZGSZ 300800Z AUTO 12008KT 3SM 26/23 A2953 RMK T02600230 IEM_DS3505
ZGSZ,2001-08-30 09:00,ZGSZ 300900Z AUTO 07002KT 4SM 26/25 A2953 RMK SLP014 T02570251 52001 IEM_DS3505
ZGSZ,2001-08-30 10:00,ZGSZ 301000Z AUTO 09004KT 7SM 27/23 A2953 RMK T02700230 IEM_DS3505
ZGSZ,2001-08-30 11:00,ZGSZ 301100Z AUTO 11008KT 7SM 27/23 A2956 RMK T02700230 IEM_DS3505
ZGSZ,2001-08-30 12:00,ZGSZ 301200Z AUTO 04002KT 3SM 26/25 A2956 RMK 60165 SLP030 T02620254 52016 IEM_DS3505
ZGSZ,2001-08-30 13:00,ZGSZ 301300Z AUTO 11008KT 6SM 27/23 A2959 RMK T02700230 IEM_DS3505
ZGSZ,2001-08-30 14:00,ZGSZ 301400Z AUTO 10008KT 6SM 27/23 A2959 RMK T02700230 IEM_DS3505
ZGSZ,2001-08-30 15:00,ZGSZ 301500Z AUTO 09008KT 7SM 27/23 A2959 RMK T02700230 IEM_DS3505
ZGSZ,2001-08-30 16:00,ZGSZ 301600Z AUTO 09008KT 6SM 27/23 A2959 RMK T02700230 IEM_DS3505
ZGSZ,2001-08-30 17:00,ZGSZ 301700Z AUTO 10008KT 7SM 27/24 A2959 RMK T02700240 IEM_DS3505
ZGSZ,2001-08-30 18:00,ZGSZ 301800Z AUTO 04004KT 5SM 26/25 A2956 RMK 60004 SLP027 T02640254 57014 IEM_DS3505
ZGSZ,2001-08-30 19:00,ZGSZ 301900Z AUTO 11008KT 7SM 27/23 A2956 RMK T02700230 IEM_DS3505
ZGSZ,2001-08-30 20:00,ZGSZ 302000Z AUTO 10006KT 7SM 27/24 A2956 RMK T02700240 IEM_DS3505
ZGSZ,2001-08-30 21:00,ZGSZ 302100Z AUTO 04006KT 4SM 26/25 A2956 RMK 70291 SLP023 T02600252 57004 IEM_DS3505
ZGSZ,2001-08-30 22:00,ZGSZ 302200Z AUTO 10008KT 7SM 27/24 A2956 RMK T02700240 IEM_DS3505
ZGSZ,2001-08-31 00:00,ZGSZ 310000Z AUTO 04004KT 4SM 27/26 A2959 RMK 60003 SLP034 T02660256 52011 IEM_DS3505
ZGSZ,2001-08-31 01:00,ZGSZ 310100Z AUTO 12006KT 7SM RMK IEM_DS3505
ZGSZ,2001-08-31 02:00,ZGSZ 310200Z AUTO 10002KT 7SM 26/23 A2962 RMK T02600230 IEM_DS3505
ZGSZ,2001-08-31 03:00,ZGSZ 310300Z AUTO 00000KT 6SM 28/26 A2962 RMK SLP038 T02840265 52004 IEM_DS3505
ZGSZ,2001-08-31 04:00,ZGSZ 310400Z AUTO 13010KT 7SM 29/25 A2962 RMK T02900250 IEM_DS3505
ZGSZ,2001-08-31 05:00,ZGSZ 310500Z AUTO 15012KT 7SM 30/24 A2959 RMK T03000240 IEM_DS3505
ZGSZ,2001-08-31 06:00,ZGSZ 310600Z AUTO 25004KT 9SM 31/25 A2956 RMK 60008 SLP026 T03070246 57011 IEM_DS3505
ZGSZ,2001-08-31 07:00,ZGSZ 310700Z AUTO 15010KT 7SM 29/24 A2956 RMK T02900240 IEM_DS3505
ZGSZ,2001-08-31 08:00,ZGSZ 310800Z AUTO 16012KT 7SM 29/24 A2956 RMK T02900240 IEM_DS3505
ZGSZ,2001-08-31 09:00,ZGSZ 310900Z AUTO 20002KT 9SM 30/25 A2956 RMK SLP024 T03000248 57002 IEM_DS3505
ZGSZ,2001-08-31 10:00,ZGSZ 311000Z AUTO 14008KT 7SM 29/24 A2956 RMK T02900240 IEM_DS3505
ZGSZ,2001-08-31 11:00,ZGSZ 311100Z AUTO 13006KT 7SM 28/24 A2959 RMK T02800240 IEM_DS3505
ZGSZ,2001-08-31 12:00,ZGSZ 311200Z AUTO 32002KT 8SM 28/26 A2959 RMK 60012 SLP037 T02840263 52012 IEM_DS3505
ZGSZ,2001-08-31 16:00,ZGSZ 311600Z AUTO 13010KT 6SM 28/24 A2962 RMK T02800240 IEM_DS3505
ZGSZ,2001-08-31 17:00,ZGSZ 311700Z AUTO 12006KT 7SM 28/24 A2959 RMK T02800240 IEM_DS3505
ZGSZ,2001-08-31 18:00,ZGSZ 311800Z AUTO 00000KT 7SM 28/26 RMK 60000 SLP035 T02820260 57008 IEM_DS3505
ZGSZ,2001-08-31 19:00,ZGSZ 311900Z AUTO 12006KT 5SM 28/24 A2959 RMK T02800240 IEM_DS3505
ZGSZ,2001-08-31 20:00,ZGSZ 312000Z AUTO 10006KT 4SM 28/24 A2956 RMK T02800240 IEM_DS3505
ZGSZ,2001-08-31 21:00,ZGSZ 312100Z AUTO 00000KT 11SM 28/26 A2956 RMK 70020 SLP029 T02780258 57006 IEM_DS3505
ZGSZ,2001-08-31 23:00,ZGSZ 312300Z AUTO 18010KT 4SM 26/23 A2959 RMK T02600230 IEM_DS3505
ZGSZ,2001-09-01 00:00,ZGSZ 010000Z AUTO 34002KT 7SM 27/26 RMK 60020 SLP042 T02690256 52012 IEM_DS3505
ZGSZ,2001-09-01 01:00,ZGSZ 010100Z AUTO 12004KT 7SM 27/24 A2965 RMK T02700240 IEM_DS3505
ZGSZ,2001-09-01 02:00,ZGSZ 010200Z AUTO 14006KT 7SM 27/24 A2965 RMK T02700240 IEM_DS3505
ZGSZ,2001-09-01 03:00,ZGSZ 010300Z AUTO 07004KT 11SM 27/25 A2962 RMK SLP049 T02680254 52007 IEM_DS3505
ZGSZ,2001-09-01 04:00,ZGSZ 010400Z AUTO 12008KT 7SM 28/24 A2962 RMK T02800240 IEM_DS3505
ZGSZ,2001-09-01 05:00,ZGSZ 010500Z AUTO 12008KT 7SM 28/24 A2962 RMK T02800240 IEM_DS3505
ZGSZ,2001-09-01 06:00,ZGSZ 010600Z AUTO 04006KT 8SM 29/26 A2959 RMK 60039 SLP032 T02900256 57016 IEM_DS3505
ZGSZ,2001-09-01 07:00,ZGSZ 010700Z AUTO 12008KT 7SM 29/24 A2959 RMK T02900240 IEM_DS3505
ZGSZ,2001-09-01 08:00,ZGSZ 010800Z AUTO 11008KT 7SM 29/24 A2956 RMK T02900240 IEM_DS3505
ZGSZ,2001-09-01 09:00,ZGSZ 010900Z AUTO 09006KT 14SM 28/26 A2956 RMK SLP026 T02790255 57006 IEM_DS3505
ZGSZ,2001-09-01 10:00,ZGSZ 011000Z AUTO 14004KT 3SM RMK IEM_DS3505
ZGSZ,2001-09-01 11:00,ZGSZ 011100Z AUTO 13006KT 2SM 27/24 A2959 RMK T02700240 IEM_DS3505
ZGSZ,2001-09-01 12:00,ZGSZ 011200Z AUTO 11002KT 8SM 27/25 A2959 RMK 60016 SLP034 T02670253 52007 IEM_DS3505
ZGSZ,2001-09-01 13:00,ZGSZ 011300Z AUTO 10004KT 7SM 26/23 A2962 RMK T02600230 IEM_DS3505
ZGSZ,2001-09-01 14:00,ZGSZ 011400Z AUTO 13010KT 1 1/4SM 25/23 A2965 RMK T02500230 IEM_DS3505
ZGSZ,2001-09-01 15:00,ZGSZ 011500Z AUTO 07006KT 2 1/2SM 25/23 A2965 RMK T02500230 IEM_DS3505
ZGSZ,2001-09-01 16:00,ZGSZ 011600Z AUTO 11006KT 4SM 25/23 A2962 RMK T02500230 IEM_DS3505
ZGSZ,2001-09-01 17:00,ZGSZ 011700Z AUTO 11008KT 1 1/2SM 25/23 A2962 RMK T02500230 IEM_DS3505
ZGSZ,2001-09-01 18:00,ZGSZ 011800Z AUTO 00000KT 5SM 25/25 A2962 RMK 60346 SLP038 T02520246 57013 IEM_DS3505
ZGSZ,2001-09-01 21:00,ZGSZ 012100Z AUTO 04004KT 7SM 25/24 RMK 70439 SLP026 T02520245 57012 IEM_DS3505
ZGSZ,2001-09-01 23:00,ZGSZ 012300Z AUTO 04004KT 7SM 25/23 A2959 RMK T02500230 IEM_DS3505
ZGSZ,2001-09-02 00:00,ZGSZ 020000Z AUTO 07004KT 4SM 26/25 RMK 60024 SLP044 T02560247 52018 IEM_DS3505
ZGSZ,2001-09-02 01:00,ZGSZ 020100Z AUTO 08006KT 7SM 26/23 A2962 RMK T02600230 IEM_DS3505
ZGSZ,2001-09-02 02:00,ZGSZ 020200Z AUTO 07004KT 7SM 26/23 A2965 RMK T02600230 IEM_DS3505
ZGSZ,2001-09-02 03:00,ZGSZ 020300Z AUTO 04006KT 8SM 27/25 A2965 RMK SLP051 T02660249 52007 IEM_DS3505
ZGSZ,2001-09-02 04:00,ZGSZ 020400Z AUTO 06002KT 7SM 27/23 A2965 RMK T02700230 IEM_DS3505
ZGSZ,2001-09-02 05:00,ZGSZ 020500Z AUTO 06002KT 7SM 28/23 A2962 RMK T02800230 IEM_DS3505
ZGSZ,2001-09-02 06:00,ZGSZ 020600Z AUTO 04006KT 12SM 28/24 A2962 RMK 60004 SLP039 T02760245 57012 IEM_DS3505
ZGSZ,2001-09-02 07:00,ZGSZ 020700Z AUTO 03008KT 7SM 28/23 A2959 RMK T02800230 IEM_DS3505
ZGSZ,2001-09-02 08:00,ZGSZ 020800Z AUTO 07006KT 7SM 28/23 A2962 RMK T02800230 IEM_DS3505
ZGSZ,2001-09-02 09:00,ZGSZ 020900Z AUTO 04006KT 9SM 28/24 A2962 RMK SLP043 T02760245 52004 IEM_DS3505
ZGSZ,2001-09-02 10:00,ZGSZ 021000Z AUTO 06006KT 7SM 27/23 A2962 RMK T02700230 IEM_DS3505
ZGSZ,2001-09-02 11:00,ZGSZ 021100Z AUTO 06008KT 7SM 27/22 A2962 RMK T02700220 IEM_DS3505
ZGSZ,2001-09-02 12:00,ZGSZ 021200Z AUTO 04006KT 7SM 27/25 A2965 RMK 60002 SLP051 T02660246 52008 IEM_DS3505
ZGSZ,2001-09-02 13:00,ZGSZ 021300Z AUTO 07006KT 7SM 26/22 A2965 RMK T02600220 IEM_DS3505
ZGSZ,2001-09-02 14:00,ZGSZ 021400Z AUTO 07008KT 6SM 26/21 A2968 RMK T02600210 IEM_DS3505
ZGSZ,2001-09-02 15:00,ZGSZ 021500Z AUTO 06004KT 6SM 26/22 A2968 RMK T02600220 IEM_DS3505
ZGSZ,2001-09-02 16:00,ZGSZ 021600Z AUTO 05002KT 6SM 26/22 A2968 RMK T02600220 IEM_DS3505
ZGSZ,2001-09-02 17:00,ZGSZ 021700Z AUTO 04004KT 6SM 26/22 A2968 RMK T02600220 IEM_DS3505
ZGSZ,2001-09-02 18:00,ZGSZ 021800Z AUTO 04004KT 2 1/2SM 26/25 RMK 60016 SLP063 T02580248 57001 IEM_DS3505
ZGSZ,2001-09-02 21:00,ZGSZ 022100Z AUTO 04006KT 6SM 25/24 A2965 RMK 70117 SLP056 T02540243 57007 IEM_DS3505
ZGSZ,2001-09-02 22:00,ZGSZ 022200Z AUTO 07002KT 7SM 25/22 A2968 RMK T02500220 IEM_DS3505
ZGSZ,2001-09-02 23:00,ZGSZ 022300Z AUTO 07006KT 7SM 26/22 A2968 RMK T02600220 IEM_DS3505
ZGSZ,2001-09-03 00:00,ZGSZ 030000Z AUTO 07010KT 7SM 26/23 RMK 60091 SLP070 T02640234 52014 IEM_DS3505
ZGSZ,2001-09-03 01:00,ZGSZ 030100Z AUTO 07006KT 7SM 26/22 A2974 RMK T02600220 IEM_DS3505
ZGSZ,2001-09-03 02:00,ZGSZ 030200Z AUTO 07004KT 5SM 26/22 A2974 RMK T02600220 IEM_DS3505
ZGSZ,2001-09-03 03:00,ZGSZ 030300Z AUTO 04010KT 4SM 26/24 A2974 RMK SLP083 T02560240 52013 IEM_DS3505
ZGSZ,2001-09-03 04:00,ZGSZ 030400Z AUTO 07010KT 7SM 26/22 A2974 RMK T02600220 IEM_DS3505
ZGSZ,2001-09-03 05:00,ZGSZ 030500Z AUTO 08006KT 7SM RMK IEM_DS3505
ZGSZ,2001-09-03 06:00,ZGSZ 030600Z AUTO 04008KT 7SM 27/24 A2971 RMK 60063 SLP069 T02690243 57014 IEM_DS3505
ZGSZ,2001-09-03 07:00,ZGSZ 030700Z AUTO 10010KT 7SM 28/23 A2968 RMK T02800230 IEM_DS3505
ZGSZ,2001-09-03 08:00,ZGSZ 030800Z AUTO 06006KT 7SM 27/22 A2968 RMK T02700220 IEM_DS3505
ZGSZ,2001-09-03 09:00,ZGSZ 030900Z AUTO 07012KT 12SM 28/24 A2968 RMK SLP056 T02800238 57013 IEM_DS3505
ZGSZ,2001-09-03 10:00,ZGSZ 031000Z AUTO 11006KT 7SM 28/22 A2968 RMK T02800220 IEM_DS3505
ZGSZ,2001-09-03 11:00,ZGSZ 031100Z AUTO 10004KT 7SM 27/22 A2971 RMK T02700220 IEM_DS3505
ZGSZ,2001-09-03 12:00,ZGSZ 031200Z AUTO 07006KT 9SM 27/24 A2971 RMK 60003 SLP080 T02740240 52024 IEM_DS3505
ZGSZ,2001-09-03 13:00,ZGSZ 031300Z AUTO 12006KT 7SM 27/22 A2974 RMK T02700220 IEM_DS3505
ZGSZ,2001-09-03 14:00,ZGSZ 031400Z AUTO 09006KT 7SM 27/22 A2977 RMK T02700220 IEM_DS3505
ZGSZ,2001-09-03 15:00,ZGSZ 031500Z AUTO 10004KT 7SM 27/22 A2977 RMK T02700220 IEM_DS3505
ZGSZ,2001-09-03 16:00,ZGSZ 031600Z AUTO 15004KT 7SM 26/23 A2977 RMK T02600230 IEM_DS3505
ZGSZ,2001-09-03 18:00,ZGSZ 031800Z AUTO 09008KT 11SM 27/23 RMK SLP079 T02670231 57012 IEM_DS3505
ZGSZ,2001-09-03 19:00,ZGSZ 031900Z AUTO 7SM RMK IEM_DS3505
ZGSZ,2001-09-03 20:00,ZGSZ 032000Z AUTO 2SM RMK IEM_DS3505
ZGSZ,2001-09-03 21:00,ZGSZ 032100Z AUTO 09002KT 11SM 26/23 RMK 70063 SLP068 T02610230 57011 IEM_DS3505
ZGSZ,2001-09-03 22:00,ZGSZ 032200Z AUTO 15004KT 7SM 25/22 A2971 RMK T02500220 IEM_DS3505
ZGSZ,2001-09-03 23:00,ZGSZ 032300Z AUTO 12004KT 7SM 26/22 A2971 RMK T02600220 IEM_DS3505
ZGSZ,2001-09-04 00:00,ZGSZ 040000Z AUTO 04006KT 8SM 27/24 A2971 RMK 70061 SLP073 T02680238 52005 IEM_DS3505
ZGSZ,2001-09-04 01:00,ZGSZ 040100Z AUTO 05004KT 7SM 28/22 A2971 RMK T02800220 IEM_DS3505
ZGSZ,2001-09-04 02:00,ZGSZ 040200Z AUTO 18004KT 7SM 29/22 A2971 RMK T02900220 IEM_DS3505
ZGSZ,2001-09-04 03:00,ZGSZ 040300Z AUTO 09010KT 16SM 30/24 A2971 RMK SLP076 T03040235 52003 IEM_DS3505
ZGSZ,2001-09-04 04:00,ZGSZ 040400Z AUTO 22004KT 7SM 29/22 A2971 RMK T02900220 IEM_DS3505
ZGSZ,2001-09-04 06:00,ZGSZ 040600Z AUTO 32002KT 19SM 30/24 A2968 RMK SLP061 T03030240 57014 IEM_DS3505
ZGSZ,2001-09-04 07:00,ZGSZ 040700Z AUTO 18002KT 7SM 28/23 A2965 RMK T02800230 IEM_DS3505
ZGSZ,2001-09-04 08:00,ZGSZ 040800Z AUTO 14014KT 7SM 27/23 A2965 RMK T02700230 IEM_DS3505
ZGSZ,2001-09-04 09:00,ZGSZ 040900Z AUTO 09006KT 17SM 28/24 A2965 RMK SLP047 T02850236 57015 IEM_DS3505
ZGSZ,2001-09-04 10:00,ZGSZ 041000Z AUTO 22006KT 7SM 27/22 A2965 RMK T02700220 IEM_DS3505
ZGSZ,2001-09-04 11:00,ZGSZ 041100Z AUTO 20004KT 7SM 26/22 A2968 RMK T02600220 IEM_DS3505
ZGSZ,2001-09-04 12:00,ZGSZ 041200Z AUTO 14004KT 12SM 27/24 A2968 RMK SLP064 T02700235 52017 IEM_DS3505
ZGSZ,2001-09-04 13:00,ZGSZ 041300Z AUTO 11002KT 7SM 26/22 A2971 RMK T02600220 IEM_DS3505
ZGSZ,2001-09-04 14:00,ZGSZ 041400Z AUTO 11004KT 6SM 26/22 A2971 RMK T02600220 IEM_DS3505
ZGSZ,2001-09-04 15:00,ZGSZ 041500Z AUTO 12002KT 6SM 26/22 A2971 RMK T02600220 IEM_DS3505
ZGSZ,2001-09-04 16:00,ZGSZ 041600Z AUTO 05002KT 6SM 26/22 A2971 RMK T02600220 IEM_DS3505
ZGSZ,2001-09-04 18:00,ZGSZ 041800Z AUTO 14002KT 7SM 26/23 RMK 60003 SLP066 T02630233 57009 IEM_DS3505
ZGSZ,2001-09-04 20:00,ZGSZ 042000Z AUTO 05004KT 6SM 25/22 A2965 RMK T02500220 IEM_DS3505
ZGSZ,2001-09-04 21:00,ZGSZ 042100Z AUTO 09004KT 9SM 26/24 A2965 RMK 70000 SLP056 T02620236 57010 IEM_DS3505
ZGSZ,2001-09-04 22:00,ZGSZ 042200Z AUTO 09004KT 3SM 24/22 A2968 RMK T02400220 IEM_DS3505
ZGSZ,2001-09-05 00:00,ZGSZ 050000Z AUTO 07004KT 7SM 26/25 RMK 60016 SLP068 T02580247 52012 IEM_DS3505
ZGSZ,2001-09-05 01:00,ZGSZ 050100Z AUTO 12008KT 3SM 25/23 RMK T02500230 IEM_DS3505
ZGSZ,2001-09-05 02:00,ZGSZ 050200Z AUTO 11006KT 3SM 25/23 A2971 RMK T02500230 IEM_DS3505
ZGSZ,2001-09-05 03:00,ZGSZ 050300Z AUTO 14002KT 4SM 26/24 A2971 RMK SLP074 T02560245 52006 IEM_DS3505
ZGSZ,2001-09-05 04:00,ZGSZ 050400Z AUTO 14006KT 7SM 25/23 A2971 RMK T02500230 IEM_DS3505
ZGSZ,2001-09-05 05:00,ZGSZ 050500Z AUTO 15006KT 7SM 26/23 A2968 RMK T02600230 IEM_DS3505
ZGSZ,2001-09-05 06:00,ZGSZ 050600Z AUTO 22004KT 10SM 26/25 A2968 RMK 60079 SLP060 T02630246 57014 IEM_DS3505
ZGSZ,2001-09-05 07:00,ZGSZ 050700Z AUTO 16008KT 7SM 26/23 A2965 RMK T02600230 IEM_DS3505
ZGSZ,2001-09-05 08:00,ZGSZ 050800Z AUTO 18010KT 7SM 26/23 A2965 RMK T02600230 IEM_DS3505
ZGSZ,2001-09-05 09:00,ZGSZ 050900Z AUTO 22004KT 11SM 27/24 A2965 RMK SLP055 T02670243 57005 IEM_DS3505
ZGSZ,2001-09-05 10:00,ZGSZ 051000Z AUTO 17006KT 7SM 26/23 A2965 RMK T02600230 IEM_DS3505
ZGSZ,2001-09-05 11:00,ZGSZ 051100Z AUTO 14004KT 5SM 26/23 A2968 RMK T02600230 IEM_DS3505
ZGSZ,2001-09-05 12:00,ZGSZ 051200Z AUTO 00000KT 3SM 26/25 A2968 RMK 60008 SLP071 T02620248 52016 IEM_DS3505
ZGSZ,2001-09-05 13:00,ZGSZ 051300Z AUTO 12006KT 4SM 26/23 A2971 RMK T02600230 IEM_DS3505
ZGSZ,2001-09-05 14:00,ZGSZ 051400Z AUTO 5SM 26/23 A2971 RMK T02600230 IEM_DS3505
ZGSZ,2001-09-05 15:00,ZGSZ 051500Z AUTO 5SM 25/23 A2971 RMK T02500230 IEM_DS3505
ZGSZ,2001-09-05 18:00,ZGSZ 051800Z AUTO 00000KT 5SM 26/25 RMK 60008 SLP065 T02590248 57010 IEM_DS3505
ZGSZ,2001-09-05 20:00,ZGSZ 052000Z AUTO 01004KT 7SM 25/23 A2968 RMK T02500230 IEM_DS3505
ZGSZ,2001-09-05 21:00,ZGSZ 052100Z AUTO 00000KT 3SM 26/25 A2968 RMK 70117 SLP063 T02560247 57002 IEM_DS3505
ZGSZ,2001-09-05 22:00,ZGSZ 052200Z AUTO 2 1/2SM 25/23 A2968 RMK T02500230 IEM_DS3505
ZGSZ,2001-09-05 23:00,ZGSZ 052300Z AUTO 12002KT 2 1/2SM 25/23 A2971 RMK T02500230 IEM_DS3505
ZGSZ,2001-09-06 00:00,ZGSZ 060000Z AUTO 04004KT 5SM 26/25 A2971 RMK 60012 SLP072 T02610248 52009 IEM_DS3505
ZGSZ,2001-09-06 01:00,ZGSZ 060100Z AUTO 4SM 27/23 A2971 RMK T02700230 IEM_DS3505
ZGSZ,2001-09-06 02:00,ZGSZ 060200Z AUTO 32004KT 4SM 27/24 A2974 RMK T02700240 IEM_DS3505
ZGSZ,2001-09-06 03:00,ZGSZ 060300Z AUTO 34004KT 4SM 29/25 A2974 RMK SLP071 T02890251 57001 IEM_DS3505
ZGSZ,2001-09-06 04:00,ZGSZ 060400Z AUTO 35004KT 5SM 29/23 A2971 RMK T02900230 IEM_DS3505
ZGSZ,2001-09-06 05:00,ZGSZ 060500Z AUTO 31004KT 5SM 31/23 A2968 RMK T03100230 IEM_DS3505
ZGSZ,2001-09-06 06:00,ZGSZ 060600Z AUTO 04006KT 4SM 31/25 A2968 RMK SLP061 T03060251 57010 IEM_DS3505
ZGSZ,2001-09-06 07:00,ZGSZ 060700Z AUTO 34004KT 7SM 30/23 A2968 RMK T03000230 IEM_DS3505
ZGSZ,2001-09-06 08:00,ZGSZ 060800Z AUTO 26008KT 5SM 28/24 A2968 RMK T02800240 IEM_DS3505
ZGSZ,2001-09-06 09:00,ZGSZ 060900Z AUTO 00000KT 3SM 26/25 A2968 RMK SLP063 T02640253 52002 IEM_DS3505
ZGSZ,2001-09-06 10:00,ZGSZ 061000Z AUTO 20004KT 7SM 27/23 A2971 RMK T02700230 IEM_DS3505
ZGSZ,2001-09-06 11:00,ZGSZ 061100Z AUTO 17004KT 7SM 27/23 A2971 RMK T02700230 IEM_DS3505
ZGSZ,2001-09-06 12:00,ZGSZ 061200Z AUTO 20002KT 4SM 27/25 A2971 RMK 60150 SLP078 T02680254 52015 IEM_DS3505
ZGSZ,2001-09-06 13:00,ZGSZ 061300Z AUTO 17004KT 3SM 27/24 A2974 RMK T02700240 IEM_DS3505
ZGSZ,2001-09-06 14:00,ZGSZ 061400Z AUTO 16004KT 3SM 27/24 A2977 RMK T02700240 IEM_DS3505
ZGSZ,2001-09-06 15:00,ZGSZ 061500Z AUTO 11002KT 4SM 27/24 A2977 RMK T02700240 IEM_DS3505
ZGSZ,2001-09-06 16:00,ZGSZ 061600Z AUTO 4SM 26/24 A2974 RMK T02600240 IEM_DS3505
ZGSZ,2001-09-06 18:00,ZGSZ 061800Z AUTO 00000KT 4SM 26/25 RMK SLP070 T02620251 57017 IEM_DS3505
ZGSZ,2001-09-06 19:00,ZGSZ 061900Z AUTO 11002KT 3SM 26/23 A2971 RMK T02600230 IEM_DS3505
ZGSZ,2001-09-06 20:00,ZGSZ 062000Z AUTO 09002KT 2SM 26/24 A2971 RMK T02600240 IEM_DS3505
ZGSZ,2001-09-06 21:00,ZGSZ 062100Z AUTO 00000KT 3SM 26/25 A2971 RMK 70152 SLP073 T02630253 52003 IEM_DS3505
ZGSZ,2001-09-06 22:00,ZGSZ 062200Z AUTO 04002KT 2SM 26/23 A2971 RMK T02600230 IEM_DS3505
ZGSZ,2001-09-06 23:00,ZGSZ 062300Z AUTO 09002KT 1 1/2SM 26/23 A2974 RMK T02600230 IEM_DS3505
ZGSZ,2001-09-07 00:00,ZGSZ 070000Z AUTO 04006KT 4SM 27/25 A2977 RMK 70148 SLP083 T02720254 52010 IEM_DS3505
ZGSZ,2001-09-07 01:00,ZGSZ 070100Z AUTO 32002KT 2SM 28/23 A2974 RMK T02800230 IEM_DS3505
ZGSZ,2001-09-07 02:00,ZGSZ 070200Z AUTO 25002KT 2SM 29/24 A2974 RMK T02900240 IEM_DS3505
ZGSZ,2001-09-07 03:00,ZGSZ 070300Z AUTO 04002KT 7SM 30/24 A2974 RMK SLP082 T03020245 57001 IEM_DS3505
ZGSZ,2001-09-07 04:00,ZGSZ 070400Z AUTO 22006KT 4SM 29/24 A2974 RMK T02900240 IEM_DS3505
ZGSZ,2001-09-07 05:00,ZGSZ 070500Z AUTO 20006KT 7SM 30/23 A2971 RMK T03000230 IEM_DS3505
ZGSZ,2001-09-07 06:00,ZGSZ 070600Z AUTO 27004KT 7SM 28/25 A2968 RMK 60003 SLP070 T02840252 57012 IEM_DS3505
ZGSZ,2001-09-07 07:00,ZGSZ 070700Z AUTO 12010KT 7SM 29/23 A2968 RMK T02900230 IEM_DS3505
ZGSZ,2001-09-07 08:00,ZGSZ 070800Z AUTO 13010KT 4SM 29/24 A2968 RMK T02900240 IEM_DS3505
ZGSZ,2001-09-07 09:00,ZGSZ 070900Z AUTO 11004KT 3SM 27/25 A2968 RMK SLP071 T02660248 52001 IEM_DS3505
ZGSZ,2001-09-07 10:00,ZGSZ 071000Z AUTO 10014KT 5SM 28/22 A2968 RMK T02800220 IEM_DS3505
ZGSZ,2001-09-07 11:00,ZGSZ 071100Z AUTO 12010KT 4SM 27/22 A2971 RMK T02700220 IEM_DS3505
ZGSZ,2001-09-07 12:00,ZGSZ 071200Z AUTO 09004KT 5SM 27/24 A2974 RMK 60008 SLP083 T02710241 52012 IEM_DS3505
ZGSZ,2001-09-07 13:00,ZGSZ 071300Z AUTO 08006KT 2 1/2SM 26/23 A2977 RMK T02600230 IEM_DS3505
ZGSZ,2001-09-07 14:00,ZGSZ 071400Z AUTO 06002KT 2 1/2SM 26/23 A2977 RMK T02600230 IEM_DS3505
ZGSZ,2001-09-07 15:00,ZGSZ 071500Z AUTO 09002KT 2 1/2SM 26/23 A2977 RMK T02600230 IEM_DS3505
ZGSZ,2001-09-07 16:00,ZGSZ 071600Z AUTO 04002KT 3SM 26/22 A2974 RMK T02600220 IEM_DS3505
ZGSZ,2001-09-07 18:00,ZGSZ 071800Z AUTO 09002KT 4SM 27/24 RMK 60003 SLP075 T02710244 57015 IEM_DS3505
ZGSZ,2001-09-07 19:00,ZGSZ 071900Z AUTO 04006KT 3SM 25/22 A2971 RMK T02500220 IEM_DS3505
ZGSZ,2001-09-07 20:00,ZGSZ 072000Z AUTO 03006KT 2 1/2SM 25/22 A2971 RMK T02500220 IEM_DS3505
ZGSZ,2001-09-07 21:00,ZGSZ 072100Z AUTO 04004KT 4SM 26/23 A2971 RMK 70007 SLP068 T02630234 57007 IEM_DS3505
ZGSZ,2001-09-07 22:00,ZGSZ 072200Z AUTO 03004KT 1 1/2SM 26/22 A2971 RMK T02600220 IEM_DS3505
ZGSZ,2001-09-07 23:00,ZGSZ 072300Z AUTO 02004KT 3SM 26/21 A2971 RMK T02600210 IEM_DS3505
ZGSZ,2001-09-08 00:00,ZGSZ 080000Z AUTO 02002KT 4SM 27/23 A2974 RMK 70007 SLP077 T02660230 52009 IEM_DS3505
ZGSZ,2001-09-08 01:00,ZGSZ 080100Z AUTO 02008KT 3SM 28/20 A2974 RMK T02800200 IEM_DS3505
ZGSZ,2001-09-08 02:00,ZGSZ 080200Z AUTO 06006KT 5SM 30/19 A2974 RMK T03000190 IEM_DS3505
ZGSZ,2001-09-08 03:00,ZGSZ 080300Z AUTO 07012KT 8SM 30/21 A2974 RMK SLP082 T03000211 52005 IEM_DS3505
ZGSZ,2001-09-08 04:00,ZGSZ 080400Z AUTO 10008KT 6SM 32/18 A2971 RMK T03200180 IEM_DS3505
ZGSZ,2001-09-08 05:00,ZGSZ 080500Z AUTO 11008KT 6SM 32/20 A2971 RMK T03200200 IEM_DS3505
ZGSZ,2001-09-08 06:00,ZGSZ 080600Z AUTO 11006KT 9SM 31/23 A2968 RMK SLP064 T03140227 57017 IEM_DS3505
ZGSZ,2001-09-08 07:00,ZGSZ 080700Z AUTO 12010KT 6SM 32/19 A2965 RMK T03200190 IEM_DS3505
ZGSZ,2001-09-08 09:00,ZGSZ 080900Z AUTO 14008KT 6SM 30/22 A2965 RMK SLP054 T03040216 57010 IEM_DS3505
ZGSZ,2001-09-08 10:00,ZGSZ 081000Z AUTO 12012KT 6SM 30/18 A2965 RMK T03000180 IEM_DS3505
ZGSZ,2001-09-08 11:00,ZGSZ 081100Z AUTO 11010KT 6SM 29/18 A2968 RMK T02900180 IEM_DS3505
ZGSZ,2001-09-08 12:00,ZGSZ 081200Z AUTO 09004KT 5SM 28/24 A2968 RMK SLP067 T02780236 52012 IEM_DS3505
ZGSZ,2001-09-08 13:00,ZGSZ 081300Z AUTO 09008KT 7SM 28/20 A2971 RMK T02800200 IEM_DS3505
ZGSZ,2001-09-08 14:00,ZGSZ 081400Z AUTO 11008KT 7SM 28/21 A2974 RMK T02800210 IEM_DS3505
ZGSZ,2001-09-08 15:00,ZGSZ 081500Z AUTO 14010KT 27/21 A2974 RMK T02700210 IEM_DS3505
ZGSZ,2001-09-08 16:00,ZGSZ 081600Z AUTO 08002KT 6SM 27/21 A2974 RMK T02700210 IEM_DS3505
ZGSZ,2001-09-08 18:00,ZGSZ 081800Z AUTO 07004KT 4SM 27/24 RMK SLP074 T02730240 57007 IEM_DS3505
ZGSZ,2001-09-08 21:00,ZGSZ 082100Z AUTO 04006KT 3SM 26/24 A2971 RMK SLP069 T02630237 57006 IEM_DS3505
ZGSZ,2001-09-08 22:00,ZGSZ 082200Z AUTO 02006KT 3SM 25/21 A2971 RMK T02500210 IEM_DS3505
ZGSZ,2001-09-08 23:00,ZGSZ 082300Z AUTO 02006KT 2 1/2SM 25/21 A2974 RMK T02500210 IEM_DS3505
ZGSZ,2001-09-09 00:00,ZGSZ 090000Z AUTO 04004KT 2 1/2SM 26/23 A2974 RMK SLP086 T02640234 52017 IEM_DS3505
ZGSZ,2001-09-09 01:00,ZGSZ 090100Z AUTO 02006KT 3SM 27/22 A2974 RMK T02700220 IEM_DS3505
ZGSZ,2001-09-09 02:00,ZGSZ 090200Z AUTO 03006KT 3SM 29/21 A2977 RMK T02900210 IEM_DS3505
ZGSZ,2001-09-09 03:00,ZGSZ 090300Z AUTO 07008KT 4SM 29/22 A2974 RMK SLP086 T02880225 54000 IEM_DS3505
ZGSZ,2001-09-09 04:00,ZGSZ 090400Z AUTO 05006KT 30/20 A2971 RMK T03000200 IEM_DS3505
ZGSZ,2001-09-09 05:00,ZGSZ 090500Z AUTO 36004KT 30/20 A2971 RMK T03000200 IEM_DS3505
ZGSZ,2001-09-09 06:00,ZGSZ 090600Z AUTO 09006KT 7SM 31/22 A2968 RMK SLP060 T03070221 57025 IEM_DS3505
ZGSZ,2001-09-09 07:00,ZGSZ 090700Z AUTO 22004KT 29/23 A2965 RMK T02900230 IEM_DS3505
ZGSZ,2001-09-09 08:00,ZGSZ 090800Z AUTO 20008KT 29/22 A2965 RMK T02900220 IEM_DS3505
ZGSZ,2001-09-09 09:00,ZGSZ 090900Z AUTO 16002KT 6SM 30/23 A2965 RMK SLP058 T03000231 57003 IEM_DS3505
ZGSZ,2001-09-09 10:00,ZGSZ 091000Z AUTO 15006KT 5SM RMK IEM_DS3505
ZGSZ,2001-09-09 11:00,ZGSZ 091100Z AUTO 10008KT 28/20 A2968 RMK T02800200 IEM_DS3505
ZGSZ,2001-09-09 12:00,ZGSZ 091200Z AUTO 14006KT 3SM 28/23 A2971 RMK SLP076 T02770229 52018 IEM_DS3505
ZGSZ,2001-09-09 14:00,ZGSZ 091400Z AUTO 09004KT 27/18 A2974 RMK T02700180 IEM_DS3505
ZGSZ,2001-09-09 15:00,ZGSZ 091500Z AUTO 11006KT 5SM 27/19 A2974 RMK T02700190 IEM_DS3505
ZGSZ,2001-09-09 16:00,ZGSZ 091600Z AUTO 10004KT 5SM 26/20 A2974 RMK T02600200 IEM_DS3505
ZGSZ,2001-09-09 18:00,ZGSZ 091800Z AUTO 04002KT 4SM 27/23 RMK SLP076 T02700232 57008 IEM_DS3505
ZGSZ,2001-09-09 21:00,ZGSZ 092100Z AUTO 04004KT 4SM 26/22 A2971 RMK SLP077 T02600225 54000 IEM_DS3505
ZGSZ,2001-09-09 23:00,ZGSZ 092300Z AUTO 04006KT 2SM 24/21 A2974 RMK T02400210 IEM_DS3505
ZGSZ,2001-09-10 00:00,ZGSZ 100000Z AUTO 04006KT 6SM 26/21 A2977 RMK SLP087 T02640208 52010 IEM_DS3505
ZGSZ,2001-09-10 01:00,ZGSZ 100100Z AUTO 04006KT 3SM 27/20 A2977 RMK T02700200 IEM_DS3505
ZGSZ,2001-09-10 02:00,ZGSZ 100200Z AUTO 03006KT 6SM 28/19 A2977 RMK T02800190 IEM_DS3505
ZGSZ,2001-09-10 03:00,ZGSZ 100300Z AUTO 04006KT 4SM 30/22 A2977 RMK SLP089 T03040221 52002 IEM_DS3505
ZGSZ,2001-09-10 04:00,ZGSZ 100400Z AUTO 09004KT 6SM 30/19 A2977 RMK T03000190 IEM_DS3505
ZGSZ,2001-09-10 05:00,ZGSZ 100500Z AUTO 11006KT 7SM 31/19 A2974 RMK T03100190 IEM_DS3505
ZGSZ,2001-09-10 06:00,ZGSZ 100600Z AUTO 16004KT 6SM 30/22 A2974 RMK SLP082 T02980219 57007 IEM_DS3505
ZGSZ,2001-09-10 07:00,ZGSZ 100700Z AUTO 17008KT 7SM 29/22 A2971 RMK T02900220 IEM_DS3505
ZGSZ,2001-09-10 08:00,ZGSZ 100800Z AUTO 17008KT 7SM 29/21 A2971 RMK T02900210 IEM_DS3505
ZGSZ,2001-09-10 09:00,ZGSZ 100900Z AUTO 07006KT 7SM 28/21 A2971 RMK SLP074 T02850211 57008 IEM_DS3505
ZGSZ,2001-09-10 10:00,ZGSZ 101000Z AUTO 07002KT 7SM 29/19 A2971 RMK T02900190 IEM_DS3505
ZGSZ,2001-09-10 11:00,ZGSZ 101100Z AUTO 07004KT 29/19 A2971 RMK T02900190 IEM_DS3505
ZGSZ,2001-09-10 12:00,ZGSZ 101200Z AUTO 07004KT 5SM 28/21 A2974 RMK SLP083 T02840210 52009 IEM_DS3505
ZGSZ,2001-09-10 13:00,ZGSZ 101300Z AUTO 11004KT 3SM 28/18 A2974 RMK T02800180 IEM_DS3505
ZGSZ,2001-09-10 14:00,ZGSZ 101400Z AUTO 11008KT 2 1/2SM 28/17 A2977 RMK T02800170 IEM_DS3505
ZGSZ,2001-09-10 15:00,ZGSZ 101500Z AUTO 11008KT 3SM 28/18 A2977 RMK T02800180 IEM_DS3505
ZGSZ,2001-09-10 18:00,ZGSZ 101800Z AUTO 09004KT 5SM 28/24 RMK SLP079 T02770237 57012 IEM_DS3505
ZGSZ,2001-09-10 20:00,ZGSZ 102000Z AUTO 01004KT 26/20 A2971 RMK T02600200 IEM_DS3505
ZGSZ,2001-09-10 21:00,ZGSZ 102100Z AUTO 04004KT 5SM 27/23 RMK SLP078 T02700232 57001 IEM_DS3505
ZGSZ,2001-09-10 22:00,ZGSZ 102200Z AUTO 02006KT 26/20 A2974 RMK T02600200 IEM_DS3505
ZGSZ,2001-09-10 23:00,ZGSZ 102300Z AUTO 03008KT 6SM 26/20 A2974 RMK T02600200 IEM_DS3505
ZGSZ,2001-09-11 00:00,ZGSZ 110000Z AUTO 04006KT 5SM 27/22 A2977 RMK SLP088 T02710219 52010 IEM_DS3505
ZGSZ,2001-09-11 01:00,ZGSZ 110100Z AUTO 03008KT 29/19 A2980 RMK T02900190 IEM_DS3505
ZGSZ,2001-09-11 02:00,ZGSZ 110200Z AUTO 05010KT 5SM 30/19 A2980 RMK T03000190 IEM_DS3505
ZGSZ,2001-09-11 03:00,ZGSZ 110300Z AUTO 07008KT 6SM 30/21 A2980 RMK SLP096 T03050210 52008 IEM_DS3505
ZGSZ,2001-09-11 04:00,ZGSZ 110400Z AUTO 03008KT 5SM 31/20 A2977 RMK T03100200 IEM_DS3505
ZGSZ,2001-09-11 05:00,ZGSZ 110500Z AUTO 03006KT 5SM 32/20 A2974 RMK T03200200 IEM_DS3505
ZGSZ,2001-09-11 06:00,ZGSZ 110600Z AUTO 14008KT 9SM 32/19 RMK SLP077 T03160192 57018 IEM_DS3505
ZGSZ,2001-09-11 07:00,ZGSZ 110700Z AUTO 03004KT 7SM 32/19 A2971 RMK T03200190 IEM_DS3505
ZGSZ,2001-09-11 08:00,ZGSZ 110800Z AUTO 23010G21KT 6SM 29/23 A2971 RMK T02900230 IEM_DS3505
ZGSZ,2001-09-11 09:00,ZGSZ 110900Z AUTO 09002KT 9SM 31/23 A2971 RMK SLP076 T03060230 57002 IEM_DS3505
ZGSZ,2001-09-11 10:00,ZGSZ 111000Z AUTO 22006KT 6SM 28/23 A2974 RMK T02800230 IEM_DS3505
ZGSZ,2001-09-11 11:00,ZGSZ 111100Z AUTO 05002KT 6SM 29/22 A2974 RMK T02900220 IEM_DS3505
ZGSZ,2001-09-11 12:00,ZGSZ 111200Z AUTO 14006KT 4SM 28/24 A2974 RMK SLP091 T02840244 52015 IEM_DS3505
ZGSZ,2001-09-11 13:00,ZGSZ 111300Z AUTO 15004KT 5SM 28/21 A2977 RMK T02800210 IEM_DS3505
ZGSZ,2001-09-11 14:00,ZGSZ 111400Z AUTO 13004KT 28/21 A2977 RMK T02800210 IEM_DS3505
ZGSZ,2001-09-11 15:00,ZGSZ 111500Z AUTO 11006KT 28/22 A2977 RMK T02800220 IEM_DS3505
ZGSZ,2001-09-11 17:00,ZGSZ 111700Z AUTO 10004KT 4SM 27/22 A2977 RMK T02700220 IEM_DS3505
ZGSZ,2001-09-11 18:00,ZGSZ 111800Z AUTO 04004KT 7SM 28/24 A2977 RMK SLP086 T02750241 57010 IEM_DS3505
ZGSZ,2001-09-11 20:00,ZGSZ 112000Z AUTO 04004KT 4SM 27/22 A2974 RMK T02700220 IEM_DS3505
ZGSZ,2001-09-11 21:00,ZGSZ 112100Z AUTO 04004KT 6SM 27/23 A2977 RMK SLP089 T02720234 52002 IEM_DS3505
ZGSZ,2001-09-11 23:00,ZGSZ 112300Z AUTO 03004KT 3SM 27/23 A2980 RMK T02700230 IEM_DS3505
ZGSZ,2001-09-12 00:00,ZGSZ 120000Z AUTO 07004KT 4SM 28/24 A2983 RMK SLP105 T02770238 52016 IEM_DS3505
ZGSZ,2001-09-12 01:00,ZGSZ 120100Z AUTO 04006KT 3SM 29/22 A2983 RMK T02900220 IEM_DS3505
ZGSZ,2001-09-12 02:00,ZGSZ 120200Z AUTO 02006KT 3SM 30/21 A2983 RMK T03000210 IEM_DS3505
ZGSZ,2001-09-12 03:00,ZGSZ 120300Z AUTO 36004KT 3SM 31/22 A2983 RMK SLP108 T03060220 52003 IEM_DS3505
ZGSZ,2001-09-12 04:00,ZGSZ 120400Z AUTO 04004KT 3SM 32/19 A2980 RMK T03200190 IEM_DS3505
ZGSZ,2001-09-12 06:00,ZGSZ 120600Z AUTO 04006KT 4SM 33/23 A2974 RMK SLP082 T03340229 57025 IEM_DS3505
ZGSZ,2001-09-12 07:00,ZGSZ 120700Z AUTO 23006KT 3SM 31/21 A2974 RMK T03100210 IEM_DS3505
ZGSZ,2001-09-12 08:00,ZGSZ 120800Z AUTO 23004KT 32/22 A2971 RMK T03200220 IEM_DS3505
ZGSZ,2001-09-12 09:00,ZGSZ 120900Z AUTO 25002KT 6SM 32/24 A2971 RMK SLP075 T03150237 57007 IEM_DS3505
ZGSZ,2001-09-12 11:00,ZGSZ 121100Z AUTO 18006KT 29/23 A2974 RMK T02900230 IEM_DS3505
ZGSZ,2001-09-12 12:00,ZGSZ 121200Z AUTO 14004KT 5SM 30/23 A2974 RMK SLP086 T02960233 52010 IEM_DS3505
ZGSZ,2001-09-12 13:00,ZGSZ 121300Z AUTO 18006KT 4SM 28/24 A2977 RMK T02800240 IEM_DS3505
ZGSZ,2001-09-12 14:00,ZGSZ 121400Z AUTO 17006KT 5SM 28/23 A2977 RMK T02800230 IEM_DS3505
ZGSZ,2001-09-12 15:00,ZGSZ 121500Z AUTO 20006KT 4SM 28/23 A2977 RMK T02800230 IEM_DS3505
ZGSZ,2001-09-12 16:00,ZGSZ 121600Z AUTO 20006KT 4SM 28/23 A2977 RMK T02800230 IEM_DS3505
ZGSZ,2001-09-12 17:00,ZGSZ 121700Z AUTO 17004KT 3SM 27/23 A2977 RMK T02700230 IEM_DS3505
ZGSZ,2001-09-12 18:00,ZGSZ 121800Z AUTO 11002KT 6SM 27/23 A2977 RMK SLP085 T02740234 57008 IEM_DS3505
ZGSZ,2001-09-12 21:00,ZGSZ 122100Z AUTO 04002KT 5SM 27/24 RMK SLP082 T02710235 57003 IEM_DS3505
ZGSZ,2001-09-12 23:00,ZGSZ 122300Z AUTO 4SM 25/22 A2977 RMK T02500220 IEM_DS3505
ZGSZ,2001-09-13 00:00,ZGSZ 130000Z AUTO 04004KT 3SM 27/24 A2980 RMK SLP094 T02740241 52011 IEM_DS3505
ZGSZ,2001-09-13 01:00,ZGSZ 130100Z AUTO 03004KT 1 1/2SM 28/23 A2980 RMK T02800230 IEM_DS3505
ZGSZ,2001-09-13 02:00,ZGSZ 130200Z AUTO 36004KT 1 1/4SM 30/23 A2977 RMK T03000230 IEM_DS3505
ZGSZ,2001-09-13 03:00,ZGSZ 130300Z AUTO 32006KT 3SM 31/23 A2977 RMK SLP087 T03130233 57006 IEM_DS3505
ZGSZ,2001-09-13 04:00,ZGSZ 130400Z AUTO 04006KT 3SM 32/20 A2974 RMK T03200200 IEM_DS3505
ZGSZ,2001-09-13 05:00,ZGSZ 130500Z AUTO 06004KT 3SM 33/20 A2971 RMK T03300200 IEM_DS3505
ZGSZ,2001-09-13 06:00,ZGSZ 130600Z AUTO 24004KT 3SM 32/23 A2968 RMK T03200230 IEM_DS3505
ZGSZ,2001-09-13 07:00,ZGSZ 130700Z AUTO 28008KT 1 1/2SM 32/22 A2968 RMK T03200220 IEM_DS3505
ZGSZ,2001-09-13 08:00,ZGSZ 130800Z AUTO 30006KT 1 1/2SM 32/20 A2965 RMK T03200200 IEM_DS3505
ZGSZ,2001-09-13 09:00,ZGSZ 130900Z AUTO 16004KT 5SM 31/24 A2968 RMK SLP058 T03100240 57006 IEM_DS3505
ZGSZ,2001-09-13 11:00,ZGSZ 131100Z AUTO 19010KT 4SM 28/24 A2968 RMK T02800240 IEM_DS3505
ZGSZ,2001-09-13 12:00,ZGSZ 131200Z AUTO 14004KT 4SM 29/24 A2971 RMK SLP072 T02880238 52013 IEM_DS3505
ZGSZ,2001-09-13 13:00,ZGSZ 131300Z AUTO 17006KT 3SM 28/24 A2974 RMK T02800240 IEM_DS3505
ZGSZ,2001-09-13 14:00,ZGSZ 131400Z AUTO 15006KT 3SM 27/23 A2974 RMK T02700230 IEM_DS3505
ZGSZ,2001-09-13 15:00,ZGSZ 131500Z AUTO 15006KT 3SM 27/23 A2977 RMK T02700230 IEM_DS3505
ZGSZ,2001-09-13 16:00,ZGSZ 131600Z AUTO 15006KT 3SM 27/23 A2977 RMK T02700230 IEM_DS3505
ZGSZ,2001-09-13 17:00,ZGSZ 131700Z AUTO 19006KT 3SM 28/24 A2974 RMK T02800240 IEM_DS3505
ZGSZ,2001-09-13 18:00,ZGSZ 131800Z AUTO 00000KT 4SM 27/25 A2974 RMK SLP080 T02740246 57006 IEM_DS3505
ZGSZ,2001-09-13 19:00,ZGSZ 131900Z AUTO 11002KT 3SM 27/23 A2974 RMK T02700230 IEM_DS3505
ZGSZ,2001-09-13 20:00,ZGSZ 132000Z AUTO 07002KT 3SM 26/23 A2974 RMK T02600230 IEM_DS3505
ZGSZ,2001-09-13 21:00,ZGSZ 132100Z AUTO 04002KT 4SM 27/24 A2974 RMK SLP076 T02680244 57004 IEM_DS3505
ZGSZ,2001-09-13 22:00,ZGSZ 132200Z AUTO 29002KT 2 1/2SM 27/23 A2974 RMK T02700230 IEM_DS3505
ZGSZ,2001-09-14 00:00,ZGSZ 140000Z AUTO 00000KT 3SM 28/24 RMK SLP098 T02750245 52021 IEM_DS3505
ZGSZ,2001-09-14 01:00,ZGSZ 140100Z AUTO 29006KT 7SM 28/23 A2980 RMK T02800230 IEM_DS3505
ZGSZ,2001-09-14 02:00,ZGSZ 140200Z AUTO 27004KT 6SM 29/24 A2980 RMK T02900240 IEM_DS3505
ZGSZ,2001-09-14 03:00,ZGSZ 140300Z AUTO 04006KT 4SM 31/24 A2980 RMK SLP097 T03060241 57001 IEM_DS3505
ZGSZ,2001-09-14 04:00,ZGSZ 140400Z AUTO 26006KT 3SM 30/24 A2977 RMK T03000240 IEM_DS3505
ZGSZ,2001-09-14 05:00,ZGSZ 140500Z AUTO 27006KT 2 1/2SM 31/24 A2974 RMK T03100240 IEM_DS3505
ZGSZ,2001-09-14 06:00,ZGSZ 140600Z AUTO 18004KT 4SM 31/25 A2974 RMK SLP075 T03130251 57021 IEM_DS3505
ZGSZ,2001-09-14 07:00,ZGSZ 140700Z AUTO 31006KT 2 1/2SM 32/21 A2971 RMK T03200210 IEM_DS3505
ZGSZ,2001-09-14 08:00,ZGSZ 140800Z AUTO 27004KT 3SM 32/19 A2968 RMK T03200190 IEM_DS3505
ZGSZ,2001-09-14 09:00,ZGSZ 140900Z AUTO 00000KT 4SM 29/24 A2968 RMK SLP067 T02920238 57009 IEM_DS3505
ZGSZ,2001-09-14 10:00,ZGSZ 141000Z AUTO 17004KT 2SM 31/21 A2968 RMK T03100210 IEM_DS3505
ZGSZ,2001-09-14 11:00,ZGSZ 141100Z AUTO 14004KT 1 1/4SM 29/23 A2971 RMK T02900230 IEM_DS3505
ZGSZ,2001-09-14 12:00,ZGSZ 141200Z AUTO 09002KT 3SM 29/23 A2971 RMK SLP076 T02920233 52009 IEM_DS3505
ZGSZ,2001-09-14 13:00,ZGSZ 141300Z AUTO 14004KT 1 1/4SM 28/24 A2974 RMK T02800240 IEM_DS3505
ZGSZ,2001-09-14 14:00,ZGSZ 141400Z AUTO 08002KT 1 1/4SM 28/23 A2977 RMK T02800230 IEM_DS3505
ZGSZ,2001-09-14 15:00,ZGSZ 141500Z AUTO 17002KT 1 1/4SM 27/24 A2977 RMK T02700240 IEM_DS3505
ZGSZ,2001-09-14 16:00,ZGSZ 141600Z AUTO 17006KT 1 1/2SM 27/24 A2977 RMK T02700240 IEM_DS3505
ZGSZ,2001-09-14 17:00,ZGSZ 141700Z AUTO 17006KT 2SM 28/25 A2974 RMK T02800250 IEM_DS3505
ZGSZ,2001-09-14 18:00,ZGSZ 141800Z AUTO 00000KT 3SM 27/24 A2974 RMK SLP080 T02710242 57008 IEM_DS3505
ZGSZ,2001-09-14 19:00,ZGSZ 141900Z AUTO 23006KT 1 1/2SM 28/25 A2974 RMK T02800250 IEM_DS3505
ZGSZ,2001-09-14 20:00,ZGSZ 142000Z AUTO 23002KT 1 1/4SM 27/24 A2974 RMK T02700240 IEM_DS3505
ZGSZ,2001-09-14 21:00,ZGSZ 142100Z AUTO 00000KT 3SM 27/24 A2974 RMK SLP078 T02670243 57003 IEM_DS3505
ZGSZ,2001-09-14 22:00,ZGSZ 142200Z AUTO 29004KT 1 1/4SM 27/24 A2974 RMK T02700240 IEM_DS3505
ZGSZ,2001-09-14 23:00,ZGSZ 142300Z AUTO 31004KT 1SM 27/24 A2977 RMK T02700240 IEM_DS3505
ZGSZ,2001-09-15 00:00,ZGSZ 150000Z AUTO 00000KT 2 1/2SM 27/25 A2977 RMK SLP093 T02730246 52015 IEM_DS3505
ZGSZ,2001-09-15 01:00,ZGSZ 150100Z AUTO 35004KT 1 1/4SM 29/25 A2977 RMK T02900250 IEM_DS3505
ZGSZ,2001-09-15 02:00,ZGSZ 150200Z AUTO 01006KT 2 1/2SM 31/21 A2977 RMK T03100210 IEM_DS3505
ZGSZ,2001-09-15 03:00,ZGSZ 150300Z AUTO 04008KT 6SM 32/19 A2977 RMK SLP091 T03200191 57001 IEM_DS3505
ZGSZ,2001-09-15 04:00,ZGSZ 150400Z AUTO 01006KT 6SM 33/17 A2974 RMK T03300170 IEM_DS3505
ZGSZ,2001-09-15 05:00,ZGSZ 150500Z AUTO 32006KT 6SM 33/19 A2971 RMK T03300190 IEM_DS3505
ZGSZ,2001-09-15 06:00,ZGSZ 150600Z AUTO 34008KT 9SM 34/19 A2968 RMK SLP064 T03420192 57027 IEM_DS3505
ZGSZ,2001-09-15 07:00,ZGSZ 150700Z AUTO 28008KT 7SM 33/19 A2965 RMK T03300190 IEM_DS3505
ZGSZ,2001-09-15 08:00,ZGSZ 150800Z AUTO 28010KT 7SM 32/21 A2965 RMK T03200210 IEM_DS3505
ZGSZ,2001-09-15 09:00,ZGSZ 150900Z AUTO 32002KT 10SM 34/20 A2968 RMK SLP057 T03350200 57007 IEM_DS3505
ZGSZ,2001-09-15 10:00,ZGSZ 151000Z AUTO 29004KT 7SM 32/19 A2968 RMK T03200190 IEM_DS3505
ZGSZ,2001-09-15 11:00,ZGSZ 151100Z AUTO 05002KT 6SM 30/19 A2968 RMK T03000190 IEM_DS3505
ZGSZ,2001-09-15 12:00,ZGSZ 151200Z AUTO 04004KT 4SM 31/20 A2968 RMK SLP067 T03130204 52010 IEM_DS3505
ZGSZ,2001-09-15 13:00,ZGSZ 151300Z AUTO 08004KT 6SM 29/19 A2971 RMK T02900190 IEM_DS3505
ZGSZ,2001-09-15 14:00,ZGSZ 151400Z AUTO 07004KT 6SM 29/18 A2974 RMK T02900180 IEM_DS3505
ZGSZ,2001-09-15 15:00,ZGSZ 151500Z AUTO 05006KT 6SM 29/17 A2974 RMK T02900170 IEM_DS3505
ZGSZ,2001-09-15 16:00,ZGSZ 151600Z AUTO 02002KT 6SM 27/19 A2974 RMK T02700190 IEM_DS3505
ZGSZ,2001-09-15 17:00,ZGSZ 151700Z AUTO 08002KT 6SM 27/17 A2974 RMK T02700170 IEM_DS3505
ZGSZ,2001-09-15 18:00,ZGSZ 151800Z AUTO 04004KT 6SM 28/21 A2974 RMK SLP077 T02780206 57001 IEM_DS3505
ZGSZ,2001-09-15 21:00,ZGSZ 152100Z AUTO 07004KT 6SM 27/19 A2974 RMK SLP075 T02680189 57002 IEM_DS3505
ZGSZ,2001-09-15 22:00,ZGSZ 152200Z AUTO 30002KT 7SM 25/16 A2974 RMK T02500160 IEM_DS3505
ZGSZ,2001-09-15 23:00,ZGSZ 152300Z AUTO 01004KT 7SM 26/16 A2977 RMK T02600160 IEM_DS3505
ZGSZ,2001-09-16 00:00,ZGSZ 160000Z AUTO 04006KT 8SM 27/18 A2977 RMK SLP094 T02710180 52018 IEM_DS3505
ZGSZ,2001-09-16 01:00,ZGSZ 160100Z AUTO 28004KT 6SM 29/16 A2977 RMK T02900160 IEM_DS3505
ZGSZ,2001-09-16 02:00,ZGSZ 160200Z AUTO 01008KT 6SM 31/17 A2980 RMK T03100170 IEM_DS3505
ZGSZ,2001-09-16 03:00,ZGSZ 160300Z AUTO 07006KT 7SM 32/18 A2977 RMK SLP088 T03170178 57005 IEM_DS3505
ZGSZ,2001-09-16 04:00,ZGSZ 160400Z AUTO 27008KT 31/19 A2974 RMK T03100190 IEM_DS3505
ZGSZ,2001-09-16 05:00,ZGSZ 160500Z AUTO 28006KT 32/19 A2971 RMK T03200190 IEM_DS3505
ZGSZ,2001-09-16 06:00,ZGSZ 160600Z AUTO 22006KT 6SM 34/18 A2968 RMK SLP064 T03430184 57024 IEM_DS3505
ZGSZ,2001-09-16 07:00,ZGSZ 160700Z AUTO 28008KT 33/18 A2968 RMK T03300180 IEM_DS3505
ZGSZ,2001-09-16 08:00,ZGSZ 160800Z AUTO 27006KT 6SM 32/20 A2965 RMK T03200200 IEM_DS3505
ZGSZ,2001-09-16 09:00,ZGSZ 160900Z AUTO 20006KT 6SM 32/21 A2965 RMK SLP056 T03250207 57008 IEM_DS3505
ZGSZ,2001-09-16 10:00,ZGSZ 161000Z AUTO 28004KT 6SM 31/19 A2968 RMK T03100190 IEM_DS3505
ZGSZ,2001-09-16 11:00,ZGSZ 161100Z AUTO 28004KT 6SM 30/21 A2968 RMK T03000210 IEM_DS3505
ZGSZ,2001-09-16 12:00,ZGSZ 161200Z AUTO 16004KT 7SM 30/21 A2971 RMK SLP071 T03040209 52015 IEM_DS3505
ZGSZ,2001-09-16 13:00,ZGSZ 161300Z AUTO 17006KT 5SM 29/21 A2974 RMK T02900210 IEM_DS3505
ZGSZ,2001-09-16 14:00,ZGSZ 161400Z AUTO 17004KT 5SM 27/22 A2974 RMK T02700220 IEM_DS3505
ZGSZ,2001-09-16 15:00,ZGSZ 161500Z AUTO 17006KT 5SM 27/22 A2974 RMK T02700220 IEM_DS3505
ZGSZ,2001-09-16 16:00,ZGSZ 161600Z AUTO 16004KT 4SM 26/21 A2974 RMK T02600210 IEM_DS3505
ZGSZ,2001-09-16 17:00,ZGSZ 161700Z AUTO 13004KT 3SM 27/22 A2974 RMK T02700220 IEM_DS3505
ZGSZ,2001-09-16 18:00,ZGSZ 161800Z AUTO 00000KT 3SM 27/22 A2971 RMK SLP076 T02740218 57006 IEM_DS3505
ZGSZ,2001-09-16 21:00,ZGSZ 162100Z AUTO 00000KT 3SM 27/22 A2971 RMK SLP067 T02670220 57009 IEM_DS3505
ZGSZ,2001-09-16 22:00,ZGSZ 162200Z AUTO 1 1/2SM 26/22 A2971 RMK T02600220 IEM_DS3505
ZGSZ,2001-09-16 23:00,ZGSZ 162300Z AUTO 11002KT 1SM 26/22 A2971 RMK T02600220 IEM_DS3505
ZGSZ,2001-09-17 00:00,ZGSZ 170000Z AUTO 22002KT 3SM 28/22 A2974 RMK SLP077 T02760225 52010 IEM_DS3505
ZGSZ,2001-09-17 01:00,ZGSZ 170100Z AUTO 31002KT 1 1/4SM 29/22 A2974 RMK T02900220 IEM_DS3505
ZGSZ,2001-09-17 02:00,ZGSZ 170200Z AUTO 25004KT 1SM 30/23 A2974 RMK T03000230 IEM_DS3505
ZGSZ,2001-09-17 03:00,ZGSZ 170300Z AUTO 18002KT 2SM 32/24 A2974 RMK SLP074 T03180245 57003 IEM_DS3505
ZGSZ,2001-09-17 04:00,ZGSZ 170400Z AUTO 28008KT 2SM 32/22 A2971 RMK T03200220 IEM_DS3505
ZGSZ,2001-09-17 05:00,ZGSZ 170500Z AUTO 29008KT 2 1/2SM 32/22 A2968 RMK T03200220 IEM_DS3505
ZGSZ,2001-09-17 06:00,ZGSZ 170600Z AUTO 18004KT 2SM 33/22 A2965 RMK SLP049 T03340223 57025 IEM_DS3505
ZGSZ,2001-09-17 07:00,ZGSZ 170700Z AUTO 29008KT 7SM 33/21 A2962 RMK T03300210 IEM_DS3505
ZGSZ,2001-09-17 08:00,ZGSZ 170800Z AUTO 29006KT 6SM 33/21 A2962 RMK T03300210 IEM_DS3505
ZGSZ,2001-09-17 09:00,ZGSZ 170900Z AUTO 22004KT 2 1/2SM 33/22 RMK SLP041 T03320219 57008 IEM_DS3505
ZGSZ,2001-09-17 10:00,ZGSZ 171000Z AUTO 17006KT 2 1/2SM 30/25 A2962 RMK T03000250 IEM_DS3505
ZGSZ,2001-09-17 11:00,ZGSZ 171100Z AUTO 17006KT 2 1/2SM 29/24 A2965 RMK T02900240 IEM_DS3505
ZGSZ,2001-09-17 12:00,ZGSZ 171200Z AUTO 27004KT 4SM 31/23 A2968 RMK SLP059 T03110232 52018 IEM_DS3505
ZGSZ,2001-09-17 13:00,ZGSZ 171300Z AUTO 15006KT 3SM 29/25 A2968 RMK T02900250 IEM_DS3505
ZGSZ,2001-09-17 14:00,ZGSZ 171400Z AUTO 15006KT 3SM 28/25 A2971 RMK T02800250 IEM_DS3505
ZGSZ,2001-09-17 15:00,ZGSZ 171500Z AUTO 16006KT 2 1/2SM 29/25 A2971 RMK T02900250 IEM_DS3505
ZGSZ,2001-09-17 16:00,ZGSZ 171600Z AUTO 16006KT 2 1/2SM 29/25 A2971 RMK T02900250 IEM_DS3505
ZGSZ,2001-09-17 17:00,ZGSZ 171700Z AUTO 18004KT 2SM 28/24 A2968 RMK T02800240 IEM_DS3505
ZGSZ,2001-09-17 18:00,ZGSZ 171800Z AUTO 18002KT 2 1/2SM 29/24 A2968 RMK SLP063 T02860242 57003 IEM_DS3505
ZGSZ,2001-09-17 19:00,ZGSZ 171900Z AUTO 27004KT 2 1/2SM 28/24 A2968 RMK T02800240 IEM_DS3505
ZGSZ,2001-09-17 20:00,ZGSZ 172000Z AUTO 35002KT 2SM 27/24 A2968 RMK T02700240 IEM_DS3505
ZGSZ,2001-09-17 21:00,ZGSZ 172100Z AUTO 20002KT 2 1/2SM 28/25 A2968 RMK SLP059 T02820248 57004 IEM_DS3505
ZGSZ,2001-09-17 22:00,ZGSZ 172200Z AUTO 28006KT 1 1/2SM 28/24 A2968 RMK T02800240 IEM_DS3505
ZGSZ,2001-09-17 23:00,ZGSZ 172300Z AUTO 29002KT 1 1/2SM 27/24 A2971 RMK T02700240 IEM_DS3505
ZGSZ,2001-09-18 00:00,ZGSZ 180000Z AUTO 29002KT 3SM 29/25 A2974 RMK SLP076 T02880251 52017 IEM_DS3505
ZGSZ,2001-09-18 01:00,ZGSZ 180100Z AUTO 29004KT 1 1/2SM 29/24 A2974 RMK T02900240 IEM_DS3505
ZGSZ,2001-09-18 02:00,ZGSZ 180200Z AUTO 27004KT 1 1/2SM 30/24 A2974 RMK T03000240 IEM_DS3505
ZGSZ,2001-09-18 03:00,ZGSZ 180300Z AUTO 25006KT 3SM 33/21 A2974 RMK SLP074 T03260210 57002 IEM_DS3505
ZGSZ,2001-09-18 04:00,ZGSZ 180400Z AUTO 26006KT 2SM 32/23 A2971 RMK T03200230 IEM_DS3505
ZGSZ,2001-09-18 05:00,ZGSZ 180500Z AUTO 29010KT 2 1/2SM 33/22 A2968 RMK T03300220 IEM_DS3505
ZGSZ,2001-09-18 06:00,ZGSZ 180600Z AUTO 25016KT 4SM 27/22 A2965 RMK 60055 SLP061 T02700221 57014 IEM_DS3505
ZGSZ,2001-09-18 07:00,ZGSZ 180700Z AUTO 29010KT 7SM 34/21 A2962 RMK T03400210 IEM_DS3505
ZGSZ,2001-09-18 08:00,ZGSZ 180800Z AUTO 29008KT 7SM 34/20 A2962 RMK T03400200 IEM_DS3505
ZGSZ,2001-09-18 09:00,ZGSZ 180900Z AUTO 00000KT 3SM 31/24 A2962 RMK SLP041 T03080237 57019 IEM_DS3505
ZGSZ,2001-09-18 10:00,ZGSZ 181000Z AUTO 13008KT 1 1/2SM 33/20 A2962 RMK T03300200 IEM_DS3505
ZGSZ,2001-09-18 11:00,ZGSZ 181100Z AUTO 10004KT 1 1/4SM 31/20 A2962 RMK T03100200 IEM_DS3505
ZGSZ,2001-09-18 12:00,ZGSZ 181200Z AUTO 00000KT 2 1/2SM 30/24 A2965 RMK 60051 SLP053 T02980244 52012 IEM_DS3505
ZGSZ,2001-09-18 13:00,ZGSZ 181300Z AUTO 16004KT 2SM 29/25 A2968 RMK T02900250 IEM_DS3505
ZGSZ,2001-09-18 14:00,ZGSZ 181400Z AUTO 14004KT 1 1/2SM 29/25 A2968 RMK T02900250 IEM_DS3505
ZGSZ,2001-09-18 15:00,ZGSZ 181500Z AUTO 14004KT 1 1/4SM 28/25 A2968 RMK T02800250 IEM_DS3505
ZGSZ,2001-09-18 16:00,ZGSZ 181600Z AUTO 15004KT 1 1/4SM 28/25 A2968 RMK T02800250 IEM_DS3505
ZGSZ,2001-09-18 17:00,ZGSZ 181700Z AUTO 14002KT 2SM 28/25 A2965 RMK T02800250 IEM_DS3505
ZGSZ,2001-09-18 18:00,ZGSZ 181800Z AUTO 09002KT 2 1/2SM 28/24 A2965 RMK SLP053 T02780244 57011 IEM_DS3505
ZGSZ,2001-09-18 19:00,ZGSZ 181900Z AUTO 1 1/2SM 27/23 A2965 RMK T02700230 IEM_DS3505
ZGSZ,2001-09-18 20:00,ZGSZ 182000Z AUTO 1 1/2SM 27/24 A2965 RMK T02700240 IEM_DS3505
ZGSZ,2001-09-18 21:00,ZGSZ 182100Z AUTO 00000KT 2 1/2SM 27/25 A2968 RMK 70108 SLP057 T02720246 52005 IEM_DS3505
ZGSZ,2001-09-18 22:00,ZGSZ 182200Z AUTO 02004KT 1 1/4SM 27/24 A2968 RMK T02700240 IEM_DS3505
ZGSZ,2001-09-18 23:00,ZGSZ 182300Z AUTO 04004KT 1 1/4SM 27/23 A2968 RMK T02700230 IEM_DS3505
ZGSZ,2001-09-19 00:00,ZGSZ 190000Z AUTO 07004KT 4SM 28/25 A2971 RMK 70108 SLP067 T02790248 52010 IEM_DS3505
ZGSZ,2001-09-19 01:00,ZGSZ 190100Z AUTO 36006KT 3SM 30/20 A2971 RMK T03000200 IEM_DS3505
ZGSZ,2001-09-19 02:00,ZGSZ 190200Z AUTO 03008KT 4SM 32/20 A2971 RMK T03200200 IEM_DS3505
ZGSZ,2001-09-19 03:00,ZGSZ 190300Z AUTO 04010KT 2 1/2SM 32/22 A2971 RMK SLP071 T03230221 52004 IEM_DS3505
ZGSZ,2001-09-19 04:00,ZGSZ 190400Z AUTO 35006KT 34/20 A2971 RMK T03400200 IEM_DS3505
ZGSZ,2001-09-19 05:00,ZGSZ 190500Z AUTO 29008KT 33/23 A2965 RMK T03300230 IEM_DS3505
ZGSZ,2001-09-19 06:00,ZGSZ 190600Z AUTO 36006KT 6SM 34/21 A2965 RMK SLP044 T03390206 57027 IEM_DS3505
ZGSZ,2001-09-19 07:00,ZGSZ 190700Z AUTO 28008KT 5SM 34/22 A2962 RMK T03400220 IEM_DS3505
ZGSZ,2001-09-19 08:00,ZGSZ 190800Z AUTO 27004KT 35/20 A2959 RMK T03500200 IEM_DS3505
ZGSZ,2001-09-19 09:00,ZGSZ 190900Z AUTO 04006KT 4SM 34/22 A2962 RMK SLP037 T03410218 57007 IEM_DS3505
ZGSZ,2001-09-19 10:00,ZGSZ 191000Z AUTO 03006KT 6SM 33/20 A2959 RMK T03300200 IEM_DS3505
ZGSZ,2001-09-19 11:00,ZGSZ 191100Z AUTO 05004KT 6SM 32/21 A2962 RMK T03200210 IEM_DS3505
ZGSZ,2001-09-19 12:00,ZGSZ 191200Z AUTO 36002KT 4SM 32/23 A2962 RMK SLP041 T03210229 52004 IEM_DS3505
ZGSZ,2001-09-19 13:00,ZGSZ 191300Z AUTO 32004KT 6SM 31/21 A2965 RMK T03100210 IEM_DS3505
ZGSZ,2001-09-19 14:00,ZGSZ 191400Z AUTO 34006KT 6SM 31/21 A2965 RMK T03100210 IEM_DS3505
ZGSZ,2001-09-19 15:00,ZGSZ 191500Z AUTO 35004KT 6SM 30/22 A2965 RMK T03000220 IEM_DS3505
ZGSZ,2001-09-19 16:00,ZGSZ 191600Z AUTO 36006KT 29/21 A2968 RMK T02900210 IEM_DS3505
ZGSZ,2001-09-19 17:00,ZGSZ 191700Z AUTO 01004KT 29/21 A2965 RMK T02900210 IEM_DS3505
ZGSZ,2001-09-19 18:00,ZGSZ 191800Z AUTO 04006KT 5SM 30/22 A2965 RMK SLP051 T03030218 57004 IEM_DS3505
ZGSZ,2001-09-19 19:00,ZGSZ 191900Z AUTO 01010KT 5SM 29/20 A2965 RMK T02900200 IEM_DS3505
ZGSZ,2001-09-19 20:00,ZGSZ 192000Z AUTO 01008KT 5SM 29/20 A2965 RMK T02900200 IEM_DS3505
ZGSZ,2001-09-19 21:00,ZGSZ 192100Z AUTO 04006KT 6SM 29/22 A2965 RMK SLP050 T02880222 57001 IEM_DS3505
ZGSZ,2001-09-19 22:00,ZGSZ 192200Z AUTO 36006KT 6SM 28/20 A2965 RMK T02800200 IEM_DS3505
ZGSZ,2001-09-19 23:00,ZGSZ 192300Z AUTO 01008KT 6SM 28/20 A2968 RMK T02800200 IEM_DS3505
ZGSZ,2001-09-20 00:00,ZGSZ 200000Z AUTO 07006KT 6SM 29/22 A2971 RMK SLP065 T02870224 52015 IEM_DS3505
ZGSZ,2001-09-20 01:00,ZGSZ 200100Z AUTO 01010KT 6SM 29/21 A2971 RMK T02900210 IEM_DS3505
ZGSZ,2001-09-20 02:00,ZGSZ 200200Z AUTO 04008KT 6SM 30/21 A2968 RMK T03000210 IEM_DS3505
ZGSZ,2001-09-20 03:00,ZGSZ 200300Z AUTO 32008KT 6SM 30/23 A2968 RMK SLP060 T02970227 57005 IEM_DS3505
ZGSZ,2001-09-20 04:00,ZGSZ 200400Z AUTO 31010KT 5SM 31/21 A2968 RMK T03100210 IEM_DS3505
ZGSZ,2001-09-20 05:00,ZGSZ 200500Z AUTO 33010KT 6SM 32/21 A2965 RMK T03200210 IEM_DS3505
ZGSZ,2001-09-20 06:00,ZGSZ 200600Z AUTO 22006KT 6SM 32/22 A2962 RMK SLP037 T03160225 57023 IEM_DS3505
ZGSZ,2001-09-20 07:00,ZGSZ 200700Z AUTO 34006KT 6SM 28/24 A2962 RMK SLP041 T02760245 57016 IEM_DS3505
ZGSZ,2001-09-20 08:00,ZGSZ 200800Z AUTO 27002KT 6SM 27/24 A2962 RMK SLP041 T02690236 57009 IEM_DS3505
ZGSZ,2001-09-20 09:00,ZGSZ 200900Z AUTO 18008KT 5SM 25/23 A2962 RMK T02500230 IEM_DS3505
ZGSZ,2001-09-20 10:00,ZGSZ 201000Z AUTO 22006KT 4SM 26/24 A2962 RMK SLP043 T02630237 52002 IEM_DS3505
ZGSZ,2001-09-20 11:00,ZGSZ 201100Z AUTO 25004KT 4SM 25/24 A2962 RMK SLP043 T02540241 52002 IEM_DS3505
ZGSZ,2001-09-20 12:00,ZGSZ 201200Z AUTO 20006KT 4SM 26/24 A2965 RMK 60079 SLP052 T02570240 52013 IEM_DS3505
ZGSZ,2001-09-20 13:00,ZGSZ 201300Z AUTO 22008KT 4SM 25/24 A2965 RMK SLP061 T02480239 52018 IEM_DS3505
ZGSZ,2001-09-20 14:00,ZGSZ 201400Z AUTO 18004KT 3SM 25/24 A2968 RMK SLP070 T02480239 52027 IEM_DS3505
ZGSZ,2001-09-20 15:00,ZGSZ 201500Z AUTO 23010KT 3SM 25/22 A2971 RMK T02500220 IEM_DS3505
ZGSZ,2001-09-20 16:00,ZGSZ 201600Z AUTO 19008KT 2SM 25/22 A2971 RMK T02500220 IEM_DS3505
ZGSZ,2001-09-20 17:00,ZGSZ 201700Z AUTO 16010KT 3SM 25/23 A2971 RMK T02500230 IEM_DS3505
ZGSZ,2001-09-20 18:00,ZGSZ 201800Z AUTO 02002KT 4SM 26/24 A2971 RMK 60051 SLP079 T02560242 52002 IEM_DS3505
ZGSZ,2001-09-20 19:00,ZGSZ 201900Z AUTO 09006KT 3SM 26/23 A2974 RMK T02600230 IEM_DS3505
ZGSZ,2001-09-20 20:00,ZGSZ 202000Z AUTO 08006KT 3SM 25/22 A2971 RMK T02500220 IEM_DS3505
ZGSZ,2001-09-20 21:00,ZGSZ 202100Z AUTO 04006KT 3SM 25/24 RMK 70196 SLP081 T02540243 52002 IEM_DS3505
ZGSZ,2001-09-20 22:00,ZGSZ 202200Z AUTO 3SM 25/22 A2974 RMK T02500220 IEM_DS3505
ZGSZ,2001-09-20 23:00,ZGSZ 202300Z AUTO 06006KT 1 1/2SM 24/22 A2977 RMK T02400220 IEM_DS3505
ZGSZ,2001-09-21 00:00,ZGSZ 210000Z AUTO 04004KT 5SM 25/24 A2980 RMK 60118 SLP101 T02500238 52020 IEM_DS3505
ZGSZ,2001-09-21 01:00,ZGSZ 210100Z AUTO 07010KT 7SM 25/22 A2980 RMK T02500220 IEM_DS3505
ZGSZ,2001-09-21 02:00,ZGSZ 210200Z AUTO 07012KT 7SM 25/22 A2983 RMK T02500220 IEM_DS3505
ZGSZ,2001-09-21 03:00,ZGSZ 210300Z AUTO 04008KT 4SM 26/24 A2983 RMK SLP118 T02580239 52017 IEM_DS3505
ZGSZ,2001-09-21 04:00,ZGSZ 210400Z AUTO 08012KT 5SM 25/22 A2983 RMK T02500220 IEM_DS3505
ZGSZ,2001-09-21 05:00,ZGSZ 210500Z AUTO 09012KT 7SM 26/22 A2983 RMK T02600220 IEM_DS3505
ZGSZ,2001-09-21 06:00,ZGSZ 210600Z AUTO 04010KT 7SM 26/23 A2980 RMK 60020 SLP105 T02590233 57013 IEM_DS3505
ZGSZ,2001-09-21 07:00,ZGSZ 210700Z AUTO 08010KT 7SM 27/22 A2980 RMK T02700220 IEM_DS3505
ZGSZ,2001-09-21 08:00,ZGSZ 210800Z AUTO 08008KT 7SM 27/22 A2977 RMK T02700220 IEM_DS3505
ZGSZ,2001-09-21 09:00,ZGSZ 210900Z AUTO 07008KT 7SM 26/23 A2980 RMK SLP097 T02610232 57008 IEM_DS3505
ZGSZ,2001-09-21 10:00,ZGSZ 211000Z AUTO 08008KT 6SM 27/21 A2980 RMK T02700210 IEM_DS3505
ZGSZ,2001-09-21 11:00,ZGSZ 211100Z AUTO 07006KT 6SM 26/21 A2980 RMK T02600210 IEM_DS3505
ZGSZ,2001-09-21 12:00,ZGSZ 211200Z AUTO 09004KT 12SM 27/23 A2983 RMK 60003 SLP118 T02740233 52021 IEM_DS3505
ZGSZ,2001-09-21 13:00,ZGSZ 211300Z AUTO 04002KT 4SM 26/22 A2985 RMK T02600220 IEM_DS3505
ZGSZ,2001-09-21 14:00,ZGSZ 211400Z AUTO 06004KT 4SM 26/22 A2985 RMK T02600220 IEM_DS3505
ZGSZ,2001-09-21 15:00,ZGSZ 211500Z AUTO 3SM 25/22 A2985 RMK T02500220 IEM_DS3505
ZGSZ,2001-09-21 16:00,ZGSZ 211600Z AUTO 32002KT 4SM 25/22 A2985 RMK T02500220 IEM_DS3505
ZGSZ,2001-09-21 17:00,ZGSZ 211700Z AUTO 3SM 25/22 A2985 RMK T02500220 IEM_DS3505
ZGSZ,2001-09-21 18:00,ZGSZ 211800Z AUTO 04006KT 9SM 27/24 A2983 RMK SLP113 T02680236 57012 IEM_DS3505
ZGSZ,2001-09-21 19:00,ZGSZ 211900Z AUTO 06004KT 3SM 25/22 A2983 RMK T02500220 IEM_DS3505
ZGSZ,2001-09-21 20:00,ZGSZ 212000Z AUTO 35004KT 3SM 25/22 A2983 RMK T02500220 IEM_DS3505
ZGSZ,2001-09-21 21:00,ZGSZ 212100Z AUTO 04002KT 7SM 26/23 A2983 RMK SLP114 T02560234 52001 IEM_DS3505
ZGSZ,2001-09-21 22:00,ZGSZ 212200Z AUTO 03002KT 3SM 24/22 A2985 RMK T02400220 IEM_DS3505
ZGSZ,2001-09-21 23:00,ZGSZ 212300Z AUTO 07004KT 2SM 24/22 A2985 RMK T02400220 IEM_DS3505
ZGSZ,2001-09-22 00:00,ZGSZ 220000Z AUTO 04006KT 6SM 26/24 A2988 RMK 70018 SLP128 T02580235 52014 IEM_DS3505
ZGSZ,2001-09-22 01:00,ZGSZ 220100Z AUTO 05004KT 7SM 27/22 A2988 RMK T02700220 IEM_DS3505
ZGSZ,2001-09-22 02:00,ZGSZ 220200Z AUTO 05004KT 7SM 28/22 A2988 RMK T02800220 IEM_DS3505
ZGSZ,2001-09-22 03:00,ZGSZ 220300Z AUTO 04008KT 9SM 29/22 A2988 RMK SLP131 T02880220 52003 IEM_DS3505
ZGSZ,2001-09-22 04:00,ZGSZ 220400Z AUTO 05004KT 7SM 30/23 A2985 RMK T03000230 IEM_DS3505
ZGSZ,2001-09-22 05:00,ZGSZ 220500Z AUTO 10004KT 7SM 31/21 A2983 RMK T03100210 IEM_DS3505
ZGSZ,2001-09-22 06:00,ZGSZ 220600Z AUTO 02006KT 12SM 31/22 A2983 RMK SLP109 T03090215 57022 IEM_DS3505
ZGSZ,2001-09-22 07:00,ZGSZ 220700Z AUTO 21006KT 7SM 30/22 A2980 RMK T03000220 IEM_DS3505
ZGSZ,2001-09-22 09:00,ZGSZ 220900Z AUTO 19008KT 7SM 29/22 A2980 RMK T02900220 IEM_DS3505
ZGSZ,2001-09-22 10:00,ZGSZ 221000Z AUTO 17006KT 7SM 28/21 A2980 RMK T02800210 IEM_DS3505
ZGSZ,2001-09-22 11:00,ZGSZ 221100Z AUTO 16006KT 7SM 27/22 A2980 RMK T02700220 IEM_DS3505
ZGSZ,2001-09-22 12:00,ZGSZ 221200Z AUTO 09004KT 9SM 27/22 A2983 RMK SLP113 T02740218 52013 IEM_DS3505
ZGSZ,2001-09-22 13:00,ZGSZ 221300Z AUTO 10004KT 3SM 27/21 A2983 RMK T02700210 IEM_DS3505
ZGSZ,2001-09-22 14:00,ZGSZ 221400Z AUTO 10004KT 27/21 A2985 RMK T02700210 IEM_DS3505
ZGSZ,2001-09-22 15:00,ZGSZ 221500Z AUTO 12004KT 4SM 26/21 A2985 RMK T02600210 IEM_DS3505
ZGSZ,2001-09-22 16:00,ZGSZ 221600Z AUTO 08004KT 26/20 A2985 RMK T02600200 IEM_DS3505
ZGSZ,2001-09-22 17:00,ZGSZ 221700Z AUTO 09004KT 4SM 26/21 A2983 RMK T02600210 IEM_DS3505
ZGSZ,2001-09-22 18:00,ZGSZ 221800Z AUTO 04004KT 5SM 26/22 A2983 RMK SLP109 T02650225 57012 IEM_DS3505
ZGSZ,2001-09-22 21:00,ZGSZ 222100Z AUTO 34004KT 4SM 26/23 A2983 RMK SLP108 T02590227 57001 IEM_DS3505
ZGSZ,2001-09-22 22:00,ZGSZ 222200Z AUTO 02004KT 3SM 24/21 A2983 RMK T02400210 IEM_DS3505
ZGSZ,2001-09-22 23:00,ZGSZ 222300Z AUTO 35006KT 4SM 25/21 A2983 RMK T02500210 IEM_DS3505
ZGSZ,2001-09-23 00:00,ZGSZ 230000Z AUTO 04008KT 6SM 26/21 A2985 RMK SLP117 T02590209 52009 IEM_DS3505
ZGSZ,2001-09-23 01:00,ZGSZ 230100Z AUTO 01010KT 6SM 28/18 A2985 RMK T02800180 IEM_DS3505
ZGSZ,2001-09-23 02:00,ZGSZ 230200Z AUTO 36010KT 6SM 29/18 A2985 RMK T02900180 IEM_DS3505
ZGSZ,2001-09-23 03:00,ZGSZ 230300Z AUTO 02008KT 11SM 30/21 A2985 RMK SLP115 T02990207 57002 IEM_DS3505
ZGSZ,2001-09-23 04:00,ZGSZ 230400Z AUTO 04008KT 6SM 30/18 A2983 RMK T03000180 IEM_DS3505
ZGSZ,2001-09-23 05:00,ZGSZ 230500Z AUTO 01012KT 6SM 31/18 A2980 RMK T03100180 IEM_DS3505
ZGSZ,2001-09-23 06:00,ZGSZ 230600Z AUTO 32008KT 16SM 32/20 A2977 RMK SLP084 T03150198 57031 IEM_DS3505
ZGSZ,2001-09-23 07:00,ZGSZ 230700Z AUTO 03012KT 7SM 32/17 A2974 RMK T03200170 IEM_DS3505
ZGSZ,2001-09-23 08:00,ZGSZ 230800Z AUTO 03010KT 6SM 32/18 A2971 RMK T03200180 IEM_DS3505
ZGSZ,2001-09-23 09:00,ZGSZ 230900Z AUTO 36006KT 17SM 32/18 A2971 RMK SLP075 T03160185 57009 IEM_DS3505
ZGSZ,2001-09-23 10:00,ZGSZ 231000Z AUTO 03006KT 7SM 30/17 A2974 RMK T03000170 IEM_DS3505
ZGSZ,2001-09-23 11:00,ZGSZ 231100Z AUTO 05004KT 6SM 29/18 A2974 RMK T02900180 IEM_DS3505
ZGSZ,2001-09-23 12:00,ZGSZ 231200Z AUTO 07002KT 10SM 30/20 A2974 RMK SLP086 T02960201 52011 IEM_DS3505
ZGSZ,2001-09-23 13:00,ZGSZ 231300Z AUTO 03004KT 6SM 28/20 A2977 RMK T02800200 IEM_DS3505
ZGSZ,2001-09-23 14:00,ZGSZ 231400Z AUTO 03002KT 6SM 27/19 A2977 RMK T02700190 IEM_DS3505
ZGSZ,2001-09-23 15:00,ZGSZ 231500Z AUTO 36006KT 6SM 26/19 A2977 RMK T02600190 IEM_DS3505
ZGSZ,2001-09-23 16:00,ZGSZ 231600Z AUTO 02006KT 6SM 26/17 A2977 RMK T02600170 IEM_DS3505
ZGSZ,2001-09-23 17:00,ZGSZ 231700Z AUTO 36006KT 6SM 26/18 A2977 RMK T02600180 IEM_DS3505
ZGSZ,2001-09-23 18:00,ZGSZ 231800Z AUTO 04004KT 8SM 27/18 A2974 RMK SLP084 T02700185 57009 IEM_DS3505
ZGSZ,2001-09-23 19:00,ZGSZ 231900Z AUTO 36006KT 6SM 25/17 A2974 RMK T02500170 IEM_DS3505
ZGSZ,2001-09-23 21:00,ZGSZ 232100Z AUTO 04006KT 8SM 26/18 A2977 RMK SLP084 T02610181 57001 IEM_DS3505
ZGSZ,2001-09-23 22:00,ZGSZ 232200Z AUTO 36006KT 7SM 25/17 A2977 RMK T02500170 IEM_DS3505
ZGSZ,2001-09-23 23:00,ZGSZ 232300Z AUTO 32004KT 7SM 25/17 A2977 RMK T02500170 IEM_DS3505
ZGSZ,2001-09-24 00:00,ZGSZ 240000Z AUTO 04008KT 7SM 26/19 A2980 RMK SLP096 T02640186 52012 IEM_DS3505
ZGSZ,2001-09-24 01:00,ZGSZ 240100Z AUTO 36008KT 7SM 27/17 A2980 RMK T02700170 IEM_DS3505
ZGSZ,2001-09-24 02:00,ZGSZ 240200Z AUTO 01008KT 6SM 29/18 A2980 RMK T02900180 IEM_DS3505
ZGSZ,2001-09-24 03:00,ZGSZ 240300Z AUTO 04010KT 9SM 30/20 A2977 RMK SLP089 T03050195 57006 IEM_DS3505
ZGSZ,2001-09-24 04:00,ZGSZ 240400Z AUTO 6SM 31/18 A2977 RMK T03100180 IEM_DS3505
ZGSZ,2001-09-24 05:00,ZGSZ 240500Z AUTO 35008KT 6SM 32/18 A2971 RMK T03200180 IEM_DS3505
ZGSZ,2001-09-24 06:00,ZGSZ 240600Z AUTO 32004KT 12SM 32/20 A2971 RMK SLP063 T03240202 57026 IEM_DS3505
ZGSZ,2001-09-24 07:00,ZGSZ 240700Z AUTO 28010KT 6SM 32/20 A2968 RMK T03200200 IEM_DS3505
ZGSZ,2001-09-24 08:00,ZGSZ 240800Z AUTO 30010KT 7SM 33/19 A2965 RMK T03300190 IEM_DS3505
ZGSZ,2001-09-24 09:00,ZGSZ 240900Z AUTO 36010KT 17SM 32/20 A2965 RMK SLP054 T03250198 57009 IEM_DS3505
ZGSZ,2001-09-24 10:00,ZGSZ 241000Z AUTO 31008KT 6SM 31/18 A2968 RMK T03100180 IEM_DS3505
ZGSZ,2001-09-24 11:00,ZGSZ 241100Z AUTO 32008KT 6SM 29/20 A2968 RMK T02900200 IEM_DS3505
ZGSZ,2001-09-24 12:00,ZGSZ 241200Z AUTO 32004KT 7SM 31/21 A2971 RMK SLP071 T03060208 52016 IEM_DS3505
ZGSZ,2001-09-24 13:00,ZGSZ 241300Z AUTO 35006KT 6SM 29/19 A2971 RMK T02900190 IEM_DS3505
ZGSZ,2001-09-24 14:00,ZGSZ 241400Z AUTO 36006KT 6SM 29/19 A2974 RMK T02900190 IEM_DS3505
ZGSZ,2001-09-24 15:00,ZGSZ 241500Z AUTO 01012KT 6SM 29/18 A2974 RMK T02900180 IEM_DS3505
ZGSZ,2001-09-24 16:00,ZGSZ 241600Z AUTO 01010KT 6SM 28/18 A2971 RMK T02800180 IEM_DS3505
ZGSZ,2001-09-24 17:00,ZGSZ 241700Z AUTO 36012KT 6SM 28/18 A2971 RMK T02800180 IEM_DS3505
ZGSZ,2001-09-24 18:00,ZGSZ 241800Z AUTO 04004G19KT 8SM 28/19 A2968 RMK SLP064 T02830193 57009 IEM_DS3505
ZGSZ,2001-09-24 19:00,ZGSZ 241900Z AUTO 01010KT 6SM 27/17 A2968 RMK T02700170 IEM_DS3505
ZGSZ,2001-09-24 21:00,ZGSZ 242100Z AUTO 02004KT 8SM 27/19 A2968 RMK SLP062 T02700194 57002 IEM_DS3505
ZGSZ,2001-09-24 22:00,ZGSZ 242200Z AUTO 01002KT 6SM 26/17 A2971 RMK T02600170 IEM_DS3505
ZGSZ,2001-09-24 23:00,ZGSZ 242300Z AUTO 36002KT 6SM 26/16 A2971 RMK T02600160 IEM_DS3505
ZGSZ,2001-09-25 00:00,ZGSZ 250000Z AUTO 32004KT 7SM 27/18 RMK SLP074 T02690185 52011 IEM_DS3505
ZGSZ,2001-09-25 01:00,ZGSZ 250100Z AUTO 02010KT 6SM 29/16 A2974 RMK T02900160 IEM_DS3505
ZGSZ,2001-09-25 02:00,ZGSZ 250200Z AUTO 03014KT 6SM 30/15 A2974 RMK T03000150 IEM_DS3505
ZGSZ,2001-09-25 03:00,ZGSZ 250300Z AUTO 32006KT 12SM 31/20 A2971 RMK SLP071 T03080204 57002 IEM_DS3505
ZGSZ,2001-09-25 04:00,ZGSZ 250400Z AUTO 02012KT 6SM 32/16 A2971 RMK T03200160 IEM_DS3505
ZGSZ,2001-09-25 05:00,ZGSZ 250500Z AUTO 01010KT 6SM 32/17 A2968 RMK T03200170 IEM_DS3505
ZGSZ,2001-09-25 06:00,ZGSZ 250600Z AUTO 34010KT 19SM 33/20 A2965 RMK SLP047 T03290198 57024 IEM_DS3505
ZGSZ,2001-09-25 07:00,ZGSZ 250700Z AUTO 36010KT 6SM 34/17 A2962 RMK T03400170 IEM_DS3505
ZGSZ,2001-09-25 08:00,ZGSZ 250800Z AUTO 30010KT 7SM 32/20 A2962 RMK T03200200 IEM_DS3505
ZGSZ,2001-09-25 09:00,ZGSZ 250900Z AUTO 36006KT 19SM 33/21 A2962 RMK SLP040 T03290210 57007 IEM_DS3505
ZGSZ,2001-09-25 10:00,ZGSZ 251000Z AUTO 32010KT 6SM 31/18 A2962 RMK T03100180 IEM_DS3505
ZGSZ,2001-09-25 11:00,ZGSZ 251100Z AUTO 34006KT 6SM 30/18 A2965 RMK T03000180 IEM_DS3505
ZGSZ,2001-09-25 12:00,ZGSZ 251200Z AUTO 04010KT 9SM 31/20 A2965 RMK SLP055 T03080200 52015 IEM_DS3505
ZGSZ,2001-09-25 13:00,ZGSZ 251300Z AUTO 01006KT 6SM 30/19 A2968 RMK T03000190 IEM_DS3505
ZGSZ,2001-09-25 14:00,ZGSZ 251400Z AUTO 01010KT 6SM 29/17 A2968 RMK T02900170 IEM_DS3505
ZGSZ,2001-09-25 15:00,ZGSZ 251500Z AUTO 02012KT 6SM 29/18 A2968 RMK T02900180 IEM_DS3505
ZGSZ,2001-09-25 16:00,ZGSZ 251600Z AUTO 01012KT 6SM 29/17 A2968 RMK T02900170 IEM_DS3505
ZGSZ,2001-09-25 17:00,ZGSZ 251700Z AUTO 36010KT 6SM 28/17 A2968 RMK T02800170 IEM_DS3505
ZGSZ,2001-09-25 18:00,ZGSZ 251800Z AUTO 04008KT 7SM 29/19 A2965 RMK SLP050 T02880194 57013 IEM_DS3505
ZGSZ,2001-09-25 19:00,ZGSZ 251900Z AUTO 02004KT 6SM 27/17 A2965 RMK T02700170 IEM_DS3505
ZGSZ,2001-09-25 20:00,ZGSZ 252000Z AUTO 36010KT 6SM 27/17 A2965 RMK T02700170 IEM_DS3505
ZGSZ,2001-09-25 21:00,ZGSZ 252100Z AUTO 04010KT 6SM 28/19 A2968 RMK SLP050 T02780192 54000 IEM_DS3505
ZGSZ,2001-09-25 22:00,ZGSZ 252200Z AUTO 02006KT 6SM 27/17 A2968 RMK T02700170 IEM_DS3505
ZGSZ,2001-09-25 23:00,ZGSZ 252300Z AUTO 01004KT 6SM 27/17 A2971 RMK T02700170 IEM_DS3505
ZGSZ,2001-09-26 00:00,ZGSZ 260000Z AUTO 09004KT 3SM 28/20 A2971 RMK SLP066 T02770200 52016 IEM_DS3505
ZGSZ,2001-09-26 01:00,ZGSZ 260100Z AUTO 36014KT 6SM 28/17 A2971 RMK T02800170 IEM_DS3505
ZGSZ,2001-09-26 02:00,ZGSZ 260200Z AUTO 36012KT 6SM 28/17 A2971 RMK T02800170 IEM_DS3505
ZGSZ,2001-09-26 03:00,ZGSZ 260300Z AUTO 04006KT 6SM 29/19 A2971 RMK SLP062 T02900193 57004 IEM_DS3505
ZGSZ,2001-09-26 04:00,ZGSZ 260400Z AUTO 35012KT 5SM 29/18 A2968 RMK T02900180 IEM_DS3505
ZGSZ,2001-09-26 05:00,ZGSZ 260500Z AUTO 36012KT 5SM 30/18 A2965 RMK T03000180 IEM_DS3505
ZGSZ,2001-09-26 06:00,ZGSZ 260600Z AUTO 32010KT 7SM 30/19 A2962 RMK SLP032 T03000194 57030 IEM_DS3505
ZGSZ,2001-09-26 07:00,ZGSZ 260700Z AUTO 36010KT 6SM 31/18 A2959 RMK T03100180 IEM_DS3505
ZGSZ,2001-09-26 08:00,ZGSZ 260800Z AUTO 35008KT 6SM 32/18 A2959 RMK T03200180 IEM_DS3505
ZGSZ,2001-09-26 09:00,ZGSZ 260900Z AUTO 34008KT 9SM 31/19 A2959 RMK SLP027 T03130192 57005 IEM_DS3505
ZGSZ,2001-09-26 10:00,ZGSZ 261000Z AUTO 33008KT 6SM 30/18 A2959 RMK T03000180 IEM_DS3505
ZGSZ,2001-09-26 11:00,ZGSZ 261100Z AUTO 33008KT 6SM 30/18 A2962 RMK T03000180 IEM_DS3505
ZGSZ,2001-09-26 12:00,ZGSZ 261200Z AUTO 34004KT 7SM 30/20 A2965 RMK SLP048 T03000201 52021 IEM_DS3505
ZGSZ,2001-09-26 13:00,ZGSZ 261300Z AUTO 01008KT 6SM 28/17 A2968 RMK T02800170 IEM_DS3505
ZGSZ,2001-09-26 14:00,ZGSZ 261400Z AUTO 01006KT 6SM 28/17 A2968 RMK T02800170 IEM_DS3505
ZGSZ,2001-09-26 15:00,ZGSZ 261500Z AUTO 01006KT 6SM 27/17 A2968 RMK T02700170 IEM_DS3505
ZGSZ,2001-09-26 16:00,ZGSZ 261600Z AUTO 36008KT 6SM 26/18 A2968 RMK T02600180 IEM_DS3505
ZGSZ,2001-09-26 17:00,ZGSZ 261700Z AUTO 35010KT 6SM 27/16 A2968 RMK T02700160 IEM_DS3505
ZGSZ,2001-09-26 18:00,ZGSZ 261800Z AUTO 34008KT 7SM 27/18 A2968 RMK SLP053 T02710181 57006 IEM_DS3505
ZGSZ,2001-09-26 19:00,ZGSZ 261900Z AUTO 36004KT 6SM 25/17 A2965 RMK T02500170 IEM_DS3505
ZGSZ,2001-09-26 20:00,ZGSZ 262000Z AUTO 36006KT 6SM 25/17 A2965 RMK T02500170 IEM_DS3505
ZGSZ,2001-09-26 21:00,ZGSZ 262100Z AUTO 34006KT 7SM 26/18 A2968 RMK SLP055 T02620182 52002 IEM_DS3505
ZGSZ,2001-09-26 22:00,ZGSZ 262200Z AUTO 35006KT 6SM 25/17 A2971 RMK T02500170 IEM_DS3505
ZGSZ,2001-09-26 23:00,ZGSZ 262300Z AUTO 35006KT 6SM 25/17 A2971 RMK T02500170 IEM_DS3505
ZGSZ,2001-09-27 00:00,ZGSZ 270000Z AUTO 32006KT 4SM 26/18 A2974 RMK SLP073 T02610179 52017 IEM_DS3505
ZGSZ,2001-09-27 01:00,ZGSZ 270100Z AUTO 32010KT 27/17 A2974 RMK T02700170 IEM_DS3505
ZGSZ,2001-09-27 02:00,ZGSZ 270200Z AUTO 31010KT 5SM 29/17 A2974 RMK T02900170 IEM_DS3505
ZGSZ,2001-09-27 03:00,ZGSZ 270300Z AUTO 02008KT 6SM 30/18 A2971 RMK SLP069 T02970183 57003 IEM_DS3505
ZGSZ,2001-09-27 04:00,ZGSZ 270400Z AUTO 35012KT 6SM 31/17 A2968 RMK T03100170 IEM_DS3505
ZGSZ,2001-09-27 05:00,ZGSZ 270500Z AUTO 35012KT 6SM 32/18 A2965 RMK T03200180 IEM_DS3505
ZGSZ,2001-09-27 06:00,ZGSZ 270600Z AUTO 04010KT 16SM 32/19 A2962 RMK SLP040 T03230192 57029 IEM_DS3505
ZGSZ,2001-09-27 07:00,ZGSZ 270700Z AUTO 32010KT 6SM 32/18 A2962 RMK T03200180 IEM_DS3505
ZGSZ,2001-09-27 08:00,ZGSZ 270800Z AUTO 34008KT 6SM 32/18 A2962 RMK T03200180 IEM_DS3505
ZGSZ,2001-09-27 09:00,ZGSZ 270900Z AUTO 36008KT 16SM 33/20 A2962 RMK SLP043 T03260201 52003 IEM_DS3505
ZGSZ,2001-09-27 10:00,ZGSZ 271000Z AUTO 32008KT 7SM 31/19 A2965 RMK T03100190 IEM_DS3505
ZGSZ,2001-09-27 11:00,ZGSZ 271100Z AUTO 36010KT 7SM 31/18 A2965 RMK T03100180 IEM_DS3505
ZGSZ,2001-09-27 12:00,ZGSZ 271200Z AUTO 04010KT 7SM 31/20 A2968 RMK SLP063 T03060201 52019 IEM_DS3505
ZGSZ,2001-09-27 13:00,ZGSZ 271300Z AUTO 02010KT 6SM 29/17 A2971 RMK T02900170 IEM_DS3505
ZGSZ,2001-09-27 14:00,ZGSZ 271400Z AUTO 01008KT 6SM 28/17 A2974 RMK T02800170 IEM_DS3505
ZGSZ,2001-09-27 15:00,ZGSZ 271500Z AUTO 01010KT 6SM 28/17 A2974 RMK T02800170 IEM_DS3505
ZGSZ,2001-09-27 16:00,ZGSZ 271600Z AUTO 01010KT 6SM 28/16 A2974 RMK T02800160 IEM_DS3505
ZGSZ,2001-09-27 17:00,ZGSZ 271700Z AUTO 36008KT 6SM 27/16 A2974 RMK T02700160 IEM_DS3505
ZGSZ,2001-09-27 18:00,ZGSZ 271800Z AUTO 04006KT 8SM 27/19 A2974 RMK SLP075 T02740188 57004 IEM_DS3505
ZGSZ,2001-09-27 19:00,ZGSZ 271900Z AUTO 36006KT 6SM 26/17 A2974 RMK T02600170 IEM_DS3505
ZGSZ,2001-09-27 20:00,ZGSZ 272000Z AUTO 36006KT 6SM 25/17 A2974 RMK T02500170 IEM_DS3505
ZGSZ,2001-09-27 21:00,ZGSZ 272100Z AUTO 04004KT 6SM 27/19 A2974 RMK SLP074 T02660189 57001 IEM_DS3505
ZGSZ,2001-09-27 22:00,ZGSZ 272200Z AUTO 36006KT 6SM 25/17 A2974 RMK T02500170 IEM_DS3505
ZGSZ,2001-09-27 23:00,ZGSZ 272300Z AUTO 36004KT 6SM 25/17 A2977 RMK T02500170 IEM_DS3505
ZGSZ,2001-09-28 00:00,ZGSZ 280000Z AUTO 04008KT 5SM 27/18 A2977 RMK SLP093 T02700183 52018 IEM_DS3505
ZGSZ,2001-09-28 01:00,ZGSZ 280100Z AUTO 36010KT 6SM 28/17 A2980 RMK T02800170 IEM_DS3505
ZGSZ,2001-09-28 02:00,ZGSZ 280200Z AUTO 36010KT 6SM 30/17 A2980 RMK T03000170 IEM_DS3505
ZGSZ,2001-09-28 03:00,ZGSZ 280300Z AUTO 04010KT 8SM 30/19 A2977 RMK SLP090 T03020187 57002 IEM_DS3505
ZGSZ,2001-09-28 04:00,ZGSZ 280400Z AUTO 04010KT 6SM 32/18 A2977 RMK T03200180 IEM_DS3505
ZGSZ,2001-09-28 05:00,ZGSZ 280500Z AUTO 04010KT 6SM 32/18 A2974 RMK T03200180 IEM_DS3505
ZGSZ,2001-09-28 06:00,ZGSZ 280600Z AUTO 34004KT 9SM 33/20 A2971 RMK SLP069 T03270204 57021 IEM_DS3505
ZGSZ,2001-09-28 07:00,ZGSZ 280700Z AUTO 01006KT 6SM 33/19 A2968 RMK T03300190 IEM_DS3505
ZGSZ,2001-09-28 08:00,ZGSZ 280800Z AUTO 01008KT 7SM 33/19 A2968 RMK T03300190 IEM_DS3505
ZGSZ,2001-09-28 09:00,ZGSZ 280900Z AUTO 04006KT 12SM 33/20 A2968 RMK SLP064 T03260204 57005 IEM_DS3505
ZGSZ,2001-09-28 10:00,ZGSZ 281000Z AUTO 02006KT 6SM 31/19 A2971 RMK T03100190 IEM_DS3505
ZGSZ,2001-09-28 11:00,ZGSZ 281100Z AUTO 03008KT 6SM 30/19 A2971 RMK T03000190 IEM_DS3505
ZGSZ,2001-09-28 12:00,ZGSZ 281200Z AUTO 07006KT 7SM 30/21 A2974 RMK SLP081 T03040207 52016 IEM_DS3505
ZGSZ,2001-09-28 13:00,ZGSZ 281300Z AUTO 04008KT 6SM 29/19 A2974 RMK T02900190 IEM_DS3505
ZGSZ,2001-09-28 14:00,ZGSZ 281400Z AUTO 04008KT 6SM 28/18 A2977 RMK T02800180 IEM_DS3505
ZGSZ,2001-09-28 15:00,ZGSZ 281500Z AUTO 06004KT 6SM 27/18 A2977 RMK T02700180 IEM_DS3505
ZGSZ,2001-09-28 16:00,ZGSZ 281600Z AUTO 36004KT 6SM 27/18 A2977 RMK T02700180 IEM_DS3505
ZGSZ,2001-09-28 17:00,ZGSZ 281700Z AUTO 02006KT 6SM 26/18 A2977 RMK T02600180 IEM_DS3505
ZGSZ,2001-09-28 18:00,ZGSZ 281800Z AUTO 04006KT 12SM 27/19 A2977 RMK SLP085 T02720192 57004 IEM_DS3505
ZGSZ,2001-09-28 19:00,ZGSZ 281900Z AUTO 02004KT 6SM 26/18 A2977 RMK T02600180 IEM_DS3505
ZGSZ,2001-09-28 20:00,ZGSZ 282000Z AUTO 35008KT 6SM 26/18 A2977 RMK T02600180 IEM_DS3505
ZGSZ,2001-09-28 21:00,ZGSZ 282100Z AUTO 34002KT 11SM 27/19 A2977 RMK SLP086 T02660194 52001 IEM_DS3505
ZGSZ,2001-09-28 22:00,ZGSZ 282200Z AUTO 01008KT 6SM 25/17 A2977 RMK T02500170 IEM_DS3505
ZGSZ,2001-09-28 23:00,ZGSZ 282300Z AUTO 01006KT 6SM 25/18 A2980 RMK T02500180 IEM_DS3505
ZGSZ,2001-09-29 00:00,ZGSZ 290000Z AUTO 36006KT 8SM 26/20 RMK SLP102 T02570196 52015 IEM_DS3505
ZGSZ,2001-09-29 01:00,ZGSZ 290100Z AUTO 36010KT 5SM 27/17 A2983 RMK T02700170 IEM_DS3505
ZGSZ,2001-09-29 02:00,ZGSZ 290200Z AUTO 01010KT 5SM 29/18 A2983 RMK T02900180 IEM_DS3505
ZGSZ,2001-09-29 03:00,ZGSZ 290300Z AUTO 36006KT 5SM 30/20 A2983 RMK SLP103 T02970204 52001 IEM_DS3505
ZGSZ,2001-09-29 04:00,ZGSZ 290400Z AUTO 34008KT 5SM 30/18 A2980 RMK T03000180 IEM_DS3505
ZGSZ,2001-09-29 05:00,ZGSZ 290500Z AUTO 30010KT 6SM 31/18 A2977 RMK T03100180 IEM_DS3505
ZGSZ,2001-09-29 06:00,ZGSZ 290600Z AUTO 32008KT 6SM 32/21 A2974 RMK SLP078 T03180209 57024 IEM_DS3505
ZGSZ,2001-09-29 07:00,ZGSZ 290700Z AUTO 28010KT 7SM 31/19 A2971 RMK T03100190 IEM_DS3505
ZGSZ,2001-09-29 08:00,ZGSZ 290800Z AUTO 29010KT 6SM 31/20 A2971 RMK T03100200 IEM_DS3505
ZGSZ,2001-09-29 09:00,ZGSZ 290900Z AUTO 32004KT 9SM 32/21 A2971 RMK SLP070 T03220208 57008 IEM_DS3505
ZGSZ,2001-09-29 10:00,ZGSZ 291000Z AUTO 32008KT 7SM 31/19 A2971 RMK T03100190 IEM_DS3505
ZGSZ,2001-09-29 11:00,ZGSZ 291100Z AUTO 32008KT 6SM 30/19 A2974 RMK T03000190 IEM_DS3505
ZGSZ,2001-09-29 12:00,ZGSZ 291200Z AUTO 04006KT 8SM 30/21 A2974 RMK SLP085 T03050212 52014 IEM_DS3505
ZGSZ,2001-09-29 13:00,ZGSZ 291300Z AUTO 01008KT 5SM 29/19 A2977 RMK T02900190 IEM_DS3505
ZGSZ,2001-09-29 14:00,ZGSZ 291400Z AUTO 36008KT 6SM 28/19 A2980 RMK T02800190 IEM_DS3505
ZGSZ,2001-09-29 15:00,ZGSZ 291500Z AUTO 01006KT 6SM 28/18 A2980 RMK T02800180 IEM_DS3505
ZGSZ,2001-09-29 16:00,ZGSZ 291600Z AUTO 36008KT 6SM 28/17 A2980 RMK T02800170 IEM_DS3505
ZGSZ,2001-09-29 17:00,ZGSZ 291700Z AUTO 01008KT 6SM 27/17 A2980 RMK T02700170 IEM_DS3505
ZGSZ,2001-09-29 18:00,ZGSZ 291800Z AUTO 04006KT 8SM 27/19 RMK SLP094 T02740189 57002 IEM_DS3505
ZGSZ,2001-09-29 21:00,ZGSZ 292100Z AUTO 04006KT 8SM 26/19 A2980 RMK SLP097 T02650188 52002 IEM_DS3505
ZGSZ,2001-09-29 22:00,ZGSZ 292200Z AUTO 36004KT 6SM 25/18 A2980 RMK T02500180 IEM_DS3505
ZGSZ,2001-09-29 23:00,ZGSZ 292300Z AUTO 34004KT 5SM 25/18 A2983 RMK T02500180 IEM_DS3505
ZGSZ,2001-09-30 00:00,ZGSZ 300000Z AUTO 04004KT 6SM 26/19 A2983 RMK SLP113 T02650191 52016 IEM_DS3505
ZGSZ,2001-09-30 01:00,ZGSZ 300100Z AUTO 04004KT 6SM 26/19 A2985 RMK SLP113 T02650191 52016 IEM_DS3505
ZGSZ,2001-09-30 02:00,ZGSZ 300200Z AUTO 02008KT 6SM 30/17 A2985 RMK T03000170 IEM_DS3505
ZGSZ,2001-09-30 03:00,ZGSZ 300300Z AUTO 04010KT 7SM 31/20 A2985 RMK SLP117 T03070200 52004 IEM_DS3505
ZGSZ,2001-09-30 04:00,ZGSZ 300400Z AUTO 01010KT 6SM 32/19 A2983 RMK T03200190 IEM_DS3505
ZGSZ,2001-09-30 05:00,ZGSZ 300500Z AUTO 04010KT 6SM 33/18 A2980 RMK T03300180 IEM_DS3505
ZGSZ,2001-09-30 06:00,ZGSZ 300600Z AUTO 32006KT 11SM 33/21 A2977 RMK SLP089 T03340211 57027 IEM_DS3505
ZGSZ,2001-09-30 07:00,ZGSZ 300700Z AUTO 02006KT 6SM 33/19 A2974 RMK T03300190 IEM_DS3505
ZGSZ,2001-09-30 08:00,ZGSZ 300800Z AUTO 04008KT 6SM 33/18 A2974 RMK T03300180 IEM_DS3505
ZGSZ,2001-09-30 09:00,ZGSZ 300900Z AUTO 04006KT 14SM 33/20 A2974 RMK SLP084 T03300197 57005 IEM_DS3505
ZGSZ,2001-09-30 10:00,ZGSZ 301000Z AUTO 02006KT 6SM 32/18 A2977 RMK T03200180 IEM_DS3505
ZGSZ,2001-09-30 11:00,ZGSZ 301100Z AUTO 04004KT 6SM 30/19 A2977 RMK T03000190 IEM_DS3505
ZGSZ,2001-09-30 12:00,ZGSZ 301200Z AUTO 07004KT 7SM 31/22 A2980 RMK SLP103 T03110216 52018 IEM_DS3505
ZGSZ,2001-09-30 13:00,ZGSZ 301300Z AUTO 02004KT 6SM 29/19 A2983 RMK T02900190 IEM_DS3505
ZGSZ,2001-09-30 14:00,ZGSZ 301400Z AUTO 02004KT 5SM 28/19 A2983 RMK T02800190 IEM_DS3505
ZGSZ,2001-09-30 15:00,ZGSZ 301500Z AUTO 36006KT 5SM 28/19 A2983 RMK T02800190 IEM_DS3505
ZGSZ,2001-09-30 16:00,ZGSZ 301600Z AUTO 04010KT 5SM 28/19 A2985 RMK T02800190 IEM_DS3505
ZGSZ,2001-09-30 17:00,ZGSZ 301700Z AUTO 03010KT 5SM 27/19 A2983 RMK T02700190 IEM_DS3505
ZGSZ,2001-09-30 18:00,ZGSZ 301800Z AUTO 04010KT 9SM 29/19 RMK SLP109 T02870192 57006 IEM_DS3505
ZGSZ,2001-09-30 21:00,ZGSZ 302100Z AUTO 04006KT 9SM 27/20 A2985 RMK SLP115 T02740195 52006 IEM_DS3505
ZGSZ,2001-09-30 22:00,ZGSZ 302200Z AUTO 36004KT 5SM 26/17 A2985 RMK T02600170 IEM_DS3505
ZGSZ,2001-09-30 23:00,ZGSZ 302300Z AUTO 36004KT 5SM 26/17 A2988 RMK T02600170 IEM_DS3505
ZGSZ,2001-10-01 00:00,ZGSZ 010000Z AUTO 04006KT 9SM 27/19 A2991 RMK SLP137 T02730186 52021 IEM_DS3505
ZGSZ,2001-10-01 01:00,ZGSZ 010100Z AUTO 04008KT 6SM 29/16 A2991 RMK T02900160 IEM_DS3505
ZGSZ,2001-10-01 02:00,ZGSZ 010200Z AUTO 03006KT 6SM 30/16 A2991 RMK T03000160 IEM_DS3505
ZGSZ,2001-10-01 03:00,ZGSZ 010300Z AUTO 04008KT 6SM 31/19 A2991 RMK SLP140 T03070190 52003 IEM_DS3505
ZGSZ,2001-10-01 04:00,ZGSZ 010400Z AUTO 03006KT 6SM 32/17 A2988 RMK T03200170 IEM_DS3505
ZGSZ,2001-10-01 05:00,ZGSZ 010500Z AUTO 09008KT 6SM 33/17 A2985 RMK T03300170 IEM_DS3505
ZGSZ,2001-10-01 06:00,ZGSZ 010600Z AUTO 07008KT 11SM 33/21 A2985 RMK SLP120 T03300207 57019 IEM_DS3505
ZGSZ,2001-10-01 07:00,ZGSZ 010700Z AUTO 13006KT 7SM 33/18 A2983 RMK T03300180 IEM_DS3505
ZGSZ,2001-10-01 08:00,ZGSZ 010800Z AUTO 14004KT 7SM 32/18 A2983 RMK T03200180 IEM_DS3505
ZGSZ,2001-10-01 09:00,ZGSZ 010900Z AUTO 14008KT 8SM 31/22 A2983 RMK SLP117 T03070218 57004 IEM_DS3505
ZGSZ,2001-10-01 10:00,ZGSZ 011000Z AUTO 10004KT 7SM 30/19 A2985 RMK T03000190 IEM_DS3505
ZGSZ,2001-10-01 11:00,ZGSZ 011100Z AUTO 10006KT 7SM 29/20 A2985 RMK T02900200 IEM_DS3505
ZGSZ,2001-10-01 12:00,ZGSZ 011200Z AUTO 09006KT 8SM 28/23 RMK 60000 SLP137 T02780232 52020 IEM_DS3505
ZGSZ,2001-10-01 13:00,ZGSZ 011300Z AUTO 09006KT 6SM 27/21 A2991 RMK T02700210 IEM_DS3505
ZGSZ,2001-10-01 14:00,ZGSZ 011400Z AUTO 10008KT 6SM 27/21 A2991 RMK T02700210 IEM_DS3505
ZGSZ,2001-10-01 15:00,ZGSZ 011500Z AUTO 09010KT 6SM 27/21 A2991 RMK T02700210 IEM_DS3505
ZGSZ,2001-10-01 16:00,ZGSZ 011600Z AUTO 10010KT 6SM 27/21 A2991 RMK T02700210 IEM_DS3505
ZGSZ,2001-10-01 17:00,ZGSZ 011700Z AUTO 09010KT 27/21 A2991 RMK T02700210 IEM_DS3505
ZGSZ,2001-10-01 18:00,ZGSZ 011800Z AUTO 09004KT 9SM 27/23 A2991 RMK 60004 SLP140 T02660228 57007 IEM_DS3505
ZGSZ,2001-10-01 19:00,ZGSZ 011900Z AUTO 09006KT 6SM 26/20 A2991 RMK T02600200 IEM_DS3505
ZGSZ,2001-10-01 20:00,ZGSZ 012000Z AUTO 08004KT 7SM 26/20 A2991 RMK T02600200 IEM_DS3505
ZGSZ,2001-10-01 21:00,ZGSZ 012100Z AUTO 04008KT 10SM 26/22 A2991 RMK 70005 SLP146 T02640223 52006 IEM_DS3505
ZGSZ,2001-10-01 22:00,ZGSZ 012200Z AUTO 05002KT 3SM 26/21 A2994 RMK T02600210 IEM_DS3505
ZGSZ,2001-10-01 23:00,ZGSZ 012300Z AUTO 09004KT 4SM 26/21 A2994 RMK T02600210 IEM_DS3505
ZGSZ,2001-10-02 00:00,ZGSZ 020000Z AUTO 07008KT 7SM 27/21 A2997 RMK 70005 SLP159 T02660209 52013 IEM_DS3505
ZGSZ,2001-10-02 01:00,ZGSZ 020100Z AUTO 08008KT 6SM 28/19 A2997 RMK T02800190 IEM_DS3505
ZGSZ,2001-10-02 02:00,ZGSZ 020200Z AUTO 10008KT 6SM 30/19 A2997 RMK T03000190 IEM_DS3505
ZGSZ,2001-10-02 03:00,ZGSZ 020300Z AUTO 07008KT 14SM 29/20 A2997 RMK SLP058 T02930196 54000 IEM_DS3505
ZGSZ,2001-10-02 04:00,ZGSZ 020400Z AUTO 09006KT 6SM 31/17 A2994 RMK T03100170 IEM_DS3505
ZGSZ,2001-10-02 05:00,ZGSZ 020500Z AUTO 11004KT 6SM 31/19 A2991 RMK T03100190 IEM_DS3505
ZGSZ,2001-10-02 06:00,ZGSZ 020600Z AUTO 09006KT 16SM 31/20 A2988 RMK SLP135 T03060201 57023 IEM_DS3505
ZGSZ,2001-10-02 07:00,ZGSZ 020700Z AUTO 19008KT 6SM 30/21 A2985 RMK T03000210 IEM_DS3505
ZGSZ,2001-10-02 08:00,ZGSZ 020800Z AUTO 16010KT 6SM 30/19 A2985 RMK T03000190 IEM_DS3505
ZGSZ,2001-10-02 09:00,ZGSZ 020900Z AUTO 09004KT 14SM 29/20 A2985 RMK SLP129 T02890196 57006 IEM_DS3505
ZGSZ,2001-10-02 10:00,ZGSZ 021000Z AUTO 12008KT 6SM 28/17 A2985 RMK T02800170 IEM_DS3505
ZGSZ,2001-10-02 11:00,ZGSZ 021100Z AUTO 10010KT 6SM 28/17 A2988 RMK T02800170 IEM_DS3505
ZGSZ,2001-10-02 12:00,ZGSZ 021200Z AUTO 11006KT 7SM 27/22 A2988 RMK SLP140 T02670217 52011 IEM_DS3505
ZGSZ,2001-10-02 13:00,ZGSZ 021300Z AUTO 10008KT 26/19 A2991 RMK T02600190 IEM_DS3505
ZGSZ,2001-10-02 14:00,ZGSZ 021400Z AUTO 12006KT 26/20 A2994 RMK T02600200 IEM_DS3505
ZGSZ,2001-10-02 15:00,ZGSZ 021500Z AUTO 10006KT 26/19 A2994 RMK T02600190 IEM_DS3505
ZGSZ,2001-10-02 16:00,ZGSZ 021600Z AUTO 26/20 A2994 RMK T02600200 IEM_DS3505
ZGSZ,2001-10-02 17:00,ZGSZ 021700Z AUTO 11006KT 26/20 A2994 RMK T02600200 IEM_DS3505
ZGSZ,2001-10-02 18:00,ZGSZ 021800Z AUTO 09006KT 5SM 26/21 RMK SLP140 T02620213 57010 IEM_DS3505
ZGSZ,2001-10-02 19:00,ZGSZ 021900Z AUTO 08004KT 25/19 A2991 RMK T02500190 IEM_DS3505
ZGSZ,2001-10-02 20:00,ZGSZ 022000Z AUTO 08002KT 4SM 25/20 A2991 RMK T02500200 IEM_DS3505
ZGSZ,2001-10-02 21:00,ZGSZ 022100Z AUTO 09004KT 4SM 26/22 A2991 RMK SLP138 T02590221 57002 IEM_DS3505
ZGSZ,2001-10-02 23:00,ZGSZ 022300Z AUTO 09004KT 3SM 24/20 A2994 RMK T02400200 IEM_DS3505
ZGSZ,2001-10-03 00:00,ZGSZ 030000Z AUTO 09004KT 4SM 26/22 RMK SLP152 T02600223 52014 IEM_DS3505
ZGSZ,2001-10-03 03:00,ZGSZ 030300Z AUTO 09008KT 6SM 28/22 RMK SLP158 T02840221 52006 IEM_DS3505
ZGSZ,2001-10-03 04:00,ZGSZ 030400Z AUTO 09004KT 7SM 30/19 A2994 RMK T03000190 IEM_DS3505
ZGSZ,2001-10-03 05:00,ZGSZ 030500Z AUTO 20006KT 7SM 30/20 A2991 RMK T03000200 IEM_DS3505
ZGSZ,2001-10-03 06:00,ZGSZ 030600Z AUTO 14006KT 6SM 30/21 A2988 RMK SLP130 T03050210 57028 IEM_DS3505
ZGSZ,2001-10-03 07:00,ZGSZ 030700Z AUTO 22006KT 5SM 30/21 A2985 RMK T03000210 IEM_DS3505
ZGSZ,2001-10-03 08:00,ZGSZ 030800Z AUTO 21006KT 5SM 29/21 A2983 RMK T02900210 IEM_DS3505
ZGSZ,2001-10-03 09:00,ZGSZ 030900Z AUTO 14006KT 6SM 29/22 A2983 RMK SLP115 T02930215 57015 IEM_DS3505
ZGSZ,2001-10-03 10:00,ZGSZ 031000Z AUTO 18008KT 6SM 28/21 A2983 RMK T02800210 IEM_DS3505
ZGSZ,2001-10-03 11:00,ZGSZ 031100Z AUTO 16008KT 6SM 28/20 A2985 RMK T02800200 IEM_DS3505
ZGSZ,2001-10-03 12:00,ZGSZ 031200Z AUTO 14006KT 5SM 27/22 A2988 RMK SLP135 T02660220 52020 IEM_DS3505
ZGSZ,2001-10-03 13:00,ZGSZ 031300Z AUTO 10006KT 27/20 A2991 RMK T02700200 IEM_DS3505
ZGSZ,2001-10-03 14:00,ZGSZ 031400Z AUTO 11006KT 26/20 A2991 RMK T02600200 IEM_DS3505
ZGSZ,2001-10-03 15:00,ZGSZ 031500Z AUTO 10006KT 26/20 A2994 RMK T02600200 IEM_DS3505
ZGSZ,2001-10-03 16:00,ZGSZ 031600Z AUTO 09006KT 5SM 26/19 A2994 RMK T02600190 IEM_DS3505
ZGSZ,2001-10-03 18:00,ZGSZ 031800Z AUTO 09004KT 6SM 26/22 RMK SLP141 T02600223 57010 IEM_DS3505
ZGSZ,2001-10-03 19:00,ZGSZ 031900Z AUTO 06004KT 4SM 25/20 A2991 RMK T02500200 IEM_DS3505
ZGSZ,2001-10-03 20:00,ZGSZ 032000Z AUTO 01002KT 4SM 25/20 A2988 RMK T02500200 IEM_DS3505
ZGSZ,2001-10-03 21:00,ZGSZ 032100Z AUTO 34004KT 4SM 26/22 A2991 RMK SLP135 T02580223 57006 IEM_DS3505
ZGSZ,2001-10-03 22:00,ZGSZ 032200Z AUTO 01004KT 4SM 24/20 A2991 RMK T02400200 IEM_DS3505
ZGSZ,2001-10-03 23:00,ZGSZ 032300Z AUTO 03002KT 3SM 25/20 A2991 RMK T02500200 IEM_DS3505
ZGSZ,2001-10-04 00:00,ZGSZ 040000Z AUTO 04006KT 2 1/2SM 26/22 A2994 RMK SLP152 T02590222 52017 IEM_DS3505
ZGSZ,2001-10-04 01:00,ZGSZ 040100Z AUTO 01006KT 2 1/2SM 26/21 A2997 RMK T02600210 IEM_DS3505
ZGSZ,2001-10-04 02:00,ZGSZ 040200Z AUTO 01008KT 2 1/2SM 27/21 A2997 RMK T02700210 IEM_DS3505
ZGSZ,2001-10-04 03:00,ZGSZ 040300Z AUTO 07006KT 3SM 29/22 A2997 RMK SLP157 T02860221 52005 IEM_DS3505
ZGSZ,2001-10-04 04:00,ZGSZ 040400Z AUTO 01006KT 3SM 29/20 A2994 RMK T02900200 IEM_DS3505
ZGSZ,2001-10-04 05:00,ZGSZ 040500Z AUTO 02008KT 3SM 29/20 A2991 RMK T02900200 IEM_DS3505
ZGSZ,2001-10-04 06:00,ZGSZ 040600Z AUTO 04010KT 5SM 30/21 A2988 RMK SLP138 T03000214 57019 IEM_DS3505
ZGSZ,2001-10-04 07:00,ZGSZ 040700Z AUTO 01012KT 30/19 A2988 RMK T03000190 IEM_DS3505
ZGSZ,2001-10-04 08:00,ZGSZ 040800Z AUTO 36012KT 29/19 A2988 RMK T02900190 IEM_DS3505
ZGSZ,2001-10-04 09:00,ZGSZ 040900Z AUTO 04012KT 6SM 28/20 A2988 RMK SLP134 T02850204 57004 IEM_DS3505
ZGSZ,2001-10-04 10:00,ZGSZ 041000Z AUTO 02010KT 27/19 A2988 RMK T02700190 IEM_DS3505
ZGSZ,2001-10-04 11:00,ZGSZ 041100Z AUTO 03008KT 3SM 27/18 A2991 RMK T02700180 IEM_DS3505
ZGSZ,2001-10-04 12:00,ZGSZ 041200Z AUTO 04006KT 5SM 27/20 A2994 RMK SLP146 T02680205 52012 IEM_DS3505
ZGSZ,2001-10-04 13:00,ZGSZ 041300Z AUTO 36006KT 25/18 A2994 RMK T02500180 IEM_DS3505
ZGSZ,2001-10-04 14:00,ZGSZ 041400Z AUTO 03006KT 25/18 A2994 RMK T02500180 IEM_DS3505
ZGSZ,2001-10-04 15:00,ZGSZ 041500Z AUTO 03004KT 24/17 A2997 RMK T02400170 IEM_DS3505
ZGSZ,2001-10-04 16:00,ZGSZ 041600Z AUTO 05006KT 24/17 A2994 RMK T02400170 IEM_DS3505
ZGSZ,2001-10-04 17:00,ZGSZ 041700Z AUTO 36006KT 24/17 A2994 RMK T02400170 IEM_DS3505
ZGSZ,2001-10-04 18:00,ZGSZ 041800Z AUTO 04008KT 6SM 24/19 RMK SLP144 T02440193 57011 IEM_DS3505
ZGSZ,2001-10-04 19:00,ZGSZ 041900Z AUTO 36008KT 24/17 A2991 RMK T02400170 IEM_DS3505
ZGSZ,2001-10-04 20:00,ZGSZ 042000Z AUTO 01006KT 23/17 A2991 RMK T02300170 IEM_DS3505
ZGSZ,2001-10-04 21:00,ZGSZ 042100Z AUTO 04006KT 6SM 24/19 A2991 RMK SLP140 T02380190 57004 IEM_DS3505
ZGSZ,2001-10-04 22:00,ZGSZ 042200Z AUTO 36006KT 23/17 A2991 RMK T02300170 IEM_DS3505
ZGSZ,2001-10-04 23:00,ZGSZ 042300Z AUTO 36008KT 5SM 23/17 A2994 RMK T02300170 IEM_DS3505
ZGSZ,2001-10-05 00:00,ZGSZ 050000Z AUTO 04006KT 6SM 25/20 A2994 RMK SLP147 T02480196 52007 IEM_DS3505
ZGSZ,2001-10-05 01:00,ZGSZ 050100Z AUTO 06006KT 7SM 25/18 A2994 RMK T02500180 IEM_DS3505
ZGSZ,2001-10-05 02:00,ZGSZ 050200Z AUTO 02006KT 7SM 26/18 A2994 RMK T02600180 IEM_DS3505
ZGSZ,2001-10-05 03:00,ZGSZ 050300Z AUTO 07010KT 6SM 28/20 A2994 RMK SLP150 T02810204 52003 IEM_DS3505
ZGSZ,2001-10-05 04:00,ZGSZ 050400Z AUTO 07006KT 28/18 A2991 RMK T02800180 IEM_DS3505
ZGSZ,2001-10-05 05:00,ZGSZ 050500Z AUTO 07004KT 29/18 A2991 RMK T02900180 IEM_DS3505
ZGSZ,2001-10-05 06:00,ZGSZ 050600Z AUTO 09006KT 7SM 30/19 A2988 RMK SLP127 T02950191 57023 IEM_DS3505
ZGSZ,2001-10-05 07:00,ZGSZ 050700Z AUTO 27004KT 28/19 A2985 RMK T02800190 IEM_DS3505
ZGSZ,2001-10-05 08:00,ZGSZ 050800Z AUTO 30008KT 3SM 28/19 A2985 RMK T02800190 IEM_DS3505
ZGSZ,2001-10-05 09:00,ZGSZ 050900Z AUTO 14006KT 5SM 28/20 A2988 RMK SLP128 T02850205 52001 IEM_DS3505
ZGSZ,2001-10-05 10:00,ZGSZ 051000Z AUTO 19002KT 27/19 A2988 RMK T02700190 IEM_DS3505
ZGSZ,2001-10-05 11:00,ZGSZ 051100Z AUTO 11002KT 7SM 27/19 A2988 RMK T02700190 IEM_DS3505
ZGSZ,2001-10-05 12:00,ZGSZ 051200Z AUTO 14004KT 3SM 27/22 A2991 RMK SLP143 T02680219 52015 IEM_DS3505
ZGSZ,2001-10-05 13:00,ZGSZ 051300Z AUTO 10006KT 7SM 26/19 A2991 RMK T02600190 IEM_DS3505
ZGSZ,2001-10-05 14:00,ZGSZ 051400Z AUTO 09004KT 6SM 26/20 A2994 RMK T02600200 IEM_DS3505
ZGSZ,2001-10-05 15:00,ZGSZ 051500Z AUTO 10006KT 6SM 26/20 A2994 RMK T02600200 IEM_DS3505
ZGSZ,2001-10-05 16:00,ZGSZ 051600Z AUTO 08004KT 2SM 25/20 A2994 RMK T02500200 IEM_DS3505
ZGSZ,2001-10-05 17:00,ZGSZ 051700Z AUTO 04002KT 2 1/2SM 25/20 A2991 RMK T02500200 IEM_DS3505
ZGSZ,2001-10-05 18:00,ZGSZ 051800Z AUTO 09010KT 3SM 26/22 A2991 RMK SLP140 T02610215 57008 IEM_DS3505
ZGSZ,2001-10-05 19:00,ZGSZ 051900Z AUTO 07004KT 2SM 24/20 A2988 RMK T02400200 IEM_DS3505
ZGSZ,2001-10-05 20:00,ZGSZ 052000Z AUTO 04004KT 2SM 24/19 A2988 RMK T02400190 IEM_DS3505
ZGSZ,2001-10-05 21:00,ZGSZ 052100Z AUTO 07008KT 3SM 25/20 A2988 RMK SLP134 T02520205 57006 IEM_DS3505
ZGSZ,2001-10-05 23:00,ZGSZ 052300Z AUTO 06006KT 2SM 24/19 A2991 RMK T02400190 IEM_DS3505
ZGSZ,2001-10-06 00:00,ZGSZ 060000Z AUTO 04010KT 4SM 25/20 A2994 RMK SLP148 T02530199 52014 IEM_DS3505
ZGSZ,2001-10-06 01:00,ZGSZ 060100Z AUTO 07004KT 2 1/2SM 26/18 A2994 RMK T02600180 IEM_DS3505
ZGSZ,2001-10-06 02:00,ZGSZ 060200Z AUTO 10008KT 6SM 28/18 A2994 RMK T02800180 IEM_DS3505
ZGSZ,2001-10-06 03:00,ZGSZ 060300Z AUTO 09008KT 6SM 28/20 A2994 RMK SLP151 T02750197 52003 IEM_DS3505
ZGSZ,2001-10-06 04:00,ZGSZ 060400Z AUTO 19004KT 3SM 29/18 A2991 RMK T02900180 IEM_DS3505
ZGSZ,2001-10-06 05:00,ZGSZ 060500Z AUTO 18008KT 7SM 29/19 A2988 RMK T02900190 IEM_DS3505
ZGSZ,2001-10-06 06:00,ZGSZ 060600Z AUTO 18004KT 6SM 30/21 A2985 RMK SLP126 T03000209 57025 IEM_DS3505
ZGSZ,2001-10-06 07:00,ZGSZ 060700Z AUTO 20008KT 7SM 29/20 A2985 RMK T02900200 IEM_DS3505
ZGSZ,2001-10-06 08:00,ZGSZ 060800Z AUTO 16008KT 7SM 29/21 A2983 RMK T02900210 IEM_DS3505
ZGSZ,2001-10-06 09:00,ZGSZ 060900Z AUTO 09008KT 14SM 29/20 A2985 RMK SLP125 T02870203 57001 IEM_DS3505
ZGSZ,2001-10-06 10:00,ZGSZ 061000Z AUTO 10008KT 6SM 28/18 A2985 RMK T02800180 IEM_DS3505
ZGSZ,2001-10-06 11:00,ZGSZ 061100Z AUTO 10010KT 6SM 27/18 A2985 RMK T02700180 IEM_DS3505
ZGSZ,2001-10-06 12:00,ZGSZ 061200Z AUTO 14006KT 7SM 26/22 A2988 RMK SLP129 T02640220 52004 IEM_DS3505
ZGSZ,2001-10-06 13:00,ZGSZ 061300Z AUTO 10010KT 6SM 26/20 A2988 RMK T02600200 IEM_DS3505
ZGSZ,2001-10-06 15:00,ZGSZ 061500Z AUTO 08008KT 5SM 26/20 A2988 RMK T02600200 IEM_DS3505
ZGSZ,2001-10-06 16:00,ZGSZ 061600Z AUTO 09006KT 5SM 26/20 A2988 RMK T02600200 IEM_DS3505
ZGSZ,2001-10-06 17:00,ZGSZ 061700Z AUTO 09004KT 5SM 25/20 A2988 RMK T02500200 IEM_DS3505
ZGSZ,2001-10-06 18:00,ZGSZ 061800Z AUTO 09004KT 6SM 26/22 A2985 RMK SLP126 T02590224 57004 IEM_DS3505
ZGSZ,2001-10-06 19:00,ZGSZ 061900Z AUTO 35002KT 5SM 24/20 A2985 RMK T02400200 IEM_DS3505
ZGSZ,2001-10-06 21:00,ZGSZ 062100Z AUTO 09004KT 6SM 26/22 A2985 RMK SLP125 T02570223 57001 IEM_DS3505
ZGSZ,2001-10-06 22:00,ZGSZ 062200Z AUTO 02002KT 3SM 24/20 A2988 RMK T02400200 IEM_DS3505
ZGSZ,2001-10-06 23:00,ZGSZ 062300Z AUTO 08002KT 4SM 24/21 A2991 RMK T02400210 IEM_DS3505
ZGSZ,2001-10-07 00:00,ZGSZ 070000Z AUTO 11004KT 5SM 26/22 A2991 RMK SLP145 T02600225 52020 IEM_DS3505
ZGSZ,2001-10-07 01:00,ZGSZ 070100Z AUTO 08006KT 3SM 27/21 A2991 RMK T02700210 IEM_DS3505
ZGSZ,2001-10-07 02:00,ZGSZ 070200Z AUTO 12006KT 7SM 28/21 A2991 RMK T02800210 IEM_DS3505
ZGSZ,2001-10-07 03:00,ZGSZ 070300Z AUTO 14004KT 7SM 28/23 A2991 RMK SLP138 T02850228 57007 IEM_DS3505
ZGSZ,2001-10-07 04:00,ZGSZ 070400Z AUTO 17006KT 7SM 30/21 A2988 RMK T03000210 IEM_DS3505
ZGSZ,2001-10-07 05:00,ZGSZ 070500Z AUTO 21008KT 7SM 30/22 A2985 RMK T03000220 IEM_DS3505
ZGSZ,2001-10-07 06:00,ZGSZ 070600Z AUTO 09006KT 11SM 30/22 A2983 RMK SLP114 T03020225 57024 IEM_DS3505
ZGSZ,2001-10-07 07:00,ZGSZ 070700Z AUTO 21006KT 7SM 30/21 A2983 RMK T03000210 IEM_DS3505
ZGSZ,2001-10-07 08:00,ZGSZ 070800Z AUTO 20008KT 7SM 29/21 A2980 RMK T02900210 IEM_DS3505
ZGSZ,2001-10-07 09:00,ZGSZ 070900Z AUTO 18004KT 9SM 29/23 A2983 RMK SLP109 T02920228 57005 IEM_DS3505
ZGSZ,2001-10-07 10:00,ZGSZ 071000Z AUTO 18006KT 7SM 28/22 A2983 RMK T02800220 IEM_DS3505
ZGSZ,2001-10-07 11:00,ZGSZ 071100Z AUTO 18006KT 7SM 27/22 A2983 RMK T02700220 IEM_DS3505
ZGSZ,2001-10-07 12:00,ZGSZ 071200Z AUTO 11004KT 8SM 27/23 A2985 RMK SLP124 T02700226 52015 IEM_DS3505
ZGSZ,2001-10-07 13:00,ZGSZ 071300Z AUTO 13004KT 6SM 27/21 A2985 RMK T02700210 IEM_DS3505
ZGSZ,2001-10-07 14:00,ZGSZ 071400Z AUTO 13004KT 6SM 27/21 A2988 RMK T02700210 IEM_DS3505
ZGSZ,2001-10-07 15:00,ZGSZ 071500Z AUTO 13008KT 6SM 27/21 A2988 RMK T02700210 IEM_DS3505
ZGSZ,2001-10-07 16:00,ZGSZ 071600Z AUTO 14004KT 6SM 26/21 A2988 RMK T02600210 IEM_DS3505
ZGSZ,2001-10-07 17:00,ZGSZ 071700Z AUTO 14004KT 7SM 26/21 A2988 RMK T02600210 IEM_DS3505
ZGSZ,2001-10-07 18:00,ZGSZ 071800Z AUTO 14002KT 8SM 26/23 A2985 RMK SLP122 T02620230 57008 IEM_DS3505
ZGSZ,2001-10-07 19:00,ZGSZ 071900Z AUTO 09004KT 7SM 26/21 A2985 RMK T02600210 IEM_DS3505
ZGSZ,2001-10-07 20:00,ZGSZ 072000Z AUTO 09004KT 7SM 26/21 A2985 RMK T02600210 IEM_DS3505
ZGSZ,2001-10-07 21:00,ZGSZ 072100Z AUTO 00000KT 7SM 26/23 A2985 RMK SLP117 T02590227 57005 IEM_DS3505
ZGSZ,2001-10-07 22:00,ZGSZ 072200Z AUTO 09004KT 6SM 25/21 A2985 RMK T02500210 IEM_DS3505
ZGSZ,2001-10-07 23:00,ZGSZ 072300Z AUTO 09004KT 5SM 26/21 A2988 RMK T02600210 IEM_DS3505
ZGSZ,2001-10-08 00:00,ZGSZ 080000Z AUTO 14004KT 7SM 26/23 A2988 RMK SLP132 T02640226 52015 IEM_DS3505
ZGSZ,2001-10-08 01:00,ZGSZ 080100Z AUTO 17002KT 28/21 A2991 RMK T02800210 IEM_DS3505
ZGSZ,2001-10-08 02:00,ZGSZ 080200Z AUTO 22004KT 11SM 28/21 A2991 RMK T02800210 IEM_DS3505
ZGSZ,2001-10-08 03:00,ZGSZ 080300Z AUTO 32002KT 11SM 30/23 A2988 RMK SLP128 T02970231 57004 IEM_DS3505
ZGSZ,2001-10-08 04:00,ZGSZ 080400Z AUTO 23006KT 7SM 29/22 A2985 RMK T02900220 IEM_DS3505
ZGSZ,2001-10-08 05:00,ZGSZ 080500Z AUTO 23006KT 7SM 30/21 A2985 RMK T03000210 IEM_DS3505
ZGSZ,2001-10-08 06:00,ZGSZ 080600Z AUTO 29004KT 11SM 30/23 A2983 RMK SLP107 T03020227 57021 IEM_DS3505
ZGSZ,2001-10-08 07:00,ZGSZ 080700Z AUTO 21006KT 7SM 30/21 A2980 RMK T03000210 IEM_DS3505
ZGSZ,2001-10-08 09:00,ZGSZ 080900Z AUTO 14002KT 6SM 30/24 A2980 RMK SLP098 T03020235 57009 IEM_DS3505
ZGSZ,2001-10-08 10:00,ZGSZ 081000Z AUTO 18006KT 6SM 29/22 A2980 RMK T02900220 IEM_DS3505
ZGSZ,2001-10-08 11:00,ZGSZ 081100Z AUTO 18006KT 6SM 28/22 A2980 RMK T02800220 IEM_DS3505
ZGSZ,2001-10-08 12:00,ZGSZ 081200Z AUTO 14004KT 5SM 28/24 A2983 RMK SLP112 T02780238 52014 IEM_DS3505
ZGSZ,2001-10-08 13:00,ZGSZ 081300Z AUTO 19008KT 6SM 28/22 A2985 RMK T02800220 IEM_DS3505
ZGSZ,2001-10-08 14:00,ZGSZ 081400Z AUTO 20008KT 6SM 27/22 A2985 RMK T02700220 IEM_DS3505
ZGSZ,2001-10-08 15:00,ZGSZ 081500Z AUTO 21004KT 6SM 27/22 A2985 RMK T02700220 IEM_DS3505
ZGSZ,2001-10-08 16:00,ZGSZ 081600Z AUTO 25006KT 6SM 27/23 A2985 RMK T02700230 IEM_DS3505
ZGSZ,2001-10-08 17:00,ZGSZ 081700Z AUTO 26004KT 7SM 27/23 A2985 RMK T02700230 IEM_DS3505
ZGSZ,2001-10-08 18:00,ZGSZ 081800Z AUTO 00000KT 4SM 27/24 A2983 RMK SLP113 T02700237 57013 IEM_DS3505
ZGSZ,2001-10-08 19:00,ZGSZ 081900Z AUTO 36006KT 4SM 26/21 A2983 RMK T02600210 IEM_DS3505
ZGSZ,2001-10-08 20:00,ZGSZ 082000Z AUTO 35008KT 4SM 25/20 A2985 RMK T02500200 IEM_DS3505
ZGSZ,2001-10-08 21:00,ZGSZ 082100Z AUTO 07004KT 4SM 25/22 A2985 RMK 70004 SLP119 T02470219 52006 IEM_DS3505
ZGSZ,2001-10-08 22:00,ZGSZ 082200Z AUTO 02006KT 2 1/2SM 24/19 A2985 RMK T02400190 IEM_DS3505
ZGSZ,2001-10-08 23:00,ZGSZ 082300Z AUTO 01008KT 7SM 24/19 A2988 RMK T02400190 IEM_DS3505
ZGSZ,2001-10-09 00:00,ZGSZ 090000Z AUTO 04006KT 12SM 24/19 A2991 RMK 60004 SLP134 T02430192 52015 IEM_DS3505
ZGSZ,2001-10-09 01:00,ZGSZ 090100Z AUTO 36012KT 7SM 24/18 A2991 RMK T02400180 IEM_DS3505
ZGSZ,2001-10-09 02:00,ZGSZ 090200Z AUTO 03008KT 7SM 25/18 A2991 RMK T02500180 IEM_DS3505
ZGSZ,2001-10-09 03:00,ZGSZ 090300Z AUTO 36006KT 17SM 26/18 A2991 RMK SLP139 T02650180 52005 IEM_DS3505
ZGSZ,2001-10-09 04:00,ZGSZ 090400Z AUTO 02008KT 7SM 27/17 A2988 RMK T02700170 IEM_DS3505
ZGSZ,2001-10-09 05:00,ZGSZ 090500Z AUTO 34012KT 7SM 28/16 A2988 RMK T02800160 IEM_DS3505
ZGSZ,2001-10-09 06:00,ZGSZ 090600Z AUTO 04006KT 19SM 30/18 A2985 RMK SLP114 T02950182 57025 IEM_DS3505
ZGSZ,2001-10-09 07:00,ZGSZ 090700Z AUTO 36010KT 6SM 29/17 A2983 RMK T02900170 IEM_DS3505
ZGSZ,2001-10-09 08:00,ZGSZ 090800Z AUTO 35010KT 6SM 27/16 A2983 RMK T02700160 IEM_DS3505
ZGSZ,2001-10-09 09:00,ZGSZ 090900Z AUTO 36006KT 19SM 28/19 A2985 RMK SLP114 T02820188 54000 IEM_DS3505
ZGSZ,2001-10-09 10:00,ZGSZ 091000Z AUTO 02010KT 6SM 27/16 A2985 RMK T02700160 IEM_DS3505
ZGSZ,2001-10-09 11:00,ZGSZ 091100Z AUTO 02008KT 6SM 26/16 A2988 RMK T02600160 IEM_DS3505
ZGSZ,2001-10-09 12:00,ZGSZ 091200Z AUTO 02008KT 10SM 26/18 A2991 RMK SLP135 T02630176 52021 IEM_DS3505
ZGSZ,2001-10-09 13:00,ZGSZ 091300Z AUTO 02008KT 6SM 25/16 A2991 RMK T02500160 IEM_DS3505
ZGSZ,2001-10-09 14:00,ZGSZ 091400Z AUTO 02010KT 6SM 25/15 A2994 RMK T02500150 IEM_DS3505
ZGSZ,2001-10-09 15:00,ZGSZ 091500Z AUTO 01008KT 6SM 24/15 A2994 RMK T02400150 IEM_DS3505
ZGSZ,2001-10-09 18:00,ZGSZ 091800Z AUTO 04006KT 10SM 24/16 RMK SLP139 T02420162 57006 IEM_DS3505
ZGSZ,2001-10-09 19:00,ZGSZ 091900Z AUTO 36010KT 6SM 23/14 A2991 RMK T02300140 IEM_DS3505
ZGSZ,2001-10-09 20:00,ZGSZ 092000Z AUTO 36006KT 6SM 23/14 A2988 RMK T02300140 IEM_DS3505
ZGSZ,2001-10-09 21:00,ZGSZ 092100Z AUTO 04010KT 9SM 24/16 A2988 RMK SLP136 T02380161 57003 IEM_DS3505
ZGSZ,2001-10-09 22:00,ZGSZ 092200Z AUTO 01006KT 7SM 23/14 A2991 RMK T02300140 IEM_DS3505
ZGSZ,2001-10-09 23:00,ZGSZ 092300Z AUTO 36006KT 6SM 23/14 A2994 RMK T02300140 IEM_DS3505
ZGSZ,2001-10-10 00:00,ZGSZ 100000Z AUTO 04008KT 8SM 24/16 A2997 RMK SLP157 T02420164 52021 IEM_DS3505
ZGSZ,2001-10-10 01:00,ZGSZ 100100Z AUTO 36006KT 6SM 24/14 A2997 RMK T02400140 IEM_DS3505
ZGSZ,2001-10-10 02:00,ZGSZ 100200Z AUTO 36008KT 6SM 25/14 A3000 RMK T02500140 IEM_DS3505
ZGSZ,2001-10-10 03:00,ZGSZ 100300Z AUTO 09004KT 7SM 26/17 A2997 RMK SLP165 T02580172 52008 IEM_DS3505
ZGSZ,2001-10-10 05:00,ZGSZ 100500Z AUTO 01004KT 7SM 26/14 A2994 RMK T02600140 IEM_DS3505
ZGSZ,2001-10-10 06:00,ZGSZ 100600Z AUTO 09006KT 14SM 28/17 A2991 RMK SLP142 T02760173 57023 IEM_DS3505
ZGSZ,2001-10-10 07:00,ZGSZ 100700Z AUTO 32004KT 5SM 26/15 A2991 RMK T02600150 IEM_DS3505
ZGSZ,2001-10-10 08:00,ZGSZ 100800Z AUTO 31004KT 26/15 A2988 RMK T02600150 IEM_DS3505
ZGSZ,2001-10-10 09:00,ZGSZ 100900Z AUTO 11004KT 11SM 27/18 A2991 RMK SLP140 T02730181 57002 IEM_DS3505
ZGSZ,2001-10-10 10:00,ZGSZ 101000Z AUTO 36002KT 3SM 27/15 A2991 RMK T02700150 IEM_DS3505
ZGSZ,2001-10-10 11:00,ZGSZ 101100Z AUTO 07002KT 3SM 25/17 A2991 RMK T02500170 IEM_DS3505
ZGSZ,2001-10-10 12:00,ZGSZ 101200Z AUTO 09004KT 8SM 26/20 A2991 RMK SLP147 T02630202 52007 IEM_DS3505
ZGSZ,2001-10-10 13:00,ZGSZ 101300Z AUTO 09004KT 1 1/2SM 26/17 A2994 RMK T02600170 IEM_DS3505
ZGSZ,2001-10-10 15:00,ZGSZ 101500Z AUTO 09006KT 7SM 25/18 A2994 RMK T02500180 IEM_DS3505
ZGSZ,2001-10-10 16:00,ZGSZ 101600Z AUTO 08006KT 7SM 25/19 A2994 RMK T02500190 IEM_DS3505
ZGSZ,2001-10-10 17:00,ZGSZ 101700Z AUTO 08006KT 6SM 25/19 A2994 RMK T02500190 IEM_DS3505
ZGSZ,2001-10-10 18:00,ZGSZ 101800Z AUTO 04006KT 7SM 26/22 A2994 RMK SLP144 T02570217 57012 IEM_DS3505
ZGSZ,2001-10-10 19:00,ZGSZ 101900Z AUTO 05004KT 6SM 24/19 A2991 RMK T02400190 IEM_DS3505
ZGSZ,2001-10-10 20:00,ZGSZ 102000Z AUTO 6SM 23/19 A2991 RMK T02300190 IEM_DS3505
ZGSZ,2001-10-10 21:00,ZGSZ 102100Z AUTO 04006KT 5SM 25/21 A2994 RMK SLP147 T02460213 52003 IEM_DS3505
ZGSZ,2001-10-10 22:00,ZGSZ 102200Z AUTO 05008KT 3SM 23/20 A2994 RMK T02300200 IEM_DS3505
ZGSZ,2001-10-10 23:00,ZGSZ 102300Z AUTO 03004KT 3SM 23/19 A2997 RMK T02300190 IEM_DS3505
ZGSZ,2001-10-11 00:00,ZGSZ 110000Z AUTO 02006KT 4SM 24/21 A3000 RMK SLP169 T02420209 52022 IEM_DS3505
ZGSZ,2001-10-11 01:00,ZGSZ 110100Z AUTO 05004KT 26/18 A3000 RMK T02600180 IEM_DS3505
ZGSZ,2001-10-11 02:00,ZGSZ 110200Z AUTO 06008KT 6SM 27/18 A3000 RMK T02700180 IEM_DS3505
ZGSZ,2001-10-11 03:00,ZGSZ 110300Z AUTO 09006KT 7SM 29/21 RMK SLP163 T02860210 57006 IEM_DS3505
ZGSZ,2001-10-11 04:00,ZGSZ 110400Z AUTO 11006KT 7SM 29/17 A2997 RMK T02900170 IEM_DS3505
ZGSZ,2001-10-11 05:00,ZGSZ 110500Z AUTO 21006KT 7SM 29/19 A2994 RMK T02900190 IEM_DS3505
ZGSZ,2001-10-11 06:00,ZGSZ 110600Z AUTO 14004KT 17SM 31/18 A2991 RMK SLP136 T03080180 57027 IEM_DS3505
ZGSZ,2001-10-11 07:00,ZGSZ 110700Z AUTO 21008KT 5SM 29/19 A2988 RMK T02900190 IEM_DS3505
ZGSZ,2001-10-11 08:00,ZGSZ 110800Z AUTO 19006KT 5SM 29/19 A2988 RMK T02900190 IEM_DS3505
ZGSZ,2001-10-11 09:00,ZGSZ 110900Z AUTO 14006KT 16SM 29/18 A2988 RMK SLP134 T02890184 57002 IEM_DS3505
ZGSZ,2001-10-11 10:00,ZGSZ 111000Z AUTO 18008KT 7SM 27/16 A2988 RMK T02700160 IEM_DS3505
ZGSZ,2001-10-11 11:00,ZGSZ 111100Z AUTO 13008KT 7SM 27/16 A2991 RMK T02700160 IEM_DS3505
ZGSZ,2001-10-11 12:00,ZGSZ 111200Z AUTO 14004KT 11SM 26/19 A2994 RMK SLP154 T02600194 52020 IEM_DS3505
ZGSZ,2001-10-11 13:00,ZGSZ 111300Z AUTO 10010KT 26/17 A2994 RMK T02600170 IEM_DS3505
ZGSZ,2001-10-11 14:00,ZGSZ 111400Z AUTO 11008KT 25/18 A2997 RMK T02500180 IEM_DS3505
ZGSZ,2001-10-11 15:00,ZGSZ 111500Z AUTO 11010KT 25/18 A2997 RMK T02500180 IEM_DS3505
ZGSZ,2001-10-11 16:00,ZGSZ 111600Z AUTO 10008KT 25/18 A2994 RMK T02500180 IEM_DS3505
ZGSZ,2001-10-11 17:00,ZGSZ 111700Z AUTO 10010KT 6SM 25/18 A2994 RMK T02500180 IEM_DS3505
ZGSZ,2001-10-11 18:00,ZGSZ 111800Z AUTO 09008KT 9SM 26/21 A2994 RMK SLP149 T02550210 57012 IEM_DS3505
ZGSZ,2001-10-11 19:00,ZGSZ 111900Z AUTO 09004KT 6SM 24/18 A2991 RMK T02400180 IEM_DS3505
ZGSZ,2001-10-11 20:00,ZGSZ 112000Z AUTO 03002KT 24/18 A2991 RMK T02400180 IEM_DS3505
ZGSZ,2001-10-11 21:00,ZGSZ 112100Z AUTO 09006KT 5SM 25/20 A2994 RMK SLP145 T02470204 57004 IEM_DS3505
ZGSZ,2001-10-11 22:00,ZGSZ 112200Z AUTO 3SM 22/18 A2994 RMK T02200180 IEM_DS3505
ZGSZ,2001-10-11 23:00,ZGSZ 112300Z AUTO 02004KT 3SM 23/18 A2997 RMK T02300180 IEM_DS3505
ZGSZ,2001-10-12 00:00,ZGSZ 120000Z AUTO 04008KT 4SM 25/20 A2997 RMK SLP155 T02460198 52010 IEM_DS3505
ZGSZ,2001-10-12 01:00,ZGSZ 120100Z AUTO 04004KT 3SM 26/18 A3000 RMK T02600180 IEM_DS3505
ZGSZ,2001-10-12 02:00,ZGSZ 120200Z AUTO 09004KT 5SM 27/17 A3000 RMK T02700170 IEM_DS3505
ZGSZ,2001-10-12 03:00,ZGSZ 120300Z AUTO 07002KT 5SM 28/20 A2997 RMK SLP157 T02770198 52002 IEM_DS3505
ZGSZ,2001-10-12 04:00,ZGSZ 120400Z AUTO 26006KT 28/18 A2994 RMK T02800180 IEM_DS3505
ZGSZ,2001-10-12 05:00,ZGSZ 120500Z AUTO 23006KT 2 1/2SM 29/19 A2991 RMK T02900190 IEM_DS3505
ZGSZ,2001-10-12 06:00,ZGSZ 120600Z AUTO 14006KT 5SM 30/21 A2988 RMK SLP131 T02980207 57026 IEM_DS3505
ZGSZ,2001-10-12 07:00,ZGSZ 120700Z AUTO 19008KT 3SM 28/20 A2988 RMK T02800200 IEM_DS3505
ZGSZ,2001-10-12 08:00,ZGSZ 120800Z AUTO 18008KT 5SM 28/20 A2988 RMK T02800200 IEM_DS3505
ZGSZ,2001-10-12 09:00,ZGSZ 120900Z AUTO 17010KT 6SM 27/19 A2985 RMK T02700190 IEM_DS3505
ZGSZ,2001-10-12 10:00,ZGSZ 121000Z AUTO 10006KT 6SM 27/18 A2985 RMK T02700180 IEM_DS3505
ZGSZ,2001-10-12 11:00,ZGSZ 121100Z AUTO 12008KT 6SM 26/17 A2988 RMK T02600170 IEM_DS3505
ZGSZ,2001-10-12 12:00,ZGSZ 121200Z AUTO 09006KT 10SM 25/20 A2988 RMK SLP142 T02540199 52011 IEM_DS3505
ZGSZ,2001-10-12 13:00,ZGSZ 121300Z AUTO 10010KT 6SM 25/18 A2991 RMK T02500180 IEM_DS3505
ZGSZ,2001-10-12 14:00,ZGSZ 121400Z AUTO 10008KT 6SM 25/18 A2991 RMK T02500180 IEM_DS3505
ZGSZ,2001-10-12 15:00,ZGSZ 121500Z AUTO 09006KT 6SM 25/18 A2991 RMK T02500180 IEM_DS3505
ZGSZ,2001-10-12 16:00,ZGSZ 121600Z AUTO 09006KT 6SM 25/18 A2991 RMK T02500180 IEM_DS3505
ZGSZ,2001-10-12 17:00,ZGSZ 121700Z AUTO 09006KT 6SM 24/18 A2991 RMK T02400180 IEM_DS3505
ZGSZ,2001-10-12 18:00,ZGSZ 121800Z AUTO 11002KT 9SM 25/20 A2988 RMK SLP131 T02520205 57017 IEM_DS3505
ZGSZ,2001-10-12 19:00,ZGSZ 121900Z AUTO 35002KT 6SM 23/18 A2988 RMK T02300180 IEM_DS3505
ZGSZ,2001-10-12 20:00,ZGSZ 122000Z AUTO 03002KT 6SM 22/18 A2985 RMK T02200180 IEM_DS3505
ZGSZ,2001-10-12 21:00,ZGSZ 122100Z AUTO 07008KT 7SM 24/20 A2988 RMK SLP128 T02440203 57003 IEM_DS3505
ZGSZ,2001-10-12 22:00,ZGSZ 122200Z AUTO 08004KT 6SM 23/19 A2988 RMK T02300190 IEM_DS3505
ZGSZ,2001-10-12 23:00,ZGSZ 122300Z AUTO 05002KT 6SM 23/19 A2991 RMK T02300190 IEM_DS3505
ZGSZ,2001-10-13 00:00,ZGSZ 130000Z AUTO 14006KT 5SM 25/21 A2994 RMK SLP139 T02470206 52011 IEM_DS3505
ZGSZ,2001-10-13 01:00,ZGSZ 130100Z AUTO 10006KT 6SM 25/18 A2994 RMK T02500180 IEM_DS3505
ZGSZ,2001-10-13 02:00,ZGSZ 130200Z AUTO 10006KT 11SM 26/18 A2991 RMK T02600180 IEM_DS3505
ZGSZ,2001-10-13 03:00,ZGSZ 130300Z AUTO 09006KT 11SM 26/19 A2991 RMK SLP147 T02620189 52008 IEM_DS3505
ZGSZ,2001-10-13 04:00,ZGSZ 130400Z AUTO 13010KT 6SM 28/17 A2988 RMK T02800170 IEM_DS3505
ZGSZ,2001-10-13 05:00,ZGSZ 130500Z AUTO 14006KT 6SM 27/16 A2985 RMK T02700160 IEM_DS3505
ZGSZ,2001-10-13 06:00,ZGSZ 130600Z AUTO 11006KT 10SM 28/18 A2985 RMK SLP122 T02840185 57025 IEM_DS3505
ZGSZ,2001-10-13 07:00,ZGSZ 130700Z AUTO 18004KT 6SM 28/18 A2983 RMK T02800180 IEM_DS3505
ZGSZ,2001-10-13 08:00,ZGSZ 130800Z AUTO 19006KT 6SM 28/17 A2980 RMK T02800170 IEM_DS3505
ZGSZ,2001-10-13 09:00,ZGSZ 130900Z AUTO 14006KT 9SM 28/19 A2980 RMK SLP105 T02770193 57017 IEM_DS3505
ZGSZ,2001-10-13 10:00,ZGSZ 131000Z AUTO 19004KT 6SM 26/18 A2983 RMK T02600180 IEM_DS3505
ZGSZ,2001-10-13 11:00,ZGSZ 131100Z AUTO 18004KT 6SM 25/18 A2983 RMK T02500180 IEM_DS3505
ZGSZ,2001-10-13 12:00,ZGSZ 131200Z AUTO 14006KT 9SM 25/19 A2985 RMK SLP120 T02500191 52015 IEM_DS3505
ZGSZ,2001-10-13 13:00,ZGSZ 131300Z AUTO 14004KT 3SM 25/18 A2985 RMK T02500180 IEM_DS3505
ZGSZ,2001-10-13 14:00,ZGSZ 131400Z AUTO 09006KT 24/18 A2985 RMK T02400180 IEM_DS3505
ZGSZ,2001-10-13 15:00,ZGSZ 131500Z AUTO 10006KT 6SM 24/17 A2988 RMK T02400170 IEM_DS3505
ZGSZ,2001-10-13 18:00,ZGSZ 131800Z AUTO 00000KT 11SM 25/20 RMK SLP119 T02480197 57011 IEM_DS3505
ZGSZ,2001-10-13 21:00,ZGSZ 132100Z AUTO 04006KT 9SM 25/20 A2985 RMK SLP118 T02470200 57001 IEM_DS3505
ZGSZ,2001-10-13 22:00,ZGSZ 132200Z AUTO 01002KT 4SM 23/18 A2985 RMK T02300180 IEM_DS3505
ZGSZ,2001-10-13 23:00,ZGSZ 132300Z AUTO 06002KT 5SM 23/18 A2988 RMK T02300180 IEM_DS3505
ZGSZ,2001-10-14 00:00,ZGSZ 140000Z AUTO 09004KT 11SM 25/19 A2988 RMK SLP131 T02460193 52013 IEM_DS3505
ZGSZ,2001-10-14 01:00,ZGSZ 140100Z AUTO 07006KT 5SM 26/18 A2988 RMK T02600180 IEM_DS3505
ZGSZ,2001-10-14 02:00,ZGSZ 140200Z AUTO 10004KT 5SM 26/18 A2988 RMK T02600180 IEM_DS3505
ZGSZ,2001-10-14 03:00,ZGSZ 140300Z AUTO 07008KT 9SM 27/18 A2988 RMK SLP128 T02730185 57003 IEM_DS3505
ZGSZ,2001-10-14 04:00,ZGSZ 140400Z AUTO 22006KT 7SM 27/19 A2985 RMK T02700190 IEM_DS3505
ZGSZ,2001-10-14 05:00,ZGSZ 140500Z AUTO 24004KT 7SM 28/18 A2983 RMK T02800180 IEM_DS3505
ZGSZ,2001-10-14 06:00,ZGSZ 140600Z AUTO 04004KT 8SM 29/20 A2980 RMK SLP098 T02900198 57030 IEM_DS3505
ZGSZ,2001-10-14 07:00,ZGSZ 140700Z AUTO 20006KT 7SM 28/18 A2977 RMK T02800180 IEM_DS3505
ZGSZ,2001-10-14 08:00,ZGSZ 140800Z AUTO 20006KT 6SM 27/18 A2977 RMK T02700180 IEM_DS3505
ZGSZ,2001-10-14 09:00,ZGSZ 140900Z AUTO 11004KT 9SM 27/20 A2977 RMK SLP095 T02740195 57003 IEM_DS3505
ZGSZ,2001-10-14 10:00,ZGSZ 141000Z AUTO 17008KT 6SM 26/18 A2980 RMK T02600180 IEM_DS3505
ZGSZ,2001-10-14 11:00,ZGSZ 141100Z AUTO 15006KT 6SM 26/18 A2980 RMK T02600180 IEM_DS3505
ZGSZ,2001-10-14 12:00,ZGSZ 141200Z AUTO 11004KT 7SM 25/19 A2983 RMK SLP115 T02520193 52020 IEM_DS3505
ZGSZ,2001-10-14 13:00,ZGSZ 141300Z AUTO 10008KT 6SM 25/17 A2985 RMK T02500170 IEM_DS3505
ZGSZ,2001-10-14 14:00,ZGSZ 141400Z AUTO 10006KT 6SM 24/18 A2985 RMK T02400180 IEM_DS3505
ZGSZ,2001-10-14 15:00,ZGSZ 141500Z AUTO 10006KT 6SM 24/18 A2988 RMK T02400180 IEM_DS3505
ZGSZ,2001-10-14 16:00,ZGSZ 141600Z AUTO 10006KT 6SM 24/18 A2988 RMK T02400180 IEM_DS3505
ZGSZ,2001-10-14 18:00,ZGSZ 141800Z AUTO 07004KT 12SM 25/20 RMK SLP124 T02480201 57007 IEM_DS3505
ZGSZ,2001-10-14 21:00,ZGSZ 142100Z AUTO 04004KT 5SM 24/20 A2985 RMK SLP121 T02380201 57003 IEM_DS3505
ZGSZ,2001-10-14 22:00,ZGSZ 142200Z AUTO 02006KT 6SM 22/18 A2988 RMK T02200180 IEM_DS3505
ZGSZ,2001-10-14 23:00,ZGSZ 142300Z AUTO 36004KT 6SM 22/18 A2988 RMK T02200180 IEM_DS3505
ZGSZ,2001-10-15 00:00,ZGSZ 150000Z AUTO 34004KT 5SM 24/20 A2988 RMK SLP134 T02360202 52013 IEM_DS3505
ZGSZ,2001-10-15 01:00,ZGSZ 150100Z AUTO 36006KT 26/19 A2988 RMK T02600190 IEM_DS3505
ZGSZ,2001-10-15 02:00,ZGSZ 150200Z AUTO 32006KT 3SM 27/18 A2991 RMK T02700180 IEM_DS3505
ZGSZ,2001-10-15 03:00,ZGSZ 150300Z AUTO 34004KT 4SM 28/21 A2988 RMK SLP133 T02770206 57001 IEM_DS3505
ZGSZ,2001-10-15 04:00,ZGSZ 150400Z AUTO 28008KT 2 1/2SM 29/20 A2985 RMK T02900200 IEM_DS3505
ZGSZ,2001-10-15 05:00,ZGSZ 150500Z AUTO 27008KT 3SM 29/20 A2983 RMK T02900200 IEM_DS3505
ZGSZ,2001-10-15 06:00,ZGSZ 150600Z AUTO 04004KT 4SM 32/20 A2980 RMK SLP101 T03220205 57032 IEM_DS3505
ZGSZ,2001-10-15 07:00,ZGSZ 150700Z AUTO 28008KT 2 1/2SM 30/20 A2977 RMK T03000200 IEM_DS3505
ZGSZ,2001-10-15 08:00,ZGSZ 150800Z AUTO 29008KT 3SM 30/19 A2977 RMK T03000190 IEM_DS3505
ZGSZ,2001-10-15 09:00,ZGSZ 150900Z AUTO 14006KT 5SM 29/22 A2977 RMK SLP095 T02920222 57006 IEM_DS3505
ZGSZ,2001-10-15 10:00,ZGSZ 151000Z AUTO 14004G14KT 6SM 30/16 A2980 RMK T03000160 IEM_DS3505
ZGSZ,2001-10-15 11:00,ZGSZ 151100Z AUTO 18008KT 4SM 26/22 A2980 RMK T02600220 IEM_DS3505
ZGSZ,2001-10-15 12:00,ZGSZ 151200Z AUTO 14006KT 5SM 26/22 A2983 RMK SLP115 T02620217 52020 IEM_DS3505
ZGSZ,2001-10-15 13:00,ZGSZ 151300Z AUTO 17008KT 6SM 26/21 A2985 RMK T02600210 IEM_DS3505
ZGSZ,2001-10-15 14:00,ZGSZ 151400Z AUTO 17008KT 6SM 26/21 A2985 RMK T02600210 IEM_DS3505
ZGSZ,2001-10-15 15:00,ZGSZ 151500Z AUTO 12004KT 2SM 25/20 A2985 RMK T02500200 IEM_DS3505
ZGSZ,2001-10-15 16:00,ZGSZ 151600Z AUTO 11004KT 2SM 25/20 A2985 RMK T02500200 IEM_DS3505
ZGSZ,2001-10-15 17:00,ZGSZ 151700Z AUTO 11002KT 2SM 25/20 A2985 RMK T02500200 IEM_DS3505
ZGSZ,2001-10-15 18:00,ZGSZ 151800Z AUTO 04002KT 4SM 25/21 A2983 RMK SLP115 T02480210 57008 IEM_DS3505
ZGSZ,2001-10-15 20:00,ZGSZ 152000Z AUTO 07004KT 2SM 25/20 A2983 RMK T02500200 IEM_DS3505
ZGSZ,2001-10-15 21:00,ZGSZ 152100Z AUTO 36004KT 4SM 25/21 A2983 RMK SLP111 T02460213 57004 IEM_DS3505
ZGSZ,2001-10-15 22:00,ZGSZ 152200Z AUTO 1 1/2SM 24/20 A2983 RMK T02400200 IEM_DS3505
ZGSZ,2001-10-15 23:00,ZGSZ 152300Z AUTO 1 1/4SM 24/20 A2985 RMK T02400200 IEM_DS3505
ZGSZ,2001-10-16 00:00,ZGSZ 160000Z AUTO 02006KT 4SM 25/19 A2985 RMK SLP118 T02470191 52007 IEM_DS3505
ZGSZ,2001-10-16 01:00,ZGSZ 160100Z AUTO 36008KT 1 1/2SM 26/18 A2988 RMK T02600180 IEM_DS3505
ZGSZ,2001-10-16 02:00,ZGSZ 160200Z AUTO 03012KT 2 1/2SM 28/16 A2988 RMK T02800160 IEM_DS3505
ZGSZ,2001-10-16 03:00,ZGSZ 160300Z AUTO 04008KT 7SM 27/18 A2985 RMK SLP117 T02700179 57001 IEM_DS3505
ZGSZ,2001-10-16 04:00,ZGSZ 160400Z AUTO 35010KT 30/15 A2983 RMK T03000150 IEM_DS3505
ZGSZ,2001-10-16 05:00,ZGSZ 160500Z AUTO 34010KT 5SM 31/15 A2977 RMK T03100150 IEM_DS3505
ZGSZ,2001-10-16 06:00,ZGSZ 160600Z AUTO 36004KT 6SM 31/18 A2974 RMK SLP079 T03130177 57038 IEM_DS3505
ZGSZ,2001-10-16 07:00,ZGSZ 160700Z AUTO 31010KT 5SM 31/15 A2974 RMK T03100150 IEM_DS3505
ZGSZ,2001-10-16 08:00,ZGSZ 160800Z AUTO 30012KT 5SM 30/18 A2971 RMK T03000180 IEM_DS3505
ZGSZ,2001-10-16 09:00,ZGSZ 160900Z AUTO 32006KT 7SM 31/15 A2974 RMK SLP081 T03120151 52002 IEM_DS3505
ZGSZ,2001-10-16 10:00,ZGSZ 161000Z AUTO 34008KT 6SM 29/16 A2974 RMK T02900160 IEM_DS3505
ZGSZ,2001-10-16 11:00,ZGSZ 161100Z AUTO 31006KT 3SM 28/17 A2977 RMK T02800170 IEM_DS3505
ZGSZ,2001-10-16 12:00,ZGSZ 161200Z AUTO 32004KT 5SM 28/18 A2980 RMK SLP096 T02850181 52015 IEM_DS3505
ZGSZ,2001-10-16 13:00,ZGSZ 161300Z AUTO 33006KT 26/16 A2983 RMK T02600160 IEM_DS3505
ZGSZ,2001-10-16 14:00,ZGSZ 161400Z AUTO 35004KT 26/16 A2983 RMK T02600160 IEM_DS3505
ZGSZ,2001-10-16 15:00,ZGSZ 161500Z AUTO 36006KT 3SM 25/15 A2983 RMK T02500150 IEM_DS3505
ZGSZ,2001-10-16 16:00,ZGSZ 161600Z AUTO 36008KT 24/16 A2983 RMK T02400160 IEM_DS3505
ZGSZ,2001-10-16 17:00,ZGSZ 161700Z AUTO 01006KT 25/15 A2983 RMK T02500150 IEM_DS3505
ZGSZ,2001-10-16 18:00,ZGSZ 161800Z AUTO 04010KT 5SM 25/16 A2983 RMK SLP108 T02540162 57008 IEM_DS3505
ZGSZ,2001-10-16 19:00,ZGSZ 161900Z AUTO 36008KT 24/14 A2983 RMK T02400140 IEM_DS3505
ZGSZ,2001-10-16 20:00,ZGSZ 162000Z AUTO 01008KT 23/14 A2985 RMK T02300140 IEM_DS3505
ZGSZ,2001-10-16 21:00,ZGSZ 162100Z AUTO 04006KT 4SM 24/16 A2985 RMK SLP114 T02400158 52006 IEM_DS3505
ZGSZ,2001-10-16 22:00,ZGSZ 162200Z AUTO 01008KT 2 1/2SM 23/14 A2985 RMK T02300140 IEM_DS3505
ZGSZ,2001-10-16 23:00,ZGSZ 162300Z AUTO 01006KT 2 1/2SM 23/14 A2988 RMK T02300140 IEM_DS3505
ZGSZ,2001-10-17 00:00,ZGSZ 170000Z AUTO 04008KT 5SM 24/16 A2991 RMK SLP135 T02360161 52021 IEM_DS3505
ZGSZ,2001-10-17 01:00,ZGSZ 170100Z AUTO 02012KT 2SM 25/14 A2991 RMK T02500140 IEM_DS3505
ZGSZ,2001-10-17 02:00,ZGSZ 170200Z AUTO 02010KT 2 1/2SM 26/14 A2991 RMK T02600140 IEM_DS3505
ZGSZ,2001-10-17 03:00,ZGSZ 170300Z AUTO 02008KT 4SM 27/18 A2991 RMK SLP131 T02710175 57004 IEM_DS3505
ZGSZ,2001-10-17 04:00,ZGSZ 170400Z AUTO 36010KT 3SM 28/15 A2988 RMK T02800150 IEM_DS3505
ZGSZ,2001-10-17 05:00,ZGSZ 170500Z AUTO 02010KT 3SM 29/15 A2985 RMK T02900150 IEM_DS3505
ZGSZ,2001-10-17 06:00,ZGSZ 170600Z AUTO 36006KT 4SM 30/18 A2983 RMK SLP104 T03050176 57027 IEM_DS3505
ZGSZ,2001-10-17 07:00,ZGSZ 170700Z AUTO 01010KT 30/15 A2980 RMK T03000150 IEM_DS3505
ZGSZ,2001-10-17 08:00,ZGSZ 170800Z AUTO 01008KT 30/15 A2980 RMK T03000150 IEM_DS3505
ZGSZ,2001-10-17 09:00,ZGSZ 170900Z AUTO 04006KT 6SM 30/17 A2980 RMK SLP104 T02990172 54000 IEM_DS3505
ZGSZ,2001-10-17 10:00,ZGSZ 171000Z AUTO 02008KT 28/14 A2983 RMK T02800140 IEM_DS3505
ZGSZ,2001-10-17 11:00,ZGSZ 171100Z AUTO 05006KT 27/15 A2983 RMK T02700150 IEM_DS3505
ZGSZ,2001-10-17 12:00,ZGSZ 171200Z AUTO 04012KT 5SM 28/17 A2985 RMK SLP124 T02770167 52020 IEM_DS3505
ZGSZ,2001-10-17 13:00,ZGSZ 171300Z AUTO 05008KT 26/16 A2988 RMK T02600160 IEM_DS3505
ZGSZ,2001-10-17 14:00,ZGSZ 171400Z AUTO 04006KT 3SM 25/16 A2988 RMK T02500160 IEM_DS3505
ZGSZ,2001-10-17 15:00,ZGSZ 171500Z AUTO 04004KT 3SM 25/15 A2991 RMK T02500150 IEM_DS3505
ZGSZ,2001-10-17 16:00,ZGSZ 171600Z AUTO 03002KT 2 1/2SM 24/15 A2991 RMK T02400150 IEM_DS3505
ZGSZ,2001-10-17 17:00,ZGSZ 171700Z AUTO 02004KT 2 1/2SM 24/15 A2991 RMK T02400150 IEM_DS3505
ZGSZ,2001-10-17 18:00,ZGSZ 171800Z AUTO 04006KT 5SM 24/17 A2991 RMK SLP142 T02430171 52005 IEM_DS3505
ZGSZ,2001-10-17 19:00,ZGSZ 171900Z AUTO 01004KT 2 1/2SM 23/15 A2991 RMK T02300150 IEM_DS3505
ZGSZ,2001-10-17 20:00,ZGSZ 172000Z AUTO 02006KT 2 1/2SM 23/15 A2991 RMK T02300150 IEM_DS3505
ZGSZ,2001-10-17 21:00,ZGSZ 172100Z AUTO 04004KT 4SM 24/17 A2991 RMK SLP144 T02370171 52002 IEM_DS3505
ZGSZ,2001-10-17 22:00,ZGSZ 172200Z AUTO 02008KT 3SM 22/14 A2994 RMK T02200140 IEM_DS3505
ZGSZ,2001-10-17 23:00,ZGSZ 172300Z AUTO 01008KT 3SM 22/14 A2997 RMK T02200140 IEM_DS3505
ZGSZ,2001-10-18 00:00,ZGSZ 180000Z AUTO 04010KT 5SM 23/16 A3000 RMK SLP164 T02270163 52020 IEM_DS3505
ZGSZ,2001-10-18 01:00,ZGSZ 180100Z AUTO 03008KT 24/15 A3000 RMK T02400150 IEM_DS3505
ZGSZ,2001-10-18 02:00,ZGSZ 180200Z AUTO 03008KT 4SM 24/15 A3003 RMK T02400150 IEM_DS3505
ZGSZ,2001-10-18 03:00,ZGSZ 180300Z AUTO 04004KT 4SM 26/18 A3000 RMK SLP174 T02580177 52010 IEM_DS3505
ZGSZ,2001-10-18 04:00,ZGSZ 180400Z AUTO 08006KT 28/16 A3000 RMK T02800160 IEM_DS3505
ZGSZ,2001-10-18 05:00,ZGSZ 180500Z AUTO 26006KT 28/15 A2997 RMK T02800150 IEM_DS3505
ZGSZ,2001-10-18 06:00,ZGSZ 180600Z AUTO 07006KT 4SM 29/19 A2994 RMK SLP151 T02920191 57023 IEM_DS3505
ZGSZ,2001-10-18 07:00,ZGSZ 180700Z AUTO 27008KT 29/16 A2991 RMK T02900160 IEM_DS3505
ZGSZ,2001-10-18 08:00,ZGSZ 180800Z AUTO 29006KT 28/17 A2991 RMK T02800170 IEM_DS3505
ZGSZ,2001-10-18 09:00,ZGSZ 180900Z AUTO 14006KT 4SM 28/20 A2991 RMK SLP146 T02780196 57005 IEM_DS3505
ZGSZ,2001-10-18 10:00,ZGSZ 181000Z AUTO 04004KT 2 1/2SM 27/17 A2994 RMK T02700170 IEM_DS3505
ZGSZ,2001-10-18 11:00,ZGSZ 181100Z AUTO 12004KT 2SM 27/17 A2994 RMK T02700170 IEM_DS3505
ZGSZ,2001-10-18 12:00,ZGSZ 181200Z AUTO 09004KT 6SM 26/20 A2997 RMK SLP169 T02550203 52022 IEM_DS3505
ZGSZ,2001-10-18 13:00,ZGSZ 181300Z AUTO 11006KT 26/18 A3000 RMK T02600180 IEM_DS3505
ZGSZ,2001-10-18 14:00,ZGSZ 181400Z AUTO 13008KT 25/18 A3000 RMK T02500180 IEM_DS3505
ZGSZ,2001-10-18 15:00,ZGSZ 181500Z AUTO 10008KT 5SM 25/18 A3003 RMK T02500180 IEM_DS3505
ZGSZ,2001-10-18 16:00,ZGSZ 181600Z AUTO 10008KT 6SM 25/18 A3003 RMK T02500180 IEM_DS3505
ZGSZ,2001-10-18 17:00,ZGSZ 181700Z AUTO 10006KT 6SM 25/18 A3003 RMK T02500180 IEM_DS3505
ZGSZ,2001-10-18 18:00,ZGSZ 181800Z AUTO 09004KT 6SM 25/20 A3003 RMK 60003 SLP177 T02460200 57001 IEM_DS3505
ZGSZ,2001-10-18 19:00,ZGSZ 181900Z AUTO 05002KT 6SM 24/18 A3003 RMK T02400180 IEM_DS3505
ZGSZ,2001-10-18 20:00,ZGSZ 182000Z AUTO 08004KT 6SM 24/18 A3003 RMK T02400180 IEM_DS3505
ZGSZ,2001-10-18 21:00,ZGSZ 182100Z AUTO 07006KT 7SM 24/19 A3003 RMK 70003 SLP178 T02430192 52001 IEM_DS3505
ZGSZ,2001-10-18 22:00,ZGSZ 182200Z AUTO 08006KT 6SM 24/18 A3006 RMK T02400180 IEM_DS3505
ZGSZ,2001-10-18 23:00,ZGSZ 182300Z AUTO 08004KT 6SM 24/17 A3006 RMK T02400170 IEM_DS3505
ZGSZ,2001-10-19 00:00,ZGSZ 190000Z AUTO 09006KT 7SM 24/19 A3009 RMK 70003 SLP205 T02440189 52026 IEM_DS3505
ZGSZ,2001-10-19 01:00,ZGSZ 190100Z AUTO 06004KT 6SM 25/17 A3012 RMK T02500170 IEM_DS3505
ZGSZ,2001-10-19 02:00,ZGSZ 190200Z AUTO 07004KT 5SM 26/17 A3012 RMK T02600170 IEM_DS3505
ZGSZ,2001-10-19 03:00,ZGSZ 190300Z AUTO 04008KT 7SM 26/20 A3009 RMK SLP200 T02610195 57005 IEM_DS3505
ZGSZ,2001-10-19 04:00,ZGSZ 190400Z AUTO 08006KT 5SM 29/17 A3006 RMK T02900170 IEM_DS3505
ZGSZ,2001-10-19 05:00,ZGSZ 190500Z AUTO 24002KT 5SM 28/19 A3003 RMK T02800190 IEM_DS3505
ZGSZ,2001-10-19 06:00,ZGSZ 190600Z AUTO 09006KT 9SM 30/20 A3000 RMK SLP170 T03020196 57029 IEM_DS3505
ZGSZ,2001-10-19 07:00,ZGSZ 190700Z AUTO 24006KT 28/19 A3000 RMK T02800190 IEM_DS3505
ZGSZ,2001-10-19 08:00,ZGSZ 190800Z AUTO 19008KT 27/19 A2997 RMK T02700190 IEM_DS3505
ZGSZ,2001-10-19 09:00,ZGSZ 190900Z AUTO 09006KT 9SM 27/19 A2997 RMK SLP161 T02700191 57009 IEM_DS3505
ZGSZ,2001-10-19 10:00,ZGSZ 191000Z AUTO 17008KT 6SM 26/18 A2997 RMK T02600180 IEM_DS3505
ZGSZ,2001-10-19 11:00,ZGSZ 191100Z AUTO 13006KT 6SM 26/17 A2997 RMK T02600170 IEM_DS3505
ZGSZ,2001-10-19 12:00,ZGSZ 191200Z AUTO 14006KT 6SM 24/19 A3000 RMK SLP174 T02450191 52012 IEM_DS3505
ZGSZ,2001-10-19 13:00,ZGSZ 191300Z AUTO 11006KT 6SM 24/17 A3003 RMK T02400170 IEM_DS3505
ZGSZ,2001-10-19 14:00,ZGSZ 191400Z AUTO 10008KT 6SM 24/18 A3003 RMK T02400180 IEM_DS3505
ZGSZ,2001-10-19 15:00,ZGSZ 191500Z AUTO 09006KT 6SM 24/18 A3003 RMK T02400180 IEM_DS3505
ZGSZ,2001-10-19 16:00,ZGSZ 191600Z AUTO 09006KT 6SM 24/18 A3003 RMK T02400180 IEM_DS3505
ZGSZ,2001-10-19 17:00,ZGSZ 191700Z AUTO 10012KT 6SM 23/18 A3003 RMK T02300180 IEM_DS3505
ZGSZ,2001-10-19 18:00,ZGSZ 191800Z AUTO 09006KT 8SM 24/20 A3003 RMK SLP181 T02440195 57005 IEM_DS3505
ZGSZ,2001-10-19 19:00,ZGSZ 191900Z AUTO 10008KT 6SM 24/17 A3003 RMK T02400170 IEM_DS3505
ZGSZ,2001-10-19 20:00,ZGSZ 192000Z AUTO 07004KT 6SM 23/17 A3003 RMK T02300170 IEM_DS3505
ZGSZ,2001-10-19 21:00,ZGSZ 192100Z AUTO 09006KT 8SM 24/19 A3003 RMK SLP177 T02370192 57004 IEM_DS3505
ZGSZ,2001-10-19 22:00,ZGSZ 192200Z AUTO 06006KT 6SM 22/16 A3003 RMK T02200160 IEM_DS3505
ZGSZ,2001-10-19 23:00,ZGSZ 192300Z AUTO 08008KT 6SM 22/16 A3003 RMK T02200160 IEM_DS3505
ZGSZ,2001-10-20 00:00,ZGSZ 200000Z AUTO 04006KT 14SM 23/16 A3003 RMK SLP185 T02340156 52007 IEM_DS3505
ZGSZ,2001-10-20 01:00,ZGSZ 200100Z AUTO 07006KT 6SM 25/14 A3006 RMK T02500140 IEM_DS3505
ZGSZ,2001-10-20 02:00,ZGSZ 200200Z AUTO 08004KT 6SM 26/15 A3006 RMK T02600150 IEM_DS3505
ZGSZ,2001-10-20 03:00,ZGSZ 200300Z AUTO 32004KT 9SM 27/18 A3003 RMK SLP177 T02680175 57007 IEM_DS3505
ZGSZ,2001-10-20 04:00,ZGSZ 200400Z AUTO 01006KT 6SM 28/16 A3000 RMK T02800160 IEM_DS3505
ZGSZ,2001-10-20 05:00,ZGSZ 200500Z AUTO 27006KT 6SM 28/17 A2997 RMK T02800170 IEM_DS3505
ZGSZ,2001-10-20 06:00,ZGSZ 200600Z AUTO 09006KT 7SM 30/19 A2994 RMK SLP147 T03000190 57030 IEM_DS3505
ZGSZ,2001-10-20 07:00,ZGSZ 200700Z AUTO 19008KT 28/19 A2991 RMK T02800190 IEM_DS3505
ZGSZ,2001-10-20 08:00,ZGSZ 200800Z AUTO 19006KT 28/19 A2991 RMK T02800190 IEM_DS3505
ZGSZ,2001-10-20 09:00,ZGSZ 200900Z AUTO 14006KT 11SM 27/19 A2994 RMK SLP151 T02680186 52004 IEM_DS3505
ZGSZ,2001-10-20 10:00,ZGSZ 201000Z AUTO 17008KT 6SM 26/18 A2994 RMK T02600180 IEM_DS3505
ZGSZ,2001-10-20 11:00,ZGSZ 201100Z AUTO 13008KT 6SM 26/17 A2994 RMK T02600170 IEM_DS3505
ZGSZ,2001-10-20 12:00,ZGSZ 201200Z AUTO 14006KT 12SM 24/19 A2997 RMK SLP168 T02430188 52016 IEM_DS3505
ZGSZ,2001-10-20 13:00,ZGSZ 201300Z AUTO 10010KT 6SM 24/17 A3000 RMK T02400170 IEM_DS3505
ZGSZ,2001-10-20 14:00,ZGSZ 201400Z AUTO 10006KT 6SM 24/17 A3000 RMK T02400170 IEM_DS3505
ZGSZ,2001-10-20 15:00,ZGSZ 201500Z AUTO 09006KT 6SM 24/18 A3000 RMK T02400180 IEM_DS3505
ZGSZ,2001-10-20 16:00,ZGSZ 201600Z AUTO 09006KT 6SM 24/17 A3000 RMK T02400170 IEM_DS3505
ZGSZ,2001-10-20 17:00,ZGSZ 201700Z AUTO 08004KT 6SM 23/17 A3000 RMK T02300170 IEM_DS3505
ZGSZ,2001-10-20 18:00,ZGSZ 201800Z AUTO 07010KT 14SM 24/20 A2997 RMK SLP160 T02410198 57016 IEM_DS3505
ZGSZ,2001-10-20 19:00,ZGSZ 201900Z AUTO 05002KT 6SM 22/17 A2997 RMK T02200170 IEM_DS3505
ZGSZ,2001-10-20 20:00,ZGSZ 202000Z AUTO 03002KT 6SM 22/17 A2994 RMK T02200170 IEM_DS3505
ZGSZ,2001-10-20 21:00,ZGSZ 202100Z AUTO 07008KT 12SM 23/19 A2994 RMK SLP155 T02320188 57005 IEM_DS3505
ZGSZ,2001-10-20 22:00,ZGSZ 202200Z AUTO 05006KT 6SM 22/17 A2997 RMK T02200170 IEM_DS3505
ZGSZ,2001-10-20 23:00,ZGSZ 202300Z AUTO 05006KT 6SM 21/17 A2997 RMK T02100170 IEM_DS3505
ZGSZ,2001-10-21 00:00,ZGSZ 210000Z AUTO 04004KT 7SM 23/19 A3000 RMK SLP166 T02280189 52010 IEM_DS3505
ZGSZ,2001-10-21 01:00,ZGSZ 210100Z AUTO 08004KT 6SM 25/16 A3000 RMK T02500160 IEM_DS3505
ZGSZ,2001-10-21 02:00,ZGSZ 210200Z AUTO 07004KT 6SM 27/16 A3000 RMK T02700160 IEM_DS3505
ZGSZ,2001-10-21 03:00,ZGSZ 210300Z AUTO 11006KT 14SM 26/18 A3000 RMK SLP170 T02620180 52005 IEM_DS3505
ZGSZ,2001-10-21 04:00,ZGSZ 210400Z AUTO 21004KT 7SM 27/17 A2997 RMK T02700170 IEM_DS3505
ZGSZ,2001-10-21 05:00,ZGSZ 210500Z AUTO 26006KT 5SM 28/18 A2991 RMK T02800180 IEM_DS3505
ZGSZ,2001-10-21 06:00,ZGSZ 210600Z AUTO 09006KT 13SM 29/19 A2988 RMK SLP134 T02940194 57036 IEM_DS3505
ZGSZ,2001-10-21 07:00,ZGSZ 210700Z AUTO 21006KT 29/18 A2988 RMK T02900180 IEM_DS3505
ZGSZ,2001-10-21 08:00,ZGSZ 210800Z AUTO 19006KT 5SM 28/18 A2988 RMK T02800180 IEM_DS3505
ZGSZ,2001-10-21 09:00,ZGSZ 210900Z AUTO 11004KT 15SM 28/20 A2988 RMK SLP132 T02800196 57002 IEM_DS3505
ZGSZ,2001-10-21 10:00,ZGSZ 211000Z AUTO 17010KT 6SM 26/19 A2988 RMK T02600190 IEM_DS3505
ZGSZ,2001-10-21 11:00,ZGSZ 211100Z AUTO 14006KT 6SM 26/19 A2991 RMK T02600190 IEM_DS3505
ZGSZ,2001-10-21 12:00,ZGSZ 211200Z AUTO 14006KT 12SM 26/20 A2991 RMK SLP146 T02550205 52013 IEM_DS3505
ZGSZ,2001-10-21 13:00,ZGSZ 211300Z AUTO 12006KT 6SM 25/18 A2994 RMK T02500180 IEM_DS3505
ZGSZ,2001-10-21 14:00,ZGSZ 211400Z AUTO 11008KT 6SM 25/18 A2994 RMK T02500180 IEM_DS3505
ZGSZ,2001-10-21 15:00,ZGSZ 211500Z AUTO 12006KT 6SM 24/18 A2997 RMK T02400180 IEM_DS3505
ZGSZ,2001-10-21 16:00,ZGSZ 211600Z AUTO 12006KT 6SM 24/18 A2997 RMK T02400180 IEM_DS3505
ZGSZ,2001-10-21 17:00,ZGSZ 211700Z AUTO 12008KT 6SM 24/19 A2997 RMK T02400190 IEM_DS3505
ZGSZ,2001-10-21 18:00,ZGSZ 211800Z AUTO 04006KT 16SM 25/21 A2997 RMK SLP157 T02470208 57001 IEM_DS3505
ZGSZ,2001-10-21 19:00,ZGSZ 211900Z AUTO 04002KT 6SM 23/18 A2997 RMK T02300180 IEM_DS3505
ZGSZ,2001-10-21 20:00,ZGSZ 212000Z AUTO 04006KT 6SM 23/19 A2994 RMK T02300190 IEM_DS3505
ZGSZ,2001-10-21 21:00,ZGSZ 212100Z AUTO 04006KT 16SM 24/20 A2994 RMK SLP150 T02400197 57007 IEM_DS3505
ZGSZ,2001-10-21 22:00,ZGSZ 212200Z AUTO 06006KT 6SM 22/18 A2994 RMK T02200180 IEM_DS3505
ZGSZ,2001-10-21 23:00,ZGSZ 212300Z AUTO 05004KT 6SM 23/18 A2997 RMK T02300180 IEM_DS3505
ZGSZ,2001-10-22 00:00,ZGSZ 220000Z AUTO 02004KT 8SM 24/19 A2997 RMK SLP165 T02400190 52014 IEM_DS3505
ZGSZ,2001-10-22 01:00,ZGSZ 220100Z AUTO 02006KT 6SM 25/18 A3000 RMK T02500180 IEM_DS3505
ZGSZ,2001-10-22 02:00,ZGSZ 220200Z AUTO 07004KT 6SM 27/18 A3003 RMK T02700180 IEM_DS3505
ZGSZ,2001-10-22 03:00,ZGSZ 220300Z AUTO 09006KT 11SM 28/19 A3000 RMK SLP173 T02750192 52009 IEM_DS3505
ZGSZ,2001-10-22 04:00,ZGSZ 220400Z AUTO 23004KT 7SM 29/17 A2997 RMK T02900170 IEM_DS3505
ZGSZ,2001-10-22 05:00,ZGSZ 220500Z AUTO 25006KT 7SM 29/18 A2994 RMK T02900180 IEM_DS3505
ZGSZ,2001-10-22 06:00,ZGSZ 220600Z AUTO 09004KT 17SM 30/19 A2994 RMK SLP149 T03040188 57024 IEM_DS3505
ZGSZ,2001-10-22 07:00,ZGSZ 220700Z AUTO 22008KT 28/19 A2994 RMK T02800190 IEM_DS3505
ZGSZ,2001-10-22 08:00,ZGSZ 220800Z AUTO 21004KT 7SM 29/19 A2991 RMK T02900190 IEM_DS3505
ZGSZ,2001-10-22 09:00,ZGSZ 220900Z AUTO 09006KT 17SM 30/19 A2991 RMK SLP146 T03010188 57003 IEM_DS3505
ZGSZ,2001-10-22 11:00,ZGSZ 221100Z AUTO 17008KT 6SM 26/19 A2994 RMK T02600190 IEM_DS3505
ZGSZ,2001-10-22 12:00,ZGSZ 221200Z AUTO 14004KT 14SM 26/20 A2994 RMK SLP160 T02550205 52013 IEM_DS3505
ZGSZ,2001-10-22 13:00,ZGSZ 221300Z AUTO 11008KT 26/17 A2997 RMK T02600170 IEM_DS3505
ZGSZ,2001-10-22 14:00,ZGSZ 221400Z AUTO 10006KT 24/18 A2997 RMK T02400180 IEM_DS3505
ZGSZ,2001-10-22 15:00,ZGSZ 221500Z AUTO 09006KT 25/18 A2997 RMK T02500180 IEM_DS3505
ZGSZ,2001-10-22 16:00,ZGSZ 221600Z AUTO 10006KT 6SM 24/18 A2997 RMK T02400180 IEM_DS3505
ZGSZ,2001-10-22 17:00,ZGSZ 221700Z AUTO 11004KT 6SM 24/18 A2997 RMK T02400180 IEM_DS3505
ZGSZ,2001-10-22 18:00,ZGSZ 221800Z AUTO 07006KT 12SM 25/20 A2997 RMK SLP161 T02490198 57004 IEM_DS3505
ZGSZ,2001-10-22 19:00,ZGSZ 221900Z AUTO 11004KT 6SM 23/18 A2997 RMK T02300180 IEM_DS3505
ZGSZ,2001-10-22 20:00,ZGSZ 222000Z AUTO 33002KT 6SM 23/18 A2997 RMK T02300180 IEM_DS3505
ZGSZ,2001-10-22 21:00,ZGSZ 222100Z AUTO 00000KT 12SM 24/19 A2997 RMK SLP161 T02440186 54000 IEM_DS3505
ZGSZ,2001-10-22 22:00,ZGSZ 222200Z AUTO 19002KT 6SM 23/17 A2997 RMK T02300170 IEM_DS3505
ZGSZ,2001-10-22 23:00,ZGSZ 222300Z AUTO 05002KT 6SM 22/17 A3000 RMK T02200170 IEM_DS3505
ZGSZ,2001-10-23 00:00,ZGSZ 230000Z AUTO 09006KT 16SM 25/18 A3003 RMK SLP176 T02480180 52014 IEM_DS3505
ZGSZ,2001-10-23 01:00,ZGSZ 230100Z AUTO 09006KT 6SM 26/17 A3003 RMK T02600170 IEM_DS3505
ZGSZ,2001-10-23 02:00,ZGSZ 230200Z AUTO 09006KT 6SM 28/16 A3003 RMK T02800160 IEM_DS3505
ZGSZ,2001-10-23 03:00,ZGSZ 230300Z AUTO 07014KT 16SM 27/18 A3003 RMK SLP177 T02710175 52002 IEM_DS3505
ZGSZ,2001-10-23 04:00,ZGSZ 230400Z AUTO 11006KT 6SM 29/15 A3000 RMK T02900150 IEM_DS3505
ZGSZ,2001-10-23 05:00,ZGSZ 230500Z AUTO 20006KT 6SM 28/17 A2997 RMK T02800170 IEM_DS3505
ZGSZ,2001-10-23 06:00,ZGSZ 230600Z AUTO 14004KT 17SM 30/20 A2997 RMK SLP158 T03050201 57019 IEM_DS3505
ZGSZ,2001-10-23 07:00,ZGSZ 230700Z AUTO 21006KT 6SM 29/18 A2994 RMK T02900180 IEM_DS3505
ZGSZ,2001-10-23 08:00,ZGSZ 230800Z AUTO 18008KT 6SM 28/19 A2994 RMK T02800190 IEM_DS3505
ZGSZ,2001-10-23 09:00,ZGSZ 230900Z AUTO 16006KT 19SM 28/20 A2994 RMK SLP155 T02820200 57003 IEM_DS3505
ZGSZ,2001-10-23 10:00,ZGSZ 231000Z AUTO 16006KT 6SM 27/20 A2994 RMK T02700200 IEM_DS3505
ZGSZ,2001-10-23 11:00,ZGSZ 231100Z AUTO 15008KT 6SM 26/19 A2997 RMK T02600190 IEM_DS3505
ZGSZ,2001-10-23 12:00,ZGSZ 231200Z AUTO 29002KT 7SM 25/21 A2997 RMK SLP169 T02540210 52014 IEM_DS3505
ZGSZ,2001-10-23 13:00,ZGSZ 231300Z AUTO 09008KT 6SM 25/19 A3000 RMK T02500190 IEM_DS3505
ZGSZ,2001-10-23 14:00,ZGSZ 231400Z AUTO 09006KT 6SM 25/19 A3000 RMK T02500190 IEM_DS3505
ZGSZ,2001-10-23 15:00,ZGSZ 231500Z AUTO 11006KT 6SM 25/19 A3000 RMK T02500190 IEM_DS3505
ZGSZ,2001-10-23 16:00,ZGSZ 231600Z AUTO 10004KT 4SM 24/19 A3000 RMK T02400190 IEM_DS3505
ZGSZ,2001-10-23 17:00,ZGSZ 231700Z AUTO 09006KT 25/19 A2997 RMK T02500190 IEM_DS3505
ZGSZ,2001-10-23 18:00,ZGSZ 231800Z AUTO 18002KT 9SM 25/21 A2997 RMK SLP159 T02470206 57009 IEM_DS3505
ZGSZ,2001-10-23 19:00,ZGSZ 231900Z AUTO 08002KT 4SM 24/19 A2994 RMK T02400190 IEM_DS3505
ZGSZ,2001-10-23 20:00,ZGSZ 232000Z AUTO 35002KT 4SM 23/19 A2994 RMK T02300190 IEM_DS3505
ZGSZ,2001-10-23 21:00,ZGSZ 232100Z AUTO 04004KT 8SM 24/21 A2997 RMK SLP155 T02420206 57004 IEM_DS3505
ZGSZ,2001-10-23 22:00,ZGSZ 232200Z AUTO 08006KT 2 1/2SM 24/18 A2997 RMK T02400180 IEM_DS3505
ZGSZ,2001-10-23 23:00,ZGSZ 232300Z AUTO 09004KT 4SM 23/18 A2997 RMK T02300180 IEM_DS3505
ZGSZ,2001-10-24 00:00,ZGSZ 240000Z AUTO 07008KT 7SM 25/20 A2997 RMK SLP163 T02460200 52008 IEM_DS3505
ZGSZ,2001-10-24 01:00,ZGSZ 240100Z AUTO 05004KT 27/17 A2997 RMK T02700170 IEM_DS3505
ZGSZ,2001-10-24 02:00,ZGSZ 240200Z AUTO 10006KT 5SM 27/19 A2997 RMK T02700190 IEM_DS3505
ZGSZ,2001-10-24 03:00,ZGSZ 240300Z AUTO 14004KT 7SM 28/19 A2997 RMK SLP157 T02800194 57006 IEM_DS3505
ZGSZ,2001-10-24 04:00,ZGSZ 240400Z AUTO 23006KT 28/19 A2994 RMK T02800190 IEM_DS3505
ZGSZ,2001-10-24 05:00,ZGSZ 240500Z AUTO 23006KT 28/19 A2994 RMK T02800190 IEM_DS3505
ZGSZ,2001-10-24 06:00,ZGSZ 240600Z AUTO 09006KT 9SM 30/20 A2991 RMK SLP136 T03050198 57021 IEM_DS3505
ZGSZ,2001-10-24 07:00,ZGSZ 240700Z AUTO 20008KT 5SM 28/20 A2988 RMK T02800200 IEM_DS3505
ZGSZ,2001-10-24 08:00,ZGSZ 240800Z AUTO 18010KT 6SM 28/19 A2988 RMK T02800190 IEM_DS3505
ZGSZ,2001-10-24 09:00,ZGSZ 240900Z AUTO 14006KT 6SM 28/20 A2988 RMK SLP135 T02800203 57001 IEM_DS3505
ZGSZ,2001-10-24 10:00,ZGSZ 241000Z AUTO 18006KT 6SM 27/19 A2991 RMK T02700190 IEM_DS3505
ZGSZ,2001-10-24 11:00,ZGSZ 241100Z AUTO 13004KT 6SM 27/19 A2991 RMK T02700190 IEM_DS3505
ZGSZ,2001-10-24 12:00,ZGSZ 241200Z AUTO 11004KT 5SM 25/21 A2994 RMK SLP152 T02530206 52017 IEM_DS3505
ZGSZ,2001-10-24 13:00,ZGSZ 241300Z AUTO 09008KT 6SM 25/19 A2994 RMK T02500190 IEM_DS3505
ZGSZ,2001-10-24 14:00,ZGSZ 241400Z AUTO 09008KT 3SM 25/19 A2994 RMK T02500190 IEM_DS3505
ZGSZ,2001-10-24 15:00,ZGSZ 241500Z AUTO 09006KT 2 1/2SM 25/19 A2994 RMK T02500190 IEM_DS3505
ZGSZ,2001-10-24 16:00,ZGSZ 241600Z AUTO 09008KT 2 1/2SM 24/19 A2994 RMK T02400190 IEM_DS3505
ZGSZ,2001-10-24 17:00,ZGSZ 241700Z AUTO 10004KT 2 1/2SM 25/19 A2994 RMK T02500190 IEM_DS3505
ZGSZ,2001-10-24 18:00,ZGSZ 241800Z AUTO 09006KT 6SM 24/20 A2994 RMK SLP145 T02430198 57011 IEM_DS3505
ZGSZ,2001-10-24 19:00,ZGSZ 241900Z AUTO 10006KT 3SM 23/19 A2991 RMK T02300190 IEM_DS3505
ZGSZ,2001-10-24 20:00,ZGSZ 242000Z AUTO 09006KT 3SM 24/17 A2991 RMK T02400170 IEM_DS3505
ZGSZ,2001-10-24 21:00,ZGSZ 242100Z AUTO 09006KT 6SM 24/20 A2991 RMK SLP145 T02410198 54000 IEM_DS3505
ZGSZ,2001-10-24 22:00,ZGSZ 242200Z AUTO 10004KT 3SM 23/17 A2994 RMK T02300170 IEM_DS3505
ZGSZ,2001-10-24 23:00,ZGSZ 242300Z AUTO 10004KT 24/17 A2994 RMK T02400170 IEM_DS3505
ZGSZ,2001-10-25 00:00,ZGSZ 250000Z AUTO 09010KT 6SM 24/19 A2997 RMK SLP161 T02430190 52015 IEM_DS3505
ZGSZ,2001-10-25 01:00,ZGSZ 250100Z AUTO 09008KT 26/16 A2997 RMK T02600160 IEM_DS3505
ZGSZ,2001-10-25 02:00,ZGSZ 250200Z AUTO 09010KT 7SM 28/15 A2997 RMK T02800150 IEM_DS3505
ZGSZ,2001-10-25 03:00,ZGSZ 250300Z AUTO 07012KT 7SM 27/18 A2997 RMK SLP162 T02740175 52002 IEM_DS3505
ZGSZ,2001-10-25 04:00,ZGSZ 250400Z AUTO 10006KT 6SM 30/14 A2994 RMK T03000140 IEM_DS3505
ZGSZ,2001-10-25 05:00,ZGSZ 250500Z AUTO 09006KT 6SM 30/14 A2991 RMK T03000140 IEM_DS3505
ZGSZ,2001-10-25 06:00,ZGSZ 250600Z AUTO 04010KT 6SM 30/17 A2988 RMK SLP136 T02960172 57026 IEM_DS3505
ZGSZ,2001-10-25 07:00,ZGSZ 250700Z AUTO 10008KT 6SM 31/15 A2988 RMK T03100150 IEM_DS3505
ZGSZ,2001-10-25 08:00,ZGSZ 250800Z AUTO 10008KT 6SM 31/14 A2988 RMK T03100140 IEM_DS3505
ZGSZ,2001-10-25 09:00,ZGSZ 250900Z AUTO 09008KT 7SM 27/19 A2985 RMK SLP129 T02710189 57007 IEM_DS3505
ZGSZ,2001-10-25 10:00,ZGSZ 251000Z AUTO 13008KT 6SM 28/16 A2988 RMK T02800160 IEM_DS3505
ZGSZ,2001-10-25 11:00,ZGSZ 251100Z AUTO 11012KT 6SM 26/17 A2988 RMK T02600170 IEM_DS3505
ZGSZ,2001-10-25 12:00,ZGSZ 251200Z AUTO 18006KT 5SM 25/21 A2991 RMK SLP149 T02480206 52020 IEM_DS3505
ZGSZ,2001-10-25 13:00,ZGSZ 251300Z AUTO 10006KT 6SM 25/18 A2994 RMK T02500180 IEM_DS3505
ZGSZ,2001-10-25 14:00,ZGSZ 251400Z AUTO 11008KT 6SM 24/18 A2994 RMK T02400180 IEM_DS3505
ZGSZ,2001-10-25 15:00,ZGSZ 251500Z AUTO 11008KT 6SM 24/18 A2994 RMK T02400180 IEM_DS3505
ZGSZ,2001-10-25 16:00,ZGSZ 251600Z AUTO 08004KT 6SM 24/18 A2994 RMK T02400180 IEM_DS3505
ZGSZ,2001-10-25 17:00,ZGSZ 251700Z AUTO 08002KT 6SM 23/17 A2994 RMK T02300170 IEM_DS3505
ZGSZ,2001-10-25 18:00,ZGSZ 251800Z AUTO 11002KT 6SM 24/19 RMK SLP142 T02430192 57008 IEM_DS3505
ZGSZ,2001-10-25 19:00,ZGSZ 251900Z AUTO 06002KT 6SM 22/18 A2991 RMK T02200180 IEM_DS3505
ZGSZ,2001-10-25 20:00,ZGSZ 252000Z AUTO 06002KT 6SM 22/17 A2991 RMK T02200170 IEM_DS3505
ZGSZ,2001-10-25 21:00,ZGSZ 252100Z AUTO 09004KT 6SM 24/20 A2991 RMK SLP135 T02370195 57007 IEM_DS3505
ZGSZ,2001-10-25 22:00,ZGSZ 252200Z AUTO 08004KT 6SM 22/16 A2991 RMK T02200160 IEM_DS3505
ZGSZ,2001-10-26 00:00,ZGSZ 260000Z AUTO 09008KT 5SM 25/20 RMK SLP149 T02460203 52014 IEM_DS3505
ZGSZ,2001-10-26 01:00,ZGSZ 260100Z AUTO 04006KT 25/17 A2997 RMK T02500170 IEM_DS3505
ZGSZ,2001-10-26 02:00,ZGSZ 260200Z AUTO 07008KT 7SM 27/18 A2997 RMK T02700180 IEM_DS3505
ZGSZ,2001-10-26 03:00,ZGSZ 260300Z AUTO 14006KT 7SM 27/20 A2997 RMK SLP160 T02690201 52011 IEM_DS3505
ZGSZ,2001-10-26 04:00,ZGSZ 260400Z AUTO 10004KT 7SM 29/17 A2994 RMK T02900170 IEM_DS3505
ZGSZ,2001-10-26 05:00,ZGSZ 260500Z AUTO 26006KT 5SM 29/18 A2991 RMK T02900180 IEM_DS3505
ZGSZ,2001-10-26 06:00,ZGSZ 260600Z AUTO 09004KT 8SM 30/20 A2988 RMK SLP137 T03000204 57023 IEM_DS3505
ZGSZ,2001-10-26 07:00,ZGSZ 260700Z AUTO 22006KT 5SM 28/19 A2988 RMK T02800190 IEM_DS3505
ZGSZ,2001-10-26 08:00,ZGSZ 260800Z AUTO 21006KT 6SM 28/19 A2988 RMK T02800190 IEM_DS3505
ZGSZ,2001-10-26 09:00,ZGSZ 260900Z AUTO 14004KT 7SM 28/21 A2988 RMK SLP134 T02840213 57003 IEM_DS3505
ZGSZ,2001-10-26 10:00,ZGSZ 261000Z AUTO 18008KT 6SM 26/20 A2988 RMK T02600200 IEM_DS3505
ZGSZ,2001-10-26 11:00,ZGSZ 261100Z AUTO 17006KT 6SM 26/20 A2991 RMK T02600200 IEM_DS3505
ZGSZ,2001-10-26 12:00,ZGSZ 261200Z AUTO 18002KT 6SM 25/21 A2991 RMK SLP147 T02540206 52013 IEM_DS3505
ZGSZ,2001-10-26 13:00,ZGSZ 261300Z AUTO 09008KT 6SM 26/18 A2994 RMK T02600180 IEM_DS3505
ZGSZ,2001-10-26 14:00,ZGSZ 261400Z AUTO 09006KT 6SM 25/18 A2994 RMK T02500180 IEM_DS3505
ZGSZ,2001-10-26 15:00,ZGSZ 261500Z AUTO 09006KT 6SM 25/17 A2994 RMK T02500170 IEM_DS3505
ZGSZ,2001-10-26 16:00,ZGSZ 261600Z AUTO 10004KT 6SM 25/17 A2994 RMK T02500170 IEM_DS3505
ZGSZ,2001-10-26 17:00,ZGSZ 261700Z AUTO 12004KT 6SM 25/18 A2991 RMK T02500180 IEM_DS3505
ZGSZ,2001-10-26 18:00,ZGSZ 261800Z AUTO 00000KT 7SM 24/22 A2991 RMK SLP143 T02420215 57004 IEM_DS3505
ZGSZ,2001-10-26 19:00,ZGSZ 261900Z AUTO 09004KT 6SM 23/18 A2991 RMK T02300180 IEM_DS3505
ZGSZ,2001-10-26 20:00,ZGSZ 262000Z AUTO 09004KT 6SM 23/18 A2988 RMK T02300180 IEM_DS3505
ZGSZ,2001-10-27 00:00,ZGSZ 270000Z AUTO 04004KT 4SM 24/21 A2997 RMK SLP156 T02380209 52017 IEM_DS3505
ZGSZ,2001-10-27 01:00,ZGSZ 270100Z AUTO 10004KT 26/18 A2997 RMK T02600180 IEM_DS3505
ZGSZ,2001-10-27 02:00,ZGSZ 270200Z AUTO 33002KT 7SM 27/18 A2997 RMK T02700180 IEM_DS3505
ZGSZ,2001-10-27 03:00,ZGSZ 270300Z AUTO 07004KT 7SM 27/21 A2997 RMK SLP159 T02730213 52004 IEM_DS3505
ZGSZ,2001-10-27 04:00,ZGSZ 270400Z AUTO 25006KT 29/18 A2994 RMK T02900180 IEM_DS3505
ZGSZ,2001-10-27 05:00,ZGSZ 270500Z AUTO 23006KT 5SM 29/18 A2991 RMK T02900180 IEM_DS3505
ZGSZ,2001-10-27 06:00,ZGSZ 270600Z AUTO 22006KT 8SM 30/21 A2988 RMK SLP131 T02970211 57028 IEM_DS3505
ZGSZ,2001-10-27 07:00,ZGSZ 270700Z AUTO 22004KT 6SM 29/19 A2985 RMK T02900190 IEM_DS3505
ZGSZ,2001-10-27 08:00,ZGSZ 270800Z AUTO 21004KT 6SM 29/19 A2985 RMK T02900190 IEM_DS3505
ZGSZ,2001-10-27 09:00,ZGSZ 270900Z AUTO 22006KT 9SM 29/21 A2985 RMK SLP124 T02900208 57007 IEM_DS3505
ZGSZ,2001-10-27 10:00,ZGSZ 271000Z AUTO 18006KT 6SM 27/20 A2988 RMK T02700200 IEM_DS3505
ZGSZ,2001-10-27 11:00,ZGSZ 271100Z AUTO 17006KT 6SM 26/20 A2988 RMK T02600200 IEM_DS3505
ZGSZ,2001-10-27 12:00,ZGSZ 271200Z AUTO 22002KT 8SM 27/22 A2991 RMK SLP139 T02720219 52015 IEM_DS3505
ZGSZ,2001-10-27 13:00,ZGSZ 271300Z AUTO 19006KT 6SM 26/21 A2991 RMK T02600210 IEM_DS3505
ZGSZ,2001-10-27 14:00,ZGSZ 271400Z AUTO 21004KT 6SM 26/21 A2994 RMK T02600210 IEM_DS3505
ZGSZ,2001-10-27 15:00,ZGSZ 271500Z AUTO 21004KT 6SM 26/22 A2991 RMK T02600220 IEM_DS3505
ZGSZ,2001-10-27 16:00,ZGSZ 271600Z AUTO 23004KT 6SM 25/21 A2991 RMK T02500210 IEM_DS3505
ZGSZ,2001-10-27 17:00,ZGSZ 271700Z AUTO 05002KT 3SM 25/21 A2991 RMK T02500210 IEM_DS3505
ZGSZ,2001-10-27 18:00,ZGSZ 271800Z AUTO 34002KT 4SM 26/23 A2991 RMK SLP135 T02570226 57011 IEM_DS3505
ZGSZ,2001-10-27 19:00,ZGSZ 271900Z AUTO 35006KT 1 1/2SM 25/19 A2991 RMK T02500190 IEM_DS3505
ZGSZ,2001-10-27 20:00,ZGSZ 272000Z AUTO 35004KT 1 1/2SM 24/18 A2991 RMK T02400180 IEM_DS3505
ZGSZ,2001-10-27 21:00,ZGSZ 272100Z AUTO 04004KT 2 1/2SM 25/21 A2991 RMK SLP135 T02490211 54000 IEM_DS3505
ZGSZ,2001-10-27 22:00,ZGSZ 272200Z AUTO 34002KT 2SM 24/18 A2991 RMK T02400180 IEM_DS3505
ZGSZ,2001-10-27 23:00,ZGSZ 272300Z AUTO 33006KT 2 1/2SM 24/18 A2994 RMK T02400180 IEM_DS3505
ZGSZ,2001-10-28 00:00,ZGSZ 280000Z AUTO 04006KT 6SM 25/19 A2997 RMK SLP165 T02490187 52030 IEM_DS3505
ZGSZ,2001-10-28 01:00,ZGSZ 280100Z AUTO 36008KT 3SM 25/18 A3000 RMK T02500180 IEM_DS3505
ZGSZ,2001-10-28 02:00,ZGSZ 280200Z AUTO 36012KT 7SM 25/18 A3000 RMK T02500180 IEM_DS3505
ZGSZ,2001-10-28 03:00,ZGSZ 280300Z AUTO 04010KT 7SM 27/18 A3000 RMK SLP165 T02680178 54000 IEM_DS3505
ZGSZ,2001-10-28 04:00,ZGSZ 280400Z AUTO 36012KT 6SM 27/17 A2997 RMK T02700170 IEM_DS3505
ZGSZ,2001-10-28 05:00,ZGSZ 280500Z AUTO 35012KT 6SM 27/17 A2994 RMK T02700170 IEM_DS3505
ZGSZ,2001-10-28 06:00,ZGSZ 280600Z AUTO 04010KT 7SM 28/19 A2994 RMK SLP142 T02840189 57023 IEM_DS3505
ZGSZ,2001-10-28 07:00,ZGSZ 280700Z AUTO 36012KT 6SM 28/16 A2991 RMK T02800160 IEM_DS3505
ZGSZ,2001-10-28 08:00,ZGSZ 280800Z AUTO 02012KT 6SM 26/16 A2991 RMK T02600160 IEM_DS3505
ZGSZ,2001-10-28 09:00,ZGSZ 280900Z AUTO 04008KT 8SM 26/18 A2991 RMK SLP142 T02640177 54000 IEM_DS3505
ZGSZ,2001-10-28 10:00,ZGSZ 281000Z AUTO 01012KT 6SM 25/16 A2994 RMK T02500160 IEM_DS3505
ZGSZ,2001-10-28 11:00,ZGSZ 281100Z AUTO 02010KT 6SM 25/15 RMK T02500150 IEM_DS3505
ZGSZ,2001-10-28 12:00,ZGSZ 281200Z AUTO 04010KT 7SM 25/17 RMK SLP162 T02490171 52020 IEM_DS3505
ZGSZ,2001-10-28 13:00,ZGSZ 281300Z AUTO 02010KT 6SM 24/15 A3000 RMK T02400150 IEM_DS3505
ZGSZ,2001-10-28 14:00,ZGSZ 281400Z AUTO 02010KT 6SM 24/15 A3000 RMK T02400150 IEM_DS3505
ZGSZ,2001-10-28 15:00,ZGSZ 281500Z AUTO 01010KT 6SM 24/15 A3000 RMK T02400150 IEM_DS3505
ZGSZ,2001-10-28 16:00,ZGSZ 281600Z AUTO 01008KT 6SM 24/15 A3000 RMK T02400150 IEM_DS3505
ZGSZ,2001-10-28 17:00,ZGSZ 281700Z AUTO 01006KT 6SM 23/15 A3000 RMK T02300150 IEM_DS3505
ZGSZ,2001-10-28 18:00,ZGSZ 281800Z AUTO 04008KT 10SM 24/17 A2997 RMK SLP157 T02400166 57014 IEM_DS3505
ZGSZ,2001-10-28 21:00,ZGSZ 282100Z AUTO 04014KT 6SM 22/17 A3000 RMK 70003 SLP163 T02230170 52005 IEM_DS3505
ZGSZ,2001-10-28 22:00,ZGSZ 282200Z AUTO 03006KT 6SM 22/15 A3000 RMK T02200150 IEM_DS3505
ZGSZ,2001-10-28 23:00,ZGSZ 282300Z AUTO 01008KT 6SM 22/14 A3003 RMK T02200140 IEM_DS3505
ZGSZ,2001-10-29 00:00,ZGSZ 290000Z AUTO 04008KT 6SM 22/16 A3003 RMK 60003 SLP187 T02200164 52024 IEM_DS3505
ZGSZ,2001-10-29 01:00,ZGSZ 290100Z AUTO 02008KT 5SM 22/14 A3006 RMK T02200140 IEM_DS3505
ZGSZ,2001-10-29 02:00,ZGSZ 290200Z AUTO 03008KT 4SM 21/16 A3009 RMK T02100160 IEM_DS3505
ZGSZ,2001-10-29 03:00,ZGSZ 290300Z AUTO 07006KT 6SM 21/17 A3009 RMK SLP194 T02140172 52007 IEM_DS3505
ZGSZ,2001-10-29 04:00,ZGSZ 290400Z AUTO 36010KT 5SM 21/16 A3006 RMK T02100160 IEM_DS3505
ZGSZ,2001-10-29 05:00,ZGSZ 290500Z AUTO 01008KT 21/15 A3006 RMK T02100150 IEM_DS3505
ZGSZ,2001-10-29 06:00,ZGSZ 290600Z AUTO 04010KT 7SM 24/17 A3003 RMK 60003 SLP173 T02350172 57021 IEM_DS3505
ZGSZ,2001-10-29 07:00,ZGSZ 290700Z AUTO 36008KT 7SM 21/15 A3000 RMK T02100150 IEM_DS3505
ZGSZ,2001-10-29 08:00,ZGSZ 290800Z AUTO 01012KT 7SM 21/16 A3000 RMK T02100160 IEM_DS3505
ZGSZ,2001-10-29 09:00,ZGSZ 290900Z AUTO 04008KT 7SM 23/17 A3003 RMK SLP173 T02280173 54000 IEM_DS3505
ZGSZ,2001-10-29 10:00,ZGSZ 291000Z AUTO 01012KT 7SM 21/16 A3003 RMK T02100160 IEM_DS3505
ZGSZ,2001-10-29 11:00,ZGSZ 291100Z AUTO 01006KT 3SM 20/17 A3003 RMK T02000170 IEM_DS3505
ZGSZ,2001-10-29 12:00,ZGSZ 291200Z AUTO 04008KT 7SM 22/18 A3006 RMK SLP186 T02150175 52013 IEM_DS3505
ZGSZ,2001-10-29 13:00,ZGSZ 291300Z AUTO 36006KT 4SM 20/17 A3006 RMK T02000170 IEM_DS3505
ZGSZ,2001-10-29 14:00,ZGSZ 291400Z AUTO 05004KT 5SM 20/16 A3006 RMK T02000160 IEM_DS3505
ZGSZ,2001-10-29 15:00,ZGSZ 291500Z AUTO 04004KT 7SM 21/16 A3003 RMK T02100160 IEM_DS3505
ZGSZ,2001-10-29 16:00,ZGSZ 291600Z AUTO 03004KT 7SM 21/16 A3006 RMK T02100160 IEM_DS3505
ZGSZ,2001-10-29 17:00,ZGSZ 291700Z AUTO 01006KT 7SM 21/16 A3006 RMK T02100160 IEM_DS3505
ZGSZ,2001-10-29 18:00,ZGSZ 291800Z AUTO 04008KT 7SM 21/18 A3003 RMK SLP179 T02110176 57008 IEM_DS3505
ZGSZ,2001-10-29 19:00,ZGSZ 291900Z AUTO 01004KT 7SM 21/16 A3003 RMK T02100160 IEM_DS3505
ZGSZ,2001-10-29 20:00,ZGSZ 292000Z AUTO 36006KT 7SM 21/16 A3003 RMK T02100160 IEM_DS3505
ZGSZ,2001-10-29 21:00,ZGSZ 292100Z AUTO 04006KT 8SM 21/18 A3003 RMK 70003 SLP173 T02110177 57006 IEM_DS3505
ZGSZ,2001-10-29 22:00,ZGSZ 292200Z AUTO 03004KT 7SM 20/16 A3003 RMK T02000160 IEM_DS3505
ZGSZ,2001-10-29 23:00,ZGSZ 292300Z AUTO 03006KT 7SM 20/16 A3006 RMK T02000160 IEM_DS3505
ZGSZ,2001-10-30 00:00,ZGSZ 300000Z AUTO 02004KT 8SM 22/18 A3006 RMK 70003 SLP191 T02160176 52018 IEM_DS3505
ZGSZ,2001-10-30 01:00,ZGSZ 300100Z AUTO 36006KT 5SM 22/16 A3009 RMK T02200160 IEM_DS3505
ZGSZ,2001-10-30 02:00,ZGSZ 300200Z AUTO 08002KT 5SM 23/15 A3009 RMK T02300150 IEM_DS3505
ZGSZ,2001-10-30 03:00,ZGSZ 300300Z AUTO 09008KT 9SM 25/17 A3006 RMK SLP189 T02470166 57002 IEM_DS3505
ZGSZ,2001-10-30 04:00,ZGSZ 300400Z AUTO 09006KT 5SM 26/16 A3003 RMK T02600160 IEM_DS3505
ZGSZ,2001-10-30 05:00,ZGSZ 300500Z AUTO 22004KT 6SM 27/15 A3000 RMK T02700150 IEM_DS3505
ZGSZ,2001-10-30 06:00,ZGSZ 300600Z AUTO 09004KT 19SM 27/17 A2997 RMK SLP165 T02740169 57024 IEM_DS3505
ZGSZ,2001-10-30 07:00,ZGSZ 300700Z AUTO 25004KT 5SM 28/16 A2997 RMK T02800160 IEM_DS3505
ZGSZ,2001-10-30 08:00,ZGSZ 300800Z AUTO 30008KT 27/16 A2997 RMK T02700160 IEM_DS3505
ZGSZ,2001-10-30 09:00,ZGSZ 300900Z AUTO 14006KT 19SM 26/17 A2997 RMK SLP165 T02630172 54000 IEM_DS3505
ZGSZ,2001-10-30 10:00,ZGSZ 301000Z AUTO 13002KT 6SM 26/16 A3000 RMK T02600160 IEM_DS3505
ZGSZ,2001-10-30 11:00,ZGSZ 301100Z AUTO 17008KT 25/17 A3000 RMK T02500170 IEM_DS3505
ZGSZ,2001-10-30 12:00,ZGSZ 301200Z AUTO 14004KT 4SM 24/19 A3000 RMK SLP179 T02420187 52014 IEM_DS3505
ZGSZ,2001-10-30 13:00,ZGSZ 301300Z AUTO 11006KT 24/16 A3003 RMK T02400160 IEM_DS3505
ZGSZ,2001-10-30 14:00,ZGSZ 301400Z AUTO 09006KT 24/17 A3003 RMK T02400170 IEM_DS3505
ZGSZ,2001-10-30 15:00,ZGSZ 301500Z AUTO 10006KT 3SM 24/17 A3003 RMK T02400170 IEM_DS3505
ZGSZ,2001-10-30 16:00,ZGSZ 301600Z AUTO 09004KT 23/17 A3003 RMK T02300170 IEM_DS3505
ZGSZ,2001-10-30 17:00,ZGSZ 301700Z AUTO 09004KT 23/17 A3000 RMK T02300170 IEM_DS3505
ZGSZ,2001-10-30 18:00,ZGSZ 301800Z AUTO 14002KT 7SM 24/20 A3000 RMK SLP174 T02400198 57008 IEM_DS3505
ZGSZ,2001-10-30 19:00,ZGSZ 301900Z AUTO 05002KT 4SM 23/18 A3000 RMK T02300180 IEM_DS3505
ZGSZ,2001-10-30 20:00,ZGSZ 302000Z AUTO 09004KT 2SM 22/18 A2997 RMK T02200180 IEM_DS3505
ZGSZ,2001-10-30 21:00,ZGSZ 302100Z AUTO 09006KT 5SM 24/19 A3000 RMK SLP172 T02360191 57003 IEM_DS3505
ZGSZ,2001-10-30 22:00,ZGSZ 302200Z AUTO 03002KT 2SM 22/18 A3000 RMK T02200180 IEM_DS3505
ZGSZ,2001-10-30 23:00,ZGSZ 302300Z AUTO 08004KT 1 1/2SM 23/18 A3003 RMK T02300180 IEM_DS3505
ZGSZ,2001-10-31 00:00,ZGSZ 310000Z AUTO 07006KT 6SM 24/18 A3003 RMK SLP183 T02390184 52011 IEM_DS3505
ZGSZ,2001-10-31 01:00,ZGSZ 310100Z AUTO 09008KT 6SM 26/16 A3006 RMK T02600160 IEM_DS3505
ZGSZ,2001-10-31 02:00,ZGSZ 310200Z AUTO 08004KT 5SM 27/16 A3006 RMK T02700160 IEM_DS3505
ZGSZ,2001-10-31 03:00,ZGSZ 310300Z AUTO 09006KT 7SM 27/18 A3006 RMK SLP185 T02660181 52002 IEM_DS3505
ZGSZ,2001-10-31 04:00,ZGSZ 310400Z AUTO 25006KT 27/17 A3003 RMK T02700170 IEM_DS3505
ZGSZ,2001-10-31 05:00,ZGSZ 310500Z AUTO 26006KT 26/17 A3000 RMK T02600170 IEM_DS3505
ZGSZ,2001-10-31 06:00,ZGSZ 310600Z AUTO 14004KT 8SM 28/18 A2997 RMK SLP161 T02820184 57023 IEM_DS3505
ZGSZ,2001-10-31 08:00,ZGSZ 310800Z AUTO 22004KT 5SM 27/18 A2994 RMK T02700180 IEM_DS3505
ZGSZ,2001-10-31 09:00,ZGSZ 310900Z AUTO 14006KT 11SM 28/18 A2997 RMK SLP157 T02760183 57004 IEM_DS3505
ZGSZ,2001-10-31 10:00,ZGSZ 311000Z AUTO 18002KT 6SM 25/19 A2997 RMK T02500190 IEM_DS3505
ZGSZ,2001-10-31 11:00,ZGSZ 311100Z AUTO 20004KT 5SM 25/20 A2997 RMK T02500200 IEM_DS3505
ZGSZ,2001-10-31 12:00,ZGSZ 311200Z AUTO 14004KT 9SM 25/18 A3000 RMK SLP170 T02500179 52012 IEM_DS3505
ZGSZ,2001-10-31 13:00,ZGSZ 311300Z AUTO 08002KT 4SM 24/19 A3000 RMK T02400190 IEM_DS3505
ZGSZ,2001-10-31 14:00,ZGSZ 311400Z AUTO 09006KT 25/17 A3003 RMK T02500170 IEM_DS3505
ZGSZ,2001-10-31 15:00,ZGSZ 311500Z AUTO 11002KT 23/17 A3003 RMK T02300170 IEM_DS3505
ZGSZ,2001-10-31 16:00,ZGSZ 311600Z AUTO 05004KT 6SM 24/17 A3003 RMK T02400170 IEM_DS3505
ZGSZ,2001-10-31 17:00,ZGSZ 311700Z AUTO 11004KT 6SM 24/17 A3000 RMK T02400170 IEM_DS3505
ZGSZ,2001-10-31 18:00,ZGSZ 311800Z AUTO 14006KT 6SM 24/21 A3000 RMK SLP173 T02410208 57008 IEM_DS3505
ZGSZ,2001-10-31 19:00,ZGSZ 311900Z AUTO 06004KT 4SM 22/18 A3000 RMK T02200180 IEM_DS3505
ZGSZ,2001-10-31 20:00,ZGSZ 312000Z AUTO 4SM 23/18 A3000 RMK T02300180 IEM_DS3505
ZGSZ,2001-10-31 21:00,ZGSZ 312100Z AUTO 04004KT 4SM 24/21 A3000 RMK SLP168 T02360207 57005 IEM_DS3505
ZGSZ,2001-10-31 23:00,ZGSZ 312300Z AUTO 08002KT 2 1/2SM 22/19 A3003 RMK T02200190 IEM_DS3505
ZGSZ,2001-11-01 00:00,ZGSZ 010000Z AUTO 04004KT 4SM 24/21 A3003 RMK SLP186 T02360209 52017 IEM_DS3505
ZGSZ,2001-11-01 01:00,ZGSZ 010100Z AUTO 09006KT 3SM 26/19 A3003 RMK T02600190 IEM_DS3505
ZGSZ,2001-11-01 02:00,ZGSZ 010200Z AUTO 08004KT 3SM 28/18 A3006 RMK T02800180 IEM_DS3505
ZGSZ,2001-11-01 03:00,ZGSZ 010300Z AUTO 04008KT 16SM 28/21 A3003 RMK SLP177 T02810211 57008 IEM_DS3505
ZGSZ,2001-11-01 04:00,ZGSZ 010400Z AUTO 27006KT 3SM 28/20 A3000 RMK T02800200 IEM_DS3505
ZGSZ,2001-11-01 05:00,ZGSZ 010500Z AUTO 26006KT 6SM 28/20 A2997 RMK T02800200 IEM_DS3505
ZGSZ,2001-11-01 06:00,ZGSZ 010600Z AUTO 18002KT 19SM 29/21 A2994 RMK SLP152 T02940209 57025 IEM_DS3505
ZGSZ,2001-11-01 07:00,ZGSZ 010700Z AUTO 20006KT 6SM 28/21 A2994 RMK T02800210 IEM_DS3505
ZGSZ,2001-11-01 08:00,ZGSZ 010800Z AUTO 20006KT 6SM 28/21 A2991 RMK T02800210 IEM_DS3505
ZGSZ,2001-11-01 09:00,ZGSZ 010900Z AUTO 09006KT 19SM 29/20 A2994 RMK SLP146 T02900201 57006 IEM_DS3505
ZGSZ,2001-11-01 10:00,ZGSZ 011000Z AUTO 19006KT 6SM 26/21 A2994 RMK T02600210 IEM_DS3505
ZGSZ,2001-11-01 11:00,ZGSZ 011100Z AUTO 20004KT 6SM 26/22 A2994 RMK T02600220 IEM_DS3505
ZGSZ,2001-11-01 12:00,ZGSZ 011200Z AUTO 14006KT 14SM 26/19 A2997 RMK SLP162 T02620187 52016 IEM_DS3505
ZGSZ,2001-11-01 13:00,ZGSZ 011300Z AUTO 09004KT 6SM 26/18 A2997 RMK T02600180 IEM_DS3505
ZGSZ,2001-11-01 14:00,ZGSZ 011400Z AUTO 09004KT 6SM 26/17 A3000 RMK T02600170 IEM_DS3505
ZGSZ,2001-11-01 15:00,ZGSZ 011500Z AUTO 09002KT 6SM 25/16 A3000 RMK T02500160 IEM_DS3505
ZGSZ,2001-11-01 16:00,ZGSZ 011600Z AUTO 12002KT 6SM 24/17 A3000 RMK T02400170 IEM_DS3505
ZGSZ,2001-11-01 17:00,ZGSZ 011700Z AUTO 09006KT 6SM 25/16 A2997 RMK T02500160 IEM_DS3505
ZGSZ,2001-11-01 18:00,ZGSZ 011800Z AUTO 14004KT 9SM 25/21 A2997 RMK SLP159 T02470214 57007 IEM_DS3505
ZGSZ,2001-11-01 19:00,ZGSZ 011900Z AUTO 09006KT 6SM 25/18 A2997 RMK T02500180 IEM_DS3505
ZGSZ,2001-11-01 20:00,ZGSZ 012000Z AUTO 10006KT 6SM 25/19 A2997 RMK T02500190 IEM_DS3505
ZGSZ,2001-11-01 21:00,ZGSZ 012100Z AUTO 09006KT 8SM 25/22 A2994 RMK SLP152 T02490215 57007 IEM_DS3505
ZGSZ,2001-11-01 22:00,ZGSZ 012200Z AUTO 11006KT 6SM 25/19 A2994 RMK T02500190 IEM_DS3505
ZGSZ,2001-11-01 23:00,ZGSZ 012300Z AUTO 12006KT 6SM 25/19 A2997 RMK T02500190 IEM_DS3505
ZGSZ,2001-11-02 00:00,ZGSZ 020000Z AUTO 09008KT 9SM 25/21 A2997 RMK SLP162 T02500212 52010 IEM_DS3505
ZGSZ,2001-11-02 01:00,ZGSZ 020100Z AUTO 11008KT 7SM 27/19 A3000 RMK T02700190 IEM_DS3505
ZGSZ,2001-11-02 02:00,ZGSZ 020200Z AUTO 11008KT 7SM 27/19 A3000 RMK T02700190 IEM_DS3505
ZGSZ,2001-11-02 03:00,ZGSZ 020300Z AUTO 09008KT 12SM 27/22 A2997 RMK SLP163 T02710216 52001 IEM_DS3505
ZGSZ,2001-11-02 04:00,ZGSZ 020400Z AUTO 09006KT 7SM 28/19 A2994 RMK T02800190 IEM_DS3505
ZGSZ,2001-11-02 05:00,ZGSZ 020500Z AUTO 23002KT 7SM 29/20 A2994 RMK T02900200 IEM_DS3505
ZGSZ,2001-11-02 06:00,ZGSZ 020600Z AUTO 14006KT 14SM 29/22 A2991 RMK SLP146 T02940217 57017 IEM_DS3505
ZGSZ,2001-11-02 07:00,ZGSZ 020700Z AUTO 23006KT 7SM 29/20 A2988 RMK T02900200 IEM_DS3505
ZGSZ,2001-11-02 08:00,ZGSZ 020800Z AUTO 22006KT 7SM 28/20 A2988 RMK T02800200 IEM_DS3505
ZGSZ,2001-11-02 09:00,ZGSZ 020900Z AUTO 09004KT 14SM 28/22 A2988 RMK SLP135 T02770215 57011 IEM_DS3505
ZGSZ,2001-11-02 10:00,ZGSZ 021000Z AUTO 19008KT 7SM 26/21 A2988 RMK T02600210 IEM_DS3505
ZGSZ,2001-11-02 11:00,ZGSZ 021100Z AUTO 14006KT 7SM 26/21 A2991 RMK T02600210 IEM_DS3505
ZGSZ,2001-11-02 12:00,ZGSZ 021200Z AUTO 14006KT 12SM 25/22 A2991 RMK SLP144 T02520215 52009 IEM_DS3505
ZGSZ,2001-11-02 13:00,ZGSZ 021300Z AUTO 14008KT 3SM 25/20 A2991 RMK T02500200 IEM_DS3505
ZGSZ,2001-11-02 14:00,ZGSZ 021400Z AUTO 13008KT 2 1/2SM 25/19 A2994 RMK T02500190 IEM_DS3505
ZGSZ,2001-11-02 15:00,ZGSZ 021500Z AUTO 09006KT 2 1/2SM 25/20 A2991 RMK T02500200 IEM_DS3505
ZGSZ,2001-11-02 16:00,ZGSZ 021600Z AUTO 09006KT 2 1/2SM 24/19 A2991 RMK T02400190 IEM_DS3505
ZGSZ,2001-11-02 17:00,ZGSZ 021700Z AUTO 01004KT 3SM 24/20 A2994 RMK T02400200 IEM_DS3505
ZGSZ,2001-11-02 18:00,ZGSZ 021800Z AUTO 07002KT 7SM 25/22 A2991 RMK SLP148 T02500217 52002 IEM_DS3505
ZGSZ,2001-11-02 19:00,ZGSZ 021900Z AUTO 12004KT 3SM 23/19 A2991 RMK T02300190 IEM_DS3505
ZGSZ,2001-11-02 20:00,ZGSZ 022000Z AUTO 09004KT 3SM 24/20 A2991 RMK T02400200 IEM_DS3505
ZGSZ,2001-11-02 21:00,ZGSZ 022100Z AUTO 14004KT 4SM 25/22 A2991 RMK SLP146 T02490221 57002 IEM_DS3505
ZGSZ,2001-11-02 22:00,ZGSZ 022200Z AUTO 2 1/2SM 24/20 A2994 RMK T02400200 IEM_DS3505
ZGSZ,2001-11-02 23:00,ZGSZ 022300Z AUTO 10006KT 3SM 23/20 A2994 RMK T02300200 IEM_DS3505
ZGSZ,2001-11-03 00:00,ZGSZ 030000Z AUTO 14004KT 4SM 25/22 A2994 RMK SLP155 T02490225 52009 IEM_DS3505
ZGSZ,2001-11-03 01:00,ZGSZ 030100Z AUTO 09004KT 2SM 27/20 A2997 RMK T02700200 IEM_DS3505
ZGSZ,2001-11-03 02:00,ZGSZ 030200Z AUTO 07002KT 3SM 29/20 A2997 RMK T02900200 IEM_DS3505
ZGSZ,2001-11-03 03:00,ZGSZ 030300Z AUTO 07002KT 7SM 28/22 A2997 RMK SLP158 T02760223 52003 IEM_DS3505
ZGSZ,2001-11-03 04:00,ZGSZ 030400Z AUTO 26006KT 3SM 28/21 A2994 RMK T02800210 IEM_DS3505
ZGSZ,2001-11-03 05:00,ZGSZ 030500Z AUTO 23006KT 29/21 A2991 RMK T02900210 IEM_DS3505
ZGSZ,2001-11-03 06:00,ZGSZ 030600Z AUTO 09004KT 9SM 31/21 A2988 RMK SLP128 T03080214 57030 IEM_DS3505
ZGSZ,2001-11-03 07:00,ZGSZ 030700Z AUTO 21006KT 29/21 A2985 RMK T02900210 IEM_DS3505
ZGSZ,2001-11-03 08:00,ZGSZ 030800Z AUTO 19008KT 7SM 28/22 A2985 RMK T02800220 IEM_DS3505
ZGSZ,2001-11-03 09:00,ZGSZ 030900Z AUTO 20004KT 7SM 29/23 A2985 RMK SLP121 T02940230 57007 IEM_DS3505
ZGSZ,2001-11-03 10:00,ZGSZ 031000Z AUTO 18006KT 6SM 26/22 A2985 RMK T02600220 IEM_DS3505
ZGSZ,2001-11-03 11:00,ZGSZ 031100Z AUTO 18006KT 6SM 26/22 A2988 RMK T02600220 IEM_DS3505
ZGSZ,2001-11-03 12:00,ZGSZ 031200Z AUTO 11004KT 5SM 27/23 A2991 RMK SLP139 T02690228 52018 IEM_DS3505
ZGSZ,2001-11-03 13:00,ZGSZ 031300Z AUTO 17004KT 6SM 26/22 A2991 RMK T02600220 IEM_DS3505
ZGSZ,2001-11-03 14:00,ZGSZ 031400Z AUTO 2SM 26/22 A2994 RMK T02600220 IEM_DS3505
ZGSZ,2001-11-03 15:00,ZGSZ 031500Z AUTO 07004KT 2SM 26/22 A2994 RMK T02600220 IEM_DS3505
ZGSZ,2001-11-03 16:00,ZGSZ 031600Z AUTO 08006KT 3SM 26/20 A2994 RMK T02600200 IEM_DS3505
ZGSZ,2001-11-03 17:00,ZGSZ 031700Z AUTO 08006KT 4SM 25/20 A2994 RMK T02500200 IEM_DS3505
ZGSZ,2001-11-03 18:00,ZGSZ 031800Z AUTO 14004KT 6SM 26/22 A2994 RMK SLP152 T02570225 57001 IEM_DS3505
ZGSZ,2001-11-03 21:00,ZGSZ 032100Z AUTO 07008KT 9SM 25/21 A2994 RMK 70003 SLP152 T02540212 54000 IEM_DS3505
ZGSZ,2001-11-03 22:00,ZGSZ 032200Z AUTO 10008KT 6SM 25/19 A2994 RMK T02500190 IEM_DS3505
ZGSZ,2001-11-03 23:00,ZGSZ 032300Z AUTO 09008KT 6SM 24/19 A2997 RMK T02400190 IEM_DS3505
ZGSZ,2001-11-04 00:00,ZGSZ 040000Z AUTO 09010KT 8SM 25/20 A2997 RMK 60003 SLP167 T02500199 52015 IEM_DS3505
ZGSZ,2001-11-04 01:00,ZGSZ 040100Z AUTO 10008KT 7SM 26/18 A3000 RMK T02600180 IEM_DS3505
ZGSZ,2001-11-04 02:00,ZGSZ 040200Z AUTO 12012KT 7SM 27/18 A3000 RMK T02700180 IEM_DS3505
ZGSZ,2001-11-04 03:00,ZGSZ 040300Z AUTO 14006KT 12SM 26/20 A3000 RMK SLP170 T02560196 52003 IEM_DS3505
ZGSZ,2001-11-04 04:00,ZGSZ 040400Z AUTO 11012KT 7SM 27/18 A2997 RMK T02700180 IEM_DS3505
ZGSZ,2001-11-04 05:00,ZGSZ 040500Z AUTO 13016KT 7SM 27/17 A2994 RMK T02700170 IEM_DS3505
ZGSZ,2001-11-04 06:00,ZGSZ 040600Z AUTO 07008KT 12SM 26/20 A2994 RMK SLP152 T02640197 57018 IEM_DS3505
ZGSZ,2001-11-04 07:00,ZGSZ 040700Z AUTO 09012KT 7SM 28/18 A2994 RMK T02800180 IEM_DS3505
ZGSZ,2001-11-04 08:00,ZGSZ 040800Z AUTO 09010KT 7SM 27/18 A2994 RMK T02700180 IEM_DS3505
ZGSZ,2001-11-04 09:00,ZGSZ 040900Z AUTO 09008KT 9SM 25/20 A2994 RMK SLP154 T02540202 52002 IEM_DS3505
ZGSZ,2001-11-04 10:00,ZGSZ 041000Z AUTO 09010KT 7SM 26/18 A2994 RMK T02600180 IEM_DS3505
ZGSZ,2001-11-04 11:00,ZGSZ 041100Z AUTO 09008KT 7SM 25/18 A2997 RMK T02500180 IEM_DS3505
ZGSZ,2001-11-04 12:00,ZGSZ 041200Z AUTO 09006KT 6SM 24/21 A3000 RMK 60003 SLP171 T02390212 52016 IEM_DS3505
ZGSZ,2001-11-04 13:00,ZGSZ 041300Z AUTO 09006KT 7SM 24/19 A3003 RMK T02400190 IEM_DS3505
ZGSZ,2001-11-04 14:00,ZGSZ 041400Z AUTO 09006KT 7SM 24/19 A3003 RMK T02400190 IEM_DS3505
ZGSZ,2001-11-04 15:00,ZGSZ 041500Z AUTO 10008KT 7SM 24/19 A3003 RMK T02400190 IEM_DS3505
ZGSZ,2001-11-04 16:00,ZGSZ 041600Z AUTO 09006KT 7SM 24/18 A3003 RMK T02400180 IEM_DS3505
ZGSZ,2001-11-04 17:00,ZGSZ 041700Z AUTO 09006KT 7SM 24/18 A3000 RMK T02400180 IEM_DS3505
ZGSZ,2001-11-04 18:00,ZGSZ 041800Z AUTO 04004KT 7SM 23/20 A3000 RMK SLP168 T02320201 57012 IEM_DS3505
ZGSZ,2001-11-04 21:00,ZGSZ 042100Z AUTO 09008KT 7SM 23/20 A3003 RMK 70003 SLP172 T02300199 52004 IEM_DS3505
ZGSZ,2001-11-04 22:00,ZGSZ 042200Z AUTO 04002KT 7SM 22/18 A3003 RMK T02200180 IEM_DS3505
ZGSZ,2001-11-04 23:00,ZGSZ 042300Z AUTO 03002KT 7SM 22/18 A3003 RMK T02200180 IEM_DS3505
ZGSZ,2001-11-05 00:00,ZGSZ 050000Z AUTO 09002KT 8SM 24/19 A3006 RMK 70003 SLP186 T02360192 52014 IEM_DS3505
ZGSZ,2001-11-05 01:00,ZGSZ 050100Z AUTO 08004KT 7SM 25/18 A3009 RMK T02500180 IEM_DS3505
ZGSZ,2001-11-05 02:00,ZGSZ 050200Z AUTO 05002KT 6SM 26/18 A3009 RMK T02600180 IEM_DS3505
ZGSZ,2001-11-05 03:00,ZGSZ 050300Z AUTO 09006KT 12SM 27/19 A3009 RMK SLP194 T02700190 52008 IEM_DS3505
ZGSZ,2001-11-05 04:00,ZGSZ 050400Z AUTO 28006KT 28/18 A3006 RMK T02800180 IEM_DS3505
ZGSZ,2001-11-05 05:00,ZGSZ 050500Z AUTO 05006KT 7SM 29/18 A3003 RMK T02900180 IEM_DS3505
ZGSZ,2001-11-05 06:00,ZGSZ 050600Z AUTO 07008KT 16SM 31/19 A3003 RMK SLP175 T03080187 57018 IEM_DS3505
ZGSZ,2001-11-05 07:00,ZGSZ 050700Z AUTO 33008KT 7SM 30/18 A3000 RMK T03000180 IEM_DS3505
ZGSZ,2001-11-05 08:00,ZGSZ 050800Z AUTO 36008KT 7SM 29/18 A3000 RMK T02900180 IEM_DS3505
ZGSZ,2001-11-05 09:00,ZGSZ 050900Z AUTO 29004KT 8SM 30/20 A3003 RMK SLP174 T02960199 57001 IEM_DS3505
ZGSZ,2001-11-05 10:00,ZGSZ 051000Z AUTO 35012KT 7SM 26/18 A3003 RMK T02600180 IEM_DS3505
ZGSZ,2001-11-05 11:00,ZGSZ 051100Z AUTO 36016KT 7SM 25/18 A3006 RMK T02500180 IEM_DS3505
ZGSZ,2001-11-05 12:00,ZGSZ 051200Z AUTO 04010KT 9SM 25/17 A3006 RMK 60003 SLP195 T02470174 52020 IEM_DS3505
ZGSZ,2001-11-05 13:00,ZGSZ 051300Z AUTO 01010KT 7SM 23/15 A3009 RMK T02300150 IEM_DS3505
ZGSZ,2001-11-05 14:00,ZGSZ 051400Z AUTO 02010KT 7SM 23/15 A3012 RMK T02300150 IEM_DS3505
ZGSZ,2001-11-05 15:00,ZGSZ 051500Z AUTO 01012KT 7SM 22/14 A3012 RMK T02200140 IEM_DS3505
ZGSZ,2001-11-05 16:00,ZGSZ 051600Z AUTO 02010KT 6SM 21/14 A3012 RMK T02100140 IEM_DS3505
ZGSZ,2001-11-05 17:00,ZGSZ 051700Z AUTO 01014KT 6SM 21/13 A3012 RMK T02100130 IEM_DS3505
ZGSZ,2001-11-05 18:00,ZGSZ 051800Z AUTO 04016KT 19SM 21/13 A3012 RMK SLP203 T02080131 52002 IEM_DS3505
ZGSZ,2001-11-05 19:00,ZGSZ 051900Z AUTO 02014KT 6SM 20/12 A3009 RMK T02000120 IEM_DS3505
ZGSZ,2001-11-05 20:00,ZGSZ 052000Z AUTO 02010KT 6SM 20/12 A3009 RMK T02000120 IEM_DS3505
ZGSZ,2001-11-05 21:00,ZGSZ 052100Z AUTO 04014KT 19SM 20/13 A3009 RMK 70003 SLP203 T02000128 54000 IEM_DS3505
ZGSZ,2001-11-05 22:00,ZGSZ 052200Z AUTO 01012KT 6SM 19/11 A3012 RMK T01900110 IEM_DS3505
ZGSZ,2001-11-05 23:00,ZGSZ 052300Z AUTO 01012KT 7SM 19/11 A3015 RMK T01900110 IEM_DS3505
ZGSZ,2001-11-06 00:00,ZGSZ 060000Z AUTO 04010KT 16SM 20/11 A3018 RMK 70003 SLP227 T01990114 52024 IEM_DS3505
ZGSZ,2001-11-06 01:00,ZGSZ 060100Z AUTO 02008KT 6SM 21/10 A3021 RMK T02100100 IEM_DS3505
ZGSZ,2001-11-06 02:00,ZGSZ 060200Z AUTO 03012KT 7SM 21/10 A3021 RMK T02100100 IEM_DS3505
ZGSZ,2001-11-06 03:00,ZGSZ 060300Z AUTO 04008KT 14SM 20/11 A3018 RMK SLP227 T02050111 54000 IEM_DS3505
ZGSZ,2001-11-06 04:00,ZGSZ 060400Z AUTO 02012KT 7SM 21/10 A3015 RMK T02100100 IEM_DS3505
ZGSZ,2001-11-06 05:00,ZGSZ 060500Z AUTO 02010KT 6SM 22/10 A3012 RMK T02200100 IEM_DS3505
ZGSZ,2001-11-06 06:00,ZGSZ 060600Z AUTO 04006KT 14SM 23/13 A3009 RMK SLP202 T02330129 57025 IEM_DS3505
ZGSZ,2001-11-06 07:00,ZGSZ 060700Z AUTO 02010KT 7SM 23/10 A3009 RMK T02300100 IEM_DS3505
ZGSZ,2001-11-06 08:00,ZGSZ 060800Z AUTO 03008KT 6SM 23/11 A3009 RMK T02300110 IEM_DS3505
ZGSZ,2001-11-06 09:00,ZGSZ 060900Z AUTO 04008KT 14SM 23/14 A3009 RMK SLP197 T02340135 57005 IEM_DS3505
ZGSZ,2001-11-06 10:00,ZGSZ 061000Z AUTO 03006KT 6SM 22/11 A3009 RMK T02200110 IEM_DS3505
ZGSZ,2001-11-06 11:00,ZGSZ 061100Z AUTO 04004KT 6SM 22/11 A3009 RMK T02200110 IEM_DS3505
ZGSZ,2001-11-06 12:00,ZGSZ 061200Z AUTO 04010KT 11SM 22/14 A3009 RMK SLP200 T02240135 52003 IEM_DS3505
ZGSZ,2001-11-06 13:00,ZGSZ 061300Z AUTO 03004KT 6SM 21/11 A3012 RMK T02100110 IEM_DS3505
ZGSZ,2001-11-06 14:00,ZGSZ 061400Z AUTO 04004KT 6SM 20/11 A3012 RMK T02000110 IEM_DS3505
ZGSZ,2001-11-06 15:00,ZGSZ 061500Z AUTO 03004KT 6SM 20/11 A3012 RMK T02000110 IEM_DS3505
ZGSZ,2001-11-06 16:00,ZGSZ 061600Z AUTO 03008KT 6SM 20/11 A3012 RMK T02000110 IEM_DS3505
ZGSZ,2001-11-06 17:00,ZGSZ 061700Z AUTO 03006KT 6SM 20/10 A3009 RMK T02000100 IEM_DS3505
ZGSZ,2001-11-06 18:00,ZGSZ 061800Z AUTO 04008KT 9SM 20/13 A3009 RMK SLP202 T02050126 57008 IEM_DS3505
ZGSZ,2001-11-06 19:00,ZGSZ 061900Z AUTO 36008KT 6SM 20/10 A3009 RMK T02000100 IEM_DS3505
ZGSZ,2001-11-06 20:00,ZGSZ 062000Z AUTO 36006KT 6SM 20/10 A3009 RMK T02000100 IEM_DS3505
ZGSZ,2001-11-06 21:00,ZGSZ 062100Z AUTO 04006KT 9SM 20/12 A3009 RMK SLP198 T01980119 57004 IEM_DS3505
ZGSZ,2001-11-06 22:00,ZGSZ 062200Z AUTO 01010KT 6SM 19/09 A3009 RMK T01900090 IEM_DS3505
ZGSZ,2001-11-06 23:00,ZGSZ 062300Z AUTO 02008KT 6SM 19/09 A3012 RMK T01900090 IEM_DS3505
ZGSZ,2001-11-07 00:00,ZGSZ 070000Z AUTO 04008KT 10SM 20/12 A3015 RMK SLP219 T01960117 52021 IEM_DS3505
ZGSZ,2001-11-07 01:00,ZGSZ 070100Z AUTO 03008KT 6SM 21/09 A3015 RMK T02100090 IEM_DS3505
ZGSZ,2001-11-07 02:00,ZGSZ 070200Z AUTO 03008KT 3SM 22/10 A3015 RMK T02200100 IEM_DS3505
ZGSZ,2001-11-07 03:00,ZGSZ 070300Z AUTO 02008KT 6SM 22/13 A3012 RMK SLP205 T02230129 57014 IEM_DS3505
ZGSZ,2001-11-07 04:00,ZGSZ 070400Z AUTO 03004KT 5SM 24/10 A3009 RMK T02400100 IEM_DS3505
ZGSZ,2001-11-07 05:00,ZGSZ 070500Z AUTO 35008KT 5SM 25/10 A3003 RMK T02500100 IEM_DS3505
ZGSZ,2001-11-07 06:00,ZGSZ 070600Z AUTO 04008KT 9SM 26/14 A3000 RMK SLP171 T02580139 57034 IEM_DS3505
ZGSZ,2001-11-07 07:00,ZGSZ 070700Z AUTO 36006KT 6SM 26/11 A2997 RMK T02600110 IEM_DS3505
ZGSZ,2001-11-07 08:00,ZGSZ 070800Z AUTO 01006KT 6SM 25/11 A2997 RMK T02500110 IEM_DS3505
ZGSZ,2001-11-07 09:00,ZGSZ 070900Z AUTO 09006KT 11SM 24/15 A2997 RMK SLP165 T02450151 57006 IEM_DS3505
ZGSZ,2001-11-07 10:00,ZGSZ 071000Z AUTO 03006KT 6SM 23/11 A3000 RMK T02300110 IEM_DS3505
ZGSZ,2001-11-07 11:00,ZGSZ 071100Z AUTO 07004KT 23/11 A3000 RMK T02300110 IEM_DS3505
ZGSZ,2001-11-07 12:00,ZGSZ 071200Z AUTO 14004KT 7SM 22/15 A3003 RMK SLP182 T02220152 52017 IEM_DS3505
ZGSZ,2001-11-07 13:00,ZGSZ 071300Z AUTO 11004KT 3SM 22/13 A3003 RMK T02200130 IEM_DS3505
ZGSZ,2001-11-07 14:00,ZGSZ 071400Z AUTO 11004KT 21/13 A3003 RMK T02100130 IEM_DS3505
ZGSZ,2001-11-07 15:00,ZGSZ 071500Z AUTO 09004KT 21/13 A3003 RMK T02100130 IEM_DS3505
ZGSZ,2001-11-07 16:00,ZGSZ 071600Z AUTO 08004KT 21/14 A3003 RMK T02100140 IEM_DS3505
ZGSZ,2001-11-07 17:00,ZGSZ 071700Z AUTO 36004KT 20/14 A3003 RMK T02000140 IEM_DS3505
ZGSZ,2001-11-07 18:00,ZGSZ 071800Z AUTO 04006KT 6SM 21/16 A3003 RMK SLP172 T02080162 57013 IEM_DS3505
ZGSZ,2001-11-07 19:00,ZGSZ 071900Z AUTO 03006KT 4SM 19/14 A3000 RMK T01900140 IEM_DS3505
ZGSZ,2001-11-07 20:00,ZGSZ 072000Z AUTO 36004KT 4SM 19/14 A3000 RMK T01900140 IEM_DS3505
ZGSZ,2001-11-07 21:00,ZGSZ 072100Z AUTO 04004KT 7SM 20/16 A3000 RMK SLP169 T01970155 57003 IEM_DS3505
ZGSZ,2001-11-07 22:00,ZGSZ 072200Z AUTO 36006KT 3SM 18/14 A3003 RMK T01800140 IEM_DS3505
ZGSZ,2001-11-07 23:00,ZGSZ 072300Z AUTO 05002KT 4SM 18/14 A3003 RMK T01800140 IEM_DS3505
ZGSZ,2001-11-08 00:00,ZGSZ 080000Z AUTO 04008KT 6SM 20/13 A3003 RMK SLP187 T01960131 52018 IEM_DS3505
ZGSZ,2001-11-08 01:00,ZGSZ 080100Z AUTO 03004KT 3SM 21/12 A3006 RMK T02100120 IEM_DS3505
ZGSZ,2001-11-08 02:00,ZGSZ 080200Z AUTO 04006KT 5SM 23/11 A3006 RMK T02300110 IEM_DS3505
ZGSZ,2001-11-08 03:00,ZGSZ 080300Z AUTO 04006KT 5SM 23/14 A3003 RMK SLP184 T02320136 57003 IEM_DS3505
ZGSZ,2001-11-08 04:00,ZGSZ 080400Z AUTO 05006KT 26/10 A3000 RMK T02600100 IEM_DS3505
ZGSZ,2001-11-08 05:00,ZGSZ 080500Z AUTO 06004KT 26/09 A2997 RMK T02600090 IEM_DS3505
ZGSZ,2001-11-08 06:00,ZGSZ 080600Z AUTO 32004KT 7SM 26/12 A2994 RMK SLP150 T02650124 57034 IEM_DS3505
ZGSZ,2001-11-08 07:00,ZGSZ 080700Z AUTO 36010KT 6SM 27/10 A2991 RMK T02700100 IEM_DS3505
ZGSZ,2001-11-08 08:00,ZGSZ 080800Z AUTO 36006KT 6SM 26/09 A2994 RMK T02600090 IEM_DS3505
ZGSZ,2001-11-08 09:00,ZGSZ 080900Z AUTO 34004KT 9SM 26/13 A2994 RMK SLP148 T02610130 57002 IEM_DS3505
ZGSZ,2001-11-08 10:00,ZGSZ 081000Z AUTO 03006KT 6SM 24/10 A2994 RMK T02400100 IEM_DS3505
ZGSZ,2001-11-08 11:00,ZGSZ 081100Z AUTO 03004KT 6SM 23/12 A2994 RMK T02300120 IEM_DS3505
ZGSZ,2001-11-08 12:00,ZGSZ 081200Z AUTO 07004KT 8SM 24/13 A2997 RMK SLP162 T02400134 52014 IEM_DS3505
ZGSZ,2001-11-08 13:00,ZGSZ 081300Z AUTO 36006KT 6SM 22/12 A2997 RMK T02200120 IEM_DS3505
ZGSZ,2001-11-08 14:00,ZGSZ 081400Z AUTO 04008KT 6SM 22/11 A3000 RMK T02200110 IEM_DS3505
ZGSZ,2001-11-08 15:00,ZGSZ 081500Z AUTO 05006KT 6SM 21/11 A3000 RMK T02100110 IEM_DS3505
ZGSZ,2001-11-08 16:00,ZGSZ 081600Z AUTO 06004KT 6SM 21/11 A3000 RMK T02100110 IEM_DS3505
ZGSZ,2001-11-08 17:00,ZGSZ 081700Z AUTO 6SM 20/11 A3000 RMK T02000110 IEM_DS3505
ZGSZ,2001-11-08 18:00,ZGSZ 081800Z AUTO 04006KT 9SM 21/12 A2997 RMK SLP160 T02140122 57012 IEM_DS3505
ZGSZ,2001-11-08 19:00,ZGSZ 081900Z AUTO 36008KT 6SM 19/12 A2994 RMK T01900120 IEM_DS3505
ZGSZ,2001-11-08 20:00,ZGSZ 082000Z AUTO 01008KT 6SM 19/10 A2997 RMK T01900100 IEM_DS3505
ZGSZ,2001-11-08 21:00,ZGSZ 082100Z AUTO 07008KT 7SM 20/12 A2997 RMK SLP163 T02000118 52003 IEM_DS3505
ZGSZ,2001-11-08 22:00,ZGSZ 082200Z AUTO 36010KT 6SM 19/10 A3000 RMK T01900100 IEM_DS3505
ZGSZ,2001-11-08 23:00,ZGSZ 082300Z AUTO 02008KT 6SM 19/09 A3003 RMK T01900090 IEM_DS3505
ZGSZ,2001-11-09 00:00,ZGSZ 090000Z AUTO 04012KT 9SM 20/11 A3003 RMK SLP183 T01960112 52020 IEM_DS3505
ZGSZ,2001-11-09 01:00,ZGSZ 090100Z AUTO 36010KT 6SM 21/09 A3006 RMK T02100090 IEM_DS3505
ZGSZ,2001-11-09 02:00,ZGSZ 090200Z AUTO 02008KT 6SM 23/10 A3006 RMK T02300100 IEM_DS3505
ZGSZ,2001-11-09 03:00,ZGSZ 090300Z AUTO 09010KT 7SM 23/12 A3006 RMK SLP179 T02320115 57004 IEM_DS3505
ZGSZ,2001-11-09 04:00,ZGSZ 090400Z AUTO 01012KT 6SM 24/09 A3003 RMK T02400090 IEM_DS3505
ZGSZ,2001-11-09 05:00,ZGSZ 090500Z AUTO 02012KT 6SM 25/09 A3000 RMK T02500090 IEM_DS3505
ZGSZ,2001-11-09 06:00,ZGSZ 090600Z AUTO 04010KT 9SM 26/10 A2994 RMK SLP153 T02600103 57026 IEM_DS3505
ZGSZ,2001-11-09 07:00,ZGSZ 090700Z AUTO 36014KT 6SM 26/08 A2994 RMK T02600080 IEM_DS3505
ZGSZ,2001-11-09 08:00,ZGSZ 090800Z AUTO 36014KT 6SM 25/08 A2991 RMK T02500080 IEM_DS3505
ZGSZ,2001-11-09 09:00,ZGSZ 090900Z AUTO 04006KT 9SM 25/11 A2994 RMK SLP143 T02500113 57010 IEM_DS3505
ZGSZ,2001-11-09 10:00,ZGSZ 091000Z AUTO 02008KT 6SM 24/08 A2994 RMK T02400080 IEM_DS3505
ZGSZ,2001-11-09 11:00,ZGSZ 091100Z AUTO 02010KT 6SM 24/06 A2994 RMK T02400060 IEM_DS3505
ZGSZ,2001-11-09 12:00,ZGSZ 091200Z AUTO 04008KT 7SM 24/10 A2997 RMK SLP158 T02360095 52015 IEM_DS3505
ZGSZ,2001-11-09 13:00,ZGSZ 091300Z AUTO 02014KT 6SM 23/05 A3000 RMK T02300050 IEM_DS3505
ZGSZ,2001-11-09 14:00,ZGSZ 091400Z AUTO 01010KT 6SM 22/06 A3000 RMK T02200060 IEM_DS3505
ZGSZ,2001-11-09 15:00,ZGSZ 091500Z AUTO 36012KT 6SM 21/07 A3000 RMK T02100070 IEM_DS3505
ZGSZ,2001-11-09 16:00,ZGSZ 091600Z AUTO 01008KT 6SM 20/07 A3000 RMK T02000070 IEM_DS3505
ZGSZ,2001-11-09 17:00,ZGSZ 091700Z AUTO 01006KT 6SM 19/07 A3000 RMK T01900070 IEM_DS3505
ZGSZ,2001-11-09 18:00,ZGSZ 091800Z AUTO 04008KT 9SM 20/08 A3000 RMK SLP165 T02010077 57003 IEM_DS3505
ZGSZ,2001-11-09 19:00,ZGSZ 091900Z AUTO 36010KT 6SM 18/06 A3000 RMK T01800060 IEM_DS3505
ZGSZ,2001-11-09 20:00,ZGSZ 092000Z AUTO 01006KT 6SM 18/06 A3000 RMK T01800060 IEM_DS3505
ZGSZ,2001-11-09 21:00,ZGSZ 092100Z AUTO 04008KT 11SM 18/08 A3000 RMK SLP165 T01850080 54000 IEM_DS3505
ZGSZ,2001-11-09 22:00,ZGSZ 092200Z AUTO 01014KT 6SM 17/06 A3000 RMK T01700060 IEM_DS3505
ZGSZ,2001-11-09 23:00,ZGSZ 092300Z AUTO 03012KT 6SM 17/07 A3000 RMK T01700070 IEM_DS3505
ZGSZ,2001-11-10 00:00,ZGSZ 100000Z AUTO 04012KT 8SM 18/09 A3003 RMK SLP181 T01810091 52016 IEM_DS3505
ZGSZ,2001-11-10 01:00,ZGSZ 100100Z AUTO 02012KT 6SM 19/07 A3003 RMK T01900070 IEM_DS3505
ZGSZ,2001-11-10 02:00,ZGSZ 100200Z AUTO 03010KT 6SM 21/08 A3006 RMK T02100080 IEM_DS3505
ZGSZ,2001-11-10 03:00,ZGSZ 100300Z AUTO 04010KT 7SM 22/11 A3003 RMK SLP176 T02180108 57005 IEM_DS3505
ZGSZ,2001-11-10 04:00,ZGSZ 100400Z AUTO 36012KT 6SM 23/09 A3000 RMK T02300090 IEM_DS3505
ZGSZ,2001-11-10 05:00,ZGSZ 100500Z AUTO 01012KT 6SM 24/09 A2997 RMK T02400090 IEM_DS3505
ZGSZ,2001-11-10 06:00,ZGSZ 100600Z AUTO 04010KT 7SM 25/12 A2994 RMK SLP148 T02510116 57028 IEM_DS3505
ZGSZ,2001-11-10 07:00,ZGSZ 100700Z AUTO 36010KT 6SM 25/10 A2994 RMK T02500100 IEM_DS3505
ZGSZ,2001-11-10 08:00,ZGSZ 100800Z AUTO 02010KT 6SM 25/10 A2991 RMK T02500100 IEM_DS3505
ZGSZ,2001-11-10 09:00,ZGSZ 100900Z AUTO 04006KT 7SM 25/13 A2994 RMK SLP143 T02470133 57005 IEM_DS3505
ZGSZ,2001-11-10 10:00,ZGSZ 101000Z AUTO 03006KT 23/10 A2994 RMK T02300100 IEM_DS3505
ZGSZ,2001-11-10 11:00,ZGSZ 101100Z AUTO 02006KT 3SM 22/10 A2997 RMK T02200100 IEM_DS3505
ZGSZ,2001-11-10 12:00,ZGSZ 101200Z AUTO 04006KT 6SM 23/12 A2997 RMK SLP161 T02320124 52018 IEM_DS3505
ZGSZ,2001-11-10 13:00,ZGSZ 101300Z AUTO 01004KT 2SM 21/11 A3000 RMK T02100110 IEM_DS3505
ZGSZ,2001-11-10 14:00,ZGSZ 101400Z AUTO 02010KT 2 1/2SM 21/10 A3000 RMK T02100100 IEM_DS3505
ZGSZ,2001-11-10 15:00,ZGSZ 101500Z AUTO 02008KT 2 1/2SM 21/10 A3000 RMK T02100100 IEM_DS3505
ZGSZ,2001-11-10 16:00,ZGSZ 101600Z AUTO 03006KT 3SM 21/08 A3000 RMK T02100080 IEM_DS3505
ZGSZ,2001-11-10 17:00,ZGSZ 101700Z AUTO 01006KT 3SM 20/09 A3000 RMK T02000090 IEM_DS3505
ZGSZ,2001-11-10 18:00,ZGSZ 101800Z AUTO 04010KT 7SM 21/11 A3000 RMK SLP164 T02060108 57003 IEM_DS3505
ZGSZ,2001-11-10 21:00,ZGSZ 102100Z AUTO 04012KT 6SM 19/10 A2997 RMK SLP157 T01900096 57007 IEM_DS3505
ZGSZ,2001-11-10 22:00,ZGSZ 102200Z AUTO 36008KT 18/08 A2997 RMK T01800080 IEM_DS3505
ZGSZ,2001-11-10 23:00,ZGSZ 102300Z AUTO 36010KT 17/08 A3000 RMK T01700080 IEM_DS3505
ZGSZ,2001-11-11 00:00,ZGSZ 110000Z AUTO 04006KT 6SM 18/10 A3003 RMK SLP172 T01850099 52015 IEM_DS3505
ZGSZ,2001-11-11 01:00,ZGSZ 110100Z AUTO 02010KT 5SM 20/08 A3003 RMK T02000080 IEM_DS3505
ZGSZ,2001-11-11 02:00,ZGSZ 110200Z AUTO 36010KT 5SM 21/08 A3006 RMK T02100080 IEM_DS3505
ZGSZ,2001-11-11 03:00,ZGSZ 110300Z AUTO 04008KT 6SM 22/10 A3003 RMK SLP179 T02170097 52007 IEM_DS3505
ZGSZ,2001-11-11 04:00,ZGSZ 110400Z AUTO 36012KT 5SM 24/08 A3000 RMK T02400080 IEM_DS3505
ZGSZ,2001-11-11 05:00,ZGSZ 110500Z AUTO 36010KT 5SM 24/09 A2997 RMK T02400090 IEM_DS3505
ZGSZ,2001-11-11 06:00,ZGSZ 110600Z AUTO 07010KT 8SM 25/10 A2994 RMK SLP147 T02490102 57032 IEM_DS3505
ZGSZ,2001-11-11 07:00,ZGSZ 110700Z AUTO 03012KT 5SM 25/08 A2991 RMK T02500080 IEM_DS3505
ZGSZ,2001-11-11 08:00,ZGSZ 110800Z AUTO 05006KT 5SM 25/08 A2991 RMK T02500080 IEM_DS3505
ZGSZ,2001-11-11 09:00,ZGSZ 110900Z AUTO 04008KT 7SM 25/10 A2994 RMK SLP151 T02460102 52004 IEM_DS3505
ZGSZ,2001-11-11 10:00,ZGSZ 111000Z AUTO 03006KT 6SM 22/09 A2997 RMK T02200090 IEM_DS3505
ZGSZ,2001-11-11 11:00,ZGSZ 111100Z AUTO 36006KT 6SM 21/10 A2997 RMK T02100100 IEM_DS3505
ZGSZ,2001-11-11 12:00,ZGSZ 111200Z AUTO 04010KT 7SM 23/10 RMK SLP167 T02300099 52016 IEM_DS3505
ZGSZ,2001-11-11 13:00,ZGSZ 111300Z AUTO 01008KT 2 1/2SM 20/08 A3000 RMK T02000080 IEM_DS3505
ZGSZ,2001-11-11 14:00,ZGSZ 111400Z AUTO 02010KT 20/06 A3003 RMK T02000060 IEM_DS3505
ZGSZ,2001-11-11 15:00,ZGSZ 111500Z AUTO 03008KT 5SM 20/06 A3003 RMK T02000060 IEM_DS3505
ZGSZ,2001-11-11 16:00,ZGSZ 111600Z AUTO 01008KT 6SM 20/06 A3000 RMK T02000060 IEM_DS3505
ZGSZ,2001-11-11 17:00,ZGSZ 111700Z AUTO 03006KT 6SM 19/06 A3000 RMK T01900060 IEM_DS3505
ZGSZ,2001-11-11 18:00,ZGSZ 111800Z AUTO 04006KT 8SM 20/07 A3000 RMK SLP171 T02000071 57006 IEM_DS3505
ZGSZ,2001-11-11 19:00,ZGSZ 111900Z AUTO 36006KT 6SM 17/06 A3000 RMK T01700060 IEM_DS3505
ZGSZ,2001-11-11 20:00,ZGSZ 112000Z AUTO 36008KT 6SM 18/06 A3000 RMK T01800060 IEM_DS3505
ZGSZ,2001-11-11 21:00,ZGSZ 112100Z AUTO 04010KT 9SM 19/06 A3000 RMK SLP171 T01900061 54000 IEM_DS3505
ZGSZ,2001-11-11 22:00,ZGSZ 112200Z AUTO 01008KT 6SM 17/05 A3000 RMK T01700050 IEM_DS3505
ZGSZ,2001-11-11 23:00,ZGSZ 112300Z AUTO 01008KT 6SM 17/06 A3003 RMK T01700060 IEM_DS3505
ZGSZ,2001-11-12 00:00,ZGSZ 120000Z AUTO 36008KT 19/05 A3003 RMK T01900050 IEM_DS3505
ZGSZ,2001-11-12 01:00,ZGSZ 120100Z AUTO 02006KT 6SM 20/05 A3003 RMK T02000050 IEM_DS3505
ZGSZ,2001-11-12 02:00,ZGSZ 120200Z AUTO 03006KT 6SM 22/05 A3006 RMK T02200050 IEM_DS3505
ZGSZ,2001-11-12 03:00,ZGSZ 120300Z AUTO 04006KT 8SM 22/08 A3006 RMK SLP186 T02210078 52008 IEM_DS3505
ZGSZ,2001-11-12 04:00,ZGSZ 120400Z AUTO 25004KT 6SM 24/07 A3003 RMK T02400070 IEM_DS3505
ZGSZ,2001-11-12 05:00,ZGSZ 120500Z AUTO 10008KT 6SM 26/06 A3000 RMK T02600060 IEM_DS3505
ZGSZ,2001-11-12 06:00,ZGSZ 120600Z AUTO 14006KT 9SM 25/10 A2997 RMK SLP158 T02480095 57028 IEM_DS3505
ZGSZ,2001-11-12 07:00,ZGSZ 120700Z AUTO 25004KT 6SM 24/07 A2994 RMK T02400070 IEM_DS3505
ZGSZ,2001-11-12 09:00,ZGSZ 120900Z AUTO 14004KT 7SM 23/13 A2994 RMK SLP156 T02340129 57002 IEM_DS3505
ZGSZ,2001-11-12 10:00,ZGSZ 121000Z AUTO 17004KT 6SM 23/11 A2997 RMK T02300110 IEM_DS3505
ZGSZ,2001-11-12 11:00,ZGSZ 121100Z AUTO 10004KT 23/11 A2997 RMK T02300110 IEM_DS3505
ZGSZ,2001-11-12 12:00,ZGSZ 121200Z AUTO 09004KT 9SM 23/15 A3000 RMK SLP168 T02280146 52012 IEM_DS3505
ZGSZ,2001-11-12 13:00,ZGSZ 121300Z AUTO 10004KT 2 1/2SM 23/12 A3000 RMK T02300120 IEM_DS3505
ZGSZ,2001-11-12 14:00,ZGSZ 121400Z AUTO 10004KT 2SM 22/12 A3003 RMK T02200120 IEM_DS3505
ZGSZ,2001-11-12 15:00,ZGSZ 121500Z AUTO 11006KT 3SM 22/12 A3003 RMK T02200120 IEM_DS3505
ZGSZ,2001-11-12 16:00,ZGSZ 121600Z AUTO 09002KT 3SM 22/13 A3003 RMK T02200130 IEM_DS3505
ZGSZ,2001-11-12 17:00,ZGSZ 121700Z AUTO 07004KT 22/12 A3000 RMK T02200120 IEM_DS3505
ZGSZ,2001-11-12 18:00,ZGSZ 121800Z AUTO 04008KT 7SM 22/15 A3000 RMK SLP174 T02220148 57006 IEM_DS3505
ZGSZ,2001-11-12 19:00,ZGSZ 121900Z AUTO 04002KT 22/13 A3000 RMK T02200130 IEM_DS3505
ZGSZ,2001-11-12 20:00,ZGSZ 122000Z AUTO 02004KT 21/13 A3000 RMK T02100130 IEM_DS3505
ZGSZ,2001-11-12 21:00,ZGSZ 122100Z AUTO 02004KT 6SM 22/14 A3000 RMK SLP175 T02180145 52001 IEM_DS3505
ZGSZ,2001-11-12 22:00,ZGSZ 122200Z AUTO 01004KT 21/12 A3003 RMK T02100120 IEM_DS3505
ZGSZ,2001-11-12 23:00,ZGSZ 122300Z AUTO 02006KT 3SM 21/11 A3006 RMK T02100110 IEM_DS3505
ZGSZ,2001-11-13 00:00,ZGSZ 130000Z AUTO 04008KT 7SM 21/13 A3009 RMK SLP197 T02100134 52022 IEM_DS3505
ZGSZ,2001-11-13 01:00,ZGSZ 130100Z AUTO 02012KT 5SM 19/11 A3009 RMK T01900110 IEM_DS3505
ZGSZ,2001-11-13 02:00,ZGSZ 130200Z AUTO 05010KT 7SM 19/11 RMK T01900110 IEM_DS3505
ZGSZ,2001-11-13 03:00,ZGSZ 130300Z AUTO 34006KT 9SM 19/13 A3012 RMK SLP207 T01940131 52010 IEM_DS3505
ZGSZ,2001-11-13 04:00,ZGSZ 130400Z AUTO 06004KT 2 1/2SM 19/12 A3009 RMK T01900120 IEM_DS3505
ZGSZ,2001-11-13 05:00,ZGSZ 130500Z AUTO 36004KT 20/12 A3006 RMK T02000120 IEM_DS3505
ZGSZ,2001-11-13 06:00,ZGSZ 130600Z AUTO 04006KT 7SM 20/12 A3000 RMK T02000120 IEM_DS3505
ZGSZ,2001-11-13 07:00,ZGSZ 130700Z AUTO 30006KT 2 1/2SM 21/12 A3000 RMK T02100120 IEM_DS3505
ZGSZ,2001-11-13 08:00,ZGSZ 130800Z AUTO 35008KT 2 1/2SM 21/12 A3000 RMK T02100120 IEM_DS3505
ZGSZ,2001-11-13 09:00,ZGSZ 130900Z AUTO 09004KT 4SM 20/15 A3000 RMK SLP172 T02030151 57003 IEM_DS3505
ZGSZ,2001-11-13 10:00,ZGSZ 131000Z AUTO 05004KT 2 1/2SM 21/11 A3000 RMK T02100110 IEM_DS3505
ZGSZ,2001-11-13 11:00,ZGSZ 131100Z AUTO 04004KT 2SM 21/11 A3003 RMK T02100110 IEM_DS3505
ZGSZ,2001-11-13 12:00,ZGSZ 131200Z AUTO 04006KT 3SM 21/15 A3006 RMK 60003 SLP183 T02080151 52011 IEM_DS3505
ZGSZ,2001-11-13 13:00,ZGSZ 131300Z AUTO 36006KT 1 1/2SM 21/12 A3006 RMK T02100120 IEM_DS3505
ZGSZ,2001-11-13 14:00,ZGSZ 131400Z AUTO 36006KT 1 1/2SM 21/12 A3009 RMK T02100120 IEM_DS3505
ZGSZ,2001-11-13 15:00,ZGSZ 131500Z AUTO 02008KT 2SM 21/11 A3009 RMK T02100110 IEM_DS3505
ZGSZ,2001-11-13 16:00,ZGSZ 131600Z AUTO 02012KT 21/07 A3009 RMK T02100070 IEM_DS3505
ZGSZ,2001-11-13 17:00,ZGSZ 131700Z AUTO 02012KT 21/07 A3009 RMK T02100070 IEM_DS3505
ZGSZ,2001-11-13 18:00,ZGSZ 131800Z AUTO 04010KT 4SM 20/06 A3009 RMK 60003 SLP200 T02030061 57001 IEM_DS3505
ZGSZ,2001-11-13 19:00,ZGSZ 131900Z AUTO 02012KT 21/07 A3009 RMK T02100070 IEM_DS3505
ZGSZ,2001-11-13 20:00,ZGSZ 132000Z AUTO 02012KT 21/07 A3009 RMK T02100070 IEM_DS3505
ZGSZ,2001-11-13 21:00,ZGSZ 132100Z AUTO 04008KT 4SM 18/08 A3009 RMK 70003 SLP203 T01810084 52003 IEM_DS3505
ZGSZ,2001-11-13 22:00,ZGSZ 132200Z AUTO 02010KT 2 1/2SM 16/09 A3015 RMK T01600090 IEM_DS3505
ZGSZ,2001-11-13 23:00,ZGSZ 132300Z AUTO 01008KT 4SM 16/09 A3015 RMK T01600090 IEM_DS3505
ZGSZ,2001-11-14 00:00,ZGSZ 140000Z AUTO 07008KT 4SM 17/09 A3018 RMK 60004 SLP224 T01730086 52021 IEM_DS3505
ZGSZ,2001-11-14 01:00,ZGSZ 140100Z AUTO 36008KT 18/07 A3018 RMK T01800070 IEM_DS3505
ZGSZ,2001-11-14 02:00,ZGSZ 140200Z AUTO 36017KT 4SM 16/06 A3021 RMK T01600060 IEM_DS3505
ZGSZ,2001-11-14 03:00,ZGSZ 140300Z AUTO 04014KT 4SM 17/08 A3018 RMK SLP234 T01710081 52010 IEM_DS3505
ZGSZ,2001-11-14 04:00,ZGSZ 140400Z AUTO 02016KT 5SM 16/06 A3018 RMK T01600060 IEM_DS3505
ZGSZ,2001-11-14 05:00,ZGSZ 140500Z AUTO 02014KT 5SM 16/05 A3015 RMK T01600050 IEM_DS3505
ZGSZ,2001-11-14 06:00,ZGSZ 140600Z AUTO 04012KT 4SM 17/08 A3015 RMK 60000 SLP209 T01660084 57025 IEM_DS3505
ZGSZ,2001-11-14 07:00,ZGSZ 140700Z AUTO 02012KT 4SM 15/06 A3012 RMK T01500060 IEM_DS3505
ZGSZ,2001-11-14 08:00,ZGSZ 140800Z AUTO 02010KT 15/06 A3012 RMK T01500060 IEM_DS3505
ZGSZ,2001-11-14 09:00,ZGSZ 140900Z AUTO 04014KT 5SM 16/04 A3015 RMK SLP211 T01580042 52002 IEM_DS3505
ZGSZ,2001-11-14 10:00,ZGSZ 141000Z AUTO 02014KT 7SM 14/05 A3015 RMK T01400050 IEM_DS3505
ZGSZ,2001-11-14 11:00,ZGSZ 141100Z AUTO 02008KT 13/07 A3018 RMK T01300070 IEM_DS3505
ZGSZ,2001-11-14 12:00,ZGSZ 141200Z AUTO 04008KT 4SM 14/05 A3021 RMK 60000 SLP237 T01430054 52026 IEM_DS3505
ZGSZ,2001-11-14 13:00,ZGSZ 141300Z AUTO 36010KT 3SM 13/07 A3024 RMK T01300070 IEM_DS3505
ZGSZ,2001-11-14 14:00,ZGSZ 141400Z AUTO 01006KT 2 1/2SM 13/07 A3024 RMK T01300070 IEM_DS3505
ZGSZ,2001-11-14 15:00,ZGSZ 141500Z AUTO 35004KT 3SM 13/06 A3024 RMK T01300060 IEM_DS3505
ZGSZ,2001-11-14 16:00,ZGSZ 141600Z AUTO 36004KT 13/05 A3024 RMK T01300050 IEM_DS3505
ZGSZ,2001-11-14 17:00,ZGSZ 141700Z AUTO 36006KT 13/06 A3024 RMK T01300060 IEM_DS3505
ZGSZ,2001-11-14 18:00,ZGSZ 141800Z AUTO 07008KT 11SM 13/05 A3024 RMK 60002 SLP242 T01320050 57012 IEM_DS3505
ZGSZ,2001-11-14 19:00,ZGSZ 141900Z AUTO 36006KT 4SM 12/07 A3021 RMK T01200070 IEM_DS3505
ZGSZ,2001-11-14 20:00,ZGSZ 142000Z AUTO 36006KT 4SM 12/07 A3018 RMK T01200070 IEM_DS3505
ZGSZ,2001-11-14 21:00,ZGSZ 142100Z AUTO 02006KT 9SM 13/06 A3015 RMK 70007 SLP230 T01260060 57013 IEM_DS3505
ZGSZ,2001-11-14 22:00,ZGSZ 142200Z AUTO 36008KT 7SM 13/06 A3018 RMK T01300060 IEM_DS3505
ZGSZ,2001-11-14 23:00,ZGSZ 142300Z AUTO 36006KT 7SM 13/05 A3021 RMK T01300050 IEM_DS3505
ZGSZ,2001-11-15 00:00,ZGSZ 150000Z AUTO 04006KT 12SM 14/03 A3021 RMK 60002 SLP243 T01360027 52013 IEM_DS3505
ZGSZ,2001-11-15 01:00,ZGSZ 150100Z AUTO 01008KT 6SM 14/03 A3024 RMK T01400030 IEM_DS3505
ZGSZ,2001-11-15 02:00,ZGSZ 150200Z AUTO 01006KT 7SM 15/02 A3024 RMK T01500020 IEM_DS3505
ZGSZ,2001-11-15 03:00,ZGSZ 150300Z AUTO 04010KT 11SM 16/01 A3021 RMK SLP237 T01570006 57005 IEM_DS3505
ZGSZ,2001-11-15 04:00,ZGSZ 150400Z AUTO 36010KT 6SM 17/01 A3018 RMK T01700010 IEM_DS3505
ZGSZ,2001-11-15 05:00,ZGSZ 150500Z AUTO 36010KT 6SM 18/00 A3015 RMK T01800000 IEM_DS3505
ZGSZ,2001-11-15 06:00,ZGSZ 150600Z AUTO 04012KT 12SM 18/00 A3012 RMK SLP203 T01840005 57034 IEM_DS3505
ZGSZ,2001-11-15 07:00,ZGSZ 150700Z AUTO 01014KT 6SM 19/M01 A3009 RMK T01901010 IEM_DS3505
ZGSZ,2001-11-15 08:00,ZGSZ 150800Z AUTO 02016KT 6SM 19/M01 A3009 RMK T01901010 IEM_DS3505
ZGSZ,2001-11-15 09:00,ZGSZ 150900Z AUTO 04006KT 9SM 18/02 A3012 RMK SLP203 T01830023 54000 IEM_DS3505
ZGSZ,2001-11-15 10:00,ZGSZ 151000Z AUTO 01010KT 6SM 18/00 A3012 RMK T01800000 IEM_DS3505
ZGSZ,2001-11-15 11:00,ZGSZ 151100Z AUTO 01010KT 6SM 18/M01 A3015 RMK T01801010 IEM_DS3505
ZGSZ,2001-11-15 12:00,ZGSZ 151200Z AUTO 04008KT 7SM 18/01 A3018 RMK SLP228 T01750009 52025 IEM_DS3505
ZGSZ,2001-11-15 13:00,ZGSZ 151300Z AUTO 02008KT 6SM 17/M01 A3018 RMK T01701010 IEM_DS3505
ZGSZ,2001-11-15 14:00,ZGSZ 151400Z AUTO 02008KT 6SM 16/M02 A3021 RMK T01601020 IEM_DS3505
ZGSZ,2001-11-15 15:00,ZGSZ 151500Z AUTO 01010KT 6SM 14/M01 A3021 RMK T01401010 IEM_DS3505
ZGSZ,2001-11-15 16:00,ZGSZ 151600Z AUTO 36004KT 6SM 14/M01 A3021 RMK T01401010 IEM_DS3505
ZGSZ,2001-11-15 17:00,ZGSZ 151700Z AUTO 34004KT 6SM 13/01 A3021 RMK T01300010 IEM_DS3505
ZGSZ,2001-11-15 18:00,ZGSZ 151800Z AUTO 04008KT 12SM 15/01 A3018 RMK SLP227 T01510006 57004 IEM_DS3505
ZGSZ,2001-11-15 19:00,ZGSZ 151900Z AUTO 01010KT 6SM 12/01 A3018 RMK T01200010 IEM_DS3505
ZGSZ,2001-11-15 20:00,ZGSZ 152000Z AUTO 36010KT 6SM 12/01 A3015 RMK T01200010 IEM_DS3505
ZGSZ,2001-11-15 21:00,ZGSZ 152100Z AUTO 04008KT 16SM 14/00 A3015 RMK 70003 SLP218 T01440001 57009 IEM_DS3505
ZGSZ,2001-11-15 22:00,ZGSZ 152200Z AUTO 35004KT 6SM 12/00 A3015 RMK T01200000 IEM_DS3505
ZGSZ,2001-11-15 23:00,ZGSZ 152300Z AUTO 36006KT 6SM 11/01 A3015 RMK T01100010 IEM_DS3505
ZGSZ,2001-11-16 00:00,ZGSZ 160000Z AUTO 04008KT 16SM 14/00 A3018 RMK SLP229 T01440001 52011 IEM_DS3505
ZGSZ,2001-11-16 01:00,ZGSZ 160100Z AUTO 07004KT 6SM 17/M02 A3018 RMK T01701020 IEM_DS3505
ZGSZ,2001-11-16 02:00,ZGSZ 160200Z AUTO 36006KT 6SM 18/M04 A3018 RMK T01801040 IEM_DS3505
ZGSZ,2001-11-16 03:00,ZGSZ 160300Z AUTO 36008KT 16SM 18/02 A3018 RMK SLP225 T01840018 57004 IEM_DS3505
ZGSZ,2001-11-16 04:00,ZGSZ 160400Z AUTO 03010KT 6SM 21/M07 A3015 RMK T02101070 IEM_DS3505
ZGSZ,2001-11-16 05:00,ZGSZ 160500Z AUTO 36010KT 6SM 22/M06 A3012 RMK T02201060 IEM_DS3505
ZGSZ,2001-11-16 06:00,ZGSZ 160600Z AUTO 07008KT 17SM 22/00 A3009 RMK SLP194 T02250003 57031 IEM_DS3505
ZGSZ,2001-11-16 07:00,ZGSZ 160700Z AUTO 36006KT 6SM 23/M04 A3006 RMK T02301040 IEM_DS3505
ZGSZ,2001-11-16 08:00,ZGSZ 160800Z AUTO 01012KT 6SM 23/M05 A3009 RMK T02301050 IEM_DS3505
ZGSZ,2001-11-16 09:00,ZGSZ 160900Z AUTO 04006KT 17SM 23/01 A3009 RMK SLP197 T02270011 52003 IEM_DS3505
ZGSZ,2001-11-16 10:00,ZGSZ 161000Z AUTO 01006KT 6SM 19/M02 A3009 RMK T01901020 IEM_DS3505
ZGSZ,2001-11-16 11:00,ZGSZ 161100Z AUTO 32002KT 18/01 A3012 RMK T01800010 IEM_DS3505
ZGSZ,2001-11-16 12:00,ZGSZ 161200Z AUTO 04004KT 8SM 19/05 A3012 RMK SLP217 T01880047 52020 IEM_DS3505
ZGSZ,2001-11-16 13:00,ZGSZ 161300Z AUTO 01004KT 5SM 18/00 A3015 RMK T01800000 IEM_DS3505
ZGSZ,2001-11-16 14:00,ZGSZ 161400Z AUTO 05002KT 3SM 16/05 A3015 RMK T01600050 IEM_DS3505
ZGSZ,2001-11-16 15:00,ZGSZ 161500Z AUTO 36004KT 16/03 A3015 RMK T01600030 IEM_DS3505
ZGSZ,2001-11-16 16:00,ZGSZ 161600Z AUTO 04002KT 15/03 A3015 RMK T01500030 IEM_DS3505
ZGSZ,2001-11-16 17:00,ZGSZ 161700Z AUTO 13002KT 15/03 A3015 RMK T01500030 IEM_DS3505
ZGSZ,2001-11-16 18:00,ZGSZ 161800Z AUTO 04004KT 12SM 17/03 A3015 RMK SLP222 T01680033 57002 IEM_DS3505
ZGSZ,2001-11-16 19:00,ZGSZ 161900Z AUTO 36002KT 6SM 12/03 A3015 RMK T01200030 IEM_DS3505
ZGSZ,2001-11-16 20:00,ZGSZ 162000Z AUTO 13002KT 6SM 13/03 A3015 RMK T01300030 IEM_DS3505
ZGSZ,2001-11-16 21:00,ZGSZ 162100Z AUTO 04006KT 12SM 16/03 A3015 RMK SLP221 T01580030 57001 IEM_DS3505
ZGSZ,2001-11-16 22:00,ZGSZ 162200Z AUTO 36002KT 6SM 12/02 A3015 RMK T01200020 IEM_DS3505
ZGSZ,2001-11-16 23:00,ZGSZ 162300Z AUTO 34006KT 6SM 12/03 A3018 RMK T01200030 IEM_DS3505
ZGSZ,2001-11-17 00:00,ZGSZ 170000Z AUTO 04010KT 16SM 16/01 A3021 RMK SLP235 T01560007 52014 IEM_DS3505
ZGSZ,2001-11-17 01:00,ZGSZ 170100Z AUTO 35008KT 6SM 16/03 A3021 RMK T01600030 IEM_DS3505
ZGSZ,2001-11-17 02:00,ZGSZ 170200Z AUTO 35008KT 6SM 20/M02 A3021 RMK T02001020 IEM_DS3505
ZGSZ,2001-11-17 03:00,ZGSZ 170300Z AUTO 04006KT 12SM 20/02 A3021 RMK SLP232 T02000019 57003 IEM_DS3505
ZGSZ,2001-11-17 04:00,ZGSZ 170400Z AUTO 03008KT 6SM 23/M03 A3015 RMK T02301030 IEM_DS3505
ZGSZ,2001-11-17 05:00,ZGSZ 170500Z AUTO 36008KT 6SM 24/M03 A3012 RMK T02401030 IEM_DS3505
ZGSZ,2001-11-17 06:00,ZGSZ 170600Z AUTO 09012KT 17SM 25/M00 A3009 RMK SLP200 T02481003 57031 IEM_DS3505
ZGSZ,2001-11-17 07:00,ZGSZ 170700Z AUTO 01008KT 6SM 25/M03 A3006 RMK T02501030 IEM_DS3505
ZGSZ,2001-11-17 08:00,ZGSZ 170800Z AUTO 36010KT 6SM 25/M03 A3006 RMK T02501030 IEM_DS3505
ZGSZ,2001-11-17 09:00,ZGSZ 170900Z AUTO 07006KT 17SM 24/03 A3006 RMK SLP193 T02400029 57007 IEM_DS3505
ZGSZ,2001-11-17 10:00,ZGSZ 171000Z AUTO 02006KT 6SM 21/00 A3009 RMK T02100000 IEM_DS3505
ZGSZ,2001-11-17 12:00,ZGSZ 171200Z AUTO 09006KT 9SM 20/08 A3012 RMK SLP214 T01960082 52020 IEM_DS3505
ZGSZ,2001-11-17 13:00,ZGSZ 171300Z AUTO 14004KT 3SM 17/04 A3012 RMK T01700040 IEM_DS3505
ZGSZ,2001-11-17 14:00,ZGSZ 171400Z AUTO 13004KT 2 1/2SM 16/05 A3015 RMK T01600050 IEM_DS3505
ZGSZ,2001-11-17 15:00,ZGSZ 171500Z AUTO 09004KT 2 1/2SM 17/04 A3015 RMK T01700040 IEM_DS3505
ZGSZ,2001-11-17 16:00,ZGSZ 171600Z AUTO 10002KT 2SM 15/04 A3018 RMK T01500040 IEM_DS3505
ZGSZ,2001-11-17 17:00,ZGSZ 171700Z AUTO 01002KT 2SM 16/06 A3018 RMK T01600060 IEM_DS3505
ZGSZ,2001-11-17 18:00,ZGSZ 171800Z AUTO 04004KT 4SM 17/11 A3015 RMK SLP225 T01690107 57003 IEM_DS3505
ZGSZ,2001-11-17 21:00,ZGSZ 172100Z AUTO 04008KT 9SM 16/06 A3015 RMK SLP224 T01620064 57002 IEM_DS3505
ZGSZ,2001-11-17 22:00,ZGSZ 172200Z AUTO 34004KT 14/06 A3015 RMK T01400060 IEM_DS3505
ZGSZ,2001-11-17 23:00,ZGSZ 172300Z AUTO 36002KT 12/05 A3018 RMK T01200050 IEM_DS3505
ZGSZ,2001-11-18 00:00,ZGSZ 180000Z AUTO 07004KT 12SM 16/05 A3018 RMK SLP231 T01610049 52007 IEM_DS3505
ZGSZ,2001-11-18 01:00,ZGSZ 180100Z AUTO 36004KT 18/03 A3021 RMK T01800030 IEM_DS3505
ZGSZ,2001-11-18 02:00,ZGSZ 180200Z AUTO 01008KT 9SM 20/02 A3021 RMK T02000020 IEM_DS3505
ZGSZ,2001-11-18 03:00,ZGSZ 180300Z AUTO 04008KT 9SM 20/04 A3018 RMK SLP231 T02020042 54000 IEM_DS3505
ZGSZ,2001-11-18 04:00,ZGSZ 180400Z AUTO 02008KT 6SM 23/01 A3015 RMK T02300010 IEM_DS3505
ZGSZ,2001-11-18 05:00,ZGSZ 180500Z AUTO 36008KT 6SM 24/00 A3012 RMK T02400000 IEM_DS3505
ZGSZ,2001-11-18 06:00,ZGSZ 180600Z AUTO 07004KT 16SM 25/05 A3009 RMK SLP205 T02470046 57025 IEM_DS3505
ZGSZ,2001-11-18 07:00,ZGSZ 180700Z AUTO 02010KT 6SM 25/00 A3009 RMK T02500000 IEM_DS3505
ZGSZ,2001-11-18 08:00,ZGSZ 180800Z AUTO 36010KT 6SM 25/01 A3009 RMK T02500010 IEM_DS3505
ZGSZ,2001-11-18 09:00,ZGSZ 180900Z AUTO 04004KT 14SM 24/07 A3009 RMK SLP201 T02430069 57004 IEM_DS3505
ZGSZ,2001-11-18 10:00,ZGSZ 181000Z AUTO 04004KT 6SM 21/03 A3012 RMK T02100030 IEM_DS3505
ZGSZ,2001-11-18 11:00,ZGSZ 181100Z AUTO 36004KT 6SM 19/06 A3012 RMK T01900060 IEM_DS3505
ZGSZ,2001-11-18 12:00,ZGSZ 181200Z AUTO 04004KT 9SM 20/08 A3012 RMK SLP211 T02030075 52009 IEM_DS3505
ZGSZ,2001-11-18 13:00,ZGSZ 181300Z AUTO 36006KT 6SM 16/05 A3015 RMK T01600050 IEM_DS3505
ZGSZ,2001-11-18 14:00,ZGSZ 181400Z AUTO 04006KT 6SM 17/03 A3015 RMK T01700030 IEM_DS3505
ZGSZ,2001-11-18 15:00,ZGSZ 181500Z AUTO 05010KT 6SM 17/02 A3015 RMK T01700020 IEM_DS3505
ZGSZ,2001-11-18 16:00,ZGSZ 181600Z AUTO 04010KT 6SM 18/01 A3015 RMK T01800010 IEM_DS3505
ZGSZ,2001-11-18 17:00,ZGSZ 181700Z AUTO 03012KT 6SM 15/03 A3015 RMK T01500030 IEM_DS3505
ZGSZ,2001-11-18 18:00,ZGSZ 181800Z AUTO 04008KT 9SM 18/03 A3015 RMK SLP219 T01850027 57002 IEM_DS3505
ZGSZ,2001-11-18 21:00,ZGSZ 182100Z AUTO 02006KT 9SM 17/03 RMK SLP219 T01700034 54000 IEM_DS3505
ZGSZ,2001-11-18 23:00,ZGSZ 182300Z AUTO 32006KT 6SM 13/03 A3018 RMK T01300030 IEM_DS3505
ZGSZ,2001-11-19 00:00,ZGSZ 190000Z AUTO 04008KT 11SM 16/04 RMK SLP227 T01630041 52007 IEM_DS3505
ZGSZ,2001-11-19 03:00,ZGSZ 190300Z AUTO 04008KT 12SM 20/02 RMK SLP228 T02050025 52001 IEM_DS3505
ZGSZ,2001-11-19 04:00,ZGSZ 190400Z AUTO 36012KT 6SM 23/M02 A3015 RMK T02301020 IEM_DS3505
ZGSZ,2001-11-19 05:00,ZGSZ 190500Z AUTO 02010KT 6SM 24/M05 A3012 RMK T02401050 IEM_DS3505
ZGSZ,2001-11-19 06:00,ZGSZ 190600Z AUTO 04008KT 19SM 24/00 A3009 RMK SLP198 T02380003 57029 IEM_DS3505
ZGSZ,2001-11-19 07:00,ZGSZ 190700Z AUTO 02008KT 6SM 24/M02 A3006 RMK T02401020 IEM_DS3505
ZGSZ,2001-11-19 08:00,ZGSZ 190800Z AUTO 02008KT 6SM 24/M02 A3006 RMK T02401020 IEM_DS3505
ZGSZ,2001-11-19 09:00,ZGSZ 190900Z AUTO 04008KT 17SM 23/02 A3006 RMK SLP195 T02330016 57003 IEM_DS3505
ZGSZ,2001-11-19 10:00,ZGSZ 191000Z AUTO 04006KT 6SM 20/02 A3009 RMK T02000020 IEM_DS3505
ZGSZ,2001-11-19 11:00,ZGSZ 191100Z AUTO 05004KT 6SM 20/00 A3012 RMK T02000000 IEM_DS3505
ZGSZ,2001-11-19 12:00,ZGSZ 191200Z AUTO 09002KT 9SM 20/10 A3012 RMK SLP222 T02020098 52026 IEM_DS3505
ZGSZ,2001-11-19 13:00,ZGSZ 191300Z AUTO 36004KT 6SM 17/04 A3015 RMK T01700040 IEM_DS3505
ZGSZ,2001-11-19 14:00,ZGSZ 191400Z AUTO 09002KT 6SM 16/03 A3018 RMK T01600030 IEM_DS3505
ZGSZ,2001-11-19 15:00,ZGSZ 191500Z AUTO 12004KT 6SM 16/03 A3018 RMK T01600030 IEM_DS3505
ZGSZ,2001-11-19 16:00,ZGSZ 191600Z AUTO 01004KT 6SM 16/04 A3018 RMK T01600040 IEM_DS3505
ZGSZ,2001-11-19 18:00,ZGSZ 191800Z AUTO 04006KT 7SM 18/06 A3015 RMK SLP222 T01750055 57010 IEM_DS3505
ZGSZ,2001-11-19 21:00,ZGSZ 192100Z AUTO 04006KT 7SM 16/04 A3015 RMK SLP217 T01640039 57006 IEM_DS3505
ZGSZ,2001-11-19 22:00,ZGSZ 192200Z AUTO 35006KT 6SM 13/02 A3015 RMK T01300020 IEM_DS3505
ZGSZ,2001-11-19 23:00,ZGSZ 192300Z AUTO 36006KT 6SM 13/02 A3018 RMK T01300020 IEM_DS3505
ZGSZ,2001-11-20 00:00,ZGSZ 200000Z AUTO 04008KT 10SM 16/02 A3018 RMK SLP229 T01600021 52012 IEM_DS3505
ZGSZ,2001-11-20 01:00,ZGSZ 200100Z AUTO 02004KT 3SM 17/01 A3018 RMK T01700010 IEM_DS3505
ZGSZ,2001-11-20 02:00,ZGSZ 200200Z AUTO 02008KT 7SM 20/M01 A3021 RMK T02001010 IEM_DS3505
ZGSZ,2001-11-20 03:00,ZGSZ 200300Z AUTO 32006KT 7SM 19/02 A3018 RMK SLP226 T01940019 57003 IEM_DS3505
ZGSZ,2001-11-20 04:00,ZGSZ 200400Z AUTO 03006KT 5SM 22/M01 A3015 RMK T02201010 IEM_DS3505
ZGSZ,2001-11-20 05:00,ZGSZ 200500Z AUTO 36008KT 6SM 23/M01 A3012 RMK T02301010 IEM_DS3505
ZGSZ,2001-11-20 06:00,ZGSZ 200600Z AUTO 04006KT 7SM 24/04 A3009 RMK SLP199 T02350040 57026 IEM_DS3505
ZGSZ,2001-11-20 07:00,ZGSZ 200700Z AUTO 04008KT 6SM 23/M03 A3009 RMK T02301030 IEM_DS3505
ZGSZ,2001-11-20 08:00,ZGSZ 200800Z AUTO 02008KT 6SM 23/M02 A3009 RMK T02301020 IEM_DS3505
ZGSZ,2001-11-20 09:00,ZGSZ 200900Z AUTO 04006KT 11SM 23/00 A3009 RMK SLP200 T02260001 54000 IEM_DS3505
ZGSZ,2001-11-20 10:00,ZGSZ 201000Z AUTO 03004KT 19/02 A3012 RMK T01900020 IEM_DS3505
ZGSZ,2001-11-20 11:00,ZGSZ 201100Z AUTO 05004KT 18/04 A3012 RMK T01800040 IEM_DS3505
ZGSZ,2001-11-20 12:00,ZGSZ 201200Z AUTO 04004KT 4SM 20/06 A3012 RMK SLP216 T01970063 52016 IEM_DS3505
ZGSZ,2001-11-20 13:00,ZGSZ 201300Z AUTO 17/05 A3015 RMK T01700050 IEM_DS3505
ZGSZ,2001-11-20 14:00,ZGSZ 201400Z AUTO 09004KT 16/03 A3015 RMK T01600030 IEM_DS3505
ZGSZ,2001-11-20 15:00,ZGSZ 201500Z AUTO 09006KT 5SM 15/02 A3015 RMK T01500020 IEM_DS3505
ZGSZ,2001-11-20 16:00,ZGSZ 201600Z AUTO 09006KT 5SM 15/01 A3015 RMK T01500010 IEM_DS3505
ZGSZ,2001-11-20 17:00,ZGSZ 201700Z AUTO 07006KT 5SM 17/00 A3015 RMK T01700000 IEM_DS3505
ZGSZ,2001-11-20 18:00,ZGSZ 201800Z AUTO 04004KT 5SM 17/06 A3015 RMK SLP215 T01690058 57011 IEM_DS3505
ZGSZ,2001-11-20 19:00,ZGSZ 201900Z AUTO 10004KT 5SM 16/M03 A3012 RMK T01601030 IEM_DS3505
ZGSZ,2001-11-20 20:00,ZGSZ 202000Z AUTO 35006KT 5SM 14/00 A3012 RMK T01400000 IEM_DS3505
ZGSZ,2001-11-20 21:00,ZGSZ 202100Z AUTO 04006KT 7SM 16/03 A3012 RMK SLP209 T01600033 57007 IEM_DS3505
ZGSZ,2001-11-20 22:00,ZGSZ 202200Z AUTO 34006KT 6SM 14/00 A3012 RMK T01400000 IEM_DS3505
ZGSZ,2001-11-20 23:00,ZGSZ 202300Z AUTO 35006KT 6SM 13/01 A3015 RMK T01300010 IEM_DS3505
ZGSZ,2001-11-21 00:00,ZGSZ 210000Z AUTO 04008KT 10SM 16/01 A3015 RMK SLP225 T01560011 52016 IEM_DS3505
ZGSZ,2001-11-21 01:00,ZGSZ 210100Z AUTO 05004KT 5SM 18/00 A3018 RMK T01800000 IEM_DS3505
ZGSZ,2001-11-21 02:00,ZGSZ 210200Z AUTO 06006KT 6SM 20/00 A3018 RMK T02000000 IEM_DS3505
ZGSZ,2001-11-21 03:00,ZGSZ 210300Z AUTO 04010KT 11SM 19/03 A3015 RMK SLP225 T01940032 54000 IEM_DS3505
ZGSZ,2001-11-21 04:00,ZGSZ 210400Z AUTO 03006KT 6SM 23/M01 A3015 RMK T02301010 IEM_DS3505
ZGSZ,2001-11-21 05:00,ZGSZ 210500Z AUTO 03008KT 6SM 24/M01 A3009 RMK T02401010 IEM_DS3505
ZGSZ,2001-11-21 06:00,ZGSZ 210600Z AUTO 04004KT 14SM 24/04 A3006 RMK SLP189 T02390041 57035 IEM_DS3505
ZGSZ,2001-11-21 07:00,ZGSZ 210700Z AUTO 01008KT 6SM 24/M01 A3006 RMK T02401010 IEM_DS3505
ZGSZ,2001-11-21 08:00,ZGSZ 210800Z AUTO 03008KT 6SM 24/M01 A3006 RMK T02401010 IEM_DS3505
ZGSZ,2001-11-21 09:00,ZGSZ 210900Z AUTO 04006KT 14SM 23/05 A3006 RMK SLP189 T02330052 54000 IEM_DS3505
ZGSZ,2001-11-21 10:00,ZGSZ 211000Z AUTO 03006KT 6SM 19/02 A3009 RMK T01900020 IEM_DS3505
ZGSZ,2001-11-21 11:00,ZGSZ 211100Z AUTO 04006KT 18/01 A3009 RMK T01800010 IEM_DS3505
ZGSZ,2001-11-21 12:00,ZGSZ 211200Z AUTO 09004KT 9SM 20/09 A3012 RMK SLP215 T01990094 52025 IEM_DS3505
ZGSZ,2001-11-21 13:00,ZGSZ 211300Z AUTO 09006KT 17/02 A3015 RMK T01700020 IEM_DS3505
ZGSZ,2001-11-21 15:00,ZGSZ 211500Z AUTO 3SM 17/03 A3015 RMK T01700030 IEM_DS3505
ZGSZ,2001-11-21 18:00,ZGSZ 211800Z AUTO 04004KT 4SM 17/10 A3012 RMK SLP210 T01680100 57004 IEM_DS3505
ZGSZ,2001-11-21 19:00,ZGSZ 211900Z AUTO 08002KT 3SM 14/07 A3012 RMK T01400070 IEM_DS3505
ZGSZ,2001-11-21 20:00,ZGSZ 212000Z AUTO 06004KT 3SM 13/07 A3012 RMK T01300070 IEM_DS3505
ZGSZ,2001-11-21 21:00,ZGSZ 212100Z AUTO 04004KT 3SM 16/10 A3012 RMK SLP206 T01580101 57005 IEM_DS3505
ZGSZ,2001-11-21 22:00,ZGSZ 212200Z AUTO 01004KT 5SM 14/03 A3012 RMK T01400030 IEM_DS3505
ZGSZ,2001-11-21 23:00,ZGSZ 212300Z AUTO 3SM 13/02 A3012 RMK T01300020 IEM_DS3505
ZGSZ,2001-11-22 00:00,ZGSZ 220000Z AUTO 04006KT 9SM 16/05 A3012 RMK SLP218 T01580053 52012 IEM_DS3505
ZGSZ,2001-11-22 01:00,ZGSZ 220100Z AUTO 30002KT 17/02 A3015 RMK T01700020 IEM_DS3505
ZGSZ,2001-11-22 02:00,ZGSZ 220200Z AUTO 02008KT 9SM 19/02 A3015 RMK T01900020 IEM_DS3505
ZGSZ,2001-11-22 03:00,ZGSZ 220300Z AUTO 07006KT 9SM 20/05 A3012 RMK SLP215 T01990049 57003 IEM_DS3505
ZGSZ,2001-11-22 04:00,ZGSZ 220400Z AUTO 05004KT 23/00 A3012 RMK T02300000 IEM_DS3505
ZGSZ,2001-11-22 05:00,ZGSZ 220500Z AUTO 24004KT 23/00 A3006 RMK T02300000 IEM_DS3505
ZGSZ,2001-11-22 06:00,ZGSZ 220600Z AUTO 11004KT 10SM 24/05 A3003 RMK SLP178 T02440047 57036 IEM_DS3505
ZGSZ,2001-11-22 07:00,ZGSZ 220700Z AUTO 33008KT 5SM 24/00 A3000 RMK T02400000 IEM_DS3505
ZGSZ,2001-11-22 08:00,ZGSZ 220800Z AUTO 30010KT 5SM 23/05 A3000 RMK T02300050 IEM_DS3505
ZGSZ,2001-11-22 09:00,ZGSZ 220900Z AUTO 18002KT 11SM 23/09 A3000 RMK SLP176 T02300086 57002 IEM_DS3505
ZGSZ,2001-11-22 10:00,ZGSZ 221000Z AUTO 33004KT 3SM 20/03 A3003 RMK T02000030 IEM_DS3505
ZGSZ,2001-11-22 11:00,ZGSZ 221100Z AUTO 09004KT 2 1/2SM 19/02 A3006 RMK T01900020 IEM_DS3505
ZGSZ,2001-11-22 12:00,ZGSZ 221200Z AUTO 11004KT 8SM 20/09 A3006 RMK SLP193 T01970089 52016 IEM_DS3505
ZGSZ,2001-11-22 13:00,ZGSZ 221300Z AUTO 08004KT 1 1/2SM 18/08 A3009 RMK T01800080 IEM_DS3505
ZGSZ,2001-11-22 14:00,ZGSZ 221400Z AUTO 10004KT 2 1/2SM 17/07 A3009 RMK T01700070 IEM_DS3505
ZGSZ,2001-11-22 15:00,ZGSZ 221500Z AUTO 09006KT 3SM 17/07 A3009 RMK T01700070 IEM_DS3505
ZGSZ,2001-11-22 16:00,ZGSZ 221600Z AUTO 09006KT 3SM 15/07 A3009 RMK T01500070 IEM_DS3505
ZGSZ,2001-11-22 17:00,ZGSZ 221700Z AUTO 11002KT 3SM 15/09 A3006 RMK T01500090 IEM_DS3505
ZGSZ,2001-11-22 18:00,ZGSZ 221800Z AUTO 04004KT 3SM 17/12 A3006 RMK SLP190 T01720119 57004 IEM_DS3505
ZGSZ,2001-11-22 19:00,ZGSZ 221900Z AUTO 35002KT 3SM 15/10 A3006 RMK T01500100 IEM_DS3505
ZGSZ,2001-11-22 21:00,ZGSZ 222100Z AUTO 04004KT 3SM 16/13 A3006 RMK SLP188 T01640126 57002 IEM_DS3505
ZGSZ,2001-11-22 22:00,ZGSZ 222200Z AUTO 35002KT 2SM 14/11 A3006 RMK T01400110 IEM_DS3505
ZGSZ,2001-11-22 23:00,ZGSZ 222300Z AUTO 36004KT 2SM 13/10 A3009 RMK T01300100 IEM_DS3505
ZGSZ,2001-11-23 00:00,ZGSZ 230000Z AUTO 04006KT 3SM 16/12 A3009 RMK SLP203 T01590121 52014 IEM_DS3505
ZGSZ,2001-11-23 01:00,ZGSZ 230100Z AUTO 34004KT 2SM 17/10 A3012 RMK T01700100 IEM_DS3505
ZGSZ,2001-11-23 02:00,ZGSZ 230200Z AUTO 36004KT 2SM 19/09 A3012 RMK T01900090 IEM_DS3505
ZGSZ,2001-11-23 03:00,ZGSZ 230300Z AUTO 04008KT 5SM 19/08 A3009 RMK SLP201 T01890083 57002 IEM_DS3505
ZGSZ,2001-11-23 04:00,ZGSZ 230400Z AUTO 30006KT 2 1/2SM 21/11 A3006 RMK T02100110 IEM_DS3505
ZGSZ,2001-11-23 05:00,ZGSZ 230500Z AUTO 29010KT 2 1/2SM 22/09 A3003 RMK T02200090 IEM_DS3505
ZGSZ,2001-11-23 06:00,ZGSZ 230600Z AUTO 09006KT 5SM 24/06 A3000 RMK SLP166 T02370056 57034 IEM_DS3505
ZGSZ,2001-11-23 07:00,ZGSZ 230700Z AUTO 28010KT 23/09 A2997 RMK T02300090 IEM_DS3505
ZGSZ,2001-11-23 08:00,ZGSZ 230800Z AUTO 27006KT 5SM 22/08 A2997 RMK T02200080 IEM_DS3505
ZGSZ,2001-11-23 09:00,ZGSZ 230900Z AUTO 20002KT 5SM 23/11 A2997 RMK SLP161 T02300108 57005 IEM_DS3505
ZGSZ,2001-11-23 10:00,ZGSZ 231000Z AUTO 31002KT 5SM 20/09 A2997 RMK T02000090 IEM_DS3505
ZGSZ,2001-11-23 11:00,ZGSZ 231100Z AUTO 02002KT 3SM 18/07 A3000 RMK T01800070 IEM_DS3505
ZGSZ,2001-11-23 12:00,ZGSZ 231200Z AUTO 07004KT 4SM 20/12 A3000 RMK SLP179 T01970120 52017 IEM_DS3505
ZGSZ,2001-11-23 13:00,ZGSZ 231300Z AUTO 09004KT 2 1/2SM 18/08 A3000 RMK T01800080 IEM_DS3505
ZGSZ,2001-11-23 14:00,ZGSZ 231400Z AUTO 10004KT 1 1/4SM 15/09 A3003 RMK T01500090 IEM_DS3505
ZGSZ,2001-11-23 15:00,ZGSZ 231500Z AUTO 08002KT 2SM 16/09 A3003 RMK T01600090 IEM_DS3505
ZGSZ,2001-11-23 16:00,ZGSZ 231600Z AUTO 09006KT 3SM 15/09 A3003 RMK T01500090 IEM_DS3505
ZGSZ,2001-11-23 17:00,ZGSZ 231700Z AUTO 09006KT 14/08 A3003 RMK T01400080 IEM_DS3505
ZGSZ,2001-11-23 18:00,ZGSZ 231800Z AUTO 04004KT 4SM 17/12 A3000 RMK SLP171 T01720123 57013 IEM_DS3505
ZGSZ,2001-11-23 19:00,ZGSZ 231900Z AUTO 07004KT 4SM 14/11 A3000 RMK T01400110 IEM_DS3505
ZGSZ,2001-11-23 20:00,ZGSZ 232000Z AUTO 09002KT 4SM 13/10 A3000 RMK T01300100 IEM_DS3505
ZGSZ,2001-11-23 21:00,ZGSZ 232100Z AUTO 04006KT 3SM 16/12 A3000 RMK SLP166 T01600124 57005 IEM_DS3505
ZGSZ,2001-11-23 22:00,ZGSZ 232200Z AUTO 08002KT 3SM 14/10 A3000 RMK T01400100 IEM_DS3505
ZGSZ,2001-11-23 23:00,ZGSZ 232300Z AUTO 35002KT 1 1/4SM 13/10 A3003 RMK T01300100 IEM_DS3505
ZGSZ,2001-11-24 00:00,ZGSZ 240000Z AUTO 04004KT 2 1/2SM 16/13 A3003 RMK SLP183 T01570126 52016 IEM_DS3505
ZGSZ,2001-11-24 01:00,ZGSZ 240100Z AUTO 23002KT 2SM 17/ A3006 RMK IEM_DS3505
ZGSZ,2001-11-24 02:00,ZGSZ 240200Z AUTO 22002KT 2SM 20/11 A3006 RMK T02000110 IEM_DS3505
ZGSZ,2001-11-24 03:00,ZGSZ 240300Z AUTO 09002KT 3SM 20/12 A3003 RMK SLP177 T01990116 57005 IEM_DS3505
ZGSZ,2001-11-24 04:00,ZGSZ 240400Z AUTO 23006KT 3SM 23/08 A3000 RMK T02300080 IEM_DS3505
ZGSZ,2001-11-24 05:00,ZGSZ 240500Z AUTO 30010KT 3SM 23/10 A2997 RMK T02300100 IEM_DS3505
ZGSZ,2001-11-24 06:00,ZGSZ 240600Z AUTO 36006KT 4SM 25/09 A2991 RMK SLP140 T02470086 57037 IEM_DS3505
ZGSZ,2001-11-24 07:00,ZGSZ 240700Z AUTO 28008KT 2 1/2SM 23/10 A2991 RMK T02300100 IEM_DS3505
ZGSZ,2001-11-24 08:00,ZGSZ 240800Z AUTO 29006KT 6SM 23/06 A2988 RMK T02300060 IEM_DS3505
ZGSZ,2001-11-24 09:00,ZGSZ 240900Z AUTO 36004KT 6SM 24/07 A2991 RMK SLP135 T02400067 57005 IEM_DS3505
ZGSZ,2001-11-24 10:00,ZGSZ 241000Z AUTO 32002KT 2 1/2SM 20/09 A2991 RMK T02000090 IEM_DS3505
ZGSZ,2001-11-24 11:00,ZGSZ 241100Z AUTO 36002KT 2 1/2SM 18/09 A2991 RMK T01800090 IEM_DS3505
ZGSZ,2001-11-24 12:00,ZGSZ 241200Z AUTO 00000KT 4SM 20/11 A2994 RMK SLP153 T02020107 52017 IEM_DS3505
ZGSZ,2001-11-24 13:00,ZGSZ 241300Z AUTO 07004KT 2SM 16/07 A2994 RMK T01600070 IEM_DS3505
ZGSZ,2001-11-24 14:00,ZGSZ 241400Z AUTO 06004KT 2 1/2SM 16/08 A2994 RMK T01600080 IEM_DS3505
ZGSZ,2001-11-24 15:00,ZGSZ 241500Z AUTO 05004KT 2SM 15/09 A2997 RMK T01500090 IEM_DS3505
ZGSZ,2001-11-24 16:00,ZGSZ 241600Z AUTO 09004KT 2SM 14/08 A2994 RMK T01400080 IEM_DS3505
ZGSZ,2001-11-24 17:00,ZGSZ 241700Z AUTO 09004KT 2SM 14/05 A2994 RMK T01400050 IEM_DS3505
ZGSZ,2001-11-24 18:00,ZGSZ 241800Z AUTO 04006KT 3SM 17/11 A2994 RMK SLP154 T01740107 57003 IEM_DS3505
ZGSZ,2001-11-24 21:00,ZGSZ 242100Z AUTO 04006KT 2SM 16/10 A2994 RMK SLP148 T01640104 57006 IEM_DS3505
ZGSZ,2001-11-24 22:00,ZGSZ 242200Z AUTO 2SM 13/08 A2994 RMK T01300080 IEM_DS3505
ZGSZ,2001-11-24 23:00,ZGSZ 242300Z AUTO 09006KT 2 1/2SM 14/08 A2997 RMK T01400080 IEM_DS3505
ZGSZ,2001-11-25 00:00,ZGSZ 250000Z AUTO 04004KT 3SM 16/12 A2997 RMK SLP166 T01620122 52017 IEM_DS3505
ZGSZ,2001-11-25 01:00,ZGSZ 250100Z AUTO 10002KT 2SM 18/10 A3000 RMK T01800100 IEM_DS3505
ZGSZ,2001-11-25 02:00,ZGSZ 250200Z AUTO 28004KT 2SM 20/11 A3000 RMK T02000110 IEM_DS3505
ZGSZ,2001-11-25 03:00,ZGSZ 250300Z AUTO 07004KT 3SM 21/12 A3000 RMK SLP168 T02080123 52003 IEM_DS3505
ZGSZ,2001-11-25 04:00,ZGSZ 250400Z AUTO 22004KT 3SM 24/05 A2997 RMK T02400050 IEM_DS3505
ZGSZ,2001-11-25 05:00,ZGSZ 250500Z AUTO 26006KT 3SM 25/05 A2994 RMK T02500050 IEM_DS3505
ZGSZ,2001-11-25 06:00,ZGSZ 250600Z AUTO 07002KT 7SM 26/10 A2991 RMK SLP143 T02580100 57025 IEM_DS3505
ZGSZ,2001-11-25 07:00,ZGSZ 250700Z AUTO 29008KT 24/09 A2991 RMK T02400090 IEM_DS3505
ZGSZ,2001-11-25 08:00,ZGSZ 250800Z AUTO 01006KT 25/05 A2991 RMK T02500050 IEM_DS3505
ZGSZ,2001-11-25 09:00,ZGSZ 250900Z AUTO 14004KT 12SM 24/09 A2994 RMK SLP148 T02380091 52005 IEM_DS3505
ZGSZ,2001-11-25 10:00,ZGSZ 251000Z AUTO 10002KT 3SM 22/07 A2997 RMK T02200070 IEM_DS3505
ZGSZ,2001-11-25 11:00,ZGSZ 251100Z AUTO 13004KT 1 1/2SM 18/11 A3000 RMK T01800110 IEM_DS3505
ZGSZ,2001-11-25 12:00,ZGSZ 251200Z AUTO 14006KT 6SM 20/10 A3000 RMK SLP177 T02050097 52028 IEM_DS3505
ZGSZ,2001-11-25 13:00,ZGSZ 251300Z AUTO 09004KT 1 1/2SM 19/06 A3003 RMK T01900060 IEM_DS3505
ZGSZ,2001-11-25 14:00,ZGSZ 251400Z AUTO 09006KT 2 1/2SM 19/07 A3006 RMK T01900070 IEM_DS3505
ZGSZ,2001-11-25 15:00,ZGSZ 251500Z AUTO 13004KT 3SM 17/06 A3006 RMK T01700060 IEM_DS3505
ZGSZ,2001-11-25 16:00,ZGSZ 251600Z AUTO 09004KT 3SM 17/07 A3006 RMK T01700070 IEM_DS3505
ZGSZ,2001-11-25 17:00,ZGSZ 251700Z AUTO 13002KT 2 1/2SM 16/07 A3009 RMK T01600070 IEM_DS3505
ZGSZ,2001-11-25 18:00,ZGSZ 251800Z AUTO 02004KT 5SM 18/11 A3006 RMK SLP191 T01800112 57003 IEM_DS3505
ZGSZ,2001-11-25 21:00,ZGSZ 252100Z AUTO 04004KT 5SM 17/10 A3009 RMK SLP193 T01700104 52002 IEM_DS3505
ZGSZ,2001-11-25 22:00,ZGSZ 252200Z AUTO 32002KT 15/07 A3009 RMK T01500070 IEM_DS3505
ZGSZ,2001-11-25 23:00,ZGSZ 252300Z AUTO 04002KT 5SM 16/07 A3012 RMK T01600070 IEM_DS3505
ZGSZ,2001-11-26 00:00,ZGSZ 260000Z AUTO 04004KT 5SM 17/10 A3015 RMK SLP218 T01670105 52024 IEM_DS3505
ZGSZ,2001-11-26 01:00,ZGSZ 260100Z AUTO 03002KT 19/08 A3015 RMK T01900080 IEM_DS3505
ZGSZ,2001-11-26 02:00,ZGSZ 260200Z AUTO 06004KT 6SM 21/06 A3015 RMK T02100060 IEM_DS3505
ZGSZ,2001-11-26 03:00,ZGSZ 260300Z AUTO 07004KT 6SM 21/08 A3015 RMK SLP218 T02080082 52001 IEM_DS3505
ZGSZ,2001-11-26 04:00,ZGSZ 260400Z AUTO 07006KT 5SM 24/06 A3012 RMK T02400060 IEM_DS3505
ZGSZ,2001-11-26 05:00,ZGSZ 260500Z AUTO 10006KT 6SM 25/02 A3009 RMK T02500020 IEM_DS3505
ZGSZ,2001-11-26 06:00,ZGSZ 260600Z AUTO 09006KT 6SM 25/07 A3006 RMK SLP189 T02540070 57029 IEM_DS3505
ZGSZ,2001-11-26 07:00,ZGSZ 260700Z AUTO 25004KT 6SM 26/01 A3003 RMK T02600010 IEM_DS3505
ZGSZ,2001-11-26 08:00,ZGSZ 260800Z AUTO 26006KT 6SM 23/09 A3006 RMK T02300090 IEM_DS3505
ZGSZ,2001-11-26 09:00,ZGSZ 260900Z AUTO 14004KT 6SM 24/09 A3006 RMK SLP191 T02420094 52002 IEM_DS3505
ZGSZ,2001-11-26 10:00,ZGSZ 261000Z AUTO 3SM 20/14 A3006 RMK T02000140 IEM_DS3505
ZGSZ,2001-11-26 11:00,ZGSZ 261100Z AUTO 17006KT 3SM 19/11 A3009 RMK T01900110 IEM_DS3505
ZGSZ,2001-11-26 12:00,ZGSZ 261200Z AUTO 11004KT 5SM 20/15 A3012 RMK SLP214 T02010154 52022 IEM_DS3505
ZGSZ,2001-11-26 13:00,ZGSZ 261300Z AUTO 11004KT 2SM 19/10 A3012 RMK T01900100 IEM_DS3505
ZGSZ,2001-11-26 14:00,ZGSZ 261400Z 09003MPS 4000 HZ SKC 17/11 Q1021 NOSIG
ZGSZ,2001-11-26 15:00,ZGSZ 261500Z 09003MPS 5000 HZ SKC 18/12 Q1021 NOSIG
ZGSZ,2001-11-26 16:00,ZGSZ 261600Z AUTO 10004KT 3SM 18/13 A3015 RMK T01800130 IEM_DS3505
ZGSZ,2001-11-26 17:00,ZGSZ 261700Z AUTO 10006KT 3SM 17/12 A3015 RMK T01700120 IEM_DS3505
ZGSZ,2001-11-26 18:00,ZGSZ 261800Z AUTO 09004KT 3SM 19/15 A3012 RMK SLP208 T01890148 57014 IEM_DS3505
ZGSZ,2001-11-26 19:00,ZGSZ 261900Z AUTO 09002KT 4SM 16/13 A3012 RMK T01600130 IEM_DS3505
ZGSZ,2001-11-26 20:00,ZGSZ 262000Z AUTO 08004KT 4SM 16/12 A3009 RMK T01600120 IEM_DS3505
ZGSZ,2001-11-26 21:00,ZGSZ 262100Z AUTO 04006KT 3SM 18/13 A3009 RMK SLP202 T01830134 57006 IEM_DS3505
ZGSZ,2001-11-26 22:00,ZGSZ 262200Z AUTO 07002KT 4SM 16/12 A3009 RMK T01600120 IEM_DS3505
ZGSZ,2001-11-26 23:00,ZGSZ 262300Z AUTO 10006KT 2 1/2SM 15/11 A3012 RMK T01500110 IEM_DS3505
ZGSZ,2001-11-27 00:00,ZGSZ 270000Z AUTO 04004KT 4SM 17/13 A3015 RMK SLP220 T01710134 52017 IEM_DS3505
ZGSZ,2001-11-27 01:00,ZGSZ 270100Z AUTO 22002KT 3SM 19/11 A3015 RMK T01900110 IEM_DS3505
ZGSZ,2001-11-27 02:00,ZGSZ 270200Z AUTO 07008KT 9SM 22/10 A3015 RMK T02200100 IEM_DS3505
ZGSZ,2001-11-27 03:00,ZGSZ 270300Z AUTO 14006KT 9SM 22/10 A3015 RMK SLP220 T02150099 52001 IEM_DS3505
ZGSZ,2001-11-27 04:00,ZGSZ 270400Z AUTO 12006KT 5SM 24/07 A3012 RMK T02400070 IEM_DS3505
ZGSZ,2001-11-27 05:00,ZGSZ 270500Z AUTO 21006KT 6SM 23/10 A3009 RMK T02300100 IEM_DS3505
ZGSZ,2001-11-27 06:00,ZGSZ 270600Z AUTO 04004KT 17SM 24/08 A3006 RMK SLP191 T02440084 57029 IEM_DS3505
ZGSZ,2001-11-27 07:00,ZGSZ 270700Z AUTO 21008KT 6SM 24/13 A3003 RMK T02400130 IEM_DS3505
ZGSZ,2001-11-27 08:00,ZGSZ 270800Z AUTO 22006KT 6SM 23/13 A3003 RMK T02300130 IEM_DS3505
ZGSZ,2001-11-27 09:00,ZGSZ 270900Z AUTO 11006KT 16SM 23/12 A3003 RMK SLP184 T02300123 57007 IEM_DS3505
ZGSZ,2001-11-27 10:00,ZGSZ 271000Z AUTO 13006KT 5SM 22/11 A3003 RMK T02200110 IEM_DS3505
ZGSZ,2001-11-27 11:00,ZGSZ 271100Z AUTO 06004KT 3SM 22/08 A3003 RMK T02200080 IEM_DS3505
ZGSZ,2001-11-27 12:00,ZGSZ 271200Z AUTO 09006KT 5SM 20/16 A3006 RMK SLP192 T02030156 52007 IEM_DS3505
ZGSZ,2001-11-27 13:00,ZGSZ 271300Z AUTO 09004KT 3SM 20/09 A3006 RMK T02000090 IEM_DS3505
ZGSZ,2001-11-27 14:00,ZGSZ 271400Z AUTO 09004KT 2 1/2SM 19/12 A3006 RMK T01900120 IEM_DS3505
ZGSZ,2001-11-27 15:00,ZGSZ 271500Z AUTO 08004KT 2 1/2SM 19/13 A3006 RMK T01900130 IEM_DS3505
ZGSZ,2001-11-27 16:00,ZGSZ 271600Z AUTO 08004KT 3SM 19/13 A3006 RMK T01900130 IEM_DS3505
ZGSZ,2001-11-27 17:00,ZGSZ 271700Z AUTO 10004KT 3SM 19/13 A3006 RMK T01900130 IEM_DS3505
ZGSZ,2001-11-27 18:00,ZGSZ 271800Z AUTO 07006KT 8SM 20/14 A3003 RMK SLP183 T01980143 57013 IEM_DS3505
ZGSZ,2001-11-27 19:00,ZGSZ 271900Z AUTO 10004KT 3SM 20/11 A3000 RMK T02000110 IEM_DS3505
ZGSZ,2001-11-27 20:00,ZGSZ 272000Z AUTO 09008KT 3SM 20/12 A3000 RMK T02000120 IEM_DS3505
ZGSZ,2001-11-27 21:00,ZGSZ 272100Z AUTO 07006KT 9SM 20/15 A2997 RMK SLP168 T01980151 57015 IEM_DS3505
ZGSZ,2001-11-27 22:00,ZGSZ 272200Z AUTO 08006KT 2 1/2SM 19/12 A2997 RMK T01900120 IEM_DS3505
ZGSZ,2001-11-27 23:00,ZGSZ 272300Z AUTO 09008KT 19/12 A3000 RMK T01900120 IEM_DS3505
ZGSZ,2001-11-28 00:00,ZGSZ 280000Z AUTO 09004KT 4SM 20/16 A3000 RMK SLP172 T02020159 52004 IEM_DS3505
ZGSZ,2001-11-28 01:00,ZGSZ 280100Z AUTO 10004KT 3SM 21/14 A3003 RMK T02100140 IEM_DS3505
ZGSZ,2001-11-28 02:00,ZGSZ 280200Z AUTO 09010KT 7SM 23/14 A3003 RMK T02300140 IEM_DS3505
ZGSZ,2001-11-28 03:00,ZGSZ 280300Z AUTO 04008KT 5SM 22/16 A3000 RMK SLP172 T02170157 54000 IEM_DS3505
ZGSZ,2001-11-28 04:00,ZGSZ 280400Z AUTO 10012KT 5SM 24/14 A2997 RMK T02400140 IEM_DS3505
ZGSZ,2001-11-28 05:00,ZGSZ 280500Z AUTO 11012KT 6SM 24/15 A2994 RMK T02400150 IEM_DS3505
ZGSZ,2001-11-28 06:00,ZGSZ 280600Z AUTO 14006KT 5SM 23/17 RMK SLP145 T02290167 57027 IEM_DS3505
ZGSZ,2001-11-28 07:00,ZGSZ 280700Z AUTO 11012KT 6SM 24/15 A2988 RMK T02400150 IEM_DS3505
ZGSZ,2001-11-28 08:00,ZGSZ 280800Z AUTO 10010KT 6SM 24/15 A2988 RMK T02400150 IEM_DS3505
ZGSZ,2001-11-28 09:00,ZGSZ 280900Z AUTO 09006KT 4SM 22/18 A2988 RMK SLP139 T02230177 57006 IEM_DS3505
ZGSZ,2001-11-28 10:00,ZGSZ 281000Z AUTO 10010KT 23/16 A2988 RMK T02300160 IEM_DS3505
ZGSZ,2001-11-28 11:00,ZGSZ 281100Z AUTO 22/16 A2991 RMK T02200160 IEM_DS3505
ZGSZ,2001-11-28 12:00,ZGSZ 281200Z AUTO 04006KT 4SM 21/18 A2991 RMK 60003 SLP147 T02140182 52008 IEM_DS3505
ZGSZ,2001-11-28 13:00,ZGSZ 281300Z AUTO 09008KT 22/16 A2991 RMK T02200160 IEM_DS3505
ZGSZ,2001-11-28 14:00,ZGSZ 281400Z AUTO 09006KT 4SM 21/17 A2994 RMK T02100170 IEM_DS3505
ZGSZ,2001-11-28 15:00,ZGSZ 281500Z AUTO 09008KT 4SM 22/17 A2994 RMK T02200170 IEM_DS3505
ZGSZ,2001-11-28 16:00,ZGSZ 281600Z AUTO 09008KT 4SM 21/17 A2991 RMK T02100170 IEM_DS3505
ZGSZ,2001-11-28 17:00,ZGSZ 281700Z AUTO 09006KT 4SM 21/17 A2991 RMK T02100170 IEM_DS3505
ZGSZ,2001-11-28 18:00,ZGSZ 281800Z AUTO 11004KT 4SM 22/19 A2991 RMK SLP144 T02160189 57004 IEM_DS3505
ZGSZ,2001-11-28 19:00,ZGSZ 281900Z AUTO 09006KT 4SM 22/17 A2991 RMK T02200170 IEM_DS3505
ZGSZ,2001-11-28 20:00,ZGSZ 282000Z AUTO 09006KT 4SM 22/17 A2988 RMK T02200170 IEM_DS3505
ZGSZ,2001-11-28 21:00,ZGSZ 282100Z AUTO 09006KT 4SM 22/19 A2988 RMK 70003 SLP139 T02190194 57005 IEM_DS3505
ZGSZ,2001-11-28 22:00,ZGSZ 282200Z AUTO 09006KT 4SM 22/18 A2988 RMK T02200180 IEM_DS3505
ZGSZ,2001-11-28 23:00,ZGSZ 282300Z AUTO 10008KT 7SM 22/18 A2991 RMK T02200180 IEM_DS3505
ZGSZ,2001-11-29 00:00,ZGSZ 290000Z AUTO 09006KT 4SM 22/20 A2994 RMK 60003 SLP152 T02230198 52013 IEM_DS3505
ZGSZ,2001-11-29 01:00,ZGSZ 290100Z AUTO 12010KT 7SM 23/18 A2994 RMK T02300180 IEM_DS3505
ZGSZ,2001-11-29 02:00,ZGSZ 290200Z AUTO 11010KT 6SM 25/18 A2994 RMK T02500180 IEM_DS3505
ZGSZ,2001-11-29 03:00,ZGSZ 290300Z AUTO 14006KT 6SM 24/20 A2994 RMK SLP158 T02400205 52006 IEM_DS3505
ZGSZ,2001-11-29 04:00,ZGSZ 290400Z AUTO 13008KT 7SM 25/18 A2994 RMK T02500180 IEM_DS3505
ZGSZ,2001-11-29 05:00,ZGSZ 290500Z AUTO 17004KT 7SM 23/19 A2991 RMK T02300190 IEM_DS3505
ZGSZ,2001-11-29 06:00,ZGSZ 290600Z AUTO 07002KT 7SM 24/20 A2988 RMK SLP136 T02420199 57022 IEM_DS3505
ZGSZ,2001-11-29 07:00,ZGSZ 290700Z AUTO 32008KT 4SM 22/20 A2988 RMK T02200200 IEM_DS3505
ZGSZ,2001-11-29 08:00,ZGSZ 290800Z AUTO 33004KT 2SM 22/19 A2988 RMK T02200190 IEM_DS3505
ZGSZ,2001-11-29 09:00,ZGSZ 290900Z AUTO 11004KT 7SM 24/20 A2988 RMK SLP137 T02380201 52001 IEM_DS3505
ZGSZ,2001-11-29 10:00,ZGSZ 291000Z AUTO 11004KT 2SM 22/19 A2988 RMK T02200190 IEM_DS3505
ZGSZ,2001-11-29 12:00,ZGSZ 291200Z AUTO 14004KT 6SM 23/20 A2991 RMK SLP150 T02260201 52013 IEM_DS3505
ZGSZ,2001-11-29 13:00,ZGSZ 291300Z AUTO 10006KT 2SM 22/19 A2991 RMK T02200190 IEM_DS3505
ZGSZ,2001-11-29 14:00,ZGSZ 291400Z AUTO 09004KT 2 1/2SM 21/18 A2994 RMK T02100180 IEM_DS3505
ZGSZ,2001-11-29 15:00,ZGSZ 291500Z AUTO 09006KT 2 1/2SM 21/18 A2994 RMK T02100180 IEM_DS3505
ZGSZ,2001-11-29 18:00,ZGSZ 291800Z AUTO 09002KT 3SM 22/20 RMK SLP148 T02180199 57006 IEM_DS3505
ZGSZ,2001-11-29 19:00,ZGSZ 291900Z AUTO 09002KT 3SM 19/17 A2994 RMK T01900170 IEM_DS3505
ZGSZ,2001-11-29 20:00,ZGSZ 292000Z AUTO 06002KT 3SM 20/18 A2994 RMK T02000180 IEM_DS3505
ZGSZ,2001-11-29 21:00,ZGSZ 292100Z AUTO 04004KT 3SM 21/20 A2994 RMK 70003 SLP147 T02120195 57001 IEM_DS3505
ZGSZ,2001-11-29 22:00,ZGSZ 292200Z AUTO 16002KT 2SM 19/17 A2994 RMK T01900170 IEM_DS3505
ZGSZ,2001-11-29 23:00,ZGSZ 292300Z AUTO 36004KT 1 1/4SM 19/17 A2997 RMK T01900170 IEM_DS3505
ZGSZ,2001-11-30 00:00,ZGSZ 300000Z AUTO 04004KT 3SM 21/20 A2997 RMK SLP161 T02090195 52014 IEM_DS3505
ZGSZ,2001-11-30 01:00,ZGSZ 300100Z AUTO 13004KT 1 1/2SM 21/19 A2997 RMK T02100190 IEM_DS3505
ZGSZ,2001-11-30 02:00,ZGSZ 300200Z AUTO 17004KT 1 1/2SM 22/19 A3000 RMK T02200190 IEM_DS3505
ZGSZ,2001-11-30 03:00,ZGSZ 300300Z AUTO 04004KT 5SM 24/19 A2997 RMK SLP159 T02400194 57002 IEM_DS3505
ZGSZ,2001-11-30 04:00,ZGSZ 300400Z AUTO 26004KT 3SM 24/18 A2994 RMK T02400180 IEM_DS3505
ZGSZ,2001-11-30 05:00,ZGSZ 300500Z AUTO 28004KT 3SM 24/18 A2991 RMK T02400180 IEM_DS3505
ZGSZ,2001-11-30 06:00,ZGSZ 300600Z AUTO 18004KT 9SM 27/19 A2988 RMK SLP129 T02710194 57029 IEM_DS3505
ZGSZ,2001-11-30 07:00,ZGSZ 300700Z AUTO 22004KT 6SM 25/18 A2988 RMK T02500180 IEM_DS3505
ZGSZ,2001-11-30 08:00,ZGSZ 300800Z AUTO 19002KT 6SM 24/18 A2985 RMK T02400180 IEM_DS3505
ZGSZ,2001-11-30 09:00,ZGSZ 300900Z AUTO 20002KT 6SM 25/19 A2988 RMK SLP128 T02520190 57002 IEM_DS3505
ZGSZ,2001-11-30 10:00,ZGSZ 301000Z AUTO 17004KT 4SM 22/19 A2988 RMK T02200190 IEM_DS3505
ZGSZ,2001-11-30 11:00,ZGSZ 301100Z AUTO 16002KT 2 1/2SM 21/18 A2988 RMK T02100180 IEM_DS3505
ZGSZ,2001-11-30 12:00,ZGSZ 301200Z AUTO 14004KT 6SM 23/19 A2991 RMK SLP143 T02300194 52015 IEM_DS3505
ZGSZ,2001-11-30 13:00,ZGSZ 301300Z AUTO 09004KT 3SM 22/17 A2991 RMK T02200170 IEM_DS3505
ZGSZ,2001-11-30 14:00,ZGSZ 301400Z AUTO 14002KT 4SM 20/17 A2994 RMK T02000170 IEM_DS3505
ZGSZ,2001-11-30 15:00,ZGSZ 301500Z AUTO 09006KT 4SM 21/17 A2994 RMK T02100170 IEM_DS3505
ZGSZ,2001-11-30 16:00,ZGSZ 301600Z AUTO 09006KT 5SM 20/17 A2994 RMK T02000170 IEM_DS3505
ZGSZ,2001-11-30 17:00,ZGSZ 301700Z AUTO 11004KT 6SM 20/16 A2994 RMK T02000160 IEM_DS3505
ZGSZ,2001-11-30 18:00,ZGSZ 301800Z AUTO 16002KT 7SM 22/20 A2997 RMK SLP158 T02180196 52005 IEM_DS3505
ZGSZ,2001-11-30 19:00,ZGSZ 301900Z AUTO 09002KT 6SM 20/17 A2994 RMK T02000170 IEM_DS3505
ZGSZ,2001-11-30 20:00,ZGSZ 302000Z AUTO 09002KT 6SM 19/16 A2994 RMK T01900160 IEM_DS3505
ZGSZ,2001-11-30 21:00,ZGSZ 302100Z AUTO 11004KT 5SM 21/19 A2994 RMK SLP155 T02100188 57003 IEM_DS3505
ZGSZ,2001-11-30 22:00,ZGSZ 302200Z AUTO 09004KT 6SM 19/16 A2994 RMK T01900160 IEM_DS3505
ZGSZ,2001-11-30 23:00,ZGSZ 302300Z AUTO 10004KT 6SM 19/17 A2997 RMK T01900170 IEM_DS3505
ZGSZ,2001-12-01 00:00,ZGSZ 010000Z AUTO 14006KT 11SM 21/18 A2997 RMK SLP160 T02100183 52005 IEM_DS3505
ZGSZ,2001-12-01 01:00,ZGSZ 010100Z AUTO 09004KT 4SM 22/17 A3000 RMK T02200170 IEM_DS3505
ZGSZ,2001-12-01 02:00,ZGSZ 010200Z AUTO 08002KT 4SM 23/18 A3000 RMK T02300180 IEM_DS3505
ZGSZ,2001-12-01 03:00,ZGSZ 010300Z AUTO 09002KT 14SM 22/18 A3000 RMK SLP169 T02250184 52009 IEM_DS3505
ZGSZ,2001-12-01 04:00,ZGSZ 010400Z AUTO 18004KT 24/18 A2997 RMK T02400180 IEM_DS3505
ZGSZ,2001-12-01 05:00,ZGSZ 010500Z AUTO 17004KT 24/17 A2994 RMK T02400170 IEM_DS3505
ZGSZ,2001-12-01 06:00,ZGSZ 010600Z AUTO 04006KT 8SM 24/18 A2991 RMK SLP146 T02380181 57023 IEM_DS3505
ZGSZ,2001-12-01 07:00,ZGSZ 010700Z AUTO 09006KT 6SM 25/16 A2988 RMK T02500160 IEM_DS3505
ZGSZ,2001-12-01 08:00,ZGSZ 010800Z AUTO 09004KT 6SM 26/16 A2988 RMK T02600160 IEM_DS3505
ZGSZ,2001-12-01 09:00,ZGSZ 010900Z AUTO 14004KT 11SM 23/19 A2991 RMK SLP141 T02310189 57005 IEM_DS3505
ZGSZ,2001-12-01 10:00,ZGSZ 011000Z AUTO 10006KT 5SM 24/16 A2991 RMK T02400160 IEM_DS3505
ZGSZ,2001-12-01 11:00,ZGSZ 011100Z AUTO 12008KT 5SM 23/16 A2991 RMK T02300160 IEM_DS3505
ZGSZ,2001-12-01 12:00,ZGSZ 011200Z AUTO 14006KT 6SM 21/18 A2994 RMK SLP151 T02140180 52010 IEM_DS3505
ZGSZ,2001-12-01 13:00,ZGSZ 011300Z AUTO 10002KT 2 1/2SM 21/16 A2994 RMK T02100160 IEM_DS3505
ZGSZ,2001-12-01 14:00,ZGSZ 011400Z AUTO 15002KT 2 1/2SM 21/16 A2994 RMK T02100160 IEM_DS3505
ZGSZ,2001-12-01 15:00,ZGSZ 011500Z AUTO 09004KT 2 1/2SM 19/16 A2997 RMK T01900160 IEM_DS3505
ZGSZ,2001-12-01 16:00,ZGSZ 011600Z AUTO 09004KT 2SM 20/16 A2997 RMK T02000160 IEM_DS3505
ZGSZ,2001-12-01 17:00,ZGSZ 011700Z AUTO 32004KT 2SM 20/16 A2997 RMK T02000160 IEM_DS3505
ZGSZ,2001-12-01 18:00,ZGSZ 011800Z AUTO 09006KT 6SM 22/17 A2994 RMK SLP154 T02150171 52001 IEM_DS3505
ZGSZ,2001-12-01 21:00,ZGSZ 012100Z AUTO 14004KT 6SM 21/17 A2994 RMK SLP153 T02120170 57001 IEM_DS3505
ZGSZ,2001-12-01 22:00,ZGSZ 012200Z AUTO 04002KT 2 1/2SM 20/16 A2994 RMK T02000160 IEM_DS3505
ZGSZ,2001-12-01 23:00,ZGSZ 012300Z AUTO 10002KT 3SM 20/16 A2997 RMK T02000160 IEM_DS3505
ZGSZ,2001-12-02 00:00,ZGSZ 020000Z AUTO 07004KT 4SM 21/18 A3000 RMK SLP170 T02140179 52017 IEM_DS3505
ZGSZ,2001-12-02 01:00,ZGSZ 020100Z AUTO 10004KT 3SM 22/15 A3000 RMK T02200150 IEM_DS3505
ZGSZ,2001-12-02 02:00,ZGSZ 020200Z AUTO 09006KT 5SM 24/16 A3000 RMK T02400160 IEM_DS3505
ZGSZ,2001-12-02 03:00,ZGSZ 020300Z AUTO 16004KT 5SM 24/18 A3000 RMK SLP176 T02350178 52006 IEM_DS3505
ZGSZ,2001-12-02 04:00,ZGSZ 020400Z AUTO 18006KT 25/16 A3000 RMK T02500160 IEM_DS3505
ZGSZ,2001-12-02 05:00,ZGSZ 020500Z AUTO 18008KT 5SM 25/18 A2997 RMK T02500180 IEM_DS3505
ZGSZ,2001-12-02 06:00,ZGSZ 020600Z AUTO 07004KT 4SM 26/17 A2994 RMK SLP150 T02600171 57026 IEM_DS3505
ZGSZ,2001-12-02 07:00,ZGSZ 020700Z AUTO 24002KT 5SM 24/17 A2994 RMK T02400170 IEM_DS3505
ZGSZ,2001-12-02 08:00,ZGSZ 020800Z AUTO 21004KT 23/17 A2991 RMK T02300170 IEM_DS3505
ZGSZ,2001-12-02 09:00,ZGSZ 020900Z AUTO 09004KT 4SM 24/18 A2994 RMK SLP150 T02370178 54000 IEM_DS3505
ZGSZ,2001-12-02 10:00,ZGSZ 021000Z AUTO 13008KT 3SM 23/17 A2994 RMK T02300170 IEM_DS3505
ZGSZ,2001-12-02 11:00,ZGSZ 021100Z AUTO 12010KT 3SM 22/16 A2997 RMK T02200160 IEM_DS3505
ZGSZ,2001-12-02 12:00,ZGSZ 021200Z AUTO 16002KT 4SM 22/18 A2997 RMK SLP166 T02160176 52016 IEM_DS3505
ZGSZ,2001-12-02 13:00,ZGSZ 021300Z AUTO 11010KT 6SM 22/15 A3000 RMK T02200150 IEM_DS3505
ZGSZ,2001-12-02 14:00,ZGSZ 021400Z AUTO 10010KT 6SM 21/15 A3000 RMK T02100150 IEM_DS3505
ZGSZ,2001-12-02 15:00,ZGSZ 021500Z AUTO 09008KT 6SM 21/15 A3000 RMK T02100150 IEM_DS3505
ZGSZ,2001-12-02 16:00,ZGSZ 021600Z AUTO 09004KT 6SM 20/15 A2997 RMK T02000150 IEM_DS3505
ZGSZ,2001-12-02 17:00,ZGSZ 021700Z AUTO 11004KT 6SM 20/15 A2997 RMK T02000150 IEM_DS3505
ZGSZ,2001-12-02 18:00,ZGSZ 021800Z AUTO 09008KT 6SM 21/18 A2997 RMK SLP160 T02090179 57008 IEM_DS3505
ZGSZ,2001-12-02 21:00,ZGSZ 022100Z AUTO 09004KT 7SM 21/18 A2997 RMK SLP155 T02080176 57005 IEM_DS3505
ZGSZ,2001-12-02 22:00,ZGSZ 022200Z AUTO 01002KT 6SM 19/16 A2997 RMK T01900160 IEM_DS3505
ZGSZ,2001-12-02 23:00,ZGSZ 022300Z AUTO 04004KT 4SM 19/15 A3000 RMK T01900150 IEM_DS3505
ZGSZ,2001-12-03 00:00,ZGSZ 030000Z AUTO 09008KT 5SM 21/18 A3000 RMK SLP168 T02100176 52013 IEM_DS3505
ZGSZ,2001-12-03 01:00,ZGSZ 030100Z AUTO 05006KT 6SM 21/16 A3003 RMK T02100160 IEM_DS3505
ZGSZ,2001-12-03 02:00,ZGSZ 030200Z AUTO 05004KT 6SM 22/16 A3003 RMK T02200160 IEM_DS3505
ZGSZ,2001-12-03 03:00,ZGSZ 030300Z AUTO 14004KT 9SM 23/18 A3003 RMK SLP182 T02280177 52014 IEM_DS3505
ZGSZ,2001-12-03 04:00,ZGSZ 030400Z AUTO 08006KT 6SM 24/16 A3000 RMK T02400160 IEM_DS3505
ZGSZ,2001-12-03 05:00,ZGSZ 030500Z AUTO 10006KT 6SM 25/16 A2997 RMK T02500160 IEM_DS3505
ZGSZ,2001-12-03 06:00,ZGSZ 030600Z AUTO 09008KT 19SM 25/18 A2994 RMK SLP150 T02480175 57032 IEM_DS3505
ZGSZ,2001-12-03 07:00,ZGSZ 030700Z AUTO 29006KT 7SM 24/16 A2991 RMK T02400160 IEM_DS3505
ZGSZ,2001-12-03 08:00,ZGSZ 030800Z AUTO 27004KT 23/17 A2991 RMK T02300170 IEM_DS3505
ZGSZ,2001-12-03 09:00,ZGSZ 030900Z AUTO 14004KT 17SM 25/18 A2994 RMK SLP147 T02460180 57003 IEM_DS3505
ZGSZ,2001-12-03 10:00,ZGSZ 031000Z AUTO 27004KT 4SM 22/17 A2994 RMK T02200170 IEM_DS3505
ZGSZ,2001-12-03 11:00,ZGSZ 031100Z AUTO 27004KT 3SM 22/18 A2994 RMK T02200180 IEM_DS3505
ZGSZ,2001-12-03 12:00,ZGSZ 031200Z AUTO 14002KT 9SM 23/18 RMK SLP158 T02320178 52011 IEM_DS3505
ZGSZ,2001-12-03 13:00,ZGSZ 031300Z AUTO 4SM 21/17 A2997 RMK T02100170 IEM_DS3505
ZGSZ,2001-12-03 14:00,ZGSZ 031400Z AUTO 4SM 21/17 A2997 RMK T02100170 IEM_DS3505
ZGSZ,2001-12-03 15:00,ZGSZ 031500Z AUTO 4SM 22/17 A2997 RMK T02200170 IEM_DS3505
ZGSZ,2001-12-03 16:00,ZGSZ 031600Z AUTO 07002KT 4SM 21/17 A2997 RMK T02100170 IEM_DS3505
ZGSZ,2001-12-03 17:00,ZGSZ 031700Z AUTO 4SM 21/17 A2997 RMK T02100170 IEM_DS3505
ZGSZ,2001-12-03 18:00,ZGSZ 031800Z AUTO 07004KT 7SM 21/18 A2997 RMK SLP163 T02120182 57004 IEM_DS3505
ZGSZ,2001-12-03 19:00,ZGSZ 031900Z AUTO 03002KT 4SM 21/17 A2994 RMK T02100170 IEM_DS3505
ZGSZ,2001-12-03 20:00,ZGSZ 032000Z AUTO 2SM 21/17 A2994 RMK T02100170 IEM_DS3505
ZGSZ,2001-12-03 21:00,ZGSZ 032100Z AUTO 04004KT 5SM 21/18 A2994 RMK SLP155 T02120183 57008 IEM_DS3505
ZGSZ,2001-12-03 22:00,ZGSZ 032200Z AUTO 2SM 21/17 A2997 RMK T02100170 IEM_DS3505
ZGSZ,2001-12-03 23:00,ZGSZ 032300Z AUTO 35004KT 1 1/2SM 20/16 A2997 RMK T02000160 IEM_DS3505
ZGSZ,2001-12-04 00:00,ZGSZ 040000Z AUTO 07004KT 4SM 21/18 A2997 RMK SLP165 T02120182 52010 IEM_DS3505
ZGSZ,2001-12-04 01:00,ZGSZ 040100Z AUTO 07002KT 1 1/2SM 23/17 A3000 RMK T02300170 IEM_DS3505
ZGSZ,2001-12-04 03:00,ZGSZ 040300Z AUTO 09006KT 6SM 25/17 A2997 RMK SLP157 T02490174 57008 IEM_DS3505
ZGSZ,2001-12-04 04:00,ZGSZ 040400Z AUTO 10002KT 3SM 28/16 A2991 RMK T02800160 IEM_DS3505
ZGSZ,2001-12-04 05:00,ZGSZ 040500Z AUTO 24006KT 6SM 27/18 A2988 RMK T02700180 IEM_DS3505
ZGSZ,2001-12-04 06:00,ZGSZ 040600Z AUTO 04008KT 19SM 29/14 A2985 RMK SLP121 T02940145 57035 IEM_DS3505
ZGSZ,2001-12-04 07:00,ZGSZ 040700Z AUTO 24004KT 3SM 27/17 A2985 RMK T02700170 IEM_DS3505
ZGSZ,2001-12-04 08:00,ZGSZ 040800Z AUTO 18008KT 25/19 A2985 RMK T02500190 IEM_DS3505
ZGSZ,2001-12-04 09:00,ZGSZ 040900Z AUTO 07006KT 19SM 28/13 A2985 RMK SLP119 T02830134 57002 IEM_DS3505
ZGSZ,2001-12-04 10:00,ZGSZ 041000Z AUTO 15004KT 6SM 23/18 A2985 RMK T02300180 IEM_DS3505
ZGSZ,2001-12-04 11:00,ZGSZ 041100Z AUTO 14004KT 6SM 22/18 A2988 RMK T02200180 IEM_DS3505
ZGSZ,2001-12-04 12:00,ZGSZ 041200Z AUTO 09006KT 12SM 24/15 A2988 RMK SLP137 T02440153 52017 IEM_DS3505
ZGSZ,2001-12-04 13:00,ZGSZ 041300Z AUTO 17002KT 3SM 21/18 A2991 RMK T02100180 IEM_DS3505
ZGSZ,2001-12-04 14:00,ZGSZ 041400Z AUTO 17002KT 3SM 21/18 A2991 RMK T02100180 IEM_DS3505
ZGSZ,2001-12-04 17:00,ZGSZ 041700Z AUTO 09008KT 6SM 22/16 A2991 RMK T02200160 IEM_DS3505
ZGSZ,2001-12-04 18:00,ZGSZ 041800Z AUTO 11006KT 9SM 22/18 A2994 RMK SLP143 T02200180 57001 IEM_DS3505
ZGSZ,2001-12-04 19:00,ZGSZ 041900Z AUTO 11008KT 3SM 21/16 A2994 RMK T02100160 IEM_DS3505
ZGSZ,2001-12-04 20:00,ZGSZ 042000Z AUTO 08004KT 3SM 21/15 A2994 RMK T02100150 IEM_DS3505
ZGSZ,2001-12-04 21:00,ZGSZ 042100Z AUTO 07010KT 9SM 22/17 A2994 RMK SLP150 T02160172 52007 IEM_DS3505
ZGSZ,2001-12-04 22:00,ZGSZ 042200Z AUTO 06006KT 4SM 21/16 A2997 RMK T02100160 IEM_DS3505
ZGSZ,2001-12-04 23:00,ZGSZ 042300Z AUTO 08008KT 5SM 21/15 A2997 RMK T02100150 IEM_DS3505
ZGSZ,2001-12-05 00:00,ZGSZ 050000Z AUTO 14004KT 10SM 22/17 A3000 RMK SLP171 T02160167 52020 IEM_DS3505
ZGSZ,2001-12-05 01:00,ZGSZ 050100Z AUTO 09006KT 6SM 23/15 A3000 RMK T02300150 IEM_DS3505
ZGSZ,2001-12-05 02:00,ZGSZ 050200Z AUTO 07006KT 6SM 24/15 A3000 RMK T02400150 IEM_DS3505
ZGSZ,2001-12-05 03:00,ZGSZ 050300Z AUTO 07012KT 17SM 24/18 A2997 RMK SLP164 T02440176 57007 IEM_DS3505
ZGSZ,2001-12-05 04:00,ZGSZ 050400Z AUTO 25006KT 7SM 24/18 A2997 RMK T02400180 IEM_DS3505
ZGSZ,2001-12-05 05:00,ZGSZ 050500Z AUTO 23006KT 7SM 24/17 A2994 RMK T02400170 IEM_DS3505
ZGSZ,2001-12-05 06:00,ZGSZ 050600Z AUTO 14006KT 17SM 25/16 A2991 RMK SLP143 T02460165 57021 IEM_DS3505
ZGSZ,2001-12-05 07:00,ZGSZ 050700Z AUTO 27004KT 6SM 24/18 A2991 RMK T02400180 IEM_DS3505
ZGSZ,2001-12-05 08:00,ZGSZ 050800Z AUTO 26006KT 6SM 24/18 A2988 RMK T02400180 IEM_DS3505
ZGSZ,2001-12-05 09:00,ZGSZ 050900Z AUTO 09004KT 14SM 24/17 A2991 RMK SLP141 T02410172 57002 IEM_DS3505
ZGSZ,2001-12-05 10:00,ZGSZ 051000Z AUTO 09006KT 6SM 24/15 A2991 RMK T02400150 IEM_DS3505
ZGSZ,2001-12-05 11:00,ZGSZ 051100Z AUTO 12006KT 6SM 24/15 A2994 RMK T02400150 IEM_DS3505
ZGSZ,2001-12-05 12:00,ZGSZ 051200Z AUTO 11004KT 7SM 22/17 A2994 RMK SLP153 T02220174 52012 IEM_DS3505
ZGSZ,2001-12-05 13:00,ZGSZ 051300Z AUTO 12004KT 7SM 23/15 A2997 RMK T02300150 IEM_DS3505
ZGSZ,2001-12-05 14:00,ZGSZ 051400Z AUTO 10004KT 23/15 A2997 RMK T02300150 IEM_DS3505
ZGSZ,2001-12-05 15:00,ZGSZ 051500Z AUTO 09004KT 3SM 23/15 A3000 RMK T02300150 IEM_DS3505
ZGSZ,2001-12-05 16:00,ZGSZ 051600Z AUTO 09004KT 23/15 A3000 RMK T02300150 IEM_DS3505
ZGSZ,2001-12-05 17:00,ZGSZ 051700Z AUTO 11006KT 23/15 A3000 RMK T02300150 IEM_DS3505
ZGSZ,2001-12-05 18:00,ZGSZ 051800Z AUTO 14004KT 6SM 22/19 A3000 RMK SLP168 T02150187 57001 IEM_DS3505
ZGSZ,2001-12-05 19:00,ZGSZ 051900Z AUTO 08004KT 6SM 22/16 A3000 RMK T02200160 IEM_DS3505
ZGSZ,2001-12-05 20:00,ZGSZ 052000Z AUTO 05002KT 6SM 21/16 A2997 RMK T02100160 IEM_DS3505
ZGSZ,2001-12-05 21:00,ZGSZ 052100Z AUTO 34006KT 6SM 21/18 A2997 RMK SLP165 T02140185 57003 IEM_DS3505
ZGSZ,2001-12-05 22:00,ZGSZ 052200Z AUTO 02004KT 4SM 21/17 A3000 RMK T02100170 IEM_DS3505
ZGSZ,2001-12-05 23:00,ZGSZ 052300Z AUTO 01008KT 3SM 21/17 A3003 RMK T02100170 IEM_DS3505
ZGSZ,2001-12-06 00:00,ZGSZ 060000Z AUTO 04010KT 4SM 21/17 A3003 RMK SLP179 T02130171 52014 IEM_DS3505
ZGSZ,2001-12-06 01:00,ZGSZ 060100Z AUTO 36010KT 3SM 21/14 A3006 RMK T02100140 IEM_DS3505
ZGSZ,2001-12-06 02:00,ZGSZ 060200Z AUTO 35008KT 2 1/2SM 21/13 A3006 RMK T02100130 IEM_DS3505
ZGSZ,2001-12-06 03:00,ZGSZ 060300Z AUTO 04008KT 7SM 20/14 RMK SLP195 T02040136 52016 IEM_DS3505
ZGSZ,2001-12-06 04:00,ZGSZ 060400Z AUTO 35012KT 20/12 A3006 RMK T02000120 IEM_DS3505
ZGSZ,2001-12-06 05:00,ZGSZ 060500Z AUTO 35012KT 20/12 A3003 RMK T02000120 IEM_DS3505
ZGSZ,2001-12-06 06:00,ZGSZ 060600Z AUTO 04008KT 7SM 21/14 A3000 RMK SLP167 T02070136 57028 IEM_DS3505
ZGSZ,2001-12-06 07:00,ZGSZ 060700Z AUTO 01012KT 5SM 20/11 A2997 RMK T02000110 IEM_DS3505
ZGSZ,2001-12-06 08:00,ZGSZ 060800Z AUTO 36012KT 5SM 21/11 A2997 RMK T02100110 IEM_DS3505
ZGSZ,2001-12-06 09:00,ZGSZ 060900Z AUTO 04008KT 9SM 20/12 A3000 RMK SLP175 T02000117 52008 IEM_DS3505
ZGSZ,2001-12-06 10:00,ZGSZ 061000Z AUTO 02010KT 19/10 A3006 RMK T01900100 IEM_DS3505
ZGSZ,2001-12-06 11:00,ZGSZ 061100Z AUTO 01010KT 5SM 18/09 A3009 RMK T01800090 IEM_DS3505
ZGSZ,2001-12-06 12:00,ZGSZ 061200Z AUTO 04010KT 11SM 18/10 A3009 RMK SLP207 T01800101 52031 IEM_DS3505
ZGSZ,2001-12-06 13:00,ZGSZ 061300Z AUTO 01012KT 6SM 17/08 A3012 RMK T01700080 IEM_DS3505
ZGSZ,2001-12-06 14:00,ZGSZ 061400Z AUTO 02014KT 6SM 17/08 A3012 RMK T01700080 IEM_DS3505
ZGSZ,2001-12-06 15:00,ZGSZ 061500Z AUTO 01010KT 6SM 16/08 A3012 RMK T01600080 IEM_DS3505
ZGSZ,2001-12-06 16:00,ZGSZ 061600Z AUTO 02010KT 6SM 16/07 A3012 RMK T01600070 IEM_DS3505
ZGSZ,2001-12-06 17:00,ZGSZ 061700Z AUTO 36010KT 6SM 15/08 A3009 RMK T01500080 IEM_DS3505
ZGSZ,2001-12-06 18:00,ZGSZ 061800Z AUTO 07012KT 9SM 16/10 A3009 RMK SLP196 T01560099 57016 IEM_DS3505
ZGSZ,2001-12-06 19:00,ZGSZ 061900Z AUTO 36010KT 6SM 15/08 A3009 RMK T01500080 IEM_DS3505
ZGSZ,2001-12-06 20:00,ZGSZ 062000Z AUTO 35010KT 6SM 14/07 A3006 RMK T01400070 IEM_DS3505
ZGSZ,2001-12-06 21:00,ZGSZ 062100Z AUTO 04008KT 9SM 15/09 A3009 RMK SLP191 T01480094 57005 IEM_DS3505
ZGSZ,2001-12-06 22:00,ZGSZ 062200Z AUTO 01012KT 6SM 14/07 A3006 RMK T01400070 IEM_DS3505
ZGSZ,2001-12-06 23:00,ZGSZ 062300Z AUTO 36010KT 6SM 14/07 A3009 RMK T01400070 IEM_DS3505
ZGSZ,2001-12-07 00:00,ZGSZ 070000Z AUTO 04008KT 9SM 15/09 A3012 RMK SLP200 T01470088 52009 IEM_DS3505
ZGSZ,2001-12-07 01:00,ZGSZ 070100Z AUTO 01008KT 6SM 15/07 A3012 RMK T01500070 IEM_DS3505
ZGSZ,2001-12-07 02:00,ZGSZ 070200Z AUTO 01010KT 5SM 16/07 A3012 RMK T01600070 IEM_DS3505
ZGSZ,2001-12-07 03:00,ZGSZ 070300Z AUTO 34008KT 9SM 17/10 A3012 RMK SLP208 T01710097 52008 IEM_DS3505
ZGSZ,2001-12-07 04:00,ZGSZ 070400Z AUTO 05004KT 5SM 19/08 A3009 RMK T01900080 IEM_DS3505
ZGSZ,2001-12-07 05:00,ZGSZ 070500Z AUTO 32006KT 5SM 20/09 A3006 RMK T02000090 IEM_DS3505
ZGSZ,2001-12-07 06:00,ZGSZ 070600Z AUTO 04004KT 7SM 22/12 A3003 RMK SLP176 T02220122 57032 IEM_DS3505
ZGSZ,2001-12-07 07:00,ZGSZ 070700Z AUTO 31010KT 21/09 A3000 RMK T02100090 IEM_DS3505
ZGSZ,2001-12-07 08:00,ZGSZ 070800Z AUTO 32008KT 21/10 A3000 RMK T02100100 IEM_DS3505
ZGSZ,2001-12-07 09:00,ZGSZ 070900Z AUTO 04006KT 6SM 22/13 A3000 RMK SLP170 T02220126 57006 IEM_DS3505
ZGSZ,2001-12-07 10:00,ZGSZ 071000Z AUTO 36010KT 2 1/2SM 20/10 A3000 RMK T02000100 IEM_DS3505
ZGSZ,2001-12-07 11:00,ZGSZ 071100Z AUTO 01006KT 2 1/2SM 20/10 A3003 RMK T02000100 IEM_DS3505
ZGSZ,2001-12-07 12:00,ZGSZ 071200Z AUTO 09006KT 6SM 20/14 A3003 RMK SLP184 T02010145 52014 IEM_DS3505
ZGSZ,2001-12-07 13:00,ZGSZ 071300Z AUTO 31002KT 2 1/2SM 19/11 A3006 RMK T01900110 IEM_DS3505
ZGSZ,2001-12-07 14:00,ZGSZ 071400Z AUTO 10002KT 3SM 19/10 A3006 RMK T01900100 IEM_DS3505
ZGSZ,2001-12-07 15:00,ZGSZ 071500Z AUTO 3SM 19/12 A3006 RMK T01900120 IEM_DS3505
ZGSZ,2001-12-07 16:00,ZGSZ 071600Z AUTO 12002KT 3SM 20/10 A3006 RMK T02000100 IEM_DS3505
ZGSZ,2001-12-07 17:00,ZGSZ 071700Z AUTO 07002KT 19/11 A3003 RMK T01900110 IEM_DS3505
ZGSZ,2001-12-07 18:00,ZGSZ 071800Z AUTO 07004KT 7SM 19/12 A3003 RMK SLP180 T01900124 57002 IEM_DS3505
ZGSZ,2001-12-07 19:00,ZGSZ 071900Z AUTO 04006KT 18/11 A3003 RMK T01800110 IEM_DS3505
ZGSZ,2001-12-07 20:00,ZGSZ 072000Z AUTO 36004KT 18/11 A3000 RMK T01800110 IEM_DS3505
ZGSZ,2001-12-07 21:00,ZGSZ 072100Z AUTO 04004KT 9SM 19/12 A3000 RMK SLP172 T01870118 57008 IEM_DS3505
ZGSZ,2001-12-07 22:00,ZGSZ 072200Z AUTO 04006KT 6SM 18/11 A3003 RMK T01800110 IEM_DS3505
ZGSZ,2001-12-07 23:00,ZGSZ 072300Z AUTO 07004KT 6SM 18/10 A3003 RMK T01800100 IEM_DS3505
ZGSZ,2001-12-08 00:00,ZGSZ 080000Z AUTO 04008KT 12SM 19/12 A3006 RMK SLP193 T01860117 52020 IEM_DS3505
ZGSZ,2001-12-08 01:00,ZGSZ 080100Z AUTO 01004KT 6SM 19/10 A3009 RMK T01900100 IEM_DS3505
ZGSZ,2001-12-08 02:00,ZGSZ 080200Z AUTO 36006KT 5SM 20/10 A3009 RMK T02000100 IEM_DS3505
ZGSZ,2001-12-08 03:00,ZGSZ 080300Z AUTO 32006KT 6SM 19/12 A3009 RMK SLP199 T01900124 52006 IEM_DS3505
ZGSZ,2001-12-08 04:00,ZGSZ 080400Z AUTO 07004KT 21/11 A3006 RMK T02100110 IEM_DS3505
ZGSZ,2001-12-08 05:00,ZGSZ 080500Z AUTO 32004KT 20/12 A3006 RMK T02000120 IEM_DS3505
ZGSZ,2001-12-08 06:00,ZGSZ 080600Z AUTO 04006KT 4SM 18/15 A3003 RMK 60004 SLP179 T01820148 57020 IEM_DS3505
ZGSZ,2001-12-08 07:00,ZGSZ 080700Z AUTO 05006KT 3SM 18/13 A3000 RMK T01800130 IEM_DS3505
ZGSZ,2001-12-08 08:00,ZGSZ 080800Z AUTO 36004KT 3SM 17/14 A3000 RMK T01700140 IEM_DS3505
ZGSZ,2001-12-08 09:00,ZGSZ 080900Z AUTO 04004KT 3SM 18/15 A3003 RMK SLP176 T01760154 57003 IEM_DS3505
ZGSZ,2001-12-08 10:00,ZGSZ 081000Z AUTO 36006KT 3SM 17/14 A3003 RMK T01700140 IEM_DS3505
ZGSZ,2001-12-08 11:00,ZGSZ 081100Z AUTO 36006KT 3SM 17/14 A3003 RMK T01700140 IEM_DS3505
ZGSZ,2001-12-08 12:00,ZGSZ 081200Z AUTO 04006KT 3SM 17/16 A3006 RMK 60012 SLP191 T01740155 52015 IEM_DS3505
ZGSZ,2001-12-08 13:00,ZGSZ 081300Z AUTO 35006KT 2SM 17/14 A3006 RMK T01700140 IEM_DS3505
ZGSZ,2001-12-08 14:00,ZGSZ 081400Z AUTO 35006KT 3SM 17/14 A3009 RMK T01700140 IEM_DS3505
ZGSZ,2001-12-08 15:00,ZGSZ 081500Z AUTO 35008KT 4SM 17/15 A3009 RMK T01700150 IEM_DS3505
ZGSZ,2001-12-08 18:00,ZGSZ 081800Z AUTO 04004KT 4SM 17/16 RMK 60020 SLP187 T01740161 57008 IEM_DS3505
ZGSZ,2001-12-08 21:00,ZGSZ 082100Z AUTO 04008KT 3SM 17/16 A3006 RMK 70051 SLP184 T01720162 57001 IEM_DS3505
ZGSZ,2001-12-08 22:00,ZGSZ 082200Z AUTO 36010KT 3SM 17/15 A3006 RMK T01700150 IEM_DS3505
ZGSZ,2001-12-08 23:00,ZGSZ 082300Z AUTO 35008KT 4SM 17/15 A3006 RMK T01700150 IEM_DS3505
ZGSZ,2001-12-09 00:00,ZGSZ 090000Z AUTO 07008KT 12SM 18/16 A3009 RMK 60024 SLP195 T01790164 52011 IEM_DS3505
ZGSZ,2001-12-09 01:00,ZGSZ 090100Z AUTO 34004KT 3SM 17/15 A3009 RMK T01700150 IEM_DS3505
ZGSZ,2001-12-09 02:00,ZGSZ 090200Z AUTO 35010KT 2SM 17/15 A3012 RMK T01700150 IEM_DS3505
ZGSZ,2001-12-09 03:00,ZGSZ 090300Z AUTO 07006KT 9SM 19/17 A3012 RMK SLP204 T01910166 52009 IEM_DS3505
ZGSZ,2001-12-09 04:00,ZGSZ 090400Z AUTO 36008KT 3SM 19/15 A3009 RMK T01900150 IEM_DS3505
ZGSZ,2001-12-09 05:00,ZGSZ 090500Z AUTO 36008KT 2 1/2SM 18/15 A3006 RMK T01800150 IEM_DS3505
ZGSZ,2001-12-09 06:00,ZGSZ 090600Z AUTO 04008KT 9SM 20/16 A3003 RMK 60003 SLP179 T01980165 57025 IEM_DS3505
ZGSZ,2001-12-09 07:00,ZGSZ 090700Z AUTO 36010KT 7SM 19/15 A3000 RMK T01900150 IEM_DS3505
ZGSZ,2001-12-09 08:00,ZGSZ 090800Z AUTO 35008KT 7SM 19/15 A3003 RMK T01900150 IEM_DS3505
ZGSZ,2001-12-09 09:00,ZGSZ 090900Z AUTO 36004KT 7SM 19/16 A3003 RMK SLP179 T01930163 54000 IEM_DS3505
ZGSZ,2001-12-09 10:00,ZGSZ 091000Z AUTO 36008KT 4SM 19/15 A3006 RMK T01900150 IEM_DS3505
ZGSZ,2001-12-09 11:00,ZGSZ 091100Z AUTO 36008KT 4SM 18/14 A3006 RMK T01800140 IEM_DS3505
ZGSZ,2001-12-09 12:00,ZGSZ 091200Z AUTO 04006KT 9SM 19/16 A3006 RMK 60003 SLP194 T01880161 52015 IEM_DS3505
ZGSZ,2001-12-09 13:00,ZGSZ 091300Z AUTO 02006KT 7SM 18/15 A3006 RMK T01800150 IEM_DS3505
ZGSZ,2001-12-09 14:00,ZGSZ 091400Z AUTO 36006KT 5SM 18/15 A3009 RMK T01800150 IEM_DS3505
ZGSZ,2001-12-09 15:00,ZGSZ 091500Z AUTO 35008KT 2 1/2SM 17/15 A3009 RMK T01700150 IEM_DS3505
ZGSZ,2001-12-09 16:00,ZGSZ 091600Z AUTO 35006KT 3SM 17/15 A3009 RMK T01700150 IEM_DS3505
ZGSZ,2001-12-09 18:00,ZGSZ 091800Z AUTO 04006KT 5SM 17/16 A3006 RMK 60016 SLP189 T01740157 57013 IEM_DS3505
ZGSZ,2001-12-09 21:00,ZGSZ 092100Z AUTO 04006KT 3SM 16/15 A3006 RMK 70031 SLP183 T01630151 57006 IEM_DS3505
ZGSZ,2001-12-09 22:00,ZGSZ 092200Z AUTO 36008KT 2 1/2SM 16/13 A3006 RMK T01600130 IEM_DS3505
ZGSZ,2001-12-09 23:00,ZGSZ 092300Z AUTO 36010KT 2SM 15/13 A3006 RMK T01500130 IEM_DS3505
ZGSZ,2001-12-10 00:00,ZGSZ 100000Z AUTO 04006KT 7SM 16/14 A3009 RMK 60024 SLP197 T01600144 52014 IEM_DS3505
ZGSZ,2001-12-10 01:00,ZGSZ 100100Z AUTO 02004KT 7SM 16/13 A3009 RMK T01600130 IEM_DS3505
ZGSZ,2001-12-10 02:00,ZGSZ 100200Z AUTO 36008KT 7SM 15/13 A3012 RMK T01500130 IEM_DS3505
ZGSZ,2001-12-10 03:00,ZGSZ 100300Z AUTO 04010KT 5SM 17/15 A3012 RMK SLP207 T01710147 52010 IEM_DS3505
ZGSZ,2001-12-10 04:00,ZGSZ 100400Z AUTO 36010KT 7SM 16/13 A3009 RMK T01600130 IEM_DS3505
ZGSZ,2001-12-10 05:00,ZGSZ 100500Z AUTO 36012KT 7SM 17/14 A3006 RMK T01700140 IEM_DS3505
ZGSZ,2001-12-10 06:00,ZGSZ 100600Z AUTO 32004KT 5SM 19/15 A3006 RMK 60002 SLP183 T01890150 57024 IEM_DS3505
ZGSZ,2001-12-10 07:00,ZGSZ 100700Z AUTO 36010KT 7SM 17/13 A3003 RMK T01700130 IEM_DS3505
ZGSZ,2001-12-10 08:00,ZGSZ 100800Z AUTO 02010KT 7SM 18/13 A3003 RMK T01800130 IEM_DS3505
ZGSZ,2001-12-10 09:00,ZGSZ 100900Z AUTO 04008KT 6SM 19/14 A3006 RMK SLP185 T01870140 52002 IEM_DS3505
ZGSZ,2001-12-10 10:00,ZGSZ 101000Z AUTO 36010KT 6SM 17/12 A3006 RMK T01700120 IEM_DS3505
ZGSZ,2001-12-10 11:00,ZGSZ 101100Z AUTO 36008KT 6SM 16/12 A3009 RMK T01600120 IEM_DS3505
ZGSZ,2001-12-10 12:00,ZGSZ 101200Z AUTO 04006KT 7SM 17/13 A3012 RMK SLP203 T01660128 52018 IEM_DS3505
ZGSZ,2001-12-10 13:00,ZGSZ 101300Z AUTO 36006KT 6SM 15/12 A3012 RMK T01500120 IEM_DS3505
ZGSZ,2001-12-10 14:00,ZGSZ 101400Z AUTO 36008KT 6SM 15/11 A3012 RMK T01500110 IEM_DS3505
ZGSZ,2001-12-10 15:00,ZGSZ 101500Z AUTO 36004KT 6SM 15/11 A3012 RMK T01500110 IEM_DS3505
ZGSZ,2001-12-10 16:00,ZGSZ 101600Z AUTO 36006KT 6SM 16/11 A3012 RMK T01600110 IEM_DS3505
ZGSZ,2001-12-10 17:00,ZGSZ 101700Z AUTO 01008KT 6SM 15/11 A3012 RMK T01500110 IEM_DS3505
ZGSZ,2001-12-10 18:00,ZGSZ 101800Z AUTO 04006KT 12SM 16/12 A3009 RMK SLP204 T01640124 57004 IEM_DS3505
ZGSZ,2001-12-10 19:00,ZGSZ 101900Z AUTO 36008KT 6SM 16/11 A3006 RMK T01600110 IEM_DS3505
ZGSZ,2001-12-10 20:00,ZGSZ 102000Z AUTO 01004KT 6SM 16/11 A3006 RMK T01600110 IEM_DS3505
ZGSZ,2001-12-10 21:00,ZGSZ 102100Z AUTO 04006KT 14SM 16/12 A3006 RMK 70015 SLP190 T01620124 57014 IEM_DS3505
ZGSZ,2001-12-10 22:00,ZGSZ 102200Z AUTO 35006KT 6SM 15/10 A3006 RMK T01500100 IEM_DS3505
ZGSZ,2001-12-10 23:00,ZGSZ 102300Z AUTO 35004KT 6SM 15/11 A3009 RMK T01500110 IEM_DS3505
ZGSZ,2001-12-11 00:00,ZGSZ 110000Z AUTO 04006KT 6SM 16/12 A3009 RMK 70002 SLP201 T01580122 52011 IEM_DS3505
ZGSZ,2001-12-11 01:00,ZGSZ 110100Z AUTO 36008KT 6SM 16/11 A3012 RMK T01600110 IEM_DS3505
ZGSZ,2001-12-11 02:00,ZGSZ 110200Z AUTO 02008KT 6SM 17/11 A3012 RMK T01700110 IEM_DS3505
ZGSZ,2001-12-11 03:00,ZGSZ 110300Z AUTO 34006KT 7SM 18/13 A3012 RMK SLP201 T01800132 54000 IEM_DS3505
ZGSZ,2001-12-11 04:00,ZGSZ 110400Z AUTO 02004KT 6SM 19/12 A3006 RMK T01900120 IEM_DS3505
ZGSZ,2001-12-11 05:00,ZGSZ 110500Z AUTO 07002KT 20/13 A3003 RMK T02000130 IEM_DS3505
ZGSZ,2001-12-11 06:00,ZGSZ 110600Z AUTO 09002KT 8SM 21/16 A3000 RMK SLP168 T02100162 57033 IEM_DS3505
ZGSZ,2001-12-11 07:00,ZGSZ 110700Z AUTO 30006KT 7SM 20/13 A2997 RMK T02000130 IEM_DS3505
ZGSZ,2001-12-11 08:00,ZGSZ 110800Z AUTO 31004KT 7SM 20/14 A2997 RMK T02000140 IEM_DS3505
ZGSZ,2001-12-11 09:00,ZGSZ 110900Z AUTO 09006KT 5SM 20/17 A3000 RMK SLP168 T02040168 54000 IEM_DS3505
ZGSZ,2001-12-11 10:00,ZGSZ 111000Z AUTO 2 1/2SM 20/15 A3000 RMK T02000150 IEM_DS3505
ZGSZ,2001-12-11 11:00,ZGSZ 111100Z AUTO 10002KT 3SM 20/14 A3003 RMK T02000140 IEM_DS3505
ZGSZ,2001-12-11 12:00,ZGSZ 111200Z AUTO 04006KT 5SM 20/17 A3006 RMK SLP187 T02020171 52019 IEM_DS3505
ZGSZ,2001-12-11 13:00,ZGSZ 111300Z AUTO 02002KT 2SM 20/15 A3006 RMK T02000150 IEM_DS3505
ZGSZ,2001-12-11 14:00,ZGSZ 111400Z AUTO 02002KT 2SM 20/14 A3006 RMK T02000140 IEM_DS3505
ZGSZ,2001-12-11 15:00,ZGSZ 111500Z AUTO 06002KT 2SM 20/15 A3006 RMK T02000150 IEM_DS3505
ZGSZ,2001-12-11 16:00,ZGSZ 111600Z AUTO 05004KT 2 1/2SM 19/15 A3006 RMK T01900150 IEM_DS3505
ZGSZ,2001-12-11 17:00,ZGSZ 111700Z AUTO 03004KT 3SM 19/15 A3006 RMK T01900150 IEM_DS3505
ZGSZ,2001-12-11 18:00,ZGSZ 111800Z AUTO 04002KT 5SM 20/17 A3006 RMK SLP189 T01960171 57002 IEM_DS3505
ZGSZ,2001-12-11 19:00,ZGSZ 111900Z AUTO 01004KT 3SM 19/14 A3006 RMK T01900140 IEM_DS3505
ZGSZ,2001-12-11 20:00,ZGSZ 112000Z AUTO 02004KT 3SM 19/14 A3006 RMK T01900140 IEM_DS3505
ZGSZ,2001-12-11 21:00,ZGSZ 112100Z AUTO 04004KT 5SM 19/17 A3006 RMK SLP185 T01900167 57004 IEM_DS3505
ZGSZ,2001-12-11 22:00,ZGSZ 112200Z AUTO 01008KT 4SM 18/14 A3006 RMK T01800140 IEM_DS3505
ZGSZ,2001-12-11 23:00,ZGSZ 112300Z AUTO 35006KT 5SM 18/13 A3006 RMK T01800130 IEM_DS3505
ZGSZ,2001-12-12 00:00,ZGSZ 120000Z AUTO 02004KT 6SM 19/16 A3009 RMK SLP192 T01890157 52007 IEM_DS3505
ZGSZ,2001-12-12 01:00,ZGSZ 120100Z AUTO 12002KT 5SM 20/14 A3009 RMK T02000140 IEM_DS3505
ZGSZ,2001-12-12 02:00,ZGSZ 120200Z AUTO 08004KT 5SM 21/15 A3009 RMK T02100150 IEM_DS3505
ZGSZ,2001-12-12 03:00,ZGSZ 120300Z AUTO 04006KT 5SM 22/17 A3009 RMK SLP196 T02180166 52004 IEM_DS3505
ZGSZ,2001-12-12 04:00,ZGSZ 120400Z AUTO 09006KT 22/16 A3006 RMK T02200160 IEM_DS3505
ZGSZ,2001-12-12 05:00,ZGSZ 120500Z AUTO 26004KT 2 1/2SM 23/16 A3003 RMK T02300160 IEM_DS3505
ZGSZ,2001-12-12 06:00,ZGSZ 120600Z AUTO 27002KT 9SM 24/18 A3000 RMK SLP174 T02450180 57022 IEM_DS3505
ZGSZ,2001-12-12 07:00,ZGSZ 120700Z AUTO 29004KT 2SM 23/16 A3000 RMK T02300160 IEM_DS3505
ZGSZ,2001-12-12 08:00,ZGSZ 120800Z AUTO 27002KT 2SM 23/16 A3000 RMK T02300160 IEM_DS3505
ZGSZ,2001-12-12 09:00,ZGSZ 120900Z AUTO 14004KT 12SM 23/18 RMK SLP176 T02300179 52002 IEM_DS3505
ZGSZ,2001-12-12 10:00,ZGSZ 121000Z AUTO 24002KT 2SM 22/17 A3003 RMK T02200170 IEM_DS3505
ZGSZ,2001-12-12 11:00,ZGSZ 121100Z AUTO 17002KT 2SM 21/17 A3006 RMK T02100170 IEM_DS3505
ZGSZ,2001-12-12 12:00,ZGSZ 121200Z AUTO 00000KT 5SM 21/18 A3006 RMK SLP195 T02140182 52019 IEM_DS3505
ZGSZ,2001-12-12 14:00,ZGSZ 121400Z AUTO 30008KT 2SM 20/16 A3009 RMK T02000160 IEM_DS3505
ZGSZ,2001-12-12 15:00,ZGSZ 121500Z AUTO 31010KT 2 1/2SM 19/15 A3012 RMK T01900150 IEM_DS3505
ZGSZ,2001-12-12 16:00,ZGSZ 121600Z AUTO 32010KT 3SM 18/14 A3012 RMK T01800140 IEM_DS3505
ZGSZ,2001-12-12 17:00,ZGSZ 121700Z AUTO 32010KT 3SM 18/13 A3012 RMK T01800130 IEM_DS3505
ZGSZ,2001-12-12 18:00,ZGSZ 121800Z AUTO 18002KT 3SM 20/17 A3012 RMK SLP203 T01980168 57004 IEM_DS3505
ZGSZ,2001-12-12 19:00,ZGSZ 121900Z AUTO 32012KT 4SM 17/13 A3012 RMK T01700130 IEM_DS3505
ZGSZ,2001-12-12 20:00,ZGSZ 122000Z AUTO 33008KT 4SM 17/12 A3009 RMK T01700120 IEM_DS3505
ZGSZ,2001-12-12 21:00,ZGSZ 122100Z AUTO 04006KT 4SM 18/15 A3012 RMK SLP202 T01850149 57001 IEM_DS3505
ZGSZ,2001-12-12 22:00,ZGSZ 122200Z AUTO 35010KT 4SM 17/12 A3015 RMK T01700120 IEM_DS3505
ZGSZ,2001-12-12 23:00,ZGSZ 122300Z AUTO 36014KT 7SM 17/12 A3015 RMK T01700120 IEM_DS3505
ZGSZ,2001-12-13 00:00,ZGSZ 130000Z AUTO 04012KT 11SM 17/11 A3018 RMK SLP228 T01720113 52025 IEM_DS3505
ZGSZ,2001-12-13 01:00,ZGSZ 130100Z AUTO 36014KT 7SM 17/10 A3021 RMK T01700100 IEM_DS3505
ZGSZ,2001-12-13 02:00,ZGSZ 130200Z AUTO 01014KT 7SM 17/09 A3024 RMK T01700090 IEM_DS3505
ZGSZ,2001-12-13 03:00,ZGSZ 130300Z AUTO 04014KT 19SM 16/09 A3024 RMK SLP247 T01640090 52019 IEM_DS3505
ZGSZ,2001-12-13 04:00,ZGSZ 130400Z AUTO 36016KT 6SM 17/09 A3024 RMK T01700090 IEM_DS3505
ZGSZ,2001-12-13 05:00,ZGSZ 130500Z AUTO 36017KT 6SM 17/08 A3021 RMK T01700080 IEM_DS3505
ZGSZ,2001-12-13 06:00,ZGSZ 130600Z AUTO 04008KT 19SM 18/10 A3018 RMK SLP226 T01760096 57021 IEM_DS3505
ZGSZ,2001-12-13 07:00,ZGSZ 130700Z AUTO 35016KT 7SM 17/08 A3018 RMK T01700080 IEM_DS3505
ZGSZ,2001-12-13 08:00,ZGSZ 130800Z AUTO 36016KT 7SM 17/07 A3018 RMK T01700070 IEM_DS3505
ZGSZ,2001-12-13 09:00,ZGSZ 130900Z AUTO 04010KT 17SM 17/09 A3021 RMK SLP232 T01700086 52006 IEM_DS3505
ZGSZ,2001-12-13 10:00,ZGSZ 131000Z AUTO 02012KT 7SM 16/07 A3024 RMK T01600070 IEM_DS3505
ZGSZ,2001-12-13 11:00,ZGSZ 131100Z AUTO 01014KT 6SM 16/07 A3027 RMK T01600070 IEM_DS3505
ZGSZ,2001-12-13 12:00,ZGSZ 131200Z AUTO 04012KT 16SM 16/08 A3027 RMK SLP264 T01550079 52032 IEM_DS3505
ZGSZ,2001-12-13 13:00,ZGSZ 131300Z AUTO 01014KT 6SM 14/06 A3030 RMK T01400060 IEM_DS3505
ZGSZ,2001-12-13 14:00,ZGSZ 131400Z AUTO 01012KT 6SM 14/05 A3033 RMK T01400050 IEM_DS3505
ZGSZ,2001-12-13 15:00,ZGSZ 131500Z AUTO 02014KT 6SM 13/05 A3036 RMK T01300050 IEM_DS3505
ZGSZ,2001-12-13 16:00,ZGSZ 131600Z AUTO 01014KT 6SM 13/05 A3036 RMK T01300050 IEM_DS3505
ZGSZ,2001-12-13 17:00,ZGSZ 131700Z AUTO 01017KT 6SM 12/04 A3036 RMK T01200040 IEM_DS3505
ZGSZ,2001-12-13 18:00,ZGSZ 131800Z AUTO 04010KT 17SM 12/05 A3036 RMK SLP287 T01220052 57004 IEM_DS3505
ZGSZ,2001-12-13 19:00,ZGSZ 131900Z AUTO 01014KT 7SM 11/05 A3036 RMK T01100050 IEM_DS3505
ZGSZ,2001-12-13 20:00,ZGSZ 132000Z AUTO 36014KT 7SM 11/05 A3033 RMK T01100050 IEM_DS3505
ZGSZ,2001-12-13 21:00,ZGSZ 132100Z AUTO 04010KT 14SM 11/05 A3033 RMK SLP280 T01100053 57007 IEM_DS3505
ZGSZ,2001-12-13 22:00,ZGSZ 132200Z AUTO 01012KT 7SM 11/04 A3036 RMK T01100040 IEM_DS3505
ZGSZ,2001-12-13 23:00,ZGSZ 132300Z AUTO 36012KT 7SM 11/03 A3036 RMK T01100030 IEM_DS3505
ZGSZ,2001-12-14 00:00,ZGSZ 140000Z AUTO 04014KT 7SM 11/05 A3039 RMK 60003 SLP296 T01070049 52016 IEM_DS3505
ZGSZ,2001-12-14 01:00,ZGSZ 140100Z AUTO 36014KT 5SM 10/04 A3042 RMK T01000040 IEM_DS3505
ZGSZ,2001-12-14 02:00,ZGSZ 140200Z AUTO 01012KT 5SM 11/04 A3042 RMK T01100040 IEM_DS3505
ZGSZ,2001-12-14 03:00,ZGSZ 140300Z AUTO 04010KT 5SM 11/06 A3042 RMK SLP303 T01120055 52007 IEM_DS3505
ZGSZ,2001-12-14 04:00,ZGSZ 140400Z AUTO 02010KT 5SM 14/04 A3036 RMK T01400040 IEM_DS3505
ZGSZ,2001-12-14 05:00,ZGSZ 140500Z AUTO 01010KT 5SM 15/04 A3033 RMK T01500040 IEM_DS3505
ZGSZ,2001-12-14 06:00,ZGSZ 140600Z AUTO 32008KT 5SM 16/07 A3027 RMK 60003 SLP261 T01590067 57042 IEM_DS3505
ZGSZ,2001-12-14 07:00,ZGSZ 140700Z AUTO 36010KT 5SM 15/04 A3027 RMK T01500040 IEM_DS3505
ZGSZ,2001-12-14 08:00,ZGSZ 140800Z AUTO 03010KT 5SM 15/04 A3027 RMK T01500040 IEM_DS3505
ZGSZ,2001-12-14 09:00,ZGSZ 140900Z AUTO 04006KT 6SM 15/06 A3027 RMK SLP262 T01480058 52001 IEM_DS3505
ZGSZ,2001-12-14 10:00,ZGSZ 141000Z AUTO 04006KT 3SM 15/04 A3027 RMK T01500040 IEM_DS3505
ZGSZ,2001-12-14 11:00,ZGSZ 141100Z AUTO 01006KT 2 1/2SM 15/04 A3030 RMK T01500040 IEM_DS3505
ZGSZ,2001-12-14 12:00,ZGSZ 141200Z AUTO 04006KT 5SM 14/05 A3030 RMK SLP272 T01450054 52010 IEM_DS3505
ZGSZ,2001-12-14 13:00,ZGSZ 141300Z AUTO 03004KT 3SM 14/04 A3030 RMK T01400040 IEM_DS3505
ZGSZ,2001-12-14 14:00,ZGSZ 141400Z AUTO 04004KT 14/04 A3033 RMK T01400040 IEM_DS3505
ZGSZ,2001-12-14 15:00,ZGSZ 141500Z AUTO 01006KT 13/03 A3033 RMK T01300030 IEM_DS3505
ZGSZ,2001-12-14 18:00,ZGSZ 141800Z AUTO 04006KT 7SM 13/05 RMK SLP267 T01330054 57004 IEM_DS3505
ZGSZ,2001-12-14 19:00,ZGSZ 141900Z AUTO 02006KT 5SM 13/03 A3027 RMK T01300030 IEM_DS3505
ZGSZ,2001-12-14 20:00,ZGSZ 142000Z AUTO 01006KT 5SM 13/03 A3027 RMK T01300030 IEM_DS3505
ZGSZ,2001-12-14 21:00,ZGSZ 142100Z AUTO 04006KT 7SM 12/05 A3027 RMK 70003 SLP262 T01250054 57005 IEM_DS3505
ZGSZ,2001-12-14 22:00,ZGSZ 142200Z AUTO 36006KT 6SM 12/03 A3027 RMK T01200030 IEM_DS3505
ZGSZ,2001-12-14 23:00,ZGSZ 142300Z AUTO 01004KT 6SM 11/03 A3030 RMK T01100030 IEM_DS3505
ZGSZ,2001-12-15 00:00,ZGSZ 150000Z AUTO 04006KT 11SM 12/05 A3030 RMK 70003 SLP275 T01200050 52013 IEM_DS3505
ZGSZ,2001-12-15 01:00,ZGSZ 150100Z AUTO 05006KT 5SM 14/04 A3033 RMK T01400040 IEM_DS3505
ZGSZ,2001-12-15 02:00,ZGSZ 150200Z AUTO 07006KT 6SM 15/05 A3033 RMK T01500050 IEM_DS3505
ZGSZ,2001-12-15 03:00,ZGSZ 150300Z AUTO 07006KT 6SM 16/08 A3030 RMK SLP269 T01620078 57006 IEM_DS3505
ZGSZ,2001-12-15 04:00,ZGSZ 150400Z AUTO 09004KT 19/06 A3027 RMK T01900060 IEM_DS3505
ZGSZ,2001-12-15 05:00,ZGSZ 150500Z AUTO 27004KT 18/08 A3021 RMK T01800080 IEM_DS3505
ZGSZ,2001-12-15 06:00,ZGSZ 150600Z AUTO 04006KT 11SM 20/09 A3018 RMK SLP238 T01960087 57030 IEM_DS3505
ZGSZ,2001-12-15 07:00,ZGSZ 150700Z AUTO 28006KT 19/07 A3018 RMK T01900070 IEM_DS3505
ZGSZ,2001-12-15 08:00,ZGSZ 150800Z AUTO 22004KT 19/07 A3015 RMK T01900070 IEM_DS3505
ZGSZ,2001-12-15 09:00,ZGSZ 150900Z AUTO 07006KT 12SM 18/10 A3015 RMK SLP226 T01810100 57012 IEM_DS3505
ZGSZ,2001-12-15 10:00,ZGSZ 151000Z AUTO 11004KT 6SM 18/08 A3018 RMK T01800080 IEM_DS3505
ZGSZ,2001-12-15 11:00,ZGSZ 151100Z AUTO 09006KT 6SM 18/08 A3018 RMK T01800080 IEM_DS3505
ZGSZ,2001-12-15 12:00,ZGSZ 151200Z AUTO 00000KT 9SM 18/12 A3021 RMK SLP239 T01780124 52013 IEM_DS3505
ZGSZ,2001-12-15 13:00,ZGSZ 151300Z AUTO 05002KT 6SM 17/09 A3021 RMK T01700090 IEM_DS3505
ZGSZ,2001-12-15 14:00,ZGSZ 151400Z AUTO 04004KT 6SM 16/09 A3024 RMK T01600090 IEM_DS3505
ZGSZ,2001-12-15 15:00,ZGSZ 151500Z AUTO 01004KT 6SM 17/10 A3021 RMK T01700100 IEM_DS3505
ZGSZ,2001-12-15 16:00,ZGSZ 151600Z AUTO 04004KT 6SM 17/10 A3021 RMK T01700100 IEM_DS3505
ZGSZ,2001-12-15 17:00,ZGSZ 151700Z AUTO 05004KT 6SM 17/10 A3018 RMK T01700100 IEM_DS3505
ZGSZ,2001-12-15 18:00,ZGSZ 151800Z AUTO 04006KT 11SM 18/13 A3018 RMK SLP227 T01800128 57013 IEM_DS3505
ZGSZ,2001-12-15 19:00,ZGSZ 151900Z AUTO 02004KT 6SM 17/11 A3015 RMK T01700110 IEM_DS3505
ZGSZ,2001-12-15 20:00,ZGSZ 152000Z AUTO 06002KT 6SM 17/10 A3015 RMK T01700100 IEM_DS3505
ZGSZ,2001-12-15 21:00,ZGSZ 152100Z AUTO 07004KT 5SM 17/12 A3015 RMK SLP217 T01730124 57010 IEM_DS3505
ZGSZ,2001-12-15 22:00,ZGSZ 152200Z AUTO 10004KT 6SM 18/09 A3015 RMK T01800090 IEM_DS3505
ZGSZ,2001-12-15 23:00,ZGSZ 152300Z AUTO 04004KT 6SM 17/10 A3018 RMK T01700100 IEM_DS3505
ZGSZ,2001-12-16 00:00,ZGSZ 160000Z AUTO 04006KT 5SM 17/12 A3018 RMK 60000 SLP232 T01700123 52015 IEM_DS3505
ZGSZ,2001-12-16 01:00,ZGSZ 160100Z AUTO 07004KT 3SM 18/10 A3021 RMK T01800100 IEM_DS3505
ZGSZ,2001-12-16 02:00,ZGSZ 160200Z AUTO 07002KT 3SM 18/10 A3021 RMK T01800100 IEM_DS3505
ZGSZ,2001-12-16 03:00,ZGSZ 160300Z AUTO 09002KT 5SM 20/14 A3018 RMK SLP228 T01960137 57004 IEM_DS3505
ZGSZ,2001-12-16 04:00,ZGSZ 160400Z AUTO 05004KT 21/11 A3015 RMK T02100110 IEM_DS3505
ZGSZ,2001-12-16 05:00,ZGSZ 160500Z AUTO 12004KT 20/11 A3012 RMK T02000110 IEM_DS3505
ZGSZ,2001-12-16 06:00,ZGSZ 160600Z AUTO 11004KT 7SM 21/14 A3009 RMK 60003 SLP203 T02060145 57025 IEM_DS3505
ZGSZ,2001-12-16 07:00,ZGSZ 160700Z AUTO 27004KT 2 1/2SM 20/13 A3009 RMK T02000130 IEM_DS3505
ZGSZ,2001-12-16 08:00,ZGSZ 160800Z AUTO 30004KT 1 1/2SM 19/13 A3009 RMK T01900130 IEM_DS3505
ZGSZ,2001-12-16 09:00,ZGSZ 160900Z AUTO 09002KT 6SM 20/15 A3009 RMK SLP202 T01980152 57001 IEM_DS3505
ZGSZ,2001-12-16 10:00,ZGSZ 161000Z AUTO 2SM 19/14 A3009 RMK T01900140 IEM_DS3505
ZGSZ,2001-12-16 11:00,ZGSZ 161100Z AUTO 24002KT 2 1/2SM 19/14 A3012 RMK T01900140 IEM_DS3505
ZGSZ,2001-12-16 12:00,ZGSZ 161200Z AUTO 14004KT 11SM 20/16 A3012 RMK SLP214 T01990161 52012 IEM_DS3505
ZGSZ,2001-12-16 13:00,ZGSZ 161300Z AUTO 31004KT 1 1/4SM 18/14 A3012 RMK T01800140 IEM_DS3505
ZGSZ,2001-12-16 14:00,ZGSZ 161400Z AUTO 32006KT 1SM 18/14 A3015 RMK T01800140 IEM_DS3505
ZGSZ,2001-12-16 15:00,ZGSZ 161500Z AUTO 32006KT 1SM 18/14 A3015 RMK T01800140 IEM_DS3505
ZGSZ,2001-12-16 16:00,ZGSZ 161600Z AUTO 33004KT 1 1/4SM 18/14 A3012 RMK T01800140 IEM_DS3505
ZGSZ,2001-12-16 17:00,ZGSZ 161700Z AUTO 31006KT 1 1/4SM 18/14 A3012 RMK T01800140 IEM_DS3505
ZGSZ,2001-12-16 18:00,ZGSZ 161800Z AUTO 00000KT 3SM 20/16 RMK SLP201 T01980165 57015 IEM_DS3505
ZGSZ,2001-12-16 21:00,ZGSZ 162100Z AUTO 34002KT 3SM 20/17 A3009 RMK 70001 SLP198 T01970166 57003 IEM_DS3505
ZGSZ,2001-12-16 22:00,ZGSZ 162200Z AUTO 32008KT 1SM 17/14 A3012 RMK T01700140 IEM_DS3505
ZGSZ,2001-12-16 23:00,ZGSZ 162300Z AUTO 36004KT 1SM 18/14 A3012 RMK T01800140 IEM_DS3505
ZGSZ,2001-12-17 00:00,ZGSZ 170000Z AUTO 04002KT 4SM 20/17 A3012 RMK 70003 SLP213 T01950167 52014 IEM_DS3505
ZGSZ,2001-12-17 01:00,ZGSZ 170100Z AUTO 21002KT 1 1/2SM 19/14 A3015 RMK T01900140 IEM_DS3505
ZGSZ,2001-12-17 02:00,ZGSZ 170200Z AUTO 29004KT 2SM 19/15 A3015 RMK T01900150 IEM_DS3505
ZGSZ,2001-12-17 03:00,ZGSZ 170300Z AUTO 34002KT 3SM 21/16 A3015 RMK SLP214 T02090165 52002 IEM_DS3505
ZGSZ,2001-12-17 04:00,ZGSZ 170400Z AUTO 30006KT 1SM 19/16 A3012 RMK T01900160 IEM_DS3505
ZGSZ,2001-12-17 05:00,ZGSZ 170500Z AUTO 30008KT 1SM 19/16 A3009 RMK T01900160 IEM_DS3505
ZGSZ,2001-12-17 06:00,ZGSZ 170600Z AUTO 04002KT 2 1/2SM 22/17 A3006 RMK 60003 SLP193 T02190172 57021 IEM_DS3505
ZGSZ,2001-12-17 07:00,ZGSZ 170700Z AUTO 31008KT 1SM 19/16 A3006 RMK T01900160 IEM_DS3505
ZGSZ,2001-12-17 08:00,ZGSZ 170800Z AUTO 30008KT 1SM 18/16 A3006 RMK T01800160 IEM_DS3505
ZGSZ,2001-12-17 09:00,ZGSZ 170900Z AUTO 07002KT 2 1/2SM 20/18 A3009 RMK SLP195 T02020183 52002 IEM_DS3505
ZGSZ,2001-12-17 10:00,ZGSZ 171000Z AUTO 31006KT 1/2SM 18/16 A3009 RMK T01800160 IEM_DS3505
ZGSZ,2001-12-17 11:00,ZGSZ 171100Z AUTO 32008KT 1SM 18/16 A3009 RMK T01800160 IEM_DS3505
ZGSZ,2001-12-17 12:00,ZGSZ 171200Z AUTO 04004KT 2SM 20/18 A3012 RMK 60016 SLP213 T01980180 52017 IEM_DS3505
ZGSZ,2001-12-17 13:00,ZGSZ 171300Z AUTO 32010KT 1SM 17/15 A3015 RMK T01700150 IEM_DS3505
ZGSZ,2001-12-17 14:00,ZGSZ 171400Z AUTO 32008KT 1SM 16/14 A3015 RMK T01600140 IEM_DS3505
ZGSZ,2001-12-17 15:00,ZGSZ 171500Z AUTO 32010KT 1SM 16/14 A3015 RMK T01600140 IEM_DS3505
ZGSZ,2001-12-17 16:00,ZGSZ 171600Z AUTO 33008KT 1SM 16/14 A3015 RMK T01600140 IEM_DS3505
ZGSZ,2001-12-17 17:00,ZGSZ 171700Z AUTO 36008KT 1 1/4SM 16/14 A3015 RMK T01600140 IEM_DS3505
ZGSZ,2001-12-17 18:00,ZGSZ 171800Z AUTO 04008KT 6SM 16/15 A3015 RMK 60020 SLP218 T01650146 57005 IEM_DS3505
ZGSZ,2001-12-17 19:00,ZGSZ 171900Z AUTO 36008KT 1 1/4SM 15/13 A3015 RMK T01500130 IEM_DS3505
ZGSZ,2001-12-17 20:00,ZGSZ 172000Z AUTO 35008KT 1 1/2SM 14/12 A3015 RMK T01400120 IEM_DS3505
ZGSZ,2001-12-17 21:00,ZGSZ 172100Z AUTO 04008KT 3SM 15/14 A3015 RMK 70050 SLP221 T01470136 52003 IEM_DS3505
ZGSZ,2001-12-17 22:00,ZGSZ 172200Z AUTO 35010KT 2SM 14/11 A3018 RMK T01400110 IEM_DS3505
ZGSZ,2001-12-17 23:00,ZGSZ 172300Z AUTO 36010KT 2SM 13/11 A3018 RMK T01300110 IEM_DS3505
ZGSZ,2001-12-18 00:00,ZGSZ 180000Z AUTO 04008KT 7SM 14/12 A3021 RMK 60031 SLP239 T01360119 52018 IEM_DS3505
ZGSZ,2001-12-18 01:00,ZGSZ 180100Z AUTO 01010KT 7SM 13/10 A3024 RMK T01300100 IEM_DS3505
ZGSZ,2001-12-18 02:00,ZGSZ 180200Z AUTO 36008KT 7SM 13/10 A3024 RMK T01300100 IEM_DS3505
ZGSZ,2001-12-18 03:00,ZGSZ 180300Z AUTO 04010KT 7SM 13/11 A3024 RMK SLP240 T01320111 52001 IEM_DS3505
ZGSZ,2001-12-18 04:00,ZGSZ 180400Z AUTO 09004KT 6SM 13/10 A3021 RMK 60002 SLP231 T01320101 57009 IEM_DS3505
ZGSZ,2001-12-18 05:00,ZGSZ 180500Z AUTO 36008KT 7SM 12/10 A3021 RMK T01200100 IEM_DS3505
ZGSZ,2001-12-18 06:00,ZGSZ 180600Z AUTO 09004KT 6SM 13/10 A3018 RMK 60002 SLP231 T01320101 57009 IEM_DS3505
ZGSZ,2001-12-18 07:00,ZGSZ 180700Z AUTO 01008KT 7SM 12/10 A3018 RMK T01200100 IEM_DS3505
ZGSZ,2001-12-18 08:00,ZGSZ 180800Z AUTO 01008KT 7SM 12/10 A3021 RMK T01200100 IEM_DS3505
ZGSZ,2001-12-18 09:00,ZGSZ 180900Z AUTO 04004KT 5SM 12/11 RMK SLP236 T01250108 52004 IEM_DS3505
ZGSZ,2001-12-18 10:00,ZGSZ 181000Z AUTO 02010KT 5SM 12/09 A3021 RMK T01200090 IEM_DS3505
ZGSZ,2001-12-18 11:00,ZGSZ 181100Z AUTO 36006KT 4SM 12/09 A3021 RMK T01200090 IEM_DS3505
ZGSZ,2001-12-18 12:00,ZGSZ 181200Z AUTO 02004KT 6SM 12/10 A3024 RMK 60012 SLP247 T01240105 52011 IEM_DS3505
ZGSZ,2001-12-18 13:00,ZGSZ 181300Z AUTO 34006KT 2SM 12/10 A3024 RMK T01200100 IEM_DS3505
ZGSZ,2001-12-18 14:00,ZGSZ 181400Z AUTO 36008KT 3SM 12/09 A3024 RMK T01200090 IEM_DS3505
ZGSZ,2001-12-18 15:00,ZGSZ 181500Z AUTO 36010KT 5SM 12/09 A3024 RMK T01200090 IEM_DS3505
ZGSZ,2001-12-18 16:00,ZGSZ 181600Z AUTO 36008KT 5SM 12/09 A3024 RMK T01200090 IEM_DS3505
ZGSZ,2001-12-18 17:00,ZGSZ 181700Z AUTO 35008KT 2SM 12/09 A3027 RMK T01200090 IEM_DS3505
ZGSZ,2001-12-18 18:00,ZGSZ 181800Z AUTO 04008KT 3SM 12/10 A3027 RMK 60003 SLP258 T01230102 52004 IEM_DS3505
ZGSZ,2001-12-18 19:00,ZGSZ 181900Z AUTO 35006KT 2 1/2SM 11/09 A3027 RMK T01100090 IEM_DS3505
ZGSZ,2001-12-18 20:00,ZGSZ 182000Z AUTO 36008KT 2 1/2SM 12/09 A3024 RMK T01200090 IEM_DS3505
ZGSZ,2001-12-18 21:00,ZGSZ 182100Z AUTO 04008KT 11SM 12/09 A3024 RMK 70029 SLP248 T01240092 57010 IEM_DS3505
ZGSZ,2001-12-18 22:00,ZGSZ 182200Z AUTO 36008KT 7SM 12/09 A3024 RMK T01200090 IEM_DS3505
ZGSZ,2001-12-18 23:00,ZGSZ 182300Z AUTO 35008KT 7SM 12/09 A3027 RMK T01200090 IEM_DS3505
ZGSZ,2001-12-19 00:00,ZGSZ 190000Z AUTO 04008KT 12SM 13/10 A3027 RMK 60003 SLP261 T01260097 52013 IEM_DS3505
ZGSZ,2001-12-19 01:00,ZGSZ 190100Z AUTO 36008KT 7SM 12/08 A3030 RMK T01200080 IEM_DS3505
ZGSZ,2001-12-19 02:00,ZGSZ 190200Z AUTO 36010KT 7SM 13/08 A3030 RMK T01300080 IEM_DS3505
ZGSZ,2001-12-19 03:00,ZGSZ 190300Z AUTO 04004KT 7SM 14/10 A3033 RMK SLP274 T01450101 52013 IEM_DS3505
ZGSZ,2001-12-19 04:00,ZGSZ 190400Z AUTO 02010KT 7SM 15/09 A3030 RMK T01500090 IEM_DS3505
ZGSZ,2001-12-19 05:00,ZGSZ 190500Z AUTO 01008KT 7SM 15/09 A3024 RMK T01500090 IEM_DS3505
ZGSZ,2001-12-19 06:00,ZGSZ 190600Z AUTO 04006KT 8SM 18/11 A3021 RMK SLP239 T01800112 57034 IEM_DS3505
ZGSZ,2001-12-19 07:00,ZGSZ 190700Z AUTO 36012KT 6SM 17/10 A3021 RMK T01700100 IEM_DS3505
ZGSZ,2001-12-19 08:00,ZGSZ 190800Z AUTO 36012KT 6SM 17/10 A3021 RMK T01700100 IEM_DS3505
ZGSZ,2001-12-19 09:00,ZGSZ 190900Z AUTO 02004KT 8SM 19/12 A3021 RMK SLP233 T01880122 57006 IEM_DS3505
ZGSZ,2001-12-19 10:00,ZGSZ 191000Z AUTO 36010KT 6SM 16/10 A3021 RMK T01600100 IEM_DS3505
ZGSZ,2001-12-19 11:00,ZGSZ 191100Z AUTO 02006KT 6SM 16/10 A3021 RMK T01600100 IEM_DS3505
ZGSZ,2001-12-19 12:00,ZGSZ 191200Z AUTO 04008KT 8SM 16/11 RMK SLP246 T01600114 52012 IEM_DS3505
ZGSZ,2001-12-19 13:00,ZGSZ 191300Z AUTO 01006KT 6SM 15/10 A3024 RMK T01500100 IEM_DS3505
ZGSZ,2001-12-19 14:00,ZGSZ 191400Z AUTO 04004KT 6SM 14/10 A3024 RMK T01400100 IEM_DS3505
ZGSZ,2001-12-19 15:00,ZGSZ 191500Z AUTO 36006KT 6SM 15/10 A3024 RMK T01500100 IEM_DS3505
ZGSZ,2001-12-19 18:00,ZGSZ 191800Z AUTO 04006KT 9SM 15/11 RMK SLP244 T01520113 57004 IEM_DS3505
ZGSZ,2001-12-19 19:00,ZGSZ 191900Z AUTO 05004KT 7SM 15/10 A3024 RMK T01500100 IEM_DS3505
ZGSZ,2001-12-19 20:00,ZGSZ 192000Z AUTO 02002KT 7SM 15/10 A3021 RMK T01500100 IEM_DS3505
ZGSZ,2001-12-19 21:00,ZGSZ 192100Z AUTO 04006KT 6SM 15/12 A3021 RMK 70003 SLP245 T01460120 52001 IEM_DS3505
ZGSZ,2001-12-19 22:00,ZGSZ 192200Z AUTO 03008KT 7SM 14/09 A3024 RMK T01400090 IEM_DS3505
ZGSZ,2001-12-19 23:00,ZGSZ 192300Z AUTO 02006KT 7SM 14/10 A3027 RMK T01400100 IEM_DS3505
ZGSZ,2001-12-20 00:00,ZGSZ 200000Z AUTO 04004KT 5SM 14/12 A3027 RMK 60003 SLP268 T01440116 52022 IEM_DS3505
ZGSZ,2001-12-20 01:00,ZGSZ 200100Z AUTO 03006KT 7SM 15/10 A3030 RMK T01500100 IEM_DS3505
ZGSZ,2001-12-20 02:00,ZGSZ 200200Z AUTO 33004KT 7SM 16/10 A3030 RMK T01600100 IEM_DS3505
ZGSZ,2001-12-20 03:00,ZGSZ 200300Z AUTO 34004KT 4SM 17/12 A3030 RMK SLP269 T01720117 52002 IEM_DS3505
ZGSZ,2001-12-20 04:00,ZGSZ 200400Z AUTO 35008KT 6SM 18/10 A3027 RMK T01800100 IEM_DS3505
ZGSZ,2001-12-20 05:00,ZGSZ 200500Z AUTO 35010KT 6SM 20/11 A3021 RMK T02000110 IEM_DS3505
ZGSZ,2001-12-20 06:00,ZGSZ 200600Z AUTO 02006KT 5SM 21/13 A3021 RMK SLP234 T02090128 57035 IEM_DS3505
ZGSZ,2001-12-20 07:00,ZGSZ 200700Z AUTO 35008KT 6SM 21/11 A3018 RMK T02100110 IEM_DS3505
ZGSZ,2001-12-20 08:00,ZGSZ 200800Z AUTO 35008KT 6SM 20/11 A3018 RMK T02000110 IEM_DS3505
ZGSZ,2001-12-20 09:00,ZGSZ 200900Z AUTO 07004KT 4SM 20/14 A3018 RMK SLP228 T02050136 57006 IEM_DS3505
ZGSZ,2001-12-20 10:00,ZGSZ 201000Z AUTO 35008KT 6SM 18/12 A3021 RMK T01800120 IEM_DS3505
ZGSZ,2001-12-20 11:00,ZGSZ 201100Z AUTO 35008KT 6SM 17/11 A3024 RMK T01700110 IEM_DS3505
ZGSZ,2001-12-20 12:00,ZGSZ 201200Z AUTO 36010KT 4SM 19/13 A3027 RMK SLP251 T01870126 52023 IEM_DS3505
ZGSZ,2001-12-20 13:00,ZGSZ 201300Z AUTO 35008KT 16/10 A3027 RMK T01600100 IEM_DS3505
ZGSZ,2001-12-20 14:00,ZGSZ 201400Z AUTO 35008KT 15/09 A3030 RMK T01500090 IEM_DS3505
ZGSZ,2001-12-20 15:00,ZGSZ 201500Z AUTO 35008KT 15/09 A3030 RMK T01500090 IEM_DS3505
ZGSZ,2001-12-20 16:00,ZGSZ 201600Z AUTO 35008KT 5SM 14/09 A3030 RMK T01400090 IEM_DS3505
ZGSZ,2001-12-20 17:00,ZGSZ 201700Z AUTO 34008KT 7SM 14/08 A3030 RMK T01400080 IEM_DS3505
ZGSZ,2001-12-20 18:00,ZGSZ 201800Z AUTO 04008KT 9SM 15/10 RMK SLP266 T01480098 52001 IEM_DS3505
ZGSZ,2001-12-20 19:00,ZGSZ 201900Z AUTO 36017KT 7SM 14/06 A3030 RMK T01400060 IEM_DS3505
ZGSZ,2001-12-20 20:00,ZGSZ 202000Z AUTO 01014KT 7SM 13/05 A3030 RMK T01300050 IEM_DS3505
ZGSZ,2001-12-20 21:00,ZGSZ 202100Z AUTO 04008KT 12SM 13/07 A3030 RMK 70003 SLP264 T01310073 57002 IEM_DS3505
ZGSZ,2001-12-20 22:00,ZGSZ 202200Z AUTO 36014KT 6SM 13/04 A3030 RMK T01300040 IEM_DS3505
ZGSZ,2001-12-20 23:00,ZGSZ 202300Z AUTO 36014KT 6SM 12/04 A3033 RMK T01200040 IEM_DS3505
ZGSZ,2001-12-21 00:00,ZGSZ 210000Z AUTO 04008KT 16SM 13/06 A3036 RMK SLP283 T01280065 52018 IEM_DS3505
ZGSZ,2001-12-21 01:00,ZGSZ 210100Z AUTO 35014KT 7SM 13/04 A3039 RMK T01300040 IEM_DS3505
ZGSZ,2001-12-21 02:00,ZGSZ 210200Z AUTO 35014KT 7SM 13/04 A3039 RMK T01300040 IEM_DS3505
ZGSZ,2001-12-21 03:00,ZGSZ 210300Z AUTO 04008KT 16SM 13/05 A3039 RMK SLP294 T01340052 52011 IEM_DS3505
ZGSZ,2001-12-21 04:00,ZGSZ 210400Z AUTO 35017KT 6SM 15/04 A3036 RMK T01500040 IEM_DS3505
ZGSZ,2001-12-21 05:00,ZGSZ 210500Z AUTO 36016G25KT 6SM 16/03 A3030 RMK T01600030 IEM_DS3505
ZGSZ,2001-12-21 06:00,ZGSZ 210600Z AUTO 04010KT 16SM 16/05 A3027 RMK SLP260 T01630046 57033 IEM_DS3505
ZGSZ,2001-12-21 07:00,ZGSZ 210700Z AUTO 35014KT 6SM 16/03 A3024 RMK T01600030 IEM_DS3505
ZGSZ,2001-12-21 08:00,ZGSZ 210800Z AUTO 36016KT 6SM 16/03 A3024 RMK T01600030 IEM_DS3505
ZGSZ,2001-12-21 09:00,ZGSZ 210900Z AUTO 04012KT 16SM 15/02 A3027 RMK SLP255 T01530025 57006 IEM_DS3505
ZGSZ,2001-12-21 10:00,ZGSZ 211000Z AUTO 02016KT 6SM 14/00 A3027 RMK T01400000 IEM_DS3505
ZGSZ,2001-12-21 11:00,ZGSZ 211100Z AUTO 36016KT 6SM 13/01 A3030 RMK T01300010 IEM_DS3505
ZGSZ,2001-12-21 12:00,ZGSZ 211200Z AUTO 04008KT 13SM 12/02 A3033 RMK SLP286 T01180025 52031 IEM_DS3505
ZGSZ,2001-12-21 13:00,ZGSZ 211300Z AUTO 02012KT 6SM 11/M03 A3036 RMK T01101030 IEM_DS3505
ZGSZ,2001-12-21 14:00,ZGSZ 211400Z AUTO 01012KT 6SM 11/M02 A3039 RMK T01101020 IEM_DS3505
ZGSZ,2001-12-21 15:00,ZGSZ 211500Z AUTO 02010KT 6SM 10/M02 A3039 RMK T01001020 IEM_DS3505
ZGSZ,2001-12-21 16:00,ZGSZ 211600Z AUTO 02008KT 6SM 09/M03 A3039 RMK T00901030 IEM_DS3505
ZGSZ,2001-12-21 17:00,ZGSZ 211700Z AUTO 01012KT 6SM 09/M03 A3039 RMK T00901030 IEM_DS3505
ZGSZ,2001-12-21 18:00,ZGSZ 211800Z AUTO 04012KT 10SM 09/M05 A3036 RMK SLP296 T00881050 57006 IEM_DS3505
ZGSZ,2001-12-21 19:00,ZGSZ 211900Z AUTO 01012KT 6SM 08/M04 A3036 RMK T00801040 IEM_DS3505
ZGSZ,2001-12-21 20:00,ZGSZ 212000Z AUTO 02008G17KT 6SM 07/M04 A3036 RMK T00701040 IEM_DS3505
ZGSZ,2001-12-21 21:00,ZGSZ 212100Z AUTO 04012KT 9SM 08/M06 A3039 RMK SLP292 T00781059 57004 IEM_DS3505
ZGSZ,2001-12-21 22:00,ZGSZ 212200Z AUTO 02010KT 6SM 07/M04 A3039 RMK T00701040 IEM_DS3505
ZGSZ,2001-12-21 23:00,ZGSZ 212300Z AUTO 36014KT 6SM 06/M04 A3042 RMK T00601040 IEM_DS3505
ZGSZ,2001-12-22 00:00,ZGSZ 220000Z AUTO 04014KT 16SM 07/M06 A3042 RMK SLP306 T00691062 52013 IEM_DS3505
ZGSZ,2001-12-22 01:00,ZGSZ 220100Z AUTO 01012KT 6SM 07/M05 A3042 RMK T00701050 IEM_DS3505
ZGSZ,2001-12-22 02:00,ZGSZ 220200Z AUTO 01012KT 6SM 09/M05 A3042 RMK T00901050 IEM_DS3505
ZGSZ,2001-12-22 03:00,ZGSZ 220300Z AUTO 04010KT 7SM 09/M07 A3042 RMK SLP301 T00911067 57005 IEM_DS3505
ZGSZ,2001-12-22 04:00,ZGSZ 220400Z AUTO 36010KT 6SM 11/M05 A3036 RMK T01101050 IEM_DS3505
ZGSZ,2001-12-22 05:00,ZGSZ 220500Z AUTO 35010KT 6SM 13/M05 A3030 RMK T01301050 IEM_DS3505
ZGSZ,2001-12-22 06:00,ZGSZ 220600Z AUTO 07010KT 11SM 14/M06 A3027 RMK SLP252 T01391063 57048 IEM_DS3505
ZGSZ,2001-12-22 07:00,ZGSZ 220700Z AUTO 35010KT 6SM 14/M07 A3024 RMK T01401070 IEM_DS3505
ZGSZ,2001-12-22 08:00,ZGSZ 220800Z AUTO 36010KT 6SM 14/M07 A3024 RMK T01401070 IEM_DS3505
ZGSZ,2001-12-22 09:00,ZGSZ 220900Z AUTO 04008KT 12SM 15/M06 A3027 RMK SLP259 T01471060 52007 IEM_DS3505
ZGSZ,2001-12-22 10:00,ZGSZ 221000Z AUTO 04004KT 6SM 12/M04 A3027 RMK T01201040 IEM_DS3505
ZGSZ,2001-12-22 11:00,ZGSZ 221100Z AUTO 04004KT 5SM 12/M02 A3030 RMK SLP273 T01231017 IEM_DS3505
ZGSZ,2001-12-22 12:00,ZGSZ 221200Z AUTO 04004KT 5SM 12/M02 A3030 RMK SLP273 T01231017 52013 IEM_DS3505
ZGSZ,2001-12-22 13:00,ZGSZ 221300Z AUTO 36004KT 1 1/2SM 10/M01 A3030 RMK T01001010 IEM_DS3505
ZGSZ,2001-12-22 14:00,ZGSZ 221400Z AUTO 01004KT 1 1/2SM 09/M01 A3030 RMK T00901010 IEM_DS3505
ZGSZ,2001-12-22 15:00,ZGSZ 221500Z AUTO 36006KT 2SM 09/00 A3030 RMK T00900000 IEM_DS3505
ZGSZ,2001-12-22 17:00,ZGSZ 221700Z AUTO 36006KT 6SM 08/M03 A3030 RMK T00801030 IEM_DS3505
ZGSZ,2001-12-22 18:00,ZGSZ 221800Z AUTO 04004KT 12SM 10/M03 A3030 RMK SLP268 T00981032 57007 IEM_DS3505
ZGSZ,2001-12-22 21:00,ZGSZ 222100Z AUTO 04008KT 11SM 09/M05 A3027 RMK SLP255 T00921051 57013 IEM_DS3505
ZGSZ,2001-12-22 22:00,ZGSZ 222200Z AUTO 36008KT 6SM 08/M03 A3027 RMK T00801030 IEM_DS3505
ZGSZ,2001-12-22 23:00,ZGSZ 222300Z AUTO 36008KT 6SM 08/M03 A3030 RMK T00801030 IEM_DS3505
ZGSZ,2001-12-23 00:00,ZGSZ 230000Z AUTO 04004KT 12SM 09/M05 A3033 RMK SLP274 T00901046 52019 IEM_DS3505
ZGSZ,2001-12-23 01:00,ZGSZ 230100Z AUTO 01010KT 6SM 10/M04 A3033 RMK T01001040 IEM_DS3505
ZGSZ,2001-12-23 02:00,ZGSZ 230200Z AUTO 01010KT 6SM 12/M05 A3033 RMK T01201050 IEM_DS3505
ZGSZ,2001-12-23 03:00,ZGSZ 230300Z AUTO 34008KT 11SM 12/M04 A3030 RMK SLP270 T01201038 57004 IEM_DS3505
ZGSZ,2001-12-23 04:00,ZGSZ 230400Z AUTO 35008KT 6SM 15/M07 A3027 RMK T01501070 IEM_DS3505
ZGSZ,2001-12-23 05:00,ZGSZ 230500Z AUTO 35010KT 6SM 16/M08 A3024 RMK T01601080 IEM_DS3505
ZGSZ,2001-12-23 06:00,ZGSZ 230600Z AUTO 04010KT 16SM 18/M06 A3021 RMK SLP239 T01841056 57031 IEM_DS3505
ZGSZ,2001-12-23 07:00,ZGSZ 230700Z AUTO 35010KT 6SM 18/M09 A3018 RMK T01801090 IEM_DS3505
ZGSZ,2001-12-23 08:00,ZGSZ 230800Z AUTO 35008KT 6SM 18/M09 A3021 RMK T01801090 IEM_DS3505
ZGSZ,2001-12-23 09:00,ZGSZ 230900Z AUTO 07006KT 17SM 18/M04 A3021 RMK SLP240 T01791044 52001 IEM_DS3505
ZGSZ,2001-12-23 10:00,ZGSZ 231000Z AUTO 36004KT 14/M03 A3024 RMK T01401030 IEM_DS3505
ZGSZ,2001-12-23 11:00,ZGSZ 231100Z AUTO 01002KT 13/M02 A3024 RMK T01301020 IEM_DS3505
ZGSZ,2001-12-23 12:00,ZGSZ 231200Z AUTO 04004KT 4SM 14/01 A3027 RMK SLP263 T01420008 52023 IEM_DS3505
ZGSZ,2001-12-23 13:00,ZGSZ 231300Z AUTO 06004KT 1 1/4SM 11/00 A3027 RMK T01100000 IEM_DS3505
ZGSZ,2001-12-23 14:00,ZGSZ 231400Z AUTO 07004KT 1 1/2SM 10/00 A3027 RMK T01000000 IEM_DS3505
ZGSZ,2001-12-23 15:00,ZGSZ 231500Z AUTO 09004KT 1 1/2SM 10/00 A3027 RMK T01000000 IEM_DS3505
ZGSZ,2001-12-23 16:00,ZGSZ 231600Z AUTO 03004KT 2SM 09/M01 A3027 RMK T00901010 IEM_DS3505
ZGSZ,2001-12-23 17:00,ZGSZ 231700Z AUTO 10002KT 2SM 09/M01 A3024 RMK T00901010 IEM_DS3505
ZGSZ,2001-12-23 18:00,ZGSZ 231800Z AUTO 07004KT 4SM 11/04 A3024 RMK SLP251 T01080038 57016 IEM_DS3505
ZGSZ,2001-12-23 21:00,ZGSZ 232100Z AUTO 04002KT 3SM 10/02 A3024 RMK SLP254 T01000019 52003 IEM_DS3505
ZGSZ,2001-12-23 22:00,ZGSZ 232200Z AUTO 11004KT 3SM 07/M01 A3024 RMK T00701010 IEM_DS3505
ZGSZ,2001-12-23 23:00,ZGSZ 232300Z AUTO 29002KT 07/00 A3027 RMK T00700000 IEM_DS3505
ZGSZ,2001-12-24 00:00,ZGSZ 240000Z AUTO 04006KT 10SM 10/01 A3030 RMK SLP268 T00960007 52014 IEM_DS3505
ZGSZ,2001-12-24 01:00,ZGSZ 240100Z AUTO 13004KT 6SM 11/00 A3030 RMK T01100000 IEM_DS3505
ZGSZ,2001-12-24 02:00,ZGSZ 240200Z AUTO 29004KT 6SM 14/00 A3030 RMK T01400000 IEM_DS3505
ZGSZ,2001-12-24 03:00,ZGSZ 240300Z AUTO 07006KT 7SM 14/M01 A3027 RMK SLP260 T01421006 57008 IEM_DS3505
ZGSZ,2001-12-24 04:00,ZGSZ 240400Z AUTO 28004KT 6SM 17/M04 A3024 RMK T01701040 IEM_DS3505
ZGSZ,2001-12-24 05:00,ZGSZ 240500Z AUTO 28004KT 6SM 19/M03 A3021 RMK T01901030 IEM_DS3505
ZGSZ,2001-12-24 06:00,ZGSZ 240600Z AUTO 34004KT 9SM 20/M00 A3018 RMK SLP232 T02031004 57027 IEM_DS3505
ZGSZ,2001-12-24 07:00,ZGSZ 240700Z AUTO 28004KT 6SM 18/01 A3018 RMK T01800010 IEM_DS3505
ZGSZ,2001-12-24 08:00,ZGSZ 240800Z AUTO 28004KT 6SM 18/04 A3018 RMK T01800040 IEM_DS3505
ZGSZ,2001-12-24 09:00,ZGSZ 240900Z AUTO 14002KT 9SM 19/05 A3018 RMK SLP236 T01880049 52003 IEM_DS3505
ZGSZ,2001-12-24 10:00,ZGSZ 241000Z AUTO 35004KT 3SM 15/06 A3018 RMK T01500060 IEM_DS3505
ZGSZ,2001-12-24 11:00,ZGSZ 241100Z AUTO 09004KT 1 1/2SM 13/04 A3021 RMK T01300040 IEM_DS3505
ZGSZ,2001-12-24 12:00,ZGSZ 241200Z AUTO 16002KT 8SM 15/05 A3021 RMK SLP249 T01540053 52013 IEM_DS3505
ZGSZ,2001-12-24 13:00,ZGSZ 241300Z AUTO 09004KT 2SM 13/04 A3024 RMK T01300040 IEM_DS3505
ZGSZ,2001-12-24 14:00,ZGSZ 241400Z AUTO 08004KT 3SM 13/04 A3024 RMK T01300040 IEM_DS3505
ZGSZ,2001-12-24 15:00,ZGSZ 241500Z AUTO 09006KT 11/03 A3027 RMK T01100030 IEM_DS3505
ZGSZ,2001-12-24 16:00,ZGSZ 241600Z AUTO 09002KT 11/04 A3027 RMK T01100040 IEM_DS3505
ZGSZ,2001-12-24 17:00,ZGSZ 241700Z AUTO 07002KT 4SM 09/05 A3027 RMK T00900050 IEM_DS3505
ZGSZ,2001-12-24 18:00,ZGSZ 241800Z AUTO 04006KT 5SM 12/07 A3027 RMK SLP257 T01210071 57008 IEM_DS3505
ZGSZ,2001-12-24 19:00,ZGSZ 241900Z AUTO 06002KT 10/04 A3024 RMK T01000040 IEM_DS3505
ZGSZ,2001-12-24 20:00,ZGSZ 242000Z AUTO 08004KT 4SM 09/04 A3024 RMK T00900040 IEM_DS3505
ZGSZ,2001-12-24 21:00,ZGSZ 242100Z AUTO 04004KT 3SM 11/07 A3027 RMK SLP262 T01130069 52004 IEM_DS3505
ZGSZ,2001-12-24 22:00,ZGSZ 242200Z AUTO 05002KT 4SM 09/04 A3030 RMK T00900040 IEM_DS3505
ZGSZ,2001-12-24 23:00,ZGSZ 242300Z AUTO 04002KT 4SM 08/03 A3033 RMK T00800030 IEM_DS3505
ZGSZ,2001-12-25 00:00,ZGSZ 250000Z AUTO 04006KT 8SM 11/05 A3036 RMK SLP298 T01110052 52036 IEM_DS3505
ZGSZ,2001-12-25 01:00,ZGSZ 250100Z AUTO 01002KT 2 1/2SM 12/03 A3039 RMK T01200030 IEM_DS3505
ZGSZ,2001-12-25 02:00,ZGSZ 250200Z AUTO 02004KT 4SM 15/02 A3039 RMK T01500020 IEM_DS3505
ZGSZ,2001-12-25 03:00,ZGSZ 250300Z AUTO 04008KT 8SM 15/00 A3036 RMK SLP293 T01500004 57005 IEM_DS3505
ZGSZ,2001-12-25 04:00,ZGSZ 250400Z AUTO 03006KT 6SM 18/M01 A3033 RMK T01801010 IEM_DS3505
ZGSZ,2001-12-25 05:00,ZGSZ 250500Z AUTO 02008KT 6SM 19/M03 A3030 RMK T01901030 IEM_DS3505
ZGSZ,2001-12-25 06:00,ZGSZ 250600Z AUTO 04008KT 17SM 20/01 A3027 RMK SLP260 T02000008 57032 IEM_DS3505
ZGSZ,2001-12-25 07:00,ZGSZ 250700Z AUTO 07002KT 6SM 21/M04 A3027 RMK T02101040 IEM_DS3505
ZGSZ,2001-12-25 08:00,ZGSZ 250800Z AUTO 09006KT 6SM 20/M04 A3027 RMK T02001040 IEM_DS3505
ZGSZ,2001-12-25 09:00,ZGSZ 250900Z AUTO 09006KT 16SM 19/05 A3027 RMK SLP263 T01920047 52002 IEM_DS3505
ZGSZ,2001-12-25 10:00,ZGSZ 251000Z AUTO 01006KT 6SM 16/00 A3030 RMK T01600000 IEM_DS3505
ZGSZ,2001-12-25 11:00,ZGSZ 251100Z AUTO 04006KT 5SM 15/00 A3030 RMK T01500000 IEM_DS3505
ZGSZ,2001-12-25 12:00,ZGSZ 251200Z AUTO 09004KT 11SM 16/09 A3033 RMK SLP279 T01580087 52016 IEM_DS3505
ZGSZ,2001-12-25 13:00,ZGSZ 251300Z AUTO 09006KT 13/01 A3033 RMK T01300010 IEM_DS3505
ZGSZ,2001-12-25 14:00,ZGSZ 251400Z AUTO 09008KT 15/03 A3036 RMK T01500030 IEM_DS3505
ZGSZ,2001-12-25 15:00,ZGSZ 251500Z AUTO 07006KT 14/01 A3036 RMK T01400010 IEM_DS3505
ZGSZ,2001-12-25 16:00,ZGSZ 251600Z AUTO 03006KT 14/01 A3033 RMK T01400010 IEM_DS3505
ZGSZ,2001-12-25 18:00,ZGSZ 251800Z AUTO 02002KT 6SM 13/07 RMK SLP287 T01330071 52002 IEM_DS3505
ZGSZ,2001-12-25 19:00,ZGSZ 251900Z AUTO 34006KT 12/04 A3033 RMK T01200040 IEM_DS3505
ZGSZ,2001-12-25 20:00,ZGSZ 252000Z AUTO 36006KT 11/03 A3033 RMK T01100030 IEM_DS3505
ZGSZ,2001-12-25 21:00,ZGSZ 252100Z AUTO 04008KT 6SM 12/04 A3033 RMK SLP286 T01150041 57002 IEM_DS3505
ZGSZ,2001-12-25 22:00,ZGSZ 252200Z AUTO 36008KT 10/01 A3036 RMK T01000010 IEM_DS3505
ZGSZ,2001-12-25 23:00,ZGSZ 252300Z AUTO 01008KT 09/01 A3036 RMK T00900010 IEM_DS3505
ZGSZ,2001-12-26 00:00,ZGSZ 260000Z AUTO 04008KT 7SM 11/03 A3039 RMK SLP307 T01100032 52021 IEM_DS3505
ZGSZ,2001-12-26 01:00,ZGSZ 260100Z AUTO 01010KT 2 1/2SM 11/01 A3039 RMK T01100010 IEM_DS3505
ZGSZ,2001-12-26 02:00,ZGSZ 260200Z AUTO 03010KT 2 1/2SM 13/01 A3039 RMK T01300010 IEM_DS3505
ZGSZ,2001-12-26 03:00,ZGSZ 260300Z AUTO 04008KT 5SM 14/04 A3039 RMK SLP295 T01360036 57012 IEM_DS3505
ZGSZ,2001-12-26 04:00,ZGSZ 260400Z AUTO 01012KT 3SM 16/00 A3033 RMK T01600000 IEM_DS3505
ZGSZ,2001-12-26 05:00,ZGSZ 260500Z AUTO 33008KT 3SM 17/01 A3033 RMK T01700010 IEM_DS3505
ZGSZ,2001-12-26 06:00,ZGSZ 260600Z AUTO 36006KT 6SM 19/04 A3030 RMK SLP263 T01880037 57031 IEM_DS3505
ZGSZ,2001-12-26 07:00,ZGSZ 260700Z AUTO 35006KT 18/01 A3027 RMK T01800010 IEM_DS3505
ZGSZ,2001-12-26 08:00,ZGSZ 260800Z AUTO 34008KT 19/00 A3024 RMK T01900000 IEM_DS3505
ZGSZ,2001-12-26 09:00,ZGSZ 260900Z AUTO 07006KT 8SM 19/05 A3027 RMK SLP259 T01880046 57005 IEM_DS3505
ZGSZ,2001-12-26 10:00,ZGSZ 261000Z AUTO 36006KT 5SM 16/02 A3027 RMK T01600020 IEM_DS3505
ZGSZ,2001-12-26 11:00,ZGSZ 261100Z AUTO 02006KT 15/02 A3027 RMK T01500020 IEM_DS3505
ZGSZ,2001-12-26 12:00,ZGSZ 261200Z AUTO 14006KT 6SM 16/09 A3027 RMK SLP264 T01560087 52005 IEM_DS3505
ZGSZ,2001-12-26 13:00,ZGSZ 261300Z AUTO 13004KT 2 1/2SM 14/03 A3030 RMK T01400030 IEM_DS3505
ZGSZ,2001-12-26 15:00,ZGSZ 261500Z AUTO 09002KT 2SM 13/04 A3033 RMK T01300040 IEM_DS3505
ZGSZ,2001-12-26 16:00,ZGSZ 261600Z AUTO 02002KT 2SM 12/05 A3033 RMK T01200050 IEM_DS3505
ZGSZ,2001-12-26 17:00,ZGSZ 261700Z AUTO 09002KT 2SM 13/06 A3033 RMK T01300060 IEM_DS3505
ZGSZ,2001-12-26 18:00,ZGSZ 261800Z AUTO 02002KT 4SM 14/10 A3030 RMK SLP272 T01420104 57003 IEM_DS3505
ZGSZ,2001-12-26 19:00,ZGSZ 261900Z AUTO 04004KT 2 1/2SM 13/08 A3030 RMK T01300080 IEM_DS3505
ZGSZ,2001-12-26 20:00,ZGSZ 262000Z AUTO 04002KT 2SM 13/08 A3030 RMK T01300080 IEM_DS3505
ZGSZ,2001-12-26 21:00,ZGSZ 262100Z AUTO 04004KT 4SM 13/10 A3030 RMK SLP274 T01340095 52002 IEM_DS3505
ZGSZ,2001-12-26 22:00,ZGSZ 262200Z AUTO 04006KT 2 1/2SM 12/07 A3030 RMK T01200070 IEM_DS3505
ZGSZ,2001-12-26 23:00,ZGSZ 262300Z AUTO 05006KT 3SM 11/07 A3033 RMK T01100070 IEM_DS3505
ZGSZ,2001-12-27 00:00,ZGSZ 270000Z AUTO 04006KT 3SM 13/07 A3036 RMK SLP293 T01290073 52018 IEM_DS3505
ZGSZ,2001-12-27 01:00,ZGSZ 270100Z AUTO 04008KT 3SM 13/05 A3036 RMK T01300050 IEM_DS3505
ZGSZ,2001-12-27 02:00,ZGSZ 270200Z AUTO 05008KT 4SM 15/03 A3039 RMK T01500030 IEM_DS3505
ZGSZ,2001-12-27 03:00,ZGSZ 270300Z AUTO 34006KT 4SM 15/06 RMK SLP292 T01510064 57001 IEM_DS3505
ZGSZ,2001-12-27 04:00,ZGSZ 270400Z AUTO 09004KT 18/02 A3033 RMK T01800020 IEM_DS3505
ZGSZ,2001-12-27 06:00,ZGSZ 270600Z AUTO 34006KT 5SM 19/04 RMK SLP263 T01930045 57028 IEM_DS3505
ZGSZ,2001-12-27 07:00,ZGSZ 270700Z AUTO 30010KT 18/04 A3024 RMK T01800040 IEM_DS3505
ZGSZ,2001-12-27 08:00,ZGSZ 270800Z AUTO 28008KT 18/05 A3024 RMK T01800050 IEM_DS3505
ZGSZ,2001-12-27 09:00,ZGSZ 270900Z AUTO 36002KT 4SM 19/05 A3027 RMK SLP258 T01920047 57005 IEM_DS3505
ZGSZ,2001-12-27 10:00,ZGSZ 271000Z AUTO 01006KT 3SM 17/02 A3027 RMK T01700020 IEM_DS3505
ZGSZ,2001-12-27 11:00,ZGSZ 271100Z AUTO 36004KT 2SM 16/03 A3030 RMK T01600030 IEM_DS3505
ZGSZ,2001-12-27 12:00,ZGSZ 271200Z AUTO 04004KT 3SM 17/05 RMK SLP276 T01660053 52017 IEM_DS3505
ZGSZ,2001-12-27 13:00,ZGSZ 271300Z AUTO 35008KT 1 1/2SM 13/03 A3030 RMK T01300030 IEM_DS3505
ZGSZ,2001-12-27 14:00,ZGSZ 271400Z AUTO 36008KT 2SM 13/02 A3030 RMK T01300020 IEM_DS3505
ZGSZ,2001-12-27 15:00,ZGSZ 271500Z AUTO 36010KT 2SM 13/02 A3030 RMK T01300020 IEM_DS3505
ZGSZ,2001-12-27 16:00,ZGSZ 271600Z AUTO 36006KT 2SM 12/02 A3030 RMK T01200020 IEM_DS3505
ZGSZ,2001-12-27 17:00,ZGSZ 271700Z AUTO 35004KT 2SM 11/03 A3030 RMK T01100030 IEM_DS3505
ZGSZ,2001-12-27 18:00,ZGSZ 271800Z AUTO 04006KT 6SM 14/03 A3030 RMK SLP270 T01380030 57007 IEM_DS3505
ZGSZ,2001-12-27 19:00,ZGSZ 271900Z AUTO 02004KT 3SM 11/01 A3030 RMK T01100010 IEM_DS3505
ZGSZ,2001-12-27 20:00,ZGSZ 272000Z AUTO 35004KT 3SM 11/02 A3030 RMK T01100020 IEM_DS3505
ZGSZ,2001-12-27 21:00,ZGSZ 272100Z AUTO 04008KT 5SM 13/01 A3030 RMK SLP273 T01260009 52003 IEM_DS3505
ZGSZ,2001-12-27 22:00,ZGSZ 272200Z AUTO 01006KT 10/M01 A3033 RMK T01001010 IEM_DS3505
ZGSZ,2001-12-27 23:00,ZGSZ 272300Z AUTO 36004KT 6SM 11/M02 A3033 RMK T01101020 IEM_DS3505
ZGSZ,2001-12-28 00:00,ZGSZ 280000Z AUTO 04010KT 8SM 11/01 A3036 RMK SLP294 T01140007 52020 IEM_DS3505
ZGSZ,2001-12-28 01:00,ZGSZ 280100Z AUTO 36008KT 6SM 12/M02 A3039 RMK T01201020 IEM_DS3505
ZGSZ,2001-12-28 02:00,ZGSZ 280200Z AUTO 04006KT 6SM 14/M03 A3039 RMK T01401030 IEM_DS3505
ZGSZ,2001-12-28 03:00,ZGSZ 280300Z AUTO 07004KT 6SM 14/01 A3036 RMK SLP291 T01370006 57003 IEM_DS3505
ZGSZ,2001-12-28 04:00,ZGSZ 280400Z AUTO 07006KT 6SM 16/M02 A3033 RMK T01601020 IEM_DS3505
ZGSZ,2001-12-28 05:00,ZGSZ 280500Z AUTO 35010KT 6SM 17/M01 A3030 RMK T01701010 IEM_DS3505
ZGSZ,2001-12-28 06:00,ZGSZ 280600Z AUTO 04008KT 4SM 18/02 A3027 RMK SLP262 T01820024 57028 IEM_DS3505
ZGSZ,2001-12-28 07:00,ZGSZ 280700Z AUTO 34010KT 6SM 18/00 A3027 RMK T01800000 IEM_DS3505
ZGSZ,2001-12-28 08:00,ZGSZ 280800Z AUTO 36010KT 6SM 18/M02 A3027 RMK T01801020 IEM_DS3505
ZGSZ,2001-12-28 09:00,ZGSZ 280900Z AUTO 36008KT 5SM 18/02 A3027 RMK SLP267 T01770019 52004 IEM_DS3505
ZGSZ,2001-12-28 10:00,ZGSZ 281000Z AUTO 36008KT 15/00 A3030 RMK T01500000 IEM_DS3505
ZGSZ,2001-12-28 12:00,ZGSZ 281200Z AUTO 04004KT 4SM 15/03 A3030 RMK SLP269 T01530034 52002 IEM_DS3505
ZGSZ,2001-12-28 13:00,ZGSZ 281300Z AUTO 35006KT 2SM 13/01 A3030 RMK T01300010 IEM_DS3505
ZGSZ,2001-12-28 14:00,ZGSZ 281400Z AUTO 36006KT 2 1/2SM 12/01 A3030 RMK T01200010 IEM_DS3505
ZGSZ,2001-12-28 15:00,ZGSZ 281500Z AUTO 36008KT 3SM 12/01 A3030 RMK T01200010 IEM_DS3505
ZGSZ,2001-12-28 16:00,ZGSZ 281600Z AUTO 36008KT 2 1/2SM 11/01 A3030 RMK T01100010 IEM_DS3505
ZGSZ,2001-12-28 17:00,ZGSZ 281700Z AUTO 35008KT 2SM 11/02 A3030 RMK T01100020 IEM_DS3505
ZGSZ,2001-12-28 18:00,ZGSZ 281800Z AUTO 04008KT 7SM 13/01 A3030 RMK SLP267 T01300012 57002 IEM_DS3505
ZGSZ,2001-12-28 19:00,ZGSZ 281900Z AUTO 35006KT 2SM 10/01 A3027 RMK T01000010 IEM_DS3505
ZGSZ,2001-12-28 20:00,ZGSZ 282000Z AUTO 04004KT 2SM 10/01 A3027 RMK T01000010 IEM_DS3505
ZGSZ,2001-12-28 21:00,ZGSZ 282100Z AUTO 04008KT 7SM 12/M01 A3027 RMK SLP264 T01211013 57004 IEM_DS3505
ZGSZ,2001-12-28 22:00,ZGSZ 282200Z AUTO 36008KT 2 1/2SM 10/00 A3030 RMK T01000000 IEM_DS3505
ZGSZ,2001-12-28 23:00,ZGSZ 282300Z AUTO 35006KT 2 1/2SM 09/00 A3030 RMK T00900000 IEM_DS3505
ZGSZ,2001-12-29 00:00,ZGSZ 290000Z AUTO 04010KT 7SM 12/M01 A3030 RMK SLP269 T01161006 52005 IEM_DS3505
ZGSZ,2001-12-29 01:00,ZGSZ 290100Z AUTO 35008KT 3SM 12/00 A3033 RMK T01200000 IEM_DS3505
ZGSZ,2001-12-29 02:00,ZGSZ 290200Z AUTO 36006KT 3SM 13/M01 A3033 RMK T01301010 IEM_DS3505
ZGSZ,2001-12-29 03:00,ZGSZ 290300Z AUTO 04008KT 6SM 14/01 A3030 RMK SLP265 T01430009 57004 IEM_DS3505
ZGSZ,2001-12-29 04:00,ZGSZ 290400Z AUTO 35008KT 3SM 16/00 A3027 RMK T01600000 IEM_DS3505
ZGSZ,2001-12-29 05:00,ZGSZ 290500Z AUTO 34008KT 3SM 17/M01 A3024 RMK T01701010 IEM_DS3505
ZGSZ,2001-12-29 06:00,ZGSZ 290600Z AUTO 07006KT 6SM 19/03 A3018 RMK SLP227 T01860028 57037 IEM_DS3505
ZGSZ,2001-12-29 07:00,ZGSZ 290700Z AUTO 34008KT 3SM 18/00 A3015 RMK T01800000 IEM_DS3505
ZGSZ,2001-12-29 08:00,ZGSZ 290800Z AUTO 34008KT 18/00 A3015 RMK T01800000 IEM_DS3505
ZGSZ,2001-12-29 09:00,ZGSZ 290900Z AUTO 04006KT 6SM 18/03 A3015 RMK SLP221 T01840034 57006 IEM_DS3505
ZGSZ,2001-12-29 10:00,ZGSZ 291000Z AUTO 32004KT 3SM 15/04 A3018 RMK T01500040 IEM_DS3505
ZGSZ,2001-12-29 11:00,ZGSZ 291100Z AUTO 05002KT 1 1/4SM 14/03 A3018 RMK T01400030 IEM_DS3505
ZGSZ,2001-12-29 12:00,ZGSZ 291200Z AUTO 04004KT 6SM 16/03 A3018 RMK SLP233 T01560033 52011 IEM_DS3505
ZGSZ,2001-12-29 13:00,ZGSZ 291300Z AUTO 08002KT 1 1/4SM 11/03 A3018 RMK T01100030 IEM_DS3505
ZGSZ,2001-12-29 14:00,ZGSZ 291400Z AUTO 08002KT 2SM 12/02 A3018 RMK T01200020 IEM_DS3505
ZGSZ,2001-12-29 15:00,ZGSZ 291500Z AUTO 1 1/2SM 11/03 A3018 RMK T01100030 IEM_DS3505
ZGSZ,2001-12-29 16:00,ZGSZ 291600Z AUTO 09002KT 1 1/4SM 10/03 A3018 RMK T01000030 IEM_DS3505
ZGSZ,2001-12-29 17:00,ZGSZ 291700Z AUTO 02002KT 1 1/2SM 10/04 A3018 RMK T01000040 IEM_DS3505
ZGSZ,2001-12-29 18:00,ZGSZ 291800Z AUTO 04004KT 4SM 13/04 A3018 RMK SLP226 T01300039 57006 IEM_DS3505
ZGSZ,2001-12-29 21:00,ZGSZ 292100Z AUTO 04006KT 4SM 12/02 A3018 RMK SLP227 T01230015 52001 IEM_DS3505
ZGSZ,2001-12-29 22:00,ZGSZ 292200Z AUTO 36006KT 10/02 A3015 RMK T01000020 IEM_DS3505
ZGSZ,2001-12-29 23:00,ZGSZ 292300Z AUTO 29002KT 09/02 A3018 RMK T00900020 IEM_DS3505
ZGSZ,2001-12-30 00:00,ZGSZ 300000Z AUTO 04006KT 10SM 12/01 A3018 RMK SLP241 T01170009 52013 IEM_DS3505
ZGSZ,2001-12-30 01:00,ZGSZ 300100Z AUTO 19002KT 13/00 A3021 RMK T01300000 IEM_DS3505
ZGSZ,2001-12-30 03:00,ZGSZ 300300Z AUTO 04004KT 6SM 16/02 A3021 RMK SLP237 T01550019 57003 IEM_DS3505
ZGSZ,2001-12-30 04:00,ZGSZ 300400Z AUTO 27004KT 17/00 A3015 RMK T01700000 IEM_DS3505
ZGSZ,2001-12-30 05:00,ZGSZ 300500Z AUTO 28006KT 3SM 18/03 A3012 RMK T01800030 IEM_DS3505
ZGSZ,2001-12-30 06:00,ZGSZ 300600Z AUTO 09006KT 6SM 20/02 A3009 RMK SLP198 T01980016 57039 IEM_DS3505
ZGSZ,2001-12-30 07:00,ZGSZ 300700Z AUTO 29006KT 3SM 18/05 A3006 RMK T01800050 IEM_DS3505
ZGSZ,2001-12-30 08:00,ZGSZ 300800Z AUTO 28004KT 19/03 A3006 RMK T01900030 IEM_DS3505
ZGSZ,2001-12-30 09:00,ZGSZ 300900Z AUTO 07004KT 7SM 19/04 A3006 RMK SLP196 T01920041 57002 IEM_DS3505
ZGSZ,2001-12-30 10:00,ZGSZ 301000Z AUTO 32002KT 16/05 A3009 RMK T01600050 IEM_DS3505
ZGSZ,2001-12-30 11:00,ZGSZ 301100Z AUTO 08004KT 15/02 A3009 RMK T01500020 IEM_DS3505
ZGSZ,2001-12-30 12:00,ZGSZ 301200Z AUTO 14006KT 6SM 16/07 A3009 RMK SLP207 T01600066 52011 IEM_DS3505
ZGSZ,2001-12-30 13:00,ZGSZ 301300Z AUTO 09004KT 1 1/4SM 14/02 A3009 RMK T01400020 IEM_DS3505
ZGSZ,2001-12-30 14:00,ZGSZ 301400Z AUTO 10004KT 1 1/2SM 13/03 A3009 RMK T01300030 IEM_DS3505
ZGSZ,2001-12-30 15:00,ZGSZ 301500Z AUTO 09006KT 2SM 15/05 A3009 RMK T01500050 IEM_DS3505
ZGSZ,2001-12-30 16:00,ZGSZ 301600Z AUTO 09006KT 2 1/2SM 15/06 A3012 RMK T01500060 IEM_DS3505
ZGSZ,2001-12-30 17:00,ZGSZ 301700Z AUTO 09006KT 2 1/2SM 15/06 A3012 RMK T01500060 IEM_DS3505
ZGSZ,2001-12-30 18:00,ZGSZ 301800Z AUTO 04004KT 5SM 14/10 A3012 RMK SLP206 T01420095 52002 IEM_DS3505
ZGSZ,2001-12-30 21:00,ZGSZ 302100Z AUTO 04004KT 4SM 13/09 A3009 RMK SLP202 T01280088 57004 IEM_DS3505
ZGSZ,2001-12-30 22:00,ZGSZ 302200Z AUTO 11002KT 4SM 11/07 A3009 RMK T01100070 IEM_DS3505
ZGSZ,2001-12-30 23:00,ZGSZ 302300Z AUTO 30002KT 4SM 11/06 A3009 RMK T01100060 IEM_DS3505
