station,valid,metar
ZGSZ,2007-01-01 00:00,ZGSZ 010000Z AUTO 11002KT 6SM 16/13 A3012 RMK SLP200 T01590132 57003 IEM_DS3505
ZGSZ,2007-01-01 01:00,ZGSZ 010100Z AUTO 07004KT 3SM 19/13 A3012 RMK T01900130 IEM_DS3505
ZGSZ,2007-01-01 02:00,ZGSZ 010200Z AUTO 3SM 21/12 A3012 RMK T02100120 IEM_DS3505
ZGSZ,2007-01-01 03:00,ZGSZ 010300Z AUTO 02004KT 6SM 21/12 A3012 RMK SLP196 T02080117 57004 IEM_DS3505
ZGSZ,2007-01-01 04:00,ZGSZ 010400Z AUTO 27006KT 2SM 21/13 A3006 RMK T02100130 IEM_DS3505
ZGSZ,2007-01-01 05:00,ZGSZ 010500Z AUTO 28008KT 2SM 22/14 A3003 RMK T02200140 IEM_DS3505
ZGSZ,2007-01-01 06:00,ZGSZ 010600Z AUTO 07002KT 9SM 24/13 A3000 RMK SLP164 T02350128 57031 IEM_DS3505
ZGSZ,2007-01-01 07:00,ZGSZ 010700Z AUTO 25004KT 3SM 22/13 A3000 RMK T02200130 IEM_DS3505
ZGSZ,2007-01-01 08:00,ZGSZ 010800Z AUTO 19004KT 2 1/2SM 22/14 A3000 RMK T02200140 IEM_DS3505
ZGSZ,2007-01-01 09:00,ZGSZ 010900Z AUTO 22004KT 7SM 22/14 A3000 RMK SLP164 T02190138 57001 IEM_DS3505
ZGSZ,2007-01-01 10:00,ZGSZ 011000Z AUTO 17004KT 4SM 19/16 A3000 RMK T01900160 IEM_DS3505
ZGSZ,2007-01-01 11:00,ZGSZ 011100Z AUTO 15006KT 3SM 18/16 A3003 RMK T01800160 IEM_DS3505
ZGSZ,2007-01-01 12:00,ZGSZ 011200Z AUTO 07006KT 7SM 19/14 A3003 RMK SLP178 T01880143 52014 IEM_DS3505
ZGSZ,2007-01-01 13:00,ZGSZ 011300Z AUTO 2 1/2SM 18/17 A3006 RMK T01800170 IEM_DS3505
ZGSZ,2007-01-01 14:00,ZGSZ 011400Z AUTO 15004KT 3SM 17/15 A3006 RMK T01700150 IEM_DS3505
ZGSZ,2007-01-01 15:00,ZGSZ 011500Z AUTO 3SM 19/15 A3006 RMK T01900150 IEM_DS3505
ZGSZ,2007-01-01 16:00,ZGSZ 011600Z AUTO 00000KT 3SM 18/14 A3006 RMK T01800140 IEM_DS3505
ZGSZ,2007-01-01 17:00,ZGSZ 011700Z AUTO 00000KT 3SM 18/15 A3006 RMK T01800150 IEM_DS3505
ZGSZ,2007-01-01 18:00,ZGSZ 011800Z AUTO 07006KT 5SM 18/15 A3006 RMK SLP180 T01780151 54000 IEM_DS3505
ZGSZ,2007-01-01 19:00,ZGSZ 011900Z AUTO 3SM 18/15 A3006 RMK T01800150 IEM_DS3505
ZGSZ,2007-01-01 20:00,ZGSZ 012000Z AUTO 2 1/2SM 18/15 A3003 RMK T01800150 IEM_DS3505
ZGSZ,2007-01-01 21:00,ZGSZ 012100Z AUTO 07004KT 4SM 17/15 A3003 RMK SLP171 T01730149 57010 IEM_DS3505
ZGSZ,2007-01-01 22:00,ZGSZ 012200Z AUTO 00000KT 2SM 17/15 A3003 RMK T01700150 IEM_DS3505
ZGSZ,2007-01-01 23:00,ZGSZ 012300Z AUTO 00000KT 2 1/2SM 17/15 A3003 RMK T01700150 IEM_DS3505
ZGSZ,2007-01-02 00:00,ZGSZ 020000Z AUTO 02002KT 4SM 18/15 A3006 RMK SLP178 T01770151 52007 IEM_DS3505
ZGSZ,2007-01-02 01:00,ZGSZ 020100Z AUTO 01004KT 2SM 19/15 A3006 RMK T01900150 IEM_DS3505
ZGSZ,2007-01-02 02:00,ZGSZ 020200Z AUTO 02004KT 2SM 20/16 A3006 RMK T02000160 IEM_DS3505
ZGSZ,2007-01-02 03:00,ZGSZ 020300Z AUTO 36002KT 6SM 20/15 A3006 RMK SLP180 T02040147 52002 IEM_DS3505
ZGSZ,2007-01-02 04:00,ZGSZ 020400Z AUTO 24004KT 3SM 21/16 A3003 RMK T02100160 IEM_DS3505
ZGSZ,2007-01-02 05:00,ZGSZ 020500Z AUTO 22004KT 4SM 21/16 A3000 RMK T02100160 IEM_DS3505
ZGSZ,2007-01-02 06:00,ZGSZ 020600Z AUTO 09002KT 6SM 22/14 A2997 RMK SLP153 T02200136 57026 IEM_DS3505
ZGSZ,2007-01-02 07:00,ZGSZ 020700Z AUTO 24004KT 1 1/2SM 20/16 A2994 RMK T02000160 IEM_DS3505
ZGSZ,2007-01-02 08:00,ZGSZ 020800Z AUTO 3SM 21/15 A2994 RMK T02100150 IEM_DS3505
ZGSZ,2007-01-02 09:00,ZGSZ 020900Z AUTO 07006KT 4SM 20/14 A2994 RMK SLP147 T02010140 57007 IEM_DS3505
ZGSZ,2007-01-02 10:00,ZGSZ 021000Z AUTO 25004KT 2SM 20/16 A2994 RMK T02000160 IEM_DS3505
ZGSZ,2007-01-02 11:00,ZGSZ 021100Z AUTO 4SM 19/15 A2994 RMK T01900150 IEM_DS3505
ZGSZ,2007-01-02 12:00,ZGSZ 021200Z AUTO 07006KT 4SM 19/15 A2997 RMK 60000 SLP154 T01860147 52007 IEM_DS3505
ZGSZ,2007-01-02 13:00,ZGSZ 021300Z AUTO 11006KT 4SM 20/15 A2997 RMK T02000150 IEM_DS3505
ZGSZ,2007-01-02 14:00,ZGSZ 021400Z AUTO 12006KT 4SM 19/15 A3000 RMK T01900150 IEM_DS3505
ZGSZ,2007-01-02 15:00,ZGSZ 021500Z AUTO 04004KT 5SM 19/15 A3000 RMK T01900150 IEM_DS3505
ZGSZ,2007-01-02 16:00,ZGSZ 021600Z AUTO 05002KT 4SM 19/15 A3000 RMK T01900150 IEM_DS3505
ZGSZ,2007-01-02 17:00,ZGSZ 021700Z AUTO 03004KT 3SM 19/15 A3003 RMK T01900150 IEM_DS3505
ZGSZ,2007-01-02 18:00,ZGSZ 021800Z AUTO 07002KT 5SM 19/16 A3003 RMK SLP168 T01860157 52005 IEM_DS3505
ZGSZ,2007-01-02 19:00,ZGSZ 021900Z AUTO 01006KT 2 1/2SM 19/16 A3000 RMK T01900160 IEM_DS3505
ZGSZ,2007-01-02 20:00,ZGSZ 022000Z AUTO 03004KT 2 1/2SM 18/16 A3000 RMK T01800160 IEM_DS3505
ZGSZ,2007-01-02 21:00,ZGSZ 022100Z AUTO 07004KT 2 1/2SM 18/16 A3000 RMK 70002 SLP168 T01790162 57001 IEM_DS3505
ZGSZ,2007-01-02 22:00,ZGSZ 022200Z AUTO 01004KT 2SM 18/16 A3000 RMK T01800160 IEM_DS3505
ZGSZ,2007-01-02 23:00,ZGSZ 022300Z AUTO 2SM 18/16 A3003 RMK T01800160 IEM_DS3505
ZGSZ,2007-01-03 00:00,ZGSZ 030000Z AUTO 04004KT 4SM 18/15 A3003 RMK 60002 70002 SLP175 T01830154 52007 IEM_DS3505
ZGSZ,2007-01-03 01:00,ZGSZ 030100Z AUTO 01004KT 2SM 19/16 A3006 RMK T01900160 IEM_DS3505
ZGSZ,2007-01-03 02:00,ZGSZ 030200Z AUTO 04004KT 2SM 20/16 A3006 RMK T02000160 IEM_DS3505
ZGSZ,2007-01-03 03:00,ZGSZ 030300Z AUTO 04008KT 3SM 20/15 A3003 RMK SLP177 T02050153 52002 IEM_DS3505
ZGSZ,2007-01-03 04:00,ZGSZ 030400Z AUTO 01006KT 2 1/2SM 21/14 A3003 RMK T02100140 IEM_DS3505
ZGSZ,2007-01-03 05:00,ZGSZ 030500Z AUTO 02010KT 2 1/2SM 21/14 A3000 RMK T02100140 IEM_DS3505
ZGSZ,2007-01-03 06:00,ZGSZ 030600Z AUTO 02006KT 2 1/2SM 22/15 A2997 RMK SLP151 T02180154 57025 IEM_DS3505
ZGSZ,2007-01-03 07:00,ZGSZ 030700Z AUTO 36006KT 2 1/2SM 23/14 A2997 RMK T02300140 IEM_DS3505
ZGSZ,2007-01-03 08:00,ZGSZ 030800Z AUTO 35010KT 2 1/2SM 22/14 A2997 RMK T02200140 IEM_DS3505
ZGSZ,2007-01-03 09:00,ZGSZ 030900Z AUTO 04008KT 2 1/2SM 21/15 A3000 RMK SLP157 T02110152 52006 IEM_DS3505
ZGSZ,2007-01-03 10:00,ZGSZ 031000Z AUTO 03010KT 2 1/2SM 20/14 A3000 RMK T02000140 IEM_DS3505
ZGSZ,2007-01-03 11:00,ZGSZ 031100Z AUTO 02004KT 2 1/2SM 20/14 A3000 RMK T02000140 IEM_DS3505
ZGSZ,2007-01-03 12:00,ZGSZ 031200Z AUTO 07010KT 4SM 19/14 A3003 RMK SLP170 T01920136 52012 IEM_DS3505
ZGSZ,2007-01-03 13:00,ZGSZ 031300Z AUTO 36008KT 3SM 19/13 A3006 RMK T01900130 IEM_DS3505
ZGSZ,2007-01-03 14:00,ZGSZ 031400Z AUTO 01008KT 3SM 18/12 A3006 RMK T01800120 IEM_DS3505
ZGSZ,2007-01-03 15:00,ZGSZ 031500Z AUTO 02008KT 3SM 17/11 A3006 RMK T01700110 IEM_DS3505
ZGSZ,2007-01-03 16:00,ZGSZ 031600Z AUTO 01012KT 3SM 17/11 A3009 RMK T01700110 IEM_DS3505
ZGSZ,2007-01-03 17:00,ZGSZ 031700Z AUTO 02012KT 3SM 16/11 A3009 RMK T01600110 IEM_DS3505
ZGSZ,2007-01-03 18:00,ZGSZ 031800Z AUTO 34008KT 4SM 16/12 A3009 RMK SLP189 T01550115 52005 IEM_DS3505
ZGSZ,2007-01-03 19:00,ZGSZ 031900Z AUTO 03008KT 3SM 16/10 A3009 RMK T01600100 IEM_DS3505
ZGSZ,2007-01-03 20:00,ZGSZ 032000Z AUTO 03010KT 3SM 15/10 A3006 RMK T01500100 IEM_DS3505
ZGSZ,2007-01-03 21:00,ZGSZ 032100Z AUTO 04008KT 3SM 15/11 A3009 RMK 70000 SLP186 T01470111 57003 IEM_DS3505
ZGSZ,2007-01-03 22:00,ZGSZ 032200Z AUTO 01010KT 3SM 14/10 A3009 RMK T01400100 IEM_DS3505
ZGSZ,2007-01-03 23:00,ZGSZ 032300Z AUTO 36010KT 3SM 14/10 A3012 RMK T01400100 IEM_DS3505
ZGSZ,2007-01-04 00:00,ZGSZ 040000Z AUTO 34004KT 8SM 14/10 A3012 RMK SLP204 T01390103 52017 IEM_DS3505
ZGSZ,2007-01-04 01:00,ZGSZ 040100Z AUTO 03010KT 4SM 15/09 A3015 RMK T01500090 IEM_DS3505
ZGSZ,2007-01-04 02:00,ZGSZ 040200Z AUTO 02010KT 4SM 17/09 A3015 RMK T01700090 IEM_DS3505
ZGSZ,2007-01-04 03:00,ZGSZ 040300Z AUTO 02006KT 7SM 16/10 A3015 RMK SLP211 T01640103 52008 IEM_DS3505
ZGSZ,2007-01-04 04:00,ZGSZ 040400Z AUTO 36012KT 4SM 18/09 A3012 RMK T01800090 IEM_DS3505
ZGSZ,2007-01-04 05:00,ZGSZ 040500Z AUTO 35010KT 4SM 19/09 A3009 RMK T01900090 IEM_DS3505
ZGSZ,2007-01-04 06:00,ZGSZ 040600Z AUTO 36004KT 5SM 19/10 A3009 RMK SLP185 T01920105 57026 IEM_DS3505
ZGSZ,2007-01-04 07:00,ZGSZ 040700Z AUTO 01008KT 4SM 20/09 A3006 RMK T02000090 IEM_DS3505
ZGSZ,2007-01-04 08:00,ZGSZ 040800Z AUTO 35010KT 4SM 20/09 A3006 RMK T02000090 IEM_DS3505
ZGSZ,2007-01-04 09:00,ZGSZ 040900Z AUTO 34008KT 6SM 19/10 A3006 RMK SLP184 T01870103 57001 IEM_DS3505
ZGSZ,2007-01-04 10:00,ZGSZ 041000Z AUTO 04008KT 4SM 18/09 A3009 RMK T01800090 IEM_DS3505
ZGSZ,2007-01-04 11:00,ZGSZ 041100Z AUTO 03006KT 4SM 18/09 A3009 RMK T01800090 IEM_DS3505
ZGSZ,2007-01-04 12:00,ZGSZ 041200Z AUTO 02006KT 6SM 16/09 A3015 RMK SLP206 T01650087 52021 IEM_DS3505
ZGSZ,2007-01-04 13:00,ZGSZ 041300Z AUTO 03008KT 5SM 16/08 A3015 RMK T01600080 IEM_DS3505
ZGSZ,2007-01-04 14:00,ZGSZ 041400Z AUTO 02010KT 5SM 15/07 A3018 RMK T01500070 IEM_DS3505
ZGSZ,2007-01-04 15:00,ZGSZ 041500Z AUTO 02012KT 6SM 14/07 A3018 RMK T01400070 IEM_DS3505
ZGSZ,2007-01-04 16:00,ZGSZ 041600Z AUTO 02014KT 7SM 14/06 A3021 RMK T01400060 IEM_DS3505
ZGSZ,2007-01-04 17:00,ZGSZ 041700Z AUTO 02012KT 7SM 13/06 A3021 RMK T01300060 IEM_DS3505
ZGSZ,2007-01-04 18:00,ZGSZ 041800Z AUTO 04006KT 8SM 13/07 A3018 RMK SLP225 T01320072 52004 IEM_DS3505
ZGSZ,2007-01-04 19:00,ZGSZ 041900Z AUTO 02010KT 7SM 12/06 A3018 RMK T01200060 IEM_DS3505
ZGSZ,2007-01-04 20:00,ZGSZ 042000Z AUTO 03012KT 6SM 12/06 A3018 RMK T01200060 IEM_DS3505
ZGSZ,2007-01-04 21:00,ZGSZ 042100Z AUTO 34006KT 9SM 12/07 A3018 RMK SLP223 T01180067 57002 IEM_DS3505
ZGSZ,2007-01-04 22:00,ZGSZ 042200Z AUTO 01012KT 6SM 12/05 A3021 RMK T01200050 IEM_DS3505
ZGSZ,2007-01-04 23:00,ZGSZ 042300Z AUTO 02010KT 6SM 11/05 A3021 RMK T01100050 IEM_DS3505
ZGSZ,2007-01-05 00:00,ZGSZ 050000Z AUTO 34006KT 11SM 11/06 A3021 RMK SLP235 T01110064 52011 IEM_DS3505
ZGSZ,2007-01-05 01:00,ZGSZ 050100Z AUTO 04012KT 6SM 13/05 A3021 RMK T01300050 IEM_DS3505
ZGSZ,2007-01-05 02:00,ZGSZ 050200Z AUTO 02008KT 6SM 14/06 A3024 RMK T01400060 IEM_DS3505
ZGSZ,2007-01-05 03:00,ZGSZ 050300Z AUTO 02008KT 11SM 15/07 A3021 RMK SLP231 T01480066 57003 IEM_DS3505
ZGSZ,2007-01-05 04:00,ZGSZ 050400Z AUTO 35012KT 4SM 17/07 A3018 RMK T01700070 IEM_DS3505
ZGSZ,2007-01-05 05:00,ZGSZ 050500Z AUTO 02010KT 4SM 18/07 A3015 RMK T01800070 IEM_DS3505
ZGSZ,2007-01-05 06:00,ZGSZ 050600Z AUTO 36006KT 7SM 18/08 A3012 RMK SLP205 T01790076 57026 IEM_DS3505
ZGSZ,2007-01-05 07:00,ZGSZ 050700Z AUTO 32006KT 5SM 19/08 A3012 RMK T01900080 IEM_DS3505
ZGSZ,2007-01-05 08:00,ZGSZ 050800Z AUTO 01008KT 4SM 19/07 A3012 RMK T01900070 IEM_DS3505
ZGSZ,2007-01-05 09:00,ZGSZ 050900Z AUTO 36006KT 6SM 18/08 A3012 RMK SLP205 T01810081 54000 IEM_DS3505
ZGSZ,2007-01-05 10:00,ZGSZ 051000Z AUTO 04010KT 6SM 19/07 A3012 RMK T01900070 IEM_DS3505
ZGSZ,2007-01-05 11:00,ZGSZ 051100Z AUTO 04006KT 6SM 17/07 A3015 RMK T01700070 IEM_DS3505
ZGSZ,2007-01-05 12:00,ZGSZ 051200Z AUTO 04004KT 3SM 16/08 A3018 RMK SLP220 T01620079 52015 IEM_DS3505
ZGSZ,2007-01-05 13:00,ZGSZ 051300Z AUTO 02010KT 6SM 16/06 A3018 RMK T01600060 IEM_DS3505
ZGSZ,2007-01-05 14:00,ZGSZ 051400Z AUTO 03008G17KT 6SM 15/06 A3021 RMK T01500060 IEM_DS3505
ZGSZ,2007-01-05 15:00,ZGSZ 051500Z AUTO 04008KT 3SM 14/06 A3024 RMK SLP237 T01390063 52017 IEM_DS3505
ZGSZ,2007-01-05 16:00,ZGSZ 051600Z AUTO 03012KT 5SM 13/05 A3024 RMK T01300050 IEM_DS3505
ZGSZ,2007-01-05 17:00,ZGSZ 051700Z AUTO 02010KT 4SM 13/05 A3024 RMK T01300050 IEM_DS3505
ZGSZ,2007-01-05 18:00,ZGSZ 051800Z AUTO 36006KT 4SM 12/06 A3024 RMK SLP242 T01240060 52005 IEM_DS3505
ZGSZ,2007-01-05 19:00,ZGSZ 051900Z AUTO 03008KT 4SM 12/05 A3024 RMK T01200050 IEM_DS3505
ZGSZ,2007-01-05 20:00,ZGSZ 052000Z AUTO 02014KT 4SM 12/04 A3024 RMK T01200040 IEM_DS3505
ZGSZ,2007-01-05 21:00,ZGSZ 052100Z AUTO 34006KT 5SM 11/05 A3027 RMK SLP245 T01110054 52003 IEM_DS3505
ZGSZ,2007-01-05 22:00,ZGSZ 052200Z AUTO 02008KT 5SM 12/04 A3027 RMK T01200040 IEM_DS3505
ZGSZ,2007-01-05 23:00,ZGSZ 052300Z AUTO 03012KT 6SM 12/04 A3027 RMK T01200040 IEM_DS3505
ZGSZ,2007-01-06 00:00,ZGSZ 060000Z AUTO 36008KT 6SM 11/05 A3030 RMK SLP261 T01100049 52015 IEM_DS3505
ZGSZ,2007-01-06 01:00,ZGSZ 060100Z AUTO 02012KT 6SM 13/03 A3030 RMK T01300030 IEM_DS3505
ZGSZ,2007-01-06 02:00,ZGSZ 060200Z AUTO 02012KT 6SM 14/03 A3033 RMK T01400030 IEM_DS3505
ZGSZ,2007-01-06 03:00,ZGSZ 060300Z AUTO 02010KT 7SM 13/04 A3030 RMK SLP264 T01330039 52003 IEM_DS3505
ZGSZ,2007-01-06 04:00,ZGSZ 060400Z AUTO 02017G31KT 6SM 16/02 A3027 RMK T01600020 IEM_DS3505
ZGSZ,2007-01-06 05:00,ZGSZ 060500Z AUTO 02016KT 6SM 17/02 A3024 RMK T01700020 IEM_DS3505
ZGSZ,2007-01-06 06:00,ZGSZ 060600Z AUTO 36010KT 7SM 16/03 A3021 RMK SLP228 T01610029 57035 IEM_DS3505
ZGSZ,2007-01-06 07:00,ZGSZ 060700Z AUTO 01016KT 6SM 17/00 A3018 RMK T01700000 IEM_DS3505
ZGSZ,2007-01-06 08:00,ZGSZ 060800Z AUTO 01014KT 6SM 17/00 A3018 RMK T01700000 IEM_DS3505
ZGSZ,2007-01-06 09:00,ZGSZ 060900Z AUTO 02014KT 9SM 15/00 A3021 RMK SLP226 T01540004 57003 IEM_DS3505
ZGSZ,2007-01-06 10:00,ZGSZ 061000Z AUTO 03012KT 6SM 16/M01 A3021 RMK T01601010 IEM_DS3505
ZGSZ,2007-01-06 11:00,ZGSZ 061100Z AUTO 03012KT 6SM 15/M01 A3024 RMK T01501010 IEM_DS3505
ZGSZ,2007-01-06 12:00,ZGSZ 061200Z AUTO 36008KT 7SM 14/01 A3027 RMK SLP246 T01350009 52020 IEM_DS3505
ZGSZ,2007-01-06 13:00,ZGSZ 061300Z AUTO 03010KT 6SM 13/M02 A3027 RMK T01301020 IEM_DS3505
ZGSZ,2007-01-06 14:00,ZGSZ 061400Z AUTO 03010G19KT 6SM 13/M03 A3030 RMK T01301030 IEM_DS3505
ZGSZ,2007-01-06 15:00,ZGSZ 061500Z AUTO 02010KT 7SM 12/M03 A3030 RMK SLP257 T01201026 52011 IEM_DS3505
ZGSZ,2007-01-06 16:00,ZGSZ 061600Z AUTO 02010KT 4SM 12/M02 A3030 RMK T01201020 IEM_DS3505
ZGSZ,2007-01-06 17:00,ZGSZ 061700Z AUTO 02012KT 4SM 11/M02 A3030 RMK T01101020 IEM_DS3505
ZGSZ,2007-01-06 18:00,ZGSZ 061800Z AUTO 02008KT 7SM 11/M02 A3030 RMK SLP261 T01081023 52004 IEM_DS3505
ZGSZ,2007-01-06 19:00,ZGSZ 061900Z AUTO 02010KT 4SM 10/M02 A3030 RMK T01001020 IEM_DS3505
ZGSZ,2007-01-06 20:00,ZGSZ 062000Z AUTO 02010KT 3SM 10/M01 A3030 RMK T01001010 IEM_DS3505
ZGSZ,2007-01-06 21:00,ZGSZ 062100Z AUTO 02010KT 7SM 10/M02 A3030 RMK SLP257 T01021018 57004 IEM_DS3505
ZGSZ,2007-01-06 22:00,ZGSZ 062200Z AUTO 02012KT 3SM 10/M01 A3030 RMK T01001010 IEM_DS3505
ZGSZ,2007-01-06 23:00,ZGSZ 062300Z AUTO 02010KT 4SM 10/M01 A3030 RMK T01001010 IEM_DS3505
ZGSZ,2007-01-07 00:00,ZGSZ 070000Z AUTO 02012KT 6SM 10/M02 A3033 RMK SLP265 T01041023 52008 IEM_DS3505
ZGSZ,2007-01-07 01:00,ZGSZ 070100Z AUTO 02012KT 7SM 11/M03 A3033 RMK T01101030 IEM_DS3505
ZGSZ,2007-01-07 02:00,ZGSZ 070200Z AUTO 01014KT 6SM 13/M03 A3033 RMK T01301030 IEM_DS3505
ZGSZ,2007-01-07 03:00,ZGSZ 070300Z AUTO 02012KT 7SM 13/M03 A3033 RMK SLP264 T01281031 57001 IEM_DS3505
ZGSZ,2007-01-07 04:00,ZGSZ 070400Z AUTO 01012KT 5SM 16/M03 A3030 RMK T01601030 IEM_DS3505
ZGSZ,2007-01-07 05:00,ZGSZ 070500Z AUTO 36012KT 6SM 16/M03 A3024 RMK T01601030 IEM_DS3505
ZGSZ,2007-01-07 06:00,ZGSZ 070600Z AUTO 36008KT 10SM 15/M02 A3021 RMK SLP232 T01541021 57032 IEM_DS3505
ZGSZ,2007-01-07 07:00,ZGSZ 070700Z AUTO 36010KT 6SM 17/M03 A3018 RMK T01701030 IEM_DS3505
ZGSZ,2007-01-07 08:00,ZGSZ 070800Z AUTO 01008KT 6SM 17/M02 A3018 RMK T01701020 IEM_DS3505
ZGSZ,2007-01-07 09:00,ZGSZ 070900Z AUTO 02006KT 11SM 16/M01 A3021 RMK SLP229 T01591012 57003 IEM_DS3505
ZGSZ,2007-01-07 10:00,ZGSZ 071000Z AUTO 03008KT 4SM 16/M02 A3021 RMK T01601020 IEM_DS3505
ZGSZ,2007-01-07 11:00,ZGSZ 071100Z AUTO 05004KT 4SM 15/M01 A3024 RMK T01501010 IEM_DS3505
ZGSZ,2007-01-07 12:00,ZGSZ 071200Z AUTO 02004KT 7SM 14/M01 A3024 RMK SLP246 T01381006 52017 IEM_DS3505
ZGSZ,2007-01-07 13:00,ZGSZ 071300Z AUTO 01004KT 4SM 14/M03 A3027 RMK T01401030 IEM_DS3505
ZGSZ,2007-01-07 14:00,ZGSZ 071400Z AUTO 02008KT 4SM 14/M03 A3030 RMK T01401030 IEM_DS3505
ZGSZ,2007-01-07 15:00,ZGSZ 071500Z AUTO 02008KT 8SM 13/M03 A3030 RMK SLP256 T01261032 52010 IEM_DS3505
ZGSZ,2007-01-07 16:00,ZGSZ 071600Z AUTO 03006KT 6SM 13/M03 A3030 RMK T01301030 IEM_DS3505
ZGSZ,2007-01-07 17:00,ZGSZ 071700Z AUTO 02008KT 6SM 12/M03 A3030 RMK T01201030 IEM_DS3505
ZGSZ,2007-01-07 18:00,ZGSZ 071800Z AUTO 04006KT 7SM 11/M04 A3030 RMK SLP263 T01101039 52007 IEM_DS3505
ZGSZ,2007-01-07 19:00,ZGSZ 071900Z AUTO 02010KT 6SM 11/M03 A3033 RMK T01101030 IEM_DS3505
ZGSZ,2007-01-07 20:00,ZGSZ 072000Z AUTO 01012KT 6SM 10/M04 A3033 RMK T01001040 IEM_DS3505
ZGSZ,2007-01-07 21:00,ZGSZ 072100Z AUTO 02006KT 8SM 10/M05 A3033 RMK SLP268 T00981046 52005 IEM_DS3505
ZGSZ,2007-01-07 22:00,ZGSZ 072200Z AUTO 03010KT 6SM 09/M04 A3036 RMK T00901040 IEM_DS3505
ZGSZ,2007-01-07 23:00,ZGSZ 072300Z AUTO 02006KT 6SM 09/M04 A3036 RMK T00901040 IEM_DS3505
ZGSZ,2007-01-08 00:00,ZGSZ 080000Z AUTO 36010KT 10SM 09/M05 A3039 RMK SLP285 T00931054 52016 IEM_DS3505
ZGSZ,2007-01-08 01:00,ZGSZ 080100Z AUTO 02012KT 6SM 10/M03 A3039 RMK T01001030 IEM_DS3505
ZGSZ,2007-01-08 02:00,ZGSZ 080200Z AUTO 02012KT 6SM 12/M05 A3039 RMK T01201050 IEM_DS3505
ZGSZ,2007-01-08 03:00,ZGSZ 080300Z AUTO 36010KT 12SM 12/M06 A3036 RMK SLP282 T01251055 57002 IEM_DS3505
ZGSZ,2007-01-08 04:00,ZGSZ 080400Z AUTO 01010KT 6SM 15/M05 A3033 RMK T01501050 IEM_DS3505
ZGSZ,2007-01-08 05:00,ZGSZ 080500Z AUTO 01010KT 6SM 16/M05 A3030 RMK T01601050 IEM_DS3505
ZGSZ,2007-01-08 06:00,ZGSZ 080600Z AUTO 36006KT 16SM 16/M05 A3024 RMK SLP247 T01601051 57035 IEM_DS3505
ZGSZ,2007-01-08 07:00,ZGSZ 080700Z AUTO 35010KT 6SM 17/M05 A3024 RMK T01701050 IEM_DS3505
ZGSZ,2007-01-08 08:00,ZGSZ 080800Z AUTO 01010KT 6SM 17/M06 A3024 RMK T01701060 IEM_DS3505
ZGSZ,2007-01-08 09:00,ZGSZ 080900Z AUTO 04004KT 16SM 16/M05 A3024 RMK SLP242 T01621049 57005 IEM_DS3505
ZGSZ,2007-01-08 10:00,ZGSZ 081000Z AUTO 03006KT 6SM 15/M05 A3024 RMK T01501050 IEM_DS3505
ZGSZ,2007-01-08 11:00,ZGSZ 081100Z AUTO 04006KT 4SM 15/M05 A3027 RMK T01501050 IEM_DS3505
ZGSZ,2007-01-08 12:00,ZGSZ 081200Z AUTO 04004KT 7SM 14/M04 A3030 RMK SLP258 T01371040 52016 IEM_DS3505
ZGSZ,2007-01-08 13:00,ZGSZ 081300Z AUTO 03004KT 6SM 14/M05 A3030 RMK T01401050 IEM_DS3505
ZGSZ,2007-01-08 14:00,ZGSZ 081400Z AUTO 6SM 12/M05 A3030 RMK T01201050 IEM_DS3505
ZGSZ,2007-01-08 15:00,ZGSZ 081500Z AUTO 04006KT 7SM 13/M05 A3030 RMK SLP260 T01291047 52002 IEM_DS3505
ZGSZ,2007-01-08 16:00,ZGSZ 081600Z AUTO 6SM 11/M03 A3030 RMK T01101030 IEM_DS3505
ZGSZ,2007-01-08 17:00,ZGSZ 081700Z AUTO 01004KT 6SM 11/M04 A3030 RMK T01101040 IEM_DS3505
ZGSZ,2007-01-08 18:00,ZGSZ 081800Z AUTO 04008KT 9SM 12/M04 A3030 RMK SLP263 T01191043 52003 IEM_DS3505
ZGSZ,2007-01-08 19:00,ZGSZ 081900Z AUTO 04004KT 6SM 12/M05 A3030 RMK T01201050 IEM_DS3505
ZGSZ,2007-01-08 20:00,ZGSZ 082000Z AUTO 05008KT 6SM 11/M05 A3030 RMK T01101050 IEM_DS3505
ZGSZ,2007-01-08 21:00,ZGSZ 082100Z AUTO 02006KT 12SM 11/M05 A3030 RMK SLP261 T01061054 57002 IEM_DS3505
ZGSZ,2007-01-08 22:00,ZGSZ 082200Z AUTO 05004KT 6SM 10/M05 A3033 RMK T01001050 IEM_DS3505
ZGSZ,2007-01-08 23:00,ZGSZ 082300Z AUTO 6SM 10/M06 A3033 RMK T01001060 IEM_DS3505
ZGSZ,2007-01-09 00:00,ZGSZ 090000Z AUTO 02008KT 16SM 10/M06 A3036 RMK SLP274 T01041060 52013 IEM_DS3505
ZGSZ,2007-01-09 01:00,ZGSZ 090100Z AUTO 01006KT 5SM 12/M05 A3036 RMK T01201050 IEM_DS3505
ZGSZ,2007-01-09 02:00,ZGSZ 090200Z AUTO 01010KT 5SM 14/M05 A3036 RMK T01401050 IEM_DS3505
ZGSZ,2007-01-09 03:00,ZGSZ 090300Z AUTO 36008KT 9SM 14/M04 A3033 RMK SLP273 T01401042 57001 IEM_DS3505
ZGSZ,2007-01-09 04:00,ZGSZ 090400Z AUTO 01010KT 5SM 16/M05 A3030 RMK T01601050 IEM_DS3505
ZGSZ,2007-01-09 05:00,ZGSZ 090500Z AUTO 01008KT 4SM 17/M04 A3027 RMK T01701040 IEM_DS3505
ZGSZ,2007-01-09 06:00,ZGSZ 090600Z AUTO 02004KT 9SM 17/M04 A3021 RMK SLP229 T01701043 57043 IEM_DS3505
ZGSZ,2007-01-09 07:00,ZGSZ 090700Z AUTO 30012KT 6SM 17/02 A3018 RMK T01700020 IEM_DS3505
ZGSZ,2007-01-09 08:00,ZGSZ 090800Z AUTO 31008KT 6SM 17/02 A3018 RMK T01700020 IEM_DS3505
ZGSZ,2007-01-09 09:00,ZGSZ 090900Z AUTO 02004KT 9SM 17/M05 A3018 RMK SLP220 T01731052 57009 IEM_DS3505
ZGSZ,2007-01-09 10:00,ZGSZ 091000Z AUTO 6SM 17/M03 A3018 RMK T01701030 IEM_DS3505
ZGSZ,2007-01-09 11:00,ZGSZ 091100Z AUTO 32004KT 4SM 15/02 A3021 RMK T01500020 IEM_DS3505
ZGSZ,2007-01-09 12:00,ZGSZ 091200Z AUTO 09004KT 3SM 15/M03 A3024 RMK SLP237 T01521027 52016 IEM_DS3505
ZGSZ,2007-01-09 13:00,ZGSZ 091300Z AUTO 3SM 15/M01 A3024 RMK T01501010 IEM_DS3505
ZGSZ,2007-01-09 14:00,ZGSZ 091400Z AUTO 3SM 15/M01 A3024 RMK T01501010 IEM_DS3505
ZGSZ,2007-01-09 15:00,ZGSZ 091500Z AUTO 02002KT 2SM 14/00 A3024 RMK SLP246 T01350002 52009 IEM_DS3505
ZGSZ,2007-01-09 16:00,ZGSZ 091600Z AUTO 02004KT 3SM 14/M02 A3024 RMK T01401020 IEM_DS3505
ZGSZ,2007-01-09 17:00,ZGSZ 091700Z AUTO 03002KT 3SM 13/M01 A3024 RMK T01301010 IEM_DS3505
ZGSZ,2007-01-09 18:00,ZGSZ 091800Z AUTO 04002KT 2 1/2SM 13/00 A3024 RMK SLP244 T01330000 57001 IEM_DS3505
ZGSZ,2007-01-09 19:00,ZGSZ 091900Z AUTO 01008KT 3SM 13/M01 A3024 RMK T01301010 IEM_DS3505
ZGSZ,2007-01-09 20:00,ZGSZ 092000Z AUTO 4SM 13/M03 A3024 RMK T01301030 IEM_DS3505
ZGSZ,2007-01-09 21:00,ZGSZ 092100Z AUTO 04002KT 5SM 14/M02 A3024 RMK SLP237 T01361024 57007 IEM_DS3505
ZGSZ,2007-01-09 22:00,ZGSZ 092200Z AUTO 34008KT 4SM 13/M02 A3024 RMK T01301020 IEM_DS3505
ZGSZ,2007-01-09 23:00,ZGSZ 092300Z AUTO 4SM 13/M02 A3024 RMK T01301020 IEM_DS3505
ZGSZ,2007-01-10 00:00,ZGSZ 100000Z AUTO 07004KT 7SM 14/M02 A3027 RMK SLP248 T01361020 52010 IEM_DS3505
ZGSZ,2007-01-10 01:00,ZGSZ 100100Z AUTO 06004KT 4SM 15/M02 A3027 RMK T01501020 IEM_DS3505
ZGSZ,2007-01-10 02:00,ZGSZ 100200Z AUTO 4SM 17/M01 A3027 RMK T01701010 IEM_DS3505
ZGSZ,2007-01-10 03:00,ZGSZ 100300Z AUTO 04004KT 6SM 16/M01 A3027 RMK SLP247 T01621009 54000 IEM_DS3505
ZGSZ,2007-01-10 04:00,ZGSZ 100400Z AUTO 4SM 18/00 A3024 RMK T01800000 IEM_DS3505
ZGSZ,2007-01-10 05:00,ZGSZ 100500Z AUTO 4SM 18/01 A3018 RMK T01800010 IEM_DS3505
ZGSZ,2007-01-10 06:00,ZGSZ 100600Z AUTO 36004KT 6SM 18/01 A3018 RMK SLP217 T01820008 57030 IEM_DS3505
ZGSZ,2007-01-10 07:00,ZGSZ 100700Z AUTO 35006KT 4SM 18/M01 A3015 RMK T01801010 IEM_DS3505
ZGSZ,2007-01-10 08:00,ZGSZ 100800Z AUTO 01006KT 4SM 19/00 A3015 RMK T01900000 IEM_DS3505
ZGSZ,2007-01-10 09:00,ZGSZ 100900Z AUTO 04004KT 6SM 18/01 A3015 RMK SLP210 T01830013 57007 IEM_DS3505
ZGSZ,2007-01-10 10:00,ZGSZ 101000Z AUTO 02004KT 2 1/2SM 18/01 A3015 RMK T01800010 IEM_DS3505
ZGSZ,2007-01-10 11:00,ZGSZ 101100Z AUTO 3SM 17/01 A3015 RMK T01700010 IEM_DS3505
ZGSZ,2007-01-10 12:00,ZGSZ 101200Z AUTO 09004KT 7SM 17/04 A3018 RMK SLP220 T01740037 52010 IEM_DS3505
ZGSZ,2007-01-10 13:00,ZGSZ 101300Z AUTO 06004KT 3SM 17/02 A3018 RMK T01700020 IEM_DS3505
ZGSZ,2007-01-10 14:00,ZGSZ 101400Z AUTO 08006KT 3SM 17/04 A3018 RMK T01700040 IEM_DS3505
ZGSZ,2007-01-10 15:00,ZGSZ 101500Z AUTO 07002KT 7SM 16/10 A3018 RMK SLP222 T01640096 52002 IEM_DS3505
ZGSZ,2007-01-10 16:00,ZGSZ 101600Z AUTO 01002KT 4SM 17/06 A3018 RMK T01700060 IEM_DS3505
ZGSZ,2007-01-10 17:00,ZGSZ 101700Z AUTO 03004KT 3SM 16/07 A3018 RMK T01600070 IEM_DS3505
ZGSZ,2007-01-10 18:00,ZGSZ 101800Z AUTO 02004KT 5SM 16/09 A3018 RMK SLP220 T01570089 57002 IEM_DS3505
ZGSZ,2007-01-10 19:00,ZGSZ 101900Z AUTO 02006KT 3SM 16/07 A3018 RMK T01600070 IEM_DS3505
ZGSZ,2007-01-10 20:00,ZGSZ 102000Z AUTO 36006KT 3SM 15/07 A3015 RMK T01500070 IEM_DS3505
ZGSZ,2007-01-10 21:00,ZGSZ 102100Z AUTO 04004KT 4SM 15/09 A3015 RMK SLP209 T01500091 57011 IEM_DS3505
ZGSZ,2007-01-10 22:00,ZGSZ 102200Z AUTO 02006KT 3SM 15/07 A3015 RMK T01500070 IEM_DS3505
ZGSZ,2007-01-10 23:00,ZGSZ 102300Z AUTO 36006KT 3SM 16/06 A3018 RMK T01600060 IEM_DS3505
ZGSZ,2007-01-11 00:00,ZGSZ 110000Z AUTO 04004KT 5SM 16/08 A3018 RMK SLP224 T01570080 52015 IEM_DS3505
ZGSZ,2007-01-11 01:00,ZGSZ 110100Z AUTO 01004KT 3SM 17/07 A3018 RMK T01700070 IEM_DS3505
ZGSZ,2007-01-11 02:00,ZGSZ 110200Z AUTO 36006KT 3SM 18/08 A3021 RMK T01800080 IEM_DS3505
ZGSZ,2007-01-11 03:00,ZGSZ 110300Z AUTO 04004KT 4SM 18/09 A3021 RMK SLP230 T01750094 52006 IEM_DS3505
ZGSZ,2007-01-11 04:00,ZGSZ 110400Z AUTO 3SM 19/08 A3018 RMK T01900080 IEM_DS3505
ZGSZ,2007-01-11 05:00,ZGSZ 110500Z AUTO 03004KT 3SM 19/09 A3015 RMK T01900090 IEM_DS3505
ZGSZ,2007-01-11 06:00,ZGSZ 110600Z AUTO 04002KT 6SM 18/10 A3012 RMK SLP198 T01850103 57031 IEM_DS3505
ZGSZ,2007-01-11 07:00,ZGSZ 110700Z AUTO 36006KT 3SM 19/09 A3009 RMK T01900090 IEM_DS3505
ZGSZ,2007-01-11 08:00,ZGSZ 110800Z AUTO 35006KT 3SM 19/09 A3009 RMK T01900090 IEM_DS3505
ZGSZ,2007-01-11 09:00,ZGSZ 110900Z AUTO 07002KT 5SM 18/11 A3009 RMK SLP196 T01850113 57002 IEM_DS3505
ZGSZ,2007-01-11 10:00,ZGSZ 111000Z AUTO 03004KT 3SM 19/09 A3012 RMK T01900090 IEM_DS3505
ZGSZ,2007-01-11 11:00,ZGSZ 111100Z AUTO 05004KT 2 1/2SM 19/10 A3012 RMK T01900100 IEM_DS3505
ZGSZ,2007-01-11 12:00,ZGSZ 111200Z AUTO 07002KT 2SM 18/12 A3015 RMK SLP209 T01830125 52012 IEM_DS3505
ZGSZ,2007-01-11 13:00,ZGSZ 111300Z AUTO 2 1/2SM 19/10 A3015 RMK T01900100 IEM_DS3505
ZGSZ,2007-01-11 14:00,ZGSZ 111400Z AUTO 10004KT 2 1/2SM 19/11 A3015 RMK T01900110 IEM_DS3505
ZGSZ,2007-01-11 15:00,ZGSZ 111500Z AUTO 07004KT 2SM 18/12 A3015 RMK SLP213 T01780120 52005 IEM_DS3505
ZGSZ,2007-01-11 16:00,ZGSZ 111600Z AUTO 2 1/2SM 18/11 A3015 RMK T01800110 IEM_DS3505
ZGSZ,2007-01-11 17:00,ZGSZ 111700Z AUTO 2 1/2SM 18/11 A3015 RMK T01800110 IEM_DS3505
ZGSZ,2007-01-11 18:00,ZGSZ 111800Z AUTO 04004KT 4SM 17/14 A3015 RMK SLP213 T01710136 54000 IEM_DS3505
ZGSZ,2007-01-11 19:00,ZGSZ 111900Z AUTO 32002KT 1 1/2SM 17/12 A3015 RMK T01700120 IEM_DS3505
ZGSZ,2007-01-11 20:00,ZGSZ 112000Z AUTO 32004KT 2SM 17/12 A3015 RMK T01700120 IEM_DS3505
ZGSZ,2007-01-11 21:00,ZGSZ 112100Z AUTO 34002KT 3SM 17/13 A3015 RMK SLP211 T01700131 57002 IEM_DS3505
ZGSZ,2007-01-11 22:00,ZGSZ 112200Z AUTO 03008KT 2 1/2SM 17/11 A3015 RMK T01700110 IEM_DS3505
ZGSZ,2007-01-11 23:00,ZGSZ 112300Z AUTO 01008KT 2 1/2SM 17/12 A3018 RMK T01700120 IEM_DS3505
ZGSZ,2007-01-12 00:00,ZGSZ 120000Z AUTO 36006KT 3SM 17/12 A3018 RMK SLP223 T01680121 52012 IEM_DS3505
ZGSZ,2007-01-12 01:00,ZGSZ 120100Z AUTO 35008KT 2 1/2SM 18/12 A3021 RMK T01800120 IEM_DS3505
ZGSZ,2007-01-12 02:00,ZGSZ 120200Z AUTO 36010KT 2 1/2SM 19/13 A3021 RMK T01900130 IEM_DS3505
ZGSZ,2007-01-12 03:00,ZGSZ 120300Z AUTO 02008KT 4SM 19/12 A3021 RMK SLP226 T01920125 52003 IEM_DS3505
ZGSZ,2007-01-12 04:00,ZGSZ 120400Z AUTO 35008KT 3SM 20/13 A3018 RMK T02000130 IEM_DS3505
ZGSZ,2007-01-12 05:00,ZGSZ 120500Z AUTO 35010KT 3SM 21/12 A3015 RMK T02100120 IEM_DS3505
ZGSZ,2007-01-12 06:00,ZGSZ 120600Z AUTO 20004KT 3SM 19/14 A3012 RMK SLP198 T01940136 57028 IEM_DS3505
ZGSZ,2007-01-12 07:00,ZGSZ 120700Z AUTO 35012KT 4SM 21/12 A3009 RMK T02100120 IEM_DS3505
ZGSZ,2007-01-12 08:00,ZGSZ 120800Z AUTO 36012KT 4SM 21/12 A3009 RMK T02100120 IEM_DS3505
ZGSZ,2007-01-12 09:00,ZGSZ 120900Z AUTO 36008KT 5SM 20/13 A3009 RMK SLP192 T02020127 57006 IEM_DS3505
ZGSZ,2007-01-12 10:00,ZGSZ 121000Z AUTO 01012KT 4SM 19/11 A3012 RMK T01900110 IEM_DS3505
ZGSZ,2007-01-12 11:00,ZGSZ 121100Z AUTO 36012KT 3SM 17/10 A3015 RMK T01700100 IEM_DS3505
ZGSZ,2007-01-12 12:00,ZGSZ 121200Z AUTO 36004KT 4SM 16/11 A3018 RMK SLP215 T01630112 52022 IEM_DS3505
ZGSZ,2007-01-12 13:00,ZGSZ 121300Z AUTO 01008KT 3SM 16/09 A3018 RMK T01600090 IEM_DS3505
ZGSZ,2007-01-12 14:00,ZGSZ 121400Z AUTO 02006KT 3SM 16/09 A3021 RMK T01600090 IEM_DS3505
ZGSZ,2007-01-12 15:00,ZGSZ 121500Z AUTO 02006KT 2 1/2SM 15/09 A3021 RMK SLP227 T01520093 52012 IEM_DS3505
ZGSZ,2007-01-12 16:00,ZGSZ 121600Z AUTO 03008KT 3SM 15/08 A3021 RMK T01500080 IEM_DS3505
ZGSZ,2007-01-12 17:00,ZGSZ 121700Z AUTO 02008KT 3SM 15/08 A3021 RMK T01500080 IEM_DS3505
ZGSZ,2007-01-12 18:00,ZGSZ 121800Z AUTO 02004KT 3SM 15/08 A3018 RMK SLP223 T01460085 57004 IEM_DS3505
ZGSZ,2007-01-12 19:00,ZGSZ 121900Z AUTO 02012KT 2 1/2SM 15/08 A3018 RMK T01500080 IEM_DS3505
ZGSZ,2007-01-12 20:00,ZGSZ 122000Z AUTO 01006KT 3SM 15/07 A3018 RMK T01500070 IEM_DS3505
ZGSZ,2007-01-12 21:00,ZGSZ 122100Z AUTO 36002KT 3SM 14/08 A3018 RMK SLP221 T01400084 57002 IEM_DS3505
ZGSZ,2007-01-12 22:00,ZGSZ 122200Z AUTO 36008KT 3SM 14/07 A3021 RMK T01400070 IEM_DS3505
ZGSZ,2007-01-12 23:00,ZGSZ 122300Z AUTO 02008KT 2 1/2SM 14/07 A3021 RMK T01400070 IEM_DS3505
ZGSZ,2007-01-13 00:00,ZGSZ 130000Z AUTO 36006KT 4SM 14/08 A3024 RMK SLP239 T01440084 52018 IEM_DS3505
ZGSZ,2007-01-13 01:00,ZGSZ 130100Z AUTO 02008KT 3SM 15/07 A3024 RMK T01500070 IEM_DS3505
ZGSZ,2007-01-13 02:00,ZGSZ 130200Z AUTO 06004KT 3SM 17/08 A3024 RMK T01700080 IEM_DS3505
ZGSZ,2007-01-13 03:00,ZGSZ 130300Z AUTO 02004KT 4SM 18/08 A3024 RMK SLP239 T01790085 54000 IEM_DS3505
ZGSZ,2007-01-13 04:00,ZGSZ 130400Z AUTO 34006KT 3SM 20/08 A3021 RMK T02000080 IEM_DS3505
ZGSZ,2007-01-13 05:00,ZGSZ 130500Z AUTO 34010KT 2 1/2SM 21/08 A3015 RMK T02100080 IEM_DS3505
ZGSZ,2007-01-13 06:00,ZGSZ 130600Z AUTO 25002KT 4SM 22/10 A3012 RMK SLP204 T02170099 57034 IEM_DS3505
ZGSZ,2007-01-13 07:00,ZGSZ 130700Z AUTO 29008KT 2 1/2SM 20/11 A3012 RMK T02000110 IEM_DS3505
ZGSZ,2007-01-13 08:00,ZGSZ 130800Z AUTO 31010KT 2SM 19/11 A3009 RMK T01900110 IEM_DS3505
ZGSZ,2007-01-13 09:00,ZGSZ 130900Z AUTO 18004KT 4SM 20/12 A3009 RMK SLP196 T02010116 57008 IEM_DS3505
ZGSZ,2007-01-13 10:00,ZGSZ 131000Z AUTO 32008KT 2 1/2SM 18/13 A3009 RMK T01800130 IEM_DS3505
ZGSZ,2007-01-13 11:00,ZGSZ 131100Z AUTO 03004KT 2 1/2SM 19/09 A3012 RMK T01900090 IEM_DS3505
ZGSZ,2007-01-13 12:00,ZGSZ 131200Z AUTO 04002KT 1 1/4SM 18/12 A3015 RMK SLP210 T01750118 52013 IEM_DS3505
ZGSZ,2007-01-13 13:00,ZGSZ 131300Z AUTO 09004KT 2SM 19/10 A3015 RMK T01900100 IEM_DS3505
ZGSZ,2007-01-13 14:00,ZGSZ 131400Z AUTO 11004KT 2SM 17/11 A3018 RMK T01700110 IEM_DS3505
ZGSZ,2007-01-13 15:00,ZGSZ 131500Z AUTO 07006KT 1 1/4SM 16/13 A3018 RMK SLP225 T01610134 52015 IEM_DS3505
ZGSZ,2007-01-13 16:00,ZGSZ 131600Z AUTO 08004KT 2SM 16/10 A3018 RMK T01600100 IEM_DS3505
ZGSZ,2007-01-13 17:00,ZGSZ 131700Z AUTO 02008KT 2 1/2SM 16/10 A3021 RMK T01600100 IEM_DS3505
ZGSZ,2007-01-13 18:00,ZGSZ 131800Z AUTO 36006KT 1 1/2SM 16/11 A3018 RMK 60000 SLP226 T01550107 52002 IEM_DS3505
ZGSZ,2007-01-13 19:00,ZGSZ 131900Z AUTO 03010KT 2 1/2SM 15/09 A3018 RMK T01500090 IEM_DS3505
ZGSZ,2007-01-13 20:00,ZGSZ 132000Z AUTO 04008KT 2 1/2SM 15/09 A3018 RMK T01500090 IEM_DS3505
ZGSZ,2007-01-13 21:00,ZGSZ 132100Z AUTO 02008KT 1 1/2SM 14/10 A3018 RMK 70000 SLP225 T01390097 57002 IEM_DS3505
ZGSZ,2007-01-13 22:00,ZGSZ 132200Z AUTO 03008KT 2 1/2SM 14/08 A3021 RMK T01400080 IEM_DS3505
ZGSZ,2007-01-13 23:00,ZGSZ 132300Z AUTO 03008KT 2 1/2SM 14/08 A3024 RMK T01400080 IEM_DS3505
ZGSZ,2007-01-14 00:00,ZGSZ 140000Z AUTO 02006KT 3SM 14/09 A3024 RMK 60000 70000 SLP242 T01420088 52017 IEM_DS3505
ZGSZ,2007-01-14 01:00,ZGSZ 140100Z AUTO 02010KT 2 1/2SM 15/08 A3027 RMK T01500080 IEM_DS3505
ZGSZ,2007-01-14 02:00,ZGSZ 140200Z AUTO 01008KT 2 1/2SM 16/08 A3027 RMK T01600080 IEM_DS3505
ZGSZ,2007-01-14 03:00,ZGSZ 140300Z AUTO 36004KT 4SM 17/10 A3024 RMK SLP245 T01730097 52003 IEM_DS3505
ZGSZ,2007-01-14 04:00,ZGSZ 140400Z AUTO 06004KT 3SM 19/08 A3024 RMK T01900080 IEM_DS3505
ZGSZ,2007-01-14 05:00,ZGSZ 140500Z AUTO 36006KT 3SM 20/09 A3018 RMK T02000090 IEM_DS3505
ZGSZ,2007-01-14 06:00,ZGSZ 140600Z AUTO 04004KT 4SM 21/10 A3015 RMK SLP215 T02060101 57029 IEM_DS3505
ZGSZ,2007-01-14 07:00,ZGSZ 140700Z AUTO 28006KT 2 1/2SM 19/11 A3012 RMK T01900110 IEM_DS3505
ZGSZ,2007-01-14 08:00,ZGSZ 140800Z AUTO 27004KT 2 1/2SM 20/12 A3012 RMK T02000120 IEM_DS3505
ZGSZ,2007-01-14 09:00,ZGSZ 140900Z AUTO 16004KT 4SM 20/12 A3012 RMK SLP204 T01950118 57012 IEM_DS3505
ZGSZ,2007-01-14 10:00,ZGSZ 141000Z AUTO 18004KT 2SM 18/12 A3012 RMK T01800120 IEM_DS3505
ZGSZ,2007-01-14 11:00,ZGSZ 141100Z AUTO 18006KT 2SM 17/13 A3015 RMK T01700130 IEM_DS3505
ZGSZ,2007-01-14 12:00,ZGSZ 141200Z AUTO 09004KT 1 1/4SM 17/12 A3015 RMK SLP215 T01710120 52011 IEM_DS3505
ZGSZ,2007-01-14 13:00,ZGSZ 141300Z AUTO 15002KT 2SM 16/13 A3018 RMK T01600130 IEM_DS3505
ZGSZ,2007-01-14 14:00,ZGSZ 141400Z AUTO 00000KT 1 1/2SM 16/13 A3018 RMK T01600130 IEM_DS3505
ZGSZ,2007-01-14 15:00,ZGSZ 141500Z AUTO 07004KT 2SM 17/12 A3018 RMK SLP226 T01660124 52011 IEM_DS3505
ZGSZ,2007-01-14 16:00,ZGSZ 141600Z AUTO 1 1/2SM 16/13 A3018 RMK T01600130 IEM_DS3505
ZGSZ,2007-01-14 17:00,ZGSZ 141700Z AUTO 09004KT 2SM 16/12 A3018 RMK T01600120 IEM_DS3505
ZGSZ,2007-01-14 18:00,ZGSZ 141800Z AUTO 09004KT 2 1/2SM 17/12 A3015 RMK SLP215 T01680125 57010 IEM_DS3505
ZGSZ,2007-01-14 19:00,ZGSZ 141900Z AUTO 02002KT 1 1/2SM 17/12 A3015 RMK T01700120 IEM_DS3505
ZGSZ,2007-01-14 20:00,ZGSZ 142000Z AUTO 06004KT 2SM 17/12 A3015 RMK T01700120 IEM_DS3505
ZGSZ,2007-01-14 21:00,ZGSZ 142100Z AUTO 02004KT 2 1/2SM 16/13 A3015 RMK SLP210 T01630128 57005 IEM_DS3505
ZGSZ,2007-01-14 22:00,ZGSZ 142200Z AUTO 04004KT 2SM 17/13 A3015 RMK T01700130 IEM_DS3505
ZGSZ,2007-01-14 23:00,ZGSZ 142300Z AUTO 2 1/2SM 17/12 A3018 RMK T01700120 IEM_DS3505
ZGSZ,2007-01-15 00:00,ZGSZ 150000Z AUTO 09002KT 4SM 17/14 A3018 RMK SLP227 T01660137 52016 IEM_DS3505
ZGSZ,2007-01-15 01:00,ZGSZ 150100Z AUTO 07004KT 2 1/2SM 18/13 A3021 RMK T01800130 IEM_DS3505
ZGSZ,2007-01-15 02:00,ZGSZ 150200Z AUTO 12004KT 2 1/2SM 19/14 A3021 RMK T01900140 IEM_DS3505
ZGSZ,2007-01-15 03:00,ZGSZ 150300Z AUTO 07004KT 4SM 18/13 A3018 RMK SLP228 T01850131 52001 IEM_DS3505
ZGSZ,2007-01-15 04:00,ZGSZ 150400Z AUTO 23004KT 2SM 21/15 A3015 RMK T02100150 IEM_DS3505
ZGSZ,2007-01-15 05:00,ZGSZ 150500Z AUTO 25006KT 1 1/2SM 19/15 A3012 RMK T01900150 IEM_DS3505
ZGSZ,2007-01-15 06:00,ZGSZ 150600Z AUTO 11006KT 5SM 22/12 A3009 RMK SLP195 T02210118 57032 IEM_DS3505
ZGSZ,2007-01-15 07:00,ZGSZ 150700Z AUTO 23006KT 1 1/2SM 20/15 A3006 RMK T02000150 IEM_DS3505
ZGSZ,2007-01-15 08:00,ZGSZ 150800Z AUTO 19006KT 2SM 20/16 A3006 RMK T02000160 IEM_DS3505
ZGSZ,2007-01-15 09:00,ZGSZ 150900Z AUTO 18004KT 6SM 22/13 A3006 RMK SLP188 T02230126 57007 IEM_DS3505
ZGSZ,2007-01-15 10:00,ZGSZ 151000Z AUTO 15004KT 2 1/2SM 19/14 A3009 RMK T01900140 IEM_DS3505
ZGSZ,2007-01-15 11:00,ZGSZ 151100Z AUTO 16004KT 2SM 19/15 A3009 RMK T01900150 IEM_DS3505
ZGSZ,2007-01-15 12:00,ZGSZ 151200Z AUTO 07004KT 5SM 20/14 A3009 RMK SLP197 T01980144 52009 IEM_DS3505
ZGSZ,2007-01-15 13:00,ZGSZ 151300Z AUTO 19002KT 1 1/2SM 18/16 A3012 RMK T01800160 IEM_DS3505
ZGSZ,2007-01-15 14:00,ZGSZ 151400Z AUTO 00000KT 2SM 18/16 A3012 RMK T01800160 IEM_DS3505
ZGSZ,2007-01-15 15:00,ZGSZ 151500Z AUTO 09006KT 4SM 19/13 A3012 RMK SLP204 T01870133 52007 IEM_DS3505
ZGSZ,2007-01-15 16:00,ZGSZ 151600Z AUTO 00000KT 1 1/2SM 18/16 A3009 RMK T01800160 IEM_DS3505
ZGSZ,2007-01-15 17:00,ZGSZ 151700Z AUTO 13006KT 2 1/2SM 18/15 A3009 RMK T01800150 IEM_DS3505
ZGSZ,2007-01-15 18:00,ZGSZ 151800Z AUTO 09004KT 4SM 18/14 A3009 RMK SLP196 T01820135 57008 IEM_DS3505
ZGSZ,2007-01-15 19:00,ZGSZ 151900Z AUTO 32006KT 2 1/2SM 19/16 A3009 RMK T01900160 IEM_DS3505
ZGSZ,2007-01-15 20:00,ZGSZ 152000Z AUTO 2SM 18/15 A3006 RMK T01800150 IEM_DS3505
ZGSZ,2007-01-15 21:00,ZGSZ 152100Z AUTO 02002KT 4SM 18/14 A3006 RMK SLP188 T01760135 57008 IEM_DS3505
ZGSZ,2007-01-15 22:00,ZGSZ 152200Z AUTO 02004KT 3SM 19/14 A3009 RMK T01900140 IEM_DS3505
ZGSZ,2007-01-15 23:00,ZGSZ 152300Z AUTO 01004KT 2 1/2SM 18/14 A3009 RMK T01800140 IEM_DS3505
ZGSZ,2007-01-16 00:00,ZGSZ 160000Z AUTO 07004KT 4SM 18/14 A3012 RMK SLP202 T01850138 52014 IEM_DS3505
ZGSZ,2007-01-16 01:00,ZGSZ 160100Z AUTO 01006KT 2SM 20/13 A3015 RMK T02000130 IEM_DS3505
ZGSZ,2007-01-16 02:00,ZGSZ 160200Z AUTO 01004KT 2SM 21/13 A3015 RMK T02100130 IEM_DS3505
ZGSZ,2007-01-16 03:00,ZGSZ 160300Z AUTO 02004KT 3SM 21/14 A3015 RMK SLP210 T02070137 52008 IEM_DS3505
ZGSZ,2007-01-16 04:00,ZGSZ 160400Z AUTO 29006KT 2SM 22/15 A3012 RMK T02200150 IEM_DS3505
ZGSZ,2007-01-16 05:00,ZGSZ 160500Z AUTO 30008KT 2SM 21/15 A3006 RMK T02100150 IEM_DS3505
ZGSZ,2007-01-16 06:00,ZGSZ 160600Z AUTO 04006KT 4SM 24/14 A3003 RMK 60000 SLP175 T02350142 57034 IEM_DS3505
ZGSZ,2007-01-16 07:00,ZGSZ 160700Z AUTO 29006KT 2SM 23/15 A3000 RMK T02300150 IEM_DS3505
ZGSZ,2007-01-16 08:00,ZGSZ 160800Z AUTO 28004KT 2 1/2SM 23/15 A3000 RMK T02300150 IEM_DS3505
ZGSZ,2007-01-16 09:00,ZGSZ 160900Z AUTO 07004KT 9SM 24/15 A3000 RMK SLP171 T02380148 57004 IEM_DS3505
ZGSZ,2007-01-16 10:00,ZGSZ 161000Z AUTO 1 1/2SM 21/15 A3003 RMK T02100150 IEM_DS3505
ZGSZ,2007-01-16 11:00,ZGSZ 161100Z AUTO 17002KT 1 1/2SM 20/15 A3003 RMK T02000150 IEM_DS3505
ZGSZ,2007-01-16 12:00,ZGSZ 161200Z AUTO 11004KT 9SM 22/15 A3006 RMK SLP186 T02210152 52015 IEM_DS3505
ZGSZ,2007-01-16 13:00,ZGSZ 161300Z AUTO 17002KT 1 1/4SM 20/17 A3009 RMK T02000170 IEM_DS3505
ZGSZ,2007-01-16 14:00,ZGSZ 161400Z AUTO 00000KT 1 1/4SM 20/17 A3009 RMK T02000170 IEM_DS3505
ZGSZ,2007-01-16 15:00,ZGSZ 161500Z AUTO 07004KT 9SM 21/16 A3009 RMK SLP191 T02100155 52005 IEM_DS3505
ZGSZ,2007-01-16 16:00,ZGSZ 161600Z AUTO 01004KT 2SM 22/16 A3009 RMK T02200160 IEM_DS3505
ZGSZ,2007-01-16 17:00,ZGSZ 161700Z AUTO 02004KT 2SM 21/16 A3009 RMK T02100160 IEM_DS3505
ZGSZ,2007-01-16 18:00,ZGSZ 161800Z AUTO 00000KT 4SM 20/16 A3009 RMK 60001 SLP189 T01980163 57002 IEM_DS3505
ZGSZ,2007-01-16 19:00,ZGSZ 161900Z AUTO 36004KT 2 1/2SM 20/16 A3006 RMK T02000160 IEM_DS3505
ZGSZ,2007-01-16 20:00,ZGSZ 162000Z AUTO 2SM 19/15 A3006 RMK T01900150 IEM_DS3505
ZGSZ,2007-01-16 21:00,ZGSZ 162100Z AUTO 02004KT 2SM 18/17 A3006 RMK 70026 SLP182 T01760166 57007 IEM_DS3505
ZGSZ,2007-01-16 22:00,ZGSZ 162200Z AUTO 2SM 18/15 A3009 RMK T01800150 IEM_DS3505
ZGSZ,2007-01-16 23:00,ZGSZ 162300Z AUTO 35006KT 1 1/4SM 17/15 A3009 RMK T01700150 IEM_DS3505
ZGSZ,2007-01-17 00:00,ZGSZ 170000Z AUTO 02002KT 2SM 16/15 A3012 RMK 60059 70062 SLP202 T01650152 52019 IEM_DS3505
ZGSZ,2007-01-17 01:00,ZGSZ 170100Z AUTO 01008KT 1SM 17/15 A3015 RMK T01700150 IEM_DS3505
ZGSZ,2007-01-17 02:00,ZGSZ 170200Z AUTO 01010KT 2SM 16/14 A3018 RMK T01600140 IEM_DS3505
ZGSZ,2007-01-17 03:00,ZGSZ 170300Z AUTO 02006KT 1 1/4SM 16/15 A3018 RMK SLP215 T01620149 52013 IEM_DS3505
ZGSZ,2007-01-17 04:00,ZGSZ 170400Z AUTO 02010KT 2 1/2SM 16/13 A3015 RMK T01600130 IEM_DS3505
ZGSZ,2007-01-17 05:00,ZGSZ 170500Z AUTO 36010KT 2SM 17/13 A3015 RMK T01700130 IEM_DS3505
ZGSZ,2007-01-17 06:00,ZGSZ 170600Z AUTO 34006KT 2SM 16/14 A3012 RMK 60016 SLP200 T01560141 57015 IEM_DS3505
ZGSZ,2007-01-17 07:00,ZGSZ 170700Z AUTO 02014KT 2SM 15/12 A3012 RMK T01500120 IEM_DS3505
ZGSZ,2007-01-17 08:00,ZGSZ 170800Z AUTO 02010KT 2SM 15/11 A3012 RMK T01500110 IEM_DS3505
ZGSZ,2007-01-17 09:00,ZGSZ 170900Z AUTO 02006KT 2 1/2SM 14/12 A3015 RMK SLP207 T01400120 52006 IEM_DS3505
ZGSZ,2007-01-17 10:00,ZGSZ 171000Z AUTO 02012KT 2 1/2SM 14/10 A3018 RMK T01400100 IEM_DS3505
ZGSZ,2007-01-17 11:00,ZGSZ 171100Z AUTO 02010KT 2 1/2SM 14/10 A3018 RMK T01400100 IEM_DS3505
ZGSZ,2007-01-17 12:00,ZGSZ 171200Z AUTO 02004KT 2SM 13/11 A3021 RMK 60003 SLP228 T01260112 52021 IEM_DS3505
ZGSZ,2007-01-17 13:00,ZGSZ 171300Z AUTO 02010KT 2 1/2SM 13/09 A3021 RMK T01300090 IEM_DS3505
ZGSZ,2007-01-17 14:00,ZGSZ 171400Z AUTO 01008KT 3SM 13/09 A3021 RMK T01300090 IEM_DS3505
ZGSZ,2007-01-17 15:00,ZGSZ 171500Z AUTO 34006KT 2 1/2SM 13/10 A3021 RMK SLP231 T01280096 52003 IEM_DS3505
ZGSZ,2007-01-17 16:00,ZGSZ 171600Z AUTO 01008KT 4SM 13/08 A3021 RMK T01300080 IEM_DS3505
ZGSZ,2007-01-17 17:00,ZGSZ 171700Z AUTO 02012KT 3SM 13/08 A3021 RMK T01300080 IEM_DS3505
ZGSZ,2007-01-17 18:00,ZGSZ 171800Z AUTO 34006KT 4SM 12/09 A3021 RMK 60002 SLP231 T01210089 57001 IEM_DS3505
ZGSZ,2007-01-17 19:00,ZGSZ 171900Z AUTO 02008KT 3SM 13/07 A3021 RMK T01300070 IEM_DS3505
ZGSZ,2007-01-17 20:00,ZGSZ 172000Z AUTO 36012KT 4SM 13/07 A3018 RMK T01300070 IEM_DS3505
ZGSZ,2007-01-17 21:00,ZGSZ 172100Z AUTO 36004KT 4SM 12/09 A3018 RMK 70057 SLP225 T01200087 57006 IEM_DS3505
ZGSZ,2007-01-17 22:00,ZGSZ 172200Z AUTO 02008KT 4SM 12/07 A3018 RMK T01200070 IEM_DS3505
ZGSZ,2007-01-17 23:00,ZGSZ 172300Z AUTO 02008KT 4SM 12/07 A3021 RMK T01200070 IEM_DS3505
ZGSZ,2007-01-18 00:00,ZGSZ 180000Z AUTO 02006KT 7SM 12/07 A3021 RMK 70022 SLP233 T01180069 52008 IEM_DS3505
ZGSZ,2007-01-18 01:00,ZGSZ 180100Z AUTO 02010KT 6SM 13/06 A3024 RMK T01300060 IEM_DS3505
ZGSZ,2007-01-18 02:00,ZGSZ 180200Z AUTO 02010KT 4SM 14/06 A3024 RMK T01400060 IEM_DS3505
ZGSZ,2007-01-18 03:00,ZGSZ 180300Z AUTO 07006KT 6SM 14/08 A3024 RMK SLP244 T01420082 52011 IEM_DS3505
ZGSZ,2007-01-18 04:00,ZGSZ 180400Z AUTO 02008KT 6SM 16/07 A3021 RMK T01600070 IEM_DS3505
ZGSZ,2007-01-18 05:00,ZGSZ 180500Z AUTO 01008KT 6SM 17/07 A3018 RMK T01700070 IEM_DS3505
ZGSZ,2007-01-18 06:00,ZGSZ 180600Z AUTO 02006KT 6SM 17/09 A3015 RMK SLP208 T01660091 57035 IEM_DS3505
ZGSZ,2007-01-18 07:00,ZGSZ 180700Z AUTO 01008KT 6SM 18/08 A3012 RMK T01800080 IEM_DS3505
ZGSZ,2007-01-18 08:00,ZGSZ 180800Z AUTO 02008KT 6SM 18/08 A3012 RMK T01800080 IEM_DS3505
ZGSZ,2007-01-18 09:00,ZGSZ 180900Z AUTO 02006KT 6SM 17/09 A3012 RMK SLP205 T01670094 57003 IEM_DS3505
ZGSZ,2007-01-18 10:00,ZGSZ 181000Z AUTO 04006KT 7SM 17/08 A3015 RMK T01700080 IEM_DS3505
ZGSZ,2007-01-18 11:00,ZGSZ 181100Z AUTO 03006KT 7SM 17/08 A3015 RMK T01700080 IEM_DS3505
ZGSZ,2007-01-18 12:00,ZGSZ 181200Z AUTO 02004KT 7SM 16/09 A3018 RMK SLP222 T01600094 52017 IEM_DS3505
ZGSZ,2007-01-18 13:00,ZGSZ 181300Z AUTO 03004KT 7SM 16/09 A3021 RMK T01600090 IEM_DS3505
ZGSZ,2007-01-18 14:00,ZGSZ 181400Z AUTO 05004KT 4SM 16/09 A3021 RMK T01600090 IEM_DS3505
ZGSZ,2007-01-18 15:00,ZGSZ 181500Z AUTO 02006KT 7SM 16/09 A3021 RMK SLP232 T01550090 52010 IEM_DS3505
ZGSZ,2007-01-18 16:00,ZGSZ 181600Z AUTO 36004KT 3SM 16/09 A3021 RMK T01600090 IEM_DS3505
ZGSZ,2007-01-18 17:00,ZGSZ 181700Z AUTO 02006KT 3SM 16/09 A3021 RMK T01600090 IEM_DS3505
ZGSZ,2007-01-18 18:00,ZGSZ 181800Z AUTO 02004KT 7SM 15/10 A3018 RMK SLP220 T01520096 57012 IEM_DS3505
ZGSZ,2007-01-18 19:00,ZGSZ 181900Z AUTO 04006KT 3SM 14/09 A3018 RMK T01400090 IEM_DS3505
ZGSZ,2007-01-18 20:00,ZGSZ 182000Z AUTO 04006KT 4SM 14/09 A3015 RMK T01400090 IEM_DS3505
ZGSZ,2007-01-18 21:00,ZGSZ 182100Z AUTO 36008KT 6SM 14/09 A3018 RMK 70000 SLP216 T01380090 57004 IEM_DS3505
ZGSZ,2007-01-18 22:00,ZGSZ 182200Z AUTO 03006KT 3SM 14/08 A3018 RMK T01400080 IEM_DS3505
ZGSZ,2007-01-18 23:00,ZGSZ 182300Z AUTO 05006KT 3SM 14/08 A3018 RMK T01400080 IEM_DS3505
ZGSZ,2007-01-19 00:00,ZGSZ 190000Z AUTO 36004KT 6SM 14/09 A3021 RMK 60000 70000 SLP228 T01390089 52012 IEM_DS3505
ZGSZ,2007-01-19 01:00,ZGSZ 190100Z AUTO 02008KT 3SM 14/08 A3024 RMK T01400080 IEM_DS3505
ZGSZ,2007-01-19 02:00,ZGSZ 190200Z AUTO 02010KT 3SM 15/08 A3024 RMK T01500080 IEM_DS3505
ZGSZ,2007-01-19 03:00,ZGSZ 190300Z AUTO 02008KT 4SM 15/09 A3024 RMK SLP237 T01470093 52009 IEM_DS3505
ZGSZ,2007-01-19 04:00,ZGSZ 190400Z AUTO 01010KT 3SM 16/09 A3018 RMK T01600090 IEM_DS3505
ZGSZ,2007-01-19 05:00,ZGSZ 190500Z AUTO 01010KT 2 1/2SM 17/08 A3015 RMK T01700080 IEM_DS3505
ZGSZ,2007-01-19 06:00,ZGSZ 190600Z AUTO 36006KT 4SM 18/10 A3012 RMK SLP200 T01770103 57037 IEM_DS3505
ZGSZ,2007-01-19 07:00,ZGSZ 190700Z AUTO 33008KT 3SM 19/10 A3009 RMK T01900100 IEM_DS3505
ZGSZ,2007-01-19 08:00,ZGSZ 190800Z AUTO 35008KT 3SM 19/09 A3009 RMK T01900090 IEM_DS3505
ZGSZ,2007-01-19 09:00,ZGSZ 190900Z AUTO 22002KT 4SM 18/11 A3009 RMK SLP189 T01850113 57011 IEM_DS3505
ZGSZ,2007-01-19 10:00,ZGSZ 191000Z AUTO 31008KT 2 1/2SM 17/11 A3009 RMK T01700110 IEM_DS3505
ZGSZ,2007-01-19 11:00,ZGSZ 191100Z AUTO 32006KT 2 1/2SM 17/11 A3009 RMK T01700110 IEM_DS3505
ZGSZ,2007-01-19 12:00,ZGSZ 191200Z AUTO 18004KT 2SM 17/12 A3009 RMK SLP200 T01660124 52011 IEM_DS3505
ZGSZ,2007-01-19 13:00,ZGSZ 191300Z AUTO 06006KT 3SM 18/10 A3012 RMK T01800100 IEM_DS3505
ZGSZ,2007-01-19 14:00,ZGSZ 191400Z AUTO 06004KT 3SM 17/10 A3012 RMK T01700100 IEM_DS3505
ZGSZ,2007-01-19 15:00,ZGSZ 191500Z AUTO 04004KT 2 1/2SM 16/10 A3012 RMK SLP209 T01610100 52009 IEM_DS3505
ZGSZ,2007-01-19 16:00,ZGSZ 191600Z AUTO 09006KT 3SM 17/10 A3012 RMK T01700100 IEM_DS3505
ZGSZ,2007-01-19 17:00,ZGSZ 191700Z AUTO 2 1/2SM 16/11 A3012 RMK T01600110 IEM_DS3505
ZGSZ,2007-01-19 18:00,ZGSZ 191800Z AUTO 02004KT 4SM 16/10 A3009 RMK SLP198 T01560104 57011 IEM_DS3505
ZGSZ,2007-01-19 19:00,ZGSZ 191900Z AUTO 04008KT 3SM 16/10 A3009 RMK T01600100 IEM_DS3505
ZGSZ,2007-01-19 20:00,ZGSZ 192000Z AUTO 04006KT 3SM 16/11 A3006 RMK T01600110 IEM_DS3505
ZGSZ,2007-01-19 21:00,ZGSZ 192100Z AUTO 36002KT 4SM 15/11 A3009 RMK 70000 SLP186 T01480110 57011 IEM_DS3505
ZGSZ,2007-01-19 22:00,ZGSZ 192200Z AUTO 01002KT 2 1/2SM 14/12 A3009 RMK T01400120 IEM_DS3505
ZGSZ,2007-01-19 23:00,ZGSZ 192300Z AUTO 06004KT 2 1/2SM 14/11 A3009 RMK T01400110 IEM_DS3505
ZGSZ,2007-01-20 00:00,ZGSZ 200000Z AUTO 04004KT 4SM 14/12 A3012 RMK 60003 70003 SLP197 T01430123 52010 IEM_DS3505
ZGSZ,2007-01-20 01:00,ZGSZ 200100Z AUTO 05004KT 2SM 15/11 A3012 RMK T01500110 IEM_DS3505
ZGSZ,2007-01-20 02:00,ZGSZ 200200Z AUTO 03004KT 2SM 16/12 A3012 RMK T01600120 IEM_DS3505
ZGSZ,2007-01-20 03:00,ZGSZ 200300Z AUTO 02004KT 3SM 16/14 A3012 RMK SLP203 T01610138 52006 IEM_DS3505
ZGSZ,2007-01-20 04:00,ZGSZ 200400Z AUTO 01008KT 1 1/2SM 16/13 A3012 RMK T01600130 IEM_DS3505
ZGSZ,2007-01-20 05:00,ZGSZ 200500Z AUTO 36010KT 2SM 15/12 A3009 RMK T01500120 IEM_DS3505
ZGSZ,2007-01-20 06:00,ZGSZ 200600Z AUTO 04006KT 2SM 17/14 A3006 RMK 60000 SLP179 T01710136 57023 IEM_DS3505
ZGSZ,2007-01-20 07:00,ZGSZ 200700Z AUTO 04008KT 2SM 17/12 A3003 RMK T01700120 IEM_DS3505
ZGSZ,2007-01-20 08:00,ZGSZ 200800Z AUTO 02010KT 2SM 17/12 A3003 RMK T01700120 IEM_DS3505
ZGSZ,2007-01-20 09:00,ZGSZ 200900Z AUTO 02006KT 2 1/2SM 17/13 A3003 RMK SLP176 T01690130 57004 IEM_DS3505
ZGSZ,2007-01-20 10:00,ZGSZ 201000Z AUTO 36010KT 2 1/2SM 16/11 A3006 RMK T01600110 IEM_DS3505
ZGSZ,2007-01-20 11:00,ZGSZ 201100Z AUTO 03006KT 2 1/2SM 16/11 A3006 RMK T01600110 IEM_DS3505
ZGSZ,2007-01-20 12:00,ZGSZ 201200Z AUTO 36006KT 2 1/2SM 16/12 A3009 RMK SLP188 T01590125 52012 IEM_DS3505
ZGSZ,2007-01-20 13:00,ZGSZ 201300Z AUTO 05006KT 2 1/2SM 16/11 A3009 RMK T01600110 IEM_DS3505
ZGSZ,2007-01-20 14:00,ZGSZ 201400Z AUTO 07008KT 2 1/2SM 16/11 A3009 RMK T01600110 IEM_DS3505
ZGSZ,2007-01-20 15:00,ZGSZ 201500Z AUTO 04008KT 3SM 15/12 A3012 RMK SLP192 T01530121 52004 IEM_DS3505
ZGSZ,2007-01-20 16:00,ZGSZ 201600Z AUTO 36006KT 2 1/2SM 16/11 A3009 RMK T01600110 IEM_DS3505
ZGSZ,2007-01-20 17:00,ZGSZ 201700Z AUTO 02004KT 3SM 15/11 A3009 RMK T01500110 IEM_DS3505
ZGSZ,2007-01-20 18:00,ZGSZ 201800Z AUTO 11002KT 3SM 15/12 A3009 RMK SLP190 T01540122 57002 IEM_DS3505
ZGSZ,2007-01-20 19:00,ZGSZ 201900Z AUTO 35010KT 2 1/2SM 15/11 A3009 RMK T01500110 IEM_DS3505
ZGSZ,2007-01-20 20:00,ZGSZ 202000Z AUTO 01008KT 2 1/2SM 15/10 A3009 RMK T01500100 IEM_DS3505
ZGSZ,2007-01-20 21:00,ZGSZ 202100Z AUTO 34004KT 2 1/2SM 14/12 A3009 RMK 70003 SLP192 T01440116 52002 IEM_DS3505
ZGSZ,2007-01-20 22:00,ZGSZ 202200Z AUTO 36008KT 2SM 14/11 A3009 RMK T01400110 IEM_DS3505
ZGSZ,2007-01-20 23:00,ZGSZ 202300Z AUTO 35004KT 1 1/2SM 14/11 A3012 RMK T01400110 IEM_DS3505
ZGSZ,2007-01-21 00:00,ZGSZ 210000Z AUTO 04006KT 2 1/2SM 14/12 A3012 RMK 60000 70000 SLP204 T01400122 52012 IEM_DS3505
ZGSZ,2007-01-21 01:00,ZGSZ 210100Z AUTO 01008KT 2SM 14/11 A3015 RMK T01400110 IEM_DS3505
ZGSZ,2007-01-21 02:00,ZGSZ 210200Z AUTO 03006KT 2SM 14/11 A3015 RMK T01400110 IEM_DS3505
ZGSZ,2007-01-21 03:00,ZGSZ 210300Z AUTO 04002KT 2 1/2SM 14/12 A3015 RMK SLP213 T01450125 52009 IEM_DS3505
ZGSZ,2007-01-21 04:00,ZGSZ 210400Z AUTO 36010KT 1 1/2SM 14/11 A3015 RMK T01400110 IEM_DS3505
ZGSZ,2007-01-21 05:00,ZGSZ 210500Z AUTO 02008KT 1 1/2SM 14/11 A3012 RMK T01400110 IEM_DS3505
ZGSZ,2007-01-21 06:00,ZGSZ 210600Z AUTO 34006KT 2SM 14/12 A3009 RMK 60000 SLP192 T01350124 57021 IEM_DS3505
ZGSZ,2007-01-21 07:00,ZGSZ 210700Z AUTO 36010KT 3SM 13/11 A3009 RMK T01300110 IEM_DS3505
ZGSZ,2007-01-21 08:00,ZGSZ 210800Z AUTO 02010KT 4SM 14/10 A3009 RMK T01400100 IEM_DS3505
ZGSZ,2007-01-21 09:00,ZGSZ 210900Z AUTO 02004KT 2 1/2SM 13/12 A3009 RMK SLP193 T01310115 52001 IEM_DS3505
ZGSZ,2007-01-21 10:00,ZGSZ 211000Z AUTO 36010KT 7SM 14/10 A3012 RMK T01400100 IEM_DS3505
ZGSZ,2007-01-21 11:00,ZGSZ 211100Z AUTO 02008KT 7SM 14/10 A3015 RMK T01400100 IEM_DS3505
ZGSZ,2007-01-21 12:00,ZGSZ 211200Z AUTO 07006KT 2 1/2SM 13/11 A3015 RMK 60000 SLP208 T01280107 52015 IEM_DS3505
ZGSZ,2007-01-21 13:00,ZGSZ 211300Z AUTO 03008KT 4SM 13/10 A3015 RMK T01300100 IEM_DS3505
ZGSZ,2007-01-21 14:00,ZGSZ 211400Z AUTO 02006KT 7SM 14/09 A3018 RMK T01400090 IEM_DS3505
ZGSZ,2007-01-21 15:00,ZGSZ 211500Z AUTO 02004KT 6SM 13/10 A3018 RMK SLP217 T01320102 52009 IEM_DS3505
ZGSZ,2007-01-21 16:00,ZGSZ 211600Z AUTO 02006KT 7SM 14/09 A3015 RMK T01400090 IEM_DS3505
ZGSZ,2007-01-21 17:00,ZGSZ 211700Z AUTO 02006KT 7SM 13/09 A3015 RMK T01300090 IEM_DS3505
ZGSZ,2007-01-21 18:00,ZGSZ 211800Z AUTO 36004KT 6SM 13/11 A3015 RMK SLP211 T01330108 57006 IEM_DS3505
ZGSZ,2007-01-21 19:00,ZGSZ 211900Z AUTO 02008KT 7SM 13/09 A3015 RMK T01300090 IEM_DS3505
ZGSZ,2007-01-21 20:00,ZGSZ 212000Z AUTO 35006KT 7SM 13/09 A3015 RMK T01300090 IEM_DS3505
ZGSZ,2007-01-21 21:00,ZGSZ 212100Z AUTO 07004KT 6SM 13/11 A3015 RMK 70000 SLP208 T01300107 57004 IEM_DS3505
ZGSZ,2007-01-21 22:00,ZGSZ 212200Z AUTO 36006KT 7SM 13/08 A3015 RMK T01300080 IEM_DS3505
ZGSZ,2007-01-21 23:00,ZGSZ 212300Z AUTO 01010KT 7SM 13/08 A3018 RMK T01300080 IEM_DS3505
ZGSZ,2007-01-22 00:00,ZGSZ 220000Z AUTO 07002KT 6SM 13/11 A3021 RMK 70000 SLP228 T01340111 52020 IEM_DS3505
ZGSZ,2007-01-22 01:00,ZGSZ 220100Z AUTO 01008KT 4SM 13/09 A3021 RMK T01300090 IEM_DS3505
ZGSZ,2007-01-22 02:00,ZGSZ 220200Z AUTO 02008KT 4SM 14/09 A3021 RMK T01400090 IEM_DS3505
ZGSZ,2007-01-22 03:00,ZGSZ 220300Z AUTO 04002KT 5SM 15/12 A3021 RMK SLP233 T01510117 52006 IEM_DS3505
ZGSZ,2007-01-22 04:00,ZGSZ 220400Z AUTO 01006KT 3SM 16/10 A3021 RMK T01600100 IEM_DS3505
ZGSZ,2007-01-22 05:00,ZGSZ 220500Z AUTO 03004KT 3SM 17/11 A3018 RMK T01700110 IEM_DS3505
ZGSZ,2007-01-22 06:00,ZGSZ 220600Z AUTO 07004KT 5SM 17/12 A3015 RMK SLP209 T01740125 57024 IEM_DS3505
ZGSZ,2007-01-22 07:00,ZGSZ 220700Z AUTO 35006KT 3SM 17/11 A3012 RMK T01700110 IEM_DS3505
ZGSZ,2007-01-22 08:00,ZGSZ 220800Z AUTO 34006KT 3SM 17/11 A3012 RMK T01700110 IEM_DS3505
ZGSZ,2007-01-22 09:00,ZGSZ 220900Z AUTO 07004KT 6SM 17/13 A3012 RMK SLP204 T01740129 57005 IEM_DS3505
ZGSZ,2007-01-22 10:00,ZGSZ 221000Z AUTO 35006KT 3SM 17/11 A3015 RMK T01700110 IEM_DS3505
ZGSZ,2007-01-22 11:00,ZGSZ 221100Z AUTO 32006KT 2 1/2SM 16/11 A3015 RMK T01600110 IEM_DS3505
ZGSZ,2007-01-22 12:00,ZGSZ 221200Z AUTO 04002KT 5SM 16/13 A3018 RMK SLP219 T01640128 52015 IEM_DS3505
ZGSZ,2007-01-22 13:00,ZGSZ 221300Z AUTO 31006KT 2 1/2SM 15/11 A3018 RMK T01500110 IEM_DS3505
ZGSZ,2007-01-22 14:00,ZGSZ 221400Z AUTO 33008KT 2 1/2SM 15/11 A3021 RMK T01500110 IEM_DS3505
ZGSZ,2007-01-22 15:00,ZGSZ 221500Z AUTO 02002KT 4SM 15/13 A3021 RMK SLP229 T01530132 52010 IEM_DS3505
ZGSZ,2007-01-22 16:00,ZGSZ 221600Z AUTO 33006KT 2 1/2SM 15/11 A3021 RMK T01500110 IEM_DS3505
ZGSZ,2007-01-22 17:00,ZGSZ 221700Z AUTO 36006KT 2 1/2SM 16/11 A3021 RMK T01600110 IEM_DS3505
ZGSZ,2007-01-22 18:00,ZGSZ 221800Z AUTO 36004KT 2SM 15/13 A3021 RMK SLP230 T01480127 52001 IEM_DS3505
ZGSZ,2007-01-22 19:00,ZGSZ 221900Z AUTO 02006KT 3SM 15/11 A3021 RMK T01500110 IEM_DS3505
ZGSZ,2007-01-22 20:00,ZGSZ 222000Z AUTO 01006KT 3SM 15/11 A3021 RMK T01500110 IEM_DS3505
ZGSZ,2007-01-22 21:00,ZGSZ 222100Z AUTO 36004KT 2SM 15/12 A3021 RMK SLP228 T01460125 57002 IEM_DS3505
ZGSZ,2007-01-22 22:00,ZGSZ 222200Z AUTO 02004KT 3SM 15/11 A3021 RMK T01500110 IEM_DS3505
ZGSZ,2007-01-22 23:00,ZGSZ 222300Z AUTO 36008KT 3SM 15/11 A3024 RMK T01500110 IEM_DS3505
ZGSZ,2007-01-23 00:00,ZGSZ 230000Z AUTO 07002KT 2 1/2SM 15/12 A3024 RMK SLP241 T01460119 52013 IEM_DS3505
ZGSZ,2007-01-23 01:00,ZGSZ 230100Z AUTO 01008KT 2SM 15/11 A3027 RMK T01500110 IEM_DS3505
ZGSZ,2007-01-23 02:00,ZGSZ 230200Z AUTO 01012KT 3SM 15/10 A3027 RMK T01500100 IEM_DS3505
ZGSZ,2007-01-23 03:00,ZGSZ 230300Z AUTO 34006KT 2 1/2SM 15/12 A3030 RMK SLP256 T01480116 52015 IEM_DS3505
ZGSZ,2007-01-23 04:00,ZGSZ 230400Z AUTO 01010KT 3SM 16/10 A3027 RMK T01600100 IEM_DS3505
ZGSZ,2007-01-23 05:00,ZGSZ 230500Z AUTO 34008KT 5SM 16/10 A3024 RMK T01600100 IEM_DS3505
ZGSZ,2007-01-23 06:00,ZGSZ 230600Z AUTO 34010KT 7SM 16/11 A3021 RMK SLP231 T01580106 57025 IEM_DS3505
ZGSZ,2007-01-23 07:00,ZGSZ 230700Z AUTO 36010KT 7SM 18/10 A3018 RMK T01800100 IEM_DS3505
ZGSZ,2007-01-23 08:00,ZGSZ 230800Z AUTO 01010KT 6SM 18/10 A3018 RMK T01800100 IEM_DS3505
ZGSZ,2007-01-23 09:00,ZGSZ 230900Z AUTO 32010KT 12SM 18/10 A3018 RMK SLP218 T01760100 57013 IEM_DS3505
ZGSZ,2007-01-23 10:00,ZGSZ 231000Z AUTO 35010KT 4SM 17/09 A3018 RMK T01700090 IEM_DS3505
ZGSZ,2007-01-23 12:00,ZGSZ 231200Z AUTO 34010KT 11SM 15/09 A3021 RMK SLP235 T01510092 52017 IEM_DS3505
ZGSZ,2007-01-23 13:00,ZGSZ 231300Z AUTO 02014KT 6SM 15/08 A3024 RMK T01500080 IEM_DS3505
ZGSZ,2007-01-23 14:00,ZGSZ 231400Z AUTO 02012KT 6SM 14/07 A3027 RMK T01400070 IEM_DS3505
ZGSZ,2007-01-23 15:00,ZGSZ 231500Z AUTO 36010KT 10SM 13/08 A3027 RMK SLP248 T01280077 52012 IEM_DS3505
ZGSZ,2007-01-23 16:00,ZGSZ 231600Z AUTO 02010KT 6SM 13/07 A3027 RMK T01300070 IEM_DS3505
ZGSZ,2007-01-23 17:00,ZGSZ 231700Z AUTO 02010KT 6SM 12/06 A3027 RMK T01200060 IEM_DS3505
ZGSZ,2007-01-23 18:00,ZGSZ 231800Z AUTO 36006KT 9SM 11/07 A3027 RMK SLP248 T01140069 54000 IEM_DS3505
ZGSZ,2007-01-23 19:00,ZGSZ 231900Z AUTO 03008KT 6SM 12/06 A3027 RMK T01200060 IEM_DS3505
ZGSZ,2007-01-23 20:00,ZGSZ 232000Z AUTO 02010KT 6SM 11/05 A3027 RMK T01100050 IEM_DS3505
ZGSZ,2007-01-23 21:00,ZGSZ 232100Z AUTO 02008KT 9SM 11/05 A3027 RMK SLP246 T01070053 57002 IEM_DS3505
ZGSZ,2007-01-23 22:00,ZGSZ 232200Z AUTO 03010KT 6SM 11/05 A3027 RMK T01100050 IEM_DS3505
ZGSZ,2007-01-23 23:00,ZGSZ 232300Z AUTO 03008KT 6SM 11/05 A3030 RMK T01100050 IEM_DS3505
ZGSZ,2007-01-24 00:00,ZGSZ 240000Z AUTO 36004KT 11SM 11/05 A3033 RMK SLP265 T01070053 52019 IEM_DS3505
ZGSZ,2007-01-24 01:00,ZGSZ 240100Z AUTO 02010KT 6SM 12/04 A3033 RMK T01200040 IEM_DS3505
ZGSZ,2007-01-24 02:00,ZGSZ 240200Z AUTO 01012KT 6SM 13/04 A3033 RMK T01300040 IEM_DS3505
ZGSZ,2007-01-24 03:00,ZGSZ 240300Z AUTO 36008KT 11SM 13/05 A3033 RMK SLP270 T01300049 52005 IEM_DS3505
ZGSZ,2007-01-24 04:00,ZGSZ 240400Z AUTO 04010KT 7SM 14/04 A3030 RMK T01400040 IEM_DS3505
ZGSZ,2007-01-24 05:00,ZGSZ 240500Z AUTO 02010KT 7SM 15/04 A3027 RMK T01500040 IEM_DS3505
ZGSZ,2007-01-24 06:00,ZGSZ 240600Z AUTO 02004KT 9SM 15/05 A3024 RMK SLP237 T01510050 57033 IEM_DS3505
ZGSZ,2007-01-24 07:00,ZGSZ 240700Z AUTO 02010KT 5SM 16/04 A3021 RMK T01600040 IEM_DS3505
ZGSZ,2007-01-24 08:00,ZGSZ 240800Z AUTO 03010KT 5SM 16/04 A3018 RMK T01600040 IEM_DS3505
ZGSZ,2007-01-24 09:00,ZGSZ 240900Z AUTO 34004KT 8SM 16/06 A3018 RMK SLP224 T01550060 57013 IEM_DS3505
ZGSZ,2007-01-24 10:00,ZGSZ 241000Z AUTO 03006KT 4SM 15/04 A3018 RMK T01500040 IEM_DS3505
ZGSZ,2007-01-24 11:00,ZGSZ 241100Z AUTO 04004KT 4SM 14/05 A3021 RMK T01400050 IEM_DS3505
ZGSZ,2007-01-24 12:00,ZGSZ 241200Z AUTO 04004KT 6SM 14/06 A3024 RMK SLP239 T01370058 52015 IEM_DS3505
ZGSZ,2007-01-24 13:00,ZGSZ 241300Z AUTO 04006KT 4SM 14/04 A3024 RMK T01400040 IEM_DS3505
ZGSZ,2007-01-24 14:00,ZGSZ 241400Z AUTO 02004KT 4SM 14/05 A3024 RMK T01400050 IEM_DS3505
ZGSZ,2007-01-24 15:00,ZGSZ 241500Z AUTO 04004KT 7SM 13/05 A3024 RMK SLP245 T01270047 52006 IEM_DS3505
ZGSZ,2007-01-24 16:00,ZGSZ 241600Z AUTO 02004KT 3SM 12/04 A3024 RMK T01200040 IEM_DS3505
ZGSZ,2007-01-24 17:00,ZGSZ 241700Z AUTO 36008KT 3SM 12/04 A3024 RMK T01200040 IEM_DS3505
ZGSZ,2007-01-24 18:00,ZGSZ 241800Z AUTO 02006KT 6SM 13/05 A3024 RMK SLP243 T01270051 57002 IEM_DS3505
ZGSZ,2007-01-24 19:00,ZGSZ 241900Z AUTO 01008KT 3SM 12/04 A3024 RMK T01200040 IEM_DS3505
ZGSZ,2007-01-24 20:00,ZGSZ 242000Z AUTO 02008KT 3SM 12/04 A3024 RMK T01200040 IEM_DS3505
ZGSZ,2007-01-24 21:00,ZGSZ 242100Z AUTO 04006KT 6SM 11/05 A3024 RMK SLP244 T01140048 52001 IEM_DS3505
ZGSZ,2007-01-24 22:00,ZGSZ 242200Z AUTO 36010KT 3SM 11/04 A3027 RMK T01100040 IEM_DS3505
ZGSZ,2007-01-24 23:00,ZGSZ 242300Z AUTO 02008KT 4SM 11/04 A3030 RMK T01100040 IEM_DS3505
ZGSZ,2007-01-25 00:00,ZGSZ 250000Z AUTO 02004KT 5SM 11/05 A3030 RMK SLP261 T01110046 52017 IEM_DS3505
ZGSZ,2007-01-25 01:00,ZGSZ 250100Z AUTO 02006KT 4SM 12/03 A3030 RMK T01200030 IEM_DS3505
ZGSZ,2007-01-25 02:00,ZGSZ 250200Z AUTO 36008KT 4SM 13/04 A3030 RMK T01300040 IEM_DS3505
ZGSZ,2007-01-25 03:00,ZGSZ 250300Z AUTO 36006KT 4SM 15/06 A3030 RMK SLP259 T01540059 57002 IEM_DS3505
ZGSZ,2007-01-25 04:00,ZGSZ 250400Z AUTO 36010KT 3SM 14/04 A3027 RMK T01400040 IEM_DS3505
ZGSZ,2007-01-25 05:00,ZGSZ 250500Z AUTO 01010KT 3SM 14/04 A3024 RMK T01400040 IEM_DS3505
ZGSZ,2007-01-25 06:00,ZGSZ 250600Z AUTO 36006KT 5SM 15/06 A3021 RMK SLP225 T01510059 57033 IEM_DS3505
ZGSZ,2007-01-25 07:00,ZGSZ 250700Z AUTO 31006KT 3SM 16/06 A3018 RMK T01600060 IEM_DS3505
ZGSZ,2007-01-25 08:00,ZGSZ 250800Z AUTO 29008KT 3SM 16/07 A3018 RMK T01600070 IEM_DS3505
ZGSZ,2007-01-25 09:00,ZGSZ 250900Z AUTO 02004KT 5SM 16/07 A3018 RMK SLP218 T01650072 57007 IEM_DS3505
ZGSZ,2007-01-25 10:00,ZGSZ 251000Z AUTO 31006KT 3SM 15/08 A3018 RMK T01500080 IEM_DS3505
ZGSZ,2007-01-25 11:00,ZGSZ 251100Z AUTO 34004KT 2 1/2SM 14/07 A3018 RMK T01400070 IEM_DS3505
ZGSZ,2007-01-25 12:00,ZGSZ 251200Z AUTO 36004KT 4SM 15/07 A3021 RMK SLP231 T01460072 52012 IEM_DS3505
ZGSZ,2007-01-25 13:00,ZGSZ 251300Z AUTO 2 1/2SM 14/07 A3024 RMK T01400070 IEM_DS3505
ZGSZ,2007-01-25 14:00,ZGSZ 251400Z AUTO 02004KT 2SM 14/07 A3024 RMK T01400070 IEM_DS3505
ZGSZ,2007-01-25 15:00,ZGSZ 251500Z AUTO 02004KT 4SM 14/07 A3024 RMK SLP238 T01430069 52008 IEM_DS3505
ZGSZ,2007-01-25 16:00,ZGSZ 251600Z AUTO 01004KT 2 1/2SM 14/06 A3021 RMK T01400060 IEM_DS3505
ZGSZ,2007-01-25 17:00,ZGSZ 251700Z AUTO 35004KT 2SM 13/06 A3021 RMK T01300060 IEM_DS3505
ZGSZ,2007-01-25 18:00,ZGSZ 251800Z AUTO 36004KT 3SM 13/07 A3021 RMK SLP232 T01330073 57006 IEM_DS3505
ZGSZ,2007-01-25 19:00,ZGSZ 251900Z AUTO 01006KT 2 1/2SM 12/06 A3021 RMK T01200060 IEM_DS3505
ZGSZ,2007-01-25 20:00,ZGSZ 252000Z AUTO 01008KT 2 1/2SM 12/06 A3018 RMK T01200060 IEM_DS3505
ZGSZ,2007-01-25 21:00,ZGSZ 252100Z AUTO 36008KT 2SM 12/07 A3021 RMK SLP225 T01220073 57007 IEM_DS3505
ZGSZ,2007-01-25 22:00,ZGSZ 252200Z AUTO 02008KT 2SM 11/06 A3021 RMK T01100060 IEM_DS3505
ZGSZ,2007-01-25 23:00,ZGSZ 252300Z AUTO 01008KT 2SM 11/07 A3024 RMK T01100070 IEM_DS3505
ZGSZ,2007-01-26 00:00,ZGSZ 260000Z AUTO 02004KT 2 1/2SM 11/07 A3027 RMK SLP251 T01120067 52025 IEM_DS3505
ZGSZ,2007-01-26 01:00,ZGSZ 260100Z AUTO 01008KT 2 1/2SM 13/06 A3030 RMK T01300060 IEM_DS3505
ZGSZ,2007-01-26 02:00,ZGSZ 260200Z AUTO 35008KT 3SM 14/06 A3030 RMK T01400060 IEM_DS3505
ZGSZ,2007-01-26 03:00,ZGSZ 260300Z AUTO 36006KT 3SM 15/07 A3030 RMK SLP257 T01510067 52007 IEM_DS3505
ZGSZ,2007-01-26 04:00,ZGSZ 260400Z AUTO 01010KT 4SM 17/05 A3027 RMK T01700050 IEM_DS3505
ZGSZ,2007-01-26 05:00,ZGSZ 260500Z AUTO 35010KT 4SM 17/04 A3024 RMK T01700040 IEM_DS3505
ZGSZ,2007-01-26 07:00,ZGSZ 260700Z AUTO 01008KT 3SM 18/05 A3018 RMK T01800050 IEM_DS3505
ZGSZ,2007-01-26 08:00,ZGSZ 260800Z AUTO 36010KT 4SM 18/04 A3018 RMK T01800040 IEM_DS3505
ZGSZ,2007-01-26 09:00,ZGSZ 260900Z AUTO 02008KT 4SM 18/05 A3018 RMK SLP218 T01750051 57009 IEM_DS3505
ZGSZ,2007-01-26 10:00,ZGSZ 261000Z AUTO 01010KT 4SM 17/04 A3018 RMK T01700040 IEM_DS3505
ZGSZ,2007-01-26 11:00,ZGSZ 261100Z AUTO 03006KT 4SM 17/04 A3021 RMK T01700040 IEM_DS3505
ZGSZ,2007-01-26 12:00,ZGSZ 261200Z AUTO 02004G19KT 5SM 15/05 A3024 RMK SLP240 T01470050 52021 IEM_DS3505
ZGSZ,2007-01-26 13:00,ZGSZ 261300Z AUTO 03010KT 4SM 14/03 A3027 RMK T01400030 IEM_DS3505
ZGSZ,2007-01-26 14:00,ZGSZ 261400Z AUTO 04010KT 4SM 13/02 A3027 RMK T01300020 IEM_DS3505
ZGSZ,2007-01-26 15:00,ZGSZ 261500Z AUTO 04006KT 6SM 11/03 A3027 RMK SLP255 T01110032 52015 IEM_DS3505
ZGSZ,2007-01-26 16:00,ZGSZ 261600Z AUTO 05008KT 6SM 11/01 A3027 RMK T01100010 IEM_DS3505
ZGSZ,2007-01-26 17:00,ZGSZ 261700Z AUTO 02008KT 6SM 10/02 A3027 RMK T01000020 IEM_DS3505
ZGSZ,2007-01-26 18:00,ZGSZ 261800Z AUTO 02004KT 6SM 10/03 A3027 RMK SLP249 T00960029 57006 IEM_DS3505
ZGSZ,2007-01-26 19:00,ZGSZ 261900Z AUTO 01008KT 3SM 09/02 A3027 RMK T00900020 IEM_DS3505
ZGSZ,2007-01-26 20:00,ZGSZ 262000Z AUTO 02012KT 3SM 09/02 A3024 RMK T00900020 IEM_DS3505
ZGSZ,2007-01-26 21:00,ZGSZ 262100Z AUTO 02006KT 6SM 10/04 A3024 RMK SLP240 T00950035 57009 IEM_DS3505
ZGSZ,2007-01-26 22:00,ZGSZ 262200Z AUTO 03010KT 3SM 09/02 A3024 RMK T00900020 IEM_DS3505
ZGSZ,2007-01-26 23:00,ZGSZ 262300Z AUTO 02010KT 3SM 10/02 A3027 RMK T01000020 IEM_DS3505
ZGSZ,2007-01-27 00:00,ZGSZ 270000Z AUTO 02006KT 7SM 10/04 A3030 RMK SLP259 T01030038 52019 IEM_DS3505
ZGSZ,2007-01-27 01:00,ZGSZ 270100Z AUTO 36008KT 3SM 12/03 A3033 RMK T01200030 IEM_DS3505
ZGSZ,2007-01-27 02:00,ZGSZ 270200Z AUTO 36010KT 4SM 13/03 A3033 RMK T01300030 IEM_DS3505
ZGSZ,2007-01-27 03:00,ZGSZ 270300Z AUTO 36006KT 6SM 14/05 A3033 RMK SLP267 T01450048 52008 IEM_DS3505
ZGSZ,2007-01-27 04:00,ZGSZ 270400Z AUTO 36012KT 4SM 17/04 A3030 RMK T01700040 IEM_DS3505
ZGSZ,2007-01-27 05:00,ZGSZ 270500Z AUTO 01012KT 4SM 18/04 A3027 RMK T01800040 IEM_DS3505
ZGSZ,2007-01-27 06:00,ZGSZ 270600Z AUTO 02010KT 6SM 18/05 A3021 RMK SLP234 T01780051 57033 IEM_DS3505
ZGSZ,2007-01-27 07:00,ZGSZ 270700Z AUTO 36008KT 4SM 19/05 A3021 RMK T01900050 IEM_DS3505
ZGSZ,2007-01-27 08:00,ZGSZ 270800Z AUTO 01012KT 4SM 19/03 A3018 RMK T01900030 IEM_DS3505
ZGSZ,2007-01-27 09:00,ZGSZ 270900Z AUTO 34010KT 6SM 18/05 A3021 RMK SLP233 T01770046 57001 IEM_DS3505
ZGSZ,2007-01-27 10:00,ZGSZ 271000Z AUTO 03008KT 4SM 18/03 A3024 RMK T01800030 IEM_DS3505
ZGSZ,2007-01-27 11:00,ZGSZ 271100Z AUTO 04008KT 4SM 17/01 A3027 RMK T01700010 IEM_DS3505
ZGSZ,2007-01-27 12:00,ZGSZ 271200Z AUTO 02006KT 7SM 16/02 A3030 RMK SLP261 T01610018 52028 IEM_DS3505
ZGSZ,2007-01-27 13:00,ZGSZ 271300Z AUTO 01008KT 3SM 16/00 A3030 RMK T01600000 IEM_DS3505
ZGSZ,2007-01-27 14:00,ZGSZ 271400Z AUTO 36006KT 3SM 14/00 A3033 RMK T01400000 IEM_DS3505
ZGSZ,2007-01-27 15:00,ZGSZ 271500Z AUTO 34004KT 7SM 14/M03 A3036 RMK SLP279 T01401033 52018 IEM_DS3505
ZGSZ,2007-01-27 16:00,ZGSZ 271600Z AUTO 01008KT 3SM 14/M02 A3036 RMK T01401020 IEM_DS3505
ZGSZ,2007-01-27 18:00,ZGSZ 271800Z AUTO 04002KT 8SM 14/M04 RMK SLP273 T01361036 57005 IEM_DS3505
ZGSZ,2007-01-27 21:00,ZGSZ 272100Z AUTO 02004KT 9SM 13/M04 RMK SLP268 T01321040 57005 IEM_DS3505
ZGSZ,2007-01-27 23:00,ZGSZ 272300Z AUTO 35006KT 4SM 10/M01 A3039 RMK T01001010 IEM_DS3505
ZGSZ,2007-01-28 00:00,ZGSZ 280000Z AUTO 02012KT 9SM 13/M04 A3042 RMK SLP293 T01301042 52024 IEM_DS3505
ZGSZ,2007-01-28 01:00,ZGSZ 280100Z AUTO 01012KT 4SM 14/M04 A3042 RMK T01401040 IEM_DS3505
ZGSZ,2007-01-28 02:00,ZGSZ 280200Z AUTO 01012KT 4SM 15/M04 A3042 RMK T01501040 IEM_DS3505
ZGSZ,2007-01-28 03:00,ZGSZ 280300Z AUTO 02012KT 6SM 15/M04 A3042 RMK SLP297 T01531041 52004 IEM_DS3505
ZGSZ,2007-01-28 04:00,ZGSZ 280400Z AUTO 03016KT 4SM 18/M04 A3039 RMK T01801040 IEM_DS3505
ZGSZ,2007-01-28 05:00,ZGSZ 280500Z AUTO 04014KT 4SM 18/M04 A3033 RMK T01801040 IEM_DS3505
ZGSZ,2007-01-28 06:00,ZGSZ 280600Z AUTO 34014KT 6SM 18/M04 A3030 RMK SLP256 T01811039 57040 IEM_DS3505
ZGSZ,2007-01-28 07:00,ZGSZ 280700Z AUTO 01010KT 4SM 19/M04 A3027 RMK T01901040 IEM_DS3505
ZGSZ,2007-01-28 08:00,ZGSZ 280800Z AUTO 01012KT 6SM 19/M04 A3027 RMK T01901040 IEM_DS3505
ZGSZ,2007-01-28 09:00,ZGSZ 280900Z AUTO 34008KT 5SM 17/M04 A3027 RMK SLP247 T01741039 57009 IEM_DS3505
ZGSZ,2007-01-28 10:00,ZGSZ 281000Z AUTO 04006KT 6SM 18/M03 A3027 RMK T01801030 IEM_DS3505
ZGSZ,2007-01-28 11:00,ZGSZ 281100Z AUTO 04006KT 5SM 17/M03 A3027 RMK T01701030 IEM_DS3505
ZGSZ,2007-01-28 12:00,ZGSZ 281200Z AUTO 04006KT 6SM 15/M03 A3030 RMK SLP263 T01531026 52015 IEM_DS3505
ZGSZ,2007-01-28 13:00,ZGSZ 281300Z AUTO 05004KT 4SM 16/M03 A3030 RMK T01601030 IEM_DS3505
ZGSZ,2007-01-28 14:00,ZGSZ 281400Z AUTO 03004KT 4SM 15/M04 A3033 RMK T01501040 IEM_DS3505
ZGSZ,2007-01-28 15:00,ZGSZ 281500Z AUTO 02008KT 7SM 14/M07 A3033 RMK SLP274 T01381070 52011 IEM_DS3505
ZGSZ,2007-01-28 16:00,ZGSZ 281600Z AUTO 4SM 13/M06 A3033 RMK T01301060 IEM_DS3505
ZGSZ,2007-01-28 17:00,ZGSZ 281700Z AUTO 05004KT 6SM 13/M06 A3033 RMK T01301060 IEM_DS3505
ZGSZ,2007-01-28 18:00,ZGSZ 281800Z AUTO 02006KT 9SM 13/M07 A3033 RMK SLP267 T01281073 57006 IEM_DS3505
ZGSZ,2007-01-28 19:00,ZGSZ 281900Z AUTO 05006KT 6SM 12/M07 A3030 RMK T01201070 IEM_DS3505
ZGSZ,2007-01-28 20:00,ZGSZ 282000Z AUTO 08010KT 6SM 12/M07 A3030 RMK T01201070 IEM_DS3505
ZGSZ,2007-01-28 21:00,ZGSZ 282100Z AUTO 04004KT 12SM 11/M07 A3030 RMK SLP260 T01101068 57008 IEM_DS3505
ZGSZ,2007-01-28 22:00,ZGSZ 282200Z AUTO 6SM 10/M06 A3030 RMK T01001060 IEM_DS3505
ZGSZ,2007-01-28 23:00,ZGSZ 282300Z AUTO 05004KT 4SM 09/M06 A3033 RMK T00901060 IEM_DS3505
ZGSZ,2007-01-29 00:00,ZGSZ 290000Z AUTO 11002KT 14SM 11/M07 A3033 RMK SLP272 T01121071 52012 IEM_DS3505
ZGSZ,2007-01-29 01:00,ZGSZ 290100Z AUTO 10006KT 6SM 13/M06 A3036 RMK T01301060 IEM_DS3505
ZGSZ,2007-01-29 02:00,ZGSZ 290200Z AUTO 6SM 15/M07 A3036 RMK T01501070 IEM_DS3505
ZGSZ,2007-01-29 03:00,ZGSZ 290300Z AUTO 07004KT 12SM 16/M08 A3033 RMK SLP277 T01551080 52005 IEM_DS3505
ZGSZ,2007-01-29 04:00,ZGSZ 290400Z AUTO 6SM 19/M11 A3030 RMK T01901110 IEM_DS3505
ZGSZ,2007-01-29 05:00,ZGSZ 290500Z AUTO 34006KT 6SM 18/M11 A3027 RMK T01801110 IEM_DS3505
ZGSZ,2007-01-29 06:00,ZGSZ 290600Z AUTO 16004KT 14SM 19/M10 A3024 RMK SLP236 T01901100 57040 IEM_DS3505
ZGSZ,2007-01-29 07:00,ZGSZ 290700Z AUTO 23006KT 6SM 18/M01 A3021 RMK T01801010 IEM_DS3505
ZGSZ,2007-01-29 08:00,ZGSZ 290800Z AUTO 21006KT 6SM 18/M01 A3018 RMK T01801010 IEM_DS3505
ZGSZ,2007-01-29 09:00,ZGSZ 290900Z AUTO 20008KT 10SM 17/02 A3018 RMK SLP225 T01690021 57011 IEM_DS3505
ZGSZ,2007-01-29 10:00,ZGSZ 291000Z AUTO 18006KT 6SM 15/03 A3021 RMK T01500030 IEM_DS3505
ZGSZ,2007-01-29 11:00,ZGSZ 291100Z AUTO 16004KT 6SM 13/06 A3021 RMK T01300060 IEM_DS3505
ZGSZ,2007-01-29 12:00,ZGSZ 291200Z AUTO 09002KT 9SM 14/05 A3024 RMK SLP243 T01380049 52017 IEM_DS3505
ZGSZ,2007-01-29 13:00,ZGSZ 291300Z AUTO 13004KT 4SM 14/05 A3027 RMK T01400050 IEM_DS3505
ZGSZ,2007-01-29 14:00,ZGSZ 291400Z AUTO 3SM 14/05 A3027 RMK T01400050 IEM_DS3505
ZGSZ,2007-01-29 15:00,ZGSZ 291500Z AUTO 04002KT 9SM 12/03 A3027 RMK SLP256 T01240034 52013 IEM_DS3505
ZGSZ,2007-01-29 16:00,ZGSZ 291600Z AUTO 15002KT 3SM 11/05 A3027 RMK T01100050 IEM_DS3505
ZGSZ,2007-01-29 17:00,ZGSZ 291700Z AUTO 14004KT 3SM 09/04 A3027 RMK T00900040 IEM_DS3505
ZGSZ,2007-01-29 18:00,ZGSZ 291800Z AUTO 04004KT 11SM 12/03 A3027 RMK SLP253 T01210031 57002 IEM_DS3505
ZGSZ,2007-01-29 19:00,ZGSZ 291900Z AUTO 00000KT 3SM 09/05 A3027 RMK T00900050 IEM_DS3505
ZGSZ,2007-01-29 20:00,ZGSZ 292000Z AUTO 3SM 10/04 A3024 RMK T01000040 IEM_DS3505
ZGSZ,2007-01-29 21:00,ZGSZ 292100Z AUTO 02004KT 11SM 11/05 A3027 RMK SLP247 T01130050 57007 IEM_DS3505
ZGSZ,2007-01-29 22:00,ZGSZ 292200Z AUTO 04002KT 3SM 10/04 A3027 RMK T01000040 IEM_DS3505
ZGSZ,2007-01-29 23:00,ZGSZ 292300Z AUTO 04004KT 4SM 10/04 A3030 RMK T01000040 IEM_DS3505
ZGSZ,2007-01-30 00:00,ZGSZ 300000Z AUTO 02004KT 10SM 11/05 A3030 RMK SLP266 T01060052 52019 IEM_DS3505
ZGSZ,2007-01-30 01:00,ZGSZ 300100Z AUTO 02004KT 3SM 13/06 A3033 RMK T01300060 IEM_DS3505
ZGSZ,2007-01-30 02:00,ZGSZ 300200Z AUTO 01006KT 3SM 16/05 A3033 RMK T01600050 IEM_DS3505
ZGSZ,2007-01-30 03:00,ZGSZ 300300Z AUTO 07002KT 8SM 18/00 A3033 RMK SLP272 T01790005 52007 IEM_DS3505
ZGSZ,2007-01-30 04:00,ZGSZ 300400Z AUTO 30008KT 3SM 17/06 A3030 RMK T01700060 IEM_DS3505
ZGSZ,2007-01-30 05:00,ZGSZ 300500Z AUTO 30008KT 3SM 18/06 A3027 RMK T01800060 IEM_DS3505
ZGSZ,2007-01-30 06:00,ZGSZ 300600Z AUTO 22004KT 5SM 20/02 A3021 RMK SLP233 T02040018 57039 IEM_DS3505
ZGSZ,2007-01-30 07:00,ZGSZ 300700Z AUTO 30010KT 3SM 19/06 A3021 RMK T01900060 IEM_DS3505
ZGSZ,2007-01-30 08:00,ZGSZ 300800Z AUTO 30008KT 3SM 20/05 A3018 RMK T02000050 IEM_DS3505
ZGSZ,2007-01-30 09:00,ZGSZ 300900Z AUTO 18004KT 3SM 20/04 A3018 RMK SLP227 T02000041 57006 IEM_DS3505
ZGSZ,2007-01-30 10:00,ZGSZ 301000Z AUTO 4SM 18/07 A3021 RMK T01800070 IEM_DS3505
ZGSZ,2007-01-30 11:00,ZGSZ 301100Z AUTO 34004KT 3SM 17/04 A3021 RMK T01700040 IEM_DS3505
ZGSZ,2007-01-30 12:00,ZGSZ 301200Z AUTO 16002KT 2 1/2SM 16/07 A3024 RMK SLP245 T01590071 52017 IEM_DS3505
ZGSZ,2007-01-30 13:00,ZGSZ 301300Z AUTO 2 1/2SM 17/05 A3024 RMK T01700050 IEM_DS3505
ZGSZ,2007-01-30 14:00,ZGSZ 301400Z AUTO 18004KT 2 1/2SM 15/09 A3027 RMK T01500090 IEM_DS3505
ZGSZ,2007-01-30 15:00,ZGSZ 301500Z AUTO 07004KT 2SM 15/06 A3027 RMK SLP250 T01500058 52006 IEM_DS3505
ZGSZ,2007-01-30 16:00,ZGSZ 301600Z AUTO 16002KT 2SM 13/07 A3027 RMK T01300070 IEM_DS3505
ZGSZ,2007-01-30 17:00,ZGSZ 301700Z AUTO 2SM 14/05 A3024 RMK T01400050 IEM_DS3505
ZGSZ,2007-01-30 18:00,ZGSZ 301800Z AUTO 14002KT 2SM 14/05 A3024 RMK SLP238 T01360047 57012 IEM_DS3505
ZGSZ,2007-01-30 19:00,ZGSZ 301900Z AUTO 02004KT 2 1/2SM 13/06 A3021 RMK T01300060 IEM_DS3505
ZGSZ,2007-01-30 20:00,ZGSZ 302000Z AUTO 2 1/2SM 13/05 A3021 RMK T01300050 IEM_DS3505
ZGSZ,2007-01-30 21:00,ZGSZ 302100Z AUTO 09002KT 2 1/2SM 12/06 A3021 RMK SLP232 T01190064 57006 IEM_DS3505
ZGSZ,2007-01-30 22:00,ZGSZ 302200Z AUTO 2 1/2SM 11/05 A3021 RMK T01100050 IEM_DS3505
ZGSZ,2007-01-30 23:00,ZGSZ 302300Z AUTO 17002KT 2 1/2SM 10/05 A3024 RMK T01000050 IEM_DS3505
ZGSZ,2007-01-31 00:00,ZGSZ 310000Z AUTO 04002KT 4SM 13/04 A3027 RMK SLP249 T01310035 52017 IEM_DS3505
ZGSZ,2007-01-31 01:00,ZGSZ 310100Z AUTO 2 1/2SM 15/06 A3030 RMK T01500060 IEM_DS3505
ZGSZ,2007-01-31 02:00,ZGSZ 310200Z AUTO 24002KT 2 1/2SM 17/03 A3030 RMK T01700030 IEM_DS3505
ZGSZ,2007-01-31 03:00,ZGSZ 310300Z AUTO 04006KT 5SM 19/M02 A3030 RMK SLP258 T01901015 52009 IEM_DS3505
ZGSZ,2007-01-31 04:00,ZGSZ 310400Z AUTO 29006KT 2SM 19/05 A3027 RMK T01900050 IEM_DS3505
ZGSZ,2007-01-31 05:00,ZGSZ 310500Z AUTO 28008KT 2 1/2SM 20/04 A3024 RMK T02000040 IEM_DS3505
ZGSZ,2007-01-31 06:00,ZGSZ 310600Z AUTO 07004KT 12SM 22/M04 A3021 RMK SLP228 T02171036 57029 IEM_DS3505
ZGSZ,2007-01-31 07:00,ZGSZ 310700Z AUTO 25004KT 3SM 21/04 A3018 RMK T02100040 IEM_DS3505
ZGSZ,2007-01-31 08:00,ZGSZ 310800Z AUTO 20004KT 3SM 20/08 A3018 RMK T02000080 IEM_DS3505
ZGSZ,2007-01-31 09:00,ZGSZ 310900Z AUTO 22004KT 9SM 20/01 A3018 RMK SLP228 T02030012 57001 IEM_DS3505
ZGSZ,2007-01-31 10:00,ZGSZ 311000Z AUTO 16004KT 6SM 17/09 A3021 RMK T01700090 IEM_DS3505
ZGSZ,2007-01-31 11:00,ZGSZ 311100Z AUTO 15004KT 3SM 16/10 A3024 RMK T01600100 IEM_DS3505
ZGSZ,2007-01-31 12:00,ZGSZ 311200Z AUTO 11002KT 7SM 16/07 A3024 RMK SLP247 T01650066 52019 IEM_DS3505
ZGSZ,2007-01-31 13:00,ZGSZ 311300Z AUTO 13004KT 3SM 17/07 A3027 RMK T01700070 IEM_DS3505
ZGSZ,2007-01-31 14:00,ZGSZ 311400Z AUTO 3SM 15/10 A3027 RMK T01500100 IEM_DS3505
ZGSZ,2007-01-31 15:00,ZGSZ 311500Z AUTO 04002KT 7SM 15/06 A3027 RMK SLP255 T01530058 52008 IEM_DS3505
ZGSZ,2007-01-31 16:00,ZGSZ 311600Z AUTO 02004KT 2 1/2SM 16/05 A3027 RMK T01600050 IEM_DS3505
ZGSZ,2007-01-31 17:00,ZGSZ 311700Z AUTO 01004KT 2 1/2SM 14/05 A3027 RMK T01400050 IEM_DS3505
ZGSZ,2007-01-31 18:00,ZGSZ 311800Z AUTO 14002KT 5SM 15/05 A3027 RMK SLP248 T01460051 57007 IEM_DS3505
ZGSZ,2007-01-31 19:00,ZGSZ 311900Z AUTO 36006KT 2 1/2SM 15/05 A3024 RMK T01500050 IEM_DS3505
ZGSZ,2007-01-31 20:00,ZGSZ 312000Z AUTO 2 1/2SM 14/03 A3024 RMK T01400030 IEM_DS3505
ZGSZ,2007-01-31 21:00,ZGSZ 312100Z AUTO 36002KT 4SM 15/04 A3024 RMK SLP242 T01460037 57006 IEM_DS3505
ZGSZ,2007-01-31 22:00,ZGSZ 312200Z AUTO 35006KT 2SM 11/04 A3027 RMK T01100040 IEM_DS3505
ZGSZ,2007-01-31 23:00,ZGSZ 312300Z AUTO 36006KT 2SM 12/04 A3030 RMK T01200040 IEM_DS3505
ZGSZ,2007-02-01 00:00,ZGSZ 010000Z AUTO 36008KT 4SM 16/00 A3033 RMK SLP269 T01550005 52027 IEM_DS3505
ZGSZ,2007-02-01 01:00,ZGSZ 010100Z AUTO 02010KT 4SM 16/01 A3036 RMK T01600010 IEM_DS3505
ZGSZ,2007-02-01 02:00,ZGSZ 010200Z AUTO 02014KT 4SM 18/00 A3036 RMK T01800000 IEM_DS3505
ZGSZ,2007-02-01 03:00,ZGSZ 010300Z AUTO 02012KT 5SM 17/M01 A3036 RMK SLP280 T01741008 52011 IEM_DS3505
ZGSZ,2007-02-01 04:00,ZGSZ 010400Z AUTO 03012KT 4SM 20/M01 A3033 RMK T02001010 IEM_DS3505
ZGSZ,2007-02-01 05:00,ZGSZ 010500Z AUTO 01014KT 4SM 21/M01 A3030 RMK T02101010 IEM_DS3505
ZGSZ,2007-02-01 06:00,ZGSZ 010600Z AUTO 02008KT 5SM 19/M00 A3027 RMK SLP251 T01911003 57029 IEM_DS3505
ZGSZ,2007-02-01 07:00,ZGSZ 010700Z AUTO 01014KT 5SM 20/M03 A3027 RMK T02001030 IEM_DS3505
ZGSZ,2007-02-01 08:00,ZGSZ 010800Z AUTO 02014KT 6SM 21/M03 A3024 RMK T02101030 IEM_DS3505
ZGSZ,2007-02-01 09:00,ZGSZ 010900Z AUTO 34008KT 4SM 19/M03 A3024 RMK SLP247 T01921030 57004 IEM_DS3505
ZGSZ,2007-02-01 10:00,ZGSZ 011000Z AUTO 04010KT 6SM 19/M08 A3027 RMK T01901080 IEM_DS3505
ZGSZ,2007-02-01 11:00,ZGSZ 011100Z AUTO 03008KT 6SM 18/M07 A3027 RMK T01801070 IEM_DS3505
ZGSZ,2007-02-01 12:00,ZGSZ 011200Z AUTO 36006KT 3SM 17/M05 A3030 RMK SLP263 T01661046 52016 IEM_DS3505
ZGSZ,2007-02-01 13:00,ZGSZ 011300Z AUTO 03010KT 6SM 18/M07 A3033 RMK T01801070 IEM_DS3505
ZGSZ,2007-02-01 14:00,ZGSZ 011400Z AUTO 02008KT 6SM 17/M06 A3033 RMK T01701060 IEM_DS3505
ZGSZ,2007-02-01 15:00,ZGSZ 011500Z AUTO 04006KT 3SM 15/M08 A3033 RMK SLP273 T01511077 52010 IEM_DS3505
ZGSZ,2007-02-01 16:00,ZGSZ 011600Z AUTO 03008KT 6SM 15/M08 A3033 RMK T01501080 IEM_DS3505
ZGSZ,2007-02-01 17:00,ZGSZ 011700Z AUTO 35004KT 6SM 14/M08 A3033 RMK T01401080 IEM_DS3505
ZGSZ,2007-02-01 18:00,ZGSZ 011800Z AUTO 02012KT 7SM 14/M09 A3030 RMK SLP261 T01391087 57012 IEM_DS3505
ZGSZ,2007-02-01 19:00,ZGSZ 011900Z AUTO 01010KT 6SM 13/M09 A3030 RMK T01301090 IEM_DS3505
ZGSZ,2007-02-01 20:00,ZGSZ 012000Z AUTO 02010KT 6SM 13/M09 A3027 RMK T01301090 IEM_DS3505
ZGSZ,2007-02-01 21:00,ZGSZ 012100Z AUTO 02010KT 9SM 13/M09 A3027 RMK SLP253 T01331092 57008 IEM_DS3505
ZGSZ,2007-02-01 22:00,ZGSZ 012200Z AUTO 6SM 11/M08 A3030 RMK T01101080 IEM_DS3505
ZGSZ,2007-02-01 23:00,ZGSZ 012300Z 07002MPS 030V110 CAVOK 12/M07 Q1026 NOSIG
ZGSZ,2007-02-02 00:00,ZGSZ 020000Z VRB01MPS CAVOK 13/M08 Q1027 NOSIG
ZGSZ,2007-02-02 01:00,ZGSZ 020100Z AUTO 07004KT 6SM 15/M08 A3036 RMK T01501080 IEM_DS3505
ZGSZ,2007-02-02 02:00,ZGSZ 020200Z AUTO 03006KT 5SM 16/M08 A3036 RMK T01601080 IEM_DS3505
ZGSZ,2007-02-02 03:00,ZGSZ 020300Z AUTO 02008G17KT 9SM 16/M08 A3036 RMK SLP276 T01621081 52008 IEM_DS3505
ZGSZ,2007-02-02 04:00,ZGSZ 020400Z AUTO 36010KT 5SM 19/M09 A3033 RMK T01901090 IEM_DS3505
ZGSZ,2007-02-02 05:00,ZGSZ 020500Z AUTO 03006G17KT 6SM 20/M09 A3027 RMK T02001090 IEM_DS3505
ZGSZ,2007-02-02 06:00,ZGSZ 020600Z AUTO 11004KT 10SM 20/M07 A3027 RMK SLP249 T02011073 57027 IEM_DS3505
ZGSZ,2007-02-02 07:00,ZGSZ 020700Z AUTO 03006KT 6SM 22/M09 A3024 RMK T02201090 IEM_DS3505
ZGSZ,2007-02-02 08:00,ZGSZ 020800Z AUTO 04006KT 6SM 21/M09 A3021 RMK T02101090 IEM_DS3505
ZGSZ,2007-02-02 09:00,ZGSZ 020900Z AUTO 07004KT 12SM 19/M09 A3024 RMK SLP239 T01941088 57010 IEM_DS3505
ZGSZ,2007-02-02 10:00,ZGSZ 021000Z AUTO 03006KT 6SM 19/M08 A3024 RMK T01901080 IEM_DS3505
ZGSZ,2007-02-02 11:00,ZGSZ 021100Z AUTO 04006KT 4SM 18/M09 A3024 RMK T01801090 IEM_DS3505
ZGSZ,2007-02-02 12:00,ZGSZ 021200Z AUTO 11002KT 3SM 16/M00 A3027 RMK SLP252 T01591003 52012 IEM_DS3505
ZGSZ,2007-02-02 13:00,ZGSZ 021300Z AUTO 11006KT 3SM 17/M06 A3027 RMK T01701060 IEM_DS3505
ZGSZ,2007-02-02 14:00,ZGSZ 021400Z AUTO 12004KT 3SM 15/M01 A3027 RMK T01501010 IEM_DS3505
ZGSZ,2007-02-02 15:00,ZGSZ 021500Z AUTO 04004KT 2 1/2SM 14/06 A3027 RMK SLP256 T01410060 52005 IEM_DS3505
ZGSZ,2007-02-02 16:00,ZGSZ 021600Z AUTO 11006KT 3SM 12/04 A3027 RMK T01200040 IEM_DS3505
ZGSZ,2007-02-02 17:00,ZGSZ 021700Z AUTO 11004KT 4SM 12/06 A3027 RMK T01200060 IEM_DS3505
ZGSZ,2007-02-02 18:00,ZGSZ 021800Z AUTO 04004G19KT 2SM 13/09 A3027 RMK SLP250 T01320091 57006 IEM_DS3505
ZGSZ,2007-02-02 19:00,ZGSZ 021900Z AUTO 3SM 11/05 A3024 RMK T01100050 IEM_DS3505
ZGSZ,2007-02-02 20:00,ZGSZ 022000Z AUTO 3SM 12/06 A3024 RMK T01200060 IEM_DS3505
ZGSZ,2007-02-02 21:00,ZGSZ 022100Z AUTO 04004KT 2SM 12/09 A3024 RMK SLP240 T01190087 57010 IEM_DS3505
ZGSZ,2007-02-02 22:00,ZGSZ 022200Z AUTO 00000KT 2SM 11/07 A3024 RMK T01100070 IEM_DS3505
ZGSZ,2007-02-02 23:00,ZGSZ 022300Z AUTO 00000KT 2SM 11/07 A3024 RMK T01100070 IEM_DS3505
ZGSZ,2007-02-03 00:00,ZGSZ 030000Z AUTO 04004KT 4SM 12/09 A3027 RMK SLP250 T01190086 52009 IEM_DS3505
ZGSZ,2007-02-03 01:00,ZGSZ 030100Z AUTO 10006KT 3SM 14/08 A3027 RMK T01400080 IEM_DS3505
ZGSZ,2007-02-03 02:00,ZGSZ 030200Z AUTO 10008KT 3SM 16/08 A3030 RMK T01600080 IEM_DS3505
ZGSZ,2007-02-03 03:00,ZGSZ 030300Z AUTO 09004KT 5SM 17/07 A3027 RMK SLP254 T01670074 52005 IEM_DS3505
ZGSZ,2007-02-03 04:00,ZGSZ 030400Z AUTO 27006KT 3SM 17/08 A3024 RMK T01700080 IEM_DS3505
ZGSZ,2007-02-03 05:00,ZGSZ 030500Z AUTO 25006KT 4SM 17/08 A3021 RMK T01700080 IEM_DS3505
ZGSZ,2007-02-03 06:00,ZGSZ 030600Z AUTO 14004KT 6SM 20/02 A3018 RMK SLP224 T02010025 57030 IEM_DS3505
ZGSZ,2007-02-03 07:00,ZGSZ 030700Z AUTO 24006KT 3SM 18/08 A3018 RMK T01800080 IEM_DS3505
ZGSZ,2007-02-03 08:00,ZGSZ 030800Z AUTO 23004KT 4SM 18/07 A3015 RMK T01800070 IEM_DS3505
ZGSZ,2007-02-03 09:00,ZGSZ 030900Z AUTO 22004KT 4SM 18/09 A3015 RMK SLP211 T01810087 57013 IEM_DS3505
ZGSZ,2007-02-03 10:00,ZGSZ 031000Z AUTO 4SM 17/09 A3015 RMK T01700090 IEM_DS3505
ZGSZ,2007-02-03 11:00,ZGSZ 031100Z AUTO 15002KT 3SM 15/11 A3015 RMK T01500110 IEM_DS3505
ZGSZ,2007-02-03 12:00,ZGSZ 031200Z AUTO 16004KT 2SM 16/09 A3018 RMK SLP219 T01560086 52008 IEM_DS3505
ZGSZ,2007-02-03 13:00,ZGSZ 031300Z AUTO 16004KT 3SM 14/11 A3018 RMK T01400110 IEM_DS3505
ZGSZ,2007-02-03 14:00,ZGSZ 031400Z AUTO 15004KT 3SM 14/11 A3021 RMK T01400110 IEM_DS3505
ZGSZ,2007-02-03 15:00,ZGSZ 031500Z AUTO 07004KT 4SM 14/07 A3021 RMK SLP231 T01430071 52012 IEM_DS3505
ZGSZ,2007-02-03 16:00,ZGSZ 031600Z AUTO 10004KT 3SM 14/08 A3018 RMK T01400080 IEM_DS3505
ZGSZ,2007-02-03 17:00,ZGSZ 031700Z AUTO 00000KT 3SM 13/07 A3018 RMK T01300070 IEM_DS3505
ZGSZ,2007-02-03 18:00,ZGSZ 031800Z AUTO 04004KT 6SM 14/07 A3015 RMK SLP219 T01350066 57012 IEM_DS3505
ZGSZ,2007-02-03 19:00,ZGSZ 031900Z AUTO 24002KT 3SM 12/08 A3015 RMK T01200080 IEM_DS3505
ZGSZ,2007-02-03 20:00,ZGSZ 032000Z AUTO 01004KT 2 1/2SM 12/08 A3012 RMK T01200080 IEM_DS3505
ZGSZ,2007-02-03 21:00,ZGSZ 032100Z AUTO 07004KT 6SM 13/08 A3012 RMK SLP206 T01320079 57013 IEM_DS3505
ZGSZ,2007-02-03 22:00,ZGSZ 032200Z AUTO 03006KT 2 1/2SM 12/07 A3015 RMK T01200070 IEM_DS3505
ZGSZ,2007-02-03 23:00,ZGSZ 032300Z AUTO 04004KT 3SM 12/07 A3015 RMK T01200070 IEM_DS3505
ZGSZ,2007-02-04 00:00,ZGSZ 040000Z AUTO 07002KT 4SM 14/08 A3018 RMK SLP221 T01370081 52015 IEM_DS3505
ZGSZ,2007-02-04 01:00,ZGSZ 040100Z AUTO 17004KT 3SM 15/08 A3018 RMK T01500080 IEM_DS3505
ZGSZ,2007-02-04 02:00,ZGSZ 040200Z AUTO 13004KT 3SM 17/08 A3018 RMK T01700080 IEM_DS3505
ZGSZ,2007-02-04 03:00,ZGSZ 040300Z AUTO 09006KT 4SM 19/05 A3015 RMK SLP216 T01890054 57005 IEM_DS3505
ZGSZ,2007-02-04 04:00,ZGSZ 040400Z AUTO 27006KT 2 1/2SM 19/11 A3015 RMK T01900110 IEM_DS3505
ZGSZ,2007-02-04 05:00,ZGSZ 040500Z AUTO 28006KT 2 1/2SM 20/10 A3009 RMK T02000100 IEM_DS3505
ZGSZ,2007-02-04 06:00,ZGSZ 040600Z AUTO 11004KT 14SM 21/05 A3006 RMK SLP187 T02140049 57028 IEM_DS3505
ZGSZ,2007-02-04 07:00,ZGSZ 040700Z AUTO 28004KT 4SM 21/10 A3006 RMK T02100100 IEM_DS3505
ZGSZ,2007-02-04 08:00,ZGSZ 040800Z AUTO 22004KT 3SM 21/11 A3006 RMK T02100110 IEM_DS3505
ZGSZ,2007-02-04 09:00,ZGSZ 040900Z AUTO 20004KT 9SM 20/10 A3006 RMK SLP180 T02000096 57007 IEM_DS3505
ZGSZ,2007-02-04 10:00,ZGSZ 041000Z AUTO 17004KT 3SM 18/12 A3006 RMK T01800120 IEM_DS3505
ZGSZ,2007-02-04 11:00,ZGSZ 041100Z AUTO 17004KT 3SM 16/12 A3006 RMK T01600120 IEM_DS3505
ZGSZ,2007-02-04 12:00,ZGSZ 041200Z AUTO 04004KT 11SM 18/06 A3009 RMK SLP195 T01830065 52014 IEM_DS3505
ZGSZ,2007-02-04 13:00,ZGSZ 041300Z AUTO 17002KT 3SM 16/13 A3012 RMK T01600130 IEM_DS3505
ZGSZ,2007-02-04 14:00,ZGSZ 041400Z AUTO 19002KT 3SM 16/13 A3012 RMK T01600130 IEM_DS3505
ZGSZ,2007-02-04 15:00,ZGSZ 041500Z AUTO 07002KT 9SM 17/07 A3012 RMK SLP200 T01720070 52006 IEM_DS3505
ZGSZ,2007-02-04 16:00,ZGSZ 041600Z AUTO 00000KT 1 1/2SM 16/14 A3009 RMK T01600140 IEM_DS3505
ZGSZ,2007-02-04 17:00,ZGSZ 041700Z AUTO 00000KT 1 1/2SM 15/13 A3012 RMK T01500130 IEM_DS3505
ZGSZ,2007-02-04 18:00,ZGSZ 041800Z AUTO 04004KT 9SM 16/07 A3009 RMK SLP196 T01620069 57004 IEM_DS3505
ZGSZ,2007-02-04 19:00,ZGSZ 041900Z AUTO 00000KT 3SM 14/12 A3009 RMK T01400120 IEM_DS3505
ZGSZ,2007-02-04 20:00,ZGSZ 042000Z AUTO 00000KT 2 1/2SM 14/12 A3009 RMK T01400120 IEM_DS3505
ZGSZ,2007-02-04 21:00,ZGSZ 042100Z AUTO 04006KT 8SM 15/09 A3009 RMK SLP190 T01540086 57006 IEM_DS3505
ZGSZ,2007-02-04 22:00,ZGSZ 042200Z AUTO 00000KT 2SM 13/11 A3009 RMK T01300110 IEM_DS3505
ZGSZ,2007-02-04 23:00,ZGSZ 042300Z 06001MPS 4300 BR SKC 13/10 Q1020 NOSIG
ZGSZ,2007-02-05 00:00,ZGSZ 050000Z VRB01MPS 5000 BR SKC 15/10 Q1021 NOSIG
ZGSZ,2007-02-05 01:00,ZGSZ 050100Z AUTO 3SM 18/10 A3015 RMK T01800100 IEM_DS3505
ZGSZ,2007-02-05 02:00,ZGSZ 050200Z AUTO 6SM 21/08 A3015 RMK T02100080 IEM_DS3505
ZGSZ,2007-02-05 03:00,ZGSZ 050300Z AUTO 14006KT 9SM 21/07 A3015 RMK SLP217 T02110073 52009 IEM_DS3505
ZGSZ,2007-02-05 04:00,ZGSZ 050400Z AUTO 25006KT 2 1/2SM 20/12 A3015 RMK T02000120 IEM_DS3505
ZGSZ,2007-02-05 05:00,ZGSZ 050500Z AUTO 24006KT 5SM 21/12 A3012 RMK T02100120 IEM_DS3505
ZGSZ,2007-02-05 06:00,ZGSZ 050600Z AUTO 22006KT 16SM 24/09 A3009 RMK SLP190 T02380094 57027 IEM_DS3505
ZGSZ,2007-02-05 07:00,ZGSZ 050700Z AUTO 23006KT 5SM 21/12 A3006 RMK T02100120 IEM_DS3505
ZGSZ,2007-02-05 08:00,ZGSZ 050800Z AUTO 20004KT 5SM 22/12 A3006 RMK T02200120 IEM_DS3505
ZGSZ,2007-02-05 09:00,ZGSZ 050900Z AUTO 20006KT 12SM 22/13 A3006 RMK SLP182 T02200126 57008 IEM_DS3505
ZGSZ,2007-02-05 10:00,ZGSZ 051000Z AUTO 17002KT 5SM 19/15 A3006 RMK T01900150 IEM_DS3505
ZGSZ,2007-02-05 11:00,ZGSZ 051100Z AUTO 16004KT 4SM 18/15 A3009 RMK T01800150 IEM_DS3505
ZGSZ,2007-02-05 12:00,ZGSZ 051200Z AUTO 07004KT 9SM 19/10 A3009 RMK SLP199 T01900103 52017 IEM_DS3505
ZGSZ,2007-02-05 13:00,ZGSZ 051300Z AUTO 18002KT 2 1/2SM 17/15 A3012 RMK T01700150 IEM_DS3505
ZGSZ,2007-02-05 14:00,ZGSZ 051400Z AUTO 19004KT 2SM 17/16 A3012 RMK T01700160 IEM_DS3505
ZGSZ,2007-02-05 15:00,ZGSZ 051500Z AUTO 17002KT 3SM 16/15 A3012 RMK T01600150 IEM_DS3505
ZGSZ,2007-02-05 16:00,ZGSZ 051600Z AUTO 11004KT 5SM 18/12 A3012 RMK T01800120 IEM_DS3505
ZGSZ,2007-02-05 17:00,ZGSZ 051700Z AUTO 00000KT 5SM 16/10 A3012 RMK T01600100 IEM_DS3505
ZGSZ,2007-02-05 18:00,ZGSZ 051800Z AUTO 04004KT 8SM 17/12 A3012 RMK SLP200 T01700115 57007 IEM_DS3505
ZGSZ,2007-02-05 19:00,ZGSZ 051900Z AUTO 00000KT 3SM 15/12 A3009 RMK T01500120 IEM_DS3505
ZGSZ,2007-02-05 20:00,ZGSZ 052000Z AUTO 35002KT 3SM 15/13 A3009 RMK T01500130 IEM_DS3505
ZGSZ,2007-02-05 21:00,ZGSZ 052100Z AUTO 07004KT 6SM 16/12 A3009 RMK SLP194 T01560118 57006 IEM_DS3505
ZGSZ,2007-02-05 22:00,ZGSZ 052200Z AUTO 00000KT 2SM 14/11 A3012 RMK T01400110 IEM_DS3505
ZGSZ,2007-02-05 23:00,ZGSZ 052300Z AUTO 01004KT 2 1/2SM 15/12 A3015 RMK T01500120 IEM_DS3505
ZGSZ,2007-02-06 00:00,ZGSZ 060000Z AUTO 04002KT 7SM 16/12 A3015 RMK SLP211 T01620122 52017 IEM_DS3505
ZGSZ,2007-02-06 01:00,ZGSZ 060100Z AUTO 03004KT 3SM 19/12 A3015 RMK T01900120 IEM_DS3505
ZGSZ,2007-02-06 02:00,ZGSZ 060200Z AUTO 2 1/2SM 21/13 A3018 RMK T02100130 IEM_DS3505
ZGSZ,2007-02-06 03:00,ZGSZ 060300Z AUTO 14004KT 9SM 23/13 A3015 RMK SLP216 T02270126 52005 IEM_DS3505
ZGSZ,2007-02-06 04:00,ZGSZ 060400Z AUTO 27008KT 2 1/2SM 22/14 A3012 RMK T02200140 IEM_DS3505
ZGSZ,2007-02-06 05:00,ZGSZ 060500Z AUTO 26008KT 4SM 22/16 A3009 RMK T02200160 IEM_DS3505
ZGSZ,2007-02-06 06:00,ZGSZ 060600Z AUTO 22006KT 16SM 26/14 A3006 RMK SLP185 T02550137 57030 IEM_DS3505
ZGSZ,2007-02-06 07:00,ZGSZ 060700Z AUTO 23004KT 6SM 23/15 A3006 RMK T02300150 IEM_DS3505
ZGSZ,2007-02-06 08:00,ZGSZ 060800Z AUTO 22006KT 6SM 22/15 A3003 RMK T02200150 IEM_DS3505
ZGSZ,2007-02-06 09:00,ZGSZ 060900Z AUTO 18004KT 12SM 24/14 A3003 RMK SLP180 T02370144 57006 IEM_DS3505
ZGSZ,2007-02-06 10:00,ZGSZ 061000Z AUTO 15006KT 3SM 20/16 A3006 RMK T02000160 IEM_DS3505
ZGSZ,2007-02-06 11:00,ZGSZ 061100Z AUTO 17006KT 3SM 19/15 A3006 RMK T01900150 IEM_DS3505
ZGSZ,2007-02-06 12:00,ZGSZ 061200Z AUTO 09004KT 14SM 21/13 A3009 RMK SLP195 T02060128 52015 IEM_DS3505
ZGSZ,2007-02-06 13:00,ZGSZ 061300Z AUTO 30002KT 4SM 18/16 A3012 RMK T01800160 IEM_DS3505
ZGSZ,2007-02-06 14:00,ZGSZ 061400Z AUTO 12006KT 6SM 21/11 A3012 RMK T02100110 IEM_DS3505
ZGSZ,2007-02-06 15:00,ZGSZ 061500Z AUTO 07006KT 12SM 19/13 A3012 RMK SLP206 T01920129 52012 IEM_DS3505
ZGSZ,2007-02-06 16:00,ZGSZ 061600Z AUTO 00000KT 6SM 18/12 A3012 RMK T01800120 IEM_DS3505
ZGSZ,2007-02-06 17:00,ZGSZ 061700Z AUTO 00000KT 6SM 18/13 A3012 RMK T01800130 IEM_DS3505
ZGSZ,2007-02-06 18:00,ZGSZ 061800Z AUTO 04004KT 12SM 18/13 A3012 RMK SLP198 T01850134 57008 IEM_DS3505
ZGSZ,2007-02-06 19:00,ZGSZ 061900Z AUTO 6SM 16/13 A3009 RMK T01600130 IEM_DS3505
ZGSZ,2007-02-06 20:00,ZGSZ 062000Z AUTO 00000KT 6SM 17/13 A3009 RMK T01700130 IEM_DS3505
ZGSZ,2007-02-06 21:00,ZGSZ 062100Z AUTO 07004KT 10SM 18/14 A3009 RMK SLP195 T01780139 57003 IEM_DS3505
ZGSZ,2007-02-06 22:00,ZGSZ 062200Z AUTO 03004KT 5SM 18/13 A3012 RMK T01800130 IEM_DS3505
ZGSZ,2007-02-06 23:00,ZGSZ 062300Z AUTO 04006KT 5SM 18/13 A3015 RMK T01800130 IEM_DS3505
ZGSZ,2007-02-07 00:00,ZGSZ 070000Z AUTO 02004KT 11SM 18/14 A3015 RMK SLP219 T01850142 52023 IEM_DS3505
ZGSZ,2007-02-07 01:00,ZGSZ 070100Z AUTO 11004KT 4SM 22/14 A3018 RMK T02200140 IEM_DS3505
ZGSZ,2007-02-07 02:00,ZGSZ 070200Z AUTO 12004KT 6SM 24/15 A3018 RMK T02400150 IEM_DS3505
ZGSZ,2007-02-07 03:00,ZGSZ 070300Z AUTO 09004KT 14SM 24/15 A3018 RMK SLP220 T02450152 52002 IEM_DS3505
ZGSZ,2007-02-07 04:00,ZGSZ 070400Z AUTO 26006KT 3SM 24/16 A3015 RMK T02400160 IEM_DS3505
ZGSZ,2007-02-07 05:00,ZGSZ 070500Z AUTO 26006KT 3SM 24/16 A3012 RMK T02400160 IEM_DS3505
ZGSZ,2007-02-07 06:00,ZGSZ 070600Z AUTO 14006KT 19SM 26/14 A3009 RMK SLP191 T02600145 57029 IEM_DS3505
ZGSZ,2007-02-07 07:00,ZGSZ 070700Z AUTO 23006KT 7SM 24/17 A3009 RMK T02400170 IEM_DS3505
ZGSZ,2007-02-07 08:00,ZGSZ 070800Z AUTO 20004KT 7SM 23/17 A3006 RMK T02300170 IEM_DS3505
ZGSZ,2007-02-07 09:00,ZGSZ 070900Z AUTO 11010KT 19SM 24/15 A3009 RMK SLP188 T02390151 57003 IEM_DS3505
ZGSZ,2007-02-07 10:00,ZGSZ 071000Z AUTO 16006KT 7SM 22/17 A3009 RMK T02200170 IEM_DS3505
ZGSZ,2007-02-07 11:00,ZGSZ 071100Z AUTO 16006KT 4SM 21/17 A3009 RMK T02100170 IEM_DS3505
ZGSZ,2007-02-07 12:00,ZGSZ 071200Z AUTO 16006KT 19SM 21/13 A3009 RMK SLP201 T02140133 52012 IEM_DS3505
ZGSZ,2007-02-07 13:00,ZGSZ 071300Z AUTO 11008KT 6SM 22/15 A3012 RMK T02200150 IEM_DS3505
ZGSZ,2007-02-07 14:00,ZGSZ 071400Z AUTO 10008KT 6SM 22/15 A3012 RMK T02200150 IEM_DS3505
ZGSZ,2007-02-07 15:00,ZGSZ 071500Z AUTO 04004KT 16SM 20/12 A3012 RMK SLP206 T01990122 52006 IEM_DS3505
ZGSZ,2007-02-07 16:00,ZGSZ 071600Z AUTO 11006KT 6SM 21/12 A3012 RMK T02100120 IEM_DS3505
ZGSZ,2007-02-07 17:00,ZGSZ 071700Z AUTO 24002KT 6SM 19/14 A3012 RMK T01900140 IEM_DS3505
ZGSZ,2007-02-07 18:00,ZGSZ 071800Z AUTO 04004KT 16SM 19/12 A3012 RMK SLP198 T01940122 57008 IEM_DS3505
ZGSZ,2007-02-07 19:00,ZGSZ 071900Z AUTO 02004KT 5SM 18/15 A3009 RMK T01800150 IEM_DS3505
ZGSZ,2007-02-07 20:00,ZGSZ 072000Z AUTO 02004KT 5SM 19/13 A3009 RMK T01900130 IEM_DS3505
ZGSZ,2007-02-07 21:00,ZGSZ 072100Z AUTO 04002KT 16SM 19/13 A3009 RMK SLP194 T01890126 57004 IEM_DS3505
ZGSZ,2007-02-07 22:00,ZGSZ 072200Z AUTO 04002KT 7SM 19/13 A3012 RMK T01900130 IEM_DS3505
ZGSZ,2007-02-07 23:00,ZGSZ 072300Z AUTO 00000KT 4SM 19/14 A3012 RMK T01900140 IEM_DS3505
ZGSZ,2007-02-08 00:00,ZGSZ 080000Z AUTO 04002KT 14SM 20/13 A3015 RMK SLP212 T01980128 52017 IEM_DS3505
ZGSZ,2007-02-08 01:00,ZGSZ 080100Z AUTO 7SM 22/14 A3015 RMK T02200140 IEM_DS3505
ZGSZ,2007-02-08 02:00,ZGSZ 080200Z AUTO 3SM 23/13 A3018 RMK T02300130 IEM_DS3505
ZGSZ,2007-02-08 03:00,ZGSZ 080300Z AUTO 07002KT 16SM 24/12 A3015 RMK SLP217 T02420122 52006 IEM_DS3505
ZGSZ,2007-02-08 04:00,ZGSZ 080400Z AUTO 25004KT 3SM 25/16 A3012 RMK T02500160 IEM_DS3505
ZGSZ,2007-02-08 05:00,ZGSZ 080500Z AUTO 25006KT 3SM 24/15 A3009 RMK T02400150 IEM_DS3505
ZGSZ,2007-02-08 06:00,ZGSZ 080600Z AUTO 22006KT 17SM 27/14 A3006 RMK SLP183 T02710142 57034 IEM_DS3505
ZGSZ,2007-02-08 07:00,ZGSZ 080700Z AUTO 21006KT 6SM 26/14 A3006 RMK T02600140 IEM_DS3505
ZGSZ,2007-02-08 08:00,ZGSZ 080800Z AUTO 22004KT 6SM 25/15 A3003 RMK T02500150 IEM_DS3505
ZGSZ,2007-02-08 09:00,ZGSZ 080900Z AUTO 22006KT 17SM 25/16 A3006 RMK SLP182 T02500159 57001 IEM_DS3505
ZGSZ,2007-02-08 10:00,ZGSZ 081000Z AUTO 14004KT 7SM 22/17 A3006 RMK T02200170 IEM_DS3505
ZGSZ,2007-02-08 11:00,ZGSZ 081100Z AUTO 15004KT 5SM 21/17 A3006 RMK T02100170 IEM_DS3505
ZGSZ,2007-02-08 12:00,ZGSZ 081200Z AUTO 07004KT 12SM 22/18 A3009 RMK SLP192 T02240178 52010 IEM_DS3505
ZGSZ,2007-02-08 13:00,ZGSZ 081300Z AUTO 18004KT 5SM 20/18 A3009 RMK T02000180 IEM_DS3505
ZGSZ,2007-02-08 14:00,ZGSZ 081400Z AUTO 00000KT 5SM 20/18 A3012 RMK T02000180 IEM_DS3505
ZGSZ,2007-02-08 15:00,ZGSZ 081500Z AUTO 09002KT 12SM 22/18 A3009 RMK SLP198 T02180176 52006 IEM_DS3505
ZGSZ,2007-02-08 16:00,ZGSZ 081600Z AUTO 00000KT 4SM 19/18 A3009 RMK T01900180 IEM_DS3505
ZGSZ,2007-02-08 17:00,ZGSZ 081700Z AUTO 30004KT 4SM 19/18 A3009 RMK T01900180 IEM_DS3505
ZGSZ,2007-02-08 18:00,ZGSZ 081800Z AUTO 04004KT 9SM 21/18 A3009 RMK SLP186 T02100176 57012 IEM_DS3505
ZGSZ,2007-02-08 19:00,ZGSZ 081900Z AUTO 33002KT 2SM 20/18 A3006 RMK T02000180 IEM_DS3505
ZGSZ,2007-02-08 20:00,ZGSZ 082000Z AUTO 33004KT 2SM 20/18 A3006 RMK T02000180 IEM_DS3505
ZGSZ,2007-02-08 21:00,ZGSZ 082100Z AUTO 18004KT 3SM 20/18 A3006 RMK 70015 SLP183 T01960184 57003 IEM_DS3505
ZGSZ,2007-02-08 22:00,ZGSZ 082200Z AUTO 3SM 20/18 A3006 RMK T02000180 IEM_DS3505
ZGSZ,2007-02-08 23:00,ZGSZ 082300Z AUTO 18004KT 2 1/2SM 20/19 A3009 RMK T02000190 IEM_DS3505
ZGSZ,2007-02-09 00:00,ZGSZ 090000Z AUTO 14002KT 5SM 21/20 A3009 RMK 60020 70021 SLP195 T02070195 52012 IEM_DS3505
ZGSZ,2007-02-09 01:00,ZGSZ 090100Z AUTO 21006KT 1 1/2SM 21/19 A3012 RMK T02100190 IEM_DS3505
ZGSZ,2007-02-09 02:00,ZGSZ 090200Z AUTO 3SM 21/19 A3012 RMK T02100190 IEM_DS3505
ZGSZ,2007-02-09 03:00,ZGSZ 090300Z AUTO 22002KT 3SM 23/20 A3009 RMK SLP194 T02260196 57001 IEM_DS3505
ZGSZ,2007-02-09 04:00,ZGSZ 090400Z AUTO 28006KT 2 1/2SM 23/19 A3006 RMK T02300190 IEM_DS3505
ZGSZ,2007-02-09 05:00,ZGSZ 090500Z AUTO 27006KT 7SM 24/18 A3003 RMK T02400180 IEM_DS3505
ZGSZ,2007-02-09 06:00,ZGSZ 090600Z AUTO 22006KT 12SM 26/18 A3000 RMK 60000 SLP156 T02640185 57037 IEM_DS3505
ZGSZ,2007-02-09 07:00,ZGSZ 090700Z AUTO 7SM 26/17 A2997 RMK T02600170 IEM_DS3505
ZGSZ,2007-02-09 08:00,ZGSZ 090800Z AUTO 21004KT 7SM 26/17 A2994 RMK T02600170 IEM_DS3505
ZGSZ,2007-02-09 09:00,ZGSZ 090900Z AUTO 20006KT 19SM 26/18 A2994 RMK SLP148 T02570179 57009 IEM_DS3505
ZGSZ,2007-02-09 10:00,ZGSZ 091000Z AUTO 17006KT 6SM 22/18 A2994 RMK T02200180 IEM_DS3505
ZGSZ,2007-02-09 11:00,ZGSZ 091100Z AUTO 15006KT 6SM 22/18 A2997 RMK T02200180 IEM_DS3505
ZGSZ,2007-02-09 12:00,ZGSZ 091200Z AUTO 25002KT 9SM 22/18 A3000 RMK SLP164 T02180182 52016 IEM_DS3505
ZGSZ,2007-02-09 13:00,ZGSZ 091300Z AUTO 15006KT 2SM 21/19 A3003 RMK T02100190 IEM_DS3505
ZGSZ,2007-02-09 14:00,ZGSZ 091400Z AUTO 15006KT 6SM 20/19 A3003 RMK T02000190 IEM_DS3505
ZGSZ,2007-02-09 15:00,ZGSZ 091500Z AUTO 20002KT 4SM 21/18 A3003 RMK SLP174 T02080184 52010 IEM_DS3505
ZGSZ,2007-02-09 16:00,ZGSZ 091600Z AUTO 15006KT 2 1/2SM 20/18 A3003 RMK T02000180 IEM_DS3505
ZGSZ,2007-02-09 17:00,ZGSZ 091700Z AUTO 15006KT 1 1/4SM 20/19 A3000 RMK T02000190 IEM_DS3505
ZGSZ,2007-02-09 18:00,ZGSZ 091800Z AUTO 27002KT 4SM 20/19 A3000 RMK SLP162 T02010188 57012 IEM_DS3505
ZGSZ,2007-02-09 19:00,ZGSZ 091900Z AUTO 16008KT 2SM 20/19 A2997 RMK T02000190 IEM_DS3505
ZGSZ,2007-02-09 20:00,ZGSZ 092000Z AUTO 15006KT 3SM 20/18 A3000 RMK T02000180 IEM_DS3505
ZGSZ,2007-02-09 21:00,ZGSZ 092100Z AUTO 29002KT 4SM 20/18 A3000 RMK 70007 SLP159 T01960181 57003 IEM_DS3505
ZGSZ,2007-02-09 22:00,ZGSZ 092200Z AUTO 18004KT 2 1/2SM 20/18 A3000 RMK T02000180 IEM_DS3505
ZGSZ,2007-02-09 23:00,ZGSZ 092300Z VRB01MPS 4500 BR SCT011 BKN020 OVC033 19/18 Q1017 NOSIG
ZGSZ,2007-02-10 00:00,ZGSZ 100000Z 18001MPS 5000 BR FEW010 BKN020 OVC033 20/18 Q1017 NOSIG
ZGSZ,2007-02-10 01:00,ZGSZ 100100Z AUTO 21004KT 4SM 20/18 A3006 RMK T02000180 IEM_DS3505
ZGSZ,2007-02-10 02:00,ZGSZ 100200Z AUTO 22004KT 4SM 21/18 A3006 RMK T02100180 IEM_DS3505
ZGSZ,2007-02-10 03:00,ZGSZ 100300Z AUTO 22002KT 4SM 21/18 A3006 RMK SLP186 T02070181 52009 IEM_DS3505
ZGSZ,2007-02-10 04:00,ZGSZ 100400Z AUTO 22004KT 3SM 21/18 A3006 RMK T02100180 IEM_DS3505
ZGSZ,2007-02-10 05:00,ZGSZ 100500Z AUTO 23004KT 3SM 21/18 A3003 RMK T02100180 IEM_DS3505
ZGSZ,2007-02-10 06:00,ZGSZ 100600Z AUTO 22004KT 3SM 21/18 A3000 RMK SLP165 T02140182 57021 IEM_DS3505
ZGSZ,2007-02-10 07:00,ZGSZ 100700Z AUTO 21004KT 3SM 22/18 A3000 RMK T02200180 IEM_DS3505
ZGSZ,2007-02-10 08:00,ZGSZ 100800Z AUTO 21004KT 3SM 21/18 A3000 RMK T02100180 IEM_DS3505
ZGSZ,2007-02-10 09:00,ZGSZ 100900Z AUTO 20004KT 3SM 22/18 A3000 RMK SLP163 T02200182 57002 IEM_DS3505
ZGSZ,2007-02-10 10:00,ZGSZ 101000Z AUTO 19002KT 3SM 21/18 A3000 RMK T02100180 IEM_DS3505
ZGSZ,2007-02-10 11:00,ZGSZ 101100Z AUTO 00000KT 2SM 21/18 A3003 RMK T02100180 IEM_DS3505
ZGSZ,2007-02-10 12:00,ZGSZ 101200Z AUTO 07002KT 3SM 21/17 A3006 RMK SLP179 T02130167 52016 IEM_DS3505
ZGSZ,2007-02-10 13:00,ZGSZ 101300Z AUTO 03006KT 2SM 22/15 A3006 RMK T02200150 IEM_DS3505
ZGSZ,2007-02-10 14:00,ZGSZ 101400Z AUTO 07006KT 2SM 22/15 A3009 RMK T02200150 IEM_DS3505
ZGSZ,2007-02-10 15:00,ZGSZ 101500Z AUTO 07004KT 2 1/2SM 20/14 A3009 RMK SLP191 T02020141 52012 IEM_DS3505
ZGSZ,2007-02-10 16:00,ZGSZ 101600Z AUTO 36004KT 2SM 21/14 A3009 RMK T02100140 IEM_DS3505
ZGSZ,2007-02-10 17:00,ZGSZ 101700Z AUTO 02008KT 2 1/2SM 21/13 A3009 RMK T02100130 IEM_DS3505
ZGSZ,2007-02-10 18:00,ZGSZ 101800Z AUTO 02006KT 2 1/2SM 19/14 A3009 RMK SLP189 T01920138 57003 IEM_DS3505
ZGSZ,2007-02-10 19:00,ZGSZ 101900Z AUTO 02006KT 3SM 19/12 A3006 RMK T01900120 IEM_DS3505
ZGSZ,2007-02-10 20:00,ZGSZ 102000Z AUTO 03004KT 3SM 19/12 A3006 RMK T01900120 IEM_DS3505
ZGSZ,2007-02-10 21:00,ZGSZ 102100Z AUTO 04006KT 2 1/2SM 18/14 A3006 RMK SLP189 T01850142 54000 IEM_DS3505
ZGSZ,2007-02-10 22:00,ZGSZ 102200Z AUTO 03004KT 3SM 19/12 A3009 RMK T01900120 IEM_DS3505
ZGSZ,2007-02-10 23:00,ZGSZ 102300Z AUTO 07008KT 3SM 19/12 A3012 RMK T01900120 IEM_DS3505
ZGSZ,2007-02-11 00:00,ZGSZ 110000Z AUTO 07004KT 3SM 18/15 A3012 RMK SLP208 T01820151 52019 IEM_DS3505
ZGSZ,2007-02-11 01:00,ZGSZ 110100Z AUTO 09004KT 2 1/2SM 19/13 A3015 RMK T01900130 IEM_DS3505
ZGSZ,2007-02-11 02:00,ZGSZ 110200Z AUTO 09006KT 3SM 20/14 A3015 RMK T02000140 IEM_DS3505
ZGSZ,2007-02-11 03:00,ZGSZ 110300Z AUTO 11006KT 3SM 19/15 A3015 RMK SLP211 T01910152 52003 IEM_DS3505
ZGSZ,2007-02-11 04:00,ZGSZ 110400Z AUTO 07004KT 2 1/2SM 20/14 A3012 RMK T02000140 IEM_DS3505
ZGSZ,2007-02-11 05:00,ZGSZ 110500Z AUTO 07006KT 2 1/2SM 21/14 A3009 RMK T02100140 IEM_DS3505
ZGSZ,2007-02-11 06:00,ZGSZ 110600Z AUTO 09004KT 4SM 20/14 A3006 RMK SLP188 T01950145 57023 IEM_DS3505
ZGSZ,2007-02-11 07:00,ZGSZ 110700Z AUTO 2SM 21/15 A3006 RMK T02100150 IEM_DS3505
ZGSZ,2007-02-11 08:00,ZGSZ 110800Z AUTO 26004KT 2SM 20/15 A3006 RMK T02000150 IEM_DS3505
ZGSZ,2007-02-11 09:00,ZGSZ 110900Z AUTO 04006KT 4SM 20/14 A3006 RMK SLP182 T02010138 57006 IEM_DS3505
ZGSZ,2007-02-11 10:00,ZGSZ 111000Z AUTO 22004KT 2SM 19/15 A3006 RMK T01900150 IEM_DS3505
ZGSZ,2007-02-11 11:00,ZGSZ 111100Z AUTO 18008KT 4SM 19/14 A3006 RMK T01900140 IEM_DS3505
ZGSZ,2007-02-11 12:00,ZGSZ 111200Z AUTO 14006KT 3SM 19/13 A3009 RMK SLP197 T01890131 52015 IEM_DS3505
ZGSZ,2007-02-11 13:00,ZGSZ 111300Z AUTO 10010KT 4SM 20/14 A3009 RMK T02000140 IEM_DS3505
ZGSZ,2007-02-11 14:00,ZGSZ 111400Z AUTO 11010KT 4SM 20/14 A3009 RMK T02000140 IEM_DS3505
ZGSZ,2007-02-11 15:00,ZGSZ 111500Z AUTO 07006KT 3SM 19/14 A3012 RMK SLP201 T01870138 52004 IEM_DS3505
ZGSZ,2007-02-11 16:00,ZGSZ 111600Z AUTO 11006KT 3SM 19/14 A3009 RMK T01900140 IEM_DS3505
ZGSZ,2007-02-11 17:00,ZGSZ 111700Z AUTO 10008KT 3SM 19/14 A3009 RMK T01900140 IEM_DS3505
ZGSZ,2007-02-11 18:00,ZGSZ 111800Z AUTO 07006KT 2 1/2SM 18/14 A3006 RMK SLP189 T01820143 57012 IEM_DS3505
ZGSZ,2007-02-11 19:00,ZGSZ 111900Z AUTO 11010KT 3SM 19/14 A3006 RMK T01900140 IEM_DS3505
ZGSZ,2007-02-11 20:00,ZGSZ 112000Z AUTO 10008KT 3SM 19/14 A3006 RMK T01900140 IEM_DS3505
ZGSZ,2007-02-11 21:00,ZGSZ 112100Z AUTO 09004KT 1 1/2SM 18/14 A3006 RMK SLP185 T01760143 57004 IEM_DS3505
ZGSZ,2007-02-11 22:00,ZGSZ 112200Z AUTO 11006KT 2 1/2SM 19/14 A3006 RMK T01900140 IEM_DS3505
ZGSZ,2007-02-11 23:00,ZGSZ 112300Z AUTO 12008KT 2 1/2SM 18/14 A3009 RMK T01800140 IEM_DS3505
ZGSZ,2007-02-12 00:00,ZGSZ 120000Z AUTO 07008KT 3SM 18/13 A3009 RMK SLP197 T01770128 52012 IEM_DS3505
ZGSZ,2007-02-12 01:00,ZGSZ 120100Z AUTO 11010KT 3SM 20/13 A3009 RMK T02000130 IEM_DS3505
ZGSZ,2007-02-12 02:00,ZGSZ 120200Z AUTO 12010KT 3SM 22/13 A3009 RMK T02200130 IEM_DS3505
ZGSZ,2007-02-12 03:00,ZGSZ 120300Z AUTO 07008KT 3SM 21/14 A3009 RMK SLP199 T02080135 52002 IEM_DS3505
ZGSZ,2007-02-12 04:00,ZGSZ 120400Z AUTO 13008KT 3SM 24/14 A3006 RMK T02400140 IEM_DS3505
ZGSZ,2007-02-12 05:00,ZGSZ 120500Z AUTO 17008KT 3SM 25/15 A3003 RMK T02500150 IEM_DS3505
ZGSZ,2007-02-12 06:00,ZGSZ 120600Z AUTO 04006KT 4SM 23/15 A3000 RMK SLP161 T02260147 57037 IEM_DS3505
ZGSZ,2007-02-12 07:00,ZGSZ 120700Z AUTO 20008KT 4SM 23/17 A2997 RMK T02300170 IEM_DS3505
ZGSZ,2007-02-12 08:00,ZGSZ 120800Z AUTO 21008KT 2SM 22/17 A2997 RMK T02200170 IEM_DS3505
ZGSZ,2007-02-12 09:00,ZGSZ 120900Z AUTO 07006KT 3SM 22/15 A2997 RMK SLP152 T02200146 57009 IEM_DS3505
ZGSZ,2007-02-12 10:00,ZGSZ 121000Z AUTO 20006KT 2SM 21/17 A2997 RMK T02100170 IEM_DS3505
ZGSZ,2007-02-12 11:00,ZGSZ 121100Z AUTO 20006KT 1 1/2SM 20/17 A2997 RMK T02000170 IEM_DS3505
ZGSZ,2007-02-12 12:00,ZGSZ 121200Z AUTO 07004KT 2 1/2SM 19/15 A2997 RMK SLP161 T01880149 52008 IEM_DS3505
ZGSZ,2007-02-12 13:00,ZGSZ 121300Z AUTO 12008KT 2SM 20/16 A3000 RMK T02000160 IEM_DS3505
ZGSZ,2007-02-12 14:00,ZGSZ 121400Z AUTO 10008KT 2SM 21/16 A2997 RMK T02100160 IEM_DS3505
ZGSZ,2007-02-12 15:00,ZGSZ 121500Z AUTO 07004KT 2SM 19/16 A2997 RMK SLP159 T01880157 57001 IEM_DS3505
ZGSZ,2007-02-12 16:00,ZGSZ 121600Z AUTO 11010KT 2SM 20/16 A2997 RMK T02000160 IEM_DS3505
ZGSZ,2007-02-12 17:00,ZGSZ 121700Z AUTO 12010KT 2 1/2SM 20/16 A2994 RMK T02000160 IEM_DS3505
ZGSZ,2007-02-12 18:00,ZGSZ 121800Z AUTO 02004KT 2 1/2SM 19/16 A2994 RMK SLP148 T01900164 57011 IEM_DS3505
ZGSZ,2007-02-12 19:00,ZGSZ 121900Z AUTO 12010KT 2 1/2SM 21/17 A2994 RMK T02100170 IEM_DS3505
ZGSZ,2007-02-12 20:00,ZGSZ 122000Z AUTO 10008KT 2 1/2SM 21/17 A2991 RMK T02100170 IEM_DS3505
ZGSZ,2007-02-12 21:00,ZGSZ 122100Z AUTO 04004KT 2SM 19/17 A2991 RMK SLP141 T01910169 57007 IEM_DS3505
ZGSZ,2007-02-12 22:00,ZGSZ 122200Z AUTO 10006KT 2 1/2SM 21/17 A2997 RMK T02100170 IEM_DS3505
ZGSZ,2007-02-12 23:00,ZGSZ 122300Z 00000MPS 3300 BR SCT020 BKN040 20/17 Q1015 NOSIG
ZGSZ,2007-02-13 00:00,ZGSZ 130000Z 00000MPS 2200 BR BKN019 20/17 Q1016 NOSIG
ZGSZ,2007-02-13 01:00,ZGSZ 130100Z AUTO 09006KT 2 1/2SM 22/18 A3000 RMK T02200180 IEM_DS3505
ZGSZ,2007-02-13 02:00,ZGSZ 130200Z AUTO 13008KT 2 1/2SM 24/18 A3003 RMK T02400180 IEM_DS3505
ZGSZ,2007-02-13 03:00,ZGSZ 130300Z AUTO 04004KT 4SM 23/18 A3003 RMK SLP174 T02330177 52009 IEM_DS3505
ZGSZ,2007-02-13 04:00,ZGSZ 130400Z AUTO 15008KT 4SM 26/18 A3000 RMK T02600180 IEM_DS3505
ZGSZ,2007-02-13 05:00,ZGSZ 130500Z AUTO 20008KT 3SM 25/19 A2997 RMK T02500190 IEM_DS3505
ZGSZ,2007-02-13 06:00,ZGSZ 130600Z AUTO 18002KT 6SM 25/17 A2994 RMK SLP146 T02500172 57028 IEM_DS3505
ZGSZ,2007-02-13 07:00,ZGSZ 130700Z AUTO 18010KT 3SM 25/19 A2991 RMK T02500190 IEM_DS3505
ZGSZ,2007-02-13 08:00,ZGSZ 130800Z AUTO 18010KT 4SM 25/18 A2991 RMK T02500180 IEM_DS3505
ZGSZ,2007-02-13 09:00,ZGSZ 130900Z AUTO 20004KT 7SM 25/17 A2991 RMK SLP137 T02480170 57009 IEM_DS3505
ZGSZ,2007-02-13 10:00,ZGSZ 131000Z AUTO 17008KT 3SM 23/19 A2991 RMK T02300190 IEM_DS3505
ZGSZ,2007-02-13 11:00,ZGSZ 131100Z AUTO 17006KT 2 1/2SM 22/19 A2994 RMK T02200190 IEM_DS3505
ZGSZ,2007-02-13 12:00,ZGSZ 131200Z AUTO 07004KT 2 1/2SM 21/18 A2994 RMK SLP148 T02100180 52011 IEM_DS3505
ZGSZ,2007-02-13 13:00,ZGSZ 131300Z AUTO 10004KT 2 1/2SM 22/19 A2997 RMK T02200190 IEM_DS3505
ZGSZ,2007-02-13 14:00,ZGSZ 131400Z AUTO 11006KT 2 1/2SM 22/18 A2997 RMK T02200180 IEM_DS3505
ZGSZ,2007-02-13 15:00,ZGSZ 131500Z AUTO 02002KT 2SM 20/18 A3000 RMK SLP163 T02040180 52015 IEM_DS3505
ZGSZ,2007-02-13 16:00,ZGSZ 131600Z AUTO 2SM 22/18 A3000 RMK T02200180 IEM_DS3505
ZGSZ,2007-02-13 17:00,ZGSZ 131700Z AUTO 13004KT 2SM 21/18 A3000 RMK T02100180 IEM_DS3505
ZGSZ,2007-02-13 18:00,ZGSZ 131800Z AUTO 02002KT 2SM 20/18 A2997 RMK SLP160 T01990180 57003 IEM_DS3505
ZGSZ,2007-02-13 19:00,ZGSZ 131900Z AUTO 12006KT 1 1/2SM 20/18 A2997 RMK T02000180 IEM_DS3505
ZGSZ,2007-02-13 20:00,ZGSZ 132000Z AUTO 10002KT 2SM 21/18 A2994 RMK T02100180 IEM_DS3505
ZGSZ,2007-02-13 21:00,ZGSZ 132100Z AUTO 02002KT 2SM 19/18 A2997 RMK SLP149 T01920177 57011 IEM_DS3505
ZGSZ,2007-02-13 22:00,ZGSZ 132200Z AUTO 00000KT 1 1/2SM 20/18 A2997 RMK T02000180 IEM_DS3505
ZGSZ,2007-02-13 23:00,ZGSZ 132300Z AUTO 00000KT 1 1/2SM 19/18 A3000 RMK T01900180 IEM_DS3505
ZGSZ,2007-02-14 00:00,ZGSZ 140000Z AUTO 04002KT 2SM 20/18 A3003 RMK SLP170 T01950180 52021 IEM_DS3505
ZGSZ,2007-02-14 01:00,ZGSZ 140100Z AUTO 03004KT 2SM 22/19 A3006 RMK T02200190 IEM_DS3505
ZGSZ,2007-02-14 02:00,ZGSZ 140200Z AUTO 01004KT 1 1/2SM 23/18 A3006 RMK T02300180 IEM_DS3505
ZGSZ,2007-02-14 03:00,ZGSZ 140300Z AUTO 02002KT 1 1/4SM 23/18 A3006 RMK SLP183 T02270183 52013 IEM_DS3505
ZGSZ,2007-02-14 04:00,ZGSZ 140400Z AUTO 23004KT 2 1/2SM 23/19 A3003 RMK T02300190 IEM_DS3505
ZGSZ,2007-02-14 05:00,ZGSZ 140500Z AUTO 23004KT 2 1/2SM 24/19 A3000 RMK T02400190 IEM_DS3505
ZGSZ,2007-02-14 06:00,ZGSZ 140600Z AUTO 20006KT 3SM 24/17 A3000 RMK SLP160 T02390174 57023 IEM_DS3505
ZGSZ,2007-02-14 07:00,ZGSZ 140700Z AUTO 22006KT 3SM 24/19 A2997 RMK T02400190 IEM_DS3505
ZGSZ,2007-02-14 08:00,ZGSZ 140800Z AUTO 24004KT 2 1/2SM 23/19 A2997 RMK T02300190 IEM_DS3505
ZGSZ,2007-02-14 09:00,ZGSZ 140900Z AUTO 27004KT 3SM 24/17 A2997 RMK SLP156 T02370174 57004 IEM_DS3505
ZGSZ,2007-02-14 10:00,ZGSZ 141000Z AUTO 28004KT 2SM 23/19 A3000 RMK T02300190 IEM_DS3505
ZGSZ,2007-02-14 11:00,ZGSZ 141100Z AUTO 29006KT 1 1/2SM 23/19 A3000 RMK T02300190 IEM_DS3505
ZGSZ,2007-02-14 12:00,ZGSZ 141200Z AUTO 07002KT 2 1/2SM 22/18 A3003 RMK SLP170 T02210181 52014 IEM_DS3505
ZGSZ,2007-02-14 13:00,ZGSZ 141300Z AUTO 1 1/4SM 22/18 A3003 RMK T02200180 IEM_DS3505
ZGSZ,2007-02-14 14:00,ZGSZ 141400Z AUTO 32004KT 1 1/4SM 22/18 A3006 RMK T02200180 IEM_DS3505
ZGSZ,2007-02-14 15:00,ZGSZ 141500Z AUTO 36004KT 2SM 21/18 A3006 RMK SLP181 T02120178 52011 IEM_DS3505
ZGSZ,2007-02-14 16:00,ZGSZ 141600Z AUTO 02006KT 2 1/2SM 22/16 A3003 RMK T02200160 IEM_DS3505
ZGSZ,2007-02-14 17:00,ZGSZ 141700Z AUTO 02004KT 3SM 22/16 A3003 RMK T02200160 IEM_DS3505
ZGSZ,2007-02-14 18:00,ZGSZ 141800Z AUTO 07004KT 2SM 21/16 A3000 RMK SLP165 T02060160 57016 IEM_DS3505
ZGSZ,2007-02-14 19:00,ZGSZ 141900Z AUTO 09006KT 2 1/2SM 21/16 A3000 RMK T02100160 IEM_DS3505
ZGSZ,2007-02-14 20:00,ZGSZ 142000Z AUTO 12012KT 3SM 21/17 A3000 RMK T02100170 IEM_DS3505
ZGSZ,2007-02-14 21:00,ZGSZ 142100Z AUTO 07008KT 2 1/2SM 18/16 A3000 RMK 70000 SLP165 T01810157 54000 IEM_DS3505
ZGSZ,2007-02-14 22:00,ZGSZ 142200Z AUTO 12012KT 3SM 19/16 A3003 RMK T01900160 IEM_DS3505
ZGSZ,2007-02-14 23:00,ZGSZ 142300Z AUTO 11014KT 3SM 19/15 A3003 RMK T01900150 IEM_DS3505
ZGSZ,2007-02-15 00:00,ZGSZ 150000Z 10005MPS 4200 BR SCT016 OVC036 19/15 Q1018 NOSIG
ZGSZ,2007-02-15 01:00,ZGSZ 150100Z AUTO 11014KT 2 1/2SM 19/15 A3006 RMK T01900150 IEM_DS3505
ZGSZ,2007-02-15 02:00,ZGSZ 150200Z AUTO 10012KT 3SM 20/15 A3009 RMK T02000150 IEM_DS3505
ZGSZ,2007-02-15 03:00,ZGSZ 150300Z AUTO 09008KT 2 1/2SM 18/14 A3012 RMK SLP200 T01800145 52016 IEM_DS3505
ZGSZ,2007-02-15 04:00,ZGSZ 150400Z AUTO 10014KT 3SM 20/15 A3006 RMK T02000150 IEM_DS3505
ZGSZ,2007-02-15 05:00,ZGSZ 150500Z AUTO 11014KT 3SM 19/15 A3003 RMK T01900150 IEM_DS3505
ZGSZ,2007-02-15 06:00,ZGSZ 150600Z AUTO 07004KT 3SM 18/14 A3000 RMK 60000 SLP165 T01830144 57035 IEM_DS3505
ZGSZ,2007-02-15 07:00,ZGSZ 150700Z AUTO 11010KT 4SM 20/15 A2997 RMK T02000150 IEM_DS3505
ZGSZ,2007-02-15 08:00,ZGSZ 150800Z AUTO 11008KT 4SM 21/15 A2994 RMK T02100150 IEM_DS3505
ZGSZ,2007-02-15 09:00,ZGSZ 150900Z AUTO 07010KT 3SM 19/14 A2994 RMK SLP144 T01870144 57021 IEM_DS3505
ZGSZ,2007-02-15 10:00,ZGSZ 151000Z AUTO 11008KT 3SM 20/15 A2994 RMK T02000150 IEM_DS3505
ZGSZ,2007-02-15 11:00,ZGSZ 151100Z AUTO 11006KT 3SM 20/15 A2994 RMK T02000150 IEM_DS3505
ZGSZ,2007-02-15 12:00,ZGSZ 151200Z AUTO 09006KT 3SM 18/16 A2997 RMK SLP153 T01840156 52009 IEM_DS3505
ZGSZ,2007-02-15 13:00,ZGSZ 151300Z AUTO 12010KT 3SM 20/16 A2997 RMK T02000160 IEM_DS3505
ZGSZ,2007-02-15 14:00,ZGSZ 151400Z AUTO 12010KT 3SM 20/16 A2997 RMK T02000160 IEM_DS3505
ZGSZ,2007-02-15 15:00,ZGSZ 151500Z AUTO 09006KT 2 1/2SM 19/17 A2997 RMK SLP155 T01900166 52002 IEM_DS3505
ZGSZ,2007-02-15 16:00,ZGSZ 151600Z AUTO 3SM 20/17 A3000 RMK T02000170 IEM_DS3505
ZGSZ,2007-02-15 17:00,ZGSZ 151700Z AUTO 08008KT 3SM 20/17 A2997 RMK T02000170 IEM_DS3505
ZGSZ,2007-02-15 18:00,ZGSZ 151800Z AUTO 07006KT 2SM 18/16 A2994 RMK SLP144 T01790164 57011 IEM_DS3505
ZGSZ,2007-02-15 19:00,ZGSZ 151900Z AUTO 11008KT 3SM 19/17 A2991 RMK T01900170 IEM_DS3505
ZGSZ,2007-02-15 20:00,ZGSZ 152000Z AUTO 12008KT 3SM 19/17 A2988 RMK T01900170 IEM_DS3505
ZGSZ,2007-02-15 21:00,ZGSZ 152100Z AUTO 07008KT 2 1/2SM 18/16 A2988 RMK 70000 SLP130 T01800163 57014 IEM_DS3505
ZGSZ,2007-02-15 22:00,ZGSZ 152200Z AUTO 11010KT 3SM 19/17 A2988 RMK T01900170 IEM_DS3505
ZGSZ,2007-02-15 23:00,ZGSZ 152300Z AUTO 12008KT 3SM 19/17 A2991 RMK T01900170 IEM_DS3505
ZGSZ,2007-02-16 00:00,ZGSZ 160000Z 12004MPS 5000 BR BKN046 20/17 Q1014 NOSIG
ZGSZ,2007-02-16 01:00,ZGSZ 160100Z AUTO 12010KT 4SM 22/18 A2991 RMK T02200180 IEM_DS3505
ZGSZ,2007-02-16 02:00,ZGSZ 160200Z AUTO 13012KT 5SM 23/18 A2994 RMK T02300180 IEM_DS3505
ZGSZ,2007-02-16 03:00,ZGSZ 160300Z AUTO 07006KT 4SM 21/18 A3000 RMK SLP153 T02130175 52011 IEM_DS3505
ZGSZ,2007-02-16 04:00,ZGSZ 160400Z AUTO 2 1/2SM 21/19 A2994 RMK T02100190 IEM_DS3505
ZGSZ,2007-02-16 05:00,ZGSZ 160500Z AUTO 3SM 22/19 A2991 RMK T02200190 IEM_DS3505
ZGSZ,2007-02-16 06:00,ZGSZ 160600Z AUTO 04004KT 4SM 21/18 A2988 RMK 60000 SLP129 T02140182 57024 IEM_DS3505
ZGSZ,2007-02-16 07:00,ZGSZ 160700Z AUTO 13008KT 3SM 23/19 A2985 RMK T02300190 IEM_DS3505
ZGSZ,2007-02-16 08:00,ZGSZ 160800Z AUTO 14010KT 3SM 24/19 A2983 RMK T02400190 IEM_DS3505
ZGSZ,2007-02-16 09:00,ZGSZ 160900Z AUTO 11006KT 5SM 22/18 A2983 RMK SLP105 T02250185 57024 IEM_DS3505
ZGSZ,2007-02-16 10:00,ZGSZ 161000Z AUTO 17004KT 3SM 23/19 A2983 RMK T02300190 IEM_DS3505
ZGSZ,2007-02-16 11:00,ZGSZ 161100Z AUTO 16006KT 2 1/2SM 22/19 A2985 RMK T02200190 IEM_DS3505
ZGSZ,2007-02-16 12:00,ZGSZ 161200Z AUTO 07004KT 2 1/2SM 20/18 A2988 RMK 60000 SLP123 T02050183 52018 IEM_DS3505
ZGSZ,2007-02-16 13:00,ZGSZ 161300Z AUTO 12008KT 2 1/2SM 22/19 A2988 RMK T02200190 IEM_DS3505
ZGSZ,2007-02-16 14:00,ZGSZ 161400Z AUTO 13004KT 2 1/2SM 22/19 A2988 RMK T02200190 IEM_DS3505
ZGSZ,2007-02-16 15:00,ZGSZ 161500Z AUTO 04002KT 1 1/2SM 20/18 A2991 RMK SLP129 T02040185 52006 IEM_DS3505
ZGSZ,2007-02-16 16:00,ZGSZ 161600Z AUTO 12006KT 2 1/2SM 22/19 A2988 RMK T02200190 IEM_DS3505
ZGSZ,2007-02-16 17:00,ZGSZ 161700Z AUTO 12006KT 2 1/2SM 22/19 A2988 RMK T02200190 IEM_DS3505
ZGSZ,2007-02-16 18:00,ZGSZ 161800Z AUTO 36002KT 1 1/2SM 20/19 A2988 RMK SLP124 T02020187 57005 IEM_DS3505
ZGSZ,2007-02-16 19:00,ZGSZ 161900Z AUTO 13006KT 2 1/2SM 22/19 A2985 RMK T02200190 IEM_DS3505
ZGSZ,2007-02-16 20:00,ZGSZ 162000Z AUTO 2 1/2SM 22/19 A2985 RMK T02200190 IEM_DS3505
ZGSZ,2007-02-16 21:00,ZGSZ 162100Z AUTO 07004KT 1 1/2SM 21/19 A2985 RMK 70000 SLP114 T02060189 57010 IEM_DS3505
ZGSZ,2007-02-16 22:00,ZGSZ 162200Z AUTO 12004KT 3SM 22/19 A2985 RMK T02200190 IEM_DS3505
ZGSZ,2007-02-16 23:00,ZGSZ 162300Z AUTO 15004KT 2 1/2SM 22/19 A2988 RMK T02200190 IEM_DS3505
ZGSZ,2007-02-17 00:00,ZGSZ 170000Z AUTO 07002KT 3SM 21/19 A2988 RMK 70000 SLP129 T02100191 52015 IEM_DS3505
ZGSZ,2007-02-17 01:00,ZGSZ 170100Z AUTO 13006KT 3SM 23/20 A2991 RMK T02300200 IEM_DS3505
ZGSZ,2007-02-17 02:00,ZGSZ 170200Z AUTO 16006KT 4SM 24/20 A2991 RMK T02400200 IEM_DS3505
ZGSZ,2007-02-17 03:00,ZGSZ 170300Z AUTO 16004KT 6SM 24/19 A2991 RMK SLP139 T02400193 52010 IEM_DS3505
ZGSZ,2007-02-17 04:00,ZGSZ 170400Z AUTO 17008KT 7SM 24/19 A2988 RMK T02400190 IEM_DS3505
ZGSZ,2007-02-17 05:00,ZGSZ 170500Z AUTO 17006KT 7SM 24/19 A2988 RMK T02400190 IEM_DS3505
ZGSZ,2007-02-17 06:00,ZGSZ 170600Z AUTO 14002KT 9SM 23/19 A2985 RMK 60000 SLP118 T02340191 57021 IEM_DS3505
ZGSZ,2007-02-17 07:00,ZGSZ 170700Z AUTO 21006KT 4SM 22/20 A2985 RMK T02200200 IEM_DS3505
ZGSZ,2007-02-17 08:00,ZGSZ 170800Z AUTO 16008KT 5SM 23/20 A2983 RMK T02300200 IEM_DS3505
ZGSZ,2007-02-17 09:00,ZGSZ 170900Z AUTO 20004KT 8SM 23/20 A2983 RMK SLP109 T02320198 57009 IEM_DS3505
ZGSZ,2007-02-17 10:00,ZGSZ 171000Z AUTO 15010KT 7SM 23/20 A2983 RMK T02300200 IEM_DS3505
ZGSZ,2007-02-17 11:00,ZGSZ 171100Z AUTO 16008KT 7SM 22/20 A2985 RMK T02200200 IEM_DS3505
ZGSZ,2007-02-17 12:00,ZGSZ 171200Z AUTO 20002KT 3SM 22/20 A2988 RMK 60000 SLP121 T02220197 52012 IEM_DS3505
ZGSZ,2007-02-17 13:00,ZGSZ 171300Z AUTO 17004KT 7SM 23/20 A2988 RMK T02300200 IEM_DS3505
ZGSZ,2007-02-17 14:00,ZGSZ 171400Z AUTO 15006KT 7SM 22/20 A2991 RMK T02200200 IEM_DS3505
ZGSZ,2007-02-17 15:00,ZGSZ 171500Z AUTO 36002KT 4SM 22/20 A2991 RMK SLP133 T02170196 52013 IEM_DS3505
ZGSZ,2007-02-17 16:00,ZGSZ 171600Z AUTO 16004KT 4SM 22/20 A2991 RMK T02200200 IEM_DS3505
ZGSZ,2007-02-17 17:00,ZGSZ 171700Z AUTO 14004KT 5SM 22/20 A2988 RMK T02200200 IEM_DS3505
ZGSZ,2007-02-17 18:00,ZGSZ 171800Z AUTO 14002KT 4SM 22/20 A2988 RMK SLP123 T02180199 57010 IEM_DS3505
ZGSZ,2007-02-17 19:00,ZGSZ 171900Z AUTO 15006KT 5SM 22/20 A2985 RMK T02200200 IEM_DS3505
ZGSZ,2007-02-17 20:00,ZGSZ 172000Z AUTO 15004KT 7SM 22/20 A2985 RMK T02200200 IEM_DS3505
ZGSZ,2007-02-17 21:00,ZGSZ 172100Z AUTO 07002KT 4SM 21/20 A2985 RMK 70000 SLP117 T02130196 57006 IEM_DS3505
ZGSZ,2007-02-17 22:00,ZGSZ 172200Z AUTO 15002KT 3SM 21/20 A2988 RMK T02100200 IEM_DS3505
ZGSZ,2007-02-17 23:00,ZGSZ 172300Z 14001MPS 6000 SCT016 BKN040 21/19 Q1013 NOSIG
ZGSZ,2007-02-18 00:00,ZGSZ 180000Z VRB01MPS 4100 BR FEW025 BKN040 22/21 Q1013 NOSIG
ZGSZ,2007-02-18 01:00,ZGSZ 180100Z AUTO 3SM 23/21 A2994 RMK T02300210 IEM_DS3505
ZGSZ,2007-02-18 02:00,ZGSZ 180200Z AUTO 19004KT 4SM 24/21 A2994 RMK T02400210 IEM_DS3505
ZGSZ,2007-02-18 03:00,ZGSZ 180300Z AUTO 22002KT 7SM 24/19 A2994 RMK SLP143 T02410194 52005 IEM_DS3505
ZGSZ,2007-02-18 04:00,ZGSZ 180400Z AUTO 17006KT 7SM 25/21 A2991 RMK T02500210 IEM_DS3505
ZGSZ,2007-02-18 05:00,ZGSZ 180500Z AUTO 18008KT 7SM 24/21 A2988 RMK T02400210 IEM_DS3505
ZGSZ,2007-02-18 06:00,ZGSZ 180600Z AUTO 22006KT 12SM 25/19 A2988 RMK SLP120 T02510188 57022 IEM_DS3505
ZGSZ,2007-02-18 07:00,ZGSZ 180700Z AUTO 17008KT 7SM 24/21 A2985 RMK T02400210 IEM_DS3505
ZGSZ,2007-02-18 08:00,ZGSZ 180800Z AUTO 16008KT 7SM 24/21 A2985 RMK T02400210 IEM_DS3505
ZGSZ,2007-02-18 09:00,ZGSZ 180900Z AUTO 22004KT 12SM 24/19 A2985 RMK SLP114 T02380189 57006 IEM_DS3505
ZGSZ,2007-02-18 10:00,ZGSZ 181000Z AUTO 27004KT 3SM 22/20 A2985 RMK T02200200 IEM_DS3505
ZGSZ,2007-02-18 11:00,ZGSZ 181100Z AUTO 29008KT 2 1/2SM 21/19 A2988 RMK T02100190 IEM_DS3505
ZGSZ,2007-02-18 12:00,ZGSZ 181200Z AUTO 27004KT 9SM 22/19 A2988 RMK SLP127 T02220190 52012 IEM_DS3505
ZGSZ,2007-02-18 13:00,ZGSZ 181300Z AUTO 30008KT 2SM 20/17 A2991 RMK T02000170 IEM_DS3505
ZGSZ,2007-02-18 14:00,ZGSZ 181400Z AUTO 32006KT 1 1/2SM 20/17 A2991 RMK T02000170 IEM_DS3505
ZGSZ,2007-02-18 15:00,ZGSZ 181500Z AUTO 25004KT 2SM 21/18 A2994 RMK SLP141 T02130183 52014 IEM_DS3505
ZGSZ,2007-02-18 16:00,ZGSZ 181600Z AUTO 31006KT 1 1/2SM 20/17 A2994 RMK T02000170 IEM_DS3505
ZGSZ,2007-02-18 17:00,ZGSZ 181700Z AUTO 31004KT 2SM 20/17 A2991 RMK T02000170 IEM_DS3505
ZGSZ,2007-02-18 18:00,ZGSZ 181800Z AUTO 27002KT 2SM 20/18 A2991 RMK SLP137 T02010179 57004 IEM_DS3505
ZGSZ,2007-02-18 19:00,ZGSZ 181900Z AUTO 36006KT 7SM 20/15 A2991 RMK T02000150 IEM_DS3505
ZGSZ,2007-02-18 20:00,ZGSZ 182000Z AUTO 36004KT 7SM 20/15 A2991 RMK T02000150 IEM_DS3505
ZGSZ,2007-02-18 21:00,ZGSZ 182100Z AUTO 16004KT 2SM 20/18 A2991 RMK SLP137 T02000178 54000 IEM_DS3505
ZGSZ,2007-02-18 22:00,ZGSZ 182200Z AUTO 36006KT 7SM 20/15 A2994 RMK T02000150 IEM_DS3505
ZGSZ,2007-02-18 23:00,ZGSZ 182300Z 01004MPS 9999 SCT014 OVC030 19/15 Q1014 NOSIG
ZGSZ,2007-02-19 00:00,ZGSZ 190000Z 01003MPS 9999 SCT014 OVC030 20/14 Q1015 NOSIG
ZGSZ,2007-02-19 01:00,ZGSZ 190100Z AUTO 04004KT 7SM 20/15 A3000 RMK T02000150 IEM_DS3505
ZGSZ,2007-02-19 02:00,ZGSZ 190200Z AUTO 07006KT 7SM 21/16 A3000 RMK T02100160 IEM_DS3505
ZGSZ,2007-02-19 03:00,ZGSZ 190300Z AUTO 02004KT 2 1/2SM 21/17 A2997 RMK SLP153 T02100168 57001 IEM_DS3505
ZGSZ,2007-02-19 04:00,ZGSZ 190400Z AUTO 36006KT 3SM 21/17 A2997 RMK T02100170 IEM_DS3505
ZGSZ,2007-02-19 05:00,ZGSZ 190500Z AUTO 36006KT 2 1/2SM 21/16 A2994 RMK T02100160 IEM_DS3505
ZGSZ,2007-02-19 06:00,ZGSZ 190600Z AUTO 04004KT 3SM 20/17 A2991 RMK SLP132 T02040168 57021 IEM_DS3505
ZGSZ,2007-02-19 07:00,ZGSZ 190700Z AUTO 3SM 21/16 A2988 RMK T02100160 IEM_DS3505
ZGSZ,2007-02-19 08:00,ZGSZ 190800Z AUTO 28006KT 2 1/2SM 21/16 A2988 RMK T02100160 IEM_DS3505
ZGSZ,2007-02-19 09:00,ZGSZ 190900Z AUTO 09004KT 3SM 20/17 A2988 RMK SLP126 T02020174 57006 IEM_DS3505
ZGSZ,2007-02-19 10:00,ZGSZ 191000Z AUTO 09004KT 2 1/2SM 21/17 A2988 RMK T02100170 IEM_DS3505
ZGSZ,2007-02-19 11:00,ZGSZ 191100Z AUTO 06004KT 2SM 21/17 A2991 RMK T02100170 IEM_DS3505
ZGSZ,2007-02-19 12:00,ZGSZ 191200Z AUTO 07006KT 3SM 19/17 A2991 RMK 60000 SLP139 T01920170 52013 IEM_DS3505
ZGSZ,2007-02-19 13:00,ZGSZ 191300Z AUTO 09004KT 3SM 20/18 A2994 RMK T02000180 IEM_DS3505
ZGSZ,2007-02-19 14:00,ZGSZ 191400Z AUTO 10008KT 7SM 21/17 A2997 RMK T02100170 IEM_DS3505
ZGSZ,2007-02-19 15:00,ZGSZ 191500Z AUTO 07006KT 6SM 19/16 A2994 RMK SLP152 T01870165 52013 IEM_DS3505
ZGSZ,2007-02-19 16:00,ZGSZ 191600Z AUTO 11006KT 7SM 20/17 A2997 RMK T02000170 IEM_DS3505
ZGSZ,2007-02-19 18:00,ZGSZ 191800Z AUTO 04008KT 7SM 18/16 A2994 RMK 60000 SLP147 T01850163 57005 IEM_DS3505
ZGSZ,2007-02-19 19:00,ZGSZ 191900Z AUTO 7SM 20/17 A2994 RMK T02000170 IEM_DS3505
ZGSZ,2007-02-19 20:00,ZGSZ 192000Z AUTO 04004KT 7SM 20/17 A2994 RMK T02000170 IEM_DS3505
ZGSZ,2007-02-19 21:00,ZGSZ 192100Z AUTO 04004KT 3SM 18/16 A2994 RMK 70000 SLP142 T01850165 57005 IEM_DS3505
ZGSZ,2007-02-19 22:00,ZGSZ 192200Z AUTO 09004KT 4SM 20/17 A2994 RMK T02000170 IEM_DS3505
ZGSZ,2007-02-19 23:00,ZGSZ 192300Z AUTO 03006KT 3SM 20/17 A2997 RMK T02000170 IEM_DS3505
ZGSZ,2007-02-20 00:00,ZGSZ 200000Z AUTO 07008KT 4SM 19/16 A3000 RMK 70000 SLP160 T01870165 52017 IEM_DS3505
ZGSZ,2007-02-20 01:00,ZGSZ 200100Z AUTO 12008KT 3SM 21/17 A3000 RMK T02100170 IEM_DS3505
ZGSZ,2007-02-20 02:00,ZGSZ 200200Z AUTO 11008KT 4SM 21/17 A3000 RMK T02100170 IEM_DS3505
ZGSZ,2007-02-20 03:00,ZGSZ 200300Z AUTO 09006KT 4SM 21/17 A3000 RMK SLP170 T02070169 52010 IEM_DS3505
ZGSZ,2007-02-20 04:00,ZGSZ 200400Z AUTO 4SM 23/17 A3000 RMK T02300170 IEM_DS3505
ZGSZ,2007-02-20 05:00,ZGSZ 200500Z AUTO 28006KT 3SM 23/18 A2997 RMK T02300180 IEM_DS3505
ZGSZ,2007-02-20 06:00,ZGSZ 200600Z AUTO 09002KT 6SM 22/17 A2994 RMK SLP146 T02240173 57023 IEM_DS3505
ZGSZ,2007-02-20 07:00,ZGSZ 200700Z AUTO 20006KT 3SM 23/19 A2991 RMK T02300190 IEM_DS3505
ZGSZ,2007-02-20 08:00,ZGSZ 200800Z AUTO 19006KT 4SM 22/18 A2991 RMK T02200180 IEM_DS3505
ZGSZ,2007-02-20 09:00,ZGSZ 200900Z AUTO 09004KT 6SM 22/17 A2991 RMK SLP141 T02220171 57005 IEM_DS3505
ZGSZ,2007-02-20 10:00,ZGSZ 201000Z AUTO 2 1/2SM 21/18 A2994 RMK T02100180 IEM_DS3505
ZGSZ,2007-02-20 11:00,ZGSZ 201100Z AUTO 00000KT 2 1/2SM 21/19 A2994 RMK T02100190 IEM_DS3505
ZGSZ,2007-02-20 12:00,ZGSZ 201200Z AUTO 07006KT 6SM 20/17 A2997 RMK SLP156 T01980168 52014 IEM_DS3505
ZGSZ,2007-02-20 13:00,ZGSZ 201300Z AUTO 12006KT 6SM 21/17 A2997 RMK T02100170 IEM_DS3505
ZGSZ,2007-02-20 14:00,ZGSZ 201400Z AUTO 6SM 22/17 A3000 RMK T02200170 IEM_DS3505
ZGSZ,2007-02-20 15:00,ZGSZ 201500Z AUTO 07006KT 7SM 20/17 A3000 RMK SLP164 T01950167 52009 IEM_DS3505
ZGSZ,2007-02-20 16:00,ZGSZ 201600Z AUTO 4SM 21/17 A3000 RMK T02100170 IEM_DS3505
ZGSZ,2007-02-20 17:00,ZGSZ 201700Z AUTO 03006KT 2 1/2SM 21/17 A3000 RMK T02100170 IEM_DS3505
ZGSZ,2007-02-20 18:00,ZGSZ 201800Z AUTO 04006KT 5SM 19/16 A2997 RMK 60000 SLP160 T01930165 57004 IEM_DS3505
ZGSZ,2007-02-20 19:00,ZGSZ 201900Z AUTO 14004KT 2 1/2SM 20/17 A3000 RMK T02000170 IEM_DS3505
ZGSZ,2007-02-20 20:00,ZGSZ 202000Z AUTO 13004KT 2 1/2SM 20/17 A2997 RMK T02000170 IEM_DS3505
ZGSZ,2007-02-20 21:00,ZGSZ 202100Z AUTO 07006KT 4SM 19/17 A2997 RMK 70001 SLP154 T01880166 57006 IEM_DS3505
ZGSZ,2007-02-20 22:00,ZGSZ 202200Z AUTO 07004KT 3SM 20/17 A3000 RMK T02000170 IEM_DS3505
ZGSZ,2007-02-20 23:00,ZGSZ 202300Z AUTO 10006KT 3SM 20/17 A3000 RMK T02000170 IEM_DS3505
ZGSZ,2007-02-21 00:00,ZGSZ 210000Z AUTO 11008KT 4SM 19/16 A3003 RMK 60000 70001 SLP171 T01930165 52016 IEM_DS3505
ZGSZ,2007-02-21 01:00,ZGSZ 210100Z AUTO 12006KT 3SM 21/17 A3006 RMK T02100170 IEM_DS3505
ZGSZ,2007-02-21 02:00,ZGSZ 210200Z AUTO 10006KT 3SM 21/17 A3006 RMK T02100170 IEM_DS3505
ZGSZ,2007-02-21 03:00,ZGSZ 210300Z AUTO 11008KT 4SM 20/17 A3003 RMK SLP176 T02010167 52005 IEM_DS3505
ZGSZ,2007-02-21 04:00,ZGSZ 210400Z AUTO 10008KT 4SM 23/17 A3000 RMK T02300170 IEM_DS3505
ZGSZ,2007-02-21 05:00,ZGSZ 210500Z AUTO 09010KT 4SM 23/17 A2997 RMK T02300170 IEM_DS3505
ZGSZ,2007-02-21 06:00,ZGSZ 210600Z AUTO 11006KT 4SM 21/17 A2994 RMK SLP149 T02090167 57026 IEM_DS3505
ZGSZ,2007-02-21 07:00,ZGSZ 210700Z AUTO 10008KT 4SM 22/17 A2994 RMK T02200170 IEM_DS3505
ZGSZ,2007-02-21 08:00,ZGSZ 210800Z AUTO 10010KT 4SM 22/17 A2994 RMK T02200170 IEM_DS3505
ZGSZ,2007-02-21 09:00,ZGSZ 210900Z AUTO 09004KT 4SM 20/16 A2991 RMK SLP144 T01950165 57005 IEM_DS3505
ZGSZ,2007-02-21 10:00,ZGSZ 211000Z AUTO 11010KT 4SM 20/17 A2994 RMK T02000170 IEM_DS3505
ZGSZ,2007-02-21 11:00,ZGSZ 211100Z AUTO 10010KT 4SM 20/17 A2994 RMK T02000170 IEM_DS3505
ZGSZ,2007-02-21 12:00,ZGSZ 211200Z AUTO 07006KT 3SM 19/16 A2997 RMK 60000 SLP147 T01860162 52002 IEM_DS3505
ZGSZ,2007-02-21 13:00,ZGSZ 211300Z AUTO 08004KT 4SM 20/17 A3000 RMK T02000170 IEM_DS3505
ZGSZ,2007-02-21 14:00,ZGSZ 211400Z AUTO 09006KT 3SM 20/17 A3000 RMK T02000170 IEM_DS3505
ZGSZ,2007-02-21 15:00,ZGSZ 211500Z AUTO 04008KT 2 1/2SM 19/16 A2997 RMK SLP160 T01880160 52013 IEM_DS3505
ZGSZ,2007-02-21 16:00,ZGSZ 211600Z AUTO 10006KT 4SM 21/16 A2997 RMK T02100160 IEM_DS3505
ZGSZ,2007-02-21 17:00,ZGSZ 211700Z AUTO 13006KT 3SM 20/16 A2997 RMK T02000160 IEM_DS3505
ZGSZ,2007-02-21 18:00,ZGSZ 211800Z AUTO 07008KT 4SM 18/16 A2994 RMK 60000 SLP152 T01850156 57007 IEM_DS3505
ZGSZ,2007-02-21 19:00,ZGSZ 211900Z AUTO 11008KT 5SM 20/16 A2994 RMK T02000160 IEM_DS3505
ZGSZ,2007-02-21 20:00,ZGSZ 212000Z AUTO 14004KT 5SM 20/16 A2991 RMK T02000160 IEM_DS3505
ZGSZ,2007-02-21 21:00,ZGSZ 212100Z AUTO 04008KT 5SM 18/16 A2988 RMK 70000 SLP129 T01840155 57023 IEM_DS3505
ZGSZ,2007-02-21 22:00,ZGSZ 212200Z AUTO 10004KT 7SM 20/16 A2991 RMK T02000160 IEM_DS3505
ZGSZ,2007-02-21 23:00,ZGSZ 212300Z AUTO 7SM 20/16 A2997 RMK T02000160 IEM_DS3505
ZGSZ,2007-02-22 00:00,ZGSZ 220000Z AUTO 07004KT 7SM 18/16 A2994 RMK 70000 SLP146 T01850156 52016 IEM_DS3505
ZGSZ,2007-02-22 01:00,ZGSZ 220100Z AUTO 05004KT 5SM 19/17 A2997 RMK T01900170 IEM_DS3505
ZGSZ,2007-02-22 02:00,ZGSZ 220200Z AUTO 10004KT 5SM 19/17 A2997 RMK T01900170 IEM_DS3505
ZGSZ,2007-02-22 03:00,ZGSZ 220300Z 36004MPS 320V050 1600 R15/1300D -SHRA BR BKN008 FEW026TCU BKN033 19/17 Q1016 NOSIG
ZGSZ,2007-02-22 04:00,ZGSZ 220400Z AUTO 35012KT 2SM 18/16 A3000 RMK T01800160 IEM_DS3505
ZGSZ,2007-02-22 05:00,ZGSZ 220500Z AUTO 02012KT 4SM 18/16 A2997 RMK T01800160 IEM_DS3505
ZGSZ,2007-02-22 06:00,ZGSZ 220600Z AUTO 04004KT 3SM 18/16 A2991 RMK 60028 SLP140 T01760165 57014 IEM_DS3505
ZGSZ,2007-02-22 07:00,ZGSZ 220700Z AUTO 7SM 19/16 A2991 RMK T01900160 IEM_DS3505
ZGSZ,2007-02-22 08:00,ZGSZ 220800Z AUTO 03006KT 7SM 21/15 A2991 RMK T02100150 IEM_DS3505
ZGSZ,2007-02-22 09:00,ZGSZ 220900Z AUTO 07006KT 12SM 19/16 A2991 RMK SLP131 T01940159 57008 IEM_DS3505
ZGSZ,2007-02-22 10:00,ZGSZ 221000Z AUTO 12004KT 6SM 20/16 A2991 RMK T02000160 IEM_DS3505
ZGSZ,2007-02-22 11:00,ZGSZ 221100Z AUTO 03004KT 7SM 20/15 A2994 RMK T02000150 IEM_DS3505
ZGSZ,2007-02-22 12:00,ZGSZ 221200Z AUTO 04004KT 12SM 19/16 A2994 RMK 60008 SLP143 T01910156 52011 IEM_DS3505
ZGSZ,2007-02-22 13:00,ZGSZ 221300Z AUTO 10004KT 7SM 20/15 A2994 RMK T02000150 IEM_DS3505
ZGSZ,2007-02-22 14:00,ZGSZ 221400Z AUTO 7SM 20/15 A2994 RMK T02000150 IEM_DS3505
ZGSZ,2007-02-22 15:00,ZGSZ 221500Z AUTO 04002KT 9SM 18/16 A2994 RMK SLP143 T01840158 54000 IEM_DS3505
ZGSZ,2007-02-22 16:00,ZGSZ 221600Z AUTO 6SM 19/16 A2994 RMK T01900160 IEM_DS3505
ZGSZ,2007-02-22 17:00,ZGSZ 221700Z AUTO 36004KT 3SM 19/16 A2994 RMK T01900160 IEM_DS3505
ZGSZ,2007-02-22 18:00,ZGSZ 221800Z AUTO 02002KT 12SM 18/15 A2991 RMK SLP139 T01810152 57004 IEM_DS3505
ZGSZ,2007-02-22 19:00,ZGSZ 221900Z AUTO 6SM 18/16 A2991 RMK T01800160 IEM_DS3505
ZGSZ,2007-02-22 20:00,ZGSZ 222000Z AUTO 04008KT 6SM 18/15 A2991 RMK T01800150 IEM_DS3505
ZGSZ,2007-02-22 21:00,ZGSZ 222100Z AUTO 04002KT 12SM 17/15 A2991 RMK 70035 SLP134 T01740147 57005 IEM_DS3505
ZGSZ,2007-02-22 22:00,ZGSZ 222200Z AUTO 02004KT 6SM 17/15 A2991 RMK T01700150 IEM_DS3505
ZGSZ,2007-02-22 23:00,ZGSZ 222300Z 03001MPS 7000 NSC 17/15 Q1014 NOSIG
ZGSZ,2007-02-23 00:00,ZGSZ 230000Z AUTO 07004KT 16SM 18/14 A2997 RMK 70035 SLP158 T01790144 52024 IEM_DS3505
ZGSZ,2007-02-23 01:00,ZGSZ 230100Z AUTO 04008KT 6SM 20/15 A3000 RMK T02000150 IEM_DS3505
ZGSZ,2007-02-23 02:00,ZGSZ 230200Z AUTO 6SM 21/15 A3000 RMK T02100150 IEM_DS3505
ZGSZ,2007-02-23 03:00,ZGSZ 230300Z AUTO 07010KT 19SM 22/14 A3000 RMK SLP167 T02190140 52010 IEM_DS3505
ZGSZ,2007-02-23 04:00,ZGSZ 230400Z AUTO 11008KT 7SM 24/15 A3000 RMK T02400150 IEM_DS3505
ZGSZ,2007-02-23 05:00,ZGSZ 230500Z AUTO 13012KT 7SM 25/15 A2994 RMK T02500150 IEM_DS3505
ZGSZ,2007-02-23 06:00,ZGSZ 230600Z AUTO 14012KT 19SM 23/14 A2991 RMK SLP142 T02260142 57025 IEM_DS3505
ZGSZ,2007-02-23 07:00,ZGSZ 230700Z AUTO 12010KT 7SM 24/15 A2991 RMK T02400150 IEM_DS3505
ZGSZ,2007-02-23 08:00,ZGSZ 230800Z AUTO 11010KT 7SM 24/14 A2991 RMK T02400140 IEM_DS3505
ZGSZ,2007-02-23 09:00,ZGSZ 230900Z AUTO 07008KT 17SM 21/14 A2991 RMK SLP140 T02090136 57002 IEM_DS3505
ZGSZ,2007-02-23 10:00,ZGSZ 231000Z AUTO 11012KT 7SM 22/13 A2994 RMK T02200130 IEM_DS3505
ZGSZ,2007-02-23 11:00,ZGSZ 231100Z AUTO 11010KT 7SM 21/14 A2994 RMK T02100140 IEM_DS3505
ZGSZ,2007-02-23 12:00,ZGSZ 231200Z AUTO 09006KT 14SM 20/15 A2997 RMK SLP151 T01960146 52010 IEM_DS3505
ZGSZ,2007-02-23 13:00,ZGSZ 231300Z AUTO 12012KT 6SM 20/14 A2997 RMK T02000140 IEM_DS3505
ZGSZ,2007-02-23 14:00,ZGSZ 231400Z AUTO 12010KT 7SM 20/15 A3000 RMK T02000150 IEM_DS3505
ZGSZ,2007-02-23 15:00,ZGSZ 231500Z AUTO 07008KT 9SM 19/15 A3000 RMK SLP161 T01930148 52011 IEM_DS3505
ZGSZ,2007-02-23 16:00,ZGSZ 231600Z AUTO 11012KT 7SM 20/15 A3000 RMK T02000150 IEM_DS3505
ZGSZ,2007-02-23 17:00,ZGSZ 231700Z AUTO 10008KT 7SM 20/14 A3000 RMK T02000140 IEM_DS3505
ZGSZ,2007-02-23 18:00,ZGSZ 231800Z AUTO 07008KT 9SM 19/15 A2997 RMK SLP157 T01880147 57004 IEM_DS3505
ZGSZ,2007-02-23 19:00,ZGSZ 231900Z AUTO 11014KT 7SM 20/15 A2994 RMK T02000150 IEM_DS3505
ZGSZ,2007-02-23 20:00,ZGSZ 232000Z AUTO 10016KT 7SM 20/14 A2991 RMK T02000140 IEM_DS3505
ZGSZ,2007-02-23 21:00,ZGSZ 232100Z AUTO 07006KT 7SM 18/13 A2994 RMK SLP146 T01800127 57011 IEM_DS3505
ZGSZ,2007-02-23 22:00,ZGSZ 232200Z AUTO 10012KT 7SM 19/11 A2994 RMK T01900110 IEM_DS3505
ZGSZ,2007-02-23 23:00,ZGSZ 232300Z AUTO 10008KT 7SM 20/11 A2997 RMK T02000110 IEM_DS3505
ZGSZ,2007-02-24 00:00,ZGSZ 240000Z AUTO 07008KT 12SM 18/10 A2997 RMK SLP155 T01850101 52008 IEM_DS3505
ZGSZ,2007-02-24 01:00,ZGSZ 240100Z AUTO 11006KT 7SM 20/11 A3000 RMK T02000110 IEM_DS3505
ZGSZ,2007-02-24 02:00,ZGSZ 240200Z AUTO 11010KT 7SM 21/12 A3000 RMK T02100120 IEM_DS3505
ZGSZ,2007-02-24 03:00,ZGSZ 240300Z AUTO 09008KT 7SM 20/14 A3000 RMK SLP162 T01950141 52007 IEM_DS3505
ZGSZ,2007-02-24 04:00,ZGSZ 240400Z AUTO 11010KT 5SM 23/15 A2997 RMK T02300150 IEM_DS3505
ZGSZ,2007-02-24 05:00,ZGSZ 240500Z AUTO 09006KT 4SM 22/16 A2994 RMK T02200160 IEM_DS3505
ZGSZ,2007-02-24 06:00,ZGSZ 240600Z AUTO 09006KT 4SM 20/16 A2991 RMK SLP134 T01960155 57027 IEM_DS3505
ZGSZ,2007-02-24 07:00,ZGSZ 240700Z AUTO 10008KT 3SM 21/16 A2988 RMK T02100160 IEM_DS3505
ZGSZ,2007-02-24 08:00,ZGSZ 240800Z AUTO 07004KT 3SM 20/16 A2988 RMK T02000160 IEM_DS3505
ZGSZ,2007-02-24 09:00,ZGSZ 240900Z AUTO 07006KT 4SM 19/16 A2988 RMK SLP130 T01870156 57005 IEM_DS3505
ZGSZ,2007-02-24 10:00,ZGSZ 241000Z AUTO 2 1/2SM 20/17 A2991 RMK T02000170 IEM_DS3505
ZGSZ,2007-02-24 11:00,ZGSZ 241100Z AUTO 1 1/2SM 19/17 A2991 RMK T01900170 IEM_DS3505
ZGSZ,2007-02-24 12:00,ZGSZ 241200Z AUTO 07004KT 3SM 18/16 A2994 RMK 60004 SLP140 T01790164 52010 IEM_DS3505
ZGSZ,2007-02-24 13:00,ZGSZ 241300Z AUTO 1 1/2SM 19/17 A2994 RMK T01900170 IEM_DS3505
ZGSZ,2007-02-24 14:00,ZGSZ 241400Z AUTO 02006KT 1 1/4SM 19/17 A2994 RMK T01900170 IEM_DS3505
ZGSZ,2007-02-24 15:00,ZGSZ 241500Z AUTO 07004KT 2 1/2SM 18/16 A2994 RMK SLP142 T01830165 52002 IEM_DS3505
ZGSZ,2007-02-24 16:00,ZGSZ 241600Z AUTO 04006KT 1 1/2SM 19/16 A2994 RMK T01900160 IEM_DS3505
ZGSZ,2007-02-24 17:00,ZGSZ 241700Z AUTO 1 1/2SM 19/15 A2991 RMK T01900150 IEM_DS3505
ZGSZ,2007-02-24 18:00,ZGSZ 241800Z AUTO 07004KT 1 1/2SM 18/16 A2991 RMK 60000 SLP132 T01830165 57009 IEM_DS3505
ZGSZ,2007-02-24 19:00,ZGSZ 241900Z AUTO 36008KT 1 1/4SM 18/15 A2991 RMK T01800150 IEM_DS3505
ZGSZ,2007-02-24 20:00,ZGSZ 242000Z AUTO 03004KT 2SM 17/15 A2991 RMK T01700150 IEM_DS3505
ZGSZ,2007-02-24 21:00,ZGSZ 242100Z AUTO 07002KT 2SM 17/16 A2991 RMK 70027 SLP135 T01700160 52002 IEM_DS3505
ZGSZ,2007-02-24 22:00,ZGSZ 242200Z AUTO 34004KT 2 1/2SM 18/16 A2994 RMK T01800160 IEM_DS3505
ZGSZ,2007-02-24 23:00,ZGSZ 242300Z AUTO 01004KT 3SM 18/16 A2994 RMK T01800160 IEM_DS3505
ZGSZ,2007-02-25 00:00,ZGSZ 250000Z AUTO 36002KT 9SM 18/16 A2997 RMK 60031 70035 SLP152 T01760158 52017 IEM_DS3505
ZGSZ,2007-02-25 01:00,ZGSZ 250100Z AUTO 05010KT 7SM 19/15 A2997 RMK T01900150 IEM_DS3505
ZGSZ,2007-02-25 02:00,ZGSZ 250200Z AUTO 01010KT 7SM 20/14 A3000 RMK T02000140 IEM_DS3505
ZGSZ,2007-02-25 03:00,ZGSZ 250300Z AUTO 36008KT 16SM 20/14 A3000 RMK SLP158 T01980137 52006 IEM_DS3505
ZGSZ,2007-02-25 04:00,ZGSZ 250400Z 02005G10MPS 340V070 CAVOK 23/14 Q1015 NOSIG
ZGSZ,2007-02-25 05:00,ZGSZ 250500Z 02005MPS 350V070 CAVOK 24/13 Q1014 NOSIG
ZGSZ,2007-02-25 06:00,ZGSZ 250600Z AUTO 22004KT 19SM 24/14 A2991 RMK SLP133 T02420140 57024 IEM_DS3505
ZGSZ,2007-02-25 07:00,ZGSZ 250700Z AUTO 36010KT 6SM 25/13 A2988 RMK T02500130 IEM_DS3505
ZGSZ,2007-02-25 08:00,ZGSZ 250800Z AUTO 01008KT 6SM 25/13 A2988 RMK T02500130 IEM_DS3505
ZGSZ,2007-02-25 09:00,ZGSZ 250900Z AUTO 09002KT 16SM 23/15 A2988 RMK SLP124 T02340147 57009 IEM_DS3505
ZGSZ,2007-02-25 10:00,ZGSZ 251000Z AUTO 04008KT 6SM 24/13 A2988 RMK T02400130 IEM_DS3505
ZGSZ,2007-02-25 11:00,ZGSZ 251100Z AUTO 06004KT 7SM 23/14 A2991 RMK T02300140 IEM_DS3505
ZGSZ,2007-02-25 12:00,ZGSZ 251200Z AUTO 07006KT 16SM 20/15 A2994 RMK SLP143 T02030153 52018 IEM_DS3505
ZGSZ,2007-02-25 13:00,ZGSZ 251300Z AUTO 13006KT 7SM 22/14 A2994 RMK T02200140 IEM_DS3505
ZGSZ,2007-02-25 14:00,ZGSZ 251400Z AUTO 13008KT 7SM 21/16 A2997 RMK T02100160 IEM_DS3505
ZGSZ,2007-02-25 15:00,ZGSZ 251500Z AUTO 09004KT 6SM 20/16 A2997 RMK SLP154 T01970162 52012 IEM_DS3505
ZGSZ,2007-02-25 16:00,ZGSZ 251600Z AUTO 09004KT 4SM 21/16 A2997 RMK T02100160 IEM_DS3505
ZGSZ,2007-02-25 17:00,ZGSZ 251700Z AUTO 10008KT 4SM 20/16 A2997 RMK T02000160 IEM_DS3505
ZGSZ,2007-02-25 18:00,ZGSZ 251800Z AUTO 04006KT 6SM 19/15 A2997 RMK SLP154 T01870146 54000 IEM_DS3505
ZGSZ,2007-02-25 19:00,ZGSZ 251900Z AUTO 10006KT 5SM 20/15 A2997 RMK T02000150 IEM_DS3505
ZGSZ,2007-02-25 20:00,ZGSZ 252000Z AUTO 10010KT 7SM 19/15 A2997 RMK T01900150 IEM_DS3505
ZGSZ,2007-02-25 21:00,ZGSZ 252100Z AUTO 07008KT 9SM 18/13 A2997 RMK 70007 SLP155 T01800131 52001 IEM_DS3505
ZGSZ,2007-02-25 22:00,ZGSZ 252200Z AUTO 11010KT 7SM 19/14 A2997 RMK T01900140 IEM_DS3505
ZGSZ,2007-02-25 23:00,ZGSZ 252300Z AUTO 10010KT 7SM 19/14 A3000 RMK T01900140 IEM_DS3505
ZGSZ,2007-02-26 00:00,ZGSZ 260000Z AUTO 07004KT 9SM 18/13 A3003 RMK SLP178 T01780131 52022 IEM_DS3505
ZGSZ,2007-02-26 01:00,ZGSZ 260100Z AUTO 11012KT 6SM 19/14 A3006 RMK T01900140 IEM_DS3505
ZGSZ,2007-02-26 02:00,ZGSZ 260200Z AUTO 12012KT 6SM 21/14 A3006 RMK T02100140 IEM_DS3505
ZGSZ,2007-02-26 03:00,ZGSZ 260300Z AUTO 11010KT 7SM 20/14 A3003 RMK SLP181 T02020137 52003 IEM_DS3505
ZGSZ,2007-02-26 04:00,ZGSZ 260400Z AUTO 13010KT 6SM 23/14 A3000 RMK T02300140 IEM_DS3505
ZGSZ,2007-02-26 05:00,ZGSZ 260500Z AUTO 15008KT 7SM 24/15 A2997 RMK T02400150 IEM_DS3505
ZGSZ,2007-02-26 06:00,ZGSZ 260600Z AUTO 07006KT 6SM 21/14 A2994 RMK SLP151 T02060140 57029 IEM_DS3505
ZGSZ,2007-02-26 07:00,ZGSZ 260700Z AUTO 16004KT 7SM 23/14 A2994 RMK T02300140 IEM_DS3505
ZGSZ,2007-02-26 08:00,ZGSZ 260800Z AUTO 11006KT 7SM 22/14 A2994 RMK T02200140 IEM_DS3505
ZGSZ,2007-02-26 09:00,ZGSZ 260900Z AUTO 11008KT 7SM 19/13 A2997 RMK SLP155 T01860132 52003 IEM_DS3505
ZGSZ,2007-02-26 10:00,ZGSZ 261000Z AUTO 12014KT 4SM 20/14 A2997 RMK T02000140 IEM_DS3505
ZGSZ,2007-02-26 11:00,ZGSZ 261100Z AUTO 10010KT 5SM 20/13 A2997 RMK T02000130 IEM_DS3505
ZGSZ,2007-02-26 12:00,ZGSZ 261200Z AUTO 07004KT 9SM 18/13 A2997 RMK SLP163 T01830127 52008 IEM_DS3505
ZGSZ,2007-02-26 13:00,ZGSZ 261300Z AUTO 11008KT 4SM 20/13 A3000 RMK T02000130 IEM_DS3505
ZGSZ,2007-02-26 14:00,ZGSZ 261400Z AUTO 10008KT 4SM 19/13 A3003 RMK T01900130 IEM_DS3505
ZGSZ,2007-02-26 15:00,ZGSZ 261500Z AUTO 09006KT 6SM 18/14 A3003 RMK SLP179 T01790136 52016 IEM_DS3505
ZGSZ,2007-02-26 16:00,ZGSZ 261600Z AUTO 10005KT 7SM 15/11 A3003 RMK T01480108 IEM_DS3505
ZGSZ,2007-02-26 17:00,ZGSZ 261700Z AUTO 11010KT 4SM 19/13 A3003 RMK T01900130 IEM_DS3505
ZGSZ,2007-02-26 18:00,ZGSZ 261800Z AUTO 11006KT 7SM 17/13 A3003 RMK SLP172 T01720131 57007 IEM_DS3505
ZGSZ,2007-02-26 19:00,ZGSZ 261900Z AUTO 08006KT 4SM 15/10 A3000 RMK T01540104 IEM_DS3505
ZGSZ,2007-02-26 20:00,ZGSZ 262000Z AUTO 11008KT 4SM 18/14 A3000 RMK T01800140 IEM_DS3505
ZGSZ,2007-02-26 21:00,ZGSZ 262100Z AUTO 09008KT 6SM 17/12 A2997 RMK SLP163 T01670123 57009 IEM_DS3505
ZGSZ,2007-02-26 22:00,ZGSZ 262200Z AUTO 09005KT 4SM 16/11 A3000 RMK T01590111 IEM_DS3505
ZGSZ,2007-02-26 23:00,ZGSZ 262300Z AUTO 12008KT 6SM 17/12 A3003 RMK T01700120 IEM_DS3505
ZGSZ,2007-02-27 00:00,ZGSZ 270000Z AUTO 07004KT 11SM 16/11 A3003 RMK SLP180 T01630110 52017 IEM_DS3505
ZGSZ,2007-02-27 01:00,ZGSZ 270100Z AUTO 06005KT 6SM 14/14 A3006 RMK T01430142 IEM_DS3505
ZGSZ,2007-02-27 02:00,ZGSZ 270200Z AUTO 10010KT 6SM 20/09 A3009 RMK T02000090 IEM_DS3505
ZGSZ,2007-02-27 03:00,ZGSZ 270300Z AUTO 09006KT 17SM 20/08 A3006 RMK SLP188 T02020079 52008 IEM_DS3505
ZGSZ,2007-02-27 04:00,ZGSZ 270400Z 11003MPS 040V140 CAVOK 23/07 Q1018 NOSIG
ZGSZ,2007-02-27 05:00,ZGSZ 270500Z 13003MPS 090V190 CAVOK 23/07 Q1017 NOSIG
ZGSZ,2007-02-27 06:00,ZGSZ 270600Z AUTO 07006KT 19SM 22/09 A2997 RMK SLP157 T02180090 57030 IEM_DS3505
ZGSZ,2007-02-27 07:00,ZGSZ 270700Z AUTO 23008KT 6SM 21/12 A2997 RMK T02100120 IEM_DS3505
ZGSZ,2007-02-27 08:00,ZGSZ 270800Z AUTO 17008KT 6SM 21/14 A2994 RMK T02100140 IEM_DS3505
ZGSZ,2007-02-27 09:00,ZGSZ 270900Z AUTO 14008KT 19SM 20/13 A2994 RMK SLP149 T02030130 57009 IEM_DS3505
ZGSZ,2007-02-27 10:00,ZGSZ 271000Z AUTO 24004KT 6SM 20/15 A2997 RMK T02000150 IEM_DS3505
ZGSZ,2007-02-27 11:00,ZGSZ 271100Z AUTO 00000KT 6SM 20/15 A2997 RMK T02000150 IEM_DS3505
ZGSZ,2007-02-27 12:00,ZGSZ 271200Z AUTO 09004KT 14SM 19/13 A3000 RMK SLP160 T01870127 52011 IEM_DS3505
ZGSZ,2007-02-27 13:00,ZGSZ 271300Z AUTO 10008KT 7SM 20/14 A3000 RMK T02000140 IEM_DS3505
ZGSZ,2007-02-27 14:00,ZGSZ 271400Z AUTO 11008KT 7SM 20/13 A3000 RMK T02000130 IEM_DS3505
ZGSZ,2007-02-27 15:00,ZGSZ 271500Z AUTO 07004KT 10SM 19/14 A3003 RMK SLP170 T01860145 52010 IEM_DS3505
ZGSZ,2007-02-27 16:00,ZGSZ 271600Z AUTO 10008KT 7SM 20/14 A3000 RMK T02000140 IEM_DS3505
ZGSZ,2007-02-27 17:00,ZGSZ 271700Z AUTO 09004KT 7SM 20/14 A3000 RMK T02000140 IEM_DS3505
ZGSZ,2007-02-27 18:00,ZGSZ 271800Z AUTO 09006KT 9SM 19/14 A3000 RMK SLP162 T01860145 57007 IEM_DS3505
ZGSZ,2007-02-27 19:00,ZGSZ 271900Z AUTO 08006KT 7SM 19/15 A2997 RMK T01900150 IEM_DS3505
ZGSZ,2007-02-27 20:00,ZGSZ 272000Z AUTO 08006KT 7SM 19/14 A2997 RMK T01900140 IEM_DS3505
ZGSZ,2007-02-27 21:00,ZGSZ 272100Z AUTO 07006KT 9SM 19/14 A2997 RMK SLP155 T01860137 57007 IEM_DS3505
ZGSZ,2007-02-27 22:00,ZGSZ 272200Z AUTO 11010KT 7SM 20/13 A2997 RMK T02000130 IEM_DS3505
ZGSZ,2007-02-27 23:00,ZGSZ 272300Z AUTO 08008KT 7SM 20/13 A3000 RMK T02000130 IEM_DS3505
ZGSZ,2007-02-28 00:00,ZGSZ 280000Z AUTO 09008KT 16SM 19/14 A3003 RMK SLP171 T01860135 52015 IEM_DS3505
ZGSZ,2007-02-28 01:00,ZGSZ 280100Z AUTO 09008KT 7SM 21/14 A3003 RMK T02100140 IEM_DS3505
ZGSZ,2007-02-28 02:00,ZGSZ 280200Z AUTO 10008KT 7SM 21/14 A3003 RMK T02100140 IEM_DS3505
ZGSZ,2007-02-28 03:00,ZGSZ 280300Z AUTO 09006KT 16SM 21/14 A3003 RMK SLP180 T02110140 52009 IEM_DS3505
ZGSZ,2007-02-28 05:00,ZGSZ 280500Z 10006MPS 070V140 9999 BKN050 24/14 Q1016 NOSIG
ZGSZ,2007-02-28 06:00,ZGSZ 280600Z AUTO 07004G21KT 16SM 22/14 A2994 RMK SLP153 T02210142 57026 IEM_DS3505
ZGSZ,2007-02-28 07:00,ZGSZ 280700Z AUTO 10012KT 6SM 25/15 A2994 RMK T02500150 IEM_DS3505
ZGSZ,2007-02-28 08:00,ZGSZ 280800Z AUTO 12008KT 6SM 25/15 A2994 RMK T02500150 IEM_DS3505
ZGSZ,2007-02-28 09:00,ZGSZ 280900Z AUTO 07008KT 16SM 22/14 A2994 RMK SLP145 T02210142 57008 IEM_DS3505
ZGSZ,2007-02-28 10:00,ZGSZ 281000Z AUTO 11012KT 6SM 22/15 A2994 RMK T02200150 IEM_DS3505
ZGSZ,2007-02-28 11:00,ZGSZ 281100Z AUTO 12012KT 6SM 22/15 A2997 RMK T02200150 IEM_DS3505
ZGSZ,2007-02-28 15:00,ZGSZ 281500Z AUTO 07004KT 7SM 19/15 RMK SLP156 T01930148 57002 IEM_DS3505
ZGSZ,2007-02-28 16:00,ZGSZ 281600Z AUTO 11006KT 6SM 21/15 A2997 RMK T02100150 IEM_DS3505
ZGSZ,2007-02-28 17:00,ZGSZ 281700Z AUTO 11006KT 6SM 21/15 A2997 RMK T02100150 IEM_DS3505
ZGSZ,2007-02-28 18:00,ZGSZ 281800Z AUTO 07006KT 7SM 19/15 A2997 RMK SLP151 T01910152 57005 IEM_DS3505
ZGSZ,2007-02-28 19:00,ZGSZ 281900Z AUTO 12004KT 7SM 20/16 A2997 RMK T02000160 IEM_DS3505
ZGSZ,2007-02-28 20:00,ZGSZ 282000Z AUTO 09004KT 7SM 20/16 A2994 RMK T02000160 IEM_DS3505
ZGSZ,2007-02-28 21:00,ZGSZ 282100Z AUTO 09004KT 6SM 19/15 A2994 RMK SLP147 T01900147 57004 IEM_DS3505
ZGSZ,2007-02-28 22:00,ZGSZ 282200Z AUTO 12006KT 7SM 19/16 A2997 RMK T01900160 IEM_DS3505
ZGSZ,2007-02-28 23:00,ZGSZ 282300Z AUTO 11010KT 6SM 20/15 A2997 RMK T02000150 IEM_DS3505
ZGSZ,2007-03-01 00:00,ZGSZ 010000Z AUTO 07004KT 12SM 19/15 A3000 RMK 60000 70000 SLP163 T01880149 52015 IEM_DS3505
ZGSZ,2007-03-01 01:00,ZGSZ 010100Z AUTO 09006KT 7SM 20/16 A3000 RMK T02000160 IEM_DS3505
ZGSZ,2007-03-01 02:00,ZGSZ 010200Z AUTO 08004KT 6SM 20/16 A3003 RMK T02000160 IEM_DS3505
ZGSZ,2007-03-01 03:00,ZGSZ 010300Z AUTO 07006KT 16SM 20/15 A3003 RMK SLP174 T01970154 52011 IEM_DS3505
ZGSZ,2007-03-01 04:00,ZGSZ 010400Z AUTO 11006KT 5SM 21/17 A3003 RMK T02100170 IEM_DS3505
ZGSZ,2007-03-01 05:00,ZGSZ 010500Z AUTO 11008KT 7SM 23/17 A3000 RMK T02300170 IEM_DS3505
ZGSZ,2007-03-01 06:00,ZGSZ 010600Z AUTO 09006KT 12SM 20/16 A2997 RMK 60001 SLP156 T02040158 57017 IEM_DS3505
ZGSZ,2007-03-01 07:00,ZGSZ 010700Z AUTO 09008KT 7SM 24/17 A2994 RMK T02400170 IEM_DS3505
ZGSZ,2007-03-01 08:00,ZGSZ 010800Z AUTO 10008KT 6SM 23/17 A2997 RMK T02300170 IEM_DS3505
ZGSZ,2007-03-01 09:00,ZGSZ 010900Z AUTO 09004KT 14SM 21/16 A2994 RMK SLP149 T02140157 57007 IEM_DS3505
ZGSZ,2007-03-01 10:00,ZGSZ 011000Z AUTO 10006KT 6SM 23/17 A2994 RMK T02300170 IEM_DS3505
ZGSZ,2007-03-01 11:00,ZGSZ 011100Z AUTO 09006KT 7SM 23/17 A2994 RMK T02300170 IEM_DS3505
ZGSZ,2007-03-01 12:00,ZGSZ 011200Z AUTO 07006KT 9SM 20/15 A2997 RMK SLP152 T02040154 52003 IEM_DS3505
ZGSZ,2007-03-01 13:00,ZGSZ 011300Z AUTO 06004KT 4SM 21/16 A2997 RMK T02100160 IEM_DS3505
ZGSZ,2007-03-01 14:00,ZGSZ 011400Z AUTO 02006KT 4SM 21/16 A2997 RMK T02100160 IEM_DS3505
ZGSZ,2007-03-01 15:00,ZGSZ 011500Z AUTO 07004KT 9SM 20/16 A2997 RMK SLP157 T01980159 52005 IEM_DS3505
ZGSZ,2007-03-01 18:00,ZGSZ 011800Z AUTO 04004KT 6SM 19/16 A2997 RMK SLP148 T01910161 57009 IEM_DS3505
ZGSZ,2007-03-01 19:00,ZGSZ 011900Z AUTO 02002KT 3SM 20/17 A2994 RMK T02000170 IEM_DS3505
ZGSZ,2007-03-01 20:00,ZGSZ 012000Z AUTO 03004KT 3SM 20/16 A2994 RMK T02000160 IEM_DS3505
ZGSZ,2007-03-01 21:00,ZGSZ 012100Z AUTO 04004KT 5SM 18/16 A2994 RMK 70001 SLP144 T01850159 57004 IEM_DS3505
ZGSZ,2007-03-02 00:00,ZGSZ 020000Z AUTO 04004KT 6SM 19/16 A3000 RMK 70001 SLP162 T01930162 52018 IEM_DS3505
ZGSZ,2007-03-02 01:00,ZGSZ 020100Z AUTO 10006KT 5SM 22/16 A3000 RMK T02200160 IEM_DS3505
ZGSZ,2007-03-02 02:00,ZGSZ 020200Z AUTO 12006KT 5SM 24/17 A3003 RMK T02400170 IEM_DS3505
ZGSZ,2007-03-02 03:00,ZGSZ 020300Z AUTO 14008KT 14SM 23/16 RMK SLP168 T02340165 52006 IEM_DS3505
ZGSZ,2007-03-02 04:00,ZGSZ 020400Z AUTO 28006KT 4SM 24/17 A3000 RMK T02400170 IEM_DS3505
ZGSZ,2007-03-02 05:00,ZGSZ 020500Z AUTO 27004KT 4SM 25/17 A2997 RMK T02500170 IEM_DS3505
ZGSZ,2007-03-02 06:00,ZGSZ 020600Z AUTO 07002KT 19SM 26/17 A2991 RMK SLP143 T02610172 57025 IEM_DS3505
ZGSZ,2007-03-02 07:00,ZGSZ 020700Z AUTO 22008KT 5SM 25/19 A2991 RMK T02500190 IEM_DS3505
ZGSZ,2007-03-02 08:00,ZGSZ 020800Z AUTO 21010KT 4SM 24/19 A2991 RMK T02400190 IEM_DS3505
ZGSZ,2007-03-02 09:00,ZGSZ 020900Z AUTO 09008KT 19SM 24/16 A2991 RMK SLP134 T02380161 57009 IEM_DS3505
ZGSZ,2007-03-02 10:00,ZGSZ 021000Z AUTO 17008KT 6SM 24/19 A2991 RMK T02400190 IEM_DS3505
ZGSZ,2007-03-02 11:00,ZGSZ 021100Z AUTO 16006KT 7SM 23/19 A2991 RMK T02300190 IEM_DS3505
ZGSZ,2007-03-02 12:00,ZGSZ 021200Z AUTO 07006KT 17SM 21/16 A2991 RMK SLP141 T02130165 52007 IEM_DS3505
ZGSZ,2007-03-02 13:00,ZGSZ 021300Z AUTO 11008KT 7SM 23/17 A2994 RMK T02300170 IEM_DS3505
ZGSZ,2007-03-02 14:00,ZGSZ 021400Z AUTO 10008KT 7SM 22/17 A2994 RMK T02200170 IEM_DS3505
ZGSZ,2007-03-02 15:00,ZGSZ 021500Z AUTO 07004KT 9SM 20/18 A2994 RMK SLP149 T02040180 52008 IEM_DS3505
ZGSZ,2007-03-02 16:00,ZGSZ 021600Z AUTO 12006KT 3SM 21/18 A2997 RMK T02100180 IEM_DS3505
ZGSZ,2007-03-02 17:00,ZGSZ 021700Z AUTO 12008KT 3SM 21/18 A2994 RMK T02100180 IEM_DS3505
ZGSZ,2007-03-02 18:00,ZGSZ 021800Z AUTO 07006KT 2 1/2SM 20/18 A2994 RMK SLP139 T02000181 57009 IEM_DS3505
ZGSZ,2007-03-02 19:00,ZGSZ 021900Z AUTO 00000KT 3SM 20/18 A2991 RMK T02000180 IEM_DS3505
ZGSZ,2007-03-02 20:00,ZGSZ 022000Z AUTO 00000KT 3SM 20/18 A2991 RMK T02000180 IEM_DS3505
ZGSZ,2007-03-02 21:00,ZGSZ 022100Z AUTO 07006KT 2 1/2SM 20/18 A2991 RMK SLP138 T02010177 57002 IEM_DS3505
ZGSZ,2007-03-02 22:00,ZGSZ 022200Z AUTO 02002KT 2 1/2SM 20/18 A2994 RMK T02000180 IEM_DS3505
ZGSZ,2007-03-02 23:00,ZGSZ 022300Z AUTO 02002KT 3SM 21/18 A2994 RMK T02100180 IEM_DS3505
ZGSZ,2007-03-03 00:00,ZGSZ 030000Z AUTO 11002KT 4SM 21/18 A2997 RMK SLP155 T02080178 52017 IEM_DS3505
ZGSZ,2007-03-03 01:00,ZGSZ 030100Z AUTO 11006KT 3SM 23/18 A2997 RMK T02300180 IEM_DS3505
ZGSZ,2007-03-03 02:00,ZGSZ 030200Z AUTO 12008KT 3SM 23/18 A2997 RMK T02300180 IEM_DS3505
ZGSZ,2007-03-03 03:00,ZGSZ 030300Z AUTO 11010KT 9SM 24/16 A2997 RMK SLP154 T02410159 57001 IEM_DS3505
ZGSZ,2007-03-03 04:00,ZGSZ 030400Z AUTO 22008KT 4SM 24/19 A2994 RMK T02400190 IEM_DS3505
ZGSZ,2007-03-03 05:00,ZGSZ 030500Z AUTO 21010KT 4SM 24/20 A2991 RMK T02400200 IEM_DS3505
ZGSZ,2007-03-03 06:00,ZGSZ 030600Z AUTO 18006KT 19SM 28/16 A2988 RMK SLP123 T02780161 57030 IEM_DS3505
ZGSZ,2007-03-03 07:00,ZGSZ 030700Z AUTO 23008KT 6SM 24/20 A2985 RMK T02400200 IEM_DS3505
ZGSZ,2007-03-03 08:00,ZGSZ 030800Z AUTO 22008KT 6SM 25/20 A2985 RMK T02500200 IEM_DS3505
ZGSZ,2007-03-03 09:00,ZGSZ 030900Z AUTO 18004KT 19SM 26/17 A2983 RMK SLP108 T02610166 57015 IEM_DS3505
ZGSZ,2007-03-03 10:00,ZGSZ 031000Z AUTO 21012KT 3SM 22/20 A2985 RMK T02200200 IEM_DS3505
ZGSZ,2007-03-03 11:00,ZGSZ 031100Z AUTO 19008KT 3SM 22/20 A2985 RMK T02200200 IEM_DS3505
ZGSZ,2007-03-03 12:00,ZGSZ 031200Z AUTO 18004KT 16SM 22/18 A2985 RMK SLP116 T02210181 52007 IEM_DS3505
ZGSZ,2007-03-03 13:00,ZGSZ 031300Z AUTO 20006KT 4SM 22/20 A2985 RMK T02200200 IEM_DS3505
ZGSZ,2007-03-03 14:00,ZGSZ 031400Z AUTO 20002KT 4SM 21/19 A2988 RMK T02100190 IEM_DS3505
ZGSZ,2007-03-03 15:00,ZGSZ 031500Z AUTO 04004KT 11SM 22/18 A2988 RMK SLP124 T02150175 52009 IEM_DS3505
ZGSZ,2007-03-03 16:00,ZGSZ 031600Z AUTO 24004KT 2SM 21/20 A2988 RMK T02100200 IEM_DS3505
ZGSZ,2007-03-03 17:00,ZGSZ 031700Z AUTO 00000KT 1 1/2SM 21/20 A2988 RMK T02100200 IEM_DS3505
ZGSZ,2007-03-03 18:00,ZGSZ 031800Z AUTO 04004KT 7SM 20/18 A2985 RMK SLP115 T02050179 57009 IEM_DS3505
ZGSZ,2007-03-03 19:00,ZGSZ 031900Z AUTO 00000KT 2 1/2SM 21/20 A2983 RMK T02100200 IEM_DS3505
ZGSZ,2007-03-03 20:00,ZGSZ 032000Z AUTO 11004KT 3SM 22/18 A2983 RMK T02200180 IEM_DS3505
ZGSZ,2007-03-03 21:00,ZGSZ 032100Z AUTO 04004KT 5SM 20/19 A2983 RMK 70000 SLP103 T02050186 57012 IEM_DS3505
ZGSZ,2007-03-03 22:00,ZGSZ 032200Z AUTO 10004KT 2 1/2SM 21/19 A2985 RMK T02100190 IEM_DS3505
ZGSZ,2007-03-03 23:00,ZGSZ 032300Z AUTO 00000KT 3SM 22/19 A2988 RMK T02200190 IEM_DS3505
ZGSZ,2007-03-04 00:00,ZGSZ 040000Z AUTO 07004KT 4SM 21/19 A2991 RMK 60000 70001 SLP130 T02100189 52026 IEM_DS3505
ZGSZ,2007-03-04 01:00,ZGSZ 040100Z AUTO 3SM 22/19 A2991 RMK T02200190 IEM_DS3505
ZGSZ,2007-03-04 02:00,ZGSZ 040200Z AUTO 13006KT 3SM 24/19 A2991 RMK T02400190 IEM_DS3505
ZGSZ,2007-03-04 03:00,ZGSZ 040300Z AUTO 04002KT 5SM 23/19 A2991 RMK SLP137 T02280194 52007 IEM_DS3505
ZGSZ,2007-03-04 04:00,ZGSZ 040400Z AUTO 19008KT 3SM 25/20 A2988 RMK T02500200 IEM_DS3505
ZGSZ,2007-03-04 05:00,ZGSZ 040500Z AUTO 20006KT 3SM 24/20 A2985 RMK T02400200 IEM_DS3505
ZGSZ,2007-03-04 06:00,ZGSZ 040600Z AUTO 22004KT 9SM 26/19 A2983 RMK SLP105 T02550189 57031 IEM_DS3505
ZGSZ,2007-03-04 07:00,ZGSZ 040700Z AUTO 21006KT 3SM 23/20 A2983 RMK T02300200 IEM_DS3505
ZGSZ,2007-03-04 08:00,ZGSZ 040800Z AUTO 18006KT 4SM 24/20 A2983 RMK T02400200 IEM_DS3505
ZGSZ,2007-03-04 09:00,ZGSZ 040900Z AUTO 27002KT 11SM 24/19 A2983 RMK SLP101 T02410190 57004 IEM_DS3505
ZGSZ,2007-03-04 10:00,ZGSZ 041000Z AUTO 17004KT 7SM 23/20 A2983 RMK T02300200 IEM_DS3505
ZGSZ,2007-03-04 11:00,ZGSZ 041100Z AUTO 17004KT 7SM 23/20 A2983 RMK T02300200 IEM_DS3505
ZGSZ,2007-03-04 12:00,ZGSZ 041200Z AUTO 22004KT 6SM 23/19 A2985 RMK SLP116 T02260190 52014 IEM_DS3505
ZGSZ,2007-03-04 13:00,ZGSZ 041300Z AUTO 15006KT 6SM 22/20 A2985 RMK T02200200 IEM_DS3505
ZGSZ,2007-03-04 14:00,ZGSZ 041400Z AUTO 16002KT 7SM 22/20 A2988 RMK T02200200 IEM_DS3505
ZGSZ,2007-03-04 15:00,ZGSZ 041500Z AUTO 29002KT 6SM 22/19 A2991 RMK SLP129 T02250189 52014 IEM_DS3505
ZGSZ,2007-03-04 16:00,ZGSZ 041600Z AUTO 19002KT 4SM 22/20 A2991 RMK T02200200 IEM_DS3505
ZGSZ,2007-03-04 17:00,ZGSZ 041700Z AUTO 3SM 22/20 A2991 RMK T02200200 IEM_DS3505
ZGSZ,2007-03-04 18:00,ZGSZ 041800Z AUTO 34002KT 5SM 22/19 A2991 RMK SLP131 T02180190 52002 IEM_DS3505
ZGSZ,2007-03-04 19:00,ZGSZ 041900Z AUTO 02006KT 3SM 23/19 A2988 RMK T02300190 IEM_DS3505
ZGSZ,2007-03-04 20:00,ZGSZ 042000Z AUTO 02008KT 3SM 22/18 A2988 RMK T02200180 IEM_DS3505
ZGSZ,2007-03-04 21:00,ZGSZ 042100Z AUTO 02008KT 3SM 22/17 A2991 RMK 70000 SLP130 T02170169 57001 IEM_DS3505
ZGSZ,2007-03-04 22:00,ZGSZ 042200Z AUTO 03010KT 7SM 22/15 A2994 RMK T02200150 IEM_DS3505
ZGSZ,2007-03-04 23:00,ZGSZ 042300Z AUTO 04012KT 7SM 21/15 A2994 RMK T02100150 IEM_DS3505
ZGSZ,2007-03-05 00:00,ZGSZ 050000Z AUTO 04008KT 9SM 20/13 A2997 RMK SLP152 T02000130 52021 IEM_DS3505
ZGSZ,2007-03-05 01:00,ZGSZ 050100Z AUTO 03010KT 7SM 21/14 A3000 RMK T02100140 IEM_DS3505
ZGSZ,2007-03-05 02:00,ZGSZ 050200Z AUTO 04010KT 6SM 22/12 A3000 RMK T02200120 IEM_DS3505
ZGSZ,2007-03-05 03:00,ZGSZ 050300Z AUTO 04008KT 11SM 22/13 A2997 RMK SLP158 T02150126 52006 IEM_DS3505
ZGSZ,2007-03-05 05:00,ZGSZ 050500Z AUTO 36012KT 6SM 25/12 A2994 RMK T02500120 IEM_DS3505
ZGSZ,2007-03-05 06:00,ZGSZ 050600Z AUTO 02006KT 11SM 23/13 A2994 RMK SLP141 T02310130 57017 IEM_DS3505
ZGSZ,2007-03-05 08:00,ZGSZ 050800Z AUTO 04008KT 7SM 23/12 A2991 RMK T02300120 IEM_DS3505
ZGSZ,2007-03-05 09:00,ZGSZ 050900Z AUTO 03008KT 7SM 23/12 A2994 RMK T02300120 IEM_DS3505
ZGSZ,2007-03-05 10:00,ZGSZ 051000Z AUTO 05008KT 5SM 23/12 A2994 RMK T02300120 IEM_DS3505
ZGSZ,2007-03-05 11:00,ZGSZ 051100Z AUTO 04008KT 7SM 22/12 A2997 RMK T02200120 IEM_DS3505
ZGSZ,2007-03-05 12:00,ZGSZ 051200Z AUTO 04004KT 8SM 19/15 A3000 RMK 60016 SLP164 T01880149 52021 IEM_DS3505
ZGSZ,2007-03-05 13:00,ZGSZ 051300Z AUTO 04006KT 7SM 22/11 A3000 RMK T02200110 IEM_DS3505
ZGSZ,2007-03-05 14:00,ZGSZ 051400Z AUTO 11006KT 7SM 21/13 A3003 RMK T02100130 IEM_DS3505
ZGSZ,2007-03-05 15:00,ZGSZ 051500Z AUTO 08006KT 7SM 21/12 A3003 RMK T02100120 IEM_DS3505
ZGSZ,2007-03-05 17:00,ZGSZ 051700Z AUTO 03012KT 7SM 19/09 A3003 RMK T01900090 IEM_DS3505
ZGSZ,2007-03-05 18:00,ZGSZ 051800Z AUTO 04006KT 8SM 18/09 A3003 RMK SLP175 T01770086 57001 IEM_DS3505
ZGSZ,2007-03-05 19:00,ZGSZ 051900Z AUTO 02010KT 7SM 18/08 A3003 RMK T01800080 IEM_DS3505
ZGSZ,2007-03-05 20:00,ZGSZ 052000Z AUTO 04010KT 7SM 17/08 A3000 RMK T01700080 IEM_DS3505
ZGSZ,2007-03-05 21:00,ZGSZ 052100Z AUTO 02010KT 9SM 16/07 A3006 RMK 70015 SLP179 T01560071 52003 IEM_DS3505
ZGSZ,2007-03-06 00:00,ZGSZ 060000Z AUTO 02010KT 9SM 14/07 A3012 RMK 70015 SLP199 T01430069 52019 IEM_DS3505
ZGSZ,2007-03-06 01:00,ZGSZ 060100Z AUTO 02012KT 7SM 15/06 A3015 RMK T01500060 IEM_DS3505
ZGSZ,2007-03-06 04:00,ZGSZ 060400Z AUTO 03010KT 7SM 15/06 A3012 RMK T01500060 IEM_DS3505
ZGSZ,2007-03-06 05:00,ZGSZ 060500Z AUTO 03010KT 7SM 15/06 A3009 RMK T01500060 IEM_DS3505
ZGSZ,2007-03-06 06:00,ZGSZ 060600Z AUTO 02010KT 7SM 14/07 A3009 RMK SLP186 T01390072 57016 IEM_DS3505
ZGSZ,2007-03-06 07:00,ZGSZ 060700Z AUTO 02010KT 7SM 15/06 A3006 RMK T01500060 IEM_DS3505
ZGSZ,2007-03-06 08:00,ZGSZ 060800Z AUTO 04010KT 7SM 14/06 A3003 RMK T01400060 IEM_DS3505
ZGSZ,2007-03-06 09:00,ZGSZ 060900Z AUTO 02006KT 7SM 14/08 A3003 RMK SLP177 T01370075 57009 IEM_DS3505
ZGSZ,2007-03-06 10:00,ZGSZ 061000Z AUTO 03010KT 4SM 14/06 A3006 RMK T01400060 IEM_DS3505
ZGSZ,2007-03-06 11:00,ZGSZ 061100Z AUTO 04010KT 4SM 14/06 A3006 RMK T01400060 IEM_DS3505
ZGSZ,2007-03-06 12:00,ZGSZ 061200Z AUTO 02010KT 6SM 12/07 A3006 RMK SLP183 T01240071 52006 IEM_DS3505
ZGSZ,2007-03-06 13:00,ZGSZ 061300Z AUTO 04010KT 7SM 12/07 A3009 RMK T01200070 IEM_DS3505
ZGSZ,2007-03-06 14:00,ZGSZ 061400Z AUTO 04010KT 7SM 12/07 A3012 RMK T01200070 IEM_DS3505
ZGSZ,2007-03-06 15:00,ZGSZ 061500Z AUTO 07010KT 6SM 12/08 A3006 RMK SLP192 T01150078 52008 IEM_DS3505
ZGSZ,2007-03-06 16:00,ZGSZ 061600Z AUTO 02010KT 7SM 12/06 A3012 RMK T01200060 IEM_DS3505
ZGSZ,2007-03-06 17:00,ZGSZ 061700Z AUTO 02010KT 7SM 12/06 A3009 RMK T01200060 IEM_DS3505
ZGSZ,2007-03-06 18:00,ZGSZ 061800Z AUTO 04008KT 7SM 11/07 A3006 RMK 60002 SLP183 T01070066 57009 IEM_DS3505
ZGSZ,2007-03-06 19:00,ZGSZ 061900Z AUTO 03010KT 7SM 11/06 A3006 RMK T01100060 IEM_DS3505
ZGSZ,2007-03-06 20:00,ZGSZ 062000Z AUTO 04010KT 7SM 11/05 A3006 RMK T01100050 IEM_DS3505
ZGSZ,2007-03-06 21:00,ZGSZ 062100Z AUTO 34006KT 7SM 10/06 A3006 RMK 70002 SLP187 T01040062 52004 IEM_DS3505
ZGSZ,2007-03-06 22:00,ZGSZ 062200Z AUTO 36008KT 4SM 09/06 A3012 RMK T00900060 IEM_DS3505
ZGSZ,2007-03-06 23:00,ZGSZ 062300Z AUTO 04010KT 7SM 09/06 A3009 RMK T00900060 IEM_DS3505
ZGSZ,2007-03-07 00:00,ZGSZ 070000Z AUTO 02008KT 7SM 09/07 A3009 RMK 60004 70007 SLP194 T00920070 52007 IEM_DS3505
ZGSZ,2007-03-07 01:00,ZGSZ 070100Z AUTO 01008KT 7SM 10/06 A3012 RMK T01000060 IEM_DS3505
ZGSZ,2007-03-07 02:00,ZGSZ 070200Z AUTO 01010KT 7SM 10/07 A3012 RMK T01000070 IEM_DS3505
ZGSZ,2007-03-07 03:00,ZGSZ 070300Z AUTO 04008KT 14SM 10/07 A3012 RMK SLP195 T01030070 52001 IEM_DS3505
ZGSZ,2007-03-07 04:00,ZGSZ 070400Z AUTO 02010KT 7SM 11/07 A3009 RMK T01100070 IEM_DS3505
ZGSZ,2007-03-07 05:00,ZGSZ 070500Z AUTO 04008KT 7SM 11/07 A3006 RMK T01100070 IEM_DS3505
ZGSZ,2007-03-07 06:00,ZGSZ 070600Z AUTO 07006KT 10SM 11/08 A3003 RMK 60002 SLP172 T01130076 57023 IEM_DS3505
ZGSZ,2007-03-07 07:00,ZGSZ 070700Z AUTO 02008KT 7SM 12/07 A3000 RMK T01200070 IEM_DS3505
ZGSZ,2007-03-07 08:00,ZGSZ 070800Z AUTO 02008KT 7SM 12/07 A3000 RMK T01200070 IEM_DS3505
ZGSZ,2007-03-07 09:00,ZGSZ 070900Z AUTO 04008KT 11SM 11/07 A2997 RMK SLP155 T01120069 57017 IEM_DS3505
ZGSZ,2007-03-07 10:00,ZGSZ 071000Z AUTO 03008KT 7SM 12/07 A3000 RMK T01200070 IEM_DS3505
ZGSZ,2007-03-07 11:00,ZGSZ 071100Z AUTO 02008KT 7SM 11/06 A3000 RMK T01100060 IEM_DS3505
ZGSZ,2007-03-07 12:00,ZGSZ 071200Z AUTO 36006KT 16SM 11/07 A3003 RMK SLP176 T01110072 52021 IEM_DS3505
ZGSZ,2007-03-07 13:00,ZGSZ 071300Z AUTO 03006KT 7SM 12/06 A3006 RMK T01200060 IEM_DS3505
ZGSZ,2007-03-07 14:00,ZGSZ 071400Z AUTO 04008KT 7SM 11/06 A3006 RMK T01100060 IEM_DS3505
ZGSZ,2007-03-07 15:00,ZGSZ 071500Z AUTO 04004KT 12SM 11/07 A3003 RMK SLP180 T01090074 52004 IEM_DS3505
ZGSZ,2007-03-07 16:00,ZGSZ 071600Z AUTO 02006KT 7SM 11/07 A3003 RMK T01100070 IEM_DS3505
ZGSZ,2007-03-07 17:00,ZGSZ 071700Z AUTO 03008KT 7SM 12/07 A3000 RMK T01200070 IEM_DS3505
ZGSZ,2007-03-07 18:00,ZGSZ 071800Z AUTO 04006KT 12SM 11/08 A3000 RMK SLP163 T01100079 57017 IEM_DS3505
ZGSZ,2007-03-07 19:00,ZGSZ 071900Z AUTO 01008KT 7SM 11/07 A3000 RMK T01100070 IEM_DS3505
ZGSZ,2007-03-07 20:00,ZGSZ 072000Z AUTO 36010KT 7SM 11/07 A3000 RMK T01100070 IEM_DS3505
ZGSZ,2007-03-07 21:00,ZGSZ 072100Z AUTO 04004KT 7SM 10/09 A3000 RMK 70006 SLP161 T01050086 57002 IEM_DS3505
ZGSZ,2007-03-07 22:00,ZGSZ 072200Z AUTO 02008KT 3SM 11/08 A3003 RMK T01100080 IEM_DS3505
ZGSZ,2007-03-07 23:00,ZGSZ 072300Z AUTO 02006KT 4SM 11/08 A3006 RMK T01100080 IEM_DS3505
ZGSZ,2007-03-08 00:00,ZGSZ 080000Z AUTO 02008KT 4SM 11/09 A3009 RMK 60000 70002 SLP184 T01070088 52023 IEM_DS3505
ZGSZ,2007-03-08 01:00,ZGSZ 080100Z AUTO 03008KT 5SM 11/08 A3009 RMK T01100080 IEM_DS3505
ZGSZ,2007-03-08 02:00,ZGSZ 080200Z AUTO 03008KT 5SM 12/08 A3009 RMK T01200080 IEM_DS3505
ZGSZ,2007-03-08 03:00,ZGSZ 080300Z AUTO 02008KT 4SM 12/09 A3009 RMK SLP187 T01210091 52003 IEM_DS3505
ZGSZ,2007-03-08 04:00,ZGSZ 080400Z AUTO 02008KT 4SM 13/09 A3006 RMK T01300090 IEM_DS3505
ZGSZ,2007-03-08 05:00,ZGSZ 080500Z AUTO 36008KT 5SM 14/09 A3003 RMK T01400090 IEM_DS3505
ZGSZ,2007-03-08 06:00,ZGSZ 080600Z AUTO 02002KT 6SM 14/10 A3003 RMK 60000 SLP169 T01420098 57017 IEM_DS3505
ZGSZ,2007-03-08 07:00,ZGSZ 080700Z AUTO 01008KT 4SM 14/08 A3000 RMK T01400080 IEM_DS3505
ZGSZ,2007-03-08 08:00,ZGSZ 080800Z AUTO 02010KT 5SM 14/08 A3000 RMK T01400080 IEM_DS3505
ZGSZ,2007-03-08 09:00,ZGSZ 080900Z AUTO 36006KT 4SM 14/10 A3000 RMK SLP161 T01350096 57008 IEM_DS3505
ZGSZ,2007-03-08 10:00,ZGSZ 081000Z AUTO 03008KT 4SM 13/09 A3000 RMK T01300090 IEM_DS3505
ZGSZ,2007-03-08 11:00,ZGSZ 081100Z AUTO 03006KT 4SM 13/09 A3003 RMK T01300090 IEM_DS3505
ZGSZ,2007-03-08 12:00,ZGSZ 081200Z AUTO 03008KT 4SM 13/09 A3003 RMK T01300090 IEM_DS3505
ZGSZ,2007-03-08 13:00,ZGSZ 081300Z AUTO 06006KT 3SM 13/09 A3006 RMK T01300090 IEM_DS3505
ZGSZ,2007-03-08 14:00,ZGSZ 081400Z AUTO 02006KT 4SM 13/09 A3006 RMK T01300090 IEM_DS3505
ZGSZ,2007-03-08 15:00,ZGSZ 081500Z AUTO 04006KT 5SM 13/09 A3006 RMK T01300090 IEM_DS3505
ZGSZ,2007-03-08 17:00,ZGSZ 081700Z AUTO 03006KT 4SM 13/09 A3006 RMK T01300090 IEM_DS3505
ZGSZ,2007-03-08 18:00,ZGSZ 081800Z AUTO 34004KT 1 1/2SM 12/11 A3006 RMK 60000 SLP186 T01230107 54000 IEM_DS3505
ZGSZ,2007-03-08 19:00,ZGSZ 081900Z AUTO 02010KT 3SM 12/09 A3006 RMK T01200090 IEM_DS3505
ZGSZ,2007-03-08 20:00,ZGSZ 082000Z AUTO 04006KT 3SM 13/10 A3006 RMK T01300100 IEM_DS3505
ZGSZ,2007-03-08 21:00,ZGSZ 082100Z AUTO 02006KT 1 1/2SM 12/10 A3006 RMK 70000 SLP176 T01200104 57010 IEM_DS3505
ZGSZ,2007-03-08 22:00,ZGSZ 082200Z AUTO 02008KT 4SM 13/10 A3006 RMK T01300100 IEM_DS3505
ZGSZ,2007-03-08 23:00,ZGSZ 082300Z AUTO 4SM 13/10 A3006 RMK T01300100 IEM_DS3505
ZGSZ,2007-03-09 00:00,ZGSZ 090000Z AUTO 02002KT 7SM 13/10 A3009 RMK 60000 70000 SLP192 T01290103 52015 IEM_DS3505
ZGSZ,2007-03-09 01:00,ZGSZ 090100Z AUTO 02008KT 5SM 13/09 A3009 RMK T01300090 IEM_DS3505
ZGSZ,2007-03-09 02:00,ZGSZ 090200Z AUTO 36008KT 4SM 14/10 A3012 RMK T01400100 IEM_DS3505
ZGSZ,2007-03-09 03:00,ZGSZ 090300Z AUTO 02004KT 3SM 14/11 A3009 RMK SLP198 T01390112 52007 IEM_DS3505
ZGSZ,2007-03-09 04:00,ZGSZ 090400Z AUTO 4SM 15/10 A3009 RMK T01500100 IEM_DS3505
ZGSZ,2007-03-09 05:00,ZGSZ 090500Z AUTO 35006KT 3SM 15/10 A3006 RMK T01500100 IEM_DS3505
ZGSZ,2007-03-09 06:00,ZGSZ 090600Z AUTO 02004KT 4SM 16/12 A3003 RMK SLP173 T01580125 57025 IEM_DS3505
ZGSZ,2007-03-09 07:00,ZGSZ 090700Z AUTO 3SM 17/11 A3000 RMK T01700110 IEM_DS3505
ZGSZ,2007-03-09 08:00,ZGSZ 090800Z AUTO 3SM 17/11 A3000 RMK T01700110 IEM_DS3505
ZGSZ,2007-03-09 09:00,ZGSZ 090900Z AUTO 04004KT 3SM 16/13 A3000 RMK SLP160 T01650132 57013 IEM_DS3505
ZGSZ,2007-03-09 10:00,ZGSZ 091000Z AUTO 2 1/2SM 17/12 A3000 RMK T01700120 IEM_DS3505
ZGSZ,2007-03-09 11:00,ZGSZ 091100Z AUTO 02006KT 2 1/2SM 17/11 A3000 RMK T01700110 IEM_DS3505
ZGSZ,2007-03-09 12:00,ZGSZ 091200Z AUTO 07004KT 4SM 17/14 A3003 RMK SLP174 T01670142 52014 IEM_DS3505
ZGSZ,2007-03-09 13:00,ZGSZ 091300Z AUTO 02004KT 2 1/2SM 17/12 A3006 RMK T01700120 IEM_DS3505
ZGSZ,2007-03-09 14:00,ZGSZ 091400Z AUTO 11004KT 2 1/2SM 17/14 A3006 RMK T01700140 IEM_DS3505
ZGSZ,2007-03-09 15:00,ZGSZ 091500Z AUTO 07006KT 4SM 17/15 A3006 RMK SLP182 T01680148 52008 IEM_DS3505
ZGSZ,2007-03-09 16:00,ZGSZ 091600Z AUTO 30004KT 2 1/2SM 16/13 A3003 RMK T01600130 IEM_DS3505
ZGSZ,2007-03-09 17:00,ZGSZ 091700Z AUTO 01006KT 2 1/2SM 16/13 A3006 RMK T01600130 IEM_DS3505
ZGSZ,2007-03-09 18:00,ZGSZ 091800Z AUTO 07004KT 2 1/2SM 17/15 A3003 RMK SLP175 T01710154 57006 IEM_DS3505
ZGSZ,2007-03-09 19:00,ZGSZ 091900Z AUTO 2SM 16/13 A3003 RMK T01600130 IEM_DS3505
ZGSZ,2007-03-09 20:00,ZGSZ 092000Z AUTO 32004KT 2SM 16/14 A3000 RMK T01600140 IEM_DS3505
ZGSZ,2007-03-09 21:00,ZGSZ 092100Z AUTO 04004KT 1 1/4SM 16/15 A3000 RMK SLP167 T01650150 57008 IEM_DS3505
ZGSZ,2007-03-09 22:00,ZGSZ 092200Z AUTO 32004KT 1 1/2SM 16/14 A3003 RMK T01600140 IEM_DS3505
ZGSZ,2007-03-09 23:00,ZGSZ 092300Z AUTO 2SM 16/13 A3003 RMK T01600130 IEM_DS3505
ZGSZ,2007-03-10 00:00,ZGSZ 100000Z AUTO 07006KT 1 1/4SM 18/16 A3006 RMK SLP177 T01750160 52010 IEM_DS3505
ZGSZ,2007-03-10 01:00,ZGSZ 100100Z AUTO 31006KT 1 1/2SM 17/14 A3006 RMK T01700140 IEM_DS3505
ZGSZ,2007-03-10 02:00,ZGSZ 100200Z AUTO 30006KT 1 1/2SM 18/14 A3006 RMK T01800140 IEM_DS3505
ZGSZ,2007-03-10 03:00,ZGSZ 100300Z AUTO 18002KT 2 1/2SM 21/17 A3006 RMK SLP182 T02070167 52005 IEM_DS3505
ZGSZ,2007-03-10 04:00,ZGSZ 100400Z AUTO 30006KT 1SM 18/14 A3003 RMK T01800140 IEM_DS3505
ZGSZ,2007-03-10 05:00,ZGSZ 100500Z AUTO 30008KT 1SM 19/15 A3000 RMK T01900150 IEM_DS3505
ZGSZ,2007-03-10 06:00,ZGSZ 100600Z AUTO 22004KT 2 1/2SM 23/17 A2997 RMK SLP152 T02270172 57029 IEM_DS3505
ZGSZ,2007-03-10 07:00,ZGSZ 100700Z AUTO 31008KT 1SM 20/15 A2994 RMK T02000150 IEM_DS3505
ZGSZ,2007-03-10 08:00,ZGSZ 100800Z AUTO 31008KT 1SM 20/15 A2994 RMK T02000150 IEM_DS3505
ZGSZ,2007-03-10 09:00,ZGSZ 100900Z AUTO 20004KT 2SM 23/18 A2994 RMK SLP141 T02270176 57011 IEM_DS3505
ZGSZ,2007-03-10 10:00,ZGSZ 101000Z AUTO 31004KT 1SM 19/16 A2994 RMK T01900160 IEM_DS3505
ZGSZ,2007-03-10 11:00,ZGSZ 101100Z AUTO 31006KT 1SM 19/15 A2997 RMK T01900150 IEM_DS3505
ZGSZ,2007-03-10 12:00,ZGSZ 101200Z AUTO 27004KT 1 1/2SM 20/17 A3000 RMK SLP159 T02010167 52017 IEM_DS3505
ZGSZ,2007-03-10 13:00,ZGSZ 101300Z AUTO 31006KT 1SM 18/15 A3000 RMK T01800150 IEM_DS3505
ZGSZ,2007-03-10 14:00,ZGSZ 101400Z AUTO 31008KT 1SM 18/15 A3003 RMK T01800150 IEM_DS3505
ZGSZ,2007-03-10 15:00,ZGSZ 101500Z AUTO 27006KT 1 1/4SM 19/16 A3003 RMK SLP169 T01860164 52010 IEM_DS3505
ZGSZ,2007-03-10 16:00,ZGSZ 101600Z AUTO 32006KT 1SM 18/15 A3003 RMK T01800150 IEM_DS3505
ZGSZ,2007-03-10 17:00,ZGSZ 101700Z AUTO 32008KT 1/2SM 18/15 A3003 RMK T01800150 IEM_DS3505
ZGSZ,2007-03-10 18:00,ZGSZ 101800Z AUTO 25002KT 1SM 18/16 A3003 RMK SLP166 T01830163 57002 IEM_DS3505
ZGSZ,2007-03-10 19:00,ZGSZ 101900Z AUTO 32006KT 1/2SM 17/15 A3000 RMK T01700150 IEM_DS3505
ZGSZ,2007-03-10 20:00,ZGSZ 102000Z AUTO 36006KT 1/2SM 17/15 A3003 RMK T01700150 IEM_DS3505
ZGSZ,2007-03-10 21:00,ZGSZ 102100Z AUTO 02006KT 1SM 17/16 A3003 RMK 70000 SLP170 T01730162 52004 IEM_DS3505
ZGSZ,2007-03-10 22:00,ZGSZ 102200Z AUTO 34006KT 4SM 17/15 A3003 RMK T01700150 IEM_DS3505
ZGSZ,2007-03-10 23:00,ZGSZ 102300Z AUTO 35010KT 4SM 16/14 A3006 RMK T01600140 IEM_DS3505
ZGSZ,2007-03-11 00:00,ZGSZ 110000Z AUTO 07006KT 11SM 16/13 A3009 RMK 60000 70000 SLP191 T01650132 52020 IEM_DS3505
ZGSZ,2007-03-11 01:00,ZGSZ 110100Z AUTO 01010KT 3SM 16/13 A3012 RMK T01600130 IEM_DS3505
ZGSZ,2007-03-11 02:00,ZGSZ 110200Z AUTO 35006KT 4SM 16/13 A3012 RMK T01600130 IEM_DS3505
ZGSZ,2007-03-11 03:00,ZGSZ 110300Z AUTO 34006KT 7SM 17/14 A3012 RMK SLP201 T01690142 52010 IEM_DS3505
ZGSZ,2007-03-11 04:00,ZGSZ 110400Z AUTO 36010KT 4SM 16/12 A3012 RMK T01600120 IEM_DS3505
ZGSZ,2007-03-11 05:00,ZGSZ 110500Z AUTO 05006KT 4SM 17/12 A3009 RMK T01700120 IEM_DS3505
ZGSZ,2007-03-11 06:00,ZGSZ 110600Z AUTO 04006KT 2SM 17/15 A3006 RMK 60000 SLP179 T01660150 57022 IEM_DS3505
ZGSZ,2007-03-11 07:00,ZGSZ 110700Z AUTO 36008KT 3SM 16/13 A3006 RMK T01600130 IEM_DS3505
ZGSZ,2007-03-11 08:00,ZGSZ 110800Z AUTO 01006KT 2 1/2SM 16/13 A3003 RMK T01600130 IEM_DS3505
ZGSZ,2007-03-11 09:00,ZGSZ 110900Z AUTO 02004KT 2 1/2SM 17/14 A3003 RMK SLP176 T01660144 57003 IEM_DS3505
ZGSZ,2007-03-11 10:00,ZGSZ 111000Z AUTO 04006KT 2 1/2SM 17/13 A3003 RMK T01700130 IEM_DS3505
ZGSZ,2007-03-11 11:00,ZGSZ 111100Z AUTO 02008KT 2 1/2SM 16/12 A3006 RMK T01600120 IEM_DS3505
ZGSZ,2007-03-11 12:00,ZGSZ 111200Z AUTO 07008KT 2 1/2SM 16/15 A3006 RMK 60000 SLP182 T01640148 52006 IEM_DS3505
ZGSZ,2007-03-11 13:00,ZGSZ 111300Z AUTO 08004KT 2SM 17/13 A3009 RMK T01700130 IEM_DS3505
ZGSZ,2007-03-11 14:00,ZGSZ 111400Z AUTO 2SM 17/13 A3009 RMK T01700130 IEM_DS3505
ZGSZ,2007-03-11 15:00,ZGSZ 111500Z AUTO 11008KT 3SM 17/14 A3009 RMK SLP194 T01740139 52012 IEM_DS3505
ZGSZ,2007-03-11 16:00,ZGSZ 111600Z AUTO 03004KT 2SM 16/14 A3009 RMK T01600140 IEM_DS3505
ZGSZ,2007-03-11 18:00,ZGSZ 111800Z AUTO 07006KT 2 1/2SM 17/14 A3006 RMK 60000 SLP190 T01680143 57004 IEM_DS3505
ZGSZ,2007-03-11 19:00,ZGSZ 111900Z AUTO 04004KT 2SM 17/14 A3006 RMK T01700140 IEM_DS3505
ZGSZ,2007-03-11 20:00,ZGSZ 112000Z AUTO 10006KT 2 1/2SM 17/14 A3006 RMK T01700140 IEM_DS3505
ZGSZ,2007-03-11 21:00,ZGSZ 112100Z AUTO 07006KT 2 1/2SM 17/14 A3006 RMK 70000 SLP183 T01660137 57007 IEM_DS3505
ZGSZ,2007-03-11 22:00,ZGSZ 112200Z AUTO 10008KT 3SM 18/14 A3009 RMK T01800140 IEM_DS3505
ZGSZ,2007-03-11 23:00,ZGSZ 112300Z AUTO 09006KT 3SM 18/14 A3009 RMK T01800140 IEM_DS3505
ZGSZ,2007-03-12 00:00,ZGSZ 120000Z AUTO 07006KT 4SM 17/14 A3012 RMK 70000 SLP202 T01690140 52018 IEM_DS3505
ZGSZ,2007-03-12 01:00,ZGSZ 120100Z AUTO 10008KT 3SM 18/15 A3012 RMK T01800150 IEM_DS3505
ZGSZ,2007-03-12 02:00,ZGSZ 120200Z AUTO 11008KT 3SM 19/15 A3015 RMK T01900150 IEM_DS3505
ZGSZ,2007-03-12 03:00,ZGSZ 120300Z AUTO 07006KT 3SM 18/14 A3012 RMK SLP208 T01760143 52007 IEM_DS3505
ZGSZ,2007-03-12 04:00,ZGSZ 120400Z AUTO 11008KT 3SM 20/15 A3009 RMK T02000150 IEM_DS3505
ZGSZ,2007-03-12 05:00,ZGSZ 120500Z AUTO 12006KT 4SM 20/15 A3006 RMK T02000150 IEM_DS3505
ZGSZ,2007-03-12 06:00,ZGSZ 120600Z AUTO 07006KT 6SM 19/15 A3003 RMK SLP177 T01890146 57031 IEM_DS3505
ZGSZ,2007-03-12 07:00,ZGSZ 120700Z AUTO 11006KT 3SM 21/15 A3000 RMK T02100150 IEM_DS3505
ZGSZ,2007-03-12 08:00,ZGSZ 120800Z AUTO 3SM 21/16 A3000 RMK T02100160 IEM_DS3505
ZGSZ,2007-03-12 09:00,ZGSZ 120900Z AUTO 07008KT 6SM 19/15 A3000 RMK SLP168 T01860147 57009 IEM_DS3505
ZGSZ,2007-03-12 10:00,ZGSZ 121000Z AUTO 3SM 19/16 A3003 RMK T01900160 IEM_DS3505
ZGSZ,2007-03-12 11:00,ZGSZ 121100Z AUTO 33004KT 3SM 19/15 A3003 RMK T01900150 IEM_DS3505
ZGSZ,2007-03-12 12:00,ZGSZ 121200Z AUTO 07006KT 3SM 18/15 A3006 RMK SLP184 T01790148 52016 IEM_DS3505
ZGSZ,2007-03-12 13:00,ZGSZ 121300Z AUTO 12010KT 2 1/2SM 19/16 A3003 RMK T01900160 IEM_DS3505
ZGSZ,2007-03-12 14:00,ZGSZ 121400Z AUTO 12006KT 2 1/2SM 19/16 A3006 RMK T01900160 IEM_DS3505
ZGSZ,2007-03-12 15:00,ZGSZ 121500Z AUTO 04004KT 2 1/2SM 18/15 A3006 RMK SLP184 T01800151 54000 IEM_DS3505
ZGSZ,2007-03-12 16:00,ZGSZ 121600Z AUTO 1 1/4SM 19/16 A3006 RMK T01900160 IEM_DS3505
ZGSZ,2007-03-12 17:00,ZGSZ 121700Z AUTO 02002KT 2SM 19/16 A3006 RMK T01900160 IEM_DS3505
ZGSZ,2007-03-12 18:00,ZGSZ 121800Z AUTO 07004KT 2 1/2SM 18/15 A3006 RMK SLP182 T01790152 57002 IEM_DS3505
ZGSZ,2007-03-12 19:00,ZGSZ 121900Z AUTO 00000KT 2SM 19/16 A3003 RMK T01900160 IEM_DS3505
ZGSZ,2007-03-12 20:00,ZGSZ 122000Z AUTO 11004KT 2SM 19/16 A3000 RMK T01900160 IEM_DS3505
ZGSZ,2007-03-12 21:00,ZGSZ 122100Z AUTO 04004KT 2 1/2SM 18/15 A3000 RMK SLP166 T01780152 57016 IEM_DS3505
ZGSZ,2007-03-12 22:00,ZGSZ 122200Z AUTO 00000KT 2SM 19/16 A3003 RMK T01900160 IEM_DS3505
ZGSZ,2007-03-12 23:00,ZGSZ 122300Z AUTO 00000KT 2SM 19/16 A3003 RMK T01900160 IEM_DS3505
ZGSZ,2007-03-13 00:00,ZGSZ 130000Z AUTO 07004KT 2 1/2SM 18/16 A3006 RMK SLP183 T01810161 52017 IEM_DS3505
ZGSZ,2007-03-13 01:00,ZGSZ 130100Z AUTO 12006KT 2 1/2SM 20/17 A3006 RMK T02000170 IEM_DS3505
ZGSZ,2007-03-13 02:00,ZGSZ 130200Z AUTO 3SM 22/17 A3006 RMK T02200170 IEM_DS3505
ZGSZ,2007-03-13 03:00,ZGSZ 130300Z AUTO 07008KT 3SM 21/17 A3006 RMK SLP183 T02120170 54000 IEM_DS3505
ZGSZ,2007-03-13 04:00,ZGSZ 130400Z AUTO 22004KT 3SM 23/18 A3000 RMK T02300180 IEM_DS3505
ZGSZ,2007-03-13 05:00,ZGSZ 130500Z AUTO 23004KT 2SM 23/18 A2997 RMK T02300180 IEM_DS3505
ZGSZ,2007-03-13 06:00,ZGSZ 130600Z AUTO 09006KT 4SM 23/18 A2994 RMK SLP148 T02320177 57034 IEM_DS3505
ZGSZ,2007-03-13 07:00,ZGSZ 130700Z AUTO 22008KT 2 1/2SM 24/19 A2991 RMK T02400190 IEM_DS3505
ZGSZ,2007-03-13 08:00,ZGSZ 130800Z AUTO 23008KT 2 1/2SM 23/19 A2991 RMK T02300190 IEM_DS3505
ZGSZ,2007-03-13 09:00,ZGSZ 130900Z AUTO 07006KT 4SM 22/18 A2991 RMK SLP133 T02240178 57015 IEM_DS3505
ZGSZ,2007-03-13 10:00,ZGSZ 131000Z AUTO 21008KT 2SM 22/19 A2991 RMK T02200190 IEM_DS3505
ZGSZ,2007-03-13 11:00,ZGSZ 131100Z AUTO 18004KT 2 1/2SM 21/19 A2991 RMK T02100190 IEM_DS3505
ZGSZ,2007-03-13 12:00,ZGSZ 131200Z AUTO 07004KT 5SM 20/18 A2991 RMK SLP140 T02050179 52007 IEM_DS3505
ZGSZ,2007-03-13 13:00,ZGSZ 131300Z AUTO 09006KT 3SM 22/18 A2994 RMK T02200180 IEM_DS3505
ZGSZ,2007-03-13 14:00,ZGSZ 131400Z AUTO 10006KT 3SM 22/18 A2997 RMK T02200180 IEM_DS3505
ZGSZ,2007-03-13 15:00,ZGSZ 131500Z AUTO 07004KT 4SM 21/18 A2997 RMK SLP155 T02060180 52015 IEM_DS3505
ZGSZ,2007-03-13 16:00,ZGSZ 131600Z AUTO 11008KT 2 1/2SM 22/18 A2994 RMK T02200180 IEM_DS3505
ZGSZ,2007-03-13 17:00,ZGSZ 131700Z AUTO 11006KT 2 1/2SM 21/18 A2994 RMK T02100180 IEM_DS3505
ZGSZ,2007-03-13 18:00,ZGSZ 131800Z AUTO 07004KT 2 1/2SM 20/18 A2991 RMK SLP139 T02000183 57016 IEM_DS3505
ZGSZ,2007-03-13 19:00,ZGSZ 131900Z AUTO 11006KT 2 1/2SM 21/18 A2991 RMK T02100180 IEM_DS3505
ZGSZ,2007-03-13 20:00,ZGSZ 132000Z AUTO 10008KT 2 1/2SM 21/18 A2991 RMK T02100180 IEM_DS3505
ZGSZ,2007-03-13 21:00,ZGSZ 132100Z AUTO 07004KT 3SM 20/18 A2991 RMK SLP140 T02030182 52001 IEM_DS3505
ZGSZ,2007-03-13 22:00,ZGSZ 132200Z AUTO 11008KT 3SM 21/18 A2991 RMK T02100180 IEM_DS3505
ZGSZ,2007-03-13 23:00,ZGSZ 132300Z AUTO 11008KT 3SM 21/18 A2994 RMK T02100180 IEM_DS3505
ZGSZ,2007-03-14 00:00,ZGSZ 140000Z AUTO 04004KT 3SM 20/18 A2994 RMK SLP152 T02050183 52012 IEM_DS3505
ZGSZ,2007-03-14 01:00,ZGSZ 140100Z AUTO 11010KT 3SM 24/19 A2994 RMK T02400190 IEM_DS3505
ZGSZ,2007-03-14 02:00,ZGSZ 140200Z AUTO 12010KT 4SM 24/19 A2994 RMK T02400190 IEM_DS3505
ZGSZ,2007-03-14 03:00,ZGSZ 140300Z AUTO 09006KT 4SM 23/18 A2994 RMK SLP151 T02270180 57001 IEM_DS3505
ZGSZ,2007-03-14 04:00,ZGSZ 140400Z AUTO 12010KT 5SM 25/19 A2991 RMK T02500190 IEM_DS3505
ZGSZ,2007-03-14 05:00,ZGSZ 140500Z AUTO 11010KT 5SM 26/19 A2988 RMK T02600190 IEM_DS3505
ZGSZ,2007-03-14 06:00,ZGSZ 140600Z AUTO 09006KT 5SM 23/18 A2985 RMK SLP120 T02320183 57031 IEM_DS3505
ZGSZ,2007-03-14 07:00,ZGSZ 140700Z AUTO 13012KT 5SM 26/19 A2983 RMK T02600190 IEM_DS3505
ZGSZ,2007-03-14 08:00,ZGSZ 140800Z AUTO 14014KT 5SM 27/19 A2980 RMK T02700190 IEM_DS3505
ZGSZ,2007-03-14 09:00,ZGSZ 140900Z AUTO 07004KT 4SM 23/18 A2980 RMK SLP096 T02270185 57024 IEM_DS3505
ZGSZ,2007-03-14 10:00,ZGSZ 141000Z AUTO 14008KT 7SM 24/19 A2980 RMK T02400190 IEM_DS3505
ZGSZ,2007-03-14 11:00,ZGSZ 141100Z AUTO 10008KT 4SM 23/19 A2980 RMK T02300190 IEM_DS3505
ZGSZ,2007-03-14 12:00,ZGSZ 141200Z AUTO 07004KT 5SM 21/18 A2983 RMK SLP104 T02130185 52008 IEM_DS3505
ZGSZ,2007-03-14 13:00,ZGSZ 141300Z AUTO 11008KT 3SM 22/19 A2983 RMK T02200190 IEM_DS3505
ZGSZ,2007-03-14 14:00,ZGSZ 141400Z AUTO 11010KT 3SM 22/19 A2983 RMK T02200190 IEM_DS3505
ZGSZ,2007-03-14 15:00,ZGSZ 141500Z AUTO 09004KT 4SM 21/19 A2983 RMK SLP110 T02100188 52006 IEM_DS3505
ZGSZ,2007-03-14 16:00,ZGSZ 141600Z AUTO 12006KT 3SM 23/19 A2985 RMK T02300190 IEM_DS3505
ZGSZ,2007-03-14 17:00,ZGSZ 141700Z AUTO 11008KT 3SM 23/19 A2983 RMK T02300190 IEM_DS3505
ZGSZ,2007-03-14 18:00,ZGSZ 141800Z AUTO 04004KT 4SM 21/19 A2983 RMK SLP104 T02080187 57005 IEM_DS3505
ZGSZ,2007-03-14 19:00,ZGSZ 141900Z AUTO 10004KT 3SM 23/19 A2983 RMK T02300190 IEM_DS3505
ZGSZ,2007-03-14 20:00,ZGSZ 142000Z AUTO 03004KT 2SM 22/19 A2980 RMK T02200190 IEM_DS3505
ZGSZ,2007-03-14 21:00,ZGSZ 142100Z AUTO 07004KT 4SM 21/19 A2980 RMK SLP100 T02080189 57004 IEM_DS3505
ZGSZ,2007-03-14 22:00,ZGSZ 142200Z AUTO 11008KT 3SM 22/19 A2983 RMK T02200190 IEM_DS3505
ZGSZ,2007-03-14 23:00,ZGSZ 142300Z AUTO 12008KT 3SM 22/19 A2985 RMK T02200190 IEM_DS3505
ZGSZ,2007-03-15 00:00,ZGSZ 150000Z AUTO 07004KT 4SM 21/19 A2985 RMK SLP124 T02140190 52023 IEM_DS3505
ZGSZ,2007-03-15 01:00,ZGSZ 150100Z AUTO 12012KT 4SM 24/20 A2985 RMK T02400200 IEM_DS3505
ZGSZ,2007-03-15 02:00,ZGSZ 150200Z AUTO 13012KT 4SM 26/20 A2985 RMK T02600200 IEM_DS3505
ZGSZ,2007-03-15 03:00,ZGSZ 150300Z AUTO 11006KT 9SM 25/19 A2985 RMK SLP118 T02540191 57005 IEM_DS3505
ZGSZ,2007-03-15 04:00,ZGSZ 150400Z AUTO 17010KT 7SM 27/20 A2985 RMK T02700200 IEM_DS3505
ZGSZ,2007-03-15 05:00,ZGSZ 150500Z AUTO 16010KT 7SM 28/20 A2980 RMK T02800200 IEM_DS3505
ZGSZ,2007-03-15 06:00,ZGSZ 150600Z AUTO 16006KT 11SM 27/19 A2977 RMK SLP089 T02690187 57029 IEM_DS3505
ZGSZ,2007-03-15 07:00,ZGSZ 150700Z AUTO 16012KT 7SM 27/20 A2977 RMK T02700200 IEM_DS3505
ZGSZ,2007-03-15 08:00,ZGSZ 150800Z AUTO 16010KT 7SM 26/20 A2974 RMK T02600200 IEM_DS3505
ZGSZ,2007-03-15 09:00,ZGSZ 150900Z AUTO 22002KT 16SM 26/19 A2974 RMK SLP081 T02590193 57008 IEM_DS3505
ZGSZ,2007-03-15 10:00,ZGSZ 151000Z AUTO 16012KT 7SM 25/20 A2974 RMK T02500200 IEM_DS3505
ZGSZ,2007-03-15 11:00,ZGSZ 151100Z AUTO 16008KT 7SM 24/20 A2977 RMK T02400200 IEM_DS3505
ZGSZ,2007-03-15 12:00,ZGSZ 151200Z AUTO 16004KT 11SM 23/20 A2977 RMK SLP090 T02320200 52009 IEM_DS3505
ZGSZ,2007-03-15 13:00,ZGSZ 151300Z AUTO 15008KT 7SM 24/20 A2980 RMK T02400200 IEM_DS3505
ZGSZ,2007-03-15 14:00,ZGSZ 151400Z AUTO 15008KT 7SM 24/20 A2980 RMK T02400200 IEM_DS3505
ZGSZ,2007-03-15 15:00,ZGSZ 151500Z AUTO 25002KT 9SM 23/20 A2980 RMK SLP097 T02270202 52007 IEM_DS3505
ZGSZ,2007-03-15 16:00,ZGSZ 151600Z AUTO 15006KT 7SM 24/20 A2980 RMK T02400200 IEM_DS3505
ZGSZ,2007-03-15 17:00,ZGSZ 151700Z AUTO 15006KT 7SM 23/20 A2980 RMK T02300200 IEM_DS3505
ZGSZ,2007-03-15 18:00,ZGSZ 151800Z AUTO 14002KT 9SM 23/20 A2980 RMK SLP093 T02260203 57004 IEM_DS3505
ZGSZ,2007-03-15 19:00,ZGSZ 151900Z AUTO 12006KT 3SM 23/20 A2980 RMK T02300200 IEM_DS3505
ZGSZ,2007-03-15 20:00,ZGSZ 152000Z AUTO 11004KT 3SM 23/20 A2980 RMK T02300200 IEM_DS3505
ZGSZ,2007-03-15 21:00,ZGSZ 152100Z AUTO 04002KT 9SM 22/20 A2980 RMK SLP099 T02200197 52006 IEM_DS3505
ZGSZ,2007-03-15 22:00,ZGSZ 152200Z AUTO 11004KT 3SM 23/20 A2983 RMK T02300200 IEM_DS3505
ZGSZ,2007-03-15 23:00,ZGSZ 152300Z AUTO 12006KT 3SM 23/20 A2985 RMK T02300200 IEM_DS3505
ZGSZ,2007-03-16 00:00,ZGSZ 160000Z AUTO 04004KT 7SM 22/20 A2988 RMK SLP123 T02240201 52024 IEM_DS3505
ZGSZ,2007-03-16 01:00,ZGSZ 160100Z AUTO 13006KT 4SM 25/21 A2991 RMK T02500210 IEM_DS3505
ZGSZ,2007-03-16 02:00,ZGSZ 160200Z AUTO 11008KT 5SM 26/21 A2988 RMK T02600210 IEM_DS3505
ZGSZ,2007-03-16 03:00,ZGSZ 160300Z AUTO 04004KT 5SM 24/21 A2988 RMK SLP130 T02450212 52007 IEM_DS3505
ZGSZ,2007-03-16 04:00,ZGSZ 160400Z AUTO 17008KT 7SM 27/21 A2988 RMK T02700210 IEM_DS3505
ZGSZ,2007-03-16 05:00,ZGSZ 160500Z AUTO 19006KT 7SM 26/21 A2985 RMK T02600210 IEM_DS3505
ZGSZ,2007-03-16 06:00,ZGSZ 160600Z AUTO 18004KT 12SM 27/21 A2983 RMK 60000 SLP109 T02730211 57021 IEM_DS3505
ZGSZ,2007-03-16 07:00,ZGSZ 160700Z AUTO 18010KT 7SM 27/21 A2983 RMK T02700210 IEM_DS3505
ZGSZ,2007-03-16 08:00,ZGSZ 160800Z AUTO 18010KT 7SM 25/21 A2983 RMK T02500210 IEM_DS3505
ZGSZ,2007-03-16 09:00,ZGSZ 160900Z AUTO 20002KT 12SM 26/20 A2983 RMK SLP106 T02580204 57003 IEM_DS3505
ZGSZ,2007-03-16 10:00,ZGSZ 161000Z AUTO 17008KT 7SM 24/21 A2983 RMK T02400210 IEM_DS3505
ZGSZ,2007-03-16 11:00,ZGSZ 161100Z AUTO 17006KT 7SM 25/21 A2985 RMK T02500210 IEM_DS3505
ZGSZ,2007-03-16 12:00,ZGSZ 161200Z AUTO 07002KT 7SM 24/20 A2985 RMK SLP121 T02410200 52015 IEM_DS3505
ZGSZ,2007-03-16 13:00,ZGSZ 161300Z AUTO 15006KT 7SM 25/20 A2988 RMK T02500200 IEM_DS3505
ZGSZ,2007-03-16 14:00,ZGSZ 161400Z AUTO 13008KT 6SM 25/20 A2991 RMK T02500200 IEM_DS3505
ZGSZ,2007-03-16 15:00,ZGSZ 161500Z AUTO 07004KT 4SM 24/20 A2991 RMK SLP136 T02350199 52015 IEM_DS3505
ZGSZ,2007-03-16 16:00,ZGSZ 161600Z AUTO 09004KT 7SM 25/20 A2991 RMK T02500200 IEM_DS3505
ZGSZ,2007-03-16 18:00,ZGSZ 161800Z AUTO 07004KT 4SM 22/20 A2991 RMK SLP135 T02230200 57001 IEM_DS3505
ZGSZ,2007-03-16 19:00,ZGSZ 161900Z AUTO 11006KT 4SM 24/20 A2991 RMK T02400200 IEM_DS3505
ZGSZ,2007-03-16 20:00,ZGSZ 162000Z AUTO 10008KT 4SM 23/20 A2991 RMK T02300200 IEM_DS3505
ZGSZ,2007-03-16 21:00,ZGSZ 162100Z AUTO 07004KT 3SM 20/18 A2991 RMK SLP141 T02030184 52006 IEM_DS3505
ZGSZ,2007-03-16 22:00,ZGSZ 162200Z AUTO 11008KT 3SM 22/19 A2994 RMK T02200190 IEM_DS3505
ZGSZ,2007-03-16 23:00,ZGSZ 162300Z AUTO 11010KT 3SM 21/18 A2997 RMK T02100180 IEM_DS3505
ZGSZ,2007-03-17 00:00,ZGSZ 170000Z AUTO 07008KT 3SM 19/17 A3000 RMK 70000 SLP167 T01900171 52025 IEM_DS3505
ZGSZ,2007-03-17 01:00,ZGSZ 170100Z AUTO 10004KT 4SM 21/18 A3003 RMK T02100180 IEM_DS3505
ZGSZ,2007-03-17 02:00,ZGSZ 170200Z AUTO 12008KT 7SM 21/17 A3003 RMK T02100170 IEM_DS3505
ZGSZ,2007-03-17 03:00,ZGSZ 170300Z AUTO 04010KT 7SM 19/16 A3003 RMK SLP173 T01880159 52006 IEM_DS3505
ZGSZ,2007-03-17 04:00,ZGSZ 170400Z AUTO 10008KT 7SM 21/16 A3000 RMK T02100160 IEM_DS3505
ZGSZ,2007-03-17 05:00,ZGSZ 170500Z AUTO 10008KT 7SM 20/15 A2997 RMK T02000150 IEM_DS3505
ZGSZ,2007-03-17 06:00,ZGSZ 170600Z AUTO 04008KT 8SM 19/16 A2997 RMK SLP151 T01870156 57022 IEM_DS3505
ZGSZ,2007-03-17 07:00,ZGSZ 170700Z AUTO 04004KT 4SM 20/15 A2994 RMK T02000150 IEM_DS3505
ZGSZ,2007-03-17 08:00,ZGSZ 170800Z AUTO 11008KT 7SM 20/15 A2994 RMK T02000150 IEM_DS3505
ZGSZ,2007-03-17 09:00,ZGSZ 170900Z AUTO 09006KT 12SM 19/15 A2994 RMK SLP146 T01890150 57005 IEM_DS3505
ZGSZ,2007-03-17 10:00,ZGSZ 171000Z AUTO 09004KT 4SM 20/15 A2997 RMK T02000150 IEM_DS3505
ZGSZ,2007-03-17 11:00,ZGSZ 171100Z AUTO 04006KT 3SM 20/15 A3000 RMK T02000150 IEM_DS3505
ZGSZ,2007-03-17 12:00,ZGSZ 171200Z AUTO 07004KT 10SM 17/16 A3003 RMK 60001 SLP176 T01720159 52029 IEM_DS3505
ZGSZ,2007-03-17 13:00,ZGSZ 171300Z AUTO 03008KT 1 1/2SM 17/14 A3006 RMK T01700140 IEM_DS3505
ZGSZ,2007-03-17 14:00,ZGSZ 171400Z AUTO 09012KT 7SM 17/14 A3003 RMK T01700140 IEM_DS3505
ZGSZ,2007-03-17 15:00,ZGSZ 171500Z AUTO 07006KT 10SM 17/14 A3003 RMK SLP176 T01670145 54000 IEM_DS3505
ZGSZ,2007-03-17 16:00,ZGSZ 171600Z AUTO 12012KT 7SM 17/14 A3000 RMK T01700140 IEM_DS3505
ZGSZ,2007-03-17 17:00,ZGSZ 171700Z AUTO 35004KT 7SM 18/15 A3000 RMK T01800150 IEM_DS3505
ZGSZ,2007-03-17 18:00,ZGSZ 171800Z AUTO 02006KT 11SM 17/15 A2997 RMK 60002 SLP157 T01720147 57019 IEM_DS3505
ZGSZ,2007-03-17 19:00,ZGSZ 171900Z AUTO 03008KT 4SM 17/13 A2997 RMK T01700130 IEM_DS3505
ZGSZ,2007-03-17 20:00,ZGSZ 172000Z AUTO 02006KT 5SM 17/13 A2997 RMK T01700130 IEM_DS3505
ZGSZ,2007-03-17 21:00,ZGSZ 172100Z AUTO 34004KT 4SM 17/14 A3000 RMK 70003 SLP164 T01680144 52007 IEM_DS3505
ZGSZ,2007-03-17 22:00,ZGSZ 172200Z AUTO 04006KT 3SM 16/13 A3003 RMK T01600130 IEM_DS3505
ZGSZ,2007-03-17 23:00,ZGSZ 172300Z AUTO 06008KT 4SM 16/13 A3003 RMK T01600130 IEM_DS3505
ZGSZ,2007-03-18 01:00,ZGSZ 180100Z AUTO 06006KT 3SM 17/14 A3006 RMK T01700140 IEM_DS3505
ZGSZ,2007-03-18 02:00,ZGSZ 180200Z AUTO 06006KT 3SM 18/13 A3006 RMK T01800130 IEM_DS3505
ZGSZ,2007-03-18 03:00,ZGSZ 180300Z AUTO 02006KT 5SM 18/13 A3003 RMK SLP175 T01750132 52002 IEM_DS3505
ZGSZ,2007-03-18 04:00,ZGSZ 180400Z AUTO 05010KT 4SM 19/14 A3000 RMK T01900140 IEM_DS3505
ZGSZ,2007-03-18 05:00,ZGSZ 180500Z AUTO 08006KT 4SM 21/13 A2997 RMK T02100130 IEM_DS3505
ZGSZ,2007-03-18 07:00,ZGSZ 180700Z AUTO 35008KT 4SM 19/13 A2994 RMK T01900130 IEM_DS3505
ZGSZ,2007-03-18 08:00,ZGSZ 180800Z AUTO 01008KT 4SM 19/13 A2994 RMK T01900130 IEM_DS3505
ZGSZ,2007-03-18 09:00,ZGSZ 180900Z AUTO 04006KT 4SM 19/14 A2994 RMK SLP141 T01910139 57007 IEM_DS3505
ZGSZ,2007-03-18 10:00,ZGSZ 181000Z AUTO 03008KT 3SM 19/13 A2994 RMK T01900130 IEM_DS3505
ZGSZ,2007-03-18 11:00,ZGSZ 181100Z AUTO 08006KT 3SM 19/14 A2994 RMK T01900140 IEM_DS3505
ZGSZ,2007-03-18 12:00,ZGSZ 181200Z AUTO 02004KT 3SM 18/14 A2997 RMK SLP153 T01810140 52012 IEM_DS3505
ZGSZ,2007-03-18 13:00,ZGSZ 181300Z AUTO 01006KT 4SM 18/13 A3000 RMK T01800130 IEM_DS3505
ZGSZ,2007-03-18 14:00,ZGSZ 181400Z AUTO 02006KT 4SM 18/13 A3000 RMK T01800130 IEM_DS3505
ZGSZ,2007-03-18 15:00,ZGSZ 181500Z AUTO 34004KT 3SM 18/14 A3003 RMK SLP169 T01770138 52016 IEM_DS3505
ZGSZ,2007-03-18 16:00,ZGSZ 181600Z AUTO 05008KT 4SM 18/12 A3000 RMK T01800120 IEM_DS3505
ZGSZ,2007-03-18 17:00,ZGSZ 181700Z AUTO 02008KT 4SM 17/12 A3000 RMK T01700120 IEM_DS3505
ZGSZ,2007-03-18 19:00,ZGSZ 181900Z AUTO 33019KT 1 1/2SM 15/13 A3003 RMK T01500130 IEM_DS3505
ZGSZ,2007-03-18 20:00,ZGSZ 182000Z AUTO 36017KT 2 1/2SM 13/11 A3006 RMK T01300110 IEM_DS3505
ZGSZ,2007-03-18 21:00,ZGSZ 182100Z AUTO 07006KT 2 1/2SM 14/12 A3000 RMK 70025 SLP173 T01350121 52010 IEM_DS3505
ZGSZ,2007-03-18 22:00,ZGSZ 182200Z AUTO 10008KT 7SM 14/12 A3000 RMK T01400120 IEM_DS3505
ZGSZ,2007-03-18 23:00,ZGSZ 182300Z AUTO 00000KT 5SM 15/12 A3003 RMK T01500120 IEM_DS3505
ZGSZ,2007-03-19 00:00,ZGSZ 190000Z AUTO 04006KT 4SM 15/13 A3006 RMK 60035 70034 SLP173 T01460133 54000 IEM_DS3505
ZGSZ,2007-03-19 01:00,ZGSZ 190100Z AUTO 03012KT 4SM 15/12 A3006 RMK T01500120 IEM_DS3505
ZGSZ,2007-03-19 02:00,ZGSZ 190200Z AUTO 03010KT 7SM 15/12 A3009 RMK T01500120 IEM_DS3505
ZGSZ,2007-03-19 03:00,ZGSZ 190300Z AUTO 04010KT 4SM 16/13 A3009 RMK SLP186 T01560129 52013 IEM_DS3505
ZGSZ,2007-03-19 04:00,ZGSZ 190400Z AUTO 36010KT 7SM 20/13 A3003 RMK T02000130 IEM_DS3505
ZGSZ,2007-03-19 05:00,ZGSZ 190500Z AUTO 02010KT 6SM 21/12 A3003 RMK T02100120 IEM_DS3505
ZGSZ,2007-03-19 06:00,ZGSZ 190600Z AUTO 02004KT 4SM 19/14 A3000 RMK 60002 SLP165 T01920140 57021 IEM_DS3505
ZGSZ,2007-03-19 07:00,ZGSZ 190700Z AUTO 02012KT 7SM 21/12 A3000 RMK T02100120 IEM_DS3505
ZGSZ,2007-03-19 08:00,ZGSZ 190800Z AUTO 01012KT 7SM 21/12 A3000 RMK T02100120 IEM_DS3505
ZGSZ,2007-03-19 09:00,ZGSZ 190900Z AUTO 34010KT 7SM 20/12 A3000 RMK SLP163 T01960124 57002 IEM_DS3505
ZGSZ,2007-03-19 10:00,ZGSZ 191000Z AUTO 03010KT 6SM 20/11 A3000 RMK T02000110 IEM_DS3505
ZGSZ,2007-03-19 11:00,ZGSZ 191100Z AUTO 03010KT 6SM 19/10 A3003 RMK T01900100 IEM_DS3505
ZGSZ,2007-03-19 12:00,ZGSZ 191200Z AUTO 02008KT 11SM 17/10 A3006 RMK SLP185 T01720099 52021 IEM_DS3505
ZGSZ,2007-03-19 13:00,ZGSZ 191300Z AUTO 03012KT 7SM 17/09 A3009 RMK T01700090 IEM_DS3505
ZGSZ,2007-03-19 14:00,ZGSZ 191400Z AUTO 04012KT 6SM 16/08 A3012 RMK T01600080 IEM_DS3505
ZGSZ,2007-03-19 15:00,ZGSZ 191500Z AUTO 04008KT 9SM 15/08 A3012 RMK SLP199 T01460081 52014 IEM_DS3505
ZGSZ,2007-03-19 18:00,ZGSZ 191800Z AUTO 02012KT 16SM 14/07 A3015 RMK SLP204 T01350066 52005 IEM_DS3505
ZGSZ,2007-03-19 19:00,ZGSZ 191900Z AUTO 02012KT 7SM 14/06 A3015 RMK T01400060 IEM_DS3505
ZGSZ,2007-03-19 20:00,ZGSZ 192000Z AUTO 02012KT 7SM 14/06 A3015 RMK T01400060 IEM_DS3505
ZGSZ,2007-03-19 21:00,ZGSZ 192100Z AUTO 36008KT 16SM 13/06 A3015 RMK 70011 SLP213 T01270065 52009 IEM_DS3505
ZGSZ,2007-03-19 22:00,ZGSZ 192200Z AUTO 03010KT 6SM 13/06 A3018 RMK T01300060 IEM_DS3505
ZGSZ,2007-03-19 23:00,ZGSZ 192300Z AUTO 03012KT 6SM 13/06 A3021 RMK T01300060 IEM_DS3505
ZGSZ,2007-03-20 00:00,ZGSZ 200000Z AUTO 02012KT 16SM 13/06 A3024 RMK 70002 SLP236 T01280062 52023 IEM_DS3505
ZGSZ,2007-03-20 01:00,ZGSZ 200100Z AUTO 03012KT 6SM 14/06 A3024 RMK T01400060 IEM_DS3505
ZGSZ,2007-03-20 02:00,ZGSZ 200200Z AUTO 02012KT 6SM 16/07 A3024 RMK T01600070 IEM_DS3505
ZGSZ,2007-03-20 03:00,ZGSZ 200300Z AUTO 02008KT 12SM 16/07 A3021 RMK SLP236 T01590066 54000 IEM_DS3505
ZGSZ,2007-03-20 04:00,ZGSZ 200400Z AUTO 03010KT 6SM 18/07 A3021 RMK T01800070 IEM_DS3505
ZGSZ,2007-03-20 05:00,ZGSZ 200500Z AUTO 01008KT 6SM 19/07 A3018 RMK T01900070 IEM_DS3505
ZGSZ,2007-03-20 06:00,ZGSZ 200600Z AUTO 34010KT 11SM 20/08 A3012 RMK SLP201 T01950079 57035 IEM_DS3505
ZGSZ,2007-03-20 07:00,ZGSZ 200700Z AUTO 36010KT 6SM 20/07 A3009 RMK T02000070 IEM_DS3505
ZGSZ,2007-03-20 08:00,ZGSZ 200800Z AUTO 01008KT 6SM 21/07 A3009 RMK T02100070 IEM_DS3505
ZGSZ,2007-03-20 09:00,ZGSZ 200900Z AUTO 07008KT 11SM 19/06 A3009 RMK SLP188 T01900065 57013 IEM_DS3505
ZGSZ,2007-03-20 10:00,ZGSZ 201000Z AUTO 03008KT 6SM 19/06 A3009 RMK T01900060 IEM_DS3505
ZGSZ,2007-03-20 11:00,ZGSZ 201100Z AUTO 04006KT 6SM 19/06 A3009 RMK T01900060 IEM_DS3505
ZGSZ,2007-03-20 12:00,ZGSZ 201200Z AUTO 07004KT 11SM 17/06 A3012 RMK SLP203 T01740060 52015 IEM_DS3505
ZGSZ,2007-03-20 13:00,ZGSZ 201300Z AUTO 09004KT 6SM 18/07 A3012 RMK T01800070 IEM_DS3505
ZGSZ,2007-03-20 14:00,ZGSZ 201400Z AUTO 08004KT 6SM 17/08 A3015 RMK T01700080 IEM_DS3505
ZGSZ,2007-03-20 15:00,ZGSZ 201500Z AUTO 04004KT 12SM 16/07 A3015 RMK SLP211 T01650072 52008 IEM_DS3505
ZGSZ,2007-03-20 16:00,ZGSZ 201600Z AUTO 10006KT 6SM 17/08 A3012 RMK T01700080 IEM_DS3505
ZGSZ,2007-03-20 17:00,ZGSZ 201700Z AUTO 09002KT 4SM 17/08 A3012 RMK T01700080 IEM_DS3505
ZGSZ,2007-03-20 18:00,ZGSZ 201800Z AUTO 07004KT 11SM 16/11 A3012 RMK SLP200 T01600110 57010 IEM_DS3505
ZGSZ,2007-03-20 19:00,ZGSZ 201900Z AUTO 4SM 16/10 A3009 RMK T01600100 IEM_DS3505
ZGSZ,2007-03-20 20:00,ZGSZ 202000Z AUTO 4SM 16/11 A3009 RMK T01600110 IEM_DS3505
ZGSZ,2007-03-20 21:00,ZGSZ 202100Z AUTO 04006KT 11SM 16/12 A3009 RMK SLP195 T01590115 57005 IEM_DS3505
ZGSZ,2007-03-20 22:00,ZGSZ 202200Z AUTO 02006KT 3SM 16/11 A3012 RMK T01600110 IEM_DS3505
ZGSZ,2007-03-20 23:00,ZGSZ 202300Z AUTO 07006KT 3SM 16/10 A3015 RMK T01600100 IEM_DS3505
ZGSZ,2007-03-21 00:00,ZGSZ 210000Z AUTO 04006KT 7SM 16/11 A3015 RMK SLP214 T01600108 52018 IEM_DS3505
ZGSZ,2007-03-21 02:00,ZGSZ 210200Z AUTO 08008KT 4SM 19/10 A3018 RMK T01900100 IEM_DS3505
ZGSZ,2007-03-21 03:00,ZGSZ 210300Z AUTO 07006KT 7SM 19/11 A3015 RMK SLP214 T01930111 52001 IEM_DS3505
ZGSZ,2007-03-21 04:00,ZGSZ 210400Z AUTO 4SM 22/11 A3012 RMK T02200110 IEM_DS3505
ZGSZ,2007-03-21 05:00,ZGSZ 210500Z AUTO 26006KT 5SM 21/13 A3009 RMK T02100130 IEM_DS3505
ZGSZ,2007-03-21 06:00,ZGSZ 210600Z AUTO 09004KT 11SM 22/12 A3009 RMK SLP189 T02170117 57025 IEM_DS3505
ZGSZ,2007-03-21 07:00,ZGSZ 210700Z AUTO 26004KT 4SM 20/13 A3006 RMK T02000130 IEM_DS3505
ZGSZ,2007-03-21 08:00,ZGSZ 210800Z AUTO 24004KT 5SM 21/14 A3006 RMK T02100140 IEM_DS3505
ZGSZ,2007-03-21 09:00,ZGSZ 210900Z AUTO 11006KT 11SM 21/11 A3003 RMK SLP180 T02090113 57009 IEM_DS3505
ZGSZ,2007-03-21 10:00,ZGSZ 211000Z AUTO 20004KT 4SM 20/14 A3006 RMK T02000140 IEM_DS3505
ZGSZ,2007-03-21 11:00,ZGSZ 211100Z AUTO 00000KT 3SM 19/15 A3006 RMK T01900150 IEM_DS3505
ZGSZ,2007-03-21 12:00,ZGSZ 211200Z AUTO 07004KT 12SM 18/12 A3009 RMK SLP195 T01840122 52015 IEM_DS3505
ZGSZ,2007-03-21 13:00,ZGSZ 211300Z AUTO 00000KT 2 1/2SM 19/16 A3012 RMK T01900160 IEM_DS3505
ZGSZ,2007-03-21 14:00,ZGSZ 211400Z AUTO 09004KT 4SM 20/13 A3012 RMK T02000130 IEM_DS3505
ZGSZ,2007-03-21 15:00,ZGSZ 211500Z AUTO 04004KT 11SM 18/13 A3012 RMK SLP203 T01800127 52008 IEM_DS3505
ZGSZ,2007-03-21 16:00,ZGSZ 211600Z AUTO 00000KT 4SM 19/14 A3012 RMK T01900140 IEM_DS3505
ZGSZ,2007-03-21 17:00,ZGSZ 211700Z AUTO 00000KT 3SM 19/14 A3012 RMK T01900140 IEM_DS3505
ZGSZ,2007-03-21 18:00,ZGSZ 211800Z AUTO 02002KT 11SM 18/13 A3009 RMK SLP196 T01780131 57007 IEM_DS3505
ZGSZ,2007-03-21 19:00,ZGSZ 211900Z AUTO 36004KT 3SM 18/14 A3009 RMK T01800140 IEM_DS3505
ZGSZ,2007-03-21 20:00,ZGSZ 212000Z AUTO 04004KT 3SM 19/13 A3006 RMK T01900130 IEM_DS3505
ZGSZ,2007-03-21 21:00,ZGSZ 212100Z AUTO 07002KT 9SM 18/13 A3009 RMK SLP191 T01750134 57005 IEM_DS3505
ZGSZ,2007-03-21 22:00,ZGSZ 212200Z AUTO 00000KT 3SM 18/13 A3009 RMK T01800130 IEM_DS3505
ZGSZ,2007-03-21 23:00,ZGSZ 212300Z AUTO 00000KT 2SM 18/14 A3012 RMK T01800140 IEM_DS3505
ZGSZ,2007-03-22 00:00,ZGSZ 220000Z AUTO 09004KT 6SM 18/14 A3012 RMK SLP206 T01850142 52015 IEM_DS3505
ZGSZ,2007-03-22 01:00,ZGSZ 220100Z AUTO 00000KT 3SM 20/15 A3015 RMK T02000150 IEM_DS3505
ZGSZ,2007-03-22 02:00,ZGSZ 220200Z AUTO 04004KT 3SM 21/14 A3012 RMK T02100140 IEM_DS3505
ZGSZ,2007-03-22 03:00,ZGSZ 220300Z AUTO 04006KT 5SM 21/15 A3012 RMK SLP208 T02120146 52002 IEM_DS3505
ZGSZ,2007-03-22 04:00,ZGSZ 220400Z AUTO 3SM 22/15 A3012 RMK T02200150 IEM_DS3505
ZGSZ,2007-03-22 05:00,ZGSZ 220500Z AUTO 24004KT 3SM 22/16 A3009 RMK T02200160 IEM_DS3505
ZGSZ,2007-03-22 06:00,ZGSZ 220600Z AUTO 14006KT 5SM 22/16 A3006 RMK SLP184 T02240155 57024 IEM_DS3505
ZGSZ,2007-03-22 07:00,ZGSZ 220700Z AUTO 23004KT 2 1/2SM 22/16 A3003 RMK T02200160 IEM_DS3505
ZGSZ,2007-03-22 08:00,ZGSZ 220800Z AUTO 20006KT 2SM 22/16 A3003 RMK T02200160 IEM_DS3505
ZGSZ,2007-03-22 09:00,ZGSZ 220900Z AUTO 11006KT 9SM 22/15 A3003 RMK SLP169 T02170153 57015 IEM_DS3505
ZGSZ,2007-03-22 10:00,ZGSZ 221000Z AUTO 00000KT 3SM 21/17 A3003 RMK T02100170 IEM_DS3505
ZGSZ,2007-03-22 11:00,ZGSZ 221100Z AUTO 00000KT 3SM 21/18 A3003 RMK T02100180 IEM_DS3505
ZGSZ,2007-03-22 12:00,ZGSZ 221200Z AUTO 09002KT 8SM 21/15 A3006 RMK SLP184 T02120153 52015 IEM_DS3505
ZGSZ,2007-03-22 13:00,ZGSZ 221300Z AUTO 12006KT 7SM 23/16 A3009 RMK T02300160 IEM_DS3505
ZGSZ,2007-03-22 14:00,ZGSZ 221400Z AUTO 12006KT 7SM 22/15 A3009 RMK T02200150 IEM_DS3505
ZGSZ,2007-03-22 15:00,ZGSZ 221500Z AUTO 09006KT 6SM 20/16 A3009 RMK SLP199 T01990155 52015 IEM_DS3505
ZGSZ,2007-03-22 16:00,ZGSZ 221600Z AUTO 10006KT 3SM 21/16 A3009 RMK T02100160 IEM_DS3505
ZGSZ,2007-03-22 17:00,ZGSZ 221700Z AUTO 11006KT 3SM 21/16 A3009 RMK T02100160 IEM_DS3505
ZGSZ,2007-03-22 18:00,ZGSZ 221800Z AUTO 07008KT 6SM 19/16 A3009 RMK SLP190 T01940157 57008 IEM_DS3505
ZGSZ,2007-03-22 19:00,ZGSZ 221900Z AUTO 13004KT 3SM 21/16 A3006 RMK T02100160 IEM_DS3505
ZGSZ,2007-03-22 20:00,ZGSZ 222000Z AUTO 12006KT 3SM 21/16 A3006 RMK T02100160 IEM_DS3505
ZGSZ,2007-03-22 21:00,ZGSZ 222100Z AUTO 07008KT 7SM 20/15 A3006 RMK SLP180 T01960148 57010 IEM_DS3505
ZGSZ,2007-03-22 22:00,ZGSZ 222200Z AUTO 11006KT 4SM 21/15 A3006 RMK T02100150 IEM_DS3505
ZGSZ,2007-03-22 23:00,ZGSZ 222300Z AUTO 10006KT 6SM 21/15 A3006 RMK T02100150 IEM_DS3505
ZGSZ,2007-03-23 00:00,ZGSZ 230000Z AUTO 07006KT 11SM 20/15 A3006 RMK SLP192 T02030151 52012 IEM_DS3505
ZGSZ,2007-03-23 01:00,ZGSZ 230100Z AUTO 11008KT 7SM 23/16 A3009 RMK T02300160 IEM_DS3505
ZGSZ,2007-03-23 02:00,ZGSZ 230200Z AUTO 11008KT 7SM 24/17 A3009 RMK T02400170 IEM_DS3505
ZGSZ,2007-03-23 03:00,ZGSZ 230300Z AUTO 04008KT 12SM 24/16 A3006 RMK SLP188 T02420165 57004 IEM_DS3505
ZGSZ,2007-03-23 04:00,ZGSZ 230400Z AUTO 12008KT 7SM 26/17 A3003 RMK T02600170 IEM_DS3505
ZGSZ,2007-03-23 05:00,ZGSZ 230500Z AUTO 23004KT 7SM 23/18 A3000 RMK T02300180 IEM_DS3505
ZGSZ,2007-03-23 06:00,ZGSZ 230600Z AUTO 09006KT 14SM 25/18 A2997 RMK SLP158 T02520177 57030 IEM_DS3505
ZGSZ,2007-03-23 07:00,ZGSZ 230700Z AUTO 26004KT 7SM 23/18 A2997 RMK T02300180 IEM_DS3505
ZGSZ,2007-03-23 08:00,ZGSZ 230800Z AUTO 7SM 25/19 A2994 RMK T02500190 IEM_DS3505
ZGSZ,2007-03-23 09:00,ZGSZ 230900Z AUTO 09006KT 10SM 23/18 A2994 RMK SLP148 T02290178 57010 IEM_DS3505
ZGSZ,2007-03-23 10:00,ZGSZ 231000Z AUTO 10008KT 7SM 24/18 A2994 RMK T02400180 IEM_DS3505
ZGSZ,2007-03-23 11:00,ZGSZ 231100Z AUTO 10008KT 7SM 23/18 A2994 RMK T02300180 IEM_DS3505
ZGSZ,2007-03-23 12:00,ZGSZ 231200Z AUTO 07006KT 10SM 22/18 A2997 RMK SLP152 T02200180 52004 IEM_DS3505
ZGSZ,2007-03-23 13:00,ZGSZ 231300Z AUTO 10008KT 7SM 23/18 A2997 RMK T02300180 IEM_DS3505
ZGSZ,2007-03-23 14:00,ZGSZ 231400Z AUTO 12010KT 7SM 23/18 A2997 RMK T02300180 IEM_DS3505
ZGSZ,2007-03-23 15:00,ZGSZ 231500Z AUTO 04004KT 11SM 21/18 A2997 RMK SLP159 T02100182 52007 IEM_DS3505
ZGSZ,2007-03-23 16:00,ZGSZ 231600Z AUTO 12010KT 4SM 23/19 A2994 RMK T02300190 IEM_DS3505
ZGSZ,2007-03-23 17:00,ZGSZ 231700Z AUTO 12006KT 4SM 22/19 A2994 RMK T02200190 IEM_DS3505
ZGSZ,2007-03-23 18:00,ZGSZ 231800Z AUTO 07006KT 4SM 21/19 A2994 RMK SLP142 T02080186 57016 IEM_DS3505
ZGSZ,2007-03-23 19:00,ZGSZ 231900Z AUTO 11004KT 4SM 22/19 A2991 RMK T02200190 IEM_DS3505
ZGSZ,2007-03-23 20:00,ZGSZ 232000Z AUTO 00000KT 4SM 22/19 A2991 RMK T02200190 IEM_DS3505
ZGSZ,2007-03-23 21:00,ZGSZ 232100Z AUTO 07006KT 4SM 21/19 A2991 RMK SLP130 T02080186 57013 IEM_DS3505
ZGSZ,2007-03-23 22:00,ZGSZ 232200Z AUTO 4SM 22/19 A2991 RMK T02200190 IEM_DS3505
ZGSZ,2007-03-23 23:00,ZGSZ 232300Z AUTO 11004KT 4SM 23/19 A2991 RMK T02300190 IEM_DS3505
ZGSZ,2007-03-24 00:00,ZGSZ 240000Z AUTO 07004KT 4SM 21/19 A2994 RMK SLP142 T02130189 52012 IEM_DS3505
ZGSZ,2007-03-24 01:00,ZGSZ 240100Z AUTO 13004KT 3SM 23/20 A2994 RMK T02300200 IEM_DS3505
ZGSZ,2007-03-24 02:00,ZGSZ 240200Z AUTO 28006KT 1SM 22/20 A2994 RMK T02200200 IEM_DS3505
ZGSZ,2007-03-24 03:00,ZGSZ 240300Z AUTO 02002KT 4SM 25/20 A2991 RMK SLP135 T02500200 57006 IEM_DS3505
ZGSZ,2007-03-24 04:00,ZGSZ 240400Z AUTO 25004KT 1 1/4SM 22/20 A2991 RMK T02200200 IEM_DS3505
ZGSZ,2007-03-24 05:00,ZGSZ 240500Z AUTO 1SM 22/20 A2988 RMK T02200200 IEM_DS3505
ZGSZ,2007-03-24 06:00,ZGSZ 240600Z AUTO 14002KT 4SM 24/21 A2983 RMK 60003 SLP108 T02450214 57027 IEM_DS3505
ZGSZ,2007-03-24 07:00,ZGSZ 240700Z AUTO 20004KT 2SM 23/21 A2983 RMK T02300210 IEM_DS3505
ZGSZ,2007-03-24 08:00,ZGSZ 240800Z AUTO 16006KT 2 1/2SM 23/21 A2980 RMK T02300210 IEM_DS3505
ZGSZ,2007-03-24 09:00,ZGSZ 240900Z AUTO 22006KT 4SM 24/21 A2980 RMK SLP094 T02420209 57014 IEM_DS3505
ZGSZ,2007-03-24 10:00,ZGSZ 241000Z AUTO 16008KT 2 1/2SM 23/21 A2980 RMK T02300210 IEM_DS3505
ZGSZ,2007-03-24 11:00,ZGSZ 241100Z AUTO 16008KT 2 1/2SM 23/21 A2980 RMK T02300210 IEM_DS3505
ZGSZ,2007-03-24 12:00,ZGSZ 241200Z AUTO 14002KT 2 1/2SM 23/21 A2980 RMK 60000 SLP103 T02300209 52009 IEM_DS3505
ZGSZ,2007-03-24 13:00,ZGSZ 241300Z AUTO 15008KT 3SM 23/22 A2983 RMK T02300220 IEM_DS3505
ZGSZ,2007-03-24 14:00,ZGSZ 241400Z AUTO 15006KT 2 1/2SM 23/21 A2985 RMK T02300210 IEM_DS3505
ZGSZ,2007-03-24 15:00,ZGSZ 241500Z AUTO 14002KT 2 1/2SM 23/21 A2985 RMK SLP114 T02290210 52011 IEM_DS3505
ZGSZ,2007-03-24 16:00,ZGSZ 241600Z AUTO 16008KT 1 1/4SM 23/21 A2985 RMK T02300210 IEM_DS3505
ZGSZ,2007-03-24 18:00,ZGSZ 241800Z AUTO 25002KT 2SM 22/21 A2985 RMK SLP112 T02230209 57002 IEM_DS3505
ZGSZ,2007-03-24 19:00,ZGSZ 241900Z AUTO 17006KT 1 1/2SM 22/21 A2983 RMK T02200210 IEM_DS3505
ZGSZ,2007-03-24 20:00,ZGSZ 242000Z AUTO 15006KT 2SM 22/21 A2983 RMK T02200210 IEM_DS3505
ZGSZ,2007-03-24 21:00,ZGSZ 242100Z AUTO 22002KT 1/2SM 22/21 A2983 RMK 70003 SLP106 T02180208 57006 IEM_DS3505
ZGSZ,2007-03-24 22:00,ZGSZ 242200Z AUTO 15004KT 2SM 22/21 A2985 RMK T02200210 IEM_DS3505
ZGSZ,2007-03-24 23:00,ZGSZ 242300Z AUTO 16002KT 2SM 22/21 A2985 RMK T02200210 IEM_DS3505
ZGSZ,2007-03-25 00:00,ZGSZ 250000Z AUTO 16004KT 1 1/2SM 22/21 A2985 RMK 70003 SLP116 T02220210 52010 IEM_DS3505
ZGSZ,2007-03-25 01:00,ZGSZ 250100Z AUTO 17004KT 3SM 23/22 A2988 RMK T02300220 IEM_DS3505
ZGSZ,2007-03-25 02:00,ZGSZ 250200Z AUTO 21004KT 2 1/2SM 24/22 A2988 RMK T02400220 IEM_DS3505
ZGSZ,2007-03-25 03:00,ZGSZ 250300Z AUTO 18002KT 2SM 25/21 A2985 RMK SLP117 T02510206 52001 IEM_DS3505
ZGSZ,2007-03-25 04:00,ZGSZ 250400Z AUTO 19010KT 4SM 26/22 A2983 RMK T02600220 IEM_DS3505
ZGSZ,2007-03-25 05:00,ZGSZ 250500Z AUTO 21006KT 3SM 24/22 A2983 RMK T02400220 IEM_DS3505
ZGSZ,2007-03-25 06:00,ZGSZ 250600Z AUTO 22006KT 6SM 27/21 A2980 RMK SLP091 T02660209 57026 IEM_DS3505
ZGSZ,2007-03-25 07:00,ZGSZ 250700Z AUTO 19008KT 4SM 26/22 A2977 RMK T02600220 IEM_DS3505
ZGSZ,2007-03-25 08:00,ZGSZ 250800Z AUTO 16010KT 7SM 26/22 A2977 RMK T02600220 IEM_DS3505
ZGSZ,2007-03-25 09:00,ZGSZ 250900Z AUTO 22002KT 16SM 26/21 A2977 RMK SLP087 T02630208 57004 IEM_DS3505
ZGSZ,2007-03-25 10:00,ZGSZ 251000Z AUTO 17010KT 7SM 25/21 A2977 RMK T02500210 IEM_DS3505
ZGSZ,2007-03-25 11:00,ZGSZ 251100Z AUTO 16008KT 7SM 24/21 A2977 RMK T02400210 IEM_DS3505
ZGSZ,2007-03-25 12:00,ZGSZ 251200Z AUTO 14004KT 12SM 24/20 A2980 RMK SLP099 T02390200 52012 IEM_DS3505
ZGSZ,2007-03-25 13:00,ZGSZ 251300Z AUTO 15010KT 7SM 24/21 A2983 RMK T02400210 IEM_DS3505
ZGSZ,2007-03-25 14:00,ZGSZ 251400Z AUTO 13010KT 7SM 25/21 A2983 RMK T02500210 IEM_DS3505
ZGSZ,2007-03-25 15:00,ZGSZ 251500Z AUTO 07004KT 6SM 24/21 A2983 RMK SLP109 T02350206 52010 IEM_DS3505
ZGSZ,2007-03-25 16:00,ZGSZ 251600Z AUTO 13012KT 7SM 25/21 A2983 RMK T02500210 IEM_DS3505
ZGSZ,2007-03-25 17:00,ZGSZ 251700Z AUTO 14008KT 7SM 25/21 A2983 RMK T02500210 IEM_DS3505
ZGSZ,2007-03-25 18:00,ZGSZ 251800Z AUTO 07004KT 6SM 24/21 A2983 RMK SLP103 T02370210 57006 IEM_DS3505
ZGSZ,2007-03-25 19:00,ZGSZ 251900Z AUTO 12008KT 7SM 24/21 A2980 RMK T02400210 IEM_DS3505
ZGSZ,2007-03-25 20:00,ZGSZ 252000Z AUTO 13010KT 4SM 24/22 A2977 RMK T02400220 IEM_DS3505
ZGSZ,2007-03-25 21:00,ZGSZ 252100Z AUTO 07008KT 2 1/2SM 22/20 A2980 RMK 70000 SLP097 T02200199 57006 IEM_DS3505
ZGSZ,2007-03-25 22:00,ZGSZ 252200Z AUTO 11010KT 3SM 23/21 A2980 RMK T02300210 IEM_DS3505
ZGSZ,2007-03-25 23:00,ZGSZ 252300Z AUTO 12012KT 4SM 23/21 A2983 RMK T02300210 IEM_DS3505
ZGSZ,2007-03-26 00:00,ZGSZ 260000Z AUTO 07008KT 2 1/2SM 22/20 A2983 RMK 60000 70000 SLP116 T02180195 52019 IEM_DS3505
ZGSZ,2007-03-26 01:00,ZGSZ 260100Z AUTO 13012KT 2 1/2SM 24/21 A2985 RMK T02400210 IEM_DS3505
ZGSZ,2007-03-26 02:00,ZGSZ 260200Z AUTO 12012KT 2 1/2SM 25/21 A2985 RMK T02500210 IEM_DS3505
ZGSZ,2007-03-26 03:00,ZGSZ 260300Z AUTO 11006KT 2 1/2SM 23/20 A2985 RMK SLP120 T02270199 52004 IEM_DS3505
ZGSZ,2007-03-26 04:00,ZGSZ 260400Z AUTO 14016KT 3SM 27/22 A2983 RMK T02700220 IEM_DS3505
ZGSZ,2007-03-26 05:00,ZGSZ 260500Z AUTO 16014KT 4SM 26/22 A2983 RMK T02600220 IEM_DS3505
ZGSZ,2007-03-26 06:00,ZGSZ 260600Z AUTO 16004KT 4SM 25/22 A2980 RMK 60000 SLP098 T02530216 57022 IEM_DS3505
ZGSZ,2007-03-26 07:00,ZGSZ 260700Z AUTO 16012KT 4SM 26/23 A2977 RMK T02600230 IEM_DS3505
ZGSZ,2007-03-26 08:00,ZGSZ 260800Z AUTO 16012KT 7SM 25/23 A2977 RMK T02500230 IEM_DS3505
ZGSZ,2007-03-26 09:00,ZGSZ 260900Z AUTO 22004KT 4SM 25/22 A2977 RMK SLP090 T02480221 57008 IEM_DS3505
ZGSZ,2007-03-26 10:00,ZGSZ 261000Z AUTO 15012KT 7SM 25/23 A2977 RMK T02500230 IEM_DS3505
ZGSZ,2007-03-26 11:00,ZGSZ 261100Z AUTO 16010KT 7SM 25/23 A2980 RMK T02500230 IEM_DS3505
ZGSZ,2007-03-26 12:00,ZGSZ 261200Z AUTO 14004KT 7SM 24/22 A2983 RMK 60000 SLP102 T02440225 52012 IEM_DS3505
ZGSZ,2007-03-26 13:00,ZGSZ 261300Z AUTO 20010KT 3SM 24/23 A2983 RMK T02400230 IEM_DS3505
ZGSZ,2007-03-26 14:00,ZGSZ 261400Z AUTO 16006KT 5SM 24/22 A2985 RMK T02400220 IEM_DS3505
ZGSZ,2007-03-26 15:00,ZGSZ 261500Z AUTO 11002KT 3SM 24/23 A2985 RMK SLP115 T02420226 52013 IEM_DS3505
ZGSZ,2007-03-26 16:00,ZGSZ 261600Z AUTO 16014KT 2 1/2SM 24/23 A2983 RMK T02400230 IEM_DS3505
ZGSZ,2007-03-26 17:00,ZGSZ 261700Z AUTO 16010KT 2 1/2SM 24/23 A2985 RMK T02400230 IEM_DS3505
ZGSZ,2007-03-26 18:00,ZGSZ 261800Z AUTO 22002KT 5SM 24/22 A2983 RMK SLP109 T02390223 57006 IEM_DS3505
ZGSZ,2007-03-26 19:00,ZGSZ 261900Z AUTO 15010KT 2SM 24/23 A2983 RMK T02400230 IEM_DS3505
ZGSZ,2007-03-26 20:00,ZGSZ 262000Z AUTO 16012KT 3SM 24/23 A2980 RMK T02400230 IEM_DS3505
ZGSZ,2007-03-26 21:00,ZGSZ 262100Z AUTO 22004KT 9SM 24/22 A2980 RMK 70000 SLP101 T02440223 57008 IEM_DS3505
ZGSZ,2007-03-26 22:00,ZGSZ 262200Z AUTO 16008KT 2SM 23/22 A2983 RMK T02300220 IEM_DS3505
ZGSZ,2007-03-26 23:00,ZGSZ 262300Z AUTO 16010KT 1 1/4SM 24/23 A2985 RMK T02400230 IEM_DS3505
ZGSZ,2007-03-27 00:00,ZGSZ 270000Z AUTO 22006KT 9SM 24/22 A2985 RMK 70000 SLP122 T02390225 52021 IEM_DS3505
ZGSZ,2007-03-27 01:00,ZGSZ 270100Z AUTO 16008KT 3SM 24/23 A2988 RMK T02400230 IEM_DS3505
ZGSZ,2007-03-27 02:00,ZGSZ 270200Z AUTO 16008KT 5SM 24/23 A2991 RMK T02400230 IEM_DS3505
ZGSZ,2007-03-27 03:00,ZGSZ 270300Z AUTO 22004KT 16SM 26/23 A2991 RMK SLP133 T02570228 52011 IEM_DS3505
ZGSZ,2007-03-27 04:00,ZGSZ 270400Z AUTO 17004KT 7SM 25/23 A2988 RMK T02500230 IEM_DS3505
ZGSZ,2007-03-27 05:00,ZGSZ 270500Z AUTO 32004KT 4SM 24/22 A2988 RMK T02400220 IEM_DS3505
ZGSZ,2007-03-27 06:00,ZGSZ 270600Z AUTO 22002KT 17SM 26/22 A2985 RMK 60000 SLP115 T02650224 57018 IEM_DS3505
ZGSZ,2007-03-27 07:00,ZGSZ 270700Z AUTO 31006KT 3SM 24/21 A2985 RMK T02400210 IEM_DS3505
ZGSZ,2007-03-27 08:00,ZGSZ 270800Z AUTO 01006KT 4SM 27/20 A2985 RMK T02700200 IEM_DS3505
ZGSZ,2007-03-27 09:00,ZGSZ 270900Z AUTO 09002KT 6SM 25/21 A2985 RMK SLP114 T02510214 57001 IEM_DS3505
ZGSZ,2007-03-27 10:00,ZGSZ 271000Z AUTO 34006KT 4SM 25/20 A2985 RMK T02500200 IEM_DS3505
ZGSZ,2007-03-27 11:00,ZGSZ 271100Z AUTO 01006KT 4SM 24/20 A2988 RMK T02400200 IEM_DS3505
ZGSZ,2007-03-27 12:00,ZGSZ 271200Z AUTO 07004KT 6SM 24/20 A2988 RMK SLP128 T02360199 52014 IEM_DS3505
ZGSZ,2007-03-27 13:00,ZGSZ 271300Z AUTO 07004KT 4SM 24/19 A2991 RMK T02400190 IEM_DS3505
ZGSZ,2007-03-27 14:00,ZGSZ 271400Z AUTO 07006KT 4SM 24/19 A2994 RMK T02400190 IEM_DS3505
ZGSZ,2007-03-27 15:00,ZGSZ 271500Z AUTO 04006KT 7SM 23/19 A2994 RMK SLP144 T02300190 52016 IEM_DS3505
ZGSZ,2007-03-27 16:00,ZGSZ 271600Z AUTO 05006KT 5SM 24/18 A2994 RMK T02400180 IEM_DS3505
ZGSZ,2007-03-27 17:00,ZGSZ 271700Z AUTO 5SM 24/18 A2994 RMK T02400180 IEM_DS3505
ZGSZ,2007-03-27 18:00,ZGSZ 271800Z AUTO 04004KT 7SM 22/19 A2994 RMK SLP139 T02240186 57005 IEM_DS3505
ZGSZ,2007-03-27 19:00,ZGSZ 271900Z AUTO 03002KT 5SM 23/19 A2991 RMK T02300190 IEM_DS3505
ZGSZ,2007-03-27 20:00,ZGSZ 272000Z AUTO 5SM 23/19 A2991 RMK T02300190 IEM_DS3505
ZGSZ,2007-03-27 21:00,ZGSZ 272100Z AUTO 07004KT 5SM 22/20 A2991 RMK 70000 SLP136 T02230195 57003 IEM_DS3505
ZGSZ,2007-03-27 22:00,ZGSZ 272200Z AUTO 11006KT 5SM 23/19 A2991 RMK T02300190 IEM_DS3505
ZGSZ,2007-03-27 23:00,ZGSZ 272300Z AUTO 09004KT 5SM 23/20 A2994 RMK T02300200 IEM_DS3505
ZGSZ,2007-03-28 00:00,ZGSZ 280000Z AUTO 07004KT 9SM 22/18 A2997 RMK 70000 SLP156 T02180180 52019 IEM_DS3505
ZGSZ,2007-03-28 01:00,ZGSZ 280100Z AUTO 13006KT 5SM 23/19 A2997 RMK T02300190 IEM_DS3505
ZGSZ,2007-03-28 02:00,ZGSZ 280200Z AUTO 12006KT 7SM 24/19 A3000 RMK T02400190 IEM_DS3505
ZGSZ,2007-03-28 03:00,ZGSZ 280300Z AUTO 07004KT 17SM 24/17 A2997 RMK SLP162 T02390169 52006 IEM_DS3505
ZGSZ,2007-03-28 04:00,ZGSZ 280400Z AUTO 14004KT 7SM 25/19 A2997 RMK T02500190 IEM_DS3505
ZGSZ,2007-03-28 05:00,ZGSZ 280500Z AUTO 26004KT 7SM 24/21 A2994 RMK T02400210 IEM_DS3505
ZGSZ,2007-03-28 06:00,ZGSZ 280600Z AUTO 09004KT 16SM 25/17 A2991 RMK SLP135 T02480170 57026 IEM_DS3505
ZGSZ,2007-03-28 07:00,ZGSZ 280700Z AUTO 29004KT 7SM 23/20 A2991 RMK T02300200 IEM_DS3505
ZGSZ,2007-03-28 08:00,ZGSZ 280800Z AUTO 00000KT 7SM 23/20 A2991 RMK T02300200 IEM_DS3505
ZGSZ,2007-03-28 09:00,ZGSZ 280900Z AUTO 09006KT 11SM 22/17 A2988 RMK SLP132 T02250168 57004 IEM_DS3505
ZGSZ,2007-03-28 10:00,ZGSZ 281000Z AUTO 00000KT 4SM 23/19 A2991 RMK T02300190 IEM_DS3505
ZGSZ,2007-03-28 11:00,ZGSZ 281100Z AUTO 4SM 23/19 A2991 RMK T02300190 IEM_DS3505
ZGSZ,2007-03-28 12:00,ZGSZ 281200Z AUTO 07006KT 8SM 22/17 A2991 RMK SLP139 T02170169 52007 IEM_DS3505
ZGSZ,2007-03-28 13:00,ZGSZ 281300Z AUTO 12004KT 4SM 23/18 A2994 RMK T02300180 IEM_DS3505
ZGSZ,2007-03-28 14:00,ZGSZ 281400Z AUTO 14004KT 4SM 23/18 A2997 RMK T02300180 IEM_DS3505
ZGSZ,2007-03-28 15:00,ZGSZ 281500Z AUTO 09004KT 7SM 22/18 A2997 RMK SLP151 T02210181 52012 IEM_DS3505
ZGSZ,2007-03-28 16:00,ZGSZ 281600Z AUTO 3SM 23/19 A2994 RMK T02300190 IEM_DS3505
ZGSZ,2007-03-28 17:00,ZGSZ 281700Z AUTO 12006KT 3SM 23/19 A2994 RMK T02300190 IEM_DS3505
ZGSZ,2007-03-28 18:00,ZGSZ 281800Z AUTO 04002KT 7SM 22/18 A2991 RMK SLP132 T02200184 57018 IEM_DS3505
ZGSZ,2007-03-28 19:00,ZGSZ 281900Z AUTO 00000KT 3SM 23/19 A2988 RMK T02300190 IEM_DS3505
ZGSZ,2007-03-28 20:00,ZGSZ 282000Z AUTO 24002KT 2 1/2SM 22/20 A2988 RMK T02200200 IEM_DS3505
ZGSZ,2007-03-28 21:00,ZGSZ 282100Z AUTO 04002KT 5SM 22/19 A2991 RMK SLP131 T02220190 57002 IEM_DS3505
ZGSZ,2007-03-28 22:00,ZGSZ 282200Z AUTO 02008KT 2 1/2SM 23/19 A2991 RMK T02300190 IEM_DS3505
ZGSZ,2007-03-28 23:00,ZGSZ 282300Z AUTO 13006KT 2SM 23/19 A2988 RMK T02300190 IEM_DS3505
ZGSZ,2007-03-29 00:00,ZGSZ 290000Z AUTO 14002KT 4SM 23/19 A2991 RMK 60000 70000 SLP135 T02290189 52004 IEM_DS3505
ZGSZ,2007-03-29 01:00,ZGSZ 290100Z AUTO 2 1/2SM 26/21 A2991 RMK T02600210 IEM_DS3505
ZGSZ,2007-03-29 02:00,ZGSZ 290200Z AUTO 20004KT 2SM 24/21 A2994 RMK T02400210 IEM_DS3505
ZGSZ,2007-03-29 03:00,ZGSZ 290300Z AUTO 20004KT 9SM 27/21 A2994 RMK SLP139 T02690212 52005 IEM_DS3505
ZGSZ,2007-03-29 04:00,ZGSZ 290400Z AUTO 20004KT 3SM 25/21 A2991 RMK T02500210 IEM_DS3505
ZGSZ,2007-03-29 05:00,ZGSZ 290500Z AUTO 18006KT 3SM 25/22 A2988 RMK T02500220 IEM_DS3505
ZGSZ,2007-03-29 06:00,ZGSZ 290600Z AUTO 22006KT 14SM 26/21 A2988 RMK SLP120 T02630213 57019 IEM_DS3505
ZGSZ,2007-03-29 07:00,ZGSZ 290700Z AUTO 17008KT 3SM 25/22 A2985 RMK T02500220 IEM_DS3505
ZGSZ,2007-03-29 08:00,ZGSZ 290800Z AUTO 16008KT 3SM 25/22 A2985 RMK T02500220 IEM_DS3505
ZGSZ,2007-03-29 09:00,ZGSZ 290900Z AUTO 22004KT 16SM 26/22 A2985 RMK SLP115 T02590216 57005 IEM_DS3505
ZGSZ,2007-03-29 10:00,ZGSZ 291000Z AUTO 16008KT 5SM 24/22 A2985 RMK T02400220 IEM_DS3505
ZGSZ,2007-03-29 11:00,ZGSZ 291100Z AUTO 15012KT 5SM 24/22 A2988 RMK T02400220 IEM_DS3505
ZGSZ,2007-03-29 12:00,ZGSZ 291200Z AUTO 22004KT 16SM 25/21 A2988 RMK SLP128 T02490210 52013 IEM_DS3505
ZGSZ,2007-03-29 13:00,ZGSZ 291300Z AUTO 15010KT 6SM 24/22 A2991 RMK T02400220 IEM_DS3505
ZGSZ,2007-03-29 14:00,ZGSZ 291400Z AUTO 15006KT 6SM 24/22 A2991 RMK T02400220 IEM_DS3505
ZGSZ,2007-03-29 15:00,ZGSZ 291500Z AUTO 07002KT 12SM 24/21 A2991 RMK SLP133 T02350212 52005 IEM_DS3505
ZGSZ,2007-03-29 16:00,ZGSZ 291600Z AUTO 15006KT 3SM 23/21 A2988 RMK T02300210 IEM_DS3505
ZGSZ,2007-03-29 17:00,ZGSZ 291700Z AUTO 15006KT 3SM 23/22 A2988 RMK T02300220 IEM_DS3505
ZGSZ,2007-03-29 18:00,ZGSZ 291800Z AUTO 25004KT 14SM 23/21 A2988 RMK SLP122 T02330212 57011 IEM_DS3505
ZGSZ,2007-03-29 19:00,ZGSZ 291900Z AUTO 14004KT 2 1/2SM 23/21 A2985 RMK T02300210 IEM_DS3505
ZGSZ,2007-03-29 20:00,ZGSZ 292000Z AUTO 14006KT 3SM 23/22 A2985 RMK T02300220 IEM_DS3505
ZGSZ,2007-03-29 21:00,ZGSZ 292100Z AUTO 27002KT 11SM 24/21 A2985 RMK 70000 SLP118 T02350214 57004 IEM_DS3505
ZGSZ,2007-03-29 22:00,ZGSZ 292200Z AUTO 15004KT 2 1/2SM 23/22 A2988 RMK T02300220 IEM_DS3505
ZGSZ,2007-03-29 23:00,ZGSZ 292300Z AUTO 14006KT 2 1/2SM 24/22 A2991 RMK T02400220 IEM_DS3505
ZGSZ,2007-03-30 00:00,ZGSZ 300000Z AUTO 22002KT 7SM 24/22 A2994 RMK SLP143 T02400217 52025 IEM_DS3505
ZGSZ,2007-03-30 01:00,ZGSZ 300100Z AUTO 16006KT 4SM 25/23 A2994 RMK T02500230 IEM_DS3505
ZGSZ,2007-03-30 02:00,ZGSZ 300200Z AUTO 16008KT 4SM 25/23 A2997 RMK T02500230 IEM_DS3505
ZGSZ,2007-03-30 03:00,ZGSZ 300300Z AUTO 22004KT 7SM 26/22 A2994 RMK SLP149 T02580223 52006 IEM_DS3505
ZGSZ,2007-03-30 04:00,ZGSZ 300400Z AUTO 16012KT 7SM 27/23 A2994 RMK T02700230 IEM_DS3505
ZGSZ,2007-03-30 05:00,ZGSZ 300500Z AUTO 16012KT 7SM 27/23 A2991 RMK T02700230 IEM_DS3505
ZGSZ,2007-03-30 06:00,ZGSZ 300600Z AUTO 20008KT 16SM 28/22 A2985 RMK SLP122 T02800225 57027 IEM_DS3505
ZGSZ,2007-03-30 07:00,ZGSZ 300700Z AUTO 16014KT 7SM 27/23 A2983 RMK T02700230 IEM_DS3505
ZGSZ,2007-03-30 08:00,ZGSZ 300800Z AUTO 16016KT 7SM 26/23 A2983 RMK T02600230 IEM_DS3505
ZGSZ,2007-03-30 09:00,ZGSZ 300900Z AUTO 20006KT 12SM 27/22 A2985 RMK SLP115 T02660222 57007 IEM_DS3505
ZGSZ,2007-03-30 10:00,ZGSZ 301000Z AUTO 16014KT 7SM 25/23 A2985 RMK T02500230 IEM_DS3505
ZGSZ,2007-03-30 11:00,ZGSZ 301100Z AUTO 16012KT 4SM 25/23 A2985 RMK T02500230 IEM_DS3505
ZGSZ,2007-03-30 12:00,ZGSZ 301200Z AUTO 16002KT 9SM 25/22 A2985 RMK SLP121 T02510218 52006 IEM_DS3505
ZGSZ,2007-03-30 13:00,ZGSZ 301300Z AUTO 16010KT 4SM 25/23 A2988 RMK T02500230 IEM_DS3505
ZGSZ,2007-03-30 14:00,ZGSZ 301400Z AUTO 16010KT 4SM 25/23 A2988 RMK T02500230 IEM_DS3505
ZGSZ,2007-03-30 15:00,ZGSZ 301500Z AUTO 20002KT 4SM 24/22 A2988 RMK SLP124 T02450222 52003 IEM_DS3505
ZGSZ,2007-03-30 16:00,ZGSZ 301600Z AUTO 16010KT 7SM 25/22 A2985 RMK T02500220 IEM_DS3505
ZGSZ,2007-03-30 17:00,ZGSZ 301700Z AUTO 16008KT 4SM 25/23 A2985 RMK T02500230 IEM_DS3505
ZGSZ,2007-03-30 18:00,ZGSZ 301800Z AUTO 17008KT 4SM 24/22 A2985 RMK SLP113 T02390216 57011 IEM_DS3505
ZGSZ,2007-03-30 19:00,ZGSZ 301900Z AUTO 16006KT 3SM 24/23 A2983 RMK T02400230 IEM_DS3505
ZGSZ,2007-03-30 20:00,ZGSZ 302000Z AUTO 19004KT 3SM 23/22 A2985 RMK T02300220 IEM_DS3505
ZGSZ,2007-03-30 21:00,ZGSZ 302100Z AUTO 16006KT 2 1/2SM 23/22 A2985 RMK SLP116 T02330216 52003 IEM_DS3505
ZGSZ,2007-03-30 22:00,ZGSZ 302200Z AUTO 15004KT 2SM 24/22 A2988 RMK T02400220 IEM_DS3505
ZGSZ,2007-03-30 23:00,ZGSZ 302300Z AUTO 15006KT 3SM 23/22 A2988 RMK T02300220 IEM_DS3505
ZGSZ,2007-03-31 00:00,ZGSZ 310000Z AUTO 14002KT 9SM 25/22 A2991 RMK SLP137 T02470216 52021 IEM_DS3505
ZGSZ,2007-03-31 01:00,ZGSZ 310100Z AUTO 16010KT 6SM 26/23 A2991 RMK T02600230 IEM_DS3505
ZGSZ,2007-03-31 02:00,ZGSZ 310200Z AUTO 16012KT 7SM 27/22 A2991 RMK T02700220 IEM_DS3505
ZGSZ,2007-03-31 03:00,ZGSZ 310300Z AUTO 20004KT 16SM 28/21 A2991 RMK SLP137 T02800213 54000 IEM_DS3505
ZGSZ,2007-03-31 04:00,ZGSZ 310400Z AUTO 16014KT 7SM 27/23 A2988 RMK T02700230 IEM_DS3505
ZGSZ,2007-03-31 05:00,ZGSZ 310500Z AUTO 16012KT 7SM 27/23 A2985 RMK T02700230 IEM_DS3505
ZGSZ,2007-03-31 06:00,ZGSZ 310600Z AUTO 20008KT 19SM 28/21 A2983 RMK SLP105 T02780209 57032 IEM_DS3505
ZGSZ,2007-03-31 07:00,ZGSZ 310700Z AUTO 16014KT 7SM 27/23 A2980 RMK T02700230 IEM_DS3505
ZGSZ,2007-03-31 08:00,ZGSZ 310800Z AUTO 16014KT 7SM 26/23 A2977 RMK T02600230 IEM_DS3505
ZGSZ,2007-03-31 09:00,ZGSZ 310900Z AUTO 25004KT 19SM 28/21 A2977 RMK SLP089 T02770213 57015 IEM_DS3505
ZGSZ,2007-03-31 10:00,ZGSZ 311000Z AUTO 16012KT 7SM 26/22 A2977 RMK T02600220 IEM_DS3505
ZGSZ,2007-03-31 11:00,ZGSZ 311100Z AUTO 16012KT 7SM 26/22 A2980 RMK T02600220 IEM_DS3505
ZGSZ,2007-03-31 12:00,ZGSZ 311200Z AUTO 20004KT 12SM 25/22 A2980 RMK SLP101 T02510218 52011 IEM_DS3505
ZGSZ,2007-03-31 13:00,ZGSZ 311300Z AUTO 15010KT 7SM 26/22 A2983 RMK T02600220 IEM_DS3505
ZGSZ,2007-03-31 14:00,ZGSZ 311400Z AUTO 16010KT 7SM 26/22 A2983 RMK T02600220 IEM_DS3505
ZGSZ,2007-03-31 15:00,ZGSZ 311500Z AUTO 25002KT 11SM 25/22 A2983 RMK SLP109 T02490218 52009 IEM_DS3505
ZGSZ,2007-03-31 16:00,ZGSZ 311600Z AUTO 15008KT 7SM 26/22 A2983 RMK T02600220 IEM_DS3505
ZGSZ,2007-03-31 17:00,ZGSZ 311700Z AUTO 15006KT 7SM 25/22 A2980 RMK T02500220 IEM_DS3505
ZGSZ,2007-03-31 18:00,ZGSZ 311800Z AUTO 20004KT 12SM 25/22 A2980 RMK SLP096 T02460219 57013 IEM_DS3505
ZGSZ,2007-03-31 19:00,ZGSZ 311900Z AUTO 15006KT 7SM 25/22 A2980 RMK T02500220 IEM_DS3505
ZGSZ,2007-03-31 20:00,ZGSZ 312000Z AUTO 14006KT 7SM 25/22 A2977 RMK T02500220 IEM_DS3505
ZGSZ,2007-03-31 21:00,ZGSZ 312100Z AUTO 16002KT 12SM 24/22 A2977 RMK SLP088 T02400217 57008 IEM_DS3505
ZGSZ,2007-03-31 22:00,ZGSZ 312200Z AUTO 15008KT 7SM 25/21 A2977 RMK T02500210 IEM_DS3505
ZGSZ,2007-03-31 23:00,ZGSZ 312300Z AUTO 15006KT 7SM 25/22 A2980 RMK T02500220 IEM_DS3505
ZGSZ,2007-04-01 00:00,ZGSZ 010000Z AUTO 18002KT 16SM 25/22 A2980 RMK SLP100 T02520219 52011 IEM_DS3505
ZGSZ,2007-04-01 01:00,ZGSZ 010100Z AUTO 16010KT 7SM 26/22 A2983 RMK T02600220 IEM_DS3505
ZGSZ,2007-04-01 02:00,ZGSZ 010200Z AUTO 17010KT 7SM 27/22 A2983 RMK T02700220 IEM_DS3505
ZGSZ,2007-04-01 03:00,ZGSZ 010300Z AUTO 22006KT 19SM 29/21 A2983 RMK SLP104 T02860211 52005 IEM_DS3505
ZGSZ,2007-04-01 04:00,ZGSZ 010400Z AUTO 16012KT 7SM 27/23 A2983 RMK T02700230 IEM_DS3505
ZGSZ,2007-04-01 05:00,ZGSZ 010500Z AUTO 16014KT 7SM 27/22 A2980 RMK T02700220 IEM_DS3505
ZGSZ,2007-04-01 06:00,ZGSZ 010600Z AUTO 22008KT 19SM 28/21 A2974 RMK SLP079 T02770213 57025 IEM_DS3505
ZGSZ,2007-04-01 07:00,ZGSZ 010700Z AUTO 16014KT 7SM 28/23 A2971 RMK T02800230 IEM_DS3505
ZGSZ,2007-04-01 08:00,ZGSZ 010800Z AUTO 17012KT 7SM 27/23 A2971 RMK T02700230 IEM_DS3505
ZGSZ,2007-04-01 09:00,ZGSZ 010900Z AUTO 20006KT 19SM 27/21 A2971 RMK SLP065 T02720210 57014 IEM_DS3505
ZGSZ,2007-04-01 10:00,ZGSZ 011000Z AUTO 16012KT 7SM 26/23 A2971 RMK T02600230 IEM_DS3505
ZGSZ,2007-04-01 11:00,ZGSZ 011100Z AUTO 16014KT 7SM 26/23 A2971 RMK T02600230 IEM_DS3505
ZGSZ,2007-04-01 12:00,ZGSZ 011200Z AUTO 20008KT 14SM 26/21 A2974 RMK SLP075 T02610213 52010 IEM_DS3505
ZGSZ,2007-04-01 13:00,ZGSZ 011300Z AUTO 16010KT 7SM 26/23 A2977 RMK T02600230 IEM_DS3505
ZGSZ,2007-04-01 14:00,ZGSZ 011400Z AUTO 15008KT 7SM 26/23 A2977 RMK T02600230 IEM_DS3505
ZGSZ,2007-04-01 15:00,ZGSZ 011500Z AUTO 11002KT 10SM 26/22 A2977 RMK SLP088 T02580221 52013 IEM_DS3505
ZGSZ,2007-04-01 16:00,ZGSZ 011600Z AUTO 15006KT 7SM 26/23 A2977 RMK T02600230 IEM_DS3505
ZGSZ,2007-04-01 17:00,ZGSZ 011700Z AUTO 15006KT 7SM 26/23 A2977 RMK T02600230 IEM_DS3505
ZGSZ,2007-04-01 18:00,ZGSZ 011800Z AUTO 22002KT 9SM 26/22 A2977 RMK 60000 SLP082 T02560223 57006 IEM_DS3505
ZGSZ,2007-04-01 19:00,ZGSZ 011900Z AUTO 15006KT 7SM 26/23 A2974 RMK T02600230 IEM_DS3505
ZGSZ,2007-04-01 20:00,ZGSZ 012000Z AUTO 14006KT 7SM 25/23 A2974 RMK T02500230 IEM_DS3505
ZGSZ,2007-04-01 21:00,ZGSZ 012100Z AUTO 04002KT 10SM 26/22 A2974 RMK 70000 SLP077 T02560219 57005 IEM_DS3505
ZGSZ,2007-04-01 22:00,ZGSZ 012200Z AUTO 10004KT 4SM 25/23 A2974 RMK T02500230 IEM_DS3505
ZGSZ,2007-04-01 23:00,ZGSZ 012300Z AUTO 11006KT 4SM 26/23 A2974 RMK T02600230 IEM_DS3505
ZGSZ,2007-04-02 00:00,ZGSZ 020000Z AUTO 18004KT 10SM 26/22 A2977 RMK 60000 70000 SLP087 T02560223 52010 IEM_DS3505
ZGSZ,2007-04-02 01:00,ZGSZ 020100Z AUTO 16010KT 5SM 27/24 A2980 RMK T02700240 IEM_DS3505
ZGSZ,2007-04-02 02:00,ZGSZ 020200Z AUTO 15010KT 5SM 27/23 A2980 RMK T02700230 IEM_DS3505
ZGSZ,2007-04-02 03:00,ZGSZ 020300Z AUTO 22004KT 9SM 26/23 A2983 RMK SLP099 T02610230 52012 IEM_DS3505
ZGSZ,2007-04-02 04:00,ZGSZ 020400Z AUTO 07006KT 2SM 21/19 A2985 RMK T02100190 IEM_DS3505
ZGSZ,2007-04-02 05:00,ZGSZ 020500Z AUTO 09006KT 7SM 21/19 A2983 RMK T02100190 IEM_DS3505
ZGSZ,2007-04-02 06:00,ZGSZ 020600Z AUTO 07004KT 9SM 21/20 A2983 RMK 60094 SLP095 T02120195 57005 IEM_DS3505
ZGSZ,2007-04-02 07:00,ZGSZ 020700Z AUTO 7SM 21/19 A2980 RMK T02100190 IEM_DS3505
ZGSZ,2007-04-02 08:00,ZGSZ 020800Z AUTO 35006KT 2 1/2SM 21/20 A2980 RMK T02100200 IEM_DS3505
ZGSZ,2007-04-02 09:00,ZGSZ 020900Z AUTO 36002KT 4SM 21/20 A2983 RMK SLP096 T02120198 52001 IEM_DS3505
ZGSZ,2007-04-02 10:00,ZGSZ 021000Z AUTO 02010KT 2 1/2SM 21/18 A2983 RMK T02100180 IEM_DS3505
ZGSZ,2007-04-02 11:00,ZGSZ 021100Z AUTO 35014KT 4SM 21/17 A2988 RMK T02100170 IEM_DS3505
ZGSZ,2007-04-02 12:00,ZGSZ 021200Z AUTO 04010KT 2 1/2SM 19/17 A2991 RMK 60031 SLP133 T01870169 52036 IEM_DS3505
ZGSZ,2007-04-02 13:00,ZGSZ 021300Z AUTO 03010G21KT 7SM 18/15 A2994 RMK T01800150 IEM_DS3505
ZGSZ,2007-04-02 14:00,ZGSZ 021400Z AUTO 02014KT 7SM 17/14 A3000 RMK T01700140 IEM_DS3505
ZGSZ,2007-04-02 15:00,ZGSZ 021500Z AUTO 02014KT 11SM 16/13 A3003 RMK SLP168 T01640128 52035 IEM_DS3505
ZGSZ,2007-04-02 16:00,ZGSZ 021600Z AUTO 03010G19KT 7SM 16/13 A3006 RMK T01600130 IEM_DS3505
ZGSZ,2007-04-02 17:00,ZGSZ 021700Z AUTO 04010KT 7SM 16/12 A3006 RMK T01600120 IEM_DS3505
ZGSZ,2007-04-02 18:00,ZGSZ 021800Z AUTO 02008KT 14SM 16/11 A3006 RMK 60000 SLP175 T01630108 52006 IEM_DS3505
ZGSZ,2007-04-02 19:00,ZGSZ 021900Z AUTO 02012KT 7SM 16/11 A3006 RMK T01600110 IEM_DS3505
ZGSZ,2007-04-02 20:00,ZGSZ 022000Z AUTO 04010KT 7SM 16/11 A3003 RMK T01600110 IEM_DS3505
ZGSZ,2007-04-02 21:00,ZGSZ 022100Z AUTO 36008KT 14SM 16/11 A3006 RMK 70128 SLP179 T01580110 52004 IEM_DS3505
ZGSZ,2007-04-02 22:00,ZGSZ 022200Z AUTO 02008KT 7SM 16/11 A3009 RMK T01600110 IEM_DS3505
ZGSZ,2007-04-02 23:00,ZGSZ 022300Z AUTO 02012KT 7SM 15/11 A3009 RMK T01500110 IEM_DS3505
ZGSZ,2007-04-03 00:00,ZGSZ 030000Z AUTO 04008KT 14SM 15/10 A3012 RMK 60000 70128 SLP200 T01540097 52021 IEM_DS3505
ZGSZ,2007-04-03 01:00,ZGSZ 030100Z AUTO 03010G19KT 7SM 15/11 A3015 RMK T01500110 IEM_DS3505
ZGSZ,2007-04-03 02:00,ZGSZ 030200Z AUTO 04008KT 7SM 15/10 A3015 RMK T01500100 IEM_DS3505
ZGSZ,2007-04-03 03:00,ZGSZ 030300Z AUTO 04008KT 12SM 15/10 A3015 RMK SLP208 T01460102 52007 IEM_DS3505
ZGSZ,2007-04-03 04:00,ZGSZ 030400Z AUTO 02010KT 7SM 15/10 A3015 RMK T01500100 IEM_DS3505
ZGSZ,2007-04-03 05:00,ZGSZ 030500Z AUTO 03012KT 7SM 15/10 A3012 RMK T01500100 IEM_DS3505
ZGSZ,2007-04-03 06:00,ZGSZ 030600Z AUTO 04008KT 9SM 14/10 A3012 RMK 60002 SLP197 T01450105 57011 IEM_DS3505
ZGSZ,2007-04-03 07:00,ZGSZ 030700Z AUTO 03010KT 7SM 15/10 A3009 RMK T01500100 IEM_DS3505
ZGSZ,2007-04-03 08:00,ZGSZ 030800Z AUTO 03012KT 7SM 15/10 A3009 RMK T01500100 IEM_DS3505
ZGSZ,2007-04-03 09:00,ZGSZ 030900Z AUTO 02006KT 9SM 14/10 A3006 RMK SLP185 T01430101 57012 IEM_DS3505
ZGSZ,2007-04-03 10:00,ZGSZ 031000Z AUTO 03010KT 4SM 15/10 A3009 RMK T01500100 IEM_DS3505
ZGSZ,2007-04-03 11:00,ZGSZ 031100Z AUTO 01012KT 2SM 13/11 A3012 RMK T01300110 IEM_DS3505
ZGSZ,2007-04-03 12:00,ZGSZ 031200Z AUTO 36008KT 2 1/2SM 13/11 A3015 RMK 60002 SLP207 T01280110 52022 IEM_DS3505
ZGSZ,2007-04-03 13:00,ZGSZ 031300Z AUTO 02012KT 3SM 13/10 A3015 RMK T01300100 IEM_DS3505
ZGSZ,2007-04-03 14:00,ZGSZ 031400Z AUTO 02010KT 3SM 13/10 A3018 RMK T01300100 IEM_DS3505
ZGSZ,2007-04-03 15:00,ZGSZ 031500Z AUTO 02006KT 2 1/2SM 12/10 A3021 RMK SLP231 T01230099 52023 IEM_DS3505
ZGSZ,2007-04-03 16:00,ZGSZ 031600Z AUTO 04012KT 4SM 12/09 A3018 RMK T01200090 IEM_DS3505
ZGSZ,2007-04-03 18:00,ZGSZ 031800Z AUTO 02008KT 4SM 12/09 A3018 RMK 60008 SLP220 T01160090 57011 IEM_DS3505
ZGSZ,2007-04-03 19:00,ZGSZ 031900Z AUTO 02010KT 3SM 12/09 A3018 RMK T01200090 IEM_DS3505
ZGSZ,2007-04-03 20:00,ZGSZ 032000Z AUTO 03008KT 3SM 12/09 A3015 RMK T01200090 IEM_DS3505
ZGSZ,2007-04-03 21:00,ZGSZ 032100Z AUTO 36006KT 2SM 11/09 A3018 RMK 70020 SLP217 T01130094 57003 IEM_DS3505
ZGSZ,2007-04-03 22:00,ZGSZ 032200Z AUTO 01010KT 5SM 12/09 A3021 RMK T01200090 IEM_DS3505
ZGSZ,2007-04-03 23:00,ZGSZ 032300Z AUTO 02006KT 4SM 12/09 A3021 RMK T01200090 IEM_DS3505
ZGSZ,2007-04-04 00:00,ZGSZ 040000Z AUTO 02004KT 5SM 12/09 A3021 RMK 60012 70024 SLP234 T01150092 52017 IEM_DS3505
ZGSZ,2007-04-04 01:00,ZGSZ 040100Z AUTO 03008KT 5SM 12/09 A3024 RMK T01200090 IEM_DS3505
ZGSZ,2007-04-04 02:00,ZGSZ 040200Z AUTO 03006KT 4SM 13/09 A3024 RMK T01300090 IEM_DS3505
ZGSZ,2007-04-04 03:00,ZGSZ 040300Z AUTO 02006KT 6SM 13/09 A3024 RMK SLP234 T01260091 54000 IEM_DS3505
ZGSZ,2007-04-04 04:00,ZGSZ 040400Z AUTO 03010KT 4SM 13/09 A3021 RMK T01300090 IEM_DS3505
ZGSZ,2007-04-04 05:00,ZGSZ 040500Z AUTO 03006KT 4SM 13/09 A3018 RMK T01300090 IEM_DS3505
ZGSZ,2007-04-04 06:00,ZGSZ 040600Z AUTO 04006KT 5SM 13/10 A3015 RMK 60000 SLP214 T01340095 57020 IEM_DS3505
ZGSZ,2007-04-04 07:00,ZGSZ 040700Z AUTO 03008KT 4SM 14/09 A3012 RMK T01400090 IEM_DS3505
ZGSZ,2007-04-04 08:00,ZGSZ 040800Z AUTO 04008KT 3SM 13/09 A3012 RMK T01300090 IEM_DS3505
ZGSZ,2007-04-04 09:00,ZGSZ 040900Z AUTO 04008KT 3SM 13/10 A3015 RMK SLP208 T01310095 57006 IEM_DS3505
ZGSZ,2007-04-04 10:00,ZGSZ 041000Z AUTO 02006KT 3SM 13/09 A3015 RMK T01300090 IEM_DS3505
ZGSZ,2007-04-04 11:00,ZGSZ 041100Z AUTO 03008KT 1 1/2SM 13/10 A3015 RMK T01300100 IEM_DS3505
ZGSZ,2007-04-04 12:00,ZGSZ 041200Z AUTO 04008KT 2 1/2SM 12/10 A3018 RMK 60000 SLP223 T01220103 52015 IEM_DS3505
ZGSZ,2007-04-04 13:00,ZGSZ 041300Z AUTO 02004KT 2SM 13/10 A3018 RMK T01300100 IEM_DS3505
ZGSZ,2007-04-04 14:00,ZGSZ 041400Z AUTO 04006KT 2 1/2SM 13/10 A3018 RMK T01300100 IEM_DS3505
ZGSZ,2007-04-04 15:00,ZGSZ 041500Z AUTO 02004KT 2SM 13/10 A3021 RMK SLP228 T01280105 52005 IEM_DS3505
ZGSZ,2007-04-04 16:00,ZGSZ 041600Z AUTO 01008KT 3SM 13/10 A3021 RMK T01300100 IEM_DS3505
ZGSZ,2007-04-04 17:00,ZGSZ 041700Z AUTO 02006KT 3SM 13/10 A3018 RMK T01300100 IEM_DS3505
ZGSZ,2007-04-04 18:00,ZGSZ 041800Z AUTO 02006KT 2SM 13/11 A3015 RMK 60000 SLP213 T01310106 57015 IEM_DS3505
ZGSZ,2007-04-04 19:00,ZGSZ 041900Z AUTO 02010KT 3SM 13/10 A3015 RMK T01300100 IEM_DS3505
ZGSZ,2007-04-04 20:00,ZGSZ 042000Z AUTO 04006KT 3SM 13/10 A3012 RMK T01300100 IEM_DS3505
ZGSZ,2007-04-04 21:00,ZGSZ 042100Z AUTO 36004KT 2SM 13/10 A3015 RMK 70004 SLP207 T01320104 57006 IEM_DS3505
ZGSZ,2007-04-04 22:00,ZGSZ 042200Z AUTO 05006KT 3SM 13/10 A3012 RMK T01300100 IEM_DS3505
ZGSZ,2007-04-04 23:00,ZGSZ 042300Z AUTO 02004KT 3SM 14/10 A3015 RMK T01400100 IEM_DS3505
ZGSZ,2007-04-05 00:00,ZGSZ 050000Z AUTO 04004KT 4SM 14/11 A3015 RMK 70000 SLP214 T01380108 52007 IEM_DS3505
ZGSZ,2007-04-05 01:00,ZGSZ 050100Z AUTO 01006KT 3SM 14/10 A3018 RMK T01400100 IEM_DS3505
ZGSZ,2007-04-05 02:00,ZGSZ 050200Z AUTO 02008KT 3SM 15/11 A3018 RMK T01500110 IEM_DS3505
ZGSZ,2007-04-05 03:00,ZGSZ 050300Z AUTO 04004KT 3SM 14/11 RMK SLP217 T01440112 52004 IEM_DS3505
ZGSZ,2007-04-05 04:00,ZGSZ 050400Z AUTO 01008KT 3SM 15/11 A3015 RMK T01500110 IEM_DS3505
ZGSZ,2007-04-05 05:00,ZGSZ 050500Z AUTO 36008KT 2 1/2SM 15/11 A3012 RMK T01500110 IEM_DS3505
ZGSZ,2007-04-05 06:00,ZGSZ 050600Z AUTO 02006KT 2 1/2SM 15/12 A3012 RMK SLP195 T01480116 57022 IEM_DS3505
ZGSZ,2007-04-05 07:00,ZGSZ 050700Z AUTO 01010KT 2SM 14/11 A3009 RMK T01400110 IEM_DS3505
ZGSZ,2007-04-05 08:00,ZGSZ 050800Z AUTO 01008KT 2SM 15/11 A3009 RMK T01500110 IEM_DS3505
ZGSZ,2007-04-05 09:00,ZGSZ 050900Z AUTO 36006KT 2SM 14/12 A3009 RMK SLP191 T01390119 57004 IEM_DS3505
ZGSZ,2007-04-05 10:00,ZGSZ 051000Z AUTO 02006KT 3SM 14/11 A3009 RMK T01400110 IEM_DS3505
ZGSZ,2007-04-05 11:00,ZGSZ 051100Z AUTO 01008KT 2 1/2SM 14/12 A3012 RMK T01400120 IEM_DS3505
ZGSZ,2007-04-05 12:00,ZGSZ 051200Z AUTO 02004KT 2SM 14/13 A3012 RMK 60000 SLP205 T01370126 52014 IEM_DS3505
ZGSZ,2007-04-05 13:00,ZGSZ 051300Z AUTO 2 1/2SM 15/12 A3015 RMK T01500120 IEM_DS3505
ZGSZ,2007-04-05 14:00,ZGSZ 051400Z AUTO 02006KT 3SM 15/12 A3015 RMK T01500120 IEM_DS3505
ZGSZ,2007-04-05 15:00,ZGSZ 051500Z AUTO 34006KT 5SM 15/12 A3015 RMK SLP213 T01460125 52008 IEM_DS3505
ZGSZ,2007-04-05 16:00,ZGSZ 051600Z AUTO 3SM 15/12 A3015 RMK T01500120 IEM_DS3505
ZGSZ,2007-04-05 18:00,ZGSZ 051800Z AUTO 07002KT 3SM 15/13 A3012 RMK 60000 SLP198 T01460128 57015 IEM_DS3505
ZGSZ,2007-04-05 19:00,ZGSZ 051900Z AUTO 04004KT 5SM 15/13 A3009 RMK T01500130 IEM_DS3505
ZGSZ,2007-04-05 20:00,ZGSZ 052000Z AUTO 35004KT 2SM 15/12 A3006 RMK T01500120 IEM_DS3505
ZGSZ,2007-04-05 21:00,ZGSZ 052100Z AUTO 33004KT 3SM 15/13 A3006 RMK 70000 SLP186 T01490133 57012 IEM_DS3505
ZGSZ,2007-04-05 22:00,ZGSZ 052200Z AUTO 36004KT 2SM 15/13 A3009 RMK T01500130 IEM_DS3505
ZGSZ,2007-04-05 23:00,ZGSZ 052300Z AUTO 36004KT 1 1/2SM 15/13 A3009 RMK T01500130 IEM_DS3505
ZGSZ,2007-04-06 00:00,ZGSZ 060000Z AUTO 02004KT 3SM 15/14 A3012 RMK 60000 70000 SLP202 T01540136 52016 IEM_DS3505
ZGSZ,2007-04-06 01:00,ZGSZ 060100Z AUTO 02008KT 2SM 16/13 A3015 RMK T01600130 IEM_DS3505
ZGSZ,2007-04-06 02:00,ZGSZ 060200Z AUTO 35008KT 3SM 16/13 A3015 RMK T01600130 IEM_DS3505
ZGSZ,2007-04-06 03:00,ZGSZ 060300Z AUTO 02004KT 2 1/2SM 17/14 A3012 RMK SLP203 T01710142 52001 IEM_DS3505
ZGSZ,2007-04-06 04:00,ZGSZ 060400Z AUTO 01008KT 2 1/2SM 17/13 A3009 RMK T01700130 IEM_DS3505
ZGSZ,2007-04-06 05:00,ZGSZ 060500Z AUTO 02008KT 2 1/2SM 18/13 A3009 RMK T01800130 IEM_DS3505
ZGSZ,2007-04-06 06:00,ZGSZ 060600Z AUTO 34006KT 2 1/2SM 17/14 A3006 RMK 60000 SLP183 T01740141 57020 IEM_DS3505
ZGSZ,2007-04-06 07:00,ZGSZ 060700Z AUTO 02008KT 3SM 18/13 A3003 RMK T01800130 IEM_DS3505
ZGSZ,2007-04-06 08:00,ZGSZ 060800Z AUTO 04006KT 4SM 18/13 A3003 RMK T01800130 IEM_DS3505
ZGSZ,2007-04-06 09:00,ZGSZ 060900Z AUTO 36006KT 2 1/2SM 17/14 A3003 RMK SLP174 T01720141 57009 IEM_DS3505
ZGSZ,2007-04-06 10:00,ZGSZ 061000Z AUTO 01008KT 3SM 17/13 A3003 RMK T01700130 IEM_DS3505
ZGSZ,2007-04-06 11:00,ZGSZ 061100Z AUTO 33004KT 3SM 17/13 A3006 RMK T01700130 IEM_DS3505
ZGSZ,2007-04-06 12:00,ZGSZ 061200Z AUTO 32004KT 2SM 16/14 A3009 RMK 60000 SLP190 T01640141 52016 IEM_DS3505
ZGSZ,2007-04-06 13:00,ZGSZ 061300Z AUTO 01006KT 3SM 17/14 A3009 RMK T01700140 IEM_DS3505
ZGSZ,2007-04-06 14:00,ZGSZ 061400Z AUTO 02008KT 2SM 16/14 A3012 RMK T01600140 IEM_DS3505
ZGSZ,2007-04-06 15:00,ZGSZ 061500Z AUTO 04004KT 2SM 16/14 A3012 RMK SLP205 T01580140 52015 IEM_DS3505
ZGSZ,2007-04-06 16:00,ZGSZ 061600Z AUTO 36006KT 3SM 16/14 A3012 RMK T01600140 IEM_DS3505
ZGSZ,2007-04-06 17:00,ZGSZ 061700Z AUTO 35004KT 4SM 16/13 A3009 RMK T01600130 IEM_DS3505
ZGSZ,2007-04-06 18:00,ZGSZ 061800Z AUTO 04006KT 2 1/2SM 15/14 A3006 RMK 60002 SLP187 T01520136 57018 IEM_DS3505
ZGSZ,2007-04-06 19:00,ZGSZ 061900Z AUTO 36006KT 4SM 16/13 A3006 RMK T01600130 IEM_DS3505
ZGSZ,2007-04-06 20:00,ZGSZ 062000Z AUTO 34004KT 4SM 16/13 A3006 RMK T01600130 IEM_DS3505
ZGSZ,2007-04-06 21:00,ZGSZ 062100Z AUTO 04002KT 4SM 15/14 A3006 RMK 70004 SLP179 T01540136 57007 IEM_DS3505
ZGSZ,2007-04-06 22:00,ZGSZ 062200Z AUTO 04004KT 3SM 15/12 A3006 RMK T01500120 IEM_DS3505
ZGSZ,2007-04-06 23:00,ZGSZ 062300Z AUTO 3SM 16/13 A3009 RMK T01600130 IEM_DS3505
ZGSZ,2007-04-07 00:00,ZGSZ 070000Z AUTO 04002KT 6SM 16/14 A3009 RMK 60002 70004 SLP192 T01610138 52012 IEM_DS3505
ZGSZ,2007-04-07 01:00,ZGSZ 070100Z AUTO 02004KT 3SM 17/13 A3009 RMK T01700130 IEM_DS3505
ZGSZ,2007-04-07 02:00,ZGSZ 070200Z AUTO 34006KT 4SM 18/14 A3009 RMK T01800140 IEM_DS3505
ZGSZ,2007-04-07 03:00,ZGSZ 070300Z AUTO 07006KT 6SM 18/14 A3009 RMK SLP190 T01840141 57001 IEM_DS3505
ZGSZ,2007-04-07 04:00,ZGSZ 070400Z AUTO 36004KT 3SM 19/14 A3009 RMK T01900140 IEM_DS3505
ZGSZ,2007-04-07 05:00,ZGSZ 070500Z AUTO 4SM 20/14 A3003 RMK T02000140 IEM_DS3505
ZGSZ,2007-04-07 06:00,ZGSZ 070600Z AUTO 07002KT 6SM 19/15 A3003 RMK SLP172 T01920147 57018 IEM_DS3505
ZGSZ,2007-04-07 07:00,ZGSZ 070700Z AUTO 31006KT 3SM 19/14 A3000 RMK T01900140 IEM_DS3505
ZGSZ,2007-04-07 08:00,ZGSZ 070800Z AUTO 35006KT 3SM 19/13 A3000 RMK T01900130 IEM_DS3505
ZGSZ,2007-04-07 09:00,ZGSZ 070900Z AUTO 34004KT 4SM 19/15 A3000 RMK SLP161 T01910148 57011 IEM_DS3505
ZGSZ,2007-04-07 10:00,ZGSZ 071000Z AUTO 36010KT 3SM 18/13 A3000 RMK T01800130 IEM_DS3505
ZGSZ,2007-04-07 11:00,ZGSZ 071100Z AUTO 36010KT 3SM 18/13 A3003 RMK T01800130 IEM_DS3505
ZGSZ,2007-04-07 12:00,ZGSZ 071200Z AUTO 36006KT 2 1/2SM 17/14 A3003 RMK SLP175 T01710144 52014 IEM_DS3505
ZGSZ,2007-04-07 13:00,ZGSZ 071300Z AUTO 01006KT 2 1/2SM 17/14 A3006 RMK T01700140 IEM_DS3505
ZGSZ,2007-04-07 14:00,ZGSZ 071400Z AUTO 33006KT 2SM 17/14 A3009 RMK T01700140 IEM_DS3505
ZGSZ,2007-04-07 15:00,ZGSZ 071500Z AUTO 20002KT 2SM 17/15 A3009 RMK SLP191 T01660150 52016 IEM_DS3505
ZGSZ,2007-04-07 16:00,ZGSZ 071600Z AUTO 32004KT 1 1/2SM 17/14 A3009 RMK T01700140 IEM_DS3505
ZGSZ,2007-04-07 17:00,ZGSZ 071700Z AUTO 36004KT 2 1/2SM 17/14 A3006 RMK T01700140 IEM_DS3505
ZGSZ,2007-04-07 18:00,ZGSZ 071800Z AUTO 36002KT 1 1/4SM 17/15 A3003 RMK 60008 SLP176 T01660150 57015 IEM_DS3505
ZGSZ,2007-04-07 19:00,ZGSZ 071900Z AUTO 00000KT 2SM 17/14 A3003 RMK T01700140 IEM_DS3505
ZGSZ,2007-04-07 20:00,ZGSZ 072000Z AUTO 35004KT 2SM 17/14 A3003 RMK T01700140 IEM_DS3505
ZGSZ,2007-04-07 21:00,ZGSZ 072100Z AUTO 34002KT 2SM 17/14 A3003 RMK 70008 SLP175 T01660144 57001 IEM_DS3505
ZGSZ,2007-04-07 22:00,ZGSZ 072200Z AUTO 2 1/2SM 17/14 A3006 RMK T01700140 IEM_DS3505
ZGSZ,2007-04-07 23:00,ZGSZ 072300Z AUTO 36006KT 2 1/2SM 17/14 A3006 RMK T01700140 IEM_DS3505
ZGSZ,2007-04-08 00:00,ZGSZ 080000Z AUTO 36004KT 2 1/2SM 17/14 A3009 RMK 70008 SLP197 T01690144 52022 IEM_DS3505
ZGSZ,2007-04-08 01:00,ZGSZ 080100Z AUTO 03004KT 3SM 18/14 A3012 RMK T01800140 IEM_DS3505
ZGSZ,2007-04-08 03:00,ZGSZ 080300Z AUTO 02006KT 2 1/2SM 19/14 A3012 RMK SLP200 T01860141 52003 IEM_DS3505
ZGSZ,2007-04-08 04:00,ZGSZ 080400Z AUTO 01006KT 3SM 21/14 A3009 RMK T02100140 IEM_DS3505
ZGSZ,2007-04-08 05:00,ZGSZ 080500Z AUTO 36008KT 4SM 22/14 A3006 RMK T02200140 IEM_DS3505
ZGSZ,2007-04-08 06:00,ZGSZ 080600Z AUTO 02006KT 2 1/2SM 20/14 A3003 RMK SLP177 T02030144 57023 IEM_DS3505
ZGSZ,2007-04-08 07:00,ZGSZ 080700Z AUTO 01006KT 3SM 22/14 A3003 RMK T02200140 IEM_DS3505
ZGSZ,2007-04-08 08:00,ZGSZ 080800Z AUTO 36010KT 4SM 21/13 A3003 RMK T02100130 IEM_DS3505
ZGSZ,2007-04-08 09:00,ZGSZ 080900Z AUTO 02006KT 2SM 20/14 A3003 RMK SLP169 T02050139 57008 IEM_DS3505
ZGSZ,2007-04-08 10:00,ZGSZ 081000Z AUTO 05008KT 4SM 21/13 A3003 RMK T02100130 IEM_DS3505
ZGSZ,2007-04-08 11:00,ZGSZ 081100Z AUTO 03004KT 3SM 21/13 A3006 RMK T02100130 IEM_DS3505
ZGSZ,2007-04-08 12:00,ZGSZ 081200Z AUTO 36004KT 2 1/2SM 20/14 A3006 RMK SLP189 T01960135 52020 IEM_DS3505
ZGSZ,2007-04-08 13:00,ZGSZ 081300Z AUTO 04006KT 3SM 20/12 A3009 RMK T02000120 IEM_DS3505
ZGSZ,2007-04-08 14:00,ZGSZ 081400Z AUTO 03006KT 4SM 20/12 A3009 RMK T02000120 IEM_DS3505
ZGSZ,2007-04-08 15:00,ZGSZ 081500Z AUTO 07004KT 2 1/2SM 19/14 A3009 RMK SLP196 T01910137 52007 IEM_DS3505
ZGSZ,2007-04-08 16:00,ZGSZ 081600Z AUTO 3SM 20/13 A3009 RMK T02000130 IEM_DS3505
ZGSZ,2007-04-08 17:00,ZGSZ 081700Z AUTO 3SM 19/14 A3009 RMK T01900140 IEM_DS3505
ZGSZ,2007-04-08 18:00,ZGSZ 081800Z AUTO 34002KT 2 1/2SM 18/15 A3006 RMK SLP186 T01790153 57010 IEM_DS3505
ZGSZ,2007-04-08 19:00,ZGSZ 081900Z AUTO 02006KT 3SM 19/14 A3006 RMK T01900140 IEM_DS3505
ZGSZ,2007-04-08 20:00,ZGSZ 082000Z AUTO 36008KT 2SM 18/15 A3003 RMK T01800150 IEM_DS3505
ZGSZ,2007-04-08 21:00,ZGSZ 082100Z AUTO 07004KT 2 1/2SM 18/15 A3003 RMK SLP174 T01800149 57012 IEM_DS3505
ZGSZ,2007-04-08 22:00,ZGSZ 082200Z AUTO 10002KT 3SM 18/14 A3003 RMK T01800140 IEM_DS3505
ZGSZ,2007-04-08 23:00,ZGSZ 082300Z AUTO 00000KT 3SM 18/14 A3006 RMK T01800140 IEM_DS3505
ZGSZ,2007-04-09 00:00,ZGSZ 090000Z AUTO 36004KT 2 1/2SM 19/15 A3006 RMK SLP186 T01860149 52012 IEM_DS3505
ZGSZ,2007-04-09 01:00,ZGSZ 090100Z AUTO 3SM 21/14 A3009 RMK T02100140 IEM_DS3505
ZGSZ,2007-04-09 02:00,ZGSZ 090200Z AUTO 27004KT 3SM 20/14 A3012 RMK T02000140 IEM_DS3505
ZGSZ,2007-04-09 03:00,ZGSZ 090300Z AUTO 07006KT 7SM 21/08 A3009 RMK SLP195 T02130079 52009 IEM_DS3505
ZGSZ,2007-04-09 04:00,ZGSZ 090400Z AUTO 09006KT 5SM 24/12 A3006 RMK T02400120 IEM_DS3505
ZGSZ,2007-04-09 05:00,ZGSZ 090500Z AUTO 12008KT 6SM 25/07 A3003 RMK T02500070 IEM_DS3505
ZGSZ,2007-04-09 06:00,ZGSZ 090600Z AUTO 09006KT 12SM 24/09 A3003 RMK SLP172 T02450089 57022 IEM_DS3505
ZGSZ,2007-04-09 07:00,ZGSZ 090700Z AUTO 23004KT 4SM 23/12 A3000 RMK T02300120 IEM_DS3505
ZGSZ,2007-04-09 08:00,ZGSZ 090800Z AUTO 25004KT 4SM 23/12 A3000 RMK T02300120 IEM_DS3505
ZGSZ,2007-04-09 09:00,ZGSZ 090900Z AUTO 11008KT 12SM 22/11 A3000 RMK SLP164 T02250106 57008 IEM_DS3505
ZGSZ,2007-04-09 10:00,ZGSZ 091000Z AUTO 24004KT 4SM 22/15 A3000 RMK T02200150 IEM_DS3505
ZGSZ,2007-04-09 11:00,ZGSZ 091100Z AUTO 00000KT 4SM 21/14 A3000 RMK T02100140 IEM_DS3505
ZGSZ,2007-04-09 12:00,ZGSZ 091200Z AUTO 07006KT 12SM 20/13 A3000 RMK SLP175 T02030133 52010 IEM_DS3505
ZGSZ,2007-04-09 13:00,ZGSZ 091300Z AUTO 11006KT 5SM 21/13 A3006 RMK T02100130 IEM_DS3505
ZGSZ,2007-04-09 14:00,ZGSZ 091400Z AUTO 10006KT 5SM 21/14 A3006 RMK T02100140 IEM_DS3505
ZGSZ,2007-04-09 15:00,ZGSZ 091500Z AUTO 07006KT 9SM 20/15 A3006 RMK SLP184 T01980152 52010 IEM_DS3505
ZGSZ,2007-04-09 16:00,ZGSZ 091600Z AUTO 12006KT 5SM 20/15 A3006 RMK T02000150 IEM_DS3505
ZGSZ,2007-04-09 18:00,ZGSZ 091800Z AUTO 02004KT 2 1/2SM 19/15 A3003 RMK 60000 SLP175 T01920153 57009 IEM_DS3505
ZGSZ,2007-04-09 19:00,ZGSZ 091900Z AUTO 3SM 18/15 A3000 RMK T01800150 IEM_DS3505
ZGSZ,2007-04-09 20:00,ZGSZ 092000Z AUTO 00000KT 3SM 18/15 A3000 RMK T01800150 IEM_DS3505
ZGSZ,2007-04-09 21:00,ZGSZ 092100Z AUTO 04004KT 1 1/2SM 17/16 A3000 RMK 70026 SLP164 T01730155 57011 IEM_DS3505
ZGSZ,2007-04-09 22:00,ZGSZ 092200Z AUTO 06004KT 3SM 18/14 A3003 RMK T01800140 IEM_DS3505
ZGSZ,2007-04-09 23:00,ZGSZ 092300Z AUTO 06002KT 2 1/2SM 18/14 A3003 RMK T01800140 IEM_DS3505
ZGSZ,2007-04-10 00:00,ZGSZ 100000Z AUTO 04004KT 2SM 18/15 A3006 RMK 60028 70027 SLP186 T01750153 52021 IEM_DS3505
ZGSZ,2007-04-10 01:00,ZGSZ 100100Z AUTO 05006KT 3SM 19/14 A3009 RMK T01900140 IEM_DS3505
ZGSZ,2007-04-10 02:00,ZGSZ 100200Z AUTO 04006KT 3SM 19/14 A3009 RMK T01900140 IEM_DS3505
ZGSZ,2007-04-10 03:00,ZGSZ 100300Z AUTO 02006KT 1 1/2SM 18/15 A3009 RMK SLP193 T01750151 52007 IEM_DS3505
ZGSZ,2007-04-10 04:00,ZGSZ 100400Z AUTO 02006KT 1 1/4SM 18/15 A3009 RMK T01800150 IEM_DS3505
ZGSZ,2007-04-10 05:00,ZGSZ 100500Z AUTO 01008KT 1 1/4SM 17/15 A3006 RMK T01700150 IEM_DS3505
ZGSZ,2007-04-10 06:00,ZGSZ 100600Z AUTO 07004KT 2SM 17/15 A3003 RMK 60004 SLP177 T01730151 57016 IEM_DS3505
ZGSZ,2007-04-10 07:00,ZGSZ 100700Z AUTO 03006KT 2SM 18/15 A3003 RMK T01800150 IEM_DS3505
ZGSZ,2007-04-10 08:00,ZGSZ 100800Z AUTO 03004KT 2SM 19/15 A3003 RMK T01900150 IEM_DS3505
ZGSZ,2007-04-10 09:00,ZGSZ 100900Z AUTO 04004KT 2 1/2SM 18/15 A3003 RMK SLP171 T01790153 57006 IEM_DS3505
ZGSZ,2007-04-10 10:00,ZGSZ 101000Z AUTO 02008KT 2SM 18/15 A3003 RMK T01800150 IEM_DS3505
ZGSZ,2007-04-10 11:00,ZGSZ 101100Z AUTO 36004KT 2SM 18/15 A3003 RMK T01800150 IEM_DS3505
ZGSZ,2007-04-10 12:00,ZGSZ 101200Z AUTO 36002KT 1 1/2SM 18/15 A3006 RMK 60000 SLP183 T01790153 52012 IEM_DS3505
ZGSZ,2007-04-10 13:00,ZGSZ 101300Z AUTO 03006KT 2SM 18/15 A3006 RMK T01800150 IEM_DS3505
ZGSZ,2007-04-10 14:00,ZGSZ 101400Z AUTO 01004KT 2 1/2SM 18/15 A3006 RMK T01800150 IEM_DS3505
ZGSZ,2007-04-10 15:00,ZGSZ 101500Z AUTO 04004KT 1 1/4SM 17/15 A3009 RMK SLP186 T01720154 52003 IEM_DS3505
ZGSZ,2007-04-10 16:00,ZGSZ 101600Z AUTO 2SM 18/15 A3006 RMK T01800150 IEM_DS3505
ZGSZ,2007-04-10 17:00,ZGSZ 101700Z AUTO 00000KT 3SM 18/15 A3003 RMK T01800150 IEM_DS3505
ZGSZ,2007-04-10 18:00,ZGSZ 101800Z AUTO 04002KT 4SM 17/15 A3003 RMK 60000 SLP170 T01730148 57016 IEM_DS3505
ZGSZ,2007-04-10 19:00,ZGSZ 101900Z AUTO 36004KT 2SM 17/15 A3000 RMK T01700150 IEM_DS3505
ZGSZ,2007-04-10 20:00,ZGSZ 102000Z AUTO 35004KT 1 1/2SM 17/15 A3000 RMK T01700150 IEM_DS3505
ZGSZ,2007-04-10 21:00,ZGSZ 102100Z AUTO 04002KT 4SM 16/15 A3003 RMK 70006 SLP172 T01640146 52002 IEM_DS3505
ZGSZ,2007-04-10 22:00,ZGSZ 102200Z AUTO 36004KT 2SM 17/14 A3003 RMK T01700140 IEM_DS3505
ZGSZ,2007-04-10 23:00,ZGSZ 102300Z AUTO 03006KT 2SM 18/14 A3006 RMK T01800140 IEM_DS3505
ZGSZ,2007-04-11 00:00,ZGSZ 110000Z AUTO 36006KT 3SM 18/15 A3006 RMK 70005 SLP186 T01760149 52014 IEM_DS3505
ZGSZ,2007-04-11 01:00,ZGSZ 110100Z AUTO 08004KT 3SM 20/14 A3009 RMK T02000140 IEM_DS3505
ZGSZ,2007-04-11 02:00,ZGSZ 110200Z AUTO 05006KT 3SM 21/14 A3006 RMK T02100140 IEM_DS3505
ZGSZ,2007-04-11 03:00,ZGSZ 110300Z AUTO 09004KT 5SM 22/13 A3006 RMK SLP183 T02170133 57003 IEM_DS3505
ZGSZ,2007-04-11 04:00,ZGSZ 110400Z AUTO 26006KT 3SM 22/15 A3003 RMK T02200150 IEM_DS3505
ZGSZ,2007-04-11 05:00,ZGSZ 110500Z AUTO 29008KT 3SM 23/15 A3003 RMK T02300150 IEM_DS3505
ZGSZ,2007-04-11 06:00,ZGSZ 110600Z AUTO 22002KT 6SM 24/15 A3000 RMK SLP160 T02420152 57022 IEM_DS3505
ZGSZ,2007-04-11 07:00,ZGSZ 110700Z AUTO 26006KT 3SM 23/15 A2997 RMK T02300150 IEM_DS3505
ZGSZ,2007-04-11 09:00,ZGSZ 110900Z AUTO 16004KT 5SM 22/15 A2997 RMK SLP153 T02250146 57007 IEM_DS3505
ZGSZ,2007-04-11 10:00,ZGSZ 111000Z AUTO 17006KT 4SM 21/16 A2997 RMK T02100160 IEM_DS3505
ZGSZ,2007-04-11 11:00,ZGSZ 111100Z AUTO 17006KT 4SM 21/16 A2997 RMK T02100160 IEM_DS3505
ZGSZ,2007-04-11 12:00,ZGSZ 111200Z AUTO 09004KT 7SM 20/12 A3000 RMK SLP169 T02030125 52015 IEM_DS3505
ZGSZ,2007-04-11 13:00,ZGSZ 111300Z AUTO 12008KT 4SM 21/13 A3003 RMK T02100130 IEM_DS3505
ZGSZ,2007-04-11 14:00,ZGSZ 111400Z AUTO 12010KT 3SM 20/14 A3003 RMK T02000140 IEM_DS3505
ZGSZ,2007-04-11 15:00,ZGSZ 111500Z AUTO 09004KT 5SM 19/14 A3003 RMK SLP175 T01930135 52007 IEM_DS3505
ZGSZ,2007-04-11 16:00,ZGSZ 111600Z AUTO 12006KT 3SM 19/14 A3003 RMK T01900140 IEM_DS3505
ZGSZ,2007-04-11 17:00,ZGSZ 111700Z AUTO 12006KT 3SM 19/14 A3000 RMK T01900140 IEM_DS3505
ZGSZ,2007-04-11 18:00,ZGSZ 111800Z AUTO 07004KT 4SM 19/14 A3000 RMK SLP163 T01870144 57012 IEM_DS3505
ZGSZ,2007-04-11 19:00,ZGSZ 111900Z AUTO 2 1/2SM 19/14 A2997 RMK T01900140 IEM_DS3505
ZGSZ,2007-04-11 20:00,ZGSZ 112000Z AUTO 2SM 18/14 A2997 RMK T01800140 IEM_DS3505
ZGSZ,2007-04-11 21:00,ZGSZ 112100Z AUTO 07006KT 3SM 18/14 A2997 RMK SLP156 T01820135 57007 IEM_DS3505
ZGSZ,2007-04-11 22:00,ZGSZ 112200Z AUTO 00000KT 2SM 17/14 A3000 RMK T01700140 IEM_DS3505
ZGSZ,2007-04-11 23:00,ZGSZ 112300Z AUTO 00000KT 2SM 18/15 A3003 RMK T01800150 IEM_DS3505
ZGSZ,2007-04-12 00:00,ZGSZ 120000Z AUTO 09004KT 7SM 20/09 A3003 RMK SLP179 T01950091 52022 IEM_DS3505
ZGSZ,2007-04-12 01:00,ZGSZ 120100Z AUTO 13004KT 6SM 22/07 A3006 RMK T02200070 IEM_DS3505
ZGSZ,2007-04-12 02:00,ZGSZ 120200Z AUTO 11006KT 6SM 24/06 A3003 RMK T02400060 IEM_DS3505
ZGSZ,2007-04-12 03:00,ZGSZ 120300Z AUTO 09004KT 14SM 24/05 A3003 RMK SLP172 T02450048 57006 IEM_DS3505
ZGSZ,2007-04-12 04:00,ZGSZ 120400Z AUTO 26008KT 5SM 23/11 A3000 RMK T02300110 IEM_DS3505
ZGSZ,2007-04-12 05:00,ZGSZ 120500Z AUTO 24008KT 6SM 24/12 A2997 RMK T02400120 IEM_DS3505
ZGSZ,2007-04-12 06:00,ZGSZ 120600Z AUTO 07006KT 16SM 25/05 A2994 RMK SLP147 T02490052 57025 IEM_DS3505
ZGSZ,2007-04-12 07:00,ZGSZ 120700Z AUTO 22008KT 6SM 24/11 A2994 RMK T02400110 IEM_DS3505
ZGSZ,2007-04-12 08:00,ZGSZ 120800Z AUTO 21008KT 6SM 24/12 A2991 RMK T02400120 IEM_DS3505
ZGSZ,2007-04-12 09:00,ZGSZ 120900Z AUTO 07002KT 14SM 25/05 A2991 RMK SLP135 T02490052 57012 IEM_DS3505
ZGSZ,2007-04-12 10:00,ZGSZ 121000Z AUTO 18008KT 6SM 22/14 A2991 RMK T02200140 IEM_DS3505
ZGSZ,2007-04-12 11:00,ZGSZ 121100Z AUTO 19004KT 6SM 21/15 A2994 RMK T02100150 IEM_DS3505
ZGSZ,2007-04-12 12:00,ZGSZ 121200Z AUTO 07002KT 6SM 21/11 A2994 RMK SLP148 T02130108 52013 IEM_DS3505
ZGSZ,2007-04-12 13:00,ZGSZ 121300Z AUTO 17006KT 3SM 21/16 A2997 RMK T02100160 IEM_DS3505
ZGSZ,2007-04-12 14:00,ZGSZ 121400Z AUTO 15006KT 3SM 20/15 A2997 RMK T02000150 IEM_DS3505
ZGSZ,2007-04-12 15:00,ZGSZ 121500Z AUTO 07006KT 4SM 20/13 A3000 RMK SLP158 T01990127 52010 IEM_DS3505
ZGSZ,2007-04-12 16:00,ZGSZ 121600Z AUTO 10004KT 4SM 20/11 A2997 RMK T02000110 IEM_DS3505
ZGSZ,2007-04-12 17:00,ZGSZ 121700Z AUTO 13004KT 3SM 19/12 A2994 RMK T01900120 IEM_DS3505
ZGSZ,2007-04-12 18:00,ZGSZ 121800Z AUTO 07002KT 2 1/2SM 19/15 A2994 RMK SLP146 T01890146 57012 IEM_DS3505
ZGSZ,2007-04-12 19:00,ZGSZ 121900Z AUTO 00000KT 3SM 19/13 A2994 RMK T01900130 IEM_DS3505
ZGSZ,2007-04-12 20:00,ZGSZ 122000Z AUTO 00000KT 3SM 19/13 A2994 RMK T01900130 IEM_DS3505
ZGSZ,2007-04-12 21:00,ZGSZ 122100Z AUTO 02002KT 2 1/2SM 18/15 A2994 RMK SLP147 T01820153 52001 IEM_DS3505
ZGSZ,2007-04-12 22:00,ZGSZ 122200Z AUTO 00000KT 3SM 19/14 A2997 RMK T01900140 IEM_DS3505
ZGSZ,2007-04-12 23:00,ZGSZ 122300Z AUTO 00000KT 2SM 19/15 A2997 RMK T01900150 IEM_DS3505
ZGSZ,2007-04-13 00:00,ZGSZ 130000Z AUTO 20002KT 2 1/2SM 20/16 A3000 RMK SLP162 T01970158 52015 IEM_DS3505
ZGSZ,2007-04-13 01:00,ZGSZ 130100Z AUTO 14004KT 2 1/2SM 22/15 A3000 RMK T02200150 IEM_DS3505
ZGSZ,2007-04-13 02:00,ZGSZ 130200Z AUTO 25004KT 2 1/2SM 23/16 A3000 RMK T02300160 IEM_DS3505
ZGSZ,2007-04-13 03:00,ZGSZ 130300Z AUTO 16002KT 4SM 25/13 A3000 RMK SLP163 T02480127 52001 IEM_DS3505
ZGSZ,2007-04-13 04:00,ZGSZ 130400Z AUTO 24004KT 3SM 24/16 A3000 RMK T02400160 IEM_DS3505
ZGSZ,2007-04-13 05:00,ZGSZ 130500Z AUTO 22006KT 3SM 25/16 A2997 RMK T02500160 IEM_DS3505
ZGSZ,2007-04-13 06:00,ZGSZ 130600Z AUTO 20004KT 4SM 27/14 A2994 RMK SLP142 T02710142 57020 IEM_DS3505
ZGSZ,2007-04-13 07:00,ZGSZ 130700Z AUTO 21006KT 3SM 25/16 A2991 RMK T02500160 IEM_DS3505
ZGSZ,2007-04-13 08:00,ZGSZ 130800Z AUTO 21006KT 3SM 24/19 A2991 RMK T02400190 IEM_DS3505
ZGSZ,2007-04-13 09:00,ZGSZ 130900Z AUTO 20006KT 4SM 26/15 A2988 RMK SLP128 T02550152 57015 IEM_DS3505
ZGSZ,2007-04-13 10:00,ZGSZ 131000Z AUTO 18008KT 3SM 24/18 A2988 RMK T02400180 IEM_DS3505
ZGSZ,2007-04-13 11:00,ZGSZ 131100Z AUTO 16006KT 1 1/2SM 23/20 A2991 RMK T02300200 IEM_DS3505
ZGSZ,2007-04-13 12:00,ZGSZ 131200Z AUTO 25002KT 4SM 23/16 A2991 RMK SLP136 T02290165 52008 IEM_DS3505
ZGSZ,2007-04-13 13:00,ZGSZ 131300Z AUTO 17006KT 1 1/4SM 22/20 A2991 RMK T02200200 IEM_DS3505
ZGSZ,2007-04-13 14:00,ZGSZ 131400Z AUTO 17006KT 1 1/4SM 22/20 A2994 RMK T02200200 IEM_DS3505
ZGSZ,2007-04-13 15:00,ZGSZ 131500Z AUTO 18002KT 4SM 22/18 A2994 RMK SLP142 T02170175 52007 IEM_DS3505
ZGSZ,2007-04-13 16:00,ZGSZ 131600Z AUTO 15006KT 2SM 21/19 A2991 RMK T02100190 IEM_DS3505
ZGSZ,2007-04-13 18:00,ZGSZ 131800Z AUTO 16002KT 4SM 21/15 A2991 RMK SLP129 T02140153 57013 IEM_DS3505
ZGSZ,2007-04-13 19:00,ZGSZ 131900Z AUTO 16006KT 2 1/2SM 21/18 A2988 RMK T02100180 IEM_DS3505
ZGSZ,2007-04-13 20:00,ZGSZ 132000Z AUTO 14006KT 2 1/2SM 21/17 A2985 RMK T02100170 IEM_DS3505
ZGSZ,2007-04-13 21:00,ZGSZ 132100Z AUTO 04002KT 2 1/2SM 21/15 A2988 RMK SLP119 T02090152 57010 IEM_DS3505
ZGSZ,2007-04-13 22:00,ZGSZ 132200Z AUTO 12002KT 2SM 21/16 A2988 RMK T02100160 IEM_DS3505
ZGSZ,2007-04-13 23:00,ZGSZ 132300Z AUTO 13004KT 2 1/2SM 22/16 A2988 RMK T02200160 IEM_DS3505
ZGSZ,2007-04-14 00:00,ZGSZ 140000Z AUTO 14002KT 2 1/2SM 22/17 A2991 RMK SLP134 T02230170 52014 IEM_DS3505
ZGSZ,2007-04-14 01:00,ZGSZ 140100Z AUTO 16006KT 4SM 25/15 A2991 RMK T02500150 IEM_DS3505
ZGSZ,2007-04-14 02:00,ZGSZ 140200Z AUTO 18006KT 5SM 26/13 A2991 RMK T02600130 IEM_DS3505
ZGSZ,2007-04-14 03:00,ZGSZ 140300Z AUTO 22006KT 5SM 26/14 A2991 RMK SLP136 T02570142 52003 IEM_DS3505
ZGSZ,2007-04-14 04:00,ZGSZ 140400Z AUTO 17010KT 4SM 25/19 A2988 RMK T02500190 IEM_DS3505
ZGSZ,2007-04-14 05:00,ZGSZ 140500Z AUTO 18010KT 3SM 25/20 A2988 RMK T02500200 IEM_DS3505
ZGSZ,2007-04-14 06:00,ZGSZ 140600Z AUTO 22004KT 6SM 27/17 A2985 RMK SLP111 T02680170 57025 IEM_DS3505
ZGSZ,2007-04-14 07:00,ZGSZ 140700Z AUTO 17010KT 4SM 25/19 A2983 RMK T02500190 IEM_DS3505
ZGSZ,2007-04-14 08:00,ZGSZ 140800Z AUTO 16010KT 3SM 24/19 A2983 RMK T02400190 IEM_DS3505
ZGSZ,2007-04-14 09:00,ZGSZ 140900Z AUTO 22006KT 5SM 25/17 A2980 RMK SLP102 T02460168 57009 IEM_DS3505
ZGSZ,2007-04-14 10:00,ZGSZ 141000Z AUTO 16012KT 2 1/2SM 23/20 A2980 RMK T02300200 IEM_DS3505
ZGSZ,2007-04-14 11:00,ZGSZ 141100Z AUTO 16010KT 2 1/2SM 23/20 A2983 RMK T02300200 IEM_DS3505
ZGSZ,2007-04-14 12:00,ZGSZ 141200Z AUTO 16004KT 4SM 23/19 A2983 RMK 60000 SLP101 T02260188 57001 IEM_DS3505
ZGSZ,2007-04-14 13:00,ZGSZ 141300Z AUTO 17006KT 6SM 23/20 A2985 RMK T02300200 IEM_DS3505
ZGSZ,2007-04-14 14:00,ZGSZ 141400Z AUTO 16008KT 6SM 22/19 A2985 RMK T02200190 IEM_DS3505
ZGSZ,2007-04-14 15:00,ZGSZ 141500Z AUTO 22004KT 7SM 22/18 A2985 RMK SLP119 T02250178 52018 IEM_DS3505
ZGSZ,2007-04-14 16:00,ZGSZ 141600Z AUTO 16008KT 2 1/2SM 23/20 A2985 RMK T02300200 IEM_DS3505
ZGSZ,2007-04-14 17:00,ZGSZ 141700Z AUTO 15006KT 2 1/2SM 22/20 A2983 RMK T02200200 IEM_DS3505
ZGSZ,2007-04-14 18:00,ZGSZ 141800Z AUTO 02002KT 6SM 22/18 A2983 RMK SLP104 T02180178 57015 IEM_DS3505
ZGSZ,2007-04-14 19:00,ZGSZ 141900Z AUTO 14006KT 2SM 21/19 A2983 RMK T02100190 IEM_DS3505
ZGSZ,2007-04-14 20:00,ZGSZ 142000Z AUTO 14004KT 1 1/2SM 22/20 A2983 RMK T02200200 IEM_DS3505
ZGSZ,2007-04-14 21:00,ZGSZ 142100Z AUTO 02002KT 5SM 22/18 A2983 RMK 70000 SLP101 T02160184 57003 IEM_DS3505
ZGSZ,2007-04-14 22:00,ZGSZ 142200Z AUTO 15002KT 2SM 22/19 A2983 RMK T02200190 IEM_DS3505
ZGSZ,2007-04-14 23:00,ZGSZ 142300Z AUTO 14004KT 1 1/2SM 23/20 A2983 RMK T02300200 IEM_DS3505
ZGSZ,2007-04-15 00:00,ZGSZ 150000Z AUTO 16004KT 3SM 23/19 A2985 RMK 70000 SLP118 T02330188 52017 IEM_DS3505
ZGSZ,2007-04-15 01:00,ZGSZ 150100Z AUTO 17004KT 4SM 25/21 A2988 RMK T02500210 IEM_DS3505
ZGSZ,2007-04-15 02:00,ZGSZ 150200Z AUTO 17004KT 4SM 25/20 A2988 RMK T02500200 IEM_DS3505
ZGSZ,2007-04-15 03:00,ZGSZ 150300Z AUTO 22006KT 4SM 28/20 A2988 RMK SLP120 T02750196 52002 IEM_DS3505
ZGSZ,2007-04-15 04:00,ZGSZ 150400Z AUTO 19004KT 6SM 26/20 A2985 RMK T02600200 IEM_DS3505
ZGSZ,2007-04-15 05:00,ZGSZ 150500Z AUTO 20004KT 4SM 26/21 A2983 RMK T02600210 IEM_DS3505
ZGSZ,2007-04-15 06:00,ZGSZ 150600Z AUTO 20008KT 6SM 27/21 A2980 RMK SLP094 T02700206 57026 IEM_DS3505
ZGSZ,2007-04-15 07:00,ZGSZ 150700Z AUTO 18008KT 3SM 27/22 A2977 RMK T02700220 IEM_DS3505
ZGSZ,2007-04-15 08:00,ZGSZ 150800Z AUTO 18010KT 3SM 26/22 A2977 RMK T02600220 IEM_DS3505
ZGSZ,2007-04-15 09:00,ZGSZ 150900Z AUTO 20008KT 5SM 27/21 A2977 RMK SLP083 T02730209 57011 IEM_DS3505
ZGSZ,2007-04-15 10:00,ZGSZ 151000Z AUTO 17010KT 2 1/2SM 25/22 A2977 RMK T02500220 IEM_DS3505
ZGSZ,2007-04-15 11:00,ZGSZ 151100Z AUTO 16010KT 2SM 24/22 A2980 RMK T02400220 IEM_DS3505
ZGSZ,2007-04-15 12:00,ZGSZ 151200Z AUTO 20002KT 4SM 24/21 A2980 RMK SLP099 T02420211 52016 IEM_DS3505
ZGSZ,2007-04-15 13:00,ZGSZ 151300Z AUTO 15008KT 3SM 24/22 A2983 RMK T02400220 IEM_DS3505
ZGSZ,2007-04-15 14:00,ZGSZ 151400Z AUTO 15008KT 2 1/2SM 24/22 A2983 RMK T02400220 IEM_DS3505
ZGSZ,2007-04-15 15:00,ZGSZ 151500Z AUTO 27004KT 4SM 24/21 A2985 RMK SLP111 T02390210 52012 IEM_DS3505
ZGSZ,2007-04-15 16:00,ZGSZ 151600Z AUTO 15006KT 2SM 24/22 A2983 RMK T02400220 IEM_DS3505
ZGSZ,2007-04-15 18:00,ZGSZ 151800Z AUTO 29002KT 2 1/2SM 23/22 A2983 RMK SLP102 T02340215 57009 IEM_DS3505
ZGSZ,2007-04-15 19:00,ZGSZ 151900Z AUTO 15008KT 1SM 23/22 A2980 RMK T02300220 IEM_DS3505
ZGSZ,2007-04-15 20:00,ZGSZ 152000Z AUTO 1SM 23/22 A2980 RMK T02300220 IEM_DS3505
ZGSZ,2007-04-15 21:00,ZGSZ 152100Z AUTO 22004KT 4SM 23/22 A2980 RMK SLP095 T02320218 57007 IEM_DS3505
ZGSZ,2007-04-15 22:00,ZGSZ 152200Z AUTO 15004KT 1/2SM 23/22 A2980 RMK T02300220 IEM_DS3505
ZGSZ,2007-04-15 23:00,ZGSZ 152300Z AUTO 14004KT 1SM 23/22 A2983 RMK T02300220 IEM_DS3505
ZGSZ,2007-04-16 00:00,ZGSZ 160000Z AUTO 20002KT 2 1/2SM 24/22 A2985 RMK SLP112 T02370220 52017 IEM_DS3505
ZGSZ,2007-04-16 01:00,ZGSZ 160100Z AUTO 20004KT 2 1/2SM 24/23 A2985 RMK T02400230 IEM_DS3505
ZGSZ,2007-04-16 02:00,ZGSZ 160200Z AUTO 20004KT 3SM 26/23 A2985 RMK T02600230 IEM_DS3505
ZGSZ,2007-04-16 03:00,ZGSZ 160300Z AUTO 22004KT 6SM 28/21 A2985 RMK SLP110 T02840209 57001 IEM_DS3505
ZGSZ,2007-04-16 04:00,ZGSZ 160400Z AUTO 22006KT 3SM 27/23 A2983 RMK T02700230 IEM_DS3505
ZGSZ,2007-04-16 05:00,ZGSZ 160500Z AUTO 22004KT 4SM 27/23 A2980 RMK T02700230 IEM_DS3505
ZGSZ,2007-04-16 06:00,ZGSZ 160600Z AUTO 20008KT 7SM 30/22 A2977 RMK SLP085 T03040215 57025 IEM_DS3505
ZGSZ,2007-04-16 07:00,ZGSZ 160700Z AUTO 19008KT 3SM 27/23 A2977 RMK T02700230 IEM_DS3505
ZGSZ,2007-04-16 08:00,ZGSZ 160800Z AUTO 18008KT 4SM 27/24 A2974 RMK T02700240 IEM_DS3505
ZGSZ,2007-04-16 09:00,ZGSZ 160900Z AUTO 25006KT 8SM 27/22 A2974 RMK SLP079 T02690219 57007 IEM_DS3505
ZGSZ,2007-04-16 10:00,ZGSZ 161000Z AUTO 16010KT 4SM 25/23 A2977 RMK T02500230 IEM_DS3505
ZGSZ,2007-04-16 11:00,ZGSZ 161100Z AUTO 15012KT 6SM 25/23 A2977 RMK T02500230 IEM_DS3505
ZGSZ,2007-04-16 12:00,ZGSZ 161200Z AUTO 22004KT 8SM 26/21 A2980 RMK SLP094 T02570214 52015 IEM_DS3505
ZGSZ,2007-04-16 13:00,ZGSZ 161300Z AUTO 15010KT 6SM 25/23 A2980 RMK T02500230 IEM_DS3505
ZGSZ,2007-04-16 14:00,ZGSZ 161400Z AUTO 15010KT 6SM 25/23 A2980 RMK T02500230 IEM_DS3505
ZGSZ,2007-04-16 15:00,ZGSZ 161500Z AUTO 25002KT 5SM 25/22 A2980 RMK SLP097 T02480219 52004 IEM_DS3505
ZGSZ,2007-04-16 16:00,ZGSZ 161600Z AUTO 14006KT 6SM 25/23 A2980 RMK T02500230 IEM_DS3505
ZGSZ,2007-04-16 17:00,ZGSZ 161700Z AUTO 16006KT 3SM 25/23 A2980 RMK T02500230 IEM_DS3505
ZGSZ,2007-04-16 18:00,ZGSZ 161800Z AUTO 11004KT 4SM 24/22 A2977 RMK SLP087 T02420221 57010 IEM_DS3505
ZGSZ,2007-04-16 19:00,ZGSZ 161900Z AUTO 16008KT 2 1/2SM 25/23 A2977 RMK T02500230 IEM_DS3505
ZGSZ,2007-04-16 20:00,ZGSZ 162000Z AUTO 16006KT 4SM 25/23 A2977 RMK T02500230 IEM_DS3505
ZGSZ,2007-04-16 21:00,ZGSZ 162100Z AUTO 16002KT 2 1/2SM 24/22 A2974 RMK SLP081 T02420221 57006 IEM_DS3505
ZGSZ,2007-04-16 22:00,ZGSZ 162200Z AUTO 16006KT 3SM 25/23 A2977 RMK T02500230 IEM_DS3505
ZGSZ,2007-04-16 23:00,ZGSZ 162300Z AUTO 15006KT 7SM 25/23 A2980 RMK T02500230 IEM_DS3505
ZGSZ,2007-04-17 00:00,ZGSZ 170000Z AUTO 16002KT 4SM 25/23 A2980 RMK SLP101 T02510226 52019 IEM_DS3505
ZGSZ,2007-04-17 01:00,ZGSZ 170100Z AUTO 18006KT 3SM 26/23 A2983 RMK T02600230 IEM_DS3505
ZGSZ,2007-04-17 02:00,ZGSZ 170200Z AUTO 17010KT 4SM 26/23 A2983 RMK T02600230 IEM_DS3505
ZGSZ,2007-04-17 03:00,ZGSZ 170300Z AUTO 25004KT 9SM 27/22 A2983 RMK SLP102 T02730225 52002 IEM_DS3505
ZGSZ,2007-04-17 04:00,ZGSZ 170400Z AUTO 16014KT 7SM 28/24 A2980 RMK T02800240 IEM_DS3505
ZGSZ,2007-04-17 05:00,ZGSZ 170500Z AUTO 17014KT 7SM 27/23 A2977 RMK T02700230 IEM_DS3505
ZGSZ,2007-04-17 06:00,ZGSZ 170600Z AUTO 20004KT 14SM 27/22 A2974 RMK SLP076 T02680224 57026 IEM_DS3505
ZGSZ,2007-04-17 07:00,ZGSZ 170700Z AUTO 16016KT 7SM 27/24 A2968 RMK T02700240 IEM_DS3505
ZGSZ,2007-04-17 08:00,ZGSZ 170800Z AUTO 17014KT 7SM 26/23 A2968 RMK T02600230 IEM_DS3505
ZGSZ,2007-04-17 09:00,ZGSZ 170900Z AUTO 20010KT 14SM 26/22 A2968 RMK SLP059 T02650224 57017 IEM_DS3505
ZGSZ,2007-04-17 10:00,ZGSZ 171000Z AUTO 17014KT 4SM 26/23 A2968 RMK T02600230 IEM_DS3505
ZGSZ,2007-04-17 11:00,ZGSZ 171100Z AUTO 18012KT 3SM 25/24 A2971 RMK T02500240 IEM_DS3505
ZGSZ,2007-04-17 12:00,ZGSZ 171200Z AUTO 32016KT 12SM 25/20 A2980 RMK SLP085 T02540200 52025 IEM_DS3505
ZGSZ,2007-04-17 13:00,ZGSZ 171300Z AUTO 36010KT 5SM 21/18 A2983 RMK T02100180 IEM_DS3505
ZGSZ,2007-04-17 14:00,ZGSZ 171400Z AUTO 34010KT 7SM 21/18 A2988 RMK T02100180 IEM_DS3505
ZGSZ,2007-04-17 15:00,ZGSZ 171500Z AUTO 02008KT 17SM 20/17 A2985 RMK SLP109 T02010169 52024 IEM_DS3505
ZGSZ,2007-04-17 16:00,ZGSZ 171600Z AUTO 34012G23KT 7SM 20/15 A2988 RMK T02000150 IEM_DS3505
ZGSZ,2007-04-17 17:00,ZGSZ 171700Z AUTO 34010KT 7SM 19/14 A2988 RMK T01900140 IEM_DS3505
ZGSZ,2007-04-17 18:00,ZGSZ 171800Z AUTO 36008KT 16SM 19/15 A2988 RMK 60039 SLP122 T01870152 40278//// 52013 IEM_DS3505
ZGSZ,2007-04-17 19:00,ZGSZ 171900Z AUTO 01014KT 7SM 19/13 A2988 RMK T01900130 IEM_DS3505
ZGSZ,2007-04-17 20:00,ZGSZ 172000Z AUTO 35014KT 7SM 18/13 A2988 RMK T01800130 IEM_DS3505
ZGSZ,2007-04-17 21:00,ZGSZ 172100Z AUTO 36012KT 16SM 17/12 A2988 RMK 70039 SLP125 T01720117 52002 IEM_DS3505
ZGSZ,2007-04-17 22:00,ZGSZ 172200Z AUTO 04008KT 7SM 17/11 A2991 RMK T01700110 IEM_DS3505
ZGSZ,2007-04-17 23:00,ZGSZ 172300Z AUTO 04010KT 7SM 18/10 A2994 RMK T01800100 IEM_DS3505
ZGSZ,2007-04-18 00:00,ZGSZ 180000Z AUTO 02006KT 16SM 18/11 A2994 RMK 70039 SLP143 T01820110 52018 IEM_DS3505
ZGSZ,2007-04-18 01:00,ZGSZ 180100Z AUTO 01012KT 6SM 20/09 A2997 RMK T02000090 IEM_DS3505
ZGSZ,2007-04-18 02:00,ZGSZ 180200Z AUTO 03008KT 6SM 22/08 A2997 RMK T02200080 IEM_DS3505
ZGSZ,2007-04-18 03:00,ZGSZ 180300Z AUTO 36008KT 16SM 22/09 A3000 RMK SLP157 T02220090 52014 IEM_DS3505
ZGSZ,2007-04-18 04:00,ZGSZ 180400Z AUTO 01014KT 6SM 25/07 A2997 RMK T02500070 IEM_DS3505
ZGSZ,2007-04-18 05:00,ZGSZ 180500Z AUTO 36008KT 6SM 26/05 A2997 RMK T02600050 IEM_DS3505
ZGSZ,2007-04-18 06:00,ZGSZ 180600Z AUTO 32010KT 19SM 25/07 A2994 RMK SLP139 T02510073 57018 IEM_DS3505
ZGSZ,2007-04-18 07:00,ZGSZ 180700Z AUTO 02010KT 6SM 27/06 A2991 RMK T02700060 IEM_DS3505
ZGSZ,2007-04-18 08:00,ZGSZ 180800Z AUTO 03008KT 6SM 27/07 A2991 RMK T02700070 IEM_DS3505
ZGSZ,2007-04-18 09:00,ZGSZ 180900Z AUTO 36012KT 19SM 26/05 A2988 RMK SLP127 T02550051 57012 IEM_DS3505
ZGSZ,2007-04-18 10:00,ZGSZ 181000Z AUTO 05006KT 6SM 26/07 A2991 RMK T02600070 IEM_DS3505
ZGSZ,2007-04-18 11:00,ZGSZ 181100Z AUTO 06004KT 6SM 25/08 A2991 RMK T02500080 IEM_DS3505
ZGSZ,2007-04-18 12:00,ZGSZ 181200Z AUTO 36002KT 17SM 23/07 A2994 RMK SLP141 T02300071 52014 IEM_DS3505
ZGSZ,2007-04-18 13:00,ZGSZ 181300Z AUTO 08006KT 6SM 24/07 A2994 RMK T02400070 IEM_DS3505
ZGSZ,2007-04-18 14:00,ZGSZ 181400Z AUTO 11004KT 6SM 23/10 A2997 RMK T02300100 IEM_DS3505
ZGSZ,2007-04-18 15:00,ZGSZ 181500Z AUTO 09002KT 16SM 21/10 A2997 RMK SLP153 T02130102 52012 IEM_DS3505
ZGSZ,2007-04-18 16:00,ZGSZ 181600Z AUTO 6SM 21/10 A2997 RMK T02100100 IEM_DS3505
ZGSZ,2007-04-18 17:00,ZGSZ 181700Z AUTO 6SM 21/10 A2997 RMK T02100100 IEM_DS3505
ZGSZ,2007-04-18 18:00,ZGSZ 181800Z AUTO 09002KT 16SM 20/15 A2997 RMK SLP149 T01950152 57004 IEM_DS3505
ZGSZ,2007-04-18 19:00,ZGSZ 181900Z AUTO 10006KT 6SM 18/14 A2994 RMK T01800140 IEM_DS3505
ZGSZ,2007-04-18 20:00,ZGSZ 182000Z AUTO 11004G16KT 6SM 19/15 A2994 RMK T01900150 IEM_DS3505
ZGSZ,2007-04-18 21:00,ZGSZ 182100Z AUTO 07004KT 12SM 19/16 A2994 RMK SLP147 T01930160 57002 IEM_DS3505
ZGSZ,2007-04-18 22:00,ZGSZ 182200Z AUTO 10004KT 4SM 19/15 A2997 RMK T01900150 IEM_DS3505
ZGSZ,2007-04-18 23:00,ZGSZ 182300Z AUTO 10004KT 4SM 20/16 A3000 RMK T02000160 IEM_DS3505
ZGSZ,2007-04-19 00:00,ZGSZ 190000Z AUTO 07008KT 12SM 21/16 A3000 RMK SLP165 T02120160 52018 IEM_DS3505
ZGSZ,2007-04-19 01:00,ZGSZ 190100Z AUTO 09008KT 7SM 23/16 A3003 RMK T02300160 IEM_DS3505
ZGSZ,2007-04-19 02:00,ZGSZ 190200Z AUTO 13006KT 7SM 25/15 A3003 RMK T02500150 IEM_DS3505
ZGSZ,2007-04-19 03:00,ZGSZ 190300Z AUTO 09004KT 17SM 25/14 A3003 RMK SLP172 T02460144 52007 IEM_DS3505
ZGSZ,2007-04-19 04:00,ZGSZ 190400Z AUTO 22008KT 7SM 25/16 A3000 RMK T02500160 IEM_DS3505
ZGSZ,2007-04-19 05:00,ZGSZ 190500Z AUTO 21010KT 7SM 25/15 A2997 RMK T02500150 IEM_DS3505
ZGSZ,2007-04-19 06:00,ZGSZ 190600Z AUTO 09006KT 16SM 24/15 A2997 RMK SLP151 T02420149 57021 IEM_DS3505
ZGSZ,2007-04-19 07:00,ZGSZ 190700Z AUTO 21010KT 6SM 25/15 A2994 RMK T02500150 IEM_DS3505
ZGSZ,2007-04-19 08:00,ZGSZ 190800Z AUTO 21010KT 6SM 25/16 A2994 RMK T02500160 IEM_DS3505
ZGSZ,2007-04-19 09:00,ZGSZ 190900Z AUTO 14008KT 16SM 23/15 A2994 RMK SLP144 T02340149 57007 IEM_DS3505
ZGSZ,2007-04-19 10:00,ZGSZ 191000Z AUTO 18014KT 7SM 23/16 A2994 RMK T02300160 IEM_DS3505
ZGSZ,2007-04-19 11:00,ZGSZ 191100Z AUTO 16014KT 7SM 23/16 A2994 RMK T02300160 IEM_DS3505
ZGSZ,2007-04-19 12:00,ZGSZ 191200Z AUTO 07004KT 14SM 21/16 A2997 RMK SLP158 T02060156 52014 IEM_DS3505
ZGSZ,2007-04-19 13:00,ZGSZ 191300Z AUTO 12008KT 6SM 22/15 A2997 RMK T02200150 IEM_DS3505
ZGSZ,2007-04-19 14:00,ZGSZ 191400Z AUTO 12010KT 6SM 21/15 A3000 RMK T02100150 IEM_DS3505
ZGSZ,2007-04-19 15:00,ZGSZ 191500Z AUTO 07006KT 12SM 20/16 A2997 RMK SLP161 T01980161 52003 IEM_DS3505
ZGSZ,2007-04-19 16:00,ZGSZ 191600Z AUTO 11006KT 6SM 20/16 A2997 RMK T02000160 IEM_DS3505
ZGSZ,2007-04-19 17:00,ZGSZ 191700Z AUTO 10004KT 6SM 20/16 A3000 RMK T02000160 IEM_DS3505
ZGSZ,2007-04-19 18:00,ZGSZ 191800Z AUTO 09002KT 10SM 20/16 RMK SLP158 T01970165 57003 IEM_DS3505
ZGSZ,2007-04-19 20:00,ZGSZ 192000Z AUTO 07004KT 6SM 20/17 A2994 RMK T02000170 IEM_DS3505
ZGSZ,2007-04-19 21:00,ZGSZ 192100Z AUTO 09004KT 9SM 20/17 A2994 RMK SLP143 T02020172 57015 IEM_DS3505
ZGSZ,2007-04-19 22:00,ZGSZ 192200Z AUTO 10004KT 4SM 21/17 A2994 RMK T02100170 IEM_DS3505
ZGSZ,2007-04-19 23:00,ZGSZ 192300Z AUTO 00000KT 4SM 21/17 A2994 RMK T02100170 IEM_DS3505
ZGSZ,2007-04-20 00:00,ZGSZ 200000Z AUTO 07004KT 7SM 22/18 A2997 RMK SLP153 T02210181 52010 IEM_DS3505
ZGSZ,2007-04-20 01:00,ZGSZ 200100Z AUTO 11006KT 4SM 24/18 A2997 RMK T02400180 IEM_DS3505
ZGSZ,2007-04-20 02:00,ZGSZ 200200Z AUTO 4SM 25/19 A3000 RMK T02500190 IEM_DS3505
ZGSZ,2007-04-20 03:00,ZGSZ 200300Z AUTO 14004KT 9SM 25/18 A3000 RMK SLP160 T02530180 52007 IEM_DS3505
ZGSZ,2007-04-20 04:00,ZGSZ 200400Z AUTO 23006KT 4SM 26/20 A2997 RMK T02600200 IEM_DS3505
ZGSZ,2007-04-20 05:00,ZGSZ 200500Z AUTO 21004KT 4SM 26/20 A2994 RMK T02600200 IEM_DS3505
ZGSZ,2007-04-20 06:00,ZGSZ 200600Z AUTO 16006KT 12SM 27/18 A2991 RMK SLP134 T02740179 57025 IEM_DS3505
ZGSZ,2007-04-20 07:00,ZGSZ 200700Z AUTO 21006KT 6SM 26/21 A2988 RMK T02600210 IEM_DS3505
ZGSZ,2007-04-20 08:00,ZGSZ 200800Z AUTO 20008KT 6SM 26/21 A2985 RMK T02600210 IEM_DS3505
ZGSZ,2007-04-20 09:00,ZGSZ 200900Z AUTO 11006KT 19SM 27/19 A2985 RMK SLP116 T02740192 57018 IEM_DS3505
ZGSZ,2007-04-20 10:00,ZGSZ 201000Z AUTO 20006KT 6SM 25/21 A2985 RMK T02500210 IEM_DS3505
ZGSZ,2007-04-20 11:00,ZGSZ 201100Z AUTO 18008KT 6SM 25/22 A2988 RMK T02500220 IEM_DS3505
ZGSZ,2007-04-20 12:00,ZGSZ 201200Z AUTO 09004KT 12SM 24/20 A2988 RMK SLP126 T02370198 52010 IEM_DS3505
ZGSZ,2007-04-20 13:00,ZGSZ 201300Z AUTO 11006KT 6SM 25/21 A2991 RMK T02500210 IEM_DS3505
ZGSZ,2007-04-20 14:00,ZGSZ 201400Z AUTO 11008KT 6SM 25/20 A2991 RMK T02500200 IEM_DS3505
ZGSZ,2007-04-20 15:00,ZGSZ 201500Z AUTO 07004KT 9SM 23/20 A2991 RMK SLP138 T02300203 52012 IEM_DS3505
ZGSZ,2007-04-20 16:00,ZGSZ 201600Z AUTO 12006KT 6SM 24/21 A2991 RMK T02400210 IEM_DS3505
ZGSZ,2007-04-20 17:00,ZGSZ 201700Z AUTO 12006KT 6SM 24/20 A2988 RMK T02400200 IEM_DS3505
ZGSZ,2007-04-20 18:00,ZGSZ 201800Z AUTO 07004KT 5SM 23/21 A2988 RMK SLP127 T02310206 57011 IEM_DS3505
ZGSZ,2007-04-20 19:00,ZGSZ 201900Z AUTO 11006KT 7SM 24/21 A2988 RMK T02400210 IEM_DS3505
ZGSZ,2007-04-20 20:00,ZGSZ 202000Z AUTO 11006KT 4SM 24/21 A2985 RMK T02400210 IEM_DS3505
ZGSZ,2007-04-20 21:00,ZGSZ 202100Z AUTO 07004KT 4SM 23/21 A2985 RMK SLP121 T02320207 57006 IEM_DS3505
ZGSZ,2007-04-20 22:00,ZGSZ 202200Z AUTO 11004KT 3SM 24/21 A2988 RMK T02400210 IEM_DS3505
ZGSZ,2007-04-20 23:00,ZGSZ 202300Z AUTO 12006KT 4SM 25/21 A2988 RMK T02500210 IEM_DS3505
ZGSZ,2007-04-21 00:00,ZGSZ 210000Z AUTO 09004KT 7SM 25/21 A2988 RMK SLP128 T02520211 52007 IEM_DS3505
ZGSZ,2007-04-21 01:00,ZGSZ 210100Z AUTO 11008KT 7SM 27/22 A2991 RMK T02700220 IEM_DS3505
ZGSZ,2007-04-21 02:00,ZGSZ 210200Z AUTO 15008KT 7SM 28/22 A2988 RMK T02800220 IEM_DS3505
ZGSZ,2007-04-21 03:00,ZGSZ 210300Z AUTO 14002KT 16SM 26/22 A2991 RMK SLP132 T02580215 52004 IEM_DS3505
ZGSZ,2007-04-21 04:00,ZGSZ 210400Z AUTO 18010KT 7SM 28/23 A2988 RMK T02800230 IEM_DS3505
ZGSZ,2007-04-21 05:00,ZGSZ 210500Z AUTO 18010KT 7SM 28/23 A2985 RMK T02800230 IEM_DS3505
ZGSZ,2007-04-21 06:00,ZGSZ 210600Z AUTO 20002KT 16SM 27/21 A2983 RMK SLP109 T02730213 57023 IEM_DS3505
ZGSZ,2007-04-21 07:00,ZGSZ 210700Z AUTO 17012KT 7SM 27/23 A2983 RMK T02700230 IEM_DS3505
ZGSZ,2007-04-21 08:00,ZGSZ 210800Z AUTO 18010KT 7SM 28/23 A2980 RMK T02800230 IEM_DS3505
ZGSZ,2007-04-21 09:00,ZGSZ 210900Z AUTO 20002KT 14SM 26/22 A2980 RMK SLP098 T02650215 57011 IEM_DS3505
ZGSZ,2007-04-21 10:00,ZGSZ 211000Z AUTO 17010KT 7SM 26/23 A2980 RMK T02600230 IEM_DS3505
ZGSZ,2007-04-21 11:00,ZGSZ 211100Z AUTO 16008KT 7SM 26/23 A2980 RMK T02600230 IEM_DS3505
ZGSZ,2007-04-21 12:00,ZGSZ 211200Z AUTO 14002KT 11SM 25/21 A2983 RMK SLP103 T02500213 52005 IEM_DS3505
ZGSZ,2007-04-21 13:00,ZGSZ 211300Z AUTO 15008KT 7SM 26/22 A2983 RMK T02600220 IEM_DS3505
ZGSZ,2007-04-21 14:00,ZGSZ 211400Z AUTO 12008KT 7SM 26/22 A2983 RMK T02600220 IEM_DS3505
ZGSZ,2007-04-21 15:00,ZGSZ 211500Z AUTO 07002KT 7SM 25/22 A2983 RMK SLP114 T02480215 52011 IEM_DS3505
ZGSZ,2007-04-21 16:00,ZGSZ 211600Z AUTO 15010KT 7SM 26/22 A2983 RMK T02600220 IEM_DS3505
ZGSZ,2007-04-21 17:00,ZGSZ 211700Z AUTO 14010KT 7SM 26/22 A2983 RMK T02600220 IEM_DS3505
ZGSZ,2007-04-21 18:00,ZGSZ 211800Z AUTO 16004KT 9SM 25/21 A2980 RMK SLP096 T02510214 57017 IEM_DS3505
ZGSZ,2007-04-21 19:00,ZGSZ 211900Z AUTO 16004KT 4SM 26/23 A2980 RMK T02600230 IEM_DS3505
ZGSZ,2007-04-21 20:00,ZGSZ 212000Z AUTO 15010KT 3SM 26/23 A2980 RMK T02600230 IEM_DS3505
ZGSZ,2007-04-21 21:00,ZGSZ 212100Z AUTO 22002KT 9SM 25/22 A2980 RMK SLP098 T02460219 52001 IEM_DS3505
ZGSZ,2007-04-21 22:00,ZGSZ 212200Z AUTO 15010KT 7SM 25/23 A2980 RMK T02500230 IEM_DS3505
ZGSZ,2007-04-21 23:00,ZGSZ 212300Z AUTO 15010KT 7SM 26/23 A2980 RMK T02600230 IEM_DS3505
ZGSZ,2007-04-22 00:00,ZGSZ 220000Z AUTO 22002KT 7SM 25/22 A2983 RMK SLP104 T02520223 52006 IEM_DS3505
ZGSZ,2007-04-22 01:00,ZGSZ 220100Z AUTO 16012KT 7SM 27/23 A2983 RMK T02700230 IEM_DS3505
ZGSZ,2007-04-22 02:00,ZGSZ 220200Z AUTO 17012KT 7SM 26/23 A2983 RMK T02600230 IEM_DS3505
ZGSZ,2007-04-22 03:00,ZGSZ 220300Z AUTO 18004KT 11SM 27/23 A2983 RMK SLP108 T02730231 52005 IEM_DS3505
ZGSZ,2007-04-22 04:00,ZGSZ 220400Z AUTO 16012KT 7SM 28/24 A2983 RMK T02800240 IEM_DS3505
ZGSZ,2007-04-22 05:00,ZGSZ 220500Z AUTO 16016KT 7SM 28/24 A2980 RMK T02800240 IEM_DS3505
ZGSZ,2007-04-22 06:00,ZGSZ 220600Z AUTO 22010KT 17SM 28/22 A2977 RMK SLP088 T02840224 57020 IEM_DS3505
ZGSZ,2007-04-22 07:00,ZGSZ 220700Z AUTO 17012KT 5SM 26/24 A2977 RMK T02600240 IEM_DS3505
ZGSZ,2007-04-22 08:00,ZGSZ 220800Z AUTO 15014KT 7SM 27/24 A2971 RMK T02700240 IEM_DS3505
ZGSZ,2007-04-22 09:00,ZGSZ 220900Z AUTO 18006KT 14SM 27/23 A2971 RMK SLP060 T02710229 57028 IEM_DS3505
ZGSZ,2007-04-22 10:00,ZGSZ 221000Z AUTO 16010KT 7SM 26/24 A2974 RMK T02600240 IEM_DS3505
ZGSZ,2007-04-22 11:00,ZGSZ 221100Z AUTO 16010KT 7SM 26/24 A2974 RMK T02600240 IEM_DS3505
ZGSZ,2007-04-22 12:00,ZGSZ 221200Z AUTO 16004KT 4SM 26/23 A2974 RMK 60028 SLP082 T02550234 52022 IEM_DS3505
ZGSZ,2007-04-22 13:00,ZGSZ 221300Z AUTO 17010KT 7SM 26/24 A2977 RMK T02600240 IEM_DS3505
ZGSZ,2007-04-22 14:00,ZGSZ 221400Z AUTO 17006KT 7SM 26/24 A2977 RMK T02600240 IEM_DS3505
ZGSZ,2007-04-22 15:00,ZGSZ 221500Z AUTO 20004KT 5SM 25/23 A2980 RMK SLP088 T02520233 52006 IEM_DS3505
ZGSZ,2007-04-22 16:00,ZGSZ 221600Z AUTO 16010KT 7SM 26/24 A2977 RMK T02600240 IEM_DS3505
ZGSZ,2007-04-22 17:00,ZGSZ 221700Z AUTO 16012KT 7SM 26/24 A2974 RMK T02600240 IEM_DS3505
ZGSZ,2007-04-22 18:00,ZGSZ 221800Z AUTO 18002KT 7SM 25/23 A2971 RMK SLP073 T02540229 57015 IEM_DS3505
ZGSZ,2007-04-22 19:00,ZGSZ 221900Z AUTO 16010KT 4SM 26/24 A2971 RMK T02600240 IEM_DS3505
ZGSZ,2007-04-22 20:00,ZGSZ 222000Z AUTO 16008KT 7SM 26/24 A2971 RMK T02600240 IEM_DS3505
ZGSZ,2007-04-22 21:00,ZGSZ 222100Z AUTO 14004KT 11SM 26/23 A2971 RMK 70026 SLP069 T02600227 57004 IEM_DS3505
ZGSZ,2007-04-22 22:00,ZGSZ 222200Z AUTO 15008KT 3SM 26/24 A2974 RMK T02600240 IEM_DS3505
ZGSZ,2007-04-22 23:00,ZGSZ 222300Z AUTO 16012KT 2 1/2SM 25/24 A2974 RMK T02500240 IEM_DS3505
ZGSZ,2007-04-23 00:00,ZGSZ 230000Z AUTO 20006KT 6SM 23/21 A2974 RMK 60012 70039 SLP076 T02290212 52006 IEM_DS3505
ZGSZ,2007-04-23 01:00,ZGSZ 230100Z AUTO 23006KT 7SM 24/22 A2977 RMK T02400220 IEM_DS3505
ZGSZ,2007-04-23 02:00,ZGSZ 230200Z AUTO 17012KT 7SM 24/22 A2980 RMK T02400220 IEM_DS3505
ZGSZ,2007-04-23 03:00,ZGSZ 230300Z AUTO 25002KT 19SM 24/20 A2983 RMK SLP101 T02380203 52025 IEM_DS3505
ZGSZ,2007-04-23 04:00,ZGSZ 230400Z AUTO 17010KT 6SM 26/23 A2980 RMK T02600230 IEM_DS3505
ZGSZ,2007-04-23 05:00,ZGSZ 230500Z AUTO 15006KT 7SM 26/21 A2977 RMK T02600210 IEM_DS3505
ZGSZ,2007-04-23 06:00,ZGSZ 230600Z AUTO 25002KT 19SM 26/21 A2974 RMK 60004 SLP075 T02590209 57025 IEM_DS3505
ZGSZ,2007-04-23 07:00,ZGSZ 230700Z AUTO 7SM 26/22 A2974 RMK T02600220 IEM_DS3505
ZGSZ,2007-04-23 08:00,ZGSZ 230800Z AUTO 16006KT 7SM 26/22 A2974 RMK T02600220 IEM_DS3505
ZGSZ,2007-04-23 09:00,ZGSZ 230900Z AUTO 22004KT 19SM 26/21 A2974 RMK SLP073 T02560208 57002 IEM_DS3505
ZGSZ,2007-04-23 10:00,ZGSZ 231000Z AUTO 16006KT 7SM 26/22 A2974 RMK T02600220 IEM_DS3505
ZGSZ,2007-04-23 11:00,ZGSZ 231100Z AUTO 15004KT 7SM 25/21 A2974 RMK T02500210 IEM_DS3505
ZGSZ,2007-04-23 12:00,ZGSZ 231200Z AUTO 09004KT 16SM 25/21 A2977 RMK 60000 SLP085 T02530208 52011 IEM_DS3505
ZGSZ,2007-04-23 13:00,ZGSZ 231300Z AUTO 16004KT 7SM 26/22 A2977 RMK T02600220 IEM_DS3505
ZGSZ,2007-04-23 14:00,ZGSZ 231400Z AUTO 00000KT 7SM 25/23 A2980 RMK T02500230 IEM_DS3505
ZGSZ,2007-04-23 15:00,ZGSZ 231500Z AUTO 02002KT 9SM 25/22 A2983 RMK SLP105 T02490218 52020 IEM_DS3505
ZGSZ,2007-04-23 16:00,ZGSZ 231600Z AUTO 13004KT 7SM 26/23 A2980 RMK T02600230 IEM_DS3505
ZGSZ,2007-04-23 17:00,ZGSZ 231700Z AUTO 12006KT 7SM 26/23 A2977 RMK T02600230 IEM_DS3505
ZGSZ,2007-04-23 18:00,ZGSZ 231800Z AUTO 04004KT 8SM 24/22 A2974 RMK SLP083 T02430216 57022 IEM_DS3505
ZGSZ,2007-04-23 19:00,ZGSZ 231900Z AUTO 13006KT 4SM 26/23 A2974 RMK T02600230 IEM_DS3505
ZGSZ,2007-04-23 20:00,ZGSZ 232000Z AUTO 3SM 25/23 A2974 RMK T02500230 IEM_DS3505
ZGSZ,2007-04-23 21:00,ZGSZ 232100Z AUTO 13006KT 3SM 25/24 A2971 RMK T02500240 IEM_DS3505
ZGSZ,2007-04-23 22:00,ZGSZ 232200Z AUTO 15010KT 7SM 26/24 A2971 RMK T02600240 IEM_DS3505
ZGSZ,2007-04-23 23:00,ZGSZ 232300Z AUTO 15012KT 7SM 26/24 A2974 RMK T02600240 IEM_DS3505
ZGSZ,2007-04-24 00:00,ZGSZ 240000Z AUTO 18002KT 8SM 26/24 A2977 RMK 60000 70005 SLP089 T02600237 52018 IEM_DS3505
ZGSZ,2007-04-24 01:00,ZGSZ 240100Z AUTO 14010KT 7SM 27/24 A2983 RMK T02700240 IEM_DS3505
ZGSZ,2007-04-24 02:00,ZGSZ 240200Z AUTO 36004KT 2SM 21/20 A2985 RMK T02100200 IEM_DS3505
ZGSZ,2007-04-24 03:00,ZGSZ 240300Z AUTO 18004KT 4SM 21/20 A2985 RMK SLP115 T02100200 52025 IEM_DS3505
ZGSZ,2007-04-24 04:00,ZGSZ 240400Z AUTO 15008KT 4SM 22/21 A2985 RMK T02200210 IEM_DS3505
ZGSZ,2007-04-24 05:00,ZGSZ 240500Z AUTO 13006KT 3SM 22/21 A2983 RMK T02200210 IEM_DS3505
ZGSZ,2007-04-24 06:00,ZGSZ 240600Z AUTO 34004KT 7SM 21/20 A2983 RMK 60236 SLP097 T02140204 57018 IEM_DS3505
ZGSZ,2007-04-24 07:00,ZGSZ 240700Z AUTO 18004KT 7SM 23/21 A2983 RMK T02300210 IEM_DS3505
ZGSZ,2007-04-24 08:00,ZGSZ 240800Z AUTO 7SM 23/21 A2983 RMK T02300210 IEM_DS3505
ZGSZ,2007-04-24 09:00,ZGSZ 240900Z AUTO 14004KT 7SM 22/21 A2983 RMK SLP100 T02210206 52003 IEM_DS3505
ZGSZ,2007-04-24 10:00,ZGSZ 241000Z AUTO 30004KT 2 1/2SM 23/20 A2985 RMK T02300200 IEM_DS3505
ZGSZ,2007-04-24 11:00,ZGSZ 241100Z AUTO 5SM 22/20 A2985 RMK T02200200 IEM_DS3505
ZGSZ,2007-04-24 12:00,ZGSZ 241200Z AUTO 02006KT 3SM 22/20 A2988 RMK 60043 SLP118 T02180204 52018 IEM_DS3505
ZGSZ,2007-04-24 13:00,ZGSZ 241300Z AUTO 04006KT 3SM 23/20 A2988 RMK T02300200 IEM_DS3505
ZGSZ,2007-04-24 14:00,ZGSZ 241400Z AUTO 04010KT 7SM 22/18 A2991 RMK T02200180 IEM_DS3505
ZGSZ,2007-04-24 15:00,ZGSZ 241500Z AUTO 02004KT 7SM 20/17 A2994 RMK SLP140 T02050173 52021 IEM_DS3505
ZGSZ,2007-04-24 16:00,ZGSZ 241600Z AUTO 02008KT 7SM 22/17 A2994 RMK T02200170 IEM_DS3505
ZGSZ,2007-04-24 17:00,ZGSZ 241700Z AUTO 02006KT 7SM 21/17 A2991 RMK T02100170 IEM_DS3505
ZGSZ,2007-04-24 18:00,ZGSZ 241800Z AUTO 36002KT 9SM 20/16 A2991 RMK 60001 SLP137 T02040162 57003 IEM_DS3505
ZGSZ,2007-04-24 19:00,ZGSZ 241900Z AUTO 02010KT 7SM 21/15 A2991 RMK T02100150 IEM_DS3505
ZGSZ,2007-04-24 20:00,ZGSZ 242000Z AUTO 03006KT 7SM 21/16 A2988 RMK T02100160 IEM_DS3505
ZGSZ,2007-04-24 21:00,ZGSZ 242100Z AUTO 02004KT 9SM 20/15 A2991 RMK 70283 SLP133 T02030149 57004 IEM_DS3505
ZGSZ,2007-04-24 22:00,ZGSZ 242200Z AUTO 03008KT 7SM 21/15 A2994 RMK T02100150 IEM_DS3505
ZGSZ,2007-04-24 23:00,ZGSZ 242300Z AUTO 05006KT 7SM 21/15 A2997 RMK T02100150 IEM_DS3505
ZGSZ,2007-04-25 00:00,ZGSZ 250000Z AUTO 02004KT 11SM 20/15 A3000 RMK 70283 SLP161 T02020150 52028 IEM_DS3505
ZGSZ,2007-04-25 01:00,ZGSZ 250100Z AUTO 03006KT 7SM 21/15 A3000 RMK T02100150 IEM_DS3505
ZGSZ,2007-04-25 02:00,ZGSZ 250200Z AUTO 02008KT 7SM 21/15 A3003 RMK T02100150 IEM_DS3505
ZGSZ,2007-04-25 03:00,ZGSZ 250300Z AUTO 02004KT 11SM 20/15 A3003 RMK SLP175 T02010153 52014 IEM_DS3505
ZGSZ,2007-04-25 04:00,ZGSZ 250400Z AUTO 02010KT 3SM 19/16 A3006 RMK T01900160 IEM_DS3505
ZGSZ,2007-04-25 05:00,ZGSZ 250500Z AUTO 03006KT 2 1/2SM 19/15 A3006 RMK T01900150 IEM_DS3505
ZGSZ,2007-04-25 06:00,ZGSZ 250600Z AUTO 07004KT 4SM 18/16 A3003 RMK 60020 SLP173 T01820164 57003 IEM_DS3505
ZGSZ,2007-04-25 07:00,ZGSZ 250700Z AUTO 03010KT 3SM 20/16 A2997 RMK T02000160 IEM_DS3505
ZGSZ,2007-04-25 08:00,ZGSZ 250800Z AUTO 06006KT 4SM 21/16 A2997 RMK T02100160 IEM_DS3505
ZGSZ,2007-04-25 09:00,ZGSZ 250900Z AUTO 02006KT 5SM 20/16 A3000 RMK SLP160 T01980159 57012 IEM_DS3505
ZGSZ,2007-04-25 10:00,ZGSZ 251000Z AUTO 06004KT 4SM 21/15 A3000 RMK T02100150 IEM_DS3505
ZGSZ,2007-04-25 11:00,ZGSZ 251100Z AUTO 02004KT 4SM 21/16 A3000 RMK T02100160 IEM_DS3505
ZGSZ,2007-04-25 12:00,ZGSZ 251200Z AUTO 04006KT 3SM 20/16 A3000 RMK 60002 SLP166 T01960161 52006 IEM_DS3505
ZGSZ,2007-04-25 13:00,ZGSZ 251300Z AUTO 3SM 20/16 A3003 RMK T02000160 IEM_DS3505
ZGSZ,2007-04-25 14:00,ZGSZ 251400Z AUTO 08004KT 3SM 20/16 A3003 RMK T02000160 IEM_DS3505
ZGSZ,2007-04-25 15:00,ZGSZ 251500Z AUTO 04006KT 2 1/2SM 20/16 A3003 RMK SLP176 T01980161 52009 IEM_DS3505
ZGSZ,2007-04-25 16:00,ZGSZ 251600Z AUTO 07004KT 3SM 21/16 A3003 RMK T02100160 IEM_DS3505
ZGSZ,2007-04-25 17:00,ZGSZ 251700Z AUTO 3SM 21/16 A3003 RMK T02100160 IEM_DS3505
ZGSZ,2007-04-25 18:00,ZGSZ 251800Z AUTO 07004KT 4SM 20/17 A3000 RMK SLP168 T02000168 57008 IEM_DS3505
ZGSZ,2007-04-25 19:00,ZGSZ 251900Z AUTO 09002KT 3SM 20/16 A3000 RMK T02000160 IEM_DS3505
ZGSZ,2007-04-25 20:00,ZGSZ 252000Z AUTO 00000KT 2 1/2SM 20/16 A3000 RMK T02000160 IEM_DS3505
ZGSZ,2007-04-25 21:00,ZGSZ 252100Z AUTO 04004KT 4SM 20/17 A3000 RMK 70020 SLP168 T01990171 52001 IEM_DS3505
ZGSZ,2007-04-25 22:00,ZGSZ 252200Z AUTO 01004KT 3SM 20/17 A3003 RMK T02000170 IEM_DS3505
ZGSZ,2007-04-25 23:00,ZGSZ 252300Z AUTO 01004KT 3SM 21/17 A3006 RMK T02100170 IEM_DS3505
ZGSZ,2007-04-26 00:00,ZGSZ 260000Z AUTO 07004KT 4SM 21/17 A3006 RMK 70020 SLP184 T02140174 52016 IEM_DS3505
ZGSZ,2007-04-26 01:00,ZGSZ 260100Z AUTO 09004KT 3SM 23/17 A3009 RMK T02300170 IEM_DS3505
ZGSZ,2007-04-26 02:00,ZGSZ 260200Z AUTO 11006KT 4SM 25/17 A3009 RMK T02500170 IEM_DS3505
ZGSZ,2007-04-26 03:00,ZGSZ 260300Z AUTO 11004KT 9SM 26/18 A3006 RMK SLP182 T02570179 57002 IEM_DS3505
ZGSZ,2007-04-26 04:00,ZGSZ 260400Z AUTO 26006KT 2 1/2SM 25/19 A3003 RMK T02500190 IEM_DS3505
ZGSZ,2007-04-26 05:00,ZGSZ 260500Z AUTO 28008KT 2SM 26/19 A3000 RMK T02600190 IEM_DS3505
ZGSZ,2007-04-26 06:00,ZGSZ 260600Z AUTO 11006KT 12SM 26/17 A2997 RMK SLP160 T02650167 57022 IEM_DS3505
ZGSZ,2007-04-26 07:00,ZGSZ 260700Z AUTO 21006KT 3SM 26/19 A2997 RMK T02600190 IEM_DS3505
ZGSZ,2007-04-26 08:00,ZGSZ 260800Z AUTO 21006KT 6SM 26/18 A2997 RMK T02600180 IEM_DS3505
ZGSZ,2007-04-26 09:00,ZGSZ 260900Z AUTO 07004KT 14SM 26/15 A2994 RMK SLP148 T02610152 57012 IEM_DS3505
ZGSZ,2007-04-26 10:00,ZGSZ 261000Z AUTO 24006KT 7SM 25/18 A2997 RMK T02500180 IEM_DS3505
ZGSZ,2007-04-26 11:00,ZGSZ 261100Z AUTO 23004KT 7SM 25/18 A3000 RMK T02500180 IEM_DS3505
ZGSZ,2007-04-26 12:00,ZGSZ 261200Z AUTO 07004KT 12SM 24/15 A3000 RMK SLP169 T02350148 52021 IEM_DS3505
ZGSZ,2007-04-26 13:00,ZGSZ 261300Z AUTO 12006KT 6SM 24/17 A3000 RMK T02400170 IEM_DS3505
ZGSZ,2007-04-26 14:00,ZGSZ 261400Z AUTO 12006KT 6SM 24/17 A3003 RMK T02400170 IEM_DS3505
ZGSZ,2007-04-26 15:00,ZGSZ 261500Z AUTO 07006KT 7SM 22/18 A3003 RMK SLP177 T02190177 52008 IEM_DS3505
ZGSZ,2007-04-26 16:00,ZGSZ 261600Z AUTO 10006KT 6SM 22/17 A3003 RMK T02200170 IEM_DS3505
ZGSZ,2007-04-26 17:00,ZGSZ 261700Z AUTO 09004KT 3SM 22/18 A3003 RMK T02200180 IEM_DS3505
ZGSZ,2007-04-26 18:00,ZGSZ 261800Z AUTO 09004KT 5SM 22/18 A3003 RMK SLP170 T02150175 57006 IEM_DS3505
ZGSZ,2007-04-26 19:00,ZGSZ 261900Z AUTO 11004KT 3SM 22/18 A3000 RMK T02200180 IEM_DS3505
ZGSZ,2007-04-26 20:00,ZGSZ 262000Z AUTO 12004KT 2 1/2SM 22/18 A3000 RMK T02200180 IEM_DS3505
ZGSZ,2007-04-26 21:00,ZGSZ 262100Z AUTO 07002KT 3SM 21/18 A3000 RMK SLP168 T02140178 57002 IEM_DS3505
ZGSZ,2007-04-26 22:00,ZGSZ 262200Z AUTO 00000KT 2SM 21/18 A3003 RMK T02100180 IEM_DS3505
ZGSZ,2007-04-26 23:00,ZGSZ 262300Z AUTO 35002KT 2SM 22/19 A3003 RMK T02200190 IEM_DS3505
ZGSZ,2007-04-27 00:00,ZGSZ 270000Z AUTO 07006KT 4SM 24/17 A3006 RMK SLP184 T02350168 52015 IEM_DS3505
ZGSZ,2007-04-27 01:00,ZGSZ 270100Z AUTO 09004KT 4SM 25/17 A3006 RMK T02500170 IEM_DS3505
ZGSZ,2007-04-27 02:00,ZGSZ 270200Z AUTO 10008KT 6SM 27/16 A3006 RMK T02700160 IEM_DS3505
ZGSZ,2007-04-27 03:00,ZGSZ 270300Z AUTO 07004KT 11SM 27/16 A3003 RMK SLP178 T02690162 57005 IEM_DS3505
ZGSZ,2007-04-27 04:00,ZGSZ 270400Z AUTO 20008KT 6SM 28/20 A3000 RMK T02800200 IEM_DS3505
ZGSZ,2007-04-27 05:00,ZGSZ 270500Z AUTO 23006KT 4SM 26/20 A3000 RMK T02600200 IEM_DS3505
ZGSZ,2007-04-27 06:00,ZGSZ 270600Z AUTO 07004KT 9SM 29/17 A2997 RMK SLP152 T02900172 57026 IEM_DS3505
ZGSZ,2007-04-27 07:00,ZGSZ 270700Z AUTO 20010KT 4SM 27/21 A2994 RMK T02700210 IEM_DS3505
ZGSZ,2007-04-27 08:00,ZGSZ 270800Z AUTO 21008KT 4SM 27/21 A2994 RMK T02700210 IEM_DS3505
ZGSZ,2007-04-27 09:00,ZGSZ 270900Z AUTO 07008KT 9SM 28/17 A2991 RMK SLP135 T02780170 57017 IEM_DS3505
ZGSZ,2007-04-27 10:00,ZGSZ 271000Z AUTO 21006KT 2 1/2SM 25/22 A2991 RMK T02500220 IEM_DS3505
ZGSZ,2007-04-27 11:00,ZGSZ 271100Z AUTO 22004KT 3SM 25/22 A2994 RMK T02500220 IEM_DS3505
ZGSZ,2007-04-27 12:00,ZGSZ 271200Z AUTO 09004KT 8SM 25/15 A2994 RMK SLP151 T02490147 52016 IEM_DS3505
ZGSZ,2007-04-27 13:00,ZGSZ 271300Z AUTO 12008KT 4SM 26/17 A2997 RMK T02600170 IEM_DS3505
ZGSZ,2007-04-27 14:00,ZGSZ 271400Z AUTO 13006KT 5SM 25/16 A3000 RMK T02500160 IEM_DS3505
ZGSZ,2007-04-27 15:00,ZGSZ 271500Z AUTO 07004KT 7SM 24/14 A3000 RMK SLP164 T02380142 52013 IEM_DS3505
ZGSZ,2007-04-27 16:00,ZGSZ 271600Z AUTO 6SM 25/18 A3000 RMK T02500180 IEM_DS3505
ZGSZ,2007-04-27 17:00,ZGSZ 271700Z AUTO 00000KT 4SM 23/18 A2997 RMK T02300180 IEM_DS3505
ZGSZ,2007-04-27 18:00,ZGSZ 271800Z AUTO 07004KT 6SM 23/15 A2997 RMK SLP153 T02280151 57011 IEM_DS3505
ZGSZ,2007-04-27 19:00,ZGSZ 271900Z AUTO 11002KT 3SM 23/18 A2997 RMK T02300180 IEM_DS3505
ZGSZ,2007-04-27 20:00,ZGSZ 272000Z AUTO 3SM 22/17 A2994 RMK T02200170 IEM_DS3505
ZGSZ,2007-04-27 21:00,ZGSZ 272100Z AUTO 07008KT 5SM 22/18 A2994 RMK SLP147 T02180178 57006 IEM_DS3505
ZGSZ,2007-04-27 22:00,ZGSZ 272200Z AUTO 11006KT 2 1/2SM 23/18 A2997 RMK T02300180 IEM_DS3505
ZGSZ,2007-04-27 23:00,ZGSZ 272300Z AUTO 11006KT 2 1/2SM 23/19 A2997 RMK T02300190 IEM_DS3505
ZGSZ,2007-04-28 00:00,ZGSZ 280000Z AUTO 07008KT 6SM 24/18 A3000 RMK SLP163 T02350182 52016 IEM_DS3505
ZGSZ,2007-04-28 01:00,ZGSZ 280100Z AUTO 11008KT 4SM 25/19 A3000 RMK T02500190 IEM_DS3505
ZGSZ,2007-04-28 02:00,ZGSZ 280200Z AUTO 12008KT 4SM 26/20 A3000 RMK T02600200 IEM_DS3505
ZGSZ,2007-04-28 03:00,ZGSZ 280300Z AUTO 11010KT 5SM 25/17 A2997 RMK SLP155 T02540173 57008 IEM_DS3505
ZGSZ,2007-04-28 04:00,ZGSZ 280400Z AUTO 18006KT 3SM 28/20 A2997 RMK T02800200 IEM_DS3505
ZGSZ,2007-04-28 05:00,ZGSZ 280500Z AUTO 20012KT 3SM 27/21 A2994 RMK T02700210 IEM_DS3505
ZGSZ,2007-04-28 06:00,ZGSZ 280600Z AUTO 11010KT 5SM 27/19 A2991 RMK SLP134 T02680187 57021 IEM_DS3505
ZGSZ,2007-04-28 07:00,ZGSZ 280700Z AUTO 19008KT 3SM 27/21 A2988 RMK T02700210 IEM_DS3505
ZGSZ,2007-04-28 08:00,ZGSZ 280800Z AUTO 19008KT 3SM 27/20 A2988 RMK T02700200 IEM_DS3505
ZGSZ,2007-04-28 09:00,ZGSZ 280900Z AUTO 09004KT 4SM 27/19 A2988 RMK SLP124 T02660190 57010 IEM_DS3505
ZGSZ,2007-04-28 10:00,ZGSZ 281000Z AUTO 20008KT 3SM 26/21 A2988 RMK T02600210 IEM_DS3505
ZGSZ,2007-04-28 11:00,ZGSZ 281100Z AUTO 20008KT 3SM 25/21 A2991 RMK T02500210 IEM_DS3505
ZGSZ,2007-04-28 12:00,ZGSZ 281200Z AUTO 07004KT 3SM 24/19 A2991 RMK SLP139 T02350190 52015 IEM_DS3505
ZGSZ,2007-04-28 13:00,ZGSZ 281300Z AUTO 08006KT 3SM 25/20 A2994 RMK T02500200 IEM_DS3505
ZGSZ,2007-04-28 14:00,ZGSZ 281400Z AUTO 11010KT 3SM 24/19 A2997 RMK T02400190 IEM_DS3505
ZGSZ,2007-04-28 15:00,ZGSZ 281500Z AUTO 09004KT 5SM 23/19 A2997 RMK SLP154 T02290187 52015 IEM_DS3505
ZGSZ,2007-04-28 16:00,ZGSZ 281600Z AUTO 11008KT 6SM 24/19 A2997 RMK T02400190 IEM_DS3505
ZGSZ,2007-04-28 17:00,ZGSZ 281700Z AUTO 11008KT 3SM 23/19 A2994 RMK T02300190 IEM_DS3505
ZGSZ,2007-04-28 18:00,ZGSZ 281800Z AUTO 07006KT 6SM 23/18 A2994 RMK SLP140 T02260184 57014 IEM_DS3505
ZGSZ,2007-04-28 19:00,ZGSZ 281900Z AUTO 10006KT 4SM 23/19 A2991 RMK T02300190 IEM_DS3505
ZGSZ,2007-04-28 20:00,ZGSZ 282000Z AUTO 11004KT 6SM 23/19 A2991 RMK T02300190 IEM_DS3505
ZGSZ,2007-04-28 21:00,ZGSZ 282100Z AUTO 09006KT 7SM 22/18 A2991 RMK SLP138 T02230183 57002 IEM_DS3505
ZGSZ,2007-04-28 22:00,ZGSZ 282200Z AUTO 08004KT 5SM 23/19 A2994 RMK T02300190 IEM_DS3505
ZGSZ,2007-04-28 23:00,ZGSZ 282300Z AUTO 08004KT 6SM 23/19 A2994 RMK T02300190 IEM_DS3505
ZGSZ,2007-04-29 00:00,ZGSZ 290000Z AUTO 07006KT 5SM 23/19 A2994 RMK SLP148 T02310186 52010 IEM_DS3505
ZGSZ,2007-04-29 01:00,ZGSZ 290100Z AUTO 11010KT 5SM 26/20 A2994 RMK T02600200 IEM_DS3505
ZGSZ,2007-04-29 02:00,ZGSZ 290200Z AUTO 10010KT 7SM 26/19 A2997 RMK T02600190 IEM_DS3505
ZGSZ,2007-04-29 03:00,ZGSZ 290300Z AUTO 07006KT 6SM 24/19 A2997 RMK SLP154 T02370186 52006 IEM_DS3505
ZGSZ,2007-04-29 04:00,ZGSZ 290400Z AUTO 11008KT 7SM 26/19 A2997 RMK T02600190 IEM_DS3505
ZGSZ,2007-04-29 05:00,ZGSZ 290500Z AUTO 10006KT 7SM 26/20 A2994 RMK T02600200 IEM_DS3505
ZGSZ,2007-04-29 06:00,ZGSZ 290600Z AUTO 09004KT 6SM 24/19 A2991 RMK SLP134 T02450189 57020 IEM_DS3505
ZGSZ,2007-04-29 07:00,ZGSZ 290700Z AUTO 27004KT 3SM 25/21 A2991 RMK T02500210 IEM_DS3505
ZGSZ,2007-04-29 08:00,ZGSZ 290800Z AUTO 28004KT 3SM 24/21 A2988 RMK T02400210 IEM_DS3505
ZGSZ,2007-04-29 09:00,ZGSZ 290900Z AUTO 04002KT 5SM 23/19 A2988 RMK SLP125 T02340193 57009 IEM_DS3505
ZGSZ,2007-04-29 10:00,ZGSZ 291000Z AUTO 21002KT 2SM 23/21 A2991 RMK T02300210 IEM_DS3505
ZGSZ,2007-04-29 11:00,ZGSZ 291100Z AUTO 00000KT 2 1/2SM 23/21 A2991 RMK T02300210 IEM_DS3505
ZGSZ,2007-04-29 12:00,ZGSZ 291200Z AUTO 09002KT 2 1/2SM 23/20 A2994 RMK 60000 SLP140 T02320196 52015 IEM_DS3505
ZGSZ,2007-04-29 13:00,ZGSZ 291300Z AUTO 13004KT 2 1/2SM 24/21 A2994 RMK T02400210 IEM_DS3505
ZGSZ,2007-04-29 14:00,ZGSZ 291400Z AUTO 12004KT 2 1/2SM 24/20 A2994 RMK T02400200 IEM_DS3505
ZGSZ,2007-04-29 15:00,ZGSZ 291500Z AUTO 07004KT 2 1/2SM 23/20 A2994 RMK SLP148 T02290197 52008 IEM_DS3505
ZGSZ,2007-04-29 16:00,ZGSZ 291600Z AUTO 3SM 24/20 A2994 RMK T02400200 IEM_DS3505
ZGSZ,2007-04-29 17:00,ZGSZ 291700Z AUTO 2SM 23/21 A2994 RMK T02300210 IEM_DS3505
ZGSZ,2007-04-29 18:00,ZGSZ 291800Z AUTO 07004KT 2 1/2SM 22/20 A2991 RMK 60002 SLP137 T02250200 57011 IEM_DS3505
ZGSZ,2007-04-29 19:00,ZGSZ 291900Z AUTO 00000KT 2SM 23/21 A2991 RMK T02300210 IEM_DS3505
ZGSZ,2007-04-29 20:00,ZGSZ 292000Z AUTO 00000KT 2SM 23/21 A2988 RMK T02300210 IEM_DS3505
ZGSZ,2007-04-29 21:00,ZGSZ 292100Z AUTO 02002KT 2 1/2SM 22/20 A2988 RMK 70007 SLP128 T02200201 57009 IEM_DS3505
ZGSZ,2007-04-29 22:00,ZGSZ 292200Z AUTO 00000KT 2SM 23/21 A2991 RMK T02300210 IEM_DS3505
ZGSZ,2007-04-29 23:00,ZGSZ 292300Z AUTO 00000KT 2SM 23/21 A2994 RMK T02300210 IEM_DS3505
ZGSZ,2007-04-30 00:00,ZGSZ 300000Z AUTO 36002KT 2 1/2SM 22/21 A2994 RMK 60012 70012 SLP146 T02220207 52017 IEM_DS3505
ZGSZ,2007-04-30 01:00,ZGSZ 300100Z AUTO 28004KT 2 1/2SM 24/21 A2997 RMK T02400210 IEM_DS3505
ZGSZ,2007-04-30 02:00,ZGSZ 300200Z AUTO 32008KT 1SM 23/21 A2997 RMK T02300210 IEM_DS3505
ZGSZ,2007-04-30 03:00,ZGSZ 300300Z AUTO 25004KT 2 1/2SM 24/21 A2997 RMK SLP151 T02380209 52006 IEM_DS3505
ZGSZ,2007-04-30 04:00,ZGSZ 300400Z AUTO 32006KT 1 1/2SM 24/21 A2997 RMK T02400210 IEM_DS3505
ZGSZ,2007-04-30 05:00,ZGSZ 300500Z AUTO 31010KT 2 1/2SM 24/20 A2994 RMK T02400200 IEM_DS3505
ZGSZ,2007-04-30 06:00,ZGSZ 300600Z AUTO 34002KT 2SM 24/21 A2991 RMK 60000 SLP130 T02450206 57021 IEM_DS3505
ZGSZ,2007-04-30 07:00,ZGSZ 300700Z AUTO 28006KT 3SM 25/20 A2988 RMK T02500200 IEM_DS3505
ZGSZ,2007-04-30 08:00,ZGSZ 300800Z AUTO 29008KT 4SM 25/20 A2988 RMK T02500200 IEM_DS3505
ZGSZ,2007-04-30 09:00,ZGSZ 300900Z AUTO 27002KT 3SM 26/20 A2988 RMK SLP120 T02560195 57010 IEM_DS3505
ZGSZ,2007-04-30 10:00,ZGSZ 301000Z AUTO 5SM 25/19 A2988 RMK T02500190 IEM_DS3505
ZGSZ,2007-04-30 11:00,ZGSZ 301100Z AUTO 4SM 24/19 A2991 RMK T02400190 IEM_DS3505
ZGSZ,2007-04-30 12:00,ZGSZ 301200Z AUTO 27002KT 4SM 24/19 A2991 RMK SLP135 T02440192 52015 IEM_DS3505
ZGSZ,2007-04-30 13:00,ZGSZ 301300Z AUTO 00000KT 4SM 24/19 A2994 RMK T02400190 IEM_DS3505
ZGSZ,2007-04-30 14:00,ZGSZ 301400Z AUTO 33006KT 2 1/2SM 24/19 A2994 RMK T02400190 IEM_DS3505
ZGSZ,2007-04-30 15:00,ZGSZ 301500Z AUTO 27004KT 3SM 23/20 A2994 RMK SLP146 T02340196 52011 IEM_DS3505
ZGSZ,2007-04-30 16:00,ZGSZ 301600Z AUTO 2SM 23/19 A2994 RMK T02300190 IEM_DS3505
ZGSZ,2007-04-30 17:00,ZGSZ 301700Z AUTO 2SM 23/20 A2991 RMK T02300200 IEM_DS3505
ZGSZ,2007-04-30 18:00,ZGSZ 301800Z AUTO 25002KT 2 1/2SM 23/20 A2991 RMK SLP133 T02270195 57013 IEM_DS3505
ZGSZ,2007-04-30 19:00,ZGSZ 301900Z AUTO 00000KT 1 1/2SM 23/20 A2991 RMK T02300200 IEM_DS3505
ZGSZ,2007-04-30 20:00,ZGSZ 302000Z AUTO 36004KT 2SM 22/20 A2988 RMK T02200200 IEM_DS3505
ZGSZ,2007-04-30 21:00,ZGSZ 302100Z AUTO 07002KT 2SM 22/19 A2991 RMK 70005 SLP130 T02240192 57003 IEM_DS3505
ZGSZ,2007-04-30 22:00,ZGSZ 302200Z AUTO 02004KT 1 1/2SM 22/20 A2991 RMK T02200200 IEM_DS3505
ZGSZ,2007-04-30 23:00,ZGSZ 302300Z AUTO 1 1/4SM 22/19 A2994 RMK T02200190 IEM_DS3505
ZGSZ,2007-05-01 00:00,ZGSZ 010000Z AUTO 04004KT 2 1/2SM 24/20 A2997 RMK 70000 SLP152 T02430196 52022 IEM_DS3505
ZGSZ,2007-05-01 01:00,ZGSZ 010100Z AUTO 2SM 25/20 A2997 RMK T02500200 IEM_DS3505
ZGSZ,2007-05-01 02:00,ZGSZ 010200Z AUTO 36008KT 1 1/2SM 27/21 A3000 RMK T02700210 IEM_DS3505
ZGSZ,2007-05-01 03:00,ZGSZ 010300Z AUTO 36002KT 7SM 29/18 A2997 RMK SLP154 T02860178 52002 IEM_DS3505
ZGSZ,2007-05-01 04:00,ZGSZ 010400Z AUTO 02008KT 6SM 29/16 A2997 RMK T02900160 IEM_DS3505
ZGSZ,2007-05-01 05:00,ZGSZ 010500Z AUTO 29008KT 6SM 29/20 A2994 RMK T02900200 IEM_DS3505
ZGSZ,2007-05-01 06:00,ZGSZ 010600Z AUTO 34004KT 10SM 31/13 A2991 RMK SLP129 T03070126 57024 IEM_DS3505
ZGSZ,2007-05-01 07:00,ZGSZ 010700Z AUTO 30010KT 6SM 29/17 A2988 RMK T02900170 IEM_DS3505
ZGSZ,2007-05-01 08:00,ZGSZ 010800Z AUTO 30008KT 6SM 29/18 A2988 RMK T02900180 IEM_DS3505
ZGSZ,2007-05-01 09:00,ZGSZ 010900Z AUTO 29006KT 11SM 31/16 A2985 RMK SLP115 T03080156 57014 IEM_DS3505
ZGSZ,2007-05-01 10:00,ZGSZ 011000Z AUTO 26004KT 6SM 29/14 A2988 RMK T02900140 IEM_DS3505
ZGSZ,2007-05-01 11:00,ZGSZ 011100Z AUTO 6SM 28/15 A2988 RMK T02800150 IEM_DS3505
ZGSZ,2007-05-01 12:00,ZGSZ 011200Z AUTO 18004KT 7SM 26/19 A2991 RMK SLP137 T02590193 52021 IEM_DS3505
ZGSZ,2007-05-01 13:00,ZGSZ 011300Z AUTO 17004KT 2 1/2SM 25/21 A2994 RMK T02500210 IEM_DS3505
ZGSZ,2007-05-01 14:00,ZGSZ 011400Z AUTO 19004KT 1SM 25/22 A2994 RMK T02500220 IEM_DS3505
ZGSZ,2007-05-01 15:00,ZGSZ 011500Z AUTO 22002KT 7SM 24/20 A2994 RMK SLP148 T02410202 52011 IEM_DS3505
ZGSZ,2007-05-01 16:00,ZGSZ 011600Z AUTO 17006KT 1 1/2SM 24/22 A2994 RMK T02400220 IEM_DS3505
ZGSZ,2007-05-01 17:00,ZGSZ 011700Z AUTO 17004KT 2SM 24/22 A2994 RMK T02400220 IEM_DS3505
ZGSZ,2007-05-01 18:00,ZGSZ 011800Z AUTO 32002KT 4SM 23/20 A2991 RMK SLP135 T02330195 57012 IEM_DS3505
ZGSZ,2007-05-01 19:00,ZGSZ 011900Z AUTO 16004KT 1SM 23/22 A2991 RMK T02300220 IEM_DS3505
ZGSZ,2007-05-01 20:00,ZGSZ 012000Z AUTO 00000KT 1SM 23/22 A2991 RMK T02300220 IEM_DS3505
ZGSZ,2007-05-01 21:00,ZGSZ 012100Z AUTO 34002KT 2 1/2SM 22/20 A2991 RMK SLP134 T02190196 57002 IEM_DS3505
ZGSZ,2007-05-01 22:00,ZGSZ 012200Z AUTO 14002KT 1 1/4SM 23/21 A2994 RMK T02300210 IEM_DS3505
ZGSZ,2007-05-01 23:00,ZGSZ 012300Z AUTO 10002KT 1SM 23/22 A2994 RMK T02300220 IEM_DS3505
ZGSZ,2007-05-02 00:00,ZGSZ 020000Z AUTO 07002KT 2 1/2SM 24/20 A2994 RMK SLP149 T02390200 52015 IEM_DS3505
ZGSZ,2007-05-02 01:00,ZGSZ 020100Z AUTO 2SM 26/22 A2994 RMK T02600220 IEM_DS3505
ZGSZ,2007-05-02 02:00,ZGSZ 020200Z AUTO 22004KT 2SM 27/22 A2994 RMK T02700220 IEM_DS3505
ZGSZ,2007-05-02 03:00,ZGSZ 020300Z AUTO 18004KT 2SM 29/19 A2994 RMK SLP142 T02880194 57007 IEM_DS3505
ZGSZ,2007-05-02 04:00,ZGSZ 020400Z AUTO 24006KT 1 1/2SM 28/23 A2991 RMK T02800230 IEM_DS3505
ZGSZ,2007-05-02 05:00,ZGSZ 020500Z AUTO 24006KT 2SM 29/24 A2988 RMK T02900240 IEM_DS3505
ZGSZ,2007-05-02 06:00,ZGSZ 020600Z AUTO 20008KT 4SM 31/18 A2985 RMK SLP110 T03130176 57031 IEM_DS3505
ZGSZ,2007-05-02 07:00,ZGSZ 020700Z AUTO 21006KT 3SM 29/20 A2983 RMK T02900200 IEM_DS3505
ZGSZ,2007-05-02 08:00,ZGSZ 020800Z AUTO 18010KT 2SM 28/23 A2980 RMK T02800230 IEM_DS3505
ZGSZ,2007-05-02 09:00,ZGSZ 020900Z AUTO 16004KT 4SM 28/20 A2980 RMK SLP101 T02780204 57010 IEM_DS3505
ZGSZ,2007-05-02 10:00,ZGSZ 021000Z AUTO 18010KT 2 1/2SM 27/23 A2983 RMK T02700230 IEM_DS3505
ZGSZ,2007-05-02 11:00,ZGSZ 021100Z AUTO 19008KT 2SM 26/23 A2983 RMK T02600230 IEM_DS3505
ZGSZ,2007-05-02 12:00,ZGSZ 021200Z AUTO 09004KT 5SM 26/16 A2985 RMK SLP117 T02610164 52016 IEM_DS3505
ZGSZ,2007-05-02 13:00,ZGSZ 021300Z AUTO 18006KT 6SM 25/21 A2988 RMK T02500210 IEM_DS3505
ZGSZ,2007-05-02 14:00,ZGSZ 021400Z AUTO 18006KT 3SM 25/22 A2988 RMK T02500220 IEM_DS3505
ZGSZ,2007-05-02 15:00,ZGSZ 021500Z AUTO 11002KT 4SM 24/18 A2988 RMK SLP126 T02450177 52010 IEM_DS3505
ZGSZ,2007-05-02 16:00,ZGSZ 021600Z AUTO 12004KT 3SM 25/19 A2988 RMK T02500190 IEM_DS3505
ZGSZ,2007-05-02 17:00,ZGSZ 021700Z AUTO 13002KT 4SM 23/18 A2988 RMK T02300180 IEM_DS3505
ZGSZ,2007-05-02 18:00,ZGSZ 021800Z AUTO 04002KT 7SM 23/18 A2985 RMK SLP119 T02310180 57007 IEM_DS3505
ZGSZ,2007-05-02 19:00,ZGSZ 021900Z AUTO 00000KT 3SM 23/19 A2985 RMK T02300190 IEM_DS3505
ZGSZ,2007-05-02 20:00,ZGSZ 022000Z AUTO 00000KT 4SM 23/18 A2985 RMK T02300180 IEM_DS3505
ZGSZ,2007-05-02 21:00,ZGSZ 022100Z AUTO 02004KT 7SM 22/18 A2985 RMK SLP118 T02230181 57002 IEM_DS3505
ZGSZ,2007-05-02 22:00,ZGSZ 022200Z AUTO 13002KT 3SM 22/18 A2988 RMK T02200180 IEM_DS3505
ZGSZ,2007-05-02 23:00,ZGSZ 022300Z AUTO 00000KT 3SM 23/18 A2991 RMK T02300180 IEM_DS3505
ZGSZ,2007-05-03 00:00,ZGSZ 030000Z AUTO 02004KT 6SM 24/19 A2991 RMK SLP134 T02370186 52016 IEM_DS3505
ZGSZ,2007-05-03 01:00,ZGSZ 030100Z AUTO 33004KT 3SM 26/18 A2994 RMK T02600180 IEM_DS3505
ZGSZ,2007-05-03 02:00,ZGSZ 030200Z AUTO 07004KT 3SM 27/17 A2991 RMK T02700170 IEM_DS3505
ZGSZ,2007-05-03 03:00,ZGSZ 030300Z AUTO 09004KT 9SM 27/13 A2991 RMK SLP137 T02690133 52003 IEM_DS3505
ZGSZ,2007-05-03 04:00,ZGSZ 030400Z AUTO 23004KT 3SM 28/19 A2991 RMK T02800190 IEM_DS3505
ZGSZ,2007-05-03 05:00,ZGSZ 030500Z AUTO 21008KT 3SM 28/20 A2988 RMK T02800200 IEM_DS3505
ZGSZ,2007-05-03 06:00,ZGSZ 030600Z AUTO 07006KT 16SM 29/ A2985 RMK SLP115 57021 IEM_DS3505
ZGSZ,2007-05-03 07:00,ZGSZ 030700Z AUTO 19010KT 5SM 28/19 A2983 RMK T02800190 IEM_DS3505
ZGSZ,2007-05-03 08:00,ZGSZ 030800Z AUTO 19010KT 4SM 27/21 A2983 RMK T02700210 IEM_DS3505
ZGSZ,2007-05-03 09:00,ZGSZ 030900Z AUTO 11006KT 17SM 28/ A2980 RMK SLP102 57014 IEM_DS3505
ZGSZ,2007-05-03 10:00,ZGSZ 031000Z AUTO 19010KT 6SM 27/20 A2983 RMK T02700200 IEM_DS3505
ZGSZ,2007-05-03 11:00,ZGSZ 031100Z AUTO 17008KT 6SM 26/18 A2983 RMK T02600180 IEM_DS3505
ZGSZ,2007-05-03 12:00,ZGSZ 031200Z AUTO 07004KT 19SM 26/12 A2983 RMK SLP109 T02550117 52007 IEM_DS3505
ZGSZ,2007-05-03 13:00,ZGSZ 031300Z AUTO 15006KT 6SM 25/15 A2985 RMK T02500150 IEM_DS3505
ZGSZ,2007-05-03 14:00,ZGSZ 031400Z AUTO 15004KT 6SM 25/17 A2988 RMK T02500170 IEM_DS3505
ZGSZ,2007-05-03 15:00,ZGSZ 031500Z AUTO 09004KT 12SM 24/20 A2988 RMK SLP121 T02450198 52012 IEM_DS3505
ZGSZ,2007-05-03 16:00,ZGSZ 031600Z AUTO 13006KT 6SM 25/18 A2988 RMK T02500180 IEM_DS3505
ZGSZ,2007-05-03 17:00,ZGSZ 031700Z AUTO 14002KT 5SM 25/19 A2985 RMK T02500190 IEM_DS3505
ZGSZ,2007-05-03 18:00,ZGSZ 031800Z AUTO 09002KT 4SM 24/21 A2985 RMK SLP112 T02420207 57008 IEM_DS3505
ZGSZ,2007-05-03 19:00,ZGSZ 031900Z AUTO 10002KT 4SM 24/20 A2983 RMK T02400200 IEM_DS3505
ZGSZ,2007-05-03 20:00,ZGSZ 032000Z AUTO 00000KT 4SM 25/21 A2985 RMK T02500210 IEM_DS3505
ZGSZ,2007-05-03 21:00,ZGSZ 032100Z AUTO 07002KT 2 1/2SM 24/21 A2985 RMK 70000 SLP109 T02390212 57003 IEM_DS3505
ZGSZ,2007-05-03 22:00,ZGSZ 032200Z AUTO 00000KT 3SM 25/22 A2985 RMK T02500220 IEM_DS3505
ZGSZ,2007-05-03 23:00,ZGSZ 032300Z AUTO 08002KT 3SM 25/22 A2985 RMK T02500220 IEM_DS3505
ZGSZ,2007-05-04 00:00,ZGSZ 040000Z AUTO 07004KT 2 1/2SM 24/22 A2985 RMK 60000 70000 SLP118 T02450216 52008 IEM_DS3505
ZGSZ,2007-05-04 01:00,ZGSZ 040100Z AUTO 3SM 26/22 A2988 RMK T02600220 IEM_DS3505
ZGSZ,2007-05-04 02:00,ZGSZ 040200Z AUTO 30004KT 2SM 24/21 A2988 RMK T02400210 IEM_DS3505
ZGSZ,2007-05-04 03:00,ZGSZ 040300Z AUTO 25002KT 4SM 24/20 A2988 RMK SLP124 T02360199 52006 IEM_DS3505
ZGSZ,2007-05-04 04:00,ZGSZ 040400Z AUTO 18004KT 3SM 24/21 A2988 RMK T02400210 IEM_DS3505
ZGSZ,2007-05-04 05:00,ZGSZ 040500Z AUTO 4SM 24/21 A2985 RMK T02400210 IEM_DS3505
ZGSZ,2007-05-04 06:00,ZGSZ 040600Z AUTO 00000KT 2 1/2SM 24/21 A2985 RMK 60024 SLP108 T02410212 57016 IEM_DS3505
ZGSZ,2007-05-04 07:00,ZGSZ 040700Z AUTO 00000KT 4SM 24/22 A2983 RMK T02400220 IEM_DS3505
ZGSZ,2007-05-04 08:00,ZGSZ 040800Z AUTO 21002KT 4SM 24/21 A2980 RMK T02400210 IEM_DS3505
ZGSZ,2007-05-04 09:00,ZGSZ 040900Z AUTO 25002KT 2 1/2SM 23/21 A2980 RMK SLP096 T02330208 57012 IEM_DS3505
ZGSZ,2007-05-04 10:00,ZGSZ 041000Z AUTO 00000KT 3SM 23/21 A2980 RMK T02300210 IEM_DS3505
ZGSZ,2007-05-04 11:00,ZGSZ 041100Z AUTO 2 1/2SM 23/21 A2980 RMK T02300210 IEM_DS3505
ZGSZ,2007-05-04 12:00,ZGSZ 041200Z AUTO 04002KT 2SM 23/22 A2983 RMK 60012 SLP100 T02290215 52004 IEM_DS3505
ZGSZ,2007-05-04 13:00,ZGSZ 041300Z AUTO 2 1/2SM 24/21 A2983 RMK T02400210 IEM_DS3505
ZGSZ,2007-05-04 14:00,ZGSZ 041400Z AUTO 00000KT 2 1/2SM 24/22 A2983 RMK T02400220 IEM_DS3505
ZGSZ,2007-05-04 15:00,ZGSZ 041500Z AUTO 18002KT 1 1/2SM 23/22 A2983 RMK SLP107 T02310217 52007 IEM_DS3505
ZGSZ,2007-05-04 16:00,ZGSZ 041600Z AUTO 27006KT 2SM 24/22 A2983 RMK T02400220 IEM_DS3505
ZGSZ,2007-05-04 17:00,ZGSZ 041700Z AUTO 00000KT 3SM 23/22 A2983 RMK T02300220 IEM_DS3505
ZGSZ,2007-05-04 18:00,ZGSZ 041800Z AUTO 27004KT 2SM 22/22 A2980 RMK 60020 SLP095 T02250215 57012 IEM_DS3505
ZGSZ,2007-05-04 19:00,ZGSZ 041900Z AUTO 24004KT 4SM 23/21 A2977 RMK T02300210 IEM_DS3505
ZGSZ,2007-05-04 20:00,ZGSZ 042000Z AUTO 3SM 23/21 A2977 RMK T02300210 IEM_DS3505
ZGSZ,2007-05-04 21:00,ZGSZ 042100Z AUTO 36002KT 2SM 22/21 A2977 RMK 70059 SLP081 T02240212 57014 IEM_DS3505
ZGSZ,2007-05-04 22:00,ZGSZ 042200Z AUTO 29008KT 3SM 23/22 A2977 RMK T02300220 IEM_DS3505
ZGSZ,2007-05-04 23:00,ZGSZ 042300Z AUTO 32004KT 4SM 22/21 A2977 RMK T02200210 IEM_DS3505
ZGSZ,2007-05-05 00:00,ZGSZ 050000Z AUTO 29006KT 1 1/2SM 22/21 A2977 RMK 60024 70078 SLP089 T02210211 52008 IEM_DS3505
ZGSZ,2007-05-05 01:00,ZGSZ 050100Z AUTO 00000KT 7SM 23/22 A2980 RMK T02300220 IEM_DS3505
ZGSZ,2007-05-05 02:00,ZGSZ 050200Z AUTO 29006KT 7SM 23/22 A2980 RMK T02300220 IEM_DS3505
ZGSZ,2007-05-05 03:00,ZGSZ 050300Z AUTO 20002KT 3SM 24/22 A2980 RMK SLP094 T02410220 52005 IEM_DS3505
ZGSZ,2007-05-05 04:00,ZGSZ 050400Z AUTO 25004KT 4SM 25/23 A2980 RMK T02500230 IEM_DS3505
ZGSZ,2007-05-05 05:00,ZGSZ 050500Z AUTO 3SM 27/23 A2977 RMK T02700230 IEM_DS3505
ZGSZ,2007-05-05 06:00,ZGSZ 050600Z AUTO 25004KT 6SM 27/21 A2974 RMK 60024 SLP074 T02690212 57020 IEM_DS3505
ZGSZ,2007-05-05 07:00,ZGSZ 050700Z AUTO 19004KT 4SM 27/23 A2974 RMK T02700230 IEM_DS3505
ZGSZ,2007-05-05 08:00,ZGSZ 050800Z AUTO 19006KT 4SM 26/23 A2971 RMK T02600230 IEM_DS3505
ZGSZ,2007-05-05 09:00,ZGSZ 050900Z AUTO 20004KT 4SM 26/22 A2971 RMK SLP068 T02590218 57006 IEM_DS3505
ZGSZ,2007-05-05 10:00,ZGSZ 051000Z AUTO 16008KT 3SM 26/23 A2971 RMK T02600230 IEM_DS3505
ZGSZ,2007-05-05 11:00,ZGSZ 051100Z AUTO 16008KT 4SM 26/23 A2974 RMK T02600230 IEM_DS3505
ZGSZ,2007-05-05 12:00,ZGSZ 051200Z AUTO 22006KT 3SM 25/22 A2974 RMK SLP080 T02470222 52012 IEM_DS3505
ZGSZ,2007-05-05 13:00,ZGSZ 051300Z AUTO 15006KT 2 1/2SM 25/23 A2977 RMK T02500230 IEM_DS3505
ZGSZ,2007-05-05 14:00,ZGSZ 051400Z AUTO 15004KT 2 1/2SM 25/23 A2977 RMK T02500230 IEM_DS3505
ZGSZ,2007-05-05 15:00,ZGSZ 051500Z AUTO 25002KT 3SM 24/22 A2980 RMK SLP091 T02440223 52011 IEM_DS3505
ZGSZ,2007-05-05 16:00,ZGSZ 051600Z AUTO 2 1/2SM 25/22 A2977 RMK T02500220 IEM_DS3505
ZGSZ,2007-05-05 18:00,ZGSZ 051800Z AUTO 34002KT 3SM 24/22 A2974 RMK SLP076 T02390222 57014 IEM_DS3505
ZGSZ,2007-05-05 19:00,ZGSZ 051900Z AUTO 00000KT 2SM 25/23 A2974 RMK T02500230 IEM_DS3505
ZGSZ,2007-05-05 20:00,ZGSZ 052000Z AUTO 01004KT 1 1/2SM 24/22 A2974 RMK T02400220 IEM_DS3505
ZGSZ,2007-05-05 21:00,ZGSZ 052100Z AUTO 04004KT 2 1/2SM 24/21 A2974 RMK 70041 SLP077 T02370212 54000 IEM_DS3505
ZGSZ,2007-05-05 22:00,ZGSZ 052200Z AUTO 02004KT 2SM 24/21 A2977 RMK T02400210 IEM_DS3505
ZGSZ,2007-05-05 23:00,ZGSZ 052300Z AUTO 01004KT 2SM 24/21 A2977 RMK T02400210 IEM_DS3505
ZGSZ,2007-05-06 00:00,ZGSZ 060000Z AUTO 02002KT 2SM 24/21 A2980 RMK 70022 SLP092 T02400213 52015 IEM_DS3505
ZGSZ,2007-05-06 01:00,ZGSZ 060100Z AUTO 03004KT 3SM 26/20 A2980 RMK T02600200 IEM_DS3505
ZGSZ,2007-05-06 02:00,ZGSZ 060200Z AUTO 01010KT 5SM 27/18 A2980 RMK T02700180 IEM_DS3505
ZGSZ,2007-05-06 03:00,ZGSZ 060300Z AUTO 02004KT 4SM 27/19 A2980 RMK SLP095 T02700186 52004 IEM_DS3505
ZGSZ,2007-05-06 04:00,ZGSZ 060400Z AUTO 03008KT 6SM 30/16 A2980 RMK T03000160 IEM_DS3505
ZGSZ,2007-05-06 05:00,ZGSZ 060500Z AUTO 03012KT 6SM 30/15 A2977 RMK T03000150 IEM_DS3505
ZGSZ,2007-05-06 06:00,ZGSZ 060600Z AUTO 02006KT 11SM 29/12 A2977 RMK SLP081 T02860121 57014 IEM_DS3505
ZGSZ,2007-05-06 07:00,ZGSZ 060700Z AUTO 04008KT 6SM 31/14 A2974 RMK T03100140 IEM_DS3505
ZGSZ,2007-05-06 08:00,ZGSZ 060800Z AUTO 03008G17KT 6SM 31/15 A2974 RMK T03100150 IEM_DS3505
ZGSZ,2007-05-06 09:00,ZGSZ 060900Z AUTO 02006KT 11SM 29/13 A2974 RMK SLP070 T02940128 57011 IEM_DS3505
ZGSZ,2007-05-06 10:00,ZGSZ 061000Z AUTO 03004KT 6SM 30/13 A2974 RMK T03000130 IEM_DS3505
ZGSZ,2007-05-06 11:00,ZGSZ 061100Z AUTO 6SM 29/14 A2974 RMK T02900140 IEM_DS3505
ZGSZ,2007-05-06 12:00,ZGSZ 061200Z AUTO 34002KT 11SM 26/14 A2977 RMK SLP084 T02630141 52013 IEM_DS3505
ZGSZ,2007-05-06 13:00,ZGSZ 061300Z AUTO 08004KT 6SM 26/15 A2977 RMK T02600150 IEM_DS3505
ZGSZ,2007-05-06 14:00,ZGSZ 061400Z AUTO 6SM 25/15 A2980 RMK T02500150 IEM_DS3505
ZGSZ,2007-05-06 15:00,ZGSZ 061500Z AUTO 00000KT 7SM 24/15 A2980 RMK SLP094 T02440151 52011 IEM_DS3505
ZGSZ,2007-05-06 16:00,ZGSZ 061600Z AUTO 07004KT 4SM 24/15 A2980 RMK T02400150 IEM_DS3505
ZGSZ,2007-05-06 17:00,ZGSZ 061700Z AUTO 11004KT 4SM 23/16 A2977 RMK T02300160 IEM_DS3505
ZGSZ,2007-05-06 18:00,ZGSZ 061800Z AUTO 07002KT 7SM 22/17 A2977 RMK SLP084 T02240171 57010 IEM_DS3505
ZGSZ,2007-05-06 19:00,ZGSZ 061900Z AUTO 36002KT 3SM 22/18 A2977 RMK T02200180 IEM_DS3505
ZGSZ,2007-05-06 20:00,ZGSZ 062000Z AUTO 14002KT 3SM 21/18 A2977 RMK T02100180 IEM_DS3505
ZGSZ,2007-05-06 21:00,ZGSZ 062100Z AUTO 20002KT 6SM 22/18 A2980 RMK SLP095 T02150175 52010 IEM_DS3505
ZGSZ,2007-05-06 22:00,ZGSZ 062200Z AUTO 00000KT 1 1/4SM 22/18 A2980 RMK T02200180 IEM_DS3505
ZGSZ,2007-05-06 23:00,ZGSZ 062300Z AUTO 00000KT 2 1/2SM 22/19 A2983 RMK T02200190 IEM_DS3505
ZGSZ,2007-05-07 00:00,ZGSZ 070000Z AUTO 16002KT 4SM 25/18 A2983 RMK SLP107 T02500184 52012 IEM_DS3505
ZGSZ,2007-05-07 01:00,ZGSZ 070100Z AUTO 36004KT 3SM 28/17 A2985 RMK T02800170 IEM_DS3505
ZGSZ,2007-05-07 02:00,ZGSZ 070200Z AUTO 36006KT 4SM 30/16 A2985 RMK T03000160 IEM_DS3505
ZGSZ,2007-05-07 03:00,ZGSZ 070300Z AUTO 04008KT 5SM 31/11 A2983 RMK SLP104 T03080107 57002 IEM_DS3505
ZGSZ,2007-05-07 04:00,ZGSZ 070400Z AUTO 07008KT 6SM 33/10 A2983 RMK T03300100 IEM_DS3505
ZGSZ,2007-05-07 05:00,ZGSZ 070500Z AUTO 08008KT 6SM 33/08 A2980 RMK T03300080 IEM_DS3505
ZGSZ,2007-05-07 06:00,ZGSZ 070600Z AUTO 11008KT 14SM 32/08 A2977 RMK SLP089 T03200083 57015 IEM_DS3505
ZGSZ,2007-05-07 07:00,ZGSZ 070700Z AUTO 17006KT 6SM 33/15 A2977 RMK T03300150 IEM_DS3505
ZGSZ,2007-05-07 08:00,ZGSZ 070800Z AUTO 19010KT 6SM 30/ A2977 RMK IEM_DS3505
ZGSZ,2007-05-07 09:00,ZGSZ 070900Z AUTO 11010KT 17SM 31/10 A2977 RMK SLP082 T03060095 57007 IEM_DS3505
ZGSZ,2007-05-07 10:00,ZGSZ 071000Z AUTO 20006KT 6SM 28/ A2977 RMK IEM_DS3505
ZGSZ,2007-05-07 11:00,ZGSZ 071100Z AUTO 12008KT 6SM 29/10 A2977 RMK T02900100 IEM_DS3505
ZGSZ,2007-05-07 12:00,ZGSZ 071200Z AUTO 11004KT 12SM 27/13 A2980 RMK SLP100 T02670131 52018 IEM_DS3505
ZGSZ,2007-05-07 13:00,ZGSZ 071300Z AUTO 11006KT 6SM 27/12 A2983 RMK T02700120 IEM_DS3505
ZGSZ,2007-05-07 14:00,ZGSZ 071400Z AUTO 11010KT 6SM 27/14 A2985 RMK T02700140 IEM_DS3505
ZGSZ,2007-05-07 15:00,ZGSZ 071500Z AUTO 09004KT 9SM 24/18 A2985 RMK SLP116 T02450182 52016 IEM_DS3505
ZGSZ,2007-05-07 16:00,ZGSZ 071600Z AUTO 12014KT 6SM 25/17 A2985 RMK T02500170 IEM_DS3505
ZGSZ,2007-05-07 17:00,ZGSZ 071700Z AUTO 11008KT 6SM 25/18 A2985 RMK T02500180 IEM_DS3505
ZGSZ,2007-05-07 18:00,ZGSZ 071800Z AUTO 07006KT 8SM 23/19 A2985 RMK SLP110 T02340189 57006 IEM_DS3505
ZGSZ,2007-05-07 19:00,ZGSZ 071900Z AUTO 00000KT 6SM 24/19 A2985 RMK T02400190 IEM_DS3505
ZGSZ,2007-05-07 20:00,ZGSZ 072000Z AUTO 00000KT 6SM 22/19 A2985 RMK T02200190 IEM_DS3505
ZGSZ,2007-05-07 21:00,ZGSZ 072100Z AUTO 07004KT 4SM 23/20 A2985 RMK SLP116 T02270197 52006 IEM_DS3505
ZGSZ,2007-05-07 22:00,ZGSZ 072200Z AUTO 03006KT 3SM 22/18 A2988 RMK T02200180 IEM_DS3505
ZGSZ,2007-05-07 23:00,ZGSZ 072300Z AUTO 4SM 24/19 A2991 RMK T02400190 IEM_DS3505
ZGSZ,2007-05-08 00:00,ZGSZ 080000Z AUTO 11004KT 6SM 24/19 A2991 RMK SLP133 T02450189 52016 IEM_DS3505
ZGSZ,2007-05-08 01:00,ZGSZ 080100Z AUTO 3SM 27/20 A2991 RMK T02700200 IEM_DS3505
ZGSZ,2007-05-08 02:00,ZGSZ 080200Z AUTO 5SM 28/19 A2991 RMK T02800190 IEM_DS3505
ZGSZ,2007-05-08 03:00,ZGSZ 080300Z AUTO 09004KT 8SM 28/17 A2991 RMK SLP134 T02800172 52001 IEM_DS3505
ZGSZ,2007-05-08 04:00,ZGSZ 080400Z AUTO 24006KT 4SM 28/20 A2988 RMK T02800200 IEM_DS3505
ZGSZ,2007-05-08 05:00,ZGSZ 080500Z AUTO 24008KT 6SM 29/19 A2988 RMK T02900190 IEM_DS3505
ZGSZ,2007-05-08 06:00,ZGSZ 080600Z AUTO 09006KT 17SM 31/12 A2985 RMK SLP110 T03090123 57023 IEM_DS3505
ZGSZ,2007-05-08 07:00,ZGSZ 080700Z AUTO 13012KT 6SM 33/09 A2983 RMK T03300090 IEM_DS3505
ZGSZ,2007-05-08 08:00,ZGSZ 080800Z AUTO 20010KT 6SM 29/ A2983 RMK IEM_DS3505
ZGSZ,2007-05-08 09:00,ZGSZ 080900Z AUTO 14010KT 14SM 28/16 A2983 RMK SLP105 T02840157 57006 IEM_DS3505
ZGSZ,2007-05-08 10:00,ZGSZ 081000Z AUTO 12010KT 6SM 29/15 A2983 RMK T02900150 IEM_DS3505
ZGSZ,2007-05-08 11:00,ZGSZ 081100Z AUTO 12010KT 6SM 28/18 A2983 RMK T02800180 IEM_DS3505
ZGSZ,2007-05-08 12:00,ZGSZ 081200Z AUTO 09006KT 9SM 26/19 A2983 RMK SLP111 T02560188 52006 IEM_DS3505
ZGSZ,2007-05-08 13:00,ZGSZ 081300Z AUTO 12010KT 6SM 26/19 A2985 RMK T02600190 IEM_DS3505
ZGSZ,2007-05-08 14:00,ZGSZ 081400Z AUTO 11010KT 6SM 26/20 A2985 RMK T02600200 IEM_DS3505
ZGSZ,2007-05-08 15:00,ZGSZ 081500Z AUTO 09006KT 7SM 24/20 A2988 RMK SLP124 T02420201 52013 IEM_DS3505
ZGSZ,2007-05-08 16:00,ZGSZ 081600Z AUTO 12010KT 6SM 25/20 A2988 RMK T02500200 IEM_DS3505
ZGSZ,2007-05-08 17:00,ZGSZ 081700Z AUTO 12006KT 3SM 24/20 A2988 RMK T02400200 IEM_DS3505
ZGSZ,2007-05-08 18:00,ZGSZ 081800Z AUTO 11004KT 5SM 24/20 A2988 RMK SLP119 T02410200 57004 IEM_DS3505
ZGSZ,2007-05-08 19:00,ZGSZ 081900Z AUTO 3SM 24/20 A2988 RMK T02400200 IEM_DS3505
ZGSZ,2007-05-08 20:00,ZGSZ 082000Z AUTO 3SM 24/20 A2988 RMK T02400200 IEM_DS3505
ZGSZ,2007-05-08 21:00,ZGSZ 082100Z AUTO 07004KT 5SM 24/20 A2988 RMK SLP119 T02400201 57001 IEM_DS3505
ZGSZ,2007-05-08 22:00,ZGSZ 082200Z AUTO 03004KT 2SM 23/20 A2988 RMK T02300200 IEM_DS3505
ZGSZ,2007-05-08 23:00,ZGSZ 082300Z AUTO 02004KT 2 1/2SM 24/21 A2988 RMK T02400210 IEM_DS3505
ZGSZ,2007-05-09 00:00,ZGSZ 090000Z AUTO 07004KT 4SM 25/19 A2991 RMK SLP129 T02510192 52010 IEM_DS3505
ZGSZ,2007-05-09 01:00,ZGSZ 090100Z AUTO 06006KT 4SM 27/20 A2991 RMK T02700200 IEM_DS3505
ZGSZ,2007-05-09 02:00,ZGSZ 090200Z AUTO 06006KT 5SM 28/19 A2991 RMK T02800190 IEM_DS3505
ZGSZ,2007-05-09 03:00,ZGSZ 090300Z AUTO 04010KT 8SM 28/18 A2991 RMK SLP131 T02800184 52002 IEM_DS3505
ZGSZ,2007-05-09 04:00,ZGSZ 090400Z AUTO 11008KT 7SM 30/18 A2988 RMK T03000180 IEM_DS3505
ZGSZ,2007-05-09 05:00,ZGSZ 090500Z AUTO 11010KT 7SM 31/18 A2988 RMK T03100180 IEM_DS3505
ZGSZ,2007-05-09 06:00,ZGSZ 090600Z AUTO 09004KT 14SM 29/19 A2985 RMK SLP117 T02890192 57013 IEM_DS3505
ZGSZ,2007-05-09 07:00,ZGSZ 090700Z AUTO 12010KT 7SM 31/18 A2985 RMK T03100180 IEM_DS3505
ZGSZ,2007-05-09 08:00,ZGSZ 090800Z AUTO 11010KT 7SM 30/19 A2983 RMK T03000190 IEM_DS3505
ZGSZ,2007-05-09 09:00,ZGSZ 090900Z AUTO 07008KT 14SM 27/19 A2985 RMK SLP114 T02700188 57004 IEM_DS3505
ZGSZ,2007-05-09 10:00,ZGSZ 091000Z AUTO 12012KT 7SM 29/20 A2985 RMK T02900200 IEM_DS3505
ZGSZ,2007-05-09 11:00,ZGSZ 091100Z AUTO 12010KT 7SM 27/20 A2985 RMK T02700200 IEM_DS3505
ZGSZ,2007-05-09 12:00,ZGSZ 091200Z AUTO 07006KT 9SM 26/19 A2988 RMK SLP124 T02570194 52010 IEM_DS3505
ZGSZ,2007-05-09 13:00,ZGSZ 091300Z AUTO 11008KT 6SM 27/20 A2988 RMK T02700200 IEM_DS3505
ZGSZ,2007-05-09 14:00,ZGSZ 091400Z AUTO 10008KT 6SM 27/21 A2991 RMK T02700210 IEM_DS3505
ZGSZ,2007-05-09 15:00,ZGSZ 091500Z AUTO 07006KT 6SM 25/20 A2991 RMK SLP130 T02530201 52007 IEM_DS3505
ZGSZ,2007-05-09 16:00,ZGSZ 091600Z AUTO 10004KT 6SM 26/21 A2988 RMK T02600210 IEM_DS3505
ZGSZ,2007-05-09 17:00,ZGSZ 091700Z AUTO 09006KT 4SM 26/21 A2988 RMK T02600210 IEM_DS3505
ZGSZ,2007-05-09 18:00,ZGSZ 091800Z AUTO 07004KT 7SM 25/20 A2988 RMK SLP118 T02500203 57012 IEM_DS3505
ZGSZ,2007-05-09 19:00,ZGSZ 091900Z AUTO 4SM 25/21 A2985 RMK T02500210 IEM_DS3505
ZGSZ,2007-05-09 20:00,ZGSZ 092000Z AUTO 03004KT 4SM 25/20 A2985 RMK T02500200 IEM_DS3505
ZGSZ,2007-05-09 21:00,ZGSZ 092100Z AUTO 07004KT 7SM 25/20 A2985 RMK SLP116 T02470202 57003 IEM_DS3505
ZGSZ,2007-05-09 22:00,ZGSZ 092200Z AUTO 03004KT 3SM 25/21 A2985 RMK T02500210 IEM_DS3505
ZGSZ,2007-05-09 23:00,ZGSZ 092300Z AUTO 03006KT 4SM 26/21 A2988 RMK T02600210 IEM_DS3505
ZGSZ,2007-05-10 00:00,ZGSZ 100000Z AUTO 04006KT 4SM 27/20 A2991 RMK SLP130 T02660202 52014 IEM_DS3505
ZGSZ,2007-05-10 01:00,ZGSZ 100100Z AUTO 12006KT 4SM 28/21 A2991 RMK T02800210 IEM_DS3505
ZGSZ,2007-05-10 02:00,ZGSZ 100200Z AUTO 11008KT 4SM 30/21 A2991 RMK T03000210 IEM_DS3505
ZGSZ,2007-05-10 03:00,ZGSZ 100300Z AUTO 09008KT 9SM 28/20 A2991 RMK SLP134 T02780196 52004 IEM_DS3505
ZGSZ,2007-05-10 04:00,ZGSZ 100400Z AUTO 11010KT 7SM 31/21 A2988 RMK T03100210 IEM_DS3505
ZGSZ,2007-05-10 05:00,ZGSZ 100500Z AUTO 13014KT 7SM 30/20 A2988 RMK T03000200 IEM_DS3505
ZGSZ,2007-05-10 06:00,ZGSZ 100600Z AUTO 11010KT 16SM 29/17 A2985 RMK SLP114 T02890171 57019 IEM_DS3505
ZGSZ,2007-05-10 07:00,ZGSZ 100700Z AUTO 12010KT 7SM 31/20 A2983 RMK T03100200 IEM_DS3505
ZGSZ,2007-05-10 08:00,ZGSZ 100800Z AUTO 11008KT 6SM 31/18 A2983 RMK T03100180 IEM_DS3505
ZGSZ,2007-05-10 09:00,ZGSZ 100900Z AUTO 04008KT 16SM 28/20 A2983 RMK SLP107 T02840199 57007 IEM_DS3505
ZGSZ,2007-05-10 10:00,ZGSZ 101000Z AUTO 10012KT 7SM 29/20 A2983 RMK T02900200 IEM_DS3505
ZGSZ,2007-05-10 11:00,ZGSZ 101100Z AUTO 11012KT 6SM 28/19 A2985 RMK T02800190 IEM_DS3505
ZGSZ,2007-05-10 12:00,ZGSZ 101200Z AUTO 09006KT 14SM 26/18 A2985 RMK SLP118 T02650184 52011 IEM_DS3505
ZGSZ,2007-05-10 13:00,ZGSZ 101300Z AUTO 12012KT 6SM 28/17 A2988 RMK T02800170 IEM_DS3505
ZGSZ,2007-05-10 14:00,ZGSZ 101400Z AUTO 11012G21KT 6SM 28/13 A2988 RMK T02800130 IEM_DS3505
ZGSZ,2007-05-10 15:00,ZGSZ 101500Z AUTO 07010KT 11SM 26/11 A2988 RMK SLP126 T02630113 52008 IEM_DS3505
ZGSZ,2007-05-10 16:00,ZGSZ 101600Z AUTO 11012KT 6SM 27/11 A2988 RMK T02700110 IEM_DS3505
ZGSZ,2007-05-10 17:00,ZGSZ 101700Z AUTO 11008KT 6SM 26/14 A2988 RMK T02600140 IEM_DS3505
ZGSZ,2007-05-10 18:00,ZGSZ 101800Z AUTO 09008KT 11SM 25/15 A2988 RMK SLP118 T02480154 57008 IEM_DS3505
ZGSZ,2007-05-10 19:00,ZGSZ 101900Z AUTO 10008KT 6SM 26/13 A2985 RMK T02600130 IEM_DS3505
ZGSZ,2007-05-10 20:00,ZGSZ 102000Z AUTO 12008KT 6SM 26/15 A2985 RMK T02600150 IEM_DS3505
ZGSZ,2007-05-10 21:00,ZGSZ 102100Z AUTO 07006KT 9SM 24/16 A2988 RMK SLP118 T02440164 54000 IEM_DS3505
ZGSZ,2007-05-10 22:00,ZGSZ 102200Z AUTO 06004KT 6SM 25/14 A2988 RMK T02500140 IEM_DS3505
ZGSZ,2007-05-10 23:00,ZGSZ 102300Z AUTO 00000KT 7SM 25/14 A2991 RMK T02500140 IEM_DS3505
ZGSZ,2007-05-11 00:00,ZGSZ 110000Z AUTO 11006KT 10SM 24/19 A2991 RMK SLP138 T02440186 52019 IEM_DS3505
ZGSZ,2007-05-11 01:00,ZGSZ 110100Z AUTO 08006KT 6SM 28/18 A2994 RMK T02800180 IEM_DS3505
ZGSZ,2007-05-11 02:00,ZGSZ 110200Z AUTO 12014KT 6SM 29/20 A2994 RMK T02900200 IEM_DS3505
ZGSZ,2007-05-11 03:00,ZGSZ 110300Z AUTO 14010KT 11SM 28/19 A2991 RMK SLP138 T02780193 52001 IEM_DS3505
ZGSZ,2007-05-11 04:00,ZGSZ 110400Z AUTO 10012KT 6SM 31/19 A2991 RMK T03100190 IEM_DS3505
ZGSZ,2007-05-11 05:00,ZGSZ 110500Z AUTO 09010KT 6SM 31/19 A2988 RMK T03100190 IEM_DS3505
ZGSZ,2007-05-11 06:00,ZGSZ 110600Z AUTO 14012KT 11SM 29/18 A2985 RMK SLP120 T02930175 57018 IEM_DS3505
ZGSZ,2007-05-11 07:00,ZGSZ 110700Z AUTO 13010KT 6SM 32/18 A2985 RMK T03200180 IEM_DS3505
ZGSZ,2007-05-11 08:00,ZGSZ 110800Z AUTO 13012KT 6SM 31/18 A2985 RMK T03100180 IEM_DS3505
ZGSZ,2007-05-11 09:00,ZGSZ 110900Z AUTO 07008KT 14SM 28/17 A2985 RMK SLP113 T02810173 57007 IEM_DS3505
ZGSZ,2007-05-11 10:00,ZGSZ 111000Z AUTO 13012KT 6SM 29/18 A2985 RMK T02900180 IEM_DS3505
ZGSZ,2007-05-11 11:00,ZGSZ 111100Z AUTO 12010KT 6SM 28/19 A2985 RMK T02800190 IEM_DS3505
ZGSZ,2007-05-11 12:00,ZGSZ 111200Z AUTO 07008KT 9SM 26/19 A2988 RMK SLP127 T02570186 52013 IEM_DS3505
ZGSZ,2007-05-11 13:00,ZGSZ 111300Z AUTO 10008KT 6SM 27/19 A2991 RMK T02700190 IEM_DS3505
ZGSZ,2007-05-11 14:00,ZGSZ 111400Z AUTO 10006KT 5SM 26/20 A2994 RMK T02600200 IEM_DS3505
ZGSZ,2007-05-11 15:00,ZGSZ 111500Z AUTO 11004KT 7SM 25/19 A2994 RMK SLP145 T02470193 52018 IEM_DS3505
ZGSZ,2007-05-11 16:00,ZGSZ 111600Z AUTO 12008KT 4SM 26/20 A2994 RMK T02600200 IEM_DS3505
ZGSZ,2007-05-11 17:00,ZGSZ 111700Z AUTO 09004KT 4SM 25/20 A2994 RMK T02500200 IEM_DS3505
ZGSZ,2007-05-11 18:00,ZGSZ 111800Z AUTO 11008KT 3SM 24/20 A2991 RMK SLP134 T02440201 57010 IEM_DS3505
ZGSZ,2007-05-11 19:00,ZGSZ 111900Z AUTO 09004KT 4SM 25/20 A2991 RMK T02500200 IEM_DS3505
ZGSZ,2007-05-11 20:00,ZGSZ 112000Z AUTO 10004KT 3SM 25/20 A2991 RMK T02500200 IEM_DS3505
ZGSZ,2007-05-11 21:00,ZGSZ 112100Z AUTO 04004KT 3SM 24/20 A2991 RMK SLP128 T02410200 57007 IEM_DS3505
ZGSZ,2007-05-11 22:00,ZGSZ 112200Z AUTO 03006KT 2 1/2SM 24/20 A2991 RMK T02400200 IEM_DS3505
ZGSZ,2007-05-11 23:00,ZGSZ 112300Z AUTO 02004KT 3SM 25/20 A2994 RMK T02500200 IEM_DS3505
ZGSZ,2007-05-12 00:00,ZGSZ 120000Z AUTO 04006KT 3SM 26/20 A2994 RMK SLP143 T02620201 52015 IEM_DS3505
ZGSZ,2007-05-12 01:00,ZGSZ 120100Z AUTO 4SM 28/21 A2994 RMK T02800210 IEM_DS3505
ZGSZ,2007-05-12 02:00,ZGSZ 120200Z AUTO 3SM 29/21 A2994 RMK T02900210 IEM_DS3505
ZGSZ,2007-05-12 03:00,ZGSZ 120300Z AUTO 02004KT 4SM 30/20 A2994 RMK SLP140 T03000203 57002 IEM_DS3505
ZGSZ,2007-05-12 04:00,ZGSZ 120400Z AUTO 25008KT 4SM 29/22 A2991 RMK T02900220 IEM_DS3505
ZGSZ,2007-05-12 05:00,ZGSZ 120500Z AUTO 22008KT 4SM 30/22 A2991 RMK T03000220 IEM_DS3505
ZGSZ,2007-05-12 06:00,ZGSZ 120600Z AUTO 20010KT 4SM 28/21 A2988 RMK SLP120 T02850213 57020 IEM_DS3505
ZGSZ,2007-05-12 07:00,ZGSZ 120700Z AUTO 17008KT 4SM 30/23 A2985 RMK T03000230 IEM_DS3505
ZGSZ,2007-05-12 08:00,ZGSZ 120800Z AUTO 18010KT 3SM 29/23 A2983 RMK T02900230 IEM_DS3505
ZGSZ,2007-05-12 09:00,ZGSZ 120900Z AUTO 22004KT 5SM 29/22 A2983 RMK SLP104 T02920217 57016 IEM_DS3505
ZGSZ,2007-05-12 10:00,ZGSZ 121000Z AUTO 18008KT 3SM 28/24 A2983 RMK T02800240 IEM_DS3505
ZGSZ,2007-05-12 11:00,ZGSZ 121100Z AUTO 19008KT 2SM 27/24 A2985 RMK T02700240 IEM_DS3505
ZGSZ,2007-05-12 12:00,ZGSZ 121200Z AUTO 18004KT 4SM 26/22 A2985 RMK SLP120 T02630217 52015 IEM_DS3505
ZGSZ,2007-05-12 13:00,ZGSZ 121300Z AUTO 19010KT 2 1/2SM 26/24 A2991 RMK T02600240 IEM_DS3505
ZGSZ,2007-05-12 14:00,ZGSZ 121400Z AUTO 20010KT 2 1/2SM 26/23 A2991 RMK T02600230 IEM_DS3505
ZGSZ,2007-05-12 15:00,ZGSZ 121500Z AUTO 16002KT 3SM 25/22 A2994 RMK SLP139 T02530216 52020 IEM_DS3505
ZGSZ,2007-05-12 16:00,ZGSZ 121600Z AUTO 20006KT 4SM 26/23 A2991 RMK T02600230 IEM_DS3505
ZGSZ,2007-05-12 17:00,ZGSZ 121700Z AUTO 20004KT 3SM 26/23 A2991 RMK T02600230 IEM_DS3505
ZGSZ,2007-05-12 18:00,ZGSZ 121800Z AUTO 18004KT 2 1/2SM 25/22 A2991 RMK SLP130 T02520217 57009 IEM_DS3505
ZGSZ,2007-05-12 19:00,ZGSZ 121900Z AUTO 19004KT 3SM 26/24 A2988 RMK T02600240 IEM_DS3505
ZGSZ,2007-05-12 20:00,ZGSZ 122000Z AUTO 19004KT 3SM 26/24 A2988 RMK T02600240 IEM_DS3505
ZGSZ,2007-05-12 21:00,ZGSZ 122100Z AUTO 36004KT 2 1/2SM 25/20 A2991 RMK SLP130 T02530197 54000 IEM_DS3505
ZGSZ,2007-05-12 22:00,ZGSZ 122200Z AUTO 02006KT 4SM 25/20 A2991 RMK T02500200 IEM_DS3505
ZGSZ,2007-05-12 23:00,ZGSZ 122300Z AUTO 03006KT 5SM 26/19 A2991 RMK T02600190 IEM_DS3505
ZGSZ,2007-05-13 00:00,ZGSZ 130000Z AUTO 04006KT 6SM 26/18 A2994 RMK SLP141 T02590178 52010 IEM_DS3505
ZGSZ,2007-05-13 01:00,ZGSZ 130100Z AUTO 03010KT 4SM 28/19 A2994 RMK T02800190 IEM_DS3505
ZGSZ,2007-05-13 02:00,ZGSZ 130200Z AUTO 01008KT 4SM 29/18 A2994 RMK T02900180 IEM_DS3505
ZGSZ,2007-05-13 03:00,ZGSZ 130300Z AUTO 04008KT 7SM 29/19 A2994 RMK SLP142 T02880186 52002 IEM_DS3505
ZGSZ,2007-05-13 04:00,ZGSZ 130400Z AUTO 02008KT 4SM 30/19 A2991 RMK T03000190 IEM_DS3505
ZGSZ,2007-05-13 05:00,ZGSZ 130500Z AUTO 4SM 31/19 A2988 RMK T03100190 IEM_DS3505
ZGSZ,2007-05-13 06:00,ZGSZ 130600Z AUTO 11008KT 6SM 30/20 A2988 RMK SLP123 T02960199 57019 IEM_DS3505
ZGSZ,2007-05-13 07:00,ZGSZ 130700Z AUTO 20006KT 3SM 30/22 A2988 RMK T03000220 IEM_DS3505
ZGSZ,2007-05-13 08:00,ZGSZ 130800Z AUTO 18012KT 3SM 29/23 A2988 RMK T02900230 IEM_DS3505
ZGSZ,2007-05-13 09:00,ZGSZ 130900Z AUTO 11008KT 7SM 28/20 A2988 RMK SLP122 T02750198 57001 IEM_DS3505
ZGSZ,2007-05-13 10:00,ZGSZ 131000Z AUTO 21008KT 3SM 28/22 A2988 RMK T02800220 IEM_DS3505
ZGSZ,2007-05-13 11:00,ZGSZ 131100Z AUTO 13008KT 3SM 29/20 A2988 RMK T02900200 IEM_DS3505
ZGSZ,2007-05-13 12:00,ZGSZ 131200Z AUTO 07008KT 4SM 25/20 A2991 RMK SLP136 T02510201 52013 IEM_DS3505
ZGSZ,2007-05-13 13:00,ZGSZ 131300Z AUTO 11010KT 3SM 27/21 A2991 RMK T02700210 IEM_DS3505
ZGSZ,2007-05-13 14:00,ZGSZ 131400Z AUTO 11008KT 3SM 26/20 A2994 RMK T02600200 IEM_DS3505
ZGSZ,2007-05-13 15:00,ZGSZ 131500Z AUTO 07006KT 3SM 24/20 A2994 RMK SLP146 T02430202 52010 IEM_DS3505
ZGSZ,2007-05-13 16:00,ZGSZ 131600Z AUTO 11008KT 3SM 25/21 A2994 RMK T02500210 IEM_DS3505
ZGSZ,2007-05-13 17:00,ZGSZ 131700Z AUTO 12008KT 3SM 25/21 A2991 RMK T02500210 IEM_DS3505
ZGSZ,2007-05-13 18:00,ZGSZ 131800Z AUTO 11004KT 3SM 24/20 A2991 RMK SLP134 T02380201 57012 IEM_DS3505
ZGSZ,2007-05-13 19:00,ZGSZ 131900Z AUTO 10004KT 3SM 24/21 A2991 RMK T02400210 IEM_DS3505
ZGSZ,2007-05-13 20:00,ZGSZ 132000Z AUTO 11004KT 3SM 24/20 A2988 RMK T02400200 IEM_DS3505
ZGSZ,2007-05-13 21:00,ZGSZ 132100Z AUTO 09004KT 3SM 24/20 A2988 RMK SLP128 T02350201 57006 IEM_DS3505
ZGSZ,2007-05-13 22:00,ZGSZ 132200Z AUTO 12006KT 2 1/2SM 24/21 A2991 RMK T02400210 IEM_DS3505
ZGSZ,2007-05-13 23:00,ZGSZ 132300Z AUTO 09004KT 2 1/2SM 25/21 A2994 RMK T02500210 IEM_DS3505
ZGSZ,2007-05-14 00:00,ZGSZ 140000Z AUTO 07004KT 3SM 26/20 A2994 RMK SLP146 T02610204 52018 IEM_DS3505
ZGSZ,2007-05-14 01:00,ZGSZ 140100Z AUTO 27004KT 2 1/2SM 26/21 A2994 RMK T02600210 IEM_DS3505
ZGSZ,2007-05-14 02:00,ZGSZ 140200Z AUTO 23006KT 2 1/2SM 27/22 A2997 RMK T02700220 IEM_DS3505
ZGSZ,2007-05-14 03:00,ZGSZ 140300Z AUTO 20004KT 4SM 29/19 A2994 RMK SLP147 T02900193 52001 IEM_DS3505
ZGSZ,2007-05-14 04:00,ZGSZ 140400Z AUTO 24006KT 3SM 28/22 A2994 RMK T02800220 IEM_DS3505
ZGSZ,2007-05-14 05:00,ZGSZ 140500Z AUTO 23006KT 3SM 29/21 A2991 RMK T02900210 IEM_DS3505
ZGSZ,2007-05-14 06:00,ZGSZ 140600Z AUTO 22008KT 7SM 30/21 A2988 RMK SLP124 T03010206 57022 IEM_DS3505
ZGSZ,2007-05-14 07:00,ZGSZ 140700Z AUTO 19008KT 6SM 29/23 A2985 RMK T02900230 IEM_DS3505
ZGSZ,2007-05-14 08:00,ZGSZ 140800Z AUTO 19010KT 3SM 29/23 A2985 RMK T02900230 IEM_DS3505
ZGSZ,2007-05-14 09:00,ZGSZ 140900Z AUTO 20008KT 7SM 29/19 A2985 RMK SLP109 T02910191 57015 IEM_DS3505
ZGSZ,2007-05-14 10:00,ZGSZ 141000Z AUTO 18012KT 6SM 27/23 A2985 RMK T02700230 IEM_DS3505
ZGSZ,2007-05-14 11:00,ZGSZ 141100Z AUTO 18012KT 3SM 26/23 A2985 RMK T02600230 IEM_DS3505
ZGSZ,2007-05-14 12:00,ZGSZ 141200Z AUTO 20004KT 6SM 26/21 A2988 RMK SLP123 T02600210 52013 IEM_DS3505
ZGSZ,2007-05-14 13:00,ZGSZ 141300Z AUTO 19010KT 4SM 26/23 A2988 RMK T02600230 IEM_DS3505
ZGSZ,2007-05-14 14:00,ZGSZ 141400Z AUTO 18008KT 5SM 26/22 A2991 RMK T02600220 IEM_DS3505
ZGSZ,2007-05-14 15:00,ZGSZ 141500Z AUTO 18004KT 5SM 25/21 A2991 RMK SLP133 T02530212 52011 IEM_DS3505
ZGSZ,2007-05-14 16:00,ZGSZ 141600Z AUTO 19008KT 3SM 26/23 A2991 RMK T02600230 IEM_DS3505
ZGSZ,2007-05-14 17:00,ZGSZ 141700Z AUTO 17010KT 3SM 26/22 A2988 RMK T02600220 IEM_DS3505
ZGSZ,2007-05-14 18:00,ZGSZ 141800Z AUTO 14004KT 4SM 24/21 A2988 RMK SLP123 T02420213 57010 IEM_DS3505
ZGSZ,2007-05-14 19:00,ZGSZ 141900Z AUTO 20004KT 3SM 25/22 A2988 RMK T02500220 IEM_DS3505
ZGSZ,2007-05-14 20:00,ZGSZ 142000Z AUTO 19004KT 3SM 25/22 A2988 RMK T02500220 IEM_DS3505
ZGSZ,2007-05-14 21:00,ZGSZ 142100Z AUTO 20002KT 4SM 24/21 A2988 RMK SLP125 T02350212 52001 IEM_DS3505
ZGSZ,2007-05-14 22:00,ZGSZ 142200Z AUTO 17004KT 3SM 25/22 A2988 RMK T02500220 IEM_DS3505
ZGSZ,2007-05-14 23:00,ZGSZ 142300Z AUTO 17004KT 3SM 25/22 A2991 RMK T02500220 IEM_DS3505
ZGSZ,2007-05-15 00:00,ZGSZ 150000Z AUTO 16002KT 4SM 26/21 A2991 RMK SLP136 T02610209 52011 IEM_DS3505
ZGSZ,2007-05-15 01:00,ZGSZ 150100Z AUTO 18006KT 4SM 27/22 A2991 RMK T02700220 IEM_DS3505
ZGSZ,2007-05-15 02:00,ZGSZ 150200Z AUTO 21008KT 6SM 28/23 A2991 RMK T02800230 IEM_DS3505
ZGSZ,2007-05-15 03:00,ZGSZ 150300Z AUTO 20004KT 5SM 29/21 A2991 RMK SLP132 T02920212 57003 IEM_DS3505
ZGSZ,2007-05-15 04:00,ZGSZ 150400Z AUTO 20010KT 6SM 28/23 A2988 RMK T02800230 IEM_DS3505
ZGSZ,2007-05-15 05:00,ZGSZ 150500Z AUTO 20010KT 6SM 29/23 A2988 RMK T02900230 IEM_DS3505
ZGSZ,2007-05-15 06:00,ZGSZ 150600Z AUTO 20006KT 10SM 31/21 A2985 RMK SLP112 T03070209 57020 IEM_DS3505
ZGSZ,2007-05-15 07:00,ZGSZ 150700Z AUTO 18012KT 6SM 29/23 A2983 RMK T02900230 IEM_DS3505
ZGSZ,2007-05-15 08:00,ZGSZ 150800Z AUTO 18012KT 6SM 29/24 A2983 RMK T02900240 IEM_DS3505
ZGSZ,2007-05-15 09:00,ZGSZ 150900Z AUTO 22006KT 14SM 30/22 A2980 RMK SLP097 T02960218 57015 IEM_DS3505
ZGSZ,2007-05-15 10:00,ZGSZ 151000Z AUTO 18014KT 6SM 27/23 A2980 RMK T02700230 IEM_DS3505
ZGSZ,2007-05-15 11:00,ZGSZ 151100Z AUTO 17012KT 6SM 27/23 A2983 RMK T02700230 IEM_DS3505
ZGSZ,2007-05-15 12:00,ZGSZ 151200Z AUTO 14004KT 11SM 26/22 A2983 RMK SLP110 T02610220 52013 IEM_DS3505
ZGSZ,2007-05-15 13:00,ZGSZ 151300Z AUTO 16010KT 6SM 27/23 A2985 RMK T02700230 IEM_DS3505
ZGSZ,2007-05-15 14:00,ZGSZ 151400Z AUTO 16008KT 6SM 26/23 A2988 RMK T02600230 IEM_DS3505
ZGSZ,2007-05-15 15:00,ZGSZ 151500Z AUTO 16004KT 5SM 26/22 A2988 RMK SLP123 T02560221 52013 IEM_DS3505
ZGSZ,2007-05-15 16:00,ZGSZ 151600Z AUTO 16006KT 5SM 26/23 A2988 RMK T02600230 IEM_DS3505
ZGSZ,2007-05-15 17:00,ZGSZ 151700Z AUTO 16006KT 4SM 26/23 A2988 RMK T02600230 IEM_DS3505
ZGSZ,2007-05-15 18:00,ZGSZ 151800Z AUTO 16004KT 6SM 25/22 A2985 RMK SLP117 T02500221 57006 IEM_DS3505
ZGSZ,2007-05-15 19:00,ZGSZ 151900Z AUTO 19006KT 5SM 26/23 A2985 RMK T02600230 IEM_DS3505
ZGSZ,2007-05-15 20:00,ZGSZ 152000Z AUTO 18008KT 5SM 26/23 A2983 RMK T02600230 IEM_DS3505
ZGSZ,2007-05-15 21:00,ZGSZ 152100Z AUTO 22002KT 6SM 25/22 A2985 RMK SLP110 T02470222 57007 IEM_DS3505
ZGSZ,2007-05-15 22:00,ZGSZ 152200Z AUTO 21004KT 3SM 26/24 A2985 RMK T02600240 IEM_DS3505
ZGSZ,2007-05-15 23:00,ZGSZ 152300Z AUTO 19004KT 4SM 27/24 A2985 RMK T02700240 IEM_DS3505
ZGSZ,2007-05-16 00:00,ZGSZ 160000Z AUTO 20006KT 6SM 27/23 A2988 RMK SLP122 T02670232 52012 IEM_DS3505
ZGSZ,2007-05-16 01:00,ZGSZ 160100Z AUTO 18008KT 4SM 28/24 A2988 RMK T02800240 IEM_DS3505
ZGSZ,2007-05-16 02:00,ZGSZ 160200Z AUTO 18006KT 4SM 29/25 A2988 RMK T02900250 IEM_DS3505
ZGSZ,2007-05-16 03:00,ZGSZ 160300Z AUTO 22006KT 6SM 29/23 A2988 RMK SLP122 T02930230 54000 IEM_DS3505
ZGSZ,2007-05-16 04:00,ZGSZ 160400Z AUTO 17008KT 4SM 30/25 A2985 RMK T03000250 IEM_DS3505
ZGSZ,2007-05-16 05:00,ZGSZ 160500Z AUTO 18010KT 4SM 30/25 A2983 RMK T03000250 IEM_DS3505
ZGSZ,2007-05-16 06:00,ZGSZ 160600Z AUTO 22006KT 9SM 31/23 A2980 RMK SLP099 T03090228 57023 IEM_DS3505
ZGSZ,2007-05-16 07:00,ZGSZ 160700Z AUTO 17012KT 6SM 30/25 A2980 RMK T03000250 IEM_DS3505
ZGSZ,2007-05-16 08:00,ZGSZ 160800Z AUTO 17012KT 6SM 30/25 A2977 RMK T03000250 IEM_DS3505
ZGSZ,2007-05-16 09:00,ZGSZ 160900Z AUTO 22008KT 11SM 29/24 A2974 RMK SLP078 T02910235 57021 IEM_DS3505
ZGSZ,2007-05-16 10:00,ZGSZ 161000Z AUTO 16012KT 6SM 29/25 A2977 RMK T02900250 IEM_DS3505
ZGSZ,2007-05-16 11:00,ZGSZ 161100Z AUTO 16010KT 7SM 28/25 A2977 RMK T02800250 IEM_DS3505
ZGSZ,2007-05-16 12:00,ZGSZ 161200Z AUTO 22008KT 9SM 28/24 A2977 RMK 60000 SLP099 T02760240 52021 IEM_DS3505
ZGSZ,2007-05-16 13:00,ZGSZ 161300Z AUTO 7SM 27/24 A2985 RMK T02700240 IEM_DS3505
ZGSZ,2007-05-16 14:00,ZGSZ 161400Z AUTO 05006KT 7SM 27/22 A2985 RMK T02700220 IEM_DS3505
ZGSZ,2007-05-16 15:00,ZGSZ 161500Z AUTO 09004KT 4SM 25/22 A2985 RMK SLP117 T02540215 52018 IEM_DS3505
ZGSZ,2007-05-16 16:00,ZGSZ 161600Z AUTO 7SM 26/21 A2985 RMK T02600210 IEM_DS3505
ZGSZ,2007-05-16 17:00,ZGSZ 161700Z AUTO 00000KT 7SM 26/22 A2985 RMK T02600220 IEM_DS3505
ZGSZ,2007-05-16 18:00,ZGSZ 161800Z AUTO 32004KT 7SM 25/18 A2983 RMK 60000 SLP106 T02510176 57011 IEM_DS3505
ZGSZ,2007-05-16 19:00,ZGSZ 161900Z AUTO 03006KT 6SM 25/18 A2983 RMK T02500180 IEM_DS3505
ZGSZ,2007-05-16 20:00,ZGSZ 162000Z AUTO 6SM 25/20 A2983 RMK T02500200 IEM_DS3505
ZGSZ,2007-05-16 21:00,ZGSZ 162100Z AUTO 29004KT 4SM 24/19 A2983 RMK 70000 SLP099 T02380189 57007 IEM_DS3505
ZGSZ,2007-05-16 22:00,ZGSZ 162200Z AUTO 6SM 25/19 A2983 RMK T02500190 IEM_DS3505
ZGSZ,2007-05-16 23:00,ZGSZ 162300Z AUTO 6SM 26/20 A2983 RMK T02600200 IEM_DS3505
ZGSZ,2007-05-17 00:00,ZGSZ 170000Z AUTO 36002KT 8SM 26/18 A2983 RMK 70000 SLP108 T02590178 52009 IEM_DS3505
ZGSZ,2007-05-17 01:00,ZGSZ 170100Z AUTO 28004KT 3SM 28/20 A2985 RMK T02800200 IEM_DS3505
ZGSZ,2007-05-17 02:00,ZGSZ 170200Z AUTO 30006KT 3SM 29/19 A2985 RMK T02900190 IEM_DS3505
ZGSZ,2007-05-17 03:00,ZGSZ 170300Z AUTO 29006KT 7SM 31/17 A2985 RMK SLP112 T03090169 52004 IEM_DS3505
ZGSZ,2007-05-17 04:00,ZGSZ 170400Z AUTO 29008KT 3SM 30/20 A2983 RMK T03000200 IEM_DS3505
ZGSZ,2007-05-17 05:00,ZGSZ 170500Z AUTO 26004KT 3SM 31/20 A2980 RMK T03100200 IEM_DS3505
ZGSZ,2007-05-17 06:00,ZGSZ 170600Z AUTO 22008KT 4SM 32/20 A2977 RMK SLP087 T03160202 57025 IEM_DS3505
ZGSZ,2007-05-17 07:00,ZGSZ 170700Z AUTO 20004KT 3SM 32/19 A2977 RMK T03200190 IEM_DS3505
ZGSZ,2007-05-17 08:00,ZGSZ 170800Z AUTO 19006KT 4SM 32/21 A2974 RMK T03200210 IEM_DS3505
ZGSZ,2007-05-17 09:00,ZGSZ 170900Z AUTO 22006KT 4SM 31/21 A2974 RMK SLP074 T03070206 57013 IEM_DS3505
ZGSZ,2007-05-17 10:00,ZGSZ 171000Z AUTO 18010KT 3SM 29/24 A2974 RMK T02900240 IEM_DS3505
ZGSZ,2007-05-17 11:00,ZGSZ 171100Z AUTO 17012KT 3SM 28/25 A2974 RMK T02800250 IEM_DS3505
ZGSZ,2007-05-17 12:00,ZGSZ 171200Z AUTO 25006KT 3SM 28/24 A2977 RMK SLP087 T02810237 52013 IEM_DS3505
ZGSZ,2007-05-17 13:00,ZGSZ 171300Z AUTO 16010KT 3SM 28/25 A2980 RMK T02800250 IEM_DS3505
ZGSZ,2007-05-17 14:00,ZGSZ 171400Z AUTO 16008KT 3SM 28/25 A2980 RMK T02800250 IEM_DS3505
ZGSZ,2007-05-17 15:00,ZGSZ 171500Z AUTO 22004KT 6SM 28/23 A2983 RMK SLP100 T02790233 52013 IEM_DS3505
ZGSZ,2007-05-17 16:00,ZGSZ 171600Z AUTO 16008KT 3SM 27/26 A2980 RMK T02700260 IEM_DS3505
ZGSZ,2007-05-17 17:00,ZGSZ 171700Z AUTO 16008KT 3SM 28/26 A2980 RMK T02800260 IEM_DS3505
ZGSZ,2007-05-17 18:00,ZGSZ 171800Z AUTO 20010KT 7SM 27/25 A2980 RMK SLP090 T02710246 57010 IEM_DS3505
ZGSZ,2007-05-17 19:00,ZGSZ 171900Z AUTO 17008KT 4SM 27/26 A2977 RMK T02700260 IEM_DS3505
ZGSZ,2007-05-17 20:00,ZGSZ 172000Z AUTO 18008KT 7SM 27/26 A2974 RMK T02700260 IEM_DS3505
ZGSZ,2007-05-17 21:00,ZGSZ 172100Z AUTO 22008KT 9SM 27/24 A2974 RMK SLP077 T02660243 57013 IEM_DS3505
ZGSZ,2007-05-17 22:00,ZGSZ 172200Z AUTO 18008KT 7SM 27/25 A2974 RMK T02700250 IEM_DS3505
ZGSZ,2007-05-17 23:00,ZGSZ 172300Z AUTO 19006KT 7SM 27/25 A2977 RMK T02700250 IEM_DS3505
ZGSZ,2007-05-18 00:00,ZGSZ 180000Z AUTO 22004KT 7SM 27/25 A2977 RMK SLP087 T02720248 52010 IEM_DS3505
ZGSZ,2007-05-18 01:00,ZGSZ 180100Z AUTO 19006KT 5SM 28/25 A2980 RMK T02800250 IEM_DS3505
ZGSZ,2007-05-18 02:00,ZGSZ 180200Z AUTO 20004KT 5SM 29/25 A2980 RMK T02900250 IEM_DS3505
ZGSZ,2007-05-18 03:00,ZGSZ 180300Z AUTO 20004KT 4SM 30/25 A2980 RMK T03000250 IEM_DS3505
ZGSZ,2007-05-18 04:00,ZGSZ 180400Z AUTO 17006KT 5SM 31/26 A2980 RMK T03100260 IEM_DS3505
ZGSZ,2007-05-18 05:00,ZGSZ 180500Z AUTO 17008KT 7SM 32/26 A2977 RMK T03200260 IEM_DS3505
ZGSZ,2007-05-18 06:00,ZGSZ 180600Z AUTO 22010KT 11SM 31/24 A2974 RMK SLP080 T03060243 57018 IEM_DS3505
ZGSZ,2007-05-18 07:00,ZGSZ 180700Z AUTO 19008KT 7SM 31/26 A2971 RMK T03100260 IEM_DS3505
ZGSZ,2007-05-18 08:00,ZGSZ 180800Z AUTO 17017KT 7SM 29/26 A2968 RMK T02900260 IEM_DS3505
ZGSZ,2007-05-18 09:00,ZGSZ 180900Z AUTO 22008KT 12SM 29/25 A2977 RMK SLP073 T02870247 57007 IEM_DS3505
ZGSZ,2007-05-18 10:00,ZGSZ 181000Z AUTO 36004KT 3SM 26/24 A2977 RMK T02600240 IEM_DS3505
ZGSZ,2007-05-18 11:00,ZGSZ 181100Z AUTO 36004KT 2 1/2SM 26/23 A2980 RMK T02600230 IEM_DS3505
ZGSZ,2007-05-18 12:00,ZGSZ 181200Z AUTO 36006KT 7SM 24/23 A2980 RMK 60126 SLP099 T02400228 52025 IEM_DS3505
ZGSZ,2007-05-18 13:00,ZGSZ 181300Z AUTO 32006KT 4SM 26/21 A2985 RMK T02600210 IEM_DS3505
ZGSZ,2007-05-18 14:00,ZGSZ 181400Z AUTO 00000KT 4SM 26/23 A2983 RMK T02600230 IEM_DS3505
ZGSZ,2007-05-18 15:00,ZGSZ 181500Z AUTO 22002KT 7SM 24/22 A2983 RMK SLP101 T02420217 52003 IEM_DS3505
ZGSZ,2007-05-18 16:00,ZGSZ 181600Z AUTO 00000KT 4SM 26/22 A2980 RMK T02600220 IEM_DS3505
ZGSZ,2007-05-18 17:00,ZGSZ 181700Z AUTO 00000KT 4SM 26/22 A2980 RMK T02600220 IEM_DS3505
ZGSZ,2007-05-18 18:00,ZGSZ 181800Z AUTO 34002KT 4SM 24/22 A2980 RMK 60004 SLP093 T02390220 57008 IEM_DS3505
ZGSZ,2007-05-18 19:00,ZGSZ 181900Z AUTO 00000KT 2 1/2SM 26/22 A2980 RMK T02600220 IEM_DS3505
ZGSZ,2007-05-18 20:00,ZGSZ 182000Z AUTO 00000KT 2 1/2SM 26/22 A2980 RMK T02600220 IEM_DS3505
ZGSZ,2007-05-18 21:00,ZGSZ 182100Z AUTO 36002KT 2SM 24/22 A2980 RMK 70130 SLP094 T02420221 52001 IEM_DS3505
ZGSZ,2007-05-18 22:00,ZGSZ 182200Z AUTO 06004KT 3SM 25/21 A2980 RMK T02500210 IEM_DS3505
ZGSZ,2007-05-18 23:00,ZGSZ 182300Z AUTO 05006KT 4SM 25/21 A2983 RMK T02500210 IEM_DS3505
ZGSZ,2007-05-19 00:00,ZGSZ 190000Z AUTO 02004KT 6SM 24/21 A2985 RMK 70130 SLP111 T02430208 52016 IEM_DS3505
ZGSZ,2007-05-19 01:00,ZGSZ 190100Z AUTO 05004KT 6SM 27/21 A2985 RMK T02700210 IEM_DS3505
ZGSZ,2007-05-19 02:00,ZGSZ 190200Z AUTO 07004KT 7SM 28/21 A2985 RMK T02800210 IEM_DS3505
ZGSZ,2007-05-19 03:00,ZGSZ 190300Z AUTO 34004KT 12SM 27/21 A2985 RMK SLP114 T02730209 52003 IEM_DS3505
ZGSZ,2007-05-19 04:00,ZGSZ 190400Z AUTO 01004KT 7SM 29/20 A2983 RMK T02900200 IEM_DS3505
ZGSZ,2007-05-19 05:00,ZGSZ 190500Z AUTO 03006KT 7SM 28/21 A2983 RMK T02800210 IEM_DS3505
ZGSZ,2007-05-19 06:00,ZGSZ 190600Z AUTO 36004KT 8SM 26/22 A2980 RMK 60004 SLP094 T02620221 57020 IEM_DS3505
ZGSZ,2007-05-19 07:00,ZGSZ 190700Z AUTO 03008KT 7SM 27/20 A2980 RMK T02700200 IEM_DS3505
ZGSZ,2007-05-19 08:00,ZGSZ 190800Z AUTO 35010KT 1 1/2SM 24/22 A2980 RMK T02400220 IEM_DS3505
ZGSZ,2007-05-19 09:00,ZGSZ 190900Z AUTO 04004KT 3SM 23/22 A2980 RMK SLP099 T02300215 52005 IEM_DS3505
ZGSZ,2007-05-19 10:00,ZGSZ 191000Z AUTO 08006KT 4SM 24/21 A2980 RMK T02400210 IEM_DS3505
ZGSZ,2007-05-19 11:00,ZGSZ 191100Z AUTO 10008KT 3SM 24/21 A2980 RMK T02400210 IEM_DS3505
ZGSZ,2007-05-19 12:00,ZGSZ 191200Z AUTO 07006KT 7SM 23/21 A2980 RMK 60134 SLP097 T02290214 57002 IEM_DS3505
ZGSZ,2007-05-19 13:00,ZGSZ 191300Z AUTO 00000KT 7SM 24/22 A2983 RMK T02400220 IEM_DS3505
ZGSZ,2007-05-19 14:00,ZGSZ 191400Z AUTO 16006KT 7SM 24/22 A2985 RMK T02400220 IEM_DS3505
ZGSZ,2007-05-19 15:00,ZGSZ 191500Z AUTO 07006KT 16SM 23/20 A2985 RMK SLP113 T02290204 52016 IEM_DS3505
ZGSZ,2007-05-19 16:00,ZGSZ 191600Z AUTO 11008KT 7SM 23/21 A2983 RMK T02300210 IEM_DS3505
ZGSZ,2007-05-19 17:00,ZGSZ 191700Z AUTO 11008KT 4SM 23/21 A2983 RMK T02300210 IEM_DS3505
ZGSZ,2007-05-19 18:00,ZGSZ 191800Z AUTO 07008KT 9SM 22/20 A2980 RMK 60016 SLP093 T02230204 57020 IEM_DS3505
ZGSZ,2007-05-19 19:00,ZGSZ 191900Z AUTO 10010KT 4SM 23/21 A2977 RMK T02300210 IEM_DS3505
ZGSZ,2007-05-19 20:00,ZGSZ 192000Z AUTO 07008KT 3SM 23/21 A2977 RMK T02300210 IEM_DS3505
ZGSZ,2007-05-19 21:00,ZGSZ 192100Z AUTO 02004KT 2 1/2SM 22/21 A2977 RMK 70206 SLP083 T02190207 57010 IEM_DS3505
ZGSZ,2007-05-19 22:00,ZGSZ 192200Z AUTO 06008KT 7SM 23/21 A2977 RMK T02300210 IEM_DS3505
ZGSZ,2007-05-19 23:00,ZGSZ 192300Z AUTO 07017G27KT 7SM 23/21 A2974 RMK T02300210 IEM_DS3505
ZGSZ,2007-05-20 00:00,ZGSZ 200000Z AUTO 07008KT 11SM 22/20 A2974 RMK 60157 70311 SLP082 T02170202 57001 IEM_DS3505
ZGSZ,2007-05-20 01:00,ZGSZ 200100Z AUTO 25010KT 2 1/2SM 23/20 A2980 RMK T02300200 IEM_DS3505
ZGSZ,2007-05-20 02:00,ZGSZ 200200Z AUTO 07008KT 4SM 22/20 A2980 RMK T02200200 IEM_DS3505
ZGSZ,2007-05-20 03:00,ZGSZ 200300Z AUTO 07008KT 2 1/2SM 21/20 A2977 RMK SLP084 T02130201 52002 IEM_DS3505
ZGSZ,2007-05-20 04:00,ZGSZ 200400Z AUTO 05006KT 4SM 22/20 A2977 RMK T02200200 IEM_DS3505
ZGSZ,2007-05-20 05:00,ZGSZ 200500Z AUTO 3SM 22/21 A2977 RMK T02200210 IEM_DS3505
ZGSZ,2007-05-20 06:00,ZGSZ 200600Z AUTO 07004KT 4SM 21/20 A2974 RMK 60110 SLP073 T02140202 57011 IEM_DS3505
ZGSZ,2007-05-20 07:00,ZGSZ 200700Z AUTO 07006KT 7SM 23/21 A2971 RMK T02300210 IEM_DS3505
ZGSZ,2007-05-20 08:00,ZGSZ 200800Z AUTO 09004KT 7SM 24/21 A2968 RMK T02400210 IEM_DS3505
ZGSZ,2007-05-20 09:00,ZGSZ 200900Z AUTO 07004KT 19SM 23/20 A2971 RMK SLP061 T02320203 57012 IEM_DS3505
ZGSZ,2007-05-20 10:00,ZGSZ 201000Z AUTO 01004KT 7SM 24/21 A2971 RMK T02400210 IEM_DS3505
ZGSZ,2007-05-20 11:00,ZGSZ 201100Z AUTO 04004KT 7SM 24/21 A2971 RMK T02400210 IEM_DS3505
ZGSZ,2007-05-20 12:00,ZGSZ 201200Z AUTO 07004KT 19SM 23/20 A2974 RMK 60001 SLP071 T02290202 52010 IEM_DS3505
ZGSZ,2007-05-20 13:00,ZGSZ 201300Z AUTO 5SM 24/21 A2974 RMK T02400210 IEM_DS3505
ZGSZ,2007-05-20 14:00,ZGSZ 201400Z AUTO 06004KT 5SM 23/21 A2977 RMK T02300210 IEM_DS3505
ZGSZ,2007-05-20 15:00,ZGSZ 201500Z AUTO 09004KT 9SM 23/20 A2977 RMK SLP087 T02300205 52016 IEM_DS3505
ZGSZ,2007-05-20 16:00,ZGSZ 201600Z AUTO 7SM 24/21 A2977 RMK T02400210 IEM_DS3505
ZGSZ,2007-05-20 17:00,ZGSZ 201700Z AUTO 09004KT 7SM 24/21 A2974 RMK T02400210 IEM_DS3505
ZGSZ,2007-05-20 18:00,ZGSZ 201800Z AUTO 07010KT 11SM 23/20 A2971 RMK SLP066 T02280205 57021 IEM_DS3505
ZGSZ,2007-05-20 19:00,ZGSZ 201900Z AUTO 01004KT 7SM 23/21 A2971 RMK T02300210 IEM_DS3505
ZGSZ,2007-05-20 20:00,ZGSZ 202000Z AUTO 01004KT 7SM 23/21 A2971 RMK T02300210 IEM_DS3505
ZGSZ,2007-05-20 21:00,ZGSZ 202100Z AUTO 07006KT 11SM 23/20 A2971 RMK 70214 SLP065 T02300205 57001 IEM_DS3505
ZGSZ,2007-05-20 22:00,ZGSZ 202200Z AUTO 2 1/2SM 24/21 A2971 RMK T02400210 IEM_DS3505
ZGSZ,2007-05-20 23:00,ZGSZ 202300Z AUTO 3SM 24/21 A2971 RMK T02400210 IEM_DS3505
ZGSZ,2007-05-21 00:00,ZGSZ 210000Z AUTO 04006KT 7SM 24/21 A2971 RMK 60000 70109 SLP069 T02350210 52004 IEM_DS3505
ZGSZ,2007-05-21 01:00,ZGSZ 210100Z AUTO 08004KT 5SM 25/21 A2974 RMK T02500210 IEM_DS3505
ZGSZ,2007-05-21 02:00,ZGSZ 210200Z AUTO 09004KT 7SM 26/22 A2974 RMK T02600220 IEM_DS3505
ZGSZ,2007-05-21 03:00,ZGSZ 210300Z AUTO 07006KT 8SM 26/22 A2974 RMK SLP075 T02570216 52006 IEM_DS3505
ZGSZ,2007-05-21 04:00,ZGSZ 210400Z AUTO 11008KT 5SM 26/22 A2971 RMK T02600220 IEM_DS3505
ZGSZ,2007-05-21 05:00,ZGSZ 210500Z AUTO 11008KT 7SM 26/22 A2971 RMK T02600220 IEM_DS3505
ZGSZ,2007-05-21 06:00,ZGSZ 210600Z AUTO 09006KT 3SM 24/22 A2968 RMK 60008 SLP062 T02350218 57013 IEM_DS3505
ZGSZ,2007-05-21 07:00,ZGSZ 210700Z AUTO 11008KT 2 1/2SM 25/23 A2968 RMK T02500230 IEM_DS3505
ZGSZ,2007-05-21 08:00,ZGSZ 210800Z AUTO 12008KT 3SM 25/23 A2968 RMK T02500230 IEM_DS3505
ZGSZ,2007-05-21 09:00,ZGSZ 210900Z AUTO 07008KT 3SM 23/22 A2965 RMK SLP049 T02340220 57013 IEM_DS3505
ZGSZ,2007-05-21 10:00,ZGSZ 211000Z AUTO 09008KT 4SM 25/22 A2965 RMK T02500220 IEM_DS3505
ZGSZ,2007-05-21 11:00,ZGSZ 211100Z AUTO 09004KT 7SM 25/22 A2965 RMK T02500220 IEM_DS3505
ZGSZ,2007-05-21 12:00,ZGSZ 211200Z AUTO 04006KT 12SM 24/22 A2968 RMK 60035 SLP056 T02370220 52007 IEM_DS3505
ZGSZ,2007-05-21 13:00,ZGSZ 211300Z AUTO 09008KT 6SM 25/22 A2968 RMK T02500220 IEM_DS3505
ZGSZ,2007-05-21 14:00,ZGSZ 211400Z AUTO 09006KT 7SM 25/23 A2971 RMK T02500230 IEM_DS3505
ZGSZ,2007-05-21 15:00,ZGSZ 211500Z AUTO 07006KT 11SM 24/22 A2971 RMK SLP066 T02420221 52011 IEM_DS3505
ZGSZ,2007-05-21 16:00,ZGSZ 211600Z AUTO 11010KT 7SM 25/23 A2968 RMK T02500230 IEM_DS3505
ZGSZ,2007-05-21 17:00,ZGSZ 211700Z AUTO 11006KT 7SM 25/23 A2968 RMK T02500230 IEM_DS3505
ZGSZ,2007-05-21 18:00,ZGSZ 211800Z AUTO 07006KT 6SM 24/22 A2965 RMK SLP051 T02410224 57016 IEM_DS3505
ZGSZ,2007-05-21 19:00,ZGSZ 211900Z AUTO 12008KT 7SM 25/23 A2965 RMK T02500230 IEM_DS3505
ZGSZ,2007-05-21 20:00,ZGSZ 212000Z AUTO 12004KT 6SM 25/23 A2965 RMK T02500230 IEM_DS3505
ZGSZ,2007-05-21 21:00,ZGSZ 212100Z AUTO 09006KT 4SM 24/23 A2962 RMK 70042 SLP042 T02430227 57009 IEM_DS3505
ZGSZ,2007-05-21 22:00,ZGSZ 212200Z AUTO 11004KT 4SM 25/23 A2965 RMK T02500230 IEM_DS3505
ZGSZ,2007-05-21 23:00,ZGSZ 212300Z AUTO 00000KT 7SM 26/24 A2965 RMK T02600240 IEM_DS3505
ZGSZ,2007-05-22 00:00,ZGSZ 220000Z AUTO 09008KT 4SM 25/23 A2968 RMK 70042 SLP054 T02470229 52012 IEM_DS3505
ZGSZ,2007-05-22 01:00,ZGSZ 220100Z AUTO 11012KT 7SM 26/23 A2965 RMK T02600230 IEM_DS3505
ZGSZ,2007-05-22 02:00,ZGSZ 220200Z AUTO 13008KT 4SM 26/24 A2968 RMK T02600240 IEM_DS3505
ZGSZ,2007-05-22 03:00,ZGSZ 220300Z AUTO 11004KT 2 1/2SM 24/23 A2968 RMK SLP063 T02450233 52009 IEM_DS3505
ZGSZ,2007-05-22 04:00,ZGSZ 220400Z AUTO 14008KT 2 1/2SM 25/24 A2968 RMK T02500240 IEM_DS3505
ZGSZ,2007-05-22 05:00,ZGSZ 220500Z AUTO 12008KT 4SM 26/24 A2965 RMK T02600240 IEM_DS3505
ZGSZ,2007-05-22 06:00,ZGSZ 220600Z AUTO 09002KT 11SM 25/24 A2965 RMK 60087 SLP045 T02480236 57017 IEM_DS3505
ZGSZ,2007-05-22 07:00,ZGSZ 220700Z AUTO 13010KT 7SM 27/25 A2962 RMK T02700250 IEM_DS3505
ZGSZ,2007-05-22 08:00,ZGSZ 220800Z AUTO 12010KT 7SM 29/25 A2962 RMK T02900250 IEM_DS3505
ZGSZ,2007-05-22 09:00,ZGSZ 220900Z AUTO 09004KT 19SM 26/24 A2959 RMK SLP034 T02650236 57011 IEM_DS3505
ZGSZ,2007-05-22 10:00,ZGSZ 221000Z AUTO 13012KT 7SM 28/25 A2959 RMK T02800250 IEM_DS3505
ZGSZ,2007-05-22 11:00,ZGSZ 221100Z AUTO 13010KT 7SM 28/24 A2962 RMK T02800240 IEM_DS3505
ZGSZ,2007-05-22 12:00,ZGSZ 221200Z AUTO 07004KT 5SM 26/23 A2962 RMK 60000 SLP043 T02570234 52009 IEM_DS3505
ZGSZ,2007-05-22 13:00,ZGSZ 221300Z AUTO 12010KT 7SM 27/24 A2965 RMK T02700240 IEM_DS3505
ZGSZ,2007-05-22 14:00,ZGSZ 221400Z AUTO 12010KT 6SM 27/25 A2965 RMK T02700250 IEM_DS3505
ZGSZ,2007-05-22 15:00,ZGSZ 221500Z AUTO 07004KT 4SM 26/24 A2965 RMK SLP054 T02570237 52011 IEM_DS3505
ZGSZ,2007-05-22 16:00,ZGSZ 221600Z AUTO 13012KT 6SM 27/24 A2965 RMK T02700240 IEM_DS3505
ZGSZ,2007-05-22 17:00,ZGSZ 221700Z AUTO 13012KT 6SM 27/24 A2962 RMK T02700240 IEM_DS3505
ZGSZ,2007-05-22 18:00,ZGSZ 221800Z AUTO 04004KT 4SM 26/24 A2962 RMK SLP042 T02550237 57012 IEM_DS3505
ZGSZ,2007-05-22 19:00,ZGSZ 221900Z AUTO 12010KT 4SM 26/24 A2962 RMK T02600240 IEM_DS3505
ZGSZ,2007-05-22 20:00,ZGSZ 222000Z AUTO 12008KT 5SM 26/25 A2962 RMK T02600250 IEM_DS3505
ZGSZ,2007-05-22 21:00,ZGSZ 222100Z AUTO 07006KT 3SM 25/24 A2962 RMK 70088 SLP042 T02540238 54000 IEM_DS3505
ZGSZ,2007-05-22 22:00,ZGSZ 222200Z AUTO 10006KT 7SM 26/25 A2965 RMK T02600250 IEM_DS3505
ZGSZ,2007-05-22 23:00,ZGSZ 222300Z AUTO 11008KT 7SM 27/25 A2965 RMK T02700250 IEM_DS3505
ZGSZ,2007-05-23 00:00,ZGSZ 230000Z AUTO 22004KT 4SM 27/25 A2968 RMK 60008 70096 SLP060 T02670247 52018 IEM_DS3505
ZGSZ,2007-05-23 01:00,ZGSZ 230100Z AUTO 15006KT 5SM 27/25 A2968 RMK T02700250 IEM_DS3505
ZGSZ,2007-05-23 02:00,ZGSZ 230200Z AUTO 15010KT 4SM 29/26 A2965 RMK T02900260 IEM_DS3505
ZGSZ,2007-05-23 03:00,ZGSZ 230300Z AUTO 18004KT 6SM 28/25 A2965 RMK SLP048 T02800252 57012 IEM_DS3505
ZGSZ,2007-05-23 04:00,ZGSZ 230400Z AUTO 16012KT 7SM 30/26 A2962 RMK T03000260 IEM_DS3505
ZGSZ,2007-05-23 05:00,ZGSZ 230500Z AUTO 16012KT 6SM 31/26 A2962 RMK T03100260 IEM_DS3505
ZGSZ,2007-05-23 06:00,ZGSZ 230600Z AUTO 20012KT 19SM 30/24 A2959 RMK 60012 SLP027 T03020239 57020 IEM_DS3505
ZGSZ,2007-05-23 07:00,ZGSZ 230700Z AUTO 16016KT 6SM 30/26 A2956 RMK T03000260 IEM_DS3505
ZGSZ,2007-05-23 08:00,ZGSZ 230800Z AUTO 17016KT 6SM 30/27 A2956 RMK T03000270 IEM_DS3505
ZGSZ,2007-05-23 09:00,ZGSZ 230900Z AUTO 22012KT 19SM 29/25 A2956 RMK SLP018 T02930248 57010 IEM_DS3505
ZGSZ,2007-05-23 10:00,ZGSZ 231000Z AUTO 16014KT 7SM 29/26 A2956 RMK T02900260 IEM_DS3505
ZGSZ,2007-05-23 11:00,ZGSZ 231100Z AUTO 16012KT 7SM 28/26 A2956 RMK T02800260 IEM_DS3505
ZGSZ,2007-05-23 12:00,ZGSZ 231200Z AUTO 16002KT 12SM 28/25 A2959 RMK SLP031 T02800250 52013 IEM_DS3505
ZGSZ,2007-05-23 13:00,ZGSZ 231300Z AUTO 15010KT 7SM 28/26 A2962 RMK T02800260 IEM_DS3505
ZGSZ,2007-05-23 14:00,ZGSZ 231400Z AUTO 15008KT 7SM 28/26 A2962 RMK T02800260 IEM_DS3505
ZGSZ,2007-05-23 15:00,ZGSZ 231500Z AUTO 18002KT 12SM 28/25 A2962 RMK SLP041 T02750249 52010 IEM_DS3505
ZGSZ,2007-05-23 17:00,ZGSZ 231700Z AUTO 16010KT 7SM 28/26 A2962 RMK T02800260 IEM_DS3505
ZGSZ,2007-05-23 18:00,ZGSZ 231800Z AUTO 16004KT 11SM 27/25 A2959 RMK SLP027 T02690249 57013 IEM_DS3505
ZGSZ,2007-05-23 19:00,ZGSZ 231900Z AUTO 14006KT 7SM 27/25 A2959 RMK T02700250 IEM_DS3505
ZGSZ,2007-05-23 20:00,ZGSZ 232000Z AUTO 15006KT 2SM 27/25 A2959 RMK T02700250 IEM_DS3505
ZGSZ,2007-05-23 21:00,ZGSZ 232100Z AUTO 11004KT 10SM 27/25 A2959 RMK 70022 SLP029 T02690247 52002 IEM_DS3505
ZGSZ,2007-05-23 22:00,ZGSZ 232200Z AUTO 11006KT 4SM 28/25 A2962 RMK T02800250 IEM_DS3505
ZGSZ,2007-05-23 23:00,ZGSZ 232300Z AUTO 14006KT 4SM 28/25 A2962 RMK T02800250 IEM_DS3505
ZGSZ,2007-05-24 00:00,ZGSZ 240000Z AUTO 16002KT 9SM 28/25 A2962 RMK 70013 SLP043 T02770249 52013 IEM_DS3505
ZGSZ,2007-05-24 01:00,ZGSZ 240100Z AUTO 16010KT 7SM 30/26 A2965 RMK T03000260 IEM_DS3505
ZGSZ,2007-05-24 02:00,ZGSZ 240200Z AUTO 17012KT 7SM 31/26 A2965 RMK T03100260 IEM_DS3505
ZGSZ,2007-05-24 03:00,ZGSZ 240300Z AUTO 18006KT 14SM 31/26 A2965 RMK SLP043 T03070255 52001 IEM_DS3505
ZGSZ,2007-05-24 04:00,ZGSZ 240400Z AUTO 16012KT 7SM 31/27 A2962 RMK T03100270 IEM_DS3505
ZGSZ,2007-05-24 05:00,ZGSZ 240500Z AUTO 16014KT 7SM 31/27 A2962 RMK T03100270 IEM_DS3505
ZGSZ,2007-05-24 06:00,ZGSZ 240600Z AUTO 22006KT 19SM 30/24 A2959 RMK SLP027 T03040245 57016 IEM_DS3505
ZGSZ,2007-05-24 07:00,ZGSZ 240700Z AUTO 16016KT 7SM 31/26 A2956 RMK T03100260 IEM_DS3505
ZGSZ,2007-05-24 08:00,ZGSZ 240800Z AUTO 16016KT 7SM 31/26 A2956 RMK T03100260 IEM_DS3505
ZGSZ,2007-05-24 09:00,ZGSZ 240900Z AUTO 20004KT 19SM 31/26 A2956 RMK SLP019 T03130256 57008 IEM_DS3505
ZGSZ,2007-05-24 10:00,ZGSZ 241000Z AUTO 16014KT 7SM 30/26 A2956 RMK T03000260 IEM_DS3505
ZGSZ,2007-05-24 11:00,ZGSZ 241100Z AUTO 16012KT 7SM 29/26 A2956 RMK T02900260 IEM_DS3505
ZGSZ,2007-05-24 12:00,ZGSZ 241200Z AUTO 16002KT 12SM 28/25 A2959 RMK SLP025 T02840254 52006 IEM_DS3505
ZGSZ,2007-05-24 14:00,ZGSZ 241400Z AUTO 16012KT 7SM 29/27 A2962 RMK T02900270 IEM_DS3505
ZGSZ,2007-05-24 15:00,ZGSZ 241500Z AUTO 16012KT 7SM 29/26 A2965 RMK T02900260 IEM_DS3505
ZGSZ,2007-05-24 16:00,ZGSZ 241600Z AUTO 16010KT 7SM 29/27 A2965 RMK T02900270 IEM_DS3505
ZGSZ,2007-05-24 17:00,ZGSZ 241700Z AUTO 17010KT 7SM 29/27 A2962 RMK T02900270 IEM_DS3505
ZGSZ,2007-05-24 18:00,ZGSZ 241800Z AUTO 20002KT 8SM 28/25 A2962 RMK SLP034 T02750251 57009 IEM_DS3505
ZGSZ,2007-05-24 19:00,ZGSZ 241900Z AUTO 17008KT 6SM 28/27 A2962 RMK T02800270 IEM_DS3505
ZGSZ,2007-05-24 20:00,ZGSZ 242000Z AUTO 16008KT 4SM 28/27 A2962 RMK T02800270 IEM_DS3505
ZGSZ,2007-05-24 21:00,ZGSZ 242100Z AUTO 25002KT 7SM 28/25 A2962 RMK SLP034 T02760254 54000 IEM_DS3505
ZGSZ,2007-05-24 22:00,ZGSZ 242200Z AUTO 15008KT 7SM 28/27 A2962 RMK T02800270 IEM_DS3505
ZGSZ,2007-05-24 23:00,ZGSZ 242300Z AUTO 16010KT 7SM 29/27 A2965 RMK T02900270 IEM_DS3505
ZGSZ,2007-05-25 00:00,ZGSZ 250000Z AUTO 16002KT 12SM 29/26 A2968 RMK SLP055 T02920256 52021 IEM_DS3505
ZGSZ,2007-05-25 01:00,ZGSZ 250100Z AUTO 16010KT 7SM 30/27 A2968 RMK T03000270 IEM_DS3505
ZGSZ,2007-05-25 02:00,ZGSZ 250200Z AUTO 15012KT 7SM 30/26 A2968 RMK T03000260 IEM_DS3505
ZGSZ,2007-05-25 03:00,ZGSZ 250300Z AUTO 22008KT 19SM 31/25 A2968 RMK SLP057 T03090248 52002 IEM_DS3505
ZGSZ,2007-05-25 04:00,ZGSZ 250400Z AUTO 15008KT 7SM 28/26 A2968 RMK T02800260 IEM_DS3505
ZGSZ,2007-05-25 05:00,ZGSZ 250500Z AUTO 16012KT 7SM 29/27 A2965 RMK T02900270 IEM_DS3505
ZGSZ,2007-05-25 06:00,ZGSZ 250600Z AUTO 22012KT 19SM 31/26 A2965 RMK 60000 SLP047 T03060257 57010 IEM_DS3505
ZGSZ,2007-05-25 07:00,ZGSZ 250700Z AUTO 17012KT 6SM 31/27 A2962 RMK T03100270 IEM_DS3505
ZGSZ,2007-05-25 08:00,ZGSZ 250800Z AUTO 19008KT 7SM 30/27 A2962 RMK T03000270 IEM_DS3505
ZGSZ,2007-05-25 09:00,ZGSZ 250900Z AUTO 22008KT 19SM 31/25 A2962 RMK SLP035 T03080247 57012 IEM_DS3505
ZGSZ,2007-05-25 10:00,ZGSZ 251000Z AUTO 16006KT 6SM 30/27 A2962 RMK T03000270 IEM_DS3505
ZGSZ,2007-05-25 11:00,ZGSZ 251100Z AUTO 16008KT 7SM 29/27 A2965 RMK T02900270 IEM_DS3505
ZGSZ,2007-05-25 12:00,ZGSZ 251200Z AUTO 16004KT 16SM 29/26 A2968 RMK SLP055 T02910255 52020 IEM_DS3505
ZGSZ,2007-05-25 13:00,ZGSZ 251300Z AUTO 16010KT 6SM 29/26 A2968 RMK T02900260 IEM_DS3505
ZGSZ,2007-05-25 14:00,ZGSZ 251400Z AUTO 16010KT 6SM 29/27 A2971 RMK T02900270 IEM_DS3505
ZGSZ,2007-05-25 15:00,ZGSZ 251500Z AUTO 16004KT 16SM 28/25 A2971 RMK SLP064 T02830251 52009 IEM_DS3505
ZGSZ,2007-05-25 16:00,ZGSZ 251600Z AUTO 17008KT 7SM 29/26 A2971 RMK T02900260 IEM_DS3505
ZGSZ,2007-05-25 17:00,ZGSZ 251700Z AUTO 16008KT 7SM 29/26 A2971 RMK T02900260 IEM_DS3505
ZGSZ,2007-05-25 18:00,ZGSZ 251800Z AUTO 16002KT 12SM 28/25 A2971 RMK SLP065 T02800252 52001 IEM_DS3505
ZGSZ,2007-05-25 19:00,ZGSZ 251900Z AUTO 16010KT 7SM 29/27 A2968 RMK T02900270 IEM_DS3505
ZGSZ,2007-05-25 20:00,ZGSZ 252000Z AUTO 15010KT 7SM 28/26 A2968 RMK T02800260 IEM_DS3505
ZGSZ,2007-05-25 21:00,ZGSZ 252100Z AUTO 16004KT 9SM 28/25 A2971 RMK 70000 SLP062 T02780250 57003 IEM_DS3505
ZGSZ,2007-05-25 22:00,ZGSZ 252200Z AUTO 13004KT 7SM 28/26 A2971 RMK T02800260 IEM_DS3505
ZGSZ,2007-05-25 23:00,ZGSZ 252300Z AUTO 14004KT 7SM 29/26 A2974 RMK T02900260 IEM_DS3505
ZGSZ,2007-05-26 00:00,ZGSZ 260000Z AUTO 16004KT 11SM 30/25 A2974 RMK 70000 SLP077 T02970254 52015 IEM_DS3505
ZGSZ,2007-05-26 01:00,ZGSZ 260100Z AUTO 16010KT 7SM 31/26 A2977 RMK T03100260 IEM_DS3505
ZGSZ,2007-05-26 02:00,ZGSZ 260200Z AUTO 17010KT 7SM 32/26 A2977 RMK T03200260 IEM_DS3505
ZGSZ,2007-05-26 03:00,ZGSZ 260300Z AUTO 20002KT 14SM 31/26 A2977 RMK SLP083 T03110257 52006 IEM_DS3505
ZGSZ,2007-05-26 04:00,ZGSZ 260400Z AUTO 18012KT 7SM 32/27 A2974 RMK T03200270 IEM_DS3505
ZGSZ,2007-05-26 05:00,ZGSZ 260500Z AUTO 18012KT 7SM 32/27 A2974 RMK T03200270 IEM_DS3505
ZGSZ,2007-05-26 06:00,ZGSZ 260600Z AUTO 22006KT 17SM 30/26 A2971 RMK 60004 SLP071 T02980255 57013 IEM_DS3505
ZGSZ,2007-05-26 07:00,ZGSZ 260700Z AUTO 17010KT 7SM 30/27 A2974 RMK T03000270 IEM_DS3505
ZGSZ,2007-05-26 08:00,ZGSZ 260800Z AUTO 17008KT 7SM 30/27 A2971 RMK T03000270 IEM_DS3505
ZGSZ,2007-05-26 09:00,ZGSZ 260900Z AUTO 27002KT 16SM 30/25 A2971 RMK SLP065 T02950253 57006 IEM_DS3505
ZGSZ,2007-05-26 10:00,ZGSZ 261000Z AUTO 36006KT 7SM 28/24 A2974 RMK T02800240 IEM_DS3505
ZGSZ,2007-05-26 11:00,ZGSZ 261100Z AUTO 09004KT 4SM 28/23 A2971 RMK T02800230 IEM_DS3505
ZGSZ,2007-05-26 12:00,ZGSZ 261200Z AUTO 14004KT 12SM 28/26 A2971 RMK 60000 SLP069 T02850255 52005 IEM_DS3505
ZGSZ,2007-05-26 13:00,ZGSZ 261300Z AUTO 13008KT 5SM 29/26 A2971 RMK T02900260 IEM_DS3505
ZGSZ,2007-05-26 14:00,ZGSZ 261400Z AUTO 15002KT 4SM 28/25 A2974 RMK T02800250 IEM_DS3505
ZGSZ,2007-05-26 15:00,ZGSZ 261500Z AUTO 16004KT 11SM 28/25 A2977 RMK SLP083 T02850253 52014 IEM_DS3505
ZGSZ,2007-05-26 16:00,ZGSZ 261600Z AUTO 01012KT 2 1/2SM 27/24 A2974 RMK T02700240 IEM_DS3505
ZGSZ,2007-05-26 17:00,ZGSZ 261700Z AUTO 1 1/4SM 27/24 A2974 RMK T02700240 IEM_DS3505
ZGSZ,2007-05-26 18:00,ZGSZ 261800Z AUTO 36002KT 9SM 28/25 A2974 RMK 60000 SLP072 T02820250 57012 IEM_DS3505
ZGSZ,2007-05-26 19:00,ZGSZ 261900Z AUTO 12008KT 3SM 27/25 A2971 RMK T02700250 IEM_DS3505
ZGSZ,2007-05-26 20:00,ZGSZ 262000Z AUTO 00000KT 7SM 27/24 A2974 RMK T02700240 IEM_DS3505
ZGSZ,2007-05-26 21:00,ZGSZ 262100Z AUTO 09002KT 12SM 26/24 A2974 RMK 70132 SLP077 T02600235 52005 IEM_DS3505
ZGSZ,2007-05-26 22:00,ZGSZ 262200Z AUTO 10006KT 3SM 27/24 A2974 RMK T02700240 IEM_DS3505
ZGSZ,2007-05-26 23:00,ZGSZ 262300Z AUTO 12004KT 3SM 27/24 A2977 RMK T02700240 IEM_DS3505
ZGSZ,2007-05-27 00:00,ZGSZ 270000Z AUTO 07002KT 19SM 26/22 A2977 RMK 60130 70132 SLP090 T02560219 52013 IEM_DS3505
ZGSZ,2007-05-27 01:00,ZGSZ 270100Z AUTO 17004KT 6SM 29/23 A2977 RMK T02900230 IEM_DS3505
ZGSZ,2007-05-27 02:00,ZGSZ 270200Z AUTO 22004KT 6SM 30/23 A2980 RMK T03000230 IEM_DS3505
ZGSZ,2007-05-27 03:00,ZGSZ 270300Z AUTO 25004KT 19SM 30/24 A2980 RMK SLP089 T03050237 57001 IEM_DS3505
ZGSZ,2007-05-27 04:00,ZGSZ 270400Z AUTO 20004KT 7SM 30/24 A2977 RMK T03000240 IEM_DS3505
ZGSZ,2007-05-27 05:00,ZGSZ 270500Z AUTO 7SM 29/25 A2974 RMK T02900250 IEM_DS3505
ZGSZ,2007-05-27 06:00,ZGSZ 270600Z AUTO 07004G25KT 7SM 27/25 A2974 RMK 60001 SLP075 T02730249 57014 IEM_DS3505
ZGSZ,2007-05-27 07:00,ZGSZ 270700Z AUTO 19010KT 7SM 26/24 A2974 RMK T02600240 IEM_DS3505
ZGSZ,2007-05-27 08:00,ZGSZ 270800Z AUTO 23008KT 7SM 25/24 A2980 RMK T02500240 IEM_DS3505
ZGSZ,2007-05-27 09:00,ZGSZ 270900Z AUTO 25004KT 7SM 25/23 A2974 RMK SLP077 T02460227 52002 IEM_DS3505
ZGSZ,2007-05-27 10:00,ZGSZ 271000Z AUTO 09006KT 7SM 25/23 A2968 RMK T02500230 IEM_DS3505
ZGSZ,2007-05-27 11:00,ZGSZ 271100Z AUTO 00000KT 7SM 25/23 A2971 RMK T02500230 IEM_DS3505
ZGSZ,2007-05-27 12:00,ZGSZ 271200Z AUTO 14002KT 11SM 25/23 A2971 RMK 60035 SLP069 T02460227 57008 IEM_DS3505
ZGSZ,2007-05-27 13:00,ZGSZ 271300Z AUTO 11006KT 6SM 26/23 A2974 RMK T02600230 IEM_DS3505
ZGSZ,2007-05-27 14:00,ZGSZ 271400Z AUTO 6SM 26/22 A2977 RMK T02600220 IEM_DS3505
ZGSZ,2007-05-27 15:00,ZGSZ 271500Z AUTO 6SM 26/23 A2977 RMK T02600230 IEM_DS3505
ZGSZ,2007-05-27 16:00,ZGSZ 271600Z AUTO 5SM 26/22 A2977 RMK T02600220 IEM_DS3505
ZGSZ,2007-05-27 17:00,ZGSZ 271700Z AUTO 00000KT 5SM 26/22 A2977 RMK T02600220 IEM_DS3505
ZGSZ,2007-05-27 18:00,ZGSZ 271800Z AUTO 09002KT 8SM 25/23 A2977 RMK SLP081 T02490228 57008 IEM_DS3505
ZGSZ,2007-05-27 19:00,ZGSZ 271900Z AUTO 5SM 26/22 A2974 RMK T02600220 IEM_DS3505
ZGSZ,2007-05-27 20:00,ZGSZ 272000Z AUTO 04002KT 6SM 25/23 A2974 RMK T02500230 IEM_DS3505
ZGSZ,2007-05-27 21:00,ZGSZ 272100Z AUTO 04002KT 6SM 25/23 A2977 RMK 70035 SLP081 T02470229 57001 IEM_DS3505
ZGSZ,2007-05-27 22:00,ZGSZ 272200Z AUTO 08002KT 5SM 26/23 A2977 RMK T02600230 IEM_DS3505
ZGSZ,2007-05-27 23:00,ZGSZ 272300Z AUTO 00000KT 3SM 26/24 A2977 RMK T02600240 IEM_DS3505
ZGSZ,2007-05-28 00:00,ZGSZ 280000Z AUTO 04004KT 4SM 26/23 A2977 RMK 70035 SLP092 T02620227 52011 IEM_DS3505
ZGSZ,2007-05-28 01:00,ZGSZ 280100Z AUTO 7SM 30/25 A2980 RMK T03000250 IEM_DS3505
ZGSZ,2007-05-28 02:00,ZGSZ 280200Z AUTO 16004KT 4SM 31/25 A2980 RMK T03100250 IEM_DS3505
ZGSZ,2007-05-28 03:00,ZGSZ 280300Z AUTO 20004KT 7SM 30/24 A2980 RMK SLP092 T03030237 52001 IEM_DS3505
ZGSZ,2007-05-28 04:00,ZGSZ 280400Z AUTO 22004KT 7SM 31/26 A2977 RMK T03100260 IEM_DS3505
ZGSZ,2007-05-28 05:00,ZGSZ 280500Z AUTO 20008KT 7SM 30/26 A2977 RMK T03000260 IEM_DS3505
ZGSZ,2007-05-28 06:00,ZGSZ 280600Z AUTO 22004KT 19SM 27/24 A2977 RMK SLP085 T02700237 57007 IEM_DS3505
ZGSZ,2007-05-28 07:00,ZGSZ 280700Z AUTO 16006KT 7SM 28/24 A2974 RMK T02800240 IEM_DS3505
ZGSZ,2007-05-28 08:00,ZGSZ 280800Z AUTO 16008KT 7SM 29/25 A2971 RMK T02900250 IEM_DS3505
ZGSZ,2007-05-28 09:00,ZGSZ 280900Z AUTO 18006KT 19SM 27/24 A2971 RMK SLP067 T02730242 57018 IEM_DS3505
ZGSZ,2007-05-28 10:00,ZGSZ 281000Z AUTO 15004KT 6SM 28/25 A2971 RMK T02800250 IEM_DS3505
ZGSZ,2007-05-28 11:00,ZGSZ 281100Z AUTO 17006KT 6SM 28/25 A2974 RMK T02800250 IEM_DS3505
ZGSZ,2007-05-28 12:00,ZGSZ 281200Z AUTO 04002KT 19SM 27/24 A2974 RMK 60003 SLP081 T02730242 52014 IEM_DS3505
ZGSZ,2007-05-28 13:00,ZGSZ 281300Z AUTO 14004KT 6SM 28/24 A2977 RMK T02800240 IEM_DS3505
ZGSZ,2007-05-28 14:00,ZGSZ 281400Z AUTO 15004KT 6SM 28/25 A2977 RMK T02800250 IEM_DS3505
ZGSZ,2007-05-28 15:00,ZGSZ 281500Z AUTO 04002KT 14SM 27/24 A2977 RMK SLP087 T02670242 52006 IEM_DS3505
ZGSZ,2007-05-28 16:00,ZGSZ 281600Z AUTO 00000KT 6SM 28/25 A2977 RMK T02800250 IEM_DS3505
ZGSZ,2007-05-28 17:00,ZGSZ 281700Z AUTO 13004KT 6SM 27/25 A2977 RMK T02700250 IEM_DS3505
ZGSZ,2007-05-28 18:00,ZGSZ 281800Z AUTO 11002KT 5SM 26/24 A2977 RMK SLP083 T02640243 57004 IEM_DS3505
ZGSZ,2007-05-28 19:00,ZGSZ 281900Z AUTO 13004KT 3SM 27/25 A2974 RMK T02700250 IEM_DS3505
ZGSZ,2007-05-28 20:00,ZGSZ 282000Z AUTO 13002KT 3SM 27/25 A2974 RMK T02700250 IEM_DS3505
ZGSZ,2007-05-28 21:00,ZGSZ 282100Z AUTO 02002KT 2 1/2SM 26/24 A2977 RMK 70003 SLP085 T02590241 52002 IEM_DS3505
ZGSZ,2007-05-28 22:00,ZGSZ 282200Z AUTO 10004KT 4SM 27/25 A2977 RMK T02700250 IEM_DS3505
ZGSZ,2007-05-28 23:00,ZGSZ 282300Z AUTO 5SM 28/25 A2980 RMK T02800250 IEM_DS3505
ZGSZ,2007-05-29 00:00,ZGSZ 290000Z AUTO 18004KT 9SM 29/24 A2980 RMK 70003 SLP099 T02870243 52014 IEM_DS3505
ZGSZ,2007-05-29 01:00,ZGSZ 290100Z AUTO 18006KT 7SM 30/26 A2983 RMK T03000260 IEM_DS3505
ZGSZ,2007-05-29 02:00,ZGSZ 290200Z AUTO 20006KT 7SM 30/25 A2983 RMK T03000250 IEM_DS3505
ZGSZ,2007-05-29 03:00,ZGSZ 290300Z AUTO 16002KT 19SM 31/23 A2983 RMK SLP107 T03140230 52008 IEM_DS3505
ZGSZ,2007-05-29 04:00,ZGSZ 290400Z AUTO 20006KT 7SM 31/25 A2983 RMK T03100250 IEM_DS3505
ZGSZ,2007-05-29 05:00,ZGSZ 290500Z AUTO 19008KT 7SM 31/25 A2980 RMK T03100250 IEM_DS3505
ZGSZ,2007-05-29 06:00,ZGSZ 290600Z AUTO 22006KT 19SM 32/25 A2977 RMK SLP085 T03240247 57022 IEM_DS3505
ZGSZ,2007-05-29 07:00,ZGSZ 290700Z AUTO 20008KT 7SM 31/26 A2974 RMK T03100260 IEM_DS3505
ZGSZ,2007-05-29 08:00,ZGSZ 290800Z AUTO 19008KT 7SM 31/26 A2971 RMK T03100260 IEM_DS3505
ZGSZ,2007-05-29 09:00,ZGSZ 290900Z AUTO 22006KT 19SM 32/24 A2971 RMK SLP060 T03220243 57024 IEM_DS3505
ZGSZ,2007-05-29 10:00,ZGSZ 291000Z AUTO 20008KT 7SM 30/26 A2968 RMK T03000260 IEM_DS3505
ZGSZ,2007-05-29 11:00,ZGSZ 291100Z AUTO 18008KT 6SM 29/25 A2971 RMK T02900250 IEM_DS3505
ZGSZ,2007-05-29 12:00,ZGSZ 291200Z AUTO 20002KT 16SM 29/24 A2974 RMK SLP075 T02900237 52014 IEM_DS3505
ZGSZ,2007-05-29 13:00,ZGSZ 291300Z AUTO 19012KT 6SM 29/26 A2977 RMK T02900260 IEM_DS3505
ZGSZ,2007-05-29 14:00,ZGSZ 291400Z AUTO 18010KT 6SM 29/25 A2980 RMK T02900250 IEM_DS3505
ZGSZ,2007-05-29 15:00,ZGSZ 291500Z AUTO 16004KT 16SM 28/24 A2980 RMK SLP094 T02810237 52020 IEM_DS3505
ZGSZ,2007-05-29 16:00,ZGSZ 291600Z AUTO 15004KT 6SM 28/25 A2980 RMK T02800250 IEM_DS3505
ZGSZ,2007-05-29 17:00,ZGSZ 291700Z AUTO 11006KT 6SM 29/24 A2977 RMK T02900240 IEM_DS3505
ZGSZ,2007-05-29 18:00,ZGSZ 291800Z AUTO 16004KT 16SM 27/24 RMK SLP087 T02740238 57007 IEM_DS3505
ZGSZ,2007-05-29 19:00,ZGSZ 291900Z AUTO 15004KT 6SM 27/25 A2977 RMK T02700250 IEM_DS3505
ZGSZ,2007-05-29 20:00,ZGSZ 292000Z AUTO 19006KT 6SM 28/25 A2977 RMK T02800250 IEM_DS3505
ZGSZ,2007-05-29 21:00,ZGSZ 292100Z AUTO 16004KT 14SM 27/24 A2977 RMK SLP089 T02680237 52001 IEM_DS3505
ZGSZ,2007-05-29 22:00,ZGSZ 292200Z AUTO 7SM 28/25 A2980 RMK T02800250 IEM_DS3505
ZGSZ,2007-05-29 23:00,ZGSZ 292300Z AUTO 00000KT 7SM 30/25 A2983 RMK T03000250 IEM_DS3505
ZGSZ,2007-05-30 00:00,ZGSZ 300000Z AUTO 04002KT 19SM 30/24 A2983 RMK SLP103 T02990243 52014 IEM_DS3505
ZGSZ,2007-05-30 01:00,ZGSZ 300100Z AUTO 25004KT 7SM 30/26 A2983 RMK T03000260 IEM_DS3505
ZGSZ,2007-05-30 02:00,ZGSZ 300200Z AUTO 24004KT 7SM 31/26 A2983 RMK T03100260 IEM_DS3505
ZGSZ,2007-05-30 03:00,ZGSZ 300300Z AUTO 36002KT 19SM 32/23 A2983 RMK SLP101 T03190229 57001 IEM_DS3505
ZGSZ,2007-05-30 04:00,ZGSZ 300400Z AUTO 24008KT 7SM 31/25 A2980 RMK T03100250 IEM_DS3505
ZGSZ,2007-05-30 05:00,ZGSZ 300500Z AUTO 21006KT 7SM 32/25 A2980 RMK T03200250 IEM_DS3505
ZGSZ,2007-05-30 06:00,ZGSZ 300600Z AUTO 09004KT 19SM 29/24 A2977 RMK 60000 SLP089 T02930235 57013 IEM_DS3505
ZGSZ,2007-05-30 07:00,ZGSZ 300700Z AUTO 19010KT 7SM 32/26 A2977 RMK T03200260 IEM_DS3505
ZGSZ,2007-05-30 08:00,ZGSZ 300800Z AUTO 18010KT 7SM 32/26 A2974 RMK T03200260 IEM_DS3505
ZGSZ,2007-05-30 09:00,ZGSZ 300900Z AUTO 07008KT 19SM 31/24 A2971 RMK SLP070 T03090238 57019 IEM_DS3505
ZGSZ,2007-05-30 10:00,ZGSZ 301000Z AUTO 19012KT 7SM 30/27 A2971 RMK T03000270 IEM_DS3505
ZGSZ,2007-05-30 11:00,ZGSZ 301100Z AUTO 20010KT 7SM 30/27 A2974 RMK T03000270 IEM_DS3505
ZGSZ,2007-05-30 12:00,ZGSZ 301200Z AUTO 11004KT 16SM 29/24 A2977 RMK 60000 SLP081 T02880241 52012 IEM_DS3505
ZGSZ,2007-05-30 13:00,ZGSZ 301300Z AUTO 18010KT 6SM 29/25 A2980 RMK T02900250 IEM_DS3505
ZGSZ,2007-05-30 14:00,ZGSZ 301400Z AUTO 17008KT 6SM 29/25 A2980 RMK T02900250 IEM_DS3505
ZGSZ,2007-05-30 15:00,ZGSZ 301500Z AUTO 07006KT 16SM 28/25 A2980 RMK SLP098 T02810247 52017 IEM_DS3505
ZGSZ,2007-05-30 16:00,ZGSZ 301600Z AUTO 11008KT 6SM 29/25 A2980 RMK T02900250 IEM_DS3505
ZGSZ,2007-05-30 17:00,ZGSZ 301700Z AUTO 12006KT 6SM 29/25 A2977 RMK T02900250 IEM_DS3505
ZGSZ,2007-05-30 18:00,ZGSZ 301800Z AUTO 09004KT 16SM 28/24 A2977 RMK SLP084 T02770241 57015 IEM_DS3505
ZGSZ,2007-05-30 19:00,ZGSZ 301900Z AUTO 12006KT 6SM 28/25 A2977 RMK T02800250 IEM_DS3505
ZGSZ,2007-05-30 20:00,ZGSZ 302000Z AUTO 09002KT 6SM 28/25 A2977 RMK T02800250 IEM_DS3505
ZGSZ,2007-05-30 21:00,ZGSZ 302100Z AUTO 04002KT 16SM 28/24 A2977 RMK 70000 SLP080 T02750244 57004 IEM_DS3505
ZGSZ,2007-05-30 22:00,ZGSZ 302200Z AUTO 7SM 28/25 A2977 RMK T02800250 IEM_DS3505
ZGSZ,2007-05-30 23:00,ZGSZ 302300Z AUTO 21004KT 2SM 27/25 A2977 RMK T02700250 IEM_DS3505
ZGSZ,2007-05-31 00:00,ZGSZ 310000Z AUTO 09004KT 9SM 26/24 A2980 RMK 60024 70023 SLP094 T02630240 52014 IEM_DS3505
ZGSZ,2007-05-31 01:00,ZGSZ 310100Z AUTO 12008KT 7SM 27/25 A2980 RMK T02700250 IEM_DS3505
ZGSZ,2007-05-31 02:00,ZGSZ 310200Z AUTO 16004KT 7SM 28/25 A2980 RMK T02800250 IEM_DS3505
ZGSZ,2007-05-31 03:00,ZGSZ 310300Z AUTO 04002KT 19SM 27/24 A2980 RMK SLP094 T02680237 54000 IEM_DS3505
ZGSZ,2007-05-31 04:00,ZGSZ 310400Z AUTO 13004KT 7SM 30/25 A2980 RMK T03000250 IEM_DS3505
ZGSZ,2007-05-31 05:00,ZGSZ 310500Z AUTO 17004KT 7SM 31/25 A2977 RMK T03100250 IEM_DS3505
ZGSZ,2007-05-31 06:00,ZGSZ 310600Z AUTO 20004KT 19SM 31/25 A2974 RMK 60035 SLP073 T03120246 57020 IEM_DS3505
ZGSZ,2007-05-31 07:00,ZGSZ 310700Z AUTO 18008KT 7SM 30/25 A2974 RMK T03000250 IEM_DS3505
ZGSZ,2007-05-31 08:00,ZGSZ 310800Z AUTO 18008KT 7SM 31/26 A2971 RMK T03100260 IEM_DS3505
ZGSZ,2007-05-31 09:00,ZGSZ 310900Z AUTO 20006KT 19SM 31/23 A2971 RMK SLP062 T03130231 57011 IEM_DS3505
ZGSZ,2007-05-31 10:00,ZGSZ 311000Z AUTO 17012KT 6SM 30/26 A2971 RMK T03000260 IEM_DS3505
ZGSZ,2007-05-31 11:00,ZGSZ 311100Z AUTO 17010KT 6SM 30/26 A2968 RMK T03000260 IEM_DS3505
ZGSZ,2007-05-31 12:00,ZGSZ 311200Z AUTO 16004KT 19SM 28/25 A2971 RMK SLP069 T02850251 52006 IEM_DS3505
ZGSZ,2007-05-31 13:00,ZGSZ 311300Z AUTO 16012KT 7SM 29/26 A2974 RMK T02900260 IEM_DS3505
ZGSZ,2007-05-31 14:00,ZGSZ 311400Z AUTO 15010KT 7SM 29/25 A2974 RMK T02900250 IEM_DS3505
ZGSZ,2007-05-31 15:00,ZGSZ 311500Z AUTO 16004KT 16SM 28/25 A2977 RMK SLP083 T02800248 52014 IEM_DS3505
ZGSZ,2007-05-31 16:00,ZGSZ 311600Z AUTO 16008KT 7SM 29/26 A2974 RMK T02900260 IEM_DS3505
ZGSZ,2007-05-31 17:00,ZGSZ 311700Z AUTO 18010KT 7SM 29/27 A2974 RMK T02900270 IEM_DS3505
ZGSZ,2007-05-31 18:00,ZGSZ 311800Z AUTO 22008KT 11SM 26/24 A2974 RMK 60008 SLP078 T02640243 57005 IEM_DS3505
ZGSZ,2007-05-31 19:00,ZGSZ 311900Z AUTO 15006KT 7SM 28/26 A2968 RMK T02800260 IEM_DS3505
ZGSZ,2007-05-31 20:00,ZGSZ 312000Z AUTO 15006KT 7SM 28/26 A2968 RMK T02800260 IEM_DS3505
ZGSZ,2007-05-31 21:00,ZGSZ 312100Z AUTO 09002KT 16SM 27/25 A2968 RMK 70078 SLP058 T02670247 57019 IEM_DS3505
ZGSZ,2007-05-31 22:00,ZGSZ 312200Z AUTO 17008KT 7SM 29/26 A2968 RMK T02900260 IEM_DS3505
ZGSZ,2007-05-31 23:00,ZGSZ 312300Z AUTO 20006KT 7SM 29/27 A2971 RMK T02900270 IEM_DS3505
ZGSZ,2007-06-01 00:00,ZGSZ 010000Z AUTO 20004KT 19SM 28/26 A2974 RMK 60028 70071 SLP070 T02810261 52011 IEM_DS3505
ZGSZ,2007-06-01 01:00,ZGSZ 010100Z AUTO 20004KT 7SM 31/27 A2971 RMK T03100270 IEM_DS3505
ZGSZ,2007-06-01 02:00,ZGSZ 010200Z AUTO 7SM 31/27 A2974 RMK T03100270 IEM_DS3505
ZGSZ,2007-06-01 03:00,ZGSZ 010300Z AUTO 22006KT 19SM 30/25 A2974 RMK SLP070 T02970252 54000 IEM_DS3505
ZGSZ,2007-06-01 04:00,ZGSZ 010400Z AUTO 16004KT 7SM 31/26 A2971 RMK T03100260 IEM_DS3505
ZGSZ,2007-06-01 05:00,ZGSZ 010500Z AUTO 18008KT 7SM 32/28 A2968 RMK T03200280 IEM_DS3505
ZGSZ,2007-06-01 06:00,ZGSZ 010600Z AUTO 22008KT 19SM 32/24 A2968 RMK 60004 SLP054 T03160245 57015 IEM_DS3505
ZGSZ,2007-06-01 07:00,ZGSZ 010700Z AUTO 19006KT 7SM 31/25 A2965 RMK T03100250 IEM_DS3505
ZGSZ,2007-06-01 08:00,ZGSZ 010800Z AUTO 17014KT 7SM 31/27 A2962 RMK T03100270 IEM_DS3505
ZGSZ,2007-06-01 09:00,ZGSZ 010900Z AUTO 22008KT 19SM 31/25 A2962 RMK SLP034 T03140253 57020 IEM_DS3505
ZGSZ,2007-06-01 10:00,ZGSZ 011000Z AUTO 17014KT 7SM 30/26 A2962 RMK T03000260 IEM_DS3505
ZGSZ,2007-06-01 11:00,ZGSZ 011100Z AUTO 17016KT 7SM 30/26 A2962 RMK T03000260 IEM_DS3505
ZGSZ,2007-06-01 12:00,ZGSZ 011200Z AUTO 20004KT 19SM 29/25 A2965 RMK SLP043 T02900250 52009 IEM_DS3505
ZGSZ,2007-06-01 13:00,ZGSZ 011300Z AUTO 17012KT 7SM 29/26 A2965 RMK T02900260 IEM_DS3505
ZGSZ,2007-06-01 14:00,ZGSZ 011400Z AUTO 18010KT 7SM 29/27 A2968 RMK T02900270 IEM_DS3505
ZGSZ,2007-06-01 15:00,ZGSZ 011500Z AUTO 22008KT 16SM 29/25 A2968 RMK SLP057 T02900248 52014 IEM_DS3505
ZGSZ,2007-06-01 16:00,ZGSZ 011600Z AUTO 17010KT 7SM 29/27 A2968 RMK T02900270 IEM_DS3505
ZGSZ,2007-06-01 17:00,ZGSZ 011700Z AUTO 18010KT 7SM 29/27 A2968 RMK T02900270 IEM_DS3505
ZGSZ,2007-06-01 18:00,ZGSZ 011800Z AUTO 20006KT 14SM 29/26 A2968 RMK SLP055 T02870255 57002 IEM_DS3505
ZGSZ,2007-06-01 19:00,ZGSZ 011900Z AUTO 17010KT 7SM 29/27 A2965 RMK T02900270 IEM_DS3505
ZGSZ,2007-06-01 20:00,ZGSZ 012000Z AUTO 18014KT 7SM 28/25 A2965 RMK T02800250 IEM_DS3505
ZGSZ,2007-06-01 21:00,ZGSZ 012100Z AUTO 20004KT 12SM 27/24 A2968 RMK 70021 SLP053 T02730244 57002 IEM_DS3505
ZGSZ,2007-06-01 22:00,ZGSZ 012200Z AUTO 19006KT 7SM 29/26 A2968 RMK T02900260 IEM_DS3505
ZGSZ,2007-06-01 23:00,ZGSZ 012300Z AUTO 22004KT 7SM 28/25 A2968 RMK T02800250 IEM_DS3505
ZGSZ,2007-06-02 00:00,ZGSZ 020000Z AUTO 36002KT 17SM 28/25 A2968 RMK 60000 70005 SLP059 T02770249 52005 IEM_DS3505
ZGSZ,2007-06-02 01:00,ZGSZ 020100Z AUTO 16008KT 7SM 31/26 A2971 RMK T03100260 IEM_DS3505
ZGSZ,2007-06-02 02:00,ZGSZ 020200Z AUTO 18008KT 7SM 31/27 A2971 RMK T03100270 IEM_DS3505
ZGSZ,2007-06-02 03:00,ZGSZ 020300Z AUTO 22008KT 19SM 31/26 A2971 RMK SLP064 T03140260 52006 IEM_DS3505
ZGSZ,2007-06-02 04:00,ZGSZ 020400Z AUTO 18006KT 7SM 29/27 A2971 RMK T02900270 IEM_DS3505
ZGSZ,2007-06-02 05:00,ZGSZ 020500Z AUTO 20004KT 7SM 29/26 A2971 RMK T02900260 IEM_DS3505
ZGSZ,2007-06-02 06:00,ZGSZ 020600Z AUTO 20012KT 17SM 30/26 A2968 RMK 60000 SLP052 T03020257 57012 IEM_DS3505
ZGSZ,2007-06-02 07:00,ZGSZ 020700Z AUTO 02004KT 7SM 28/26 A2968 RMK T02800260 IEM_DS3505
ZGSZ,2007-06-02 08:00,ZGSZ 020800Z AUTO 15004KT 7SM 28/26 A2965 RMK T02800260 IEM_DS3505
ZGSZ,2007-06-02 09:00,ZGSZ 020900Z AUTO 27002KT 14SM 28/25 A2965 RMK SLP045 T02840248 57008 IEM_DS3505
ZGSZ,2007-06-02 10:00,ZGSZ 021000Z AUTO 14006KT 7SM 30/26 A2965 RMK T03000260 IEM_DS3505
ZGSZ,2007-06-02 11:00,ZGSZ 021100Z AUTO 15008KT 7SM 29/27 A2965 RMK T02900270 IEM_DS3505
ZGSZ,2007-06-02 12:00,ZGSZ 021200Z AUTO 22006KT 16SM 29/25 A2968 RMK 60091 SLP056 T02900246 52011 IEM_DS3505
ZGSZ,2007-06-02 13:00,ZGSZ 021300Z AUTO 16010KT 6SM 29/27 A2968 RMK T02900270 IEM_DS3505
ZGSZ,2007-06-02 14:00,ZGSZ 021400Z AUTO 17010KT 6SM 29/27 A2971 RMK T02900270 IEM_DS3505
ZGSZ,2007-06-02 15:00,ZGSZ 021500Z AUTO 22004KT 14SM 28/25 A2971 RMK SLP068 T02850253 52013 IEM_DS3505
ZGSZ,2007-06-02 16:00,ZGSZ 021600Z AUTO 17008KT 7SM 29/27 A2971 RMK T02900270 IEM_DS3505
ZGSZ,2007-06-02 18:00,ZGSZ 021800Z AUTO 22006KT 12SM 28/26 A2968 RMK SLP059 T02830263 57009 IEM_DS3505
ZGSZ,2007-06-02 19:00,ZGSZ 021900Z AUTO 17006KT 6SM 28/27 A2968 RMK T02800270 IEM_DS3505
ZGSZ,2007-06-02 20:00,ZGSZ 022000Z AUTO 17006KT 7SM 29/27 A2968 RMK T02900270 IEM_DS3505
ZGSZ,2007-06-02 21:00,ZGSZ 022100Z AUTO 22006KT 14SM 28/25 A2971 RMK 70089 SLP062 T02820252 52002 IEM_DS3505
ZGSZ,2007-06-02 22:00,ZGSZ 022200Z AUTO 17006KT 7SM 28/27 A2971 RMK T02800270 IEM_DS3505
ZGSZ,2007-06-02 23:00,ZGSZ 022300Z AUTO 17006KT 7SM 29/27 A2974 RMK T02900270 IEM_DS3505
ZGSZ,2007-06-03 00:00,ZGSZ 030000Z AUTO 22008KT 16SM 29/25 A2977 RMK 70089 SLP081 T02940254 52019 IEM_DS3505
ZGSZ,2007-06-03 01:00,ZGSZ 030100Z AUTO 18008KT 7SM 31/27 A2977 RMK T03100270 IEM_DS3505
ZGSZ,2007-06-03 02:00,ZGSZ 030200Z AUTO 18008KT 7SM 31/28 A2977 RMK T03100280 IEM_DS3505
ZGSZ,2007-06-03 03:00,ZGSZ 030300Z AUTO 22010KT 19SM 31/26 A2977 RMK SLP082 T03060257 52002 IEM_DS3505
ZGSZ,2007-06-03 04:00,ZGSZ 030400Z AUTO 17010KT 7SM 32/27 A2974 RMK T03200270 IEM_DS3505
ZGSZ,2007-06-03 05:00,ZGSZ 030500Z AUTO 17012KT 7SM 32/27 A2974 RMK T03200270 IEM_DS3505
ZGSZ,2007-06-03 06:00,ZGSZ 030600Z AUTO 22010KT 19SM 32/25 A2971 RMK SLP069 T03170251 57013 IEM_DS3505
ZGSZ,2007-06-03 07:00,ZGSZ 030700Z AUTO 17014KT 7SM 32/26 A2971 RMK T03200260 IEM_DS3505
ZGSZ,2007-06-03 08:00,ZGSZ 030800Z AUTO 17014KT 7SM 32/27 A2968 RMK T03200270 IEM_DS3505
ZGSZ,2007-06-03 09:00,ZGSZ 030900Z AUTO 20008KT 19SM 31/25 A2968 RMK SLP054 T03110247 57015 IEM_DS3505
ZGSZ,2007-06-03 10:00,ZGSZ 031000Z AUTO 17014KT 7SM 30/26 A2971 RMK T03000260 IEM_DS3505
ZGSZ,2007-06-03 11:00,ZGSZ 031100Z AUTO 17012KT 7SM 30/27 A2971 RMK T03000270 IEM_DS3505
ZGSZ,2007-06-03 12:00,ZGSZ 031200Z AUTO 22008KT 19SM 29/25 A2974 RMK SLP072 T02940252 52018 IEM_DS3505
ZGSZ,2007-06-03 13:00,ZGSZ 031300Z AUTO 17008KT 7SM 30/27 A2977 RMK T03000270 IEM_DS3505
ZGSZ,2007-06-03 14:00,ZGSZ 031400Z AUTO 16010KT 7SM 29/26 A2977 RMK T02900260 IEM_DS3505
ZGSZ,2007-06-03 15:00,ZGSZ 031500Z AUTO 16002KT 16SM 29/25 A2977 RMK SLP084 T02870251 52012 IEM_DS3505
ZGSZ,2007-06-03 16:00,ZGSZ 031600Z AUTO 17008KT 7SM 29/27 A2977 RMK T02900270 IEM_DS3505
ZGSZ,2007-06-03 17:00,ZGSZ 031700Z AUTO 19008KT 7SM 29/27 A2977 RMK T02900270 IEM_DS3505
ZGSZ,2007-06-03 18:00,ZGSZ 031800Z AUTO 22006KT 16SM 28/25 A2974 RMK SLP075 T02850253 57009 IEM_DS3505
ZGSZ,2007-06-03 19:00,ZGSZ 031900Z AUTO 20004KT 6SM 29/26 A2974 RMK T02900260 IEM_DS3505
ZGSZ,2007-06-03 20:00,ZGSZ 032000Z AUTO 20004KT 6SM 29/26 A2974 RMK T02900260 IEM_DS3505
ZGSZ,2007-06-03 21:00,ZGSZ 032100Z AUTO 22006KT 14SM 28/26 A2974 RMK SLP073 T02850257 57002 IEM_DS3505
ZGSZ,2007-06-03 22:00,ZGSZ 032200Z AUTO 19006KT 7SM 29/27 A2974 RMK T02900270 IEM_DS3505
ZGSZ,2007-06-03 23:00,ZGSZ 032300Z AUTO 20004KT 7SM 29/27 A2977 RMK T02900270 IEM_DS3505
ZGSZ,2007-06-04 00:00,ZGSZ 040000Z AUTO 20008KT 16SM 29/25 A2977 RMK SLP088 T02940252 52014 IEM_DS3505
ZGSZ,2007-06-04 01:00,ZGSZ 040100Z AUTO 19004KT 7SM 31/27 A2980 RMK T03100270 IEM_DS3505
ZGSZ,2007-06-04 02:00,ZGSZ 040200Z AUTO 18006KT 7SM 31/26 A2977 RMK T03100260 IEM_DS3505
ZGSZ,2007-06-04 03:00,ZGSZ 040300Z AUTO 20010KT 19SM 31/25 A2977 RMK SLP087 T03140250 54000 IEM_DS3505
ZGSZ,2007-06-04 04:00,ZGSZ 040400Z AUTO 18012KT 7SM 31/26 A2977 RMK T03100260 IEM_DS3505
ZGSZ,2007-06-04 05:00,ZGSZ 040500Z AUTO 17012KT 7SM 31/26 A2974 RMK T03100260 IEM_DS3505
ZGSZ,2007-06-04 06:00,ZGSZ 040600Z AUTO 25012KT 19SM 31/24 A2971 RMK SLP066 T03120238 57021 IEM_DS3505
ZGSZ,2007-06-04 07:00,ZGSZ 040700Z AUTO 18014KT 7SM 31/26 A2968 RMK T03100260 IEM_DS3505
ZGSZ,2007-06-04 08:00,ZGSZ 040800Z AUTO 17012KT 7SM 31/26 A2968 RMK T03100260 IEM_DS3505
ZGSZ,2007-06-04 09:00,ZGSZ 040900Z AUTO 20008KT 19SM 30/25 A2968 RMK SLP054 T03020248 57012 IEM_DS3505
ZGSZ,2007-06-04 10:00,ZGSZ 041000Z AUTO 18012KT 7SM 30/27 A2971 RMK T03000270 IEM_DS3505
ZGSZ,2007-06-04 11:00,ZGSZ 041100Z AUTO 17012KT 6SM 30/27 A2968 RMK T03000270 IEM_DS3505
ZGSZ,2007-06-04 12:00,ZGSZ 041200Z AUTO 22006KT 16SM 29/25 A2971 RMK SLP064 T02940252 52010 IEM_DS3505
ZGSZ,2007-06-04 13:00,ZGSZ 041300Z AUTO 17012KT 6SM 30/27 A2971 RMK T03000270 IEM_DS3505
ZGSZ,2007-06-04 14:00,ZGSZ 041400Z AUTO 18010KT 7SM 30/27 A2974 RMK T03000270 IEM_DS3505
ZGSZ,2007-06-04 15:00,ZGSZ 041500Z AUTO 16004KT 16SM 29/25 A2974 RMK SLP075 T02860252 52011 IEM_DS3505
ZGSZ,2007-06-04 16:00,ZGSZ 041600Z AUTO 18012KT 7SM 29/27 A2974 RMK T02900270 IEM_DS3505
ZGSZ,2007-06-04 18:00,ZGSZ 041800Z AUTO 22008KT 16SM 29/26 A2971 RMK SLP064 T02870255 57011 IEM_DS3505
ZGSZ,2007-06-04 19:00,ZGSZ 041900Z AUTO 20008KT 6SM 29/26 A2968 RMK T02900260 IEM_DS3505
ZGSZ,2007-06-04 20:00,ZGSZ 042000Z AUTO 21008KT 7SM 28/25 A2968 RMK T02800250 IEM_DS3505
ZGSZ,2007-06-04 21:00,ZGSZ 042100Z AUTO 22004KT 16SM 28/25 A2971 RMK 70001 SLP061 T02810251 57003 IEM_DS3505
ZGSZ,2007-06-04 22:00,ZGSZ 042200Z AUTO 21004KT 7SM 29/26 A2971 RMK T02900260 IEM_DS3505
ZGSZ,2007-06-04 23:00,ZGSZ 042300Z AUTO 20004KT 7SM 29/26 A2971 RMK T02900260 IEM_DS3505
ZGSZ,2007-06-05 00:00,ZGSZ 050000Z AUTO 20008KT 17SM 28/25 A2971 RMK 60000 70001 SLP070 T02840254 52008 IEM_DS3505
ZGSZ,2007-06-05 01:00,ZGSZ 050100Z AUTO 19008KT 7SM 31/26 A2971 RMK T03100260 IEM_DS3505
ZGSZ,2007-06-05 02:00,ZGSZ 050200Z AUTO 20006KT 7SM 31/27 A2974 RMK T03100270 IEM_DS3505
ZGSZ,2007-06-05 03:00,ZGSZ 050300Z AUTO 20008KT 19SM 31/26 A2971 RMK SLP068 T03080256 57001 IEM_DS3505
ZGSZ,2007-06-05 04:00,ZGSZ 050400Z AUTO 18010KT 7SM 32/27 A2971 RMK T03200270 IEM_DS3505
ZGSZ,2007-06-05 05:00,ZGSZ 050500Z AUTO 16012KT 7SM 32/27 A2968 RMK T03200270 IEM_DS3505
ZGSZ,2007-06-05 06:00,ZGSZ 050600Z AUTO 22012KT 19SM 32/25 A2965 RMK SLP049 T03170251 57019 IEM_DS3505
ZGSZ,2007-06-05 07:00,ZGSZ 050700Z AUTO 17014KT 7SM 31/26 A2965 RMK T03100260 IEM_DS3505
ZGSZ,2007-06-05 08:00,ZGSZ 050800Z AUTO 16016KT 7SM 31/26 A2965 RMK T03100260 IEM_DS3505
ZGSZ,2007-06-05 09:00,ZGSZ 050900Z AUTO 22008KT 19SM 30/24 A2965 RMK SLP043 T02990238 57006 IEM_DS3505
ZGSZ,2007-06-05 10:00,ZGSZ 051000Z AUTO 7SM 29/24 A2968 RMK T02900240 IEM_DS3505
ZGSZ,2007-06-05 11:00,ZGSZ 051100Z AUTO 00000KT 7SM 30/23 A2968 RMK T03000230 IEM_DS3505
ZGSZ,2007-06-05 12:00,ZGSZ 051200Z AUTO 22008KT 17SM 29/25 A2968 RMK SLP059 T02920254 52016 IEM_DS3505
ZGSZ,2007-06-05 13:00,ZGSZ 051300Z AUTO 19006KT 7SM 30/26 A2971 RMK T03000260 IEM_DS3505
ZGSZ,2007-06-05 14:00,ZGSZ 051400Z AUTO 19008KT 7SM 30/26 A2971 RMK T03000260 IEM_DS3505
ZGSZ,2007-06-05 15:00,ZGSZ 051500Z AUTO 22010KT 12SM 29/26 A2971 RMK SLP068 T02890255 52009 IEM_DS3505
ZGSZ,2007-06-05 16:00,ZGSZ 051600Z AUTO 20008KT 7SM 29/25 A2971 RMK T02900250 IEM_DS3505
ZGSZ,2007-06-05 17:00,ZGSZ 051700Z AUTO 20008KT 7SM 30/25 A2971 RMK T03000250 IEM_DS3505
ZGSZ,2007-06-05 18:00,ZGSZ 051800Z AUTO 22006KT 16SM 28/25 A2971 RMK SLP062 T02850251 57006 IEM_DS3505
ZGSZ,2007-06-05 19:00,ZGSZ 051900Z AUTO 21006KT 6SM 29/25 A2971 RMK T02900250 IEM_DS3505
ZGSZ,2007-06-05 20:00,ZGSZ 052000Z AUTO 20006KT 6SM 29/25 A2968 RMK T02900250 IEM_DS3505
ZGSZ,2007-06-05 21:00,ZGSZ 052100Z AUTO 22006KT 16SM 28/25 A2971 RMK 70000 SLP060 T02820254 57002 IEM_DS3505
ZGSZ,2007-06-05 22:00,ZGSZ 052200Z AUTO 21006KT 7SM 29/25 A2971 RMK T02900250 IEM_DS3505
ZGSZ,2007-06-05 23:00,ZGSZ 052300Z AUTO 21004KT 7SM 29/25 A2971 RMK T02900250 IEM_DS3505
ZGSZ,2007-06-06 00:00,ZGSZ 060000Z AUTO 22006KT 16SM 28/26 A2974 RMK 60003 70003 SLP076 T02810257 52015 IEM_DS3505
ZGSZ,2007-06-06 01:00,ZGSZ 060100Z AUTO 21004KT 7SM 30/26 A2974 RMK T03000260 IEM_DS3505
ZGSZ,2007-06-06 02:00,ZGSZ 060200Z AUTO 19004KT 7SM 31/27 A2974 RMK T03100270 IEM_DS3505
ZGSZ,2007-06-06 03:00,ZGSZ 060300Z AUTO 22012KT 19SM 30/26 A2974 RMK SLP077 T02970261 52002 IEM_DS3505
ZGSZ,2007-06-06 04:00,ZGSZ 060400Z AUTO 17008KT 7SM 32/26 A2974 RMK T03200260 IEM_DS3505
ZGSZ,2007-06-06 05:00,ZGSZ 060500Z AUTO 17010KT 7SM 31/26 A2971 RMK T03100260 IEM_DS3505
ZGSZ,2007-06-06 06:00,ZGSZ 060600Z AUTO 22006KT 19SM 30/26 A2971 RMK 60000 SLP065 T03000257 57012 IEM_DS3505
ZGSZ,2007-06-06 07:00,ZGSZ 060700Z AUTO 7SM 31/26 A2968 RMK T03100260 IEM_DS3505
ZGSZ,2007-06-06 08:00,ZGSZ 060800Z AUTO 19008KT 7SM 29/27 A2968 RMK T02900270 IEM_DS3505
ZGSZ,2007-06-06 09:00,ZGSZ 060900Z AUTO 22006KT 14SM 29/26 A2965 RMK SLP046 T02890257 57019 IEM_DS3505
ZGSZ,2007-06-06 10:00,ZGSZ 061000Z AUTO 17010KT 7SM 30/27 A2965 RMK T03000270 IEM_DS3505
ZGSZ,2007-06-06 11:00,ZGSZ 061100Z AUTO 18010KT 7SM 30/27 A2968 RMK T03000270 IEM_DS3505
ZGSZ,2007-06-06 12:00,ZGSZ 061200Z AUTO 20006KT 14SM 29/26 A2971 RMK 60002 SLP064 T02920256 52017 IEM_DS3505
ZGSZ,2007-06-06 13:00,ZGSZ 061300Z AUTO 16008KT 7SM 29/27 A2971 RMK T02900270 IEM_DS3505
ZGSZ,2007-06-06 14:00,ZGSZ 061400Z AUTO 18008KT 7SM 29/27 A2971 RMK T02900270 IEM_DS3505
ZGSZ,2007-06-06 15:00,ZGSZ 061500Z AUTO 22004KT 14SM 29/26 A2971 RMK SLP072 T02860260 52009 IEM_DS3505
ZGSZ,2007-06-06 16:00,ZGSZ 061600Z AUTO 19006KT 7SM 30/27 A2971 RMK T03000270 IEM_DS3505
ZGSZ,2007-06-06 18:00,ZGSZ 061800Z AUTO 22008KT 12SM 29/26 A2968 RMK 60002 SLP055 T02870257 57017 IEM_DS3505
ZGSZ,2007-06-06 19:00,ZGSZ 061900Z AUTO 22006KT 7SM 29/26 A2968 RMK T02900260 IEM_DS3505
ZGSZ,2007-06-06 20:00,ZGSZ 062000Z AUTO 23006KT 7SM 28/26 A2965 RMK T02800260 IEM_DS3505
ZGSZ,2007-06-06 21:00,ZGSZ 062100Z AUTO 27004KT 9SM 25/23 A2968 RMK 70048 SLP052 T02530234 57004 IEM_DS3505
ZGSZ,2007-06-06 22:00,ZGSZ 062200Z AUTO 19008KT 7SM 28/26 A2968 RMK T02800260 IEM_DS3505
ZGSZ,2007-06-06 23:00,ZGSZ 062300Z AUTO 20006KT 7SM 29/27 A2968 RMK T02900270 IEM_DS3505
ZGSZ,2007-06-07 00:00,ZGSZ 070000Z AUTO 22010KT 11SM 28/26 A2971 RMK 60055 70059 SLP064 T02780256 52012 IEM_DS3505
ZGSZ,2007-06-07 01:00,ZGSZ 070100Z AUTO 19006KT 7SM 30/27 A2971 RMK T03000270 IEM_DS3505
ZGSZ,2007-06-07 02:00,ZGSZ 070200Z AUTO 19016KT 7SM 28/24 A2971 RMK T02800240 IEM_DS3505
ZGSZ,2007-06-07 03:00,ZGSZ 070300Z AUTO 27004KT 10SM 26/25 A2971 RMK SLP064 T02650251 54000 IEM_DS3505
ZGSZ,2007-06-07 04:00,ZGSZ 070400Z AUTO 18006KT 7SM 30/27 A2968 RMK T03000270 IEM_DS3505
ZGSZ,2007-06-07 05:00,ZGSZ 070500Z AUTO 19016KT 7SM 30/26 A2968 RMK T03000260 IEM_DS3505
ZGSZ,2007-06-07 06:00,ZGSZ 070600Z AUTO 22008KT 12SM 29/26 A2968 RMK 60161 SLP055 T02870261 57008 IEM_DS3505
ZGSZ,2007-06-07 07:00,ZGSZ 070700Z AUTO 16010KT 7SM 31/27 A2965 RMK T03100270 IEM_DS3505
ZGSZ,2007-06-07 08:00,ZGSZ 070800Z AUTO 16014KT 7SM 30/27 A2962 RMK T03000270 IEM_DS3505
ZGSZ,2007-06-07 09:00,ZGSZ 070900Z AUTO 22012KT 12SM 29/26 A2965 RMK SLP047 T02930259 57009 IEM_DS3505
ZGSZ,2007-06-07 10:00,ZGSZ 071000Z AUTO 17014KT 7SM 30/27 A2965 RMK T03000270 IEM_DS3505
ZGSZ,2007-06-07 11:00,ZGSZ 071100Z AUTO 18010KT 7SM 30/27 A2968 RMK T03000270 IEM_DS3505
ZGSZ,2007-06-07 12:00,ZGSZ 071200Z AUTO 22010KT 10SM 29/26 A2971 RMK SLP063 T02880264 52016 IEM_DS3505
ZGSZ,2007-06-07 13:00,ZGSZ 071300Z AUTO 02006KT 7SM 27/22 A2971 RMK T02700220 IEM_DS3505
ZGSZ,2007-06-07 14:00,ZGSZ 071400Z AUTO 12004KT 6SM 27/22 A2971 RMK T02700220 IEM_DS3505
ZGSZ,2007-06-07 15:00,ZGSZ 071500Z AUTO 04004KT 7SM 27/24 A2971 RMK SLP069 T02660237 52006 IEM_DS3505
ZGSZ,2007-06-07 16:00,ZGSZ 071600Z AUTO 14006KT 6SM 28/24 A2971 RMK T02800240 IEM_DS3505
ZGSZ,2007-06-07 17:00,ZGSZ 071700Z AUTO 18010KT 7SM 29/27 A2968 RMK T02900270 IEM_DS3505
ZGSZ,2007-06-07 18:00,ZGSZ 071800Z AUTO 22010KT 7SM 29/26 A2968 RMK 60000 SLP051 T02860260 57017 IEM_DS3505
ZGSZ,2007-06-07 19:00,ZGSZ 071900Z AUTO 19010KT 7SM 29/27 A2965 RMK T02900270 IEM_DS3505
ZGSZ,2007-06-07 20:00,ZGSZ 072000Z AUTO 18010KT 7SM 29/27 A2965 RMK T02900270 IEM_DS3505
ZGSZ,2007-06-07 21:00,ZGSZ 072100Z AUTO 22010KT 7SM 28/26 A2965 RMK 70176 SLP049 T02840262 57002 IEM_DS3505
ZGSZ,2007-06-07 22:00,ZGSZ 072200Z AUTO 18010KT 7SM 29/27 A2968 RMK T02900270 IEM_DS3505
ZGSZ,2007-06-07 23:00,ZGSZ 072300Z AUTO 21008KT 7SM 29/27 A2968 RMK T02900270 IEM_DS3505
ZGSZ,2007-06-08 00:00,ZGSZ 080000Z AUTO 20008KT 9SM 29/26 A2968 RMK 70163 SLP057 T02880264 52008 IEM_DS3505
ZGSZ,2007-06-08 01:00,ZGSZ 080100Z AUTO 19016KT 7SM 28/25 A2971 RMK T02800250 IEM_DS3505
ZGSZ,2007-06-08 02:00,ZGSZ 080200Z AUTO 20008KT 7SM 25/23 A2971 RMK T02500230 IEM_DS3505
ZGSZ,2007-06-08 03:00,ZGSZ 080300Z AUTO 02004KT 14SM 25/24 A2971 RMK SLP071 T02520238 52013 IEM_DS3505
ZGSZ,2007-06-08 04:00,ZGSZ 080400Z AUTO 13006KT 4SM 27/25 A2971 RMK T02700250 IEM_DS3505
ZGSZ,2007-06-08 05:00,ZGSZ 080500Z AUTO 15008KT 7SM 29/27 A2968 RMK T02900270 IEM_DS3505
ZGSZ,2007-06-08 06:00,ZGSZ 080600Z AUTO 22008KT 12SM 29/26 A2965 RMK 60051 SLP050 T02890265 57020 IEM_DS3505
ZGSZ,2007-06-08 07:00,ZGSZ 080700Z AUTO 20017G33KT 7SM 27/23 A2968 RMK T02700230 IEM_DS3505
ZGSZ,2007-06-08 08:00,ZGSZ 080800Z AUTO 14004KT 7SM 27/25 A2968 RMK T02700250 IEM_DS3505
ZGSZ,2007-06-08 09:00,ZGSZ 080900Z AUTO 04002KT 12SM 25/23 A2965 RMK SLP053 T02490230 52002 IEM_DS3505
ZGSZ,2007-06-08 10:00,ZGSZ 081000Z AUTO 13004KT 7SM 27/24 A2968 RMK T02700240 IEM_DS3505
ZGSZ,2007-06-08 11:00,ZGSZ 081100Z AUTO 36006KT 7SM 27/25 A2968 RMK T02700250 IEM_DS3505
ZGSZ,2007-06-08 12:00,ZGSZ 081200Z AUTO 02004KT 14SM 26/24 A2968 RMK 60039 SLP058 T02620241 52005 IEM_DS3505
ZGSZ,2007-06-08 13:00,ZGSZ 081300Z AUTO 03004KT 4SM 27/25 A2968 RMK T02700250 IEM_DS3505
ZGSZ,2007-06-08 14:00,ZGSZ 081400Z AUTO 00000KT 4SM 27/25 A2971 RMK T02700250 IEM_DS3505
ZGSZ,2007-06-08 15:00,ZGSZ 081500Z AUTO 07002KT 11SM 26/24 A2971 RMK SLP064 T02650242 52006 IEM_DS3505
ZGSZ,2007-06-08 16:00,ZGSZ 081600Z AUTO 14004KT 3SM 28/26 A2971 RMK T02800260 IEM_DS3505
ZGSZ,2007-06-08 18:00,ZGSZ 081800Z AUTO 02002KT 7SM 26/24 A2965 RMK SLP052 T02650245 57012 IEM_DS3505
ZGSZ,2007-06-08 19:00,ZGSZ 081900Z AUTO 18010KT 7SM 29/27 A2965 RMK T02900270 IEM_DS3505
ZGSZ,2007-06-08 20:00,ZGSZ 082000Z AUTO 19010KT 7SM 28/27 A2965 RMK T02800270 IEM_DS3505
ZGSZ,2007-06-08 21:00,ZGSZ 082100Z AUTO 22008KT 7SM 28/26 A2965 RMK 70093 SLP049 T02790257 57003 IEM_DS3505
ZGSZ,2007-06-08 22:00,ZGSZ 082200Z AUTO 17008KT 7SM 28/27 A2965 RMK T02800270 IEM_DS3505
ZGSZ,2007-06-08 23:00,ZGSZ 082300Z AUTO 17008KT 7SM 29/27 A2968 RMK T02900270 IEM_DS3505
ZGSZ,2007-06-09 00:00,ZGSZ 090000Z AUTO 22008KT 12SM 29/26 A2971 RMK 60000 70094 SLP064 T02860258 52015 IEM_DS3505
ZGSZ,2007-06-09 01:00,ZGSZ 090100Z AUTO 17008KT 7SM 30/27 A2971 RMK T03000270 IEM_DS3505
ZGSZ,2007-06-09 02:00,ZGSZ 090200Z AUTO 17010KT 7SM 30/27 A2971 RMK T03000270 IEM_DS3505
ZGSZ,2007-06-09 03:00,ZGSZ 090300Z AUTO 22012KT 14SM 30/26 A2968 RMK SLP062 T03020259 57002 IEM_DS3505
ZGSZ,2007-06-09 04:00,ZGSZ 090400Z AUTO 17012KT 7SM 30/27 A2968 RMK T03000270 IEM_DS3505
ZGSZ,2007-06-09 05:00,ZGSZ 090500Z AUTO 19012KT 7SM 30/27 A2968 RMK T03000270 IEM_DS3505
ZGSZ,2007-06-09 06:00,ZGSZ 090600Z AUTO 22010KT 12SM 29/26 A2965 RMK SLP044 T02900258 57018 IEM_DS3505
ZGSZ,2007-06-09 07:00,ZGSZ 090700Z AUTO 34012KT 7SM 27/23 A2965 RMK T02700230 IEM_DS3505
ZGSZ,2007-06-09 08:00,ZGSZ 090800Z AUTO 4SM 26/23 A2965 RMK T02600230 IEM_DS3505
ZGSZ,2007-06-09 09:00,ZGSZ 090900Z AUTO 11004KT 9SM 25/23 A2962 RMK SLP041 T02460232 57003 IEM_DS3505
ZGSZ,2007-06-09 10:00,ZGSZ 091000Z AUTO 11006KT 7SM 26/24 A2962 RMK T02600240 IEM_DS3505
ZGSZ,2007-06-09 11:00,ZGSZ 091100Z AUTO 10004KT 7SM 27/23 A2962 RMK T02700230 IEM_DS3505
ZGSZ,2007-06-09 12:00,ZGSZ 091200Z AUTO 04004KT 12SM 26/24 A2965 RMK 60142 SLP042 T02580238 52001 IEM_DS3505
ZGSZ,2007-06-09 13:00,ZGSZ 091300Z AUTO 12008KT 7SM 28/25 A2965 RMK T02800250 IEM_DS3505
ZGSZ,2007-06-09 14:00,ZGSZ 091400Z AUTO 17010KT 7SM 29/27 A2965 RMK T02900270 IEM_DS3505
ZGSZ,2007-06-09 15:00,ZGSZ 091500Z AUTO 04004KT 10SM 26/25 A2965 RMK SLP047 T02620246 52005 IEM_DS3505
ZGSZ,2007-06-09 16:00,ZGSZ 091600Z AUTO 17012KT 7SM 29/27 A2965 RMK T02900270 IEM_DS3505
ZGSZ,2007-06-09 17:00,ZGSZ 091700Z AUTO 17016KT 7SM 29/27 A2962 RMK T02900270 IEM_DS3505
ZGSZ,2007-06-09 18:00,ZGSZ 091800Z AUTO 32004KT 4SM 27/26 A2962 RMK 60024 SLP028 T02710255 57018 IEM_DS3505
ZGSZ,2007-06-09 19:00,ZGSZ 091900Z AUTO 11006KT 7SM 26/25 A2962 RMK T02600250 IEM_DS3505
ZGSZ,2007-06-09 20:00,ZGSZ 092000Z AUTO 16008KT 7SM 25/24 A2962 RMK T02500240 IEM_DS3505
ZGSZ,2007-06-09 21:00,ZGSZ 092100Z AUTO 02002KT 4SM 24/23 A2959 RMK 70477 SLP033 T02360226 52004 IEM_DS3505
ZGSZ,2007-06-09 22:00,ZGSZ 092200Z AUTO 7SM 25/24 A2959 RMK T02500240 IEM_DS3505
ZGSZ,2007-06-09 23:00,ZGSZ 092300Z AUTO 00000KT 7SM 26/24 A2962 RMK T02600240 IEM_DS3505
ZGSZ,2007-06-10 00:00,ZGSZ 100000Z AUTO 20004KT 2 1/2SM 25/24 A2965 RMK 60350 70516 SLP043 T02460236 52010 IEM_DS3505
ZGSZ,2007-06-10 01:00,ZGSZ 100100Z AUTO 13008KT 3SM 26/25 A2965 RMK T02600250 IEM_DS3505
ZGSZ,2007-06-10 02:00,ZGSZ 100200Z AUTO 14010KT 4SM 26/25 A2965 RMK T02600250 IEM_DS3505
ZGSZ,2007-06-10 03:00,ZGSZ 100300Z AUTO 13008KT 4SM 24/24 A2965 RMK SLP052 T02450235 52009 IEM_DS3505
ZGSZ,2007-06-10 04:00,ZGSZ 100400Z AUTO 13010KT 7SM 27/24 A2965 RMK T02700240 IEM_DS3505
ZGSZ,2007-06-10 05:00,ZGSZ 100500Z AUTO 17012KT 7SM 27/25 A2962 RMK T02700250 IEM_DS3505
ZGSZ,2007-06-10 06:00,ZGSZ 100600Z AUTO 22008KT 6SM 25/24 A2962 RMK 60154 SLP040 T02510235 57012 IEM_DS3505
ZGSZ,2007-06-10 07:00,ZGSZ 100700Z AUTO 22014KT 7SM 26/23 A2962 RMK T02600230 IEM_DS3505
ZGSZ,2007-06-10 08:00,ZGSZ 100800Z AUTO 17010KT 7SM 26/23 A2959 RMK T02600230 IEM_DS3505
ZGSZ,2007-06-10 09:00,ZGSZ 100900Z AUTO 32004KT 12SM 25/24 A2959 RMK SLP024 T02530235 57016 IEM_DS3505
ZGSZ,2007-06-10 10:00,ZGSZ 101000Z AUTO 18010KT 7SM 27/25 A2959 RMK T02700250 IEM_DS3505
ZGSZ,2007-06-10 11:00,ZGSZ 101100Z AUTO 18012KT 7SM 27/25 A2959 RMK T02700250 IEM_DS3505
ZGSZ,2007-06-10 12:00,ZGSZ 101200Z AUTO 22004KT 12SM 26/24 A2962 RMK 60016 SLP033 T02610241 52009 IEM_DS3505
ZGSZ,2007-06-10 13:00,ZGSZ 101300Z AUTO 20006KT 7SM 27/25 A2962 RMK T02700250 IEM_DS3505
ZGSZ,2007-06-10 14:00,ZGSZ 101400Z AUTO 20006KT 7SM 27/25 A2962 RMK T02700250 IEM_DS3505
ZGSZ,2007-06-10 15:00,ZGSZ 101500Z AUTO 22002KT 9SM 26/24 A2965 RMK SLP040 T02640244 52007 IEM_DS3505
ZGSZ,2007-06-10 16:00,ZGSZ 101600Z AUTO 7SM 27/25 A2962 RMK T02700250 IEM_DS3505
ZGSZ,2007-06-10 17:00,ZGSZ 101700Z AUTO 11002KT 3SM 26/25 A2962 RMK T02600250 IEM_DS3505
ZGSZ,2007-06-10 18:00,ZGSZ 101800Z AUTO 27002KT 7SM 26/24 A2962 RMK SLP030 T02580240 57010 IEM_DS3505
ZGSZ,2007-06-10 19:00,ZGSZ 101900Z AUTO 00000KT 4SM 27/25 A2959 RMK T02700250 IEM_DS3505
ZGSZ,2007-06-10 20:00,ZGSZ 102000Z AUTO 21004KT 7SM 27/25 A2959 RMK T02700250 IEM_DS3505
ZGSZ,2007-06-10 21:00,ZGSZ 102100Z AUTO 11002KT 8SM 26/24 A2959 RMK 70209 SLP029 T02590243 57001 IEM_DS3505
ZGSZ,2007-06-10 22:00,ZGSZ 102200Z AUTO 00000KT 2 1/2SM 27/25 A2959 RMK T02700250 IEM_DS3505
ZGSZ,2007-06-10 23:00,ZGSZ 102300Z AUTO 00000KT 4SM 27/25 A2962 RMK T02700250 IEM_DS3505
ZGSZ,2007-06-11 00:00,ZGSZ 110000Z AUTO 22002KT 6SM 27/24 A2962 RMK 70169 SLP038 T02660244 52009 IEM_DS3505
ZGSZ,2007-06-11 01:00,ZGSZ 110100Z AUTO 00000KT 3SM 27/25 A2965 RMK T02700250 IEM_DS3505
ZGSZ,2007-06-11 02:00,ZGSZ 110200Z AUTO 00000KT 3SM 27/26 A2965 RMK T02700260 IEM_DS3505
ZGSZ,2007-06-11 03:00,ZGSZ 110300Z AUTO 18002KT 3SM 29/25 A2962 RMK SLP041 T02880250 52003 IEM_DS3505
ZGSZ,2007-06-11 04:00,ZGSZ 110400Z AUTO 24004KT 2 1/2SM 29/26 A2962 RMK T02900260 IEM_DS3505
ZGSZ,2007-06-11 05:00,ZGSZ 110500Z AUTO 21004KT 3SM 30/25 A2959 RMK T03000250 IEM_DS3505
ZGSZ,2007-06-11 06:00,ZGSZ 110600Z AUTO 20006KT 4SM 32/24 A2959 RMK 60031 SLP023 T03170243 57017 IEM_DS3505
ZGSZ,2007-06-11 07:00,ZGSZ 110700Z AUTO 20006KT 4SM 31/25 A2956 RMK T03100250 IEM_DS3505
ZGSZ,2007-06-11 08:00,ZGSZ 110800Z AUTO 19006KT 3SM 30/26 A2956 RMK T03000260 IEM_DS3505
ZGSZ,2007-06-11 09:00,ZGSZ 110900Z AUTO 07004KT 5SM 30/24 A2956 RMK SLP016 T02950237 57007 IEM_DS3505
ZGSZ,2007-06-11 10:00,ZGSZ 111000Z AUTO 19010KT 3SM 29/26 A2956 RMK T02900260 IEM_DS3505
ZGSZ,2007-06-11 11:00,ZGSZ 111100Z AUTO 19012KT 3SM 29/25 A2959 RMK T02900250 IEM_DS3505
ZGSZ,2007-06-11 12:00,ZGSZ 111200Z AUTO 16002KT 4SM 28/25 A2962 RMK 60000 SLP033 T02790251 52016 IEM_DS3505
ZGSZ,2007-06-11 13:00,ZGSZ 111300Z AUTO 19008KT 4SM 29/26 A2962 RMK T02900260 IEM_DS3505
ZGSZ,2007-06-11 14:00,ZGSZ 111400Z AUTO 23004KT 2SM 29/26 A2965 RMK T02900260 IEM_DS3505
ZGSZ,2007-06-11 15:00,ZGSZ 111500Z AUTO 22004KT 2 1/2SM 28/26 A2965 RMK SLP047 T02780256 52015 IEM_DS3505
ZGSZ,2007-06-11 16:00,ZGSZ 111600Z AUTO 00000KT 3SM 27/24 A2965 RMK T02700240 IEM_DS3505
ZGSZ,2007-06-11 18:00,ZGSZ 111800Z AUTO 25002KT 2 1/2SM 27/25 A2959 RMK 60002 SLP029 T02700248 57018 IEM_DS3505
ZGSZ,2007-06-11 19:00,ZGSZ 111900Z AUTO 00000KT 2SM 27/25 A2959 RMK T02700250 IEM_DS3505
ZGSZ,2007-06-11 20:00,ZGSZ 112000Z AUTO 00000KT 2SM 27/24 A2959 RMK T02700240 IEM_DS3505
ZGSZ,2007-06-11 21:00,ZGSZ 112100Z AUTO 25002KT 2 1/2SM 27/24 A2959 RMK 70031 SLP027 T02660241 57002 IEM_DS3505
ZGSZ,2007-06-11 22:00,ZGSZ 112200Z AUTO 00000KT 2SM 27/25 A2959 RMK T02700250 IEM_DS3505
ZGSZ,2007-06-11 23:00,ZGSZ 112300Z AUTO 00000KT 1 1/2SM 28/25 A2962 RMK T02800250 IEM_DS3505
ZGSZ,2007-06-12 00:00,ZGSZ 120000Z AUTO 20002KT 3SM 29/25 A2962 RMK 70031 SLP038 T02860246 52011 IEM_DS3505
ZGSZ,2007-06-12 01:00,ZGSZ 120100Z AUTO 23002KT 3SM 29/25 A2965 RMK T02900250 IEM_DS3505
ZGSZ,2007-06-12 02:00,ZGSZ 120200Z AUTO 20002KT 3SM 29/25 A2965 RMK T02900250 IEM_DS3505
ZGSZ,2007-06-12 03:00,ZGSZ 120300Z AUTO 22004KT 2 1/2SM 27/25 A2965 RMK SLP051 T02730248 52012 IEM_DS3505
ZGSZ,2007-06-12 04:00,ZGSZ 120400Z AUTO 18004KT 2SM 28/26 A2965 RMK T02800260 IEM_DS3505
ZGSZ,2007-06-12 05:00,ZGSZ 120500Z AUTO 20004KT 3SM 30/25 A2962 RMK T03000250 IEM_DS3505
ZGSZ,2007-06-12 06:00,ZGSZ 120600Z AUTO 04002KT 4SM 29/24 A2962 RMK 60004 SLP036 T02910242 57014 IEM_DS3505
ZGSZ,2007-06-12 07:00,ZGSZ 120700Z AUTO 18004KT 3SM 29/25 A2959 RMK T02900250 IEM_DS3505
ZGSZ,2007-06-12 08:00,ZGSZ 120800Z AUTO 17008KT 2 1/2SM 29/25 A2959 RMK T02900250 IEM_DS3505
ZGSZ,2007-06-12 09:00,ZGSZ 120900Z AUTO 18002KT 5SM 29/25 A2959 RMK SLP030 T02880248 57007 IEM_DS3505
ZGSZ,2007-06-12 10:00,ZGSZ 121000Z AUTO 17008KT 3SM 29/26 A2959 RMK T02900260 IEM_DS3505
ZGSZ,2007-06-12 12:00,ZGSZ 121200Z AUTO 22006KT 4SM 26/23 A2965 RMK 60028 SLP050 T02590234 52020 IEM_DS3505
ZGSZ,2007-06-12 13:00,ZGSZ 121300Z AUTO 13006KT 7SM 26/24 A2968 RMK T02600240 IEM_DS3505
ZGSZ,2007-06-12 14:00,ZGSZ 121400Z AUTO 14004KT 7SM 26/24 A2968 RMK T02600240 IEM_DS3505
ZGSZ,2007-06-12 15:00,ZGSZ 121500Z AUTO 15006KT 9SM 25/23 A2968 RMK SLP059 T02520233 52009 IEM_DS3505
ZGSZ,2007-06-12 16:00,ZGSZ 121600Z AUTO 15008KT 7SM 27/25 A2965 RMK T02700250 IEM_DS3505
ZGSZ,2007-06-12 17:00,ZGSZ 121700Z AUTO 17008KT 7SM 28/26 A2965 RMK T02800260 IEM_DS3505
ZGSZ,2007-06-12 18:00,ZGSZ 121800Z AUTO 22006KT 9SM 27/25 A2962 RMK 60012 SLP038 T02720254 57020 IEM_DS3505
ZGSZ,2007-06-12 19:00,ZGSZ 121900Z AUTO 18006KT 7SM 28/26 A2962 RMK T02800260 IEM_DS3505
ZGSZ,2007-06-12 20:00,ZGSZ 122000Z AUTO 17006KT 7SM 28/26 A2962 RMK T02800260 IEM_DS3505
ZGSZ,2007-06-12 21:00,ZGSZ 122100Z AUTO 22008KT 9SM 27/25 A2962 RMK 70044 SLP034 T02720250 57004 IEM_DS3505
ZGSZ,2007-06-12 22:00,ZGSZ 122200Z AUTO 17008KT 7SM 28/26 A2962 RMK T02800260 IEM_DS3505
ZGSZ,2007-06-12 23:00,ZGSZ 122300Z AUTO 16010KT 7SM 28/27 A2962 RMK T02800270 IEM_DS3505
ZGSZ,2007-06-13 00:00,ZGSZ 130000Z AUTO 22008KT 12SM 28/26 A2965 RMK 60008 70052 SLP043 T02830257 52008 IEM_DS3505
ZGSZ,2007-06-13 01:00,ZGSZ 130100Z AUTO 17012KT 7SM 30/27 A2965 RMK T03000270 IEM_DS3505
ZGSZ,2007-06-13 02:00,ZGSZ 130200Z AUTO 18016KT 7SM 30/27 A2965 RMK T03000270 IEM_DS3505
ZGSZ,2007-06-13 03:00,ZGSZ 130300Z AUTO 22014KT 16SM 30/26 A2965 RMK SLP046 T02980255 52003 IEM_DS3505
ZGSZ,2007-06-13 04:00,ZGSZ 130400Z AUTO 19008KT 7SM 28/26 A2965 RMK T02800260 IEM_DS3505
ZGSZ,2007-06-13 05:00,ZGSZ 130500Z AUTO 18012KT 3SM 29/27 A2962 RMK T02900270 IEM_DS3505
ZGSZ,2007-06-13 06:00,ZGSZ 130600Z AUTO 22016G19KT 16SM 30/26 A2962 RMK SLP035 T02990256 57010 IEM_DS3505
ZGSZ,2007-06-13 07:00,ZGSZ 130700Z AUTO 18014KT 7SM 29/27 A2959 RMK T02900270 IEM_DS3505
ZGSZ,2007-06-13 08:00,ZGSZ 130800Z AUTO 17014KT 7SM 29/27 A2959 RMK T02900270 IEM_DS3505
ZGSZ,2007-06-13 09:00,ZGSZ 130900Z AUTO 22014KT 14SM 30/25 A2959 RMK SLP025 T02950253 57010 IEM_DS3505
ZGSZ,2007-06-13 10:00,ZGSZ 131000Z AUTO 18014KT 7SM 29/27 A2959 RMK T02900270 IEM_DS3505
ZGSZ,2007-06-13 11:00,ZGSZ 131100Z AUTO 25010G21KT 7SM 26/24 A2962 RMK T02600240 IEM_DS3505
ZGSZ,2007-06-13 12:00,ZGSZ 131200Z AUTO 25010KT 2 1/2SM 25/23 A2962 RMK 60043 SLP045 T02520231 52019 IEM_DS3505
ZGSZ,2007-06-13 13:00,ZGSZ 131300Z AUTO 15010KT 7SM 26/24 A2965 RMK T02600240 IEM_DS3505
ZGSZ,2007-06-13 14:00,ZGSZ 131400Z AUTO 14010KT 7SM 26/24 A2965 RMK T02600240 IEM_DS3505
ZGSZ,2007-06-13 15:00,ZGSZ 131500Z AUTO 22004KT 12SM 25/24 A2968 RMK SLP061 T02540235 52016 IEM_DS3505
ZGSZ,2007-06-13 16:00,ZGSZ 131600Z AUTO 18010KT 7SM 27/25 A2968 RMK T02700250 IEM_DS3505
ZGSZ,2007-06-13 17:00,ZGSZ 131700Z AUTO 17010KT 6SM 27/24 A2965 RMK T02700240 IEM_DS3505
ZGSZ,2007-06-13 18:00,ZGSZ 131800Z AUTO 22006KT 14SM 26/23 A2965 RMK 60098 SLP046 T02580231 57015 IEM_DS3505
ZGSZ,2007-06-13 19:00,ZGSZ 131900Z AUTO 20004KT 7SM 26/23 A2965 RMK T02600230 IEM_DS3505
ZGSZ,2007-06-13 20:00,ZGSZ 132000Z AUTO 18008KT 7SM 26/24 A2965 RMK T02600240 IEM_DS3505
ZGSZ,2007-06-13 21:00,ZGSZ 132100Z AUTO 22008KT 7SM 24/23 A2965 RMK 70268 SLP050 T02450231 52004 IEM_DS3505
ZGSZ,2007-06-13 22:00,ZGSZ 132200Z AUTO 16014KT 7SM 25/24 A2965 RMK T02500240 IEM_DS3505
ZGSZ,2007-06-13 23:00,ZGSZ 132300Z AUTO 17012KT 7SM 26/24 A2965 RMK T02600240 IEM_DS3505
ZGSZ,2007-06-14 00:00,ZGSZ 140000Z AUTO 09002KT 12SM 25/24 A2965 RMK 60150 70291 SLP044 T02500238 57006 IEM_DS3505
ZGSZ,2007-06-14 01:00,ZGSZ 140100Z AUTO 18010KT 7SM 27/25 A2968 RMK T02700250 IEM_DS3505
ZGSZ,2007-06-14 02:00,ZGSZ 140200Z AUTO 18010KT 7SM 28/26 A2968 RMK T02800260 IEM_DS3505
ZGSZ,2007-06-14 03:00,ZGSZ 140300Z AUTO 16002KT 12SM 26/24 A2968 RMK SLP058 T02640241 52014 IEM_DS3505
ZGSZ,2007-06-14 04:00,ZGSZ 140400Z AUTO 18014KT 7SM 27/25 A2968 RMK T02700250 IEM_DS3505
ZGSZ,2007-06-14 05:00,ZGSZ 140500Z AUTO 19016KT 4SM 26/25 A2965 RMK T02600250 IEM_DS3505
ZGSZ,2007-06-14 06:00,ZGSZ 140600Z AUTO 22010KT 14SM 26/24 A2965 RMK 60004 SLP046 T02580240 57012 IEM_DS3505
ZGSZ,2007-06-14 07:00,ZGSZ 140700Z AUTO 22004KT 7SM 27/25 A2965 RMK T02700250 IEM_DS3505
ZGSZ,2007-06-14 08:00,ZGSZ 140800Z AUTO 4SM 26/25 A2965 RMK T02600250 IEM_DS3505
ZGSZ,2007-06-14 09:00,ZGSZ 140900Z AUTO 22006KT 11SM 26/25 A2965 RMK SLP040 T02620246 57006 IEM_DS3505
ZGSZ,2007-06-14 10:00,ZGSZ 141000Z AUTO 30016G27KT 1SM 25/23 A2965 RMK T02500230 IEM_DS3505
ZGSZ,2007-06-14 11:00,ZGSZ 141100Z AUTO 35006KT 4SM 24/22 A2965 RMK T02400220 IEM_DS3505
ZGSZ,2007-06-14 12:00,ZGSZ 141200Z AUTO 07002KT 9SM 25/23 A2965 RMK 60083 SLP046 T02470233 52006 IEM_DS3505
ZGSZ,2007-06-14 13:00,ZGSZ 141300Z AUTO 16004KT 3SM 25/24 A2965 RMK T02500240 IEM_DS3505
ZGSZ,2007-06-14 14:00,ZGSZ 141400Z AUTO 4SM 25/24 A2968 RMK T02500240 IEM_DS3505
ZGSZ,2007-06-14 15:00,ZGSZ 141500Z AUTO 36002KT 4SM 25/23 A2971 RMK SLP062 T02500234 52016 IEM_DS3505
ZGSZ,2007-06-14 16:00,ZGSZ 141600Z AUTO 3SM 26/24 A2971 RMK T02600240 IEM_DS3505
ZGSZ,2007-06-14 17:00,ZGSZ 141700Z AUTO 00000KT 3SM 26/24 A2968 RMK T02600240 IEM_DS3505
ZGSZ,2007-06-14 18:00,ZGSZ 141800Z AUTO 00000KT 6SM 25/23 A2968 RMK 60000 SLP056 T02500234 57006 IEM_DS3505
ZGSZ,2007-06-14 19:00,ZGSZ 141900Z AUTO 00000KT 1 1/2SM 25/24 A2968 RMK T02500240 IEM_DS3505
ZGSZ,2007-06-14 20:00,ZGSZ 142000Z AUTO 00000KT 1 1/4SM 25/24 A2968 RMK T02500240 IEM_DS3505
ZGSZ,2007-06-14 21:00,ZGSZ 142100Z AUTO 20002KT 2 1/2SM 25/23 A2968 RMK 70117 SLP051 T02470233 57005 IEM_DS3505
ZGSZ,2007-06-14 22:00,ZGSZ 142200Z AUTO 2SM 25/23 A2968 RMK T02500230 IEM_DS3505
ZGSZ,2007-06-14 23:00,ZGSZ 142300Z AUTO 02006KT 2SM 25/23 A2971 RMK T02500230 IEM_DS3505
ZGSZ,2007-06-15 00:00,ZGSZ 150000Z AUTO 36004KT 2SM 25/24 A2971 RMK 60004 70090 SLP065 T02540235 52014 IEM_DS3505
ZGSZ,2007-06-15 01:00,ZGSZ 150100Z AUTO 2 1/2SM 27/24 A2974 RMK T02700240 IEM_DS3505
ZGSZ,2007-06-15 02:00,ZGSZ 150200Z AUTO 03004KT 3SM 28/24 A2974 RMK T02800240 IEM_DS3505
ZGSZ,2007-06-15 03:00,ZGSZ 150300Z AUTO 07004KT 4SM 28/23 A2971 RMK SLP070 T02810226 52005 IEM_DS3505
ZGSZ,2007-06-15 04:00,ZGSZ 150400Z AUTO 22004KT 4SM 30/23 A2971 RMK T03000230 IEM_DS3505
ZGSZ,2007-06-15 05:00,ZGSZ 150500Z AUTO 23004KT 2 1/2SM 30/25 A2971 RMK T03000250 IEM_DS3505
ZGSZ,2007-06-15 06:00,ZGSZ 150600Z AUTO 18006KT 3SM 30/23 A2968 RMK SLP056 T03000234 57014 IEM_DS3505
ZGSZ,2007-06-15 07:00,ZGSZ 150700Z AUTO 19008KT 2 1/2SM 30/26 A2968 RMK T03000260 IEM_DS3505
ZGSZ,2007-06-15 08:00,ZGSZ 150800Z AUTO 18008KT 3SM 29/25 A2965 RMK T02900250 IEM_DS3505
ZGSZ,2007-06-15 09:00,ZGSZ 150900Z AUTO 22004KT 5SM 29/24 A2965 RMK SLP047 T02920241 57009 IEM_DS3505
ZGSZ,2007-06-15 10:00,ZGSZ 151000Z AUTO 19008KT 3SM 28/25 A2965 RMK T02800250 IEM_DS3505
ZGSZ,2007-06-15 11:00,ZGSZ 151100Z AUTO 18010KT 3SM 27/25 A2965 RMK T02700250 IEM_DS3505
ZGSZ,2007-06-15 12:00,ZGSZ 151200Z AUTO 16002KT 2 1/2SM 27/24 A2968 RMK 60000 SLP055 T02680237 52008 IEM_DS3505
ZGSZ,2007-06-15 13:00,ZGSZ 151300Z AUTO 17006KT 2SM 27/25 A2968 RMK T02700250 IEM_DS3505
ZGSZ,2007-06-15 14:00,ZGSZ 151400Z AUTO 19008KT 2 1/2SM 27/25 A2971 RMK T02700250 IEM_DS3505
ZGSZ,2007-06-15 15:00,ZGSZ 151500Z AUTO 14002KT 2 1/2SM 27/24 A2971 RMK SLP063 T02680241 52008 IEM_DS3505
ZGSZ,2007-06-15 16:00,ZGSZ 151600Z AUTO 00000KT 7SM 27/25 A2968 RMK T02700250 IEM_DS3505
ZGSZ,2007-06-15 17:00,ZGSZ 151700Z AUTO 21004KT 7SM 27/25 A2968 RMK T02700250 IEM_DS3505
ZGSZ,2007-06-15 18:00,ZGSZ 151800Z AUTO 11002KT 1 1/2SM 26/24 RMK SLP057 T02630242 57006 IEM_DS3505
ZGSZ,2007-06-15 20:00,ZGSZ 152000Z AUTO 7SM 26/25 A2971 RMK T02600250 IEM_DS3505
ZGSZ,2007-06-15 21:00,ZGSZ 152100Z AUTO 17002KT 3SM 26/24 A2971 RMK 70003 SLP062 T02600240 52005 IEM_DS3505
ZGSZ,2007-06-15 22:00,ZGSZ 152200Z AUTO 14002KT 3SM 27/25 A2971 RMK T02700250 IEM_DS3505
ZGSZ,2007-06-15 23:00,ZGSZ 152300Z AUTO 15004KT 7SM 28/25 A2971 RMK T02800250 IEM_DS3505
ZGSZ,2007-06-16 00:00,ZGSZ 160000Z AUTO 11002KT 9SM 28/24 A2971 RMK 70000 SLP069 T02800238 52007 IEM_DS3505
ZGSZ,2007-06-16 01:00,ZGSZ 160100Z AUTO 17006KT 7SM 28/25 A2971 RMK T02800250 IEM_DS3505
ZGSZ,2007-06-16 02:00,ZGSZ 160200Z AUTO 18004KT 7SM 29/25 A2974 RMK T02900250 IEM_DS3505
ZGSZ,2007-06-16 03:00,ZGSZ 160300Z AUTO 20004KT 17SM 30/24 A2974 RMK SLP070 T02960235 52001 IEM_DS3505
ZGSZ,2007-06-16 04:00,ZGSZ 160400Z AUTO 18006KT 7SM 30/26 A2971 RMK T03000260 IEM_DS3505
ZGSZ,2007-06-16 05:00,ZGSZ 160500Z AUTO 18010KT 7SM 30/26 A2971 RMK T03000260 IEM_DS3505
ZGSZ,2007-06-16 06:00,ZGSZ 160600Z AUTO 18004KT 19SM 32/24 A2968 RMK SLP055 T03190240 57014 IEM_DS3505
ZGSZ,2007-06-16 07:00,ZGSZ 160700Z AUTO 18010KT 7SM 29/26 A2968 RMK T02900260 IEM_DS3505
ZGSZ,2007-06-16 08:00,ZGSZ 160800Z AUTO 18010KT 7SM 29/25 A2965 RMK T02900250 IEM_DS3505
ZGSZ,2007-06-16 09:00,ZGSZ 160900Z AUTO 20004KT 19SM 29/25 A2968 RMK SLP050 T02940249 57006 IEM_DS3505
ZGSZ,2007-06-16 10:00,ZGSZ 161000Z AUTO 20004KT 7SM 28/26 A2968 RMK T02800260 IEM_DS3505
ZGSZ,2007-06-16 11:00,ZGSZ 161100Z AUTO 16008KT 7SM 28/26 A2968 RMK T02800260 IEM_DS3505
ZGSZ,2007-06-16 12:00,ZGSZ 161200Z AUTO 18002KT 14SM 28/24 A2971 RMK 60000 SLP066 T02760244 52016 IEM_DS3505
ZGSZ,2007-06-16 13:00,ZGSZ 161300Z AUTO 15006KT 7SM 28/26 A2974 RMK T02800260 IEM_DS3505
ZGSZ,2007-06-16 14:00,ZGSZ 161400Z AUTO 15006KT 7SM 28/25 A2974 RMK T02800250 IEM_DS3505
ZGSZ,2007-06-16 15:00,ZGSZ 161500Z AUTO 07002KT 11SM 28/24 A2974 RMK SLP076 T02770245 52010 IEM_DS3505
ZGSZ,2007-06-16 16:00,ZGSZ 161600Z AUTO 15004KT 6SM 27/25 A2971 RMK T02700250 IEM_DS3505
ZGSZ,2007-06-16 17:00,ZGSZ 161700Z AUTO 6SM 28/25 A2971 RMK T02800250 IEM_DS3505
ZGSZ,2007-06-16 18:00,ZGSZ 161800Z AUTO 09002KT 11SM 27/24 A2971 RMK 60000 SLP066 T02730240 57009 IEM_DS3505
ZGSZ,2007-06-16 19:00,ZGSZ 161900Z AUTO 12002KT 7SM 27/25 A2971 RMK T02700250 IEM_DS3505
ZGSZ,2007-06-16 20:00,ZGSZ 162000Z AUTO 00000KT 7SM 27/26 A2971 RMK T02700260 IEM_DS3505
ZGSZ,2007-06-16 21:00,ZGSZ 162100Z AUTO 07002KT 9SM 27/24 A2971 RMK 70000 SLP062 T02660243 57005 IEM_DS3505
ZGSZ,2007-06-16 22:00,ZGSZ 162200Z AUTO 10002KT 7SM 27/25 A2971 RMK T02700250 IEM_DS3505
ZGSZ,2007-06-16 23:00,ZGSZ 162300Z AUTO 7SM 28/26 A2971 RMK T02800260 IEM_DS3505
ZGSZ,2007-06-17 00:00,ZGSZ 170000Z AUTO 02002KT 12SM 28/24 A2974 RMK 60001 70001 SLP074 T02760236 52012 IEM_DS3505
ZGSZ,2007-06-17 01:00,ZGSZ 170100Z AUTO 14006KT 7SM 30/26 A2974 RMK T03000260 IEM_DS3505
ZGSZ,2007-06-17 02:00,ZGSZ 170200Z AUTO 19006KT 7SM 29/25 A2977 RMK T02900250 IEM_DS3505
ZGSZ,2007-06-17 03:00,ZGSZ 170300Z AUTO 18002KT 19SM 31/24 A2977 RMK SLP084 T03070239 52010 IEM_DS3505
ZGSZ,2007-06-17 04:00,ZGSZ 170400Z AUTO 22006KT 7SM 29/25 A2977 RMK T02900250 IEM_DS3505
ZGSZ,2007-06-17 05:00,ZGSZ 170500Z AUTO 22004KT 7SM 28/25 A2974 RMK T02800250 IEM_DS3505
ZGSZ,2007-06-17 06:00,ZGSZ 170600Z AUTO 16006KT 19SM 28/24 A2974 RMK SLP073 T02810243 57011 IEM_DS3505
ZGSZ,2007-06-17 07:00,ZGSZ 170700Z AUTO 17004KT 7SM 28/26 A2971 RMK T02800260 IEM_DS3505
ZGSZ,2007-06-17 08:00,ZGSZ 170800Z AUTO 7SM 28/26 A2971 RMK T02800260 IEM_DS3505
ZGSZ,2007-06-17 09:00,ZGSZ 170900Z AUTO 14004KT 19SM 28/24 A2968 RMK SLP058 T02840242 57015 IEM_DS3505
ZGSZ,2007-06-17 10:00,ZGSZ 171000Z AUTO 00000KT 7SM 28/26 A2968 RMK T02800260 IEM_DS3505
ZGSZ,2007-06-17 11:00,ZGSZ 171100Z AUTO 00000KT 7SM 28/25 A2968 RMK T02800250 IEM_DS3505
ZGSZ,2007-06-17 12:00,ZGSZ 171200Z AUTO 07004KT 16SM 28/24 A2971 RMK SLP065 T02760240 52007 IEM_DS3505
ZGSZ,2007-06-17 13:00,ZGSZ 171300Z AUTO 08004KT 7SM 28/25 A2971 RMK T02800250 IEM_DS3505
ZGSZ,2007-06-17 14:00,ZGSZ 171400Z AUTO 09006KT 6SM 28/25 A2974 RMK T02800250 IEM_DS3505
ZGSZ,2007-06-17 15:00,ZGSZ 171500Z AUTO 07006KT 16SM 26/24 A2974 RMK SLP076 T02640235 52011 IEM_DS3505
ZGSZ,2007-06-17 16:00,ZGSZ 171600Z AUTO 10004KT 6SM 27/24 A2974 RMK T02700240 IEM_DS3505
ZGSZ,2007-06-17 17:00,ZGSZ 171700Z AUTO 12004KT 6SM 27/24 A2974 RMK T02700240 IEM_DS3505
ZGSZ,2007-06-17 18:00,ZGSZ 171800Z AUTO 04004KT 16SM 26/24 A2974 RMK SLP073 T02610236 57003 IEM_DS3505
ZGSZ,2007-06-17 19:00,ZGSZ 171900Z AUTO 12004KT 6SM 27/24 A2974 RMK T02700240 IEM_DS3505
ZGSZ,2007-06-17 20:00,ZGSZ 172000Z AUTO 6SM 27/24 A2974 RMK T02700240 IEM_DS3505
ZGSZ,2007-06-17 21:00,ZGSZ 172100Z AUTO 07006KT 16SM 26/23 A2974 RMK 70001 SLP071 T02590230 57002 IEM_DS3505
ZGSZ,2007-06-17 22:00,ZGSZ 172200Z AUTO 10004KT 6SM 26/24 A2974 RMK T02600240 IEM_DS3505
ZGSZ,2007-06-17 23:00,ZGSZ 172300Z AUTO 11006KT 6SM 27/24 A2974 RMK T02700240 IEM_DS3505
ZGSZ,2007-06-18 00:00,ZGSZ 180000Z AUTO 09004KT 19SM 28/24 A2977 RMK SLP080 T02830237 52009 IEM_DS3505
ZGSZ,2007-06-18 01:00,ZGSZ 180100Z AUTO 15004KT 7SM 30/24 A2977 RMK T03000240 IEM_DS3505
ZGSZ,2007-06-18 02:00,ZGSZ 180200Z AUTO 18006KT 7SM 31/25 A2977 RMK T03100250 IEM_DS3505
ZGSZ,2007-06-18 03:00,ZGSZ 180300Z AUTO 20002KT 19SM 31/24 A2977 RMK SLP086 T03140238 52006 IEM_DS3505
ZGSZ,2007-06-18 04:00,ZGSZ 180400Z AUTO 21006KT 7SM 31/26 A2977 RMK T03100260 IEM_DS3505
ZGSZ,2007-06-18 05:00,ZGSZ 180500Z AUTO 19012KT 7SM 31/26 A2974 RMK T03100260 IEM_DS3505
ZGSZ,2007-06-18 06:00,ZGSZ 180600Z AUTO 20004KT 19SM 32/25 A2974 RMK SLP070 T03230246 57015 IEM_DS3505
ZGSZ,2007-06-18 07:00,ZGSZ 180700Z AUTO 19010KT 7SM 29/26 A2971 RMK T02900260 IEM_DS3505
ZGSZ,2007-06-18 08:00,ZGSZ 180800Z AUTO 20010KT 7SM 31/27 A2968 RMK T03100270 IEM_DS3505
ZGSZ,2007-06-18 09:00,ZGSZ 180900Z AUTO 11004KT 19SM 30/24 A2968 RMK SLP056 T02980240 57015 IEM_DS3505
ZGSZ,2007-06-18 10:00,ZGSZ 181000Z AUTO 20008KT 7SM 29/26 A2968 RMK T02900260 IEM_DS3505
ZGSZ,2007-06-18 11:00,ZGSZ 181100Z AUTO 21008KT 6SM 29/26 A2971 RMK T02900260 IEM_DS3505
ZGSZ,2007-06-18 12:00,ZGSZ 181200Z AUTO 14002KT 12SM 28/24 A2971 RMK SLP067 T02830241 52011 IEM_DS3505
ZGSZ,2007-06-18 13:00,ZGSZ 181300Z AUTO 17004KT 6SM 28/26 A2971 RMK T02800260 IEM_DS3505
ZGSZ,2007-06-18 14:00,ZGSZ 181400Z AUTO 16004KT 6SM 28/25 A2974 RMK T02800250 IEM_DS3505
ZGSZ,2007-06-18 15:00,ZGSZ 181500Z AUTO 09002KT 6SM 27/24 A2974 RMK SLP077 T02720241 52011 IEM_DS3505
ZGSZ,2007-06-18 16:00,ZGSZ 181600Z AUTO 11006KT 6SM 28/25 A2974 RMK T02800250 IEM_DS3505
ZGSZ,2007-06-18 17:00,ZGSZ 181700Z AUTO 11006KT 6SM 28/25 A2974 RMK T02800250 IEM_DS3505
ZGSZ,2007-06-18 18:00,ZGSZ 181800Z AUTO 11004KT 7SM 27/24 A2974 RMK SLP070 T02690242 57007 IEM_DS3505
ZGSZ,2007-06-18 19:00,ZGSZ 181900Z AUTO 10004KT 6SM 27/24 A2974 RMK T02700240 IEM_DS3505
ZGSZ,2007-06-18 20:00,ZGSZ 182000Z AUTO 09002KT 6SM 27/24 A2974 RMK T02700240 IEM_DS3505
ZGSZ,2007-06-18 21:00,ZGSZ 182100Z AUTO 36002KT 6SM 26/24 A2974 RMK SLP078 T02640241 52007 IEM_DS3505
ZGSZ,2007-06-18 22:00,ZGSZ 182200Z AUTO 00000KT 6SM 27/25 A2977 RMK T02700250 IEM_DS3505
ZGSZ,2007-06-18 23:00,ZGSZ 182300Z AUTO 03002KT 6SM 27/25 A2980 RMK T02700250 IEM_DS3505
ZGSZ,2007-06-19 00:00,ZGSZ 190000Z AUTO 09004KT 6SM 28/24 A2980 RMK SLP093 T02850245 52015 IEM_DS3505
ZGSZ,2007-06-19 01:00,ZGSZ 190100Z AUTO 7SM 31/25 A2980 RMK T03100250 IEM_DS3505
ZGSZ,2007-06-19 02:00,ZGSZ 190200Z AUTO 7SM 32/24 A2980 RMK T03200240 IEM_DS3505
ZGSZ,2007-06-19 03:00,ZGSZ 190300Z AUTO 32002KT 7SM 32/25 A2980 RMK SLP095 T03160247 52002 IEM_DS3505
ZGSZ,2007-06-19 04:00,ZGSZ 190400Z AUTO 27006KT 4SM 31/26 A2980 RMK T03100260 IEM_DS3505
ZGSZ,2007-06-19 05:00,ZGSZ 190500Z AUTO 22006KT 4SM 31/26 A2977 RMK T03100260 IEM_DS3505
ZGSZ,2007-06-19 06:00,ZGSZ 190600Z AUTO 19008KT 17SM 30/23 A2974 RMK 60000 SLP082 T03000227 57013 IEM_DS3505
ZGSZ,2007-06-19 07:00,ZGSZ 190700Z AUTO 20008KT 7SM 31/26 A2974 RMK T03100260 IEM_DS3505
ZGSZ,2007-06-19 08:00,ZGSZ 190800Z AUTO 20008KT 6SM 31/26 A2971 RMK T03100260 IEM_DS3505
ZGSZ,2007-06-19 09:00,ZGSZ 190900Z AUTO 22004KT 17SM 32/25 A2971 RMK SLP059 T03200251 57022 IEM_DS3505
ZGSZ,2007-06-19 10:00,ZGSZ 191000Z AUTO 20006KT 6SM 29/26 A2968 RMK T02900260 IEM_DS3505
ZGSZ,2007-06-19 11:00,ZGSZ 191100Z AUTO 18006KT 6SM 29/26 A2971 RMK T02900260 IEM_DS3505
ZGSZ,2007-06-19 12:00,ZGSZ 191200Z AUTO 18004KT 16SM 29/24 A2971 RMK SLP069 T02880237 52009 IEM_DS3505
ZGSZ,2007-06-19 13:00,ZGSZ 191300Z AUTO 19008KT 6SM 28/26 A2974 RMK T02800260 IEM_DS3505
ZGSZ,2007-06-19 14:00,ZGSZ 191400Z AUTO 19006KT 6SM 28/26 A2974 RMK T02800260 IEM_DS3505
ZGSZ,2007-06-19 15:00,ZGSZ 191500Z AUTO 04004KT 12SM 28/24 A2977 RMK SLP083 T02810241 52015 IEM_DS3505
ZGSZ,2007-06-19 16:00,ZGSZ 191600Z AUTO 10006KT 6SM 29/25 A2977 RMK T02900250 IEM_DS3505
ZGSZ,2007-06-19 17:00,ZGSZ 191700Z AUTO 10006KT 6SM 28/24 A2974 RMK T02800240 IEM_DS3505
ZGSZ,2007-06-19 18:00,ZGSZ 191800Z AUTO 09002KT 12SM 28/24 A2974 RMK SLP077 T02750241 57007 IEM_DS3505
ZGSZ,2007-06-19 19:00,ZGSZ 191900Z AUTO 09004KT 6SM 28/24 A2974 RMK T02800240 IEM_DS3505
ZGSZ,2007-06-19 20:00,ZGSZ 192000Z AUTO 00000KT 6SM 27/24 A2974 RMK T02700240 IEM_DS3505
ZGSZ,2007-06-19 21:00,ZGSZ 192100Z AUTO 34002KT 9SM 27/24 A2974 RMK 70000 SLP077 T02670242 52001 IEM_DS3505
ZGSZ,2007-06-19 22:00,ZGSZ 192200Z AUTO 00000KT 6SM 27/25 A2977 RMK T02700250 IEM_DS3505
ZGSZ,2007-06-19 23:00,ZGSZ 192300Z AUTO 00000KT 6SM 28/26 A2977 RMK T02800260 IEM_DS3505
ZGSZ,2007-06-20 00:00,ZGSZ 200000Z AUTO 02004KT 9SM 29/24 A2977 RMK 70000 SLP089 T02910242 52011 IEM_DS3505
ZGSZ,2007-06-20 01:00,ZGSZ 200100Z AUTO 23004KT 7SM 30/26 A2977 RMK T03000260 IEM_DS3505
ZGSZ,2007-06-20 02:00,ZGSZ 200200Z AUTO 25004KT 7SM 30/25 A2977 RMK T03000250 IEM_DS3505
ZGSZ,2007-06-20 03:00,ZGSZ 200300Z AUTO 04004KT 16SM 32/24 A2980 RMK SLP088 T03200243 54000 IEM_DS3505
ZGSZ,2007-06-20 04:00,ZGSZ 200400Z AUTO 23008KT 7SM 32/25 A2977 RMK T03200250 IEM_DS3505
ZGSZ,2007-06-20 05:00,ZGSZ 200500Z AUTO 23006KT 7SM 32/26 A2977 RMK T03200260 IEM_DS3505
ZGSZ,2007-06-20 06:00,ZGSZ 200600Z AUTO 22004KT 19SM 30/25 A2974 RMK SLP081 T03010252 57008 IEM_DS3505
ZGSZ,2007-06-20 07:00,ZGSZ 200700Z AUTO 18010KT 7SM 31/26 A2974 RMK T03100260 IEM_DS3505
ZGSZ,2007-06-20 08:00,ZGSZ 200800Z AUTO 20010KT 7SM 31/26 A2971 RMK T03100260 IEM_DS3505
ZGSZ,2007-06-20 09:00,ZGSZ 200900Z AUTO 16004KT 17SM 32/24 A2971 RMK SLP066 T03210242 57014 IEM_DS3505
ZGSZ,2007-06-20 10:00,ZGSZ 201000Z AUTO 20008KT 6SM 30/26 A2971 RMK T03000260 IEM_DS3505
ZGSZ,2007-06-20 11:00,ZGSZ 201100Z AUTO 19010KT 6SM 29/26 A2971 RMK T02900260 IEM_DS3505
ZGSZ,2007-06-20 12:00,ZGSZ 201200Z AUTO 14002KT 16SM 29/24 A2971 RMK SLP069 T02890238 52003 IEM_DS3505
ZGSZ,2007-06-20 13:00,ZGSZ 201300Z AUTO 19006KT 6SM 28/26 A2974 RMK T02800260 IEM_DS3505
ZGSZ,2007-06-20 14:00,ZGSZ 201400Z AUTO 19004KT 6SM 28/26 A2974 RMK T02800260 IEM_DS3505
ZGSZ,2007-06-20 15:00,ZGSZ 201500Z AUTO 09004KT 12SM 28/24 A2977 RMK SLP083 T02820240 52014 IEM_DS3505
ZGSZ,2007-06-20 16:00,ZGSZ 201600Z AUTO 6SM 28/26 A2977 RMK T02800260 IEM_DS3505
ZGSZ,2007-06-20 17:00,ZGSZ 201700Z AUTO 12006KT 6SM 29/25 A2977 RMK T02900250 IEM_DS3505
ZGSZ,2007-06-20 18:00,ZGSZ 201800Z AUTO 09004KT 11SM 28/24 A2977 RMK SLP082 T02760242 57002 IEM_DS3505
ZGSZ,2007-06-20 19:00,ZGSZ 201900Z AUTO 11006KT 6SM 28/25 A2974 RMK T02800250 IEM_DS3505
ZGSZ,2007-06-20 20:00,ZGSZ 202000Z AUTO 06002KT 6SM 28/25 A2974 RMK T02800250 IEM_DS3505
ZGSZ,2007-06-20 21:00,ZGSZ 202100Z AUTO 09002KT 12SM 27/24 A2977 RMK SLP078 T02720241 57003 IEM_DS3505
ZGSZ,2007-06-20 22:00,ZGSZ 202200Z AUTO 00000KT 6SM 28/24 A2977 RMK T02800240 IEM_DS3505
ZGSZ,2007-06-20 23:00,ZGSZ 202300Z AUTO 00000KT 6SM 29/25 A2977 RMK T02900250 IEM_DS3505
ZGSZ,2007-06-21 00:00,ZGSZ 210000Z AUTO 22002KT 16SM 29/24 A2980 RMK SLP092 T02860242 52013 IEM_DS3505
ZGSZ,2007-06-21 01:00,ZGSZ 210100Z AUTO 25004KT 7SM 29/26 A2980 RMK T02900260 IEM_DS3505
ZGSZ,2007-06-21 02:00,ZGSZ 210200Z AUTO 26006KT 7SM 30/25 A2980 RMK T03000250 IEM_DS3505
ZGSZ,2007-06-21 03:00,ZGSZ 210300Z AUTO 16004KT 17SM 32/23 A2977 RMK SLP087 T03230233 57004 IEM_DS3505
ZGSZ,2007-06-21 04:00,ZGSZ 210400Z AUTO 25006KT 7SM 32/25 A2977 RMK T03200250 IEM_DS3505
ZGSZ,2007-06-21 05:00,ZGSZ 210500Z AUTO 24006KT 6SM 32/26 A2974 RMK T03200260 IEM_DS3505
ZGSZ,2007-06-21 06:00,ZGSZ 210600Z AUTO 22004KT 16SM 33/24 A2971 RMK SLP065 T03300242 57022 IEM_DS3505
ZGSZ,2007-06-21 07:00,ZGSZ 210700Z AUTO 21008KT 6SM 32/25 A2971 RMK T03200250 IEM_DS3505
ZGSZ,2007-06-21 08:00,ZGSZ 210800Z AUTO 20010KT 6SM 32/26 A2968 RMK T03200260 IEM_DS3505
ZGSZ,2007-06-21 09:00,ZGSZ 210900Z AUTO 22006KT 19SM 31/25 A2968 RMK SLP059 T03140248 57006 IEM_DS3505
ZGSZ,2007-06-21 10:00,ZGSZ 211000Z AUTO 18012KT 6SM 30/26 A2968 RMK T03000260 IEM_DS3505
ZGSZ,2007-06-21 11:00,ZGSZ 211100Z AUTO 19010KT 6SM 30/26 A2971 RMK T03000260 IEM_DS3505
ZGSZ,2007-06-21 12:00,ZGSZ 211200Z AUTO 16002KT 17SM 29/25 A2971 RMK SLP070 T02910247 52010 IEM_DS3505
ZGSZ,2007-06-21 13:00,ZGSZ 211300Z AUTO 18010KT 6SM 29/26 A2974 RMK T02900260 IEM_DS3505
ZGSZ,2007-06-21 14:00,ZGSZ 211400Z AUTO 18010KT 6SM 29/26 A2974 RMK T02900260 IEM_DS3505
ZGSZ,2007-06-21 15:00,ZGSZ 211500Z AUTO 14002KT 12SM 28/24 A2974 RMK SLP080 T02840242 52011 IEM_DS3505
ZGSZ,2007-06-21 16:00,ZGSZ 211600Z AUTO 18008KT 6SM 29/26 A2977 RMK T02900260 IEM_DS3505
ZGSZ,2007-06-21 17:00,ZGSZ 211700Z AUTO 15008KT 6SM 29/25 A2977 RMK T02900250 IEM_DS3505
ZGSZ,2007-06-21 18:00,ZGSZ 211800Z AUTO 14002KT 14SM 28/24 A2974 RMK SLP078 T02790239 57002 IEM_DS3505
ZGSZ,2007-06-21 19:00,ZGSZ 211900Z AUTO 15006KT 6SM 28/25 A2974 RMK T02800250 IEM_DS3505
ZGSZ,2007-06-21 20:00,ZGSZ 212000Z AUTO 09004KT 6SM 28/24 A2974 RMK T02800240 IEM_DS3505
ZGSZ,2007-06-21 21:00,ZGSZ 212100Z AUTO 14002KT 16SM 28/24 A2974 RMK SLP077 T02780244 57001 IEM_DS3505
ZGSZ,2007-06-21 22:00,ZGSZ 212200Z AUTO 00000KT 6SM 28/25 A2977 RMK T02800250 IEM_DS3505
ZGSZ,2007-06-21 23:00,ZGSZ 212300Z AUTO 00000KT 6SM 30/25 A2977 RMK T03000250 IEM_DS3505
ZGSZ,2007-06-22 00:00,ZGSZ 220000Z AUTO 36002KT 19SM 30/24 A2977 RMK SLP085 T02980244 52008 IEM_DS3505
ZGSZ,2007-06-22 01:00,ZGSZ 220100Z AUTO 24004KT 7SM 30/25 A2977 RMK T03000250 IEM_DS3505
ZGSZ,2007-06-22 02:00,ZGSZ 220200Z AUTO 24004KT 7SM 31/25 A2977 RMK T03100250 IEM_DS3505
ZGSZ,2007-06-22 03:00,ZGSZ 220300Z AUTO 20004KT 19SM 33/23 A2977 RMK SLP083 T03260230 57002 IEM_DS3505
ZGSZ,2007-06-22 04:00,ZGSZ 220400Z AUTO 24004KT 7SM 32/26 A2977 RMK T03200260 IEM_DS3505
ZGSZ,2007-06-22 05:00,ZGSZ 220500Z AUTO 22008KT 7SM 32/25 A2974 RMK T03200250 IEM_DS3505
ZGSZ,2007-06-22 06:00,ZGSZ 220600Z AUTO 20010KT 19SM 32/24 A2974 RMK SLP068 T03240244 57015 IEM_DS3505
ZGSZ,2007-06-22 07:00,ZGSZ 220700Z AUTO 20010KT 7SM 32/26 A2971 RMK T03200260 IEM_DS3505
ZGSZ,2007-06-22 08:00,ZGSZ 220800Z AUTO 18010KT 7SM 32/26 A2971 RMK T03200260 IEM_DS3505
ZGSZ,2007-06-22 09:00,ZGSZ 220900Z AUTO 22006KT 19SM 31/24 A2971 RMK SLP063 T03140245 57005 IEM_DS3505
ZGSZ,2007-06-22 10:00,ZGSZ 221000Z AUTO 18012KT 7SM 30/26 A2971 RMK T03000260 IEM_DS3505
ZGSZ,2007-06-22 11:00,ZGSZ 221100Z AUTO 18010KT 6SM 30/26 A2971 RMK T03000260 IEM_DS3505
ZGSZ,2007-06-22 12:00,ZGSZ 221200Z AUTO 11004KT 19SM 29/24 A2974 RMK SLP073 T02930242 52010 IEM_DS3505
ZGSZ,2007-06-22 13:00,ZGSZ 221300Z AUTO 19008KT 6SM 29/26 A2974 RMK T02900260 IEM_DS3505
ZGSZ,2007-06-22 14:00,ZGSZ 221400Z AUTO 17008KT 6SM 29/26 A2977 RMK T02900260 IEM_DS3505
ZGSZ,2007-06-22 15:00,ZGSZ 221500Z AUTO 18004KT 19SM 28/24 A2980 RMK SLP091 T02850245 52018 IEM_DS3505
ZGSZ,2007-06-22 16:00,ZGSZ 221600Z AUTO 18008KT 6SM 29/26 A2980 RMK T02900260 IEM_DS3505
ZGSZ,2007-06-22 17:00,ZGSZ 221700Z AUTO 19006KT 6SM 29/25 A2980 RMK T02900250 IEM_DS3505
ZGSZ,2007-06-22 18:00,ZGSZ 221800Z AUTO 16002KT 16SM 28/24 A2977 RMK SLP085 T02810241 57006 IEM_DS3505
ZGSZ,2007-06-22 19:00,ZGSZ 221900Z AUTO 17006KT 6SM 28/25 A2977 RMK T02800250 IEM_DS3505
ZGSZ,2007-06-22 20:00,ZGSZ 222000Z AUTO 17006KT 7SM 29/26 A2977 RMK T02900260 IEM_DS3505
ZGSZ,2007-06-22 21:00,ZGSZ 222100Z AUTO 11002KT 16SM 27/25 A2977 RMK SLP082 T02730246 57003 IEM_DS3505
ZGSZ,2007-06-22 22:00,ZGSZ 222200Z AUTO 15004KT 6SM 28/26 A2977 RMK T02800260 IEM_DS3505
ZGSZ,2007-06-22 23:00,ZGSZ 222300Z AUTO 6SM 29/26 A2980 RMK T02900260 IEM_DS3505
ZGSZ,2007-06-23 00:00,ZGSZ 230000Z AUTO 25002KT 19SM 30/24 A2980 RMK SLP097 T02980242 52014 IEM_DS3505
ZGSZ,2007-06-23 01:00,ZGSZ 230100Z AUTO 7SM 30/26 A2980 RMK T03000260 IEM_DS3505
ZGSZ,2007-06-23 02:00,ZGSZ 230200Z AUTO 21004KT 7SM 31/26 A2983 RMK T03100260 IEM_DS3505
ZGSZ,2007-06-23 03:00,ZGSZ 230300Z AUTO 22006KT 19SM 32/22 A2983 RMK SLP102 T03250223 52006 IEM_DS3505
ZGSZ,2007-06-23 04:00,ZGSZ 230400Z AUTO 18006KT 6SM 32/26 A2980 RMK T03200260 IEM_DS3505
ZGSZ,2007-06-23 05:00,ZGSZ 230500Z AUTO 18008KT 6SM 32/26 A2980 RMK T03200260 IEM_DS3505
ZGSZ,2007-06-23 06:00,ZGSZ 230600Z AUTO 22008KT 19SM 33/23 A2977 RMK SLP088 T03300231 57014 IEM_DS3505
ZGSZ,2007-06-23 07:00,ZGSZ 230700Z AUTO 18012KT 6SM 32/27 A2977 RMK T03200270 IEM_DS3505
ZGSZ,2007-06-23 08:00,ZGSZ 230800Z AUTO 18014KT 6SM 32/27 A2974 RMK T03200270 IEM_DS3505
ZGSZ,2007-06-23 09:00,ZGSZ 230900Z AUTO 22008KT 19SM 31/25 A2974 RMK SLP071 T03110250 57017 IEM_DS3505
ZGSZ,2007-06-23 10:00,ZGSZ 231000Z AUTO 18010KT 6SM 31/27 A2974 RMK T03100270 IEM_DS3505
ZGSZ,2007-06-23 11:00,ZGSZ 231100Z AUTO 17012KT 6SM 30/26 A2974 RMK T03000260 IEM_DS3505
ZGSZ,2007-06-23 12:00,ZGSZ 231200Z AUTO 22008KT 19SM 30/25 A2974 RMK SLP080 T02970248 52009 IEM_DS3505
ZGSZ,2007-06-23 13:00,ZGSZ 231300Z AUTO 17010KT 6SM 30/27 A2977 RMK T03000270 IEM_DS3505
ZGSZ,2007-06-23 14:00,ZGSZ 231400Z AUTO 17010KT 7SM 30/27 A2977 RMK T03000270 IEM_DS3505
ZGSZ,2007-06-23 15:00,ZGSZ 231500Z AUTO 20004KT 19SM 29/25 A2980 RMK SLP096 T02900254 52016 IEM_DS3505
ZGSZ,2007-06-23 16:00,ZGSZ 231600Z AUTO 18010KT 7SM 29/27 A2980 RMK T02900270 IEM_DS3505
ZGSZ,2007-06-23 17:00,ZGSZ 231700Z AUTO 17010KT 7SM 29/26 A2977 RMK T02900260 IEM_DS3505
ZGSZ,2007-06-23 18:00,ZGSZ 231800Z AUTO 22002KT 19SM 29/25 A2977 RMK SLP083 T02870247 57013 IEM_DS3505
ZGSZ,2007-06-23 19:00,ZGSZ 231900Z AUTO 18006KT 7SM 29/27 A2977 RMK T02900270 IEM_DS3505
ZGSZ,2007-06-23 20:00,ZGSZ 232000Z AUTO 20004KT 6SM 29/27 A2977 RMK T02900270 IEM_DS3505
ZGSZ,2007-06-23 21:00,ZGSZ 232100Z AUTO 20006KT 19SM 29/26 A2977 RMK SLP085 T02860256 52002 IEM_DS3505
ZGSZ,2007-06-23 22:00,ZGSZ 232200Z AUTO 18006KT 7SM 29/26 A2977 RMK T02900260 IEM_DS3505
ZGSZ,2007-06-23 23:00,ZGSZ 232300Z AUTO 18002KT 7SM 29/27 A2980 RMK T02900270 IEM_DS3505
ZGSZ,2007-06-24 00:00,ZGSZ 240000Z AUTO 20004KT 19SM 30/26 A2980 RMK SLP092 T02990261 52007 IEM_DS3505
ZGSZ,2007-06-24 01:00,ZGSZ 240100Z AUTO 7SM 30/26 A2980 RMK T03000260 IEM_DS3505
ZGSZ,2007-06-24 02:00,ZGSZ 240200Z AUTO 22004KT 7SM 31/26 A2980 RMK T03100260 IEM_DS3505
ZGSZ,2007-06-24 03:00,ZGSZ 240300Z AUTO 20004KT 19SM 32/25 A2980 RMK SLP088 T03230249 57004 IEM_DS3505
ZGSZ,2007-06-24 04:00,ZGSZ 240400Z AUTO 21004KT 7SM 32/25 A2977 RMK T03200250 IEM_DS3505
ZGSZ,2007-06-24 05:00,ZGSZ 240500Z AUTO 18008KT 6SM 33/26 A2974 RMK T03300260 IEM_DS3505
ZGSZ,2007-06-24 06:00,ZGSZ 240600Z AUTO 22008KT 19SM 32/24 A2974 RMK SLP073 T03240244 57015 IEM_DS3505
ZGSZ,2007-06-24 07:00,ZGSZ 240700Z AUTO 18012KT 6SM 33/27 A2971 RMK T03300270 IEM_DS3505
ZGSZ,2007-06-24 08:00,ZGSZ 240800Z AUTO 17014KT 6SM 32/27 A2968 RMK T03200270 IEM_DS3505
ZGSZ,2007-06-24 09:00,ZGSZ 240900Z AUTO 22014KT 19SM 31/25 A2968 RMK SLP057 T03100254 57016 IEM_DS3505
ZGSZ,2007-06-24 10:00,ZGSZ 241000Z AUTO 17016KT 6SM 31/27 A2968 RMK T03100270 IEM_DS3505
ZGSZ,2007-06-24 11:00,ZGSZ 241100Z AUTO 17014KT 6SM 30/27 A2968 RMK T03000270 IEM_DS3505
ZGSZ,2007-06-24 12:00,ZGSZ 241200Z AUTO 22006KT 19SM 30/25 A2971 RMK SLP063 T02960254 52006 IEM_DS3505
ZGSZ,2007-06-24 13:00,ZGSZ 241300Z AUTO 17014KT 6SM 30/26 A2971 RMK T03000260 IEM_DS3505
ZGSZ,2007-06-24 14:00,ZGSZ 241400Z AUTO 17012KT 6SM 30/27 A2974 RMK T03000270 IEM_DS3505
ZGSZ,2007-06-24 15:00,ZGSZ 241500Z AUTO 22012KT 19SM 29/25 A2974 RMK SLP079 T02930253 52016 IEM_DS3505
ZGSZ,2007-06-24 16:00,ZGSZ 241600Z AUTO 18010KT 7SM 29/27 A2974 RMK T02900270 IEM_DS3505
ZGSZ,2007-06-24 17:00,ZGSZ 241700Z AUTO 17010KT 7SM 30/27 A2971 RMK T03000270 IEM_DS3505
ZGSZ,2007-06-24 18:00,ZGSZ 241800Z AUTO 22010KT 19SM 29/25 A2971 RMK SLP064 T02900250 57015 IEM_DS3505
ZGSZ,2007-06-24 19:00,ZGSZ 241900Z AUTO 18010KT 7SM 29/26 A2971 RMK T02900260 IEM_DS3505
ZGSZ,2007-06-24 20:00,ZGSZ 242000Z AUTO 19006KT 7SM 29/26 A2971 RMK T02900260 IEM_DS3505
ZGSZ,2007-06-24 21:00,ZGSZ 242100Z AUTO 22006KT 19SM 29/26 A2971 RMK SLP063 T02880258 57001 IEM_DS3505
ZGSZ,2007-06-24 22:00,ZGSZ 242200Z AUTO 19004KT 7SM 29/26 A2971 RMK T02900260 IEM_DS3505
ZGSZ,2007-06-24 23:00,ZGSZ 242300Z AUTO 20004KT 7SM 29/26 A2974 RMK T02900260 IEM_DS3505
ZGSZ,2007-06-25 00:00,ZGSZ 250000Z AUTO 22006KT 19SM 29/26 A2974 RMK SLP072 T02890259 52009 IEM_DS3505
ZGSZ,2007-06-25 01:00,ZGSZ 250100Z AUTO 7SM 31/26 A2974 RMK T03100260 IEM_DS3505
ZGSZ,2007-06-25 02:00,ZGSZ 250200Z AUTO 18006KT 7SM 31/26 A2974 RMK T03100260 IEM_DS3505
ZGSZ,2007-06-25 03:00,ZGSZ 250300Z AUTO 20006KT 19SM 32/25 A2971 RMK SLP069 T03200246 57003 IEM_DS3505
ZGSZ,2007-06-25 04:00,ZGSZ 250400Z AUTO 17010KT 7SM 32/27 A2971 RMK T03200270 IEM_DS3505
ZGSZ,2007-06-25 05:00,ZGSZ 250500Z AUTO 18014KT 7SM 32/27 A2968 RMK T03200270 IEM_DS3505
ZGSZ,2007-06-25 06:00,ZGSZ 250600Z AUTO 20006KT 19SM 32/25 A2965 RMK SLP049 T03240250 57020 IEM_DS3505
ZGSZ,2007-06-25 07:00,ZGSZ 250700Z AUTO 17016KT 7SM 32/27 A2965 RMK T03200270 IEM_DS3505
ZGSZ,2007-06-25 08:00,ZGSZ 250800Z AUTO 18016KT 7SM 32/26 A2962 RMK T03200260 IEM_DS3505
ZGSZ,2007-06-25 09:00,ZGSZ 250900Z AUTO 20010KT 19SM 31/25 A2962 RMK SLP036 T03140250 57013 IEM_DS3505
ZGSZ,2007-06-25 10:00,ZGSZ 251000Z AUTO 17016KT 6SM 31/26 A2962 RMK T03100260 IEM_DS3505
ZGSZ,2007-06-25 11:00,ZGSZ 251100Z AUTO 17014KT 6SM 30/26 A2962 RMK T03000260 IEM_DS3505
ZGSZ,2007-06-25 12:00,ZGSZ 251200Z AUTO 22006KT 19SM 30/24 A2965 RMK SLP043 T02980244 52007 IEM_DS3505
ZGSZ,2007-06-25 13:00,ZGSZ 251300Z AUTO 17012KT 7SM 30/26 A2965 RMK T03000260 IEM_DS3505
ZGSZ,2007-06-25 14:00,ZGSZ 251400Z AUTO 18012KT 7SM 30/26 A2968 RMK T03000260 IEM_DS3505
ZGSZ,2007-06-25 15:00,ZGSZ 251500Z AUTO 25002KT 19SM 29/26 A2971 RMK SLP063 T02910255 52020 IEM_DS3505
ZGSZ,2007-06-25 16:00,ZGSZ 251600Z AUTO 18014KT 7SM 29/26 A2971 RMK T02900260 IEM_DS3505
ZGSZ,2007-06-25 17:00,ZGSZ 251700Z AUTO 17010KT 7SM 29/27 A2968 RMK T02900270 IEM_DS3505
ZGSZ,2007-06-25 18:00,ZGSZ 251800Z AUTO 16006KT 19SM 28/25 A2968 RMK SLP051 T02850251 57012 IEM_DS3505
ZGSZ,2007-06-25 19:00,ZGSZ 251900Z AUTO 20010KT 7SM 29/25 A2965 RMK T02900250 IEM_DS3505
ZGSZ,2007-06-25 20:00,ZGSZ 252000Z AUTO 18006KT 7SM 29/26 A2965 RMK T02900260 IEM_DS3505
ZGSZ,2007-06-25 21:00,ZGSZ 252100Z AUTO 07002KT 16SM 27/25 A2962 RMK 70022 SLP039 T02700246 57012 IEM_DS3505
ZGSZ,2007-06-25 22:00,ZGSZ 252200Z AUTO 17006KT 7SM 29/26 A2962 RMK T02900260 IEM_DS3505
ZGSZ,2007-06-25 23:00,ZGSZ 252300Z AUTO 16006KT 7SM 29/26 A2965 RMK T02900260 IEM_DS3505
ZGSZ,2007-06-26 00:00,ZGSZ 260000Z AUTO 16004KT 19SM 30/25 A2965 RMK 60024 70022 SLP048 T03030254 52009 IEM_DS3505
ZGSZ,2007-06-26 01:00,ZGSZ 260100Z AUTO 17006KT 7SM 31/26 A2968 RMK T03100260 IEM_DS3505
ZGSZ,2007-06-26 02:00,ZGSZ 260200Z AUTO 18006KT 7SM 31/27 A2968 RMK T03100270 IEM_DS3505
ZGSZ,2007-06-26 03:00,ZGSZ 260300Z AUTO 16004KT 19SM 33/25 A2968 RMK SLP054 T03270250 52006 IEM_DS3505
ZGSZ,2007-06-26 04:00,ZGSZ 260400Z AUTO 19010KT 7SM 32/27 A2965 RMK T03200270 IEM_DS3505
ZGSZ,2007-06-26 05:00,ZGSZ 260500Z AUTO 21008KT 7SM 32/27 A2965 RMK T03200270 IEM_DS3505
ZGSZ,2007-06-26 06:00,ZGSZ 260600Z AUTO 07008KT 19SM 30/25 A2962 RMK 60000 SLP040 T02970248 57014 IEM_DS3505
ZGSZ,2007-06-26 07:00,ZGSZ 260700Z AUTO 18014KT 7SM 32/27 A2959 RMK T03200270 IEM_DS3505
ZGSZ,2007-06-26 08:00,ZGSZ 260800Z AUTO 18016KT 7SM 32/27 A2959 RMK T03200270 IEM_DS3505
ZGSZ,2007-06-26 09:00,ZGSZ 260900Z AUTO 32002KT 19SM 32/25 A2959 RMK SLP025 T03250248 57015 IEM_DS3505
ZGSZ,2007-06-26 10:00,ZGSZ 261000Z AUTO 18014KT 7SM 31/26 A2959 RMK T03100260 IEM_DS3505
ZGSZ,2007-06-26 11:00,ZGSZ 261100Z AUTO 17016KT 7SM 30/26 A2962 RMK T03000260 IEM_DS3505
ZGSZ,2007-06-26 12:00,ZGSZ 261200Z AUTO 20004KT 19SM 30/25 A2965 RMK SLP044 T02950248 52019 IEM_DS3505
ZGSZ,2007-06-26 13:00,ZGSZ 261300Z AUTO 17010KT 7SM 30/26 A2965 RMK T03000260 IEM_DS3505
ZGSZ,2007-06-26 14:00,ZGSZ 261400Z AUTO 15010KT 7SM 30/26 A2968 RMK T03000260 IEM_DS3505
ZGSZ,2007-06-26 15:00,ZGSZ 261500Z AUTO 16002KT 19SM 28/25 A2968 RMK SLP053 T02850251 52009 IEM_DS3505
ZGSZ,2007-06-26 16:00,ZGSZ 261600Z AUTO 17010KT 7SM 29/26 A2965 RMK T02900260 IEM_DS3505
ZGSZ,2007-06-26 17:00,ZGSZ 261700Z AUTO 17012KT 7SM 29/26 A2965 RMK T02900260 IEM_DS3505
ZGSZ,2007-06-26 18:00,ZGSZ 261800Z AUTO 16004KT 19SM 28/25 A2962 RMK SLP035 T02820250 57018 IEM_DS3505
ZGSZ,2007-06-26 19:00,ZGSZ 261900Z AUTO 17010KT 7SM 29/26 A2962 RMK T02900260 IEM_DS3505
ZGSZ,2007-06-26 20:00,ZGSZ 262000Z AUTO 16008KT 7SM 29/26 A2962 RMK T02900260 IEM_DS3505
ZGSZ,2007-06-26 21:00,ZGSZ 262100Z AUTO 11006KT 17SM 28/25 A2962 RMK 70000 SLP038 T02810251 52003 IEM_DS3505
ZGSZ,2007-06-26 22:00,ZGSZ 262200Z AUTO 17008KT 7SM 29/26 A2962 RMK T02900260 IEM_DS3505
ZGSZ,2007-06-26 23:00,ZGSZ 262300Z AUTO 17006KT 7SM 29/25 A2965 RMK T02900250 IEM_DS3505
ZGSZ,2007-06-27 00:00,ZGSZ 270000Z AUTO 09002KT 19SM 29/25 A2968 RMK 70000 SLP049 T02940247 52011 IEM_DS3505
ZGSZ,2007-06-27 01:00,ZGSZ 270100Z AUTO 16006KT 7SM 30/25 A2968 RMK T03000250 IEM_DS3505
ZGSZ,2007-06-27 02:00,ZGSZ 270200Z AUTO 17008KT 7SM 29/25 A2968 RMK T02900250 IEM_DS3505
ZGSZ,2007-06-27 03:00,ZGSZ 270300Z AUTO 22004KT 16SM 30/25 A2968 RMK SLP055 T03050253 52006 IEM_DS3505
ZGSZ,2007-06-27 04:00,ZGSZ 270400Z AUTO 17010KT 7SM 32/26 A2965 RMK T03200260 IEM_DS3505
ZGSZ,2007-06-27 05:00,ZGSZ 270500Z AUTO 17008KT 7SM 31/26 A2968 RMK T03100260 IEM_DS3505
ZGSZ,2007-06-27 06:00,ZGSZ 270600Z AUTO 18004KT 19SM 30/25 A2965 RMK SLP043 T03050249 57012 IEM_DS3505
ZGSZ,2007-06-27 07:00,ZGSZ 270700Z AUTO 17008KT 7SM 32/26 A2962 RMK T03200260 IEM_DS3505
ZGSZ,2007-06-27 08:00,ZGSZ 270800Z AUTO 19010KT 7SM 31/26 A2962 RMK T03100260 IEM_DS3505
ZGSZ,2007-06-27 09:00,ZGSZ 270900Z AUTO 11010KT 16SM 31/24 A2962 RMK SLP034 T03130242 57009 IEM_DS3505
ZGSZ,2007-06-27 10:00,ZGSZ 271000Z AUTO 16012KT 6SM 31/25 A2959 RMK T03100250 IEM_DS3505
ZGSZ,2007-06-27 11:00,ZGSZ 271100Z AUTO 13010KT 7SM 31/25 A2962 RMK T03100250 IEM_DS3505
ZGSZ,2007-06-27 12:00,ZGSZ 271200Z AUTO 14004KT 16SM 28/24 A2968 RMK SLP053 T02850241 52019 IEM_DS3505
ZGSZ,2007-06-27 13:00,ZGSZ 271300Z AUTO 13006KT 7SM 30/25 A2968 RMK T03000250 IEM_DS3505
ZGSZ,2007-06-27 14:00,ZGSZ 271400Z AUTO 15008KT 7SM 29/25 A2971 RMK T02900250 IEM_DS3505
ZGSZ,2007-06-27 15:00,ZGSZ 271500Z AUTO 14004KT 14SM 28/25 A2974 RMK SLP070 T02850249 52017 IEM_DS3505
ZGSZ,2007-06-27 16:00,ZGSZ 271600Z AUTO 19014KT 3SM 25/24 A2974 RMK T02500240 IEM_DS3505
ZGSZ,2007-06-27 17:00,ZGSZ 271700Z AUTO 7SM 26/25 A2968 RMK T02600250 IEM_DS3505
ZGSZ,2007-06-27 18:00,ZGSZ 271800Z AUTO 29004KT 7SM 26/24 A2968 RMK 60016 SLP052 T02560238 57019 IEM_DS3505
ZGSZ,2007-06-27 19:00,ZGSZ 271900Z AUTO 00000KT 7SM 27/25 A2968 RMK T02700250 IEM_DS3505
ZGSZ,2007-06-27 20:00,ZGSZ 272000Z AUTO 16004KT 7SM 27/25 A2968 RMK T02700250 IEM_DS3505
ZGSZ,2007-06-27 21:00,ZGSZ 272100Z AUTO 04002KT 7SM 25/23 A2965 RMK 70046 SLP053 T02460232 52001 IEM_DS3505
ZGSZ,2007-06-27 22:00,ZGSZ 272200Z AUTO 07004KT 5SM 26/24 A2968 RMK T02600240 IEM_DS3505
ZGSZ,2007-06-27 23:00,ZGSZ 272300Z AUTO 13010KT 5SM 25/24 A2971 RMK T02500240 IEM_DS3505
ZGSZ,2007-06-28 00:00,ZGSZ 280000Z AUTO 36002KT 6SM 26/24 A2971 RMK 60059 70075 SLP066 T02560242 52013 IEM_DS3505
ZGSZ,2007-06-28 01:00,ZGSZ 280100Z AUTO 20008KT 4SM 26/24 A2971 RMK T02600240 IEM_DS3505
ZGSZ,2007-06-28 02:00,ZGSZ 280200Z AUTO 16006KT 7SM 26/25 A2974 RMK T02600250 IEM_DS3505
ZGSZ,2007-06-28 03:00,ZGSZ 280300Z AUTO 02002KT 4SM 26/24 A2974 RMK SLP072 T02560242 52006 IEM_DS3505
ZGSZ,2007-06-28 04:00,ZGSZ 280400Z AUTO 7SM 27/24 A2974 RMK T02700240 IEM_DS3505
ZGSZ,2007-06-28 05:00,ZGSZ 280500Z AUTO 09004KT 7SM 28/24 A2971 RMK T02800240 IEM_DS3505
ZGSZ,2007-06-28 06:00,ZGSZ 280600Z AUTO 07004KT 9SM 26/24 A2968 RMK 60043 SLP056 T02590238 57016 IEM_DS3505
ZGSZ,2007-06-28 07:00,ZGSZ 280700Z AUTO 11008KT 7SM 28/24 A2965 RMK T02800240 IEM_DS3505
ZGSZ,2007-06-28 08:00,ZGSZ 280800Z AUTO 10008KT 7SM 29/25 A2965 RMK T02900250 IEM_DS3505
ZGSZ,2007-06-28 09:00,ZGSZ 280900Z AUTO 07006KT 16SM 27/24 A2968 RMK SLP053 T02670238 57003 IEM_DS3505
ZGSZ,2007-06-28 10:00,ZGSZ 281000Z AUTO 11008KT 7SM 28/24 A2968 RMK T02800240 IEM_DS3505
ZGSZ,2007-06-28 11:00,ZGSZ 281100Z AUTO 10008KT 7SM 28/24 A2971 RMK T02800240 IEM_DS3505
ZGSZ,2007-06-28 12:00,ZGSZ 281200Z AUTO 07004KT 16SM 27/24 A2974 RMK 60001 SLP072 T02670238 52019 IEM_DS3505
ZGSZ,2007-06-28 13:00,ZGSZ 281300Z AUTO 12006KT 6SM 28/24 A2974 RMK T02800240 IEM_DS3505
ZGSZ,2007-06-28 14:00,ZGSZ 281400Z AUTO 12006KT 6SM 28/25 A2974 RMK T02800250 IEM_DS3505
ZGSZ,2007-06-28 15:00,ZGSZ 281500Z AUTO 09004KT 16SM 27/24 A2974 RMK SLP078 T02700241 52006 IEM_DS3505
ZGSZ,2007-06-28 16:00,ZGSZ 281600Z AUTO 11006KT 7SM 28/25 A2974 RMK T02800250 IEM_DS3505
ZGSZ,2007-06-28 17:00,ZGSZ 281700Z AUTO 11006KT 7SM 27/25 A2971 RMK T02700250 IEM_DS3505
ZGSZ,2007-06-28 18:00,ZGSZ 281800Z AUTO 16004KT 16SM 26/24 A2971 RMK 60000 SLP066 T02630242 57012 IEM_DS3505
ZGSZ,2007-06-28 19:00,ZGSZ 281900Z AUTO 14006KT 3SM 27/25 A2971 RMK T02700250 IEM_DS3505
ZGSZ,2007-06-28 20:00,ZGSZ 282000Z AUTO 12004KT 7SM 27/25 A2971 RMK T02700250 IEM_DS3505
ZGSZ,2007-06-28 21:00,ZGSZ 282100Z AUTO 11002KT 9SM 25/24 A2971 RMK 70103 SLP064 T02510235 57002 IEM_DS3505
ZGSZ,2007-06-28 22:00,ZGSZ 282200Z AUTO 11004KT 7SM 26/24 A2971 RMK T02600240 IEM_DS3505
ZGSZ,2007-06-28 23:00,ZGSZ 282300Z AUTO 11006KT 3SM 25/24 A2974 RMK T02500240 IEM_DS3505
ZGSZ,2007-06-29 00:00,ZGSZ 290000Z AUTO 07006KT 16SM 26/24 A2974 RMK 60055 70102 SLP073 T02550237 52009 IEM_DS3505
ZGSZ,2007-06-29 01:00,ZGSZ 290100Z AUTO 11008KT 6SM 29/25 A2974 RMK T02900250 IEM_DS3505
ZGSZ,2007-06-29 02:00,ZGSZ 290200Z AUTO 18004KT 7SM 30/25 A2974 RMK T03000250 IEM_DS3505
ZGSZ,2007-06-29 03:00,ZGSZ 290300Z AUTO 18002KT 16SM 28/24 A2977 RMK SLP076 T02840244 52003 IEM_DS3505
ZGSZ,2007-06-29 04:00,ZGSZ 290400Z AUTO 21008KT 4SM 27/25 A2974 RMK T02700250 IEM_DS3505
ZGSZ,2007-06-29 05:00,ZGSZ 290500Z AUTO 18006KT 7SM 28/26 A2971 RMK T02800260 IEM_DS3505
ZGSZ,2007-06-29 06:00,ZGSZ 290600Z AUTO 20004KT 5SM 27/25 A2971 RMK 60031 SLP064 T02660246 57012 IEM_DS3505
ZGSZ,2007-06-29 07:00,ZGSZ 290700Z AUTO 17010KT 7SM 28/25 A2968 RMK T02800250 IEM_DS3505
ZGSZ,2007-06-29 08:00,ZGSZ 290800Z AUTO 15008KT 7SM 28/25 A2968 RMK T02800250 IEM_DS3505
ZGSZ,2007-06-29 09:00,ZGSZ 290900Z AUTO 16002KT 19SM 28/24 A2968 RMK SLP054 T02780238 57010 IEM_DS3505
ZGSZ,2007-06-29 10:00,ZGSZ 291000Z AUTO 15008KT 7SM 28/25 A2968 RMK T02800250 IEM_DS3505
ZGSZ,2007-06-29 11:00,ZGSZ 291100Z AUTO 15010G23KT 7SM 28/24 A2968 RMK T02800240 IEM_DS3505
ZGSZ,2007-06-29 12:00,ZGSZ 291200Z AUTO 18002KT 19SM 27/24 A2971 RMK 60000 SLP066 T02710238 52012 IEM_DS3505
ZGSZ,2007-06-29 13:00,ZGSZ 291300Z AUTO 15008KT 7SM 27/24 A2974 RMK T02700240 IEM_DS3505
ZGSZ,2007-06-29 14:00,ZGSZ 291400Z AUTO 11006KT 6SM 27/24 A2974 RMK T02700240 IEM_DS3505
ZGSZ,2007-06-29 15:00,ZGSZ 291500Z AUTO 09004KT 19SM 27/23 A2974 RMK SLP078 T02670232 52012 IEM_DS3505
ZGSZ,2007-06-29 16:00,ZGSZ 291600Z AUTO 11006KT 6SM 27/24 A2974 RMK T02700240 IEM_DS3505
ZGSZ,2007-06-29 17:00,ZGSZ 291700Z AUTO 10008KT 6SM 27/24 A2971 RMK T02700240 IEM_DS3505
ZGSZ,2007-06-29 18:00,ZGSZ 291800Z AUTO 07004KT 19SM 26/23 A2971 RMK 60000 SLP063 T02610230 57015 IEM_DS3505
ZGSZ,2007-06-29 19:00,ZGSZ 291900Z AUTO 10006KT 6SM 27/24 A2971 RMK T02700240 IEM_DS3505
ZGSZ,2007-06-29 20:00,ZGSZ 292000Z AUTO 10006KT 6SM 27/24 A2971 RMK T02700240 IEM_DS3505
ZGSZ,2007-06-29 21:00,ZGSZ 292100Z AUTO 07004KT 19SM 26/23 A2968 RMK 70063 SLP061 T02560233 57002 IEM_DS3505
ZGSZ,2007-06-29 22:00,ZGSZ 292200Z AUTO 11006KT 7SM 26/24 A2971 RMK T02600240 IEM_DS3505
ZGSZ,2007-06-29 23:00,ZGSZ 292300Z AUTO 10006KT 7SM 27/24 A2971 RMK T02700240 IEM_DS3505
ZGSZ,2007-06-30 00:00,ZGSZ 300000Z AUTO 16002KT 17SM 26/23 A2974 RMK 60003 70036 SLP073 T02600231 52012 IEM_DS3505
ZGSZ,2007-06-30 01:00,ZGSZ 300100Z AUTO 15010KT 7SM 29/25 A2974 RMK T02900250 IEM_DS3505
ZGSZ,2007-06-30 02:00,ZGSZ 300200Z AUTO 15010KT 7SM 30/24 A2974 RMK T03000240 IEM_DS3505
ZGSZ,2007-06-30 03:00,ZGSZ 300300Z AUTO 18002KT 16SM 30/24 A2971 RMK SLP071 T03020241 57002 IEM_DS3505
ZGSZ,2007-06-30 04:00,ZGSZ 300400Z AUTO 14012KT 7SM 26/24 A2974 RMK T02600240 IEM_DS3505
ZGSZ,2007-06-30 05:00,ZGSZ 300500Z AUTO 13008KT 7SM 27/25 A2971 RMK T02700250 IEM_DS3505
ZGSZ,2007-06-30 06:00,ZGSZ 300600Z AUTO 22002KT 16SM 26/24 A2971 RMK 60047 SLP066 T02600239 57005 IEM_DS3505
ZGSZ,2007-06-30 07:00,ZGSZ 300700Z AUTO 14010KT 6SM 29/24 A2968 RMK T02900240 IEM_DS3505
ZGSZ,2007-06-30 08:00,ZGSZ 300800Z AUTO 12012KT 6SM 29/24 A2968 RMK T02900240 IEM_DS3505
ZGSZ,2007-06-30 09:00,ZGSZ 300900Z AUTO 07006KT 7SM 25/23 A2965 RMK SLP053 T02520234 57013 IEM_DS3505
ZGSZ,2007-06-30 10:00,ZGSZ 301000Z AUTO 12012KT 7SM 27/24 A2968 RMK T02700240 IEM_DS3505
ZGSZ,2007-06-30 11:00,ZGSZ 301100Z AUTO 11010KT 6SM 27/24 A2968 RMK T02700240 IEM_DS3505
ZGSZ,2007-06-30 12:00,ZGSZ 301200Z AUTO 07006KT 12SM 25/23 A2971 RMK 60043 SLP068 T02540233 52015 IEM_DS3505
ZGSZ,2007-06-30 13:00,ZGSZ 301300Z AUTO 10012KT 6SM 27/24 A2974 RMK T02700240 IEM_DS3505
ZGSZ,2007-06-30 14:00,ZGSZ 301400Z AUTO 11010KT 6SM 27/24 A2974 RMK T02700240 IEM_DS3505
ZGSZ,2007-06-30 15:00,ZGSZ 301500Z AUTO 07006KT 14SM 25/24 A2977 RMK SLP086 T02540235 52018 IEM_DS3505
ZGSZ,2007-06-30 16:00,ZGSZ 301600Z AUTO 15014KT 2 1/2SM 25/23 A2977 RMK T02500230 IEM_DS3505
ZGSZ,2007-06-30 17:00,ZGSZ 301700Z AUTO 11012KT 7SM 26/23 A2974 RMK T02600230 IEM_DS3505
ZGSZ,2007-06-30 18:00,ZGSZ 301800Z AUTO 07004KT 6SM 25/23 A2971 RMK 60039 SLP068 T02500234 57018 IEM_DS3505
ZGSZ,2007-06-30 19:00,ZGSZ 301900Z AUTO 11008KT 6SM 26/23 A2971 RMK T02600230 IEM_DS3505
ZGSZ,2007-06-30 20:00,ZGSZ 302000Z AUTO 11008KT 6SM 26/23 A2971 RMK T02600230 IEM_DS3505
ZGSZ,2007-06-30 21:00,ZGSZ 302100Z AUTO 02004KT 9SM 25/23 A2971 RMK 70139 SLP064 T02510232 57004 IEM_DS3505
ZGSZ,2007-06-30 22:00,ZGSZ 302200Z AUTO 11006KT 6SM 27/24 A2971 RMK T02700240 IEM_DS3505
ZGSZ,2007-06-30 23:00,ZGSZ 302300Z AUTO 11008KT 6SM 28/24 A2974 RMK T02800240 IEM_DS3505
ZGSZ,2007-07-01 00:00,ZGSZ 010000Z AUTO 07004KT 19SM 28/25 A2974 RMK 60008 70139 SLP073 T02850247 52009 IEM_DS3505
ZGSZ,2007-07-01 01:00,ZGSZ 010100Z AUTO 12010KT 7SM 31/25 A2974 RMK T03100250 IEM_DS3505
ZGSZ,2007-07-01 02:00,ZGSZ 010200Z AUTO 16012KT 4SM 29/26 A2977 RMK T02900260 IEM_DS3505
ZGSZ,2007-07-01 03:00,ZGSZ 010300Z AUTO 22004KT 17SM 27/25 A2974 RMK SLP080 T02740252 52007 IEM_DS3505
ZGSZ,2007-07-01 04:00,ZGSZ 010400Z AUTO 12008KT 7SM 29/26 A2974 RMK T02900260 IEM_DS3505
ZGSZ,2007-07-01 05:00,ZGSZ 010500Z AUTO 16010KT 4SM 29/25 A2977 RMK T02900250 IEM_DS3505
ZGSZ,2007-07-01 06:00,ZGSZ 010600Z AUTO 09002KT 19SM 26/21 A2974 RMK 60012 SLP076 T02560213 57004 IEM_DS3505
ZGSZ,2007-07-01 07:00,ZGSZ 010700Z AUTO 11006KT 7SM 28/25 A2974 RMK T02800250 IEM_DS3505
ZGSZ,2007-07-01 08:00,ZGSZ 010800Z AUTO 12006KT 7SM 29/25 A2971 RMK T02900250 IEM_DS3505
ZGSZ,2007-07-01 09:00,ZGSZ 010900Z AUTO 14002KT 16SM 29/25 A2971 RMK SLP067 T02860252 57009 IEM_DS3505
ZGSZ,2007-07-01 10:00,ZGSZ 011000Z AUTO 14006KT 7SM 29/26 A2971 RMK T02900260 IEM_DS3505
ZGSZ,2007-07-01 11:00,ZGSZ 011100Z AUTO 11006KT 7SM 29/25 A2974 RMK T02900250 IEM_DS3505
ZGSZ,2007-07-01 12:00,ZGSZ 011200Z AUTO 07002KT 16SM 28/24 A2977 RMK 60000 SLP082 T02800240 52015 IEM_DS3505
ZGSZ,2007-07-01 13:00,ZGSZ 011300Z AUTO 11006KT 6SM 28/25 A2977 RMK T02800250 IEM_DS3505
ZGSZ,2007-07-01 14:00,ZGSZ 011400Z AUTO 11006KT 6SM 28/25 A2977 RMK T02800250 IEM_DS3505
ZGSZ,2007-07-01 15:00,ZGSZ 011500Z AUTO 11006KT 6SM 28/25 A2980 RMK T02800250 IEM_DS3505
ZGSZ,2007-07-01 16:00,ZGSZ 011600Z AUTO 13006KT 6SM 28/25 A2977 RMK T02800250 IEM_DS3505
ZGSZ,2007-07-01 17:00,ZGSZ 011700Z AUTO 11006KT 6SM 28/25 A2977 RMK T02800250 IEM_DS3505
ZGSZ,2007-07-01 18:00,ZGSZ 011800Z AUTO 09004KT 12SM 28/25 A2974 RMK SLP079 T02750246 57013 IEM_DS3505
ZGSZ,2007-07-01 19:00,ZGSZ 011900Z AUTO 12004KT 6SM 28/25 A2974 RMK T02800250 IEM_DS3505
ZGSZ,2007-07-01 20:00,ZGSZ 012000Z AUTO 11004KT 6SM 28/25 A2974 RMK T02800250 IEM_DS3505
ZGSZ,2007-07-01 21:00,ZGSZ 012100Z AUTO 07002KT 16SM 27/25 A2971 RMK 70013 SLP069 T02710246 57010 IEM_DS3505
ZGSZ,2007-07-01 22:00,ZGSZ 012200Z AUTO 10004KT 7SM 28/25 A2974 RMK T02800250 IEM_DS3505
ZGSZ,2007-07-01 23:00,ZGSZ 012300Z AUTO 13006KT 7SM 28/25 A2974 RMK T02800250 IEM_DS3505
ZGSZ,2007-07-02 00:00,ZGSZ 020000Z AUTO 07002KT 19SM 28/24 A2974 RMK 60003 70015 SLP078 T02810243 52009 IEM_DS3505
ZGSZ,2007-07-02 01:00,ZGSZ 020100Z AUTO 14010KT 7SM 31/25 A2974 RMK T03100250 IEM_DS3505
ZGSZ,2007-07-02 02:00,ZGSZ 020200Z AUTO 14010KT 7SM 31/26 A2974 RMK T03100260 IEM_DS3505
ZGSZ,2007-07-02 03:00,ZGSZ 020300Z AUTO 18004KT 19SM 30/24 A2974 RMK SLP079 T03040245 52001 IEM_DS3505
ZGSZ,2007-07-02 04:00,ZGSZ 020400Z AUTO 18010KT 7SM 32/27 A2974 RMK T03200270 IEM_DS3505
ZGSZ,2007-07-02 05:00,ZGSZ 020500Z AUTO 18012KT 7SM 31/26 A2974 RMK T03100260 IEM_DS3505
ZGSZ,2007-07-02 06:00,ZGSZ 020600Z AUTO 14006KT 19SM 32/23 A2974 RMK SLP070 T03210234 57008 IEM_DS3505
ZGSZ,2007-07-02 07:00,ZGSZ 020700Z AUTO 18012KT 7SM 32/26 A2971 RMK T03200260 IEM_DS3505
ZGSZ,2007-07-02 08:00,ZGSZ 020800Z AUTO 18012KT 7SM 32/26 A2968 RMK T03200260 IEM_DS3505
ZGSZ,2007-07-02 09:00,ZGSZ 020900Z AUTO 11004KT 19SM 30/24 A2971 RMK SLP065 T03040243 57006 IEM_DS3505
ZGSZ,2007-07-02 10:00,ZGSZ 021000Z AUTO 17014KT 7SM 27/24 A2974 RMK T02700240 IEM_DS3505
ZGSZ,2007-07-02 11:00,ZGSZ 021100Z AUTO 11012KT 5SM 28/24 A2977 RMK T02800240 IEM_DS3505
ZGSZ,2007-07-02 12:00,ZGSZ 021200Z AUTO 09006KT 11SM 26/23 A2977 RMK 60020 SLP090 T02560233 52025 IEM_DS3505
ZGSZ,2007-07-02 13:00,ZGSZ 021300Z AUTO 10006KT 7SM 27/24 A2977 RMK T02700240 IEM_DS3505
ZGSZ,2007-07-02 14:00,ZGSZ 021400Z AUTO 01004KT 6SM 27/24 A2977 RMK T02700240 IEM_DS3505
ZGSZ,2007-07-02 15:00,ZGSZ 021500Z AUTO 04004KT 17SM 26/22 A2977 RMK SLP085 T02580217 57005 IEM_DS3505
ZGSZ,2007-07-02 16:00,ZGSZ 021600Z AUTO 12006KT 6SM 27/22 A2977 RMK T02700220 IEM_DS3505
ZGSZ,2007-07-02 17:00,ZGSZ 021700Z AUTO 12006KT 6SM 27/23 A2977 RMK T02700230 IEM_DS3505
ZGSZ,2007-07-02 18:00,ZGSZ 021800Z AUTO 04006KT 19SM 26/22 A2974 RMK 60002 SLP074 T02620225 57010 IEM_DS3505
ZGSZ,2007-07-02 19:00,ZGSZ 021900Z AUTO 09004KT 6SM 28/24 A2971 RMK T02800240 IEM_DS3505
ZGSZ,2007-07-02 20:00,ZGSZ 022000Z AUTO 11004KT 6SM 28/25 A2971 RMK T02800250 IEM_DS3505
ZGSZ,2007-07-02 21:00,ZGSZ 022100Z AUTO 07006KT 16SM 27/24 A2971 RMK 70024 SLP067 T02740245 57007 IEM_DS3505
ZGSZ,2007-07-02 22:00,ZGSZ 022200Z AUTO 11004KT 6SM 28/25 A2974 RMK T02800250 IEM_DS3505
ZGSZ,2007-07-02 23:00,ZGSZ 022300Z AUTO 6SM 28/25 A2974 RMK T02800250 IEM_DS3505
ZGSZ,2007-07-03 00:00,ZGSZ 030000Z AUTO 09004KT 19SM 29/25 A2974 RMK 70021 SLP077 T02920250 52009 IEM_DS3505
ZGSZ,2007-07-03 01:00,ZGSZ 030100Z AUTO 13008KT 7SM 31/25 A2974 RMK T03100250 IEM_DS3505
ZGSZ,2007-07-03 02:00,ZGSZ 030200Z AUTO 11006KT 7SM 32/25 A2974 RMK T03200250 IEM_DS3505
ZGSZ,2007-07-03 03:00,ZGSZ 030300Z AUTO 11010KT 19SM 31/24 A2974 RMK SLP079 T03100242 52002 IEM_DS3505
ZGSZ,2007-07-03 04:00,ZGSZ 030400Z AUTO 17006KT 7SM 31/25 A2974 RMK T03100250 IEM_DS3505
ZGSZ,2007-07-03 05:00,ZGSZ 030500Z AUTO 12008KT 7SM 33/25 A2974 RMK T03300250 IEM_DS3505
ZGSZ,2007-07-03 06:00,ZGSZ 030600Z AUTO 07012KT 19SM 31/25 A2971 RMK SLP067 T03140248 57012 IEM_DS3505
ZGSZ,2007-07-03 07:00,ZGSZ 030700Z AUTO 13008KT 7SM 33/25 A2971 RMK T03300250 IEM_DS3505
ZGSZ,2007-07-03 08:00,ZGSZ 030800Z AUTO 11010KT 7SM 33/25 A2968 RMK T03300250 IEM_DS3505
ZGSZ,2007-07-03 09:00,ZGSZ 030900Z AUTO 11006KT 19SM 31/24 A2968 RMK SLP059 T03130237 57007 IEM_DS3505
ZGSZ,2007-07-03 10:00,ZGSZ 031000Z AUTO 12010KT 7SM 32/24 A2968 RMK T03200240 IEM_DS3505
ZGSZ,2007-07-03 11:00,ZGSZ 031100Z AUTO 10010KT 7SM 31/24 A2968 RMK T03100240 IEM_DS3505
ZGSZ,2007-07-03 12:00,ZGSZ 031200Z AUTO 07004KT 19SM 29/24 A2971 RMK SLP063 T02900241 52004 IEM_DS3505
ZGSZ,2007-07-03 13:00,ZGSZ 031300Z AUTO 11008KT 7SM 30/24 A2971 RMK T03000240 IEM_DS3505
ZGSZ,2007-07-03 14:00,ZGSZ 031400Z AUTO 11008KT 7SM 30/25 A2974 RMK T03000250 IEM_DS3505
ZGSZ,2007-07-03 15:00,ZGSZ 031500Z AUTO 11008KT 16SM 29/24 A2974 RMK SLP072 T02880244 52009 IEM_DS3505
ZGSZ,2007-07-03 16:00,ZGSZ 031600Z AUTO 10006KT 7SM 29/25 A2971 RMK T02900250 IEM_DS3505
ZGSZ,2007-07-03 17:00,ZGSZ 031700Z AUTO 10006KT 7SM 29/25 A2968 RMK T02900250 IEM_DS3505
ZGSZ,2007-07-03 18:00,ZGSZ 031800Z AUTO 07002KT 14SM 28/25 A2968 RMK 60003 SLP054 T02800246 57018 IEM_DS3505
ZGSZ,2007-07-03 19:00,ZGSZ 031900Z AUTO 11006KT 6SM 29/25 A2965 RMK T02900250 IEM_DS3505
ZGSZ,2007-07-03 20:00,ZGSZ 032000Z AUTO 12004KT 6SM 28/25 A2968 RMK T02800250 IEM_DS3505
ZGSZ,2007-07-03 21:00,ZGSZ 032100Z AUTO 09002KT 17SM 28/24 A2965 RMK 70003 SLP049 T02770243 57005 IEM_DS3505
ZGSZ,2007-07-03 22:00,ZGSZ 032200Z AUTO 10004KT 7SM 28/25 A2968 RMK T02800250 IEM_DS3505
ZGSZ,2007-07-03 23:00,ZGSZ 032300Z AUTO 10006KT 7SM 29/25 A2968 RMK T02900250 IEM_DS3505
ZGSZ,2007-07-04 00:00,ZGSZ 040000Z AUTO 16004KT 12SM 28/24 A2968 RMK 60000 70004 SLP062 T02830243 52012 IEM_DS3505
ZGSZ,2007-07-04 01:00,ZGSZ 040100Z AUTO 11008KT 7SM 31/25 A2971 RMK T03100250 IEM_DS3505
ZGSZ,2007-07-04 02:00,ZGSZ 040200Z AUTO 14012KT 7SM 32/25 A2971 RMK T03200250 IEM_DS3505
ZGSZ,2007-07-04 03:00,ZGSZ 040300Z AUTO 20006KT 19SM 32/24 A2971 RMK SLP061 T03160242 54000 IEM_DS3505
ZGSZ,2007-07-04 04:00,ZGSZ 040400Z AUTO 18010KT 7SM 32/26 A2968 RMK T03200260 IEM_DS3505
ZGSZ,2007-07-04 05:00,ZGSZ 040500Z AUTO 19010KT 7SM 32/26 A2968 RMK T03200260 IEM_DS3505
ZGSZ,2007-07-04 06:00,ZGSZ 040600Z AUTO 16004KT 19SM 32/25 A2965 RMK 60031 SLP050 T03200246 57011 IEM_DS3505
ZGSZ,2007-07-04 07:00,ZGSZ 040700Z AUTO 17014KT 7SM 33/25 A2965 RMK T03300250 IEM_DS3505
ZGSZ,2007-07-04 08:00,ZGSZ 040800Z AUTO 17012KT 7SM 33/26 A2965 RMK T03300260 IEM_DS3505
ZGSZ,2007-07-04 09:00,ZGSZ 040900Z AUTO 14004KT 19SM 30/24 A2965 RMK SLP046 T03020241 57004 IEM_DS3505
ZGSZ,2007-07-04 10:00,ZGSZ 041000Z AUTO 15008KT 7SM 32/24 A2965 RMK T03200240 IEM_DS3505
ZGSZ,2007-07-04 11:00,ZGSZ 041100Z AUTO 10008KT 7SM 31/24 A2965 RMK T03100240 IEM_DS3505
ZGSZ,2007-07-04 12:00,ZGSZ 041200Z AUTO 07004KT 19SM 29/24 RMK SLP056 T02900243 52010 IEM_DS3505
ZGSZ,2007-07-04 13:00,ZGSZ 041300Z AUTO 10008KT 7SM 30/25 A2968 RMK T03000250 IEM_DS3505
ZGSZ,2007-07-04 14:00,ZGSZ 041400Z AUTO 10008KT 7SM 29/25 A2971 RMK T02900250 IEM_DS3505
ZGSZ,2007-07-04 15:00,ZGSZ 041500Z AUTO 07004KT 16SM 28/24 A2971 RMK SLP064 T02800242 52008 IEM_DS3505
ZGSZ,2007-07-04 16:00,ZGSZ 041600Z AUTO 10008KT 7SM 28/25 A2968 RMK T02800250 IEM_DS3505
ZGSZ,2007-07-04 17:00,ZGSZ 041700Z AUTO 10008KT 6SM 28/25 A2968 RMK T02800250 IEM_DS3505
ZGSZ,2007-07-04 18:00,ZGSZ 041800Z AUTO 11004KT 16SM 28/24 A2968 RMK SLP054 T02810241 57010 IEM_DS3505
ZGSZ,2007-07-04 19:00,ZGSZ 041900Z AUTO 12004KT 6SM 28/25 A2965 RMK T02800250 IEM_DS3505
ZGSZ,2007-07-04 20:00,ZGSZ 042000Z AUTO 11008KT 7SM 28/25 A2965 RMK T02800250 IEM_DS3505
ZGSZ,2007-07-04 21:00,ZGSZ 042100Z AUTO 09004KT 16SM 28/24 A2965 RMK 70032 SLP045 T02750241 57009 IEM_DS3505
ZGSZ,2007-07-04 22:00,ZGSZ 042200Z AUTO 12006KT 7SM 29/25 A2965 RMK T02900250 IEM_DS3505
ZGSZ,2007-07-04 23:00,ZGSZ 042300Z AUTO 13010KT 7SM 29/25 A2968 RMK T02900250 IEM_DS3505
ZGSZ,2007-07-05 00:00,ZGSZ 050000Z AUTO 16004KT 16SM 29/24 A2968 RMK 60000 70031 SLP055 T02870240 52010 IEM_DS3505
ZGSZ,2007-07-05 01:00,ZGSZ 050100Z AUTO 16010KT 7SM 30/25 A2968 RMK T03000250 IEM_DS3505
ZGSZ,2007-07-05 02:00,ZGSZ 050200Z AUTO 16012KT 7SM 27/26 A2968 RMK T02700260 IEM_DS3505
ZGSZ,2007-07-05 03:00,ZGSZ 050300Z AUTO 16008KT 17SM 31/24 A2968 RMK SLP059 T03080242 52004 IEM_DS3505
ZGSZ,2007-07-05 04:00,ZGSZ 050400Z AUTO 17010KT 7SM 31/27 A2968 RMK T03100270 IEM_DS3505
ZGSZ,2007-07-05 05:00,ZGSZ 050500Z AUTO 17012KT 7SM 32/26 A2968 RMK T03200260 IEM_DS3505
ZGSZ,2007-07-05 06:00,ZGSZ 050600Z AUTO 20004KT 16SM 30/25 A2965 RMK 60000 SLP052 T03040250 57007 IEM_DS3505
ZGSZ,2007-07-05 07:00,ZGSZ 050700Z AUTO 16012KT 7SM 31/26 A2965 RMK T03100260 IEM_DS3505
ZGSZ,2007-07-05 08:00,ZGSZ 050800Z AUTO 16012KT 7SM 30/26 A2965 RMK T03000260 IEM_DS3505
ZGSZ,2007-07-05 09:00,ZGSZ 050900Z AUTO 18004KT 12SM 30/25 A2965 RMK SLP051 T03020253 57001 IEM_DS3505
ZGSZ,2007-07-05 10:00,ZGSZ 051000Z AUTO 16012KT 7SM 31/26 A2968 RMK T03100260 IEM_DS3505
ZGSZ,2007-07-05 11:00,ZGSZ 051100Z AUTO 15010KT 7SM 30/25 A2968 RMK T03000250 IEM_DS3505
ZGSZ,2007-07-05 12:00,ZGSZ 051200Z AUTO 14004KT 5SM 28/25 A2971 RMK 60004 SLP064 T02850249 52012 IEM_DS3505
ZGSZ,2007-07-05 13:00,ZGSZ 051300Z AUTO 14012KT 7SM 30/26 A2971 RMK T03000260 IEM_DS3505
ZGSZ,2007-07-05 14:00,ZGSZ 051400Z AUTO 15010KT 7SM 29/25 A2974 RMK T02900250 IEM_DS3505
ZGSZ,2007-07-05 15:00,ZGSZ 051500Z AUTO 11002KT 5SM 28/25 A2971 RMK SLP070 T02820246 52007 IEM_DS3505
ZGSZ,2007-07-05 16:00,ZGSZ 051600Z AUTO 13008KT 7SM 29/26 A2971 RMK T02900260 IEM_DS3505
ZGSZ,2007-07-05 17:00,ZGSZ 051700Z AUTO 13012KT 7SM 29/25 A2971 RMK T02900250 IEM_DS3505
ZGSZ,2007-07-05 18:00,ZGSZ 051800Z AUTO 14004KT 9SM 28/24 A2971 RMK SLP060 T02780242 57010 IEM_DS3505
ZGSZ,2007-07-05 19:00,ZGSZ 051900Z AUTO 13006KT 6SM 28/25 A2968 RMK T02800250 IEM_DS3505
ZGSZ,2007-07-05 20:00,ZGSZ 052000Z AUTO 14006KT 7SM 28/25 A2968 RMK T02800250 IEM_DS3505
ZGSZ,2007-07-05 21:00,ZGSZ 052100Z AUTO 07002KT 9SM 28/24 A2968 RMK 70004 SLP058 T02750244 57002 IEM_DS3505
ZGSZ,2007-07-05 22:00,ZGSZ 052200Z AUTO 15008KT 7SM 28/26 A2971 RMK T02800260 IEM_DS3505
ZGSZ,2007-07-05 23:00,ZGSZ 052300Z AUTO 15008KT 7SM 28/26 A2974 RMK T02800260 IEM_DS3505
ZGSZ,2007-07-06 00:00,ZGSZ 060000Z AUTO 20002KT 9SM 28/26 A2974 RMK 60020 70022 SLP076 T02820256 52017 IEM_DS3505
ZGSZ,2007-07-06 01:00,ZGSZ 060100Z AUTO 15010KT 7SM 28/26 A2974 RMK T02800260 IEM_DS3505
ZGSZ,2007-07-06 02:00,ZGSZ 060200Z AUTO 15012KT 7SM 30/26 A2974 RMK T03000260 IEM_DS3505
ZGSZ,2007-07-06 03:00,ZGSZ 060300Z AUTO 16004KT 7SM 29/26 A2974 RMK SLP077 T02930257 52001 IEM_DS3505
ZGSZ,2007-07-06 04:00,ZGSZ 060400Z AUTO 19016KT 7SM 29/26 A2974 RMK T02900260 IEM_DS3505
ZGSZ,2007-07-06 05:00,ZGSZ 060500Z AUTO 17012KT 7SM 31/27 A2974 RMK T03100270 IEM_DS3505
ZGSZ,2007-07-06 06:00,ZGSZ 060600Z AUTO 22008KT 16SM 30/25 A2971 RMK 60035 SLP070 T03020253 57006 IEM_DS3505
ZGSZ,2007-07-06 07:00,ZGSZ 060700Z AUTO 17014KT 7SM 32/26 A2971 RMK T03200260 IEM_DS3505
ZGSZ,2007-07-06 08:00,ZGSZ 060800Z AUTO 17012KT 7SM 31/26 A2971 RMK T03100260 IEM_DS3505
ZGSZ,2007-07-06 09:00,ZGSZ 060900Z AUTO 16004KT 19SM 32/24 A2971 RMK SLP067 T03150239 57003 IEM_DS3505
ZGSZ,2007-07-06 10:00,ZGSZ 061000Z AUTO 17012KT 7SM 31/25 A2971 RMK T03100250 IEM_DS3505
ZGSZ,2007-07-06 11:00,ZGSZ 061100Z AUTO 17010KT 7SM 30/26 A2974 RMK T03000260 IEM_DS3505
ZGSZ,2007-07-06 12:00,ZGSZ 061200Z AUTO 16004KT 17SM 29/25 A2974 RMK SLP077 T02900246 52009 IEM_DS3505
ZGSZ,2007-07-06 13:00,ZGSZ 061300Z AUTO 16008KT 7SM 29/25 A2977 RMK T02900250 IEM_DS3505
ZGSZ,2007-07-06 14:00,ZGSZ 061400Z AUTO 14008KT 6SM 30/24 A2977 RMK T03000240 IEM_DS3505
ZGSZ,2007-07-06 15:00,ZGSZ 061500Z AUTO 16004KT 16SM 29/24 A2980 RMK SLP093 T02880241 52016 IEM_DS3505
ZGSZ,2007-07-06 16:00,ZGSZ 061600Z AUTO 15006KT 7SM 29/25 A2980 RMK T02900250 IEM_DS3505
ZGSZ,2007-07-06 17:00,ZGSZ 061700Z AUTO 15006KT 7SM 29/25 A2977 RMK T02900250 IEM_DS3505
ZGSZ,2007-07-06 18:00,ZGSZ 061800Z AUTO 16004KT 12SM 28/24 A2977 RMK SLP083 T02810245 57010 IEM_DS3505
ZGSZ,2007-07-06 19:00,ZGSZ 061900Z AUTO 15004KT 7SM 28/25 A2974 RMK T02800250 IEM_DS3505
ZGSZ,2007-07-06 20:00,ZGSZ 062000Z AUTO 15004KT 7SM 28/25 A2977 RMK T02800250 IEM_DS3505
ZGSZ,2007-07-06 21:00,ZGSZ 062100Z AUTO 14004KT 9SM 28/24 A2977 RMK 70054 SLP082 T02780240 54000 IEM_DS3505
ZGSZ,2007-07-06 22:00,ZGSZ 062200Z AUTO 7SM 28/25 A2977 RMK T02800250 IEM_DS3505
ZGSZ,2007-07-06 23:00,ZGSZ 062300Z AUTO 10004KT 7SM 29/25 A2980 RMK T02900250 IEM_DS3505
ZGSZ,2007-07-07 00:00,ZGSZ 070000Z AUTO 18004KT 12SM 29/24 A2980 RMK 70035 SLP098 T02900241 52015 IEM_DS3505
ZGSZ,2007-07-07 01:00,ZGSZ 070100Z AUTO 16006KT 7SM 31/25 A2980 RMK T03100250 IEM_DS3505
ZGSZ,2007-07-07 02:00,ZGSZ 070200Z AUTO 18008KT 7SM 32/26 A2980 RMK T03200260 IEM_DS3505
ZGSZ,2007-07-07 03:00,ZGSZ 070300Z AUTO 20004KT 16SM 32/24 A2980 RMK SLP095 T03150241 57002 IEM_DS3505
ZGSZ,2007-07-07 04:00,ZGSZ 070400Z AUTO 19008KT 7SM 32/26 A2977 RMK T03200260 IEM_DS3505
ZGSZ,2007-07-07 05:00,ZGSZ 070500Z AUTO 19010KT 7SM 32/27 A2977 RMK T03200270 IEM_DS3505
ZGSZ,2007-07-07 06:00,ZGSZ 070600Z AUTO 22006KT 19SM 33/25 A2977 RMK SLP079 T03270247 57016 IEM_DS3505
ZGSZ,2007-07-07 07:00,ZGSZ 070700Z AUTO 20010KT 6SM 32/26 A2974 RMK T03200260 IEM_DS3505
ZGSZ,2007-07-07 08:00,ZGSZ 070800Z AUTO 19012KT 6SM 32/25 A2974 RMK T03200250 IEM_DS3505
ZGSZ,2007-07-07 09:00,ZGSZ 070900Z AUTO 22006KT 19SM 32/25 A2971 RMK SLP067 T03160247 57012 IEM_DS3505
ZGSZ,2007-07-07 10:00,ZGSZ 071000Z AUTO 19010KT 6SM 31/26 A2971 RMK T03100260 IEM_DS3505
ZGSZ,2007-07-07 11:00,ZGSZ 071100Z AUTO 18014KT 6SM 30/25 A2974 RMK T03000250 IEM_DS3505
ZGSZ,2007-07-07 12:00,ZGSZ 071200Z AUTO 20004KT 16SM 29/24 A2974 RMK SLP082 T02940238 52014 IEM_DS3505
ZGSZ,2007-07-07 13:00,ZGSZ 071300Z AUTO 17010KT 6SM 30/26 A2977 RMK T03000260 IEM_DS3505
ZGSZ,2007-07-07 14:00,ZGSZ 071400Z AUTO 15008KT 6SM 29/26 A2977 RMK T02900260 IEM_DS3505
ZGSZ,2007-07-07 15:00,ZGSZ 071500Z AUTO 20004KT 14SM 28/25 A2977 RMK SLP087 T02850247 52006 IEM_DS3505
ZGSZ,2007-07-07 16:00,ZGSZ 071600Z AUTO 15006KT 6SM 28/25 A2977 RMK T02800250 IEM_DS3505
ZGSZ,2007-07-07 17:00,ZGSZ 071700Z AUTO 14006KT 6SM 29/25 A2974 RMK T02900250 IEM_DS3505
ZGSZ,2007-07-07 18:00,ZGSZ 071800Z AUTO 14004KT 12SM 28/25 A2974 RMK SLP072 T02810249 57015 IEM_DS3505
ZGSZ,2007-07-07 19:00,ZGSZ 071900Z AUTO 17006KT 7SM 29/26 A2974 RMK T02900260 IEM_DS3505
ZGSZ,2007-07-07 20:00,ZGSZ 072000Z AUTO 16006KT 7SM 29/26 A2974 RMK T02900260 IEM_DS3505
ZGSZ,2007-07-07 21:00,ZGSZ 072100Z AUTO 11002KT 11SM 28/25 A2974 RMK SLP070 T02770247 57002 IEM_DS3505
ZGSZ,2007-07-07 22:00,ZGSZ 072200Z AUTO 17006KT 7SM 29/26 A2974 RMK T02900260 IEM_DS3505
ZGSZ,2007-07-07 23:00,ZGSZ 072300Z AUTO 15006KT 7SM 30/26 A2974 RMK T03000260 IEM_DS3505
ZGSZ,2007-07-08 00:00,ZGSZ 080000Z AUTO 11002KT 12SM 30/25 A2974 RMK SLP074 T03040252 52004 IEM_DS3505
ZGSZ,2007-07-08 01:00,ZGSZ 080100Z AUTO 17006KT 7SM 31/26 A2974 RMK T03100260 IEM_DS3505
ZGSZ,2007-07-08 02:00,ZGSZ 080200Z AUTO 17004KT 7SM 31/26 A2974 RMK T03100260 IEM_DS3505
ZGSZ,2007-07-08 03:00,ZGSZ 080300Z AUTO 18004KT 16SM 32/24 A2971 RMK SLP067 T03180239 57007 IEM_DS3505
ZGSZ,2007-07-08 04:00,ZGSZ 080400Z AUTO 19006KT 7SM 32/26 A2971 RMK T03200260 IEM_DS3505
ZGSZ,2007-07-08 05:00,ZGSZ 080500Z AUTO 18008KT 7SM 33/26 A2971 RMK T03300260 IEM_DS3505
ZGSZ,2007-07-08 06:00,ZGSZ 080600Z AUTO 20006KT 17SM 33/25 A2968 RMK SLP054 T03290246 57013 IEM_DS3505
ZGSZ,2007-07-08 07:00,ZGSZ 080700Z AUTO 18014KT 7SM 32/27 A2968 RMK T03200270 IEM_DS3505
ZGSZ,2007-07-08 08:00,ZGSZ 080800Z AUTO 17014KT 7SM 32/27 A2965 RMK T03200270 IEM_DS3505
ZGSZ,2007-07-08 09:00,ZGSZ 080900Z AUTO 22008KT 19SM 33/24 A2965 RMK SLP043 T03300242 57011 IEM_DS3505
ZGSZ,2007-07-08 10:00,ZGSZ 081000Z AUTO 17012KT 6SM 31/26 A2965 RMK T03100260 IEM_DS3505
ZGSZ,2007-07-08 11:00,ZGSZ 081100Z AUTO 17012KT 6SM 30/26 A2965 RMK T03000260 IEM_DS3505
ZGSZ,2007-07-08 12:00,ZGSZ 081200Z AUTO 20004KT 17SM 29/25 A2965 RMK SLP049 T02920250 52006 IEM_DS3505
ZGSZ,2007-07-08 13:00,ZGSZ 081300Z AUTO 17010KT 7SM 30/25 A2968 RMK T03000250 IEM_DS3505
ZGSZ,2007-07-08 14:00,ZGSZ 081400Z AUTO 18010KT 7SM 30/26 A2968 RMK T03000260 IEM_DS3505
ZGSZ,2007-07-08 15:00,ZGSZ 081500Z AUTO 18002KT 17SM 28/25 A2968 RMK SLP058 T02850249 52009 IEM_DS3505
ZGSZ,2007-07-08 16:00,ZGSZ 081600Z AUTO 20008KT 7SM 30/25 A2968 RMK T03000250 IEM_DS3505
ZGSZ,2007-07-08 17:00,ZGSZ 081700Z AUTO 21004KT 7SM 29/25 A2965 RMK T02900250 IEM_DS3505
ZGSZ,2007-07-08 18:00,ZGSZ 081800Z AUTO 14004KT 16SM 28/24 A2965 RMK SLP044 T02800244 57014 IEM_DS3505
ZGSZ,2007-07-08 19:00,ZGSZ 081900Z AUTO 18008KT 7SM 29/25 A2962 RMK T02900250 IEM_DS3505
ZGSZ,2007-07-08 20:00,ZGSZ 082000Z AUTO 19008KT 7SM 29/25 A2965 RMK T02900250 IEM_DS3505
ZGSZ,2007-07-08 21:00,ZGSZ 082100Z AUTO 14004KT 17SM 28/24 A2965 RMK SLP045 T02770241 52001 IEM_DS3505
ZGSZ,2007-07-08 22:00,ZGSZ 082200Z AUTO 18010KT 7SM 29/25 A2965 RMK T02900250 IEM_DS3505
ZGSZ,2007-07-08 23:00,ZGSZ 082300Z AUTO 16008KT 7SM 30/26 A2965 RMK T03000260 IEM_DS3505
ZGSZ,2007-07-09 00:00,ZGSZ 090000Z AUTO 25002KT 19SM 30/24 A2968 RMK SLP052 T02990245 52007 IEM_DS3505
ZGSZ,2007-07-09 01:00,ZGSZ 090100Z AUTO 19008KT 7SM 31/25 A2968 RMK T03100250 IEM_DS3505
ZGSZ,2007-07-09 02:00,ZGSZ 090200Z AUTO 19006KT 7SM 31/26 A2968 RMK T03100260 IEM_DS3505
ZGSZ,2007-07-09 03:00,ZGSZ 090300Z AUTO 22006KT 19SM 31/24 A2965 RMK SLP046 T03140245 57006 IEM_DS3505
ZGSZ,2007-07-09 04:00,ZGSZ 090400Z AUTO 18010KT 7SM 32/26 A2965 RMK T03200260 IEM_DS3505
ZGSZ,2007-07-09 05:00,ZGSZ 090500Z AUTO 18010KT 7SM 32/25 A2962 RMK T03200250 IEM_DS3505
ZGSZ,2007-07-09 06:00,ZGSZ 090600Z AUTO 25010KT 19SM 32/22 A2962 RMK SLP032 T03200215 57014 IEM_DS3505
ZGSZ,2007-07-09 07:00,ZGSZ 090700Z AUTO 17012KT 7SM 32/26 A2959 RMK T03200260 IEM_DS3505
ZGSZ,2007-07-09 08:00,ZGSZ 090800Z AUTO 18016KT 7SM 32/25 A2959 RMK T03200250 IEM_DS3505
ZGSZ,2007-07-09 09:00,ZGSZ 090900Z AUTO 22006KT 19SM 31/24 A2956 RMK SLP020 T03120238 57012 IEM_DS3505
ZGSZ,2007-07-09 10:00,ZGSZ 091000Z AUTO 17014KT 6SM 31/26 A2959 RMK T03100260 IEM_DS3505
ZGSZ,2007-07-09 11:00,ZGSZ 091100Z AUTO 17016KT 6SM 30/26 A2959 RMK T03000260 IEM_DS3505
ZGSZ,2007-07-09 12:00,ZGSZ 091200Z AUTO 22010KT 19SM 30/25 A2962 RMK SLP033 T02950248 52013 IEM_DS3505
ZGSZ,2007-07-09 13:00,ZGSZ 091300Z AUTO 18012KT 7SM 30/26 A2962 RMK T03000260 IEM_DS3505
ZGSZ,2007-07-09 14:00,ZGSZ 091400Z AUTO 18012KT 7SM 30/26 A2962 RMK T03000260 IEM_DS3505
ZGSZ,2007-07-09 15:00,ZGSZ 091500Z AUTO 22006KT 19SM 29/25 A2962 RMK SLP038 T02890247 52005 IEM_DS3505
ZGSZ,2007-07-09 16:00,ZGSZ 091600Z AUTO 20006KT 7SM 29/26 A2962 RMK T02900260 IEM_DS3505
ZGSZ,2007-07-09 17:00,ZGSZ 091700Z AUTO 18008KT 7SM 29/26 A2962 RMK T02900260 IEM_DS3505
ZGSZ,2007-07-09 18:00,ZGSZ 091800Z AUTO 22008KT 19SM 29/25 A2962 RMK SLP031 T02860246 57007 IEM_DS3505
ZGSZ,2007-07-09 19:00,ZGSZ 091900Z AUTO 21010KT 7SM 29/25 A2959 RMK T02900250 IEM_DS3505
ZGSZ,2007-07-09 20:00,ZGSZ 092000Z AUTO 20010KT 6SM 29/25 A2959 RMK T02900250 IEM_DS3505
ZGSZ,2007-07-09 21:00,ZGSZ 092100Z AUTO 22006KT 19SM 28/24 A2959 RMK SLP028 T02830243 57003 IEM_DS3505
ZGSZ,2007-07-09 22:00,ZGSZ 092200Z AUTO 23008KT 7SM 29/25 A2962 RMK T02900250 IEM_DS3505
ZGSZ,2007-07-09 23:00,ZGSZ 092300Z AUTO 23006KT 6SM 29/25 A2965 RMK T02900250 IEM_DS3505
ZGSZ,2007-07-10 00:00,ZGSZ 100000Z AUTO 20006KT 19SM 30/24 A2965 RMK SLP041 T02970239 52013 IEM_DS3505
ZGSZ,2007-07-10 01:00,ZGSZ 100100Z AUTO 21006KT 7SM 31/25 A2965 RMK T03100250 IEM_DS3505
ZGSZ,2007-07-10 02:00,ZGSZ 100200Z AUTO 20004KT 7SM 31/25 A2965 RMK T03100250 IEM_DS3505
ZGSZ,2007-07-10 03:00,ZGSZ 100300Z AUTO 20006KT 19SM 31/24 A2965 RMK SLP043 T03130242 52002 IEM_DS3505
ZGSZ,2007-07-10 04:00,ZGSZ 100400Z AUTO 17004KT 7SM 32/25 A2965 RMK T03200250 IEM_DS3505
ZGSZ,2007-07-10 05:00,ZGSZ 100500Z AUTO 17006KT 7SM 32/25 A2962 RMK T03200250 IEM_DS3505
ZGSZ,2007-07-10 06:00,ZGSZ 100600Z AUTO 22008KT 19SM 32/23 A2959 RMK SLP030 T03240231 57013 IEM_DS3505
ZGSZ,2007-07-10 07:00,ZGSZ 100700Z AUTO 18008KT 7SM 32/26 A2959 RMK T03200260 IEM_DS3505
ZGSZ,2007-07-10 08:00,ZGSZ 100800Z AUTO 18010KT 6SM 32/26 A2956 RMK T03200260 IEM_DS3505
ZGSZ,2007-07-10 09:00,ZGSZ 100900Z AUTO 22008KT 19SM 31/24 A2956 RMK SLP013 T03140240 57017 IEM_DS3505
ZGSZ,2007-07-10 10:00,ZGSZ 101000Z AUTO 16012KT 6SM 31/26 A2956 RMK T03100260 IEM_DS3505
ZGSZ,2007-07-10 11:00,ZGSZ 101100Z AUTO 17012KT 6SM 31/26 A2956 RMK T03100260 IEM_DS3505
ZGSZ,2007-07-10 12:00,ZGSZ 101200Z AUTO 22006KT 19SM 30/24 A2956 RMK SLP021 T02970239 52008 IEM_DS3505
ZGSZ,2007-07-10 13:00,ZGSZ 101300Z AUTO 17012KT 6SM 30/26 A2959 RMK T03000260 IEM_DS3505
ZGSZ,2007-07-10 14:00,ZGSZ 101400Z AUTO 17012KT 6SM 30/26 A2959 RMK T03000260 IEM_DS3505
ZGSZ,2007-07-10 15:00,ZGSZ 101500Z AUTO 20004KT 19SM 29/25 A2959 RMK SLP030 T02870251 52009 IEM_DS3505
ZGSZ,2007-07-10 16:00,ZGSZ 101600Z AUTO 18010KT 7SM 29/26 A2959 RMK T02900260 IEM_DS3505
ZGSZ,2007-07-10 17:00,ZGSZ 101700Z AUTO 18010KT 7SM 29/26 A2959 RMK T02900260 IEM_DS3505
ZGSZ,2007-07-10 18:00,ZGSZ 101800Z AUTO 22006KT 19SM 29/25 A2959 RMK SLP023 T02860248 57007 IEM_DS3505
ZGSZ,2007-07-10 19:00,ZGSZ 101900Z AUTO 20006KT 7SM 29/25 A2959 RMK T02900250 IEM_DS3505
ZGSZ,2007-07-10 20:00,ZGSZ 102000Z AUTO 20008KT 7SM 29/25 A2959 RMK T02900250 IEM_DS3505
ZGSZ,2007-07-10 21:00,ZGSZ 102100Z AUTO 22004KT 19SM 28/24 A2959 RMK SLP020 T02820244 57003 IEM_DS3505
ZGSZ,2007-07-10 22:00,ZGSZ 102200Z AUTO 20008KT 7SM 29/25 A2959 RMK T02900250 IEM_DS3505
ZGSZ,2007-07-10 23:00,ZGSZ 102300Z AUTO 21006KT 7SM 29/25 A2959 RMK T02900250 IEM_DS3505
ZGSZ,2007-07-11 00:00,ZGSZ 110000Z AUTO 22004KT 19SM 29/25 A2962 RMK SLP032 T02890249 52012 IEM_DS3505
ZGSZ,2007-07-11 01:00,ZGSZ 110100Z AUTO 20004KT 7SM 30/25 A2962 RMK T03000250 IEM_DS3505
ZGSZ,2007-07-11 02:00,ZGSZ 110200Z AUTO 21004KT 7SM 31/26 A2962 RMK T03100260 IEM_DS3505
ZGSZ,2007-07-11 03:00,ZGSZ 110300Z AUTO 20008KT 19SM 31/24 A2962 RMK SLP029 T03130242 57003 IEM_DS3505
ZGSZ,2007-07-11 04:00,ZGSZ 110400Z AUTO 18006KT 7SM 32/26 A2959 RMK T03200260 IEM_DS3505
ZGSZ,2007-07-11 05:00,ZGSZ 110500Z AUTO 17006KT 7SM 32/26 A2959 RMK T03200260 IEM_DS3505
ZGSZ,2007-07-11 06:00,ZGSZ 110600Z AUTO 20008KT 19SM 32/25 A2956 RMK SLP014 T03240252 57015 IEM_DS3505
ZGSZ,2007-07-11 07:00,ZGSZ 110700Z AUTO 18010KT 6SM 32/27 A2953 RMK T03200270 IEM_DS3505
ZGSZ,2007-07-11 08:00,ZGSZ 110800Z AUTO 19008KT 6SM 32/27 A2953 RMK T03200270 IEM_DS3505
ZGSZ,2007-07-11 09:00,ZGSZ 110900Z AUTO 22006KT 12SM 33/25 A2950 RMK SLP997 T03300250 57017 IEM_DS3505
ZGSZ,2007-07-11 10:00,ZGSZ 111000Z AUTO 18012KT 6SM 31/26 A2950 RMK T03100260 IEM_DS3505
ZGSZ,2007-07-11 11:00,ZGSZ 111100Z AUTO 18010KT 6SM 30/26 A2950 RMK T03000260 IEM_DS3505
ZGSZ,2007-07-11 12:00,ZGSZ 111200Z AUTO 22004KT 12SM 30/25 A2953 RMK SLP002 T02970252 52005 IEM_DS3505
ZGSZ,2007-07-11 13:00,ZGSZ 111300Z AUTO 17012KT 6SM 30/26 A2953 RMK T03000260 IEM_DS3505
ZGSZ,2007-07-11 14:00,ZGSZ 111400Z AUTO 17012KT 6SM 30/26 A2956 RMK T03000260 IEM_DS3505
ZGSZ,2007-07-11 15:00,ZGSZ 111500Z AUTO 20004KT 14SM 29/24 A2956 RMK SLP018 T02910242 52016 IEM_DS3505
ZGSZ,2007-07-11 16:00,ZGSZ 111600Z AUTO 18012KT 7SM 30/26 A2956 RMK T03000260 IEM_DS3505
ZGSZ,2007-07-11 17:00,ZGSZ 111700Z AUTO 17010KT 7SM 29/26 A2956 RMK T02900260 IEM_DS3505
ZGSZ,2007-07-11 18:00,ZGSZ 111800Z AUTO 20006KT 16SM 29/25 A2956 RMK SLP010 T02870249 57008 IEM_DS3505
ZGSZ,2007-07-11 19:00,ZGSZ 111900Z AUTO 19006KT 7SM 29/26 A2953 RMK T02900260 IEM_DS3505
ZGSZ,2007-07-11 20:00,ZGSZ 112000Z AUTO 22006KT 7SM 29/25 A2953 RMK T02900250 IEM_DS3505
ZGSZ,2007-07-11 21:00,ZGSZ 112100Z AUTO 22002KT 12SM 28/24 A2953 RMK SLP002 T02810245 57008 IEM_DS3505
ZGSZ,2007-07-11 22:00,ZGSZ 112200Z AUTO 20004KT 7SM 29/26 A2953 RMK T02900260 IEM_DS3505
ZGSZ,2007-07-11 23:00,ZGSZ 112300Z AUTO 23002KT 7SM 29/26 A2953 RMK T02900260 IEM_DS3505
ZGSZ,2007-07-12 00:00,ZGSZ 120000Z AUTO 20004KT 11SM 29/25 A2956 RMK SLP014 T02920254 52012 IEM_DS3505
ZGSZ,2007-07-12 01:00,ZGSZ 120100Z AUTO 21004KT 7SM 31/26 A2959 RMK T03100260 IEM_DS3505
ZGSZ,2007-07-12 02:00,ZGSZ 120200Z AUTO 21004KT 6SM 31/26 A2959 RMK T03100260 IEM_DS3505
ZGSZ,2007-07-12 03:00,ZGSZ 120300Z AUTO 22004KT 11SM 32/26 A2956 RMK SLP019 T03220258 52005 IEM_DS3505
ZGSZ,2007-07-12 04:00,ZGSZ 120400Z AUTO 21004KT 6SM 32/26 A2953 RMK T03200260 IEM_DS3505
ZGSZ,2007-07-12 05:00,ZGSZ 120500Z AUTO 22004KT 6SM 32/25 A2953 RMK T03200250 IEM_DS3505
ZGSZ,2007-07-12 06:00,ZGSZ 120600Z AUTO 25004KT 19SM 34/20 A2950 RMK SLP993 T03380202 57025 IEM_DS3505
ZGSZ,2007-07-12 07:00,ZGSZ 120700Z AUTO 19008KT 6SM 33/26 A2947 RMK T03300260 IEM_DS3505
ZGSZ,2007-07-12 08:00,ZGSZ 120800Z AUTO 19010KT 6SM 32/27 A2947 RMK T03200270 IEM_DS3505
ZGSZ,2007-07-12 09:00,ZGSZ 120900Z AUTO 20010KT 19SM 32/25 A2944 RMK SLP977 T03240250 57017 IEM_DS3505
ZGSZ,2007-07-12 10:00,ZGSZ 121000Z AUTO 18012KT 6SM 31/27 A2944 RMK T03100270 IEM_DS3505
ZGSZ,2007-07-12 11:00,ZGSZ 121100Z AUTO 17010KT 6SM 31/26 A2944 RMK T03100260 IEM_DS3505
ZGSZ,2007-07-12 12:00,ZGSZ 121200Z AUTO 22004KT 12SM 30/24 A2950 RMK SLP992 T03000244 52015 IEM_DS3505
ZGSZ,2007-07-12 13:00,ZGSZ 121300Z AUTO 17010KT 6SM 30/26 A2950 RMK T03000260 IEM_DS3505
ZGSZ,2007-07-12 14:00,ZGSZ 121400Z AUTO 16010KT 6SM 30/26 A2953 RMK T03000260 IEM_DS3505
ZGSZ,2007-07-12 15:00,ZGSZ 121500Z AUTO 22006KT 12SM 29/24 A2953 RMK SLP008 T02940245 52016 IEM_DS3505
ZGSZ,2007-07-12 16:00,ZGSZ 121600Z AUTO 18008KT 6SM 30/27 A2953 RMK T03000270 IEM_DS3505
ZGSZ,2007-07-12 18:00,ZGSZ 121800Z AUTO 22008KT 12SM 29/26 A2950 RMK SLP992 T02890255 57015 IEM_DS3505
ZGSZ,2007-07-12 19:00,ZGSZ 121900Z AUTO 19008KT 7SM 29/26 A2950 RMK T02900260 IEM_DS3505
ZGSZ,2007-07-12 20:00,ZGSZ 122000Z AUTO 20008KT 7SM 30/26 A2950 RMK T03000260 IEM_DS3505
ZGSZ,2007-07-12 21:00,ZGSZ 122100Z AUTO 22006KT 11SM 29/26 A2950 RMK SLP993 T02860256 54000 IEM_DS3505
ZGSZ,2007-07-12 22:00,ZGSZ 122200Z AUTO 20006KT 7SM 29/26 A2950 RMK T02900260 IEM_DS3505
ZGSZ,2007-07-12 23:00,ZGSZ 122300Z AUTO 21006KT 7SM 29/26 A2953 RMK T02900260 IEM_DS3505
ZGSZ,2007-07-13 00:00,ZGSZ 130000Z AUTO 22004KT 19SM 29/25 A2953 RMK SLP003 T02920254 52010 IEM_DS3505
ZGSZ,2007-07-13 01:00,ZGSZ 130100Z AUTO 20004KT 7SM 31/27 A2953 RMK T03100270 IEM_DS3505
ZGSZ,2007-07-13 02:00,ZGSZ 130200Z AUTO 23004KT 7SM 31/27 A2953 RMK T03100270 IEM_DS3505
ZGSZ,2007-07-13 03:00,ZGSZ 130300Z AUTO 22006KT 16SM 31/26 A2953 RMK SLP008 T03110257 52005 IEM_DS3505
ZGSZ,2007-07-13 04:00,ZGSZ 130400Z AUTO 18006KT 6SM 32/26 A2953 RMK T03200260 IEM_DS3505
ZGSZ,2007-07-13 05:00,ZGSZ 130500Z AUTO 18008KT 6SM 33/26 A2950 RMK T03300260 IEM_DS3505
ZGSZ,2007-07-13 06:00,ZGSZ 130600Z AUTO 20006KT 16SM 33/25 A2947 RMK SLP988 T03290252 57019 IEM_DS3505
ZGSZ,2007-07-13 07:00,ZGSZ 130700Z AUTO 19012KT 6SM 32/26 A2944 RMK T03200260 IEM_DS3505
ZGSZ,2007-07-13 08:00,ZGSZ 130800Z AUTO 18010KT 6SM 32/26 A2944 RMK T03200260 IEM_DS3505
ZGSZ,2007-07-13 09:00,ZGSZ 130900Z AUTO 22006KT 17SM 32/25 A2944 RMK SLP973 T03150251 57016 IEM_DS3505
ZGSZ,2007-07-13 10:00,ZGSZ 131000Z AUTO 17014KT 6SM 31/27 A2944 RMK T03100270 IEM_DS3505
ZGSZ,2007-07-13 11:00,ZGSZ 131100Z AUTO 18014KT 6SM 31/27 A2944 RMK T03100270 IEM_DS3505
ZGSZ,2007-07-13 12:00,ZGSZ 131200Z AUTO 20002KT 16SM 30/25 A2947 RMK SLP987 T02950253 52014 IEM_DS3505
ZGSZ,2007-07-13 13:00,ZGSZ 131300Z AUTO 17012KT 6SM 30/27 A2950 RMK T03000270 IEM_DS3505
ZGSZ,2007-07-13 14:00,ZGSZ 131400Z AUTO 17010KT 6SM 30/27 A2953 RMK T03000270 IEM_DS3505
ZGSZ,2007-07-13 15:00,ZGSZ 131500Z AUTO 18002KT 14SM 29/26 A2950 RMK SLP002 T02900258 52015 IEM_DS3505
ZGSZ,2007-07-13 16:00,ZGSZ 131600Z AUTO 17012KT 7SM 30/27 A2950 RMK T03000270 IEM_DS3505
ZGSZ,2007-07-13 17:00,ZGSZ 131700Z AUTO 17012KT 7SM 30/27 A2950 RMK T03000270 IEM_DS3505
ZGSZ,2007-07-13 18:00,ZGSZ 131800Z AUTO 22004KT 12SM 29/25 A2950 RMK SLP998 T02870251 57004 IEM_DS3505
ZGSZ,2007-07-13 19:00,ZGSZ 131900Z AUTO 18010KT 6SM 29/26 A2950 RMK T02900260 IEM_DS3505
ZGSZ,2007-07-13 20:00,ZGSZ 132000Z AUTO 19008KT 7SM 29/26 A2950 RMK T02900260 IEM_DS3505
ZGSZ,2007-07-13 21:00,ZGSZ 132100Z AUTO 20008KT 12SM 29/26 A2950 RMK SLP000 T02890259 52002 IEM_DS3505
ZGSZ,2007-07-13 22:00,ZGSZ 132200Z AUTO 20006KT 7SM 29/26 A2953 RMK T02900260 IEM_DS3505
ZGSZ,2007-07-13 23:00,ZGSZ 132300Z AUTO 18006KT 7SM 30/27 A2953 RMK T03000270 IEM_DS3505
ZGSZ,2007-07-14 00:00,ZGSZ 140000Z AUTO 22006KT 19SM 30/26 A2956 RMK SLP015 T02980262 52015 IEM_DS3505
ZGSZ,2007-07-14 01:00,ZGSZ 140100Z AUTO 17010KT 7SM 31/27 A2956 RMK T03100270 IEM_DS3505
ZGSZ,2007-07-14 02:00,ZGSZ 140200Z AUTO 18010KT 6SM 32/27 A2956 RMK T03200270 IEM_DS3505
ZGSZ,2007-07-14 03:00,ZGSZ 140300Z AUTO 22008KT 19SM 32/25 A2959 RMK SLP020 T03150249 52005 IEM_DS3505
ZGSZ,2007-07-14 04:00,ZGSZ 140400Z AUTO 17008KT 6SM 33/27 A2956 RMK T03300270 IEM_DS3505
ZGSZ,2007-07-14 05:00,ZGSZ 140500Z AUTO 17010KT 6SM 33/27 A2956 RMK T03300270 IEM_DS3505
ZGSZ,2007-07-14 06:00,ZGSZ 140600Z AUTO 22010KT 19SM 33/24 A2953 RMK SLP005 T03280237 57015 IEM_DS3505
ZGSZ,2007-07-14 07:00,ZGSZ 140700Z AUTO 18014KT 6SM 33/27 A2950 RMK T03300270 IEM_DS3505
ZGSZ,2007-07-14 08:00,ZGSZ 140800Z AUTO 17012KT 6SM 32/27 A2950 RMK T03200270 IEM_DS3505
ZGSZ,2007-07-14 09:00,ZGSZ 140900Z AUTO 20008KT 19SM 32/26 A2947 RMK SLP992 T03200265 57013 IEM_DS3505
ZGSZ,2007-07-14 10:00,ZGSZ 141000Z AUTO 18014KT 6SM 31/27 A2950 RMK T03100270 IEM_DS3505
ZGSZ,2007-07-14 11:00,ZGSZ 141100Z AUTO 17014KT 7SM 31/27 A2953 RMK T03100270 IEM_DS3505
ZGSZ,2007-07-14 12:00,ZGSZ 141200Z AUTO 22002KT 17SM 30/25 A2956 RMK SLP013 T02990254 52021 IEM_DS3505
ZGSZ,2007-07-14 13:00,ZGSZ 141300Z AUTO 17012KT 7SM 30/27 A2956 RMK T03000270 IEM_DS3505
ZGSZ,2007-07-14 14:00,ZGSZ 141400Z AUTO 17012KT 7SM 30/28 A2959 RMK T03000280 IEM_DS3505
ZGSZ,2007-07-14 15:00,ZGSZ 141500Z AUTO 18012KT 7SM 30/28 A2962 RMK T03000280 IEM_DS3505
ZGSZ,2007-07-14 17:00,ZGSZ 141700Z AUTO 18012KT 7SM 30/27 A2959 RMK T03000270 IEM_DS3505
ZGSZ,2007-07-14 18:00,ZGSZ 141800Z AUTO 14002KT 16SM 29/26 A2959 RMK SLP029 T02900258 57003 IEM_DS3505
ZGSZ,2007-07-14 19:00,ZGSZ 141900Z AUTO 19014KT 7SM 30/27 A2959 RMK T03000270 IEM_DS3505
ZGSZ,2007-07-14 20:00,ZGSZ 142000Z AUTO 19012KT 7SM 30/27 A2959 RMK T03000270 IEM_DS3505
ZGSZ,2007-07-14 21:00,ZGSZ 142100Z AUTO 22004KT 17SM 29/25 A2962 RMK 70000 SLP035 T02920254 52006 IEM_DS3505
ZGSZ,2007-07-14 22:00,ZGSZ 142200Z AUTO 20008KT 7SM 30/26 A2962 RMK T03000260 IEM_DS3505
ZGSZ,2007-07-14 23:00,ZGSZ 142300Z AUTO 18008KT 7SM 30/26 A2962 RMK T03000260 IEM_DS3505
ZGSZ,2007-07-15 00:00,ZGSZ 150000Z AUTO 22006KT 19SM 30/26 A2965 RMK 60000 70000 SLP043 T03020257 52008 IEM_DS3505
ZGSZ,2007-07-15 01:00,ZGSZ 150100Z AUTO 18010KT 7SM 31/27 A2965 RMK T03100270 IEM_DS3505
ZGSZ,2007-07-15 02:00,ZGSZ 150200Z AUTO 18008KT 7SM 32/28 A2965 RMK T03200280 IEM_DS3505
ZGSZ,2007-07-15 03:00,ZGSZ 150300Z AUTO 22006KT 19SM 32/26 A2965 RMK SLP047 T03200256 52004 IEM_DS3505
ZGSZ,2007-07-15 04:00,ZGSZ 150400Z AUTO 16010KT 7SM 32/27 A2965 RMK T03200270 IEM_DS3505
ZGSZ,2007-07-15 05:00,ZGSZ 150500Z AUTO 16010KT 7SM 33/28 A2965 RMK T03300280 IEM_DS3505
ZGSZ,2007-07-15 06:00,ZGSZ 150600Z AUTO 22006KT 19SM 34/26 A2962 RMK SLP039 T03350263 57008 IEM_DS3505
ZGSZ,2007-07-15 07:00,ZGSZ 150700Z AUTO 18016KT 7SM 33/27 A2962 RMK T03300270 IEM_DS3505
ZGSZ,2007-07-15 08:00,ZGSZ 150800Z AUTO 18016KT 7SM 33/27 A2962 RMK T03300270 IEM_DS3505
ZGSZ,2007-07-15 09:00,ZGSZ 150900Z AUTO 22008KT 19SM 32/27 A2959 RMK SLP030 T03230268 57009 IEM_DS3505
ZGSZ,2007-07-15 10:00,ZGSZ 151000Z AUTO 17016KT 7SM 31/27 A2959 RMK T03100270 IEM_DS3505
ZGSZ,2007-07-15 11:00,ZGSZ 151100Z AUTO 17014KT 7SM 31/27 A2962 RMK T03100270 IEM_DS3505
ZGSZ,2007-07-15 12:00,ZGSZ 151200Z AUTO 18002KT 19SM 30/26 A2965 RMK SLP048 T03000257 52018 IEM_DS3505
ZGSZ,2007-07-15 13:00,ZGSZ 151300Z AUTO 18010KT 7SM 30/27 A2968 RMK T03000270 IEM_DS3505
ZGSZ,2007-07-15 14:00,ZGSZ 151400Z AUTO 17010KT 7SM 30/27 A2968 RMK T03000270 IEM_DS3505
ZGSZ,2007-07-15 15:00,ZGSZ 151500Z AUTO 18004KT 19SM 29/26 A2968 RMK SLP054 T02930257 52006 IEM_DS3505
ZGSZ,2007-07-15 16:00,ZGSZ 151600Z AUTO 17010KT 7SM 30/27 A2968 RMK T03000270 IEM_DS3505
ZGSZ,2007-07-15 17:00,ZGSZ 151700Z AUTO 17008KT 7SM 30/27 A2965 RMK T03000270 IEM_DS3505
ZGSZ,2007-07-15 18:00,ZGSZ 151800Z AUTO 22004KT 16SM 29/26 A2965 RMK 60000 SLP051 T02910259 57003 IEM_DS3505
ZGSZ,2007-07-15 19:00,ZGSZ 151900Z AUTO 22008KT 7SM 30/27 A2965 RMK T03000270 IEM_DS3505
ZGSZ,2007-07-15 20:00,ZGSZ 152000Z AUTO 21010KT 7SM 30/26 A2968 RMK T03000260 IEM_DS3505
ZGSZ,2007-07-15 21:00,ZGSZ 152100Z AUTO 07002KT 11SM 26/25 A2968 RMK 70107 SLP054 T02600246 52003 IEM_DS3505
ZGSZ,2007-07-15 22:00,ZGSZ 152200Z AUTO 19008KT 7SM 30/26 A2968 RMK T03000260 IEM_DS3505
ZGSZ,2007-07-15 23:00,ZGSZ 152300Z AUTO 21008KT 7SM 30/26 A2968 RMK T03000260 IEM_DS3505
ZGSZ,2007-07-16 00:00,ZGSZ 160000Z AUTO 34002KT 11SM 27/26 A2971 RMK 60248 70249 SLP065 T02740258 52010 IEM_DS3505
ZGSZ,2007-07-16 02:00,ZGSZ 160200Z AUTO 18008KT 7SM 32/26 A2971 RMK T03200260 IEM_DS3505
ZGSZ,2007-07-16 03:00,ZGSZ 160300Z AUTO 22006KT 11SM 31/26 A2971 RMK SLP067 T03120265 52003 IEM_DS3505
ZGSZ,2007-07-16 04:00,ZGSZ 160400Z AUTO 17010KT 7SM 33/27 A2971 RMK T03300270 IEM_DS3505
ZGSZ,2007-07-16 05:00,ZGSZ 160500Z AUTO 17014KT 7SM 33/28 A2968 RMK T03300280 IEM_DS3505
ZGSZ,2007-07-16 06:00,ZGSZ 160600Z AUTO 22010KT 16SM 32/26 A2968 RMK 60008 SLP055 T03180264 57012 IEM_DS3505
ZGSZ,2007-07-16 07:00,ZGSZ 160700Z AUTO 18014KT 7SM 33/27 A2965 RMK T03300270 IEM_DS3505
ZGSZ,2007-07-16 08:00,ZGSZ 160800Z AUTO 18016KT 7SM 32/27 A2965 RMK T03200270 IEM_DS3505
ZGSZ,2007-07-16 09:00,ZGSZ 160900Z AUTO 22008KT 16SM 32/26 A2965 RMK SLP044 T03190262 57011 IEM_DS3505
ZGSZ,2007-07-16 10:00,ZGSZ 161000Z AUTO 18016KT 7SM 31/27 A2962 RMK T03100270 IEM_DS3505
ZGSZ,2007-07-16 11:00,ZGSZ 161100Z AUTO 17016KT 7SM 31/27 A2965 RMK T03100270 IEM_DS3505
ZGSZ,2007-07-16 12:00,ZGSZ 161200Z AUTO 14002KT 16SM 30/25 A2968 RMK SLP055 T02980251 52011 IEM_DS3505
ZGSZ,2007-07-16 13:00,ZGSZ 161300Z AUTO 17012KT 7SM 30/27 A2968 RMK T03000270 IEM_DS3505
ZGSZ,2007-07-16 14:00,ZGSZ 161400Z AUTO 17010KT 7SM 30/26 A2971 RMK T03000260 IEM_DS3505
ZGSZ,2007-07-16 15:00,ZGSZ 161500Z AUTO 16004KT 12SM 29/26 A2974 RMK SLP074 T02930257 52019 IEM_DS3505
ZGSZ,2007-07-16 16:00,ZGSZ 161600Z AUTO 17010KT 7SM 30/26 A2971 RMK T03000260 IEM_DS3505
ZGSZ,2007-07-16 17:00,ZGSZ 161700Z AUTO 16010KT 7SM 30/26 A2971 RMK T03000260 IEM_DS3505
ZGSZ,2007-07-16 18:00,ZGSZ 161800Z AUTO 16004KT 12SM 29/25 A2968 RMK SLP062 T02900252 57012 IEM_DS3505
ZGSZ,2007-07-16 19:00,ZGSZ 161900Z AUTO 16014KT 7SM 29/27 A2968 RMK T02900270 IEM_DS3505
ZGSZ,2007-07-16 20:00,ZGSZ 162000Z AUTO 18014KT 7SM 30/27 A2968 RMK T03000270 IEM_DS3505
ZGSZ,2007-07-16 21:00,ZGSZ 162100Z AUTO 18012KT 12SM 28/25 A2968 RMK 70150 SLP060 T02840250 57002 IEM_DS3505
ZGSZ,2007-07-16 22:00,ZGSZ 162200Z AUTO 19014KT 7SM 30/26 A2971 RMK T03000260 IEM_DS3505
ZGSZ,2007-07-16 23:00,ZGSZ 162300Z AUTO 20010KT 7SM 27/25 A2971 RMK T02700250 IEM_DS3505
ZGSZ,2007-07-17 00:00,ZGSZ 170000Z AUTO 22008KT 12SM 29/26 A2974 RMK 60004 70013 SLP071 T02910255 52011 IEM_DS3505
ZGSZ,2007-07-17 01:00,ZGSZ 170100Z AUTO 19010KT 7SM 31/27 A2974 RMK T03100270 IEM_DS3505
ZGSZ,2007-07-17 02:00,ZGSZ 170200Z AUTO 18014KT 7SM 31/27 A2974 RMK T03100270 IEM_DS3505
ZGSZ,2007-07-17 03:00,ZGSZ 170300Z AUTO 22008KT 19SM 31/26 A2974 RMK SLP075 T03120260 52004 IEM_DS3505
ZGSZ,2007-07-17 04:00,ZGSZ 170400Z AUTO 18016KT 7SM 32/27 A2971 RMK T03200270 IEM_DS3505
ZGSZ,2007-07-17 05:00,ZGSZ 170500Z AUTO 17016KT 7SM 32/27 A2971 RMK T03200270 IEM_DS3505
ZGSZ,2007-07-17 06:00,ZGSZ 170600Z AUTO 20010KT 19SM 32/26 A2968 RMK SLP060 T03170256 57015 IEM_DS3505
ZGSZ,2007-07-17 07:00,ZGSZ 170700Z AUTO 17016KT 7SM 31/26 A2968 RMK T03100260 IEM_DS3505
ZGSZ,2007-07-17 08:00,ZGSZ 170800Z AUTO 17014KT 7SM 31/26 A2968 RMK T03100260 IEM_DS3505
ZGSZ,2007-07-17 09:00,ZGSZ 170900Z AUTO 22008KT 19SM 31/26 A2968 RMK SLP051 T03070255 57009 IEM_DS3505
ZGSZ,2007-07-17 10:00,ZGSZ 171000Z AUTO 17012KT 7SM 31/26 A2968 RMK T03100260 IEM_DS3505
ZGSZ,2007-07-17 11:00,ZGSZ 171100Z AUTO 18014KT 7SM 30/26 A2968 RMK T03000260 IEM_DS3505
ZGSZ,2007-07-17 12:00,ZGSZ 171200Z AUTO 14006KT 16SM 30/25 A2971 RMK SLP066 T02970248 52015 IEM_DS3505
ZGSZ,2007-07-17 13:00,ZGSZ 171300Z AUTO 17010KT 7SM 30/26 A2971 RMK T03000260 IEM_DS3505
ZGSZ,2007-07-17 14:00,ZGSZ 171400Z AUTO 17014KT 7SM 30/26 A2974 RMK T03000260 IEM_DS3505
ZGSZ,2007-07-17 15:00,ZGSZ 171500Z AUTO 20002KT 12SM 29/25 A2974 RMK SLP078 T02880252 52012 IEM_DS3505
ZGSZ,2007-07-17 16:00,ZGSZ 171600Z AUTO 19012KT 7SM 30/27 A2974 RMK T03000270 IEM_DS3505
ZGSZ,2007-07-17 18:00,ZGSZ 171800Z AUTO 32002KT 8SM 28/26 A2971 RMK 60001 SLP072 T02810257 57006 IEM_DS3505
ZGSZ,2007-07-17 19:00,ZGSZ 171900Z AUTO 17014KT 7SM 30/26 A2971 RMK T03000260 IEM_DS3505
ZGSZ,2007-07-17 20:00,ZGSZ 172000Z AUTO 18012KT 7SM 30/27 A2971 RMK T03000270 IEM_DS3505
ZGSZ,2007-07-17 21:00,ZGSZ 172100Z AUTO 11004KT 7SM 28/25 A2974 RMK 70008 SLP071 T02810251 57001 IEM_DS3505
ZGSZ,2007-07-17 23:00,ZGSZ 172300Z AUTO 18016KT 7SM 29/27 A2974 RMK T02900270 IEM_DS3505
ZGSZ,2007-07-18 00:00,ZGSZ 180000Z AUTO 20002KT 9SM 30/26 A2974 RMK 60001 70002 SLP083 T03020257 52012 IEM_DS3505
ZGSZ,2007-07-18 01:00,ZGSZ 180100Z AUTO 18016KT 7SM 31/26 A2977 RMK T03100260 IEM_DS3505
ZGSZ,2007-07-18 02:00,ZGSZ 180200Z AUTO 18017KT 7SM 31/27 A2977 RMK T03100270 IEM_DS3505
ZGSZ,2007-07-18 03:00,ZGSZ 180300Z AUTO 22010KT 19SM 31/25 A2977 RMK SLP087 T03100251 52004 IEM_DS3505
ZGSZ,2007-07-18 04:00,ZGSZ 180400Z AUTO 18017KT 7SM 32/27 A2977 RMK T03200270 IEM_DS3505
ZGSZ,2007-07-18 05:00,ZGSZ 180500Z AUTO 18016KT 7SM 32/27 A2974 RMK T03200270 IEM_DS3505
ZGSZ,2007-07-18 06:00,ZGSZ 180600Z AUTO 22010KT 17SM 31/25 A2974 RMK 60004 SLP076 T03070253 57011 IEM_DS3505
ZGSZ,2007-07-18 07:00,ZGSZ 180700Z AUTO 17017KT 6SM 31/26 A2971 RMK T03100260 IEM_DS3505
ZGSZ,2007-07-18 08:00,ZGSZ 180800Z AUTO 18016KT 6SM 31/27 A2971 RMK T03100270 IEM_DS3505
ZGSZ,2007-07-18 09:00,ZGSZ 180900Z AUTO 22010KT 19SM 30/25 A2968 RMK SLP063 T03050249 57013 IEM_DS3505
ZGSZ,2007-07-18 10:00,ZGSZ 181000Z AUTO 17016KT 7SM 30/26 A2971 RMK T03000260 IEM_DS3505
ZGSZ,2007-07-18 11:00,ZGSZ 181100Z AUTO 18016KT 7SM 30/26 A2971 RMK T03000260 IEM_DS3505
ZGSZ,2007-07-18 12:00,ZGSZ 181200Z AUTO 22004KT 16SM 30/25 A2971 RMK SLP071 T02950253 52008 IEM_DS3505
ZGSZ,2007-07-18 13:00,ZGSZ 181300Z AUTO 18016KT 7SM 30/26 A2974 RMK T03000260 IEM_DS3505
ZGSZ,2007-07-18 14:00,ZGSZ 181400Z AUTO 18016KT 7SM 30/26 A2974 RMK T03000260 IEM_DS3505
ZGSZ,2007-07-18 15:00,ZGSZ 181500Z AUTO 22006KT 10SM 29/25 A2974 RMK SLP079 T02910247 52008 IEM_DS3505
ZGSZ,2007-07-18 16:00,ZGSZ 181600Z AUTO 18016KT 7SM 30/26 A2974 RMK T03000260 IEM_DS3505
ZGSZ,2007-07-18 17:00,ZGSZ 181700Z AUTO 18014KT 7SM 30/26 A2974 RMK T03000260 IEM_DS3505
ZGSZ,2007-07-18 18:00,ZGSZ 181800Z AUTO 20010KT 12SM 29/25 A2974 RMK SLP075 T02890253 57004 IEM_DS3505
ZGSZ,2007-07-18 19:00,ZGSZ 181900Z AUTO 19014KT 7SM 29/26 A2974 RMK T02900260 IEM_DS3505
ZGSZ,2007-07-18 20:00,ZGSZ 182000Z AUTO 19014KT 7SM 29/26 A2974 RMK T02900260 IEM_DS3505
ZGSZ,2007-07-18 21:00,ZGSZ 182100Z AUTO 20004KT 10SM 28/25 A2974 RMK 70008 SLP077 T02830253 52002 IEM_DS3505
ZGSZ,2007-07-18 22:00,ZGSZ 182200Z AUTO 19014KT 7SM 29/26 A2974 RMK T02900260 IEM_DS3505
ZGSZ,2007-07-18 23:00,ZGSZ 182300Z AUTO 18012KT 7SM 29/26 A2977 RMK T02900260 IEM_DS3505
ZGSZ,2007-07-19 00:00,ZGSZ 190000Z AUTO 22008KT 14SM 29/25 A2977 RMK 60004 70008 SLP089 T02940249 52011 IEM_DS3505
ZGSZ,2007-07-19 01:00,ZGSZ 190100Z AUTO 18014KT 7SM 31/27 A2977 RMK T03100270 IEM_DS3505
ZGSZ,2007-07-19 02:00,ZGSZ 190200Z AUTO 18016KT 7SM 31/27 A2980 RMK T03100270 IEM_DS3505
ZGSZ,2007-07-19 03:00,ZGSZ 190300Z AUTO 22010KT 19SM 31/25 A2980 RMK SLP095 T03100249 52007 IEM_DS3505
ZGSZ,2007-07-19 04:00,ZGSZ 190400Z AUTO 17016KT 7SM 32/27 A2980 RMK T03200270 IEM_DS3505
ZGSZ,2007-07-19 05:00,ZGSZ 190500Z AUTO 17017KT 7SM 32/27 A2977 RMK T03200270 IEM_DS3505
ZGSZ,2007-07-19 06:00,ZGSZ 190600Z AUTO 20012KT 19SM 32/24 A2977 RMK SLP085 T03160245 57010 IEM_DS3505
ZGSZ,2007-07-19 07:00,ZGSZ 190700Z AUTO 17016KT 6SM 32/27 A2974 RMK T03200270 IEM_DS3505
ZGSZ,2007-07-19 08:00,ZGSZ 190800Z AUTO 17017KT 6SM 32/27 A2971 RMK T03200270 IEM_DS3505
ZGSZ,2007-07-19 09:00,ZGSZ 190900Z AUTO 22012KT 19SM 31/24 A2971 RMK SLP068 T03100242 57017 IEM_DS3505
ZGSZ,2007-07-19 10:00,ZGSZ 191000Z AUTO 17017KT 6SM 31/26 A2971 RMK T03100260 IEM_DS3505
ZGSZ,2007-07-19 11:00,ZGSZ 191100Z AUTO 18016KT 7SM 30/26 A2971 RMK T03000260 IEM_DS3505
ZGSZ,2007-07-19 12:00,ZGSZ 191200Z AUTO 22008KT 17SM 30/24 A2974 RMK SLP077 T02950244 52009 IEM_DS3505
ZGSZ,2007-07-19 13:00,ZGSZ 191300Z AUTO 18014KT 7SM 30/26 A2977 RMK T03000260 IEM_DS3505
ZGSZ,2007-07-19 14:00,ZGSZ 191400Z AUTO 18012KT 7SM 30/27 A2977 RMK T03000270 IEM_DS3505
ZGSZ,2007-07-19 15:00,ZGSZ 191500Z AUTO 20006KT 16SM 29/25 A2980 RMK SLP095 T02900246 52018 IEM_DS3505
ZGSZ,2007-07-19 16:00,ZGSZ 191600Z AUTO 18012KT 7SM 30/26 A2980 RMK T03000260 IEM_DS3505
ZGSZ,2007-07-19 17:00,ZGSZ 191700Z AUTO 18012KT 7SM 30/26 A2980 RMK T03000260 IEM_DS3505
ZGSZ,2007-07-19 18:00,ZGSZ 191800Z AUTO 22008KT 16SM 29/24 A2977 RMK SLP089 T02860244 57006 IEM_DS3505
ZGSZ,2007-07-19 19:00,ZGSZ 191900Z AUTO 18012KT 7SM 29/26 A2977 RMK T02900260 IEM_DS3505
ZGSZ,2007-07-19 20:00,ZGSZ 192000Z AUTO 18010KT 7SM 29/26 A2977 RMK T02900260 IEM_DS3505
ZGSZ,2007-07-19 21:00,ZGSZ 192100Z AUTO 22006KT 16SM 28/24 A2977 RMK SLP089 T02820242 54000 IEM_DS3505
ZGSZ,2007-07-19 22:00,ZGSZ 192200Z AUTO 18010KT 7SM 29/26 A2980 RMK T02900260 IEM_DS3505
ZGSZ,2007-07-19 23:00,ZGSZ 192300Z AUTO 18010KT 7SM 29/26 A2980 RMK T02900260 IEM_DS3505
ZGSZ,2007-07-20 00:00,ZGSZ 200000Z AUTO 20010KT 17SM 30/25 A2980 RMK SLP098 T02950248 52008 IEM_DS3505
ZGSZ,2007-07-20 01:00,ZGSZ 200100Z AUTO 18010KT 7SM 31/27 A2983 RMK T03100270 IEM_DS3505
ZGSZ,2007-07-20 02:00,ZGSZ 200200Z AUTO 17010KT 7SM 31/27 A2980 RMK T03100270 IEM_DS3505
ZGSZ,2007-07-20 03:00,ZGSZ 200300Z AUTO 22008KT 19SM 31/26 A2980 RMK SLP096 T03090257 57001 IEM_DS3505
ZGSZ,2007-07-20 04:00,ZGSZ 200400Z AUTO 17014KT 7SM 32/27 A2980 RMK T03200270 IEM_DS3505
ZGSZ,2007-07-20 05:00,ZGSZ 200500Z AUTO 17014KT 7SM 32/27 A2977 RMK T03200270 IEM_DS3505
ZGSZ,2007-07-20 06:00,ZGSZ 200600Z AUTO 22010KT 19SM 32/25 A2977 RMK SLP081 T03190250 57015 IEM_DS3505
ZGSZ,2007-07-20 07:00,ZGSZ 200700Z AUTO 17016KT 7SM 32/27 A2974 RMK T03200270 IEM_DS3505
ZGSZ,2007-07-20 08:00,ZGSZ 200800Z AUTO 17016KT 7SM 32/27 A2971 RMK T03200270 IEM_DS3505
ZGSZ,2007-07-20 09:00,ZGSZ 200900Z AUTO 22014KT 19SM 31/25 A2971 RMK SLP066 T03100246 57015 IEM_DS3505
ZGSZ,2007-07-20 10:00,ZGSZ 201000Z AUTO 17016KT 6SM 31/26 A2971 RMK T03100260 IEM_DS3505
ZGSZ,2007-07-20 11:00,ZGSZ 201100Z AUTO 17014KT 6SM 30/27 A2971 RMK T03000270 IEM_DS3505
ZGSZ,2007-07-20 12:00,ZGSZ 201200Z AUTO 22010KT 16SM 29/25 A2974 RMK SLP074 T02940252 52008 IEM_DS3505
ZGSZ,2007-07-20 13:00,ZGSZ 201300Z AUTO 19012KT 7SM 30/27 A2974 RMK T03000270 IEM_DS3505
ZGSZ,2007-07-20 14:00,ZGSZ 201400Z AUTO 20010KT 7SM 30/26 A2977 RMK T03000260 IEM_DS3505
ZGSZ,2007-07-20 15:00,ZGSZ 201500Z AUTO 22010KT 16SM 29/25 A2977 RMK SLP084 T02900252 52010 IEM_DS3505
ZGSZ,2007-07-20 16:00,ZGSZ 201600Z AUTO 20008KT 7SM 29/25 A2977 RMK T02900250 IEM_DS3505
ZGSZ,2007-07-20 17:00,ZGSZ 201700Z AUTO 21008KT 7SM 29/25 A2977 RMK T02900250 IEM_DS3505
ZGSZ,2007-07-20 18:00,ZGSZ 201800Z AUTO 20008KT 14SM 29/25 A2974 RMK SLP077 T02880250 57007 IEM_DS3505
ZGSZ,2007-07-20 19:00,ZGSZ 201900Z AUTO 20008KT 7SM 29/26 A2974 RMK T02900260 IEM_DS3505
ZGSZ,2007-07-20 20:00,ZGSZ 202000Z AUTO 20008KT 6SM 29/25 A2977 RMK T02900250 IEM_DS3505
ZGSZ,2007-07-20 21:00,ZGSZ 202100Z AUTO 22006KT 16SM 29/25 A2977 RMK SLP083 T02860250 52006 IEM_DS3505
ZGSZ,2007-07-20 22:00,ZGSZ 202200Z AUTO 20006KT 7SM 29/25 A2977 RMK T02900250 IEM_DS3505
ZGSZ,2007-07-20 23:00,ZGSZ 202300Z AUTO 20008KT 7SM 29/26 A2980 RMK T02900260 IEM_DS3505
ZGSZ,2007-07-21 00:00,ZGSZ 210000Z AUTO 21006KT 7SM 30/26 A2980 RMK T03000260 IEM_DS3505
ZGSZ,2007-07-21 02:00,ZGSZ 210200Z AUTO 20006KT 7SM 32/26 A2980 RMK T03200260 IEM_DS3505
ZGSZ,2007-07-21 03:00,ZGSZ 210300Z AUTO 22006KT 19SM 31/24 A2980 RMK SLP096 T03090245 52001 IEM_DS3505
ZGSZ,2007-07-21 04:00,ZGSZ 210400Z AUTO 17008KT 7SM 33/26 A2977 RMK T03300260 IEM_DS3505
ZGSZ,2007-07-21 05:00,ZGSZ 210500Z AUTO 18010KT 7SM 33/26 A2977 RMK T03300260 IEM_DS3505
ZGSZ,2007-07-21 06:00,ZGSZ 210600Z AUTO 22008KT 19SM 32/24 A2974 RMK SLP080 T03190242 57016 IEM_DS3505
ZGSZ,2007-07-21 07:00,ZGSZ 210700Z AUTO 17014KT 7SM 32/27 A2974 RMK T03200270 IEM_DS3505
ZGSZ,2007-07-21 08:00,ZGSZ 210800Z AUTO 25010KT 7SM 32/24 A2974 RMK T03200240 IEM_DS3505
ZGSZ,2007-07-21 09:00,ZGSZ 210900Z AUTO 22010KT 19SM 31/25 A2974 RMK SLP070 T03060250 57010 IEM_DS3505
ZGSZ,2007-07-21 10:00,ZGSZ 211000Z AUTO 19004KT 7SM 29/24 A2974 RMK T02900240 IEM_DS3505
ZGSZ,2007-07-21 11:00,ZGSZ 211100Z AUTO 17006KT 7SM 30/27 A2974 RMK T03000270 IEM_DS3505
ZGSZ,2007-07-21 12:00,ZGSZ 211200Z AUTO 22012KT 16SM 30/26 A2977 RMK SLP084 T02960258 52013 IEM_DS3505
ZGSZ,2007-07-21 13:00,ZGSZ 211300Z AUTO 20006KT 7SM 30/26 A2977 RMK T03000260 IEM_DS3505
ZGSZ,2007-07-21 14:00,ZGSZ 211400Z AUTO 20006KT 7SM 30/26 A2980 RMK T03000260 IEM_DS3505
ZGSZ,2007-07-21 15:00,ZGSZ 211500Z AUTO 20004KT 16SM 29/26 A2977 RMK SLP089 T02910257 52006 IEM_DS3505
ZGSZ,2007-07-21 16:00,ZGSZ 211600Z AUTO 18006KT 7SM 30/26 A2977 RMK T03000260 IEM_DS3505
ZGSZ,2007-07-21 18:00,ZGSZ 211800Z AUTO 22004KT 12SM 28/25 A2977 RMK SLP080 T02850251 57009 IEM_DS3505
ZGSZ,2007-07-21 19:00,ZGSZ 211900Z AUTO 22008KT 7SM 30/26 A2977 RMK T03000260 IEM_DS3505
ZGSZ,2007-07-21 20:00,ZGSZ 212000Z AUTO 25008KT 7SM 29/26 A2977 RMK T02900260 IEM_DS3505
ZGSZ,2007-07-21 21:00,ZGSZ 212100Z AUTO 27004KT 11SM 29/25 A2977 RMK SLP081 T02860246 52001 IEM_DS3505
ZGSZ,2007-07-21 22:00,ZGSZ 212200Z AUTO 25004KT 7SM 29/26 A2977 RMK T02900260 IEM_DS3505
ZGSZ,2007-07-21 23:00,ZGSZ 212300Z AUTO 27004KT 7SM 29/25 A2980 RMK T02900250 IEM_DS3505
ZGSZ,2007-07-22 00:00,ZGSZ 220000Z AUTO 32002KT 11SM 30/25 A2980 RMK SLP095 T02970246 52013 IEM_DS3505
ZGSZ,2007-07-22 01:00,ZGSZ 220100Z AUTO 7SM 31/25 A2980 RMK T03100250 IEM_DS3505
ZGSZ,2007-07-22 02:00,ZGSZ 220200Z AUTO 7SM 31/25 A2980 RMK T03100250 IEM_DS3505
ZGSZ,2007-07-22 03:00,ZGSZ 220300Z AUTO 25004KT 12SM 32/25 A2980 RMK SLP096 T03180247 52002 IEM_DS3505
ZGSZ,2007-07-22 04:00,ZGSZ 220400Z AUTO 21004KT 7SM 33/26 A2980 RMK T03300260 IEM_DS3505
ZGSZ,2007-07-22 05:00,ZGSZ 220500Z AUTO 20004KT 7SM 33/25 A2977 RMK T03300250 IEM_DS3505
ZGSZ,2007-07-22 06:00,ZGSZ 220600Z AUTO 22008KT 11SM 32/24 A2977 RMK SLP081 T03250245 57015 IEM_DS3505
ZGSZ,2007-07-22 07:00,ZGSZ 220700Z AUTO 18008KT 7SM 33/26 A2974 RMK T03300260 IEM_DS3505
ZGSZ,2007-07-22 08:00,ZGSZ 220800Z AUTO 17010KT 6SM 33/26 A2971 RMK T03300260 IEM_DS3505
ZGSZ,2007-07-22 09:00,ZGSZ 220900Z AUTO 22006KT 16SM 32/24 A2971 RMK SLP063 T03200238 57018 IEM_DS3505
ZGSZ,2007-07-22 10:00,ZGSZ 221000Z AUTO 17014KT 6SM 31/26 A2971 RMK T03100260 IEM_DS3505
ZGSZ,2007-07-22 11:00,ZGSZ 221100Z AUTO 17016KT 6SM 31/26 A2971 RMK T03100260 IEM_DS3505
ZGSZ,2007-07-22 12:00,ZGSZ 221200Z AUTO 22010KT 19SM 30/25 A2974 RMK SLP071 T02970246 52008 IEM_DS3505
ZGSZ,2007-07-22 13:00,ZGSZ 221300Z AUTO 17012KT 6SM 30/26 A2974 RMK T03000260 IEM_DS3505
ZGSZ,2007-07-22 14:00,ZGSZ 221400Z AUTO 18010KT 6SM 30/25 A2977 RMK T03000250 IEM_DS3505
ZGSZ,2007-07-22 15:00,ZGSZ 221500Z AUTO 22010KT 16SM 29/25 A2980 RMK SLP090 T02910251 52019 IEM_DS3505
ZGSZ,2007-07-22 16:00,ZGSZ 221600Z AUTO 19008KT 6SM 30/25 A2980 RMK T03000250 IEM_DS3505
ZGSZ,2007-07-22 17:00,ZGSZ 221700Z AUTO 19006KT 6SM 29/25 A2980 RMK T02900250 IEM_DS3505
ZGSZ,2007-07-22 18:00,ZGSZ 221800Z AUTO 22008KT 16SM 29/25 A2977 RMK SLP086 T02860250 57004 IEM_DS3505
ZGSZ,2007-07-22 19:00,ZGSZ 221900Z AUTO 19008KT 7SM 29/25 A2977 RMK T02900250 IEM_DS3505
ZGSZ,2007-07-22 20:00,ZGSZ 222000Z AUTO 21008KT 7SM 29/25 A2977 RMK T02900250 IEM_DS3505
ZGSZ,2007-07-22 21:00,ZGSZ 222100Z AUTO 22004KT 16SM 28/24 A2977 RMK SLP085 T02820242 57001 IEM_DS3505
ZGSZ,2007-07-22 22:00,ZGSZ 222200Z AUTO 19006KT 7SM 29/25 A2977 RMK T02900250 IEM_DS3505
ZGSZ,2007-07-22 23:00,ZGSZ 222300Z AUTO 20008KT 7SM 29/25 A2980 RMK T02900250 IEM_DS3505
ZGSZ,2007-07-23 00:00,ZGSZ 230000Z AUTO 22006KT 19SM 30/25 A2980 RMK SLP099 T02970246 52013 IEM_DS3505
ZGSZ,2007-07-23 01:00,ZGSZ 230100Z AUTO 22004KT 7SM 31/26 A2983 RMK T03100260 IEM_DS3505
ZGSZ,2007-07-23 02:00,ZGSZ 230200Z AUTO 23004KT 7SM 31/26 A2983 RMK T03100260 IEM_DS3505
ZGSZ,2007-07-23 03:00,ZGSZ 230300Z AUTO 22008KT 19SM 32/24 A2983 RMK SLP099 T03190245 52001 IEM_DS3505
ZGSZ,2007-07-23 04:00,ZGSZ 230400Z AUTO 20004KT 7SM 33/26 A2980 RMK T03300260 IEM_DS3505
ZGSZ,2007-07-23 06:00,ZGSZ 230600Z AUTO 22004KT 17SM 33/25 A2977 RMK SLP088 T03280248 57011 IEM_DS3505
ZGSZ,2007-07-23 07:00,ZGSZ 230700Z AUTO 18010KT 6SM 33/26 A2977 RMK T03300260 IEM_DS3505
ZGSZ,2007-07-23 08:00,ZGSZ 230800Z AUTO 18010KT 6SM 33/26 A2974 RMK T03300260 IEM_DS3505
ZGSZ,2007-07-23 09:00,ZGSZ 230900Z AUTO 22008KT 19SM 32/24 A2974 RMK SLP074 T03210244 57014 IEM_DS3505
ZGSZ,2007-07-23 10:00,ZGSZ 231000Z AUTO 17014KT 6SM 32/26 A2974 RMK T03200260 IEM_DS3505
ZGSZ,2007-07-23 11:00,ZGSZ 231100Z AUTO 17014KT 6SM 31/26 A2974 RMK T03100260 IEM_DS3505
ZGSZ,2007-07-23 12:00,ZGSZ 231200Z AUTO 22008KT 19SM 30/25 A2977 RMK SLP086 T02980247 52012 IEM_DS3505
ZGSZ,2007-07-23 13:00,ZGSZ 231300Z AUTO 17014KT 6SM 30/26 A2977 RMK T03000260 IEM_DS3505
ZGSZ,2007-07-23 14:00,ZGSZ 231400Z AUTO 17012KT 6SM 30/26 A2980 RMK T03000260 IEM_DS3505
ZGSZ,2007-07-23 15:00,ZGSZ 231500Z AUTO 22006KT 16SM 29/25 A2983 RMK SLP106 T02900246 52020 IEM_DS3505
ZGSZ,2007-07-23 16:00,ZGSZ 231600Z AUTO 17010KT 7SM 30/26 A2983 RMK T03000260 IEM_DS3505
ZGSZ,2007-07-23 18:00,ZGSZ 231800Z AUTO 22008KT 16SM 29/25 RMK SLP096 T02880250 57010 IEM_DS3505
ZGSZ,2007-07-23 19:00,ZGSZ 231900Z AUTO 20008KT 7SM 29/25 A2980 RMK T02900250 IEM_DS3505
ZGSZ,2007-07-23 20:00,ZGSZ 232000Z AUTO 20006KT 7SM 29/25 A2980 RMK T02900250 IEM_DS3505
ZGSZ,2007-07-23 21:00,ZGSZ 232100Z AUTO 25004KT 16SM 28/25 A2980 RMK SLP095 T02830249 57001 IEM_DS3505
ZGSZ,2007-07-23 22:00,ZGSZ 232200Z AUTO 21006KT 7SM 29/26 A2980 RMK T02900260 IEM_DS3505
ZGSZ,2007-07-23 23:00,ZGSZ 232300Z AUTO 24004KT 7SM 29/25 A2983 RMK T02900250 IEM_DS3505
ZGSZ,2007-07-24 00:00,ZGSZ 240000Z AUTO 20006KT 19SM 29/25 A2983 RMK SLP104 T02930246 52008 IEM_DS3505
ZGSZ,2007-07-24 01:00,ZGSZ 240100Z AUTO 20004KT 7SM 31/26 A2983 RMK T03100260 IEM_DS3505
ZGSZ,2007-07-24 02:00,ZGSZ 240200Z AUTO 20004KT 7SM 31/26 A2985 RMK T03100260 IEM_DS3505
ZGSZ,2007-07-24 03:00,ZGSZ 240300Z AUTO 22004KT 19SM 31/24 A2983 RMK SLP107 T03120236 52004 IEM_DS3505
ZGSZ,2007-07-24 04:00,ZGSZ 240400Z AUTO 19006KT 6SM 33/26 A2983 RMK T03300260 IEM_DS3505
ZGSZ,2007-07-24 05:00,ZGSZ 240500Z AUTO 18010KT 6SM 33/25 A2980 RMK T03300250 IEM_DS3505
ZGSZ,2007-07-24 06:00,ZGSZ 240600Z AUTO 22010KT 19SM 33/24 A2980 RMK SLP095 T03270239 57012 IEM_DS3505
ZGSZ,2007-07-24 07:00,ZGSZ 240700Z AUTO 18014KT 6SM 33/26 A2977 RMK T03300260 IEM_DS3505
ZGSZ,2007-07-24 08:00,ZGSZ 240800Z AUTO 18012KT 6SM 32/25 A2977 RMK T03200250 IEM_DS3505
ZGSZ,2007-07-24 09:00,ZGSZ 240900Z AUTO 22008KT 19SM 31/25 A2977 RMK SLP081 T03130254 57014 IEM_DS3505
ZGSZ,2007-07-24 10:00,ZGSZ 241000Z AUTO 18014KT 6SM 31/25 A2974 RMK T03100250 IEM_DS3505
ZGSZ,2007-07-24 11:00,ZGSZ 241100Z AUTO 18014KT 6SM 30/26 A2977 RMK T03000260 IEM_DS3505
ZGSZ,2007-07-24 12:00,ZGSZ 241200Z AUTO 18002KT 19SM 30/24 A2977 RMK SLP091 T02950241 52009 IEM_DS3505
ZGSZ,2007-07-24 13:00,ZGSZ 241300Z AUTO 16012KT 6SM 30/25 A2980 RMK T03000250 IEM_DS3505
ZGSZ,2007-07-24 14:00,ZGSZ 241400Z AUTO 17010KT 7SM 30/25 A2983 RMK T03000250 IEM_DS3505
ZGSZ,2007-07-24 15:00,ZGSZ 241500Z AUTO 22002KT 19SM 28/25 A2983 RMK SLP109 T02840246 52018 IEM_DS3505
ZGSZ,2007-07-24 16:00,ZGSZ 241600Z AUTO 19010KT 7SM 30/25 A2983 RMK T03000250 IEM_DS3505
ZGSZ,2007-07-24 18:00,ZGSZ 241800Z AUTO 22002KT 19SM 28/24 RMK SLP102 T02820240 57006 IEM_DS3505
ZGSZ,2007-07-24 19:00,ZGSZ 241900Z AUTO 19010KT 7SM 29/25 A2983 RMK T02900250 IEM_DS3505
ZGSZ,2007-07-24 20:00,ZGSZ 242000Z AUTO 20010KT 7SM 29/25 A2983 RMK T02900250 IEM_DS3505
ZGSZ,2007-07-24 21:00,ZGSZ 242100Z AUTO 29002KT 16SM 28/24 A2983 RMK SLP101 T02750237 57002 IEM_DS3505
ZGSZ,2007-07-24 22:00,ZGSZ 242200Z AUTO 21008KT 7SM 29/25 A2983 RMK T02900250 IEM_DS3505
ZGSZ,2007-07-24 23:00,ZGSZ 242300Z AUTO 24006KT 7SM 29/25 A2985 RMK T02900250 IEM_DS3505
ZGSZ,2007-07-25 00:00,ZGSZ 250000Z AUTO 25004KT 19SM 29/24 A2985 RMK SLP115 T02870236 52014 IEM_DS3505
ZGSZ,2007-07-25 01:00,ZGSZ 250100Z AUTO 26004KT 7SM 31/25 A2985 RMK T03100250 IEM_DS3505
ZGSZ,2007-07-25 02:00,ZGSZ 250200Z AUTO 24004KT 6SM 31/24 A2985 RMK T03100240 IEM_DS3505
ZGSZ,2007-07-25 03:00,ZGSZ 250300Z AUTO 22006KT 19SM 32/25 A2985 RMK SLP110 T03240250 57004 IEM_DS3505
ZGSZ,2007-07-25 04:00,ZGSZ 250400Z AUTO 20006KT 6SM 32/24 A2983 RMK T03200240 IEM_DS3505
ZGSZ,2007-07-25 05:00,ZGSZ 250500Z AUTO 21008KT 6SM 33/25 A2980 RMK T03300250 IEM_DS3505
ZGSZ,2007-07-25 06:00,ZGSZ 250600Z AUTO 20006KT 19SM 34/24 A2980 RMK SLP089 T03350235 57021 IEM_DS3505
ZGSZ,2007-07-25 07:00,ZGSZ 250700Z AUTO 20012KT 6SM 33/25 A2977 RMK T03300250 IEM_DS3505
ZGSZ,2007-07-25 08:00,ZGSZ 250800Z AUTO 19012KT 6SM 33/25 A2974 RMK T03300250 IEM_DS3505
ZGSZ,2007-07-25 09:00,ZGSZ 250900Z AUTO 22012KT 19SM 32/24 A2974 RMK SLP078 T03210242 57011 IEM_DS3505
ZGSZ,2007-07-25 10:00,ZGSZ 251000Z AUTO 18016KT 6SM 31/25 A2974 RMK T03100250 IEM_DS3505
ZGSZ,2007-07-25 11:00,ZGSZ 251100Z AUTO 18016KT 6SM 30/25 A2974 RMK T03000250 IEM_DS3505
ZGSZ,2007-07-25 12:00,ZGSZ 251200Z AUTO 20006KT 19SM 29/23 A2977 RMK SLP089 T02930228 52010 IEM_DS3505
ZGSZ,2007-07-25 13:00,ZGSZ 251300Z AUTO 18012KT 6SM 30/24 A2980 RMK T03000240 IEM_DS3505
ZGSZ,2007-07-25 14:00,ZGSZ 251400Z AUTO 19008KT 6SM 30/25 A2980 RMK T03000250 IEM_DS3505
ZGSZ,2007-07-25 15:00,ZGSZ 251500Z AUTO 22004KT 19SM 28/23 A2983 RMK SLP098 T02850234 52010 IEM_DS3505
ZGSZ,2007-07-25 16:00,ZGSZ 251600Z AUTO 18008KT 6SM 29/24 A2980 RMK T02900240 IEM_DS3505
ZGSZ,2007-07-25 17:00,ZGSZ 251700Z AUTO 17008KT 7SM 29/25 A2980 RMK T02900250 IEM_DS3505
ZGSZ,2007-07-25 18:00,ZGSZ 251800Z AUTO 18002KT 19SM 28/24 A2980 RMK SLP090 T02770235 57008 IEM_DS3505
ZGSZ,2007-07-25 19:00,ZGSZ 251900Z AUTO 19006KT 7SM 28/24 A2977 RMK T02800240 IEM_DS3505
ZGSZ,2007-07-25 20:00,ZGSZ 252000Z AUTO 22008KT 7SM 29/24 A2977 RMK T02900240 IEM_DS3505
ZGSZ,2007-07-25 21:00,ZGSZ 252100Z AUTO 14002KT 16SM 27/23 A2977 RMK SLP087 T02720234 57003 IEM_DS3505
ZGSZ,2007-07-25 22:00,ZGSZ 252200Z AUTO 22004KT 7SM 28/24 A2980 RMK T02800240 IEM_DS3505
ZGSZ,2007-07-25 23:00,ZGSZ 252300Z AUTO 21004KT 7SM 29/24 A2980 RMK T02900240 IEM_DS3505
ZGSZ,2007-07-26 00:00,ZGSZ 260000Z AUTO 16002KT 19SM 29/24 A2983 RMK SLP102 T02910235 52014 IEM_DS3505
ZGSZ,2007-07-26 01:00,ZGSZ 260100Z AUTO 21004KT 7SM 30/25 A2983 RMK T03000250 IEM_DS3505
ZGSZ,2007-07-26 02:00,ZGSZ 260200Z AUTO 23004KT 7SM 31/25 A2983 RMK T03100250 IEM_DS3505
ZGSZ,2007-07-26 03:00,ZGSZ 260300Z AUTO 18006KT 19SM 32/22 A2983 RMK SLP105 T03230221 52004 IEM_DS3505
ZGSZ,2007-07-26 04:00,ZGSZ 260400Z AUTO 20008KT 7SM 32/24 A2983 RMK T03200240 IEM_DS3505
ZGSZ,2007-07-26 05:00,ZGSZ 260500Z AUTO 19008KT 6SM 32/24 A2980 RMK T03200240 IEM_DS3505
ZGSZ,2007-07-26 06:00,ZGSZ 260600Z AUTO 18006KT 19SM 32/24 A2980 RMK SLP091 T03240236 57014 IEM_DS3505
ZGSZ,2007-07-26 07:00,ZGSZ 260700Z AUTO 19010KT 6SM 33/25 A2977 RMK T03300250 IEM_DS3505
ZGSZ,2007-07-26 08:00,ZGSZ 260800Z AUTO 19010KT 6SM 32/25 A2974 RMK T03200250 IEM_DS3505
ZGSZ,2007-07-26 09:00,ZGSZ 260900Z AUTO 22010KT 19SM 32/24 A2974 RMK SLP079 T03180239 57012 IEM_DS3505
ZGSZ,2007-07-26 10:00,ZGSZ 261000Z AUTO 18010KT 6SM 31/26 A2974 RMK T03100260 IEM_DS3505
ZGSZ,2007-07-26 11:00,ZGSZ 261100Z AUTO 18010KT 6SM 30/25 A2977 RMK T03000250 IEM_DS3505
ZGSZ,2007-07-26 12:00,ZGSZ 261200Z AUTO 18004KT 16SM 29/23 A2980 RMK SLP092 T02910233 52012 IEM_DS3505
ZGSZ,2007-07-26 13:00,ZGSZ 261300Z AUTO 17008KT 6SM 30/25 A2980 RMK T03000250 IEM_DS3505
ZGSZ,2007-07-26 14:00,ZGSZ 261400Z AUTO 17008KT 6SM 30/25 A2980 RMK T03000250 IEM_DS3505
ZGSZ,2007-07-26 15:00,ZGSZ 261500Z AUTO 17008KT 11SM 28/23 A2980 RMK SLP099 T02830232 52008 IEM_DS3505
ZGSZ,2007-07-26 16:00,ZGSZ 261600Z AUTO 15006KT 6SM 28/24 A2980 RMK T02800240 IEM_DS3505
ZGSZ,2007-07-26 17:00,ZGSZ 261700Z AUTO 14004KT 6SM 28/23 A2980 RMK T02800230 IEM_DS3505
ZGSZ,2007-07-26 18:00,ZGSZ 261800Z AUTO 09002KT 11SM 28/23 A2980 RMK SLP089 T02770226 57010 IEM_DS3505
ZGSZ,2007-07-26 19:00,ZGSZ 261900Z AUTO 6SM 28/24 A2980 RMK T02800240 IEM_DS3505
ZGSZ,2007-07-26 20:00,ZGSZ 262000Z AUTO 08004KT 6SM 28/23 A2980 RMK T02800230 IEM_DS3505
ZGSZ,2007-07-26 21:00,ZGSZ 262100Z AUTO 34002KT 16SM 27/23 A2980 RMK SLP095 T02700228 52005 IEM_DS3505
ZGSZ,2007-07-26 22:00,ZGSZ 262200Z AUTO 6SM 28/23 A2983 RMK T02800230 IEM_DS3505
ZGSZ,2007-07-26 23:00,ZGSZ 262300Z AUTO 6SM 29/24 A2983 RMK T02900240 IEM_DS3505
ZGSZ,2007-07-27 00:00,ZGSZ 270000Z AUTO 36004KT 16SM 29/23 A2983 RMK SLP108 T02900234 52013 IEM_DS3505
ZGSZ,2007-07-27 01:00,ZGSZ 270100Z AUTO 23004KT 7SM 30/24 A2985 RMK T03000240 IEM_DS3505
ZGSZ,2007-07-27 02:00,ZGSZ 270200Z AUTO 25004KT 7SM 31/24 A2985 RMK T03100240 IEM_DS3505
ZGSZ,2007-07-27 03:00,ZGSZ 270300Z AUTO 22004KT 11SM 30/24 A2985 RMK SLP112 T03050239 52004 IEM_DS3505
ZGSZ,2007-07-27 04:00,ZGSZ 270400Z AUTO 24006KT 7SM 32/24 A2983 RMK T03200240 IEM_DS3505
ZGSZ,2007-07-27 05:00,ZGSZ 270500Z AUTO 19004KT 7SM 32/24 A2983 RMK T03200240 IEM_DS3505
ZGSZ,2007-07-27 06:00,ZGSZ 270600Z AUTO 16004KT 9SM 32/24 A2980 RMK 60102 SLP093 T03190237 57018 IEM_DS3505
ZGSZ,2007-07-27 07:00,ZGSZ 270700Z AUTO 18008KT 7SM 33/25 A2980 RMK T03300250 IEM_DS3505
ZGSZ,2007-07-27 08:00,ZGSZ 270800Z AUTO 7SM 34/24 A2977 RMK T03400240 IEM_DS3505
ZGSZ,2007-07-27 09:00,ZGSZ 270900Z AUTO 18004KT 16SM 31/22 A2977 RMK SLP083 T03100223 57011 IEM_DS3505
ZGSZ,2007-07-27 10:00,ZGSZ 271000Z AUTO 20006KT 6SM 32/26 A2977 RMK T03200260 IEM_DS3505
ZGSZ,2007-07-27 11:00,ZGSZ 271100Z AUTO 16006KT 6SM 31/24 A2977 RMK T03100240 IEM_DS3505
ZGSZ,2007-07-27 12:00,ZGSZ 271200Z AUTO 14002KT 19SM 29/22 A2977 RMK 60002 SLP089 T02930225 52006 IEM_DS3505
ZGSZ,2007-07-27 13:00,ZGSZ 271300Z AUTO 16006KT 6SM 30/23 A2980 RMK T03000230 IEM_DS3505
ZGSZ,2007-07-27 14:00,ZGSZ 271400Z AUTO 11008KT 6SM 30/24 A2980 RMK T03000240 IEM_DS3505
ZGSZ,2007-07-27 15:00,ZGSZ 271500Z AUTO 09002KT 19SM 29/24 A2983 RMK SLP102 T02870243 52013 IEM_DS3505
ZGSZ,2007-07-27 16:00,ZGSZ 271600Z AUTO 11006KT 6SM 30/25 A2980 RMK T03000250 IEM_DS3505
ZGSZ,2007-07-27 17:00,ZGSZ 271700Z AUTO 11004KT 6SM 29/25 A2980 RMK T02900250 IEM_DS3505
ZGSZ,2007-07-27 18:00,ZGSZ 271800Z AUTO 11004KT 19SM 28/24 A2980 RMK SLP092 T02850245 57009 IEM_DS3505
ZGSZ,2007-07-27 19:00,ZGSZ 271900Z AUTO 10006KT 6SM 29/25 A2980 RMK T02900250 IEM_DS3505
ZGSZ,2007-07-27 20:00,ZGSZ 272000Z AUTO 6SM 29/25 A2980 RMK T02900250 IEM_DS3505
ZGSZ,2007-07-27 21:00,ZGSZ 272100Z AUTO 02002KT 16SM 28/25 A2980 RMK 70104 SLP093 T02800246 54000 IEM_DS3505
ZGSZ,2007-07-27 22:00,ZGSZ 272200Z AUTO 03004KT 6SM 28/25 A2980 RMK T02800250 IEM_DS3505
ZGSZ,2007-07-27 23:00,ZGSZ 272300Z AUTO 02004KT 6SM 29/25 A2983 RMK T02900250 IEM_DS3505
ZGSZ,2007-07-28 00:00,ZGSZ 280000Z AUTO 09002KT 14SM 29/25 A2983 RMK 70104 SLP107 T02920252 52014 IEM_DS3505
ZGSZ,2007-07-28 01:00,ZGSZ 280100Z AUTO 09006KT 7SM 32/25 A2983 RMK T03200250 IEM_DS3505
ZGSZ,2007-07-28 02:00,ZGSZ 280200Z AUTO 7SM 32/24 A2983 RMK T03200240 IEM_DS3505
ZGSZ,2007-07-28 03:00,ZGSZ 280300Z AUTO 07006KT 16SM 33/24 A2983 RMK SLP107 T03260238 52001 IEM_DS3505
ZGSZ,2007-07-28 04:00,ZGSZ 280400Z AUTO 23008KT 7SM 32/25 A2983 RMK T03200250 IEM_DS3505
ZGSZ,2007-07-28 05:00,ZGSZ 280500Z AUTO 19006KT 7SM 32/25 A2980 RMK T03200250 IEM_DS3505
ZGSZ,2007-07-28 06:00,ZGSZ 280600Z AUTO 32004KT 14SM 28/23 A2980 RMK 60039 SLP091 T02770226 57017 IEM_DS3505
ZGSZ,2007-07-28 07:00,ZGSZ 280700Z AUTO 22004KT 7SM 33/26 A2977 RMK T03300260 IEM_DS3505
ZGSZ,2007-07-28 08:00,ZGSZ 280800Z AUTO 21006KT 7SM 32/26 A2974 RMK T03200260 IEM_DS3505
ZGSZ,2007-07-28 09:00,ZGSZ 280900Z AUTO 11006KT 19SM 32/22 A2974 RMK SLP071 T03240225 57019 IEM_DS3505
ZGSZ,2007-07-28 10:00,ZGSZ 281000Z AUTO 20008KT 7SM 31/25 A2974 RMK T03100250 IEM_DS3505
ZGSZ,2007-07-28 11:00,ZGSZ 281100Z AUTO 20008KT 7SM 31/25 A2974 RMK T03100250 IEM_DS3505
ZGSZ,2007-07-28 12:00,ZGSZ 281200Z AUTO 11006KT 16SM 30/24 A2977 RMK SLP082 T02990238 52011 IEM_DS3505
ZGSZ,2007-07-28 13:00,ZGSZ 281300Z AUTO 12006KT 6SM 31/24 A2977 RMK T03100240 IEM_DS3505
ZGSZ,2007-07-28 14:00,ZGSZ 281400Z AUTO 10006KT 6SM 30/24 A2980 RMK T03000240 IEM_DS3505
ZGSZ,2007-07-28 15:00,ZGSZ 281500Z AUTO 09004KT 11SM 29/25 A2980 RMK SLP096 T02910247 52014 IEM_DS3505
ZGSZ,2007-07-28 16:00,ZGSZ 281600Z AUTO 11006KT 6SM 30/25 A2980 RMK T03000250 IEM_DS3505
ZGSZ,2007-07-28 17:00,ZGSZ 281700Z AUTO 11004KT 6SM 29/25 A2980 RMK T02900250 IEM_DS3505
ZGSZ,2007-07-28 18:00,ZGSZ 281800Z AUTO 11002KT 11SM 29/24 A2980 RMK SLP090 T02880241 57007 IEM_DS3505
ZGSZ,2007-07-28 19:00,ZGSZ 281900Z AUTO 07002KT 6SM 29/25 A2977 RMK T02900250 IEM_DS3505
ZGSZ,2007-07-28 20:00,ZGSZ 282000Z AUTO 6SM 29/25 A2980 RMK T02900250 IEM_DS3505
ZGSZ,2007-07-28 21:00,ZGSZ 282100Z AUTO 01002KT 10SM 28/24 A2980 RMK 70041 SLP090 T02830245 52001 IEM_DS3505
ZGSZ,2007-07-28 22:00,ZGSZ 282200Z AUTO 01004KT 5SM 28/25 A2980 RMK T02800250 IEM_DS3505
ZGSZ,2007-07-28 23:00,ZGSZ 282300Z AUTO 02004KT 5SM 28/25 A2980 RMK T02800250 IEM_DS3505
ZGSZ,2007-07-29 00:00,ZGSZ 290000Z AUTO 04002KT 11SM 28/24 A2983 RMK 70041 SLP102 T02850239 52011 IEM_DS3505
ZGSZ,2007-07-29 01:00,ZGSZ 290100Z AUTO 12004KT 7SM 31/25 A2985 RMK T03100250 IEM_DS3505
ZGSZ,2007-07-29 02:00,ZGSZ 290200Z AUTO 14004KT 7SM 28/23 A2985 RMK T02800230 IEM_DS3505
ZGSZ,2007-07-29 03:00,ZGSZ 290300Z AUTO 18004KT 16SM 31/24 A2985 RMK SLP113 T03120236 52011 IEM_DS3505
ZGSZ,2007-07-29 04:00,ZGSZ 290400Z AUTO 23006KT 7SM 32/24 A2983 RMK T03200240 IEM_DS3505
ZGSZ,2007-07-29 05:00,ZGSZ 290500Z AUTO 22008KT 6SM 32/24 A2980 RMK T03200240 IEM_DS3505
ZGSZ,2007-07-29 06:00,ZGSZ 290600Z AUTO 20006KT 16SM 33/24 A2980 RMK SLP090 T03280237 57022 IEM_DS3505
ZGSZ,2007-07-29 07:00,ZGSZ 290700Z AUTO 20008KT 6SM 33/25 A2977 RMK T03300250 IEM_DS3505
ZGSZ,2007-07-29 08:00,ZGSZ 290800Z AUTO 21006KT 6SM 33/26 A2974 RMK T03300260 IEM_DS3505
ZGSZ,2007-07-29 09:00,ZGSZ 290900Z AUTO 27004KT 16SM 32/24 A2974 RMK SLP072 T03230238 57018 IEM_DS3505
ZGSZ,2007-07-29 10:00,ZGSZ 291000Z AUTO 18010KT 6SM 32/25 A2974 RMK T03200250 IEM_DS3505
ZGSZ,2007-07-29 11:00,ZGSZ 291100Z AUTO 18010KT 6SM 31/26 A2974 RMK T03100260 IEM_DS3505
ZGSZ,2007-07-29 12:00,ZGSZ 291200Z AUTO 16004KT 12SM 29/24 A2977 RMK SLP086 T02940243 52013 IEM_DS3505
ZGSZ,2007-07-29 13:00,ZGSZ 291300Z AUTO 16010KT 6SM 31/25 A2980 RMK T03100250 IEM_DS3505
ZGSZ,2007-07-29 14:00,ZGSZ 291400Z AUTO 16008KT 6SM 30/24 A2980 RMK T03000240 IEM_DS3505
ZGSZ,2007-07-29 15:00,ZGSZ 291500Z AUTO 15008KT 14SM 29/22 A2983 RMK SLP103 T02910223 52018 IEM_DS3505
ZGSZ,2007-07-29 16:00,ZGSZ 291600Z AUTO 16006KT 6SM 29/24 A2983 RMK T02900240 IEM_DS3505
ZGSZ,2007-07-29 17:00,ZGSZ 291700Z AUTO 15004KT 6SM 28/24 A2980 RMK T02800240 IEM_DS3505
ZGSZ,2007-07-29 18:00,ZGSZ 291800Z AUTO 16004KT 9SM 28/23 A2980 RMK SLP093 T02830228 57010 IEM_DS3505
ZGSZ,2007-07-29 19:00,ZGSZ 291900Z AUTO 13002KT 6SM 29/24 A2980 RMK T02900240 IEM_DS3505
ZGSZ,2007-07-29 20:00,ZGSZ 292000Z AUTO 00000KT 6SM 29/24 A2980 RMK T02900240 IEM_DS3505
ZGSZ,2007-07-29 21:00,ZGSZ 292100Z AUTO 00000KT 6SM 28/24 A2980 RMK SLP093 T02770239 54000 IEM_DS3505
ZGSZ,2007-07-29 22:00,ZGSZ 292200Z AUTO 11002KT 7SM 28/24 A2980 RMK T02800240 IEM_DS3505
ZGSZ,2007-07-29 23:00,ZGSZ 292300Z AUTO 7SM 30/25 A2980 RMK T03000250 IEM_DS3505
ZGSZ,2007-07-30 00:00,ZGSZ 300000Z AUTO 00000KT 9SM 30/24 A2983 RMK SLP101 T02980244 52007 IEM_DS3505
ZGSZ,2007-07-30 01:00,ZGSZ 300100Z AUTO 00000KT 7SM 31/24 A2983 RMK T03100240 IEM_DS3505
ZGSZ,2007-07-30 02:00,ZGSZ 300200Z AUTO 22004KT 7SM 31/25 A2983 RMK T03100250 IEM_DS3505
ZGSZ,2007-07-30 03:00,ZGSZ 300300Z AUTO 16002KT 9SM 33/23 A2983 RMK SLP099 T03260227 57001 IEM_DS3505
ZGSZ,2007-07-30 04:00,ZGSZ 300400Z AUTO 21006KT 7SM 32/26 A2980 RMK T03200260 IEM_DS3505
ZGSZ,2007-07-30 05:00,ZGSZ 300500Z AUTO 20008KT 7SM 33/25 A2980 RMK T03300250 IEM_DS3505
ZGSZ,2007-07-30 06:00,ZGSZ 300600Z AUTO 20004KT 9SM 34/24 A2977 RMK SLP084 T03380235 57015 IEM_DS3505
ZGSZ,2007-07-30 07:00,ZGSZ 300700Z AUTO 20010KT 7SM 33/25 A2974 RMK T03300250 IEM_DS3505
ZGSZ,2007-07-30 08:00,ZGSZ 300800Z AUTO 18012KT 7SM 33/25 A2974 RMK T03300250 IEM_DS3505
ZGSZ,2007-07-30 09:00,ZGSZ 300900Z AUTO 11004KT 14SM 30/23 A2974 RMK SLP075 T03040233 57010 IEM_DS3505
ZGSZ,2007-07-30 10:00,ZGSZ 301000Z AUTO 19012KT 6SM 32/25 A2974 RMK T03200250 IEM_DS3505
ZGSZ,2007-07-30 11:00,ZGSZ 301100Z AUTO 18012KT 6SM 31/26 A2974 RMK T03100260 IEM_DS3505
ZGSZ,2007-07-30 12:00,ZGSZ 301200Z AUTO 16004KT 19SM 29/24 A2977 RMK 60008 SLP086 T02930237 52012 IEM_DS3505
ZGSZ,2007-07-30 13:00,ZGSZ 301300Z AUTO 17010KT 6SM 30/26 A2977 RMK T03000260 IEM_DS3505
ZGSZ,2007-07-30 14:00,ZGSZ 301400Z AUTO 17010KT 6SM 30/25 A2980 RMK T03000250 IEM_DS3505
ZGSZ,2007-07-30 15:00,ZGSZ 301500Z AUTO 18002KT 19SM 29/24 A2980 RMK SLP095 T02870243 52009 IEM_DS3505
ZGSZ,2007-07-30 16:00,ZGSZ 301600Z AUTO 18008KT 6SM 29/26 A2980 RMK T02900260 IEM_DS3505
ZGSZ,2007-07-30 17:00,ZGSZ 301700Z AUTO 18006KT 6SM 29/25 A2977 RMK T02900250 IEM_DS3505
ZGSZ,2007-07-30 18:00,ZGSZ 301800Z AUTO 16004KT 16SM 28/24 A2977 RMK SLP084 T02830245 57011 IEM_DS3505
ZGSZ,2007-07-30 19:00,ZGSZ 301900Z AUTO 18006KT 6SM 29/25 A2977 RMK T02900250 IEM_DS3505
ZGSZ,2007-07-30 20:00,ZGSZ 302000Z AUTO 18004KT 6SM 29/25 A2974 RMK T02900250 IEM_DS3505
ZGSZ,2007-07-30 21:00,ZGSZ 302100Z AUTO 14004KT 17SM 28/24 A2974 RMK 70007 SLP078 T02770241 57007 IEM_DS3505
ZGSZ,2007-07-30 22:00,ZGSZ 302200Z AUTO 13004KT 6SM 28/25 A2977 RMK T02800250 IEM_DS3505
ZGSZ,2007-07-30 23:00,ZGSZ 302300Z AUTO 15004KT 7SM 30/25 A2977 RMK T03000250 IEM_DS3505
ZGSZ,2007-07-31 00:00,ZGSZ 310000Z AUTO 16002KT 19SM 29/24 A2977 RMK 70007 SLP089 T02920243 52011 IEM_DS3505
ZGSZ,2007-07-31 01:00,ZGSZ 310100Z AUTO 21004KT 7SM 31/25 A2980 RMK T03100250 IEM_DS3505
ZGSZ,2007-07-31 02:00,ZGSZ 310200Z AUTO 22006KT 7SM 32/25 A2980 RMK T03200250 IEM_DS3505
ZGSZ,2007-07-31 03:00,ZGSZ 310300Z AUTO 22004KT 19SM 32/24 A2977 RMK SLP089 T03200238 52001 IEM_DS3505
ZGSZ,2007-07-31 04:00,ZGSZ 310400Z AUTO 20008KT 7SM 33/25 A2977 RMK T03300250 IEM_DS3505
ZGSZ,2007-07-31 05:00,ZGSZ 310500Z AUTO 21010KT 7SM 31/25 A2974 RMK T03100250 IEM_DS3505
ZGSZ,2007-07-31 06:00,ZGSZ 310600Z AUTO 22008KT 19SM 32/24 A2974 RMK SLP071 T03180244 57018 IEM_DS3505
ZGSZ,2007-07-31 07:00,ZGSZ 310700Z AUTO 19012KT 6SM 33/26 A2971 RMK T03300260 IEM_DS3505
ZGSZ,2007-07-31 08:00,ZGSZ 310800Z AUTO 18012KT 6SM 32/25 A2971 RMK T03200250 IEM_DS3505
ZGSZ,2007-07-31 09:00,ZGSZ 310900Z AUTO 22008KT 19SM 31/22 A2971 RMK SLP062 T03080224 57009 IEM_DS3505
ZGSZ,2007-07-31 10:00,ZGSZ 311000Z AUTO 17010KT 6SM 31/24 A2968 RMK T03100240 IEM_DS3505
ZGSZ,2007-07-31 11:00,ZGSZ 311100Z AUTO 16010KT 6SM 30/25 A2971 RMK T03000250 IEM_DS3505
ZGSZ,2007-07-31 12:00,ZGSZ 311200Z AUTO 16006KT 19SM 29/24 A2971 RMK SLP070 T02910238 52008 IEM_DS3505
ZGSZ,2007-07-31 13:00,ZGSZ 311300Z AUTO 17010KT 6SM 30/26 A2974 RMK T03000260 IEM_DS3505
ZGSZ,2007-07-31 14:00,ZGSZ 311400Z AUTO 17008KT 6SM 30/26 A2977 RMK T03000260 IEM_DS3505
ZGSZ,2007-07-31 15:00,ZGSZ 311500Z AUTO 22004KT 19SM 29/24 A2977 RMK SLP085 T02860240 52015 IEM_DS3505
ZGSZ,2007-07-31 16:00,ZGSZ 311600Z AUTO 19008KT 7SM 29/26 A2977 RMK T02900260 IEM_DS3505
ZGSZ,2007-07-31 17:00,ZGSZ 311700Z AUTO 21008KT 7SM 30/25 A2977 RMK T03000250 IEM_DS3505
ZGSZ,2007-07-31 18:00,ZGSZ 311800Z AUTO 22004KT 19SM 28/25 A2974 RMK SLP078 T02850247 57007 IEM_DS3505
ZGSZ,2007-07-31 19:00,ZGSZ 311900Z AUTO 23004KT 7SM 29/25 A2974 RMK T02900250 IEM_DS3505
ZGSZ,2007-07-31 20:00,ZGSZ 312000Z AUTO 24004KT 7SM 29/25 A2974 RMK T02900250 IEM_DS3505
ZGSZ,2007-07-31 21:00,ZGSZ 312100Z AUTO 20002KT 19SM 28/24 A2974 RMK SLP070 T02760242 57008 IEM_DS3505
ZGSZ,2007-07-31 22:00,ZGSZ 312200Z AUTO 7SM 28/25 A2974 RMK T02800250 IEM_DS3505
ZGSZ,2007-07-31 23:00,ZGSZ 312300Z AUTO 7SM 29/25 A2974 RMK T02900250 IEM_DS3505
ZGSZ,2007-08-01 00:00,ZGSZ 010000Z AUTO 14004KT 19SM 30/25 A2974 RMK SLP079 T02990248 52009 IEM_DS3505
ZGSZ,2007-08-01 01:00,ZGSZ 010100Z AUTO 7SM 31/25 A2977 RMK T03100250 IEM_DS3505
ZGSZ,2007-08-01 02:00,ZGSZ 010200Z AUTO 25004KT 7SM 32/25 A2977 RMK T03200250 IEM_DS3505
ZGSZ,2007-08-01 03:00,ZGSZ 010300Z AUTO 20006KT 19SM 32/25 A2977 RMK SLP081 T03230249 52002 IEM_DS3505
ZGSZ,2007-08-01 04:00,ZGSZ 010400Z AUTO 20006KT 7SM 32/25 A2974 RMK T03200250 IEM_DS3505
ZGSZ,2007-08-01 05:00,ZGSZ 010500Z AUTO 19008KT 7SM 33/26 A2974 RMK T03300260 IEM_DS3505
ZGSZ,2007-08-01 06:00,ZGSZ 010600Z AUTO 20008KT 19SM 31/24 A2971 RMK SLP066 T03130239 57015 IEM_DS3505
ZGSZ,2007-08-01 07:00,ZGSZ 010700Z AUTO 19010KT 6SM 32/25 A2968 RMK T03200250 IEM_DS3505
ZGSZ,2007-08-01 08:00,ZGSZ 010800Z AUTO 18010KT 6SM 31/26 A2968 RMK T03100260 IEM_DS3505
ZGSZ,2007-08-01 09:00,ZGSZ 010900Z AUTO 25010KT 19SM 31/24 A2965 RMK SLP045 T03120236 57021 IEM_DS3505
ZGSZ,2007-08-01 10:00,ZGSZ 011000Z AUTO 18008KT 6SM 31/26 A2965 RMK T03100260 IEM_DS3505
ZGSZ,2007-08-01 11:00,ZGSZ 011100Z AUTO 17010KT 6SM 31/26 A2965 RMK T03100260 IEM_DS3505
ZGSZ,2007-08-01 12:00,ZGSZ 011200Z AUTO 22006KT 19SM 30/24 A2968 RMK SLP055 T02960245 52010 IEM_DS3505
ZGSZ,2007-08-01 13:00,ZGSZ 011300Z AUTO 18012KT 6SM 30/26 A2971 RMK T03000260 IEM_DS3505
ZGSZ,2007-08-01 14:00,ZGSZ 011400Z AUTO 19010KT 6SM 30/26 A2971 RMK T03000260 IEM_DS3505
ZGSZ,2007-08-01 15:00,ZGSZ 011500Z AUTO 22008KT 19SM 29/25 A2971 RMK SLP068 T02900250 52013 IEM_DS3505
ZGSZ,2007-08-01 16:00,ZGSZ 011600Z AUTO 20006KT 7SM 30/25 A2971 RMK T03000250 IEM_DS3505
ZGSZ,2007-08-01 17:00,ZGSZ 011700Z AUTO 20006KT 7SM 29/25 A2971 RMK T02900250 IEM_DS3505
ZGSZ,2007-08-01 18:00,ZGSZ 011800Z AUTO 22002KT 19SM 28/25 A2968 RMK SLP058 T02840248 57010 IEM_DS3505
ZGSZ,2007-08-01 19:00,ZGSZ 011900Z AUTO 20006KT 7SM 29/25 A2968 RMK T02900250 IEM_DS3505
ZGSZ,2007-08-01 20:00,ZGSZ 012000Z AUTO 20006KT 7SM 29/25 A2971 RMK T02900250 IEM_DS3505
ZGSZ,2007-08-01 21:00,ZGSZ 012100Z AUTO 27004KT 19SM 28/25 A2971 RMK SLP062 T02810247 52004 IEM_DS3505
ZGSZ,2007-08-01 22:00,ZGSZ 012200Z AUTO 22006KT 7SM 29/25 A2971 RMK T02900250 IEM_DS3505
ZGSZ,2007-08-01 23:00,ZGSZ 012300Z AUTO 27004KT 7SM 29/25 A2974 RMK T02900250 IEM_DS3505
ZGSZ,2007-08-02 00:00,ZGSZ 020000Z AUTO 22004KT 19SM 29/25 A2974 RMK SLP074 T02900246 52012 IEM_DS3505
ZGSZ,2007-08-02 01:00,ZGSZ 020100Z AUTO 24004KT 7SM 31/25 A2974 RMK T03100250 IEM_DS3505
ZGSZ,2007-08-02 02:00,ZGSZ 020200Z AUTO 22004KT 7SM 31/24 A2974 RMK T03100240 IEM_DS3505
ZGSZ,2007-08-02 03:00,ZGSZ 020300Z AUTO 20006KT 19SM 32/23 A2974 RMK SLP076 T03160229 52002 IEM_DS3505
ZGSZ,2007-08-02 04:00,ZGSZ 020400Z AUTO 21004KT 7SM 33/25 A2974 RMK T03300250 IEM_DS3505
ZGSZ,2007-08-02 05:00,ZGSZ 020500Z AUTO 19006KT 7SM 33/25 A2971 RMK T03300250 IEM_DS3505
ZGSZ,2007-08-02 06:00,ZGSZ 020600Z AUTO 22008KT 19SM 33/22 A2971 RMK SLP059 T03310219 57017 IEM_DS3505
ZGSZ,2007-08-02 07:00,ZGSZ 020700Z AUTO 19008KT 7SM 34/27 A2968 RMK T03400270 IEM_DS3505
ZGSZ,2007-08-02 08:00,ZGSZ 020800Z AUTO 18010KT 7SM 33/26 A2965 RMK T03300260 IEM_DS3505
ZGSZ,2007-08-02 09:00,ZGSZ 020900Z AUTO 22004KT 19SM 33/23 A2965 RMK SLP040 T03310231 57019 IEM_DS3505
ZGSZ,2007-08-02 10:00,ZGSZ 021000Z AUTO 18012KT 6SM 32/26 A2965 RMK T03200260 IEM_DS3505
ZGSZ,2007-08-02 11:00,ZGSZ 021100Z AUTO 17010KT 6SM 31/26 A2965 RMK T03100260 IEM_DS3505
ZGSZ,2007-08-02 12:00,ZGSZ 021200Z AUTO 22004KT 19SM 30/25 A2965 RMK SLP052 T03000249 52012 IEM_DS3505
ZGSZ,2007-08-02 13:00,ZGSZ 021300Z AUTO 18012KT 6SM 31/26 A2968 RMK T03100260 IEM_DS3505
ZGSZ,2007-08-02 14:00,ZGSZ 021400Z AUTO 18012KT 6SM 30/25 A2971 RMK T03000250 IEM_DS3505
ZGSZ,2007-08-02 15:00,ZGSZ 021500Z AUTO 18010KT 19SM 29/24 A2974 RMK SLP075 T02880244 52023 IEM_DS3505
ZGSZ,2007-08-02 16:00,ZGSZ 021600Z AUTO 18010KT 6SM 30/26 A2974 RMK T03000260 IEM_DS3505
ZGSZ,2007-08-02 17:00,ZGSZ 021700Z AUTO 18010KT 6SM 30/25 A2974 RMK T03000250 IEM_DS3505
ZGSZ,2007-08-02 18:00,ZGSZ 021800Z AUTO 16002KT 17SM 29/24 A2971 RMK SLP068 T02860244 57007 IEM_DS3505
ZGSZ,2007-08-02 19:00,ZGSZ 021900Z AUTO 18008KT 7SM 30/26 A2971 RMK T03000260 IEM_DS3505
ZGSZ,2007-08-02 20:00,ZGSZ 022000Z AUTO 18006KT 7SM 29/25 A2971 RMK T02900250 IEM_DS3505
ZGSZ,2007-08-02 21:00,ZGSZ 022100Z AUTO 16002KT 19SM 28/24 A2971 RMK SLP063 T02830239 57005 IEM_DS3505
ZGSZ,2007-08-02 22:00,ZGSZ 022200Z AUTO 14006KT 7SM 28/25 A2971 RMK T02800250 IEM_DS3505
ZGSZ,2007-08-02 23:00,ZGSZ 022300Z AUTO 15004KT 7SM 30/26 A2971 RMK T03000260 IEM_DS3505
ZGSZ,2007-08-03 00:00,ZGSZ 030000Z AUTO 14004KT 19SM 29/24 A2971 RMK SLP066 T02930240 52003 IEM_DS3505
ZGSZ,2007-08-03 01:00,ZGSZ 030100Z AUTO 18006KT 7SM 31/26 A2971 RMK T03100260 IEM_DS3505
ZGSZ,2007-08-03 02:00,ZGSZ 030200Z AUTO 21006KT 7SM 32/26 A2971 RMK T03200260 IEM_DS3505
ZGSZ,2007-08-03 03:00,ZGSZ 030300Z AUTO 25004KT 19SM 33/22 A2971 RMK SLP066 T03310225 54000 IEM_DS3505
ZGSZ,2007-08-03 04:00,ZGSZ 030400Z AUTO 20010KT 7SM 33/26 A2971 RMK T03300260 IEM_DS3505
ZGSZ,2007-08-03 05:00,ZGSZ 030500Z AUTO 19010KT 7SM 33/25 A2971 RMK T03300250 IEM_DS3505
ZGSZ,2007-08-03 06:00,ZGSZ 030600Z AUTO 22008KT 19SM 33/24 A2968 RMK SLP054 T03330239 57012 IEM_DS3505
ZGSZ,2007-08-03 07:00,ZGSZ 030700Z AUTO 19012KT 7SM 34/26 A2968 RMK T03400260 IEM_DS3505
ZGSZ,2007-08-03 08:00,ZGSZ 030800Z AUTO 19014KT 7SM 33/25 A2965 RMK T03300250 IEM_DS3505
ZGSZ,2007-08-03 09:00,ZGSZ 030900Z AUTO 20002KT 19SM 33/22 A2965 RMK SLP043 T03340219 57011 IEM_DS3505
ZGSZ,2007-08-03 10:00,ZGSZ 031000Z AUTO 19010KT 7SM 32/25 A2962 RMK T03200250 IEM_DS3505
ZGSZ,2007-08-03 11:00,ZGSZ 031100Z AUTO 18010KT 6SM 31/25 A2965 RMK T03100250 IEM_DS3505
ZGSZ,2007-08-03 12:00,ZGSZ 031200Z AUTO 18004KT 19SM 30/23 A2965 RMK SLP049 T02990234 52006 IEM_DS3505
ZGSZ,2007-08-03 13:00,ZGSZ 031300Z AUTO 15008KT 6SM 30/24 A2968 RMK T03000240 IEM_DS3505
ZGSZ,2007-08-03 14:00,ZGSZ 031400Z AUTO 16010KT 6SM 30/25 A2971 RMK T03000250 IEM_DS3505
ZGSZ,2007-08-03 15:00,ZGSZ 031500Z AUTO 07002KT 19SM 29/24 A2971 RMK SLP066 T02910242 52017 IEM_DS3505
ZGSZ,2007-08-03 16:00,ZGSZ 031600Z AUTO 10006KT 6SM 30/25 A2971 RMK T03000250 IEM_DS3505
ZGSZ,2007-08-03 17:00,ZGSZ 031700Z AUTO 12004KT 6SM 29/25 A2971 RMK T02900250 IEM_DS3505
ZGSZ,2007-08-03 18:00,ZGSZ 031800Z AUTO 07004KT 19SM 29/24 A2968 RMK SLP053 T02880244 57013 IEM_DS3505
ZGSZ,2007-08-03 19:00,ZGSZ 031900Z AUTO 6SM 29/25 A2968 RMK T02900250 IEM_DS3505
ZGSZ,2007-08-03 20:00,ZGSZ 032000Z AUTO 06004KT 6SM 29/25 A2968 RMK T02900250 IEM_DS3505
ZGSZ,2007-08-03 21:00,ZGSZ 032100Z AUTO 34002KT 14SM 28/24 A2968 RMK SLP054 T02800244 52001 IEM_DS3505
ZGSZ,2007-08-03 23:00,ZGSZ 032300Z AUTO 07004KT 6SM 29/25 A2968 RMK T02900250 IEM_DS3505
ZGSZ,2007-08-04 00:00,ZGSZ 040000Z AUTO 11008KT 14SM 30/25 A2968 RMK SLP058 T02970246 52004 IEM_DS3505
ZGSZ,2007-08-04 01:00,ZGSZ 040100Z AUTO 09008KT 7SM 32/25 A2971 RMK T03200250 IEM_DS3505
ZGSZ,2007-08-04 02:00,ZGSZ 040200Z AUTO 12006KT 7SM 33/25 A2971 RMK T03300250 IEM_DS3505
ZGSZ,2007-08-04 03:00,ZGSZ 040300Z AUTO 07006KT 19SM 32/23 A2971 RMK SLP062 T03230227 52004 IEM_DS3505
ZGSZ,2007-08-04 04:00,ZGSZ 040400Z AUTO 21006KT 7SM 33/27 A2968 RMK T03300270 IEM_DS3505
ZGSZ,2007-08-04 05:00,ZGSZ 040500Z AUTO 21008KT 7SM 34/26 A2968 RMK T03400260 IEM_DS3505
ZGSZ,2007-08-04 06:00,ZGSZ 040600Z AUTO 11008G35KT 19SM 34/22 A2965 RMK SLP047 T03380219 57015 IEM_DS3505
ZGSZ,2007-08-04 07:00,ZGSZ 040700Z AUTO 00000KT 7SM 31/24 A2965 RMK T03100240 IEM_DS3505
ZGSZ,2007-08-04 08:00,ZGSZ 040800Z AUTO 18004KT 7SM 33/26 A2962 RMK T03300260 IEM_DS3505
ZGSZ,2007-08-04 09:00,ZGSZ 040900Z AUTO 11006KT 19SM 33/22 A2962 RMK SLP037 T03300221 57010 IEM_DS3505
ZGSZ,2007-08-04 10:00,ZGSZ 041000Z AUTO 17010KT 7SM 32/25 A2962 RMK T03200250 IEM_DS3505
ZGSZ,2007-08-04 11:00,ZGSZ 041100Z AUTO 17008KT 6SM 31/25 A2965 RMK T03100250 IEM_DS3505
ZGSZ,2007-08-04 12:00,ZGSZ 041200Z AUTO 11006KT 19SM 30/24 A2968 RMK SLP055 T03040243 52018 IEM_DS3505
ZGSZ,2007-08-04 13:00,ZGSZ 041300Z AUTO 10006KT 6SM 31/25 A2968 RMK T03100250 IEM_DS3505
ZGSZ,2007-08-04 14:00,ZGSZ 041400Z AUTO 10006KT 6SM 31/25 A2971 RMK T03100250 IEM_DS3505
ZGSZ,2007-08-04 15:00,ZGSZ 041500Z AUTO 04002KT 14SM 29/25 A2971 RMK SLP068 T02940249 52013 IEM_DS3505
ZGSZ,2007-08-04 16:00,ZGSZ 041600Z AUTO 11008KT 7SM 30/25 A2971 RMK T03000250 IEM_DS3505
ZGSZ,2007-08-04 17:00,ZGSZ 041700Z AUTO 10006KT 7SM 30/25 A2971 RMK T03000250 IEM_DS3505
ZGSZ,2007-08-04 18:00,ZGSZ 041800Z AUTO 07006KT 12SM 28/24 A2968 RMK 60000 SLP059 T02790235 57009 IEM_DS3505
ZGSZ,2007-08-04 19:00,ZGSZ 041900Z AUTO 08006KT 7SM 30/25 A2968 RMK T03000250 IEM_DS3505
ZGSZ,2007-08-04 20:00,ZGSZ 042000Z AUTO 09006KT 7SM 29/24 A2968 RMK T02900240 IEM_DS3505
ZGSZ,2007-08-04 21:00,ZGSZ 042100Z AUTO 09004KT 12SM 28/23 A2968 RMK 70001 SLP057 T02820229 57002 IEM_DS3505
ZGSZ,2007-08-04 22:00,ZGSZ 042200Z AUTO 05004KT 7SM 29/25 A2971 RMK T02900250 IEM_DS3505
ZGSZ,2007-08-04 23:00,ZGSZ 042300Z AUTO 36004KT 7SM 30/25 A2971 RMK T03000250 IEM_DS3505
ZGSZ,2007-08-05 00:00,ZGSZ 050000Z AUTO 07006KT 12SM 30/24 A2971 RMK 70001 SLP066 T02950244 52009 IEM_DS3505
ZGSZ,2007-08-05 01:00,ZGSZ 050100Z AUTO 07006KT 7SM 32/25 A2971 RMK T03200250 IEM_DS3505
ZGSZ,2007-08-05 02:00,ZGSZ 050200Z AUTO 08006KT 7SM 33/25 A2971 RMK T03300250 IEM_DS3505
ZGSZ,2007-08-05 03:00,ZGSZ 050300Z AUTO 07006KT 16SM 32/23 A2971 RMK SLP068 T03230233 52002 IEM_DS3505
ZGSZ,2007-08-05 04:00,ZGSZ 050400Z AUTO 11006KT 7SM 35/23 A2971 RMK T03500230 IEM_DS3505
ZGSZ,2007-08-05 05:00,ZGSZ 050500Z AUTO 18014KT 7SM 31/26 A2968 RMK T03100260 IEM_DS3505
ZGSZ,2007-08-05 06:00,ZGSZ 050600Z AUTO 09004KT 19SM 31/24 A2968 RMK SLP059 T03090238 57009 IEM_DS3505
ZGSZ,2007-08-05 07:00,ZGSZ 050700Z AUTO 7SM 32/25 A2968 RMK T03200250 IEM_DS3505
ZGSZ,2007-08-05 08:00,ZGSZ 050800Z AUTO 17008KT 7SM 33/26 A2968 RMK T03300260 IEM_DS3505
ZGSZ,2007-08-05 09:00,ZGSZ 050900Z AUTO 07004KT 19SM 32/24 A2965 RMK SLP051 T03150239 57008 IEM_DS3505
ZGSZ,2007-08-05 10:00,ZGSZ 051000Z AUTO 11008KT 7SM 32/25 A2968 RMK T03200250 IEM_DS3505
ZGSZ,2007-08-05 11:00,ZGSZ 051100Z AUTO 10010KT 7SM 32/24 A2968 RMK T03200240 IEM_DS3505
ZGSZ,2007-08-05 12:00,ZGSZ 051200Z AUTO 07006KT 19SM 29/24 A2971 RMK 60002 SLP065 T02910240 52014 IEM_DS3505
ZGSZ,2007-08-05 13:00,ZGSZ 051300Z AUTO 08010KT 7SM 30/24 A2974 RMK T03000240 IEM_DS3505
ZGSZ,2007-08-05 14:00,ZGSZ 051400Z AUTO 11008KT 7SM 30/24 A2974 RMK T03000240 IEM_DS3505
ZGSZ,2007-08-05 15:00,ZGSZ 051500Z AUTO 07006KT 19SM 28/24 A2974 RMK SLP071 T02840238 52006 IEM_DS3505
ZGSZ,2007-08-05 16:00,ZGSZ 051600Z AUTO 08004KT 6SM 29/24 A2974 RMK T02900240 IEM_DS3505
ZGSZ,2007-08-05 18:00,ZGSZ 051800Z AUTO 09006KT 19SM 28/24 A2971 RMK SLP064 T02800238 57007 IEM_DS3505
ZGSZ,2007-08-05 19:00,ZGSZ 051900Z AUTO 07004KT 7SM 28/24 A2971 RMK T02800240 IEM_DS3505
ZGSZ,2007-08-05 20:00,ZGSZ 052000Z AUTO 07004KT 7SM 28/24 A2971 RMK T02800240 IEM_DS3505
ZGSZ,2007-08-05 21:00,ZGSZ 052100Z AUTO 04004KT 16SM 26/23 A2971 RMK 70003 SLP066 T02600229 52001 IEM_DS3505
ZGSZ,2007-08-05 22:00,ZGSZ 052200Z AUTO 05006KT 7SM 28/24 A2974 RMK T02800240 IEM_DS3505
ZGSZ,2007-08-05 23:00,ZGSZ 052300Z AUTO 08006KT 7SM 28/24 A2974 RMK T02800240 IEM_DS3505
ZGSZ,2007-08-06 00:00,ZGSZ 060000Z AUTO 07006KT 16SM 27/24 A2974 RMK 60008 70009 SLP076 T02670238 52010 IEM_DS3505
ZGSZ,2007-08-06 01:00,ZGSZ 060100Z AUTO 08006KT 7SM 30/25 A2974 RMK T03000250 IEM_DS3505
ZGSZ,2007-08-06 02:00,ZGSZ 060200Z AUTO 08008KT 7SM 32/24 A2974 RMK T03200240 IEM_DS3505
ZGSZ,2007-08-06 03:00,ZGSZ 060300Z AUTO 07004KT 16SM 27/25 A2974 RMK SLP077 T02690246 52001 IEM_DS3505
ZGSZ,2007-08-06 04:00,ZGSZ 060400Z AUTO 09006KT 7SM 29/25 A2974 RMK T02900250 IEM_DS3505
ZGSZ,2007-08-06 05:00,ZGSZ 060500Z AUTO 10010KT 2 1/2SM 29/25 A2974 RMK T02900250 IEM_DS3505
ZGSZ,2007-08-06 06:00,ZGSZ 060600Z AUTO 09006KT 16SM 28/24 A2968 RMK 60012 SLP062 T02760238 57015 IEM_DS3505
ZGSZ,2007-08-06 07:00,ZGSZ 060700Z AUTO 11010G19KT 7SM 31/25 A2968 RMK T03100250 IEM_DS3505
ZGSZ,2007-08-06 08:00,ZGSZ 060800Z AUTO 10012KT 7SM 31/24 A2965 RMK T03100240 IEM_DS3505
ZGSZ,2007-08-06 09:00,ZGSZ 060900Z AUTO 11006KT 19SM 30/24 A2965 RMK SLP047 T03020236 57015 IEM_DS3505
ZGSZ,2007-08-06 10:00,ZGSZ 061000Z AUTO 10010KT 7SM 31/24 A2965 RMK T03100240 IEM_DS3505
ZGSZ,2007-08-06 11:00,ZGSZ 061100Z AUTO 10010KT 7SM 30/24 A2968 RMK T03000240 IEM_DS3505
ZGSZ,2007-08-06 12:00,ZGSZ 061200Z AUTO 07004KT 16SM 28/23 A2971 RMK SLP061 T02770229 52014 IEM_DS3505
ZGSZ,2007-08-06 13:00,ZGSZ 061300Z AUTO 11004KT 7SM 29/24 A2971 RMK T02900240 IEM_DS3505
ZGSZ,2007-08-06 14:00,ZGSZ 061400Z AUTO 08008KT 6SM 28/23 A2971 RMK T02800230 IEM_DS3505
ZGSZ,2007-08-06 15:00,ZGSZ 061500Z AUTO 11004KT 16SM 27/23 A2971 RMK SLP070 T02710234 52009 IEM_DS3505
ZGSZ,2007-08-06 16:00,ZGSZ 061600Z AUTO 07004KT 6SM 28/23 A2971 RMK T02800230 IEM_DS3505
ZGSZ,2007-08-06 17:00,ZGSZ 061700Z AUTO 10004KT 6SM 28/24 A2968 RMK T02800240 IEM_DS3505
ZGSZ,2007-08-06 18:00,ZGSZ 061800Z AUTO 07004KT 16SM 27/24 A2965 RMK 60003 SLP049 T02730238 57021 IEM_DS3505
ZGSZ,2007-08-06 19:00,ZGSZ 061900Z AUTO 05004KT 6SM 28/24 A2965 RMK T02800240 IEM_DS3505
ZGSZ,2007-08-06 20:00,ZGSZ 062000Z AUTO 07004KT 6SM 28/24 A2962 RMK T02800240 IEM_DS3505
ZGSZ,2007-08-06 21:00,ZGSZ 062100Z AUTO 02004KT 17SM 27/24 A2965 RMK 70022 SLP038 T02730240 57010 IEM_DS3505
ZGSZ,2007-08-06 22:00,ZGSZ 062200Z AUTO 07004KT 7SM 28/24 A2965 RMK T02800240 IEM_DS3505
ZGSZ,2007-08-06 23:00,ZGSZ 062300Z AUTO 05006KT 7SM 28/25 A2965 RMK T02800250 IEM_DS3505
ZGSZ,2007-08-07 00:00,ZGSZ 070000Z AUTO 07004KT 12SM 28/24 A2965 RMK 70017 SLP046 T02830241 52007 IEM_DS3505
ZGSZ,2007-08-07 01:00,ZGSZ 070100Z AUTO 06006KT 7SM 31/25 A2965 RMK T03100250 IEM_DS3505
ZGSZ,2007-08-07 02:00,ZGSZ 070200Z AUTO 08004KT 7SM 32/25 A2965 RMK T03200250 IEM_DS3505
ZGSZ,2007-08-07 03:00,ZGSZ 070300Z AUTO 09004KT 16SM 31/24 A2965 RMK SLP044 T03090236 57001 IEM_DS3505
ZGSZ,2007-08-07 04:00,ZGSZ 070400Z AUTO 18004KT 7SM 30/26 A2965 RMK T03000260 IEM_DS3505
ZGSZ,2007-08-07 05:00,ZGSZ 070500Z AUTO 16010KT 7SM 31/25 A2962 RMK T03100250 IEM_DS3505
ZGSZ,2007-08-07 06:00,ZGSZ 070600Z AUTO 09004KT 19SM 32/22 A2959 RMK 60004 SLP027 T03230215 57017 IEM_DS3505
ZGSZ,2007-08-07 07:00,ZGSZ 070700Z AUTO 19008KT 7SM 33/25 A2959 RMK T03300250 IEM_DS3505
ZGSZ,2007-08-07 08:00,ZGSZ 070800Z AUTO 21008KT 7SM 32/26 A2956 RMK T03200260 IEM_DS3505
ZGSZ,2007-08-07 09:00,ZGSZ 070900Z AUTO 14008KT 19SM 32/22 A2953 RMK SLP013 T03190217 57014 IEM_DS3505
ZGSZ,2007-08-07 10:00,ZGSZ 071000Z AUTO 11010KT 7SM 33/22 A2953 RMK T03300220 IEM_DS3505
ZGSZ,2007-08-07 11:00,ZGSZ 071100Z AUTO 13010KT 6SM 32/23 A2956 RMK T03200230 IEM_DS3505
ZGSZ,2007-08-07 12:00,ZGSZ 071200Z AUTO 11006KT 12SM 30/23 A2956 RMK SLP022 T02970229 52009 IEM_DS3505
ZGSZ,2007-08-07 13:00,ZGSZ 071300Z AUTO 13010KT 6SM 30/24 A2959 RMK T03000240 IEM_DS3505
ZGSZ,2007-08-07 14:00,ZGSZ 071400Z AUTO 14010KT 6SM 30/24 A2959 RMK T03000240 IEM_DS3505
ZGSZ,2007-08-07 15:00,ZGSZ 071500Z AUTO 11002KT 11SM 29/24 A2959 RMK SLP022 T02860235 54000 IEM_DS3505
ZGSZ,2007-08-07 16:00,ZGSZ 071600Z AUTO 16004KT 6SM 28/24 A2959 RMK T02800240 IEM_DS3505
ZGSZ,2007-08-07 17:00,ZGSZ 071700Z AUTO 16002KT 6SM 28/25 A2956 RMK T02800250 IEM_DS3505
ZGSZ,2007-08-07 18:00,ZGSZ 071800Z AUTO 36002KT 7SM 27/23 A2953 RMK SLP000 T02740234 57022 IEM_DS3505
ZGSZ,2007-08-07 19:00,ZGSZ 071900Z AUTO 00000KT 6SM 28/24 A2950 RMK T02800240 IEM_DS3505
ZGSZ,2007-08-07 20:00,ZGSZ 072000Z AUTO 32002KT 6SM 28/25 A2950 RMK T02800250 IEM_DS3505
ZGSZ,2007-08-07 21:00,ZGSZ 072100Z AUTO 32002KT 4SM 27/23 A2950 RMK 70004 SLP994 T02740230 57006 IEM_DS3505
ZGSZ,2007-08-07 22:00,ZGSZ 072200Z AUTO 34004KT 3SM 28/25 A2950 RMK T02800250 IEM_DS3505
ZGSZ,2007-08-07 23:00,ZGSZ 072300Z AUTO 34006KT 3SM 29/25 A2950 RMK T02900250 IEM_DS3505
ZGSZ,2007-08-08 00:00,ZGSZ 080000Z AUTO 27006KT 4SM 28/24 A2953 RMK 70004 SLP001 T02840244 52007 IEM_DS3505
ZGSZ,2007-08-08 01:00,ZGSZ 080100Z AUTO 30006KT 7SM 31/25 A2953 RMK T03100250 IEM_DS3505
ZGSZ,2007-08-08 02:00,ZGSZ 080200Z AUTO 30008KT 5SM 31/25 A2953 RMK T03100250 IEM_DS3505
ZGSZ,2007-08-08 03:00,ZGSZ 080300Z AUTO 34002KT 4SM 32/23 A2950 RMK SLP995 T03240231 57006 IEM_DS3505
ZGSZ,2007-08-08 04:00,ZGSZ 080400Z AUTO 29006KT 6SM 33/24 A2947 RMK T03300240 IEM_DS3505
ZGSZ,2007-08-08 05:00,ZGSZ 080500Z AUTO 29008KT 4SM 34/24 A2944 RMK T03400240 IEM_DS3505
ZGSZ,2007-08-08 06:00,ZGSZ 080600Z AUTO 25004KT 3SM 34/23 A2941 RMK SLP962 T03370234 57032 IEM_DS3505
ZGSZ,2007-08-08 07:00,ZGSZ 080700Z AUTO 28006KT 4SM 35/25 A2938 RMK T03500250 IEM_DS3505
ZGSZ,2007-08-08 08:00,ZGSZ 080800Z AUTO 36017KT 7SM 32/23 A2938 RMK T03200230 IEM_DS3505
ZGSZ,2007-08-08 09:00,ZGSZ 080900Z AUTO 32006KT 2 1/2SM 32/22 A2938 RMK SLP959 T03170221 57004 IEM_DS3505
ZGSZ,2007-08-08 10:00,ZGSZ 081000Z AUTO 32006KT 7SM 29/24 A2941 RMK T02900240 IEM_DS3505
ZGSZ,2007-08-08 11:00,ZGSZ 081100Z AUTO 26004KT 4SM 29/25 A2941 RMK T02900250 IEM_DS3505
ZGSZ,2007-08-08 12:00,ZGSZ 081200Z AUTO 26004KT 1 1/2SM 27/25 A2941 RMK 60016 SLP968 T02690247 52009 IEM_DS3505
ZGSZ,2007-08-08 13:00,ZGSZ 081300Z AUTO 4SM 30/25 A2944 RMK T03000250 IEM_DS3505
ZGSZ,2007-08-08 14:00,ZGSZ 081400Z AUTO 30010KT 3SM 29/25 A2944 RMK T02900250 IEM_DS3505
ZGSZ,2007-08-08 15:00,ZGSZ 081500Z AUTO 33008KT 1 1/4SM 27/25 A2944 RMK SLP977 T02670253 52009 IEM_DS3505
ZGSZ,2007-08-08 16:00,ZGSZ 081600Z AUTO 32006KT 1 1/4SM 28/25 A2944 RMK T02800250 IEM_DS3505
ZGSZ,2007-08-08 17:00,ZGSZ 081700Z AUTO 32010KT 2SM 28/25 A2941 RMK T02800250 IEM_DS3505
ZGSZ,2007-08-08 18:00,ZGSZ 081800Z AUTO 32006KT 1 1/2SM 27/24 A2938 RMK 60028 SLP947 T02700245 57029 IEM_DS3505
ZGSZ,2007-08-08 19:00,ZGSZ 081900Z AUTO 34010KT 2 1/2SM 28/25 A2935 RMK T02800250 IEM_DS3505
ZGSZ,2007-08-08 20:00,ZGSZ 082000Z AUTO 35014KT 2 1/2SM 28/24 A2932 RMK T02800240 IEM_DS3505
ZGSZ,2007-08-08 21:00,ZGSZ 082100Z AUTO 36012KT 7SM 27/24 A2932 RMK 70059 SLP934 T02680241 57013 IEM_DS3505
ZGSZ,2007-08-08 22:00,ZGSZ 082200Z AUTO 03014G23KT 7SM 28/24 A2935 RMK T02800240 IEM_DS3505
ZGSZ,2007-08-08 23:00,ZGSZ 082300Z AUTO 03012KT 7SM 28/24 A2935 RMK T02800240 IEM_DS3505
ZGSZ,2007-08-09 00:00,ZGSZ 090000Z AUTO 04010KT 4SM 26/24 A2938 RMK 60024 70069 SLP949 T02650243 52014 IEM_DS3505
ZGSZ,2007-08-09 01:00,ZGSZ 090100Z AUTO 05010KT 7SM 29/23 A2938 RMK T02900230 IEM_DS3505
ZGSZ,2007-08-09 02:00,ZGSZ 090200Z AUTO 06010KT 3SM 29/25 A2938 RMK T02900250 IEM_DS3505
ZGSZ,2007-08-09 03:00,ZGSZ 090300Z AUTO 07010KT 16SM 27/24 A2941 RMK SLP964 T02700243 52015 IEM_DS3505
ZGSZ,2007-08-09 04:00,ZGSZ 090400Z AUTO 06010KT 7SM 30/25 A2941 RMK T03000250 IEM_DS3505
ZGSZ,2007-08-09 05:00,ZGSZ 090500Z AUTO 07008KT 7SM 31/25 A2938 RMK T03100250 IEM_DS3505
ZGSZ,2007-08-09 06:00,ZGSZ 090600Z AUTO 07006KT 17SM 30/24 A2938 RMK 60079 SLP951 T02950241 57013 IEM_DS3505
ZGSZ,2007-08-09 07:00,ZGSZ 090700Z AUTO 08010KT 7SM 29/25 A2938 RMK T02900250 IEM_DS3505
ZGSZ,2007-08-09 08:00,ZGSZ 090800Z AUTO 08006KT 7SM 29/25 A2935 RMK T02900250 IEM_DS3505
ZGSZ,2007-08-09 09:00,ZGSZ 090900Z AUTO 07006KT 16SM 28/24 A2935 RMK SLP948 T02770237 57003 IEM_DS3505
ZGSZ,2007-08-09 10:00,ZGSZ 091000Z AUTO 10008KT 7SM 29/25 A2938 RMK T02900250 IEM_DS3505
ZGSZ,2007-08-09 11:00,ZGSZ 091100Z AUTO 06004KT 7SM 29/24 A2938 RMK T02900240 IEM_DS3505
ZGSZ,2007-08-09 12:00,ZGSZ 091200Z AUTO 09006KT 12SM 27/24 A2938 RMK 60001 SLP961 T02730238 52013 IEM_DS3505
ZGSZ,2007-08-09 13:00,ZGSZ 091300Z AUTO 10008KT 7SM 28/24 A2941 RMK T02800240 IEM_DS3505
ZGSZ,2007-08-09 14:00,ZGSZ 091400Z AUTO 07006KT 7SM 28/24 A2941 RMK T02800240 IEM_DS3505
ZGSZ,2007-08-09 15:00,ZGSZ 091500Z AUTO 07006KT 9SM 28/24 A2941 RMK SLP970 T02760238 52009 IEM_DS3505
ZGSZ,2007-08-09 16:00,ZGSZ 091600Z AUTO 07006KT 7SM 28/24 A2941 RMK T02800240 IEM_DS3505
ZGSZ,2007-08-09 17:00,ZGSZ 091700Z AUTO 08006KT 7SM 28/24 A2941 RMK T02800240 IEM_DS3505
ZGSZ,2007-08-09 18:00,ZGSZ 091800Z AUTO 14004KT 11SM 26/22 A2938 RMK 60012 SLP957 T02590222 57013 IEM_DS3505
ZGSZ,2007-08-09 19:00,ZGSZ 091900Z AUTO 10010KT 7SM 26/23 A2938 RMK T02600230 IEM_DS3505
ZGSZ,2007-08-09 20:00,ZGSZ 092000Z AUTO 09008KT 7SM 26/23 A2935 RMK T02600230 IEM_DS3505
ZGSZ,2007-08-09 21:00,ZGSZ 092100Z AUTO 09002KT 4SM 26/23 A2935 RMK 70102 SLP946 T02550230 57011 IEM_DS3505
ZGSZ,2007-08-09 22:00,ZGSZ 092200Z AUTO 06004KT 7SM 26/24 A2935 RMK T02600240 IEM_DS3505
ZGSZ,2007-08-09 23:00,ZGSZ 092300Z AUTO 06008KT 7SM 26/24 A2935 RMK T02600240 IEM_DS3505
ZGSZ,2007-08-10 00:00,ZGSZ 100000Z AUTO 07008KT 5SM 26/24 A2935 RMK 60035 70127 SLP949 T02560238 52003 IEM_DS3505
ZGSZ,2007-08-10 01:00,ZGSZ 100100Z AUTO 08012G21KT 3SM 27/24 A2938 RMK T02700240 IEM_DS3505
ZGSZ,2007-08-10 02:00,ZGSZ 100200Z AUTO 05010G19KT 5SM 27/24 A2935 RMK T02700240 IEM_DS3505
ZGSZ,2007-08-10 03:00,ZGSZ 100300Z AUTO 07008KT 4SM 26/24 A2935 RMK SLP947 T02550237 57002 IEM_DS3505
ZGSZ,2007-08-10 04:00,ZGSZ 100400Z AUTO 04014KT 7SM 29/25 A2932 RMK T02900250 IEM_DS3505
ZGSZ,2007-08-10 05:00,ZGSZ 100500Z AUTO 05016G25KT 7SM 29/24 A2926 RMK T02900240 IEM_DS3505
ZGSZ,2007-08-10 06:00,ZGSZ 100600Z AUTO 07010G31KT 7SM 26/23 A2923 RMK 60051 SLP905 T02550230 57042 IEM_DS3505
ZGSZ,2007-08-10 07:00,ZGSZ 100700Z AUTO 05014G25KT 7SM 27/24 A2923 RMK T02700240 IEM_DS3505
ZGSZ,2007-08-10 08:00,ZGSZ 100800Z AUTO 09016KT 4SM 27/24 A2921 RMK T02700240 IEM_DS3505
ZGSZ,2007-08-10 09:00,ZGSZ 100900Z AUTO 11010KT 8SM 26/24 A2923 RMK SLP908 T02630238 52003 IEM_DS3505
ZGSZ,2007-08-10 10:00,ZGSZ 101000Z AUTO 14008KT 3SM 27/24 A2926 RMK T02700240 IEM_DS3505
ZGSZ,2007-08-10 11:00,ZGSZ 101100Z AUTO 11008KT 2SM 26/24 A2926 RMK T02600240 IEM_DS3505
ZGSZ,2007-08-10 12:00,ZGSZ 101200Z AUTO 22017KT 5SM 25/23 A2929 RMK 60024 SLP926 T02530232 52018 IEM_DS3505
ZGSZ,2007-08-10 13:00,ZGSZ 101300Z AUTO 17014KT 7SM 27/24 A2929 RMK T02700240 IEM_DS3505
ZGSZ,2007-08-10 14:00,ZGSZ 101400Z AUTO 13017KT 3SM 26/24 A2932 RMK T02600240 IEM_DS3505
ZGSZ,2007-08-10 15:00,ZGSZ 101500Z AUTO 11006KT 16SM 26/23 A2932 RMK SLP939 T02610232 52013 IEM_DS3505
ZGSZ,2007-08-10 16:00,ZGSZ 101600Z AUTO 11012KT 2SM 26/25 A2929 RMK T02600250 IEM_DS3505
ZGSZ,2007-08-10 17:00,ZGSZ 101700Z AUTO 10012KT 3SM 26/25 A2926 RMK T02600250 IEM_DS3505
ZGSZ,2007-08-10 18:00,ZGSZ 101800Z AUTO 11008KT 7SM 25/24 A2926 RMK 60122 SLP917 T02530241 57022 IEM_DS3505
ZGSZ,2007-08-10 19:00,ZGSZ 101900Z AUTO 13012KT 2SM 26/25 A2923 RMK T02600250 IEM_DS3505
ZGSZ,2007-08-10 20:00,ZGSZ 102000Z AUTO 11014KT 3SM 26/25 A2921 RMK T02600250 IEM_DS3505
ZGSZ,2007-08-10 21:00,ZGSZ 102100Z AUTO 07004KT 9SM 26/24 A2923 RMK 70269 SLP905 T02560240 57012 IEM_DS3505
ZGSZ,2007-08-10 22:00,ZGSZ 102200Z AUTO 18010KT 2 1/2SM 26/25 A2923 RMK T02600250 IEM_DS3505
ZGSZ,2007-08-10 23:00,ZGSZ 102300Z AUTO 19014KT 2 1/2SM 26/25 A2926 RMK T02600250 IEM_DS3505
ZGSZ,2007-08-11 00:00,ZGSZ 110000Z AUTO 20010KT 2 1/2SM 25/24 A2926 RMK 60047 70241 SLP922 T02540240 52017 IEM_DS3505
ZGSZ,2007-08-11 01:00,ZGSZ 110100Z AUTO 19012KT 7SM 26/25 A2929 RMK T02600250 IEM_DS3505
ZGSZ,2007-08-11 02:00,ZGSZ 110200Z AUTO 19012KT 7SM 26/24 A2932 RMK T02600240 IEM_DS3505
ZGSZ,2007-08-11 03:00,ZGSZ 110300Z AUTO 20006KT 12SM 26/24 A2932 RMK SLP936 T02620237 52014 IEM_DS3505
ZGSZ,2007-08-11 04:00,ZGSZ 110400Z AUTO 19008KT 7SM 26/24 A2932 RMK T02600240 IEM_DS3505
ZGSZ,2007-08-11 05:00,ZGSZ 110500Z AUTO 19006KT 7SM 27/24 A2932 RMK T02700240 IEM_DS3505
ZGSZ,2007-08-11 06:00,ZGSZ 110600Z AUTO 22008KT 11SM 26/24 A2929 RMK 60002 SLP929 T02620235 57007 IEM_DS3505
ZGSZ,2007-08-11 07:00,ZGSZ 110700Z AUTO 03008KT 4SM 26/25 A2929 RMK T02600250 IEM_DS3505
ZGSZ,2007-08-11 08:00,ZGSZ 110800Z AUTO 02008KT 4SM 26/24 A2929 RMK T02600240 IEM_DS3505
ZGSZ,2007-08-11 09:00,ZGSZ 110900Z AUTO 27002KT 3SM 26/24 A2932 RMK SLP925 T02550239 57004 IEM_DS3505
ZGSZ,2007-08-11 10:00,ZGSZ 111000Z AUTO 26008KT 4SM 26/24 A2932 RMK T02600240 IEM_DS3505
ZGSZ,2007-08-11 11:00,ZGSZ 111100Z AUTO 24008KT 7SM 27/24 A2935 RMK T02700240 IEM_DS3505
ZGSZ,2007-08-11 12:00,ZGSZ 111200Z AUTO 22006KT 2SM 26/24 A2935 RMK 60020 SLP947 T02550239 52022 IEM_DS3505
ZGSZ,2007-08-11 13:00,ZGSZ 111300Z AUTO 21010KT 7SM 27/25 A2938 RMK T02700250 IEM_DS3505
ZGSZ,2007-08-11 14:00,ZGSZ 111400Z AUTO 19010KT 7SM 27/25 A2938 RMK T02700250 IEM_DS3505
ZGSZ,2007-08-11 15:00,ZGSZ 111500Z AUTO 20008KT 3SM 26/24 A2941 RMK SLP967 T02600240 52020 IEM_DS3505
ZGSZ,2007-08-11 16:00,ZGSZ 111600Z AUTO 20006KT 7SM 27/25 A2941 RMK T02700250 IEM_DS3505
ZGSZ,2007-08-11 17:00,ZGSZ 111700Z AUTO 19004KT 3SM 27/25 A2941 RMK T02700250 IEM_DS3505
ZGSZ,2007-08-11 18:00,ZGSZ 111800Z AUTO 25002KT 2 1/2SM 26/24 A2938 RMK 60001 SLP959 T02600244 57008 IEM_DS3505
ZGSZ,2007-08-11 19:00,ZGSZ 111900Z AUTO 19004KT 7SM 27/25 A2938 RMK T02700250 IEM_DS3505
ZGSZ,2007-08-11 20:00,ZGSZ 112000Z AUTO 19004KT 3SM 27/25 A2938 RMK T02700250 IEM_DS3505
ZGSZ,2007-08-11 21:00,ZGSZ 112100Z AUTO 25002KT 1 1/4SM 26/25 A2938 RMK 70043 SLP956 T02610249 57003 IEM_DS3505
ZGSZ,2007-08-11 22:00,ZGSZ 112200Z AUTO 03008KT 4SM 25/24 A2941 RMK T02500240 IEM_DS3505
ZGSZ,2007-08-11 23:00,ZGSZ 112300Z AUTO 14004KT 7SM 26/24 A2941 RMK T02600240 IEM_DS3505
ZGSZ,2007-08-12 00:00,ZGSZ 120000Z AUTO 22008KT 1 1/4SM 26/25 A2944 RMK 60106 70130 SLP972 T02640252 52015 IEM_DS3505
ZGSZ,2007-08-12 01:00,ZGSZ 120100Z AUTO 23004KT 4SM 27/25 A2944 RMK T02700250 IEM_DS3505
ZGSZ,2007-08-12 02:00,ZGSZ 120200Z AUTO 23006KT 4SM 28/26 A2947 RMK T02800260 IEM_DS3505
ZGSZ,2007-08-12 03:00,ZGSZ 120300Z AUTO 22006KT 1 1/4SM 27/25 A2947 RMK SLP986 T02710253 52015 IEM_DS3505
ZGSZ,2007-08-12 04:00,ZGSZ 120400Z AUTO 19004KT 3SM 28/26 A2947 RMK T02800260 IEM_DS3505
ZGSZ,2007-08-12 05:00,ZGSZ 120500Z AUTO 19004KT 3SM 28/27 A2947 RMK T02800270 IEM_DS3505
ZGSZ,2007-08-12 06:00,ZGSZ 120600Z AUTO 20006KT 2SM 27/25 A2944 RMK 60008 SLP977 T02710251 57009 IEM_DS3505
ZGSZ,2007-08-12 07:00,ZGSZ 120700Z AUTO 16008KT 3SM 29/27 A2944 RMK T02900270 IEM_DS3505
ZGSZ,2007-08-12 08:00,ZGSZ 120800Z AUTO 17008KT 4SM 29/27 A2944 RMK T02900270 IEM_DS3505
ZGSZ,2007-08-12 09:00,ZGSZ 120900Z AUTO 20004KT 2SM 28/26 A2944 RMK SLP974 T02750255 57003 IEM_DS3505
ZGSZ,2007-08-12 10:00,ZGSZ 121000Z AUTO 17006KT 3SM 29/27 A2944 RMK T02900270 IEM_DS3505
ZGSZ,2007-08-12 11:00,ZGSZ 121100Z AUTO 16008KT 5SM 28/26 A2944 RMK T02800260 IEM_DS3505
ZGSZ,2007-08-12 12:00,ZGSZ 121200Z AUTO 25002KT 1 1/2SM 27/25 A2947 RMK SLP990 T02690251 52016 IEM_DS3505
ZGSZ,2007-08-12 13:00,ZGSZ 121300Z AUTO 16010KT 4SM 28/26 A2950 RMK T02800260 IEM_DS3505
ZGSZ,2007-08-12 14:00,ZGSZ 121400Z AUTO 14008KT 4SM 28/26 A2953 RMK T02800260 IEM_DS3505
ZGSZ,2007-08-12 15:00,ZGSZ 121500Z AUTO 07002KT 2SM 27/25 A2953 RMK SLP010 T02670247 52019 IEM_DS3505
ZGSZ,2007-08-12 16:00,ZGSZ 121600Z AUTO 12004KT 3SM 28/26 A2953 RMK T02800260 IEM_DS3505
ZGSZ,2007-08-12 17:00,ZGSZ 121700Z AUTO 14004KT 2 1/2SM 27/26 A2953 RMK T02700260 IEM_DS3505
ZGSZ,2007-08-12 18:00,ZGSZ 121800Z AUTO 00000KT 2SM 26/25 A2953 RMK SLP003 T02600246 57007 IEM_DS3505
ZGSZ,2007-08-12 19:00,ZGSZ 121900Z AUTO 14004KT 2SM 27/25 A2953 RMK T02700250 IEM_DS3505
ZGSZ,2007-08-12 20:00,ZGSZ 122000Z AUTO 15006KT 2 1/2SM 28/26 A2953 RMK T02800260 IEM_DS3505
ZGSZ,2007-08-12 21:00,ZGSZ 122100Z AUTO 29002KT 1 1/2SM 26/25 A2953 RMK 70099 SLP005 T02620248 52002 IEM_DS3505
ZGSZ,2007-08-12 22:00,ZGSZ 122200Z AUTO 00000KT 2SM 27/26 A2953 RMK T02700260 IEM_DS3505
ZGSZ,2007-08-12 23:00,ZGSZ 122300Z AUTO 14004KT 2SM 28/26 A2956 RMK T02800260 IEM_DS3505
ZGSZ,2007-08-13 00:00,ZGSZ 130000Z AUTO 22002KT 2SM 27/26 A2956 RMK 70006 SLP015 T02740256 52010 IEM_DS3505
ZGSZ,2007-08-13 01:00,ZGSZ 130100Z AUTO 16006KT 2 1/2SM 29/27 A2956 RMK T02900270 IEM_DS3505
ZGSZ,2007-08-13 02:00,ZGSZ 130200Z AUTO 17008KT 3SM 30/27 A2956 RMK T03000270 IEM_DS3505
ZGSZ,2007-08-13 03:00,ZGSZ 130300Z AUTO 20004KT 2SM 28/26 A2959 RMK SLP024 T02850257 52010 IEM_DS3505
ZGSZ,2007-08-13 04:00,ZGSZ 130400Z AUTO 16010KT 3SM 30/27 A2956 RMK T03000270 IEM_DS3505
ZGSZ,2007-08-13 05:00,ZGSZ 130500Z AUTO 16008KT 5SM 31/28 A2953 RMK T03100280 IEM_DS3505
ZGSZ,2007-08-13 06:00,ZGSZ 130600Z AUTO 20010KT 9SM 30/25 A2950 RMK SLP998 T02980253 57026 IEM_DS3505
ZGSZ,2007-08-13 07:00,ZGSZ 130700Z AUTO 17014KT 6SM 31/27 A2950 RMK T03100270 IEM_DS3505
ZGSZ,2007-08-13 08:00,ZGSZ 130800Z AUTO 17014KT 7SM 30/27 A2950 RMK T03000270 IEM_DS3505
ZGSZ,2007-08-13 09:00,ZGSZ 130900Z AUTO 22012KT 16SM 29/26 A2950 RMK SLP000 T02910255 52002 IEM_DS3505
ZGSZ,2007-08-13 10:00,ZGSZ 131000Z AUTO 17012KT 7SM 30/27 A2950 RMK T03000270 IEM_DS3505
ZGSZ,2007-08-13 11:00,ZGSZ 131100Z AUTO 16010KT 7SM 29/27 A2953 RMK T02900270 IEM_DS3505
ZGSZ,2007-08-13 12:00,ZGSZ 131200Z AUTO 22006KT 12SM 29/25 A2953 RMK SLP011 T02870253 52011 IEM_DS3505
ZGSZ,2007-08-13 13:00,ZGSZ 131300Z AUTO 18012KT 2SM 29/27 A2956 RMK T02900270 IEM_DS3505
ZGSZ,2007-08-13 14:00,ZGSZ 131400Z AUTO 16006KT 7SM 29/27 A2956 RMK T02900270 IEM_DS3505
ZGSZ,2007-08-13 15:00,ZGSZ 131500Z AUTO 14002KT 9SM 28/26 A2956 RMK SLP019 T02780256 52008 IEM_DS3505
ZGSZ,2007-08-13 16:00,ZGSZ 131600Z AUTO 18010KT 7SM 29/27 A2956 RMK T02900270 IEM_DS3505
ZGSZ,2007-08-13 17:00,ZGSZ 131700Z AUTO 18010KT 7SM 29/27 A2953 RMK T02900270 IEM_DS3505
ZGSZ,2007-08-13 18:00,ZGSZ 131800Z AUTO 22006KT 2SM 27/25 A2953 RMK 60012 SLP006 T02700254 57013 IEM_DS3505
ZGSZ,2007-08-13 19:00,ZGSZ 131900Z AUTO 23010KT 4SM 26/25 A2953 RMK T02600250 IEM_DS3505
ZGSZ,2007-08-13 20:00,ZGSZ 132000Z AUTO 21012KT 7SM 27/25 A2953 RMK T02700250 IEM_DS3505
ZGSZ,2007-08-13 21:00,ZGSZ 132100Z AUTO 20002KT 1 1/4SM 25/24 A2953 RMK 70168 SLP003 T02510239 57003 IEM_DS3505
ZGSZ,2007-08-13 22:00,ZGSZ 132200Z AUTO 23008KT 7SM 27/25 A2953 RMK T02700250 IEM_DS3505
ZGSZ,2007-08-13 23:00,ZGSZ 132300Z AUTO 22010KT 7SM 26/25 A2953 RMK T02600250 IEM_DS3505
ZGSZ,2007-08-14 00:00,ZGSZ 140000Z AUTO 22006KT 2 1/2SM 25/24 A2953 RMK 60264 70273 SLP010 T02490235 52006 IEM_DS3505
ZGSZ,2007-08-14 01:00,ZGSZ 140100Z AUTO 28010KT 7SM 26/25 A2953 RMK T02600250 IEM_DS3505
ZGSZ,2007-08-14 02:00,ZGSZ 140200Z AUTO 28008KT 7SM 26/25 A2956 RMK T02600250 IEM_DS3505
ZGSZ,2007-08-14 03:00,ZGSZ 140300Z AUTO 22002KT 3SM 26/24 A2953 RMK SLP010 T02610245 54000 IEM_DS3505
ZGSZ,2007-08-14 04:00,ZGSZ 140400Z AUTO 5SM 27/26 A2953 RMK T02700260 IEM_DS3505
ZGSZ,2007-08-14 05:00,ZGSZ 140500Z AUTO 7SM 28/25 A2950 RMK T02800250 IEM_DS3505
ZGSZ,2007-08-14 06:00,ZGSZ 140600Z AUTO 22010KT 2 1/2SM 26/24 A2950 RMK 60028 SLP991 T02650243 57018 IEM_DS3505
ZGSZ,2007-08-14 07:00,ZGSZ 140700Z AUTO 18006KT 4SM 28/25 A2947 RMK T02800250 IEM_DS3505
ZGSZ,2007-08-14 08:00,ZGSZ 140800Z AUTO 19008KT 7SM 28/26 A2947 RMK T02800260 IEM_DS3505
ZGSZ,2007-08-14 09:00,ZGSZ 140900Z AUTO 22010KT 5SM 26/24 A2944 RMK SLP981 T02640241 57011 IEM_DS3505
ZGSZ,2007-08-14 10:00,ZGSZ 141000Z AUTO 16006KT 7SM 27/25 A2944 RMK T02700250 IEM_DS3505
ZGSZ,2007-08-14 11:00,ZGSZ 141100Z AUTO 17006KT 7SM 27/26 A2944 RMK T02700260 IEM_DS3505
ZGSZ,2007-08-14 12:00,ZGSZ 141200Z AUTO 20004KT 2 1/2SM 26/24 A2947 RMK 60002 SLP989 T02620242 52008 IEM_DS3505
ZGSZ,2007-08-14 13:00,ZGSZ 141300Z AUTO 20008KT 7SM 27/26 A2950 RMK T02700260 IEM_DS3505
ZGSZ,2007-08-14 14:00,ZGSZ 141400Z AUTO 23004KT 3SM 27/26 A2950 RMK T02700260 IEM_DS3505
ZGSZ,2007-08-14 15:00,ZGSZ 141500Z AUTO 25002KT 2SM 26/24 A2950 RMK SLP991 T02580244 52002 IEM_DS3505
ZGSZ,2007-08-14 16:00,ZGSZ 141600Z AUTO 32008KT 3SM 27/24 A2950 RMK T02700240 IEM_DS3505
ZGSZ,2007-08-14 17:00,ZGSZ 141700Z AUTO 33008KT 2SM 26/24 A2947 RMK T02600240 IEM_DS3505
ZGSZ,2007-08-14 18:00,ZGSZ 141800Z AUTO 27004KT 1 1/2SM 26/24 A2944 RMK 60020 SLP975 T02560237 57016 IEM_DS3505
ZGSZ,2007-08-14 19:00,ZGSZ 141900Z AUTO 32008KT 3SM 26/23 A2944 RMK T02600230 IEM_DS3505
ZGSZ,2007-08-14 20:00,ZGSZ 142000Z AUTO 32008KT 3SM 26/23 A2944 RMK T02600230 IEM_DS3505
ZGSZ,2007-08-14 21:00,ZGSZ 142100Z AUTO 22002KT 3SM 25/23 A2944 RMK 70153 SLP972 T02530230 57003 IEM_DS3505
ZGSZ,2007-08-14 22:00,ZGSZ 142200Z AUTO 34004KT 3SM 25/22 A2944 RMK T02500220 IEM_DS3505
ZGSZ,2007-08-14 23:00,ZGSZ 142300Z AUTO 34006KT 3SM 26/22 A2944 RMK T02600220 IEM_DS3505
ZGSZ,2007-08-15 00:00,ZGSZ 150000Z AUTO 02004KT 7SM 26/22 A2947 RMK 70048 SLP981 T02580221 52009 IEM_DS3505
ZGSZ,2007-08-15 01:00,ZGSZ 150100Z AUTO 31006KT 3SM 27/22 A2950 RMK T02700220 IEM_DS3505
ZGSZ,2007-08-15 02:00,ZGSZ 150200Z AUTO 30006KT 3SM 28/23 A2950 RMK T02800230 IEM_DS3505
ZGSZ,2007-08-15 03:00,ZGSZ 150300Z AUTO 02006KT 6SM 29/23 A2950 RMK SLP991 T02890231 52011 IEM_DS3505
ZGSZ,2007-08-15 04:00,ZGSZ 150400Z AUTO 35006KT 7SM 31/24 A2947 RMK T03100240 IEM_DS3505
ZGSZ,2007-08-15 05:00,ZGSZ 150500Z AUTO 03006KT 7SM 31/24 A2947 RMK T03100240 IEM_DS3505
ZGSZ,2007-08-15 06:00,ZGSZ 150600Z AUTO 36010KT 5SM 30/23 A2944 RMK SLP975 T03030230 57016 IEM_DS3505
ZGSZ,2007-08-15 07:00,ZGSZ 150700Z AUTO 34004KT 7SM 30/24 A2944 RMK T03000240 IEM_DS3505
ZGSZ,2007-08-15 08:00,ZGSZ 150800Z AUTO 01004KT 7SM 31/23 A2944 RMK T03100230 IEM_DS3505
ZGSZ,2007-08-15 09:00,ZGSZ 150900Z AUTO 29004KT 6SM 29/23 A2944 RMK SLP978 T02940234 52003 IEM_DS3505
ZGSZ,2007-08-15 10:00,ZGSZ 151000Z AUTO 33012KT 2SM 26/24 A2947 RMK T02600240 IEM_DS3505
ZGSZ,2007-08-15 11:00,ZGSZ 151100Z AUTO 3SM 26/24 A2950 RMK T02600240 IEM_DS3505
ZGSZ,2007-08-15 12:00,ZGSZ 151200Z AUTO 32002KT 2 1/2SM 27/23 A2950 RMK SLP993 T02740234 52014 IEM_DS3505
ZGSZ,2007-08-15 13:00,ZGSZ 151300Z AUTO 00000KT 3SM 26/25 A2950 RMK T02600250 IEM_DS3505
ZGSZ,2007-08-15 14:00,ZGSZ 151400Z AUTO 01002KT 3SM 28/25 A2953 RMK T02800250 IEM_DS3505
ZGSZ,2007-08-15 15:00,ZGSZ 151500Z AUTO 02002KT 2SM 28/22 A2953 RMK SLP005 T02780225 52013 IEM_DS3505
ZGSZ,2007-08-15 16:00,ZGSZ 151600Z AUTO 05006KT 4SM 28/23 A2953 RMK T02800230 IEM_DS3505
ZGSZ,2007-08-15 17:00,ZGSZ 151700Z AUTO 01004KT 3SM 28/23 A2953 RMK T02800230 IEM_DS3505
ZGSZ,2007-08-15 18:00,ZGSZ 151800Z AUTO 36002KT 4SM 26/22 A2950 RMK SLP998 T02640225 57007 IEM_DS3505
ZGSZ,2007-08-15 19:00,ZGSZ 151900Z AUTO 03004KT 3SM 27/23 A2950 RMK T02700230 IEM_DS3505
ZGSZ,2007-08-15 20:00,ZGSZ 152000Z AUTO 03006KT 3SM 26/23 A2950 RMK T02600230 IEM_DS3505
ZGSZ,2007-08-15 21:00,ZGSZ 152100Z AUTO 36004KT 2SM 26/22 A2950 RMK SLP995 T02580221 57003 IEM_DS3505
ZGSZ,2007-08-15 22:00,ZGSZ 152200Z AUTO 03004KT 3SM 26/23 A2953 RMK T02600230 IEM_DS3505
ZGSZ,2007-08-15 23:00,ZGSZ 152300Z AUTO 36006KT 3SM 27/23 A2953 RMK T02700230 IEM_DS3505
ZGSZ,2007-08-16 00:00,ZGSZ 160000Z AUTO 04004KT 4SM 26/21 A2956 RMK SLP011 T02600212 52015 IEM_DS3505
ZGSZ,2007-08-16 01:00,ZGSZ 160100Z AUTO 03006KT 4SM 28/21 A2956 RMK T02800210 IEM_DS3505
ZGSZ,2007-08-16 02:00,ZGSZ 160200Z AUTO 02004KT 3SM 26/22 A2959 RMK T02600220 IEM_DS3505
ZGSZ,2007-08-16 03:00,ZGSZ 160300Z AUTO 04004KT 3SM 26/22 A2956 RMK SLP020 T02590220 52009 IEM_DS3505
ZGSZ,2007-08-16 04:00,ZGSZ 160400Z AUTO 03008KT 3SM 28/22 A2956 RMK T02800220 IEM_DS3505
ZGSZ,2007-08-16 05:00,ZGSZ 160500Z AUTO 02008KT 3SM 28/23 A2956 RMK T02800230 IEM_DS3505
ZGSZ,2007-08-16 06:00,ZGSZ 160600Z AUTO 02006KT 2 1/2SM 27/23 A2953 RMK 60000 SLP008 T02730229 57012 IEM_DS3505
ZGSZ,2007-08-16 07:00,ZGSZ 160700Z AUTO 02008KT 2 1/2SM 28/24 A2953 RMK T02800240 IEM_DS3505
ZGSZ,2007-08-16 08:00,ZGSZ 160800Z AUTO 02008KT 1 1/4SM 27/24 A2953 RMK T02700240 IEM_DS3505
ZGSZ,2007-08-16 09:00,ZGSZ 160900Z AUTO 02002KT 1 1/2SM 25/24 A2953 RMK SLP005 T02520238 57003 IEM_DS3505
ZGSZ,2007-08-16 10:00,ZGSZ 161000Z AUTO 03006KT 3SM 26/24 A2953 RMK T02600240 IEM_DS3505
ZGSZ,2007-08-16 11:00,ZGSZ 161100Z AUTO 04006KT 3SM 27/24 A2953 RMK T02700240 IEM_DS3505
ZGSZ,2007-08-16 12:00,ZGSZ 161200Z AUTO 04006KT 4SM 26/24 A2956 RMK 60118 SLP011 T02560237 52006 IEM_DS3505
ZGSZ,2007-08-16 13:00,ZGSZ 161300Z AUTO 07006KT 2SM 26/23 A2956 RMK T02600230 IEM_DS3505
ZGSZ,2007-08-16 14:00,ZGSZ 161400Z AUTO 08010KT 7SM 26/24 A2959 RMK T02600240 IEM_DS3505
ZGSZ,2007-08-16 15:00,ZGSZ 161500Z AUTO 09004KT 2SM 25/24 A2959 RMK SLP027 T02510235 52016 IEM_DS3505
ZGSZ,2007-08-16 16:00,ZGSZ 161600Z AUTO 10006KT 7SM 26/25 A2959 RMK T02600250 IEM_DS3505
ZGSZ,2007-08-16 17:00,ZGSZ 161700Z AUTO 05006KT 7SM 27/24 A2959 RMK T02700240 IEM_DS3505
ZGSZ,2007-08-16 18:00,ZGSZ 161800Z AUTO 14008KT 2SM 25/24 A2959 RMK 60114 SLP019 T02540238 57008 IEM_DS3505
ZGSZ,2007-08-16 19:00,ZGSZ 161900Z AUTO 06004KT 7SM 26/24 A2959 RMK T02600240 IEM_DS3505
ZGSZ,2007-08-16 20:00,ZGSZ 162000Z AUTO 06008KT 7SM 27/24 A2959 RMK T02700240 IEM_DS3505
ZGSZ,2007-08-16 21:00,ZGSZ 162100Z AUTO 07006KT 5SM 26/22 A2956 RMK 70247 SLP022 T02600225 52003 IEM_DS3505
ZGSZ,2007-08-16 22:00,ZGSZ 162200Z AUTO 08008KT 7SM 27/23 A2959 RMK T02700230 IEM_DS3505
ZGSZ,2007-08-16 23:00,ZGSZ 162300Z AUTO 07008KT 7SM 27/23 A2959 RMK T02700230 IEM_DS3505
ZGSZ,2007-08-17 00:00,ZGSZ 170000Z AUTO 07012KT 16SM 27/23 A2962 RMK 60012 70247 SLP034 T02710227 52012 IEM_DS3505
ZGSZ,2007-08-17 01:00,ZGSZ 170100Z AUTO 07008KT 7SM 29/24 A2962 RMK T02900240 IEM_DS3505
ZGSZ,2007-08-17 02:00,ZGSZ 170200Z AUTO 07010G19KT 7SM 30/24 A2962 RMK T03000240 IEM_DS3505
ZGSZ,2007-08-17 03:00,ZGSZ 170300Z AUTO 09010KT 16SM 30/23 A2962 RMK SLP039 T02990229 52005 IEM_DS3505
ZGSZ,2007-08-17 04:00,ZGSZ 170400Z AUTO 10012KT 7SM 32/24 A2962 RMK T03200240 IEM_DS3505
ZGSZ,2007-08-17 05:00,ZGSZ 170500Z AUTO 18014KT 7SM 29/26 A2962 RMK T02900260 IEM_DS3505
ZGSZ,2007-08-17 06:00,ZGSZ 170600Z AUTO 11004KT 17SM 30/23 A2959 RMK SLP026 T03010230 57012 IEM_DS3505
ZGSZ,2007-08-17 07:00,ZGSZ 170700Z AUTO 14014KT 7SM 33/24 A2959 RMK T03300240 IEM_DS3505
ZGSZ,2007-08-17 08:00,ZGSZ 170800Z AUTO 16008KT 7SM 31/24 A2959 RMK T03100240 IEM_DS3505
ZGSZ,2007-08-17 09:00,ZGSZ 170900Z AUTO 14004KT 19SM 30/22 A2956 RMK SLP020 T02960223 57006 IEM_DS3505
ZGSZ,2007-08-17 10:00,ZGSZ 171000Z AUTO 11006KT 6SM 31/23 A2956 RMK T03100230 IEM_DS3505
ZGSZ,2007-08-17 11:00,ZGSZ 171100Z AUTO 11006KT 6SM 30/23 A2959 RMK T03000230 IEM_DS3505
ZGSZ,2007-08-17 12:00,ZGSZ 171200Z AUTO 04004KT 17SM 29/23 A2962 RMK SLP030 T02870227 52010 IEM_DS3505
ZGSZ,2007-08-17 13:00,ZGSZ 171300Z AUTO 25002KT 6SM 28/26 A2962 RMK T02800260 IEM_DS3505
ZGSZ,2007-08-17 14:00,ZGSZ 171400Z AUTO 27004KT 6SM 28/26 A2962 RMK T02800260 IEM_DS3505
ZGSZ,2007-08-17 15:00,ZGSZ 171500Z AUTO 22004KT 12SM 28/24 A2962 RMK SLP036 T02750239 52006 IEM_DS3505
ZGSZ,2007-08-17 16:00,ZGSZ 171600Z AUTO 7SM 28/24 A2962 RMK T02800240 IEM_DS3505
ZGSZ,2007-08-17 17:00,ZGSZ 171700Z AUTO 29004KT 6SM 28/24 A2962 RMK T02800240 IEM_DS3505
ZGSZ,2007-08-17 18:00,ZGSZ 171800Z AUTO 22002KT 4SM 27/24 A2959 RMK SLP028 T02690242 57008 IEM_DS3505
ZGSZ,2007-08-17 19:00,ZGSZ 171900Z AUTO 27006KT 7SM 28/24 A2959 RMK T02800240 IEM_DS3505
ZGSZ,2007-08-17 20:00,ZGSZ 172000Z AUTO 29006KT 7SM 28/24 A2959 RMK T02800240 IEM_DS3505
ZGSZ,2007-08-17 21:00,ZGSZ 172100Z AUTO 29004KT 3SM 27/24 A2959 RMK 70000 SLP022 T02700239 57006 IEM_DS3505
ZGSZ,2007-08-17 22:00,ZGSZ 172200Z AUTO 31008KT 2SM 28/24 A2959 RMK T02800240 IEM_DS3505
ZGSZ,2007-08-17 23:00,ZGSZ 172300Z AUTO 32006KT 2SM 28/25 A2959 RMK T02800250 IEM_DS3505
ZGSZ,2007-08-18 00:00,ZGSZ 180000Z AUTO 25004KT 2 1/2SM 28/24 A2959 RMK SLP027 T02830241 52005 IEM_DS3505
ZGSZ,2007-08-18 01:00,ZGSZ 180100Z AUTO 31008KT 2SM 30/25 A2959 RMK T03000250 IEM_DS3505
ZGSZ,2007-08-18 02:00,ZGSZ 180200Z AUTO 31010KT 2 1/2SM 31/25 A2959 RMK T03100250 IEM_DS3505
ZGSZ,2007-08-18 03:00,ZGSZ 180300Z AUTO 29006KT 3SM 32/23 A2959 RMK SLP020 T03190232 57007 IEM_DS3505
ZGSZ,2007-08-18 04:00,ZGSZ 180400Z AUTO 30010KT 4SM 33/25 A2956 RMK T03300250 IEM_DS3505
ZGSZ,2007-08-18 05:00,ZGSZ 180500Z AUTO 30008KT 7SM 33/25 A2953 RMK T03300250 IEM_DS3505
ZGSZ,2007-08-18 06:00,ZGSZ 180600Z AUTO 34006KT 7SM 34/23 A2953 RMK SLP001 T03420226 57019 IEM_DS3505
ZGSZ,2007-08-18 07:00,ZGSZ 180700Z AUTO 32010KT 7SM 35/25 A2950 RMK T03500250 IEM_DS3505
ZGSZ,2007-08-18 08:00,ZGSZ 180800Z AUTO 30010KT 7SM 34/25 A2947 RMK T03400250 IEM_DS3505
ZGSZ,2007-08-18 09:00,ZGSZ 180900Z AUTO 34004KT 9SM 34/23 A2947 RMK SLP982 T03450232 57018 IEM_DS3505
ZGSZ,2007-08-18 10:00,ZGSZ 181000Z AUTO 31008KT 7SM 33/26 A2947 RMK T03300260 IEM_DS3505
ZGSZ,2007-08-18 11:00,ZGSZ 181100Z AUTO 31006KT 6SM 32/25 A2947 RMK T03200250 IEM_DS3505
ZGSZ,2007-08-18 12:00,ZGSZ 181200Z AUTO 36016G33KT 1 1/4SM 24/22 A2953 RMK 60043 SLP011 T02450224 52027 IEM_DS3505
ZGSZ,2007-08-18 13:00,ZGSZ 181300Z AUTO 12006KT 7SM 28/23 A2953 RMK T02800230 IEM_DS3505
ZGSZ,2007-08-18 14:00,ZGSZ 181400Z AUTO 20004KT 7SM 27/24 A2956 RMK T02700240 IEM_DS3505
ZGSZ,2007-08-18 15:00,ZGSZ 181500Z AUTO 25004KT 9SM 25/22 A2956 RMK SLP011 T02480225 52001 IEM_DS3505
ZGSZ,2007-08-18 16:00,ZGSZ 181600Z AUTO 16002KT 6SM 27/24 A2953 RMK T02700240 IEM_DS3505
ZGSZ,2007-08-18 17:00,ZGSZ 181700Z AUTO 19002KT 6SM 27/24 A2950 RMK T02700240 IEM_DS3505
ZGSZ,2007-08-18 18:00,ZGSZ 181800Z AUTO 27002KT 7SM 26/23 A2950 RMK 60024 SLP994 T02600229 57017 IEM_DS3505
ZGSZ,2007-08-18 19:00,ZGSZ 181900Z AUTO 6SM 27/24 A2950 RMK T02700240 IEM_DS3505
ZGSZ,2007-08-18 20:00,ZGSZ 182000Z AUTO 29004KT 6SM 28/24 A2950 RMK T02800240 IEM_DS3505
ZGSZ,2007-08-18 21:00,ZGSZ 182100Z AUTO 22002KT 4SM 26/24 A2950 RMK 70067 SLP994 T02620237 54000 IEM_DS3505
ZGSZ,2007-08-18 22:00,ZGSZ 182200Z AUTO 25008KT 3SM 28/25 A2953 RMK T02800250 IEM_DS3505
ZGSZ,2007-08-18 23:00,ZGSZ 182300Z AUTO 23004KT 6SM 28/25 A2953 RMK T02800250 IEM_DS3505
ZGSZ,2007-08-19 00:00,ZGSZ 190000Z AUTO 20002KT 4SM 28/24 A2956 RMK 70067 SLP014 T02800238 52019 IEM_DS3505
ZGSZ,2007-08-19 01:00,ZGSZ 190100Z AUTO 29006KT 3SM 29/25 A2956 RMK T02900250 IEM_DS3505
ZGSZ,2007-08-19 02:00,ZGSZ 190200Z AUTO 27006KT 3SM 31/26 A2956 RMK T03100260 IEM_DS3505
ZGSZ,2007-08-19 03:00,ZGSZ 190300Z AUTO 25002KT 2 1/2SM 31/25 A2956 RMK SLP018 T03140250 52005 IEM_DS3505
ZGSZ,2007-08-19 04:00,ZGSZ 190400Z AUTO 27004KT 3SM 32/26 A2956 RMK T03200260 IEM_DS3505
ZGSZ,2007-08-19 05:00,ZGSZ 190500Z AUTO 27006KT 3SM 33/26 A2953 RMK T03300260 IEM_DS3505
ZGSZ,2007-08-19 06:00,ZGSZ 190600Z AUTO 22006KT 2SM 33/24 A2953 RMK SLP004 T03270242 57014 IEM_DS3505
ZGSZ,2007-08-19 07:00,ZGSZ 190700Z AUTO 21006KT 3SM 34/27 A2950 RMK T03400270 IEM_DS3505
ZGSZ,2007-08-19 08:00,ZGSZ 190800Z AUTO 18010KT 3SM 33/28 A2950 RMK T03300280 IEM_DS3505
ZGSZ,2007-08-19 09:00,ZGSZ 190900Z AUTO 22008KT 2 1/2SM 31/26 A2950 RMK SLP997 T03100258 57007 IEM_DS3505
ZGSZ,2007-08-19 10:00,ZGSZ 191000Z AUTO 15010KT 3SM 31/28 A2950 RMK T03100280 IEM_DS3505
ZGSZ,2007-08-19 11:00,ZGSZ 191100Z AUTO 14008KT 2 1/2SM 31/28 A2950 RMK T03100280 IEM_DS3505
ZGSZ,2007-08-19 12:00,ZGSZ 191200Z AUTO 20006KT 2 1/2SM 29/26 A2953 RMK SLP010 T02910261 52013 IEM_DS3505
ZGSZ,2007-08-19 13:00,ZGSZ 191300Z AUTO 15008KT 1 1/2SM 30/28 A2956 RMK T03000280 IEM_DS3505
ZGSZ,2007-08-19 14:00,ZGSZ 191400Z AUTO 16008KT 1 1/2SM 30/28 A2956 RMK T03000280 IEM_DS3505
ZGSZ,2007-08-19 15:00,ZGSZ 191500Z AUTO 22008KT 2 1/2SM 28/26 A2956 RMK SLP018 T02850259 52008 IEM_DS3505
ZGSZ,2007-08-19 16:00,ZGSZ 191600Z AUTO 18008KT 2SM 30/27 A2959 RMK T03000270 IEM_DS3505
ZGSZ,2007-08-19 17:00,ZGSZ 191700Z AUTO 19006KT 2SM 30/27 A2959 RMK T03000270 IEM_DS3505
ZGSZ,2007-08-19 18:00,ZGSZ 191800Z AUTO 22008KT 2SM 28/26 A2956 RMK SLP022 T02820256 52004 IEM_DS3505
ZGSZ,2007-08-19 19:00,ZGSZ 191900Z AUTO 18008KT 3SM 29/26 A2956 RMK T02900260 IEM_DS3505
ZGSZ,2007-08-19 20:00,ZGSZ 192000Z AUTO 19010KT 2 1/2SM 29/26 A2959 RMK T02900260 IEM_DS3505
ZGSZ,2007-08-19 21:00,ZGSZ 192100Z AUTO 22014KT 1SM 28/26 A2956 RMK 70000 SLP019 T02760258 57003 IEM_DS3505
ZGSZ,2007-08-19 22:00,ZGSZ 192200Z AUTO 23008KT 4SM 27/24 A2959 RMK T02700240 IEM_DS3505
ZGSZ,2007-08-19 23:00,ZGSZ 192300Z AUTO 08004KT 2 1/2SM 26/25 A2962 RMK T02600250 IEM_DS3505
ZGSZ,2007-08-20 00:00,ZGSZ 200000Z AUTO 22008KT 1SM 27/26 A2962 RMK 60051 70052 SLP037 T02730257 52018 IEM_DS3505
ZGSZ,2007-08-20 01:00,ZGSZ 200100Z AUTO 19008KT 2 1/2SM 29/27 A2965 RMK T02900270 IEM_DS3505
ZGSZ,2007-08-20 02:00,ZGSZ 200200Z AUTO 19008KT 2 1/2SM 30/27 A2965 RMK T03000270 IEM_DS3505
ZGSZ,2007-08-20 03:00,ZGSZ 200300Z AUTO 22010KT 1 1/4SM 28/26 A2965 RMK SLP046 T02830257 52009 IEM_DS3505
ZGSZ,2007-08-20 04:00,ZGSZ 200400Z AUTO 18008KT 3SM 32/28 A2965 RMK T03200280 IEM_DS3505
ZGSZ,2007-08-20 05:00,ZGSZ 200500Z AUTO 17010KT 3SM 31/27 A2962 RMK T03100270 IEM_DS3505
ZGSZ,2007-08-20 06:00,ZGSZ 200600Z AUTO 20008KT 2 1/2SM 30/26 A2962 RMK SLP033 T03020259 57013 IEM_DS3505
ZGSZ,2007-08-20 07:00,ZGSZ 200700Z AUTO 17010KT 2 1/2SM 31/28 A2959 RMK T03100280 IEM_DS3505
ZGSZ,2007-08-20 08:00,ZGSZ 200800Z AUTO 16012KT 2 1/2SM 30/28 A2956 RMK T03000280 IEM_DS3505
ZGSZ,2007-08-20 09:00,ZGSZ 200900Z AUTO 22010KT 2SM 29/26 A2956 RMK SLP019 T02890255 57014 IEM_DS3505
ZGSZ,2007-08-20 10:00,ZGSZ 201000Z AUTO 09008KT 4SM 26/24 A2962 RMK T02600240 IEM_DS3505
ZGSZ,2007-08-20 11:00,ZGSZ 201100Z AUTO 15010KT 3SM 27/23 A2962 RMK T02700230 IEM_DS3505
ZGSZ,2007-08-20 12:00,ZGSZ 201200Z AUTO 14004KT 3SM 25/21 A2965 RMK 60035 SLP046 T02480209 52026 IEM_DS3505
ZGSZ,2007-08-20 13:00,ZGSZ 201300Z AUTO 14004KT 4SM 27/23 A2965 RMK T02700230 IEM_DS3505
ZGSZ,2007-08-20 14:00,ZGSZ 201400Z AUTO 13006KT 2 1/2SM 28/25 A2965 RMK T02800250 IEM_DS3505
ZGSZ,2007-08-20 15:00,ZGSZ 201500Z AUTO 22002KT 2 1/2SM 27/24 A2968 RMK SLP055 T02660241 52009 IEM_DS3505
ZGSZ,2007-08-20 16:00,ZGSZ 201600Z AUTO 19008KT 2SM 28/26 A2968 RMK T02800260 IEM_DS3505
ZGSZ,2007-08-20 17:00,ZGSZ 201700Z AUTO 18012KT 2SM 29/27 A2965 RMK T02900270 IEM_DS3505
ZGSZ,2007-08-20 18:00,ZGSZ 201800Z AUTO 20014KT 2 1/2SM 28/26 A2965 RMK 60001 SLP042 T02770255 57012 IEM_DS3505
ZGSZ,2007-08-20 19:00,ZGSZ 201900Z AUTO 19010KT 2 1/2SM 29/26 A2965 RMK T02900260 IEM_DS3505
ZGSZ,2007-08-20 20:00,ZGSZ 202000Z AUTO 19012KT 3SM 29/26 A2962 RMK T02900260 IEM_DS3505
ZGSZ,2007-08-20 21:00,ZGSZ 202100Z AUTO 22012KT 2 1/2SM 28/25 A2965 RMK 70087 SLP042 T02760250 54000 IEM_DS3505
ZGSZ,2007-08-20 22:00,ZGSZ 202200Z AUTO 18014KT 3SM 28/26 A2965 RMK T02800260 IEM_DS3505
ZGSZ,2007-08-20 23:00,ZGSZ 202300Z AUTO 21016KT 3SM 28/26 A2965 RMK T02800260 IEM_DS3505
ZGSZ,2007-08-21 00:00,ZGSZ 210000Z AUTO 22012KT 5SM 27/25 A2968 RMK 60000 70035 SLP057 T02720250 52014 IEM_DS3505
ZGSZ,2007-08-21 01:00,ZGSZ 210100Z AUTO 20012KT 7SM 28/24 A2971 RMK T02800240 IEM_DS3505
ZGSZ,2007-08-21 02:00,ZGSZ 210200Z AUTO 19010KT 7SM 28/25 A2971 RMK T02800250 IEM_DS3505
ZGSZ,2007-08-21 03:00,ZGSZ 210300Z AUTO 20006KT 4SM 28/26 A2971 RMK SLP065 T02770255 52008 IEM_DS3505
ZGSZ,2007-08-21 04:00,ZGSZ 210400Z AUTO 18010KT 7SM 30/27 A2968 RMK T03000270 IEM_DS3505
ZGSZ,2007-08-21 05:00,ZGSZ 210500Z AUTO 19010KT 7SM 30/26 A2965 RMK T03000260 IEM_DS3505
ZGSZ,2007-08-21 06:00,ZGSZ 210600Z AUTO 22012KT 7SM 29/25 A2965 RMK 60001 SLP043 T02940252 57021 IEM_DS3505
ZGSZ,2007-08-21 07:00,ZGSZ 210700Z AUTO 17014KT 7SM 30/27 A2962 RMK T03000270 IEM_DS3505
ZGSZ,2007-08-21 08:00,ZGSZ 210800Z AUTO 17014KT 6SM 30/27 A2962 RMK T03000270 IEM_DS3505
ZGSZ,2007-08-21 09:00,ZGSZ 210900Z AUTO 22010KT 9SM 29/25 A2962 RMK SLP035 T02910251 57008 IEM_DS3505
ZGSZ,2007-08-21 10:00,ZGSZ 211000Z AUTO 17014KT 7SM 29/27 A2962 RMK T02900270 IEM_DS3505
ZGSZ,2007-08-21 11:00,ZGSZ 211100Z AUTO 17014KT 7SM 29/27 A2965 RMK T02900270 IEM_DS3505
ZGSZ,2007-08-21 12:00,ZGSZ 211200Z AUTO 22010KT 8SM 28/25 A2968 RMK SLP054 T02840250 52018 IEM_DS3505
ZGSZ,2007-08-21 13:00,ZGSZ 211300Z AUTO 28006KT 7SM 28/24 A2968 RMK T02800240 IEM_DS3505
ZGSZ,2007-08-21 14:00,ZGSZ 211400Z AUTO 18012KT 7SM 29/26 A2968 RMK T02900260 IEM_DS3505
ZGSZ,2007-08-21 15:00,ZGSZ 211500Z AUTO 22010KT 7SM 28/24 A2968 RMK SLP056 T02830243 52002 IEM_DS3505
ZGSZ,2007-08-21 16:00,ZGSZ 211600Z AUTO 18014KT 7SM 28/26 A2968 RMK T02800260 IEM_DS3505
ZGSZ,2007-08-21 17:00,ZGSZ 211700Z AUTO 18014KT 7SM 28/27 A2968 RMK T02800270 IEM_DS3505
ZGSZ,2007-08-21 18:00,ZGSZ 211800Z AUTO 22012KT 7SM 28/25 A2968 RMK SLP051 T02800252 57004 IEM_DS3505
ZGSZ,2007-08-21 19:00,ZGSZ 211900Z AUTO 19012KT 7SM 29/26 A2968 RMK T02900260 IEM_DS3505
ZGSZ,2007-08-21 20:00,ZGSZ 212000Z AUTO 16006KT 5SM 25/24 A2965 RMK T02500240 IEM_DS3505
ZGSZ,2007-08-21 21:00,ZGSZ 212100Z AUTO 22012KT 6SM 28/25 A2968 RMK 70001 SLP053 T02750253 52001 IEM_DS3505
ZGSZ,2007-08-21 22:00,ZGSZ 212200Z AUTO 19008KT 7SM 28/26 A2968 RMK T02800260 IEM_DS3505
ZGSZ,2007-08-21 23:00,ZGSZ 212300Z AUTO 19008KT 7SM 28/26 A2968 RMK T02800260 IEM_DS3505
ZGSZ,2007-08-22 00:00,ZGSZ 220000Z AUTO 22008KT 7SM 28/26 A2971 RMK 60000 70001 SLP063 T02770257 52010 IEM_DS3505
ZGSZ,2007-08-22 01:00,ZGSZ 220100Z AUTO 18012KT 7SM 27/24 A2974 RMK T02700240 IEM_DS3505
ZGSZ,2007-08-22 02:00,ZGSZ 220200Z AUTO 19012KT 6SM 27/25 A2974 RMK T02700250 IEM_DS3505
ZGSZ,2007-08-22 03:00,ZGSZ 220300Z AUTO 11002KT 9SM 26/24 A2974 RMK SLP077 T02600240 52014 IEM_DS3505
ZGSZ,2007-08-22 04:00,ZGSZ 220400Z AUTO 17010KT 7SM 29/26 A2971 RMK T02900260 IEM_DS3505
ZGSZ,2007-08-22 05:00,ZGSZ 220500Z AUTO 17012KT 7SM 28/26 A2971 RMK T02800260 IEM_DS3505
ZGSZ,2007-08-22 06:00,ZGSZ 220600Z AUTO 20010KT 11SM 28/25 A2968 RMK 60118 SLP058 T02750246 57019 IEM_DS3505
ZGSZ,2007-08-22 07:00,ZGSZ 220700Z AUTO 17010KT 7SM 29/26 A2968 RMK T02900260 IEM_DS3505
ZGSZ,2007-08-22 08:00,ZGSZ 220800Z AUTO 17010KT 7SM 29/26 A2965 RMK T02900260 IEM_DS3505
ZGSZ,2007-08-22 09:00,ZGSZ 220900Z AUTO 20008KT 14SM 28/25 A2965 RMK SLP047 T02830251 57011 IEM_DS3505
ZGSZ,2007-08-22 10:00,ZGSZ 221000Z AUTO 16010KT 7SM 29/27 A2965 RMK T02900270 IEM_DS3505
ZGSZ,2007-08-22 11:00,ZGSZ 221100Z AUTO 16010KT 7SM 29/27 A2965 RMK T02900270 IEM_DS3505
ZGSZ,2007-08-22 12:00,ZGSZ 221200Z AUTO 22010KT 7SM 28/25 A2965 RMK SLP066 T02810253 52019 IEM_DS3505
ZGSZ,2007-08-22 13:00,ZGSZ 221300Z AUTO 17010KT 7SM 29/27 A2971 RMK T02900270 IEM_DS3505
ZGSZ,2007-08-22 14:00,ZGSZ 221400Z AUTO 17010KT 7SM 28/26 A2974 RMK T02800260 IEM_DS3505
ZGSZ,2007-08-22 15:00,ZGSZ 221500Z AUTO 16002KT 5SM 28/25 A2974 RMK SLP077 T02760248 52011 IEM_DS3505
ZGSZ,2007-08-22 16:00,ZGSZ 221600Z AUTO 18010KT 7SM 28/26 A2974 RMK T02800260 IEM_DS3505
ZGSZ,2007-08-22 17:00,ZGSZ 221700Z AUTO 17012KT 7SM 28/27 A2974 RMK T02800270 IEM_DS3505
ZGSZ,2007-08-22 18:00,ZGSZ 221800Z AUTO 18002KT 7SM 27/25 A2971 RMK SLP072 T02730249 57005 IEM_DS3505
ZGSZ,2007-08-22 19:00,ZGSZ 221900Z AUTO 16010KT 7SM 28/26 A2971 RMK T02800260 IEM_DS3505
ZGSZ,2007-08-22 20:00,ZGSZ 222000Z AUTO 16010KT 7SM 28/26 A2971 RMK T02800260 IEM_DS3505
ZGSZ,2007-08-22 21:00,ZGSZ 222100Z AUTO 14002KT 6SM 27/25 A2971 RMK 70120 SLP069 T02720248 57003 IEM_DS3505
ZGSZ,2007-08-22 22:00,ZGSZ 222200Z AUTO 16010KT 7SM 28/26 A2971 RMK T02800260 IEM_DS3505
ZGSZ,2007-08-22 23:00,ZGSZ 222300Z AUTO 16010KT 7SM 29/26 A2974 RMK T02900260 IEM_DS3505
ZGSZ,2007-08-23 00:00,ZGSZ 230000Z AUTO 18004KT 7SM 29/25 A2974 RMK 70120 SLP081 T02860250 52012 IEM_DS3505
ZGSZ,2007-08-23 01:00,ZGSZ 230100Z AUTO 21017KT 7SM 27/24 A2977 RMK T02700240 IEM_DS3505
ZGSZ,2007-08-23 02:00,ZGSZ 230200Z AUTO 18008KT 7SM 27/25 A2980 RMK T02700250 IEM_DS3505
ZGSZ,2007-08-23 03:00,ZGSZ 230300Z AUTO 22008KT 11SM 28/26 A2980 RMK SLP092 T02820256 52011 IEM_DS3505
ZGSZ,2007-08-23 04:00,ZGSZ 230400Z AUTO 25004KT 7SM 27/23 A2977 RMK T02700230 IEM_DS3505
ZGSZ,2007-08-23 05:00,ZGSZ 230500Z AUTO 7SM 26/24 A2977 RMK T02600240 IEM_DS3505
ZGSZ,2007-08-23 06:00,ZGSZ 230600Z AUTO 27002KT 14SM 27/22 A2977 RMK 60000 SLP079 T02730218 57013 IEM_DS3505
ZGSZ,2007-08-23 07:00,ZGSZ 230700Z AUTO 00000KT 7SM 27/24 A2977 RMK T02700240 IEM_DS3505
ZGSZ,2007-08-23 08:00,ZGSZ 230800Z AUTO 13006KT 7SM 29/24 A2971 RMK T02900240 IEM_DS3505
ZGSZ,2007-08-23 09:00,ZGSZ 230900Z AUTO 14002KT 17SM 28/22 A2971 RMK SLP070 T02850225 57009 IEM_DS3505
ZGSZ,2007-08-23 10:00,ZGSZ 231000Z AUTO 15006KT 6SM 28/25 A2974 RMK T02800250 IEM_DS3505
ZGSZ,2007-08-23 11:00,ZGSZ 231100Z AUTO 15006KT 6SM 28/26 A2974 RMK T02800260 IEM_DS3505
ZGSZ,2007-08-23 12:00,ZGSZ 231200Z AUTO 16002KT 16SM 28/24 A2977 RMK 60000 SLP088 T02810235 52018 IEM_DS3505
ZGSZ,2007-08-23 13:00,ZGSZ 231300Z AUTO 14006KT 6SM 28/26 A2980 RMK T02800260 IEM_DS3505
ZGSZ,2007-08-23 14:00,ZGSZ 231400Z AUTO 15006KT 6SM 28/26 A2980 RMK T02800260 IEM_DS3505
ZGSZ,2007-08-23 15:00,ZGSZ 231500Z AUTO 07002KT 12SM 28/24 A2983 RMK SLP102 T02750239 52014 IEM_DS3505
ZGSZ,2007-08-23 16:00,ZGSZ 231600Z AUTO 11004KT 7SM 28/25 A2983 RMK T02800250 IEM_DS3505
ZGSZ,2007-08-23 17:00,ZGSZ 231700Z AUTO 11004KT 5SM 28/25 A2980 RMK T02800250 IEM_DS3505
ZGSZ,2007-08-23 18:00,ZGSZ 231800Z AUTO 02002KT 9SM 27/24 A2980 RMK SLP097 T02700243 57005 IEM_DS3505
ZGSZ,2007-08-23 19:00,ZGSZ 231900Z AUTO 12002KT 7SM 27/25 A2980 RMK T02700250 IEM_DS3505
ZGSZ,2007-08-23 20:00,ZGSZ 232000Z AUTO 12004KT 3SM 27/25 A2980 RMK T02700250 IEM_DS3505
ZGSZ,2007-08-23 21:00,ZGSZ 232100Z AUTO 09002KT 7SM 27/24 A2980 RMK 70000 SLP099 T02660235 52002 IEM_DS3505
ZGSZ,2007-08-23 22:00,ZGSZ 232200Z AUTO 14006KT 7SM 27/25 A2980 RMK T02700250 IEM_DS3505
ZGSZ,2007-08-23 23:00,ZGSZ 232300Z AUTO 12004KT 4SM 28/25 A2983 RMK T02800250 IEM_DS3505
ZGSZ,2007-08-24 00:00,ZGSZ 240000Z AUTO 11002KT 5SM 28/25 A2983 RMK 60004 70004 SLP110 T02840248 52011 IEM_DS3505
ZGSZ,2007-08-24 01:00,ZGSZ 240100Z AUTO 18004KT 7SM 30/26 A2985 RMK T03000260 IEM_DS3505
ZGSZ,2007-08-24 02:00,ZGSZ 240200Z AUTO 19004KT 7SM 30/26 A2985 RMK T03000260 IEM_DS3505
ZGSZ,2007-08-24 03:00,ZGSZ 240300Z AUTO 18004KT 12SM 31/24 A2985 RMK SLP113 T03110240 52003 IEM_DS3505
ZGSZ,2007-08-24 04:00,ZGSZ 240400Z AUTO 20006KT 7SM 32/26 A2985 RMK T03200260 IEM_DS3505
ZGSZ,2007-08-24 05:00,ZGSZ 240500Z AUTO 20008KT 7SM 31/27 A2983 RMK T03100270 IEM_DS3505
ZGSZ,2007-08-24 06:00,ZGSZ 240600Z AUTO 22004KT 11SM 32/25 A2980 RMK SLP096 T03190250 57017 IEM_DS3505
ZGSZ,2007-08-24 07:00,ZGSZ 240700Z AUTO 19010KT 7SM 32/27 A2980 RMK T03200270 IEM_DS3505
ZGSZ,2007-08-24 08:00,ZGSZ 240800Z AUTO 17010KT 7SM 30/26 A2980 RMK T03000260 IEM_DS3505
ZGSZ,2007-08-24 09:00,ZGSZ 240900Z AUTO 16006KT 12SM 29/24 A2977 RMK SLP092 T02870240 57004 IEM_DS3505
ZGSZ,2007-08-24 10:00,ZGSZ 241000Z AUTO 17006KT 6SM 29/25 A2980 RMK T02900250 IEM_DS3505
ZGSZ,2007-08-24 11:00,ZGSZ 241100Z AUTO 15008KT 7SM 28/26 A2980 RMK T02800260 IEM_DS3505
ZGSZ,2007-08-24 12:00,ZGSZ 241200Z AUTO 07002KT 7SM 28/24 A2980 RMK 60000 SLP099 T02810243 52007 IEM_DS3505
ZGSZ,2007-08-24 13:00,ZGSZ 241300Z AUTO 10004KT 6SM 29/26 A2980 RMK T02900260 IEM_DS3505
ZGSZ,2007-08-24 14:00,ZGSZ 241400Z AUTO 08004KT 6SM 28/25 A2983 RMK T02800250 IEM_DS3505
ZGSZ,2007-08-24 15:00,ZGSZ 241500Z AUTO 07002KT 4SM 28/24 A2985 RMK SLP115 T02760242 52016 IEM_DS3505
ZGSZ,2007-08-24 16:00,ZGSZ 241600Z AUTO 13006KT 2SM 28/26 A2983 RMK T02800260 IEM_DS3505
ZGSZ,2007-08-24 17:00,ZGSZ 241700Z AUTO 09004KT 3SM 28/25 A2983 RMK T02800250 IEM_DS3505
ZGSZ,2007-08-24 18:00,ZGSZ 241800Z AUTO 07002KT 3SM 27/24 A2983 RMK 60000 SLP105 T02730244 57010 IEM_DS3505
ZGSZ,2007-08-24 19:00,ZGSZ 241900Z AUTO 4SM 28/25 A2983 RMK T02800250 IEM_DS3505
ZGSZ,2007-08-24 20:00,ZGSZ 242000Z AUTO 2 1/2SM 28/26 A2980 RMK T02800260 IEM_DS3505
ZGSZ,2007-08-24 21:00,ZGSZ 242100Z AUTO 34002KT 2 1/2SM 26/24 A2983 RMK 70005 SLP099 T02650243 57006 IEM_DS3505
ZGSZ,2007-08-24 22:00,ZGSZ 242200Z AUTO 02004KT 3SM 27/25 A2983 RMK T02700250 IEM_DS3505
ZGSZ,2007-08-24 23:00,ZGSZ 242300Z AUTO 03004KT 3SM 27/26 A2983 RMK T02700260 IEM_DS3505
ZGSZ,2007-08-25 00:00,ZGSZ 250000Z AUTO 02004KT 2SM 28/24 A2983 RMK 70001 SLP103 T02780242 52004 IEM_DS3505
ZGSZ,2007-08-25 01:00,ZGSZ 250100Z AUTO 03004KT 3SM 29/25 A2983 RMK T02900250 IEM_DS3505
ZGSZ,2007-08-25 02:00,ZGSZ 250200Z AUTO 4SM 30/25 A2983 RMK T03000250 IEM_DS3505
ZGSZ,2007-08-25 03:00,ZGSZ 250300Z AUTO 09002KT 2 1/2SM 31/24 A2983 RMK SLP103 T03090245 54000 IEM_DS3505
ZGSZ,2007-08-25 04:00,ZGSZ 250400Z AUTO 28006KT 3SM 31/25 A2983 RMK T03100250 IEM_DS3505
ZGSZ,2007-08-25 05:00,ZGSZ 250500Z AUTO 27006KT 2 1/2SM 32/25 A2977 RMK T03200250 IEM_DS3505
ZGSZ,2007-08-25 06:00,ZGSZ 250600Z AUTO 22004KT 2 1/2SM 30/25 A2977 RMK SLP081 T03010252 57022 IEM_DS3505
ZGSZ,2007-08-25 07:00,ZGSZ 250700Z AUTO 20006KT 4SM 31/26 A2974 RMK T03100260 IEM_DS3505
ZGSZ,2007-08-25 08:00,ZGSZ 250800Z AUTO 15006KT 7SM 30/24 A2971 RMK T03000240 IEM_DS3505
ZGSZ,2007-08-25 09:00,ZGSZ 250900Z AUTO 27002KT 5SM 27/23 A2971 RMK SLP070 T02710234 57011 IEM_DS3505
ZGSZ,2007-08-25 10:00,ZGSZ 251000Z AUTO 19004KT 4SM 29/25 A2974 RMK T02900250 IEM_DS3505
ZGSZ,2007-08-25 11:00,ZGSZ 251100Z AUTO 00000KT 4SM 28/25 A2974 RMK T02800250 IEM_DS3505
ZGSZ,2007-08-25 12:00,ZGSZ 251200Z AUTO 34004G27KT 5SM 26/24 A2980 RMK 60031 SLP087 T02650245 52017 IEM_DS3505
ZGSZ,2007-08-25 13:00,ZGSZ 251300Z AUTO 35004KT 3SM 25/23 A2980 RMK T02500230 IEM_DS3505
ZGSZ,2007-08-25 14:00,ZGSZ 251400Z AUTO 34004KT 1 1/2SM 26/23 A2983 RMK T02600230 IEM_DS3505
ZGSZ,2007-08-25 15:00,ZGSZ 251500Z AUTO 18004KT 3SM 26/23 A2983 RMK SLP106 T02550230 52019 IEM_DS3505
ZGSZ,2007-08-25 16:00,ZGSZ 251600Z AUTO 3SM 27/23 A2983 RMK T02700230 IEM_DS3505
ZGSZ,2007-08-25 17:00,ZGSZ 251700Z AUTO 2SM 26/23 A2980 RMK T02600230 IEM_DS3505
ZGSZ,2007-08-25 18:00,ZGSZ 251800Z AUTO 34002KT 1 1/2SM 25/23 A2980 RMK SLP090 T02540229 57016 IEM_DS3505
ZGSZ,2007-08-25 19:00,ZGSZ 251900Z AUTO 00000KT 2SM 26/24 A2977 RMK T02600240 IEM_DS3505
ZGSZ,2007-08-25 20:00,ZGSZ 252000Z AUTO 00000KT 1 1/2SM 26/24 A2977 RMK T02600240 IEM_DS3505
ZGSZ,2007-08-25 21:00,ZGSZ 252100Z AUTO 27004KT 1 1/4SM 25/23 A2977 RMK 70031 SLP080 T02500229 57010 IEM_DS3505
ZGSZ,2007-08-25 22:00,ZGSZ 252200Z AUTO 33004KT 2SM 26/24 A2977 RMK T02600240 IEM_DS3505
ZGSZ,2007-08-25 23:00,ZGSZ 252300Z AUTO 32004KT 1 1/4SM 27/25 A2980 RMK T02700250 IEM_DS3505
ZGSZ,2007-08-26 00:00,ZGSZ 260000Z AUTO 36002KT 1 1/4SM 27/23 A2980 RMK 70031 SLP094 T02690234 52014 IEM_DS3505
ZGSZ,2007-08-26 01:00,ZGSZ 260100Z AUTO 31004KT 1 1/2SM 28/24 A2980 RMK T02800240 IEM_DS3505
ZGSZ,2007-08-26 02:00,ZGSZ 260200Z AUTO 31004KT 1 1/2SM 28/24 A2983 RMK T02800240 IEM_DS3505
ZGSZ,2007-08-26 03:00,ZGSZ 260300Z AUTO 25002KT 1 1/4SM 30/24 A2983 RMK SLP102 T03000242 52008 IEM_DS3505
ZGSZ,2007-08-26 04:00,ZGSZ 260400Z AUTO 27006KT 1 1/2SM 30/24 A2980 RMK T03000240 IEM_DS3505
ZGSZ,2007-08-26 05:00,ZGSZ 260500Z AUTO 2SM 30/24 A2977 RMK T03000240 IEM_DS3505
ZGSZ,2007-08-26 06:00,ZGSZ 260600Z AUTO 20004KT 2SM 31/24 A2974 RMK SLP078 T03070236 57024 IEM_DS3505
ZGSZ,2007-08-26 07:00,ZGSZ 260700Z AUTO 26004KT 3SM 32/24 A2971 RMK T03200240 IEM_DS3505
ZGSZ,2007-08-26 08:00,ZGSZ 260800Z AUTO 19006KT 3SM 31/24 A2971 RMK T03100240 IEM_DS3505
ZGSZ,2007-08-26 09:00,ZGSZ 260900Z AUTO 16006KT 2SM 28/25 A2971 RMK SLP067 T02810253 57011 IEM_DS3505
ZGSZ,2007-08-26 10:00,ZGSZ 261000Z AUTO 16006KT 2SM 29/25 A2971 RMK T02900250 IEM_DS3505
ZGSZ,2007-08-26 11:00,ZGSZ 261100Z AUTO 16004KT 2 1/2SM 29/25 A2974 RMK T02900250 IEM_DS3505
ZGSZ,2007-08-26 12:00,ZGSZ 261200Z AUTO 04002KT 2 1/2SM 28/23 A2977 RMK 60031 SLP089 T02800234 52022 IEM_DS3505
ZGSZ,2007-08-26 13:00,ZGSZ 261300Z AUTO 16002KT 2SM 29/26 A2980 RMK T02900260 IEM_DS3505
ZGSZ,2007-08-26 14:00,ZGSZ 261400Z AUTO 2 1/2SM 28/25 A2983 RMK T02800250 IEM_DS3505
ZGSZ,2007-08-26 15:00,ZGSZ 261500Z AUTO 07002KT 3SM 27/24 A2983 RMK SLP107 T02730235 52018 IEM_DS3505
ZGSZ,2007-08-26 16:00,ZGSZ 261600Z AUTO 2 1/2SM 28/25 A2983 RMK T02800250 IEM_DS3505
ZGSZ,2007-08-26 17:00,ZGSZ 261700Z AUTO 03004KT 2SM 28/25 A2983 RMK T02800250 IEM_DS3505
ZGSZ,2007-08-26 18:00,ZGSZ 261800Z AUTO 07004KT 3SM 27/24 A2980 RMK SLP093 T02690236 57014 IEM_DS3505
ZGSZ,2007-08-26 19:00,ZGSZ 261900Z AUTO 3SM 27/24 A2977 RMK T02700240 IEM_DS3505
ZGSZ,2007-08-26 20:00,ZGSZ 262000Z AUTO 09004KT 3SM 27/24 A2977 RMK T02700240 IEM_DS3505
ZGSZ,2007-08-26 21:00,ZGSZ 262100Z AUTO 02004KT 3SM 26/24 A2977 RMK 70030 SLP089 T02650238 57004 IEM_DS3505
ZGSZ,2007-08-26 22:00,ZGSZ 262200Z AUTO 01004KT 3SM 27/24 A2980 RMK T02700240 IEM_DS3505
ZGSZ,2007-08-26 23:00,ZGSZ 262300Z AUTO 05004KT 4SM 28/25 A2980 RMK T02800250 IEM_DS3505
ZGSZ,2007-08-27 00:00,ZGSZ 270000Z AUTO 04004KT 5SM 28/24 A2983 RMK 70030 SLP102 T02790241 52013 IEM_DS3505
ZGSZ,2007-08-27 01:00,ZGSZ 270100Z AUTO 07004KT 7SM 29/25 A2983 RMK T02900250 IEM_DS3505
ZGSZ,2007-08-27 02:00,ZGSZ 270200Z AUTO 11006KT 7SM 31/25 A2983 RMK T03100250 IEM_DS3505
ZGSZ,2007-08-27 03:00,ZGSZ 270300Z AUTO 09006KT 12SM 30/24 A2983 RMK SLP107 T03040241 52005 IEM_DS3505
ZGSZ,2007-08-27 04:00,ZGSZ 270400Z AUTO 11008KT 7SM 33/25 A2983 RMK T03300250 IEM_DS3505
ZGSZ,2007-08-27 05:00,ZGSZ 270500Z AUTO 20006KT 4SM 29/25 A2980 RMK T02900250 IEM_DS3505
ZGSZ,2007-08-27 06:00,ZGSZ 270600Z AUTO 11006KT 17SM 31/25 A2980 RMK 60000 SLP090 T03080247 57017 IEM_DS3505
ZGSZ,2007-08-27 07:00,ZGSZ 270700Z AUTO 17004KT 7SM 29/25 A2977 RMK T02900250 IEM_DS3505
ZGSZ,2007-08-27 08:00,ZGSZ 270800Z AUTO 18004KT 7SM 28/26 A2977 RMK T02800260 IEM_DS3505
ZGSZ,2007-08-27 09:00,ZGSZ 270900Z AUTO 07006KT 19SM 29/24 A2977 RMK SLP085 T02930242 57005 IEM_DS3505
ZGSZ,2007-08-27 10:00,ZGSZ 271000Z AUTO 7SM 29/25 A2980 RMK T02900250 IEM_DS3505
ZGSZ,2007-08-27 11:00,ZGSZ 271100Z AUTO 10008KT 7SM 29/25 A2980 RMK T02900250 IEM_DS3505
ZGSZ,2007-08-27 12:00,ZGSZ 271200Z AUTO 20004KT 6SM 26/24 A2983 RMK 60008 SLP107 T02630243 52022 IEM_DS3505
ZGSZ,2007-08-27 13:00,ZGSZ 271300Z AUTO 12010KT 7SM 27/25 A2985 RMK T02700250 IEM_DS3505
ZGSZ,2007-08-27 14:00,ZGSZ 271400Z AUTO 06004KT 7SM 27/25 A2985 RMK T02700250 IEM_DS3505
ZGSZ,2007-08-27 15:00,ZGSZ 271500Z AUTO 07006KT 9SM 26/24 A2988 RMK SLP120 T02650243 52013 IEM_DS3505
ZGSZ,2007-08-27 16:00,ZGSZ 271600Z AUTO 03006KT 7SM 26/24 A2985 RMK T02600240 IEM_DS3505
ZGSZ,2007-08-27 17:00,ZGSZ 271700Z AUTO 01006KT 6SM 26/25 A2985 RMK T02600250 IEM_DS3505
ZGSZ,2007-08-27 18:00,ZGSZ 271800Z AUTO 07004KT 9SM 27/24 A2983 RMK 60028 SLP105 T02680243 57015 IEM_DS3505
ZGSZ,2007-08-27 19:00,ZGSZ 271900Z AUTO 02002KT 6SM 26/24 A2983 RMK T02600240 IEM_DS3505
ZGSZ,2007-08-27 20:00,ZGSZ 272000Z AUTO 03004KT 6SM 27/25 A2983 RMK T02700250 IEM_DS3505
ZGSZ,2007-08-27 21:00,ZGSZ 272100Z AUTO 04002KT 7SM 26/24 A2983 RMK 70032 SLP100 T02640237 57005 IEM_DS3505
ZGSZ,2007-08-27 22:00,ZGSZ 272200Z AUTO 07004KT 6SM 27/24 A2980 RMK T02700240 IEM_DS3505
ZGSZ,2007-08-27 23:00,ZGSZ 272300Z AUTO 6SM 27/24 A2983 RMK T02700240 IEM_DS3505
ZGSZ,2007-08-28 00:00,ZGSZ 280000Z AUTO 04004KT 9SM 27/24 A2983 RMK 70032 SLP107 T02730240 52007 IEM_DS3505
ZGSZ,2007-08-28 01:00,ZGSZ 280100Z AUTO 08004KT 6SM 29/25 A2985 RMK T02900250 IEM_DS3505
ZGSZ,2007-08-28 02:00,ZGSZ 280200Z AUTO 06006KT 7SM 30/25 A2985 RMK T03000250 IEM_DS3505
ZGSZ,2007-08-28 15:00,ZGSZ 281500Z AUTO 09006KT 10SM 28/24 RMK SLP116 T02820242 52016 IEM_DS3505
ZGSZ,2007-08-28 18:00,ZGSZ 281800Z AUTO 09006KT 9SM 28/24 A2983 RMK 60000 SLP100 T02780238 57016 IEM_DS3505
ZGSZ,2007-08-28 20:00,ZGSZ 282000Z AUTO 05004KT 4SM 27/25 A2980 RMK T02700250 IEM_DS3505
ZGSZ,2007-08-29 02:00,ZGSZ 290200Z AUTO 09006KT 7SM 32/25 A2983 RMK T03200250 IEM_DS3505
ZGSZ,2007-08-29 03:00,ZGSZ 290300Z AUTO 7SM 33/25 A2983 RMK T03300250 IEM_DS3505
ZGSZ,2007-08-29 05:00,ZGSZ 290500Z AUTO 21008KT 7SM 32/26 A2980 RMK T03200260 IEM_DS3505
ZGSZ,2007-08-29 06:00,ZGSZ 290600Z AUTO 22008KT 19SM 31/24 A2980 RMK SLP091 T03090243 57014 IEM_DS3505
ZGSZ,2007-08-29 07:00,ZGSZ 290700Z AUTO 19010KT 7SM 31/26 A2977 RMK T03100260 IEM_DS3505
ZGSZ,2007-08-29 08:00,ZGSZ 290800Z AUTO 20008KT 7SM 31/26 A2974 RMK T03100260 IEM_DS3505
ZGSZ,2007-08-29 09:00,ZGSZ 290900Z AUTO 20004KT 19SM 31/24 A2974 RMK SLP070 T03110245 57020 IEM_DS3505
ZGSZ,2007-08-29 10:00,ZGSZ 291000Z AUTO 16006KT 6SM 30/25 A2971 RMK T03000250 IEM_DS3505
ZGSZ,2007-08-29 11:00,ZGSZ 291100Z AUTO 18008KT 6SM 29/26 A2974 RMK T02900260 IEM_DS3505
ZGSZ,2007-08-29 12:00,ZGSZ 291200Z AUTO 09004KT 19SM 29/24 A2977 RMK SLP085 T02880237 52014 IEM_DS3505
ZGSZ,2007-08-29 13:00,ZGSZ 291300Z AUTO 16006KT 6SM 29/25 A2977 RMK T02900250 IEM_DS3505
ZGSZ,2007-08-29 14:00,ZGSZ 291400Z AUTO 16006KT 6SM 28/25 A2980 RMK T02800250 IEM_DS3505
ZGSZ,2007-08-29 15:00,ZGSZ 291500Z AUTO 07006KT 19SM 28/24 A2980 RMK SLP095 T02770237 52010 IEM_DS3505
ZGSZ,2007-08-29 16:00,ZGSZ 291600Z AUTO 13004KT 6SM 28/24 A2980 RMK T02800240 IEM_DS3505
ZGSZ,2007-08-29 17:00,ZGSZ 291700Z AUTO 08004KT 6SM 28/24 A2980 RMK T02800240 IEM_DS3505
ZGSZ,2007-08-29 18:00,ZGSZ 291800Z AUTO 04002KT 19SM 27/24 A2977 RMK SLP087 T02700235 57008 IEM_DS3505
ZGSZ,2007-08-29 19:00,ZGSZ 291900Z AUTO 12004KT 6SM 27/24 A2977 RMK T02700240 IEM_DS3505
ZGSZ,2007-08-29 20:00,ZGSZ 292000Z AUTO 06002KT 6SM 27/24 A2977 RMK T02700240 IEM_DS3505
ZGSZ,2007-08-29 21:00,ZGSZ 292100Z AUTO 32002KT 19SM 26/23 A2977 RMK SLP083 T02640233 57004 IEM_DS3505
ZGSZ,2007-08-29 22:00,ZGSZ 292200Z AUTO 00000KT 6SM 27/24 A2977 RMK T02700240 IEM_DS3505
ZGSZ,2007-08-29 23:00,ZGSZ 292300Z AUTO 6SM 28/25 A2980 RMK T02800250 IEM_DS3505
ZGSZ,2007-08-30 00:00,ZGSZ 300000Z AUTO 22002KT 19SM 28/24 A2980 RMK SLP094 T02850245 52011 IEM_DS3505
ZGSZ,2007-08-30 01:00,ZGSZ 300100Z AUTO 20004KT 7SM 30/24 A2980 RMK T03000240 IEM_DS3505
ZGSZ,2007-08-30 02:00,ZGSZ 300200Z AUTO 25004KT 7SM 31/25 A2980 RMK T03100250 IEM_DS3505
ZGSZ,2007-08-30 03:00,ZGSZ 300300Z AUTO 16004KT 19SM 32/22 A2980 RMK SLP090 T03170221 57003 IEM_DS3505
ZGSZ,2007-08-30 04:00,ZGSZ 300400Z AUTO 24006KT 7SM 31/25 A2977 RMK T03100250 IEM_DS3505
ZGSZ,2007-08-30 05:00,ZGSZ 300500Z AUTO 22006KT 7SM 32/25 A2974 RMK T03200250 IEM_DS3505
ZGSZ,2007-08-30 06:00,ZGSZ 300600Z AUTO 22004KT 19SM 31/24 A2974 RMK SLP071 T03120236 57019 IEM_DS3505
ZGSZ,2007-08-30 07:00,ZGSZ 300700Z AUTO 20008KT 7SM 31/26 A2971 RMK T03100260 IEM_DS3505
ZGSZ,2007-08-30 08:00,ZGSZ 300800Z AUTO 19008KT 7SM 31/26 A2971 RMK T03100260 IEM_DS3505
ZGSZ,2007-08-30 09:00,ZGSZ 300900Z AUTO 22004KT 19SM 30/24 A2968 RMK SLP061 T02950237 57011 IEM_DS3505
ZGSZ,2007-08-30 10:00,ZGSZ 301000Z AUTO 18010KT 7SM 30/25 A2968 RMK T03000250 IEM_DS3505
ZGSZ,2007-08-30 11:00,ZGSZ 301100Z AUTO 17010KT 6SM 29/25 A2971 RMK T02900250 IEM_DS3505
ZGSZ,2007-08-30 12:00,ZGSZ 301200Z AUTO 16004KT 16SM 28/24 A2971 RMK 60000 SLP071 T02810237 52010 IEM_DS3505
ZGSZ,2007-08-30 13:00,ZGSZ 301300Z AUTO 17006KT 6SM 29/25 A2974 RMK T02900250 IEM_DS3505
ZGSZ,2007-08-30 14:00,ZGSZ 301400Z AUTO 17008KT 6SM 29/25 A2974 RMK T02900250 IEM_DS3505
ZGSZ,2007-08-30 15:00,ZGSZ 301500Z AUTO 14002KT 16SM 28/24 A2974 RMK SLP079 T02770235 52009 IEM_DS3505
ZGSZ,2007-08-30 16:00,ZGSZ 301600Z AUTO 11004KT 6SM 29/24 A2974 RMK T02900240 IEM_DS3505
ZGSZ,2007-08-30 17:00,ZGSZ 301700Z AUTO 15006KT 6SM 27/24 A2974 RMK T02700240 IEM_DS3505
ZGSZ,2007-08-30 18:00,ZGSZ 301800Z AUTO 14002KT 16SM 27/23 A2974 RMK SLP071 T02710234 57008 IEM_DS3505
ZGSZ,2007-08-30 19:00,ZGSZ 301900Z AUTO 15006KT 6SM 27/24 A2971 RMK T02700240 IEM_DS3505
ZGSZ,2007-08-30 20:00,ZGSZ 302000Z AUTO 16006KT 6SM 27/24 A2971 RMK T02700240 IEM_DS3505
ZGSZ,2007-08-30 21:00,ZGSZ 302100Z AUTO 25002KT 16SM 26/23 A2974 RMK 70000 SLP071 T02640233 57001 IEM_DS3505
ZGSZ,2007-08-30 22:00,ZGSZ 302200Z AUTO 11002KT 7SM 28/24 A2974 RMK T02800240 IEM_DS3505
ZGSZ,2007-08-30 23:00,ZGSZ 302300Z AUTO 12002KT 7SM 28/25 A2974 RMK T02800250 IEM_DS3505
ZGSZ,2007-08-31 00:00,ZGSZ 310000Z AUTO 16002KT 16SM 28/24 A2977 RMK 70000 SLP083 T02850239 52012 IEM_DS3505
ZGSZ,2007-08-31 01:00,ZGSZ 310100Z AUTO 18006KT 7SM 30/25 A2977 RMK T03000250 IEM_DS3505
ZGSZ,2007-08-31 02:00,ZGSZ 310200Z AUTO 20004KT 7SM 31/25 A2977 RMK T03100250 IEM_DS3505
ZGSZ,2007-08-31 03:00,ZGSZ 310300Z AUTO 20004KT 19SM 31/22 A2977 RMK SLP079 T03110224 57003 IEM_DS3505
ZGSZ,2007-08-31 04:00,ZGSZ 310400Z AUTO 22004KT 7SM 31/25 A2974 RMK T03100250 IEM_DS3505
ZGSZ,2007-08-31 05:00,ZGSZ 310500Z AUTO 20006KT 7SM 32/25 A2971 RMK T03200250 IEM_DS3505
ZGSZ,2007-08-31 06:00,ZGSZ 310600Z AUTO 22010KT 19SM 32/21 A2971 RMK SLP063 T03250211 57016 IEM_DS3505
ZGSZ,2007-08-31 07:00,ZGSZ 310700Z AUTO 19010KT 7SM 32/26 A2968 RMK T03200260 IEM_DS3505
ZGSZ,2007-08-31 08:00,ZGSZ 310800Z AUTO 19010KT 7SM 31/25 A2968 RMK T03100250 IEM_DS3505
ZGSZ,2007-08-31 09:00,ZGSZ 310900Z AUTO 18002KT 19SM 30/22 A2968 RMK SLP054 T02990218 57010 IEM_DS3505
ZGSZ,2007-08-31 10:00,ZGSZ 311000Z AUTO 18010KT 6SM 30/25 A2968 RMK T03000250 IEM_DS3505
ZGSZ,2007-08-31 11:00,ZGSZ 311100Z AUTO 16008KT 6SM 29/25 A2968 RMK T02900250 IEM_DS3505
ZGSZ,2007-08-31 12:00,ZGSZ 311200Z AUTO 18004KT 19SM 28/23 A2968 RMK SLP060 T02810230 52006 IEM_DS3505
ZGSZ,2007-08-31 13:00,ZGSZ 311300Z AUTO 16006KT 6SM 29/24 A2971 RMK T02900240 IEM_DS3505
ZGSZ,2007-08-31 14:00,ZGSZ 311400Z AUTO 15006KT 6SM 28/23 A2974 RMK T02800230 IEM_DS3505
ZGSZ,2007-08-31 15:00,ZGSZ 311500Z AUTO 20002KT 19SM 28/24 A2974 RMK SLP071 T02790235 52012 IEM_DS3505
ZGSZ,2007-08-31 16:00,ZGSZ 311600Z AUTO 15006KT 6SM 28/24 A2971 RMK T02800240 IEM_DS3505
ZGSZ,2007-08-31 17:00,ZGSZ 311700Z AUTO 18006KT 6SM 28/24 A2971 RMK T02800240 IEM_DS3505
ZGSZ,2007-08-31 18:00,ZGSZ 311800Z AUTO 16002KT 17SM 28/22 A2971 RMK SLP061 T02760225 57010 IEM_DS3505
ZGSZ,2007-08-31 19:00,ZGSZ 311900Z AUTO 17006KT 6SM 28/24 A2968 RMK T02800240 IEM_DS3505
ZGSZ,2007-08-31 20:00,ZGSZ 312000Z AUTO 14004KT 6SM 28/24 A2968 RMK T02800240 IEM_DS3505
ZGSZ,2007-08-31 21:00,ZGSZ 312100Z AUTO 18002KT 17SM 27/23 A2971 RMK SLP061 T02690232 57001 IEM_DS3505
ZGSZ,2007-08-31 22:00,ZGSZ 312200Z AUTO 14004KT 4SM 27/24 A2971 RMK T02700240 IEM_DS3505
ZGSZ,2007-08-31 23:00,ZGSZ 312300Z AUTO 13002KT 7SM 28/24 A2971 RMK T02800240 IEM_DS3505
ZGSZ,2007-09-01 00:00,ZGSZ 010000Z AUTO 11002KT 19SM 28/24 A2974 RMK SLP073 T02780240 52012 IEM_DS3505
ZGSZ,2007-09-01 01:00,ZGSZ 010100Z AUTO 17006KT 7SM 30/25 A2974 RMK T03000250 IEM_DS3505
ZGSZ,2007-09-01 02:00,ZGSZ 010200Z AUTO 18006KT 7SM 30/25 A2977 RMK T03000250 IEM_DS3505
ZGSZ,2007-09-01 03:00,ZGSZ 010300Z AUTO 22006KT 19SM 31/23 A2974 RMK SLP076 T03080232 52004 IEM_DS3505
ZGSZ,2007-09-01 04:00,ZGSZ 010400Z AUTO 18006KT 7SM 31/25 A2974 RMK T03100250 IEM_DS3505
ZGSZ,2007-09-01 05:00,ZGSZ 010500Z AUTO 19006KT 7SM 31/24 A2971 RMK T03100240 IEM_DS3505
ZGSZ,2007-09-01 06:00,ZGSZ 010600Z AUTO 22006KT 19SM 32/22 A2971 RMK SLP058 T03180225 57018 IEM_DS3505
ZGSZ,2007-09-01 07:00,ZGSZ 010700Z AUTO 19006KT 7SM 31/24 A2968 RMK T03100240 IEM_DS3505
ZGSZ,2007-09-01 08:00,ZGSZ 010800Z AUTO 19008KT 7SM 31/26 A2968 RMK T03100260 IEM_DS3505
ZGSZ,2007-09-01 09:00,ZGSZ 010900Z AUTO 25004KT 19SM 30/20 A2965 RMK SLP048 T03030200 57010 IEM_DS3505
ZGSZ,2007-09-01 10:00,ZGSZ 011000Z AUTO 18006KT 7SM 30/25 A2965 RMK T03000250 IEM_DS3505
ZGSZ,2007-09-01 11:00,ZGSZ 011100Z AUTO 16004KT 7SM 29/25 A2968 RMK T02900250 IEM_DS3505
ZGSZ,2007-09-01 12:00,ZGSZ 011200Z AUTO 16004KT 19SM 29/23 A2971 RMK SLP063 T02890231 52014 IEM_DS3505
ZGSZ,2007-09-01 13:00,ZGSZ 011300Z AUTO 18006KT 6SM 30/25 A2971 RMK T03000250 IEM_DS3505
ZGSZ,2007-09-01 14:00,ZGSZ 011400Z AUTO 17008KT 6SM 29/26 A2974 RMK T02900260 IEM_DS3505
ZGSZ,2007-09-01 15:00,ZGSZ 011500Z AUTO 16002KT 14SM 28/24 A2974 RMK SLP077 T02820236 52015 IEM_DS3505
ZGSZ,2007-09-01 16:00,ZGSZ 011600Z AUTO 18008KT 6SM 29/25 A2974 RMK T02900250 IEM_DS3505
ZGSZ,2007-09-01 17:00,ZGSZ 011700Z AUTO 18006KT 6SM 29/25 A2974 RMK T02900250 IEM_DS3505
ZGSZ,2007-09-01 18:00,ZGSZ 011800Z AUTO 18002KT 16SM 28/23 A2971 RMK SLP067 T02780232 57010 IEM_DS3505
ZGSZ,2007-09-01 19:00,ZGSZ 011900Z AUTO 18008KT 7SM 29/24 A2971 RMK T02900240 IEM_DS3505
ZGSZ,2007-09-01 20:00,ZGSZ 012000Z AUTO 17006KT 7SM 29/24 A2971 RMK T02900240 IEM_DS3505
ZGSZ,2007-09-01 21:00,ZGSZ 012100Z AUTO 20002KT 16SM 28/24 A2971 RMK SLP063 T02760236 57004 IEM_DS3505
ZGSZ,2007-09-01 22:00,ZGSZ 012200Z AUTO 17006KT 6SM 28/25 A2971 RMK T02800250 IEM_DS3505
ZGSZ,2007-09-01 23:00,ZGSZ 012300Z AUTO 14006KT 6SM 29/25 A2971 RMK T02900250 IEM_DS3505
ZGSZ,2007-09-02 00:00,ZGSZ 020000Z AUTO 22002KT 19SM 28/24 A2974 RMK SLP078 T02800240 52014 IEM_DS3505
ZGSZ,2007-09-02 01:00,ZGSZ 020100Z AUTO 00000KT 7SM 29/25 A2977 RMK T02900250 IEM_DS3505
ZGSZ,2007-09-02 02:00,ZGSZ 020200Z AUTO 30004KT 7SM 28/25 A2977 RMK T02800250 IEM_DS3505
ZGSZ,2007-09-02 03:00,ZGSZ 020300Z AUTO 22002KT 9SM 26/23 A2977 RMK SLP083 T02570230 52005 IEM_DS3505
ZGSZ,2007-09-02 04:00,ZGSZ 020400Z AUTO 31004KT 7SM 30/25 A2974 RMK T03000250 IEM_DS3505
ZGSZ,2007-09-02 05:00,ZGSZ 020500Z AUTO 18004KT 7SM 30/25 A2971 RMK T03000250 IEM_DS3505
ZGSZ,2007-09-02 06:00,ZGSZ 020600Z AUTO 04004KT 9SM 27/23 A2971 RMK 60024 SLP066 T02690234 57017 IEM_DS3505
ZGSZ,2007-09-02 07:00,ZGSZ 020700Z AUTO 18006KT 6SM 31/25 A2968 RMK T03100250 IEM_DS3505
ZGSZ,2007-09-02 08:00,ZGSZ 020800Z AUTO 18008KT 6SM 31/25 A2968 RMK T03100250 IEM_DS3505
ZGSZ,2007-09-02 09:00,ZGSZ 020900Z AUTO 07004KT 14SM 28/23 A2968 RMK SLP057 T02790228 57009 IEM_DS3505
ZGSZ,2007-09-02 10:00,ZGSZ 021000Z AUTO 16006KT 6SM 29/24 A2968 RMK T02900240 IEM_DS3505
ZGSZ,2007-09-02 11:00,ZGSZ 021100Z AUTO 15006KT 6SM 29/24 A2971 RMK T02900240 IEM_DS3505
ZGSZ,2007-09-02 12:00,ZGSZ 021200Z AUTO 09004KT 12SM 27/23 A2974 RMK SLP074 T02730227 52017 IEM_DS3505
ZGSZ,2007-09-02 13:00,ZGSZ 021300Z AUTO 16006KT 7SM 29/24 A2977 RMK T02900240 IEM_DS3505
ZGSZ,2007-09-02 14:00,ZGSZ 021400Z AUTO 14006KT 6SM 29/24 A2977 RMK T02900240 IEM_DS3505
ZGSZ,2007-09-02 15:00,ZGSZ 021500Z AUTO 02004KT 11SM 27/23 A2977 RMK SLP082 T02710231 52008 IEM_DS3505
ZGSZ,2007-09-02 16:00,ZGSZ 021600Z AUTO 15004KT 6SM 28/25 A2977 RMK T02800250 IEM_DS3505
ZGSZ,2007-09-02 17:00,ZGSZ 021700Z AUTO 15004KT 6SM 28/25 A2977 RMK T02800250 IEM_DS3505
ZGSZ,2007-09-02 18:00,ZGSZ 021800Z AUTO 04002KT 10SM 27/24 A2974 RMK 60000 SLP076 T02680237 57006 IEM_DS3505
ZGSZ,2007-09-02 19:00,ZGSZ 021900Z AUTO 15006KT 7SM 28/25 A2974 RMK T02800250 IEM_DS3505
ZGSZ,2007-09-02 20:00,ZGSZ 022000Z AUTO 13004KT 7SM 28/25 A2974 RMK T02800250 IEM_DS3505
ZGSZ,2007-09-02 21:00,ZGSZ 022100Z AUTO 04002KT 12SM 26/24 A2971 RMK 70022 SLP071 T02630236 57005 IEM_DS3505
ZGSZ,2007-09-02 22:00,ZGSZ 022200Z AUTO 17008KT 6SM 28/24 A2971 RMK T02800240 IEM_DS3505
ZGSZ,2007-09-02 23:00,ZGSZ 022300Z AUTO 16006KT 7SM 28/25 A2974 RMK T02800250 IEM_DS3505
ZGSZ,2007-09-03 00:00,ZGSZ 030000Z AUTO 32002KT 17SM 28/23 A2977 RMK 70022 SLP085 T02810230 52014 IEM_DS3505
ZGSZ,2007-09-03 01:00,ZGSZ 030100Z AUTO 18006KT 7SM 30/26 A2977 RMK T03000260 IEM_DS3505
ZGSZ,2007-09-03 02:00,ZGSZ 030200Z AUTO 19006KT 7SM 31/26 A2977 RMK T03100260 IEM_DS3505
ZGSZ,2007-09-03 03:00,ZGSZ 030300Z AUTO 22010KT 19SM 30/23 A2977 RMK SLP082 T02970234 57003 IEM_DS3505
ZGSZ,2007-09-03 04:00,ZGSZ 030400Z AUTO 18010KT 7SM 31/26 A2974 RMK T03100260 IEM_DS3505
ZGSZ,2007-09-03 05:00,ZGSZ 030500Z AUTO 26014KT 7SM 27/24 A2974 RMK T02700240 IEM_DS3505
ZGSZ,2007-09-03 06:00,ZGSZ 030600Z AUTO 25004KT 19SM 28/23 A2971 RMK SLP070 T02850232 57012 IEM_DS3505
ZGSZ,2007-09-03 07:00,ZGSZ 030700Z AUTO 17004KT 7SM 28/25 A2971 RMK T02800250 IEM_DS3505
ZGSZ,2007-09-03 08:00,ZGSZ 030800Z AUTO 16004KT 7SM 28/25 A2968 RMK T02800250 IEM_DS3505
ZGSZ,2007-09-03 09:00,ZGSZ 030900Z AUTO 22006KT 19SM 28/24 A2968 RMK SLP056 T02840235 57014 IEM_DS3505
ZGSZ,2007-09-03 10:00,ZGSZ 031000Z AUTO 16008KT 7SM 28/26 A2968 RMK T02800260 IEM_DS3505
ZGSZ,2007-09-03 11:00,ZGSZ 031100Z AUTO 16008KT 6SM 28/25 A2971 RMK T02800250 IEM_DS3505
ZGSZ,2007-09-03 12:00,ZGSZ 031200Z AUTO 14002KT 19SM 28/24 A2971 RMK 60000 SLP068 T02760240 52012 IEM_DS3505
ZGSZ,2007-09-03 13:00,ZGSZ 031300Z AUTO 16008KT 7SM 28/25 A2974 RMK T02800250 IEM_DS3505
ZGSZ,2007-09-03 14:00,ZGSZ 031400Z AUTO 14006KT 6SM 28/25 A2974 RMK T02800250 IEM_DS3505
ZGSZ,2007-09-03 15:00,ZGSZ 031500Z AUTO 16002KT 19SM 27/24 A2974 RMK SLP078 T02730235 52010 IEM_DS3505
ZGSZ,2007-09-03 16:00,ZGSZ 031600Z AUTO 14004KT 7SM 28/25 A2974 RMK T02800250 IEM_DS3505
ZGSZ,2007-09-03 17:00,ZGSZ 031700Z AUTO 15004KT 7SM 28/25 A2974 RMK T02800250 IEM_DS3505
ZGSZ,2007-09-03 18:00,ZGSZ 031800Z AUTO 16002KT 16SM 27/24 A2971 RMK SLP067 T02730244 57011 IEM_DS3505
ZGSZ,2007-09-03 19:00,ZGSZ 031900Z AUTO 16004KT 7SM 28/26 A2971 RMK T02800260 IEM_DS3505
ZGSZ,2007-09-03 21:00,ZGSZ 032100Z AUTO 22002KT 16SM 27/24 A2971 RMK 70000 SLP066 T02710242 57001 IEM_DS3505
ZGSZ,2007-09-03 22:00,ZGSZ 032200Z AUTO 03006KT 5SM 26/24 A2971 RMK T02600240 IEM_DS3505
ZGSZ,2007-09-03 23:00,ZGSZ 032300Z AUTO 27006KT 7SM 26/24 A2974 RMK T02600240 IEM_DS3505
ZGSZ,2007-09-04 00:00,ZGSZ 040000Z AUTO 36002KT 7SM 25/23 A2974 RMK 60012 70012 SLP079 T02500234 52013 IEM_DS3505
ZGSZ,2007-09-04 01:00,ZGSZ 040100Z AUTO 00000KT 4SM 27/24 A2977 RMK T02700240 IEM_DS3505
ZGSZ,2007-09-04 02:00,ZGSZ 040200Z AUTO 13004KT 7SM 27/24 A2977 RMK T02700240 IEM_DS3505
ZGSZ,2007-09-04 03:00,ZGSZ 040300Z AUTO 16002KT 9SM 27/25 A2977 RMK SLP084 T02700246 52005 IEM_DS3505
ZGSZ,2007-09-04 04:00,ZGSZ 040400Z AUTO 4SM 29/25 A2977 RMK T02900250 IEM_DS3505
ZGSZ,2007-09-04 05:00,ZGSZ 040500Z AUTO 24004KT 5SM 30/25 A2974 RMK T03000250 IEM_DS3505
ZGSZ,2007-09-04 06:00,ZGSZ 040600Z AUTO 22008KT 7SM 30/24 A2971 RMK 60008 SLP065 T03010240 57019 IEM_DS3505
ZGSZ,2007-09-04 07:00,ZGSZ 040700Z AUTO 19006KT 7SM 31/25 A2968 RMK T03100250 IEM_DS3505
ZGSZ,2007-09-04 08:00,ZGSZ 040800Z AUTO 21008KT 7SM 29/24 A2968 RMK T02900240 IEM_DS3505
ZGSZ,2007-09-04 09:00,ZGSZ 040900Z AUTO 22004KT 12SM 29/24 A2971 RMK SLP060 T02870236 57005 IEM_DS3505
ZGSZ,2007-09-04 10:00,ZGSZ 041000Z AUTO 27006KT 7SM 27/25 A2971 RMK T02700250 IEM_DS3505
ZGSZ,2007-09-04 11:00,ZGSZ 041100Z AUTO 33004KT 7SM 27/25 A2974 RMK T02700250 IEM_DS3505
ZGSZ,2007-09-04 12:00,ZGSZ 041200Z AUTO 27004KT 9SM 27/24 A2977 RMK 60000 SLP080 T02710242 52020 IEM_DS3505
ZGSZ,2007-09-04 13:00,ZGSZ 041300Z AUTO 33006KT 4SM 27/24 A2980 RMK T02700240 IEM_DS3505
ZGSZ,2007-09-04 15:00,ZGSZ 041500Z AUTO 02008KT 3SM 27/24 A2980 RMK T02700240 IEM_DS3505
ZGSZ,2007-09-04 16:00,ZGSZ 041600Z AUTO 04004KT 4SM 26/24 A2977 RMK T02600240 IEM_DS3505
ZGSZ,2007-09-04 17:00,ZGSZ 041700Z AUTO 02006KT 3SM 26/23 A2974 RMK T02600230 IEM_DS3505
ZGSZ,2007-09-04 18:00,ZGSZ 041800Z AUTO 36004KT 3SM 25/23 A2974 RMK 60004 SLP079 T02510226 57013 IEM_DS3505
ZGSZ,2007-09-04 19:00,ZGSZ 041900Z AUTO 02008KT 7SM 26/22 A2974 RMK T02600220 IEM_DS3505
ZGSZ,2007-09-04 20:00,ZGSZ 042000Z AUTO 03008KT 7SM 26/22 A2974 RMK T02600220 IEM_DS3505
ZGSZ,2007-09-04 21:00,ZGSZ 042100Z AUTO 04004KT 6SM 25/21 A2974 RMK 70022 SLP076 T02480207 57003 IEM_DS3505
ZGSZ,2007-09-04 22:00,ZGSZ 042200Z AUTO 03006KT 7SM 25/21 A2974 RMK T02500210 IEM_DS3505
ZGSZ,2007-09-04 23:00,ZGSZ 042300Z AUTO 36010KT 7SM 25/22 A2977 RMK T02500220 IEM_DS3505
ZGSZ,2007-09-05 00:00,ZGSZ 050000Z AUTO 36006KT 6SM 25/20 A2977 RMK 60000 70011 SLP087 T02460201 52011 IEM_DS3505
ZGSZ,2007-09-05 01:00,ZGSZ 050100Z AUTO 03006KT 7SM 26/21 A2980 RMK T02600210 IEM_DS3505
ZGSZ,2007-09-05 02:00,ZGSZ 050200Z AUTO 03006KT 7SM 27/21 A2980 RMK T02700210 IEM_DS3505
ZGSZ,2007-09-05 03:00,ZGSZ 050300Z AUTO 04006KT 4SM 26/19 A2980 RMK SLP089 T02650191 52002 IEM_DS3505
ZGSZ,2007-09-05 04:00,ZGSZ 050400Z AUTO 01004G14KT 6SM 29/21 A2980 RMK T02900210 IEM_DS3505
ZGSZ,2007-09-05 05:00,ZGSZ 050500Z AUTO 04008KT 6SM 30/21 A2977 RMK T03000210 IEM_DS3505
ZGSZ,2007-09-05 06:00,ZGSZ 050600Z AUTO 34006KT 4SM 29/20 A2977 RMK SLP077 T02890204 57012 IEM_DS3505
ZGSZ,2007-09-05 07:00,ZGSZ 050700Z AUTO 04010KT 6SM 29/19 A2974 RMK T02900190 IEM_DS3505
ZGSZ,2007-09-05 08:00,ZGSZ 050800Z AUTO 03010KT 7SM 29/20 A2974 RMK T02900200 IEM_DS3505
ZGSZ,2007-09-05 09:00,ZGSZ 050900Z AUTO 36008KT 4SM 28/20 A2974 RMK SLP073 T02770200 57004 IEM_DS3505
ZGSZ,2007-09-05 10:00,ZGSZ 051000Z AUTO 04008KT 7SM 28/20 A2977 RMK T02800200 IEM_DS3505
ZGSZ,2007-09-05 11:00,ZGSZ 051100Z AUTO 02008KT 7SM 28/20 A2977 RMK T02800200 IEM_DS3505
ZGSZ,2007-09-05 12:00,ZGSZ 051200Z AUTO 02006KT 4SM 27/20 A2980 RMK SLP091 T02670196 52018 IEM_DS3505
ZGSZ,2007-09-05 13:00,ZGSZ 051300Z AUTO 03006KT 7SM 27/20 A2980 RMK T02700200 IEM_DS3505
ZGSZ,2007-09-05 14:00,ZGSZ 051400Z AUTO 03006KT 7SM 27/20 A2983 RMK T02700200 IEM_DS3505
ZGSZ,2007-09-05 15:00,ZGSZ 051500Z AUTO 34006KT 3SM 26/19 A2983 RMK SLP098 T02580190 52007 IEM_DS3505
ZGSZ,2007-09-05 16:00,ZGSZ 051600Z AUTO 03008KT 7SM 26/19 A2980 RMK T02600190 IEM_DS3505
ZGSZ,2007-09-05 17:00,ZGSZ 051700Z AUTO 04006KT 7SM 26/19 A2980 RMK T02600190 IEM_DS3505
ZGSZ,2007-09-05 18:00,ZGSZ 051800Z AUTO 03006KT 7SM 25/19 A2977 RMK T02500190 IEM_DS3505
ZGSZ,2007-09-05 20:00,ZGSZ 052000Z AUTO 03006KT 6SM 25/19 A2974 RMK T02500190 IEM_DS3505
ZGSZ,2007-09-05 21:00,ZGSZ 052100Z AUTO 34004KT 3SM 24/18 A2977 RMK SLP079 T02370184 57002 IEM_DS3505
ZGSZ,2007-09-05 22:00,ZGSZ 052200Z AUTO 04004KT 7SM 25/19 A2977 RMK T02500190 IEM_DS3505
ZGSZ,2007-09-05 23:00,ZGSZ 052300Z AUTO 03004KT 7SM 25/19 A2977 RMK T02500190 IEM_DS3505
ZGSZ,2007-09-06 00:00,ZGSZ 060000Z AUTO 34004KT 4SM 25/19 A2980 RMK SLP089 T02470191 52010 IEM_DS3505
ZGSZ,2007-09-06 01:00,ZGSZ 060100Z AUTO 02008KT 6SM 27/19 A2980 RMK T02700190 IEM_DS3505
ZGSZ,2007-09-06 02:00,ZGSZ 060200Z AUTO 01008KT 6SM 28/19 A2980 RMK T02800190 IEM_DS3505
ZGSZ,2007-09-06 03:00,ZGSZ 060300Z AUTO 32004KT 4SM 28/20 A2980 RMK SLP087 T02800195 57002 IEM_DS3505
ZGSZ,2007-09-06 04:00,ZGSZ 060400Z AUTO 03006KT 6SM 30/19 A2977 RMK T03000190 IEM_DS3505
ZGSZ,2007-09-06 05:00,ZGSZ 060500Z AUTO 01008KT 6SM 29/19 A2974 RMK T02900190 IEM_DS3505
ZGSZ,2007-09-06 06:00,ZGSZ 060600Z AUTO 34004KT 4SM 29/19 A2974 RMK SLP072 T02910191 57015 IEM_DS3505
ZGSZ,2007-09-06 07:00,ZGSZ 060700Z AUTO 01008KT 6SM 30/19 A2974 RMK T03000190 IEM_DS3505
ZGSZ,2007-09-06 08:00,ZGSZ 060800Z AUTO 04008KT 6SM 30/20 A2971 RMK T03000200 IEM_DS3505
ZGSZ,2007-09-06 09:00,ZGSZ 060900Z AUTO 36004KT 4SM 28/20 A2971 RMK SLP067 T02830201 57005 IEM_DS3505
ZGSZ,2007-09-06 10:00,ZGSZ 061000Z AUTO 04006KT 4SM 29/20 A2971 RMK T02900200 IEM_DS3505
ZGSZ,2007-09-06 11:00,ZGSZ 061100Z AUTO 04004KT 5SM 29/19 A2974 RMK T02900190 IEM_DS3505
ZGSZ,2007-09-06 12:00,ZGSZ 061200Z AUTO 27002KT 3SM 27/20 A2977 RMK 60000 SLP079 T02740197 52012 IEM_DS3505
ZGSZ,2007-09-06 13:00,ZGSZ 061300Z AUTO 4SM 28/21 A2977 RMK T02800210 IEM_DS3505
ZGSZ,2007-09-06 14:00,ZGSZ 061400Z AUTO 09004KT 4SM 28/21 A2977 RMK T02800210 IEM_DS3505
ZGSZ,2007-09-06 15:00,ZGSZ 061500Z AUTO 00000KT 2 1/2SM 27/21 A2977 RMK SLP086 T02680211 52007 IEM_DS3505
ZGSZ,2007-09-06 16:00,ZGSZ 061600Z AUTO 00000KT 5SM 28/20 A2977 RMK T02800200 IEM_DS3505
ZGSZ,2007-09-06 17:00,ZGSZ 061700Z AUTO 00000KT 4SM 27/20 A2974 RMK T02700200 IEM_DS3505
ZGSZ,2007-09-06 18:00,ZGSZ 061800Z AUTO 34002KT 2 1/2SM 26/20 A2974 RMK SLP074 T02570205 57012 IEM_DS3505
ZGSZ,2007-09-06 19:00,ZGSZ 061900Z AUTO 00000KT 4SM 27/20 A2974 RMK T02700200 IEM_DS3505
ZGSZ,2007-09-06 20:00,ZGSZ 062000Z AUTO 00000KT 4SM 26/20 A2974 RMK T02600200 IEM_DS3505
ZGSZ,2007-09-06 21:00,ZGSZ 062100Z AUTO 34002KT 2 1/2SM 25/20 A2971 RMK 70000 SLP068 T02530199 57006 IEM_DS3505
ZGSZ,2007-09-06 22:00,ZGSZ 062200Z AUTO 03004KT 3SM 26/21 A2974 RMK T02600210 IEM_DS3505
ZGSZ,2007-09-06 23:00,ZGSZ 062300Z AUTO 02004KT 3SM 26/21 A2974 RMK T02600210 IEM_DS3505
ZGSZ,2007-09-07 00:00,ZGSZ 070000Z AUTO 36002KT 3SM 26/21 A2977 RMK 70000 SLP080 T02640214 52012 IEM_DS3505
ZGSZ,2007-09-07 01:00,ZGSZ 070100Z AUTO 03004KT 4SM 28/21 A2977 RMK T02800210 IEM_DS3505
ZGSZ,2007-09-07 02:00,ZGSZ 070200Z AUTO 05004KT 4SM 29/21 A2977 RMK T02900210 IEM_DS3505
ZGSZ,2007-09-07 03:00,ZGSZ 070300Z AUTO 02006KT 5SM 29/21 A2977 RMK SLP082 T02890206 52002 IEM_DS3505
ZGSZ,2007-09-07 04:00,ZGSZ 070400Z AUTO 4SM 31/19 A2974 RMK T03100190 IEM_DS3505
ZGSZ,2007-09-07 05:00,ZGSZ 070500Z AUTO 28004KT 4SM 31/22 A2971 RMK T03100220 IEM_DS3505
ZGSZ,2007-09-07 06:00,ZGSZ 070600Z AUTO 34002KT 4SM 29/21 A2971 RMK SLP062 T02860209 57020 IEM_DS3505
ZGSZ,2007-09-07 07:00,ZGSZ 070700Z AUTO 3SM 31/22 A2968 RMK T03100220 IEM_DS3505
ZGSZ,2007-09-07 08:00,ZGSZ 070800Z AUTO 3SM 30/21 A2968 RMK T03000210 IEM_DS3505
ZGSZ,2007-09-07 09:00,ZGSZ 070900Z AUTO 07006KT 3SM 27/21 A2968 RMK SLP058 T02740214 57004 IEM_DS3505
ZGSZ,2007-09-07 10:00,ZGSZ 071000Z AUTO 12010KT 4SM 29/23 A2968 RMK T02900230 IEM_DS3505
ZGSZ,2007-09-07 11:00,ZGSZ 071100Z AUTO 11010KT 4SM 29/22 A2971 RMK T02900220 IEM_DS3505
ZGSZ,2007-09-07 12:00,ZGSZ 071200Z AUTO 09004KT 2 1/2SM 27/21 A2971 RMK SLP070 T02720213 52012 IEM_DS3505
ZGSZ,2007-09-07 13:00,ZGSZ 071300Z AUTO 11008KT 6SM 28/22 A2974 RMK T02800220 IEM_DS3505
ZGSZ,2007-09-07 14:00,ZGSZ 071400Z AUTO 12008KT 3SM 28/22 A2977 RMK T02800220 IEM_DS3505
ZGSZ,2007-09-07 15:00,ZGSZ 071500Z AUTO 11004KT 2SM 27/21 A2977 RMK SLP082 T02670212 52012 IEM_DS3505
ZGSZ,2007-09-07 16:00,ZGSZ 071600Z AUTO 12006KT 3SM 27/22 A2974 RMK T02700220 IEM_DS3505
ZGSZ,2007-09-07 17:00,ZGSZ 071700Z AUTO 11006KT 4SM 27/22 A2974 RMK T02700220 IEM_DS3505
ZGSZ,2007-09-07 18:00,ZGSZ 071800Z AUTO 04004KT 2 1/2SM 26/22 A2971 RMK SLP066 T02600219 57016 IEM_DS3505
ZGSZ,2007-09-07 19:00,ZGSZ 071900Z AUTO 03004KT 3SM 27/22 A2971 RMK T02700220 IEM_DS3505
ZGSZ,2007-09-07 20:00,ZGSZ 072000Z AUTO 02004KT 3SM 26/22 A2971 RMK T02600220 IEM_DS3505
ZGSZ,2007-09-07 21:00,ZGSZ 072100Z AUTO 04002KT 2SM 26/21 A2971 RMK SLP065 T02580212 57001 IEM_DS3505
ZGSZ,2007-09-07 22:00,ZGSZ 072200Z AUTO 00000KT 4SM 27/22 A2971 RMK T02700220 IEM_DS3505
ZGSZ,2007-09-07 23:00,ZGSZ 072300Z AUTO 04004KT 4SM 27/22 A2974 RMK T02700220 IEM_DS3505
ZGSZ,2007-09-08 00:00,ZGSZ 080000Z AUTO 04004KT 4SM 26/21 A2974 RMK SLP077 T02610211 52012 IEM_DS3505
ZGSZ,2007-09-08 01:00,ZGSZ 080100Z AUTO 4SM 29/22 A2977 RMK T02900220 IEM_DS3505
ZGSZ,2007-09-08 02:00,ZGSZ 080200Z AUTO 4SM 30/22 A2977 RMK T03000220 IEM_DS3505
ZGSZ,2007-09-08 03:00,ZGSZ 080300Z AUTO 07006KT 5SM 29/21 A2974 RMK SLP078 T02940208 52001 IEM_DS3505
ZGSZ,2007-09-08 04:00,ZGSZ 080400Z AUTO 14006KT 4SM 32/21 A2971 RMK T03200210 IEM_DS3505
ZGSZ,2007-09-08 05:00,ZGSZ 080500Z AUTO 18008KT 4SM 32/23 A2971 RMK T03200230 IEM_DS3505
ZGSZ,2007-09-08 06:00,ZGSZ 080600Z AUTO 11006KT 7SM 31/19 A2968 RMK SLP058 T03100194 57020 IEM_DS3505
ZGSZ,2007-09-08 07:00,ZGSZ 080700Z AUTO 19010KT 5SM 31/24 A2968 RMK T03100240 IEM_DS3505
ZGSZ,2007-09-08 08:00,ZGSZ 080800Z AUTO 19010KT 4SM 31/24 A2968 RMK T03100240 IEM_DS3505
ZGSZ,2007-09-08 09:00,ZGSZ 080900Z AUTO 07006KT 10SM 29/20 A2968 RMK SLP054 T02910200 57004 IEM_DS3505
ZGSZ,2007-09-08 10:00,ZGSZ 081000Z AUTO 12010KT 6SM 30/21 A2968 RMK T03000210 IEM_DS3505
ZGSZ,2007-09-08 11:00,ZGSZ 081100Z AUTO 11008KT 6SM 29/21 A2971 RMK T02900210 IEM_DS3505
ZGSZ,2007-09-08 12:00,ZGSZ 081200Z AUTO 09004KT 5SM 27/21 A2974 RMK SLP073 T02740214 52019 IEM_DS3505
ZGSZ,2007-09-08 13:00,ZGSZ 081300Z AUTO 10006KT 4SM 28/22 A2974 RMK T02800220 IEM_DS3505
ZGSZ,2007-09-08 14:00,ZGSZ 081400Z AUTO 10008KT 4SM 28/23 A2974 RMK T02800230 IEM_DS3505
ZGSZ,2007-09-08 15:00,ZGSZ 081500Z AUTO 07004KT 3SM 27/23 A2977 RMK SLP081 T02710227 52008 IEM_DS3505
ZGSZ,2007-09-08 16:00,ZGSZ 081600Z AUTO 07004KT 3SM 27/23 A2974 RMK T02700230 IEM_DS3505
ZGSZ,2007-09-08 17:00,ZGSZ 081700Z AUTO 04004KT 3SM 27/23 A2974 RMK T02700230 IEM_DS3505
ZGSZ,2007-09-08 18:00,ZGSZ 081800Z AUTO 09004KT 4SM 27/22 A2974 RMK SLP068 T02710225 57012 IEM_DS3505
ZGSZ,2007-09-08 19:00,ZGSZ 081900Z AUTO 03004KT 3SM 27/23 A2971 RMK T02700230 IEM_DS3505
ZGSZ,2007-09-08 20:00,ZGSZ 082000Z AUTO 3SM 27/23 A2968 RMK T02700230 IEM_DS3505
ZGSZ,2007-09-08 21:00,ZGSZ 082100Z AUTO 09004KT 5SM 27/22 A2968 RMK SLP059 T02680220 57010 IEM_DS3505
ZGSZ,2007-09-08 22:00,ZGSZ 082200Z AUTO 09004KT 4SM 27/23 A2971 RMK T02700230 IEM_DS3505
ZGSZ,2007-09-08 23:00,ZGSZ 082300Z AUTO 02004KT 4SM 27/23 A2971 RMK T02700230 IEM_DS3505
ZGSZ,2007-09-09 00:00,ZGSZ 090000Z AUTO 36004KT 6SM 27/22 A2974 RMK SLP073 T02730225 52014 IEM_DS3505
ZGSZ,2007-09-09 01:00,ZGSZ 090100Z AUTO 06006KT 4SM 30/22 A2977 RMK T03000220 IEM_DS3505
ZGSZ,2007-09-09 02:00,ZGSZ 090200Z AUTO 4SM 30/22 A2977 RMK T03000220 IEM_DS3505
ZGSZ,2007-09-09 03:00,ZGSZ 090300Z AUTO 04008KT 6SM 29/21 A2977 RMK SLP084 T02880213 52011 IEM_DS3505
ZGSZ,2007-09-09 04:00,ZGSZ 090400Z AUTO 08004KT 4SM 30/23 A2977 RMK T03000230 IEM_DS3505
ZGSZ,2007-09-09 05:00,ZGSZ 090500Z AUTO 4SM 31/23 A2974 RMK T03100230 IEM_DS3505
ZGSZ,2007-09-09 06:00,ZGSZ 090600Z AUTO 07004KT 8SM 30/22 A2971 RMK SLP062 T03010215 57022 IEM_DS3505
ZGSZ,2007-09-09 07:00,ZGSZ 090700Z AUTO 23006KT 3SM 30/25 A2968 RMK T03000250 IEM_DS3505
ZGSZ,2007-09-09 08:00,ZGSZ 090800Z AUTO 24006KT 4SM 31/25 A2965 RMK T03100250 IEM_DS3505
ZGSZ,2007-09-09 09:00,ZGSZ 090900Z AUTO 11006KT 9SM 29/22 A2965 RMK SLP053 T02910216 57009 IEM_DS3505
ZGSZ,2007-09-09 10:00,ZGSZ 091000Z AUTO 12008KT 6SM 31/23 A2968 RMK T03100230 IEM_DS3505
ZGSZ,2007-09-09 11:00,ZGSZ 091100Z AUTO 12012KT 6SM 29/23 A2968 RMK T02900230 IEM_DS3505
ZGSZ,2007-09-09 12:00,ZGSZ 091200Z AUTO 09004KT 7SM 27/22 A2971 RMK SLP073 T02740221 52020 IEM_DS3505
ZGSZ,2007-09-09 13:00,ZGSZ 091300Z AUTO 11012KT 6SM 28/23 A2974 RMK T02800230 IEM_DS3505
ZGSZ,2007-09-09 14:00,ZGSZ 091400Z AUTO 11012KT 6SM 28/23 A2977 RMK T02800230 IEM_DS3505
ZGSZ,2007-09-09 15:00,ZGSZ 091500Z AUTO 10008KT 6SM 28/24 A2977 RMK T02800240 IEM_DS3505
ZGSZ,2007-09-09 16:00,ZGSZ 091600Z AUTO 10004KT 6SM 28/23 A2977 RMK T02800230 IEM_DS3505
ZGSZ,2007-09-09 17:00,ZGSZ 091700Z AUTO 08004KT 6SM 27/23 A2974 RMK T02700230 IEM_DS3505
ZGSZ,2007-09-09 18:00,ZGSZ 091800Z AUTO 07004KT 5SM 27/23 A2974 RMK SLP076 T02680226 57004 IEM_DS3505
ZGSZ,2007-09-09 19:00,ZGSZ 091900Z AUTO 6SM 27/23 A2974 RMK T02700230 IEM_DS3505
ZGSZ,2007-09-09 20:00,ZGSZ 092000Z AUTO 10006KT 6SM 27/23 A2974 RMK T02700230 IEM_DS3505
ZGSZ,2007-09-09 21:00,ZGSZ 092100Z AUTO 09004KT 5SM 26/22 A2974 RMK SLP078 T02630219 52002 IEM_DS3505
ZGSZ,2007-09-09 22:00,ZGSZ 092200Z AUTO 04002KT 6SM 26/23 A2974 RMK T02600230 IEM_DS3505
ZGSZ,2007-09-09 23:00,ZGSZ 092300Z AUTO 6SM 27/23 A2977 RMK T02700230 IEM_DS3505
ZGSZ,2007-09-10 00:00,ZGSZ 100000Z AUTO 09006KT 7SM 27/22 A2977 RMK SLP085 T02700217 52007 IEM_DS3505
ZGSZ,2007-09-10 01:00,ZGSZ 100100Z AUTO 08006KT 6SM 29/22 A2977 RMK T02900220 IEM_DS3505
ZGSZ,2007-09-10 02:00,ZGSZ 100200Z AUTO 6SM 31/22 A2977 RMK T03100220 IEM_DS3505
ZGSZ,2007-09-10 03:00,ZGSZ 100300Z AUTO 11010KT 9SM 30/21 A2977 RMK SLP089 T02980212 52004 IEM_DS3505
ZGSZ,2007-09-10 04:00,ZGSZ 100400Z AUTO 12006KT 7SM 32/23 A2977 RMK T03200230 IEM_DS3505
ZGSZ,2007-09-10 05:00,ZGSZ 100500Z AUTO 10006KT 7SM 33/22 A2974 RMK T03300220 IEM_DS3505
ZGSZ,2007-09-10 06:00,ZGSZ 100600Z AUTO 11008KT 11SM 30/21 A2971 RMK SLP073 T03050213 57016 IEM_DS3505
ZGSZ,2007-09-10 07:00,ZGSZ 100700Z AUTO 12010KT 7SM 33/23 A2971 RMK T03300230 IEM_DS3505
ZGSZ,2007-09-10 09:00,ZGSZ 100900Z AUTO 07004KT 11SM 29/22 A2971 RMK SLP070 T02900218 57003 IEM_DS3505
ZGSZ,2007-09-10 10:00,ZGSZ 101000Z AUTO 13008KT 6SM 30/23 A2971 RMK T03000230 IEM_DS3505
ZGSZ,2007-09-10 11:00,ZGSZ 101100Z AUTO 12008KT 6SM 30/23 A2974 RMK T03000230 IEM_DS3505
ZGSZ,2007-09-10 12:00,ZGSZ 101200Z AUTO 11004KT 7SM 28/22 A2974 RMK SLP080 T02750222 52010 IEM_DS3505
ZGSZ,2007-09-10 13:00,ZGSZ 101300Z AUTO 09006KT 6SM 28/23 A2980 RMK T02800230 IEM_DS3505
ZGSZ,2007-09-10 14:00,ZGSZ 101400Z AUTO 09008KT 4SM 28/23 A2980 RMK T02800230 IEM_DS3505
ZGSZ,2007-09-10 15:00,ZGSZ 101500Z AUTO 07006KT 7SM 27/22 A2980 RMK SLP095 T02710221 52015 IEM_DS3505
ZGSZ,2007-09-10 16:00,ZGSZ 101600Z AUTO 09006KT 5SM 28/23 A2980 RMK T02800230 IEM_DS3505
ZGSZ,2007-09-10 17:00,ZGSZ 101700Z AUTO 07004KT 5SM 27/22 A2977 RMK T02700220 IEM_DS3505
ZGSZ,2007-09-10 18:00,ZGSZ 101800Z AUTO 07004KT 5SM 27/22 A2977 RMK SLP085 T02660218 57010 IEM_DS3505
ZGSZ,2007-09-10 19:00,ZGSZ 101900Z AUTO 10012KT 7SM 28/22 A2974 RMK T02800220 IEM_DS3505
ZGSZ,2007-09-10 20:00,ZGSZ 102000Z AUTO 11004KT 7SM 27/21 A2974 RMK T02700210 IEM_DS3505
ZGSZ,2007-09-10 21:00,ZGSZ 102100Z AUTO 07006KT 4SM 26/21 A2974 RMK SLP078 T02630206 57007 IEM_DS3505
ZGSZ,2007-09-10 22:00,ZGSZ 102200Z AUTO 04006KT 6SM 27/20 A2977 RMK T02700200 IEM_DS3505
ZGSZ,2007-09-10 23:00,ZGSZ 102300Z AUTO 06006KT 7SM 27/21 A2977 RMK T02700210 IEM_DS3505
ZGSZ,2007-09-11 00:00,ZGSZ 110000Z AUTO 04006KT 6SM 27/21 A2977 RMK SLP090 T02720210 52012 IEM_DS3505
ZGSZ,2007-09-11 01:00,ZGSZ 110100Z AUTO 09006KT 7SM 29/21 A2980 RMK T02900210 IEM_DS3505
ZGSZ,2007-09-11 02:00,ZGSZ 110200Z AUTO 13008KT 6SM 30/21 A2980 RMK T03000210 IEM_DS3505
ZGSZ,2007-09-11 03:00,ZGSZ 110300Z AUTO 11006KT 7SM 30/20 A2980 RMK SLP096 T03000200 52006 IEM_DS3505
ZGSZ,2007-09-11 04:00,ZGSZ 110400Z AUTO 22006KT 7SM 31/24 A2980 RMK T03100240 IEM_DS3505
ZGSZ,2007-09-11 05:00,ZGSZ 110500Z AUTO 24006KT 7SM 31/23 A2977 RMK T03100230 IEM_DS3505
ZGSZ,2007-09-11 06:00,ZGSZ 110600Z AUTO 20004KT 11SM 32/20 A2974 RMK SLP074 T03200196 57021 IEM_DS3505
ZGSZ,2007-09-11 07:00,ZGSZ 110700Z AUTO 22006KT 6SM 31/23 A2971 RMK T03100230 IEM_DS3505
ZGSZ,2007-09-11 08:00,ZGSZ 110800Z AUTO 22006KT 6SM 30/23 A2971 RMK T03000230 IEM_DS3505
ZGSZ,2007-09-11 09:00,ZGSZ 110900Z AUTO 22010KT 7SM 30/23 A2971 RMK SLP062 T02960226 57013 IEM_DS3505
ZGSZ,2007-09-11 10:00,ZGSZ 111000Z AUTO 19008KT 6SM 29/24 A2971 RMK T02900240 IEM_DS3505
ZGSZ,2007-09-11 11:00,ZGSZ 111100Z AUTO 18008KT 6SM 29/24 A2974 RMK T02900240 IEM_DS3505
ZGSZ,2007-09-11 12:00,ZGSZ 111200Z AUTO 11006KT 4SM 28/22 A2974 RMK 60000 SLP078 T02830216 52016 IEM_DS3505
ZGSZ,2007-09-11 13:00,ZGSZ 111300Z AUTO 16008KT 7SM 29/24 A2977 RMK T02900240 IEM_DS3505
ZGSZ,2007-09-11 14:00,ZGSZ 111400Z AUTO 09006KT 7SM 29/23 A2980 RMK T02900230 IEM_DS3505
ZGSZ,2007-09-11 15:00,ZGSZ 111500Z AUTO 11004KT 4SM 27/22 A2980 RMK SLP089 T02680224 52011 IEM_DS3505
ZGSZ,2007-09-11 16:00,ZGSZ 111600Z AUTO 11008KT 4SM 27/24 A2977 RMK T02700240 IEM_DS3505
ZGSZ,2007-09-11 18:00,ZGSZ 111800Z AUTO 04004KT 3SM 26/23 A2977 RMK 60001 SLP082 T02600227 57007 IEM_DS3505
ZGSZ,2007-09-11 19:00,ZGSZ 111900Z AUTO 13006KT 5SM 27/23 A2974 RMK T02700230 IEM_DS3505
ZGSZ,2007-09-11 20:00,ZGSZ 112000Z AUTO 09004KT 5SM 27/23 A2974 RMK T02700230 IEM_DS3505
ZGSZ,2007-09-11 21:00,ZGSZ 112100Z AUTO 09006KT 4SM 26/20 A2974 RMK 70001 SLP075 T02640205 57007 IEM_DS3505
ZGSZ,2007-09-11 22:00,ZGSZ 112200Z AUTO 02004KT 5SM 27/23 A2974 RMK T02700230 IEM_DS3505
ZGSZ,2007-09-11 23:00,ZGSZ 112300Z AUTO 02006KT 5SM 27/23 A2977 RMK T02700230 IEM_DS3505
ZGSZ,2007-09-12 00:00,ZGSZ 120000Z AUTO 34004KT 5SM 28/20 A2977 RMK 70001 SLP086 T02760199 52011 IEM_DS3505
ZGSZ,2007-09-12 01:00,ZGSZ 120100Z AUTO 09006KT 6SM 30/19 A2977 RMK T03000190 IEM_DS3505
ZGSZ,2007-09-12 02:00,ZGSZ 120200Z AUTO 02006KT 7SM 31/21 A2977 RMK T03100210 IEM_DS3505
ZGSZ,2007-09-12 03:00,ZGSZ 120300Z AUTO 07004KT 5SM 31/20 A2977 RMK SLP087 T03090196 52001 IEM_DS3505
ZGSZ,2007-09-12 04:00,ZGSZ 120400Z AUTO 27006KT 3SM 30/22 A2977 RMK T03000220 IEM_DS3505
ZGSZ,2007-09-12 06:00,ZGSZ 120600Z AUTO 14006KT 7SM 30/19 A2974 RMK SLP071 T02990193 57016 IEM_DS3505
ZGSZ,2007-09-12 07:00,ZGSZ 120700Z AUTO 20004KT 7SM 30/21 A2971 RMK T03000210 IEM_DS3505
ZGSZ,2007-09-12 08:00,ZGSZ 120800Z AUTO 20006KT 7SM 30/23 A2971 RMK T03000230 IEM_DS3505
ZGSZ,2007-09-12 09:00,ZGSZ 120900Z AUTO 07004KT 6SM 30/20 A2971 RMK SLP063 T03010204 57008 IEM_DS3505
ZGSZ,2007-09-12 10:00,ZGSZ 121000Z AUTO 7SM 29/21 A2971 RMK T02900210 IEM_DS3505
ZGSZ,2007-09-12 11:00,ZGSZ 121100Z AUTO 20004KT 6SM 29/22 A2971 RMK T02900220 IEM_DS3505
ZGSZ,2007-09-12 12:00,ZGSZ 121200Z AUTO 07004KT 3SM 27/21 A2974 RMK SLP081 T02710209 52018 IEM_DS3505
ZGSZ,2007-09-12 13:00,ZGSZ 121300Z AUTO 10010KT 4SM 28/22 A2977 RMK T02800220 IEM_DS3505
ZGSZ,2007-09-12 14:00,ZGSZ 121400Z AUTO 12010KT 4SM 28/22 A2977 RMK T02800220 IEM_DS3505
ZGSZ,2007-09-12 15:00,ZGSZ 121500Z AUTO 07006KT 2 1/2SM 27/22 A2980 RMK SLP090 T02660218 52009 IEM_DS3505
ZGSZ,2007-09-12 16:00,ZGSZ 121600Z AUTO 08004KT 4SM 27/22 A2980 RMK T02700220 IEM_DS3505
ZGSZ,2007-09-12 17:00,ZGSZ 121700Z AUTO 08004KT 4SM 27/22 A2977 RMK T02700220 IEM_DS3505
ZGSZ,2007-09-12 18:00,ZGSZ 121800Z AUTO 07004KT 2 1/2SM 27/22 A2977 RMK SLP087 T02680216 57003 IEM_DS3505
ZGSZ,2007-09-12 19:00,ZGSZ 121900Z AUTO 10004KT 4SM 27/22 A2977 RMK T02700220 IEM_DS3505
ZGSZ,2007-09-12 20:00,ZGSZ 122000Z AUTO 02004KT 4SM 27/22 A2977 RMK T02700220 IEM_DS3505
ZGSZ,2007-09-12 21:00,ZGSZ 122100Z AUTO 14004KT 4SM 26/18 A2977 RMK SLP084 T02650178 57003 IEM_DS3505
ZGSZ,2007-09-12 22:00,ZGSZ 122200Z AUTO 35004KT 3SM 26/22 A2977 RMK T02600220 IEM_DS3505
ZGSZ,2007-09-12 23:00,ZGSZ 122300Z AUTO 04004KT 3SM 27/22 A2977 RMK T02700220 IEM_DS3505
ZGSZ,2007-09-13 00:00,ZGSZ 130000Z AUTO 07004KT 6SM 28/17 A2980 RMK SLP089 T02760172 52005 IEM_DS3505
ZGSZ,2007-09-13 01:00,ZGSZ 130100Z AUTO 05004KT 6SM 30/19 A2980 RMK T03000190 IEM_DS3505
ZGSZ,2007-09-13 02:00,ZGSZ 130200Z AUTO 12006KT 6SM 31/18 A2980 RMK T03100180 IEM_DS3505
ZGSZ,2007-09-13 03:00,ZGSZ 130300Z AUTO 11006KT 7SM 31/17 A2977 RMK SLP086 T03080168 57003 IEM_DS3505
ZGSZ,2007-09-13 04:00,ZGSZ 130400Z AUTO 25006KT 6SM 31/20 A2977 RMK T03100200 IEM_DS3505
ZGSZ,2007-09-13 05:00,ZGSZ 130500Z AUTO 25008KT 6SM 31/20 A2974 RMK T03100200 IEM_DS3505
ZGSZ,2007-09-13 06:00,ZGSZ 130600Z AUTO 20006KT 6SM 32/19 A2971 RMK SLP066 T03180191 57019 IEM_DS3505
ZGSZ,2007-09-13 07:00,ZGSZ 130700Z AUTO 21008KT 6SM 31/20 A2971 RMK T03100200 IEM_DS3505
ZGSZ,2007-09-13 08:00,ZGSZ 130800Z AUTO 19008KT 6SM 31/21 A2971 RMK T03100210 IEM_DS3505
ZGSZ,2007-09-13 09:00,ZGSZ 130900Z AUTO 11004KT 5SM 31/18 A2971 RMK SLP061 T03120182 57005 IEM_DS3505
ZGSZ,2007-09-13 10:00,ZGSZ 131000Z AUTO 17008KT 6SM 29/22 A2971 RMK T02900220 IEM_DS3505
ZGSZ,2007-09-13 11:00,ZGSZ 131100Z AUTO 17006KT 6SM 29/22 A2971 RMK T02900220 IEM_DS3505
ZGSZ,2007-09-13 12:00,ZGSZ 131200Z AUTO 11004KT 4SM 28/20 A2974 RMK SLP072 T02840196 52010 IEM_DS3505
ZGSZ,2007-09-13 13:00,ZGSZ 131300Z AUTO 19004KT 6SM 28/23 A2974 RMK T02800230 IEM_DS3505
ZGSZ,2007-09-13 14:00,ZGSZ 131400Z AUTO 10006KT 4SM 29/22 A2977 RMK T02900220 IEM_DS3505
ZGSZ,2007-09-13 15:00,ZGSZ 131500Z AUTO 02004KT 4SM 27/20 A2977 RMK SLP085 T02730196 52013 IEM_DS3505
ZGSZ,2007-09-13 16:00,ZGSZ 131600Z AUTO 12006KT 3SM 28/21 A2977 RMK T02800210 IEM_DS3505
ZGSZ,2007-09-13 17:00,ZGSZ 131700Z AUTO 12004KT 3SM 28/21 A2977 RMK T02800210 IEM_DS3505
ZGSZ,2007-09-13 18:00,ZGSZ 131800Z AUTO 09004KT 2 1/2SM 27/21 A2977 RMK SLP082 T02680213 57003 IEM_DS3505
ZGSZ,2007-09-13 19:00,ZGSZ 131900Z AUTO 12004KT 3SM 27/22 A2977 RMK T02700220 IEM_DS3505
ZGSZ,2007-09-13 20:00,ZGSZ 132000Z AUTO 3SM 27/22 A2974 RMK T02700220 IEM_DS3505
ZGSZ,2007-09-13 21:00,ZGSZ 132100Z AUTO 04002KT 2 1/2SM 26/22 A2974 RMK SLP074 T02630217 57008 IEM_DS3505
ZGSZ,2007-09-13 22:00,ZGSZ 132200Z AUTO 00000KT 3SM 27/22 A2974 RMK T02700220 IEM_DS3505
ZGSZ,2007-09-13 23:00,ZGSZ 132300Z AUTO 00000KT 3SM 28/23 A2974 RMK T02800230 IEM_DS3505
ZGSZ,2007-09-14 00:00,ZGSZ 140000Z AUTO 25002KT 2 1/2SM 27/22 A2977 RMK SLP081 T02660224 52007 IEM_DS3505
ZGSZ,2007-09-14 01:00,ZGSZ 140100Z AUTO 00000KT 2 1/2SM 29/23 A2977 RMK T02900230 IEM_DS3505
ZGSZ,2007-09-14 02:00,ZGSZ 140200Z AUTO 26004KT 3SM 29/24 A2977 RMK T02900240 IEM_DS3505
ZGSZ,2007-09-14 03:00,ZGSZ 140300Z AUTO 18002KT 2 1/2SM 30/20 A2977 RMK SLP080 T03030200 57001 IEM_DS3505
ZGSZ,2007-09-14 04:00,ZGSZ 140400Z AUTO 26004KT 3SM 30/23 A2974 RMK T03000230 IEM_DS3505
ZGSZ,2007-09-14 05:00,ZGSZ 140500Z AUTO 22004KT 3SM 31/24 A2971 RMK T03100240 IEM_DS3505
ZGSZ,2007-09-14 06:00,ZGSZ 140600Z AUTO 20006KT 2 1/2SM 32/22 A2968 RMK SLP055 T03220220 57024 IEM_DS3505
ZGSZ,2007-09-14 07:00,ZGSZ 140700Z AUTO 19006KT 2 1/2SM 32/25 A2965 RMK T03200250 IEM_DS3505
ZGSZ,2007-09-14 08:00,ZGSZ 140800Z AUTO 17006KT 3SM 32/25 A2965 RMK T03200250 IEM_DS3505
ZGSZ,2007-09-14 09:00,ZGSZ 140900Z AUTO 20002KT 2 1/2SM 31/22 A2965 RMK SLP043 T03070215 57012 IEM_DS3505
ZGSZ,2007-09-14 10:00,ZGSZ 141000Z AUTO 17008KT 2SM 29/25 A2965 RMK T02900250 IEM_DS3505
ZGSZ,2007-09-14 11:00,ZGSZ 141100Z AUTO 17008KT 3SM 29/24 A2965 RMK T02900240 IEM_DS3505
ZGSZ,2007-09-14 12:00,ZGSZ 141200Z AUTO 18002KT 2SM 28/21 A2968 RMK 60000 SLP056 T02850213 52012 IEM_DS3505
ZGSZ,2007-09-14 13:00,ZGSZ 141300Z AUTO 17008KT 4SM 29/23 A2968 RMK T02900230 IEM_DS3505
ZGSZ,2007-09-14 14:00,ZGSZ 141400Z AUTO 18008KT 3SM 29/24 A2971 RMK T02900240 IEM_DS3505
ZGSZ,2007-09-14 15:00,ZGSZ 141500Z AUTO 25006KT 2 1/2SM 28/22 A2971 RMK SLP068 T02780218 52013 IEM_DS3505
ZGSZ,2007-09-14 16:00,ZGSZ 141600Z AUTO 17006KT 3SM 28/24 A2971 RMK T02800240 IEM_DS3505
ZGSZ,2007-09-14 17:00,ZGSZ 141700Z AUTO 17006KT 3SM 28/24 A2971 RMK T02800240 IEM_DS3505
ZGSZ,2007-09-14 18:00,ZGSZ 141800Z AUTO 22002KT 3SM 27/21 A2971 RMK SLP060 T02700213 57008 IEM_DS3505
ZGSZ,2007-09-14 19:00,ZGSZ 141900Z AUTO 17006KT 3SM 28/24 A2968 RMK T02800240 IEM_DS3505
ZGSZ,2007-09-14 20:00,ZGSZ 142000Z AUTO 19004KT 3SM 28/24 A2968 RMK T02800240 IEM_DS3505
ZGSZ,2007-09-14 21:00,ZGSZ 142100Z AUTO 25002KT 3SM 27/22 A2968 RMK 70000 SLP050 T02670225 57010 IEM_DS3505
ZGSZ,2007-09-14 22:00,ZGSZ 142200Z AUTO 26004KT 2SM 28/24 A2968 RMK T02800240 IEM_DS3505
ZGSZ,2007-09-14 23:00,ZGSZ 142300Z AUTO 00000KT 1 1/2SM 28/25 A2968 RMK T02800250 IEM_DS3505
ZGSZ,2007-09-15 00:00,ZGSZ 150000Z AUTO 14002KT 2SM 28/23 A2971 RMK 70000 SLP062 T02780232 52011 IEM_DS3505
ZGSZ,2007-09-15 01:00,ZGSZ 150100Z AUTO 27004KT 1 1/4SM 29/25 A2971 RMK T02900250 IEM_DS3505
ZGSZ,2007-09-15 02:00,ZGSZ 150200Z AUTO 28004KT 1SM 30/25 A2971 RMK T03000250 IEM_DS3505
ZGSZ,2007-09-15 03:00,ZGSZ 150300Z AUTO 18002KT 2SM 32/25 A2971 RMK SLP064 T03230249 52003 IEM_DS3505
ZGSZ,2007-09-15 04:00,ZGSZ 150400Z AUTO 24004KT 1SM 31/26 A2968 RMK T03100260 IEM_DS3505
ZGSZ,2007-09-15 05:00,ZGSZ 150500Z AUTO 25006KT 1 1/2SM 32/26 A2965 RMK T03200260 IEM_DS3505
ZGSZ,2007-09-15 06:00,ZGSZ 150600Z AUTO 22004KT 1 1/2SM 32/24 A2965 RMK 60000 SLP042 T03150239 57022 IEM_DS3505
ZGSZ,2007-09-15 07:00,ZGSZ 150700Z AUTO 28004KT 2 1/2SM 33/23 A2962 RMK T03300230 IEM_DS3505
ZGSZ,2007-09-15 08:00,ZGSZ 150800Z AUTO 3SM 34/21 A2962 RMK T03400210 IEM_DS3505
ZGSZ,2007-09-15 09:00,ZGSZ 150900Z AUTO 20006KT 1 1/2SM 32/24 A2962 RMK SLP034 T03160237 57008 IEM_DS3505
ZGSZ,2007-09-15 10:00,ZGSZ 151000Z AUTO 06004KT 4SM 33/21 A2962 RMK T03300210 IEM_DS3505
ZGSZ,2007-09-15 11:00,ZGSZ 151100Z AUTO 08006KT 4SM 32/21 A2965 RMK T03200210 IEM_DS3505
ZGSZ,2007-09-15 12:00,ZGSZ 151200Z AUTO 25002KT 2SM 29/24 A2965 RMK 60002 SLP048 T02890245 52014 IEM_DS3505
ZGSZ,2007-09-15 13:00,ZGSZ 151300Z AUTO 2 1/2SM 30/24 A2968 RMK T03000240 IEM_DS3505
ZGSZ,2007-09-15 14:00,ZGSZ 151400Z AUTO 04004KT 3SM 30/23 A2968 RMK T03000230 IEM_DS3505
ZGSZ,2007-09-15 15:00,ZGSZ 151500Z AUTO 34002KT 1 1/2SM 29/25 A2971 RMK SLP059 T02860248 52011 IEM_DS3505
ZGSZ,2007-09-15 16:00,ZGSZ 151600Z AUTO 04004KT 3SM 30/22 A2968 RMK T03000220 IEM_DS3505
ZGSZ,2007-09-15 17:00,ZGSZ 151700Z AUTO 00000KT 3SM 30/22 A2968 RMK T03000220 IEM_DS3505
ZGSZ,2007-09-15 18:00,ZGSZ 151800Z AUTO 34002KT 1 1/4SM 28/22 A2968 RMK SLP053 T02850218 57006 IEM_DS3505
ZGSZ,2007-09-15 19:00,ZGSZ 151900Z AUTO 04002KT 2 1/2SM 29/22 A2968 RMK T02900220 IEM_DS3505
ZGSZ,2007-09-15 20:00,ZGSZ 152000Z AUTO 00000KT 2 1/2SM 29/22 A2968 RMK T02900220 IEM_DS3505
ZGSZ,2007-09-15 21:00,ZGSZ 152100Z AUTO 36002KT 1 1/2SM 28/22 A2968 RMK 70002 SLP054 T02760216 52001 IEM_DS3505
ZGSZ,2007-09-15 22:00,ZGSZ 152200Z AUTO 04006KT 2SM 28/22 A2968 RMK T02800220 IEM_DS3505
ZGSZ,2007-09-15 23:00,ZGSZ 152300Z AUTO 05004KT 2SM 28/22 A2971 RMK T02800220 IEM_DS3505
ZGSZ,2007-09-16 00:00,ZGSZ 160000Z AUTO 11004KT 2SM 28/22 A2971 RMK 70002 SLP067 T02790217 52012 IEM_DS3505
ZGSZ,2007-09-16 01:00,ZGSZ 160100Z AUTO 02004KT 2SM 29/22 A2974 RMK T02900220 IEM_DS3505
ZGSZ,2007-09-16 02:00,ZGSZ 160200Z AUTO 01006KT 2SM 29/22 A2974 RMK T02900220 IEM_DS3505
ZGSZ,2007-09-16 03:00,ZGSZ 160300Z AUTO 02006KT 1 1/2SM 29/22 A2974 RMK SLP072 T02880216 52005 IEM_DS3505
ZGSZ,2007-09-16 04:00,ZGSZ 160400Z AUTO 01006KT 2SM 31/23 A2971 RMK T03100230 IEM_DS3505
ZGSZ,2007-09-16 05:00,ZGSZ 160500Z AUTO 2SM 32/23 A2971 RMK T03200230 IEM_DS3505
ZGSZ,2007-09-16 06:00,ZGSZ 160600Z AUTO 02002KT 2SM 31/23 A2968 RMK SLP053 T03080227 57018 IEM_DS3505
ZGSZ,2007-09-16 07:00,ZGSZ 160700Z AUTO 25004KT 2SM 31/23 A2965 RMK T03100230 IEM_DS3505
ZGSZ,2007-09-16 08:00,ZGSZ 160800Z AUTO 2SM 32/23 A2965 RMK T03200230 IEM_DS3505
ZGSZ,2007-09-16 09:00,ZGSZ 160900Z AUTO 14004KT 2SM 30/24 A2965 RMK SLP048 T03020239 57005 IEM_DS3505
ZGSZ,2007-09-16 10:00,ZGSZ 161000Z AUTO 2SM 31/24 A2965 RMK T03100240 IEM_DS3505
ZGSZ,2007-09-16 11:00,ZGSZ 161100Z AUTO 18006KT 1 1/4SM 29/25 A2968 RMK T02900250 IEM_DS3505
ZGSZ,2007-09-16 12:00,ZGSZ 161200Z AUTO 04004KT 1 1/4SM 29/24 A2971 RMK SLP063 T02860235 52014 IEM_DS3505
ZGSZ,2007-09-16 13:00,ZGSZ 161300Z AUTO 17002KT 1 1/2SM 29/25 A2971 RMK T02900250 IEM_DS3505
ZGSZ,2007-09-16 14:00,ZGSZ 161400Z AUTO 00000KT 1 1/4SM 29/24 A2974 RMK T02900240 IEM_DS3505
ZGSZ,2007-09-16 15:00,ZGSZ 161500Z AUTO 09002KT 1 1/4SM 28/24 A2974 RMK SLP072 T02780236 52009 IEM_DS3505
ZGSZ,2007-09-16 16:00,ZGSZ 161600Z AUTO 1 1/2SM 28/24 A2974 RMK T02800240 IEM_DS3505
ZGSZ,2007-09-16 18:00,ZGSZ 161800Z AUTO 09002KT 2SM 27/24 A2974 RMK SLP070 T02690238 57002 IEM_DS3505
ZGSZ,2007-09-16 19:00,ZGSZ 161900Z AUTO 00000KT 1 1/4SM 27/23 A2971 RMK T02700230 IEM_DS3505
ZGSZ,2007-09-16 20:00,ZGSZ 162000Z AUTO 1 1/4SM 27/24 A2971 RMK T02700240 IEM_DS3505
ZGSZ,2007-09-16 21:00,ZGSZ 162100Z AUTO 36002KT 1 1/2SM 26/24 A2974 RMK SLP073 T02620235 52003 IEM_DS3505
ZGSZ,2007-09-16 22:00,ZGSZ 162200Z AUTO 00000KT 1 1/2SM 27/23 A2974 RMK T02700230 IEM_DS3505
ZGSZ,2007-09-16 23:00,ZGSZ 162300Z AUTO 06006KT 2SM 27/23 A2977 RMK T02700230 IEM_DS3505
ZGSZ,2007-09-17 00:00,ZGSZ 170000Z AUTO 02006KT 2SM 27/22 A2977 RMK SLP084 T02730225 52011 IEM_DS3505
ZGSZ,2007-09-17 01:00,ZGSZ 170100Z AUTO 02006KT 2 1/2SM 29/22 A2977 RMK T02900220 IEM_DS3505
ZGSZ,2007-09-17 02:00,ZGSZ 170200Z AUTO 08004KT 2 1/2SM 31/22 A2977 RMK T03100220 IEM_DS3505
ZGSZ,2007-09-17 03:00,ZGSZ 170300Z AUTO 04004KT 2 1/2SM 30/22 A2977 RMK SLP086 T03020221 52002 IEM_DS3505
ZGSZ,2007-09-17 04:00,ZGSZ 170400Z AUTO 02004KT 3SM 32/21 A2974 RMK T03200210 IEM_DS3505
ZGSZ,2007-09-17 05:00,ZGSZ 170500Z AUTO 31006KT 3SM 33/22 A2974 RMK T03300220 IEM_DS3505
ZGSZ,2007-09-17 06:00,ZGSZ 170600Z AUTO 22004KT 3SM 32/22 A2971 RMK SLP059 T03190223 57026 IEM_DS3505
ZGSZ,2007-09-17 07:00,ZGSZ 170700Z AUTO 29008KT 2 1/2SM 32/23 A2968 RMK T03200230 IEM_DS3505
ZGSZ,2007-09-17 08:00,ZGSZ 170800Z AUTO 32006KT 4SM 33/20 A2968 RMK T03300200 IEM_DS3505
ZGSZ,2007-09-17 09:00,ZGSZ 170900Z AUTO 34006KT 4SM 32/18 A2965 RMK SLP048 T03220177 57011 IEM_DS3505
ZGSZ,2007-09-17 10:00,ZGSZ 171000Z AUTO 35010KT 4SM 32/18 A2968 RMK T03200180 IEM_DS3505
ZGSZ,2007-09-17 11:00,ZGSZ 171100Z AUTO 35010KT 4SM 31/17 A2968 RMK T03100170 IEM_DS3505
ZGSZ,2007-09-17 12:00,ZGSZ 171200Z AUTO 34008KT 3SM 30/17 A2968 RMK SLP055 T03020170 52007 IEM_DS3505
ZGSZ,2007-09-17 13:00,ZGSZ 171300Z AUTO 36006KT 3SM 30/17 A2971 RMK T03000170 IEM_DS3505
ZGSZ,2007-09-17 14:00,ZGSZ 171400Z AUTO 34006KT 3SM 29/19 A2971 RMK T02900190 IEM_DS3505
ZGSZ,2007-09-17 15:00,ZGSZ 171500Z AUTO 36004KT 2 1/2SM 28/18 A2971 RMK SLP063 T02840176 52008 IEM_DS3505
ZGSZ,2007-09-17 16:00,ZGSZ 171600Z AUTO 36008KT 3SM 29/18 A2971 RMK T02900180 IEM_DS3505
ZGSZ,2007-09-17 17:00,ZGSZ 171700Z AUTO 02006KT 3SM 28/18 A2971 RMK T02800180 IEM_DS3505
ZGSZ,2007-09-17 18:00,ZGSZ 171800Z AUTO 36008KT 2 1/2SM 28/16 A2971 RMK SLP057 T02770163 57006 IEM_DS3505
ZGSZ,2007-09-17 19:00,ZGSZ 171900Z AUTO 34006KT 4SM 27/18 A2968 RMK T02700180 IEM_DS3505
ZGSZ,2007-09-17 20:00,ZGSZ 172000Z AUTO 35006KT 3SM 27/18 A2965 RMK T02700180 IEM_DS3505
ZGSZ,2007-09-17 21:00,ZGSZ 172100Z AUTO 32006KT 2 1/2SM 27/15 A2968 RMK SLP047 T02700154 57010 IEM_DS3505
ZGSZ,2007-09-17 22:00,ZGSZ 172200Z AUTO 34006KT 3SM 25/18 A2968 RMK T02500180 IEM_DS3505
ZGSZ,2007-09-17 23:00,ZGSZ 172300Z AUTO 34008KT 3SM 26/17 A2968 RMK T02600170 IEM_DS3505
ZGSZ,2007-09-18 00:00,ZGSZ 180000Z AUTO 34010KT 3SM 27/16 A2971 RMK SLP054 T02710158 52007 IEM_DS3505
ZGSZ,2007-09-18 01:00,ZGSZ 180100Z AUTO 35010KT 4SM 29/16 A2968 RMK T02900160 IEM_DS3505
ZGSZ,2007-09-18 02:00,ZGSZ 180200Z AUTO 01014KT 4SM 30/15 A2968 RMK T03000150 IEM_DS3505
ZGSZ,2007-09-18 03:00,ZGSZ 180300Z AUTO 32012KT 3SM 30/13 A2965 RMK SLP044 T02970130 57010 IEM_DS3505
ZGSZ,2007-09-18 04:00,ZGSZ 180400Z AUTO 01014KT 5SM 32/15 A2962 RMK T03200150 IEM_DS3505
ZGSZ,2007-09-18 05:00,ZGSZ 180500Z AUTO 32012KT 5SM 32/17 A2959 RMK T03200170 IEM_DS3505
ZGSZ,2007-09-18 06:00,ZGSZ 180600Z AUTO 32010KT 3SM 31/14 A2956 RMK SLP013 T03140141 57031 IEM_DS3505
ZGSZ,2007-09-18 07:00,ZGSZ 180700Z AUTO 32014KT 4SM 32/18 A2953 RMK T03200180 IEM_DS3505
ZGSZ,2007-09-18 08:00,ZGSZ 180800Z AUTO 33012G21KT 5SM 32/15 A2953 RMK T03200150 IEM_DS3505
ZGSZ,2007-09-18 09:00,ZGSZ 180900Z AUTO 34006KT 3SM 31/15 A2953 RMK SLP002 T03070148 57011 IEM_DS3505
ZGSZ,2007-09-18 10:00,ZGSZ 181000Z AUTO 33014KT 4SM 30/16 A2953 RMK T03000160 IEM_DS3505
ZGSZ,2007-09-18 11:00,ZGSZ 181100Z AUTO 33012KT 3SM 30/16 A2956 RMK T03000160 IEM_DS3505
ZGSZ,2007-09-18 12:00,ZGSZ 181200Z AUTO 29010KT 4SM 29/15 A2956 RMK SLP013 T02930151 52011 IEM_DS3505
ZGSZ,2007-09-18 13:00,ZGSZ 181300Z AUTO 33008KT 3SM 29/17 A2959 RMK T02900170 IEM_DS3505
ZGSZ,2007-09-18 14:00,ZGSZ 181400Z AUTO 33010KT 3SM 28/17 A2959 RMK T02800170 IEM_DS3505
ZGSZ,2007-09-18 15:00,ZGSZ 181500Z AUTO 34008KT 3SM 27/17 A2959 RMK T02700170 IEM_DS3505
ZGSZ,2007-09-18 16:00,ZGSZ 181600Z AUTO 34008KT 3SM 27/17 A2959 RMK T02700170 IEM_DS3505
ZGSZ,2007-09-18 17:00,ZGSZ 181700Z AUTO 35006KT 2 1/2SM 27/16 A2959 RMK T02700160 IEM_DS3505
ZGSZ,2007-09-18 18:00,ZGSZ 181800Z AUTO 32008KT 2 1/2SM 26/16 A2959 RMK SLP016 T02650155 57006 IEM_DS3505
ZGSZ,2007-09-18 19:00,ZGSZ 181900Z AUTO 34008KT 2 1/2SM 26/17 A2956 RMK T02600170 IEM_DS3505
ZGSZ,2007-09-18 20:00,ZGSZ 182000Z AUTO 34010KT 2 1/2SM 26/17 A2956 RMK T02600170 IEM_DS3505
ZGSZ,2007-09-18 21:00,ZGSZ 182100Z AUTO 29006G19KT 2 1/2SM 25/16 A2956 RMK SLP014 T02520164 57002 IEM_DS3505
ZGSZ,2007-09-18 22:00,ZGSZ 182200Z AUTO 34010KT 2 1/2SM 25/17 A2959 RMK T02500170 IEM_DS3505
ZGSZ,2007-09-18 23:00,ZGSZ 182300Z AUTO 34010KT 2 1/2SM 25/17 A2959 RMK T02500170 IEM_DS3505
ZGSZ,2007-09-19 00:00,ZGSZ 190000Z AUTO 29010KT 2 1/2SM 25/16 A2962 RMK SLP031 T02540165 52016 IEM_DS3505
ZGSZ,2007-09-19 01:00,ZGSZ 190100Z AUTO 33012KT 3SM 27/17 A2965 RMK T02700170 IEM_DS3505
ZGSZ,2007-09-19 02:00,ZGSZ 190200Z AUTO 32014KT 3SM 28/17 A2965 RMK T02800170 IEM_DS3505
ZGSZ,2007-09-19 03:00,ZGSZ 190300Z AUTO 32014KT 2 1/2SM 29/17 A2962 RMK SLP032 T02890168 52002 IEM_DS3505
ZGSZ,2007-09-19 04:00,ZGSZ 190400Z AUTO 36012KT 3SM 30/16 A2959 RMK T03000160 IEM_DS3505
ZGSZ,2007-09-19 05:00,ZGSZ 190500Z AUTO 36010G19KT 3SM 31/17 A2959 RMK T03100170 IEM_DS3505
ZGSZ,2007-09-19 06:00,ZGSZ 190600Z AUTO 32008KT 2 1/2SM 30/17 A2956 RMK SLP011 T03040168 57021 IEM_DS3505
ZGSZ,2007-09-19 07:00,ZGSZ 190700Z AUTO 32010KT 3SM 31/19 A2956 RMK T03100190 IEM_DS3505
ZGSZ,2007-09-19 08:00,ZGSZ 190800Z AUTO 32010KT 4SM 31/17 A2956 RMK T03100170 IEM_DS3505
ZGSZ,2007-09-19 09:00,ZGSZ 190900Z AUTO 34006KT 2 1/2SM 30/17 A2956 RMK SLP015 T03000171 52004 IEM_DS3505
ZGSZ,2007-09-19 10:00,ZGSZ 191000Z AUTO 34010KT 5SM 31/15 A2959 RMK T03100150 IEM_DS3505
ZGSZ,2007-09-19 11:00,ZGSZ 191100Z AUTO 34008KT 5SM 30/15 A2962 RMK T03000150 IEM_DS3505
ZGSZ,2007-09-19 12:00,ZGSZ 191200Z AUTO 34006KT 2 1/2SM 29/16 A2962 RMK SLP038 T02930165 52022 IEM_DS3505
ZGSZ,2007-09-19 13:00,ZGSZ 191300Z AUTO 03008KT 6SM 30/16 A2965 RMK T03000160 IEM_DS3505
ZGSZ,2007-09-19 14:00,ZGSZ 191400Z AUTO 03008KT 6SM 30/16 A2968 RMK T03000160 IEM_DS3505
ZGSZ,2007-09-19 15:00,ZGSZ 191500Z AUTO 36008KT 2 1/2SM 29/14 A2968 RMK SLP057 T02860141 52020 IEM_DS3505
ZGSZ,2007-09-19 16:00,ZGSZ 191600Z AUTO 04010KT 5SM 29/14 A2971 RMK T02900140 IEM_DS3505
ZGSZ,2007-09-19 17:00,ZGSZ 191700Z AUTO 04014KT 6SM 29/14 A2971 RMK T02900140 IEM_DS3505
ZGSZ,2007-09-19 18:00,ZGSZ 191800Z AUTO 04006KT 7SM 27/14 A2971 RMK SLP059 T02740141 52002 IEM_DS3505
ZGSZ,2007-09-19 19:00,ZGSZ 191900Z AUTO 04012KT 6SM 28/14 A2971 RMK T02800140 IEM_DS3505
ZGSZ,2007-09-19 20:00,ZGSZ 192000Z AUTO 03012KT 6SM 27/15 A2971 RMK T02700150 IEM_DS3505
ZGSZ,2007-09-19 21:00,ZGSZ 192100Z AUTO 02006KT 6SM 26/12 A2974 RMK SLP066 T02640125 52006 IEM_DS3505
ZGSZ,2007-09-19 22:00,ZGSZ 192200Z AUTO 03008KT 6SM 27/15 A2974 RMK T02700150 IEM_DS3505
ZGSZ,2007-09-19 23:00,ZGSZ 192300Z AUTO 03008KT 6SM 27/14 A2977 RMK T02700140 IEM_DS3505
ZGSZ,2007-09-20 00:00,ZGSZ 200000Z AUTO 36004KT 6SM 26/14 A2977 RMK SLP086 T02640135 52020 IEM_DS3505
ZGSZ,2007-09-20 01:00,ZGSZ 200100Z AUTO 03012KT 6SM 28/15 A2977 RMK T02800150 IEM_DS3505
ZGSZ,2007-09-20 02:00,ZGSZ 200200Z AUTO 02012KT 6SM 28/14 A2977 RMK T02800140 IEM_DS3505
ZGSZ,2007-09-20 03:00,ZGSZ 200300Z AUTO 36010KT 6SM 28/14 A2977 RMK SLP082 T02800143 57004 IEM_DS3505
ZGSZ,2007-09-20 04:00,ZGSZ 200400Z AUTO 03010G19KT 4SM 31/15 A2974 RMK T03100150 IEM_DS3505
ZGSZ,2007-09-20 05:00,ZGSZ 200500Z AUTO 02008KT 4SM 31/16 A2974 RMK T03100160 IEM_DS3505
ZGSZ,2007-09-20 06:00,ZGSZ 200600Z AUTO 02006KT 5SM 31/16 A2971 RMK SLP061 T03070156 57020 IEM_DS3505
ZGSZ,2007-09-20 07:00,ZGSZ 200700Z AUTO 03006KT 4SM 32/16 A2971 RMK T03200160 IEM_DS3505
ZGSZ,2007-09-20 08:00,ZGSZ 200800Z AUTO 03010KT 4SM 32/16 A2971 RMK T03200160 IEM_DS3505
ZGSZ,2007-09-20 09:00,ZGSZ 200900Z AUTO 04002KT 5SM 30/17 A2971 RMK SLP063 T03020166 52001 IEM_DS3505
ZGSZ,2007-09-20 10:00,ZGSZ 201000Z AUTO 04008KT 4SM 31/17 A2971 RMK T03100170 IEM_DS3505
ZGSZ,2007-09-20 11:00,ZGSZ 201100Z AUTO 04006KT 4SM 31/17 A2974 RMK T03100170 IEM_DS3505
ZGSZ,2007-09-20 12:00,ZGSZ 201200Z AUTO 04004KT 4SM 29/17 A2977 RMK SLP080 T02900169 52017 IEM_DS3505
ZGSZ,2007-09-20 13:00,ZGSZ 201300Z AUTO 04008KT 4SM 31/17 A2977 RMK T03100170 IEM_DS3505
ZGSZ,2007-09-20 14:00,ZGSZ 201400Z AUTO 04008KT 4SM 29/17 A2980 RMK T02900170 IEM_DS3505
ZGSZ,2007-09-20 15:00,ZGSZ 201500Z AUTO 02010KT 5SM 28/16 A2980 RMK SLP090 T02820162 52010 IEM_DS3505
ZGSZ,2007-09-20 16:00,ZGSZ 201600Z AUTO 04012KT 4SM 28/17 A2977 RMK T02800170 IEM_DS3505
ZGSZ,2007-09-20 17:00,ZGSZ 201700Z AUTO 05012KT 4SM 28/16 A2977 RMK T02800160 IEM_DS3505
ZGSZ,2007-09-20 18:00,ZGSZ 201800Z AUTO 07008KT 4SM 27/17 A2977 RMK SLP085 T02700166 57005 IEM_DS3505
ZGSZ,2007-09-20 19:00,ZGSZ 201900Z AUTO 05008KT 4SM 28/17 A2977 RMK T02800170 IEM_DS3505
ZGSZ,2007-09-20 20:00,ZGSZ 202000Z AUTO 02006KT 4SM 27/17 A2977 RMK T02700170 IEM_DS3505
ZGSZ,2007-09-20 21:00,ZGSZ 202100Z AUTO 36004KT 4SM 26/17 A2977 RMK SLP083 T02620170 57002 IEM_DS3505
ZGSZ,2007-09-20 22:00,ZGSZ 202200Z AUTO 04006KT 4SM 27/17 A2980 RMK T02700170 IEM_DS3505
ZGSZ,2007-09-20 23:00,ZGSZ 202300Z AUTO 02010KT 4SM 27/17 A2980 RMK T02700170 IEM_DS3505
ZGSZ,2007-09-21 00:00,ZGSZ 210000Z AUTO 04004KT 5SM 27/17 A2983 RMK SLP099 T02670172 52016 IEM_DS3505
ZGSZ,2007-09-21 01:00,ZGSZ 210100Z AUTO 02010KT 3SM 29/18 A2983 RMK T02900180 IEM_DS3505
ZGSZ,2007-09-21 02:00,ZGSZ 210200Z AUTO 03010KT 3SM 30/18 A2983 RMK T03000180 IEM_DS3505
ZGSZ,2007-09-21 03:00,ZGSZ 210300Z AUTO 02006KT 5SM 30/18 A2983 RMK SLP097 T03010179 57002 IEM_DS3505
ZGSZ,2007-09-21 04:00,ZGSZ 210400Z AUTO 02008G17KT 4SM 32/19 A2980 RMK T03200190 IEM_DS3505
ZGSZ,2007-09-21 05:00,ZGSZ 210500Z AUTO 04008KT 3SM 33/19 A2977 RMK T03300190 IEM_DS3505
ZGSZ,2007-09-21 06:00,ZGSZ 210600Z AUTO 34006KT 4SM 32/18 A2977 RMK SLP078 T03200182 57018 IEM_DS3505
ZGSZ,2007-09-21 07:00,ZGSZ 210700Z AUTO 02008KT 3SM 33/19 A2974 RMK T03300190 IEM_DS3505
ZGSZ,2007-09-21 08:00,ZGSZ 210800Z AUTO 03008KT 4SM 33/19 A2974 RMK T03300190 IEM_DS3505
ZGSZ,2007-09-21 09:00,ZGSZ 210900Z AUTO 36004KT 5SM 32/19 A2974 RMK SLP069 T03180188 57009 IEM_DS3505
ZGSZ,2007-09-21 10:00,ZGSZ 211000Z AUTO 02010KT 4SM 32/19 A2974 RMK T03200190 IEM_DS3505
ZGSZ,2007-09-21 11:00,ZGSZ 211100Z AUTO 03008KT 4SM 31/19 A2977 RMK T03100190 IEM_DS3505
ZGSZ,2007-09-21 12:00,ZGSZ 211200Z AUTO 04008KT 2 1/2SM 30/19 A2977 RMK SLP085 T03030193 52015 IEM_DS3505
ZGSZ,2007-09-21 13:00,ZGSZ 211300Z AUTO 03008KT 4SM 31/19 A2977 RMK T03100190 IEM_DS3505
ZGSZ,2007-09-21 14:00,ZGSZ 211400Z AUTO 04010KT 4SM 30/20 A2980 RMK T03000200 IEM_DS3505
ZGSZ,2007-09-21 15:00,ZGSZ 211500Z AUTO 02002KT 1 1/4SM 28/21 A2977 RMK SLP088 T02830211 52003 IEM_DS3505
ZGSZ,2007-09-21 16:00,ZGSZ 211600Z AUTO 03010KT 3SM 28/19 A2977 RMK T02800190 IEM_DS3505
ZGSZ,2007-09-21 18:00,ZGSZ 211800Z AUTO 36004KT 2SM 27/19 A2974 RMK SLP076 T02690193 57011 IEM_DS3505
ZGSZ,2007-09-21 19:00,ZGSZ 211900Z AUTO 02012KT 4SM 28/19 A2974 RMK T02800190 IEM_DS3505
ZGSZ,2007-09-21 20:00,ZGSZ 212000Z AUTO 03010KT 3SM 27/18 A2974 RMK T02700180 IEM_DS3505
ZGSZ,2007-09-21 21:00,ZGSZ 212100Z AUTO 36008KT 2SM 26/19 A2977 RMK SLP077 T02610188 54000 IEM_DS3505
ZGSZ,2007-09-21 22:00,ZGSZ 212200Z AUTO 03012KT 3SM 26/18 A2977 RMK T02600180 IEM_DS3505
ZGSZ,2007-09-21 23:00,ZGSZ 212300Z AUTO 03010KT 4SM 26/19 A2977 RMK T02600190 IEM_DS3505
ZGSZ,2007-09-22 00:00,ZGSZ 220000Z AUTO 02006KT 3SM 27/19 A2980 RMK SLP086 T02670186 52009 IEM_DS3505
ZGSZ,2007-09-22 01:00,ZGSZ 220100Z AUTO 03012KT 5SM 29/19 A2980 RMK T02900190 IEM_DS3505
ZGSZ,2007-09-22 02:00,ZGSZ 220200Z AUTO 02012KT 4SM 30/19 A2980 RMK T03000190 IEM_DS3505
ZGSZ,2007-09-22 03:00,ZGSZ 220300Z AUTO 02010KT 5SM 30/19 A2977 RMK SLP082 T02950186 57004 IEM_DS3505
ZGSZ,2007-09-22 04:00,ZGSZ 220400Z AUTO 03012KT 5SM 32/20 A2974 RMK T03200200 IEM_DS3505
ZGSZ,2007-09-22 05:00,ZGSZ 220500Z AUTO 03010G21KT 7SM 33/19 A2971 RMK T03300190 IEM_DS3505
ZGSZ,2007-09-22 06:00,ZGSZ 220600Z AUTO 36012KT 6SM 31/19 A2968 RMK SLP053 T03090189 57028 IEM_DS3505
ZGSZ,2007-09-22 07:00,ZGSZ 220700Z AUTO 02014KT 7SM 32/18 A2968 RMK T03200180 IEM_DS3505
ZGSZ,2007-09-22 08:00,ZGSZ 220800Z AUTO 02014KT 7SM 32/18 A2965 RMK T03200180 IEM_DS3505
ZGSZ,2007-09-22 09:00,ZGSZ 220900Z AUTO 36012KT 7SM 30/18 A2968 RMK SLP048 T03010185 57006 IEM_DS3505
ZGSZ,2007-09-22 10:00,ZGSZ 221000Z AUTO 03014KT 7SM 31/18 A2968 RMK T03100180 IEM_DS3505
ZGSZ,2007-09-22 11:00,ZGSZ 221100Z AUTO 03012KT 7SM 30/18 A2968 RMK T03000180 IEM_DS3505
ZGSZ,2007-09-22 12:00,ZGSZ 221200Z AUTO 02010KT 7SM 29/19 A2971 RMK SLP058 T02880186 52010 IEM_DS3505
ZGSZ,2007-09-22 13:00,ZGSZ 221300Z AUTO 04006KT 6SM 29/18 A2971 RMK T02900180 IEM_DS3505
ZGSZ,2007-09-22 14:00,ZGSZ 221400Z AUTO 04012KT 6SM 30/18 A2971 RMK T03000180 IEM_DS3505
ZGSZ,2007-09-22 15:00,ZGSZ 221500Z AUTO 36008KT 5SM 28/18 A2971 RMK SLP059 T02790183 52002 IEM_DS3505
ZGSZ,2007-09-22 16:00,ZGSZ 221600Z AUTO 03010KT 4SM 28/18 A2968 RMK T02800180 IEM_DS3505
ZGSZ,2007-09-22 17:00,ZGSZ 221700Z AUTO 03014KT 4SM 28/18 A2968 RMK T02800180 IEM_DS3505
ZGSZ,2007-09-22 18:00,ZGSZ 221800Z AUTO 34008KT 5SM 27/18 A2965 RMK SLP043 T02690182 57016 IEM_DS3505
ZGSZ,2007-09-22 19:00,ZGSZ 221900Z AUTO 01014KT 4SM 28/19 A2965 RMK T02800190 IEM_DS3505
ZGSZ,2007-09-22 20:00,ZGSZ 222000Z AUTO 01014KT 4SM 28/19 A2965 RMK T02800190 IEM_DS3505
ZGSZ,2007-09-22 21:00,ZGSZ 222100Z AUTO 36010KT 4SM 26/19 A2965 RMK 70002 SLP038 T02550192 57006 IEM_DS3505
ZGSZ,2007-09-22 22:00,ZGSZ 222200Z AUTO 02010KT 4SM 27/19 A2965 RMK T02700190 IEM_DS3505
ZGSZ,2007-09-22 23:00,ZGSZ 222300Z AUTO 02012KT 5SM 27/19 A2968 RMK T02700190 IEM_DS3505
ZGSZ,2007-09-23 00:00,ZGSZ 230000Z AUTO 36008KT 4SM 26/19 A2968 RMK 60002 70002 SLP048 T02550194 52010 IEM_DS3505
ZGSZ,2007-09-23 01:00,ZGSZ 230100Z AUTO 03014KT 7SM 27/19 A2968 RMK T02700190 IEM_DS3505
ZGSZ,2007-09-23 02:00,ZGSZ 230200Z AUTO 03012KT 7SM 28/19 A2968 RMK T02800190 IEM_DS3505
ZGSZ,2007-09-23 03:00,ZGSZ 230300Z AUTO 36010KT 4SM 26/20 A2968 RMK SLP044 T02580204 57004 IEM_DS3505
ZGSZ,2007-09-23 04:00,ZGSZ 230400Z AUTO 01016KT 7SM 28/20 A2965 RMK T02800200 IEM_DS3505
ZGSZ,2007-09-23 05:00,ZGSZ 230500Z AUTO 01016KT 7SM 27/21 A2962 RMK T02700210 IEM_DS3505
ZGSZ,2007-09-23 06:00,ZGSZ 230600Z AUTO 36008G23KT 4SM 27/21 A2959 RMK 60000 SLP022 T02700208 57022 IEM_DS3505
ZGSZ,2007-09-23 07:00,ZGSZ 230700Z AUTO 02016KT 7SM 28/21 A2959 RMK T02800210 IEM_DS3505
ZGSZ,2007-09-23 08:00,ZGSZ 230800Z AUTO 36017KT 7SM 29/21 A2956 RMK T02900210 IEM_DS3505
ZGSZ,2007-09-23 09:00,ZGSZ 230900Z AUTO 36010G23KT 4SM 27/21 A2956 RMK SLP012 T02680209 57010 IEM_DS3505
ZGSZ,2007-09-23 10:00,ZGSZ 231000Z AUTO 03012KT 7SM 28/21 A2959 RMK T02800210 IEM_DS3505
ZGSZ,2007-09-23 11:00,ZGSZ 231100Z AUTO 03012KT 7SM 26/22 A2959 RMK T02600220 IEM_DS3505
ZGSZ,2007-09-23 12:00,ZGSZ 231200Z AUTO 36008KT 4SM 25/21 A2962 RMK 60004 SLP025 T02470212 52013 IEM_DS3505
ZGSZ,2007-09-23 13:00,ZGSZ 231300Z AUTO 03012G21KT 4SM 25/22 A2962 RMK T02500220 IEM_DS3505
ZGSZ,2007-09-23 14:00,ZGSZ 231400Z AUTO 03014KT 4SM 25/21 A2962 RMK T02500210 IEM_DS3505
ZGSZ,2007-09-23 15:00,ZGSZ 231500Z AUTO 02008KT 4SM 25/21 A2962 RMK SLP035 T02480209 52010 IEM_DS3505
ZGSZ,2007-09-23 16:00,ZGSZ 231600Z AUTO 03012KT 3SM 25/21 A2962 RMK T02500210 IEM_DS3505
ZGSZ,2007-09-23 17:00,ZGSZ 231700Z AUTO 03012KT 5SM 25/21 A2959 RMK T02500210 IEM_DS3505
ZGSZ,2007-09-23 18:00,ZGSZ 231800Z AUTO 02010KT 4SM 24/22 A2959 RMK 60020 SLP021 T02390216 57014 IEM_DS3505
ZGSZ,2007-09-23 19:00,ZGSZ 231900Z AUTO 05010KT 4SM 25/22 A2959 RMK T02500220 IEM_DS3505
ZGSZ,2007-09-23 20:00,ZGSZ 232000Z AUTO 06012G21KT 4SM 26/22 A2959 RMK T02600220 IEM_DS3505
ZGSZ,2007-09-23 21:00,ZGSZ 232100Z AUTO 02006KT 4SM 25/22 A2959 RMK 70041 SLP020 T02460221 57001 IEM_DS3505
ZGSZ,2007-09-23 22:00,ZGSZ 232200Z AUTO 06014KT 7SM 26/22 A2959 RMK T02600220 IEM_DS3505
ZGSZ,2007-09-23 23:00,ZGSZ 232300Z AUTO 07012G21KT 7SM 26/22 A2962 RMK T02600220 IEM_DS3505
ZGSZ,2007-09-24 00:00,ZGSZ 240000Z AUTO 04010G17KT 5SM 26/23 A2965 RMK 60024 70050 SLP039 T02630228 52019 IEM_DS3505
ZGSZ,2007-09-24 01:00,ZGSZ 240100Z AUTO 06012G21KT 7SM 28/23 A2965 RMK T02800230 IEM_DS3505
ZGSZ,2007-09-24 02:00,ZGSZ 240200Z AUTO 11010KT 1SM 26/24 A2968 RMK T02600240 IEM_DS3505
ZGSZ,2007-09-24 03:00,ZGSZ 240300Z AUTO 09006G23KT 5SM 25/23 A2968 RMK SLP053 T02500231 52014 IEM_DS3505
ZGSZ,2007-09-24 04:00,ZGSZ 240400Z AUTO 10006KT 7SM 27/24 A2968 RMK T02700240 IEM_DS3505
ZGSZ,2007-09-24 05:00,ZGSZ 240500Z AUTO 08006KT 7SM 28/25 A2965 RMK T02800250 IEM_DS3505
ZGSZ,2007-09-24 06:00,ZGSZ 240600Z AUTO 04006KT 11SM 26/24 A2962 RMK 60051 SLP039 T02640237 57014 IEM_DS3505
ZGSZ,2007-09-24 07:00,ZGSZ 240700Z AUTO 08006KT 4SM 28/24 A2962 RMK T02800240 IEM_DS3505
ZGSZ,2007-09-24 08:00,ZGSZ 240800Z AUTO 11010KT 2 1/2SM 27/25 A2965 RMK T02700250 IEM_DS3505
ZGSZ,2007-09-24 09:00,ZGSZ 240900Z AUTO 04006KT 6SM 25/23 A2965 RMK SLP044 T02470228 52005 IEM_DS3505
ZGSZ,2007-09-24 10:00,ZGSZ 241000Z AUTO 02006KT 6SM 26/23 A2965 RMK T02600230 IEM_DS3505
ZGSZ,2007-09-24 11:00,ZGSZ 241100Z AUTO 04004KT 5SM 26/23 A2968 RMK T02600230 IEM_DS3505
ZGSZ,2007-09-24 12:00,ZGSZ 241200Z AUTO 07008KT 12SM 25/22 A2971 RMK 60067 SLP064 T02480223 52020 IEM_DS3505
ZGSZ,2007-09-24 13:00,ZGSZ 241300Z AUTO 05004KT 6SM 26/23 A2974 RMK T02600230 IEM_DS3505
ZGSZ,2007-09-24 14:00,ZGSZ 241400Z AUTO 00000KT 6SM 26/23 A2974 RMK T02600230 IEM_DS3505
ZGSZ,2007-09-24 15:00,ZGSZ 241500Z AUTO 07006KT 11SM 25/22 A2977 RMK SLP082 T02520225 52017 IEM_DS3505
ZGSZ,2007-09-24 16:00,ZGSZ 241600Z AUTO 10010KT 7SM 26/23 A2977 RMK T02600230 IEM_DS3505
ZGSZ,2007-09-24 17:00,ZGSZ 241700Z AUTO 07010KT 6SM 26/23 A2977 RMK T02600230 IEM_DS3505
ZGSZ,2007-09-24 18:00,ZGSZ 241800Z AUTO 09006KT 8SM 25/22 A2974 RMK 60002 SLP080 T02540223 57001 IEM_DS3505
ZGSZ,2007-09-24 19:00,ZGSZ 241900Z AUTO 07004KT 6SM 26/23 A2977 RMK T02600230 IEM_DS3505
ZGSZ,2007-09-24 20:00,ZGSZ 242000Z AUTO 08008KT 6SM 26/23 A2974 RMK T02600230 IEM_DS3505
ZGSZ,2007-09-24 21:00,ZGSZ 242100Z AUTO 07008KT 9SM 25/22 A2977 RMK 70135 SLP083 T02520223 52002 IEM_DS3505
ZGSZ,2007-09-24 22:00,ZGSZ 242200Z AUTO 09008KT 6SM 26/23 A2977 RMK T02600230 IEM_DS3505
ZGSZ,2007-09-24 23:00,ZGSZ 242300Z AUTO 6SM 26/23 A2980 RMK T02600230 IEM_DS3505
ZGSZ,2007-09-25 00:00,ZGSZ 250000Z AUTO 07006KT 10SM 26/23 A2983 RMK 60004 70125 SLP107 T02650228 52024 IEM_DS3505
ZGSZ,2007-09-25 01:00,ZGSZ 250100Z AUTO 08008KT 7SM 28/23 A2985 RMK T02800230 IEM_DS3505
ZGSZ,2007-09-25 02:00,ZGSZ 250200Z AUTO 07006KT 7SM 29/23 A2985 RMK T02900230 IEM_DS3505
ZGSZ,2007-09-25 03:00,ZGSZ 250300Z AUTO 04006KT 7SM 26/24 A2985 RMK SLP121 T02620235 52014 IEM_DS3505
ZGSZ,2007-09-25 04:00,ZGSZ 250400Z AUTO 08008KT 7SM 31/24 A2985 RMK T03100240 IEM_DS3505
ZGSZ,2007-09-25 05:00,ZGSZ 250500Z AUTO 11012KT 7SM 31/24 A2983 RMK T03100240 IEM_DS3505
ZGSZ,2007-09-25 06:00,ZGSZ 250600Z AUTO 07006KT 12SM 29/23 A2983 RMK 60020 SLP109 T02860231 57011 IEM_DS3505
ZGSZ,2007-09-25 07:00,ZGSZ 250700Z AUTO 12012KT 7SM 31/23 A2983 RMK T03100230 IEM_DS3505
ZGSZ,2007-09-25 08:00,ZGSZ 250800Z AUTO 12010KT 7SM 31/23 A2983 RMK T03100230 IEM_DS3505
ZGSZ,2007-09-25 09:00,ZGSZ 250900Z AUTO 07004KT 16SM 28/23 A2983 RMK SLP109 T02840231 54000 IEM_DS3505
ZGSZ,2007-09-25 10:00,ZGSZ 251000Z AUTO 13010KT 6SM 29/24 A2983 RMK T02900240 IEM_DS3505
ZGSZ,2007-09-25 11:00,ZGSZ 251100Z AUTO 10006KT 6SM 29/24 A2985 RMK T02900240 IEM_DS3505
ZGSZ,2007-09-25 12:00,ZGSZ 251200Z AUTO 09004KT 16SM 27/23 A2988 RMK SLP121 T02680226 52012 IEM_DS3505
ZGSZ,2007-09-25 13:00,ZGSZ 251300Z AUTO 10006KT 6SM 28/24 A2991 RMK T02800240 IEM_DS3505
ZGSZ,2007-09-25 14:00,ZGSZ 251400Z AUTO 11004KT 6SM 27/24 A2991 RMK T02700240 IEM_DS3505
ZGSZ,2007-09-25 15:00,ZGSZ 251500Z AUTO 07006KT 12SM 27/23 A2991 RMK SLP135 T02670228 52013 IEM_DS3505
ZGSZ,2007-09-25 16:00,ZGSZ 251600Z AUTO 11004KT 7SM 27/23 A2991 RMK T02700230 IEM_DS3505
ZGSZ,2007-09-25 17:00,ZGSZ 251700Z AUTO 09004KT 6SM 27/23 A2991 RMK T02700230 IEM_DS3505
ZGSZ,2007-09-25 18:00,ZGSZ 251800Z AUTO 07004KT 6SM 27/23 A2988 RMK T02700230 IEM_DS3505
ZGSZ,2007-09-25 21:00,ZGSZ 252100Z AUTO 00000KT 6SM 26/22 A2985 RMK T02600220 IEM_DS3505
ZGSZ,2007-09-25 22:00,ZGSZ 252200Z AUTO 02004KT 6SM 25/22 A2985 RMK T02500220 IEM_DS3505
ZGSZ,2007-09-25 23:00,ZGSZ 252300Z AUTO 01004KT 6SM 26/22 A2988 RMK T02600220 IEM_DS3505
ZGSZ,2007-09-26 00:00,ZGSZ 260000Z AUTO 04004KT 12SM 27/21 A2991 RMK 70018 SLP130 T02680209 52013 IEM_DS3505
ZGSZ,2007-09-26 01:00,ZGSZ 260100Z AUTO 11006KT 6SM 29/21 A2991 RMK T02900210 IEM_DS3505
ZGSZ,2007-09-26 02:00,ZGSZ 260200Z AUTO 13006KT 7SM 30/22 A2994 RMK T03000220 IEM_DS3505
ZGSZ,2007-09-26 03:00,ZGSZ 260300Z AUTO 07006KT 16SM 29/21 A2991 RMK SLP140 T02860211 52010 IEM_DS3505
ZGSZ,2007-09-26 04:00,ZGSZ 260400Z AUTO 12010KT 7SM 31/21 A2991 RMK T03100210 IEM_DS3505
ZGSZ,2007-09-26 05:00,ZGSZ 260500Z AUTO 12010KT 7SM 32/20 A2988 RMK T03200200 IEM_DS3505
ZGSZ,2007-09-26 06:00,ZGSZ 260600Z AUTO 14002KT 19SM 31/18 A2983 RMK SLP110 T03060183 57030 IEM_DS3505
ZGSZ,2007-09-26 07:00,ZGSZ 260700Z AUTO 23006KT 7SM 32/23 A2983 RMK T03200230 IEM_DS3505
ZGSZ,2007-09-26 08:00,ZGSZ 260800Z AUTO 23006KT 7SM 31/24 A2980 RMK T03100240 IEM_DS3505
ZGSZ,2007-09-26 09:00,ZGSZ 260900Z AUTO 07006KT 19SM 30/20 A2980 RMK SLP098 T03020199 57012 IEM_DS3505
ZGSZ,2007-09-26 10:00,ZGSZ 261000Z AUTO 21008KT 7SM 28/24 A2980 RMK T02800240 IEM_DS3505
ZGSZ,2007-09-26 11:00,ZGSZ 261100Z AUTO 21008KT 7SM 28/23 A2983 RMK T02800230 IEM_DS3505
ZGSZ,2007-09-26 12:00,ZGSZ 261200Z AUTO 07006KT 16SM 28/20 A2985 RMK SLP115 T02750203 52017 IEM_DS3505
ZGSZ,2007-09-26 13:00,ZGSZ 261300Z AUTO 11010KT 6SM 29/22 A2988 RMK T02900220 IEM_DS3505
ZGSZ,2007-09-26 14:00,ZGSZ 261400Z AUTO 12008KT 6SM 28/21 A2988 RMK T02800210 IEM_DS3505
ZGSZ,2007-09-26 15:00,ZGSZ 261500Z AUTO 07004KT 16SM 27/22 A2988 RMK SLP128 T02670217 52013 IEM_DS3505
ZGSZ,2007-09-26 16:00,ZGSZ 261600Z AUTO 13006KT 7SM 28/23 A2988 RMK T02800230 IEM_DS3505
ZGSZ,2007-09-26 17:00,ZGSZ 261700Z AUTO 11006KT 7SM 27/23 A2988 RMK T02700230 IEM_DS3505
ZGSZ,2007-09-26 18:00,ZGSZ 261800Z AUTO 09006KT 11SM 26/21 A2988 RMK SLP123 T02610213 57005 IEM_DS3505
ZGSZ,2007-09-26 19:00,ZGSZ 261900Z AUTO 12004KT 7SM 27/23 A2985 RMK T02700230 IEM_DS3505
ZGSZ,2007-09-26 20:00,ZGSZ 262000Z AUTO 11004KT 7SM 27/22 A2985 RMK T02700220 IEM_DS3505
ZGSZ,2007-09-26 21:00,ZGSZ 262100Z AUTO 09004KT 11SM 26/22 A2985 RMK SLP116 T02550216 57007 IEM_DS3505
ZGSZ,2007-09-26 22:00,ZGSZ 262200Z AUTO 7SM 26/23 A2988 RMK T02600230 IEM_DS3505
ZGSZ,2007-09-26 23:00,ZGSZ 262300Z AUTO 7SM 27/22 A2988 RMK T02700220 IEM_DS3505
ZGSZ,2007-09-27 00:00,ZGSZ 270000Z AUTO 04006KT 8SM 27/21 A2991 RMK SLP129 T02690214 52013 IEM_DS3505
ZGSZ,2007-09-27 01:00,ZGSZ 270100Z AUTO 05004KT 6SM 29/22 A2991 RMK T02900220 IEM_DS3505
ZGSZ,2007-09-27 02:00,ZGSZ 270200Z AUTO 28004KT 5SM 30/23 A2991 RMK T03000230 IEM_DS3505
ZGSZ,2007-09-27 03:00,ZGSZ 270300Z AUTO 11008KT 12SM 30/20 A2988 RMK SLP131 T02980195 52002 IEM_DS3505
ZGSZ,2007-09-27 04:00,ZGSZ 270400Z AUTO 23006KT 4SM 30/23 A2988 RMK T03000230 IEM_DS3505
ZGSZ,2007-09-27 05:00,ZGSZ 270500Z AUTO 24006KT 4SM 31/24 A2985 RMK T03100240 IEM_DS3505
ZGSZ,2007-09-27 06:00,ZGSZ 270600Z AUTO 25002KT 14SM 32/21 A2983 RMK SLP102 T03190208 57029 IEM_DS3505
ZGSZ,2007-09-27 07:00,ZGSZ 270700Z AUTO 21006KT 7SM 31/24 A2980 RMK T03100240 IEM_DS3505
ZGSZ,2007-09-27 08:00,ZGSZ 270800Z AUTO 20006KT 6SM 30/24 A2980 RMK T03000240 IEM_DS3505
ZGSZ,2007-09-27 09:00,ZGSZ 270900Z AUTO 22004KT 12SM 30/22 A2977 RMK SLP087 T03020221 57015 IEM_DS3505
ZGSZ,2007-09-27 10:00,ZGSZ 271000Z AUTO 19006KT 6SM 28/24 A2977 RMK T02800240 IEM_DS3505
ZGSZ,2007-09-27 11:00,ZGSZ 271100Z AUTO 18006KT 6SM 28/24 A2980 RMK T02800240 IEM_DS3505
ZGSZ,2007-09-27 12:00,ZGSZ 271200Z AUTO 16004KT 9SM 28/22 A2980 RMK SLP100 T02750222 52013 IEM_DS3505
ZGSZ,2007-09-27 13:00,ZGSZ 271300Z AUTO 16006KT 6SM 28/24 A2983 RMK T02800240 IEM_DS3505
ZGSZ,2007-09-27 14:00,ZGSZ 271400Z AUTO 13006KT 6SM 28/23 A2985 RMK T02800230 IEM_DS3505
ZGSZ,2007-09-27 15:00,ZGSZ 271500Z AUTO 09004KT 9SM 26/22 A2985 RMK SLP113 T02640220 52013 IEM_DS3505
ZGSZ,2007-09-27 16:00,ZGSZ 271600Z AUTO 11006KT 6SM 27/23 A2985 RMK T02700230 IEM_DS3505
ZGSZ,2007-09-27 17:00,ZGSZ 271700Z AUTO 12006KT 6SM 27/23 A2983 RMK T02700230 IEM_DS3505
ZGSZ,2007-09-27 18:00,ZGSZ 271800Z AUTO 07004KT 9SM 26/22 A2983 RMK SLP105 T02600223 57008 IEM_DS3505
ZGSZ,2007-09-27 19:00,ZGSZ 271900Z AUTO 00000KT 4SM 27/23 A2983 RMK T02700230 IEM_DS3505
ZGSZ,2007-09-27 20:00,ZGSZ 272000Z AUTO 14002KT 3SM 26/23 A2983 RMK T02600230 IEM_DS3505
ZGSZ,2007-09-27 21:00,ZGSZ 272100Z AUTO 09002KT 7SM 26/22 A2985 RMK SLP110 T02560223 52005 IEM_DS3505
ZGSZ,2007-09-27 22:00,ZGSZ 272200Z AUTO 3SM 26/23 A2985 RMK T02600230 IEM_DS3505
ZGSZ,2007-09-27 23:00,ZGSZ 272300Z AUTO 03002KT 4SM 26/23 A2985 RMK T02600230 IEM_DS3505
ZGSZ,2007-09-28 00:00,ZGSZ 280000Z AUTO 09004KT 4SM 27/22 A2988 RMK SLP122 T02710218 52012 IEM_DS3505
ZGSZ,2007-09-28 01:00,ZGSZ 280100Z AUTO 6SM 30/23 A2988 RMK T03000230 IEM_DS3505
ZGSZ,2007-09-28 02:00,ZGSZ 280200Z AUTO 24004KT 7SM 30/23 A2991 RMK T03000230 IEM_DS3505
ZGSZ,2007-09-28 03:00,ZGSZ 280300Z AUTO 02006KT 11SM 31/21 A2988 RMK SLP126 T03060214 52004 IEM_DS3505
ZGSZ,2007-09-28 04:00,ZGSZ 280400Z AUTO 25006KT 3SM 31/24 A2988 RMK T03100240 IEM_DS3505
ZGSZ,2007-09-28 05:00,ZGSZ 280500Z AUTO 22006KT 4SM 31/24 A2985 RMK T03100240 IEM_DS3505
ZGSZ,2007-09-28 06:00,ZGSZ 280600Z AUTO 14006KT 16SM 32/21 A2983 RMK SLP103 T03170206 57023 IEM_DS3505
ZGSZ,2007-09-28 07:00,ZGSZ 280700Z AUTO 19006KT 7SM 31/24 A2980 RMK T03100240 IEM_DS3505
ZGSZ,2007-09-28 08:00,ZGSZ 280800Z AUTO 18008KT 6SM 30/24 A2980 RMK T03000240 IEM_DS3505
ZGSZ,2007-09-28 09:00,ZGSZ 280900Z AUTO 22006KT 11SM 30/23 A2980 RMK SLP096 T03030230 57007 IEM_DS3505
ZGSZ,2007-09-28 10:00,ZGSZ 281000Z AUTO 17006KT 6SM 29/25 A2980 RMK T02900250 IEM_DS3505
ZGSZ,2007-09-28 11:00,ZGSZ 281100Z AUTO 17008KT 6SM 28/25 A2983 RMK T02800250 IEM_DS3505
ZGSZ,2007-09-28 12:00,ZGSZ 281200Z AUTO 11004KT 4SM 28/22 A2985 RMK SLP111 T02840217 52015 IEM_DS3505
ZGSZ,2007-09-28 13:00,ZGSZ 281300Z AUTO 11010KT 7SM 30/23 A2985 RMK T03000230 IEM_DS3505
ZGSZ,2007-09-28 15:00,ZGSZ 281500Z AUTO 04006KT 9SM 27/23 A2988 RMK SLP122 T02720228 52011 IEM_DS3505
ZGSZ,2007-09-28 16:00,ZGSZ 281600Z AUTO 10004KT 7SM 28/23 A2985 RMK T02800230 IEM_DS3505
ZGSZ,2007-09-28 17:00,ZGSZ 281700Z AUTO 6SM 28/23 A2985 RMK T02800230 IEM_DS3505
ZGSZ,2007-09-28 18:00,ZGSZ 281800Z AUTO 04004KT 9SM 26/23 A2985 RMK SLP109 T02640229 57013 IEM_DS3505
ZGSZ,2007-09-28 19:00,ZGSZ 281900Z AUTO 6SM 27/23 A2983 RMK T02700230 IEM_DS3505
ZGSZ,2007-09-28 20:00,ZGSZ 282000Z AUTO 03004KT 4SM 27/23 A2983 RMK T02700230 IEM_DS3505
ZGSZ,2007-09-28 21:00,ZGSZ 282100Z AUTO 04002KT 9SM 26/22 A2985 RMK SLP111 T02630224 52002 IEM_DS3505
ZGSZ,2007-09-28 22:00,ZGSZ 282200Z AUTO 5SM 27/23 A2985 RMK T02700230 IEM_DS3505
ZGSZ,2007-09-28 23:00,ZGSZ 282300Z AUTO 5SM 27/23 A2988 RMK T02700230 IEM_DS3505
ZGSZ,2007-09-29 00:00,ZGSZ 290000Z AUTO 04004KT 9SM 28/22 A2988 RMK SLP124 T02780221 52013 IEM_DS3505
ZGSZ,2007-09-29 01:00,ZGSZ 290100Z AUTO 03006KT 6SM 31/23 A2988 RMK T03100230 IEM_DS3505
ZGSZ,2007-09-29 02:00,ZGSZ 290200Z AUTO 02008KT 6SM 32/22 A2988 RMK T03200220 IEM_DS3505
ZGSZ,2007-09-29 03:00,ZGSZ 290300Z AUTO 02008KT 9SM 31/21 A2988 RMK SLP117 T03110210 57007 IEM_DS3505
ZGSZ,2007-09-29 04:00,ZGSZ 290400Z AUTO 08008KT 7SM 34/21 A2985 RMK T03400210 IEM_DS3505
ZGSZ,2007-09-29 05:00,ZGSZ 290500Z AUTO 7SM 34/21 A2983 RMK T03400210 IEM_DS3505
ZGSZ,2007-09-29 06:00,ZGSZ 290600Z AUTO 02004KT 11SM 33/20 A2980 RMK SLP092 T03270196 57025 IEM_DS3505
ZGSZ,2007-09-29 07:00,ZGSZ 290700Z AUTO 05006KT 7SM 35/20 A2977 RMK T03500200 IEM_DS3505
ZGSZ,2007-09-29 08:00,ZGSZ 290800Z AUTO 17004KT 7SM 33/24 A2980 RMK T03300240 IEM_DS3505
ZGSZ,2007-09-29 09:00,ZGSZ 290900Z AUTO 18002KT 6SM 30/23 A2980 RMK SLP094 T03040228 52002 IEM_DS3505
ZGSZ,2007-09-29 10:00,ZGSZ 291000Z AUTO 16008KT 6SM 30/25 A2980 RMK T03000250 IEM_DS3505
ZGSZ,2007-09-29 11:00,ZGSZ 291100Z AUTO 16006KT 6SM 30/24 A2983 RMK T03000240 IEM_DS3505
ZGSZ,2007-09-29 12:00,ZGSZ 291200Z AUTO 09004KT 7SM 28/22 A2983 RMK SLP110 T02850220 52016 IEM_DS3505
ZGSZ,2007-09-29 13:00,ZGSZ 291300Z AUTO 11006KT 6SM 30/23 A2985 RMK T03000230 IEM_DS3505
ZGSZ,2007-09-29 14:00,ZGSZ 291400Z AUTO 09004KT 6SM 29/23 A2985 RMK T02900230 IEM_DS3505
ZGSZ,2007-09-29 15:00,ZGSZ 291500Z AUTO 09002KT 8SM 28/22 A2985 RMK SLP111 T02770222 52001 IEM_DS3505
ZGSZ,2007-09-29 16:00,ZGSZ 291600Z AUTO 14006KT 6SM 28/23 A2983 RMK T02800230 IEM_DS3505
ZGSZ,2007-09-29 17:00,ZGSZ 291700Z AUTO 00000KT 6SM 28/23 A2983 RMK T02800230 IEM_DS3505
ZGSZ,2007-09-29 18:00,ZGSZ 291800Z AUTO 07002KT 9SM 27/23 A2980 RMK SLP098 T02710227 57012 IEM_DS3505
ZGSZ,2007-09-29 19:00,ZGSZ 291900Z AUTO 33002KT 7SM 28/24 A2980 RMK T02800240 IEM_DS3505
ZGSZ,2007-09-29 20:00,ZGSZ 292000Z AUTO 29002KT 7SM 28/25 A2980 RMK T02800250 IEM_DS3505
ZGSZ,2007-09-29 21:00,ZGSZ 292100Z AUTO 29002KT 8SM 27/23 A2980 RMK SLP091 T02690229 57008 IEM_DS3505
ZGSZ,2007-09-29 22:00,ZGSZ 292200Z AUTO 06002KT 4SM 27/24 A2980 RMK T02700240 IEM_DS3505
ZGSZ,2007-09-29 23:00,ZGSZ 292300Z AUTO 01004KT 4SM 28/24 A2980 RMK T02800240 IEM_DS3505
ZGSZ,2007-09-30 00:00,ZGSZ 300000Z AUTO 36004KT 5SM 27/23 A2980 RMK SLP095 T02740226 52004 IEM_DS3505
ZGSZ,2007-09-30 01:00,ZGSZ 300100Z AUTO 02010KT 4SM 30/22 A2980 RMK T03000220 IEM_DS3505
ZGSZ,2007-09-30 02:00,ZGSZ 300200Z AUTO 03010KT 4SM 31/22 A2980 RMK T03100220 IEM_DS3505
ZGSZ,2007-09-30 03:00,ZGSZ 300300Z AUTO 36010KT 6SM 31/20 A2980 RMK SLP086 T03090205 57009 IEM_DS3505
ZGSZ,2007-09-30 04:00,ZGSZ 300400Z AUTO 03012KT 6SM 33/21 A2977 RMK T03300210 IEM_DS3505
ZGSZ,2007-09-30 05:00,ZGSZ 300500Z AUTO 03008G19KT 7SM 33/21 A2974 RMK T03300210 IEM_DS3505
ZGSZ,2007-09-30 06:00,ZGSZ 300600Z AUTO 02008KT 9SM 32/20 A2971 RMK SLP064 T03190205 57021 IEM_DS3505
ZGSZ,2007-09-30 07:00,ZGSZ 300700Z AUTO 04010G19KT 7SM 34/21 A2968 RMK T03400210 IEM_DS3505
ZGSZ,2007-09-30 08:00,ZGSZ 300800Z AUTO 03008G17KT 7SM 33/21 A2968 RMK T03300210 IEM_DS3505
ZGSZ,2007-09-30 09:00,ZGSZ 300900Z AUTO 36004KT 11SM 32/21 A2968 RMK SLP059 T03150211 57005 IEM_DS3505
ZGSZ,2007-09-30 10:00,ZGSZ 301000Z AUTO 05006KT 7SM 32/21 A2971 RMK T03200210 IEM_DS3505
ZGSZ,2007-09-30 11:00,ZGSZ 301100Z AUTO 06004KT 7SM 32/21 A2971 RMK T03200210 IEM_DS3505
ZGSZ,2007-09-30 12:00,ZGSZ 301200Z AUTO 07004G19KT 11SM 28/23 A2974 RMK SLP075 T02830232 52015 IEM_DS3505
ZGSZ,2007-09-30 13:00,ZGSZ 301300Z AUTO 10010KT 7SM 29/24 A2974 RMK T02900240 IEM_DS3505
ZGSZ,2007-09-30 14:00,ZGSZ 301400Z AUTO 12008KT 6SM 29/24 A2974 RMK T02900240 IEM_DS3505
ZGSZ,2007-09-30 15:00,ZGSZ 301500Z AUTO 07002KT 9SM 28/23 A2974 RMK SLP071 T02820233 57003 IEM_DS3505
ZGSZ,2007-09-30 16:00,ZGSZ 301600Z AUTO 7SM 29/24 A2974 RMK T02900240 IEM_DS3505
ZGSZ,2007-09-30 17:00,ZGSZ 301700Z AUTO 08004KT 7SM 29/24 A2971 RMK T02900240 IEM_DS3505
ZGSZ,2007-09-30 18:00,ZGSZ 301800Z AUTO 04002KT 9SM 28/23 A2971 RMK SLP061 T02760232 57010 IEM_DS3505
ZGSZ,2007-09-30 19:00,ZGSZ 301900Z AUTO 03004KT 7SM 28/25 A2968 RMK T02800250 IEM_DS3505
ZGSZ,2007-09-30 20:00,ZGSZ 302000Z AUTO 02004KT 7SM 28/24 A2968 RMK T02800240 IEM_DS3505
ZGSZ,2007-09-30 21:00,ZGSZ 302100Z AUTO 04008KT 8SM 28/22 A2968 RMK SLP055 T02820222 57006 IEM_DS3505
ZGSZ,2007-09-30 22:00,ZGSZ 302200Z AUTO 02006KT 6SM 28/24 A2968 RMK T02800240 IEM_DS3505
ZGSZ,2007-09-30 23:00,ZGSZ 302300Z AUTO 03010KT 6SM 28/23 A2971 RMK T02800230 IEM_DS3505
ZGSZ,2007-10-01 00:00,ZGSZ 010000Z AUTO 04008KT 9SM 28/22 A2971 RMK SLP066 T02820217 52010 IEM_DS3505
ZGSZ,2007-10-01 01:00,ZGSZ 010100Z AUTO 04008KT 6SM 29/22 A2974 RMK T02900220 IEM_DS3505
ZGSZ,2007-10-01 02:00,ZGSZ 010200Z AUTO 04004KT 6SM 30/22 A2974 RMK T03000220 IEM_DS3505
ZGSZ,2007-10-01 03:00,ZGSZ 010300Z AUTO 36010KT 11SM 29/21 A2971 RMK SLP067 T02910211 52001 IEM_DS3505
ZGSZ,2007-10-01 04:00,ZGSZ 010400Z AUTO 04010KT 6SM 31/21 A2971 RMK T03100210 IEM_DS3505
ZGSZ,2007-10-01 05:00,ZGSZ 010500Z AUTO 04010KT 6SM 32/21 A2968 RMK T03200210 IEM_DS3505
ZGSZ,2007-10-01 06:00,ZGSZ 010600Z AUTO 02008KT 14SM 30/21 A2965 RMK SLP043 T03050213 57023 IEM_DS3505
ZGSZ,2007-10-01 07:00,ZGSZ 010700Z AUTO 04012KT 6SM 32/21 A2965 RMK T03200210 IEM_DS3505
ZGSZ,2007-10-01 08:00,ZGSZ 010800Z AUTO 03010KT 6SM 31/21 A2965 RMK T03100210 IEM_DS3505
ZGSZ,2007-10-01 09:00,ZGSZ 010900Z AUTO 02006KT 16SM 30/22 A2965 RMK SLP040 T02980220 57003 IEM_DS3505
ZGSZ,2007-10-01 10:00,ZGSZ 011000Z AUTO 04010KT 7SM 31/21 A2965 RMK T03100210 IEM_DS3505
ZGSZ,2007-10-01 11:00,ZGSZ 011100Z AUTO 04012KT 6SM 31/21 A2965 RMK T03100210 IEM_DS3505
ZGSZ,2007-10-01 12:00,ZGSZ 011200Z AUTO 07004KT 14SM 29/23 A2968 RMK SLP051 T02900232 52011 IEM_DS3505
ZGSZ,2007-10-01 13:00,ZGSZ 011300Z AUTO 06006KT 6SM 30/22 A2968 RMK T03000220 IEM_DS3505
ZGSZ,2007-10-01 14:00,ZGSZ 011400Z AUTO 08010KT 6SM 30/22 A2971 RMK T03000220 IEM_DS3505
ZGSZ,2007-10-01 15:00,ZGSZ 011500Z AUTO 07010KT 14SM 29/22 A2971 RMK SLP060 T02890222 52009 IEM_DS3505
ZGSZ,2007-10-01 16:00,ZGSZ 011600Z AUTO 05010KT 6SM 29/23 A2971 RMK T02900230 IEM_DS3505
ZGSZ,2007-10-01 17:00,ZGSZ 011700Z AUTO 05010KT 6SM 29/22 A2968 RMK T02900220 IEM_DS3505
ZGSZ,2007-10-01 18:00,ZGSZ 011800Z AUTO 04010KT 12SM 29/20 A2968 RMK SLP054 T02880203 57006 IEM_DS3505
ZGSZ,2007-10-01 19:00,ZGSZ 011900Z AUTO 05012KT 6SM 29/22 A2968 RMK T02900220 IEM_DS3505
ZGSZ,2007-10-01 20:00,ZGSZ 012000Z AUTO 06012KT 7SM 28/22 A2968 RMK T02800220 IEM_DS3505
ZGSZ,2007-10-01 21:00,ZGSZ 012100Z AUTO 07016KT 7SM 26/22 A2968 RMK 70002 SLP060 T02600217 52005 IEM_DS3505
ZGSZ,2007-10-01 22:00,ZGSZ 012200Z AUTO 07014KT 7SM 26/23 A2968 RMK T02600230 IEM_DS3505
ZGSZ,2007-10-01 23:00,ZGSZ 012300Z AUTO 06014KT 7SM 25/23 A2971 RMK T02500230 IEM_DS3505
ZGSZ,2007-10-02 00:00,ZGSZ 020000Z AUTO 04014KT 19SM 26/21 A2974 RMK 60008 70006 SLP070 T02620212 52010 IEM_DS3505
ZGSZ,2007-10-02 01:00,ZGSZ 020100Z AUTO 04010KT 7SM 27/23 A2974 RMK T02700230 IEM_DS3505
ZGSZ,2007-10-02 02:00,ZGSZ 020200Z AUTO 04014KT 7SM 27/23 A2977 RMK T02700230 IEM_DS3505
ZGSZ,2007-10-02 03:00,ZGSZ 020300Z AUTO 07012KT 19SM 28/22 A2974 RMK SLP075 T02800222 52005 IEM_DS3505
ZGSZ,2007-10-02 04:00,ZGSZ 020400Z AUTO 05012KT 7SM 28/23 A2974 RMK T02800230 IEM_DS3505
ZGSZ,2007-10-02 05:00,ZGSZ 020500Z AUTO 05014KT 7SM 28/24 A2971 RMK T02800240 IEM_DS3505
ZGSZ,2007-10-02 06:00,ZGSZ 020600Z AUTO 07006G23KT 19SM 28/22 A2968 RMK 60008 SLP059 T02850225 57015 IEM_DS3505
ZGSZ,2007-10-02 07:00,ZGSZ 020700Z AUTO 06010KT 7SM 30/24 A2968 RMK T03000240 IEM_DS3505
ZGSZ,2007-10-02 08:00,ZGSZ 020800Z AUTO 07010KT 7SM 30/23 A2968 RMK T03000230 IEM_DS3505
ZGSZ,2007-10-02 09:00,ZGSZ 020900Z AUTO 07008KT 16SM 28/22 A2968 RMK SLP061 T02800225 52001 IEM_DS3505
ZGSZ,2007-10-02 10:00,ZGSZ 021000Z AUTO 08012KT 7SM 29/23 A2971 RMK T02900230 IEM_DS3505
ZGSZ,2007-10-02 11:00,ZGSZ 021100Z AUTO 09014G23KT 7SM 29/22 A2974 RMK T02900220 IEM_DS3505
ZGSZ,2007-10-02 12:00,ZGSZ 021200Z AUTO 04012G25KT 14SM 28/22 A2974 RMK 60000 SLP078 T02760225 52017 IEM_DS3505
ZGSZ,2007-10-02 13:00,ZGSZ 021300Z AUTO 08012KT 7SM 27/23 A2977 RMK T02700230 IEM_DS3505
ZGSZ,2007-10-02 14:00,ZGSZ 021400Z AUTO 08008KT 7SM 27/23 A2980 RMK T02700230 IEM_DS3505
ZGSZ,2007-10-02 15:00,ZGSZ 021500Z AUTO 07008KT 16SM 27/22 A2980 RMK SLP091 T02690225 52013 IEM_DS3505
ZGSZ,2007-10-02 16:00,ZGSZ 021600Z AUTO 07010KT 7SM 27/23 A2980 RMK T02700230 IEM_DS3505
ZGSZ,2007-10-02 17:00,ZGSZ 021700Z AUTO 07012KT 7SM 27/23 A2977 RMK T02700230 IEM_DS3505
ZGSZ,2007-10-02 18:00,ZGSZ 021800Z AUTO 09006KT 16SM 27/22 A2977 RMK 60012 SLP081 T02690225 57010 IEM_DS3505
ZGSZ,2007-10-02 19:00,ZGSZ 021900Z AUTO 07010KT 7SM 27/23 A2977 RMK T02700230 IEM_DS3505
ZGSZ,2007-10-02 20:00,ZGSZ 022000Z AUTO 07008KT 7SM 26/23 A2977 RMK T02600230 IEM_DS3505
ZGSZ,2007-10-02 21:00,ZGSZ 022100Z AUTO 07008KT 14SM 25/22 A2977 RMK 70028 SLP083 T02520225 52002 IEM_DS3505
ZGSZ,2007-10-02 22:00,ZGSZ 022200Z AUTO 07010G19KT 7SM 26/22 A2977 RMK T02600220 IEM_DS3505
ZGSZ,2007-10-02 23:00,ZGSZ 022300Z AUTO 09010KT 3SM 25/23 A2980 RMK T02500230 IEM_DS3505
ZGSZ,2007-10-03 00:00,ZGSZ 030000Z AUTO 07006KT 9SM 25/22 A2983 RMK 60055 70073 SLP108 T02480225 52025 IEM_DS3505
ZGSZ,2007-10-03 01:00,ZGSZ 030100Z AUTO 07010KT 7SM 26/23 A2985 RMK T02600230 IEM_DS3505
ZGSZ,2007-10-03 02:00,ZGSZ 030200Z AUTO 07010KT 7SM 27/23 A2985 RMK T02700230 IEM_DS3505
ZGSZ,2007-10-03 03:00,ZGSZ 030300Z AUTO 07006KT 16SM 26/23 A2985 RMK SLP116 T02560231 52008 IEM_DS3505
ZGSZ,2007-10-03 04:00,ZGSZ 030400Z AUTO 09014KT 7SM 28/23 A2983 RMK T02800230 IEM_DS3505
ZGSZ,2007-10-03 05:00,ZGSZ 030500Z AUTO 09010KT 7SM 29/23 A2983 RMK T02900230 IEM_DS3505
ZGSZ,2007-10-03 06:00,ZGSZ 030600Z AUTO 09010KT 19SM 28/22 A2983 RMK 60020 SLP100 T02760225 57016 IEM_DS3505
ZGSZ,2007-10-03 07:00,ZGSZ 030700Z AUTO 10010KT 7SM 30/23 A2980 RMK T03000230 IEM_DS3505
ZGSZ,2007-10-03 08:00,ZGSZ 030800Z AUTO 09012KT 7SM 29/23 A2980 RMK T02900230 IEM_DS3505
ZGSZ,2007-10-03 09:00,ZGSZ 030900Z AUTO 07006KT 19SM 27/22 A2983 RMK SLP100 T02710221 54000 IEM_DS3505
ZGSZ,2007-10-03 10:00,ZGSZ 031000Z AUTO 05008KT 7SM 28/23 A2983 RMK T02800230 IEM_DS3505
ZGSZ,2007-10-03 11:00,ZGSZ 031100Z AUTO 08008KT 7SM 28/23 A2983 RMK T02800230 IEM_DS3505
ZGSZ,2007-10-03 12:00,ZGSZ 031200Z AUTO 07006KT 16SM 26/22 A2985 RMK 60000 SLP111 T02610224 52010 IEM_DS3505
ZGSZ,2007-10-03 13:00,ZGSZ 031300Z AUTO 07008G17KT 7SM 28/23 A2985 RMK T02800230 IEM_DS3505
ZGSZ,2007-10-03 14:00,ZGSZ 031400Z AUTO 09010KT 6SM 28/23 A2985 RMK T02800230 IEM_DS3505
ZGSZ,2007-10-03 15:00,ZGSZ 031500Z AUTO 09004KT 14SM 27/22 A2985 RMK SLP117 T02670225 52006 IEM_DS3505
ZGSZ,2007-10-03 16:00,ZGSZ 031600Z AUTO 08006KT 6SM 28/23 A2985 RMK T02800230 IEM_DS3505
ZGSZ,2007-10-03 17:00,ZGSZ 031700Z AUTO 06008KT 6SM 27/23 A2985 RMK T02700230 IEM_DS3505
ZGSZ,2007-10-03 18:00,ZGSZ 031800Z AUTO 11006KT 12SM 27/22 A2983 RMK SLP108 T02660220 57008 IEM_DS3505
ZGSZ,2007-10-03 19:00,ZGSZ 031900Z AUTO 08006KT 6SM 27/22 A2983 RMK T02700220 IEM_DS3505
ZGSZ,2007-10-03 20:00,ZGSZ 032000Z AUTO 03004KT 7SM 26/23 A2983 RMK T02600230 IEM_DS3505
ZGSZ,2007-10-03 21:00,ZGSZ 032100Z AUTO 07006KT 10SM 26/22 A2983 RMK 70069 SLP105 T02610215 57003 IEM_DS3505
ZGSZ,2007-10-03 22:00,ZGSZ 032200Z AUTO 06004KT 6SM 26/22 A2985 RMK T02600220 IEM_DS3505
ZGSZ,2007-10-03 23:00,ZGSZ 032300Z AUTO 01004KT 6SM 26/23 A2985 RMK T02600230 IEM_DS3505
ZGSZ,2007-10-04 00:00,ZGSZ 040000Z AUTO 07004KT 12SM 27/22 A2988 RMK 70020 SLP121 T02690219 52016 IEM_DS3505
ZGSZ,2007-10-04 01:00,ZGSZ 040100Z AUTO 10004KT 6SM 29/23 A2988 RMK T02900230 IEM_DS3505
ZGSZ,2007-10-04 02:00,ZGSZ 040200Z AUTO 07004KT 7SM 30/23 A2988 RMK T03000230 IEM_DS3505
ZGSZ,2007-10-04 03:00,ZGSZ 040300Z AUTO 14004KT 14SM 30/21 A2988 RMK SLP120 T03050210 57001 IEM_DS3505
ZGSZ,2007-10-04 04:00,ZGSZ 040400Z AUTO 27008KT 4SM 30/23 A2985 RMK T03000230 IEM_DS3505
ZGSZ,2007-10-04 05:00,ZGSZ 040500Z AUTO 30008KT 4SM 30/23 A2983 RMK T03000230 IEM_DS3505
ZGSZ,2007-10-04 06:00,ZGSZ 040600Z AUTO 34002KT 11SM 31/22 A2980 RMK SLP094 T03070220 57026 IEM_DS3505
ZGSZ,2007-10-04 07:00,ZGSZ 040700Z AUTO 25004KT 3SM 30/23 A2977 RMK T03000230 IEM_DS3505
ZGSZ,2007-10-04 08:00,ZGSZ 040800Z AUTO 20006KT 4SM 30/24 A2977 RMK T03000240 IEM_DS3505
ZGSZ,2007-10-04 09:00,ZGSZ 040900Z AUTO 22006KT 8SM 28/22 A2977 RMK SLP089 T02790222 57005 IEM_DS3505
ZGSZ,2007-10-04 10:00,ZGSZ 041000Z AUTO 17008KT 7SM 28/23 A2977 RMK T02800230 IEM_DS3505
ZGSZ,2007-10-04 11:00,ZGSZ 041100Z AUTO 18008KT 7SM 28/24 A2980 RMK T02800240 IEM_DS3505
ZGSZ,2007-10-04 12:00,ZGSZ 041200Z AUTO 16002KT 4SM 27/21 A2983 RMK SLP106 T02680211 52017 IEM_DS3505
ZGSZ,2007-10-04 13:00,ZGSZ 041300Z AUTO 16004KT 4SM 28/23 A2985 RMK T02800230 IEM_DS3505
ZGSZ,2007-10-04 14:00,ZGSZ 041400Z AUTO 16006KT 4SM 27/23 A2985 RMK T02700230 IEM_DS3505
ZGSZ,2007-10-04 15:00,ZGSZ 041500Z AUTO 32002KT 3SM 26/21 A2985 RMK SLP112 T02640209 52006 IEM_DS3505
ZGSZ,2007-10-04 16:00,ZGSZ 041600Z AUTO 18004KT 6SM 27/23 A2983 RMK T02700230 IEM_DS3505
ZGSZ,2007-10-04 17:00,ZGSZ 041700Z AUTO 21006KT 7SM 27/23 A2983 RMK T02700230 IEM_DS3505
ZGSZ,2007-10-04 18:00,ZGSZ 041800Z AUTO 36002KT 3SM 26/22 A2980 RMK SLP096 T02590216 57016 IEM_DS3505
ZGSZ,2007-10-04 19:00,ZGSZ 041900Z AUTO 26004KT 6SM 27/23 A2980 RMK T02700230 IEM_DS3505
ZGSZ,2007-10-04 20:00,ZGSZ 042000Z AUTO 31004KT 5SM 26/23 A2977 RMK T02600230 IEM_DS3505
ZGSZ,2007-10-04 21:00,ZGSZ 042100Z AUTO 18002KT 2 1/2SM 25/22 A2980 RMK SLP091 T02540219 57005 IEM_DS3505
ZGSZ,2007-10-04 22:00,ZGSZ 042200Z AUTO 30004KT 3SM 26/23 A2980 RMK T02600230 IEM_DS3505
ZGSZ,2007-10-04 23:00,ZGSZ 042300Z AUTO 28006KT 3SM 27/23 A2980 RMK T02700230 IEM_DS3505
ZGSZ,2007-10-05 00:00,ZGSZ 050000Z AUTO 29004KT 4SM 26/22 A2983 RMK SLP100 T02570224 52009 IEM_DS3505
ZGSZ,2007-10-05 01:00,ZGSZ 050100Z AUTO 30006KT 3SM 28/23 A2983 RMK T02800230 IEM_DS3505
ZGSZ,2007-10-05 02:00,ZGSZ 050200Z AUTO 31006KT 2 1/2SM 29/23 A2980 RMK T02900230 IEM_DS3505
ZGSZ,2007-10-05 03:00,ZGSZ 050300Z AUTO 32004KT 5SM 30/22 A2980 RMK SLP090 T02950215 57010 IEM_DS3505
ZGSZ,2007-10-05 04:00,ZGSZ 050400Z AUTO 28006KT 2 1/2SM 30/24 A2977 RMK T03000240 IEM_DS3505
ZGSZ,2007-10-05 05:00,ZGSZ 050500Z AUTO 28008KT 2 1/2SM 31/23 A2974 RMK T03100230 IEM_DS3505
ZGSZ,2007-10-05 06:00,ZGSZ 050600Z AUTO 36002KT 5SM 32/18 A2968 RMK SLP058 T03200182 57031 IEM_DS3505
ZGSZ,2007-10-05 07:00,ZGSZ 050700Z AUTO 02006KT 7SM 34/19 A2968 RMK T03400190 IEM_DS3505
ZGSZ,2007-10-05 08:00,ZGSZ 050800Z AUTO 30008KT 6SM 32/22 A2965 RMK T03200220 IEM_DS3505
ZGSZ,2007-10-05 09:00,ZGSZ 050900Z AUTO 36004KT 6SM 32/18 A2965 RMK SLP044 T03170183 57014 IEM_DS3505
ZGSZ,2007-10-05 10:00,ZGSZ 051000Z AUTO 00000KT 6SM 31/22 A2965 RMK T03100220 IEM_DS3505
ZGSZ,2007-10-05 11:00,ZGSZ 051100Z AUTO 00000KT 5SM 30/22 A2965 RMK T03000220 IEM_DS3505
ZGSZ,2007-10-05 12:00,ZGSZ 051200Z AUTO 20004KT 4SM 29/22 A2968 RMK SLP054 T02870220 52009 IEM_DS3505
ZGSZ,2007-10-05 13:00,ZGSZ 051300Z AUTO 00000KT 4SM 29/24 A2968 RMK T02900240 IEM_DS3505
ZGSZ,2007-10-05 14:00,ZGSZ 051400Z AUTO 00000KT 4SM 28/23 A2971 RMK T02800230 IEM_DS3505
ZGSZ,2007-10-05 15:00,ZGSZ 051500Z AUTO 25004KT 3SM 27/25 A2971 RMK SLP061 T02740247 52007 IEM_DS3505
ZGSZ,2007-10-05 16:00,ZGSZ 051600Z AUTO 00000KT 3SM 28/23 A2968 RMK T02800230 IEM_DS3505
ZGSZ,2007-10-05 18:00,ZGSZ 051800Z AUTO 27002KT 2 1/2SM 27/25 RMK SLP048 T02690247 57012 IEM_DS3505
ZGSZ,2007-10-05 19:00,ZGSZ 051900Z AUTO 00000KT 1 1/2SM 26/23 A2965 RMK T02600230 IEM_DS3505
ZGSZ,2007-10-05 20:00,ZGSZ 052000Z AUTO 33004KT 2SM 27/23 A2965 RMK T02700230 IEM_DS3505
ZGSZ,2007-10-05 21:00,ZGSZ 052100Z AUTO 25002KT 2 1/2SM 27/23 A2965 RMK SLP043 T02660231 57005 IEM_DS3505
ZGSZ,2007-10-05 22:00,ZGSZ 052200Z AUTO 31006KT 2SM 27/23 A2968 RMK T02700230 IEM_DS3505
ZGSZ,2007-10-05 23:00,ZGSZ 052300Z AUTO 36004KT 3SM 26/22 A2968 RMK T02600220 IEM_DS3505
ZGSZ,2007-10-06 00:00,ZGSZ 060000Z AUTO 32004KT 3SM 28/21 A2971 RMK SLP059 T02820207 52015 IEM_DS3505
ZGSZ,2007-10-06 01:00,ZGSZ 060100Z AUTO 32008KT 3SM 30/22 A2971 RMK T03000220 IEM_DS3505
ZGSZ,2007-10-06 02:00,ZGSZ 060200Z AUTO 31008KT 4SM 30/21 A2971 RMK T03000210 IEM_DS3505
ZGSZ,2007-10-06 03:00,ZGSZ 060300Z AUTO 32008KT 5SM 31/18 A2968 RMK SLP054 T03140184 57004 IEM_DS3505
ZGSZ,2007-10-06 04:00,ZGSZ 060400Z AUTO 30012KT 4SM 31/22 A2965 RMK T03100220 IEM_DS3505
ZGSZ,2007-10-06 05:00,ZGSZ 060500Z AUTO 30010KT 5SM 33/22 A2962 RMK T03300220 IEM_DS3505
ZGSZ,2007-10-06 06:00,ZGSZ 060600Z AUTO 32006KT 6SM 33/19 A2959 RMK SLP023 T03310192 57031 IEM_DS3505
ZGSZ,2007-10-06 07:00,ZGSZ 060700Z AUTO 29010KT 6SM 33/23 A2956 RMK T03300230 IEM_DS3505
ZGSZ,2007-10-06 08:00,ZGSZ 060800Z AUTO 29006KT 4SM 33/23 A2956 RMK T03300230 IEM_DS3505
ZGSZ,2007-10-06 09:00,ZGSZ 060900Z AUTO 29002KT 4SM 33/18 A2956 RMK SLP012 T03270181 57011 IEM_DS3505
ZGSZ,2007-10-06 10:00,ZGSZ 061000Z AUTO 30008KT 4SM 31/22 A2956 RMK T03100220 IEM_DS3505
ZGSZ,2007-10-06 11:00,ZGSZ 061100Z AUTO 32008KT 4SM 31/23 A2956 RMK T03100230 IEM_DS3505
ZGSZ,2007-10-06 12:00,ZGSZ 061200Z AUTO 32006KT 4SM 31/18 A2959 RMK SLP025 T03100180 52013 IEM_DS3505
ZGSZ,2007-10-06 13:00,ZGSZ 061300Z AUTO 31004KT 3SM 30/24 A2962 RMK T03000240 IEM_DS3505
ZGSZ,2007-10-06 14:00,ZGSZ 061400Z AUTO 34004KT 2 1/2SM 29/23 A2962 RMK T02900230 IEM_DS3505
ZGSZ,2007-10-06 15:00,ZGSZ 061500Z AUTO 29006KT 4SM 29/20 A2959 RMK SLP025 T02940197 54000 IEM_DS3505
ZGSZ,2007-10-06 16:30,ZGSZ 061630Z AUTO 32004KT 2SM 28/24 A2959 RMK T02800240 IEM_DS3505
ZGSZ,2007-10-06 17:00,ZGSZ 061700Z AUTO 31006KT 2SM 29/24 A2959 RMK T02900240 IEM_DS3505
ZGSZ,2007-10-06 18:00,ZGSZ 061800Z AUTO 34004KT 3SM 28/20 A2956 RMK SLP016 T02850197 57009 IEM_DS3505
ZGSZ,2007-10-06 19:00,ZGSZ 061900Z AUTO 33006KT 3SM 28/21 A2956 RMK T02800210 IEM_DS3505
ZGSZ,2007-10-06 20:00,ZGSZ 062000Z AUTO 33006KT 2 1/2SM 28/22 A2956 RMK T02800220 IEM_DS3505
ZGSZ,2007-10-06 21:00,ZGSZ 062100Z AUTO 36004KT 5SM 28/18 A2956 RMK SLP014 T02750182 57002 IEM_DS3505
ZGSZ,2007-10-06 22:00,ZGSZ 062200Z AUTO 33008KT 3SM 27/21 A2959 RMK T02700210 IEM_DS3505
ZGSZ,2007-10-06 23:00,ZGSZ 062300Z AUTO 33006KT 3SM 27/20 A2962 RMK T02700200 IEM_DS3505
ZGSZ,2007-10-07 00:00,ZGSZ 070000Z AUTO 29006KT 4SM 28/19 A2965 RMK SLP038 T02760189 52024 IEM_DS3505
ZGSZ,2007-10-07 01:00,ZGSZ 070100Z AUTO 31008KT 4SM 29/20 A2965 RMK T02900200 IEM_DS3505
ZGSZ,2007-10-07 02:00,ZGSZ 070200Z AUTO 31008KT 4SM 31/21 A2968 RMK T03100210 IEM_DS3505
ZGSZ,2007-10-07 03:00,ZGSZ 070300Z AUTO 27004KT 4SM 31/18 A2965 RMK SLP047 T03100177 52009 IEM_DS3505
ZGSZ,2007-10-07 04:00,ZGSZ 070400Z AUTO 30012KT 5SM 32/20 A2965 RMK T03200200 IEM_DS3505
ZGSZ,2007-10-07 05:00,ZGSZ 070500Z AUTO 30012KT 6SM 32/20 A2962 RMK T03200200 IEM_DS3505
ZGSZ,2007-10-07 06:00,ZGSZ 070600Z AUTO 32006KT 4SM 33/17 A2959 RMK SLP027 T03300172 57020 IEM_DS3505
ZGSZ,2007-10-07 07:00,ZGSZ 070700Z AUTO 30010KT 4SM 33/22 A2959 RMK T03300220 IEM_DS3505
ZGSZ,2007-10-07 08:00,ZGSZ 070800Z AUTO 29008KT 4SM 33/21 A2959 RMK T03300210 IEM_DS3505
ZGSZ,2007-10-07 09:00,ZGSZ 070900Z AUTO 25004KT 4SM 32/19 A2962 RMK SLP033 T03200186 52006 IEM_DS3505
ZGSZ,2007-10-07 10:00,ZGSZ 071000Z AUTO 27004KT 3SM 31/23 A2965 RMK T03100230 IEM_DS3505
ZGSZ,2007-10-07 11:00,ZGSZ 071100Z AUTO 25004KT 3SM 31/25 A2965 RMK T03100250 IEM_DS3505
ZGSZ,2007-10-07 12:00,ZGSZ 071200Z AUTO 20002KT 4SM 29/23 A2968 RMK SLP057 T02940231 52023 IEM_DS3505
ZGSZ,2007-10-07 13:00,ZGSZ 071300Z AUTO 2 1/2SM 30/25 A2971 RMK T03000250 IEM_DS3505
ZGSZ,2007-10-07 14:00,ZGSZ 071400Z AUTO 00000KT 3SM 29/24 A2971 RMK T02900240 IEM_DS3505
ZGSZ,2007-10-07 15:00,ZGSZ 071500Z AUTO 22004KT 2 1/2SM 29/24 A2971 RMK SLP065 T02860240 52009 IEM_DS3505
ZGSZ,2007-10-07 16:00,ZGSZ 071600Z AUTO 00000KT 2SM 29/24 A2971 RMK T02900240 IEM_DS3505
ZGSZ,2007-10-07 17:00,ZGSZ 071700Z AUTO 00000KT 2SM 28/24 A2971 RMK T02800240 IEM_DS3505
ZGSZ,2007-10-07 18:00,ZGSZ 071800Z AUTO 22004KT 2 1/2SM 28/24 A2971 RMK SLP061 T02810245 57004 IEM_DS3505
ZGSZ,2007-10-07 19:00,ZGSZ 071900Z AUTO 00000KT 2 1/2SM 29/23 A2968 RMK T02900230 IEM_DS3505
ZGSZ,2007-10-07 20:00,ZGSZ 072000Z AUTO 00000KT 2SM 28/23 A2968 RMK T02800230 IEM_DS3505
ZGSZ,2007-10-07 21:00,ZGSZ 072100Z AUTO 34002KT 2 1/2SM 28/24 A2971 RMK SLP059 T02770235 57002 IEM_DS3505
ZGSZ,2007-10-07 22:00,ZGSZ 072200Z AUTO 02006KT 3SM 29/21 A2971 RMK T02900210 IEM_DS3505
ZGSZ,2007-10-07 23:00,ZGSZ 072300Z AUTO 34004KT 3SM 28/21 A2974 RMK T02800210 IEM_DS3505
ZGSZ,2007-10-08 00:00,ZGSZ 080000Z AUTO 34004KT 3SM 28/22 A2977 RMK SLP088 T02830218 52028 IEM_DS3505
ZGSZ,2007-10-08 01:00,ZGSZ 080100Z AUTO 05006KT 2 1/2SM 31/21 A2980 RMK T03100210 IEM_DS3505
ZGSZ,2007-10-08 02:00,ZGSZ 080200Z AUTO 31008KT 2 1/2SM 31/22 A2980 RMK T03100220 IEM_DS3505
ZGSZ,2007-10-08 03:00,ZGSZ 080300Z AUTO 32006KT 2 1/2SM 31/21 A2980 RMK SLP095 T03070209 52007 IEM_DS3505
ZGSZ,2007-10-08 04:00,ZGSZ 080400Z AUTO 03008KT 2 1/2SM 33/21 A2980 RMK T03300210 IEM_DS3505
ZGSZ,2007-10-08 05:00,ZGSZ 080500Z AUTO 04010KT 2 1/2SM 33/20 A2977 RMK T03300200 IEM_DS3505
ZGSZ,2007-10-08 06:00,ZGSZ 080600Z AUTO 02008KT 3SM 31/20 A2974 RMK SLP078 T03080198 57016 IEM_DS3505
ZGSZ,2007-10-08 07:00,ZGSZ 080700Z AUTO 03006KT 2 1/2SM 32/21 A2974 RMK T03200210 IEM_DS3505
ZGSZ,2007-10-08 08:00,ZGSZ 080800Z AUTO 35008KT 3SM 33/20 A2974 RMK T03300200 IEM_DS3505
ZGSZ,2007-10-08 09:00,ZGSZ 080900Z AUTO 36006KT 4SM 30/20 A2974 RMK SLP078 T03040200 57001 IEM_DS3505
ZGSZ,2007-10-08 10:00,ZGSZ 081000Z AUTO 04010KT 4SM 31/19 A2977 RMK T03100190 IEM_DS3505
ZGSZ,2007-10-08 11:00,ZGSZ 081100Z AUTO 03010KT 4SM 30/20 A2980 RMK T03000200 IEM_DS3505
ZGSZ,2007-10-08 12:00,ZGSZ 081200Z AUTO 02006KT 3SM 28/19 A2983 RMK SLP101 T02850186 52023 IEM_DS3505
ZGSZ,2007-10-08 13:00,ZGSZ 081300Z AUTO 02010KT 4SM 29/19 A2985 RMK T02900190 IEM_DS3505
ZGSZ,2007-10-08 14:00,ZGSZ 081400Z AUTO 04010KT 5SM 28/18 A2985 RMK T02800180 IEM_DS3505
ZGSZ,2007-10-08 15:00,ZGSZ 081500Z AUTO 34006KT 4SM 27/18 A2988 RMK SLP117 T02690177 52016 IEM_DS3505
ZGSZ,2007-10-08 16:00,ZGSZ 081600Z AUTO 03010KT 6SM 27/17 A2985 RMK T02700170 IEM_DS3505
ZGSZ,2007-10-08 17:00,ZGSZ 081700Z AUTO 03010KT 6SM 26/16 A2988 RMK T02600160 IEM_DS3505
ZGSZ,2007-10-08 18:00,ZGSZ 081800Z AUTO 36006G19KT 5SM 25/16 A2988 RMK SLP116 T02500162 57001 IEM_DS3505
ZGSZ,2007-10-08 19:00,ZGSZ 081900Z AUTO 03010KT 6SM 25/16 A2988 RMK T02500160 IEM_DS3505
ZGSZ,2007-10-08 20:00,ZGSZ 082000Z AUTO 03008KT 6SM 25/15 A2988 RMK T02500150 IEM_DS3505
ZGSZ,2007-10-08 21:00,ZGSZ 082100Z AUTO 07004KT 5SM 24/16 A2988 RMK SLP124 T02350161 52008 IEM_DS3505
ZGSZ,2007-10-08 22:00,ZGSZ 082200Z AUTO 04006KT 6SM 24/15 A2991 RMK T02400150 IEM_DS3505
ZGSZ,2007-10-08 23:00,ZGSZ 082300Z AUTO 04010KT 6SM 23/15 A2994 RMK T02300150 IEM_DS3505
ZGSZ,2007-10-09 00:00,ZGSZ 090000Z AUTO 36006KT 11SM 23/14 A2994 RMK SLP143 T02300138 52018 IEM_DS3505
ZGSZ,2007-10-09 01:00,ZGSZ 090100Z AUTO 03014KT 6SM 25/14 A2997 RMK T02500140 IEM_DS3505
ZGSZ,2007-10-09 02:00,ZGSZ 090200Z AUTO 03012KT 6SM 26/14 A2997 RMK T02600140 IEM_DS3505
ZGSZ,2007-10-09 03:00,ZGSZ 090300Z AUTO 02014KT 12SM 25/13 A2994 RMK SLP143 T02510127 54000 IEM_DS3505
ZGSZ,2007-10-09 04:00,ZGSZ 090400Z AUTO 04014KT 6SM 27/14 A2991 RMK T02700140 IEM_DS3505
ZGSZ,2007-10-09 05:00,ZGSZ 090500Z AUTO 03012G23KT 6SM 29/14 A2991 RMK T02900140 IEM_DS3505
ZGSZ,2007-10-09 06:00,ZGSZ 090600Z AUTO 02010KT 12SM 28/14 A2988 RMK SLP122 T02770136 57021 IEM_DS3505
ZGSZ,2007-10-09 07:00,ZGSZ 090700Z AUTO 02008G17KT 6SM 29/14 A2985 RMK T02900140 IEM_DS3505
ZGSZ,2007-10-09 08:00,ZGSZ 090800Z AUTO 04008KT 6SM 29/15 A2985 RMK T02900150 IEM_DS3505
ZGSZ,2007-10-09 09:00,ZGSZ 090900Z AUTO 02004KT 16SM 28/14 A2985 RMK SLP114 T02750142 57008 IEM_DS3505
ZGSZ,2007-10-09 10:00,ZGSZ 091000Z AUTO 04008KT 6SM 28/14 A2985 RMK T02800140 IEM_DS3505
ZGSZ,2007-10-09 11:00,ZGSZ 091100Z AUTO 06008KT 6SM 27/15 A2985 RMK T02700150 IEM_DS3505
ZGSZ,2007-10-09 12:00,ZGSZ 091200Z AUTO 02006KT 12SM 26/14 A2988 RMK SLP125 T02600141 52011 IEM_DS3505
ZGSZ,2007-10-09 13:00,ZGSZ 091300Z AUTO 08004KT 6SM 27/15 A2991 RMK T02700150 IEM_DS3505
ZGSZ,2007-10-09 14:00,ZGSZ 091400Z AUTO 06006KT 6SM 26/14 A2991 RMK T02600140 IEM_DS3505
ZGSZ,2007-10-09 15:00,ZGSZ 091500Z AUTO 04006KT 11SM 26/14 A2991 RMK SLP134 T02570142 52009 IEM_DS3505
ZGSZ,2007-10-09 16:00,ZGSZ 091600Z AUTO 05010KT 7SM 26/14 A2991 RMK T02600140 IEM_DS3505
ZGSZ,2007-10-09 17:00,ZGSZ 091700Z AUTO 03010KT 7SM 25/14 A2991 RMK T02500140 IEM_DS3505
ZGSZ,2007-10-09 18:00,ZGSZ 091800Z AUTO 02004KT 11SM 24/14 A2991 RMK SLP130 T02410142 57004 IEM_DS3505
ZGSZ,2007-10-09 19:00,ZGSZ 091900Z AUTO 01006KT 7SM 24/14 A2991 RMK T02400140 IEM_DS3505
ZGSZ,2007-10-09 20:00,ZGSZ 092000Z AUTO 01010KT 7SM 24/14 A2991 RMK T02400140 IEM_DS3505
ZGSZ,2007-10-09 21:00,ZGSZ 092100Z AUTO 36008KT 10SM 23/14 A2991 RMK SLP131 T02300140 52001 IEM_DS3505
ZGSZ,2007-10-10 00:00,ZGSZ 100000Z AUTO 02004KT 11SM 23/14 A2997 RMK SLP149 T02290142 52018 IEM_DS3505
ZGSZ,2007-10-10 01:00,ZGSZ 100100Z AUTO 03008KT 6SM 24/15 A2997 RMK T02400150 IEM_DS3505
ZGSZ,2007-10-10 02:00,ZGSZ 100200Z AUTO 04008KT 6SM 26/15 A2997 RMK T02600150 IEM_DS3505
ZGSZ,2007-10-10 03:00,ZGSZ 100300Z AUTO 04008KT 10SM 25/15 A2997 RMK SLP151 T02490152 52002 IEM_DS3505
ZGSZ,2007-10-10 04:00,ZGSZ 100400Z AUTO 04010KT 6SM 27/16 A2994 RMK T02700160 IEM_DS3505
ZGSZ,2007-10-10 05:00,ZGSZ 100500Z AUTO 02008KT 6SM 29/16 A2991 RMK T02900160 IEM_DS3505
ZGSZ,2007-10-10 06:00,ZGSZ 100600Z AUTO 02006KT 9SM 27/17 A2991 RMK SLP130 T02740173 57021 IEM_DS3505
ZGSZ,2007-10-10 07:00,ZGSZ 100700Z AUTO 02006KT 6SM 29/17 A2988 RMK T02900170 IEM_DS3505
ZGSZ,2007-10-10 08:00,ZGSZ 100800Z AUTO 02006KT 5SM 29/17 A2988 RMK T02900170 IEM_DS3505
ZGSZ,2007-10-10 09:00,ZGSZ 100900Z AUTO 04006KT 11SM 27/18 A2988 RMK SLP124 T02710176 57006 IEM_DS3505
ZGSZ,2007-10-10 10:00,ZGSZ 101000Z AUTO 03008KT 5SM 28/18 A2991 RMK T02800180 IEM_DS3505
ZGSZ,2007-10-10 11:00,ZGSZ 101100Z AUTO 05010KT 5SM 28/17 A2991 RMK T02800170 IEM_DS3505
ZGSZ,2007-10-10 12:00,ZGSZ 101200Z AUTO 02006KT 8SM 26/18 A2994 RMK SLP143 T02640183 52019 IEM_DS3505
ZGSZ,2007-10-10 13:00,ZGSZ 101300Z AUTO 05008KT 7SM 27/18 A2997 RMK T02700180 IEM_DS3505
ZGSZ,2007-10-10 14:00,ZGSZ 101400Z AUTO 05006KT 7SM 27/18 A2997 RMK T02700180 IEM_DS3505
ZGSZ,2007-10-10 15:00,ZGSZ 101500Z AUTO 07004KT 8SM 26/18 A2997 RMK SLP155 T02560180 52012 IEM_DS3505
ZGSZ,2007-10-10 16:00,ZGSZ 101600Z AUTO 05004KT 7SM 26/18 A2997 RMK T02600180 IEM_DS3505
ZGSZ,2007-10-10 18:00,ZGSZ 101800Z AUTO 36006KT 8SM 25/18 A2994 RMK SLP144 T02480180 57011 IEM_DS3505
ZGSZ,2007-10-10 19:00,ZGSZ 101900Z AUTO 04006KT 6SM 26/18 A2994 RMK T02600180 IEM_DS3505
ZGSZ,2007-10-10 20:00,ZGSZ 102000Z AUTO 03006KT 6SM 25/17 A2994 RMK T02500170 IEM_DS3505
ZGSZ,2007-10-10 21:00,ZGSZ 102100Z AUTO 04004KT 8SM 24/17 A2994 RMK SLP142 T02380173 57002 IEM_DS3505
ZGSZ,2007-10-10 22:00,ZGSZ 102200Z AUTO 03006KT 7SM 25/17 A2994 RMK T02500170 IEM_DS3505
ZGSZ,2007-10-10 23:00,ZGSZ 102300Z AUTO 01006KT 7SM 25/17 A2997 RMK T02500170 IEM_DS3505
ZGSZ,2007-10-11 00:00,ZGSZ 110000Z AUTO 02006KT 9SM 24/17 A2997 RMK SLP156 T02420172 52014 IEM_DS3505
ZGSZ,2007-10-11 01:00,ZGSZ 110100Z AUTO 03008KT 7SM 25/17 A3000 RMK T02500170 IEM_DS3505
ZGSZ,2007-10-11 02:00,ZGSZ 110200Z AUTO 04006KT 7SM 26/17 A3000 RMK T02600170 IEM_DS3505
ZGSZ,2007-10-11 03:00,ZGSZ 110300Z AUTO 02006KT 6SM 26/19 A3000 RMK SLP166 T02620186 52010 IEM_DS3505
ZGSZ,2007-10-11 04:00,ZGSZ 110400Z AUTO 08012KT 5SM 29/19 A2997 RMK T02900190 IEM_DS3505
ZGSZ,2007-10-11 05:00,ZGSZ 110500Z AUTO 6SM 30/18 A2994 RMK T03000180 IEM_DS3505
ZGSZ,2007-10-11 06:00,ZGSZ 110600Z AUTO 02008KT 6SM 28/19 A2994 RMK 60000 SLP141 T02840188 57025 IEM_DS3505
ZGSZ,2007-10-11 07:00,ZGSZ 110700Z AUTO 6SM 30/19 A2994 RMK T03000190 IEM_DS3505
ZGSZ,2007-10-11 08:00,ZGSZ 110800Z AUTO 7SM 30/19 A2991 RMK T03000190 IEM_DS3505
ZGSZ,2007-10-11 09:00,ZGSZ 110900Z AUTO 07006KT 6SM 28/19 A2994 RMK SLP142 T02820194 52001 IEM_DS3505
ZGSZ,2007-10-11 10:00,ZGSZ 111000Z AUTO 20004KT 7SM 28/21 A2994 RMK T02800210 IEM_DS3505
ZGSZ,2007-10-11 11:00,ZGSZ 111100Z AUTO 4SM 28/21 A2994 RMK T02800210 IEM_DS3505
ZGSZ,2007-10-11 12:00,ZGSZ 111200Z AUTO 11004KT 4SM 26/21 A2997 RMK SLP158 T02620208 52016 IEM_DS3505
ZGSZ,2007-10-11 13:00,ZGSZ 111300Z AUTO 4SM 27/20 A3000 RMK T02700200 IEM_DS3505
ZGSZ,2007-10-11 14:00,ZGSZ 111400Z AUTO 3SM 27/21 A3003 RMK T02700210 IEM_DS3505
ZGSZ,2007-10-11 15:00,ZGSZ 111500Z AUTO 09006KT 4SM 26/22 A3000 RMK SLP167 T02590216 52009 IEM_DS3505
ZGSZ,2007-10-11 16:00,ZGSZ 111600Z AUTO 3SM 26/21 A3000 RMK T02600210 IEM_DS3505
ZGSZ,2007-10-11 17:00,ZGSZ 111700Z AUTO 00000KT 3SM 26/21 A3000 RMK T02600210 IEM_DS3505
ZGSZ,2007-10-11 18:00,ZGSZ 111800Z AUTO 07004KT 4SM 26/22 A2997 RMK SLP158 T02570216 57009 IEM_DS3505
ZGSZ,2007-10-11 19:00,ZGSZ 111900Z AUTO 07002KT 2 1/2SM 26/22 A2997 RMK T02600220 IEM_DS3505
ZGSZ,2007-10-11 20:00,ZGSZ 112000Z AUTO 03002KT 2SM 26/22 A2997 RMK T02600220 IEM_DS3505
ZGSZ,2007-10-11 21:00,ZGSZ 112100Z AUTO 02004KT 3SM 25/21 A2997 RMK 70000 SLP156 T02520213 57002 IEM_DS3505
ZGSZ,2007-10-11 22:00,ZGSZ 112200Z AUTO 07006KT 2 1/2SM 26/22 A3000 RMK T02600220 IEM_DS3505
ZGSZ,2007-10-11 23:00,ZGSZ 112300Z AUTO 07008KT 2 1/2SM 26/20 A3000 RMK T02600200 IEM_DS3505
ZGSZ,2007-10-12 00:00,ZGSZ 120000Z AUTO 04006KT 4SM 25/21 A3003 RMK 70000 SLP170 T02530210 52014 IEM_DS3505
ZGSZ,2007-10-12 01:00,ZGSZ 120100Z AUTO 03006KT 5SM 27/20 A3003 RMK T02700200 IEM_DS3505
ZGSZ,2007-10-12 02:00,ZGSZ 120200Z AUTO 07006KT 7SM 28/20 A3003 RMK T02800200 IEM_DS3505
ZGSZ,2007-10-12 03:00,ZGSZ 120300Z AUTO 07004KT 5SM 27/21 A3003 RMK SLP174 T02680209 52004 IEM_DS3505
ZGSZ,2007-10-12 04:00,ZGSZ 120400Z AUTO 08008KT 7SM 30/20 A3000 RMK T03000200 IEM_DS3505
ZGSZ,2007-10-12 05:00,ZGSZ 120500Z AUTO 08006KT 7SM 30/20 A3000 RMK T03000200 IEM_DS3505
ZGSZ,2007-10-12 06:00,ZGSZ 120600Z AUTO 36002KT 2 1/2SM 25/22 A2997 RMK 60003 SLP158 T02520221 57016 IEM_DS3505
ZGSZ,2007-10-12 07:00,ZGSZ 120700Z AUTO 08010KT 7SM 29/19 A2997 RMK T02900190 IEM_DS3505
ZGSZ,2007-10-12 09:00,ZGSZ 120900Z AUTO 04002KT 2 1/2SM 26/21 A3000 RMK SLP160 T02580212 52002 IEM_DS3505
ZGSZ,2007-10-12 10:00,ZGSZ 121000Z AUTO 03004KT 3SM 25/22 A3000 RMK T02500220 IEM_DS3505
ZGSZ,2007-10-12 11:00,ZGSZ 121100Z AUTO 3SM 26/22 A3000 RMK T02600220 IEM_DS3505
ZGSZ,2007-10-12 12:00,ZGSZ 121200Z AUTO 09004KT 2 1/2SM 25/21 A3003 RMK 60000 SLP173 T02510206 52013 IEM_DS3505
ZGSZ,2007-10-12 13:00,ZGSZ 121300Z AUTO 10004KT 4SM 26/21 A3003 RMK T02600210 IEM_DS3505
ZGSZ,2007-10-12 14:00,ZGSZ 121400Z AUTO 03004KT 3SM 25/22 A3003 RMK T02500220 IEM_DS3505
ZGSZ,2007-10-12 15:00,ZGSZ 121500Z AUTO 36002KT 3SM 26/20 A3003 RMK SLP176 T02550205 52003 IEM_DS3505
ZGSZ,2007-10-12 16:00,ZGSZ 121600Z AUTO 07004KT 3SM 26/22 A3003 RMK T02600220 IEM_DS3505
ZGSZ,2007-10-12 17:00,ZGSZ 121700Z AUTO 03002KT 3SM 25/22 A3003 RMK T02500220 IEM_DS3505
ZGSZ,2007-10-12 18:00,ZGSZ 121800Z AUTO 02002KT 2 1/2SM 25/20 A3000 RMK SLP164 T02520205 57012 IEM_DS3505
ZGSZ,2007-10-12 19:00,ZGSZ 121900Z AUTO 01002KT 3SM 26/22 A3000 RMK T02600220 IEM_DS3505
ZGSZ,2007-10-12 20:00,ZGSZ 122000Z AUTO 03004KT 2 1/2SM 25/22 A3000 RMK T02500220 IEM_DS3505
ZGSZ,2007-10-12 21:00,ZGSZ 122100Z AUTO 04004KT 2 1/2SM 25/20 A3000 RMK 70004 SLP159 T02490202 57005 IEM_DS3505
ZGSZ,2007-10-12 22:00,ZGSZ 122200Z AUTO 2 1/2SM 25/22 A3000 RMK T02500220 IEM_DS3505
ZGSZ,2007-10-12 23:00,ZGSZ 122300Z AUTO 00000KT 2 1/2SM 26/21 A3003 RMK T02600210 IEM_DS3505
ZGSZ,2007-10-13 00:00,ZGSZ 130000Z AUTO 36004KT 3SM 25/19 A3003 RMK 70004 SLP174 T02520193 52015 IEM_DS3505
ZGSZ,2007-10-13 01:00,ZGSZ 130100Z AUTO 04004KT 3SM 27/21 A3006 RMK T02700210 IEM_DS3505
ZGSZ,2007-10-13 02:00,ZGSZ 130200Z AUTO 04006KT 4SM 28/20 A3006 RMK T02800200 IEM_DS3505
ZGSZ,2007-10-13 03:00,ZGSZ 130300Z AUTO 04004KT 5SM 28/19 A3003 RMK SLP176 T02780193 52002 IEM_DS3505
ZGSZ,2007-10-13 04:00,ZGSZ 130400Z AUTO 02010KT 4SM 30/19 A3003 RMK T03000190 IEM_DS3505
ZGSZ,2007-10-13 05:00,ZGSZ 130500Z AUTO 03008KT 4SM 29/18 A3000 RMK T02900180 IEM_DS3505
ZGSZ,2007-10-13 06:00,ZGSZ 130600Z AUTO 02004KT 6SM 28/19 A2997 RMK SLP158 T02820192 57018 IEM_DS3505
ZGSZ,2007-10-13 07:00,ZGSZ 130700Z AUTO 04006KT 4SM 30/19 A2997 RMK T03000190 IEM_DS3505
ZGSZ,2007-10-13 08:00,ZGSZ 130800Z AUTO 04008KT 4SM 30/19 A2997 RMK T03000190 IEM_DS3505
ZGSZ,2007-10-13 09:00,ZGSZ 130900Z AUTO 11008KT 7SM 27/19 A2997 RMK SLP158 T02730186 54000 IEM_DS3505
ZGSZ,2007-10-13 10:00,ZGSZ 131000Z AUTO 7SM 29/19 A3000 RMK T02900190 IEM_DS3505
ZGSZ,2007-10-13 11:00,ZGSZ 131100Z AUTO 10010KT 4SM 26/22 A3000 RMK T02600220 IEM_DS3505
ZGSZ,2007-10-13 12:00,ZGSZ 131200Z AUTO 11004KT 4SM 25/20 A3003 RMK SLP174 T02530203 52016 IEM_DS3505
ZGSZ,2007-10-13 13:00,ZGSZ 131300Z AUTO 11010KT 3SM 26/21 A3003 RMK T02600210 IEM_DS3505
ZGSZ,2007-10-13 14:00,ZGSZ 131400Z AUTO 3SM 26/21 A3003 RMK T02600210 IEM_DS3505
ZGSZ,2007-10-13 15:00,ZGSZ 131500Z AUTO 11004KT 3SM 25/20 A3003 RMK SLP176 T02510199 52002 IEM_DS3505
ZGSZ,2007-10-13 16:00,ZGSZ 131600Z AUTO 11004KT 3SM 26/22 A3003 RMK T02600220 IEM_DS3505
ZGSZ,2007-10-13 17:00,ZGSZ 131700Z AUTO 09002KT 3SM 26/22 A3003 RMK T02600220 IEM_DS3505
ZGSZ,2007-10-13 18:00,ZGSZ 131800Z AUTO 07004KT 3SM 25/21 A3000 RMK SLP167 T02510206 57009 IEM_DS3505
ZGSZ,2007-10-13 19:00,ZGSZ 131900Z AUTO 05002KT 3SM 25/20 A3000 RMK T02500200 IEM_DS3505
ZGSZ,2007-10-13 20:00,ZGSZ 132000Z AUTO 05004KT 3SM 25/20 A3000 RMK T02500200 IEM_DS3505
ZGSZ,2007-10-13 21:00,ZGSZ 132100Z AUTO 02006KT 3SM 25/20 A3000 RMK 70000 SLP165 T02460199 57002 IEM_DS3505
ZGSZ,2007-10-13 22:00,ZGSZ 132200Z AUTO 07004KT 2 1/2SM 25/20 A3003 RMK T02500200 IEM_DS3505
ZGSZ,2007-10-13 23:00,ZGSZ 132300Z AUTO 06006KT 2 1/2SM 25/19 A3006 RMK T02500190 IEM_DS3505
ZGSZ,2007-10-14 00:00,ZGSZ 140000Z AUTO 02004KT 2 1/2SM 24/18 A3006 RMK 60000 70000 SLP186 T02440176 52021 IEM_DS3505
ZGSZ,2007-10-14 01:00,ZGSZ 140100Z AUTO 04010KT 3SM 26/17 A3009 RMK T02600170 IEM_DS3505
ZGSZ,2007-10-14 02:00,ZGSZ 140200Z AUTO 02012KT 2 1/2SM 27/18 A3009 RMK T02700180 IEM_DS3505
ZGSZ,2007-10-14 03:00,ZGSZ 140300Z AUTO 36008KT 2 1/2SM 26/18 A3006 RMK SLP186 T02630177 54000 IEM_DS3505
ZGSZ,2007-10-14 04:00,ZGSZ 140400Z AUTO 03010KT 3SM 29/18 A3006 RMK T02900180 IEM_DS3505
ZGSZ,2007-10-14 05:00,ZGSZ 140500Z AUTO 03010KT 3SM 29/18 A3003 RMK T02900180 IEM_DS3505
ZGSZ,2007-10-14 06:00,ZGSZ 140600Z AUTO 34008KT 2 1/2SM 28/18 A3000 RMK SLP168 T02780179 57018 IEM_DS3505
ZGSZ,2007-10-14 07:00,ZGSZ 140700Z AUTO 06006KT 3SM 29/17 A3000 RMK T02900170 IEM_DS3505
ZGSZ,2007-10-14 08:00,ZGSZ 140800Z AUTO 05010KT 3SM 29/17 A3000 RMK T02900170 IEM_DS3505
ZGSZ,2007-10-14 09:00,ZGSZ 140900Z AUTO 02008KT 2 1/2SM 27/17 A3000 RMK SLP167 T02710173 57001 IEM_DS3505
ZGSZ,2007-10-14 10:00,ZGSZ 141000Z AUTO 05006KT 3SM 28/18 A3003 RMK T02800180 IEM_DS3505
ZGSZ,2007-10-14 11:00,ZGSZ 141100Z AUTO 03006KT 3SM 28/18 A3003 RMK T02800180 IEM_DS3505
ZGSZ,2007-10-14 12:00,ZGSZ 141200Z AUTO 04004KT 1 1/2SM 26/18 A3006 RMK SLP183 T02640175 52016 IEM_DS3505
ZGSZ,2007-10-14 13:00,ZGSZ 141300Z AUTO 02006KT 3SM 27/17 A3006 RMK T02700170 IEM_DS3505
ZGSZ,2007-10-14 14:00,ZGSZ 141400Z AUTO 05008G17KT 2 1/2SM 27/17 A3009 RMK T02700170 IEM_DS3505
ZGSZ,2007-10-14 15:00,ZGSZ 141500Z AUTO 04006KT 1 1/4SM 25/16 A3009 RMK SLP195 T02510157 52012 IEM_DS3505
ZGSZ,2007-10-14 16:00,ZGSZ 141600Z AUTO 03008KT 2 1/2SM 25/16 A3009 RMK T02500160 IEM_DS3505
ZGSZ,2007-10-14 17:00,ZGSZ 141700Z AUTO 04008KT 2SM 25/16 A3009 RMK T02500160 IEM_DS3505
ZGSZ,2007-10-14 18:00,ZGSZ 141800Z AUTO 36004KT 1 1/2SM 24/16 A3009 RMK SLP187 T02370155 57008 IEM_DS3505
ZGSZ,2007-10-14 19:00,ZGSZ 141900Z AUTO 02008KT 2 1/2SM 24/15 A3006 RMK T02400150 IEM_DS3505
ZGSZ,2007-10-14 20:00,ZGSZ 142000Z AUTO 02010KT 2 1/2SM 24/15 A3006 RMK T02400150 IEM_DS3505
ZGSZ,2007-10-14 21:00,ZGSZ 142100Z AUTO 02010KT 1 1/2SM 23/15 A3006 RMK SLP182 T02270148 57005 IEM_DS3505
ZGSZ,2007-10-14 22:00,ZGSZ 142200Z AUTO 03008KT 2 1/2SM 23/15 A3009 RMK T02300150 IEM_DS3505
ZGSZ,2007-10-14 23:00,ZGSZ 142300Z AUTO 03008KT 2 1/2SM 23/15 A3009 RMK T02300150 IEM_DS3505
ZGSZ,2007-10-15 00:00,ZGSZ 150000Z AUTO 04010KT 2SM 23/15 A3012 RMK SLP200 T02290152 52018 IEM_DS3505
ZGSZ,2007-10-15 01:00,ZGSZ 150100Z AUTO 03010KT 2 1/2SM 25/16 A3012 RMK T02500160 IEM_DS3505
ZGSZ,2007-10-15 02:00,ZGSZ 150200Z AUTO 03008KT 2 1/2SM 26/16 A3015 RMK T02600160 IEM_DS3505
ZGSZ,2007-10-15 03:00,ZGSZ 150300Z AUTO 02010KT 2SM 26/15 A3012 RMK SLP204 T02560153 52004 IEM_DS3505
ZGSZ,2007-10-15 04:00,ZGSZ 150400Z AUTO 02010KT 3SM 28/16 A3009 RMK T02800160 IEM_DS3505
ZGSZ,2007-10-15 05:00,ZGSZ 150500Z AUTO 05010KT 3SM 28/16 A3009 RMK T02800160 IEM_DS3505
ZGSZ,2007-10-15 06:00,ZGSZ 150600Z AUTO 36010KT 4SM 27/16 A3006 RMK SLP180 T02690162 57024 IEM_DS3505
ZGSZ,2007-10-15 07:00,ZGSZ 150700Z AUTO 02010KT 3SM 28/16 A3006 RMK T02800160 IEM_DS3505
ZGSZ,2007-10-15 08:00,ZGSZ 150800Z AUTO 03010KT 3SM 28/16 A3006 RMK T02800160 IEM_DS3505
ZGSZ,2007-10-15 09:00,ZGSZ 150900Z AUTO 36008KT 4SM 26/15 A3006 RMK SLP182 T02570151 52002 IEM_DS3505
ZGSZ,2007-10-15 10:00,ZGSZ 151000Z AUTO 03012KT 3SM 25/15 A3009 RMK T02500150 IEM_DS3505
ZGSZ,2007-10-15 11:00,ZGSZ 151100Z AUTO 03012KT 3SM 25/15 A3009 RMK T02500150 IEM_DS3505
ZGSZ,2007-10-15 12:00,ZGSZ 151200Z AUTO 36006KT 4SM 24/15 A3012 RMK SLP201 T02380150 52018 IEM_DS3505
ZGSZ,2007-10-15 13:00,ZGSZ 151300Z AUTO 04008KT 3SM 24/15 A3012 RMK T02400150 IEM_DS3505
ZGSZ,2007-10-15 14:00,ZGSZ 151400Z AUTO 02010KT 3SM 24/15 A3012 RMK T02400150 IEM_DS3505
ZGSZ,2007-10-15 15:00,ZGSZ 151500Z AUTO 36004KT 5SM 23/15 A3015 RMK SLP206 T02280151 52005 IEM_DS3505
ZGSZ,2007-10-15 16:00,ZGSZ 151600Z AUTO 02008KT 3SM 23/15 A3015 RMK T02300150 IEM_DS3505
ZGSZ,2007-10-15 17:00,ZGSZ 151700Z AUTO 02012KT 3SM 23/15 A3012 RMK T02300150 IEM_DS3505
ZGSZ,2007-10-15 18:00,ZGSZ 151800Z AUTO 02006KT 5SM 22/14 A3012 RMK SLP201 T02230142 57005 IEM_DS3505
ZGSZ,2007-10-15 19:00,ZGSZ 151900Z AUTO 02010KT 3SM 22/14 A3009 RMK T02200140 IEM_DS3505
ZGSZ,2007-10-15 20:00,ZGSZ 152000Z AUTO 03010KT 4SM 22/14 A3009 RMK T02200140 IEM_DS3505
ZGSZ,2007-10-15 21:00,ZGSZ 152100Z AUTO 36004KT 5SM 22/14 A3009 RMK SLP193 T02170144 57008 IEM_DS3505
ZGSZ,2007-10-15 22:00,ZGSZ 152200Z AUTO 03008KT 3SM 22/14 A3012 RMK T02200140 IEM_DS3505
ZGSZ,2007-10-15 23:00,ZGSZ 152300Z AUTO 02010KT 4SM 22/14 A3012 RMK T02200140 IEM_DS3505
ZGSZ,2007-10-16 00:00,ZGSZ 160000Z AUTO 02008KT 4SM 22/14 A3012 RMK SLP205 T02210140 52012 IEM_DS3505
ZGSZ,2007-10-16 01:00,ZGSZ 160100Z AUTO 01008KT 4SM 24/15 A3015 RMK T02400150 IEM_DS3505
ZGSZ,2007-10-16 02:00,ZGSZ 160200Z AUTO 05010KT 4SM 26/15 A3012 RMK T02600150 IEM_DS3505
ZGSZ,2007-10-16 03:00,ZGSZ 160300Z AUTO 02010KT 5SM 25/14 A3012 RMK SLP200 T02540145 57005 IEM_DS3505
ZGSZ,2007-10-16 04:00,ZGSZ 160400Z AUTO 03012KT 4SM 28/14 A3009 RMK T02800140 IEM_DS3505
ZGSZ,2007-10-16 05:00,ZGSZ 160500Z AUTO 04010KT 5SM 28/14 A3006 RMK T02800140 IEM_DS3505
ZGSZ,2007-10-16 06:00,ZGSZ 160600Z AUTO 36008KT 6SM 26/14 A3003 RMK SLP176 T02650136 57023 IEM_DS3505
ZGSZ,2007-10-16 07:00,ZGSZ 160700Z AUTO 04010KT 7SM 28/14 A3003 RMK T02800140 IEM_DS3505
ZGSZ,2007-10-16 08:00,ZGSZ 160800Z AUTO 03010KT 7SM 28/15 A3003 RMK T02800150 IEM_DS3505
ZGSZ,2007-10-16 09:00,ZGSZ 160900Z AUTO 36008KT 7SM 26/13 A3003 RMK SLP177 T02560128 54000 IEM_DS3505
ZGSZ,2007-10-16 10:00,ZGSZ 161000Z AUTO 05006KT 5SM 26/15 A3003 RMK T02600150 IEM_DS3505
ZGSZ,2007-10-16 11:00,ZGSZ 161100Z AUTO 06008KT 5SM 26/15 A3006 RMK T02600150 IEM_DS3505
ZGSZ,2007-10-16 12:00,ZGSZ 161200Z AUTO 02006KT 9SM 24/13 A3009 RMK SLP188 T02440130 52011 IEM_DS3505
ZGSZ,2007-10-16 13:00,ZGSZ 161300Z AUTO 04010KT 5SM 25/14 A3009 RMK T02500140 IEM_DS3505
ZGSZ,2007-10-16 14:00,ZGSZ 161400Z AUTO 03014G23KT 4SM 24/14 A3009 RMK T02400140 IEM_DS3505
ZGSZ,2007-10-16 15:00,ZGSZ 161500Z AUTO 02006KT 7SM 22/13 A3012 RMK SLP197 T02250130 52009 IEM_DS3505
ZGSZ,2007-10-16 16:00,ZGSZ 161600Z AUTO 03012KT 4SM 23/13 A3009 RMK T02300130 IEM_DS3505
ZGSZ,2007-10-16 17:00,ZGSZ 161700Z AUTO 03008KT 4SM 22/13 A3009 RMK T02200130 IEM_DS3505
ZGSZ,2007-10-16 18:00,ZGSZ 161800Z AUTO 02010KT 7SM 22/12 A3006 RMK SLP183 T02180118 57013 IEM_DS3505
ZGSZ,2007-10-16 19:00,ZGSZ 161900Z AUTO 02008KT 4SM 22/12 A3006 RMK T02200120 IEM_DS3505
ZGSZ,2007-10-16 20:00,ZGSZ 162000Z AUTO 02008KT 4SM 22/12 A3006 RMK T02200120 IEM_DS3505
ZGSZ,2007-10-16 21:00,ZGSZ 162100Z AUTO 34002KT 7SM 21/12 A3006 RMK SLP182 T02100116 57002 IEM_DS3505
ZGSZ,2007-10-16 22:00,ZGSZ 162200Z AUTO 04008KT 4SM 21/11 A3009 RMK T02100110 IEM_DS3505
ZGSZ,2007-10-16 23:00,ZGSZ 162300Z AUTO 04006KT 4SM 21/11 A3012 RMK T02100110 IEM_DS3505
ZGSZ,2007-10-17 00:00,ZGSZ 170000Z AUTO 04004KT 7SM 22/11 A3012 RMK SLP201 T02150109 52019 IEM_DS3505
ZGSZ,2007-10-17 01:00,ZGSZ 170100Z AUTO 01010KT 4SM 23/11 A3012 RMK T02300110 IEM_DS3505
ZGSZ,2007-10-17 02:00,ZGSZ 170200Z AUTO 01008KT 4SM 25/12 A3012 RMK T02500120 IEM_DS3505
ZGSZ,2007-10-17 03:00,ZGSZ 170300Z AUTO 34004KT 6SM 25/13 A3012 RMK SLP197 T02520128 57004 IEM_DS3505
ZGSZ,2007-10-17 04:00,ZGSZ 170400Z AUTO 02008KT 4SM 27/12 A3006 RMK T02700120 IEM_DS3505
ZGSZ,2007-10-17 05:00,ZGSZ 170500Z AUTO 04008KT 4SM 28/12 A3006 RMK T02800120 IEM_DS3505
ZGSZ,2007-10-17 06:00,ZGSZ 170600Z AUTO 07006KT 5SM 26/12 A3003 RMK SLP168 T02630124 57028 IEM_DS3505
ZGSZ,2007-10-17 07:00,ZGSZ 170700Z AUTO 07006KT 4SM 28/12 A3000 RMK T02800120 IEM_DS3505
ZGSZ,2007-10-17 08:00,ZGSZ 170800Z AUTO 05006KT 4SM 27/12 A3000 RMK T02700120 IEM_DS3505
ZGSZ,2007-10-17 09:00,ZGSZ 170900Z AUTO 04004KT 5SM 26/12 A3000 RMK SLP165 T02590124 57004 IEM_DS3505
ZGSZ,2007-10-17 10:00,ZGSZ 171000Z AUTO 04006KT 4SM 27/13 A3000 RMK T02700130 IEM_DS3505
ZGSZ,2007-10-17 11:00,ZGSZ 171100Z AUTO 06008KT 4SM 26/13 A3003 RMK T02600130 IEM_DS3505
ZGSZ,2007-10-17 12:00,ZGSZ 171200Z AUTO 04004KT 4SM 25/12 A3003 RMK SLP178 T02470123 52013 IEM_DS3505
ZGSZ,2007-10-17 13:00,ZGSZ 171300Z AUTO 04006KT 4SM 26/12 A3006 RMK T02600120 IEM_DS3505
ZGSZ,2007-10-17 14:00,ZGSZ 171400Z AUTO 05006KT 5SM 25/12 A3006 RMK T02500120 IEM_DS3505
ZGSZ,2007-10-17 15:00,ZGSZ 171500Z AUTO 04004KT 5SM 24/12 A3006 RMK SLP181 T02390125 52004 IEM_DS3505
ZGSZ,2007-10-17 16:00,ZGSZ 171600Z AUTO 12004KT 5SM 25/13 A3003 RMK T02500130 IEM_DS3505
ZGSZ,2007-10-17 17:00,ZGSZ 171700Z AUTO 4SM 24/14 A3003 RMK T02400140 IEM_DS3505
ZGSZ,2007-10-17 18:00,ZGSZ 171800Z AUTO 07004KT 4SM 23/14 A3003 RMK SLP167 T02270135 57014 IEM_DS3505
ZGSZ,2007-10-17 19:00,ZGSZ 171900Z AUTO 05004KT 4SM 23/13 A3003 RMK T02300130 IEM_DS3505
ZGSZ,2007-10-17 21:00,ZGSZ 172100Z AUTO 02004KT 4SM 22/14 RMK SLP167 T02180142 54000 IEM_DS3505
ZGSZ,2007-10-17 23:00,ZGSZ 172300Z AUTO 01006KT 3SM 22/12 A3006 RMK T02200120 IEM_DS3505
ZGSZ,2007-10-18 00:00,ZGSZ 180000Z AUTO 02006KT 4SM 22/14 A3006 RMK SLP186 T02200136 52018 IEM_DS3505
ZGSZ,2007-10-18 01:00,ZGSZ 180100Z AUTO 02004KT 3SM 24/12 A3009 RMK T02400120 IEM_DS3505
ZGSZ,2007-10-18 02:00,ZGSZ 180200Z AUTO 08006KT 4SM 25/13 A3009 RMK T02500130 IEM_DS3505
ZGSZ,2007-10-18 03:00,ZGSZ 180300Z AUTO 11004KT 4SM 25/14 A3006 RMK SLP186 T02500139 52001 IEM_DS3505
ZGSZ,2007-10-18 04:00,ZGSZ 180400Z AUTO 10004KT 4SM 28/13 A3003 RMK T02800130 IEM_DS3505
ZGSZ,2007-10-18 05:00,ZGSZ 180500Z AUTO 5SM 28/14 A3000 RMK T02800140 IEM_DS3505
ZGSZ,2007-10-18 06:00,ZGSZ 180600Z AUTO 34004KT 4SM 28/13 A2997 RMK SLP155 T02750131 57031 IEM_DS3505
ZGSZ,2007-10-18 07:00,ZGSZ 180700Z AUTO 02006KT 6SM 29/11 A2997 RMK T02900110 IEM_DS3505
ZGSZ,2007-10-18 08:00,ZGSZ 180800Z AUTO 05008KT 6SM 28/11 A2997 RMK T02800110 IEM_DS3505
ZGSZ,2007-10-18 09:00,ZGSZ 180900Z AUTO 11004KT 4SM 26/16 A2997 RMK SLP152 T02640155 57003 IEM_DS3505
ZGSZ,2007-10-18 10:00,ZGSZ 181000Z AUTO 03006KT 4SM 27/12 A2997 RMK T02700120 IEM_DS3505
ZGSZ,2007-10-18 11:00,ZGSZ 181100Z AUTO 06006KT 4SM 26/12 A3000 RMK T02600120 IEM_DS3505
ZGSZ,2007-10-18 12:00,ZGSZ 181200Z AUTO 09004KT 3SM 24/16 A3000 RMK SLP170 T02430163 52017 IEM_DS3505
ZGSZ,2007-10-18 13:00,ZGSZ 181300Z AUTO 11004KT 2 1/2SM 25/15 A3003 RMK T02500150 IEM_DS3505
ZGSZ,2007-10-18 14:00,ZGSZ 181400Z AUTO 2 1/2SM 25/17 A3003 RMK T02500170 IEM_DS3505
ZGSZ,2007-10-18 15:00,ZGSZ 181500Z AUTO 07004KT 3SM 23/17 A3003 RMK SLP178 T02330171 52009 IEM_DS3505
ZGSZ,2007-10-18 16:00,ZGSZ 181600Z AUTO 3SM 24/17 A3003 RMK T02400170 IEM_DS3505
ZGSZ,2007-10-18 17:00,ZGSZ 181700Z AUTO 07004KT 3SM 23/17 A3003 RMK T02300170 IEM_DS3505
ZGSZ,2007-10-18 18:00,ZGSZ 181800Z AUTO 36002KT 3SM 22/18 A3003 RMK SLP174 T02210177 57004 IEM_DS3505
ZGSZ,2007-10-18 19:00,ZGSZ 181900Z AUTO 00000KT 2 1/2SM 22/18 A3003 RMK T02200180 IEM_DS3505
ZGSZ,2007-10-18 20:00,ZGSZ 182000Z AUTO 03006KT 2SM 22/18 A3003 RMK T02200180 IEM_DS3505
ZGSZ,2007-10-18 21:00,ZGSZ 182100Z AUTO 36004KT 2 1/2SM 21/18 A3006 RMK SLP180 T02140176 52005 IEM_DS3505
ZGSZ,2007-10-18 22:00,ZGSZ 182200Z AUTO 02006KT 2 1/2SM 22/17 A3006 RMK T02200170 IEM_DS3505
ZGSZ,2007-10-18 23:00,ZGSZ 182300Z AUTO 02006KT 2 1/2SM 21/17 A3009 RMK T02100170 IEM_DS3505
ZGSZ,2007-10-19 00:00,ZGSZ 190000Z AUTO 04006KT 4SM 23/11 A3012 RMK SLP201 T02260110 52021 IEM_DS3505
ZGSZ,2007-10-19 01:00,ZGSZ 190100Z AUTO 02010KT 4SM 25/13 A3012 RMK T02500130 IEM_DS3505
ZGSZ,2007-10-19 02:00,ZGSZ 190200Z AUTO 04010KT 4SM 26/12 A3012 RMK T02600120 IEM_DS3505
ZGSZ,2007-10-19 03:00,ZGSZ 190300Z AUTO 02010KT 5SM 26/09 A3012 RMK SLP197 T02560094 57004 IEM_DS3505
ZGSZ,2007-10-19 04:00,ZGSZ 190400Z AUTO 01010KT 5SM 28/10 A3006 RMK T02800100 IEM_DS3505
ZGSZ,2007-10-19 05:00,ZGSZ 190500Z AUTO 03006KT 5SM 28/10 A3003 RMK T02800100 IEM_DS3505
ZGSZ,2007-10-19 06:00,ZGSZ 190600Z AUTO 36010KT 5SM 28/08 A3000 RMK SLP163 T02770081 57033 IEM_DS3505
ZGSZ,2007-10-19 07:00,ZGSZ 190700Z AUTO 35010KT 6SM 29/08 A2997 RMK T02900080 IEM_DS3505
ZGSZ,2007-10-19 08:00,ZGSZ 190800Z AUTO 03008KT 6SM 29/08 A2997 RMK T02900080 IEM_DS3505
ZGSZ,2007-10-19 09:00,ZGSZ 190900Z AUTO 34010KT 6SM 27/08 A3000 RMK SLP158 T02670077 57005 IEM_DS3505
ZGSZ,2007-10-19 10:00,ZGSZ 191000Z AUTO 03008KT 6SM 27/08 A3000 RMK T02700080 IEM_DS3505
ZGSZ,2007-10-19 11:00,ZGSZ 191100Z AUTO 05006KT 6SM 27/08 A3000 RMK T02700080 IEM_DS3505
ZGSZ,2007-10-19 12:00,ZGSZ 191200Z AUTO 02008KT 4SM 25/07 A3003 RMK SLP172 T02530070 52014 IEM_DS3505
ZGSZ,2007-10-19 13:00,ZGSZ 191300Z AUTO 05008KT 6SM 26/07 A3003 RMK T02600070 IEM_DS3505
ZGSZ,2007-10-19 14:00,ZGSZ 191400Z AUTO 06008KT 6SM 26/06 A3006 RMK T02600060 IEM_DS3505
ZGSZ,2007-10-19 15:00,ZGSZ 191500Z AUTO 02008KT 4SM 24/05 A3003 RMK SLP175 T02450053 52003 IEM_DS3505
ZGSZ,2007-10-19 16:00,ZGSZ 191600Z AUTO 03008KT 4SM 24/08 A3003 RMK T02400080 IEM_DS3505
ZGSZ,2007-10-19 17:00,ZGSZ 191700Z AUTO 01006KT 4SM 24/07 A3003 RMK T02400070 IEM_DS3505
ZGSZ,2007-10-19 18:00,ZGSZ 191800Z AUTO 02006KT 3SM 23/05 A3003 RMK SLP170 T02300054 57005 IEM_DS3505
ZGSZ,2007-10-19 19:00,ZGSZ 191900Z AUTO 36004KT 5SM 22/08 A3000 RMK T02200080 IEM_DS3505
ZGSZ,2007-10-19 20:00,ZGSZ 192000Z AUTO 36006KT 4SM 22/08 A3000 RMK T02200080 IEM_DS3505
ZGSZ,2007-10-19 21:00,ZGSZ 192100Z AUTO 07004KT 4SM 22/07 A3003 RMK SLP169 T02190066 57001 IEM_DS3505
ZGSZ,2007-10-19 22:00,ZGSZ 192200Z AUTO 03002KT 4SM 22/08 A3006 RMK T02200080 IEM_DS3505
ZGSZ,2007-10-19 23:00,ZGSZ 192300Z AUTO 02004KT 4SM 21/09 A3006 RMK T02100090 IEM_DS3505
ZGSZ,2007-10-20 00:00,ZGSZ 200000Z AUTO 07004KT 5SM 22/08 A3009 RMK SLP193 T02220076 52023 IEM_DS3505
ZGSZ,2007-10-20 01:00,ZGSZ 200100Z AUTO 05008KT 4SM 24/08 A3012 RMK T02400080 IEM_DS3505
ZGSZ,2007-10-20 02:00,ZGSZ 200200Z AUTO 05006KT 4SM 26/08 A3009 RMK T02600080 IEM_DS3505
ZGSZ,2007-10-20 03:00,ZGSZ 200300Z AUTO 07004KT 6SM 25/09 A3009 RMK SLP189 T02540093 57003 IEM_DS3505
ZGSZ,2007-10-20 04:00,ZGSZ 200400Z AUTO 05006KT 5SM 28/08 A3006 RMK T02800080 IEM_DS3505
ZGSZ,2007-10-20 05:00,ZGSZ 200500Z AUTO 5SM 29/10 A3003 RMK T02900100 IEM_DS3505
ZGSZ,2007-10-20 06:00,ZGSZ 200600Z AUTO 11006KT 5SM 28/09 A3000 RMK SLP163 T02750089 57026 IEM_DS3505
ZGSZ,2007-10-20 07:00,ZGSZ 200700Z AUTO 25004KT 4SM 28/11 A2997 RMK T02800110 IEM_DS3505
ZGSZ,2007-10-20 08:00,ZGSZ 200800Z AUTO 22004KT 4SM 28/10 A2997 RMK T02800100 IEM_DS3505
ZGSZ,2007-10-20 09:00,ZGSZ 200900Z AUTO 09006KT 5SM 26/13 A2997 RMK SLP160 T02590134 57003 IEM_DS3505
ZGSZ,2007-10-20 10:00,ZGSZ 201000Z AUTO 16006KT 4SM 25/14 A3000 RMK T02500140 IEM_DS3505
ZGSZ,2007-10-20 11:00,ZGSZ 201100Z AUTO 16006KT 4SM 24/17 A3000 RMK T02400170 IEM_DS3505
ZGSZ,2007-10-20 12:00,ZGSZ 201200Z AUTO 09004KT 4SM 23/16 A3003 RMK SLP177 T02330161 52016 IEM_DS3505
ZGSZ,2007-10-20 13:00,ZGSZ 201300Z AUTO 11008KT 3SM 24/17 A3006 RMK T02400170 IEM_DS3505
ZGSZ,2007-10-20 14:00,ZGSZ 201400Z AUTO 11008KT 3SM 24/17 A3006 RMK T02400170 IEM_DS3505
ZGSZ,2007-10-20 15:00,ZGSZ 201500Z AUTO 09004KT 5SM 23/16 A3006 RMK SLP182 T02300163 52006 IEM_DS3505
ZGSZ,2007-10-20 16:00,ZGSZ 201600Z AUTO 12006KT 3SM 23/17 A3006 RMK T02300170 IEM_DS3505
ZGSZ,2007-10-20 17:00,ZGSZ 201700Z AUTO 11006KT 3SM 23/17 A3003 RMK T02300170 IEM_DS3505
ZGSZ,2007-10-20 18:00,ZGSZ 201800Z AUTO 04006KT 4SM 23/17 A3003 RMK SLP172 T02270172 57010 IEM_DS3505
ZGSZ,2007-10-20 19:00,ZGSZ 201900Z AUTO 03006KT 2 1/2SM 22/17 A3003 RMK T02200170 IEM_DS3505
ZGSZ,2007-10-20 20:00,ZGSZ 202000Z AUTO 2 1/2SM 22/17 A3000 RMK T02200170 IEM_DS3505
ZGSZ,2007-10-20 21:00,ZGSZ 202100Z AUTO 02004KT 2SM 21/17 A3003 RMK SLP170 T02140166 57003 IEM_DS3505
ZGSZ,2007-10-20 22:00,ZGSZ 202200Z AUTO 04006KT 2SM 21/17 A3003 RMK T02100170 IEM_DS3505
ZGSZ,2007-10-20 23:00,ZGSZ 202300Z AUTO 07004KT 2SM 21/17 A3006 RMK T02100170 IEM_DS3505
ZGSZ,2007-10-21 00:00,ZGSZ 210000Z AUTO 07004KT 4SM 22/17 A3009 RMK SLP188 T02210166 52018 IEM_DS3505
ZGSZ,2007-10-21 01:00,ZGSZ 210100Z AUTO 07004KT 2 1/2SM 24/17 A3009 RMK T02400170 IEM_DS3505
ZGSZ,2007-10-21 02:00,ZGSZ 210200Z AUTO 06004KT 3SM 26/16 A3009 RMK T02600160 IEM_DS3505
ZGSZ,2007-10-21 03:00,ZGSZ 210300Z AUTO 34004KT 4SM 25/14 A3006 RMK SLP184 T02520140 57004 IEM_DS3505
ZGSZ,2007-10-21 04:00,ZGSZ 210400Z AUTO 06006KT 4SM 28/13 A3003 RMK T02800130 IEM_DS3505
ZGSZ,2007-10-21 05:00,ZGSZ 210500Z AUTO 4SM 28/15 A3000 RMK T02800150 IEM_DS3505
ZGSZ,2007-10-21 06:00,ZGSZ 210600Z AUTO 04002KT 4SM 27/11 A2997 RMK SLP155 T02740114 57028 IEM_DS3505
ZGSZ,2007-10-21 07:00,ZGSZ 210700Z AUTO 24006KT 3SM 27/16 A2994 RMK T02700160 IEM_DS3505
ZGSZ,2007-10-21 08:00,ZGSZ 210800Z AUTO 21006KT 3SM 27/17 A2994 RMK T02700170 IEM_DS3505
ZGSZ,2007-10-21 09:00,ZGSZ 210900Z AUTO 07002KT 4SM 25/15 A2994 RMK SLP150 T02520149 57005 IEM_DS3505
ZGSZ,2007-10-21 10:00,ZGSZ 211000Z AUTO 16008KT 3SM 25/18 A2997 RMK T02500180 IEM_DS3505
ZGSZ,2007-10-21 11:00,ZGSZ 211100Z AUTO 16004KT 4SM 23/18 A2997 RMK T02300180 IEM_DS3505
ZGSZ,2007-10-21 12:00,ZGSZ 211200Z AUTO 07006KT 5SM 23/16 A3000 RMK SLP164 T02260155 52013 IEM_DS3505
ZGSZ,2007-10-21 13:00,ZGSZ 211300Z AUTO 11008KT 5SM 23/17 A3000 RMK T02300170 IEM_DS3505
ZGSZ,2007-10-21 14:00,ZGSZ 211400Z AUTO 12008KT 6SM 23/17 A3000 RMK T02300170 IEM_DS3505
ZGSZ,2007-10-21 15:00,ZGSZ 211500Z AUTO 07004KT 5SM 22/17 A3000 RMK SLP169 T02220169 52005 IEM_DS3505
ZGSZ,2007-10-21 16:00,ZGSZ 211600Z AUTO 11006KT 6SM 23/17 A3003 RMK T02300170 IEM_DS3505
ZGSZ,2007-10-21 17:00,ZGSZ 211700Z AUTO 12004KT 6SM 22/17 A3000 RMK T02200170 IEM_DS3505
ZGSZ,2007-10-21 18:00,ZGSZ 211800Z AUTO 09004KT 6SM 22/17 A3000 RMK SLP162 T02190171 57006 IEM_DS3505
ZGSZ,2007-10-21 19:00,ZGSZ 211900Z AUTO 09002KT 6SM 22/17 A3000 RMK T02200170 IEM_DS3505
ZGSZ,2007-10-21 20:00,ZGSZ 212000Z AUTO 09004KT 4SM 21/17 A3000 RMK T02100170 IEM_DS3505
ZGSZ,2007-10-21 21:00,ZGSZ 212100Z AUTO 02002KT 5SM 21/18 A3000 RMK SLP161 T02110175 57002 IEM_DS3505
ZGSZ,2007-10-21 22:00,ZGSZ 212200Z AUTO 00000KT 3SM 20/17 A3003 RMK T02000170 IEM_DS3505
ZGSZ,2007-10-21 23:00,ZGSZ 212300Z AUTO 01002KT 2 1/2SM 21/17 A3003 RMK T02100170 IEM_DS3505
ZGSZ,2007-10-22 00:00,ZGSZ 220000Z AUTO 02004KT 4SM 22/17 A3006 RMK SLP179 T02220173 52018 IEM_DS3505
ZGSZ,2007-10-22 01:00,ZGSZ 220100Z AUTO 08006KT 4SM 24/17 A3006 RMK T02400170 IEM_DS3505
ZGSZ,2007-10-22 02:00,ZGSZ 220200Z AUTO 5SM 26/18 A3006 RMK T02600180 IEM_DS3505
ZGSZ,2007-10-22 03:00,ZGSZ 220300Z AUTO 09002KT 6SM 26/16 A3003 RMK SLP175 T02600160 57003 IEM_DS3505
ZGSZ,2007-10-22 04:00,ZGSZ 220400Z AUTO 25004KT 4SM 27/18 A3000 RMK T02700180 IEM_DS3505
ZGSZ,2007-10-22 05:00,ZGSZ 220500Z AUTO 25006KT 3SM 27/18 A2997 RMK T02700180 IEM_DS3505
ZGSZ,2007-10-22 06:00,ZGSZ 220600Z AUTO 04004KT 6SM 28/15 A2994 RMK SLP140 T02760146 57035 IEM_DS3505
ZGSZ,2007-10-22 07:00,ZGSZ 220700Z AUTO 21006KT 4SM 27/19 A2991 RMK T02700190 IEM_DS3505
ZGSZ,2007-10-22 08:00,ZGSZ 220800Z AUTO 22006KT 4SM 27/18 A2991 RMK T02700180 IEM_DS3505
ZGSZ,2007-10-22 09:00,ZGSZ 220900Z AUTO 22004KT 6SM 26/18 A2991 RMK SLP136 T02550179 57004 IEM_DS3505
ZGSZ,2007-10-22 10:00,ZGSZ 221000Z AUTO 17004KT 4SM 25/19 A2991 RMK T02500190 IEM_DS3505
ZGSZ,2007-10-22 11:00,ZGSZ 221100Z AUTO 17004KT 4SM 24/20 A2994 RMK T02400200 IEM_DS3505
ZGSZ,2007-10-22 12:00,ZGSZ 221200Z AUTO 20002KT 4SM 24/18 A2997 RMK SLP152 T02370184 52015 IEM_DS3505
ZGSZ,2007-10-22 13:00,ZGSZ 221300Z AUTO 16006KT 3SM 23/20 A2997 RMK T02300200 IEM_DS3505
ZGSZ,2007-10-22 14:00,ZGSZ 221400Z AUTO 12004KT 2 1/2SM 24/19 A2997 RMK T02400190 IEM_DS3505
ZGSZ,2007-10-22 15:00,ZGSZ 221500Z AUTO 07006KT 6SM 23/17 A3000 RMK SLP163 T02300168 52012 IEM_DS3505
ZGSZ,2007-10-22 16:00,ZGSZ 221600Z AUTO 11008KT 4SM 24/17 A3000 RMK T02400170 IEM_DS3505
ZGSZ,2007-10-22 17:00,ZGSZ 221700Z AUTO 11008KT 4SM 23/18 A2997 RMK T02300180 IEM_DS3505
ZGSZ,2007-10-22 18:00,ZGSZ 221800Z AUTO 09004KT 7SM 22/18 A2997 RMK SLP155 T02250183 57008 IEM_DS3505
ZGSZ,2007-10-22 19:00,ZGSZ 221900Z AUTO 10006KT 4SM 23/19 A2997 RMK T02300190 IEM_DS3505
ZGSZ,2007-10-22 20:00,ZGSZ 222000Z AUTO 4SM 22/19 A2997 RMK T02200190 IEM_DS3505
ZGSZ,2007-10-22 21:00,ZGSZ 222100Z AUTO 04004KT 6SM 22/18 A2997 RMK SLP152 T02190183 57003 IEM_DS3505
ZGSZ,2007-10-22 22:00,ZGSZ 222200Z AUTO 03004KT 2 1/2SM 22/19 A3000 RMK T02200190 IEM_DS3505
ZGSZ,2007-10-22 23:00,ZGSZ 222300Z AUTO 03004KT 2 1/2SM 22/19 A3000 RMK T02200190 IEM_DS3505
ZGSZ,2007-10-23 00:00,ZGSZ 230000Z AUTO 04002KT 4SM 22/18 A3003 RMK SLP173 T02250178 52020 IEM_DS3505
ZGSZ,2007-10-23 01:00,ZGSZ 230100Z AUTO 03004KT 3SM 25/19 A3003 RMK T02500190 IEM_DS3505
ZGSZ,2007-10-23 02:00,ZGSZ 230200Z AUTO 35004KT 4SM 26/18 A3003 RMK T02600180 IEM_DS3505
ZGSZ,2007-10-23 03:00,ZGSZ 230300Z AUTO 29002G16KT 4SM 27/17 A3003 RMK SLP170 T02660171 57002 IEM_DS3505
ZGSZ,2007-10-23 04:00,ZGSZ 230400Z AUTO 3SM 29/17 A3000 RMK T02900170 IEM_DS3505
ZGSZ,2007-10-23 05:00,ZGSZ 230500Z AUTO 25006KT 2 1/2SM 27/19 A2997 RMK T02700190 IEM_DS3505
ZGSZ,2007-10-23 06:00,ZGSZ 230600Z AUTO 04002KT 4SM 29/16 A2994 RMK SLP144 T02880164 57026 IEM_DS3505
ZGSZ,2007-10-23 07:00,ZGSZ 230700Z AUTO 22006KT 2 1/2SM 28/20 A2991 RMK T02800200 IEM_DS3505
ZGSZ,2007-10-23 08:00,ZGSZ 230800Z AUTO 20006KT 2SM 27/20 A2991 RMK T02700200 IEM_DS3505
ZGSZ,2007-10-23 09:00,ZGSZ 230900Z AUTO 22006KT 5SM 27/17 A2994 RMK SLP141 T02720174 57003 IEM_DS3505
ZGSZ,2007-10-23 10:00,ZGSZ 231000Z AUTO 18006KT 3SM 25/21 A2994 RMK T02500210 IEM_DS3505
ZGSZ,2007-10-23 11:00,ZGSZ 231100Z AUTO 18006KT 3SM 25/21 A2997 RMK T02500210 IEM_DS3505
ZGSZ,2007-10-23 12:00,ZGSZ 231200Z AUTO 09004KT 4SM 24/19 A2997 RMK SLP162 T02380187 52020 IEM_DS3505
ZGSZ,2007-10-23 13:00,ZGSZ 231300Z AUTO 11008KT 3SM 25/19 A3000 RMK T02500190 IEM_DS3505
ZGSZ,2007-10-23 14:00,ZGSZ 231400Z AUTO 12006KT 4SM 24/20 A3000 RMK T02400200 IEM_DS3505
ZGSZ,2007-10-23 15:00,ZGSZ 231500Z AUTO 11008KT 5SM 24/20 A3003 RMK T02400200 IEM_DS3505
ZGSZ,2007-10-23 16:00,ZGSZ 231600Z AUTO 11008KT 5SM 24/19 A3003 RMK T02400190 IEM_DS3505
ZGSZ,2007-10-23 17:00,ZGSZ 231700Z AUTO 11006KT 6SM 24/19 A3003 RMK T02400190 IEM_DS3505
ZGSZ,2007-10-23 18:00,ZGSZ 231800Z AUTO 07006KT 9SM 24/19 RMK SLP167 T02350186 57005 IEM_DS3505
ZGSZ,2007-10-23 19:00,ZGSZ 231900Z AUTO 09004KT 6SM 23/19 A3000 RMK T02300190 IEM_DS3505
ZGSZ,2007-10-23 20:00,ZGSZ 232000Z AUTO 11006KT 6SM 23/18 A3000 RMK T02300180 IEM_DS3505
ZGSZ,2007-10-23 21:00,ZGSZ 232100Z AUTO 07006KT 6SM 23/17 A3000 RMK T02300170 IEM_DS3505
ZGSZ,2007-10-23 22:00,ZGSZ 232200Z AUTO 02004KT 6SM 22/18 A3003 RMK T02200180 IEM_DS3505
ZGSZ,2007-10-23 23:00,ZGSZ 232300Z AUTO 02004KT 5SM 22/19 A3003 RMK T02200190 IEM_DS3505
ZGSZ,2007-10-24 00:00,ZGSZ 240000Z AUTO 04004KT 14SM 24/16 A3006 RMK SLP180 T02360164 52013 IEM_DS3505
ZGSZ,2007-10-24 01:00,ZGSZ 240100Z AUTO 06006KT 6SM 26/17 A3006 RMK T02600170 IEM_DS3505
ZGSZ,2007-10-24 02:00,ZGSZ 240200Z AUTO 05006KT 6SM 27/17 A3006 RMK T02700170 IEM_DS3505
ZGSZ,2007-10-24 03:00,ZGSZ 240300Z AUTO 04008KT 12SM 27/16 A3003 RMK SLP171 T02680155 57008 IEM_DS3505
ZGSZ,2007-10-24 04:00,ZGSZ 240400Z AUTO 02006KT 5SM 29/17 A3000 RMK T02900170 IEM_DS3505
ZGSZ,2007-10-24 05:00,ZGSZ 240500Z AUTO 6SM 30/17 A2997 RMK T03000170 IEM_DS3505
ZGSZ,2007-10-24 06:00,ZGSZ 240600Z AUTO 07006KT 9SM 29/15 A2994 RMK SLP142 T02940152 57029 IEM_DS3505
ZGSZ,2007-10-24 07:00,ZGSZ 240700Z AUTO 6SM 30/19 A2991 RMK T03000190 IEM_DS3505
ZGSZ,2007-10-24 08:00,ZGSZ 240800Z AUTO 22006KT 3SM 28/21 A2994 RMK T02800210 IEM_DS3505
ZGSZ,2007-10-24 09:00,ZGSZ 240900Z AUTO 20006KT 8SM 27/18 A2994 RMK SLP145 T02720185 52003 IEM_DS3505
ZGSZ,2007-10-24 10:00,ZGSZ 241000Z AUTO 17008KT 4SM 26/21 A2994 RMK T02600210 IEM_DS3505
ZGSZ,2007-10-24 11:00,ZGSZ 241100Z AUTO 16008KT 6SM 26/20 A2997 RMK T02600200 IEM_DS3505
ZGSZ,2007-10-24 12:00,ZGSZ 241200Z AUTO 11004KT 9SM 25/19 A3000 RMK SLP166 T02460188 52021 IEM_DS3505
ZGSZ,2007-10-24 13:00,ZGSZ 241300Z AUTO 11008KT 6SM 25/19 A3000 RMK T02500190 IEM_DS3505
ZGSZ,2007-10-24 14:00,ZGSZ 241400Z AUTO 11008KT 6SM 25/20 A3003 RMK T02500200 IEM_DS3505
ZGSZ,2007-10-24 15:00,ZGSZ 241500Z AUTO 07006KT 7SM 24/20 A3000 RMK SLP169 T02410196 52003 IEM_DS3505
ZGSZ,2007-10-24 16:00,ZGSZ 241600Z AUTO 09006KT 6SM 25/20 A3000 RMK T02500200 IEM_DS3505
ZGSZ,2007-10-24 17:00,ZGSZ 241700Z AUTO 6SM 24/20 A3000 RMK T02400200 IEM_DS3505
ZGSZ,2007-10-24 18:00,ZGSZ 241800Z AUTO 07004KT 7SM 24/20 A2997 RMK SLP158 T02370196 57011 IEM_DS3505
ZGSZ,2007-10-24 19:00,ZGSZ 241900Z AUTO 4SM 24/20 A2997 RMK T02400200 IEM_DS3505
ZGSZ,2007-10-24 20:00,ZGSZ 242000Z AUTO 03004KT 3SM 23/20 A2997 RMK T02300200 IEM_DS3505
ZGSZ,2007-10-24 21:00,ZGSZ 242100Z AUTO 36004KT 6SM 23/20 A2997 RMK SLP157 T02290195 57001 IEM_DS3505
ZGSZ,2007-10-24 22:00,ZGSZ 242200Z AUTO 02004KT 3SM 23/20 A3000 RMK T02300200 IEM_DS3505
ZGSZ,2007-10-24 23:00,ZGSZ 242300Z AUTO 02004KT 3SM 23/20 A3000 RMK T02300200 IEM_DS3505
ZGSZ,2007-10-25 00:00,ZGSZ 250000Z AUTO 36002KT 4SM 24/20 A3003 RMK SLP166 T02420195 52009 IEM_DS3505
ZGSZ,2007-10-25 01:00,ZGSZ 250100Z AUTO 02008KT 3SM 26/20 A3003 RMK T02600200 IEM_DS3505
ZGSZ,2007-10-25 02:00,ZGSZ 250200Z AUTO 02010KT 3SM 28/18 A3003 RMK T02800180 IEM_DS3505
ZGSZ,2007-10-25 03:00,ZGSZ 250300Z AUTO 34004KT 4SM 28/18 A3000 RMK SLP168 T02800181 52002 IEM_DS3505
ZGSZ,2007-10-25 04:00,ZGSZ 250400Z AUTO 4SM 31/18 A2997 RMK T03100180 IEM_DS3505
ZGSZ,2007-10-25 05:00,ZGSZ 250500Z AUTO 06006KT 4SM 32/16 A2994 RMK T03200160 IEM_DS3505
ZGSZ,2007-10-25 06:00,ZGSZ 250600Z AUTO 07002KT 4SM 31/16 A2991 RMK SLP139 T03080156 57028 IEM_DS3505
ZGSZ,2007-10-25 07:00,ZGSZ 250700Z AUTO 02006KT 5SM 33/14 A2991 RMK T03300140 IEM_DS3505
ZGSZ,2007-10-25 08:00,ZGSZ 250800Z AUTO 02006KT 3SM 32/15 A2988 RMK T03200150 IEM_DS3505
ZGSZ,2007-10-25 09:00,ZGSZ 250900Z AUTO 20004KT 2 1/2SM 28/21 A2991 RMK SLP131 T02760209 57009 IEM_DS3505
ZGSZ,2007-10-25 10:00,ZGSZ 251000Z AUTO 16004KT 3SM 26/22 A2991 RMK T02600220 IEM_DS3505
ZGSZ,2007-10-25 11:00,ZGSZ 251100Z AUTO 16004KT 4SM 25/22 A2991 RMK T02500220 IEM_DS3505
ZGSZ,2007-10-25 12:00,ZGSZ 251200Z AUTO 07006KT 4SM 26/19 A2994 RMK SLP146 T02570194 52015 IEM_DS3505
ZGSZ,2007-10-25 13:00,ZGSZ 251300Z AUTO 16002KT 2 1/2SM 25/22 A2994 RMK T02500220 IEM_DS3505
ZGSZ,2007-10-25 14:00,ZGSZ 251400Z AUTO 11004KT 2 1/2SM 25/21 A2997 RMK T02500210 IEM_DS3505
ZGSZ,2007-10-25 15:00,ZGSZ 251500Z AUTO 07006KT 5SM 24/20 A2997 RMK SLP152 T02440197 52006 IEM_DS3505
ZGSZ,2007-10-25 16:00,ZGSZ 251600Z AUTO 3SM 25/21 A2997 RMK T02500210 IEM_DS3505
ZGSZ,2007-10-25 17:00,ZGSZ 251700Z AUTO 08004KT 3SM 25/21 A2997 RMK T02500210 IEM_DS3505
ZGSZ,2007-10-25 18:00,ZGSZ 251800Z AUTO 09004KT 6SM 24/20 A2994 RMK SLP143 T02360199 57008 IEM_DS3505
ZGSZ,2007-10-25 19:00,ZGSZ 251900Z AUTO 3SM 24/20 A2994 RMK T02400200 IEM_DS3505
ZGSZ,2007-10-25 20:00,ZGSZ 252000Z AUTO 03004KT 3SM 23/20 A2994 RMK T02300200 IEM_DS3505
ZGSZ,2007-10-25 21:00,ZGSZ 252100Z AUTO 02002KT 4SM 23/20 A2994 RMK SLP143 T02280196 57001 IEM_DS3505
ZGSZ,2007-10-25 22:00,ZGSZ 252200Z AUTO 00000KT 3SM 23/20 A2997 RMK T02300200 IEM_DS3505
ZGSZ,2007-10-25 23:00,ZGSZ 252300Z AUTO 3SM 23/21 A2997 RMK T02300210 IEM_DS3505
ZGSZ,2007-10-26 00:00,ZGSZ 260000Z AUTO 04002KT 4SM 24/18 A3000 RMK SLP161 T02430180 52018 IEM_DS3505
ZGSZ,2007-10-26 01:00,ZGSZ 260100Z AUTO 02004KT 3SM 27/19 A3000 RMK T02700190 IEM_DS3505
ZGSZ,2007-10-26 02:00,ZGSZ 260200Z AUTO 3SM 28/17 A3000 RMK T02800170 IEM_DS3505
ZGSZ,2007-10-26 03:00,ZGSZ 260300Z AUTO 04006KT 5SM 28/16 A2997 RMK SLP155 T02790159 57006 IEM_DS3505
ZGSZ,2007-10-26 04:00,ZGSZ 260400Z AUTO 4SM 30/16 A2994 RMK T03000160 IEM_DS3505
ZGSZ,2007-10-26 05:00,ZGSZ 260500Z AUTO 4SM 31/16 A2991 RMK T03100160 IEM_DS3505
ZGSZ,2007-10-26 06:00,ZGSZ 260600Z AUTO 07004G16KT 4SM 30/16 A2988 RMK SLP122 T03040157 57032 IEM_DS3505
ZGSZ,2007-10-26 07:00,ZGSZ 260700Z AUTO 02006KT 4SM 32/16 A2985 RMK T03200160 IEM_DS3505
ZGSZ,2007-10-26 08:00,ZGSZ 260800Z AUTO 29006KT 3SM 30/20 A2985 RMK T03000200 IEM_DS3505
ZGSZ,2007-10-26 09:00,ZGSZ 260900Z AUTO 16004KT 5SM 28/18 A2985 RMK SLP120 T02820183 57003 IEM_DS3505
ZGSZ,2007-10-26 10:00,ZGSZ 261000Z AUTO 16006KT 3SM 27/20 A2985 RMK T02700200 IEM_DS3505
ZGSZ,2007-10-26 11:00,ZGSZ 261100Z AUTO 16006KT 3SM 26/21 A2988 RMK T02600210 IEM_DS3505
ZGSZ,2007-10-26 12:00,ZGSZ 261200Z AUTO 09004KT 6SM 25/18 A2991 RMK SLP135 T02500182 52015 IEM_DS3505
ZGSZ,2007-10-26 13:00,ZGSZ 261300Z AUTO 12008KT 5SM 26/19 A2991 RMK T02600190 IEM_DS3505
ZGSZ,2007-10-26 14:00,ZGSZ 261400Z AUTO 11008KT 4SM 25/19 A2994 RMK T02500190 IEM_DS3505
ZGSZ,2007-10-26 15:00,ZGSZ 261500Z AUTO 07004KT 6SM 24/19 A2994 RMK SLP145 T02400191 52010 IEM_DS3505
ZGSZ,2007-10-26 16:00,ZGSZ 261600Z AUTO 11008KT 4SM 25/20 A2994 RMK T02500200 IEM_DS3505
ZGSZ,2007-10-26 17:00,ZGSZ 261700Z AUTO 12008KT 3SM 24/20 A2994 RMK T02400200 IEM_DS3505
ZGSZ,2007-10-26 18:00,ZGSZ 261800Z AUTO 07004KT 4SM 24/19 A2991 RMK SLP137 T02360193 57007 IEM_DS3505
ZGSZ,2007-10-26 19:00,ZGSZ 261900Z AUTO 11006KT 3SM 24/20 A2991 RMK T02400200 IEM_DS3505
ZGSZ,2007-10-26 20:00,ZGSZ 262000Z AUTO 11006KT 2 1/2SM 24/20 A2991 RMK T02400200 IEM_DS3505
ZGSZ,2007-10-26 21:00,ZGSZ 262100Z AUTO 07004KT 4SM 23/19 A2994 RMK SLP139 T02320189 52001 IEM_DS3505
ZGSZ,2007-10-26 22:00,ZGSZ 262200Z AUTO 04004KT 3SM 23/20 A2994 RMK T02300200 IEM_DS3505
ZGSZ,2007-10-26 23:00,ZGSZ 262300Z AUTO 03002KT 2SM 23/20 A2997 RMK T02300200 IEM_DS3505
ZGSZ,2007-10-27 00:00,ZGSZ 270000Z AUTO 11006KT 4SM 24/19 A2997 RMK SLP153 T02400186 52014 IEM_DS3505
ZGSZ,2007-10-27 01:00,ZGSZ 270100Z AUTO 12008KT 3SM 26/20 A2997 RMK T02600200 IEM_DS3505
ZGSZ,2007-10-27 02:00,ZGSZ 270200Z AUTO 12006KT 3SM 27/20 A2997 RMK T02700200 IEM_DS3505
ZGSZ,2007-10-27 03:00,ZGSZ 270300Z AUTO 04006KT 4SM 26/18 A2994 RMK SLP149 T02630179 57004 IEM_DS3505
ZGSZ,2007-10-27 04:00,ZGSZ 270400Z AUTO 23006KT 3SM 27/20 A2994 RMK T02700200 IEM_DS3505
ZGSZ,2007-10-27 05:00,ZGSZ 270500Z AUTO 23006KT 4SM 28/20 A2991 RMK T02800200 IEM_DS3505
ZGSZ,2007-10-27 06:00,ZGSZ 270600Z AUTO 20004KT 4SM 29/18 A2988 RMK SLP116 T02900185 57032 IEM_DS3505
ZGSZ,2007-10-27 07:00,ZGSZ 270700Z AUTO 22006KT 4SM 28/21 A2985 RMK T02800210 IEM_DS3505
ZGSZ,2007-10-27 08:00,ZGSZ 270800Z AUTO 21004KT 3SM 27/20 A2983 RMK T02700200 IEM_DS3505
ZGSZ,2007-10-27 09:00,ZGSZ 270900Z AUTO 20004KT 4SM 26/20 A2983 RMK SLP107 T02630199 57010 IEM_DS3505
ZGSZ,2007-10-27 10:00,ZGSZ 271000Z AUTO 19004KT 3SM 25/21 A2983 RMK T02500210 IEM_DS3505
ZGSZ,2007-10-27 11:00,ZGSZ 271100Z AUTO 18004KT 3SM 25/21 A2985 RMK T02500210 IEM_DS3505
ZGSZ,2007-10-27 12:00,ZGSZ 271200Z AUTO 16004KT 1 1/4SM 24/20 A2985 RMK SLP119 T02450198 52012 IEM_DS3505
ZGSZ,2007-10-27 13:00,ZGSZ 271300Z AUTO 18006KT 3SM 25/21 A2988 RMK T02500210 IEM_DS3505
ZGSZ,2007-10-27 14:00,ZGSZ 271400Z AUTO 17006KT 3SM 25/21 A2988 RMK T02500210 IEM_DS3505
ZGSZ,2007-10-27 15:00,ZGSZ 271500Z AUTO 07004KT 1 1/4SM 24/19 A2988 RMK SLP129 T02360189 52010 IEM_DS3505
ZGSZ,2007-10-27 16:00,ZGSZ 271600Z AUTO 11006KT 2 1/2SM 25/20 A2991 RMK T02500200 IEM_DS3505
ZGSZ,2007-10-27 17:00,ZGSZ 271700Z AUTO 11006KT 2SM 24/20 A2991 RMK T02400200 IEM_DS3505
ZGSZ,2007-10-27 18:00,ZGSZ 271800Z AUTO 09004KT 1 1/4SM 23/19 A2991 RMK SLP131 T02310191 52002 IEM_DS3505
ZGSZ,2007-10-27 19:00,ZGSZ 271900Z AUTO 11006KT 2SM 23/20 A2991 RMK T02300200 IEM_DS3505
ZGSZ,2007-10-27 20:00,ZGSZ 272000Z AUTO 10004KT 2SM 23/20 A2991 RMK T02300200 IEM_DS3505
ZGSZ,2007-10-27 21:00,ZGSZ 272100Z AUTO 04002KT 1 1/4SM 23/19 A2991 RMK SLP131 T02290187 54000 IEM_DS3505
ZGSZ,2007-10-27 22:00,ZGSZ 272200Z AUTO 01004KT 2SM 24/20 A2994 RMK T02400200 IEM_DS3505
ZGSZ,2007-10-27 23:00,ZGSZ 272300Z AUTO 09006KT 2SM 23/20 A2994 RMK T02300200 IEM_DS3505
ZGSZ,2007-10-28 00:00,ZGSZ 280000Z AUTO 09002KT 2SM 23/19 A2997 RMK SLP153 T02320187 52022 IEM_DS3505
ZGSZ,2007-10-28 01:00,ZGSZ 280100Z AUTO 11008KT 2SM 24/20 A2997 RMK T02400200 IEM_DS3505
ZGSZ,2007-10-28 02:00,ZGSZ 280200Z AUTO 12006KT 2SM 26/20 A2997 RMK T02600200 IEM_DS3505
ZGSZ,2007-10-28 03:00,ZGSZ 280300Z AUTO 11004KT 2 1/2SM 25/18 A2997 RMK SLP154 T02490184 52001 IEM_DS3505
ZGSZ,2007-10-28 04:00,ZGSZ 280400Z AUTO 18006KT 3SM 27/20 A2994 RMK T02700200 IEM_DS3505
ZGSZ,2007-10-28 05:00,ZGSZ 280500Z AUTO 19008KT 3SM 27/20 A2991 RMK T02700200 IEM_DS3505
ZGSZ,2007-10-28 06:00,ZGSZ 280600Z AUTO 04002KT 3SM 27/18 A2988 RMK SLP121 T02730175 57033 IEM_DS3505
ZGSZ,2007-10-28 07:00,ZGSZ 280700Z AUTO 22006KT 3SM 27/20 A2985 RMK T02700200 IEM_DS3505
ZGSZ,2007-10-28 08:00,ZGSZ 280800Z AUTO 22004KT 3SM 27/20 A2985 RMK T02700200 IEM_DS3505
ZGSZ,2007-10-28 09:00,ZGSZ 280900Z AUTO 25002KT 2 1/2SM 26/19 A2985 RMK SLP110 T02630192 57011 IEM_DS3505
ZGSZ,2007-10-28 10:00,ZGSZ 281000Z AUTO 00000KT 2 1/2SM 25/21 A2985 RMK T02500210 IEM_DS3505
ZGSZ,2007-10-28 11:00,ZGSZ 281100Z AUTO 00000KT 2 1/2SM 25/21 A2988 RMK T02500210 IEM_DS3505
ZGSZ,2007-10-28 12:00,ZGSZ 281200Z AUTO 16004KT 2 1/2SM 24/20 A2988 RMK SLP129 T02450198 52019 IEM_DS3505
ZGSZ,2007-10-28 13:00,ZGSZ 281300Z AUTO 15004KT 1 1/2SM 24/21 A2991 RMK T02400210 IEM_DS3505
ZGSZ,2007-10-28 14:00,ZGSZ 281400Z AUTO 15006KT 2SM 24/21 A2991 RMK T02400210 IEM_DS3505
ZGSZ,2007-10-28 15:00,ZGSZ 281500Z AUTO 04004KT 2 1/2SM 24/18 A2994 RMK SLP141 T02350184 52012 IEM_DS3505
ZGSZ,2007-10-28 16:00,ZGSZ 281600Z AUTO 11008KT 2SM 24/20 A2994 RMK T02400200 IEM_DS3505
ZGSZ,2007-10-28 17:00,ZGSZ 281700Z AUTO 10010KT 2 1/2SM 24/19 A2991 RMK T02400190 IEM_DS3505
ZGSZ,2007-10-28 18:00,ZGSZ 281800Z AUTO 07004KT 3SM 23/19 A2991 RMK SLP136 T02320187 57005 IEM_DS3505
ZGSZ,2007-10-28 19:00,ZGSZ 281900Z AUTO 09004KT 2SM 23/19 A2991 RMK T02300190 IEM_DS3505
ZGSZ,2007-10-28 20:00,ZGSZ 282000Z AUTO 06002KT 2SM 23/19 A2991 RMK T02300190 IEM_DS3505
ZGSZ,2007-10-28 21:00,ZGSZ 282100Z AUTO 09004KT 3SM 23/18 A2994 RMK SLP141 T02260182 52005 IEM_DS3505
ZGSZ,2007-10-28 22:00,ZGSZ 282200Z AUTO 2SM 23/19 A2997 RMK T02300190 IEM_DS3505
ZGSZ,2007-10-28 23:00,ZGSZ 282300Z AUTO 02004KT 2SM 23/19 A2997 RMK T02300190 IEM_DS3505
ZGSZ,2007-10-29 00:00,ZGSZ 290000Z AUTO 07002KT 4SM 23/17 A3000 RMK SLP164 T02320174 52023 IEM_DS3505
ZGSZ,2007-10-29 01:00,ZGSZ 290100Z AUTO 08006KT 3SM 25/19 A3003 RMK T02500190 IEM_DS3505
ZGSZ,2007-10-29 02:00,ZGSZ 290200Z AUTO 04008KT 3SM 26/18 A3003 RMK T02600180 IEM_DS3505
ZGSZ,2007-10-29 03:00,ZGSZ 290300Z AUTO 04006KT 4SM 26/16 A3000 RMK SLP160 T02570157 57004 IEM_DS3505
ZGSZ,2007-10-29 04:00,ZGSZ 290400Z AUTO 04008KT 4SM 28/17 A2997 RMK T02800170 IEM_DS3505
ZGSZ,2007-10-29 05:00,ZGSZ 290500Z AUTO 05008KT 5SM 29/15 A2994 RMK T02900150 IEM_DS3505
ZGSZ,2007-10-29 06:00,ZGSZ 290600Z AUTO 04004KT 5SM 28/13 A2988 RMK SLP127 T02810129 57033 IEM_DS3505
ZGSZ,2007-10-29 07:00,ZGSZ 290700Z AUTO 03010KT 5SM 29/14 A2988 RMK T02900140 IEM_DS3505
ZGSZ,2007-10-29 08:00,ZGSZ 290800Z AUTO 04010KT 5SM 29/14 A2988 RMK T02900140 IEM_DS3505
ZGSZ,2007-10-29 09:00,ZGSZ 290900Z AUTO 36006KT 5SM 27/15 A2988 RMK SLP128 T02730150 52001 IEM_DS3505
ZGSZ,2007-10-29 10:00,ZGSZ 291000Z AUTO 05006KT 4SM 28/15 A2991 RMK T02800150 IEM_DS3505
ZGSZ,2007-10-29 11:00,ZGSZ 291100Z AUTO 04006KT 4SM 27/15 A2994 RMK T02700150 IEM_DS3505
ZGSZ,2007-10-29 12:00,ZGSZ 291200Z AUTO 09006KT 5SM 24/18 A2997 RMK SLP157 T02420184 52029 IEM_DS3505
ZGSZ,2007-10-29 13:00,ZGSZ 291300Z AUTO 10004KT 4SM 25/19 A3000 RMK T02500190 IEM_DS3505
ZGSZ,2007-10-29 14:00,ZGSZ 291400Z AUTO 11008KT 4SM 25/19 A3000 RMK T02500190 IEM_DS3505
ZGSZ,2007-10-29 15:00,ZGSZ 291500Z AUTO 09004KT 4SM 24/19 A3000 RMK SLP164 T02390188 52007 IEM_DS3505
ZGSZ,2007-10-29 16:00,ZGSZ 291600Z AUTO 4SM 24/19 A3000 RMK T02400190 IEM_DS3505
ZGSZ,2007-10-29 17:00,ZGSZ 291700Z AUTO 03004KT 3SM 23/19 A3000 RMK T02300190 IEM_DS3505
ZGSZ,2007-10-29 18:00,ZGSZ 291800Z AUTO 02004KT 3SM 24/19 A2997 RMK SLP157 T02350188 57007 IEM_DS3505
ZGSZ,2007-10-29 19:00,ZGSZ 291900Z AUTO 03006KT 2 1/2SM 23/18 A2997 RMK T02300180 IEM_DS3505
ZGSZ,2007-10-29 20:00,ZGSZ 292000Z AUTO 02010KT 3SM 23/16 A3000 RMK T02300160 IEM_DS3505
ZGSZ,2007-10-29 21:00,ZGSZ 292100Z AUTO 36006KT 2 1/2SM 23/15 A3000 RMK SLP159 T02260152 52002 IEM_DS3505
ZGSZ,2007-10-29 22:00,ZGSZ 292200Z AUTO 03008KT 2 1/2SM 23/15 A3000 RMK T02300150 IEM_DS3505
ZGSZ,2007-10-29 23:00,ZGSZ 292300Z AUTO 03008KT 2 1/2SM 22/15 A3003 RMK T02200150 IEM_DS3505
ZGSZ,2007-10-30 00:00,ZGSZ 300000Z AUTO 02006KT 3SM 22/15 A3006 RMK 60000 70000 SLP177 T02180147 52017 IEM_DS3505
ZGSZ,2007-10-30 01:00,ZGSZ 300100Z AUTO 01012KT 2 1/2SM 23/15 A3006 RMK T02300150 IEM_DS3505
ZGSZ,2007-10-30 02:00,ZGSZ 300200Z AUTO 03008KT 2 1/2SM 23/15 A3006 RMK T02300150 IEM_DS3505
ZGSZ,2007-10-30 03:00,ZGSZ 300300Z AUTO 07002KT 3SM 23/15 A3006 RMK SLP181 T02300151 52004 IEM_DS3505
ZGSZ,2007-10-30 04:00,ZGSZ 300400Z AUTO 05006KT 3SM 24/15 A3003 RMK T02400150 IEM_DS3505
ZGSZ,2007-10-30 05:00,ZGSZ 300500Z AUTO 02006KT 3SM 25/15 A3000 RMK T02500150 IEM_DS3505
ZGSZ,2007-10-30 06:00,ZGSZ 300600Z AUTO 04004KT 3SM 26/15 A3000 RMK 60000 SLP158 T02620147 57022 IEM_DS3505
ZGSZ,2007-10-30 07:00,ZGSZ 300700Z AUTO 02008KT 4SM 27/14 A2997 RMK T02700140 IEM_DS3505
ZGSZ,2007-10-30 08:00,ZGSZ 300800Z AUTO 02004KT 3SM 27/15 A2997 RMK T02700150 IEM_DS3505
ZGSZ,2007-10-30 09:00,ZGSZ 300900Z AUTO 07004KT 3SM 25/16 A2997 RMK SLP157 T02530156 57001 IEM_DS3505
ZGSZ,2007-10-30 10:00,ZGSZ 301000Z AUTO 05004KT 3SM 26/15 A3000 RMK T02600150 IEM_DS3505
ZGSZ,2007-10-30 11:00,ZGSZ 301100Z AUTO 06004KT 3SM 26/15 A3000 RMK T02600150 IEM_DS3505
ZGSZ,2007-10-30 12:00,ZGSZ 301200Z AUTO 04004KT 2 1/2SM 21/19 A3003 RMK 60024 SLP171 T02090190 52013 IEM_DS3505
ZGSZ,2007-10-30 13:00,ZGSZ 301300Z AUTO 06004KT 1SM 22/19 A3003 RMK T02200190 IEM_DS3505
ZGSZ,2007-10-30 14:00,ZGSZ 301400Z AUTO 05006KT 2 1/2SM 22/18 A3003 RMK T02200180 IEM_DS3505
ZGSZ,2007-10-30 15:00,ZGSZ 301500Z AUTO 08006KT 3SM 22/19 A3003 RMK SLP176 T02160190 52005 IEM_DS3505
ZGSZ,2007-10-30 16:00,ZGSZ 301600Z AUTO 09004KT 2SM 22/18 A3006 RMK T02200180 IEM_DS3505
ZGSZ,2007-10-30 17:00,ZGSZ 301700Z AUTO 03006KT 1 1/2SM 22/19 A3003 RMK T02200190 IEM_DS3505
ZGSZ,2007-10-30 18:00,ZGSZ 301800Z AUTO 02006KT 2 1/2SM 21/18 A3003 RMK 60002 SLP172 T02090183 57004 IEM_DS3505
ZGSZ,2007-10-30 19:00,ZGSZ 301900Z AUTO 01008KT 1 1/2SM 21/18 A3003 RMK T02100180 IEM_DS3505
ZGSZ,2007-10-30 20:00,ZGSZ 302000Z AUTO 02006KT 1 1/4SM 21/18 A3003 RMK T02100180 IEM_DS3505
ZGSZ,2007-10-30 21:00,ZGSZ 302100Z AUTO 02006KT 2SM 21/18 A3003 RMK 70025 SLP172 T02100178 54000 IEM_DS3505
ZGSZ,2007-10-30 22:00,ZGSZ 302200Z AUTO 03006KT 1 1/2SM 20/17 A3006 RMK T02000170 IEM_DS3505
ZGSZ,2007-10-30 23:00,ZGSZ 302300Z AUTO 04008KT 1 1/2SM 20/17 A3009 RMK T02000170 IEM_DS3505
ZGSZ,2007-10-31 00:00,ZGSZ 310000Z AUTO 36004KT 2 1/2SM 20/17 A3009 RMK 60000 70025 SLP192 T02030169 52020 IEM_DS3505
ZGSZ,2007-10-31 01:00,ZGSZ 310100Z AUTO 01008KT 2SM 20/17 A3012 RMK T02000170 IEM_DS3505
ZGSZ,2007-10-31 02:00,ZGSZ 310200Z AUTO 03006KT 2SM 20/18 A3012 RMK T02000180 IEM_DS3505
ZGSZ,2007-10-31 03:00,ZGSZ 310300Z AUTO 36006KT 2SM 22/17 A3009 RMK SLP189 T02160170 57003 IEM_DS3505
ZGSZ,2007-10-31 04:00,ZGSZ 310400Z AUTO 03010KT 2SM 22/17 A3006 RMK T02200170 IEM_DS3505
ZGSZ,2007-10-31 05:00,ZGSZ 310500Z AUTO 01012KT 2 1/2SM 22/17 A3003 RMK T02200170 IEM_DS3505
ZGSZ,2007-10-31 06:00,ZGSZ 310600Z AUTO 04008KT 2 1/2SM 23/17 A3003 RMK 60000 SLP166 T02290171 57023 IEM_DS3505
ZGSZ,2007-10-31 07:00,ZGSZ 310700Z AUTO 01010KT 3SM 22/17 A3000 RMK T02200170 IEM_DS3505
ZGSZ,2007-10-31 08:00,ZGSZ 310800Z AUTO 02010KT 3SM 22/17 A3000 RMK T02200170 IEM_DS3505
ZGSZ,2007-10-31 09:00,ZGSZ 310900Z AUTO 02004KT 2 1/2SM 22/17 A3000 RMK SLP162 T02240173 57004 IEM_DS3505
ZGSZ,2007-10-31 10:00,ZGSZ 311000Z AUTO 01008KT 3SM 22/18 A3003 RMK T02200180 IEM_DS3505
ZGSZ,2007-10-31 11:00,ZGSZ 311100Z AUTO 02006KT 2 1/2SM 21/18 A3003 RMK T02100180 IEM_DS3505
ZGSZ,2007-10-31 12:00,ZGSZ 311200Z AUTO 02004KT 4SM 22/18 A3006 RMK 60000 SLP180 T02170181 52018 IEM_DS3505
ZGSZ,2007-10-31 13:00,ZGSZ 311300Z AUTO 01006KT 3SM 22/18 A3006 RMK T02200180 IEM_DS3505
ZGSZ,2007-10-31 14:00,ZGSZ 311400Z AUTO 01006KT 4SM 22/18 A3006 RMK T02200180 IEM_DS3505
ZGSZ,2007-10-31 15:00,ZGSZ 311500Z AUTO 02008KT 4SM 21/18 A3006 RMK SLP180 T02100180 54000 IEM_DS3505
ZGSZ,2007-10-31 16:00,ZGSZ 311600Z AUTO 02006KT 3SM 21/18 A3006 RMK T02100180 IEM_DS3505
ZGSZ,2007-10-31 17:00,ZGSZ 311700Z AUTO 02008KT 3SM 21/18 A3006 RMK T02100180 IEM_DS3505
ZGSZ,2007-10-31 18:00,ZGSZ 311800Z AUTO 02006KT 4SM 21/18 A3006 RMK 60000 SLP176 T02100180 57004 IEM_DS3505
ZGSZ,2007-10-31 19:00,ZGSZ 311900Z AUTO 02008KT 2SM 21/18 A3003 RMK T02100180 IEM_DS3505
ZGSZ,2007-10-31 20:00,ZGSZ 312000Z AUTO 03008KT 3SM 20/18 A3003 RMK T02000180 IEM_DS3505
ZGSZ,2007-10-31 21:00,ZGSZ 312100Z AUTO 02008KT 4SM 20/17 RMK 70001 SLP174 T01990171 57002 IEM_DS3505
ZGSZ,2007-10-31 22:00,ZGSZ 312200Z AUTO 03008KT 4SM 20/17 A3006 RMK T02000170 IEM_DS3505
ZGSZ,2007-10-31 23:00,ZGSZ 312300Z AUTO 01012KT 4SM 20/17 A3009 RMK T02000170 IEM_DS3505
ZGSZ,2007-11-01 00:00,ZGSZ 010000Z AUTO 02006KT 4SM 20/16 A3009 RMK 60000 70001 SLP194 T01950163 52020 IEM_DS3505
ZGSZ,2007-11-01 01:00,ZGSZ 010100Z AUTO 02010KT 3SM 20/17 A3012 RMK T02000170 IEM_DS3505
ZGSZ,2007-11-01 02:00,ZGSZ 010200Z AUTO 01010KT 2 1/2SM 20/16 A3012 RMK T02000160 IEM_DS3505
ZGSZ,2007-11-01 03:00,ZGSZ 010300Z AUTO 36006KT 2SM 19/16 A3012 RMK SLP200 T01890165 52005 IEM_DS3505
ZGSZ,2007-11-01 04:00,ZGSZ 010400Z AUTO 02010KT 2SM 20/16 A3009 RMK T02000160 IEM_DS3505
ZGSZ,2007-11-01 05:00,ZGSZ 010500Z AUTO 03012G21KT 3SM 20/15 A3006 RMK T02000150 IEM_DS3505
ZGSZ,2007-11-01 06:00,ZGSZ 010600Z AUTO 36012KT 3SM 19/15 A3006 RMK 60008 SLP177 T01940153 57022 IEM_DS3505
ZGSZ,2007-11-01 07:00,ZGSZ 010700Z AUTO 01008KT 2SM 19/16 A3006 RMK T01900160 IEM_DS3505
ZGSZ,2007-11-01 08:00,ZGSZ 010800Z AUTO 02008KT 2 1/2SM 19/16 A3006 RMK T01900160 IEM_DS3505
ZGSZ,2007-11-01 09:00,ZGSZ 010900Z AUTO 36006KT 2 1/2SM 18/16 A3006 RMK SLP183 T01820158 52005 IEM_DS3505
ZGSZ,2007-11-01 10:00,ZGSZ 011000Z AUTO 02014KT 3SM 19/14 A3009 RMK T01900140 IEM_DS3505
ZGSZ,2007-11-01 11:00,ZGSZ 011100Z AUTO 01014KT 2 1/2SM 17/14 A3012 RMK T01700140 IEM_DS3505
ZGSZ,2007-11-01 12:00,ZGSZ 011200Z AUTO 02012G27KT 3SM 17/14 A3015 RMK 60004 SLP202 T01690140 52019 IEM_DS3505
ZGSZ,2007-11-01 13:00,ZGSZ 011300Z AUTO 03014KT 4SM 18/13 A3015 RMK T01800130 IEM_DS3505
ZGSZ,2007-11-01 14:00,ZGSZ 011400Z AUTO 03010KT 7SM 18/13 A3015 RMK T01800130 IEM_DS3505
ZGSZ,2007-11-01 15:00,ZGSZ 011500Z AUTO 02008KT 4SM 17/13 A3015 RMK SLP209 T01720133 52007 IEM_DS3505
ZGSZ,2007-11-01 16:00,ZGSZ 011600Z AUTO 01012G21KT 7SM 16/13 A3015 RMK T01600130 IEM_DS3505
ZGSZ,2007-11-01 17:00,ZGSZ 011700Z AUTO 02014KT 7SM 16/13 A3015 RMK T01600130 IEM_DS3505
ZGSZ,2007-11-01 18:00,ZGSZ 011800Z AUTO 36006KT 2 1/2SM 15/13 A3012 RMK 60002 SLP200 T01500130 57009 IEM_DS3505
ZGSZ,2007-11-01 19:00,ZGSZ 011900Z AUTO 01012KT 7SM 16/12 A3012 RMK T01600120 IEM_DS3505
ZGSZ,2007-11-01 20:00,ZGSZ 012000Z AUTO 02010KT 7SM 17/11 A3009 RMK T01700110 IEM_DS3505
ZGSZ,2007-11-01 21:00,ZGSZ 012100Z AUTO 36004KT 3SM 16/12 A3009 RMK 70016 SLP193 T01550121 57007 IEM_DS3505
ZGSZ,2007-11-01 22:00,ZGSZ 012200Z AUTO 03010KT 7SM 17/11 A3009 RMK T01700110 IEM_DS3505
ZGSZ,2007-11-01 23:00,ZGSZ 012300Z AUTO 02010KT 7SM 17/11 A3012 RMK T01700110 IEM_DS3505
ZGSZ,2007-11-02 00:00,ZGSZ 020000Z AUTO 02006KT 4SM 16/12 A3012 RMK 60003 70017 SLP201 T01590123 52007 IEM_DS3505
ZGSZ,2007-11-02 01:00,ZGSZ 020100Z AUTO 02012KT 7SM 18/11 A3012 RMK T01800110 IEM_DS3505
ZGSZ,2007-11-02 02:00,ZGSZ 020200Z AUTO 02012KT 4SM 19/11 A3012 RMK T01900110 IEM_DS3505
ZGSZ,2007-11-02 03:00,ZGSZ 020300Z AUTO 36006KT 5SM 20/12 A3009 RMK SLP193 T01950118 57007 IEM_DS3505
ZGSZ,2007-11-02 04:00,ZGSZ 020400Z AUTO 02012KT 4SM 21/11 A3006 RMK T02100110 IEM_DS3505
ZGSZ,2007-11-02 05:00,ZGSZ 020500Z AUTO 04012KT 4SM 21/11 A3003 RMK T02100110 IEM_DS3505
ZGSZ,2007-11-02 06:00,ZGSZ 020600Z AUTO 36004KT 5SM 21/12 A3000 RMK 60000 SLP165 T02080117 57028 IEM_DS3505
ZGSZ,2007-11-02 07:00,ZGSZ 020700Z AUTO 03008KT 5SM 21/12 A3000 RMK T02100120 IEM_DS3505
ZGSZ,2007-11-02 08:00,ZGSZ 020800Z AUTO 02010KT 5SM 22/11 A3000 RMK T02200110 IEM_DS3505
ZGSZ,2007-11-02 09:00,ZGSZ 020900Z AUTO 36006KT 4SM 20/12 A3003 RMK SLP169 T02040121 52004 IEM_DS3505
ZGSZ,2007-11-02 10:00,ZGSZ 021000Z AUTO 04006KT 5SM 21/12 A3003 RMK T02100120 IEM_DS3505
ZGSZ,2007-11-02 11:00,ZGSZ 021100Z AUTO 06006KT 5SM 21/12 A3003 RMK T02100120 IEM_DS3505
ZGSZ,2007-11-02 12:00,ZGSZ 021200Z AUTO 04006KT 7SM 20/11 A3006 RMK SLP186 T02010108 52017 IEM_DS3505
ZGSZ,2007-11-02 13:00,ZGSZ 021300Z AUTO 06004KT 5SM 21/12 A3009 RMK T02100120 IEM_DS3505
ZGSZ,2007-11-02 14:00,ZGSZ 021400Z AUTO 03004KT 5SM 20/10 A3009 RMK T02000100 IEM_DS3505
ZGSZ,2007-11-02 15:00,ZGSZ 021500Z AUTO 04008KT 7SM 20/10 A3012 RMK SLP198 T01980102 52012 IEM_DS3505
ZGSZ,2007-11-02 16:00,ZGSZ 021600Z AUTO 02006KT 5SM 20/09 A3009 RMK T02000090 IEM_DS3505
ZGSZ,2007-11-02 17:00,ZGSZ 021700Z AUTO 02006KT 5SM 19/09 A3009 RMK T01900090 IEM_DS3505
ZGSZ,2007-11-02 18:00,ZGSZ 021800Z AUTO 02004KT 7SM 18/09 A3006 RMK SLP184 T01830091 57014 IEM_DS3505
ZGSZ,2007-11-02 19:00,ZGSZ 021900Z AUTO 01006KT 4SM 18/09 A3006 RMK T01800090 IEM_DS3505
ZGSZ,2007-11-02 20:00,ZGSZ 022000Z AUTO 36006KT 5SM 18/09 A3006 RMK T01800090 IEM_DS3505
ZGSZ,2007-11-02 21:00,ZGSZ 022100Z AUTO 04004KT 9SM 17/08 A3006 RMK 70001 SLP178 T01740083 57006 IEM_DS3505
ZGSZ,2007-11-02 22:00,ZGSZ 022200Z AUTO 02006KT 5SM 17/08 A3006 RMK T01700080 IEM_DS3505
ZGSZ,2007-11-02 23:00,ZGSZ 022300Z AUTO 02008KT 5SM 18/09 A3009 RMK T01800090 IEM_DS3505
ZGSZ,2007-11-03 00:00,ZGSZ 030000Z AUTO 02008KT 9SM 18/08 A3009 RMK 70000 SLP194 T01820082 52016 IEM_DS3505
ZGSZ,2007-11-03 01:00,ZGSZ 030100Z AUTO 04006KT 4SM 20/09 A3012 RMK T02000090 IEM_DS3505
ZGSZ,2007-11-03 02:00,ZGSZ 030200Z AUTO 02008KT 4SM 22/10 A3012 RMK T02200100 IEM_DS3505
ZGSZ,2007-11-03 03:00,ZGSZ 030300Z AUTO 04010KT 6SM 21/09 A3009 RMK SLP190 T02140093 57003 IEM_DS3505
ZGSZ,2007-11-03 04:00,ZGSZ 030400Z AUTO 03008KT 5SM 24/10 A3006 RMK T02400100 IEM_DS3505
ZGSZ,2007-11-03 05:00,ZGSZ 030500Z AUTO 02008KT 5SM 25/09 A3003 RMK T02500090 IEM_DS3505
ZGSZ,2007-11-03 06:00,ZGSZ 030600Z AUTO 09004KT 6SM 24/11 A3000 RMK SLP164 T02360106 57026 IEM_DS3505
ZGSZ,2007-11-03 07:00,ZGSZ 030700Z AUTO 02010KT 6SM 25/11 A3000 RMK T02500110 IEM_DS3505
ZGSZ,2007-11-03 08:00,ZGSZ 030800Z AUTO 03008KT 6SM 25/11 A3000 RMK T02500110 IEM_DS3505
ZGSZ,2007-11-03 09:00,ZGSZ 030900Z AUTO 34006KT 7SM 23/11 A3003 RMK SLP169 T02300108 52005 IEM_DS3505
ZGSZ,2007-11-03 10:00,ZGSZ 031000Z AUTO 03008KT 4SM 23/10 A3003 RMK T02300100 IEM_DS3505
ZGSZ,2007-11-03 11:00,ZGSZ 031100Z AUTO 03008KT 4SM 23/10 A3003 RMK T02300100 IEM_DS3505
ZGSZ,2007-11-03 12:00,ZGSZ 031200Z AUTO 04004KT 2 1/2SM 21/11 A3006 RMK SLP185 T02090110 52015 IEM_DS3505
ZGSZ,2007-11-03 13:00,ZGSZ 031300Z AUTO 05008KT 5SM 22/09 A3006 RMK T02200090 IEM_DS3505
ZGSZ,2007-11-03 14:00,ZGSZ 031400Z AUTO 05008KT 5SM 22/09 A3009 RMK T02200090 IEM_DS3505
ZGSZ,2007-11-03 15:00,ZGSZ 031500Z AUTO 36002KT 2 1/2SM 20/10 A3009 RMK SLP192 T02040099 52008 IEM_DS3505
ZGSZ,2007-11-03 16:00,ZGSZ 031600Z AUTO 07004KT 3SM 21/10 A3009 RMK T02100100 IEM_DS3505
ZGSZ,2007-11-03 17:00,ZGSZ 031700Z AUTO 07006KT 4SM 21/09 A3009 RMK T02100090 IEM_DS3505
ZGSZ,2007-11-03 18:00,ZGSZ 031800Z AUTO 02006KT 5SM 20/10 A3009 RMK SLP190 T02030095 57002 IEM_DS3505
ZGSZ,2007-11-03 19:00,ZGSZ 031900Z AUTO 02006KT 4SM 20/09 A3009 RMK T02000090 IEM_DS3505
ZGSZ,2007-11-03 20:00,ZGSZ 032000Z AUTO 03006KT 4SM 20/09 A3006 RMK T02000090 IEM_DS3505
ZGSZ,2007-11-03 21:00,ZGSZ 032100Z AUTO 04008KT 7SM 19/08 A3006 RMK SLP181 T01910078 57009 IEM_DS3505
ZGSZ,2007-11-03 22:00,ZGSZ 032200Z AUTO 5SM 19/07 A3006 RMK T01900070 IEM_DS3505
ZGSZ,2007-11-03 23:00,ZGSZ 032300Z AUTO 01010KT 4SM 19/08 A3009 RMK T01900080 IEM_DS3505
ZGSZ,2007-11-04 00:00,ZGSZ 040000Z AUTO 02006KT 9SM 19/07 A3009 RMK SLP191 T01900068 52009 IEM_DS3505
ZGSZ,2007-11-04 01:00,ZGSZ 040100Z AUTO 03008KT 6SM 21/08 A3009 RMK T02100080 IEM_DS3505
ZGSZ,2007-11-04 02:00,ZGSZ 040200Z AUTO 06006KT 6SM 23/08 A3012 RMK T02300080 IEM_DS3505
ZGSZ,2007-11-04 03:00,ZGSZ 040300Z AUTO 04008KT 9SM 23/08 A3009 RMK SLP193 T02260076 52003 IEM_DS3505
ZGSZ,2007-11-04 04:00,ZGSZ 040400Z AUTO 03008KT 6SM 25/09 A3006 RMK T02500090 IEM_DS3505
ZGSZ,2007-11-04 05:00,ZGSZ 040500Z AUTO 02010KT 6SM 26/08 A3003 RMK T02600080 IEM_DS3505
ZGSZ,2007-11-04 06:00,ZGSZ 040600Z AUTO 07004KT 9SM 25/06 A3000 RMK SLP162 T02480061 57031 IEM_DS3505
ZGSZ,2007-11-04 07:00,ZGSZ 040700Z AUTO 02010KT 6SM 26/08 A2997 RMK T02600080 IEM_DS3505
ZGSZ,2007-11-04 08:00,ZGSZ 040800Z AUTO 01008KT 6SM 26/09 A2997 RMK T02600090 IEM_DS3505
ZGSZ,2007-11-04 09:00,ZGSZ 040900Z AUTO 36006KT 11SM 24/07 A3000 RMK SLP163 T02420069 52001 IEM_DS3505
ZGSZ,2007-11-04 10:00,ZGSZ 041000Z AUTO 03006KT 6SM 24/09 A3003 RMK T02400090 IEM_DS3505
ZGSZ,2007-11-04 11:00,ZGSZ 041100Z AUTO 04004KT 5SM 23/10 A3003 RMK T02300100 IEM_DS3505
ZGSZ,2007-11-04 12:00,ZGSZ 041200Z AUTO 07002KT 7SM 22/09 A3006 RMK SLP182 T02200092 52019 IEM_DS3505
ZGSZ,2007-11-04 13:00,ZGSZ 041300Z AUTO 05004KT 4SM 22/10 A3006 RMK T02200100 IEM_DS3505
ZGSZ,2007-11-04 14:00,ZGSZ 041400Z AUTO 11004KT 4SM 22/11 A3006 RMK T02200110 IEM_DS3505
ZGSZ,2007-11-04 15:00,ZGSZ 041500Z AUTO 36004KT 7SM 20/13 A3006 RMK SLP184 T02000130 52002 IEM_DS3505
ZGSZ,2007-11-04 16:00,ZGSZ 041600Z AUTO 02006KT 4SM 21/10 A3003 RMK T02100100 IEM_DS3505
ZGSZ,2007-11-04 17:00,ZGSZ 041700Z AUTO 03006KT 4SM 21/09 A3003 RMK T02100090 IEM_DS3505
ZGSZ,2007-11-04 18:00,ZGSZ 041800Z AUTO 07004KT 4SM 20/09 A3003 RMK SLP169 T01960092 57015 IEM_DS3505
ZGSZ,2007-11-04 19:00,ZGSZ 041900Z AUTO 01006KT 4SM 20/08 A3000 RMK T02000080 IEM_DS3505
ZGSZ,2007-11-04 20:00,ZGSZ 042000Z AUTO 03006KT 5SM 19/08 A3000 RMK T01900080 IEM_DS3505
ZGSZ,2007-11-04 21:00,ZGSZ 042100Z AUTO 36006KT 4SM 19/07 A3003 RMK SLP166 T01860071 57003 IEM_DS3505
ZGSZ,2007-11-04 22:00,ZGSZ 042200Z AUTO 01010KT 5SM 19/08 A3003 RMK T01900080 IEM_DS3505
ZGSZ,2007-11-04 23:00,ZGSZ 042300Z AUTO 01004KT 5SM 18/08 A3003 RMK T01800080 IEM_DS3505
ZGSZ,2007-11-05 00:00,ZGSZ 050000Z AUTO 04004KT 7SM 19/07 A3006 RMK SLP178 T01900068 52012 IEM_DS3505
ZGSZ,2007-11-05 01:00,ZGSZ 050100Z AUTO 03008KT 3SM 21/08 A3006 RMK T02100080 IEM_DS3505
ZGSZ,2007-11-05 02:00,ZGSZ 050200Z AUTO 01010KT 4SM 22/08 A3006 RMK T02200080 IEM_DS3505
ZGSZ,2007-11-05 03:00,ZGSZ 050300Z AUTO 34004KT 5SM 22/08 A3006 RMK SLP177 T02230084 57001 IEM_DS3505
ZGSZ,2007-11-05 04:00,ZGSZ 050400Z AUTO 03010KT 4SM 24/08 A3000 RMK T02400080 IEM_DS3505
ZGSZ,2007-11-05 05:00,ZGSZ 050500Z AUTO 01012KT 6SM 25/09 A2997 RMK T02500090 IEM_DS3505
ZGSZ,2007-11-05 06:00,ZGSZ 050600Z AUTO 36010KT 7SM 25/08 A2994 RMK SLP138 T02480075 57039 IEM_DS3505
ZGSZ,2007-11-05 07:00,ZGSZ 050700Z AUTO 35012KT 6SM 27/08 A2991 RMK T02700080 IEM_DS3505
ZGSZ,2007-11-05 08:00,ZGSZ 050800Z AUTO 02010KT 6SM 26/07 A2991 RMK T02600070 IEM_DS3505
ZGSZ,2007-11-05 09:00,ZGSZ 050900Z AUTO 02006KT 4SM 24/07 A2991 RMK SLP136 T02440071 57002 IEM_DS3505
ZGSZ,2007-11-05 10:00,ZGSZ 051000Z AUTO 05008KT 6SM 25/07 A2994 RMK T02500070 IEM_DS3505
ZGSZ,2007-11-05 11:00,ZGSZ 051100Z AUTO 04004KT 5SM 24/08 A2994 RMK T02400080 IEM_DS3505
ZGSZ,2007-11-05 12:00,ZGSZ 051200Z AUTO 36012KT 6SM 23/08 A2997 RMK SLP152 T02300079 52016 IEM_DS3505
ZGSZ,2007-11-05 13:00,ZGSZ 051300Z AUTO 06008KT 4SM 24/08 A2997 RMK T02400080 IEM_DS3505
ZGSZ,2007-11-05 14:00,ZGSZ 051400Z AUTO 05008KT 4SM 23/08 A2997 RMK T02300080 IEM_DS3505
ZGSZ,2007-11-05 15:00,ZGSZ 051500Z AUTO 02008KT 7SM 22/08 A2997 RMK SLP149 T02170075 57003 IEM_DS3505
ZGSZ,2007-11-05 16:00,ZGSZ 051600Z AUTO 03008KT 4SM 22/09 A2997 RMK T02200090 IEM_DS3505
ZGSZ,2007-11-05 17:00,ZGSZ 051700Z AUTO 02008KT 4SM 21/08 A2997 RMK T02100080 IEM_DS3505
ZGSZ,2007-11-05 18:00,ZGSZ 051800Z AUTO 34004KT 6SM 20/08 A2994 RMK SLP145 T02030080 57004 IEM_DS3505
ZGSZ,2007-11-05 19:00,ZGSZ 051900Z AUTO 02010KT 4SM 20/07 A2994 RMK T02000070 IEM_DS3505
ZGSZ,2007-11-05 20:00,ZGSZ 052000Z AUTO 02008KT 4SM 20/08 A2994 RMK T02000080 IEM_DS3505
ZGSZ,2007-11-05 21:00,ZGSZ 052100Z AUTO 36006KT 6SM 19/08 A2994 RMK SLP141 T01910081 57004 IEM_DS3505
ZGSZ,2007-11-05 22:00,ZGSZ 052200Z AUTO 02010KT 4SM 19/09 A2997 RMK T01900090 IEM_DS3505
ZGSZ,2007-11-05 23:00,ZGSZ 052300Z AUTO 35004KT 4SM 18/09 A2997 RMK T01800090 IEM_DS3505
ZGSZ,2007-11-06 00:00,ZGSZ 060000Z AUTO 02008KT 7SM 20/09 A3000 RMK SLP156 T01960089 52015 IEM_DS3505
ZGSZ,2007-11-06 01:00,ZGSZ 060100Z AUTO 01012KT 4SM 22/09 A3000 RMK T02200090 IEM_DS3505
ZGSZ,2007-11-06 02:00,ZGSZ 060200Z AUTO 02010KT 4SM 24/10 A3000 RMK T02400100 IEM_DS3505
ZGSZ,2007-11-06 03:00,ZGSZ 060300Z AUTO 34008KT 7SM 24/10 A2997 RMK SLP152 T02360103 57004 IEM_DS3505
ZGSZ,2007-11-06 04:00,ZGSZ 060400Z AUTO 02012KT 5SM 26/10 A2997 RMK T02600100 IEM_DS3505
ZGSZ,2007-11-06 05:00,ZGSZ 060500Z AUTO 01014KT 6SM 27/11 A2991 RMK T02700110 IEM_DS3505
ZGSZ,2007-11-06 06:00,ZGSZ 060600Z AUTO 36008KT 7SM 26/12 A2988 RMK SLP119 T02590117 57032 IEM_DS3505
ZGSZ,2007-11-06 07:00,ZGSZ 060700Z AUTO 36014KT 6SM 28/12 A2985 RMK T02800120 IEM_DS3505
ZGSZ,2007-11-06 08:00,ZGSZ 060800Z AUTO 02014KT 6SM 28/12 A2985 RMK T02800120 IEM_DS3505
ZGSZ,2007-11-06 09:00,ZGSZ 060900Z AUTO 02008KT 9SM 26/13 A2985 RMK SLP114 T02620126 57005 IEM_DS3505
ZGSZ,2007-11-06 10:00,ZGSZ 061000Z AUTO 36008KT 6SM 26/13 A2988 RMK T02600130 IEM_DS3505
ZGSZ,2007-11-06 11:00,ZGSZ 061100Z AUTO 01008KT 4SM 26/13 A2991 RMK T02600130 IEM_DS3505
ZGSZ,2007-11-06 12:00,ZGSZ 061200Z AUTO 34008KT 7SM 25/13 A2991 RMK SLP136 T02470130 52021 IEM_DS3505
ZGSZ,2007-11-06 13:00,ZGSZ 061300Z AUTO 02008KT 5SM 25/13 A2991 RMK T02500130 IEM_DS3505
ZGSZ,2007-11-06 14:00,ZGSZ 061400Z AUTO 02010KT 6SM 25/11 A2994 RMK T02500110 IEM_DS3505
ZGSZ,2007-11-06 15:00,ZGSZ 061500Z AUTO 02008KT 6SM 24/10 A2997 RMK T02400100 IEM_DS3505
ZGSZ,2007-11-06 16:00,ZGSZ 061600Z AUTO 02010KT 6SM 23/10 A2994 RMK T02300100 IEM_DS3505
ZGSZ,2007-11-06 17:00,ZGSZ 061700Z AUTO 02010KT 6SM 22/10 A2994 RMK T02200100 IEM_DS3505
ZGSZ,2007-11-06 18:00,ZGSZ 061800Z AUTO 36006KT 7SM 22/10 A2994 RMK SLP134 T02180103 57009 IEM_DS3505
ZGSZ,2007-11-06 19:00,ZGSZ 061900Z AUTO 02010KT 6SM 22/09 A2991 RMK T02200090 IEM_DS3505
ZGSZ,2007-11-06 20:00,ZGSZ 062000Z AUTO 03008KT 6SM 21/09 A2994 RMK T02100090 IEM_DS3505
ZGSZ,2007-11-06 21:00,ZGSZ 062100Z AUTO 36008KT 6SM 20/10 A2994 RMK SLP137 T02030098 52003 IEM_DS3505
ZGSZ,2007-11-06 22:00,ZGSZ 062200Z AUTO 02010KT 5SM 21/09 A2994 RMK T02100090 IEM_DS3505
ZGSZ,2007-11-06 23:00,ZGSZ 062300Z AUTO 02010KT 5SM 21/08 A2997 RMK T02100080 IEM_DS3505
ZGSZ,2007-11-07 00:00,ZGSZ 070000Z AUTO 36008KT 7SM 20/10 A2997 RMK SLP151 T02020100 52013 IEM_DS3505
ZGSZ,2007-11-07 01:00,ZGSZ 070100Z AUTO 02014KT 6SM 21/09 A3000 RMK T02100090 IEM_DS3505
ZGSZ,2007-11-07 02:00,ZGSZ 070200Z AUTO 03012KT 6SM 22/10 A3000 RMK T02200100 IEM_DS3505
ZGSZ,2007-11-07 03:00,ZGSZ 070300Z AUTO 36010KT 6SM 23/10 A2997 RMK SLP144 T02310105 57006 IEM_DS3505
ZGSZ,2007-11-07 04:00,ZGSZ 070400Z AUTO 02014KT 6SM 23/10 A2994 RMK T02300100 IEM_DS3505
ZGSZ,2007-11-07 05:00,ZGSZ 070500Z AUTO 02012KT 6SM 24/10 A2991 RMK T02400100 IEM_DS3505
ZGSZ,2007-11-07 06:00,ZGSZ 070600Z AUTO 34008KT 6SM 22/12 A2988 RMK 60000 SLP124 T02220116 57021 IEM_DS3505
ZGSZ,2007-11-07 07:00,ZGSZ 070700Z AUTO 03008KT 6SM 24/11 A2988 RMK T02400110 IEM_DS3505
ZGSZ,2007-11-07 08:00,ZGSZ 070800Z AUTO 03010KT 6SM 25/11 A2988 RMK T02500110 IEM_DS3505
ZGSZ,2007-11-07 09:00,ZGSZ 070900Z AUTO 02004KT 7SM 23/11 A2988 RMK SLP123 T02330114 57001 IEM_DS3505
ZGSZ,2007-11-07 10:00,ZGSZ 071000Z AUTO 03008KT 7SM 24/11 A2988 RMK T02400110 IEM_DS3505
ZGSZ,2007-11-07 11:00,ZGSZ 071100Z AUTO 04008KT 7SM 24/10 A2991 RMK T02400100 IEM_DS3505
ZGSZ,2007-11-07 12:00,ZGSZ 071200Z AUTO 02006KT 6SM 23/11 A2991 RMK SLP136 T02300111 52013 IEM_DS3505
ZGSZ,2007-11-07 13:00,ZGSZ 071300Z AUTO 03008KT 7SM 24/10 A2994 RMK T02400100 IEM_DS3505
ZGSZ,2007-11-07 14:00,ZGSZ 071400Z AUTO 04006KT 6SM 24/11 A2994 RMK T02400110 IEM_DS3505
ZGSZ,2007-11-07 15:00,ZGSZ 071500Z AUTO 04006KT 7SM 22/11 A2994 RMK SLP141 T02230111 52005 IEM_DS3505
ZGSZ,2007-11-07 16:00,ZGSZ 071600Z AUTO 03006KT 7SM 23/11 A2991 RMK T02300110 IEM_DS3505
ZGSZ,2007-11-07 17:00,ZGSZ 071700Z AUTO 03006KT 7SM 23/11 A2991 RMK T02300110 IEM_DS3505
ZGSZ,2007-11-07 18:00,ZGSZ 071800Z AUTO 34004KT 5SM 21/12 A2991 RMK 60002 SLP129 T02080122 57012 IEM_DS3505
ZGSZ,2007-11-07 19:00,ZGSZ 071900Z AUTO 03006KT 7SM 22/11 A2991 RMK T02200110 IEM_DS3505
ZGSZ,2007-11-07 20:00,ZGSZ 072000Z AUTO 03008KT 7SM 21/11 A2988 RMK T02100110 IEM_DS3505
ZGSZ,2007-11-07 21:00,ZGSZ 072100Z AUTO 36006KT 4SM 19/13 A2988 RMK 70003 SLP126 T01880130 57003 IEM_DS3505
ZGSZ,2007-11-07 22:00,ZGSZ 072200Z AUTO 02008KT 7SM 22/11 A2988 RMK T02200110 IEM_DS3505
ZGSZ,2007-11-07 23:00,ZGSZ 072300Z AUTO 06006KT 7SM 21/11 A2991 RMK T02100110 IEM_DS3505
ZGSZ,2007-11-08 00:00,ZGSZ 080000Z AUTO 02004KT 2 1/2SM 17/15 A2994 RMK 60028 70028 SLP148 T01660148 52022 IEM_DS3505
ZGSZ,2007-11-08 01:00,ZGSZ 080100Z AUTO 03004KT 2 1/2SM 18/14 A2997 RMK T01800140 IEM_DS3505
ZGSZ,2007-11-08 02:00,ZGSZ 080200Z AUTO 30004KT 2 1/2SM 18/15 A2997 RMK T01800150 IEM_DS3505
ZGSZ,2007-11-08 03:00,ZGSZ 080300Z AUTO 36004KT 2 1/2SM 18/15 A2997 RMK SLP150 T01780151 52002 IEM_DS3505
ZGSZ,2007-11-08 04:00,ZGSZ 080400Z AUTO 36006KT 2 1/2SM 20/16 A2994 RMK T02000160 IEM_DS3505
ZGSZ,2007-11-08 05:00,ZGSZ 080500Z AUTO 05006KT 3SM 21/15 A2991 RMK T02100150 IEM_DS3505
ZGSZ,2007-11-08 06:00,ZGSZ 080600Z AUTO 02004KT 2 1/2SM 20/14 A2991 RMK 60016 SLP129 T02030144 57021 IEM_DS3505
ZGSZ,2007-11-08 07:00,ZGSZ 080700Z AUTO 03008KT 4SM 22/14 A2988 RMK T02200140 IEM_DS3505
ZGSZ,2007-11-08 08:00,ZGSZ 080800Z AUTO 01012KT 5SM 20/14 A2991 RMK T02000140 IEM_DS3505
ZGSZ,2007-11-08 09:00,ZGSZ 080900Z AUTO 04006KT 3SM 20/15 A2991 RMK SLP132 T02020148 52003 IEM_DS3505
ZGSZ,2007-11-08 10:00,ZGSZ 081000Z AUTO 05010KT 3SM 20/15 A2994 RMK T02000150 IEM_DS3505
ZGSZ,2007-11-08 11:00,ZGSZ 081100Z AUTO 04010KT 4SM 20/15 A2994 RMK T02000150 IEM_DS3505
ZGSZ,2007-11-08 12:00,ZGSZ 081200Z AUTO 02006KT 3SM 18/15 A2994 RMK 60002 SLP145 T01830154 52012 IEM_DS3505
ZGSZ,2007-11-08 13:00,ZGSZ 081300Z AUTO 05010KT 7SM 21/15 A2997 RMK T02100150 IEM_DS3505
ZGSZ,2007-11-08 14:00,ZGSZ 081400Z AUTO 06004KT 7SM 21/14 A2997 RMK T02100140 IEM_DS3505
ZGSZ,2007-11-08 15:00,ZGSZ 081500Z AUTO 02004KT 4SM 19/15 A2997 RMK SLP152 T01910152 52007 IEM_DS3505
ZGSZ,2007-11-08 16:00,ZGSZ 081600Z AUTO 4SM 21/15 A2997 RMK T02100150 IEM_DS3505
ZGSZ,2007-11-08 17:00,ZGSZ 081700Z AUTO 00000KT 4SM 21/15 A2997 RMK T02100150 IEM_DS3505
ZGSZ,2007-11-08 18:00,ZGSZ 081800Z AUTO 34002KT 6SM 20/14 A2994 RMK 60002 SLP145 T01990138 57006 IEM_DS3505
ZGSZ,2007-11-08 19:00,ZGSZ 081900Z AUTO 00000KT 3SM 21/15 A2994 RMK T02100150 IEM_DS3505
ZGSZ,2007-11-08 20:00,ZGSZ 082000Z AUTO 02004KT 3SM 20/15 A2994 RMK T02000150 IEM_DS3505
ZGSZ,2007-11-08 21:00,ZGSZ 082100Z AUTO 36004KT 6SM 20/12 RMK 70043 SLP140 T02050117 57005 IEM_DS3505
ZGSZ,2007-11-08 22:00,ZGSZ 082200Z AUTO 4SM 20/14 A2994 RMK T02000140 IEM_DS3505
ZGSZ,2007-11-08 23:00,ZGSZ 082300Z AUTO 02004KT 6SM 21/14 A2997 RMK T02100140 IEM_DS3505
ZGSZ,2007-11-09 00:00,ZGSZ 090000Z AUTO 07002KT 5SM 21/11 A2997 RMK 70018 SLP157 T02130113 52017 IEM_DS3505
ZGSZ,2007-11-09 01:00,ZGSZ 090100Z AUTO 03010KT 4SM 23/12 A3000 RMK T02300120 IEM_DS3505
ZGSZ,2007-11-09 02:00,ZGSZ 090200Z AUTO 03012KT 5SM 25/11 A3000 RMK T02500110 IEM_DS3505
ZGSZ,2007-11-09 03:00,ZGSZ 090300Z AUTO 36008KT 5SM 25/11 A3000 RMK SLP158 T02460112 52001 IEM_DS3505
ZGSZ,2007-11-09 04:00,ZGSZ 090400Z AUTO 06010KT 5SM 27/11 A2997 RMK T02700110 IEM_DS3505
ZGSZ,2007-11-09 05:00,ZGSZ 090500Z AUTO 02010KT 6SM 27/12 A2994 RMK T02700120 IEM_DS3505
ZGSZ,2007-11-09 06:00,ZGSZ 090600Z AUTO 04006KT 6SM 27/12 A2991 RMK SLP133 T02660119 57024 IEM_DS3505
ZGSZ,2007-11-09 07:00,ZGSZ 090700Z AUTO 03008KT 6SM 28/12 A2988 RMK T02800120 IEM_DS3505
ZGSZ,2007-11-09 08:00,ZGSZ 090800Z AUTO 03008KT 6SM 28/12 A2991 RMK T02800120 IEM_DS3505
ZGSZ,2007-11-09 09:00,ZGSZ 090900Z AUTO 34006KT 7SM 26/12 A2991 RMK SLP130 T02610118 57003 IEM_DS3505
ZGSZ,2007-11-09 10:00,ZGSZ 091000Z AUTO 03008KT 6SM 26/11 A2991 RMK T02600110 IEM_DS3505
ZGSZ,2007-11-09 11:00,ZGSZ 091100Z AUTO 02006KT 4SM 26/11 A2991 RMK T02600110 IEM_DS3505
ZGSZ,2007-11-09 12:00,ZGSZ 091200Z AUTO 07002KT 5SM 24/13 A2994 RMK SLP144 T02400126 52013 IEM_DS3505
ZGSZ,2007-11-09 13:00,ZGSZ 091300Z AUTO 06006KT 6SM 24/11 A2997 RMK T02400110 IEM_DS3505
ZGSZ,2007-11-09 14:00,ZGSZ 091400Z AUTO 11004KT 4SM 23/13 A2997 RMK T02300130 IEM_DS3505
ZGSZ,2007-11-09 15:00,ZGSZ 091500Z AUTO 09004KT 4SM 21/17 A2997 RMK SLP158 T02130171 52014 IEM_DS3505
ZGSZ,2007-11-09 16:00,ZGSZ 091600Z AUTO 10006KT 3SM 21/15 A2997 RMK T02100150 IEM_DS3505
ZGSZ,2007-11-09 17:00,ZGSZ 091700Z AUTO 11004KT 3SM 21/16 A2997 RMK T02100160 IEM_DS3505
ZGSZ,2007-11-09 18:00,ZGSZ 091800Z AUTO 04002KT 5SM 20/17 A2997 RMK SLP153 T02040168 57004 IEM_DS3505
ZGSZ,2007-11-09 19:00,ZGSZ 091900Z AUTO 00000KT 3SM 19/15 A2997 RMK T01900150 IEM_DS3505
ZGSZ,2007-11-09 20:00,ZGSZ 092000Z AUTO 00000KT 2 1/2SM 20/16 A2997 RMK T02000160 IEM_DS3505
ZGSZ,2007-11-09 21:00,ZGSZ 092100Z AUTO 36004KT 4SM 19/16 A2997 RMK SLP152 T01930163 57002 IEM_DS3505
ZGSZ,2007-11-09 22:00,ZGSZ 092200Z AUTO 00000KT 2 1/2SM 20/16 A3000 RMK T02000160 IEM_DS3505
ZGSZ,2007-11-09 23:00,ZGSZ 092300Z AUTO 35004KT 3SM 18/13 A3003 RMK T01800130 IEM_DS3505
ZGSZ,2007-11-10 00:00,ZGSZ 100000Z AUTO 04004KT 5SM 20/09 A3003 RMK SLP171 T02050088 52019 IEM_DS3505
ZGSZ,2007-11-10 01:00,ZGSZ 100100Z AUTO 03006KT 4SM 23/08 A3006 RMK T02300080 IEM_DS3505
ZGSZ,2007-11-10 02:00,ZGSZ 100200Z AUTO 04006KT 5SM 25/08 A3006 RMK T02500080 IEM_DS3505
ZGSZ,2007-11-10 03:00,ZGSZ 100300Z AUTO 04004KT 6SM 24/09 A3006 RMK SLP178 T02430091 52007 IEM_DS3505
ZGSZ,2007-11-10 04:00,ZGSZ 100400Z AUTO 4SM 27/09 A3003 RMK T02700090 IEM_DS3505
ZGSZ,2007-11-10 05:00,ZGSZ 100500Z AUTO 06006KT 6SM 27/09 A3000 RMK T02700090 IEM_DS3505
ZGSZ,2007-11-10 06:00,ZGSZ 100600Z AUTO 04004KT 6SM 26/08 A2997 RMK SLP150 T02640084 57027 IEM_DS3505
ZGSZ,2007-11-10 07:00,ZGSZ 100700Z AUTO 02004KT 6SM 28/08 A2994 RMK T02800080 IEM_DS3505
ZGSZ,2007-11-10 08:00,ZGSZ 100800Z AUTO 02008KT 6SM 28/08 A2994 RMK T02800080 IEM_DS3505
ZGSZ,2007-11-10 09:00,ZGSZ 100900Z AUTO 07004KT 4SM 25/12 A2994 RMK SLP148 T02510120 57003 IEM_DS3505
ZGSZ,2007-11-10 10:00,ZGSZ 101000Z AUTO 05006KT 5SM 26/08 A2997 RMK T02600080 IEM_DS3505
ZGSZ,2007-11-10 11:00,ZGSZ 101100Z AUTO 18004KT 4SM 23/17 A2997 RMK T02300170 IEM_DS3505
ZGSZ,2007-11-10 12:00,ZGSZ 101200Z AUTO 07004KT 4SM 21/16 A3000 RMK SLP167 T02120155 52019 IEM_DS3505
ZGSZ,2007-11-10 13:00,ZGSZ 101300Z AUTO 10004KT 3SM 22/15 A3003 RMK T02200150 IEM_DS3505
ZGSZ,2007-11-10 14:00,ZGSZ 101400Z AUTO 13006KT 3SM 21/16 A3003 RMK T02100160 IEM_DS3505
ZGSZ,2007-11-10 15:00,ZGSZ 101500Z AUTO 09004KT 4SM 20/16 A3006 RMK SLP180 T02050163 52013 IEM_DS3505
ZGSZ,2007-11-10 16:00,ZGSZ 101600Z AUTO 4SM 21/16 A3006 RMK T02100160 IEM_DS3505
ZGSZ,2007-11-10 17:00,ZGSZ 101700Z AUTO 00000KT 3SM 19/15 A3003 RMK T01900150 IEM_DS3505
ZGSZ,2007-11-10 18:00,ZGSZ 101800Z AUTO 04002KT 3SM 20/16 A3003 RMK SLP175 T01980163 57005 IEM_DS3505
ZGSZ,2007-11-10 19:00,ZGSZ 101900Z AUTO 00000KT 2 1/2SM 18/16 A3003 RMK T01800160 IEM_DS3505
ZGSZ,2007-11-10 20:00,ZGSZ 102000Z AUTO 00000KT 2 1/2SM 18/16 A3003 RMK T01800160 IEM_DS3505
ZGSZ,2007-11-10 21:00,ZGSZ 102100Z AUTO 02002KT 3SM 19/16 A3003 RMK SLP173 T01880157 57002 IEM_DS3505
ZGSZ,2007-11-10 22:00,ZGSZ 102200Z AUTO 03004KT 1 1/2SM 18/16 A3006 RMK T01800160 IEM_DS3505
ZGSZ,2007-11-10 23:00,ZGSZ 102300Z AUTO 35002KT 2SM 18/15 A3006 RMK T01800150 IEM_DS3505
ZGSZ,2007-11-11 00:00,ZGSZ 110000Z AUTO 02004KT 4SM 19/15 A3009 RMK SLP190 T01920149 52016 IEM_DS3505
ZGSZ,2007-11-11 01:00,ZGSZ 110100Z AUTO 06006KT 3SM 22/12 A3009 RMK T02200120 IEM_DS3505
ZGSZ,2007-11-11 02:00,ZGSZ 110200Z AUTO 03004KT 3SM 23/11 A3009 RMK T02300110 IEM_DS3505
ZGSZ,2007-11-11 03:00,ZGSZ 110300Z AUTO 02004KT 4SM 23/13 A3009 RMK SLP188 T02280127 57001 IEM_DS3505
ZGSZ,2007-11-11 04:00,ZGSZ 110400Z AUTO 05006KT 4SM 25/09 A3006 RMK T02500090 IEM_DS3505
ZGSZ,2007-11-11 05:00,ZGSZ 110500Z AUTO 25004KT 4SM 25/12 A3000 RMK T02500120 IEM_DS3505
ZGSZ,2007-11-11 06:00,ZGSZ 110600Z AUTO 14004KT 4SM 25/10 A2997 RMK SLP156 T02540097 57032 IEM_DS3505
ZGSZ,2007-11-11 07:00,ZGSZ 110700Z AUTO 26006KT 3SM 25/12 A2997 RMK T02500120 IEM_DS3505
ZGSZ,2007-11-11 08:00,ZGSZ 110800Z AUTO 27004KT 3SM 25/13 A2994 RMK T02500130 IEM_DS3505
ZGSZ,2007-11-11 09:00,ZGSZ 110900Z AUTO 18004KT 4SM 24/14 A2997 RMK SLP153 T02370136 57003 IEM_DS3505
ZGSZ,2007-11-11 10:00,ZGSZ 111000Z AUTO 16006KT 2 1/2SM 22/15 A2997 RMK T02200150 IEM_DS3505
ZGSZ,2007-11-11 11:00,ZGSZ 111100Z AUTO 17006KT 2 1/2SM 22/17 A3000 RMK T02200170 IEM_DS3505
ZGSZ,2007-11-11 12:00,ZGSZ 111200Z AUTO 07006KT 4SM 20/15 A3003 RMK SLP178 T02050151 52024 IEM_DS3505
ZGSZ,2007-11-11 13:00,ZGSZ 111300Z AUTO 11008KT 3SM 22/15 A3006 RMK T02200150 IEM_DS3505
ZGSZ,2007-11-11 14:00,ZGSZ 111400Z AUTO 11006KT 2 1/2SM 21/16 A3006 RMK T02100160 IEM_DS3505
ZGSZ,2007-11-11 15:00,ZGSZ 111500Z AUTO 09004KT 3SM 20/16 A3006 RMK SLP183 T02010157 52006 IEM_DS3505
ZGSZ,2007-11-11 16:00,ZGSZ 111600Z AUTO 11004KT 2 1/2SM 20/16 A3006 RMK T02000160 IEM_DS3505
ZGSZ,2007-11-11 17:00,ZGSZ 111700Z AUTO 10004KT 2 1/2SM 20/16 A3006 RMK T02000160 IEM_DS3505
ZGSZ,2007-11-11 18:00,ZGSZ 111800Z AUTO 07004KT 4SM 20/15 A3003 RMK SLP176 T01970151 57007 IEM_DS3505
ZGSZ,2007-11-11 19:00,ZGSZ 111900Z AUTO 04004KT 2 1/2SM 19/15 A3003 RMK T01900150 IEM_DS3505
ZGSZ,2007-11-11 20:00,ZGSZ 112000Z AUTO 04004KT 2 1/2SM 19/15 A3003 RMK T01900150 IEM_DS3505
ZGSZ,2007-11-11 21:00,ZGSZ 112100Z AUTO 07004KT 5SM 19/14 A3003 RMK SLP176 T01880141 54000 IEM_DS3505
ZGSZ,2007-11-11 22:00,ZGSZ 112200Z AUTO 00000KT 2SM 18/14 A3006 RMK T01800140 IEM_DS3505
ZGSZ,2007-11-11 23:00,ZGSZ 112300Z AUTO 06006KT 2SM 18/14 A3006 RMK T01800140 IEM_DS3505
ZGSZ,2007-11-12 00:00,ZGSZ 120000Z AUTO 04006KT 4SM 19/14 A3009 RMK SLP189 T01880139 52012 IEM_DS3505
ZGSZ,2007-11-12 01:00,ZGSZ 120100Z AUTO 03004KT 3SM 21/14 A3009 RMK T02100140 IEM_DS3505
ZGSZ,2007-11-12 02:00,ZGSZ 120200Z AUTO 08006KT 3SM 22/13 A3009 RMK T02200130 IEM_DS3505
ZGSZ,2007-11-12 03:00,ZGSZ 120300Z AUTO 04006KT 3SM 22/14 A3006 RMK SLP186 T02250136 57002 IEM_DS3505
ZGSZ,2007-11-12 04:00,ZGSZ 120400Z AUTO 20004KT 3SM 24/14 A3003 RMK T02400140 IEM_DS3505
ZGSZ,2007-11-12 05:00,ZGSZ 120500Z AUTO 25006KT 2 1/2SM 25/15 A3000 RMK T02500150 IEM_DS3505
ZGSZ,2007-11-12 06:00,ZGSZ 120600Z AUTO 11008KT 6SM 24/12 A3000 RMK SLP158 T02450118 57028 IEM_DS3505
ZGSZ,2007-11-12 07:00,ZGSZ 120700Z AUTO 20006KT 2 1/2SM 25/16 A2997 RMK T02500160 IEM_DS3505
ZGSZ,2007-11-12 08:00,ZGSZ 120800Z AUTO 18006KT 3SM 24/15 A2997 RMK T02400150 IEM_DS3505
ZGSZ,2007-11-12 09:00,ZGSZ 120900Z AUTO 07004KT 6SM 23/12 A2997 RMK SLP154 T02260125 57004 IEM_DS3505
ZGSZ,2007-11-12 10:00,ZGSZ 121000Z AUTO 19006KT 4SM 22/16 A2997 RMK T02200160 IEM_DS3505
ZGSZ,2007-11-12 11:00,ZGSZ 121100Z AUTO 16006KT 5SM 21/16 A3000 RMK T02100160 IEM_DS3505
ZGSZ,2007-11-12 12:00,ZGSZ 121200Z AUTO 07006KT 6SM 20/14 A3000 RMK SLP169 T02010145 52014 IEM_DS3505
ZGSZ,2007-11-12 13:00,ZGSZ 121300Z AUTO 12008KT 4SM 21/15 A3003 RMK T02100150 IEM_DS3505
ZGSZ,2007-11-12 14:00,ZGSZ 121400Z AUTO 11008KT 5SM 20/16 A3003 RMK T02000160 IEM_DS3505
ZGSZ,2007-11-12 15:00,ZGSZ 121500Z AUTO 07002KT 7SM 20/15 A3003 RMK SLP174 T02000148 52006 IEM_DS3505
ZGSZ,2007-11-12 16:00,ZGSZ 121600Z AUTO 12008KT 4SM 20/15 A3003 RMK T02000150 IEM_DS3505
ZGSZ,2007-11-12 17:00,ZGSZ 121700Z AUTO 11006KT 4SM 20/15 A3003 RMK T02000150 IEM_DS3505
ZGSZ,2007-11-12 18:00,ZGSZ 121800Z AUTO 09004KT 8SM 20/15 A3000 RMK SLP165 T01960151 57009 IEM_DS3505
ZGSZ,2007-11-12 19:00,ZGSZ 121900Z AUTO 04004KT 3SM 19/15 A3000 RMK T01900150 IEM_DS3505
ZGSZ,2007-11-12 20:00,ZGSZ 122000Z AUTO 06004KT 3SM 18/15 A3000 RMK T01800150 IEM_DS3505
ZGSZ,2007-11-12 21:00,ZGSZ 122100Z AUTO 07006KT 5SM 19/14 A3000 RMK SLP164 T01860143 57001 IEM_DS3505
ZGSZ,2007-11-12 22:00,ZGSZ 122200Z AUTO 3SM 18/14 A3003 RMK T01800140 IEM_DS3505
ZGSZ,2007-11-12 23:00,ZGSZ 122300Z AUTO 3SM 17/14 A3006 RMK T01700140 IEM_DS3505
ZGSZ,2007-11-13 00:00,ZGSZ 130000Z AUTO 02006KT 5SM 19/12 A3006 RMK SLP182 T01910124 52017 IEM_DS3505
ZGSZ,2007-11-13 01:00,ZGSZ 130100Z AUTO 06006KT 5SM 21/13 A3006 RMK T02100130 IEM_DS3505
ZGSZ,2007-11-13 02:00,ZGSZ 130200Z AUTO 07004KT 6SM 23/12 A3009 RMK T02300120 IEM_DS3505
ZGSZ,2007-11-13 03:00,ZGSZ 130300Z AUTO 11006KT 6SM 24/09 A3006 RMK SLP183 T02370093 52002 IEM_DS3505
ZGSZ,2007-11-13 04:00,ZGSZ 130400Z AUTO 28006KT 6SM 24/13 A3003 RMK T02400130 IEM_DS3505
ZGSZ,2007-11-13 05:00,ZGSZ 130500Z AUTO 26006KT 3SM 24/15 A3003 RMK T02400150 IEM_DS3505
ZGSZ,2007-11-13 06:00,ZGSZ 130600Z AUTO 02006KT 16SM 25/07 A2997 RMK SLP157 T02530074 57026 IEM_DS3505
ZGSZ,2007-11-13 07:00,ZGSZ 130700Z AUTO 24006KT 5SM 25/13 A2997 RMK T02500130 IEM_DS3505
ZGSZ,2007-11-13 08:00,ZGSZ 130800Z AUTO 25006KT 5SM 25/15 A2997 RMK T02500150 IEM_DS3505
ZGSZ,2007-11-13 09:00,ZGSZ 130900Z AUTO 16006KT 12SM 25/12 A2997 RMK SLP153 T02480121 57004 IEM_DS3505
ZGSZ,2007-11-13 10:00,ZGSZ 131000Z AUTO 17004KT 6SM 22/15 A2997 RMK T02200150 IEM_DS3505
ZGSZ,2007-11-13 11:00,ZGSZ 131100Z AUTO 18006KT 6SM 21/16 A3000 RMK T02100160 IEM_DS3505
ZGSZ,2007-11-13 12:00,ZGSZ 131200Z AUTO 04004KT 9SM 21/14 A3000 RMK SLP167 T02140136 52014 IEM_DS3505
ZGSZ,2007-11-13 13:00,ZGSZ 131300Z AUTO 15006KT 4SM 20/16 A3003 RMK T02000160 IEM_DS3505
ZGSZ,2007-11-13 14:00,ZGSZ 131400Z AUTO 12008KT 4SM 21/15 A3003 RMK T02100150 IEM_DS3505
ZGSZ,2007-11-13 15:00,ZGSZ 131500Z AUTO 11004KT 7SM 20/16 A3006 RMK SLP180 T02000156 52013 IEM_DS3505
ZGSZ,2007-11-13 16:00,ZGSZ 131600Z AUTO 11010KT 5SM 21/16 A3003 RMK T02100160 IEM_DS3505
ZGSZ,2007-11-13 17:00,ZGSZ 131700Z AUTO 10006KT 6SM 20/16 A3003 RMK T02000160 IEM_DS3505
ZGSZ,2007-11-13 18:00,ZGSZ 131800Z AUTO 09004KT 7SM 20/16 A3003 RMK SLP172 T01970156 57008 IEM_DS3505
ZGSZ,2007-11-13 19:00,ZGSZ 131900Z AUTO 00000KT 4SM 19/16 A3003 RMK T01900160 IEM_DS3505
ZGSZ,2007-11-13 20:00,ZGSZ 132000Z AUTO 02004KT 3SM 19/15 A3003 RMK T01900150 IEM_DS3505
ZGSZ,2007-11-13 21:00,ZGSZ 132100Z AUTO 07002KT 6SM 19/15 A3003 RMK SLP172 T01910150 54000 IEM_DS3505
ZGSZ,2007-11-13 22:00,ZGSZ 132200Z AUTO 04004KT 3SM 19/16 A3003 RMK T01900160 IEM_DS3505
ZGSZ,2007-11-13 23:00,ZGSZ 132300Z AUTO 03004KT 3SM 18/16 A3006 RMK T01800160 IEM_DS3505
ZGSZ,2007-11-14 00:00,ZGSZ 140000Z AUTO 02004KT 6SM 20/15 A3009 RMK SLP191 T01970151 52019 IEM_DS3505
ZGSZ,2007-11-14 01:00,ZGSZ 140100Z AUTO 07004KT 4SM 21/15 A3009 RMK T02100150 IEM_DS3505
ZGSZ,2007-11-14 02:00,ZGSZ 140200Z AUTO 3SM 23/15 A3012 RMK T02300150 IEM_DS3505
ZGSZ,2007-11-14 03:00,ZGSZ 140300Z AUTO 04004KT 7SM 24/13 A3009 RMK SLP194 T02380131 52003 IEM_DS3505
ZGSZ,2007-11-14 04:00,ZGSZ 140400Z AUTO 28006KT 3SM 23/16 A3006 RMK T02300160 IEM_DS3505
ZGSZ,2007-11-14 05:00,ZGSZ 140500Z AUTO 25006KT 3SM 24/16 A3003 RMK T02400160 IEM_DS3505
ZGSZ,2007-11-14 06:00,ZGSZ 140600Z AUTO 07002KT 8SM 26/13 A3003 RMK SLP169 T02590131 57025 IEM_DS3505
ZGSZ,2007-11-14 07:00,ZGSZ 140700Z AUTO 22006KT 3SM 26/17 A3000 RMK T02600170 IEM_DS3505
ZGSZ,2007-11-14 08:00,ZGSZ 140800Z AUTO 23004KT 3SM 25/16 A3000 RMK T02500160 IEM_DS3505
ZGSZ,2007-11-14 09:00,ZGSZ 140900Z AUTO 09004KT 11SM 25/11 A3000 RMK SLP163 T02510106 57006 IEM_DS3505
ZGSZ,2007-11-14 10:00,ZGSZ 141000Z AUTO 18006KT 4SM 23/18 A3000 RMK T02300180 IEM_DS3505
ZGSZ,2007-11-14 11:00,ZGSZ 141100Z AUTO 16004KT 4SM 22/18 A3003 RMK T02200180 IEM_DS3505
ZGSZ,2007-11-14 12:00,ZGSZ 141200Z AUTO 09006KT 9SM 21/15 A3003 RMK SLP177 T02130152 52014 IEM_DS3505
ZGSZ,2007-11-14 13:00,ZGSZ 141300Z AUTO 15004KT 3SM 21/17 A3006 RMK T02100170 IEM_DS3505
ZGSZ,2007-11-14 14:00,ZGSZ 141400Z AUTO 11008KT 3SM 22/16 A3006 RMK T02200160 IEM_DS3505
ZGSZ,2007-11-14 15:00,ZGSZ 141500Z AUTO 07004KT 9SM 20/16 A3009 RMK SLP190 T02040164 52013 IEM_DS3505
ZGSZ,2007-11-14 16:00,ZGSZ 141600Z AUTO 12004KT 4SM 21/17 A3006 RMK T02100170 IEM_DS3505
ZGSZ,2007-11-14 17:00,ZGSZ 141700Z AUTO 4SM 20/16 A3009 RMK T02000160 IEM_DS3505
ZGSZ,2007-11-14 18:00,ZGSZ 141800Z AUTO 04006KT 9SM 20/16 A3009 RMK SLP189 T01990165 57001 IEM_DS3505
ZGSZ,2007-11-14 19:00,ZGSZ 141900Z AUTO 00000KT 2 1/2SM 19/16 A3006 RMK T01900160 IEM_DS3505
ZGSZ,2007-11-14 20:00,ZGSZ 142000Z AUTO 00000KT 2 1/2SM 19/16 A3006 RMK T01900160 IEM_DS3505
ZGSZ,2007-11-14 21:00,ZGSZ 142100Z AUTO 02002KT 6SM 19/16 A3006 RMK SLP185 T01910158 57004 IEM_DS3505
ZGSZ,2007-11-14 22:00,ZGSZ 142200Z AUTO 03004KT 2 1/2SM 18/16 A3009 RMK T01800160 IEM_DS3505
ZGSZ,2007-11-14 23:00,ZGSZ 142300Z AUTO 03004KT 2SM 18/16 A3009 RMK T01800160 IEM_DS3505
ZGSZ,2007-11-15 00:00,ZGSZ 150000Z AUTO 02004KT 5SM 20/16 A3012 RMK SLP197 T02000156 52012 IEM_DS3505
ZGSZ,2007-11-15 01:00,ZGSZ 150100Z AUTO 2 1/2SM 22/16 A3012 RMK T02200160 IEM_DS3505
ZGSZ,2007-11-15 02:00,ZGSZ 150200Z AUTO 4SM 24/15 A3012 RMK T02400150 IEM_DS3505
ZGSZ,2007-11-15 03:00,ZGSZ 150300Z AUTO 14006KT 4SM 25/14 A3012 RMK SLP200 T02510140 52003 IEM_DS3505
ZGSZ,2007-11-15 04:00,ZGSZ 150400Z AUTO 27006KT 2 1/2SM 25/17 A3009 RMK T02500170 IEM_DS3505
ZGSZ,2007-11-15 05:00,ZGSZ 150500Z AUTO 24006KT 3SM 25/17 A3006 RMK T02500170 IEM_DS3505
ZGSZ,2007-11-15 06:00,ZGSZ 150600Z AUTO 04004KT 9SM 27/12 A3003 RMK SLP171 T02720121 57029 IEM_DS3505
ZGSZ,2007-11-15 07:00,ZGSZ 150700Z AUTO 18008KT 4SM 25/18 A3003 RMK T02500180 IEM_DS3505
ZGSZ,2007-11-15 08:00,ZGSZ 150800Z AUTO 18008KT 6SM 24/19 A3003 RMK T02400190 IEM_DS3505
ZGSZ,2007-11-15 09:00,ZGSZ 150900Z AUTO 20006KT 14SM 25/16 A3003 RMK SLP179 T02530156 52008 IEM_DS3505
ZGSZ,2007-11-15 10:00,ZGSZ 151000Z AUTO 18006KT 6SM 23/19 A3006 RMK T02300190 IEM_DS3505
ZGSZ,2007-11-15 11:00,ZGSZ 151100Z AUTO 18004KT 6SM 22/18 A3006 RMK T02200180 IEM_DS3505
ZGSZ,2007-11-15 12:00,ZGSZ 151200Z AUTO 07006KT 11SM 22/17 A3009 RMK SLP195 T02180167 52016 IEM_DS3505
ZGSZ,2007-11-15 13:00,ZGSZ 151300Z AUTO 00000KT 4SM 22/16 A3009 RMK T02200160 IEM_DS3505
ZGSZ,2007-11-15 14:00,ZGSZ 151400Z AUTO 14004KT 4SM 21/17 A3009 RMK T02100170 IEM_DS3505
ZGSZ,2007-11-15 15:00,ZGSZ 151500Z AUTO 11004KT 3SM 22/17 A3009 RMK T02200170 IEM_DS3505
ZGSZ,2007-11-15 16:00,ZGSZ 151600Z AUTO 00000KT 4SM 21/16 A3009 RMK T02100160 IEM_DS3505
ZGSZ,2007-11-15 17:00,ZGSZ 151700Z AUTO 00000KT 3SM 20/16 A3009 RMK T02000160 IEM_DS3505
ZGSZ,2007-11-15 18:00,ZGSZ 151800Z AUTO 07002KT 7SM 21/16 A3006 RMK SLP186 T02060164 57010 IEM_DS3505
ZGSZ,2007-11-15 19:00,ZGSZ 151900Z AUTO 00000KT 3SM 20/16 A3006 RMK T02000160 IEM_DS3505
ZGSZ,2007-11-15 20:00,ZGSZ 152000Z AUTO 01002KT 3SM 20/17 A3006 RMK T02000170 IEM_DS3505
ZGSZ,2007-11-15 21:00,ZGSZ 152100Z AUTO 07002KT 7SM 20/16 A3006 RMK SLP186 T02020160 54000 IEM_DS3505
ZGSZ,2007-11-15 22:00,ZGSZ 152200Z AUTO 02004KT 3SM 19/16 A3009 RMK T01900160 IEM_DS3505
ZGSZ,2007-11-15 23:00,ZGSZ 152300Z AUTO 00000KT 2 1/2SM 19/16 A3009 RMK T01900160 IEM_DS3505
ZGSZ,2007-11-16 00:00,ZGSZ 160000Z AUTO 04004KT 4SM 21/16 A3012 RMK SLP198 T02090161 52012 IEM_DS3505
ZGSZ,2007-11-16 01:00,ZGSZ 160100Z AUTO 3SM 23/17 A3012 RMK T02300170 IEM_DS3505
ZGSZ,2007-11-16 02:00,ZGSZ 160200Z AUTO 22004KT 3SM 25/17 A3012 RMK T02500170 IEM_DS3505
ZGSZ,2007-11-16 03:00,ZGSZ 160300Z AUTO 11006KT 11SM 26/13 A3009 RMK SLP196 T02600132 57002 IEM_DS3505
ZGSZ,2007-11-16 04:00,ZGSZ 160400Z AUTO 24006KT 3SM 26/17 A3006 RMK T02600170 IEM_DS3505
ZGSZ,2007-11-16 05:00,ZGSZ 160500Z AUTO 27006KT 4SM 26/17 A3000 RMK T02600170 IEM_DS3505
ZGSZ,2007-11-16 06:00,ZGSZ 160600Z AUTO 16006KT 16SM 28/14 A2997 RMK SLP157 T02760143 57038 IEM_DS3505
ZGSZ,2007-11-16 07:00,ZGSZ 160700Z AUTO 21008KT 3SM 26/19 A2997 RMK T02600190 IEM_DS3505
ZGSZ,2007-11-16 08:00,ZGSZ 160800Z AUTO 21004KT 5SM 26/18 A2994 RMK T02600180 IEM_DS3505
ZGSZ,2007-11-16 09:00,ZGSZ 160900Z AUTO 07004KT 14SM 26/15 A2994 RMK SLP144 T02570151 57014 IEM_DS3505
ZGSZ,2007-11-16 10:00,ZGSZ 161000Z AUTO 00000KT 6SM 23/19 A2994 RMK T02300190 IEM_DS3505
ZGSZ,2007-11-16 11:00,ZGSZ 161100Z AUTO 17002KT 4SM 23/20 A2994 RMK T02300200 IEM_DS3505
ZGSZ,2007-11-16 12:00,ZGSZ 161200Z AUTO 09004KT 8SM 23/16 A2997 RMK SLP159 T02270163 52015 IEM_DS3505
ZGSZ,2007-11-16 13:00,ZGSZ 161300Z AUTO 14006KT 3SM 22/19 A2997 RMK T02200190 IEM_DS3505
ZGSZ,2007-11-16 14:00,ZGSZ 161400Z AUTO 12008KT 4SM 23/17 A3000 RMK T02300170 IEM_DS3505
ZGSZ,2007-11-16 15:00,ZGSZ 161500Z AUTO 12010KT 4SM 23/17 A3000 RMK T02300170 IEM_DS3505
ZGSZ,2007-11-16 16:00,ZGSZ 161600Z AUTO 12008KT 4SM 22/17 A3000 RMK T02200170 IEM_DS3505
ZGSZ,2007-11-16 17:00,ZGSZ 161700Z AUTO 12008KT 4SM 22/17 A3000 RMK T02200170 IEM_DS3505
ZGSZ,2007-11-16 18:00,ZGSZ 161800Z AUTO 09006KT 7SM 21/17 A3000 RMK SLP162 T02110173 57002 IEM_DS3505
ZGSZ,2007-11-16 19:00,ZGSZ 161900Z AUTO 10010KT 4SM 22/18 A3000 RMK T02200180 IEM_DS3505
ZGSZ,2007-11-16 20:00,ZGSZ 162000Z AUTO 07004KT 3SM 21/18 A2997 RMK T02100180 IEM_DS3505
ZGSZ,2007-11-16 21:00,ZGSZ 162100Z AUTO 09004KT 9SM 21/17 A2997 RMK SLP157 T02080168 57006 IEM_DS3505
ZGSZ,2007-11-16 22:00,ZGSZ 162200Z AUTO 6SM 21/17 A3000 RMK T02100170 IEM_DS3505
ZGSZ,2007-11-16 23:00,ZGSZ 162300Z AUTO 09004KT 4SM 20/17 A3000 RMK T02000170 IEM_DS3505
ZGSZ,2007-11-17 00:00,ZGSZ 170000Z AUTO 07004KT 10SM 22/16 A3000 RMK SLP165 T02190162 52008 IEM_DS3505
ZGSZ,2007-11-17 01:00,ZGSZ 170100Z AUTO 4SM 24/18 A3003 RMK T02400180 IEM_DS3505
ZGSZ,2007-11-17 02:00,ZGSZ 170200Z AUTO 08006KT 5SM 25/17 A3003 RMK T02500170 IEM_DS3505
ZGSZ,2007-11-17 03:00,ZGSZ 170300Z AUTO 20004KT 11SM 25/16 A3000 RMK SLP161 T02500159 57004 IEM_DS3505
ZGSZ,2007-11-17 04:00,ZGSZ 170400Z AUTO 03008G17KT 6SM 28/16 A2997 RMK T02800160 IEM_DS3505
ZGSZ,2007-11-17 05:00,ZGSZ 170500Z AUTO 7SM 28/16 A2994 RMK T02800160 IEM_DS3505
ZGSZ,2007-11-17 06:00,ZGSZ 170600Z AUTO 11004KT 9SM 28/15 A2991 RMK SLP136 T02770150 57024 IEM_DS3505
ZGSZ,2007-11-17 07:00,ZGSZ 170700Z AUTO 24006KT 2 1/2SM 26/18 A2991 RMK T02600180 IEM_DS3505
ZGSZ,2007-11-17 08:00,ZGSZ 170800Z AUTO 24004KT 2 1/2SM 26/18 A2991 RMK T02600180 IEM_DS3505
ZGSZ,2007-11-17 09:00,ZGSZ 170900Z AUTO 29002KT 6SM 25/17 A2991 RMK SLP135 T02540173 57001 IEM_DS3505
ZGSZ,2007-11-17 10:00,ZGSZ 171000Z AUTO 19002KT 3SM 24/19 A2994 RMK T02400190 IEM_DS3505
ZGSZ,2007-11-17 11:00,ZGSZ 171100Z AUTO 18004KT 3SM 24/19 A2994 RMK T02400190 IEM_DS3505
ZGSZ,2007-11-17 12:00,ZGSZ 171200Z AUTO 09002KT 3SM 24/17 A2997 RMK SLP152 T02390169 52016 IEM_DS3505
ZGSZ,2007-11-17 13:00,ZGSZ 171300Z AUTO 00000KT 2 1/2SM 23/19 A2997 RMK T02300190 IEM_DS3505
ZGSZ,2007-11-17 14:00,ZGSZ 171400Z AUTO 18004KT 2SM 23/20 A2997 RMK T02300200 IEM_DS3505
ZGSZ,2007-11-17 15:00,ZGSZ 171500Z AUTO 09004KT 3SM 22/18 A3000 RMK SLP163 T02220176 52012 IEM_DS3505
ZGSZ,2007-11-17 16:00,ZGSZ 171600Z AUTO 00000KT 2 1/2SM 23/21 A3000 RMK T02300210 IEM_DS3505
ZGSZ,2007-11-17 17:00,ZGSZ 171700Z AUTO 00000KT 2SM 22/20 A3000 RMK T02200200 IEM_DS3505
ZGSZ,2007-11-17 18:00,ZGSZ 171800Z AUTO 04004KT 3SM 22/18 A3000 RMK SLP160 T02190177 57003 IEM_DS3505
ZGSZ,2007-11-17 19:00,ZGSZ 171900Z AUTO 03006KT 2 1/2SM 23/18 A2997 RMK T02300180 IEM_DS3505
ZGSZ,2007-11-17 20:00,ZGSZ 172000Z AUTO 05004KT 2SM 22/18 A2997 RMK T02200180 IEM_DS3505
ZGSZ,2007-11-17 21:00,ZGSZ 172100Z AUTO 04006KT 2SM 21/16 A3000 RMK SLP161 T02130163 54000 IEM_DS3505
ZGSZ,2007-11-17 22:00,ZGSZ 172200Z AUTO 03006KT 1 1/2SM 21/15 A3003 RMK T02100150 IEM_DS3505
ZGSZ,2007-11-17 23:00,ZGSZ 172300Z AUTO 01010KT 1 1/2SM 20/14 A3003 RMK T02000140 IEM_DS3505
ZGSZ,2007-11-18 00:00,ZGSZ 180000Z AUTO 04012KT 2SM 20/14 A3006 RMK SLP183 T02040136 52022 IEM_DS3505
ZGSZ,2007-11-18 01:00,ZGSZ 180100Z AUTO 03010KT 2SM 22/14 A3009 RMK T02200140 IEM_DS3505
ZGSZ,2007-11-18 02:00,ZGSZ 180200Z AUTO 02012KT 2SM 22/14 A3012 RMK T02200140 IEM_DS3505
ZGSZ,2007-11-18 03:00,ZGSZ 180300Z AUTO 04008KT 2SM 22/14 A3009 RMK SLP195 T02220136 52012 IEM_DS3505
ZGSZ,2007-11-18 04:00,ZGSZ 180400Z AUTO 02012KT 2 1/2SM 24/14 A3009 RMK T02400140 IEM_DS3505
ZGSZ,2007-11-18 05:00,ZGSZ 180500Z AUTO 04010KT 2 1/2SM 24/13 A3006 RMK T02400130 IEM_DS3505
ZGSZ,2007-11-18 06:00,ZGSZ 180600Z AUTO 04008G19KT 3SM 24/13 A3006 RMK SLP178 T02350134 57017 IEM_DS3505
ZGSZ,2007-11-18 07:00,ZGSZ 180700Z AUTO 01012KT 3SM 24/13 A3006 RMK T02400130 IEM_DS3505
ZGSZ,2007-11-18 08:00,ZGSZ 180800Z AUTO 03012KT 3SM 23/13 A3006 RMK T02300130 IEM_DS3505
ZGSZ,2007-11-18 09:00,ZGSZ 180900Z AUTO 34008KT 2 1/2SM 22/13 A3009 RMK SLP184 T02180129 52006 IEM_DS3505
ZGSZ,2007-11-18 10:00,ZGSZ 181000Z AUTO 03012KT 3SM 22/12 A3009 RMK T02200120 IEM_DS3505
ZGSZ,2007-11-18 11:00,ZGSZ 181100Z AUTO 03010KT 3SM 22/12 A3012 RMK T02200120 IEM_DS3505
ZGSZ,2007-11-18 12:00,ZGSZ 181200Z AUTO 02004G19KT 3SM 20/12 A3012 RMK SLP205 T02040124 52020 IEM_DS3505
ZGSZ,2007-11-18 13:00,ZGSZ 181300Z AUTO 02008KT 3SM 21/12 A3015 RMK T02100120 IEM_DS3505
ZGSZ,2007-11-18 14:00,ZGSZ 181400Z AUTO 02008KT 3SM 20/12 A3015 RMK T02000120 IEM_DS3505
ZGSZ,2007-11-18 15:00,ZGSZ 181500Z AUTO 02008KT 3SM 19/12 A3015 RMK SLP216 T01940122 52011 IEM_DS3505
ZGSZ,2007-11-18 16:00,ZGSZ 181600Z AUTO 01010KT 3SM 20/12 A3015 RMK T02000120 IEM_DS3505
ZGSZ,2007-11-18 17:00,ZGSZ 181700Z AUTO 01010KT 4SM 20/11 A3015 RMK T02000110 IEM_DS3505
ZGSZ,2007-11-18 18:00,ZGSZ 181800Z AUTO 02008KT 3SM 19/12 A3015 RMK SLP213 T01870118 57002 IEM_DS3505
ZGSZ,2007-11-18 19:00,ZGSZ 181900Z AUTO 01012KT 4SM 19/11 A3015 RMK T01900110 IEM_DS3505
ZGSZ,2007-11-18 20:00,ZGSZ 182000Z AUTO 01008KT 4SM 18/11 A3015 RMK T01800110 IEM_DS3505
ZGSZ,2007-11-18 21:00,ZGSZ 182100Z AUTO 02008KT 3SM 18/11 A3015 RMK SLP209 T01780109 57005 IEM_DS3505
ZGSZ,2007-11-18 22:00,ZGSZ 182200Z AUTO 02010KT 4SM 18/10 A3015 RMK T01800100 IEM_DS3505
ZGSZ,2007-11-18 23:00,ZGSZ 182300Z AUTO 03010KT 4SM 18/10 A3018 RMK T01800100 IEM_DS3505
ZGSZ,2007-11-19 00:00,ZGSZ 190000Z AUTO 02008KT 6SM 18/10 A3021 RMK SLP228 T01760105 52019 IEM_DS3505
ZGSZ,2007-11-19 01:00,ZGSZ 190100Z AUTO 03010KT 5SM 19/11 A3021 RMK T01900110 IEM_DS3505
ZGSZ,2007-11-19 02:00,ZGSZ 190200Z AUTO 01010KT 5SM 20/11 A3021 RMK T02000110 IEM_DS3505
ZGSZ,2007-11-19 03:00,ZGSZ 190300Z AUTO 36008KT 6SM 19/11 A3021 RMK SLP229 T01920107 52001 IEM_DS3505
ZGSZ,2007-11-19 04:00,ZGSZ 190400Z AUTO 01006KT 4SM 22/11 A3018 RMK T02200110 IEM_DS3505
ZGSZ,2007-11-19 05:00,ZGSZ 190500Z AUTO 04006KT 4SM 23/11 A3015 RMK T02300110 IEM_DS3505
ZGSZ,2007-11-19 06:00,ZGSZ 190600Z AUTO 36006KT 6SM 22/11 A3009 RMK SLP197 T02220113 57032 IEM_DS3505
ZGSZ,2007-11-19 07:00,ZGSZ 190700Z AUTO 35006KT 4SM 24/11 A3009 RMK T02400110 IEM_DS3505
ZGSZ,2007-11-19 08:00,ZGSZ 190800Z AUTO 04008KT 4SM 24/11 A3009 RMK T02400110 IEM_DS3505
ZGSZ,2007-11-19 09:00,ZGSZ 190900Z AUTO 34008KT 5SM 22/11 A3009 RMK SLP194 T02230114 57003 IEM_DS3505
ZGSZ,2007-11-19 10:00,ZGSZ 191000Z AUTO 04006KT 5SM 22/12 A3012 RMK T02200120 IEM_DS3505
ZGSZ,2007-11-19 11:00,ZGSZ 191100Z AUTO 06004KT 4SM 22/12 A3012 RMK T02200120 IEM_DS3505
ZGSZ,2007-11-19 12:00,ZGSZ 191200Z AUTO 02004KT 5SM 20/12 A3015 RMK SLP216 T02040119 52022 IEM_DS3505
ZGSZ,2007-11-19 13:00,ZGSZ 191300Z AUTO 02008KT 4SM 21/12 A3018 RMK T02100120 IEM_DS3505
ZGSZ,2007-11-19 14:00,ZGSZ 191400Z AUTO 02010KT 5SM 20/11 A3018 RMK T02000110 IEM_DS3505
ZGSZ,2007-11-19 15:00,ZGSZ 191500Z AUTO 02004KT 6SM 18/10 A3018 RMK SLP222 T01830104 52006 IEM_DS3505
ZGSZ,2007-11-19 16:00,ZGSZ 191600Z AUTO 02010KT 4SM 19/10 A3018 RMK T01900100 IEM_DS3505
ZGSZ,2007-11-19 17:00,ZGSZ 191700Z AUTO 03010KT 4SM 18/10 A3018 RMK T01800100 IEM_DS3505
ZGSZ,2007-11-19 18:00,ZGSZ 191800Z AUTO 02008KT 5SM 17/10 A3018 RMK SLP215 T01690098 57007 IEM_DS3505
ZGSZ,2007-11-19 19:00,ZGSZ 191900Z AUTO 04006KT 4SM 16/10 A3018 RMK T01600100 IEM_DS3505
ZGSZ,2007-11-19 20:00,ZGSZ 192000Z AUTO 02012KT 5SM 16/09 A3015 RMK T01600090 IEM_DS3505
ZGSZ,2007-11-19 21:00,ZGSZ 192100Z AUTO 02008KT 3SM 16/09 A3015 RMK SLP211 T01560088 57004 IEM_DS3505
ZGSZ,2007-11-19 22:00,ZGSZ 192200Z AUTO 03006KT 5SM 15/09 A3018 RMK T01500090 IEM_DS3505
ZGSZ,2007-11-19 23:00,ZGSZ 192300Z AUTO 03010KT 6SM 15/08 A3018 RMK T01500080 IEM_DS3505
ZGSZ,2007-11-20 00:00,ZGSZ 200000Z AUTO 04006KT 6SM 16/07 A3021 RMK SLP229 T01560069 52018 IEM_DS3505
ZGSZ,2007-11-20 01:00,ZGSZ 200100Z AUTO 02012KT 4SM 17/07 A3021 RMK T01700070 IEM_DS3505
ZGSZ,2007-11-20 02:00,ZGSZ 200200Z AUTO 05010KT 4SM 19/08 A3021 RMK T01900080 IEM_DS3505
ZGSZ,2007-11-20 03:00,ZGSZ 200300Z AUTO 02010KT 6SM 19/07 A3018 RMK SLP222 T01910069 57007 IEM_DS3505
ZGSZ,2007-11-20 04:00,ZGSZ 200400Z AUTO 02008KT 4SM 22/07 A3015 RMK T02200070 IEM_DS3505
ZGSZ,2007-11-20 05:00,ZGSZ 200500Z AUTO 02006KT 4SM 23/06 A3009 RMK T02300060 IEM_DS3505
ZGSZ,2007-11-20 06:00,ZGSZ 200600Z AUTO 07004KT 7SM 23/08 A3006 RMK SLP188 T02260076 57034 IEM_DS3505
ZGSZ,2007-11-20 07:00,ZGSZ 200700Z AUTO 36010KT 6SM 24/07 A3006 RMK T02400070 IEM_DS3505
ZGSZ,2007-11-20 08:00,ZGSZ 200800Z AUTO 35010KT 6SM 24/07 A3006 RMK T02400070 IEM_DS3505
ZGSZ,2007-11-20 09:00,ZGSZ 200900Z AUTO 04006KT 9SM 22/08 A3006 RMK SLP187 T02230077 57001 IEM_DS3505
ZGSZ,2007-11-20 10:00,ZGSZ 201000Z AUTO 03008KT 6SM 22/07 A3009 RMK T02200070 IEM_DS3505
ZGSZ,2007-11-20 11:00,ZGSZ 201100Z AUTO 05006KT 6SM 22/07 A3009 RMK T02200070 IEM_DS3505
ZGSZ,2007-11-20 12:00,ZGSZ 201200Z AUTO 02002KT 9SM 20/09 A3012 RMK SLP202 T02020092 52015 IEM_DS3505
ZGSZ,2007-11-20 13:00,ZGSZ 201300Z AUTO 03004KT 6SM 21/07 A3012 RMK T02100070 IEM_DS3505
ZGSZ,2007-11-20 14:00,ZGSZ 201400Z AUTO 6SM 20/08 A3012 RMK T02000080 IEM_DS3505
ZGSZ,2007-11-20 15:00,ZGSZ 201500Z AUTO 02002KT 9SM 19/09 A3012 RMK SLP207 T01930089 52005 IEM_DS3505
ZGSZ,2007-11-20 16:00,ZGSZ 201600Z AUTO 6SM 19/08 A3015 RMK T01900080 IEM_DS3505
ZGSZ,2007-11-20 17:00,ZGSZ 201700Z AUTO 08006KT 6SM 18/08 A3012 RMK T01800080 IEM_DS3505
ZGSZ,2007-11-20 18:00,ZGSZ 201800Z AUTO 36006KT 10SM 18/08 A3012 RMK SLP204 T01780078 57003 IEM_DS3505
ZGSZ,2007-11-20 19:00,ZGSZ 201900Z AUTO 04004KT 6SM 18/08 A3012 RMK T01800080 IEM_DS3505
ZGSZ,2007-11-20 20:00,ZGSZ 202000Z AUTO 03006KT 6SM 18/07 A3012 RMK T01800070 IEM_DS3505
ZGSZ,2007-11-20 21:00,ZGSZ 202100Z AUTO 04004KT 10SM 18/06 A3012 RMK SLP208 T01750064 52004 IEM_DS3505
ZGSZ,2007-11-20 22:00,ZGSZ 202200Z AUTO 07010KT 6SM 18/06 A3015 RMK T01800060 IEM_DS3505
ZGSZ,2007-11-20 23:00,ZGSZ 202300Z AUTO 01006KT 6SM 17/06 A3018 RMK T01700060 IEM_DS3505
ZGSZ,2007-11-21 00:00,ZGSZ 210000Z AUTO 04010KT 10SM 18/06 A3018 RMK SLP223 T01790058 52015 IEM_DS3505
ZGSZ,2007-11-21 01:00,ZGSZ 210100Z AUTO 03008KT 6SM 20/06 A3021 RMK T02000060 IEM_DS3505
ZGSZ,2007-11-21 02:00,ZGSZ 210200Z AUTO 03012KT 6SM 22/07 A3021 RMK T02200070 IEM_DS3505
ZGSZ,2007-11-21 03:00,ZGSZ 210300Z AUTO 04006KT 7SM 22/07 A3018 RMK SLP222 T02160074 57001 IEM_DS3505
ZGSZ,2007-11-21 04:00,ZGSZ 210400Z AUTO 01010KT 6SM 24/08 A3015 RMK T02400080 IEM_DS3505
ZGSZ,2007-11-21 05:00,ZGSZ 210500Z AUTO 36010KT 6SM 25/08 A3009 RMK T02500080 IEM_DS3505
ZGSZ,2007-11-21 06:00,ZGSZ 210600Z AUTO 02006KT 7SM 25/08 A3006 RMK SLP182 T02500081 57039 IEM_DS3505
ZGSZ,2007-11-21 07:00,ZGSZ 210700Z AUTO 01008KT 5SM 26/09 A3003 RMK T02600090 IEM_DS3505
ZGSZ,2007-11-21 08:00,ZGSZ 210800Z AUTO 02008KT 5SM 26/09 A3003 RMK T02600090 IEM_DS3505
ZGSZ,2007-11-21 09:00,ZGSZ 210900Z AUTO 04004KT 7SM 24/10 A3006 RMK SLP179 T02420098 57003 IEM_DS3505
ZGSZ,2007-11-21 10:00,ZGSZ 211000Z AUTO 05006KT 4SM 24/10 A3006 RMK T02400100 IEM_DS3505
ZGSZ,2007-11-21 11:00,ZGSZ 211100Z AUTO 04006KT 4SM 23/10 A3009 RMK T02300100 IEM_DS3505
ZGSZ,2007-11-21 12:00,ZGSZ 211200Z AUTO 09004KT 5SM 20/14 A3012 RMK SLP206 T02040138 52026 IEM_DS3505
ZGSZ,2007-11-21 13:00,ZGSZ 211300Z AUTO 08006KT 4SM 22/10 A3012 RMK T02200100 IEM_DS3505
ZGSZ,2007-11-21 14:00,ZGSZ 211400Z AUTO 11006KT 3SM 20/13 A3015 RMK T02000130 IEM_DS3505
ZGSZ,2007-11-21 15:00,ZGSZ 211500Z AUTO 09002KT 4SM 20/16 A3015 RMK SLP213 T01960155 52007 IEM_DS3505
ZGSZ,2007-11-21 16:00,ZGSZ 211600Z AUTO 3SM 20/15 A3015 RMK T02000150 IEM_DS3505
ZGSZ,2007-11-21 17:00,ZGSZ 211700Z AUTO 3SM 19/14 A3012 RMK T01900140 IEM_DS3505
ZGSZ,2007-11-21 18:00,ZGSZ 211800Z AUTO 02004KT 3SM 19/15 A3012 RMK SLP200 T01890148 57012 IEM_DS3505
ZGSZ,2007-11-21 19:00,ZGSZ 211900Z AUTO 02004KT 2 1/2SM 18/15 A3012 RMK T01800150 IEM_DS3505
ZGSZ,2007-11-21 20:00,ZGSZ 212000Z AUTO 03004KT 2SM 18/15 A3012 RMK T01800150 IEM_DS3505
ZGSZ,2007-11-21 21:00,ZGSZ 212100Z AUTO 04006KT 2 1/2SM 18/11 A3012 RMK SLP198 T01850108 57002 IEM_DS3505
ZGSZ,2007-11-21 22:00,ZGSZ 212200Z AUTO 03006KT 5SM 18/10 A3012 RMK T01800100 IEM_DS3505
ZGSZ,2007-11-21 23:00,ZGSZ 212300Z AUTO 03006KT 4SM 18/09 A3015 RMK T01800090 IEM_DS3505
ZGSZ,2007-11-22 00:00,ZGSZ 220000Z AUTO 36008KT 4SM 19/08 A3015 RMK SLP215 T01860083 52016 IEM_DS3505
ZGSZ,2007-11-22 01:00,ZGSZ 220100Z AUTO 36008KT 4SM 20/09 A3018 RMK T02000090 IEM_DS3505
ZGSZ,2007-11-22 02:00,ZGSZ 220200Z AUTO 01008KT 6SM 22/09 A3018 RMK T02200090 IEM_DS3505
ZGSZ,2007-11-22 03:00,ZGSZ 220300Z AUTO 02006KT 4SM 21/09 A3015 RMK SLP211 T02110094 57004 IEM_DS3505
ZGSZ,2007-11-22 04:00,ZGSZ 220400Z AUTO 02008KT 4SM 24/09 A3012 RMK T02400090 IEM_DS3505
ZGSZ,2007-11-22 05:00,ZGSZ 220500Z AUTO 02008KT 4SM 25/09 A3009 RMK T02500090 IEM_DS3505
ZGSZ,2007-11-22 06:00,ZGSZ 220600Z AUTO 36004KT 4SM 24/10 A3006 RMK SLP178 T02360103 57032 IEM_DS3505
ZGSZ,2007-11-22 07:00,ZGSZ 220700Z AUTO 02008KT 4SM 25/10 A3003 RMK T02500100 IEM_DS3505
ZGSZ,2007-11-22 08:00,ZGSZ 220800Z AUTO 02008KT 4SM 25/09 A3003 RMK T02500090 IEM_DS3505
ZGSZ,2007-11-22 09:00,ZGSZ 220900Z AUTO 34004KT 4SM 23/10 A3006 RMK SLP179 T02290100 52001 IEM_DS3505
ZGSZ,2007-11-22 10:00,ZGSZ 221000Z AUTO 04004KT 4SM 24/10 A3006 RMK T02400100 IEM_DS3505
ZGSZ,2007-11-22 11:00,ZGSZ 221100Z AUTO 05004KT 4SM 22/10 A3009 RMK T02200100 IEM_DS3505
ZGSZ,2007-11-22 12:00,ZGSZ 221200Z AUTO 07006KT 4SM 20/14 A3009 RMK SLP198 T02000139 52018 IEM_DS3505
ZGSZ,2007-11-22 13:00,ZGSZ 221300Z AUTO 11004KT 3SM 20/13 A3012 RMK T02000130 IEM_DS3505
ZGSZ,2007-11-22 14:00,ZGSZ 221400Z AUTO 11004KT 3SM 20/13 A3012 RMK T02000130 IEM_DS3505
ZGSZ,2007-11-22 15:00,ZGSZ 221500Z AUTO 09004KT 5SM 20/15 A3012 RMK SLP206 T01950152 52008 IEM_DS3505
ZGSZ,2007-11-22 16:00,ZGSZ 221600Z AUTO 06004KT 4SM 19/14 A3012 RMK T01900140 IEM_DS3505
ZGSZ,2007-11-22 17:00,ZGSZ 221700Z AUTO 01004KT 3SM 19/14 A3009 RMK T01900140 IEM_DS3505
ZGSZ,2007-11-22 18:00,ZGSZ 221800Z AUTO 36004KT 4SM 18/15 A3009 RMK SLP188 T01810146 57017 IEM_DS3505
ZGSZ,2007-11-22 19:00,ZGSZ 221900Z AUTO 01002KT 3SM 18/14 A3006 RMK T01800140 IEM_DS3505
ZGSZ,2007-11-22 20:00,ZGSZ 222000Z AUTO 36006KT 4SM 17/11 A3006 RMK T01700110 IEM_DS3505
ZGSZ,2007-11-22 21:00,ZGSZ 222100Z AUTO 02004KT 2 1/2SM 18/12 A3006 RMK SLP181 T01770115 57007 IEM_DS3505
ZGSZ,2007-11-22 22:00,ZGSZ 222200Z AUTO 4SM 18/08 A3006 RMK T01800080 IEM_DS3505
ZGSZ,2007-11-22 23:00,ZGSZ 222300Z AUTO 00000KT 5SM 17/09 A3009 RMK T01700090 IEM_DS3505
ZGSZ,2007-11-23 00:00,ZGSZ 230000Z AUTO 02008KT 6SM 18/08 A3009 RMK SLP196 T01820085 52014 IEM_DS3505
ZGSZ,2007-11-23 01:00,ZGSZ 230100Z AUTO 01008KT 5SM 21/09 A3009 RMK T02100090 IEM_DS3505
ZGSZ,2007-11-23 02:00,ZGSZ 230200Z AUTO 05008KT 6SM 22/09 A3012 RMK T02200090 IEM_DS3505
ZGSZ,2007-11-23 03:00,ZGSZ 230300Z AUTO 02010KT 6SM 21/10 A3009 RMK SLP190 T02120095 57006 IEM_DS3505
ZGSZ,2007-11-23 04:00,ZGSZ 230400Z AUTO 04008KT 6SM 24/09 A3006 RMK T02400090 IEM_DS3505
ZGSZ,2007-11-23 05:00,ZGSZ 230500Z AUTO 03008KT 6SM 25/10 A3000 RMK T02500100 IEM_DS3505
ZGSZ,2007-11-23 06:00,ZGSZ 230600Z AUTO 02004KT 6SM 23/10 A2997 RMK SLP155 T02310095 57034 IEM_DS3505
ZGSZ,2007-11-23 07:00,ZGSZ 230700Z AUTO 02008KT 6SM 25/08 A2997 RMK T02500080 IEM_DS3505
ZGSZ,2007-11-23 08:00,ZGSZ 230800Z AUTO 04006KT 6SM 24/09 A2997 RMK T02400090 IEM_DS3505
ZGSZ,2007-11-23 09:00,ZGSZ 230900Z AUTO 36004KT 7SM 23/08 A2997 RMK SLP153 T02270084 57002 IEM_DS3505
ZGSZ,2007-11-23 10:00,ZGSZ 231000Z AUTO 04006KT 6SM 23/09 A3000 RMK T02300090 IEM_DS3505
ZGSZ,2007-11-23 11:00,ZGSZ 231100Z AUTO 03006KT 5SM 23/09 A3003 RMK T02300090 IEM_DS3505
ZGSZ,2007-11-23 12:00,ZGSZ 231200Z AUTO 04002KT 6SM 21/10 A3003 RMK SLP179 T02090098 52025 IEM_DS3505
ZGSZ,2007-11-23 13:00,ZGSZ 231300Z AUTO 09006KT 6SM 22/09 A3006 RMK T02200090 IEM_DS3505
ZGSZ,2007-11-23 14:00,ZGSZ 231400Z AUTO 11006KT 4SM 21/10 A3006 RMK T02100100 IEM_DS3505
ZGSZ,2007-11-23 15:00,ZGSZ 231500Z AUTO 07002KT 6SM 20/15 A3006 RMK SLP186 T01950152 52008 IEM_DS3505
ZGSZ,2007-11-23 16:00,ZGSZ 231600Z AUTO 4SM 19/12 A3006 RMK T01900120 IEM_DS3505
ZGSZ,2007-11-23 17:00,ZGSZ 231700Z AUTO 06006KT 4SM 20/11 A3006 RMK T02000110 IEM_DS3505
ZGSZ,2007-11-23 18:00,ZGSZ 231800Z AUTO 02004KT 7SM 20/11 A3003 RMK SLP157 T02050109 57013 IEM_DS3505
ZGSZ,2007-11-23 19:00,ZGSZ 231900Z AUTO 03006KT 4SM 20/09 A3003 RMK T02000090 IEM_DS3505
ZGSZ,2007-11-23 20:00,ZGSZ 232000Z AUTO 01006KT 4SM 19/09 A3003 RMK T01900090 IEM_DS3505
ZGSZ,2007-11-23 21:00,ZGSZ 232100Z AUTO 02004KT 6SM 19/09 A3003 RMK SLP175 T01910090 52002 IEM_DS3505
ZGSZ,2007-11-23 22:00,ZGSZ 232200Z AUTO 35004KT 4SM 18/09 A3006 RMK T01800090 IEM_DS3505
ZGSZ,2007-11-23 23:00,ZGSZ 232300Z AUTO 36006KT 4SM 18/09 A3006 RMK T01800090 IEM_DS3505
ZGSZ,2007-11-24 00:00,ZGSZ 240000Z AUTO 02006KT 7SM 18/09 A3009 RMK SLP187 T01850088 52011 IEM_DS3505
ZGSZ,2007-11-24 01:00,ZGSZ 240100Z AUTO 04004KT 4SM 22/09 A3009 RMK T02200090 IEM_DS3505
ZGSZ,2007-11-24 02:00,ZGSZ 240200Z AUTO 01006KT 5SM 23/09 A3009 RMK T02300090 IEM_DS3505
ZGSZ,2007-11-24 03:00,ZGSZ 240300Z AUTO 02010KT 5SM 22/10 A3009 RMK SLP185 T02230095 57001 IEM_DS3505
ZGSZ,2007-11-24 04:00,ZGSZ 240400Z AUTO 04010KT 6SM 25/09 A3006 RMK T02500090 IEM_DS3505
ZGSZ,2007-11-24 05:00,ZGSZ 240500Z AUTO 02010KT 6SM 25/09 A3000 RMK T02500090 IEM_DS3505
ZGSZ,2007-11-24 06:00,ZGSZ 240600Z AUTO 09008KT 7SM 24/10 A2997 RMK SLP158 T02450097 57027 IEM_DS3505
ZGSZ,2007-11-24 07:00,ZGSZ 240700Z AUTO 6SM 26/10 A2997 RMK T02600100 IEM_DS3505
ZGSZ,2007-11-24 08:00,ZGSZ 240800Z AUTO 03006KT 6SM 26/09 A2997 RMK T02600090 IEM_DS3505
ZGSZ,2007-11-24 09:00,ZGSZ 240900Z AUTO 14008KT 7SM 24/12 A2997 RMK SLP159 T02350115 52001 IEM_DS3505
ZGSZ,2007-11-24 10:00,ZGSZ 241000Z AUTO 13006KT 7SM 24/13 A3000 RMK T02400130 IEM_DS3505
ZGSZ,2007-11-24 11:00,ZGSZ 241100Z AUTO 16006KT 6SM 22/15 A3003 RMK T02200150 IEM_DS3505
ZGSZ,2007-11-24 12:00,ZGSZ 241200Z AUTO 09004KT 7SM 21/14 A3003 RMK SLP182 T02060143 52022 IEM_DS3505
ZGSZ,2007-11-24 13:00,ZGSZ 241300Z AUTO 12004KT 6SM 21/14 A3006 RMK T02100140 IEM_DS3505
ZGSZ,2007-11-24 14:00,ZGSZ 241400Z AUTO 00000KT 6SM 21/14 A3006 RMK T02100140 IEM_DS3505
ZGSZ,2007-11-24 15:00,ZGSZ 241500Z AUTO 11004KT 9SM 21/15 A3006 RMK SLP181 T02060149 54000 IEM_DS3505
ZGSZ,2007-11-24 16:00,ZGSZ 241600Z AUTO 10004KT 6SM 20/15 A3003 RMK T02000150 IEM_DS3505
ZGSZ,2007-11-24 17:00,ZGSZ 241700Z AUTO 00000KT 6SM 20/15 A3003 RMK T02000150 IEM_DS3505
ZGSZ,2007-11-24 18:00,ZGSZ 241800Z AUTO 36002KT 9SM 20/15 A3003 RMK SLP169 T01980150 57012 IEM_DS3505
ZGSZ,2007-11-24 19:00,ZGSZ 241900Z AUTO 04002KT 4SM 21/15 A3000 RMK T02100150 IEM_DS3505
ZGSZ,2007-11-24 20:00,ZGSZ 242000Z AUTO 04004KT 3SM 20/15 A3000 RMK T02000150 IEM_DS3505
ZGSZ,2007-11-24 21:00,ZGSZ 242100Z AUTO 02002KT 6SM 19/15 A3000 RMK SLP164 T01930148 57005 IEM_DS3505
ZGSZ,2007-11-24 22:00,ZGSZ 242200Z AUTO 3SM 20/12 A3000 RMK T02000120 IEM_DS3505
ZGSZ,2007-11-24 23:00,ZGSZ 242300Z AUTO 06004KT 3SM 20/12 A3006 RMK T02000120 IEM_DS3505
ZGSZ,2007-11-25 00:00,ZGSZ 250000Z AUTO 09002KT 6SM 20/11 A3006 RMK SLP183 T01990114 52019 IEM_DS3505
ZGSZ,2007-11-25 01:00,ZGSZ 250100Z AUTO 3SM 22/13 A3006 RMK T02200130 IEM_DS3505
ZGSZ,2007-11-25 02:00,ZGSZ 250200Z AUTO 03004KT 4SM 23/12 A3009 RMK T02300120 IEM_DS3505
ZGSZ,2007-11-25 03:00,ZGSZ 250300Z AUTO 07006KT 6SM 24/11 A3006 RMK SLP185 T02350106 52002 IEM_DS3505
ZGSZ,2007-11-25 04:00,ZGSZ 250400Z AUTO 36010KT 6SM 25/11 A3003 RMK T02500110 IEM_DS3505
ZGSZ,2007-11-25 05:00,ZGSZ 250500Z AUTO 36010KT 6SM 24/10 A3000 RMK T02400100 IEM_DS3505
ZGSZ,2007-11-25 06:00,ZGSZ 250600Z AUTO 02010KT 7SM 24/10 A2997 RMK SLP151 T02420098 57034 IEM_DS3505
ZGSZ,2007-11-25 07:00,ZGSZ 250700Z AUTO 36010KT 6SM 24/10 A2997 RMK T02400100 IEM_DS3505
ZGSZ,2007-11-25 08:00,ZGSZ 250800Z AUTO 35006KT 6SM 24/11 A2997 RMK T02400110 IEM_DS3505
ZGSZ,2007-11-25 09:00,ZGSZ 250900Z AUTO 34010KT 8SM 23/10 A2997 RMK SLP155 T02290100 52004 IEM_DS3505
ZGSZ,2007-11-25 10:00,ZGSZ 251000Z AUTO 01010KT 6SM 23/11 A3000 RMK T02300110 IEM_DS3505
ZGSZ,2007-11-25 11:00,ZGSZ 251100Z AUTO 01008KT 6SM 23/11 A3000 RMK T02300110 IEM_DS3505
ZGSZ,2007-11-25 12:00,ZGSZ 251200Z AUTO 02006KT 6SM 22/11 A3003 RMK SLP167 T02180109 52012 IEM_DS3505
ZGSZ,2007-11-25 13:00,ZGSZ 251300Z AUTO 02006KT 4SM 22/12 A3003 RMK T02200120 IEM_DS3505
ZGSZ,2007-11-25 14:00,ZGSZ 251400Z AUTO 02006KT 4SM 22/11 A3003 RMK T02200110 IEM_DS3505
ZGSZ,2007-11-25 15:00,ZGSZ 251500Z AUTO 34004KT 5SM 21/11 A3003 RMK SLP170 T02090113 52003 IEM_DS3505
ZGSZ,2007-11-25 16:00,ZGSZ 251600Z AUTO 03008KT 6SM 22/11 A3000 RMK T02200110 IEM_DS3505
ZGSZ,2007-11-25 17:00,ZGSZ 251700Z AUTO 03006KT 6SM 21/11 A3000 RMK T02100110 IEM_DS3505
ZGSZ,2007-11-25 18:00,ZGSZ 251800Z AUTO 02004KT 7SM 20/11 A3000 RMK SLP157 T02050109 57013 IEM_DS3505
ZGSZ,2007-11-25 19:00,ZGSZ 251900Z AUTO 35008KT 6SM 21/10 A2997 RMK T02100100 IEM_DS3505
ZGSZ,2007-11-25 20:00,ZGSZ 252000Z AUTO 03008KT 6SM 21/10 A2997 RMK T02100100 IEM_DS3505
ZGSZ,2007-11-25 21:00,ZGSZ 252100Z AUTO 02006KT 9SM 20/10 A2997 RMK SLP148 T01950102 57009 IEM_DS3505
ZGSZ,2007-11-25 22:00,ZGSZ 252200Z AUTO 02004KT 6SM 20/10 A2997 RMK T02000100 IEM_DS3505
ZGSZ,2007-11-25 23:00,ZGSZ 252300Z AUTO 02004KT 6SM 21/10 A2997 RMK T02100100 IEM_DS3505
ZGSZ,2007-11-25 23:30,ZGSZ 252330Z AUTO 36008KT 6SM 21/10 A3000 RMK T02100100 IEM_DS3505
ZGSZ,2007-11-26 00:00,ZGSZ 260000Z AUTO 34008KT 11SM 20/10 RMK SLP161 T02040105 52013 IEM_DS3505
ZGSZ,2007-11-26 01:00,ZGSZ 260100Z AUTO 03012KT 6SM 23/11 A3000 RMK T02300110 IEM_DS3505
ZGSZ,2007-11-26 02:00,ZGSZ 260200Z AUTO 03012KT 7SM 23/11 A3000 RMK T02300110 IEM_DS3505
ZGSZ,2007-11-26 03:00,ZGSZ 260300Z AUTO 36012KT 7SM 22/11 A3000 RMK SLP160 T02180109 57001 IEM_DS3505
ZGSZ,2007-11-26 04:00,ZGSZ 260400Z AUTO 04010KT 6SM 24/11 A2997 RMK T02400110 IEM_DS3505
ZGSZ,2007-11-26 05:00,ZGSZ 260500Z AUTO 02012KT 6SM 24/11 A2994 RMK T02400110 IEM_DS3505
ZGSZ,2007-11-26 06:00,ZGSZ 260600Z AUTO 36016KT 7SM 23/11 A2991 RMK SLP131 T02300114 57029 IEM_DS3505
ZGSZ,2007-11-26 07:00,ZGSZ 260700Z AUTO 36016KT 6SM 24/12 A2991 RMK T02400120 IEM_DS3505
ZGSZ,2007-11-26 08:00,ZGSZ 260800Z AUTO 01016KT 6SM 24/12 A2991 RMK T02400120 IEM_DS3505
ZGSZ,2007-11-26 09:00,ZGSZ 260900Z AUTO 32008KT 6SM 22/12 A2991 RMK SLP128 T02210121 57003 IEM_DS3505
ZGSZ,2007-11-26 10:00,ZGSZ 261000Z AUTO 03014G23KT 6SM 22/11 A2994 RMK T02200110 IEM_DS3505
ZGSZ,2007-11-26 11:00,ZGSZ 261100Z AUTO 02014KT 6SM 22/11 A2994 RMK T02200110 IEM_DS3505
ZGSZ,2007-11-26 12:00,ZGSZ 261200Z AUTO 02014KT 6SM 20/11 A2997 RMK SLP144 T02040111 52016 IEM_DS3505
ZGSZ,2007-11-26 13:00,ZGSZ 261300Z AUTO 02014KT 7SM 21/10 A2997 RMK T02100100 IEM_DS3505
ZGSZ,2007-11-26 14:00,ZGSZ 261400Z AUTO 03014KT 7SM 21/09 A2997 RMK T02100090 IEM_DS3505
ZGSZ,2007-11-26 15:00,ZGSZ 261500Z AUTO 36010KT 6SM 19/09 A2997 RMK SLP149 T01940087 52005 IEM_DS3505
ZGSZ,2007-11-26 16:00,ZGSZ 261600Z AUTO 01014KT 6SM 20/08 A2997 RMK T02000080 IEM_DS3505
ZGSZ,2007-11-26 17:00,ZGSZ 261700Z AUTO 02012KT 6SM 20/07 A2997 RMK T02000070 IEM_DS3505
ZGSZ,2007-11-26 18:00,ZGSZ 261800Z AUTO 02012KT 6SM 18/08 A2994 RMK SLP138 T01840078 57011 IEM_DS3505
ZGSZ,2007-11-26 19:00,ZGSZ 261900Z AUTO 36010KT 6SM 18/06 A2991 RMK T01800060 IEM_DS3505
ZGSZ,2007-11-26 20:00,ZGSZ 262000Z AUTO 36014KT 6SM 19/05 A2991 RMK T01900050 IEM_DS3505
ZGSZ,2007-11-26 21:00,ZGSZ 262100Z AUTO 34008KT 5SM 17/05 A2994 RMK SLP135 T01740054 57003 IEM_DS3505
ZGSZ,2007-11-26 22:00,ZGSZ 262200Z AUTO 36014KT 3SM 18/03 A2994 RMK T01800030 IEM_DS3505
ZGSZ,2007-11-26 23:00,ZGSZ 262300Z AUTO 36014KT 3SM 17/03 A2997 RMK T01700030 IEM_DS3505
ZGSZ,2007-11-27 00:00,ZGSZ 270000Z AUTO 36012KT 4SM 17/04 A2997 RMK SLP150 T01680038 52014 IEM_DS3505
ZGSZ,2007-11-27 01:00,ZGSZ 270100Z AUTO 02016KT 3SM 19/02 A3000 RMK T01900020 IEM_DS3505
ZGSZ,2007-11-27 02:00,ZGSZ 270200Z AUTO 01016KT 3SM 20/01 A3000 RMK T02000010 IEM_DS3505
ZGSZ,2007-11-27 03:00,ZGSZ 270300Z AUTO 02008KT 4SM 19/01 A2997 RMK SLP150 T01870012 54000 IEM_DS3505
ZGSZ,2007-11-27 04:00,ZGSZ 270400Z AUTO 36016KT 3SM 21/02 A2994 RMK T02100020 IEM_DS3505
ZGSZ,2007-11-27 05:00,ZGSZ 270500Z AUTO 35014KT 3SM 22/02 A2991 RMK T02200020 IEM_DS3505
ZGSZ,2007-11-27 06:00,ZGSZ 270600Z AUTO 36014KT 4SM 21/M00 A2988 RMK SLP119 T02091004 57030 IEM_DS3505
ZGSZ,2007-11-27 07:00,ZGSZ 270700Z AUTO 35014G23KT 3SM 23/00 A2988 RMK T02300000 IEM_DS3505
ZGSZ,2007-11-27 08:00,ZGSZ 270800Z AUTO 34014KT 3SM 22/01 A2988 RMK T02200010 IEM_DS3505
ZGSZ,2007-11-27 09:00,ZGSZ 270900Z AUTO 36006G21KT 4SM 20/M02 A2988 RMK SLP120 T02051019 52001 IEM_DS3505
ZGSZ,2007-11-27 10:00,ZGSZ 271000Z AUTO 36016KT 3SM 20/M04 A2991 RMK T02001040 IEM_DS3505
ZGSZ,2007-11-27 11:00,ZGSZ 271100Z AUTO 36014KT 3SM 19/M06 A2994 RMK T01901060 IEM_DS3505
ZGSZ,2007-11-27 12:00,ZGSZ 271200Z AUTO 36016KT 3SM 18/M07 A2997 RMK SLP143 T01821072 52022 IEM_DS3505
ZGSZ,2007-11-27 13:00,ZGSZ 271300Z AUTO 02014KT 4SM 18/M09 A2997 RMK T01801090 IEM_DS3505
ZGSZ,2007-11-27 14:00,ZGSZ 271400Z AUTO 02012KT 6SM 18/M10 A3000 RMK T01801100 IEM_DS3505
ZGSZ,2007-11-27 15:00,ZGSZ 271500Z AUTO 34006KT 6SM 16/M08 A3000 RMK SLP156 T01591084 52013 IEM_DS3505
ZGSZ,2007-11-27 16:00,ZGSZ 271600Z AUTO 02010KT 6SM 16/M08 A3000 RMK T01601080 IEM_DS3505
ZGSZ,2007-11-27 17:00,ZGSZ 271700Z AUTO 02012KT 6SM 15/M07 A3000 RMK T01501070 IEM_DS3505
ZGSZ,2007-11-27 18:00,ZGSZ 271800Z AUTO 36008KT 7SM 14/M05 A3000 RMK SLP155 T01361050 57001 IEM_DS3505
ZGSZ,2007-11-27 19:00,ZGSZ 271900Z AUTO 03014G23KT 6SM 14/M08 A2997 RMK T01401080 IEM_DS3505
ZGSZ,2007-11-27 20:00,ZGSZ 272000Z AUTO 03010KT 6SM 13/M09 A3000 RMK T01301090 IEM_DS3505
ZGSZ,2007-11-27 21:00,ZGSZ 272100Z AUTO 36004KT 7SM 12/M05 A3003 RMK SLP165 T01211054 52010 IEM_DS3505
ZGSZ,2007-11-27 22:00,ZGSZ 272200Z AUTO 02010KT 6SM 12/M08 A3003 RMK T01201080 IEM_DS3505
ZGSZ,2007-11-27 23:00,ZGSZ 272300Z AUTO 02010KT 6SM 12/M08 A3006 RMK T01201080 IEM_DS3505
ZGSZ,2007-11-28 00:00,ZGSZ 280000Z AUTO 02008G19KT 9SM 13/M10 A3006 RMK SLP181 T01261098 52015 IEM_DS3505
ZGSZ,2007-11-28 01:00,ZGSZ 280100Z AUTO 03012KT 6SM 14/M08 A3009 RMK T01401080 IEM_DS3505
ZGSZ,2007-11-28 02:00,ZGSZ 280200Z AUTO 03014KT 6SM 15/M07 A3009 RMK T01501070 IEM_DS3505
ZGSZ,2007-11-28 03:00,ZGSZ 280300Z AUTO 36006KT 8SM 16/M06 A3006 RMK SLP177 T01591058 57004 IEM_DS3505
ZGSZ,2007-11-28 04:00,ZGSZ 280400Z AUTO 01010KT 6SM 18/M06 A3003 RMK T01801060 IEM_DS3505
ZGSZ,2007-11-28 05:00,ZGSZ 280500Z AUTO 01010KT 6SM 19/M07 A3000 RMK T01901070 IEM_DS3505
ZGSZ,2007-11-28 06:00,ZGSZ 280600Z AUTO 02008KT 7SM 18/M08 A2997 RMK SLP146 T01841079 57030 IEM_DS3505
ZGSZ,2007-11-28 07:00,ZGSZ 280700Z AUTO 36008KT 6SM 20/M07 A2994 RMK T02001070 IEM_DS3505
ZGSZ,2007-11-28 08:00,ZGSZ 280800Z AUTO 36006G17KT 6SM 20/M08 A2994 RMK T02001080 IEM_DS3505
ZGSZ,2007-11-28 09:00,ZGSZ 280900Z AUTO 02006KT 9SM 18/M07 A2997 RMK SLP148 T01801067 52001 IEM_DS3505
ZGSZ,2007-11-28 10:00,ZGSZ 281000Z AUTO 03006KT 6SM 18/M06 A2997 RMK T01801060 IEM_DS3505
ZGSZ,2007-11-28 11:00,ZGSZ 281100Z AUTO 02004KT 5SM 18/M05 A3000 RMK T01801050 IEM_DS3505
ZGSZ,2007-11-28 12:00,ZGSZ 281200Z AUTO 36002KT 2 1/2SM 16/M04 A3003 RMK SLP177 T01571043 52029 IEM_DS3505
ZGSZ,2007-11-28 13:00,ZGSZ 281300Z AUTO 03006KT 4SM 17/M04 A3006 RMK T01701040 IEM_DS3505
ZGSZ,2007-11-28 14:00,ZGSZ 281400Z AUTO 01006KT 4SM 16/M05 A3006 RMK T01601050 IEM_DS3505
ZGSZ,2007-11-28 15:00,ZGSZ 281500Z AUTO 02006KT 4SM 15/M06 A3009 RMK SLP186 T01531063 52009 IEM_DS3505
ZGSZ,2007-11-28 16:00,ZGSZ 281600Z AUTO 01008KT 5SM 15/M05 A3009 RMK T01501050 IEM_DS3505
ZGSZ,2007-11-28 17:00,ZGSZ 281700Z AUTO 04004KT 5SM 14/M06 A3009 RMK T01401060 IEM_DS3505
ZGSZ,2007-11-28 18:00,ZGSZ 281800Z AUTO 04002KT 6SM 14/M07 A3006 RMK SLP185 T01371070 57001 IEM_DS3505
ZGSZ,2007-11-28 19:00,ZGSZ 281900Z AUTO 00000KT 6SM 13/M06 A3009 RMK T01301060 IEM_DS3505
ZGSZ,2007-11-28 20:00,ZGSZ 282000Z AUTO 36006KT 6SM 12/M06 A3009 RMK T01201060 IEM_DS3505
ZGSZ,2007-11-28 21:00,ZGSZ 282100Z AUTO 02008KT 6SM 13/M06 A3009 RMK SLP191 T01311065 52006 IEM_DS3505
ZGSZ,2007-11-28 22:00,ZGSZ 282200Z AUTO 07006KT 6SM 13/M07 A3012 RMK T01301070 IEM_DS3505
ZGSZ,2007-11-28 23:00,ZGSZ 282300Z AUTO 6SM 12/M06 A3015 RMK T01201060 IEM_DS3505
ZGSZ,2007-11-29 00:00,ZGSZ 290000Z AUTO 04008KT 9SM 14/M06 A3015 RMK SLP213 T01361060 52022 IEM_DS3505
ZGSZ,2007-11-29 01:00,ZGSZ 290100Z AUTO 36006KT 6SM 16/M05 A3018 RMK T01601050 IEM_DS3505
ZGSZ,2007-11-29 02:00,ZGSZ 290200Z AUTO 04006KT 6SM 17/M04 A3018 RMK T01701040 IEM_DS3505
ZGSZ,2007-11-29 03:00,ZGSZ 290300Z AUTO 36008KT 8SM 17/M04 A3018 RMK SLP218 T01661040 52005 IEM_DS3505
ZGSZ,2007-11-29 04:00,ZGSZ 290400Z AUTO 03004KT 6SM 19/M03 A3015 RMK T01901030 IEM_DS3505
ZGSZ,2007-11-29 05:00,ZGSZ 290500Z AUTO 34008KT 6SM 21/M03 A3012 RMK T02101030 IEM_DS3505
ZGSZ,2007-11-29 06:00,ZGSZ 290600Z AUTO 04004KT 7SM 20/M05 A3009 RMK SLP191 T01981052 57026 IEM_DS3505
ZGSZ,2007-11-29 07:00,ZGSZ 290700Z AUTO 35008KT 6SM 21/M04 A3006 RMK T02101040 IEM_DS3505
ZGSZ,2007-11-29 08:00,ZGSZ 290800Z AUTO 01008KT 6SM 21/M04 A3009 RMK T02101040 IEM_DS3505
ZGSZ,2007-11-29 09:00,ZGSZ 290900Z AUTO 20004KT 7SM 20/00 A3012 RMK SLP201 T01970002 52009 IEM_DS3505
ZGSZ,2007-11-29 10:00,ZGSZ 291000Z AUTO 01006KT 4SM 19/M03 A3012 RMK T01901030 IEM_DS3505
ZGSZ,2007-11-29 11:00,ZGSZ 291100Z AUTO 04004KT 4SM 18/M02 A3015 RMK T01801020 IEM_DS3505
ZGSZ,2007-11-29 12:00,ZGSZ 291200Z AUTO 02002KT 6SM 17/M02 A3018 RMK SLP219 T01681018 52018 IEM_DS3505
ZGSZ,2007-11-29 13:00,ZGSZ 291300Z AUTO 03004KT 4SM 18/M02 A3018 RMK T01801020 IEM_DS3505
ZGSZ,2007-11-29 14:00,ZGSZ 291400Z AUTO 03006KT 3SM 17/M01 A3018 RMK T01701010 IEM_DS3505
ZGSZ,2007-11-29 15:00,ZGSZ 291500Z AUTO 07002KT 5SM 16/M02 A3021 RMK SLP230 T01591016 52011 IEM_DS3505
ZGSZ,2007-11-29 16:00,ZGSZ 291600Z AUTO 05004KT 4SM 17/M02 A3021 RMK T01701020 IEM_DS3505
ZGSZ,2007-11-29 17:00,ZGSZ 291700Z AUTO 10004KT 4SM 13/01 A3021 RMK T01300010 IEM_DS3505
ZGSZ,2007-11-29 18:00,ZGSZ 291800Z AUTO 07004KT 6SM 15/M01 A3018 RMK SLP228 T01501011 57002 IEM_DS3505
ZGSZ,2007-11-29 19:00,ZGSZ 291900Z AUTO 00000KT 3SM 12/02 A3021 RMK T01200020 IEM_DS3505
ZGSZ,2007-11-29 20:00,ZGSZ 292000Z AUTO 3SM 12/01 A3021 RMK T01200010 IEM_DS3505
ZGSZ,2007-11-29 21:00,ZGSZ 292100Z AUTO 07002KT 7SM 14/M02 A3021 RMK SLP230 T01431022 52002 IEM_DS3505
ZGSZ,2007-11-29 22:00,ZGSZ 292200Z AUTO 00000KT 3SM 11/03 A3024 RMK T01100030 IEM_DS3505
ZGSZ,2007-11-29 23:00,ZGSZ 292300Z AUTO 00000KT 3SM 12/02 A3024 RMK T01200020 IEM_DS3505
ZGSZ,2007-11-30 00:00,ZGSZ 300000Z AUTO 07004KT 9SM 15/M01 A3027 RMK SLP251 T01511010 52021 IEM_DS3505
ZGSZ,2007-11-30 01:00,ZGSZ 300100Z AUTO 00000KT 4SM 16/01 A3030 RMK T01600010 IEM_DS3505
ZGSZ,2007-11-30 02:00,ZGSZ 300200Z AUTO 09004KT 4SM 19/00 A3030 RMK T01900000 IEM_DS3505
ZGSZ,2007-11-30 03:00,ZGSZ 300300Z AUTO 36004KT 7SM 19/03 A3027 RMK SLP251 T01900028 54000 IEM_DS3505
ZGSZ,2007-11-30 04:00,ZGSZ 300400Z AUTO 27006KT 4SM 19/03 A3024 RMK T01900030 IEM_DS3505
ZGSZ,2007-11-30 05:00,ZGSZ 300500Z AUTO 28006KT 3SM 20/04 A3021 RMK T02000040 IEM_DS3505
ZGSZ,2007-11-30 06:00,ZGSZ 300600Z AUTO 07004KT 11SM 21/01 A3018 RMK SLP220 T02140011 57030 IEM_DS3505
ZGSZ,2007-11-30 07:00,ZGSZ 300700Z AUTO 24006KT 4SM 20/06 A3015 RMK T02000060 IEM_DS3505
ZGSZ,2007-11-30 08:00,ZGSZ 300800Z AUTO 22004KT 5SM 21/06 A3015 RMK T02100060 IEM_DS3505
ZGSZ,2007-11-30 09:00,ZGSZ 300900Z AUTO 07004KT 12SM 20/04 A3018 RMK SLP219 T01970042 57002 IEM_DS3505
ZGSZ,2007-11-30 10:00,ZGSZ 301000Z AUTO 18006KT 6SM 18/10 A3018 RMK T01800100 IEM_DS3505
ZGSZ,2007-11-30 11:00,ZGSZ 301100Z AUTO 16008KT 6SM 17/08 A3021 RMK T01700080 IEM_DS3505
ZGSZ,2007-11-30 12:00,ZGSZ 301200Z AUTO 07004KT 9SM 17/09 A3021 RMK SLP236 T01680088 52017 IEM_DS3505
ZGSZ,2007-11-30 13:00,ZGSZ 301300Z AUTO 11006KT 6SM 17/08 A3021 RMK T01700080 IEM_DS3505
ZGSZ,2007-11-30 14:00,ZGSZ 301400Z AUTO 13006KT 6SM 16/09 A3024 RMK T01600090 IEM_DS3505
ZGSZ,2007-11-30 15:00,ZGSZ 301500Z AUTO 11002KT 5SM 16/11 A3024 RMK SLP241 T01610108 52005 IEM_DS3505
ZGSZ,2007-11-30 16:00,ZGSZ 301600Z AUTO 12004KT 3SM 16/11 A3024 RMK T01600110 IEM_DS3505
ZGSZ,2007-11-30 17:00,ZGSZ 301700Z AUTO 10008KT 3SM 16/12 A3021 RMK T01600120 IEM_DS3505
ZGSZ,2007-11-30 18:00,ZGSZ 301800Z AUTO 07004KT 5SM 16/11 A3021 RMK SLP231 T01570107 57009 IEM_DS3505
ZGSZ,2007-11-30 19:00,ZGSZ 301900Z AUTO 08004KT 3SM 16/11 A3021 RMK T01600110 IEM_DS3505
ZGSZ,2007-11-30 20:00,ZGSZ 302000Z AUTO 06004KT 3SM 15/10 A3021 RMK T01500100 IEM_DS3505
ZGSZ,2007-11-30 21:00,ZGSZ 302100Z AUTO 04002KT 5SM 15/11 A3021 RMK SLP230 T01490107 57002 IEM_DS3505
ZGSZ,2007-11-30 22:00,ZGSZ 302200Z AUTO 04004KT 3SM 14/10 A3024 RMK T01400100 IEM_DS3505
ZGSZ,2007-11-30 23:00,ZGSZ 302300Z AUTO 00000KT 4SM 14/10 A3024 RMK T01400100 IEM_DS3505
ZGSZ,2007-12-01 00:00,ZGSZ 010000Z AUTO 07004KT 4SM 16/10 A3024 RMK SLP243 T01570102 52013 IEM_DS3505
ZGSZ,2007-12-01 01:00,ZGSZ 010100Z AUTO 03004KT 4SM 18/10 A3024 RMK T01800100 IEM_DS3505
ZGSZ,2007-12-01 02:00,ZGSZ 010200Z AUTO 5SM 20/10 A3024 RMK T02000100 IEM_DS3505
ZGSZ,2007-12-01 03:00,ZGSZ 010300Z AUTO 09004KT 5SM 20/10 A3021 RMK SLP236 T02020100 57006 IEM_DS3505
ZGSZ,2007-12-01 04:00,ZGSZ 010400Z AUTO 27006KT 5SM 21/11 A3018 RMK T02100110 IEM_DS3505
ZGSZ,2007-12-01 05:00,ZGSZ 010500Z AUTO 27008KT 3SM 22/12 A3015 RMK T02200120 IEM_DS3505
ZGSZ,2007-12-01 06:00,ZGSZ 010600Z AUTO 20010KT 9SM 23/11 A3012 RMK SLP205 T02330114 57031 IEM_DS3505
ZGSZ,2007-12-01 07:00,ZGSZ 010700Z AUTO 26006KT 4SM 22/12 A3012 RMK T02200120 IEM_DS3505
ZGSZ,2007-12-01 08:00,ZGSZ 010800Z AUTO 17004KT 6SM 21/12 A3009 RMK T02100120 IEM_DS3505
ZGSZ,2007-12-01 09:00,ZGSZ 010900Z AUTO 20006KT 5SM 20/12 A3009 RMK SLP198 T02030120 57007 IEM_DS3505
ZGSZ,2007-12-01 10:00,ZGSZ 011000Z AUTO 17004KT 4SM 18/14 A3009 RMK T01800140 IEM_DS3505
ZGSZ,2007-12-01 11:00,ZGSZ 011100Z AUTO 15006KT 4SM 18/14 A3012 RMK T01800140 IEM_DS3505
ZGSZ,2007-12-01 12:00,ZGSZ 011200Z AUTO 07006KT 9SM 19/12 A3012 RMK SLP207 T01900120 52009 IEM_DS3505
ZGSZ,2007-12-01 13:00,ZGSZ 011300Z AUTO 3SM 20/13 A3012 RMK T02000130 IEM_DS3505
ZGSZ,2007-12-01 14:00,ZGSZ 011400Z AUTO 10004KT 4SM 20/13 A3015 RMK T02000130 IEM_DS3505
ZGSZ,2007-12-01 15:00,ZGSZ 011500Z AUTO 07004KT 9SM 19/14 A3015 RMK SLP208 T01860135 52001 IEM_DS3505
ZGSZ,2007-12-01 16:00,ZGSZ 011600Z AUTO 6SM 19/13 A3015 RMK T01900130 IEM_DS3505
ZGSZ,2007-12-01 17:00,ZGSZ 011700Z AUTO 02004KT 4SM 19/13 A3015 RMK T01900130 IEM_DS3505
ZGSZ,2007-12-01 18:00,ZGSZ 011800Z AUTO 07006KT 9SM 19/14 A3015 RMK SLP211 T01860141 52003 IEM_DS3505
ZGSZ,2007-12-01 19:00,ZGSZ 011900Z AUTO 04004KT 3SM 19/14 A3015 RMK T01900140 IEM_DS3505
ZGSZ,2007-12-01 20:00,ZGSZ 012000Z AUTO 01006KT 3SM 19/14 A3015 RMK T01900140 IEM_DS3505
ZGSZ,2007-12-01 21:00,ZGSZ 012100Z AUTO 07004KT 7SM 18/14 A3015 RMK SLP212 T01820135 52001 IEM_DS3505
ZGSZ,2007-12-01 22:00,ZGSZ 012200Z AUTO 00000KT 4SM 19/14 A3015 RMK T01900140 IEM_DS3505
ZGSZ,2007-12-01 23:00,ZGSZ 012300Z AUTO 13008KT 4SM 19/13 A3015 RMK T01900130 IEM_DS3505
ZGSZ,2007-12-02 00:00,ZGSZ 020000Z AUTO 07004KT 6SM 18/14 A3015 RMK SLP224 T01850136 52012 IEM_DS3505
ZGSZ,2007-12-02 01:00,ZGSZ 020100Z AUTO 32006KT 3SM 21/14 A3018 RMK T02100140 IEM_DS3505
ZGSZ,2007-12-02 02:00,ZGSZ 020200Z AUTO 31010KT 2 1/2SM 21/15 A3018 RMK T02100150 IEM_DS3505
ZGSZ,2007-12-02 03:00,ZGSZ 020300Z AUTO 34002KT 9SM 24/13 A3018 RMK SLP221 T02370127 57003 IEM_DS3505
ZGSZ,2007-12-02 04:00,ZGSZ 020400Z AUTO 29008KT 2 1/2SM 23/16 A3015 RMK T02300160 IEM_DS3505
ZGSZ,2007-12-02 05:00,ZGSZ 020500Z AUTO 29006KT 2 1/2SM 23/15 A3012 RMK T02300150 IEM_DS3505
ZGSZ,2007-12-02 06:00,ZGSZ 020600Z AUTO 20004KT 4SM 25/15 A3009 RMK SLP188 T02510146 57032 IEM_DS3505
ZGSZ,2007-12-02 07:00,ZGSZ 020700Z AUTO 31008KT 3SM 24/15 A3006 RMK T02400150 IEM_DS3505
ZGSZ,2007-12-02 08:00,ZGSZ 020800Z AUTO 31008KT 3SM 25/15 A3006 RMK T02500150 IEM_DS3505
ZGSZ,2007-12-02 09:00,ZGSZ 020900Z AUTO 36006KT 4SM 24/12 A3006 RMK SLP185 T02450125 57003 IEM_DS3505
ZGSZ,2007-12-02 10:00,ZGSZ 021000Z AUTO 33008KT 3SM 23/13 A3009 RMK T02300130 IEM_DS3505
ZGSZ,2007-12-02 11:00,ZGSZ 021100Z AUTO 02006KT 3SM 23/12 A3009 RMK T02300120 IEM_DS3505
ZGSZ,2007-12-02 12:00,ZGSZ 021200Z AUTO 09002KT 4SM 22/14 A3012 RMK SLP202 T02150137 52016 IEM_DS3505
ZGSZ,2007-12-02 13:00,ZGSZ 021300Z AUTO 00000KT 3SM 21/13 A3015 RMK T02100130 IEM_DS3505
ZGSZ,2007-12-02 14:00,ZGSZ 021400Z AUTO 02004KT 3SM 22/12 A3015 RMK T02200120 IEM_DS3505
ZGSZ,2007-12-02 15:00,ZGSZ 021500Z AUTO 07002KT 3SM 20/14 A3015 RMK SLP212 T01980137 52011 IEM_DS3505
ZGSZ,2007-12-02 16:00,ZGSZ 021600Z AUTO 3SM 20/12 A3015 RMK T02000120 IEM_DS3505
ZGSZ,2007-12-02 17:00,ZGSZ 021700Z AUTO 36004KT 3SM 19/13 A3015 RMK T01900130 IEM_DS3505
ZGSZ,2007-12-02 18:00,ZGSZ 021800Z AUTO 02006KT 3SM 20/11 A3015 RMK SLP209 T01960109 57003 IEM_DS3505
ZGSZ,2007-12-02 19:00,ZGSZ 021900Z AUTO 03004KT 3SM 18/13 A3015 RMK T01800130 IEM_DS3505
ZGSZ,2007-12-02 20:00,ZGSZ 022000Z AUTO 01008KT 3SM 19/09 A3012 RMK T01900090 IEM_DS3505
ZGSZ,2007-12-02 21:00,ZGSZ 022100Z AUTO 04010KT 3SM 18/09 A3015 RMK SLP208 T01800086 57001 IEM_DS3505
ZGSZ,2007-12-02 22:00,ZGSZ 022200Z AUTO 02014KT 6SM 18/07 A3018 RMK T01800070 IEM_DS3505
ZGSZ,2007-12-02 23:00,ZGSZ 022300Z AUTO 03012KT 4SM 17/06 A3018 RMK T01700060 IEM_DS3505
ZGSZ,2007-12-03 00:00,ZGSZ 030000Z AUTO 04010KT 4SM 17/05 A3021 RMK SLP233 T01740054 52024 IEM_DS3505
ZGSZ,2007-12-03 01:00,ZGSZ 030100Z AUTO 03012KT 3SM 18/04 A3024 RMK T01800040 IEM_DS3505
ZGSZ,2007-12-03 02:00,ZGSZ 030200Z AUTO 02012KT 4SM 19/03 A3024 RMK T01900030 IEM_DS3505
ZGSZ,2007-12-03 03:00,ZGSZ 030300Z AUTO 04008KT 4SM 19/05 A3021 RMK SLP232 T01900051 57001 IEM_DS3505
ZGSZ,2007-12-03 04:00,ZGSZ 030400Z AUTO 02012KT 4SM 22/04 A3018 RMK T02200040 IEM_DS3505
ZGSZ,2007-12-03 05:00,ZGSZ 030500Z AUTO 01012KT 4SM 23/04 A3015 RMK T02300040 IEM_DS3505
ZGSZ,2007-12-03 06:00,ZGSZ 030600Z AUTO 36008KT 3SM 22/05 A3012 RMK SLP203 T02230048 57028 IEM_DS3505
ZGSZ,2007-12-03 07:00,ZGSZ 030700Z AUTO 36010KT 3SM 23/05 A3012 RMK T02300050 IEM_DS3505
ZGSZ,2007-12-03 08:00,ZGSZ 030800Z AUTO 02008KT 3SM 23/05 A3012 RMK T02300050 IEM_DS3505
ZGSZ,2007-12-03 09:00,ZGSZ 030900Z AUTO 02006KT 3SM 22/05 A3015 RMK SLP209 T02180048 52005 IEM_DS3505
ZGSZ,2007-12-03 10:00,ZGSZ 031000Z AUTO 04006KT 3SM 21/06 A3015 RMK T02100060 IEM_DS3505
ZGSZ,2007-12-03 11:00,ZGSZ 031100Z AUTO 04004KT 3SM 20/05 A3018 RMK T02000050 IEM_DS3505
ZGSZ,2007-12-03 12:00,ZGSZ 031200Z AUTO 04006KT 2 1/2SM 19/05 A3021 RMK SLP227 T01940047 52018 IEM_DS3505
ZGSZ,2007-12-03 13:00,ZGSZ 031300Z AUTO 07010KT 3SM 20/05 A3021 RMK T02000050 IEM_DS3505
ZGSZ,2007-12-03 14:00,ZGSZ 031400Z AUTO 04004KT 3SM 19/05 A3021 RMK T01900050 IEM_DS3505
ZGSZ,2007-12-03 15:00,ZGSZ 031500Z AUTO 04006KT 3SM 18/04 A3024 RMK SLP239 T01810036 52012 IEM_DS3505
ZGSZ,2007-12-03 16:00,ZGSZ 031600Z AUTO 02006KT 3SM 18/04 A3024 RMK T01800040 IEM_DS3505
ZGSZ,2007-12-03 17:00,ZGSZ 031700Z AUTO 09004KT 3SM 17/05 A3024 RMK T01700050 IEM_DS3505
ZGSZ,2007-12-03 18:00,ZGSZ 031800Z AUTO 02004KT 3SM 17/04 A3024 RMK SLP237 T01670037 57002 IEM_DS3505
ZGSZ,2007-12-03 19:00,ZGSZ 031900Z AUTO 3SM 16/05 A3021 RMK T01600050 IEM_DS3505
ZGSZ,2007-12-03 20:00,ZGSZ 032000Z AUTO 3SM 15/04 A3021 RMK T01500040 IEM_DS3505
ZGSZ,2007-12-03 21:00,ZGSZ 032100Z AUTO 04004KT 3SM 16/03 A3024 RMK SLP237 T01560031 54000 IEM_DS3505
ZGSZ,2007-12-03 22:00,ZGSZ 032200Z AUTO 00000KT 3SM 14/05 A3024 RMK T01400050 IEM_DS3505
ZGSZ,2007-12-03 23:00,ZGSZ 032300Z AUTO 04004KT 3SM 15/03 A3027 RMK T01500030 IEM_DS3505
ZGSZ,2007-12-04 00:00,ZGSZ 040000Z AUTO 02008KT 4SM 15/03 A3027 RMK SLP254 T01530028 52016 IEM_DS3505
ZGSZ,2007-12-04 01:00,ZGSZ 040100Z AUTO 01006KT 3SM 17/01 A3030 RMK T01700010 IEM_DS3505
ZGSZ,2007-12-04 02:00,ZGSZ 040200Z AUTO 05004KT 3SM 19/02 A3030 RMK T01900020 IEM_DS3505
ZGSZ,2007-12-04 03:00,ZGSZ 040300Z AUTO 04006KT 3SM 19/02 A3027 RMK SLP253 T01910025 54000 IEM_DS3505
ZGSZ,2007-12-04 04:00,ZGSZ 040400Z AUTO 3SM 22/03 A3024 RMK T02200030 IEM_DS3505
ZGSZ,2007-12-04 05:00,ZGSZ 040500Z AUTO 3SM 22/03 A3021 RMK T02200030 IEM_DS3505
ZGSZ,2007-12-04 06:00,ZGSZ 040600Z AUTO 36004KT 3SM 22/04 A3018 RMK SLP222 T02250036 57031 IEM_DS3505
ZGSZ,2007-12-04 07:00,ZGSZ 040700Z AUTO 35008KT 3SM 23/04 A3018 RMK T02300040 IEM_DS3505
ZGSZ,2007-12-04 08:00,ZGSZ 040800Z AUTO 01008KT 3SM 23/04 A3015 RMK T02300040 IEM_DS3505
ZGSZ,2007-12-04 09:00,ZGSZ 040900Z AUTO 09002KT 3SM 21/06 A3018 RMK SLP223 T02140061 52001 IEM_DS3505
ZGSZ,2007-12-04 10:00,ZGSZ 041000Z AUTO 04008KT 3SM 21/04 A3021 RMK T02100040 IEM_DS3505
ZGSZ,2007-12-04 11:00,ZGSZ 041100Z AUTO 06006KT 3SM 20/05 A3024 RMK T02000050 IEM_DS3505
ZGSZ,2007-12-04 12:00,ZGSZ 041200Z AUTO 09004KT 2 1/2SM 18/11 A3024 RMK SLP247 T01850111 52023 IEM_DS3505
ZGSZ,2007-12-04 13:00,ZGSZ 041300Z AUTO 09004KT 3SM 20/05 A3027 RMK T02000050 IEM_DS3505
ZGSZ,2007-12-04 14:00,ZGSZ 041400Z AUTO 00000KT 3SM 19/06 A3027 RMK T01900060 IEM_DS3505
ZGSZ,2007-12-04 15:00,ZGSZ 041500Z AUTO 36002KT 2 1/2SM 18/11 A3027 RMK SLP256 T01800113 52010 IEM_DS3505
ZGSZ,2007-12-04 16:00,ZGSZ 041600Z AUTO 06006KT 3SM 19/06 A3027 RMK T01900060 IEM_DS3505
ZGSZ,2007-12-04 17:00,ZGSZ 041700Z AUTO 05004KT 3SM 19/06 A3027 RMK T01900060 IEM_DS3505
ZGSZ,2007-12-04 18:00,ZGSZ 041800Z AUTO 02006KT 2 1/2SM 17/06 A3027 RMK SLP248 T01740063 57008 IEM_DS3505
ZGSZ,2007-12-04 19:00,ZGSZ 041900Z AUTO 03004KT 3SM 18/04 A3024 RMK T01800040 IEM_DS3505
ZGSZ,2007-12-04 20:00,ZGSZ 042000Z AUTO 01008KT 3SM 18/04 A3024 RMK T01800040 IEM_DS3505
ZGSZ,2007-12-04 21:00,ZGSZ 042100Z AUTO 04006KT 2 1/2SM 17/04 A3024 RMK SLP241 T01680045 57007 IEM_DS3505
ZGSZ,2007-12-04 22:00,ZGSZ 042200Z AUTO 03010KT 3SM 17/04 A3024 RMK T01700040 IEM_DS3505
ZGSZ,2007-12-04 23:00,ZGSZ 042300Z AUTO 01010KT 3SM 17/05 A3027 RMK T01700050 IEM_DS3505
ZGSZ,2007-12-05 00:00,ZGSZ 050000Z AUTO 04006KT 3SM 16/05 A3030 RMK SLP258 T01640048 52016 IEM_DS3505
ZGSZ,2007-12-05 01:00,ZGSZ 050100Z AUTO 02006KT 3SM 17/05 A3030 RMK T01700050 IEM_DS3505
ZGSZ,2007-12-05 02:00,ZGSZ 050200Z AUTO 03008KT 3SM 18/05 A3030 RMK T01800050 IEM_DS3505
ZGSZ,2007-12-05 03:00,ZGSZ 050300Z AUTO 02006KT 2 1/2SM 17/06 A3027 RMK SLP257 T01720055 57001 IEM_DS3505
ZGSZ,2007-12-05 04:00,ZGSZ 050400Z AUTO 01004KT 3SM 19/06 A3027 RMK T01900060 IEM_DS3505
ZGSZ,2007-12-05 05:00,ZGSZ 050500Z AUTO 02008KT 3SM 19/06 A3024 RMK T01900060 IEM_DS3505
ZGSZ,2007-12-05 06:00,ZGSZ 050600Z AUTO 02006KT 2 1/2SM 20/08 A3018 RMK SLP225 T02010075 57031 IEM_DS3505
ZGSZ,2007-12-05 07:00,ZGSZ 050700Z AUTO 01010KT 2 1/2SM 19/07 A3018 RMK T01900070 IEM_DS3505
ZGSZ,2007-12-05 08:00,ZGSZ 050800Z AUTO 02010KT 2SM 17/10 A3018 RMK T01700100 IEM_DS3505
ZGSZ,2007-12-05 09:00,ZGSZ 050900Z AUTO 02006KT 2 1/2SM 19/08 A3021 RMK SLP225 T01890083 54000 IEM_DS3505
ZGSZ,2007-12-05 10:00,ZGSZ 051000Z AUTO 04008KT 2SM 18/08 A3021 RMK T01800080 IEM_DS3505
ZGSZ,2007-12-05 11:00,ZGSZ 051100Z AUTO 05008KT 2 1/2SM 18/08 A3021 RMK T01800080 IEM_DS3505
ZGSZ,2007-12-05 12:00,ZGSZ 051200Z AUTO 04004KT 1 1/2SM 17/08 A3024 RMK SLP242 T01740080 52016 IEM_DS3505
ZGSZ,2007-12-05 13:00,ZGSZ 051300Z AUTO 05004KT 2 1/2SM 18/08 A3024 RMK T01800080 IEM_DS3505
ZGSZ,2007-12-05 14:00,ZGSZ 051400Z AUTO 05004KT 2 1/2SM 18/08 A3024 RMK T01800080 IEM_DS3505
ZGSZ,2007-12-05 15:00,ZGSZ 051500Z AUTO 02002KT 1 1/2SM 17/08 A3024 RMK SLP243 T01730084 52001 IEM_DS3505
ZGSZ,2007-12-05 16:00,ZGSZ 051600Z AUTO 00000KT 2 1/2SM 17/08 A3024 RMK T01700080 IEM_DS3505
ZGSZ,2007-12-05 17:00,ZGSZ 051700Z AUTO 00000KT 2 1/2SM 18/09 A3024 RMK T01800090 IEM_DS3505
ZGSZ,2007-12-05 18:00,ZGSZ 051800Z AUTO 04004KT 1 1/2SM 17/09 A3021 RMK SLP232 T01670089 57010 IEM_DS3505
ZGSZ,2007-12-05 19:00,ZGSZ 051900Z AUTO 00000KT 3SM 17/09 A3021 RMK T01700090 IEM_DS3505
ZGSZ,2007-12-05 20:00,ZGSZ 052000Z AUTO 00000KT 2 1/2SM 16/09 A3021 RMK T01600090 IEM_DS3505
ZGSZ,2007-12-05 21:00,ZGSZ 052100Z AUTO 04004KT 2SM 17/09 A3018 RMK 70000 SLP224 T01670089 57008 IEM_DS3505
ZGSZ,2007-12-05 22:00,ZGSZ 052200Z AUTO 02004KT 2 1/2SM 17/09 A3021 RMK T01700090 IEM_DS3505
ZGSZ,2007-12-05 23:00,ZGSZ 052300Z AUTO 02004KT 2 1/2SM 17/08 A3021 RMK T01700080 IEM_DS3505
ZGSZ,2007-12-06 00:00,ZGSZ 060000Z AUTO 04004KT 2 1/2SM 17/09 A3024 RMK 70000 SLP240 T01660086 52015 IEM_DS3505
ZGSZ,2007-12-06 01:00,ZGSZ 060100Z AUTO 01008KT 2SM 18/09 A3024 RMK T01800090 IEM_DS3505
ZGSZ,2007-12-06 02:00,ZGSZ 060200Z AUTO 01008KT 2SM 19/09 A3024 RMK T01900090 IEM_DS3505
ZGSZ,2007-12-06 03:00,ZGSZ 060300Z AUTO 07006KT 2 1/2SM 20/08 A3021 RMK SLP232 T01960083 57007 IEM_DS3505
ZGSZ,2007-12-06 04:00,ZGSZ 060400Z AUTO 35006KT 2 1/2SM 22/09 A3018 RMK T02200090 IEM_DS3505
ZGSZ,2007-12-06 05:00,ZGSZ 060500Z AUTO 31006KT 2SM 21/11 A3015 RMK T02100110 IEM_DS3505
ZGSZ,2007-12-06 06:00,ZGSZ 060600Z AUTO 22004KT 2 1/2SM 22/11 A3012 RMK SLP200 T02210106 57032 IEM_DS3505
ZGSZ,2007-12-06 07:00,ZGSZ 060700Z AUTO 29006KT 2SM 21/13 A3012 RMK T02100130 IEM_DS3505
ZGSZ,2007-12-06 08:00,ZGSZ 060800Z AUTO 30004KT 2SM 21/13 A3009 RMK T02100130 IEM_DS3505
ZGSZ,2007-12-06 09:00,ZGSZ 060900Z AUTO 36004KT 3SM 22/08 A3012 RMK SLP199 T02160085 57001 IEM_DS3505
ZGSZ,2007-12-06 10:00,ZGSZ 061000Z AUTO 33006KT 2 1/2SM 20/11 A3012 RMK T02000110 IEM_DS3505
ZGSZ,2007-12-06 11:00,ZGSZ 061100Z AUTO 00000KT 2 1/2SM 20/09 A3015 RMK T02000090 IEM_DS3505
ZGSZ,2007-12-06 12:00,ZGSZ 061200Z AUTO 34004KT 3SM 19/09 A3015 RMK SLP213 T01920094 52014 IEM_DS3505
ZGSZ,2007-12-06 13:00,ZGSZ 061300Z AUTO 00000KT 2SM 19/09 A3015 RMK T01900090 IEM_DS3505
ZGSZ,2007-12-06 14:00,ZGSZ 061400Z AUTO 1 1/2SM 19/09 A3018 RMK T01900090 IEM_DS3505
ZGSZ,2007-12-06 15:00,ZGSZ 061500Z AUTO 02002KT 3SM 19/09 A3015 RMK SLP214 T01870087 52001 IEM_DS3505
ZGSZ,2007-12-06 16:00,ZGSZ 061600Z AUTO 00000KT 2SM 18/09 A3015 RMK T01800090 IEM_DS3505
ZGSZ,2007-12-06 17:00,ZGSZ 061700Z AUTO 00000KT 2SM 18/10 A3015 RMK T01800100 IEM_DS3505
ZGSZ,2007-12-06 18:00,ZGSZ 061800Z AUTO 20002KT 3SM 18/09 A3012 RMK SLP204 T01780092 57010 IEM_DS3505
ZGSZ,2007-12-06 19:00,ZGSZ 061900Z AUTO 02008KT 2SM 18/09 A3012 RMK T01800090 IEM_DS3505
ZGSZ,2007-12-06 20:00,ZGSZ 062000Z AUTO 01006KT 1 1/2SM 17/10 A3012 RMK T01700100 IEM_DS3505
ZGSZ,2007-12-06 21:00,ZGSZ 062100Z AUTO 02004KT 3SM 17/10 A3012 RMK SLP201 T01670099 57003 IEM_DS3505
ZGSZ,2007-12-06 22:00,ZGSZ 062200Z AUTO 36004KT 2SM 16/09 A3012 RMK T01600090 IEM_DS3505
ZGSZ,2007-12-06 23:00,ZGSZ 062300Z AUTO 01008KT 2 1/2SM 16/08 A3015 RMK T01600080 IEM_DS3505
ZGSZ,2007-12-07 00:00,ZGSZ 070000Z AUTO 02008KT 3SM 16/06 A3018 RMK SLP217 T01630062 52016 IEM_DS3505
ZGSZ,2007-12-07 01:00,ZGSZ 070100Z AUTO 02008KT 2 1/2SM 17/07 A3018 RMK T01700070 IEM_DS3505
ZGSZ,2007-12-07 02:00,ZGSZ 070200Z AUTO 01010KT 2 1/2SM 19/06 A3018 RMK T01900060 IEM_DS3505
ZGSZ,2007-12-07 03:00,ZGSZ 070300Z AUTO 04008KT 3SM 19/06 A3018 RMK SLP218 T01870059 52001 IEM_DS3505
ZGSZ,2007-12-07 04:00,ZGSZ 070400Z AUTO 36010KT 2 1/2SM 21/06 A3015 RMK T02100060 IEM_DS3505
ZGSZ,2007-12-07 05:00,ZGSZ 070500Z AUTO 35010KT 2 1/2SM 22/07 A3012 RMK T02200070 IEM_DS3505
ZGSZ,2007-12-07 06:00,ZGSZ 070600Z AUTO 07006KT 2 1/2SM 22/06 A3009 RMK SLP189 T02160059 57029 IEM_DS3505
ZGSZ,2007-12-07 07:00,ZGSZ 070700Z AUTO 36010KT 2 1/2SM 22/07 A3006 RMK T02200070 IEM_DS3505
ZGSZ,2007-12-07 08:00,ZGSZ 070800Z AUTO 36010KT 2 1/2SM 22/07 A3006 RMK T02200070 IEM_DS3505
ZGSZ,2007-12-07 09:00,ZGSZ 070900Z AUTO 34006KT 2 1/2SM 21/07 A3009 RMK SLP189 T02060073 54000 IEM_DS3505
ZGSZ,2007-12-07 10:00,ZGSZ 071000Z AUTO 03006KT 2 1/2SM 20/07 A3009 RMK T02000070 IEM_DS3505
ZGSZ,2007-12-07 11:00,ZGSZ 071100Z AUTO 04004KT 2 1/2SM 19/07 A3012 RMK T01900070 IEM_DS3505
ZGSZ,2007-12-07 12:00,ZGSZ 071200Z AUTO 04004KT 2 1/2SM 18/07 A3015 RMK SLP210 T01850067 52021 IEM_DS3505
ZGSZ,2007-12-07 13:00,ZGSZ 071300Z AUTO 2 1/2SM 18/07 A3015 RMK T01800070 IEM_DS3505
ZGSZ,2007-12-07 14:00,ZGSZ 071400Z AUTO 09006KT 2SM 18/07 A3015 RMK T01800070 IEM_DS3505
ZGSZ,2007-12-07 15:00,ZGSZ 071500Z AUTO 09004KT 2SM 17/07 A3015 RMK T01700070 IEM_DS3505
ZGSZ,2007-12-07 16:00,ZGSZ 071600Z AUTO 2SM 17/07 A3015 RMK T01700070 IEM_DS3505
ZGSZ,2007-12-07 17:00,ZGSZ 071700Z AUTO 00000KT 2SM 16/06 A3015 RMK T01600060 IEM_DS3505
ZGSZ,2007-12-07 18:00,ZGSZ 071800Z AUTO 04004KT 2 1/2SM 16/09 A3015 RMK SLP208 T01580088 57006 IEM_DS3505
ZGSZ,2007-12-07 19:00,ZGSZ 071900Z AUTO 04006KT 2SM 16/07 A3012 RMK T01600070 IEM_DS3505
ZGSZ,2007-12-07 20:00,ZGSZ 072000Z AUTO 00000KT 2SM 15/06 A3012 RMK T01500060 IEM_DS3505
ZGSZ,2007-12-07 21:00,ZGSZ 072100Z AUTO 04004KT 2 1/2SM 15/09 A3015 RMK SLP206 T01500091 57002 IEM_DS3505
ZGSZ,2007-12-07 22:00,ZGSZ 072200Z AUTO 03006KT 2SM 14/06 A3015 RMK T01400060 IEM_DS3505
ZGSZ,2007-12-07 23:00,ZGSZ 072300Z AUTO 04004KT 2SM 14/06 A3018 RMK T01400060 IEM_DS3505
ZGSZ,2007-12-08 00:00,ZGSZ 080000Z AUTO 04006KT 2 1/2SM 14/07 A3018 RMK SLP226 T01430069 52019 IEM_DS3505
ZGSZ,2007-12-08 01:00,ZGSZ 080100Z AUTO 05006KT 3SM 16/05 A3021 RMK T01600050 IEM_DS3505
ZGSZ,2007-12-08 02:00,ZGSZ 080200Z AUTO 04006KT 3SM 18/07 A3021 RMK T01800070 IEM_DS3505
ZGSZ,2007-12-08 03:00,ZGSZ 080300Z AUTO 02008KT 2 1/2SM 18/08 A3018 RMK SLP225 T01840081 54000 IEM_DS3505
ZGSZ,2007-12-08 04:00,ZGSZ 080400Z AUTO 08006KT 2 1/2SM 21/08 A3015 RMK T02100080 IEM_DS3505
ZGSZ,2007-12-08 05:00,ZGSZ 080500Z AUTO 2 1/2SM 22/08 A3009 RMK T02200080 IEM_DS3505
ZGSZ,2007-12-08 06:00,ZGSZ 080600Z AUTO 02006KT 4SM 22/09 A3006 RMK SLP186 T02150094 57039 IEM_DS3505
ZGSZ,2007-12-08 07:00,ZGSZ 080700Z AUTO 2 1/2SM 22/10 A3006 RMK T02200100 IEM_DS3505
ZGSZ,2007-12-08 08:00,ZGSZ 080800Z AUTO 08006KT 3SM 23/09 A3003 RMK T02300090 IEM_DS3505
ZGSZ,2007-12-08 09:00,ZGSZ 080900Z AUTO 09004KT 4SM 20/09 A3003 RMK SLP178 T02050094 57008 IEM_DS3505
ZGSZ,2007-12-08 10:00,ZGSZ 081000Z AUTO 15006KT 2SM 19/12 A3006 RMK T01900120 IEM_DS3505
ZGSZ,2007-12-08 11:00,ZGSZ 081100Z AUTO 19008KT 3SM 19/13 A3006 RMK T01900130 IEM_DS3505
ZGSZ,2007-12-08 12:00,ZGSZ 081200Z AUTO 07006KT 2 1/2SM 18/13 A3009 RMK SLP194 T01750126 52015 IEM_DS3505
ZGSZ,2007-12-08 13:00,ZGSZ 081300Z AUTO 11008KT 2SM 18/13 A3009 RMK T01800130 IEM_DS3505
ZGSZ,2007-12-08 14:00,ZGSZ 081400Z AUTO 10008KT 2SM 18/13 A3012 RMK T01800130 IEM_DS3505
ZGSZ,2007-12-08 15:00,ZGSZ 081500Z AUTO 09004KT 2SM 18/13 A3012 RMK SLP202 T01760129 52009 IEM_DS3505
ZGSZ,2007-12-08 16:00,ZGSZ 081600Z AUTO 09006KT 2SM 17/13 A3012 RMK T01700130 IEM_DS3505
ZGSZ,2007-12-08 17:00,ZGSZ 081700Z AUTO 07004KT 2SM 18/13 A3012 RMK T01800130 IEM_DS3505
ZGSZ,2007-12-08 18:00,ZGSZ 081800Z AUTO 07004KT 2SM 17/13 RMK SLP196 T01740127 57006 IEM_DS3505
ZGSZ,2007-12-08 19:00,ZGSZ 081900Z AUTO 04004KT 1 1/2SM 16/13 A3009 RMK T01600130 IEM_DS3505
ZGSZ,2007-12-08 20:00,ZGSZ 082000Z AUTO 05008KT 1 1/2SM 17/13 A3009 RMK T01700130 IEM_DS3505
ZGSZ,2007-12-08 21:00,ZGSZ 082100Z AUTO 02004KT 1 1/2SM 16/12 A3009 RMK SLP190 T01640122 57006 IEM_DS3505
ZGSZ,2007-12-08 22:00,ZGSZ 082200Z AUTO 05006KT 2SM 17/13 A3009 RMK T01700130 IEM_DS3505
ZGSZ,2007-12-08 23:00,ZGSZ 082300Z AUTO 2SM 17/13 A3009 RMK T01700130 IEM_DS3505
ZGSZ,2007-12-09 00:00,ZGSZ 090000Z AUTO 04004KT 1 1/2SM 17/12 A3012 RMK SLP200 T01740123 52010 IEM_DS3505
ZGSZ,2007-12-09 01:00,ZGSZ 090100Z AUTO 2SM 19/12 A3012 RMK T01900120 IEM_DS3505
ZGSZ,2007-12-09 02:00,ZGSZ 090200Z AUTO 2SM 19/12 A3015 RMK T01900120 IEM_DS3505
ZGSZ,2007-12-09 03:00,ZGSZ 090300Z AUTO 02004KT 2SM 20/12 A3012 RMK SLP201 T02020119 52001 IEM_DS3505
ZGSZ,2007-12-09 04:00,ZGSZ 090400Z AUTO 02006KT 1 1/2SM 22/12 A3009 RMK T02200120 IEM_DS3505
ZGSZ,2007-12-09 05:00,ZGSZ 090500Z AUTO 2SM 22/12 A3006 RMK T02200120 IEM_DS3505
ZGSZ,2007-12-09 06:00,ZGSZ 090600Z AUTO 04004KT 2 1/2SM 23/12 A3003 RMK SLP168 T02270121 57032 IEM_DS3505
ZGSZ,2007-12-09 07:00,ZGSZ 090700Z AUTO 29006KT 1 1/2SM 22/14 A3000 RMK T02200140 IEM_DS3505
ZGSZ,2007-12-09 08:00,ZGSZ 090800Z AUTO 30008KT 1 1/2SM 21/14 A3000 RMK T02100140 IEM_DS3505
ZGSZ,2007-12-09 09:00,ZGSZ 090900Z AUTO 22004KT 3SM 22/13 A3000 RMK SLP162 T02180134 57007 IEM_DS3505
ZGSZ,2007-12-09 10:00,ZGSZ 091000Z AUTO 00000KT 1 1/4SM 21/14 A3000 RMK T02100140 IEM_DS3505
ZGSZ,2007-12-09 11:00,ZGSZ 091100Z AUTO 17004KT 1SM 19/16 A3000 RMK T01900160 IEM_DS3505
ZGSZ,2007-12-09 12:00,ZGSZ 091200Z AUTO 36002KT 2SM 20/13 A3003 RMK SLP173 T01980130 52011 IEM_DS3505
ZGSZ,2007-12-09 13:00,ZGSZ 091300Z AUTO 15004KT 2SM 19/16 A3003 RMK T01900160 IEM_DS3505
ZGSZ,2007-12-09 14:00,ZGSZ 091400Z AUTO 1 1/2SM 19/16 A3006 RMK T01900160 IEM_DS3505
ZGSZ,2007-12-09 15:00,ZGSZ 091500Z AUTO 07004KT 2 1/2SM 19/14 A3006 RMK SLP184 T01880139 52011 IEM_DS3505
ZGSZ,2007-12-09 16:00,ZGSZ 091600Z AUTO 00000KT 1SM 18/17 A3006 RMK T01800170 IEM_DS3505
ZGSZ,2007-12-09 17:00,ZGSZ 091700Z AUTO 00000KT 1 1/4SM 18/15 A3006 RMK T01800150 IEM_DS3505
ZGSZ,2007-12-09 18:00,ZGSZ 091800Z AUTO 07004KT 4SM 19/14 A3006 RMK SLP178 T01870138 57005 IEM_DS3505
ZGSZ,2007-12-09 19:00,ZGSZ 091900Z AUTO 00000KT 2SM 17/14 A3003 RMK T01700140 IEM_DS3505
ZGSZ,2007-12-09 20:00,ZGSZ 092000Z AUTO 00000KT 2SM 18/14 A3003 RMK T01800140 IEM_DS3505
ZGSZ,2007-12-09 21:00,ZGSZ 092100Z AUTO 04008KT 6SM 18/14 A3003 RMK SLP168 T01810142 57010 IEM_DS3505
ZGSZ,2007-12-09 22:00,ZGSZ 092200Z AUTO 02002KT 1 1/2SM 17/14 A3003 RMK T01700140 IEM_DS3505
ZGSZ,2007-12-09 23:00,ZGSZ 092300Z AUTO 00000KT 2 1/2SM 18/15 A3006 RMK T01800150 IEM_DS3505
ZGSZ,2007-12-10 00:00,ZGSZ 100000Z AUTO 07004KT 5SM 19/15 A3006 RMK SLP186 T01880147 52017 IEM_DS3505
ZGSZ,2007-12-10 01:00,ZGSZ 100100Z AUTO 4SM 20/15 A3006 RMK T02000150 IEM_DS3505
ZGSZ,2007-12-10 02:00,ZGSZ 100200Z AUTO 26004KT 4SM 21/16 A3009 RMK T02100160 IEM_DS3505
ZGSZ,2007-12-10 03:00,ZGSZ 100300Z AUTO 04006KT 9SM 23/14 A3006 RMK SLP185 T02260139 54000 IEM_DS3505
ZGSZ,2007-12-10 04:00,ZGSZ 100400Z AUTO 26006KT 2 1/2SM 23/17 A3003 RMK T02300170 IEM_DS3505
ZGSZ,2007-12-10 05:00,ZGSZ 100500Z AUTO 25006KT 2 1/2SM 23/17 A3000 RMK T02300170 IEM_DS3505
ZGSZ,2007-12-10 06:00,ZGSZ 100600Z AUTO 02006KT 10SM 24/14 A2997 RMK SLP156 T02440136 57029 IEM_DS3505
ZGSZ,2007-12-10 07:00,ZGSZ 100700Z AUTO 25004KT 3SM 24/16 A2997 RMK T02400160 IEM_DS3505
ZGSZ,2007-12-10 08:00,ZGSZ 100800Z AUTO 18006KT 4SM 23/17 A2997 RMK T02300170 IEM_DS3505
ZGSZ,2007-12-10 09:00,ZGSZ 100900Z AUTO 18002KT 9SM 23/15 A2997 RMK SLP154 T02330154 57002 IEM_DS3505
ZGSZ,2007-12-10 10:00,ZGSZ 101000Z AUTO 15004KT 3SM 20/17 A2997 RMK T02000170 IEM_DS3505
ZGSZ,2007-12-10 11:00,ZGSZ 101100Z AUTO 15006KT 2 1/2SM 19/17 A2997 RMK T01900170 IEM_DS3505
ZGSZ,2007-12-10 12:00,ZGSZ 101200Z AUTO 04004KT 9SM 21/14 A3000 RMK SLP160 T02070144 52006 IEM_DS3505
ZGSZ,2007-12-10 13:00,ZGSZ 101300Z AUTO 16004KT 2SM 19/17 A3000 RMK T01900170 IEM_DS3505
ZGSZ,2007-12-10 14:00,ZGSZ 101400Z AUTO 16004KT 2SM 18/17 A3000 RMK T01800170 IEM_DS3505
ZGSZ,2007-12-10 15:00,ZGSZ 101500Z AUTO 09004KT 9SM 20/14 A3000 RMK SLP166 T01980140 52006 IEM_DS3505
ZGSZ,2007-12-10 16:00,ZGSZ 101600Z AUTO 15002KT 2SM 19/17 A3000 RMK T01900170 IEM_DS3505
ZGSZ,2007-12-10 17:00,ZGSZ 101700Z AUTO 14002KT 1 1/2SM 18/16 A3000 RMK T01800160 IEM_DS3505
ZGSZ,2007-12-10 18:00,ZGSZ 101800Z AUTO 07002KT 9SM 19/14 A2997 RMK SLP154 T01890137 57012 IEM_DS3505
ZGSZ,2007-12-10 19:00,ZGSZ 101900Z AUTO 01004KT 2 1/2SM 18/16 A2997 RMK T01800160 IEM_DS3505
ZGSZ,2007-12-10 20:00,ZGSZ 102000Z AUTO 02004KT 2 1/2SM 18/16 A2997 RMK T01800160 IEM_DS3505
ZGSZ,2007-12-10 21:00,ZGSZ 102100Z AUTO 14002KT 8SM 18/14 A2997 RMK SLP149 T01800141 57005 IEM_DS3505
ZGSZ,2007-12-10 22:00,ZGSZ 102200Z AUTO 02006KT 1 1/2SM 18/16 A2997 RMK T01800160 IEM_DS3505
ZGSZ,2007-12-10 23:00,ZGSZ 102300Z AUTO 02004KT 1 1/2SM 18/16 A3000 RMK T01800160 IEM_DS3505
ZGSZ,2007-12-11 00:00,ZGSZ 110000Z AUTO 14002KT 6SM 19/14 A3000 RMK SLP166 T01910144 52017 IEM_DS3505
ZGSZ,2007-12-11 01:00,ZGSZ 110100Z AUTO 12004KT 2SM 21/15 A3003 RMK T02100150 IEM_DS3505
ZGSZ,2007-12-11 02:00,ZGSZ 110200Z AUTO 26004KT 1 1/2SM 22/16 A3003 RMK T02200160 IEM_DS3505
ZGSZ,2007-12-11 03:00,ZGSZ 110300Z AUTO 04006KT 6SM 25/13 A3000 RMK SLP166 T02480134 54000 IEM_DS3505
ZGSZ,2007-12-11 04:00,ZGSZ 110400Z AUTO 23004KT 1 1/2SM 24/17 A2997 RMK T02400170 IEM_DS3505
ZGSZ,2007-12-11 05:00,ZGSZ 110500Z AUTO 26006KT 1 1/2SM 25/17 A2994 RMK T02500170 IEM_DS3505
ZGSZ,2007-12-11 06:00,ZGSZ 110600Z AUTO 11004KT 10SM 26/16 A2994 RMK SLP139 T02640155 57027 IEM_DS3505
ZGSZ,2007-12-11 07:00,ZGSZ 110700Z AUTO 23004KT 2SM 25/16 A2991 RMK T02500160 IEM_DS3505
ZGSZ,2007-12-11 08:00,ZGSZ 110800Z AUTO 20008KT 6SM 23/17 A2991 RMK T02300170 IEM_DS3505
ZGSZ,2007-12-11 09:00,ZGSZ 110900Z AUTO 16002KT 9SM 25/16 A2991 RMK SLP134 T02500156 57005 IEM_DS3505
ZGSZ,2007-12-11 10:00,ZGSZ 111000Z AUTO 16004KT 4SM 21/18 A2991 RMK T02100180 IEM_DS3505
ZGSZ,2007-12-11 11:00,ZGSZ 111100Z AUTO 15004KT 3SM 20/18 A2994 RMK T02000180 IEM_DS3505
ZGSZ,2007-12-11 12:00,ZGSZ 111200Z AUTO 09004KT 8SM 22/14 A2994 RMK SLP149 T02160140 52015 IEM_DS3505
ZGSZ,2007-12-11 13:00,ZGSZ 111300Z AUTO 12006KT 6SM 22/17 A2994 RMK T02200170 IEM_DS3505
ZGSZ,2007-12-11 14:00,ZGSZ 111400Z AUTO 12006KT 6SM 22/16 A2997 RMK T02200160 IEM_DS3505
ZGSZ,2007-12-11 15:00,ZGSZ 111500Z AUTO 04004KT 7SM 21/13 A2994 RMK SLP149 T02060133 54000 IEM_DS3505
ZGSZ,2007-12-11 16:00,ZGSZ 111600Z AUTO 12006KT 6SM 21/15 A2994 RMK T02100150 IEM_DS3505
ZGSZ,2007-12-11 17:00,ZGSZ 111700Z AUTO 13006KT 6SM 21/14 A2994 RMK T02100140 IEM_DS3505
ZGSZ,2007-12-11 18:00,ZGSZ 111800Z AUTO 07004KT 11SM 20/14 A2994 RMK SLP137 T02010136 57011 IEM_DS3505
ZGSZ,2007-12-11 19:00,ZGSZ 111900Z AUTO 00000KT 6SM 20/14 A2991 RMK T02000140 IEM_DS3505
ZGSZ,2007-12-11 20:00,ZGSZ 112000Z AUTO 32002KT 7SM 20/16 A2994 RMK T02000160 IEM_DS3505
ZGSZ,2007-12-11 21:00,ZGSZ 112100Z AUTO 36002KT 11SM 20/14 A2994 RMK SLP138 T02030135 54000 IEM_DS3505
ZGSZ,2007-12-11 22:00,ZGSZ 112200Z AUTO 01004KT 3SM 19/15 A2994 RMK T01900150 IEM_DS3505
ZGSZ,2007-12-11 23:00,ZGSZ 112300Z AUTO 03002KT 3SM 20/14 A2994 RMK T02000140 IEM_DS3505
ZGSZ,2007-12-12 00:00,ZGSZ 120000Z AUTO 02002KT 11SM 20/14 A2997 RMK SLP149 T02050137 52011 IEM_DS3505
ZGSZ,2007-12-12 01:00,ZGSZ 120100Z AUTO 4SM 23/14 A2997 RMK T02300140 IEM_DS3505
ZGSZ,2007-12-12 02:00,ZGSZ 120200Z AUTO 4SM 24/15 A2997 RMK T02400150 IEM_DS3505
ZGSZ,2007-12-12 03:00,ZGSZ 120300Z AUTO 07004KT 9SM 25/15 A2997 RMK SLP149 T02500153 54000 IEM_DS3505
ZGSZ,2007-12-12 04:00,ZGSZ 120400Z AUTO 23006KT 3SM 25/16 A2994 RMK T02500160 IEM_DS3505
ZGSZ,2007-12-12 05:00,ZGSZ 120500Z AUTO 23006KT 6SM 25/17 A2991 RMK T02500170 IEM_DS3505
ZGSZ,2007-12-12 06:00,ZGSZ 120600Z AUTO 20006KT 9SM 26/17 A2985 RMK SLP117 T02590167 57031 IEM_DS3505
ZGSZ,2007-12-12 07:00,ZGSZ 120700Z AUTO 21006KT 6SM 25/18 A2985 RMK T02500180 IEM_DS3505
ZGSZ,2007-12-12 08:00,ZGSZ 120800Z AUTO 19006KT 2 1/2SM 24/20 A2983 RMK T02400200 IEM_DS3505
ZGSZ,2007-12-12 09:00,ZGSZ 120900Z AUTO 20004KT 5SM 24/17 A2985 RMK SLP110 T02350168 57008 IEM_DS3505
ZGSZ,2007-12-12 10:00,ZGSZ 121000Z AUTO 18008KT 2 1/2SM 21/19 A2985 RMK T02100190 IEM_DS3505
ZGSZ,2007-12-12 11:00,ZGSZ 121100Z AUTO 17004KT 2 1/2SM 21/18 A2985 RMK T02100180 IEM_DS3505
ZGSZ,2007-12-12 12:00,ZGSZ 121200Z AUTO 02002KT 5SM 22/16 A2988 RMK SLP122 T02180159 52012 IEM_DS3505
ZGSZ,2007-12-12 13:00,ZGSZ 121300Z AUTO 16004KT 2SM 20/18 A2988 RMK T02000180 IEM_DS3505
ZGSZ,2007-12-12 14:00,ZGSZ 121400Z AUTO 19006KT 2SM 20/18 A2988 RMK T02000180 IEM_DS3505
ZGSZ,2007-12-12 15:00,ZGSZ 121500Z AUTO 04002KT 4SM 21/15 A2991 RMK SLP130 T02070153 52009 IEM_DS3505
ZGSZ,2007-12-12 16:00,ZGSZ 121600Z AUTO 00000KT 1 1/2SM 20/18 A2991 RMK T02000180 IEM_DS3505
ZGSZ,2007-12-12 17:00,ZGSZ 121700Z AUTO 00000KT 1 1/4SM 20/18 A2991 RMK T02000180 IEM_DS3505
ZGSZ,2007-12-12 18:00,ZGSZ 121800Z AUTO 22002KT 4SM 20/16 A2991 RMK SLP135 T01980155 52005 IEM_DS3505
ZGSZ,2007-12-12 19:00,ZGSZ 121900Z AUTO 00000KT 1 1/4SM 19/18 A2991 RMK T01900180 IEM_DS3505
ZGSZ,2007-12-12 20:00,ZGSZ 122000Z AUTO 00000KT 1SM 19/18 A2991 RMK T01900180 IEM_DS3505
ZGSZ,2007-12-12 21:00,ZGSZ 122100Z AUTO 32002KT 2SM 19/17 A2994 RMK SLP141 T01930169 52005 IEM_DS3505
ZGSZ,2007-12-12 22:00,ZGSZ 122200Z AUTO 00000KT 1 1/2SM 19/17 A2994 RMK T01900170 IEM_DS3505
ZGSZ,2007-12-12 23:00,ZGSZ 122300Z AUTO 1SM 19/17 A2997 RMK T01900170 IEM_DS3505
ZGSZ,2007-12-13 00:00,ZGSZ 130000Z AUTO 02004KT 1 1/2SM 19/17 A2997 RMK SLP154 T01930169 52013 IEM_DS3505
ZGSZ,2007-12-13 01:00,ZGSZ 130100Z AUTO 02012KT 2SM 20/15 A3000 RMK T02000150 IEM_DS3505
ZGSZ,2007-12-13 02:00,ZGSZ 130200Z AUTO 02010KT 2SM 22/15 A3000 RMK T02200150 IEM_DS3505
ZGSZ,2007-12-13 03:00,ZGSZ 130300Z AUTO 04006KT 2 1/2SM 22/13 A3000 RMK SLP157 T02250130 52003 IEM_DS3505
ZGSZ,2007-12-13 04:00,ZGSZ 130400Z AUTO 35012KT 2SM 24/13 A2997 RMK T02400130 IEM_DS3505
ZGSZ,2007-12-13 05:00,ZGSZ 130500Z AUTO 01012KT 2 1/2SM 25/13 A2994 RMK T02500130 IEM_DS3505
ZGSZ,2007-12-13 06:00,ZGSZ 130600Z AUTO 36012KT 2 1/2SM 25/13 A2991 RMK T02500130 IEM_DS3505
ZGSZ,2007-12-13 07:00,ZGSZ 130700Z AUTO 02012KT 2 1/2SM 25/12 A2988 RMK T02500120 IEM_DS3505
ZGSZ,2007-12-13 08:00,ZGSZ 130800Z AUTO 36010KT 2 1/2SM 25/13 A2988 RMK T02500130 IEM_DS3505
ZGSZ,2007-12-13 09:00,ZGSZ 130900Z AUTO 34006KT 2 1/2SM 23/13 A2988 RMK SLP127 T02320128 52001 IEM_DS3505
ZGSZ,2007-12-13 10:00,ZGSZ 131000Z AUTO 04008KT 3SM 23/13 A2991 RMK T02300130 IEM_DS3505
ZGSZ,2007-12-13 11:00,ZGSZ 131100Z AUTO 02006KT 3SM 22/12 A2991 RMK T02200120 IEM_DS3505
ZGSZ,2007-12-13 12:00,ZGSZ 131200Z AUTO 02004KT 3SM 21/12 A2994 RMK SLP143 T02080117 52016 IEM_DS3505
ZGSZ,2007-12-13 13:00,ZGSZ 131300Z AUTO 05004KT 3SM 21/12 A2994 RMK T02100120 IEM_DS3505
ZGSZ,2007-12-13 14:00,ZGSZ 131400Z AUTO 02006KT 3SM 20/11 A2997 RMK T02000110 IEM_DS3505
ZGSZ,2007-12-13 15:00,ZGSZ 131500Z AUTO 05004KT 3SM 20/11 A2997 RMK T02000110 IEM_DS3505
ZGSZ,2007-12-13 16:00,ZGSZ 131600Z AUTO 02006KT 4SM 19/11 A2997 RMK T01900110 IEM_DS3505
ZGSZ,2007-12-13 17:00,ZGSZ 131700Z AUTO 01008KT 4SM 19/10 A3000 RMK T01900100 IEM_DS3505
ZGSZ,2007-12-13 18:00,ZGSZ 131800Z AUTO 36006KT 3SM 18/11 A3000 RMK SLP158 T01830111 52004 IEM_DS3505
ZGSZ,2007-12-13 19:00,ZGSZ 131900Z AUTO 04006KT 4SM 18/09 A3000 RMK T01800090 IEM_DS3505
ZGSZ,2007-12-13 20:00,ZGSZ 132000Z AUTO 03010KT 4SM 18/09 A3000 RMK T01800090 IEM_DS3505
ZGSZ,2007-12-13 21:00,ZGSZ 132100Z AUTO 02008KT 4SM 17/10 A3000 RMK SLP159 T01700097 52001 IEM_DS3505
ZGSZ,2007-12-13 22:00,ZGSZ 132200Z AUTO 36010KT 5SM 17/08 A3003 RMK T01700080 IEM_DS3505
ZGSZ,2007-12-13 23:00,ZGSZ 132300Z AUTO 05006KT 5SM 17/08 A3003 RMK T01700080 IEM_DS3505
ZGSZ,2007-12-14 00:00,ZGSZ 140000Z AUTO 07010KT 4SM 17/09 A3003 RMK SLP173 T01660088 52013 IEM_DS3505
ZGSZ,2007-12-14 01:00,ZGSZ 140100Z AUTO 01008KT 4SM 18/09 A3006 RMK T01800090 IEM_DS3505
ZGSZ,2007-12-14 02:00,ZGSZ 140200Z AUTO 03004KT 4SM 19/09 A3006 RMK T01900090 IEM_DS3505
ZGSZ,2007-12-14 03:00,ZGSZ 140300Z AUTO 04006KT 4SM 19/10 A3003 RMK SLP175 T01940099 52002 IEM_DS3505
ZGSZ,2007-12-14 04:00,ZGSZ 140400Z AUTO 26004KT 3SM 21/10 A3000 RMK T02100100 IEM_DS3505
ZGSZ,2007-12-14 05:00,ZGSZ 140500Z AUTO 29008KT 3SM 21/11 A2997 RMK T02100110 IEM_DS3505
ZGSZ,2007-12-14 06:00,ZGSZ 140600Z AUTO 25002KT 4SM 23/12 A2994 RMK SLP142 T02330117 57032 IEM_DS3505
ZGSZ,2007-12-14 07:00,ZGSZ 140700Z AUTO 29006KT 3SM 22/12 A2994 RMK T02200120 IEM_DS3505
ZGSZ,2007-12-14 08:00,ZGSZ 140800Z AUTO 28004KT 2 1/2SM 22/12 A2991 RMK T02200120 IEM_DS3505
ZGSZ,2007-12-14 09:00,ZGSZ 140900Z AUTO 22004KT 3SM 21/13 A2994 RMK SLP139 T02100132 57003 IEM_DS3505
ZGSZ,2007-12-14 10:00,ZGSZ 141000Z AUTO 19004KT 2 1/2SM 20/13 A2994 RMK T02000130 IEM_DS3505
ZGSZ,2007-12-14 11:00,ZGSZ 141100Z AUTO 19004KT 2 1/2SM 20/14 A2997 RMK T02000140 IEM_DS3505
ZGSZ,2007-12-14 12:00,ZGSZ 141200Z AUTO 09004KT 3SM 18/14 A2997 RMK SLP160 T01850142 52020 IEM_DS3505
ZGSZ,2007-12-14 13:00,ZGSZ 141300Z AUTO 2SM 19/16 A3000 RMK T01900160 IEM_DS3505
ZGSZ,2007-12-14 14:00,ZGSZ 141400Z AUTO 11006KT 2SM 19/14 A3000 RMK T01900140 IEM_DS3505
ZGSZ,2007-12-14 15:00,ZGSZ 141500Z AUTO 11008KT 2SM 19/15 A3000 RMK T01900150 IEM_DS3505
ZGSZ,2007-12-14 16:00,ZGSZ 141600Z AUTO 11006KT 2SM 19/15 A3003 RMK T01900150 IEM_DS3505
ZGSZ,2007-12-14 17:00,ZGSZ 141700Z AUTO 10006KT 2SM 19/15 A3003 RMK T01900150 IEM_DS3505
ZGSZ,2007-12-14 18:00,ZGSZ 141800Z AUTO 07006KT 2 1/2SM 18/14 A3003 RMK SLP171 T01780139 52002 IEM_DS3505
ZGSZ,2007-12-14 19:00,ZGSZ 141900Z AUTO 04004KT 1 1/2SM 18/15 A3003 RMK T01800150 IEM_DS3505
ZGSZ,2007-12-14 20:00,ZGSZ 142000Z AUTO 01004KT 1 1/2SM 17/14 A3003 RMK T01700140 IEM_DS3505
ZGSZ,2007-12-14 21:00,ZGSZ 142100Z AUTO 07004KT 2 1/2SM 18/14 A3003 RMK SLP176 T01780139 52004 IEM_DS3505
ZGSZ,2007-12-14 22:00,ZGSZ 142200Z AUTO 03006KT 1 1/4SM 17/15 A3006 RMK T01700150 IEM_DS3505
ZGSZ,2007-12-14 23:00,ZGSZ 142300Z AUTO 04004KT 1 1/2SM 17/15 A3006 RMK T01700150 IEM_DS3505
ZGSZ,2007-12-15 00:00,ZGSZ 150000Z AUTO 04002KT 2 1/2SM 17/14 A3009 RMK SLP190 T01740141 52014 IEM_DS3505
ZGSZ,2007-12-15 01:00,ZGSZ 150100Z AUTO 00000KT 1 1/2SM 19/15 A3009 RMK T01900150 IEM_DS3505
ZGSZ,2007-12-15 02:00,ZGSZ 150200Z AUTO 27004KT 2SM 20/15 A3009 RMK T02000150 IEM_DS3505
ZGSZ,2007-12-15 03:00,ZGSZ 150300Z AUTO 04004KT 3SM 22/14 A3009 RMK SLP190 T02190135 54000 IEM_DS3505
ZGSZ,2007-12-15 04:00,ZGSZ 150400Z AUTO 26006KT 1 1/2SM 22/16 A3006 RMK T02200160 IEM_DS3505
ZGSZ,2007-12-15 05:00,ZGSZ 150500Z AUTO 22006KT 2SM 22/16 A3003 RMK T02200160 IEM_DS3505
ZGSZ,2007-12-15 06:00,ZGSZ 150600Z AUTO 14004KT 3SM 24/12 A3000 RMK SLP158 T02410121 57031 IEM_DS3505
ZGSZ,2007-12-15 07:00,ZGSZ 150700Z AUTO 21006KT 2SM 23/16 A2997 RMK T02300160 IEM_DS3505
ZGSZ,2007-12-15 08:00,ZGSZ 150800Z AUTO 19006KT 2 1/2SM 22/16 A2997 RMK T02200160 IEM_DS3505
ZGSZ,2007-12-15 09:00,ZGSZ 150900Z AUTO 22006KT 3SM 22/15 A3000 RMK SLP159 T02170153 52001 IEM_DS3505
ZGSZ,2007-12-15 10:00,ZGSZ 151000Z AUTO 18006KT 2SM 20/16 A3000 RMK T02000160 IEM_DS3505
ZGSZ,2007-12-15 11:00,ZGSZ 151100Z AUTO 17002KT 2SM 19/16 A3003 RMK T01900160 IEM_DS3505
ZGSZ,2007-12-15 12:00,ZGSZ 151200Z AUTO 07008KT 1 1/2SM 19/14 A3006 RMK SLP182 T01870142 52022 IEM_DS3505
ZGSZ,2007-12-15 13:00,ZGSZ 151300Z AUTO 10006KT 2SM 19/15 A3006 RMK T01900150 IEM_DS3505
ZGSZ,2007-12-15 14:00,ZGSZ 151400Z AUTO 09008KT 2SM 19/15 A3009 RMK T01900150 IEM_DS3505
ZGSZ,2007-12-15 15:00,ZGSZ 151500Z AUTO 09006KT 1 1/2SM 18/14 A3009 RMK SLP192 T01840145 52010 IEM_DS3505
ZGSZ,2007-12-15 16:00,ZGSZ 151600Z AUTO 00000KT 2SM 18/14 A3009 RMK T01800140 IEM_DS3505
ZGSZ,2007-12-15 17:00,ZGSZ 151700Z AUTO 00000KT 2SM 18/15 A3009 RMK T01800150 IEM_DS3505
ZGSZ,2007-12-15 18:00,ZGSZ 151800Z AUTO 07004KT 2SM 19/14 A3009 RMK SLP190 T01870140 57001 IEM_DS3505
ZGSZ,2007-12-15 19:00,ZGSZ 151900Z AUTO 1 1/2SM 18/15 A3009 RMK T01800150 IEM_DS3505
ZGSZ,2007-12-15 20:00,ZGSZ 152000Z AUTO 02004KT 1 1/2SM 19/15 A3009 RMK T01900150 IEM_DS3505
ZGSZ,2007-12-15 21:00,ZGSZ 152100Z AUTO 09004KT 2 1/2SM 19/14 A3009 RMK SLP192 T01860137 52001 IEM_DS3505
ZGSZ,2007-12-15 22:00,ZGSZ 152200Z AUTO 03004KT 1 1/2SM 19/15 A3012 RMK T01900150 IEM_DS3505
ZGSZ,2007-12-15 23:00,ZGSZ 152300Z AUTO 02004KT 2SM 18/15 A3012 RMK T01800150 IEM_DS3505
ZGSZ,2007-12-16 00:00,ZGSZ 160000Z AUTO 11006KT 3SM 19/13 A3012 RMK SLP209 T01880134 52017 IEM_DS3505
ZGSZ,2007-12-16 01:00,ZGSZ 160100Z AUTO 2SM 20/15 A3015 RMK T02000150 IEM_DS3505
ZGSZ,2007-12-16 02:00,ZGSZ 160200Z AUTO 13006KT 2 1/2SM 21/14 A3018 RMK T02100140 IEM_DS3505
ZGSZ,2007-12-16 03:00,ZGSZ 160300Z AUTO 09004KT 4SM 21/14 A3015 RMK SLP217 T02130135 52008 IEM_DS3505
ZGSZ,2007-12-16 04:00,ZGSZ 160400Z AUTO 22006KT 2 1/2SM 23/15 A3012 RMK T02300150 IEM_DS3505
ZGSZ,2007-12-16 05:00,ZGSZ 160500Z AUTO 24006KT 3SM 23/16 A3009 RMK T02300160 IEM_DS3505
ZGSZ,2007-12-16 06:00,ZGSZ 160600Z AUTO 14006KT 5SM 24/13 A3006 RMK SLP183 T02350131 57033 IEM_DS3505
ZGSZ,2007-12-16 07:00,ZGSZ 160700Z AUTO 20008KT 3SM 22/16 A3006 RMK T02200160 IEM_DS3505
ZGSZ,2007-12-16 08:00,ZGSZ 160800Z AUTO 19008KT 3SM 22/16 A3003 RMK T02200160 IEM_DS3505
ZGSZ,2007-12-16 09:00,ZGSZ 160900Z AUTO 07006KT 5SM 22/14 A3003 RMK SLP176 T02200139 57007 IEM_DS3505
ZGSZ,2007-12-16 10:00,ZGSZ 161000Z AUTO 20006KT 2 1/2SM 20/17 A3006 RMK T02000170 IEM_DS3505
ZGSZ,2007-12-16 11:00,ZGSZ 161100Z AUTO 20006KT 2 1/2SM 21/17 A3006 RMK T02100170 IEM_DS3505
ZGSZ,2007-12-16 12:00,ZGSZ 161200Z AUTO 09004KT 4SM 20/14 A3009 RMK SLP196 T01990145 52019 IEM_DS3505
ZGSZ,2007-12-16 13:00,ZGSZ 161300Z AUTO 19006KT 2SM 21/17 A3012 RMK T02100170 IEM_DS3505
ZGSZ,2007-12-16 14:00,ZGSZ 161400Z AUTO 17004KT 2SM 21/16 A3012 RMK T02100160 IEM_DS3505
ZGSZ,2007-12-16 15:00,ZGSZ 161500Z AUTO 09006KT 4SM 19/14 A3009 RMK SLP199 T01920142 52003 IEM_DS3505
ZGSZ,2007-12-16 16:00,ZGSZ 161600Z AUTO 16004KT 2 1/2SM 20/15 A3009 RMK T02000150 IEM_DS3505
ZGSZ,2007-12-16 17:00,ZGSZ 161700Z AUTO 11004KT 2 1/2SM 21/15 A3009 RMK T02100150 IEM_DS3505
ZGSZ,2007-12-16 18:00,ZGSZ 161800Z AUTO 09002KT 4SM 19/14 A3006 RMK SLP188 T01900145 57010 IEM_DS3505
ZGSZ,2007-12-16 19:00,ZGSZ 161900Z AUTO 12002KT 2 1/2SM 20/15 A3006 RMK T02000150 IEM_DS3505
ZGSZ,2007-12-16 20:00,ZGSZ 162000Z AUTO 00000KT 2 1/2SM 20/15 A3006 RMK T02000150 IEM_DS3505
ZGSZ,2007-12-16 21:00,ZGSZ 162100Z AUTO 11002KT 3SM 19/15 A3006 RMK SLP183 T01920149 57005 IEM_DS3505
ZGSZ,2007-12-16 22:00,ZGSZ 162200Z AUTO 06002KT 2SM 20/16 A3006 RMK T02000160 IEM_DS3505
ZGSZ,2007-12-16 23:00,ZGSZ 162300Z AUTO 00000KT 1 1/2SM 20/16 A3009 RMK T02000160 IEM_DS3505
ZGSZ,2007-12-17 00:00,ZGSZ 170000Z AUTO 02002KT 3SM 20/15 A3012 RMK SLP200 T01980152 52016 IEM_DS3505
ZGSZ,2007-12-17 01:00,ZGSZ 170100Z AUTO 05004KT 2SM 22/16 A3012 RMK T02200160 IEM_DS3505
ZGSZ,2007-12-17 02:00,ZGSZ 170200Z AUTO 36004KT 2SM 23/16 A3012 RMK T02300160 IEM_DS3505
ZGSZ,2007-12-17 03:00,ZGSZ 170300Z AUTO 04006KT 2 1/2SM 22/14 A3012 RMK SLP204 T02200141 52004 IEM_DS3505
ZGSZ,2007-12-17 04:00,ZGSZ 170400Z AUTO 2SM 25/16 A3009 RMK T02500160 IEM_DS3505
ZGSZ,2007-12-17 05:00,ZGSZ 170500Z AUTO 25006KT 1SM 24/18 A3006 RMK T02400180 IEM_DS3505
ZGSZ,2007-12-17 06:00,ZGSZ 170600Z AUTO 04006KT 4SM 24/15 A3003 RMK SLP171 T02430150 57032 IEM_DS3505
ZGSZ,2007-12-17 07:00,ZGSZ 170700Z AUTO 24004KT 2SM 24/17 A3000 RMK T02400170 IEM_DS3505
ZGSZ,2007-12-17 08:00,ZGSZ 170800Z AUTO 23004KT 2 1/2SM 24/17 A3000 RMK T02400170 IEM_DS3505
ZGSZ,2007-12-17 09:00,ZGSZ 170900Z AUTO 07006KT 6SM 24/13 A3000 RMK SLP167 T02380134 57004 IEM_DS3505
ZGSZ,2007-12-17 10:00,ZGSZ 171000Z AUTO 17002KT 1 1/2SM 22/17 A3003 RMK T02200170 IEM_DS3505
ZGSZ,2007-12-17 11:00,ZGSZ 171100Z AUTO 00000KT 2 1/2SM 21/18 A3003 RMK T02100180 IEM_DS3505
ZGSZ,2007-12-17 12:00,ZGSZ 171200Z AUTO 02004KT 2 1/2SM 22/14 A3006 RMK SLP180 T02200139 52013 IEM_DS3505
ZGSZ,2007-12-17 13:00,ZGSZ 171300Z AUTO 00000KT 1 1/2SM 21/18 A3006 RMK T02100180 IEM_DS3505
ZGSZ,2007-12-17 14:00,ZGSZ 171400Z AUTO 00000KT 1 1/4SM 20/18 A3009 RMK T02000180 IEM_DS3505
ZGSZ,2007-12-17 15:00,ZGSZ 171500Z AUTO 04002KT 2 1/2SM 21/14 A3009 RMK SLP190 T02090145 52010 IEM_DS3505
ZGSZ,2007-12-17 16:00,ZGSZ 171600Z AUTO 00000KT 2SM 21/18 A3006 RMK T02100180 IEM_DS3505
ZGSZ,2007-12-17 17:00,ZGSZ 171700Z AUTO 16002KT 2SM 20/18 A3006 RMK T02000180 IEM_DS3505
ZGSZ,2007-12-17 18:00,ZGSZ 171800Z AUTO 04002KT 2 1/2SM 20/15 A3003 RMK SLP179 T01990149 57011 IEM_DS3505
ZGSZ,2007-12-17 19:00,ZGSZ 171900Z AUTO 00000KT 2SM 19/15 A3003 RMK T01900150 IEM_DS3505
ZGSZ,2007-12-17 20:00,ZGSZ 172000Z AUTO 33004KT 1 1/2SM 19/16 A3003 RMK T01900160 IEM_DS3505
ZGSZ,2007-12-17 21:00,ZGSZ 172100Z AUTO 20002KT 4SM 19/15 A3003 RMK SLP174 T01930146 57005 IEM_DS3505
ZGSZ,2007-12-17 22:00,ZGSZ 172200Z AUTO 36004KT 1 1/2SM 20/16 A3006 RMK T02000160 IEM_DS3505
ZGSZ,2007-12-17 23:00,ZGSZ 172300Z AUTO 02004KT 1 1/2SM 20/17 A3006 RMK T02000170 IEM_DS3505
ZGSZ,2007-12-18 00:00,ZGSZ 180000Z AUTO 29002KT 3SM 20/16 A3009 RMK SLP189 T01980159 52015 IEM_DS3505
ZGSZ,2007-12-18 01:00,ZGSZ 180100Z AUTO 00000KT 2SM 23/17 A3009 RMK T02300170 IEM_DS3505
ZGSZ,2007-12-18 02:00,ZGSZ 180200Z AUTO 01004KT 2SM 24/16 A3012 RMK T02400160 IEM_DS3505
ZGSZ,2007-12-18 03:00,ZGSZ 180300Z AUTO 07004KT 1 1/2SM 24/16 A3009 RMK SLP195 T02350161 52006 IEM_DS3505
ZGSZ,2007-12-18 04:00,ZGSZ 180400Z AUTO 14006KT 2SM 26/17 A3006 RMK T02600170 IEM_DS3505
ZGSZ,2007-12-18 05:00,ZGSZ 180500Z AUTO 20006KT 2SM 26/18 A3003 RMK T02600180 IEM_DS3505
ZGSZ,2007-12-18 06:00,ZGSZ 180600Z AUTO 07006KT 3SM 26/16 A3000 RMK SLP163 T02560165 57032 IEM_DS3505
ZGSZ,2007-12-18 07:00,ZGSZ 180700Z AUTO 24004KT 1 1/2SM 26/18 A2997 RMK T02600180 IEM_DS3505
ZGSZ,2007-12-18 08:00,ZGSZ 180800Z AUTO 19006KT 2SM 23/19 A2997 RMK T02300190 IEM_DS3505
ZGSZ,2007-12-18 09:00,ZGSZ 180900Z AUTO 07004KT 3SM 24/17 A3000 RMK SLP163 T02380168 54000 IEM_DS3505
ZGSZ,2007-12-18 10:00,ZGSZ 181000Z AUTO 21006KT 2SM 22/18 A3000 RMK T02200180 IEM_DS3505
ZGSZ,2007-12-18 11:00,ZGSZ 181100Z AUTO 16006KT 1 1/4SM 22/18 A3003 RMK T02200180 IEM_DS3505
ZGSZ,2007-12-18 12:00,ZGSZ 181200Z AUTO 07006KT 3SM 20/16 A3003 RMK SLP178 T02050163 52015 IEM_DS3505
ZGSZ,2007-12-18 13:00,ZGSZ 181300Z AUTO 20006KT 1 1/2SM 21/16 A3003 RMK T02100160 IEM_DS3505
ZGSZ,2007-12-18 14:00,ZGSZ 181400Z AUTO 23006KT 1 1/2SM 21/15 A3006 RMK T02100150 IEM_DS3505
ZGSZ,2007-12-18 15:00,ZGSZ 181500Z AUTO 04004KT 3SM 20/16 A3006 RMK SLP180 T01950158 52002 IEM_DS3505
ZGSZ,2007-12-18 16:00,ZGSZ 181600Z AUTO 30006KT 1 1/2SM 20/14 A3006 RMK T02000140 IEM_DS3505
ZGSZ,2007-12-18 17:00,ZGSZ 181700Z AUTO 31004KT 1 1/2SM 20/14 A3006 RMK T02000140 IEM_DS3505
ZGSZ,2007-12-18 18:00,ZGSZ 181800Z AUTO 04004KT 3SM 20/16 A3006 RMK SLP180 T01950158 54000 IEM_DS3505
ZGSZ,2007-12-18 19:00,ZGSZ 181900Z AUTO 31008KT 1 1/2SM 20/14 A3006 RMK T02000140 IEM_DS3505
ZGSZ,2007-12-18 20:00,ZGSZ 182000Z AUTO 30004KT 1 1/2SM 20/14 A3003 RMK T02000140 IEM_DS3505
ZGSZ,2007-12-18 21:00,ZGSZ 182100Z AUTO 11002KT 1SM 18/17 A3006 RMK 70000 SLP179 T01850167 57001 IEM_DS3505
ZGSZ,2007-12-18 22:00,ZGSZ 182200Z AUTO 03004KT 1 1/2SM 20/14 A3006 RMK T02000140 IEM_DS3505
ZGSZ,2007-12-18 23:00,ZGSZ 182300Z AUTO 32004KT 1 1/2SM 20/14 A3006 RMK T02000140 IEM_DS3505
ZGSZ,2007-12-19 00:00,ZGSZ 190000Z AUTO 25002KT 1SM 19/15 A3009 RMK 60000 70000 SLP193 T01870146 52013 IEM_DS3505
ZGSZ,2007-12-19 01:00,ZGSZ 190100Z AUTO 01010KT 2SM 20/12 A3012 RMK T02000120 IEM_DS3505
ZGSZ,2007-12-19 02:00,ZGSZ 190200Z AUTO 03008KT 2SM 19/11 A3012 RMK T01900110 IEM_DS3505
ZGSZ,2007-12-19 03:00,ZGSZ 190300Z AUTO 04004KT 1SM 18/14 A3012 RMK SLP202 T01820137 52009 IEM_DS3505
ZGSZ,2007-12-19 04:00,ZGSZ 190400Z AUTO 02008KT 2SM 21/12 A3009 RMK T02100120 IEM_DS3505
ZGSZ,2007-12-19 05:00,ZGSZ 190500Z AUTO 01008KT 2SM 21/11 A3006 RMK T02100110 IEM_DS3505
ZGSZ,2007-12-19 06:00,ZGSZ 190600Z AUTO 34004KT 1 1/2SM 19/13 A3003 RMK SLP169 T01910128 57033 IEM_DS3505
ZGSZ,2007-12-19 07:00,ZGSZ 190700Z AUTO 02008KT 2SM 21/11 A3000 RMK T02100110 IEM_DS3505
ZGSZ,2007-12-19 08:00,ZGSZ 190800Z AUTO 34008KT 2SM 20/11 A3000 RMK T02000110 IEM_DS3505
ZGSZ,2007-12-19 09:00,ZGSZ 190900Z AUTO 02006KT 1 1/2SM 20/12 A3000 RMK SLP166 T01960119 57003 IEM_DS3505
ZGSZ,2007-12-19 10:00,ZGSZ 191000Z AUTO 02006KT 2SM 20/10 A3003 RMK T02000100 IEM_DS3505
ZGSZ,2007-12-19 11:00,ZGSZ 191100Z AUTO 04006KT 2SM 19/10 A3003 RMK T01900100 IEM_DS3505
ZGSZ,2007-12-19 12:00,ZGSZ 191200Z AUTO 34004KT 2SM 18/11 A3003 RMK SLP177 T01830111 52011 IEM_DS3505
ZGSZ,2007-12-19 13:00,ZGSZ 191300Z AUTO 02004KT 2SM 19/11 A3006 RMK T01900110 IEM_DS3505
ZGSZ,2007-12-19 14:00,ZGSZ 191400Z AUTO 04004KT 2SM 19/11 A3006 RMK T01900110 IEM_DS3505
ZGSZ,2007-12-19 15:00,ZGSZ 191500Z AUTO 02004KT 2SM 19/11 A3006 RMK SLP181 T01860109 52004 IEM_DS3505
ZGSZ,2007-12-19 16:00,ZGSZ 191600Z AUTO 05004KT 2SM 19/11 A3006 RMK T01900110 IEM_DS3505
ZGSZ,2007-12-19 17:00,ZGSZ 191700Z AUTO 01004KT 1 1/2SM 19/11 A3003 RMK T01900110 IEM_DS3505
ZGSZ,2007-12-19 18:00,ZGSZ 191800Z AUTO 02002KT 2SM 18/11 A3006 RMK SLP179 T01850113 57002 IEM_DS3505
ZGSZ,2007-12-19 19:00,ZGSZ 191900Z AUTO 02006KT 1 1/2SM 18/10 A3006 RMK T01800100 IEM_DS3505
ZGSZ,2007-12-19 20:00,ZGSZ 192000Z AUTO 03004KT 2SM 18/11 A3006 RMK T01800110 IEM_DS3505
ZGSZ,2007-12-19 21:00,ZGSZ 192100Z AUTO 07006KT 2SM 18/12 A3006 RMK 70000 SLP182 T01810117 52003 IEM_DS3505
ZGSZ,2007-12-19 22:00,ZGSZ 192200Z AUTO 06004KT 2 1/2SM 18/11 A3006 RMK T01800110 IEM_DS3505
ZGSZ,2007-12-19 23:00,ZGSZ 192300Z AUTO 07006KT 2 1/2SM 18/11 A3009 RMK T01800110 IEM_DS3505
ZGSZ,2007-12-20 00:00,ZGSZ 200000Z AUTO 04006KT 2 1/2SM 18/15 A3012 RMK SLP197 T01850146 52015 IEM_DS3505
ZGSZ,2007-12-20 01:00,ZGSZ 200100Z AUTO 06006KT 2SM 19/13 A3012 RMK T01900130 IEM_DS3505
ZGSZ,2007-12-20 02:00,ZGSZ 200200Z AUTO 09006KT 2SM 20/14 A3012 RMK T02000140 IEM_DS3505
ZGSZ,2007-12-20 03:00,ZGSZ 200300Z AUTO 07006KT 3SM 20/15 A3009 RMK SLP193 T01990147 57004 IEM_DS3505
ZGSZ,2007-12-20 04:00,ZGSZ 200400Z AUTO 09006KT 2SM 22/14 A3006 RMK T02200140 IEM_DS3505
ZGSZ,2007-12-20 05:00,ZGSZ 200500Z AUTO 2 1/2SM 23/14 A3003 RMK T02300140 IEM_DS3505
ZGSZ,2007-12-20 06:00,ZGSZ 200600Z AUTO 02002KT 4SM 23/14 A3000 RMK SLP159 T02320145 57033 IEM_DS3505
ZGSZ,2007-12-20 07:00,ZGSZ 200700Z AUTO 28006KT 2SM 22/16 A2997 RMK T02200160 IEM_DS3505
ZGSZ,2007-12-20 08:00,ZGSZ 200800Z AUTO 25006KT 2SM 22/15 A2997 RMK T02200150 IEM_DS3505
ZGSZ,2007-12-20 09:00,ZGSZ 200900Z AUTO 09004KT 5SM 22/14 A3000 RMK SLP159 T02200141 54000 IEM_DS3505
ZGSZ,2007-12-20 10:00,ZGSZ 201000Z AUTO 22004KT 2SM 21/16 A3000 RMK T02100160 IEM_DS3505
ZGSZ,2007-12-20 11:00,ZGSZ 201100Z AUTO 3SM 21/16 A3000 RMK T02100160 IEM_DS3505
ZGSZ,2007-12-20 12:00,ZGSZ 201200Z AUTO 09004KT 6SM 20/14 A3003 RMK SLP174 T01970136 52014 IEM_DS3505
ZGSZ,2007-12-20 13:00,ZGSZ 201300Z AUTO 11006KT 3SM 21/15 A3003 RMK T02100150 IEM_DS3505
ZGSZ,2007-12-20 14:00,ZGSZ 201400Z AUTO 12010KT 3SM 21/14 A3003 RMK T02100140 IEM_DS3505
ZGSZ,2007-12-20 15:00,ZGSZ 201500Z AUTO 09006KT 6SM 20/15 A3003 RMK SLP180 T01980150 52006 IEM_DS3505
ZGSZ,2007-12-20 16:00,ZGSZ 201600Z AUTO 11006KT 4SM 21/16 A3006 RMK T02100160 IEM_DS3505
ZGSZ,2007-12-20 17:00,ZGSZ 201700Z AUTO 11006KT 4SM 21/15 A3003 RMK T02100150 IEM_DS3505
ZGSZ,2007-12-20 18:00,ZGSZ 201800Z AUTO 07008KT 7SM 20/14 A3003 RMK SLP173 T01970141 57006 IEM_DS3505
ZGSZ,2007-12-20 19:00,ZGSZ 201900Z AUTO 12006KT 4SM 21/15 A3000 RMK T02100150 IEM_DS3505
ZGSZ,2007-12-20 20:00,ZGSZ 202000Z AUTO 12006KT 4SM 21/15 A3000 RMK T02100150 IEM_DS3505
ZGSZ,2007-12-20 21:00,ZGSZ 202100Z AUTO 07006KT 9SM 19/14 A3000 RMK SLP164 T01930143 57009 IEM_DS3505
ZGSZ,2007-12-20 22:00,ZGSZ 202200Z AUTO 12006KT 4SM 20/15 A3000 RMK T02000150 IEM_DS3505
ZGSZ,2007-12-20 23:00,ZGSZ 202300Z AUTO 07004KT 4SM 20/15 A3003 RMK T02000150 IEM_DS3505
ZGSZ,2007-12-21 00:00,ZGSZ 210000Z AUTO 07004KT 11SM 20/15 A3003 RMK SLP173 T01990147 52008 IEM_DS3505
ZGSZ,2007-12-21 01:00,ZGSZ 210100Z AUTO 02004KT 3SM 22/16 A3003 RMK T02200160 IEM_DS3505
ZGSZ,2007-12-21 02:00,ZGSZ 210200Z AUTO 4SM 24/16 A3003 RMK T02400160 IEM_DS3505
ZGSZ,2007-12-21 03:00,ZGSZ 210300Z AUTO 07004KT 14SM 24/15 A3003 RMK SLP173 T02380150 52001 IEM_DS3505
ZGSZ,2007-12-21 04:00,ZGSZ 210400Z AUTO 27008KT 2 1/2SM 24/17 A3000 RMK T02400170 IEM_DS3505
ZGSZ,2007-12-21 05:00,ZGSZ 210500Z AUTO 30006KT 3SM 24/16 A2997 RMK T02400160 IEM_DS3505
ZGSZ,2007-12-21 06:00,ZGSZ 210600Z AUTO 20006KT 14SM 27/17 A2994 RMK SLP139 T02690168 57033 IEM_DS3505
ZGSZ,2007-12-21 07:00,ZGSZ 210700Z AUTO 21008KT 5SM 25/17 A2991 RMK T02500170 IEM_DS3505
ZGSZ,2007-12-21 08:00,ZGSZ 210800Z AUTO 18008KT 3SM 24/19 A2991 RMK T02400190 IEM_DS3505
ZGSZ,2007-12-21 09:00,ZGSZ 210900Z AUTO 22004KT 9SM 24/17 A2991 RMK SLP135 T02440172 57005 IEM_DS3505
ZGSZ,2007-12-21 10:00,ZGSZ 211000Z AUTO 19010KT 3SM 22/19 A2991 RMK T02200190 IEM_DS3505
ZGSZ,2007-12-21 11:00,ZGSZ 211100Z AUTO 19010KT 2 1/2SM 21/19 A2994 RMK T02100190 IEM_DS3505
ZGSZ,2007-12-21 12:00,ZGSZ 211200Z AUTO 07004KT 4SM 21/17 A2994 RMK SLP149 T02110173 52014 IEM_DS3505
ZGSZ,2007-12-21 13:00,ZGSZ 211300Z AUTO 16006KT 2SM 21/19 A2997 RMK T02100190 IEM_DS3505
ZGSZ,2007-12-21 14:00,ZGSZ 211400Z AUTO 15006KT 2SM 21/19 A2997 RMK T02100190 IEM_DS3505
ZGSZ,2007-12-21 15:00,ZGSZ 211500Z AUTO 07004KT 4SM 20/18 A2997 RMK SLP156 T02050177 52007 IEM_DS3505
ZGSZ,2007-12-21 16:00,ZGSZ 211600Z AUTO 12006KT 2 1/2SM 21/18 A2997 RMK T02100180 IEM_DS3505
ZGSZ,2007-12-21 17:00,ZGSZ 211700Z AUTO 2SM 21/18 A2997 RMK T02100180 IEM_DS3505
ZGSZ,2007-12-21 18:00,ZGSZ 211800Z AUTO 02004KT 3SM 20/17 A2997 RMK SLP149 T02010173 57006 IEM_DS3505
ZGSZ,2007-12-21 19:00,ZGSZ 211900Z AUTO 36004KT 3SM 22/19 A2997 RMK T02200190 IEM_DS3505
ZGSZ,2007-12-21 20:00,ZGSZ 212000Z AUTO 03004KT 2 1/2SM 21/18 A2994 RMK T02100180 IEM_DS3505
ZGSZ,2007-12-21 21:00,ZGSZ 212100Z AUTO 04002KT 4SM 20/17 A2994 RMK SLP144 T02050173 57006 IEM_DS3505
ZGSZ,2007-12-21 22:00,ZGSZ 212200Z AUTO 02002KT 2 1/2SM 21/18 A2994 RMK T02100180 IEM_DS3505
ZGSZ,2007-12-21 23:00,ZGSZ 212300Z AUTO 03004KT 2 1/2SM 21/18 A2997 RMK T02100180 IEM_DS3505
ZGSZ,2007-12-22 00:00,ZGSZ 220000Z AUTO 04004KT 4SM 21/17 A2997 RMK SLP154 T02100172 52010 IEM_DS3505
ZGSZ,2007-12-22 01:00,ZGSZ 220100Z AUTO 03004KT 4SM 23/17 A3000 RMK T02300170 IEM_DS3505
ZGSZ,2007-12-22 02:00,ZGSZ 220200Z AUTO 05006KT 4SM 24/17 A3000 RMK T02400170 IEM_DS3505
ZGSZ,2007-12-22 03:00,ZGSZ 220300Z AUTO 04004KT 4SM 25/17 A2997 RMK SLP154 T02470169 54000 IEM_DS3505
ZGSZ,2007-12-22 04:00,ZGSZ 220400Z AUTO 22004KT 3SM 24/18 A2994 RMK T02400180 IEM_DS3505
ZGSZ,2007-12-22 05:00,ZGSZ 220500Z AUTO 24006KT 2SM 24/18 A2991 RMK T02400180 IEM_DS3505
ZGSZ,2007-12-22 06:00,ZGSZ 220600Z AUTO 20002KT 4SM 25/16 A2991 RMK SLP129 T02540160 57024 IEM_DS3505
ZGSZ,2007-12-22 07:00,ZGSZ 220700Z AUTO 21004KT 2SM 24/19 A2988 RMK T02400190 IEM_DS3505
ZGSZ,2007-12-22 08:00,ZGSZ 220800Z AUTO 19006KT 1 1/2SM 23/20 A2988 RMK T02300200 IEM_DS3505
ZGSZ,2007-12-22 09:00,ZGSZ 220900Z AUTO 16002KT 3SM 23/18 A2988 RMK SLP128 T02300181 57002 IEM_DS3505
ZGSZ,2007-12-22 10:00,ZGSZ 221000Z AUTO 15002KT 2SM 22/19 A2991 RMK T02200190 IEM_DS3505
ZGSZ,2007-12-22 11:00,ZGSZ 221100Z AUTO 18006KT 2SM 22/20 A2991 RMK T02200200 IEM_DS3505
ZGSZ,2007-12-22 12:00,ZGSZ 221200Z AUTO 09004KT 4SM 22/18 A2994 RMK SLP138 T02210175 52010 IEM_DS3505
ZGSZ,2007-12-22 13:00,ZGSZ 221300Z AUTO 30002KT 1 1/2SM 22/19 A2994 RMK T02200190 IEM_DS3505
ZGSZ,2007-12-22 14:00,ZGSZ 221400Z AUTO 26004KT 1 1/2SM 21/19 A2994 RMK T02100190 IEM_DS3505
ZGSZ,2007-12-22 15:00,ZGSZ 221500Z AUTO 07006KT 5SM 21/17 A2994 RMK SLP149 T02110173 52011 IEM_DS3505
ZGSZ,2007-12-22 16:00,ZGSZ 221600Z AUTO 28008KT 1 1/2SM 21/18 A2997 RMK T02100180 IEM_DS3505
ZGSZ,2007-12-22 17:00,ZGSZ 221700Z AUTO 28010KT 2SM 20/17 A2997 RMK T02000170 IEM_DS3505
ZGSZ,2007-12-22 18:00,ZGSZ 221800Z AUTO 07002KT 5SM 21/18 A2997 RMK SLP153 T02070175 52004 IEM_DS3505
ZGSZ,2007-12-22 19:00,ZGSZ 221900Z AUTO 30010KT 2 1/2SM 19/16 A2997 RMK T01900160 IEM_DS3505
ZGSZ,2007-12-22 20:00,ZGSZ 222000Z AUTO 31010KT 2 1/2SM 19/16 A2994 RMK T01900160 IEM_DS3505
ZGSZ,2007-12-22 21:00,ZGSZ 222100Z AUTO 32002KT 1 1/4SM 19/17 A2994 RMK 70000 SLP143 T01880166 57010 IEM_DS3505
ZGSZ,2007-12-22 22:00,ZGSZ 222200Z AUTO 01008KT 3SM 18/15 A2994 RMK T01800150 IEM_DS3505
ZGSZ,2007-12-22 23:00,ZGSZ 222300Z AUTO 02008KT 3SM 18/14 A2997 RMK T01800140 IEM_DS3505
ZGSZ,2007-12-23 00:00,ZGSZ 230000Z AUTO 02004KT 1SM 18/17 A2997 RMK 60001 70001 SLP153 T01820169 52010 IEM_DS3505
ZGSZ,2007-12-23 01:00,ZGSZ 230100Z AUTO 01008KT 2SM 18/15 A3000 RMK T01800150 IEM_DS3505
ZGSZ,2007-12-23 02:00,ZGSZ 230200Z AUTO 01010KT 2 1/2SM 18/15 A3000 RMK T01800150 IEM_DS3505
ZGSZ,2007-12-23 03:00,ZGSZ 230300Z AUTO 02006KT 4SM 19/16 A3000 RMK SLP159 T01890156 52006 IEM_DS3505
ZGSZ,2007-12-23 04:00,ZGSZ 230400Z AUTO 35006KT 3SM 19/14 A3000 RMK T01900140 IEM_DS3505
ZGSZ,2007-12-23 05:00,ZGSZ 230500Z AUTO 35008KT 3SM 18/13 A2997 RMK T01800130 IEM_DS3505
ZGSZ,2007-12-23 06:00,ZGSZ 230600Z AUTO 32004KT 2 1/2SM 19/15 A2994 RMK 60000 SLP140 T01860151 57019 IEM_DS3505
ZGSZ,2007-12-23 07:00,ZGSZ 230700Z AUTO 34006KT 3SM 19/14 A2991 RMK T01900140 IEM_DS3505
ZGSZ,2007-12-23 08:00,ZGSZ 230800Z AUTO 36006KT 2SM 19/14 A2991 RMK T01900140 IEM_DS3505
ZGSZ,2007-12-23 09:00,ZGSZ 230900Z AUTO 36004KT 2SM 18/15 A2994 RMK SLP140 T01840151 57001 IEM_DS3505
ZGSZ,2007-12-23 10:00,ZGSZ 231000Z AUTO 03006KT 2 1/2SM 18/13 A2994 RMK T01800130 IEM_DS3505
ZGSZ,2007-12-23 11:00,ZGSZ 231100Z AUTO 01008KT 2SM 18/13 A2997 RMK T01800130 IEM_DS3505
ZGSZ,2007-12-23 12:00,ZGSZ 231200Z AUTO 02006KT 1 1/2SM 17/15 A2997 RMK 60000 SLP151 T01740147 52011 IEM_DS3505
ZGSZ,2007-12-23 13:00,ZGSZ 231300Z AUTO 01008KT 2 1/2SM 17/14 A2997 RMK T01700140 IEM_DS3505
ZGSZ,2007-12-23 14:00,ZGSZ 231400Z AUTO 35008KT 2SM 17/14 A3000 RMK T01700140 IEM_DS3505
ZGSZ,2007-12-23 15:00,ZGSZ 231500Z AUTO 36010KT 1 1/4SM 16/13 A3000 RMK T01600130 IEM_DS3505
ZGSZ,2007-12-23 16:00,ZGSZ 231600Z AUTO 36008KT 4SM 16/13 A3000 RMK T01600130 IEM_DS3505
ZGSZ,2007-12-23 17:00,ZGSZ 231700Z AUTO 01010KT 4SM 15/13 A3000 RMK T01500130 IEM_DS3505
ZGSZ,2007-12-23 18:00,ZGSZ 231800Z AUTO 04004KT 4SM 15/13 A3000 RMK 60020 SLP161 T01490131 57001 IEM_DS3505
ZGSZ,2007-12-23 19:00,ZGSZ 231900Z AUTO 34006KT 3SM 15/13 A3000 RMK T01500130 IEM_DS3505
ZGSZ,2007-12-23 20:00,ZGSZ 232000Z AUTO 01006KT 2SM 15/13 A3000 RMK T01500130 IEM_DS3505
ZGSZ,2007-12-23 21:00,ZGSZ 232100Z AUTO 27002KT 2 1/2SM 15/14 A3000 RMK 70041 SLP157 T01520139 57004 IEM_DS3505
ZGSZ,2007-12-23 22:00,ZGSZ 232200Z AUTO 33010KT 4SM 15/12 A3000 RMK T01500120 IEM_DS3505
ZGSZ,2007-12-23 23:00,ZGSZ 232300Z AUTO 01008KT 5SM 15/12 A3003 RMK T01500120 IEM_DS3505
ZGSZ,2007-12-24 00:00,ZGSZ 240000Z AUTO 09004KT 6SM 15/12 A3003 RMK 60020 70041 SLP174 T01470120 52016 IEM_DS3505
ZGSZ,2007-12-24 01:00,ZGSZ 240100Z AUTO 01006KT 7SM 17/12 A3006 RMK T01700120 IEM_DS3505
ZGSZ,2007-12-24 02:00,ZGSZ 240200Z AUTO 36006KT 7SM 17/12 A3006 RMK T01700120 IEM_DS3505
ZGSZ,2007-12-24 03:00,ZGSZ 240300Z AUTO 02004KT 4SM 17/13 A3006 RMK SLP177 T01720133 52004 IEM_DS3505
ZGSZ,2007-12-24 04:00,ZGSZ 240400Z AUTO 36010KT 4SM 19/12 A3003 RMK T01900120 IEM_DS3505
ZGSZ,2007-12-24 05:00,ZGSZ 240500Z AUTO 01010KT 2 1/2SM 19/12 A3000 RMK T01900120 IEM_DS3505
ZGSZ,2007-12-24 06:00,ZGSZ 240600Z AUTO 02010KT 5SM 18/12 A3000 RMK SLP155 T01750124 57022 IEM_DS3505
ZGSZ,2007-12-24 07:00,ZGSZ 240700Z AUTO 02010KT 3SM 19/12 A2997 RMK T01900120 IEM_DS3505
ZGSZ,2007-12-24 08:00,ZGSZ 240800Z AUTO 03008KT 7SM 19/12 A2997 RMK T01900120 IEM_DS3505
ZGSZ,2007-12-24 09:00,ZGSZ 240900Z AUTO 36004KT 6SM 18/12 A2997 RMK SLP158 T01750122 52003 IEM_DS3505
ZGSZ,2007-12-24 10:00,ZGSZ 241000Z AUTO 03008KT 7SM 18/11 A3000 RMK T01800110 IEM_DS3505
ZGSZ,2007-12-24 11:00,ZGSZ 241100Z AUTO 02006KT 6SM 17/11 A3000 RMK T01700110 IEM_DS3505
ZGSZ,2007-12-24 12:00,ZGSZ 241200Z AUTO 02006KT 6SM 17/11 A3000 RMK SLP168 T01670112 52009 IEM_DS3505
ZGSZ,2007-12-24 13:00,ZGSZ 241300Z AUTO 03008KT 6SM 17/11 A3003 RMK T01700110 IEM_DS3505
ZGSZ,2007-12-24 14:00,ZGSZ 241400Z AUTO 03006KT 6SM 17/11 A3003 RMK T01700110 IEM_DS3505
ZGSZ,2007-12-24 15:00,ZGSZ 241500Z AUTO 02006KT 7SM 15/10 A3006 RMK SLP179 T01540104 52012 IEM_DS3505
ZGSZ,2007-12-24 16:00,ZGSZ 241600Z AUTO 02008KT 7SM 16/10 A3006 RMK T01600100 IEM_DS3505
ZGSZ,2007-12-24 17:00,ZGSZ 241700Z AUTO 02008KT 7SM 15/10 A3006 RMK T01500100 IEM_DS3505
ZGSZ,2007-12-24 18:00,ZGSZ 241800Z AUTO 04006KT 6SM 15/10 A3006 RMK SLP182 T01530103 52003 IEM_DS3505
ZGSZ,2007-12-24 19:00,ZGSZ 241900Z AUTO 03004KT 7SM 16/09 A3006 RMK T01600090 IEM_DS3505
ZGSZ,2007-12-24 20:00,ZGSZ 242000Z AUTO 01010KT 7SM 15/09 A3006 RMK T01500090 IEM_DS3505
ZGSZ,2007-12-24 21:00,ZGSZ 242100Z AUTO 02008KT 8SM 15/09 A3006 RMK 70002 SLP178 T01510092 57004 IEM_DS3505
ZGSZ,2007-12-24 22:00,ZGSZ 242200Z AUTO 03008KT 7SM 15/09 A3006 RMK T01500090 IEM_DS3505
ZGSZ,2007-12-24 23:00,ZGSZ 242300Z AUTO 04006KT 7SM 15/09 A3006 RMK T01500090 IEM_DS3505
ZGSZ,2007-12-25 00:00,ZGSZ 250000Z AUTO 04008KT 9SM 15/10 A3009 RMK SLP189 T01510095 52010 IEM_DS3505
ZGSZ,2007-12-25 01:00,ZGSZ 250100Z AUTO 06006KT 7SM 16/09 A3009 RMK T01600090 IEM_DS3505
ZGSZ,2007-12-25 02:00,ZGSZ 250200Z AUTO 02010KT 7SM 16/09 A3012 RMK T01600090 IEM_DS3505
ZGSZ,2007-12-25 03:00,ZGSZ 250300Z AUTO 04006KT 7SM 16/10 A3012 RMK SLP198 T01630099 52009 IEM_DS3505
ZGSZ,2007-12-25 04:00,ZGSZ 250400Z AUTO 04008KT 4SM 17/09 A3009 RMK T01700090 IEM_DS3505
ZGSZ,2007-12-25 05:00,ZGSZ 250500Z AUTO 02008KT 4SM 18/10 A3006 RMK T01800100 IEM_DS3505
ZGSZ,2007-12-25 06:00,ZGSZ 250600Z AUTO 02006KT 7SM 17/10 A3003 RMK SLP177 T01670099 57021 IEM_DS3505
ZGSZ,2007-12-25 07:00,ZGSZ 250700Z AUTO 36010KT 4SM 18/09 A3003 RMK T01800090 IEM_DS3505
ZGSZ,2007-12-25 08:00,ZGSZ 250800Z AUTO 03010KT 5SM 18/09 A3003 RMK T01800090 IEM_DS3505
ZGSZ,2007-12-25 09:00,ZGSZ 250900Z AUTO 02006KT 7SM 17/10 A3003 RMK SLP172 T01670099 57005 IEM_DS3505
ZGSZ,2007-12-25 10:00,ZGSZ 251000Z AUTO 06004KT 6SM 17/10 A3003 RMK T01700100 IEM_DS3505
ZGSZ,2007-12-25 11:00,ZGSZ 251100Z AUTO 01006KT 3SM 17/10 A3006 RMK T01700100 IEM_DS3505
ZGSZ,2007-12-25 12:00,ZGSZ 251200Z AUTO 02008KT 6SM 16/10 A3006 RMK SLP188 T01590098 52016 IEM_DS3505
ZGSZ,2007-12-25 13:00,ZGSZ 251300Z AUTO 03006KT 4SM 16/09 A3009 RMK T01600090 IEM_DS3505
ZGSZ,2007-12-25 14:00,ZGSZ 251400Z AUTO 01006KT 7SM 16/09 A3009 RMK T01600090 IEM_DS3505
ZGSZ,2007-12-25 15:00,ZGSZ 251500Z AUTO 07004KT 5SM 15/10 A3012 RMK SLP202 T01510095 52014 IEM_DS3505
ZGSZ,2007-12-25 16:00,ZGSZ 251600Z AUTO 03010KT 4SM 15/08 A3012 RMK T01500080 IEM_DS3505
ZGSZ,2007-12-25 17:00,ZGSZ 251700Z AUTO 03008KT 4SM 15/08 A3012 RMK T01500080 IEM_DS3505
ZGSZ,2007-12-25 18:00,ZGSZ 251800Z AUTO 02004KT 5SM 14/09 A3012 RMK SLP202 T01440086 54000 IEM_DS3505
ZGSZ,2007-12-25 19:00,ZGSZ 251900Z AUTO 03008KT 4SM 14/08 A3012 RMK T01400080 IEM_DS3505
ZGSZ,2007-12-25 20:00,ZGSZ 252000Z AUTO 35004KT 4SM 13/08 A3009 RMK T01300080 IEM_DS3505
ZGSZ,2007-12-25 21:00,ZGSZ 252100Z AUTO 02004KT 4SM 13/08 A3009 RMK SLP195 T01330084 57007 IEM_DS3505
ZGSZ,2007-12-25 22:00,ZGSZ 252200Z AUTO 02008KT 4SM 13/08 A3012 RMK T01300080 IEM_DS3505
ZGSZ,2007-12-25 23:00,ZGSZ 252300Z AUTO 05006KT 4SM 14/07 A3012 RMK T01400070 IEM_DS3505
ZGSZ,2007-12-26 00:00,ZGSZ 260000Z AUTO 36002KT 4SM 13/08 A3012 RMK SLP203 T01340083 52008 IEM_DS3505
ZGSZ,2007-12-26 01:00,ZGSZ 260100Z AUTO 06006KT 4SM 16/08 A3012 RMK T01600080 IEM_DS3505
ZGSZ,2007-12-26 02:00,ZGSZ 260200Z AUTO 04006KT 4SM 18/08 A3015 RMK T01800080 IEM_DS3505
ZGSZ,2007-12-26 03:00,ZGSZ 260300Z AUTO 04004KT 6SM 18/09 A3012 RMK SLP204 T01840087 52001 IEM_DS3505
ZGSZ,2007-12-26 04:00,ZGSZ 260400Z AUTO 24004KT 4SM 20/10 A3009 RMK T02000100 IEM_DS3505
ZGSZ,2007-12-26 05:00,ZGSZ 260500Z AUTO 29010KT 3SM 20/10 A3006 RMK T02000100 IEM_DS3505
ZGSZ,2007-12-26 06:00,ZGSZ 260600Z AUTO 04004KT 7SM 21/10 A3003 RMK SLP173 T02090098 57030 IEM_DS3505
ZGSZ,2007-12-26 07:00,ZGSZ 260700Z AUTO 29006KT 3SM 21/11 A3000 RMK T02100110 IEM_DS3505
ZGSZ,2007-12-26 08:00,ZGSZ 260800Z AUTO 29006KT 3SM 20/11 A3000 RMK T02000110 IEM_DS3505
ZGSZ,2007-12-26 09:00,ZGSZ 260900Z AUTO 18004KT 9SM 20/11 A3000 RMK SLP167 T02020109 57006 IEM_DS3505
ZGSZ,2007-12-26 10:00,ZGSZ 261000Z AUTO 00000KT 3SM 19/12 A3003 RMK T01900120 IEM_DS3505
ZGSZ,2007-12-26 11:00,ZGSZ 261100Z AUTO 00000KT 2 1/2SM 19/12 A3006 RMK T01900120 IEM_DS3505
ZGSZ,2007-12-26 12:00,ZGSZ 261200Z AUTO 09006KT 7SM 18/13 A3006 RMK SLP188 T01770126 52020 IEM_DS3505
ZGSZ,2007-12-26 13:00,ZGSZ 261300Z AUTO 10008KT 3SM 18/12 A3009 RMK T01800120 IEM_DS3505
ZGSZ,2007-12-26 14:00,ZGSZ 261400Z AUTO 10008KT 3SM 18/13 A3009 RMK T01800130 IEM_DS3505
ZGSZ,2007-12-26 15:00,ZGSZ 261500Z AUTO 07004KT 7SM 18/14 A3009 RMK SLP195 T01810136 52008 IEM_DS3505
ZGSZ,2007-12-26 16:00,ZGSZ 261600Z AUTO 10008KT 4SM 18/14 A3009 RMK T01800140 IEM_DS3505
ZGSZ,2007-12-26 17:00,ZGSZ 261700Z AUTO 10006KT 3SM 18/14 A3009 RMK T01800140 IEM_DS3505
ZGSZ,2007-12-26 18:00,ZGSZ 261800Z AUTO 07006KT 7SM 17/12 A3009 RMK SLP190 T01720125 57005 IEM_DS3505
ZGSZ,2007-12-26 19:00,ZGSZ 261900Z AUTO 01004KT 3SM 17/13 A3006 RMK T01700130 IEM_DS3505
ZGSZ,2007-12-26 20:00,ZGSZ 262000Z AUTO 03006KT 3SM 16/13 A3006 RMK T01600130 IEM_DS3505
ZGSZ,2007-12-26 21:00,ZGSZ 262100Z AUTO 04004KT 7SM 16/12 A3006 RMK SLP179 T01580125 57011 IEM_DS3505
ZGSZ,2007-12-26 22:00,ZGSZ 262200Z AUTO 04006KT 3SM 16/13 A3006 RMK T01600130 IEM_DS3505
ZGSZ,2007-12-26 23:00,ZGSZ 262300Z AUTO 2SM 15/13 A3006 RMK T01500130 IEM_DS3505
ZGSZ,2007-12-27 00:00,ZGSZ 270000Z AUTO 11002KT 5SM 16/12 A3006 RMK SLP181 T01640122 52002 IEM_DS3505
ZGSZ,2007-12-27 01:00,ZGSZ 270100Z AUTO 11004KT 3SM 18/13 A3006 RMK T01800130 IEM_DS3505
ZGSZ,2007-12-27 02:00,ZGSZ 270200Z AUTO 11006KT 3SM 20/13 A3009 RMK T02000130 IEM_DS3505
ZGSZ,2007-12-27 03:00,ZGSZ 270300Z AUTO 07004KT 4SM 21/11 A3006 RMK SLP180 T02070113 57001 IEM_DS3505
ZGSZ,2007-12-27 04:00,ZGSZ 270400Z AUTO 27008KT 2 1/2SM 20/14 A3003 RMK T02000140 IEM_DS3505
ZGSZ,2007-12-27 05:00,ZGSZ 270500Z AUTO 27006KT 2SM 21/14 A2997 RMK T02100140 IEM_DS3505
ZGSZ,2007-12-27 06:00,ZGSZ 270600Z AUTO 20004KT 4SM 23/13 A2994 RMK SLP142 T02280130 57037 IEM_DS3505
ZGSZ,2007-12-27 07:00,ZGSZ 270700Z AUTO 22006KT 3SM 21/13 A2991 RMK T02100130 IEM_DS3505
ZGSZ,2007-12-27 08:00,ZGSZ 270800Z AUTO 20004KT 4SM 21/12 A2991 RMK T02100120 IEM_DS3505
ZGSZ,2007-12-27 09:00,ZGSZ 270900Z AUTO 22006KT 5SM 20/13 A2991 RMK SLP135 T02000130 57008 IEM_DS3505
ZGSZ,2007-12-27 11:00,ZGSZ 271100Z AUTO 4SM 18/15 A2994 RMK T01800150 IEM_DS3505
ZGSZ,2007-12-27 12:00,ZGSZ 271200Z AUTO 16002KT 2 1/2SM 18/13 A2994 RMK SLP146 T01850134 52011 IEM_DS3505
ZGSZ,2007-12-27 13:00,ZGSZ 271300Z AUTO 16004KT 3SM 17/15 A2994 RMK T01700150 IEM_DS3505
ZGSZ,2007-12-27 14:00,ZGSZ 271400Z AUTO 17004KT 4SM 18/14 A2997 RMK T01800140 IEM_DS3505
ZGSZ,2007-12-27 15:00,ZGSZ 271500Z AUTO 07004KT 2 1/2SM 17/12 A2997 RMK SLP156 T01720125 52010 IEM_DS3505
ZGSZ,2007-12-27 16:00,ZGSZ 271600Z AUTO 12004KT 3SM 18/14 A2997 RMK T01800140 IEM_DS3505
ZGSZ,2007-12-27 17:00,ZGSZ 271700Z AUTO 08004KT 3SM 17/13 A2997 RMK T01700130 IEM_DS3505
ZGSZ,2007-12-27 18:00,ZGSZ 271800Z AUTO 04004KT 3SM 17/13 A2997 RMK SLP150 T01660129 57005 IEM_DS3505
ZGSZ,2007-12-27 19:00,ZGSZ 271900Z AUTO 00000KT 2 1/2SM 16/13 A2994 RMK T01600130 IEM_DS3505
ZGSZ,2007-12-27 20:00,ZGSZ 272000Z AUTO 11002KT 2SM 16/12 A2994 RMK T01600120 IEM_DS3505
ZGSZ,2007-12-27 21:00,ZGSZ 272100Z AUTO 07002KT 2 1/2SM 16/13 A2994 RMK SLP144 T01610127 57007 IEM_DS3505
ZGSZ,2007-12-27 22:00,ZGSZ 272200Z AUTO 14002KT 2SM 15/12 A2994 RMK T01500120 IEM_DS3505
ZGSZ,2007-12-27 23:00,ZGSZ 272300Z AUTO 10004KT 2SM 16/12 A2997 RMK T01600120 IEM_DS3505
ZGSZ,2007-12-28 00:00,ZGSZ 280000Z AUTO 02002KT 4SM 16/13 A2997 RMK SLP160 T01640128 52016 IEM_DS3505
ZGSZ,2007-12-28 01:00,ZGSZ 280100Z AUTO 4SM 19/14 A3000 RMK T01900140 IEM_DS3505
ZGSZ,2007-12-28 02:00,ZGSZ 280200Z AUTO 4SM 20/13 A3003 RMK T02000130 IEM_DS3505
ZGSZ,2007-12-28 03:00,ZGSZ 280300Z AUTO 02004KT 4SM 21/13 A3000 RMK SLP161 T02090126 52001 IEM_DS3505
ZGSZ,2007-12-28 04:00,ZGSZ 280400Z AUTO 27008KT 3SM 21/14 A2997 RMK T02100140 IEM_DS3505
ZGSZ,2007-12-28 05:00,ZGSZ 280500Z AUTO 29010KT 2 1/2SM 22/14 A2994 RMK T02200140 IEM_DS3505
ZGSZ,2007-12-28 06:00,ZGSZ 280600Z AUTO 27004KT 4SM 24/13 A2991 RMK SLP127 T02420134 57033 IEM_DS3505
ZGSZ,2007-12-28 07:00,ZGSZ 280700Z AUTO 30010KT 2SM 23/15 A2988 RMK T02300150 IEM_DS3505
ZGSZ,2007-12-28 08:00,ZGSZ 280800Z AUTO 30008KT 2 1/2SM 23/15 A2988 RMK T02300150 IEM_DS3505
ZGSZ,2007-12-28 09:00,ZGSZ 280900Z AUTO 36006KT 4SM 23/12 A2988 RMK SLP121 T02280121 57006 IEM_DS3505
ZGSZ,2007-12-28 10:00,ZGSZ 281000Z AUTO 3SM 20/14 A2988 RMK T02000140 IEM_DS3505
ZGSZ,2007-12-28 11:00,ZGSZ 281100Z AUTO 2 1/2SM 22/12 A2991 RMK T02200120 IEM_DS3505
ZGSZ,2007-12-28 12:00,ZGSZ 281200Z AUTO 34004KT 4SM 21/12 A2991 RMK SLP137 T02090123 52015 IEM_DS3505
ZGSZ,2007-12-28 13:00,ZGSZ 281300Z AUTO 34008KT 3SM 20/13 A2994 RMK T02000130 IEM_DS3505
ZGSZ,2007-12-28 14:00,ZGSZ 281400Z AUTO 34006KT 3SM 19/13 A2994 RMK T01900130 IEM_DS3505
ZGSZ,2007-12-28 15:00,ZGSZ 281500Z AUTO 04004KT 2 1/2SM 20/13 A2997 RMK SLP148 T01950132 52012 IEM_DS3505
ZGSZ,2007-12-28 16:00,ZGSZ 281600Z AUTO 02008KT 2 1/2SM 19/13 A2997 RMK T01900130 IEM_DS3505
ZGSZ,2007-12-28 17:00,ZGSZ 281700Z AUTO 03008KT 3SM 18/12 A2997 RMK T01800120 IEM_DS3505
ZGSZ,2007-12-28 18:00,ZGSZ 281800Z AUTO 02004KT 4SM 17/11 A2997 RMK SLP152 T01720108 52004 IEM_DS3505
ZGSZ,2007-12-28 19:00,ZGSZ 281900Z AUTO 01010KT 3SM 17/11 A2997 RMK T01700110 IEM_DS3505
ZGSZ,2007-12-28 20:00,ZGSZ 282000Z AUTO 02008KT 3SM 17/10 A2997 RMK T01700100 IEM_DS3505
ZGSZ,2007-12-28 21:00,ZGSZ 282100Z AUTO 34004KT 4SM 16/10 A2997 RMK SLP153 T01600103 52001 IEM_DS3505
ZGSZ,2007-12-28 22:00,ZGSZ 282200Z AUTO 03010KT 3SM 16/10 A3000 RMK T01600100 IEM_DS3505
ZGSZ,2007-12-28 23:00,ZGSZ 282300Z AUTO 03008KT 3SM 16/09 A3000 RMK T01600090 IEM_DS3505
ZGSZ,2007-12-29 00:00,ZGSZ 290000Z AUTO 02002KT 9SM 16/10 A3003 RMK SLP169 T01570102 52015 IEM_DS3505
ZGSZ,2007-12-29 01:00,ZGSZ 290100Z AUTO 02010KT 7SM 17/09 A3003 RMK T01700090 IEM_DS3505
ZGSZ,2007-12-29 02:00,ZGSZ 290200Z AUTO 02012KT 7SM 18/08 A3006 RMK T01800080 IEM_DS3505
ZGSZ,2007-12-29 03:00,ZGSZ 290300Z AUTO 36008KT 8SM 17/10 A3003 RMK SLP174 T01740096 52005 IEM_DS3505
ZGSZ,2007-12-29 04:00,ZGSZ 290400Z AUTO 02010KT 7SM 18/08 A3003 RMK T01800080 IEM_DS3505
ZGSZ,2007-12-29 05:00,ZGSZ 290500Z AUTO 01012KT 6SM 19/08 A2997 RMK T01900080 IEM_DS3505
ZGSZ,2007-12-29 06:00,ZGSZ 290600Z AUTO 02008KT 7SM 18/09 A2997 RMK SLP149 T01840089 57025 IEM_DS3505
ZGSZ,2007-12-29 07:00,ZGSZ 290700Z AUTO 03008KT 7SM 20/08 A2997 RMK T02000080 IEM_DS3505
ZGSZ,2007-12-29 08:00,ZGSZ 290800Z AUTO 03010KT 6SM 20/08 A2997 RMK T02000080 IEM_DS3505
ZGSZ,2007-12-29 09:00,ZGSZ 290900Z AUTO 36008KT 6SM 18/08 A2997 RMK SLP151 T01760085 52002 IEM_DS3505
ZGSZ,2007-12-29 10:00,ZGSZ 291000Z AUTO 05010KT 7SM 19/08 A2997 RMK T01900080 IEM_DS3505
ZGSZ,2007-12-29 11:00,ZGSZ 291100Z AUTO 04008KT 7SM 18/08 A3000 RMK T01800080 IEM_DS3505
ZGSZ,2007-12-29 12:00,ZGSZ 291200Z AUTO 02010KT 6SM 17/07 A3003 RMK SLP166 T01700074 52015 IEM_DS3505
ZGSZ,2007-12-29 13:00,ZGSZ 291300Z AUTO 04008KT 7SM 17/07 A3003 RMK T01700070 IEM_DS3505
ZGSZ,2007-12-29 14:00,ZGSZ 291400Z AUTO 03014KT 7SM 16/07 A3003 RMK T01600070 IEM_DS3505
ZGSZ,2007-12-29 15:00,ZGSZ 291500Z AUTO 02008KT 6SM 15/06 A3006 RMK SLP181 T01460064 52014 IEM_DS3505
ZGSZ,2007-12-29 16:00,ZGSZ 291600Z AUTO 04010KT 6SM 15/06 A3006 RMK T01500060 IEM_DS3505
ZGSZ,2007-12-29 17:00,ZGSZ 291700Z AUTO 03010KT 6SM 14/06 A3006 RMK T01400060 IEM_DS3505
ZGSZ,2007-12-29 18:00,ZGSZ 291800Z AUTO 02008KT 7SM 14/06 A3006 RMK SLP182 T01360055 52001 IEM_DS3505
ZGSZ,2007-12-29 19:00,ZGSZ 291900Z AUTO 03010KT 6SM 13/05 A3006 RMK T01300050 IEM_DS3505
ZGSZ,2007-12-29 20:00,ZGSZ 292000Z AUTO 04008KT 6SM 13/05 A3006 RMK T01300050 IEM_DS3505
ZGSZ,2007-12-29 21:00,ZGSZ 292100Z AUTO 02008KT 7SM 12/04 A3009 RMK SLP185 T01230043 52003 IEM_DS3505
ZGSZ,2007-12-29 22:00,ZGSZ 292200Z AUTO 04010KT 6SM 12/04 A3009 RMK T01200040 IEM_DS3505
ZGSZ,2007-12-29 23:00,ZGSZ 292300Z AUTO 03010KT 6SM 12/04 A3012 RMK T01200040 IEM_DS3505
ZGSZ,2007-12-30 00:00,ZGSZ 300000Z AUTO 04008KT 9SM 12/02 A3012 RMK SLP203 T01250024 52018 IEM_DS3505
ZGSZ,2007-12-30 01:00,ZGSZ 300100Z AUTO 02010KT 6SM 14/01 A3015 RMK T01400010 IEM_DS3505
ZGSZ,2007-12-30 02:00,ZGSZ 300200Z AUTO 02016KT 6SM 16/M01 A3015 RMK T01601010 IEM_DS3505
ZGSZ,2007-12-30 03:00,ZGSZ 300300Z AUTO 04010KT 9SM 15/M02 A3015 RMK SLP207 T01531017 52004 IEM_DS3505
ZGSZ,2007-12-30 04:00,ZGSZ 300400Z AUTO 03012KT 6SM 18/M01 A3012 RMK T01801010 IEM_DS3505
ZGSZ,2007-12-30 05:00,ZGSZ 300500Z AUTO 02012KT 6SM 18/M01 A3009 RMK T01801010 IEM_DS3505
ZGSZ,2007-12-30 06:00,ZGSZ 300600Z AUTO 36012KT 7SM 18/M01 A3003 RMK SLP175 T01791009 57032 IEM_DS3505
ZGSZ,2007-12-30 07:00,ZGSZ 300700Z AUTO 36016KT 6SM 19/M01 A3003 RMK T01901010 IEM_DS3505
ZGSZ,2007-12-30 08:00,ZGSZ 300800Z AUTO 01014KT 6SM 19/M02 A3003 RMK T01901020 IEM_DS3505
ZGSZ,2007-12-30 09:00,ZGSZ 300900Z AUTO 36010KT 9SM 17/M02 A3006 RMK SLP178 T01741023 52003 IEM_DS3505
ZGSZ,2007-12-30 10:00,ZGSZ 301000Z AUTO 04010KT 6SM 17/M03 A3006 RMK T01701030 IEM_DS3505
ZGSZ,2007-12-30 11:00,ZGSZ 301100Z AUTO 04008KT 6SM 16/M03 A3009 RMK T01601030 IEM_DS3505
ZGSZ,2007-12-30 12:00,ZGSZ 301200Z AUTO 02006KT 10SM 15/M04 A3012 RMK SLP204 T01471036 52026 IEM_DS3505
ZGSZ,2007-12-30 13:00,ZGSZ 301300Z AUTO 04010KT 6SM 15/M03 A3015 RMK T01501030 IEM_DS3505
ZGSZ,2007-12-30 14:00,ZGSZ 301400Z AUTO 02008KT 6SM 14/M03 A3015 RMK T01401030 IEM_DS3505
ZGSZ,2007-12-30 15:00,ZGSZ 301500Z AUTO 02010KT 11SM 13/M04 A3018 RMK SLP215 T01321035 52011 IEM_DS3505
ZGSZ,2007-12-30 16:00,ZGSZ 301600Z AUTO 03010KT 6SM 13/M03 A3018 RMK T01301030 IEM_DS3505
ZGSZ,2007-12-30 17:00,ZGSZ 301700Z AUTO 03010KT 6SM 13/M03 A3018 RMK T01301030 IEM_DS3505
ZGSZ,2007-12-30 18:00,ZGSZ 301800Z AUTO 02008KT 11SM 12/M04 A3015 RMK SLP213 T01181035 57002 IEM_DS3505
ZGSZ,2007-12-30 19:00,ZGSZ 301900Z AUTO 03010KT 6SM 12/M04 A3015 RMK T01201040 IEM_DS3505
ZGSZ,2007-12-30 20:00,ZGSZ 302000Z AUTO 03012KT 6SM 12/M04 A3015 RMK T01201040 IEM_DS3505
ZGSZ,2007-12-30 21:00,ZGSZ 302100Z AUTO 07008KT 11SM 11/M05 A3018 RMK SLP214 T01091047 52001 IEM_DS3505
ZGSZ,2007-12-30 22:00,ZGSZ 302200Z AUTO 02010KT 6SM 11/M04 A3018 RMK T01101040 IEM_DS3505
