station,valid,metar
ZGSZ,2017-01-01 00:00,ZGSZ 010000Z 06004MPS 040V100 9999 SCT030 17/13 Q1023 NOSIG
ZGSZ,2017-01-01 01:00,ZGSZ 010100Z 08003MPS CAVOK 19/13 Q1023 NOSIG
ZGSZ,2017-01-01 02:00,ZGSZ 010200Z 09004MPS 040V120 9999 FEW023 21/14 Q1023 NOSIG
ZGSZ,2017-01-01 03:00,ZGSZ 010300Z 08003MPS 040V110 9999 FEW023 21/13 Q1023 NOSIG
ZGSZ,2017-01-01 04:00,ZGSZ 010400Z VRB02MPS CAVOK 23/13 Q1022 NOSIG
ZGSZ,2017-01-01 05:00,ZGSZ 010500Z 29004MPS CAVOK 21/15 Q1021 NOSIG
ZGSZ,2017-01-01 06:00,ZGSZ 010600Z 28003MPS CAVOK 22/15 Q1020 NOSIG
ZGSZ,2017-01-01 07:00,ZGSZ 010700Z 25003MPS CAVOK 21/15 Q1019 NOSIG
ZGSZ,2017-01-01 08:00,ZGSZ 010800Z 23003MPS 9999 SCT036 21/16 Q1019 NOSIG
ZGSZ,2017-01-01 09:00,ZGSZ 010900Z 22003MPS CAVOK 21/15 Q1019 NOSIG
ZGSZ,2017-01-01 10:00,ZGSZ 011000Z 25002MPS 220V280 9999 BKN043 20/15 Q1020 NOSIG
ZGSZ,2017-01-01 11:00,ZGSZ 011100Z 21001MPS 9999 BKN050 20/17 Q1020 NOSIG
ZGSZ,2017-01-01 12:00,ZGSZ 011200Z 20002MPS 6000 BKN053 19/17 Q1021 NOSIG
ZGSZ,2017-01-01 13:00,ZGSZ 011300Z 19002MPS 7000 NSC 18/16 Q1021 NOSIG
ZGSZ,2017-01-01 14:00,ZGSZ 011400Z 20002MPS 7000 BKN053 19/17 Q1021 NOSIG
ZGSZ,2017-01-01 15:00,ZGSZ 011500Z 00000MPS 7000 FEW053 19/16 Q1021 NOSIG
ZGSZ,2017-01-01 16:00,ZGSZ 011600Z 20002MPS 7000 FEW053 19/16 Q1021 NOSIG
ZGSZ,2017-01-01 17:00,ZGSZ 011700Z 15002MPS 7000 FEW053 17/15 Q1021 NOSIG
ZGSZ,2017-01-01 18:00,ZGSZ 011800Z 17003MPS 7000 FEW053 17/15 Q1020 NOSIG
ZGSZ,2017-01-01 19:00,ZGSZ 011900Z 17002MPS 7000 NSC 17/15 Q1020 NOSIG
ZGSZ,2017-01-01 20:00,ZGSZ 012000Z 00000MPS 5000 BR NSC 17/15 Q1020 NOSIG
ZGSZ,2017-01-01 21:00,ZGSZ 012100Z 01003MPS 4000 BR NSC 17/15 Q1020 NOSIG
ZGSZ,2017-01-01 22:00,ZGSZ 012200Z 05002MPS 4500 BR NSC 17/15 Q1020 NOSIG
ZGSZ,2017-01-01 23:00,ZGSZ 012300Z 07003MPS 4000 BR NSC 17/15 Q1021 NOSIG
ZGSZ,2017-01-02 00:00,ZGSZ 020000Z 04002MPS 4000 BR NSC 18/15 Q1021 NOSIG
ZGSZ,2017-01-02 01:00,ZGSZ 020100Z 07003MPS 4500 BR NSC 19/15 Q1022 NOSIG
ZGSZ,2017-01-02 02:00,ZGSZ 020200Z 06004MPS 4000 HZ NSC 21/15 Q1022 NOSIG
ZGSZ,2017-01-02 03:00,ZGSZ 020300Z 05004MPS 010V100 6000 NSC 24/15 Q1021 NOSIG
ZGSZ,2017-01-02 04:00,ZGSZ 020400Z 07003MPS 040V120 7000 NSC 25/15 Q1020 NOSIG
ZGSZ,2017-01-02 05:00,ZGSZ 020500Z 29004MPS 250V320 3500 HZ NSC 23/16 Q1019 BECMG TL0630 2500 HZ
ZGSZ,2017-01-02 06:00,ZGSZ 020600Z 28003MPS 3100 HZ NSC 24/16 Q1019 BECMG TL0630 2500 HZ
ZGSZ,2017-01-02 07:00,ZGSZ 020700Z 25002MPS 2500 HZ NSC 24/17 Q1018 BECMG TL0830 3200
ZGSZ,2017-01-02 08:00,ZGSZ 020800Z 21004MPS 2800 BR NSC 22/17 Q1018 BECMG TL0830 3200
ZGSZ,2017-01-02 09:00,ZGSZ 020900Z 20003MPS 5000 BR NSC 21/17 Q1018 NOSIG
ZGSZ,2017-01-02 10:00,ZGSZ 021000Z 18003MPS 5000 BR SCT036 20/17 Q1019 NOSIG
ZGSZ,2017-01-02 11:00,ZGSZ 021100Z 20002MPS 5000 BR NSC 20/17 Q1019 NOSIG
ZGSZ,2017-01-02 12:00,ZGSZ 021200Z 19003MPS 4000 BR NSC 19/17 Q1020 NOSIG
ZGSZ,2017-01-02 13:00,ZGSZ 021300Z 18003MPS 4000 BR NSC 18/17 Q1020 NOSIG
ZGSZ,2017-01-02 14:00,ZGSZ 021400Z 18003MPS 5000 BR NSC 18/17 Q1020 NOSIG
ZGSZ,2017-01-02 15:00,ZGSZ 021500Z 19003MPS 5000 BR FEW018 19/17 Q1020 NOSIG
ZGSZ,2017-01-02 16:00,ZGSZ 021600Z 19002MPS 5000 BR FEW018 18/16 Q1020 NOSIG
ZGSZ,2017-01-02 17:00,ZGSZ 021700Z 20002MPS 5000 BR FEW018 18/17 Q1020 NOSIG
ZGSZ,2017-01-02 18:00,ZGSZ 021800Z 18001MPS 5000 BR FEW018 18/17 Q1019 NOSIG
ZGSZ,2017-01-02 19:00,ZGSZ 021900Z 11002MPS 3500 BR FEW018 18/16 Q1019 NOSIG
ZGSZ,2017-01-02 20:00,ZGSZ 022000Z 08002MPS 070V140 4000 BR NSC 19/15 Q1019 NOSIG
ZGSZ,2017-01-02 21:00,ZGSZ 022100Z VRB01MPS 3000 BR NSC 18/16 Q1019 NOSIG
ZGSZ,2017-01-02 22:00,ZGSZ 022200Z VRB01MPS 3000 BR NSC 18/16 Q1019 NOSIG
ZGSZ,2017-01-02 23:00,ZGSZ 022300Z 08002MPS 050V130 2000 BR NSC 19/16 Q1020 NOSIG
ZGSZ,2017-01-03 00:00,ZGSZ 030000Z 04002MPS 010V070 1800 BR NSC 19/16 Q1020 BECMG AT0130 3100
ZGSZ,2017-01-03 01:00,ZGSZ 030100Z 06002MPS 020V100 2000 BR NSC 21/17 Q1020 BECMG AT0240 3100
ZGSZ,2017-01-03 02:00,ZGSZ 030200Z 22002MPS 2200 HZ NSC 23/17 Q1021 BECMG AT0240 3100 BR
ZGSZ,2017-01-03 03:00,ZGSZ 030300Z 24003MPS 2200 HZ NSC 22/17 Q1021 BECMG AT0440 3100 BR
ZGSZ,2017-01-03 04:00,ZGSZ 030400Z 25003MPS 3300 BR NSC 22/18 Q1020 NOSIG
ZGSZ,2017-01-03 05:00,ZGSZ 030500Z 26004MPS 3500 BR NSC 22/18 Q1019 NOSIG
ZGSZ,2017-01-03 06:00,ZGSZ 030600Z 22004MPS CAVOK 23/18 Q1018 NOSIG
ZGSZ,2017-01-03 07:00,ZGSZ 030700Z 21005MPS CAVOK 22/18 Q1018 NOSIG
ZGSZ,2017-01-03 08:00,ZGSZ 030800Z 22004MPS CAVOK 22/17 Q1018 NOSIG
ZGSZ,2017-01-03 09:00,ZGSZ 030900Z 22004MPS 7000 FEW040 21/18 Q1018 NOSIG
ZGSZ,2017-01-03 10:00,ZGSZ 031000Z 22003MPS 7000 FEW036 20/18 Q1018 NOSIG
ZGSZ,2017-01-03 11:00,ZGSZ 031100Z 21002MPS 6000 FEW036 20/18 Q1018 NOSIG
ZGSZ,2017-01-03 12:00,ZGSZ 031200Z 23002MPS 5000 BR FEW030 20/18 Q1019 NOSIG
ZGSZ,2017-01-03 13:00,ZGSZ 031300Z 14002MPS 5000 BR FEW030 20/17 Q1019 NOSIG
ZGSZ,2017-01-03 14:00,ZGSZ 031400Z 15004MPS 8000 FEW030 20/17 Q1019 NOSIG
ZGSZ,2017-01-03 15:00,ZGSZ 031500Z 15004MPS 8000 FEW033 20/16 Q1020 NOSIG
ZGSZ,2017-01-03 16:00,ZGSZ 031600Z 15003MPS CAVOK 19/16 Q1019 NOSIG
ZGSZ,2017-01-03 17:00,ZGSZ 031700Z 15003MPS CAVOK 19/16 Q1019 NOSIG
ZGSZ,2017-01-03 18:00,ZGSZ 031800Z 15002MPS CAVOK 19/16 Q1019 NOSIG
ZGSZ,2017-01-03 19:00,ZGSZ 031900Z 16002MPS 9999 BKN036 19/16 Q1019 NOSIG
ZGSZ,2017-01-03 20:00,ZGSZ 032000Z 16003MPS CAVOK 18/16 Q1018 NOSIG
ZGSZ,2017-01-03 21:00,ZGSZ 032100Z 15003MPS CAVOK 18/15 Q1018 NOSIG
ZGSZ,2017-01-03 22:00,ZGSZ 032200Z 14002MPS CAVOK 18/16 Q1019 NOSIG
ZGSZ,2017-01-03 23:00,ZGSZ 032300Z 10002MPS 5000 BR SCT030 18/16 Q1019 NOSIG
ZGSZ,2017-01-04 00:00,ZGSZ 040000Z 00000MPS 6000 BKN030 19/16 Q1019 NOSIG
ZGSZ,2017-01-04 01:00,ZGSZ 040100Z VRB01MPS 7000 BKN030 20/16 Q1020 NOSIG
ZGSZ,2017-01-04 02:00,ZGSZ 040200Z 10002MPS 040V150 CAVOK 22/16 Q1020 NOSIG
ZGSZ,2017-01-04 03:00,ZGSZ 040300Z 29003MPS 9999 SCT033 22/17 Q1020 NOSIG
ZGSZ,2017-01-04 04:00,ZGSZ 040400Z 30003MPS 9999 FEW030 22/17 Q1019 NOSIG
ZGSZ,2017-01-04 05:00,ZGSZ 040500Z 28003MPS 240V310 9999 FEW030 23/17 Q1018 NOSIG
ZGSZ,2017-01-04 06:00,ZGSZ 040600Z 24003MPS CAVOK 23/17 Q1017 NOSIG
ZGSZ,2017-01-04 07:00,ZGSZ 040700Z 23003MPS CAVOK 23/17 Q1017 NOSIG
ZGSZ,2017-01-04 08:00,ZGSZ 040800Z 21003MPS CAVOK 22/17 Q1016 NOSIG
ZGSZ,2017-01-04 09:00,ZGSZ 040900Z 21004MPS CAVOK 21/17 Q1016 NOSIG
ZGSZ,2017-01-04 10:00,ZGSZ 041000Z 21003MPS CAVOK 20/17 Q1017 NOSIG
ZGSZ,2017-01-04 11:00,ZGSZ 041100Z 22002MPS CAVOK 20/17 Q1017 NOSIG
ZGSZ,2017-01-04 12:00,ZGSZ 041200Z 00000MPS CAVOK 19/17 Q1018 NOSIG
ZGSZ,2017-01-04 13:00,ZGSZ 041300Z 00000MPS 9999 FEW046 19/16 Q1018 NOSIG
ZGSZ,2017-01-04 14:00,ZGSZ 041400Z 00000MPS CAVOK 20/15 Q1018 NOSIG
ZGSZ,2017-01-04 15:00,ZGSZ 041500Z VRB01MPS CAVOK 21/16 Q1018 NOSIG
ZGSZ,2017-01-04 16:00,ZGSZ 041600Z 19001MPS CAVOK 20/16 Q1018 NOSIG
ZGSZ,2017-01-04 17:00,ZGSZ 041700Z 00000MPS 9999 BKN043 19/17 Q1018 NOSIG
ZGSZ,2017-01-04 18:00,ZGSZ 041800Z 22002MPS 190V260 6000 BKN043 19/17 Q1018 NOSIG
ZGSZ,2017-01-04 19:00,ZGSZ 041900Z 22003MPS 6000 BKN043 19/17 Q1018 NOSIG
ZGSZ,2017-01-04 20:00,ZGSZ 042000Z 00000MPS 5000 BR BKN043 19/17 Q1017 NOSIG
ZGSZ,2017-01-04 21:00,ZGSZ 042100Z 19001MPS 5000 BR BKN050 19/18 Q1017 NOSIG
ZGSZ,2017-01-04 22:00,ZGSZ 042200Z 00000MPS 5000 BR BKN050 19/17 Q1017 NOSIG
ZGSZ,2017-01-04 23:00,ZGSZ 042300Z 11002MPS 060V150 6000 BKN050 20/16 Q1017 NOSIG
ZGSZ,2017-01-05 00:00,ZGSZ 050000Z 03002MPS 5000 BR BKN053 20/17 Q1018 NOSIG
ZGSZ,2017-01-05 01:00,ZGSZ 050100Z 06003MPS 030V090 6000 BKN053 22/16 Q1018 NOSIG
ZGSZ,2017-01-05 02:00,ZGSZ 050200Z 07004MPS 040V110 9999 BKN053 23/16 Q1018 NOSIG
ZGSZ,2017-01-05 03:00,ZGSZ 050300Z 06004MPS 030V090 9999 BKN053 24/16 Q1017 NOSIG
ZGSZ,2017-01-05 04:00,ZGSZ 050400Z 03002MPS 340V110 7000 BKN053 25/17 Q1017 NOSIG
ZGSZ,2017-01-05 05:00,ZGSZ 050500Z 04003MPS 360V070 4000 HZ BKN053 24/16 Q1016 NOSIG
ZGSZ,2017-01-05 06:00,ZGSZ 050600Z 30002MPS 280V340 3500 HZ BKN043 23/18 Q1015 NOSIG
ZGSZ,2017-01-05 07:00,ZGSZ 050700Z 32003MPS 4000 HZ BKN053 23/18 Q1014 NOSIG
ZGSZ,2017-01-05 08:00,ZGSZ 050800Z 32003MPS 3500 HZ BKN046 23/18 Q1014 NOSIG
ZGSZ,2017-01-05 09:00,ZGSZ 050900Z 22002MPS 190V250 3000 BR BKN040 22/18 Q1015 BECMG AT1040 2000
ZGSZ,2017-01-05 10:00,ZGSZ 051000Z 20002MPS 3000 BR BKN043 21/18 Q1015 BECMG AT1040 2000
ZGSZ,2017-01-05 11:00,ZGSZ 051100Z 20002MPS 2800 BR BKN043 21/18 Q1016 BECMG AT1220 3000
ZGSZ,2017-01-05 12:00,ZGSZ 051200Z 20002MPS 2800 BR BKN043 21/17 Q1016 BECMG AT1220 3000
ZGSZ,2017-01-05 13:00,ZGSZ 051300Z 17002MPS 3000 BR BKN043 21/18 Q1016 BECMG AT1440 2500
ZGSZ,2017-01-05 14:00,ZGSZ 051400Z 00000MPS 3000 BR BKN043 20/17 Q1016 BECMG AT1440 2500
ZGSZ,2017-01-05 15:00,ZGSZ 051500Z 00000MPS 2000 BR NSC 20/18 Q1016 NOSIG
ZGSZ,2017-01-05 16:00,ZGSZ 051600Z 00000MPS 4000 BR NSC 19/17 Q1016 NOSIG
ZGSZ,2017-01-05 17:00,ZGSZ 051700Z 21002MPS 4000 BR NSC 19/18 Q1016 NOSIG
ZGSZ,2017-01-05 18:00,ZGSZ 051800Z 33002MPS 3500 BR NSC 19/17 Q1015 NOSIG
ZGSZ,2017-01-05 19:00,ZGSZ 051900Z 00000MPS 3500 BR NSC 19/18 Q1015 NOSIG
ZGSZ,2017-01-05 20:00,ZGSZ 052000Z 00000MPS 3500 BR NSC 17/17 Q1014 NOSIG
ZGSZ,2017-01-05 21:00,ZGSZ 052100Z 02002MPS 2600 BR NSC 18/17 Q1014 NOSIG
ZGSZ,2017-01-05 22:00,ZGSZ 052200Z 02002MPS 3000 BR NSC 18/17 Q1015 BECMG AT2320 2500
ZGSZ,2017-01-05 23:00,ZGSZ 052300Z 00000MPS 3000 BR NSC 18/17 Q1015 BECMG AT2320 2500
ZGSZ,2017-01-06 00:00,ZGSZ 060000Z 00000MPS 2500 BR NSC 19/17 Q1016 BECMG AT0140 3500
ZGSZ,2017-01-06 01:00,ZGSZ 060100Z 00000MPS 2500 BR NSC 21/18 Q1017 BECMG AT0140 3500
ZGSZ,2017-01-06 02:00,ZGSZ 060200Z 31002MPS 2600 BR NSC 22/18 Q1017 NOSIG
ZGSZ,2017-01-06 03:00,ZGSZ 060300Z 32003MPS 1600 R33/1300N R34/1300V1400D BR NSC 23/18 Q1016 BECMG TL0430 3200
ZGSZ,2017-01-06 04:00,ZGSZ 060400Z 31003MPS 2600 HZ NSC 23/18 Q1016 BECMG TL0430 3200
ZGSZ,2017-01-06 05:00,ZGSZ 060500Z 30003MPS 3000 HZ NSC 24/18 Q1014 NOSIG
ZGSZ,2017-01-06 06:00,ZGSZ 060600Z 29003MPS 3000 HZ FEW030 24/18 Q1013 BECMG TL0630 2600
ZGSZ,2017-01-06 07:00,ZGSZ 060700Z 28002MPS 2900 HZ FEW030 25/18 Q1013 BECMG TL0830 4000
ZGSZ,2017-01-06 08:00,ZGSZ 060800Z 22003MPS 2900 HZ FEW030 23/19 Q1013 BECMG TL0830 3100
ZGSZ,2017-01-06 09:00,ZGSZ 060900Z 00000MPS 3400 BR SCT030 23/19 Q1013 BECMG AT1030 2800
ZGSZ,2017-01-06 10:00,ZGSZ 061000Z 19004MPS 3400 BR BKN040 22/18 Q1013 BECMG AT1030 2800
ZGSZ,2017-01-06 11:00,ZGSZ 061100Z 20003MPS 3500 BR SCT040 22/19 Q1014 NOSIG
ZGSZ,2017-01-06 12:00,ZGSZ 061200Z 20003MPS 5000 BR SCT040 21/19 Q1014 NOSIG
ZGSZ,2017-01-06 13:00,ZGSZ 061300Z 21002MPS 5000 BR SCT040 21/19 Q1014 NOSIG
ZGSZ,2017-01-06 14:00,ZGSZ 061400Z 15004MPS CAVOK 22/17 Q1015 NOSIG
ZGSZ,2017-01-06 15:00,ZGSZ 061500Z 14004MPS CAVOK 22/17 Q1015 NOSIG
ZGSZ,2017-01-06 16:00,ZGSZ 061600Z 14005MPS 8000 NSC 21/17 Q1015 NOSIG
ZGSZ,2017-01-06 17:00,ZGSZ 061700Z 14006MPS 8000 NSC 20/17 Q1014 NOSIG
ZGSZ,2017-01-06 18:00,ZGSZ 061800Z 14004MPS 110V170 6000 NSC 20/17 Q1014 NOSIG
ZGSZ,2017-01-06 19:00,ZGSZ 061900Z 12004MPS 6000 NSC 20/17 Q1013 NOSIG
ZGSZ,2017-01-06 20:00,ZGSZ 062000Z 14003MPS 6000 NSC 20/17 Q1013 NOSIG
ZGSZ,2017-01-06 21:00,ZGSZ 062100Z 13004MPS 6000 NSC 21/16 Q1013 NOSIG
ZGSZ,2017-01-06 22:00,ZGSZ 062200Z 13002MPS 100V160 6000 NSC 21/17 Q1014 NOSIG
ZGSZ,2017-01-06 23:00,ZGSZ 062300Z 14003MPS 6000 NSC 20/16 Q1014 NOSIG
ZGSZ,2017-01-07 00:00,ZGSZ 070000Z 00000MPS 8000 NSC 21/16 Q1014 NOSIG
ZGSZ,2017-01-07 01:00,ZGSZ 070100Z 10002MPS 050V180 8000 NSC 22/17 Q1015 NOSIG
ZGSZ,2017-01-07 02:00,ZGSZ 070200Z 15004MPS 120V180 8000 NSC 23/17 Q1015 NOSIG
ZGSZ,2017-01-07 03:00,ZGSZ 070300Z VRB02MPS CAVOK 24/17 Q1015 NOSIG
ZGSZ,2017-01-07 04:00,ZGSZ 070400Z 30003MPS CAVOK 23/17 Q1014 NOSIG
ZGSZ,2017-01-07 05:00,ZGSZ 070500Z 30003MPS 8000 NSC 23/17 Q1013 NOSIG
ZGSZ,2017-01-07 06:00,ZGSZ 070600Z 27003MPS 240V300 8000 NSC 24/18 Q1012 NOSIG
ZGSZ,2017-01-07 07:00,ZGSZ 070700Z 27002MPS 240V300 8000 NSC 24/18 Q1011 NOSIG
ZGSZ,2017-01-07 08:00,ZGSZ 070800Z 26002MPS 8000 NSC 24/19 Q1011 NOSIG
ZGSZ,2017-01-07 09:00,ZGSZ 070900Z 21003MPS CAVOK 22/18 Q1012 NOSIG
ZGSZ,2017-01-07 10:00,ZGSZ 071000Z 21003MPS 5000 BR NSC 21/19 Q1012 NOSIG
ZGSZ,2017-01-07 11:00,ZGSZ 071100Z 21002MPS 5000 BR NSC 21/18 Q1012 NOSIG
ZGSZ,2017-01-07 12:00,ZGSZ 071200Z 20002MPS 5000 BR NSC 21/19 Q1013 NOSIG
ZGSZ,2017-01-07 13:00,ZGSZ 071300Z 20003MPS 5000 BR NSC 21/19 Q1013 NOSIG
ZGSZ,2017-01-07 14:00,ZGSZ 071400Z 20002MPS 4000 BR NSC 21/19 Q1014 NOSIG
ZGSZ,2017-01-07 15:00,ZGSZ 071500Z 22001MPS 4000 BR NSC 21/19 Q1014 NOSIG
ZGSZ,2017-01-07 16:00,ZGSZ 071600Z 00000MPS 4000 BR FEW010 21/19 Q1014 NOSIG
ZGSZ,2017-01-07 17:00,ZGSZ 071700Z 00000MPS 4000 BR FEW010 21/19 Q1013 NOSIG
ZGSZ,2017-01-07 18:00,ZGSZ 071800Z 00000MPS 4000 BR FEW016 20/18 Q1013 NOSIG
ZGSZ,2017-01-07 19:00,ZGSZ 071900Z 00000MPS 5000 BR NSC 21/19 Q1013 NOSIG
ZGSZ,2017-01-07 20:00,ZGSZ 072000Z 01001MPS 5000 BR NSC 21/18 Q1012 NOSIG
ZGSZ,2017-01-07 21:00,ZGSZ 072100Z VRB01MPS 5000 BR NSC 21/18 Q1012 NOSIG
ZGSZ,2017-01-07 22:00,ZGSZ 072200Z 00000MPS 5000 BR NSC 20/18 Q1013 NOSIG
ZGSZ,2017-01-07 23:00,ZGSZ 072300Z 05002MPS 3000 BR NSC 20/18 Q1013 BECMG TL0030 2300
ZGSZ,2017-01-08 00:00,ZGSZ 080000Z 12002MPS 2500 BR NSC 20/18 Q1014 NOSIG
ZGSZ,2017-01-08 01:00,ZGSZ 080100Z VRB01MPS 2900 BR NSC 22/18 Q1015 NOSIG
ZGSZ,2017-01-08 02:00,ZGSZ 080200Z 33003MPS 3000 HZ NSC 23/18 Q1016 BECMG AT0230 2500
ZGSZ,2017-01-08 03:00,ZGSZ 080300Z 33003MPS 310V020 2900 R33/1400N R34/P2000 HZ FEW024 24/18 Q1015 BECMG AT0430 3100
ZGSZ,2017-01-08 04:00,ZGSZ 080400Z 06003MPS 010V110 4500 HZ FEW024 26/17 Q1014 NOSIG
ZGSZ,2017-01-08 05:00,ZGSZ 080500Z 06003MPS 010V090 7000 FEW026 27/16 Q1012 NOSIG
ZGSZ,2017-01-08 06:00,ZGSZ 080600Z 33005MPS 6000 FEW030 25/18 Q1012 NOSIG
ZGSZ,2017-01-08 07:00,ZGSZ 080700Z 33006MPS 5000 HZ FEW030 25/19 Q1011 NOSIG
ZGSZ,2017-01-08 08:00,ZGSZ 080800Z 33006MPS 5000 HZ FEW036 24/18 Q1011 NOSIG
ZGSZ,2017-01-08 09:00,ZGSZ 080900Z 01005MPS 6000 FEW036 25/17 Q1012 NOSIG
ZGSZ,2017-01-08 10:00,ZGSZ 081000Z 02004MPS 6000 FEW036 24/17 Q1012 NOSIG
ZGSZ,2017-01-08 11:00,ZGSZ 081100Z 01004MPS 6000 FEW043 23/17 Q1013 NOSIG
ZGSZ,2017-01-08 12:00,ZGSZ 081200Z 04004MPS 6000 BKN043 23/17 Q1014 NOSIG
ZGSZ,2017-01-08 13:00,ZGSZ 081300Z 03005MPS 8000 BKN043 23/16 Q1014 NOSIG
ZGSZ,2017-01-08 14:00,ZGSZ 081400Z 04005MPS 8000 BKN043 22/15 Q1015 NOSIG
ZGSZ,2017-01-08 15:00,ZGSZ 081500Z 04005MPS 8000 BKN043 22/15 Q1015 NOSIG
ZGSZ,2017-01-08 16:00,ZGSZ 081600Z 05005MPS 8000 BKN043 21/14 Q1015 NOSIG
ZGSZ,2017-01-08 17:00,ZGSZ 081700Z 04004MPS 8000 BKN050 20/14 Q1015 NOSIG
ZGSZ,2017-01-08 18:00,ZGSZ 081800Z 05004MPS 8000 BKN050 20/14 Q1015 NOSIG
ZGSZ,2017-01-08 19:00,ZGSZ 081900Z 03005MPS 8000 FEW050 19/14 Q1015 NOSIG
ZGSZ,2017-01-08 20:00,ZGSZ 082000Z 04005MPS CAVOK 19/13 Q1015 NOSIG
ZGSZ,2017-01-08 21:00,ZGSZ 082100Z 05005MPS CAVOK 18/13 Q1015 NOSIG
ZGSZ,2017-01-08 22:00,ZGSZ 082200Z 06004MPS 9999 FEW033 18/13 Q1016 NOSIG
ZGSZ,2017-01-08 23:00,ZGSZ 082300Z 07004MPS 9999 FEW033 18/12 Q1017 NOSIG
ZGSZ,2017-01-09 00:00,ZGSZ 090000Z 03004MPS 9999 FEW040 18/12 Q1017 NOSIG
ZGSZ,2017-01-09 01:00,ZGSZ 090100Z 06006MPS 9999 SCT050 19/12 Q1018 NOSIG
ZGSZ,2017-01-09 02:00,ZGSZ 090200Z 08004MPS 060V120 9999 BKN053 20/12 Q1019 NOSIG
ZGSZ,2017-01-09 03:00,ZGSZ 090300Z 06004MPS 020V080 9999 SCT053 22/13 Q1018 NOSIG
ZGSZ,2017-01-09 04:00,ZGSZ 090400Z 07004MPS 030V090 CAVOK 22/12 Q1017 NOSIG
ZGSZ,2017-01-09 05:00,ZGSZ 090500Z 06003MPS 020V150 CAVOK 24/13 Q1016 NOSIG
ZGSZ,2017-01-09 06:00,ZGSZ 090600Z 05003MPS 010V100 CAVOK 25/13 Q1015 NOSIG
ZGSZ,2017-01-09 07:00,ZGSZ 090700Z 04003MPS 330V080 9999 FEW033 25/14 Q1014 NOSIG
ZGSZ,2017-01-09 08:00,ZGSZ 090800Z 29003MPS 7000 NSC 23/16 Q1014 NOSIG
ZGSZ,2017-01-09 09:00,ZGSZ 090900Z 25002MPS 210V290 8000 NSC 22/16 Q1014 NOSIG
ZGSZ,2017-01-09 10:00,ZGSZ 091000Z 20003MPS 7000 NSC 21/15 Q1015 NOSIG
ZGSZ,2017-01-09 11:00,ZGSZ 091100Z 22004MPS 5000 BR NSC 20/17 Q1015 NOSIG
ZGSZ,2017-01-09 12:00,ZGSZ 091200Z 21004MPS 6000 NSC 20/17 Q1016 NOSIG
ZGSZ,2017-01-09 13:00,ZGSZ 091300Z 19003MPS 5000 BR NSC 20/16 Q1016 NOSIG
ZGSZ,2017-01-09 14:00,ZGSZ 091400Z 14003MPS 100V160 5000 BR NSC 19/16 Q1017 NOSIG
ZGSZ,2017-01-09 15:00,ZGSZ 091500Z 13003MPS 100V160 5000 BR BKN025 19/16 Q1017 NOSIG
ZGSZ,2017-01-09 16:00,ZGSZ 091600Z 14003MPS 090V170 6000 BKN022 20/16 Q1017 NOSIG
ZGSZ,2017-01-09 17:00,ZGSZ 091700Z 14005MPS 9999 BKN022 20/15 Q1017 NOSIG
ZGSZ,2017-01-09 18:00,ZGSZ 091800Z 16004MPS 9999 BKN024 20/14 Q1017 NOSIG
ZGSZ,2017-01-09 19:00,ZGSZ 091900Z 13003MPS 9999 BKN027 20/15 Q1017 NOSIG
ZGSZ,2017-01-09 20:00,ZGSZ 092000Z 12003MPS 090V160 9999 BKN027 20/15 Q1017 NOSIG
ZGSZ,2017-01-09 21:00,ZGSZ 092100Z 10003MPS 9999 BKN027 19/15 Q1016 NOSIG
ZGSZ,2017-01-09 22:00,ZGSZ 092200Z 13003MPS 9999 BKN023 20/14 Q1017 NOSIG
ZGSZ,2017-01-09 23:00,ZGSZ 092300Z 11003MPS 060V180 9999 BKN023 20/14 Q1018 NOSIG
ZGSZ,2017-01-10 00:00,ZGSZ 100000Z 09002MPS 050V130 9999 OVC025 20/14 Q1019 NOSIG
ZGSZ,2017-01-10 01:00,ZGSZ 100100Z VRB03MPS 9999 BKN025 19/15 Q1019 NOSIG
ZGSZ,2017-01-10 02:00,ZGSZ 100200Z 12003MPS 050V150 9999 SCT025 21/15 Q1020 NOSIG
ZGSZ,2017-01-10 03:00,ZGSZ 100300Z 09003MPS 060V130 9999 SCT025 22/15 Q1019 NOSIG
ZGSZ,2017-01-10 04:00,ZGSZ 100400Z VRB02MPS 9999 FEW030 23/15 Q1018 NOSIG
ZGSZ,2017-01-10 05:00,ZGSZ 100500Z 26004MPS 9999 FEW030 23/16 Q1017 NOSIG
ZGSZ,2017-01-10 06:00,ZGSZ 100600Z 29003MPS 9999 FEW030 22/16 Q1016 NOSIG
ZGSZ,2017-01-10 07:00,ZGSZ 100700Z 24004MPS 9999 FEW033 22/16 Q1016 NOSIG
ZGSZ,2017-01-10 08:00,ZGSZ 100800Z 25004MPS 9999 FEW033 22/16 Q1016 NOSIG
ZGSZ,2017-01-10 09:00,ZGSZ 100900Z 23002MPS CAVOK 21/16 Q1016 NOSIG
ZGSZ,2017-01-10 10:00,ZGSZ 101000Z 24002MPS 8000 NSC 21/17 Q1017 NOSIG
ZGSZ,2017-01-10 11:00,ZGSZ 101100Z VRB01MPS 8000 NSC 21/15 Q1017 NOSIG
ZGSZ,2017-01-10 12:00,ZGSZ 101200Z 13003MPS 8000 NSC 21/14 Q1017 NOSIG
ZGSZ,2017-01-10 13:00,ZGSZ 101300Z 14002MPS 7000 NSC 20/15 Q1018 NOSIG
ZGSZ,2017-01-10 14:00,ZGSZ 101400Z 15005MPS 7000 NSC 20/15 Q1018 NOSIG
ZGSZ,2017-01-10 15:00,ZGSZ 101500Z 13003MPS 100V170 7000 NSC 20/15 Q1019 NOSIG
ZGSZ,2017-01-10 16:00,ZGSZ 101600Z 13003MPS 110V170 7000 NSC 19/15 Q1018 NOSIG
ZGSZ,2017-01-10 17:00,ZGSZ 101700Z 13004MPS 7000 NSC 19/15 Q1018 NOSIG
ZGSZ,2017-01-10 18:00,ZGSZ 101800Z 14003MPS 7000 NSC 19/15 Q1018 NOSIG
ZGSZ,2017-01-10 19:00,ZGSZ 101900Z 14002MPS 7000 NSC 18/15 Q1018 NOSIG
ZGSZ,2017-01-10 20:00,ZGSZ 102000Z 13003MPS 5000 BR NSC 18/15 Q1018 NOSIG
ZGSZ,2017-01-10 21:00,ZGSZ 102100Z 14004MPS 5000 BR NSC 18/15 Q1017 NOSIG
ZGSZ,2017-01-10 22:00,ZGSZ 102200Z 13004MPS 5000 BR NSC 18/14 Q1018 NOSIG
ZGSZ,2017-01-10 23:00,ZGSZ 102300Z 13002MPS 5000 BR NSC 18/14 Q1018 NOSIG
ZGSZ,2017-01-11 00:00,ZGSZ 110000Z 08003MPS 6000 BKN033 18/14 Q1019 NOSIG
ZGSZ,2017-01-11 01:00,ZGSZ 110100Z 09004MPS 6000 NSC 20/15 Q1019 NOSIG
ZGSZ,2017-01-11 02:00,ZGSZ 110200Z 07003MPS 020V140 5000 HZ FEW020 21/15 Q1020 NOSIG
ZGSZ,2017-01-11 03:00,ZGSZ 110300Z 06002MPS 020V090 5000 HZ FEW023 BKN040 22/15 Q1019 NOSIG
ZGSZ,2017-01-11 04:00,ZGSZ 110400Z VRB02MPS 5000 HZ SCT025 22/15 Q1018 NOSIG
ZGSZ,2017-01-11 05:00,ZGSZ 110500Z 26003MPS 4000 HZ FEW020 BKN036 21/16 Q1017 NOSIG
ZGSZ,2017-01-11 06:00,ZGSZ 110600Z 23003MPS 4000 HZ SCT023 BKN040 21/16 Q1016 NOSIG
ZGSZ,2017-01-11 07:00,ZGSZ 110700Z 23003MPS 4500 HZ OVC043 21/16 Q1015 NOSIG
ZGSZ,2017-01-11 08:00,ZGSZ 110800Z 22003MPS 4300 BR OVC040 21/16 Q1015 NOSIG
ZGSZ,2017-01-11 09:00,ZGSZ 110900Z 22003MPS 4300 BR BKN043 20/16 Q1016 NOSIG
ZGSZ,2017-01-11 10:00,ZGSZ 111000Z 00000MPS 4100 -SHRA BR BKN036 20/16 Q1016 NOSIG
ZGSZ,2017-01-11 11:00,ZGSZ 111100Z 10002MPS 080V140 4100 -SHRA BR FEW019 BKN036 20/16 Q1017 NOSIG
ZGSZ,2017-01-11 12:00,ZGSZ 111200Z 07003MPS 4000 HZ BKN043 20/15 Q1017 NOSIG
ZGSZ,2017-01-11 13:00,ZGSZ 111300Z 07003MPS 020V130 3300 -RA BR BKN040 20/15 Q1018 NOSIG
ZGSZ,2017-01-11 14:00,ZGSZ 111400Z 06004MPS 3500 BR BKN040 19/15 Q1018 NOSIG
ZGSZ,2017-01-11 15:00,ZGSZ 111500Z 06005MPS 3500 HZ BKN036 19/14 Q1018 NOSIG
ZGSZ,2017-01-11 16:00,ZGSZ 111600Z 05003MPS 3500 HZ BKN036 19/14 Q1018 NOSIG
ZGSZ,2017-01-11 17:00,ZGSZ 111700Z 06004MPS 3500 HZ BKN036 19/13 Q1017 NOSIG
ZGSZ,2017-01-11 18:00,ZGSZ 111800Z 06004MPS 3500 HZ BKN033 19/13 Q1017 NOSIG
ZGSZ,2017-01-11 19:00,ZGSZ 111900Z 05005MPS 3500 HZ BKN030 18/13 Q1016 NOSIG
ZGSZ,2017-01-11 20:00,ZGSZ 112000Z 07004MPS 4100 HZ BKN030 18/13 Q1016 NOSIG
ZGSZ,2017-01-11 21:00,ZGSZ 112100Z 06004MPS 290V080 4200 HZ SCT026 18/13 Q1016 NOSIG
ZGSZ,2017-01-11 22:00,ZGSZ 112200Z 06005MPS 4100 HZ SCT033 18/12 Q1016 NOSIG
ZGSZ,2017-01-11 23:00,ZGSZ 112300Z 06004MPS 4100 HZ SCT033 18/12 Q1016 NOSIG
ZGSZ,2017-01-12 00:00,ZGSZ 120000Z 05003MPS 4000 HZ BKN033 18/12 Q1016 NOSIG
ZGSZ,2017-01-12 01:00,ZGSZ 120100Z 05004MPS 3800 HZ FEW018 BKN030 18/12 Q1017 NOSIG
ZGSZ,2017-01-12 02:00,ZGSZ 120200Z 07004MPS 3800 HZ FEW018 BKN030 18/12 Q1017 NOSIG
ZGSZ,2017-01-12 03:00,ZGSZ 120300Z 04004MPS 3800 HZ FEW018 BKN030 18/12 Q1017 NOSIG
ZGSZ,2017-01-12 04:00,ZGSZ 120400Z 05005MPS 3800 HZ FEW018 BKN030 18/12 Q1016 NOSIG
ZGSZ,2017-01-12 05:00,ZGSZ 120500Z 05005MPS 3800 HZ FEW018 BKN030 18/12 Q1015 NOSIG
ZGSZ,2017-01-12 06:00,ZGSZ 120600Z 03005MPS 3800 HZ FEW018 BKN030 18/12 Q1014 NOSIG
ZGSZ,2017-01-12 07:00,ZGSZ 120700Z 03004MPS 360V070 3800 HZ FEW018 BKN030 18/12 Q1014 NOSIG
ZGSZ,2017-01-12 08:00,ZGSZ 120800Z 04005MPS 3800 HZ FEW018 BKN030 17/12 Q1014 NOSIG
ZGSZ,2017-01-12 09:00,ZGSZ 120900Z 04006MPS 6000 FEW020 OVC030 16/12 Q1014 NOSIG
ZGSZ,2017-01-12 10:00,ZGSZ 121000Z 05006MPS 5000 BR SCT015 OVC020 15/12 Q1015 NOSIG
ZGSZ,2017-01-12 11:00,ZGSZ 121100Z 02006MPS 360V060 7000 SCT013 OVC017 15/12 Q1016 NOSIG
ZGSZ,2017-01-12 12:00,ZGSZ 121200Z 04007MPS 8000 SCT011 OVC017 14/11 Q1016 NOSIG
ZGSZ,2017-01-12 13:00,ZGSZ 121300Z 04006MPS 9999 SCT011 OVC017 14/11 Q1017 NOSIG
ZGSZ,2017-01-12 14:00,ZGSZ 121400Z 05006MPS 8000 SCT011 OVC020 13/11 Q1017 BECMG AT1520 BKN013 OVC020
ZGSZ,2017-01-12 15:00,ZGSZ 121500Z 03005MPS 9999 SCT011 OVC020 13/11 Q1017 BECMG AT1520 BKN013 OVC020
ZGSZ,2017-01-12 16:00,ZGSZ 121600Z 05006MPS 8000 -RA BKN011 OVC020 13/11 Q1017 NOSIG
ZGSZ,2017-01-12 17:00,ZGSZ 121700Z 04005MPS 010V070 9999 SCT011 OVC024 13/11 Q1017 NOSIG
ZGSZ,2017-01-12 18:00,ZGSZ 121800Z 04005MPS 9999 SCT011 OVC030 13/10 Q1016 NOSIG
ZGSZ,2017-01-12 19:00,ZGSZ 121900Z 03006MPS 9999 SCT011 OVC030 13/10 Q1016 NOSIG
ZGSZ,2017-01-12 20:00,ZGSZ 122000Z 04006MPS 9999 SCT010 OVC030 12/10 Q1016 NOSIG
ZGSZ,2017-01-12 21:00,ZGSZ 122100Z 03006MPS 8000 -RA SCT010 OVC020 12/10 Q1016 NOSIG
ZGSZ,2017-01-12 22:00,ZGSZ 122200Z 06007MPS 030V090 9999 SCT013 BKN025 12/09 Q1016 BECMG AT2320 BKN011 OVC020
ZGSZ,2017-01-12 23:00,ZGSZ 122300Z 05005MPS 9999 SCT013 OVC025 12/09 Q1016 BECMG AT2320 BKN011 OVC020
ZGSZ,2017-01-13 00:00,ZGSZ 130000Z 03005MPS 9999 BKN013 OVC025 12/10 Q1017 BECMG AT0140 SCT014 OVC030
ZGSZ,2017-01-13 01:00,ZGSZ 130100Z 04006MPS 9999 -RA BKN013 OVC030 12/09 Q1017 BECMG AT0140 SCT014 OVC030
ZGSZ,2017-01-13 02:00,ZGSZ 130200Z 04005MPS 9999 BKN014 OVC033 13/09 Q1018 BECMG AT0240 SCT014 OVC030
ZGSZ,2017-01-13 03:00,ZGSZ 130300Z 04006MPS 9999 SCT016 OVC033 13/09 Q1018 NOSIG
ZGSZ,2017-01-13 04:00,ZGSZ 130400Z 04006MPS 9999 SCT022 OVC033 14/09 Q1017 NOSIG
ZGSZ,2017-01-13 05:00,ZGSZ 130500Z 04007MPS 9999 SCT023 OVC040 14/09 Q1016 NOSIG
ZGSZ,2017-01-13 06:00,ZGSZ 130600Z 05006MPS 9999 SCT023 OVC040 14/09 Q1015 NOSIG
ZGSZ,2017-01-13 07:00,ZGSZ 130700Z 03006MPS 9999 SCT023 OVC033 14/10 Q1015 NOSIG
ZGSZ,2017-01-13 08:00,ZGSZ 130800Z 04006MPS 9999 FEW020 OVC033 14/10 Q1015 NOSIG
ZGSZ,2017-01-13 09:00,ZGSZ 130900Z 04005MPS 9999 FEW020 OVC033 14/10 Q1015 NOSIG
ZGSZ,2017-01-13 10:00,ZGSZ 131000Z 02005MPS 8000 FEW015 OVC026 13/10 Q1016 NOSIG
ZGSZ,2017-01-13 11:00,ZGSZ 131100Z 04005MPS 8000 SCT014 BKN026 13/10 Q1016 NOSIG
ZGSZ,2017-01-13 12:00,ZGSZ 131200Z 04006MPS 9999 SCT014 BKN026 14/10 Q1017 NOSIG
ZGSZ,2017-01-13 13:00,ZGSZ 131300Z 04005MPS 9999 SCT014 BKN026 14/10 Q1018 NOSIG
ZGSZ,2017-01-13 14:00,ZGSZ 131400Z 05004MPS 9999 SCT014 BKN026 14/10 Q1018 NOSIG
ZGSZ,2017-01-13 15:00,ZGSZ 131500Z 05003MPS 8000 SCT014 BKN026 14/10 Q1018 NOSIG
ZGSZ,2017-01-13 16:00,ZGSZ 131600Z 05004MPS 020V080 4500 BR SCT014 BKN026 13/11 Q1018 NOSIG
ZGSZ,2017-01-13 17:00,ZGSZ 131700Z 04003MPS 4500 BR SCT014 BKN026 13/11 Q1017 NOSIG
ZGSZ,2017-01-13 18:00,ZGSZ 131800Z 05005MPS 3500 -RA BR SCT009 BKN026 13/11 Q1017 NOSIG
ZGSZ,2017-01-13 19:00,ZGSZ 131900Z 05004MPS 3500 -RA BR SCT009 BKN026 12/11 Q1017 NOSIG
ZGSZ,2017-01-13 20:00,ZGSZ 132000Z 03005MPS 4000 -RA BR BKN007 BKN026 12/11 Q1017 NOSIG
ZGSZ,2017-01-13 21:00,ZGSZ 132100Z 05005MPS 4000 -RA BR BKN007 BKN020 12/11 Q1017 NOSIG
ZGSZ,2017-01-13 22:00,ZGSZ 132200Z 04003MPS 3000 -RA BR BKN007 BKN023 12/11 Q1018 NOSIG
ZGSZ,2017-01-13 23:00,ZGSZ 132300Z 06004MPS 4000 -RA BR BKN007 BKN023 12/11 Q1018 NOSIG
ZGSZ,2017-01-14 00:00,ZGSZ 140000Z 05004MPS 6000 BKN010 BKN023 12/10 Q1019 BECMG AT0020 SCT010 BKN023
ZGSZ,2017-01-14 01:00,ZGSZ 140100Z 05005MPS 8000 SCT010 OVC023 13/10 Q1019 NOSIG
ZGSZ,2017-01-14 02:00,ZGSZ 140200Z 05005MPS 6000 -RA SCT010 OVC023 13/11 Q1020 NOSIG
ZGSZ,2017-01-14 03:00,ZGSZ 140300Z 06005MPS 9999 SCT010 OVC027 13/10 Q1019 NOSIG
ZGSZ,2017-01-14 04:00,ZGSZ 140400Z 06005MPS 030V090 9999 SCT010 OVC027 14/10 Q1019 NOSIG
ZGSZ,2017-01-14 05:00,ZGSZ 140500Z 05004MPS 020V100 9999 SCT010 OVC027 14/11 Q1018 NOSIG
ZGSZ,2017-01-14 06:00,ZGSZ 140600Z 05004MPS 020V080 9999 SCT010 OVC027 15/11 Q1017 NOSIG
ZGSZ,2017-01-14 07:00,ZGSZ 140700Z 04005MPS 9999 SCT016 OVC027 15/10 Q1017 NOSIG
ZGSZ,2017-01-14 08:00,ZGSZ 140800Z 03005MPS 9999 SCT017 OVC027 15/10 Q1017 NOSIG
ZGSZ,2017-01-14 09:00,ZGSZ 140900Z 03004MPS 8000 OVC020 14/11 Q1018 NOSIG
ZGSZ,2017-01-14 10:00,ZGSZ 141000Z 04004MPS 8000 OVC022 14/10 Q1019 NOSIG
ZGSZ,2017-01-14 11:00,ZGSZ 141100Z 04004MPS 8000 OVC021 14/10 Q1019 NOSIG
ZGSZ,2017-01-14 12:00,ZGSZ 141200Z 06005MPS 6000 -RA OVC019 14/11 Q1020 NOSIG
ZGSZ,2017-01-14 13:00,ZGSZ 141300Z 06005MPS 8000 OVC020 14/11 Q1020 NOSIG
ZGSZ,2017-01-14 14:00,ZGSZ 141400Z 06004MPS 6000 OVC020 14/10 Q1020 NOSIG
ZGSZ,2017-01-14 15:00,ZGSZ 141500Z 06004MPS 6000 OVC023 14/10 Q1020 NOSIG
ZGSZ,2017-01-14 16:00,ZGSZ 141600Z 05005MPS 6000 OVC026 13/10 Q1020 NOSIG
ZGSZ,2017-01-14 17:00,ZGSZ 141700Z 05004MPS 7000 OVC020 14/10 Q1020 NOSIG
ZGSZ,2017-01-14 18:00,ZGSZ 141800Z 06005MPS 030V090 6000 OVC021 14/10 Q1020 NOSIG
ZGSZ,2017-01-14 19:00,ZGSZ 141900Z 06006MPS 5000 BR OVC024 13/10 Q1020 NOSIG
ZGSZ,2017-01-14 20:00,ZGSZ 142000Z 06005MPS 5000 -RA BR SCT016 OVC025 13/11 Q1020 NOSIG
ZGSZ,2017-01-14 21:00,ZGSZ 142100Z 05004MPS 6000 SCT007 OVC020 13/11 Q1020 NOSIG
ZGSZ,2017-01-14 22:00,ZGSZ 142200Z 03004MPS 5000 -RA BR SCT007 OVC020 13/11 Q1021 NOSIG
ZGSZ,2017-01-14 23:00,ZGSZ 142300Z 04004MPS 010V070 6000 -RA SCT008 OVC020 13/11 Q1022 NOSIG
ZGSZ,2017-01-15 00:00,ZGSZ 150000Z 04004MPS 5000 BR SCT008 OVC020 13/11 Q1022 NOSIG
ZGSZ,2017-01-15 01:00,ZGSZ 150100Z 04004MPS 7000 -SHRA SCT008 OVC026 13/11 Q1022 NOSIG
ZGSZ,2017-01-15 02:00,ZGSZ 150200Z 05004MPS 020V080 8000 -SHRA SCT010 OVC026 13/11 Q1023 NOSIG
ZGSZ,2017-01-15 03:00,ZGSZ 150300Z 04004MPS 9999 SCT012 OVC026 14/11 Q1023 NOSIG
ZGSZ,2017-01-15 04:00,ZGSZ 150400Z 03005MPS 9999 FEW015 OVC026 14/11 Q1022 NOSIG
ZGSZ,2017-01-15 05:00,ZGSZ 150500Z 04005MPS 9999 OVC033 14/11 Q1021 NOSIG
ZGSZ,2017-01-15 06:00,ZGSZ 150600Z 03005MPS 7000 FEW010 OVC033 14/12 Q1020 NOSIG
ZGSZ,2017-01-15 07:00,ZGSZ 150700Z 05005MPS 5000 BR FEW010 OVC033 14/11 Q1019 NOSIG
ZGSZ,2017-01-15 08:00,ZGSZ 150800Z 03004MPS 4500 BR SCT011 OVC030 14/11 Q1020 NOSIG
ZGSZ,2017-01-15 09:00,ZGSZ 150900Z 05004MPS 4500 BR SCT011 OVC030 14/11 Q1020 NOSIG
ZGSZ,2017-01-15 10:00,ZGSZ 151000Z 03004MPS 5000 BR SCT013 OVC030 14/11 Q1020 NOSIG
ZGSZ,2017-01-15 11:00,ZGSZ 151100Z 04005MPS 7000 SCT013 OVC030 14/11 Q1021 NOSIG
ZGSZ,2017-01-15 12:00,ZGSZ 151200Z 04004MPS 7000 SCT013 BKN030 14/11 Q1022 NOSIG
ZGSZ,2017-01-15 13:00,ZGSZ 151300Z 05003MPS 020V080 7000 FEW015 BKN030 14/11 Q1022 NOSIG
ZGSZ,2017-01-15 14:00,ZGSZ 151400Z 03003MPS 010V070 7000 FEW015 BKN030 14/11 Q1022 NOSIG
ZGSZ,2017-01-15 15:00,ZGSZ 151500Z 05004MPS 9999 BKN030 14/11 Q1021 NOSIG
ZGSZ,2017-01-15 16:00,ZGSZ 151600Z 05004MPS 9999 BKN030 14/10 Q1021 NOSIG
ZGSZ,2017-01-15 17:00,ZGSZ 151700Z 05004MPS 9999 BKN030 14/10 Q1021 NOSIG
ZGSZ,2017-01-15 18:00,ZGSZ 151800Z 05005MPS 8000 BKN026 14/10 Q1020 NOSIG
ZGSZ,2017-01-15 19:00,ZGSZ 151900Z 06004MPS 9999 BKN026 13/10 Q1020 NOSIG
ZGSZ,2017-01-15 20:00,ZGSZ 152000Z 06005MPS 9999 BKN026 13/10 Q1020 NOSIG
ZGSZ,2017-01-15 21:00,ZGSZ 152100Z 06005MPS 9999 BKN026 13/09 Q1020 NOSIG
ZGSZ,2017-01-15 22:00,ZGSZ 152200Z 06004MPS 9999 BKN026 13/09 Q1021 NOSIG
ZGSZ,2017-01-15 23:00,ZGSZ 152300Z 04004MPS 7000 BKN026 12/10 Q1021 NOSIG
ZGSZ,2017-01-16 00:00,ZGSZ 160000Z 02004MPS 5000 BR BKN028 12/10 Q1022 NOSIG
ZGSZ,2017-01-16 01:00,ZGSZ 160100Z 07004MPS 5000 -SHRA BR FEW010 OVC030 13/11 Q1022 NOSIG
ZGSZ,2017-01-16 02:00,ZGSZ 160200Z 06005MPS 8000 BKN033 14/11 Q1023 NOSIG
ZGSZ,2017-01-16 03:00,ZGSZ 160300Z 05004MPS 8000 BKN033 14/11 Q1022 NOSIG
ZGSZ,2017-01-16 04:00,ZGSZ 160400Z 04003MPS 8000 BKN030 15/10 Q1021 NOSIG
ZGSZ,2017-01-16 05:00,ZGSZ 160500Z 02002MPS 340V040 8000 BKN030 15/10 Q1020 NOSIG
ZGSZ,2017-01-16 06:00,ZGSZ 160600Z 05003MPS 8000 BKN030 16/10 Q1019 NOSIG
ZGSZ,2017-01-16 07:00,ZGSZ 160700Z 05005MPS 7000 BKN030 16/11 Q1019 NOSIG
ZGSZ,2017-01-16 08:00,ZGSZ 160800Z 06005MPS 7000 BKN030 15/11 Q1018 NOSIG
ZGSZ,2017-01-16 09:00,ZGSZ 160900Z 07004MPS 7000 FEW018 BKN030 16/11 Q1019 NOSIG
ZGSZ,2017-01-16 10:00,ZGSZ 161000Z 06003MPS 7000 BKN026 15/11 Q1019 NOSIG
ZGSZ,2017-01-16 11:00,ZGSZ 161100Z 07004MPS 7000 SCT025 SCT050 15/11 Q1020 NOSIG
ZGSZ,2017-01-16 12:00,ZGSZ 161200Z 06003MPS 7000 BKN025 15/11 Q1020 NOSIG
ZGSZ,2017-01-16 13:00,ZGSZ 161300Z 04002MPS 6000 BKN023 15/11 Q1021 NOSIG
ZGSZ,2017-01-16 14:00,ZGSZ 161400Z 06003MPS 5000 BR BKN023 15/12 Q1021 NOSIG
ZGSZ,2017-01-16 15:00,ZGSZ 161500Z 05003MPS 4500 BR BKN025 15/12 Q1021 NOSIG
ZGSZ,2017-01-16 16:00,ZGSZ 161600Z 04003MPS 4500 BR BKN025 15/12 Q1021 NOSIG
ZGSZ,2017-01-16 17:00,ZGSZ 161700Z 05003MPS 5000 BR OVC025 14/13 Q1021 NOSIG
ZGSZ,2017-01-16 18:00,ZGSZ 161800Z 08003MPS 5000 BR NSC 15/13 Q1021 NOSIG
ZGSZ,2017-01-16 19:00,ZGSZ 161900Z 08004MPS 5000 BR BKN033 15/13 Q1020 NOSIG
ZGSZ,2017-01-16 20:00,ZGSZ 162000Z 04004MPS 5000 BR BKN033 15/12 Q1020 NOSIG
ZGSZ,2017-01-16 21:00,ZGSZ 162100Z 06004MPS 5000 BR BKN028 15/12 Q1020 NOSIG
ZGSZ,2017-01-16 22:00,ZGSZ 162200Z 09004MPS 8000 BKN033 15/12 Q1021 NOSIG
ZGSZ,2017-01-16 23:00,ZGSZ 162300Z 06003MPS 030V100 7000 BKN036 15/12 Q1021 NOSIG
ZGSZ,2017-01-17 00:00,ZGSZ 170000Z 05004MPS 7000 BKN046 15/12 Q1021 NOSIG
ZGSZ,2017-01-17 01:00,ZGSZ 170100Z 07004MPS 7000 NSC 16/12 Q1022 NOSIG
ZGSZ,2017-01-17 02:00,ZGSZ 170200Z 08003MPS 040V120 7000 NSC 17/11 Q1022 NOSIG
ZGSZ,2017-01-17 03:00,ZGSZ 170300Z VRB02MPS CAVOK 19/12 Q1022 NOSIG
ZGSZ,2017-01-17 04:00,ZGSZ 170400Z 06003MPS 010V100 CAVOK 20/12 Q1021 NOSIG
ZGSZ,2017-01-17 05:00,ZGSZ 170500Z 29002MPS 260V320 9999 BKN030 19/13 Q1020 NOSIG
ZGSZ,2017-01-17 06:00,ZGSZ 170600Z 33003MPS 7000 BKN030 19/14 Q1019 NOSIG
ZGSZ,2017-01-17 07:00,ZGSZ 170700Z 33005MPS 7000 BKN030 19/14 Q1019 NOSIG
ZGSZ,2017-01-17 08:00,ZGSZ 170800Z 32004MPS 4500 HZ BKN030 19/14 Q1019 NOSIG
ZGSZ,2017-01-17 09:00,ZGSZ 170900Z 33005MPS 5000 HZ BKN030 18/14 Q1019 NOSIG
ZGSZ,2017-01-17 10:00,ZGSZ 171000Z 33004MPS 5000 BR BKN030 18/14 Q1020 NOSIG
ZGSZ,2017-01-17 11:00,ZGSZ 171100Z 34004MPS 5000 BR BKN030 18/14 Q1021 NOSIG
ZGSZ,2017-01-17 12:00,ZGSZ 171200Z 34005MPS 6000 BKN030 17/14 Q1021 NOSIG
ZGSZ,2017-01-17 13:00,ZGSZ 171300Z 34005MPS 6000 BKN030 17/13 Q1022 NOSIG
ZGSZ,2017-01-17 14:00,ZGSZ 171400Z 33003MPS 8000 BKN030 16/13 Q1023 NOSIG
ZGSZ,2017-01-17 15:00,ZGSZ 171500Z 35003MPS 8000 BKN033 16/13 Q1023 NOSIG
ZGSZ,2017-01-17 16:00,ZGSZ 171600Z 06002MPS 5000 BR BKN033 17/13 Q1022 NOSIG
ZGSZ,2017-01-17 17:00,ZGSZ 171700Z 00000MPS 6000 BKN033 17/13 Q1022 NOSIG
ZGSZ,2017-01-17 18:00,ZGSZ 171800Z VRB01MPS 5000 BR BKN033 18/14 Q1021 NOSIG
ZGSZ,2017-01-17 19:00,ZGSZ 171900Z 35004MPS 6000 BKN033 17/14 Q1021 NOSIG
ZGSZ,2017-01-17 20:00,ZGSZ 172000Z 36003MPS 6000 BKN033 17/14 Q1021 NOSIG
ZGSZ,2017-01-17 21:00,ZGSZ 172100Z 36002MPS 6000 BKN033 17/14 Q1021 NOSIG
ZGSZ,2017-01-17 22:00,ZGSZ 172200Z 01003MPS 6000 BKN033 17/14 Q1021 NOSIG
ZGSZ,2017-01-17 23:00,ZGSZ 172300Z 05002MPS 020V080 6000 BKN033 17/14 Q1021 NOSIG
ZGSZ,2017-01-18 00:00,ZGSZ 180000Z 06003MPS 6000 BKN033 17/14 Q1022 NOSIG
ZGSZ,2017-01-18 01:00,ZGSZ 180100Z 04002MPS 6000 BKN026 18/14 Q1023 NOSIG
ZGSZ,2017-01-18 02:00,ZGSZ 180200Z 02003MPS 6000 BKN027 19/14 Q1023 NOSIG
ZGSZ,2017-01-18 03:00,ZGSZ 180300Z 02002MPS 320V070 6000 BKN027 20/14 Q1023 NOSIG
ZGSZ,2017-01-18 04:00,ZGSZ 180400Z 34003MPS 320V020 5000 HZ BKN027 20/15 Q1022 NOSIG
ZGSZ,2017-01-18 05:00,ZGSZ 180500Z 35004MPS 330V030 4000 HZ BKN031 20/15 Q1021 NOSIG
ZGSZ,2017-01-18 06:00,ZGSZ 180600Z 04003MPS 330V080 5000 HZ BKN030 21/15 Q1020 NOSIG
ZGSZ,2017-01-18 07:00,ZGSZ 180700Z 12002MPS 060V190 6000 BKN026 21/15 Q1019 NOSIG
ZGSZ,2017-01-18 08:00,ZGSZ 180800Z 08003MPS 050V120 6000 OVC030 21/15 Q1019 NOSIG
ZGSZ,2017-01-18 09:00,ZGSZ 180900Z 07002MPS 030V130 8000 OVC030 20/16 Q1020 NOSIG
ZGSZ,2017-01-18 10:00,ZGSZ 181000Z 07002MPS 020V130 7000 OVC030 20/16 Q1020 NOSIG
ZGSZ,2017-01-18 11:00,ZGSZ 181100Z 08002MPS 020V160 7000 OVC030 20/16 Q1020 NOSIG
ZGSZ,2017-01-18 12:00,ZGSZ 181200Z 08002MPS 040V110 7000 OVC030 20/16 Q1020 NOSIG
ZGSZ,2017-01-18 13:00,ZGSZ 181300Z VRB01MPS 5000 -RA BR FEW017 OVC024 20/16 Q1021 NOSIG
ZGSZ,2017-01-18 14:00,ZGSZ 181400Z 05003MPS 020V080 5000 -RA BR FEW010 BKN020 18/17 Q1021 NOSIG
ZGSZ,2017-01-18 15:00,ZGSZ 181500Z VRB03MPS 6000 FEW010 BKN020 18/16 Q1021 NOSIG
ZGSZ,2017-01-18 16:00,ZGSZ 181600Z 03002MPS 010V070 6000 FEW012 BKN020 19/16 Q1021 NOSIG
ZGSZ,2017-01-18 17:00,ZGSZ 181700Z 05003MPS 020V090 6000 FEW012 BKN020 19/16 Q1021 NOSIG
ZGSZ,2017-01-18 18:00,ZGSZ 181800Z 06003MPS 340V120 4500 -RA BR FEW009 BKN020 18/17 Q1020 NOSIG
ZGSZ,2017-01-18 19:00,ZGSZ 181900Z 07002MPS 030V120 4500 BR FEW010 BKN020 18/16 Q1020 NOSIG
ZGSZ,2017-01-18 20:00,ZGSZ 182000Z 09002MPS 060V140 3100 -RA BR FEW010 BKN020 18/16 Q1020 NOSIG
ZGSZ,2017-01-18 21:00,ZGSZ 182100Z 04002MPS 360V100 3100 -RA BR FEW010 BKN020 18/17 Q1020 NOSIG
ZGSZ,2017-01-18 22:00,ZGSZ 182200Z 06002MPS 2500 BR FEW010 BKN020 18/17 Q1020 NOSIG
ZGSZ,2017-01-18 23:00,ZGSZ 182300Z 05002MPS 2500 -RA BR FEW010 BKN020 18/16 Q1020 NOSIG
ZGSZ,2017-01-19 00:00,ZGSZ 190000Z 03003MPS 350V060 2500 BR FEW005 BKN020 18/16 Q1021 BECMG AT0140 3100
ZGSZ,2017-01-19 01:00,ZGSZ 190100Z 03003MPS 2900 BR FEW007 OVC025 19/17 Q1022 BECMG AT0140 3100
ZGSZ,2017-01-19 02:00,ZGSZ 190200Z 02003MPS 5000 BR FEW012 BKN030 20/17 Q1022 NOSIG
ZGSZ,2017-01-19 03:00,ZGSZ 190300Z 03003MPS 350V080 6000 FEW014 BKN030 21/17 Q1022 NOSIG
ZGSZ,2017-01-19 04:00,ZGSZ 190400Z 35004MPS 310V030 5000 BR FEW017 BKN036 20/16 Q1021 NOSIG
ZGSZ,2017-01-19 05:00,ZGSZ 190500Z 33005MPS 3500 BR FEW017 BKN036 21/17 Q1020 BECMG AT0620 2500
ZGSZ,2017-01-19 06:00,ZGSZ 190600Z 33005MPS 3500 BR FEW017 BKN053 21/16 Q1019 BECMG AT0620 2500
ZGSZ,2017-01-19 07:00,ZGSZ 190700Z 33005MPS 2900 BR BKN046 21/17 Q1018 BECMG AT0840 3500
ZGSZ,2017-01-19 08:00,ZGSZ 190800Z 33006MPS 4300 BR FEW046 21/17 Q1018 NOSIG
ZGSZ,2017-01-19 09:00,ZGSZ 190900Z 33006MPS 4500 BR SCT050 20/16 Q1018 NOSIG
ZGSZ,2017-01-19 10:00,ZGSZ 191000Z 34005MPS 4000 BR NSC 20/17 Q1018 NOSIG
ZGSZ,2017-01-19 11:00,ZGSZ 191100Z 01004MPS 5000 BR BKN036 20/16 Q1019 NOSIG
ZGSZ,2017-01-19 12:00,ZGSZ 191200Z 35005MPS 6000 BKN036 19/15 Q1020 NOSIG
ZGSZ,2017-01-19 13:00,ZGSZ 191300Z 35005MPS 7000 BKN036 18/14 Q1020 NOSIG
ZGSZ,2017-01-19 14:00,ZGSZ 191400Z 36005MPS 9999 BKN040 18/14 Q1021 NOSIG
ZGSZ,2017-01-19 15:00,ZGSZ 191500Z 36005MPS 9999 BKN033 18/14 Q1021 NOSIG
ZGSZ,2017-01-19 16:00,ZGSZ 191600Z 36006MPS 9999 BKN030 18/14 Q1021 NOSIG
ZGSZ,2017-01-19 17:00,ZGSZ 191700Z 01006MPS 9999 BKN026 17/13 Q1021 NOSIG
ZGSZ,2017-01-19 18:00,ZGSZ 191800Z 02005MPS 360V060 9999 BKN023 17/13 Q1022 NOSIG
ZGSZ,2017-01-19 19:00,ZGSZ 191900Z 03006MPS 9999 BKN023 17/12 Q1022 NOSIG
ZGSZ,2017-01-19 20:00,ZGSZ 192000Z 04008MPS 9999 BKN025 16/11 Q1022 NOSIG
ZGSZ,2017-01-19 21:00,ZGSZ 192100Z 04006MPS 9999 BKN026 15/10 Q1023 NOSIG
ZGSZ,2017-01-19 22:00,ZGSZ 192200Z 04006MPS 9999 BKN033 15/09 Q1023 NOSIG
ZGSZ,2017-01-19 23:00,ZGSZ 192300Z 03005MPS 9999 BKN030 14/09 Q1024 NOSIG
ZGSZ,2017-01-20 00:00,ZGSZ 200000Z 03006MPS 9999 BKN036 14/08 Q1025 NOSIG
ZGSZ,2017-01-20 01:00,ZGSZ 200100Z 04007MPS 9999 BKN036 15/08 Q1025 NOSIG
ZGSZ,2017-01-20 02:00,ZGSZ 200200Z 04007MPS 9999 BKN040 16/08 Q1026 NOSIG
ZGSZ,2017-01-20 03:00,ZGSZ 200300Z 05005MPS 020V080 CAVOK 18/08 Q1025 NOSIG
ZGSZ,2017-01-20 04:00,ZGSZ 200400Z 04005MPS 010V070 CAVOK 19/08 Q1024 NOSIG
ZGSZ,2017-01-20 05:00,ZGSZ 200500Z 02005MPS 330V070 CAVOK 19/08 Q1023 NOSIG
ZGSZ,2017-01-20 06:00,ZGSZ 200600Z 03006MPS CAVOK 20/09 Q1021 NOSIG
ZGSZ,2017-01-20 07:00,ZGSZ 200700Z 03005MPS 360V060 CAVOK 20/08 Q1021 NOSIG
ZGSZ,2017-01-20 08:00,ZGSZ 200800Z 03006MPS 360V060 CAVOK 19/08 Q1021 NOSIG
ZGSZ,2017-01-20 09:00,ZGSZ 200900Z 04006MPS CAVOK 19/08 Q1021 NOSIG
ZGSZ,2017-01-20 10:00,ZGSZ 201000Z 06006MPS CAVOK 18/08 Q1022 NOSIG
ZGSZ,2017-01-20 11:00,ZGSZ 201100Z 06007MPS CAVOK 17/07 Q1022 NOSIG
ZGSZ,2017-01-20 12:00,ZGSZ 201200Z 06006MPS CAVOK 16/07 Q1023 NOSIG
ZGSZ,2017-01-20 13:00,ZGSZ 201300Z 06007MPS CAVOK 15/07 Q1024 NOSIG
ZGSZ,2017-01-20 14:00,ZGSZ 201400Z 07006MPS CAVOK 14/06 Q1024 NOSIG
ZGSZ,2017-01-20 15:00,ZGSZ 201500Z 06007MPS CAVOK 13/06 Q1025 NOSIG
ZGSZ,2017-01-20 16:00,ZGSZ 201600Z 07007MPS 9999 BKN040 14/05 Q1025 NOSIG
ZGSZ,2017-01-20 17:00,ZGSZ 201700Z 07005MPS 9999 BKN040 14/05 Q1025 NOSIG
ZGSZ,2017-01-20 18:00,ZGSZ 201800Z 06005MPS 9999 BKN030 14/05 Q1025 NOSIG
ZGSZ,2017-01-20 19:00,ZGSZ 201900Z 07006MPS 9999 BKN033 14/05 Q1026 NOSIG
ZGSZ,2017-01-20 20:00,ZGSZ 202000Z 04006MPS 9999 BKN036 14/06 Q1026 NOSIG
ZGSZ,2017-01-20 21:00,ZGSZ 202100Z 05005MPS 9999 BKN036 13/05 Q1026 NOSIG
ZGSZ,2017-01-20 22:00,ZGSZ 202200Z 05005MPS 9999 BKN040 13/05 Q1026 NOSIG
ZGSZ,2017-01-20 23:00,ZGSZ 202300Z 05005MPS 020V080 9999 BKN036 13/05 Q1026 NOSIG
ZGSZ,2017-01-21 00:00,ZGSZ 210000Z 05005MPS 020V080 CAVOK 14/05 Q1027 NOSIG
ZGSZ,2017-01-21 01:00,ZGSZ 210100Z 07005MPS CAVOK 14/05 Q1027 NOSIG
ZGSZ,2017-01-21 02:00,ZGSZ 210200Z 07003MPS 020V110 CAVOK 15/05 Q1028 NOSIG
ZGSZ,2017-01-21 03:00,ZGSZ 210300Z VRB03MPS CAVOK 17/05 Q1027 NOSIG
ZGSZ,2017-01-21 04:00,ZGSZ 210400Z 02004MPS 7000 NSC 18/05 Q1026 NOSIG
ZGSZ,2017-01-21 05:00,ZGSZ 210500Z 33005MPS 7000 NSC 18/08 Q1025 NOSIG
ZGSZ,2017-01-21 06:00,ZGSZ 210600Z 32005MPS 7000 NSC 18/08 Q1024 NOSIG
ZGSZ,2017-01-21 07:00,ZGSZ 210700Z 32006MPS 7000 NSC 19/09 Q1023 NOSIG
ZGSZ,2017-01-21 08:00,ZGSZ 210800Z 03004MPS 010V080 7000 NSC 20/07 Q1023 NOSIG
ZGSZ,2017-01-21 09:00,ZGSZ 210900Z 03005MPS 8000 NSC 20/07 Q1023 NOSIG
ZGSZ,2017-01-21 10:00,ZGSZ 211000Z 03004MPS CAVOK 18/07 Q1024 NOSIG
ZGSZ,2017-01-21 11:00,ZGSZ 211100Z 01004MPS CAVOK 17/07 Q1024 NOSIG
ZGSZ,2017-01-21 12:00,ZGSZ 211200Z 02004MPS CAVOK 17/06 Q1025 NOSIG
ZGSZ,2017-01-21 13:00,ZGSZ 211300Z 02005MPS CAVOK 16/05 Q1026 NOSIG
ZGSZ,2017-01-21 14:00,ZGSZ 211400Z 01004MPS CAVOK 16/06 Q1026 NOSIG
ZGSZ,2017-01-21 15:00,ZGSZ 211500Z 01003MPS 7000 NSC 14/06 Q1026 NOSIG
ZGSZ,2017-01-21 16:00,ZGSZ 211600Z 04004MPS 7000 NSC 15/06 Q1026 NOSIG
ZGSZ,2017-01-21 17:00,ZGSZ 211700Z 05004MPS 7000 NSC 15/06 Q1027 NOSIG
ZGSZ,2017-01-21 18:00,ZGSZ 211800Z 05004MPS 8000 NSC 14/04 Q1027 NOSIG
ZGSZ,2017-01-21 19:00,ZGSZ 211900Z 05005MPS CAVOK 14/04 Q1027 NOSIG
ZGSZ,2017-01-21 20:00,ZGSZ 212000Z 05005MPS CAVOK 14/01 Q1027 NOSIG
ZGSZ,2017-01-21 21:00,ZGSZ 212100Z 04004MPS CAVOK 12/00 Q1027 NOSIG
ZGSZ,2017-01-21 22:00,ZGSZ 212200Z 06005MPS CAVOK 13/M02 Q1027 NOSIG
ZGSZ,2017-01-21 23:00,ZGSZ 212300Z 07003MPS CAVOK 12/M01 Q1028 NOSIG
ZGSZ,2017-01-22 00:00,ZGSZ 220000Z 06005MPS CAVOK 13/M02 Q1028 NOSIG
ZGSZ,2017-01-22 01:00,ZGSZ 220100Z 06006MPS CAVOK 14/M01 Q1029 NOSIG
ZGSZ,2017-01-22 02:00,ZGSZ 220200Z 07006MPS CAVOK 15/M00 Q1029 NOSIG
ZGSZ,2017-01-22 03:00,ZGSZ 220300Z 06005MPS 030V090 CAVOK 16/00 Q1028 NOSIG
ZGSZ,2017-01-22 04:00,ZGSZ 220400Z 07004MPS 020V100 CAVOK 18/01 Q1027 NOSIG
ZGSZ,2017-01-22 05:00,ZGSZ 220500Z 05004MPS 010V110 CAVOK 19/01 Q1026 NOSIG
ZGSZ,2017-01-22 06:00,ZGSZ 220600Z 36003MPS 320V090 CAVOK 20/02 Q1025 NOSIG
ZGSZ,2017-01-22 07:00,ZGSZ 220700Z 34006MPS CAVOK 20/04 Q1024 NOSIG
ZGSZ,2017-01-22 08:00,ZGSZ 220800Z 32005MPS CAVOK 19/05 Q1023 NOSIG
ZGSZ,2017-01-22 09:00,ZGSZ 220900Z 33005MPS CAVOK 18/06 Q1023 NOSIG
ZGSZ,2017-01-22 10:00,ZGSZ 221000Z 34005MPS CAVOK 18/07 Q1024 NOSIG
ZGSZ,2017-01-22 11:00,ZGSZ 221100Z 01003MPS CAVOK 16/04 Q1024 NOSIG
ZGSZ,2017-01-22 12:00,ZGSZ 221200Z 03002MPS CAVOK 16/04 Q1025 NOSIG
ZGSZ,2017-01-22 13:00,ZGSZ 221300Z 14002MPS CAVOK 15/06 Q1025 NOSIG
ZGSZ,2017-01-22 14:00,ZGSZ 221400Z 15002MPS CAVOK 15/05 Q1025 NOSIG
ZGSZ,2017-01-22 15:00,ZGSZ 221500Z 03001MPS CAVOK 15/05 Q1026 NOSIG
ZGSZ,2017-01-22 16:00,ZGSZ 221600Z 14002MPS CAVOK 15/06 Q1026 NOSIG
ZGSZ,2017-01-22 17:00,ZGSZ 221700Z 14002MPS CAVOK 15/08 Q1026 NOSIG
ZGSZ,2017-01-22 18:00,ZGSZ 221800Z 06002MPS CAVOK 14/08 Q1026 NOSIG
ZGSZ,2017-01-22 19:00,ZGSZ 221900Z 08003MPS CAVOK 14/07 Q1026 NOSIG
ZGSZ,2017-01-22 20:00,ZGSZ 222000Z 07003MPS CAVOK 13/08 Q1026 NOSIG
ZGSZ,2017-01-22 21:00,ZGSZ 222100Z 06004MPS CAVOK 13/07 Q1025 NOSIG
ZGSZ,2017-01-22 22:00,ZGSZ 222200Z 05004MPS CAVOK 13/05 Q1026 NOSIG
ZGSZ,2017-01-22 23:00,ZGSZ 222300Z 06004MPS CAVOK 13/04 Q1026 NOSIG
ZGSZ,2017-01-23 00:00,ZGSZ 230000Z 06003MPS CAVOK 14/04 Q1027 NOSIG
ZGSZ,2017-01-23 01:00,ZGSZ 230100Z 08004MPS CAVOK 15/04 Q1028 NOSIG
ZGSZ,2017-01-23 02:00,ZGSZ 230200Z 09004MPS CAVOK 16/03 Q1028 NOSIG
ZGSZ,2017-01-23 03:00,ZGSZ 230300Z 04003MPS 360V100 CAVOK 18/04 Q1028 NOSIG
ZGSZ,2017-01-23 04:00,ZGSZ 230400Z VRB03MPS CAVOK 20/05 Q1027 NOSIG
ZGSZ,2017-01-23 05:00,ZGSZ 230500Z 27004MPS 220V310 CAVOK 19/06 Q1025 NOSIG
ZGSZ,2017-01-23 06:00,ZGSZ 230600Z 31004MPS 270V360 CAVOK 21/06 Q1024 NOSIG
ZGSZ,2017-01-23 07:00,ZGSZ 230700Z 29005MPS CAVOK 20/07 Q1023 NOSIG
ZGSZ,2017-01-23 08:00,ZGSZ 230800Z 30004MPS CAVOK 20/08 Q1023 NOSIG
ZGSZ,2017-01-23 09:00,ZGSZ 230900Z 32004MPS CAVOK 20/08 Q1023 NOSIG
ZGSZ,2017-01-23 10:00,ZGSZ 231000Z 22004MPS CAVOK 18/10 Q1023 NOSIG
ZGSZ,2017-01-23 11:00,ZGSZ 231100Z 21003MPS CAVOK 17/11 Q1024 NOSIG
ZGSZ,2017-01-23 12:00,ZGSZ 231200Z 19002MPS 8000 NSC 16/11 Q1024 NOSIG
ZGSZ,2017-01-23 13:00,ZGSZ 231300Z 14005MPS 8000 FEW040 16/10 Q1025 NOSIG
ZGSZ,2017-01-23 14:00,ZGSZ 231400Z 14004MPS 8000 FEW040 16/10 Q1025 NOSIG
ZGSZ,2017-01-23 15:00,ZGSZ 231500Z 14005MPS 9999 FEW040 16/10 Q1026 NOSIG
ZGSZ,2017-01-23 16:00,ZGSZ 231600Z 14004MPS 9999 FEW040 15/11 Q1025 NOSIG
ZGSZ,2017-01-23 17:00,ZGSZ 231700Z 14003MPS 9999 FEW040 15/11 Q1025 NOSIG
ZGSZ,2017-01-23 18:00,ZGSZ 231800Z 11003MPS 070V140 9999 FEW040 16/11 Q1025 NOSIG
ZGSZ,2017-01-23 19:00,ZGSZ 231900Z 08002MPS 030V130 9999 FEW040 15/10 Q1025 NOSIG
ZGSZ,2017-01-23 20:00,ZGSZ 232000Z 06003MPS CAVOK 15/10 Q1025 NOSIG
ZGSZ,2017-01-23 21:00,ZGSZ 232100Z 08004MPS CAVOK 15/10 Q1024 NOSIG
ZGSZ,2017-01-23 22:00,ZGSZ 232200Z 08003MPS 060V140 CAVOK 15/10 Q1025 NOSIG
ZGSZ,2017-01-23 23:00,ZGSZ 232300Z 07003MPS CAVOK 15/09 Q1025 NOSIG
ZGSZ,2017-01-24 00:00,ZGSZ 240000Z 09002MPS CAVOK 15/09 Q1026 NOSIG
ZGSZ,2017-01-24 01:00,ZGSZ 240100Z 07003MPS CAVOK 16/09 Q1026 NOSIG
ZGSZ,2017-01-24 02:00,ZGSZ 240200Z 07004MPS 030V110 CAVOK 17/09 Q1027 NOSIG
ZGSZ,2017-01-24 03:00,ZGSZ 240300Z 05004MPS CAVOK 18/09 Q1026 NOSIG
ZGSZ,2017-01-24 04:00,ZGSZ 240400Z VRB03MPS CAVOK 20/09 Q1026 NOSIG
ZGSZ,2017-01-24 05:00,ZGSZ 240500Z 06003MPS 010V110 CAVOK 21/09 Q1024 NOSIG
ZGSZ,2017-01-24 06:00,ZGSZ 240600Z 04004MPS 010V080 CAVOK 22/09 Q1023 NOSIG
ZGSZ,2017-01-24 07:00,ZGSZ 240700Z 03003MPS 350V060 CAVOK 22/09 Q1023 NOSIG
ZGSZ,2017-01-24 08:00,ZGSZ 240800Z 31004MPS CAVOK 20/11 Q1023 NOSIG
ZGSZ,2017-01-24 09:00,ZGSZ 240900Z 24002MPS CAVOK 20/10 Q1023 NOSIG
ZGSZ,2017-01-24 10:00,ZGSZ 241000Z 20004MPS CAVOK 19/11 Q1023 NOSIG
ZGSZ,2017-01-24 11:00,ZGSZ 241100Z 20005MPS CAVOK 18/13 Q1024 BECMG TL1230 13005MPS
ZGSZ,2017-01-24 12:00,ZGSZ 241200Z 19004MPS CAVOK 18/12 Q1025 NOSIG
ZGSZ,2017-01-24 13:00,ZGSZ 241300Z 14004MPS CAVOK 17/11 Q1025 NOSIG
ZGSZ,2017-01-24 14:00,ZGSZ 241400Z 18002MPS CAVOK 16/11 Q1026 NOSIG
ZGSZ,2017-01-24 15:00,ZGSZ 241500Z 13003MPS 080V180 CAVOK 17/11 Q1026 NOSIG
ZGSZ,2017-01-24 16:00,ZGSZ 241600Z VRB02MPS CAVOK 17/11 Q1027 NOSIG
ZGSZ,2017-01-24 17:00,ZGSZ 241700Z 07002MPS 020V120 CAVOK 17/11 Q1027 NOSIG
ZGSZ,2017-01-24 18:00,ZGSZ 241800Z 11001MPS CAVOK 16/12 Q1026 NOSIG
ZGSZ,2017-01-24 19:00,ZGSZ 241900Z 14002MPS CAVOK 16/11 Q1026 NOSIG
ZGSZ,2017-01-24 20:00,ZGSZ 242000Z 12002MPS CAVOK 16/11 Q1026 NOSIG
ZGSZ,2017-01-24 21:00,ZGSZ 242100Z 09002MPS CAVOK 16/11 Q1025 NOSIG
ZGSZ,2017-01-24 22:00,ZGSZ 242200Z 07001MPS CAVOK 15/11 Q1026 NOSIG
ZGSZ,2017-01-24 23:00,ZGSZ 242300Z 07001MPS CAVOK 15/11 Q1026 NOSIG
ZGSZ,2017-01-25 00:00,ZGSZ 250000Z 05002MPS 010V090 CAVOK 16/12 Q1027 NOSIG
ZGSZ,2017-01-25 01:00,ZGSZ 250100Z 08002MPS 050V120 CAVOK 17/11 Q1027 NOSIG
ZGSZ,2017-01-25 02:00,ZGSZ 250200Z 07002MPS 030V120 CAVOK 19/11 Q1027 NOSIG
ZGSZ,2017-01-25 03:00,ZGSZ 250300Z 04004MPS 360V060 CAVOK 21/11 Q1027 NOSIG
ZGSZ,2017-01-25 04:00,ZGSZ 250400Z 32003MPS 290V020 CAVOK 20/12 Q1026 NOSIG
ZGSZ,2017-01-25 05:00,ZGSZ 250500Z 03005MPS 340V070 CAVOK 23/11 Q1024 NOSIG
ZGSZ,2017-01-25 06:00,ZGSZ 250600Z 06004MPS 020V110 CAVOK 24/10 Q1023 BECMG AT0740 32005MPS
ZGSZ,2017-01-25 07:00,ZGSZ 250700Z 03005MPS CAVOK 24/10 Q1023 BECMG AT0840 30005MPS
ZGSZ,2017-01-25 08:00,ZGSZ 250800Z 34003MPS CAVOK 23/12 Q1023 NOSIG
ZGSZ,2017-01-25 09:00,ZGSZ 250900Z 32003MPS CAVOK 22/13 Q1023 NOSIG
ZGSZ,2017-01-25 10:00,ZGSZ 251000Z 20005MPS CAVOK 19/15 Q1023 NOSIG
ZGSZ,2017-01-25 11:00,ZGSZ 251100Z 19003MPS CAVOK 18/14 Q1024 NOSIG
ZGSZ,2017-01-25 12:00,ZGSZ 251200Z 19003MPS CAVOK 18/14 Q1024 NOSIG
ZGSZ,2017-01-25 13:00,ZGSZ 251300Z 16003MPS 120V200 CAVOK 18/14 Q1025 NOSIG
ZGSZ,2017-01-25 14:00,ZGSZ 251400Z 13003MPS CAVOK 18/13 Q1025 NOSIG
ZGSZ,2017-01-25 15:00,ZGSZ 251500Z 13002MPS 090V160 CAVOK 17/12 Q1026 NOSIG
ZGSZ,2017-01-25 16:00,ZGSZ 251600Z 14002MPS CAVOK 17/12 Q1025 NOSIG
ZGSZ,2017-01-25 17:00,ZGSZ 251700Z 15003MPS CAVOK 16/12 Q1025 NOSIG
ZGSZ,2017-01-25 18:00,ZGSZ 251800Z VRB01MPS CAVOK 16/12 Q1025 NOSIG
ZGSZ,2017-01-25 19:00,ZGSZ 251900Z 06002MPS CAVOK 15/12 Q1024 NOSIG
ZGSZ,2017-01-25 20:00,ZGSZ 252000Z 07002MPS 050V110 CAVOK 15/12 Q1024 NOSIG
ZGSZ,2017-01-25 21:00,ZGSZ 252100Z 08003MPS CAVOK 15/12 Q1025 NOSIG
ZGSZ,2017-01-25 22:00,ZGSZ 252200Z 07003MPS CAVOK 15/08 Q1025 NOSIG
ZGSZ,2017-01-25 23:00,ZGSZ 252300Z 07003MPS CAVOK 14/07 Q1026 NOSIG
ZGSZ,2017-01-26 00:00,ZGSZ 260000Z 07004MPS CAVOK 15/07 Q1026 NOSIG
ZGSZ,2017-01-26 01:00,ZGSZ 260100Z 06004MPS CAVOK 16/07 Q1027 NOSIG
ZGSZ,2017-01-26 02:00,ZGSZ 260200Z 10003MPS 050V120 CAVOK 17/06 Q1027 NOSIG
ZGSZ,2017-01-26 03:00,ZGSZ 260300Z 06003MPS 010V170 CAVOK 19/06 Q1026 NOSIG
ZGSZ,2017-01-26 04:00,ZGSZ 260400Z 06002MPS 340V140 CAVOK 21/06 Q1025 NOSIG
ZGSZ,2017-01-26 05:00,ZGSZ 260500Z VRB03MPS CAVOK 21/08 Q1024 BECMG AT0530 27005MPS
ZGSZ,2017-01-26 06:00,ZGSZ 260600Z VRB04MPS CAVOK 22/07 Q1022 BECMG AT0630 27005MPS
ZGSZ,2017-01-26 07:00,ZGSZ 260700Z 33004MPS CAVOK 21/08 Q1022 NOSIG
ZGSZ,2017-01-26 08:00,ZGSZ 260800Z 32005MPS CAVOK 20/09 Q1021 NOSIG
ZGSZ,2017-01-26 09:00,ZGSZ 260900Z 32003MPS CAVOK 20/09 Q1021 NOSIG
ZGSZ,2017-01-26 10:00,ZGSZ 261000Z 21006MPS CAVOK 18/11 Q1021 NOSIG
ZGSZ,2017-01-26 11:00,ZGSZ 261100Z 21005MPS 8000 NSC 17/12 Q1022 NOSIG
ZGSZ,2017-01-26 12:00,ZGSZ 261200Z 20004MPS CAVOK 17/12 Q1023 NOSIG
ZGSZ,2017-01-26 13:00,ZGSZ 261300Z 14004MPS CAVOK 16/11 Q1023 NOSIG
ZGSZ,2017-01-26 14:00,ZGSZ 261400Z 14004MPS CAVOK 15/10 Q1023 NOSIG
ZGSZ,2017-01-26 15:00,ZGSZ 261500Z 14004MPS CAVOK 15/11 Q1023 NOSIG
ZGSZ,2017-01-26 16:00,ZGSZ 261600Z 14003MPS CAVOK 15/11 Q1024 NOSIG
ZGSZ,2017-01-26 17:00,ZGSZ 261700Z 14003MPS 100V200 CAVOK 15/10 Q1023 NOSIG
ZGSZ,2017-01-26 18:00,ZGSZ 261800Z 13003MPS 100V170 CAVOK 15/11 Q1023 NOSIG
ZGSZ,2017-01-26 19:00,ZGSZ 261900Z VRB01MPS CAVOK 14/11 Q1024 NOSIG
ZGSZ,2017-01-26 20:00,ZGSZ 262000Z 05002MPS CAVOK 13/11 Q1024 NOSIG
ZGSZ,2017-01-26 21:00,ZGSZ 262100Z 06001MPS CAVOK 13/11 Q1024 NOSIG
ZGSZ,2017-01-26 22:00,ZGSZ 262200Z 09003MPS CAVOK 14/11 Q1025 NOSIG
ZGSZ,2017-01-26 23:00,ZGSZ 262300Z 09003MPS CAVOK 13/11 Q1025 NOSIG
ZGSZ,2017-01-27 00:00,ZGSZ 270000Z 07002MPS 340V110 CAVOK 14/11 Q1025 NOSIG
ZGSZ,2017-01-27 01:00,ZGSZ 270100Z 09003MPS 030V140 CAVOK 16/10 Q1025 NOSIG
ZGSZ,2017-01-27 02:00,ZGSZ 270200Z 05004MPS 020V080 CAVOK 18/10 Q1025 NOSIG
ZGSZ,2017-01-27 03:00,ZGSZ 270300Z 08003MPS 020V160 CAVOK 19/10 Q1025 BECMG AT0440 30005MPS
ZGSZ,2017-01-27 04:00,ZGSZ 270400Z VRB03G09MPS CAVOK 20/09 Q1024 BECMG AT0540 30005MPS
ZGSZ,2017-01-27 05:00,ZGSZ 270500Z 06003MPS 350V120 CAVOK 22/08 Q1022 BECMG AT0540 30005MPS
ZGSZ,2017-01-27 06:00,ZGSZ 270600Z 04004MPS 340V120 CAVOK 24/07 Q1021 NOSIG
ZGSZ,2017-01-27 07:00,ZGSZ 270700Z 04003MPS 360V060 CAVOK 24/03 Q1020 BECMG AT0840 27005MPS
ZGSZ,2017-01-27 08:00,ZGSZ 270800Z 06004MPS 020V090 CAVOK 24/03 Q1019 NOSIG
ZGSZ,2017-01-27 09:00,ZGSZ 270900Z 05003MPS 020V080 CAVOK 23/03 Q1019 NOSIG
ZGSZ,2017-01-27 10:00,ZGSZ 271000Z VRB01MPS CAVOK 21/03 Q1020 NOSIG
ZGSZ,2017-01-27 11:00,ZGSZ 271100Z 14002MPS CAVOK 19/04 Q1020 NOSIG
ZGSZ,2017-01-27 12:00,ZGSZ 271200Z 18004MPS CAVOK 17/12 Q1020 NOSIG
ZGSZ,2017-01-27 13:00,ZGSZ 271300Z 18004MPS CAVOK 16/13 Q1021 NOSIG
ZGSZ,2017-01-27 14:00,ZGSZ 271400Z 17003MPS CAVOK 16/10 Q1021 NOSIG
ZGSZ,2017-01-27 15:00,ZGSZ 271500Z 14003MPS CAVOK 16/10 Q1021 NOSIG
ZGSZ,2017-01-27 16:00,ZGSZ 271600Z 16003MPS CAVOK 15/10 Q1021 NOSIG
ZGSZ,2017-01-27 17:00,ZGSZ 271700Z 00000MPS CAVOK 15/10 Q1020 NOSIG
ZGSZ,2017-01-27 18:00,ZGSZ 271800Z 16001MPS CAVOK 14/10 Q1020 NOSIG
ZGSZ,2017-01-27 19:00,ZGSZ 271900Z 13001MPS CAVOK 14/10 Q1020 NOSIG
ZGSZ,2017-01-27 20:00,ZGSZ 272000Z 00000MPS CAVOK 15/11 Q1019 NOSIG
ZGSZ,2017-01-27 21:00,ZGSZ 272100Z 00000MPS CAVOK 14/11 Q1019 NOSIG
ZGSZ,2017-01-27 22:00,ZGSZ 272200Z 00000MPS CAVOK 15/11 Q1019 NOSIG
ZGSZ,2017-01-27 23:00,ZGSZ 272300Z 12003MPS CAVOK 15/11 Q1019 NOSIG
ZGSZ,2017-01-28 00:00,ZGSZ 280000Z 01002MPS CAVOK 15/11 Q1019 NOSIG
ZGSZ,2017-01-28 01:00,ZGSZ 280100Z 00000MPS 9999 BKN050 17/12 Q1020 NOSIG
ZGSZ,2017-01-28 02:00,ZGSZ 280200Z VRB02MPS CAVOK 19/12 Q1020 NOSIG
ZGSZ,2017-01-28 03:00,ZGSZ 280300Z 29002MPS 250V340 CAVOK 19/12 Q1020 NOSIG
ZGSZ,2017-01-28 04:00,ZGSZ 280400Z 30003MPS 270V330 9999 BKN050 19/13 Q1019 NOSIG
ZGSZ,2017-01-28 05:00,ZGSZ 280500Z 31003MPS CAVOK 21/13 Q1018 NOSIG
ZGSZ,2017-01-28 06:00,ZGSZ 280600Z 27003MPS 8000 BKN040 20/13 Q1017 NOSIG
ZGSZ,2017-01-28 07:00,ZGSZ 280700Z 22003MPS 9999 BKN040 19/13 Q1016 NOSIG
ZGSZ,2017-01-28 08:00,ZGSZ 280800Z 18004MPS 140V200 9999 OVC050 19/13 Q1016 BECMG TL0900 11005MPS
ZGSZ,2017-01-28 09:00,ZGSZ 280900Z 15005MPS 3200 -RA BR OVC030 16/14 Q1016 BECMG AT0935 2100
ZGSZ,2017-01-28 10:00,ZGSZ 281000Z 07002MPS 360V160 2900 -RA BR OVC030 16/15 Q1016 BECMG FM1020 4000
ZGSZ,2017-01-28 11:00,ZGSZ 281100Z 11002MPS 080V140 7000 OVC030 17/15 Q1017 NOSIG
ZGSZ,2017-01-28 12:00,ZGSZ 281200Z VRB01MPS 8000 OVC030 17/15 Q1017 NOSIG
ZGSZ,2017-01-28 13:00,ZGSZ 281300Z 08003MPS 050V110 9999 OVC030 17/14 Q1017 NOSIG
ZGSZ,2017-01-28 14:00,ZGSZ 281400Z 11002MPS 060V160 9999 OVC030 17/13 Q1017 NOSIG
ZGSZ,2017-01-28 15:00,ZGSZ 281500Z 06002MPS 030V100 8000 OVC030 17/14 Q1017 NOSIG
ZGSZ,2017-01-28 16:00,ZGSZ 281600Z VRB01MPS 8000 SCT030 17/14 Q1016 NOSIG
ZGSZ,2017-01-28 17:00,ZGSZ 281700Z 04002MPS 010V110 7000 FEW030 17/14 Q1016 NOSIG
ZGSZ,2017-01-28 18:00,ZGSZ 281800Z 06003MPS 6000 FEW026 17/14 Q1016 NOSIG
ZGSZ,2017-01-28 19:00,ZGSZ 281900Z 04003MPS 6000 FEW026 17/14 Q1015 NOSIG
ZGSZ,2017-01-28 20:00,ZGSZ 282000Z 06003MPS 6000 NSC 17/14 Q1015 NOSIG
ZGSZ,2017-01-28 21:00,ZGSZ 282100Z 06003MPS 6000 NSC 18/14 Q1015 NOSIG
ZGSZ,2017-01-28 22:00,ZGSZ 282200Z 04003MPS 6000 NSC 18/14 Q1015 NOSIG
ZGSZ,2017-01-28 23:00,ZGSZ 282300Z 04003MPS 6000 NSC 18/14 Q1016 NOSIG
ZGSZ,2017-01-29 00:00,ZGSZ 290000Z 04003MPS 6000 BKN040 18/15 Q1016 NOSIG
ZGSZ,2017-01-29 01:00,ZGSZ 290100Z 06005MPS 5000 BR BKN017 18/14 Q1017 NOSIG
ZGSZ,2017-01-29 02:00,ZGSZ 290200Z 05004MPS 010V080 6000 SCT024 19/15 Q1018 NOSIG
ZGSZ,2017-01-29 03:00,ZGSZ 290300Z 08002MPS 8000 FEW027 20/16 Q1017 NOSIG
ZGSZ,2017-01-29 04:00,ZGSZ 290400Z 04002MPS 350V140 CAVOK 22/16 Q1017 NOSIG
ZGSZ,2017-01-29 05:00,ZGSZ 290500Z 34003MPS 7000 FEW020 21/17 Q1016 NOSIG
ZGSZ,2017-01-29 06:00,ZGSZ 290600Z 33004MPS 6000 BKN050 20/17 Q1015 NOSIG
ZGSZ,2017-01-29 07:00,ZGSZ 290700Z 32002MPS 3000 -SHRA BR BKN043 19/18 Q1015 BECMG AT0730 2500
ZGSZ,2017-01-29 08:00,ZGSZ 290800Z 31002MPS 2900 BR BKN043 20/18 Q1015 BECMG AT0930 3200
ZGSZ,2017-01-29 09:00,ZGSZ 290900Z 31004MPS 280V360 2800 BR SCT016 OVC033 19/17 Q1016 BECMG AT0940 3200 BR
ZGSZ,2017-01-29 10:00,ZGSZ 291000Z 00000MPS 3200 BR SCT016 19/17 Q1016 BECMG TL1130 BKN014
ZGSZ,2017-01-29 11:00,ZGSZ 291100Z 34003MPS 3100 BR SCT016 BKN030 19/17 Q1016 BECMG TL1130 BKN014
ZGSZ,2017-01-29 12:00,ZGSZ 291200Z 02002MPS 3100 BR BKN014 BKN040 19/17 Q1017 BECMG TL1330 2800
ZGSZ,2017-01-29 13:00,ZGSZ 291300Z 01001MPS 3100 BR BKN014 BKN043 19/17 Q1017 BECMG TL1330 2800 BR BKN017
ZGSZ,2017-01-29 14:00,ZGSZ 291400Z 00000MPS 2800 BR BKN022 19/17 Q1017 NOSIG
ZGSZ,2017-01-29 15:00,ZGSZ 291500Z 00000MPS 3000 BR BKN022 19/17 Q1017 NOSIG
ZGSZ,2017-01-29 16:00,ZGSZ 291600Z 05002MPS 3500 BR BKN030 19/17 Q1018 NOSIG
ZGSZ,2017-01-29 17:00,ZGSZ 291700Z 00000MPS 3500 -RA BR BKN022 19/17 Q1018 NOSIG
ZGSZ,2017-01-29 18:00,ZGSZ 291800Z VRB01MPS 2300 -RA BR SCT007 BKN017 19/18 Q1017 RERA NOSIG
ZGSZ,2017-01-29 19:00,ZGSZ 291900Z 34003MPS 1800 BR SCT005 BKN017 19/18 Q1017 NOSIG
ZGSZ,2017-01-29 20:00,ZGSZ 292000Z 01001MPS 1600 BR SCT005 BKN026 19/18 Q1017 NOSIG
ZGSZ,2017-01-29 21:00,ZGSZ 292100Z 03002MPS 350V070 1600 BR SCT005 BKN026 19/18 Q1017 NOSIG
ZGSZ,2017-01-29 22:00,ZGSZ 292200Z 34003MPS 1600 BR SCT010 SCT030 18/17 Q1017 NOSIG
ZGSZ,2017-01-29 23:00,ZGSZ 292300Z 03002MPS 1700 BR SCT010 BKN030 19/18 Q1018 BECMG TL0050 BKN011 BKN030
ZGSZ,2017-01-30 00:00,ZGSZ 300000Z 06002MPS 010V090 2000 BR SCT013 OVC030 19/18 Q1018 BECMG TL0130 3100 BR BKN011 BKN030
ZGSZ,2017-01-30 01:00,ZGSZ 300100Z 04002MPS 010V070 2500 BR BKN013 BKN030 20/18 Q1019 BECMG AT0130 3100
ZGSZ,2017-01-30 02:00,ZGSZ 300200Z 04003MPS 3200 BR BKN014 BKN030 21/18 Q1020 BECMG AT0330 SCT014 BKN030
ZGSZ,2017-01-30 03:00,ZGSZ 300300Z 05003MPS 360V080 3100 BR BKN014 BKN030 22/18 Q1020 BECMG AT0430 2500 SCT014 BKN030
ZGSZ,2017-01-30 04:00,ZGSZ 300400Z 32004MPS 3500 BR SCT014 BKN030 23/19 Q1019 BECMG AT0430 2500
ZGSZ,2017-01-30 05:00,ZGSZ 300500Z 33005MPS 4500 BR SCT014 BKN030 22/18 Q1018 NOSIG
ZGSZ,2017-01-30 06:00,ZGSZ 300600Z 34005MPS 8000 FEW014 BKN027 23/18 Q1017 NOSIG
ZGSZ,2017-01-30 07:00,ZGSZ 300700Z 02006MPS 9999 FEW014 BKN027 23/16 Q1016 NOSIG
ZGSZ,2017-01-30 08:00,ZGSZ 300800Z 04006MPS 9999 FEW016 24/15 Q1016 NOSIG
ZGSZ,2017-01-30 09:00,ZGSZ 300900Z 07004MPS 030V100 CAVOK 23/15 Q1017 NOSIG
ZGSZ,2017-01-30 10:00,ZGSZ 301000Z 07005MPS 9999 BKN050 22/15 Q1018 NOSIG
ZGSZ,2017-01-30 11:00,ZGSZ 301100Z 06005MPS 9999 BKN043 22/15 Q1018 NOSIG
ZGSZ,2017-01-30 12:00,ZGSZ 301200Z 06004MPS 9999 BKN040 21/15 Q1019 NOSIG
ZGSZ,2017-01-30 13:00,ZGSZ 301300Z 06002MPS 020V090 7000 -RA OVC033 19/15 Q1019 RERA NOSIG
ZGSZ,2017-01-30 14:00,ZGSZ 301400Z 03002MPS 9999 -RA OVC027 18/16 Q1019 NOSIG
ZGSZ,2017-01-30 15:00,ZGSZ 301500Z 08004MPS 9999 -RA OVC027 18/15 Q1019 NOSIG
ZGSZ,2017-01-30 16:00,ZGSZ 301600Z 09003MPS 060V120 9999 SCT017 OVC027 18/15 Q1019 NOSIG
ZGSZ,2017-01-30 17:00,ZGSZ 301700Z 10004MPS 060V120 9999 SCT013 OVC022 18/15 Q1019 NOSIG
ZGSZ,2017-01-30 18:00,ZGSZ 301800Z 08004MPS 5000 -RA BR BKN010 OVC022 16/14 Q1019 NOSIG
ZGSZ,2017-01-30 19:00,ZGSZ 301900Z 08005MPS 9999 BKN013 OVC022 16/13 Q1019 NOSIG
ZGSZ,2017-01-30 20:00,ZGSZ 302000Z 07005MPS 9999 OVC016 16/12 Q1019 NOSIG
ZGSZ,2017-01-30 21:00,ZGSZ 302100Z 07004MPS 9999 OVC018 16/12 Q1019 NOSIG
ZGSZ,2017-01-30 22:00,ZGSZ 302200Z 07004MPS 9999 OVC018 16/11 Q1019 NOSIG
ZGSZ,2017-01-30 23:00,ZGSZ 302300Z 06004MPS 9999 BKN018 OVC033 16/11 Q1020 NOSIG
ZGSZ,2017-01-31 00:00,ZGSZ 310000Z 06004MPS 9999 BKN016 OVC030 16/11 Q1021 BECMG AT0050 BKN014 OVC033
ZGSZ,2017-01-31 01:00,ZGSZ 310100Z 06005MPS 9999 BKN014 OVC030 16/11 Q1022 BECMG AT0230 BKN017 OVC033
ZGSZ,2017-01-31 02:00,ZGSZ 310200Z 05004MPS 9999 BKN014 OVC030 16/11 Q1023 BECMG AT0230 BKN017 OVC033
ZGSZ,2017-01-31 03:00,ZGSZ 310300Z 06005MPS 9999 BKN020 OVC030 16/11 Q1022 NOSIG
ZGSZ,2017-01-31 04:00,ZGSZ 310400Z 06005MPS 9999 SCT024 OVC040 17/11 Q1021 NOSIG
ZGSZ,2017-01-31 05:00,ZGSZ 310500Z 04005MPS 360V070 9999 SCT024 OVC040 18/11 Q1020 NOSIG
ZGSZ,2017-01-31 06:00,ZGSZ 310600Z 03004MPS 9999 SCT024 OVC040 18/11 Q1019 NOSIG
ZGSZ,2017-01-31 07:00,ZGSZ 310700Z 03004MPS 360V070 9999 SCT024 OVC040 18/11 Q1019 NOSIG
ZGSZ,2017-01-31 08:00,ZGSZ 310800Z 07004MPS 9999 OVC040 18/11 Q1018 NOSIG
ZGSZ,2017-01-31 09:00,ZGSZ 310900Z 06004MPS 9999 BKN040 18/11 Q1019 NOSIG
ZGSZ,2017-01-31 10:00,ZGSZ 311000Z 06005MPS CAVOK 18/10 Q1019 NOSIG
ZGSZ,2017-01-31 11:00,ZGSZ 311100Z 05003MPS CAVOK 17/11 Q1020 NOSIG
ZGSZ,2017-01-31 12:00,ZGSZ 311200Z 07005MPS CAVOK 17/11 Q1020 NOSIG
ZGSZ,2017-01-31 13:00,ZGSZ 311300Z 05003MPS 020V080 CAVOK 17/11 Q1021 NOSIG
ZGSZ,2017-01-31 14:00,ZGSZ 311400Z 07004MPS CAVOK 17/11 Q1021 NOSIG
ZGSZ,2017-01-31 15:00,ZGSZ 311500Z 07004MPS 040V100 CAVOK 17/10 Q1021 NOSIG
ZGSZ,2017-01-31 16:00,ZGSZ 311600Z 04002MPS CAVOK 16/11 Q1021 NOSIG
ZGSZ,2017-01-31 17:00,ZGSZ 311700Z 04002MPS CAVOK 16/11 Q1021 NOSIG
ZGSZ,2017-01-31 18:00,ZGSZ 311800Z 03003MPS CAVOK 16/10 Q1021 NOSIG
ZGSZ,2017-01-31 19:00,ZGSZ 311900Z 03002MPS CAVOK 16/11 Q1021 NOSIG
ZGSZ,2017-01-31 20:00,ZGSZ 312000Z 03004MPS 9999 BKN046 16/11 Q1020 NOSIG
ZGSZ,2017-01-31 21:00,ZGSZ 312100Z 04005MPS 9999 BKN046 16/10 Q1021 NOSIG
ZGSZ,2017-01-31 22:00,ZGSZ 312200Z 02003MPS 9999 BKN050 16/10 Q1021 NOSIG
ZGSZ,2017-01-31 23:00,ZGSZ 312300Z 07004MPS CAVOK 16/10 Q1021 NOSIG
ZGSZ,2017-02-01 00:00,ZGSZ 010000Z 05004MPS 9999 BKN053 16/10 Q1022 NOSIG
ZGSZ,2017-02-01 01:00,ZGSZ 010100Z 07003MPS 9999 BKN053 17/11 Q1023 NOSIG
ZGSZ,2017-02-01 02:00,ZGSZ 010200Z 04003MPS 360V090 CAVOK 19/11 Q1023 NOSIG
ZGSZ,2017-02-01 03:00,ZGSZ 010300Z 07004MPS 040V100 CAVOK 21/12 Q1022 NOSIG
ZGSZ,2017-02-01 04:00,ZGSZ 010400Z 05004MPS 360V100 CAVOK 22/12 Q1022 NOSIG
ZGSZ,2017-02-01 05:00,ZGSZ 010500Z 05004MPS 360V100 CAVOK 23/12 Q1021 NOSIG
ZGSZ,2017-02-01 06:00,ZGSZ 010600Z 03005MPS 350V060 CAVOK 23/13 Q1020 NOSIG
ZGSZ,2017-02-01 07:00,ZGSZ 010700Z 03005MPS CAVOK 24/12 Q1019 NOSIG
ZGSZ,2017-02-01 08:00,ZGSZ 010800Z 36004MPS 310V050 CAVOK 23/13 Q1019 NOSIG
ZGSZ,2017-02-01 09:00,ZGSZ 010900Z 04005MPS CAVOK 24/13 Q1020 NOSIG
ZGSZ,2017-02-01 10:00,ZGSZ 011000Z 06003MPS CAVOK 23/13 Q1020 NOSIG
ZGSZ,2017-02-01 11:00,ZGSZ 011100Z 07003MPS CAVOK 22/13 Q1020 NOSIG
ZGSZ,2017-02-01 12:00,ZGSZ 011200Z 06003MPS CAVOK 21/13 Q1021 NOSIG
ZGSZ,2017-02-01 13:00,ZGSZ 011300Z 07005MPS CAVOK 21/13 Q1021 NOSIG
ZGSZ,2017-02-01 14:00,ZGSZ 011400Z 08005MPS CAVOK 20/12 Q1022 NOSIG
ZGSZ,2017-02-01 15:00,ZGSZ 011500Z 14002MPS 100V160 CAVOK 19/13 Q1022 NOSIG
ZGSZ,2017-02-01 16:00,ZGSZ 011600Z 13004MPS CAVOK 19/13 Q1023 NOSIG
ZGSZ,2017-02-01 17:00,ZGSZ 011700Z 14003MPS 110V180 CAVOK 18/13 Q1023 NOSIG
ZGSZ,2017-02-01 18:00,ZGSZ 011800Z 09003MPS 060V140 CAVOK 19/12 Q1022 NOSIG
ZGSZ,2017-02-01 19:00,ZGSZ 011900Z 08003MPS 060V120 CAVOK 18/12 Q1022 NOSIG
ZGSZ,2017-02-01 20:00,ZGSZ 012000Z 06005MPS 040V120 CAVOK 18/11 Q1022 NOSIG
ZGSZ,2017-02-01 21:00,ZGSZ 012100Z 06005MPS 040V120 CAVOK 17/11 Q1022 NOSIG
ZGSZ,2017-02-01 22:00,ZGSZ 012200Z 06004MPS CAVOK 17/11 Q1023 NOSIG
ZGSZ,2017-02-01 23:00,ZGSZ 012300Z 06004MPS CAVOK 16/10 Q1023 NOSIG
ZGSZ,2017-02-02 00:00,ZGSZ 020000Z 06005MPS CAVOK 17/10 Q1024 NOSIG
ZGSZ,2017-02-02 01:00,ZGSZ 020100Z 07004MPS 040V110 CAVOK 17/10 Q1024 NOSIG
ZGSZ,2017-02-02 02:00,ZGSZ 020200Z 05003MPS 350V120 CAVOK 19/11 Q1025 NOSIG
ZGSZ,2017-02-02 03:00,ZGSZ 020300Z 07002MPS 010V150 9999 SCT030 19/11 Q1024 NOSIG
ZGSZ,2017-02-02 04:00,ZGSZ 020400Z VRB03MPS 9999 SCT030 20/11 Q1023 NOSIG
ZGSZ,2017-02-02 05:00,ZGSZ 020500Z 28003MPS 9999 SCT031 19/12 Q1022 NOSIG
ZGSZ,2017-02-02 06:00,ZGSZ 020600Z 24003MPS 200V260 9999 BKN036 20/12 Q1021 NOSIG
ZGSZ,2017-02-02 07:00,ZGSZ 020700Z 22004MPS CAVOK 20/12 Q1020 NOSIG
ZGSZ,2017-02-02 08:00,ZGSZ 020800Z 21005MPS CAVOK 19/13 Q1020 NOSIG
ZGSZ,2017-02-02 09:00,ZGSZ 020900Z 21004MPS 180V240 CAVOK 18/14 Q1020 NOSIG
ZGSZ,2017-02-02 10:00,ZGSZ 021000Z 19004MPS CAVOK 18/14 Q1021 NOSIG
ZGSZ,2017-02-02 11:00,ZGSZ 021100Z 19005MPS CAVOK 18/14 Q1021 BECMG AT1230 12004MPS
ZGSZ,2017-02-02 12:00,ZGSZ 021200Z 14005MPS CAVOK 17/13 Q1021 NOSIG
ZGSZ,2017-02-02 13:00,ZGSZ 021300Z 13005MPS 9999 FEW030 17/13 Q1022 NOSIG
ZGSZ,2017-02-02 14:00,ZGSZ 021400Z 15006MPS 9999 FEW030 17/13 Q1022 NOSIG
ZGSZ,2017-02-02 15:00,ZGSZ 021500Z 14006MPS 9999 FEW030 17/12 Q1022 NOSIG
ZGSZ,2017-02-02 16:00,ZGSZ 021600Z 15007MPS 9999 SCT028 17/12 Q1022 NOSIG
ZGSZ,2017-02-02 17:00,ZGSZ 021700Z 15005MPS 9999 SCT027 17/12 Q1022 NOSIG
ZGSZ,2017-02-02 18:00,ZGSZ 021800Z 14006MPS 9999 SCT025 16/12 Q1022 NOSIG
ZGSZ,2017-02-02 19:00,ZGSZ 021900Z 15005MPS 9999 SCT025 16/11 Q1022 NOSIG
ZGSZ,2017-02-02 20:00,ZGSZ 022000Z 14004MPS 9999 SCT025 16/11 Q1021 NOSIG
ZGSZ,2017-02-02 21:00,ZGSZ 022100Z 14003MPS 9999 SCT025 16/11 Q1021 NOSIG
ZGSZ,2017-02-02 22:00,ZGSZ 022200Z 10002MPS 070V130 9999 SCT025 16/11 Q1021 NOSIG
ZGSZ,2017-02-02 23:00,ZGSZ 022300Z 09003MPS 9999 FEW025 16/10 Q1021 NOSIG
ZGSZ,2017-02-03 00:00,ZGSZ 030000Z 09003MPS 060V120 CAVOK 16/11 Q1022 NOSIG
ZGSZ,2017-02-03 01:00,ZGSZ 030100Z 10003MPS 070V130 9999 FEW046 17/11 Q1022 NOSIG
ZGSZ,2017-02-03 02:00,ZGSZ 030200Z 07004MPS 040V110 CAVOK 17/11 Q1022 NOSIG
ZGSZ,2017-02-03 03:00,ZGSZ 030300Z 05003MPS 010V110 CAVOK 18/12 Q1022 NOSIG
ZGSZ,2017-02-03 04:00,ZGSZ 030400Z 06003MPS 020V120 CAVOK 19/12 Q1021 NOSIG
ZGSZ,2017-02-03 05:00,ZGSZ 030500Z 06004MPS 020V140 9999 FEW025 20/12 Q1020 NOSIG
ZGSZ,2017-02-03 06:00,ZGSZ 030600Z 06003MPS 010V120 CAVOK 21/12 Q1018 NOSIG
ZGSZ,2017-02-03 07:00,ZGSZ 030700Z 10002MPS 050V210 CAVOK 21/12 Q1018 NOSIG
ZGSZ,2017-02-03 08:00,ZGSZ 030800Z 26002MPS 230V290 9999 FEW046 21/13 Q1017 NOSIG
ZGSZ,2017-02-03 09:00,ZGSZ 030900Z 23002MPS CAVOK 20/13 Q1018 NOSIG
ZGSZ,2017-02-03 10:00,ZGSZ 031000Z 30002MPS CAVOK 20/13 Q1018 NOSIG
ZGSZ,2017-02-03 11:00,ZGSZ 031100Z 21002MPS CAVOK 19/14 Q1018 NOSIG
ZGSZ,2017-02-03 12:00,ZGSZ 031200Z 20001MPS CAVOK 18/14 Q1019 NOSIG
ZGSZ,2017-02-03 13:00,ZGSZ 031300Z 19003MPS CAVOK 17/13 Q1019 NOSIG
ZGSZ,2017-02-03 14:00,ZGSZ 031400Z 18003MPS CAVOK 18/14 Q1019 NOSIG
ZGSZ,2017-02-03 15:00,ZGSZ 031500Z 19002MPS CAVOK 18/14 Q1019 NOSIG
ZGSZ,2017-02-03 16:00,ZGSZ 031600Z 15002MPS 110V190 CAVOK 18/13 Q1019 NOSIG
ZGSZ,2017-02-03 17:00,ZGSZ 031700Z 14003MPS CAVOK 18/12 Q1019 NOSIG
ZGSZ,2017-02-03 18:00,ZGSZ 031800Z 13003MPS CAVOK 17/13 Q1018 NOSIG
ZGSZ,2017-02-03 19:00,ZGSZ 031900Z 14003MPS CAVOK 17/12 Q1017 NOSIG
ZGSZ,2017-02-03 20:00,ZGSZ 032000Z 13003MPS CAVOK 17/13 Q1017 NOSIG
ZGSZ,2017-02-03 21:00,ZGSZ 032100Z 14002MPS CAVOK 16/13 Q1017 NOSIG
ZGSZ,2017-02-03 22:00,ZGSZ 032200Z VRB01MPS 9999 BKN050 16/13 Q1017 NOSIG
ZGSZ,2017-02-03 23:00,ZGSZ 032300Z 10003MPS 080V140 9999 BKN050 16/13 Q1017 NOSIG
ZGSZ,2017-02-04 00:00,ZGSZ 040000Z 00000MPS 9999 BKN043 17/13 Q1018 NOSIG
ZGSZ,2017-02-04 01:00,ZGSZ 040100Z 04002MPS 340V090 9999 BKN046 19/13 Q1018 NOSIG
ZGSZ,2017-02-04 02:00,ZGSZ 040200Z 28003MPS 9999 BKN040 20/14 Q1018 NOSIG
ZGSZ,2017-02-04 03:00,ZGSZ 040300Z 30003MPS 9999 SCT040 20/14 Q1017 NOSIG
ZGSZ,2017-02-04 04:00,ZGSZ 040400Z 31004MPS 9999 BKN040 20/14 Q1016 NOSIG
ZGSZ,2017-02-04 05:00,ZGSZ 040500Z 27002MPS 9999 BKN040 21/13 Q1015 NOSIG
ZGSZ,2017-02-04 06:00,ZGSZ 040600Z 23004MPS 9999 BKN040 21/15 Q1013 NOSIG
ZGSZ,2017-02-04 07:00,ZGSZ 040700Z 22004MPS CAVOK 21/15 Q1012 NOSIG
ZGSZ,2017-02-04 08:00,ZGSZ 040800Z 29003MPS 9999 FEW020 FEW026CB BKN043 20/15 Q1013 BECMG 0825 3500 -SHRA
ZGSZ,2017-02-04 09:00,ZGSZ 040900Z 34008MPS 3200 -RA SCT017 OVC036 18/16 Q1014 BECMG AT1030 2000 SHRA
ZGSZ,2017-02-04 10:00,ZGSZ 041000Z 35006MPS 2500 RA SCT010 OVC036 17/16 Q1015 BECMG AT1050 06004MPS 3100 -RA
ZGSZ,2017-02-04 11:00,ZGSZ 041100Z 04003MPS 4500 -RA BR BKN043 17/16 Q1015 NOSIG
ZGSZ,2017-02-04 12:00,ZGSZ 041200Z 02004MPS 4000 -RA BR NSC 18/16 Q1015 NOSIG
ZGSZ,2017-02-04 13:00,ZGSZ 041300Z 09003MPS 4000 -RA BR FEW017 18/16 Q1015 BECMG AT1330 2200 SHRA
ZGSZ,2017-02-04 14:00,ZGSZ 041400Z 10002MPS 070V130 4500 -RA BR FEW017 18/16 Q1014 NOSIG
ZGSZ,2017-02-04 15:00,ZGSZ 041500Z 14005MPS 7000 -RA FEW010 18/15 Q1013 NOSIG
ZGSZ,2017-02-04 16:00,ZGSZ 041600Z 26003MPS 170V320 CAVOK 18/16 Q1013 NOSIG
ZGSZ,2017-02-04 17:00,ZGSZ 041700Z 35007MPS 4000 BR SCT008 OVC020 18/16 Q1014 NOSIG
ZGSZ,2017-02-04 18:00,ZGSZ 041800Z 02005MPS 3500 BR NSC 18/16 Q1014 NOSIG
ZGSZ,2017-02-04 19:00,ZGSZ 041900Z 06003MPS 5000 BR NSC 18/16 Q1014 NOSIG
ZGSZ,2017-02-04 20:00,ZGSZ 042000Z 13003MPS 4500 BR NSC 17/16 Q1013 NOSIG
ZGSZ,2017-02-04 21:00,ZGSZ 042100Z 18001MPS 5000 BR NSC 17/15 Q1013 NOSIG
ZGSZ,2017-02-04 22:00,ZGSZ 042200Z 35004MPS 4000 BR NSC 18/16 Q1014 NOSIG
ZGSZ,2017-02-04 23:00,ZGSZ 042300Z 34004MPS 2800 BR SCT010 SCT050 18/16 Q1015 BECMG AT0040 3100
ZGSZ,2017-02-05 00:00,ZGSZ 050000Z 01004MPS 2000 BR NSC 17/16 Q1015 BECMG AT0040 3100
ZGSZ,2017-02-05 01:00,ZGSZ 050100Z 34002MPS 2200 BR SCT011 BKN050 18/16 Q1015 BECMG AT0240 3100
ZGSZ,2017-02-05 02:00,ZGSZ 050200Z 34005MPS 2000 BR SCT011 BKN050 18/16 Q1015 BECMG AT0340 3100
ZGSZ,2017-02-05 03:00,ZGSZ 050300Z 33006MPS 2300 BR SCT018 20/16 Q1015 BECMG AT0330 3100
ZGSZ,2017-02-05 04:00,ZGSZ 050400Z 32006MPS 3100 BR SCT018 20/16 Q1014 NOSIG
ZGSZ,2017-02-05 05:00,ZGSZ 050500Z 32005MPS 5000 HZ FEW030 22/16 Q1013 NOSIG
ZGSZ,2017-02-05 06:00,ZGSZ 050600Z 32005MPS 6000 NSC 22/16 Q1012 NOSIG
ZGSZ,2017-02-05 07:00,ZGSZ 050700Z 31003MPS 7000 NSC 23/16 Q1011 NOSIG
ZGSZ,2017-02-05 08:00,ZGSZ 050800Z 31003MPS 7000 NSC 22/16 Q1011 NOSIG
ZGSZ,2017-02-05 09:00,ZGSZ 050900Z VRB01MPS 7000 NSC 22/16 Q1012 NOSIG
ZGSZ,2017-02-05 10:00,ZGSZ 051000Z 22002MPS 170V310 7000 NSC 21/16 Q1013 NOSIG
ZGSZ,2017-02-05 11:00,ZGSZ 051100Z 19003MPS 6000 BKN043 21/17 Q1013 NOSIG
ZGSZ,2017-02-05 12:00,ZGSZ 051200Z 20002MPS 6000 BKN043 21/16 Q1013 NOSIG
ZGSZ,2017-02-05 13:00,ZGSZ 051300Z 28002MPS 3500 BR BKN040 20/18 Q1014 BECMG AT1430 2500 BR
ZGSZ,2017-02-05 14:00,ZGSZ 051400Z 34002MPS CAVOK 19/16 Q1014 NOSIG
ZGSZ,2017-02-05 15:00,ZGSZ 051500Z 00000MPS CAVOK 19/16 Q1014 NOSIG
ZGSZ,2017-02-05 16:00,ZGSZ 051600Z 30002MPS 9999 SCT050 19/17 Q1014 NOSIG
ZGSZ,2017-02-05 17:00,ZGSZ 051700Z VRB01MPS 9999 SCT050 19/16 Q1015 NOSIG
ZGSZ,2017-02-05 18:00,ZGSZ 051800Z 00000MPS 6000 SCT043 19/16 Q1015 NOSIG
ZGSZ,2017-02-05 19:00,ZGSZ 051900Z 23002MPS 190V250 9000 SCT015 BKN040 19/15 Q1015 NOSIG
ZGSZ,2017-02-05 20:00,ZGSZ 052000Z 14003MPS 9000 SCT015 BKN040 18/15 Q1014 NOSIG
ZGSZ,2017-02-05 21:00,ZGSZ 052100Z 13003MPS 9000 SCT018 18/15 Q1014 NOSIG
ZGSZ,2017-02-05 22:00,ZGSZ 052200Z 14003MPS 9999 SCT018 18/15 Q1015 NOSIG
ZGSZ,2017-02-05 23:00,ZGSZ 052300Z 10001MPS 7000 SCT018 18/15 Q1015 NOSIG
ZGSZ,2017-02-06 00:00,ZGSZ 060000Z 12002MPS 7000 FEW015 18/15 Q1016 NOSIG
ZGSZ,2017-02-06 01:00,ZGSZ 060100Z 09003MPS 050V140 5000 BR BKN016 19/15 Q1016 NOSIG
ZGSZ,2017-02-06 02:00,ZGSZ 060200Z 10002MPS 030V150 7000 BKN018 20/15 Q1017 NOSIG
ZGSZ,2017-02-06 03:00,ZGSZ 060300Z 08004MPS 010V110 9999 FEW023 23/15 Q1016 NOSIG
ZGSZ,2017-02-06 04:00,ZGSZ 060400Z 30004MPS 5000 HZ FEW026 21/16 Q1016 NOSIG
ZGSZ,2017-02-06 05:00,ZGSZ 060500Z 27003MPS 240V300 5000 HZ FEW026 22/16 Q1014 NOSIG
ZGSZ,2017-02-06 06:00,ZGSZ 060600Z 24003MPS 6000 FEW043 23/16 Q1014 NOSIG
ZGSZ,2017-02-06 07:00,ZGSZ 060700Z 24004MPS 200V270 7000 FEW050 22/17 Q1013 NOSIG
ZGSZ,2017-02-06 08:00,ZGSZ 060800Z 26006MPS 8000 BKN053 21/17 Q1013 BECMG AT0940 15005MPS
ZGSZ,2017-02-06 09:00,ZGSZ 060900Z 27004MPS 9999 BKN053 21/16 Q1013 BECMG TL1035 13005MPS
ZGSZ,2017-02-06 10:00,ZGSZ 061000Z VRB02MPS 9999 BKN050 22/14 Q1013 NOSIG
ZGSZ,2017-02-06 11:00,ZGSZ 061100Z 14005MPS 9999 BKN046 21/14 Q1014 NOSIG
ZGSZ,2017-02-06 12:00,ZGSZ 061200Z 14005MPS 9999 -RA BKN046 19/13 Q1015 NOSIG
ZGSZ,2017-02-06 13:00,ZGSZ 061300Z 14005MPS 9999 BKN046 19/12 Q1016 NOSIG
ZGSZ,2017-02-06 14:00,ZGSZ 061400Z 15006MPS 9999 BKN046 18/12 Q1016 NOSIG
ZGSZ,2017-02-06 15:00,ZGSZ 061500Z 15006MPS 8000 BKN046 18/12 Q1016 NOSIG
ZGSZ,2017-02-06 16:00,ZGSZ 061600Z 15006MPS 7000 BKN046 18/12 Q1016 NOSIG
ZGSZ,2017-02-06 17:00,ZGSZ 061700Z 14004MPS 7000 BKN046 18/12 Q1016 NOSIG
ZGSZ,2017-02-06 18:00,ZGSZ 061800Z 15006MPS 7000 BKN046 18/11 Q1016 NOSIG
ZGSZ,2017-02-06 19:00,ZGSZ 061900Z 13005MPS 7000 BKN046 18/11 Q1016 NOSIG
ZGSZ,2017-02-06 20:00,ZGSZ 062000Z 14003MPS 7000 BKN046 18/11 Q1016 NOSIG
ZGSZ,2017-02-06 21:00,ZGSZ 062100Z 15004MPS 7000 BKN050 17/11 Q1016 NOSIG
ZGSZ,2017-02-06 22:00,ZGSZ 062200Z 15005MPS 7000 BKN053 17/10 Q1016 NOSIG
ZGSZ,2017-02-06 23:00,ZGSZ 062300Z 15004MPS 7000 BKN053 17/10 Q1017 NOSIG
ZGSZ,2017-02-07 00:00,ZGSZ 070000Z 15003MPS 120V180 9999 BKN053 17/09 Q1018 NOSIG
ZGSZ,2017-02-07 01:00,ZGSZ 070100Z 14005MPS 9999 BKN050 18/07 Q1018 NOSIG
ZGSZ,2017-02-07 02:00,ZGSZ 070200Z 14003MPS 090V180 CAVOK 18/08 Q1019 NOSIG
ZGSZ,2017-02-07 03:00,ZGSZ 070300Z 14004MPS 090V170 9999 FEW033 19/08 Q1018 NOSIG
ZGSZ,2017-02-07 04:00,ZGSZ 070400Z 14005MPS 100V160 CAVOK 20/09 Q1018 NOSIG
ZGSZ,2017-02-07 05:00,ZGSZ 070500Z 15005MPS CAVOK 21/10 Q1016 NOSIG
ZGSZ,2017-02-07 06:00,ZGSZ 070600Z 15004MPS 120V200 9999 SCT050 22/11 Q1015 NOSIG
ZGSZ,2017-02-07 07:00,ZGSZ 070700Z 16005MPS 130V190 CAVOK 22/12 Q1014 NOSIG
ZGSZ,2017-02-07 08:00,ZGSZ 070800Z 16005MPS CAVOK 21/12 Q1014 NOSIG
ZGSZ,2017-02-07 09:00,ZGSZ 070900Z 14004MPS 9999 BKN040 21/11 Q1015 NOSIG
ZGSZ,2017-02-07 10:00,ZGSZ 071000Z 14004MPS 9999 BKN040 20/11 Q1015 NOSIG
ZGSZ,2017-02-07 11:00,ZGSZ 071100Z 15005MPS 9999 BKN036 20/10 Q1015 NOSIG
ZGSZ,2017-02-07 12:00,ZGSZ 071200Z 14005MPS 9999 BKN033 19/10 Q1016 NOSIG
ZGSZ,2017-02-07 13:00,ZGSZ 071300Z 12004MPS 9999 OVC030 17/12 Q1016 NOSIG
ZGSZ,2017-02-07 14:00,ZGSZ 071400Z 12004MPS 090V160 9999 OVC030 18/11 Q1016 NOSIG
ZGSZ,2017-02-07 15:00,ZGSZ 071500Z 14006MPS 9999 FEW020 BKN040 18/11 Q1016 NOSIG
ZGSZ,2017-02-07 16:00,ZGSZ 071600Z 14005MPS 9999 FEW020 BKN040 18/11 Q1016 NOSIG
ZGSZ,2017-02-07 17:00,ZGSZ 071700Z 14005MPS 9999 FEW020 SCT040 18/11 Q1015 NOSIG
ZGSZ,2017-02-07 18:00,ZGSZ 071800Z VRB03MPS 9999 FEW020 SCT040 17/12 Q1016 NOSIG
ZGSZ,2017-02-07 19:00,ZGSZ 071900Z 06002MPS 020V090 9999 FEW020 BKN033 18/11 Q1016 NOSIG
ZGSZ,2017-02-07 20:00,ZGSZ 072000Z 07004MPS 9999 OVC030 18/12 Q1015 NOSIG
ZGSZ,2017-02-07 21:00,ZGSZ 072100Z 08003MPS 9999 OVC026 18/11 Q1015 NOSIG
ZGSZ,2017-02-07 22:00,ZGSZ 072200Z 11005MPS 9999 OVC025 17/11 Q1015 NOSIG
ZGSZ,2017-02-07 23:00,ZGSZ 072300Z 10004MPS 9999 BKN026 17/11 Q1016 NOSIG
ZGSZ,2017-02-08 00:00,ZGSZ 080000Z 00000MPS 9999 OVC026 18/12 Q1017 NOSIG
ZGSZ,2017-02-08 01:00,ZGSZ 080100Z 15005MPS 9999 SCT025 18/12 Q1017 NOSIG
ZGSZ,2017-02-08 02:00,ZGSZ 080200Z 05003MPS 360V090 9999 SCT025 19/13 Q1018 NOSIG
ZGSZ,2017-02-08 03:00,ZGSZ 080300Z 09003MPS 060V130 9999 SCT025 20/13 Q1017 NOSIG
ZGSZ,2017-02-08 04:00,ZGSZ 080400Z 29002MPS 260V330 9999 SCT027 20/13 Q1017 NOSIG
ZGSZ,2017-02-08 05:00,ZGSZ 080500Z 32004MPS 9999 SCT027 20/14 Q1016 NOSIG
ZGSZ,2017-02-08 06:00,ZGSZ 080600Z 33005MPS 9999 BKN027 20/14 Q1015 NOSIG
ZGSZ,2017-02-08 07:00,ZGSZ 080700Z 35005MPS 9999 BKN030 20/13 Q1015 NOSIG
ZGSZ,2017-02-08 08:00,ZGSZ 080800Z 01005MPS 9999 BKN030 20/13 Q1015 NOSIG
ZGSZ,2017-02-08 09:00,ZGSZ 080900Z 03005MPS 7000 OVC030 18/14 Q1015 NOSIG
ZGSZ,2017-02-08 10:00,ZGSZ 081000Z 36007MPS 4000 BR SCT016 OVC030 16/14 Q1016 NOSIG
ZGSZ,2017-02-08 11:00,ZGSZ 081100Z 36006MPS 2900 -RA BR SCT007 OVC026 15/13 Q1017 BECMG FM1120 3100
ZGSZ,2017-02-08 12:00,ZGSZ 081200Z 01007MPS 5000 -RA BR SCT008 OVC030 14/12 Q1018 NOSIG
ZGSZ,2017-02-08 13:00,ZGSZ 081300Z 36007MPS 5000 -RA BR BKN007 OVC030 13/12 Q1019 BECMG FM1420 SCT007 OVC050
ZGSZ,2017-02-08 14:00,ZGSZ 081400Z 03006MPS 9999 BKN010 OVC030 14/12 Q1019 BECMG FM1420 SCT007 OVC050
ZGSZ,2017-02-08 15:00,ZGSZ 081500Z 03008MPS 9999 BKN016 OVC040 14/11 Q1020 NOSIG
ZGSZ,2017-02-08 16:00,ZGSZ 081600Z 04006MPS 9999 BKN015 OVC040 14/11 Q1020 NOSIG
ZGSZ,2017-02-08 17:00,ZGSZ 081700Z 04007MPS 9999 BKN015 OVC040 13/09 Q1020 NOSIG
ZGSZ,2017-02-08 18:00,ZGSZ 081800Z 02006MPS 9999 BKN017 OVC050 13/09 Q1020 NOSIG
ZGSZ,2017-02-08 19:00,ZGSZ 081900Z 04006MPS 9999 BKN033 13/07 Q1021 NOSIG
ZGSZ,2017-02-08 20:00,ZGSZ 082000Z 05007MPS 020V080 CAVOK 12/05 Q1021 NOSIG
ZGSZ,2017-02-08 21:00,ZGSZ 082100Z 05008MPS 020V080 CAVOK 11/04 Q1021 NOSIG
ZGSZ,2017-02-08 22:00,ZGSZ 082200Z 05008G13MPS CAVOK 11/03 Q1022 NOSIG
ZGSZ,2017-02-08 23:00,ZGSZ 082300Z 04007MPS CAVOK 10/03 Q1023 NOSIG
ZGSZ,2017-02-09 00:00,ZGSZ 090000Z 04007MPS CAVOK 10/03 Q1023 NOSIG
ZGSZ,2017-02-09 01:00,ZGSZ 090100Z 04008MPS CAVOK 11/03 Q1023 NOSIG
ZGSZ,2017-02-09 02:00,ZGSZ 090200Z 04009MPS CAVOK 12/02 Q1023 NOSIG
ZGSZ,2017-02-09 03:00,ZGSZ 090300Z 06007MPS CAVOK 14/03 Q1023 NOSIG
ZGSZ,2017-02-09 04:00,ZGSZ 090400Z 04007MPS 360V060 CAVOK 14/03 Q1023 NOSIG
ZGSZ,2017-02-09 05:00,ZGSZ 090500Z 03007MPS CAVOK 15/02 Q1021 NOSIG
ZGSZ,2017-02-09 06:00,ZGSZ 090600Z 03008MPS 350V060 CAVOK 15/02 Q1020 NOSIG
ZGSZ,2017-02-09 07:00,ZGSZ 090700Z 05008MPS CAVOK 16/02 Q1019 NOSIG
ZGSZ,2017-02-09 08:00,ZGSZ 090800Z 03007MPS CAVOK 15/02 Q1019 NOSIG
ZGSZ,2017-02-09 09:00,ZGSZ 090900Z 06008MPS CAVOK 15/02 Q1019 NOSIG
ZGSZ,2017-02-09 10:00,ZGSZ 091000Z 06007MPS CAVOK 14/02 Q1019 NOSIG
ZGSZ,2017-02-09 11:00,ZGSZ 091100Z 06008MPS CAVOK 13/02 Q1020 NOSIG
ZGSZ,2017-02-09 12:00,ZGSZ 091200Z 04008MPS CAVOK 12/01 Q1021 NOSIG
ZGSZ,2017-02-09 13:00,ZGSZ 091300Z 06008MPS CAVOK 11/01 Q1022 NOSIG
ZGSZ,2017-02-09 14:00,ZGSZ 091400Z 04006MPS CAVOK 10/01 Q1023 NOSIG
ZGSZ,2017-02-09 15:00,ZGSZ 091500Z 04008MPS CAVOK 10/00 Q1023 NOSIG
ZGSZ,2017-02-09 16:00,ZGSZ 091600Z 05006MPS CAVOK 10/M00 Q1023 NOSIG
ZGSZ,2017-02-09 17:00,ZGSZ 091700Z 05007MPS CAVOK 10/00 Q1023 NOSIG
ZGSZ,2017-02-09 18:00,ZGSZ 091800Z 04006MPS CAVOK 09/00 Q1023 NOSIG
ZGSZ,2017-02-09 19:00,ZGSZ 091900Z 06006MPS CAVOK 09/00 Q1023 NOSIG
ZGSZ,2017-02-09 20:00,ZGSZ 092000Z 05007MPS CAVOK 09/00 Q1023 NOSIG
ZGSZ,2017-02-09 21:00,ZGSZ 092100Z 05006MPS CAVOK 09/M00 Q1023 NOSIG
ZGSZ,2017-02-09 22:00,ZGSZ 092200Z 04006MPS CAVOK 09/M00 Q1023 NOSIG
ZGSZ,2017-02-09 23:00,ZGSZ 092300Z 06007MPS 7000 NSC 09/M00 Q1024 NOSIG
ZGSZ,2017-02-10 00:00,ZGSZ 100000Z 05007MPS 7000 NSC 09/M01 Q1025 NOSIG
ZGSZ,2017-02-10 01:00,ZGSZ 100100Z 07006MPS 7000 NSC 10/M01 Q1025 NOSIG
ZGSZ,2017-02-10 02:00,ZGSZ 100200Z 07007MPS 7000 NSC 10/M02 Q1025 NOSIG
ZGSZ,2017-02-10 03:00,ZGSZ 100300Z 06006MPS 7000 NSC 12/M01 Q1025 NOSIG
ZGSZ,2017-02-10 04:00,ZGSZ 100400Z 05006MPS 7000 NSC 12/M01 Q1025 NOSIG
ZGSZ,2017-02-10 05:00,ZGSZ 100500Z 03005MPS 7000 NSC 13/M01 Q1024 NOSIG
ZGSZ,2017-02-10 06:00,ZGSZ 100600Z 05005MPS 020V080 7000 NSC 14/M00 Q1023 NOSIG
ZGSZ,2017-02-10 07:00,ZGSZ 100700Z 06006MPS 020V080 7000 NSC 14/M01 Q1023 NOSIG
ZGSZ,2017-02-10 08:00,ZGSZ 100800Z 06005MPS 020V080 7000 NSC 14/M01 Q1022 NOSIG
ZGSZ,2017-02-10 09:00,ZGSZ 100900Z 06006MPS CAVOK 14/M01 Q1022 NOSIG
ZGSZ,2017-02-10 10:00,ZGSZ 101000Z 05006MPS CAVOK 13/M01 Q1023 NOSIG
ZGSZ,2017-02-10 11:00,ZGSZ 101100Z 05005MPS 030V100 CAVOK 13/M00 Q1024 NOSIG
ZGSZ,2017-02-10 12:00,ZGSZ 101200Z 06005MPS CAVOK 13/M01 Q1024 NOSIG
ZGSZ,2017-02-10 13:00,ZGSZ 101300Z 07006MPS CAVOK 13/M01 Q1025 NOSIG
ZGSZ,2017-02-10 14:00,ZGSZ 101400Z 05006MPS CAVOK 13/M00 Q1025 NOSIG
ZGSZ,2017-02-10 15:00,ZGSZ 101500Z 04007MPS CAVOK 12/M01 Q1025 NOSIG
ZGSZ,2017-02-10 16:00,ZGSZ 101600Z 06005MPS 030V090 CAVOK 12/M01 Q1026 NOSIG
ZGSZ,2017-02-10 17:00,ZGSZ 101700Z 06007MPS CAVOK 11/M01 Q1026 NOSIG
ZGSZ,2017-02-10 18:00,ZGSZ 101800Z 05007MPS CAVOK 11/M01 Q1026 NOSIG
ZGSZ,2017-02-10 19:00,ZGSZ 101900Z 04007MPS CAVOK 11/M01 Q1026 NOSIG
ZGSZ,2017-02-10 20:00,ZGSZ 102000Z 05005MPS CAVOK 10/M01 Q1026 NOSIG
ZGSZ,2017-02-10 21:00,ZGSZ 102100Z 06006MPS CAVOK 10/M01 Q1026 NOSIG
ZGSZ,2017-02-10 22:00,ZGSZ 102200Z 07007MPS CAVOK 10/M01 Q1026 NOSIG
ZGSZ,2017-02-10 23:00,ZGSZ 102300Z 06005MPS CAVOK 09/M00 Q1027 NOSIG
ZGSZ,2017-02-11 00:00,ZGSZ 110000Z 04006MPS CAVOK 10/M00 Q1028 NOSIG
ZGSZ,2017-02-11 01:00,ZGSZ 110100Z 06005MPS 020V100 CAVOK 11/00 Q1028 NOSIG
ZGSZ,2017-02-11 02:00,ZGSZ 110200Z 08006MPS CAVOK 12/M00 Q1029 NOSIG
ZGSZ,2017-02-11 03:00,ZGSZ 110300Z 06005MPS 020V090 CAVOK 14/00 Q1028 NOSIG
ZGSZ,2017-02-11 04:00,ZGSZ 110400Z 03004MPS 350V080 CAVOK 15/M00 Q1028 NOSIG
ZGSZ,2017-02-11 05:00,ZGSZ 110500Z 36004MPS 320V060 CAVOK 16/00 Q1026 NOSIG
ZGSZ,2017-02-11 06:00,ZGSZ 110600Z 35004MPS 310V090 CAVOK 16/01 Q1025 NOSIG
ZGSZ,2017-02-11 07:00,ZGSZ 110700Z 03003MPS 320V110 CAVOK 17/01 Q1024 NOSIG
ZGSZ,2017-02-11 08:00,ZGSZ 110800Z 33004MPS CAVOK 17/04 Q1024 NOSIG
ZGSZ,2017-02-11 09:00,ZGSZ 110900Z 34005MPS CAVOK 16/03 Q1024 NOSIG
ZGSZ,2017-02-11 10:00,ZGSZ 111000Z 02004MPS CAVOK 16/00 Q1025 NOSIG
ZGSZ,2017-02-11 11:00,ZGSZ 111100Z 02003MPS CAVOK 14/01 Q1025 NOSIG
ZGSZ,2017-02-11 12:00,ZGSZ 111200Z 03003MPS CAVOK 14/02 Q1026 NOSIG
ZGSZ,2017-02-11 13:00,ZGSZ 111300Z 12002MPS CAVOK 13/02 Q1026 NOSIG
ZGSZ,2017-02-11 14:00,ZGSZ 111400Z 14003MPS CAVOK 13/02 Q1027 NOSIG
ZGSZ,2017-02-11 15:00,ZGSZ 111500Z VRB01MPS CAVOK 13/03 Q1027 NOSIG
ZGSZ,2017-02-11 16:00,ZGSZ 111600Z 16003MPS CAVOK 12/04 Q1027 NOSIG
ZGSZ,2017-02-11 17:00,ZGSZ 111700Z 11003MPS CAVOK 12/05 Q1027 NOSIG
ZGSZ,2017-02-11 18:00,ZGSZ 111800Z 07002MPS CAVOK 12/05 Q1027 NOSIG
ZGSZ,2017-02-11 19:00,ZGSZ 111900Z 08001MPS 7000 NSC 12/05 Q1027 NOSIG
ZGSZ,2017-02-11 20:00,ZGSZ 112000Z 06002MPS 7000 NSC 11/05 Q1027 NOSIG
ZGSZ,2017-02-11 21:00,ZGSZ 112100Z 06002MPS 7000 NSC 11/06 Q1027 NOSIG
ZGSZ,2017-02-11 22:00,ZGSZ 112200Z 07002MPS 7000 NSC 11/06 Q1027 NOSIG
ZGSZ,2017-02-11 23:00,ZGSZ 112300Z 07003MPS 5000 HZ NSC 11/06 Q1028 NOSIG
ZGSZ,2017-02-12 00:00,ZGSZ 120000Z 06005MPS 6000 NSC 12/05 Q1028 NOSIG
ZGSZ,2017-02-12 01:00,ZGSZ 120100Z 05005MPS CAVOK 13/03 Q1028 NOSIG
ZGSZ,2017-02-12 02:00,ZGSZ 120200Z 06004MPS CAVOK 15/02 Q1029 NOSIG
ZGSZ,2017-02-12 03:00,ZGSZ 120300Z 04003MPS 020V080 CAVOK 17/02 Q1028 NOSIG
ZGSZ,2017-02-12 04:00,ZGSZ 120400Z 35003MPS 290V090 CAVOK 17/01 Q1027 BECMG AT0540 29005MPS
ZGSZ,2017-02-12 05:00,ZGSZ 120500Z 02004MPS 330V080 CAVOK 18/01 Q1026 BECMG AT0540 30005MPS
ZGSZ,2017-02-12 06:00,ZGSZ 120600Z 32004MPS CAVOK 18/04 Q1025 NOSIG
ZGSZ,2017-02-12 07:00,ZGSZ 120700Z 33005MPS CAVOK 18/04 Q1024 NOSIG
ZGSZ,2017-02-12 08:00,ZGSZ 120800Z 32004MPS CAVOK 18/04 Q1024 NOSIG
ZGSZ,2017-02-12 09:00,ZGSZ 120900Z 32005MPS CAVOK 18/04 Q1024 NOSIG
ZGSZ,2017-02-12 10:00,ZGSZ 121000Z 33003MPS CAVOK 17/05 Q1024 NOSIG
ZGSZ,2017-02-12 11:00,ZGSZ 121100Z 05001MPS CAVOK 16/03 Q1025 NOSIG
ZGSZ,2017-02-12 12:00,ZGSZ 121200Z 13003MPS CAVOK 15/03 Q1025 NOSIG
ZGSZ,2017-02-12 13:00,ZGSZ 121300Z 14003MPS CAVOK 14/06 Q1026 NOSIG
ZGSZ,2017-02-12 14:00,ZGSZ 121400Z 15003MPS CAVOK 14/07 Q1026 NOSIG
ZGSZ,2017-02-12 15:00,ZGSZ 121500Z 14003MPS CAVOK 13/06 Q1026 NOSIG
ZGSZ,2017-02-12 16:00,ZGSZ 121600Z 15002MPS CAVOK 13/07 Q1027 NOSIG
ZGSZ,2017-02-12 17:00,ZGSZ 121700Z 14003MPS CAVOK 13/08 Q1027 NOSIG
ZGSZ,2017-02-12 18:00,ZGSZ 121800Z 11002MPS CAVOK 13/08 Q1026 NOSIG
ZGSZ,2017-02-12 19:00,ZGSZ 121900Z 07002MPS CAVOK 12/08 Q1026 NOSIG
ZGSZ,2017-02-12 20:00,ZGSZ 122000Z 07002MPS CAVOK 12/08 Q1026 NOSIG
ZGSZ,2017-02-12 21:00,ZGSZ 122100Z 06002MPS CAVOK 11/08 Q1026 NOSIG
ZGSZ,2017-02-12 22:00,ZGSZ 122200Z 06001MPS CAVOK 11/08 Q1027 NOSIG
ZGSZ,2017-02-12 23:00,ZGSZ 122300Z 05002MPS 8000 NSC 10/08 Q1027 NOSIG
ZGSZ,2017-02-13 00:00,ZGSZ 130000Z 06002MPS 8000 NSC 13/09 Q1028 NOSIG
ZGSZ,2017-02-13 01:00,ZGSZ 130100Z 05004MPS CAVOK 14/09 Q1028 NOSIG
ZGSZ,2017-02-13 02:00,ZGSZ 130200Z 06005MPS CAVOK 16/06 Q1028 NOSIG
ZGSZ,2017-02-13 03:00,ZGSZ 130300Z 05004MPS 020V080 CAVOK 18/05 Q1028 BECMG AT0450 32005MPS
ZGSZ,2017-02-13 04:00,ZGSZ 130400Z 02003MPS 300V080 CAVOK 19/04 Q1027 NOSIG
ZGSZ,2017-02-13 05:00,ZGSZ 130500Z 05003MPS 350V090 CAVOK 21/05 Q1026 BECMG AT0620 32005MPS
ZGSZ,2017-02-13 06:00,ZGSZ 130600Z 32005MPS CAVOK 19/08 Q1026 NOSIG
ZGSZ,2017-02-13 07:00,ZGSZ 130700Z 27003MPS CAVOK 20/07 Q1025 NOSIG
ZGSZ,2017-02-13 08:00,ZGSZ 130800Z 23004MPS CAVOK 20/08 Q1025 NOSIG
ZGSZ,2017-02-13 09:00,ZGSZ 130900Z 21005MPS CAVOK 18/10 Q1025 BECMG AT1050 13005MPS
ZGSZ,2017-02-13 10:00,ZGSZ 131000Z 20005MPS CAVOK 17/10 Q1025 BECMG AT1120 13005MPS
ZGSZ,2017-02-13 11:00,ZGSZ 131100Z 19005MPS CAVOK 16/10 Q1026 BECMG AT1140 13005MPS
ZGSZ,2017-02-13 12:00,ZGSZ 131200Z 18004MPS CAVOK 15/10 Q1026 NOSIG
ZGSZ,2017-02-13 13:00,ZGSZ 131300Z 15005MPS CAVOK 15/08 Q1027 NOSIG
ZGSZ,2017-02-13 14:00,ZGSZ 131400Z 14004MPS CAVOK 15/08 Q1027 NOSIG
ZGSZ,2017-02-13 15:00,ZGSZ 131500Z 14002MPS CAVOK 15/09 Q1028 NOSIG
ZGSZ,2017-02-13 16:00,ZGSZ 131600Z 14004MPS CAVOK 15/09 Q1028 NOSIG
ZGSZ,2017-02-13 17:00,ZGSZ 131700Z 10002MPS 060V180 CAVOK 15/09 Q1028 NOSIG
ZGSZ,2017-02-13 18:00,ZGSZ 131800Z VRB01MPS CAVOK 15/08 Q1028 NOSIG
ZGSZ,2017-02-13 19:00,ZGSZ 131900Z VRB01MPS CAVOK 14/08 Q1027 NOSIG
ZGSZ,2017-02-13 20:00,ZGSZ 132000Z 06002MPS 020V100 CAVOK 14/08 Q1028 NOSIG
ZGSZ,2017-02-13 21:00,ZGSZ 132100Z VRB01MPS CAVOK 14/08 Q1028 NOSIG
ZGSZ,2017-02-13 22:00,ZGSZ 132200Z 00000MPS CAVOK 14/08 Q1028 NOSIG
ZGSZ,2017-02-13 23:00,ZGSZ 132300Z 07003MPS CAVOK 14/07 Q1029 NOSIG
ZGSZ,2017-02-14 00:00,ZGSZ 140000Z 06003MPS CAVOK 15/07 Q1029 NOSIG
ZGSZ,2017-02-14 01:00,ZGSZ 140100Z 08004MPS CAVOK 16/07 Q1030 NOSIG
ZGSZ,2017-02-14 02:00,ZGSZ 140200Z 07005MPS 040V100 CAVOK 19/07 Q1030 NOSIG
ZGSZ,2017-02-14 03:00,ZGSZ 140300Z 06004MPS 030V110 CAVOK 20/07 Q1030 NOSIG
ZGSZ,2017-02-14 04:00,ZGSZ 140400Z 08004MPS 040V120 CAVOK 22/06 Q1029 NOSIG
ZGSZ,2017-02-14 05:00,ZGSZ 140500Z VRB02MPS 9999 FEW026 23/06 Q1028 BECMG TL0640 24005MPS
ZGSZ,2017-02-14 06:00,ZGSZ 140600Z 29003MPS 9999 FEW026 22/08 Q1027 NOSIG
ZGSZ,2017-02-14 07:00,ZGSZ 140700Z 26003MPS 230V300 9999 FEW026 21/09 Q1026 NOSIG
ZGSZ,2017-02-14 08:00,ZGSZ 140800Z 22005MPS 9999 FEW026 20/11 Q1026 NOSIG
ZGSZ,2017-02-14 09:00,ZGSZ 140900Z 22006MPS 9999 FEW026 19/09 Q1026 NOSIG
ZGSZ,2017-02-14 10:00,ZGSZ 141000Z 21004MPS 9999 FEW026 18/09 Q1026 NOSIG
ZGSZ,2017-02-14 11:00,ZGSZ 141100Z 21004MPS 9999 FEW026 18/10 Q1027 NOSIG
ZGSZ,2017-02-14 12:00,ZGSZ 141200Z 11003MPS 090V160 CAVOK 17/10 Q1027 NOSIG
ZGSZ,2017-02-14 13:00,ZGSZ 141300Z 15005MPS CAVOK 17/06 Q1028 NOSIG
ZGSZ,2017-02-14 14:00,ZGSZ 141400Z 14003MPS CAVOK 17/07 Q1028 NOSIG
ZGSZ,2017-02-14 15:00,ZGSZ 141500Z 14003MPS CAVOK 16/08 Q1028 NOSIG
ZGSZ,2017-02-14 16:00,ZGSZ 141600Z 14003MPS CAVOK 16/09 Q1028 NOSIG
ZGSZ,2017-02-14 17:00,ZGSZ 141700Z 14003MPS 110V170 CAVOK 16/09 Q1028 NOSIG
ZGSZ,2017-02-14 18:00,ZGSZ 141800Z 16003MPS CAVOK 15/08 Q1027 NOSIG
ZGSZ,2017-02-14 19:00,ZGSZ 141900Z 12002MPS 040V150 CAVOK 14/08 Q1027 NOSIG
ZGSZ,2017-02-14 20:00,ZGSZ 142000Z 16003MPS CAVOK 14/07 Q1026 NOSIG
ZGSZ,2017-02-14 21:00,ZGSZ 142100Z 16002MPS CAVOK 14/07 Q1026 NOSIG
ZGSZ,2017-02-14 22:00,ZGSZ 142200Z 00000MPS CAVOK 13/06 Q1027 NOSIG
ZGSZ,2017-02-14 23:00,ZGSZ 142300Z 00000MPS CAVOK 14/07 Q1027 NOSIG
ZGSZ,2017-02-15 00:00,ZGSZ 150000Z VRB01MPS CAVOK 15/08 Q1028 NOSIG
ZGSZ,2017-02-15 01:00,ZGSZ 150100Z 06002MPS 020V080 CAVOK 17/06 Q1028 NOSIG
ZGSZ,2017-02-15 02:00,ZGSZ 150200Z 10002MPS 360V170 CAVOK 19/06 Q1028 NOSIG
ZGSZ,2017-02-15 03:00,ZGSZ 150300Z 29003MPS CAVOK 19/08 Q1028 NOSIG
ZGSZ,2017-02-15 04:00,ZGSZ 150400Z 29004MPS 260V320 CAVOK 19/07 Q1027 NOSIG
ZGSZ,2017-02-15 05:00,ZGSZ 150500Z 25004MPS CAVOK 20/08 Q1026 NOSIG
ZGSZ,2017-02-15 06:00,ZGSZ 150600Z 23004MPS CAVOK 20/08 Q1025 NOSIG
ZGSZ,2017-02-15 07:00,ZGSZ 150700Z 23003MPS CAVOK 20/09 Q1024 NOSIG
ZGSZ,2017-02-15 08:00,ZGSZ 150800Z 22004MPS CAVOK 20/10 Q1023 NOSIG
ZGSZ,2017-02-15 09:00,ZGSZ 150900Z 22004MPS CAVOK 19/12 Q1023 NOSIG
ZGSZ,2017-02-15 10:00,ZGSZ 151000Z 22004MPS CAVOK 18/11 Q1023 NOSIG
ZGSZ,2017-02-15 11:00,ZGSZ 151100Z 22003MPS CAVOK 18/12 Q1023 NOSIG
ZGSZ,2017-02-15 12:00,ZGSZ 151200Z 22004MPS CAVOK 18/11 Q1024 NOSIG
ZGSZ,2017-02-15 13:00,ZGSZ 151300Z 20003MPS CAVOK 17/12 Q1024 NOSIG
ZGSZ,2017-02-15 14:00,ZGSZ 151400Z 15004MPS CAVOK 17/07 Q1025 NOSIG
ZGSZ,2017-02-15 15:00,ZGSZ 151500Z 15003MPS CAVOK 17/07 Q1024 NOSIG
ZGSZ,2017-02-15 16:00,ZGSZ 151600Z 15003MPS 120V190 CAVOK 17/07 Q1024 NOSIG
ZGSZ,2017-02-15 17:00,ZGSZ 151700Z 16003MPS CAVOK 17/10 Q1023 NOSIG
ZGSZ,2017-02-15 18:00,ZGSZ 151800Z 17002MPS 140V220 CAVOK 16/10 Q1023 NOSIG
ZGSZ,2017-02-15 19:00,ZGSZ 151900Z 10002MPS CAVOK 15/10 Q1022 NOSIG
ZGSZ,2017-02-15 20:00,ZGSZ 152000Z VRB01MPS CAVOK 16/10 Q1022 NOSIG
ZGSZ,2017-02-15 21:00,ZGSZ 152100Z 04002MPS CAVOK 14/10 Q1022 NOSIG
ZGSZ,2017-02-15 22:00,ZGSZ 152200Z 36002MPS CAVOK 14/11 Q1022 NOSIG
ZGSZ,2017-02-15 23:00,ZGSZ 152300Z 02002MPS 7000 NSC 14/11 Q1023 NOSIG
ZGSZ,2017-02-16 00:00,ZGSZ 160000Z 07002MPS CAVOK 16/11 Q1023 NOSIG
ZGSZ,2017-02-16 01:00,ZGSZ 160100Z 07002MPS CAVOK 18/11 Q1023 NOSIG
ZGSZ,2017-02-16 02:00,ZGSZ 160200Z VRB02MPS CAVOK 20/12 Q1023 NOSIG
ZGSZ,2017-02-16 03:00,ZGSZ 160300Z 28002MPS 250V310 CAVOK 20/13 Q1023 NOSIG
ZGSZ,2017-02-16 04:00,ZGSZ 160400Z 30003MPS CAVOK 20/13 Q1022 NOSIG
ZGSZ,2017-02-16 05:00,ZGSZ 160500Z 28003MPS CAVOK 21/13 Q1021 NOSIG
ZGSZ,2017-02-16 06:00,ZGSZ 160600Z 27003MPS CAVOK 22/14 Q1020 NOSIG
ZGSZ,2017-02-16 07:00,ZGSZ 160700Z 28003MPS CAVOK 22/14 Q1019 NOSIG
ZGSZ,2017-02-16 08:00,ZGSZ 160800Z 23004MPS CAVOK 22/15 Q1019 NOSIG
ZGSZ,2017-02-16 09:00,ZGSZ 160900Z 21004MPS CAVOK 20/16 Q1019 NOSIG
ZGSZ,2017-02-16 10:00,ZGSZ 161000Z 20004MPS CAVOK 19/15 Q1019 NOSIG
ZGSZ,2017-02-16 11:00,ZGSZ 161100Z 20004MPS CAVOK 18/16 Q1019 NOSIG
ZGSZ,2017-02-16 12:00,ZGSZ 161200Z 19002MPS CAVOK 18/15 Q1020 NOSIG
ZGSZ,2017-02-16 13:00,ZGSZ 161300Z VRB01MPS CAVOK 18/16 Q1020 NOSIG
ZGSZ,2017-02-16 14:00,ZGSZ 161400Z 20002MPS CAVOK 17/15 Q1020 NOSIG
ZGSZ,2017-02-16 15:00,ZGSZ 161500Z 20003MPS CAVOK 18/16 Q1021 NOSIG
ZGSZ,2017-02-16 16:00,ZGSZ 161600Z 26001MPS CAVOK 18/15 Q1020 NOSIG
ZGSZ,2017-02-16 17:00,ZGSZ 161700Z 21002MPS CAVOK 17/15 Q1020 NOSIG
ZGSZ,2017-02-16 18:00,ZGSZ 161800Z 19002MPS CAVOK 16/14 Q1020 NOSIG
ZGSZ,2017-02-16 19:00,ZGSZ 161900Z 00000MPS CAVOK 16/12 Q1020 NOSIG
ZGSZ,2017-02-16 20:00,ZGSZ 162000Z 02002MPS CAVOK 15/13 Q1020 NOSIG
ZGSZ,2017-02-16 21:00,ZGSZ 162100Z 07002MPS CAVOK 16/12 Q1020 NOSIG
ZGSZ,2017-02-16 22:00,ZGSZ 162200Z 06002MPS CAVOK 15/11 Q1021 NOSIG
ZGSZ,2017-02-16 23:00,ZGSZ 162300Z 08002MPS CAVOK 15/11 Q1021 NOSIG
ZGSZ,2017-02-17 00:00,ZGSZ 170000Z 06003MPS 9000 NSC 17/12 Q1022 NOSIG
ZGSZ,2017-02-17 01:00,ZGSZ 170100Z 06004MPS 020V080 7000 NSC 19/11 Q1022 NOSIG
ZGSZ,2017-02-17 02:00,ZGSZ 170200Z 05004MPS 020V090 CAVOK 22/12 Q1022 NOSIG
ZGSZ,2017-02-17 03:00,ZGSZ 170300Z 06002MPS 320V120 CAVOK 24/11 Q1022 NOSIG
ZGSZ,2017-02-17 04:00,ZGSZ 170400Z 30004MPS 7000 NSC 22/15 Q1021 NOSIG
ZGSZ,2017-02-17 05:00,ZGSZ 170500Z 29003MPS 7000 NSC 23/14 Q1020 NOSIG
ZGSZ,2017-02-17 06:00,ZGSZ 170600Z 27003MPS 240V300 CAVOK 24/12 Q1019 NOSIG
ZGSZ,2017-02-17 07:00,ZGSZ 170700Z 26003MPS CAVOK 24/14 Q1018 BECMG AT0840 20005MPS
ZGSZ,2017-02-17 08:00,ZGSZ 170800Z 22003MPS CAVOK 23/14 Q1018 NOSIG
ZGSZ,2017-02-17 09:00,ZGSZ 170900Z 20004MPS CAVOK 23/14 Q1018 NOSIG
ZGSZ,2017-02-17 10:00,ZGSZ 171000Z 19005MPS CAVOK 20/17 Q1019 NOSIG
ZGSZ,2017-02-17 11:00,ZGSZ 171100Z 19004MPS CAVOK 20/16 Q1019 NOSIG
ZGSZ,2017-02-17 12:00,ZGSZ 171200Z 19003MPS CAVOK 19/16 Q1020 NOSIG
ZGSZ,2017-02-17 13:00,ZGSZ 171300Z 21002MPS CAVOK 19/16 Q1021 NOSIG
ZGSZ,2017-02-17 14:00,ZGSZ 171400Z 20002MPS CAVOK 18/16 Q1021 NOSIG
ZGSZ,2017-02-17 15:00,ZGSZ 171500Z 20002MPS CAVOK 19/16 Q1021 NOSIG
ZGSZ,2017-02-17 16:00,ZGSZ 171600Z 20002MPS CAVOK 18/16 Q1021 NOSIG
ZGSZ,2017-02-17 17:00,ZGSZ 171700Z VRB01MPS CAVOK 18/16 Q1021 NOSIG
ZGSZ,2017-02-17 18:00,ZGSZ 171800Z 21001MPS CAVOK 17/16 Q1021 NOSIG
ZGSZ,2017-02-17 19:00,ZGSZ 171900Z 00000MPS CAVOK 17/16 Q1021 NOSIG
ZGSZ,2017-02-17 20:00,ZGSZ 172000Z 34001MPS CAVOK 17/15 Q1021 NOSIG
ZGSZ,2017-02-17 21:00,ZGSZ 172100Z 02002MPS 010V080 CAVOK 17/15 Q1021 NOSIG
ZGSZ,2017-02-17 22:00,ZGSZ 172200Z VRB01MPS CAVOK 17/15 Q1021 NOSIG
ZGSZ,2017-02-17 23:00,ZGSZ 172300Z 04002MPS 360V060 CAVOK 18/13 Q1022 NOSIG
ZGSZ,2017-02-18 00:00,ZGSZ 180000Z 04002MPS CAVOK 18/14 Q1023 NOSIG
ZGSZ,2017-02-18 01:00,ZGSZ 180100Z 06002MPS 030V100 CAVOK 21/13 Q1023 NOSIG
ZGSZ,2017-02-18 02:00,ZGSZ 180200Z 31002MPS 5000 HZ NSC 22/15 Q1023 NOSIG
ZGSZ,2017-02-18 03:00,ZGSZ 180300Z 25002MPS 220V290 3500 HZ NSC 22/16 Q1022 NOSIG
ZGSZ,2017-02-18 04:00,ZGSZ 180400Z 22003MPS 3500 HZ FEW015 23/15 Q1021 NOSIG
ZGSZ,2017-02-18 05:00,ZGSZ 180500Z 23003MPS 200V260 5000 HZ FEW015 24/15 Q1020 NOSIG
ZGSZ,2017-02-18 06:00,ZGSZ 180600Z 22004MPS 8000 FEW015 24/14 Q1019 NOSIG
ZGSZ,2017-02-18 07:00,ZGSZ 180700Z 22005MPS CAVOK 23/15 Q1018 NOSIG
ZGSZ,2017-02-18 08:00,ZGSZ 180800Z 22005MPS CAVOK 22/17 Q1018 NOSIG
ZGSZ,2017-02-18 09:00,ZGSZ 180900Z 21002MPS CAVOK 22/18 Q1018 NOSIG
ZGSZ,2017-02-18 10:00,ZGSZ 181000Z 22003MPS CAVOK 20/18 Q1018 NOSIG
ZGSZ,2017-02-18 11:00,ZGSZ 181100Z 22004MPS CAVOK 20/18 Q1019 NOSIG
ZGSZ,2017-02-18 12:00,ZGSZ 181200Z 23003MPS 7000 NSC 19/17 Q1019 NOSIG
ZGSZ,2017-02-18 13:00,ZGSZ 181300Z 23003MPS 7000 NSC 19/17 Q1020 NOSIG
ZGSZ,2017-02-18 14:00,ZGSZ 181400Z 16004MPS 130V190 CAVOK 19/13 Q1021 NOSIG
ZGSZ,2017-02-18 15:00,ZGSZ 181500Z 14004MPS CAVOK 18/13 Q1021 NOSIG
ZGSZ,2017-02-18 16:00,ZGSZ 181600Z 15005MPS 7000 NSC 18/14 Q1021 NOSIG
ZGSZ,2017-02-18 17:00,ZGSZ 181700Z 14004MPS 6000 NSC 18/14 Q1021 NOSIG
ZGSZ,2017-02-18 18:00,ZGSZ 181800Z 14005MPS 7000 NSC 17/14 Q1021 NOSIG
ZGSZ,2017-02-18 19:00,ZGSZ 181900Z 14004MPS 7000 SCT018 17/14 Q1021 NOSIG
ZGSZ,2017-02-18 20:00,ZGSZ 182000Z 14005MPS 7000 BKN019 17/13 Q1021 NOSIG
ZGSZ,2017-02-18 21:00,ZGSZ 182100Z 14006MPS 9999 SCT019 17/13 Q1020 NOSIG
ZGSZ,2017-02-18 22:00,ZGSZ 182200Z 14006MPS 9999 SCT019 17/13 Q1020 NOSIG
ZGSZ,2017-02-18 23:00,ZGSZ 182300Z 16004MPS 9999 BKN020 17/12 Q1020 NOSIG
ZGSZ,2017-02-19 00:00,ZGSZ 190000Z 14004MPS 9999 BKN020 17/12 Q1020 NOSIG
ZGSZ,2017-02-19 01:00,ZGSZ 190100Z 10003MPS 060V160 9999 FEW020 18/12 Q1020 NOSIG
ZGSZ,2017-02-19 02:00,ZGSZ 190200Z VRB02MPS 9999 BKN030 20/12 Q1021 NOSIG
ZGSZ,2017-02-19 03:00,ZGSZ 190300Z 30003MPS 270V330 9999 OVC026 19/13 Q1020 NOSIG
ZGSZ,2017-02-19 04:00,ZGSZ 190400Z 31003MPS 280V340 9999 BKN030 19/13 Q1019 NOSIG
ZGSZ,2017-02-19 05:00,ZGSZ 190500Z 31003MPS 8000 OVC030 19/13 Q1018 NOSIG
ZGSZ,2017-02-19 06:00,ZGSZ 190600Z 30002MPS 7000 OVC026 20/13 Q1016 NOSIG
ZGSZ,2017-02-19 07:00,ZGSZ 190700Z 22003MPS 9000 BKN030 20/14 Q1015 NOSIG
ZGSZ,2017-02-19 08:00,ZGSZ 190800Z 24003MPS 210V300 9000 BKN033 20/15 Q1015 NOSIG
ZGSZ,2017-02-19 09:00,ZGSZ 190900Z 22004MPS 8000 -RA BKN033 19/15 Q1014 NOSIG
ZGSZ,2017-02-19 10:00,ZGSZ 191000Z VRB01MPS 6000 -RA OVC026 19/16 Q1014 NOSIG
ZGSZ,2017-02-19 11:00,ZGSZ 191100Z 02002MPS 320V120 7000 BKN026 19/16 Q1014 NOSIG
ZGSZ,2017-02-19 12:00,ZGSZ 191200Z 29002MPS 260V340 7000 BKN020 19/16 Q1015 NOSIG
ZGSZ,2017-02-19 13:00,ZGSZ 191300Z 00000MPS 8000 BKN025 19/16 Q1015 NOSIG
ZGSZ,2017-02-19 14:00,ZGSZ 191400Z VRB01MPS 8000 BKN025 18/16 Q1015 NOSIG
ZGSZ,2017-02-19 15:00,ZGSZ 191500Z 13002MPS 100V160 8000 BKN033 19/15 Q1014 NOSIG
ZGSZ,2017-02-19 16:00,ZGSZ 191600Z 06002MPS 360V090 8000 BKN050 19/15 Q1014 NOSIG
ZGSZ,2017-02-19 17:00,ZGSZ 191700Z 07002MPS 350V110 5000 BR SCT020 19/15 Q1013 NOSIG
ZGSZ,2017-02-19 18:00,ZGSZ 191800Z 07002MPS 4500 BR SCT016 BKN033 19/16 Q1013 NOSIG
ZGSZ,2017-02-19 19:00,ZGSZ 191900Z 04002MPS 4000 BR OVC020 19/16 Q1013 NOSIG
ZGSZ,2017-02-19 20:00,ZGSZ 192000Z 06002MPS 4000 BR OVC020 19/16 Q1013 NOSIG
ZGSZ,2017-02-19 21:00,ZGSZ 192100Z 12001MPS 4000 BR OVC020 19/16 Q1013 NOSIG
ZGSZ,2017-02-19 22:00,ZGSZ 192200Z 09002MPS 4000 BR OVC020 19/16 Q1013 NOSIG
ZGSZ,2017-02-19 23:00,ZGSZ 192300Z 08002MPS 5000 BR FEW011 BKN020 19/16 Q1014 NOSIG
ZGSZ,2017-02-20 00:00,ZGSZ 200000Z VRB01MPS 4000 BR FEW011 BKN020 19/17 Q1015 NOSIG
ZGSZ,2017-02-20 01:00,ZGSZ 200100Z 08002MPS 040V110 4000 BR SCT013 BKN026 20/17 Q1015 NOSIG
ZGSZ,2017-02-20 02:00,ZGSZ 200200Z VRB01MPS 4000 BR FEW015 BKN036 21/17 Q1015 NOSIG
ZGSZ,2017-02-20 03:00,ZGSZ 200300Z 32003MPS 4000 BR FEW015 BKN040 22/18 Q1015 NOSIG
ZGSZ,2017-02-20 04:00,ZGSZ 200400Z 32003MPS 6000 FEW020 23/18 Q1014 NOSIG
ZGSZ,2017-02-20 05:00,ZGSZ 200500Z 29003MPS 9999 FEW023 23/18 Q1013 NOSIG
ZGSZ,2017-02-20 06:00,ZGSZ 200600Z 28003MPS 9999 FEW023 24/18 Q1012 NOSIG
ZGSZ,2017-02-20 07:00,ZGSZ 200700Z 25003MPS CAVOK 24/19 Q1012 NOSIG
ZGSZ,2017-02-20 08:00,ZGSZ 200800Z 23003MPS CAVOK 24/19 Q1011 NOSIG
ZGSZ,2017-02-20 09:00,ZGSZ 200900Z 22003MPS CAVOK 23/19 Q1012 NOSIG
ZGSZ,2017-02-20 10:00,ZGSZ 201000Z 20004MPS 7000 NSC 21/19 Q1012 NOSIG
ZGSZ,2017-02-20 11:00,ZGSZ 201100Z 20004MPS 4500 BR NSC 21/19 Q1013 BECMG TL1240 2900 BR
ZGSZ,2017-02-20 12:00,ZGSZ 201200Z 20004MPS 3500 BR NSC 20/19 Q1013 BECMG TL1240 2900 BR
ZGSZ,2017-02-20 13:00,ZGSZ 201300Z 19004MPS 8000 NSC 20/19 Q1014 NOSIG
ZGSZ,2017-02-20 14:00,ZGSZ 201400Z 19003MPS 8000 NSC 20/19 Q1015 NOSIG
ZGSZ,2017-02-20 15:00,ZGSZ 201500Z 15003MPS 8000 NSC 21/18 Q1015 NOSIG
ZGSZ,2017-02-20 16:00,ZGSZ 201600Z 14004MPS 8000 NSC 20/18 Q1016 NOSIG
ZGSZ,2017-02-20 17:00,ZGSZ 201700Z 14003MPS 110V170 8000 NSC 21/18 Q1015 NOSIG
ZGSZ,2017-02-20 18:00,ZGSZ 201800Z 13003MPS 100V160 CAVOK 21/18 Q1015 NOSIG
ZGSZ,2017-02-20 19:00,ZGSZ 201900Z 15002MPS CAVOK 20/17 Q1015 NOSIG
ZGSZ,2017-02-20 20:00,ZGSZ 202000Z 15004MPS 9999 FEW015 21/18 Q1015 NOSIG
ZGSZ,2017-02-20 21:00,ZGSZ 202100Z 13002MPS 100V160 9999 FEW015 20/18 Q1015 NOSIG
ZGSZ,2017-02-20 22:00,ZGSZ 202200Z 16004MPS 9999 SCT012 20/18 Q1015 NOSIG
ZGSZ,2017-02-20 23:00,ZGSZ 202300Z 16004MPS 9999 SCT014 20/18 Q1016 BECMG TL0030 BKN014
ZGSZ,2017-02-21 00:00,ZGSZ 210000Z 15004MPS 9999 SCT014 21/18 Q1017 BECMG TL0030 BKN014
ZGSZ,2017-02-21 01:00,ZGSZ 210100Z 15006MPS 9999 FEW018 23/18 Q1017 NOSIG
ZGSZ,2017-02-21 02:00,ZGSZ 210200Z 13006MPS 9999 FEW020 23/17 Q1018 NOSIG
ZGSZ,2017-02-21 03:00,ZGSZ 210300Z 14006MPS 9999 SCT020 24/17 Q1018 NOSIG
ZGSZ,2017-02-21 04:00,ZGSZ 210400Z 14005MPS 9999 FEW021 24/17 Q1017 NOSIG
ZGSZ,2017-02-21 05:00,ZGSZ 210500Z 14007MPS CAVOK 25/17 Q1016 NOSIG
ZGSZ,2017-02-21 06:00,ZGSZ 210600Z 16006MPS 110V180 CAVOK 25/16 Q1015 NOSIG
ZGSZ,2017-02-21 07:00,ZGSZ 210700Z 16006MPS 140V200 9999 SCT036 25/16 Q1014 NOSIG
ZGSZ,2017-02-21 08:00,ZGSZ 210800Z 14005MPS 110V170 9999 BKN033 23/16 Q1014 NOSIG
ZGSZ,2017-02-21 09:00,ZGSZ 210900Z 13005MPS 100V160 9999 FEW020 OVC033 22/16 Q1015 NOSIG
ZGSZ,2017-02-21 10:00,ZGSZ 211000Z 15006MPS 9999 OVC030 21/16 Q1015 NOSIG
ZGSZ,2017-02-21 11:00,ZGSZ 211100Z 14005MPS 9999 -RA BKN020 OVC030 20/15 Q1016 NOSIG
ZGSZ,2017-02-21 12:00,ZGSZ 211200Z 14006MPS 9999 -RA OVC026 19/15 Q1016 NOSIG
ZGSZ,2017-02-21 13:00,ZGSZ 211300Z 14005MPS 9999 FEW014 BKN040 19/16 Q1017 NOSIG
ZGSZ,2017-02-21 14:00,ZGSZ 211400Z 15005MPS 6000 RA FEW009 OVC023 18/16 Q1017 BECMG AT1500 -RA
ZGSZ,2017-02-21 15:00,ZGSZ 211500Z 13003MPS 080V160 9999 -RA OVC023 18/16 Q1017 NOSIG
ZGSZ,2017-02-21 16:00,ZGSZ 211600Z 13003MPS 060V170 9999 BKN050 18/16 Q1017 NOSIG
ZGSZ,2017-02-21 17:00,ZGSZ 211700Z 15004MPS 110V180 9999 BKN050 18/16 Q1016 NOSIG
ZGSZ,2017-02-21 18:00,ZGSZ 211800Z 15004MPS 9999 -SHRA FEW010 FEW020TCU BKN030 18/17 Q1015 RESHRA NOSIG
ZGSZ,2017-02-21 19:00,ZGSZ 211900Z 14002MPS 4000 -SHRA SCT013 FEW020TCU OVC033 18/17 Q1015 NOSIG
ZGSZ,2017-02-21 20:00,ZGSZ 212000Z 08002MPS 050V110 9999 SCT013 OVC040 18/17 Q1015 NOSIG
ZGSZ,2017-02-21 21:00,ZGSZ 212100Z 06003MPS 8000 -RA SCT013 OVC033 19/17 Q1014 NOSIG
ZGSZ,2017-02-21 22:00,ZGSZ 212200Z 10003MPS 7000 -RA FEW011 OVC033 18/17 Q1015 NOSIG
ZGSZ,2017-02-21 23:00,ZGSZ 212300Z 00000MPS 6000 SCT010 BKN033 18/17 Q1015 NOSIG
ZGSZ,2017-02-22 00:00,ZGSZ 220000Z VRB01MPS 4000 -SHRA BR SCT010 BKN033 18/17 Q1016 RESHRA NOSIG
ZGSZ,2017-02-22 01:00,ZGSZ 220100Z VRB01MPS 7000 BKN026 19/18 Q1017 NOSIG
ZGSZ,2017-02-22 02:00,ZGSZ 220200Z 15004MPS 120V180 9999 BKN026 21/18 Q1016 NOSIG
ZGSZ,2017-02-22 03:00,ZGSZ 220300Z 28003MPS 9999 SCT020 BKN030 20/18 Q1016 NOSIG
ZGSZ,2017-02-22 04:00,ZGSZ 220400Z 30002MPS 9999 SCT020 BKN036 21/18 Q1015 NOSIG
ZGSZ,2017-02-22 05:00,ZGSZ 220500Z 27002MPS 240V320 9999 FEW020 BKN036 21/18 Q1014 NOSIG
ZGSZ,2017-02-22 06:00,ZGSZ 220600Z 25002MPS 9999 FEW020 BKN036 22/18 Q1013 NOSIG
ZGSZ,2017-02-22 07:00,ZGSZ 220700Z 26002MPS 9999 FEW020 BKN036 21/18 Q1012 NOSIG
ZGSZ,2017-02-22 08:00,ZGSZ 220800Z 27002MPS 240V310 9999 FEW020 BKN036 21/18 Q1013 NOSIG
ZGSZ,2017-02-22 09:00,ZGSZ 220900Z 19002MPS 9999 SCT017 BKN036 22/18 Q1013 NOSIG
ZGSZ,2017-02-22 10:00,ZGSZ 221000Z 19004MPS 9999 FEW017 BKN036 21/19 Q1012 NOSIG
ZGSZ,2017-02-22 11:00,ZGSZ 221100Z 21003MPS 9999 SCT017 BKN036 21/19 Q1013 BECMG AT1230 BKN014
ZGSZ,2017-02-22 12:00,ZGSZ 221200Z 21002MPS 9999 SCT017 BKN036 21/19 Q1013 BECMG AT1230 BKN014
ZGSZ,2017-02-22 13:00,ZGSZ 221300Z 22003MPS 9999 BKN014 BKN030 21/19 Q1014 BECMG AT1330 SCT017 BKN033
ZGSZ,2017-02-22 14:00,ZGSZ 221400Z 23003MPS 9999 SCT016 BKN033 21/19 Q1014 NOSIG
ZGSZ,2017-02-22 15:00,ZGSZ 221500Z 00000MPS 9999 SCT016 BKN033 20/19 Q1015 NOSIG
ZGSZ,2017-02-22 16:00,ZGSZ 221600Z VRB01MPS 6000 -RA SCT016 BKN033 20/19 Q1015 NOSIG
ZGSZ,2017-02-22 17:00,ZGSZ 221700Z 33002MPS 5000 -SHRA SCT016 BKN033 20/19 Q1015 NOSIG
ZGSZ,2017-02-22 18:00,ZGSZ 221800Z 34004MPS 3000 -SHRA BR SCT011 BKN033 20/19 Q1015 NOSIG
ZGSZ,2017-02-22 19:00,ZGSZ 221900Z 34005MPS 1500 -SHRA BR BKN002 BKN020 19/18 Q1015 NOSIG
ZGSZ,2017-02-22 20:00,ZGSZ 222000Z 35006MPS 2300 -RA BR BKN005 BKN020 18/17 Q1015 NOSIG
ZGSZ,2017-02-22 21:00,ZGSZ 222100Z 34005MPS 1300 R33/1800D R34/1100V1300D -RA BR BKN005 BKN020 17/16 Q1015 NOSIG
ZGSZ,2017-02-22 22:00,ZGSZ 222200Z 35005MPS 0800 R33/1600D R34/0600V0750N -RA FG BKN003 BKN020 17/16 Q1016 BECMG AT2330 1500 BKN008 BKN020
ZGSZ,2017-02-22 23:00,ZGSZ 222300Z 35005MPS 0900 R33/1800N R34/0750N -RA FG BKN003 BKN020 16/16 Q1017 BECMG AT2330 1500 BKN008 BKN020
ZGSZ,2017-02-23 00:00,ZGSZ 230000Z 36005MPS 0700 R33/1100V1400D R34/0450N FG BKN004 BKN020 16/15 Q1017 NOSIG
ZGSZ,2017-02-23 01:00,ZGSZ 230100Z 36005MPS 0700 R33/1100V1300N R34/1100U FG BKN004 BKN020 16/15 Q1018 BECMG AT0140 1400 BR BKN005
ZGSZ,2017-02-23 02:00,ZGSZ 230200Z 36007MPS 2000 BR BKN006 BKN020 15/14 Q1019 BECMG AT0340 3100 BR BKN011 BKN020
ZGSZ,2017-02-23 03:00,ZGSZ 230300Z 01007MPS 2900 R33/1400U R34/P2000 BR BKN007 BKN020 15/13 Q1020 BECMG AT0340 3100 BR BKN011 BKN020
ZGSZ,2017-02-23 04:00,ZGSZ 230400Z 36006MPS 5000 R33/1400D R34/P2000 BR BKN011 BKN020 15/13 Q1019 BECMG AT0520 BKN009 BKN020
ZGSZ,2017-02-23 05:00,ZGSZ 230500Z 36007MPS 5000 R33/1400U R34/P2000 BR BKN011 BKN020 15/12 Q1019 BECMG AT0520 BKN009 BKN020
ZGSZ,2017-02-23 06:00,ZGSZ 230600Z 36006MPS 5000 BR BKN013 BKN020 15/12 Q1018 BECMG AT0720 SCT014 BKN020
ZGSZ,2017-02-23 07:00,ZGSZ 230700Z 02006MPS 7000 BKN013 BKN020 15/11 Q1018 BECMG AT0720 SCT014 BKN020
ZGSZ,2017-02-23 08:00,ZGSZ 230800Z 02006MPS 8000 SCT014 BKN020 15/11 Q1018 NOSIG
ZGSZ,2017-02-23 09:00,ZGSZ 230900Z 04006MPS 8000 SCT016 BKN022 14/10 Q1018 NOSIG
ZGSZ,2017-02-23 10:00,ZGSZ 231000Z 05007MPS 8000 FEW016 BKN023 14/09 Q1019 NOSIG
ZGSZ,2017-02-23 11:00,ZGSZ 231100Z 04006MPS 9999 OVC022 14/09 Q1019 NOSIG
ZGSZ,2017-02-23 12:00,ZGSZ 231200Z 05006MPS 9999 OVC023 13/09 Q1020 NOSIG
ZGSZ,2017-02-23 13:00,ZGSZ 231300Z 05007MPS 9999 SCT019 BKN024 13/08 Q1021 NOSIG
ZGSZ,2017-02-23 14:00,ZGSZ 231400Z 07006MPS 8000 -RA SCT012 BKN024 12/09 Q1021 NOSIG
ZGSZ,2017-02-23 15:00,ZGSZ 231500Z 07007MPS 7000 -RA SCT013 BKN024 11/08 Q1022 NOSIG
ZGSZ,2017-02-23 16:00,ZGSZ 231600Z 04006MPS 7000 -RA SCT013 BKN023 11/08 Q1022 NOSIG
ZGSZ,2017-02-23 17:00,ZGSZ 231700Z 04006MPS 5000 -RA SCT013 OVC026 11/08 Q1022 NOSIG
ZGSZ,2017-02-23 18:00,ZGSZ 231800Z 03005MPS 5000 -RA BR SCT011 BKN023 10/08 Q1023 NOSIG
ZGSZ,2017-02-23 19:00,ZGSZ 231900Z 04005MPS 6000 SCT011 BKN020 10/07 Q1022 NOSIG
ZGSZ,2017-02-23 20:00,ZGSZ 232000Z 04006MPS 5000 BR SCT011 BKN020 10/07 Q1022 NOSIG
ZGSZ,2017-02-23 21:00,ZGSZ 232100Z 06005MPS 5000 BR BKN013 BKN020 10/07 Q1022 NOSIG
ZGSZ,2017-02-23 22:00,ZGSZ 232200Z 03006MPS 7000 SCT014 BKN022 10/07 Q1022 NOSIG
ZGSZ,2017-02-23 23:00,ZGSZ 232300Z 07004MPS 4000 -RA BR SCT012 BKN023 10/08 Q1023 NOSIG
ZGSZ,2017-02-24 00:00,ZGSZ 240000Z 04006MPS 4500 BR SCT011 BKN023 10/07 Q1024 NOSIG
ZGSZ,2017-02-24 01:00,ZGSZ 240100Z 04007MPS 3200 BR SCT010 BKN020 10/08 Q1025 BECMG AT0235 BKN012
ZGSZ,2017-02-24 02:00,ZGSZ 240200Z 04007MPS 3500 BR SCT010 BKN020 10/08 Q1025 BECMG AT0235 BKN012
ZGSZ,2017-02-24 03:00,ZGSZ 240300Z 05005MPS 4000 BR BKN011 BKN020 10/08 Q1025 BECMG AT0435 SCT016
ZGSZ,2017-02-24 04:00,ZGSZ 240400Z 04006MPS 9999 BKN013 BKN026 10/07 Q1024 BECMG AT0435 SCT016
ZGSZ,2017-02-24 05:00,ZGSZ 240500Z 05006MPS 020V080 9000 SCT016 BKN026 10/07 Q1024 BECMG TL0630 BKN011
ZGSZ,2017-02-24 06:00,ZGSZ 240600Z 04006MPS 9999 SCT016 BKN026 11/07 Q1023 BECMG TL0630 BKN011
ZGSZ,2017-02-24 07:00,ZGSZ 240700Z 05006MPS 9999 BKN014 BKN026 11/07 Q1022 NOSIG
ZGSZ,2017-02-24 08:00,ZGSZ 240800Z 05005MPS 010V080 9999 SCT018 BKN030 11/07 Q1022 NOSIG
ZGSZ,2017-02-24 09:00,ZGSZ 240900Z 04006MPS 9999 SCT018 BKN030 11/06 Q1022 NOSIG
ZGSZ,2017-02-24 10:00,ZGSZ 241000Z 06006MPS 9999 SCT018 BKN030 11/06 Q1022 NOSIG
ZGSZ,2017-02-24 11:00,ZGSZ 241100Z 04006MPS 8000 SCT018 BKN030 10/07 Q1022 NOSIG
ZGSZ,2017-02-24 12:00,ZGSZ 241200Z 05006MPS 6000 SCT018 BKN030 10/07 Q1023 NOSIG
ZGSZ,2017-02-24 13:00,ZGSZ 241300Z 04005MPS 8000 SCT018 BKN030 10/07 Q1024 NOSIG
ZGSZ,2017-02-24 14:00,ZGSZ 241400Z 05006MPS 8000 SCT018 BKN030 10/06 Q1024 NOSIG
ZGSZ,2017-02-24 15:00,ZGSZ 241500Z 07005MPS 040V100 9999 SCT018 BKN030 10/05 Q1024 NOSIG
ZGSZ,2017-02-24 16:00,ZGSZ 241600Z 04005MPS 9999 SCT017 BKN025 10/06 Q1024 NOSIG
ZGSZ,2017-02-24 17:00,ZGSZ 241700Z 04006MPS 010V070 9999 OVC020 10/05 Q1024 NOSIG
ZGSZ,2017-02-24 18:00,ZGSZ 241800Z 05006MPS 9999 FEW014 BKN017 10/06 Q1023 NOSIG
ZGSZ,2017-02-24 19:00,ZGSZ 241900Z 04005MPS 9999 -RA SCT012 BKN017 09/06 Q1022 NOSIG
ZGSZ,2017-02-24 20:00,ZGSZ 242000Z 04005MPS 010V070 6000 -RA BKN011 BKN018 09/06 Q1022 NOSIG
ZGSZ,2017-02-24 21:00,ZGSZ 242100Z 04004MPS 4500 -RA BKN011 BKN018 09/07 Q1022 NOSIG
ZGSZ,2017-02-24 22:00,ZGSZ 242200Z 04005MPS 4500 -RA BKN011 BKN018 09/07 Q1022 NOSIG
ZGSZ,2017-02-24 23:00,ZGSZ 242300Z 03004MPS 4500 -RA BR BKN011 BKN018 09/07 Q1023 BECMG AT0020 BKN009 BKN018
ZGSZ,2017-02-25 00:00,ZGSZ 250000Z 03005MPS 5000 BR BKN011 BKN018 09/07 Q1023 BECMG AT0020 BKN009 BKN018
ZGSZ,2017-02-25 01:00,ZGSZ 250100Z 03005MPS 6000 -RA BKN009 OVC026 09/07 Q1024 BECMG AT0220 BKN011 BKN018
ZGSZ,2017-02-25 02:00,ZGSZ 250200Z 03006MPS 7000 BKN009 OVC033 09/07 Q1024 BECMG AT0220 BKN011 BKN018
ZGSZ,2017-02-25 03:00,ZGSZ 250300Z 04007MPS 9999 BKN013 OVC033 10/07 Q1024 BECMG AT0440 BKN016 OVC033
ZGSZ,2017-02-25 04:00,ZGSZ 250400Z 08005MPS 9999 FEW015 OVC040 10/07 Q1022 NOSIG
ZGSZ,2017-02-25 05:00,ZGSZ 250500Z 04005MPS 9999 FEW016 OVC040 12/07 Q1021 NOSIG
ZGSZ,2017-02-25 06:00,ZGSZ 250600Z 03005MPS 360V060 9999 BKN020 OVC040 12/06 Q1020 NOSIG
ZGSZ,2017-02-25 07:00,ZGSZ 250700Z 04005MPS 9999 SCT020 OVC040 12/07 Q1019 NOSIG
ZGSZ,2017-02-25 08:00,ZGSZ 250800Z 03005MPS 9999 SCT020 OVC040 12/07 Q1019 NOSIG
ZGSZ,2017-02-25 09:00,ZGSZ 250900Z 03004MPS 360V060 9999 SCT020 OVC040 12/07 Q1019 NOSIG
ZGSZ,2017-02-25 10:00,ZGSZ 251000Z 01005MPS 6000 BKN017 OVC040 11/07 Q1019 BECMG TL1120 BKN014 OVC040
ZGSZ,2017-02-25 11:00,ZGSZ 251100Z 36005MPS 4500 BR BKN014 OVC033 10/07 Q1020 BECMG TL1120 BKN014 OVC040
ZGSZ,2017-02-25 12:00,ZGSZ 251200Z 03004MPS 7000 BKN012 OVC033 10/07 Q1021 BECMG TL1330 SCT011 OVC023
ZGSZ,2017-02-25 13:00,ZGSZ 251300Z 03004MPS 9000 BKN012 OVC033 10/08 Q1021 BECMG TL1330 SCT011 OVC023
ZGSZ,2017-02-25 14:00,ZGSZ 251400Z 36005MPS 5000 BR SCT011 OVC023 10/08 Q1022 BECMG TL1430 BKN011 OVC023
ZGSZ,2017-02-25 15:00,ZGSZ 251500Z 03005MPS 8000 -RA BKN011 OVC023 10/08 Q1023 NOSIG
ZGSZ,2017-02-25 16:00,ZGSZ 251600Z 05004MPS 360V080 8000 -RA BKN011 OVC023 09/08 Q1022 NOSIG
ZGSZ,2017-02-25 17:00,ZGSZ 251700Z 04004MPS 7000 -RA SCT011 BKN036 10/08 Q1023 NOSIG
ZGSZ,2017-02-25 18:00,ZGSZ 251800Z 01004MPS 8000 -RA BKN010 BKN036 10/08 Q1023 NOSIG
ZGSZ,2017-02-25 19:00,ZGSZ 251900Z 03005MPS 9999 BKN011 BKN036 10/08 Q1022 NOSIG
ZGSZ,2017-02-25 20:00,ZGSZ 252000Z 05006MPS 020V080 9999 SCT011 BKN033 10/08 Q1022 NOSIG
ZGSZ,2017-02-25 21:00,ZGSZ 252100Z 06006MPS 9999 SCT015 BKN040 10/07 Q1021 NOSIG
ZGSZ,2017-02-25 22:00,ZGSZ 252200Z 04005MPS 020V080 9999 FEW015 BKN040 10/07 Q1021 NOSIG
ZGSZ,2017-02-25 23:00,ZGSZ 252300Z 03005MPS 9999 FEW015 10/07 Q1022 NOSIG
ZGSZ,2017-02-26 00:00,ZGSZ 260000Z 04004MPS 010V070 9999 SCT015 10/07 Q1022 NOSIG
ZGSZ,2017-02-26 01:00,ZGSZ 260100Z 06005MPS 9999 SCT017 11/07 Q1023 NOSIG
ZGSZ,2017-02-26 02:00,ZGSZ 260200Z 04005MPS 9999 FEW016 BKN050 12/08 Q1023 NOSIG
ZGSZ,2017-02-26 03:00,ZGSZ 260300Z 04006MPS 010V070 CAVOK 14/08 Q1023 NOSIG
ZGSZ,2017-02-26 04:00,ZGSZ 260400Z 04005MPS CAVOK 13/08 Q1022 NOSIG
ZGSZ,2017-02-26 05:00,ZGSZ 260500Z 05004MPS 010V090 9999 FEW050 15/08 Q1021 NOSIG
ZGSZ,2017-02-26 06:00,ZGSZ 260600Z 05005MPS 020V090 9999 SCT050 17/08 Q1020 NOSIG
ZGSZ,2017-02-26 07:00,ZGSZ 260700Z 02004MPS 320V040 CAVOK 17/08 Q1019 NOSIG
ZGSZ,2017-02-26 08:00,ZGSZ 260800Z 07004MPS CAVOK 18/08 Q1019 NOSIG
ZGSZ,2017-02-26 09:00,ZGSZ 260900Z 06004MPS 030V100 CAVOK 17/08 Q1020 NOSIG
ZGSZ,2017-02-26 10:00,ZGSZ 261000Z 04004MPS CAVOK 17/08 Q1020 NOSIG
ZGSZ,2017-02-26 11:00,ZGSZ 261100Z 04004MPS CAVOK 17/08 Q1021 NOSIG
ZGSZ,2017-02-26 12:00,ZGSZ 261200Z 06003MPS 9999 OVC050 17/08 Q1021 NOSIG
ZGSZ,2017-02-26 13:00,ZGSZ 261300Z 09002MPS 9999 OVC050 16/08 Q1021 NOSIG
ZGSZ,2017-02-26 14:00,ZGSZ 261400Z 10001MPS 9999 OVC050 16/08 Q1022 NOSIG
ZGSZ,2017-02-26 15:00,ZGSZ 261500Z 04002MPS 9999 OVC050 16/08 Q1022 NOSIG
ZGSZ,2017-02-26 16:00,ZGSZ 261600Z 01002MPS 9999 OVC050 15/09 Q1022 NOSIG
ZGSZ,2017-02-26 17:00,ZGSZ 261700Z 08001MPS 9999 OVC050 16/09 Q1022 NOSIG
ZGSZ,2017-02-26 18:00,ZGSZ 261800Z 06002MPS 9999 OVC050 16/09 Q1022 NOSIG
ZGSZ,2017-02-26 19:00,ZGSZ 261900Z 00000MPS 9999 OVC050 16/09 Q1022 NOSIG
ZGSZ,2017-02-26 20:00,ZGSZ 262000Z 07002MPS 9999 OVC050 15/09 Q1022 NOSIG
ZGSZ,2017-02-26 21:00,ZGSZ 262100Z 07002MPS 9999 OVC050 15/09 Q1022 NOSIG
ZGSZ,2017-02-26 22:00,ZGSZ 262200Z 05002MPS 020V090 9999 OVC050 15/10 Q1022 NOSIG
ZGSZ,2017-02-26 23:00,ZGSZ 262300Z 07003MPS 9999 OVC050 15/10 Q1023 NOSIG
ZGSZ,2017-02-27 00:00,ZGSZ 270000Z 08003MPS 9999 -RA OVC050 15/08 Q1024 NOSIG
ZGSZ,2017-02-27 01:00,ZGSZ 270100Z 08004MPS 9999 FEW026 OVC050 16/09 Q1024 NOSIG
ZGSZ,2017-02-27 02:00,ZGSZ 270200Z 09003MPS 9999 FEW026 OVC050 17/10 Q1025 NOSIG
ZGSZ,2017-02-27 03:00,ZGSZ 270300Z 09002MPS 020V170 9999 FEW026 BKN050 18/10 Q1024 NOSIG
ZGSZ,2017-02-27 04:00,ZGSZ 270400Z 13002MPS 070V220 9999 BKN050 19/10 Q1023 NOSIG
ZGSZ,2017-02-27 05:00,ZGSZ 270500Z 27003MPS 240V300 9999 BKN050 19/11 Q1022 NOSIG
ZGSZ,2017-02-27 06:00,ZGSZ 270600Z 29003MPS 260V320 9999 BKN050 18/11 Q1021 NOSIG
ZGSZ,2017-02-27 07:00,ZGSZ 270700Z 28003MPS CAVOK 19/12 Q1021 NOSIG
ZGSZ,2017-02-27 08:00,ZGSZ 270800Z 24003MPS CAVOK 19/11 Q1020 NOSIG
ZGSZ,2017-02-27 09:00,ZGSZ 270900Z 24003MPS CAVOK 18/08 Q1021 NOSIG
ZGSZ,2017-02-27 10:00,ZGSZ 271000Z 25003MPS CAVOK 18/09 Q1021 NOSIG
ZGSZ,2017-02-27 11:00,ZGSZ 271100Z 23003MPS CAVOK 18/09 Q1021 NOSIG
ZGSZ,2017-02-27 12:00,ZGSZ 271200Z 20003MPS CAVOK 18/08 Q1022 NOSIG
ZGSZ,2017-02-27 13:00,ZGSZ 271300Z 19005MPS CAVOK 17/10 Q1022 NOSIG
ZGSZ,2017-02-27 14:00,ZGSZ 271400Z 14004MPS CAVOK 17/08 Q1022 NOSIG
ZGSZ,2017-02-27 15:00,ZGSZ 271500Z 11002MPS 070V150 CAVOK 17/08 Q1022 NOSIG
ZGSZ,2017-02-27 16:00,ZGSZ 271600Z 12003MPS 080V160 CAVOK 17/09 Q1022 NOSIG
ZGSZ,2017-02-27 17:00,ZGSZ 271700Z 14003MPS CAVOK 16/09 Q1022 NOSIG
ZGSZ,2017-02-27 18:00,ZGSZ 271800Z 14002MPS CAVOK 16/09 Q1022 NOSIG
ZGSZ,2017-02-27 19:00,ZGSZ 271900Z 14003MPS CAVOK 16/10 Q1021 NOSIG
ZGSZ,2017-02-27 20:00,ZGSZ 272000Z 14004MPS CAVOK 15/09 Q1021 NOSIG
ZGSZ,2017-02-27 21:00,ZGSZ 272100Z 12002MPS CAVOK 15/07 Q1021 NOSIG
ZGSZ,2017-02-27 22:00,ZGSZ 272200Z 02002MPS 9999 BKN050 15/09 Q1022 NOSIG
ZGSZ,2017-02-27 23:00,ZGSZ 272300Z 14002MPS 9999 BKN050 15/07 Q1022 NOSIG
ZGSZ,2017-02-28 00:00,ZGSZ 280000Z 36003MPS 320V030 9999 BKN050 16/07 Q1023 NOSIG
ZGSZ,2017-02-28 01:00,ZGSZ 280100Z 08003MPS 9999 BKN050 17/07 Q1023 NOSIG
ZGSZ,2017-02-28 02:00,ZGSZ 280200Z 08003MPS 050V160 9999 BKN046 18/07 Q1022 NOSIG
ZGSZ,2017-02-28 03:00,ZGSZ 280300Z 29003MPS 250V320 9999 BKN043 18/08 Q1022 NOSIG
ZGSZ,2017-02-28 04:00,ZGSZ 280400Z 30002MPS 9999 BKN043 19/09 Q1021 NOSIG
ZGSZ,2017-02-28 05:00,ZGSZ 280500Z 30004MPS 9999 BKN043 19/09 Q1020 NOSIG
ZGSZ,2017-02-28 06:00,ZGSZ 280600Z 31003MPS 8000 BKN050 20/08 Q1019 NOSIG
ZGSZ,2017-02-28 07:00,ZGSZ 280700Z 30003MPS 8000 FEW040 20/10 Q1018 NOSIG
ZGSZ,2017-02-28 08:00,ZGSZ 280800Z 31003MPS 7000 FEW040 20/08 Q1017 NOSIG
ZGSZ,2017-02-28 09:00,ZGSZ 280900Z 32003MPS 8000 BKN053 20/09 Q1017 NOSIG
ZGSZ,2017-02-28 10:00,ZGSZ 281000Z 33003MPS 5000 HZ FEW033 BKN040 19/10 Q1017 NOSIG
ZGSZ,2017-02-28 11:00,ZGSZ 281100Z 33002MPS 300V020 5000 HZ FEW033 BKN040 19/12 Q1018 NOSIG
ZGSZ,2017-02-28 12:00,ZGSZ 281200Z 21003MPS 6000 BKN050 18/13 Q1018 NOSIG
ZGSZ,2017-02-28 13:00,ZGSZ 281300Z 19003MPS 8000 NSC 17/11 Q1019 NOSIG
ZGSZ,2017-02-28 14:00,ZGSZ 281400Z 24002MPS CAVOK 18/11 Q1019 NOSIG
ZGSZ,2017-02-28 15:00,ZGSZ 281500Z 21003MPS CAVOK 17/12 Q1019 NOSIG
ZGSZ,2017-02-28 16:00,ZGSZ 281600Z VRB01MPS CAVOK 18/11 Q1020 NOSIG
ZGSZ,2017-02-28 17:00,ZGSZ 281700Z 16003MPS CAVOK 18/09 Q1020 NOSIG
ZGSZ,2017-02-28 18:00,ZGSZ 281800Z 14003MPS CAVOK 17/09 Q1020 NOSIG
ZGSZ,2017-02-28 19:00,ZGSZ 281900Z VRB01MPS CAVOK 17/09 Q1019 NOSIG
ZGSZ,2017-02-28 20:00,ZGSZ 282000Z 00000MPS CAVOK 16/09 Q1019 NOSIG
ZGSZ,2017-02-28 21:00,ZGSZ 282100Z 00000MPS 7000 NSC 17/10 Q1019 NOSIG
ZGSZ,2017-02-28 22:00,ZGSZ 282200Z 00000MPS 6000 NSC 17/10 Q1020 NOSIG
ZGSZ,2017-02-28 23:00,ZGSZ 282300Z VRB01MPS 5000 HZ BKN050 17/11 Q1021 NOSIG
ZGSZ,2017-03-01 00:00,ZGSZ 010000Z 00000MPS 5000 HZ SCT033 17/12 Q1021 NOSIG
ZGSZ,2017-03-01 01:00,ZGSZ 010100Z VRB02MPS 3500 HZ SCT030 19/12 Q1022 BECMG AT0230 2000
ZGSZ,2017-03-01 02:00,ZGSZ 010200Z 35005MPS 3200 HZ SCT030 19/12 Q1022 BECMG AT0230 2500
ZGSZ,2017-03-01 03:00,ZGSZ 010300Z 35005MPS 2800 HZ BKN026 BKN050 18/12 Q1022 BECMG AT0430 3000
ZGSZ,2017-03-01 04:00,ZGSZ 010400Z 34005MPS 2900 HZ BKN050 20/11 Q1021 BECMG AT0430 3000
ZGSZ,2017-03-01 05:00,ZGSZ 010500Z 34006MPS 4000 HZ SCT030 21/13 Q1020 NOSIG
ZGSZ,2017-03-01 06:00,ZGSZ 010600Z 32006MPS 4400 HZ NSC 20/13 Q1018 NOSIG
ZGSZ,2017-03-01 07:00,ZGSZ 010700Z 32005MPS 5000 HZ NSC 20/13 Q1017 NOSIG
ZGSZ,2017-03-01 08:00,ZGSZ 010800Z 32006MPS 5000 HZ FEW033 21/13 Q1017 NOSIG
ZGSZ,2017-03-01 09:00,ZGSZ 010900Z 33005MPS 7000 FEW033 21/12 Q1017 NOSIG
ZGSZ,2017-03-01 10:00,ZGSZ 011000Z 36003MPS 330V040 8000 NSC 21/12 Q1018 NOSIG
ZGSZ,2017-03-01 11:00,ZGSZ 011100Z 34003MPS 7000 FEW012 20/13 Q1018 NOSIG
ZGSZ,2017-03-01 12:00,ZGSZ 011200Z 03004MPS 8000 FEW012 21/10 Q1019 NOSIG
ZGSZ,2017-03-01 13:00,ZGSZ 011300Z 03002MPS 8000 FEW012 SCT050 19/10 Q1019 NOSIG
ZGSZ,2017-03-01 14:00,ZGSZ 011400Z 06002MPS 5000 HZ FEW012 SCT050 19/11 Q1019 NOSIG
ZGSZ,2017-03-01 15:00,ZGSZ 011500Z 06002MPS 5000 HZ FEW012 SCT050 18/11 Q1020 NOSIG
ZGSZ,2017-03-01 16:00,ZGSZ 011600Z 05002MPS 020V090 5000 HZ FEW012 SCT050 17/10 Q1020 NOSIG
ZGSZ,2017-03-01 17:00,ZGSZ 011700Z 06002MPS 5000 HZ FEW012 SCT050 17/09 Q1020 NOSIG
ZGSZ,2017-03-01 18:00,ZGSZ 011800Z 04002MPS 5000 HZ FEW012 SCT050 16/09 Q1019 NOSIG
ZGSZ,2017-03-01 19:00,ZGSZ 011900Z 04003MPS 5000 HZ FEW050 15/08 Q1019 NOSIG
ZGSZ,2017-03-01 20:00,ZGSZ 012000Z 02003MPS 7000 FEW050 16/07 Q1019 NOSIG
ZGSZ,2017-03-01 21:00,ZGSZ 012100Z 09001MPS 7000 FEW050 15/08 Q1019 NOSIG
ZGSZ,2017-03-01 22:00,ZGSZ 012200Z 05004MPS 7000 FEW050 16/06 Q1020 NOSIG
ZGSZ,2017-03-01 23:00,ZGSZ 012300Z 06005MPS 020V080 8000 FEW050 16/05 Q1021 NOSIG
ZGSZ,2017-03-02 00:00,ZGSZ 020000Z 06005MPS CAVOK 17/04 Q1021 NOSIG
ZGSZ,2017-03-02 01:00,ZGSZ 020100Z 07007MPS CAVOK 18/04 Q1021 NOSIG
ZGSZ,2017-03-02 02:00,ZGSZ 020200Z 07007MPS CAVOK 20/02 Q1022 NOSIG
ZGSZ,2017-03-02 03:00,ZGSZ 020300Z 06009MPS CAVOK 21/M01 Q1022 NOSIG
ZGSZ,2017-03-02 04:00,ZGSZ 020400Z 03006MPS CAVOK 22/01 Q1021 NOSIG
ZGSZ,2017-03-02 05:00,ZGSZ 020500Z 05006MPS 010V080 CAVOK 23/M02 Q1020 NOSIG
ZGSZ,2017-03-02 06:00,ZGSZ 020600Z 07006MPS 040V100 CAVOK 23/M03 Q1018 NOSIG
ZGSZ,2017-03-02 07:00,ZGSZ 020700Z 05005MPS 010V080 CAVOK 24/M03 Q1018 NOSIG
ZGSZ,2017-03-02 08:00,ZGSZ 020800Z 04004MPS 020V080 CAVOK 23/M04 Q1017 NOSIG
ZGSZ,2017-03-02 09:00,ZGSZ 020900Z 05003MPS 010V100 CAVOK 23/M03 Q1017 NOSIG
ZGSZ,2017-03-02 10:00,ZGSZ 021000Z 08003MPS CAVOK 22/M03 Q1017 NOSIG
ZGSZ,2017-03-02 11:00,ZGSZ 021100Z 08003MPS CAVOK 20/M00 Q1017 NOSIG
ZGSZ,2017-03-02 12:00,ZGSZ 021200Z 09002MPS CAVOK 19/00 Q1018 NOSIG
ZGSZ,2017-03-02 13:00,ZGSZ 021300Z 13003MPS CAVOK 19/M00 Q1018 NOSIG
ZGSZ,2017-03-02 14:00,ZGSZ 021400Z 15005MPS CAVOK 18/03 Q1019 NOSIG
ZGSZ,2017-03-02 15:00,ZGSZ 021500Z 15004MPS CAVOK 17/06 Q1019 NOSIG
ZGSZ,2017-03-02 16:00,ZGSZ 021600Z 15004MPS CAVOK 17/07 Q1019 NOSIG
ZGSZ,2017-03-02 17:00,ZGSZ 021700Z 13003MPS 110V170 CAVOK 16/08 Q1019 NOSIG
ZGSZ,2017-03-02 18:00,ZGSZ 021800Z 13003MPS CAVOK 15/08 Q1018 NOSIG
ZGSZ,2017-03-02 19:00,ZGSZ 021900Z 12003MPS CAVOK 15/08 Q1017 NOSIG
ZGSZ,2017-03-02 20:00,ZGSZ 022000Z 01001MPS CAVOK 15/07 Q1017 NOSIG
ZGSZ,2017-03-02 21:00,ZGSZ 022100Z 06002MPS CAVOK 14/08 Q1017 NOSIG
ZGSZ,2017-03-02 22:00,ZGSZ 022200Z 14002MPS 100V160 CAVOK 14/07 Q1017 NOSIG
ZGSZ,2017-03-02 23:00,ZGSZ 022300Z 08002MPS 8000 NSC 15/07 Q1018 NOSIG
ZGSZ,2017-03-03 00:00,ZGSZ 030000Z 13002MPS 100V160 8000 NSC 15/07 Q1018 NOSIG
ZGSZ,2017-03-03 01:00,ZGSZ 030100Z 15003MPS CAVOK 17/07 Q1019 NOSIG
ZGSZ,2017-03-03 02:00,ZGSZ 030200Z 17002MPS 100V240 CAVOK 19/07 Q1019 NOSIG
ZGSZ,2017-03-03 03:00,ZGSZ 030300Z 24003MPS CAVOK 19/09 Q1018 NOSIG
ZGSZ,2017-03-03 04:00,ZGSZ 030400Z 25004MPS CAVOK 20/10 Q1017 NOSIG
ZGSZ,2017-03-03 05:00,ZGSZ 030500Z 29003MPS 250V310 CAVOK 20/11 Q1016 NOSIG
ZGSZ,2017-03-03 06:00,ZGSZ 030600Z 26003MPS CAVOK 20/11 Q1015 NOSIG
ZGSZ,2017-03-03 07:00,ZGSZ 030700Z 23003MPS CAVOK 20/12 Q1014 NOSIG
ZGSZ,2017-03-03 08:00,ZGSZ 030800Z 21005MPS CAVOK 20/13 Q1014 NOSIG
ZGSZ,2017-03-03 09:00,ZGSZ 030900Z 21004MPS CAVOK 19/12 Q1013 NOSIG
ZGSZ,2017-03-03 10:00,ZGSZ 031000Z 20003MPS CAVOK 19/11 Q1013 NOSIG
ZGSZ,2017-03-03 11:00,ZGSZ 031100Z 18002MPS 120V230 CAVOK 18/11 Q1014 NOSIG
ZGSZ,2017-03-03 12:00,ZGSZ 031200Z 15004MPS CAVOK 18/06 Q1014 NOSIG
ZGSZ,2017-03-03 13:00,ZGSZ 031300Z 15004MPS 9999 BKN043 18/06 Q1015 NOSIG
ZGSZ,2017-03-03 14:00,ZGSZ 031400Z 14004MPS 9999 BKN040 18/07 Q1015 NOSIG
ZGSZ,2017-03-03 15:00,ZGSZ 031500Z 14004MPS 9999 BKN040 17/07 Q1016 NOSIG
ZGSZ,2017-03-03 16:00,ZGSZ 031600Z 15004MPS CAVOK 17/08 Q1015 NOSIG
ZGSZ,2017-03-03 17:00,ZGSZ 031700Z 14003MPS 110V170 9999 BKN040 18/08 Q1015 NOSIG
ZGSZ,2017-03-03 18:00,ZGSZ 031800Z VRB02MPS 9999 FEW040 18/09 Q1015 NOSIG
ZGSZ,2017-03-03 19:00,ZGSZ 031900Z VRB01MPS CAVOK 17/09 Q1014 NOSIG
ZGSZ,2017-03-03 20:00,ZGSZ 032000Z 07002MPS 030V130 CAVOK 18/09 Q1014 NOSIG
ZGSZ,2017-03-03 21:00,ZGSZ 032100Z 07002MPS 020V120 CAVOK 17/09 Q1014 NOSIG
ZGSZ,2017-03-03 22:00,ZGSZ 032200Z 08002MPS 050V140 CAVOK 17/09 Q1014 NOSIG
ZGSZ,2017-03-03 23:00,ZGSZ 032300Z 05002MPS CAVOK 17/09 Q1014 NOSIG
ZGSZ,2017-03-04 00:00,ZGSZ 040000Z 09002MPS 060V120 CAVOK 18/10 Q1015 NOSIG
ZGSZ,2017-03-04 01:00,ZGSZ 040100Z 19004MPS 9999 BKN050 19/11 Q1015 NOSIG
ZGSZ,2017-03-04 02:00,ZGSZ 040200Z 21004MPS 9999 BKN050 19/13 Q1015 NOSIG
ZGSZ,2017-03-04 03:00,ZGSZ 040300Z 24003MPS CAVOK 20/13 Q1015 NOSIG
ZGSZ,2017-03-04 04:00,ZGSZ 040400Z 24003MPS CAVOK 21/13 Q1014 NOSIG
ZGSZ,2017-03-04 05:00,ZGSZ 040500Z 24004MPS CAVOK 21/14 Q1013 NOSIG
ZGSZ,2017-03-04 06:00,ZGSZ 040600Z 23004MPS CAVOK 21/15 Q1012 NOSIG
ZGSZ,2017-03-04 07:00,ZGSZ 040700Z 26003MPS 220V290 CAVOK 22/16 Q1011 NOSIG
ZGSZ,2017-03-04 08:00,ZGSZ 040800Z 24004MPS 6000 SCT053 20/16 Q1011 NOSIG
ZGSZ,2017-03-04 09:00,ZGSZ 040900Z VRB01MPS 6000 BKN053 20/16 Q1011 NOSIG
ZGSZ,2017-03-04 10:00,ZGSZ 041000Z 24002MPS 190V270 6000 BKN053 19/16 Q1011 NOSIG
ZGSZ,2017-03-04 11:00,ZGSZ 041100Z 00000MPS 6000 BKN053 19/17 Q1012 NOSIG
ZGSZ,2017-03-04 12:00,ZGSZ 041200Z 00000MPS 6000 BKN053 19/16 Q1013 NOSIG
ZGSZ,2017-03-04 13:00,ZGSZ 041300Z 14005MPS 7000 SCT023 20/15 Q1013 NOSIG
ZGSZ,2017-03-04 14:00,ZGSZ 041400Z 13005MPS 7000 SCT023 20/15 Q1013 NOSIG
ZGSZ,2017-03-04 15:00,ZGSZ 041500Z 13005MPS 7000 SCT023 20/15 Q1013 NOSIG
ZGSZ,2017-03-04 16:00,ZGSZ 041600Z 16004MPS 7000 SCT023 20/15 Q1013 NOSIG
ZGSZ,2017-03-04 17:00,ZGSZ 041700Z 15004MPS 7000 SCT023 20/16 Q1012 NOSIG
ZGSZ,2017-03-04 18:00,ZGSZ 041800Z 18002MPS 7000 SCT030 20/16 Q1012 NOSIG
ZGSZ,2017-03-04 19:00,ZGSZ 041900Z 35001MPS 7000 SCT030 19/17 Q1012 NOSIG
ZGSZ,2017-03-04 20:00,ZGSZ 042000Z 10002MPS 6000 SCT030 19/15 Q1012 NOSIG
ZGSZ,2017-03-04 21:00,ZGSZ 042100Z 16002MPS 6000 SCT030 18/16 Q1012 NOSIG
ZGSZ,2017-03-04 22:00,ZGSZ 042200Z 16002MPS 6000 SCT030 18/16 Q1012 NOSIG
ZGSZ,2017-03-04 23:00,ZGSZ 042300Z 00000MPS 6000 SCT030 19/17 Q1013 NOSIG
ZGSZ,2017-03-05 00:00,ZGSZ 050000Z 26001MPS 5000 BR BKN030 19/17 Q1014 NOSIG
ZGSZ,2017-03-05 01:00,ZGSZ 050100Z 26002MPS 220V290 5000 BR SCT014 BKN030 19/17 Q1014 BECMG TL0230 BKN014
ZGSZ,2017-03-05 02:00,ZGSZ 050200Z 32002MPS 4500 BR SCT014 BKN030 20/17 Q1014 BECMG TL0230 BKN014
ZGSZ,2017-03-05 03:00,ZGSZ 050300Z 08002MPS 030V130 4500 HZ BKN014 BKN033 22/17 Q1014 BECMG TL0415 SCT016 BKN030
ZGSZ,2017-03-05 04:00,ZGSZ 050400Z 30003MPS 4500 BR BKN014 BKN033 22/18 Q1013 BECMG TL0430 SCT016 BKN033
ZGSZ,2017-03-05 05:00,ZGSZ 050500Z 30003MPS 5000 BR SCT017 BKN032 22/18 Q1012 NOSIG
ZGSZ,2017-03-05 06:00,ZGSZ 050600Z 25002MPS 200V270 5000 BR BKN033 22/18 Q1011 NOSIG
ZGSZ,2017-03-05 07:00,ZGSZ 050700Z 22003MPS 6000 BKN033 22/18 Q1010 NOSIG
ZGSZ,2017-03-05 08:00,ZGSZ 050800Z 22002MPS 180V240 6000 FEW025 BKN043 22/18 Q1010 NOSIG
ZGSZ,2017-03-05 09:00,ZGSZ 050900Z 19003MPS 7000 SCT040 23/18 Q1010 NOSIG
ZGSZ,2017-03-05 10:00,ZGSZ 051000Z 21003MPS 7000 NSC 21/18 Q1010 NOSIG
ZGSZ,2017-03-05 11:00,ZGSZ 051100Z 20002MPS 6000 SCT050 20/18 Q1010 NOSIG
ZGSZ,2017-03-05 12:00,ZGSZ 051200Z 18004MPS 8000 NSC 20/18 Q1011 NOSIG
ZGSZ,2017-03-05 13:00,ZGSZ 051300Z 19002MPS 7000 NSC 20/19 Q1012 NOSIG
ZGSZ,2017-03-05 14:00,ZGSZ 051400Z 19003MPS 3300 BR NSC 20/19 Q1012 NOSIG
ZGSZ,2017-03-05 15:00,ZGSZ 051500Z 21002MPS 4000 BR NSC 20/19 Q1012 NOSIG
ZGSZ,2017-03-05 16:00,ZGSZ 051600Z 00000MPS 4400 BR NSC 20/19 Q1012 NOSIG
ZGSZ,2017-03-05 17:00,ZGSZ 051700Z 34001MPS 3600 BR NSC 20/19 Q1012 NOSIG
ZGSZ,2017-03-05 18:00,ZGSZ 051800Z 00000MPS 3300 BR NSC 19/18 Q1011 NOSIG
ZGSZ,2017-03-05 19:00,ZGSZ 051900Z 19001MPS 4000 BR NSC 19/18 Q1011 NOSIG
ZGSZ,2017-03-05 20:00,ZGSZ 052000Z 36001MPS 4000 BR NSC 19/18 Q1011 NOSIG
ZGSZ,2017-03-05 21:00,ZGSZ 052100Z 00000MPS 3500 BR FEW021 SCT036 19/19 Q1011 NOSIG
ZGSZ,2017-03-05 22:00,ZGSZ 052200Z 30001MPS 3500 BR BKN033 19/19 Q1012 BECMG AT2330 2500 BR
ZGSZ,2017-03-05 23:00,ZGSZ 052300Z 36002MPS 3000 -RA BR SCT010 BKN025 20/19 Q1013 BECMG AT2330 2000 BR BKN008 BKN030
ZGSZ,2017-03-06 00:00,ZGSZ 060000Z 07007MPS 4500 -RA BR BKN014 BKN030 19/17 Q1014 BECMG AT0040 SCT014 BKN030
ZGSZ,2017-03-06 01:00,ZGSZ 060100Z 06007MPS 9000 SCT016 BKN030 19/15 Q1015 NOSIG
ZGSZ,2017-03-06 02:00,ZGSZ 060200Z 04004MPS 9999 BKN030 20/14 Q1015 NOSIG
ZGSZ,2017-03-06 03:00,ZGSZ 060300Z 02005MPS 350V050 9999 BKN030 21/14 Q1016 NOSIG
ZGSZ,2017-03-06 04:00,ZGSZ 060400Z 05006MPS 9999 BKN030 21/13 Q1015 NOSIG
ZGSZ,2017-03-06 05:00,ZGSZ 060500Z 03005MPS 9999 BKN030 21/13 Q1014 NOSIG
ZGSZ,2017-03-06 06:00,ZGSZ 060600Z 02003MPS 350V050 9999 BKN036 22/13 Q1013 NOSIG
ZGSZ,2017-03-06 07:00,ZGSZ 060700Z 02005MPS 9999 BKN036 22/12 Q1013 NOSIG
ZGSZ,2017-03-06 08:00,ZGSZ 060800Z 05005MPS 9999 BKN036 21/13 Q1013 NOSIG
ZGSZ,2017-03-06 09:00,ZGSZ 060900Z 02004MPS 9999 BKN036 21/12 Q1013 NOSIG
ZGSZ,2017-03-06 10:00,ZGSZ 061000Z 02003MPS 9999 BKN036 21/12 Q1013 NOSIG
ZGSZ,2017-03-06 11:00,ZGSZ 061100Z 36003MPS 9999 BKN036 19/13 Q1014 NOSIG
ZGSZ,2017-03-06 12:00,ZGSZ 061200Z 03004MPS 9999 BKN036 20/12 Q1014 NOSIG
ZGSZ,2017-03-06 13:00,ZGSZ 061300Z 07004MPS 9999 BKN036 20/12 Q1015 NOSIG
ZGSZ,2017-03-06 14:00,ZGSZ 061400Z 06004MPS 9999 BKN036 19/12 Q1016 NOSIG
ZGSZ,2017-03-06 15:00,ZGSZ 061500Z 07005MPS 9999 FEW017 BKN030 19/12 Q1016 NOSIG
ZGSZ,2017-03-06 16:00,ZGSZ 061600Z 09004MPS 9999 FEW017 BKN030 19/12 Q1016 NOSIG
ZGSZ,2017-03-06 17:00,ZGSZ 061700Z 06003MPS 9999 FEW017 BKN030 18/11 Q1015 NOSIG
ZGSZ,2017-03-06 18:00,ZGSZ 061800Z 07004MPS 9999 FEW017 BKN030 18/11 Q1015 NOSIG
ZGSZ,2017-03-06 19:00,ZGSZ 061900Z 08003MPS 9999 FEW017 BKN030 18/12 Q1015 NOSIG
ZGSZ,2017-03-06 20:00,ZGSZ 062000Z 08004G12MPS 310V120 9999 BKN020 17/12 Q1015 NOSIG
ZGSZ,2017-03-06 21:00,ZGSZ 062100Z VRB03MPS 9999 BKN020 17/12 Q1015 NOSIG
ZGSZ,2017-03-06 22:00,ZGSZ 062200Z 09004MPS 5000 BR BKN020 16/13 Q1016 NOSIG
ZGSZ,2017-03-06 23:00,ZGSZ 062300Z 09003MPS 5000 BR BKN020 16/13 Q1016 NOSIG
ZGSZ,2017-03-07 00:00,ZGSZ 070000Z 06004MPS 5000 BR BKN020 16/13 Q1018 NOSIG
ZGSZ,2017-03-07 01:00,ZGSZ 070100Z 08004MPS 4500 BR BKN016 OVC026 17/13 Q1018 NOSIG
ZGSZ,2017-03-07 02:00,ZGSZ 070200Z 06005MPS 6000 BKN016 OVC030 17/13 Q1018 NOSIG
ZGSZ,2017-03-07 03:00,ZGSZ 070300Z 07004MPS 5000 HZ SCT020 OVC033 18/13 Q1018 NOSIG
ZGSZ,2017-03-07 04:00,ZGSZ 070400Z 05004MPS 6000 FEW020 OVC036 19/13 Q1017 NOSIG
ZGSZ,2017-03-07 05:00,ZGSZ 070500Z 05004MPS 6000 SCT020 OVC036 20/13 Q1016 NOSIG
ZGSZ,2017-03-07 06:00,ZGSZ 070600Z 04004MPS 5000 HZ SCT020 OVC030 18/13 Q1015 NOSIG
ZGSZ,2017-03-07 07:00,ZGSZ 070700Z 04004MPS 4500 HZ SCT020 OVC030 18/13 Q1015 NOSIG
ZGSZ,2017-03-07 08:00,ZGSZ 070800Z 05005MPS 4500 HZ SCT020 OVC030 18/12 Q1015 NOSIG
ZGSZ,2017-03-07 09:00,ZGSZ 070900Z 04005MPS 4500 HZ SCT018 OVC030 17/12 Q1015 NOSIG
ZGSZ,2017-03-07 10:00,ZGSZ 071000Z 05005MPS 4300 BR SCT020 OVC030 16/13 Q1016 NOSIG
ZGSZ,2017-03-07 11:00,ZGSZ 071100Z 05005MPS 4000 BR SCT015 OVC030 16/13 Q1016 NOSIG
ZGSZ,2017-03-07 12:00,ZGSZ 071200Z 05005MPS 4800 BR OVC025 16/12 Q1017 NOSIG
ZGSZ,2017-03-07 13:00,ZGSZ 071300Z 07005MPS 6000 OVC030 16/12 Q1018 NOSIG
ZGSZ,2017-03-07 14:00,ZGSZ 071400Z 08005MPS 6000 FEW018 BKN030 16/12 Q1018 NOSIG
ZGSZ,2017-03-07 15:00,ZGSZ 071500Z 08004MPS 7000 FEW014 BKN030 16/12 Q1018 NOSIG
ZGSZ,2017-03-07 16:00,ZGSZ 071600Z 08003MPS 9999 FEW014 BKN030 16/12 Q1018 NOSIG
ZGSZ,2017-03-07 17:00,ZGSZ 071700Z 06003MPS 6000 -RA SCT014 BKN030 15/13 Q1018 NOSIG
ZGSZ,2017-03-07 18:00,ZGSZ 071800Z 04004MPS 3500 -RA BR SCT008 BKN020 14/13 Q1018 NOSIG
ZGSZ,2017-03-07 19:00,ZGSZ 071900Z 02004MPS 3500 -RA BR SCT007 BKN020 14/13 Q1018 NOSIG
ZGSZ,2017-03-07 20:00,ZGSZ 072000Z 08006MPS 8000 SCT011 BKN026 14/13 Q1017 NOSIG
ZGSZ,2017-03-07 21:00,ZGSZ 072100Z 07004MPS 9999 FEW011 BKN043 14/12 Q1017 NOSIG
ZGSZ,2017-03-07 22:00,ZGSZ 072200Z 06003MPS 030V100 9999 FEW011 BKN040 14/12 Q1017 NOSIG
ZGSZ,2017-03-07 23:00,ZGSZ 072300Z 04004MPS 9999 SCT011 BKN040 14/12 Q1018 NOSIG
ZGSZ,2017-03-08 00:00,ZGSZ 080000Z 05005MPS 9999 -RA SCT011 OVC030 14/12 Q1019 BECMG AT0030 SHRA
ZGSZ,2017-03-08 01:00,ZGSZ 080100Z 03005MPS 6000 -SHRA SCT012 FEW030CB BKN030 14/12 Q1020 RESHRA BECMG AT0130 BKN014 OVC033
ZGSZ,2017-03-08 02:00,ZGSZ 080200Z 04005MPS 9999 SCT014 BKN046 14/12 Q1020 NOSIG
ZGSZ,2017-03-08 03:00,ZGSZ 080300Z 06006MPS 9999 SCT016 BKN046 15/12 Q1020 NOSIG
ZGSZ,2017-03-08 04:00,ZGSZ 080400Z 04005MPS 9999 SCT017 BKN046 15/12 Q1019 NOSIG
ZGSZ,2017-03-08 05:00,ZGSZ 080500Z 03006MPS 9999 SCT017 BKN046 16/12 Q1018 NOSIG
ZGSZ,2017-03-08 06:00,ZGSZ 080600Z 06005MPS 7000 SCT020 BKN046 16/11 Q1017 NOSIG
ZGSZ,2017-03-08 07:00,ZGSZ 080700Z 04004MPS 7000 SCT020 BKN046 17/11 Q1016 NOSIG
ZGSZ,2017-03-08 08:00,ZGSZ 080800Z 05004MPS 7000 BKN040 17/11 Q1016 NOSIG
ZGSZ,2017-03-08 09:00,ZGSZ 080900Z 04004MPS 8000 OVC040 17/11 Q1016 NOSIG
ZGSZ,2017-03-08 10:00,ZGSZ 081000Z 05005MPS 8000 BKN040 16/11 Q1016 NOSIG
ZGSZ,2017-03-08 11:00,ZGSZ 081100Z 04004MPS 7000 OVC040 16/11 Q1017 NOSIG
ZGSZ,2017-03-08 12:00,ZGSZ 081200Z 07005MPS 6000 -RA OVC036 16/10 Q1017 NOSIG
ZGSZ,2017-03-08 13:00,ZGSZ 081300Z 09003MPS 8000 OVC040 16/10 Q1018 NOSIG
ZGSZ,2017-03-08 14:00,ZGSZ 081400Z 09003MPS 8000 OVC036 16/10 Q1018 NOSIG
ZGSZ,2017-03-08 15:00,ZGSZ 081500Z 09001MPS 9999 OVC033 16/11 Q1018 NOSIG
ZGSZ,2017-03-08 16:00,ZGSZ 081600Z 09002MPS 9999 OVC033 16/11 Q1018 NOSIG
ZGSZ,2017-03-08 17:00,ZGSZ 081700Z 05001MPS 9999 OVC030 16/11 Q1019 NOSIG
ZGSZ,2017-03-08 18:00,ZGSZ 081800Z 10002MPS 060V130 7000 BKN017 OVC026 15/11 Q1018 NOSIG
ZGSZ,2017-03-08 19:00,ZGSZ 081900Z 06003MPS 5000 BR BKN016 OVC023 15/12 Q1018 NOSIG
ZGSZ,2017-03-08 20:00,ZGSZ 082000Z 07003MPS 4500 BR BKN016 OVC023 15/12 Q1016 NOSIG
ZGSZ,2017-03-08 21:00,ZGSZ 082100Z 05003MPS 4500 BR OVC026 15/12 Q1017 NOSIG
ZGSZ,2017-03-08 22:00,ZGSZ 082200Z 07003MPS 5000 BR OVC030 15/12 Q1017 NOSIG
ZGSZ,2017-03-08 23:00,ZGSZ 082300Z 07003MPS 040V100 5000 BR OVC033 15/12 Q1017 NOSIG
ZGSZ,2017-03-09 00:00,ZGSZ 090000Z 04003MPS 5000 BR OVC033 15/11 Q1018 NOSIG
ZGSZ,2017-03-09 01:00,ZGSZ 090100Z 04004MPS 4000 BR OVC033 16/11 Q1018 NOSIG
ZGSZ,2017-03-09 02:00,ZGSZ 090200Z 06006MPS 4000 BR OVC030 16/11 Q1018 NOSIG
ZGSZ,2017-03-09 03:00,ZGSZ 090300Z 04004MPS 4000 HZ OVC030 16/12 Q1018 NOSIG
ZGSZ,2017-03-09 04:00,ZGSZ 090400Z 06004MPS 4500 HZ OVC030 16/12 Q1017 NOSIG
ZGSZ,2017-03-09 05:00,ZGSZ 090500Z 08003MPS 040V100 4500 HZ OVC030 17/11 Q1015 NOSIG
ZGSZ,2017-03-09 06:00,ZGSZ 090600Z 08004MPS 5000 HZ OVC030 18/11 Q1014 NOSIG
ZGSZ,2017-03-09 07:00,ZGSZ 090700Z 10002MPS 050V140 5000 HZ OVC030 18/11 Q1013 NOSIG
ZGSZ,2017-03-09 08:00,ZGSZ 090800Z 07002MPS 040V130 5000 HZ OVC030 18/11 Q1013 NOSIG
ZGSZ,2017-03-09 09:00,ZGSZ 090900Z 12003MPS 080V160 6000 OVC030 18/11 Q1013 NOSIG
ZGSZ,2017-03-09 10:00,ZGSZ 091000Z 14003MPS 7000 OVC030 18/11 Q1013 NOSIG
ZGSZ,2017-03-09 11:00,ZGSZ 091100Z 12003MPS 7000 OVC030 18/11 Q1014 NOSIG
ZGSZ,2017-03-09 12:00,ZGSZ 091200Z 13004MPS 7000 OVC030 17/12 Q1014 NOSIG
ZGSZ,2017-03-09 13:00,ZGSZ 091300Z 15003MPS 6000 OVC030 16/13 Q1014 NOSIG
ZGSZ,2017-03-09 14:00,ZGSZ 091400Z 13003MPS 3500 -RA BR SCT013 OVC025 16/13 Q1014 NOSIG
ZGSZ,2017-03-09 15:00,ZGSZ 091500Z 07002MPS 030V120 4500 BR OVC023 16/13 Q1014 NOSIG
ZGSZ,2017-03-09 16:00,ZGSZ 091600Z 06003MPS 360V120 4000 BR OVC020 16/14 Q1014 NOSIG
ZGSZ,2017-03-09 17:00,ZGSZ 091700Z 14002MPS 080V170 4000 -RA BR FEW010 OVC020 16/14 Q1013 NOSIG
ZGSZ,2017-03-09 18:00,ZGSZ 091800Z 11002MPS 080V140 4000 -RA BR SCT010 OVC020 17/14 Q1013 NOSIG
ZGSZ,2017-03-09 19:00,ZGSZ 091900Z VRB01MPS 3500 BR SCT010 OVC020 16/14 Q1013 NOSIG
ZGSZ,2017-03-09 20:00,ZGSZ 092000Z 20002MPS 4000 BR SCT013 OVC020 17/15 Q1011 NOSIG
ZGSZ,2017-03-09 21:00,ZGSZ 092100Z 02002MPS 1800 BR SCT007 OVC020 16/14 Q1011 NOSIG
ZGSZ,2017-03-09 22:00,ZGSZ 092200Z 05001MPS 3000 BR SCT007 OVC020 16/15 Q1011 NOSIG
ZGSZ,2017-03-09 23:00,ZGSZ 092300Z 28002MPS 200V350 2600 BR SCT013 OVC024 17/15 Q1012 BECMG TL0030 3500
ZGSZ,2017-03-10 00:00,ZGSZ 100000Z 17004MPS 2600 -RA BR SCT013 OVC024 18/16 Q1012 BECMG TL0030 3500
ZGSZ,2017-03-10 01:00,ZGSZ 100100Z 22003MPS 3300 BR SCT013 OVC024 18/16 Q1012 BECMG TL0130 2800
ZGSZ,2017-03-10 02:00,ZGSZ 100200Z VRB01MPS 1800 BR SCT013 OVC024 17/16 Q1012 NOSIG
ZGSZ,2017-03-10 03:00,ZGSZ 100300Z 32002MPS 1500 R33/1400N R34/1500N BR SCT013 OVC024 18/16 Q1013 BECMG TL0330 1400
ZGSZ,2017-03-10 04:00,ZGSZ 100400Z 00000MPS 0900 R33/0900V1000N R34/1000V1100N -RA FG SCT007 OVC024 18/17 Q1012 BECMG TL0535 BKN013 BKN040
ZGSZ,2017-03-10 05:00,ZGSZ 100500Z 29002MPS 1100 R33/1000V1100N R34/1200V1300N BR SCT007 OVC024 18/17 Q1011 BECMG 0635 1800
ZGSZ,2017-03-10 06:00,ZGSZ 100600Z 21002MPS 1100 R33/1100V1300N R34/1500U BR SCT007 OVC024 19/17 Q1010 BECMG 0635 1800
ZGSZ,2017-03-10 07:00,ZGSZ 100700Z 29002MPS 1500 BR SCT007 OVC024 19/17 Q1009 BECMG TL0835 1300
ZGSZ,2017-03-10 08:00,ZGSZ 100800Z 33004MPS 1000 R33/1700D R34/1800D -RA BR SCT007 OVC024 19/17 Q1010 NOSIG
ZGSZ,2017-03-10 09:00,ZGSZ 100900Z 35005MPS 0700 R33/0900V1000D R34/0550V0750N -RA FG FEW004 SCT007 OVC024 18/17 Q1010 BECMG AT0940 0500 FG -RA
ZGSZ,2017-03-10 10:00,ZGSZ 101000Z VRB01MPS 0550 R33/0800V1000U R34/0900V1200U -RA FG FEW004 SCT007 OVC024 19/18 Q1010 BECMG AT1020 0650 FG
ZGSZ,2017-03-10 11:00,ZGSZ 101100Z 34003MPS 1100 R33/1500N R34/1700N -RA BR FEW004 SCT007 OVC024 18/17 Q1011 BECMG AT1240 1600 BR
ZGSZ,2017-03-10 12:00,ZGSZ 101200Z 06004MPS 1400 R33/1600U R34/P2000 -RA BR SCT007 OVC024 18/17 Q1011 BECMG AT1240 1600 BR
ZGSZ,2017-03-10 13:00,ZGSZ 101300Z 02002MPS 2500 -RA BR SCT007 OVC028 18/17 Q1012 BECMG AT1440 3100 BR
ZGSZ,2017-03-10 14:00,ZGSZ 101400Z 06002MPS 2500 BR SCT005 OVC028 19/18 Q1013 BECMG AT1440 3100 BR
ZGSZ,2017-03-10 15:00,ZGSZ 101500Z 00000MPS 2300 BR SCT005 OVC024 19/18 Q1013 NOSIG
ZGSZ,2017-03-10 16:00,ZGSZ 101600Z 00000MPS 2200 BR SCT005 OVC024 19/18 Q1013 NOSIG
ZGSZ,2017-03-10 17:00,ZGSZ 101700Z 02002MPS 1800 -RA BR BKN007 OVC020 19/18 Q1013 NOSIG
ZGSZ,2017-03-10 18:00,ZGSZ 101800Z 00000MPS 3300 BR SCT007 OVC020 19/18 Q1013 NOSIG
ZGSZ,2017-03-10 19:00,ZGSZ 101900Z 14004MPS 4500 BR SCT010 OVC020 19/18 Q1013 NOSIG
ZGSZ,2017-03-10 20:00,ZGSZ 102000Z 17005MPS 5000 BR SCT010 OVC020 19/17 Q1013 NOSIG
ZGSZ,2017-03-10 21:00,ZGSZ 102100Z 16005MPS 7000 SCT011 OVC030 18/17 Q1012 NOSIG
ZGSZ,2017-03-10 22:00,ZGSZ 102200Z 14004MPS 9999 SCT011 OVC030 18/16 Q1013 NOSIG
ZGSZ,2017-03-10 23:00,ZGSZ 102300Z 15004MPS 9999 SCT011 OVC030 18/16 Q1014 NOSIG
ZGSZ,2017-03-11 00:00,ZGSZ 110000Z 14004MPS 9999 SCT015 OVC030 18/16 Q1015 NOSIG
ZGSZ,2017-03-11 01:00,ZGSZ 110100Z 13003MPS 9999 BKN021 18/16 Q1016 NOSIG
ZGSZ,2017-03-11 02:00,ZGSZ 110200Z 14003MPS 9999 BKN020 18/15 Q1016 NOSIG
ZGSZ,2017-03-11 03:00,ZGSZ 110300Z 13005MPS 9999 BKN020 19/15 Q1016 NOSIG
ZGSZ,2017-03-11 04:00,ZGSZ 110400Z 12003MPS 090V150 9999 BKN018 19/16 Q1016 NOSIG
ZGSZ,2017-03-11 05:00,ZGSZ 110500Z 08003MPS 330V130 8000 BKN018 19/16 Q1015 NOSIG
ZGSZ,2017-03-11 06:00,ZGSZ 110600Z 08002MPS 030V150 7000 BKN018 20/16 Q1014 NOSIG
ZGSZ,2017-03-11 07:00,ZGSZ 110700Z 09003MPS 040V110 7000 BKN018 20/16 Q1014 NOSIG
ZGSZ,2017-03-11 08:00,ZGSZ 110800Z 10003MPS 060V130 6000 BKN018 20/16 Q1013 NOSIG
ZGSZ,2017-03-11 09:00,ZGSZ 110900Z VRB01MPS 6000 SCT014 OVC027 19/16 Q1014 BECMG TL1035 BKN014
ZGSZ,2017-03-11 10:00,ZGSZ 111000Z 07002MPS 040V110 6000 SCT014 OVC027 19/17 Q1014 BECMG TL1035 BKN014
ZGSZ,2017-03-11 11:00,ZGSZ 111100Z 11003MPS 050V140 6000 BKN014 OVC027 19/16 Q1014 BECMG TL1245 SCT014 BKN030
ZGSZ,2017-03-11 12:00,ZGSZ 111200Z 13003MPS 100V170 7000 BKN014 OVC027 19/16 Q1015 BECMG TL1245 SCT014 BKN030
ZGSZ,2017-03-11 13:00,ZGSZ 111300Z 14004MPS 8000 SCT014 OVC027 19/16 Q1015 NOSIG
ZGSZ,2017-03-11 14:00,ZGSZ 111400Z 14004MPS 8000 SCT014 OVC027 19/16 Q1016 NOSIG
ZGSZ,2017-03-11 15:00,ZGSZ 111500Z 14005MPS 8000 SCT014 OVC027 19/16 Q1016 NOSIG
ZGSZ,2017-03-11 16:00,ZGSZ 111600Z 14005MPS 8000 SCT014 OVC027 18/15 Q1015 NOSIG
ZGSZ,2017-03-11 17:00,ZGSZ 111700Z 12003MPS 070V160 9999 BKN027 19/15 Q1015 NOSIG
ZGSZ,2017-03-11 18:00,ZGSZ 111800Z 10002MPS 070V130 9999 BKN027 19/15 Q1015 NOSIG
ZGSZ,2017-03-11 19:00,ZGSZ 111900Z 14003MPS 9999 BKN027 19/15 Q1014 NOSIG
ZGSZ,2017-03-11 20:00,ZGSZ 112000Z 15004MPS 9999 BKN027 19/15 Q1013 NOSIG
ZGSZ,2017-03-11 21:00,ZGSZ 112100Z 13003MPS 9999 BKN027 19/15 Q1014 NOSIG
ZGSZ,2017-03-11 22:00,ZGSZ 112200Z 13004MPS 090V160 9999 BKN027 19/16 Q1014 NOSIG
ZGSZ,2017-03-11 23:00,ZGSZ 112300Z 15005MPS 9999 BKN027 19/16 Q1015 NOSIG
ZGSZ,2017-03-12 00:00,ZGSZ 120000Z 14005MPS 9999 BKN027 19/16 Q1015 NOSIG
ZGSZ,2017-03-12 01:00,ZGSZ 120100Z 14004MPS 9999 OVC030 20/16 Q1015 NOSIG
ZGSZ,2017-03-12 02:00,ZGSZ 120200Z 14003MPS 110V170 9999 FEW015 OVC025 20/17 Q1015 NOSIG
ZGSZ,2017-03-12 03:00,ZGSZ 120300Z 36002MPS 330V080 9999 FEW020 OVC033 21/17 Q1015 NOSIG
ZGSZ,2017-03-12 04:00,ZGSZ 120400Z VRB01MPS 9999 SCT020 OVC033 21/17 Q1014 NOSIG
ZGSZ,2017-03-12 05:00,ZGSZ 120500Z 16003MPS 110V270 9999 SCT020 OVC033 22/18 Q1013 NOSIG
ZGSZ,2017-03-12 06:00,ZGSZ 120600Z 22003MPS 8000 FEW023 BKN033 21/17 Q1012 NOSIG
ZGSZ,2017-03-12 07:00,ZGSZ 120700Z 24003MPS 6000 SCT016 OVC030 19/17 Q1012 NOSIG
ZGSZ,2017-03-12 08:00,ZGSZ 120800Z 20003MPS 7000 FEW020 OVC046 20/18 Q1011 NOSIG
ZGSZ,2017-03-12 09:00,ZGSZ 120900Z 23002MPS 8000 BKN046 20/18 Q1011 NOSIG
ZGSZ,2017-03-12 10:00,ZGSZ 121000Z 26002MPS 230V290 6000 OVC046 19/18 Q1011 NOSIG
ZGSZ,2017-03-12 11:00,ZGSZ 121100Z VRB01MPS 6000 OVC046 19/18 Q1012 NOSIG
ZGSZ,2017-03-12 12:00,ZGSZ 121200Z VRB01MPS 8000 OVC043 19/18 Q1012 NOSIG
ZGSZ,2017-03-12 13:00,ZGSZ 121300Z VRB01MPS 7000 OVC043 19/18 Q1013 NOSIG
ZGSZ,2017-03-12 14:00,ZGSZ 121400Z 00000MPS 6000 OVC043 19/18 Q1013 NOSIG
ZGSZ,2017-03-12 15:00,ZGSZ 121500Z 33001MPS 6000 BKN043 19/18 Q1013 NOSIG
ZGSZ,2017-03-12 16:00,ZGSZ 121600Z VRB02MPS 6000 BKN046 19/18 Q1014 NOSIG
ZGSZ,2017-03-12 17:00,ZGSZ 121700Z 17004MPS 6000 BKN046 21/18 Q1013 NOSIG
ZGSZ,2017-03-12 18:00,ZGSZ 121800Z 00000MPS 4000 BR OVC043 19/18 Q1013 NOSIG
ZGSZ,2017-03-12 19:00,ZGSZ 121900Z 16004MPS 6000 OVC043 20/18 Q1012 NOSIG
ZGSZ,2017-03-12 20:00,ZGSZ 122000Z 15003MPS 6000 OVC050 20/18 Q1011 NOSIG
ZGSZ,2017-03-12 21:00,ZGSZ 122100Z 34002MPS 5000 BR SCT030 20/18 Q1011 NOSIG
ZGSZ,2017-03-12 22:00,ZGSZ 122200Z 00000MPS 4500 BR SCT020 OVC026 20/19 Q1011 NOSIG
ZGSZ,2017-03-12 23:00,ZGSZ 122300Z 00000MPS 3800 BR BKN018 BKN033 19/18 Q1011 NOSIG
ZGSZ,2017-03-13 00:00,ZGSZ 130000Z 00000MPS 4000 BR SCT018 BKN040 20/19 Q1012 NOSIG
ZGSZ,2017-03-13 01:00,ZGSZ 130100Z 00000MPS 4200 BR SCT018 BKN040 20/19 Q1013 NOSIG
ZGSZ,2017-03-13 02:00,ZGSZ 130200Z VRB01MPS 5000 BR FEW018 BKN040 22/19 Q1012 NOSIG
ZGSZ,2017-03-13 03:00,ZGSZ 130300Z 28002MPS 230V300 5000 BR BKN033 23/19 Q1012 NOSIG
ZGSZ,2017-03-13 04:00,ZGSZ 130400Z 25003MPS 220V280 5000 BR BKN036 23/19 Q1012 NOSIG
ZGSZ,2017-03-13 05:00,ZGSZ 130500Z 26002MPS 230V290 5000 BR BKN036 23/20 Q1011 NOSIG
ZGSZ,2017-03-13 06:00,ZGSZ 130600Z 24002MPS 5000 BR BKN036 23/20 Q1010 NOSIG
ZGSZ,2017-03-13 07:00,ZGSZ 130700Z 20003MPS 5000 BR BKN036 24/20 Q1009 NOSIG
ZGSZ,2017-03-13 08:00,ZGSZ 130800Z 19005MPS 8000 BKN036 24/20 Q1009 NOSIG
ZGSZ,2017-03-13 09:00,ZGSZ 130900Z 20004MPS 9999 BKN036 23/20 Q1009 NOSIG
ZGSZ,2017-03-13 10:00,ZGSZ 131000Z 20005MPS 9999 BKN036 22/20 Q1009 NOSIG
ZGSZ,2017-03-13 11:00,ZGSZ 131100Z 19005MPS 9999 FEW040 22/20 Q1010 NOSIG
ZGSZ,2017-03-13 12:00,ZGSZ 131200Z 19004MPS 9999 BKN046 22/20 Q1011 NOSIG
ZGSZ,2017-03-13 13:00,ZGSZ 131300Z 18003MPS 9999 BKN046 23/20 Q1011 NOSIG
ZGSZ,2017-03-13 14:00,ZGSZ 131400Z 19003MPS 7000 BKN046 21/19 Q1012 NOSIG
ZGSZ,2017-03-13 15:00,ZGSZ 131500Z 20003MPS 7000 BKN046 21/20 Q1012 NOSIG
ZGSZ,2017-03-13 16:00,ZGSZ 131600Z 20004MPS 7000 BKN046 21/20 Q1012 NOSIG
ZGSZ,2017-03-13 17:00,ZGSZ 131700Z 22002MPS 5000 BR BKN046 20/19 Q1012 NOSIG
ZGSZ,2017-03-13 18:00,ZGSZ 131800Z VRB01MPS 4000 BR BKN046 20/19 Q1012 NOSIG
ZGSZ,2017-03-13 19:00,ZGSZ 131900Z 31001MPS 4000 BR BKN046 21/20 Q1012 NOSIG
ZGSZ,2017-03-13 20:00,ZGSZ 132000Z 11001MPS 4000 BR SCT046 21/20 Q1011 NOSIG
ZGSZ,2017-03-13 21:00,ZGSZ 132100Z VRB01MPS 4000 BR FEW012 BKN046 21/20 Q1012 NOSIG
ZGSZ,2017-03-13 22:00,ZGSZ 132200Z 33001MPS 3500 BR FEW012 BKN033 21/20 Q1013 NOSIG
ZGSZ,2017-03-13 23:00,ZGSZ 132300Z 00000MPS 3200 BR BKN033 21/20 Q1013 NOSIG
ZGSZ,2017-03-14 00:00,ZGSZ 140000Z 07002MPS 040V110 3200 BR SCT012 BKN023 23/21 Q1014 BECMG AT0030 2800
ZGSZ,2017-03-14 01:00,ZGSZ 140100Z 06007MPS 2800 -RA BR SCT008 BKN023 19/18 Q1015 BECMG AT0220 3100 BR BKN007 BKN025
ZGSZ,2017-03-14 02:00,ZGSZ 140200Z 07006MPS 9999 SCT008 BKN023 19/16 Q1016 BECMG AT0220 BKN007 BKN025
ZGSZ,2017-03-14 03:00,ZGSZ 140300Z 06004MPS 020V090 7000 -RA SCT013 BKN020 18/15 Q1017 BECMG AT0420 BKN014 BKN025
ZGSZ,2017-03-14 04:00,ZGSZ 140400Z 08004MPS 030V130 9999 SCT013 BKN020 19/15 Q1017 BECMG AT0420 BKN014 BKN025
ZGSZ,2017-03-14 05:00,ZGSZ 140500Z 05006G11MPS 9999 BKN013 BKN020 19/14 Q1017 BECMG AT0620 SCT013 BKN025
ZGSZ,2017-03-14 06:00,ZGSZ 140600Z 06004MPS 030V100 9999 BKN013 BKN020 19/14 Q1016 BECMG AT0620 SCT013 BKN025
ZGSZ,2017-03-14 07:00,ZGSZ 140700Z 09004G09MPS 070V130 7000 -RA BKN013 BKN020 18/15 Q1016 BECMG AT0820 SCT013 BKN020
ZGSZ,2017-03-14 08:00,ZGSZ 140800Z 10003MPS 080V160 8000 BKN013 BKN020 18/14 Q1016 BECMG AT0820 SCT013 BKN020
ZGSZ,2017-03-14 09:00,ZGSZ 140900Z 06004MPS 030V100 5000 HZ FEW016 BKN023 18/13 Q1016 NOSIG
ZGSZ,2017-03-14 10:00,ZGSZ 141000Z 08005MPS 7000 FEW016 BKN023 18/13 Q1016 NOSIG
ZGSZ,2017-03-14 11:00,ZGSZ 141100Z 07004MPS 020V130 9999 OVC020 18/13 Q1017 NOSIG
ZGSZ,2017-03-14 12:00,ZGSZ 141200Z 07003MPS 030V110 9999 SCT016 BKN030 18/13 Q1018 NOSIG
ZGSZ,2017-03-14 13:00,ZGSZ 141300Z 07004MPS 9999 BKN020 18/13 Q1019 NOSIG
ZGSZ,2017-03-14 14:00,ZGSZ 141400Z 09003MPS 040V130 9999 BKN020 18/13 Q1019 NOSIG
ZGSZ,2017-03-14 15:00,ZGSZ 141500Z 07003MPS 020V120 9999 BKN020 17/13 Q1019 NOSIG
ZGSZ,2017-03-14 16:00,ZGSZ 141600Z 10004G09MPS 060V150 9999 BKN020 17/13 Q1019 NOSIG
ZGSZ,2017-03-14 17:00,ZGSZ 141700Z 09003MPS 070V150 9999 BKN020 16/13 Q1019 NOSIG
ZGSZ,2017-03-14 18:00,ZGSZ 141800Z 09003MPS 9999 BKN020 16/13 Q1018 NOSIG
ZGSZ,2017-03-14 19:00,ZGSZ 141900Z 10004MPS 9999 BKN020 16/13 Q1018 NOSIG
ZGSZ,2017-03-14 20:00,ZGSZ 142000Z 09004MPS 9999 BKN020 16/13 Q1018 NOSIG
ZGSZ,2017-03-14 21:00,ZGSZ 142100Z 07003MPS 040V100 6000 SCT013 BKN025 16/13 Q1018 NOSIG
ZGSZ,2017-03-14 22:00,ZGSZ 142200Z 08005MPS 6000 BKN013 BKN025 15/13 Q1018 NOSIG
ZGSZ,2017-03-14 23:00,ZGSZ 142300Z 10004MPS 5000 BR BKN013 BKN025 15/13 Q1019 BECMG TL0030 SCT013 BKN025
ZGSZ,2017-03-15 00:00,ZGSZ 150000Z 08003MPS 040V110 5000 BR BKN010 BKN025 16/13 Q1020 BECMG TL0030 SCT013 BKN025
ZGSZ,2017-03-15 01:00,ZGSZ 150100Z 09004MPS 060V130 5000 BR SCT011 BKN025 16/13 Q1020 NOSIG
ZGSZ,2017-03-15 02:00,ZGSZ 150200Z 08003MPS 350V120 5000 BR SCT014 BKN025 16/13 Q1020 NOSIG
ZGSZ,2017-03-15 03:00,ZGSZ 150300Z 10002MPS 050V160 5000 HZ SCT015 BKN025 18/13 Q1020 NOSIG
ZGSZ,2017-03-15 04:00,ZGSZ 150400Z 20003MPS 120V270 7000 FEW020 BKN033 19/13 Q1019 NOSIG
ZGSZ,2017-03-15 05:00,ZGSZ 150500Z 30004MPS 9999 BKN033 18/13 Q1018 NOSIG
ZGSZ,2017-03-15 06:00,ZGSZ 150600Z 13005MPS 100V160 9999 BKN033 19/10 Q1017 NOSIG
ZGSZ,2017-03-15 07:00,ZGSZ 150700Z 13006MPS 9999 BKN033 20/11 Q1016 NOSIG
ZGSZ,2017-03-15 08:00,ZGSZ 150800Z 13006MPS 9999 BKN030 20/11 Q1016 NOSIG
ZGSZ,2017-03-15 09:00,ZGSZ 150900Z 13006MPS 9999 BKN030 19/11 Q1016 NOSIG
ZGSZ,2017-03-15 10:00,ZGSZ 151000Z 13004MPS 100V160 9999 BKN030 18/11 Q1016 NOSIG
ZGSZ,2017-03-15 11:00,ZGSZ 151100Z 14006MPS 9999 BKN030 18/11 Q1016 NOSIG
ZGSZ,2017-03-15 12:00,ZGSZ 151200Z 15007MPS 9999 BKN030 18/11 Q1016 NOSIG
ZGSZ,2017-03-15 13:00,ZGSZ 151300Z 14005MPS 9999 BKN030 18/10 Q1017 NOSIG
ZGSZ,2017-03-15 14:00,ZGSZ 151400Z 14004MPS 9999 BKN030 18/11 Q1017 NOSIG
ZGSZ,2017-03-15 15:00,ZGSZ 151500Z 14003MPS 9999 BKN030 18/10 Q1018 NOSIG
ZGSZ,2017-03-15 16:00,ZGSZ 151600Z 13005MPS 9999 BKN030 18/10 Q1017 NOSIG
ZGSZ,2017-03-15 17:00,ZGSZ 151700Z 13003MPS 100V170 9999 BKN030 18/10 Q1017 NOSIG
ZGSZ,2017-03-15 18:00,ZGSZ 151800Z 14005MPS 9999 -RA BKN030 17/10 Q1016 NOSIG
ZGSZ,2017-03-15 19:00,ZGSZ 151900Z 11002MPS 9999 BKN040 18/12 Q1016 NOSIG
ZGSZ,2017-03-15 20:00,ZGSZ 152000Z 07003MPS 040V100 9999 BKN023 18/12 Q1015 NOSIG
ZGSZ,2017-03-15 21:00,ZGSZ 152100Z 08003MPS 9999 BKN023 17/11 Q1015 NOSIG
ZGSZ,2017-03-15 22:00,ZGSZ 152200Z 09002MPS 060V120 9999 BKN023 17/12 Q1015 NOSIG
ZGSZ,2017-03-15 23:00,ZGSZ 152300Z 05002MPS 010V080 9999 BKN023 17/12 Q1016 NOSIG
ZGSZ,2017-03-16 00:00,ZGSZ 160000Z 08003MPS 040V120 9999 BKN023 18/12 Q1016 NOSIG
ZGSZ,2017-03-16 01:00,ZGSZ 160100Z VRB03MPS 9999 SCT023 BKN033 18/12 Q1017 NOSIG
ZGSZ,2017-03-16 02:00,ZGSZ 160200Z 08002MPS 020V180 9999 OVC033 19/13 Q1017 NOSIG
ZGSZ,2017-03-16 03:00,ZGSZ 160300Z 07002MPS 350V110 9999 OVC033 19/13 Q1017 NOSIG
ZGSZ,2017-03-16 04:00,ZGSZ 160400Z 04002MPS 350V090 9999 OVC033 20/13 Q1017 NOSIG
ZGSZ,2017-03-16 05:00,ZGSZ 160500Z 07002MPS 010V100 8000 OVC033 20/14 Q1016 NOSIG
ZGSZ,2017-03-16 06:00,ZGSZ 160600Z VRB01MPS 8000 OVC033 20/14 Q1015 NOSIG
ZGSZ,2017-03-16 07:00,ZGSZ 160700Z VRB01MPS 8000 OVC040 20/14 Q1014 NOSIG
ZGSZ,2017-03-16 08:00,ZGSZ 160800Z 14002MPS 080V200 8000 OVC040 20/15 Q1014 NOSIG
ZGSZ,2017-03-16 09:00,ZGSZ 160900Z VRB01MPS 8000 OVC040 19/15 Q1014 NOSIG
ZGSZ,2017-03-16 10:00,ZGSZ 161000Z 08003MPS 050V160 8000 OVC040 20/14 Q1015 NOSIG
ZGSZ,2017-03-16 11:00,ZGSZ 161100Z 09003MPS 070V130 8000 OVC026 20/14 Q1015 NOSIG
ZGSZ,2017-03-16 12:00,ZGSZ 161200Z 08003MPS 050V150 7000 OVC026 19/15 Q1015 NOSIG
ZGSZ,2017-03-16 13:00,ZGSZ 161300Z 08003MPS 5000 HZ OVC026 19/15 Q1016 NOSIG
ZGSZ,2017-03-16 14:00,ZGSZ 161400Z 07003MPS 010V110 5000 BR OVC020 19/14 Q1017 NOSIG
ZGSZ,2017-03-16 15:00,ZGSZ 161500Z 06003MPS 330V100 5000 BR OVC020 19/14 Q1017 NOSIG
ZGSZ,2017-03-16 16:00,ZGSZ 161600Z VRB02G07MPS 5000 BR OVC020 19/15 Q1017 NOSIG
ZGSZ,2017-03-16 17:00,ZGSZ 161700Z 13003MPS 090V170 5000 BR OVC020 19/15 Q1017 NOSIG
ZGSZ,2017-03-16 18:00,ZGSZ 161800Z 10002MPS 060V130 5000 BR FEW014 BKN023 18/15 Q1017 NOSIG
ZGSZ,2017-03-16 19:00,ZGSZ 161900Z 09002MPS 5000 BR FEW014 BKN023 18/15 Q1017 NOSIG
ZGSZ,2017-03-16 20:00,ZGSZ 162000Z 10003MPS 5000 BR FEW014 BKN023 18/15 Q1016 NOSIG
ZGSZ,2017-03-16 21:00,ZGSZ 162100Z 14002MPS 5000 BR FEW014 BKN023 18/15 Q1016 NOSIG
ZGSZ,2017-03-16 22:00,ZGSZ 162200Z 05001MPS 5000 BR FEW014 BKN023 18/15 Q1016 NOSIG
ZGSZ,2017-03-16 23:00,ZGSZ 162300Z 09002MPS 060V140 5000 BR FEW014 BKN023 19/15 Q1017 NOSIG
ZGSZ,2017-03-17 00:00,ZGSZ 170000Z 09002MPS 060V130 5000 BR FEW014 BKN023 19/15 Q1018 NOSIG
ZGSZ,2017-03-17 01:00,ZGSZ 170100Z 13003MPS 090V160 9999 SCT014 BKN023 19/15 Q1018 NOSIG
ZGSZ,2017-03-17 02:00,ZGSZ 170200Z 14004MPS 9999 FEW014 BKN029 20/16 Q1019 NOSIG
ZGSZ,2017-03-17 03:00,ZGSZ 170300Z 12004MPS 9999 BKN040 22/16 Q1017 NOSIG
ZGSZ,2017-03-17 04:00,ZGSZ 170400Z VRB02MPS 9999 BKN036 22/16 Q1017 NOSIG
ZGSZ,2017-03-17 05:00,ZGSZ 170500Z 14004MPS 100V170 9999 BKN050 23/17 Q1016 NOSIG
ZGSZ,2017-03-17 06:00,ZGSZ 170600Z 29004MPS 9999 SCT023 BKN040 21/17 Q1016 NOSIG
ZGSZ,2017-03-17 07:00,ZGSZ 170700Z 27003MPS 7000 SCT023 BKN033 21/17 Q1015 NOSIG
ZGSZ,2017-03-17 08:00,ZGSZ 170800Z 22002MPS 7000 BKN025 21/17 Q1015 NOSIG
ZGSZ,2017-03-17 09:00,ZGSZ 170900Z 24002MPS 8000 BKN025 OVC036 20/17 Q1015 NOSIG
ZGSZ,2017-03-17 10:00,ZGSZ 171000Z 23002MPS 8000 OVC025 20/17 Q1015 NOSIG
ZGSZ,2017-03-17 11:00,ZGSZ 171100Z 13005MPS 8000 OVC023 21/17 Q1016 NOSIG
ZGSZ,2017-03-17 12:00,ZGSZ 171200Z 14006MPS 9999 SCT023 OVC050 20/17 Q1016 NOSIG
ZGSZ,2017-03-17 13:00,ZGSZ 171300Z 14005MPS 9999 OVC023 20/16 Q1016 NOSIG
ZGSZ,2017-03-17 14:00,ZGSZ 171400Z 13003MPS 100V160 7000 OVC023 20/17 Q1017 NOSIG
ZGSZ,2017-03-17 15:00,ZGSZ 171500Z 15003MPS 110V180 9999 OVC023 20/16 Q1018 NOSIG
ZGSZ,2017-03-17 16:00,ZGSZ 171600Z 15002MPS 110V170 9999 OVC023 20/16 Q1018 NOSIG
ZGSZ,2017-03-17 17:00,ZGSZ 171700Z 14003MPS 9999 OVC023 20/16 Q1018 NOSIG
ZGSZ,2017-03-17 18:00,ZGSZ 171800Z 14002MPS 7000 OVC023 20/16 Q1017 NOSIG
ZGSZ,2017-03-17 19:00,ZGSZ 171900Z 15001MPS 7000 OVC026 19/16 Q1017 NOSIG
ZGSZ,2017-03-17 20:00,ZGSZ 172000Z VRB01MPS 7000 OVC043 19/16 Q1017 NOSIG
ZGSZ,2017-03-17 21:00,ZGSZ 172100Z 00000MPS 7000 SCT033 19/16 Q1017 NOSIG
ZGSZ,2017-03-17 22:00,ZGSZ 172200Z 00000MPS 7000 SCT033 19/17 Q1017 NOSIG
ZGSZ,2017-03-17 23:00,ZGSZ 172300Z 14003MPS 6000 BKN050 20/17 Q1017 NOSIG
ZGSZ,2017-03-18 00:00,ZGSZ 180000Z 16004MPS 9999 OVC050 20/17 Q1018 NOSIG
ZGSZ,2017-03-18 01:00,ZGSZ 180100Z 14004MPS 9999 BKN036 21/17 Q1018 NOSIG
ZGSZ,2017-03-18 02:00,ZGSZ 180200Z 15005MPS 9999 -RA SCT017 BKN036 21/17 Q1019 NOSIG
ZGSZ,2017-03-18 03:00,ZGSZ 180300Z 14006MPS 9999 SCT030 22/19 Q1018 NOSIG
ZGSZ,2017-03-18 04:00,ZGSZ 180400Z 13004MPS 090V170 9999 SCT018 23/18 Q1018 NOSIG
ZGSZ,2017-03-18 05:00,ZGSZ 180500Z 14004MPS 9999 SCT018 24/19 Q1017 NOSIG
ZGSZ,2017-03-18 06:00,ZGSZ 180600Z 23002MPS 190V280 7000 BKN018 BKN040 22/18 Q1016 NOSIG
ZGSZ,2017-03-18 07:00,ZGSZ 180700Z 28002MPS 250V310 7000 BKN018 BKN040 22/18 Q1015 NOSIG
ZGSZ,2017-03-18 08:00,ZGSZ 180800Z VRB01MPS 5000 BR BKN018 BKN040 21/19 Q1015 NOSIG
ZGSZ,2017-03-18 09:00,ZGSZ 180900Z 14005MPS 5000 BR FEW018 BKN030 23/18 Q1015 NOSIG
ZGSZ,2017-03-18 10:00,ZGSZ 181000Z 14004MPS 7000 FEW020 BKN030 22/18 Q1015 NOSIG
ZGSZ,2017-03-18 11:00,ZGSZ 181100Z VRB01MPS 7000 BKN025 21/18 Q1016 NOSIG
ZGSZ,2017-03-18 12:00,ZGSZ 181200Z 02002MPS 350V060 7000 BKN021 22/19 Q1017 NOSIG
ZGSZ,2017-03-18 13:00,ZGSZ 181300Z 13004MPS 100V160 7000 BKN018 22/19 Q1017 NOSIG
ZGSZ,2017-03-18 14:00,ZGSZ 181400Z 08004MPS 060V140 6000 SCT011 BKN018 22/19 Q1017 NOSIG
ZGSZ,2017-03-18 15:00,ZGSZ 181500Z 08003MPS 020V150 6000 SCT012 BKN022 22/19 Q1018 NOSIG
ZGSZ,2017-03-18 16:00,ZGSZ 181600Z 19002MPS 130V260 6000 FEW012 BKN022 21/19 Q1017 NOSIG
ZGSZ,2017-03-18 17:00,ZGSZ 181700Z VRB01MPS 6000 BKN040 21/19 Q1017 NOSIG
ZGSZ,2017-03-18 18:00,ZGSZ 181800Z 01002MPS 4500 BR SCT013 BKN040 20/19 Q1017 NOSIG
ZGSZ,2017-03-18 19:00,ZGSZ 181900Z 29002MPS 4000 BR SCT013 BKN030 20/19 Q1016 NOSIG
ZGSZ,2017-03-18 20:00,ZGSZ 182000Z 21002MPS 160V240 4000 BR SCT013 BKN050 20/19 Q1016 NOSIG
ZGSZ,2017-03-18 21:00,ZGSZ 182100Z 16005MPS 3500 BR FEW013 BKN050 21/19 Q1015 NOSIG
ZGSZ,2017-03-18 22:00,ZGSZ 182200Z 17004MPS 5000 BR FEW013 BKN050 22/19 Q1016 NOSIG
ZGSZ,2017-03-18 23:00,ZGSZ 182300Z 15004MPS 7000 FEW013 BKN050 22/19 Q1016 NOSIG
ZGSZ,2017-03-19 00:00,ZGSZ 190000Z 14004MPS 6000 -SHRA SCT015 FEW020CB BKN036 22/19 Q1017 BECMG AT0030 TSRA
ZGSZ,2017-03-19 01:00,ZGSZ 190100Z 15005MPS 6000 -SHRA SCT015 FEW020CB BKN036 22/19 Q1018 BECMG AT0250 24008G13MPS 2000 TSRA
ZGSZ,2017-03-19 02:00,ZGSZ 190200Z 14003MPS 7000 -SHRA FEW015 FEW020CB BKN043 22/20 Q1018 BECMG AT0250 24005MPS 2000 TSRA
ZGSZ,2017-03-19 04:00,ZGSZ 190400Z 15002MPS 2400 +SHRA FEW010 FEW020CB BKN036 21/20 Q1019 BECMG AT0440 3100 -SHRA
ZGSZ,2017-03-19 05:00,ZGSZ 190500Z 15006MPS 4000 -SHRA FEW010 FEW020CB BKN036 21/20 Q1017 RESHRA NOSIG
ZGSZ,2017-03-19 06:00,ZGSZ 190600Z 14004MPS 8000 -SHRA FEW016 BKN043 22/21 Q1016 NOSIG
ZGSZ,2017-03-19 07:00,ZGSZ 190700Z 15005MPS 9999 -SHRA FEW016 BKN043 23/20 Q1015 NOSIG
ZGSZ,2017-03-19 08:00,ZGSZ 190800Z 14005MPS 9999 -SHRA FEW016 BKN050 23/20 Q1015 NOSIG
ZGSZ,2017-03-19 09:00,ZGSZ 190900Z 16005MPS 9999 SCT020 BKN050 23/20 Q1015 NOSIG
ZGSZ,2017-03-19 10:00,ZGSZ 191000Z 16004MPS 9999 FEW050 23/20 Q1015 NOSIG
ZGSZ,2017-03-19 11:00,ZGSZ 191100Z 13003MPS 9999 FEW050 22/20 Q1015 NOSIG
ZGSZ,2017-03-19 12:00,ZGSZ 191200Z 15004MPS 9999 FEW050 22/19 Q1015 NOSIG
ZGSZ,2017-03-19 13:00,ZGSZ 191300Z 14003MPS 9999 SCT050 21/19 Q1016 NOSIG
ZGSZ,2017-03-19 14:00,ZGSZ 191400Z 13003MPS 110V170 8000 NSC 21/19 Q1016 NOSIG
ZGSZ,2017-03-19 15:00,ZGSZ 191500Z 14005MPS 8000 SCT012 21/19 Q1016 NOSIG
ZGSZ,2017-03-19 16:00,ZGSZ 191600Z 13004MPS 8000 SCT011 BKN026 21/19 Q1016 NOSIG
ZGSZ,2017-03-19 17:00,ZGSZ 191700Z 13003MPS 100V220 8000 SCT014 BKN026 21/19 Q1016 NOSIG
ZGSZ,2017-03-19 18:00,ZGSZ 191800Z 13004MPS 8000 SCT014 BKN026 21/19 Q1015 NOSIG
ZGSZ,2017-03-19 19:00,ZGSZ 191900Z 12003MPS 6000 SCT016 BKN026 20/19 Q1015 NOSIG
ZGSZ,2017-03-19 20:00,ZGSZ 192000Z 08002MPS 9999 FEW012 BKN030 21/19 Q1015 NOSIG
ZGSZ,2017-03-19 21:00,ZGSZ 192100Z 06001MPS 8000 FEW012 BKN030 21/19 Q1015 NOSIG
ZGSZ,2017-03-19 22:00,ZGSZ 192200Z VRB01MPS 5000 BR FEW012 BKN030 20/19 Q1015 NOSIG
ZGSZ,2017-03-19 23:00,ZGSZ 192300Z VRB01MPS 5000 BR BKN017 20/19 Q1016 NOSIG
ZGSZ,2017-03-20 00:00,ZGSZ 200000Z 14004MPS 7000 SCT020 SCT050 21/19 Q1016 NOSIG
ZGSZ,2017-03-20 01:00,ZGSZ 200100Z 14002MPS 110V170 8000 FEW023 23/19 Q1017 NOSIG
ZGSZ,2017-03-20 02:00,ZGSZ 200200Z 30003MPS 8000 NSC 22/19 Q1016 NOSIG
ZGSZ,2017-03-20 03:00,ZGSZ 200300Z 30002MPS 6000 NSC 23/19 Q1016 NOSIG
ZGSZ,2017-03-20 04:00,ZGSZ 200400Z 28003MPS 5000 BR NSC 23/20 Q1015 NOSIG
ZGSZ,2017-03-20 05:00,ZGSZ 200500Z 28002MPS 230V310 7000 NSC 24/20 Q1014 NOSIG
ZGSZ,2017-03-20 06:00,ZGSZ 200600Z 31003MPS CAVOK 25/20 Q1013 NOSIG
ZGSZ,2017-03-20 07:00,ZGSZ 200700Z 31003MPS 9999 FEW036 26/21 Q1012 NOSIG
ZGSZ,2017-03-20 08:00,ZGSZ 200800Z 29003MPS CAVOK 26/21 Q1012 NOSIG
ZGSZ,2017-03-20 09:00,ZGSZ 200900Z 24002MPS 210V270 6000 NSC 24/21 Q1012 NOSIG
ZGSZ,2017-03-20 10:00,ZGSZ 201000Z 23003MPS 6000 NSC 23/21 Q1013 NOSIG
ZGSZ,2017-03-20 11:00,ZGSZ 201100Z 20003MPS 6000 SCT046 23/20 Q1013 NOSIG
ZGSZ,2017-03-20 12:00,ZGSZ 201200Z 20003MPS 6000 BKN046 22/20 Q1013 NOSIG
ZGSZ,2017-03-20 13:00,ZGSZ 201300Z 19004MPS 6000 BKN046 22/20 Q1014 NOSIG
ZGSZ,2017-03-20 14:00,ZGSZ 201400Z 26002MPS 230V290 3000 BR BKN046 21/20 Q1014 NOSIG
ZGSZ,2017-03-20 15:00,ZGSZ 201500Z 25004MPS 220V280 2000 BR SCT005 BKN046 21/20 Q1015 NOSIG
ZGSZ,2017-03-20 16:00,ZGSZ 201600Z 23004MPS 200V260 2800 BR FEW003 BKN046 21/20 Q1015 NOSIG
ZGSZ,2017-03-20 17:00,ZGSZ 201700Z 20003MPS 4000 BR SCT020 BKN046 21/20 Q1015 NOSIG
ZGSZ,2017-03-20 18:00,ZGSZ 201800Z 18003MPS 3500 BR FEW013 21/20 Q1014 NOSIG
ZGSZ,2017-03-20 19:00,ZGSZ 201900Z 00000MPS 3500 BR FEW013 21/20 Q1014 NOSIG
ZGSZ,2017-03-20 20:00,ZGSZ 202000Z 24001MPS 3000 BR FEW020 21/20 Q1014 NOSIG
ZGSZ,2017-03-20 21:00,ZGSZ 202100Z 00000MPS 4500 BR FEW020 21/20 Q1014 NOSIG
ZGSZ,2017-03-20 22:00,ZGSZ 202200Z 23002MPS 3500 BR BKN030 21/20 Q1015 NOSIG
ZGSZ,2017-03-20 23:00,ZGSZ 202300Z 00000MPS 3500 BR BKN030 21/20 Q1015 BECMG AT0020 2800
ZGSZ,2017-03-21 00:00,ZGSZ 210000Z 00000MPS 3500 BR BKN030 21/20 Q1016 BECMG AT0020 2800
ZGSZ,2017-03-21 01:00,ZGSZ 210100Z 30002MPS 280V340 3500 BR BKN033 23/21 Q1016 NOSIG
ZGSZ,2017-03-21 02:00,ZGSZ 210200Z 32003MPS 4500 BR BKN020 BKN040 23/20 Q1016 NOSIG
ZGSZ,2017-03-21 03:00,ZGSZ 210300Z 33004MPS 4000 BR SCT020 SCT050 25/21 Q1016 NOSIG
ZGSZ,2017-03-21 04:00,ZGSZ 210400Z 32004MPS 3500 BR FEW020 25/21 Q1014 NOSIG
ZGSZ,2017-03-21 05:00,ZGSZ 210500Z 32004MPS 3300 R33/1400D R34/P2000 BR BKN023 25/21 Q1013 BECMG AT0530 2600 BR
ZGSZ,2017-03-21 06:00,ZGSZ 210600Z 30003MPS 230V330 2900 R33/1400U R34/1800U HZ NSC 27/21 Q1013 BECMG TL0740 3500
ZGSZ,2017-03-21 07:00,ZGSZ 210700Z 21005MPS 4500 BR NSC 24/21 Q1012 NOSIG
ZGSZ,2017-03-21 08:00,ZGSZ 210800Z 21006MPS 9000 FEW023 23/21 Q1012 NOSIG
ZGSZ,2017-03-21 09:00,ZGSZ 210900Z 22006MPS 7000 SCT029 23/20 Q1013 NOSIG
ZGSZ,2017-03-21 10:00,ZGSZ 211000Z 22005MPS 8000 SCT029 23/20 Q1013 NOSIG
ZGSZ,2017-03-21 11:00,ZGSZ 211100Z 21004MPS 8000 SCT030 22/20 Q1013 NOSIG
ZGSZ,2017-03-21 12:00,ZGSZ 211200Z 13006MPS 8000 SCT030 24/20 Q1014 NOSIG
ZGSZ,2017-03-21 13:00,ZGSZ 211300Z 14005MPS 6000 SCT020 24/19 Q1015 NOSIG
ZGSZ,2017-03-21 14:00,ZGSZ 211400Z 13006MPS 6000 FEW015 BKN023 23/19 Q1015 NOSIG
ZGSZ,2017-03-21 15:00,ZGSZ 211500Z 13006MPS 6000 SCT012 BKN020 22/19 Q1015 NOSIG
ZGSZ,2017-03-21 16:00,ZGSZ 211600Z 13007MPS 6000 SCT012 BKN020 21/18 Q1014 NOSIG
ZGSZ,2017-03-21 17:00,ZGSZ 211700Z 14007MPS 9999 -RA SCT013 BKN040 21/18 Q1014 NOSIG
ZGSZ,2017-03-21 18:00,ZGSZ 211800Z 14008MPS 9999 FEW013 BKN040 20/17 Q1013 NOSIG
ZGSZ,2017-03-21 19:00,ZGSZ 211900Z 13007MPS 9999 FEW013 BKN040 20/17 Q1013 NOSIG
ZGSZ,2017-03-21 20:00,ZGSZ 212000Z 14005MPS 8000 -RA FEW013 BKN040 19/17 Q1012 NOSIG
ZGSZ,2017-03-21 21:00,ZGSZ 212100Z 12003MPS 8000 -RA FEW013 BKN040 19/17 Q1013 NOSIG
ZGSZ,2017-03-21 22:00,ZGSZ 212200Z 13005MPS 9999 FEW013 BKN040 19/17 Q1013 NOSIG
ZGSZ,2017-03-21 23:00,ZGSZ 212300Z 13005MPS 8000 -RA FEW013 BKN040 19/17 Q1013 NOSIG
ZGSZ,2017-03-22 00:00,ZGSZ 220000Z 14006MPS 8000 SCT023 BKN040 19/17 Q1014 NOSIG
ZGSZ,2017-03-22 01:00,ZGSZ 220100Z 13006MPS 7000 -SHRA SCT015 BKN040 20/17 Q1014 NOSIG
ZGSZ,2017-03-22 02:00,ZGSZ 220200Z 14006MPS 8000 SCT015 BKN040 20/17 Q1015 NOSIG
ZGSZ,2017-03-22 03:00,ZGSZ 220300Z 14004MPS 7000 -SHRA SCT015 BKN040 20/17 Q1015 NOSIG
ZGSZ,2017-03-22 04:00,ZGSZ 220400Z 13005MPS 9000 -SHRA SCT015 BKN050 20/17 Q1014 NOSIG
ZGSZ,2017-03-22 05:00,ZGSZ 220500Z 15005MPS 9000 -SHRA FEW016 BKN050 21/17 Q1013 NOSIG
ZGSZ,2017-03-22 06:00,ZGSZ 220600Z 14005MPS 9000 -SHRA FEW016 BKN050 21/17 Q1012 NOSIG
ZGSZ,2017-03-22 07:00,ZGSZ 220700Z 14005MPS 9000 -SHRA SCT020 21/17 Q1012 NOSIG
ZGSZ,2017-03-22 08:00,ZGSZ 220800Z 15004MPS 9000 -SHRA SCT020 21/17 Q1012 NOSIG
ZGSZ,2017-03-22 09:00,ZGSZ 220900Z 15003MPS 120V180 5000 SHRA BR FEW026TCU 20/18 Q1012 NOSIG
ZGSZ,2017-03-22 10:00,ZGSZ 221000Z 12002MPS 080V190 5000 -SHRA BR SCT016 OVC043 20/18 Q1013 RESHRA BECMG AT1120 SHRA
ZGSZ,2017-03-22 11:00,ZGSZ 221100Z 16004MPS 6000 -RA BKN026 20/18 Q1013 NOSIG
ZGSZ,2017-03-22 12:00,ZGSZ 221200Z VRB01MPS 5000 BR SCT013 BKN033 20/18 Q1014 NOSIG
ZGSZ,2017-03-22 13:00,ZGSZ 221300Z 35003MPS 4000 BR BKN010 20/19 Q1014 BECMG TL1430 SCT012
ZGSZ,2017-03-22 14:00,ZGSZ 221400Z 10003MPS 050V140 5000 BR FEW010 OVC020 20/19 Q1015 NOSIG
ZGSZ,2017-03-22 15:00,ZGSZ 221500Z VRB03MPS 3000 BR OVC020 20/18 Q1015 NOSIG
ZGSZ,2017-03-22 16:00,ZGSZ 221600Z 14003MPS 2800 BR BKN026 20/18 Q1014 NOSIG
ZGSZ,2017-03-22 17:00,ZGSZ 221700Z 04002MPS 010V100 4000 BR SCT010 OVC026 20/18 Q1014 NOSIG
ZGSZ,2017-03-22 18:00,ZGSZ 221800Z 08002MPS 040V140 4000 BR SCT015 OVC023 20/18 Q1014 NOSIG
ZGSZ,2017-03-22 19:00,ZGSZ 221900Z 07002MPS 020V160 3500 BR SCT016 OVC023 20/18 Q1014 NOSIG
ZGSZ,2017-03-22 20:00,ZGSZ 222000Z 14002MPS 4000 BR BKN017 20/18 Q1013 NOSIG
ZGSZ,2017-03-22 21:00,ZGSZ 222100Z 16003MPS 130V190 3000 BR BKN017 20/18 Q1013 NOSIG
ZGSZ,2017-03-22 22:00,ZGSZ 222200Z VRB01MPS 4000 BR BKN017 20/18 Q1014 NOSIG
ZGSZ,2017-03-22 23:00,ZGSZ 222300Z 08002MPS 020V130 3500 BR BKN017 OVC030 21/18 Q1014 NOSIG
ZGSZ,2017-03-23 00:00,ZGSZ 230000Z 07002MPS 350V110 3800 BR SCT017 OVC030 21/18 Q1015 NOSIG
ZGSZ,2017-03-23 01:00,ZGSZ 230100Z 08002MPS 050V170 3200 BR SCT015 OVC030 22/19 Q1016 BECMG TL0130 2800 BR
ZGSZ,2017-03-23 02:00,ZGSZ 230200Z 23002MPS 2900 BR SCT015 OVC030 22/19 Q1016 BECMG TL0320 3500
ZGSZ,2017-03-23 03:00,ZGSZ 230300Z 28003MPS 2900 BR FEW015 BKN033 22/19 Q1016 BECMG TL0320 3500
ZGSZ,2017-03-23 04:00,ZGSZ 230400Z 30002MPS 2500 BR FEW018 OVC036 23/20 Q1016 BECMG TL0530 3500
ZGSZ,2017-03-23 05:00,ZGSZ 230500Z 30002MPS 270V330 2500 BR SCT017 BKN027 24/19 Q1015 BECMG TL0530 3500
ZGSZ,2017-03-23 06:00,ZGSZ 230600Z 24003MPS 2900 BR FEW017 BKN027 23/20 Q1014 BECMG TL0730 3200
ZGSZ,2017-03-23 07:00,ZGSZ 230700Z 22003MPS 2800 BR FEW017 BKN040 23/19 Q1013 BECMG TL0730 3200
ZGSZ,2017-03-23 08:00,ZGSZ 230800Z 23004MPS 3500 BR BKN046 23/20 Q1013 NOSIG
ZGSZ,2017-03-23 09:00,ZGSZ 230900Z 23003MPS 4000 BR SCT025 BKN046 22/19 Q1013 NOSIG
ZGSZ,2017-03-23 10:00,ZGSZ 231000Z 22002MPS 4000 BR SCT046 22/19 Q1013 NOSIG
ZGSZ,2017-03-23 11:00,ZGSZ 231100Z 21003MPS 9999 BKN046 22/19 Q1013 NOSIG
ZGSZ,2017-03-23 12:00,ZGSZ 231200Z 20002MPS 9999 BKN046 22/19 Q1014 NOSIG
ZGSZ,2017-03-23 13:00,ZGSZ 231300Z 14004MPS 9999 BKN046 23/17 Q1015 NOSIG
ZGSZ,2017-03-23 14:00,ZGSZ 231400Z 14005MPS 9999 BKN046 23/17 Q1015 NOSIG
ZGSZ,2017-03-23 15:00,ZGSZ 231500Z 16004MPS 9999 SCT046 22/17 Q1015 NOSIG
ZGSZ,2017-03-23 16:00,ZGSZ 231600Z 14004MPS 9999 BKN046 22/18 Q1016 NOSIG
ZGSZ,2017-03-23 17:00,ZGSZ 231700Z 13004MPS 100V160 9999 BKN046 22/18 Q1016 NOSIG
ZGSZ,2017-03-23 18:00,ZGSZ 231800Z 13004MPS 9999 BKN046 22/18 Q1015 NOSIG
ZGSZ,2017-03-23 19:00,ZGSZ 231900Z 12004MPS 9999 BKN050 22/19 Q1015 NOSIG
ZGSZ,2017-03-23 20:00,ZGSZ 232000Z 13004MPS 9999 BKN050 22/18 Q1015 NOSIG
ZGSZ,2017-03-23 21:00,ZGSZ 232100Z 12003MPS 040V150 9999 BKN050 22/19 Q1015 NOSIG
ZGSZ,2017-03-23 22:00,ZGSZ 232200Z 13003MPS 8000 BKN053 22/18 Q1015 NOSIG
ZGSZ,2017-03-23 23:00,ZGSZ 232300Z 14004MPS 6000 BKN053 21/18 Q1016 NOSIG
ZGSZ,2017-03-24 00:00,ZGSZ 240000Z 13006MPS CAVOK 23/18 Q1016 NOSIG
ZGSZ,2017-03-24 01:00,ZGSZ 240100Z 15008MPS CAVOK 24/18 Q1016 NOSIG
ZGSZ,2017-03-24 02:00,ZGSZ 240200Z 17006MPS CAVOK 25/17 Q1017 NOSIG
ZGSZ,2017-03-24 03:00,ZGSZ 240300Z 15005MPS CAVOK 26/17 Q1016 NOSIG
ZGSZ,2017-03-24 04:00,ZGSZ 240400Z 22004MPS CAVOK 26/18 Q1016 NOSIG
ZGSZ,2017-03-24 05:00,ZGSZ 240500Z 26003MPS CAVOK 24/19 Q1015 NOSIG
ZGSZ,2017-03-24 06:00,ZGSZ 240600Z 27004MPS CAVOK 24/20 Q1014 NOSIG
ZGSZ,2017-03-24 07:00,ZGSZ 240700Z 25004MPS CAVOK 24/19 Q1013 NOSIG
ZGSZ,2017-03-24 08:00,ZGSZ 240800Z 25003MPS CAVOK 24/19 Q1013 NOSIG
ZGSZ,2017-03-24 09:00,ZGSZ 240900Z 24003MPS CAVOK 23/19 Q1014 NOSIG
ZGSZ,2017-03-24 10:00,ZGSZ 241000Z 22003MPS CAVOK 22/19 Q1014 NOSIG
ZGSZ,2017-03-24 11:00,ZGSZ 241100Z 23004MPS CAVOK 22/19 Q1014 NOSIG
ZGSZ,2017-03-24 12:00,ZGSZ 241200Z 20006MPS CAVOK 22/19 Q1015 NOSIG
ZGSZ,2017-03-24 13:00,ZGSZ 241300Z 19005MPS CAVOK 22/19 Q1015 NOSIG
ZGSZ,2017-03-24 14:00,ZGSZ 241400Z 15004MPS 7000 NSC 22/18 Q1016 NOSIG
ZGSZ,2017-03-24 15:00,ZGSZ 241500Z 13004MPS 7000 NSC 22/18 Q1015 NOSIG
ZGSZ,2017-03-24 16:00,ZGSZ 241600Z 14004MPS 7000 NSC 22/18 Q1015 NOSIG
ZGSZ,2017-03-24 17:00,ZGSZ 241700Z 11002MPS 060V160 7000 NSC 22/18 Q1015 NOSIG
ZGSZ,2017-03-24 18:00,ZGSZ 241800Z 06002MPS 020V110 8000 BKN033 22/18 Q1015 NOSIG
ZGSZ,2017-03-24 19:00,ZGSZ 241900Z 06002MPS 8000 BKN033 22/18 Q1015 NOSIG
ZGSZ,2017-03-24 20:00,ZGSZ 242000Z VRB01MPS 8000 BKN043 22/19 Q1015 NOSIG
ZGSZ,2017-03-24 21:00,ZGSZ 242100Z 24001MPS 9999 BKN040 22/19 Q1015 NOSIG
ZGSZ,2017-03-24 22:00,ZGSZ 242200Z 22001MPS 7000 BKN046 21/19 Q1015 NOSIG
ZGSZ,2017-03-24 23:00,ZGSZ 242300Z VRB01MPS 7000 BKN046 21/19 Q1016 NOSIG
ZGSZ,2017-03-25 00:00,ZGSZ 250000Z 04002MPS 010V080 7000 BKN032 22/19 Q1017 NOSIG
ZGSZ,2017-03-25 01:00,ZGSZ 250100Z 06003MPS 360V100 4500 BR FEW020 BKN032 23/19 Q1017 NOSIG
ZGSZ,2017-03-25 02:00,ZGSZ 250200Z 03005MPS 340V050 3700 BR FEW015 BKN032 22/18 Q1018 NOSIG
ZGSZ,2017-03-25 03:00,ZGSZ 250300Z 03007MPS 6000 FEW015 BKN032 21/17 Q1018 NOSIG
ZGSZ,2017-03-25 04:00,ZGSZ 250400Z 05007MPS 7000 FEW015 BKN032 20/15 Q1018 NOSIG
ZGSZ,2017-03-25 05:00,ZGSZ 250500Z 03008MPS 9999 BKN020 18/14 Q1018 NOSIG
ZGSZ,2017-03-25 06:00,ZGSZ 250600Z 03007MPS 9000 BKN020 18/14 Q1017 NOSIG
ZGSZ,2017-03-25 07:00,ZGSZ 250700Z 04008MPS 010V070 9999 BKN020 17/13 Q1017 NOSIG
ZGSZ,2017-03-25 08:00,ZGSZ 250800Z 04006MPS 9999 BKN026 18/13 Q1017 NOSIG
ZGSZ,2017-03-25 09:00,ZGSZ 250900Z 04007MPS 9999 OVC020 17/12 Q1017 NOSIG
ZGSZ,2017-03-25 10:00,ZGSZ 251000Z 05007MPS 9999 OVC021 17/12 Q1017 NOSIG
ZGSZ,2017-03-25 11:00,ZGSZ 251100Z 06007MPS 9999 OVC028 17/11 Q1018 NOSIG
ZGSZ,2017-03-25 12:00,ZGSZ 251200Z 04006MPS 9999 OVC028 16/11 Q1019 NOSIG
ZGSZ,2017-03-25 13:00,ZGSZ 251300Z 02006MPS 5000 -RA FEW015 OVC022 14/12 Q1021 NOSIG
ZGSZ,2017-03-25 14:00,ZGSZ 251400Z 04006MPS 9999 -RA FEW012 OVC022 14/12 Q1021 NOSIG
ZGSZ,2017-03-25 15:00,ZGSZ 251500Z 07007MPS 9999 FEW012 OVC026 15/11 Q1021 NOSIG
ZGSZ,2017-03-25 16:00,ZGSZ 251600Z 05005MPS 9999 FEW012 OVC026 14/11 Q1021 NOSIG
ZGSZ,2017-03-25 17:00,ZGSZ 251700Z 04005MPS 9999 -RA FEW012 OVC026 14/11 Q1021 NOSIG
ZGSZ,2017-03-25 18:00,ZGSZ 251800Z 04006MPS 9999 FEW012 OVC026 14/11 Q1021 NOSIG
ZGSZ,2017-03-25 19:00,ZGSZ 251900Z 05006MPS 9999 -RA FEW012 OVC026 14/11 Q1020 NOSIG
ZGSZ,2017-03-25 20:00,ZGSZ 252000Z 03006MPS 9999 SCT015 OVC030 14/11 Q1020 NOSIG
ZGSZ,2017-03-25 21:00,ZGSZ 252100Z 04007MPS 9999 SCT011 OVC030 13/11 Q1021 NOSIG
ZGSZ,2017-03-25 22:00,ZGSZ 252200Z 04006MPS 9999 -RA SCT011 OVC040 13/11 Q1021 NOSIG
ZGSZ,2017-03-25 23:00,ZGSZ 252300Z 05006MPS 020V080 9999 SCT013 OVC040 13/10 Q1022 NOSIG
ZGSZ,2017-03-26 00:00,ZGSZ 260000Z 04006MPS 8000 -RA FEW015 OVC040 13/10 Q1024 NOSIG
ZGSZ,2017-03-26 01:00,ZGSZ 260100Z 07005MPS 020V090 9999 FEW015 OVC050 13/09 Q1025 NOSIG
ZGSZ,2017-03-26 02:00,ZGSZ 260200Z 05007MPS 9999 OVC050 14/07 Q1025 NOSIG
ZGSZ,2017-03-26 03:00,ZGSZ 260300Z 03006MPS 9999 BKN050 14/08 Q1024 NOSIG
ZGSZ,2017-03-26 04:00,ZGSZ 260400Z 06006MPS 9999 BKN050 14/06 Q1024 NOSIG
ZGSZ,2017-03-26 05:00,ZGSZ 260500Z 05005MPS 9999 BKN053 15/07 Q1023 NOSIG
ZGSZ,2017-03-26 06:00,ZGSZ 260600Z 04004MPS 9999 BKN053 15/09 Q1023 NOSIG
ZGSZ,2017-03-26 07:00,ZGSZ 260700Z 06003MPS 030V090 9999 BKN053 15/08 Q1022 NOSIG
ZGSZ,2017-03-26 08:00,ZGSZ 260800Z 05004MPS 020V080 CAVOK 16/08 Q1021 NOSIG
ZGSZ,2017-03-26 09:00,ZGSZ 260900Z 06006MPS CAVOK 16/07 Q1022 NOSIG
ZGSZ,2017-03-26 10:00,ZGSZ 261000Z 06005MPS CAVOK 16/08 Q1022 NOSIG
ZGSZ,2017-03-26 11:00,ZGSZ 261100Z 10002MPS CAVOK 15/09 Q1022 NOSIG
ZGSZ,2017-03-26 12:00,ZGSZ 261200Z VRB02G10MPS CAVOK 15/08 Q1023 NOSIG
ZGSZ,2017-03-26 13:00,ZGSZ 261300Z 11002MPS 080V150 CAVOK 15/08 Q1023 NOSIG
ZGSZ,2017-03-26 14:00,ZGSZ 261400Z 00000MPS CAVOK 15/09 Q1024 NOSIG
ZGSZ,2017-03-26 15:00,ZGSZ 261500Z VRB01MPS CAVOK 15/09 Q1024 NOSIG
ZGSZ,2017-03-26 16:00,ZGSZ 261600Z 04002MPS 360V070 CAVOK 16/09 Q1024 NOSIG
ZGSZ,2017-03-26 17:00,ZGSZ 261700Z 06002MPS 010V100 CAVOK 15/09 Q1024 NOSIG
ZGSZ,2017-03-26 18:00,ZGSZ 261800Z 06002MPS 030V090 CAVOK 15/10 Q1023 NOSIG
ZGSZ,2017-03-26 19:00,ZGSZ 261900Z 06003MPS CAVOK 15/10 Q1023 NOSIG
ZGSZ,2017-03-26 20:00,ZGSZ 262000Z 00000MPS CAVOK 14/09 Q1023 NOSIG
ZGSZ,2017-03-26 21:00,ZGSZ 262100Z 08002MPS CAVOK 14/09 Q1023 NOSIG
ZGSZ,2017-03-26 22:00,ZGSZ 262200Z 04002MPS CAVOK 14/09 Q1023 NOSIG
ZGSZ,2017-03-26 23:00,ZGSZ 262300Z 03002MPS CAVOK 13/10 Q1024 NOSIG
ZGSZ,2017-03-27 00:00,ZGSZ 270000Z 06003MPS CAVOK 16/09 Q1024 NOSIG
ZGSZ,2017-03-27 01:00,ZGSZ 270100Z 06003MPS 030V100 CAVOK 18/09 Q1025 NOSIG
ZGSZ,2017-03-27 02:00,ZGSZ 270200Z 06004MPS 040V100 CAVOK 20/08 Q1025 NOSIG
ZGSZ,2017-03-27 03:00,ZGSZ 270300Z 07004MPS 040V130 CAVOK 22/07 Q1025 NOSIG
ZGSZ,2017-03-27 04:00,ZGSZ 270400Z 09003G08MPS 030V130 CAVOK 24/05 Q1024 NOSIG
ZGSZ,2017-03-27 05:00,ZGSZ 270500Z 19004MPS 140V280 CAVOK 25/09 Q1023 NOSIG
ZGSZ,2017-03-27 06:00,ZGSZ 270600Z 25003MPS CAVOK 24/08 Q1021 NOSIG
ZGSZ,2017-03-27 07:00,ZGSZ 270700Z 27003MPS 9999 SCT050 23/10 Q1020 NOSIG
ZGSZ,2017-03-27 08:00,ZGSZ 270800Z 26004MPS 9999 BKN050 22/11 Q1020 NOSIG
ZGSZ,2017-03-27 09:00,ZGSZ 270900Z 27002MPS 9999 BKN053 21/12 Q1020 BECMG AT1030 12005MPS
ZGSZ,2017-03-27 10:00,ZGSZ 271000Z 15005MPS 9999 BKN053 24/01 Q1020 NOSIG
ZGSZ,2017-03-27 11:00,ZGSZ 271100Z 14004MPS 9999 BKN053 22/04 Q1021 NOSIG
ZGSZ,2017-03-27 12:00,ZGSZ 271200Z 14005MPS 120V180 9999 BKN053 21/08 Q1021 NOSIG
ZGSZ,2017-03-27 13:00,ZGSZ 271300Z 15005MPS 9999 BKN053 21/09 Q1022 NOSIG
ZGSZ,2017-03-27 14:00,ZGSZ 271400Z 13004MPS 090V160 CAVOK 20/10 Q1022 NOSIG
ZGSZ,2017-03-27 15:00,ZGSZ 271500Z 14004MPS CAVOK 19/10 Q1022 NOSIG
ZGSZ,2017-03-27 16:00,ZGSZ 271600Z 15003MPS CAVOK 19/09 Q1021 NOSIG
ZGSZ,2017-03-27 17:00,ZGSZ 271700Z 14003MPS 110V170 CAVOK 18/08 Q1021 NOSIG
ZGSZ,2017-03-27 18:00,ZGSZ 271800Z 15003MPS 110V180 CAVOK 19/07 Q1021 NOSIG
ZGSZ,2017-03-27 19:00,ZGSZ 271900Z 13002MPS 100V220 CAVOK 19/07 Q1021 NOSIG
ZGSZ,2017-03-27 20:00,ZGSZ 272000Z 07003MPS 020V100 CAVOK 18/07 Q1020 NOSIG
ZGSZ,2017-03-27 21:00,ZGSZ 272100Z VRB01MPS CAVOK 17/07 Q1020 NOSIG
ZGSZ,2017-03-27 22:00,ZGSZ 272200Z VRB01MPS CAVOK 17/08 Q1020 NOSIG
ZGSZ,2017-03-27 23:00,ZGSZ 272300Z 04003MPS 010V070 CAVOK 18/09 Q1020 NOSIG
ZGSZ,2017-03-28 00:00,ZGSZ 280000Z 11002MPS 020V170 CAVOK 19/09 Q1020 NOSIG
ZGSZ,2017-03-28 01:00,ZGSZ 280100Z 14004MPS 110V170 CAVOK 21/11 Q1020 NOSIG
ZGSZ,2017-03-28 02:00,ZGSZ 280200Z VRB04MPS CAVOK 22/12 Q1020 NOSIG
ZGSZ,2017-03-28 03:00,ZGSZ 280300Z 31004MPS CAVOK 22/13 Q1020 NOSIG
ZGSZ,2017-03-28 04:00,ZGSZ 280400Z 27003MPS 240V300 8000 NSC 23/13 Q1019 NOSIG
ZGSZ,2017-03-28 05:00,ZGSZ 280500Z 32003MPS 8000 FEW050 23/15 Q1018 NOSIG
ZGSZ,2017-03-28 06:00,ZGSZ 280600Z 27003MPS 230V300 9000 SCT033 24/18 Q1017 NOSIG
ZGSZ,2017-03-28 07:00,ZGSZ 280700Z 23004MPS 9000 BKN043 24/18 Q1016 NOSIG
ZGSZ,2017-03-28 08:00,ZGSZ 280800Z 14005MPS 9999 BKN043 25/17 Q1015 NOSIG
ZGSZ,2017-03-28 09:00,ZGSZ 280900Z 16007MPS CAVOK 26/17 Q1015 NOSIG
ZGSZ,2017-03-28 10:00,ZGSZ 281000Z 16006MPS CAVOK 24/17 Q1016 NOSIG
ZGSZ,2017-03-28 11:00,ZGSZ 281100Z 14005MPS CAVOK 23/17 Q1017 NOSIG
ZGSZ,2017-03-28 12:00,ZGSZ 281200Z 14006MPS CAVOK 22/17 Q1017 NOSIG
ZGSZ,2017-03-28 13:00,ZGSZ 281300Z 14004MPS CAVOK 22/17 Q1018 NOSIG
ZGSZ,2017-03-28 14:00,ZGSZ 281400Z 15004MPS CAVOK 21/17 Q1018 NOSIG
ZGSZ,2017-03-28 15:00,ZGSZ 281500Z 14004MPS CAVOK 21/17 Q1018 NOSIG
ZGSZ,2017-03-28 16:00,ZGSZ 281600Z 14003MPS 080V160 9999 FEW030 21/17 Q1018 NOSIG
ZGSZ,2017-03-28 17:00,ZGSZ 281700Z 14003MPS 100V170 9999 BKN030 21/18 Q1018 NOSIG
ZGSZ,2017-03-28 18:00,ZGSZ 281800Z 14004MPS 9999 BKN036 21/18 Q1017 NOSIG
ZGSZ,2017-03-28 19:00,ZGSZ 281900Z 09003MPS 050V120 9999 BKN050 21/18 Q1017 NOSIG
ZGSZ,2017-03-28 20:00,ZGSZ 282000Z 08003MPS 7000 NSC 21/17 Q1017 NOSIG
ZGSZ,2017-03-28 21:00,ZGSZ 282100Z 07004MPS 7000 BKN050 21/18 Q1017 NOSIG
ZGSZ,2017-03-28 22:00,ZGSZ 282200Z VRB01MPS 7000 FEW050 20/17 Q1017 NOSIG
ZGSZ,2017-03-28 23:00,ZGSZ 282300Z 00000MPS 6000 FEW050 21/18 Q1017 NOSIG
ZGSZ,2017-03-29 00:00,ZGSZ 290000Z 03002MPS 010V100 6000 FEW050 22/18 Q1018 NOSIG
ZGSZ,2017-03-29 01:00,ZGSZ 290100Z 07003MPS 040V100 6000 FEW026 BKN046 23/18 Q1019 NOSIG
ZGSZ,2017-03-29 02:00,ZGSZ 290200Z 14006MPS 6000 FEW026 BKN040 25/19 Q1019 NOSIG
ZGSZ,2017-03-29 03:00,ZGSZ 290300Z 14007MPS 8000 BKN030 26/19 Q1019 NOSIG
ZGSZ,2017-03-29 04:00,ZGSZ 290400Z 15007MPS 9999 SCT026 28/20 Q1018 NOSIG
ZGSZ,2017-03-29 05:00,ZGSZ 290500Z 15006MPS 9999 BKN026 27/19 Q1018 NOSIG
ZGSZ,2017-03-29 06:00,ZGSZ 290600Z 15004MPS 120V190 9999 SCT030 28/19 Q1017 NOSIG
ZGSZ,2017-03-29 07:00,ZGSZ 290700Z 24004MPS 9999 BKN033 25/20 Q1016 NOSIG
ZGSZ,2017-03-29 08:00,ZGSZ 290800Z 23003MPS 200V260 9999 SCT033 24/20 Q1016 NOSIG
ZGSZ,2017-03-29 09:00,ZGSZ 290900Z 20004MPS 170V230 9999 BKN033 24/20 Q1016 NOSIG
ZGSZ,2017-03-29 10:00,ZGSZ 291000Z 15005MPS 9999 BKN033 26/19 Q1016 NOSIG
ZGSZ,2017-03-29 11:00,ZGSZ 291100Z 14006MPS 9999 BKN030 25/19 Q1016 NOSIG
ZGSZ,2017-03-29 12:00,ZGSZ 291200Z 12005MPS 9999 BKN040 23/19 Q1017 NOSIG
ZGSZ,2017-03-29 13:00,ZGSZ 291300Z 14004MPS 9999 BKN040 23/19 Q1018 NOSIG
ZGSZ,2017-03-29 14:00,ZGSZ 291400Z 14003MPS 8000 FEW017 23/20 Q1018 NOSIG
ZGSZ,2017-03-29 15:00,ZGSZ 291500Z 14004MPS 110V170 8000 FEW017 23/20 Q1018 NOSIG
ZGSZ,2017-03-29 16:00,ZGSZ 291600Z 14004MPS 8000 FEW017 23/20 Q1018 NOSIG
ZGSZ,2017-03-29 17:00,ZGSZ 291700Z 13003MPS 080V200 8000 BKN024 23/20 Q1018 NOSIG
ZGSZ,2017-03-29 18:00,ZGSZ 291800Z 13003MPS 100V160 8000 BKN020 23/20 Q1018 NOSIG
ZGSZ,2017-03-29 19:00,ZGSZ 291900Z 14003MPS 7000 BKN020 23/19 Q1017 NOSIG
ZGSZ,2017-03-29 20:00,ZGSZ 292000Z 14005MPS 7000 BKN020 22/19 Q1017 NOSIG
ZGSZ,2017-03-29 21:00,ZGSZ 292100Z 13003MPS 100V160 7000 SCT020 SCT050 23/19 Q1017 NOSIG
ZGSZ,2017-03-29 22:00,ZGSZ 292200Z 14004MPS 6000 SCT020 SCT050 23/19 Q1017 NOSIG
ZGSZ,2017-03-29 23:00,ZGSZ 292300Z 14004MPS 6000 SCT033 SCT050 23/19 Q1017 NOSIG
ZGSZ,2017-03-30 00:00,ZGSZ 300000Z 15005MPS 7000 BKN053 23/20 Q1018 NOSIG
ZGSZ,2017-03-30 01:00,ZGSZ 300100Z 14004MPS 8000 NSC 24/20 Q1018 NOSIG
ZGSZ,2017-03-30 02:00,ZGSZ 300200Z 21003MPS 8000 BKN050 25/20 Q1018 NOSIG
ZGSZ,2017-03-30 03:00,ZGSZ 300300Z 17005MPS 9999 BKN050 27/21 Q1018 NOSIG
ZGSZ,2017-03-30 04:00,ZGSZ 300400Z 20004MPS 120V240 9999 BKN050 27/21 Q1017 NOSIG
ZGSZ,2017-03-30 05:00,ZGSZ 300500Z 26004MPS 9999 BKN050 23/20 Q1016 NOSIG
ZGSZ,2017-03-30 06:00,ZGSZ 300600Z 23005MPS 7000 BKN050 24/21 Q1015 NOSIG
ZGSZ,2017-03-30 07:00,ZGSZ 300700Z 22005MPS 7000 BKN050 24/20 Q1015 NOSIG
ZGSZ,2017-03-30 08:00,ZGSZ 300800Z 20004MPS 7000 -RA BKN040 23/21 Q1014 NOSIG
ZGSZ,2017-03-30 09:00,ZGSZ 300900Z 23003MPS 8000 SCT033 24/21 Q1014 BECMG AT1020 16005MPS
ZGSZ,2017-03-30 10:00,ZGSZ 301000Z 22003MPS 8000 BKN050 23/21 Q1014 BECMG AT1120 15005MPS
ZGSZ,2017-03-30 11:00,ZGSZ 301100Z 20004MPS 8000 BKN033 23/21 Q1014 BECMG AT1140 15005MPS
ZGSZ,2017-03-30 12:00,ZGSZ 301200Z 16004MPS 8000 BKN053 25/21 Q1015 NOSIG
ZGSZ,2017-03-30 13:00,ZGSZ 301300Z 14004MPS 8000 SCT033 24/21 Q1016 NOSIG
ZGSZ,2017-03-30 14:00,ZGSZ 301400Z 15004MPS 6000 BKN053 24/20 Q1015 NOSIG
ZGSZ,2017-03-30 15:00,ZGSZ 301500Z 18004MPS 8000 BKN053 23/21 Q1016 NOSIG
ZGSZ,2017-03-30 16:00,ZGSZ 301600Z 19003MPS 8000 FEW023 BKN053 23/21 Q1016 NOSIG
ZGSZ,2017-03-30 17:00,ZGSZ 301700Z 16004MPS 8000 NSC 23/20 Q1014 NOSIG
ZGSZ,2017-03-30 18:00,ZGSZ 301800Z 18005MPS 6000 FEW020 23/20 Q1014 NOSIG
ZGSZ,2017-03-30 19:00,ZGSZ 301900Z 16003MPS 7000 FEW020 23/20 Q1013 NOSIG
ZGSZ,2017-03-30 20:00,ZGSZ 302000Z 28002MPS 5000 BR SCT020 BKN030 22/20 Q1012 NOSIG
ZGSZ,2017-03-30 21:00,ZGSZ 302100Z 32001MPS 3500 BR SCT015 BKN030 22/20 Q1013 NOSIG
ZGSZ,2017-03-30 22:00,ZGSZ 302200Z 23002MPS 2800 BR SCT014 BKN023 22/21 Q1013 BECMG FM2340 3500
ZGSZ,2017-03-31 00:00,ZGSZ 310000Z 33003G09MPS 300V360 3500 BR FEW014 FEW023CB BKN033 22/21 Q1015 BECMG FM0010 33008G13MPS 2000 TSRA
ZGSZ,2017-03-31 01:00,ZGSZ 310100Z 02003MPS 9999 -SHRA FEW007 FEW033CB 21/20 Q1016 RESHRA NOSIG
ZGSZ,2017-03-31 02:00,ZGSZ 310200Z VRB01MPS 4500 -TSRA SCT009 FEW030CB 21/20 Q1016 BECMG AT0330 36005MPS -SHRA
ZGSZ,2017-03-31 03:00,ZGSZ 310300Z 34003MPS 3600 -SHRA FEW009 FEW030CB BKN033 21/19 Q1016 NOSIG
ZGSZ,2017-03-31 04:00,ZGSZ 310400Z 35004MPS 320V030 5000 -SHRA FEW007 FEW026CB BKN030 20/19 Q1015 NOSIG
ZGSZ,2017-03-31 05:00,ZGSZ 310500Z 35005MPS 2500 -SHRA FEW007 FEW026CB BKN030 19/18 Q1015 NOSIG
ZGSZ,2017-03-31 06:00,ZGSZ 310600Z 36005MPS 6000 -SHRA BKN026 20/18 Q1014 NOSIG
ZGSZ,2017-03-31 07:00,ZGSZ 310700Z 35008MPS 7000 BKN026 19/17 Q1015 NOSIG
ZGSZ,2017-03-31 08:00,ZGSZ 310800Z 01006MPS 8000 -SHRA OVC033 18/16 Q1014 NOSIG
ZGSZ,2017-03-31 09:00,ZGSZ 310900Z 36008MPS 9999 SCT010 OVC030 18/16 Q1015 NOSIG
ZGSZ,2017-03-31 10:00,ZGSZ 311000Z 04006MPS 010V070 9999 SCT013 OVC030 18/16 Q1016 NOSIG
ZGSZ,2017-03-31 11:00,ZGSZ 311100Z 04008MPS 9999 SCT015 OVC030 17/14 Q1016 NOSIG
ZGSZ,2017-03-31 12:00,ZGSZ 311200Z 04006MPS 9999 FEW015 OVC030 17/14 Q1017 NOSIG
ZGSZ,2017-03-31 13:00,ZGSZ 311300Z 05005MPS 9999 FEW020 17/13 Q1018 NOSIG
ZGSZ,2017-03-31 14:00,ZGSZ 311400Z 07007MPS 9999 -RA FEW010 16/13 Q1019 NOSIG
ZGSZ,2017-03-31 15:00,ZGSZ 311500Z 04005MPS 9999 -RA FEW010 16/13 Q1020 NOSIG
ZGSZ,2017-03-31 16:00,ZGSZ 311600Z 06007MPS 9999 -RA FEW010 15/12 Q1020 NOSIG
ZGSZ,2017-03-31 17:00,ZGSZ 311700Z 05006MPS 9999 FEW012 15/12 Q1020 NOSIG
ZGSZ,2017-03-31 18:00,ZGSZ 311800Z 03007MPS 9999 FEW012 15/12 Q1020 NOSIG
ZGSZ,2017-03-31 19:00,ZGSZ 311900Z 04006MPS 9999 FEW012 15/12 Q1019 NOSIG
ZGSZ,2017-03-31 20:00,ZGSZ 312000Z 05006MPS 9999 FEW012 15/11 Q1019 NOSIG
ZGSZ,2017-03-31 21:00,ZGSZ 312100Z 06005MPS CAVOK 15/11 Q1020 NOSIG
ZGSZ,2017-03-31 22:00,ZGSZ 312200Z 04004MPS CAVOK 14/11 Q1020 NOSIG
ZGSZ,2017-03-31 23:00,ZGSZ 312300Z 04006MPS CAVOK 14/11 Q1021 NOSIG
ZGSZ,2017-04-01 00:00,ZGSZ 010000Z 05006MPS 9999 SCT022 15/10 Q1022 NOSIG
ZGSZ,2017-04-01 01:00,ZGSZ 010100Z 08007MPS CAVOK 17/09 Q1022 NOSIG
ZGSZ,2017-04-01 02:00,ZGSZ 010200Z 05008MPS CAVOK 18/10 Q1022 NOSIG
ZGSZ,2017-04-01 03:00,ZGSZ 010300Z 07005MPS 040V110 CAVOK 19/10 Q1022 NOSIG
ZGSZ,2017-04-01 04:00,ZGSZ 010400Z 07006MPS 040V110 CAVOK 21/10 Q1021 NOSIG
ZGSZ,2017-04-01 05:00,ZGSZ 010500Z 03006MPS 360V060 CAVOK 23/11 Q1020 NOSIG
ZGSZ,2017-04-01 06:00,ZGSZ 010600Z 02004MPS 340V050 CAVOK 23/10 Q1020 NOSIG
ZGSZ,2017-04-01 07:00,ZGSZ 010700Z 03005MPS 010V070 CAVOK 24/09 Q1019 NOSIG
ZGSZ,2017-04-01 08:00,ZGSZ 010800Z 05004MPS 010V100 CAVOK 25/10 Q1018 NOSIG
ZGSZ,2017-04-01 09:00,ZGSZ 010900Z 06006MPS CAVOK 24/08 Q1018 NOSIG
ZGSZ,2017-04-01 10:00,ZGSZ 011000Z 07004MPS 030V090 CAVOK 24/08 Q1018 NOSIG
ZGSZ,2017-04-01 11:00,ZGSZ 011100Z 08004MPS CAVOK 23/08 Q1018 NOSIG
ZGSZ,2017-04-01 12:00,ZGSZ 011200Z 08001MPS CAVOK 22/10 Q1019 NOSIG
ZGSZ,2017-04-01 13:00,ZGSZ 011300Z 06001MPS CAVOK 21/11 Q1020 NOSIG
ZGSZ,2017-04-01 14:00,ZGSZ 011400Z VRB01MPS CAVOK 19/12 Q1020 NOSIG
ZGSZ,2017-04-01 15:00,ZGSZ 011500Z 22003MPS CAVOK 19/16 Q1020 NOSIG
ZGSZ,2017-04-01 16:00,ZGSZ 011600Z 00000MPS CAVOK 18/15 Q1020 NOSIG
ZGSZ,2017-04-01 17:00,ZGSZ 011700Z 05001MPS CAVOK 17/15 Q1020 NOSIG
ZGSZ,2017-04-01 18:00,ZGSZ 011800Z 07001MPS CAVOK 18/12 Q1020 NOSIG
ZGSZ,2017-04-01 19:00,ZGSZ 011900Z 00000MPS CAVOK 17/12 Q1020 NOSIG
ZGSZ,2017-04-01 20:00,ZGSZ 012000Z 08002MPS CAVOK 17/13 Q1020 NOSIG
ZGSZ,2017-04-01 21:00,ZGSZ 012100Z 12002MPS CAVOK 16/12 Q1021 NOSIG
ZGSZ,2017-04-01 22:00,ZGSZ 012200Z 09002MPS 050V150 CAVOK 15/11 Q1021 NOSIG
ZGSZ,2017-04-01 23:00,ZGSZ 012300Z 09002MPS CAVOK 17/12 Q1022 NOSIG
ZGSZ,2017-04-02 00:00,ZGSZ 020000Z 09004MPS CAVOK 19/11 Q1022 NOSIG
ZGSZ,2017-04-02 01:00,ZGSZ 020100Z 10004MPS 070V140 CAVOK 20/08 Q1023 NOSIG
ZGSZ,2017-04-02 02:00,ZGSZ 020200Z 07004MPS 030V090 CAVOK 22/06 Q1023 NOSIG
ZGSZ,2017-04-02 03:00,ZGSZ 020300Z 08002MPS 030V120 CAVOK 23/05 Q1023 NOSIG
ZGSZ,2017-04-02 04:00,ZGSZ 020400Z 12003MPS 020V170 CAVOK 24/05 Q1022 NOSIG
ZGSZ,2017-04-02 05:00,ZGSZ 020500Z 26005MPS 230V290 CAVOK 23/09 Q1021 NOSIG
ZGSZ,2017-04-02 06:00,ZGSZ 020600Z 25004MPS CAVOK 23/10 Q1020 NOSIG
ZGSZ,2017-04-02 07:00,ZGSZ 020700Z 25004MPS CAVOK 23/11 Q1020 NOSIG
ZGSZ,2017-04-02 08:00,ZGSZ 020800Z 23005MPS CAVOK 23/11 Q1019 NOSIG
ZGSZ,2017-04-02 09:00,ZGSZ 020900Z 22005MPS CAVOK 22/11 Q1019 NOSIG
ZGSZ,2017-04-02 10:00,ZGSZ 021000Z 22006MPS CAVOK 21/12 Q1019 BECMG TL1130 10004MPS
ZGSZ,2017-04-02 11:00,ZGSZ 021100Z 19005MPS CAVOK 21/11 Q1020 NOSIG
ZGSZ,2017-04-02 12:00,ZGSZ 021200Z 15006MPS CAVOK 20/10 Q1020 NOSIG
ZGSZ,2017-04-02 13:00,ZGSZ 021300Z 15006MPS CAVOK 19/09 Q1021 NOSIG
ZGSZ,2017-04-02 14:00,ZGSZ 021400Z 15005MPS CAVOK 19/09 Q1022 NOSIG
ZGSZ,2017-04-02 15:00,ZGSZ 021500Z 15004MPS CAVOK 19/10 Q1022 NOSIG
ZGSZ,2017-04-02 16:00,ZGSZ 021600Z 15003MPS CAVOK 18/10 Q1022 NOSIG
ZGSZ,2017-04-02 17:00,ZGSZ 021700Z 15003MPS CAVOK 18/11 Q1021 NOSIG
ZGSZ,2017-04-02 18:00,ZGSZ 021800Z 15003MPS CAVOK 17/11 Q1021 NOSIG
ZGSZ,2017-04-02 19:00,ZGSZ 021900Z 16002MPS CAVOK 17/11 Q1020 NOSIG
ZGSZ,2017-04-02 20:00,ZGSZ 022000Z 15002MPS 110V170 CAVOK 17/10 Q1020 NOSIG
ZGSZ,2017-04-02 21:00,ZGSZ 022100Z 09003MPS CAVOK 17/11 Q1020 NOSIG
ZGSZ,2017-04-02 22:00,ZGSZ 022200Z 09002MPS CAVOK 17/10 Q1021 NOSIG
ZGSZ,2017-04-02 23:00,ZGSZ 022300Z 08002MPS 7000 NSC 17/10 Q1022 NOSIG
ZGSZ,2017-04-03 00:00,ZGSZ 030000Z 08004MPS 8000 NSC 19/10 Q1022 NOSIG
ZGSZ,2017-04-03 01:00,ZGSZ 030100Z 08004MPS 050V120 CAVOK 21/09 Q1022 NOSIG
ZGSZ,2017-04-03 02:00,ZGSZ 030200Z 13003MPS 070V180 CAVOK 23/09 Q1022 NOSIG
ZGSZ,2017-04-03 03:00,ZGSZ 030300Z VRB02MPS CAVOK 24/11 Q1022 NOSIG
ZGSZ,2017-04-03 04:00,ZGSZ 030400Z 30004MPS CAVOK 23/12 Q1021 NOSIG
ZGSZ,2017-04-03 05:00,ZGSZ 030500Z 29003MPS CAVOK 23/12 Q1021 NOSIG
ZGSZ,2017-04-03 06:00,ZGSZ 030600Z 24004MPS CAVOK 24/14 Q1020 NOSIG
ZGSZ,2017-04-03 07:00,ZGSZ 030700Z 24003MPS CAVOK 23/14 Q1019 NOSIG
ZGSZ,2017-04-03 08:00,ZGSZ 030800Z 24004MPS CAVOK 23/16 Q1018 NOSIG
ZGSZ,2017-04-03 09:00,ZGSZ 030900Z 17006MPS CAVOK 24/14 Q1018 NOSIG
ZGSZ,2017-04-03 10:00,ZGSZ 031000Z 14005MPS CAVOK 23/13 Q1018 NOSIG
ZGSZ,2017-04-03 11:00,ZGSZ 031100Z 14006MPS CAVOK 22/14 Q1019 NOSIG
ZGSZ,2017-04-03 12:00,ZGSZ 031200Z 15006MPS CAVOK 21/13 Q1019 NOSIG
ZGSZ,2017-04-03 13:00,ZGSZ 031300Z 15005MPS CAVOK 21/12 Q1020 NOSIG
ZGSZ,2017-04-03 14:00,ZGSZ 031400Z 14004MPS CAVOK 20/12 Q1021 NOSIG
ZGSZ,2017-04-03 15:00,ZGSZ 031500Z 15005MPS CAVOK 20/13 Q1021 NOSIG
ZGSZ,2017-04-03 16:00,ZGSZ 031600Z 15004MPS CAVOK 19/13 Q1020 NOSIG
ZGSZ,2017-04-03 17:00,ZGSZ 031700Z 14002MPS CAVOK 19/13 Q1020 NOSIG
ZGSZ,2017-04-03 18:00,ZGSZ 031800Z 14004MPS CAVOK 19/15 Q1019 NOSIG
ZGSZ,2017-04-03 19:00,ZGSZ 031900Z 10003MPS 070V130 CAVOK 19/15 Q1019 NOSIG
ZGSZ,2017-04-03 20:00,ZGSZ 032000Z 13003MPS CAVOK 19/15 Q1018 NOSIG
ZGSZ,2017-04-03 21:00,ZGSZ 032100Z 06002MPS CAVOK 18/14 Q1018 NOSIG
ZGSZ,2017-04-03 22:00,ZGSZ 032200Z 04002MPS CAVOK 17/14 Q1019 NOSIG
ZGSZ,2017-04-03 23:00,ZGSZ 032300Z 06004MPS CAVOK 18/14 Q1020 NOSIG
ZGSZ,2017-04-04 00:00,ZGSZ 040000Z 08003MPS CAVOK 20/14 Q1020 NOSIG
ZGSZ,2017-04-04 01:00,ZGSZ 040100Z 15004MPS 090V170 CAVOK 22/15 Q1020 NOSIG
ZGSZ,2017-04-04 02:00,ZGSZ 040200Z 14005MPS CAVOK 24/16 Q1020 NOSIG
ZGSZ,2017-04-04 03:00,ZGSZ 040300Z 30003MPS 9999 BKN025 23/17 Q1020 NOSIG
ZGSZ,2017-04-04 04:00,ZGSZ 040400Z 29003MPS 9999 BKN025 23/17 Q1019 NOSIG
ZGSZ,2017-04-04 05:00,ZGSZ 040500Z 25004MPS 9999 SCT026 24/17 Q1018 NOSIG
ZGSZ,2017-04-04 06:00,ZGSZ 040600Z 25004MPS 9999 BKN050 25/18 Q1017 BECMG AT0740 18005MPS
ZGSZ,2017-04-04 07:00,ZGSZ 040700Z 24004MPS 9999 SCT026 25/18 Q1016 BECMG AT0840 18005MPS
ZGSZ,2017-04-04 08:00,ZGSZ 040800Z 22005MPS 9999 SCT028 24/18 Q1015 NOSIG
ZGSZ,2017-04-04 09:00,ZGSZ 040900Z 22006MPS 9999 SCT050 24/18 Q1015 NOSIG
ZGSZ,2017-04-04 10:00,ZGSZ 041000Z 21005MPS 9999 SCT050 23/18 Q1015 BECMG FM1040 13005MPS
ZGSZ,2017-04-04 11:00,ZGSZ 041100Z 16006MPS CAVOK 24/15 Q1015 NOSIG
ZGSZ,2017-04-04 12:00,ZGSZ 041200Z 16005MPS CAVOK 23/15 Q1016 NOSIG
ZGSZ,2017-04-04 13:00,ZGSZ 041300Z 14005MPS CAVOK 22/16 Q1017 NOSIG
ZGSZ,2017-04-04 14:00,ZGSZ 041400Z 14005MPS CAVOK 21/16 Q1017 NOSIG
ZGSZ,2017-04-04 15:00,ZGSZ 041500Z 14004MPS CAVOK 21/17 Q1017 NOSIG
ZGSZ,2017-04-04 16:00,ZGSZ 041600Z 14005MPS CAVOK 21/17 Q1017 NOSIG
ZGSZ,2017-04-04 17:00,ZGSZ 041700Z 13004MPS CAVOK 21/17 Q1017 NOSIG
ZGSZ,2017-04-04 18:00,ZGSZ 041800Z 10003MPS CAVOK 21/17 Q1016 NOSIG
ZGSZ,2017-04-04 19:00,ZGSZ 041900Z 09002MPS 040V110 9999 FEW053 21/17 Q1016 NOSIG
ZGSZ,2017-04-04 20:00,ZGSZ 042000Z 00000MPS 9999 SCT050 20/17 Q1015 NOSIG
ZGSZ,2017-04-04 21:00,ZGSZ 042100Z 00000MPS 9999 SCT050 20/17 Q1015 NOSIG
ZGSZ,2017-04-04 22:00,ZGSZ 042200Z 06002MPS 9999 SCT050 20/17 Q1015 NOSIG
ZGSZ,2017-04-04 23:00,ZGSZ 042300Z 06003MPS 010V080 9999 BKN050 21/17 Q1016 NOSIG
ZGSZ,2017-04-05 00:00,ZGSZ 050000Z 09002MPS 050V130 9999 BKN050 22/18 Q1016 NOSIG
ZGSZ,2017-04-05 01:00,ZGSZ 050100Z VRB02MPS CAVOK 24/18 Q1016 NOSIG
ZGSZ,2017-04-05 02:00,ZGSZ 050200Z 31003MPS 290V350 9000 SCT025 24/19 Q1016 NOSIG
ZGSZ,2017-04-05 03:00,ZGSZ 050300Z 31004MPS 7000 SCT025 25/20 Q1016 NOSIG
ZGSZ,2017-04-05 04:00,ZGSZ 050400Z 30003MPS 7000 FEW033 25/19 Q1015 NOSIG
ZGSZ,2017-04-05 05:00,ZGSZ 050500Z 25003MPS 7000 FEW033 26/20 Q1014 NOSIG
ZGSZ,2017-04-05 06:00,ZGSZ 050600Z 23004MPS 9999 FEW033 25/20 Q1013 NOSIG
ZGSZ,2017-04-05 07:00,ZGSZ 050700Z 23004MPS 9999 FEW033 25/20 Q1012 NOSIG
ZGSZ,2017-04-05 08:00,ZGSZ 050800Z 24005MPS 9999 SCT033 24/21 Q1012 NOSIG
ZGSZ,2017-04-05 09:00,ZGSZ 050900Z 22004MPS 9999 FEW025 24/20 Q1012 NOSIG
ZGSZ,2017-04-05 10:00,ZGSZ 051000Z 20005MPS 9999 SCT050 24/20 Q1012 NOSIG
ZGSZ,2017-04-05 11:00,ZGSZ 051100Z 20004MPS CAVOK 23/20 Q1012 NOSIG
ZGSZ,2017-04-05 12:00,ZGSZ 051200Z 13004MPS CAVOK 25/19 Q1013 NOSIG
ZGSZ,2017-04-05 13:00,ZGSZ 051300Z 14003MPS CAVOK 24/19 Q1013 NOSIG
ZGSZ,2017-04-05 14:00,ZGSZ 051400Z 14004MPS CAVOK 24/19 Q1013 NOSIG
ZGSZ,2017-04-05 15:00,ZGSZ 051500Z 14004MPS CAVOK 24/20 Q1013 NOSIG
ZGSZ,2017-04-05 16:00,ZGSZ 051600Z 14004MPS CAVOK 23/20 Q1013 NOSIG
ZGSZ,2017-04-05 17:00,ZGSZ 051700Z 14003MPS 9999 FEW027 23/20 Q1012 NOSIG
ZGSZ,2017-04-05 18:00,ZGSZ 051800Z 12002MPS 080V150 9999 FEW027 BKN050 23/20 Q1012 NOSIG
ZGSZ,2017-04-05 19:00,ZGSZ 051900Z 10002MPS 070V130 9999 BKN036 23/20 Q1012 NOSIG
ZGSZ,2017-04-05 20:00,ZGSZ 052000Z 11003MPS 070V160 9999 BKN050 24/20 Q1011 NOSIG
ZGSZ,2017-04-05 21:00,ZGSZ 052100Z 11002MPS 080V190 9999 SCT026 BKN050 23/20 Q1012 NOSIG
ZGSZ,2017-04-05 22:00,ZGSZ 052200Z VRB01MPS 9999 BKN026 23/20 Q1012 NOSIG
ZGSZ,2017-04-05 23:00,ZGSZ 052300Z VRB01MPS 7000 BKN026 BKN040 23/20 Q1014 NOSIG
ZGSZ,2017-04-06 00:00,ZGSZ 060000Z 11002MPS 070V170 9999 OVC050 23/20 Q1014 NOSIG
ZGSZ,2017-04-06 01:00,ZGSZ 060100Z 14004MPS 5000 -RA OVC033 23/21 Q1014 NOSIG
ZGSZ,2017-04-06 02:00,ZGSZ 060200Z 19002MPS 130V250 7000 NSC 24/21 Q1014 NOSIG
ZGSZ,2017-04-06 03:00,ZGSZ 060300Z VRB01MPS 9999 FEW016 25/21 Q1013 NOSIG
ZGSZ,2017-04-06 04:00,ZGSZ 060400Z 30003MPS 8000 -SHRA SCT020 BKN050 23/21 Q1013 NOSIG
ZGSZ,2017-04-06 05:00,ZGSZ 060500Z 28002MPS 250V310 7000 -SHRA FEW020 BKN036 24/21 Q1012 NOSIG
ZGSZ,2017-04-06 06:00,ZGSZ 060600Z 28002MPS 7000 FEW028 BKN040 24/21 Q1011 NOSIG
ZGSZ,2017-04-06 07:00,ZGSZ 060700Z 28003MPS 240V310 7000 FEW023 BKN040 23/21 Q1011 NOSIG
ZGSZ,2017-04-06 08:00,ZGSZ 060800Z 21002MPS 7000 -SHRA FEW020 BKN040 23/21 Q1011 NOSIG
ZGSZ,2017-04-06 09:00,ZGSZ 060900Z 18004MPS 7000 -SHRA FEW020 BKN053 23/21 Q1010 NOSIG
ZGSZ,2017-04-06 10:00,ZGSZ 061000Z VRB01MPS 5000 -SHRA BR FEW020 BKN043 23/21 Q1011 NOSIG
ZGSZ,2017-04-06 11:00,ZGSZ 061100Z 31003MPS 240V340 5000 -SHRA BR SCT020 BKN043 22/21 Q1012 BECMG AT1230 2900
ZGSZ,2017-04-06 12:00,ZGSZ 061200Z VRB01MPS 6000 BKN050 22/21 Q1011 NOSIG
ZGSZ,2017-04-06 13:00,ZGSZ 061300Z VRB01MPS 7000 NSC 23/21 Q1012 NOSIG
ZGSZ,2017-04-06 14:00,ZGSZ 061400Z 15003MPS 7000 NSC 23/21 Q1012 NOSIG
ZGSZ,2017-04-06 15:00,ZGSZ 061500Z 00000MPS 6000 NSC 22/21 Q1012 NOSIG
ZGSZ,2017-04-06 16:00,ZGSZ 061600Z VRB01MPS 8000 NSC 23/21 Q1012 NOSIG
ZGSZ,2017-04-06 17:00,ZGSZ 061700Z 00000MPS 7000 NSC 22/21 Q1012 NOSIG
ZGSZ,2017-04-06 18:00,ZGSZ 061800Z VRB01MPS 6000 NSC 22/21 Q1012 NOSIG
ZGSZ,2017-04-06 19:00,ZGSZ 061900Z 00000MPS 6000 NSC 22/21 Q1011 NOSIG
ZGSZ,2017-04-06 20:00,ZGSZ 062000Z 28002MPS 5000 BR NSC 22/21 Q1011 NOSIG
ZGSZ,2017-04-06 21:00,ZGSZ 062100Z VRB01MPS 6000 NSC 22/21 Q1011 NOSIG
ZGSZ,2017-04-06 22:00,ZGSZ 062200Z 00000MPS 7000 NSC 22/21 Q1012 NOSIG
ZGSZ,2017-04-06 23:00,ZGSZ 062300Z VRB01MPS 4500 BR NSC 22/21 Q1013 NOSIG
ZGSZ,2017-04-07 00:00,ZGSZ 070000Z VRB01MPS 4600 BR NSC 24/22 Q1013 NOSIG
ZGSZ,2017-04-07 01:00,ZGSZ 070100Z 28002MPS 6000 FEW020 23/21 Q1014 NOSIG
ZGSZ,2017-04-07 02:00,ZGSZ 070200Z 25002MPS 6000 NSC 25/22 Q1014 NOSIG
ZGSZ,2017-04-07 03:00,ZGSZ 070300Z 27003MPS 8000 NSC 25/22 Q1014 NOSIG
ZGSZ,2017-04-07 04:00,ZGSZ 070400Z 26004MPS 8000 SCT036 25/21 Q1013 NOSIG
ZGSZ,2017-04-07 05:00,ZGSZ 070500Z 23004MPS 9999 BKN036 25/22 Q1012 NOSIG
ZGSZ,2017-04-07 06:00,ZGSZ 070600Z 22004MPS 9999 BKN036 25/22 Q1011 NOSIG
ZGSZ,2017-04-07 07:00,ZGSZ 070700Z 21004MPS 9999 FEW036 BKN050 25/22 Q1011 NOSIG
ZGSZ,2017-04-07 08:00,ZGSZ 070800Z 21005MPS 9999 FEW036 BKN050 24/22 Q1011 NOSIG
ZGSZ,2017-04-07 09:00,ZGSZ 070900Z 21006MPS 9999 BKN050 24/21 Q1010 NOSIG
ZGSZ,2017-04-07 10:00,ZGSZ 071000Z 19003MPS CAVOK 24/21 Q1010 NOSIG
ZGSZ,2017-04-07 11:00,ZGSZ 071100Z 18004MPS CAVOK 24/21 Q1011 NOSIG
ZGSZ,2017-04-07 12:00,ZGSZ 071200Z 20002MPS CAVOK 24/21 Q1011 NOSIG
ZGSZ,2017-04-07 13:00,ZGSZ 071300Z 22003MPS CAVOK 23/21 Q1012 NOSIG
ZGSZ,2017-04-07 14:00,ZGSZ 071400Z 21002MPS 9999 SCT026 23/21 Q1012 NOSIG
ZGSZ,2017-04-07 15:00,ZGSZ 071500Z 22002MPS 180V250 9999 SCT026 23/21 Q1013 NOSIG
ZGSZ,2017-04-07 16:00,ZGSZ 071600Z 23002MPS CAVOK 23/21 Q1012 NOSIG
ZGSZ,2017-04-07 17:00,ZGSZ 071700Z 00000MPS CAVOK 22/21 Q1012 NOSIG
ZGSZ,2017-04-07 18:00,ZGSZ 071800Z 00000MPS 9999 SCT020 23/21 Q1012 NOSIG
ZGSZ,2017-04-07 19:00,ZGSZ 071900Z VRB01MPS 9999 BKN020 24/20 Q1011 NOSIG
ZGSZ,2017-04-07 20:00,ZGSZ 072000Z VRB01MPS 9999 BKN021 23/21 Q1011 NOSIG
ZGSZ,2017-04-07 21:00,ZGSZ 072100Z VRB01MPS 9999 BKN021 23/21 Q1011 NOSIG
ZGSZ,2017-04-07 22:00,ZGSZ 072200Z 26001MPS 9999 BKN021 23/21 Q1012 NOSIG
ZGSZ,2017-04-07 23:00,ZGSZ 072300Z 14002MPS 9999 BKN053 24/21 Q1012 NOSIG
ZGSZ,2017-04-08 00:00,ZGSZ 080000Z VRB01MPS 9999 BKN033 23/21 Q1013 NOSIG
ZGSZ,2017-04-08 01:00,ZGSZ 080100Z 26002MPS 9999 BKN026 23/21 Q1014 NOSIG
ZGSZ,2017-04-08 02:00,ZGSZ 080200Z 30002MPS 270V330 9999 BKN026 24/21 Q1014 NOSIG
ZGSZ,2017-04-08 03:00,ZGSZ 080300Z 28002MPS 9999 BKN046 25/21 Q1014 NOSIG
ZGSZ,2017-04-08 04:00,ZGSZ 080400Z 24002MPS 9999 FEW020 25/22 Q1013 NOSIG
ZGSZ,2017-04-08 05:00,ZGSZ 080500Z 21003MPS 9999 FEW020 BKN053 25/22 Q1012 NOSIG
ZGSZ,2017-04-08 06:00,ZGSZ 080600Z 21006MPS 9999 FEW020 BKN053 27/22 Q1011 NOSIG
ZGSZ,2017-04-08 07:00,ZGSZ 080700Z 20004MPS 9999 SCT053 27/23 Q1011 NOSIG
ZGSZ,2017-04-08 08:00,ZGSZ 080800Z 19007MPS 9999 SCT053 26/22 Q1010 NOSIG
ZGSZ,2017-04-08 09:00,ZGSZ 080900Z 20006MPS 9999 FEW053 26/22 Q1009 NOSIG
ZGSZ,2017-04-08 10:00,ZGSZ 081000Z 20005MPS 9999 FEW053 25/22 Q1009 NOSIG
ZGSZ,2017-04-08 11:00,ZGSZ 081100Z 19006MPS 9999 FEW053 25/22 Q1009 NOSIG
ZGSZ,2017-04-08 12:00,ZGSZ 081200Z 19004MPS 9999 FEW053 24/22 Q1010 NOSIG
ZGSZ,2017-04-08 13:00,ZGSZ 081300Z 21003MPS 9999 FEW053 24/21 Q1010 NOSIG
ZGSZ,2017-04-08 14:00,ZGSZ 081400Z 21003MPS CAVOK 24/21 Q1011 NOSIG
ZGSZ,2017-04-08 15:00,ZGSZ 081500Z 26002MPS 220V280 CAVOK 23/22 Q1011 NOSIG
ZGSZ,2017-04-08 16:00,ZGSZ 081600Z VRB01MPS 7000 NSC 23/21 Q1011 NOSIG
ZGSZ,2017-04-08 17:00,ZGSZ 081700Z 00000MPS 6000 BKN033 23/21 Q1010 NOSIG
ZGSZ,2017-04-08 18:00,ZGSZ 081800Z 00000MPS 7000 FEW015 BKN033 23/22 Q1010 NOSIG
ZGSZ,2017-04-08 19:00,ZGSZ 081900Z 16002MPS 9999 FEW015 BKN033 23/21 Q1009 NOSIG
ZGSZ,2017-04-08 20:00,ZGSZ 082000Z 14003MPS 9999 BKN033 24/21 Q1009 NOSIG
ZGSZ,2017-04-08 21:00,ZGSZ 082100Z 15003MPS 9999 BKN033 24/21 Q1009 NOSIG
ZGSZ,2017-04-08 22:00,ZGSZ 082200Z 15003MPS 9999 BKN033 24/21 Q1009 NOSIG
ZGSZ,2017-04-08 23:00,ZGSZ 082300Z 14002MPS 9999 BKN033 24/21 Q1010 NOSIG
ZGSZ,2017-04-09 00:00,ZGSZ 090000Z 15002MPS 120V180 9999 SCT017 BKN033 25/21 Q1010 NOSIG
ZGSZ,2017-04-09 01:00,ZGSZ 090100Z 19004MPS 9999 BKN019 BKN040 26/22 Q1011 NOSIG
ZGSZ,2017-04-09 02:00,ZGSZ 090200Z 19006MPS 9999 BKN018 27/22 Q1011 NOSIG
ZGSZ,2017-04-09 03:00,ZGSZ 090300Z 19005MPS 9999 FEW017 BKN030 26/22 Q1011 NOSIG
ZGSZ,2017-04-09 04:00,ZGSZ 090400Z 19006MPS 9999 SCT017 BKN046 27/23 Q1010 NOSIG
ZGSZ,2017-04-09 05:00,ZGSZ 090500Z 19006MPS 9999 BKN046 27/23 Q1009 NOSIG
ZGSZ,2017-04-09 06:00,ZGSZ 090600Z 19008MPS 9999 FEW018 BKN050 27/23 Q1008 NOSIG
ZGSZ,2017-04-09 07:00,ZGSZ 090700Z 19007MPS 9999 FEW018 BKN050 27/23 Q1007 NOSIG
ZGSZ,2017-04-09 08:00,ZGSZ 090800Z 19008MPS 9999 FEW018 SCT050 27/23 Q1006 NOSIG
ZGSZ,2017-04-09 09:00,ZGSZ 090900Z 19008MPS 9999 FEW018 26/23 Q1006 NOSIG
ZGSZ,2017-04-09 10:00,ZGSZ 091000Z 19008MPS 9999 SCT015 26/23 Q1006 NOSIG
ZGSZ,2017-04-09 11:00,ZGSZ 091100Z 19008MPS 9999 BKN050 25/23 Q1006 NOSIG
ZGSZ,2017-04-09 12:00,ZGSZ 091200Z 19007MPS 9999 BKN046 25/23 Q1007 NOSIG
ZGSZ,2017-04-09 13:00,ZGSZ 091300Z 19006MPS 9999 BKN040 25/23 Q1007 NOSIG
ZGSZ,2017-04-09 14:00,ZGSZ 091400Z 19006MPS 9999 BKN046 25/23 Q1008 NOSIG
ZGSZ,2017-04-09 15:00,ZGSZ 091500Z 18006MPS 9999 BKN046 26/23 Q1008 NOSIG
ZGSZ,2017-04-09 16:00,ZGSZ 091600Z 18006MPS 9999 BKN046 25/23 Q1008 NOSIG
ZGSZ,2017-04-09 17:00,ZGSZ 091700Z 18006MPS 9999 BKN046 26/23 Q1008 NOSIG
ZGSZ,2017-04-09 18:00,ZGSZ 091800Z 18005MPS 9999 BKN046 26/23 Q1007 NOSIG
ZGSZ,2017-04-09 19:00,ZGSZ 091900Z 18005MPS 9999 BKN046 25/23 Q1006 NOSIG
ZGSZ,2017-04-09 20:00,ZGSZ 092000Z 18005MPS 9999 BKN033 25/23 Q1006 NOSIG
ZGSZ,2017-04-09 21:00,ZGSZ 092100Z 19005MPS 9999 BKN033 25/23 Q1006 NOSIG
ZGSZ,2017-04-09 22:00,ZGSZ 092200Z 18006MPS 9999 BKN033 25/24 Q1006 NOSIG
ZGSZ,2017-04-09 23:00,ZGSZ 092300Z 19005MPS 9999 FEW011 OVC024 25/23 Q1007 NOSIG
ZGSZ,2017-04-10 00:00,ZGSZ 100000Z 18006MPS 9999 OVC033 26/24 Q1007 NOSIG
ZGSZ,2017-04-10 01:00,ZGSZ 100100Z 19006MPS 9999 OVC033 26/24 Q1008 NOSIG
ZGSZ,2017-04-10 02:00,ZGSZ 100200Z 19007MPS 9999 OVC033 27/24 Q1008 NOSIG
ZGSZ,2017-04-10 03:00,ZGSZ 100300Z 18007MPS 9999 BKN033 27/24 Q1008 NOSIG
ZGSZ,2017-04-10 04:00,ZGSZ 100400Z 19007MPS 9999 BKN033 27/24 Q1007 NOSIG
ZGSZ,2017-04-10 05:00,ZGSZ 100500Z 19007MPS 9999 BKN036 26/23 Q1006 NOSIG
ZGSZ,2017-04-10 06:00,ZGSZ 100600Z 19008MPS 9999 BKN040 26/23 Q1005 NOSIG
ZGSZ,2017-04-10 07:00,ZGSZ 100700Z 19007MPS 9999 BKN040 26/23 Q1004 NOSIG
ZGSZ,2017-04-10 08:00,ZGSZ 100800Z 19006MPS 9999 BKN040 26/23 Q1003 NOSIG
ZGSZ,2017-04-10 09:00,ZGSZ 100900Z 19008MPS 9999 BKN017 BKN040 25/23 Q1003 NOSIG
ZGSZ,2017-04-10 10:00,ZGSZ 101000Z 20008MPS 9999 BKN017 BKN033 25/23 Q1003 NOSIG
ZGSZ,2017-04-10 11:00,ZGSZ 101100Z 19007MPS 9999 BKN021 BKN033 25/24 Q1003 NOSIG
ZGSZ,2017-04-10 12:00,ZGSZ 101200Z 19006MPS 9999 OVC025 25/24 Q1004 NOSIG
ZGSZ,2017-04-10 13:00,ZGSZ 101300Z 18006MPS 9999 BKN023 BKN040 25/24 Q1005 NOSIG
ZGSZ,2017-04-10 14:00,ZGSZ 101400Z 19006MPS 9999 BKN021 BKN040 25/24 Q1006 NOSIG
ZGSZ,2017-04-10 15:00,ZGSZ 101500Z 19005MPS 9999 FEW014 BKN023 25/24 Q1006 NOSIG
ZGSZ,2017-04-10 16:00,ZGSZ 101600Z 19004MPS 9999 FEW014 BKN023 25/24 Q1007 NOSIG
ZGSZ,2017-04-10 17:00,ZGSZ 101700Z 18004MPS 9999 OVC046 25/24 Q1006 NOSIG
ZGSZ,2017-04-10 18:00,ZGSZ 101800Z 18004MPS 9999 OVC050 25/24 Q1005 NOSIG
ZGSZ,2017-04-10 19:00,ZGSZ 101900Z 18004MPS 6000 OVC050 25/24 Q1005 NOSIG
ZGSZ,2017-04-10 20:00,ZGSZ 102000Z 17003MPS 8000 NSC 25/24 Q1005 NOSIG
ZGSZ,2017-04-10 21:00,ZGSZ 102100Z 19003MPS 6000 SCT015 BKN033 25/24 Q1005 NOSIG
ZGSZ,2017-04-10 22:00,ZGSZ 102200Z 20002MPS 6000 SCT012 OVC026 25/24 Q1006 NOSIG
ZGSZ,2017-04-10 23:00,ZGSZ 102300Z 19003MPS 8000 BKN008 OVC026 25/24 Q1007 NOSIG
ZGSZ,2017-04-11 00:00,ZGSZ 110000Z 20003MPS 5000 BR BKN006 OVC026 26/24 Q1008 NOSIG
ZGSZ,2017-04-11 01:00,ZGSZ 110100Z 20003MPS 3500 BR BKN009 OVC026 26/24 Q1008 BECMG AT0230 BKN012 OVC026
ZGSZ,2017-04-11 02:00,ZGSZ 110200Z 21003MPS 5000 BR SCT016 OVC026 26/24 Q1008 NOSIG
ZGSZ,2017-04-11 03:00,ZGSZ 110300Z 20003MPS 8000 SCT018 BKN026 27/24 Q1008 NOSIG
ZGSZ,2017-04-11 04:00,ZGSZ 110400Z 19005MPS 9999 FEW020 BKN036 28/25 Q1008 NOSIG
ZGSZ,2017-04-11 05:00,ZGSZ 110500Z 19005MPS 9999 BKN036 27/24 Q1007 NOSIG
ZGSZ,2017-04-11 06:00,ZGSZ 110600Z 19005MPS 9999 BKN040 28/25 Q1007 NOSIG
ZGSZ,2017-04-11 07:00,ZGSZ 110700Z 19006MPS 9999 BKN040 26/24 Q1006 NOSIG
ZGSZ,2017-04-11 08:00,ZGSZ 110800Z 19005MPS 9999 BKN043 26/24 Q1006 NOSIG
ZGSZ,2017-04-11 09:00,ZGSZ 110900Z 19005MPS 8000 SCT015 BKN026 25/24 Q1006 BECMG AT1045 35004MPS
ZGSZ,2017-04-11 10:00,ZGSZ 111000Z 35006MPS 1800 BR BKN005 BKN020 24/23 Q1007 BECMG TL1130 3100
ZGSZ,2017-04-11 11:00,ZGSZ 111100Z 35005MPS 2300 -RA BR BKN007 BKN020 23/22 Q1007 BECMG TL1130 3100
ZGSZ,2017-04-11 12:00,ZGSZ 111200Z 36005MPS 3100 -RA BR BKN007 BKN020 22/21 Q1008 BECMG TL1330 SCT007
ZGSZ,2017-04-11 13:00,ZGSZ 111300Z 03004MPS 3100 -RA BR BKN007 BKN020 22/21 Q1009 BECMG TL1330 SCT007
ZGSZ,2017-04-11 14:00,ZGSZ 111400Z 04005MPS 3500 -RA BR SCT007 BKN020 22/20 Q1010 NOSIG
ZGSZ,2017-04-11 15:00,ZGSZ 111500Z 04005MPS 5000 BR BKN020 21/20 Q1011 NOSIG
ZGSZ,2017-04-11 16:00,ZGSZ 111600Z 03006MPS 3600 BR BKN020 21/19 Q1011 NOSIG
ZGSZ,2017-04-11 17:00,ZGSZ 111700Z 04006MPS 4500 -RA BR OVC020 20/18 Q1011 NOSIG
ZGSZ,2017-04-11 18:00,ZGSZ 111800Z 04006MPS 7000 -RA BKN020 19/18 Q1011 NOSIG
ZGSZ,2017-04-11 19:00,ZGSZ 111900Z 04006MPS 9999 BKN026 19/17 Q1010 NOSIG
ZGSZ,2017-04-11 20:00,ZGSZ 112000Z 04005MPS 7000 SCT012 BKN026 19/17 Q1010 NOSIG
ZGSZ,2017-04-11 21:00,ZGSZ 112100Z 04007MPS 8000 SCT014 BKN026 18/16 Q1011 NOSIG
ZGSZ,2017-04-11 22:00,ZGSZ 112200Z 03007MPS 8000 FEW014 BKN026 18/16 Q1012 NOSIG
ZGSZ,2017-04-11 23:00,ZGSZ 112300Z 06007MPS 8000 FEW014 BKN026 19/15 Q1013 NOSIG
ZGSZ,2017-04-12 00:00,ZGSZ 120000Z 07006MPS 9999 BKN030 19/15 Q1014 NOSIG
ZGSZ,2017-04-12 01:00,ZGSZ 120100Z 05005MPS 9999 BKN030 19/14 Q1014 NOSIG
ZGSZ,2017-04-12 02:00,ZGSZ 120200Z 06004MPS 020V080 9999 BKN030 20/14 Q1014 NOSIG
ZGSZ,2017-04-12 03:00,ZGSZ 120300Z 03006MPS 360V060 9999 BKN030 20/14 Q1014 NOSIG
ZGSZ,2017-04-12 04:00,ZGSZ 120400Z 04005MPS 9999 BKN030 20/14 Q1014 NOSIG
ZGSZ,2017-04-12 05:00,ZGSZ 120500Z 05005MPS 020V080 9999 BKN030 20/14 Q1014 NOSIG
ZGSZ,2017-04-12 06:00,ZGSZ 120600Z 04006MPS 9999 -RA FEW015 BKN026 20/14 Q1013 BECMG AT0740 SHRA
ZGSZ,2017-04-12 07:00,ZGSZ 120700Z 04005MPS 9999 -RA FEW015 BKN026 20/14 Q1013 NOSIG
ZGSZ,2017-04-12 08:00,ZGSZ 120800Z 36003MPS 330V050 7000 -RA FEW015 BKN026 18/16 Q1013 NOSIG
ZGSZ,2017-04-12 09:00,ZGSZ 120900Z 04006MPS 6000 -RA FEW015 BKN026 19/15 Q1013 NOSIG
ZGSZ,2017-04-12 10:00,ZGSZ 121000Z 09005MPS 8000 FEW020 BKN033 19/15 Q1014 NOSIG
ZGSZ,2017-04-12 11:00,ZGSZ 121100Z 04006MPS 9999 SCT016 BKN033 18/15 Q1014 NOSIG
ZGSZ,2017-04-12 12:00,ZGSZ 121200Z 06004MPS 020V080 9999 BKN033 19/15 Q1015 NOSIG
ZGSZ,2017-04-12 13:00,ZGSZ 121300Z 07004MPS 9999 FEW018 BKN033 19/15 Q1016 NOSIG
ZGSZ,2017-04-12 14:00,ZGSZ 121400Z 04005MPS 9999 FEW018 BKN033 19/15 Q1018 NOSIG
ZGSZ,2017-04-12 15:00,ZGSZ 121500Z 07005MPS 9999 BKN030 19/15 Q1018 NOSIG
ZGSZ,2017-04-12 16:00,ZGSZ 121600Z 06006MPS 9999 BKN030 18/14 Q1017 NOSIG
ZGSZ,2017-04-12 17:00,ZGSZ 121700Z 03006MPS 8000 BKN036 18/14 Q1017 NOSIG
ZGSZ,2017-04-12 18:00,ZGSZ 121800Z 04006MPS 8000 BKN036 18/13 Q1016 NOSIG
ZGSZ,2017-04-12 19:00,ZGSZ 121900Z 04004MPS 8000 BKN036 18/13 Q1016 NOSIG
ZGSZ,2017-04-12 20:00,ZGSZ 122000Z 06004MPS 9999 BKN033 18/13 Q1016 NOSIG
ZGSZ,2017-04-12 21:00,ZGSZ 122100Z 05005MPS 9999 BKN033 18/13 Q1017 NOSIG
ZGSZ,2017-04-12 22:00,ZGSZ 122200Z 07004MPS 9999 BKN033 18/13 Q1017 NOSIG
ZGSZ,2017-04-12 23:00,ZGSZ 122300Z 06003MPS 7000 BKN030 18/13 Q1018 NOSIG
ZGSZ,2017-04-13 00:00,ZGSZ 130000Z 03003MPS 8000 BKN026 18/13 Q1019 NOSIG
ZGSZ,2017-04-13 01:00,ZGSZ 130100Z 05004MPS 8000 OVC023 18/13 Q1019 NOSIG
ZGSZ,2017-04-13 02:00,ZGSZ 130200Z 05004MPS 020V080 7000 OVC033 18/13 Q1019 NOSIG
ZGSZ,2017-04-13 03:00,ZGSZ 130300Z 05003MPS 020V080 7000 OVC040 19/14 Q1019 NOSIG
ZGSZ,2017-04-13 04:00,ZGSZ 130400Z 04003MPS 7000 OVC033 19/14 Q1018 NOSIG
ZGSZ,2017-04-13 05:00,ZGSZ 130500Z VRB01MPS 7000 OVC033 20/14 Q1018 NOSIG
ZGSZ,2017-04-13 06:00,ZGSZ 130600Z 01002MPS 340V050 7000 OVC033 20/15 Q1017 NOSIG
ZGSZ,2017-04-13 07:00,ZGSZ 130700Z 36003MPS 6000 OVC033 20/15 Q1017 NOSIG
ZGSZ,2017-04-13 08:00,ZGSZ 130800Z 05003MPS 6000 OVC040 20/15 Q1016 NOSIG
ZGSZ,2017-04-13 09:00,ZGSZ 130900Z 06003MPS 6000 OVC040 20/15 Q1016 NOSIG
ZGSZ,2017-04-13 10:00,ZGSZ 131000Z 08003MPS 6000 OVC040 20/15 Q1016 NOSIG
ZGSZ,2017-04-13 11:00,ZGSZ 131100Z 06003MPS 6000 OVC053 20/15 Q1017 NOSIG
ZGSZ,2017-04-13 12:00,ZGSZ 131200Z 08002MPS 6000 OVC053 20/15 Q1017 NOSIG
ZGSZ,2017-04-13 13:00,ZGSZ 131300Z 07003MPS 6000 OVC040 20/15 Q1018 NOSIG
ZGSZ,2017-04-13 14:00,ZGSZ 131400Z 08002MPS 6000 OVC040 20/15 Q1018 NOSIG
ZGSZ,2017-04-13 15:00,ZGSZ 131500Z 09002MPS 6000 OVC040 20/16 Q1018 NOSIG
ZGSZ,2017-04-13 16:00,ZGSZ 131600Z 06002MPS 6000 OVC040 20/15 Q1018 NOSIG
ZGSZ,2017-04-13 17:00,ZGSZ 131700Z 09002MPS 6000 OVC040 20/15 Q1017 NOSIG
ZGSZ,2017-04-13 18:00,ZGSZ 131800Z 12002MPS 050V140 6000 OVC040 20/15 Q1016 NOSIG
ZGSZ,2017-04-13 19:00,ZGSZ 131900Z 06002MPS 6000 BKN030 19/15 Q1015 NOSIG
ZGSZ,2017-04-13 20:00,ZGSZ 132000Z 08002MPS 6000 BKN030 20/15 Q1015 NOSIG
ZGSZ,2017-04-13 21:00,ZGSZ 132100Z 08002MPS 6000 BKN030 19/16 Q1015 NOSIG
ZGSZ,2017-04-13 22:00,ZGSZ 132200Z VRB01MPS 6000 BKN030 19/16 Q1015 NOSIG
ZGSZ,2017-04-13 23:00,ZGSZ 132300Z 10002MPS 6000 BKN030 20/16 Q1016 NOSIG
ZGSZ,2017-04-14 00:00,ZGSZ 140000Z 11002MPS 070V160 6000 BKN030 21/16 Q1016 NOSIG
ZGSZ,2017-04-14 01:00,ZGSZ 140100Z VRB01MPS 7000 BKN030 22/16 Q1017 NOSIG
ZGSZ,2017-04-14 02:00,ZGSZ 140200Z VRB01MPS 7000 OVC030 21/16 Q1017 NOSIG
ZGSZ,2017-04-14 03:00,ZGSZ 140300Z 30002MPS 270V330 7000 OVC033 22/17 Q1017 NOSIG
ZGSZ,2017-04-14 04:00,ZGSZ 140400Z 32003MPS 5000 HZ OVC033 22/17 Q1016 NOSIG
ZGSZ,2017-04-14 05:00,ZGSZ 140500Z 27002MPS 4200 HZ OVC030 23/17 Q1015 NOSIG
ZGSZ,2017-04-14 06:00,ZGSZ 140600Z 26002MPS 5000 HZ SCT030 23/18 Q1014 NOSIG
ZGSZ,2017-04-14 07:00,ZGSZ 140700Z 26002MPS 8000 NSC 23/18 Q1014 NOSIG
ZGSZ,2017-04-14 08:00,ZGSZ 140800Z 23002MPS 7000 BKN050 23/18 Q1013 NOSIG
ZGSZ,2017-04-14 09:00,ZGSZ 140900Z 24002MPS 6000 BKN050 23/18 Q1013 NOSIG
ZGSZ,2017-04-14 10:00,ZGSZ 141000Z 00000MPS 6000 FEW040 23/18 Q1013 NOSIG
ZGSZ,2017-04-14 11:00,ZGSZ 141100Z VRB01MPS 6000 FEW040 24/18 Q1013 NOSIG
ZGSZ,2017-04-14 12:00,ZGSZ 141200Z 24002MPS 200V270 4500 BR NSC 22/19 Q1013 NOSIG
ZGSZ,2017-04-14 13:00,ZGSZ 141300Z 25002MPS 200V280 6000 NSC 22/19 Q1014 NOSIG
ZGSZ,2017-04-14 14:00,ZGSZ 141400Z 22002MPS 6000 NSC 22/19 Q1014 NOSIG
ZGSZ,2017-04-14 15:00,ZGSZ 141500Z 21004MPS 6000 NSC 22/20 Q1014 NOSIG
ZGSZ,2017-04-14 16:00,ZGSZ 141600Z 22003MPS 8000 NSC 22/20 Q1013 NOSIG
ZGSZ,2017-04-14 17:00,ZGSZ 141700Z 24002MPS 7000 NSC 21/19 Q1013 NOSIG
ZGSZ,2017-04-14 18:00,ZGSZ 141800Z VRB01MPS 7000 NSC 21/20 Q1013 NOSIG
ZGSZ,2017-04-14 19:00,ZGSZ 141900Z 27002MPS 240V310 6000 FEW025 21/20 Q1012 NOSIG
ZGSZ,2017-04-14 20:00,ZGSZ 142000Z 00000MPS 6000 FEW025 21/20 Q1013 NOSIG
ZGSZ,2017-04-14 21:00,ZGSZ 142100Z 15002MPS 100V180 6000 NSC 21/19 Q1013 NOSIG
ZGSZ,2017-04-14 22:00,ZGSZ 142200Z VRB01MPS 6000 OVC023 22/20 Q1013 NOSIG
ZGSZ,2017-04-14 23:00,ZGSZ 142300Z 14002MPS 6000 OVC022 22/18 Q1014 NOSIG
ZGSZ,2017-04-15 00:00,ZGSZ 150000Z 23001MPS 6000 SCT020 22/19 Q1015 NOSIG
ZGSZ,2017-04-15 01:00,ZGSZ 150100Z 14002MPS 100V160 8000 OVC026 24/19 Q1015 NOSIG
ZGSZ,2017-04-15 02:00,ZGSZ 150200Z 15004MPS 120V180 8000 SCT030 25/20 Q1015 NOSIG
ZGSZ,2017-04-15 03:00,ZGSZ 150300Z 22002MPS 130V250 CAVOK 27/21 Q1015 NOSIG
ZGSZ,2017-04-15 04:00,ZGSZ 150400Z 26003MPS CAVOK 26/21 Q1014 NOSIG
ZGSZ,2017-04-15 05:00,ZGSZ 150500Z 26003MPS 7000 NSC 26/21 Q1013 NOSIG
ZGSZ,2017-04-15 06:00,ZGSZ 150600Z 24003MPS 8000 NSC 26/21 Q1012 NOSIG
ZGSZ,2017-04-15 07:00,ZGSZ 150700Z 25005MPS CAVOK 26/22 Q1011 NOSIG
ZGSZ,2017-04-15 08:00,ZGSZ 150800Z 25004MPS 8000 NSC 25/22 Q1011 NOSIG
ZGSZ,2017-04-15 09:00,ZGSZ 150900Z 24004MPS 9999 BKN050 24/22 Q1011 NOSIG
ZGSZ,2017-04-15 10:00,ZGSZ 151000Z 22004MPS 9999 BKN050 24/22 Q1011 NOSIG
ZGSZ,2017-04-15 11:00,ZGSZ 151100Z 22004MPS 9999 BKN040 24/22 Q1012 NOSIG
ZGSZ,2017-04-15 12:00,ZGSZ 151200Z 19003MPS 9999 SCT030 24/22 Q1012 NOSIG
ZGSZ,2017-04-15 13:00,ZGSZ 151300Z 21002MPS 9999 SCT030 24/22 Q1013 NOSIG
ZGSZ,2017-04-15 14:00,ZGSZ 151400Z 22002MPS 9999 BKN040 24/22 Q1013 NOSIG
ZGSZ,2017-04-15 15:00,ZGSZ 151500Z 18002MPS 9999 SCT026 24/22 Q1013 NOSIG
ZGSZ,2017-04-15 16:00,ZGSZ 151600Z 14003MPS CAVOK 25/22 Q1013 NOSIG
ZGSZ,2017-04-15 17:00,ZGSZ 151700Z 15004MPS CAVOK 24/22 Q1012 NOSIG
ZGSZ,2017-04-15 18:00,ZGSZ 151800Z 13002MPS 6000 BKN040 24/22 Q1012 NOSIG
ZGSZ,2017-04-15 19:00,ZGSZ 151900Z 14003MPS 5000 BR NSC 24/21 Q1012 NOSIG
ZGSZ,2017-04-15 20:00,ZGSZ 152000Z 12002MPS 100V160 4500 BR BKN030 23/21 Q1012 NOSIG
ZGSZ,2017-04-15 21:00,ZGSZ 152100Z 15003MPS 4000 BR FEW030 23/21 Q1012 NOSIG
ZGSZ,2017-04-15 22:00,ZGSZ 152200Z 13002MPS 4000 BR BKN026 23/21 Q1013 NOSIG
ZGSZ,2017-04-15 23:00,ZGSZ 152300Z 14003MPS 4500 BR BKN030 24/21 Q1013 NOSIG
ZGSZ,2017-04-16 00:00,ZGSZ 160000Z 13004MPS 7000 BKN033 25/22 Q1014 NOSIG
ZGSZ,2017-04-16 01:00,ZGSZ 160100Z 13003MPS 100V160 8000 BKN033 25/21 Q1015 NOSIG
ZGSZ,2017-04-16 02:00,ZGSZ 160200Z 21003MPS 7000 FEW020 BKN040 26/22 Q1015 NOSIG
ZGSZ,2017-04-16 03:00,ZGSZ 160300Z 21003MPS 7000 NSC 27/22 Q1015 NOSIG
ZGSZ,2017-04-16 04:00,ZGSZ 160400Z 20003MPS 140V240 9999 SCT033 28/22 Q1014 NOSIG
ZGSZ,2017-04-16 05:00,ZGSZ 160500Z 25003MPS 9999 FEW030 27/23 Q1013 NOSIG
ZGSZ,2017-04-16 06:00,ZGSZ 160600Z 25005MPS 9999 FEW030 27/23 Q1013 NOSIG
ZGSZ,2017-04-16 07:00,ZGSZ 160700Z 25004MPS 9999 FEW030 27/23 Q1012 NOSIG
ZGSZ,2017-04-16 08:00,ZGSZ 160800Z 22003MPS CAVOK 27/22 Q1011 NOSIG
ZGSZ,2017-04-16 09:00,ZGSZ 160900Z 22004MPS CAVOK 27/22 Q1011 NOSIG
ZGSZ,2017-04-16 10:00,ZGSZ 161000Z 21004MPS CAVOK 26/22 Q1011 NOSIG
ZGSZ,2017-04-16 11:00,ZGSZ 161100Z 21004MPS CAVOK 25/22 Q1012 NOSIG
ZGSZ,2017-04-16 12:00,ZGSZ 161200Z 19003MPS CAVOK 24/22 Q1012 NOSIG
ZGSZ,2017-04-16 13:00,ZGSZ 161300Z 22003MPS CAVOK 24/22 Q1012 NOSIG
ZGSZ,2017-04-16 14:00,ZGSZ 161400Z 22004MPS CAVOK 24/22 Q1013 NOSIG
ZGSZ,2017-04-16 15:00,ZGSZ 161500Z 23004MPS 200V260 CAVOK 24/22 Q1013 NOSIG
ZGSZ,2017-04-16 16:00,ZGSZ 161600Z 22004MPS CAVOK 23/22 Q1013 NOSIG
ZGSZ,2017-04-16 17:00,ZGSZ 161700Z 22004MPS 7000 NSC 23/22 Q1012 NOSIG
ZGSZ,2017-04-16 18:00,ZGSZ 161800Z 23003MPS 4000 BR NSC 23/22 Q1012 NOSIG
ZGSZ,2017-04-16 19:00,ZGSZ 161900Z 23004MPS 4000 BR NSC 23/22 Q1012 NOSIG
ZGSZ,2017-04-16 20:00,ZGSZ 162000Z 23004MPS 1800 BR SCT011 BKN020 23/22 Q1011 NOSIG
ZGSZ,2017-04-16 21:00,ZGSZ 162100Z 25003MPS 3000 BR SCT011 BKN026 23/22 Q1012 NOSIG
ZGSZ,2017-04-16 22:00,ZGSZ 162200Z 24002MPS 200V260 4000 BR SCT016 BKN026 23/22 Q1012 NOSIG
ZGSZ,2017-04-16 23:00,ZGSZ 162300Z 21002MPS 4000 BR SCT018 BKN026 23/22 Q1013 NOSIG
ZGSZ,2017-04-17 00:00,ZGSZ 170000Z 23002MPS 4000 BR SCT018 BKN026 24/23 Q1013 NOSIG
ZGSZ,2017-04-17 01:00,ZGSZ 170100Z 22002MPS 7000 FEW018 BKN023 25/23 Q1013 NOSIG
ZGSZ,2017-04-17 02:00,ZGSZ 170200Z 24002MPS 200V270 9999 FEW020 26/23 Q1013 NOSIG
ZGSZ,2017-04-17 03:00,ZGSZ 170300Z 22003MPS CAVOK 27/22 Q1012 NOSIG
ZGSZ,2017-04-17 04:00,ZGSZ 170400Z 24002MPS CAVOK 28/22 Q1011 NOSIG
ZGSZ,2017-04-17 05:00,ZGSZ 170500Z 24003MPS 210V280 CAVOK 28/22 Q1010 NOSIG
ZGSZ,2017-04-17 06:00,ZGSZ 170600Z 22003MPS CAVOK 28/23 Q1009 NOSIG
ZGSZ,2017-04-17 07:00,ZGSZ 170700Z 22003MPS CAVOK 28/23 Q1008 NOSIG
ZGSZ,2017-04-17 08:00,ZGSZ 170800Z 22005MPS CAVOK 27/23 Q1008 NOSIG
ZGSZ,2017-04-17 09:00,ZGSZ 170900Z 21006MPS CAVOK 26/23 Q1007 NOSIG
ZGSZ,2017-04-17 10:00,ZGSZ 171000Z 21005MPS CAVOK 26/23 Q1008 NOSIG
ZGSZ,2017-04-17 11:00,ZGSZ 171100Z 21006MPS CAVOK 25/23 Q1009 NOSIG
ZGSZ,2017-04-17 12:00,ZGSZ 171200Z 20006MPS CAVOK 25/23 Q1009 NOSIG
ZGSZ,2017-04-17 13:00,ZGSZ 171300Z 19005MPS CAVOK 25/23 Q1010 NOSIG
ZGSZ,2017-04-17 14:00,ZGSZ 171400Z 19005MPS CAVOK 25/23 Q1010 NOSIG
ZGSZ,2017-04-17 15:00,ZGSZ 171500Z 18004MPS CAVOK 24/23 Q1010 NOSIG
ZGSZ,2017-04-17 16:00,ZGSZ 171600Z 19003MPS CAVOK 24/23 Q1010 NOSIG
ZGSZ,2017-04-17 17:00,ZGSZ 171700Z 18004MPS 7000 SCT033 24/23 Q1009 NOSIG
ZGSZ,2017-04-17 18:00,ZGSZ 171800Z 18005MPS 5000 BR SCT033 24/23 Q1008 NOSIG
ZGSZ,2017-04-17 19:00,ZGSZ 171900Z 19003MPS 5000 BR NSC 24/23 Q1008 NOSIG
ZGSZ,2017-04-17 20:00,ZGSZ 172000Z 19003MPS 5000 BR NSC 24/23 Q1008 NOSIG
ZGSZ,2017-04-17 21:00,ZGSZ 172100Z 18004MPS 5000 BR NSC 24/23 Q1008 NOSIG
ZGSZ,2017-04-17 22:00,ZGSZ 172200Z 19003MPS 6000 NSC 23/22 Q1008 NOSIG
ZGSZ,2017-04-17 23:00,ZGSZ 172300Z 18002MPS 5000 BR FEW013 24/23 Q1009 NOSIG
ZGSZ,2017-04-18 00:00,ZGSZ 180000Z 19002MPS 7000 NSC 25/23 Q1009 NOSIG
ZGSZ,2017-04-18 01:00,ZGSZ 180100Z 21003MPS 7000 NSC 26/23 Q1010 NOSIG
ZGSZ,2017-04-18 02:00,ZGSZ 180200Z 20005MPS 7000 FEW022 26/23 Q1010 NOSIG
ZGSZ,2017-04-18 03:00,ZGSZ 180300Z 20004MPS 7000 SCT040 27/24 Q1010 NOSIG
ZGSZ,2017-04-18 04:00,ZGSZ 180400Z 21004MPS 6000 FEW020 28/24 Q1010 NOSIG
ZGSZ,2017-04-18 05:00,ZGSZ 180500Z 22003MPS 5000 BR FEW020 27/23 Q1009 NOSIG
ZGSZ,2017-04-18 06:00,ZGSZ 180600Z 21004MPS 4000 HZ FEW020 29/24 Q1008 NOSIG
ZGSZ,2017-04-18 07:00,ZGSZ 180700Z 21003MPS 4000 HZ FEW020 29/23 Q1007 NOSIG
ZGSZ,2017-04-18 08:00,ZGSZ 180800Z 22004MPS 5000 HZ NSC 28/23 Q1007 NOSIG
ZGSZ,2017-04-18 09:00,ZGSZ 180900Z 22004MPS 5000 BR NSC 28/24 Q1007 NOSIG
ZGSZ,2017-04-18 10:00,ZGSZ 181000Z 21004MPS 7000 NSC 27/23 Q1007 NOSIG
ZGSZ,2017-04-18 11:00,ZGSZ 181100Z 19003MPS 7000 NSC 26/24 Q1008 NOSIG
ZGSZ,2017-04-18 12:00,ZGSZ 181200Z 20004MPS 7000 NSC 27/23 Q1008 NOSIG
ZGSZ,2017-04-18 13:00,ZGSZ 181300Z 19005MPS 6000 NSC 26/23 Q1009 NOSIG
ZGSZ,2017-04-18 14:00,ZGSZ 181400Z 18005MPS 7000 NSC 26/23 Q1009 NOSIG
ZGSZ,2017-04-18 15:00,ZGSZ 181500Z 18005MPS 8000 NSC 25/23 Q1009 NOSIG
ZGSZ,2017-04-18 16:00,ZGSZ 181600Z 18005MPS 9000 NSC 25/22 Q1009 NOSIG
ZGSZ,2017-04-18 17:00,ZGSZ 181700Z 18004MPS CAVOK 25/22 Q1008 NOSIG
ZGSZ,2017-04-18 18:00,ZGSZ 181800Z 18005MPS CAVOK 25/22 Q1008 NOSIG
ZGSZ,2017-04-18 19:00,ZGSZ 181900Z 18005MPS 7000 NSC 25/23 Q1007 NOSIG
ZGSZ,2017-04-18 20:00,ZGSZ 182000Z 18005MPS 3000 BR NSC 24/23 Q1007 NOSIG
ZGSZ,2017-04-18 21:00,ZGSZ 182100Z 19005MPS 3000 BR NSC 24/23 Q1007 NOSIG
ZGSZ,2017-04-18 22:00,ZGSZ 182200Z 19004MPS 3000 BR NSC 24/23 Q1008 NOSIG
ZGSZ,2017-04-18 23:00,ZGSZ 182300Z 18005MPS 3500 BR NSC 24/23 Q1008 NOSIG
ZGSZ,2017-04-19 00:00,ZGSZ 190000Z 19006MPS 7000 NSC 26/23 Q1009 NOSIG
ZGSZ,2017-04-19 01:00,ZGSZ 190100Z 19005MPS CAVOK 27/24 Q1010 NOSIG
ZGSZ,2017-04-19 02:00,ZGSZ 190200Z 20006MPS CAVOK 27/24 Q1010 NOSIG
ZGSZ,2017-04-19 03:00,ZGSZ 190300Z 19006MPS CAVOK 28/24 Q1010 NOSIG
ZGSZ,2017-04-19 04:00,ZGSZ 190400Z 19006MPS CAVOK 28/23 Q1009 NOSIG
ZGSZ,2017-04-19 05:00,ZGSZ 190500Z 19007MPS CAVOK 29/24 Q1008 NOSIG
ZGSZ,2017-04-19 06:00,ZGSZ 190600Z 19007MPS CAVOK 28/24 Q1008 NOSIG
ZGSZ,2017-04-19 07:00,ZGSZ 190700Z 19007MPS CAVOK 27/24 Q1007 NOSIG
ZGSZ,2017-04-19 08:00,ZGSZ 190800Z 19007MPS CAVOK 27/24 Q1007 NOSIG
ZGSZ,2017-04-19 09:00,ZGSZ 190900Z 20007MPS CAVOK 27/24 Q1007 NOSIG
ZGSZ,2017-04-19 10:00,ZGSZ 191000Z 19006MPS CAVOK 27/24 Q1008 NOSIG
ZGSZ,2017-04-19 11:00,ZGSZ 191100Z 19005MPS 9999 SCT012 BKN026 26/24 Q1008 NOSIG
ZGSZ,2017-04-19 12:00,ZGSZ 191200Z VRB01MPS 5000 BR FEW050 26/23 Q1009 NOSIG
ZGSZ,2017-04-19 13:00,ZGSZ 191300Z 21003MPS 6000 FEW050 26/23 Q1009 NOSIG
ZGSZ,2017-04-19 14:00,ZGSZ 191400Z VRB01MPS 6000 NSC 25/23 Q1010 NOSIG
ZGSZ,2017-04-19 15:00,ZGSZ 191500Z 18004MPS 8000 NSC 26/24 Q1010 NOSIG
ZGSZ,2017-04-19 16:00,ZGSZ 191600Z 21003MPS CAVOK 26/23 Q1010 NOSIG
ZGSZ,2017-04-19 17:00,ZGSZ 191700Z 24001MPS CAVOK 25/24 Q1010 NOSIG
ZGSZ,2017-04-19 18:00,ZGSZ 191800Z 21002MPS CAVOK 25/24 Q1009 NOSIG
ZGSZ,2017-04-19 19:00,ZGSZ 191900Z VRB02MPS 5000 -SHRA SCT015 BKN040 25/23 Q1009 NOSIG
ZGSZ,2017-04-19 20:00,ZGSZ 192000Z 19003MPS 9999 SCT040 25/24 Q1008 NOSIG
ZGSZ,2017-04-19 21:00,ZGSZ 192100Z 20002MPS 9999 FEW050 25/24 Q1009 NOSIG
ZGSZ,2017-04-19 22:00,ZGSZ 192200Z 19003MPS 9999 FEW020 BKN046 25/24 Q1009 NOSIG
ZGSZ,2017-04-19 23:00,ZGSZ 192300Z 14003MPS 9999 FEW020 BKN046 26/24 Q1010 NOSIG
ZGSZ,2017-04-20 00:00,ZGSZ 200000Z 17002MPS 140V200 9999 -SHRA SCT017 BKN033 26/24 Q1010 NOSIG
ZGSZ,2017-04-20 01:00,ZGSZ 200100Z 20003MPS 9999 -SHRA FEW015 BKN033 26/24 Q1011 NOSIG
ZGSZ,2017-04-20 02:00,ZGSZ 200200Z 19004MPS 9999 BKN040 27/24 Q1011 NOSIG
ZGSZ,2017-04-20 03:00,ZGSZ 200300Z 20007MPS 9999 BKN040 27/24 Q1011 BECMG AT0310 SHRA
ZGSZ,2017-04-20 04:00,ZGSZ 200400Z 21007MPS CAVOK 28/24 Q1010 NOSIG
ZGSZ,2017-04-20 05:00,ZGSZ 200500Z 21005MPS CAVOK 27/24 Q1009 NOSIG
ZGSZ,2017-04-20 06:00,ZGSZ 200600Z 21007MPS 9999 SCT023 SCT043 26/23 Q1008 NOSIG
ZGSZ,2017-04-20 07:00,ZGSZ 200700Z 19008MPS 9999 FEW011 BKN040 26/23 Q1008 NOSIG
ZGSZ,2017-04-20 08:00,ZGSZ 200800Z 19006MPS 9999 FEW036 26/24 Q1008 NOSIG
ZGSZ,2017-04-20 09:00,ZGSZ 200900Z 19006MPS 9999 FEW036 28/23 Q1007 NOSIG
ZGSZ,2017-04-20 10:00,ZGSZ 201000Z 19007MPS CAVOK 27/23 Q1007 NOSIG
ZGSZ,2017-04-20 11:00,ZGSZ 201100Z 18006MPS CAVOK 27/23 Q1008 NOSIG
ZGSZ,2017-04-20 12:00,ZGSZ 201200Z 18005MPS 9999 SCT023 27/23 Q1009 NOSIG
ZGSZ,2017-04-20 13:00,ZGSZ 201300Z 19004MPS 9999 SCT023 27/23 Q1009 NOSIG
ZGSZ,2017-04-20 14:00,ZGSZ 201400Z 19003MPS 9999 -SHRA FEW020TCU BKN050 27/23 Q1010 NOSIG
ZGSZ,2017-04-20 15:00,ZGSZ 201500Z 19003MPS 9999 BKN040 26/23 Q1010 NOSIG
ZGSZ,2017-04-20 16:00,ZGSZ 201600Z 18004MPS 9999 BKN040 27/23 Q1009 NOSIG
ZGSZ,2017-04-20 17:00,ZGSZ 201700Z 19005MPS 9999 BKN036 27/24 Q1009 NOSIG
ZGSZ,2017-04-20 18:00,ZGSZ 201800Z 19004MPS 9999 FEW023 BKN043 27/24 Q1008 NOSIG
ZGSZ,2017-04-20 19:00,ZGSZ 201900Z 19004MPS 9999 BKN030 26/24 Q1007 NOSIG
ZGSZ,2017-04-20 20:00,ZGSZ 202000Z 19004MPS 9999 SCT022 BKN046 26/24 Q1007 NOSIG
ZGSZ,2017-04-20 21:00,ZGSZ 202100Z 19004MPS 9999 SCT018 BKN046 26/25 Q1007 NOSIG
ZGSZ,2017-04-20 22:00,ZGSZ 202200Z 19005MPS 9999 SCT018 BKN046 26/24 Q1008 NOSIG
ZGSZ,2017-04-20 23:00,ZGSZ 202300Z 19005MPS 9999 SCT016 BKN040 26/25 Q1008 NOSIG
ZGSZ,2017-04-21 00:00,ZGSZ 210000Z 19005MPS 9999 SCT016 BKN040 26/25 Q1008 NOSIG
ZGSZ,2017-04-21 01:00,ZGSZ 210100Z 20005MPS 9999 SCT016 BKN040 27/25 Q1009 NOSIG
ZGSZ,2017-04-21 02:00,ZGSZ 210200Z 20007MPS 9999 SCT016 BKN040 27/25 Q1009 NOSIG
ZGSZ,2017-04-21 03:00,ZGSZ 210300Z 20007MPS 9999 SCT026 28/25 Q1008 NOSIG
ZGSZ,2017-04-21 04:00,ZGSZ 210400Z 20008MPS 9999 SCT026 29/26 Q1007 NOSIG
ZGSZ,2017-04-21 05:00,ZGSZ 210500Z 19008MPS 9999 FEW026 28/25 Q1006 NOSIG
ZGSZ,2017-04-21 06:00,ZGSZ 210600Z 19008MPS 8000 FEW020CB FEW020 SCT040 27/25 Q1005 BECMG AT0700 31012G17MPS 1000 TSRA BKN009 FEW020CB BKN030
ZGSZ,2017-04-21 07:00,ZGSZ 210700Z 20006MPS 5000 TSRA FEW016 FEW020CB BKN040 27/25 Q1005 BECMG AT0840 34006MPS -SHRA
ZGSZ,2017-04-21 08:00,ZGSZ 210800Z 35004MPS 300V010 9999 -SHRA FEW016 BKN040 24/22 Q1006 RETSRA NOSIG
ZGSZ,2017-04-21 09:00,ZGSZ 210900Z 35002MPS 9999 -SHRA FEW040 24/22 Q1006 NOSIG
ZGSZ,2017-04-21 10:00,ZGSZ 211000Z 32003MPS 9999 SCT040 24/22 Q1007 NOSIG
ZGSZ,2017-04-21 11:00,ZGSZ 211100Z 33004MPS 9999 BKN033 24/22 Q1008 NOSIG
ZGSZ,2017-04-21 12:00,ZGSZ 211200Z 36004MPS 9999 FEW016 24/22 Q1008 NOSIG
ZGSZ,2017-04-21 13:00,ZGSZ 211300Z 01004MPS 9999 BKN017 24/22 Q1010 NOSIG
ZGSZ,2017-04-21 14:00,ZGSZ 211400Z 36006MPS 7000 FEW017 SCT027 24/21 Q1010 NOSIG
ZGSZ,2017-04-21 15:00,ZGSZ 211500Z 01007MPS 9999 FEW017 SCT027 23/20 Q1011 NOSIG
ZGSZ,2017-04-21 16:00,ZGSZ 211600Z 02007MPS 9999 FEW017 SCT027 23/20 Q1011 NOSIG
ZGSZ,2017-04-21 17:00,ZGSZ 211700Z 04008MPS 9999 BKN030 22/17 Q1011 NOSIG
ZGSZ,2017-04-21 18:00,ZGSZ 211800Z 06007MPS 9999 BKN030 21/16 Q1010 NOSIG
ZGSZ,2017-04-21 19:00,ZGSZ 211900Z 04007MPS 010V070 9999 BKN030 20/14 Q1011 NOSIG
ZGSZ,2017-04-21 20:00,ZGSZ 212000Z 04008MPS CAVOK 20/12 Q1011 NOSIG
ZGSZ,2017-04-21 21:00,ZGSZ 212100Z 05005MPS CAVOK 19/12 Q1011 NOSIG
ZGSZ,2017-04-21 22:00,ZGSZ 212200Z 04008MPS CAVOK 19/11 Q1012 NOSIG
ZGSZ,2017-04-21 23:00,ZGSZ 212300Z 06006MPS CAVOK 19/12 Q1013 NOSIG
ZGSZ,2017-04-22 00:00,ZGSZ 220000Z 05005MPS 9999 BKN053 20/12 Q1014 NOSIG
ZGSZ,2017-04-22 01:00,ZGSZ 220100Z 01006MPS 9999 BKN053 20/12 Q1015 NOSIG
ZGSZ,2017-04-22 02:00,ZGSZ 220200Z 06005MPS 5000 SHRA FEW015 FEW020CB BKN053 18/13 Q1015 BECMG AT0240 -SHRA
ZGSZ,2017-04-22 03:00,ZGSZ 220300Z 04005MPS 9999 FEW020 19/14 Q1015 NOSIG
ZGSZ,2017-04-22 04:00,ZGSZ 220400Z 06003MPS 010V100 9999 SCT030 19/15 Q1015 NOSIG
ZGSZ,2017-04-22 05:00,ZGSZ 220500Z 04004MPS 340V060 8000 BKN025 21/15 Q1014 NOSIG
ZGSZ,2017-04-22 06:00,ZGSZ 220600Z 06005MPS 360V100 8000 BKN030 22/14 Q1013 NOSIG
ZGSZ,2017-04-22 07:00,ZGSZ 220700Z 06004MPS 020V090 9999 BKN030 22/14 Q1012 NOSIG
ZGSZ,2017-04-22 08:00,ZGSZ 220800Z 04005MPS 010V070 9999 BKN030 22/14 Q1012 NOSIG
ZGSZ,2017-04-22 09:00,ZGSZ 220900Z 04006MPS 9999 BKN030 22/14 Q1012 NOSIG
ZGSZ,2017-04-22 10:00,ZGSZ 221000Z 06004MPS 030V090 9999 -RA BKN030 21/14 Q1013 NOSIG
ZGSZ,2017-04-22 11:00,ZGSZ 221100Z 05003MPS 020V090 9999 -RA BKN030 20/15 Q1013 NOSIG
ZGSZ,2017-04-22 12:00,ZGSZ 221200Z 12003MPS 9999 FEW020 20/16 Q1014 NOSIG
ZGSZ,2017-04-22 13:00,ZGSZ 221300Z 07004MPS 9999 FEW020 20/15 Q1015 NOSIG
ZGSZ,2017-04-22 14:00,ZGSZ 221400Z 06004MPS 9999 FEW020 BKN036 20/15 Q1015 NOSIG
ZGSZ,2017-04-22 15:00,ZGSZ 221500Z 10003MPS 9999 FEW020 BKN036 20/15 Q1015 NOSIG
ZGSZ,2017-04-22 16:00,ZGSZ 221600Z 07002MPS 9999 FEW020 20/14 Q1015 NOSIG
ZGSZ,2017-04-22 17:00,ZGSZ 221700Z 06003MPS 9999 FEW020 20/14 Q1014 NOSIG
ZGSZ,2017-04-22 18:00,ZGSZ 221800Z 12002MPS 9999 FEW020 19/15 Q1014 NOSIG
ZGSZ,2017-04-22 19:00,ZGSZ 221900Z 08002MPS 9999 FEW020 19/14 Q1013 NOSIG
ZGSZ,2017-04-22 20:00,ZGSZ 222000Z 06002MPS CAVOK 19/15 Q1013 NOSIG
ZGSZ,2017-04-22 21:00,ZGSZ 222100Z 05003MPS 9999 BKN033 19/14 Q1014 NOSIG
ZGSZ,2017-04-22 22:00,ZGSZ 222200Z 07003MPS 9999 BKN028 20/14 Q1014 NOSIG
ZGSZ,2017-04-22 23:00,ZGSZ 222300Z 09002MPS 060V120 9999 OVC030 20/14 Q1015 NOSIG
ZGSZ,2017-04-23 00:00,ZGSZ 230000Z 07002MPS 040V100 9999 OVC030 20/14 Q1015 NOSIG
ZGSZ,2017-04-23 01:00,ZGSZ 230100Z 05003MPS 9999 OVC033 20/15 Q1016 NOSIG
ZGSZ,2017-04-23 02:00,ZGSZ 230200Z 06003MPS 020V090 9999 OVC036 21/15 Q1016 NOSIG
ZGSZ,2017-04-23 03:00,ZGSZ 230300Z 06003MPS 9999 OVC033 21/15 Q1016 NOSIG
ZGSZ,2017-04-23 04:00,ZGSZ 230400Z VRB01MPS 9999 OVC036 22/15 Q1016 NOSIG
ZGSZ,2017-04-23 05:00,ZGSZ 230500Z VRB01MPS 9999 BKN040 22/15 Q1015 NOSIG
ZGSZ,2017-04-23 06:00,ZGSZ 230600Z 14003MPS 9999 BKN050 22/15 Q1014 BECMG FM0730 2000 SHRA
ZGSZ,2017-04-23 07:00,ZGSZ 230700Z 12002MPS 080V210 7000 -RA BKN036 21/16 Q1014 BECMG FM0730 2000 SHRA
ZGSZ,2017-04-23 08:00,ZGSZ 230800Z 12002MPS 080V160 7000 -RA BKN036 20/17 Q1014 NOSIG
ZGSZ,2017-04-23 09:00,ZGSZ 230900Z 16003MPS 7000 -RA BKN036 20/17 Q1014 NOSIG
ZGSZ,2017-04-23 10:00,ZGSZ 231000Z 12002MPS 070V160 7000 BKN036 20/17 Q1014 NOSIG
ZGSZ,2017-04-23 11:00,ZGSZ 231100Z 04002MPS 020V100 7000 -RA BKN036 20/17 Q1014 NOSIG
ZGSZ,2017-04-23 12:00,ZGSZ 231200Z VRB02MPS 8000 BKN036 20/17 Q1014 NOSIG
ZGSZ,2017-04-23 13:00,ZGSZ 231300Z VRB01MPS 7000 BKN050 20/17 Q1015 NOSIG
ZGSZ,2017-04-23 14:00,ZGSZ 231400Z 15002MPS 7000 BKN050 20/17 Q1015 NOSIG
ZGSZ,2017-04-23 15:00,ZGSZ 231500Z 14003MPS 7000 -RA BKN050 20/17 Q1015 NOSIG
ZGSZ,2017-04-23 16:00,ZGSZ 231600Z 14004MPS 110V190 6000 BKN050 20/17 Q1015 NOSIG
ZGSZ,2017-04-23 17:00,ZGSZ 231700Z 14003MPS 6000 BKN050 20/18 Q1014 NOSIG
ZGSZ,2017-04-23 18:00,ZGSZ 231800Z VRB01MPS 6000 BKN050 21/18 Q1014 NOSIG
ZGSZ,2017-04-23 19:00,ZGSZ 231900Z 06002MPS 6000 BKN050 20/18 Q1013 NOSIG
ZGSZ,2017-04-23 20:00,ZGSZ 232000Z 06003MPS 5000 BR BKN050 20/18 Q1013 NOSIG
ZGSZ,2017-04-23 21:00,ZGSZ 232100Z 07003MPS 5000 BR BKN050 20/18 Q1013 NOSIG
ZGSZ,2017-04-23 22:00,ZGSZ 232200Z 08002MPS 5000 BR BKN050 20/17 Q1014 NOSIG
ZGSZ,2017-04-23 23:00,ZGSZ 232300Z 08003MPS 5000 BR BKN050 21/17 Q1014 NOSIG
ZGSZ,2017-04-24 00:00,ZGSZ 240000Z 07003MPS 340V090 5000 BR BKN050 21/17 Q1015 NOSIG
ZGSZ,2017-04-24 01:00,ZGSZ 240100Z 08003MPS 050V110 5000 BR FEW033 OVC050 21/17 Q1015 NOSIG
ZGSZ,2017-04-24 02:00,ZGSZ 240200Z 11002MPS 080V150 7000 SCT033 OVC050 22/17 Q1015 NOSIG
ZGSZ,2017-04-24 03:00,ZGSZ 240300Z VRB01MPS 8000 BKN033 BKN050 22/17 Q1015 NOSIG
ZGSZ,2017-04-24 04:00,ZGSZ 240400Z 06003MPS 020V090 7000 SCT023 BKN050 23/17 Q1015 NOSIG
ZGSZ,2017-04-24 05:00,ZGSZ 240500Z 04002MPS 360V130 7000 SCT023 OVC050 24/18 Q1014 NOSIG
ZGSZ,2017-04-24 06:00,ZGSZ 240600Z 31002MPS 7000 SCT023 OVC040 23/18 Q1014 NOSIG
ZGSZ,2017-04-24 07:00,ZGSZ 240700Z 13004MPS 7000 -RA SCT020 OVC033 24/19 Q1012 NOSIG
ZGSZ,2017-04-24 08:00,ZGSZ 240800Z 16004MPS 8000 -RA SCT020 OVC033 23/19 Q1012 NOSIG
ZGSZ,2017-04-24 09:00,ZGSZ 240900Z 14004MPS 7000 OVC026 23/19 Q1012 NOSIG
ZGSZ,2017-04-24 10:00,ZGSZ 241000Z 15004MPS 6000 -SHRA SCT020 OVC030 22/19 Q1012 NOSIG
ZGSZ,2017-04-24 11:00,ZGSZ 241100Z 12003MPS 7000 -SHRA SCT020 OVC043 22/19 Q1012 NOSIG
ZGSZ,2017-04-24 12:00,ZGSZ 241200Z 15001MPS 5000 BR OVC033 22/19 Q1013 NOSIG
ZGSZ,2017-04-24 13:00,ZGSZ 241300Z 15003MPS 4200 BR BKN030 22/19 Q1013 NOSIG
ZGSZ,2017-04-24 14:00,ZGSZ 241400Z 15003MPS 5000 BR BKN030 22/18 Q1015 NOSIG
ZGSZ,2017-04-24 15:00,ZGSZ 241500Z 15003MPS 5000 BR OVC030 22/18 Q1015 NOSIG
ZGSZ,2017-04-24 16:00,ZGSZ 241600Z 15004MPS 5000 BR OVC029 22/18 Q1014 NOSIG
ZGSZ,2017-04-24 17:00,ZGSZ 241700Z 12003MPS 100V190 8000 OVC036 22/18 Q1013 NOSIG
ZGSZ,2017-04-24 18:00,ZGSZ 241800Z 14004MPS 8000 BKN036 21/18 Q1013 NOSIG
ZGSZ,2017-04-24 19:00,ZGSZ 241900Z 14004MPS 5000 -RA BR SCT020 21/18 Q1012 NOSIG
ZGSZ,2017-04-24 20:00,ZGSZ 242000Z 14003MPS 100V180 6000 -RA SCT015 BKN050 21/19 Q1011 NOSIG
ZGSZ,2017-04-24 21:00,ZGSZ 242100Z 13005MPS 5000 -RA BR FEW010 BKN040 21/19 Q1010 NOSIG
ZGSZ,2017-04-24 22:00,ZGSZ 242200Z 16004MPS 4200 BR BKN053 21/19 Q1011 NOSIG
ZGSZ,2017-04-24 23:00,ZGSZ 242300Z 13003MPS 4700 BR NSC 21/19 Q1012 NOSIG
ZGSZ,2017-04-25 00:00,ZGSZ 250000Z 13004MPS 5000 BR NSC 22/20 Q1012 NOSIG
ZGSZ,2017-04-25 01:00,ZGSZ 250100Z 13003MPS 8000 SCT014 23/20 Q1013 BECMG TL0135 BKN014 BKN033
ZGSZ,2017-04-25 02:00,ZGSZ 250200Z 14004MPS 7000 BKN014 BKN033 24/20 Q1013 NOSIG
ZGSZ,2017-04-25 03:00,ZGSZ 250300Z 13003MPS 100V160 5000 BR BKN014 BKN033 24/20 Q1013 BECMG TL0430 SCT015 BKN033
ZGSZ,2017-04-25 04:00,ZGSZ 250400Z 14005MPS 7000 BKN014 BKN033 25/21 Q1012 BECMG TL0430 SCT015 BKN033
ZGSZ,2017-04-25 05:00,ZGSZ 250500Z 14004MPS 7000 SCT016 BKN033 25/21 Q1012 NOSIG
ZGSZ,2017-04-25 06:00,ZGSZ 250600Z 14006MPS 7000 -SHRA SCT015 BKN033 25/21 Q1010 NOSIG
ZGSZ,2017-04-25 07:00,ZGSZ 250700Z 13006MPS 5000 -SHRA BR SCT015 BKN033 24/21 Q1010 NOSIG
ZGSZ,2017-04-25 08:00,ZGSZ 250800Z 14006MPS 6000 -SHRA SCT015 BKN033 24/21 Q1009 NOSIG
ZGSZ,2017-04-25 09:00,ZGSZ 250900Z 13005MPS 6000 -RA BKN026 23/21 Q1009 NOSIG
ZGSZ,2017-04-25 10:00,ZGSZ 251000Z 14003MPS 2000 SHRA BR SCT010 FEW017CB OVC033 23/22 Q1009 BECMG AT1040 -SHRA
ZGSZ,2017-04-25 11:00,ZGSZ 251100Z 23008MPS 9999 BKN010 24/22 Q1010 BECMG AT1240 16004MPS SCT015 BKN030
ZGSZ,2017-04-25 12:00,ZGSZ 251200Z 20004MPS 9999 BKN016 24/23 Q1011 NOSIG
ZGSZ,2017-04-25 13:00,ZGSZ 251300Z 15003MPS CAVOK 24/22 Q1011 NOSIG
ZGSZ,2017-04-25 14:00,ZGSZ 251400Z 14003MPS 9999 BKN017 24/22 Q1012 NOSIG
ZGSZ,2017-04-25 15:00,ZGSZ 251500Z 15002MPS 9999 BKN017 24/22 Q1012 NOSIG
ZGSZ,2017-04-25 16:00,ZGSZ 251600Z 16003MPS 7000 BKN023 24/22 Q1012 NOSIG
ZGSZ,2017-04-25 17:00,ZGSZ 251700Z 12002MPS 080V170 5000 BR BKN030 24/22 Q1011 NOSIG
ZGSZ,2017-04-25 18:00,ZGSZ 251800Z 14002MPS 4000 BR BKN030 24/22 Q1011 NOSIG
ZGSZ,2017-04-25 19:00,ZGSZ 251900Z 16003MPS 3000 BR BKN040 23/22 Q1010 NOSIG
ZGSZ,2017-04-25 20:00,ZGSZ 252000Z 15002MPS 3500 BR BKN050 23/22 Q1009 NOSIG
ZGSZ,2017-04-25 21:00,ZGSZ 252100Z 09001MPS 4000 BR FEW050 23/22 Q1009 NOSIG
ZGSZ,2017-04-25 22:00,ZGSZ 252200Z 00000MPS 4000 BR NSC 23/22 Q1010 NOSIG
ZGSZ,2017-04-25 23:00,ZGSZ 252300Z 00000MPS 3500 BR BKN033 23/22 Q1011 NOSIG
ZGSZ,2017-04-26 00:00,ZGSZ 260000Z VRB01MPS 4000 BR BKN033 24/22 Q1011 NOSIG
ZGSZ,2017-04-26 01:00,ZGSZ 260100Z 17003MPS 4500 BR BKN033 25/23 Q1011 NOSIG
ZGSZ,2017-04-26 02:00,ZGSZ 260200Z 16003MPS 6000 FEW020 BKN036 27/23 Q1012 NOSIG
ZGSZ,2017-04-26 03:00,ZGSZ 260300Z 24002MPS 6000 BKN036 26/23 Q1011 NOSIG
ZGSZ,2017-04-26 04:00,ZGSZ 260400Z 28002MPS 250V310 4000 BR BKN036 25/23 Q1011 NOSIG
ZGSZ,2017-04-26 05:00,ZGSZ 260500Z 26003MPS 4500 BR FEW020CB FEW020 OVC036 25/23 Q1011 BECMG AT0530 TSRA
ZGSZ,2017-04-26 06:00,ZGSZ 260600Z 26003MPS 4500 -SHRA BR FEW016 FEW020CB OVC050 25/23 Q1010 RESHRA BECMG AT0640 SHRA
ZGSZ,2017-04-26 07:00,ZGSZ 260700Z 32002MPS 3000 -SHRA BR SCT009 FEW020CB OVC033 25/24 Q1009 BECMG AT0730 2700
ZGSZ,2017-04-26 08:00,ZGSZ 260800Z 22002MPS 7000 FEW020 BKN050 25/23 Q1008 NOSIG
ZGSZ,2017-04-26 09:00,ZGSZ 260900Z VRB01MPS 5000 BR SCT015 BKN033 25/23 Q1008 BECMG TL1020 2800
ZGSZ,2017-04-26 10:00,ZGSZ 261000Z 30002MPS 3500 -SHRA BR SCT015 FEW020CB BKN033 24/23 Q1009 BECMG AT1120 2000 TSRA
ZGSZ,2017-04-26 11:00,ZGSZ 261100Z 35001MPS 4000 -SHRA BR SCT015 FEW020CB BKN033 24/23 Q1009 BECMG AT1140 2000 TSRA
ZGSZ,2017-04-26 12:00,ZGSZ 261200Z 29001MPS 4000 -TSRA BR FEW008 FEW020CB BKN033 25/24 Q1010 BECMG TL1330 -SHRA
ZGSZ,2017-04-26 13:00,ZGSZ 261300Z 18003MPS 4000 -SHRA BR FEW008 BKN033 24/23 Q1010 RETS NOSIG
ZGSZ,2017-04-26 14:00,ZGSZ 261400Z 29002MPS 270V330 3200 BR FEW003 SCT008 BKN050 24/23 Q1011 NOSIG
ZGSZ,2017-04-26 15:00,ZGSZ 261500Z 00000MPS 5000 BR SCT050 23/23 Q1011 NOSIG
ZGSZ,2017-04-26 16:00,ZGSZ 261600Z VRB01MPS 8000 SCT033 23/23 Q1011 NOSIG
ZGSZ,2017-04-26 17:00,ZGSZ 261700Z 35002MPS 5000 BR BKN026 23/22 Q1011 NOSIG
ZGSZ,2017-04-26 18:00,ZGSZ 261800Z 03002MPS 360V070 4000 BR FEW003 BKN040 23/22 Q1010 NOSIG
ZGSZ,2017-04-26 19:00,ZGSZ 261900Z 02002MPS 350V050 4000 BR FEW008 SCT014 BKN030 24/23 Q1009 NOSIG
ZGSZ,2017-04-26 20:00,ZGSZ 262000Z 05003MPS 3500 -SHRA BR SCT006 BKN020 24/23 Q1009 NOSIG
ZGSZ,2017-04-26 21:00,ZGSZ 262100Z 04003MPS 5000 -SHRA BR SCT008 BKN020 23/22 Q1009 NOSIG
ZGSZ,2017-04-26 22:00,ZGSZ 262200Z 03005MPS 4000 -SHRA BR BKN007 BKN020 23/22 Q1009 BECMG TL2320 SCT015
ZGSZ,2017-04-26 23:00,ZGSZ 262300Z 03006MPS 4500 -SHRA BR BKN007 BKN020 23/21 Q1010 BECMG TL2320 SCT015
ZGSZ,2017-04-27 00:00,ZGSZ 270000Z 02005MPS 7000 SCT010 BKN020 22/20 Q1012 BECMG TL0030 BKN011 BKN020
ZGSZ,2017-04-27 01:00,ZGSZ 270100Z 04005MPS 7000 BKN010 BKN020 22/20 Q1013 BECMG TL0130 SCT015 BKN030
ZGSZ,2017-04-27 02:00,ZGSZ 270200Z 05006MPS 7000 SCT010 BKN020 22/20 Q1013 NOSIG
ZGSZ,2017-04-27 03:00,ZGSZ 270300Z 04006MPS 7000 FEW018 BKN020 22/19 Q1014 NOSIG
ZGSZ,2017-04-27 04:00,ZGSZ 270400Z 05005MPS 020V080 9000 FEW018 BKN030 22/18 Q1014 NOSIG
ZGSZ,2017-04-27 05:00,ZGSZ 270500Z 06005MPS 9999 FEW018 BKN030 22/18 Q1014 NOSIG
ZGSZ,2017-04-27 06:00,ZGSZ 270600Z 05005MPS 020V080 9999 FEW018 BKN030 22/18 Q1013 NOSIG
ZGSZ,2017-04-27 07:00,ZGSZ 270700Z 04006MPS 9999 BKN030 22/17 Q1013 NOSIG
ZGSZ,2017-04-27 08:00,ZGSZ 270800Z 04006MPS 9999 BKN030 22/17 Q1013 NOSIG
ZGSZ,2017-04-27 09:00,ZGSZ 270900Z 04005MPS 9999 BKN040 22/17 Q1013 NOSIG
ZGSZ,2017-04-27 10:00,ZGSZ 271000Z 05006MPS 9999 BKN050 22/16 Q1013 NOSIG
ZGSZ,2017-04-27 11:00,ZGSZ 271100Z 06005MPS 9999 BKN050 21/16 Q1013 NOSIG
ZGSZ,2017-04-27 12:00,ZGSZ 271200Z 06005MPS 9999 BKN033 21/16 Q1015 NOSIG
ZGSZ,2017-04-27 13:00,ZGSZ 271300Z 07005MPS 9999 BKN040 21/16 Q1015 NOSIG
ZGSZ,2017-04-27 14:00,ZGSZ 271400Z 05004MPS 010V080 9999 SCT040 21/16 Q1016 NOSIG
ZGSZ,2017-04-27 15:00,ZGSZ 271500Z 07005MPS 9999 SCT040 20/16 Q1016 NOSIG
ZGSZ,2017-04-27 16:00,ZGSZ 271600Z 04004MPS 9999 FEW040 20/15 Q1016 NOSIG
ZGSZ,2017-04-27 17:00,ZGSZ 271700Z 06003MPS 9999 FEW040 20/15 Q1016 NOSIG
ZGSZ,2017-04-27 18:00,ZGSZ 271800Z 06003MPS 9999 FEW040 19/15 Q1015 NOSIG
ZGSZ,2017-04-27 19:00,ZGSZ 271900Z 06003MPS 9999 FEW040 19/15 Q1015 NOSIG
ZGSZ,2017-04-27 20:00,ZGSZ 272000Z 04004MPS CAVOK 19/14 Q1015 NOSIG
ZGSZ,2017-04-27 21:00,ZGSZ 272100Z 04005MPS CAVOK 18/14 Q1015 NOSIG
ZGSZ,2017-04-27 22:00,ZGSZ 272200Z 05003MPS 9999 FEW046 18/14 Q1015 NOSIG
ZGSZ,2017-04-27 23:00,ZGSZ 272300Z 05004MPS 020V080 9999 FEW046 20/14 Q1016 NOSIG
ZGSZ,2017-04-28 00:00,ZGSZ 280000Z 05006MPS CAVOK 21/14 Q1017 NOSIG
ZGSZ,2017-04-28 01:00,ZGSZ 280100Z 07005MPS 040V100 CAVOK 22/14 Q1017 NOSIG
ZGSZ,2017-04-28 02:00,ZGSZ 280200Z 08004MPS 030V120 CAVOK 24/14 Q1017 NOSIG
ZGSZ,2017-04-28 03:00,ZGSZ 280300Z 06003MPS 010V090 9999 FEW036 25/15 Q1017 NOSIG
ZGSZ,2017-04-28 04:00,ZGSZ 280400Z 05003MPS 290V090 9999 SCT036 25/14 Q1016 NOSIG
ZGSZ,2017-04-28 05:00,ZGSZ 280500Z 03003MPS 330V100 9999 BKN050 26/14 Q1015 NOSIG
ZGSZ,2017-04-28 06:00,ZGSZ 280600Z 32004MPS 9999 BKN050 25/15 Q1014 NOSIG
ZGSZ,2017-04-28 07:00,ZGSZ 280700Z 31004MPS 9999 BKN050 26/15 Q1014 NOSIG
ZGSZ,2017-04-28 08:00,ZGSZ 280800Z 31004MPS CAVOK 26/15 Q1013 NOSIG
ZGSZ,2017-04-28 09:00,ZGSZ 280900Z 30003MPS CAVOK 25/15 Q1013 NOSIG
ZGSZ,2017-04-28 10:00,ZGSZ 281000Z 28002MPS CAVOK 25/15 Q1013 NOSIG
ZGSZ,2017-04-28 11:00,ZGSZ 281100Z 21004MPS 8000 NSC 23/18 Q1013 NOSIG
ZGSZ,2017-04-28 12:00,ZGSZ 281200Z 22005MPS CAVOK 23/18 Q1014 NOSIG
ZGSZ,2017-04-28 13:00,ZGSZ 281300Z 20004MPS CAVOK 22/18 Q1014 NOSIG
ZGSZ,2017-04-28 14:00,ZGSZ 281400Z 21003MPS CAVOK 22/18 Q1014 NOSIG
ZGSZ,2017-04-28 15:00,ZGSZ 281500Z 22004MPS CAVOK 22/18 Q1015 NOSIG
ZGSZ,2017-04-28 16:00,ZGSZ 281600Z 14002MPS 070V160 CAVOK 21/17 Q1015 NOSIG
ZGSZ,2017-04-28 17:00,ZGSZ 281700Z 14003MPS CAVOK 21/17 Q1014 NOSIG
ZGSZ,2017-04-28 18:00,ZGSZ 281800Z 14002MPS CAVOK 21/17 Q1014 NOSIG
ZGSZ,2017-04-28 19:00,ZGSZ 281900Z 16002MPS 100V190 CAVOK 20/17 Q1014 NOSIG
ZGSZ,2017-04-28 20:00,ZGSZ 282000Z 12002MPS 090V170 CAVOK 20/17 Q1013 NOSIG
ZGSZ,2017-04-28 21:00,ZGSZ 282100Z VRB01MPS CAVOK 20/17 Q1014 NOSIG
ZGSZ,2017-04-28 22:00,ZGSZ 282200Z 14002MPS 6000 NSC 20/17 Q1014 NOSIG
ZGSZ,2017-04-28 23:00,ZGSZ 282300Z 14002MPS 5000 BR NSC 20/18 Q1015 NOSIG
ZGSZ,2017-04-29 00:00,ZGSZ 290000Z VRB01MPS 5000 BR NSC 23/18 Q1015 NOSIG
ZGSZ,2017-04-29 01:00,ZGSZ 290100Z 28002MPS 7000 FEW023 23/18 Q1016 NOSIG
ZGSZ,2017-04-29 02:00,ZGSZ 290200Z 28002MPS 250V310 7000 FEW023 23/18 Q1016 NOSIG
ZGSZ,2017-04-29 03:00,ZGSZ 290300Z 26003MPS 6000 FEW023 24/18 Q1015 NOSIG
ZGSZ,2017-04-29 04:00,ZGSZ 290400Z 25003MPS 6000 NSC 25/19 Q1015 NOSIG
ZGSZ,2017-04-29 05:00,ZGSZ 290500Z 26003MPS 5000 HZ NSC 26/18 Q1014 NOSIG
ZGSZ,2017-04-29 06:00,ZGSZ 290600Z 23004MPS 4500 HZ NSC 26/19 Q1013 NOSIG
ZGSZ,2017-04-29 07:00,ZGSZ 290700Z 24004MPS 6000 NSC 26/18 Q1013 NOSIG
ZGSZ,2017-04-29 08:00,ZGSZ 290800Z 22005MPS 8000 NSC 26/18 Q1012 NOSIG
ZGSZ,2017-04-29 09:00,ZGSZ 290900Z 22006MPS CAVOK 25/19 Q1012 NOSIG
ZGSZ,2017-04-29 10:00,ZGSZ 291000Z 21007MPS CAVOK 24/19 Q1012 NOSIG
ZGSZ,2017-04-29 11:00,ZGSZ 291100Z 21007MPS CAVOK 24/19 Q1013 NOSIG
ZGSZ,2017-04-29 12:00,ZGSZ 291200Z 21006MPS CAVOK 23/19 Q1013 NOSIG
ZGSZ,2017-04-29 13:00,ZGSZ 291300Z 21006MPS CAVOK 23/19 Q1013 NOSIG
ZGSZ,2017-04-29 14:00,ZGSZ 291400Z 21005MPS CAVOK 23/18 Q1014 NOSIG
ZGSZ,2017-04-29 15:00,ZGSZ 291500Z 21005MPS CAVOK 23/19 Q1014 NOSIG
ZGSZ,2017-04-29 16:00,ZGSZ 291600Z 21005MPS CAVOK 23/18 Q1014 NOSIG
ZGSZ,2017-04-29 17:00,ZGSZ 291700Z 21004MPS CAVOK 23/18 Q1013 NOSIG
ZGSZ,2017-04-29 18:00,ZGSZ 291800Z 19003MPS CAVOK 22/17 Q1013 NOSIG
ZGSZ,2017-04-29 19:00,ZGSZ 291900Z 13002MPS 7000 NSC 21/18 Q1013 NOSIG
ZGSZ,2017-04-29 20:00,ZGSZ 292000Z 12002MPS 6000 NSC 21/17 Q1012 NOSIG
ZGSZ,2017-04-29 21:00,ZGSZ 292100Z 12003MPS 6000 NSC 21/17 Q1013 NOSIG
ZGSZ,2017-04-29 22:00,ZGSZ 292200Z 16002MPS 4000 BR NSC 20/17 Q1013 NOSIG
ZGSZ,2017-04-29 23:00,ZGSZ 292300Z 14002MPS 5000 BR NSC 22/17 Q1013 NOSIG
ZGSZ,2017-04-30 00:00,ZGSZ 300000Z 14002MPS 100V160 8000 NSC 24/18 Q1014 NOSIG
ZGSZ,2017-04-30 01:00,ZGSZ 300100Z 14002MPS 100V180 CAVOK 25/18 Q1014 NOSIG
ZGSZ,2017-04-30 02:00,ZGSZ 300200Z 21003MPS CAVOK 25/18 Q1014 NOSIG
ZGSZ,2017-04-30 03:00,ZGSZ 300300Z 23004MPS CAVOK 26/19 Q1014 NOSIG
ZGSZ,2017-04-30 04:00,ZGSZ 300400Z 24004MPS CAVOK 26/19 Q1013 NOSIG
ZGSZ,2017-04-30 05:00,ZGSZ 300500Z 24005MPS CAVOK 26/19 Q1013 NOSIG
ZGSZ,2017-04-30 06:00,ZGSZ 300600Z 22005MPS CAVOK 26/20 Q1012 NOSIG
ZGSZ,2017-04-30 07:00,ZGSZ 300700Z 21007MPS CAVOK 26/20 Q1012 NOSIG
ZGSZ,2017-04-30 08:00,ZGSZ 300800Z 22006MPS CAVOK 26/19 Q1011 NOSIG
ZGSZ,2017-04-30 09:00,ZGSZ 300900Z 22006MPS CAVOK 25/19 Q1011 NOSIG
ZGSZ,2017-04-30 10:00,ZGSZ 301000Z 21006MPS CAVOK 25/19 Q1011 NOSIG
ZGSZ,2017-04-30 11:00,ZGSZ 301100Z 21006MPS CAVOK 24/19 Q1012 NOSIG
ZGSZ,2017-04-30 12:00,ZGSZ 301200Z 21005MPS CAVOK 24/20 Q1012 NOSIG
ZGSZ,2017-04-30 13:00,ZGSZ 301300Z 21005MPS CAVOK 24/20 Q1013 NOSIG
ZGSZ,2017-04-30 14:00,ZGSZ 301400Z 20004MPS CAVOK 24/20 Q1013 NOSIG
ZGSZ,2017-04-30 15:00,ZGSZ 301500Z 19003MPS CAVOK 23/18 Q1014 NOSIG
ZGSZ,2017-04-30 16:00,ZGSZ 301600Z 14004MPS CAVOK 23/19 Q1013 NOSIG
ZGSZ,2017-04-30 17:00,ZGSZ 301700Z 13003MPS 090V160 CAVOK 23/18 Q1013 NOSIG
ZGSZ,2017-04-30 18:00,ZGSZ 301800Z 14002MPS CAVOK 22/19 Q1013 NOSIG
ZGSZ,2017-04-30 19:00,ZGSZ 301900Z 11002MPS CAVOK 23/18 Q1012 NOSIG
ZGSZ,2017-04-30 20:00,ZGSZ 302000Z 14002MPS CAVOK 22/19 Q1012 NOSIG
ZGSZ,2017-04-30 21:00,ZGSZ 302100Z 12002MPS CAVOK 22/19 Q1012 NOSIG
ZGSZ,2017-04-30 22:00,ZGSZ 302200Z 15002MPS 8000 NSC 22/19 Q1012 NOSIG
ZGSZ,2017-04-30 23:00,ZGSZ 302300Z 14002MPS 8000 NSC 23/19 Q1013 NOSIG
ZGSZ,2017-05-01 00:00,ZGSZ 010000Z 14002MPS CAVOK 24/20 Q1014 NOSIG
ZGSZ,2017-05-01 01:00,ZGSZ 010100Z 21003MPS CAVOK 25/20 Q1014 NOSIG
ZGSZ,2017-05-01 02:00,ZGSZ 010200Z 22003MPS CAVOK 26/20 Q1014 NOSIG
ZGSZ,2017-05-01 03:00,ZGSZ 010300Z 23003MPS 200V260 CAVOK 27/21 Q1014 NOSIG
ZGSZ,2017-05-01 04:00,ZGSZ 010400Z 25004MPS CAVOK 27/21 Q1013 NOSIG
ZGSZ,2017-05-01 05:00,ZGSZ 010500Z 24004MPS CAVOK 27/21 Q1012 NOSIG
ZGSZ,2017-05-01 06:00,ZGSZ 010600Z 24004MPS CAVOK 27/21 Q1011 NOSIG
ZGSZ,2017-05-01 07:00,ZGSZ 010700Z 23005MPS CAVOK 27/21 Q1011 NOSIG
ZGSZ,2017-05-01 08:00,ZGSZ 010800Z 21005MPS 9999 SCT050 27/21 Q1010 NOSIG
ZGSZ,2017-05-01 09:00,ZGSZ 010900Z 20006MPS CAVOK 27/21 Q1010 NOSIG
ZGSZ,2017-05-01 10:00,ZGSZ 011000Z 20005MPS CAVOK 26/21 Q1010 NOSIG
ZGSZ,2017-05-01 11:00,ZGSZ 011100Z 23003MPS CAVOK 26/21 Q1011 NOSIG
ZGSZ,2017-05-01 12:00,ZGSZ 011200Z 19004MPS CAVOK 25/22 Q1011 NOSIG
ZGSZ,2017-05-01 13:00,ZGSZ 011300Z 19005MPS CAVOK 25/22 Q1011 NOSIG
ZGSZ,2017-05-01 14:00,ZGSZ 011400Z 18004MPS CAVOK 25/21 Q1012 NOSIG
ZGSZ,2017-05-01 15:00,ZGSZ 011500Z 18005MPS CAVOK 25/21 Q1012 NOSIG
ZGSZ,2017-05-01 16:00,ZGSZ 011600Z 19004MPS CAVOK 25/21 Q1012 NOSIG
ZGSZ,2017-05-01 17:00,ZGSZ 011700Z 17003MPS CAVOK 25/21 Q1012 NOSIG
ZGSZ,2017-05-01 18:00,ZGSZ 011800Z 15003MPS CAVOK 25/21 Q1011 NOSIG
ZGSZ,2017-05-01 19:00,ZGSZ 011900Z 15003MPS 9999 FEW053 25/21 Q1011 NOSIG
ZGSZ,2017-05-01 20:00,ZGSZ 012000Z 15003MPS 9999 BKN036 25/21 Q1011 NOSIG
ZGSZ,2017-05-01 21:00,ZGSZ 012100Z 15003MPS 9999 BKN036 25/21 Q1011 NOSIG
ZGSZ,2017-05-01 22:00,ZGSZ 012200Z 14003MPS CAVOK 25/21 Q1011 NOSIG
ZGSZ,2017-05-01 23:00,ZGSZ 012300Z 14003MPS 9999 SCT030 25/22 Q1012 NOSIG
ZGSZ,2017-05-02 00:00,ZGSZ 020000Z 16003MPS 9999 BKN036 26/22 Q1013 NOSIG
ZGSZ,2017-05-02 01:00,ZGSZ 020100Z 17003MPS 140V210 9999 BKN036 28/22 Q1013 NOSIG
ZGSZ,2017-05-02 02:00,ZGSZ 020200Z 21003MPS CAVOK 28/23 Q1013 NOSIG
ZGSZ,2017-05-02 03:00,ZGSZ 020300Z 22003MPS 9999 BKN033 28/23 Q1013 NOSIG
ZGSZ,2017-05-02 04:00,ZGSZ 020400Z 25002MPS 200V280 9999 BKN040 27/23 Q1012 NOSIG
ZGSZ,2017-05-02 05:00,ZGSZ 020500Z 22004MPS 9999 BKN040 27/23 Q1011 NOSIG
ZGSZ,2017-05-02 06:00,ZGSZ 020600Z 23004MPS 9999 BKN043 28/24 Q1011 NOSIG
ZGSZ,2017-05-02 07:00,ZGSZ 020700Z 22004MPS CAVOK 28/24 Q1010 NOSIG
ZGSZ,2017-05-02 08:00,ZGSZ 020800Z 22004MPS CAVOK 27/24 Q1009 NOSIG
ZGSZ,2017-05-02 09:00,ZGSZ 020900Z 22003MPS CAVOK 27/24 Q1009 NOSIG
ZGSZ,2017-05-02 10:00,ZGSZ 021000Z 21004MPS CAVOK 27/23 Q1009 NOSIG
ZGSZ,2017-05-02 11:00,ZGSZ 021100Z 19004MPS CAVOK 27/24 Q1010 NOSIG
ZGSZ,2017-05-02 12:00,ZGSZ 021200Z 20005MPS CAVOK 27/23 Q1010 NOSIG
ZGSZ,2017-05-02 13:00,ZGSZ 021300Z 18005MPS CAVOK 27/23 Q1011 NOSIG
ZGSZ,2017-05-02 14:00,ZGSZ 021400Z 19004MPS CAVOK 27/23 Q1011 NOSIG
ZGSZ,2017-05-02 15:00,ZGSZ 021500Z 18004MPS 9999 SCT040 27/23 Q1011 NOSIG
ZGSZ,2017-05-02 16:00,ZGSZ 021600Z 20003MPS 9999 SCT040 27/24 Q1011 NOSIG
ZGSZ,2017-05-02 17:00,ZGSZ 021700Z 18004MPS 9999 FEW015 BKN025 27/23 Q1011 NOSIG
ZGSZ,2017-05-02 18:00,ZGSZ 021800Z 19004MPS 9999 FEW013 BKN023 27/23 Q1010 NOSIG
ZGSZ,2017-05-02 19:00,ZGSZ 021900Z 18004MPS 9999 FEW013 BKN023 27/23 Q1010 NOSIG
ZGSZ,2017-05-02 20:00,ZGSZ 022000Z 18004MPS 9999 FEW013 BKN023 26/23 Q1010 NOSIG
ZGSZ,2017-05-02 21:00,ZGSZ 022100Z 20004MPS 9999 FEW013 BKN023 26/23 Q1011 NOSIG
ZGSZ,2017-05-02 22:00,ZGSZ 022200Z 18004MPS 9999 FEW013 BKN023 26/23 Q1011 NOSIG
ZGSZ,2017-05-02 23:00,ZGSZ 022300Z 18004MPS 9999 BKN050 27/23 Q1012 NOSIG
ZGSZ,2017-05-03 00:00,ZGSZ 030000Z 19005MPS 9999 BKN050 28/24 Q1012 NOSIG
ZGSZ,2017-05-03 01:00,ZGSZ 030100Z 19004MPS CAVOK 27/24 Q1012 NOSIG
ZGSZ,2017-05-03 02:00,ZGSZ 030200Z 21004MPS CAVOK 28/24 Q1012 NOSIG
ZGSZ,2017-05-03 03:00,ZGSZ 030300Z 21005MPS CAVOK 29/25 Q1012 NOSIG
ZGSZ,2017-05-03 04:00,ZGSZ 030400Z 21005MPS 9999 BKN050 28/24 Q1011 NOSIG
ZGSZ,2017-05-03 05:00,ZGSZ 030500Z 21006MPS CAVOK 28/24 Q1011 NOSIG
ZGSZ,2017-05-03 06:00,ZGSZ 030600Z 21006MPS CAVOK 29/24 Q1010 NOSIG
ZGSZ,2017-05-03 07:00,ZGSZ 030700Z 20006MPS CAVOK 29/24 Q1009 NOSIG
ZGSZ,2017-05-03 08:00,ZGSZ 030800Z 20007MPS CAVOK 29/24 Q1009 NOSIG
ZGSZ,2017-05-03 09:00,ZGSZ 030900Z 20007MPS CAVOK 28/24 Q1009 NOSIG
ZGSZ,2017-05-03 10:00,ZGSZ 031000Z 20007MPS 9999 SCT026 27/24 Q1009 NOSIG
ZGSZ,2017-05-03 11:00,ZGSZ 031100Z 21005MPS 9999 SCT026 27/24 Q1009 NOSIG
ZGSZ,2017-05-03 12:00,ZGSZ 031200Z 20005MPS 9999 SCT026 27/24 Q1010 NOSIG
ZGSZ,2017-05-03 13:00,ZGSZ 031300Z 19005MPS 9999 SCT026 SCT040 27/24 Q1010 NOSIG
ZGSZ,2017-05-03 14:00,ZGSZ 031400Z 18005MPS 9999 BKN030 27/24 Q1011 NOSIG
ZGSZ,2017-05-03 15:00,ZGSZ 031500Z 18004MPS 9999 BKN030 27/24 Q1011 NOSIG
ZGSZ,2017-05-03 16:00,ZGSZ 031600Z 18006MPS 9999 BKN030 27/24 Q1011 NOSIG
ZGSZ,2017-05-03 17:00,ZGSZ 031700Z 18004MPS 9999 BKN026 27/24 Q1011 NOSIG
ZGSZ,2017-05-03 18:00,ZGSZ 031800Z 19003MPS 9999 BKN026 27/24 Q1011 NOSIG
ZGSZ,2017-05-03 19:00,ZGSZ 031900Z 17003MPS 150V210 9999 BKN020 27/24 Q1010 NOSIG
ZGSZ,2017-05-03 20:00,ZGSZ 032000Z 18007MPS 9999 SCT020 26/23 Q1010 NOSIG
ZGSZ,2017-05-03 21:00,ZGSZ 032100Z 18005MPS 9999 SCT020 27/24 Q1009 NOSIG
ZGSZ,2017-05-03 22:00,ZGSZ 032200Z 18005MPS 9999 BKN023 27/24 Q1009 NOSIG
ZGSZ,2017-05-03 23:00,ZGSZ 032300Z 18004MPS 9999 SCT016 BKN025 27/24 Q1010 BECMG AT2350 TSRA
ZGSZ,2017-05-04 00:00,ZGSZ 040000Z 19004MPS 9999 SCT016 BKN025 27/24 Q1011 BECMG AT0015 TSRA
ZGSZ,2017-05-04 01:00,ZGSZ 040100Z 06005MPS 1400 R33/1600U R34/1600U TSRA BKN010 FEW023CB BKN030 22/21 Q1013 BECMG AT0120 3000 -TSRA
ZGSZ,2017-05-04 02:00,ZGSZ 040200Z 16003MPS 5000 -TSRA BKN010 FEW023CB BKN030 22/21 Q1013 RESHRA BECMG AT0220 3000 -SHRA
ZGSZ,2017-05-04 03:00,ZGSZ 040300Z 29003MPS 260V320 5000 -TSRA BKN006 FEW023CB BKN030 23/22 Q1014 BECMG AT0340 -SHRA SCT010 FEW023CB BKN030
ZGSZ,2017-05-04 04:00,ZGSZ 040400Z 20002MPS 8000 -TSRA BKN006 FEW023CB BKN030 23/22 Q1013 BECMG AT0540 NSW SCT010 BKN030
ZGSZ,2017-05-04 05:00,ZGSZ 040500Z 19004MPS 9999 -SHRA BKN009 BKN030 23/22 Q1012 BECMG TL0545 SCT010 BKN020
ZGSZ,2017-05-04 06:00,ZGSZ 040600Z 20004MPS 9999 -SHRA FEW006 SCT010 BKN030 24/22 Q1012 BECMG AT0630 BKN009 BKN030
ZGSZ,2017-05-04 07:00,ZGSZ 040700Z 25002MPS 200V270 8000 -SHRA BKN009 FEW023TCU BKN030 23/22 Q1012 BECMG AT0830 SCT010 BKN030
ZGSZ,2017-05-04 08:00,ZGSZ 040800Z 23002MPS 200V260 9999 FEW012 BKN053 24/22 Q1011 NOSIG
ZGSZ,2017-05-04 09:00,ZGSZ 040900Z 24002MPS 9999 FEW014 24/22 Q1011 NOSIG
ZGSZ,2017-05-04 10:00,ZGSZ 041000Z 22002MPS 190V260 9999 BKN053 24/22 Q1011 NOSIG
ZGSZ,2017-05-04 11:00,ZGSZ 041100Z 23002MPS 9999 BKN053 24/22 Q1011 NOSIG
ZGSZ,2017-05-04 12:00,ZGSZ 041200Z 00000MPS CAVOK 24/22 Q1011 NOSIG
ZGSZ,2017-05-04 13:00,ZGSZ 041300Z VRB01MPS CAVOK 24/22 Q1012 NOSIG
ZGSZ,2017-05-04 14:00,ZGSZ 041400Z VRB01MPS CAVOK 24/22 Q1012 NOSIG
ZGSZ,2017-05-04 15:00,ZGSZ 041500Z VRB01MPS 8000 FEW020 24/22 Q1013 NOSIG
ZGSZ,2017-05-04 16:00,ZGSZ 041600Z 00000MPS 5000 BR FEW020 23/22 Q1013 NOSIG
ZGSZ,2017-05-04 17:00,ZGSZ 041700Z VRB01MPS 5000 BR FEW020 24/22 Q1013 NOSIG
ZGSZ,2017-05-04 18:00,ZGSZ 041800Z VRB01MPS 5000 BR SCT017 24/22 Q1012 NOSIG
ZGSZ,2017-05-04 19:00,ZGSZ 041900Z VRB01MPS 4500 BR SCT017 24/23 Q1012 NOSIG
ZGSZ,2017-05-04 20:00,ZGSZ 042000Z 36001MPS 5000 BR SCT017 24/23 Q1012 NOSIG
ZGSZ,2017-05-04 21:00,ZGSZ 042100Z 35002MPS 2600 BR BKN030 24/23 Q1012 NOSIG
ZGSZ,2017-05-04 22:00,ZGSZ 042200Z 35002MPS 1800 BR BKN030 24/23 Q1013 BECMG FM2340 3000
ZGSZ,2017-05-04 23:00,ZGSZ 042300Z VRB01MPS 1700 BR BKN030 24/23 Q1014 BECMG AT0040 3100 BR
ZGSZ,2017-05-05 00:00,ZGSZ 050000Z 07002MPS 020V100 1700 R15/1300V1400N R16/1600N BR BKN030 25/23 Q1014 BECMG AT0040 3100 BR
ZGSZ,2017-05-05 01:00,ZGSZ 050100Z VRB02MPS 2200 BR FEW014 BKN030 26/23 Q1014 BECMG AT0230 3100
ZGSZ,2017-05-05 02:00,ZGSZ 050200Z 31003MPS 2800 BR BKN040 26/23 Q1015 BECMG AT0230 3100
ZGSZ,2017-05-05 03:00,ZGSZ 050300Z 33004MPS 3200 BR BKN040 26/23 Q1015 NOSIG
ZGSZ,2017-05-05 04:00,ZGSZ 050400Z 33004MPS 3400 HZ BKN030 28/23 Q1014 NOSIG
ZGSZ,2017-05-05 05:00,ZGSZ 050500Z 29003MPS 3500 HZ BKN030 28/23 Q1014 NOSIG
ZGSZ,2017-05-05 06:00,ZGSZ 050600Z 28003MPS 260V320 3800 HZ BKN033 29/22 Q1013 NOSIG
ZGSZ,2017-05-05 07:00,ZGSZ 050700Z 24003MPS 5000 HZ FEW033 29/23 Q1013 NOSIG
ZGSZ,2017-05-05 08:00,ZGSZ 050800Z 23002MPS 200V260 7000 NSC 29/23 Q1012 NOSIG
ZGSZ,2017-05-05 09:00,ZGSZ 050900Z 23002MPS CAVOK 29/23 Q1012 NOSIG
ZGSZ,2017-05-05 10:00,ZGSZ 051000Z 22002MPS CAVOK 28/23 Q1012 NOSIG
ZGSZ,2017-05-05 11:00,ZGSZ 051100Z 22002MPS 6000 NSC 27/23 Q1013 NOSIG
ZGSZ,2017-05-05 12:00,ZGSZ 051200Z 21003MPS 4000 BR NSC 27/24 Q1013 NOSIG
ZGSZ,2017-05-05 13:00,ZGSZ 051300Z 19002MPS 3000 BR NSC 26/24 Q1014 NOSIG
ZGSZ,2017-05-05 14:00,ZGSZ 051400Z 18003MPS 1800 BR SCT030 26/24 Q1015 NOSIG
ZGSZ,2017-05-05 15:00,ZGSZ 051500Z 21003MPS 2000 BR SCT030 26/24 Q1015 NOSIG
ZGSZ,2017-05-05 16:00,ZGSZ 051600Z 20002MPS 2000 BR FEW030 26/24 Q1015 NOSIG
ZGSZ,2017-05-05 17:00,ZGSZ 051700Z 00000MPS 2000 BR SCT028 25/24 Q1014 NOSIG
ZGSZ,2017-05-05 18:00,ZGSZ 051800Z 18001MPS 2500 BR NSC 26/24 Q1014 NOSIG
ZGSZ,2017-05-05 19:00,ZGSZ 051900Z 00000MPS 2500 BR NSC 26/24 Q1014 NOSIG
ZGSZ,2017-05-05 20:00,ZGSZ 052000Z 22002MPS 3500 BR NSC 26/24 Q1014 NOSIG
ZGSZ,2017-05-05 21:00,ZGSZ 052100Z 20002MPS 2500 BR NSC 25/24 Q1015 NOSIG
ZGSZ,2017-05-05 22:00,ZGSZ 052200Z 19002MPS 1900 BR NSC 25/24 Q1015 NOSIG
ZGSZ,2017-05-05 23:00,ZGSZ 052300Z VRB01MPS 1900 BR NSC 26/23 Q1016 NOSIG
ZGSZ,2017-05-06 00:00,ZGSZ 060000Z 05003MPS 020V090 2100 BR BKN050 27/23 Q1016 BECMG AT0130 3000 BR
ZGSZ,2017-05-06 01:00,ZGSZ 060100Z 03003MPS 330V060 3500 HZ BKN043 28/23 Q1016 NOSIG
ZGSZ,2017-05-06 02:00,ZGSZ 060200Z 07004MPS 020V150 3500 HZ BKN043 29/23 Q1016 NOSIG
ZGSZ,2017-05-06 03:00,ZGSZ 060300Z 07004MPS 4000 HZ SCT043 30/22 Q1016 NOSIG
ZGSZ,2017-05-06 04:00,ZGSZ 060400Z 07003MPS 020V130 7000 SCT043 32/22 Q1015 NOSIG
ZGSZ,2017-05-06 05:00,ZGSZ 060500Z VRB02MPS 7000 SCT043 32/22 Q1014 NOSIG
ZGSZ,2017-05-06 06:00,ZGSZ 060600Z 28003MPS 6000 SCT043 30/24 Q1013 NOSIG
ZGSZ,2017-05-06 07:00,ZGSZ 060700Z 27003MPS 6000 SCT043 31/23 Q1013 NOSIG
ZGSZ,2017-05-06 08:00,ZGSZ 060800Z 25003MPS 3500 HZ SCT043 30/24 Q1012 NOSIG
ZGSZ,2017-05-06 09:00,ZGSZ 060900Z 21005MPS 3000 BR SCT033 29/25 Q1012 BECMG AT0930 2800
ZGSZ,2017-05-06 10:00,ZGSZ 061000Z 21004MPS 2500 BR SCT033 28/25 Q1012 NOSIG
ZGSZ,2017-05-06 11:00,ZGSZ 061100Z 22004MPS 2900 BR SCT033 27/24 Q1013 BECMG AT1130 3100
ZGSZ,2017-05-06 12:00,ZGSZ 061200Z 24004MPS 8000 NSC 27/24 Q1013 NOSIG
ZGSZ,2017-05-06 13:00,ZGSZ 061300Z 20003MPS 100V220 8000 NSC 27/24 Q1014 NOSIG
ZGSZ,2017-05-06 14:00,ZGSZ 061400Z 14005MPS CAVOK 28/23 Q1015 NOSIG
ZGSZ,2017-05-06 15:00,ZGSZ 061500Z 14003MPS 8000 NSC 27/23 Q1015 NOSIG
ZGSZ,2017-05-06 16:00,ZGSZ 061600Z 13003MPS 100V160 7000 FEW018 BKN033 27/24 Q1015 NOSIG
ZGSZ,2017-05-06 17:00,ZGSZ 061700Z 14004MPS 7000 FEW018 BKN033 27/23 Q1015 NOSIG
ZGSZ,2017-05-06 18:00,ZGSZ 061800Z 14004MPS 8000 FEW016 BKN030 27/23 Q1014 NOSIG
ZGSZ,2017-05-06 19:00,ZGSZ 061900Z 14003MPS 8000 BKN026 27/23 Q1014 NOSIG
ZGSZ,2017-05-06 20:00,ZGSZ 062000Z 14004MPS 6000 FEW015 BKN026 26/23 Q1013 NOSIG
ZGSZ,2017-05-06 21:00,ZGSZ 062100Z 14003MPS 8000 FEW015 BKN026 26/23 Q1013 NOSIG
ZGSZ,2017-05-06 22:00,ZGSZ 062200Z 14004MPS 8000 FEW015 BKN026 26/23 Q1013 NOSIG
ZGSZ,2017-05-06 23:00,ZGSZ 062300Z 14004MPS 8000 FEW015 SCT033 26/23 Q1014 NOSIG
ZGSZ,2017-05-07 00:00,ZGSZ 070000Z 14005MPS 110V170 9999 FEW020 SCT033 27/23 Q1015 NOSIG
ZGSZ,2017-05-07 01:00,ZGSZ 070100Z 14005MPS 9999 FEW020 BKN033 27/23 Q1015 NOSIG
ZGSZ,2017-05-07 02:00,ZGSZ 070200Z 14006MPS 9999 FEW021 BKN046 28/23 Q1015 NOSIG
ZGSZ,2017-05-07 03:00,ZGSZ 070300Z 15005MPS 9999 SCT021 BKN046 29/22 Q1015 NOSIG
ZGSZ,2017-05-07 04:00,ZGSZ 070400Z 16006MPS 9999 SCT030 BKN053 29/22 Q1014 NOSIG
ZGSZ,2017-05-07 05:00,ZGSZ 070500Z 20005MPS 9999 FEW030 BKN053 29/23 Q1014 NOSIG
ZGSZ,2017-05-07 06:00,ZGSZ 070600Z 21005MPS 9999 FEW033TCU 29/23 Q1013 NOSIG
ZGSZ,2017-05-07 07:00,ZGSZ 070700Z 22006MPS 9999 FEW033TCU 29/24 Q1012 NOSIG
ZGSZ,2017-05-07 08:00,ZGSZ 070800Z VRB03MPS 9999 FEW033TCU 29/23 Q1012 NOSIG
ZGSZ,2017-05-07 09:00,ZGSZ 070900Z 34002MPS 310V040 9999 FEW030TCU BKN040 28/23 Q1011 NOSIG
ZGSZ,2017-05-07 10:00,ZGSZ 071000Z 19004MPS 9999 FEW030TCU BKN040 28/22 Q1011 NOSIG
ZGSZ,2017-05-07 11:00,ZGSZ 071100Z 13005MPS 9999 SCT040 FEW050TCU 27/21 Q1012 NOSIG
ZGSZ,2017-05-07 12:00,ZGSZ 071200Z 14004MPS 9999 SCT040 27/21 Q1013 NOSIG
ZGSZ,2017-05-07 13:00,ZGSZ 071300Z 14004MPS CAVOK 26/21 Q1014 NOSIG
ZGSZ,2017-05-07 14:00,ZGSZ 071400Z 14004MPS CAVOK 26/21 Q1015 NOSIG
ZGSZ,2017-05-07 15:00,ZGSZ 071500Z 14004MPS CAVOK 25/21 Q1015 NOSIG
ZGSZ,2017-05-07 16:00,ZGSZ 071600Z 14004MPS CAVOK 25/21 Q1014 NOSIG
ZGSZ,2017-05-07 17:00,ZGSZ 071700Z 14005MPS CAVOK 25/21 Q1014 NOSIG
ZGSZ,2017-05-07 18:00,ZGSZ 071800Z 14004MPS CAVOK 25/21 Q1013 NOSIG
ZGSZ,2017-05-07 19:00,ZGSZ 071900Z 15004MPS CAVOK 25/21 Q1013 NOSIG
ZGSZ,2017-05-07 20:00,ZGSZ 072000Z 14005MPS 9999 BKN050 25/20 Q1012 NOSIG
ZGSZ,2017-05-07 21:00,ZGSZ 072100Z 14004MPS 9999 BKN050 25/20 Q1012 NOSIG
ZGSZ,2017-05-07 22:00,ZGSZ 072200Z 15004MPS 9999 BKN050 25/21 Q1012 NOSIG
ZGSZ,2017-05-07 23:00,ZGSZ 072300Z 15006MPS 9999 BKN050 25/22 Q1012 NOSIG
ZGSZ,2017-05-08 00:00,ZGSZ 080000Z 14005MPS CAVOK 27/22 Q1012 NOSIG
ZGSZ,2017-05-08 01:00,ZGSZ 080100Z 18003MPS 140V230 9999 FEW053 28/22 Q1013 NOSIG
ZGSZ,2017-05-08 02:00,ZGSZ 080200Z 20004MPS CAVOK 29/23 Q1012 NOSIG
ZGSZ,2017-05-08 03:00,ZGSZ 080300Z 22003MPS 9999 SCT040 28/23 Q1012 NOSIG
ZGSZ,2017-05-08 04:00,ZGSZ 080400Z 22005MPS CAVOK 28/23 Q1012 NOSIG
ZGSZ,2017-05-08 05:00,ZGSZ 080500Z 22005MPS CAVOK 28/24 Q1011 NOSIG
ZGSZ,2017-05-08 06:00,ZGSZ 080600Z 21005MPS CAVOK 28/24 Q1010 NOSIG
ZGSZ,2017-05-08 07:00,ZGSZ 080700Z 21005MPS CAVOK 29/24 Q1009 NOSIG
ZGSZ,2017-05-08 08:00,ZGSZ 080800Z 21005MPS 9999 FEW033 29/24 Q1008 NOSIG
ZGSZ,2017-05-08 09:00,ZGSZ 080900Z 21006MPS 9999 SCT033 28/24 Q1007 NOSIG
ZGSZ,2017-05-08 10:00,ZGSZ 081000Z 21005MPS 9999 BKN036 28/24 Q1008 NOSIG
ZGSZ,2017-05-08 11:00,ZGSZ 081100Z 20004MPS 8000 NSC 27/24 Q1009 BECMG AT1230 33007G12MPS 1500 TSRA
ZGSZ,2017-05-08 12:00,ZGSZ 081200Z 20004MPS 8000 NSC 27/24 Q1010 BECMG AT1230 33007G12MPS 2000 TSRA
ZGSZ,2017-05-08 13:00,ZGSZ 081300Z 21002MPS 9000 FEW050 27/23 Q1011 BECMG AT1320 TSRA
ZGSZ,2017-05-08 14:00,ZGSZ 081400Z 31003MPS 260V340 2500 R33/P2000 R34/1100U TSRA SCT010 FEW020CB BKN033 21/21 Q1013 BECMG AT1430 17004MPS 3000 -SHRA
ZGSZ,2017-05-08 15:00,ZGSZ 081500Z 24003MPS 210V270 5000 -SHRA OVC050 22/21 Q1013 NOSIG
ZGSZ,2017-05-08 16:00,ZGSZ 081600Z 19003MPS 9999 -SHRA SCT011 BKN050 23/21 Q1012 NOSIG
ZGSZ,2017-05-08 17:00,ZGSZ 081700Z 19003MPS 9999 -SHRA SCT011 BKN050 23/22 Q1012 NOSIG
ZGSZ,2017-05-08 18:00,ZGSZ 081800Z 19004MPS 9999 -SHRA SCT011 BKN050 23/22 Q1012 NOSIG
ZGSZ,2017-05-08 19:00,ZGSZ 081900Z 22003MPS 9999 -SHRA SCT011 BKN050 23/22 Q1012 NOSIG
ZGSZ,2017-05-08 20:00,ZGSZ 082000Z VRB01MPS 9999 -SHRA SCT011 BKN050 23/22 Q1011 NOSIG
ZGSZ,2017-05-08 21:00,ZGSZ 082100Z 23002MPS 9999 SCT010 BKN050 24/22 Q1011 NOSIG
ZGSZ,2017-05-08 22:00,ZGSZ 082200Z 33003MPS 9999 BKN009 BKN050 24/22 Q1011 NOSIG
ZGSZ,2017-05-08 23:00,ZGSZ 082300Z 01004MPS 6000 BKN009 BKN050 24/22 Q1012 BECMG AT0030 SCT009 BKN050
ZGSZ,2017-05-09 00:00,ZGSZ 090000Z 03003MPS 360V060 4500 BR BKN009 BKN050 25/23 Q1013 BECMG AT0030 SCT009 BKN050
ZGSZ,2017-05-09 01:00,ZGSZ 090100Z 03002MPS 350V080 5000 BR FEW015 26/22 Q1013 NOSIG
ZGSZ,2017-05-09 02:00,ZGSZ 090200Z 06003MPS 010V100 5000 BR FEW018 26/22 Q1014 NOSIG
ZGSZ,2017-05-09 03:00,ZGSZ 090300Z 30003MPS 5000 BR FEW021 BKN050 27/23 Q1014 NOSIG
ZGSZ,2017-05-09 04:00,ZGSZ 090400Z 30004MPS 5000 BR FEW021 BKN050 28/23 Q1014 NOSIG
ZGSZ,2017-05-09 05:00,ZGSZ 090500Z 32004MPS 5000 BR FEW030 28/23 Q1013 NOSIG
ZGSZ,2017-05-09 06:00,ZGSZ 090600Z 32004MPS 5000 HZ NSC 28/23 Q1012 NOSIG
ZGSZ,2017-05-09 07:00,ZGSZ 090700Z 33003MPS 5000 HZ NSC 28/23 Q1011 NOSIG
ZGSZ,2017-05-09 08:00,ZGSZ 090800Z 31002MPS 5000 HZ FEW033 28/22 Q1011 NOSIG
ZGSZ,2017-05-09 09:00,ZGSZ 090900Z 29002MPS 260V320 5000 HZ FEW033 28/22 Q1011 NOSIG
ZGSZ,2017-05-09 10:00,ZGSZ 091000Z 28002MPS 240V310 6000 NSC 28/23 Q1011 NOSIG
ZGSZ,2017-05-09 11:00,ZGSZ 091100Z 24002MPS 210V270 4000 BR FEW040 27/23 Q1011 NOSIG
ZGSZ,2017-05-09 12:00,ZGSZ 091200Z 24002MPS 210V290 3500 BR FEW040 27/24 Q1012 NOSIG
ZGSZ,2017-05-09 13:00,ZGSZ 091300Z VRB01MPS 3200 BR FEW040 26/24 Q1012 BECMG AT1330 2700
ZGSZ,2017-05-09 14:00,ZGSZ 091400Z 00000MPS 2700 BR NSC 26/24 Q1013 BECMG AT1430 3100
ZGSZ,2017-05-09 15:00,ZGSZ 091500Z 00000MPS 2000 BR NSC 26/24 Q1013 NOSIG
ZGSZ,2017-05-09 16:00,ZGSZ 091600Z 26001MPS 2000 BR NSC 26/24 Q1013 NOSIG
ZGSZ,2017-05-09 17:00,ZGSZ 091700Z 19002MPS 160V220 1800 BR NSC 26/24 Q1013 NOSIG
ZGSZ,2017-05-09 18:00,ZGSZ 091800Z 23002MPS 1800 BR SCT020 26/24 Q1012 NOSIG
ZGSZ,2017-05-09 19:00,ZGSZ 091900Z 28002MPS 250V330 1600 BR BKN033 26/24 Q1012 NOSIG
ZGSZ,2017-05-09 20:00,ZGSZ 092000Z 32001MPS 1600 BR BKN033 26/24 Q1012 NOSIG
ZGSZ,2017-05-09 21:00,ZGSZ 092100Z 31002MPS 1200 R15/P2000 R16/P2000 BR BKN033 26/24 Q1013 NOSIG
ZGSZ,2017-05-09 22:00,ZGSZ 092200Z 29002MPS 1000 R15/1600D R16/1500D BR FEW012 BKN033 26/24 Q1013 BECMG TL2350 1800
ZGSZ,2017-05-09 23:00,ZGSZ 092300Z 36002MPS 0800 R15/0900V1000N R16/0900V1100N FG SCT010 BKN023 26/24 Q1014 BECMG TL0040 1600
ZGSZ,2017-05-10 00:00,ZGSZ 100000Z 31002MPS 0800 R15/1000V1100U R16/0900V1000N FG SCT010 BKN023 26/24 Q1014 BECMG TL0120 1600
ZGSZ,2017-05-10 01:00,ZGSZ 100100Z 33002MPS 1000 R15/1000V1100N R16/0900V1000U BR FEW010 27/25 Q1015 BECMG TL0140 1600
ZGSZ,2017-05-10 02:00,ZGSZ 100200Z 28002MPS 1800 R15/1100V1200U R16/1400N BR FEW015 27/24 Q1015 BECMG TL0330 3000 HZ
ZGSZ,2017-05-10 03:00,ZGSZ 100300Z 32002MPS 1800 R15/1100V1200N R16/1200V1300N BR FEW015 28/25 Q1015 BECMG TL0430 3000 HZ
ZGSZ,2017-05-10 04:00,ZGSZ 100400Z 31002MPS 1800 R15/1100V1200D R16/1200V1300N BR FEW015 28/24 Q1015 BECMG TL0550 3000
ZGSZ,2017-05-10 05:00,ZGSZ 100500Z 31002MPS 1800 R15/1200V1300N R16/1400N BR FEW015 29/25 Q1014 BECMG TL0550 3000
ZGSZ,2017-05-10 06:00,ZGSZ 100600Z 28002MPS 250V320 1800 R15/1500U R16/1400N BR FEW010 BKN021 28/24 Q1013 NOSIG
ZGSZ,2017-05-10 07:00,ZGSZ 100700Z 27002MPS 240V300 2000 R15/1500N R16/1300N BR FEW010 BKN021 29/25 Q1013 BECMG TL0850 3000 HZ
ZGSZ,2017-05-10 08:00,ZGSZ 100800Z 25002MPS 190V270 2000 R15/1400N R16/1200V1400N BR FEW010 BKN021 29/25 Q1012 BECMG TL0850 3000 HZ
ZGSZ,2017-05-10 09:00,ZGSZ 100900Z 20003MPS 3000 R15/1400N R16/1100V1200N BR SCT010 BKN026 28/25 Q1012 BECMG TL0930 2000
ZGSZ,2017-05-10 10:00,ZGSZ 101000Z 20004MPS 2900 BR SCT010 BKN033 28/24 Q1012 BECMG AT1020 3100
ZGSZ,2017-05-10 11:00,ZGSZ 101100Z 20002MPS 3500 BR NSC 28/24 Q1013 NOSIG
ZGSZ,2017-05-10 12:00,ZGSZ 101200Z 14004MPS 6000 NSC 28/22 Q1013 NOSIG
ZGSZ,2017-05-10 13:00,ZGSZ 101300Z 14004MPS 7000 NSC 27/23 Q1013 NOSIG
ZGSZ,2017-05-10 14:00,ZGSZ 101400Z 14002MPS CAVOK 27/23 Q1014 NOSIG
ZGSZ,2017-05-10 15:00,ZGSZ 101500Z 15003MPS CAVOK 27/22 Q1015 NOSIG
ZGSZ,2017-05-10 16:00,ZGSZ 101600Z 16003MPS CAVOK 27/23 Q1015 NOSIG
ZGSZ,2017-05-10 17:00,ZGSZ 101700Z 12003MPS 090V160 7000 NSC 26/23 Q1014 NOSIG
ZGSZ,2017-05-10 18:00,ZGSZ 101800Z 12003MPS 090V150 8000 NSC 26/23 Q1013 NOSIG
ZGSZ,2017-05-10 19:00,ZGSZ 101900Z 14003MPS 6000 NSC 26/23 Q1013 NOSIG
ZGSZ,2017-05-10 20:00,ZGSZ 102000Z 14003MPS 100V190 5000 BR NSC 26/23 Q1013 NOSIG
ZGSZ,2017-05-10 21:00,ZGSZ 102100Z 13002MPS 5000 BR NSC 25/23 Q1013 NOSIG
ZGSZ,2017-05-10 22:00,ZGSZ 102200Z 12002MPS 100V160 4000 BR NSC 25/23 Q1014 NOSIG
ZGSZ,2017-05-10 23:00,ZGSZ 102300Z 14002MPS 110V180 4500 BR NSC 26/23 Q1014 NOSIG
ZGSZ,2017-05-11 00:00,ZGSZ 110000Z 15003MPS 5000 BR FEW023 27/23 Q1015 NOSIG
ZGSZ,2017-05-11 01:00,ZGSZ 110100Z 22002MPS 8000 FEW020 BKN053 28/24 Q1015 NOSIG
ZGSZ,2017-05-11 02:00,ZGSZ 110200Z 28002MPS 5000 BR FEW020 SCT053 28/24 Q1015 NOSIG
ZGSZ,2017-05-11 03:00,ZGSZ 110300Z 27003MPS 240V300 5000 BR FEW020 SCT053 28/24 Q1015 NOSIG
ZGSZ,2017-05-11 04:00,ZGSZ 110400Z 26003MPS 5000 BR FEW023 29/24 Q1015 NOSIG
ZGSZ,2017-05-11 05:00,ZGSZ 110500Z 24003MPS 5000 BR FEW023 29/24 Q1014 NOSIG
ZGSZ,2017-05-11 06:00,ZGSZ 110600Z 23003MPS 7000 FEW023 30/23 Q1013 NOSIG
ZGSZ,2017-05-11 07:00,ZGSZ 110700Z 23004MPS CAVOK 29/24 Q1012 NOSIG
ZGSZ,2017-05-11 08:00,ZGSZ 110800Z 23004MPS CAVOK 29/24 Q1011 NOSIG
ZGSZ,2017-05-11 09:00,ZGSZ 110900Z 22005MPS CAVOK 29/25 Q1011 NOSIG
ZGSZ,2017-05-11 10:00,ZGSZ 111000Z 23006MPS CAVOK 28/24 Q1011 BECMG AT1150 15004MPS
ZGSZ,2017-05-11 11:00,ZGSZ 111100Z 22005MPS CAVOK 27/24 Q1012 BECMG AT1150 15004MPS
ZGSZ,2017-05-11 12:00,ZGSZ 111200Z 21005MPS CAVOK 27/25 Q1012 NOSIG
ZGSZ,2017-05-11 13:00,ZGSZ 111300Z 21004MPS CAVOK 27/24 Q1012 NOSIG
ZGSZ,2017-05-11 14:00,ZGSZ 111400Z 20004MPS CAVOK 27/24 Q1013 NOSIG
ZGSZ,2017-05-11 15:00,ZGSZ 111500Z 20004MPS CAVOK 27/24 Q1013 NOSIG
ZGSZ,2017-05-11 16:00,ZGSZ 111600Z 18004MPS CAVOK 27/23 Q1013 NOSIG
ZGSZ,2017-05-11 17:00,ZGSZ 111700Z 19004MPS CAVOK 27/23 Q1012 NOSIG
ZGSZ,2017-05-11 18:00,ZGSZ 111800Z 22003MPS CAVOK 27/24 Q1012 NOSIG
ZGSZ,2017-05-11 19:00,ZGSZ 111900Z 21002MPS CAVOK 26/24 Q1011 NOSIG
ZGSZ,2017-05-11 20:00,ZGSZ 112000Z 21002MPS 9999 BKN022 26/24 Q1011 NOSIG
ZGSZ,2017-05-11 21:00,ZGSZ 112100Z 21002MPS 9999 BKN022 26/24 Q1011 NOSIG
ZGSZ,2017-05-11 22:00,ZGSZ 112200Z 20002MPS 9999 FEW030 26/24 Q1011 NOSIG
ZGSZ,2017-05-11 23:00,ZGSZ 112300Z 23003MPS 9999 FEW030 27/24 Q1012 NOSIG
ZGSZ,2017-05-12 00:00,ZGSZ 120000Z 29003MPS 7000 BKN020 27/25 Q1012 NOSIG
ZGSZ,2017-05-12 01:00,ZGSZ 120100Z 35003MPS 310V020 7000 BKN017 28/24 Q1013 NOSIG
ZGSZ,2017-05-12 02:00,ZGSZ 120200Z 33003MPS 7000 NSC 29/24 Q1012 NOSIG
ZGSZ,2017-05-12 03:00,ZGSZ 120300Z 22002MPS 190V260 CAVOK 30/24 Q1012 NOSIG
ZGSZ,2017-05-12 04:00,ZGSZ 120400Z 23002MPS 6000 NSC 30/24 Q1012 NOSIG
ZGSZ,2017-05-12 05:00,ZGSZ 120500Z 28002MPS 240V330 8000 NSC 29/24 Q1011 NOSIG
ZGSZ,2017-05-12 06:00,ZGSZ 120600Z 34005MPS CAVOK 30/21 Q1010 NOSIG
ZGSZ,2017-05-12 07:00,ZGSZ 120700Z 34006MPS 9999 SCT030 29/21 Q1010 NOSIG
ZGSZ,2017-05-12 08:00,ZGSZ 120800Z 34005MPS 9999 FEW030 29/22 Q1009 NOSIG
ZGSZ,2017-05-12 09:00,ZGSZ 120900Z 34006MPS 9999 BKN030 28/21 Q1009 NOSIG
ZGSZ,2017-05-12 10:00,ZGSZ 121000Z 35004MPS 9999 BKN030 28/21 Q1009 NOSIG
ZGSZ,2017-05-12 11:00,ZGSZ 121100Z 33004MPS 9999 BKN030 27/21 Q1009 NOSIG
ZGSZ,2017-05-12 12:00,ZGSZ 121200Z 36003MPS 9999 FEW036 27/22 Q1009 NOSIG
ZGSZ,2017-05-12 13:00,ZGSZ 121300Z 31002MPS 280V340 9999 FEW036 27/22 Q1009 NOSIG
ZGSZ,2017-05-12 14:00,ZGSZ 121400Z 30003MPS 9999 FEW036 27/22 Q1010 NOSIG
ZGSZ,2017-05-12 15:00,ZGSZ 121500Z 30003MPS 9999 SCT053 27/22 Q1011 NOSIG
ZGSZ,2017-05-12 16:00,ZGSZ 121600Z VRB01MPS 8000 SCT053 26/22 Q1010 NOSIG
ZGSZ,2017-05-12 17:00,ZGSZ 121700Z 33002MPS CAVOK 26/23 Q1010 NOSIG
ZGSZ,2017-05-12 18:00,ZGSZ 121800Z VRB01MPS CAVOK 26/23 Q1010 NOSIG
ZGSZ,2017-05-12 19:00,ZGSZ 121900Z 29002MPS 250V310 CAVOK 26/23 Q1009 NOSIG
ZGSZ,2017-05-12 20:00,ZGSZ 122000Z 30002MPS CAVOK 26/23 Q1009 NOSIG
ZGSZ,2017-05-12 21:00,ZGSZ 122100Z 32002MPS CAVOK 26/22 Q1009 NOSIG
ZGSZ,2017-05-12 22:00,ZGSZ 122200Z 32002MPS CAVOK 26/22 Q1009 NOSIG
ZGSZ,2017-05-12 23:00,ZGSZ 122300Z 33002MPS CAVOK 26/22 Q1010 NOSIG
ZGSZ,2017-05-13 00:00,ZGSZ 130000Z 32003MPS CAVOK 26/22 Q1011 NOSIG
ZGSZ,2017-05-13 01:00,ZGSZ 130100Z 34003MPS 8000 -SHRA BKN040 26/23 Q1011 NOSIG
ZGSZ,2017-05-13 02:00,ZGSZ 130200Z 33002MPS 8000 -SHRA BKN030 26/22 Q1011 NOSIG
ZGSZ,2017-05-13 03:00,ZGSZ 130300Z 30002MPS 270V330 8000 FEW030 27/22 Q1011 NOSIG
ZGSZ,2017-05-13 04:00,ZGSZ 130400Z 33003MPS 7000 FEW030 27/22 Q1011 NOSIG
ZGSZ,2017-05-13 05:00,ZGSZ 130500Z 34006MPS 8000 -SHRA FEW020 BKN050 24/22 Q1011 NOSIG
ZGSZ,2017-05-13 06:00,ZGSZ 130600Z 32002MPS 5000 SHRA BR FEW020TCU BKN030 24/23 Q1010 BECMG AT0620 -SHRA
ZGSZ,2017-05-13 07:00,ZGSZ 130700Z 00000MPS 9999 -SHRA FEW020 BKN040 24/23 Q1010 BECMG AT0740 SHRA
ZGSZ,2017-05-13 08:00,ZGSZ 130800Z 00000MPS 9999 BKN040 24/22 Q1009 NOSIG
ZGSZ,2017-05-13 09:00,ZGSZ 130900Z VRB01MPS 9999 -SHRA SCT030 24/23 Q1008 NOSIG
ZGSZ,2017-05-13 10:00,ZGSZ 131000Z 16002MPS 100V270 CAVOK 25/22 Q1008 NOSIG
ZGSZ,2017-05-13 11:00,ZGSZ 131100Z 19003MPS CAVOK 25/22 Q1009 NOSIG
ZGSZ,2017-05-13 12:00,ZGSZ 131200Z 14002MPS CAVOK 25/22 Q1009 NOSIG
ZGSZ,2017-05-13 13:00,ZGSZ 131300Z 13002MPS 100V160 CAVOK 25/23 Q1010 NOSIG
ZGSZ,2017-05-13 14:00,ZGSZ 131400Z 14002MPS CAVOK 25/23 Q1011 NOSIG
ZGSZ,2017-05-13 15:00,ZGSZ 131500Z VRB01MPS CAVOK 25/22 Q1011 NOSIG
ZGSZ,2017-05-13 16:00,ZGSZ 131600Z 15002MPS 090V180 CAVOK 25/22 Q1011 NOSIG
ZGSZ,2017-05-13 17:00,ZGSZ 131700Z 10002MPS CAVOK 25/22 Q1010 NOSIG
ZGSZ,2017-05-13 18:00,ZGSZ 131800Z 07001MPS CAVOK 25/22 Q1010 NOSIG
ZGSZ,2017-05-13 19:00,ZGSZ 131900Z 00000MPS CAVOK 24/22 Q1010 NOSIG
ZGSZ,2017-05-13 20:00,ZGSZ 132000Z 14002MPS 8000 FEW030 24/22 Q1010 NOSIG
ZGSZ,2017-05-13 21:00,ZGSZ 132100Z VRB01MPS 7000 FEW030 24/22 Q1010 NOSIG
ZGSZ,2017-05-13 22:00,ZGSZ 132200Z 10001MPS 5000 BR BKN036 24/23 Q1011 NOSIG
ZGSZ,2017-05-13 23:00,ZGSZ 132300Z 11001MPS 5000 BR BKN026 25/23 Q1011 NOSIG
ZGSZ,2017-05-14 00:00,ZGSZ 140000Z 10002MPS 5000 BR BKN040 27/23 Q1011 NOSIG
ZGSZ,2017-05-14 01:00,ZGSZ 140100Z VRB01MPS 6000 BKN050 27/23 Q1011 NOSIG
ZGSZ,2017-05-14 02:00,ZGSZ 140200Z VRB01MPS 7000 BKN050 28/22 Q1012 NOSIG
ZGSZ,2017-05-14 03:00,ZGSZ 140300Z 28002MPS 6000 FEW050 28/23 Q1011 NOSIG
ZGSZ,2017-05-14 04:00,ZGSZ 140400Z 25003MPS 210V280 7000 NSC 29/24 Q1011 NOSIG
ZGSZ,2017-05-14 05:00,ZGSZ 140500Z 25003MPS 7000 NSC 28/24 Q1010 NOSIG
ZGSZ,2017-05-14 06:00,ZGSZ 140600Z 26002MPS 220V290 8000 FEW026 29/24 Q1009 NOSIG
ZGSZ,2017-05-14 07:00,ZGSZ 140700Z 23003MPS CAVOK 29/24 Q1008 NOSIG
ZGSZ,2017-05-14 08:00,ZGSZ 140800Z 22005MPS CAVOK 29/24 Q1007 NOSIG
ZGSZ,2017-05-14 09:00,ZGSZ 140900Z 22006MPS CAVOK 28/24 Q1007 NOSIG
ZGSZ,2017-05-14 10:00,ZGSZ 141000Z 20004MPS CAVOK 28/24 Q1008 NOSIG
ZGSZ,2017-05-14 11:00,ZGSZ 141100Z 20004MPS CAVOK 28/25 Q1008 NOSIG
ZGSZ,2017-05-14 12:00,ZGSZ 141200Z 20005MPS CAVOK 28/24 Q1009 NOSIG
ZGSZ,2017-05-14 13:00,ZGSZ 141300Z 19005MPS 7000 NSC 28/24 Q1010 NOSIG
ZGSZ,2017-05-14 14:00,ZGSZ 141400Z 18005MPS 9999 FEW026 27/24 Q1010 NOSIG
ZGSZ,2017-05-14 15:00,ZGSZ 141500Z 18004MPS 9999 FEW026 27/24 Q1010 NOSIG
ZGSZ,2017-05-14 16:00,ZGSZ 141600Z 19003MPS 9999 FEW026 27/24 Q1010 NOSIG
ZGSZ,2017-05-14 17:00,ZGSZ 141700Z 18003MPS 9999 FEW023TCU FEW026 27/24 Q1010 NOSIG
ZGSZ,2017-05-14 18:00,ZGSZ 141800Z 22003MPS 5000 -SHRA SCT017 FEW023TCU 27/24 Q1009 NOSIG
ZGSZ,2017-05-14 19:00,ZGSZ 141900Z 17003MPS 8000 FEW026 26/24 Q1008 NOSIG
ZGSZ,2017-05-14 20:00,ZGSZ 142000Z 11002MPS 8000 NSC 26/24 Q1008 NOSIG
ZGSZ,2017-05-14 21:00,ZGSZ 142100Z 14002MPS 5000 BR NSC 26/24 Q1008 NOSIG
ZGSZ,2017-05-14 22:00,ZGSZ 142200Z 10001MPS 5000 BR NSC 26/24 Q1008 BECMG AT2320 2000 SHRA
ZGSZ,2017-05-14 23:00,ZGSZ 142300Z 00000MPS 2500 -SHRA BR SCT014 BKN030 26/24 Q1009 BECMG AT2320 2000 SHRA
ZGSZ,2017-05-15 00:00,ZGSZ 150000Z VRB01MPS 4100 -SHRA BR SCT015 BKN046 26/25 Q1009 NOSIG
ZGSZ,2017-05-15 01:00,ZGSZ 150100Z 20006MPS 9999 SCT015 BKN040 25/24 Q1010 NOSIG
ZGSZ,2017-05-15 02:00,ZGSZ 150200Z 14004MPS 9999 -SHRA SCT020 BKN050 27/23 Q1010 NOSIG
ZGSZ,2017-05-15 03:00,ZGSZ 150300Z 19004MPS 9999 -SHRA FEW020 BKN050 27/23 Q1009 NOSIG
ZGSZ,2017-05-15 04:00,ZGSZ 150400Z 21004MPS 9999 -SHRA FEW020CB FEW020 28/24 Q1009 BECMG TL0510 2500 SHRA
ZGSZ,2017-05-15 05:00,ZGSZ 150500Z 21005MPS 2800 SHRA SCT012 FEW014CB BKN033 25/24 Q1009 BECMG TL0635 3000
ZGSZ,2017-05-15 06:00,ZGSZ 150600Z 21004MPS 7000 -SHRA SCT012 FEW014CB BKN033 25/24 Q1008 NOSIG
ZGSZ,2017-05-15 07:00,ZGSZ 150700Z 19003MPS 8000 -SHRA SCT014 BKN040 25/24 Q1007 NOSIG
ZGSZ,2017-05-15 08:00,ZGSZ 150800Z 15002MPS 130V200 9999 -SHRA FEW020 26/24 Q1006 NOSIG
ZGSZ,2017-05-15 09:00,ZGSZ 150900Z 14003MPS 110V170 9999 SCT011 27/24 Q1006 NOSIG
ZGSZ,2017-05-15 10:00,ZGSZ 151000Z 14005MPS 9999 -SHRA SCT016 26/24 Q1006 NOSIG
ZGSZ,2017-05-15 11:00,ZGSZ 151100Z 14004MPS 9999 BKN017 26/23 Q1007 NOSIG
ZGSZ,2017-05-15 12:00,ZGSZ 151200Z 15004MPS 9999 SCT020 26/24 Q1007 NOSIG
ZGSZ,2017-05-15 13:00,ZGSZ 151300Z 16004MPS 9999 FEW023 26/23 Q1007 NOSIG
ZGSZ,2017-05-15 14:00,ZGSZ 151400Z 16004MPS CAVOK 26/23 Q1007 NOSIG
ZGSZ,2017-05-15 15:00,ZGSZ 151500Z 15003MPS 9999 SCT020 26/23 Q1008 NOSIG
ZGSZ,2017-05-15 16:00,ZGSZ 151600Z 15003MPS 9999 SCT020 26/23 Q1007 NOSIG
ZGSZ,2017-05-15 17:00,ZGSZ 151700Z 19004MPS 9999 BKN020 26/24 Q1007 NOSIG
ZGSZ,2017-05-15 18:00,ZGSZ 151800Z 23005MPS 9999 -RA BKN016 BKN050 26/24 Q1006 NOSIG
ZGSZ,2017-05-15 19:00,ZGSZ 151900Z 32006MPS 5000 -SHRA SCT020 FEW043CB BKN043 24/23 Q1006 RESHRA RERA NOSIG
ZGSZ,2017-05-15 20:00,ZGSZ 152000Z 01005MPS 7000 -SHRA BKN007 BKN050 23/22 Q1006 NOSIG
ZGSZ,2017-05-15 21:00,ZGSZ 152100Z 03007MPS 9999 -SHRA BKN009 BKN050 23/21 Q1006 NOSIG
ZGSZ,2017-05-15 22:00,ZGSZ 152200Z 04006MPS 9999 FEW013 BKN018 BKN050 23/21 Q1006 NOSIG
ZGSZ,2017-05-15 23:00,ZGSZ 152300Z 05006MPS 9999 FEW014 BKN033 23/21 Q1007 NOSIG
ZGSZ,2017-05-16 00:00,ZGSZ 160000Z 03006MPS 9999 FEW015 BKN036 24/21 Q1008 NOSIG
ZGSZ,2017-05-16 01:00,ZGSZ 160100Z 04006MPS 9999 FEW016 OVC046 24/20 Q1008 NOSIG
ZGSZ,2017-05-16 02:00,ZGSZ 160200Z 05006MPS 9999 FEW020 OVC046 25/20 Q1009 NOSIG
ZGSZ,2017-05-16 03:00,ZGSZ 160300Z 04007MPS 9999 FEW026 OVC046 26/20 Q1009 NOSIG
ZGSZ,2017-05-16 04:00,ZGSZ 160400Z 05006MPS 9999 FEW026 BKN046 27/20 Q1009 NOSIG
ZGSZ,2017-05-16 05:00,ZGSZ 160500Z 04006MPS 9999 SCT021 27/20 Q1008 NOSIG
ZGSZ,2017-05-16 06:00,ZGSZ 160600Z 06006MPS 030V090 9999 SCT021 28/20 Q1008 NOSIG
ZGSZ,2017-05-16 07:00,ZGSZ 160700Z 06005MPS 9999 SCT026 29/20 Q1007 NOSIG
ZGSZ,2017-05-16 08:00,ZGSZ 160800Z 08006MPS 9999 SCT026 29/19 Q1007 NOSIG
ZGSZ,2017-05-16 09:00,ZGSZ 160900Z 07005MPS 030V100 9999 SCT026 28/20 Q1007 NOSIG
ZGSZ,2017-05-16 10:00,ZGSZ 161000Z 07005MPS 9999 FEW026 28/19 Q1007 NOSIG
ZGSZ,2017-05-16 11:00,ZGSZ 161100Z 11003MPS CAVOK 27/19 Q1007 NOSIG
ZGSZ,2017-05-16 12:00,ZGSZ 161200Z 10003MPS CAVOK 26/19 Q1008 NOSIG
ZGSZ,2017-05-16 13:00,ZGSZ 161300Z 07002MPS CAVOK 26/19 Q1008 NOSIG
ZGSZ,2017-05-16 14:00,ZGSZ 161400Z 04002MPS CAVOK 25/20 Q1009 NOSIG
ZGSZ,2017-05-16 15:00,ZGSZ 161500Z 08002MPS CAVOK 26/20 Q1009 NOSIG
ZGSZ,2017-05-16 16:00,ZGSZ 161600Z 09001MPS CAVOK 25/20 Q1009 NOSIG
ZGSZ,2017-05-16 17:00,ZGSZ 161700Z 00000MPS CAVOK 24/20 Q1009 NOSIG
ZGSZ,2017-05-16 18:00,ZGSZ 161800Z 09002MPS CAVOK 25/20 Q1008 NOSIG
ZGSZ,2017-05-16 19:00,ZGSZ 161900Z 17001MPS CAVOK 24/19 Q1008 NOSIG
ZGSZ,2017-05-16 20:00,ZGSZ 162000Z 11001MPS CAVOK 24/20 Q1008 NOSIG
ZGSZ,2017-05-16 21:00,ZGSZ 162100Z 07002MPS CAVOK 24/20 Q1008 NOSIG
ZGSZ,2017-05-16 22:00,ZGSZ 162200Z 11002MPS CAVOK 24/20 Q1009 NOSIG
ZGSZ,2017-05-16 23:00,ZGSZ 162300Z VRB01MPS CAVOK 24/21 Q1009 NOSIG
ZGSZ,2017-05-17 00:00,ZGSZ 170000Z 09002MPS 040V150 CAVOK 26/20 Q1010 NOSIG
ZGSZ,2017-05-17 01:00,ZGSZ 170100Z 06003MPS 040V100 9999 FEW033 27/20 Q1010 NOSIG
ZGSZ,2017-05-17 02:00,ZGSZ 170200Z 09003MPS 030V180 9000 NSC 29/20 Q1010 NOSIG
ZGSZ,2017-05-17 03:00,ZGSZ 170300Z 09004MPS 050V140 9000 BKN040 29/19 Q1010 NOSIG
ZGSZ,2017-05-17 04:00,ZGSZ 170400Z 09003MPS 040V180 9999 BKN040 29/18 Q1010 NOSIG
ZGSZ,2017-05-17 05:00,ZGSZ 170500Z VRB02MPS 7000 BKN033 30/18 Q1009 NOSIG
ZGSZ,2017-05-17 06:00,ZGSZ 170600Z 25003MPS 7000 BKN050 29/20 Q1009 NOSIG
ZGSZ,2017-05-17 07:00,ZGSZ 170700Z 28003MPS 250V310 7000 NSC 29/20 Q1009 NOSIG
ZGSZ,2017-05-17 08:00,ZGSZ 170800Z 24003MPS 5000 HZ FEW050 28/21 Q1008 NOSIG
ZGSZ,2017-05-17 09:00,ZGSZ 170900Z 24003MPS 7000 SCT040 28/21 Q1009 NOSIG
ZGSZ,2017-05-17 10:00,ZGSZ 171000Z 21004MPS 7000 SCT040 27/22 Q1009 NOSIG
ZGSZ,2017-05-17 11:00,ZGSZ 171100Z 20004MPS 8000 SCT050 27/22 Q1009 NOSIG
ZGSZ,2017-05-17 12:00,ZGSZ 171200Z 19004MPS 9999 BKN050 27/21 Q1010 NOSIG
ZGSZ,2017-05-17 13:00,ZGSZ 171300Z 19004MPS 9999 BKN050 27/22 Q1010 NOSIG
ZGSZ,2017-05-17 14:00,ZGSZ 171400Z 14003MPS 110V190 CAVOK 26/21 Q1010 NOSIG
ZGSZ,2017-05-17 15:00,ZGSZ 171500Z 14005MPS CAVOK 26/21 Q1011 NOSIG
ZGSZ,2017-05-17 16:00,ZGSZ 171600Z 14005MPS CAVOK 25/21 Q1011 NOSIG
ZGSZ,2017-05-17 17:00,ZGSZ 171700Z 14004MPS 110V190 CAVOK 25/20 Q1011 NOSIG
ZGSZ,2017-05-17 18:00,ZGSZ 171800Z 14004MPS CAVOK 25/20 Q1010 NOSIG
ZGSZ,2017-05-17 19:00,ZGSZ 171900Z 14004MPS CAVOK 25/20 Q1011 NOSIG
ZGSZ,2017-05-17 20:00,ZGSZ 172000Z 12003MPS CAVOK 25/21 Q1010 NOSIG
ZGSZ,2017-05-17 21:00,ZGSZ 172100Z 12003MPS CAVOK 25/20 Q1011 NOSIG
ZGSZ,2017-05-17 22:00,ZGSZ 172200Z 12002MPS 100V160 CAVOK 24/21 Q1011 NOSIG
ZGSZ,2017-05-17 23:00,ZGSZ 172300Z 14002MPS 100V160 7000 NSC 24/21 Q1012 NOSIG
ZGSZ,2017-05-18 00:00,ZGSZ 180000Z 14004MPS 9000 FEW030 25/21 Q1012 NOSIG
ZGSZ,2017-05-18 01:00,ZGSZ 180100Z 12004MPS 070V140 9999 -SHRA FEW016 25/20 Q1013 NOSIG
ZGSZ,2017-05-18 02:00,ZGSZ 180200Z 09005MPS CAVOK 26/20 Q1013 NOSIG
ZGSZ,2017-05-18 03:00,ZGSZ 180300Z 12003MPS 050V210 CAVOK 27/19 Q1013 NOSIG
ZGSZ,2017-05-18 04:00,ZGSZ 180400Z 13003MPS 080V160 CAVOK 28/19 Q1013 NOSIG
ZGSZ,2017-05-18 05:00,ZGSZ 180500Z 15004MPS 100V180 CAVOK 29/19 Q1011 NOSIG
ZGSZ,2017-05-18 06:00,ZGSZ 180600Z 17003MPS 130V210 CAVOK 29/19 Q1011 NOSIG
ZGSZ,2017-05-18 07:00,ZGSZ 180700Z 26003MPS CAVOK 28/21 Q1011 NOSIG
ZGSZ,2017-05-18 08:00,ZGSZ 180800Z 26002MPS 210V300 CAVOK 28/21 Q1011 NOSIG
ZGSZ,2017-05-18 09:00,ZGSZ 180900Z 26003MPS CAVOK 28/21 Q1011 NOSIG
ZGSZ,2017-05-18 10:00,ZGSZ 181000Z 23003MPS CAVOK 27/21 Q1011 NOSIG
ZGSZ,2017-05-18 11:00,ZGSZ 181100Z 20005MPS CAVOK 27/20 Q1011 NOSIG
ZGSZ,2017-05-18 12:00,ZGSZ 181200Z 18003MPS 9999 -RA SCT040 26/21 Q1012 NOSIG
ZGSZ,2017-05-18 13:00,ZGSZ 181300Z 15004MPS CAVOK 26/19 Q1012 NOSIG
ZGSZ,2017-05-18 14:00,ZGSZ 181400Z 14004MPS 9999 BKN050 25/20 Q1012 NOSIG
ZGSZ,2017-05-18 15:00,ZGSZ 181500Z 12003MPS 050V150 9999 BKN050 25/20 Q1012 NOSIG
ZGSZ,2017-05-18 16:00,ZGSZ 181600Z 14003MPS 100V160 CAVOK 25/20 Q1012 NOSIG
ZGSZ,2017-05-18 17:00,ZGSZ 181700Z 13003MPS CAVOK 24/21 Q1011 NOSIG
ZGSZ,2017-05-18 18:00,ZGSZ 181800Z 14002MPS CAVOK 24/20 Q1011 NOSIG
ZGSZ,2017-05-18 19:00,ZGSZ 181900Z 14002MPS CAVOK 24/20 Q1011 NOSIG
ZGSZ,2017-05-18 20:00,ZGSZ 182000Z 00000MPS CAVOK 24/20 Q1011 NOSIG
ZGSZ,2017-05-18 21:00,ZGSZ 182100Z 10001MPS CAVOK 24/20 Q1011 NOSIG
ZGSZ,2017-05-18 22:00,ZGSZ 182200Z 00000MPS 9999 -RA SCT030 24/20 Q1012 NOSIG
ZGSZ,2017-05-18 23:00,ZGSZ 182300Z 08002MPS CAVOK 24/20 Q1012 NOSIG
ZGSZ,2017-05-19 00:00,ZGSZ 190000Z 08003MPS 040V130 CAVOK 25/20 Q1012 NOSIG
ZGSZ,2017-05-19 01:00,ZGSZ 190100Z 08005MPS CAVOK 26/20 Q1012 NOSIG
ZGSZ,2017-05-19 02:00,ZGSZ 190200Z 08004MPS 060V120 9999 BKN043 26/19 Q1012 NOSIG
ZGSZ,2017-05-19 03:00,ZGSZ 190300Z 08004MPS 040V100 9999 BKN040 26/19 Q1012 NOSIG
ZGSZ,2017-05-19 04:00,ZGSZ 190400Z 05005MPS 9999 BKN040 28/20 Q1011 NOSIG
ZGSZ,2017-05-19 05:00,ZGSZ 190500Z 05004MPS 020V090 9999 BKN040 27/19 Q1011 NOSIG
ZGSZ,2017-05-19 06:00,ZGSZ 190600Z 13002MPS 010V160 9999 SCT033 BKN053 25/21 Q1010 NOSIG
ZGSZ,2017-05-19 07:00,ZGSZ 190700Z 03003MPS 9999 -RA SCT033 BKN053 26/19 Q1010 NOSIG
ZGSZ,2017-05-19 08:00,ZGSZ 190800Z 11003MPS 090V150 9999 BKN033 27/19 Q1010 NOSIG
ZGSZ,2017-05-19 09:00,ZGSZ 190900Z 08005MPS 9999 SCT030 BKN040 26/18 Q1009 NOSIG
ZGSZ,2017-05-19 10:00,ZGSZ 191000Z 04005MPS 9999 -SHRA FEW010 BKN040 25/19 Q1009 NOSIG
ZGSZ,2017-05-19 11:00,ZGSZ 191100Z 10004MPS 9999 FEW020 BKN036 25/19 Q1010 NOSIG
ZGSZ,2017-05-19 12:00,ZGSZ 191200Z 07004MPS 9999 BKN036 25/19 Q1010 NOSIG
ZGSZ,2017-05-19 13:00,ZGSZ 191300Z 09003MPS 9999 BKN036 24/19 Q1011 NOSIG
ZGSZ,2017-05-19 14:00,ZGSZ 191400Z 07003MPS 9999 BKN036 24/20 Q1011 NOSIG
ZGSZ,2017-05-19 15:00,ZGSZ 191500Z 09003MPS 9999 BKN036 24/20 Q1011 NOSIG
ZGSZ,2017-05-19 16:00,ZGSZ 191600Z 10002MPS 9999 OVC036 24/19 Q1010 NOSIG
ZGSZ,2017-05-19 17:00,ZGSZ 191700Z 08003MPS 9999 OVC033 24/19 Q1010 NOSIG
ZGSZ,2017-05-19 18:00,ZGSZ 191800Z 09003MPS 9999 OVC033 24/19 Q1009 NOSIG
ZGSZ,2017-05-19 19:00,ZGSZ 191900Z 07004MPS 9999 OVC033 24/19 Q1009 NOSIG
ZGSZ,2017-05-19 20:00,ZGSZ 192000Z 08003MPS 6000 -RA FEW020 OVC028 22/20 Q1009 NOSIG
ZGSZ,2017-05-19 21:00,ZGSZ 192100Z 04001MPS 3000 -RA FEW020 OVC023 22/21 Q1009 NOSIG
ZGSZ,2017-05-19 22:00,ZGSZ 192200Z 04002MPS 4000 -RA SCT015 OVC030 22/21 Q1009 NOSIG
ZGSZ,2017-05-19 23:00,ZGSZ 192300Z 09002MPS 6000 SCT013 OVC025 23/21 Q1009 NOSIG
ZGSZ,2017-05-20 00:00,ZGSZ 200000Z 08002MPS 7000 SCT016 OVC025 23/20 Q1010 NOSIG
ZGSZ,2017-05-20 01:00,ZGSZ 200100Z 08003MPS 6000 -SHRA SCT016 OVC040 24/21 Q1010 NOSIG
ZGSZ,2017-05-20 02:00,ZGSZ 200200Z 07003MPS 9000 SCT016 OVC040 24/21 Q1010 NOSIG
ZGSZ,2017-05-20 03:00,ZGSZ 200300Z 08003MPS 9999 SCT016 OVC040 24/21 Q1010 NOSIG
ZGSZ,2017-05-20 04:00,ZGSZ 200400Z 08003MPS 9999 SCT016 OVC040 25/21 Q1010 NOSIG
ZGSZ,2017-05-20 05:00,ZGSZ 200500Z 08002MPS 050V130 9999 SCT016 OVC040 25/21 Q1009 NOSIG
ZGSZ,2017-05-20 06:00,ZGSZ 200600Z 08003MPS 020V180 9999 -SHRA SCT016 OVC040 25/22 Q1008 NOSIG
ZGSZ,2017-05-20 07:00,ZGSZ 200700Z 09003MPS 020V150 9999 SCT016 OVC040 26/22 Q1007 NOSIG
ZGSZ,2017-05-20 08:00,ZGSZ 200800Z 05002MPS 020V140 9999 -SHRA SCT020 OVC040 26/23 Q1007 NOSIG
ZGSZ,2017-05-20 09:00,ZGSZ 200900Z 09003MPS 040V150 9999 BKN020 OVC050 26/22 Q1006 NOSIG
ZGSZ,2017-05-20 10:00,ZGSZ 201000Z 10003MPS 080V160 9999 -RA SCT018 OVC046 26/22 Q1006 NOSIG
ZGSZ,2017-05-20 11:00,ZGSZ 201100Z 09002MPS 060V130 9999 FEW018 OVC036 26/22 Q1007 NOSIG
ZGSZ,2017-05-20 12:00,ZGSZ 201200Z VRB01MPS 9999 OVC033 26/22 Q1007 NOSIG
ZGSZ,2017-05-20 13:00,ZGSZ 201300Z VRB01MPS 9999 OVC030 25/22 Q1008 NOSIG
ZGSZ,2017-05-20 14:00,ZGSZ 201400Z 13002MPS 9999 BKN036 25/22 Q1008 NOSIG
ZGSZ,2017-05-20 15:00,ZGSZ 201500Z 14003MPS 9999 BKN050 25/22 Q1008 NOSIG
ZGSZ,2017-05-20 16:00,ZGSZ 201600Z 14003MPS CAVOK 25/22 Q1008 NOSIG
ZGSZ,2017-05-20 17:00,ZGSZ 201700Z 14003G08MPS 100V200 9999 FEW020 25/22 Q1007 NOSIG
ZGSZ,2017-05-20 18:00,ZGSZ 201800Z 13005MPS 9999 SCT020 BKN040 25/22 Q1007 NOSIG
ZGSZ,2017-05-20 19:00,ZGSZ 201900Z 14003MPS 9999 SCT016 BKN040 25/22 Q1007 NOSIG
ZGSZ,2017-05-20 20:00,ZGSZ 202000Z 13004MPS 9999 SCT016 BKN040 25/22 Q1006 NOSIG
ZGSZ,2017-05-20 21:00,ZGSZ 202100Z 13004MPS 9999 SCT016 BKN033 25/22 Q1006 NOSIG
ZGSZ,2017-05-20 22:00,ZGSZ 202200Z 13002MPS 9999 BKN033 24/21 Q1007 NOSIG
ZGSZ,2017-05-20 23:00,ZGSZ 202300Z VRB01MPS 9999 BKN033 25/21 Q1007 NOSIG
ZGSZ,2017-05-21 00:00,ZGSZ 210000Z 07003MPS 010V110 9999 BKN033 26/21 Q1008 NOSIG
ZGSZ,2017-05-21 01:00,ZGSZ 210100Z 14004MPS 9999 BKN020 BKN040 26/21 Q1008 NOSIG
ZGSZ,2017-05-21 02:00,ZGSZ 210200Z 13004MPS 9999 BKN020 BKN040 26/21 Q1008 NOSIG
ZGSZ,2017-05-21 03:00,ZGSZ 210300Z VRB03MPS 9999 SCT023 BKN046 28/22 Q1008 NOSIG
ZGSZ,2017-05-21 04:00,ZGSZ 210400Z 13005MPS 9999 FEW023 BKN046 29/22 Q1007 NOSIG
ZGSZ,2017-05-21 05:00,ZGSZ 210500Z 13005MPS 9999 SCT026 BKN050 28/22 Q1007 NOSIG
ZGSZ,2017-05-21 06:00,ZGSZ 210600Z 15006MPS 7000 -RA SCT010 BKN030 26/23 Q1006 NOSIG
ZGSZ,2017-05-21 07:00,ZGSZ 210700Z 12003MPS 9999 BKN030 26/23 Q1006 NOSIG
ZGSZ,2017-05-21 08:00,ZGSZ 210800Z 10003MPS 050V210 9999 BKN025 26/23 Q1005 NOSIG
ZGSZ,2017-05-21 09:00,ZGSZ 210900Z 13005MPS 100V170 9999 SCT025 BKN030 26/22 Q1005 NOSIG
ZGSZ,2017-05-21 10:00,ZGSZ 211000Z 14005MPS 9999 OVC030 26/22 Q1006 NOSIG
ZGSZ,2017-05-21 11:00,ZGSZ 211100Z 13004MPS 080V170 9999 BKN032 26/21 Q1006 NOSIG
ZGSZ,2017-05-21 12:00,ZGSZ 211200Z 13005MPS 9999 BKN036 25/21 Q1007 NOSIG
ZGSZ,2017-05-21 13:00,ZGSZ 211300Z 14006MPS 9999 BKN040 25/21 Q1007 NOSIG
ZGSZ,2017-05-21 14:00,ZGSZ 211400Z 14006MPS 090V160 9999 BKN046 25/21 Q1008 NOSIG
ZGSZ,2017-05-21 15:00,ZGSZ 211500Z 12004MPS 090V160 9999 BKN046 25/21 Q1008 NOSIG
ZGSZ,2017-05-21 16:00,ZGSZ 211600Z 13004MPS 100V160 9999 BKN046 25/21 Q1008 NOSIG
ZGSZ,2017-05-21 17:00,ZGSZ 211700Z 13003MPS 100V160 9999 BKN040 25/21 Q1008 NOSIG
ZGSZ,2017-05-21 18:00,ZGSZ 211800Z 14005MPS 9999 BKN040 25/21 Q1007 NOSIG
ZGSZ,2017-05-21 19:00,ZGSZ 211900Z 14004MPS 9999 BKN040 25/21 Q1006 NOSIG
ZGSZ,2017-05-21 20:00,ZGSZ 212000Z 14005MPS 9999 BKN040 26/21 Q1006 NOSIG
ZGSZ,2017-05-21 21:00,ZGSZ 212100Z 14004MPS 9999 SCT030 BKN040 26/21 Q1007 NOSIG
ZGSZ,2017-05-21 22:00,ZGSZ 212200Z 13004MPS 9999 BKN030 26/21 Q1007 NOSIG
ZGSZ,2017-05-21 23:00,ZGSZ 212300Z 13005MPS 9999 SCT030 26/22 Q1007 NOSIG
ZGSZ,2017-05-22 00:00,ZGSZ 220000Z 14005MPS 9999 SCT025 BKN050 26/22 Q1008 NOSIG
ZGSZ,2017-05-22 01:00,ZGSZ 220100Z 14005MPS 9999 BKN025 BKN050 27/22 Q1008 NOSIG
ZGSZ,2017-05-22 02:00,ZGSZ 220200Z 13006MPS 9999 BKN021 28/23 Q1008 NOSIG
ZGSZ,2017-05-22 03:00,ZGSZ 220300Z 13007MPS 9999 BKN023 28/23 Q1008 NOSIG
ZGSZ,2017-05-22 04:00,ZGSZ 220400Z 13006MPS 9999 BKN023 29/23 Q1008 NOSIG
ZGSZ,2017-05-22 05:00,ZGSZ 220500Z 14006MPS 9999 BKN023 29/23 Q1007 NOSIG
ZGSZ,2017-05-22 06:00,ZGSZ 220600Z 13006MPS 9999 BKN024 28/23 Q1007 NOSIG
ZGSZ,2017-05-22 07:00,ZGSZ 220700Z 14006MPS 110V170 9999 BKN023 28/23 Q1006 NOSIG
ZGSZ,2017-05-22 08:00,ZGSZ 220800Z 14006MPS 9999 -SHRA SCT023 SCT040 28/23 Q1006 NOSIG
ZGSZ,2017-05-22 09:00,ZGSZ 220900Z 13005MPS 100V160 9999 -SHRA SCT026 SCT040 27/23 Q1006 NOSIG
ZGSZ,2017-05-22 10:00,ZGSZ 221000Z 14006MPS 9999 -SHRA SCT026 SCT040 26/23 Q1006 NOSIG
ZGSZ,2017-05-22 11:00,ZGSZ 221100Z 12004MPS 090V160 9999 BKN040 26/22 Q1007 NOSIG
ZGSZ,2017-05-22 12:00,ZGSZ 221200Z 14004MPS 9999 -SHRA BKN040 26/22 Q1007 NOSIG
ZGSZ,2017-05-22 13:00,ZGSZ 221300Z 14004MPS 9999 BKN040 26/22 Q1008 NOSIG
ZGSZ,2017-05-22 14:00,ZGSZ 221400Z 15004MPS 9999 FEW020 BKN040 26/22 Q1009 NOSIG
ZGSZ,2017-05-22 15:00,ZGSZ 221500Z 15004MPS 9999 BKN020 26/22 Q1009 NOSIG
ZGSZ,2017-05-22 16:00,ZGSZ 221600Z 13003MPS 9999 BKN028 26/22 Q1009 NOSIG
ZGSZ,2017-05-22 17:00,ZGSZ 221700Z 13003MPS 080V170 9999 SCT020 26/23 Q1008 NOSIG
ZGSZ,2017-05-22 18:00,ZGSZ 221800Z 15004MPS 9999 SCT022 BKN040 26/23 Q1008 NOSIG
ZGSZ,2017-05-22 19:00,ZGSZ 221900Z 16003MPS 9999 SCT014 BKN028 26/23 Q1007 NOSIG
ZGSZ,2017-05-22 20:00,ZGSZ 222000Z 12002MPS 080V170 9999 SCT020 BKN028 26/23 Q1007 NOSIG
ZGSZ,2017-05-22 21:00,ZGSZ 222100Z 13003MPS 110V170 9999 SCT020 BKN033 26/23 Q1007 NOSIG
ZGSZ,2017-05-22 22:00,ZGSZ 222200Z 13002MPS 9999 SCT020 BKN033 26/23 Q1007 NOSIG
ZGSZ,2017-05-22 23:00,ZGSZ 222300Z 07002MPS 010V140 9999 SCT020 BKN033 26/24 Q1008 NOSIG
ZGSZ,2017-05-23 00:00,ZGSZ 230000Z 07002MPS 330V100 9999 SCT026 BKN040 27/24 Q1008 NOSIG
ZGSZ,2017-05-23 01:00,ZGSZ 230100Z 16002MPS 050V210 9999 FEW020 BKN040 29/24 Q1009 NOSIG
ZGSZ,2017-05-23 02:00,ZGSZ 230200Z 27002MPS 9999 SCT020 BKN040 29/25 Q1009 NOSIG
ZGSZ,2017-05-23 03:00,ZGSZ 230300Z 27002MPS 9999 FEW040 29/25 Q1009 NOSIG
ZGSZ,2017-05-23 04:00,ZGSZ 230400Z 25003MPS 9999 SCT046 30/25 Q1008 NOSIG
ZGSZ,2017-05-23 05:00,ZGSZ 230500Z 23004MPS CAVOK 30/26 Q1008 NOSIG
ZGSZ,2017-05-23 06:00,ZGSZ 230600Z 22003MPS CAVOK 29/26 Q1007 NOSIG
ZGSZ,2017-05-23 07:00,ZGSZ 230700Z 22003MPS 9999 FEW050 30/26 Q1006 NOSIG
ZGSZ,2017-05-23 08:00,ZGSZ 230800Z 22004MPS CAVOK 30/26 Q1005 NOSIG
ZGSZ,2017-05-23 09:00,ZGSZ 230900Z 20004MPS CAVOK 30/26 Q1005 NOSIG
ZGSZ,2017-05-23 10:00,ZGSZ 231000Z 20004MPS 9999 FEW050 29/26 Q1005 NOSIG
ZGSZ,2017-05-23 11:00,ZGSZ 231100Z 21004MPS 9999 FEW050 28/26 Q1005 NOSIG
ZGSZ,2017-05-23 12:00,ZGSZ 231200Z 21003MPS 9999 FEW050 28/26 Q1006 NOSIG
ZGSZ,2017-05-23 13:00,ZGSZ 231300Z 20004MPS 9999 SCT036 28/25 Q1007 NOSIG
ZGSZ,2017-05-23 14:00,ZGSZ 231400Z 20004MPS 9999 SCT022 28/25 Q1007 NOSIG
ZGSZ,2017-05-23 15:00,ZGSZ 231500Z 18003MPS 9999 SCT026 28/25 Q1008 NOSIG
ZGSZ,2017-05-23 16:00,ZGSZ 231600Z 18003MPS CAVOK 28/25 Q1007 NOSIG
ZGSZ,2017-05-23 17:00,ZGSZ 231700Z 15004MPS 9999 SCT020 28/25 Q1006 NOSIG
ZGSZ,2017-05-23 18:00,ZGSZ 231800Z 14002MPS 9999 SCT021 28/25 Q1006 NOSIG
ZGSZ,2017-05-23 19:00,ZGSZ 231900Z 16003MPS 140V200 9999 -SHRA SCT020 BKN050 27/25 Q1005 NOSIG
ZGSZ,2017-05-23 20:00,ZGSZ 232000Z 18003MPS 5000 SHRA SCT016 FEW040CB BKN043 26/25 Q1005 NOSIG
ZGSZ,2017-05-23 21:00,ZGSZ 232100Z 21002MPS 6000 -SHRA FEW016 FEW030TCU BKN043 26/25 Q1005 RESHRA NOSIG
ZGSZ,2017-05-23 22:00,ZGSZ 232200Z 18006MPS 5000 SHRA FEW007 SCT016 FEW023CB 26/25 Q1006 BECMG AT2230 -SHRA
ZGSZ,2017-05-23 23:00,ZGSZ 232300Z 18004MPS 9999 -SHRA FEW016 FEW030CB SCT040 27/25 Q1006 NOSIG
ZGSZ,2017-05-24 00:00,ZGSZ 240000Z 18005MPS 9999 -SHRA SCT016 FEW030CB BKN050 26/24 Q1006 BECMG AT0040 TSRA
ZGSZ,2017-05-24 01:00,ZGSZ 240100Z 15004MPS 9999 -SHRA BKN016 FEW023CB BKN043 27/25 Q1007 BECMG AT0115 33006G12MPS TSRA
ZGSZ,2017-05-24 02:00,ZGSZ 240200Z 12002MPS 040V160 3000 TSRA FEW020 FEW026CB BKN036 24/24 Q1008 NOSIG
ZGSZ,2017-05-24 03:00,ZGSZ 240300Z 18004MPS 6000 -TSRA SCT010 FEW023CB BKN050 25/24 Q1008 RESHRA BECMG AT0430 -SHRA
ZGSZ,2017-05-24 04:00,ZGSZ 240400Z VRB01MPS 9999 -SHRA FEW013 FEW023CB 25/24 Q1008 BECMG TL0510 SHRA
ZGSZ,2017-05-24 05:00,ZGSZ 240500Z 29002MPS 260V320 8000 -SHRA BKN006 FEW023CB 25/24 Q1007 BECMG AT0640 NSW FEW012 SCT030
ZGSZ,2017-05-24 06:00,ZGSZ 240600Z 34004MPS 8000 -SHRA BKN006 FEW023CB BKN050 25/24 Q1007 BECMG AT0740 BKN012 BKN030
ZGSZ,2017-05-24 07:00,ZGSZ 240700Z 03004MPS 5000 -RA BR BKN009 OVC050 25/24 Q1005 BECMG AT0840 BKN012 BKN050
ZGSZ,2017-05-24 08:00,ZGSZ 240800Z 35004MPS 4000 BR BKN009 OVC040 25/24 Q1005 BECMG TL0835 SCT012 BKN040
ZGSZ,2017-05-24 09:00,ZGSZ 240900Z 33007MPS 2300 -SHRA BR BKN009 OVC030 25/23 Q1006 BECMG AT1020 3000 BR BKN011
ZGSZ,2017-05-24 10:00,ZGSZ 241000Z 36007MPS 6000 -SHRA BKN011 BKN050 24/23 Q1005 BECMG AT1140 SCT011
ZGSZ,2017-05-24 11:00,ZGSZ 241100Z 03005MPS 3000 BR FEW011 BKN053 24/23 Q1006 NOSIG
ZGSZ,2017-05-24 12:00,ZGSZ 241200Z 01002MPS 330V040 7000 SCT011 BKN033 24/23 Q1007 NOSIG
ZGSZ,2017-05-24 13:00,ZGSZ 241300Z 36004MPS 7000 FEW011 BKN033 25/23 Q1007 NOSIG
ZGSZ,2017-05-24 14:00,ZGSZ 241400Z 01004MPS 7000 SCT016 BKN025 25/22 Q1008 NOSIG
ZGSZ,2017-05-24 15:00,ZGSZ 241500Z 01002MPS 350V050 7000 SCT016 BKN027 24/22 Q1009 NOSIG
ZGSZ,2017-05-24 16:00,ZGSZ 241600Z 03003MPS 9999 FEW020 BKN036 25/22 Q1009 NOSIG
ZGSZ,2017-05-24 17:00,ZGSZ 241700Z 03004MPS 9999 SCT025 BKN036 25/22 Q1009 NOSIG
ZGSZ,2017-05-24 18:00,ZGSZ 241800Z 03005MPS 9999 FEW020 BKN040 24/21 Q1008 NOSIG
ZGSZ,2017-05-24 19:00,ZGSZ 241900Z 02005MPS 9999 SCT020 BKN040 24/21 Q1008 NOSIG
ZGSZ,2017-05-24 20:00,ZGSZ 242000Z 05005MPS 9999 FEW016 24/20 Q1008 NOSIG
ZGSZ,2017-05-24 21:00,ZGSZ 242100Z 03004MPS 330V060 CAVOK 24/20 Q1008 NOSIG
ZGSZ,2017-05-24 22:00,ZGSZ 242200Z 04003MPS CAVOK 24/20 Q1008 NOSIG
ZGSZ,2017-05-24 23:00,ZGSZ 242300Z 03004MPS CAVOK 24/20 Q1009 NOSIG
ZGSZ,2017-05-25 00:00,ZGSZ 250000Z 04004MPS CAVOK 25/20 Q1009 NOSIG
ZGSZ,2017-05-25 01:00,ZGSZ 250100Z 04006MPS CAVOK 26/20 Q1009 NOSIG
ZGSZ,2017-05-25 02:00,ZGSZ 250200Z 05005MPS 020V080 CAVOK 27/20 Q1009 NOSIG
ZGSZ,2017-05-25 03:00,ZGSZ 250300Z 03005MPS 010V070 9999 SCT030 28/20 Q1009 NOSIG
ZGSZ,2017-05-25 04:00,ZGSZ 250400Z 03004MPS 350V090 9999 SCT030 29/21 Q1009 NOSIG
ZGSZ,2017-05-25 05:00,ZGSZ 250500Z 06003MPS 360V110 9999 SCT030 29/20 Q1009 NOSIG
ZGSZ,2017-05-25 06:00,ZGSZ 250600Z 04004MPS 010V070 9999 BKN040 29/20 Q1008 NOSIG
ZGSZ,2017-05-25 07:00,ZGSZ 250700Z 01004MPS 9999 BKN040 29/21 Q1008 NOSIG
ZGSZ,2017-05-25 08:00,ZGSZ 250800Z 02005MPS 9999 BKN040 29/21 Q1007 NOSIG
ZGSZ,2017-05-25 09:00,ZGSZ 250900Z 04004MPS 9999 SCT023 29/20 Q1007 NOSIG
ZGSZ,2017-05-25 10:00,ZGSZ 251000Z 04004MPS 9999 BKN023 BKN050 28/20 Q1008 NOSIG
ZGSZ,2017-05-25 11:00,ZGSZ 251100Z 08004MPS 9999 OVC050 28/20 Q1008 NOSIG
ZGSZ,2017-05-25 12:00,ZGSZ 251200Z 08002MPS CAVOK 27/20 Q1009 NOSIG
ZGSZ,2017-05-25 13:00,ZGSZ 251300Z 07003MPS CAVOK 27/20 Q1010 NOSIG
ZGSZ,2017-05-25 14:00,ZGSZ 251400Z 06004MPS 9999 BKN050 27/20 Q1010 NOSIG
ZGSZ,2017-05-25 15:00,ZGSZ 251500Z 08004MPS 9999 BKN050 27/19 Q1010 NOSIG
ZGSZ,2017-05-25 16:00,ZGSZ 251600Z 06003MPS CAVOK 26/19 Q1010 NOSIG
ZGSZ,2017-05-25 17:00,ZGSZ 251700Z 07004MPS CAVOK 26/19 Q1009 NOSIG
ZGSZ,2017-05-25 18:00,ZGSZ 251800Z 08002MPS CAVOK 25/19 Q1009 NOSIG
ZGSZ,2017-05-25 19:00,ZGSZ 251900Z 07001MPS CAVOK 25/19 Q1009 NOSIG
ZGSZ,2017-05-25 20:00,ZGSZ 252000Z 09002MPS CAVOK 25/19 Q1009 NOSIG
ZGSZ,2017-05-25 21:00,ZGSZ 252100Z 05003MPS CAVOK 24/18 Q1009 NOSIG
ZGSZ,2017-05-25 22:00,ZGSZ 252200Z 06003MPS CAVOK 24/17 Q1009 NOSIG
ZGSZ,2017-05-25 23:00,ZGSZ 252300Z 06002MPS 360V100 CAVOK 25/18 Q1010 NOSIG
ZGSZ,2017-05-26 00:00,ZGSZ 260000Z 06005MPS CAVOK 26/17 Q1010 NOSIG
ZGSZ,2017-05-26 01:00,ZGSZ 260100Z 06005MPS CAVOK 27/17 Q1011 NOSIG
ZGSZ,2017-05-26 02:00,ZGSZ 260200Z 07005MPS CAVOK 27/17 Q1011 NOSIG
ZGSZ,2017-05-26 03:00,ZGSZ 260300Z VRB04G10MPS CAVOK 28/18 Q1011 NOSIG
ZGSZ,2017-05-26 04:00,ZGSZ 260400Z 10003MPS 050V130 CAVOK 28/18 Q1011 NOSIG
ZGSZ,2017-05-26 05:00,ZGSZ 260500Z 11002MPS 060V140 CAVOK 28/18 Q1011 NOSIG
ZGSZ,2017-05-26 06:00,ZGSZ 260600Z 12002MPS 080V160 CAVOK 28/18 Q1010 NOSIG
ZGSZ,2017-05-26 07:00,ZGSZ 260700Z 12003MPS 070V170 CAVOK 28/18 Q1010 NOSIG
ZGSZ,2017-05-26 08:00,ZGSZ 260800Z 09003MPS 070V140 CAVOK 27/18 Q1010 NOSIG
ZGSZ,2017-05-26 09:00,ZGSZ 260900Z 10003MPS 9999 FEW033 27/18 Q1009 NOSIG
ZGSZ,2017-05-26 10:00,ZGSZ 261000Z 13004MPS 9999 FEW040 26/20 Q1009 NOSIG
ZGSZ,2017-05-26 11:00,ZGSZ 261100Z 10004MPS 060V150 CAVOK 26/20 Q1010 NOSIG
ZGSZ,2017-05-26 12:00,ZGSZ 261200Z 09004G09MPS 060V120 CAVOK 26/19 Q1010 NOSIG
ZGSZ,2017-05-26 13:00,ZGSZ 261300Z 08003MPS CAVOK 26/19 Q1010 NOSIG
ZGSZ,2017-05-26 14:00,ZGSZ 261400Z 09002MPS 060V120 CAVOK 26/20 Q1010 NOSIG
ZGSZ,2017-05-26 15:00,ZGSZ 261500Z 10002MPS 070V160 CAVOK 25/20 Q1010 NOSIG
ZGSZ,2017-05-26 16:00,ZGSZ 261600Z 08002MPS 010V140 6000 NSC 25/19 Q1010 NOSIG
ZGSZ,2017-05-26 17:00,ZGSZ 261700Z 12003MPS 090V160 6000 NSC 25/19 Q1010 NOSIG
ZGSZ,2017-05-26 18:00,ZGSZ 261800Z 10002MPS 050V160 6000 NSC 24/20 Q1010 NOSIG
ZGSZ,2017-05-26 19:00,ZGSZ 261900Z 11002MPS 080V150 6000 NSC 24/19 Q1010 NOSIG
ZGSZ,2017-05-26 20:00,ZGSZ 262000Z 10002MPS 030V190 6000 NSC 24/19 Q1010 NOSIG
ZGSZ,2017-05-26 21:00,ZGSZ 262100Z 09002MPS 5000 BR FEW033 24/19 Q1010 NOSIG
ZGSZ,2017-05-26 22:00,ZGSZ 262200Z 08002MPS 060V120 7000 BKN036 24/19 Q1010 NOSIG
ZGSZ,2017-05-26 23:00,ZGSZ 262300Z 08003MPS 050V110 8000 BKN043 24/19 Q1011 NOSIG
ZGSZ,2017-05-27 00:00,ZGSZ 270000Z 09002MPS 030V140 8000 BKN043 26/20 Q1011 NOSIG
ZGSZ,2017-05-27 01:00,ZGSZ 270100Z 06003MPS 010V100 9999 SCT050 27/20 Q1011 NOSIG
ZGSZ,2017-05-27 02:00,ZGSZ 270200Z 06003MPS 320V120 CAVOK 29/18 Q1011 NOSIG
ZGSZ,2017-05-27 03:00,ZGSZ 270300Z 08003MPS 030V170 9999 FEW043 29/19 Q1011 NOSIG
ZGSZ,2017-05-27 04:00,ZGSZ 270400Z 30004MPS 270V330 9999 FEW043 29/21 Q1010 NOSIG
ZGSZ,2017-05-27 05:00,ZGSZ 270500Z 32004MPS CAVOK 29/21 Q1010 NOSIG
ZGSZ,2017-05-27 06:00,ZGSZ 270600Z 32005MPS 6000 NSC 30/20 Q1009 NOSIG
ZGSZ,2017-05-27 07:00,ZGSZ 270700Z 28003MPS 230V310 8000 NSC 30/21 Q1009 NOSIG
ZGSZ,2017-05-27 08:00,ZGSZ 270800Z 22004MPS CAVOK 29/20 Q1008 NOSIG
ZGSZ,2017-05-27 09:00,ZGSZ 270900Z 21004MPS CAVOK 29/18 Q1008 NOSIG
ZGSZ,2017-05-27 10:00,ZGSZ 271000Z 21005MPS CAVOK 28/21 Q1008 NOSIG
ZGSZ,2017-05-27 11:00,ZGSZ 271100Z 20004MPS CAVOK 27/20 Q1008 NOSIG
ZGSZ,2017-05-27 12:00,ZGSZ 271200Z 20005MPS CAVOK 27/19 Q1008 NOSIG
ZGSZ,2017-05-27 13:00,ZGSZ 271300Z 13005MPS CAVOK 27/17 Q1009 NOSIG
ZGSZ,2017-05-27 14:00,ZGSZ 271400Z 14005MPS CAVOK 26/18 Q1010 NOSIG
ZGSZ,2017-05-27 15:00,ZGSZ 271500Z 14005MPS CAVOK 25/18 Q1010 NOSIG
ZGSZ,2017-05-27 16:00,ZGSZ 271600Z 13005MPS 110V170 CAVOK 25/19 Q1010 NOSIG
ZGSZ,2017-05-27 17:00,ZGSZ 271700Z 12003MPS 090V170 CAVOK 25/18 Q1009 NOSIG
ZGSZ,2017-05-27 18:00,ZGSZ 271800Z 13002MPS 110V170 CAVOK 24/19 Q1009 NOSIG
ZGSZ,2017-05-27 19:00,ZGSZ 271900Z 14002MPS CAVOK 25/19 Q1009 NOSIG
ZGSZ,2017-05-27 20:00,ZGSZ 272000Z 00000MPS CAVOK 24/19 Q1009 NOSIG
ZGSZ,2017-05-27 21:00,ZGSZ 272100Z 11001MPS CAVOK 24/19 Q1009 NOSIG
ZGSZ,2017-05-27 22:00,ZGSZ 272200Z VRB01MPS CAVOK 24/19 Q1009 NOSIG
ZGSZ,2017-05-27 23:00,ZGSZ 272300Z 06002MPS CAVOK 26/20 Q1010 NOSIG
ZGSZ,2017-05-28 00:00,ZGSZ 280000Z 06003MPS 040V120 CAVOK 27/18 Q1010 NOSIG
ZGSZ,2017-05-28 01:00,ZGSZ 280100Z 09003MPS 040V140 CAVOK 28/18 Q1010 NOSIG
ZGSZ,2017-05-28 02:00,ZGSZ 280200Z VRB03MPS CAVOK 29/18 Q1010 NOSIG
ZGSZ,2017-05-28 03:00,ZGSZ 280300Z 30004MPS 260V320 9999 FEW023 29/20 Q1010 NOSIG
ZGSZ,2017-05-28 04:00,ZGSZ 280400Z 29004MPS 260V320 7000 FEW023 29/19 Q1010 NOSIG
ZGSZ,2017-05-28 05:00,ZGSZ 280500Z 29003MPS 7000 FEW023 30/20 Q1009 NOSIG
ZGSZ,2017-05-28 06:00,ZGSZ 280600Z 24005MPS 7000 FEW023 30/21 Q1008 NOSIG
ZGSZ,2017-05-28 07:00,ZGSZ 280700Z 22005MPS 7000 FEW023 30/22 Q1008 NOSIG
ZGSZ,2017-05-28 08:00,ZGSZ 280800Z 21006MPS 7000 FEW023 29/22 Q1008 NOSIG
ZGSZ,2017-05-28 09:00,ZGSZ 280900Z 20006MPS CAVOK 29/22 Q1007 NOSIG
ZGSZ,2017-05-28 10:00,ZGSZ 281000Z 20006MPS CAVOK 28/21 Q1007 NOSIG
ZGSZ,2017-05-28 11:00,ZGSZ 281100Z 19004MPS CAVOK 28/21 Q1007 NOSIG
ZGSZ,2017-05-28 12:00,ZGSZ 281200Z 19004MPS CAVOK 28/20 Q1008 NOSIG
ZGSZ,2017-05-28 13:00,ZGSZ 281300Z 15004MPS CAVOK 27/19 Q1009 NOSIG
ZGSZ,2017-05-28 14:00,ZGSZ 281400Z 14005MPS CAVOK 26/20 Q1009 NOSIG
ZGSZ,2017-05-28 15:00,ZGSZ 281500Z 14005MPS CAVOK 25/20 Q1010 NOSIG
ZGSZ,2017-05-28 16:00,ZGSZ 281600Z 15005MPS CAVOK 25/20 Q1009 NOSIG
ZGSZ,2017-05-28 17:00,ZGSZ 281700Z 15005MPS CAVOK 25/21 Q1009 NOSIG
ZGSZ,2017-05-28 18:00,ZGSZ 281800Z 14004MPS CAVOK 25/21 Q1009 NOSIG
ZGSZ,2017-05-28 19:00,ZGSZ 281900Z 13002MPS CAVOK 25/21 Q1009 NOSIG
ZGSZ,2017-05-28 20:00,ZGSZ 282000Z 11002MPS CAVOK 25/20 Q1010 NOSIG
ZGSZ,2017-05-28 21:00,ZGSZ 282100Z 13002MPS CAVOK 24/20 Q1010 NOSIG
ZGSZ,2017-05-28 22:00,ZGSZ 282200Z 15001MPS 9999 SCT022 24/21 Q1011 NOSIG
ZGSZ,2017-05-28 23:00,ZGSZ 282300Z 07002MPS 020V120 CAVOK 25/21 Q1011 NOSIG
ZGSZ,2017-05-29 00:00,ZGSZ 290000Z 08003MPS 040V130 CAVOK 27/20 Q1011 NOSIG
ZGSZ,2017-05-29 01:00,ZGSZ 290100Z 08002MPS 350V120 CAVOK 28/19 Q1011 NOSIG
ZGSZ,2017-05-29 02:00,ZGSZ 290200Z 01002MPS 300V080 CAVOK 30/19 Q1011 NOSIG
ZGSZ,2017-05-29 03:00,ZGSZ 290300Z 27003MPS CAVOK 29/20 Q1010 NOSIG
ZGSZ,2017-05-29 04:00,ZGSZ 290400Z 26004MPS CAVOK 29/21 Q1010 NOSIG
ZGSZ,2017-05-29 05:00,ZGSZ 290500Z 25004MPS CAVOK 29/21 Q1009 NOSIG
ZGSZ,2017-05-29 06:00,ZGSZ 290600Z 25004MPS CAVOK 29/21 Q1008 NOSIG
ZGSZ,2017-05-29 07:00,ZGSZ 290700Z 23004MPS CAVOK 30/21 Q1008 NOSIG
ZGSZ,2017-05-29 08:00,ZGSZ 290800Z 21006MPS CAVOK 29/22 Q1007 NOSIG
ZGSZ,2017-05-29 09:00,ZGSZ 290900Z 21006MPS 9999 FEW046 28/22 Q1007 NOSIG
ZGSZ,2017-05-29 10:00,ZGSZ 291000Z 21006MPS CAVOK 28/22 Q1008 NOSIG
ZGSZ,2017-05-29 11:00,ZGSZ 291100Z 20005MPS CAVOK 27/23 Q1008 NOSIG
ZGSZ,2017-05-29 12:00,ZGSZ 291200Z 19005MPS CAVOK 27/22 Q1009 NOSIG
ZGSZ,2017-05-29 13:00,ZGSZ 291300Z 14006MPS CAVOK 27/20 Q1009 NOSIG
ZGSZ,2017-05-29 14:00,ZGSZ 291400Z 14004MPS CAVOK 26/20 Q1010 NOSIG
ZGSZ,2017-05-29 15:00,ZGSZ 291500Z 14004MPS CAVOK 26/20 Q1010 NOSIG
ZGSZ,2017-05-29 16:00,ZGSZ 291600Z 13003MPS CAVOK 26/20 Q1010 NOSIG
ZGSZ,2017-05-29 17:00,ZGSZ 291700Z 14003MPS 100V160 CAVOK 26/20 Q1009 NOSIG
ZGSZ,2017-05-29 18:00,ZGSZ 291800Z 13002MPS 9999 FEW020 25/21 Q1009 NOSIG
ZGSZ,2017-05-29 19:00,ZGSZ 291900Z 15004MPS 9999 BKN020 25/21 Q1009 NOSIG
ZGSZ,2017-05-29 20:00,ZGSZ 292000Z 11002MPS 080V150 9999 BKN020 26/21 Q1009 NOSIG
ZGSZ,2017-05-29 21:00,ZGSZ 292100Z 09002MPS 060V120 9999 BKN020 26/21 Q1009 NOSIG
ZGSZ,2017-05-29 22:00,ZGSZ 292200Z VRB02MPS 9999 BKN020 26/21 Q1010 NOSIG
ZGSZ,2017-05-29 23:00,ZGSZ 292300Z 08002MPS 030V150 9999 BKN020 26/21 Q1010 NOSIG
ZGSZ,2017-05-30 00:00,ZGSZ 300000Z 10003MPS 050V140 9999 BKN020 26/21 Q1010 NOSIG
ZGSZ,2017-05-30 01:00,ZGSZ 300100Z 08002MPS 020V130 9999 BKN026 27/22 Q1011 NOSIG
ZGSZ,2017-05-30 02:00,ZGSZ 300200Z 16002MPS 110V210 9999 FEW020 BKN033 29/23 Q1010 NOSIG
ZGSZ,2017-05-30 03:00,ZGSZ 300300Z VRB02MPS 9999 SCT020 28/23 Q1010 NOSIG
ZGSZ,2017-05-30 04:00,ZGSZ 300400Z 31003MPS 9999 FEW046 29/23 Q1010 NOSIG
ZGSZ,2017-05-30 05:00,ZGSZ 300500Z 31004MPS CAVOK 30/23 Q1009 NOSIG
ZGSZ,2017-05-30 06:00,ZGSZ 300600Z 28003MPS 250V310 CAVOK 30/23 Q1009 NOSIG
ZGSZ,2017-05-30 07:00,ZGSZ 300700Z 23004MPS CAVOK 29/24 Q1008 NOSIG
ZGSZ,2017-05-30 08:00,ZGSZ 300800Z 22005MPS CAVOK 29/25 Q1008 NOSIG
ZGSZ,2017-05-30 09:00,ZGSZ 300900Z 22004MPS CAVOK 28/24 Q1007 NOSIG
ZGSZ,2017-05-30 10:00,ZGSZ 301000Z 23004MPS CAVOK 28/24 Q1007 NOSIG
ZGSZ,2017-05-30 11:00,ZGSZ 301100Z 22004MPS CAVOK 28/24 Q1007 NOSIG
ZGSZ,2017-05-30 12:00,ZGSZ 301200Z 22004MPS CAVOK 28/24 Q1008 NOSIG
ZGSZ,2017-05-30 13:00,ZGSZ 301300Z 22005MPS CAVOK 27/24 Q1008 NOSIG
ZGSZ,2017-05-30 14:00,ZGSZ 301400Z 20004MPS CAVOK 27/24 Q1009 NOSIG
ZGSZ,2017-05-30 15:00,ZGSZ 301500Z 22004MPS CAVOK 27/24 Q1008 NOSIG
ZGSZ,2017-05-30 16:00,ZGSZ 301600Z 21004MPS CAVOK 27/24 Q1008 NOSIG
ZGSZ,2017-05-30 17:00,ZGSZ 301700Z 22003MPS CAVOK 26/24 Q1007 NOSIG
ZGSZ,2017-05-30 18:00,ZGSZ 301800Z 22003MPS CAVOK 26/24 Q1007 NOSIG
ZGSZ,2017-05-30 19:00,ZGSZ 301900Z 25004MPS CAVOK 26/24 Q1008 NOSIG
ZGSZ,2017-05-30 20:00,ZGSZ 302000Z 24003MPS 9999 BKN016 26/24 Q1008 NOSIG
ZGSZ,2017-05-30 21:00,ZGSZ 302100Z 21003MPS 9999 BKN019 26/24 Q1008 NOSIG
ZGSZ,2017-05-30 22:00,ZGSZ 302200Z 23002MPS 9999 BKN020 26/24 Q1008 NOSIG
ZGSZ,2017-05-30 23:00,ZGSZ 302300Z 23002MPS 200V260 9999 BKN015 27/24 Q1008 NOSIG
ZGSZ,2017-05-31 00:00,ZGSZ 310000Z 22002MPS 190V250 9999 FEW017 27/25 Q1008 NOSIG
ZGSZ,2017-05-31 01:00,ZGSZ 310100Z 20003MPS 9999 FEW020 28/24 Q1008 NOSIG
ZGSZ,2017-05-31 02:00,ZGSZ 310200Z 23003MPS 200V260 9999 FEW020 29/24 Q1008 NOSIG
ZGSZ,2017-05-31 03:00,ZGSZ 310300Z 23003MPS 9999 FEW030 29/25 Q1008 NOSIG
ZGSZ,2017-05-31 04:00,ZGSZ 310400Z 21004MPS CAVOK 30/24 Q1008 NOSIG
ZGSZ,2017-05-31 05:00,ZGSZ 310500Z 20004MPS CAVOK 30/25 Q1006 NOSIG
ZGSZ,2017-05-31 06:00,ZGSZ 310600Z 20004MPS CAVOK 31/25 Q1006 NOSIG
ZGSZ,2017-05-31 07:00,ZGSZ 310700Z 21006MPS CAVOK 29/25 Q1005 NOSIG
ZGSZ,2017-05-31 08:00,ZGSZ 310800Z 20006MPS CAVOK 30/26 Q1004 NOSIG
ZGSZ,2017-05-31 09:00,ZGSZ 310900Z 20007MPS 9999 FEW027 29/26 Q1003 NOSIG
ZGSZ,2017-05-31 10:00,ZGSZ 311000Z 20008MPS CAVOK 28/25 Q1004 NOSIG
ZGSZ,2017-05-31 11:00,ZGSZ 311100Z 20008MPS CAVOK 28/26 Q1004 NOSIG
ZGSZ,2017-05-31 12:00,ZGSZ 311200Z 19007MPS CAVOK 28/26 Q1004 NOSIG
ZGSZ,2017-05-31 13:00,ZGSZ 311300Z 18005MPS CAVOK 28/26 Q1004 NOSIG
ZGSZ,2017-05-31 14:00,ZGSZ 311400Z 20005MPS CAVOK 28/26 Q1004 NOSIG
ZGSZ,2017-05-31 15:00,ZGSZ 311500Z 21007MPS 9999 FEW011 28/26 Q1005 NOSIG
ZGSZ,2017-05-31 16:00,ZGSZ 311600Z 20006MPS 9999 FEW011 28/26 Q1005 NOSIG
ZGSZ,2017-05-31 17:00,ZGSZ 311700Z 20005MPS 9999 FEW040 28/26 Q1004 NOSIG
ZGSZ,2017-05-31 18:00,ZGSZ 311800Z 20005MPS 9999 FEW020 28/26 Q1004 NOSIG
ZGSZ,2017-05-31 19:00,ZGSZ 311900Z 20004MPS 9999 FEW020 28/26 Q1004 NOSIG
ZGSZ,2017-05-31 20:00,ZGSZ 312000Z 19004MPS CAVOK 28/26 Q1003 NOSIG
ZGSZ,2017-05-31 21:00,ZGSZ 312100Z 18004MPS CAVOK 27/26 Q1003 NOSIG
ZGSZ,2017-05-31 22:00,ZGSZ 312200Z 20005MPS 9999 SCT021 28/26 Q1003 NOSIG
ZGSZ,2017-05-31 23:00,ZGSZ 312300Z 20005MPS 9999 FEW023 28/27 Q1003 NOSIG
ZGSZ,2017-06-01 00:00,ZGSZ 010000Z 20006MPS 9999 FEW023 29/27 Q1003 NOSIG
ZGSZ,2017-06-01 01:00,ZGSZ 010100Z 20005MPS 9999 BKN024 SCT050 30/27 Q1004 NOSIG
ZGSZ,2017-06-01 02:00,ZGSZ 010200Z 20005MPS 9999 -SHRA BKN026 FEW030CB BKN040 29/27 Q1004 NOSIG
ZGSZ,2017-06-01 03:00,ZGSZ 010300Z 20005MPS 9999 FEW030 30/27 Q1004 NOSIG
ZGSZ,2017-06-01 04:00,ZGSZ 010400Z 20006MPS 9999 FEW033 30/27 Q1003 NOSIG
ZGSZ,2017-06-01 05:00,ZGSZ 010500Z 19008MPS 9999 FEW033 30/27 Q1002 NOSIG
ZGSZ,2017-06-01 06:00,ZGSZ 010600Z 20008MPS 9999 FEW040 30/27 Q1002 NOSIG
ZGSZ,2017-06-01 07:00,ZGSZ 010700Z 20008MPS 9999 FEW040 30/27 Q1001 NOSIG
ZGSZ,2017-06-01 08:00,ZGSZ 010800Z 20008MPS 9999 FEW040 30/27 Q1001 NOSIG
ZGSZ,2017-06-01 09:00,ZGSZ 010900Z 20008MPS 9999 FEW040 30/27 Q1000 NOSIG
ZGSZ,2017-06-01 10:00,ZGSZ 011000Z 21009MPS CAVOK 29/27 Q1000 NOSIG
ZGSZ,2017-06-01 11:00,ZGSZ 011100Z 21008MPS CAVOK 29/27 Q1001 NOSIG
ZGSZ,2017-06-01 12:00,ZGSZ 011200Z 20005MPS CAVOK 29/27 Q1001 NOSIG
ZGSZ,2017-06-01 13:00,ZGSZ 011300Z 21007MPS CAVOK 29/27 Q1002 NOSIG
ZGSZ,2017-06-01 14:00,ZGSZ 011400Z 22006MPS CAVOK 29/27 Q1002 NOSIG
ZGSZ,2017-06-01 15:00,ZGSZ 011500Z 20006MPS CAVOK 29/27 Q1003 NOSIG
ZGSZ,2017-06-01 16:00,ZGSZ 011600Z 20006MPS CAVOK 29/27 Q1002 NOSIG
ZGSZ,2017-06-01 17:00,ZGSZ 011700Z 20006MPS CAVOK 28/27 Q1002 NOSIG
ZGSZ,2017-06-01 18:00,ZGSZ 011800Z 19005MPS 9999 BKN020 28/27 Q1002 NOSIG
ZGSZ,2017-06-01 19:00,ZGSZ 011900Z 19006MPS 9999 SCT020 28/27 Q1001 NOSIG
ZGSZ,2017-06-01 20:00,ZGSZ 012000Z 20006MPS 9999 SCT020 28/27 Q1001 NOSIG
ZGSZ,2017-06-01 21:00,ZGSZ 012100Z 20005MPS 9000 SCT020 28/27 Q1002 NOSIG
ZGSZ,2017-06-01 22:00,ZGSZ 012200Z 19006MPS 9000 SCT020 28/27 Q1002 NOSIG
ZGSZ,2017-06-01 23:00,ZGSZ 012300Z 20006MPS 8000 SCT020 28/27 Q1002 NOSIG
ZGSZ,2017-06-02 00:00,ZGSZ 020000Z 20006MPS CAVOK 29/27 Q1002 NOSIG
ZGSZ,2017-06-02 01:00,ZGSZ 020100Z 19007MPS 9999 FEW040 29/27 Q1003 NOSIG
ZGSZ,2017-06-02 02:00,ZGSZ 020200Z 20007MPS 9999 FEW040 31/27 Q1003 NOSIG
ZGSZ,2017-06-02 03:00,ZGSZ 020300Z 20006MPS 9999 BKN046 30/27 Q1003 NOSIG
ZGSZ,2017-06-02 04:00,ZGSZ 020400Z 19007MPS 9999 SCT040 30/27 Q1002 NOSIG
ZGSZ,2017-06-02 05:00,ZGSZ 020500Z 20007MPS 9999 FEW040 31/27 Q1002 NOSIG
ZGSZ,2017-06-02 06:00,ZGSZ 020600Z 20007MPS 9999 SCT040 31/27 Q1001 NOSIG
ZGSZ,2017-06-02 07:00,ZGSZ 020700Z 20008MPS 9999 FEW040 31/28 Q1000 NOSIG
ZGSZ,2017-06-02 08:00,ZGSZ 020800Z 20008MPS 9999 FEW040 30/27 Q1000 NOSIG
ZGSZ,2017-06-02 09:00,ZGSZ 020900Z 19008MPS CAVOK 30/27 Q1000 NOSIG
ZGSZ,2017-06-02 10:00,ZGSZ 021000Z 20009MPS CAVOK 29/27 Q1000 NOSIG
ZGSZ,2017-06-02 11:00,ZGSZ 021100Z 19007MPS CAVOK 29/27 Q1001 NOSIG
ZGSZ,2017-06-02 12:00,ZGSZ 021200Z 19007MPS CAVOK 29/27 Q1001 NOSIG
ZGSZ,2017-06-02 13:00,ZGSZ 021300Z 19007MPS CAVOK 29/27 Q1002 NOSIG
ZGSZ,2017-06-02 14:00,ZGSZ 021400Z 19007MPS CAVOK 29/27 Q1002 NOSIG
ZGSZ,2017-06-02 15:00,ZGSZ 021500Z 19006MPS CAVOK 29/28 Q1003 NOSIG
ZGSZ,2017-06-02 16:00,ZGSZ 021600Z 20006MPS 9999 SCT015 29/27 Q1003 NOSIG
ZGSZ,2017-06-02 17:00,ZGSZ 021700Z 20007MPS CAVOK 29/27 Q1002 NOSIG
ZGSZ,2017-06-02 18:00,ZGSZ 021800Z 20007MPS CAVOK 29/27 Q1002 NOSIG
ZGSZ,2017-06-02 19:00,ZGSZ 021900Z 20006MPS CAVOK 29/27 Q1001 NOSIG
ZGSZ,2017-06-02 20:00,ZGSZ 022000Z 21006MPS CAVOK 28/27 Q1001 NOSIG
ZGSZ,2017-06-02 21:00,ZGSZ 022100Z 20006MPS CAVOK 28/27 Q1002 NOSIG
ZGSZ,2017-06-02 22:00,ZGSZ 022200Z 20005MPS CAVOK 28/27 Q1002 NOSIG
ZGSZ,2017-06-02 23:00,ZGSZ 022300Z 20004MPS CAVOK 29/27 Q1003 NOSIG
ZGSZ,2017-06-03 00:00,ZGSZ 030000Z 20004MPS CAVOK 29/28 Q1003 NOSIG
ZGSZ,2017-06-03 01:00,ZGSZ 030100Z 20005MPS 9999 FEW040 30/28 Q1004 NOSIG
ZGSZ,2017-06-03 02:00,ZGSZ 030200Z 20005MPS 9999 FEW040 31/28 Q1004 NOSIG
ZGSZ,2017-06-03 03:00,ZGSZ 030300Z 19006MPS 9999 FEW040 31/28 Q1003 NOSIG
ZGSZ,2017-06-03 04:00,ZGSZ 030400Z 19007MPS 9999 FEW040 32/28 Q1002 NOSIG
ZGSZ,2017-06-03 05:00,ZGSZ 030500Z 20006MPS 9999 FEW040 32/28 Q1002 NOSIG
ZGSZ,2017-06-03 06:00,ZGSZ 030600Z 19007MPS 9999 FEW040 32/28 Q1001 NOSIG
ZGSZ,2017-06-03 07:00,ZGSZ 030700Z 20008MPS 9999 FEW040 32/28 Q1001 NOSIG
ZGSZ,2017-06-03 08:00,ZGSZ 030800Z 20009MPS 9999 FEW040 31/27 Q1000 NOSIG
ZGSZ,2017-06-03 09:00,ZGSZ 030900Z 20010MPS CAVOK 30/28 Q1000 NOSIG
ZGSZ,2017-06-03 10:00,ZGSZ 031000Z 19010MPS CAVOK 30/28 Q1000 NOSIG
ZGSZ,2017-06-03 11:00,ZGSZ 031100Z 19009MPS 9999 FEW013 30/28 Q1001 NOSIG
ZGSZ,2017-06-03 12:00,ZGSZ 031200Z 20009MPS 9999 BKN011 30/27 Q1002 BECMG AT1340 SCT011
ZGSZ,2017-06-03 13:00,ZGSZ 031300Z 19007MPS 9999 BKN014 30/27 Q1003 BECMG AT1340 SCT011
ZGSZ,2017-06-03 14:00,ZGSZ 031400Z 20006MPS 9999 SCT011 30/28 Q1003 NOSIG
ZGSZ,2017-06-03 15:00,ZGSZ 031500Z 20006MPS 9999 FEW020 29/28 Q1002 NOSIG
ZGSZ,2017-06-03 16:00,ZGSZ 031600Z 19006MPS 9999 SCT010 29/28 Q1002 NOSIG
ZGSZ,2017-06-03 17:00,ZGSZ 031700Z 19005MPS 9999 BKN011 BKN026 29/28 Q1003 NOSIG
ZGSZ,2017-06-03 18:00,ZGSZ 031800Z 19006MPS 9999 BKN011 BKN026 29/28 Q1002 NOSIG
ZGSZ,2017-06-03 19:00,ZGSZ 031900Z 19006MPS 9999 SCT011 29/28 Q1001 NOSIG
ZGSZ,2017-06-03 20:00,ZGSZ 032000Z 19005MPS 9999 FEW010 29/28 Q1001 NOSIG
ZGSZ,2017-06-03 21:00,ZGSZ 032100Z 19006MPS 9999 FEW010 29/27 Q1001 NOSIG
ZGSZ,2017-06-03 22:00,ZGSZ 032200Z 18005MPS 9999 FEW010 29/27 Q1002 NOSIG
ZGSZ,2017-06-03 23:00,ZGSZ 032300Z 18005MPS 9999 BKN016 29/27 Q1003 NOSIG
ZGSZ,2017-06-04 00:00,ZGSZ 040000Z 19006MPS 9999 FEW017 30/27 Q1004 NOSIG
ZGSZ,2017-06-04 01:00,ZGSZ 040100Z 19006MPS 9999 SCT016 30/27 Q1004 NOSIG
ZGSZ,2017-06-04 02:00,ZGSZ 040200Z 19006MPS 9999 SCT023 30/28 Q1004 NOSIG
ZGSZ,2017-06-04 03:00,ZGSZ 040300Z 20006MPS 9999 FEW015 BKN040 30/28 Q1003 BECMG AT0330 SHRA
ZGSZ,2017-06-04 04:00,ZGSZ 040400Z 20007MPS 9999 -SHRA SCT020 BKN040 30/27 Q1003 RETS NOSIG
ZGSZ,2017-06-04 05:00,ZGSZ 040500Z 20006MPS 9999 FEW025 BKN040 30/28 Q1002 NOSIG
ZGSZ,2017-06-04 06:00,ZGSZ 040600Z 19007MPS 9999 FEW030 31/28 Q1002 NOSIG
ZGSZ,2017-06-04 07:00,ZGSZ 040700Z 19008MPS 9999 FEW030 31/27 Q1002 NOSIG
ZGSZ,2017-06-04 08:00,ZGSZ 040800Z 20009MPS 9999 FEW040 31/27 Q1001 NOSIG
ZGSZ,2017-06-04 09:00,ZGSZ 040900Z 19008MPS 9999 FEW023 31/28 Q1002 NOSIG
ZGSZ,2017-06-04 10:00,ZGSZ 041000Z 19008MPS 9999 FEW023 31/27 Q1002 NOSIG
ZGSZ,2017-06-04 11:00,ZGSZ 041100Z 19007MPS 9999 FEW023 30/27 Q1003 NOSIG
ZGSZ,2017-06-04 12:00,ZGSZ 041200Z 19006MPS CAVOK 30/27 Q1003 NOSIG
ZGSZ,2017-06-04 13:00,ZGSZ 041300Z 19007MPS CAVOK 30/27 Q1004 NOSIG
ZGSZ,2017-06-04 14:00,ZGSZ 041400Z 20006MPS CAVOK 30/27 Q1005 NOSIG
ZGSZ,2017-06-04 15:00,ZGSZ 041500Z 20006MPS 9999 FEW020 BKN030 30/27 Q1005 NOSIG
ZGSZ,2017-06-04 16:00,ZGSZ 041600Z 18005MPS 9999 SCT018 29/27 Q1005 NOSIG
ZGSZ,2017-06-04 17:00,ZGSZ 041700Z 19004MPS 9999 SCT018 29/26 Q1005 NOSIG
ZGSZ,2017-06-04 18:00,ZGSZ 041800Z 18004MPS 9999 SCT018 29/26 Q1004 NOSIG
ZGSZ,2017-06-04 19:00,ZGSZ 041900Z 18005MPS 9999 SCT018 29/26 Q1004 NOSIG
ZGSZ,2017-06-04 20:00,ZGSZ 042000Z 18005MPS 9999 BKN019 29/26 Q1004 NOSIG
ZGSZ,2017-06-04 21:00,ZGSZ 042100Z 18004MPS 9999 SCT020 29/26 Q1004 NOSIG
ZGSZ,2017-06-04 22:00,ZGSZ 042200Z 19005MPS 9999 SCT018 29/27 Q1005 NOSIG
ZGSZ,2017-06-04 23:00,ZGSZ 042300Z 18004MPS 9999 FEW020 30/26 Q1006 NOSIG
ZGSZ,2017-06-05 00:00,ZGSZ 050000Z 18005MPS 9999 FEW030 BKN050 31/26 Q1006 NOSIG
ZGSZ,2017-06-05 01:00,ZGSZ 050100Z 21005MPS 9999 FEW023 31/27 Q1006 NOSIG
ZGSZ,2017-06-05 02:00,ZGSZ 050200Z 21006MPS 9999 FEW030 32/27 Q1007 NOSIG
ZGSZ,2017-06-05 03:00,ZGSZ 050300Z 20006MPS 9999 FEW040 32/28 Q1006 NOSIG
ZGSZ,2017-06-05 04:00,ZGSZ 050400Z 21007MPS 9999 SCT040 32/27 Q1006 NOSIG
ZGSZ,2017-06-05 05:00,ZGSZ 050500Z 20007MPS 9999 SCT040 32/27 Q1005 NOSIG
ZGSZ,2017-06-05 06:00,ZGSZ 050600Z 22007MPS 9999 FEW026 32/27 Q1005 NOSIG
ZGSZ,2017-06-05 07:00,ZGSZ 050700Z 21008MPS 9999 FEW026 32/27 Q1004 NOSIG
ZGSZ,2017-06-05 08:00,ZGSZ 050800Z 20008MPS 9999 FEW033 32/27 Q1004 NOSIG
ZGSZ,2017-06-05 09:00,ZGSZ 050900Z 20007MPS 9999 FEW030 32/27 Q1004 NOSIG
ZGSZ,2017-06-05 10:00,ZGSZ 051000Z 19008MPS 9999 FEW030 31/26 Q1004 NOSIG
ZGSZ,2017-06-05 11:00,ZGSZ 051100Z 19006MPS 9999 FEW030 30/26 Q1004 NOSIG
ZGSZ,2017-06-05 12:00,ZGSZ 051200Z 20006MPS 9999 FEW030 30/26 Q1005 NOSIG
ZGSZ,2017-06-05 13:00,ZGSZ 051300Z 18005MPS CAVOK 30/26 Q1007 NOSIG
ZGSZ,2017-06-05 14:00,ZGSZ 051400Z 18005MPS CAVOK 30/25 Q1007 NOSIG
ZGSZ,2017-06-05 15:00,ZGSZ 051500Z 18004MPS 9999 FEW025 30/25 Q1008 NOSIG
ZGSZ,2017-06-05 16:00,ZGSZ 051600Z 18005MPS 9999 SCT024 30/25 Q1008 NOSIG
ZGSZ,2017-06-05 17:00,ZGSZ 051700Z 18005MPS CAVOK 30/25 Q1008 NOSIG
ZGSZ,2017-06-05 18:00,ZGSZ 051800Z 18005MPS CAVOK 29/26 Q1008 NOSIG
ZGSZ,2017-06-05 19:00,ZGSZ 051900Z 18005MPS CAVOK 29/25 Q1007 NOSIG
ZGSZ,2017-06-05 20:00,ZGSZ 052000Z 18005MPS CAVOK 29/25 Q1007 NOSIG
ZGSZ,2017-06-05 21:00,ZGSZ 052100Z 18004MPS CAVOK 29/25 Q1008 NOSIG
ZGSZ,2017-06-05 22:00,ZGSZ 052200Z 18004MPS 9999 FEW030 29/25 Q1008 NOSIG
ZGSZ,2017-06-05 23:00,ZGSZ 052300Z 17004MPS 9999 FEW030 30/25 Q1009 NOSIG
ZGSZ,2017-06-06 00:00,ZGSZ 060000Z 19004MPS 9999 FEW030 31/26 Q1009 NOSIG
ZGSZ,2017-06-06 01:00,ZGSZ 060100Z 20004MPS 9999 FEW020TCU SCT030 31/26 Q1010 NOSIG
ZGSZ,2017-06-06 02:00,ZGSZ 060200Z 19005MPS 9999 FEW020TCU FEW030 30/26 Q1010 NOSIG
ZGSZ,2017-06-06 03:00,ZGSZ 060300Z 21005MPS CAVOK 32/27 Q1009 NOSIG
ZGSZ,2017-06-06 04:00,ZGSZ 060400Z 22005MPS 9999 FEW033 32/28 Q1009 NOSIG
ZGSZ,2017-06-06 05:00,ZGSZ 060500Z 22006MPS CAVOK 32/27 Q1008 NOSIG
ZGSZ,2017-06-06 06:00,ZGSZ 060600Z 21006MPS CAVOK 32/27 Q1008 NOSIG
ZGSZ,2017-06-06 07:00,ZGSZ 060700Z 21006MPS CAVOK 32/27 Q1007 NOSIG
ZGSZ,2017-06-06 08:00,ZGSZ 060800Z 21007MPS CAVOK 32/27 Q1007 NOSIG
ZGSZ,2017-06-06 09:00,ZGSZ 060900Z 21007MPS CAVOK 31/27 Q1007 NOSIG
ZGSZ,2017-06-06 10:00,ZGSZ 061000Z 20006MPS CAVOK 31/27 Q1007 NOSIG
ZGSZ,2017-06-06 11:00,ZGSZ 061100Z 20006MPS CAVOK 31/25 Q1007 NOSIG
ZGSZ,2017-06-06 12:00,ZGSZ 061200Z 19006MPS CAVOK 30/26 Q1009 NOSIG
ZGSZ,2017-06-06 13:00,ZGSZ 061300Z 19005MPS CAVOK 30/26 Q1010 NOSIG
ZGSZ,2017-06-06 14:00,ZGSZ 061400Z 18005MPS CAVOK 30/25 Q1010 NOSIG
ZGSZ,2017-06-06 15:00,ZGSZ 061500Z 19003MPS CAVOK 30/25 Q1011 NOSIG
ZGSZ,2017-06-06 16:00,ZGSZ 061600Z 19003MPS CAVOK 30/25 Q1010 NOSIG
ZGSZ,2017-06-06 17:00,ZGSZ 061700Z 14002MPS 080V170 9999 SCT027 30/25 Q1010 NOSIG
ZGSZ,2017-06-06 18:00,ZGSZ 061800Z 13003MPS 110V180 9999 SCT021 29/25 Q1010 NOSIG
ZGSZ,2017-06-06 19:00,ZGSZ 061900Z 13003MPS 110V180 CAVOK 29/25 Q1009 NOSIG
ZGSZ,2017-06-06 20:00,ZGSZ 062000Z 36004MPS 9999 SCT020 BKN050 28/25 Q1009 BECMG AT2030 2500 SHRA
ZGSZ,2017-06-06 21:00,ZGSZ 062100Z 32008MPS 9999 SCT015 BKN033 27/25 Q1009 NOSIG
ZGSZ,2017-06-06 22:00,ZGSZ 062200Z 16005MPS 9999 FEW017 26/25 Q1009 NOSIG
ZGSZ,2017-06-06 23:00,ZGSZ 062300Z 18005MPS 9999 FEW023 29/26 Q1009 NOSIG
ZGSZ,2017-06-07 00:00,ZGSZ 070000Z 22004MPS 9999 FEW023 29/26 Q1010 NOSIG
ZGSZ,2017-06-07 01:00,ZGSZ 070100Z 25003MPS 220V280 9999 SCT027 30/26 Q1011 NOSIG
ZGSZ,2017-06-07 02:00,ZGSZ 070200Z 28003MPS 9999 FEW020TCU SCT026 30/26 Q1011 NOSIG
ZGSZ,2017-06-07 03:00,ZGSZ 070300Z 29003MPS 250V310 9999 FEW020TCU SCT026 31/26 Q1011 NOSIG
ZGSZ,2017-06-07 04:00,ZGSZ 070400Z 25003MPS 220V280 9999 FEW020TCU SCT026 32/26 Q1010 NOSIG
ZGSZ,2017-06-07 05:00,ZGSZ 070500Z 23003MPS 190V260 9999 FEW021TCU FEW021 32/27 Q1010 NOSIG
ZGSZ,2017-06-07 06:00,ZGSZ 070600Z 22005MPS 9999 FEW021TCU FEW021 32/27 Q1009 NOSIG
ZGSZ,2017-06-07 07:00,ZGSZ 070700Z 22006MPS 9999 FEW021CB 32/26 Q1008 NOSIG
ZGSZ,2017-06-07 08:00,ZGSZ 070800Z 22007MPS 9999 FEW023 32/26 Q1008 NOSIG
ZGSZ,2017-06-07 09:00,ZGSZ 070900Z 22006MPS CAVOK 31/25 Q1007 NOSIG
ZGSZ,2017-06-07 10:00,ZGSZ 071000Z 22007MPS CAVOK 31/26 Q1008 NOSIG
ZGSZ,2017-06-07 11:00,ZGSZ 071100Z 22006MPS CAVOK 30/26 Q1008 NOSIG
ZGSZ,2017-06-07 12:00,ZGSZ 071200Z 23006MPS CAVOK 30/26 Q1009 NOSIG
ZGSZ,2017-06-07 13:00,ZGSZ 071300Z 21005MPS CAVOK 30/26 Q1010 NOSIG
ZGSZ,2017-06-07 14:00,ZGSZ 071400Z 21004MPS CAVOK 30/26 Q1010 NOSIG
ZGSZ,2017-06-07 15:00,ZGSZ 071500Z 21003MPS CAVOK 30/26 Q1011 NOSIG
ZGSZ,2017-06-07 16:00,ZGSZ 071600Z 20005MPS CAVOK 30/26 Q1011 NOSIG
ZGSZ,2017-06-07 17:00,ZGSZ 071700Z 18004MPS 9999 FEW022 29/25 Q1010 NOSIG
ZGSZ,2017-06-07 18:00,ZGSZ 071800Z 17003MPS 120V200 9999 FEW022 29/25 Q1010 NOSIG
ZGSZ,2017-06-07 19:00,ZGSZ 071900Z 12002MPS CAVOK 29/25 Q1009 NOSIG
ZGSZ,2017-06-07 20:00,ZGSZ 072000Z 13003MPS 090V180 CAVOK 29/25 Q1009 NOSIG
ZGSZ,2017-06-07 21:00,ZGSZ 072100Z 12003MPS 090V150 CAVOK 28/25 Q1009 NOSIG
ZGSZ,2017-06-07 22:00,ZGSZ 072200Z 13003MPS CAVOK 28/25 Q1010 NOSIG
ZGSZ,2017-06-07 23:00,ZGSZ 072300Z 13003MPS CAVOK 30/25 Q1010 NOSIG
ZGSZ,2017-06-08 00:00,ZGSZ 080000Z VRB02MPS CAVOK 31/25 Q1010 NOSIG
ZGSZ,2017-06-08 01:00,ZGSZ 080100Z 26002MPS 220V310 9999 FEW025 30/25 Q1011 NOSIG
ZGSZ,2017-06-08 02:00,ZGSZ 080200Z 23004MPS 9999 FEW027 32/26 Q1011 NOSIG
ZGSZ,2017-06-08 03:00,ZGSZ 080300Z 24003MPS 9999 FEW027 32/26 Q1011 NOSIG
ZGSZ,2017-06-08 04:00,ZGSZ 080400Z 23005MPS 9999 FEW027 32/26 Q1010 NOSIG
ZGSZ,2017-06-08 05:00,ZGSZ 080500Z 23006MPS 9999 FEW027 32/26 Q1010 NOSIG
ZGSZ,2017-06-08 06:00,ZGSZ 080600Z 22007MPS 9999 FEW027CB FEW027 32/27 Q1009 NOSIG
ZGSZ,2017-06-08 07:00,ZGSZ 080700Z 22007MPS 9999 FEW027CB FEW027 32/27 Q1008 NOSIG
ZGSZ,2017-06-08 08:00,ZGSZ 080800Z 21006MPS 9999 FEW027TCU FEW027 32/26 Q1008 NOSIG
ZGSZ,2017-06-08 09:00,ZGSZ 080900Z 21005MPS 9999 FEW027TCU FEW027 31/26 Q1008 NOSIG
ZGSZ,2017-06-08 10:00,ZGSZ 081000Z 21006MPS 9999 FEW027 31/26 Q1007 NOSIG
ZGSZ,2017-06-08 11:00,ZGSZ 081100Z 20005MPS CAVOK 30/26 Q1008 NOSIG
ZGSZ,2017-06-08 12:00,ZGSZ 081200Z 19005MPS CAVOK 30/25 Q1008 NOSIG
ZGSZ,2017-06-08 13:00,ZGSZ 081300Z 19004MPS CAVOK 30/25 Q1009 NOSIG
ZGSZ,2017-06-08 14:00,ZGSZ 081400Z 18004MPS 9999 FEW027 30/25 Q1010 NOSIG
ZGSZ,2017-06-08 15:00,ZGSZ 081500Z 13004MPS 9999 SCT023 30/25 Q1010 NOSIG
ZGSZ,2017-06-08 16:00,ZGSZ 081600Z 12004MPS 100V160 9999 FEW023 29/25 Q1010 NOSIG
ZGSZ,2017-06-08 17:00,ZGSZ 081700Z 12004MPS 090V170 CAVOK 29/25 Q1010 NOSIG
ZGSZ,2017-06-08 18:00,ZGSZ 081800Z 13004MPS 9999 SCT026 29/25 Q1009 NOSIG
ZGSZ,2017-06-08 19:00,ZGSZ 081900Z 13003MPS CAVOK 29/25 Q1009 NOSIG
ZGSZ,2017-06-08 20:00,ZGSZ 082000Z 13003MPS CAVOK 29/24 Q1009 NOSIG
ZGSZ,2017-06-08 21:00,ZGSZ 082100Z 11003MPS CAVOK 28/24 Q1009 NOSIG
ZGSZ,2017-06-08 22:00,ZGSZ 082200Z 12003MPS 9999 FEW020TCU 28/24 Q1009 NOSIG
ZGSZ,2017-06-08 23:00,ZGSZ 082300Z 14004MPS 9999 FEW020TCU 30/25 Q1009 NOSIG
ZGSZ,2017-06-09 00:00,ZGSZ 090000Z 14004MPS 110V170 9999 FEW018 31/25 Q1010 NOSIG
ZGSZ,2017-06-09 01:00,ZGSZ 090100Z 24003MPS 9999 SCT020 30/25 Q1010 NOSIG
ZGSZ,2017-06-09 02:00,ZGSZ 090200Z 23003MPS 9999 FEW020CB SCT020 29/26 Q1010 RETS NOSIG
ZGSZ,2017-06-09 03:00,ZGSZ 090300Z 22002MPS 180V250 9999 FEW020CB SCT020 30/27 Q1010 NOSIG
ZGSZ,2017-06-09 04:00,ZGSZ 090400Z 22004MPS 9999 SCT030 31/27 Q1009 NOSIG
ZGSZ,2017-06-09 05:00,ZGSZ 090500Z 22007MPS 9999 FEW020 31/26 Q1009 NOSIG
ZGSZ,2017-06-09 06:00,ZGSZ 090600Z 21007MPS 9999 FEW020 31/26 Q1008 NOSIG
ZGSZ,2017-06-09 07:00,ZGSZ 090700Z 22007MPS CAVOK 32/26 Q1007 NOSIG
ZGSZ,2017-06-09 08:00,ZGSZ 090800Z 22007MPS 9999 FEW033CB 31/26 Q1007 NOSIG
ZGSZ,2017-06-09 09:00,ZGSZ 090900Z 22007MPS 9999 FEW027CB 30/26 Q1007 NOSIG
ZGSZ,2017-06-09 10:00,ZGSZ 091000Z 20005MPS 9999 FEW027CB 31/26 Q1007 NOSIG
ZGSZ,2017-06-09 11:00,ZGSZ 091100Z 22006MPS CAVOK 30/26 Q1007 NOSIG
ZGSZ,2017-06-09 12:00,ZGSZ 091200Z 20005MPS CAVOK 30/26 Q1008 NOSIG
ZGSZ,2017-06-09 13:00,ZGSZ 091300Z 19005MPS 9999 FEW023 30/26 Q1008 NOSIG
ZGSZ,2017-06-09 14:00,ZGSZ 091400Z 13004MPS 9999 FEW023 30/25 Q1009 NOSIG
ZGSZ,2017-06-09 15:00,ZGSZ 091500Z 13004MPS 9999 FEW023 29/25 Q1009 NOSIG
ZGSZ,2017-06-09 16:00,ZGSZ 091600Z 14004MPS 110V170 CAVOK 29/24 Q1009 NOSIG
ZGSZ,2017-06-09 17:00,ZGSZ 091700Z 14004MPS CAVOK 29/24 Q1009 NOSIG
ZGSZ,2017-06-09 18:00,ZGSZ 091800Z 12003MPS 9999 FEW030 29/25 Q1009 NOSIG
ZGSZ,2017-06-09 19:00,ZGSZ 091900Z 16002MPS 120V180 9999 FEW023 29/25 Q1009 NOSIG
ZGSZ,2017-06-09 20:00,ZGSZ 092000Z 18005MPS 9999 FEW027 29/24 Q1008 NOSIG
ZGSZ,2017-06-09 21:00,ZGSZ 092100Z 18003MPS 9999 FEW027 28/25 Q1008 NOSIG
ZGSZ,2017-06-09 22:00,ZGSZ 092200Z VRB01MPS 9999 FEW027 29/25 Q1008 NOSIG
ZGSZ,2017-06-09 23:00,ZGSZ 092300Z 11002MPS 080V150 9999 FEW027 30/25 Q1009 NOSIG
ZGSZ,2017-06-10 00:00,ZGSZ 100000Z 21003MPS 9999 FEW027 30/24 Q1009 NOSIG
ZGSZ,2017-06-10 01:00,ZGSZ 100100Z 22003MPS 190V250 9999 FEW027 31/25 Q1009 NOSIG
ZGSZ,2017-06-10 02:00,ZGSZ 100200Z 23003MPS 9999 FEW023TCU FEW023 32/25 Q1009 NOSIG
ZGSZ,2017-06-10 03:00,ZGSZ 100300Z 22005MPS 9999 FEW023TCU FEW023 32/26 Q1009 NOSIG
ZGSZ,2017-06-10 04:00,ZGSZ 100400Z 26005MPS 9999 FEW023TCU SCT050 30/25 Q1009 NOSIG
ZGSZ,2017-06-10 05:00,ZGSZ 100500Z 26004MPS 9999 FEW023 SCT050 30/25 Q1008 NOSIG
ZGSZ,2017-06-10 06:00,ZGSZ 100600Z 25004MPS 9999 SCT050 30/26 Q1008 NOSIG
ZGSZ,2017-06-10 07:00,ZGSZ 100700Z 24004MPS CAVOK 31/26 Q1007 NOSIG
ZGSZ,2017-06-10 08:00,ZGSZ 100800Z 21004MPS CAVOK 31/27 Q1006 NOSIG
ZGSZ,2017-06-10 09:00,ZGSZ 100900Z 21005MPS 9999 FEW023TCU FEW023 32/26 Q1006 NOSIG
ZGSZ,2017-06-10 10:00,ZGSZ 101000Z 21006MPS 9999 FEW023TCU FEW023 31/26 Q1006 NOSIG
ZGSZ,2017-06-10 11:00,ZGSZ 101100Z 21005MPS CAVOK 30/26 Q1006 NOSIG
ZGSZ,2017-06-10 12:00,ZGSZ 101200Z 21006MPS CAVOK 30/27 Q1007 NOSIG
ZGSZ,2017-06-10 13:00,ZGSZ 101300Z 20005MPS CAVOK 30/26 Q1007 NOSIG
ZGSZ,2017-06-10 14:00,ZGSZ 101400Z 21005MPS CAVOK 30/26 Q1008 NOSIG
ZGSZ,2017-06-10 15:00,ZGSZ 101500Z 20005MPS CAVOK 30/26 Q1008 NOSIG
ZGSZ,2017-06-10 16:00,ZGSZ 101600Z 19004MPS CAVOK 29/26 Q1008 NOSIG
ZGSZ,2017-06-10 17:00,ZGSZ 101700Z 19003MPS 9999 FEW017 29/26 Q1008 NOSIG
ZGSZ,2017-06-10 18:00,ZGSZ 101800Z 19002MPS 9999 FEW017 29/26 Q1007 NOSIG
ZGSZ,2017-06-10 19:00,ZGSZ 101900Z 20003MPS 170V240 9999 FEW017 29/26 Q1007 NOSIG
ZGSZ,2017-06-10 20:00,ZGSZ 102000Z 19003MPS 9999 SCT017 29/26 Q1007 NOSIG
ZGSZ,2017-06-10 21:00,ZGSZ 102100Z 21004MPS 9999 SCT011 29/26 Q1007 NOSIG
ZGSZ,2017-06-10 22:00,ZGSZ 102200Z 20003MPS 9999 FEW012 29/26 Q1007 NOSIG
ZGSZ,2017-06-10 23:00,ZGSZ 102300Z 20003MPS 9999 FEW017 29/26 Q1007 NOSIG
ZGSZ,2017-06-11 00:00,ZGSZ 110000Z 22003MPS 190V250 9999 FEW017TCU FEW017 29/26 Q1007 NOSIG
ZGSZ,2017-06-11 01:00,ZGSZ 110100Z 24003MPS 9999 FEW020 30/26 Q1008 NOSIG
ZGSZ,2017-06-11 02:00,ZGSZ 110200Z 26003MPS 9999 FEW020 31/26 Q1008 NOSIG
ZGSZ,2017-06-11 03:00,ZGSZ 110300Z 26003MPS 9999 FEW020 31/26 Q1008 NOSIG
ZGSZ,2017-06-11 04:00,ZGSZ 110400Z 24003MPS 210V270 9999 FEW020 32/25 Q1007 NOSIG
ZGSZ,2017-06-11 05:00,ZGSZ 110500Z 25003MPS 9999 FEW020 33/25 Q1007 NOSIG
ZGSZ,2017-06-11 06:00,ZGSZ 110600Z 24003MPS 9999 FEW020 33/25 Q1006 NOSIG
ZGSZ,2017-06-11 07:00,ZGSZ 110700Z 23005MPS 9999 FEW020 33/25 Q1005 NOSIG
ZGSZ,2017-06-11 08:00,ZGSZ 110800Z 21006MPS 9999 FEW020TCU FEW020 33/26 Q1005 NOSIG
ZGSZ,2017-06-11 09:00,ZGSZ 110900Z 21006MPS 9999 FEW020 32/27 Q1005 NOSIG
ZGSZ,2017-06-11 10:00,ZGSZ 111000Z 22007MPS 9999 SCT030 32/27 Q1005 NOSIG
ZGSZ,2017-06-11 11:00,ZGSZ 111100Z 20008MPS 9999 SCT020 31/26 Q1005 NOSIG
ZGSZ,2017-06-11 12:00,ZGSZ 111200Z 21006MPS 9999 SCT020 31/26 Q1005 NOSIG
ZGSZ,2017-06-11 13:00,ZGSZ 111300Z 20005MPS 9999 SCT020 30/26 Q1006 NOSIG
ZGSZ,2017-06-11 14:00,ZGSZ 111400Z 13004MPS CAVOK 30/24 Q1006 NOSIG
ZGSZ,2017-06-11 15:00,ZGSZ 111500Z 12003MPS CAVOK 30/25 Q1007 NOSIG
ZGSZ,2017-06-11 16:00,ZGSZ 111600Z 12004MPS 090V150 CAVOK 29/24 Q1007 NOSIG
ZGSZ,2017-06-11 17:00,ZGSZ 111700Z 13004MPS 100V160 CAVOK 29/24 Q1006 NOSIG
ZGSZ,2017-06-11 18:00,ZGSZ 111800Z VRB01MPS CAVOK 29/24 Q1006 NOSIG
ZGSZ,2017-06-11 19:00,ZGSZ 111900Z 09002MPS CAVOK 29/24 Q1005 NOSIG
ZGSZ,2017-06-11 20:00,ZGSZ 112000Z 08002MPS CAVOK 29/25 Q1005 NOSIG
ZGSZ,2017-06-11 21:00,ZGSZ 112100Z 07004MPS CAVOK 29/25 Q1005 NOSIG
ZGSZ,2017-06-11 22:00,ZGSZ 112200Z 08004MPS 9999 SCT030 29/25 Q1005 NOSIG
ZGSZ,2017-06-11 23:00,ZGSZ 112300Z 08003MPS 9999 SCT026 29/25 Q1005 NOSIG
ZGSZ,2017-06-12 00:00,ZGSZ 120000Z 09004MPS 070V150 9999 SCT026 30/25 Q1005 NOSIG
ZGSZ,2017-06-12 01:00,ZGSZ 120100Z 07005MPS 040V100 9999 SCT018 FEW020CB SCT026 31/25 Q1005 NOSIG
ZGSZ,2017-06-12 02:00,ZGSZ 120200Z 10003MPS 030V160 9999 FEW020CB BKN033 31/25 Q1005 NOSIG
ZGSZ,2017-06-12 03:00,ZGSZ 120300Z 10007MPS 050V160 8000 -SHRA SCT016 FEW020CB BKN033 28/25 Q1005 NOSIG
ZGSZ,2017-06-12 04:00,ZGSZ 120400Z 12004MPS 090V150 9999 R15/P2000 R16/0800V1300U -SHRA FEW016 FEW020CB BKN033 26/25 Q1005 RESHRA NOSIG
ZGSZ,2017-06-12 05:00,ZGSZ 120500Z 09005MPS 030V110 9999 FEW016 FEW020CB BKN033 29/26 Q1004 NOSIG
ZGSZ,2017-06-12 06:00,ZGSZ 120600Z 07006MPS 030V100 9999 SCT015 FEW026CB BKN050 30/25 Q1003 NOSIG
ZGSZ,2017-06-12 07:00,ZGSZ 120700Z 06006MPS 040V110 9999 SCT020 30/25 Q1001 NOSIG
ZGSZ,2017-06-12 08:00,ZGSZ 120800Z 07007G13MPS 9999 -SHRA FEW020CB SCT026 29/25 Q1001 NOSIG
ZGSZ,2017-06-12 09:00,ZGSZ 120900Z 07007MPS 9999 FEW026 FEW030CB 29/24 Q1000 NOSIG
ZGSZ,2017-06-12 10:00,ZGSZ 121000Z 05007MPS 9999 SCT026 FEW033CB 30/24 Q1000 BECMG AT1150 35007MPS
ZGSZ,2017-06-12 11:00,ZGSZ 121100Z 04007MPS 9999 SCT015 BKN046 29/24 Q1000 BECMG AT1240 35008MPS
ZGSZ,2017-06-12 12:00,ZGSZ 121200Z 04009MPS 9999 SCT014 BKN040 27/24 Q1000 NOSIG
ZGSZ,2017-06-12 13:00,ZGSZ 121300Z 04009G14MPS 9999 FEW020 28/24 Q1000 NOSIG
ZGSZ,2017-06-12 14:00,ZGSZ 121400Z 03008MPS 9999 FEW020 28/23 Q1000 NOSIG
ZGSZ,2017-06-12 15:00,ZGSZ 121500Z 02008G14MPS 9999 -SHRA FEW020 FEW026CB 27/23 Q1000 NOSIG
ZGSZ,2017-06-12 16:00,ZGSZ 121600Z 36008MPS 9999 -SHRA FEW020 28/24 Q1000 NOSIG
ZGSZ,2017-06-12 17:00,ZGSZ 121700Z 33012MPS 9999 -SHRA SCT015 SCT040 28/24 Q1001 NOSIG
ZGSZ,2017-06-12 18:00,ZGSZ 121800Z 32010MPS 9999 -SHRA FEW015 BKN030 27/24 Q1001 NOSIG
ZGSZ,2017-06-12 19:00,ZGSZ 121900Z 30010MPS 9999 -SHRA SCT015 BKN030 28/25 Q1001 NOSIG
ZGSZ,2017-06-12 20:00,ZGSZ 122000Z 29007MPS 9999 -SHRA SCT017 BKN040 28/25 Q1002 NOSIG
ZGSZ,2017-06-12 21:00,ZGSZ 122100Z 28007MPS 9999 SCT017 BKN040 28/25 Q1003 NOSIG
ZGSZ,2017-06-12 22:00,ZGSZ 122200Z 29006MPS 9999 -SHRA SCT017 BKN040 28/25 Q1004 NOSIG
ZGSZ,2017-06-12 23:00,ZGSZ 122300Z 28007MPS 9999 FEW018 BKN040 28/25 Q1005 NOSIG
ZGSZ,2017-06-13 00:00,ZGSZ 130000Z 25004MPS 9999 -SHRA SCT020 28/25 Q1006 NOSIG
ZGSZ,2017-06-13 01:00,ZGSZ 130100Z 22006MPS 9999 SCT015 FEW026CB BKN040 28/25 Q1006 NOSIG
ZGSZ,2017-06-13 02:00,ZGSZ 130200Z 20007MPS 9999 SCT013 FEW026CB 27/25 Q1007 BECMG AT0300 2000 TSRA
ZGSZ,2017-06-13 03:00,ZGSZ 130300Z 24009MPS 9999 -SHRA SCT013 FEW026CB SCT030 26/24 Q1007 RESHRA BECMG AT0400 SHRA
ZGSZ,2017-06-13 04:00,ZGSZ 130400Z 20008MPS 6000 SHRA FEW013 FEW026CB BKN030 27/25 Q1007 BECMG AT0500 -SHRA
ZGSZ,2017-06-13 05:00,ZGSZ 130500Z 15003MPS 9999 FEW013 BKN030 26/25 Q1007 NOSIG
ZGSZ,2017-06-13 06:00,ZGSZ 130600Z 16004MPS 9999 FEW013 BKN040 27/25 Q1006 NOSIG
ZGSZ,2017-06-13 07:00,ZGSZ 130700Z 18007MPS 9999 FEW013 BKN040 28/26 Q1006 NOSIG
ZGSZ,2017-06-13 08:00,ZGSZ 130800Z 18007MPS 9999 FEW013 29/26 Q1006 NOSIG
ZGSZ,2017-06-13 09:00,ZGSZ 130900Z 19007MPS 9999 FEW020 29/26 Q1006 NOSIG
ZGSZ,2017-06-13 10:00,ZGSZ 131000Z 19005MPS 9999 FEW018 29/26 Q1006 NOSIG
ZGSZ,2017-06-13 11:00,ZGSZ 131100Z 19005MPS 9999 BKN015 29/27 Q1006 NOSIG
ZGSZ,2017-06-13 12:00,ZGSZ 131200Z 20005MPS CAVOK 29/27 Q1007 NOSIG
ZGSZ,2017-06-13 13:00,ZGSZ 131300Z 22006MPS 9999 FEW016 29/27 Q1008 NOSIG
ZGSZ,2017-06-13 14:00,ZGSZ 131400Z 21007MPS 9999 FEW030CB 29/27 Q1008 NOSIG
ZGSZ,2017-06-13 15:00,ZGSZ 131500Z 21004MPS 9999 SCT012 29/27 Q1008 NOSIG
ZGSZ,2017-06-13 16:00,ZGSZ 131600Z 19006MPS 9999 SCT017 29/27 Q1007 NOSIG
ZGSZ,2017-06-13 17:00,ZGSZ 131700Z 20006MPS 9999 SCT027 29/27 Q1007 NOSIG
ZGSZ,2017-06-13 18:00,ZGSZ 131800Z 20007MPS 9999 BKN017 29/27 Q1007 NOSIG
ZGSZ,2017-06-13 19:00,ZGSZ 131900Z 21007MPS 9999 BKN016 29/27 Q1007 NOSIG
ZGSZ,2017-06-13 20:00,ZGSZ 132000Z 21007MPS 9999 FEW016 29/27 Q1007 NOSIG
ZGSZ,2017-06-13 21:00,ZGSZ 132100Z 22007MPS 9999 SCT011 29/27 Q1007 NOSIG
ZGSZ,2017-06-13 22:00,ZGSZ 132200Z 29005MPS 9999 -SHRA FEW011 FEW020CB 28/26 Q1007 BECMG AT2240 21005MPS
ZGSZ,2017-06-13 23:00,ZGSZ 132300Z 26002MPS 9999 -SHRA FEW007 SCT043 28/26 Q1008 NOSIG
ZGSZ,2017-06-14 00:00,ZGSZ 140000Z 25005MPS 9999 -SHRA FEW009 FEW017CB 28/26 Q1009 NOSIG
ZGSZ,2017-06-14 01:00,ZGSZ 140100Z 31005MPS 9999 -SHRA SCT013 FEW020CB 27/25 Q1009 BECMG TL0235 24005MPS
ZGSZ,2017-06-14 02:00,ZGSZ 140200Z VRB01MPS 9999 -RA FEW050 27/25 Q1009 NOSIG
ZGSZ,2017-06-14 03:00,ZGSZ 140300Z 00000MPS 9999 FEW050 27/25 Q1010 NOSIG
ZGSZ,2017-06-14 04:00,ZGSZ 140400Z 00000MPS 9999 BKN040 28/25 Q1010 NOSIG
ZGSZ,2017-06-14 05:00,ZGSZ 140500Z 11002MPS 9999 -RA BKN040 28/26 Q1009 NOSIG
ZGSZ,2017-06-14 06:00,ZGSZ 140600Z 14003MPS 9999 FEW050 29/25 Q1008 NOSIG
ZGSZ,2017-06-14 07:00,ZGSZ 140700Z 16002MPS 120V200 CAVOK 29/26 Q1008 NOSIG
ZGSZ,2017-06-14 08:00,ZGSZ 140800Z 19004MPS 9999 FEW021 29/26 Q1008 NOSIG
ZGSZ,2017-06-14 09:00,ZGSZ 140900Z 20005MPS 9999 SCT021 30/27 Q1007 NOSIG
ZGSZ,2017-06-14 10:00,ZGSZ 141000Z 19005MPS 9999 FEW020 BKN033 29/27 Q1007 NOSIG
ZGSZ,2017-06-14 11:00,ZGSZ 141100Z 19005MPS 9999 FEW020 29/27 Q1008 NOSIG
ZGSZ,2017-06-14 12:00,ZGSZ 141200Z 19004MPS 9999 FEW011 29/27 Q1008 NOSIG
ZGSZ,2017-06-14 13:00,ZGSZ 141300Z 19004MPS 9999 FEW011 29/27 Q1009 NOSIG
ZGSZ,2017-06-14 14:00,ZGSZ 141400Z 20005MPS 9999 SCT011 29/27 Q1009 NOSIG
ZGSZ,2017-06-14 15:00,ZGSZ 141500Z 20004MPS 9999 SCT011 29/27 Q1009 NOSIG
ZGSZ,2017-06-14 16:00,ZGSZ 141600Z 20004MPS 9999 FEW011 29/27 Q1008 NOSIG
ZGSZ,2017-06-14 17:00,ZGSZ 141700Z 21005MPS 9999 FEW011 29/27 Q1008 NOSIG
ZGSZ,2017-06-14 18:00,ZGSZ 141800Z 21005MPS 9999 FEW011 29/27 Q1008 NOSIG
ZGSZ,2017-06-14 19:00,ZGSZ 141900Z 22005MPS 9999 SCT011 29/27 Q1007 NOSIG
ZGSZ,2017-06-14 20:00,ZGSZ 142000Z 21005MPS 9999 SCT011 29/27 Q1007 NOSIG
ZGSZ,2017-06-14 21:00,ZGSZ 142100Z 22006MPS 9999 SCT009 BKN026 29/27 Q1007 NOSIG
ZGSZ,2017-06-14 22:00,ZGSZ 142200Z 22006MPS 9999 -SHRA BKN012 BKN026 29/27 Q1007 BECMG AT2330 SCT012 BKN030
ZGSZ,2017-06-14 23:00,ZGSZ 142300Z 23004MPS 9999 BKN012 BKN040 29/27 Q1008 BECMG AT2330 SCT012 BKN030
ZGSZ,2017-06-15 00:00,ZGSZ 150000Z 22004MPS 9999 FEW020 29/27 Q1008 NOSIG
ZGSZ,2017-06-15 01:00,ZGSZ 150100Z 22004MPS CAVOK 30/27 Q1008 NOSIG
ZGSZ,2017-06-15 02:00,ZGSZ 150200Z 20004MPS 9999 FEW040 31/27 Q1008 NOSIG
ZGSZ,2017-06-15 03:00,ZGSZ 150300Z 20005MPS 9999 FEW040 31/27 Q1008 NOSIG
ZGSZ,2017-06-15 04:00,ZGSZ 150400Z 21008MPS 9999 SCT033 30/27 Q1008 NOSIG
ZGSZ,2017-06-15 05:00,ZGSZ 150500Z 21006MPS 9999 FEW030TCU SCT033 30/26 Q1007 NOSIG
ZGSZ,2017-06-15 06:00,ZGSZ 150600Z 22005MPS 9999 FEW030 31/27 Q1006 NOSIG
ZGSZ,2017-06-15 07:00,ZGSZ 150700Z 20005MPS 9999 FEW040 30/26 Q1006 NOSIG
ZGSZ,2017-06-15 08:00,ZGSZ 150800Z 19007MPS CAVOK 31/27 Q1005 NOSIG
ZGSZ,2017-06-15 09:00,ZGSZ 150900Z 20008MPS CAVOK 31/27 Q1005 NOSIG
ZGSZ,2017-06-15 10:00,ZGSZ 151000Z 20009MPS CAVOK 30/27 Q1005 NOSIG
ZGSZ,2017-06-15 11:00,ZGSZ 151100Z 20009MPS 9999 FEW021 30/27 Q1006 NOSIG
ZGSZ,2017-06-15 12:00,ZGSZ 151200Z 20007MPS CAVOK 30/27 Q1006 NOSIG
ZGSZ,2017-06-15 13:00,ZGSZ 151300Z 20007MPS CAVOK 30/27 Q1006 NOSIG
ZGSZ,2017-06-15 14:00,ZGSZ 151400Z 20008MPS 9999 SCT016 SCT050 29/27 Q1007 NOSIG
ZGSZ,2017-06-15 15:00,ZGSZ 151500Z 21007MPS 9999 SCT016 29/27 Q1007 NOSIG
ZGSZ,2017-06-15 16:00,ZGSZ 151600Z 21008MPS 9999 BKN015 29/27 Q1007 NOSIG
ZGSZ,2017-06-15 17:00,ZGSZ 151700Z 21008MPS 9999 SCT011 29/27 Q1006 NOSIG
ZGSZ,2017-06-15 18:00,ZGSZ 151800Z 22007MPS 9999 SCT012 FEW026CB 29/27 Q1005 NOSIG
ZGSZ,2017-06-15 19:00,ZGSZ 151900Z 23006MPS 9999 -TSRA SCT014 FEW023CB BKN050 28/27 Q1005 RESHRA NOSIG
ZGSZ,2017-06-15 20:00,ZGSZ 152000Z 22006MPS 9999 -TSRA FEW023CB BKN050 27/26 Q1005 BECMG TL2120 -SHRA
ZGSZ,2017-06-15 21:00,ZGSZ 152100Z 23004MPS 200V260 9999 -TSRA FEW023CB BKN050 28/26 Q1005 BECMG TL2120 -SHRA
ZGSZ,2017-06-15 22:00,ZGSZ 152200Z 25005MPS 9999 -SHRA SCT020 FEW033CB BKN050 28/27 Q1005 NOSIG
ZGSZ,2017-06-15 23:00,ZGSZ 152300Z 24004MPS 210V270 9999 -SHRA FEW030TCU BKN030 29/27 Q1005 NOSIG
ZGSZ,2017-06-16 00:00,ZGSZ 160000Z 24003MPS 9999 -SHRA SCT015 FEW030TCU BKN030 29/27 Q1006 NOSIG
ZGSZ,2017-06-16 01:00,ZGSZ 160100Z 25003MPS 9999 FEW020 FEW030TCU 29/27 Q1006 BECMG AT0140 SHRA
ZGSZ,2017-06-16 02:00,ZGSZ 160200Z 23005MPS 9999 FEW017 FEW030TCU 30/27 Q1006 NOSIG
ZGSZ,2017-06-16 03:00,ZGSZ 160300Z 22005MPS 9999 FEW030 30/26 Q1006 NOSIG
ZGSZ,2017-06-16 04:00,ZGSZ 160400Z 20006MPS 9999 FEW030 FEW033TCU 31/27 Q1005 NOSIG
ZGSZ,2017-06-16 05:00,ZGSZ 160500Z 20007MPS 9999 SCT025 FEW030TCU 31/27 Q1005 BECMG AT0530 SHRA
ZGSZ,2017-06-16 06:00,ZGSZ 160600Z 21005MPS 9999 SCT025 FEW026TCU 29/26 Q1004 NOSIG
ZGSZ,2017-06-16 07:00,ZGSZ 160700Z 20005MPS 9999 FEW033 30/28 Q1003 NOSIG
ZGSZ,2017-06-16 08:00,ZGSZ 160800Z 20008MPS 9999 FEW033 30/28 Q1003 NOSIG
ZGSZ,2017-06-16 09:00,ZGSZ 160900Z 21008MPS 9999 FEW033 30/27 Q1003 NOSIG
ZGSZ,2017-06-16 10:00,ZGSZ 161000Z 22007MPS 9999 FEW033 30/27 Q1003 NOSIG
ZGSZ,2017-06-16 11:00,ZGSZ 161100Z 22005MPS 9999 FEW033 30/27 Q1004 NOSIG
ZGSZ,2017-06-16 12:00,ZGSZ 161200Z 21004MPS 9999 -RA SCT033 30/27 Q1004 NOSIG
ZGSZ,2017-06-16 13:00,ZGSZ 161300Z 22004MPS 9999 -SHRA FEW014 FEW023CB BKN033 29/27 Q1005 NOSIG
ZGSZ,2017-06-16 14:00,ZGSZ 161400Z 36008MPS 9999 -SHRA SCT012 FEW020CB BKN026 26/24 Q1005 BECMG AT1500 22004MPS -SHRA
ZGSZ,2017-06-16 15:00,ZGSZ 161500Z 04003MPS 9999 -SHRA SCT012 BKN026 26/24 Q1005 NOSIG
ZGSZ,2017-06-16 16:00,ZGSZ 161600Z 06002MPS 9999 -SHRA SCT012 BKN026 26/24 Q1004 NOSIG
ZGSZ,2017-06-16 17:00,ZGSZ 161700Z 12002MPS 090V150 9999 BKN026 26/24 Q1004 NOSIG
ZGSZ,2017-06-16 18:00,ZGSZ 161800Z 15002MPS 9999 BKN026 26/24 Q1003 NOSIG
ZGSZ,2017-06-16 19:00,ZGSZ 161900Z 15003MPS 9999 -SHRA BKN026 26/24 Q1003 NOSIG
ZGSZ,2017-06-16 20:00,ZGSZ 162000Z 12002MPS 9999 FEW023CB BKN030 26/24 Q1002 NOSIG
ZGSZ,2017-06-16 21:00,ZGSZ 162100Z 06002MPS 9999 -SHRA SCT013 FEW023CB BKN030 26/24 Q1002 NOSIG
ZGSZ,2017-06-16 22:00,ZGSZ 162200Z 07002MPS 030V090 7000 -SHRA SCT013 FEW023CB BKN030 25/24 Q1003 NOSIG
ZGSZ,2017-06-16 23:00,ZGSZ 162300Z VRB01MPS 4500 -SHRA FEW011 FEW023TCU BKN030 26/25 Q1003 NOSIG
ZGSZ,2017-06-17 00:00,ZGSZ 170000Z 15003MPS 7000 -SHRA FEW011 FEW023TCU BKN030 26/25 Q1004 NOSIG
ZGSZ,2017-06-17 01:00,ZGSZ 170100Z 00000MPS 6000 -SHRA BKN008 FEW023CB BKN030 26/25 Q1004 NOSIG
ZGSZ,2017-06-17 02:00,ZGSZ 170200Z VRB01MPS 4500 SHRA SCT008 FEW023CB BKN030 26/25 Q1004 BECMG AT0340 -SHRA
ZGSZ,2017-06-17 03:00,ZGSZ 170300Z VRB03MPS 3500 SHRA BKN007 FEW023CB BKN030 25/24 Q1004 BECMG AT0440 -SHRA
ZGSZ,2017-06-17 04:00,ZGSZ 170400Z 30004MPS 4000 SHRA BKN007 FEW023CB BKN030 26/25 Q1004 BECMG AT0540 SCT008 BKN030
ZGSZ,2017-06-17 05:00,ZGSZ 170500Z 33003MPS 4000 SHRA BKN007 FEW023CB BKN030 26/25 Q1003 BECMG AT0540 2500 +SHRA
ZGSZ,2017-06-17 06:00,ZGSZ 170600Z 29002MPS 260V320 4500 SHRA BKN007 FEW023TCU BKN030 26/25 Q1003 BECMG AT0510 -SHRA SCT007 BKN030
ZGSZ,2017-06-17 07:00,ZGSZ 170700Z 22002MPS 5000 -SHRA BKN007 FEW023TCU BKN030 25/24 Q1003 RESHRA BECMG AT0840 SCT008 BKN030
ZGSZ,2017-06-17 08:00,ZGSZ 170800Z 27002MPS 5000 SHRA BKN004 FEW023TCU BKN030 25/24 Q1003 BECMG AT0840 -SHRA SCT007 BKN030
ZGSZ,2017-06-17 09:00,ZGSZ 170900Z 00000MPS 9999 -SHRA BKN004 FEW023TCU BKN030 25/24 Q1002 RESHRA NOSIG
ZGSZ,2017-06-17 10:00,ZGSZ 171000Z 23002MPS 200V270 9999 -SHRA BKN007 BKN040 25/24 Q1003 NOSIG
ZGSZ,2017-06-17 11:00,ZGSZ 171100Z 22003MPS 9999 BKN006 BKN030 26/24 Q1003 NOSIG
ZGSZ,2017-06-17 12:00,ZGSZ 171200Z 23003MPS 3500 -RA BKN008 BKN030 26/25 Q1004 NOSIG
ZGSZ,2017-06-17 13:00,ZGSZ 171300Z 23003MPS 5000 RA BKN005 BKN030 26/25 Q1004 BECMG AT1450 -RA
ZGSZ,2017-06-17 14:00,ZGSZ 171400Z VRB02MPS 5000 RA BKN005 BKN030 25/24 Q1005 NOSIG
ZGSZ,2017-06-17 15:00,ZGSZ 171500Z 25002MPS 220V300 7000 RA BKN009 OVC036 25/24 Q1005 NOSIG
ZGSZ,2017-06-17 16:00,ZGSZ 171600Z 20002MPS 9999 -RA BKN009 BKN043 25/24 Q1004 NOSIG
ZGSZ,2017-06-17 17:00,ZGSZ 171700Z 31003MPS 9999 -RA BKN009 BKN043 26/24 Q1004 NOSIG
ZGSZ,2017-06-17 18:00,ZGSZ 171800Z 31002MPS 280V340 9999 FEW009 26/24 Q1004 NOSIG
ZGSZ,2017-06-17 19:00,ZGSZ 171900Z 28003MPS 9999 -SHRA SCT009 26/24 Q1003 NOSIG
ZGSZ,2017-06-17 20:00,ZGSZ 172000Z 02002MPS 9999 SCT009 BKN050 25/24 Q1003 NOSIG
ZGSZ,2017-06-17 21:00,ZGSZ 172100Z 06001MPS 9999 -RA SCT009 BKN050 26/24 Q1003 NOSIG
ZGSZ,2017-06-17 22:00,ZGSZ 172200Z 10002MPS 5000 BR FEW010 BKN040 25/24 Q1004 NOSIG
ZGSZ,2017-06-17 23:00,ZGSZ 172300Z 07003MPS 4500 BR FEW008 BKN030 26/24 Q1004 NOSIG
ZGSZ,2017-06-18 00:00,ZGSZ 180000Z 06003MPS 010V100 4500 BR FEW009 BKN030 25/24 Q1004 NOSIG
ZGSZ,2017-06-18 01:00,ZGSZ 180100Z 08003MPS 050V110 6000 SCT012 BKN030 27/25 Q1004 NOSIG
ZGSZ,2017-06-18 02:00,ZGSZ 180200Z 07002MPS 030V180 6000 SCT014 BKN030 27/25 Q1005 NOSIG
ZGSZ,2017-06-18 03:00,ZGSZ 180300Z 13003MPS 090V160 9999 SCT011 FEW030CB BKN050 28/25 Q1005 BECMG AT0440 SHRA
ZGSZ,2017-06-18 04:00,ZGSZ 180400Z 21007MPS 7000 -SHRA BKN012 FEW030CB BKN050 26/25 Q1004 BECMG TL0435 SCT011 FEW020CB BKN040
ZGSZ,2017-06-18 05:00,ZGSZ 180500Z 23007MPS 9999 -SHRA SCT011 FEW020CB BKN040 26/25 Q1004 NOSIG
ZGSZ,2017-06-18 06:00,ZGSZ 180600Z 26004MPS 9999 -SHRA SCT011 FEW020CB BKN036 26/25 Q1004 NOSIG
ZGSZ,2017-06-18 07:00,ZGSZ 180700Z 20002MPS 9999 SCT011 BKN036 27/25 Q1004 NOSIG
ZGSZ,2017-06-18 08:00,ZGSZ 180800Z 20003MPS 9999 SCT011 BKN036 28/25 Q1004 NOSIG
ZGSZ,2017-06-18 09:00,ZGSZ 180900Z 20004MPS 9999 SCT011 BKN043 28/25 Q1003 NOSIG
ZGSZ,2017-06-18 10:00,ZGSZ 181000Z 19004MPS 9999 FEW011 SCT033 28/25 Q1003 NOSIG
ZGSZ,2017-06-18 11:00,ZGSZ 181100Z 20005MPS 9999 SCT011 BKN033 28/25 Q1004 BECMG AT1240 2500 SHRA BKN011 BKN030
ZGSZ,2017-06-18 12:00,ZGSZ 181200Z 21007MPS 9999 SCT011 FEW030CB BKN033 28/26 Q1005 BECMG AT1250 SHRA BKN011 BKN033
ZGSZ,2017-06-18 13:00,ZGSZ 181300Z 23005MPS 9999 BKN014 FEW030CB 27/25 Q1005 NOSIG
ZGSZ,2017-06-18 14:00,ZGSZ 181400Z 22004MPS CAVOK 27/24 Q1006 NOSIG
ZGSZ,2017-06-18 15:00,ZGSZ 181500Z 21002MPS CAVOK 27/24 Q1006 NOSIG
ZGSZ,2017-06-18 16:00,ZGSZ 181600Z 21003MPS 9999 FEW026 27/24 Q1005 NOSIG
ZGSZ,2017-06-18 17:00,ZGSZ 181700Z 20003MPS 9999 SCT022 27/24 Q1005 NOSIG
ZGSZ,2017-06-18 18:00,ZGSZ 181800Z 20003MPS 9999 SCT050 27/24 Q1004 NOSIG
ZGSZ,2017-06-18 19:00,ZGSZ 181900Z 20003MPS 9999 FEW023 27/25 Q1004 NOSIG
ZGSZ,2017-06-18 20:00,ZGSZ 182000Z 22004MPS 9999 -SHRA SCT014 FEW033CB BKN050 27/25 Q1004 NOSIG
ZGSZ,2017-06-18 21:00,ZGSZ 182100Z 24002MPS 210V290 9999 SCT013 FEW033CB BKN043 27/25 Q1004 NOSIG
ZGSZ,2017-06-18 22:00,ZGSZ 182200Z 00000MPS 9999 SCT013 FEW033CB BKN036 27/25 Q1004 NOSIG
ZGSZ,2017-06-18 23:00,ZGSZ 182300Z 00000MPS 9999 SCT013 BKN046 27/25 Q1005 NOSIG
ZGSZ,2017-06-19 00:00,ZGSZ 190000Z VRB01MPS 9999 FEW013 BKN050 28/26 Q1005 NOSIG
ZGSZ,2017-06-19 01:00,ZGSZ 190100Z 23002MPS 200V260 9999 FEW013 BKN040 28/26 Q1005 NOSIG
ZGSZ,2017-06-19 02:00,ZGSZ 190200Z 20004MPS 9999 FEW013 BKN040 28/26 Q1006 NOSIG
ZGSZ,2017-06-19 03:00,ZGSZ 190300Z 20004MPS 9999 FEW023 BKN046 29/26 Q1006 NOSIG
ZGSZ,2017-06-19 04:00,ZGSZ 190400Z 19006MPS 9999 FEW023 30/26 Q1005 NOSIG
ZGSZ,2017-06-19 05:00,ZGSZ 190500Z 20007MPS 9999 SCT015 SCT046 29/26 Q1004 BECMG AT0640 SHRA
ZGSZ,2017-06-19 06:00,ZGSZ 190600Z 20009MPS 9999 -SHRA BKN013 FEW030CB 28/25 Q1004 BECMG AT0710 SHRA SCT013
ZGSZ,2017-06-19 07:00,ZGSZ 190700Z 25007MPS 9999 -SHRA BKN013 FEW030CB SCT030 27/25 Q1005 BECMG AT0740 SHRA SCT013
ZGSZ,2017-06-19 08:00,ZGSZ 190800Z 27005MPS 8000 SHRA SCT013 FEW030CB BKN030 26/25 Q1005 BECMG AT0830 BKN010 FEW030CB BKN030
ZGSZ,2017-06-19 09:00,ZGSZ 190900Z 23003MPS 9999 -SHRA BKN013 FEW030TCU BKN030 26/25 Q1005 RESHRA BECMG TL1020 SCT010 FEW020CB BKN030
ZGSZ,2017-06-19 10:00,ZGSZ 191000Z 21004MPS 9999 -RA FEW010 SCT046 26/24 Q1004 NOSIG
ZGSZ,2017-06-19 11:00,ZGSZ 191100Z 21002MPS 180V250 9999 -RA FEW010 26/24 Q1005 NOSIG
ZGSZ,2017-06-19 12:00,ZGSZ 191200Z 00000MPS 9999 -RA FEW010 26/24 Q1005 NOSIG
ZGSZ,2017-06-19 13:00,ZGSZ 191300Z 18003MPS 9999 FEW030 26/24 Q1005 NOSIG
ZGSZ,2017-06-19 14:00,ZGSZ 191400Z 00000MPS CAVOK 26/24 Q1005 NOSIG
ZGSZ,2017-06-19 15:00,ZGSZ 191500Z VRB01MPS CAVOK 27/25 Q1005 NOSIG
ZGSZ,2017-06-19 16:00,ZGSZ 191600Z 00000MPS 9999 FEW011 27/25 Q1005 NOSIG
ZGSZ,2017-06-19 17:00,ZGSZ 191700Z 20004MPS 9999 BKN050 27/25 Q1005 NOSIG
ZGSZ,2017-06-19 18:00,ZGSZ 191800Z 19004MPS 9999 BKN050 27/25 Q1004 NOSIG
ZGSZ,2017-06-19 19:00,ZGSZ 191900Z 21003MPS 9999 FEW013 27/25 Q1004 NOSIG
ZGSZ,2017-06-19 20:00,ZGSZ 192000Z 19003MPS 9999 SCT011 BKN050 27/25 Q1004 NOSIG
ZGSZ,2017-06-19 21:00,ZGSZ 192100Z 22002MPS 180V240 9999 SCT011 BKN050 27/25 Q1004 NOSIG
ZGSZ,2017-06-19 22:00,ZGSZ 192200Z 15002MPS 9999 SCT011 BKN050 27/25 Q1004 NOSIG
ZGSZ,2017-06-19 23:00,ZGSZ 192300Z 15002MPS 9999 SCT015 BKN040 27/25 Q1005 NOSIG
ZGSZ,2017-06-20 00:00,ZGSZ 200000Z 15002MPS 9999 SCT020 OVC040 27/25 Q1005 NOSIG
ZGSZ,2017-06-20 01:00,ZGSZ 200100Z 18003MPS 9999 -SHRA FEW013CB FEW014 BKN033 28/26 Q1005 NOSIG
ZGSZ,2017-06-20 02:00,ZGSZ 200200Z 22009MPS 8000 SHRA BKN009 FEW020CB BKN033 26/24 Q1006 BECMG AT0235 -SHRA SCT015 BKN030
ZGSZ,2017-06-20 03:00,ZGSZ 200300Z 18005MPS 9999 FEW009 FEW020CB BKN033 27/25 Q1005 NOSIG
ZGSZ,2017-06-20 04:00,ZGSZ 200400Z 21005MPS 9999 FEW009 BKN033 28/26 Q1005 NOSIG
ZGSZ,2017-06-20 05:00,ZGSZ 200500Z 20007MPS 8000 -SHRA SCT009 BKN033 28/26 Q1005 NOSIG
ZGSZ,2017-06-20 06:00,ZGSZ 200600Z 20007MPS 8000 -SHRA SCT009 BKN033 28/26 Q1004 NOSIG
ZGSZ,2017-06-20 07:00,ZGSZ 200700Z 20007MPS 8000 SHRA SCT011 FEW020CB BKN040 27/26 Q1004 BECMG AT0730 -SHRA
ZGSZ,2017-06-20 08:00,ZGSZ 200800Z 20006MPS 9999 FEW011 BKN040 28/26 Q1003 NOSIG
ZGSZ,2017-06-20 09:00,ZGSZ 200900Z 18005MPS 9999 SCT011 28/25 Q1003 NOSIG
ZGSZ,2017-06-20 10:00,ZGSZ 201000Z 20007MPS 9999 SCT013 FEW030CB 28/26 Q1004 BECMG AT1030 SHRA BKN013 FEW020CB
ZGSZ,2017-06-20 11:00,ZGSZ 201100Z 20007MPS 9999 -SHRA BKN014 FEW020CB 28/25 Q1004 RESHRA BECMG AT1230 SCT013 BKN040
ZGSZ,2017-06-20 12:00,ZGSZ 201200Z 20003MPS 9999 BKN013 28/26 Q1004 BECMG AT1230 SCT013 BKN040
ZGSZ,2017-06-20 13:00,ZGSZ 201300Z 19004MPS 9999 SCT013 28/26 Q1005 BECMG AT1430 BKN013 BKN040
ZGSZ,2017-06-20 14:00,ZGSZ 201400Z 18004MPS 9999 SCT013 27/25 Q1005 BECMG AT1430 BKN013 BKN040
ZGSZ,2017-06-20 15:00,ZGSZ 201500Z 17004MPS 9999 BKN014 BKN053 27/25 Q1005 NOSIG
ZGSZ,2017-06-20 16:00,ZGSZ 201600Z 18004MPS 9999 TS BKN014 FEW030CB BKN053 27/25 Q1005 NOSIG
ZGSZ,2017-06-20 17:00,ZGSZ 201700Z 17003MPS 9999 FEW014 FEW030CB BKN053 27/25 Q1005 RETS NOSIG
ZGSZ,2017-06-20 18:00,ZGSZ 201800Z 18004MPS 9999 FEW015 FEW030CB BKN053 28/25 Q1004 NOSIG
ZGSZ,2017-06-20 19:00,ZGSZ 201900Z 17003MPS 130V190 9999 FEW020 BKN053 27/25 Q1004 NOSIG
ZGSZ,2017-06-20 20:00,ZGSZ 202000Z 18003MPS 9999 SCT020 BKN053 27/25 Q1004 NOSIG
ZGSZ,2017-06-20 21:00,ZGSZ 202100Z 20005MPS 9999 SCT028 28/26 Q1004 NOSIG
ZGSZ,2017-06-20 22:00,ZGSZ 202200Z 20004MPS 9999 FEW030 28/26 Q1004 NOSIG
ZGSZ,2017-06-20 23:00,ZGSZ 202300Z 19004MPS 9999 FEW027 28/26 Q1005 NOSIG
ZGSZ,2017-06-21 00:00,ZGSZ 210000Z 20004MPS 9999 FEW027 29/27 Q1005 NOSIG
ZGSZ,2017-06-21 01:00,ZGSZ 210100Z 19004MPS 9999 SCT027 FEW030TCU 30/27 Q1005 BECMG AT0220 SHRA
ZGSZ,2017-06-21 02:00,ZGSZ 210200Z 18006MPS 9999 R15/P2000 R16/1400U -SHRA FEW015 FEW030CB SCT033 26/25 Q1005 NOSIG
ZGSZ,2017-06-21 03:00,ZGSZ 210300Z 18005MPS 9999 FEW033 FEW040TCU 29/26 Q1005 NOSIG
ZGSZ,2017-06-21 04:00,ZGSZ 210400Z 19006MPS 9999 -SHRA FEW015 SCT050 29/26 Q1005 NOSIG
ZGSZ,2017-06-21 05:00,ZGSZ 210500Z 20006MPS 9999 FEW025 30/27 Q1004 NOSIG
ZGSZ,2017-06-21 06:00,ZGSZ 210600Z 19007MPS 9999 FEW025 30/27 Q1003 NOSIG
ZGSZ,2017-06-21 07:00,ZGSZ 210700Z 19008MPS 9999 FEW025 30/27 Q1003 NOSIG
ZGSZ,2017-06-21 08:00,ZGSZ 210800Z 20008MPS 9999 FEW025 SCT033 29/27 Q1003 NOSIG
ZGSZ,2017-06-21 09:00,ZGSZ 210900Z 20008MPS 9999 FEW020 FEW026CB SCT033 28/25 Q1003 NOSIG
ZGSZ,2017-06-21 10:00,ZGSZ 211000Z 19008MPS 9999 FEW020 SCT050 28/25 Q1004 NOSIG
ZGSZ,2017-06-21 11:00,ZGSZ 211100Z 20006MPS 9999 FEW020 SCT050 29/27 Q1004 NOSIG
ZGSZ,2017-06-21 12:00,ZGSZ 211200Z 20006MPS 9999 BKN040 29/27 Q1005 NOSIG
ZGSZ,2017-06-21 13:00,ZGSZ 211300Z 20006MPS 9999 FEW040 29/27 Q1006 NOSIG
ZGSZ,2017-06-21 14:00,ZGSZ 211400Z 20005MPS 9999 SCT005 29/27 Q1006 NOSIG
ZGSZ,2017-06-21 15:00,ZGSZ 211500Z 19005MPS 9999 FEW015 29/27 Q1007 NOSIG
ZGSZ,2017-06-21 16:00,ZGSZ 211600Z 19006MPS 9999 FEW015 29/27 Q1007 NOSIG
ZGSZ,2017-06-21 17:00,ZGSZ 211700Z 19007MPS 8000 SHRA FEW010 FEW030CB 28/26 Q1006 NOSIG
ZGSZ,2017-06-21 18:00,ZGSZ 211800Z 20006MPS 9999 -SHRA SCT015 FEW020CB BKN030 28/27 Q1006 NOSIG
ZGSZ,2017-06-21 19:00,ZGSZ 211900Z 19007MPS 9999 FEW015 28/26 Q1006 NOSIG
ZGSZ,2017-06-21 20:00,ZGSZ 212000Z 19007MPS 9999 BKN016 28/27 Q1006 NOSIG
ZGSZ,2017-06-21 21:00,ZGSZ 212100Z 20006MPS 9999 SCT016 28/26 Q1006 NOSIG
ZGSZ,2017-06-21 22:00,ZGSZ 212200Z 20006MPS 9999 SCT016 28/26 Q1006 NOSIG
ZGSZ,2017-06-21 23:00,ZGSZ 212300Z 19006MPS 9999 SCT016 29/27 Q1006 NOSIG
ZGSZ,2017-06-22 00:00,ZGSZ 220000Z 19006MPS 9999 SCT016 29/27 Q1007 NOSIG
ZGSZ,2017-06-22 01:00,ZGSZ 220100Z 19006MPS 9999 SCT016 SCT020 29/27 Q1008 NOSIG
ZGSZ,2017-06-22 02:00,ZGSZ 220200Z 20007MPS 9999 FEW025 30/27 Q1008 NOSIG
ZGSZ,2017-06-22 03:00,ZGSZ 220300Z 20006MPS 9999 FEW025 31/27 Q1008 NOSIG
ZGSZ,2017-06-22 04:00,ZGSZ 220400Z 20006MPS 9999 FEW025 FEW030TCU 31/27 Q1008 NOSIG
ZGSZ,2017-06-22 05:00,ZGSZ 220500Z 20007MPS CAVOK 31/27 Q1008 NOSIG
ZGSZ,2017-06-22 06:00,ZGSZ 220600Z 20007MPS CAVOK 31/27 Q1007 NOSIG
ZGSZ,2017-06-22 07:00,ZGSZ 220700Z 19007MPS CAVOK 31/26 Q1007 NOSIG
ZGSZ,2017-06-22 08:00,ZGSZ 220800Z 20006MPS CAVOK 30/26 Q1007 NOSIG
ZGSZ,2017-06-22 09:00,ZGSZ 220900Z 20006MPS CAVOK 30/27 Q1006 NOSIG
ZGSZ,2017-06-22 10:00,ZGSZ 221000Z 19005MPS CAVOK 29/27 Q1007 NOSIG
ZGSZ,2017-06-22 11:00,ZGSZ 221100Z 19005MPS CAVOK 29/26 Q1007 NOSIG
ZGSZ,2017-06-22 12:00,ZGSZ 221200Z 19005MPS CAVOK 29/26 Q1007 NOSIG
ZGSZ,2017-06-22 13:00,ZGSZ 221300Z 18005MPS CAVOK 29/26 Q1008 NOSIG
ZGSZ,2017-06-22 14:00,ZGSZ 221400Z 18004MPS CAVOK 28/26 Q1008 NOSIG
ZGSZ,2017-06-22 15:00,ZGSZ 221500Z 18003MPS CAVOK 28/25 Q1008 NOSIG
ZGSZ,2017-06-22 16:00,ZGSZ 221600Z 18004MPS 9999 FEW050 28/25 Q1009 NOSIG
ZGSZ,2017-06-22 17:00,ZGSZ 221700Z 18005MPS 9999 SCT026 29/26 Q1008 NOSIG
ZGSZ,2017-06-22 18:00,ZGSZ 221800Z 18004MPS 9999 SCT026 28/25 Q1008 NOSIG
ZGSZ,2017-06-22 19:00,ZGSZ 221900Z 18004MPS 9999 FEW023 28/26 Q1008 NOSIG
ZGSZ,2017-06-22 20:00,ZGSZ 222000Z 17004MPS CAVOK 28/25 Q1008 NOSIG
ZGSZ,2017-06-22 21:00,ZGSZ 222100Z 18004MPS CAVOK 28/26 Q1008 NOSIG
ZGSZ,2017-06-22 22:00,ZGSZ 222200Z 17004MPS 9999 FEW026 28/26 Q1008 NOSIG
ZGSZ,2017-06-22 23:00,ZGSZ 222300Z 00000MPS 9999 FEW026 29/26 Q1008 NOSIG
ZGSZ,2017-06-23 00:00,ZGSZ 230000Z 00000MPS 9999 FEW026 30/26 Q1008 NOSIG
ZGSZ,2017-06-23 01:00,ZGSZ 230100Z 17004MPS 9999 FEW026 30/26 Q1008 NOSIG
ZGSZ,2017-06-23 02:00,ZGSZ 230200Z 17004MPS 9999 FEW026 31/26 Q1008 NOSIG
ZGSZ,2017-06-23 03:00,ZGSZ 230300Z 17005MPS 9999 FEW026TCU FEW026 31/27 Q1008 NOSIG
ZGSZ,2017-06-23 04:00,ZGSZ 230400Z 18005MPS 9999 FEW026TCU FEW026 32/27 Q1008 NOSIG
ZGSZ,2017-06-23 05:00,ZGSZ 230500Z 18006MPS 9999 FEW026TCU FEW026 31/27 Q1007 NOSIG
ZGSZ,2017-06-23 06:00,ZGSZ 230600Z 17006MPS 9999 FEW026CB FEW026 32/27 Q1007 NOSIG
ZGSZ,2017-06-23 07:00,ZGSZ 230700Z 16007MPS 9999 FEW026 31/26 Q1006 NOSIG
ZGSZ,2017-06-23 08:00,ZGSZ 230800Z 17006MPS 9999 FEW026 31/26 Q1006 NOSIG
ZGSZ,2017-06-23 09:00,ZGSZ 230900Z 17007MPS 9999 FEW026 FEW030TCU 31/26 Q1005 NOSIG
ZGSZ,2017-06-23 10:00,ZGSZ 231000Z 17007MPS 9999 FEW026 FEW030CB 30/26 Q1005 NOSIG
ZGSZ,2017-06-23 11:00,ZGSZ 231100Z 17006MPS 9999 FEW026 30/26 Q1005 NOSIG
ZGSZ,2017-06-23 12:00,ZGSZ 231200Z 17007MPS CAVOK 29/26 Q1006 NOSIG
ZGSZ,2017-06-23 13:00,ZGSZ 231300Z 16006MPS CAVOK 29/26 Q1006 NOSIG
ZGSZ,2017-06-23 14:00,ZGSZ 231400Z 16006MPS CAVOK 29/26 Q1007 NOSIG
ZGSZ,2017-06-23 15:00,ZGSZ 231500Z 16005MPS CAVOK 29/26 Q1007 NOSIG
ZGSZ,2017-06-23 16:00,ZGSZ 231600Z 17004MPS 9999 FEW026 29/26 Q1007 NOSIG
ZGSZ,2017-06-23 17:00,ZGSZ 231700Z 17004MPS 9999 FEW020 29/26 Q1007 NOSIG
ZGSZ,2017-06-23 18:00,ZGSZ 231800Z 16003MPS 9999 SCT020 SCT040 28/26 Q1006 NOSIG
ZGSZ,2017-06-23 19:00,ZGSZ 231900Z 16005MPS CAVOK 29/26 Q1006 NOSIG
ZGSZ,2017-06-23 20:00,ZGSZ 232000Z 17005MPS 9999 BKN046 29/26 Q1006 NOSIG
ZGSZ,2017-06-23 21:00,ZGSZ 232100Z 17004MPS CAVOK 29/26 Q1006 NOSIG
ZGSZ,2017-06-23 22:00,ZGSZ 232200Z 16004MPS 9999 FEW020 FEW026TCU 29/26 Q1005 NOSIG
ZGSZ,2017-06-23 23:00,ZGSZ 232300Z 15004MPS 9999 FEW021 FEW026TCU 29/26 Q1006 NOSIG
ZGSZ,2017-06-24 00:00,ZGSZ 240000Z 18005MPS 5000 -SHRA SCT016 FEW026TCU SCT026 28/26 Q1006 NOSIG
ZGSZ,2017-06-24 01:00,ZGSZ 240100Z 17004MPS 9999 SCT020 FEW026TCU 30/26 Q1006 NOSIG
ZGSZ,2017-06-24 02:00,ZGSZ 240200Z 16005MPS 9999 -SHRA SCT020 FEW026CB 29/27 Q1006 NOSIG
ZGSZ,2017-06-24 03:00,ZGSZ 240300Z 17005MPS 9999 FEW020 30/27 Q1006 NOSIG
ZGSZ,2017-06-24 04:00,ZGSZ 240400Z 16005MPS 9999 FEW020 30/27 Q1006 NOSIG
ZGSZ,2017-06-24 05:00,ZGSZ 240500Z 16006MPS 9999 FEW020 FEW026TCU 31/27 Q1006 NOSIG
ZGSZ,2017-06-24 06:00,ZGSZ 240600Z 16009MPS 9999 FEW020 FEW026CB 30/26 Q1006 NOSIG
ZGSZ,2017-06-24 07:00,ZGSZ 240700Z 17007MPS 9999 FEW020 FEW030TCU 30/26 Q1005 NOSIG
ZGSZ,2017-06-24 08:00,ZGSZ 240800Z 17006MPS 9999 FEW020 30/27 Q1004 NOSIG
ZGSZ,2017-06-24 09:00,ZGSZ 240900Z 17006MPS 9999 FEW020 30/26 Q1004 NOSIG
ZGSZ,2017-06-24 10:00,ZGSZ 241000Z 16007MPS 9999 FEW020TCU 30/27 Q1004 NOSIG
ZGSZ,2017-06-24 11:00,ZGSZ 241100Z 16008MPS CAVOK 29/26 Q1005 NOSIG
ZGSZ,2017-06-24 12:00,ZGSZ 241200Z 17006MPS CAVOK 29/26 Q1005 NOSIG
ZGSZ,2017-06-24 13:00,ZGSZ 241300Z 16007MPS CAVOK 29/26 Q1006 NOSIG
ZGSZ,2017-06-24 14:00,ZGSZ 241400Z 16006MPS CAVOK 29/26 Q1006 NOSIG
ZGSZ,2017-06-24 15:00,ZGSZ 241500Z 16005MPS 9999 FEW016 29/27 Q1006 NOSIG
ZGSZ,2017-06-24 16:00,ZGSZ 241600Z 16006MPS 9999 -SHRA FEW016 29/27 Q1006 NOSIG
ZGSZ,2017-06-24 17:00,ZGSZ 241700Z 16005MPS 9999 FEW016 29/27 Q1006 NOSIG
ZGSZ,2017-06-24 18:00,ZGSZ 241800Z 17004MPS 9999 FEW016 29/27 Q1006 NOSIG
ZGSZ,2017-06-24 19:00,ZGSZ 241900Z 17004MPS 9999 FEW016 29/26 Q1006 NOSIG
ZGSZ,2017-06-24 20:00,ZGSZ 242000Z 17004MPS 9999 SCT020 FEW030CB 28/26 Q1006 NOSIG
ZGSZ,2017-06-24 21:00,ZGSZ 242100Z 17006MPS 9999 FEW017 28/26 Q1005 NOSIG
ZGSZ,2017-06-24 22:00,ZGSZ 242200Z 18005MPS 9999 FEW020 FEW030TCU 28/26 Q1006 NOSIG
ZGSZ,2017-06-24 23:00,ZGSZ 242300Z 18004MPS 9999 SCT020 FEW030TCU 29/27 Q1006 BECMG AT2330 SHRA
ZGSZ,2017-06-25 00:00,ZGSZ 250000Z 22003MPS 180V260 9999 -SHRA SCT020 FEW030TCU 28/26 Q1007 BECMG AT0130 SHRA
ZGSZ,2017-06-25 01:00,ZGSZ 250100Z 17004MPS 9999 FEW026 30/27 Q1007 NOSIG
ZGSZ,2017-06-25 02:00,ZGSZ 250200Z 20004MPS 170V230 9999 -SHRA SCT030 FEW036CB 28/25 Q1007 NOSIG
ZGSZ,2017-06-25 03:00,ZGSZ 250300Z 18005MPS 9999 FEW030 30/25 Q1007 NOSIG
ZGSZ,2017-06-25 04:00,ZGSZ 250400Z 18004MPS 9999 FEW033 30/26 Q1007 NOSIG
ZGSZ,2017-06-25 05:00,ZGSZ 250500Z 17005MPS 9999 FEW033 31/26 Q1006 NOSIG
ZGSZ,2017-06-25 06:00,ZGSZ 250600Z 17007MPS 9999 FEW033 32/27 Q1006 NOSIG
ZGSZ,2017-06-25 07:00,ZGSZ 250700Z 17007MPS 9999 FEW033 31/27 Q1005 NOSIG
ZGSZ,2017-06-25 08:00,ZGSZ 250800Z 17008MPS 9999 FEW033 31/26 Q1005 NOSIG
ZGSZ,2017-06-25 09:00,ZGSZ 250900Z 17008MPS 9999 FEW033 SCT053 30/27 Q1005 NOSIG
ZGSZ,2017-06-25 10:00,ZGSZ 251000Z 17007MPS 9999 FEW033 30/27 Q1005 NOSIG
ZGSZ,2017-06-25 11:00,ZGSZ 251100Z 17007MPS CAVOK 30/27 Q1006 NOSIG
ZGSZ,2017-06-25 12:00,ZGSZ 251200Z 17006MPS CAVOK 29/27 Q1006 NOSIG
ZGSZ,2017-06-25 13:00,ZGSZ 251300Z 18006MPS CAVOK 29/27 Q1007 NOSIG
ZGSZ,2017-06-25 14:00,ZGSZ 251400Z 18006MPS 9999 FEW022 29/27 Q1008 NOSIG
ZGSZ,2017-06-25 15:00,ZGSZ 251500Z 17006MPS CAVOK 29/27 Q1008 NOSIG
ZGSZ,2017-06-25 16:00,ZGSZ 251600Z 17006MPS CAVOK 29/27 Q1008 NOSIG
ZGSZ,2017-06-25 17:00,ZGSZ 251700Z 18005MPS CAVOK 29/27 Q1008 NOSIG
ZGSZ,2017-06-25 18:00,ZGSZ 251800Z 18005MPS CAVOK 29/27 Q1008 NOSIG
ZGSZ,2017-06-25 19:00,ZGSZ 251900Z 17005MPS CAVOK 29/27 Q1007 NOSIG
ZGSZ,2017-06-25 20:00,ZGSZ 252000Z 17006MPS 9999 SCT026 29/27 Q1007 NOSIG
ZGSZ,2017-06-25 21:00,ZGSZ 252100Z 17006MPS 9999 SCT026 29/27 Q1007 NOSIG
ZGSZ,2017-06-25 22:00,ZGSZ 252200Z 18004MPS 9999 FEW030 29/27 Q1008 NOSIG
ZGSZ,2017-06-25 23:00,ZGSZ 252300Z 19004MPS 9999 FEW030 29/27 Q1008 NOSIG
ZGSZ,2017-06-26 00:00,ZGSZ 260000Z 19004MPS 9999 FEW030TCU SCT040 30/27 Q1009 NOSIG
ZGSZ,2017-06-26 01:00,ZGSZ 260100Z 21003MPS 9999 -SHRA FEW010 FEW016TCU BKN033 30/27 Q1009 NOSIG
ZGSZ,2017-06-26 02:00,ZGSZ 260200Z 22002MPS 9999 FEW020CB FEW026 31/26 Q1009 NOSIG
ZGSZ,2017-06-26 03:00,ZGSZ 260300Z 17005MPS 9999 FEW016TCU FEW030 31/27 Q1009 NOSIG
ZGSZ,2017-06-26 04:00,ZGSZ 260400Z 18007MPS 9999 FEW016TCU SCT023 32/28 Q1008 NOSIG
ZGSZ,2017-06-26 05:00,ZGSZ 260500Z 17008MPS 9999 FEW023 32/27 Q1008 NOSIG
ZGSZ,2017-06-26 06:00,ZGSZ 260600Z 17008MPS 9999 FEW023 31/27 Q1007 NOSIG
ZGSZ,2017-06-26 07:00,ZGSZ 260700Z 17008MPS 9999 FEW023 31/27 Q1007 NOSIG
ZGSZ,2017-06-26 08:00,ZGSZ 260800Z 17008MPS 9999 FEW026 31/27 Q1006 NOSIG
ZGSZ,2017-06-26 09:00,ZGSZ 260900Z 17007MPS 9999 FEW026 31/27 Q1006 NOSIG
ZGSZ,2017-06-26 10:00,ZGSZ 261000Z 17008MPS 9999 FEW026 30/27 Q1007 NOSIG
ZGSZ,2017-06-26 11:00,ZGSZ 261100Z 17008MPS 9999 FEW027 30/27 Q1007 NOSIG
ZGSZ,2017-06-26 12:00,ZGSZ 261200Z 17008MPS 9999 FEW027 29/27 Q1007 NOSIG
ZGSZ,2017-06-26 13:00,ZGSZ 261300Z 17007MPS 9999 FEW027 29/27 Q1008 NOSIG
ZGSZ,2017-06-26 14:00,ZGSZ 261400Z 18006MPS CAVOK 29/27 Q1009 NOSIG
ZGSZ,2017-06-26 15:00,ZGSZ 261500Z 18005MPS CAVOK 29/27 Q1009 NOSIG
ZGSZ,2017-06-26 16:00,ZGSZ 261600Z 18005MPS CAVOK 29/27 Q1009 NOSIG
ZGSZ,2017-06-26 17:00,ZGSZ 261700Z 17005MPS CAVOK 29/27 Q1009 NOSIG
ZGSZ,2017-06-26 18:00,ZGSZ 261800Z 18004MPS CAVOK 29/27 Q1009 NOSIG
ZGSZ,2017-06-26 19:00,ZGSZ 261900Z 18004MPS CAVOK 29/27 Q1008 NOSIG
ZGSZ,2017-06-26 20:00,ZGSZ 262000Z 19003MPS CAVOK 29/26 Q1008 NOSIG
ZGSZ,2017-06-26 21:00,ZGSZ 262100Z 18004MPS 9999 FEW024 29/26 Q1008 NOSIG
ZGSZ,2017-06-26 22:00,ZGSZ 262200Z 18003MPS 9999 SCT022 29/27 Q1009 NOSIG
ZGSZ,2017-06-26 23:00,ZGSZ 262300Z 18004MPS 9999 FEW023 29/27 Q1009 NOSIG
ZGSZ,2017-06-27 00:00,ZGSZ 270000Z 19003MPS 9999 FEW023 30/26 Q1009 NOSIG
ZGSZ,2017-06-27 01:00,ZGSZ 270100Z 18004MPS 9999 FEW025 31/26 Q1009 NOSIG
ZGSZ,2017-06-27 02:00,ZGSZ 270200Z 17004MPS 9999 SCT025 30/26 Q1010 NOSIG
ZGSZ,2017-06-27 03:00,ZGSZ 270300Z 18006MPS 9999 FEW025TCU SCT025 31/27 Q1009 NOSIG
ZGSZ,2017-06-27 04:00,ZGSZ 270400Z 17006MPS 9999 FEW025TCU FEW025 31/27 Q1009 NOSIG
ZGSZ,2017-06-27 05:00,ZGSZ 270500Z 17006MPS 9999 FEW025TCU FEW026 31/27 Q1009 NOSIG
ZGSZ,2017-06-27 06:00,ZGSZ 270600Z 17007MPS 9999 FEW026 30/27 Q1009 NOSIG
ZGSZ,2017-06-27 07:00,ZGSZ 270700Z 16008MPS 9999 FEW026 30/27 Q1008 NOSIG
ZGSZ,2017-06-27 08:00,ZGSZ 270800Z 17007MPS 9999 FEW026TCU FEW026 31/27 Q1008 NOSIG
ZGSZ,2017-06-27 09:00,ZGSZ 270900Z 17007MPS 9999 FEW026 31/27 Q1008 NOSIG
ZGSZ,2017-06-27 10:00,ZGSZ 271000Z 17007MPS CAVOK 30/27 Q1008 NOSIG
ZGSZ,2017-06-27 11:00,ZGSZ 271100Z 17007MPS CAVOK 30/26 Q1009 NOSIG
ZGSZ,2017-06-27 12:00,ZGSZ 271200Z 16007MPS CAVOK 29/27 Q1009 NOSIG
ZGSZ,2017-06-27 13:00,ZGSZ 271300Z 17005MPS CAVOK 29/27 Q1009 NOSIG
ZGSZ,2017-06-27 14:00,ZGSZ 271400Z 17006MPS CAVOK 29/27 Q1010 NOSIG
ZGSZ,2017-06-27 15:00,ZGSZ 271500Z 17005MPS CAVOK 29/27 Q1010 NOSIG
ZGSZ,2017-06-27 16:00,ZGSZ 271600Z 18005MPS CAVOK 29/27 Q1010 NOSIG
ZGSZ,2017-06-27 17:00,ZGSZ 271700Z 17005MPS CAVOK 29/27 Q1010 NOSIG
ZGSZ,2017-06-27 18:00,ZGSZ 271800Z 18005MPS CAVOK 29/26 Q1010 NOSIG
ZGSZ,2017-06-27 19:00,ZGSZ 271900Z 17005MPS CAVOK 29/26 Q1009 NOSIG
ZGSZ,2017-06-27 20:00,ZGSZ 272000Z 17005MPS 9999 FEW023 29/27 Q1009 NOSIG
ZGSZ,2017-06-27 21:00,ZGSZ 272100Z 18004MPS 140V200 9999 -SHRA FEW015 FEW023TCU 29/26 Q1009 NOSIG
ZGSZ,2017-06-27 22:00,ZGSZ 272200Z 22003MPS 180V250 9999 FEW010 FEW023TCU 28/26 Q1010 NOSIG
ZGSZ,2017-06-27 23:00,ZGSZ 272300Z 19002MPS 9999 FEW020 29/26 Q1010 NOSIG
ZGSZ,2017-06-28 00:00,ZGSZ 280000Z 20002MPS 9999 FEW020 29/26 Q1010 NOSIG
ZGSZ,2017-06-28 01:00,ZGSZ 280100Z 20003MPS 170V240 9999 FEW020 30/26 Q1010 NOSIG
ZGSZ,2017-06-28 02:00,ZGSZ 280200Z 18003MPS 9999 FEW020 31/26 Q1010 NOSIG
ZGSZ,2017-06-28 03:00,ZGSZ 280300Z 18004MPS 9999 FEW020 31/26 Q1011 NOSIG
ZGSZ,2017-06-28 04:00,ZGSZ 280400Z 17005MPS 9999 FEW020 32/26 Q1010 NOSIG
ZGSZ,2017-06-28 05:00,ZGSZ 280500Z 17007MPS 9999 FEW020 32/25 Q1010 NOSIG
ZGSZ,2017-06-28 06:00,ZGSZ 280600Z 17007MPS 9999 FEW020 32/25 Q1010 NOSIG
ZGSZ,2017-06-28 07:00,ZGSZ 280700Z 17008MPS 9999 FEW020 32/26 Q1009 NOSIG
ZGSZ,2017-06-28 08:00,ZGSZ 280800Z 17007MPS 9999 FEW020 31/26 Q1009 NOSIG
ZGSZ,2017-06-28 09:00,ZGSZ 280900Z 17008MPS 9999 FEW020 31/26 Q1008 NOSIG
ZGSZ,2017-06-28 10:00,ZGSZ 281000Z 16008MPS 9999 FEW020 31/26 Q1008 NOSIG
ZGSZ,2017-06-28 11:00,ZGSZ 281100Z 17007MPS CAVOK 30/26 Q1009 NOSIG
ZGSZ,2017-06-28 12:00,ZGSZ 281200Z 17007MPS CAVOK 30/26 Q1009 NOSIG
ZGSZ,2017-06-28 13:00,ZGSZ 281300Z 17006MPS CAVOK 29/26 Q1010 NOSIG
ZGSZ,2017-06-28 14:00,ZGSZ 281400Z 17006MPS CAVOK 29/26 Q1010 NOSIG
ZGSZ,2017-06-28 15:00,ZGSZ 281500Z 17006MPS CAVOK 29/26 Q1010 NOSIG
ZGSZ,2017-06-28 16:00,ZGSZ 281600Z 18006MPS CAVOK 29/26 Q1010 NOSIG
ZGSZ,2017-06-28 17:00,ZGSZ 281700Z 19004MPS 9999 FEW020 29/26 Q1010 NOSIG
ZGSZ,2017-06-28 18:00,ZGSZ 281800Z 22003MPS 180V250 9999 FEW020 29/26 Q1010 NOSIG
ZGSZ,2017-06-28 19:00,ZGSZ 281900Z 20003MPS CAVOK 28/26 Q1009 NOSIG
ZGSZ,2017-06-28 20:00,ZGSZ 282000Z 19002MPS 150V220 CAVOK 28/25 Q1009 NOSIG
ZGSZ,2017-06-28 21:00,ZGSZ 282100Z 18002MPS 160V220 CAVOK 28/25 Q1009 NOSIG
ZGSZ,2017-06-28 22:00,ZGSZ 282200Z 22002MPS 9999 SCT020 FEW030TCU 28/26 Q1009 NOSIG
ZGSZ,2017-06-28 23:00,ZGSZ 282300Z VRB01MPS 9999 SCT020 FEW030CB 29/26 Q1010 NOSIG
ZGSZ,2017-06-29 00:00,ZGSZ 290000Z 24002MPS 9999 SCT020 FEW030TCU 29/26 Q1010 NOSIG
ZGSZ,2017-06-29 01:00,ZGSZ 290100Z 19003MPS 9999 SCT020 FEW030TCU 30/26 Q1011 NOSIG
ZGSZ,2017-06-29 02:00,ZGSZ 290200Z 18004MPS 9999 FEW020 FEW030TCU 31/26 Q1011 NOSIG
ZGSZ,2017-06-29 03:00,ZGSZ 290300Z 17005MPS 9999 FEW020 FEW030CB 31/26 Q1010 NOSIG
ZGSZ,2017-06-29 04:00,ZGSZ 290400Z 18004MPS 9999 FEW020 FEW030CB 32/26 Q1010 NOSIG
ZGSZ,2017-06-29 05:00,ZGSZ 290500Z 17006MPS 9999 FEW020 FEW030CB 31/26 Q1010 NOSIG
ZGSZ,2017-06-29 06:00,ZGSZ 290600Z 17005MPS 9999 FEW020 31/26 Q1009 NOSIG
ZGSZ,2017-06-29 07:00,ZGSZ 290700Z 17006MPS 9999 FEW020 32/26 Q1008 NOSIG
ZGSZ,2017-06-29 08:00,ZGSZ 290800Z 17006MPS 9999 FEW020 32/26 Q1007 NOSIG
ZGSZ,2017-06-29 09:00,ZGSZ 290900Z 17006MPS CAVOK 30/26 Q1007 NOSIG
ZGSZ,2017-06-29 10:00,ZGSZ 291000Z 17007MPS 9999 FEW023TCU 30/25 Q1007 NOSIG
ZGSZ,2017-06-29 11:00,ZGSZ 291100Z 17007MPS CAVOK 30/26 Q1008 NOSIG
ZGSZ,2017-06-29 12:00,ZGSZ 291200Z 17005MPS CAVOK 30/26 Q1008 NOSIG
ZGSZ,2017-06-29 13:00,ZGSZ 291300Z 16005MPS CAVOK 29/26 Q1009 NOSIG
ZGSZ,2017-06-29 14:00,ZGSZ 291400Z 16005MPS CAVOK 29/26 Q1009 NOSIG
ZGSZ,2017-06-29 15:00,ZGSZ 291500Z 16005MPS CAVOK 29/26 Q1010 NOSIG
ZGSZ,2017-06-29 16:00,ZGSZ 291600Z 17005MPS 9999 FEW020 29/26 Q1009 NOSIG
ZGSZ,2017-06-29 17:00,ZGSZ 291700Z 16005MPS CAVOK 29/26 Q1009 NOSIG
ZGSZ,2017-06-29 18:00,ZGSZ 291800Z 15004MPS CAVOK 28/25 Q1008 NOSIG
ZGSZ,2017-06-29 19:00,ZGSZ 291900Z 16004MPS CAVOK 28/25 Q1008 NOSIG
ZGSZ,2017-06-29 20:00,ZGSZ 292000Z 16004MPS CAVOK 28/25 Q1008 NOSIG
ZGSZ,2017-06-29 21:00,ZGSZ 292100Z 14003MPS 9999 FEW020 28/25 Q1008 NOSIG
ZGSZ,2017-06-29 22:00,ZGSZ 292200Z 15003MPS 9999 FEW020 27/25 Q1008 NOSIG
ZGSZ,2017-06-29 23:00,ZGSZ 292300Z 14002MPS 9999 FEW020 29/25 Q1008 NOSIG
ZGSZ,2017-06-30 00:00,ZGSZ 300000Z 16003MPS 9999 FEW020 30/25 Q1009 NOSIG
ZGSZ,2017-06-30 01:00,ZGSZ 300100Z 17004MPS 9999 FEW020 31/25 Q1009 NOSIG
ZGSZ,2017-06-30 02:00,ZGSZ 300200Z 19005MPS 9999 FEW020 31/25 Q1009 NOSIG
ZGSZ,2017-06-30 03:00,ZGSZ 300300Z 19005MPS 9999 FEW020 31/24 Q1009 NOSIG
ZGSZ,2017-06-30 04:00,ZGSZ 300400Z 19005MPS 9999 FEW020 30/25 Q1008 NOSIG
ZGSZ,2017-06-30 05:00,ZGSZ 300500Z 19005MPS CAVOK 31/25 Q1007 NOSIG
ZGSZ,2017-06-30 06:00,ZGSZ 300600Z 19005MPS CAVOK 31/25 Q1007 NOSIG
ZGSZ,2017-06-30 07:00,ZGSZ 300700Z 18006MPS CAVOK 32/25 Q1006 NOSIG
ZGSZ,2017-06-30 08:00,ZGSZ 300800Z 18006MPS CAVOK 31/25 Q1006 NOSIG
ZGSZ,2017-06-30 09:00,ZGSZ 300900Z 18006MPS CAVOK 31/25 Q1005 NOSIG
ZGSZ,2017-06-30 10:00,ZGSZ 301000Z 18006MPS CAVOK 30/25 Q1005 NOSIG
ZGSZ,2017-06-30 11:00,ZGSZ 301100Z 18006MPS CAVOK 30/24 Q1006 NOSIG
ZGSZ,2017-06-30 12:00,ZGSZ 301200Z 18006MPS CAVOK 30/25 Q1006 NOSIG
ZGSZ,2017-06-30 13:00,ZGSZ 301300Z 18006MPS CAVOK 29/25 Q1007 NOSIG
ZGSZ,2017-06-30 14:00,ZGSZ 301400Z 17005MPS CAVOK 29/25 Q1007 NOSIG
ZGSZ,2017-06-30 15:00,ZGSZ 301500Z 16006MPS CAVOK 29/25 Q1007 NOSIG
ZGSZ,2017-06-30 16:00,ZGSZ 301600Z 16006MPS CAVOK 29/24 Q1006 NOSIG
ZGSZ,2017-06-30 17:00,ZGSZ 301700Z 20004MPS 9999 BKN026 29/25 Q1006 NOSIG
ZGSZ,2017-06-30 18:00,ZGSZ 301800Z 20005MPS 9999 BKN030 29/25 Q1006 NOSIG
ZGSZ,2017-06-30 19:00,ZGSZ 301900Z 21004MPS 9999 SCT030 29/24 Q1006 NOSIG
ZGSZ,2017-06-30 20:00,ZGSZ 302000Z 18002MPS CAVOK 28/25 Q1006 NOSIG
ZGSZ,2017-06-30 21:00,ZGSZ 302100Z 17003MPS CAVOK 28/24 Q1006 NOSIG
ZGSZ,2017-06-30 22:00,ZGSZ 302200Z 18002MPS 150V210 CAVOK 28/25 Q1006 NOSIG
ZGSZ,2017-06-30 23:00,ZGSZ 302300Z 15003MPS CAVOK 29/25 Q1006 NOSIG
ZGSZ,2017-07-01 00:00,ZGSZ 010000Z 17004MPS 9999 FEW030 29/25 Q1006 NOSIG
ZGSZ,2017-07-01 01:00,ZGSZ 010100Z 16005MPS 9999 FEW025 31/25 Q1006 NOSIG
ZGSZ,2017-07-01 02:00,ZGSZ 010200Z 16005MPS 9999 FEW020 30/26 Q1007 NOSIG
ZGSZ,2017-07-01 03:00,ZGSZ 010300Z 16007MPS 9999 FEW020 31/25 Q1006 NOSIG
ZGSZ,2017-07-01 04:00,ZGSZ 010400Z 17007MPS 9999 FEW020 32/26 Q1006 NOSIG
ZGSZ,2017-07-01 05:00,ZGSZ 010500Z 16008MPS 9999 FEW020 32/25 Q1005 NOSIG
ZGSZ,2017-07-01 06:00,ZGSZ 010600Z 17008MPS 9999 FEW020 FEW030CB 31/25 Q1005 NOSIG
ZGSZ,2017-07-01 07:00,ZGSZ 010700Z 17007MPS 9999 FEW020 FEW030TCU 30/26 Q1005 NOSIG
ZGSZ,2017-07-01 08:00,ZGSZ 010800Z 17007MPS 9999 FEW020 30/26 Q1004 NOSIG
ZGSZ,2017-07-01 09:00,ZGSZ 010900Z 17007MPS CAVOK 31/26 Q1004 NOSIG
ZGSZ,2017-07-01 10:00,ZGSZ 011000Z 17007MPS 9999 FEW015 30/26 Q1004 NOSIG
ZGSZ,2017-07-01 11:00,ZGSZ 011100Z 21007G12MPS 6000 -TSRA SCT011 FEW025CB BKN030 27/25 Q1005 BECMG AT1150 NSW
ZGSZ,2017-07-01 12:00,ZGSZ 011200Z 14004MPS 9999 SCT018 28/25 Q1005 NOSIG
ZGSZ,2017-07-01 13:00,ZGSZ 011300Z 17007MPS 9999 FEW018 29/27 Q1005 NOSIG
ZGSZ,2017-07-01 14:00,ZGSZ 011400Z 15006MPS 9999 FEW018 29/26 Q1006 NOSIG
ZGSZ,2017-07-01 15:00,ZGSZ 011500Z 16005MPS 9999 FEW018 28/26 Q1006 NOSIG
ZGSZ,2017-07-01 16:00,ZGSZ 011600Z 16005MPS 9999 FEW018 29/27 Q1006 NOSIG
ZGSZ,2017-07-01 17:00,ZGSZ 011700Z 17006MPS 8000 SHRA SCT018 FEW020TCU 29/27 Q1006 NOSIG
ZGSZ,2017-07-01 18:00,ZGSZ 011800Z 17007MPS 9999 SCT017 29/27 Q1005 NOSIG
ZGSZ,2017-07-01 19:00,ZGSZ 011900Z 17006MPS 9999 SCT017 29/27 Q1005 NOSIG
ZGSZ,2017-07-01 20:00,ZGSZ 012000Z 18007MPS 9999 SCT017 29/27 Q1004 NOSIG
ZGSZ,2017-07-01 21:00,ZGSZ 012100Z 17007MPS 9999 SCT017 29/26 Q1005 NOSIG
ZGSZ,2017-07-01 22:00,ZGSZ 012200Z 17006MPS 9999 SCT017 29/27 Q1005 NOSIG
ZGSZ,2017-07-01 23:00,ZGSZ 012300Z 16006MPS 9999 SCT017 29/27 Q1005 NOSIG
ZGSZ,2017-07-02 00:00,ZGSZ 020000Z 17006MPS 9999 SCT017 29/27 Q1005 NOSIG
ZGSZ,2017-07-02 01:00,ZGSZ 020100Z 18006MPS 9999 BKN016 30/27 Q1006 NOSIG
ZGSZ,2017-07-02 02:00,ZGSZ 020200Z 17007MPS 9999 SCT018 FEW023TCU 31/27 Q1006 BECMG AT0310 SHRA
ZGSZ,2017-07-02 03:00,ZGSZ 020300Z 17007MPS 9999 TS FEW018 FEW023TCU FEW030CB 30/26 Q1006 BECMG TL0345 SHRA
ZGSZ,2017-07-02 04:00,ZGSZ 020400Z 16008MPS 9999 TS SCT017 FEW026CB 29/25 Q1006 BECMG TL0420 +SHRA
ZGSZ,2017-07-02 05:00,ZGSZ 020500Z 17004MPS 9999 -SHRA FEW014 SCT050 26/26 Q1005 RETSRA NOSIG
ZGSZ,2017-07-02 06:00,ZGSZ 020600Z 17006MPS CAVOK 29/25 Q1005 NOSIG
ZGSZ,2017-07-02 07:00,ZGSZ 020700Z 16004MPS 9999 BKN018 29/26 Q1005 NOSIG
ZGSZ,2017-07-02 08:00,ZGSZ 020800Z 16006MPS 9999 SCT016 FEW023TCU 29/27 Q1004 NOSIG
ZGSZ,2017-07-02 09:00,ZGSZ 020900Z 17005MPS 9999 SCT018 29/27 Q1005 BECMG AT0940 2000 SHRA
ZGSZ,2017-07-02 10:00,ZGSZ 021000Z 15007MPS 9999 -SHRA SCT018 BKN040 28/26 Q1005 NOSIG
ZGSZ,2017-07-02 11:00,ZGSZ 021100Z 15004MPS 9999 FEW018 28/25 Q1005 NOSIG
ZGSZ,2017-07-02 12:00,ZGSZ 021200Z 16005MPS 9999 FEW020 29/26 Q1005 NOSIG
ZGSZ,2017-07-02 13:00,ZGSZ 021300Z 15004MPS 9999 SCT017 29/27 Q1006 NOSIG
ZGSZ,2017-07-02 14:00,ZGSZ 021400Z 16005MPS 9999 SCT020 BKN050 29/27 Q1006 NOSIG
ZGSZ,2017-07-02 15:00,ZGSZ 021500Z 16005MPS CAVOK 29/27 Q1006 NOSIG
ZGSZ,2017-07-02 16:00,ZGSZ 021600Z 15005MPS 9999 FEW028 29/26 Q1006 NOSIG
ZGSZ,2017-07-02 17:00,ZGSZ 021700Z 15005MPS 9999 SCT020 29/26 Q1005 NOSIG
ZGSZ,2017-07-02 18:00,ZGSZ 021800Z 17007MPS 9999 FEW020 29/26 Q1005 NOSIG
ZGSZ,2017-07-02 19:00,ZGSZ 021900Z 17007MPS 9999 FEW020 29/27 Q1004 NOSIG
ZGSZ,2017-07-02 20:00,ZGSZ 022000Z 16007MPS 9999 SCT020 29/27 Q1004 NOSIG
ZGSZ,2017-07-02 21:00,ZGSZ 022100Z 16006MPS 9999 FEW020 29/27 Q1004 NOSIG
ZGSZ,2017-07-02 22:00,ZGSZ 022200Z 17005G10MPS 6000 +SHRA BKN018 FEW026CB BKN043 29/27 Q1005 BECMG AT2220 24008G13MPS 1500 +TSRA BKN008 BKN030
ZGSZ,2017-07-02 23:00,ZGSZ 022300Z 26007MPS 9999 -SHRA BKN016 FEW030CB BKN043 26/24 Q1006 BECMG AT2320 2000 SHRA
ZGSZ,2017-07-03 00:00,ZGSZ 030000Z 27006MPS 8000 -TSRA SCT014 FEW030CB BKN043 25/24 Q1006 RESHRA BECMG AT0020 SHRA
ZGSZ,2017-07-03 01:00,ZGSZ 030100Z 04003MPS 9999 SCT012 FEW030CB BKN036 25/24 Q1006 RETSRA NOSIG
ZGSZ,2017-07-03 02:00,ZGSZ 030200Z 06003MPS 010V120 9999 FEW013 FEW030CB BKN036 26/25 Q1006 BECMG AT0340 TSRA
ZGSZ,2017-07-03 03:00,ZGSZ 030300Z 11002MPS 070V160 9999 TS FEW011 FEW030CB BKN036 27/25 Q1007 RESHRA BECMG AT0400 -SHRA
ZGSZ,2017-07-03 04:00,ZGSZ 030400Z 11002MPS 070V140 9999 -SHRA SCT011 FEW030CB BKN036 26/25 Q1006 RETSRA BECMG AT0500 TSRA
ZGSZ,2017-07-03 05:00,ZGSZ 030500Z 14003MPS 9999 SCT030 27/25 Q1007 NOSIG
ZGSZ,2017-07-03 06:00,ZGSZ 030600Z 11003MPS 9999 SCT040 28/26 Q1006 NOSIG
ZGSZ,2017-07-03 07:00,ZGSZ 030700Z 16003MPS 9999 FEW017 SCT040 29/25 Q1006 BECMG AT0810 TSRA
ZGSZ,2017-07-03 08:00,ZGSZ 030800Z 20001MPS 9999 FEW017 FEW020CB BKN040 28/25 Q1005 NOSIG
ZGSZ,2017-07-03 09:00,ZGSZ 030900Z VRB01MPS 9999 SCT017 28/25 Q1005 NOSIG
ZGSZ,2017-07-03 10:00,ZGSZ 031000Z 00000MPS 9999 FEW017 28/25 Q1005 NOSIG
ZGSZ,2017-07-03 11:00,ZGSZ 031100Z 00000MPS 9999 SCT018 28/25 Q1006 NOSIG
ZGSZ,2017-07-03 12:00,ZGSZ 031200Z 10002MPS 040V120 9999 FEW018 SCT030 28/25 Q1006 NOSIG
ZGSZ,2017-07-03 13:00,ZGSZ 031300Z 11003MPS 9999 FEW020 28/25 Q1007 NOSIG
ZGSZ,2017-07-03 14:00,ZGSZ 031400Z 10004MPS 080V140 CAVOK 28/25 Q1007 NOSIG
ZGSZ,2017-07-03 15:00,ZGSZ 031500Z 08003MPS 020V110 9999 TS FEW026CB SCT026 28/25 Q1007 BECMG AT1615 NSW
ZGSZ,2017-07-03 16:00,ZGSZ 031600Z 01005MPS 330V050 8000 -TSRA FEW010 FEW026CB BKN026 26/25 Q1007 NOSIG
ZGSZ,2017-07-03 17:00,ZGSZ 031700Z 04003MPS 9999 TS FEW030CB 26/25 Q1007 NOSIG
ZGSZ,2017-07-03 18:00,ZGSZ 031800Z 04003MPS 9999 TS FEW030CB 26/25 Q1006 NOSIG
ZGSZ,2017-07-03 19:00,ZGSZ 031900Z 04002MPS 9999 TS FEW023 FEW030CB 27/25 Q1006 NOSIG
ZGSZ,2017-07-03 20:00,ZGSZ 032000Z 35003MPS 320V070 9999 -TSRA BKN016 FEW023CB BKN043 26/25 Q1006 NOSIG
ZGSZ,2017-07-03 21:00,ZGSZ 032100Z 05003MPS 9999 SCT020 FEW026CB 26/25 Q1006 RETS NOSIG
ZGSZ,2017-07-03 22:00,ZGSZ 032200Z 07003MPS 010V120 9999 FEW017 FEW026CB 26/24 Q1007 NOSIG
ZGSZ,2017-07-03 23:00,ZGSZ 032300Z 04003MPS 9999 BKN017 FEW026CB 27/25 Q1008 NOSIG
ZGSZ,2017-07-04 00:00,ZGSZ 040000Z 34003MPS 320V020 7000 -SHRA SCT017 FEW026CB 27/25 Q1008 NOSIG
ZGSZ,2017-07-04 01:00,ZGSZ 040100Z 36003MPS 330V040 8000 SCT010 FEW023CB 26/25 Q1009 RESHRA NOSIG
ZGSZ,2017-07-04 02:00,ZGSZ 040200Z 03002MPS 350V050 9999 FEW020 FEW023CB 28/25 Q1009 NOSIG
ZGSZ,2017-07-04 03:00,ZGSZ 040300Z 02002MPS 330V070 9999 FEW025 FEW030CB 29/25 Q1009 BECMG AT0345 TSRA
ZGSZ,2017-07-04 04:00,ZGSZ 040400Z 24003MPS 140V300 9999 TS SCT018 FEW030CB 29/25 Q1008 BECMG AT0435 TSRA
ZGSZ,2017-07-04 05:00,ZGSZ 040500Z 20003MPS 6000 -TSRA FEW020CB FEW020 BKN050 25/24 Q1009 RESHRA BECMG AT0535 TSRA
ZGSZ,2017-07-04 06:00,ZGSZ 040600Z 20003MPS 9999 FEW020 FEW025CB BKN050 27/25 Q1009 NOSIG
ZGSZ,2017-07-04 07:00,ZGSZ 040700Z 16003MPS 9999 SCT020 FEW025CB 27/25 Q1008 NOSIG
ZGSZ,2017-07-04 08:00,ZGSZ 040800Z 11004MPS 9999 -SHRA SCT020 FEW025TCU 27/25 Q1007 NOSIG
ZGSZ,2017-07-04 09:00,ZGSZ 040900Z 12003MPS 9999 FEW030 28/25 Q1006 NOSIG
ZGSZ,2017-07-04 10:00,ZGSZ 041000Z 11002MPS 060V150 9999 FEW033 28/24 Q1007 NOSIG
ZGSZ,2017-07-04 11:00,ZGSZ 041100Z 09002MPS 060V120 9999 SCT033 28/24 Q1008 NOSIG
ZGSZ,2017-07-04 12:00,ZGSZ 041200Z 11003MPS 9999 SCT033 28/24 Q1008 NOSIG
ZGSZ,2017-07-04 13:00,ZGSZ 041300Z 12002MPS 9999 SCT027 28/24 Q1009 NOSIG
ZGSZ,2017-07-04 14:00,ZGSZ 041400Z 11003MPS 080V140 9999 FEW040 27/24 Q1009 NOSIG
ZGSZ,2017-07-04 15:00,ZGSZ 041500Z 11004MPS CAVOK 27/24 Q1009 NOSIG
ZGSZ,2017-07-04 16:00,ZGSZ 041600Z 12003MPS 090V150 CAVOK 27/24 Q1009 NOSIG
ZGSZ,2017-07-04 17:00,ZGSZ 041700Z 09002MPS 040V150 CAVOK 27/24 Q1009 NOSIG
ZGSZ,2017-07-04 18:00,ZGSZ 041800Z 06002MPS 360V120 CAVOK 27/25 Q1009 NOSIG
ZGSZ,2017-07-04 19:00,ZGSZ 041900Z 02002MPS 350V060 9999 FEW040 27/25 Q1009 NOSIG
ZGSZ,2017-07-04 20:00,ZGSZ 042000Z 04002MPS CAVOK 27/25 Q1009 NOSIG
ZGSZ,2017-07-04 21:00,ZGSZ 042100Z 08003MPS CAVOK 26/25 Q1008 NOSIG
ZGSZ,2017-07-04 22:00,ZGSZ 042200Z 06002MPS CAVOK 26/25 Q1009 NOSIG
ZGSZ,2017-07-04 23:00,ZGSZ 042300Z 04003MPS CAVOK 28/25 Q1009 NOSIG
ZGSZ,2017-07-05 00:00,ZGSZ 050000Z VRB02MPS CAVOK 30/25 Q1009 NOSIG
ZGSZ,2017-07-05 01:00,ZGSZ 050100Z 10003G08MPS 070V140 9999 FEW025 30/25 Q1009 NOSIG
ZGSZ,2017-07-05 02:00,ZGSZ 050200Z 10004MPS 060V150 9999 SCT025 31/25 Q1009 NOSIG
ZGSZ,2017-07-05 03:00,ZGSZ 050300Z 11005MPS 060V140 9999 SCT025 32/25 Q1009 NOSIG
ZGSZ,2017-07-05 04:00,ZGSZ 050400Z VRB02MPS 7000 -SHRA FEW011 SCT025 30/26 Q1009 NOSIG
ZGSZ,2017-07-05 05:00,ZGSZ 050500Z 12006MPS 9999 SCT025 33/25 Q1009 NOSIG
ZGSZ,2017-07-05 06:00,ZGSZ 050600Z 10005MPS 9999 SCT025 33/25 Q1008 NOSIG
ZGSZ,2017-07-05 07:00,ZGSZ 050700Z 10006MPS 9999 FEW025 FEW026TCU 32/24 Q1007 NOSIG
ZGSZ,2017-07-05 08:00,ZGSZ 050800Z 11007MPS 9999 SCT026 32/24 Q1007 NOSIG
ZGSZ,2017-07-05 09:00,ZGSZ 050900Z 11006MPS 9999 SCT020 FEW026TCU 31/24 Q1007 NOSIG
ZGSZ,2017-07-05 10:00,ZGSZ 051000Z 11006MPS 6000 SHRA SCT014 FEW020CB BKN040 31/24 Q1008 BECMG AT1020 TSRA
ZGSZ,2017-07-05 11:00,ZGSZ 051100Z 09002MPS 020V160 9999 -SHRA SCT018 BKN040 27/24 Q1008 NOSIG
ZGSZ,2017-07-05 12:00,ZGSZ 051200Z 11005MPS 9999 FEW018 28/25 Q1009 NOSIG
ZGSZ,2017-07-05 13:00,ZGSZ 051300Z 11002MPS 9999 FEW018 28/25 Q1009 NOSIG
ZGSZ,2017-07-05 14:00,ZGSZ 051400Z 10003MPS 080V140 CAVOK 28/25 Q1010 NOSIG
ZGSZ,2017-07-05 15:00,ZGSZ 051500Z VRB03MPS 9999 -SHRA FEW020TCU FEW020 BKN040 28/25 Q1010 NOSIG
ZGSZ,2017-07-05 16:00,ZGSZ 051600Z 12003MPS 9999 FEW016 SCT050 28/25 Q1010 NOSIG
ZGSZ,2017-07-05 17:00,ZGSZ 051700Z 10003MPS 070V160 9999 FEW016 BKN033 28/25 Q1009 NOSIG
ZGSZ,2017-07-05 18:00,ZGSZ 051800Z 12004MPS 9999 -RA FEW020 28/25 Q1009 NOSIG
ZGSZ,2017-07-05 19:00,ZGSZ 051900Z 10004MPS 080V140 9999 -SHRA FEW020 BKN040 28/25 Q1008 NOSIG
ZGSZ,2017-07-05 20:00,ZGSZ 052000Z 10004MPS 9999 -SHRA FEW020 BKN040 27/24 Q1008 NOSIG
ZGSZ,2017-07-05 21:00,ZGSZ 052100Z 08004MPS 060V130 9999 FEW020 BKN040 27/25 Q1007 NOSIG
ZGSZ,2017-07-05 22:00,ZGSZ 052200Z 10002MPS 070V130 9999 -SHRA FEW020 BKN040 27/25 Q1007 NOSIG
ZGSZ,2017-07-05 23:00,ZGSZ 052300Z 09002MPS 050V110 9999 FEW020 BKN040 27/26 Q1008 NOSIG
ZGSZ,2017-07-06 00:00,ZGSZ 060000Z 09002MPS 040V120 9999 SCT026 BKN040 28/25 Q1008 NOSIG
ZGSZ,2017-07-06 01:00,ZGSZ 060100Z 08004MPS 9999 FEW020 FEW030CB BKN033 29/25 Q1008 BECMG AT0140 2000 SHRA
ZGSZ,2017-07-06 02:00,ZGSZ 060200Z 19005MPS 9999 FEW011 FEW030CB BKN033 27/26 Q1009 RETS NOSIG
ZGSZ,2017-07-06 03:00,ZGSZ 060300Z VRB01MPS 9999 FEW016 FEW030TCU BKN040 27/25 Q1009 NOSIG
ZGSZ,2017-07-06 04:00,ZGSZ 060400Z 10003MPS 060V180 9999 FEW025 FEW030TCU 28/26 Q1008 NOSIG
ZGSZ,2017-07-06 05:00,ZGSZ 060500Z 09003MPS 060V120 9999 SCT020 FEW026CB 28/25 Q1008 BECMG AT0640 2000 SHRA
ZGSZ,2017-07-06 06:00,ZGSZ 060600Z 08002MPS 030V130 9999 SCT020 FEW026CB 29/26 Q1007 BECMG AT0710 2000 SHRA
ZGSZ,2017-07-06 07:00,ZGSZ 060700Z 05004MPS 360V100 9999 TS SCT020 FEW030CB 30/26 Q1006 BECMG AT0710 17008MPS 2000 SHRA
ZGSZ,2017-07-06 08:00,ZGSZ 060800Z 11002MPS 070V150 9999 FEW010 SCT025 27/25 Q1007 BECMG AT0920 2000 SHRA
ZGSZ,2017-07-06 09:00,ZGSZ 060900Z 08003MPS 060V140 9999 FEW015 FEW043CB 27/25 Q1006 NOSIG
ZGSZ,2017-07-06 10:00,ZGSZ 061000Z 10003MPS 9999 -SHRA FEW015 FEW060TCU 28/25 Q1006 NOSIG
ZGSZ,2017-07-06 11:00,ZGSZ 061100Z 11005MPS 9999 SCT020 28/25 Q1006 NOSIG
ZGSZ,2017-07-06 12:00,ZGSZ 061200Z 08003MPS 9999 SCT020 27/25 Q1007 NOSIG
ZGSZ,2017-07-06 13:00,ZGSZ 061300Z 11003MPS 080V170 CAVOK 27/25 Q1008 NOSIG
ZGSZ,2017-07-06 14:00,ZGSZ 061400Z 09003MPS 060V130 CAVOK 27/25 Q1008 NOSIG
ZGSZ,2017-07-06 15:00,ZGSZ 061500Z 05003MPS 340V100 CAVOK 28/25 Q1008 NOSIG
ZGSZ,2017-07-06 16:00,ZGSZ 061600Z 11004MPS 090V150 CAVOK 27/25 Q1008 NOSIG
ZGSZ,2017-07-06 17:00,ZGSZ 061700Z 10003MPS 070V130 CAVOK 27/25 Q1008 NOSIG
ZGSZ,2017-07-06 18:00,ZGSZ 061800Z 10003MPS 050V120 CAVOK 27/25 Q1007 NOSIG
ZGSZ,2017-07-06 19:00,ZGSZ 061900Z 09003MPS 9999 FEW015 SCT050 27/25 Q1007 NOSIG
ZGSZ,2017-07-06 20:00,ZGSZ 062000Z 11004MPS 9999 -SHRA SCT015 SCT043 26/25 Q1006 NOSIG
ZGSZ,2017-07-06 21:00,ZGSZ 062100Z 14003MPS 9999 SCT026 27/25 Q1006 NOSIG
ZGSZ,2017-07-06 22:00,ZGSZ 062200Z 10002MPS 9999 -SHRA SCT020 FEW033CB BKN050 27/25 Q1006 NOSIG
ZGSZ,2017-07-06 23:00,ZGSZ 062300Z 15005MPS 9999 SCT020 FEW033TCU 27/25 Q1007 NOSIG
ZGSZ,2017-07-07 00:00,ZGSZ 070000Z 15006MPS 120V180 9999 -SHRA SCT020 FEW030TCU SCT040 29/26 Q1008 NOSIG
ZGSZ,2017-07-07 01:00,ZGSZ 070100Z 17005MPS 9999 SCT020 FEW030TCU 28/26 Q1008 NOSIG
ZGSZ,2017-07-07 02:00,ZGSZ 070200Z 16006MPS 9999 FEW016 FEW030CB 27/26 Q1008 RESHRA NOSIG
ZGSZ,2017-07-07 03:00,ZGSZ 070300Z 17008MPS 9999 FEW020 28/25 Q1008 NOSIG
ZGSZ,2017-07-07 04:00,ZGSZ 070400Z 17006MPS 9999 FEW020 29/26 Q1008 NOSIG
ZGSZ,2017-07-07 05:00,ZGSZ 070500Z 17007MPS 9999 FEW020 29/25 Q1008 NOSIG
ZGSZ,2017-07-07 06:00,ZGSZ 070600Z 17011MPS 9000 -SHRA FEW015 FEW030CB SCT030 28/25 Q1008 BECMG AT0620 SHRA
ZGSZ,2017-07-07 07:00,ZGSZ 070700Z 16007MPS 9999 FEW020 27/25 Q1008 NOSIG
ZGSZ,2017-07-07 08:00,ZGSZ 070800Z 16007MPS 9999 SCT050 28/24 Q1007 NOSIG
ZGSZ,2017-07-07 09:00,ZGSZ 070900Z 16007MPS 9999 SCT050 28/24 Q1007 NOSIG
ZGSZ,2017-07-07 10:00,ZGSZ 071000Z 16005MPS 9999 FEW025 28/24 Q1007 NOSIG
ZGSZ,2017-07-07 11:00,ZGSZ 071100Z 15005MPS CAVOK 28/24 Q1008 NOSIG
ZGSZ,2017-07-07 12:00,ZGSZ 071200Z 14005MPS CAVOK 28/24 Q1009 NOSIG
ZGSZ,2017-07-07 13:00,ZGSZ 071300Z 13005MPS CAVOK 28/24 Q1009 NOSIG
ZGSZ,2017-07-07 14:00,ZGSZ 071400Z 13004MPS 9999 SCT043 28/24 Q1010 BECMG AT1540 2000 SHRA
ZGSZ,2017-07-07 15:00,ZGSZ 071500Z 11005MPS 9999 SCT033 28/24 Q1010 NOSIG
ZGSZ,2017-07-07 16:00,ZGSZ 071600Z 12004MPS 9999 FEW036 27/24 Q1010 NOSIG
ZGSZ,2017-07-07 17:00,ZGSZ 071700Z 11004MPS 080V140 9999 BKN040 27/25 Q1010 NOSIG
ZGSZ,2017-07-07 18:00,ZGSZ 071800Z 11004MPS 9999 FEW033 27/25 Q1009 NOSIG
ZGSZ,2017-07-07 19:00,ZGSZ 071900Z 11004MPS 9999 FEW033 27/25 Q1009 NOSIG
ZGSZ,2017-07-07 20:00,ZGSZ 072000Z 11004MPS 9999 FEW033 27/25 Q1008 NOSIG
ZGSZ,2017-07-07 21:00,ZGSZ 072100Z 12003MPS 9999 FEW033 27/25 Q1008 NOSIG
ZGSZ,2017-07-07 22:00,ZGSZ 072200Z 12004MPS 9999 FEW020 FEW026TCU 27/25 Q1009 BECMG AT2320 2000 SHRA
ZGSZ,2017-07-07 23:00,ZGSZ 072300Z 12004MPS 9999 FEW020 FEW026TCU 28/26 Q1009 BECMG AT2320 20008MPS 2000 +SHRA
ZGSZ,2017-07-08 00:00,ZGSZ 080000Z 15006MPS 9999 -SHRA FEW015 FEW020CB SCT036 27/26 Q1010 RESHRA BECMG AT0140 2500 SHRA
ZGSZ,2017-07-08 01:00,ZGSZ 080100Z 18005MPS 160V220 6000 SHRA BKN015 FEW020CB BKN036 28/25 Q1010 BECMG AT0130 -SHRA
ZGSZ,2017-07-08 02:00,ZGSZ 080200Z 16006MPS 8000 -SHRA FEW020CB BKN020 BKN036 27/25 Q1010 NOSIG
ZGSZ,2017-07-08 03:00,ZGSZ 080300Z 16006MPS 9999 FEW026 27/25 Q1010 NOSIG
ZGSZ,2017-07-08 04:00,ZGSZ 080400Z 16006MPS 8000 -SHRA SCT017 BKN033 27/25 Q1010 NOSIG
ZGSZ,2017-07-08 05:00,ZGSZ 080500Z 16004MPS 9999 -SHRA FEW017 FEW020TCU BKN050 27/25 Q1009 RESHRA NOSIG
ZGSZ,2017-07-08 06:00,ZGSZ 080600Z 13004MPS 9999 FEW030 BKN050 29/26 Q1009 NOSIG
ZGSZ,2017-07-08 07:00,ZGSZ 080700Z 14005MPS 9999 FEW030 BKN050 30/26 Q1008 BECMG AT0730 SHRA
ZGSZ,2017-07-08 08:00,ZGSZ 080800Z 23003MPS 200V260 9999 -TSRA FEW018 FEW023CB BKN050 27/26 Q1008 BECMG AT0840 -SHRA
ZGSZ,2017-07-08 09:00,ZGSZ 080900Z 17005MPS 8000 -TSRA FEW014 FEW020CB BKN040 28/26 Q1008 BECMG AT1020 NSW
ZGSZ,2017-07-08 10:00,ZGSZ 081000Z 16005MPS 9999 FEW014 FEW020CB BKN040 29/26 Q1008 RETS NOSIG
ZGSZ,2017-07-08 11:00,ZGSZ 081100Z 21002MPS 160V280 9999 SCT014 FEW020CB BKN040 28/26 Q1009 NOSIG
ZGSZ,2017-07-08 12:00,ZGSZ 081200Z VRB01MPS 9999 SCT016 FEW020TCU BKN040 27/26 Q1010 NOSIG
ZGSZ,2017-07-08 13:00,ZGSZ 081300Z 17003MPS 9999 SCT016 BKN040 28/27 Q1010 NOSIG
ZGSZ,2017-07-08 14:00,ZGSZ 081400Z 14004MPS CAVOK 29/26 Q1010 NOSIG
ZGSZ,2017-07-08 15:00,ZGSZ 081500Z 12004MPS CAVOK 28/26 Q1010 NOSIG
ZGSZ,2017-07-08 16:00,ZGSZ 081600Z 15004MPS CAVOK 28/26 Q1011 NOSIG
ZGSZ,2017-07-08 17:00,ZGSZ 081700Z 15004MPS CAVOK 28/26 Q1010 NOSIG
ZGSZ,2017-07-08 18:00,ZGSZ 081800Z 14003MPS CAVOK 28/26 Q1010 NOSIG
ZGSZ,2017-07-08 19:00,ZGSZ 081900Z 15003MPS CAVOK 27/26 Q1009 NOSIG
ZGSZ,2017-07-08 20:00,ZGSZ 082000Z 16003MPS CAVOK 27/26 Q1009 NOSIG
ZGSZ,2017-07-08 21:00,ZGSZ 082100Z 16004MPS CAVOK 28/26 Q1009 NOSIG
ZGSZ,2017-07-08 22:00,ZGSZ 082200Z 15005MPS CAVOK 28/26 Q1009 NOSIG
ZGSZ,2017-07-08 23:00,ZGSZ 082300Z 16005MPS CAVOK 29/26 Q1010 NOSIG
ZGSZ,2017-07-09 00:00,ZGSZ 090000Z 16006MPS CAVOK 29/26 Q1010 NOSIG
ZGSZ,2017-07-09 01:00,ZGSZ 090100Z 16006MPS 9999 FEW020 30/26 Q1010 NOSIG
ZGSZ,2017-07-09 02:00,ZGSZ 090200Z 16006MPS 9999 FEW020 30/27 Q1010 NOSIG
ZGSZ,2017-07-09 03:00,ZGSZ 090300Z 16006MPS 9999 FEW020 30/27 Q1010 NOSIG
ZGSZ,2017-07-09 04:00,ZGSZ 090400Z 16006MPS 9999 FEW020 31/27 Q1010 NOSIG
ZGSZ,2017-07-09 05:00,ZGSZ 090500Z 16006MPS 9999 FEW020 31/27 Q1009 NOSIG
ZGSZ,2017-07-09 06:00,ZGSZ 090600Z 16008MPS 9999 FEW020 31/26 Q1009 NOSIG
ZGSZ,2017-07-09 07:00,ZGSZ 090700Z 16007MPS 9999 FEW020 31/27 Q1008 NOSIG
ZGSZ,2017-07-09 08:00,ZGSZ 090800Z 17006MPS 9999 FEW020 30/27 Q1007 NOSIG
ZGSZ,2017-07-09 09:00,ZGSZ 090900Z 17005MPS 9999 FEW020 30/27 Q1007 NOSIG
ZGSZ,2017-07-09 10:00,ZGSZ 091000Z 16007MPS 9999 FEW020 29/27 Q1007 NOSIG
ZGSZ,2017-07-09 11:00,ZGSZ 091100Z 16006MPS CAVOK 29/27 Q1008 NOSIG
ZGSZ,2017-07-09 12:00,ZGSZ 091200Z 16006MPS CAVOK 29/26 Q1008 NOSIG
ZGSZ,2017-07-09 13:00,ZGSZ 091300Z 16005MPS CAVOK 29/26 Q1009 NOSIG
ZGSZ,2017-07-09 14:00,ZGSZ 091400Z 16005MPS CAVOK 29/26 Q1009 NOSIG
ZGSZ,2017-07-09 15:00,ZGSZ 091500Z 16005MPS 9999 FEW030 28/26 Q1009 NOSIG
ZGSZ,2017-07-09 16:00,ZGSZ 091600Z 16006MPS 9999 FEW030 28/26 Q1009 NOSIG
ZGSZ,2017-07-09 17:00,ZGSZ 091700Z 17006MPS 9999 FEW030 28/26 Q1009 NOSIG
ZGSZ,2017-07-09 18:00,ZGSZ 091800Z 16004MPS CAVOK 28/26 Q1008 NOSIG
ZGSZ,2017-07-09 19:00,ZGSZ 091900Z 16004MPS CAVOK 28/26 Q1008 NOSIG
ZGSZ,2017-07-09 20:00,ZGSZ 092000Z 17004MPS CAVOK 28/26 Q1008 NOSIG
ZGSZ,2017-07-09 21:00,ZGSZ 092100Z 16005MPS CAVOK 28/26 Q1007 NOSIG
ZGSZ,2017-07-09 22:00,ZGSZ 092200Z 16004MPS CAVOK 28/26 Q1007 NOSIG
ZGSZ,2017-07-09 23:00,ZGSZ 092300Z 15004MPS CAVOK 28/26 Q1008 NOSIG
ZGSZ,2017-07-10 00:00,ZGSZ 100000Z 16005MPS CAVOK 29/26 Q1008 NOSIG
ZGSZ,2017-07-10 01:00,ZGSZ 100100Z 17004MPS 9999 FEW025 29/26 Q1008 NOSIG
ZGSZ,2017-07-10 02:00,ZGSZ 100200Z 16005MPS 9999 FEW025 30/26 Q1009 NOSIG
ZGSZ,2017-07-10 03:00,ZGSZ 100300Z 16005MPS 9999 FEW025 30/26 Q1009 NOSIG
ZGSZ,2017-07-10 04:00,ZGSZ 100400Z 16006MPS 9999 FEW025 31/26 Q1009 NOSIG
ZGSZ,2017-07-10 05:00,ZGSZ 100500Z 16006MPS 9999 FEW025 31/27 Q1008 NOSIG
ZGSZ,2017-07-10 06:00,ZGSZ 100600Z 17006MPS 9999 FEW025 31/27 Q1008 NOSIG
ZGSZ,2017-07-10 07:00,ZGSZ 100700Z 17006MPS 9999 FEW020 31/27 Q1007 NOSIG
ZGSZ,2017-07-10 08:00,ZGSZ 100800Z 17006MPS 9999 FEW020 30/26 Q1007 NOSIG
ZGSZ,2017-07-10 09:00,ZGSZ 100900Z 17006MPS 9999 FEW020 31/27 Q1006 NOSIG
ZGSZ,2017-07-10 10:00,ZGSZ 101000Z 17006MPS 9999 FEW020 30/26 Q1007 NOSIG
ZGSZ,2017-07-10 11:00,ZGSZ 101100Z 16006MPS 9999 FEW020 29/26 Q1008 NOSIG
ZGSZ,2017-07-10 12:00,ZGSZ 101200Z 16005MPS 9999 FEW020 29/26 Q1008 NOSIG
ZGSZ,2017-07-10 13:00,ZGSZ 101300Z 16004MPS 9999 FEW022 29/26 Q1008 NOSIG
ZGSZ,2017-07-10 14:00,ZGSZ 101400Z 16003MPS 9999 FEW020 29/26 Q1009 NOSIG
ZGSZ,2017-07-10 15:00,ZGSZ 101500Z 15005MPS CAVOK 28/26 Q1010 NOSIG
ZGSZ,2017-07-10 16:00,ZGSZ 101600Z 16005MPS CAVOK 29/26 Q1009 NOSIG
ZGSZ,2017-07-10 17:00,ZGSZ 101700Z 15003MPS CAVOK 28/26 Q1009 NOSIG
ZGSZ,2017-07-10 18:00,ZGSZ 101800Z 16003MPS CAVOK 28/26 Q1008 NOSIG
ZGSZ,2017-07-10 19:00,ZGSZ 101900Z 15004MPS CAVOK 28/26 Q1008 NOSIG
ZGSZ,2017-07-10 20:00,ZGSZ 102000Z 15003MPS 110V170 CAVOK 28/25 Q1008 NOSIG
ZGSZ,2017-07-10 21:00,ZGSZ 102100Z VRB01MPS CAVOK 28/25 Q1008 NOSIG
ZGSZ,2017-07-10 22:00,ZGSZ 102200Z 09003MPS 9999 FEW023 28/25 Q1009 NOSIG
ZGSZ,2017-07-10 23:00,ZGSZ 102300Z 09002MPS 9999 FEW025 29/26 Q1009 NOSIG
ZGSZ,2017-07-11 00:00,ZGSZ 110000Z 09002MPS 040V130 9999 FEW025 30/26 Q1010 NOSIG
ZGSZ,2017-07-11 01:00,ZGSZ 110100Z 19003MPS 9999 FEW020 FEW030TCU 30/26 Q1010 NOSIG
ZGSZ,2017-07-11 02:00,ZGSZ 110200Z 20004MPS 9999 FEW020 FEW030TCU 30/26 Q1010 NOSIG
ZGSZ,2017-07-11 03:00,ZGSZ 110300Z 20005MPS 9999 FEW020 FEW030TCU 30/26 Q1011 NOSIG
ZGSZ,2017-07-11 04:00,ZGSZ 110400Z 22004MPS 9999 FEW020 30/27 Q1010 NOSIG
ZGSZ,2017-07-11 05:00,ZGSZ 110500Z 20004MPS 9999 FEW020 FEW030TCU 31/27 Q1010 NOSIG
ZGSZ,2017-07-11 06:00,ZGSZ 110600Z 20005MPS 9999 FEW023TCU FEW030CB 31/27 Q1010 NOSIG
ZGSZ,2017-07-11 07:00,ZGSZ 110700Z 20004MPS 9999 FEW020TCU FEW030CB 31/27 Q1009 NOSIG
ZGSZ,2017-07-11 08:00,ZGSZ 110800Z 19005MPS 9999 FEW020 FEW023TCU 31/27 Q1009 NOSIG
ZGSZ,2017-07-11 09:00,ZGSZ 110900Z 20005MPS 9999 FEW026 30/26 Q1009 NOSIG
ZGSZ,2017-07-11 10:00,ZGSZ 111000Z 19005MPS 9999 FEW026 29/27 Q1009 NOSIG
ZGSZ,2017-07-11 11:00,ZGSZ 111100Z 19005MPS 9999 FEW026 29/26 Q1009 NOSIG
ZGSZ,2017-07-11 12:00,ZGSZ 111200Z 21003MPS 180V240 9999 FEW026 29/26 Q1010 NOSIG
ZGSZ,2017-07-11 13:00,ZGSZ 111300Z 18003MPS 9999 FEW026 29/26 Q1011 NOSIG
ZGSZ,2017-07-11 14:00,ZGSZ 111400Z 14002MPS 110V170 9999 FEW026 29/25 Q1011 NOSIG
ZGSZ,2017-07-11 15:00,ZGSZ 111500Z 10004MPS 9999 FEW026 29/25 Q1012 NOSIG
ZGSZ,2017-07-11 16:00,ZGSZ 111600Z 10004MPS 9999 FEW026 29/25 Q1012 NOSIG
ZGSZ,2017-07-11 17:00,ZGSZ 111700Z 10003MPS 080V160 9999 FEW026 29/25 Q1011 NOSIG
ZGSZ,2017-07-11 18:00,ZGSZ 111800Z 09002MPS 070V140 9999 FEW026 29/25 Q1011 NOSIG
ZGSZ,2017-07-11 19:00,ZGSZ 111900Z 09002MPS 9999 FEW026 28/25 Q1010 NOSIG
ZGSZ,2017-07-11 20:00,ZGSZ 112000Z 10003MPS 9999 FEW020 28/25 Q1011 NOSIG
ZGSZ,2017-07-11 21:00,ZGSZ 112100Z 08002MPS 9999 FEW020 28/25 Q1011 NOSIG
ZGSZ,2017-07-11 22:00,ZGSZ 112200Z 05002MPS 9999 FEW026 28/25 Q1011 NOSIG
ZGSZ,2017-07-11 23:00,ZGSZ 112300Z 06003MPS 040V100 9999 FEW026 29/25 Q1011 NOSIG
ZGSZ,2017-07-12 00:00,ZGSZ 120000Z 02003MPS 350V080 9999 FEW026 30/25 Q1011 NOSIG
ZGSZ,2017-07-12 01:00,ZGSZ 120100Z 05002MPS 010V100 9999 FEW026 31/24 Q1012 NOSIG
ZGSZ,2017-07-12 02:00,ZGSZ 120200Z 08002MPS 340V140 9999 SCT026 31/25 Q1012 NOSIG
ZGSZ,2017-07-12 03:00,ZGSZ 120300Z 27003MPS 8000 SCT026 30/25 Q1012 NOSIG
ZGSZ,2017-07-12 04:00,ZGSZ 120400Z VRB01MPS 8000 -TSRA FEW020 FEW030CB 30/25 Q1012 BECMG AT0420 NSW
ZGSZ,2017-07-12 05:00,ZGSZ 120500Z VRB01MPS 9999 FEW020 FEW030CB 30/25 Q1011 NOSIG
ZGSZ,2017-07-12 06:00,ZGSZ 120600Z 22002MPS 180V250 9999 FEW020 FEW030TCU 31/26 Q1011 NOSIG
ZGSZ,2017-07-12 07:00,ZGSZ 120700Z 29002MPS 9999 SCT026 31/26 Q1010 NOSIG
ZGSZ,2017-07-12 08:00,ZGSZ 120800Z 24003MPS 200V280 9999 FEW026 30/27 Q1009 NOSIG
ZGSZ,2017-07-12 09:00,ZGSZ 120900Z 08005MPS 9999 -TSRA BKN020 FEW026CB 30/25 Q1009 BECMG AT0940 NSW
ZGSZ,2017-07-12 10:00,ZGSZ 121000Z 04003MPS 9999 FEW040 29/26 Q1009 NOSIG
ZGSZ,2017-07-12 11:00,ZGSZ 121100Z 03002MPS 340V070 CAVOK 29/25 Q1009 NOSIG
ZGSZ,2017-07-12 12:00,ZGSZ 121200Z VRB01MPS CAVOK 30/25 Q1010 NOSIG
ZGSZ,2017-07-12 13:00,ZGSZ 121300Z 26002MPS CAVOK 29/27 Q1010 NOSIG
ZGSZ,2017-07-12 14:00,ZGSZ 121400Z VRB01MPS CAVOK 29/27 Q1011 NOSIG
ZGSZ,2017-07-12 15:00,ZGSZ 121500Z 20002MPS 170V240 CAVOK 29/27 Q1011 NOSIG
ZGSZ,2017-07-12 16:00,ZGSZ 121600Z 00000MPS CAVOK 28/26 Q1011 NOSIG
ZGSZ,2017-07-12 17:00,ZGSZ 121700Z VRB01MPS CAVOK 28/26 Q1010 NOSIG
ZGSZ,2017-07-12 18:00,ZGSZ 121800Z 00000MPS CAVOK 28/26 Q1009 NOSIG
ZGSZ,2017-07-12 19:00,ZGSZ 121900Z 10002MPS 050V160 CAVOK 28/25 Q1009 NOSIG
ZGSZ,2017-07-12 20:00,ZGSZ 122000Z 02002MPS 320V080 CAVOK 28/25 Q1009 NOSIG
ZGSZ,2017-07-12 21:00,ZGSZ 122100Z 06002MPS 040V110 CAVOK 28/25 Q1009 NOSIG
ZGSZ,2017-07-12 22:00,ZGSZ 122200Z 05002MPS CAVOK 28/25 Q1009 NOSIG
ZGSZ,2017-07-12 23:00,ZGSZ 122300Z 06003MPS CAVOK 29/26 Q1009 NOSIG
ZGSZ,2017-07-13 00:00,ZGSZ 130000Z 05002MPS 340V110 9999 FEW020 30/26 Q1009 NOSIG
ZGSZ,2017-07-13 01:00,ZGSZ 130100Z 07002MPS 340V130 9999 SCT020 30/26 Q1009 NOSIG
ZGSZ,2017-07-13 02:00,ZGSZ 130200Z 05003MPS 010V120 9999 BKN023 32/25 Q1009 NOSIG
ZGSZ,2017-07-13 03:00,ZGSZ 130300Z 27003MPS 9999 BKN023 31/27 Q1009 NOSIG
ZGSZ,2017-07-13 04:00,ZGSZ 130400Z 26003MPS 9999 FEW020 SCT026 31/27 Q1009 NOSIG
ZGSZ,2017-07-13 05:00,ZGSZ 130500Z 20003MPS 180V240 9999 SCT026 32/26 Q1008 NOSIG
ZGSZ,2017-07-13 06:00,ZGSZ 130600Z VRB01MPS 9999 -SHRA FEW016 SCT026 29/26 Q1008 NOSIG
ZGSZ,2017-07-13 07:00,ZGSZ 130700Z 20003MPS 170V230 9999 SCT030 31/27 Q1007 NOSIG
ZGSZ,2017-07-13 08:00,ZGSZ 130800Z 31002MPS 280V020 9999 FEW015 SCT030 30/27 Q1007 NOSIG
ZGSZ,2017-07-13 09:00,ZGSZ 130900Z 17005MPS 9999 FEW015 SCT030 31/27 Q1006 NOSIG
ZGSZ,2017-07-13 10:00,ZGSZ 131000Z 15002MPS 060V200 9999 FEW020 31/27 Q1006 NOSIG
ZGSZ,2017-07-13 11:00,ZGSZ 131100Z 12004MPS 080V180 9999 FEW020 31/25 Q1007 NOSIG
ZGSZ,2017-07-13 12:00,ZGSZ 131200Z 11004MPS 9999 FEW020 30/25 Q1008 NOSIG
ZGSZ,2017-07-13 13:00,ZGSZ 131300Z 10004MPS 9999 FEW020 30/25 Q1008 NOSIG
ZGSZ,2017-07-13 14:00,ZGSZ 131400Z 09004MPS 9999 FEW020 29/25 Q1008 NOSIG
ZGSZ,2017-07-13 15:00,ZGSZ 131500Z 10003MPS 070V130 CAVOK 29/25 Q1008 NOSIG
ZGSZ,2017-07-13 16:00,ZGSZ 131600Z 10003MPS CAVOK 29/25 Q1008 NOSIG
ZGSZ,2017-07-13 17:00,ZGSZ 131700Z 08002MPS 050V130 CAVOK 29/25 Q1008 NOSIG
ZGSZ,2017-07-13 18:00,ZGSZ 131800Z 09002MPS 040V150 CAVOK 29/25 Q1008 NOSIG
ZGSZ,2017-07-13 19:00,ZGSZ 131900Z 10002MPS CAVOK 28/25 Q1007 NOSIG
ZGSZ,2017-07-13 20:00,ZGSZ 132000Z 10002MPS CAVOK 28/25 Q1007 NOSIG
ZGSZ,2017-07-13 21:00,ZGSZ 132100Z 10002MPS CAVOK 28/25 Q1007 NOSIG
ZGSZ,2017-07-13 22:00,ZGSZ 132200Z 09002MPS CAVOK 28/25 Q1007 NOSIG
ZGSZ,2017-07-13 23:00,ZGSZ 132300Z 09004MPS CAVOK 29/25 Q1007 NOSIG
ZGSZ,2017-07-14 00:00,ZGSZ 140000Z 10004MPS CAVOK 30/25 Q1008 NOSIG
ZGSZ,2017-07-14 01:00,ZGSZ 140100Z 09005MPS 060V130 9999 SCT026 31/25 Q1008 NOSIG
ZGSZ,2017-07-14 02:00,ZGSZ 140200Z 11004MPS 080V140 9999 SCT026 31/25 Q1008 NOSIG
ZGSZ,2017-07-14 03:00,ZGSZ 140300Z 23002MPS 160V260 9999 SCT026 31/26 Q1008 NOSIG
ZGSZ,2017-07-14 04:00,ZGSZ 140400Z 22003MPS 9999 FEW023TCU SCT026 30/26 Q1008 NOSIG
ZGSZ,2017-07-14 05:00,ZGSZ 140500Z 18005MPS 9999 SCT020 FEW023CB SCT033 31/27 Q1007 BECMG AT0520 SHRA
ZGSZ,2017-07-14 06:00,ZGSZ 140600Z 13006MPS 9999 FEW026 32/26 Q1007 NOSIG
ZGSZ,2017-07-14 07:00,ZGSZ 140700Z 13005MPS 100V170 9999 FEW033 33/26 Q1006 NOSIG
ZGSZ,2017-07-14 08:00,ZGSZ 140800Z 14003MPS 080V190 9999 FEW033 FEW036TCU 32/25 Q1006 NOSIG
ZGSZ,2017-07-14 09:00,ZGSZ 140900Z 13006MPS 9999 FEW020 32/24 Q1005 NOSIG
ZGSZ,2017-07-14 10:00,ZGSZ 141000Z 12005MPS 9999 FEW020 31/24 Q1006 NOSIG
ZGSZ,2017-07-14 11:00,ZGSZ 141100Z 12007MPS 9999 FEW020 31/24 Q1006 NOSIG
ZGSZ,2017-07-14 12:00,ZGSZ 141200Z 12005MPS CAVOK 30/25 Q1007 NOSIG
ZGSZ,2017-07-14 13:00,ZGSZ 141300Z 11004MPS CAVOK 30/25 Q1007 NOSIG
ZGSZ,2017-07-14 14:00,ZGSZ 141400Z 11005MPS CAVOK 30/25 Q1008 NOSIG
ZGSZ,2017-07-14 15:00,ZGSZ 141500Z 10003MPS 060V130 CAVOK 29/25 Q1008 NOSIG
ZGSZ,2017-07-14 16:00,ZGSZ 141600Z 11004MPS 070V130 CAVOK 29/25 Q1008 NOSIG
ZGSZ,2017-07-14 17:00,ZGSZ 141700Z 08002MPS 050V110 CAVOK 29/25 Q1008 NOSIG
ZGSZ,2017-07-14 18:00,ZGSZ 141800Z 08003G08MPS 060V120 CAVOK 28/25 Q1007 NOSIG
ZGSZ,2017-07-14 19:00,ZGSZ 141900Z 10003MPS 060V150 CAVOK 28/25 Q1007 NOSIG
ZGSZ,2017-07-14 20:00,ZGSZ 142000Z 05002MPS 010V110 9999 FEW021 28/25 Q1007 NOSIG
ZGSZ,2017-07-14 21:00,ZGSZ 142100Z 06003MPS 9999 FEW026TCU SCT050 28/25 Q1007 NOSIG
ZGSZ,2017-07-14 22:00,ZGSZ 142200Z 07002MPS 040V130 9999 FEW021 SCT050 28/24 Q1007 NOSIG
ZGSZ,2017-07-14 23:00,ZGSZ 142300Z 04002MPS CAVOK 29/26 Q1007 NOSIG
ZGSZ,2017-07-15 00:00,ZGSZ 150000Z 06004MPS 9999 FEW021 FEW026TCU 30/25 Q1007 NOSIG
ZGSZ,2017-07-15 01:00,ZGSZ 150100Z 09005MPS 040V130 9999 SCT020 31/25 Q1007 NOSIG
ZGSZ,2017-07-15 02:00,ZGSZ 150200Z 10007MPS 9999 SCT020 31/25 Q1008 NOSIG
ZGSZ,2017-07-15 03:00,ZGSZ 150300Z 10007MPS 9999 SCT020 32/25 Q1007 NOSIG
ZGSZ,2017-07-15 04:00,ZGSZ 150400Z 09007MPS 9999 SCT020 33/25 Q1007 NOSIG
ZGSZ,2017-07-15 05:00,ZGSZ 150500Z 10007MPS 9999 SCT020 FEW023TCU 33/25 Q1007 NOSIG
ZGSZ,2017-07-15 06:00,ZGSZ 150600Z 11008MPS 9999 SCT020 FEW023CB 34/25 Q1006 NOSIG
ZGSZ,2017-07-15 07:00,ZGSZ 150700Z 18004MPS 130V210 9999 FEW020 FEW023CB SCT033 31/26 Q1006 NOSIG
ZGSZ,2017-07-15 08:00,ZGSZ 150800Z 10007MPS 9999 FEW020 33/24 Q1006 NOSIG
ZGSZ,2017-07-15 09:00,ZGSZ 150900Z 10008MPS 9999 FEW033 32/24 Q1005 NOSIG
ZGSZ,2017-07-15 10:00,ZGSZ 151000Z 09006MPS 9999 FEW026 31/24 Q1006 NOSIG
ZGSZ,2017-07-15 11:00,ZGSZ 151100Z 11005MPS 9999 FEW026 30/24 Q1006 NOSIG
ZGSZ,2017-07-15 12:00,ZGSZ 151200Z 11007MPS 9999 -SHRA FEW020 FEW033CB 28/25 Q1007 NOSIG
ZGSZ,2017-07-15 13:00,ZGSZ 151300Z 11003MPS CAVOK 28/25 Q1008 NOSIG
ZGSZ,2017-07-15 14:00,ZGSZ 151400Z 08004MPS CAVOK 29/25 Q1008 NOSIG
ZGSZ,2017-07-15 15:00,ZGSZ 151500Z 08004MPS 050V120 CAVOK 29/25 Q1008 NOSIG
ZGSZ,2017-07-15 16:00,ZGSZ 151600Z 08003G08MPS 030V130 9999 FEW030 29/25 Q1008 NOSIG
ZGSZ,2017-07-15 17:00,ZGSZ 151700Z 05004MPS 030V090 9999 -SHRA BKN033 28/25 Q1007 NOSIG
ZGSZ,2017-07-15 18:00,ZGSZ 151800Z 05004MPS 020V090 9999 FEW033 28/25 Q1007 NOSIG
ZGSZ,2017-07-15 19:00,ZGSZ 151900Z 07005MPS 9999 -SHRA BKN033 28/25 Q1007 NOSIG
ZGSZ,2017-07-15 20:00,ZGSZ 152000Z 05004MPS 9999 -SHRA FEW020 BKN033 27/26 Q1006 NOSIG
ZGSZ,2017-07-15 21:00,ZGSZ 152100Z 05004MPS 9999 -SHRA FEW018 FEW030CB BKN033 27/26 Q1007 NOSIG
ZGSZ,2017-07-15 22:00,ZGSZ 152200Z 05003MPS 9999 FEW020 28/26 Q1006 NOSIG
ZGSZ,2017-07-15 23:00,ZGSZ 152300Z 06004MPS 030V090 9999 -SHRA SCT020 27/25 Q1007 NOSIG
ZGSZ,2017-07-16 00:00,ZGSZ 160000Z 07005MPS 030V090 9999 FEW023 SCT033 28/25 Q1007 NOSIG
ZGSZ,2017-07-16 01:00,ZGSZ 160100Z 08004MPS 5000 SHRA BKN020 FEW023CB 28/26 Q1008 BECMG AT0130 NSW
ZGSZ,2017-07-16 02:00,ZGSZ 160200Z 08004G09MPS 040V110 9999 FEW020 FEW023TCU 30/26 Q1008 NOSIG
ZGSZ,2017-07-16 03:00,ZGSZ 160300Z 10006MPS 9999 FEW020 FEW023TCU 30/25 Q1008 BECMG AT0340 SHRA
ZGSZ,2017-07-16 04:00,ZGSZ 160400Z 14007MPS 3000 R15/0900V1400N R16/0375V0800N +TSRA SCT013 FEW023CB 25/25 Q1008 BECMG AT0440 NSW
ZGSZ,2017-07-16 05:00,ZGSZ 160500Z 10003MPS 070V140 9999 SCT020 FEW023TCU 28/25 Q1008 RESHRA NOSIG
ZGSZ,2017-07-16 06:00,ZGSZ 160600Z 11004MPS 080V140 9999 -SHRA SCT015 FEW023TCU 29/26 Q1007 BECMG AT0645 SHRA
ZGSZ,2017-07-16 07:00,ZGSZ 160700Z 15004MPS 8000 SHRA SCT015 FEW023CB 28/25 Q1007 BECMG AT0730 NSW
ZGSZ,2017-07-16 08:00,ZGSZ 160800Z 08006MPS 050V110 9999 -SHRA SCT015 FEW020CB 27/24 Q1007 RETSRA NOSIG
ZGSZ,2017-07-16 09:00,ZGSZ 160900Z 09004MPS 060V120 9999 FEW020 28/25 Q1007 NOSIG
ZGSZ,2017-07-16 10:00,ZGSZ 161000Z 07003MPS 040V200 9999 FEW017 28/25 Q1007 NOSIG
ZGSZ,2017-07-16 11:00,ZGSZ 161100Z 06003MPS 9999 SCT011 28/25 Q1008 NOSIG
ZGSZ,2017-07-16 12:00,ZGSZ 161200Z 08004MPS 040V110 9999 -SHRA FEW011 28/25 Q1008 NOSIG
ZGSZ,2017-07-16 13:00,ZGSZ 161300Z 05003MPS 360V080 9999 FEW011 27/25 Q1009 NOSIG
ZGSZ,2017-07-16 14:00,ZGSZ 161400Z 06003MPS 020V090 9999 BKN020 27/25 Q1009 NOSIG
ZGSZ,2017-07-16 15:00,ZGSZ 161500Z 04003MPS 010V170 9999 SCT020 27/25 Q1009 NOSIG
ZGSZ,2017-07-16 16:00,ZGSZ 161600Z 05004MPS 030V100 9999 FEW020 27/25 Q1009 NOSIG
ZGSZ,2017-07-16 17:00,ZGSZ 161700Z 05003MPS 010V080 CAVOK 27/25 Q1008 NOSIG
ZGSZ,2017-07-16 18:00,ZGSZ 161800Z 06003MPS 020V100 9999 FEW020 27/25 Q1008 NOSIG
ZGSZ,2017-07-16 19:00,ZGSZ 161900Z 04004MPS 010V070 9999 FEW020 27/25 Q1007 NOSIG
ZGSZ,2017-07-16 20:00,ZGSZ 162000Z 04003MPS 360V110 9999 SCT050 27/24 Q1007 NOSIG
ZGSZ,2017-07-16 21:00,ZGSZ 162100Z 02002MPS CAVOK 26/24 Q1007 NOSIG
ZGSZ,2017-07-16 22:00,ZGSZ 162200Z 03006MPS 9999 SCT050 27/24 Q1007 NOSIG
ZGSZ,2017-07-16 23:00,ZGSZ 162300Z 05002MPS 010V090 9999 SCT050 27/25 Q1007 NOSIG
ZGSZ,2017-07-17 00:00,ZGSZ 170000Z 06004MPS 030V100 9999 SCT050 29/25 Q1007 NOSIG
ZGSZ,2017-07-17 01:00,ZGSZ 170100Z 07005MPS 9999 FEW020 FEW030CB BKN050 29/25 Q1008 BECMG AT0140 SHRA
ZGSZ,2017-07-17 02:00,ZGSZ 170200Z 04004MPS 350V070 8000 -SHRA SCT016 BKN030 28/25 Q1008 RESHRA BECMG AT0340 SHRA
ZGSZ,2017-07-17 03:00,ZGSZ 170300Z 06003MPS 9999 FEW015 SCT040 29/25 Q1008 BECMG AT0340 14006MPS 2000 TSRA
ZGSZ,2017-07-17 04:00,ZGSZ 170400Z 15005MPS 110V180 5000 TSRA SCT015 FEW023CB BKN030 27/26 Q1008 BECMG AT0410 09005MPS NSW
ZGSZ,2017-07-17 05:00,ZGSZ 170500Z 10002MPS 070V130 9999 SCT036 28/25 Q1008 BECMG AT0640 SHRA
ZGSZ,2017-07-17 07:00,ZGSZ 170700Z 15007MPS 1600 R15/P2000 R16/1000D +TSRA SCT011 FEW020CB BKN040 26/25 Q1008 BECMG AT0720 3000 -SHRA
ZGSZ,2017-07-17 09:00,ZGSZ 170900Z 16008MPS 3200 -TSRA SCT007 FEW020CB BKN030 25/25 Q1008 RESHRA BECMG TL0935 TSRA
ZGSZ,2017-07-17 10:00,ZGSZ 171000Z 14005MPS 6000 -SHRA SCT007 FEW020CB BKN030 25/24 Q1009 NOSIG
ZGSZ,2017-07-17 11:00,ZGSZ 171100Z 14005MPS 8000 -SHRA FEW014 FEW020TCU BKN050 25/24 Q1009 NOSIG
ZGSZ,2017-07-17 12:00,ZGSZ 171200Z 10003MPS 8000 -SHRA FEW014 FEW023TCU BKN050 26/25 Q1010 BECMG AT1300 SHRA
ZGSZ,2017-07-17 13:00,ZGSZ 171300Z 11006MPS 3500 -SHRA FEW010 FEW023TCU BKN050 25/25 Q1011 BECMG TL1320 SHRA
ZGSZ,2017-07-17 14:00,ZGSZ 171400Z 12006MPS 8000 -SHRA FEW010 FEW023CB BKN040 25/25 Q1011 RESHRA NOSIG
ZGSZ,2017-07-17 15:00,ZGSZ 171500Z 12004MPS 9999 -SHRA FEW010 FEW023CB BKN040 25/25 Q1012 NOSIG
ZGSZ,2017-07-17 16:00,ZGSZ 171600Z 12003MPS 9999 -SHRA FEW015 FEW023TCU SCT040 25/24 Q1011 NOSIG
ZGSZ,2017-07-17 17:00,ZGSZ 171700Z 12002MPS 070V170 9999 -SHRA FEW015 SCT040 26/24 Q1011 NOSIG
ZGSZ,2017-07-17 18:00,ZGSZ 171800Z 10005MPS 060V130 9999 -SHRA FEW020 FEW023TCU SCT040 26/24 Q1010 NOSIG
ZGSZ,2017-07-17 19:00,ZGSZ 171900Z 07002MPS 020V140 9999 -SHRA FEW020 FEW023TCU 26/24 Q1010 NOSIG
ZGSZ,2017-07-17 20:00,ZGSZ 172000Z 04003MPS 340V080 9999 FEW020 SCT050 26/25 Q1009 NOSIG
ZGSZ,2017-07-17 21:00,ZGSZ 172100Z 09003MPS 040V120 9999 -RA SCT050 27/25 Q1009 NOSIG
ZGSZ,2017-07-17 22:00,ZGSZ 172200Z VRB01MPS 9999 SCT040 27/25 Q1010 BECMG AT2340 SHRA
ZGSZ,2017-07-17 23:00,ZGSZ 172300Z 05002MPS 020V180 9999 FEW010 FEW020CB BKN033 27/25 Q1011 BECMG AT2340 SHRA
ZGSZ,2017-07-18 00:00,ZGSZ 180000Z 16005MPS 140V200 8000 -SHRA FEW008 FEW020CB BKN033 26/25 Q1011 RESHRA BECMG AT0135 SHRA
ZGSZ,2017-07-18 01:00,ZGSZ 180100Z 09003MPS 9999 -RA FEW020 BKN050 26/24 Q1011 BECMG AT0235 SHRA
ZGSZ,2017-07-18 02:00,ZGSZ 180200Z 08002MPS 040V110 9999 BKN016 BKN050 26/24 Q1012 BECMG AT0335 SHRA
ZGSZ,2017-07-18 03:00,ZGSZ 180300Z 04002MPS 360V140 9999 -RA NSC 26/25 Q1012 NOSIG
ZGSZ,2017-07-18 04:00,ZGSZ 180400Z 10003MPS 9999 -RA FEW016 BKN040 27/25 Q1012 NOSIG
ZGSZ,2017-07-18 05:00,ZGSZ 180500Z 10002MPS 060V140 9999 BKN050 27/25 Q1011 BECMG AT0635 SHRA
ZGSZ,2017-07-18 06:00,ZGSZ 180600Z 02002MPS 9999 -RA BKN023 27/25 Q1011 BECMG AT0735 SHRA
ZGSZ,2017-07-18 07:00,ZGSZ 180700Z 33002MPS 290V040 9999 BKN018 26/25 Q1010 BECMG AT0740 SHRA
ZGSZ,2017-07-18 08:00,ZGSZ 180800Z 23005MPS 3000 R15/P2000 R16/1400U TSRA SCT011 FEW023CB 25/25 Q1010 BECMG AT0840 SHRA
ZGSZ,2017-07-18 09:00,ZGSZ 180900Z 16005MPS 4000 -SHRA BKN013 FEW023CB OVC027 26/25 Q1010 RETSRA BECMG AT0940 SCT015 BKN030
ZGSZ,2017-07-18 10:00,ZGSZ 181000Z 12004MPS 8000 -SHRA SCT007 OVC040 25/24 Q1010 BECMG AT1140 18006MPS SHRA
ZGSZ,2017-07-18 11:00,ZGSZ 181100Z 09003MPS 8000 -SHRA SCT010 OVC040 25/24 Q1011 NOSIG
ZGSZ,2017-07-18 12:00,ZGSZ 181200Z 10006MPS 8000 -RA SCT010 OVC040 25/24 Q1012 NOSIG
ZGSZ,2017-07-18 13:00,ZGSZ 181300Z 11004MPS 9999 -RA FEW012 OVC050 26/24 Q1012 NOSIG
ZGSZ,2017-07-18 14:00,ZGSZ 181400Z 09003MPS 050V120 9999 -RA SCT030 26/24 Q1012 BECMG AT1520 SHRA
ZGSZ,2017-07-18 15:00,ZGSZ 181500Z 07002MPS 040V110 9999 -RA SCT050 25/24 Q1012 NOSIG
ZGSZ,2017-07-18 16:00,ZGSZ 181600Z 12003MPS 9999 -RA SCT008 25/24 Q1012 NOSIG
ZGSZ,2017-07-18 17:00,ZGSZ 181700Z 11004MPS 9999 -RA FEW015 26/24 Q1011 NOSIG
ZGSZ,2017-07-18 18:00,ZGSZ 181800Z 12004MPS 9999 -RA FEW015 25/24 Q1010 NOSIG
ZGSZ,2017-07-18 19:00,ZGSZ 181900Z 09002MPS 020V120 CAVOK 26/24 Q1009 NOSIG
ZGSZ,2017-07-18 20:00,ZGSZ 182000Z 05003MPS 010V070 CAVOK 25/24 Q1009 NOSIG
ZGSZ,2017-07-18 21:00,ZGSZ 182100Z 05003MPS 020V120 CAVOK 25/24 Q1009 NOSIG
ZGSZ,2017-07-18 22:00,ZGSZ 182200Z VRB02MPS 9999 FEW030 26/24 Q1009 NOSIG
ZGSZ,2017-07-18 23:00,ZGSZ 182300Z 04003MPS CAVOK 26/25 Q1009 NOSIG
ZGSZ,2017-07-19 00:00,ZGSZ 190000Z 05003MPS 310V080 CAVOK 27/25 Q1010 NOSIG
ZGSZ,2017-07-19 01:00,ZGSZ 190100Z 04002MPS 350V070 9999 FEW030 SCT040 28/25 Q1010 NOSIG
ZGSZ,2017-07-19 02:00,ZGSZ 190200Z 11002MPS 050V170 9999 FEW020 30/26 Q1010 NOSIG
ZGSZ,2017-07-19 03:00,ZGSZ 190300Z 11004MPS 080V140 9999 SCT020 31/26 Q1009 NOSIG
ZGSZ,2017-07-19 04:00,ZGSZ 190400Z 27004MPS 7000 -SHRA SCT020 FEW033TCU BKN043 29/26 Q1009 NOSIG
ZGSZ,2017-07-19 05:00,ZGSZ 190500Z 23003MPS 200V280 7000 -SHRA SCT020 FEW033TCU 29/27 Q1008 NOSIG
ZGSZ,2017-07-19 06:00,ZGSZ 190600Z 21003MPS 8000 SCT020 FEW030TCU 29/26 Q1008 NOSIG
ZGSZ,2017-07-19 07:00,ZGSZ 190700Z 20006MPS 9999 FEW020 SCT040 28/26 Q1008 NOSIG
ZGSZ,2017-07-19 08:00,ZGSZ 190800Z 18004MPS 9999 FEW020 28/26 Q1007 NOSIG
ZGSZ,2017-07-19 09:00,ZGSZ 190900Z 18004MPS 9999 FEW020 FEW030CB 29/26 Q1007 NOSIG
ZGSZ,2017-07-19 10:00,ZGSZ 191000Z 19004MPS 9999 -SHRA FEW020 FEW030CB 28/26 Q1007 NOSIG
ZGSZ,2017-07-19 11:00,ZGSZ 191100Z 19003MPS 9999 -RA FEW020 28/26 Q1007 NOSIG
ZGSZ,2017-07-19 12:00,ZGSZ 191200Z VRB01MPS 9999 FEW028 28/26 Q1008 NOSIG
ZGSZ,2017-07-19 13:00,ZGSZ 191300Z 20001MPS 9999 FEW028 28/26 Q1009 NOSIG
ZGSZ,2017-07-19 14:00,ZGSZ 191400Z 27001MPS 9999 FEW023 28/26 Q1009 NOSIG
ZGSZ,2017-07-19 15:00,ZGSZ 191500Z VRB01MPS CAVOK 28/26 Q1009 NOSIG
ZGSZ,2017-07-19 16:00,ZGSZ 191600Z VRB01MPS 9999 FEW018 28/25 Q1009 NOSIG
ZGSZ,2017-07-19 17:00,ZGSZ 191700Z 04002MPS 320V100 CAVOK 28/26 Q1009 NOSIG
ZGSZ,2017-07-19 18:00,ZGSZ 191800Z 04003MPS 360V110 CAVOK 27/25 Q1008 NOSIG
ZGSZ,2017-07-19 19:00,ZGSZ 191900Z 05002MPS 330V140 CAVOK 27/25 Q1007 NOSIG
ZGSZ,2017-07-19 20:00,ZGSZ 192000Z 03002MPS 350V070 CAVOK 27/25 Q1007 NOSIG
ZGSZ,2017-07-19 21:00,ZGSZ 192100Z 06002MPS 360V110 CAVOK 27/25 Q1007 NOSIG
ZGSZ,2017-07-19 22:00,ZGSZ 192200Z 02002MPS 350V050 CAVOK 27/25 Q1008 NOSIG
ZGSZ,2017-07-19 23:00,ZGSZ 192300Z 03003MPS CAVOK 28/25 Q1008 NOSIG
ZGSZ,2017-07-20 00:00,ZGSZ 200000Z 03002MPS 350V110 CAVOK 29/25 Q1009 NOSIG
ZGSZ,2017-07-20 01:00,ZGSZ 200100Z VRB01MPS 9999 SCT020 30/26 Q1009 NOSIG
ZGSZ,2017-07-20 02:00,ZGSZ 200200Z 24002MPS 150V290 9999 BKN020 FEW025TCU 30/26 Q1009 NOSIG
ZGSZ,2017-07-20 03:00,ZGSZ 200300Z 28003MPS 9000 BKN025 29/26 Q1009 NOSIG
ZGSZ,2017-07-20 04:00,ZGSZ 200400Z 28003MPS 9000 FEW030TCU SCT046 31/27 Q1009 NOSIG
ZGSZ,2017-07-20 05:00,ZGSZ 200500Z 25003MPS 9999 FEW030TCU SCT040 31/27 Q1009 NOSIG
ZGSZ,2017-07-20 06:00,ZGSZ 200600Z 21004MPS 180V240 1000 R15/P2000 R16/P2000 +TSRA BKN010 FEW020CB 30/26 Q1009 BECMG AT0710 3000 -SHRA
ZGSZ,2017-07-20 07:00,ZGSZ 200700Z VRB01MPS 9999 FEW015 FEW020TCU 28/25 Q1008 RETS NOSIG
ZGSZ,2017-07-20 08:00,ZGSZ 200800Z 17002MPS 9999 FEW020TCU FEW020 29/26 Q1007 NOSIG
ZGSZ,2017-07-20 09:00,ZGSZ 200900Z 18003MPS 9999 FEW026 29/26 Q1007 NOSIG
ZGSZ,2017-07-20 10:00,ZGSZ 201000Z 18003MPS 9999 SCT030 29/26 Q1007 NOSIG
ZGSZ,2017-07-20 11:00,ZGSZ 201100Z 09003MPS 060V120 9999 FEW020 30/25 Q1008 NOSIG
ZGSZ,2017-07-20 12:00,ZGSZ 201200Z 10003MPS CAVOK 29/25 Q1008 NOSIG
ZGSZ,2017-07-20 13:00,ZGSZ 201300Z 09003MPS 070V130 CAVOK 29/26 Q1009 NOSIG
ZGSZ,2017-07-20 14:00,ZGSZ 201400Z 11003MPS 070V130 CAVOK 29/26 Q1010 NOSIG
ZGSZ,2017-07-20 15:00,ZGSZ 201500Z 10002MPS 040V140 CAVOK 29/25 Q1010 NOSIG
ZGSZ,2017-07-20 16:00,ZGSZ 201600Z 09002MPS 060V150 CAVOK 29/25 Q1009 NOSIG
ZGSZ,2017-07-20 17:00,ZGSZ 201700Z VRB01MPS 9999 SCT025 29/25 Q1009 NOSIG
ZGSZ,2017-07-20 18:00,ZGSZ 201800Z 02002MPS 9999 SCT040 28/25 Q1008 NOSIG
ZGSZ,2017-07-20 19:00,ZGSZ 201900Z 06001MPS 9999 SCT040 28/26 Q1008 NOSIG
ZGSZ,2017-07-20 20:00,ZGSZ 202000Z 05002MPS 9999 FEW020 28/26 Q1008 NOSIG
ZGSZ,2017-07-20 21:00,ZGSZ 202100Z 05003MPS 9999 FEW020 28/26 Q1008 NOSIG
ZGSZ,2017-07-20 22:00,ZGSZ 202200Z 05003MPS 9999 FEW020 28/26 Q1009 NOSIG
ZGSZ,2017-07-20 23:00,ZGSZ 202300Z 05004MPS 9999 FEW026 28/25 Q1009 NOSIG
ZGSZ,2017-07-21 00:00,ZGSZ 210000Z 07004MPS 040V120 9999 FEW026 30/26 Q1010 NOSIG
ZGSZ,2017-07-21 01:00,ZGSZ 210100Z 07004MPS 020V090 9999 SCT026 30/26 Q1010 NOSIG
ZGSZ,2017-07-21 02:00,ZGSZ 210200Z 10004MPS 060V130 9999 SCT026 31/26 Q1010 NOSIG
ZGSZ,2017-07-21 03:00,ZGSZ 210300Z 08003MPS 350V120 9999 SCT023 FEW026CB 32/25 Q1010 NOSIG
ZGSZ,2017-07-21 04:00,ZGSZ 210400Z 10004MPS 070V140 9999 FEW023 FEW026TCU 33/25 Q1010 NOSIG
ZGSZ,2017-07-21 05:00,ZGSZ 210500Z 13006MPS 100V180 9999 FEW023 34/25 Q1009 NOSIG
ZGSZ,2017-07-21 06:00,ZGSZ 210600Z 12005MPS 060V140 9999 SCT023 FEW026TCU 34/24 Q1008 NOSIG
ZGSZ,2017-07-21 07:00,ZGSZ 210700Z 12005MPS 090V160 9999 FEW023 FEW026TCU 34/25 Q1008 NOSIG
ZGSZ,2017-07-21 08:00,ZGSZ 210800Z 12006MPS 090V150 9999 FEW023 FEW026TCU 34/23 Q1007 NOSIG
ZGSZ,2017-07-21 09:00,ZGSZ 210900Z 11006MPS 080V140 9999 FEW023 FEW026TCU 33/24 Q1007 NOSIG
ZGSZ,2017-07-21 10:00,ZGSZ 211000Z 11006MPS 9999 FEW023 FEW030CB 33/23 Q1008 NOSIG
ZGSZ,2017-07-21 11:00,ZGSZ 211100Z 11006MPS 9999 FEW023 31/24 Q1009 NOSIG
ZGSZ,2017-07-21 12:00,ZGSZ 211200Z 10004MPS CAVOK 30/24 Q1009 NOSIG
ZGSZ,2017-07-21 13:00,ZGSZ 211300Z 10004MPS 070V130 CAVOK 30/25 Q1010 NOSIG
ZGSZ,2017-07-21 14:00,ZGSZ 211400Z 09002MPS 040V130 CAVOK 30/25 Q1010 NOSIG
ZGSZ,2017-07-21 15:00,ZGSZ 211500Z 11003MPS 080V140 CAVOK 29/25 Q1010 NOSIG
ZGSZ,2017-07-21 16:00,ZGSZ 211600Z 10004MPS CAVOK 29/24 Q1010 NOSIG
ZGSZ,2017-07-21 17:00,ZGSZ 211700Z 08004MPS 060V120 CAVOK 29/24 Q1010 NOSIG
ZGSZ,2017-07-21 18:00,ZGSZ 211800Z 09003MPS 060V120 CAVOK 29/24 Q1010 NOSIG
ZGSZ,2017-07-21 19:00,ZGSZ 211900Z 08002MPS 030V130 CAVOK 29/25 Q1009 NOSIG
ZGSZ,2017-07-21 20:00,ZGSZ 212000Z VRB02MPS CAVOK 28/25 Q1009 NOSIG
ZGSZ,2017-07-21 21:00,ZGSZ 212100Z 05003MPS 010V100 CAVOK 28/25 Q1009 NOSIG
ZGSZ,2017-07-21 22:00,ZGSZ 212200Z 04002MPS 350V120 9999 FEW030CB 28/25 Q1008 NOSIG
ZGSZ,2017-07-21 23:00,ZGSZ 212300Z 05003MPS 010V070 CAVOK 29/25 Q1009 NOSIG
ZGSZ,2017-07-22 00:00,ZGSZ 220000Z 05004MPS CAVOK 29/25 Q1009 NOSIG
ZGSZ,2017-07-22 01:00,ZGSZ 220100Z 05004MPS 360V090 CAVOK 31/25 Q1010 NOSIG
ZGSZ,2017-07-22 02:00,ZGSZ 220200Z 03004MPS 360V100 9999 SCT023 31/25 Q1010 NOSIG
ZGSZ,2017-07-22 03:00,ZGSZ 220300Z 08003MPS 050V110 9999 FEW030 32/25 Q1010 NOSIG
ZGSZ,2017-07-22 04:00,ZGSZ 220400Z 10005MPS 060V120 9999 SCT030 33/25 Q1009 NOSIG
ZGSZ,2017-07-22 05:00,ZGSZ 220500Z 21003MPS 180V250 9999 SCT030 31/26 Q1009 NOSIG
ZGSZ,2017-07-22 06:00,ZGSZ 220600Z 12004MPS 100V210 9999 FEW030 33/24 Q1008 NOSIG
ZGSZ,2017-07-22 07:00,ZGSZ 220700Z 21004MPS 9999 FEW040 32/25 Q1007 NOSIG
ZGSZ,2017-07-22 08:00,ZGSZ 220800Z 22004MPS CAVOK 31/26 Q1006 NOSIG
ZGSZ,2017-07-22 09:00,ZGSZ 220900Z 20004MPS CAVOK 31/26 Q1006 NOSIG
ZGSZ,2017-07-22 10:00,ZGSZ 221000Z 21004MPS CAVOK 30/26 Q1007 NOSIG
ZGSZ,2017-07-22 11:00,ZGSZ 221100Z 18005MPS CAVOK 30/26 Q1007 NOSIG
ZGSZ,2017-07-22 12:00,ZGSZ 221200Z 18005MPS CAVOK 29/26 Q1008 NOSIG
ZGSZ,2017-07-22 13:00,ZGSZ 221300Z 18004MPS CAVOK 29/26 Q1008 NOSIG
ZGSZ,2017-07-22 14:00,ZGSZ 221400Z 19004MPS CAVOK 29/27 Q1008 NOSIG
ZGSZ,2017-07-22 15:00,ZGSZ 221500Z 17003MPS 9999 FEW050 29/26 Q1008 NOSIG
ZGSZ,2017-07-22 16:00,ZGSZ 221600Z 17003MPS 9999 FEW025CB SCT050 29/26 Q1008 NOSIG
ZGSZ,2017-07-22 17:00,ZGSZ 221700Z VRB01MPS 9999 -SHRA FEW025CB SCT040 28/26 Q1007 RESHRA NOSIG
ZGSZ,2017-07-22 18:00,ZGSZ 221800Z VRB01MPS 9999 SCT050 28/27 Q1007 NOSIG
ZGSZ,2017-07-22 19:00,ZGSZ 221900Z 34002MPS 9999 FEW012 SCT040 28/26 Q1006 NOSIG
ZGSZ,2017-07-22 20:00,ZGSZ 222000Z 33002MPS 9999 FEW040 28/26 Q1006 NOSIG
ZGSZ,2017-07-22 21:00,ZGSZ 222100Z 34003MPS 9999 FEW040 28/27 Q1006 NOSIG
ZGSZ,2017-07-22 22:00,ZGSZ 222200Z 35003MPS 9999 SCT040 28/26 Q1005 NOSIG
ZGSZ,2017-07-22 23:00,ZGSZ 222300Z 35004MPS 8000 NSC 28/26 Q1006 NOSIG
ZGSZ,2017-07-23 00:00,ZGSZ 230000Z 02005MPS CAVOK 29/25 Q1006 NOSIG
ZGSZ,2017-07-23 01:00,ZGSZ 230100Z 02006MPS 9999 FEW015 28/24 Q1005 NOSIG
ZGSZ,2017-07-23 02:00,ZGSZ 230200Z 35007MPS 7000 -SHRA FEW015 BKN040 28/25 Q1005 NOSIG
ZGSZ,2017-07-23 03:00,ZGSZ 230300Z 34008MPS 6000 -SHRA SCT015 OVC040 26/25 Q1004 BECMG AT0440 2500 SHRA
ZGSZ,2017-07-23 04:00,ZGSZ 230400Z 07005MPS 360V120 9999 -SHRA SCT015 OVC040 26/25 Q1003 BECMG AT0540 2500 SHRA
ZGSZ,2017-07-23 05:00,ZGSZ 230500Z 12007MPS 5000 -SHRA SCT012 OVC033 26/25 Q1004 RESHRA BECMG AT0540 2500 SHRA
ZGSZ,2017-07-23 06:00,ZGSZ 230600Z 12005MPS 9999 -SHRA SCT012 OVC033 27/25 Q1005 RESHRA NOSIG
ZGSZ,2017-07-23 07:00,ZGSZ 230700Z 11005MPS 9999 FEW017 SCT046 28/25 Q1005 NOSIG
ZGSZ,2017-07-23 08:00,ZGSZ 230800Z 11007MPS 9999 SCT020 SCT046 28/25 Q1005 NOSIG
ZGSZ,2017-07-23 09:00,ZGSZ 230900Z 11005MPS 9999 FEW020 28/25 Q1005 NOSIG
ZGSZ,2017-07-23 10:00,ZGSZ 231000Z 10005MPS 9999 FEW020 28/25 Q1005 NOSIG
ZGSZ,2017-07-23 11:00,ZGSZ 231100Z 08004MPS 050V110 9999 FEW020 28/25 Q1005 NOSIG
ZGSZ,2017-07-23 12:00,ZGSZ 231200Z 09003MPS 050V140 9999 FEW015 BKN040 27/25 Q1005 NOSIG
ZGSZ,2017-07-23 13:00,ZGSZ 231300Z 05002MPS 020V120 9999 BKN040 27/25 Q1006 NOSIG
ZGSZ,2017-07-23 14:00,ZGSZ 231400Z 05002MPS 340V120 9999 -SHRA FEW014 FEW023CB BKN030 27/25 Q1007 NOSIG
ZGSZ,2017-07-23 15:00,ZGSZ 231500Z 05003MPS 010V150 9999 -SHRA FEW014 FEW023TCU BKN040 27/25 Q1007 BECMG AT1520 SHRA
ZGSZ,2017-07-23 16:00,ZGSZ 231600Z 05006MPS 2500 TSRA SCT012 FEW020CB BKN033 26/25 Q1007 BECMG AT1640 -SHRA
ZGSZ,2017-07-23 17:00,ZGSZ 231700Z 05003MPS 020V080 8000 -SHRA FEW012 FEW023TCU BKN033 26/25 Q1006 NOSIG
ZGSZ,2017-07-23 18:00,ZGSZ 231800Z 05004MPS 9999 -SHRA FEW012 SCT040 26/25 Q1006 NOSIG
ZGSZ,2017-07-23 19:00,ZGSZ 231900Z 05004MPS 010V090 9999 FEW040 26/25 Q1005 NOSIG
ZGSZ,2017-07-23 20:00,ZGSZ 232000Z 05002MPS 020V120 9999 -SHRA FEW014 SCT040 26/25 Q1005 NOSIG
ZGSZ,2017-07-23 21:00,ZGSZ 232100Z 02002MPS 9999 FEW014 26/25 Q1005 NOSIG
ZGSZ,2017-07-23 22:00,ZGSZ 232200Z 04003MPS CAVOK 26/25 Q1005 NOSIG
ZGSZ,2017-07-23 23:00,ZGSZ 232300Z 04002MPS 360V130 CAVOK 27/25 Q1005 NOSIG
ZGSZ,2017-07-24 00:00,ZGSZ 240000Z VRB02MPS 9999 BKN023 28/25 Q1006 NOSIG
ZGSZ,2017-07-24 01:00,ZGSZ 240100Z 04003MPS 340V130 9999 FEW023 28/26 Q1006 NOSIG
ZGSZ,2017-07-24 02:00,ZGSZ 240200Z 04004MPS 350V080 9999 SCT017 FEW020TCU 29/26 Q1006 NOSIG
ZGSZ,2017-07-24 03:00,ZGSZ 240300Z 06004G09MPS 030V130 5000 SHRA SCT017 FEW020TCU BKN040 28/26 Q1006 BECMG AT0340 -SHRA
ZGSZ,2017-07-24 04:00,ZGSZ 240400Z VRB01MPS 9999 -SHRA FEW017 SCT040 27/26 Q1006 NOSIG
ZGSZ,2017-07-24 05:00,ZGSZ 240500Z 29003MPS 9999 FEW017 FEW020TCU 28/26 Q1005 NOSIG
ZGSZ,2017-07-24 06:00,ZGSZ 240600Z 21003MPS 170V270 7000 +TSRA SCT017 FEW020CB SCT040 27/26 Q1005 BECMG AT0640 NSW
ZGSZ,2017-07-24 07:00,ZGSZ 240700Z 19003MPS 9999 -SHRA SCT017 FEW020CB SCT040 27/25 Q1004 RESHRA NOSIG
ZGSZ,2017-07-24 08:00,ZGSZ 240800Z VRB01MPS 9999 SCT020 29/26 Q1004 NOSIG
ZGSZ,2017-07-24 09:00,ZGSZ 240900Z 28002MPS 9999 SCT020 29/26 Q1003 NOSIG
ZGSZ,2017-07-24 10:00,ZGSZ 241000Z VRB01MPS 9999 SCT020 30/26 Q1003 NOSIG
ZGSZ,2017-07-24 11:00,ZGSZ 241100Z 12005MPS 9999 SCT020 29/25 Q1004 NOSIG
ZGSZ,2017-07-24 12:00,ZGSZ 241200Z 13003MPS 100V160 9999 SCT020 29/25 Q1005 NOSIG
ZGSZ,2017-07-24 13:00,ZGSZ 241300Z 10003MPS 060V140 9999 SCT020 29/25 Q1006 NOSIG
ZGSZ,2017-07-24 14:00,ZGSZ 241400Z 06002MPS 020V100 9999 FEW017 29/25 Q1006 NOSIG
ZGSZ,2017-07-24 15:00,ZGSZ 241500Z 09002MPS 9999 FEW017 28/25 Q1006 NOSIG
ZGSZ,2017-07-24 16:00,ZGSZ 241600Z 11003MPS 9999 FEW017 28/26 Q1005 NOSIG
ZGSZ,2017-07-24 17:00,ZGSZ 241700Z VRB01MPS 9999 FEW017 28/25 Q1005 NOSIG
ZGSZ,2017-07-24 18:00,ZGSZ 241800Z 10002MPS 050V130 9999 FEW017 28/25 Q1004 NOSIG
ZGSZ,2017-07-24 19:00,ZGSZ 241900Z 03002MPS 340V060 9999 FEW017 28/25 Q1004 NOSIG
ZGSZ,2017-07-24 20:00,ZGSZ 242000Z 06003MPS 9999 FEW017 28/26 Q1004 NOSIG
ZGSZ,2017-07-24 21:00,ZGSZ 242100Z VRB02MPS 9999 FEW017 27/25 Q1004 NOSIG
ZGSZ,2017-07-24 22:00,ZGSZ 242200Z 05003MPS 9999 SCT040 27/26 Q1005 NOSIG
ZGSZ,2017-07-24 23:00,ZGSZ 242300Z 05002MPS 9999 SCT040 28/26 Q1005 NOSIG
ZGSZ,2017-07-25 00:00,ZGSZ 250000Z 02003MPS 9999 SCT040 29/26 Q1005 NOSIG
ZGSZ,2017-07-25 01:00,ZGSZ 250100Z 04003MPS 350V070 9999 BKN020 30/26 Q1005 NOSIG
ZGSZ,2017-07-25 02:00,ZGSZ 250200Z 04003MPS 360V110 9999 BKN020 31/26 Q1006 NOSIG
ZGSZ,2017-07-25 03:00,ZGSZ 250300Z 23003MPS 9999 BKN023 30/26 Q1006 NOSIG
ZGSZ,2017-07-25 04:00,ZGSZ 250400Z 27003MPS 9999 FEW023TCU SCT023 31/27 Q1006 NOSIG
ZGSZ,2017-07-25 05:00,ZGSZ 250500Z 23003MPS 200V260 9999 FEW020 32/27 Q1005 NOSIG
ZGSZ,2017-07-25 06:00,ZGSZ 250600Z 21004MPS 9999 FEW020 FEW023TCU 32/27 Q1005 NOSIG
ZGSZ,2017-07-25 07:00,ZGSZ 250700Z 20004MPS 180V240 9999 FEW020 FEW023TCU 31/27 Q1004 NOSIG
ZGSZ,2017-07-25 08:00,ZGSZ 250800Z 21004MPS 9999 FEW021 31/27 Q1004 NOSIG
ZGSZ,2017-07-25 09:00,ZGSZ 250900Z 22004MPS 9999 FEW020 30/27 Q1003 NOSIG
ZGSZ,2017-07-25 10:00,ZGSZ 251000Z 20004MPS 9999 FEW020 30/27 Q1004 NOSIG
ZGSZ,2017-07-25 11:00,ZGSZ 251100Z 20005MPS CAVOK 29/26 Q1004 NOSIG
ZGSZ,2017-07-25 12:00,ZGSZ 251200Z 21003MPS 180V240 CAVOK 29/26 Q1004 NOSIG
ZGSZ,2017-07-25 13:00,ZGSZ 251300Z 19003MPS CAVOK 29/27 Q1005 NOSIG
ZGSZ,2017-07-25 14:00,ZGSZ 251400Z 19003MPS CAVOK 29/27 Q1006 NOSIG
ZGSZ,2017-07-25 15:00,ZGSZ 251500Z 18003MPS CAVOK 29/27 Q1005 NOSIG
ZGSZ,2017-07-25 16:00,ZGSZ 251600Z 19003MPS CAVOK 29/27 Q1005 NOSIG
ZGSZ,2017-07-25 17:00,ZGSZ 251700Z 18002MPS CAVOK 28/27 Q1005 NOSIG
ZGSZ,2017-07-25 18:00,ZGSZ 251800Z VRB01MPS CAVOK 28/26 Q1004 NOSIG
ZGSZ,2017-07-25 19:00,ZGSZ 251900Z VRB01MPS CAVOK 28/26 Q1004 NOSIG
ZGSZ,2017-07-25 20:00,ZGSZ 252000Z 25002MPS CAVOK 28/26 Q1003 NOSIG
ZGSZ,2017-07-25 21:00,ZGSZ 252100Z 29002MPS 9999 FEW020 28/26 Q1004 NOSIG
ZGSZ,2017-07-25 22:00,ZGSZ 252200Z VRB01MPS 9999 SCT016 BKN050 28/26 Q1004 NOSIG
ZGSZ,2017-07-25 23:00,ZGSZ 252300Z 31001MPS 9999 SCT016 28/26 Q1004 NOSIG
ZGSZ,2017-07-26 00:00,ZGSZ 260000Z 24001MPS 9999 SCT016 29/26 Q1005 NOSIG
ZGSZ,2017-07-26 01:00,ZGSZ 260100Z 21002MPS 180V250 9999 FEW020 29/26 Q1005 NOSIG
ZGSZ,2017-07-26 02:00,ZGSZ 260200Z 25002MPS 210V280 9999 FEW026 30/26 Q1005 NOSIG
ZGSZ,2017-07-26 03:00,ZGSZ 260300Z 24002MPS 9999 FEW026 30/27 Q1005 NOSIG
ZGSZ,2017-07-26 04:00,ZGSZ 260400Z 24003MPS 9999 FEW026 31/27 Q1004 NOSIG
ZGSZ,2017-07-26 05:00,ZGSZ 260500Z 22003MPS 9999 FEW026 31/26 Q1004 NOSIG
ZGSZ,2017-07-26 06:00,ZGSZ 260600Z 20004MPS 9999 FEW026 32/26 Q1003 NOSIG
ZGSZ,2017-07-26 07:00,ZGSZ 260700Z 14006MPS 4000 R15/P2000 R16/1200V1300N TSRA FEW015 FEW026CB BKN050 29/27 Q1003 BECMG TL0735 NSW
ZGSZ,2017-07-26 08:00,ZGSZ 260800Z 17002MPS 150V210 9999 FEW023CB SCT030 31/27 Q1002 NOSIG
ZGSZ,2017-07-26 09:00,ZGSZ 260900Z 19003MPS 9999 FEW023 31/27 Q1002 NOSIG
ZGSZ,2017-07-26 10:00,ZGSZ 261000Z 21002MPS 160V260 9999 -SHRA FEW023TCU SCT040 30/27 Q1002 NOSIG
ZGSZ,2017-07-26 11:00,ZGSZ 261100Z 16002MPS CAVOK 29/27 Q1003 NOSIG
ZGSZ,2017-07-26 12:00,ZGSZ 261200Z 00000MPS CAVOK 29/26 Q1004 NOSIG
ZGSZ,2017-07-26 13:00,ZGSZ 261300Z 36004MPS 340V050 8000 FEW030 29/25 Q1004 NOSIG
ZGSZ,2017-07-26 14:00,ZGSZ 261400Z 07002MPS 010V150 8000 NSC 29/25 Q1004 NOSIG
ZGSZ,2017-07-26 15:00,ZGSZ 261500Z 07002MPS 040V100 CAVOK 29/24 Q1004 NOSIG
ZGSZ,2017-07-26 16:00,ZGSZ 261600Z 13002MPS 090V150 CAVOK 29/24 Q1004 NOSIG
ZGSZ,2017-07-26 17:00,ZGSZ 261700Z VRB01MPS CAVOK 28/24 Q1003 NOSIG
ZGSZ,2017-07-26 18:00,ZGSZ 261800Z 10002MPS 060V120 CAVOK 28/25 Q1003 NOSIG
ZGSZ,2017-07-26 19:00,ZGSZ 261900Z 10003MPS 080V140 CAVOK 28/24 Q1003 NOSIG
ZGSZ,2017-07-26 20:00,ZGSZ 262000Z 04002MPS 010V100 CAVOK 28/25 Q1003 NOSIG
ZGSZ,2017-07-26 21:00,ZGSZ 262100Z 35002MPS 290V030 CAVOK 28/24 Q1003 NOSIG
ZGSZ,2017-07-26 22:00,ZGSZ 262200Z 02002MPS 330V090 CAVOK 28/24 Q1003 NOSIG
ZGSZ,2017-07-26 23:00,ZGSZ 262300Z 03004MPS CAVOK 28/25 Q1004 NOSIG
ZGSZ,2017-07-27 00:00,ZGSZ 270000Z 02003MPS 7000 NSC 29/26 Q1004 NOSIG
ZGSZ,2017-07-27 01:00,ZGSZ 270100Z 03003MPS 360V060 9000 FEW023 31/25 Q1005 NOSIG
ZGSZ,2017-07-27 02:00,ZGSZ 270200Z 02004MPS 340V050 9999 FEW023 31/25 Q1005 NOSIG
ZGSZ,2017-07-27 03:00,ZGSZ 270300Z 02004MPS 9999 SCT023 31/24 Q1004 NOSIG
ZGSZ,2017-07-27 04:00,ZGSZ 270400Z 01004MPS 9999 FEW023 32/24 Q1003 NOSIG
ZGSZ,2017-07-27 05:00,ZGSZ 270500Z 36002MPS 270V060 9999 FEW023 33/25 Q1003 NOSIG
ZGSZ,2017-07-27 06:00,ZGSZ 270600Z 02004MPS 320V060 9999 FEW023 33/24 Q1002 NOSIG
ZGSZ,2017-07-27 07:00,ZGSZ 270700Z 07003MPS 310V120 9999 FEW018 SCT023 FEW026TCU 33/24 Q1002 BECMG AT0740 SHRA
ZGSZ,2017-07-27 08:00,ZGSZ 270800Z 09005MPS 050V140 5000 TSRA SCT018 FEW026CB BKN026 28/26 Q1003 BECMG AT0840 -SHRA
ZGSZ,2017-07-27 09:00,ZGSZ 270900Z 08002MPS 040V110 9999 -SHRA FEW014 BKN050 28/26 Q1002 NOSIG
ZGSZ,2017-07-27 10:00,ZGSZ 271000Z 10002MPS 040V170 9999 SCT050 29/25 Q1002 NOSIG
ZGSZ,2017-07-27 11:00,ZGSZ 271100Z 04003MPS 340V060 9999 FEW023TCU SCT050 29/26 Q1003 NOSIG
ZGSZ,2017-07-27 12:00,ZGSZ 271200Z VRB01MPS 9999 FEW050 29/26 Q1003 NOSIG
ZGSZ,2017-07-27 13:00,ZGSZ 271300Z 11002MPS 080V150 9999 FEW050 29/25 Q1004 NOSIG
ZGSZ,2017-07-27 14:00,ZGSZ 271400Z VRB01MPS 9999 FEW050 29/25 Q1004 NOSIG
ZGSZ,2017-07-27 15:00,ZGSZ 271500Z 10002MPS 050V130 CAVOK 29/25 Q1004 NOSIG
ZGSZ,2017-07-27 16:00,ZGSZ 271600Z 01002MPS 340V050 CAVOK 28/25 Q1004 NOSIG
ZGSZ,2017-07-27 17:00,ZGSZ 271700Z 05002MPS CAVOK 28/25 Q1004 NOSIG
ZGSZ,2017-07-27 18:00,ZGSZ 271800Z 02002MPS 340V090 CAVOK 28/25 Q1004 NOSIG
ZGSZ,2017-07-27 19:00,ZGSZ 271900Z 04002MPS CAVOK 28/25 Q1004 NOSIG
ZGSZ,2017-07-27 20:00,ZGSZ 272000Z 36002MPS 330V030 CAVOK 28/25 Q1004 NOSIG
ZGSZ,2017-07-27 21:00,ZGSZ 272100Z 04002MPS CAVOK 28/25 Q1004 NOSIG
ZGSZ,2017-07-27 22:00,ZGSZ 272200Z 36002MPS CAVOK 27/24 Q1004 NOSIG
ZGSZ,2017-07-27 23:00,ZGSZ 272300Z 01003MPS 340V050 CAVOK 29/25 Q1005 NOSIG
ZGSZ,2017-07-28 00:00,ZGSZ 280000Z 03003MPS 340V060 CAVOK 30/24 Q1005 NOSIG
ZGSZ,2017-07-28 01:00,ZGSZ 280100Z 03004MPS 350V060 CAVOK 31/25 Q1005 NOSIG
ZGSZ,2017-07-28 02:00,ZGSZ 280200Z 03004MPS 360V080 9999 FEW020 32/25 Q1005 NOSIG
ZGSZ,2017-07-28 03:00,ZGSZ 280300Z 07003MPS 020V110 9999 FEW020 33/24 Q1005 NOSIG
ZGSZ,2017-07-28 04:00,ZGSZ 280400Z 07004MPS 360V120 9999 FEW020 34/25 Q1004 NOSIG
ZGSZ,2017-07-28 05:00,ZGSZ 280500Z 11003MPS 080V250 9999 FEW020 34/24 Q1004 NOSIG
ZGSZ,2017-07-28 06:00,ZGSZ 280600Z 26003MPS 210V320 9999 FEW020 33/25 Q1003 NOSIG
ZGSZ,2017-07-28 07:00,ZGSZ 280700Z 28004MPS 9999 SCT030 33/25 Q1002 NOSIG
ZGSZ,2017-07-28 08:00,ZGSZ 280800Z 28003MPS 9999 BKN040 33/25 Q1002 NOSIG
ZGSZ,2017-07-28 09:00,ZGSZ 280900Z 22002MPS 170V260 CAVOK 34/25 Q1001 NOSIG
ZGSZ,2017-07-28 10:00,ZGSZ 281000Z VRB01MPS CAVOK 34/24 Q1001 NOSIG
ZGSZ,2017-07-28 11:00,ZGSZ 281100Z 18002MPS CAVOK 33/26 Q1001 NOSIG
ZGSZ,2017-07-28 12:00,ZGSZ 281200Z 17004MPS 9999 FEW050 31/28 Q1002 NOSIG
ZGSZ,2017-07-28 13:00,ZGSZ 281300Z 17004MPS 8000 NSC 30/27 Q1003 NOSIG
ZGSZ,2017-07-28 14:00,ZGSZ 281400Z 18003MPS CAVOK 31/27 Q1003 NOSIG
ZGSZ,2017-07-28 15:00,ZGSZ 281500Z 13002MPS CAVOK 31/26 Q1003 NOSIG
ZGSZ,2017-07-28 16:00,ZGSZ 281600Z 12003MPS CAVOK 30/25 Q1002 NOSIG
ZGSZ,2017-07-28 17:00,ZGSZ 281700Z 16003MPS CAVOK 29/25 Q1002 NOSIG
ZGSZ,2017-07-28 18:00,ZGSZ 281800Z 11004MPS CAVOK 30/25 Q1002 NOSIG
ZGSZ,2017-07-28 19:00,ZGSZ 281900Z 12003MPS CAVOK 30/25 Q1002 NOSIG
ZGSZ,2017-07-28 20:00,ZGSZ 282000Z 15002MPS 120V180 CAVOK 29/26 Q1002 NOSIG
ZGSZ,2017-07-28 21:00,ZGSZ 282100Z VRB01MPS CAVOK 29/25 Q1002 NOSIG
ZGSZ,2017-07-28 22:00,ZGSZ 282200Z 25002MPS CAVOK 29/27 Q1002 NOSIG
ZGSZ,2017-07-28 23:00,ZGSZ 282300Z VRB01MPS CAVOK 30/26 Q1002 NOSIG
ZGSZ,2017-07-29 00:00,ZGSZ 290000Z 29002MPS CAVOK 30/27 Q1002 NOSIG
ZGSZ,2017-07-29 01:00,ZGSZ 290100Z 31002MPS 9999 BKN036 30/26 Q1002 NOSIG
ZGSZ,2017-07-29 02:00,ZGSZ 290200Z 29002MPS 260V350 9999 FEW033 31/26 Q1002 NOSIG
ZGSZ,2017-07-29 03:00,ZGSZ 290300Z 30003MPS 270V350 9999 FEW033 32/26 Q1001 NOSIG
ZGSZ,2017-07-29 04:00,ZGSZ 290400Z 25002MPS 7000 FEW030 33/27 Q1000 NOSIG
ZGSZ,2017-07-29 05:00,ZGSZ 290500Z 27002MPS 220V320 6000 FEW026 33/27 Q0999 NOSIG
ZGSZ,2017-07-29 06:00,ZGSZ 290600Z 29004MPS 5000 HZ FEW026 34/28 Q0998 NOSIG
ZGSZ,2017-07-29 07:00,ZGSZ 290700Z 29002MPS 4000 HZ FEW026TCU SCT026 35/28 Q0998 NOSIG
ZGSZ,2017-07-29 08:00,ZGSZ 290800Z 19003MPS 150V240 5000 HZ FEW026 34/28 Q0997 NOSIG
ZGSZ,2017-07-29 09:00,ZGSZ 290900Z 19006MPS 3000 R15/P2000 R16/1200V1400N BR FEW026 32/29 Q0996 NOSIG
ZGSZ,2017-07-29 10:00,ZGSZ 291000Z 17004MPS 140V200 7000 SCT026 32/28 Q0997 NOSIG
ZGSZ,2017-07-29 11:00,ZGSZ 291100Z 15002MPS 120V220 7000 SCT026 32/28 Q0997 NOSIG
ZGSZ,2017-07-29 12:00,ZGSZ 291200Z 26001MPS 9999 SCT040 32/27 Q0998 NOSIG
ZGSZ,2017-07-29 13:00,ZGSZ 291300Z VRB01MPS 6000 SCT040 31/28 Q0998 NOSIG
ZGSZ,2017-07-29 14:00,ZGSZ 291400Z 18001MPS 5000 BR SCT040 31/28 Q0998 NOSIG
ZGSZ,2017-07-29 15:00,ZGSZ 291500Z VRB01MPS 5000 BR SCT040 31/27 Q0998 NOSIG
ZGSZ,2017-07-29 16:00,ZGSZ 291600Z 30002MPS 260V010 5000 BR SCT040 31/27 Q0997 NOSIG
ZGSZ,2017-07-29 17:00,ZGSZ 291700Z 31002MPS 5000 BR SCT040 30/28 Q0997 NOSIG
ZGSZ,2017-07-29 18:00,ZGSZ 291800Z VRB01MPS 5000 BR SCT040 30/28 Q0997 NOSIG
ZGSZ,2017-07-29 19:00,ZGSZ 291900Z 28005MPS 5000 BR SCT040 31/28 Q0996 NOSIG
ZGSZ,2017-07-29 20:00,ZGSZ 292000Z 31005MPS 5000 BR SCT040 31/27 Q0996 NOSIG
ZGSZ,2017-07-29 21:00,ZGSZ 292100Z 33003MPS 5000 BR SCT040 31/27 Q0996 NOSIG
ZGSZ,2017-07-29 22:00,ZGSZ 292200Z 30005MPS 7000 SCT040 31/27 Q0996 NOSIG
ZGSZ,2017-07-29 23:00,ZGSZ 292300Z 30004MPS 7000 SCT040 31/27 Q0996 NOSIG
ZGSZ,2017-07-30 00:00,ZGSZ 300000Z 30004MPS 7000 SCT040 32/27 Q0997 NOSIG
ZGSZ,2017-07-30 01:00,ZGSZ 300100Z 30005MPS 7000 NSC 32/27 Q0997 NOSIG
ZGSZ,2017-07-30 02:00,ZGSZ 300200Z 30006MPS 7000 NSC 33/27 Q0997 NOSIG
ZGSZ,2017-07-30 03:00,ZGSZ 300300Z 30005MPS 8000 NSC 34/28 Q0997 NOSIG
ZGSZ,2017-07-30 04:00,ZGSZ 300400Z 29005MPS 8000 NSC 34/28 Q0996 NOSIG
ZGSZ,2017-07-30 05:00,ZGSZ 300500Z 30006MPS 7000 NSC 35/27 Q0996 NOSIG
ZGSZ,2017-07-30 06:00,ZGSZ 300600Z 30006MPS 8000 NSC 36/27 Q0995 NOSIG
ZGSZ,2017-07-30 07:00,ZGSZ 300700Z 30004MPS 8000 NSC 36/27 Q0994 NOSIG
ZGSZ,2017-07-30 08:00,ZGSZ 300800Z 29004MPS 9000 FEW030 36/27 Q0994 NOSIG
ZGSZ,2017-07-30 09:00,ZGSZ 300900Z 30004MPS 8000 NSC 36/26 Q0994 NOSIG
ZGSZ,2017-07-30 10:00,ZGSZ 301000Z 31003MPS 8000 NSC 35/26 Q0994 NOSIG
ZGSZ,2017-07-30 11:00,ZGSZ 301100Z 30002MPS 7000 NSC 34/27 Q0995 NOSIG
ZGSZ,2017-07-30 12:00,ZGSZ 301200Z 23003MPS 200V260 7000 NSC 33/28 Q0995 NOSIG
ZGSZ,2017-07-30 13:00,ZGSZ 301300Z 23004MPS 7000 NSC 33/28 Q0995 NOSIG
ZGSZ,2017-07-30 14:00,ZGSZ 301400Z 22004MPS 6000 NSC 32/29 Q0995 NOSIG
ZGSZ,2017-07-30 15:00,ZGSZ 301500Z 23003MPS 5000 BR NSC 32/28 Q0996 NOSIG
ZGSZ,2017-07-30 16:00,ZGSZ 301600Z 22003MPS 5000 BR NSC 31/28 Q0995 NOSIG
ZGSZ,2017-07-30 17:00,ZGSZ 301700Z 22004MPS 5000 BR NSC 31/28 Q0995 NOSIG
ZGSZ,2017-07-30 18:00,ZGSZ 301800Z 24003MPS 6000 NSC 31/28 Q0995 NOSIG
ZGSZ,2017-07-30 19:00,ZGSZ 301900Z 26006MPS 6000 NSC 31/27 Q0995 NOSIG
ZGSZ,2017-07-30 20:00,ZGSZ 302000Z 27005MPS 8000 NSC 31/27 Q0996 NOSIG
ZGSZ,2017-07-30 21:00,ZGSZ 302100Z 28004MPS 8000 NSC 30/27 Q0996 NOSIG
ZGSZ,2017-07-30 22:00,ZGSZ 302200Z 27003MPS 7000 NSC 30/27 Q0996 NOSIG
ZGSZ,2017-07-30 23:00,ZGSZ 302300Z 31003MPS 7000 NSC 30/27 Q0997 NOSIG
ZGSZ,2017-07-31 00:00,ZGSZ 310000Z 29003MPS 5000 BR NSC 31/27 Q0997 NOSIG
ZGSZ,2017-07-31 01:00,ZGSZ 310100Z 29003MPS 6000 NSC 31/26 Q0998 NOSIG
ZGSZ,2017-07-31 02:00,ZGSZ 310200Z 26003MPS 230V300 6000 NSC 32/26 Q0998 NOSIG
ZGSZ,2017-07-31 03:00,ZGSZ 310300Z 22003MPS 190V250 5000 HZ NSC 32/27 Q0998 NOSIG
ZGSZ,2017-07-31 04:00,ZGSZ 310400Z 21003MPS 180V240 5000 HZ NSC 33/27 Q0997 NOSIG
ZGSZ,2017-07-31 05:00,ZGSZ 310500Z 20004MPS 180V240 4500 HZ FEW023 33/28 Q0997 NOSIG
ZGSZ,2017-07-31 06:00,ZGSZ 310600Z 17004MPS 5000 HZ FEW023 34/28 Q0997 NOSIG
ZGSZ,2017-07-31 07:00,ZGSZ 310700Z 18005MPS 6000 FEW023 33/29 Q0996 NOSIG
ZGSZ,2017-07-31 08:00,ZGSZ 310800Z 17007MPS 9999 FEW023 32/29 Q0996 NOSIG
ZGSZ,2017-07-31 09:00,ZGSZ 310900Z 17007MPS 9000 NSC 32/29 Q0997 NOSIG
ZGSZ,2017-07-31 10:00,ZGSZ 311000Z 18007MPS 9999 FEW030 31/29 Q0997 NOSIG
ZGSZ,2017-07-31 11:00,ZGSZ 311100Z 26003MPS 220V300 9999 -SHRA FEW013 FEW026CB SCT040 30/27 Q0998 RETS BECMG AT1140 18005MPS
ZGSZ,2017-07-31 12:00,ZGSZ 311200Z 20006MPS 9999 FEW026CB BKN040 30/27 Q0999 NOSIG
ZGSZ,2017-07-31 13:00,ZGSZ 311300Z 18005MPS CAVOK 30/27 Q0999 NOSIG
ZGSZ,2017-07-31 14:00,ZGSZ 311400Z 16004MPS CAVOK 30/28 Q1000 NOSIG
ZGSZ,2017-07-31 15:00,ZGSZ 311500Z 17004MPS CAVOK 30/28 Q1000 NOSIG
ZGSZ,2017-07-31 16:00,ZGSZ 311600Z 19004MPS 9999 FEW016 30/28 Q1000 NOSIG
ZGSZ,2017-07-31 17:00,ZGSZ 311700Z 19005MPS CAVOK 30/28 Q1000 NOSIG
ZGSZ,2017-07-31 18:00,ZGSZ 311800Z 18005MPS CAVOK 30/28 Q0999 NOSIG
ZGSZ,2017-07-31 19:00,ZGSZ 311900Z 19005MPS 9999 SCT016 30/28 Q0999 NOSIG
ZGSZ,2017-07-31 20:00,ZGSZ 312000Z 18006MPS 9999 SCT016 30/28 Q0999 NOSIG
ZGSZ,2017-07-31 21:00,ZGSZ 312100Z 18006MPS 9999 BKN016 30/28 Q1000 NOSIG
ZGSZ,2017-07-31 22:00,ZGSZ 312200Z 19005MPS 9999 FEW018 30/28 Q1000 NOSIG
ZGSZ,2017-07-31 23:00,ZGSZ 312300Z 20004MPS 9999 FEW026 30/27 Q1001 NOSIG
ZGSZ,2017-08-01 00:00,ZGSZ 010000Z 20004MPS CAVOK 30/27 Q1001 NOSIG
ZGSZ,2017-08-01 01:00,ZGSZ 010100Z 18004MPS CAVOK 31/28 Q1002 NOSIG
ZGSZ,2017-08-01 02:00,ZGSZ 010200Z 20003MPS CAVOK 31/28 Q1002 NOSIG
ZGSZ,2017-08-01 03:00,ZGSZ 010300Z 18003MPS 140V200 CAVOK 32/28 Q1002 NOSIG
ZGSZ,2017-08-01 04:00,ZGSZ 010400Z 17004MPS CAVOK 32/28 Q1002 NOSIG
ZGSZ,2017-08-01 05:00,ZGSZ 010500Z 16005MPS 9999 FEW050 32/29 Q1001 NOSIG
ZGSZ,2017-08-01 06:00,ZGSZ 010600Z 16006MPS CAVOK 32/29 Q1000 NOSIG
ZGSZ,2017-08-01 07:00,ZGSZ 010700Z 16005MPS CAVOK 32/29 Q0999 NOSIG
ZGSZ,2017-08-01 08:00,ZGSZ 010800Z 17007MPS 9999 FEW017 32/29 Q0999 NOSIG
ZGSZ,2017-08-01 09:00,ZGSZ 010900Z 17009MPS 9999 FEW017 31/28 Q0999 NOSIG
ZGSZ,2017-08-01 10:00,ZGSZ 011000Z 17008MPS 9999 SHRA SCT017 FEW020CB 31/28 Q1000 BECMG AT1020 -SHRA
ZGSZ,2017-08-01 11:00,ZGSZ 011100Z 17008MPS 9999 FEW017 BKN036 31/28 Q1001 NOSIG
ZGSZ,2017-08-01 12:00,ZGSZ 011200Z 17008MPS 9999 FEW014 BKN036 30/28 Q1001 NOSIG
ZGSZ,2017-08-01 13:00,ZGSZ 011300Z 17007MPS 9999 FEW010 BKN036 31/28 Q1002 NOSIG
ZGSZ,2017-08-01 14:00,ZGSZ 011400Z 18006MPS 9999 FEW010 BKN030 30/28 Q1003 NOSIG
ZGSZ,2017-08-01 15:00,ZGSZ 011500Z 17006MPS 9999 FEW010 BKN030 30/28 Q1003 NOSIG
ZGSZ,2017-08-01 16:00,ZGSZ 011600Z 17006MPS 9999 FEW040 30/28 Q1003 NOSIG
ZGSZ,2017-08-01 17:00,ZGSZ 011700Z 18006MPS 9999 FEW010 30/28 Q1002 NOSIG
ZGSZ,2017-08-01 18:00,ZGSZ 011800Z 18006MPS 9999 FEW040 30/28 Q1002 NOSIG
ZGSZ,2017-08-01 19:00,ZGSZ 011900Z 18006MPS 9999 FEW010 30/28 Q1001 NOSIG
ZGSZ,2017-08-01 20:00,ZGSZ 012000Z 19006MPS 9999 FEW010 30/28 Q1001 NOSIG
ZGSZ,2017-08-01 21:00,ZGSZ 012100Z 19005MPS 9999 FEW020 30/28 Q1001 NOSIG
ZGSZ,2017-08-01 22:00,ZGSZ 012200Z 18005MPS 9999 FEW015 BKN053 30/28 Q1002 NOSIG
ZGSZ,2017-08-01 23:00,ZGSZ 012300Z 18005MPS 9999 FEW020 30/28 Q1002 NOSIG
ZGSZ,2017-08-02 00:00,ZGSZ 020000Z 19005MPS 9999 FEW014 SCT036 31/28 Q1002 BECMG AT0150 TSRA
ZGSZ,2017-08-02 01:00,ZGSZ 020100Z 19004MPS 9999 FEW020 31/28 Q1003 BECMG AT0230 SHRA
ZGSZ,2017-08-02 02:00,ZGSZ 020200Z 20003MPS 9999 FEW020 30/28 Q1003 BECMG AT0320 SHRA
ZGSZ,2017-08-02 03:00,ZGSZ 020300Z 17002MPS 9999 SCT016 FEW026CB BKN050 30/28 Q1004 BECMG AT0320 TSRA
ZGSZ,2017-08-02 04:00,ZGSZ 020400Z 08004MPS 050V120 9999 FEW015 BKN050 26/25 Q1004 BECMG AT0530 18005MPS
ZGSZ,2017-08-02 05:00,ZGSZ 020500Z 12003MPS 9999 -RA NSC 27/25 Q1002 BECMG AT0530 18005MPS
ZGSZ,2017-08-02 06:00,ZGSZ 020600Z 16003MPS 9999 -RA NSC 28/25 Q1001 NOSIG
ZGSZ,2017-08-02 07:00,ZGSZ 020700Z 18003MPS CAVOK 29/25 Q1000 NOSIG
ZGSZ,2017-08-02 08:00,ZGSZ 020800Z 17004MPS CAVOK 30/25 Q1000 NOSIG
ZGSZ,2017-08-02 09:00,ZGSZ 020900Z 16003MPS CAVOK 30/26 Q1000 NOSIG
ZGSZ,2017-08-02 10:00,ZGSZ 021000Z 17003MPS CAVOK 30/26 Q1000 NOSIG
ZGSZ,2017-08-02 11:00,ZGSZ 021100Z 17003MPS CAVOK 30/26 Q1000 NOSIG
ZGSZ,2017-08-02 12:00,ZGSZ 021200Z 17004MPS CAVOK 30/27 Q1001 NOSIG
ZGSZ,2017-08-02 13:00,ZGSZ 021300Z 18003MPS 9999 FEW030 30/27 Q1002 NOSIG
ZGSZ,2017-08-02 14:00,ZGSZ 021400Z 15003MPS 9999 FEW023 29/26 Q1002 NOSIG
ZGSZ,2017-08-02 15:00,ZGSZ 021500Z 19005MPS 150V220 9999 -RA SCT017 29/27 Q1003 NOSIG
ZGSZ,2017-08-02 16:00,ZGSZ 021600Z 18003MPS 9999 FEW023 28/26 Q1002 NOSIG
ZGSZ,2017-08-02 17:00,ZGSZ 021700Z 12003MPS 070V160 9999 FEW012 29/27 Q1001 NOSIG
ZGSZ,2017-08-02 18:00,ZGSZ 021800Z 17003MPS 9999 FEW012 29/28 Q1001 NOSIG
ZGSZ,2017-08-02 19:00,ZGSZ 021900Z 18003MPS 9999 FEW012 29/28 Q1000 NOSIG
ZGSZ,2017-08-02 20:00,ZGSZ 022000Z 26002MPS 220V280 9999 SCT011 29/27 Q1000 NOSIG
ZGSZ,2017-08-02 21:00,ZGSZ 022100Z 27002MPS 240V300 9999 FEW014 29/27 Q1001 NOSIG
ZGSZ,2017-08-02 22:00,ZGSZ 022200Z VRB01MPS 9999 FEW014 29/27 Q1001 NOSIG
ZGSZ,2017-08-02 23:00,ZGSZ 022300Z 15006MPS 9000 SHRA SCT015 FEW030CB BKN040 27/26 Q1002 NOSIG
ZGSZ,2017-08-03 00:00,ZGSZ 030000Z 10003MPS 9999 -SHRA FEW020 SCT050 26/25 Q1002 NOSIG
ZGSZ,2017-08-03 01:00,ZGSZ 030100Z 10003MPS 9999 -SHRA FEW040 27/25 Q1002 NOSIG
ZGSZ,2017-08-03 02:00,ZGSZ 030200Z 10003MPS 9999 -RA FEW040 27/25 Q1002 NOSIG
ZGSZ,2017-08-03 03:00,ZGSZ 030300Z 10004MPS 9999 FEW040 29/25 Q1002 NOSIG
ZGSZ,2017-08-03 04:00,ZGSZ 030400Z 11005MPS 9999 FEW026 29/26 Q1002 NOSIG
ZGSZ,2017-08-03 05:00,ZGSZ 030500Z 17003MPS 130V190 9999 FEW026 30/26 Q1001 NOSIG
ZGSZ,2017-08-03 06:00,ZGSZ 030600Z 18004MPS 9999 FEW026 30/27 Q1000 NOSIG
ZGSZ,2017-08-03 07:00,ZGSZ 030700Z 21006MPS 9999 FEW026 30/27 Q1000 BECMG AT0810 TSRA
ZGSZ,2017-08-03 08:00,ZGSZ 030800Z 22007MPS 9999 -SHRA FEW018 BKN050 28/24 Q1000 NOSIG
ZGSZ,2017-08-03 09:00,ZGSZ 030900Z 25003MPS 9999 -SHRA FEW020 28/24 Q1000 NOSIG
ZGSZ,2017-08-03 10:00,ZGSZ 031000Z VRB01MPS 9999 -RA NSC 27/24 Q1000 NOSIG
ZGSZ,2017-08-03 11:00,ZGSZ 031100Z VRB01MPS 9999 -RA NSC 27/25 Q1000 NOSIG
ZGSZ,2017-08-03 12:00,ZGSZ 031200Z VRB01MPS CAVOK 27/25 Q1001 NOSIG
ZGSZ,2017-08-03 13:00,ZGSZ 031300Z 10002MPS CAVOK 27/25 Q1002 NOSIG
ZGSZ,2017-08-03 14:00,ZGSZ 031400Z 08002MPS 040V120 9999 FEW020 28/26 Q1002 NOSIG
ZGSZ,2017-08-03 15:00,ZGSZ 031500Z VRB01MPS CAVOK 28/26 Q1002 NOSIG
ZGSZ,2017-08-03 16:00,ZGSZ 031600Z 06003MPS 040V100 CAVOK 28/26 Q1002 NOSIG
ZGSZ,2017-08-03 17:00,ZGSZ 031700Z 05003MPS 040V100 9999 -RA NSC 27/26 Q1002 NOSIG
ZGSZ,2017-08-03 18:00,ZGSZ 031800Z VRB02MPS CAVOK 27/25 Q1001 NOSIG
ZGSZ,2017-08-03 19:00,ZGSZ 031900Z VRB01MPS CAVOK 27/25 Q1001 NOSIG
ZGSZ,2017-08-03 20:00,ZGSZ 032000Z 07001MPS CAVOK 27/25 Q1001 BECMG AT2140 SHRA
ZGSZ,2017-08-03 21:00,ZGSZ 032100Z VRB01MPS 9999 SCT036 27/25 Q1001 BECMG AT2300 TSRA
ZGSZ,2017-08-03 22:00,ZGSZ 032200Z 06002MPS 9999 SCT036 27/25 Q1001 BECMG AT2300 TSRA
ZGSZ,2017-08-03 23:00,ZGSZ 032300Z 18006MPS 9999 SCT015 FEW023TCU 27/25 Q1003 NOSIG
ZGSZ,2017-08-04 00:00,ZGSZ 040000Z 13003MPS 100V160 9999 -SHRA FEW015 27/25 Q1003 NOSIG
ZGSZ,2017-08-04 01:00,ZGSZ 040100Z 13002MPS 080V200 9999 FEW018 30/26 Q1003 NOSIG
ZGSZ,2017-08-04 02:00,ZGSZ 040200Z 13003MPS 080V220 9999 FEW017 31/26 Q1003 NOSIG
ZGSZ,2017-08-04 03:00,ZGSZ 040300Z 19004MPS 9999 FEW017 31/26 Q1003 NOSIG
ZGSZ,2017-08-04 04:00,ZGSZ 040400Z 17005MPS 9999 FEW017 30/26 Q1003 NOSIG
ZGSZ,2017-08-04 05:00,ZGSZ 040500Z 18006MPS 9999 FEW017TCU FEW017 30/26 Q1003 NOSIG
ZGSZ,2017-08-04 06:00,ZGSZ 040600Z 19004MPS 9999 FEW020 30/26 Q1003 NOSIG
ZGSZ,2017-08-04 07:00,ZGSZ 040700Z 16005MPS 9999 FEW020 30/26 Q1002 NOSIG
ZGSZ,2017-08-04 08:00,ZGSZ 040800Z 18006MPS 9999 FEW020 30/26 Q1002 NOSIG
ZGSZ,2017-08-04 09:00,ZGSZ 040900Z 17004MPS 9999 FEW020 29/27 Q1001 NOSIG
ZGSZ,2017-08-04 10:00,ZGSZ 041000Z 16003MPS 9999 FEW020 29/26 Q1002 NOSIG
ZGSZ,2017-08-04 11:00,ZGSZ 041100Z 17004MPS 9999 FEW020 29/26 Q1002 NOSIG
ZGSZ,2017-08-04 12:00,ZGSZ 041200Z 16004MPS CAVOK 29/26 Q1003 NOSIG
ZGSZ,2017-08-04 13:00,ZGSZ 041300Z 17004MPS CAVOK 29/26 Q1004 NOSIG
ZGSZ,2017-08-04 14:00,ZGSZ 041400Z 15004MPS CAVOK 28/26 Q1004 NOSIG
ZGSZ,2017-08-04 15:00,ZGSZ 041500Z 15004MPS CAVOK 28/25 Q1004 NOSIG
ZGSZ,2017-08-04 16:00,ZGSZ 041600Z 15003MPS CAVOK 28/25 Q1005 NOSIG
ZGSZ,2017-08-04 17:00,ZGSZ 041700Z 11004MPS 090V150 CAVOK 28/25 Q1004 NOSIG
ZGSZ,2017-08-04 18:00,ZGSZ 041800Z 10002MPS 070V150 CAVOK 28/26 Q1004 NOSIG
ZGSZ,2017-08-04 19:00,ZGSZ 041900Z 09003MPS 060V120 CAVOK 28/25 Q1003 NOSIG
ZGSZ,2017-08-04 20:00,ZGSZ 042000Z 11003MPS CAVOK 28/25 Q1004 NOSIG
ZGSZ,2017-08-04 21:00,ZGSZ 042100Z 10002MPS CAVOK 28/25 Q1004 NOSIG
ZGSZ,2017-08-04 22:00,ZGSZ 042200Z 07002MPS 050V110 9999 FEW020 FEW030TCU 28/26 Q1004 NOSIG
ZGSZ,2017-08-04 23:00,ZGSZ 042300Z VRB01MPS 9999 SCT020 FEW030TCU 29/26 Q1005 NOSIG
ZGSZ,2017-08-05 00:00,ZGSZ 050000Z 00000MPS 9999 SCT020 FEW030TCU 28/27 Q1005 NOSIG
ZGSZ,2017-08-05 01:00,ZGSZ 050100Z 30002MPS 270V330 9999 SCT020 FEW030TCU 30/25 Q1006 NOSIG
ZGSZ,2017-08-05 02:00,ZGSZ 050200Z 26002MPS CAVOK 30/26 Q1006 NOSIG
ZGSZ,2017-08-05 03:00,ZGSZ 050300Z 18002MPS 130V230 CAVOK 32/26 Q1006 NOSIG
ZGSZ,2017-08-05 04:00,ZGSZ 050400Z 19003MPS CAVOK 32/27 Q1006 NOSIG
ZGSZ,2017-08-05 05:00,ZGSZ 050500Z 20003MPS 170V230 CAVOK 32/27 Q1005 NOSIG
ZGSZ,2017-08-05 06:00,ZGSZ 050600Z 21005MPS CAVOK 32/27 Q1005 NOSIG
ZGSZ,2017-08-05 07:00,ZGSZ 050700Z 20005MPS CAVOK 32/27 Q1004 NOSIG
ZGSZ,2017-08-05 08:00,ZGSZ 050800Z 19005MPS 9999 FEW023TCU 32/27 Q1004 NOSIG
ZGSZ,2017-08-05 09:00,ZGSZ 050900Z 18006MPS 9999 FEW023TCU 32/27 Q1004 NOSIG
ZGSZ,2017-08-05 10:00,ZGSZ 051000Z 18006MPS 9999 FEW025 FEW030TCU 31/27 Q1004 NOSIG
ZGSZ,2017-08-05 11:00,ZGSZ 051100Z 19006MPS CAVOK 31/27 Q1004 NOSIG
ZGSZ,2017-08-05 12:00,ZGSZ 051200Z 18005MPS CAVOK 30/27 Q1006 NOSIG
ZGSZ,2017-08-05 13:00,ZGSZ 051300Z 17005MPS CAVOK 30/27 Q1007 NOSIG
ZGSZ,2017-08-05 14:00,ZGSZ 051400Z 17004MPS CAVOK 30/27 Q1007 NOSIG
ZGSZ,2017-08-05 15:00,ZGSZ 051500Z 16005MPS CAVOK 30/27 Q1007 NOSIG
ZGSZ,2017-08-05 16:00,ZGSZ 051600Z 17004MPS CAVOK 30/27 Q1007 NOSIG
ZGSZ,2017-08-05 17:00,ZGSZ 051700Z 17004MPS CAVOK 30/27 Q1006 NOSIG
ZGSZ,2017-08-05 18:00,ZGSZ 051800Z 18005MPS 9999 FEW013 30/27 Q1006 NOSIG
ZGSZ,2017-08-05 19:00,ZGSZ 051900Z 19005MPS 9999 -SHRA SCT013 30/27 Q1006 NOSIG
ZGSZ,2017-08-05 20:00,ZGSZ 052000Z 24002MPS 220V280 9999 -SHRA SCT011 29/27 Q1006 NOSIG
ZGSZ,2017-08-05 21:00,ZGSZ 052100Z 24004MPS 9999 SCT017 29/27 Q1006 NOSIG
ZGSZ,2017-08-05 22:00,ZGSZ 052200Z 24002MPS 9999 FEW016 FEW020TCU 29/27 Q1006 NOSIG
ZGSZ,2017-08-05 23:00,ZGSZ 052300Z 24002MPS 190V260 9999 FEW020TCU FEW020 29/27 Q1007 NOSIG
ZGSZ,2017-08-06 00:00,ZGSZ 060000Z 24002MPS 220V290 9999 FEW020 FEW025TCU 30/27 Q1007 NOSIG
ZGSZ,2017-08-06 01:00,ZGSZ 060100Z 24002MPS 210V270 9999 FEW020 30/27 Q1007 NOSIG
ZGSZ,2017-08-06 02:00,ZGSZ 060200Z 19002MPS 160V220 9999 FEW020 31/27 Q1008 NOSIG
ZGSZ,2017-08-06 03:00,ZGSZ 060300Z 20002MPS 140V250 9999 FEW020TCU FEW020 32/28 Q1008 NOSIG
ZGSZ,2017-08-06 04:00,ZGSZ 060400Z 22002MPS 160V270 9999 FEW020TCU FEW020 32/27 Q1007 NOSIG
ZGSZ,2017-08-06 05:00,ZGSZ 060500Z 20003MPS 9999 FEW020CB FEW020 32/28 Q1007 NOSIG
ZGSZ,2017-08-06 06:00,ZGSZ 060600Z 19003MPS 9999 FEW020CB FEW020 32/27 Q1006 NOSIG
ZGSZ,2017-08-06 07:00,ZGSZ 060700Z 19005MPS 9999 FEW020 32/28 Q1005 NOSIG
ZGSZ,2017-08-06 08:00,ZGSZ 060800Z 20005MPS CAVOK 31/27 Q1004 NOSIG
ZGSZ,2017-08-06 09:00,ZGSZ 060900Z 17004MPS CAVOK 32/27 Q1004 NOSIG
ZGSZ,2017-08-06 10:00,ZGSZ 061000Z 18005MPS CAVOK 31/26 Q1004 NOSIG
ZGSZ,2017-08-06 11:00,ZGSZ 061100Z 17005MPS CAVOK 31/28 Q1004 NOSIG
ZGSZ,2017-08-06 12:00,ZGSZ 061200Z 17004MPS CAVOK 30/28 Q1005 NOSIG
ZGSZ,2017-08-06 13:00,ZGSZ 061300Z 17005MPS CAVOK 31/28 Q1005 NOSIG
ZGSZ,2017-08-06 14:00,ZGSZ 061400Z 18006MPS CAVOK 31/27 Q1006 NOSIG
ZGSZ,2017-08-06 15:00,ZGSZ 061500Z 18006MPS CAVOK 31/27 Q1007 NOSIG
ZGSZ,2017-08-06 16:00,ZGSZ 061600Z 19005MPS CAVOK 30/27 Q1007 NOSIG
ZGSZ,2017-08-06 17:00,ZGSZ 061700Z 19004MPS CAVOK 30/27 Q1006 NOSIG
ZGSZ,2017-08-06 18:00,ZGSZ 061800Z 19004MPS 9999 FEW016 30/27 Q1006 NOSIG
ZGSZ,2017-08-06 19:00,ZGSZ 061900Z 19004MPS 9999 FEW020 30/27 Q1005 NOSIG
ZGSZ,2017-08-06 20:00,ZGSZ 062000Z 20004MPS 9999 FEW020 30/27 Q1006 NOSIG
ZGSZ,2017-08-06 21:00,ZGSZ 062100Z 19004MPS CAVOK 30/27 Q1005 NOSIG
ZGSZ,2017-08-06 22:00,ZGSZ 062200Z 20003MPS 9999 FEW020 29/27 Q1006 NOSIG
ZGSZ,2017-08-06 23:00,ZGSZ 062300Z 21004MPS 180V240 9999 FEW015 30/27 Q1007 NOSIG
ZGSZ,2017-08-07 00:00,ZGSZ 070000Z 22002MPS 9999 SCT030 30/27 Q1007 NOSIG
ZGSZ,2017-08-07 01:00,ZGSZ 070100Z 20002MPS 9999 SCT030 30/27 Q1007 NOSIG
ZGSZ,2017-08-07 02:00,ZGSZ 070200Z 19002MPS 140V260 9999 FEW030 32/26 Q1007 NOSIG
ZGSZ,2017-08-07 03:00,ZGSZ 070300Z 18003MPS 9999 FEW030 32/27 Q1007 NOSIG
ZGSZ,2017-08-07 04:00,ZGSZ 070400Z 18003MPS 9999 FEW030 33/27 Q1006 NOSIG
ZGSZ,2017-08-07 05:00,ZGSZ 070500Z 17005MPS 9999 FEW030 33/28 Q1006 NOSIG
ZGSZ,2017-08-07 06:00,ZGSZ 070600Z 18007MPS 9999 FEW030 32/28 Q1005 NOSIG
ZGSZ,2017-08-07 07:00,ZGSZ 070700Z 17007MPS CAVOK 32/28 Q1005 NOSIG
ZGSZ,2017-08-07 08:00,ZGSZ 070800Z 17007MPS CAVOK 32/28 Q1004 NOSIG
ZGSZ,2017-08-07 09:00,ZGSZ 070900Z 17008MPS CAVOK 32/27 Q1004 NOSIG
ZGSZ,2017-08-07 10:00,ZGSZ 071000Z 17008MPS CAVOK 32/27 Q1004 NOSIG
ZGSZ,2017-08-07 11:00,ZGSZ 071100Z 17008MPS CAVOK 31/28 Q1004 NOSIG
ZGSZ,2017-08-07 12:00,ZGSZ 071200Z 17008MPS CAVOK 31/27 Q1005 NOSIG
ZGSZ,2017-08-07 13:00,ZGSZ 071300Z 16006MPS CAVOK 30/27 Q1006 NOSIG
ZGSZ,2017-08-07 14:00,ZGSZ 071400Z 17007MPS 9999 FEW014 30/27 Q1006 NOSIG
ZGSZ,2017-08-07 15:00,ZGSZ 071500Z 18007MPS 9999 FEW014 30/28 Q1007 NOSIG
ZGSZ,2017-08-07 16:00,ZGSZ 071600Z 19006MPS 9999 SCT012 30/28 Q1006 NOSIG
ZGSZ,2017-08-07 17:00,ZGSZ 071700Z 19005MPS 9999 FEW012 30/28 Q1006 NOSIG
ZGSZ,2017-08-07 18:00,ZGSZ 071800Z 19006MPS 9999 SCT020 30/28 Q1006 NOSIG
ZGSZ,2017-08-07 19:00,ZGSZ 071900Z 19007MPS 9999 FEW017 30/27 Q1005 NOSIG
ZGSZ,2017-08-07 20:00,ZGSZ 072000Z 20004MPS 9999 FEW020 30/27 Q1005 NOSIG
ZGSZ,2017-08-07 21:00,ZGSZ 072100Z 19004MPS CAVOK 30/27 Q1006 NOSIG
ZGSZ,2017-08-07 22:00,ZGSZ 072200Z 19004MPS 9999 FEW026 30/26 Q1006 NOSIG
ZGSZ,2017-08-07 23:00,ZGSZ 072300Z 19004MPS 9999 FEW017 SCT022 30/27 Q1007 NOSIG
ZGSZ,2017-08-08 00:00,ZGSZ 080000Z 20004MPS 9999 FEW030 30/27 Q1007 NOSIG
ZGSZ,2017-08-08 01:00,ZGSZ 080100Z 20004MPS 9999 FEW030 31/27 Q1007 NOSIG
ZGSZ,2017-08-08 02:00,ZGSZ 080200Z 21003MPS 180V240 9999 FEW030 32/27 Q1007 NOSIG
ZGSZ,2017-08-08 03:00,ZGSZ 080300Z 18004MPS 9999 FEW026 32/27 Q1007 NOSIG
ZGSZ,2017-08-08 04:00,ZGSZ 080400Z 17006MPS 9999 FEW026 33/28 Q1007 NOSIG
ZGSZ,2017-08-08 05:00,ZGSZ 080500Z 17008MPS 9999 FEW026 33/28 Q1006 NOSIG
ZGSZ,2017-08-08 06:00,ZGSZ 080600Z 17008MPS 9999 SCT026 32/28 Q1006 NOSIG
ZGSZ,2017-08-08 07:00,ZGSZ 080700Z 17009MPS 9999 SCT026 32/28 Q1006 NOSIG
ZGSZ,2017-08-08 08:00,ZGSZ 080800Z 16010MPS 9999 SCT026 32/27 Q1005 NOSIG
ZGSZ,2017-08-08 09:00,ZGSZ 080900Z 17009MPS 9999 FEW026 32/28 Q1005 NOSIG
ZGSZ,2017-08-08 10:00,ZGSZ 081000Z 17009MPS 9999 FEW026 31/28 Q1005 NOSIG
ZGSZ,2017-08-08 11:00,ZGSZ 081100Z 17008MPS 9999 FEW020 31/27 Q1005 NOSIG
ZGSZ,2017-08-08 12:00,ZGSZ 081200Z 17009MPS 9999 FEW020 30/27 Q1005 NOSIG
ZGSZ,2017-08-08 13:00,ZGSZ 081300Z 18008MPS 9999 FEW020 30/27 Q1006 NOSIG
ZGSZ,2017-08-08 14:00,ZGSZ 081400Z 18007MPS CAVOK 30/27 Q1006 NOSIG
ZGSZ,2017-08-08 15:00,ZGSZ 081500Z 18007MPS 9999 SCT020 30/27 Q1006 NOSIG
ZGSZ,2017-08-08 16:00,ZGSZ 081600Z 18007MPS 9999 FEW020 30/27 Q1006 NOSIG
ZGSZ,2017-08-08 17:00,ZGSZ 081700Z 20005MPS 9999 FEW020 30/26 Q1006 NOSIG
ZGSZ,2017-08-08 18:00,ZGSZ 081800Z 21005MPS CAVOK 30/26 Q1006 NOSIG
ZGSZ,2017-08-08 19:00,ZGSZ 081900Z 21005MPS 9999 SCT043 30/27 Q1006 NOSIG
ZGSZ,2017-08-08 20:00,ZGSZ 082000Z 20005MPS 9999 FEW023 30/26 Q1005 NOSIG
ZGSZ,2017-08-08 21:00,ZGSZ 082100Z 19004MPS 9999 FEW023 30/26 Q1005 NOSIG
ZGSZ,2017-08-08 22:00,ZGSZ 082200Z 19005MPS 9999 SCT017 30/27 Q1005 NOSIG
ZGSZ,2017-08-08 23:00,ZGSZ 082300Z 18006MPS 9999 FEW020 30/27 Q1006 NOSIG
ZGSZ,2017-08-09 00:00,ZGSZ 090000Z 19004MPS 9999 FEW014 30/27 Q1006 NOSIG
ZGSZ,2017-08-09 01:00,ZGSZ 090100Z 20004MPS 170V240 9999 FEW017 FEW020TCU 30/27 Q1006 NOSIG
ZGSZ,2017-08-09 02:00,ZGSZ 090200Z 18006MPS 9999 SCT012 FEW020CB BKN030 31/28 Q1006 NOSIG
ZGSZ,2017-08-09 03:00,ZGSZ 090300Z 18007MPS 9999 FEW015 BKN046 31/28 Q1006 BECMG AT0340 -TSRA
ZGSZ,2017-08-09 04:00,ZGSZ 090400Z 17007MPS 9000 SHRA SCT015 FEW020CB BKN046 28/26 Q1007 RETS BECMG AT0540 NSW
ZGSZ,2017-08-09 05:00,ZGSZ 090500Z 20004MPS 9999 FEW025 SCT040 29/27 Q1006 NOSIG
ZGSZ,2017-08-09 06:00,ZGSZ 090600Z 17003MPS CAVOK 29/26 Q1005 NOSIG
ZGSZ,2017-08-09 07:00,ZGSZ 090700Z 17006MPS CAVOK 30/27 Q1005 NOSIG
ZGSZ,2017-08-09 08:00,ZGSZ 090800Z 17006MPS CAVOK 31/28 Q1004 NOSIG
ZGSZ,2017-08-09 09:00,ZGSZ 090900Z 17006MPS 9999 BKN029 31/28 Q1004 NOSIG
ZGSZ,2017-08-09 10:00,ZGSZ 091000Z 18007MPS 9999 SCT029 31/27 Q1004 NOSIG
ZGSZ,2017-08-09 11:00,ZGSZ 091100Z 18008MPS 9999 SCT029 31/28 Q1004 NOSIG
ZGSZ,2017-08-09 12:00,ZGSZ 091200Z 18008MPS 9999 SCT029 30/27 Q1005 NOSIG
ZGSZ,2017-08-09 13:00,ZGSZ 091300Z 18007MPS 9999 BKN019 30/28 Q1005 NOSIG
ZGSZ,2017-08-09 14:00,ZGSZ 091400Z 20006MPS 9999 BKN019 30/27 Q1006 NOSIG
ZGSZ,2017-08-09 15:00,ZGSZ 091500Z 18007MPS 9999 SCT020 30/27 Q1006 NOSIG
ZGSZ,2017-08-09 16:00,ZGSZ 091600Z 19006MPS 9999 SCT020 30/27 Q1006 NOSIG
ZGSZ,2017-08-09 17:00,ZGSZ 091700Z 20005MPS 9999 SCT020 30/27 Q1006 NOSIG
ZGSZ,2017-08-09 18:00,ZGSZ 091800Z 18005MPS 9999 SCT020 30/28 Q1005 NOSIG
ZGSZ,2017-08-09 19:00,ZGSZ 091900Z 18007MPS 9999 SCT020 30/28 Q1005 NOSIG
ZGSZ,2017-08-09 20:00,ZGSZ 092000Z 18006MPS 9999 BKN020 30/28 Q1005 NOSIG
ZGSZ,2017-08-09 21:00,ZGSZ 092100Z 17006MPS 9999 BKN020 30/28 Q1005 NOSIG
ZGSZ,2017-08-09 22:00,ZGSZ 092200Z 18005MPS 9999 SCT012 BKN030 30/28 Q1005 NOSIG
ZGSZ,2017-08-09 23:00,ZGSZ 092300Z 18006MPS 9999 BKN012 BKN053 30/28 Q1006 BECMG TL2340 SCT012
ZGSZ,2017-08-10 00:00,ZGSZ 100000Z 18005MPS 9999 -SHRA BKN014 BKN053 30/28 Q1006 BECMG TL0040 SCT012
ZGSZ,2017-08-10 01:00,ZGSZ 100100Z 20005MPS 9999 SCT014 BKN040 30/27 Q1006 BECMG AT0205 2000 TSRA
ZGSZ,2017-08-10 02:00,ZGSZ 100200Z 18008MPS 4000 TSRA SCT012 FEW020CB BKN030 29/28 Q1007 BECMG AT0250 -SHRA
ZGSZ,2017-08-10 03:00,ZGSZ 100300Z 21005MPS 9999 FEW015 SCT050 28/24 Q1007 NOSIG
ZGSZ,2017-08-10 04:00,ZGSZ 100400Z 17003MPS 9999 FEW015 SCT040 28/26 Q1007 NOSIG
ZGSZ,2017-08-10 05:00,ZGSZ 100500Z 17006MPS 9999 FEW015 SCT053 30/27 Q1006 NOSIG
ZGSZ,2017-08-10 06:00,ZGSZ 100600Z 17005MPS 9999 SCT053 30/27 Q1006 NOSIG
ZGSZ,2017-08-10 07:00,ZGSZ 100700Z 16005MPS 9999 FEW053 30/27 Q1005 NOSIG
ZGSZ,2017-08-10 08:00,ZGSZ 100800Z 17006MPS 9999 FEW053 31/28 Q1004 NOSIG
ZGSZ,2017-08-10 09:00,ZGSZ 100900Z 17007MPS CAVOK 30/28 Q1004 NOSIG
ZGSZ,2017-08-10 10:00,ZGSZ 101000Z 18006MPS CAVOK 30/28 Q1004 NOSIG
ZGSZ,2017-08-10 11:00,ZGSZ 101100Z 17006MPS CAVOK 30/28 Q1005 NOSIG
ZGSZ,2017-08-10 12:00,ZGSZ 101200Z 18007MPS CAVOK 30/28 Q1005 NOSIG
ZGSZ,2017-08-10 13:00,ZGSZ 101300Z 18007MPS CAVOK 30/28 Q1005 NOSIG
ZGSZ,2017-08-10 14:00,ZGSZ 101400Z 19006MPS 9999 SCT015 30/28 Q1007 NOSIG
ZGSZ,2017-08-10 15:00,ZGSZ 101500Z 18006MPS 9999 FEW020 30/28 Q1007 NOSIG
ZGSZ,2017-08-10 16:00,ZGSZ 101600Z 17005MPS 9999 FEW020 30/28 Q1007 NOSIG
ZGSZ,2017-08-10 17:00,ZGSZ 101700Z 17006MPS 9999 FEW011 30/28 Q1007 NOSIG
ZGSZ,2017-08-10 18:00,ZGSZ 101800Z 18006MPS 9999 FEW020 30/28 Q1007 NOSIG
ZGSZ,2017-08-10 19:00,ZGSZ 101900Z 18006MPS 9999 FEW020 BKN046 30/27 Q1007 NOSIG
ZGSZ,2017-08-10 20:00,ZGSZ 102000Z 18007MPS 9999 FEW015 29/28 Q1007 NOSIG
ZGSZ,2017-08-10 21:00,ZGSZ 102100Z 17006MPS 9999 FEW018 29/27 Q1007 NOSIG
ZGSZ,2017-08-10 22:00,ZGSZ 102200Z 17006MPS 9999 SCT013 29/27 Q1007 NOSIG
ZGSZ,2017-08-10 23:00,ZGSZ 102300Z 17006MPS 9999 SCT020 30/28 Q1007 NOSIG
ZGSZ,2017-08-11 00:00,ZGSZ 110000Z 17006MPS 9999 SCT020 30/27 Q1008 NOSIG
ZGSZ,2017-08-11 01:00,ZGSZ 110100Z 17006MPS 9999 SCT020 31/28 Q1008 NOSIG
ZGSZ,2017-08-11 02:00,ZGSZ 110200Z 17006MPS 9999 SCT027 31/28 Q1008 NOSIG
ZGSZ,2017-08-11 03:00,ZGSZ 110300Z 17007MPS 9999 FEW027 31/27 Q1008 BECMG AT0410 TSRA
ZGSZ,2017-08-11 04:00,ZGSZ 110400Z 17008MPS 9999 FEW025CB SCT025 32/27 Q1007 BECMG AT0450 2000 TSRA
ZGSZ,2017-08-11 05:00,ZGSZ 110500Z 28004MPS 230V310 5000 TSRA FEW010 FEW020CB SCT030 26/24 Q1008 BECMG FM0540 17006MPS NSW
ZGSZ,2017-08-11 06:00,ZGSZ 110600Z 17005MPS 5000 -TSRA FEW015 FEW023CB BKN046 29/27 Q1007 RESHRA BECMG AT0610 NSW
ZGSZ,2017-08-11 07:00,ZGSZ 110700Z 18007MPS 9999 SCT020 31/28 Q1006 NOSIG
ZGSZ,2017-08-11 08:00,ZGSZ 110800Z 17007MPS 9999 FEW020 SCT040 31/28 Q1005 NOSIG
ZGSZ,2017-08-11 09:00,ZGSZ 110900Z 17008MPS 9999 FEW023 30/28 Q1005 NOSIG
ZGSZ,2017-08-11 10:00,ZGSZ 111000Z 17007MPS 9999 FEW020 30/28 Q1005 NOSIG
ZGSZ,2017-08-11 11:00,ZGSZ 111100Z 18007MPS 9999 FEW020 30/27 Q1006 NOSIG
ZGSZ,2017-08-11 12:00,ZGSZ 111200Z 18007MPS 9999 FEW020 30/27 Q1007 NOSIG
ZGSZ,2017-08-11 13:00,ZGSZ 111300Z 17006MPS 9999 SCT020 30/27 Q1007 NOSIG
ZGSZ,2017-08-11 14:00,ZGSZ 111400Z 17006MPS 9999 FEW020 30/28 Q1008 NOSIG
ZGSZ,2017-08-11 15:00,ZGSZ 111500Z 17006MPS 9999 SCT016 30/28 Q1008 NOSIG
ZGSZ,2017-08-11 16:00,ZGSZ 111600Z 17007MPS 9999 FEW016 30/27 Q1008 NOSIG
ZGSZ,2017-08-11 17:00,ZGSZ 111700Z 17007MPS 9999 FEW016 30/27 Q1008 NOSIG
ZGSZ,2017-08-11 18:00,ZGSZ 111800Z 17007MPS 9999 FEW016 30/27 Q1008 NOSIG
ZGSZ,2017-08-11 19:00,ZGSZ 111900Z 18008MPS 9999 FEW016 SCT050 30/27 Q1008 NOSIG
ZGSZ,2017-08-11 20:00,ZGSZ 112000Z 19007MPS 9999 BKN017 30/27 Q1008 NOSIG
ZGSZ,2017-08-11 21:00,ZGSZ 112100Z 18007MPS 9999 SCT017 29/27 Q1008 NOSIG
ZGSZ,2017-08-11 22:00,ZGSZ 112200Z 18006MPS 9999 SCT017 29/27 Q1008 NOSIG
ZGSZ,2017-08-11 23:00,ZGSZ 112300Z 18006MPS 9999 SCT015 FEW020CB 29/27 Q1009 NOSIG
ZGSZ,2017-08-12 00:00,ZGSZ 120000Z 19005MPS 9999 FEW020 FEW021TCU 30/27 Q1008 NOSIG
ZGSZ,2017-08-12 01:00,ZGSZ 120100Z 20005MPS 9999 FEW018 30/26 Q1009 NOSIG
ZGSZ,2017-08-12 02:00,ZGSZ 120200Z 19005MPS 9999 FEW018 31/27 Q1009 NOSIG
ZGSZ,2017-08-12 03:00,ZGSZ 120300Z 17007MPS 9999 FEW018 31/28 Q1009 NOSIG
ZGSZ,2017-08-12 04:00,ZGSZ 120400Z 17008MPS 9999 FEW018 31/27 Q1009 NOSIG
ZGSZ,2017-08-12 05:00,ZGSZ 120500Z 17008MPS 9999 FEW018 32/27 Q1009 NOSIG
ZGSZ,2017-08-12 06:00,ZGSZ 120600Z 17008MPS 9999 FEW018 32/27 Q1008 NOSIG
ZGSZ,2017-08-12 07:00,ZGSZ 120700Z 17008MPS 9999 FEW018 32/27 Q1007 NOSIG
ZGSZ,2017-08-12 08:00,ZGSZ 120800Z 17008MPS 9999 FEW018 31/27 Q1007 NOSIG
ZGSZ,2017-08-12 09:00,ZGSZ 120900Z 17008MPS CAVOK 31/27 Q1007 NOSIG
ZGSZ,2017-08-12 10:00,ZGSZ 121000Z 17007MPS CAVOK 31/27 Q1007 NOSIG
ZGSZ,2017-08-12 11:00,ZGSZ 121100Z 17007MPS 9999 FEW020 30/27 Q1007 NOSIG
ZGSZ,2017-08-12 12:00,ZGSZ 121200Z 18007MPS 9999 FEW020 30/27 Q1007 NOSIG
ZGSZ,2017-08-12 13:00,ZGSZ 121300Z 16008MPS 9999 FEW020 30/27 Q1008 NOSIG
ZGSZ,2017-08-12 14:00,ZGSZ 121400Z 17007MPS 9999 FEW020 30/27 Q1008 NOSIG
ZGSZ,2017-08-12 15:00,ZGSZ 121500Z 17007MPS 9999 FEW020 30/27 Q1009 NOSIG
ZGSZ,2017-08-12 16:00,ZGSZ 121600Z 17006MPS 9999 FEW020 30/27 Q1009 NOSIG
ZGSZ,2017-08-12 17:00,ZGSZ 121700Z 17007MPS 9999 FEW020 30/27 Q1009 NOSIG
ZGSZ,2017-08-12 18:00,ZGSZ 121800Z 18007MPS 9999 FEW020 30/27 Q1009 NOSIG
ZGSZ,2017-08-12 19:00,ZGSZ 121900Z 18006MPS 9999 FEW020 30/27 Q1008 NOSIG
ZGSZ,2017-08-12 20:00,ZGSZ 122000Z 19006MPS 9999 FEW017 SCT033 29/27 Q1008 NOSIG
ZGSZ,2017-08-12 21:00,ZGSZ 122100Z 18008MPS CAVOK 29/27 Q1008 NOSIG
ZGSZ,2017-08-12 22:00,ZGSZ 122200Z 18007MPS 9999 FEW020 29/26 Q1008 NOSIG
ZGSZ,2017-08-12 23:00,ZGSZ 122300Z 19006MPS 9999 FEW020 29/26 Q1008 NOSIG
ZGSZ,2017-08-13 00:00,ZGSZ 130000Z 20006MPS 9999 FEW020 FEW023TCU SCT040 30/26 Q1009 NOSIG
ZGSZ,2017-08-13 01:00,ZGSZ 130100Z 20005MPS 9999 FEW020 FEW023TCU SCT040 30/26 Q1009 NOSIG
ZGSZ,2017-08-13 02:00,ZGSZ 130200Z 18006MPS 9999 FEW020 31/27 Q1009 NOSIG
ZGSZ,2017-08-13 03:00,ZGSZ 130300Z 17006MPS 9999 FEW020 31/27 Q1009 NOSIG
ZGSZ,2017-08-13 04:00,ZGSZ 130400Z 17007MPS 9999 FEW020 31/26 Q1010 NOSIG
ZGSZ,2017-08-13 05:00,ZGSZ 130500Z 17007MPS CAVOK 32/27 Q1009 NOSIG
ZGSZ,2017-08-13 06:00,ZGSZ 130600Z 17008MPS CAVOK 31/27 Q1009 NOSIG
ZGSZ,2017-08-13 07:00,ZGSZ 130700Z 17008MPS CAVOK 31/27 Q1008 NOSIG
ZGSZ,2017-08-13 08:00,ZGSZ 130800Z 17008MPS CAVOK 31/27 Q1007 NOSIG
ZGSZ,2017-08-13 09:00,ZGSZ 130900Z 17008MPS CAVOK 31/26 Q1007 NOSIG
ZGSZ,2017-08-13 10:00,ZGSZ 131000Z 17008MPS CAVOK 30/27 Q1007 NOSIG
ZGSZ,2017-08-13 11:00,ZGSZ 131100Z 17007MPS CAVOK 30/27 Q1007 NOSIG
ZGSZ,2017-08-13 12:00,ZGSZ 131200Z 17007MPS CAVOK 30/26 Q1008 NOSIG
ZGSZ,2017-08-13 13:00,ZGSZ 131300Z 17007MPS 9999 FEW019 30/26 Q1008 NOSIG
ZGSZ,2017-08-13 14:00,ZGSZ 131400Z 17006MPS 9999 SCT017 30/27 Q1009 NOSIG
ZGSZ,2017-08-13 15:00,ZGSZ 131500Z 18006MPS 9999 SCT017 30/27 Q1009 NOSIG
ZGSZ,2017-08-13 16:00,ZGSZ 131600Z 19006MPS 9999 SCT019 30/27 Q1009 NOSIG
ZGSZ,2017-08-13 17:00,ZGSZ 131700Z 18007MPS 9999 SCT022 30/27 Q1009 NOSIG
ZGSZ,2017-08-13 18:00,ZGSZ 131800Z 17007MPS 9999 FEW022 29/27 Q1008 NOSIG
ZGSZ,2017-08-13 19:00,ZGSZ 131900Z 18008MPS 9999 FEW019 29/27 Q1008 NOSIG
ZGSZ,2017-08-13 20:00,ZGSZ 132000Z 18008MPS 9999 BKN015 30/26 Q1008 NOSIG
ZGSZ,2017-08-13 21:00,ZGSZ 132100Z 19006MPS 9999 SCT016 29/27 Q1008 NOSIG
ZGSZ,2017-08-13 22:00,ZGSZ 132200Z 19005MPS 9999 SCT015 29/27 Q1008 NOSIG
ZGSZ,2017-08-13 23:00,ZGSZ 132300Z 20005MPS 9999 BKN017 30/26 Q1009 NOSIG
ZGSZ,2017-08-14 00:00,ZGSZ 140000Z 20004MPS 9999 FEW017 30/27 Q1009 NOSIG
ZGSZ,2017-08-14 01:00,ZGSZ 140100Z 19004MPS 9999 SCT020 31/27 Q1009 NOSIG
ZGSZ,2017-08-14 02:00,ZGSZ 140200Z 18005MPS 9999 SCT026 31/27 Q1009 NOSIG
ZGSZ,2017-08-14 03:00,ZGSZ 140300Z 18006MPS 9999 FEW026 31/27 Q1009 NOSIG
ZGSZ,2017-08-14 04:00,ZGSZ 140400Z 17008MPS 9999 FEW026 32/28 Q1009 NOSIG
ZGSZ,2017-08-14 05:00,ZGSZ 140500Z 18008MPS CAVOK 31/27 Q1008 NOSIG
ZGSZ,2017-08-14 06:00,ZGSZ 140600Z 17008MPS CAVOK 31/27 Q1008 NOSIG
ZGSZ,2017-08-14 07:00,ZGSZ 140700Z 17008MPS CAVOK 32/27 Q1007 NOSIG
ZGSZ,2017-08-14 08:00,ZGSZ 140800Z 17009MPS CAVOK 31/26 Q1007 NOSIG
ZGSZ,2017-08-14 09:00,ZGSZ 140900Z 17008MPS CAVOK 31/27 Q1007 NOSIG
ZGSZ,2017-08-14 10:00,ZGSZ 141000Z 17008MPS CAVOK 30/26 Q1007 NOSIG
ZGSZ,2017-08-14 11:00,ZGSZ 141100Z 16008MPS CAVOK 30/26 Q1007 NOSIG
ZGSZ,2017-08-14 12:00,ZGSZ 141200Z 17007MPS CAVOK 30/26 Q1007 NOSIG
ZGSZ,2017-08-14 13:00,ZGSZ 141300Z 17007MPS CAVOK 30/26 Q1008 NOSIG
ZGSZ,2017-08-14 14:00,ZGSZ 141400Z 18007MPS 9999 FEW020 30/26 Q1008 NOSIG
ZGSZ,2017-08-14 15:00,ZGSZ 141500Z 18007MPS 9999 FEW020 30/26 Q1008 NOSIG
ZGSZ,2017-08-14 16:00,ZGSZ 141600Z 19007MPS 9999 FEW020 30/26 Q1008 NOSIG
ZGSZ,2017-08-14 17:00,ZGSZ 141700Z 19007MPS 9999 FEW020 30/26 Q1008 NOSIG
ZGSZ,2017-08-14 18:00,ZGSZ 141800Z 21005MPS 180V240 9999 FEW020 29/26 Q1008 NOSIG
ZGSZ,2017-08-14 19:00,ZGSZ 141900Z 21004MPS 9999 FEW020 29/25 Q1008 NOSIG
ZGSZ,2017-08-14 20:00,ZGSZ 142000Z 20003MPS CAVOK 29/25 Q1008 NOSIG
ZGSZ,2017-08-14 21:00,ZGSZ 142100Z 22004MPS 180V250 CAVOK 29/25 Q1008 NOSIG
ZGSZ,2017-08-14 22:00,ZGSZ 142200Z 19003MPS CAVOK 29/25 Q1008 NOSIG
ZGSZ,2017-08-14 23:00,ZGSZ 142300Z 19004MPS CAVOK 29/25 Q1009 NOSIG
ZGSZ,2017-08-15 00:00,ZGSZ 150000Z 19004MPS CAVOK 30/26 Q1009 NOSIG
ZGSZ,2017-08-15 01:00,ZGSZ 150100Z 18004MPS 9999 SCT020 30/26 Q1009 NOSIG
ZGSZ,2017-08-15 02:00,ZGSZ 150200Z 18005MPS 9999 SCT020 31/26 Q1010 NOSIG
ZGSZ,2017-08-15 03:00,ZGSZ 150300Z 17006MPS 9999 FEW020 31/26 Q1009 NOSIG
ZGSZ,2017-08-15 04:00,ZGSZ 150400Z 17006MPS 9999 FEW020 31/27 Q1009 NOSIG
ZGSZ,2017-08-15 05:00,ZGSZ 150500Z 17006MPS 9999 FEW020 32/26 Q1008 NOSIG
ZGSZ,2017-08-15 06:00,ZGSZ 150600Z 17006MPS 9999 FEW020 32/26 Q1007 NOSIG
ZGSZ,2017-08-15 07:00,ZGSZ 150700Z 17006MPS CAVOK 32/26 Q1007 NOSIG
ZGSZ,2017-08-15 08:00,ZGSZ 150800Z 17007MPS CAVOK 31/26 Q1006 NOSIG
ZGSZ,2017-08-15 09:00,ZGSZ 150900Z 17007MPS CAVOK 31/26 Q1006 NOSIG
ZGSZ,2017-08-15 10:00,ZGSZ 151000Z 17007MPS CAVOK 30/26 Q1007 NOSIG
ZGSZ,2017-08-15 11:00,ZGSZ 151100Z 17007MPS CAVOK 30/26 Q1007 NOSIG
ZGSZ,2017-08-15 12:00,ZGSZ 151200Z 18007MPS CAVOK 30/26 Q1007 NOSIG
ZGSZ,2017-08-15 13:00,ZGSZ 151300Z 17006MPS CAVOK 30/26 Q1007 NOSIG
ZGSZ,2017-08-15 14:00,ZGSZ 151400Z 16006MPS 9999 FEW020 30/26 Q1007 NOSIG
ZGSZ,2017-08-15 15:00,ZGSZ 151500Z 17005MPS 9999 FEW019 30/27 Q1008 NOSIG
ZGSZ,2017-08-15 16:00,ZGSZ 151600Z 18005MPS 9999 SCT018 30/27 Q1008 NOSIG
ZGSZ,2017-08-15 17:00,ZGSZ 151700Z 19005MPS 9999 SCT018 30/26 Q1008 NOSIG
ZGSZ,2017-08-15 18:00,ZGSZ 151800Z 22004MPS 9999 SCT018 29/26 Q1008 NOSIG
ZGSZ,2017-08-15 19:00,ZGSZ 151900Z 21004MPS CAVOK 29/26 Q1007 NOSIG
ZGSZ,2017-08-15 20:00,ZGSZ 152000Z 21004MPS 9999 FEW015 29/26 Q1007 NOSIG
ZGSZ,2017-08-15 21:00,ZGSZ 152100Z 22003MPS 9999 FEW015 29/25 Q1008 NOSIG
ZGSZ,2017-08-15 22:00,ZGSZ 152200Z 22002MPS 190V260 9999 FEW020 FEW030TCU 29/26 Q1008 NOSIG
ZGSZ,2017-08-15 23:00,ZGSZ 152300Z 23002MPS 9999 FEW020 FEW030TCU 29/25 Q1008 NOSIG
ZGSZ,2017-08-16 00:00,ZGSZ 160000Z 24002MPS 9999 FEW025 FEW030TCU 30/25 Q1009 NOSIG
ZGSZ,2017-08-16 01:00,ZGSZ 160100Z 26002MPS 230V290 9999 FEW020 FEW030TCU 30/25 Q1009 NOSIG
ZGSZ,2017-08-16 02:00,ZGSZ 160200Z 24002MPS 220V280 9999 FEW026 FEW030TCU 31/26 Q1010 NOSIG
ZGSZ,2017-08-16 03:00,ZGSZ 160300Z 18002MPS 140V220 9999 FEW026 FEW030TCU 31/26 Q1009 BECMG AT0415 SHRA
ZGSZ,2017-08-16 04:00,ZGSZ 160400Z 19003MPS 9999 FEW026 FEW030CB 32/26 Q1009 BECMG AT0430 TSRA
ZGSZ,2017-08-16 05:00,ZGSZ 160500Z 24005MPS 9999 FEW030CB FEW033 29/26 Q1008 NOSIG
ZGSZ,2017-08-16 06:00,ZGSZ 160600Z 20003MPS 9999 FEW046 31/26 Q1008 NOSIG
ZGSZ,2017-08-16 07:00,ZGSZ 160700Z 19004MPS CAVOK 31/24 Q1007 NOSIG
ZGSZ,2017-08-16 08:00,ZGSZ 160800Z 17005MPS CAVOK 30/25 Q1007 NOSIG
ZGSZ,2017-08-16 09:00,ZGSZ 160900Z 17006MPS 9999 FEW023 30/26 Q1006 NOSIG
ZGSZ,2017-08-16 10:00,ZGSZ 161000Z 18005MPS CAVOK 30/26 Q1006 NOSIG
ZGSZ,2017-08-16 11:00,ZGSZ 161100Z 18005MPS CAVOK 30/26 Q1007 NOSIG
ZGSZ,2017-08-16 12:00,ZGSZ 161200Z 17005MPS CAVOK 30/26 Q1007 NOSIG
ZGSZ,2017-08-16 13:00,ZGSZ 161300Z 18004MPS CAVOK 30/25 Q1008 NOSIG
ZGSZ,2017-08-16 14:00,ZGSZ 161400Z 16004MPS CAVOK 30/26 Q1009 NOSIG
ZGSZ,2017-08-16 15:00,ZGSZ 161500Z 17004MPS 9999 FEW020 30/26 Q1008 NOSIG
ZGSZ,2017-08-16 16:00,ZGSZ 161600Z 17004MPS 9999 FEW020 29/26 Q1008 NOSIG
ZGSZ,2017-08-16 17:00,ZGSZ 161700Z 18004MPS CAVOK 29/26 Q1008 NOSIG
ZGSZ,2017-08-16 18:00,ZGSZ 161800Z 19004MPS 9999 SCT020 29/27 Q1008 NOSIG
ZGSZ,2017-08-16 19:00,ZGSZ 161900Z 18005MPS 9999 SCT020 29/26 Q1008 NOSIG
ZGSZ,2017-08-16 20:00,ZGSZ 162000Z 18005MPS 9999 SCT020 29/27 Q1008 NOSIG
ZGSZ,2017-08-16 21:00,ZGSZ 162100Z 23003MPS 200V260 9999 SCT016 29/26 Q1008 NOSIG
ZGSZ,2017-08-16 22:00,ZGSZ 162200Z 23002MPS 9999 SCT016 29/26 Q1008 NOSIG
ZGSZ,2017-08-16 23:00,ZGSZ 162300Z 24002MPS 9999 FEW020 29/26 Q1009 NOSIG
ZGSZ,2017-08-17 00:00,ZGSZ 170000Z 23002MPS 180V290 9999 FEW020 30/25 Q1009 NOSIG
ZGSZ,2017-08-17 01:00,ZGSZ 170100Z 26002MPS CAVOK 30/25 Q1010 NOSIG
ZGSZ,2017-08-17 02:00,ZGSZ 170200Z 22002MPS 180V260 9999 FEW020 31/26 Q1010 NOSIG
ZGSZ,2017-08-17 03:00,ZGSZ 170300Z 18002MPS 150V220 9999 FEW020 31/25 Q1010 NOSIG
ZGSZ,2017-08-17 04:00,ZGSZ 170400Z VRB01MPS 9999 FEW020 32/25 Q1010 NOSIG
ZGSZ,2017-08-17 05:00,ZGSZ 170500Z 19003MPS 150V210 9999 FEW020 32/25 Q1009 NOSIG
ZGSZ,2017-08-17 06:00,ZGSZ 170600Z 21003MPS CAVOK 31/25 Q1008 NOSIG
ZGSZ,2017-08-17 07:00,ZGSZ 170700Z 19004MPS CAVOK 31/26 Q1008 NOSIG
ZGSZ,2017-08-17 08:00,ZGSZ 170800Z 19005MPS CAVOK 31/26 Q1007 NOSIG
ZGSZ,2017-08-17 09:00,ZGSZ 170900Z 19005MPS CAVOK 31/26 Q1007 NOSIG
ZGSZ,2017-08-17 10:00,ZGSZ 171000Z 19005MPS CAVOK 31/27 Q1008 NOSIG
ZGSZ,2017-08-17 11:00,ZGSZ 171100Z 18005MPS CAVOK 30/27 Q1008 NOSIG
ZGSZ,2017-08-17 12:00,ZGSZ 171200Z 18005MPS CAVOK 30/26 Q1009 NOSIG
ZGSZ,2017-08-17 13:00,ZGSZ 171300Z 18005MPS CAVOK 30/26 Q1010 NOSIG
ZGSZ,2017-08-17 14:00,ZGSZ 171400Z 17005MPS CAVOK 30/26 Q1010 NOSIG
ZGSZ,2017-08-17 15:00,ZGSZ 171500Z 17004MPS CAVOK 30/26 Q1010 NOSIG
ZGSZ,2017-08-17 16:00,ZGSZ 171600Z 17004MPS CAVOK 30/26 Q1010 NOSIG
ZGSZ,2017-08-17 17:00,ZGSZ 171700Z 16004MPS CAVOK 29/26 Q1010 NOSIG
ZGSZ,2017-08-17 18:00,ZGSZ 171800Z 16003MPS CAVOK 29/26 Q1009 NOSIG
ZGSZ,2017-08-17 19:00,ZGSZ 171900Z 19003MPS 9999 FEW016 29/26 Q1009 NOSIG
ZGSZ,2017-08-17 20:00,ZGSZ 172000Z 14002MPS CAVOK 28/25 Q1009 NOSIG
ZGSZ,2017-08-17 21:00,ZGSZ 172100Z 08001MPS CAVOK 29/25 Q1010 NOSIG
ZGSZ,2017-08-17 22:00,ZGSZ 172200Z 08001MPS CAVOK 29/25 Q1010 NOSIG
ZGSZ,2017-08-17 23:00,ZGSZ 172300Z 00000MPS CAVOK 30/26 Q1011 NOSIG
ZGSZ,2017-08-18 00:00,ZGSZ 180000Z VRB01MPS CAVOK 31/25 Q1011 NOSIG
ZGSZ,2017-08-18 01:00,ZGSZ 180100Z 27002MPS 220V300 9999 FEW025 31/26 Q1011 NOSIG
ZGSZ,2017-08-18 02:00,ZGSZ 180200Z 27003MPS 9999 FEW025 31/26 Q1011 NOSIG
ZGSZ,2017-08-18 03:00,ZGSZ 180300Z 28003MPS 250V310 CAVOK 32/27 Q1011 NOSIG
ZGSZ,2017-08-18 04:00,ZGSZ 180400Z 26003MPS CAVOK 32/26 Q1011 NOSIG
ZGSZ,2017-08-18 05:00,ZGSZ 180500Z 23003MPS CAVOK 32/26 Q1010 NOSIG
ZGSZ,2017-08-18 06:00,ZGSZ 180600Z 21004MPS CAVOK 33/25 Q1010 NOSIG
ZGSZ,2017-08-18 07:00,ZGSZ 180700Z 20004MPS 9999 FEW025 32/26 Q1009 NOSIG
ZGSZ,2017-08-18 08:00,ZGSZ 180800Z 19005MPS CAVOK 32/26 Q1009 NOSIG
ZGSZ,2017-08-18 09:00,ZGSZ 180900Z 19006MPS CAVOK 31/27 Q1009 NOSIG
ZGSZ,2017-08-18 10:00,ZGSZ 181000Z 19006MPS CAVOK 31/27 Q1009 NOSIG
ZGSZ,2017-08-18 11:00,ZGSZ 181100Z 18005MPS CAVOK 31/27 Q1009 NOSIG
ZGSZ,2017-08-18 12:00,ZGSZ 181200Z 18005MPS CAVOK 30/27 Q1009 NOSIG
ZGSZ,2017-08-18 13:00,ZGSZ 181300Z 19005MPS CAVOK 30/27 Q1010 NOSIG
ZGSZ,2017-08-18 14:00,ZGSZ 181400Z 18004MPS CAVOK 30/26 Q1010 NOSIG
ZGSZ,2017-08-18 15:00,ZGSZ 181500Z 18004MPS CAVOK 30/27 Q1011 NOSIG
ZGSZ,2017-08-18 16:00,ZGSZ 181600Z 19004MPS CAVOK 30/27 Q1010 NOSIG
ZGSZ,2017-08-18 17:00,ZGSZ 181700Z 19004MPS CAVOK 30/27 Q1010 NOSIG
ZGSZ,2017-08-18 18:00,ZGSZ 181800Z 18004MPS 9999 SCT020 30/27 Q1010 NOSIG
ZGSZ,2017-08-18 19:00,ZGSZ 181900Z 19004MPS 9999 FEW020 SCT050 30/26 Q1010 NOSIG
ZGSZ,2017-08-18 20:00,ZGSZ 182000Z 15004MPS CAVOK 29/25 Q1010 NOSIG
ZGSZ,2017-08-18 21:00,ZGSZ 182100Z 15004MPS CAVOK 28/25 Q1010 NOSIG
ZGSZ,2017-08-18 22:00,ZGSZ 182200Z 15002MPS CAVOK 28/25 Q1010 NOSIG
ZGSZ,2017-08-18 23:00,ZGSZ 182300Z VRB01MPS CAVOK 30/26 Q1010 NOSIG
ZGSZ,2017-08-19 00:00,ZGSZ 190000Z 19001MPS 9999 FEW018 30/25 Q1011 NOSIG
ZGSZ,2017-08-19 01:00,ZGSZ 190100Z 22002MPS 9999 SCT023 30/25 Q1011 NOSIG
ZGSZ,2017-08-19 02:00,ZGSZ 190200Z 24002MPS 210V270 9999 SCT023 31/26 Q1012 NOSIG
ZGSZ,2017-08-19 03:00,ZGSZ 190300Z 23002MPS 200V260 9999 FEW026 31/25 Q1011 NOSIG
ZGSZ,2017-08-19 04:00,ZGSZ 190400Z 23003MPS 9999 FEW026 31/26 Q1011 NOSIG
ZGSZ,2017-08-19 05:00,ZGSZ 190500Z 23003MPS 9999 FEW026 32/25 Q1010 NOSIG
ZGSZ,2017-08-19 06:00,ZGSZ 190600Z 22003MPS 200V260 9999 FEW026 33/25 Q1009 NOSIG
ZGSZ,2017-08-19 07:00,ZGSZ 190700Z 22003MPS 180V250 9999 FEW026 33/25 Q1009 NOSIG
ZGSZ,2017-08-19 08:00,ZGSZ 190800Z 22003MPS 9999 FEW026 33/25 Q1008 NOSIG
ZGSZ,2017-08-19 09:00,ZGSZ 190900Z 21003MPS 180V240 CAVOK 33/25 Q1008 NOSIG
ZGSZ,2017-08-19 10:00,ZGSZ 191000Z 19004MPS CAVOK 32/25 Q1008 NOSIG
ZGSZ,2017-08-19 11:00,ZGSZ 191100Z 18005MPS CAVOK 31/26 Q1008 NOSIG
ZGSZ,2017-08-19 12:00,ZGSZ 191200Z 18005MPS CAVOK 31/27 Q1008 NOSIG
ZGSZ,2017-08-19 13:00,ZGSZ 191300Z 18005MPS CAVOK 31/28 Q1009 NOSIG
ZGSZ,2017-08-19 14:00,ZGSZ 191400Z 17006MPS CAVOK 30/27 Q1009 NOSIG
ZGSZ,2017-08-19 15:00,ZGSZ 191500Z 16005MPS CAVOK 30/26 Q1009 NOSIG
ZGSZ,2017-08-19 16:00,ZGSZ 191600Z 17005MPS CAVOK 30/26 Q1009 NOSIG
ZGSZ,2017-08-19 17:00,ZGSZ 191700Z 17004MPS CAVOK 30/26 Q1008 NOSIG
ZGSZ,2017-08-19 18:00,ZGSZ 191800Z 18004MPS CAVOK 30/26 Q1008 NOSIG
ZGSZ,2017-08-19 19:00,ZGSZ 191900Z 17004MPS CAVOK 29/26 Q1008 NOSIG
ZGSZ,2017-08-19 20:00,ZGSZ 192000Z 18003MPS 9999 FEW020 29/27 Q1008 NOSIG
ZGSZ,2017-08-19 21:00,ZGSZ 192100Z 17004MPS 9999 FEW020 29/26 Q1008 NOSIG
ZGSZ,2017-08-19 22:00,ZGSZ 192200Z 20002MPS 170V230 9999 SCT019 29/27 Q1008 NOSIG
ZGSZ,2017-08-19 23:00,ZGSZ 192300Z 27002MPS 240V300 9999 SCT019 29/26 Q1009 NOSIG
ZGSZ,2017-08-20 00:00,ZGSZ 200000Z 26003MPS 9999 FEW021 30/27 Q1009 NOSIG
ZGSZ,2017-08-20 01:00,ZGSZ 200100Z 26003MPS 230V290 9999 FEW021 30/26 Q1009 NOSIG
ZGSZ,2017-08-20 02:00,ZGSZ 200200Z 25003MPS 220V280 9999 FEW021 31/27 Q1009 NOSIG
ZGSZ,2017-08-20 03:00,ZGSZ 200300Z 23002MPS 200V270 9999 FEW021 32/27 Q1009 NOSIG
ZGSZ,2017-08-20 04:00,ZGSZ 200400Z 21002MPS 170V260 9999 FEW021 33/27 Q1008 NOSIG
ZGSZ,2017-08-20 05:00,ZGSZ 200500Z 23002MPS 200V280 9999 FEW021 33/26 Q1007 NOSIG
ZGSZ,2017-08-20 06:00,ZGSZ 200600Z 22002MPS 200V260 9999 FEW021 34/26 Q1006 NOSIG
ZGSZ,2017-08-20 07:00,ZGSZ 200700Z 21003MPS CAVOK 34/26 Q1005 NOSIG
ZGSZ,2017-08-20 08:00,ZGSZ 200800Z 20004MPS CAVOK 34/26 Q1005 NOSIG
ZGSZ,2017-08-20 09:00,ZGSZ 200900Z 20004MPS CAVOK 32/28 Q1004 NOSIG
ZGSZ,2017-08-20 10:00,ZGSZ 201000Z 19005MPS CAVOK 32/27 Q1004 NOSIG
ZGSZ,2017-08-20 11:00,ZGSZ 201100Z 19004MPS CAVOK 31/27 Q1004 NOSIG
ZGSZ,2017-08-20 12:00,ZGSZ 201200Z 18005MPS CAVOK 31/27 Q1004 NOSIG
ZGSZ,2017-08-20 13:00,ZGSZ 201300Z 17006MPS CAVOK 31/27 Q1005 NOSIG
ZGSZ,2017-08-20 14:00,ZGSZ 201400Z 17005MPS CAVOK 31/28 Q1006 NOSIG
ZGSZ,2017-08-20 15:00,ZGSZ 201500Z 16004MPS CAVOK 30/28 Q1006 NOSIG
ZGSZ,2017-08-20 16:00,ZGSZ 201600Z 17004MPS CAVOK 30/27 Q1006 NOSIG
ZGSZ,2017-08-20 17:00,ZGSZ 201700Z 18003MPS CAVOK 30/27 Q1005 NOSIG
ZGSZ,2017-08-20 18:00,ZGSZ 201800Z 19004MPS CAVOK 30/28 Q1005 NOSIG
ZGSZ,2017-08-20 19:00,ZGSZ 201900Z 20003MPS CAVOK 30/27 Q1004 NOSIG
ZGSZ,2017-08-20 20:00,ZGSZ 202000Z 21003MPS CAVOK 30/27 Q1004 NOSIG
ZGSZ,2017-08-20 21:00,ZGSZ 202100Z 26002MPS 200V290 CAVOK 30/27 Q1004 NOSIG
ZGSZ,2017-08-20 22:00,ZGSZ 202200Z 26002MPS 230V290 CAVOK 30/26 Q1004 NOSIG
ZGSZ,2017-08-20 23:00,ZGSZ 202300Z 27002MPS 210V310 CAVOK 30/26 Q1005 NOSIG
ZGSZ,2017-08-21 00:00,ZGSZ 210000Z 28002MPS CAVOK 31/26 Q1005 NOSIG
ZGSZ,2017-08-21 01:00,ZGSZ 210100Z 27002MPS 240V310 CAVOK 31/26 Q1005 NOSIG
ZGSZ,2017-08-21 02:00,ZGSZ 210200Z 28002MPS 250V320 CAVOK 32/26 Q1005 NOSIG
ZGSZ,2017-08-21 03:00,ZGSZ 210300Z 29003MPS CAVOK 33/27 Q1005 NOSIG
ZGSZ,2017-08-21 04:00,ZGSZ 210400Z 28003MPS CAVOK 34/27 Q1004 NOSIG
ZGSZ,2017-08-21 05:00,ZGSZ 210500Z 26003MPS 230V290 CAVOK 35/27 Q1003 NOSIG
ZGSZ,2017-08-21 06:00,ZGSZ 210600Z 27004MPS CAVOK 35/26 Q1002 NOSIG
ZGSZ,2017-08-21 07:00,ZGSZ 210700Z 27004MPS CAVOK 36/25 Q1001 NOSIG
ZGSZ,2017-08-21 08:00,ZGSZ 210800Z 28004MPS CAVOK 37/25 Q1001 NOSIG
ZGSZ,2017-08-21 09:00,ZGSZ 210900Z 26003MPS CAVOK 36/26 Q1000 NOSIG
ZGSZ,2017-08-21 10:00,ZGSZ 211000Z 21003MPS 9000 FEW020 33/28 Q1000 NOSIG
ZGSZ,2017-08-21 11:00,ZGSZ 211100Z 15004MPS 9999 FEW020 32/28 Q1001 NOSIG
ZGSZ,2017-08-21 12:00,ZGSZ 211200Z 15003MPS 9999 FEW020 31/28 Q1001 NOSIG
ZGSZ,2017-08-21 13:00,ZGSZ 211300Z 16004MPS 9999 FEW020 32/28 Q1002 NOSIG
ZGSZ,2017-08-21 14:00,ZGSZ 211400Z 16003MPS 9999 FEW020 31/28 Q1001 NOSIG
ZGSZ,2017-08-21 15:00,ZGSZ 211500Z 15004MPS 9999 FEW020 31/28 Q1002 NOSIG
ZGSZ,2017-08-21 16:00,ZGSZ 211600Z 15004MPS 9999 FEW020 31/28 Q1001 NOSIG
ZGSZ,2017-08-21 17:00,ZGSZ 211700Z 16004MPS 9999 FEW020 31/28 Q1001 NOSIG
ZGSZ,2017-08-21 18:00,ZGSZ 211800Z 16004MPS 9999 FEW020 30/28 Q1001 NOSIG
ZGSZ,2017-08-21 19:00,ZGSZ 211900Z 19002MPS 9999 FEW020 31/28 Q1000 NOSIG
ZGSZ,2017-08-21 20:00,ZGSZ 212000Z VRB01MPS 6000 FEW020 31/28 Q1000 NOSIG
ZGSZ,2017-08-21 21:00,ZGSZ 212100Z 00000MPS 6000 NSC 30/28 Q1000 NOSIG
ZGSZ,2017-08-21 22:00,ZGSZ 212200Z VRB01MPS 5000 BR NSC 31/28 Q1000 NOSIG
ZGSZ,2017-08-21 23:00,ZGSZ 212300Z 30002MPS 7000 NSC 31/28 Q1000 NOSIG
ZGSZ,2017-08-22 00:00,ZGSZ 220000Z 30003MPS 8000 NSC 32/28 Q1000 NOSIG
ZGSZ,2017-08-22 01:00,ZGSZ 220100Z 30004MPS 8000 NSC 33/27 Q1001 NOSIG
ZGSZ,2017-08-22 02:00,ZGSZ 220200Z 29004MPS 6000 NSC 33/28 Q1001 NOSIG
ZGSZ,2017-08-22 03:00,ZGSZ 220300Z 29005MPS 6000 SCT030 34/28 Q1000 NOSIG
ZGSZ,2017-08-22 04:00,ZGSZ 220400Z 35005MPS 8000 SCT030 37/26 Q0999 NOSIG
ZGSZ,2017-08-22 05:00,ZGSZ 220500Z 05005MPS 360V080 9999 SCT030 38/24 Q0999 NOSIG
ZGSZ,2017-08-22 06:00,ZGSZ 220600Z 02004MPS 340V060 9999 SCT030 38/26 Q0998 NOSIG
ZGSZ,2017-08-22 07:00,ZGSZ 220700Z 31008MPS 9999 FEW030TCU SCT030 37/25 Q0997 BECMG AT0820 05012G17MPS 1500 TSRA
ZGSZ,2017-08-22 08:00,ZGSZ 220800Z 30005MPS 9999 SCT030 35/26 Q0996 BECMG AT0910 02010G17MPS 1500 TSRA
ZGSZ,2017-08-22 09:00,ZGSZ 220900Z 07005MPS 020V100 7000 -TSRA SCT020 FEW023CB 32/27 Q0997 BECMG AT0910 1600 SHRA
ZGSZ,2017-08-22 10:00,ZGSZ 221000Z 08008G14MPS 5000 -TSRA SCT020 FEW023CB 28/26 Q0998 BECMG AT1050 01007MPS NSW
ZGSZ,2017-08-22 11:00,ZGSZ 221100Z VRB01MPS 9999 BKN033 30/25 Q0999 NOSIG
ZGSZ,2017-08-22 12:00,ZGSZ 221200Z 05002MPS 9999 -RA OVC043 29/26 Q1000 NOSIG
ZGSZ,2017-08-22 13:00,ZGSZ 221300Z 07003MPS CAVOK 29/26 Q1001 NOSIG
ZGSZ,2017-08-22 14:00,ZGSZ 221400Z 07002MPS CAVOK 29/26 Q1000 NOSIG
ZGSZ,2017-08-22 15:00,ZGSZ 221500Z 02002MPS 360V060 CAVOK 29/26 Q1000 NOSIG
ZGSZ,2017-08-22 16:00,ZGSZ 221600Z 03005MPS CAVOK 29/25 Q1000 NOSIG
ZGSZ,2017-08-22 17:00,ZGSZ 221700Z 01005MPS CAVOK 29/26 Q1000 NOSIG
ZGSZ,2017-08-22 18:00,ZGSZ 221800Z 35005MPS CAVOK 29/25 Q0999 NOSIG
ZGSZ,2017-08-22 19:00,ZGSZ 221900Z 34005MPS CAVOK 28/26 Q0998 NOSIG
ZGSZ,2017-08-22 20:00,ZGSZ 222000Z 36006MPS 330V030 CAVOK 29/25 Q0997 NOSIG
ZGSZ,2017-08-22 21:00,ZGSZ 222100Z 36006MPS CAVOK 28/25 Q0996 NOSIG
ZGSZ,2017-08-22 22:00,ZGSZ 222200Z 01010G16MPS 9999 -RA FEW020 28/24 Q0996 BECMG AT2340 SHRA
ZGSZ,2017-08-22 23:00,ZGSZ 222300Z 01010MPS 9999 -RA SCT020 28/24 Q0996 BECMG AT0040 SHRA
ZGSZ,2017-08-23 00:00,ZGSZ 230000Z 01011G16MPS 9999 SCT020 28/24 Q0994 BECMG AT0040 2000 SHRA
ZGSZ,2017-08-23 01:00,ZGSZ 230100Z 01013G18MPS 5000 -SHRA SCT017 FEW026CB 27/24 Q0993 BECMG AT0220 2000 SHRA
ZGSZ,2017-08-23 02:00,ZGSZ 230200Z 02013G21MPS 5000 SHRA SCT017 FEW026CB 26/25 Q0992 BECMG AT0310 -SHRA
ZGSZ,2017-08-23 03:00,ZGSZ 230300Z 03016G22MPS 5000 R33/1200U R34/P2000 SHRA SCT017 FEW026CB 26/25 Q0990 BECMG AT0340 -SHRA
ZGSZ,2017-08-23 04:00,ZGSZ 230400Z 06017G24MPS 8000 -SHRA SCT017 FEW026CB 27/25 Q0990 NOSIG
ZGSZ,2017-08-23 05:00,ZGSZ 230500Z 10016MPS 5000 SHRA SCT017 FEW026CB 27/26 Q0992 NOSIG
ZGSZ,2017-08-23 06:00,ZGSZ 230600Z 12012MPS 5000 SHRA SCT017 FEW026CB 27/25 Q0993 NOSIG
ZGSZ,2017-08-23 07:00,ZGSZ 230700Z 12012MPS 9999 BKN020 28/25 Q0995 NOSIG
ZGSZ,2017-08-23 08:00,ZGSZ 230800Z 14011MPS 9999 BKN020 28/25 Q0997 BECMG AT0845 SHRA
ZGSZ,2017-08-23 09:00,ZGSZ 230900Z 13008MPS 9999 BKN020 28/25 Q0998 NOSIG
ZGSZ,2017-08-23 10:00,ZGSZ 231000Z 12007MPS 9999 -SHRA BKN020 28/25 Q0999 NOSIG
ZGSZ,2017-08-23 11:00,ZGSZ 231100Z 12006MPS 9999 BKN020 27/25 Q1000 NOSIG
ZGSZ,2017-08-23 12:00,ZGSZ 231200Z 11005MPS 9999 SCT020 27/25 Q1001 NOSIG
ZGSZ,2017-08-23 13:00,ZGSZ 231300Z 12006MPS 9999 SCT020 27/25 Q1003 NOSIG
ZGSZ,2017-08-23 14:00,ZGSZ 231400Z 12006MPS 9999 -SHRA SCT023 BKN053 27/25 Q1004 NOSIG
ZGSZ,2017-08-23 15:00,ZGSZ 231500Z 09005MPS 9999 -SHRA FEW018 BKN053 27/25 Q1004 NOSIG
ZGSZ,2017-08-23 16:00,ZGSZ 231600Z 10005MPS 9999 FEW033 27/25 Q1004 NOSIG
ZGSZ,2017-08-23 17:00,ZGSZ 231700Z 11005MPS 9999 FEW033 28/25 Q1005 NOSIG
ZGSZ,2017-08-23 18:00,ZGSZ 231800Z 16009MPS 120V190 8000 SHRA FEW020 FEW030CB BKN053 24/23 Q1006 NOSIG
ZGSZ,2017-08-23 19:00,ZGSZ 231900Z 12006MPS 9999 -SHRA FEW020 FEW030CB BKN053 26/24 Q1005 NOSIG
ZGSZ,2017-08-23 20:00,ZGSZ 232000Z 11005MPS 9999 FEW020 27/24 Q1005 NOSIG
ZGSZ,2017-08-23 21:00,ZGSZ 232100Z 12005MPS 9999 FEW020 28/25 Q1005 NOSIG
ZGSZ,2017-08-23 22:00,ZGSZ 232200Z 12004MPS CAVOK 28/25 Q1006 NOSIG
ZGSZ,2017-08-23 23:00,ZGSZ 232300Z 11004MPS 9999 SCT032 28/25 Q1006 NOSIG
ZGSZ,2017-08-24 00:00,ZGSZ 240000Z 11004MPS 9999 SCT026 30/26 Q1007 NOSIG
ZGSZ,2017-08-24 01:00,ZGSZ 240100Z 15004MPS 9999 SCT026 31/26 Q1008 NOSIG
ZGSZ,2017-08-24 02:00,ZGSZ 240200Z 15006MPS 9999 FEW026 32/26 Q1008 NOSIG
ZGSZ,2017-08-24 03:00,ZGSZ 240300Z 16007MPS 9999 FEW026 32/27 Q1009 NOSIG
ZGSZ,2017-08-24 04:00,ZGSZ 240400Z 16007MPS 9999 FEW026 32/27 Q1008 NOSIG
ZGSZ,2017-08-24 05:00,ZGSZ 240500Z 17006MPS 9999 FEW030 33/27 Q1008 NOSIG
ZGSZ,2017-08-24 06:00,ZGSZ 240600Z 17006MPS 9999 FEW030 32/27 Q1007 NOSIG
ZGSZ,2017-08-24 07:00,ZGSZ 240700Z 17006MPS 9999 FEW030 32/27 Q1007 NOSIG
ZGSZ,2017-08-24 08:00,ZGSZ 240800Z 18006MPS 9999 FEW030 32/27 Q1007 NOSIG
ZGSZ,2017-08-24 09:00,ZGSZ 240900Z 17006MPS 9999 FEW025 31/27 Q1006 NOSIG
ZGSZ,2017-08-24 10:00,ZGSZ 241000Z 18006MPS 9999 FEW025 31/26 Q1007 NOSIG
ZGSZ,2017-08-24 11:00,ZGSZ 241100Z 16006MPS 9999 FEW023 30/27 Q1007 NOSIG
ZGSZ,2017-08-24 12:00,ZGSZ 241200Z 10004G09MPS 9999 FEW023 30/26 Q1008 NOSIG
ZGSZ,2017-08-24 13:00,ZGSZ 241300Z 10004MPS 080V140 9999 FEW020 30/26 Q1009 NOSIG
ZGSZ,2017-08-24 14:00,ZGSZ 241400Z 09003MPS 070V130 9999 FEW020 29/26 Q1009 NOSIG
ZGSZ,2017-08-24 15:00,ZGSZ 241500Z 07003MPS 9999 FEW020 29/25 Q1010 NOSIG
ZGSZ,2017-08-24 16:00,ZGSZ 241600Z 09003MPS CAVOK 29/26 Q1009 NOSIG
ZGSZ,2017-08-24 17:00,ZGSZ 241700Z 09002MPS 060V180 CAVOK 29/26 Q1009 NOSIG
ZGSZ,2017-08-24 18:00,ZGSZ 241800Z 08002MPS CAVOK 29/26 Q1009 NOSIG
ZGSZ,2017-08-24 19:00,ZGSZ 241900Z VRB01MPS CAVOK 29/26 Q1008 NOSIG
ZGSZ,2017-08-24 20:00,ZGSZ 242000Z 07002MPS CAVOK 29/25 Q1008 NOSIG
ZGSZ,2017-08-24 21:00,ZGSZ 242100Z 02001MPS CAVOK 28/26 Q1008 NOSIG
ZGSZ,2017-08-24 22:00,ZGSZ 242200Z 06003MPS CAVOK 28/26 Q1008 NOSIG
ZGSZ,2017-08-24 23:00,ZGSZ 242300Z 05004MPS CAVOK 29/26 Q1008 NOSIG
ZGSZ,2017-08-25 00:00,ZGSZ 250000Z 08003MPS 020V120 9999 SCT020 30/26 Q1009 NOSIG
ZGSZ,2017-08-25 01:00,ZGSZ 250100Z 05002MPS 9999 SCT020 30/26 Q1009 NOSIG
ZGSZ,2017-08-25 02:00,ZGSZ 250200Z VRB02MPS 9999 SCT020 FEW024TCU 32/26 Q1009 NOSIG
ZGSZ,2017-08-25 03:00,ZGSZ 250300Z VRB03MPS 9999 SCT020 FEW024TCU 32/25 Q1009 NOSIG
ZGSZ,2017-08-25 04:00,ZGSZ 250400Z 22003MPS 9999 SCT020 FEW024TCU 31/26 Q1009 NOSIG
ZGSZ,2017-08-25 05:00,ZGSZ 250500Z 32003MPS 270V060 9999 R15/P2000 R16/1000V1400U SCT020 FEW024CB 27/24 Q1008 RETSRA BECMG AT0535 TSRA
ZGSZ,2017-08-25 06:00,ZGSZ 250600Z 20006MPS 150V260 8000 -TSRA FEW011 FEW020CB BKN033 25/25 Q1007 RESHRA NOSIG
ZGSZ,2017-08-25 07:00,ZGSZ 250700Z VRB01MPS 9999 FEW011 FEW020TCU SCT033 27/25 Q1007 NOSIG
ZGSZ,2017-08-25 08:00,ZGSZ 250800Z 03002MPS 360V080 9999 FEW033 28/25 Q1007 NOSIG
ZGSZ,2017-08-25 09:00,ZGSZ 250900Z 08002MPS 050V110 CAVOK 28/25 Q1006 NOSIG
ZGSZ,2017-08-25 10:00,ZGSZ 251000Z VRB02MPS CAVOK 29/25 Q1007 NOSIG
ZGSZ,2017-08-25 11:00,ZGSZ 251100Z VRB01MPS CAVOK 29/25 Q1007 NOSIG
ZGSZ,2017-08-25 12:00,ZGSZ 251200Z VRB01MPS CAVOK 28/26 Q1008 NOSIG
ZGSZ,2017-08-25 13:00,ZGSZ 251300Z 30002MPS 260V360 CAVOK 28/26 Q1008 NOSIG
ZGSZ,2017-08-25 14:00,ZGSZ 251400Z VRB01MPS CAVOK 28/26 Q1008 NOSIG
ZGSZ,2017-08-25 15:00,ZGSZ 251500Z 00000MPS CAVOK 29/25 Q1009 NOSIG
ZGSZ,2017-08-25 16:00,ZGSZ 251600Z VRB01MPS CAVOK 29/26 Q1009 NOSIG
ZGSZ,2017-08-25 17:00,ZGSZ 251700Z 06002MPS 030V130 CAVOK 28/25 Q1008 NOSIG
ZGSZ,2017-08-25 18:00,ZGSZ 251800Z 08002MPS 050V140 CAVOK 28/26 Q1008 NOSIG
ZGSZ,2017-08-25 19:00,ZGSZ 251900Z 04003MPS 340V100 CAVOK 28/25 Q1007 NOSIG
ZGSZ,2017-08-25 20:00,ZGSZ 252000Z 02002MPS 290V090 CAVOK 28/25 Q1007 NOSIG
ZGSZ,2017-08-25 21:00,ZGSZ 252100Z 04002MPS 010V170 CAVOK 28/26 Q1007 NOSIG
ZGSZ,2017-08-25 22:00,ZGSZ 252200Z 05003MPS CAVOK 28/25 Q1007 NOSIG
ZGSZ,2017-08-25 23:00,ZGSZ 252300Z 06003MPS CAVOK 28/25 Q1007 NOSIG
ZGSZ,2017-08-26 00:00,ZGSZ 260000Z 05004MPS CAVOK 29/25 Q1007 NOSIG
ZGSZ,2017-08-26 01:00,ZGSZ 260100Z 07003MPS CAVOK 29/25 Q1008 NOSIG
ZGSZ,2017-08-26 02:00,ZGSZ 260200Z 07005MPS 040V100 9999 FEW023 31/25 Q1007 NOSIG
ZGSZ,2017-08-26 03:00,ZGSZ 260300Z 08004MPS 050V140 9999 FEW026 33/24 Q1006 NOSIG
ZGSZ,2017-08-26 04:00,ZGSZ 260400Z 10005MPS 050V140 9999 SCT026 34/23 Q1006 NOSIG
ZGSZ,2017-08-26 05:00,ZGSZ 260500Z 12002MPS 060V200 9999 SCT023 34/24 Q1006 NOSIG
ZGSZ,2017-08-26 06:00,ZGSZ 260600Z 25003MPS 9999 SCT023 33/26 Q1005 NOSIG
ZGSZ,2017-08-26 07:00,ZGSZ 260700Z 25003MPS 200V290 9999 FEW023 34/26 Q1004 NOSIG
ZGSZ,2017-08-26 08:00,ZGSZ 260800Z 20004MPS 9999 FEW026TCU 33/26 Q1004 BECMG AT0820 03006G12MPS TSRA
ZGSZ,2017-08-26 09:00,ZGSZ 260900Z VRB01MPS 9999 -TSRA FEW012 FEW020CB SCT040 22/22 Q1004 RESHRA BECMG AT0930 NSW
ZGSZ,2017-08-26 10:00,ZGSZ 261000Z 06005G11MPS 040V100 7000 -SHRA FEW014 FEW020CB BKN040 28/23 Q1005 NOSIG
ZGSZ,2017-08-26 11:00,ZGSZ 261100Z 07005MPS 9999 FEW018 28/22 Q1005 NOSIG
ZGSZ,2017-08-26 12:00,ZGSZ 261200Z 04002MPS 360V090 9999 FEW018 27/22 Q1006 NOSIG
ZGSZ,2017-08-26 13:00,ZGSZ 261300Z 04003G08MPS 340V120 9999 FEW018 28/23 Q1007 NOSIG
ZGSZ,2017-08-26 14:00,ZGSZ 261400Z 04006MPS 9999 FEW018 28/23 Q1007 NOSIG
ZGSZ,2017-08-26 15:00,ZGSZ 261500Z 36004MPS 9999 FEW018 FEW020TCU 27/23 Q1007 BECMG AT1620 SHRA
ZGSZ,2017-08-26 16:00,ZGSZ 261600Z 02005MPS 9999 -SHRA FEW018 FEW020TCU 27/24 Q1006 BECMG AT1620 SHRA
ZGSZ,2017-08-26 17:00,ZGSZ 261700Z 04005MPS 9999 -SHRA FEW018 FEW020TCU 26/24 Q1006 NOSIG
ZGSZ,2017-08-26 18:00,ZGSZ 261800Z 04005MPS 9999 FEW018 FEW020TCU 26/24 Q1005 NOSIG
ZGSZ,2017-08-26 19:00,ZGSZ 261900Z 03007MPS 9999 FEW018 26/24 Q1004 NOSIG
ZGSZ,2017-08-26 20:00,ZGSZ 262000Z 03008MPS 7000 -SHRA FEW018 26/24 Q1003 NOSIG
ZGSZ,2017-08-26 21:00,ZGSZ 262100Z 03009MPS 7000 -SHRA SCT012 BKN027 25/24 Q1002 BECMG TL2200 SHRA
ZGSZ,2017-08-26 22:00,ZGSZ 262200Z 02009MPS 6000 SHRA SCT012 FEW020CB BKN027 25/24 Q1000 BECMG TL2330 BKN013
ZGSZ,2017-08-26 23:00,ZGSZ 262300Z 04012G19MPS 4000 SHRA SCT012 FEW020CB BKN027 24/24 Q0999 BECMG TL2330 -SHRA BKN013
ZGSZ,2017-08-27 00:00,ZGSZ 270000Z 06012G17MPS 6000 -SHRA BKN012 FEW020CB BKN027 25/24 Q0999 BECMG TL0125 SCT012 BKN030
ZGSZ,2017-08-27 01:00,ZGSZ 270100Z 10012MPS 6000 -SHRA BKN012 FEW020CB BKN027 27/25 Q1001 RESHRA BECMG AT0220 SHRA SCT012 BKN030
ZGSZ,2017-08-27 02:00,ZGSZ 270200Z 11010MPS 7000 -SHRA SCT015 BKN027 27/25 Q1002 BECMG AT0240 SHRA
ZGSZ,2017-08-27 03:00,ZGSZ 270300Z 12008MPS 3100 R15/P2000 R16/1400D SHRA SCT015 BKN027 26/25 Q1003 BECMG AT0320 -SHRA
ZGSZ,2017-08-27 04:00,ZGSZ 270400Z 11009MPS 7000 -SHRA BKN018 BKN033 26/25 Q1003 BECMG AT0420 SHRA
ZGSZ,2017-08-27 05:00,ZGSZ 270500Z 11008MPS 5000 SHRA BKN018 BKN033 26/25 Q1003 BECMG AT0520 -SHRA
ZGSZ,2017-08-27 06:00,ZGSZ 270600Z 12009MPS 8000 -SHRA SCT020 26/25 Q1003 NOSIG
ZGSZ,2017-08-27 07:00,ZGSZ 270700Z 12008MPS 8000 -RA SCT020 BKN050 26/25 Q1004 NOSIG
ZGSZ,2017-08-27 08:00,ZGSZ 270800Z 14005MPS 8000 -RA SCT020 BKN050 26/25 Q1004 NOSIG
ZGSZ,2017-08-27 09:00,ZGSZ 270900Z 12005MPS 9999 -RA BKN020 OVC050 27/25 Q1004 NOSIG
ZGSZ,2017-08-27 10:00,ZGSZ 271000Z 12005MPS 8000 -SHRA BKN015 FEW026CB OVC050 26/25 Q1005 NOSIG
ZGSZ,2017-08-27 11:00,ZGSZ 271100Z 13007MPS 9999 BKN016 FEW026CB BKN050 26/24 Q1005 BECMG AT1230 BKN012 OVC030
ZGSZ,2017-08-27 12:00,ZGSZ 271200Z 12007MPS 9999 -SHRA BKN016 FEW026CB BKN043 26/24 Q1006 BECMG AT1230 BKN012 OVC030
ZGSZ,2017-08-27 13:00,ZGSZ 271300Z 12006MPS 6000 -SHRA BKN017 FEW033CB BKN050 26/24 Q1007 BECMG AT1430 BKN012 OVC030
ZGSZ,2017-08-27 14:00,ZGSZ 271400Z 14008MPS 9999 -RA SCT030 OVC050 27/24 Q1008 BECMG AT1430 BKN012 OVC030
ZGSZ,2017-08-27 15:00,ZGSZ 271500Z 12006MPS 9999 BKN020 27/25 Q1008 NOSIG
ZGSZ,2017-08-27 16:00,ZGSZ 271600Z 12006MPS 9999 SCT023 SCT050 27/24 Q1008 NOSIG
ZGSZ,2017-08-27 17:00,ZGSZ 271700Z 13007G12MPS 9999 FEW023 27/25 Q1008 NOSIG
ZGSZ,2017-08-27 18:00,ZGSZ 271800Z 12005MPS 9999 -RA FEW023 27/25 Q1007 NOSIG
ZGSZ,2017-08-27 19:00,ZGSZ 271900Z 13006MPS 9999 -RA SCT015 27/25 Q1008 NOSIG
ZGSZ,2017-08-27 20:00,ZGSZ 272000Z 13007MPS 9999 -RA FEW020 26/24 Q1008 NOSIG
ZGSZ,2017-08-27 21:00,ZGSZ 272100Z 13004MPS 9999 -RA SCT020 26/24 Q1008 NOSIG
ZGSZ,2017-08-27 22:00,ZGSZ 272200Z 12002MPS 9999 -RA SCT020 26/24 Q1009 NOSIG
ZGSZ,2017-08-27 23:00,ZGSZ 272300Z 11003MPS 9999 -RA SCT020 26/25 Q1009 BECMG AT0030 SHRA
ZGSZ,2017-08-28 00:00,ZGSZ 280000Z 11004MPS 9999 -SHRA BKN020 FEW033CB 26/25 Q1009 BECMG AT0030 SHRA
ZGSZ,2017-08-28 01:00,ZGSZ 280100Z 17007MPS 7000 -SHRA SCT010 FEW020CB BKN050 26/24 Q1010 RESHRA NOSIG
ZGSZ,2017-08-28 02:00,ZGSZ 280200Z 17006MPS 9999 -SHRA SCT010 BKN030 26/25 Q1011 NOSIG
ZGSZ,2017-08-28 03:00,ZGSZ 280300Z 15005MPS 9999 -SHRA FEW013 SCT050 26/25 Q1011 NOSIG
ZGSZ,2017-08-28 04:00,ZGSZ 280400Z 10003MPS 9999 -SHRA FEW013 SCT050 26/25 Q1010 NOSIG
ZGSZ,2017-08-28 05:00,ZGSZ 280500Z 11003MPS 9999 -SHRA FEW013 SCT053 26/25 Q1010 NOSIG
ZGSZ,2017-08-28 06:00,ZGSZ 280600Z 11003MPS 9999 -SHRA FEW013 26/25 Q1010 NOSIG
ZGSZ,2017-08-28 07:00,ZGSZ 280700Z 10004MPS 9999 -SHRA FEW020 26/25 Q1009 NOSIG
ZGSZ,2017-08-28 08:00,ZGSZ 280800Z 11004MPS 9999 FEW020 SCT033 27/25 Q1009 NOSIG
ZGSZ,2017-08-28 09:00,ZGSZ 280900Z 10004MPS 9999 -SHRA FEW017 SCT027 27/25 Q1009 NOSIG
ZGSZ,2017-08-28 10:00,ZGSZ 281000Z 14003MPS 9999 FEW017 SCT027 27/25 Q1009 NOSIG
ZGSZ,2017-08-28 11:00,ZGSZ 281100Z 10003MPS 9999 FEW017 27/25 Q1010 NOSIG
ZGSZ,2017-08-28 12:00,ZGSZ 281200Z 09003MPS 070V140 9999 FEW020 27/25 Q1010 NOSIG
ZGSZ,2017-08-28 13:00,ZGSZ 281300Z 11003MPS 9999 FEW030 27/25 Q1011 NOSIG
ZGSZ,2017-08-28 14:00,ZGSZ 281400Z 10002MPS CAVOK 26/25 Q1011 NOSIG
ZGSZ,2017-08-28 15:00,ZGSZ 281500Z 11002MPS 070V140 CAVOK 26/24 Q1012 NOSIG
ZGSZ,2017-08-28 16:00,ZGSZ 281600Z 06002MPS 020V120 CAVOK 26/24 Q1011 NOSIG
ZGSZ,2017-08-28 17:00,ZGSZ 281700Z 06003MPS CAVOK 26/24 Q1010 NOSIG
ZGSZ,2017-08-28 18:00,ZGSZ 281800Z VRB03MPS CAVOK 26/24 Q1010 NOSIG
ZGSZ,2017-08-28 19:00,ZGSZ 281900Z 03003MPS 360V080 CAVOK 26/24 Q1010 NOSIG
ZGSZ,2017-08-28 20:00,ZGSZ 282000Z 06003MPS 360V140 CAVOK 25/24 Q1010 NOSIG
ZGSZ,2017-08-28 21:00,ZGSZ 282100Z 05002MPS 340V110 CAVOK 25/24 Q1010 NOSIG
ZGSZ,2017-08-28 22:00,ZGSZ 282200Z 04002MPS CAVOK 25/24 Q1010 NOSIG
ZGSZ,2017-08-28 23:00,ZGSZ 282300Z 04003MPS 020V090 CAVOK 26/24 Q1011 NOSIG
ZGSZ,2017-08-29 00:00,ZGSZ 290000Z 04004MPS 020V100 CAVOK 27/24 Q1011 NOSIG
ZGSZ,2017-08-29 01:00,ZGSZ 290100Z 03004MPS 350V060 CAVOK 28/24 Q1011 NOSIG
ZGSZ,2017-08-29 02:00,ZGSZ 290200Z 03003MPS 350V090 CAVOK 30/24 Q1011 NOSIG
ZGSZ,2017-08-29 03:00,ZGSZ 290300Z 28003MPS 9999 SCT026 29/25 Q1011 NOSIG
ZGSZ,2017-08-29 04:00,ZGSZ 290400Z 29004MPS 8000 SCT026 30/25 Q1011 NOSIG
ZGSZ,2017-08-29 05:00,ZGSZ 290500Z 29005MPS 8000 FEW026 31/25 Q1010 NOSIG
ZGSZ,2017-08-29 06:00,ZGSZ 290600Z 28004MPS 9999 FEW026 31/25 Q1009 NOSIG
ZGSZ,2017-08-29 07:00,ZGSZ 290700Z 28003MPS CAVOK 32/24 Q1009 NOSIG
ZGSZ,2017-08-29 08:00,ZGSZ 290800Z 28003MPS CAVOK 32/25 Q1009 NOSIG
ZGSZ,2017-08-29 09:00,ZGSZ 290900Z 29003MPS CAVOK 32/25 Q1008 NOSIG
ZGSZ,2017-08-29 10:00,ZGSZ 291000Z 29002MPS CAVOK 32/24 Q1008 NOSIG
ZGSZ,2017-08-29 11:00,ZGSZ 291100Z 22002MPS CAVOK 30/26 Q1009 NOSIG
ZGSZ,2017-08-29 12:00,ZGSZ 291200Z 22002MPS CAVOK 30/25 Q1009 NOSIG
ZGSZ,2017-08-29 13:00,ZGSZ 291300Z 21001MPS CAVOK 30/26 Q1010 NOSIG
ZGSZ,2017-08-29 14:00,ZGSZ 291400Z VRB01MPS 7000 NSC 29/27 Q1010 NOSIG
ZGSZ,2017-08-29 15:00,ZGSZ 291500Z 30003MPS 6000 NSC 29/26 Q1010 NOSIG
ZGSZ,2017-08-29 16:00,ZGSZ 291600Z 30003MPS 6000 NSC 29/27 Q1009 NOSIG
ZGSZ,2017-08-29 17:00,ZGSZ 291700Z 32003MPS 5000 BR NSC 28/26 Q1009 NOSIG
ZGSZ,2017-08-29 18:00,ZGSZ 291800Z 31004MPS 8000 NSC 28/26 Q1009 NOSIG
ZGSZ,2017-08-29 19:00,ZGSZ 291900Z 33003MPS 8000 NSC 28/25 Q1008 NOSIG
ZGSZ,2017-08-29 20:00,ZGSZ 292000Z 35003MPS 8000 NSC 27/25 Q1008 NOSIG
ZGSZ,2017-08-29 21:00,ZGSZ 292100Z 34002MPS 6000 NSC 27/25 Q1008 NOSIG
ZGSZ,2017-08-29 22:00,ZGSZ 292200Z 34002MPS 6000 FEW033 27/25 Q1008 NOSIG
ZGSZ,2017-08-29 23:00,ZGSZ 292300Z 28003MPS 6000 NSC 28/25 Q1009 NOSIG
ZGSZ,2017-08-30 00:00,ZGSZ 300000Z 30002MPS CAVOK 28/25 Q1009 NOSIG
ZGSZ,2017-08-30 01:00,ZGSZ 300100Z 28003MPS 6000 NSC 29/26 Q1009 NOSIG
ZGSZ,2017-08-30 02:00,ZGSZ 300200Z 29004MPS 4200 BR NSC 30/25 Q1009 NOSIG
ZGSZ,2017-08-30 03:00,ZGSZ 300300Z 28004MPS 3500 HZ NSC 30/25 Q1008 NOSIG
ZGSZ,2017-08-30 04:00,ZGSZ 300400Z 28003MPS 2800 BR NSC 31/27 Q1007 NOSIG
ZGSZ,2017-08-30 05:00,ZGSZ 300500Z 27003MPS 2900 HZ NSC 33/27 Q1007 BECMG TL0535 3500
ZGSZ,2017-08-30 06:00,ZGSZ 300600Z 28003MPS 4000 HZ NSC 33/26 Q1006 NOSIG
ZGSZ,2017-08-30 07:00,ZGSZ 300700Z 28004MPS 7000 NSC 34/26 Q1006 NOSIG
ZGSZ,2017-08-30 08:00,ZGSZ 300800Z 28003MPS 9999 FEW040 34/26 Q1005 NOSIG
ZGSZ,2017-08-30 09:00,ZGSZ 300900Z 28003MPS 9999 FEW040 34/26 Q1005 NOSIG
ZGSZ,2017-08-30 10:00,ZGSZ 301000Z 18006MPS 9999 R15/P2000 R16/1400N FEW040 31/27 Q1006 NOSIG
ZGSZ,2017-08-30 11:00,ZGSZ 301100Z 16006MPS 9999 FEW040 30/27 Q1007 NOSIG
ZGSZ,2017-08-30 12:00,ZGSZ 301200Z 16006MPS 9999 FEW040 30/27 Q1007 NOSIG
ZGSZ,2017-08-30 13:00,ZGSZ 301300Z 16005MPS 9999 FEW033 30/27 Q1008 NOSIG
ZGSZ,2017-08-30 14:00,ZGSZ 301400Z 16005MPS 9999 FEW030 29/27 Q1009 NOSIG
ZGSZ,2017-08-30 15:00,ZGSZ 301500Z 15005MPS 9999 SCT030 29/26 Q1009 NOSIG
ZGSZ,2017-08-30 16:00,ZGSZ 301600Z 17005MPS 9999 FEW030 29/26 Q1009 NOSIG
ZGSZ,2017-08-30 17:00,ZGSZ 301700Z 15005MPS 9999 FEW050 29/24 Q1009 NOSIG
ZGSZ,2017-08-30 18:00,ZGSZ 301800Z 16004MPS 9999 FEW030 29/25 Q1008 NOSIG
ZGSZ,2017-08-30 19:00,ZGSZ 301900Z 20003MPS CAVOK 29/25 Q1007 NOSIG
ZGSZ,2017-08-30 20:00,ZGSZ 302000Z 23002MPS CAVOK 28/25 Q1008 NOSIG
ZGSZ,2017-08-30 21:00,ZGSZ 302100Z 18002MPS CAVOK 28/25 Q1008 NOSIG
ZGSZ,2017-08-30 22:00,ZGSZ 302200Z 15001MPS CAVOK 28/26 Q1008 NOSIG
ZGSZ,2017-08-30 23:00,ZGSZ 302300Z 00000MPS CAVOK 29/26 Q1008 NOSIG
ZGSZ,2017-08-31 00:00,ZGSZ 310000Z VRB01MPS CAVOK 29/25 Q1008 NOSIG
ZGSZ,2017-08-31 01:00,ZGSZ 310100Z 29002MPS CAVOK 30/25 Q1008 NOSIG
ZGSZ,2017-08-31 02:00,ZGSZ 310200Z 29002MPS CAVOK 30/25 Q1008 NOSIG
ZGSZ,2017-08-31 03:00,ZGSZ 310300Z 28002MPS 9999 SCT033 31/25 Q1008 NOSIG
ZGSZ,2017-08-31 04:00,ZGSZ 310400Z 27003MPS 9999 SCT033 31/26 Q1007 NOSIG
ZGSZ,2017-08-31 05:00,ZGSZ 310500Z 27003MPS 6000 SCT027 31/26 Q1007 NOSIG
ZGSZ,2017-08-31 06:00,ZGSZ 310600Z 27003MPS 6000 SCT027 32/27 Q1005 NOSIG
ZGSZ,2017-08-31 07:00,ZGSZ 310700Z 24002MPS 200V280 4500 HZ FEW030 33/27 Q1005 NOSIG
ZGSZ,2017-08-31 08:00,ZGSZ 310800Z 23002MPS 200V260 4500 HZ FEW030 33/27 Q1004 NOSIG
ZGSZ,2017-08-31 09:00,ZGSZ 310900Z 35005MPS 7000 FEW020CB SCT033 31/25 Q1004 BECMG AT1035 18004MPS
ZGSZ,2017-08-31 10:00,ZGSZ 311000Z 35003MPS 7000 FEW020CB SCT033 31/24 Q1006 RETS BECMG AT1050 04008G15MPS TSRA
ZGSZ,2017-08-31 11:00,ZGSZ 311100Z 08004MPS 8000 FEW020CB SCT033 31/24 Q1006 NOSIG
ZGSZ,2017-08-31 12:00,ZGSZ 311200Z 10003MPS 070V130 9999 SCT040 29/24 Q1006 NOSIG
ZGSZ,2017-08-31 13:00,ZGSZ 311300Z 15002MPS 100V190 9999 FEW040 29/24 Q1007 NOSIG
ZGSZ,2017-08-31 14:00,ZGSZ 311400Z 21002MPS 180V260 9999 FEW050 29/25 Q1007 NOSIG
ZGSZ,2017-08-31 15:00,ZGSZ 311500Z 01002MPS 330V070 9999 FEW020 29/23 Q1007 NOSIG
ZGSZ,2017-08-31 16:00,ZGSZ 311600Z VRB01MPS 9999 FEW020 29/23 Q1007 NOSIG
ZGSZ,2017-08-31 17:00,ZGSZ 311700Z VRB01MPS 9999 FEW020 28/25 Q1006 NOSIG
ZGSZ,2017-08-31 18:00,ZGSZ 311800Z VRB01MPS 9999 FEW020 28/26 Q1006 NOSIG
ZGSZ,2017-08-31 19:00,ZGSZ 311900Z 27002MPS 9999 FEW020 28/26 Q1005 NOSIG
ZGSZ,2017-08-31 20:00,ZGSZ 312000Z 29003MPS 9999 SCT018 28/25 Q1005 NOSIG
ZGSZ,2017-08-31 21:00,ZGSZ 312100Z 28003MPS 9999 FEW018 28/25 Q1005 NOSIG
ZGSZ,2017-08-31 22:00,ZGSZ 312200Z 31003MPS 9999 FEW018 BKN040 28/25 Q1006 NOSIG
ZGSZ,2017-08-31 23:00,ZGSZ 312300Z 32002MPS 9999 FEW018 BKN040 28/25 Q1006 NOSIG
ZGSZ,2017-09-01 00:00,ZGSZ 010000Z 33002MPS 290V350 6000 FEW018 BKN040 29/25 Q1007 NOSIG
ZGSZ,2017-09-01 01:00,ZGSZ 010100Z 33002MPS 300V020 6000 NSC 30/25 Q1007 NOSIG
ZGSZ,2017-09-01 02:00,ZGSZ 010200Z 28003MPS 5000 BR NSC 30/26 Q1007 NOSIG
ZGSZ,2017-09-01 03:00,ZGSZ 010300Z 28004MPS 5000 HZ FEW028 31/25 Q1007 NOSIG
ZGSZ,2017-09-01 04:00,ZGSZ 010400Z 29004MPS 6000 FEW028 31/25 Q1006 NOSIG
ZGSZ,2017-09-01 05:00,ZGSZ 010500Z 28004MPS 5000 HZ FEW028 32/26 Q1005 NOSIG
ZGSZ,2017-09-01 06:00,ZGSZ 010600Z 28004MPS 5000 HZ FEW028 33/26 Q1004 NOSIG
ZGSZ,2017-09-01 07:00,ZGSZ 010700Z 29005MPS 8000 NSC 33/26 Q1003 NOSIG
ZGSZ,2017-09-01 08:00,ZGSZ 010800Z 30005MPS 9999 FEW030 SCT050 33/26 Q1003 NOSIG
ZGSZ,2017-09-01 09:00,ZGSZ 010900Z 30005MPS 9999 SCT030TCU SCT050 33/26 Q1003 BECMG AT0920 TSRA
ZGSZ,2017-09-01 10:00,ZGSZ 011000Z 16005MPS 9999 FEW027TCU SCT033 28/24 Q1004 RETS BECMG AT1140 30005MPS
ZGSZ,2017-09-01 11:00,ZGSZ 011100Z 13008MPS 9999 SCT020 FEW023CB SCT040 29/25 Q1005 BECMG AT1120 30005MPS 2500 TSRA
ZGSZ,2017-09-01 12:00,ZGSZ 011200Z 12005MPS 9999 FEW030CB FEW046 27/25 Q1006 NOSIG
ZGSZ,2017-09-01 13:00,ZGSZ 011300Z 13004MPS 9999 SCT033 27/25 Q1006 NOSIG
ZGSZ,2017-09-01 14:00,ZGSZ 011400Z 16003MPS 120V180 9999 SCT050 28/25 Q1006 NOSIG
ZGSZ,2017-09-01 15:00,ZGSZ 011500Z VRB01MPS 8000 FEW050 28/25 Q1005 NOSIG
ZGSZ,2017-09-01 16:00,ZGSZ 011600Z 05002MPS 360V120 8000 NSC 28/25 Q1005 NOSIG
ZGSZ,2017-09-01 17:00,ZGSZ 011700Z 28002MPS 6000 NSC 28/26 Q1004 NOSIG
ZGSZ,2017-09-01 18:00,ZGSZ 011800Z VRB01MPS 6000 NSC 28/25 Q1004 NOSIG
ZGSZ,2017-09-01 19:00,ZGSZ 011900Z 09002MPS 6000 NSC 27/25 Q1004 NOSIG
ZGSZ,2017-09-01 20:00,ZGSZ 012000Z VRB01MPS 6000 NSC 28/25 Q1003 NOSIG
ZGSZ,2017-09-01 21:00,ZGSZ 012100Z 34002MPS 320V020 7000 NSC 27/26 Q1004 NOSIG
ZGSZ,2017-09-01 22:00,ZGSZ 012200Z 08002MPS 7000 FEW046 27/25 Q1004 NOSIG
ZGSZ,2017-09-01 23:00,ZGSZ 012300Z 06003MPS 040V110 5000 BR FEW023 28/26 Q1005 NOSIG
ZGSZ,2017-09-02 00:00,ZGSZ 020000Z 08002MPS 050V110 5000 BR FEW033 28/26 Q1005 NOSIG
ZGSZ,2017-09-02 01:00,ZGSZ 020100Z 09002MPS 030V140 5000 BR NSC 29/25 Q1005 NOSIG
ZGSZ,2017-09-02 02:00,ZGSZ 020200Z 26002MPS 230V290 4000 BR NSC 30/26 Q1005 NOSIG
ZGSZ,2017-09-02 03:00,ZGSZ 020300Z 28003MPS 3500 BR FEW020 31/26 Q1005 NOSIG
ZGSZ,2017-09-02 04:00,ZGSZ 020400Z 23002MPS 200V260 3000 BR FEW020 31/26 Q1004 NOSIG
ZGSZ,2017-09-02 05:00,ZGSZ 020500Z 22002MPS 3000 BR SCT020 31/27 Q1004 NOSIG
ZGSZ,2017-09-02 06:00,ZGSZ 020600Z 23002MPS 190V260 3500 HZ SCT026 32/26 Q1003 NOSIG
ZGSZ,2017-09-02 07:00,ZGSZ 020700Z VRB01MPS 3500 HZ SCT030 32/27 Q1002 NOSIG
ZGSZ,2017-09-02 08:00,ZGSZ 020800Z 21003MPS 3500 SHRA BR FEW025CB BKN050 31/26 Q1002 NOSIG
ZGSZ,2017-09-02 09:00,ZGSZ 020900Z 20003MPS 150V260 4000 -TSRA BR FEW012 FEW025CB BKN050 29/26 Q1003 BECMG AT0930 -SHRA
ZGSZ,2017-09-02 10:00,ZGSZ 021000Z 19005MPS 9999 FEW040CB 28/25 Q1003 NOSIG
ZGSZ,2017-09-02 11:00,ZGSZ 021100Z 21004MPS 180V240 CAVOK 28/25 Q1004 NOSIG
ZGSZ,2017-09-02 12:00,ZGSZ 021200Z 17003MPS 140V210 CAVOK 27/25 Q1004 NOSIG
ZGSZ,2017-09-02 13:00,ZGSZ 021300Z 15003MPS 9999 TS FEW025CB 28/25 Q1005 BECMG AT1340 NSW
ZGSZ,2017-09-02 14:00,ZGSZ 021400Z 16003MPS 130V190 9999 -SHRA FEW020 FEW033CB 28/25 Q1005 NOSIG
ZGSZ,2017-09-02 15:00,ZGSZ 021500Z 11002MPS 070V130 6000 NSC 28/25 Q1006 NOSIG
ZGSZ,2017-09-02 16:00,ZGSZ 021600Z 13003MPS 3500 BR NSC 28/25 Q1006 NOSIG
ZGSZ,2017-09-02 17:00,ZGSZ 021700Z 00000MPS 6000 NSC 28/25 Q1005 NOSIG
ZGSZ,2017-09-02 18:00,ZGSZ 021800Z 20002MPS 8000 NSC 28/25 Q1005 NOSIG
ZGSZ,2017-09-02 19:00,ZGSZ 021900Z 25002MPS 210V280 9999 FEW010 28/25 Q1005 NOSIG
ZGSZ,2017-09-02 20:00,ZGSZ 022000Z 22003MPS 190V260 CAVOK 28/26 Q1005 NOSIG
ZGSZ,2017-09-02 21:00,ZGSZ 022100Z 23002MPS CAVOK 28/25 Q1005 NOSIG
ZGSZ,2017-09-02 22:00,ZGSZ 022200Z VRB01MPS 9999 FEW033 28/25 Q1005 NOSIG
ZGSZ,2017-09-02 23:00,ZGSZ 022300Z 00000MPS 9000 FEW020 SCT040 28/26 Q1006 NOSIG
ZGSZ,2017-09-03 00:00,ZGSZ 030000Z 34002MPS 310V010 5000 BR FEW020 SCT040 30/27 Q1006 NOSIG
ZGSZ,2017-09-03 01:00,ZGSZ 030100Z 31004MPS 7000 NSC 30/26 Q1006 NOSIG
ZGSZ,2017-09-03 02:00,ZGSZ 030200Z 29004MPS 2600 BR NSC 30/27 Q1007 NOSIG
ZGSZ,2017-09-03 03:00,ZGSZ 030300Z 28005MPS 3800 BR NSC 31/27 Q1006 NOSIG
ZGSZ,2017-09-03 04:00,ZGSZ 030400Z 29005MPS 6000 NSC 31/26 Q1006 NOSIG
ZGSZ,2017-09-03 05:00,ZGSZ 030500Z 28005MPS 6000 NSC 32/27 Q1005 NOSIG
ZGSZ,2017-09-03 06:00,ZGSZ 030600Z 28004MPS 6000 NSC 32/26 Q1004 NOSIG
ZGSZ,2017-09-03 07:00,ZGSZ 030700Z 29004MPS 8000 NSC 32/26 Q1004 NOSIG
ZGSZ,2017-09-03 08:00,ZGSZ 030800Z 28003MPS 3600 HZ NSC 32/27 Q1003 NOSIG
ZGSZ,2017-09-03 09:00,ZGSZ 030900Z 27003MPS 3600 BR FEW023 32/27 Q1003 BECMG AT1030 SHRA
ZGSZ,2017-09-03 10:00,ZGSZ 031000Z 02002MPS 290V080 2000 -TSRA BR FEW025CB BKN043 31/27 Q1003 BECMG AT1040 -SHRA
ZGSZ,2017-09-03 11:00,ZGSZ 031100Z VRB01MPS 9999 -TSRA FEW012 FEW023CB BKN043 25/25 Q1004 RESHRA BECMG AT1120 -SHRA
ZGSZ,2017-09-03 12:00,ZGSZ 031200Z 17004MPS 9999 -SHRA SCT033 28/26 Q1005 NOSIG
ZGSZ,2017-09-03 13:00,ZGSZ 031300Z 23004MPS 9999 -SHRA SCT043 28/26 Q1006 NOSIG
ZGSZ,2017-09-03 14:00,ZGSZ 031400Z 27005MPS CAVOK 28/25 Q1006 NOSIG
ZGSZ,2017-09-03 15:00,ZGSZ 031500Z 29004MPS CAVOK 27/25 Q1006 NOSIG
ZGSZ,2017-09-03 16:00,ZGSZ 031600Z 29005MPS CAVOK 28/26 Q1006 NOSIG
ZGSZ,2017-09-03 17:00,ZGSZ 031700Z 30004MPS 9999 BKN050 28/26 Q1005 NOSIG
ZGSZ,2017-09-03 18:00,ZGSZ 031800Z 29004MPS 9999 -SHRA BKN050 28/26 Q1005 NOSIG
ZGSZ,2017-09-03 19:00,ZGSZ 031900Z 28004MPS 9999 BKN050 28/26 Q1005 NOSIG
ZGSZ,2017-09-03 20:00,ZGSZ 032000Z 23004MPS 210V280 3500 SHRA FEW012 FEW020CB BKN050 27/26 Q1004 BECMG AT2030 -SHRA
ZGSZ,2017-09-03 21:00,ZGSZ 032100Z 21004MPS 9999 SCT011 BKN033 28/26 Q1004 NOSIG
ZGSZ,2017-09-03 22:00,ZGSZ 032200Z 20007MPS 6000 -SHRA SCT011 BKN033 27/25 Q1005 BECMG AT2320 2500 SHRA
ZGSZ,2017-09-03 23:00,ZGSZ 032300Z 22010MPS 9999 -SHRA BKN010 BKN033 27/25 Q1005 BECMG AT2340 2500 SHRA SCT010 BKN033
ZGSZ,2017-09-04 00:00,ZGSZ 040000Z 22009MPS 4500 -SHRA SCT010 FEW023TCU BKN030 27/26 Q1006 RESHRA BECMG AT0040 2500 SHRA
ZGSZ,2017-09-04 01:00,ZGSZ 040100Z 21010MPS 5000 -SHRA SCT007 FEW023TCU BKN030 27/26 Q1006 BECMG TL0130 BKN010
ZGSZ,2017-09-04 02:00,ZGSZ 040200Z 22008MPS 7000 -SHRA BKN013 FEW023TCU BKN033 27/26 Q1007 BECMG TL0315 BKN016
ZGSZ,2017-09-04 03:00,ZGSZ 040300Z 22008MPS 5000 -SHRA BKN010 FEW023CB BKN030 27/26 Q1007 RETSRA BECMG TL0315 BKN016
ZGSZ,2017-09-04 04:00,ZGSZ 040400Z 22007MPS 190V250 3000 SHRA FEW010 SCT016 FEW023CB BKN040 26/25 Q1007 RETS NOSIG
ZGSZ,2017-09-04 05:00,ZGSZ 040500Z 21007MPS 8000 -SHRA SCT016 FEW025CB BKN033 27/25 Q1006 BECMG AT0535 SHRA
ZGSZ,2017-09-04 06:00,ZGSZ 040600Z 22007MPS 8000 -SHRA SCT006 FEW020CB BKN033 26/25 Q1006 RESHRA BECMG TL0635 SHRA
ZGSZ,2017-09-04 07:00,ZGSZ 040700Z 23005MPS 200V260 9999 -SHRA FEW016 BKN033 27/25 Q1005 NOSIG
ZGSZ,2017-09-04 08:00,ZGSZ 040800Z 19004MPS 9999 -SHRA FEW016 OVC053 27/25 Q1005 NOSIG
ZGSZ,2017-09-04 09:00,ZGSZ 040900Z 17005MPS 9000 -SHRA FEW012 OVC053 27/25 Q1005 NOSIG
ZGSZ,2017-09-04 10:00,ZGSZ 041000Z 19004MPS 9999 FEW015 OVC053 27/25 Q1006 NOSIG
ZGSZ,2017-09-04 11:00,ZGSZ 041100Z 18005MPS 9999 SCT015 BKN053 27/26 Q1006 NOSIG
ZGSZ,2017-09-04 12:00,ZGSZ 041200Z 19005MPS 9999 -RA BKN012 BKN053 28/26 Q1007 BECMG AT1350 SCT013 BKN053
ZGSZ,2017-09-04 13:00,ZGSZ 041300Z 18006MPS 9999 -RA SCT020 27/26 Q1008 BECMG AT1350 SCT013 BKN053
ZGSZ,2017-09-04 14:00,ZGSZ 041400Z 17004MPS CAVOK 28/26 Q1008 NOSIG
ZGSZ,2017-09-04 15:00,ZGSZ 041500Z 16005MPS CAVOK 28/26 Q1008 NOSIG
ZGSZ,2017-09-04 16:00,ZGSZ 041600Z 16004MPS CAVOK 28/26 Q1008 NOSIG
ZGSZ,2017-09-04 17:00,ZGSZ 041700Z 16002MPS 9999 SCT015 28/26 Q1008 NOSIG
ZGSZ,2017-09-04 18:00,ZGSZ 041800Z 13003MPS 9999 SCT013 28/26 Q1008 NOSIG
ZGSZ,2017-09-04 19:00,ZGSZ 041900Z VRB01MPS 9999 SCT013 27/26 Q1007 NOSIG
ZGSZ,2017-09-04 20:00,ZGSZ 042000Z 13003MPS 9999 FEW013 28/26 Q1007 NOSIG
ZGSZ,2017-09-04 21:00,ZGSZ 042100Z 13003MPS 9999 SCT015 27/26 Q1007 NOSIG
ZGSZ,2017-09-04 22:00,ZGSZ 042200Z 14002MPS 9999 BKN016 27/26 Q1008 NOSIG
ZGSZ,2017-09-04 23:00,ZGSZ 042300Z 15003MPS 9999 SCT011 SCT020 28/27 Q1008 NOSIG
ZGSZ,2017-09-05 00:00,ZGSZ 050000Z 14004MPS 9999 SCT011 FEW023TCU 28/27 Q1009 NOSIG
ZGSZ,2017-09-05 01:00,ZGSZ 050100Z 18006MPS 9999 FEW011 FEW020TCU 28/26 Q1009 NOSIG
ZGSZ,2017-09-05 02:00,ZGSZ 050200Z 16005MPS 9999 FEW018 29/26 Q1009 NOSIG
ZGSZ,2017-09-05 03:00,ZGSZ 050300Z 16004MPS 9999 FEW020CB 29/26 Q1009 NOSIG
ZGSZ,2017-09-05 04:00,ZGSZ 050400Z 16004MPS 9999 FEW023 29/26 Q1009 NOSIG
ZGSZ,2017-09-05 05:00,ZGSZ 050500Z 16005MPS 9999 FEW026TCU 30/28 Q1008 NOSIG
ZGSZ,2017-09-05 06:00,ZGSZ 050600Z 17006MPS 9999 FEW020 FEW026TCU 31/28 Q1007 NOSIG
ZGSZ,2017-09-05 07:00,ZGSZ 050700Z 17006MPS 9999 FEW020 FEW026CB 31/27 Q1007 BECMG AT0820 TSRA
ZGSZ,2017-09-05 08:00,ZGSZ 050800Z 18007MPS 9999 FEW014 FEW020CB 30/27 Q1006 NOSIG
ZGSZ,2017-09-05 09:00,ZGSZ 050900Z 17005MPS 9999 FEW020 30/27 Q1006 NOSIG
ZGSZ,2017-09-05 10:00,ZGSZ 051000Z 17005MPS 9999 FEW020 29/27 Q1006 NOSIG
ZGSZ,2017-09-05 11:00,ZGSZ 051100Z 16005MPS 9999 FEW020 29/27 Q1007 NOSIG
ZGSZ,2017-09-05 12:00,ZGSZ 051200Z 17005MPS CAVOK 29/27 Q1008 NOSIG
ZGSZ,2017-09-05 13:00,ZGSZ 051300Z 15004MPS 9999 FEW020 29/27 Q1008 NOSIG
ZGSZ,2017-09-05 14:00,ZGSZ 051400Z 15003MPS 9999 FEW020 28/26 Q1009 NOSIG
ZGSZ,2017-09-05 15:00,ZGSZ 051500Z 15004MPS 9999 FEW020 28/26 Q1009 NOSIG
ZGSZ,2017-09-05 16:00,ZGSZ 051600Z 16002MPS 9999 FEW020 28/26 Q1008 NOSIG
ZGSZ,2017-09-05 17:00,ZGSZ 051700Z 15003MPS 9999 FEW020 28/26 Q1007 NOSIG
ZGSZ,2017-09-05 18:00,ZGSZ 051800Z 16002MPS 9999 FEW020 28/26 Q1007 NOSIG
ZGSZ,2017-09-05 19:00,ZGSZ 051900Z 15003MPS 9999 FEW020 FEW023CB SCT033 28/26 Q1007 NOSIG
ZGSZ,2017-09-05 20:00,ZGSZ 052000Z VRB01MPS 9999 SCT012 BKN033 28/27 Q1007 NOSIG
ZGSZ,2017-09-05 21:00,ZGSZ 052100Z 23005MPS 9999 -SHRA SCT012 BKN033 26/25 Q1007 BECMG AT2135 SHRA
ZGSZ,2017-09-05 22:00,ZGSZ 052200Z 16005MPS 4000 SHRA SCT012 FEW020CB BKN033 26/26 Q1008 BECMG TL2225 -SHRA
ZGSZ,2017-09-05 23:00,ZGSZ 052300Z 10002MPS 070V140 9999 -SHRA FEW012 BKN050 27/25 Q1008 NOSIG
ZGSZ,2017-09-06 00:00,ZGSZ 060000Z 16002MPS 9999 FEW015 28/26 Q1008 NOSIG
ZGSZ,2017-09-06 01:00,ZGSZ 060100Z 21002MPS 9999 FEW015 29/26 Q1008 NOSIG
ZGSZ,2017-09-06 02:00,ZGSZ 060200Z 20002MPS CAVOK 30/27 Q1008 NOSIG
ZGSZ,2017-09-06 03:00,ZGSZ 060300Z 19003MPS 160V220 9999 FEW015 30/27 Q1008 NOSIG
ZGSZ,2017-09-06 04:00,ZGSZ 060400Z 26002MPS 210V290 CAVOK 30/27 Q1007 NOSIG
ZGSZ,2017-09-06 05:00,ZGSZ 060500Z 22003MPS CAVOK 31/27 Q1007 NOSIG
ZGSZ,2017-09-06 06:00,ZGSZ 060600Z 22003MPS 9999 FEW020TCU 31/27 Q1006 NOSIG
ZGSZ,2017-09-06 07:00,ZGSZ 060700Z 19004MPS 9999 FEW020TCU 31/26 Q1005 NOSIG
ZGSZ,2017-09-06 08:00,ZGSZ 060800Z 18004MPS 9999 FEW020TCU FEW033 31/26 Q1006 BECMG AT0840 TSRA FEW020CB BKN030
ZGSZ,2017-09-06 09:00,ZGSZ 060900Z 21004MPS 180V240 9999 -SHRA FEW025TCU SCT033 30/26 Q1006 NOSIG
ZGSZ,2017-09-06 10:00,ZGSZ 061000Z 18003MPS 9999 FEW050 29/26 Q1005 NOSIG
ZGSZ,2017-09-06 11:00,ZGSZ 061100Z 21003MPS 180V240 9999 FEW050 29/26 Q1006 NOSIG
ZGSZ,2017-09-06 12:00,ZGSZ 061200Z 18004MPS CAVOK 29/27 Q1007 NOSIG
ZGSZ,2017-09-06 13:00,ZGSZ 061300Z 16003MPS CAVOK 29/27 Q1008 NOSIG
ZGSZ,2017-09-06 14:00,ZGSZ 061400Z 16006MPS CAVOK 29/27 Q1009 NOSIG
ZGSZ,2017-09-06 15:00,ZGSZ 061500Z 19005MPS CAVOK 29/27 Q1008 NOSIG
ZGSZ,2017-09-06 16:00,ZGSZ 061600Z 17005MPS CAVOK 29/27 Q1008 NOSIG
ZGSZ,2017-09-06 17:00,ZGSZ 061700Z 18004MPS 9999 FEW033 29/27 Q1007 NOSIG
ZGSZ,2017-09-06 18:00,ZGSZ 061800Z 17004MPS 9999 FEW015 29/27 Q1007 NOSIG
ZGSZ,2017-09-06 19:00,ZGSZ 061900Z 17002MPS 9999 FEW017 29/27 Q1007 NOSIG
ZGSZ,2017-09-06 20:00,ZGSZ 062000Z 17003MPS 9999 FEW016 29/27 Q1007 NOSIG
ZGSZ,2017-09-06 21:00,ZGSZ 062100Z 16003MPS 9999 FEW011 29/27 Q1007 NOSIG
ZGSZ,2017-09-06 22:00,ZGSZ 062200Z 16003MPS CAVOK 28/27 Q1007 NOSIG
ZGSZ,2017-09-06 23:00,ZGSZ 062300Z 15002MPS CAVOK 29/27 Q1007 NOSIG
ZGSZ,2017-09-07 00:00,ZGSZ 070000Z 16002MPS 090V190 9999 FEW017 29/27 Q1008 NOSIG
ZGSZ,2017-09-07 01:00,ZGSZ 070100Z 16002MPS 140V200 9999 FEW017 30/26 Q1008 NOSIG
ZGSZ,2017-09-07 02:00,ZGSZ 070200Z 19003MPS 9999 FEW017 30/27 Q1009 NOSIG
ZGSZ,2017-09-07 03:00,ZGSZ 070300Z 18003MPS 6000 -SHRA FEW015 SCT033 30/27 Q1009 BECMG AT0340 SHRA
ZGSZ,2017-09-07 04:00,ZGSZ 070400Z 18004MPS 9999 -SHRA FEW020 30/27 Q1008 NOSIG
ZGSZ,2017-09-07 05:00,ZGSZ 070500Z 19004MPS 9999 FEW023 31/28 Q1008 NOSIG
ZGSZ,2017-09-07 06:00,ZGSZ 070600Z 19005MPS 9999 FEW023CB FEW023 30/27 Q1008 NOSIG
ZGSZ,2017-09-07 07:00,ZGSZ 070700Z 17004MPS 8000 -SHRA FEW012 FEW020CB BKN040 27/25 Q1008 NOSIG
ZGSZ,2017-09-07 08:00,ZGSZ 070800Z 23003MPS 200V280 9999 FEW017 SCT040 28/26 Q1008 NOSIG
ZGSZ,2017-09-07 09:00,ZGSZ 070900Z 18002MPS 150V210 9999 FEW020 SCT040 28/25 Q1007 NOSIG
ZGSZ,2017-09-07 10:00,ZGSZ 071000Z 16001MPS 9999 SCT040 28/24 Q1008 NOSIG
ZGSZ,2017-09-07 11:00,ZGSZ 071100Z 12003MPS CAVOK 28/25 Q1008 NOSIG
ZGSZ,2017-09-07 12:00,ZGSZ 071200Z 14002MPS 090V180 9999 FEW050 28/25 Q1008 NOSIG
ZGSZ,2017-09-07 13:00,ZGSZ 071300Z 13002MPS 100V160 9999 FEW050 28/25 Q1009 NOSIG
ZGSZ,2017-09-07 14:00,ZGSZ 071400Z 06002MPS 030V130 CAVOK 28/25 Q1009 NOSIG
ZGSZ,2017-09-07 15:00,ZGSZ 071500Z 12002MPS CAVOK 28/25 Q1009 NOSIG
ZGSZ,2017-09-07 16:00,ZGSZ 071600Z 17002MPS CAVOK 28/26 Q1009 NOSIG
ZGSZ,2017-09-07 17:00,ZGSZ 071700Z 08002MPS 040V130 CAVOK 28/25 Q1009 NOSIG
ZGSZ,2017-09-07 18:00,ZGSZ 071800Z 10003MPS 9999 FEW023 28/25 Q1009 NOSIG
ZGSZ,2017-09-07 19:00,ZGSZ 071900Z 09002MPS 9999 FEW023 27/25 Q1009 NOSIG
ZGSZ,2017-09-07 20:00,ZGSZ 072000Z 10002MPS CAVOK 27/25 Q1008 NOSIG
ZGSZ,2017-09-07 21:00,ZGSZ 072100Z 11002MPS CAVOK 27/25 Q1009 NOSIG
ZGSZ,2017-09-07 22:00,ZGSZ 072200Z 10002MPS CAVOK 27/25 Q1009 NOSIG
ZGSZ,2017-09-07 23:00,ZGSZ 072300Z 10003MPS 070V140 CAVOK 28/25 Q1010 NOSIG
ZGSZ,2017-09-08 00:00,ZGSZ 080000Z 12003MPS 9999 SCT040 29/25 Q1010 NOSIG
ZGSZ,2017-09-08 01:00,ZGSZ 080100Z 15003MPS 110V200 9999 SCT016 FEW030CB 30/25 Q1011 NOSIG
ZGSZ,2017-09-08 02:00,ZGSZ 080200Z 22004MPS 9999 FEW016 28/25 Q1011 NOSIG
ZGSZ,2017-09-08 03:00,ZGSZ 080300Z 17006MPS 9999 FEW015 28/25 Q1011 NOSIG
ZGSZ,2017-09-08 04:00,ZGSZ 080400Z 16004MPS 140V200 9999 FEW030 30/26 Q1010 NOSIG
ZGSZ,2017-09-08 05:00,ZGSZ 080500Z 17004MPS 9999 FEW023 FEW030TCU 30/26 Q1009 NOSIG
ZGSZ,2017-09-08 06:00,ZGSZ 080600Z 16004MPS 9999 FEW026 30/26 Q1008 NOSIG
ZGSZ,2017-09-08 07:00,ZGSZ 080700Z 18003MPS 9999 FEW026 30/26 Q1008 NOSIG
ZGSZ,2017-09-08 08:00,ZGSZ 080800Z 18004MPS 9999 FEW026 30/26 Q1007 NOSIG
ZGSZ,2017-09-08 09:00,ZGSZ 080900Z 17004MPS 9999 FEW023 30/26 Q1007 NOSIG
ZGSZ,2017-09-08 10:00,ZGSZ 081000Z 17005MPS CAVOK 29/25 Q1007 NOSIG
ZGSZ,2017-09-08 11:00,ZGSZ 081100Z 17005MPS CAVOK 29/26 Q1007 NOSIG
ZGSZ,2017-09-08 12:00,ZGSZ 081200Z 17005MPS CAVOK 29/26 Q1008 NOSIG
ZGSZ,2017-09-08 13:00,ZGSZ 081300Z 16005MPS CAVOK 29/26 Q1009 NOSIG
ZGSZ,2017-09-08 14:00,ZGSZ 081400Z 16004MPS 9999 BKN033 29/26 Q1009 NOSIG
ZGSZ,2017-09-08 15:00,ZGSZ 081500Z 14004MPS 9999 FEW040 29/25 Q1009 NOSIG
ZGSZ,2017-09-08 16:00,ZGSZ 081600Z 11003MPS CAVOK 28/26 Q1009 NOSIG
ZGSZ,2017-09-08 17:00,ZGSZ 081700Z 15004MPS 9999 FEW030 28/26 Q1009 NOSIG
ZGSZ,2017-09-08 18:00,ZGSZ 081800Z 17004MPS 9999 FEW020 29/26 Q1008 NOSIG
ZGSZ,2017-09-08 19:00,ZGSZ 081900Z 20004MPS 9999 -RA SCT017 28/26 Q1008 NOSIG
ZGSZ,2017-09-08 20:00,ZGSZ 082000Z 16004MPS 9999 FEW020 28/26 Q1008 NOSIG
ZGSZ,2017-09-08 21:00,ZGSZ 082100Z 15004MPS 9999 FEW013 27/26 Q1008 NOSIG
ZGSZ,2017-09-08 22:00,ZGSZ 082200Z 16003MPS 140V200 9999 SCT030 28/26 Q1008 NOSIG
ZGSZ,2017-09-08 23:00,ZGSZ 082300Z 20003MPS 9999 FEW020 29/26 Q1009 NOSIG
ZGSZ,2017-09-09 00:00,ZGSZ 090000Z 20002MPS 170V240 9999 FEW020 29/26 Q1009 NOSIG
ZGSZ,2017-09-09 01:00,ZGSZ 090100Z 17002MPS 130V200 9999 FEW020 30/26 Q1009 NOSIG
ZGSZ,2017-09-09 02:00,ZGSZ 090200Z 18003MPS CAVOK 30/27 Q1010 NOSIG
ZGSZ,2017-09-09 03:00,ZGSZ 090300Z 17003MPS 9999 SCT025 31/26 Q1009 NOSIG
ZGSZ,2017-09-09 04:00,ZGSZ 090400Z 18004MPS 9999 FEW025 SCT050 31/27 Q1009 NOSIG
ZGSZ,2017-09-09 05:00,ZGSZ 090500Z 18005MPS 9999 FEW025 FEW026TCU 30/27 Q1009 BECMG AT0535 SHRA
ZGSZ,2017-09-09 06:00,ZGSZ 090600Z 19006MPS 9999 FEW025 FEW026TCU 29/26 Q1008 NOSIG
ZGSZ,2017-09-09 07:00,ZGSZ 090700Z 17006MPS 9999 FEW025 30/26 Q1007 NOSIG
ZGSZ,2017-09-09 08:00,ZGSZ 090800Z 16006MPS 9999 FEW025 30/26 Q1007 NOSIG
ZGSZ,2017-09-09 09:00,ZGSZ 090900Z 16006MPS CAVOK 30/26 Q1007 NOSIG
ZGSZ,2017-09-09 10:00,ZGSZ 091000Z 16006MPS CAVOK 29/26 Q1007 NOSIG
ZGSZ,2017-09-09 11:00,ZGSZ 091100Z 16006MPS CAVOK 29/26 Q1008 NOSIG
ZGSZ,2017-09-09 12:00,ZGSZ 091200Z 16004MPS CAVOK 29/26 Q1008 NOSIG
ZGSZ,2017-09-09 13:00,ZGSZ 091300Z 15005MPS CAVOK 29/26 Q1009 NOSIG
ZGSZ,2017-09-09 14:00,ZGSZ 091400Z 15004MPS CAVOK 29/26 Q1009 NOSIG
ZGSZ,2017-09-09 15:00,ZGSZ 091500Z 13003MPS 100V180 CAVOK 29/26 Q1009 NOSIG
ZGSZ,2017-09-09 16:00,ZGSZ 091600Z 12003MPS CAVOK 29/26 Q1009 NOSIG
ZGSZ,2017-09-09 17:00,ZGSZ 091700Z 15004MPS CAVOK 29/25 Q1009 NOSIG
ZGSZ,2017-09-09 18:00,ZGSZ 091800Z 12002MPS 100V160 CAVOK 28/26 Q1009 NOSIG
ZGSZ,2017-09-09 19:00,ZGSZ 091900Z 13003MPS CAVOK 28/26 Q1009 NOSIG
ZGSZ,2017-09-09 20:00,ZGSZ 092000Z 11003MPS CAVOK 28/26 Q1009 NOSIG
ZGSZ,2017-09-09 21:00,ZGSZ 092100Z 15004MPS CAVOK 28/26 Q1009 NOSIG
ZGSZ,2017-09-09 22:00,ZGSZ 092200Z 17004MPS CAVOK 28/26 Q1009 NOSIG
ZGSZ,2017-09-09 23:00,ZGSZ 092300Z 14003MPS CAVOK 28/26 Q1010 NOSIG
ZGSZ,2017-09-10 00:00,ZGSZ 100000Z 12002MPS 090V150 9999 FEW020 29/26 Q1011 NOSIG
ZGSZ,2017-09-10 01:00,ZGSZ 100100Z 16005MPS 9999 FEW020 30/26 Q1011 NOSIG
ZGSZ,2017-09-10 02:00,ZGSZ 100200Z 16004MPS 9999 FEW020 30/26 Q1011 NOSIG
ZGSZ,2017-09-10 03:00,ZGSZ 100300Z 18004MPS 9999 FEW022TCU FEW022 31/27 Q1011 NOSIG
ZGSZ,2017-09-10 04:00,ZGSZ 100400Z 17004MPS 9999 FEW022TCU FEW022 31/27 Q1011 NOSIG
ZGSZ,2017-09-10 05:00,ZGSZ 100500Z 18005MPS 9999 FEW022TCU FEW022 31/27 Q1011 NOSIG
ZGSZ,2017-09-10 06:00,ZGSZ 100600Z 17005MPS 9999 FEW022 31/27 Q1010 NOSIG
ZGSZ,2017-09-10 07:00,ZGSZ 100700Z 16006MPS 9999 FEW022TCU FEW022 32/26 Q1009 NOSIG
ZGSZ,2017-09-10 08:00,ZGSZ 100800Z 16006MPS 9999 FEW022TCU FEW022 31/26 Q1008 NOSIG
ZGSZ,2017-09-10 09:00,ZGSZ 100900Z 17006MPS 9999 FEW020 31/25 Q1009 NOSIG
ZGSZ,2017-09-10 10:00,ZGSZ 101000Z 17006MPS 9999 FEW030TCU FEW050 30/25 Q1009 NOSIG
ZGSZ,2017-09-10 11:00,ZGSZ 101100Z 16005MPS CAVOK 30/25 Q1009 NOSIG
ZGSZ,2017-09-10 12:00,ZGSZ 101200Z 16005MPS CAVOK 29/25 Q1009 NOSIG
ZGSZ,2017-09-10 13:00,ZGSZ 101300Z 14005MPS CAVOK 30/26 Q1009 NOSIG
ZGSZ,2017-09-10 14:00,ZGSZ 101400Z 17004MPS CAVOK 30/25 Q1010 NOSIG
ZGSZ,2017-09-10 15:00,ZGSZ 101500Z 20003MPS CAVOK 29/26 Q1010 NOSIG
ZGSZ,2017-09-10 16:00,ZGSZ 101600Z 19004MPS CAVOK 29/26 Q1010 NOSIG
ZGSZ,2017-09-10 17:00,ZGSZ 101700Z 18004MPS CAVOK 29/26 Q1010 NOSIG
ZGSZ,2017-09-10 18:00,ZGSZ 101800Z 20002MPS CAVOK 29/26 Q1010 NOSIG
ZGSZ,2017-09-10 19:00,ZGSZ 101900Z 20003MPS CAVOK 29/26 Q1009 NOSIG
ZGSZ,2017-09-10 20:00,ZGSZ 102000Z 20002MPS 9999 FEW020 28/26 Q1009 NOSIG
ZGSZ,2017-09-10 21:00,ZGSZ 102100Z VRB01MPS 9999 FEW015 29/26 Q1009 NOSIG
ZGSZ,2017-09-10 22:00,ZGSZ 102200Z 22002MPS 200V270 9999 FEW015 28/26 Q1009 NOSIG
ZGSZ,2017-09-10 23:00,ZGSZ 102300Z VRB01MPS 9999 FEW015 29/26 Q1010 NOSIG
ZGSZ,2017-09-11 00:00,ZGSZ 110000Z VRB01MPS 9999 FEW015 29/26 Q1010 NOSIG
ZGSZ,2017-09-11 01:00,ZGSZ 110100Z VRB01MPS 9999 FEW020 30/26 Q1010 NOSIG
ZGSZ,2017-09-11 02:00,ZGSZ 110200Z 23002MPS 190V260 9999 FEW020 31/26 Q1011 NOSIG
ZGSZ,2017-09-11 03:00,ZGSZ 110300Z 23002MPS 200V270 9999 FEW020 31/26 Q1010 NOSIG
ZGSZ,2017-09-11 04:00,ZGSZ 110400Z 25002MPS 220V290 9999 FEW020 32/26 Q1010 NOSIG
ZGSZ,2017-09-11 05:00,ZGSZ 110500Z 23002MPS 180V290 9999 FEW020 32/26 Q1009 NOSIG
ZGSZ,2017-09-11 06:00,ZGSZ 110600Z 20002MPS 180V240 9999 FEW020 32/26 Q1008 NOSIG
ZGSZ,2017-09-11 07:00,ZGSZ 110700Z 20004MPS CAVOK 32/26 Q1008 NOSIG
ZGSZ,2017-09-11 08:00,ZGSZ 110800Z 19004MPS CAVOK 32/26 Q1007 NOSIG
ZGSZ,2017-09-11 09:00,ZGSZ 110900Z 19005MPS CAVOK 31/27 Q1007 NOSIG
ZGSZ,2017-09-11 10:00,ZGSZ 111000Z 19005MPS CAVOK 31/27 Q1008 NOSIG
ZGSZ,2017-09-11 11:00,ZGSZ 111100Z 18005MPS CAVOK 31/27 Q1008 NOSIG
ZGSZ,2017-09-11 12:00,ZGSZ 111200Z 18006MPS CAVOK 30/26 Q1009 NOSIG
ZGSZ,2017-09-11 13:00,ZGSZ 111300Z 18005MPS CAVOK 30/26 Q1010 NOSIG
ZGSZ,2017-09-11 14:00,ZGSZ 111400Z 20004MPS CAVOK 30/26 Q1011 NOSIG
ZGSZ,2017-09-11 15:00,ZGSZ 111500Z 19003MPS 9999 FEW033 30/26 Q1010 NOSIG
ZGSZ,2017-09-11 16:00,ZGSZ 111600Z 19002MPS CAVOK 30/26 Q1010 NOSIG
ZGSZ,2017-09-11 17:00,ZGSZ 111700Z VRB01MPS CAVOK 30/25 Q1009 NOSIG
ZGSZ,2017-09-11 18:00,ZGSZ 111800Z VRB01MPS CAVOK 29/26 Q1009 NOSIG
ZGSZ,2017-09-11 19:00,ZGSZ 111900Z 16002MPS CAVOK 28/26 Q1008 NOSIG
ZGSZ,2017-09-11 20:00,ZGSZ 112000Z 24002MPS 200V270 CAVOK 29/26 Q1009 NOSIG
ZGSZ,2017-09-11 21:00,ZGSZ 112100Z 30003MPS 270V330 CAVOK 29/26 Q1009 NOSIG
ZGSZ,2017-09-11 22:00,ZGSZ 112200Z 31004MPS CAVOK 29/27 Q1010 NOSIG
ZGSZ,2017-09-11 23:00,ZGSZ 112300Z 32004MPS 9999 FEW017 BKN026 29/26 Q1010 NOSIG
ZGSZ,2017-09-12 00:00,ZGSZ 120000Z 34004MPS 9999 FEW023 30/27 Q1010 NOSIG
ZGSZ,2017-09-12 01:00,ZGSZ 120100Z 31003MPS 6000 FEW030 31/27 Q1011 NOSIG
ZGSZ,2017-09-12 02:00,ZGSZ 120200Z 29004MPS 4000 BR SCT026 31/27 Q1011 NOSIG
ZGSZ,2017-09-12 03:00,ZGSZ 120300Z 29005MPS 7000 SCT030 32/28 Q1010 NOSIG
ZGSZ,2017-09-12 04:00,ZGSZ 120400Z 29005MPS 4000 BR FEW026TCU SCT026 33/28 Q1010 NOSIG
ZGSZ,2017-09-12 05:00,ZGSZ 120500Z 29005MPS 6000 FEW026TCU SCT026 32/27 Q1009 NOSIG
ZGSZ,2017-09-12 06:00,ZGSZ 120600Z 30004MPS 8000 FEW026TCU SCT026 34/28 Q1008 NOSIG
ZGSZ,2017-09-12 07:00,ZGSZ 120700Z 29004MPS 9999 FEW033TCU SCT033 34/27 Q1007 NOSIG
ZGSZ,2017-09-12 08:00,ZGSZ 120800Z 28004MPS 9999 FEW033TCU FEW033 34/27 Q1007 NOSIG
ZGSZ,2017-09-12 09:00,ZGSZ 120900Z 26005G11MPS 230V290 9999 FEW033TCU SCT033 32/25 Q1007 NOSIG
ZGSZ,2017-09-12 10:00,ZGSZ 121000Z 30008G13MPS 9999 SCT020 FEW030CB BKN050 31/24 Q1008 RETS NOSIG
ZGSZ,2017-09-12 11:00,ZGSZ 121100Z VRB01MPS CAVOK 30/24 Q1008 NOSIG
ZGSZ,2017-09-12 12:00,ZGSZ 121200Z 09004MPS CAVOK 31/24 Q1008 NOSIG
ZGSZ,2017-09-12 13:00,ZGSZ 121300Z 11002MPS 060V130 CAVOK 31/25 Q1009 NOSIG
ZGSZ,2017-09-12 14:00,ZGSZ 121400Z 00000MPS 9999 FEW030 31/25 Q1010 NOSIG
ZGSZ,2017-09-12 15:00,ZGSZ 121500Z 04001MPS 9999 BKN046 30/25 Q1010 NOSIG
ZGSZ,2017-09-12 16:00,ZGSZ 121600Z 06003MPS CAVOK 30/24 Q1010 NOSIG
ZGSZ,2017-09-12 17:00,ZGSZ 121700Z 06003MPS CAVOK 30/23 Q1010 NOSIG
ZGSZ,2017-09-12 18:00,ZGSZ 121800Z VRB01MPS CAVOK 30/23 Q1009 NOSIG
ZGSZ,2017-09-12 19:00,ZGSZ 121900Z VRB01MPS CAVOK 29/24 Q1009 NOSIG
ZGSZ,2017-09-12 20:00,ZGSZ 122000Z 05003MPS CAVOK 29/24 Q1009 NOSIG
ZGSZ,2017-09-12 21:00,ZGSZ 122100Z 04002MPS CAVOK 29/24 Q1010 NOSIG
ZGSZ,2017-09-12 22:00,ZGSZ 122200Z 05002MPS CAVOK 29/24 Q1010 NOSIG
ZGSZ,2017-09-12 23:00,ZGSZ 122300Z 06003MPS 9999 FEW036 29/24 Q1010 NOSIG
ZGSZ,2017-09-13 00:00,ZGSZ 130000Z 06003MPS CAVOK 30/24 Q1011 NOSIG
ZGSZ,2017-09-13 01:00,ZGSZ 130100Z 05005MPS 020V080 9999 FEW030 31/25 Q1011 NOSIG
ZGSZ,2017-09-13 02:00,ZGSZ 130200Z 03004MPS 360V060 9999 FEW030 31/25 Q1011 NOSIG
ZGSZ,2017-09-13 03:00,ZGSZ 130300Z 04006MPS 360V060 9999 SCT030 FEW033TCU 32/25 Q1011 NOSIG
ZGSZ,2017-09-13 04:00,ZGSZ 130400Z 05005MPS 020V080 9999 FEW030 32/25 Q1010 NOSIG
ZGSZ,2017-09-13 05:00,ZGSZ 130500Z 07005MPS 010V110 9999 FEW030 34/25 Q1009 NOSIG
ZGSZ,2017-09-13 06:00,ZGSZ 130600Z 04005MPS 9999 FEW033TCU 33/25 Q1008 NOSIG
ZGSZ,2017-09-13 07:00,ZGSZ 130700Z 07004MPS 020V110 9999 FEW033 34/24 Q1008 NOSIG
ZGSZ,2017-09-13 08:00,ZGSZ 130800Z 19003MPS 150V230 9999 SCT033 32/26 Q1007 NOSIG
ZGSZ,2017-09-13 09:00,ZGSZ 130900Z 24003MPS 210V270 9999 SCT026 FEW030TCU 32/26 Q1007 BECMG AT0920 06006MPS 2500 TSRA
ZGSZ,2017-09-13 10:00,ZGSZ 131000Z 14006MPS 110V170 9999 SCT023 FEW026CB 31/25 Q1007 NOSIG
ZGSZ,2017-09-13 11:00,ZGSZ 131100Z 16004MPS 9999 FEW023 29/25 Q1008 NOSIG
ZGSZ,2017-09-13 12:00,ZGSZ 131200Z 12005MPS 9999 SCT050 30/25 Q1009 BECMG AT1220 05005MPS SHRA
ZGSZ,2017-09-13 13:00,ZGSZ 131300Z VRB01MPS 9999 TS FEW030CB 28/26 Q1009 NOSIG
ZGSZ,2017-09-13 14:00,ZGSZ 131400Z 07002MPS 030V120 9999 SCT030 29/25 Q1009 BECMG AT1420 SHRA
ZGSZ,2017-09-13 15:00,ZGSZ 131500Z 06002MPS 350V120 CAVOK 29/26 Q1009 NOSIG
ZGSZ,2017-09-13 16:00,ZGSZ 131600Z 08003MPS 040V110 9999 SCT040 29/25 Q1009 NOSIG
ZGSZ,2017-09-13 17:00,ZGSZ 131700Z 06002MPS 9999 BKN040 29/26 Q1009 NOSIG
ZGSZ,2017-09-13 18:00,ZGSZ 131800Z 10002MPS 060V170 9999 FEW025 BKN040 28/26 Q1008 NOSIG
ZGSZ,2017-09-13 19:00,ZGSZ 131900Z 12003MPS 9999 SCT023 BKN040 28/26 Q1008 NOSIG
ZGSZ,2017-09-13 20:00,ZGSZ 132000Z 10003MPS 9999 BKN040 28/25 Q1008 NOSIG
ZGSZ,2017-09-13 21:00,ZGSZ 132100Z 12004MPS 9999 FEW020 27/24 Q1008 NOSIG
ZGSZ,2017-09-13 22:00,ZGSZ 132200Z 07003MPS 040V120 CAVOK 28/24 Q1008 NOSIG
ZGSZ,2017-09-13 23:00,ZGSZ 132300Z 06003MPS 030V100 CAVOK 28/24 Q1009 NOSIG
ZGSZ,2017-09-14 00:00,ZGSZ 140000Z 07004MPS 050V110 CAVOK 29/22 Q1009 NOSIG
ZGSZ,2017-09-14 01:00,ZGSZ 140100Z 04004MPS CAVOK 30/23 Q1010 NOSIG
ZGSZ,2017-09-14 02:00,ZGSZ 140200Z 06005MPS 020V090 CAVOK 31/24 Q1009 NOSIG
ZGSZ,2017-09-14 03:00,ZGSZ 140300Z 02005MPS 350V050 9999 SCT027 32/25 Q1009 NOSIG
ZGSZ,2017-09-14 04:00,ZGSZ 140400Z 06004MPS 010V100 9999 BKN027 32/25 Q1009 NOSIG
ZGSZ,2017-09-14 05:00,ZGSZ 140500Z 05004MPS 030V100 9999 BKN027 32/24 Q1008 NOSIG
ZGSZ,2017-09-14 06:00,ZGSZ 140600Z 05004MPS 020V080 9999 BKN027 32/24 Q1007 NOSIG
ZGSZ,2017-09-14 07:00,ZGSZ 140700Z 06004MPS 010V090 9999 BKN027 32/24 Q1006 NOSIG
ZGSZ,2017-09-14 08:00,ZGSZ 140800Z 07003MPS 350V120 9999 SCT027 32/24 Q1006 NOSIG
ZGSZ,2017-09-14 09:00,ZGSZ 140900Z 18005MPS 9999 FEW030 31/24 Q1006 BECMG AT1040 08004MPS
ZGSZ,2017-09-14 10:00,ZGSZ 141000Z 16005MPS CAVOK 31/25 Q1006 NOSIG
ZGSZ,2017-09-14 11:00,ZGSZ 141100Z 12005MPS CAVOK 30/21 Q1007 NOSIG
ZGSZ,2017-09-14 12:00,ZGSZ 141200Z 08002MPS 050V110 9999 SCT033 30/22 Q1008 NOSIG
ZGSZ,2017-09-14 13:00,ZGSZ 141300Z 10003MPS 060V140 CAVOK 29/21 Q1008 NOSIG
ZGSZ,2017-09-14 14:00,ZGSZ 141400Z 08002MPS 050V120 CAVOK 29/22 Q1009 NOSIG
ZGSZ,2017-09-14 15:00,ZGSZ 141500Z 05002MPS 020V090 CAVOK 29/22 Q1009 NOSIG
ZGSZ,2017-09-14 16:00,ZGSZ 141600Z 06002MPS 040V120 9999 BKN040 29/22 Q1009 NOSIG
ZGSZ,2017-09-14 17:00,ZGSZ 141700Z 08002MPS 040V140 9999 SCT040 29/22 Q1009 NOSIG
ZGSZ,2017-09-14 18:00,ZGSZ 141800Z 12003MPS 9999 SCT040 28/22 Q1009 NOSIG
ZGSZ,2017-09-14 19:00,ZGSZ 141900Z 12003MPS 9999 SCT040 28/22 Q1009 NOSIG
ZGSZ,2017-09-14 20:00,ZGSZ 142000Z 09002MPS 060V120 CAVOK 28/22 Q1008 NOSIG
ZGSZ,2017-09-14 21:00,ZGSZ 142100Z 04003MPS CAVOK 28/22 Q1009 NOSIG
ZGSZ,2017-09-14 22:00,ZGSZ 142200Z 05004MPS CAVOK 28/23 Q1009 NOSIG
ZGSZ,2017-09-14 23:00,ZGSZ 142300Z 04003MPS 020V100 CAVOK 28/23 Q1009 NOSIG
ZGSZ,2017-09-15 00:00,ZGSZ 150000Z VRB03MPS CAVOK 29/23 Q1010 NOSIG
ZGSZ,2017-09-15 01:00,ZGSZ 150100Z 04003MPS 360V080 CAVOK 29/24 Q1011 NOSIG
ZGSZ,2017-09-15 02:00,ZGSZ 150200Z 05003MPS 360V100 9999 FEW030 31/24 Q1011 NOSIG
ZGSZ,2017-09-15 03:00,ZGSZ 150300Z 01003MPS 340V040 9999 SCT030 32/24 Q1011 NOSIG
ZGSZ,2017-09-15 04:00,ZGSZ 150400Z 04003MPS 350V080 9999 SCT030 32/23 Q1010 NOSIG
ZGSZ,2017-09-15 05:00,ZGSZ 150500Z VRB03MPS 9999 BKN030 33/23 Q1009 NOSIG
ZGSZ,2017-09-15 06:00,ZGSZ 150600Z 31003MPS 250V030 9999 SCT046 33/23 Q1009 NOSIG
ZGSZ,2017-09-15 07:00,ZGSZ 150700Z VRB02MPS 9999 FEW053 34/22 Q1008 NOSIG
ZGSZ,2017-09-15 08:00,ZGSZ 150800Z 28004MPS 9999 BKN050 32/24 Q1008 NOSIG
ZGSZ,2017-09-15 09:00,ZGSZ 150900Z 29004MPS CAVOK 32/25 Q1008 NOSIG
ZGSZ,2017-09-15 10:00,ZGSZ 151000Z 20004MPS 9999 SCT050 31/25 Q1009 NOSIG
ZGSZ,2017-09-15 11:00,ZGSZ 151100Z 19004MPS 9999 SCT050 30/26 Q1009 NOSIG
ZGSZ,2017-09-15 12:00,ZGSZ 151200Z 19004MPS 9999 SCT050 30/26 Q1010 NOSIG
ZGSZ,2017-09-15 13:00,ZGSZ 151300Z 18004MPS 9999 SCT050 30/26 Q1010 NOSIG
ZGSZ,2017-09-15 14:00,ZGSZ 151400Z 19004MPS CAVOK 29/27 Q1011 NOSIG
ZGSZ,2017-09-15 15:00,ZGSZ 151500Z 19003MPS CAVOK 29/26 Q1011 NOSIG
ZGSZ,2017-09-15 16:00,ZGSZ 151600Z 20003MPS CAVOK 29/26 Q1011 NOSIG
ZGSZ,2017-09-15 17:00,ZGSZ 151700Z 27002MPS 240V310 CAVOK 29/26 Q1010 NOSIG
ZGSZ,2017-09-15 18:00,ZGSZ 151800Z 26002MPS 230V290 6000 NSC 29/26 Q1010 NOSIG
ZGSZ,2017-09-15 19:00,ZGSZ 151900Z 28002MPS 7000 NSC 29/26 Q1009 NOSIG
ZGSZ,2017-09-15 20:00,ZGSZ 152000Z 31003MPS 7000 NSC 29/25 Q1009 NOSIG
ZGSZ,2017-09-15 21:00,ZGSZ 152100Z 34003MPS 7000 NSC 29/24 Q1010 NOSIG
ZGSZ,2017-09-15 22:00,ZGSZ 152200Z VRB01MPS 7000 NSC 29/25 Q1010 NOSIG
ZGSZ,2017-09-15 23:00,ZGSZ 152300Z 03002MPS 8000 NSC 29/24 Q1011 NOSIG
ZGSZ,2017-09-16 00:00,ZGSZ 160000Z 02003MPS 360V060 CAVOK 31/22 Q1011 NOSIG
ZGSZ,2017-09-16 01:00,ZGSZ 160100Z 05003MPS 020V080 CAVOK 31/22 Q1012 NOSIG
ZGSZ,2017-09-16 02:00,ZGSZ 160200Z 05003MPS 020V080 CAVOK 32/21 Q1012 NOSIG
ZGSZ,2017-09-16 03:00,ZGSZ 160300Z 36004MPS 320V040 CAVOK 33/21 Q1011 NOSIG
ZGSZ,2017-09-16 04:00,ZGSZ 160400Z 31005MPS CAVOK 33/23 Q1010 NOSIG
ZGSZ,2017-09-16 05:00,ZGSZ 160500Z 28004MPS CAVOK 32/24 Q1009 NOSIG
ZGSZ,2017-09-16 06:00,ZGSZ 160600Z 29005MPS CAVOK 33/24 Q1009 NOSIG
ZGSZ,2017-09-16 07:00,ZGSZ 160700Z 29005MPS CAVOK 33/23 Q1008 NOSIG
ZGSZ,2017-09-16 08:00,ZGSZ 160800Z 28005MPS CAVOK 33/24 Q1008 BECMG AT0940 20005MPS
ZGSZ,2017-09-16 09:00,ZGSZ 160900Z 28003MPS CAVOK 33/23 Q1008 NOSIG
ZGSZ,2017-09-16 10:00,ZGSZ 161000Z 29002MPS CAVOK 33/24 Q1008 NOSIG
ZGSZ,2017-09-16 11:00,ZGSZ 161100Z 30002MPS CAVOK 32/25 Q1008 NOSIG
ZGSZ,2017-09-16 12:00,ZGSZ 161200Z 22003MPS CAVOK 31/26 Q1009 NOSIG
ZGSZ,2017-09-16 13:00,ZGSZ 161300Z 23003MPS 7000 NSC 31/26 Q1010 NOSIG
ZGSZ,2017-09-16 14:00,ZGSZ 161400Z 20002MPS 170V230 7000 NSC 30/27 Q1010 NOSIG
ZGSZ,2017-09-16 15:00,ZGSZ 161500Z 22001MPS 6000 NSC 30/27 Q1010 NOSIG
ZGSZ,2017-09-16 16:00,ZGSZ 161600Z 00000MPS 6000 NSC 29/27 Q1010 NOSIG
ZGSZ,2017-09-16 17:00,ZGSZ 161700Z 20001MPS 5000 BR NSC 30/27 Q1009 NOSIG
ZGSZ,2017-09-16 18:00,ZGSZ 161800Z 27003MPS 5000 HZ NSC 30/25 Q1009 NOSIG
ZGSZ,2017-09-16 19:00,ZGSZ 161900Z 28003MPS 6000 NSC 30/25 Q1009 NOSIG
ZGSZ,2017-09-16 20:00,ZGSZ 162000Z 30002MPS 5000 BR NSC 29/25 Q1008 NOSIG
ZGSZ,2017-09-16 21:00,ZGSZ 162100Z 29002MPS 5000 BR NSC 29/26 Q1009 NOSIG
ZGSZ,2017-09-16 22:00,ZGSZ 162200Z 27002MPS 250V310 4000 BR FEW032 29/26 Q1009 NOSIG
ZGSZ,2017-09-16 23:00,ZGSZ 162300Z 28002MPS 5000 BR NSC 29/26 Q1010 NOSIG
ZGSZ,2017-09-17 00:00,ZGSZ 170000Z 27003MPS 5000 BR NSC 30/26 Q1011 NOSIG
ZGSZ,2017-09-17 01:00,ZGSZ 170100Z 27004MPS 4500 BR FEW026 30/26 Q1011 NOSIG
ZGSZ,2017-09-17 02:00,ZGSZ 170200Z 29003MPS 4500 HZ FEW026 31/26 Q1011 NOSIG
ZGSZ,2017-09-17 03:00,ZGSZ 170300Z 30004MPS 4000 HZ FEW026 32/25 Q1010 NOSIG
ZGSZ,2017-09-17 04:00,ZGSZ 170400Z 29004MPS 5000 HZ FEW026 33/25 Q1010 NOSIG
ZGSZ,2017-09-17 05:00,ZGSZ 170500Z 29004MPS 6000 FEW026 33/25 Q1009 NOSIG
ZGSZ,2017-09-17 06:00,ZGSZ 170600Z 29006MPS 8000 FEW026 34/25 Q1008 NOSIG
ZGSZ,2017-09-17 07:00,ZGSZ 170700Z 29005MPS 9999 FEW026 34/23 Q1007 NOSIG
ZGSZ,2017-09-17 08:00,ZGSZ 170800Z 29004MPS CAVOK 34/24 Q1007 NOSIG
ZGSZ,2017-09-17 09:00,ZGSZ 170900Z 33004MPS 310V010 CAVOK 34/21 Q1007 NOSIG
ZGSZ,2017-09-17 10:00,ZGSZ 171000Z 36003MPS CAVOK 33/21 Q1007 NOSIG
ZGSZ,2017-09-17 11:00,ZGSZ 171100Z 03004MPS CAVOK 33/21 Q1008 NOSIG
ZGSZ,2017-09-17 12:00,ZGSZ 171200Z 02004MPS CAVOK 32/21 Q1009 NOSIG
ZGSZ,2017-09-17 13:00,ZGSZ 171300Z 07003MPS CAVOK 32/22 Q1009 NOSIG
ZGSZ,2017-09-17 14:00,ZGSZ 171400Z 06002MPS CAVOK 32/22 Q1010 NOSIG
ZGSZ,2017-09-17 15:00,ZGSZ 171500Z 09002MPS CAVOK 30/23 Q1010 NOSIG
ZGSZ,2017-09-17 16:00,ZGSZ 171600Z 13003MPS CAVOK 30/23 Q1009 NOSIG
ZGSZ,2017-09-17 17:00,ZGSZ 171700Z 12002MPS CAVOK 29/22 Q1009 NOSIG
ZGSZ,2017-09-17 18:00,ZGSZ 171800Z VRB01MPS CAVOK 30/22 Q1009 NOSIG
ZGSZ,2017-09-17 19:00,ZGSZ 171900Z 10002MPS CAVOK 29/23 Q1008 NOSIG
ZGSZ,2017-09-17 20:00,ZGSZ 172000Z 08001MPS 6000 NSC 29/24 Q1009 NOSIG
ZGSZ,2017-09-17 21:00,ZGSZ 172100Z 07002MPS 6000 NSC 29/22 Q1009 NOSIG
ZGSZ,2017-09-17 22:00,ZGSZ 172200Z 10002MPS 6000 NSC 28/23 Q1009 NOSIG
ZGSZ,2017-09-17 23:00,ZGSZ 172300Z 06002MPS 6000 NSC 29/23 Q1010 NOSIG
ZGSZ,2017-09-18 00:00,ZGSZ 180000Z 05002MPS 020V080 8000 NSC 30/23 Q1011 NOSIG
ZGSZ,2017-09-18 01:00,ZGSZ 180100Z 12002MPS 070V170 8000 NSC 31/23 Q1011 NOSIG
ZGSZ,2017-09-18 02:00,ZGSZ 180200Z 15002MPS 090V240 8000 NSC 32/23 Q1011 NOSIG
ZGSZ,2017-09-18 03:00,ZGSZ 180300Z 23002MPS 180V300 8000 FEW025 32/24 Q1011 NOSIG
ZGSZ,2017-09-18 04:00,ZGSZ 180400Z 22003MPS 190V250 9000 NSC 32/24 Q1010 NOSIG
ZGSZ,2017-09-18 05:00,ZGSZ 180500Z 22004MPS 9000 NSC 33/25 Q1009 NOSIG
ZGSZ,2017-09-18 06:00,ZGSZ 180600Z 21004MPS CAVOK 32/25 Q1009 NOSIG
ZGSZ,2017-09-18 07:00,ZGSZ 180700Z 20004MPS 9999 FEW030 32/25 Q1008 NOSIG
ZGSZ,2017-09-18 08:00,ZGSZ 180800Z 19005MPS 9999 FEW046 32/24 Q1007 NOSIG
ZGSZ,2017-09-18 09:00,ZGSZ 180900Z 18006MPS 9999 FEW040 32/25 Q1008 NOSIG
ZGSZ,2017-09-18 10:00,ZGSZ 181000Z 12004MPS 080V170 9999 FEW040 32/24 Q1008 NOSIG
ZGSZ,2017-09-18 11:00,ZGSZ 181100Z 11005MPS 9999 FEW040 31/24 Q1008 NOSIG
ZGSZ,2017-09-18 12:00,ZGSZ 181200Z 11005MPS 9999 FEW040 30/23 Q1009 NOSIG
ZGSZ,2017-09-18 13:00,ZGSZ 181300Z 11005MPS 9999 FEW040 29/24 Q1010 NOSIG
ZGSZ,2017-09-18 14:00,ZGSZ 181400Z 13005MPS 9999 FEW040 29/24 Q1010 NOSIG
ZGSZ,2017-09-18 15:00,ZGSZ 181500Z 12005MPS 9999 FEW040 29/24 Q1010 NOSIG
ZGSZ,2017-09-18 16:00,ZGSZ 181600Z 12004MPS CAVOK 29/23 Q1010 NOSIG
ZGSZ,2017-09-18 17:00,ZGSZ 181700Z 11004MPS CAVOK 28/24 Q1010 NOSIG
ZGSZ,2017-09-18 18:00,ZGSZ 181800Z 09004MPS 070V140 9999 FEW028 28/24 Q1010 NOSIG
ZGSZ,2017-09-18 19:00,ZGSZ 181900Z 10004MPS 070V140 9999 FEW028 28/24 Q1010 NOSIG
ZGSZ,2017-09-18 20:00,ZGSZ 182000Z 08003MPS 070V130 CAVOK 28/24 Q1010 NOSIG
ZGSZ,2017-09-18 21:00,ZGSZ 182100Z 09002MPS 070V130 CAVOK 28/23 Q1010 NOSIG
ZGSZ,2017-09-18 22:00,ZGSZ 182200Z 08002MPS 060V120 CAVOK 28/24 Q1010 NOSIG
ZGSZ,2017-09-18 23:00,ZGSZ 182300Z 09003MPS CAVOK 28/24 Q1011 NOSIG
ZGSZ,2017-09-19 00:00,ZGSZ 190000Z 09004MPS CAVOK 29/24 Q1011 NOSIG
ZGSZ,2017-09-19 01:00,ZGSZ 190100Z 10004MPS 070V130 CAVOK 30/24 Q1011 NOSIG
ZGSZ,2017-09-19 02:00,ZGSZ 190200Z 19003MPS 9999 FEW026 30/24 Q1011 NOSIG
ZGSZ,2017-09-19 03:00,ZGSZ 190300Z 20004MPS 9999 SCT026 31/24 Q1011 NOSIG
ZGSZ,2017-09-19 04:00,ZGSZ 190400Z 21004MPS CAVOK 31/25 Q1010 NOSIG
ZGSZ,2017-09-19 05:00,ZGSZ 190500Z 21004MPS 180V240 CAVOK 31/24 Q1009 NOSIG
ZGSZ,2017-09-19 06:00,ZGSZ 190600Z 21004MPS CAVOK 31/25 Q1009 NOSIG
ZGSZ,2017-09-19 07:00,ZGSZ 190700Z 19004MPS CAVOK 31/25 Q1008 NOSIG
ZGSZ,2017-09-19 08:00,ZGSZ 190800Z 20004MPS CAVOK 31/24 Q1008 NOSIG
ZGSZ,2017-09-19 09:00,ZGSZ 190900Z 20004MPS CAVOK 31/24 Q1008 NOSIG
ZGSZ,2017-09-19 10:00,ZGSZ 191000Z 18005MPS CAVOK 30/23 Q1008 NOSIG
ZGSZ,2017-09-19 11:00,ZGSZ 191100Z 17004MPS CAVOK 30/24 Q1009 NOSIG
ZGSZ,2017-09-19 12:00,ZGSZ 191200Z 16005MPS CAVOK 30/25 Q1009 NOSIG
ZGSZ,2017-09-19 13:00,ZGSZ 191300Z 11004MPS CAVOK 30/24 Q1010 NOSIG
ZGSZ,2017-09-19 14:00,ZGSZ 191400Z 10004MPS CAVOK 29/23 Q1010 NOSIG
ZGSZ,2017-09-19 15:00,ZGSZ 191500Z 10003MPS 070V150 CAVOK 29/23 Q1010 NOSIG
ZGSZ,2017-09-19 16:00,ZGSZ 191600Z 07002MPS 040V110 CAVOK 28/23 Q1010 NOSIG
ZGSZ,2017-09-19 17:00,ZGSZ 191700Z 11003MPS 070V140 CAVOK 28/23 Q1010 NOSIG
ZGSZ,2017-09-19 18:00,ZGSZ 191800Z 08002MPS CAVOK 28/23 Q1010 NOSIG
ZGSZ,2017-09-19 19:00,ZGSZ 191900Z 07002MPS CAVOK 28/23 Q1009 NOSIG
ZGSZ,2017-09-19 20:00,ZGSZ 192000Z 10002MPS CAVOK 27/23 Q1009 NOSIG
ZGSZ,2017-09-19 21:00,ZGSZ 192100Z 10003MPS CAVOK 27/23 Q1009 NOSIG
ZGSZ,2017-09-19 22:00,ZGSZ 192200Z 05001MPS CAVOK 27/23 Q1009 NOSIG
ZGSZ,2017-09-19 23:00,ZGSZ 192300Z 04002MPS 360V120 CAVOK 28/23 Q1010 NOSIG
ZGSZ,2017-09-20 00:00,ZGSZ 200000Z 07003MPS 040V130 CAVOK 29/24 Q1010 NOSIG
ZGSZ,2017-09-20 01:00,ZGSZ 200100Z 06002MPS 360V110 CAVOK 30/24 Q1010 NOSIG
ZGSZ,2017-09-20 02:00,ZGSZ 200200Z 03002MPS 310V120 9999 SCT026 31/25 Q1010 NOSIG
ZGSZ,2017-09-20 03:00,ZGSZ 200300Z 26003MPS 9999 BKN026 FEW030TCU 30/25 Q1011 NOSIG
ZGSZ,2017-09-20 04:00,ZGSZ 200400Z 28004MPS 9999 FEW026 32/25 Q1010 NOSIG
ZGSZ,2017-09-20 05:00,ZGSZ 200500Z 28004MPS 8000 SCT026 FEW030TCU 32/25 Q1009 NOSIG
ZGSZ,2017-09-20 06:00,ZGSZ 200600Z 27003MPS 9999 FEW026 FEW030CB 32/25 Q1009 NOSIG
ZGSZ,2017-09-20 07:00,ZGSZ 200700Z 16005MPS 9999 FEW026 FEW030CB 31/26 Q1008 NOSIG
ZGSZ,2017-09-20 08:00,ZGSZ 200800Z 16003MPS 120V180 9999 FEW026 31/25 Q1007 NOSIG
ZGSZ,2017-09-20 09:00,ZGSZ 200900Z 18004MPS 9999 FEW040 31/26 Q1007 NOSIG
ZGSZ,2017-09-20 10:00,ZGSZ 201000Z 17003MPS 9999 FEW040 30/26 Q1007 NOSIG
ZGSZ,2017-09-20 11:00,ZGSZ 201100Z 17003MPS 9999 SCT046 30/26 Q1008 NOSIG
ZGSZ,2017-09-20 12:00,ZGSZ 201200Z 18004MPS 9999 SCT046 30/26 Q1008 NOSIG
ZGSZ,2017-09-20 13:00,ZGSZ 201300Z 17003MPS 9999 SCT046 30/26 Q1009 NOSIG
ZGSZ,2017-09-20 14:00,ZGSZ 201400Z 10002MPS 060V160 9999 FEW040 30/26 Q1009 NOSIG
ZGSZ,2017-09-20 15:00,ZGSZ 201500Z 10003MPS 060V140 9999 FEW040 30/25 Q1009 NOSIG
ZGSZ,2017-09-20 16:00,ZGSZ 201600Z 11003MPS 080V140 9999 FEW040 29/25 Q1009 NOSIG
ZGSZ,2017-09-20 17:00,ZGSZ 201700Z 10002MPS 060V130 9999 FEW040 29/25 Q1009 NOSIG
ZGSZ,2017-09-20 18:00,ZGSZ 201800Z VRB01MPS 9999 FEW040 29/25 Q1009 NOSIG
ZGSZ,2017-09-20 19:00,ZGSZ 201900Z VRB01MPS CAVOK 29/25 Q1008 NOSIG
ZGSZ,2017-09-20 20:00,ZGSZ 202000Z 08002MPS 040V130 CAVOK 29/25 Q1008 NOSIG
ZGSZ,2017-09-20 21:00,ZGSZ 202100Z 09002MPS 9999 FEW020 28/25 Q1008 NOSIG
ZGSZ,2017-09-20 22:00,ZGSZ 202200Z 10002MPS 9999 FEW020 28/25 Q1009 NOSIG
ZGSZ,2017-09-20 23:00,ZGSZ 202300Z 33001MPS 9999 FEW023 28/26 Q1009 NOSIG
ZGSZ,2017-09-21 00:00,ZGSZ 210000Z 06002MPS 020V110 9999 FEW023 30/26 Q1010 NOSIG
ZGSZ,2017-09-21 01:00,ZGSZ 210100Z VRB02MPS 9999 SCT022 FEW030TCU 31/25 Q1010 NOSIG
ZGSZ,2017-09-21 02:00,ZGSZ 210200Z 06003MPS 020V110 9999 SCT025 31/25 Q1010 NOSIG
ZGSZ,2017-09-21 03:00,ZGSZ 210300Z 25003MPS 6000 FEW030TCU BKN030 30/26 Q1009 NOSIG
ZGSZ,2017-09-21 04:00,ZGSZ 210400Z 25003MPS 6000 FEW030TCU BKN030 31/26 Q1009 NOSIG
ZGSZ,2017-09-21 05:00,ZGSZ 210500Z 19005MPS 3000 -SHRA BR SCT017 FEW030TCU BKN050 29/26 Q1008 NOSIG
ZGSZ,2017-09-21 06:00,ZGSZ 210600Z 15005MPS 120V180 9999 -SHRA SCT017 FEW033CB BKN050 30/26 Q1007 NOSIG
ZGSZ,2017-09-21 07:00,ZGSZ 210700Z 10003MPS 050V130 9999 FEW020 FEW033CB SCT033 30/25 Q1007 NOSIG
ZGSZ,2017-09-21 08:00,ZGSZ 210800Z 32002MPS 280V360 9999 SCT020 30/26 Q1007 NOSIG
ZGSZ,2017-09-21 09:00,ZGSZ 210900Z 15002MPS 070V190 9999 FEW030 31/26 Q1007 NOSIG
ZGSZ,2017-09-21 10:00,ZGSZ 211000Z 09003MPS CAVOK 30/26 Q1007 NOSIG
ZGSZ,2017-09-21 11:00,ZGSZ 211100Z VRB01MPS 9999 FEW026 30/26 Q1007 NOSIG
ZGSZ,2017-09-21 12:00,ZGSZ 211200Z 09002MPS CAVOK 30/25 Q1008 NOSIG
ZGSZ,2017-09-21 13:00,ZGSZ 211300Z 09002MPS CAVOK 29/25 Q1008 NOSIG
ZGSZ,2017-09-21 14:00,ZGSZ 211400Z 08002MPS CAVOK 29/24 Q1009 NOSIG
ZGSZ,2017-09-21 15:00,ZGSZ 211500Z 09002MPS CAVOK 28/25 Q1009 NOSIG
ZGSZ,2017-09-21 16:00,ZGSZ 211600Z 09002MPS CAVOK 29/24 Q1009 NOSIG
ZGSZ,2017-09-21 17:00,ZGSZ 211700Z 10002MPS CAVOK 28/24 Q1009 NOSIG
ZGSZ,2017-09-21 18:00,ZGSZ 211800Z 10003MPS CAVOK 28/25 Q1009 NOSIG
ZGSZ,2017-09-21 19:00,ZGSZ 211900Z 10002MPS CAVOK 28/25 Q1009 NOSIG
ZGSZ,2017-09-21 20:00,ZGSZ 212000Z 08002MPS CAVOK 28/24 Q1008 NOSIG
ZGSZ,2017-09-21 21:00,ZGSZ 212100Z 10002MPS CAVOK 28/24 Q1009 NOSIG
ZGSZ,2017-09-21 22:00,ZGSZ 212200Z 04002MPS 9999 FEW030TCU 28/24 Q1009 NOSIG
ZGSZ,2017-09-21 23:00,ZGSZ 212300Z 02003MPS 9999 FEW030CB 28/25 Q1010 BECMG AT0020 11006MPS TSRA
ZGSZ,2017-09-22 00:00,ZGSZ 220000Z 02003MPS 350V050 9999 FEW030CB 30/25 Q1010 NOSIG
ZGSZ,2017-09-22 01:00,ZGSZ 220100Z 06004MPS 9999 BKN050 30/25 Q1011 NOSIG
ZGSZ,2017-09-22 02:00,ZGSZ 220200Z 06002MPS 010V110 9999 FEW026 SCT040 31/25 Q1011 NOSIG
ZGSZ,2017-09-22 03:00,ZGSZ 220300Z 23003MPS 9999 SCT026 30/26 Q1011 NOSIG
ZGSZ,2017-09-22 04:00,ZGSZ 220400Z VRB02MPS 9999 SCT033 31/26 Q1010 NOSIG
ZGSZ,2017-09-22 05:00,ZGSZ 220500Z 19003MPS 160V220 9999 BKN050 30/27 Q1010 NOSIG
ZGSZ,2017-09-22 06:00,ZGSZ 220600Z 20003MPS 9999 -SHRA FEW030CB BKN050 30/26 Q1009 NOSIG
ZGSZ,2017-09-22 07:00,ZGSZ 220700Z VRB01MPS 9999 FEW030TCU BKN030 31/26 Q1008 NOSIG
ZGSZ,2017-09-22 08:00,ZGSZ 220800Z 28002MPS 250V310 9999 FEW030TCU SCT030 31/26 Q1008 NOSIG
ZGSZ,2017-09-22 09:00,ZGSZ 220900Z 23002MPS 210V270 9999 FEW030TCU SCT040 30/26 Q1008 NOSIG
ZGSZ,2017-09-22 10:00,ZGSZ 221000Z 10003MPS 060V130 9999 FEW020 31/25 Q1008 NOSIG
ZGSZ,2017-09-22 11:00,ZGSZ 221100Z 11004MPS CAVOK 30/25 Q1009 NOSIG
ZGSZ,2017-09-22 12:00,ZGSZ 221200Z 11004MPS CAVOK 30/25 Q1010 NOSIG
ZGSZ,2017-09-22 13:00,ZGSZ 221300Z 11003MPS 080V140 CAVOK 30/25 Q1010 NOSIG
ZGSZ,2017-09-22 14:00,ZGSZ 221400Z 09003MPS 060V170 CAVOK 29/25 Q1011 NOSIG
ZGSZ,2017-09-22 15:00,ZGSZ 221500Z 10003MPS CAVOK 29/25 Q1011 NOSIG
ZGSZ,2017-09-22 16:00,ZGSZ 221600Z 09003MPS 060V140 CAVOK 29/25 Q1011 NOSIG
ZGSZ,2017-09-22 17:00,ZGSZ 221700Z 10002MPS 070V130 CAVOK 29/25 Q1011 NOSIG
ZGSZ,2017-09-22 18:00,ZGSZ 221800Z 09003MPS 060V150 CAVOK 29/25 Q1010 NOSIG
ZGSZ,2017-09-22 19:00,ZGSZ 221900Z 06003MPS 030V110 CAVOK 29/25 Q1010 NOSIG
ZGSZ,2017-09-22 20:00,ZGSZ 222000Z 06002MPS 040V120 CAVOK 29/25 Q1010 NOSIG
ZGSZ,2017-09-22 21:00,ZGSZ 222100Z 05003MPS 020V100 CAVOK 29/25 Q1010 NOSIG
ZGSZ,2017-09-22 22:00,ZGSZ 222200Z 05003MPS CAVOK 28/26 Q1010 NOSIG
ZGSZ,2017-09-22 23:00,ZGSZ 222300Z 05003MPS 030V090 9999 FEW023 29/26 Q1011 NOSIG
ZGSZ,2017-09-23 00:00,ZGSZ 230000Z 06003MPS 9999 -SHRA FEW020 SCT040 28/26 Q1012 NOSIG
ZGSZ,2017-09-23 01:00,ZGSZ 230100Z VRB01MPS 9999 -SHRA FEW016 FEW033CB BKN043 30/26 Q1012 NOSIG
ZGSZ,2017-09-23 02:00,ZGSZ 230200Z 18003MPS 150V210 6000 -SHRA SCT016 FEW030CB BKN040 28/27 Q1012 NOSIG
ZGSZ,2017-09-23 03:00,ZGSZ 230300Z VRB01MPS 9999 FEW040 28/26 Q1012 NOSIG
ZGSZ,2017-09-23 04:00,ZGSZ 230400Z 23002MPS 150V260 9999 FEW020 30/27 Q1011 NOSIG
ZGSZ,2017-09-23 05:00,ZGSZ 230500Z 22003MPS 9999 FEW030 31/27 Q1011 NOSIG
ZGSZ,2017-09-23 06:00,ZGSZ 230600Z 20003MPS 9999 FEW030 32/26 Q1010 NOSIG
ZGSZ,2017-09-23 07:00,ZGSZ 230700Z 20005MPS 9999 FEW030 31/27 Q1009 NOSIG
ZGSZ,2017-09-23 08:00,ZGSZ 230800Z 15005MPS 060V210 9999 SCT030 32/26 Q1009 NOSIG
ZGSZ,2017-09-23 09:00,ZGSZ 230900Z 12005MPS 9999 SCT030 33/26 Q1009 NOSIG
ZGSZ,2017-09-23 10:00,ZGSZ 231000Z 11005MPS 9999 FEW030 31/25 Q1009 NOSIG
ZGSZ,2017-09-23 11:00,ZGSZ 231100Z 11004MPS CAVOK 30/25 Q1010 NOSIG
ZGSZ,2017-09-23 12:00,ZGSZ 231200Z 10003MPS CAVOK 30/25 Q1010 NOSIG
ZGSZ,2017-09-23 13:00,ZGSZ 231300Z 08003MPS CAVOK 30/25 Q1010 NOSIG
ZGSZ,2017-09-23 14:00,ZGSZ 231400Z VRB01MPS CAVOK 30/25 Q1011 NOSIG
ZGSZ,2017-09-23 15:00,ZGSZ 231500Z 06002MPS CAVOK 30/25 Q1011 NOSIG
ZGSZ,2017-09-23 16:00,ZGSZ 231600Z 06001MPS CAVOK 30/24 Q1010 NOSIG
ZGSZ,2017-09-23 17:00,ZGSZ 231700Z 36001MPS CAVOK 29/25 Q1010 NOSIG
ZGSZ,2017-09-23 18:00,ZGSZ 231800Z 01002MPS CAVOK 28/25 Q1009 NOSIG
ZGSZ,2017-09-23 19:00,ZGSZ 231900Z 06003MPS CAVOK 29/25 Q1009 NOSIG
ZGSZ,2017-09-23 20:00,ZGSZ 232000Z 04003MPS CAVOK 29/24 Q1009 NOSIG
ZGSZ,2017-09-23 21:00,ZGSZ 232100Z 04004MPS CAVOK 29/24 Q1008 NOSIG
ZGSZ,2017-09-23 22:00,ZGSZ 232200Z 04004MPS 9999 FEW040 29/24 Q1009 NOSIG
ZGSZ,2017-09-23 23:00,ZGSZ 232300Z 05005MPS 020V080 9999 BKN040 29/24 Q1009 NOSIG
ZGSZ,2017-09-24 00:00,ZGSZ 240000Z 06004MPS CAVOK 29/24 Q1009 NOSIG
ZGSZ,2017-09-24 01:00,ZGSZ 240100Z 06006MPS 9999 FEW027 31/25 Q1009 NOSIG
ZGSZ,2017-09-24 02:00,ZGSZ 240200Z 09006MPS 060V120 9999 SCT033 32/25 Q1009 BECMG AT0240 SHRA
ZGSZ,2017-09-24 03:00,ZGSZ 240300Z 10009MPS 070V130 9999 FEW027CB SCT030 SCT050 32/24 Q1009 BECMG AT0330 TSRA
ZGSZ,2017-09-24 04:00,ZGSZ 240400Z 10007MPS 9999 FEW050 28/25 Q1009 NOSIG
ZGSZ,2017-09-24 05:00,ZGSZ 240500Z 11006MPS 080V140 9999 FEW030 31/26 Q1008 NOSIG
ZGSZ,2017-09-24 06:00,ZGSZ 240600Z 11008MPS 9999 SCT025 32/26 Q1007 NOSIG
ZGSZ,2017-09-24 07:00,ZGSZ 240700Z 10007MPS 9999 SCT025 32/25 Q1007 NOSIG
ZGSZ,2017-09-24 08:00,ZGSZ 240800Z 09008MPS 9999 SCT031 31/25 Q1007 NOSIG
ZGSZ,2017-09-24 09:00,ZGSZ 240900Z 10007MPS 9999 FEW015 SCT030 31/25 Q1007 NOSIG
ZGSZ,2017-09-24 10:00,ZGSZ 241000Z 10006MPS 9999 SCT026 30/25 Q1007 NOSIG
ZGSZ,2017-09-24 11:00,ZGSZ 241100Z 10007MPS 9999 FEW033 29/25 Q1008 NOSIG
ZGSZ,2017-09-24 12:00,ZGSZ 241200Z 11006MPS 9999 FEW040 29/25 Q1008 NOSIG
ZGSZ,2017-09-24 13:00,ZGSZ 241300Z 10004MPS 9999 FEW040 29/25 Q1009 NOSIG
ZGSZ,2017-09-24 14:00,ZGSZ 241400Z 11004MPS 080V140 9999 FEW043 29/25 Q1009 NOSIG
ZGSZ,2017-09-24 15:00,ZGSZ 241500Z 11004MPS 080V140 CAVOK 29/25 Q1009 NOSIG
ZGSZ,2017-09-24 16:00,ZGSZ 241600Z 11005MPS CAVOK 29/25 Q1009 NOSIG
ZGSZ,2017-09-24 17:00,ZGSZ 241700Z 11004MPS CAVOK 29/25 Q1009 NOSIG
ZGSZ,2017-09-24 18:00,ZGSZ 241800Z 10003MPS CAVOK 29/25 Q1008 NOSIG
ZGSZ,2017-09-24 19:00,ZGSZ 241900Z 18004MPS 140V200 9999 -SHRA SCT015 BKN043 28/26 Q1008 NOSIG
ZGSZ,2017-09-24 20:00,ZGSZ 242000Z 12005MPS 9999 -SHRA SCT015 BKN033 27/26 Q1008 NOSIG
ZGSZ,2017-09-24 21:00,ZGSZ 242100Z VRB01MPS 9999 -SHRA SCT015 BKN033 27/26 Q1008 NOSIG
ZGSZ,2017-09-24 22:00,ZGSZ 242200Z 00000MPS 9999 FEW015 BKN030 27/26 Q1009 NOSIG
ZGSZ,2017-09-24 23:00,ZGSZ 242300Z 07002MPS 9999 SCT030 FEW033TCU 27/26 Q1010 NOSIG
ZGSZ,2017-09-25 00:00,ZGSZ 250000Z 09003MPS 9999 SCT030 29/26 Q1010 NOSIG
ZGSZ,2017-09-25 01:00,ZGSZ 250100Z 15005MPS 9999 SCT026 30/26 Q1011 NOSIG
ZGSZ,2017-09-25 02:00,ZGSZ 250200Z 14005MPS 9999 FEW026 30/26 Q1011 NOSIG
ZGSZ,2017-09-25 03:00,ZGSZ 250300Z 18003MPS 9999 SCT023 31/26 Q1011 NOSIG
ZGSZ,2017-09-25 04:00,ZGSZ 250400Z 18005MPS 9999 SCT023 FEW026TCU 31/26 Q1010 NOSIG
ZGSZ,2017-09-25 05:00,ZGSZ 250500Z 19005MPS 9999 SCT023 FEW026TCU 32/26 Q1010 NOSIG
ZGSZ,2017-09-25 06:00,ZGSZ 250600Z 18006MPS 9999 FEW023 FEW026TCU 32/27 Q1009 NOSIG
ZGSZ,2017-09-25 07:00,ZGSZ 250700Z 18007MPS 9999 FEW023 FEW026TCU 32/26 Q1009 NOSIG
ZGSZ,2017-09-25 08:00,ZGSZ 250800Z 18007MPS 9999 FEW023 31/26 Q1008 NOSIG
ZGSZ,2017-09-25 09:00,ZGSZ 250900Z 18006MPS 9999 FEW023 31/26 Q1009 NOSIG
ZGSZ,2017-09-25 10:00,ZGSZ 251000Z 17005MPS 9999 FEW026 30/26 Q1009 NOSIG
ZGSZ,2017-09-25 11:00,ZGSZ 251100Z 16005MPS 9999 FEW026 30/26 Q1009 NOSIG
ZGSZ,2017-09-25 12:00,ZGSZ 251200Z 15005MPS 9999 FEW026 30/26 Q1010 NOSIG
ZGSZ,2017-09-25 13:00,ZGSZ 251300Z 12003MPS 090V150 CAVOK 29/26 Q1011 NOSIG
ZGSZ,2017-09-25 14:00,ZGSZ 251400Z 10004MPS CAVOK 29/25 Q1011 NOSIG
ZGSZ,2017-09-25 15:00,ZGSZ 251500Z 10004MPS CAVOK 29/26 Q1011 NOSIG
ZGSZ,2017-09-25 16:00,ZGSZ 251600Z 09004MPS CAVOK 29/26 Q1011 NOSIG
ZGSZ,2017-09-25 17:00,ZGSZ 251700Z 10003MPS 060V140 CAVOK 29/25 Q1011 NOSIG
ZGSZ,2017-09-25 18:00,ZGSZ 251800Z 04002MPS 360V080 9999 FEW026 29/25 Q1010 NOSIG
ZGSZ,2017-09-25 19:00,ZGSZ 251900Z 08002MPS 9999 FEW026 29/26 Q1010 NOSIG
ZGSZ,2017-09-25 20:00,ZGSZ 252000Z 08002MPS 020V130 CAVOK 29/26 Q1010 NOSIG
ZGSZ,2017-09-25 21:00,ZGSZ 252100Z 08003MPS 060V120 CAVOK 28/26 Q1010 NOSIG
ZGSZ,2017-09-25 22:00,ZGSZ 252200Z 06002MPS 050V110 9999 FEW018 28/25 Q1011 NOSIG
ZGSZ,2017-09-25 23:00,ZGSZ 252300Z 07002MPS 040V110 9999 FEW025 29/26 Q1011 NOSIG
ZGSZ,2017-09-26 00:00,ZGSZ 260000Z 08003MPS 030V150 9999 FEW025 30/26 Q1012 NOSIG
ZGSZ,2017-09-26 01:00,ZGSZ 260100Z 12003MPS 070V170 9999 FEW025 31/26 Q1012 NOSIG
ZGSZ,2017-09-26 02:00,ZGSZ 260200Z 20002MPS 130V250 9999 FEW025 31/26 Q1013 NOSIG
ZGSZ,2017-09-26 03:00,ZGSZ 260300Z 21003MPS 9999 FEW025 32/27 Q1012 NOSIG
ZGSZ,2017-09-26 04:00,ZGSZ 260400Z 22003MPS 9999 FEW020 32/26 Q1012 NOSIG
ZGSZ,2017-09-26 05:00,ZGSZ 260500Z 21004MPS CAVOK 32/26 Q1011 NOSIG
ZGSZ,2017-09-26 06:00,ZGSZ 260600Z 21003MPS CAVOK 32/26 Q1010 NOSIG
ZGSZ,2017-09-26 07:00,ZGSZ 260700Z 21004MPS 180V240 CAVOK 32/27 Q1009 NOSIG
ZGSZ,2017-09-26 08:00,ZGSZ 260800Z 20004MPS CAVOK 32/26 Q1009 NOSIG
ZGSZ,2017-09-26 09:00,ZGSZ 260900Z 20004MPS CAVOK 31/27 Q1009 NOSIG
ZGSZ,2017-09-26 10:00,ZGSZ 261000Z 19004MPS CAVOK 31/26 Q1009 NOSIG
ZGSZ,2017-09-26 11:00,ZGSZ 261100Z 18005MPS CAVOK 30/26 Q1009 NOSIG
ZGSZ,2017-09-26 12:00,ZGSZ 261200Z 19005MPS CAVOK 30/27 Q1010 NOSIG
ZGSZ,2017-09-26 13:00,ZGSZ 261300Z 19004MPS CAVOK 30/26 Q1011 NOSIG
ZGSZ,2017-09-26 14:00,ZGSZ 261400Z 18004MPS CAVOK 30/26 Q1011 NOSIG
ZGSZ,2017-09-26 15:00,ZGSZ 261500Z 18004MPS CAVOK 30/26 Q1011 NOSIG
ZGSZ,2017-09-26 16:00,ZGSZ 261600Z 19004MPS CAVOK 29/26 Q1011 NOSIG
ZGSZ,2017-09-26 17:00,ZGSZ 261700Z 19004MPS CAVOK 29/27 Q1011 NOSIG
ZGSZ,2017-09-26 18:00,ZGSZ 261800Z 19003MPS CAVOK 29/26 Q1010 NOSIG
ZGSZ,2017-09-26 19:00,ZGSZ 261900Z 20003MPS CAVOK 29/26 Q1010 NOSIG
ZGSZ,2017-09-26 20:00,ZGSZ 262000Z 23003MPS 200V260 9999 SCT016 29/27 Q1010 NOSIG
ZGSZ,2017-09-26 21:00,ZGSZ 262100Z 27003MPS 240V300 9999 SCT016 29/26 Q1010 NOSIG
ZGSZ,2017-09-26 22:00,ZGSZ 262200Z 31003MPS 9999 SCT015 28/26 Q1010 NOSIG
ZGSZ,2017-09-26 23:00,ZGSZ 262300Z 31003MPS 9999 FEW020 29/26 Q1011 NOSIG
ZGSZ,2017-09-27 00:00,ZGSZ 270000Z 34002MPS 310V010 9999 FEW020 30/27 Q1011 NOSIG
ZGSZ,2017-09-27 01:00,ZGSZ 270100Z 31003MPS 9999 BKN020 30/26 Q1011 NOSIG
ZGSZ,2017-09-27 02:00,ZGSZ 270200Z 29003MPS 8000 BKN021 31/27 Q1011 NOSIG
ZGSZ,2017-09-27 03:00,ZGSZ 270300Z 28003MPS 250V310 8000 BKN023 32/27 Q1011 NOSIG
ZGSZ,2017-09-27 04:00,ZGSZ 270400Z 27004MPS 6000 SCT023 32/27 Q1010 NOSIG
ZGSZ,2017-09-27 05:00,ZGSZ 270500Z 26003MPS 6000 FEW023 33/27 Q1009 NOSIG
ZGSZ,2017-09-27 06:00,ZGSZ 270600Z 22004MPS 6000 FEW023 33/27 Q1008 NOSIG
ZGSZ,2017-09-27 07:00,ZGSZ 270700Z 21003MPS 7000 NSC 33/26 Q1007 NOSIG
ZGSZ,2017-09-27 08:00,ZGSZ 270800Z 20003MPS CAVOK 34/25 Q1007 NOSIG
ZGSZ,2017-09-27 09:00,ZGSZ 270900Z 19003MPS CAVOK 33/26 Q1007 NOSIG
ZGSZ,2017-09-27 10:00,ZGSZ 271000Z 17004MPS CAVOK 32/26 Q1007 NOSIG
ZGSZ,2017-09-27 11:00,ZGSZ 271100Z 18006MPS CAVOK 31/27 Q1007 NOSIG
ZGSZ,2017-09-27 12:00,ZGSZ 271200Z 18006MPS CAVOK 31/27 Q1008 NOSIG
ZGSZ,2017-09-27 13:00,ZGSZ 271300Z 18006MPS CAVOK 31/28 Q1009 NOSIG
ZGSZ,2017-09-27 14:00,ZGSZ 271400Z 18005MPS CAVOK 31/26 Q1009 NOSIG
ZGSZ,2017-09-27 15:00,ZGSZ 271500Z 18004MPS CAVOK 30/26 Q1009 NOSIG
ZGSZ,2017-09-27 16:00,ZGSZ 271600Z 16004MPS CAVOK 30/27 Q1009 NOSIG
ZGSZ,2017-09-27 17:00,ZGSZ 271700Z 18005MPS CAVOK 30/25 Q1009 NOSIG
ZGSZ,2017-09-27 18:00,ZGSZ 271800Z 18004MPS CAVOK 30/26 Q1008 NOSIG
ZGSZ,2017-09-27 19:00,ZGSZ 271900Z 18004MPS CAVOK 30/25 Q1008 NOSIG
ZGSZ,2017-09-27 20:00,ZGSZ 272000Z 19003MPS CAVOK 30/25 Q1008 NOSIG
ZGSZ,2017-09-27 21:00,ZGSZ 272100Z 19002MPS CAVOK 29/26 Q1008 NOSIG
ZGSZ,2017-09-27 22:00,ZGSZ 272200Z 19002MPS CAVOK 29/25 Q1009 NOSIG
ZGSZ,2017-09-27 23:00,ZGSZ 272300Z VRB01MPS CAVOK 30/25 Q1009 NOSIG
ZGSZ,2017-09-28 00:00,ZGSZ 280000Z 28002MPS 240V310 CAVOK 30/25 Q1010 NOSIG
ZGSZ,2017-09-28 01:00,ZGSZ 280100Z 24002MPS 210V280 CAVOK 31/25 Q1010 NOSIG
ZGSZ,2017-09-28 02:00,ZGSZ 280200Z 26002MPS CAVOK 32/23 Q1011 NOSIG
ZGSZ,2017-09-28 03:00,ZGSZ 280300Z 24002MPS CAVOK 32/23 Q1010 NOSIG
ZGSZ,2017-09-28 04:00,ZGSZ 280400Z 22003MPS CAVOK 33/24 Q1009 NOSIG
ZGSZ,2017-09-28 05:00,ZGSZ 280500Z 21003MPS CAVOK 33/25 Q1008 NOSIG
ZGSZ,2017-09-28 06:00,ZGSZ 280600Z 21004MPS CAVOK 33/25 Q1008 NOSIG
ZGSZ,2017-09-28 07:00,ZGSZ 280700Z 19005MPS CAVOK 33/25 Q1007 NOSIG
ZGSZ,2017-09-28 08:00,ZGSZ 280800Z 18006MPS CAVOK 32/27 Q1007 NOSIG
ZGSZ,2017-09-28 09:00,ZGSZ 280900Z 18006MPS CAVOK 31/27 Q1007 NOSIG
ZGSZ,2017-09-28 10:00,ZGSZ 281000Z 19006MPS CAVOK 31/26 Q1008 NOSIG
ZGSZ,2017-09-28 11:00,ZGSZ 281100Z 18005MPS CAVOK 31/26 Q1008 NOSIG
ZGSZ,2017-09-28 12:00,ZGSZ 281200Z 18005MPS CAVOK 30/26 Q1009 NOSIG
ZGSZ,2017-09-28 13:00,ZGSZ 281300Z 15004MPS CAVOK 30/25 Q1009 NOSIG
ZGSZ,2017-09-28 14:00,ZGSZ 281400Z 10002MPS 070V130 CAVOK 30/24 Q1009 NOSIG
ZGSZ,2017-09-28 15:00,ZGSZ 281500Z 10002MPS 070V140 CAVOK 30/24 Q1009 NOSIG
ZGSZ,2017-09-28 16:00,ZGSZ 281600Z 08002MPS 040V120 CAVOK 30/24 Q1010 NOSIG
ZGSZ,2017-09-28 17:00,ZGSZ 281700Z 11004MPS CAVOK 29/23 Q1009 NOSIG
ZGSZ,2017-09-28 18:00,ZGSZ 281800Z 11003MPS CAVOK 28/23 Q1009 NOSIG
ZGSZ,2017-09-28 19:00,ZGSZ 281900Z 08002MPS 050V110 CAVOK 28/24 Q1010 NOSIG
ZGSZ,2017-09-28 20:00,ZGSZ 282000Z 11002MPS CAVOK 28/25 Q1010 NOSIG
ZGSZ,2017-09-28 21:00,ZGSZ 282100Z 05002MPS CAVOK 28/25 Q1011 NOSIG
ZGSZ,2017-09-28 22:00,ZGSZ 282200Z 09002MPS CAVOK 28/25 Q1011 NOSIG
ZGSZ,2017-09-28 23:00,ZGSZ 282300Z 05003MPS 020V100 9999 FEW023 29/25 Q1012 NOSIG
ZGSZ,2017-09-29 00:00,ZGSZ 290000Z 04003MPS 020V100 9999 FEW023 30/26 Q1012 NOSIG
ZGSZ,2017-09-29 01:00,ZGSZ 290100Z 06003MPS 020V120 9999 FEW023 31/25 Q1013 NOSIG
ZGSZ,2017-09-29 02:00,ZGSZ 290200Z 08003MPS 020V140 9999 SCT023 32/25 Q1013 NOSIG
ZGSZ,2017-09-29 03:00,ZGSZ 290300Z 11004MPS 070V160 9999 SCT023 33/24 Q1013 NOSIG
ZGSZ,2017-09-29 04:00,ZGSZ 290400Z 20004MPS 9999 SCT023 32/26 Q1013 NOSIG
ZGSZ,2017-09-29 05:00,ZGSZ 290500Z 20003MPS 9999 SCT023 32/27 Q1012 NOSIG
ZGSZ,2017-09-29 06:00,ZGSZ 290600Z 20006MPS 9999 SCT023 FEW026TCU 32/26 Q1011 NOSIG
ZGSZ,2017-09-29 07:00,ZGSZ 290700Z 21006MPS 9999 SCT023 FEW026TCU 32/27 Q1010 NOSIG
ZGSZ,2017-09-29 08:00,ZGSZ 290800Z 16006MPS 9999 SCT023 33/26 Q1010 BECMG TL0935 10005MPS
ZGSZ,2017-09-29 09:00,ZGSZ 290900Z 11006MPS 9999 SCT023 33/24 Q1011 NOSIG
ZGSZ,2017-09-29 10:00,ZGSZ 291000Z 11005MPS 9999 FEW023TCU 32/24 Q1011 NOSIG
ZGSZ,2017-09-29 11:00,ZGSZ 291100Z 10006MPS CAVOK 31/24 Q1012 NOSIG
ZGSZ,2017-09-29 12:00,ZGSZ 291200Z 11005MPS CAVOK 30/25 Q1012 NOSIG
ZGSZ,2017-09-29 13:00,ZGSZ 291300Z 12006MPS CAVOK 30/25 Q1013 NOSIG
ZGSZ,2017-09-29 14:00,ZGSZ 291400Z 11005MPS CAVOK 30/25 Q1013 NOSIG
ZGSZ,2017-09-29 15:00,ZGSZ 291500Z 11005MPS 9999 FEW012 30/25 Q1013 NOSIG
ZGSZ,2017-09-29 16:00,ZGSZ 291600Z 10005MPS 9999 FEW012 30/25 Q1013 NOSIG
ZGSZ,2017-09-29 17:00,ZGSZ 291700Z 10003MPS 070V130 9999 FEW012 29/24 Q1013 NOSIG
ZGSZ,2017-09-29 18:00,ZGSZ 291800Z 09002MPS 020V170 9999 FEW012 29/25 Q1013 NOSIG
ZGSZ,2017-09-29 19:00,ZGSZ 291900Z 09002MPS 9999 FEW020 29/25 Q1013 NOSIG
ZGSZ,2017-09-29 20:00,ZGSZ 292000Z 10003MPS 070V130 9999 SCT030 29/25 Q1012 NOSIG
ZGSZ,2017-09-29 21:00,ZGSZ 292100Z 09003MPS 9999 FEW030 29/25 Q1012 NOSIG
ZGSZ,2017-09-29 22:00,ZGSZ 292200Z 05003MPS 020V090 9999 FEW030CB SCT030 29/25 Q1013 NOSIG
ZGSZ,2017-09-29 23:00,ZGSZ 292300Z 04004MPS 9999 FEW020 FEW030CB BKN030 29/25 Q1013 BECMG AT2350 12008MPS 2500 TSRA
ZGSZ,2017-09-30 00:00,ZGSZ 300000Z 07003MPS 050V120 8000 -TSRA SCT020 FEW030CB BKN030 28/25 Q1014 BECMG AT0020 NSW
ZGSZ,2017-09-30 01:00,ZGSZ 300100Z 21003MPS 9999 SCT020 FEW030CB BKN036 27/26 Q1015 NOSIG
ZGSZ,2017-09-30 02:00,ZGSZ 300200Z 11005MPS 9999 TS SCT020 FEW030CB BKN050 29/25 Q1016 BECMG AT0300 -SHRA
ZGSZ,2017-09-30 03:00,ZGSZ 300300Z 13002MPS 9999 -RA SCT040 27/25 Q1016 NOSIG
ZGSZ,2017-09-30 04:00,ZGSZ 300400Z 13002MPS 070V160 9999 -SHRA BKN050 28/25 Q1015 NOSIG
ZGSZ,2017-09-30 05:00,ZGSZ 300500Z 11002MPS 080V160 9999 FEW050 29/25 Q1014 NOSIG
ZGSZ,2017-09-30 06:00,ZGSZ 300600Z 12004MPS 090V160 CAVOK 31/26 Q1013 NOSIG
ZGSZ,2017-09-30 07:00,ZGSZ 300700Z 12006MPS 9999 FEW030 31/24 Q1012 NOSIG
ZGSZ,2017-09-30 08:00,ZGSZ 300800Z 11005MPS 9999 FEW030 32/24 Q1012 NOSIG
ZGSZ,2017-09-30 09:00,ZGSZ 300900Z 11006MPS 9999 FEW030 31/24 Q1012 NOSIG
ZGSZ,2017-09-30 10:00,ZGSZ 301000Z 12005MPS 9999 FEW030 31/24 Q1012 NOSIG
ZGSZ,2017-09-30 11:00,ZGSZ 301100Z 12004MPS 9999 FEW030 30/24 Q1013 NOSIG
ZGSZ,2017-09-30 12:00,ZGSZ 301200Z 10004MPS 070V130 9999 FEW030 30/24 Q1013 NOSIG
ZGSZ,2017-09-30 13:00,ZGSZ 301300Z 12005MPS 9999 FEW030 30/25 Q1014 NOSIG
ZGSZ,2017-09-30 14:00,ZGSZ 301400Z 11003MPS 9999 FEW030 29/24 Q1014 NOSIG
ZGSZ,2017-09-30 15:00,ZGSZ 301500Z 12004MPS 9999 FEW030 29/25 Q1014 NOSIG
ZGSZ,2017-09-30 16:00,ZGSZ 301600Z 11004MPS 9999 FEW030 29/25 Q1013 NOSIG
ZGSZ,2017-09-30 17:00,ZGSZ 301700Z 11005MPS 9999 FEW030 29/25 Q1012 NOSIG
ZGSZ,2017-09-30 18:00,ZGSZ 301800Z 11004MPS CAVOK 29/24 Q1012 NOSIG
ZGSZ,2017-09-30 19:00,ZGSZ 301900Z 11004MPS CAVOK 29/24 Q1011 NOSIG
ZGSZ,2017-09-30 20:00,ZGSZ 302000Z 10003MPS CAVOK 28/24 Q1011 NOSIG
ZGSZ,2017-09-30 21:00,ZGSZ 302100Z 10002MPS CAVOK 28/24 Q1011 NOSIG
ZGSZ,2017-09-30 22:00,ZGSZ 302200Z 04002MPS 9999 SCT027 28/25 Q1012 NOSIG
ZGSZ,2017-09-30 23:00,ZGSZ 302300Z 03003MPS 360V080 9999 -SHRA FEW020TCU BKN027 29/25 Q1012 NOSIG
ZGSZ,2017-10-01 00:00,ZGSZ 010000Z 05003MPS 010V100 9999 SCT024 29/25 Q1013 NOSIG
ZGSZ,2017-10-01 01:00,ZGSZ 010100Z 08004MPS 040V110 9999 FEW024 30/25 Q1013 NOSIG
ZGSZ,2017-10-01 02:00,ZGSZ 010200Z 09007MPS 9999 -SHRA SCT020 FEW030CB 28/26 Q1013 NOSIG
ZGSZ,2017-10-01 03:00,ZGSZ 010300Z 11002MPS 040V160 9999 SCT020 FEW030TCU 31/26 Q1013 NOSIG
ZGSZ,2017-10-01 04:00,ZGSZ 010400Z 11006MPS 9999 R15/P2000 R16/1100D -SHRA FEW013 BKN020 FEW030CB 27/25 Q1012 NOSIG
ZGSZ,2017-10-01 05:00,ZGSZ 010500Z 12006MPS 9999 SCT020 FEW030CB 31/26 Q1011 NOSIG
ZGSZ,2017-10-01 06:00,ZGSZ 010600Z 13005MPS 9999 SCT020 FEW030TCU 32/25 Q1010 NOSIG
ZGSZ,2017-10-01 07:00,ZGSZ 010700Z 10005MPS 9999 SCT020 FEW030TCU 31/26 Q1010 NOSIG
ZGSZ,2017-10-01 08:00,ZGSZ 010800Z 11005MPS 9999 SCT020 FEW030TCU 32/25 Q1009 NOSIG
ZGSZ,2017-10-01 09:00,ZGSZ 010900Z 10005MPS 9999 SCT023 FEW030CB 30/25 Q1009 NOSIG
ZGSZ,2017-10-01 10:00,ZGSZ 011000Z 10004MPS 9999 FEW023 FEW030CB 29/25 Q1010 NOSIG
ZGSZ,2017-10-01 11:00,ZGSZ 011100Z 10004MPS CAVOK 29/25 Q1010 NOSIG
ZGSZ,2017-10-01 12:00,ZGSZ 011200Z 11004MPS CAVOK 29/26 Q1011 NOSIG
ZGSZ,2017-10-01 13:00,ZGSZ 011300Z 10004MPS 080V140 9999 FEW020 29/25 Q1011 NOSIG
ZGSZ,2017-10-01 14:00,ZGSZ 011400Z 11003MPS CAVOK 29/25 Q1012 NOSIG
ZGSZ,2017-10-01 15:00,ZGSZ 011500Z 10002MPS 070V140 9999 FEW023 29/25 Q1012 NOSIG
ZGSZ,2017-10-01 16:00,ZGSZ 011600Z 10004MPS 9999 FEW023 29/25 Q1012 NOSIG
ZGSZ,2017-10-01 17:00,ZGSZ 011700Z 10003MPS 9999 FEW023 29/25 Q1011 NOSIG
ZGSZ,2017-10-01 18:00,ZGSZ 011800Z 10002MPS CAVOK 28/25 Q1010 NOSIG
ZGSZ,2017-10-01 19:00,ZGSZ 011900Z 06002MPS 020V120 9999 FEW023 28/26 Q1010 NOSIG
ZGSZ,2017-10-01 20:00,ZGSZ 012000Z 05001MPS CAVOK 28/25 Q1010 NOSIG
ZGSZ,2017-10-01 21:00,ZGSZ 012100Z 02002MPS 9999 BKN033 28/25 Q1010 NOSIG
ZGSZ,2017-10-01 22:00,ZGSZ 012200Z 04003MPS 020V090 9999 SCT020 FEW023TCU BKN033 28/26 Q1011 NOSIG
ZGSZ,2017-10-01 23:00,ZGSZ 012300Z 04003MPS 020V100 9999 SCT021 FEW026TCU 28/25 Q1011 NOSIG
ZGSZ,2017-10-02 00:00,ZGSZ 020000Z 04004MPS 9999 FEW030CB 29/26 Q1012 NOSIG
ZGSZ,2017-10-02 01:00,ZGSZ 020100Z 04004MPS 340V080 9999 FEW023TCU FEW023 30/26 Q1012 NOSIG
ZGSZ,2017-10-02 02:00,ZGSZ 020200Z 07003MPS 040V110 9999 FEW023TCU SCT023 31/25 Q1013 NOSIG
ZGSZ,2017-10-02 03:00,ZGSZ 020300Z 06004MPS 020V110 9999 FEW023TCU SCT023 31/25 Q1012 NOSIG
ZGSZ,2017-10-02 04:00,ZGSZ 020400Z 05003MPS 350V110 9999 FEW023TCU SCT023 33/26 Q1011 NOSIG
ZGSZ,2017-10-02 05:00,ZGSZ 020500Z 28002MPS 240V330 9999 FEW030CB BKN030 31/25 Q1011 NOSIG
ZGSZ,2017-10-02 06:00,ZGSZ 020600Z 20005MPS 9999 -SHRA FEW030CB SCT030 29/26 Q1010 RETS BECMG TL0730 10004MPS
ZGSZ,2017-10-02 07:00,ZGSZ 020700Z 19003MPS 160V220 9999 FEW030CB SCT030 30/25 Q1009 RETS NOSIG
ZGSZ,2017-10-02 08:00,ZGSZ 020800Z 18003MPS 140V200 9999 FEW030TCU FEW030 31/26 Q1009 NOSIG
ZGSZ,2017-10-02 09:00,ZGSZ 020900Z 16004MPS 9999 FEW030 30/26 Q1009 NOSIG
ZGSZ,2017-10-02 10:00,ZGSZ 021000Z 17002MPS 9999 FEW030 30/26 Q1009 NOSIG
ZGSZ,2017-10-02 11:00,ZGSZ 021100Z 11005MPS CAVOK 31/24 Q1010 NOSIG
ZGSZ,2017-10-02 12:00,ZGSZ 021200Z 12005MPS CAVOK 30/24 Q1011 NOSIG
ZGSZ,2017-10-02 13:00,ZGSZ 021300Z 11004MPS CAVOK 30/25 Q1012 NOSIG
ZGSZ,2017-10-02 14:00,ZGSZ 021400Z 11004MPS CAVOK 29/25 Q1012 NOSIG
ZGSZ,2017-10-02 15:00,ZGSZ 021500Z 12003MPS CAVOK 29/25 Q1013 NOSIG
ZGSZ,2017-10-02 16:00,ZGSZ 021600Z 12003MPS CAVOK 29/25 Q1013 NOSIG
ZGSZ,2017-10-02 17:00,ZGSZ 021700Z 09003MPS 060V140 CAVOK 29/25 Q1012 NOSIG
ZGSZ,2017-10-02 18:00,ZGSZ 021800Z 09003MPS CAVOK 29/25 Q1011 NOSIG
ZGSZ,2017-10-02 19:00,ZGSZ 021900Z 05002MPS CAVOK 28/25 Q1011 NOSIG
ZGSZ,2017-10-02 20:00,ZGSZ 022000Z 06002MPS 040V120 CAVOK 28/25 Q1010 NOSIG
ZGSZ,2017-10-02 21:00,ZGSZ 022100Z 06002MPS CAVOK 28/25 Q1011 NOSIG
ZGSZ,2017-10-02 22:00,ZGSZ 022200Z 06002MPS 320V110 CAVOK 28/25 Q1011 NOSIG
ZGSZ,2017-10-02 23:00,ZGSZ 022300Z 04003MPS 020V100 CAVOK 29/25 Q1011 NOSIG
ZGSZ,2017-10-03 00:00,ZGSZ 030000Z 06003MPS 030V100 CAVOK 30/26 Q1012 NOSIG
ZGSZ,2017-10-03 01:00,ZGSZ 030100Z 06004MPS 9999 FEW026 31/25 Q1013 NOSIG
ZGSZ,2017-10-03 02:00,ZGSZ 030200Z 06004MPS 020V120 9999 FEW026 31/25 Q1013 NOSIG
ZGSZ,2017-10-03 03:00,ZGSZ 030300Z 06003MPS 010V110 9999 BKN026 32/25 Q1013 NOSIG
ZGSZ,2017-10-03 04:00,ZGSZ 030400Z 07004MPS 030V100 9999 BKN026 33/25 Q1013 NOSIG
ZGSZ,2017-10-03 05:00,ZGSZ 030500Z VRB01MPS 9999 BKN026 33/26 Q1012 NOSIG
ZGSZ,2017-10-03 06:00,ZGSZ 030600Z 26003MPS 230V290 9999 BKN026 33/26 Q1011 NOSIG
ZGSZ,2017-10-03 07:00,ZGSZ 030700Z 23003MPS 9999 BKN026 33/25 Q1010 NOSIG
ZGSZ,2017-10-03 08:00,ZGSZ 030800Z 21004MPS 9999 FEW026 32/26 Q1010 NOSIG
ZGSZ,2017-10-03 09:00,ZGSZ 030900Z 20005MPS 9999 FEW026 31/27 Q1010 NOSIG
ZGSZ,2017-10-03 10:00,ZGSZ 031000Z 20004MPS 9999 FEW026 31/26 Q1011 NOSIG
ZGSZ,2017-10-03 11:00,ZGSZ 031100Z 17005MPS 9999 FEW026 31/26 Q1011 BECMG TL1230 10004MPS
ZGSZ,2017-10-03 12:00,ZGSZ 031200Z 16005MPS 9999 FEW026 30/26 Q1012 NOSIG
ZGSZ,2017-10-03 13:00,ZGSZ 031300Z 12004MPS 9999 FEW026 30/24 Q1013 NOSIG
ZGSZ,2017-10-03 14:00,ZGSZ 031400Z 10003MPS 070V130 CAVOK 30/24 Q1014 NOSIG
ZGSZ,2017-10-03 15:00,ZGSZ 031500Z 10003MPS 060V140 CAVOK 30/24 Q1014 NOSIG
ZGSZ,2017-10-03 16:00,ZGSZ 031600Z 11003MPS CAVOK 29/24 Q1014 NOSIG
ZGSZ,2017-10-03 17:00,ZGSZ 031700Z 11003MPS CAVOK 29/25 Q1013 NOSIG
ZGSZ,2017-10-03 18:00,ZGSZ 031800Z 06002MPS CAVOK 29/25 Q1013 NOSIG
ZGSZ,2017-10-03 19:00,ZGSZ 031900Z 07002MPS CAVOK 29/25 Q1013 NOSIG
ZGSZ,2017-10-03 20:00,ZGSZ 032000Z 05002MPS CAVOK 28/25 Q1013 NOSIG
ZGSZ,2017-10-03 21:00,ZGSZ 032100Z 07002MPS CAVOK 28/25 Q1013 NOSIG
ZGSZ,2017-10-03 22:00,ZGSZ 032200Z 04003MPS CAVOK 28/25 Q1013 NOSIG
ZGSZ,2017-10-03 23:00,ZGSZ 032300Z 08004MPS 050V110 9999 FEW026 28/25 Q1014 NOSIG
ZGSZ,2017-10-04 00:00,ZGSZ 040000Z 06002MPS 010V100 CAVOK 29/25 Q1014 NOSIG
ZGSZ,2017-10-04 01:00,ZGSZ 040100Z VRB02MPS 9999 FEW050 30/25 Q1015 NOSIG
ZGSZ,2017-10-04 02:00,ZGSZ 040200Z 09003MPS 050V160 9999 FEW026TCU SCT033 32/24 Q1015 NOSIG
ZGSZ,2017-10-04 03:00,ZGSZ 040300Z 12005MPS 9999 FEW026TCU SCT033 33/25 Q1015 NOSIG
ZGSZ,2017-10-04 04:00,ZGSZ 040400Z 11002MPS 050V150 9999 -SHRA FEW020 FEW026TCU SCT033 31/26 Q1014 NOSIG
ZGSZ,2017-10-04 05:00,ZGSZ 040500Z 10005MPS 080V140 9999 FEW026TCU SCT033 32/25 Q1014 NOSIG
ZGSZ,2017-10-04 06:00,ZGSZ 040600Z 13008MPS 9999 FEW026CB SCT040 31/24 Q1013 NOSIG
ZGSZ,2017-10-04 07:00,ZGSZ 040700Z 12009MPS 9999 FEW026CB SCT033 32/24 Q1013 NOSIG
ZGSZ,2017-10-04 08:00,ZGSZ 040800Z 10007MPS 9999 -SHRA FEW020 FEW026CB BKN033 31/24 Q1013 NOSIG
ZGSZ,2017-10-04 09:00,ZGSZ 040900Z 11006MPS CAVOK 30/24 Q1012 NOSIG
ZGSZ,2017-10-04 10:00,ZGSZ 041000Z 09003MPS 060V130 CAVOK 30/24 Q1013 NOSIG
ZGSZ,2017-10-04 11:00,ZGSZ 041100Z 12003MPS CAVOK 29/24 Q1014 NOSIG
ZGSZ,2017-10-04 12:00,ZGSZ 041200Z 12002MPS 9999 -SHRA BKN040 29/24 Q1014 NOSIG
ZGSZ,2017-10-04 13:00,ZGSZ 041300Z 06003MPS 010V100 CAVOK 29/24 Q1014 NOSIG
ZGSZ,2017-10-04 14:00,ZGSZ 041400Z 09002MPS 050V120 9999 FEW020 29/24 Q1015 NOSIG
ZGSZ,2017-10-04 15:00,ZGSZ 041500Z VRB02MPS 9999 BKN046 29/24 Q1015 NOSIG
ZGSZ,2017-10-04 16:00,ZGSZ 041600Z VRB02MPS 8000 -SHRA FEW016 FEW020CB BKN036 28/25 Q1015 NOSIG
ZGSZ,2017-10-04 17:00,ZGSZ 041700Z 08003MPS 050V130 9999 FEW018 28/25 Q1014 NOSIG
ZGSZ,2017-10-04 18:00,ZGSZ 041800Z 06003MPS 030V160 9999 FEW018 28/25 Q1013 NOSIG
ZGSZ,2017-10-04 19:00,ZGSZ 041900Z 05002MPS 010V090 9999 BKN043 28/24 Q1013 NOSIG
ZGSZ,2017-10-04 20:00,ZGSZ 042000Z 06003MPS 030V120 9999 SCT050 28/24 Q1013 NOSIG
ZGSZ,2017-10-04 21:00,ZGSZ 042100Z 07003MPS 040V100 CAVOK 27/24 Q1013 NOSIG
ZGSZ,2017-10-04 22:00,ZGSZ 042200Z 08003MPS CAVOK 27/23 Q1013 NOSIG
ZGSZ,2017-10-04 23:00,ZGSZ 042300Z 04002MPS 330V090 CAVOK 28/24 Q1014 NOSIG
ZGSZ,2017-10-05 00:00,ZGSZ 050000Z 05004MPS 020V100 CAVOK 29/23 Q1014 NOSIG
ZGSZ,2017-10-05 01:00,ZGSZ 050100Z 06003MPS 020V110 9999 FEW026 30/23 Q1014 NOSIG
ZGSZ,2017-10-05 02:00,ZGSZ 050200Z 04004MPS 340V070 9999 SCT026 31/23 Q1014 NOSIG
ZGSZ,2017-10-05 03:00,ZGSZ 050300Z 08004MPS 030V110 9999 BKN023 30/23 Q1014 NOSIG
ZGSZ,2017-10-05 04:00,ZGSZ 050400Z 05003MPS 360V080 9999 BKN023 31/23 Q1014 NOSIG
ZGSZ,2017-10-05 05:00,ZGSZ 050500Z 09004MPS 050V120 9999 BKN023 32/22 Q1013 NOSIG
ZGSZ,2017-10-05 06:00,ZGSZ 050600Z 24003MPS 9999 BKN023 31/24 Q1012 NOSIG
ZGSZ,2017-10-05 07:00,ZGSZ 050700Z 22004MPS 9999 SCT023 31/23 Q1011 NOSIG
ZGSZ,2017-10-05 08:00,ZGSZ 050800Z 21004MPS 9999 SCT026 32/25 Q1011 NOSIG
ZGSZ,2017-10-05 09:00,ZGSZ 050900Z 20005MPS 9999 SCT026 30/25 Q1011 BECMG AT1030 12005MPS
ZGSZ,2017-10-05 10:00,ZGSZ 051000Z 20004MPS 9999 SCT026 30/25 Q1011 NOSIG
ZGSZ,2017-10-05 11:00,ZGSZ 051100Z 19004MPS 9999 SCT026 30/25 Q1011 NOSIG
ZGSZ,2017-10-05 12:00,ZGSZ 051200Z 10004MPS 080V140 9999 SCT026 29/24 Q1012 NOSIG
ZGSZ,2017-10-05 13:00,ZGSZ 051300Z 08002MPS 050V120 CAVOK 29/24 Q1013 NOSIG
ZGSZ,2017-10-05 14:00,ZGSZ 051400Z 11003MPS 080V150 CAVOK 29/25 Q1014 NOSIG
ZGSZ,2017-10-05 15:00,ZGSZ 051500Z 11004MPS CAVOK 28/25 Q1014 NOSIG
ZGSZ,2017-10-05 16:00,ZGSZ 051600Z 07003MPS 040V110 CAVOK 28/24 Q1013 NOSIG
ZGSZ,2017-10-05 17:00,ZGSZ 051700Z 09002MPS 060V130 CAVOK 28/24 Q1013 NOSIG
ZGSZ,2017-10-05 18:00,ZGSZ 051800Z 08002MPS CAVOK 28/25 Q1012 NOSIG
ZGSZ,2017-10-05 19:00,ZGSZ 051900Z 06002MPS CAVOK 28/25 Q1012 NOSIG
ZGSZ,2017-10-05 20:00,ZGSZ 052000Z 06003MPS CAVOK 28/24 Q1012 NOSIG
ZGSZ,2017-10-05 21:00,ZGSZ 052100Z 05003MPS CAVOK 28/25 Q1012 NOSIG
ZGSZ,2017-10-05 22:00,ZGSZ 052200Z 05003MPS CAVOK 28/25 Q1012 NOSIG
ZGSZ,2017-10-05 23:00,ZGSZ 052300Z 06004MPS CAVOK 28/24 Q1013 NOSIG
ZGSZ,2017-10-06 00:00,ZGSZ 060000Z 06005MPS CAVOK 28/24 Q1014 NOSIG
ZGSZ,2017-10-06 01:00,ZGSZ 060100Z 07005MPS 9999 FEW040 29/23 Q1014 NOSIG
ZGSZ,2017-10-06 02:00,ZGSZ 060200Z 07004MPS 050V110 9999 FEW033 30/24 Q1015 NOSIG
ZGSZ,2017-10-06 03:00,ZGSZ 060300Z 08004G09MPS 020V140 9999 FEW026TCU FEW033 31/24 Q1014 NOSIG
ZGSZ,2017-10-06 04:00,ZGSZ 060400Z 07003MPS 030V140 9999 FEW026TCU SCT026 32/23 Q1014 NOSIG
ZGSZ,2017-10-06 05:00,ZGSZ 060500Z 10003MPS 060V140 9999 FEW026TCU SCT026 32/23 Q1013 NOSIG
ZGSZ,2017-10-06 06:00,ZGSZ 060600Z 02003MPS 300V060 9999 FEW026TCU SCT026 33/23 Q1012 NOSIG
ZGSZ,2017-10-06 07:00,ZGSZ 060700Z 31002MPS 230V360 9999 FEW026TCU SCT026 33/24 Q1011 NOSIG
ZGSZ,2017-10-06 08:00,ZGSZ 060800Z VRB01MPS 9999 FEW026TCU SCT040 32/25 Q1011 NOSIG
ZGSZ,2017-10-06 09:00,ZGSZ 060900Z 22004MPS 9999 FEW023TCU SCT043 31/25 Q1011 NOSIG
ZGSZ,2017-10-06 10:00,ZGSZ 061000Z 26002MPS 240V300 9999 FEW026 31/25 Q1011 NOSIG
ZGSZ,2017-10-06 11:00,ZGSZ 061100Z VRB01MPS 9999 FEW026 30/25 Q1012 NOSIG
ZGSZ,2017-10-06 12:00,ZGSZ 061200Z 10004MPS 080V140 9999 FEW043 30/24 Q1012 NOSIG
ZGSZ,2017-10-06 13:00,ZGSZ 061300Z 10005MPS CAVOK 29/24 Q1013 NOSIG
ZGSZ,2017-10-06 14:00,ZGSZ 061400Z 10004MPS CAVOK 29/25 Q1013 NOSIG
ZGSZ,2017-10-06 15:00,ZGSZ 061500Z 09002MPS 020V170 CAVOK 29/24 Q1013 NOSIG
ZGSZ,2017-10-06 16:00,ZGSZ 061600Z 09003MPS 040V120 CAVOK 29/24 Q1014 NOSIG
ZGSZ,2017-10-06 17:00,ZGSZ 061700Z 10004MPS 070V140 CAVOK 28/24 Q1013 NOSIG
ZGSZ,2017-10-06 18:00,ZGSZ 061800Z 08003MPS CAVOK 28/24 Q1013 NOSIG
ZGSZ,2017-10-06 19:00,ZGSZ 061900Z 06005MPS CAVOK 28/24 Q1012 NOSIG
ZGSZ,2017-10-06 20:00,ZGSZ 062000Z 05004MPS 030V100 CAVOK 28/24 Q1012 NOSIG
ZGSZ,2017-10-06 21:00,ZGSZ 062100Z 05003MPS CAVOK 28/24 Q1012 NOSIG
ZGSZ,2017-10-06 22:00,ZGSZ 062200Z 05004MPS 040V100 CAVOK 28/24 Q1013 NOSIG
ZGSZ,2017-10-06 23:00,ZGSZ 062300Z 06004MPS 030V100 CAVOK 28/24 Q1013 NOSIG
ZGSZ,2017-10-07 00:00,ZGSZ 070000Z 06004MPS 030V090 CAVOK 28/24 Q1014 NOSIG
ZGSZ,2017-10-07 01:00,ZGSZ 070100Z 06003MPS 040V130 9999 FEW020 30/24 Q1014 NOSIG
ZGSZ,2017-10-07 02:00,ZGSZ 070200Z 06005MPS 350V110 9999 FEW020 31/24 Q1014 NOSIG
ZGSZ,2017-10-07 03:00,ZGSZ 070300Z 06003MPS 340V140 9999 FEW026TCU SCT033 32/24 Q1014 NOSIG
ZGSZ,2017-10-07 04:00,ZGSZ 070400Z 04002MPS 350V090 9999 FEW026TCU SCT033 33/23 Q1013 NOSIG
ZGSZ,2017-10-07 05:00,ZGSZ 070500Z 07004MPS 030V110 9999 FEW026TCU SCT040 34/23 Q1012 NOSIG
ZGSZ,2017-10-07 06:00,ZGSZ 070600Z 24003MPS 9999 FEW026TCU SCT040 32/24 Q1011 NOSIG
ZGSZ,2017-10-07 07:00,ZGSZ 070700Z 23003MPS 190V270 9999 FEW026TCU SCT040 33/25 Q1011 NOSIG
ZGSZ,2017-10-07 08:00,ZGSZ 070800Z 22004MPS CAVOK 32/24 Q1011 NOSIG
ZGSZ,2017-10-07 09:00,ZGSZ 070900Z 20004MPS 9999 -SHRA BKN020 FEW030CB 31/25 Q1011 NOSIG
ZGSZ,2017-10-07 10:00,ZGSZ 071000Z 21003MPS 9999 SCT020 FEW030TCU 30/26 Q1011 NOSIG
ZGSZ,2017-10-07 11:00,ZGSZ 071100Z 12005MPS 9999 SCT020 FEW030TCU 30/25 Q1012 NOSIG
ZGSZ,2017-10-07 12:00,ZGSZ 071200Z 11004MPS 9999 FEW030 30/25 Q1013 NOSIG
ZGSZ,2017-10-07 13:00,ZGSZ 071300Z 11004MPS CAVOK 29/25 Q1013 NOSIG
ZGSZ,2017-10-07 14:00,ZGSZ 071400Z 09003MPS CAVOK 29/24 Q1013 NOSIG
ZGSZ,2017-10-07 15:00,ZGSZ 071500Z 12003MPS 9999 FEW043 29/24 Q1014 NOSIG
ZGSZ,2017-10-07 16:00,ZGSZ 071600Z 10003MPS CAVOK 29/24 Q1014 NOSIG
ZGSZ,2017-10-07 17:00,ZGSZ 071700Z 08002MPS CAVOK 28/24 Q1013 NOSIG
ZGSZ,2017-10-07 18:00,ZGSZ 071800Z 00000MPS 9999 FEW033 28/24 Q1013 NOSIG
ZGSZ,2017-10-07 19:00,ZGSZ 071900Z 00000MPS CAVOK 28/24 Q1012 NOSIG
ZGSZ,2017-10-07 20:00,ZGSZ 072000Z 03002MPS CAVOK 28/25 Q1012 NOSIG
ZGSZ,2017-10-07 21:00,ZGSZ 072100Z 09002MPS CAVOK 28/25 Q1012 NOSIG
ZGSZ,2017-10-07 22:00,ZGSZ 072200Z 06002MPS CAVOK 28/25 Q1012 NOSIG
ZGSZ,2017-10-07 23:00,ZGSZ 072300Z 05003MPS 020V090 6000 NSC 28/25 Q1013 NOSIG
ZGSZ,2017-10-08 00:00,ZGSZ 080000Z 02003MPS 350V060 6000 FEW026 29/25 Q1013 NOSIG
ZGSZ,2017-10-08 01:00,ZGSZ 080100Z 05005MPS 7000 FEW026 30/24 Q1013 NOSIG
ZGSZ,2017-10-08 02:00,ZGSZ 080200Z 03004MPS 350V070 9999 SCT026 32/24 Q1013 NOSIG
ZGSZ,2017-10-08 03:00,ZGSZ 080300Z 07005MPS 030V090 9999 SCT026 32/23 Q1013 NOSIG
ZGSZ,2017-10-08 04:00,ZGSZ 080400Z 04006MPS 010V080 9999 SCT026 33/22 Q1012 BECMG TL0530 18004MPS
ZGSZ,2017-10-08 05:00,ZGSZ 080500Z 04005MPS 9999 SCT026 33/22 Q1010 NOSIG
ZGSZ,2017-10-08 06:00,ZGSZ 080600Z 02004MPS 310V060 9999 SCT026 34/23 Q1009 NOSIG
ZGSZ,2017-10-08 07:00,ZGSZ 080700Z 04005MPS 020V080 9999 SCT026 34/22 Q1009 NOSIG
ZGSZ,2017-10-08 08:00,ZGSZ 080800Z 07005MPS 9999 SCT026 33/22 Q1009 NOSIG
ZGSZ,2017-10-08 09:00,ZGSZ 080900Z 06004MPS 9999 SCT040 33/22 Q1009 NOSIG
ZGSZ,2017-10-08 10:00,ZGSZ 081000Z 08003MPS CAVOK 32/23 Q1010 NOSIG
ZGSZ,2017-10-08 11:00,ZGSZ 081100Z 10006MPS CAVOK 30/24 Q1010 NOSIG
ZGSZ,2017-10-08 12:00,ZGSZ 081200Z 11007MPS CAVOK 30/24 Q1011 NOSIG
ZGSZ,2017-10-08 13:00,ZGSZ 081300Z 12006MPS CAVOK 29/24 Q1012 NOSIG
ZGSZ,2017-10-08 14:00,ZGSZ 081400Z 12005MPS CAVOK 29/24 Q1012 NOSIG
ZGSZ,2017-10-08 15:00,ZGSZ 081500Z 12004MPS CAVOK 29/24 Q1012 NOSIG
ZGSZ,2017-10-08 16:00,ZGSZ 081600Z 08002MPS 040V150 CAVOK 29/24 Q1012 NOSIG
ZGSZ,2017-10-08 17:00,ZGSZ 081700Z 03003MPS 340V100 CAVOK 29/24 Q1011 NOSIG
ZGSZ,2017-10-08 18:00,ZGSZ 081800Z 04004MPS 360V090 CAVOK 29/24 Q1011 NOSIG
ZGSZ,2017-10-08 19:00,ZGSZ 081900Z 05004MPS CAVOK 29/24 Q1011 NOSIG
ZGSZ,2017-10-08 20:00,ZGSZ 082000Z 04003MPS CAVOK 29/24 Q1010 NOSIG
ZGSZ,2017-10-08 21:00,ZGSZ 082100Z 01004MPS CAVOK 29/23 Q1009 NOSIG
ZGSZ,2017-10-08 22:00,ZGSZ 082200Z 04003MPS CAVOK 28/23 Q1009 NOSIG
ZGSZ,2017-10-08 23:00,ZGSZ 082300Z 06002MPS 020V100 CAVOK 28/23 Q1010 NOSIG
ZGSZ,2017-10-09 00:00,ZGSZ 090000Z 04003MPS CAVOK 29/23 Q1011 NOSIG
ZGSZ,2017-10-09 01:00,ZGSZ 090100Z 03005MPS 010V070 CAVOK 31/23 Q1011 NOSIG
ZGSZ,2017-10-09 02:00,ZGSZ 090200Z 07004MPS 020V130 CAVOK 32/23 Q1011 NOSIG
ZGSZ,2017-10-09 03:00,ZGSZ 090300Z 06006MPS 020V080 CAVOK 33/23 Q1011 NOSIG
ZGSZ,2017-10-09 04:00,ZGSZ 090400Z 07006G11MPS 9999 BKN030 34/23 Q1010 NOSIG
ZGSZ,2017-10-09 05:00,ZGSZ 090500Z 06007MPS 9999 BKN030 33/23 Q1009 NOSIG
ZGSZ,2017-10-09 06:00,ZGSZ 090600Z 08005MPS 040V100 9999 BKN030 34/23 Q1008 NOSIG
ZGSZ,2017-10-09 07:00,ZGSZ 090700Z 06006MPS 030V090 9999 BKN030 34/23 Q1008 NOSIG
ZGSZ,2017-10-09 08:00,ZGSZ 090800Z 07006G11MPS 9999 SCT040 33/23 Q1008 NOSIG
ZGSZ,2017-10-09 09:00,ZGSZ 090900Z 06006MPS 9999 FEW033 BKN050 33/24 Q1009 NOSIG
ZGSZ,2017-10-09 10:00,ZGSZ 091000Z 10006MPS CAVOK 32/23 Q1009 NOSIG
ZGSZ,2017-10-09 11:00,ZGSZ 091100Z 08004MPS 030V120 CAVOK 32/23 Q1009 NOSIG
ZGSZ,2017-10-09 12:00,ZGSZ 091200Z 08003MPS 050V130 CAVOK 32/23 Q1010 NOSIG
ZGSZ,2017-10-09 13:00,ZGSZ 091300Z 09004MPS 060V140 CAVOK 31/24 Q1011 NOSIG
ZGSZ,2017-10-09 14:00,ZGSZ 091400Z 08004MPS CAVOK 31/23 Q1011 NOSIG
ZGSZ,2017-10-09 15:00,ZGSZ 091500Z 09005MPS 070V140 CAVOK 31/23 Q1011 NOSIG
ZGSZ,2017-10-09 16:00,ZGSZ 091600Z 07004MPS CAVOK 31/23 Q1010 NOSIG
ZGSZ,2017-10-09 17:00,ZGSZ 091700Z 06003MPS 040V100 CAVOK 30/24 Q1010 NOSIG
ZGSZ,2017-10-09 18:00,ZGSZ 091800Z 05004G09MPS 030V110 9999 FEW020 30/24 Q1010 NOSIG
ZGSZ,2017-10-09 19:00,ZGSZ 091900Z 06004MPS 030V090 9999 FEW020 30/24 Q1010 NOSIG
ZGSZ,2017-10-09 20:00,ZGSZ 092000Z 07003MPS 030V120 CAVOK 30/23 Q1010 NOSIG
ZGSZ,2017-10-09 21:00,ZGSZ 092100Z 06003MPS 030V100 CAVOK 29/23 Q1010 NOSIG
ZGSZ,2017-10-09 22:00,ZGSZ 092200Z VRB03MPS CAVOK 29/23 Q1010 NOSIG
ZGSZ,2017-10-09 23:00,ZGSZ 092300Z 05002MPS 360V110 CAVOK 29/24 Q1011 NOSIG
ZGSZ,2017-10-10 00:00,ZGSZ 100000Z 06004MPS 020V120 CAVOK 31/23 Q1012 NOSIG
ZGSZ,2017-10-10 01:00,ZGSZ 100100Z 07005MPS 040V110 CAVOK 32/23 Q1012 NOSIG
ZGSZ,2017-10-10 02:00,ZGSZ 100200Z 06005MPS 030V140 CAVOK 32/23 Q1012 NOSIG
ZGSZ,2017-10-10 03:00,ZGSZ 100300Z 06007MPS 9999 FEW030 33/23 Q1012 NOSIG
ZGSZ,2017-10-10 04:00,ZGSZ 100400Z 09005MPS 050V140 9999 SCT033 34/23 Q1011 NOSIG
ZGSZ,2017-10-10 05:00,ZGSZ 100500Z 08005G10MPS 030V120 9999 FEW050 35/22 Q1010 NOSIG
ZGSZ,2017-10-10 06:00,ZGSZ 100600Z 08005G10MPS 030V110 9999 SCT050 35/22 Q1009 NOSIG
ZGSZ,2017-10-10 07:00,ZGSZ 100700Z 11007MPS 9999 FEW030 36/22 Q1009 NOSIG
ZGSZ,2017-10-10 08:00,ZGSZ 100800Z 11006MPS 060V140 9999 FEW030 35/22 Q1009 NOSIG
ZGSZ,2017-10-10 09:00,ZGSZ 100900Z 09004MPS 060V120 CAVOK 34/22 Q1009 NOSIG
ZGSZ,2017-10-10 10:00,ZGSZ 101000Z 11006MPS 9999 FEW040 33/21 Q1009 NOSIG
ZGSZ,2017-10-10 11:00,ZGSZ 101100Z 12005MPS 9999 FEW040 32/22 Q1010 NOSIG
ZGSZ,2017-10-10 12:00,ZGSZ 101200Z 12005MPS 9999 SCT040 32/22 Q1011 NOSIG
ZGSZ,2017-10-10 13:00,ZGSZ 101300Z 12005MPS 9999 SCT040 31/23 Q1011 NOSIG
ZGSZ,2017-10-10 14:00,ZGSZ 101400Z 10003MPS CAVOK 30/24 Q1011 NOSIG
ZGSZ,2017-10-10 15:00,ZGSZ 101500Z 10004MPS CAVOK 30/25 Q1011 NOSIG
ZGSZ,2017-10-10 16:00,ZGSZ 101600Z 10004MPS CAVOK 30/25 Q1011 NOSIG
ZGSZ,2017-10-10 17:00,ZGSZ 101700Z 11004MPS CAVOK 29/25 Q1011 NOSIG
ZGSZ,2017-10-10 18:00,ZGSZ 101800Z 09003MPS CAVOK 29/25 Q1011 NOSIG
ZGSZ,2017-10-10 19:00,ZGSZ 101900Z 08003MPS CAVOK 29/25 Q1011 NOSIG
ZGSZ,2017-10-10 20:00,ZGSZ 102000Z 10002MPS CAVOK 29/25 Q1011 NOSIG
ZGSZ,2017-10-10 21:00,ZGSZ 102100Z 09003MPS CAVOK 29/25 Q1011 NOSIG
ZGSZ,2017-10-10 22:00,ZGSZ 102200Z 08002MPS CAVOK 29/25 Q1011 NOSIG
ZGSZ,2017-10-10 23:00,ZGSZ 102300Z 07002MPS 020V130 9999 FEW020 SCT033 29/25 Q1012 NOSIG
ZGSZ,2017-10-11 00:00,ZGSZ 110000Z 06003MPS 020V100 9999 FEW020 SCT033 30/25 Q1012 NOSIG
ZGSZ,2017-10-11 01:00,ZGSZ 110100Z 05003MPS 9999 BKN020 FEW030TCU 30/25 Q1013 NOSIG
ZGSZ,2017-10-11 02:00,ZGSZ 110200Z 06004MPS 340V100 9999 BKN020 32/25 Q1012 NOSIG
ZGSZ,2017-10-11 03:00,ZGSZ 110300Z 10004MPS 020V160 9999 SCT020 FEW030TCU 33/24 Q1012 NOSIG
ZGSZ,2017-10-11 04:00,ZGSZ 110400Z 10004MPS 050V150 9999 SCT020 FEW030TCU 33/24 Q1011 NOSIG
ZGSZ,2017-10-11 05:00,ZGSZ 110500Z VRB02MPS 9999 SCT020 FEW030TCU 34/24 Q1010 NOSIG
ZGSZ,2017-10-11 06:00,ZGSZ 110600Z 20003MPS 100V230 9999 SCT020 33/24 Q1009 NOSIG
ZGSZ,2017-10-11 07:00,ZGSZ 110700Z 22005MPS 9999 SCT020 FEW030TCU 32/25 Q1008 NOSIG
ZGSZ,2017-10-11 08:00,ZGSZ 110800Z 21004MPS 9999 SCT020 FEW030TCU 32/24 Q1008 NOSIG
ZGSZ,2017-10-11 09:00,ZGSZ 110900Z 21003MPS 9999 FEW026 FEW030TCU 32/25 Q1008 NOSIG
ZGSZ,2017-10-11 10:00,ZGSZ 111000Z 21004MPS 9999 FEW030TCU 31/26 Q1009 NOSIG
ZGSZ,2017-10-11 11:00,ZGSZ 111100Z 20004MPS CAVOK 30/26 Q1010 NOSIG
ZGSZ,2017-10-11 12:00,ZGSZ 111200Z 18003MPS CAVOK 30/26 Q1011 NOSIG
ZGSZ,2017-10-11 13:00,ZGSZ 111300Z 20004MPS CAVOK 30/26 Q1011 NOSIG
ZGSZ,2017-10-11 14:00,ZGSZ 111400Z 11004MPS CAVOK 30/24 Q1012 NOSIG
ZGSZ,2017-10-11 15:00,ZGSZ 111500Z 11004MPS CAVOK 30/24 Q1012 NOSIG
ZGSZ,2017-10-11 16:00,ZGSZ 111600Z 10003MPS CAVOK 30/25 Q1012 NOSIG
ZGSZ,2017-10-11 17:00,ZGSZ 111700Z 09003MPS 060V140 CAVOK 29/25 Q1011 NOSIG
ZGSZ,2017-10-11 18:00,ZGSZ 111800Z 11002MPS CAVOK 29/25 Q1011 NOSIG
ZGSZ,2017-10-11 19:00,ZGSZ 111900Z 10002MPS CAVOK 29/25 Q1011 NOSIG
ZGSZ,2017-10-11 20:00,ZGSZ 112000Z 09002MPS 060V160 CAVOK 29/25 Q1011 NOSIG
ZGSZ,2017-10-11 21:00,ZGSZ 112100Z 08002MPS 060V130 CAVOK 29/25 Q1011 NOSIG
ZGSZ,2017-10-11 22:00,ZGSZ 112200Z 10002MPS CAVOK 28/24 Q1011 NOSIG
ZGSZ,2017-10-11 23:00,ZGSZ 112300Z 05003MPS 9999 FEW026TCU 29/25 Q1011 NOSIG
ZGSZ,2017-10-12 00:00,ZGSZ 120000Z 05004MPS 020V080 9999 SCT023 29/24 Q1012 NOSIG
ZGSZ,2017-10-12 01:00,ZGSZ 120100Z 02005MPS 350V050 9999 FEW023 30/24 Q1012 NOSIG
ZGSZ,2017-10-12 02:00,ZGSZ 120200Z 04005MPS CAVOK 32/23 Q1011 NOSIG
ZGSZ,2017-10-12 03:00,ZGSZ 120300Z 05005MPS 9999 FEW030 32/23 Q1011 NOSIG
ZGSZ,2017-10-12 04:00,ZGSZ 120400Z 02005MPS 340V060 9999 FEW030 33/22 Q1009 NOSIG
ZGSZ,2017-10-12 05:00,ZGSZ 120500Z 01006MPS 9999 FEW030 35/21 Q1009 NOSIG
ZGSZ,2017-10-12 06:00,ZGSZ 120600Z VRB05MPS 9999 FEW033 33/21 Q1008 NOSIG
ZGSZ,2017-10-12 07:00,ZGSZ 120700Z 34005MPS 310V020 9999 FEW033 34/21 Q1007 NOSIG
ZGSZ,2017-10-12 08:00,ZGSZ 120800Z 34006MPS 300V030 9999 FEW033 33/22 Q1007 NOSIG
ZGSZ,2017-10-12 09:00,ZGSZ 120900Z 36006MPS 320V030 9999 FEW033 32/22 Q1008 NOSIG
ZGSZ,2017-10-12 10:00,ZGSZ 121000Z 35007MPS 9999 SCT030 30/22 Q1008 NOSIG
ZGSZ,2017-10-12 11:00,ZGSZ 121100Z 34008MPS 9999 FEW030 29/22 Q1009 NOSIG
ZGSZ,2017-10-12 12:00,ZGSZ 121200Z 36006MPS CAVOK 29/21 Q1010 NOSIG
ZGSZ,2017-10-12 13:00,ZGSZ 121300Z 01005MPS CAVOK 29/20 Q1010 NOSIG
ZGSZ,2017-10-12 14:00,ZGSZ 121400Z 01007MPS CAVOK 28/19 Q1011 NOSIG
ZGSZ,2017-10-12 15:00,ZGSZ 121500Z 01007MPS CAVOK 27/18 Q1010 NOSIG
ZGSZ,2017-10-12 16:00,ZGSZ 121600Z 01008MPS CAVOK 26/18 Q1010 NOSIG
ZGSZ,2017-10-12 17:00,ZGSZ 121700Z 01006MPS CAVOK 26/18 Q1010 NOSIG
ZGSZ,2017-10-12 18:00,ZGSZ 121800Z 01007MPS CAVOK 25/18 Q1010 NOSIG
ZGSZ,2017-10-12 19:00,ZGSZ 121900Z 02006MPS CAVOK 25/18 Q1010 NOSIG
ZGSZ,2017-10-12 20:00,ZGSZ 122000Z 02007MPS CAVOK 24/17 Q1010 NOSIG
ZGSZ,2017-10-12 21:00,ZGSZ 122100Z 02007MPS CAVOK 24/17 Q1010 NOSIG
ZGSZ,2017-10-12 22:00,ZGSZ 122200Z 01007MPS CAVOK 23/17 Q1010 NOSIG
ZGSZ,2017-10-12 23:00,ZGSZ 122300Z 02007MPS CAVOK 24/17 Q1010 NOSIG
ZGSZ,2017-10-13 00:00,ZGSZ 130000Z 02007MPS CAVOK 25/17 Q1011 NOSIG
ZGSZ,2017-10-13 01:00,ZGSZ 130100Z 03008MPS 360V060 CAVOK 25/17 Q1011 NOSIG
ZGSZ,2017-10-13 02:00,ZGSZ 130200Z 02007MPS CAVOK 27/18 Q1011 NOSIG
ZGSZ,2017-10-13 03:00,ZGSZ 130300Z 02006MPS 340V060 CAVOK 29/18 Q1010 NOSIG
ZGSZ,2017-10-13 04:00,ZGSZ 130400Z 03005MPS 320V070 CAVOK 29/19 Q1010 NOSIG
ZGSZ,2017-10-13 05:00,ZGSZ 130500Z 36007MPS 320V020 CAVOK 30/18 Q1009 NOSIG
ZGSZ,2017-10-13 06:00,ZGSZ 130600Z 36007MPS CAVOK 31/18 Q1008 NOSIG
ZGSZ,2017-10-13 07:00,ZGSZ 130700Z 01005MPS 330V030 CAVOK 31/19 Q1007 NOSIG
ZGSZ,2017-10-13 08:00,ZGSZ 130800Z 35006MPS 320V020 CAVOK 31/19 Q1006 NOSIG
ZGSZ,2017-10-13 09:00,ZGSZ 130900Z 34007MPS CAVOK 30/18 Q1006 NOSIG
ZGSZ,2017-10-13 10:00,ZGSZ 131000Z 33008MPS 9999 SCT050 28/19 Q1006 NOSIG
ZGSZ,2017-10-13 11:00,ZGSZ 131100Z 34007MPS 9999 SCT050 27/18 Q1007 NOSIG
ZGSZ,2017-10-13 12:00,ZGSZ 131200Z 34007MPS 9999 SCT050 26/18 Q1008 NOSIG
ZGSZ,2017-10-13 13:00,ZGSZ 131300Z 36007MPS 9999 SCT050 26/18 Q1008 NOSIG
ZGSZ,2017-10-13 14:00,ZGSZ 131400Z 02009MPS CAVOK 26/18 Q1008 NOSIG
ZGSZ,2017-10-13 15:00,ZGSZ 131500Z 02009MPS CAVOK 25/17 Q1008 NOSIG
ZGSZ,2017-10-13 16:00,ZGSZ 131600Z 01008MPS CAVOK 24/17 Q1008 NOSIG
ZGSZ,2017-10-13 17:00,ZGSZ 131700Z 01009MPS CAVOK 24/17 Q1008 NOSIG
ZGSZ,2017-10-13 18:00,ZGSZ 131800Z 02008MPS CAVOK 24/17 Q1007 NOSIG
ZGSZ,2017-10-13 19:00,ZGSZ 131900Z 02008MPS CAVOK 24/17 Q1006 NOSIG
ZGSZ,2017-10-13 20:00,ZGSZ 132000Z 02008MPS CAVOK 24/17 Q1006 NOSIG
ZGSZ,2017-10-13 21:00,ZGSZ 132100Z 02008MPS CAVOK 24/17 Q1006 NOSIG
ZGSZ,2017-10-13 22:00,ZGSZ 132200Z 01007MPS CAVOK 24/17 Q1006 NOSIG
ZGSZ,2017-10-13 23:00,ZGSZ 132300Z 01006MPS 340V040 CAVOK 24/17 Q1006 NOSIG
ZGSZ,2017-10-14 00:00,ZGSZ 140000Z 02009MPS CAVOK 24/17 Q1007 NOSIG
ZGSZ,2017-10-14 01:00,ZGSZ 140100Z 02007MPS 9999 BKN050 25/17 Q1007 NOSIG
ZGSZ,2017-10-14 02:00,ZGSZ 140200Z 36008MPS 9999 FEW043 BKN053 25/17 Q1007 NOSIG
ZGSZ,2017-10-14 03:00,ZGSZ 140300Z 02007MPS 340V040 9999 BKN046 26/17 Q1007 NOSIG
ZGSZ,2017-10-14 04:00,ZGSZ 140400Z 36008MPS 9999 BKN050 26/17 Q1006 NOSIG
ZGSZ,2017-10-14 05:00,ZGSZ 140500Z 01008MPS 9999 FEW036 BKN050 26/18 Q1005 NOSIG
ZGSZ,2017-10-14 06:00,ZGSZ 140600Z 36008MPS 9999 FEW036 BKN050 27/18 Q1004 NOSIG
ZGSZ,2017-10-14 07:00,ZGSZ 140700Z 02008MPS 9999 OVC043 26/18 Q1004 NOSIG
ZGSZ,2017-10-14 08:00,ZGSZ 140800Z 02007MPS 9999 -SHRA BKN040 26/18 Q1004 NOSIG
ZGSZ,2017-10-14 09:00,ZGSZ 140900Z 36008MPS 9999 BKN033 25/18 Q1005 NOSIG
ZGSZ,2017-10-14 10:00,ZGSZ 141000Z 36007MPS 9999 BKN033 25/17 Q1005 NOSIG
ZGSZ,2017-10-14 11:00,ZGSZ 141100Z 02009G14MPS 9999 SCT043 25/17 Q1005 NOSIG
ZGSZ,2017-10-14 12:00,ZGSZ 141200Z 36008MPS 330V030 9999 BKN043 24/17 Q1005 NOSIG
ZGSZ,2017-10-14 13:00,ZGSZ 141300Z 02008MPS 9999 BKN043 24/17 Q1006 NOSIG
ZGSZ,2017-10-14 14:00,ZGSZ 141400Z 01008MPS 9999 FEW040 24/17 Q1005 NOSIG
ZGSZ,2017-10-14 15:00,ZGSZ 141500Z 01009MPS CAVOK 24/17 Q1005 NOSIG
ZGSZ,2017-10-14 16:00,ZGSZ 141600Z 01009G14MPS CAVOK 24/17 Q1004 NOSIG
ZGSZ,2017-10-14 17:00,ZGSZ 141700Z 36007MPS 9999 FEW040 24/17 Q1004 NOSIG
ZGSZ,2017-10-14 18:00,ZGSZ 141800Z 36009MPS 9999 FEW040 23/16 Q1003 NOSIG
ZGSZ,2017-10-14 19:00,ZGSZ 141900Z 36009MPS 9999 FEW040 23/17 Q1003 NOSIG
ZGSZ,2017-10-14 20:00,ZGSZ 142000Z 36008G13MPS 9999 FEW036 23/17 Q1002 NOSIG
ZGSZ,2017-10-14 21:00,ZGSZ 142100Z 36006MPS 9999 -SHRA SCT030 23/17 Q1002 NOSIG
ZGSZ,2017-10-14 22:00,ZGSZ 142200Z 36009MPS 9999 SCT040 23/17 Q1002 NOSIG
ZGSZ,2017-10-14 23:00,ZGSZ 142300Z 36009MPS 7000 -SHRA SCT040 21/18 Q1002 NOSIG
ZGSZ,2017-10-15 00:00,ZGSZ 150000Z 01010G15MPS 8000 -SHRA SCT050 21/18 Q1003 NOSIG
ZGSZ,2017-10-15 01:00,ZGSZ 150100Z 01008G13MPS 9999 -SHRA SCT020 21/19 Q1003 NOSIG
ZGSZ,2017-10-15 02:00,ZGSZ 150200Z 02011MPS 9999 SCT020 21/18 Q1003 NOSIG
ZGSZ,2017-10-15 03:00,ZGSZ 150300Z 02013G18MPS 9999 SCT020 22/18 Q1002 NOSIG
ZGSZ,2017-10-15 04:00,ZGSZ 150400Z 02012G17MPS 9999 SCT020 23/18 Q1001 NOSIG
ZGSZ,2017-10-15 05:00,ZGSZ 150500Z 02011G16MPS 9999 -SHRA SCT020 22/19 Q1000 NOSIG
ZGSZ,2017-10-15 06:00,ZGSZ 150600Z 02011G16MPS 9999 -SHRA SCT020 22/19 Q0999 NOSIG
ZGSZ,2017-10-15 07:00,ZGSZ 150700Z 03012MPS 9999 -SHRA SCT020 22/20 Q0999 NOSIG
ZGSZ,2017-10-15 08:00,ZGSZ 150800Z 03015G20MPS 9999 SCT015 BKN046 22/19 Q0999 NOSIG
ZGSZ,2017-10-15 09:00,ZGSZ 150900Z 03012G18MPS 9999 -RA SCT015 BKN046 22/20 Q1000 NOSIG
ZGSZ,2017-10-15 10:00,ZGSZ 151000Z 04011G17MPS 9999 -RA SCT015 BKN046 22/20 Q1000 NOSIG
ZGSZ,2017-10-15 11:00,ZGSZ 151100Z 04013MPS 9999 -RA SCT015 BKN046 22/20 Q1001 NOSIG
ZGSZ,2017-10-15 12:00,ZGSZ 151200Z 04008MPS 9999 -RA SCT015 BKN046 21/20 Q1003 NOSIG
ZGSZ,2017-10-15 13:00,ZGSZ 151300Z 04007MPS 9999 -RA SCT015 BKN046 21/20 Q1004 NOSIG
ZGSZ,2017-10-15 14:00,ZGSZ 151400Z 03008MPS 9999 -RA FEW015 BKN029 21/20 Q1005 NOSIG
ZGSZ,2017-10-15 15:00,ZGSZ 151500Z 03006MPS 9999 SCT020 BKN030 21/20 Q1005 NOSIG
ZGSZ,2017-10-15 16:00,ZGSZ 151600Z 03006MPS 9999 SCT017 BKN030 22/20 Q1005 NOSIG
ZGSZ,2017-10-15 17:00,ZGSZ 151700Z 04008MPS 9999 SCT019 BKN030 22/20 Q1005 NOSIG
ZGSZ,2017-10-15 18:00,ZGSZ 151800Z 04008MPS 9999 FEW019 BKN030 22/21 Q1005 NOSIG
ZGSZ,2017-10-15 19:00,ZGSZ 151900Z 05005MPS 9999 -RA SCT016 BKN030 22/21 Q1005 NOSIG
ZGSZ,2017-10-15 20:00,ZGSZ 152000Z 03005MPS 9999 BKN030 22/21 Q1005 NOSIG
ZGSZ,2017-10-15 21:00,ZGSZ 152100Z 03008MPS 9999 BKN030 22/20 Q1006 NOSIG
ZGSZ,2017-10-15 22:00,ZGSZ 152200Z 03008MPS 9999 BKN030 22/20 Q1006 NOSIG
ZGSZ,2017-10-15 23:00,ZGSZ 152300Z 03008MPS 9999 BKN030 22/21 Q1007 NOSIG
ZGSZ,2017-10-16 00:00,ZGSZ 160000Z 03007MPS 9999 BKN030 23/21 Q1008 NOSIG
ZGSZ,2017-10-16 01:00,ZGSZ 160100Z 04006MPS 7000 SHRA SCT015 BKN040 23/22 Q1009 BECMG AT0140 -SHRA
ZGSZ,2017-10-16 02:00,ZGSZ 160200Z 04007MPS 9999 FEW016 BKN040 24/22 Q1009 NOSIG
ZGSZ,2017-10-16 03:00,ZGSZ 160300Z 04008MPS 9999 FEW016 BKN040 25/22 Q1009 BECMG AT0340 SHRA
ZGSZ,2017-10-16 04:00,ZGSZ 160400Z 04007MPS 9999 -SHRA SCT016 BKN040 23/22 Q1009 RESHRA BECMG AT0430 -SHRA
ZGSZ,2017-10-16 05:00,ZGSZ 160500Z 03005MPS 9999 -SHRA FEW016 BKN040 24/22 Q1009 BECMG AT0540 SHRA
ZGSZ,2017-10-16 06:00,ZGSZ 160600Z 34003MPS 9999 -SHRA FEW013 BKN040 23/22 Q1008 NOSIG
ZGSZ,2017-10-16 07:00,ZGSZ 160700Z 01005MPS 9999 BKN033 24/22 Q1008 NOSIG
ZGSZ,2017-10-16 08:00,ZGSZ 160800Z 02003MPS 350V050 9999 FEW016 BKN033 25/22 Q1008 NOSIG
ZGSZ,2017-10-16 09:00,ZGSZ 160900Z 01004MPS 9999 SCT023 BKN050 25/22 Q1008 NOSIG
ZGSZ,2017-10-16 10:00,ZGSZ 161000Z 01003MPS 9999 SCT023 FEW033CB BKN050 25/22 Q1009 NOSIG
ZGSZ,2017-10-16 11:00,ZGSZ 161100Z 03004MPS 9999 SCT025 BKN043 25/22 Q1009 NOSIG
ZGSZ,2017-10-16 12:00,ZGSZ 161200Z 04005MPS 9999 FEW025 BKN050 25/22 Q1010 NOSIG
ZGSZ,2017-10-16 13:00,ZGSZ 161300Z 04005MPS 9999 FEW027 BKN050 25/21 Q1011 NOSIG
ZGSZ,2017-10-16 14:00,ZGSZ 161400Z 04004MPS 9999 BKN028 25/21 Q1012 NOSIG
ZGSZ,2017-10-16 15:00,ZGSZ 161500Z 03006MPS 9999 SCT030 24/21 Q1012 NOSIG
ZGSZ,2017-10-16 16:00,ZGSZ 161600Z 04008MPS 9999 BKN053 24/20 Q1012 BECMG AT1700 SHRA
ZGSZ,2017-10-16 17:00,ZGSZ 161700Z 03005MPS 350V060 6000 SHRA BKN014 FEW030CB BKN053 22/21 Q1012 BECMG TL1830 SCT012
ZGSZ,2017-10-16 18:00,ZGSZ 161800Z 02005MPS 9999 -SHRA SCT014 FEW030CB BKN053 22/21 Q1012 NOSIG
ZGSZ,2017-10-16 19:00,ZGSZ 161900Z 01004MPS 9999 -SHRA SCT020 BKN053 21/21 Q1012 NOSIG
ZGSZ,2017-10-16 20:00,ZGSZ 162000Z 01005MPS 9999 -SHRA SCT015 OVC043 21/20 Q1012 RESHRA NOSIG
ZGSZ,2017-10-16 21:00,ZGSZ 162100Z 02006MPS 9999 SCT022 BKN050 21/20 Q1012 NOSIG
ZGSZ,2017-10-16 22:00,ZGSZ 162200Z 02005MPS 9999 BKN022 BKN040 22/20 Q1012 NOSIG
ZGSZ,2017-10-16 23:00,ZGSZ 162300Z 03006MPS 9999 SCT022 BKN033 22/20 Q1013 NOSIG
ZGSZ,2017-10-17 00:00,ZGSZ 170000Z 04006MPS 9999 FEW022 BKN050 23/20 Q1013 NOSIG
ZGSZ,2017-10-17 01:00,ZGSZ 170100Z 04006MPS 9999 BKN033 23/20 Q1014 NOSIG
ZGSZ,2017-10-17 02:00,ZGSZ 170200Z 04006MPS 9999 FEW033 BKN050 24/20 Q1014 NOSIG
ZGSZ,2017-10-17 03:00,ZGSZ 170300Z 02005MPS 9999 FEW023 26/21 Q1014 NOSIG
ZGSZ,2017-10-17 04:00,ZGSZ 170400Z 03005MPS 9999 FEW023 26/21 Q1013 NOSIG
ZGSZ,2017-10-17 05:00,ZGSZ 170500Z 03006MPS 9999 FEW023 28/21 Q1012 NOSIG
ZGSZ,2017-10-17 06:00,ZGSZ 170600Z 04005MPS CAVOK 28/21 Q1011 NOSIG
ZGSZ,2017-10-17 07:00,ZGSZ 170700Z 02004MPS 9999 FEW023 28/22 Q1011 NOSIG
ZGSZ,2017-10-17 08:00,ZGSZ 170800Z 03005MPS 9999 SCT040 28/22 Q1011 NOSIG
ZGSZ,2017-10-17 09:00,ZGSZ 170900Z 03005MPS 9999 SCT040 BKN053 27/22 Q1011 NOSIG
ZGSZ,2017-10-17 10:00,ZGSZ 171000Z 04005MPS 9999 BKN053 27/21 Q1012 NOSIG
ZGSZ,2017-10-17 11:00,ZGSZ 171100Z 03004MPS 9999 BKN050 26/21 Q1012 NOSIG
ZGSZ,2017-10-17 12:00,ZGSZ 171200Z 04006MPS CAVOK 26/21 Q1013 NOSIG
ZGSZ,2017-10-17 13:00,ZGSZ 171300Z 03005MPS CAVOK 26/21 Q1014 NOSIG
ZGSZ,2017-10-17 14:00,ZGSZ 171400Z 02005MPS 9999 FEW033 25/21 Q1014 NOSIG
ZGSZ,2017-10-17 15:00,ZGSZ 171500Z 03006MPS CAVOK 25/20 Q1014 NOSIG
ZGSZ,2017-10-17 16:00,ZGSZ 171600Z 02003MPS 350V050 CAVOK 25/20 Q1014 NOSIG
ZGSZ,2017-10-17 17:00,ZGSZ 171700Z 03004MPS CAVOK 25/20 Q1014 NOSIG
ZGSZ,2017-10-17 18:00,ZGSZ 171800Z 03004MPS 9999 FEW033 24/20 Q1014 NOSIG
ZGSZ,2017-10-17 19:00,ZGSZ 171900Z 03005MPS 9999 FEW033 24/20 Q1013 NOSIG
ZGSZ,2017-10-17 20:00,ZGSZ 172000Z 02005MPS CAVOK 24/20 Q1013 NOSIG
ZGSZ,2017-10-17 21:00,ZGSZ 172100Z 04004MPS CAVOK 24/19 Q1013 NOSIG
ZGSZ,2017-10-17 22:00,ZGSZ 172200Z 03002MPS 350V060 CAVOK 23/19 Q1013 NOSIG
ZGSZ,2017-10-17 23:00,ZGSZ 172300Z 04003MPS CAVOK 23/19 Q1014 NOSIG
ZGSZ,2017-10-18 00:00,ZGSZ 180000Z 03005MPS CAVOK 25/19 Q1015 NOSIG
ZGSZ,2017-10-18 01:00,ZGSZ 180100Z 04006MPS CAVOK 26/19 Q1015 NOSIG
ZGSZ,2017-10-18 02:00,ZGSZ 180200Z 03005MPS CAVOK 27/20 Q1015 NOSIG
ZGSZ,2017-10-18 03:00,ZGSZ 180300Z 04005MPS 360V070 9999 FEW027 27/20 Q1015 NOSIG
ZGSZ,2017-10-18 04:00,ZGSZ 180400Z 03006MPS 350V060 9999 FEW050 28/20 Q1014 NOSIG
ZGSZ,2017-10-18 05:00,ZGSZ 180500Z 06005MPS 020V080 9999 SCT050 29/20 Q1013 NOSIG
ZGSZ,2017-10-18 06:00,ZGSZ 180600Z 01005MPS 340V070 9999 FEW030 30/21 Q1012 NOSIG
ZGSZ,2017-10-18 07:00,ZGSZ 180700Z 01005MPS 330V040 9999 FEW033 30/21 Q1012 NOSIG
ZGSZ,2017-10-18 08:00,ZGSZ 180800Z 03006MPS 9999 SCT033 29/20 Q1012 NOSIG
ZGSZ,2017-10-18 09:00,ZGSZ 180900Z 06005MPS 9999 SCT033 28/21 Q1012 NOSIG
ZGSZ,2017-10-18 10:00,ZGSZ 181000Z 04004MPS CAVOK 28/20 Q1012 NOSIG
ZGSZ,2017-10-18 11:00,ZGSZ 181100Z 05004MPS 9999 FEW043 27/20 Q1012 NOSIG
ZGSZ,2017-10-18 12:00,ZGSZ 181200Z 04005MPS 9999 BKN046 27/20 Q1013 NOSIG
ZGSZ,2017-10-18 13:00,ZGSZ 181300Z 04006MPS CAVOK 27/20 Q1013 NOSIG
ZGSZ,2017-10-18 14:00,ZGSZ 181400Z 03006MPS CAVOK 26/19 Q1014 NOSIG
ZGSZ,2017-10-18 15:00,ZGSZ 181500Z 02007MPS 9999 OVC050 26/19 Q1014 NOSIG
ZGSZ,2017-10-18 16:00,ZGSZ 181600Z 02005MPS 9999 OVC050 26/19 Q1014 NOSIG
ZGSZ,2017-10-18 17:00,ZGSZ 181700Z 02005MPS 330V050 9999 OVC050 25/19 Q1013 NOSIG
ZGSZ,2017-10-18 18:00,ZGSZ 181800Z 02006MPS 9999 OVC050 25/19 Q1013 NOSIG
ZGSZ,2017-10-18 19:00,ZGSZ 181900Z 03006MPS 9999 OVC050 25/19 Q1012 NOSIG
ZGSZ,2017-10-18 20:00,ZGSZ 182000Z 02006MPS 9999 OVC050 24/18 Q1012 NOSIG
ZGSZ,2017-10-18 21:00,ZGSZ 182100Z 02005MPS 9999 OVC050 24/18 Q1012 NOSIG
ZGSZ,2017-10-18 22:00,ZGSZ 182200Z 02005MPS 9999 OVC050 24/18 Q1013 NOSIG
ZGSZ,2017-10-18 23:00,ZGSZ 182300Z 01003MPS 9999 BKN050 24/18 Q1013 NOSIG
ZGSZ,2017-10-19 00:00,ZGSZ 190000Z 01004MPS 9999 BKN050 24/18 Q1014 NOSIG
ZGSZ,2017-10-19 01:00,ZGSZ 190100Z 01006MPS 9999 OVC053 24/18 Q1014 NOSIG
ZGSZ,2017-10-19 02:00,ZGSZ 190200Z 01006MPS 9999 OVC053 25/18 Q1015 NOSIG
ZGSZ,2017-10-19 03:00,ZGSZ 190300Z 01007MPS CAVOK 25/18 Q1014 NOSIG
ZGSZ,2017-10-19 04:00,ZGSZ 190400Z 02006MPS 350V060 CAVOK 26/18 Q1013 NOSIG
ZGSZ,2017-10-19 05:00,ZGSZ 190500Z 36006MPS CAVOK 27/18 Q1013 NOSIG
ZGSZ,2017-10-19 06:00,ZGSZ 190600Z 01006MPS 340V040 CAVOK 28/19 Q1012 NOSIG
ZGSZ,2017-10-19 07:00,ZGSZ 190700Z 01006MPS 340V040 CAVOK 28/19 Q1011 NOSIG
ZGSZ,2017-10-19 08:00,ZGSZ 190800Z 36006MPS 9999 FEW050 27/19 Q1011 NOSIG
ZGSZ,2017-10-19 09:00,ZGSZ 190900Z 02006MPS 350V060 CAVOK 27/18 Q1011 NOSIG
ZGSZ,2017-10-19 10:00,ZGSZ 191000Z 03007MPS CAVOK 26/18 Q1011 NOSIG
ZGSZ,2017-10-19 11:00,ZGSZ 191100Z 03007MPS CAVOK 25/18 Q1011 NOSIG
ZGSZ,2017-10-19 12:00,ZGSZ 191200Z 04006MPS CAVOK 25/18 Q1012 NOSIG
ZGSZ,2017-10-19 13:00,ZGSZ 191300Z 02006MPS CAVOK 24/18 Q1013 NOSIG
ZGSZ,2017-10-19 14:00,ZGSZ 191400Z 02006MPS CAVOK 24/18 Q1013 NOSIG
ZGSZ,2017-10-19 15:00,ZGSZ 191500Z 02006MPS CAVOK 23/17 Q1013 NOSIG
ZGSZ,2017-10-19 16:00,ZGSZ 191600Z 01007MPS CAVOK 23/17 Q1013 NOSIG
ZGSZ,2017-10-19 17:00,ZGSZ 191700Z 01004MPS CAVOK 22/17 Q1013 NOSIG
ZGSZ,2017-10-19 18:00,ZGSZ 191800Z 01007MPS CAVOK 22/16 Q1013 NOSIG
ZGSZ,2017-10-19 19:00,ZGSZ 191900Z 02006MPS CAVOK 22/16 Q1012 NOSIG
ZGSZ,2017-10-19 20:00,ZGSZ 192000Z 02006MPS CAVOK 22/16 Q1012 NOSIG
ZGSZ,2017-10-19 21:00,ZGSZ 192100Z 01006MPS CAVOK 22/16 Q1013 NOSIG
ZGSZ,2017-10-19 22:00,ZGSZ 192200Z 36006MPS CAVOK 22/16 Q1013 NOSIG
ZGSZ,2017-10-19 23:00,ZGSZ 192300Z 01007MPS CAVOK 22/16 Q1013 NOSIG
ZGSZ,2017-10-20 00:00,ZGSZ 200000Z 36007MPS CAVOK 23/16 Q1014 NOSIG
ZGSZ,2017-10-20 01:00,ZGSZ 200100Z 01006MPS CAVOK 24/16 Q1015 NOSIG
ZGSZ,2017-10-20 02:00,ZGSZ 200200Z 02006MPS CAVOK 25/16 Q1014 NOSIG
ZGSZ,2017-10-20 03:00,ZGSZ 200300Z 02006MPS 350V050 CAVOK 26/17 Q1014 NOSIG
ZGSZ,2017-10-20 04:00,ZGSZ 200400Z 01005MPS 350V050 CAVOK 28/17 Q1013 NOSIG
ZGSZ,2017-10-20 05:00,ZGSZ 200500Z 02006MPS CAVOK 28/18 Q1012 NOSIG
ZGSZ,2017-10-20 06:00,ZGSZ 200600Z 36005MPS 320V030 9999 SCT026 28/18 Q1011 NOSIG
ZGSZ,2017-10-20 07:00,ZGSZ 200700Z 01005MPS 9999 BKN040 27/18 Q1010 NOSIG
ZGSZ,2017-10-20 08:00,ZGSZ 200800Z 01006MPS 9999 BKN033 26/18 Q1010 NOSIG
ZGSZ,2017-10-20 09:00,ZGSZ 200900Z 03007MPS 9999 BKN033 25/17 Q1011 NOSIG
ZGSZ,2017-10-20 10:00,ZGSZ 201000Z 01006MPS 9999 BKN036 24/17 Q1011 NOSIG
ZGSZ,2017-10-20 11:00,ZGSZ 201100Z 02007MPS 9999 BKN036 24/16 Q1012 NOSIG
ZGSZ,2017-10-20 12:00,ZGSZ 201200Z 02007MPS 9999 BKN036 24/16 Q1013 NOSIG
ZGSZ,2017-10-20 13:00,ZGSZ 201300Z 01007MPS 9999 BKN036 23/16 Q1013 NOSIG
ZGSZ,2017-10-20 14:00,ZGSZ 201400Z 01007MPS 9999 BKN036 23/16 Q1014 NOSIG
ZGSZ,2017-10-20 15:00,ZGSZ 201500Z 03006MPS 010V070 9999 BKN036 23/16 Q1014 NOSIG
ZGSZ,2017-10-20 16:00,ZGSZ 201600Z 03008MPS 9999 BKN036 23/15 Q1014 NOSIG
ZGSZ,2017-10-20 17:00,ZGSZ 201700Z 03006MPS 010V070 9999 BKN036 23/15 Q1014 NOSIG
ZGSZ,2017-10-20 18:00,ZGSZ 201800Z 02006MPS 9999 BKN040 23/15 Q1013 NOSIG
ZGSZ,2017-10-20 19:00,ZGSZ 201900Z 01007MPS 9999 BKN040 22/15 Q1013 NOSIG
ZGSZ,2017-10-20 20:00,ZGSZ 202000Z 36006MPS 9999 BKN040 22/15 Q1013 NOSIG
ZGSZ,2017-10-20 21:00,ZGSZ 202100Z 35006MPS 9999 BKN040 22/15 Q1013 NOSIG
ZGSZ,2017-10-20 22:00,ZGSZ 202200Z 35007MPS 320V020 9999 BKN040 22/15 Q1013 NOSIG
ZGSZ,2017-10-20 23:00,ZGSZ 202300Z 01007MPS 9999 BKN040 22/14 Q1014 NOSIG
ZGSZ,2017-10-21 00:00,ZGSZ 210000Z 01006MPS 9999 BKN040 23/14 Q1014 NOSIG
ZGSZ,2017-10-21 01:00,ZGSZ 210100Z 02008MPS 9999 BKN040 23/14 Q1015 NOSIG
ZGSZ,2017-10-21 02:00,ZGSZ 210200Z 01009MPS CAVOK 25/15 Q1014 NOSIG
ZGSZ,2017-10-21 03:00,ZGSZ 210300Z 02007MPS CAVOK 26/15 Q1014 NOSIG
ZGSZ,2017-10-21 04:00,ZGSZ 210400Z 36007MPS 340V040 CAVOK 27/15 Q1013 NOSIG
ZGSZ,2017-10-21 05:00,ZGSZ 210500Z 01007MPS CAVOK 27/15 Q1012 NOSIG
ZGSZ,2017-10-21 06:00,ZGSZ 210600Z 03006MPS 350V070 CAVOK 27/15 Q1011 NOSIG
ZGSZ,2017-10-21 07:00,ZGSZ 210700Z 04006MPS CAVOK 27/15 Q1010 NOSIG
ZGSZ,2017-10-21 08:00,ZGSZ 210800Z 01006MPS 340V040 CAVOK 27/15 Q1010 NOSIG
ZGSZ,2017-10-21 09:00,ZGSZ 210900Z 02005MPS CAVOK 26/15 Q1010 NOSIG
ZGSZ,2017-10-21 10:00,ZGSZ 211000Z 03005MPS CAVOK 26/15 Q1010 NOSIG
ZGSZ,2017-10-21 11:00,ZGSZ 211100Z 02006MPS CAVOK 25/15 Q1011 NOSIG
ZGSZ,2017-10-21 12:00,ZGSZ 211200Z 04005MPS CAVOK 24/15 Q1012 NOSIG
ZGSZ,2017-10-21 13:00,ZGSZ 211300Z 02007MPS 350V050 CAVOK 24/14 Q1012 NOSIG
ZGSZ,2017-10-21 14:00,ZGSZ 211400Z 03006MPS CAVOK 23/13 Q1013 NOSIG
ZGSZ,2017-10-21 15:00,ZGSZ 211500Z 03005MPS CAVOK 22/13 Q1013 NOSIG
ZGSZ,2017-10-21 16:00,ZGSZ 211600Z 04005MPS CAVOK 22/12 Q1013 NOSIG
ZGSZ,2017-10-21 17:00,ZGSZ 211700Z 02004MPS CAVOK 21/12 Q1013 NOSIG
ZGSZ,2017-10-21 18:00,ZGSZ 211800Z 02006MPS CAVOK 21/12 Q1013 NOSIG
ZGSZ,2017-10-21 19:00,ZGSZ 211900Z 02004MPS CAVOK 20/12 Q1013 NOSIG
ZGSZ,2017-10-21 20:00,ZGSZ 212000Z 02005MPS CAVOK 20/12 Q1013 NOSIG
ZGSZ,2017-10-21 21:00,ZGSZ 212100Z 03005MPS CAVOK 20/13 Q1013 NOSIG
ZGSZ,2017-10-21 22:00,ZGSZ 212200Z 02005MPS CAVOK 19/12 Q1013 NOSIG
ZGSZ,2017-10-21 23:00,ZGSZ 212300Z 03006MPS CAVOK 19/13 Q1014 NOSIG
ZGSZ,2017-10-22 00:00,ZGSZ 220000Z 02007MPS CAVOK 20/12 Q1014 NOSIG
ZGSZ,2017-10-22 01:00,ZGSZ 220100Z 02006MPS CAVOK 22/13 Q1014 NOSIG
ZGSZ,2017-10-22 02:00,ZGSZ 220200Z 03006MPS CAVOK 23/13 Q1014 NOSIG
ZGSZ,2017-10-22 03:00,ZGSZ 220300Z 02005MPS 340V060 CAVOK 24/13 Q1014 NOSIG
ZGSZ,2017-10-22 04:00,ZGSZ 220400Z 35005MPS 320V050 CAVOK 25/14 Q1013 NOSIG
ZGSZ,2017-10-22 05:00,ZGSZ 220500Z 02005MPS 330V060 CAVOK 26/14 Q1012 NOSIG
ZGSZ,2017-10-22 06:00,ZGSZ 220600Z 34005MPS 310V050 CAVOK 27/13 Q1011 NOSIG
ZGSZ,2017-10-22 07:00,ZGSZ 220700Z 35004MPS 320V020 CAVOK 27/13 Q1011 NOSIG
ZGSZ,2017-10-22 08:00,ZGSZ 220800Z 34005MPS CAVOK 27/12 Q1010 NOSIG
ZGSZ,2017-10-22 09:00,ZGSZ 220900Z 33005MPS CAVOK 26/13 Q1010 NOSIG
ZGSZ,2017-10-22 10:00,ZGSZ 221000Z 36003MPS CAVOK 24/13 Q1011 NOSIG
ZGSZ,2017-10-22 11:00,ZGSZ 221100Z 33003MPS CAVOK 23/14 Q1012 NOSIG
ZGSZ,2017-10-22 12:00,ZGSZ 221200Z 35004MPS CAVOK 23/14 Q1012 NOSIG
ZGSZ,2017-10-22 13:00,ZGSZ 221300Z 01002MPS CAVOK 23/14 Q1013 NOSIG
ZGSZ,2017-10-22 14:00,ZGSZ 221400Z 04003MPS 360V080 CAVOK 23/15 Q1014 NOSIG
ZGSZ,2017-10-22 15:00,ZGSZ 221500Z 05002MPS CAVOK 23/13 Q1014 NOSIG
ZGSZ,2017-10-22 16:00,ZGSZ 221600Z 03003MPS CAVOK 22/13 Q1014 NOSIG
ZGSZ,2017-10-22 17:00,ZGSZ 221700Z 04005MPS CAVOK 22/12 Q1014 NOSIG
ZGSZ,2017-10-22 18:00,ZGSZ 221800Z 04006MPS CAVOK 22/12 Q1014 NOSIG
ZGSZ,2017-10-22 19:00,ZGSZ 221900Z 05004MPS CAVOK 21/12 Q1014 NOSIG
ZGSZ,2017-10-22 20:00,ZGSZ 222000Z 03004MPS CAVOK 21/12 Q1014 NOSIG
ZGSZ,2017-10-22 21:00,ZGSZ 222100Z 03003MPS CAVOK 20/12 Q1014 NOSIG
ZGSZ,2017-10-22 22:00,ZGSZ 222200Z 03004MPS CAVOK 20/12 Q1014 NOSIG
ZGSZ,2017-10-22 23:00,ZGSZ 222300Z 03004MPS 010V070 CAVOK 20/12 Q1015 NOSIG
ZGSZ,2017-10-23 00:00,ZGSZ 230000Z 03005MPS CAVOK 21/12 Q1016 NOSIG
ZGSZ,2017-10-23 01:00,ZGSZ 230100Z 04006MPS CAVOK 23/12 Q1017 NOSIG
ZGSZ,2017-10-23 02:00,ZGSZ 230200Z 04006MPS CAVOK 24/13 Q1017 NOSIG
ZGSZ,2017-10-23 03:00,ZGSZ 230300Z 36005MPS CAVOK 25/14 Q1017 NOSIG
ZGSZ,2017-10-23 04:00,ZGSZ 230400Z 03005MPS 340V050 CAVOK 26/13 Q1016 NOSIG
ZGSZ,2017-10-23 05:00,ZGSZ 230500Z 01005MPS 330V080 CAVOK 27/14 Q1015 NOSIG
ZGSZ,2017-10-23 06:00,ZGSZ 230600Z 36004MPS 330V030 CAVOK 27/14 Q1015 NOSIG
ZGSZ,2017-10-23 07:00,ZGSZ 230700Z 34003MPS CAVOK 28/13 Q1015 NOSIG
ZGSZ,2017-10-23 08:00,ZGSZ 230800Z 36004MPS 320V030 CAVOK 27/13 Q1014 NOSIG
ZGSZ,2017-10-23 09:00,ZGSZ 230900Z 05003MPS CAVOK 27/13 Q1015 NOSIG
ZGSZ,2017-10-23 10:00,ZGSZ 231000Z 03003MPS CAVOK 26/13 Q1015 NOSIG
ZGSZ,2017-10-23 11:00,ZGSZ 231100Z 05003MPS CAVOK 26/14 Q1016 NOSIG
ZGSZ,2017-10-23 12:00,ZGSZ 231200Z 05003MPS CAVOK 25/15 Q1017 NOSIG
ZGSZ,2017-10-23 13:00,ZGSZ 231300Z VRB01MPS CAVOK 24/15 Q1017 NOSIG
ZGSZ,2017-10-23 14:00,ZGSZ 231400Z 10002MPS CAVOK 24/15 Q1018 NOSIG
ZGSZ,2017-10-23 15:00,ZGSZ 231500Z 11003MPS CAVOK 23/16 Q1018 NOSIG
ZGSZ,2017-10-23 16:00,ZGSZ 231600Z 07001MPS CAVOK 24/15 Q1018 NOSIG
ZGSZ,2017-10-23 17:00,ZGSZ 231700Z 05001MPS CAVOK 23/16 Q1018 NOSIG
ZGSZ,2017-10-23 18:00,ZGSZ 231800Z 03003MPS CAVOK 22/16 Q1018 NOSIG
ZGSZ,2017-10-23 19:00,ZGSZ 231900Z 04002MPS 8000 NSC 22/16 Q1018 NOSIG
ZGSZ,2017-10-23 20:00,ZGSZ 232000Z 04002MPS CAVOK 22/16 Q1018 NOSIG
ZGSZ,2017-10-23 21:00,ZGSZ 232100Z 04003MPS CAVOK 22/16 Q1018 NOSIG
ZGSZ,2017-10-23 22:00,ZGSZ 232200Z 04003MPS CAVOK 22/16 Q1019 NOSIG
ZGSZ,2017-10-23 23:00,ZGSZ 232300Z 04004MPS 9000 NSC 22/15 Q1019 NOSIG
ZGSZ,2017-10-24 00:00,ZGSZ 240000Z 05003MPS 9000 NSC 23/15 Q1020 NOSIG
ZGSZ,2017-10-24 01:00,ZGSZ 240100Z 04004MPS CAVOK 24/14 Q1020 NOSIG
ZGSZ,2017-10-24 02:00,ZGSZ 240200Z 06005MPS CAVOK 25/13 Q1020 NOSIG
ZGSZ,2017-10-24 03:00,ZGSZ 240300Z 03003MPS 340V090 CAVOK 26/14 Q1020 NOSIG
ZGSZ,2017-10-24 04:00,ZGSZ 240400Z VRB02MPS CAVOK 27/15 Q1019 NOSIG
ZGSZ,2017-10-24 05:00,ZGSZ 240500Z 29003MPS 250V360 CAVOK 27/15 Q1018 NOSIG
ZGSZ,2017-10-24 06:00,ZGSZ 240600Z VRB02MPS CAVOK 28/14 Q1017 NOSIG
ZGSZ,2017-10-24 07:00,ZGSZ 240700Z 02003MPS 320V080 CAVOK 29/13 Q1016 NOSIG
ZGSZ,2017-10-24 08:00,ZGSZ 240800Z 32004MPS 290V360 CAVOK 27/16 Q1016 NOSIG
ZGSZ,2017-10-24 09:00,ZGSZ 240900Z 32003MPS 290V360 CAVOK 27/16 Q1017 NOSIG
ZGSZ,2017-10-24 10:00,ZGSZ 241000Z 01003MPS CAVOK 26/14 Q1017 NOSIG
ZGSZ,2017-10-24 11:00,ZGSZ 241100Z 05003MPS CAVOK 26/14 Q1017 NOSIG
ZGSZ,2017-10-24 12:00,ZGSZ 241200Z 09003MPS CAVOK 25/15 Q1018 NOSIG
ZGSZ,2017-10-24 13:00,ZGSZ 241300Z 16003MPS CAVOK 24/18 Q1019 NOSIG
ZGSZ,2017-10-24 14:00,ZGSZ 241400Z 12002MPS 100V160 8000 NSC 24/17 Q1019 NOSIG
ZGSZ,2017-10-24 15:00,ZGSZ 241500Z 11003MPS CAVOK 23/17 Q1019 NOSIG
ZGSZ,2017-10-24 16:00,ZGSZ 241600Z 11003MPS CAVOK 23/17 Q1019 NOSIG
ZGSZ,2017-10-24 17:00,ZGSZ 241700Z 10003MPS CAVOK 23/17 Q1019 NOSIG
ZGSZ,2017-10-24 18:00,ZGSZ 241800Z 08002MPS CAVOK 23/18 Q1018 NOSIG
ZGSZ,2017-10-24 19:00,ZGSZ 241900Z 03002MPS CAVOK 23/17 Q1018 NOSIG
ZGSZ,2017-10-24 20:00,ZGSZ 242000Z 05003MPS CAVOK 22/18 Q1018 NOSIG
ZGSZ,2017-10-24 21:00,ZGSZ 242100Z 04003MPS 9000 NSC 22/18 Q1018 NOSIG
ZGSZ,2017-10-24 22:00,ZGSZ 242200Z 05004MPS CAVOK 22/17 Q1019 NOSIG
ZGSZ,2017-10-24 23:00,ZGSZ 242300Z 06005MPS 9999 FEW040 22/17 Q1020 NOSIG
ZGSZ,2017-10-25 00:00,ZGSZ 250000Z 06005MPS CAVOK 23/17 Q1020 NOSIG
ZGSZ,2017-10-25 01:00,ZGSZ 250100Z 06005MPS CAVOK 24/16 Q1020 NOSIG
ZGSZ,2017-10-25 02:00,ZGSZ 250200Z 05004MPS 020V100 CAVOK 26/16 Q1020 NOSIG
ZGSZ,2017-10-25 03:00,ZGSZ 250300Z 04002MPS 350V130 CAVOK 27/16 Q1020 NOSIG
ZGSZ,2017-10-25 04:00,ZGSZ 250400Z 27003MPS 9999 FEW025 26/17 Q1019 NOSIG
ZGSZ,2017-10-25 05:00,ZGSZ 250500Z 26003MPS 8000 FEW025 27/18 Q1018 NOSIG
ZGSZ,2017-10-25 06:00,ZGSZ 250600Z 28003MPS 8000 FEW025 27/18 Q1017 NOSIG
ZGSZ,2017-10-25 07:00,ZGSZ 250700Z 24003MPS 7000 FEW025 27/18 Q1016 NOSIG
ZGSZ,2017-10-25 08:00,ZGSZ 250800Z 22003MPS 7000 FEW025 27/18 Q1016 NOSIG
ZGSZ,2017-10-25 09:00,ZGSZ 250900Z 20003MPS 7000 SCT033 26/19 Q1017 NOSIG
ZGSZ,2017-10-25 10:00,ZGSZ 251000Z 18004MPS 7000 SCT036 25/19 Q1017 NOSIG
ZGSZ,2017-10-25 11:00,ZGSZ 251100Z 17003MPS 7000 SCT046 25/18 Q1018 NOSIG
ZGSZ,2017-10-25 12:00,ZGSZ 251200Z 18003MPS 7000 SCT046 25/19 Q1018 NOSIG
ZGSZ,2017-10-25 13:00,ZGSZ 251300Z 12003MPS 7000 SCT040 24/18 Q1018 NOSIG
ZGSZ,2017-10-25 14:00,ZGSZ 251400Z 11004MPS 7000 SCT040 24/17 Q1019 NOSIG
ZGSZ,2017-10-25 15:00,ZGSZ 251500Z 11003MPS 7000 SCT040 23/17 Q1018 NOSIG
ZGSZ,2017-10-25 16:00,ZGSZ 251600Z 11004MPS 7000 SCT040 23/18 Q1018 NOSIG
ZGSZ,2017-10-25 17:00,ZGSZ 251700Z 12004MPS 7000 SCT040 23/18 Q1018 NOSIG
ZGSZ,2017-10-25 18:00,ZGSZ 251800Z 10002MPS 7000 SCT040 23/18 Q1017 NOSIG
ZGSZ,2017-10-25 19:00,ZGSZ 251900Z 06001MPS 7000 SCT040 23/18 Q1017 NOSIG
ZGSZ,2017-10-25 20:00,ZGSZ 252000Z 07002MPS 050V120 7000 NSC 22/18 Q1017 NOSIG
ZGSZ,2017-10-25 21:00,ZGSZ 252100Z 06002MPS 030V110 7000 FEW031 22/18 Q1017 NOSIG
ZGSZ,2017-10-25 22:00,ZGSZ 252200Z 04003MPS 030V090 7000 FEW031 22/18 Q1017 NOSIG
ZGSZ,2017-10-25 23:00,ZGSZ 252300Z 06002MPS 040V120 7000 FEW031 22/18 Q1018 NOSIG
ZGSZ,2017-10-26 00:00,ZGSZ 260000Z 06004MPS 020V120 8000 NSC 23/18 Q1018 NOSIG
ZGSZ,2017-10-26 01:00,ZGSZ 260100Z 04004MPS 8000 NSC 25/18 Q1018 NOSIG
ZGSZ,2017-10-26 02:00,ZGSZ 260200Z 04004MPS 360V070 CAVOK 27/16 Q1018 NOSIG
ZGSZ,2017-10-26 03:00,ZGSZ 260300Z 06005MPS CAVOK 27/16 Q1017 NOSIG
ZGSZ,2017-10-26 04:00,ZGSZ 260400Z 02005MPS 340V050 CAVOK 29/14 Q1017 BECMG AT0540 27004MPS
ZGSZ,2017-10-26 05:00,ZGSZ 260500Z 03004MPS 340V110 CAVOK 29/14 Q1015 NOSIG
ZGSZ,2017-10-26 06:00,ZGSZ 260600Z 04005MPS 360V080 CAVOK 29/13 Q1015 NOSIG
ZGSZ,2017-10-26 07:00,ZGSZ 260700Z 02004MPS 350V050 CAVOK 29/15 Q1014 NOSIG
ZGSZ,2017-10-26 08:00,ZGSZ 260800Z 01004MPS CAVOK 29/14 Q1014 NOSIG
ZGSZ,2017-10-26 09:00,ZGSZ 260900Z 01003MPS 340V050 CAVOK 29/14 Q1013 NOSIG
ZGSZ,2017-10-26 10:00,ZGSZ 261000Z 00000MPS CAVOK 27/17 Q1014 NOSIG
ZGSZ,2017-10-26 11:00,ZGSZ 261100Z 11002MPS CAVOK 27/16 Q1014 NOSIG
ZGSZ,2017-10-26 12:00,ZGSZ 261200Z 12002MPS CAVOK 26/16 Q1015 NOSIG
ZGSZ,2017-10-26 13:00,ZGSZ 261300Z 17003MPS CAVOK 25/21 Q1015 NOSIG
ZGSZ,2017-10-26 14:00,ZGSZ 261400Z 19003MPS CAVOK 25/20 Q1015 NOSIG
ZGSZ,2017-10-26 15:00,ZGSZ 261500Z 19002MPS CAVOK 25/21 Q1015 NOSIG
ZGSZ,2017-10-26 16:00,ZGSZ 261600Z 21002MPS CAVOK 25/20 Q1015 NOSIG
ZGSZ,2017-10-26 17:00,ZGSZ 261700Z 20001MPS 7000 NSC 25/20 Q1015 NOSIG
ZGSZ,2017-10-26 18:00,ZGSZ 261800Z VRB01MPS 7000 NSC 24/20 Q1015 NOSIG
ZGSZ,2017-10-26 19:00,ZGSZ 261900Z 05002MPS 7000 NSC 24/19 Q1014 NOSIG
ZGSZ,2017-10-26 20:00,ZGSZ 262000Z 05002MPS 6000 NSC 23/18 Q1014 NOSIG
ZGSZ,2017-10-26 21:00,ZGSZ 262100Z 03002MPS CAVOK 23/16 Q1014 NOSIG
ZGSZ,2017-10-26 22:00,ZGSZ 262200Z 03003MPS CAVOK 23/16 Q1015 NOSIG
ZGSZ,2017-10-26 23:00,ZGSZ 262300Z 02004MPS CAVOK 23/15 Q1016 NOSIG
ZGSZ,2017-10-27 00:00,ZGSZ 270000Z 03004MPS CAVOK 24/15 Q1016 NOSIG
ZGSZ,2017-10-27 01:00,ZGSZ 270100Z 02005MPS 350V060 CAVOK 25/14 Q1016 NOSIG
ZGSZ,2017-10-27 02:00,ZGSZ 270200Z 04006MPS CAVOK 26/13 Q1016 NOSIG
ZGSZ,2017-10-27 03:00,ZGSZ 270300Z 03005MPS 350V070 CAVOK 28/13 Q1015 NOSIG
ZGSZ,2017-10-27 04:00,ZGSZ 270400Z 03005MPS 360V060 CAVOK 28/13 Q1014 NOSIG
ZGSZ,2017-10-27 05:00,ZGSZ 270500Z 06005MPS 010V080 CAVOK 29/14 Q1013 NOSIG
ZGSZ,2017-10-27 06:00,ZGSZ 270600Z 04003MPS 360V090 CAVOK 29/13 Q1012 NOSIG
ZGSZ,2017-10-27 07:00,ZGSZ 270700Z 02005MPS CAVOK 29/14 Q1012 NOSIG
ZGSZ,2017-10-27 08:00,ZGSZ 270800Z 36004MPS 330V030 CAVOK 29/14 Q1012 NOSIG
ZGSZ,2017-10-27 09:00,ZGSZ 270900Z 03004MPS CAVOK 29/14 Q1012 NOSIG
ZGSZ,2017-10-27 10:00,ZGSZ 271000Z 01002MPS 330V060 CAVOK 27/15 Q1012 NOSIG
ZGSZ,2017-10-27 11:00,ZGSZ 271100Z 07002MPS CAVOK 27/15 Q1012 NOSIG
ZGSZ,2017-10-27 12:00,ZGSZ 271200Z 07002MPS CAVOK 26/15 Q1013 NOSIG
ZGSZ,2017-10-27 13:00,ZGSZ 271300Z 06002MPS CAVOK 26/16 Q1013 NOSIG
ZGSZ,2017-10-27 14:00,ZGSZ 271400Z 05001MPS CAVOK 25/17 Q1014 NOSIG
ZGSZ,2017-10-27 15:00,ZGSZ 271500Z 00000MPS CAVOK 25/17 Q1014 NOSIG
ZGSZ,2017-10-27 16:00,ZGSZ 271600Z 02002MPS CAVOK 24/17 Q1014 NOSIG
ZGSZ,2017-10-27 17:00,ZGSZ 271700Z 04002MPS CAVOK 24/16 Q1014 NOSIG
ZGSZ,2017-10-27 18:00,ZGSZ 271800Z 04004MPS CAVOK 24/16 Q1013 NOSIG
ZGSZ,2017-10-27 19:00,ZGSZ 271900Z 04003MPS 260V060 CAVOK 24/16 Q1013 NOSIG
ZGSZ,2017-10-27 20:00,ZGSZ 272000Z 03004MPS CAVOK 23/15 Q1014 NOSIG
ZGSZ,2017-10-27 21:00,ZGSZ 272100Z 03003MPS CAVOK 22/15 Q1014 NOSIG
ZGSZ,2017-10-27 22:00,ZGSZ 272200Z 03004MPS CAVOK 23/15 Q1015 NOSIG
ZGSZ,2017-10-27 23:00,ZGSZ 272300Z 03004MPS CAVOK 23/14 Q1015 NOSIG
ZGSZ,2017-10-28 00:00,ZGSZ 280000Z 04004MPS CAVOK 24/14 Q1016 NOSIG
ZGSZ,2017-10-28 01:00,ZGSZ 280100Z 04005MPS CAVOK 25/14 Q1017 NOSIG
ZGSZ,2017-10-28 02:00,ZGSZ 280200Z 02006MPS CAVOK 26/13 Q1017 NOSIG
ZGSZ,2017-10-28 03:00,ZGSZ 280300Z 03005MPS 010V070 CAVOK 27/13 Q1016 NOSIG
ZGSZ,2017-10-28 04:00,ZGSZ 280400Z 02005MPS 340V050 CAVOK 28/13 Q1015 NOSIG
ZGSZ,2017-10-28 05:00,ZGSZ 280500Z 34003MPS 310V030 CAVOK 28/13 Q1014 NOSIG
ZGSZ,2017-10-28 06:00,ZGSZ 280600Z 30004MPS 270V340 CAVOK 28/15 Q1013 NOSIG
ZGSZ,2017-10-28 07:00,ZGSZ 280700Z 35006MPS 320V020 CAVOK 29/13 Q1013 NOSIG
ZGSZ,2017-10-28 08:00,ZGSZ 280800Z 32005MPS 300V360 CAVOK 28/15 Q1013 NOSIG
ZGSZ,2017-10-28 09:00,ZGSZ 280900Z 33005MPS CAVOK 28/14 Q1013 NOSIG
ZGSZ,2017-10-28 10:00,ZGSZ 281000Z 35004MPS CAVOK 26/14 Q1014 NOSIG
ZGSZ,2017-10-28 11:00,ZGSZ 281100Z 06002MPS CAVOK 26/14 Q1014 NOSIG
ZGSZ,2017-10-28 12:00,ZGSZ 281200Z VRB01MPS CAVOK 26/14 Q1015 NOSIG
ZGSZ,2017-10-28 13:00,ZGSZ 281300Z 36003MPS CAVOK 24/15 Q1016 NOSIG
ZGSZ,2017-10-28 14:00,ZGSZ 281400Z 34003MPS CAVOK 23/15 Q1016 NOSIG
ZGSZ,2017-10-28 15:00,ZGSZ 281500Z 03004MPS CAVOK 25/14 Q1017 NOSIG
ZGSZ,2017-10-28 16:00,ZGSZ 281600Z 04005MPS CAVOK 25/12 Q1017 NOSIG
ZGSZ,2017-10-28 17:00,ZGSZ 281700Z 03006MPS CAVOK 24/12 Q1017 NOSIG
ZGSZ,2017-10-28 18:00,ZGSZ 281800Z 02007MPS CAVOK 23/12 Q1017 NOSIG
ZGSZ,2017-10-28 19:00,ZGSZ 281900Z 02007MPS CAVOK 23/12 Q1017 NOSIG
ZGSZ,2017-10-28 20:00,ZGSZ 282000Z 02007MPS CAVOK 22/11 Q1017 NOSIG
ZGSZ,2017-10-28 21:00,ZGSZ 282100Z 03006MPS CAVOK 22/11 Q1017 NOSIG
ZGSZ,2017-10-28 22:00,ZGSZ 282200Z 03005MPS CAVOK 21/11 Q1018 NOSIG
ZGSZ,2017-10-28 23:00,ZGSZ 282300Z 02004MPS 350V060 CAVOK 21/11 Q1019 NOSIG
ZGSZ,2017-10-29 00:00,ZGSZ 290000Z 02007MPS CAVOK 22/10 Q1019 NOSIG
ZGSZ,2017-10-29 01:00,ZGSZ 290100Z 01007MPS CAVOK 23/11 Q1020 NOSIG
ZGSZ,2017-10-29 02:00,ZGSZ 290200Z 01006MPS CAVOK 25/12 Q1020 NOSIG
ZGSZ,2017-10-29 03:00,ZGSZ 290300Z 02006MPS 350V050 CAVOK 26/12 Q1020 NOSIG
ZGSZ,2017-10-29 04:00,ZGSZ 290400Z 02006MPS 360V060 CAVOK 27/12 Q1019 NOSIG
ZGSZ,2017-10-29 05:00,ZGSZ 290500Z 02006G11MPS 340V050 CAVOK 28/13 Q1018 NOSIG
ZGSZ,2017-10-29 06:00,ZGSZ 290600Z 03008MPS CAVOK 27/12 Q1017 NOSIG
ZGSZ,2017-10-29 07:00,ZGSZ 290700Z 03006MPS 360V060 CAVOK 28/12 Q1017 NOSIG
ZGSZ,2017-10-29 08:00,ZGSZ 290800Z 01007MPS CAVOK 28/12 Q1017 NOSIG
ZGSZ,2017-10-29 09:00,ZGSZ 290900Z 03006MPS CAVOK 27/13 Q1017 NOSIG
ZGSZ,2017-10-29 10:00,ZGSZ 291000Z 04005MPS CAVOK 26/13 Q1018 NOSIG
ZGSZ,2017-10-29 11:00,ZGSZ 291100Z 03004MPS CAVOK 26/12 Q1018 NOSIG
ZGSZ,2017-10-29 12:00,ZGSZ 291200Z 03003MPS CAVOK 25/12 Q1019 NOSIG
ZGSZ,2017-10-29 13:00,ZGSZ 291300Z 01004MPS CAVOK 24/12 Q1019 NOSIG
ZGSZ,2017-10-29 14:00,ZGSZ 291400Z 03006MPS CAVOK 24/12 Q1020 NOSIG
ZGSZ,2017-10-29 15:00,ZGSZ 291500Z 03007MPS CAVOK 24/11 Q1020 NOSIG
ZGSZ,2017-10-29 16:00,ZGSZ 291600Z 03007MPS CAVOK 23/11 Q1021 NOSIG
ZGSZ,2017-10-29 17:00,ZGSZ 291700Z 03006MPS CAVOK 22/11 Q1021 NOSIG
ZGSZ,2017-10-29 18:00,ZGSZ 291800Z 03006MPS CAVOK 22/11 Q1021 NOSIG
ZGSZ,2017-10-29 19:00,ZGSZ 291900Z 02006MPS CAVOK 21/11 Q1021 NOSIG
ZGSZ,2017-10-29 20:00,ZGSZ 292000Z 03006MPS CAVOK 21/10 Q1021 NOSIG
ZGSZ,2017-10-29 21:00,ZGSZ 292100Z 03005MPS CAVOK 20/10 Q1021 NOSIG
ZGSZ,2017-10-29 22:00,ZGSZ 292200Z 36004MPS CAVOK 20/10 Q1022 NOSIG
ZGSZ,2017-10-29 23:00,ZGSZ 292300Z 01005MPS CAVOK 20/10 Q1023 NOSIG
ZGSZ,2017-10-30 00:00,ZGSZ 300000Z 02007MPS CAVOK 21/10 Q1024 NOSIG
ZGSZ,2017-10-30 01:00,ZGSZ 300100Z 03006MPS CAVOK 22/10 Q1024 NOSIG
ZGSZ,2017-10-30 02:00,ZGSZ 300200Z 03008MPS CAVOK 23/10 Q1024 NOSIG
ZGSZ,2017-10-30 03:00,ZGSZ 300300Z 03007MPS CAVOK 24/09 Q1023 NOSIG
ZGSZ,2017-10-30 04:00,ZGSZ 300400Z 02007MPS CAVOK 25/09 Q1022 NOSIG
ZGSZ,2017-10-30 05:00,ZGSZ 300500Z 06006MPS 020V090 CAVOK 26/09 Q1021 NOSIG
ZGSZ,2017-10-30 06:00,ZGSZ 300600Z 04005G12MPS 350V080 CAVOK 27/10 Q1020 NOSIG
ZGSZ,2017-10-30 07:00,ZGSZ 300700Z 06005MPS CAVOK 26/10 Q1019 NOSIG
ZGSZ,2017-10-30 08:00,ZGSZ 300800Z 04004MPS 010V070 CAVOK 26/10 Q1019 NOSIG
ZGSZ,2017-10-30 09:00,ZGSZ 300900Z 04004MPS CAVOK 26/10 Q1019 NOSIG
ZGSZ,2017-10-30 10:00,ZGSZ 301000Z 05003MPS 020V080 CAVOK 25/11 Q1019 NOSIG
ZGSZ,2017-10-30 11:00,ZGSZ 301100Z 05003MPS CAVOK 24/10 Q1019 NOSIG
ZGSZ,2017-10-30 12:00,ZGSZ 301200Z 04004MPS CAVOK 24/10 Q1020 NOSIG
ZGSZ,2017-10-30 13:00,ZGSZ 301300Z 04004MPS CAVOK 23/10 Q1020 NOSIG
ZGSZ,2017-10-30 14:00,ZGSZ 301400Z 06005MPS CAVOK 23/10 Q1021 NOSIG
ZGSZ,2017-10-30 15:00,ZGSZ 301500Z 05004MPS CAVOK 22/10 Q1021 NOSIG
ZGSZ,2017-10-30 16:00,ZGSZ 301600Z 04005MPS CAVOK 22/10 Q1021 NOSIG
ZGSZ,2017-10-30 17:00,ZGSZ 301700Z 03007MPS CAVOK 21/10 Q1021 NOSIG
ZGSZ,2017-10-30 18:00,ZGSZ 301800Z 04006MPS CAVOK 21/09 Q1021 NOSIG
ZGSZ,2017-10-30 19:00,ZGSZ 301900Z 05007MPS CAVOK 20/09 Q1020 NOSIG
ZGSZ,2017-10-30 20:00,ZGSZ 302000Z 06007MPS CAVOK 20/09 Q1020 NOSIG
ZGSZ,2017-10-30 21:00,ZGSZ 302100Z 06006MPS CAVOK 19/09 Q1020 NOSIG
ZGSZ,2017-10-30 22:00,ZGSZ 302200Z 04007MPS CAVOK 19/08 Q1020 NOSIG
ZGSZ,2017-10-30 23:00,ZGSZ 302300Z 04007MPS CAVOK 18/08 Q1021 NOSIG
ZGSZ,2017-10-31 00:00,ZGSZ 310000Z 04007MPS CAVOK 19/08 Q1021 NOSIG
ZGSZ,2017-10-31 01:00,ZGSZ 310100Z 04006MPS CAVOK 21/08 Q1022 NOSIG
ZGSZ,2017-10-31 02:00,ZGSZ 310200Z 03006MPS 360V060 CAVOK 22/09 Q1022 NOSIG
ZGSZ,2017-10-31 03:00,ZGSZ 310300Z 03005MPS 350V070 CAVOK 23/09 Q1021 NOSIG
ZGSZ,2017-10-31 04:00,ZGSZ 310400Z 06005MPS CAVOK 24/10 Q1020 NOSIG
ZGSZ,2017-10-31 05:00,ZGSZ 310500Z 01003MPS 320V060 CAVOK 25/10 Q1019 NOSIG
ZGSZ,2017-10-31 06:00,ZGSZ 310600Z 05003MPS 330V120 CAVOK 25/09 Q1018 NOSIG
ZGSZ,2017-10-31 07:00,ZGSZ 310700Z 35004MPS 320V040 CAVOK 26/10 Q1017 NOSIG
ZGSZ,2017-10-31 08:00,ZGSZ 310800Z 36004MPS CAVOK 25/10 Q1017 NOSIG
ZGSZ,2017-10-31 09:00,ZGSZ 310900Z 01003MPS 340V070 CAVOK 25/09 Q1017 NOSIG
ZGSZ,2017-10-31 10:00,ZGSZ 311000Z 02003MPS CAVOK 23/09 Q1018 NOSIG
ZGSZ,2017-10-31 11:00,ZGSZ 311100Z 05003MPS CAVOK 23/10 Q1018 NOSIG
ZGSZ,2017-10-31 12:00,ZGSZ 311200Z 05003MPS CAVOK 23/11 Q1019 NOSIG
ZGSZ,2017-10-31 13:00,ZGSZ 311300Z 08002MPS 8000 NSC 22/11 Q1019 NOSIG
ZGSZ,2017-10-31 14:00,ZGSZ 311400Z 10002MPS CAVOK 21/11 Q1020 NOSIG
ZGSZ,2017-10-31 15:00,ZGSZ 311500Z 11004MPS CAVOK 20/12 Q1020 NOSIG
ZGSZ,2017-10-31 16:00,ZGSZ 311600Z 08001MPS CAVOK 20/13 Q1019 NOSIG
ZGSZ,2017-10-31 17:00,ZGSZ 311700Z 03001MPS CAVOK 20/13 Q1019 NOSIG
ZGSZ,2017-10-31 18:00,ZGSZ 311800Z 03002MPS CAVOK 20/13 Q1019 NOSIG
ZGSZ,2017-10-31 19:00,ZGSZ 311900Z 04004MPS CAVOK 20/14 Q1018 NOSIG
ZGSZ,2017-10-31 20:00,ZGSZ 312000Z 04004MPS CAVOK 20/14 Q1018 NOSIG
ZGSZ,2017-10-31 21:00,ZGSZ 312100Z 03004MPS CAVOK 20/14 Q1018 NOSIG
ZGSZ,2017-10-31 22:00,ZGSZ 312200Z 02002MPS 9000 NSC 19/13 Q1018 NOSIG
ZGSZ,2017-10-31 23:00,ZGSZ 312300Z 03003MPS 7000 NSC 19/13 Q1019 NOSIG
ZGSZ,2017-11-01 00:00,ZGSZ 010000Z 05004MPS 8000 NSC 20/12 Q1019 NOSIG
ZGSZ,2017-11-01 01:00,ZGSZ 010100Z 03005MPS CAVOK 22/12 Q1019 NOSIG
ZGSZ,2017-11-01 02:00,ZGSZ 010200Z 02004MPS CAVOK 24/13 Q1019 NOSIG
ZGSZ,2017-11-01 03:00,ZGSZ 010300Z 36003MPS 300V050 CAVOK 25/13 Q1018 NOSIG
ZGSZ,2017-11-01 04:00,ZGSZ 010400Z 36005MPS 320V070 CAVOK 27/13 Q1017 NOSIG
ZGSZ,2017-11-01 05:00,ZGSZ 010500Z 01003MPS 320V070 CAVOK 27/12 Q1016 NOSIG
ZGSZ,2017-11-01 06:00,ZGSZ 010600Z 36003MPS 300V080 CAVOK 27/12 Q1015 NOSIG
ZGSZ,2017-11-01 07:00,ZGSZ 010700Z 30003MPS 270V350 CAVOK 26/13 Q1014 NOSIG
ZGSZ,2017-11-01 08:00,ZGSZ 010800Z 28004MPS CAVOK 26/14 Q1014 NOSIG
ZGSZ,2017-11-01 09:00,ZGSZ 010900Z 30004MPS 270V340 CAVOK 26/13 Q1014 NOSIG
ZGSZ,2017-11-01 10:00,ZGSZ 011000Z 04002MPS CAVOK 26/13 Q1015 NOSIG
ZGSZ,2017-11-01 11:00,ZGSZ 011100Z 06002MPS 8000 NSC 25/13 Q1015 NOSIG
ZGSZ,2017-11-01 12:00,ZGSZ 011200Z 10003MPS 080V140 CAVOK 23/15 Q1016 NOSIG
ZGSZ,2017-11-01 13:00,ZGSZ 011300Z 09002MPS 7000 NSC 22/16 Q1017 NOSIG
ZGSZ,2017-11-01 14:00,ZGSZ 011400Z 10003MPS CAVOK 22/16 Q1017 NOSIG
ZGSZ,2017-11-01 15:00,ZGSZ 011500Z 07001MPS CAVOK 22/16 Q1017 NOSIG
ZGSZ,2017-11-01 16:00,ZGSZ 011600Z 10002MPS CAVOK 21/16 Q1017 NOSIG
ZGSZ,2017-11-01 17:00,ZGSZ 011700Z 08002MPS CAVOK 21/16 Q1016 NOSIG
ZGSZ,2017-11-01 18:00,ZGSZ 011800Z 00000MPS CAVOK 20/16 Q1015 NOSIG
ZGSZ,2017-11-01 19:00,ZGSZ 011900Z 01002MPS 8000 NSC 19/16 Q1015 NOSIG
ZGSZ,2017-11-01 20:00,ZGSZ 012000Z 03002MPS 8000 NSC 20/16 Q1014 NOSIG
ZGSZ,2017-11-01 21:00,ZGSZ 012100Z 05003MPS 8000 NSC 20/17 Q1014 NOSIG
ZGSZ,2017-11-01 22:00,ZGSZ 012200Z 36004MPS 8000 NSC 20/16 Q1015 NOSIG
ZGSZ,2017-11-01 23:00,ZGSZ 012300Z 01003G08MPS 320V050 6000 NSC 20/16 Q1015 NOSIG
ZGSZ,2017-11-02 00:00,ZGSZ 020000Z 03004MPS 6000 NSC 21/16 Q1016 NOSIG
ZGSZ,2017-11-02 01:00,ZGSZ 020100Z 03004MPS 350V050 6000 NSC 23/15 Q1016 NOSIG
ZGSZ,2017-11-02 02:00,ZGSZ 020200Z 01006MPS 7000 NSC 25/14 Q1016 NOSIG
ZGSZ,2017-11-02 03:00,ZGSZ 020300Z 01006MPS 340V040 8000 NSC 27/14 Q1015 NOSIG
ZGSZ,2017-11-02 04:00,ZGSZ 020400Z 02006MPS 350V060 8000 NSC 28/13 Q1014 NOSIG
ZGSZ,2017-11-02 05:00,ZGSZ 020500Z 04005MPS CAVOK 29/13 Q1013 NOSIG
ZGSZ,2017-11-02 06:00,ZGSZ 020600Z 06005MPS CAVOK 29/12 Q1013 NOSIG
ZGSZ,2017-11-02 07:00,ZGSZ 020700Z 04004MPS 350V090 CAVOK 28/00 Q1012 NOSIG
ZGSZ,2017-11-02 08:00,ZGSZ 020800Z 03005MPS 360V060 CAVOK 30/10 Q1012 NOSIG
ZGSZ,2017-11-02 09:00,ZGSZ 020900Z 01004MPS CAVOK 29/11 Q1012 NOSIG
ZGSZ,2017-11-02 10:00,ZGSZ 021000Z 04003MPS CAVOK 27/12 Q1013 NOSIG
ZGSZ,2017-11-02 11:00,ZGSZ 021100Z 00000MPS CAVOK 25/13 Q1013 NOSIG
ZGSZ,2017-11-02 12:00,ZGSZ 021200Z 00000MPS CAVOK 23/15 Q1014 NOSIG
ZGSZ,2017-11-02 13:00,ZGSZ 021300Z 08002MPS CAVOK 23/15 Q1014 NOSIG
ZGSZ,2017-11-02 14:00,ZGSZ 021400Z 12001MPS CAVOK 23/15 Q1015 NOSIG
ZGSZ,2017-11-02 15:00,ZGSZ 021500Z 00000MPS CAVOK 21/15 Q1015 NOSIG
ZGSZ,2017-11-02 16:00,ZGSZ 021600Z 10001MPS CAVOK 22/15 Q1015 NOSIG
ZGSZ,2017-11-02 17:00,ZGSZ 021700Z 00000MPS CAVOK 20/16 Q1014 NOSIG
ZGSZ,2017-11-02 18:00,ZGSZ 021800Z 02002MPS 6000 NSC 22/16 Q1014 NOSIG
ZGSZ,2017-11-02 19:00,ZGSZ 021900Z 03002MPS 6000 NSC 22/15 Q1014 NOSIG
ZGSZ,2017-11-02 20:00,ZGSZ 022000Z 02004MPS 8000 NSC 22/13 Q1014 NOSIG
ZGSZ,2017-11-02 21:00,ZGSZ 022100Z 04003MPS 360V060 9000 NSC 22/12 Q1014 NOSIG
ZGSZ,2017-11-02 22:00,ZGSZ 022200Z 03002MPS CAVOK 21/12 Q1015 NOSIG
ZGSZ,2017-11-02 23:00,ZGSZ 022300Z 03004MPS CAVOK 22/12 Q1016 NOSIG
ZGSZ,2017-11-03 00:00,ZGSZ 030000Z 03004MPS CAVOK 23/11 Q1016 NOSIG
ZGSZ,2017-11-03 01:00,ZGSZ 030100Z 03006MPS CAVOK 25/11 Q1017 NOSIG
ZGSZ,2017-11-03 02:00,ZGSZ 030200Z 01006MPS 350V050 CAVOK 26/12 Q1017 NOSIG
ZGSZ,2017-11-03 03:00,ZGSZ 030300Z 02006MPS CAVOK 28/12 Q1017 NOSIG
ZGSZ,2017-11-03 04:00,ZGSZ 030400Z 01006MPS 340V040 CAVOK 28/12 Q1016 NOSIG
ZGSZ,2017-11-03 05:00,ZGSZ 030500Z 02007MPS 350V060 CAVOK 30/11 Q1015 NOSIG
ZGSZ,2017-11-03 06:00,ZGSZ 030600Z 03007MPS CAVOK 30/10 Q1014 NOSIG
ZGSZ,2017-11-03 07:00,ZGSZ 030700Z 04007MPS 020V080 CAVOK 30/09 Q1014 NOSIG
ZGSZ,2017-11-03 08:00,ZGSZ 030800Z 02006MPS CAVOK 30/09 Q1014 NOSIG
ZGSZ,2017-11-03 09:00,ZGSZ 030900Z 04006MPS CAVOK 29/07 Q1015 NOSIG
ZGSZ,2017-11-03 10:00,ZGSZ 031000Z 03004MPS CAVOK 28/08 Q1015 NOSIG
ZGSZ,2017-11-03 11:00,ZGSZ 031100Z 03003MPS CAVOK 26/08 Q1016 NOSIG
ZGSZ,2017-11-03 12:00,ZGSZ 031200Z 03003MPS CAVOK 26/08 Q1016 NOSIG
ZGSZ,2017-11-03 13:00,ZGSZ 031300Z 04004MPS CAVOK 26/07 Q1017 NOSIG
ZGSZ,2017-11-03 14:00,ZGSZ 031400Z 04003MPS CAVOK 25/08 Q1018 NOSIG
ZGSZ,2017-11-03 15:00,ZGSZ 031500Z 01003MPS CAVOK 23/09 Q1018 NOSIG
ZGSZ,2017-11-03 16:00,ZGSZ 031600Z 02004MPS CAVOK 24/09 Q1018 NOSIG
ZGSZ,2017-11-03 17:00,ZGSZ 031700Z 01004MPS CAVOK 24/09 Q1018 NOSIG
ZGSZ,2017-11-03 18:00,ZGSZ 031800Z 02005MPS CAVOK 24/10 Q1018 NOSIG
ZGSZ,2017-11-03 19:00,ZGSZ 031900Z 01005MPS CAVOK 23/10 Q1018 NOSIG
ZGSZ,2017-11-03 20:00,ZGSZ 032000Z 02005MPS CAVOK 23/10 Q1018 NOSIG
ZGSZ,2017-11-03 21:00,ZGSZ 032100Z 02005MPS CAVOK 23/10 Q1018 NOSIG
ZGSZ,2017-11-03 22:00,ZGSZ 032200Z 02006MPS CAVOK 23/10 Q1019 NOSIG
ZGSZ,2017-11-03 23:00,ZGSZ 032300Z 02005MPS 360V070 CAVOK 23/10 Q1019 NOSIG
ZGSZ,2017-11-04 00:00,ZGSZ 040000Z 04007MPS CAVOK 23/11 Q1020 NOSIG
ZGSZ,2017-11-04 01:00,ZGSZ 040100Z 03006MPS 350V050 CAVOK 24/11 Q1020 NOSIG
ZGSZ,2017-11-04 02:00,ZGSZ 040200Z 02006MPS 340V050 CAVOK 25/11 Q1021 NOSIG
ZGSZ,2017-11-04 03:00,ZGSZ 040300Z 04008MPS CAVOK 25/11 Q1020 NOSIG
ZGSZ,2017-11-04 04:00,ZGSZ 040400Z 03008MPS 360V060 9999 FEW033 25/11 Q1020 NOSIG
ZGSZ,2017-11-04 05:00,ZGSZ 040500Z 04007MPS 9999 -RA FEW033 25/11 Q1019 NOSIG
ZGSZ,2017-11-04 06:00,ZGSZ 040600Z 03007MPS 9999 FEW027 26/12 Q1018 NOSIG
ZGSZ,2017-11-04 07:00,ZGSZ 040700Z 04006MPS CAVOK 26/11 Q1018 NOSIG
ZGSZ,2017-11-04 08:00,ZGSZ 040800Z 03005MPS CAVOK 26/12 Q1018 NOSIG
ZGSZ,2017-11-04 09:00,ZGSZ 040900Z 05004MPS CAVOK 26/12 Q1018 NOSIG
ZGSZ,2017-11-04 10:00,ZGSZ 041000Z 02003MPS CAVOK 25/12 Q1019 NOSIG
ZGSZ,2017-11-04 11:00,ZGSZ 041100Z 02002MPS 350V050 CAVOK 25/12 Q1019 NOSIG
ZGSZ,2017-11-04 12:00,ZGSZ 041200Z VRB01MPS CAVOK 25/13 Q1020 NOSIG
ZGSZ,2017-11-04 13:00,ZGSZ 041300Z 04004MPS CAVOK 25/12 Q1020 NOSIG
ZGSZ,2017-11-04 14:00,ZGSZ 041400Z 02005MPS CAVOK 25/12 Q1020 NOSIG
ZGSZ,2017-11-04 15:00,ZGSZ 041500Z 03004MPS CAVOK 24/12 Q1020 NOSIG
ZGSZ,2017-11-04 16:00,ZGSZ 041600Z 03006MPS CAVOK 24/12 Q1020 NOSIG
ZGSZ,2017-11-04 17:00,ZGSZ 041700Z 04006MPS CAVOK 23/12 Q1020 NOSIG
ZGSZ,2017-11-04 18:00,ZGSZ 041800Z 03006MPS CAVOK 22/12 Q1019 NOSIG
ZGSZ,2017-11-04 19:00,ZGSZ 041900Z 04005MPS CAVOK 22/12 Q1019 NOSIG
ZGSZ,2017-11-04 20:00,ZGSZ 042000Z 03006MPS CAVOK 21/12 Q1019 NOSIG
ZGSZ,2017-11-04 21:00,ZGSZ 042100Z 03005MPS CAVOK 21/12 Q1019 NOSIG
ZGSZ,2017-11-04 22:00,ZGSZ 042200Z 03005MPS CAVOK 20/12 Q1019 NOSIG
ZGSZ,2017-11-04 23:00,ZGSZ 042300Z 03004MPS 5000 HZ NSC 20/12 Q1020 NOSIG
ZGSZ,2017-11-05 00:00,ZGSZ 050000Z 03006MPS 5000 HZ NSC 21/12 Q1020 NOSIG
ZGSZ,2017-11-05 01:00,ZGSZ 050100Z 03006MPS 7000 NSC 22/12 Q1021 NOSIG
ZGSZ,2017-11-05 02:00,ZGSZ 050200Z 04005MPS 7000 NSC 23/11 Q1021 NOSIG
ZGSZ,2017-11-05 03:00,ZGSZ 050300Z 03005MPS 340V060 7000 NSC 24/11 Q1020 NOSIG
ZGSZ,2017-11-05 04:00,ZGSZ 050400Z 04006MPS 360V080 7000 NSC 25/11 Q1019 NOSIG
ZGSZ,2017-11-05 05:00,ZGSZ 050500Z 07005MPS 8000 NSC 25/11 Q1018 NOSIG
ZGSZ,2017-11-05 06:00,ZGSZ 050600Z 05004MPS 350V080 8000 NSC 27/12 Q1017 NOSIG
ZGSZ,2017-11-05 07:00,ZGSZ 050700Z 01004MPS 350V060 8000 NSC 27/12 Q1016 NOSIG
ZGSZ,2017-11-05 08:00,ZGSZ 050800Z 02004MPS 340V050 8000 NSC 27/12 Q1017 NOSIG
ZGSZ,2017-11-05 09:00,ZGSZ 050900Z 02005MPS 8000 NSC 26/12 Q1017 NOSIG
ZGSZ,2017-11-05 10:00,ZGSZ 051000Z 03005MPS 8000 NSC 25/12 Q1017 NOSIG
ZGSZ,2017-11-05 11:00,ZGSZ 051100Z 04004MPS CAVOK 25/12 Q1018 NOSIG
ZGSZ,2017-11-05 12:00,ZGSZ 051200Z 04005MPS 8000 NSC 25/12 Q1018 NOSIG
ZGSZ,2017-11-05 13:00,ZGSZ 051300Z 04003MPS 8000 NSC 25/12 Q1018 NOSIG
ZGSZ,2017-11-05 14:00,ZGSZ 051400Z 03005MPS 8000 NSC 24/12 Q1018 NOSIG
ZGSZ,2017-11-05 15:00,ZGSZ 051500Z 04004MPS 8000 NSC 24/12 Q1018 NOSIG
ZGSZ,2017-11-05 16:00,ZGSZ 051600Z 04004MPS 9999 BKN050 24/12 Q1018 NOSIG
ZGSZ,2017-11-05 17:00,ZGSZ 051700Z 04005MPS 9999 BKN050 23/11 Q1017 NOSIG
ZGSZ,2017-11-05 18:00,ZGSZ 051800Z 03004MPS 9999 BKN050 23/12 Q1017 NOSIG
ZGSZ,2017-11-05 19:00,ZGSZ 051900Z 04005MPS 9999 BKN050 23/12 Q1017 NOSIG
ZGSZ,2017-11-05 20:00,ZGSZ 052000Z 02003MPS 360V060 9999 -RA BKN050 20/13 Q1017 NOSIG
ZGSZ,2017-11-05 21:00,ZGSZ 052100Z 02005MPS CAVOK 20/15 Q1016 NOSIG
ZGSZ,2017-11-05 22:00,ZGSZ 052200Z 01003MPS CAVOK 20/15 Q1017 NOSIG
ZGSZ,2017-11-05 23:00,ZGSZ 052300Z 02003MPS CAVOK 20/14 Q1018 NOSIG
ZGSZ,2017-11-06 00:00,ZGSZ 060000Z 04002MPS CAVOK 21/14 Q1018 NOSIG
ZGSZ,2017-11-06 01:00,ZGSZ 060100Z 03004MPS CAVOK 22/14 Q1018 NOSIG
ZGSZ,2017-11-06 02:00,ZGSZ 060200Z 03004MPS 360V060 CAVOK 23/14 Q1019 NOSIG
ZGSZ,2017-11-06 03:00,ZGSZ 060300Z 03004MPS 9999 SCT053 24/14 Q1018 NOSIG
ZGSZ,2017-11-06 04:00,ZGSZ 060400Z 03004MPS 340V050 9999 BKN053 25/14 Q1017 NOSIG
ZGSZ,2017-11-06 05:00,ZGSZ 060500Z 03004MPS 350V060 9999 BKN053 25/15 Q1016 NOSIG
ZGSZ,2017-11-06 06:00,ZGSZ 060600Z 01006MPS 340V040 9999 BKN053 25/15 Q1015 NOSIG
ZGSZ,2017-11-06 07:00,ZGSZ 060700Z 01004MPS 340V040 9999 BKN053 26/16 Q1015 NOSIG
ZGSZ,2017-11-06 08:00,ZGSZ 060800Z 02005MPS 9999 BKN053 25/15 Q1014 NOSIG
ZGSZ,2017-11-06 09:00,ZGSZ 060900Z 02005MPS 9999 BKN053 25/16 Q1015 NOSIG
ZGSZ,2017-11-06 10:00,ZGSZ 061000Z 03004MPS 9999 BKN053 24/16 Q1015 NOSIG
ZGSZ,2017-11-06 11:00,ZGSZ 061100Z 04004MPS 9999 BKN053 24/16 Q1016 NOSIG
ZGSZ,2017-11-06 12:00,ZGSZ 061200Z 03004MPS 9999 -SHRA BKN050 24/16 Q1017 NOSIG
ZGSZ,2017-11-06 13:00,ZGSZ 061300Z 03004MPS 9999 -SHRA BKN050 23/17 Q1017 NOSIG
ZGSZ,2017-11-06 14:00,ZGSZ 061400Z 01004MPS 9999 -SHRA BKN033 23/17 Q1017 NOSIG
ZGSZ,2017-11-06 15:00,ZGSZ 061500Z 04006MPS CAVOK 22/17 Q1017 NOSIG
ZGSZ,2017-11-06 16:00,ZGSZ 061600Z 03006MPS 9999 BKN053 21/17 Q1017 NOSIG
ZGSZ,2017-11-06 17:00,ZGSZ 061700Z 02005MPS 9999 FEW020 BKN053 21/17 Q1017 NOSIG
ZGSZ,2017-11-06 18:00,ZGSZ 061800Z 02004MPS 9999 BKN020 BKN053 21/18 Q1017 NOSIG
ZGSZ,2017-11-06 19:00,ZGSZ 061900Z 02004MPS 9999 BKN016 21/18 Q1016 NOSIG
ZGSZ,2017-11-06 20:00,ZGSZ 062000Z 04003MPS 8000 -SHRA SCT020 BKN050 20/18 Q1016 NOSIG
ZGSZ,2017-11-06 21:00,ZGSZ 062100Z 02004MPS 7000 -SHRA BKN050 20/18 Q1016 NOSIG
ZGSZ,2017-11-06 22:00,ZGSZ 062200Z 36003MPS 7000 -SHRA BKN050 20/18 Q1016 NOSIG
ZGSZ,2017-11-06 23:00,ZGSZ 062300Z 01005MPS 7000 -SHRA BKN040 20/17 Q1017 NOSIG
ZGSZ,2017-11-07 00:00,ZGSZ 070000Z 01004MPS 7000 BKN046 21/18 Q1017 NOSIG
ZGSZ,2017-11-07 01:00,ZGSZ 070100Z 36004MPS 8000 OVC050 21/18 Q1018 NOSIG
ZGSZ,2017-11-07 02:00,ZGSZ 070200Z 36005MPS 9999 OVC050 22/17 Q1018 NOSIG
ZGSZ,2017-11-07 03:00,ZGSZ 070300Z 36004MPS 9999 OVC043 23/17 Q1018 NOSIG
ZGSZ,2017-11-07 04:00,ZGSZ 070400Z 35005MPS 9999 BKN050 24/18 Q1017 NOSIG
ZGSZ,2017-11-07 05:00,ZGSZ 070500Z 35006MPS 320V020 8000 NSC 25/17 Q1016 NOSIG
ZGSZ,2017-11-07 06:00,ZGSZ 070600Z 35006MPS 8000 BKN050 25/17 Q1015 NOSIG
ZGSZ,2017-11-07 07:00,ZGSZ 070700Z 36005MPS 7000 BKN050 24/17 Q1015 NOSIG
ZGSZ,2017-11-07 08:00,ZGSZ 070800Z 01005MPS 8000 BKN050 24/18 Q1015 NOSIG
ZGSZ,2017-11-07 09:00,ZGSZ 070900Z 36005MPS 9999 BKN050 24/18 Q1015 NOSIG
ZGSZ,2017-11-07 10:00,ZGSZ 071000Z 02004MPS 9999 BKN043 24/17 Q1016 NOSIG
ZGSZ,2017-11-07 11:00,ZGSZ 071100Z 01003MPS 9999 OVC040 24/18 Q1016 NOSIG
ZGSZ,2017-11-07 12:00,ZGSZ 071200Z 02004MPS 9999 OVC040 24/17 Q1017 NOSIG
ZGSZ,2017-11-07 13:00,ZGSZ 071300Z 01003MPS 340V040 9999 OVC040 24/18 Q1017 NOSIG
ZGSZ,2017-11-07 14:00,ZGSZ 071400Z 02004MPS 9999 OVC033 24/18 Q1017 NOSIG
ZGSZ,2017-11-07 15:00,ZGSZ 071500Z 03007MPS 9999 OVC033 23/18 Q1018 NOSIG
ZGSZ,2017-11-07 16:00,ZGSZ 071600Z 01004MPS 9999 BKN033 23/19 Q1017 NOSIG
ZGSZ,2017-11-07 17:00,ZGSZ 071700Z 01005MPS 9999 BKN033 22/19 Q1017 NOSIG
ZGSZ,2017-11-07 18:00,ZGSZ 071800Z 01005MPS 9999 BKN033 22/19 Q1017 NOSIG
ZGSZ,2017-11-07 19:00,ZGSZ 071900Z 01005MPS 340V040 9999 BKN033 22/19 Q1016 NOSIG
ZGSZ,2017-11-07 20:00,ZGSZ 072000Z 02004MPS 9999 SCT013 BKN033 22/19 Q1016 NOSIG
ZGSZ,2017-11-07 21:00,ZGSZ 072100Z 02004MPS 9999 FEW013 22/19 Q1016 NOSIG
ZGSZ,2017-11-07 22:00,ZGSZ 072200Z 03006MPS 9999 FEW015 22/19 Q1016 NOSIG
ZGSZ,2017-11-07 23:00,ZGSZ 072300Z 01004MPS 9999 FEW015 BKN033 22/19 Q1017 NOSIG
ZGSZ,2017-11-08 00:00,ZGSZ 080000Z 03004MPS 9999 BKN030 22/19 Q1017 NOSIG
ZGSZ,2017-11-08 01:00,ZGSZ 080100Z 02004MPS 9999 BKN033 23/19 Q1018 NOSIG
ZGSZ,2017-11-08 02:00,ZGSZ 080200Z 02004MPS 350V050 9999 BKN033 24/19 Q1018 NOSIG
ZGSZ,2017-11-08 03:00,ZGSZ 080300Z 03006MPS 9999 BKN033 25/19 Q1018 NOSIG
ZGSZ,2017-11-08 04:00,ZGSZ 080400Z 02005MPS 350V050 9999 BKN033 26/19 Q1017 NOSIG
ZGSZ,2017-11-08 05:00,ZGSZ 080500Z 02004MPS 350V060 9999 BKN033 26/19 Q1016 NOSIG
ZGSZ,2017-11-08 06:00,ZGSZ 080600Z 36004MPS 9999 BKN036 27/19 Q1015 NOSIG
ZGSZ,2017-11-08 07:00,ZGSZ 080700Z 35004MPS 320V030 9999 BKN036 27/20 Q1014 NOSIG
ZGSZ,2017-11-08 08:00,ZGSZ 080800Z 02004MPS 340V050 9999 BKN036 27/20 Q1014 NOSIG
ZGSZ,2017-11-08 09:00,ZGSZ 080900Z 01003MPS 9999 BKN036 27/20 Q1014 NOSIG
ZGSZ,2017-11-08 10:00,ZGSZ 081000Z 36003MPS 9999 BKN036 26/20 Q1015 NOSIG
ZGSZ,2017-11-08 11:00,ZGSZ 081100Z 01004MPS 9999 BKN036 26/20 Q1015 NOSIG
ZGSZ,2017-11-08 12:00,ZGSZ 081200Z 01004MPS 9999 BKN043 25/20 Q1016 NOSIG
ZGSZ,2017-11-08 13:00,ZGSZ 081300Z 03004MPS 9999 BKN050 25/19 Q1016 NOSIG
ZGSZ,2017-11-08 14:00,ZGSZ 081400Z 04004MPS 9999 BKN050 25/20 Q1016 NOSIG
ZGSZ,2017-11-08 15:00,ZGSZ 081500Z 02002MPS 9999 BKN040 24/20 Q1016 NOSIG
ZGSZ,2017-11-08 16:00,ZGSZ 081600Z 02002MPS 9999 SCT026 BKN040 24/20 Q1016 NOSIG
ZGSZ,2017-11-08 17:00,ZGSZ 081700Z 06003MPS 9999 BKN027 24/20 Q1016 NOSIG
ZGSZ,2017-11-08 18:00,ZGSZ 081800Z VRB01MPS 5000 -SHRA BR SCT012 BKN025 22/21 Q1016 NOSIG
ZGSZ,2017-11-08 19:00,ZGSZ 081900Z 01002MPS 8000 BKN025 22/21 Q1015 NOSIG
ZGSZ,2017-11-08 20:00,ZGSZ 082000Z 03003MPS 9999 BKN025 23/20 Q1015 NOSIG
ZGSZ,2017-11-08 21:00,ZGSZ 082100Z 04003MPS 9999 BKN036 23/20 Q1015 NOSIG
ZGSZ,2017-11-08 22:00,ZGSZ 082200Z 04003MPS 9999 BKN036 23/19 Q1016 NOSIG
ZGSZ,2017-11-08 23:00,ZGSZ 082300Z 02003MPS 9999 BKN036 23/20 Q1017 NOSIG
ZGSZ,2017-11-09 00:00,ZGSZ 090000Z 02003MPS 9999 BKN050 23/20 Q1017 NOSIG
ZGSZ,2017-11-09 01:00,ZGSZ 090100Z 05004MPS 8000 FEW020 BKN050 24/20 Q1017 NOSIG
ZGSZ,2017-11-09 02:00,ZGSZ 090200Z 06004MPS 8000 SCT020 BKN050 25/20 Q1017 NOSIG
ZGSZ,2017-11-09 03:00,ZGSZ 090300Z 06003MPS 020V100 7000 SCT020 SCT050 26/20 Q1017 NOSIG
ZGSZ,2017-11-09 04:00,ZGSZ 090400Z 04003MPS 330V090 7000 SCT020 SCT050 28/20 Q1016 NOSIG
ZGSZ,2017-11-09 05:00,ZGSZ 090500Z 31003MPS 270V020 7000 BKN033 27/21 Q1015 NOSIG
ZGSZ,2017-11-09 06:00,ZGSZ 090600Z 29005MPS 5000 HZ BKN033 27/21 Q1014 NOSIG
ZGSZ,2017-11-09 07:00,ZGSZ 090700Z 23002MPS 200V260 4700 HZ BKN036 26/21 Q1014 NOSIG
ZGSZ,2017-11-09 08:00,ZGSZ 090800Z 21002MPS 4500 HZ BKN050 27/21 Q1014 NOSIG
ZGSZ,2017-11-09 09:00,ZGSZ 090900Z 23002MPS 180V260 4500 HZ NSC 26/21 Q1014 NOSIG
ZGSZ,2017-11-09 10:00,ZGSZ 091000Z 20002MPS 4500 BR NSC 26/21 Q1014 NOSIG
ZGSZ,2017-11-09 11:00,ZGSZ 091100Z 18002MPS 6000 NSC 25/22 Q1015 NOSIG
ZGSZ,2017-11-09 12:00,ZGSZ 091200Z 16003MPS CAVOK 25/22 Q1015 NOSIG
ZGSZ,2017-11-09 13:00,ZGSZ 091300Z VRB01MPS CAVOK 25/22 Q1016 NOSIG
ZGSZ,2017-11-09 14:00,ZGSZ 091400Z 18001MPS CAVOK 24/22 Q1015 NOSIG
ZGSZ,2017-11-09 15:00,ZGSZ 091500Z 18003MPS CAVOK 24/22 Q1015 NOSIG
ZGSZ,2017-11-09 16:00,ZGSZ 091600Z 11003MPS 8000 NSC 24/21 Q1015 NOSIG
ZGSZ,2017-11-09 17:00,ZGSZ 091700Z 12004MPS 7000 SCT030 24/20 Q1015 NOSIG
ZGSZ,2017-11-09 18:00,ZGSZ 091800Z 12004MPS 8000 SCT030 24/20 Q1015 NOSIG
ZGSZ,2017-11-09 19:00,ZGSZ 091900Z 11003MPS CAVOK 23/20 Q1014 NOSIG
ZGSZ,2017-11-09 20:00,ZGSZ 092000Z 10003MPS CAVOK 23/20 Q1015 NOSIG
ZGSZ,2017-11-09 21:00,ZGSZ 092100Z 07001MPS CAVOK 23/20 Q1015 NOSIG
ZGSZ,2017-11-09 22:00,ZGSZ 092200Z 00000MPS CAVOK 22/20 Q1015 NOSIG
ZGSZ,2017-11-09 23:00,ZGSZ 092300Z 06002MPS 8000 FEW033 23/20 Q1016 NOSIG
ZGSZ,2017-11-10 00:00,ZGSZ 100000Z 06002MPS 8000 FEW033 24/20 Q1016 NOSIG
ZGSZ,2017-11-10 01:00,ZGSZ 100100Z 07003MPS 8000 FEW033 25/20 Q1017 NOSIG
ZGSZ,2017-11-10 02:00,ZGSZ 100200Z VRB01MPS 8000 FEW033 26/20 Q1017 NOSIG
ZGSZ,2017-11-10 03:00,ZGSZ 100300Z 04002MPS 010V100 8000 NSC 28/20 Q1016 NOSIG
ZGSZ,2017-11-10 04:00,ZGSZ 100400Z VRB03MPS 4500 HZ NSC 29/21 Q1015 BECMG AT0540 29005MPS
ZGSZ,2017-11-10 05:00,ZGSZ 100500Z 28005MPS 3500 HZ FEW026 27/22 Q1014 NOSIG
ZGSZ,2017-11-10 06:00,ZGSZ 100600Z 30005MPS 3500 HZ FEW026 28/22 Q1013 NOSIG
ZGSZ,2017-11-10 07:00,ZGSZ 100700Z 29004MPS 270V330 3500 HZ FEW026 28/22 Q1013 NOSIG
ZGSZ,2017-11-10 08:00,ZGSZ 100800Z 30004MPS 7000 FEW026 28/22 Q1013 NOSIG
ZGSZ,2017-11-10 09:00,ZGSZ 100900Z 29003MPS 7000 BKN040 28/22 Q1013 NOSIG
ZGSZ,2017-11-10 10:00,ZGSZ 101000Z 04003MPS 7000 NSC 29/20 Q1013 NOSIG
ZGSZ,2017-11-10 11:00,ZGSZ 101100Z 36003MPS 8000 NSC 28/21 Q1014 NOSIG
ZGSZ,2017-11-10 12:00,ZGSZ 101200Z 36003MPS 8000 NSC 27/21 Q1014 NOSIG
ZGSZ,2017-11-10 13:00,ZGSZ 101300Z 35003MPS 8000 NSC 27/21 Q1014 NOSIG
ZGSZ,2017-11-10 14:00,ZGSZ 101400Z 19003MPS 6000 NSC 25/23 Q1015 NOSIG
ZGSZ,2017-11-10 15:00,ZGSZ 101500Z 17003MPS CAVOK 25/22 Q1015 NOSIG
ZGSZ,2017-11-10 16:00,ZGSZ 101600Z 12003MPS CAVOK 26/21 Q1014 NOSIG
ZGSZ,2017-11-10 17:00,ZGSZ 101700Z 12003MPS CAVOK 25/21 Q1014 NOSIG
ZGSZ,2017-11-10 18:00,ZGSZ 101800Z 12004MPS CAVOK 24/21 Q1014 NOSIG
ZGSZ,2017-11-10 19:00,ZGSZ 101900Z 12002MPS CAVOK 24/20 Q1014 NOSIG
ZGSZ,2017-11-10 20:00,ZGSZ 102000Z VRB02MPS CAVOK 25/20 Q1014 NOSIG
ZGSZ,2017-11-10 21:00,ZGSZ 102100Z 00000MPS 9999 FEW020 24/20 Q1014 NOSIG
ZGSZ,2017-11-10 22:00,ZGSZ 102200Z 06002MPS 9999 FEW020 24/21 Q1014 NOSIG
ZGSZ,2017-11-10 23:00,ZGSZ 102300Z 03002MPS 6000 NSC 24/21 Q1014 NOSIG
ZGSZ,2017-11-11 00:00,ZGSZ 110000Z 04003MPS 6000 NSC 25/21 Q1015 NOSIG
ZGSZ,2017-11-11 01:00,ZGSZ 110100Z 04005MPS 6000 NSC 26/21 Q1015 NOSIG
ZGSZ,2017-11-11 02:00,ZGSZ 110200Z 06004MPS 010V080 7000 NSC 27/20 Q1016 NOSIG
ZGSZ,2017-11-11 03:00,ZGSZ 110300Z 03004MPS 8000 NSC 29/21 Q1015 NOSIG
ZGSZ,2017-11-11 04:00,ZGSZ 110400Z 04003MPS 350V100 8000 NSC 29/21 Q1014 NOSIG
ZGSZ,2017-11-11 05:00,ZGSZ 110500Z 02004MPS 340V050 8000 SCT033 29/21 Q1013 NOSIG
ZGSZ,2017-11-11 06:00,ZGSZ 110600Z 06003MPS 020V080 7000 SCT033 BKN043 29/21 Q1012 NOSIG
ZGSZ,2017-11-11 07:00,ZGSZ 110700Z 04003MPS 7000 SCT033 BKN043 28/20 Q1012 NOSIG
ZGSZ,2017-11-11 08:00,ZGSZ 110800Z 04004MPS 7000 SCT032 BKN040 28/20 Q1012 NOSIG
ZGSZ,2017-11-11 09:00,ZGSZ 110900Z 04004MPS 5000 HZ OVC033 28/21 Q1012 NOSIG
ZGSZ,2017-11-11 10:00,ZGSZ 111000Z 04004MPS 6000 OVC040 27/20 Q1013 NOSIG
ZGSZ,2017-11-11 11:00,ZGSZ 111100Z 06004MPS 8000 BKN040 27/20 Q1013 NOSIG
ZGSZ,2017-11-11 12:00,ZGSZ 111200Z 05003MPS 8000 SCT040 27/20 Q1014 NOSIG
ZGSZ,2017-11-11 13:00,ZGSZ 111300Z 03003MPS 8000 SCT040 26/20 Q1014 NOSIG
ZGSZ,2017-11-11 14:00,ZGSZ 111400Z 11003MPS 8000 SCT040 26/21 Q1014 NOSIG
ZGSZ,2017-11-11 15:00,ZGSZ 111500Z 10004MPS 8000 NSC 25/21 Q1014 NOSIG
ZGSZ,2017-11-11 16:00,ZGSZ 111600Z 11003MPS 8000 NSC 25/21 Q1013 NOSIG
ZGSZ,2017-11-11 17:00,ZGSZ 111700Z 08002MPS 030V120 8000 SCT053 25/21 Q1013 NOSIG
ZGSZ,2017-11-11 18:00,ZGSZ 111800Z 00000MPS 7000 NSC 25/21 Q1013 NOSIG
ZGSZ,2017-11-11 19:00,ZGSZ 111900Z 05003MPS 040V110 7000 NSC 24/20 Q1013 NOSIG
ZGSZ,2017-11-11 20:00,ZGSZ 112000Z 06002MPS 7000 NSC 24/20 Q1013 NOSIG
ZGSZ,2017-11-11 21:00,ZGSZ 112100Z 05002MPS 020V080 7000 NSC 24/20 Q1013 NOSIG
ZGSZ,2017-11-11 22:00,ZGSZ 112200Z VRB03MPS 7000 NSC 24/20 Q1013 NOSIG
ZGSZ,2017-11-11 23:00,ZGSZ 112300Z 06003MPS 030V120 7000 NSC 24/19 Q1014 NOSIG
ZGSZ,2017-11-12 00:00,ZGSZ 120000Z 06003MPS 030V110 7000 BKN030 24/19 Q1014 NOSIG
ZGSZ,2017-11-12 01:00,ZGSZ 120100Z 04004MPS 020V090 5000 -SHRA HZ BKN033 25/20 Q1014 NOSIG
ZGSZ,2017-11-12 02:00,ZGSZ 120200Z 06003MPS 030V090 5000 HZ NSC 25/20 Q1015 NOSIG
ZGSZ,2017-11-12 03:00,ZGSZ 120300Z VRB02MPS 6000 BKN050 26/20 Q1014 NOSIG
ZGSZ,2017-11-12 04:00,ZGSZ 120400Z VRB02MPS 6000 BKN050 26/20 Q1014 NOSIG
ZGSZ,2017-11-12 05:00,ZGSZ 120500Z 24003MPS 2500 -RA BR BKN040 23/21 Q1013 NOSIG
ZGSZ,2017-11-12 06:00,ZGSZ 120600Z 17003MPS 4100 -RA BR BKN040 23/21 Q1012 NOSIG
ZGSZ,2017-11-12 07:00,ZGSZ 120700Z 18003MPS 3700 BR BKN053 24/22 Q1011 NOSIG
ZGSZ,2017-11-12 08:00,ZGSZ 120800Z 10004MPS 4500 BR BKN053 24/21 Q1011 NOSIG
ZGSZ,2017-11-12 09:00,ZGSZ 120900Z 08003MPS 040V100 4500 BR FEW016 BKN053 24/21 Q1012 NOSIG
ZGSZ,2017-11-12 10:00,ZGSZ 121000Z 12003MPS 4500 BR FEW016 BKN053 24/21 Q1012 NOSIG
ZGSZ,2017-11-12 11:00,ZGSZ 121100Z 12003MPS 4500 BR FEW016 BKN053 24/21 Q1013 NOSIG
ZGSZ,2017-11-12 12:00,ZGSZ 121200Z 10004MPS 6000 -SHRA SCT016 BKN053 23/21 Q1014 NOSIG
ZGSZ,2017-11-12 13:00,ZGSZ 121300Z 11003MPS 7000 SCT016 BKN053 23/20 Q1014 NOSIG
ZGSZ,2017-11-12 14:00,ZGSZ 121400Z 12004MPS 9999 SCT016 BKN053 23/20 Q1014 NOSIG
ZGSZ,2017-11-12 15:00,ZGSZ 121500Z 08003MPS 060V130 9999 SCT014 BKN050 23/20 Q1013 NOSIG
ZGSZ,2017-11-12 16:00,ZGSZ 121600Z 11002MPS 070V130 9999 SCT014 BKN050 23/20 Q1013 NOSIG
ZGSZ,2017-11-12 17:00,ZGSZ 121700Z 10002MPS 060V130 9999 SCT014 BKN050 23/20 Q1013 NOSIG
ZGSZ,2017-11-12 18:00,ZGSZ 121800Z 04002MPS 020V080 9999 SCT014 BKN050 23/20 Q1013 NOSIG
ZGSZ,2017-11-12 19:00,ZGSZ 121900Z 02003MPS 9999 SCT014 BKN040 22/20 Q1013 NOSIG
ZGSZ,2017-11-12 20:00,ZGSZ 122000Z 05004MPS 9999 FEW015 BKN022 22/20 Q1012 NOSIG
ZGSZ,2017-11-12 21:00,ZGSZ 122100Z 05004MPS 7000 -RA FEW012 BKN022 22/20 Q1012 NOSIG
ZGSZ,2017-11-12 22:00,ZGSZ 122200Z 05003MPS 7000 -RA FEW012 BKN022 22/20 Q1013 NOSIG
ZGSZ,2017-11-12 23:00,ZGSZ 122300Z 05002MPS 030V090 7000 -RA FEW012 OVC023 22/20 Q1013 NOSIG
ZGSZ,2017-11-13 00:00,ZGSZ 130000Z 34003MPS 3500 -SHRA BR SCT011 OVC023 22/21 Q1014 NOSIG
ZGSZ,2017-11-13 01:00,ZGSZ 130100Z 34003MPS 3200 -SHRA BR SCT011 OVC023 22/21 Q1015 BECMG AT0230 2800
ZGSZ,2017-11-13 02:00,ZGSZ 130200Z 36003MPS 3200 -SHRA BR SCT011 OVC023 22/21 Q1015 BECMG AT0230 2800
ZGSZ,2017-11-13 03:00,ZGSZ 130300Z 36004MPS 2800 -SHRA BR SCT011 OVC030 22/21 Q1014 BECMG AT0430 3100
ZGSZ,2017-11-13 04:00,ZGSZ 130400Z 36003MPS 2300 -SHRA BR SCT011 OVC030 22/21 Q1014 BECMG AT0430 3100
ZGSZ,2017-11-13 05:00,ZGSZ 130500Z 02004MPS 3200 -SHRA BR SCT011 OVC030 22/21 Q1013 BECMG AT0630 2700
ZGSZ,2017-11-13 06:00,ZGSZ 130600Z 01004MPS 3200 -SHRA BR SCT011 OVC030 22/21 Q1012 BECMG AT0630 2700
ZGSZ,2017-11-13 07:00,ZGSZ 130700Z 03004MPS 2800 -SHRA BR SCT011 OVC030 22/20 Q1012 NOSIG AT0730 3500
ZGSZ,2017-11-13 08:00,ZGSZ 130800Z 04004MPS 4500 -SHRA BR SCT014 OVC036 22/21 Q1012 NOSIG
ZGSZ,2017-11-13 09:00,ZGSZ 130900Z 06004MPS 8000 FEW011 BKN040 22/21 Q1012 NOSIG
ZGSZ,2017-11-13 10:00,ZGSZ 131000Z 06003MPS 8000 BKN043 22/21 Q1012 NOSIG
ZGSZ,2017-11-13 11:00,ZGSZ 131100Z 00000MPS 8000 BKN040 22/20 Q1013 NOSIG
ZGSZ,2017-11-13 12:00,ZGSZ 131200Z 04002MPS 360V070 8000 BKN040 23/21 Q1013 NOSIG
ZGSZ,2017-11-13 13:00,ZGSZ 131300Z 05002MPS 8000 BKN036 23/21 Q1014 NOSIG
ZGSZ,2017-11-13 14:00,ZGSZ 131400Z 03003MPS 9999 BKN036 23/21 Q1014 NOSIG
ZGSZ,2017-11-13 15:00,ZGSZ 131500Z 04003MPS 9999 BKN030 23/21 Q1014 NOSIG
ZGSZ,2017-11-13 16:00,ZGSZ 131600Z 04003MPS 9999 BKN030 22/21 Q1014 NOSIG
ZGSZ,2017-11-13 17:00,ZGSZ 131700Z 03003MPS 9999 BKN030 22/21 Q1014 NOSIG
ZGSZ,2017-11-13 18:00,ZGSZ 131800Z 02003MPS 9999 BKN030 22/21 Q1013 NOSIG
ZGSZ,2017-11-13 19:00,ZGSZ 131900Z 02003MPS 9999 BKN030 22/21 Q1013 NOSIG
ZGSZ,2017-11-13 20:00,ZGSZ 132000Z 04003MPS 7000 SCT011 BKN025 22/21 Q1013 NOSIG
ZGSZ,2017-11-13 21:00,ZGSZ 132100Z 02004MPS 280V040 7000 SCT011 OVC025 22/21 Q1013 NOSIG
ZGSZ,2017-11-13 22:00,ZGSZ 132200Z 04003MPS 7000 BKN011 BKN025 22/21 Q1014 NOSIG
ZGSZ,2017-11-13 23:00,ZGSZ 132300Z 04003MPS 7000 SCT011 BKN027 22/21 Q1015 NOSIG
ZGSZ,2017-11-14 00:00,ZGSZ 140000Z 04003MPS 7000 SCT013 BKN027 23/21 Q1015 NOSIG
ZGSZ,2017-11-14 01:00,ZGSZ 140100Z 03003MPS 7000 SCT013 BKN030 23/21 Q1016 BECMG TL0215 BKN013
ZGSZ,2017-11-14 02:00,ZGSZ 140200Z 04002MPS 6000 -SHRA SCT013 BKN030 24/21 Q1016 BECMG TL0215 BKN013
ZGSZ,2017-11-14 03:00,ZGSZ 140300Z 06002MPS 9000 BKN014 BKN030 25/22 Q1016 BECMG TL0435 SCT014 BKN040
ZGSZ,2017-11-14 04:00,ZGSZ 140400Z 00000MPS 9999 BKN014 BKN030 24/22 Q1015 BECMG TL0435 SCT014 BKN040
ZGSZ,2017-11-14 05:00,ZGSZ 140500Z 09002MPS 040V120 9999 SCT014 BKN030 25/22 Q1014 BECMG TL0630 BKN014
ZGSZ,2017-11-14 06:00,ZGSZ 140600Z 05003MPS 9999 SCT014 BKN030 25/22 Q1013 BECMG TL0630 BKN014
ZGSZ,2017-11-14 07:00,ZGSZ 140700Z 07002MPS 020V100 9999 BKN014 BKN030 26/22 Q1013 BCEMG TL0735 SCT014 BKN033
ZGSZ,2017-11-14 08:00,ZGSZ 140800Z 03003MPS 340V080 7000 SCT020 BKN033 25/22 Q1012 NOSIG
ZGSZ,2017-11-14 09:00,ZGSZ 140900Z 06002MPS 040V120 5000 -SHRA BR BKN017 FEW033CB BKN033 25/22 Q1013 NOSIG
ZGSZ,2017-11-14 10:00,ZGSZ 141000Z 05002MPS 360V120 5000 -SHRA BR BKN017 FEW033CB BKN033 24/22 Q1014 NOSIG
ZGSZ,2017-11-14 11:00,ZGSZ 141100Z 06002MPS 360V150 4000 -SHRA BR BKN018 FEW033CB BKN033 23/22 Q1014 NOSIG
ZGSZ,2017-11-14 12:00,ZGSZ 141200Z 03002MPS 360V070 5000 -SHRA BR BKN018 FEW033CB BKN040 24/22 Q1015 NOSIG
ZGSZ,2017-11-14 13:00,ZGSZ 141300Z 04002MPS 360V070 4500 BR SCT020 BKN040 24/22 Q1015 NOSIG
ZGSZ,2017-11-14 14:00,ZGSZ 141400Z 06002MPS 010V120 6000 SCT020 BKN043 24/22 Q1016 NOSIG
ZGSZ,2017-11-14 15:00,ZGSZ 141500Z 11003MPS 8000 BKN020 24/21 Q1016 NOSIG
ZGSZ,2017-11-14 16:00,ZGSZ 141600Z 10003MPS 070V150 8000 BKN020 24/21 Q1016 NOSIG
ZGSZ,2017-11-14 17:00,ZGSZ 141700Z 10003MPS 060V130 9999 BKN020 24/21 Q1016 NOSIG
ZGSZ,2017-11-14 18:00,ZGSZ 141800Z 10002MPS 9999 BKN020 23/21 Q1015 NOSIG
ZGSZ,2017-11-14 19:00,ZGSZ 141900Z 05001MPS 9999 BKN020 23/21 Q1015 NOSIG
ZGSZ,2017-11-14 20:00,ZGSZ 142000Z 09003MPS 9999 BKN030 23/21 Q1015 NOSIG
ZGSZ,2017-11-14 21:00,ZGSZ 142100Z 11003MPS 9999 BKN030 23/21 Q1015 NOSIG
ZGSZ,2017-11-14 22:00,ZGSZ 142200Z 08003MPS 050V110 9999 BKN033 23/21 Q1015 NOSIG
ZGSZ,2017-11-14 23:00,ZGSZ 142300Z 08002MPS 9999 BKN036 23/21 Q1016 NOSIG
ZGSZ,2017-11-15 00:00,ZGSZ 150000Z 06002MPS 9999 BKN030 24/21 Q1017 NOSIG
ZGSZ,2017-11-15 01:00,ZGSZ 150100Z 03002MPS 9999 BKN030 24/21 Q1017 NOSIG
ZGSZ,2017-11-15 02:00,ZGSZ 150200Z 02003MPS 8000 BKN027 24/22 Q1018 NOSIG
ZGSZ,2017-11-15 03:00,ZGSZ 150300Z 04003MPS 010V120 8000 BKN020 24/22 Q1018 NOSIG
ZGSZ,2017-11-15 04:00,ZGSZ 150400Z 09005G10MPS 8000 BKN025 24/21 Q1017 NOSIG
ZGSZ,2017-11-15 05:00,ZGSZ 150500Z 09005MPS 9999 BKN033 24/20 Q1016 NOSIG
ZGSZ,2017-11-15 06:00,ZGSZ 150600Z 05002MPS 340V100 9999 BKN033 25/21 Q1015 NOSIG
ZGSZ,2017-11-15 07:00,ZGSZ 150700Z 05003MPS 020V090 9999 BKN040 25/20 Q1014 NOSIG
ZGSZ,2017-11-15 08:00,ZGSZ 150800Z 09003MPS 040V180 9999 FEW026 BKN040 25/20 Q1014 NOSIG
ZGSZ,2017-11-15 09:00,ZGSZ 150900Z 11004MPS 9999 FEW026 BKN040 25/20 Q1015 NOSIG
ZGSZ,2017-11-15 10:00,ZGSZ 151000Z 02004MPS 9999 FEW026 BKN040 23/20 Q1015 NOSIG
ZGSZ,2017-11-15 11:00,ZGSZ 151100Z 03004MPS 340V090 8000 FEW026 23/20 Q1016 NOSIG
ZGSZ,2017-11-15 12:00,ZGSZ 151200Z 04004MPS 010V120 9000 FEW025 23/20 Q1016 NOSIG
ZGSZ,2017-11-15 13:00,ZGSZ 151300Z 03003MPS 9000 FEW025 22/20 Q1017 NOSIG
ZGSZ,2017-11-15 14:00,ZGSZ 151400Z 05003MPS 8000 FEW018 22/20 Q1016 NOSIG
ZGSZ,2017-11-15 15:00,ZGSZ 151500Z 06002MPS 7000 FEW018 22/20 Q1016 NOSIG
ZGSZ,2017-11-15 16:00,ZGSZ 151600Z 05002MPS 7000 FEW018 21/20 Q1016 NOSIG
ZGSZ,2017-11-15 17:00,ZGSZ 151700Z 05002MPS 7000 FEW018 21/20 Q1016 NOSIG
ZGSZ,2017-11-15 18:00,ZGSZ 151800Z 04003MPS 7000 FEW016 BKN025 22/20 Q1015 NOSIG
ZGSZ,2017-11-15 19:00,ZGSZ 151900Z 06002MPS 7000 FEW016 BKN025 21/19 Q1015 NOSIG
ZGSZ,2017-11-15 20:00,ZGSZ 152000Z 03003MPS 7000 FEW016 BKN025 22/20 Q1015 NOSIG
ZGSZ,2017-11-15 21:00,ZGSZ 152100Z 03003MPS 6000 FEW016 BKN025 22/20 Q1015 NOSIG
ZGSZ,2017-11-15 22:00,ZGSZ 152200Z 04002MPS 6000 FEW016 BKN025 22/20 Q1016 NOSIG
ZGSZ,2017-11-15 23:00,ZGSZ 152300Z 06002MPS 6000 FEW016 BKN025 22/20 Q1016 NOSIG
ZGSZ,2017-11-16 00:00,ZGSZ 160000Z 04002MPS 7000 FEW020 BKN030 22/20 Q1017 NOSIG
ZGSZ,2017-11-16 01:00,ZGSZ 160100Z 07003MPS 030V120 7000 FEW016 BKN030 24/20 Q1017 NOSIG
ZGSZ,2017-11-16 02:00,ZGSZ 160200Z VRB01MPS 7000 FEW016 BKN030 25/20 Q1017 NOSIG
ZGSZ,2017-11-16 03:00,ZGSZ 160300Z VRB01MPS 9999 FEW016 BKN030 26/20 Q1016 NOSIG
ZGSZ,2017-11-16 04:00,ZGSZ 160400Z 26003MPS 9999 FEW016 BKN030 26/20 Q1015 NOSIG
ZGSZ,2017-11-16 05:00,ZGSZ 160500Z 26004MPS 8000 BKN030 26/20 Q1014 NOSIG
ZGSZ,2017-11-16 06:00,ZGSZ 160600Z 26003MPS 230V290 9999 SCT030 27/19 Q1013 NOSIG
ZGSZ,2017-11-16 07:00,ZGSZ 160700Z 22003MPS 9999 SCT030 26/20 Q1013 NOSIG
ZGSZ,2017-11-16 08:00,ZGSZ 160800Z 19002MPS 9999 BKN040 26/20 Q1013 NOSIG
ZGSZ,2017-11-16 09:00,ZGSZ 160900Z 19004MPS 9999 BKN040 25/21 Q1013 NOSIG
ZGSZ,2017-11-16 10:00,ZGSZ 161000Z 19004MPS 9999 BKN040 25/21 Q1013 NOSIG
ZGSZ,2017-11-16 11:00,ZGSZ 161100Z 10002MPS 070V130 CAVOK 25/19 Q1014 NOSIG
ZGSZ,2017-11-16 12:00,ZGSZ 161200Z 10004MPS CAVOK 24/19 Q1014 NOSIG
ZGSZ,2017-11-16 13:00,ZGSZ 161300Z 10003MPS 070V130 CAVOK 24/19 Q1014 NOSIG
ZGSZ,2017-11-16 14:00,ZGSZ 161400Z 11003MPS CAVOK 23/20 Q1014 NOSIG
ZGSZ,2017-11-16 15:00,ZGSZ 161500Z 10003MPS 070V150 CAVOK 24/20 Q1014 NOSIG
ZGSZ,2017-11-16 16:00,ZGSZ 161600Z 11003MPS 9999 FEW033 23/20 Q1014 NOSIG
ZGSZ,2017-11-16 17:00,ZGSZ 161700Z 09002MPS 060V120 CAVOK 23/20 Q1013 NOSIG
ZGSZ,2017-11-16 18:00,ZGSZ 161800Z 00000MPS CAVOK 23/20 Q1013 NOSIG
ZGSZ,2017-11-16 19:00,ZGSZ 161900Z 35001MPS CAVOK 23/20 Q1013 NOSIG
ZGSZ,2017-11-16 20:00,ZGSZ 162000Z 08001MPS 7000 NSC 22/20 Q1012 NOSIG
ZGSZ,2017-11-16 21:00,ZGSZ 162100Z 14001MPS 7000 NSC 22/20 Q1012 NOSIG
ZGSZ,2017-11-16 22:00,ZGSZ 162200Z 12001MPS 7000 NSC 22/20 Q1012 NOSIG
ZGSZ,2017-11-16 23:00,ZGSZ 162300Z 11003MPS 6000 NSC 23/20 Q1012 NOSIG
ZGSZ,2017-11-17 00:00,ZGSZ 170000Z 11002MPS 6000 NSC 24/21 Q1013 NOSIG
ZGSZ,2017-11-17 01:00,ZGSZ 170100Z 11003MPS 7000 NSC 25/21 Q1013 NOSIG
ZGSZ,2017-11-17 02:00,ZGSZ 170200Z 12003MPS 9000 NSC 26/21 Q1013 NOSIG
ZGSZ,2017-11-17 03:00,ZGSZ 170300Z 22003MPS CAVOK 27/22 Q1012 NOSIG
ZGSZ,2017-11-17 04:00,ZGSZ 170400Z 24003MPS CAVOK 27/22 Q1011 NOSIG
ZGSZ,2017-11-17 05:00,ZGSZ 170500Z 23004MPS CAVOK 27/22 Q1010 NOSIG
ZGSZ,2017-11-17 06:00,ZGSZ 170600Z 23004MPS CAVOK 27/23 Q1009 NOSIG
ZGSZ,2017-11-17 07:00,ZGSZ 170700Z 20004MPS CAVOK 27/23 Q1009 NOSIG
ZGSZ,2017-11-17 08:00,ZGSZ 170800Z 20003MPS CAVOK 26/23 Q1008 NOSIG
ZGSZ,2017-11-17 09:00,ZGSZ 170900Z 20004MPS CAVOK 25/23 Q1009 NOSIG
ZGSZ,2017-11-17 10:00,ZGSZ 171000Z 20003MPS 9999 FEW033 25/22 Q1009 NOSIG
ZGSZ,2017-11-17 11:00,ZGSZ 171100Z 19004MPS CAVOK 25/23 Q1010 NOSIG
ZGSZ,2017-11-17 12:00,ZGSZ 171200Z 18004MPS CAVOK 25/23 Q1010 NOSIG
ZGSZ,2017-11-17 13:00,ZGSZ 171300Z 18005MPS CAVOK 25/23 Q1011 NOSIG
ZGSZ,2017-11-17 14:00,ZGSZ 171400Z 19004MPS CAVOK 25/23 Q1011 NOSIG
ZGSZ,2017-11-17 15:00,ZGSZ 171500Z 20004MPS CAVOK 24/23 Q1011 NOSIG
ZGSZ,2017-11-17 16:00,ZGSZ 171600Z 20003MPS CAVOK 24/23 Q1011 NOSIG
ZGSZ,2017-11-17 17:00,ZGSZ 171700Z 17003MPS CAVOK 24/23 Q1011 NOSIG
ZGSZ,2017-11-17 18:00,ZGSZ 171800Z 21002MPS CAVOK 24/23 Q1010 NOSIG
ZGSZ,2017-11-17 19:00,ZGSZ 171900Z 19002MPS 9999 FEW020 24/23 Q1010 NOSIG
ZGSZ,2017-11-17 20:00,ZGSZ 172000Z VRB01MPS 8000 FEW008 24/23 Q1009 NOSIG
ZGSZ,2017-11-17 21:00,ZGSZ 172100Z 36002MPS 4500 BR FEW008 23/23 Q1009 NOSIG
ZGSZ,2017-11-17 22:00,ZGSZ 172200Z 05002MPS 340V120 5000 BR FEW020 24/22 Q1010 NOSIG
ZGSZ,2017-11-17 23:00,ZGSZ 172300Z 03002MPS 340V080 3800 BR FEW023 24/22 Q1010 NOSIG
ZGSZ,2017-11-18 00:00,ZGSZ 180000Z 03003MPS 320V130 3500 BR BKN026 25/22 Q1011 BECMG AT0120 2500 BR
ZGSZ,2017-11-18 01:00,ZGSZ 180100Z 07003MPS 3200 BR BKN030 25/22 Q1012 BECMG AT0130 2800
ZGSZ,2017-11-18 02:00,ZGSZ 180200Z 35004MPS 2800 BR FEW016 BKN031 26/22 Q1012 BECMG AT0330 3100
ZGSZ,2017-11-18 03:00,ZGSZ 180300Z 03005MPS 2900 -RA BR SCT016 BKN027 25/23 Q1012 BECMG AT0330 3100
ZGSZ,2017-11-18 04:00,ZGSZ 180400Z 04005MPS 5000 BR SCT017 BKN030 25/21 Q1012 BECMG AT0430 2800
ZGSZ,2017-11-18 05:00,ZGSZ 180500Z 01005MPS 8000 SCT020 BKN040 25/21 Q1012 NOSIG
ZGSZ,2017-11-18 06:00,ZGSZ 180600Z 01005MPS 9999 SCT020 BKN053 26/20 Q1011 NOSIG
ZGSZ,2017-11-18 07:00,ZGSZ 180700Z 36005MPS 340V040 9999 SCT033 27/19 Q1012 NOSIG
ZGSZ,2017-11-18 08:00,ZGSZ 180800Z 36006MPS CAVOK 26/19 Q1012 NOSIG
ZGSZ,2017-11-18 09:00,ZGSZ 180900Z 34006MPS CAVOK 25/18 Q1012 NOSIG
ZGSZ,2017-11-18 10:00,ZGSZ 181000Z 02006MPS CAVOK 24/17 Q1013 NOSIG
ZGSZ,2017-11-18 11:00,ZGSZ 181100Z 02006MPS CAVOK 23/17 Q1014 NOSIG
ZGSZ,2017-11-18 12:00,ZGSZ 181200Z 03007MPS 9999 BKN050 23/16 Q1015 NOSIG
ZGSZ,2017-11-18 13:00,ZGSZ 181300Z 05004MPS 9999 OVC040 22/16 Q1016 NOSIG
ZGSZ,2017-11-18 14:00,ZGSZ 181400Z 03006MPS 360V060 9999 BKN027 21/16 Q1016 NOSIG
ZGSZ,2017-11-18 15:00,ZGSZ 181500Z 03006MPS 9999 BKN023 20/16 Q1017 NOSIG
ZGSZ,2017-11-18 16:00,ZGSZ 181600Z 03006MPS 9999 BKN023 20/15 Q1017 NOSIG
ZGSZ,2017-11-18 17:00,ZGSZ 181700Z 04006MPS 9999 BKN020 19/15 Q1017 NOSIG
ZGSZ,2017-11-18 18:00,ZGSZ 181800Z 04006MPS 9999 BKN020 19/15 Q1017 NOSIG
ZGSZ,2017-11-18 19:00,ZGSZ 181900Z 04006MPS 9999 BKN020 18/14 Q1017 NOSIG
ZGSZ,2017-11-18 20:00,ZGSZ 182000Z 03006MPS 9999 OVC020 18/14 Q1017 NOSIG
ZGSZ,2017-11-18 21:00,ZGSZ 182100Z 04006MPS 9999 OVC023 18/14 Q1017 NOSIG
ZGSZ,2017-11-18 22:00,ZGSZ 182200Z 04005MPS 9999 OVC023 18/14 Q1017 NOSIG
ZGSZ,2017-11-18 23:00,ZGSZ 182300Z 04005MPS 9999 OVC023 17/14 Q1018 NOSIG
ZGSZ,2017-11-19 00:00,ZGSZ 190000Z 04005MPS 9999 OVC023 17/14 Q1019 NOSIG
ZGSZ,2017-11-19 01:00,ZGSZ 190100Z 02005MPS 9999 FEW015 OVC023 17/14 Q1019 NOSIG
ZGSZ,2017-11-19 02:00,ZGSZ 190200Z 03005MPS 360V060 9999 FEW017 OVC040 18/14 Q1020 NOSIG
ZGSZ,2017-11-19 03:00,ZGSZ 190300Z 03005MPS 9999 FEW020 OVC033 19/13 Q1019 NOSIG
ZGSZ,2017-11-19 04:00,ZGSZ 190400Z 04005MPS 9999 FEW020 OVC033 19/13 Q1019 NOSIG
ZGSZ,2017-11-19 05:00,ZGSZ 190500Z 01004MPS 340V060 9999 FEW020 OVC033 19/14 Q1018 NOSIG
ZGSZ,2017-11-19 06:00,ZGSZ 190600Z 01004MPS 9999 FEW020 OVC033 19/14 Q1017 NOSIG
ZGSZ,2017-11-19 07:00,ZGSZ 190700Z 02004MPS 340V040 9999 BKN040 20/14 Q1017 NOSIG
ZGSZ,2017-11-19 08:00,ZGSZ 190800Z 02003MPS 9999 OVC036 19/14 Q1017 NOSIG
ZGSZ,2017-11-19 09:00,ZGSZ 190900Z 03004MPS 9999 OVC036 19/14 Q1017 NOSIG
ZGSZ,2017-11-19 10:00,ZGSZ 191000Z 02003MPS 9999 OVC030 19/14 Q1017 NOSIG
ZGSZ,2017-11-19 11:00,ZGSZ 191100Z 02005MPS 9999 OVC030 19/14 Q1018 NOSIG
ZGSZ,2017-11-19 12:00,ZGSZ 191200Z 04005MPS 9999 OVC030 18/14 Q1019 NOSIG
ZGSZ,2017-11-19 13:00,ZGSZ 191300Z 03004MPS 9999 OVC030 18/14 Q1019 NOSIG
ZGSZ,2017-11-19 14:00,ZGSZ 191400Z 02004MPS 9999 OVC033 18/14 Q1019 NOSIG
ZGSZ,2017-11-19 15:00,ZGSZ 191500Z 36004MPS 9999 OVC031 18/14 Q1020 NOSIG
ZGSZ,2017-11-19 16:00,ZGSZ 191600Z 01004MPS 9999 OVC030 18/14 Q1019 NOSIG
ZGSZ,2017-11-19 17:00,ZGSZ 191700Z 03005MPS 9999 OVC025 18/14 Q1019 NOSIG
ZGSZ,2017-11-19 18:00,ZGSZ 191800Z 03005MPS 9999 OVC024 18/14 Q1019 NOSIG
ZGSZ,2017-11-19 19:00,ZGSZ 191900Z 01005MPS 9999 OVC023 18/14 Q1018 NOSIG
ZGSZ,2017-11-19 20:00,ZGSZ 192000Z 02005MPS 9999 OVC025 18/14 Q1018 NOSIG
ZGSZ,2017-11-19 21:00,ZGSZ 192100Z 01005MPS 9999 OVC025 18/14 Q1018 NOSIG
ZGSZ,2017-11-19 22:00,ZGSZ 192200Z 01005MPS 9999 OVC025 17/14 Q1019 NOSIG
ZGSZ,2017-11-19 23:00,ZGSZ 192300Z 01005MPS 9999 OVC025 17/14 Q1019 NOSIG
ZGSZ,2017-11-20 00:00,ZGSZ 200000Z 02006MPS 9999 OVC025 17/14 Q1020 NOSIG
ZGSZ,2017-11-20 01:00,ZGSZ 200100Z 36005MPS 6000 -DZ SCT011 BKN025 16/14 Q1021 NOSIG
ZGSZ,2017-11-20 02:00,ZGSZ 200200Z 01005MPS 5000 -DZ BR SCT011 BKN025 16/14 Q1022 BECMG AT0330 BKN012 BKN030
ZGSZ,2017-11-20 03:00,ZGSZ 200300Z 01006MPS 5000 -DZ BR SCT011 BKN025 16/14 Q1021 BECMG AT0330 BKN012 BKN030
ZGSZ,2017-11-20 04:00,ZGSZ 200400Z 01006MPS 8000 BKN011 BKN025 16/14 Q1021 BECMG AT0530 SCT011 BKN030
ZGSZ,2017-11-20 05:00,ZGSZ 200500Z 01007MPS 9999 BKN011 BKN025 16/13 Q1020 BECMG AT0530 SCT011 BKN030
ZGSZ,2017-11-20 06:00,ZGSZ 200600Z 01006MPS 9999 OVC026 17/12 Q1019 NOSIG
ZGSZ,2017-11-20 07:00,ZGSZ 200700Z 02006MPS 9999 OVC026 17/12 Q1019 NOSIG
ZGSZ,2017-11-20 08:00,ZGSZ 200800Z 01005MPS 9999 OVC030 17/12 Q1019 NOSIG
ZGSZ,2017-11-20 09:00,ZGSZ 200900Z 01006MPS 340V040 9999 OVC030 17/12 Q1019 NOSIG
ZGSZ,2017-11-20 10:00,ZGSZ 201000Z 01005MPS 9999 OVC030 17/12 Q1019 NOSIG
ZGSZ,2017-11-20 11:00,ZGSZ 201100Z 01006MPS 9999 OVC030 16/11 Q1020 NOSIG
ZGSZ,2017-11-20 12:00,ZGSZ 201200Z 02006MPS 9999 OVC030 16/11 Q1020 NOSIG
ZGSZ,2017-11-20 13:00,ZGSZ 201300Z 02006MPS 9999 OVC030 16/11 Q1021 NOSIG
ZGSZ,2017-11-20 14:00,ZGSZ 201400Z 01006MPS 9999 OVC030 15/11 Q1021 NOSIG
ZGSZ,2017-11-20 15:00,ZGSZ 201500Z 36006MPS 9999 OVC030 15/11 Q1021 NOSIG
ZGSZ,2017-11-20 16:00,ZGSZ 201600Z 03005MPS 9999 OVC030 15/11 Q1021 NOSIG
ZGSZ,2017-11-20 17:00,ZGSZ 201700Z 02006MPS 9999 OVC030 15/11 Q1020 NOSIG
ZGSZ,2017-11-20 18:00,ZGSZ 201800Z 02006MPS 9999 OVC027 15/10 Q1020 NOSIG
ZGSZ,2017-11-20 19:00,ZGSZ 201900Z 02006MPS 9999 OVC027 15/10 Q1020 NOSIG
ZGSZ,2017-11-20 20:00,ZGSZ 202000Z 01006MPS 9999 OVC023 15/10 Q1019 NOSIG
ZGSZ,2017-11-20 21:00,ZGSZ 202100Z 02008MPS 9999 OVC023 15/10 Q1019 NOSIG
ZGSZ,2017-11-20 22:00,ZGSZ 202200Z 02005MPS 9999 OVC023 15/10 Q1020 NOSIG
ZGSZ,2017-11-20 23:00,ZGSZ 202300Z 02005MPS 9999 OVC023 15/10 Q1020 NOSIG
ZGSZ,2017-11-21 00:00,ZGSZ 210000Z 02006MPS 9999 BKN030 15/10 Q1020 NOSIG
ZGSZ,2017-11-21 01:00,ZGSZ 210100Z 02006MPS 9999 BKN023 16/11 Q1021 NOSIG
ZGSZ,2017-11-21 02:00,ZGSZ 210200Z 02005MPS 9999 SCT025 17/10 Q1021 NOSIG
ZGSZ,2017-11-21 03:00,ZGSZ 210300Z 01005MPS 330V050 CAVOK 18/11 Q1020 NOSIG
ZGSZ,2017-11-21 04:00,ZGSZ 210400Z 36004MPS 330V040 CAVOK 19/11 Q1019 NOSIG
ZGSZ,2017-11-21 05:00,ZGSZ 210500Z 36004MPS 330V030 CAVOK 20/12 Q1018 NOSIG
ZGSZ,2017-11-21 06:00,ZGSZ 210600Z 36004MPS 330V060 CAVOK 21/12 Q1017 NOSIG
ZGSZ,2017-11-21 07:00,ZGSZ 210700Z 01004MPS 330V050 CAVOK 21/13 Q1016 NOSIG
ZGSZ,2017-11-21 08:00,ZGSZ 210800Z 33006MPS 9000 NSC 19/12 Q1016 NOSIG
ZGSZ,2017-11-21 09:00,ZGSZ 210900Z 35005MPS 9000 NSC 19/12 Q1016 NOSIG
ZGSZ,2017-11-21 10:00,ZGSZ 211000Z 34005MPS CAVOK 18/13 Q1017 NOSIG
ZGSZ,2017-11-21 11:00,ZGSZ 211100Z 33005MPS CAVOK 18/13 Q1017 NOSIG
ZGSZ,2017-11-21 12:00,ZGSZ 211200Z 34004MPS CAVOK 18/12 Q1018 NOSIG
ZGSZ,2017-11-21 13:00,ZGSZ 211300Z 34004MPS 9999 SCT050 17/13 Q1018 NOSIG
ZGSZ,2017-11-21 14:00,ZGSZ 211400Z 33005MPS CAVOK 17/13 Q1018 NOSIG
ZGSZ,2017-11-21 15:00,ZGSZ 211500Z 35003MPS 330V040 CAVOK 18/13 Q1018 NOSIG
ZGSZ,2017-11-21 16:00,ZGSZ 211600Z 35005MPS CAVOK 18/13 Q1018 NOSIG
ZGSZ,2017-11-21 17:00,ZGSZ 211700Z 36004MPS CAVOK 17/13 Q1018 NOSIG
ZGSZ,2017-11-21 18:00,ZGSZ 211800Z 01006MPS CAVOK 17/13 Q1017 NOSIG
ZGSZ,2017-11-21 19:00,ZGSZ 211900Z 36006MPS CAVOK 17/13 Q1017 NOSIG
ZGSZ,2017-11-21 20:00,ZGSZ 212000Z 02006MPS 9999 SCT046 17/12 Q1017 NOSIG
ZGSZ,2017-11-21 21:00,ZGSZ 212100Z 01005MPS 9999 FEW046 16/12 Q1017 NOSIG
ZGSZ,2017-11-21 22:00,ZGSZ 212200Z 01005MPS CAVOK 16/12 Q1017 NOSIG
ZGSZ,2017-11-21 23:00,ZGSZ 212300Z 02006MPS CAVOK 16/11 Q1018 NOSIG
ZGSZ,2017-11-22 00:00,ZGSZ 220000Z 01005MPS CAVOK 17/12 Q1019 NOSIG
ZGSZ,2017-11-22 01:00,ZGSZ 220100Z 02006MPS CAVOK 18/12 Q1019 NOSIG
ZGSZ,2017-11-22 02:00,ZGSZ 220200Z 36007MPS CAVOK 19/12 Q1019 NOSIG
ZGSZ,2017-11-22 03:00,ZGSZ 220300Z 36005MPS CAVOK 20/12 Q1019 NOSIG
ZGSZ,2017-11-22 04:00,ZGSZ 220400Z 34007MPS CAVOK 20/12 Q1018 NOSIG
ZGSZ,2017-11-22 05:00,ZGSZ 220500Z 35006MPS 320V020 CAVOK 21/12 Q1017 NOSIG
ZGSZ,2017-11-22 06:00,ZGSZ 220600Z 35007MPS CAVOK 21/12 Q1016 NOSIG
ZGSZ,2017-11-22 07:00,ZGSZ 220700Z 35006MPS CAVOK 21/12 Q1015 NOSIG
ZGSZ,2017-11-22 08:00,ZGSZ 220800Z 36006MPS CAVOK 20/12 Q1016 NOSIG
ZGSZ,2017-11-22 09:00,ZGSZ 220900Z 35007MPS CAVOK 20/12 Q1016 NOSIG
ZGSZ,2017-11-22 10:00,ZGSZ 221000Z 35006MPS CAVOK 19/12 Q1016 NOSIG
ZGSZ,2017-11-22 11:00,ZGSZ 221100Z 35007MPS CAVOK 19/12 Q1017 NOSIG
ZGSZ,2017-11-22 12:00,ZGSZ 221200Z 01008MPS CAVOK 18/11 Q1018 NOSIG
ZGSZ,2017-11-22 13:00,ZGSZ 221300Z 03008G14MPS CAVOK 17/10 Q1019 NOSIG
ZGSZ,2017-11-22 14:00,ZGSZ 221400Z 02008MPS CAVOK 16/10 Q1019 NOSIG
ZGSZ,2017-11-22 15:00,ZGSZ 221500Z 01009MPS CAVOK 16/10 Q1019 NOSIG
ZGSZ,2017-11-22 16:00,ZGSZ 221600Z 01007MPS CAVOK 15/09 Q1020 NOSIG
ZGSZ,2017-11-22 17:00,ZGSZ 221700Z 02007MPS CAVOK 15/09 Q1020 NOSIG
ZGSZ,2017-11-22 18:00,ZGSZ 221800Z 02006MPS CAVOK 15/08 Q1020 NOSIG
ZGSZ,2017-11-22 19:00,ZGSZ 221900Z 02007MPS CAVOK 15/07 Q1020 NOSIG
ZGSZ,2017-11-22 20:00,ZGSZ 222000Z 02007MPS CAVOK 14/07 Q1020 NOSIG
ZGSZ,2017-11-22 21:00,ZGSZ 222100Z 02006MPS 360V060 CAVOK 14/07 Q1020 NOSIG
ZGSZ,2017-11-22 22:00,ZGSZ 222200Z 03006MPS CAVOK 14/07 Q1021 NOSIG
ZGSZ,2017-11-22 23:00,ZGSZ 222300Z 01006MPS CAVOK 14/07 Q1021 NOSIG
ZGSZ,2017-11-23 00:00,ZGSZ 230000Z 02007MPS CAVOK 15/05 Q1022 NOSIG
ZGSZ,2017-11-23 01:00,ZGSZ 230100Z 02006MPS 350V050 CAVOK 16/05 Q1022 NOSIG
ZGSZ,2017-11-23 02:00,ZGSZ 230200Z 01008MPS CAVOK 17/06 Q1022 NOSIG
ZGSZ,2017-11-23 03:00,ZGSZ 230300Z 01007MPS CAVOK 18/07 Q1022 NOSIG
ZGSZ,2017-11-23 04:00,ZGSZ 230400Z 02006MPS 340V040 CAVOK 20/07 Q1021 NOSIG
ZGSZ,2017-11-23 05:00,ZGSZ 230500Z 01007MPS 340V040 CAVOK 20/07 Q1020 NOSIG
ZGSZ,2017-11-23 06:00,ZGSZ 230600Z 02007MPS CAVOK 21/07 Q1019 NOSIG
ZGSZ,2017-11-23 07:00,ZGSZ 230700Z 36007MPS CAVOK 21/07 Q1018 NOSIG
ZGSZ,2017-11-23 08:00,ZGSZ 230800Z 02007MPS CAVOK 20/06 Q1018 NOSIG
ZGSZ,2017-11-23 09:00,ZGSZ 230900Z 36007MPS CAVOK 19/06 Q1019 NOSIG
ZGSZ,2017-11-23 10:00,ZGSZ 231000Z 02005MPS CAVOK 18/07 Q1020 NOSIG
ZGSZ,2017-11-23 11:00,ZGSZ 231100Z 01005MPS CAVOK 17/06 Q1021 NOSIG
ZGSZ,2017-11-23 12:00,ZGSZ 231200Z 02005MPS CAVOK 17/06 Q1022 NOSIG
ZGSZ,2017-11-23 13:00,ZGSZ 231300Z 02006MPS CAVOK 17/06 Q1022 NOSIG
ZGSZ,2017-11-23 14:00,ZGSZ 231400Z 02006MPS CAVOK 16/07 Q1023 NOSIG
ZGSZ,2017-11-23 15:00,ZGSZ 231500Z 04007MPS 9999 FEW046 16/06 Q1023 NOSIG
ZGSZ,2017-11-23 16:00,ZGSZ 231600Z 02006MPS 350V060 9999 BKN046 16/06 Q1023 NOSIG
ZGSZ,2017-11-23 17:00,ZGSZ 231700Z 01005MPS 9999 BKN046 16/06 Q1023 NOSIG
ZGSZ,2017-11-23 18:00,ZGSZ 231800Z 02005MPS 9999 BKN043 16/06 Q1023 NOSIG
ZGSZ,2017-11-23 19:00,ZGSZ 231900Z 01006MPS 9999 BKN043 16/06 Q1022 NOSIG
ZGSZ,2017-11-23 20:00,ZGSZ 232000Z 36005MPS 9999 BKN040 16/06 Q1022 NOSIG
ZGSZ,2017-11-23 21:00,ZGSZ 232100Z 02006MPS 340V050 9999 BKN040 16/06 Q1023 NOSIG
ZGSZ,2017-11-23 22:00,ZGSZ 232200Z 02008MPS 9999 BKN036 16/06 Q1023 NOSIG
ZGSZ,2017-11-23 23:00,ZGSZ 232300Z 01008MPS 8000 BKN036 15/06 Q1023 NOSIG
ZGSZ,2017-11-24 00:00,ZGSZ 240000Z 01006MPS 8000 BKN043 15/07 Q1024 NOSIG
ZGSZ,2017-11-24 01:00,ZGSZ 240100Z 02007MPS 8000 BKN043 15/08 Q1025 NOSIG
ZGSZ,2017-11-24 02:00,ZGSZ 240200Z 03007MPS 9999 FEW020 15/09 Q1025 NOSIG
ZGSZ,2017-11-24 03:00,ZGSZ 240300Z 03007MPS 9999 FEW020 16/09 Q1024 NOSIG
ZGSZ,2017-11-24 04:00,ZGSZ 240400Z 36006MPS 9999 FEW020 17/10 Q1023 NOSIG
ZGSZ,2017-11-24 05:00,ZGSZ 240500Z 34005MPS 320V020 9999 FEW020 18/10 Q1022 NOSIG
ZGSZ,2017-11-24 06:00,ZGSZ 240600Z 36006MPS 9999 FEW020 18/10 Q1021 NOSIG
ZGSZ,2017-11-24 07:00,ZGSZ 240700Z 01006MPS 9999 FEW020 17/10 Q1021 NOSIG
ZGSZ,2017-11-24 08:00,ZGSZ 240800Z 01006MPS CAVOK 16/10 Q1021 NOSIG
ZGSZ,2017-11-24 09:00,ZGSZ 240900Z 01006MPS CAVOK 16/10 Q1021 NOSIG
ZGSZ,2017-11-24 10:00,ZGSZ 241000Z 36005MPS CAVOK 15/10 Q1022 NOSIG
ZGSZ,2017-11-24 11:00,ZGSZ 241100Z 02005MPS CAVOK 15/10 Q1023 NOSIG
ZGSZ,2017-11-24 12:00,ZGSZ 241200Z 36006MPS CAVOK 15/10 Q1023 NOSIG
ZGSZ,2017-11-24 13:00,ZGSZ 241300Z 02005G11MPS 340V050 CAVOK 15/10 Q1024 NOSIG
ZGSZ,2017-11-24 14:00,ZGSZ 241400Z 01006MPS CAVOK 15/10 Q1024 NOSIG
ZGSZ,2017-11-24 15:00,ZGSZ 241500Z 01005MPS CAVOK 15/10 Q1024 NOSIG
ZGSZ,2017-11-24 16:00,ZGSZ 241600Z 02005MPS CAVOK 15/10 Q1023 NOSIG
ZGSZ,2017-11-24 17:00,ZGSZ 241700Z 02006MPS CAVOK 15/10 Q1023 NOSIG
ZGSZ,2017-11-24 18:00,ZGSZ 241800Z 01005MPS CAVOK 15/10 Q1023 NOSIG
ZGSZ,2017-11-24 19:00,ZGSZ 241900Z 03004MPS CAVOK 15/10 Q1022 NOSIG
ZGSZ,2017-11-24 20:00,ZGSZ 242000Z 03004MPS CAVOK 15/10 Q1021 NOSIG
ZGSZ,2017-11-24 21:00,ZGSZ 242100Z 02003MPS CAVOK 15/10 Q1021 NOSIG
ZGSZ,2017-11-24 22:00,ZGSZ 242200Z 36004MPS CAVOK 15/10 Q1022 NOSIG
ZGSZ,2017-11-24 23:00,ZGSZ 242300Z 01004MPS CAVOK 15/10 Q1022 NOSIG
ZGSZ,2017-11-25 00:00,ZGSZ 250000Z 35005MPS CAVOK 15/10 Q1023 NOSIG
ZGSZ,2017-11-25 01:00,ZGSZ 250100Z 35005MPS 6000 FEW020 SCT033 15/10 Q1024 NOSIG
ZGSZ,2017-11-25 02:00,ZGSZ 250200Z 02004MPS 9999 BKN033 16/11 Q1023 NOSIG
ZGSZ,2017-11-25 03:00,ZGSZ 250300Z 01005MPS 9999 BKN033 17/11 Q1023 NOSIG
ZGSZ,2017-11-25 04:00,ZGSZ 250400Z 01006MPS 9999 BKN033 18/11 Q1022 NOSIG
ZGSZ,2017-11-25 05:00,ZGSZ 250500Z 36006MPS 9999 BKN033 18/11 Q1021 NOSIG
ZGSZ,2017-11-25 06:00,ZGSZ 250600Z 01005MPS 340V040 9000 BKN033 18/11 Q1020 NOSIG
ZGSZ,2017-11-25 07:00,ZGSZ 250700Z 02005MPS 9999 BKN033 19/11 Q1020 NOSIG
ZGSZ,2017-11-25 08:00,ZGSZ 250800Z 01004MPS 9999 BKN033 19/12 Q1020 NOSIG
ZGSZ,2017-11-25 09:00,ZGSZ 250900Z 01004MPS 8000 BKN033 18/12 Q1021 NOSIG
ZGSZ,2017-11-25 10:00,ZGSZ 251000Z 01003MPS 8000 OVC030 18/12 Q1021 NOSIG
ZGSZ,2017-11-25 11:00,ZGSZ 251100Z 03003MPS 8000 OVC030 18/12 Q1022 NOSIG
ZGSZ,2017-11-25 12:00,ZGSZ 251200Z 35004MPS 8000 OVC030 18/12 Q1022 NOSIG
ZGSZ,2017-11-25 13:00,ZGSZ 251300Z 36004MPS 340V040 8000 OVC030 18/12 Q1023 NOSIG
ZGSZ,2017-11-25 14:00,ZGSZ 251400Z 36003MPS 8000 OVC030 18/12 Q1023 NOSIG
ZGSZ,2017-11-25 15:00,ZGSZ 251500Z 35003MPS 8000 OVC030 17/12 Q1023 NOSIG
ZGSZ,2017-11-25 16:00,ZGSZ 251600Z 36003MPS 9999 OVC030 17/12 Q1023 NOSIG
ZGSZ,2017-11-25 17:00,ZGSZ 251700Z 02004MPS 9999 OVC030 17/11 Q1022 NOSIG
ZGSZ,2017-11-25 18:00,ZGSZ 251800Z 36004MPS 9999 OVC030 17/11 Q1022 NOSIG
ZGSZ,2017-11-25 19:00,ZGSZ 251900Z 36003MPS 9999 OVC050 17/11 Q1021 NOSIG
ZGSZ,2017-11-25 20:00,ZGSZ 252000Z 33005MPS 9999 OVC050 16/12 Q1022 NOSIG
ZGSZ,2017-11-25 21:00,ZGSZ 252100Z 33004MPS 9999 OVC050 16/12 Q1022 NOSIG
ZGSZ,2017-11-25 22:00,ZGSZ 252200Z 34004MPS 9999 OVC050 16/12 Q1022 NOSIG
ZGSZ,2017-11-25 23:00,ZGSZ 252300Z 01004MPS 9999 OVC050 16/12 Q1022 NOSIG
ZGSZ,2017-11-26 00:00,ZGSZ 260000Z 33004MPS 7000 OVC050 16/12 Q1023 NOSIG
ZGSZ,2017-11-26 01:00,ZGSZ 260100Z 34005MPS 7000 -RA FEW020 OVC050 16/13 Q1023 NOSIG
ZGSZ,2017-11-26 02:00,ZGSZ 260200Z 01005MPS 7000 -RA FEW020 OVC050 17/13 Q1023 NOSIG
ZGSZ,2017-11-26 03:00,ZGSZ 260300Z 36006MPS CAVOK 18/12 Q1023 NOSIG
ZGSZ,2017-11-26 04:00,ZGSZ 260400Z 01005MPS CAVOK 19/13 Q1022 NOSIG
ZGSZ,2017-11-26 05:00,ZGSZ 260500Z 01006MPS 340V050 CAVOK 21/13 Q1021 NOSIG
ZGSZ,2017-11-26 06:00,ZGSZ 260600Z 02006MPS 340V040 CAVOK 23/14 Q1019 NOSIG
ZGSZ,2017-11-26 07:00,ZGSZ 260700Z 01005MPS 340V050 CAVOK 22/14 Q1019 NOSIG
ZGSZ,2017-11-26 08:00,ZGSZ 260800Z 02005MPS CAVOK 22/14 Q1018 NOSIG
ZGSZ,2017-11-26 09:00,ZGSZ 260900Z 36004MPS CAVOK 21/13 Q1019 NOSIG
ZGSZ,2017-11-26 10:00,ZGSZ 261000Z 36003MPS CAVOK 20/14 Q1019 NOSIG
ZGSZ,2017-11-26 11:00,ZGSZ 261100Z 02003MPS CAVOK 19/14 Q1019 NOSIG
ZGSZ,2017-11-26 12:00,ZGSZ 261200Z 36004MPS CAVOK 20/13 Q1020 NOSIG
ZGSZ,2017-11-26 13:00,ZGSZ 261300Z 02005MPS CAVOK 19/13 Q1020 NOSIG
ZGSZ,2017-11-26 14:00,ZGSZ 261400Z 36004MPS 340V040 CAVOK 19/13 Q1020 NOSIG
ZGSZ,2017-11-26 15:00,ZGSZ 261500Z 02005MPS CAVOK 18/13 Q1020 NOSIG
ZGSZ,2017-11-26 16:00,ZGSZ 261600Z 01004MPS CAVOK 18/13 Q1020 NOSIG
ZGSZ,2017-11-26 17:00,ZGSZ 261700Z 01004MPS CAVOK 18/13 Q1020 NOSIG
ZGSZ,2017-11-26 18:00,ZGSZ 261800Z 02004MPS CAVOK 18/12 Q1020 NOSIG
ZGSZ,2017-11-26 19:00,ZGSZ 261900Z 02005MPS CAVOK 17/12 Q1019 NOSIG
ZGSZ,2017-11-26 20:00,ZGSZ 262000Z 03005MPS CAVOK 17/12 Q1019 NOSIG
ZGSZ,2017-11-26 21:00,ZGSZ 262100Z 02004MPS CAVOK 17/12 Q1019 NOSIG
ZGSZ,2017-11-26 22:00,ZGSZ 262200Z 03003MPS CAVOK 17/12 Q1019 NOSIG
ZGSZ,2017-11-26 23:00,ZGSZ 262300Z 03004MPS CAVOK 17/12 Q1020 NOSIG
ZGSZ,2017-11-27 00:00,ZGSZ 270000Z 04004MPS CAVOK 17/12 Q1020 NOSIG
ZGSZ,2017-11-27 01:00,ZGSZ 270100Z 02004MPS CAVOK 18/12 Q1021 NOSIG
ZGSZ,2017-11-27 02:00,ZGSZ 270200Z 01005MPS CAVOK 19/13 Q1021 NOSIG
ZGSZ,2017-11-27 03:00,ZGSZ 270300Z 04004MPS CAVOK 19/13 Q1020 NOSIG
ZGSZ,2017-11-27 04:00,ZGSZ 270400Z 02004MPS 350V050 CAVOK 20/13 Q1019 NOSIG
ZGSZ,2017-11-27 05:00,ZGSZ 270500Z 03003MPS 340V100 CAVOK 22/14 Q1018 NOSIG
ZGSZ,2017-11-27 06:00,ZGSZ 270600Z 04004MPS 360V080 CAVOK 22/14 Q1016 NOSIG
ZGSZ,2017-11-27 07:00,ZGSZ 270700Z 03003MPS CAVOK 23/14 Q1016 NOSIG
ZGSZ,2017-11-27 08:00,ZGSZ 270800Z 03003MPS CAVOK 23/14 Q1015 NOSIG
ZGSZ,2017-11-27 09:00,ZGSZ 270900Z 02003MPS CAVOK 23/14 Q1016 NOSIG
ZGSZ,2017-11-27 10:00,ZGSZ 271000Z 36002MPS CAVOK 21/15 Q1016 NOSIG
ZGSZ,2017-11-27 11:00,ZGSZ 271100Z VRB01MPS CAVOK 22/15 Q1017 NOSIG
ZGSZ,2017-11-27 12:00,ZGSZ 271200Z 05002MPS CAVOK 21/15 Q1017 NOSIG
ZGSZ,2017-11-27 13:00,ZGSZ 271300Z 12004MPS 9999 BKN030 21/16 Q1017 NOSIG
ZGSZ,2017-11-27 14:00,ZGSZ 271400Z 10002MPS 9999 BKN040 21/16 Q1018 NOSIG
ZGSZ,2017-11-27 15:00,ZGSZ 271500Z VRB02MPS 9999 BKN046 21/16 Q1018 NOSIG
ZGSZ,2017-11-27 16:00,ZGSZ 271600Z 03003MPS 320V070 9999 BKN046 21/15 Q1017 NOSIG
ZGSZ,2017-11-27 17:00,ZGSZ 271700Z 03003MPS 340V060 9999 BKN046 20/16 Q1017 NOSIG
ZGSZ,2017-11-27 18:00,ZGSZ 271800Z VRB02MPS CAVOK 20/16 Q1017 NOSIG
ZGSZ,2017-11-27 19:00,ZGSZ 271900Z VRB02MPS CAVOK 20/16 Q1017 NOSIG
ZGSZ,2017-11-27 20:00,ZGSZ 272000Z 36003MPS CAVOK 20/16 Q1016 NOSIG
ZGSZ,2017-11-27 21:00,ZGSZ 272100Z 36004MPS 280V060 8000 NSC 20/16 Q1017 NOSIG
ZGSZ,2017-11-27 22:00,ZGSZ 272200Z 01003MPS 7000 NSC 20/16 Q1017 NOSIG
ZGSZ,2017-11-27 23:00,ZGSZ 272300Z 01003MPS 8000 NSC 20/16 Q1018 NOSIG
ZGSZ,2017-11-28 00:00,ZGSZ 280000Z 01003MPS 8000 NSC 20/16 Q1018 NOSIG
ZGSZ,2017-11-28 01:00,ZGSZ 280100Z 01003MPS 6000 NSC 21/16 Q1019 NOSIG
ZGSZ,2017-11-28 02:00,ZGSZ 280200Z 02003MPS 350V060 8000 NSC 22/16 Q1019 NOSIG
ZGSZ,2017-11-28 03:00,ZGSZ 280300Z 36003MPS 8000 NSC 24/16 Q1019 NOSIG
ZGSZ,2017-11-28 04:00,ZGSZ 280400Z 02003MPS 320V070 8000 NSC 25/17 Q1018 NOSIG
ZGSZ,2017-11-28 05:00,ZGSZ 280500Z 35003MPS 280V040 CAVOK 25/17 Q1017 NOSIG
ZGSZ,2017-11-28 06:00,ZGSZ 280600Z 30005MPS 5000 HZ BKN050 24/18 Q1016 NOSIG
ZGSZ,2017-11-28 07:00,ZGSZ 280700Z 30005MPS 5000 HZ NSC 25/19 Q1015 NOSIG
ZGSZ,2017-11-28 08:00,ZGSZ 280800Z 30005MPS 4500 HZ NSC 24/19 Q1015 NOSIG
ZGSZ,2017-11-28 09:00,ZGSZ 280900Z 31005MPS 4900 BR NSC 24/19 Q1016 BECMG TL1030 09004MPS
ZGSZ,2017-11-28 10:00,ZGSZ 281000Z 31004MPS 5000 BR BKN043 23/19 Q1016 BECMG TL1030 09004MPS
ZGSZ,2017-11-28 11:00,ZGSZ 281100Z 34002MPS 5000 BR SCT033 23/19 Q1017 NOSIG
ZGSZ,2017-11-28 12:00,ZGSZ 281200Z 33002MPS 5000 BR SCT030 23/18 Q1017 NOSIG
ZGSZ,2017-11-28 13:00,ZGSZ 281300Z VRB01MPS 6000 NSC 24/18 Q1018 NOSIG
ZGSZ,2017-11-28 14:00,ZGSZ 281400Z 03002MPS 5000 HZ NSC 24/18 Q1018 NOSIG
ZGSZ,2017-11-28 15:00,ZGSZ 281500Z 30002MPS 5000 BR NSC 22/20 Q1018 NOSIG
ZGSZ,2017-11-28 16:00,ZGSZ 281600Z VRB01MPS 5000 BR NSC 22/20 Q1018 NOSIG
ZGSZ,2017-11-28 17:00,ZGSZ 281700Z 29002MPS 5000 BR NSC 22/20 Q1018 NOSIG
ZGSZ,2017-11-28 18:00,ZGSZ 281800Z 30002MPS 4500 BR NSC 22/20 Q1017 NOSIG
ZGSZ,2017-11-28 19:00,ZGSZ 281900Z 00000MPS 3500 BR NSC 22/20 Q1016 NOSIG
ZGSZ,2017-11-28 20:00,ZGSZ 282000Z 00000MPS 5000 BR NSC 22/20 Q1016 NOSIG
ZGSZ,2017-11-28 21:00,ZGSZ 282100Z 00000MPS 6000 NSC 22/19 Q1016 NOSIG
ZGSZ,2017-11-28 22:00,ZGSZ 282200Z 31001MPS 6000 NSC 22/20 Q1017 NOSIG
ZGSZ,2017-11-28 23:00,ZGSZ 282300Z VRB01MPS 6000 NSC 23/19 Q1017 NOSIG
ZGSZ,2017-11-29 00:00,ZGSZ 290000Z 00000MPS 6000 NSC 22/20 Q1018 NOSIG
ZGSZ,2017-11-29 01:00,ZGSZ 290100Z 20002MPS 160V230 6000 NSC 23/20 Q1018 NOSIG
ZGSZ,2017-11-29 02:00,ZGSZ 290200Z 28002MPS 5000 BR FEW020 24/20 Q1018 NOSIG
ZGSZ,2017-11-29 03:00,ZGSZ 290300Z 30004MPS 5000 HZ FEW027 25/20 Q1018 NOSIG
ZGSZ,2017-11-29 04:00,ZGSZ 290400Z 30004MPS 3800 HZ FEW027 25/21 Q1017 NOSIG
ZGSZ,2017-11-29 05:00,ZGSZ 290500Z 30005MPS 3500 HZ SCT033 26/20 Q1015 BECMG AT0630 2500
ZGSZ,2017-11-29 06:00,ZGSZ 290600Z 30004MPS 3100 HZ BKN033 26/20 Q1014 BECMG AT0630 2500
ZGSZ,2017-11-29 07:00,ZGSZ 290700Z 30003MPS 3500 HZ BKN033 26/20 Q1014 NOSIG
ZGSZ,2017-11-29 08:00,ZGSZ 290800Z 30003MPS 3900 HZ BKN033 26/20 Q1014 NOSIG
ZGSZ,2017-11-29 09:00,ZGSZ 290900Z 31002MPS 3900 HZ FEW033 BKN050 25/20 Q1015 NOSIG
ZGSZ,2017-11-29 10:00,ZGSZ 291000Z 32002MPS 3300 BR FEW040 25/20 Q1015 NOSIG
ZGSZ,2017-11-29 11:00,ZGSZ 291100Z 36001MPS 3300 BR FEW040 25/20 Q1016 NOSIG
ZGSZ,2017-11-29 12:00,ZGSZ 291200Z 27002MPS 3200 BR NSC 24/20 Q1016 NOSIG
ZGSZ,2017-11-29 13:00,ZGSZ 291300Z 00000MPS 3200 BR NSC 24/21 Q1017 NOSIG
ZGSZ,2017-11-29 14:00,ZGSZ 291400Z 00000MPS 3000 BR NSC 23/20 Q1017 BECMG AT1510 2500
ZGSZ,2017-11-29 15:00,ZGSZ 291500Z 00000MPS 3000 BR NSC 23/21 Q1017 BECMG AT1520 2500
ZGSZ,2017-11-29 16:00,ZGSZ 291600Z 00000MPS 2500 BR NSC 23/21 Q1016 NOSIG
ZGSZ,2017-11-29 17:00,ZGSZ 291700Z 00000MPS 2300 BR NSC 22/21 Q1016 NOSIG
ZGSZ,2017-11-29 18:00,ZGSZ 291800Z 00000MPS 2300 BR FEW030 22/21 Q1016 NOSIG
ZGSZ,2017-11-29 19:00,ZGSZ 291900Z 28001MPS 2800 BR FEW030 22/21 Q1016 NOSIG
ZGSZ,2017-11-29 20:00,ZGSZ 292000Z 00000MPS 4000 BR BKN040 22/21 Q1015 NOSIG
ZGSZ,2017-11-29 21:00,ZGSZ 292100Z 31002MPS 4500 BR NSC 22/20 Q1015 NOSIG
ZGSZ,2017-11-29 22:00,ZGSZ 292200Z 00000MPS 4500 BR FEW020 21/20 Q1016 NOSIG
ZGSZ,2017-11-29 23:00,ZGSZ 292300Z 13003MPS 100V200 4500 BR NSC 23/20 Q1016 NOSIG
ZGSZ,2017-11-30 00:00,ZGSZ 300000Z VRB01MPS 4500 BR NSC 23/21 Q1017 NOSIG
ZGSZ,2017-11-30 01:00,ZGSZ 300100Z 25002MPS 4300 BR NSC 23/21 Q1018 NOSIG
ZGSZ,2017-11-30 02:00,ZGSZ 300200Z 28002MPS 4300 BR NSC 24/21 Q1018 NOSIG
ZGSZ,2017-11-30 03:00,ZGSZ 300300Z 26002MPS 3500 BR FEW033 24/21 Q1018 BECMG AT0430 2500 BR
ZGSZ,2017-11-30 04:00,ZGSZ 300400Z 21002MPS 3200 BR FEW033 24/21 Q1017 BECMG AT0430 2500 BR
ZGSZ,2017-11-30 05:00,ZGSZ 300500Z 19004MPS 2500 BR FEW033 24/21 Q1016 BECMG AT0630 3000 BR
ZGSZ,2017-11-30 06:00,ZGSZ 300600Z 21002MPS 180V240 6000 FEW033 24/21 Q1015 BECMG AT0740 35006MPS
ZGSZ,2017-11-30 07:00,ZGSZ 300700Z 22002MPS 6000 FEW033 24/21 Q1015 BECMG AT0740 35006MPS
ZGSZ,2017-11-30 08:00,ZGSZ 300800Z 28002MPS 5000 BR FEW033 24/21 Q1015 BECMG AT0930 35006MPS
ZGSZ,2017-11-30 09:00,ZGSZ 300900Z 02004MPS 350V050 7000 FEW040 26/20 Q1015 NOSIG
ZGSZ,2017-11-30 10:00,ZGSZ 301000Z 04005MPS 7000 BKN040 25/19 Q1015 NOSIG
ZGSZ,2017-11-30 11:00,ZGSZ 301100Z 02005MPS 7000 BKN040 24/19 Q1016 NOSIG
ZGSZ,2017-11-30 12:00,ZGSZ 301200Z 03005MPS 9999 BKN033 24/18 Q1017 NOSIG
ZGSZ,2017-11-30 13:00,ZGSZ 301300Z 01005MPS 9999 BKN040 23/18 Q1018 NOSIG
ZGSZ,2017-11-30 14:00,ZGSZ 301400Z 02005MPS 9999 BKN046 23/18 Q1018 NOSIG
ZGSZ,2017-11-30 15:00,ZGSZ 301500Z 02005MPS 9999 BKN033 22/17 Q1018 NOSIG
ZGSZ,2017-11-30 16:00,ZGSZ 301600Z 02006MPS 9999 BKN030 22/17 Q1018 NOSIG
ZGSZ,2017-11-30 17:00,ZGSZ 301700Z 03006MPS 9999 BKN030 21/16 Q1018 NOSIG
ZGSZ,2017-11-30 18:00,ZGSZ 301800Z 02006MPS 9999 BKN030 21/15 Q1018 NOSIG
ZGSZ,2017-11-30 19:00,ZGSZ 301900Z 01006MPS 9999 BKN030 21/15 Q1018 NOSIG
ZGSZ,2017-11-30 20:00,ZGSZ 302000Z 01006MPS 9999 BKN030 20/15 Q1018 NOSIG
ZGSZ,2017-11-30 21:00,ZGSZ 302100Z 02006MPS 9999 BKN026 20/14 Q1018 NOSIG
ZGSZ,2017-11-30 22:00,ZGSZ 302200Z 01006MPS 9999 BKN026 19/14 Q1019 NOSIG
ZGSZ,2017-11-30 23:00,ZGSZ 302300Z 01005MPS 9999 BKN036 19/14 Q1019 NOSIG
ZGSZ,2017-12-01 00:00,ZGSZ 010000Z 03006MPS 9999 BKN040 19/13 Q1020 NOSIG
ZGSZ,2017-12-01 01:00,ZGSZ 010100Z 02005MPS CAVOK 20/14 Q1021 NOSIG
ZGSZ,2017-12-01 02:00,ZGSZ 010200Z 03006MPS CAVOK 21/13 Q1021 NOSIG
ZGSZ,2017-12-01 03:00,ZGSZ 010300Z 04007MPS CAVOK 22/13 Q1021 NOSIG
ZGSZ,2017-12-01 04:00,ZGSZ 010400Z 03007MPS CAVOK 24/13 Q1020 NOSIG
ZGSZ,2017-12-01 05:00,ZGSZ 010500Z 01006MPS 340V050 CAVOK 24/14 Q1018 NOSIG
ZGSZ,2017-12-01 06:00,ZGSZ 010600Z 36006MPS 320V020 CAVOK 25/14 Q1017 NOSIG
ZGSZ,2017-12-01 07:00,ZGSZ 010700Z 36006MPS 330V030 CAVOK 24/13 Q1017 NOSIG
ZGSZ,2017-12-01 08:00,ZGSZ 010800Z 36006MPS CAVOK 24/14 Q1017 NOSIG
ZGSZ,2017-12-01 09:00,ZGSZ 010900Z 01007MPS CAVOK 23/14 Q1018 NOSIG
ZGSZ,2017-12-01 10:00,ZGSZ 011000Z 02007MPS CAVOK 21/13 Q1018 NOSIG
ZGSZ,2017-12-01 11:00,ZGSZ 011100Z 04007MPS 9999 FEW043 21/13 Q1019 WS RWY34 NOSIG
ZGSZ,2017-12-01 12:00,ZGSZ 011200Z 04008MPS 9999 SCT043 20/13 Q1019 NOSIG
ZGSZ,2017-12-01 13:00,ZGSZ 011300Z 04007MPS 9999 SCT043 20/13 Q1020 NOSIG
ZGSZ,2017-12-01 14:00,ZGSZ 011400Z 04007MPS 9999 SCT043 20/13 Q1021 NOSIG
ZGSZ,2017-12-01 15:00,ZGSZ 011500Z 04006MPS 9999 SCT043 19/13 Q1021 NOSIG
ZGSZ,2017-12-01 16:00,ZGSZ 011600Z 01006MPS 9999 SCT043 18/12 Q1021 NOSIG
ZGSZ,2017-12-01 17:00,ZGSZ 011700Z 01006MPS 350V050 9999 SCT043 18/12 Q1021 NOSIG
ZGSZ,2017-12-01 18:00,ZGSZ 011800Z 02007MPS 9999 SCT043 17/12 Q1021 NOSIG
ZGSZ,2017-12-01 19:00,ZGSZ 011900Z 02006MPS 350V050 9999 SCT043 17/11 Q1020 NOSIG
ZGSZ,2017-12-01 20:00,ZGSZ 012000Z 02006MPS CAVOK 17/11 Q1020 NOSIG
ZGSZ,2017-12-01 21:00,ZGSZ 012100Z 02005MPS CAVOK 17/11 Q1020 NOSIG
ZGSZ,2017-12-01 22:00,ZGSZ 012200Z 01006MPS CAVOK 16/11 Q1020 NOSIG
ZGSZ,2017-12-01 23:00,ZGSZ 012300Z 03006MPS CAVOK 16/11 Q1020 NOSIG
ZGSZ,2017-12-02 00:00,ZGSZ 020000Z 02005MPS CAVOK 17/11 Q1021 NOSIG
ZGSZ,2017-12-02 01:00,ZGSZ 020100Z 01005MPS CAVOK 18/11 Q1021 NOSIG
ZGSZ,2017-12-02 02:00,ZGSZ 020200Z 02004MPS 340V050 CAVOK 19/11 Q1021 NOSIG
ZGSZ,2017-12-02 03:00,ZGSZ 020300Z 04004MPS 350V080 CAVOK 21/12 Q1021 NOSIG
ZGSZ,2017-12-02 04:00,ZGSZ 020400Z 36005MPS CAVOK 22/12 Q1020 NOSIG
ZGSZ,2017-12-02 05:00,ZGSZ 020500Z 36005MPS CAVOK 23/12 Q1018 NOSIG
ZGSZ,2017-12-02 06:00,ZGSZ 020600Z 35004MPS 320V020 CAVOK 24/13 Q1017 NOSIG
ZGSZ,2017-12-02 07:00,ZGSZ 020700Z 34004MPS 290V020 CAVOK 23/14 Q1017 NOSIG
ZGSZ,2017-12-02 08:00,ZGSZ 020800Z 30006MPS CAVOK 22/14 Q1017 NOSIG
ZGSZ,2017-12-02 09:00,ZGSZ 020900Z 30005MPS CAVOK 22/15 Q1017 BECMG FM1020 01005MPS
ZGSZ,2017-12-02 10:00,ZGSZ 021000Z 31005MPS CAVOK 21/15 Q1017 BECMG FM1040 01005MPS
ZGSZ,2017-12-02 11:00,ZGSZ 021100Z 35002MPS CAVOK 21/14 Q1018 NOSIG
ZGSZ,2017-12-02 12:00,ZGSZ 021200Z 34003MPS CAVOK 21/14 Q1018 NOSIG
ZGSZ,2017-12-02 13:00,ZGSZ 021300Z 34004MPS CAVOK 20/13 Q1019 NOSIG
ZGSZ,2017-12-02 14:00,ZGSZ 021400Z 33002MPS CAVOK 20/13 Q1019 NOSIG
ZGSZ,2017-12-02 15:00,ZGSZ 021500Z 02003MPS CAVOK 20/13 Q1019 NOSIG
ZGSZ,2017-12-02 16:00,ZGSZ 021600Z 02004MPS CAVOK 20/13 Q1019 NOSIG
ZGSZ,2017-12-02 17:00,ZGSZ 021700Z 03005MPS CAVOK 19/13 Q1019 NOSIG
ZGSZ,2017-12-02 18:00,ZGSZ 021800Z 03005MPS CAVOK 19/13 Q1018 NOSIG
ZGSZ,2017-12-02 19:00,ZGSZ 021900Z 02004MPS CAVOK 19/13 Q1018 NOSIG
ZGSZ,2017-12-02 20:00,ZGSZ 022000Z 04004MPS CAVOK 18/12 Q1018 NOSIG
ZGSZ,2017-12-02 21:00,ZGSZ 022100Z 02005MPS CAVOK 18/12 Q1018 NOSIG
ZGSZ,2017-12-02 22:00,ZGSZ 022200Z 03005MPS CAVOK 17/12 Q1019 NOSIG
ZGSZ,2017-12-02 23:00,ZGSZ 022300Z 03005MPS CAVOK 17/12 Q1019 NOSIG
ZGSZ,2017-12-03 00:00,ZGSZ 030000Z 04004MPS CAVOK 17/12 Q1020 NOSIG
ZGSZ,2017-12-03 01:00,ZGSZ 030100Z 03003MPS 360V060 CAVOK 19/12 Q1020 NOSIG
ZGSZ,2017-12-03 02:00,ZGSZ 030200Z 36003MPS 320V040 CAVOK 20/12 Q1020 NOSIG
ZGSZ,2017-12-03 03:00,ZGSZ 030300Z 01003MPS 340V040 CAVOK 22/13 Q1019 NOSIG
ZGSZ,2017-12-03 04:00,ZGSZ 030400Z 30005MPS CAVOK 21/14 Q1018 NOSIG
ZGSZ,2017-12-03 05:00,ZGSZ 030500Z 29005MPS 8000 NSC 22/15 Q1017 NOSIG
ZGSZ,2017-12-03 06:00,ZGSZ 030600Z 30005MPS 7000 FEW030 22/15 Q1016 NOSIG
ZGSZ,2017-12-03 07:00,ZGSZ 030700Z 29005MPS 7000 FEW030 22/15 Q1016 NOSIG
ZGSZ,2017-12-03 08:00,ZGSZ 030800Z 30004MPS 7000 FEW030 22/15 Q1016 NOSIG
ZGSZ,2017-12-03 09:00,ZGSZ 030900Z 30005MPS 7000 NSC 22/15 Q1016 NOSIG
ZGSZ,2017-12-03 10:00,ZGSZ 031000Z 30004MPS 7000 NSC 22/16 Q1016 NOSIG
ZGSZ,2017-12-03 11:00,ZGSZ 031100Z 35003MPS 7000 NSC 22/14 Q1016 NOSIG
ZGSZ,2017-12-03 12:00,ZGSZ 031200Z 34002MPS 310V010 7000 NSC 21/15 Q1017 NOSIG
ZGSZ,2017-12-03 13:00,ZGSZ 031300Z 33003MPS 7000 NSC 20/15 Q1017 NOSIG
ZGSZ,2017-12-03 14:00,ZGSZ 031400Z 33003MPS 7000 NSC 20/15 Q1018 NOSIG
ZGSZ,2017-12-03 15:00,ZGSZ 031500Z 34004MPS 7000 NSC 20/15 Q1018 NOSIG
ZGSZ,2017-12-03 16:00,ZGSZ 031600Z 33003MPS 8000 NSC 20/14 Q1018 NOSIG
ZGSZ,2017-12-03 17:00,ZGSZ 031700Z 34004MPS 8000 NSC 19/14 Q1018 NOSIG
ZGSZ,2017-12-03 18:00,ZGSZ 031800Z 03004MPS 6000 NSC 20/14 Q1018 NOSIG
ZGSZ,2017-12-03 19:00,ZGSZ 031900Z 01004MPS CAVOK 19/14 Q1018 NOSIG
ZGSZ,2017-12-03 20:00,ZGSZ 032000Z 36005MPS CAVOK 19/14 Q1018 NOSIG
ZGSZ,2017-12-03 21:00,ZGSZ 032100Z 02005MPS CAVOK 18/13 Q1018 NOSIG
ZGSZ,2017-12-03 22:00,ZGSZ 032200Z 04005MPS CAVOK 18/13 Q1019 NOSIG
ZGSZ,2017-12-03 23:00,ZGSZ 032300Z 03005MPS CAVOK 17/12 Q1020 NOSIG
ZGSZ,2017-12-04 00:00,ZGSZ 040000Z 36004MPS CAVOK 18/12 Q1021 NOSIG
ZGSZ,2017-12-04 01:00,ZGSZ 040100Z 01006MPS CAVOK 19/12 Q1021 NOSIG
ZGSZ,2017-12-04 02:00,ZGSZ 040200Z 04006MPS CAVOK 20/12 Q1021 BECMG AT0340 33005MPS
ZGSZ,2017-12-04 03:00,ZGSZ 040300Z 02006MPS CAVOK 21/12 Q1020 NOSIG
ZGSZ,2017-12-04 04:00,ZGSZ 040400Z 01005MPS 350V050 CAVOK 22/12 Q1019 NOSIG
ZGSZ,2017-12-04 05:00,ZGSZ 040500Z 36006MPS CAVOK 22/12 Q1018 NOSIG
ZGSZ,2017-12-04 06:00,ZGSZ 040600Z 03006MPS 330V050 CAVOK 23/12 Q1017 NOSIG
ZGSZ,2017-12-04 07:00,ZGSZ 040700Z 36006MPS CAVOK 23/12 Q1016 NOSIG
ZGSZ,2017-12-04 08:00,ZGSZ 040800Z 02005MPS CAVOK 22/12 Q1016 NOSIG
ZGSZ,2017-12-04 09:00,ZGSZ 040900Z 02005MPS 9999 FEW036 22/12 Q1017 NOSIG
ZGSZ,2017-12-04 10:00,ZGSZ 041000Z 01005MPS 9999 FEW036 21/12 Q1017 NOSIG
ZGSZ,2017-12-04 11:00,ZGSZ 041100Z 02005MPS 9999 FEW036 20/12 Q1018 NOSIG
ZGSZ,2017-12-04 12:00,ZGSZ 041200Z 03005MPS 9999 FEW036 20/12 Q1018 NOSIG
ZGSZ,2017-12-04 13:00,ZGSZ 041300Z 04006MPS 9999 FEW036 19/12 Q1019 NOSIG
ZGSZ,2017-12-04 14:00,ZGSZ 041400Z 03004MPS 360V060 9999 FEW036 18/12 Q1019 NOSIG
ZGSZ,2017-12-04 15:00,ZGSZ 041500Z 03005MPS CAVOK 18/12 Q1019 NOSIG
ZGSZ,2017-12-04 16:00,ZGSZ 041600Z 02005MPS 9999 FEW050 18/11 Q1020 NOSIG
ZGSZ,2017-12-04 17:00,ZGSZ 041700Z 02006MPS 350V050 9999 BKN050 18/11 Q1020 NOSIG
ZGSZ,2017-12-04 18:00,ZGSZ 041800Z 01005MPS 9999 BKN050 17/11 Q1020 NOSIG
ZGSZ,2017-12-04 19:00,ZGSZ 041900Z 02004MPS 9999 FEW050 17/10 Q1020 NOSIG
ZGSZ,2017-12-04 20:00,ZGSZ 042000Z 02005MPS 330V040 CAVOK 16/10 Q1020 NOSIG
ZGSZ,2017-12-04 21:00,ZGSZ 042100Z 02005MPS 9999 BKN033 17/10 Q1021 NOSIG
ZGSZ,2017-12-04 22:00,ZGSZ 042200Z 02005MPS 360V060 9999 BKN033 17/10 Q1021 NOSIG
ZGSZ,2017-12-04 23:00,ZGSZ 042300Z 02005MPS 9999 BKN033 17/10 Q1022 NOSIG
ZGSZ,2017-12-05 00:00,ZGSZ 050000Z 03004MPS 9999 BKN033 17/10 Q1023 NOSIG
ZGSZ,2017-12-05 01:00,ZGSZ 050100Z 04004MPS 9999 BKN040 18/11 Q1023 NOSIG
ZGSZ,2017-12-05 02:00,ZGSZ 050200Z 01005MPS 350V050 9999 BKN040 19/11 Q1023 NOSIG
ZGSZ,2017-12-05 03:00,ZGSZ 050300Z 02006MPS 350V050 9999 BKN050 20/10 Q1023 NOSIG
ZGSZ,2017-12-05 04:00,ZGSZ 050400Z 36005MPS 9999 BKN050 20/11 Q1022 NOSIG
ZGSZ,2017-12-05 05:00,ZGSZ 050500Z 02005MPS 330V060 8000 BKN040 21/11 Q1021 NOSIG
ZGSZ,2017-12-05 06:00,ZGSZ 050600Z 02005MPS 350V050 8000 BKN036 21/11 Q1019 NOSIG
ZGSZ,2017-12-05 07:00,ZGSZ 050700Z 36006MPS 340V040 8000 BKN036 21/11 Q1019 NOSIG
ZGSZ,2017-12-05 08:00,ZGSZ 050800Z 02005MPS 8000 BKN036 20/11 Q1019 NOSIG
ZGSZ,2017-12-05 09:00,ZGSZ 050900Z 04005MPS 9999 FEW036 19/11 Q1018 NOSIG
ZGSZ,2017-12-05 10:00,ZGSZ 051000Z 03005MPS CAVOK 19/11 Q1018 NOSIG
ZGSZ,2017-12-05 11:00,ZGSZ 051100Z 04006MPS CAVOK 18/11 Q1019 NOSIG
ZGSZ,2017-12-05 12:00,ZGSZ 051200Z 06005MPS CAVOK 17/11 Q1019 NOSIG
ZGSZ,2017-12-05 13:00,ZGSZ 051300Z 06004MPS CAVOK 16/11 Q1019 NOSIG
ZGSZ,2017-12-05 14:00,ZGSZ 051400Z 06004MPS CAVOK 16/11 Q1019 NOSIG
ZGSZ,2017-12-05 15:00,ZGSZ 051500Z 03003MPS 9999 FEW043 16/11 Q1019 NOSIG
ZGSZ,2017-12-05 16:00,ZGSZ 051600Z 04004MPS CAVOK 16/11 Q1019 NOSIG
ZGSZ,2017-12-05 17:00,ZGSZ 051700Z 04003MPS CAVOK 17/11 Q1019 NOSIG
ZGSZ,2017-12-05 18:00,ZGSZ 051800Z 04004MPS 9999 SCT046 16/11 Q1018 NOSIG
ZGSZ,2017-12-05 19:00,ZGSZ 051900Z 04005MPS CAVOK 16/11 Q1018 NOSIG
ZGSZ,2017-12-05 20:00,ZGSZ 052000Z 04004MPS CAVOK 16/11 Q1018 NOSIG
ZGSZ,2017-12-05 21:00,ZGSZ 052100Z 05004MPS 9999 BKN050 16/10 Q1018 NOSIG
ZGSZ,2017-12-05 22:00,ZGSZ 052200Z 04003MPS CAVOK 16/10 Q1018 NOSIG
ZGSZ,2017-12-05 23:00,ZGSZ 052300Z 03004MPS CAVOK 16/10 Q1019 NOSIG
ZGSZ,2017-12-06 00:00,ZGSZ 060000Z 04003MPS CAVOK 16/10 Q1020 NOSIG
ZGSZ,2017-12-06 01:00,ZGSZ 060100Z 05004MPS CAVOK 17/10 Q1021 NOSIG
ZGSZ,2017-12-06 02:00,ZGSZ 060200Z 05004MPS CAVOK 18/10 Q1021 NOSIG
ZGSZ,2017-12-06 03:00,ZGSZ 060300Z 03003MPS CAVOK 20/11 Q1021 NOSIG
ZGSZ,2017-12-06 04:00,ZGSZ 060400Z 05002MPS 330V120 CAVOK 21/11 Q1020 NOSIG
ZGSZ,2017-12-06 05:00,ZGSZ 060500Z 29005MPS 5000 HZ NSC 21/12 Q1018 NOSIG
ZGSZ,2017-12-06 06:00,ZGSZ 060600Z 30005MPS 5000 HZ NSC 22/12 Q1017 NOSIG
ZGSZ,2017-12-06 07:00,ZGSZ 060700Z 30004MPS 5000 HZ NSC 21/13 Q1016 NOSIG
ZGSZ,2017-12-06 08:00,ZGSZ 060800Z 02003MPS 350V050 5000 HZ NSC 23/11 Q1016 NOSIG
ZGSZ,2017-12-06 09:00,ZGSZ 060900Z 32004MPS 5000 HZ NSC 21/13 Q1016 NOSIG
ZGSZ,2017-12-06 10:00,ZGSZ 061000Z 32002MPS 6000 NSC 20/13 Q1016 NOSIG
ZGSZ,2017-12-06 11:00,ZGSZ 061100Z 35002MPS 320V070 5000 HZ NSC 19/13 Q1017 NOSIG
ZGSZ,2017-12-06 12:00,ZGSZ 061200Z 19003MPS 5000 HZ NSC 20/14 Q1018 NOSIG
ZGSZ,2017-12-06 13:00,ZGSZ 061300Z 16003MPS 5000 HZ NSC 18/13 Q1018 NOSIG
ZGSZ,2017-12-06 14:00,ZGSZ 061400Z 11004MPS 5000 HZ NSC 18/13 Q1018 NOSIG
ZGSZ,2017-12-06 15:00,ZGSZ 061500Z 08003MPS 5000 HZ NSC 18/13 Q1018 NOSIG
ZGSZ,2017-12-06 16:00,ZGSZ 061600Z 11004MPS 7000 NSC 17/13 Q1018 NOSIG
ZGSZ,2017-12-06 17:00,ZGSZ 061700Z 12003MPS 7000 NSC 17/13 Q1018 NOSIG
ZGSZ,2017-12-06 18:00,ZGSZ 061800Z 06002MPS 020V090 8000 NSC 17/13 Q1018 NOSIG
ZGSZ,2017-12-06 19:00,ZGSZ 061900Z 04002MPS 6000 NSC 17/13 Q1018 NOSIG
ZGSZ,2017-12-06 20:00,ZGSZ 062000Z 04003MPS 5000 BR NSC 17/13 Q1018 NOSIG
ZGSZ,2017-12-06 21:00,ZGSZ 062100Z 04005MPS 5000 BR NSC 17/13 Q1018 NOSIG
ZGSZ,2017-12-06 22:00,ZGSZ 062200Z 06002MPS 030V090 5000 BR NSC 17/13 Q1018 NOSIG
ZGSZ,2017-12-06 23:00,ZGSZ 062300Z 05003MPS 5000 HZ NSC 17/13 Q1019 NOSIG
ZGSZ,2017-12-07 00:00,ZGSZ 070000Z 04004MPS 5000 HZ NSC 18/12 Q1019 NOSIG
ZGSZ,2017-12-07 01:00,ZGSZ 070100Z 04003MPS 5000 HZ NSC 18/12 Q1019 NOSIG
ZGSZ,2017-12-07 02:00,ZGSZ 070200Z VRB01MPS 6000 NSC 19/12 Q1020 NOSIG
ZGSZ,2017-12-07 03:00,ZGSZ 070300Z 04003MPS 340V090 6000 NSC 20/12 Q1019 NOSIG
ZGSZ,2017-12-07 04:00,ZGSZ 070400Z 01003MPS 340V050 5000 HZ NSC 20/12 Q1018 NOSIG
ZGSZ,2017-12-07 05:00,ZGSZ 070500Z 35004MPS 320V040 6000 NSC 21/11 Q1017 NOSIG
ZGSZ,2017-12-07 06:00,ZGSZ 070600Z 01004MPS 330V050 7000 NSC 21/12 Q1016 NOSIG
ZGSZ,2017-12-07 07:00,ZGSZ 070700Z 36005MPS 340V040 6000 NSC 22/10 Q1016 NOSIG
ZGSZ,2017-12-07 08:00,ZGSZ 070800Z 02004MPS 340V040 8000 NSC 22/10 Q1016 NOSIG
ZGSZ,2017-12-07 09:00,ZGSZ 070900Z 01004MPS 9000 NSC 21/10 Q1017 NOSIG
ZGSZ,2017-12-07 10:00,ZGSZ 071000Z 35003MPS 8000 NSC 19/11 Q1017 NOSIG
ZGSZ,2017-12-07 11:00,ZGSZ 071100Z 35002MPS 8000 NSC 19/12 Q1018 NOSIG
ZGSZ,2017-12-07 12:00,ZGSZ 071200Z 03001MPS 8000 NSC 18/11 Q1018 NOSIG
ZGSZ,2017-12-07 13:00,ZGSZ 071300Z 36002MPS 6000 NSC 18/11 Q1019 NOSIG
ZGSZ,2017-12-07 14:00,ZGSZ 071400Z 36002MPS 6000 NSC 17/12 Q1020 NOSIG
ZGSZ,2017-12-07 15:00,ZGSZ 071500Z 02002MPS 6000 NSC 17/12 Q1020 NOSIG
ZGSZ,2017-12-07 16:00,ZGSZ 071600Z 04003MPS 360V060 6000 NSC 18/12 Q1021 NOSIG
ZGSZ,2017-12-07 17:00,ZGSZ 071700Z 03003MPS 360V060 7000 NSC 17/11 Q1021 NOSIG
ZGSZ,2017-12-07 18:00,ZGSZ 071800Z 36004MPS CAVOK 17/10 Q1021 NOSIG
ZGSZ,2017-12-07 19:00,ZGSZ 071900Z 01007MPS CAVOK 17/08 Q1021 NOSIG
ZGSZ,2017-12-07 20:00,ZGSZ 072000Z 36004MPS CAVOK 16/08 Q1021 NOSIG
ZGSZ,2017-12-07 21:00,ZGSZ 072100Z 03006MPS CAVOK 17/06 Q1022 NOSIG
ZGSZ,2017-12-07 22:00,ZGSZ 072200Z 01007MPS CAVOK 16/05 Q1022 NOSIG
ZGSZ,2017-12-07 23:00,ZGSZ 072300Z 02007MPS CAVOK 16/03 Q1023 NOSIG
ZGSZ,2017-12-08 00:00,ZGSZ 080000Z 01007MPS CAVOK 16/02 Q1024 NOSIG
ZGSZ,2017-12-08 01:00,ZGSZ 080100Z 01008MPS CAVOK 17/02 Q1024 NOSIG
ZGSZ,2017-12-08 02:00,ZGSZ 080200Z 02009MPS CAVOK 18/02 Q1024 NOSIG
ZGSZ,2017-12-08 03:00,ZGSZ 080300Z 02010MPS CAVOK 18/03 Q1023 NOSIG
ZGSZ,2017-12-08 04:00,ZGSZ 080400Z 01008MPS CAVOK 19/04 Q1022 NOSIG
ZGSZ,2017-12-08 05:00,ZGSZ 080500Z 01007G12MPS 340V040 CAVOK 20/04 Q1021 NOSIG
ZGSZ,2017-12-08 06:00,ZGSZ 080600Z 36006MPS CAVOK 20/04 Q1020 NOSIG
ZGSZ,2017-12-08 07:00,ZGSZ 080700Z 36007MPS 330V030 CAVOK 20/03 Q1020 NOSIG
ZGSZ,2017-12-08 08:00,ZGSZ 080800Z 01006MPS CAVOK 20/03 Q1020 NOSIG
ZGSZ,2017-12-08 09:00,ZGSZ 080900Z 36005MPS CAVOK 19/03 Q1020 NOSIG
ZGSZ,2017-12-08 10:00,ZGSZ 081000Z 04005MPS CAVOK 19/01 Q1020 NOSIG
ZGSZ,2017-12-08 11:00,ZGSZ 081100Z 03004MPS 360V060 CAVOK 18/00 Q1021 NOSIG
ZGSZ,2017-12-08 12:00,ZGSZ 081200Z 02006MPS CAVOK 17/01 Q1022 NOSIG
ZGSZ,2017-12-08 13:00,ZGSZ 081300Z 04008MPS CAVOK 16/M01 Q1022 NOSIG
ZGSZ,2017-12-08 14:00,ZGSZ 081400Z 04007MPS CAVOK 16/M01 Q1022 NOSIG
ZGSZ,2017-12-08 15:00,ZGSZ 081500Z 04007MPS CAVOK 15/M01 Q1022 NOSIG
ZGSZ,2017-12-08 16:00,ZGSZ 081600Z 04006MPS CAVOK 14/M01 Q1022 NOSIG
ZGSZ,2017-12-08 17:00,ZGSZ 081700Z 03005MPS CAVOK 14/M01 Q1022 NOSIG
ZGSZ,2017-12-08 18:00,ZGSZ 081800Z 03007MPS CAVOK 14/M01 Q1022 NOSIG
ZGSZ,2017-12-08 19:00,ZGSZ 081900Z 01006MPS CAVOK 13/M00 Q1022 NOSIG
ZGSZ,2017-12-08 20:00,ZGSZ 082000Z 02006MPS 8000 NSC 13/00 Q1022 NOSIG
ZGSZ,2017-12-08 21:00,ZGSZ 082100Z 03004MPS 8000 NSC 12/00 Q1022 NOSIG
ZGSZ,2017-12-08 22:00,ZGSZ 082200Z 02005MPS 8000 NSC 12/01 Q1022 NOSIG
ZGSZ,2017-12-08 23:00,ZGSZ 082300Z 02005MPS 8000 NSC 12/00 Q1023 NOSIG
ZGSZ,2017-12-09 00:00,ZGSZ 090000Z 01005MPS 6000 NSC 12/01 Q1023 NOSIG
ZGSZ,2017-12-09 01:00,ZGSZ 090100Z 03006MPS 6000 NSC 13/00 Q1023 NOSIG
ZGSZ,2017-12-09 02:00,ZGSZ 090200Z 01005MPS 6000 NSC 14/M01 Q1023 NOSIG
ZGSZ,2017-12-09 03:00,ZGSZ 090300Z 36005MPS 5000 HZ NSC 15/00 Q1022 NOSIG
ZGSZ,2017-12-09 04:00,ZGSZ 090400Z 03004MPS 5000 HZ NSC 17/00 Q1021 NOSIG
ZGSZ,2017-12-09 05:00,ZGSZ 090500Z 04003MPS 320V130 5000 HZ NSC 18/00 Q1019 NOSIG
ZGSZ,2017-12-09 06:00,ZGSZ 090600Z 33003MPS 300V360 5000 HZ NSC 18/M00 Q1018 NOSIG
ZGSZ,2017-12-09 07:00,ZGSZ 090700Z 01004MPS 340V040 5000 HZ NSC 19/00 Q1017 NOSIG
ZGSZ,2017-12-09 08:00,ZGSZ 090800Z 29004MPS 5000 HZ NSC 18/04 Q1016 NOSIG
ZGSZ,2017-12-09 09:00,ZGSZ 090900Z 29003MPS 6000 NSC 17/03 Q1016 NOSIG
ZGSZ,2017-12-09 10:00,ZGSZ 091000Z VRB01MPS 5000 HZ NSC 17/02 Q1017 NOSIG
ZGSZ,2017-12-09 11:00,ZGSZ 091100Z 06001MPS 4000 HZ NSC 16/02 Q1017 NOSIG
ZGSZ,2017-12-09 12:00,ZGSZ 091200Z 04001MPS 4000 HZ NSC 15/04 Q1018 NOSIG
ZGSZ,2017-12-09 13:00,ZGSZ 091300Z 06002MPS 4500 HZ NSC 15/03 Q1018 NOSIG
ZGSZ,2017-12-09 14:00,ZGSZ 091400Z 10002MPS 4000 HZ NSC 15/02 Q1018 NOSIG
ZGSZ,2017-12-09 15:00,ZGSZ 091500Z 11003MPS 4000 HZ FEW020 14/04 Q1018 NOSIG
ZGSZ,2017-12-09 16:00,ZGSZ 091600Z 11003MPS 4000 HZ FEW020 14/06 Q1018 NOSIG
ZGSZ,2017-12-09 17:00,ZGSZ 091700Z 09002MPS 4000 HZ FEW020 15/07 Q1018 NOSIG
ZGSZ,2017-12-09 18:00,ZGSZ 091800Z 02002MPS 4500 HZ FEW020 14/07 Q1018 NOSIG
ZGSZ,2017-12-09 19:00,ZGSZ 091900Z 04002MPS 4000 HZ FEW020 14/07 Q1018 NOSIG
ZGSZ,2017-12-09 20:00,ZGSZ 092000Z 05003MPS 4000 HZ NSC 14/07 Q1017 NOSIG
ZGSZ,2017-12-09 21:00,ZGSZ 092100Z 04003MPS 4000 HZ NSC 14/07 Q1018 NOSIG
ZGSZ,2017-12-09 22:00,ZGSZ 092200Z 04005MPS 4000 HZ NSC 14/05 Q1018 NOSIG
ZGSZ,2017-12-09 23:00,ZGSZ 092300Z 06003MPS 5000 HZ NSC 13/06 Q1019 NOSIG
ZGSZ,2017-12-10 00:00,ZGSZ 100000Z 06002MPS 5000 HZ NSC 14/06 Q1020 NOSIG
ZGSZ,2017-12-10 01:00,ZGSZ 100100Z 02002MPS 5000 HZ NSC 16/06 Q1021 NOSIG
ZGSZ,2017-12-10 02:00,ZGSZ 100200Z 04003MPS 5000 HZ NSC 18/06 Q1021 NOSIG
ZGSZ,2017-12-10 03:00,ZGSZ 100300Z 02002MPS 290V060 5000 HZ NSC 19/05 Q1020 NOSIG
ZGSZ,2017-12-10 04:00,ZGSZ 100400Z 02003MPS 290V060 5000 HZ NSC 21/03 Q1019 NOSIG
ZGSZ,2017-12-10 05:00,ZGSZ 100500Z 29004MPS 6000 NSC 19/07 Q1018 NOSIG
ZGSZ,2017-12-10 06:00,ZGSZ 100600Z 29005MPS 6000 NSC 20/06 Q1017 NOSIG
ZGSZ,2017-12-10 07:00,ZGSZ 100700Z 29005MPS 6000 NSC 21/06 Q1016 NOSIG
ZGSZ,2017-12-10 08:00,ZGSZ 100800Z 30005MPS 7000 NSC 20/07 Q1016 NOSIG
ZGSZ,2017-12-10 09:00,ZGSZ 100900Z 31005MPS 7000 NSC 20/07 Q1017 NOSIG
ZGSZ,2017-12-10 10:00,ZGSZ 101000Z 34004MPS 6000 NSC 19/05 Q1017 NOSIG
ZGSZ,2017-12-10 11:00,ZGSZ 101100Z 35003MPS 5000 HZ NSC 20/06 Q1017 NOSIG
ZGSZ,2017-12-10 12:00,ZGSZ 101200Z 32003MPS 5000 HZ NSC 19/08 Q1018 NOSIG
ZGSZ,2017-12-10 13:00,ZGSZ 101300Z 32005MPS 6000 NSC 19/08 Q1019 NOSIG
ZGSZ,2017-12-10 14:00,ZGSZ 101400Z 34004MPS 5000 HZ NSC 19/07 Q1019 NOSIG
ZGSZ,2017-12-10 15:00,ZGSZ 101500Z 34004MPS 5000 HZ NSC 19/07 Q1019 NOSIG
ZGSZ,2017-12-10 16:00,ZGSZ 101600Z 36004MPS 5000 HZ NSC 19/06 Q1019 NOSIG
ZGSZ,2017-12-10 17:00,ZGSZ 101700Z 02005MPS 8000 NSC 19/05 Q1019 NOSIG
ZGSZ,2017-12-10 18:00,ZGSZ 101800Z 04007MPS 8000 NSC 18/04 Q1018 NOSIG
ZGSZ,2017-12-10 19:00,ZGSZ 101900Z 03005MPS CAVOK 18/03 Q1018 NOSIG
ZGSZ,2017-12-10 20:00,ZGSZ 102000Z 02004MPS CAVOK 17/02 Q1018 NOSIG
ZGSZ,2017-12-10 21:00,ZGSZ 102100Z 02005MPS CAVOK 17/02 Q1018 NOSIG
ZGSZ,2017-12-10 22:00,ZGSZ 102200Z 02005MPS CAVOK 17/02 Q1018 NOSIG
ZGSZ,2017-12-10 23:00,ZGSZ 102300Z 03004MPS CAVOK 17/02 Q1019 NOSIG
ZGSZ,2017-12-11 00:00,ZGSZ 110000Z 04004MPS CAVOK 17/02 Q1020 NOSIG
ZGSZ,2017-12-11 01:00,ZGSZ 110100Z 05005MPS CAVOK 17/02 Q1021 NOSIG
ZGSZ,2017-12-11 02:00,ZGSZ 110200Z 03004MPS CAVOK 19/02 Q1021 NOSIG
ZGSZ,2017-12-11 03:00,ZGSZ 110300Z 36004MPS 320V040 CAVOK 20/03 Q1020 BECMG FM0440 30005MPS
ZGSZ,2017-12-11 04:00,ZGSZ 110400Z 03003MPS 320V060 CAVOK 21/03 Q1019 BECMG FM0440 32005MPS
ZGSZ,2017-12-11 05:00,ZGSZ 110500Z 36004MPS 330V040 CAVOK 22/03 Q1017 BECMG AT0640 30005MPS
ZGSZ,2017-12-11 06:00,ZGSZ 110600Z 34004MPS CAVOK 22/04 Q1016 NOSIG
ZGSZ,2017-12-11 07:00,ZGSZ 110700Z 30005MPS CAVOK 21/08 Q1016 NOSIG
ZGSZ,2017-12-11 08:00,ZGSZ 110800Z 30004MPS CAVOK 21/08 Q1016 NOSIG
ZGSZ,2017-12-11 09:00,ZGSZ 110900Z 01003MPS 9999 BKN033 21/05 Q1016 NOSIG
ZGSZ,2017-12-11 10:00,ZGSZ 111000Z 36003MPS 9999 FEW033 21/05 Q1017 NOSIG
ZGSZ,2017-12-11 11:00,ZGSZ 111100Z 03003MPS CAVOK 21/06 Q1017 NOSIG
ZGSZ,2017-12-11 12:00,ZGSZ 111200Z 04002MPS CAVOK 20/07 Q1018 NOSIG
ZGSZ,2017-12-11 13:00,ZGSZ 111300Z 08002MPS CAVOK 20/07 Q1019 NOSIG
ZGSZ,2017-12-11 14:00,ZGSZ 111400Z 09003MPS CAVOK 19/09 Q1019 NOSIG
ZGSZ,2017-12-11 15:00,ZGSZ 111500Z 10003MPS CAVOK 18/11 Q1019 NOSIG
ZGSZ,2017-12-11 16:00,ZGSZ 111600Z 09002MPS CAVOK 18/12 Q1019 NOSIG
ZGSZ,2017-12-11 17:00,ZGSZ 111700Z 10002MPS 060V120 CAVOK 18/12 Q1019 NOSIG
ZGSZ,2017-12-11 18:00,ZGSZ 111800Z 08002MPS CAVOK 18/12 Q1018 NOSIG
ZGSZ,2017-12-11 19:00,ZGSZ 111900Z 03003MPS 8000 NSC 18/11 Q1018 NOSIG
ZGSZ,2017-12-11 20:00,ZGSZ 112000Z 04004MPS 8000 NSC 18/10 Q1018 NOSIG
ZGSZ,2017-12-11 21:00,ZGSZ 112100Z 05004MPS 250V060 8000 NSC 17/08 Q1018 NOSIG
ZGSZ,2017-12-11 22:00,ZGSZ 112200Z 03003MPS 8000 NSC 17/07 Q1018 NOSIG
ZGSZ,2017-12-11 23:00,ZGSZ 112300Z 02003MPS 8000 NSC 17/05 Q1019 NOSIG
ZGSZ,2017-12-12 00:00,ZGSZ 120000Z 04003MPS 8000 NSC 17/05 Q1020 NOSIG
ZGSZ,2017-12-12 01:00,ZGSZ 120100Z 04005MPS 8000 NSC 18/03 Q1021 NOSIG
ZGSZ,2017-12-12 02:00,ZGSZ 120200Z 04005MPS CAVOK 18/02 Q1021 NOSIG
ZGSZ,2017-12-12 03:00,ZGSZ 120300Z 03004MPS CAVOK 19/03 Q1020 NOSIG
ZGSZ,2017-12-12 04:00,ZGSZ 120400Z 04005MPS CAVOK 20/03 Q1019 NOSIG
ZGSZ,2017-12-12 05:00,ZGSZ 120500Z 03004MPS 360V060 CAVOK 21/04 Q1018 NOSIG
ZGSZ,2017-12-12 06:00,ZGSZ 120600Z 03004MPS CAVOK 21/05 Q1017 NOSIG
ZGSZ,2017-12-12 07:00,ZGSZ 120700Z 04004MPS 010V070 CAVOK 21/05 Q1017 BECMG TL0830 31005MPS
ZGSZ,2017-12-12 08:00,ZGSZ 120800Z 04003MPS CAVOK 21/06 Q1016 NOSIG
ZGSZ,2017-12-12 09:00,ZGSZ 120900Z 05004MPS CAVOK 21/06 Q1017 NOSIG
ZGSZ,2017-12-12 10:00,ZGSZ 121000Z 03003MPS CAVOK 20/06 Q1017 NOSIG
ZGSZ,2017-12-12 11:00,ZGSZ 121100Z 06003MPS CAVOK 19/07 Q1017 NOSIG
ZGSZ,2017-12-12 12:00,ZGSZ 121200Z 03002MPS 8000 NSC 19/07 Q1018 NOSIG
ZGSZ,2017-12-12 13:00,ZGSZ 121300Z 12003MPS 8000 NSC 19/09 Q1018 NOSIG
ZGSZ,2017-12-12 14:00,ZGSZ 121400Z 11005MPS 8000 NSC 19/11 Q1018 NOSIG
ZGSZ,2017-12-12 15:00,ZGSZ 121500Z 12004MPS CAVOK 19/12 Q1018 NOSIG
ZGSZ,2017-12-12 16:00,ZGSZ 121600Z 08003MPS CAVOK 18/12 Q1018 NOSIG
ZGSZ,2017-12-12 17:00,ZGSZ 121700Z 10003MPS 080V140 9999 BKN050 18/12 Q1018 NOSIG
ZGSZ,2017-12-12 18:00,ZGSZ 121800Z 08001MPS 9999 BKN050 18/13 Q1017 NOSIG
ZGSZ,2017-12-12 19:00,ZGSZ 121900Z 00000MPS 9999 BKN050 18/13 Q1017 NOSIG
ZGSZ,2017-12-12 20:00,ZGSZ 122000Z 05003MPS 9999 SCT050 18/11 Q1017 NOSIG
ZGSZ,2017-12-12 21:00,ZGSZ 122100Z 05003MPS 9999 SCT050 18/12 Q1017 NOSIG
ZGSZ,2017-12-12 22:00,ZGSZ 122200Z 04002MPS 9999 BKN050 18/12 Q1017 NOSIG
ZGSZ,2017-12-12 23:00,ZGSZ 122300Z 00000MPS 9999 BKN050 18/12 Q1018 NOSIG
ZGSZ,2017-12-13 00:00,ZGSZ 130000Z 36002MPS 9999 BKN050 18/12 Q1019 NOSIG
ZGSZ,2017-12-13 01:00,ZGSZ 130100Z 01002MPS 9999 OVC043 19/12 Q1019 NOSIG
ZGSZ,2017-12-13 02:00,ZGSZ 130200Z 06003MPS 8000 OVC043 19/11 Q1019 NOSIG
ZGSZ,2017-12-13 03:00,ZGSZ 130300Z 02003MPS 330V080 8000 OVC043 19/11 Q1020 NOSIG
ZGSZ,2017-12-13 04:00,ZGSZ 130400Z 03003MPS 8000 OVC043 19/12 Q1019 NOSIG
ZGSZ,2017-12-13 05:00,ZGSZ 130500Z 05004MPS 8000 BKN043 20/13 Q1018 NOSIG
ZGSZ,2017-12-13 06:00,ZGSZ 130600Z 06003MPS 010V130 8000 BKN050 20/12 Q1016 NOSIG
ZGSZ,2017-12-13 07:00,ZGSZ 130700Z 05003MPS 8000 BKN043 20/13 Q1016 NOSIG
ZGSZ,2017-12-13 08:00,ZGSZ 130800Z 07003MPS 020V120 8000 OVC043 21/13 Q1016 NOSIG
ZGSZ,2017-12-13 09:00,ZGSZ 130900Z 06003MPS 030V110 8000 OVC043 20/13 Q1016 NOSIG
ZGSZ,2017-12-13 10:00,ZGSZ 131000Z 06004MPS 030V160 9999 OVC036 20/13 Q1016 NOSIG
ZGSZ,2017-12-13 11:00,ZGSZ 131100Z 06004MPS 030V100 9999 OVC036 20/13 Q1017 NOSIG
ZGSZ,2017-12-13 12:00,ZGSZ 131200Z 05004MPS 010V160 8000 BKN033 19/13 Q1018 NOSIG
ZGSZ,2017-12-13 13:00,ZGSZ 131300Z 08004MPS 8000 BKN040 19/13 Q1018 NOSIG
ZGSZ,2017-12-13 14:00,ZGSZ 131400Z 05003MPS 8000 BKN050 19/13 Q1018 NOSIG
ZGSZ,2017-12-13 15:00,ZGSZ 131500Z 10003MPS 070V140 8000 SCT023 19/14 Q1018 NOSIG
ZGSZ,2017-12-13 16:00,ZGSZ 131600Z 10002MPS 9999 SCT023 19/15 Q1018 NOSIG
ZGSZ,2017-12-13 17:00,ZGSZ 131700Z 03001MPS CAVOK 18/15 Q1018 NOSIG
ZGSZ,2017-12-13 18:00,ZGSZ 131800Z 03002MPS 340V080 9999 FEW023 19/14 Q1017 NOSIG
ZGSZ,2017-12-13 19:00,ZGSZ 131900Z 03003MPS 7000 FEW023 19/14 Q1017 NOSIG
ZGSZ,2017-12-13 20:00,ZGSZ 132000Z 03003MPS 7000 OVC023 18/14 Q1017 NOSIG
ZGSZ,2017-12-13 21:00,ZGSZ 132100Z 03004MPS 5000 BR OVC023 18/14 Q1017 NOSIG
ZGSZ,2017-12-13 22:00,ZGSZ 132200Z 06004MPS 8000 OVC023 18/14 Q1017 NOSIG
ZGSZ,2017-12-13 23:00,ZGSZ 132300Z 01003MPS 340V040 8000 NSC 18/14 Q1018 NOSIG
ZGSZ,2017-12-14 00:00,ZGSZ 140000Z 03002MPS 360V060 6000 FEW033 18/14 Q1019 NOSIG
ZGSZ,2017-12-14 01:00,ZGSZ 140100Z 36004MPS 5000 HZ BKN033 19/14 Q1020 NOSIG
ZGSZ,2017-12-14 02:00,ZGSZ 140200Z 04004MPS 010V080 7000 BKN033 20/14 Q1020 NOSIG
ZGSZ,2017-12-14 03:00,ZGSZ 140300Z 02004MPS 7000 BKN033 21/14 Q1020 NOSIG
ZGSZ,2017-12-14 04:00,ZGSZ 140400Z 36005MPS 7000 BKN033 22/15 Q1019 NOSIG
ZGSZ,2017-12-14 05:00,ZGSZ 140500Z 04005MPS 7000 BKN033 22/14 Q1018 NOSIG
ZGSZ,2017-12-14 06:00,ZGSZ 140600Z 02004MPS 7000 BKN033 23/15 Q1017 NOSIG
ZGSZ,2017-12-14 07:00,ZGSZ 140700Z 02004MPS 7000 BKN033 23/15 Q1016 NOSIG
ZGSZ,2017-12-14 08:00,ZGSZ 140800Z 04004MPS 7000 NSC 22/15 Q1016 NOSIG
ZGSZ,2017-12-14 09:00,ZGSZ 140900Z 36004MPS 8000 FEW033 22/15 Q1016 NOSIG
ZGSZ,2017-12-14 10:00,ZGSZ 141000Z 02004MPS 5000 HZ SCT033 21/15 Q1017 NOSIG
ZGSZ,2017-12-14 11:00,ZGSZ 141100Z 02004MPS 5000 HZ SCT033 21/15 Q1018 NOSIG
ZGSZ,2017-12-14 12:00,ZGSZ 141200Z 03003MPS 6000 SCT033 20/15 Q1018 NOSIG
ZGSZ,2017-12-14 13:00,ZGSZ 141300Z 06002MPS 030V090 7000 SCT030 20/15 Q1019 NOSIG
ZGSZ,2017-12-14 14:00,ZGSZ 141400Z 06002MPS 7000 SCT030 20/15 Q1019 NOSIG
ZGSZ,2017-12-14 15:00,ZGSZ 141500Z 19002MPS 170V230 7000 SCT030 20/16 Q1019 NOSIG
ZGSZ,2017-12-14 16:00,ZGSZ 141600Z 30003MPS 6000 BKN024 19/16 Q1018 NOSIG
ZGSZ,2017-12-14 17:00,ZGSZ 141700Z 01004MPS 330V040 6000 BKN024 19/14 Q1018 NOSIG
ZGSZ,2017-12-14 18:00,ZGSZ 141800Z 04004MPS 6000 BKN024 19/14 Q1018 NOSIG
ZGSZ,2017-12-14 19:00,ZGSZ 141900Z 03004MPS 6000 BKN024 19/14 Q1018 NOSIG
ZGSZ,2017-12-14 20:00,ZGSZ 142000Z 04003MPS 9999 BKN024 18/14 Q1018 NOSIG
ZGSZ,2017-12-14 21:00,ZGSZ 142100Z 04003MPS 9999 BKN024 18/14 Q1018 NOSIG
ZGSZ,2017-12-14 22:00,ZGSZ 142200Z 05003MPS 9999 BKN024 18/14 Q1018 NOSIG
ZGSZ,2017-12-14 23:00,ZGSZ 142300Z 05003MPS 7000 SCT024 18/14 Q1019 NOSIG
ZGSZ,2017-12-15 00:00,ZGSZ 150000Z 05003MPS 8000 BKN022 19/15 Q1020 NOSIG
ZGSZ,2017-12-15 01:00,ZGSZ 150100Z 04003MPS 360V070 6000 BKN022 19/14 Q1021 NOSIG
ZGSZ,2017-12-15 02:00,ZGSZ 150200Z 06004MPS 7000 BKN022 20/15 Q1021 NOSIG
ZGSZ,2017-12-15 03:00,ZGSZ 150300Z 03003MPS 360V070 8000 BKN029 21/15 Q1021 NOSIG
ZGSZ,2017-12-15 04:00,ZGSZ 150400Z 02002MPS 330V060 8000 BKN033 21/15 Q1020 NOSIG
ZGSZ,2017-12-15 05:00,ZGSZ 150500Z 29004MPS 8000 BKN033 21/15 Q1019 NOSIG
ZGSZ,2017-12-15 06:00,ZGSZ 150600Z 30005MPS 6000 BKN033 21/15 Q1018 NOSIG
ZGSZ,2017-12-15 07:00,ZGSZ 150700Z 30005MPS 5000 HZ BKN033 21/16 Q1017 NOSIG
ZGSZ,2017-12-15 08:00,ZGSZ 150800Z 30006MPS 5000 HZ BKN033 21/16 Q1017 NOSIG
ZGSZ,2017-12-15 09:00,ZGSZ 150900Z 31006MPS 5000 BR BKN033 20/15 Q1018 NOSIG
ZGSZ,2017-12-15 10:00,ZGSZ 151000Z 32004MPS 5000 HZ BKN033 20/15 Q1018 NOSIG
ZGSZ,2017-12-15 11:00,ZGSZ 151100Z 33006MPS 5000 HZ BKN033 19/14 Q1019 NOSIG
ZGSZ,2017-12-15 12:00,ZGSZ 151200Z 33006MPS 5000 HZ BKN033 18/13 Q1020 NOSIG
ZGSZ,2017-12-15 13:00,ZGSZ 151300Z 32005MPS 5000 HZ BKN033 18/13 Q1021 NOSIG
ZGSZ,2017-12-15 14:00,ZGSZ 151400Z 32006MPS 8000 FEW033 17/13 Q1021 NOSIG
ZGSZ,2017-12-15 15:00,ZGSZ 151500Z 32006MPS 9999 FEW033 17/13 Q1021 NOSIG
ZGSZ,2017-12-15 16:00,ZGSZ 151600Z 33006MPS 9999 FEW033 17/12 Q1022 NOSIG
ZGSZ,2017-12-15 17:00,ZGSZ 151700Z 33006MPS 9999 FEW033 16/12 Q1022 NOSIG
ZGSZ,2017-12-15 18:00,ZGSZ 151800Z 33006MPS 9999 FEW033 16/12 Q1022 NOSIG
ZGSZ,2017-12-15 19:00,ZGSZ 151900Z 33006MPS 9999 FEW033 15/11 Q1021 NOSIG
ZGSZ,2017-12-15 20:00,ZGSZ 152000Z 33007MPS 9999 FEW033 15/11 Q1022 NOSIG
ZGSZ,2017-12-15 21:00,ZGSZ 152100Z 35008MPS 9999 FEW033 15/11 Q1022 NOSIG
ZGSZ,2017-12-15 22:00,ZGSZ 152200Z 01008MPS 9999 FEW033 15/11 Q1022 NOSIG
ZGSZ,2017-12-15 23:00,ZGSZ 152300Z 01006MPS 9999 FEW033 15/10 Q1023 NOSIG
ZGSZ,2017-12-16 00:00,ZGSZ 160000Z 34007MPS 9999 SCT030 14/10 Q1025 NOSIG
ZGSZ,2017-12-16 01:00,ZGSZ 160100Z 02006MPS 9999 BKN030 14/08 Q1026 NOSIG
ZGSZ,2017-12-16 02:00,ZGSZ 160200Z 03008MPS 9999 BKN030 15/08 Q1026 NOSIG
ZGSZ,2017-12-16 03:00,ZGSZ 160300Z 01008MPS 9999 BKN030 15/07 Q1026 NOSIG
ZGSZ,2017-12-16 04:00,ZGSZ 160400Z 01009MPS 9999 SCT036 16/07 Q1026 NOSIG
ZGSZ,2017-12-16 05:00,ZGSZ 160500Z 36008MPS 330V030 9999 SCT036 16/07 Q1025 NOSIG
ZGSZ,2017-12-16 06:00,ZGSZ 160600Z 36008MPS 9999 SCT036 16/07 Q1024 NOSIG
ZGSZ,2017-12-16 07:00,ZGSZ 160700Z 02009MPS 9999 SCT036 15/06 Q1024 NOSIG
ZGSZ,2017-12-16 08:00,ZGSZ 160800Z 02010MPS 9999 SCT040 14/05 Q1024 NOSIG
ZGSZ,2017-12-16 09:00,ZGSZ 160900Z 01010MPS 9999 BKN040 14/05 Q1025 NOSIG
ZGSZ,2017-12-16 10:00,ZGSZ 161000Z 03009MPS 9999 BKN040 13/04 Q1025 NOSIG
ZGSZ,2017-12-16 11:00,ZGSZ 161100Z 01008MPS 9999 FEW040 13/04 Q1026 NOSIG
ZGSZ,2017-12-16 12:00,ZGSZ 161200Z 36009MPS CAVOK 12/04 Q1026 NOSIG
ZGSZ,2017-12-16 13:00,ZGSZ 161300Z 01010MPS 9999 BKN036 12/04 Q1027 NOSIG
ZGSZ,2017-12-16 14:00,ZGSZ 161400Z 02010MPS 9999 BKN036 12/04 Q1027 NOSIG
ZGSZ,2017-12-16 15:00,ZGSZ 161500Z 01008G14MPS 9999 BKN036 12/04 Q1027 NOSIG
ZGSZ,2017-12-16 16:00,ZGSZ 161600Z 01009MPS 9999 BKN036 12/04 Q1027 NOSIG
ZGSZ,2017-12-16 17:00,ZGSZ 161700Z 01009MPS 9999 BKN036 11/04 Q1028 NOSIG
ZGSZ,2017-12-16 18:00,ZGSZ 161800Z 02008MPS 9999 BKN040 11/04 Q1027 NOSIG
ZGSZ,2017-12-16 19:00,ZGSZ 161900Z 01008MPS 9999 BKN040 11/04 Q1027 NOSIG
ZGSZ,2017-12-16 20:00,ZGSZ 162000Z 02008MPS 9999 BKN033 11/04 Q1027 NOSIG
ZGSZ,2017-12-16 21:00,ZGSZ 162100Z 01008MPS 9999 BKN036 11/04 Q1027 NOSIG
ZGSZ,2017-12-16 22:00,ZGSZ 162200Z 01007MPS 9999 BKN036 11/04 Q1027 NOSIG
ZGSZ,2017-12-16 23:00,ZGSZ 162300Z 02008MPS 9999 FEW020 OVC036 11/03 Q1028 NOSIG
ZGSZ,2017-12-17 00:00,ZGSZ 170000Z 02008MPS 9999 FEW020 OVC036 11/04 Q1028 NOSIG
ZGSZ,2017-12-17 01:00,ZGSZ 170100Z 36007MPS 9999 FEW020 OVC040 11/03 Q1029 NOSIG
ZGSZ,2017-12-17 02:00,ZGSZ 170200Z 02007MPS 9999 FEW020 OVC040 11/03 Q1030 NOSIG
ZGSZ,2017-12-17 03:00,ZGSZ 170300Z 01007MPS 9999 FEW020 OVC040 11/03 Q1030 NOSIG
ZGSZ,2017-12-17 04:00,ZGSZ 170400Z 02007MPS 9999 FEW020 OVC040 12/03 Q1029 NOSIG
ZGSZ,2017-12-17 05:00,ZGSZ 170500Z 02007MPS 9999 FEW020 OVC040 12/03 Q1028 NOSIG
ZGSZ,2017-12-17 06:00,ZGSZ 170600Z 36008MPS 9999 FEW020 OVC040 12/03 Q1027 NOSIG
ZGSZ,2017-12-17 07:00,ZGSZ 170700Z 01008MPS 9999 OVC050 12/03 Q1026 NOSIG
ZGSZ,2017-12-17 08:00,ZGSZ 170800Z 02006MPS 8000 OVC050 12/03 Q1026 NOSIG
ZGSZ,2017-12-17 09:00,ZGSZ 170900Z 03006MPS 8000 OVC053 12/03 Q1026 NOSIG
ZGSZ,2017-12-17 10:00,ZGSZ 171000Z 02006MPS 8000 BKN053 11/03 Q1027 NOSIG
ZGSZ,2017-12-17 11:00,ZGSZ 171100Z 02006MPS 8000 NSC 11/03 Q1027 NOSIG
ZGSZ,2017-12-17 12:00,ZGSZ 171200Z 02006MPS 8000 NSC 11/03 Q1027 NOSIG
ZGSZ,2017-12-17 13:00,ZGSZ 171300Z 02006MPS 8000 NSC 10/03 Q1028 NOSIG
ZGSZ,2017-12-17 14:00,ZGSZ 171400Z 02007MPS 7000 NSC 10/02 Q1027 NOSIG
ZGSZ,2017-12-17 15:00,ZGSZ 171500Z 01007MPS 7000 NSC 09/02 Q1028 NOSIG
ZGSZ,2017-12-17 16:00,ZGSZ 171600Z 01007MPS 7000 NSC 09/01 Q1028 NOSIG
ZGSZ,2017-12-17 17:00,ZGSZ 171700Z 02007MPS 7000 NSC 09/00 Q1028 NOSIG
ZGSZ,2017-12-17 18:00,ZGSZ 171800Z 03007MPS 7000 NSC 08/00 Q1028 NOSIG
ZGSZ,2017-12-17 19:00,ZGSZ 171900Z 02006MPS 7000 NSC 08/M00 Q1027 NOSIG
ZGSZ,2017-12-17 20:00,ZGSZ 172000Z 02006MPS 6000 NSC 08/00 Q1027 NOSIG
ZGSZ,2017-12-17 21:00,ZGSZ 172100Z 02006MPS 6000 NSC 08/00 Q1027 NOSIG
ZGSZ,2017-12-17 22:00,ZGSZ 172200Z 01004MPS 6000 NSC 07/M00 Q1027 NOSIG
ZGSZ,2017-12-17 23:00,ZGSZ 172300Z 36006MPS 5000 HZ NSC 07/M00 Q1028 NOSIG
ZGSZ,2017-12-18 00:00,ZGSZ 180000Z 01006MPS 6000 NSC 08/M01 Q1028 NOSIG
ZGSZ,2017-12-18 01:00,ZGSZ 180100Z 01007MPS 6000 NSC 10/M01 Q1029 NOSIG
ZGSZ,2017-12-18 02:00,ZGSZ 180200Z 01006MPS 6000 NSC 12/M01 Q1029 NOSIG
ZGSZ,2017-12-18 03:00,ZGSZ 180300Z 02006MPS 6000 NSC 13/M00 Q1028 NOSIG
ZGSZ,2017-12-18 04:00,ZGSZ 180400Z 34006MPS 310V020 6000 NSC 14/00 Q1027 NOSIG
ZGSZ,2017-12-18 05:00,ZGSZ 180500Z 36005MPS 330V040 8000 NSC 15/M00 Q1025 NOSIG
ZGSZ,2017-12-18 06:00,ZGSZ 180600Z 35005MPS 320V020 CAVOK 15/M01 Q1024 NOSIG
ZGSZ,2017-12-18 07:00,ZGSZ 180700Z 34005MPS 300V020 CAVOK 16/M00 Q1023 NOSIG
ZGSZ,2017-12-18 08:00,ZGSZ 180800Z 01006MPS CAVOK 16/M01 Q1023 NOSIG
ZGSZ,2017-12-18 09:00,ZGSZ 180900Z 36005MPS CAVOK 16/M01 Q1024 NOSIG
ZGSZ,2017-12-18 10:00,ZGSZ 181000Z 34004MPS CAVOK 14/00 Q1024 NOSIG
ZGSZ,2017-12-18 11:00,ZGSZ 181100Z 34004MPS CAVOK 13/M01 Q1025 NOSIG
ZGSZ,2017-12-18 12:00,ZGSZ 181200Z 35004MPS CAVOK 13/M01 Q1026 NOSIG
ZGSZ,2017-12-18 13:00,ZGSZ 181300Z 35004G09MPS 320V050 CAVOK 13/M01 Q1026 NOSIG
ZGSZ,2017-12-18 14:00,ZGSZ 181400Z 36005MPS CAVOK 13/M02 Q1027 NOSIG
ZGSZ,2017-12-18 15:00,ZGSZ 181500Z 02006MPS CAVOK 12/M04 Q1027 NOSIG
ZGSZ,2017-12-18 16:00,ZGSZ 181600Z 01006MPS CAVOK 11/M05 Q1027 NOSIG
ZGSZ,2017-12-18 17:00,ZGSZ 181700Z 01006MPS CAVOK 11/M07 Q1027 NOSIG
ZGSZ,2017-12-18 18:00,ZGSZ 181800Z 01005MPS CAVOK 11/M08 Q1027 NOSIG
ZGSZ,2017-12-18 19:00,ZGSZ 181900Z 01006MPS CAVOK 10/M08 Q1027 NOSIG
ZGSZ,2017-12-18 20:00,ZGSZ 182000Z 01006MPS CAVOK 10/M08 Q1027 NOSIG
ZGSZ,2017-12-18 21:00,ZGSZ 182100Z 01007MPS CAVOK 09/M07 Q1027 NOSIG
ZGSZ,2017-12-18 22:00,ZGSZ 182200Z 01006MPS CAVOK 09/M07 Q1027 NOSIG
ZGSZ,2017-12-18 23:00,ZGSZ 182300Z 36006MPS CAVOK 09/M07 Q1027 NOSIG
ZGSZ,2017-12-19 00:00,ZGSZ 190000Z 01007MPS CAVOK 10/M06 Q1028 NOSIG
ZGSZ,2017-12-19 01:00,ZGSZ 190100Z 02007MPS CAVOK 11/M07 Q1028 NOSIG
ZGSZ,2017-12-19 02:00,ZGSZ 190200Z 02008MPS CAVOK 12/M06 Q1029 NOSIG
ZGSZ,2017-12-19 03:00,ZGSZ 190300Z 02006MPS CAVOK 14/M04 Q1028 NOSIG
ZGSZ,2017-12-19 04:00,ZGSZ 190400Z 02007MPS CAVOK 15/M04 Q1027 NOSIG
ZGSZ,2017-12-19 05:00,ZGSZ 190500Z 01008MPS CAVOK 16/M03 Q1026 NOSIG
ZGSZ,2017-12-19 06:00,ZGSZ 190600Z 36006MPS 310V040 CAVOK 17/M03 Q1024 NOSIG
ZGSZ,2017-12-19 07:00,ZGSZ 190700Z 02006MPS 340V040 CAVOK 17/M04 Q1024 NOSIG
ZGSZ,2017-12-19 08:00,ZGSZ 190800Z 01007MPS CAVOK 17/M04 Q1024 NOSIG
ZGSZ,2017-12-19 09:00,ZGSZ 190900Z 36007MPS 330V030 CAVOK 17/M04 Q1024 NOSIG
ZGSZ,2017-12-19 10:00,ZGSZ 191000Z 01005MPS CAVOK 16/M04 Q1025 NOSIG
ZGSZ,2017-12-19 11:00,ZGSZ 191100Z 02006MPS CAVOK 16/M04 Q1025 NOSIG
ZGSZ,2017-12-19 12:00,ZGSZ 191200Z 03004MPS CAVOK 15/M03 Q1026 NOSIG
ZGSZ,2017-12-19 13:00,ZGSZ 191300Z 03006G11MPS CAVOK 15/M03 Q1027 NOSIG
ZGSZ,2017-12-19 14:00,ZGSZ 191400Z 02008MPS 310V040 CAVOK 15/M05 Q1028 NOSIG
ZGSZ,2017-12-19 15:00,ZGSZ 191500Z 02008MPS CAVOK 14/M05 Q1028 NOSIG
ZGSZ,2017-12-19 16:00,ZGSZ 191600Z 01008MPS CAVOK 14/M05 Q1029 NOSIG
ZGSZ,2017-12-19 17:00,ZGSZ 191700Z 01008MPS CAVOK 13/M05 Q1029 NOSIG
ZGSZ,2017-12-19 18:00,ZGSZ 191800Z 02009MPS CAVOK 13/M05 Q1029 NOSIG
ZGSZ,2017-12-19 19:00,ZGSZ 191900Z 01007MPS CAVOK 12/M04 Q1028 NOSIG
ZGSZ,2017-12-19 20:00,ZGSZ 192000Z 02006MPS 350V050 CAVOK 11/M04 Q1029 NOSIG
ZGSZ,2017-12-19 21:00,ZGSZ 192100Z 01006MPS CAVOK 11/M04 Q1028 NOSIG
ZGSZ,2017-12-19 22:00,ZGSZ 192200Z 01006MPS CAVOK 11/M04 Q1028 NOSIG
ZGSZ,2017-12-19 23:00,ZGSZ 192300Z 03004MPS 010V090 CAVOK 11/M04 Q1029 NOSIG
ZGSZ,2017-12-20 00:00,ZGSZ 200000Z 02003MPS 360V090 CAVOK 11/M03 Q1030 NOSIG
ZGSZ,2017-12-20 01:00,ZGSZ 200100Z 01006MPS CAVOK 13/M03 Q1030 NOSIG
ZGSZ,2017-12-20 02:00,ZGSZ 200200Z 01007MPS CAVOK 14/M04 Q1030 NOSIG
ZGSZ,2017-12-20 03:00,ZGSZ 200300Z 01006MPS CAVOK 15/M04 Q1030 NOSIG
ZGSZ,2017-12-20 04:00,ZGSZ 200400Z 01006MPS CAVOK 17/M03 Q1029 NOSIG
ZGSZ,2017-12-20 05:00,ZGSZ 200500Z 01007MPS CAVOK 18/M03 Q1028 NOSIG
ZGSZ,2017-12-20 06:00,ZGSZ 200600Z 02006MPS 340V040 CAVOK 19/M05 Q1027 NOSIG
ZGSZ,2017-12-20 07:00,ZGSZ 200700Z 02008MPS CAVOK 20/M04 Q1026 NOSIG
ZGSZ,2017-12-20 08:00,ZGSZ 200800Z 02008MPS CAVOK 19/M06 Q1026 NOSIG
ZGSZ,2017-12-20 09:00,ZGSZ 200900Z 02007MPS CAVOK 19/M05 Q1026 NOSIG
ZGSZ,2017-12-20 10:00,ZGSZ 201000Z 02004MPS CAVOK 17/M04 Q1026 NOSIG
ZGSZ,2017-12-20 11:00,ZGSZ 201100Z 02004MPS CAVOK 16/M04 Q1026 NOSIG
ZGSZ,2017-12-20 12:00,ZGSZ 201200Z 02004MPS CAVOK 16/M04 Q1027 NOSIG
ZGSZ,2017-12-20 13:00,ZGSZ 201300Z 02004MPS CAVOK 15/M04 Q1028 NOSIG
ZGSZ,2017-12-20 14:00,ZGSZ 201400Z 36003MPS CAVOK 14/M04 Q1028 NOSIG
ZGSZ,2017-12-20 15:00,ZGSZ 201500Z 01004MPS CAVOK 14/M03 Q1028 NOSIG
ZGSZ,2017-12-20 16:00,ZGSZ 201600Z 01006MPS 340V040 CAVOK 14/M03 Q1028 NOSIG
ZGSZ,2017-12-20 17:00,ZGSZ 201700Z 03003MPS CAVOK 13/M03 Q1028 NOSIG
ZGSZ,2017-12-20 18:00,ZGSZ 201800Z 01007MPS CAVOK 12/M03 Q1027 NOSIG
ZGSZ,2017-12-20 19:00,ZGSZ 201900Z 02004MPS CAVOK 12/M03 Q1027 NOSIG
ZGSZ,2017-12-20 20:00,ZGSZ 202000Z 02005MPS CAVOK 12/M03 Q1027 NOSIG
ZGSZ,2017-12-20 21:00,ZGSZ 202100Z 02006MPS CAVOK 12/M03 Q1027 NOSIG
ZGSZ,2017-12-20 22:00,ZGSZ 202200Z 03005MPS 360V060 CAVOK 11/M03 Q1027 NOSIG
ZGSZ,2017-12-20 23:00,ZGSZ 202300Z 02004MPS 360V060 CAVOK 11/M03 Q1027 NOSIG
ZGSZ,2017-12-21 00:00,ZGSZ 210000Z 03005MPS 360V070 CAVOK 12/M04 Q1027 NOSIG
ZGSZ,2017-12-21 01:00,ZGSZ 210100Z 04005MPS 010V070 CAVOK 13/M05 Q1028 NOSIG
ZGSZ,2017-12-21 02:00,ZGSZ 210200Z 01005MPS CAVOK 15/M05 Q1028 NOSIG
ZGSZ,2017-12-21 03:00,ZGSZ 210300Z 04004MPS 350V080 CAVOK 16/M06 Q1027 NOSIG
ZGSZ,2017-12-21 04:00,ZGSZ 210400Z 04004MPS 010V070 CAVOK 18/M04 Q1026 BECMG AT0540 33005MPS
ZGSZ,2017-12-21 05:00,ZGSZ 210500Z 34004MPS 310V010 CAVOK 19/M04 Q1025 NOSIG
ZGSZ,2017-12-21 06:00,ZGSZ 210600Z 36005MPS CAVOK 20/M04 Q1024 NOSIG
ZGSZ,2017-12-21 07:00,ZGSZ 210700Z 31005MPS 280V350 CAVOK 19/02 Q1023 NOSIG
ZGSZ,2017-12-21 08:00,ZGSZ 210800Z 30005MPS CAVOK 18/01 Q1023 BECMG AT0950 07005MPS
ZGSZ,2017-12-21 09:00,ZGSZ 210900Z 32003MPS CAVOK 18/01 Q1023 NOSIG
ZGSZ,2017-12-21 10:00,ZGSZ 211000Z 03002MPS CAVOK 17/M01 Q1024 NOSIG
ZGSZ,2017-12-21 11:00,ZGSZ 211100Z 14005MPS CAVOK 16/03 Q1024 NOSIG
ZGSZ,2017-12-21 12:00,ZGSZ 211200Z 11004MPS CAVOK 16/04 Q1024 NOSIG
ZGSZ,2017-12-21 13:00,ZGSZ 211300Z 12004MPS CAVOK 15/06 Q1025 NOSIG
ZGSZ,2017-12-21 14:00,ZGSZ 211400Z 12003MPS CAVOK 15/08 Q1024 NOSIG
ZGSZ,2017-12-21 15:00,ZGSZ 211500Z 11003MPS CAVOK 15/09 Q1024 NOSIG
ZGSZ,2017-12-21 16:00,ZGSZ 211600Z 07002MPS 040V120 CAVOK 15/08 Q1024 NOSIG
ZGSZ,2017-12-21 18:00,ZGSZ 211800Z 05003MPS 360V120 CAVOK 15/09 Q1023 NOSIG
ZGSZ,2017-12-21 19:00,ZGSZ 211900Z 04004MPS CAVOK 15/09 Q1023 NOSIG
ZGSZ,2017-12-21 20:00,ZGSZ 212000Z 05003MPS 020V120 CAVOK 14/08 Q1023 NOSIG
ZGSZ,2017-12-21 21:00,ZGSZ 212100Z VRB01MPS CAVOK 14/08 Q1022 NOSIG
ZGSZ,2017-12-21 22:00,ZGSZ 212200Z VRB01MPS CAVOK 14/07 Q1023 NOSIG
ZGSZ,2017-12-21 23:00,ZGSZ 212300Z 05003MPS 360V100 CAVOK 14/06 Q1023 NOSIG
ZGSZ,2017-12-22 00:00,ZGSZ 220000Z 03003MPS 350V060 CAVOK 15/07 Q1023 NOSIG
ZGSZ,2017-12-22 01:00,ZGSZ 220100Z 04003MPS 350V070 8000 NSC 16/06 Q1023 NOSIG
ZGSZ,2017-12-22 02:00,ZGSZ 220200Z 04004MPS 010V070 8000 NSC 18/04 Q1023 NOSIG
ZGSZ,2017-12-22 03:00,ZGSZ 220300Z 01004MPS 340V060 8000 NSC 19/05 Q1023 NOSIG
ZGSZ,2017-12-22 04:00,ZGSZ 220400Z 03004MPS 340V070 8000 NSC 21/05 Q1021 NOSIG
ZGSZ,2017-12-22 05:00,ZGSZ 220500Z 01003MPS 310V050 CAVOK 21/03 Q1020 BECMG AT0640 30005MPS
ZGSZ,2017-12-22 06:00,ZGSZ 220600Z 02003MPS 320V050 CAVOK 22/04 Q1019 BECMG AT0740 30005MPS
ZGSZ,2017-12-22 07:00,ZGSZ 220700Z 02003MPS 340V070 CAVOK 23/04 Q1018 NOSIG
ZGSZ,2017-12-22 08:00,ZGSZ 220800Z 26002MPS 220V280 CAVOK 21/07 Q1018 NOSIG
ZGSZ,2017-12-22 09:00,ZGSZ 220900Z 22002MPS 180V240 CAVOK 19/10 Q1018 BECMG AT1040 11005MPS
ZGSZ,2017-12-22 10:00,ZGSZ 221000Z 17003MPS CAVOK 18/13 Q1019 BECMG AT1120 11005MPS
ZGSZ,2017-12-22 11:00,ZGSZ 221100Z 16003MPS 8000 NSC 17/11 Q1019 NOSIG
ZGSZ,2017-12-22 12:00,ZGSZ 221200Z 16002MPS 7000 NSC 17/13 Q1019 NOSIG
ZGSZ,2017-12-22 13:00,ZGSZ 221300Z 00000MPS 7000 NSC 16/12 Q1019 NOSIG
ZGSZ,2017-12-22 14:00,ZGSZ 221400Z VRB01MPS 7000 NSC 17/08 Q1019 NOSIG
ZGSZ,2017-12-22 15:00,ZGSZ 221500Z VRB01MPS 7000 NSC 17/07 Q1019 NOSIG
ZGSZ,2017-12-22 16:00,ZGSZ 221600Z 12002MPS 7000 NSC 17/08 Q1019 NOSIG
ZGSZ,2017-12-22 17:00,ZGSZ 221700Z 08002MPS 040V110 8000 NSC 17/08 Q1019 NOSIG
ZGSZ,2017-12-22 18:00,ZGSZ 221800Z VRB01MPS 8000 NSC 17/09 Q1019 NOSIG
ZGSZ,2017-12-22 19:00,ZGSZ 221900Z 02002MPS 7000 BKN053 16/10 Q1018 NOSIG
ZGSZ,2017-12-22 20:00,ZGSZ 222000Z 04003MPS 010V100 8000 BKN053 17/11 Q1018 NOSIG
ZGSZ,2017-12-22 21:00,ZGSZ 222100Z 03003MPS 8000 BKN050 17/11 Q1018 NOSIG
ZGSZ,2017-12-22 22:00,ZGSZ 222200Z 03003MPS 8000 BKN050 17/11 Q1018 NOSIG
ZGSZ,2017-12-22 23:00,ZGSZ 222300Z 02002MPS 8000 BKN050 17/11 Q1018 NOSIG
ZGSZ,2017-12-23 00:00,ZGSZ 230000Z 02003MPS 7000 BKN050 17/11 Q1018 NOSIG
ZGSZ,2017-12-23 01:00,ZGSZ 230100Z 04003MPS 7000 BKN050 18/11 Q1019 NOSIG
ZGSZ,2017-12-23 02:00,ZGSZ 230200Z 04003MPS 7000 BKN050 19/11 Q1019 NOSIG
ZGSZ,2017-12-23 03:00,ZGSZ 230300Z 05002MPS 010V180 8000 BKN050 21/11 Q1019 NOSIG
ZGSZ,2017-12-23 04:00,ZGSZ 230400Z 24002MPS 7000 BKN050 20/12 Q1017 NOSIG
ZGSZ,2017-12-23 05:00,ZGSZ 230500Z 28003MPS 5000 HZ BKN050 20/12 Q1017 NOSIG
ZGSZ,2017-12-23 06:00,ZGSZ 230600Z 27002MPS 5000 HZ BKN050 20/13 Q1016 NOSIG
ZGSZ,2017-12-23 07:00,ZGSZ 230700Z 27001MPS 5000 HZ BKN050 20/12 Q1015 NOSIG
ZGSZ,2017-12-23 08:00,ZGSZ 230800Z 18002MPS 6000 SCT043 20/14 Q1015 BECMG AT0930 2800
ZGSZ,2017-12-23 09:00,ZGSZ 230900Z 20002MPS 5000 HZ SCT043 20/14 Q1015 BECMG AT0930 2800
ZGSZ,2017-12-23 10:00,ZGSZ 231000Z 00000MPS 4000 HZ NSC 19/13 Q1016 NOSIG
ZGSZ,2017-12-23 11:00,ZGSZ 231100Z 00000MPS 5000 HZ NSC 19/14 Q1016 NOSIG
ZGSZ,2017-12-23 12:00,ZGSZ 231200Z 35002MPS 5000 HZ NSC 20/14 Q1017 NOSIG
ZGSZ,2017-12-23 13:00,ZGSZ 231300Z 00000MPS 4000 BR NSC 18/15 Q1017 NOSIG
ZGSZ,2017-12-23 14:00,ZGSZ 231400Z 02001MPS 4000 HZ NSC 20/12 Q1017 BECMG AT1530 2800
ZGSZ,2017-12-23 15:00,ZGSZ 231500Z 36002MPS 4000 HZ NSC 20/12 Q1018 BECMG AT1530 2800
ZGSZ,2017-12-23 16:00,ZGSZ 231600Z 03002MPS 360V060 4500 HZ NSC 20/11 Q1018 NOSIG
ZGSZ,2017-12-23 17:00,ZGSZ 231700Z 32003MPS 4000 HZ NSC 19/14 Q1018 BECMG AT1830 2800
ZGSZ,2017-12-23 18:00,ZGSZ 231800Z 30003MPS 4000 BR NSC 18/15 Q1018 BECMG AT1830 2800
ZGSZ,2017-12-23 19:00,ZGSZ 231900Z 33002MPS 2900 BR NSC 17/13 Q1018 BECMG AT2030 4000
ZGSZ,2017-12-23 20:00,ZGSZ 232000Z 34002MPS 2900 HZ NSC 16/12 Q1018 BECMG AT2030 4000
ZGSZ,2017-12-23 21:00,ZGSZ 232100Z 32002MPS 2800 HZ NSC 17/12 Q1018 BECMG AT2230 4000
ZGSZ,2017-12-23 22:00,ZGSZ 232200Z 34002MPS 2800 BR NSC 16/11 Q1018 BECMG AT2230 4000
ZGSZ,2017-12-23 23:00,ZGSZ 232300Z 33003MPS 2500 BR NSC 16/13 Q1019 BECMG AT0030 4000
ZGSZ,2017-12-24 00:00,ZGSZ 240000Z 01002MPS 2800 HZ NSC 17/12 Q1020 BECMG AT0030 4000
ZGSZ,2017-12-24 01:00,ZGSZ 240100Z 36004MPS 5000 HZ NSC 20/12 Q1020 NOSIG
ZGSZ,2017-12-24 02:00,ZGSZ 240200Z 02005MPS 8000 NSC 22/12 Q1021 NOSIG
ZGSZ,2017-12-24 03:00,ZGSZ 240300Z 02006MPS CAVOK 22/12 Q1020 NOSIG
ZGSZ,2017-12-24 04:00,ZGSZ 240400Z 01007MPS 340V040 CAVOK 24/11 Q1019 NOSIG
ZGSZ,2017-12-24 05:00,ZGSZ 240500Z 02007MPS CAVOK 24/10 Q1018 NOSIG
ZGSZ,2017-12-24 06:00,ZGSZ 240600Z 36006MPS 330V040 CAVOK 25/10 Q1017 NOSIG
ZGSZ,2017-12-24 07:00,ZGSZ 240700Z 02007MPS CAVOK 25/10 Q1016 NOSIG
ZGSZ,2017-12-24 08:00,ZGSZ 240800Z 01005MPS 340V040 CAVOK 25/09 Q1016 NOSIG
ZGSZ,2017-12-24 09:00,ZGSZ 240900Z 36006MPS CAVOK 24/07 Q1016 NOSIG
ZGSZ,2017-12-24 10:00,ZGSZ 241000Z 03004MPS CAVOK 23/07 Q1017 NOSIG
ZGSZ,2017-12-24 11:00,ZGSZ 241100Z 02005MPS CAVOK 22/05 Q1018 NOSIG
ZGSZ,2017-12-24 12:00,ZGSZ 241200Z 02005MPS 350V060 CAVOK 21/03 Q1018 NOSIG
ZGSZ,2017-12-24 13:00,ZGSZ 241300Z 01005MPS CAVOK 20/03 Q1019 NOSIG
ZGSZ,2017-12-24 14:00,ZGSZ 241400Z 03005MPS CAVOK 20/04 Q1020 NOSIG
ZGSZ,2017-12-24 15:00,ZGSZ 241500Z 03007MPS CAVOK 19/02 Q1020 NOSIG
ZGSZ,2017-12-24 16:00,ZGSZ 241600Z 03007MPS CAVOK 18/02 Q1019 NOSIG
ZGSZ,2017-12-24 17:00,ZGSZ 241700Z 03006MPS 360V060 CAVOK 17/02 Q1019 NOSIG
ZGSZ,2017-12-24 18:00,ZGSZ 241800Z 02005MPS CAVOK 17/02 Q1019 NOSIG
ZGSZ,2017-12-24 19:00,ZGSZ 241900Z 03005MPS CAVOK 16/02 Q1019 NOSIG
ZGSZ,2017-12-24 20:00,ZGSZ 242000Z 03006MPS CAVOK 16/01 Q1019 NOSIG
ZGSZ,2017-12-24 21:00,ZGSZ 242100Z 03006MPS CAVOK 15/01 Q1020 NOSIG
ZGSZ,2017-12-24 22:00,ZGSZ 242200Z 02005MPS 350V050 CAVOK 15/01 Q1020 NOSIG
ZGSZ,2017-12-24 23:00,ZGSZ 242300Z 02005MPS CAVOK 14/00 Q1021 NOSIG
ZGSZ,2017-12-25 00:00,ZGSZ 250000Z 02006MPS CAVOK 15/M00 Q1021 NOSIG
ZGSZ,2017-12-25 01:00,ZGSZ 250100Z 03005MPS CAVOK 16/M01 Q1022 NOSIG
ZGSZ,2017-12-25 02:00,ZGSZ 250200Z 04007MPS CAVOK 17/M03 Q1022 NOSIG
ZGSZ,2017-12-25 03:00,ZGSZ 250300Z 02005MPS CAVOK 19/M03 Q1022 NOSIG
ZGSZ,2017-12-25 04:00,ZGSZ 250400Z 03005MPS 350V060 CAVOK 20/M03 Q1021 NOSIG
ZGSZ,2017-12-25 05:00,ZGSZ 250500Z 02004MPS 350V060 CAVOK 21/M02 Q1020 NOSIG
ZGSZ,2017-12-25 06:00,ZGSZ 250600Z 35005MPS 320V020 CAVOK 22/M02 Q1018 NOSIG
ZGSZ,2017-12-25 07:00,ZGSZ 250700Z 01005MPS 320V040 CAVOK 22/M01 Q1018 NOSIG
ZGSZ,2017-12-25 08:00,ZGSZ 250800Z 35005MPS CAVOK 21/M00 Q1018 NOSIG
ZGSZ,2017-12-25 09:00,ZGSZ 250900Z 36004MPS CAVOK 20/00 Q1018 NOSIG
ZGSZ,2017-12-25 10:00,ZGSZ 251000Z 01004MPS 8000 NSC 19/M00 Q1019 NOSIG
ZGSZ,2017-12-25 11:00,ZGSZ 251100Z 05002MPS 8000 NSC 18/02 Q1019 NOSIG
ZGSZ,2017-12-25 12:00,ZGSZ 251200Z 06002MPS 8000 NSC 18/02 Q1020 NOSIG
ZGSZ,2017-12-25 13:00,ZGSZ 251300Z 09001MPS 7000 NSC 16/01 Q1020 NOSIG
ZGSZ,2017-12-25 14:00,ZGSZ 251400Z 10002MPS 8000 NSC 16/02 Q1021 NOSIG
ZGSZ,2017-12-25 15:00,ZGSZ 251500Z 10002MPS 8000 NSC 16/06 Q1020 NOSIG
ZGSZ,2017-12-25 16:00,ZGSZ 251600Z 09002MPS 070V130 8000 NSC 16/09 Q1020 NOSIG
ZGSZ,2017-12-25 17:00,ZGSZ 251700Z 09002MPS 7000 NSC 16/10 Q1020 NOSIG
ZGSZ,2017-12-25 18:00,ZGSZ 251800Z 08002MPS 7000 NSC 17/11 Q1020 NOSIG
ZGSZ,2017-12-25 19:00,ZGSZ 251900Z 05002MPS 7000 NSC 17/10 Q1020 NOSIG
ZGSZ,2017-12-25 20:00,ZGSZ 252000Z 04003MPS 7000 BKN050 17/08 Q1020 NOSIG
ZGSZ,2017-12-25 21:00,ZGSZ 252100Z 04003MPS 6000 BKN046 17/09 Q1020 NOSIG
ZGSZ,2017-12-25 22:00,ZGSZ 252200Z 05003MPS 6000 BKN046 16/10 Q1021 NOSIG
ZGSZ,2017-12-25 23:00,ZGSZ 252300Z 03002MPS 6000 NSC 16/09 Q1021 NOSIG
ZGSZ,2017-12-26 00:00,ZGSZ 260000Z 04003MPS 5000 HZ NSC 17/10 Q1022 NOSIG
ZGSZ,2017-12-26 01:00,ZGSZ 260100Z 04004MPS 4500 HZ BKN043 17/10 Q1023 NOSIG
ZGSZ,2017-12-26 02:00,ZGSZ 260200Z 04004MPS 5000 HZ NSC 18/08 Q1022 NOSIG
ZGSZ,2017-12-26 03:00,ZGSZ 260300Z 03004MPS 010V080 8000 NSC 21/03 Q1022 NOSIG
ZGSZ,2017-12-26 04:00,ZGSZ 260400Z 01003MPS 320V060 8000 NSC 23/03 Q1021 BECMG AT0540 31005MPS
ZGSZ,2017-12-26 05:00,ZGSZ 260500Z 02003MPS 290V100 8000 NSC 24/03 Q1020 BECMG AT0540 32005MPS
ZGSZ,2017-12-26 06:00,ZGSZ 260600Z 30004MPS 8000 NSC 22/06 Q1019 NOSIG
ZGSZ,2017-12-26 07:00,ZGSZ 260700Z 30004MPS 8000 NSC 22/09 Q1019 NOSIG
ZGSZ,2017-12-26 08:00,ZGSZ 260800Z 30006MPS 8000 NSC 21/09 Q1019 BECMG AT0940 08005MPS
ZGSZ,2017-12-26 09:00,ZGSZ 260900Z 31004MPS 7000 NSC 20/11 Q1019 NOSIG
ZGSZ,2017-12-26 10:00,ZGSZ 261000Z 33003MPS 6000 NSC 20/07 Q1019 NOSIG
ZGSZ,2017-12-26 11:00,ZGSZ 261100Z 35003MPS 5000 HZ NSC 19/07 Q1020 NOSIG
ZGSZ,2017-12-26 12:00,ZGSZ 261200Z VRB01MPS 5000 HZ NSC 17/06 Q1020 NOSIG
ZGSZ,2017-12-26 13:00,ZGSZ 261300Z 11002MPS 5000 HZ NSC 17/07 Q1021 NOSIG
ZGSZ,2017-12-26 14:00,ZGSZ 261400Z 18003MPS 4000 BR NSC 17/15 Q1022 BECMG AT1530 2500
ZGSZ,2017-12-26 15:00,ZGSZ 261500Z 12004MPS 5000 HZ NSC 16/11 Q1022 BECMG AT1530 2500
ZGSZ,2017-12-26 16:00,ZGSZ 261600Z 12004MPS 6000 NSC 16/12 Q1022 NOSIG
ZGSZ,2017-12-26 17:00,ZGSZ 261700Z 11003MPS 6000 NSC 16/12 Q1021 NOSIG
ZGSZ,2017-12-26 18:00,ZGSZ 261800Z 10003MPS 6000 NSC 16/12 Q1021 NOSIG
ZGSZ,2017-12-26 19:00,ZGSZ 261900Z 09002MPS 5000 BR NSC 16/12 Q1021 NOSIG
ZGSZ,2017-12-26 20:00,ZGSZ 262000Z 08002MPS 5000 BR NSC 16/12 Q1021 NOSIG
ZGSZ,2017-12-26 21:00,ZGSZ 262100Z VRB01MPS 5000 BR NSC 15/12 Q1021 NOSIG
ZGSZ,2017-12-26 22:00,ZGSZ 262200Z 00000MPS 4500 BR NSC 15/12 Q1021 NOSIG
ZGSZ,2017-12-26 23:00,ZGSZ 262300Z 04002MPS 4500 BR NSC 15/12 Q1022 NOSIG
ZGSZ,2017-12-27 00:00,ZGSZ 270000Z 03002MPS 5000 BR NSC 15/13 Q1023 NOSIG
ZGSZ,2017-12-27 01:00,ZGSZ 270100Z 10003MPS 060V130 5000 HZ NSC 17/12 Q1023 NOSIG
ZGSZ,2017-12-27 02:00,ZGSZ 270200Z 07002MPS 020V120 7000 NSC 19/12 Q1023 NOSIG
ZGSZ,2017-12-27 03:00,ZGSZ 270300Z VRB02MPS 7000 NSC 20/11 Q1023 NOSIG
ZGSZ,2017-12-27 04:00,ZGSZ 270400Z 25003MPS 7000 NSC 20/13 Q1021 NOSIG
ZGSZ,2017-12-27 05:00,ZGSZ 270500Z 28004MPS 5000 HZ NSC 20/13 Q1020 NOSIG
ZGSZ,2017-12-27 06:00,ZGSZ 270600Z 25003MPS 5000 HZ NSC 20/13 Q1019 NOSIG
ZGSZ,2017-12-27 07:00,ZGSZ 270700Z 22003MPS 5000 HZ NSC 20/13 Q1018 NOSIG
ZGSZ,2017-12-27 08:00,ZGSZ 270800Z 22003MPS 5000 HZ NSC 20/13 Q1018 NOSIG
ZGSZ,2017-12-27 09:00,ZGSZ 270900Z 18002MPS 150V210 5000 HZ NSC 20/14 Q1019 NOSIG
ZGSZ,2017-12-27 10:00,ZGSZ 271000Z 16003MPS 5000 HZ NSC 19/13 Q1019 NOSIG
ZGSZ,2017-12-27 11:00,ZGSZ 271100Z 17003MPS 5000 HZ NSC 19/12 Q1020 NOSIG
ZGSZ,2017-12-27 12:00,ZGSZ 271200Z 17002MPS 7000 NSC 18/15 Q1021 NOSIG
ZGSZ,2017-12-27 13:00,ZGSZ 271300Z 19002MPS 9000 NSC 18/15 Q1021 NOSIG
ZGSZ,2017-12-27 14:00,ZGSZ 271400Z 18002MPS CAVOK 18/15 Q1021 NOSIG
ZGSZ,2017-12-27 15:00,ZGSZ 271500Z VRB01MPS CAVOK 18/15 Q1021 NOSIG
ZGSZ,2017-12-27 16:00,ZGSZ 271600Z 12003MPS 080V140 9999 BKN040 18/13 Q1021 NOSIG
ZGSZ,2017-12-27 17:00,ZGSZ 271700Z 11004MPS 9999 BKN040 18/13 Q1021 NOSIG
ZGSZ,2017-12-27 18:00,ZGSZ 271800Z 12004MPS 9999 BKN040 18/13 Q1021 NOSIG
ZGSZ,2017-12-27 19:00,ZGSZ 271900Z 12003MPS CAVOK 18/13 Q1020 NOSIG
ZGSZ,2017-12-27 20:00,ZGSZ 272000Z 11003MPS CAVOK 18/13 Q1020 NOSIG
ZGSZ,2017-12-27 21:00,ZGSZ 272100Z 10002MPS 080V140 CAVOK 18/13 Q1020 NOSIG
ZGSZ,2017-12-27 22:00,ZGSZ 272200Z 00000MPS CAVOK 17/13 Q1020 NOSIG
ZGSZ,2017-12-27 23:00,ZGSZ 272300Z 02002MPS 9999 BKN040 18/13 Q1021 NOSIG
ZGSZ,2017-12-28 00:00,ZGSZ 280000Z 02002MPS 9999 BKN040 18/13 Q1021 NOSIG
ZGSZ,2017-12-28 01:00,ZGSZ 280100Z 05003MPS 9999 BKN040 19/13 Q1022 NOSIG
ZGSZ,2017-12-28 02:00,ZGSZ 280200Z 02003MPS 350V050 9000 BKN040 20/12 Q1022 NOSIG
ZGSZ,2017-12-28 03:00,ZGSZ 280300Z 02002MPS 9000 BKN040 20/13 Q1022 NOSIG
ZGSZ,2017-12-28 04:00,ZGSZ 280400Z 30003MPS 5000 HZ BKN040 20/14 Q1022 NOSIG
ZGSZ,2017-12-28 05:00,ZGSZ 280500Z 03004MPS 4000 HZ BKN040 21/12 Q1020 NOSIG
ZGSZ,2017-12-28 06:00,ZGSZ 280600Z 06003MPS 030V110 6000 BKN040 21/12 Q1019 NOSIG
ZGSZ,2017-12-28 07:00,ZGSZ 280700Z 06003MPS 6000 BKN040 21/12 Q1018 NOSIG
ZGSZ,2017-12-28 08:00,ZGSZ 280800Z 06003MPS 6000 -SHRA BKN040 21/13 Q1018 NOSIG
ZGSZ,2017-12-28 09:00,ZGSZ 280900Z 02003MPS 6000 BKN040 20/13 Q1019 NOSIG
ZGSZ,2017-12-28 10:00,ZGSZ 281000Z 07002MPS 030V100 6000 -SHRA NSC 20/14 Q1020 NOSIG
ZGSZ,2017-12-28 11:00,ZGSZ 281100Z 03003MPS 5000 HZ NSC 20/13 Q1020 NOSIG
ZGSZ,2017-12-28 12:00,ZGSZ 281200Z 02003MPS 5000 HZ NSC 19/12 Q1020 NOSIG
ZGSZ,2017-12-28 13:00,ZGSZ 281300Z 04003MPS 6000 NSC 19/12 Q1021 NOSIG
ZGSZ,2017-12-28 14:00,ZGSZ 281400Z 03004MPS 6000 NSC 19/13 Q1021 NOSIG
ZGSZ,2017-12-28 15:00,ZGSZ 281500Z 05003MPS 5000 HZ NSC 18/13 Q1021 NOSIG
ZGSZ,2017-12-28 16:00,ZGSZ 281600Z 06003MPS 030V090 5000 HZ NSC 18/13 Q1021 NOSIG
ZGSZ,2017-12-28 17:00,ZGSZ 281700Z 03003MPS 5000 HZ NSC 18/13 Q1021 NOSIG
ZGSZ,2017-12-28 18:00,ZGSZ 281800Z 02003MPS 5000 HZ NSC 18/13 Q1021 NOSIG
ZGSZ,2017-12-28 19:00,ZGSZ 281900Z 03004MPS 5000 HZ NSC 18/13 Q1021 NOSIG
ZGSZ,2017-12-28 20:00,ZGSZ 282000Z 03004MPS 6000 NSC 18/13 Q1021 NOSIG
ZGSZ,2017-12-28 21:00,ZGSZ 282100Z 04003MPS 7000 NSC 18/13 Q1021 NOSIG
ZGSZ,2017-12-28 22:00,ZGSZ 282200Z 06002MPS 010V090 8000 NSC 18/13 Q1021 NOSIG
ZGSZ,2017-12-28 23:00,ZGSZ 282300Z 05004MPS 6000 NSC 17/13 Q1021 NOSIG
ZGSZ,2017-12-29 00:00,ZGSZ 290000Z 33002MPS 300V020 6000 NSC 18/13 Q1022 NOSIG
ZGSZ,2017-12-29 01:00,ZGSZ 290100Z 03004MPS 6000 NSC 19/13 Q1022 NOSIG
ZGSZ,2017-12-29 02:00,ZGSZ 290200Z 03003MPS 350V060 8000 NSC 21/13 Q1023 NOSIG
ZGSZ,2017-12-29 03:00,ZGSZ 290300Z 02004MPS 350V060 8000 NSC 23/13 Q1022 BECMG TL0450 30005MPS
ZGSZ,2017-12-29 04:00,ZGSZ 290400Z 04004MPS 350V080 CAVOK 24/12 Q1021 BECMG TL0540 30005MPS
ZGSZ,2017-12-29 05:00,ZGSZ 290500Z 02004MPS 350V050 CAVOK 25/12 Q1020 NOSIG
ZGSZ,2017-12-29 06:00,ZGSZ 290600Z 22002MPS 190V250 CAVOK 25/13 Q1019 NOSIG
ZGSZ,2017-12-29 07:00,ZGSZ 290700Z 25003MPS 220V280 8000 NSC 23/14 Q1019 NOSIG
ZGSZ,2017-12-29 08:00,ZGSZ 290800Z 18005MPS 4500 HZ NSC 21/16 Q1019 NOSIG
ZGSZ,2017-12-29 09:00,ZGSZ 290900Z 19005MPS CAVOK 20/16 Q1019 BECMG TL1030 12004MPS
ZGSZ,2017-12-29 10:00,ZGSZ 291000Z 18004MPS CAVOK 19/16 Q1020 NOSIG
ZGSZ,2017-12-29 11:00,ZGSZ 291100Z 17003MPS CAVOK 19/16 Q1020 NOSIG
ZGSZ,2017-12-29 12:00,ZGSZ 291200Z 13003MPS 100V170 CAVOK 19/15 Q1021 NOSIG
ZGSZ,2017-12-29 13:00,ZGSZ 291300Z 12004MPS CAVOK 19/14 Q1022 NOSIG
ZGSZ,2017-12-29 14:00,ZGSZ 291400Z 11006MPS CAVOK 18/14 Q1022 NOSIG
ZGSZ,2017-12-29 15:00,ZGSZ 291500Z 12006MPS CAVOK 18/14 Q1022 NOSIG
ZGSZ,2017-12-29 16:00,ZGSZ 291600Z 11004MPS CAVOK 18/14 Q1022 NOSIG
ZGSZ,2017-12-29 17:00,ZGSZ 291700Z 09004MPS 060V130 CAVOK 18/14 Q1022 NOSIG
ZGSZ,2017-12-29 18:00,ZGSZ 291800Z 10003MPS 080V140 CAVOK 17/14 Q1022 NOSIG
ZGSZ,2017-12-29 19:00,ZGSZ 291900Z 12002MPS CAVOK 17/14 Q1022 NOSIG
ZGSZ,2017-12-29 20:00,ZGSZ 292000Z 01002MPS 340V060 CAVOK 17/14 Q1022 NOSIG
ZGSZ,2017-12-29 21:00,ZGSZ 292100Z 06004MPS 040V100 CAVOK 18/14 Q1021 NOSIG
ZGSZ,2017-12-29 22:00,ZGSZ 292200Z 05004MPS CAVOK 18/14 Q1022 NOSIG
ZGSZ,2017-12-29 23:00,ZGSZ 292300Z 06003MPS 040V130 CAVOK 18/14 Q1022 NOSIG
ZGSZ,2017-12-30 00:00,ZGSZ 300000Z 06002MPS 020V160 CAVOK 18/14 Q1023 NOSIG
ZGSZ,2017-12-30 01:00,ZGSZ 300100Z 02004MPS 350V050 6000 NSC 20/14 Q1024 NOSIG
ZGSZ,2017-12-30 02:00,ZGSZ 300200Z 04004MPS 5000 HZ NSC 20/14 Q1024 NOSIG
ZGSZ,2017-12-30 03:00,ZGSZ 300300Z 02005MPS 8000 NSC 23/14 Q1023 NOSIG
ZGSZ,2017-12-30 04:00,ZGSZ 300400Z 02005MPS 340V040 CAVOK 24/14 Q1022 NOSIG
ZGSZ,2017-12-30 05:00,ZGSZ 300500Z 01005MPS 340V040 CAVOK 24/14 Q1021 NOSIG
ZGSZ,2017-12-30 06:00,ZGSZ 300600Z 02005MPS 340V050 CAVOK 26/13 Q1020 NOSIG
ZGSZ,2017-12-30 07:00,ZGSZ 300700Z 36006MPS CAVOK 25/13 Q1019 NOSIG
ZGSZ,2017-12-30 08:00,ZGSZ 300800Z 36005MPS CAVOK 25/14 Q1019 NOSIG
ZGSZ,2017-12-30 09:00,ZGSZ 300900Z 36004MPS CAVOK 24/13 Q1019 NOSIG
ZGSZ,2017-12-30 10:00,ZGSZ 301000Z 36006MPS CAVOK 23/13 Q1020 NOSIG
ZGSZ,2017-12-30 11:00,ZGSZ 301100Z 34006MPS CAVOK 22/14 Q1020 NOSIG
ZGSZ,2017-12-30 12:00,ZGSZ 301200Z 34007MPS CAVOK 21/13 Q1021 NOSIG
ZGSZ,2017-12-30 13:00,ZGSZ 301300Z 36006MPS CAVOK 21/12 Q1022 NOSIG
ZGSZ,2017-12-30 14:00,ZGSZ 301400Z 02007MPS CAVOK 20/11 Q1022 NOSIG
ZGSZ,2017-12-30 15:00,ZGSZ 301500Z 02006MPS CAVOK 19/11 Q1023 NOSIG
ZGSZ,2017-12-30 16:00,ZGSZ 301600Z 02007MPS CAVOK 18/10 Q1023 NOSIG
ZGSZ,2017-12-30 17:00,ZGSZ 301700Z 01006MPS CAVOK 18/10 Q1023 NOSIG
ZGSZ,2017-12-30 18:00,ZGSZ 301800Z 02007MPS CAVOK 17/09 Q1023 NOSIG
ZGSZ,2017-12-30 19:00,ZGSZ 301900Z 02007MPS CAVOK 17/09 Q1023 NOSIG
ZGSZ,2017-12-30 20:00,ZGSZ 302000Z 02007MPS CAVOK 16/08 Q1023 NOSIG
ZGSZ,2017-12-30 21:00,ZGSZ 302100Z 02006MPS CAVOK 16/07 Q1023 NOSIG
ZGSZ,2017-12-30 22:00,ZGSZ 302200Z 02006MPS CAVOK 16/07 Q1023 NOSIG
ZGSZ,2017-12-30 23:00,ZGSZ 302300Z 02006MPS CAVOK 16/07 Q1024 NOSIG
